##########################################################
# Query made at 04/19/2024 21:48:29 UTC
# Time interval: from 11/01/2015 12:00  to 11/30/2015 12:59  UTC
##########################################################

##########################################################
# ESMX, Vaxjo (Sweden)
# WMO index: 02641. WIGOS ID: 0-20000-0-02648
# Latitude 56-51N. Longitude 014-50E. Altitude 199 m.
##########################################################

201511301250 METAR ESMX 301250Z 25019G30KT 9999 FEW028 SCT031 BKN036 05/01 Q0993=
201511301220 METAR ESMX 301220Z 25018G30KT 9999 FEW029 SCT032 BKN037 05/00 Q0992=
201511301150 METAR COR ESMX 301150Z 25020G33KT 9999 FEW028 SCT033 BKN038 05/00 Q0992=
201511301120 METAR ESMX 301120Z 25020G33KT 9999 FEW024 SCT030 BKN035 06/01 Q0992=
201511301050 METAR ESMX 301050Z 25018G33KT 9999 SCT029 BKN038 05/01 Q0991=
201511301020 METAR ESMX 301020Z 26016G27KT 9999 FEW025 SCT027 05/01 Q0991=
201511300950 METAR ESMX 300950Z 25017G29KT 9999 FEW021 SCT025 BKN030 05/01 Q0991 RESHUP=
201511300920 METAR ESMX 300920Z 25017G28KT 210V280 9999 FEW016 BKN020 OVC025 05/02 Q0990 REUP=
201511300850 METAR ESMX 300850Z 25012KT 9999 FEW013 BKN017 OVC021 04/02 Q0990=
201511300820 METAR ESMX 300820Z 26014G24KT 9999 FEW014 SCT017 BKN023 04/02 Q0989 RESHUP RERA=
201511300750 METAR ESMX 300750Z 25011KT 9999 FEW013 SCT018 BKN028 04/02 Q0989=
201511300720 METAR ESMX 300720Z 24013KT 9000 -RA SCT012 BKN016 BKN024 04/02 Q0988=
201511300650 METAR ESMX 300650Z 24015KT 9000 -RA FEW013 BKN016 BKN021 04/02 Q0987 RERA=
201511300620 METAR ESMX 300620Z 25015G27KT 9999 FEW017 BKN020 BKN026 04/01 Q0987=
201511300550 METAR ESMX 300550Z 25015G26KT 9999 -RA FEW019 SCT024 BKN028 04/01 Q0986=
201511300520 METAR ESMX 300520Z 23014KT 9999 FEW012 SCT021 BKN027 04/01 Q0986=
201511300450 METAR ESMX 300450Z 25016KT 9999 FEW022 SCT042 04/01 Q0986=
201511300420 METAR ESMX 300420Z AUTO 25015G27KT 9999 FEW022/// 03/01 Q0985=
201511300350 METAR ESMX 300350Z AUTO 26015G28KT 220V280 9999 FEW016/// BKN020/// BKN033/// 03/01 Q0985=
201511300320 METAR ESMX 300320Z AUTO 26016KT 9999 FEW017/// BKN020/// BKN029/// 03/01 Q0984 RESHUP REDZ=
201511300250 METAR ESMX 300250Z AUTO 26017G27KT 9999 FEW014/// SCT018/// BKN022/// 03/01 Q0984=
201511300220 METAR ESMX 300220Z AUTO 25017G28KT 220V280 9999 FEW014/// SCT020/// BKN024/// 03/01 Q0983 RESHUP REUP=
201511300150 METAR ESMX 300150Z AUTO 26017G29KT 9999 FEW016/// SCT019/// BKN025/// 03/01 Q0982=
201511300120 METAR ESMX 300120Z AUTO 27018G32KT 9999 FEW014/// SCT019/// BKN022/// 03/01 Q0981=
201511300050 METAR ESMX 300050Z AUTO 27018G31KT 9999 FEW012/// 02/00 Q0980=
201511300020 METAR ESMX 300020Z AUTO 28030G52KT 1900 -SN FEW002/// SCT006/// BKN009/// 01/00 Q0977 RERA=
201511292350 METAR ESMX 292350Z 26030G46KT 230V300 5000 -RA FEW006 BKN010 02/01 Q0973=
201511292320 METAR ESMX 292320Z 19018KT 2800 -RA FEW007 BKN009 BKN012 04/03 Q0971=
201511292250 METAR ESMX 292250Z 19025KT 9000 -RA SCT013 BKN020 BKN027 04/03 Q0971=
201511292220 METAR ESMX 292220Z 18029G44KT 9000 -RA FEW012 SCT021 BKN025 06/03 Q0972=
201511292150 METAR ESMX 292150Z 17020G33KT 9999 FEW012 SCT017 BKN021 06/04 Q0975=
201511292120 METAR ESMX 292120Z 17019KT 9999 FEW009 BKN012 OVC019 06/05 Q0977=
201511292050 METAR ESMX 292050Z 17019G31KT 9999 -RA BKN008 OVC016 06/05 Q0979=
201511292020 METAR ESMX 292020Z 17018G29KT 9999 -RA BKN008 OVC014 06/04 Q0980=
201511291950 METAR ESMX 291950Z 16016KT 8000 RA SCT005 BKN009 05/04 Q0982=
201511291920 METAR ESMX 291920Z 16013KT 9999 -RA BKN006 OVC009 05/04 Q0984=
201511291850 METAR ESMX 291850Z 16011KT 9999 BKN007 OVC011 05/04 Q0986=
201511291820 METAR ESMX 291820Z 17011KT 9999 BKN008 OVC013 05/04 Q0987=
201511291750 METAR ESMX 291750Z 17012KT 9999 FEW006 BKN010 OVC016 04/03 Q0988=
201511291720 METAR ESMX 291720Z 17009KT 9999 FEW007 SCT010 BKN013 04/03 Q0990=
201511291650 METAR ESMX 291650Z 19010KT 9999 FEW010 SCT018 BKN022 04/03 Q0990=
201511291620 METAR ESMX 291620Z 19012KT 9999 -RA FEW009 04/03 Q0991=
201511291550 METAR ESMX 291550Z 19012KT 9999 FEW007 BKN010 BKN065 03/02 Q0991=
201511291520 METAR ESMX 291520Z 21011KT 9999 FEW014 SCT016 03/02 Q0992=
201511291450 METAR ESMX 291450Z 21010KT 9999 FEW019 03/02 Q0992=
201511291420 METAR ESMX 291420Z 21009KT 9999 FEW033 03/02 Q0992 RERA=
201511291350 METAR ESMX 291350Z 23010KT 210V270 9999 FEW005 SCT044 03/02 Q0991=
201511291320 METAR ESMX 291320Z 23010KT 2700 RA FEW005 SCT009 BKN014 04/03 Q0991=
201511291250 METAR ESMX 291250Z 18010KT 9999 FEW009 SCT014 BKN045 03/02 Q0991=
201511291220 METAR ESMX 291220Z 20010KT 9999 FEW010 SCT016 BKN023 03/02 Q0991=
201511291150 METAR COR ESMX 291150Z 22012KT 9999 DZ FEW010 SCT032 BKN052 03/02 Q0992=
201511291120 METAR ESMX 291120Z 20015KT 9999 -RA FEW008 BKN010 BKN054 02/01 Q0992=
201511291050 METAR ESMX 291050Z 21016KT 9999 -RASN FEW016 04/02 Q0992=
201511291020 METAR ESMX 291020Z 22014KT 9999 -RA FEW009 SCT013 BKN016 04/03 Q0992=
201511290950 METAR ESMX 290950Z AUTO 20013KT 9999 RA FEW007/// SCT010/// BKN013/// 04/04 Q0992 RERA=
201511290920 METAR ESMX 290920Z AUTO 20010KT 9999 -DZ FEW013/// SCT016/// BKN024/// 04/03 Q0992=
201511290850 METAR ESMX 290850Z AUTO 20011KT 2700 +RA FEW005/// BKN007/// OVC010/// 04/03 Q0993 RESHUP RESHRA RERA=
201511290820 METAR ESMX 290820Z AUTO 19012KT 9999 FEW005/// BKN006/// OVC010/// 04/03 Q0992=
201511290750 METAR ESMX 290750Z AUTO 18013KT 9999 FEW005/// BKN006/// OVC009/// 03/02 Q0992=
201511290720 METAR ESMX 290720Z 18016KT 6000 -RA FEW005 BKN007 OVC010 03/02 Q0992 REDZ=
201511290650 METAR ESMX 290650Z 18015G26KT 5000 DZ FEW006 BKN008 OVC011 03/02 Q0992=
201511290620 METAR ESMX 290620Z 17017KT 8000 DZ FEW008 SCT009 OVC011 03/02 Q0992=
201511290550 METAR ESMX 290550Z AUTO 17015G25KT 9999 -RA FEW008/// BKN010/// OVC014/// 04/03 Q0993=
201511290520 METAR ESMX 290520Z AUTO 17014KT 9999 DZ FEW007/// BKN008/// OVC011/// 04/03 Q0993 REUP RESHUP=
201511290450 METAR ESMX 290450Z AUTO 17014KT 9999 UP OVC007/// 04/03 Q0994=
201511290420 METAR ESMX 290420Z AUTO 17017KT 9999 FEW008/// BKN010/// OVC013/// 04/02 Q0994=
201511290350 METAR ESMX 290350Z AUTO 17014KT 9999 FEW008/// OVC009/// 03/02 Q0995=
201511290320 METAR ESMX 290320Z AUTO 17013KT 9999 FEW008/// OVC010/// 03/02 Q0996=
201511290250 METAR ESMX 290250Z AUTO 17012KT 9999 FEW010/// SCT014/// BKN020/// 03/02 Q0997=
201511290220 METAR ESMX 290220Z AUTO 17014KT 9999 FEW006/// SCT008/// BKN011/// 03/02 Q0997=
201511290150 METAR ESMX 290150Z AUTO 18016KT 9999 OVC004/// 03/02 Q0998=
201511290120 METAR ESMX 290120Z AUTO 19013KT 9999 OVC004/// 02/02 Q0999=
201511290050 METAR ESMX 290050Z AUTO 19013KT 9999 OVC003/// 02/01 Q0999=
201511290020 METAR ESMX 290020Z AUTO 19012KT 9999 OVC004/// 02/01 Q1000=
201511282350 METAR ESMX 282350Z AUTO 18010KT 9999 FEW006/// SCT033/// BKN042/// 01/01 Q1000=
201511282320 METAR ESMX 282320Z AUTO 19009KT 9999 FEW002/// SCT005/// 01/00 Q1000=
201511282250 METAR ESMX 282250Z AUTO 19010KT 9999 OVC002/// 01/01 Q1001=
201511282220 METAR ESMX 282220Z AUTO 20009KT 9999 OVC002/// 01/01 Q1001=
201511282150 METAR ESMX 282150Z 19009KT 9999 SCT002 BKN005 01/01 Q1001=
201511282120 METAR ESMX 282120Z 18007KT CAVOK 01/00 Q1001=
201511282050 METAR COR ESMX 282050Z 19007KT CAVOK 01/00 Q1001=
201511282020 METAR ESMX 282020Z 21007KT CAVOK 01/00 Q1001=
201511281950 METAR ESMX 281950Z 21007KT CAVOK 01/01 Q1001=
201511281920 METAR ESMX 281920Z 22007KT CAVOK 01/01 Q1001=
201511281850 METAR ESMX 281850Z AUTO 22007KT 9999 NCD 01/01 Q1000=
201511281820 METAR ESMX 281820Z AUTO 20006KT 9999 NCD 02/01 Q1000=
201511281750 METAR ESMX 281750Z AUTO 22006KT 9999 NCD 02/01 Q1000=
201511281720 METAR ESMX 281720Z AUTO 22007KT 9999 FEW026/// 02/02 Q0999=
201511281650 METAR ESMX 281650Z AUTO 23007KT 9999 NCD 02/02 Q0999=
201511281620 METAR ESMX 281620Z AUTO 23007KT 9999 NCD 03/02 Q0999=
201511281550 METAR ESMX 281550Z AUTO 23007KT 9999 NCD 02/02 Q0998=
201511281520 METAR ESMX 281520Z AUTO 21007KT 9999 NCD 02/02 Q0998=
201511281450 METAR ESMX 281450Z AUTO 21006KT 9999 FEW025/// 02/01 Q0998=
201511281420 METAR ESMX 281420Z AUTO 20005KT 9999 FEW003/// SCT005/// BKN008/// 02/02 Q0997 REDZ=
201511281350 METAR ESMX 281350Z AUTO 22005KT 9999 DZ FEW004/// BKN005/// OVC008/// 02/02 Q0997=
201511281320 METAR ESMX 281320Z AUTO 22006KT 6000 -RA OVC004/// 02/01 Q0997=
201511281250 METAR ESMX 281250Z AUTO 20008KT 6000 -RA OVC004/// 02/01 Q0997=
201511281220 METAR ESMX 281220Z AUTO 21010KT 4500 RA FEW004/// BKN005/// BKN007/// 02/01 Q0997=
201511281150 METAR ESMX 281150Z AUTO 19012KT 6000 -RA FEW005/// BKN007/// 03/02 Q0996=
201511281120 METAR ESMX 281120Z AUTO 19013KT 6000 -RA FEW005/// SCT006/// BKN008/// 03/02 Q0996=
201511281050 METAR ESMX 281050Z AUTO 19013KT 5000 -RA FEW006/// BKN007/// OVC011/// 04/03 Q0996=
201511281020 METAR ESMX 281020Z 19014KT 6000 -RA BKN006 OVC009 04/03 Q0996=
201511280950 METAR ESMX 280950Z 18015KT 8000 -RA BKN005 OVC008 04/03 Q0996=
201511280920 METAR ESMX 280920Z 18015KT 6000 -RA OVC005 04/03 Q0997=
201511280850 METAR ESMX 280850Z AUTO 18013KT 5000 -RA OVC005/// 04/03 Q0997 REDZ REUP=
201511280820 METAR ESMX 280820Z AUTO 17015KT 9999 OVC004/// 04/03 Q0997=
201511280750 METAR ESMX 280750Z AUTO 17014KT 9999 OVC005/// 04/03 Q0997=
201511280720 METAR ESMX 280720Z AUTO 17014KT 4900 -DZ BKN005/// OVC008/// 04/03 Q0997 REDZ REUP=
201511280650 METAR ESMX 280650Z AUTO 17015KT 6000 BR OVC007/// 04/02 Q0997 REDZ=
201511280620 METAR ESMX 280620Z AUTO 18014KT 9999 OVC008/// 04/02 Q0997=
201511280550 METAR ESMX 280550Z AUTO 17014KT 9999 -DZ OVC008/// 04/02 Q0997=
201511280520 METAR ESMX 280520Z AUTO 17015KT 9999 -RA OVC010/// 04/02 Q0998 RESHUP REUP=
201511280450 METAR ESMX 280450Z AUTO 17012KT 9999 OVC010/// 04/02 Q0998=
201511280420 METAR ESMX 280420Z AUTO 16014KT 9999 OVC011/// 04/02 Q0998=
201511280350 METAR ESMX 280350Z AUTO 17012KT 9999 OVC011/// 04/02 Q0999=
201511280320 METAR ESMX 280320Z AUTO 17011KT 9999 BKN011/// OVC017/// 04/02 Q0999=
201511280250 METAR ESMX 280250Z AUTO 17014KT 9999 OVC010/// 04/02 Q1000=
201511280220 METAR ESMX 280220Z AUTO 17012KT 9999 OVC009/// 04/02 Q1000=
201511280150 METAR ESMX 280150Z AUTO 17014KT 9999 OVC009/// 04/02 Q1001=
201511280120 METAR ESMX 280120Z AUTO 18012KT 9999 OVC009/// 04/02 Q1001=
201511280050 METAR ESMX 280050Z AUTO 17015KT 9999 OVC009/// 04/02 Q1002=
201511280020 METAR ESMX 280020Z AUTO 18014KT 9999 OVC006/// 04/03 Q1002=
201511272350 METAR ESMX 272350Z AUTO 18015KT 9000 BR OVC005/// 04/03 Q1003=
201511272320 METAR ESMX 272320Z AUTO 18016KT 7000 BR OVC005/// 04/03 Q1003=
201511272250 METAR ESMX 272250Z AUTO 18016KT 6000 BR OVC005/// 04/03 Q1003=
201511272220 METAR ESMX 272220Z AUTO 18016KT 6000 BR OVC004/// 04/03 Q1004=
201511272150 METAR ESMX 272150Z AUTO 19017KT 5000 BR OVC004/// 04/03 Q1004=
201511272120 METAR ESMX 272120Z AUTO 18016KT 6000 BR OVC005/// 05/04 Q1004=
201511272050 METAR ESMX 272050Z 18018KT 8000 BR OVC006 05/04 Q1005=
201511272020 METAR ESMX 272020Z 18016KT 9000 BR OVC006 05/04 Q1005=
201511271950 METAR ESMX 271950Z 19015KT 9999 OVC006 05/04 Q1005=
201511271920 METAR ESMX 271920Z 18013KT 9999 SCT008 OVC011 05/04 Q1005=
201511271850 METAR ESMX 271850Z 18013KT 9999 FEW009 BKN011 OVC018 05/04 Q1006=
201511271820 METAR ESMX 271820Z 19014KT 9999 FEW007 BKN009 OVC018 05/04 Q1006=
201511271750 METAR ESMX 271750Z 19013KT 9000 BR FEW006 OVC007 05/04 Q1006=
201511271720 METAR ESMX 271720Z 19014KT 7000 BR OVC006 06/04 Q1006=
201511271650 METAR ESMX 271650Z 19014KT 9999 OVC006 06/04 Q1006=
201511271620 METAR ESMX 271620Z 19014KT 9999 OVC006 06/05 Q1006=
201511271550 METAR ESMX 271550Z 19013KT 9999 OVC006 06/05 Q1007=
201511271520 METAR ESMX 271520Z 19013KT 9999 OVC007 06/05 Q1007=
201511271450 METAR ESMX 271450Z 19013KT 9999 OVC007 06/05 Q1007=
201511271420 METAR ESMX 271420Z 19013KT 9999 BKN007 OVC009 06/05 Q1007=
201511271350 METAR ESMX 271350Z 19012KT 9999 OVC007 06/05 Q1007=
201511271320 METAR ESMX 271320Z 19012KT 9999 BKN008 OVC010 06/05 Q1008=
201511271250 METAR ESMX 271250Z 20012KT 9999 BKN006 OVC009 06/05 Q1008=
201511271220 METAR ESMX 271220Z 19014KT 9999 BKN006 OVC009 06/05 Q1008=
201511271150 METAR ESMX 271150Z 20013KT 9999 BKN006 OVC010 06/05 Q1009=
201511271120 METAR ESMX 271120Z 21011KT 9999 OVC006 06/05 Q1009=
201511271050 METAR ESMX 271050Z 20013KT 9999 BKN005 OVC009 06/05 Q1009=
201511271020 METAR ESMX 271020Z 19011KT 9999 BKN004 OVC007 05/05 Q1010=
201511270950 METAR ESMX 270950Z 20013KT 9999 OVC004 05/04 Q1010=
201511270920 METAR ESMX 270920Z 20012KT 9999 OVC005 05/04 Q1010=
201511270850 METAR ESMX 270850Z 20011KT 9999 OVC004 05/04 Q1010=
201511270820 METAR ESMX 270820Z 22012KT 9999 OVC003 05/04 Q1010=
201511270750 METAR ESMX 270750Z 20011KT 9999 OVC003 04/04 Q1010=
201511270720 METAR ESMX 270720Z 20010KT 9999 OVC003 04/03 Q1010=
201511270650 METAR ESMX 270650Z 20012KT 9999 OVC004 04/03 Q1010=
201511270620 METAR ESMX 270620Z 20012KT 9999 OVC003 04/03 Q1010=
201511270550 METAR ESMX 270550Z 20010KT 9999 OVC004 04/03 Q1010=
201511270520 METAR ESMX 270520Z 21010KT 9999 OVC004 04/03 Q1011=
201511270450 METAR ESMX 270450Z 21009KT 9999 FEW006 BKN008 OVC028 03/02 Q1011=
201511270420 METAR ESMX 270420Z AUTO 20009KT 9999 FEW004/// SCT006/// OVC028/// 02/02 Q1011=
201511270350 METAR ESMX 270350Z AUTO 19008KT 9000 BR FEW003/// BKN004/// OVC006/// 02/01 Q1011=
201511270320 METAR ESMX 270320Z AUTO 21008KT 9000 BR OVC004/// 02/01 Q1012=
201511270250 METAR ESMX 270250Z AUTO 21007KT 9999 OVC005/// 02/01 Q1012=
201511270220 METAR ESMX 270220Z AUTO 20007KT 9999 BKN004/// OVC007/// 02/01 Q1012=
201511270150 METAR ESMX 270150Z AUTO 21010KT 9999 OVC002/// 02/02 Q1012=
201511270120 METAR ESMX 270120Z AUTO 22010KT 7000 BR OVC001/// 02/02 Q1012=
201511270050 METAR ESMX 270050Z AUTO 21010KT 6000 BR OVC001/// 02/02 Q1012=
201511270020 METAR ESMX 270020Z 21010KT 8000 BR OVC002 02/02 Q1013=
201511262350 METAR ESMX 262350Z 22009KT 8000 BR OVC002 02/01 Q1013=
201511262320 METAR ESMX 262320Z 21009KT 9999 OVC002 02/01 Q1013=
201511262250 METAR ESMX 262250Z 21010KT 9999 OVC002 02/01 Q1013=
201511262220 METAR ESMX 262220Z 20010KT 8000 BR OVC002 02/01 Q1013=
201511262150 METAR ESMX 262150Z 22008KT 7000 BR OVC002 02/02 Q1013=
201511262120 METAR ESMX 262120Z 20008KT 5000 BR OVC002 02/02 Q1013=
201511262050 METAR ESMX 262050Z 22007KT 7000 BR OVC002 02/02 Q1013=
201511262020 METAR ESMX 262020Z 23006KT 9999 BKN003 OVC006 02/02 Q1014=
201511261950 METAR ESMX 261950Z 22007KT 9999 FEW003 BKN005 OVC008 01/01 Q1013=
201511261920 METAR ESMX 261920Z 21009KT 9999 SCT001 BKN003 OVC005 02/02 Q1013=
201511261850 METAR ESMX 261850Z 20008KT 0900 R01/P2000N R19/P2000N FG OVC002 02/02 Q1013=
201511261820 METAR ESMX 261820Z 18004KT 8000 BR OVC002 02/01 Q1013=
201511261750 METAR ESMX 261750Z 19005KT 7000 BR OVC001 02/02 Q1013=
201511261720 METAR ESMX 261720Z 18005KT 7000 BR BKN002 OVC016 02/02 Q1013=
201511261650 METAR ESMX 261650Z 21005KT 2400 OVC001 02/02 Q1012=
201511261620 METAR ESMX 261620Z 21005KT 0900 R01/P2000N R19/P2000N FG VV002 02/02 Q1012=
201511261550 METAR ESMX 261550Z 23006KT 1000 R01/P2000N R19/P2000N VV002 02/02 Q1012=
201511261520 METAR ESMX 261520Z 23007KT 0600 R01/1800D R19/P2000D FG VV002 02/02 Q1012=
201511261450 METAR ESMX 261450Z 22005KT 0400 R01/0900N R19/1200U FG VV002 02/02 Q1011=
201511261420 METAR ESMX 261420Z 20005KT 0300 R01/0700N R19/0750N FG VV002 02/02 Q1011=
201511261350 METAR ESMX 261350Z 21005KT 0400 R01/1000N R19/0650N FG VV002 02/02 Q1011=
201511261320 METAR ESMX 261320Z 22005KT 0400 R01/0700N R19/P2000N FG OVC001 03/03 Q1011=
201511261250 METAR ESMX 261250Z 20005KT 0900 R01/P2000N R19/1200U FG VV002 03/03 Q1010=
201511261220 METAR ESMX 261220Z 20004KT 2500 BR VV002 03/03 Q1010=
201511261150 METAR ESMX 261150Z 23004KT 4900 VV002 03/03 Q1010=
201511261120 METAR ESMX 261120Z VRB03KT 1300 R01/1400U R19/1700N VV002 03/03 Q1009=
201511261050 METAR COR ESMX 261050Z 21004KT 160V240 0350 R01/0700N R19/0650N FG VV002 03/03 Q1009=
201511261020 METAR ESMX 261020Z 18004KT 0150 R01/0375N R19/0450N FG VV002 02/02 Q1009=
201511260950 METAR ESMX 260950Z 19005KT 0350 R01/0650D R19/0800N FG VV002 02/02 Q1009=
201511260920 METAR ESMX 260920Z 21004KT 0700 R01/1300D R19/1700U FG VV002 03/03 Q1008=
201511260850 METAR ESMX 260850Z 15003KT 0700 R01/1000U R19/1100D FG VV002 03/03 Q1008=
201511260820 METAR ESMX 260820Z 00000KT 0400 R01/1200U R19/0700N FG VV002 03/02 Q1008=
201511260750 METAR ESMX 260750Z 00000KT 0300 R01/0600N R19/0600N FG VV002 02/02 Q1007=
201511260720 METAR ESMX 260720Z 00000KT 0300 R01/0750N R19/1000N FG VV002 02/02 Q1007=
201511260650 METAR ESMX 260650Z 00000KT 0400 R01/1000N R19/1400D FG VV002 02/02 Q1006=
201511260620 METAR ESMX 260620Z 00000KT 0500 R01/1600D R19/P2000N FG VV002 02/02 Q1006=
201511260550 METAR ESMX 260550Z 00000KT 0250 R01/0750N R19/P2000N FG VV002 02/02 Q1005=
201511260520 METAR COR ESMX 260520Z 00000KT 0150 R01/0600N R19/1000U FG OVC002 02/02 Q1005=
201511260450 METAR ESMX 260450Z 30002KT 0250 R01/0800N R19/0900N FG VV002 02/02 Q1005=
201511260420 METAR ESMX 260420Z AUTO 00000KT 0300 R01/0900N R19/1000N FG VV002 02/02 Q1004=
201511260350 METAR ESMX 260350Z AUTO VRB01KT 0450 R01/1200D R19/1200U FG VV002 02/02 Q1004=
201511260320 METAR ESMX 260320Z AUTO 13002KT 0300 R01/1100U R19/0800N FG VV001 02/02 Q1004=
201511260250 METAR ESMX 260250Z AUTO 00000KT 0250 R01/0750N R19/0800N FG VV002 02/02 Q1003=
201511260220 METAR ESMX 260220Z AUTO VRB02KT 0250 R01/0800N R19/1000D FG VV002 02/02 Q1003=
201511260150 METAR ESMX 260150Z AUTO 00000KT 0300 R01/0900N R19/0900N FG VV002 02/02 Q1003=
201511260120 METAR ESMX 260120Z AUTO 00000KT 0200 R01/0650N R19/0900D FG VV002 02/02 Q1003=
201511260050 METAR ESMX 260050Z AUTO 00000KT 0350 R01/1000D R19/1000N FG VV002 02/02 Q1002=
201511260020 METAR ESMX 260020Z 00000KT 0400 R01/1100N R19/1200D FG VV002 02/02 Q1002=
201511252350 METAR ESMX 252350Z 21003KT 0250 R01/0800N R19/0900D FG VV002 02/02 Q1002=
201511252320 METAR ESMX 252320Z 19003KT 0450 R01/1600U R19/1200U FG VV002 02/02 Q1002=
201511252250 METAR ESMX 252250Z 19003KT 0450 R01/1300N R19/1600N FG VV002 02/02 Q1001=
201511252220 METAR ESMX 252220Z 18003KT 0900 R01/P2000N R19/P2000N FG VV002 02/02 Q1001=
201511252150 METAR ESMX 252150Z 19003KT 0500 R01/1300N R19/1500U FG VV002 02/02 Q1001=
201511252120 METAR ESMX 252120Z 18003KT 1000 R01/P2000N R19/P2000N FG VV002 02/02 Q1001=
201511252050 METAR COR ESMX 252050Z 17003KT 0900 R01/P2000N R19/P2000N FG VV002 02/02 Q1001=
201511252020 METAR ESMX 252020Z 18003KT 0900 R01/P2000N R19/P2000N FG VV002 02/02 Q1001=
201511251950 METAR ESMX 251950Z 17003KT 1200 R01/P2000N R19/P2000N BR OVC002 02/02 Q1001 REDZ=
201511251920 METAR ESMX 251920Z 19003KT 7000 BR OVC002 02/01 Q1000=
201511251850 METAR ESMX 251850Z 17004KT 9999 OVC003 02/01 Q1000=
201511251820 METAR ESMX 251820Z 16004KT 9999 -DZ OVC002 02/01 Q1000=
201511251750 METAR ESMX 251750Z 16004KT 9999 -RA OVC002 02/01 Q1000=
201511251720 METAR ESMX 251720Z 16004KT 9999 OVC003 02/01 Q1000=
201511251650 METAR ESMX 251650Z 16004KT 9000 -RA OVC003 02/01 Q1000=
201511251620 METAR ESMX 251620Z 16005KT 9999 -RA OVC003 02/01 Q1000=
201511251550 METAR ESMX 251550Z 17006KT 9999 -RA OVC003 02/01 Q1000=
201511251520 METAR ESMX 251520Z 16006KT 9999 -RA OVC003 02/01 Q1000=
201511251450 METAR ESMX 251450Z 16005KT 140V200 9999 -RADZ OVC004 02/01 Q1000=
201511251420 METAR ESMX 251420Z 17006KT 9000 -RADZ OVC003 02/01 Q1000=
201511251350 METAR ESMX 251350Z 17005KT 9999 -RADZ OVC004 02/02 Q1000=
201511251320 METAR ESMX 251320Z 18006KT 140V200 9999 -RADZ OVC004 02/01 Q1000=
201511251250 METAR ESMX 251250Z 17007KT 8000 -RADZ OVC005 02/02 Q1000=
201511251220 METAR ESMX 251220Z 17007KT 9999 -DZRA BKN004 OVC007 02/02 Q1000=
201511251150 METAR ESMX 251150Z 17007KT 9999 -RA BKN005 02/02 Q1000=
201511251120 METAR ESMX 251120Z 17007KT 130V200 8000 -RADZ OVC004 02/02 Q1000=
201511251050 METAR ESMX 251050Z 17007KT 9999 -RA OVC005 02/02 Q1000=
201511251020 METAR ESMX 251020Z 16007KT 9999 -RA FEW004 OVC005 02/01 Q1000=
201511250950 METAR ESMX 250950Z 16007KT 9999 -RA BKN005 02/01 Q1000=
201511250920 METAR ESMX 250920Z 16008KT 9999 -RA FEW004 BKN006 02/01 Q1001 REDZ=
201511250850 METAR ESMX 250850Z 17007KT 9999 -RA OVC005 02/01 Q1001=
201511250820 METAR ESMX 250820Z 16009KT 9999 -RA OVC005 02/01 Q1000=
201511250750 METAR COR ESMX 250750Z 16009KT 9999 -RA BKN004 02/01 Q1001 RERA=
201511250720 METAR ESMX 250720Z 16008KT 8000 RA FEW004 BKN005 02/01 Q1001=
201511250650 METAR ESMX 250650Z 16009KT 7000 -RASN BKN005 02/01 Q1001=
201511250620 METAR ESMX 250620Z 17009KT 9999 -RASN OVC005 02/01 Q1001=
201511250550 METAR ESMX 250550Z 16009KT 9999 -RA SCT006 BKN010 02/01 Q1001=
201511250520 METAR ESMX 250520Z 17010KT 9999 -DZ FEW006 OVC009 02/01 Q1001=
201511250450 METAR ESMX 250450Z 17010KT 9999 -DZ OVC005 02/01 Q1001=
201511250420 METAR ESMX 250420Z AUTO 17010KT 9999 DZ OVC005/// 02/01 Q1001=
201511250350 METAR ESMX 250350Z AUTO 17010KT 9999 -DZ BKN005/// OVC008/// 02/01 Q1001 REDZ=
201511250320 METAR ESMX 250320Z AUTO 17011KT 9999 DZ OVC005/// 02/01 Q1001=
201511250250 METAR ESMX 250250Z AUTO 17011KT 9999 -DZ OVC005/// 02/01 Q1001=
201511250220 METAR ESMX 250220Z AUTO 17010KT 9999 DZ OVC006/// 02/01 Q1002 REDZ=
201511250150 METAR ESMX 250150Z AUTO 17011KT 9999 DZ OVC005/// 02/01 Q1002 REDZ=
201511250120 METAR ESMX 250120Z AUTO 17010KT 9999 DZ OVC006/// 02/01 Q1002=
201511250050 METAR ESMX 250050Z 17010KT 9999 DZ FEW004 OVC009 02/01 Q1002=
201511250020 METAR ESMX 250020Z 17011KT 9999 DZ OVC006 02/01 Q1003=
201511242350 METAR ESMX 242350Z 17011KT 9999 DZ BKN006 OVC009 02/01 Q1003=
201511242320 METAR ESMX 242320Z 17011KT 9999 DZ OVC006 02/01 Q1003=
201511242250 METAR ESMX 242250Z 17012KT 9999 SCT005 OVC010 02/01 Q1003=
201511242220 METAR ESMX 242220Z 17013KT 9999 -DZ OVC006 02/01 Q1004=
201511242150 METAR ESMX 242150Z 17012KT 9999 OVC006 02/01 Q1004=
201511242120 METAR ESMX 242120Z 17012KT 9999 DZ OVC006 02/01 Q1004=
201511242050 METAR ESMX 242050Z 17011KT 9999 -DZ OVC006 02/01 Q1004=
201511242020 METAR ESMX 242020Z 18012KT 9999 DZ BKN005 OVC009 02/01 Q1004=
201511241950 METAR ESMX 241950Z 18013KT 9999 DZ OVC006 02/01 Q1005=
201511241920 METAR ESMX 241920Z 18013KT 9000 DZ BR OVC006 03/02 Q1005=
201511241850 METAR ESMX 241850Z 18014KT 9999 DZ OVC005 03/02 Q1005=
201511241820 METAR ESMX 241820Z 18013KT 9999 DZ OVC006 03/02 Q1006=
201511241750 METAR ESMX 241750Z 18013KT 7000 -DZRA OVC006 03/02 Q1006=
201511241720 METAR ESMX 241720Z 18014KT 9999 -DZ OVC006 03/02 Q1006=
201511241650 METAR ESMX 241650Z 18013KT 9999 -RA OVC007 03/02 Q1006=
201511241620 METAR ESMX 241620Z 18014KT 9999 -RA FEW006 OVC008 03/02 Q1006=
201511241550 METAR ESMX 241550Z 18013KT 8000 -RA FEW006 BKN008 OVC010 03/02 Q1006=
201511241520 METAR ESMX 241520Z 18013KT 9000 -RA BKN006 OVC008 03/02 Q1007=
201511241450 METAR ESMX 241450Z 18012KT 4500 -DZRA OVC006 03/02 Q1007=
201511241420 METAR ESMX 241420Z 18013KT 6000 -DZRA BKN007 OVC010 03/02 Q1007=
201511241350 METAR ESMX 241350Z 18014KT 7000 -DZ BKN006 BKN008 03/02 Q1008=
201511241320 METAR ESMX 241320Z 18013KT 7000 -DZ OVC007 03/02 Q1008=
201511241250 METAR ESMX 241250Z 19012KT 8000 -DZ OVC007 03/02 Q1008=
201511241220 METAR ESMX 241220Z 19013KT 7000 BR BKN006 OVC008 03/02 Q1008=
201511241150 METAR ESMX 241150Z 19012KT 6000 BR OVC005 03/02 Q1009=
201511241120 METAR ESMX 241120Z 19012KT 6000 BR OVC004 03/02 Q1009=
201511241050 METAR ESMX 241050Z 20012KT 4500 BR OVC003 03/03 Q1009=
201511241020 METAR ESMX 241020Z 19012KT 4300 BR OVC002 03/03 Q1010=
201511240950 METAR ESMX 240950Z 19012KT 3800 BR OVC002 03/03 Q1010=
201511240920 METAR ESMX 240920Z 19011KT 2800 BR OVC002 03/03 Q1010=
201511240850 METAR ESMX 240850Z 20011KT 3200 BR OVC002 03/02 Q1010=
201511240820 METAR COR ESMX 240820Z 20010KT 2700 BR OVC002 03/02 Q1010=
201511240750 METAR ESMX 240750Z 19011KT 2600 OVC001 02/02 Q1011=
201511240720 METAR ESMX 240720Z 19010KT 1600 VV002 02/02 Q1011=
201511240650 METAR ESMX 240650Z 19010KT 0900 R01/1900N R19/P2000N FG VV002 02/02 Q1011=
201511240620 METAR ESMX 240620Z 19010KT 0800 R01/1800U R19/P2000N FG VV002 02/01 Q1011=
201511240550 METAR ESMX 240550Z 20009KT 0750 R01/P2000D R19/P2000N FG VV002 01/01 Q1011=
201511240520 METAR ESMX 240520Z 18009KT 0900 R01/P2000N R19/P2000N FG VV002 01/01 Q1011=
201511240450 METAR ESMX 240450Z 19010KT 2200 BR OVC002 01/01 Q1011=
201511240420 METAR ESMX 240420Z AUTO 19010KT 9999 -RA OVC002/// 01/00 Q1011=
201511240350 METAR ESMX 240350Z AUTO 19011KT 7000 -RASN OVC004/// 01/00 Q1012=
201511240320 METAR ESMX 240320Z AUTO 19010KT 8000 -PL OVC005/// 01/M00 Q1012=
201511240250 METAR ESMX 240250Z AUTO 18011KT 9999 -SN BKN005/// OVC008/// 01/M00 Q1012=
201511240220 METAR ESMX 240220Z AUTO 19008KT 9999 -FZDZ FEW006/// BKN007/// OVC022/// M00/M01 Q1013 RESHUP RESN=
201511240150 METAR ESMX 240150Z AUTO 17007KT 9999 BKN006/// BKN037/// M01/M02 Q1013 REFZUP=
201511240120 METAR ESMX 240120Z AUTO 18007KT 9999 -SN FEW008/// OVC009/// M01/M02 Q1014 REFZUP=
201511240050 METAR ESMX 240050Z 17007KT 9999 FEW012 SCT021 M02/M03 Q1014=
201511240020 METAR ESMX 240020Z 18008KT 9999 FEW016 M02/M03 Q1014=
201511232350 METAR ESMX 232350Z 19008KT 9999 FEW016 SCT020 M03/M04 Q1014=
201511232320 METAR ESMX 232320Z 18008KT 9999 FEW036 M03/M04 Q1014=
201511232250 METAR ESMX 232250Z 18007KT 9999 FEW027 M03/M04 Q1015=
201511232220 METAR ESMX 232220Z 17007KT 9999 FEW027 M03/M04 Q1015=
201511232150 METAR ESMX 232150Z 19006KT CAVOK M04/M05 Q1015=
201511232120 METAR ESMX 232120Z 17006KT CAVOK M04/M05 Q1015=
201511232050 METAR ESMX 232050Z 18006KT CAVOK M04/M06 Q1015=
201511232020 METAR ESMX 232020Z 19008KT CAVOK M04/M06 Q1015=
201511231950 METAR ESMX 231950Z 18007KT CAVOK M04/M06 Q1015=
201511231920 METAR ESMX 231920Z 17005KT 9999 FEW044 M04/M07 Q1016=
201511231850 METAR ESMX 231850Z 18007KT 9999 FEW044 M05/M07 Q1016=
201511231820 METAR ESMX 231820Z 18006KT CAVOK M05/M08 Q1016=
201511231750 METAR ESMX 231750Z 20006KT 9999 FEW026 M04/M08 Q1016=
201511231720 METAR ESMX 231720Z 17006KT 9999 FEW026 M04/M08 Q1016=
201511231650 METAR ESMX 231650Z 19006KT CAVOK M05/M08 Q1016=
201511231620 METAR ESMX 231620Z 18007KT CAVOK M05/M07 Q1016=
201511231550 METAR ESMX 231550Z 20006KT CAVOK M05/M08 Q1016=
201511231520 METAR ESMX 231520Z 21006KT CAVOK M05/M08 Q1016=
201511231450 METAR ESMX 231450Z 16003KT CAVOK M03/M08 Q1016=
201511231420 METAR ESMX 231420Z 17003KT CAVOK M02/M08 Q1016=
201511231350 METAR ESMX 231350Z 20003KT CAVOK M01/M06 Q1016=
201511231320 METAR ESMX 231320Z 23004KT CAVOK M01/M07 Q1016=
201511231250 METAR ESMX 231250Z 24004KT CAVOK M00/M07 Q1016=
201511231220 METAR ESMX 231220Z 23004KT CAVOK M01/M07 Q1016=
201511231150 METAR ESMX 231150Z 25003KT CAVOK M01/M07 Q1016=
201511231120 METAR ESMX 231120Z 24003KT CAVOK M01/M06 Q1016=
201511231050 METAR ESMX 231050Z 26003KT CAVOK M02/M06 Q1016=
201511231020 METAR ESMX 231020Z 25003KT CAVOK M03/M06 Q1016=
201511230950 METAR ESMX 230950Z 00000KT CAVOK M04/M07 Q1016=
201511230920 METAR ESMX 230920Z 00000KT CAVOK M06/M07 Q1016=
201511230850 METAR ESMX 230850Z 00000KT CAVOK M07/M08 Q1016=
201511230820 METAR ESMX 230820Z 26002KT CAVOK M08/M09 Q1015=
201511230750 METAR ESMX 230750Z 27003KT CAVOK M10/M11 Q1015=
201511230720 METAR ESMX 230720Z VRB02KT CAVOK M12/M13 Q1015=
201511230650 METAR ESMX 230650Z 00000KT CAVOK M11/M12 Q1014=
201511230620 METAR ESMX 230620Z 19001KT 150V210 CAVOK M11/M12 Q1014=
201511230550 METAR ESMX 230550Z 28002KT CAVOK M11/M12 Q1014=
201511230520 METAR ESMX 230520Z 29002KT CAVOK M11/M12 Q1014=
201511230450 METAR ESMX 230450Z 27003KT CAVOK M12/M13 Q1014=
201511230420 METAR ESMX 230420Z AUTO 28001KT 9999 NCD M11/M12 Q1014=
201511230350 METAR ESMX 230350Z AUTO 00000KT 9999 NCD M10/M11 Q1014=
201511230320 METAR ESMX 230320Z AUTO 28001KT 9999 NCD M09/M10 Q1014=
201511230250 METAR ESMX 230250Z AUTO 00000KT 9999 NCD M09/M10 Q1013=
201511230220 METAR ESMX 230220Z AUTO 29004KT 9999 NCD M09/M10 Q1013=
201511230150 METAR ESMX 230150Z AUTO 35005KT 9999 NCD M08/M09 Q1013=
201511230120 METAR ESMX 230120Z AUTO 35004KT 300V030 9999 NCD M07/M08 Q1013=
201511230050 METAR ESMX 230050Z 34005KT CAVOK M07/M09 Q1013=
201511230020 METAR ESMX 230020Z 35006KT CAVOK M06/M08 Q1012=
201511222350 METAR ESMX 222350Z 35007KT CAVOK M06/M08 Q1012=
201511222320 METAR ESMX 222320Z 35006KT CAVOK M06/M08 Q1012=
201511222250 METAR COR ESMX 222250Z 35007KT CAVOK M05/M07 Q1012=
201511222220 METAR ESMX 222220Z 36007KT CAVOK M05/M07 Q1011=
201511222150 METAR ESMX 222150Z 35009KT CAVOK M05/M07 Q1011=
201511222120 METAR COR ESMX 222120Z 36006KT CAVOK M05/M07 Q1011=
201511222050 METAR ESMX 222050Z 02007KT CAVOK M04/M07 Q1011=
201511222020 METAR ESMX 222020Z 35008KT CAVOK M04/M06 Q1010=
201511221950 METAR ESMX 221950Z 36009KT CAVOK M03/M06 Q1010=
201511221920 METAR ESMX 221920Z 36009KT CAVOK M03/M05 Q1010=
201511221850 METAR ESMX 221850Z 36010KT CAVOK M02/M05 Q1009=
201511221820 METAR ESMX 221820Z 02009KT CAVOK M02/M05 Q1009=
201511221750 METAR ESMX 221750Z AUTO 01010KT 9999 NCD M02/M05 Q1009=
201511221720 METAR ESMX 221720Z 01010KT CAVOK M02/M05 Q1009=
201511221650 METAR ESMX 221650Z 02011KT CAVOK M01/M05 Q1008=
201511221620 METAR ESMX 221620Z 02011KT 9999 FEW025 BKN100 M01/M05 Q1008=
201511221550 METAR ESMX 221550Z 02010KT 9999 FEW025 BKN100 M01/M05 Q1007=
201511221520 METAR ESMX 221520Z 02010KT 9999 FEW025 BKN100 M01/M05 Q1007=
201511221450 METAR ESMX 221450Z 01009KT 9999 FEW015 BKN100 M01/M05 Q1006=
201511221420 METAR ESMX 221420Z 01009KT 9999 FEW020 BKN100 M01/M05 Q1006=
201511221350 METAR ESMX 221350Z 01010KT CAVOK M01/M05 Q1005=
201511221320 METAR ESMX 221320Z 03012KT CAVOK M01/M05 Q1005=
201511221250 METAR ESMX 221250Z 03012KT 9999 FEW035 BKN100 M01/M05 Q1005=
201511221220 METAR ESMX 221220Z 02013KT 9999 FEW035 BKN100 M01/M05 Q1004=
201511221150 METAR ESMX 221150Z 03011KT 9999 FEW025 BKN100 M00/M04 Q1004=
201511221120 METAR ESMX 221120Z AUTO 03012KT 9999 FEW092/// M00/M03 Q1003=
201511221050 METAR ESMX 221050Z AUTO 03013KT 9999 FEW078/// M00/M03 Q1003=
201511221020 METAR ESMX 221020Z AUTO 03012KT 360V060 9999 NCD M00/M03 Q1003=
201511220950 METAR ESMX 220950Z AUTO 03014KT 9999 NCD M00/M03 Q1002=
201511220920 METAR ESMX 220920Z AUTO 03013KT 9999 FEW096/// M01/M03 Q1002=
201511220850 METAR ESMX 220850Z AUTO 02012KT 360V070 9999 FEW095/// M01/M03 Q1001=
201511220820 METAR ESMX 220820Z AUTO 03013KT 9999 NCD M01/M03 Q1001=
201511220750 METAR ESMX 220750Z AUTO 03013KT 9999 FEW091/// M00/M03 Q1001=
201511220720 METAR ESMX 220720Z 04013KT 010V110 9999 FEW012 SCT045 BKN090 M00/M03 Q1000=
201511220650 METAR ESMX 220650Z 04011KT 010V080 9999 FEW012 SCT045 BKN080 M00/M03 Q1000=
201511220620 METAR ESMX 220620Z 04012KT 9999 FEW045 BKN085 M00/M03 Q0999=
201511220550 METAR ESMX 220550Z AUTO 04012KT 9999 FEW045/// M00/M03 Q0999=
201511220520 METAR ESMX 220520Z AUTO 03013KT 350V060 9999 FEW075/// M00/M03 Q0998=
201511220450 METAR ESMX 220450Z AUTO 04012KT 9999 FEW045/// 00/M03 Q0998=
201511220420 METAR ESMX 220420Z AUTO 04013KT 9999 FEW066/// 00/M03 Q0998=
201511220350 METAR ESMX 220350Z AUTO 04014KT 360V060 9999 FEW071/// 00/M04 Q0997=
201511220320 METAR ESMX 220320Z AUTO /////KT 9999 FEW075/// M00/M04 Q0997=
201511220250 METAR ESMX 220250Z AUTO /////KT 9999 FEW020/// M00/M05 Q0997=
201511220220 METAR ESMX 220220Z AUTO /////KT 9999 FEW060/// M00/M05 Q0997=
201511220150 METAR ESMX 220150Z AUTO /////KT 9999 FEW049/// M00/M05 Q0997=
201511220120 METAR ESMX 220120Z AUTO /////KT 9999 FEW035/// M01/M05 Q0997=
201511220050 METAR ESMX 220050Z AUTO /////KT 9999 FEW071/// M01/M06 Q0997=
201511220020 METAR ESMX 220020Z AUTO /////KT 9999 FEW047/// M01/M09 Q0997=
201511212350 METAR ESMX 212350Z AUTO /////KT 9999 FEW063/// M01/M09 Q0997=
201511212320 METAR ESMX 212320Z AUTO /////KT 9999 NCD M01/M09 Q0997=
201511212250 METAR ESMX 212250Z AUTO /////KT 9999 NCD M01/M08 Q0997=
201511212220 METAR ESMX 212220Z AUTO /////KT 9999 FEW071/// M01/M08 Q0997=
201511212150 METAR ESMX 212150Z AUTO /////KT 9999 NCD M01/M08 Q0997=
201511212120 METAR ESMX 212120Z 05007KT CAVOK M01/M07 Q0997=
201511212050 METAR ESMX 212050Z 05008KT CAVOK M01/M08 Q0997=
201511212020 METAR ESMX 212020Z 03006KT CAVOK M01/M07 Q0997=
201511211950 METAR ESMX 211950Z 03006KT CAVOK M01/M06 Q0997=
201511211920 METAR ESMX 211920Z 04008KT 9999 FEW032 BKN080 M01/M06 Q0997=
201511211850 METAR ESMX 211850Z AUTO /////KT 9999 NCD M01/M06 Q0997=
201511211820 METAR ESMX 211820Z AUTO /////KT 9999 NCD M01/M06 Q0997=
201511211750 METAR ESMX 211750Z AUTO /////KT 9999 NCD M01/M05 Q0997=
201511211720 METAR ESMX 211720Z AUTO /////KT 9999 NCD M01/M05 Q0997=
201511211650 METAR ESMX 211650Z AUTO /////KT 9999 NCD M01/M05 Q0997=
201511211620 METAR ESMX 211620Z AUTO /////KT 9999 NCD M01/M05 Q0997=
201511211550 METAR ESMX 211550Z AUTO /////KT 9999 NCD M01/M04 Q0996=
201511211520 METAR ESMX 211520Z AUTO /////KT 9999 NCD M01/M04 Q0996=
201511211450 METAR ESMX 211450Z AUTO /////KT 9999 NCD M01/M04 Q0996=
201511211420 METAR ESMX 211420Z AUTO /////KT 9999 NCD M01/M04 Q0996=
201511211350 METAR ESMX 211350Z AUTO /////KT 9999 NCD M01/M03 Q0996=
201511211320 METAR ESMX 211320Z AUTO /////KT 9999 NCD M01/M03 Q0996=
201511211250 METAR ESMX 211250Z AUTO /////KT 9999 NCD M01/M03 Q0996=
201511211220 METAR ESMX 211220Z AUTO /////KT 9999 NCD M01/M03 Q0996=
201511211150 METAR ESMX 211150Z AUTO /////KT 9999 NCD M01/M03 Q0996=
201511211120 METAR ESMX 211120Z AUTO /////KT 9999 NCD M02/M03 Q0996=
201511211050 METAR ESMX 211050Z AUTO /////KT 9999 NCD M02/M03 Q0996=
201511211020 METAR ESMX 211020Z AUTO /////KT 9999 NCD M02/M03 Q0997=
201511210950 METAR ESMX 210950Z AUTO /////KT 9999 NCD M02/M04 Q0997=
201511210920 METAR ESMX 210920Z AUTO /////KT 9999 NCD M02/M04 Q0997=
201511210850 METAR ESMX 210850Z AUTO /////KT 9999 NCD M03/M04 Q0996=
201511210820 METAR ESMX 210820Z AUTO /////KT 9999 NCD M03/M04 Q0996=
201511210750 METAR ESMX 210750Z AUTO /////KT 9999 NCD M03/M04 Q0996=
201511210720 METAR ESMX 210720Z AUTO /////KT 9999 NCD M03/M04 Q0996=
201511210650 METAR ESMX 210650Z AUTO /////KT 9999 NCD M04/M04 Q0996=
201511210620 METAR ESMX 210620Z AUTO /////KT 9999 NCD M04/M04 Q0995=
201511210550 METAR ESMX 210550Z AUTO /////KT 9999 NCD M04/M04 Q0995=
201511210520 METAR ESMX 210520Z AUTO /////KT 9999 FEW004/// M04/M05 Q0995=
201511210450 METAR ESMX 210450Z AUTO /////KT 9999 FEW003/// M05/M06 Q0995=
201511210420 METAR ESMX 210420Z AUTO /////KT 9999 NCD M04/M04 Q0995=
201511210350 METAR ESMX 210350Z AUTO /////KT 9999 NCD M05/M06 Q0995=
201511210320 METAR ESMX 210320Z AUTO /////KT 9999 NCD M04/M04 Q0995=
201511210250 METAR ESMX 210250Z AUTO /////KT 9999 NCD M04/M05 Q0995=
201511210220 METAR ESMX 210220Z AUTO /////KT 9999 NCD M05/M05 Q0995=
201511210150 METAR ESMX 210150Z AUTO /////KT 9999 NCD M04/M04 Q0995=
201511210120 METAR ESMX 210120Z AUTO /////KT 9999 FEW010/// M04/M05 Q0995=
201511210050 METAR ESMX 210050Z AUTO /////KT 9999 FEW005/// M03/M04 Q0995=
201511210020 METAR ESMX 210020Z AUTO /////KT 9999 NCD M05/M06 Q0995=
201511202350 METAR ESMX 202350Z AUTO /////KT 9999 NCD M05/M06 Q0995=
201511202320 METAR ESMX 202320Z AUTO /////KT 9999 NCD M04/M05 Q0995=
201511202250 METAR ESMX 202250Z AUTO /////KT 9999 NCD M04/M05 Q0995=
201511202220 METAR ESMX 202220Z AUTO /////KT 9999 NCD M04/M05 Q0995=
201511202150 METAR ESMX 202150Z AUTO 35006KT 9999 NCD M03/M04 Q0995=
201511202120 METAR ESMX 202120Z AUTO 35005KT 9999 NCD M03/M04 Q0995=
201511202050 METAR ESMX 202050Z 35006KT CAVOK M02/M04 Q0995=
201511202020 METAR ESMX 202020Z 36007KT 9999 FEW010 M02/M04 Q0995=
201511201950 METAR ESMX 201950Z 35006KT 9999 FEW012 M02/M04 Q0995=
201511201920 METAR ESMX 201920Z 36004KT 9999 SCT012 M02/M04 Q0995=
201511201850 METAR ESMX 201850Z 02005KT 9999 BKN013 M01/M04 Q0995=
201511201820 METAR ESMX 201820Z 02005KT 9999 BKN013 M01/M03 Q0995=
201511201750 METAR ESMX 201750Z 03009KT 9999 BKN013 M01/M03 Q0996=
201511201720 METAR ESMX 201720Z 01008KT 9999 BKN012 M00/M03 Q0996=
201511201650 METAR ESMX 201650Z 35009KT 9999 OVC013 M00/M03 Q0996=
201511201620 METAR ESMX 201620Z 01010KT 9999 OVC014 M00/M03 Q0996=
201511201550 METAR ESMX 201550Z 01009KT 9999 BKN014 M00/M03 Q0996=
201511201520 METAR ESMX 201520Z 33006KT 9999 BKN015 M00/M03 Q0996=
201511201450 METAR ESMX 201450Z 34009KT 9999 BKN016 00/M03 Q0996=
201511201420 METAR ESMX 201420Z 35007KT 9999 BKN016 01/M02 Q0996=
201511201350 METAR ESMX 201350Z 30006KT 9999 OVC016 01/M02 Q0996=
201511201320 METAR ESMX 201320Z 30005KT 260V330 9999 BKN015 02/M02 Q0996=
201511201250 METAR ESMX 201250Z 34008KT 9999 BKN015 02/M02 Q0996=
201511201220 METAR ESMX 201220Z 35006KT 9999 BKN016 02/M02 Q0996=
201511201150 METAR ESMX 201150Z 34006KT 300V010 9999 FEW017 02/M02 Q0996=
201511201120 METAR ESMX 201120Z 35005KT CAVOK 02/M02 Q0996=
201511201050 METAR ESMX 201050Z 35006KT CAVOK 02/M03 Q0997=
201511201020 METAR ESMX 201020Z 35006KT CAVOK 01/M03 Q0997=
201511200950 METAR ESMX 200950Z 35006KT CAVOK 02/M02 Q0997=
201511200920 METAR ESMX 200920Z 02007KT CAVOK 01/M02 Q0997=
201511200850 METAR COR ESMX 200850Z 35007KT CAVOK 01/M02 Q0997=
201511200820 METAR ESMX 200820Z 36006KT 9999 FEW011 SCT050 01/M01 Q0997=
201511200750 METAR ESMX 200750Z 35007KT 9999 FEW008 BKN012 01/M00 Q0997=
201511200720 METAR ESMX 200720Z 34008KT 9999 FEW007 BKN014 01/M00 Q0997=
201511200650 METAR COR ESMX 200650Z 33007KT 9999 BKN007 BKN040 01/00 Q0997=
201511200620 METAR ESMX 200620Z AUTO 34007KT 9999 OVC007/// 01/00 Q0997=
201511200550 METAR ESMX 200550Z 32008KT 9999 OVC006 01/00 Q0996=
201511200520 METAR ESMX 200520Z 31006KT 9999 OVC006 01/M00 Q0996=
201511200450 METAR ESMX 200450Z 31006KT 9999 BKN008 01/M00 Q0996=
201511200420 METAR ESMX 200420Z AUTO 32006KT 9999 BKN008/// OVC011/// 01/00 Q0996 RESHUP=
201511200350 METAR ESMX 200350Z AUTO 30006KT 9999 BKN007/// OVC047/// 01/00 Q0996 REUP=
201511200320 METAR ESMX 200320Z AUTO 30006KT 9999 UP FEW009/// BKN010/// 01/00 Q0996 REUP=
201511200250 METAR ESMX 200250Z AUTO 30006KT 9999 FEW007/// SCT011/// BKN058/// 01/00 Q0996=
201511200220 METAR ESMX 200220Z AUTO 29006KT 9999 FEW008/// OVC011/// 01/00 Q0996=
201511200150 METAR ESMX 200150Z AUTO 30006KT 280V340 9999 FEW009/// BKN011/// BKN062/// 01/00 Q0996 RESHUP REUP=
201511200120 METAR ESMX 200120Z AUTO 29007KT 9999 UP SCT012/// 01/00 Q0996 RESG=
201511200050 METAR ESMX 200050Z AUTO 30008KT 9999 -RA BKN010/// 01/00 Q0995 REUP=
201511200020 METAR ESMX 200020Z 30009KT 9999 FEW010 OVC013 01/00 Q0995=
201511192350 METAR ESMX 192350Z 30008KT 9999 SCT008 BKN012 02/00 Q0995=
201511192320 METAR ESMX 192320Z 31008KT 9999 -RA SCT009 BKN015 02/01 Q0995 REDZ=
201511192250 METAR ESMX 192250Z 29009KT 260V340 9999 -RASN FEW009 BKN012 02/01 Q0995=
201511192220 METAR ESMX 192220Z 30008KT 9999 OVC010 02/01 Q0994=
201511192150 METAR ESMX 192150Z 29008KT 260V330 9999 FEW009 OVC011 02/01 Q0994=
201511192120 METAR ESMX 192120Z 30008KT 9999 FEW009 BKN012 OVC018 02/01 Q0994=
201511192050 METAR ESMX 192050Z 29011KT 260V330 9999 -DZ FEW009 OVC010 02/01 Q0993=
201511192020 METAR ESMX 192020Z 29012KT 9000 -RA FEW008 OVC009 02/01 Q0993=
201511191950 METAR ESMX 191950Z 29011KT 9999 -RA OVC008 02/01 Q0993=
201511191920 METAR ESMX 191920Z 29013KT 9999 -DZ OVC008 02/01 Q0992=
201511191850 METAR ESMX 191850Z 28011KT 9000 -DZ OVC009 02/01 Q0992=
201511191820 METAR ESMX 191820Z 29014KT 9999 FEW009 OVC010 03/01 Q0991=
201511191750 METAR ESMX 191750Z 29015G25KT 9999 FEW009 BKN011 OVC033 03/01 Q0991=
201511191720 METAR ESMX 191720Z 28013KT 9999 FEW008 SCT017 BKN020 04/02 Q0990=
201511191650 METAR ESMX 191650Z 29011KT 9999 DZ FEW008 BKN014 06/05 Q0989=
201511191620 METAR ESMX 191620Z 26009KT 220V290 5000 DZ FEW010 BKN017 07/06 Q0989=
201511191550 METAR ESMX 191550Z 25010KT 9999 FEW010 BKN016 07/05 Q0988=
201511191520 METAR ESMX 191520Z 22009KT 9999 FEW027 SCT088 07/06 Q0988=
201511191450 METAR ESMX 191450Z 23008KT 9999 FEW009 SCT027 BKN031 07/06 Q0988=
201511191420 METAR ESMX 191420Z 22008KT 190V250 9999 FEW010 SCT014 BKN016 08/06 Q0988=
201511191350 METAR ESMX 191350Z 23008KT 9999 FEW008 BKN011 OVC017 08/06 Q0988=
201511191320 METAR ESMX 191320Z 21008KT 9999 FEW009 SCT011 BKN014 08/06 Q0988=
201511191250 METAR ESMX 191250Z 22008KT 9999 FEW008 SCT010 BKN013 07/06 Q0988=
201511191220 METAR ESMX 191220Z 21010KT 9999 FEW007 SCT009 BKN011 07/06 Q0988=
201511191150 METAR ESMX 191150Z 20011KT 8000 BR FEW007 SCT009 BKN011 07/06 Q0988=
201511191120 METAR ESMX 191120Z 21011KT 9999 DZ FEW008 SCT011 OVC014 08/06 Q0988=
201511191050 METAR ESMX 191050Z 21011KT 9999 FEW008 BKN010 OVC016 07/06 Q0988=
201511191020 METAR ESMX 191020Z 19010KT 8000 RA FEW006 SCT009 BKN012 07/06 Q0989=
201511190950 METAR ESMX 190950Z 21010KT 9999 FEW008 OVC010 07/06 Q0989=
201511190920 METAR ESMX 190920Z 22012KT 9999 OVC010 07/06 Q0989=
201511190850 METAR ESMX 190850Z 22011KT 9999 FEW009 BKN013 07/06 Q0989=
201511190820 METAR ESMX 190820Z 20010KT 9999 FEW015 BKN030 07/06 Q0989=
201511190750 METAR ESMX 190750Z 23012KT 7000 RA FEW009 SCT019 BKN030 07/06 Q0989=
201511190720 METAR ESMX 190720Z 21009KT 9999 -RA FEW016 SCT024 07/06 Q0989=
201511190650 METAR ESMX 190650Z 21011KT 9999 -RA FEW009 SCT023 07/06 Q0989=
201511190620 METAR ESMX 190620Z 20010KT 9999 FEW008 SCT015 BKN021 08/07 Q0989=
201511190550 METAR ESMX 190550Z 20009KT 9999 -RA FEW010 SCT015 BKN045 07/06 Q0989=
201511190520 METAR COR ESMX 190520Z 22010KT 9999 FEW007 SCT010 BKN025 08/06 Q0989=
201511190450 METAR COR ESMX 190450Z 21011KT 9999 FEW005 SCT010 BKN025 08/07 Q0989 RERA=
201511190420 METAR ESMX 190420Z AUTO 21011KT 9999 FEW012/// SCT026/// BKN044/// 08/07 Q0989=
201511190350 METAR ESMX 190350Z AUTO 22010KT 9999 FEW009/// SCT018/// BKN021/// 08/07 Q0990 RERA=
201511190320 METAR ESMX 190320Z AUTO 22011KT 180V250 9999 FEW010/// SCT016/// BKN020/// 08/07 Q0990=
201511190250 METAR ESMX 190250Z AUTO 23012KT 9000 -RA FEW009/// SCT013/// BKN015/// 08/07 Q0989 RERA=
201511190220 METAR ESMX 190220Z AUTO 23011KT 9999 FEW008/// SCT011/// BKN016/// 08/07 Q0990=
201511190150 METAR ESMX 190150Z AUTO 22010KT 9999 -RA FEW006/// SCT012/// BKN015/// 08/07 Q0990 RERA=
201511190120 METAR ESMX 190120Z AUTO 19010KT 9999 -RA FEW006/// SCT009/// BKN011/// 08/07 Q0990 RERA=
201511190050 METAR ESMX 190050Z 18007KT 140V220 9999 -RA FEW003 SCT005 BKN013 07/07 Q0991=
201511190020 METAR COR ESMX 190020Z 14007KT 110V170 6000 RA SCT003 BKN005 07/06 Q0991=
201511182350 METAR ESMX 182350Z 15007KT 9999 RA OVC004 07/06 Q0992=
201511182320 METAR ESMX 182320Z 16009KT 9999 -RA FEW005 SCT009 BKN014 07/06 Q0993 REDZ=
201511182250 METAR ESMX 182250Z 16009KT 9999 DZ FEW006 BKN007 BKN033 07/06 Q0994 REUP=
201511182220 METAR ESMX 182220Z 17010KT 9999 BKN006 OVC009 07/06 Q0995=
201511182150 METAR ESMX 182150Z 18008KT 9999 FEW006 SCT007 BKN009 07/06 Q0996=
201511182120 METAR ESMX 182120Z 18008KT 9999 FEW006 SCT007 BKN009 07/06 Q0997=
201511182050 METAR ESMX 182050Z 19008KT 9999 FEW007 BKN010 07/06 Q0998=
201511182020 METAR ESMX 182020Z 20007KT 9999 FEW009 SCT013 BKN040 07/06 Q0998=
201511181950 METAR ESMX 181950Z 20007KT 9999 FEW007 SCT015 BKN045 07/06 Q0998=
201511181920 METAR ESMX 181920Z 24008KT 9999 FEW008 SCT012 BKN015 07/06 Q0998 RERA=
201511181850 METAR ESMX 181850Z 23008KT 9999 DZ FEW012 SCT018 BKN021 07/06 Q0999=
201511181820 METAR ESMX 181820Z 23007KT 9999 FEW009 BKN013 OVC020 07/06 Q0999 RERA=
201511181750 METAR ESMX 181750Z 23007KT 6000 DZ FEW010 SCT015 BKN017 07/06 Q0999 REDZ=
201511181720 METAR ESMX 181720Z 22008KT 9999 -RA FEW011 BKN014 BKN030 07/06 Q0999 REDZ REUP=
201511181650 METAR ESMX 181650Z 22007KT 200V270 9999 FEW012 SCT018 BKN023 08/06 Q0999=
201511181620 METAR ESMX 181620Z 24007KT 9999 FEW019 OVC030 08/06 Q0999=
201511181550 METAR ESMX 181550Z 23008KT 9999 FEW020 OVC027 08/06 Q0999=
201511181520 METAR ESMX 181520Z 23007KT 9999 FEW016 OVC028 07/06 Q0998=
201511181450 METAR ESMX 181450Z 22006KT 9999 FEW020 OVC028 07/06 Q0998=
201511181420 METAR ESMX 181420Z 25006KT 9999 BKN031 07/06 Q0998=
201511181350 METAR ESMX 181350Z 26007KT 9999 FEW015 BKN031 07/06 Q0998=
201511181320 METAR ESMX 181320Z 26006KT 9999 FEW010 SCT013 BKN017 07/06 Q0997=
201511181250 METAR ESMX 181250Z 28009KT 9999 FEW010 BKN013 BKN022 07/06 Q0997=
201511181220 METAR ESMX 181220Z 27011KT 9999 BKN011 07/06 Q0996=
201511181150 METAR ESMX 181150Z 29010KT 9999 BKN011 07/05 Q0995=
201511181120 METAR ESMX 181120Z 29008KT 9999 FEW008 SCT082 07/05 Q0995=
201511181050 METAR ESMX 181050Z 29008KT 9999 FEW027 BKN086 06/05 Q0994=
201511181020 METAR ESMX 181020Z 30006KT 9999 FEW026 BKN041 06/05 Q0994=
201511180950 METAR COR ESMX 180950Z 31009KT 9999 -RA BKN023 06/05 Q0993=
201511180920 METAR ESMX 180920Z 32008KT 9000 -DZ BKN009 BKN024 06/05 Q0991=
201511180850 METAR ESMX 180850Z 35009KT 7000 -RA BKN007 BKN024 06/05 Q0990=
201511180820 METAR ESMX 180820Z 36010KT 7000 -DZ BKN006 BKN017 06/05 Q0989=
201511180750 METAR ESMX 180750Z 36011KT 6000 -DZ BKN005 06/05 Q0988=
201511180720 METAR COR ESMX 180720Z 01008KT 6000 -DZ BKN005 06/05 Q0988=
201511180650 METAR ESMX 180650Z 02008KT 6000 -RA BR FEW005 BKN006 OVC010 06/05 Q0987=
201511180620 METAR ESMX 180620Z 02009KT 9000 -RA OVC004 06/05 Q0986=
201511180550 METAR ESMX 180550Z 02007KT 6000 RA FEW003 BKN004 BKN007 06/06 Q0986=
201511180520 METAR ESMX 180520Z 04007KT 5000 RA BKN003 OVC006 06/06 Q0986=
201511180450 METAR ESMX 180450Z 04007KT 010V070 9999 -RA FEW003 BKN005 OVC007 06/06 Q0986=
201511180420 METAR ESMX 180420Z AUTO 04007KT 6000 -RA FEW002/// SCT004/// BKN005/// 06/06 Q0986=
201511180350 METAR ESMX 180350Z AUTO 04007KT 5000 -RA FEW003/// SCT005/// BKN011/// 06/06 Q0986=
201511180320 METAR ESMX 180320Z AUTO 06006KT 6000 -RA FEW003/// BKN020/// 06/06 Q0987=
201511180250 METAR ESMX 180250Z AUTO 03004KT 010V080 8000 -RA FEW003/// BKN022/// BKN032/// 06/06 Q0987=
201511180220 METAR ESMX 180220Z AUTO 05004KT 020V080 7000 -RA FEW036/// 06/06 Q0988=
201511180150 METAR ESMX 180150Z AUTO 09003KT 050V140 5000 -RA FEW002/// 06/06 Q0989=
201511180120 METAR ESMX 180120Z AUTO 14004KT 100V160 4900 RA FEW001/// SCT003/// BKN004/// 06/06 Q0990=
201511180050 METAR ESMX 180050Z 16005KT 120V180 2200 RA OVC002 06/06 Q0990=
201511180020 METAR ESMX 180020Z 15005KT 2100 BR OVC002 06/06 Q0991=
201511172350 METAR ESMX 172350Z 15005KT 7000 BR BKN002 OVC004 06/06 Q0992=
201511172320 METAR ESMX 172320Z 15005KT 8000 BR BKN002 OVC009 06/06 Q0992=
201511172250 METAR ESMX 172250Z 16004KT 9999 FEW020 BKN030 BKN040 06/05 Q0993=
201511172220 METAR ESMX 172220Z 18006KT 9999 SCT034 BKN043 06/05 Q0994=
201511172150 METAR ESMX 172150Z 17005KT CAVOK 06/05 Q0994=
201511172120 METAR ESMX 172120Z 18006KT 9999 BKN049 06/05 Q0995=
201511172050 METAR ESMX 172050Z 17005KT 9999 FEW026 SCT030 BKN048 06/05 Q0995=
201511172020 METAR ESMX 172020Z 18006KT 9999 SCT030 BKN046 BKN054 06/05 Q0996=
201511171950 METAR ESMX 171950Z 20008KT 9999 FEW005 SCT007 BKN035 06/05 Q0996=
201511171920 METAR ESMX 171920Z 19006KT 9999 FEW006 SCT010 BKN062 06/05 Q0996=
201511171850 METAR ESMX 171850Z 19006KT 9999 FEW015 SCT020 BKN035 05/04 Q0997=
201511171820 METAR ESMX 171820Z 22006KT 9999 FEW028 BKN036 06/05 Q0997=
201511171750 METAR ESMX 171750Z 19007KT 9999 -RA FEW018 SCT026 BKN035 06/05 Q0997=
201511171720 METAR ESMX 171720Z 18006KT 9999 BKN033 06/05 Q0997=
201511171650 METAR ESMX 171650Z 18007KT 9999 -RA FEW009 SCT021 BKN034 06/05 Q0997=
201511171620 METAR ESMX 171620Z 18007KT 7000 -DZ FEW010 SCT014 BKN016 06/05 Q0997=
201511171550 METAR ESMX 171550Z 17007KT 9999 FEW010 SCT015 BKN018 06/05 Q0998=
201511171520 METAR ESMX 171520Z 18007KT 9999 FEW019 SCT077 BKN088 06/05 Q0998=
201511171450 METAR ESMX 171450Z 18010KT 9999 FEW015 BKN047 BKN075 06/04 Q0998=
201511171420 METAR ESMX 171420Z 19010KT 9999 FEW011 SCT018 BKN088 06/05 Q0998=
201511171350 METAR ESMX 171350Z 19008KT 9999 FEW011 BKN017 06/05 Q0999=
201511171320 METAR ESMX 171320Z 18008KT 9999 FEW010 SCT013 07/05 Q0998=
201511171250 METAR ESMX 171250Z 22009KT 9999 BKN010 BKN016 07/05 Q0999=
201511171220 METAR COR ESMX 171220Z 20009KT 9999 FEW010 BKN012 06/05 Q0999=
201511171150 METAR ESMX 171150Z 20011KT 9999 SCT010 SCT013 BKN086 07/05 Q0999=
201511171120 METAR ESMX 171120Z 19009KT 9999 FEW010 BKN029 BKN100 07/05 Q0999=
201511171050 METAR ESMX 171050Z 19012KT 9999 FEW010 SCT036 BKN059 06/05 Q1000=
201511171020 METAR ESMX 171020Z 18010KT 9999 SCT033 SCT041 06/04 Q1000=
201511170950 METAR ESMX 170950Z 19010KT 9999 FEW022 SCT036 BKN051 06/05 Q1000=
201511170920 METAR ESMX 170920Z 19009KT 9999 FEW022 SCT041 06/05 Q1000=
201511170850 METAR ESMX 170850Z 19009KT 9999 FEW022 SCT035 05/04 Q1000=
201511170820 METAR ESMX 170820Z 19009KT 9999 FEW033 BKN064 05/04 Q1000=
201511170750 METAR ESMX 170750Z 19009KT 9999 FEW032 BKN062 05/04 Q1000=
201511170720 METAR ESMX 170720Z 18009KT 9999 FEW036 SCT065 05/04 Q1000=
201511170650 METAR ESMX 170650Z 18007KT 9999 BKN004 05/04 Q1000=
201511170620 METAR ESMX 170620Z 19008KT 9999 OVC003 05/04 Q1000=
201511170550 METAR ESMX 170550Z 19007KT 8000 BR OVC002 05/04 Q1001=
201511170520 METAR ESMX 170520Z 19007KT 7000 BR OVC002 05/04 Q1001=
201511170450 METAR COR ESMX 170450Z 19008KT 9000 BR FEW002 04/04 Q1001=
201511170420 METAR ESMX 170420Z AUTO 19007KT 9999 NCD 04/04 Q1001=
201511170350 METAR ESMX 170350Z AUTO 19007KT 9999 NCD 04/04 Q1001=
201511170320 METAR ESMX 170320Z AUTO 20007KT 9999 NCD 04/04 Q1001=
201511170250 METAR ESMX 170250Z AUTO 21007KT 9999 NCD 04/04 Q1001=
201511170220 METAR ESMX 170220Z AUTO 19006KT 9999 NCD 04/04 Q1001=
201511170150 METAR ESMX 170150Z AUTO 20007KT 9999 FEW066/// 04/03 Q1002=
201511170120 METAR ESMX 170120Z AUTO 21007KT 9999 NCD 04/03 Q1002=
201511170050 METAR ESMX 170050Z AUTO 21006KT 9999 NCD 04/04 Q1002=
201511170020 METAR COR ESMX 170020Z 21006KT CAVOK 05/04 Q1001=
201511162350 METAR ESMX 162350Z 22006KT CAVOK 05/04 Q1001=
201511162320 METAR ESMX 162320Z 22007KT CAVOK 06/05 Q1002=
201511162250 METAR ESMX 162250Z 22006KT 9999 FEW044 06/05 Q1001=
201511162220 METAR ESMX 162220Z 23005KT 9999 FEW015 06/05 Q1001=
201511162150 METAR COR ESMX 162150Z 23006KT 9999 FEW014 07/06 Q1001=
201511162120 METAR ESMX 162120Z 23008KT 9999 FEW019 07/06 Q1001=
201511162050 METAR ESMX 162050Z 22009KT 9999 FEW019 SCT046 08/07 Q1001=
201511162020 METAR ESMX 162020Z 22010KT 9999 FEW007 08/07 Q1001=
201511161950 METAR ESMX 161950Z 20010KT 9999 FEW008 SCT010 BKN012 09/08 Q1000=
201511161920 METAR ESMX 161920Z 20010KT 9999 FEW009 SCT011 09/08 Q1000=
201511161850 METAR COR ESMX 161850Z 21009KT 9999 FEW005 SCT009 BKN063 09/08 Q1000=
201511161820 METAR ESMX 161820Z 21009KT 9999 FEW006 SCT009 OVC073 09/08 Q1001=
201511161750 METAR ESMX 161750Z 21008KT 9999 FEW006 SCT010 BKN015 09/08 Q1001=
201511161720 METAR ESMX 161720Z 21007KT 9999 FEW005 SCT008 BKN012 09/08 Q1000=
201511161650 METAR ESMX 161650Z 21010KT 9999 FEW004 SCT007 BKN012 09/09 Q1000=
201511161620 METAR ESMX 161620Z 19009KT 9999 FEW004 BKN006 OVC009 09/09 Q1000=
201511161550 METAR ESMX 161550Z AUTO 19010KT 9999 BKN003/// OVC006/// 09/08 Q1000 RESHUP REDZ=
201511161520 METAR ESMX 161520Z 18010KT 9999 OVC004 08/08 Q1001=
201511161450 METAR ESMX 161450Z 16011KT 9999 OVC005 08/07 Q1001=
201511161420 METAR COR ESMX 161420Z 17010KT 6000 -RA OVC004 08/07 Q1001=
201511161350 METAR ESMX 161350Z 16012KT 9000 DZ OVC005 07/07 Q1001=
201511161320 METAR ESMX 161320Z 16013KT 9999 -DZ BKN005 OVC008 07/06 Q1002=
201511161250 METAR ESMX 161250Z 17012KT 8000 -DZ FEW005 BKN007 07/06 Q1002=
201511161220 METAR ESMX 161220Z 16013KT 9999 FEW005 BKN007 BKN009 07/06 Q1003=
201511161150 METAR ESMX 161150Z 16008KT 6000 -DZ FEW004 SCT006 BKN008 06/06 Q1003=
201511161120 METAR ESMX 161120Z 15007KT 110V170 8000 -DZ FEW004 SCT006 BKN010 06/06 Q1004=
201511161050 METAR ESMX 161050Z 16008KT 6000 +DZ BKN003 OVC007 06/05 Q1005=
201511161020 METAR ESMX 161020Z 15007KT 9999 -DZ SCT003 BKN006 OVC008 05/05 Q1005=
201511160950 METAR ESMX 160950Z 16007KT 130V200 9999 SCT004 BKN020 05/04 Q1005=
201511160920 METAR ESMX 160920Z 14007KT 9999 FEW011 SCT021 BKN080 04/04 Q1005=
201511160850 METAR ESMX 160850Z 14006KT 9999 FEW003 SCT020 BKN080 04/04 Q1006=
201511160820 METAR ESMX 160820Z 15006KT 9999 BKN002 04/03 Q1006=
201511160750 METAR COR ESMX 160750Z 14005KT 9999 BKN002 BKN004 03/03 Q1007=
201511160720 METAR ESMX 160720Z 13004KT 9999 BKN002 OVC022 04/03 Q1007=
201511160650 METAR ESMX 160650Z 15004KT 9000 BR BKN002 OVC003 04/04 Q1007=
201511160620 METAR ESMX 160620Z 15005KT 1400 R01/1700N R19/1800N FG VV002 04/04 Q1007=
201511160550 METAR ESMX 160550Z 13004KT 0300 R01/0900N R19/1000N FG VV001 04/04 Q1007=
201511160520 METAR ESMX 160520Z 18002KT 0300 R01/0900N R19/1000N FG VV001 04/04 Q1007=
201511160450 METAR ESMX 160450Z VRB03KT 0550 R01/1400U R19/1600U FG VV001 04/03 Q1007=
201511160420 METAR ESMX 160420Z AUTO 17003KT 0100 R01/0450N R19/0500N FG VV001 03/03 Q1007=
201511160350 METAR ESMX 160350Z AUTO 00000KT 0250 R01/0900N R19/0800N FG VV001 03/03 Q1007=
201511160320 METAR ESMX 160320Z AUTO 20004KT 6000 BR OVC002/// 03/03 Q1007=
201511160250 METAR ESMX 160250Z AUTO VRB03KT 9999 OVC002/// 03/03 Q1007=
201511160220 METAR ESMX 160220Z AUTO 20003KT 9999 OVC002/// 03/03 Q1007=
201511160150 METAR ESMX 160150Z AUTO 00000KT 9999 FEW003/// BKN013/// OVC016/// 03/03 Q1007=
201511160120 METAR ESMX 160120Z AUTO 00000KT 9999 BKN011/// BKN017/// 03/02 Q1006=
201511160050 METAR ESMX 160050Z AUTO 00000KT 9000 BR OVC010/// 03/03 Q1006=
201511160020 METAR ESMX 160020Z VRB02KT 9999 FEW008 OVC012 02/02 Q1006=
201511152350 METAR ESMX 152350Z 24004KT 1300 R01/P2000N R19/P2000N BCFG SCT013 00/M00 Q1006=
201511152320 METAR ESMX 152320Z 20003KT 4000 BR NSC 00/M00 Q1005=
201511152250 METAR ESMX 152250Z VRB02KT CAVOK 02/02 Q1005=
201511152220 METAR ESMX 152220Z 22005KT CAVOK 03/02 Q1005=
201511152150 METAR ESMX 152150Z 24003KT 210V270 CAVOK 04/03 Q1004=
201511152120 METAR ESMX 152120Z 23006KT CAVOK 03/02 Q1004=
201511152050 METAR ESMX 152050Z 23005KT 9999 FEW025 03/03 Q1004=
201511152020 METAR ESMX 152020Z 25003KT 9999 FEW029 04/03 Q1004=
201511151950 METAR ESMX 151950Z 25004KT 9999 BKN032 05/04 Q1003=
201511151920 METAR ESMX 151920Z 23005KT 200V270 9999 OVC033 05/03 Q1003=
201511151850 METAR ESMX 151850Z 25004KT 9999 OVC033 05/03 Q1002=
201511151820 METAR ESMX 151820Z 26005KT 9999 OVC033 05/03 Q1002=
201511151750 METAR ESMX 151750Z 21005KT 9999 OVC031 05/03 Q1002=
201511151720 METAR ESMX 151720Z 23006KT 9999 FEW027 OVC032 05/03 Q1001=
201511151650 METAR ESMX 151650Z 22004KT 9999 BKN028 05/03 Q1001=
201511151620 METAR ESMX 151620Z 23005KT 9999 BKN029 05/03 Q1001=
201511151550 METAR ESMX 151550Z 21004KT 9999 BKN031 04/03 Q1000=
201511151520 METAR ESMX 151520Z 22004KT 9999 FEW034 03/02 Q1000=
201511151450 METAR ESMX 151450Z 23003KT CAVOK 04/02 Q1000=
201511151420 METAR ESMX 151420Z 23004KT CAVOK 05/03 Q1000=
201511151350 METAR ESMX 151350Z 26004KT 230V290 9999 FEW031 06/03 Q1000=
201511151320 METAR ESMX 151320Z 30006KT 270V330 9999 SCT017 07/04 Q1000=
201511151250 METAR ESMX 151250Z 29004KT 200V360 9999 FEW011 SCT017 07/04 Q0999=
201511151220 METAR COR ESMX 151220Z 24006KT 210V270 9999 FEW010 BKN014 BKN020 07/04 Q0999=
201511151150 METAR ESMX 151150Z 24006KT 210V270 9999 FEW009 SCT011 BKN014 07/04 Q0999=
201511151120 METAR ESMX 151120Z AUTO 23006KT 9999 BKN008/// OVC014/// 06/04 Q1000=
201511151050 METAR ESMX 151050Z AUTO 24006KT 210V290 9999 BKN007/// OVC010/// 06/05 Q0999=
201511151020 METAR ESMX 151020Z AUTO 23008KT 9999 BKN007/// 06/04 Q0999=
201511150950 METAR ESMX 150950Z AUTO 22008KT 9999 BKN005/// OVC009/// 05/04 Q1000=
201511150920 METAR ESMX 150920Z AUTO 23008KT 9999 BKN005/// OVC009/// 05/04 Q1000=
201511150850 METAR ESMX 150850Z AUTO 22008KT 9999 BKN005/// OVC007/// 05/04 Q1000=
201511150820 METAR ESMX 150820Z AUTO 23007KT 9999 OVC005/// 05/04 Q1000=
201511150750 METAR ESMX 150750Z AUTO 22007KT 9999 OVC003/// 04/04 Q1000=
201511150720 METAR ESMX 150720Z 23007KT 9999 OVC003 04/04 Q1000=
201511150650 METAR ESMX 150650Z 22009KT 9999 OVC003 04/04 Q1000=
201511150620 METAR ESMX 150620Z 22008KT 9999 BKN003 04/03 Q1000=
201511150550 METAR ESMX 150550Z AUTO 21008KT 9999 BKN002/// 04/03 Q1000=
201511150520 METAR ESMX 150520Z AUTO 23009KT 9999 FEW002/// 03/03 Q1001=
201511150450 METAR ESMX 150450Z AUTO 22008KT 9999 NCD 03/03 Q1001=
201511150420 METAR ESMX 150420Z AUTO 22008KT 9999 NCD 03/03 Q1001=
201511150350 METAR ESMX 150350Z AUTO 22006KT 9999 NCD 03/02 Q1001=
201511150320 METAR ESMX 150320Z AUTO 23007KT 9999 NCD 04/03 Q1001=
201511150250 METAR ESMX 150250Z AUTO 22009KT 9999 NCD 04/03 Q1002=
201511150220 METAR ESMX 150220Z AUTO 23008KT 9999 NCD 04/03 Q1002=
201511150150 METAR ESMX 150150Z AUTO 23009KT 9999 NCD 04/03 Q1002=
201511150120 METAR ESMX 150120Z AUTO 23009KT 9999 FEW014/// 04/03 Q1003=
201511150050 METAR ESMX 150050Z AUTO 22008KT 9999 FEW014/// 04/03 Q1003=
201511150020 METAR ESMX 150020Z AUTO 23010KT 9999 FEW023/// SCT034/// BKN043/// 04/03 Q1003=
201511142350 METAR ESMX 142350Z AUTO 23009KT 9999 FEW020/// SCT035/// BKN051/// 05/03 Q1003=
201511142320 METAR ESMX 142320Z AUTO 23010KT 9999 FEW026/// 05/03 Q1003=
201511142250 METAR ESMX 142250Z AUTO 23010KT 9999 FEW040/// 04/03 Q1003 RESHUP=
201511142220 METAR ESMX 142220Z AUTO 23009KT 9999 FEW036/// 04/03 Q1004 REUP RESHUP=
201511142150 METAR ESMX 142150Z AUTO 22009KT 190V250 9999 NCD 04/03 Q1004=
201511142120 METAR ESMX 142120Z AUTO 23009KT 9999 FEW028/// 04/03 Q1004=
201511142050 METAR ESMX 142050Z 23010KT 9999 FEW029 04/03 Q1004=
201511142020 METAR ESMX 142020Z 24011KT 9999 FEW028 05/03 Q1004=
201511141950 METAR ESMX 141950Z 24009KT 9999 SCT027 05/03 Q1004=
201511141920 METAR ESMX 141920Z 25010KT 9999 -SHRA FEW014 SCT020 05/04 Q1004=
201511141850 METAR ESMX 141850Z 24009KT 9999 FEW020 SCT034 05/03 Q1004=
201511141820 METAR ESMX 141820Z 24009KT 9999 FEW027 05/03 Q1004=
201511141750 METAR ESMX 141750Z AUTO 24010KT 9999 FEW026/// SCT047/// 05/04 Q1004=
201511141720 METAR ESMX 141720Z AUTO 25010KT 9999 FEW025/// 05/04 Q1004=
201511141650 METAR ESMX 141650Z AUTO 24010KT 9999 FEW031/// 05/04 Q1004 RESHUP REUP=
201511141620 METAR ESMX 141620Z AUTO 23011KT 9999 FEW020/// SCT029/// 05/04 Q1004 REUP=
201511141550 METAR ESMX 141550Z AUTO 24009KT 9999 -DZ FEW018/// SCT027/// BKN041/// 05/04 Q1004=
201511141520 METAR ESMX 141520Z AUTO 24011KT 9999 NCD 05/04 Q1004=
201511141450 METAR ESMX 141450Z AUTO 26010KT 9999 FEW009/// SCT016/// BKN027/// 06/04 Q1004=
201511141420 METAR ESMX 141420Z AUTO 25012G23KT 7000 RA FEW012/// SCT017/// BKN028/// 06/05 Q1004=
201511141350 METAR ESMX 141350Z AUTO 23012KT 9999 -DZ FEW014/// SCT019/// BKN021/// 07/05 Q1004 REUP=
201511141320 METAR ESMX 141320Z AUTO 25013KT 9999 FEW017/// SCT020/// BKN025/// 07/05 Q1004=
201511141250 METAR ESMX 141250Z AUTO 25011KT 9999 FEW015/// 07/05 Q1004=
201511141220 METAR ESMX 141220Z AUTO 25011KT 9999 -RA FEW016/// SCT020/// BKN026/// 06/05 Q1004 REUP=
201511141150 METAR ESMX 141150Z AUTO 25010KT 9999 FEW015/// BKN035/// 07/04 Q1004=
201511141120 METAR ESMX 141120Z AUTO 24008KT 9999 FEW013/// SCT039/// 06/04 Q1004=
201511141050 METAR ESMX 141050Z AUTO 26011KT 9999 FEW012/// SCT018/// 06/04 Q1004=
201511141020 METAR ESMX 141020Z AUTO 25012KT 9999 FEW010/// SCT013/// BKN015/// 06/04 Q1004=
201511140950 METAR ESMX 140950Z AUTO 25011KT 9999 FEW008/// BKN011/// 05/03 Q1004=
201511140920 METAR ESMX 140920Z AUTO 25009KT 9999 FEW007/// 05/03 Q1004=
201511140850 METAR ESMX 140850Z AUTO 23007KT 9999 FEW010/// 03/03 Q1004=
201511140820 METAR ESMX 140820Z AUTO 22005KT 9999 FEW032/// 03/03 Q1003 RERA=
201511140750 METAR ESMX 140750Z AUTO 24006KT 210V270 9999 FEW016/// 03/02 Q1003 RESHRA=
201511140720 METAR ESMX 140720Z AUTO 24007KT 9999 -RA FEW015/// 04/03 Q1003=
201511140650 METAR ESMX 140650Z AUTO 22010KT 9999 -RA FEW012/// 03/03 Q1002 RESHUP RERA=
201511140620 METAR ESMX 140620Z AUTO 24009KT 210V280 8000 -RA FEW009/// SCT046/// 03/02 Q1002=
201511140550 METAR ESMX 140550Z AUTO 24013G24KT 190V280 5000 RA FEW009/// SCT011/// BKN015/// 04/02 Q1002=
201511140520 METAR ESMX 140520Z AUTO 24009KT 9999 -DZ FEW009/// SCT013/// BKN016/// 04/03 Q1002 RESHUP=
201511140450 METAR ESMX 140450Z AUTO 24008KT 9999 FEW009/// SCT013/// BKN016/// 04/03 Q1002 RESHUP RERA=
201511140420 METAR ESMX 140420Z AUTO 23008KT 9999 FEW012/// SCT015/// BKN024/// 04/03 Q1002=
201511140350 METAR ESMX 140350Z AUTO 23009KT 9999 FEW009/// BKN020/// BKN033/// 04/04 Q1002 RERA=
201511140320 METAR ESMX 140320Z AUTO 23010KT 9999 FEW010/// SCT014/// BKN019/// 04/03 Q1002 RERA=
201511140250 METAR ESMX 140250Z AUTO 23011KT 9000 -RA FEW012/// BKN015/// OVC019/// 04/03 Q1002 REDZ REUP=
201511140220 METAR ESMX 140220Z AUTO 24011KT 9999 FEW013/// BKN017/// OVC021/// 05/03 Q1002=
201511140150 METAR ESMX 140150Z AUTO 22015KT 190V250 9999 FEW015/// SCT018/// BKN020/// 05/03 Q1001=
201511140120 METAR ESMX 140120Z AUTO 22012KT 9999 BKN014/// OVC021/// 05/04 Q1002=
201511140050 METAR ESMX 140050Z AUTO 23014KT 9999 FEW008/// SCT013/// BKN016/// 05/04 Q1001=
201511140020 METAR ESMX 140020Z AUTO 22014KT 8000 -RA FEW010/// SCT013/// BKN018/// 05/04 Q1001=
201511132350 METAR ESMX 132350Z AUTO 20016KT 9999 DZ FEW012/// BKN015/// OVC019/// 06/04 Q1002 RESHUP REDZ=
201511132320 METAR ESMX 132320Z AUTO 20013KT 9999 FEW011/// BKN015/// OVC019/// 06/04 Q1002=
201511132250 METAR ESMX 132250Z AUTO 19014KT 9999 FEW013/// SCT017/// BKN031/// 06/05 Q1002=
201511132220 METAR ESMX 132220Z AUTO 19017KT 8000 -RA FEW012/// SCT015/// BKN022/// 06/05 Q1003 REUP RESHUP=
201511132150 METAR ESMX 132150Z AUTO 18011KT 9999 FEW064/// SCT081/// 06/05 Q1003=
201511132120 METAR ESMX 132120Z AUTO 19013KT 9999 NCD 06/05 Q1004=
201511132050 METAR ESMX 132050Z AUTO 19011KT 9999 FEW032/// 06/05 Q1004=
201511132020 METAR ESMX 132020Z 18011KT CAVOK 05/04 Q1005=
201511131950 METAR ESMX 131950Z 18008KT CAVOK 05/05 Q1005=
201511131920 METAR ESMX 131920Z 17007KT CAVOK 06/04 Q1006=
201511131850 METAR ESMX 131850Z 22009KT 9999 FEW048 07/04 Q1006=
201511131820 METAR ESMX 131820Z 23010KT 9999 FEW041 SCT047 07/04 Q1006=
201511131750 METAR ESMX 131750Z 21010KT 9999 FEW018 07/05 Q1006=
201511131720 METAR ESMX 131720Z 23009KT 9999 FEW018 08/05 Q1006=
201511131650 METAR ESMX 131650Z 23010KT 9999 FEW017 SCT025 09/06 Q1006=
201511131620 METAR ESMX 131620Z 22012KT 9999 FEW020 SCT025 BKN031 09/06 Q1006=
201511131550 METAR COR ESMX 131550Z 22012KT 9999 FEW018 SCT022 BKN026 09/07 Q1006=
201511131520 METAR ESMX 131520Z 21011KT 9999 FEW016 SCT019 BKN023 09/08 Q1006=
201511131450 METAR ESMX 131450Z 23014KT 9999 FEW011 SCT021 BKN051 10/08 Q1006 REDZ=
201511131420 METAR ESMX 131420Z 20011G22KT 9999 FEW010 SCT018 BKN024 10/09 Q1006=
201511131350 METAR ESMX 131350Z 19014KT 9999 FEW008 SCT010 BKN014 10/09 Q1006=
201511131320 METAR ESMX 131320Z 18016KT 8000 -RA BKN009 OVC015 10/09 Q1007=
201511131250 METAR ESMX 131250Z 18014KT 9999 BKN010 OVC016 10/08 Q1007=
201511131220 METAR ESMX 131220Z 18014KT 9999 BKN013 10/08 Q1007=
201511131150 METAR ESMX 131150Z 18014KT 140V200 9999 -DZ FEW012 SCT015 BKN050 10/08 Q1008=
201511131120 METAR ESMX 131120Z 17012KT 9999 FEW015 SCT031 BKN042 10/08 Q1009=
201511131050 METAR ESMX 131050Z 17011KT 9999 FEW011 OVC030 10/08 Q1010=
201511131020 METAR ESMX 131020Z 17012KT 9999 BKN011 10/08 Q1010=
201511130950 METAR ESMX 130950Z 17012KT 9000 BR BKN010 09/08 Q1011=
201511130920 METAR ESMX 130920Z 17012KT 8000 BR SCT007 09/08 Q1011=
201511130850 METAR ESMX 130850Z 17011KT 6000 BR OVC005 09/08 Q1012=
201511130820 METAR ESMX 130820Z 16010KT 130V190 6000 BR OVC004 08/08 Q1012=
201511130750 METAR ESMX 130750Z 18011KT 6000 BR OVC003 08/08 Q1013=
201511130720 METAR ESMX 130720Z 16010KT 4700 BR OVC002 08/07 Q1013=
201511130650 METAR ESMX 130650Z 16010KT 3400 BR OVC002 07/07 Q1014=
201511130620 METAR ESMX 130620Z 16009KT 0700 R01/1500U R19/1700U FG VV002 07/07 Q1015=
201511130550 METAR ESMX 130550Z 17009KT 0650 R01/1900D R19/P2000N FG VV002 06/06 Q1015=
201511130520 METAR ESMX 130520Z 17007KT 1100 R01/P2000N R19/P2000N BR VV002 06/06 Q1016=
201511130453 METAR ESMX 130453Z 17007KT 4400 BR OVC002 06/06 Q1016=
201511130020 METAR ESMX 130020Z 17005KT 7000 BR FEW018 06/05 Q1018=
201511122350 METAR ESMX 122350Z 19006KT 9000 BR NSC 05/04 Q1018=
201511122320 METAR ESMX 122320Z 22008KT 9999 FEW020 06/05 Q1018=
201511122250 METAR ESMX 122250Z 23007KT CAVOK 06/05 Q1018=
201511122220 METAR ESMX 122220Z 23005KT CAVOK 06/05 Q1018=
201511122150 METAR ESMX 122150Z 25007KT CAVOK 06/05 Q1018=
201511122120 METAR ESMX 122120Z 24009KT CAVOK 06/05 Q1018=
201511122050 METAR ESMX 122050Z 24007KT CAVOK 06/05 Q1017=
201511122020 METAR ESMX 122020Z 25009KT CAVOK 07/05 Q1017=
201511121950 METAR ESMX 121950Z 26009KT CAVOK 07/06 Q1017=
201511121920 METAR ESMX 121920Z 26010KT 9999 FEW018 SCT023 08/06 Q1017=
201511121850 METAR ESMX 121850Z 27010KT 9999 FEW020 08/06 Q1016=
201511121820 METAR ESMX 121820Z 26011KT 9999 FEW020 SCT024 08/06 Q1016=
201511121750 METAR ESMX 121750Z 26013KT 9999 BKN020 09/06 Q1016=
201511121720 METAR ESMX 121720Z 26014KT 9999 SCT021 09/06 Q1015=
201511121650 METAR ESMX 121650Z 26011KT 230V290 9999 SCT019 09/06 Q1015=
201511121620 METAR ESMX 121620Z 26012G22KT 9999 FEW023 09/06 Q1014=
201511121550 METAR ESMX 121550Z 26011KT 9999 SCT020 09/06 Q1014=
201511121520 METAR ESMX 121520Z 27013KT 9999 FEW022 09/06 Q1013=
201511121450 METAR ESMX 121450Z 27013KT 9999 FEW023 SCT028 BKN032 09/06 Q1013=
201511121420 METAR ESMX 121420Z 26012KT 9999 SCT023 08/07 Q1013=
201511121350 METAR ESMX 121350Z 27014KT 9000 -RA BKN020 09/07 Q1012=
201511121320 METAR ESMX 121320Z 27014KT 9999 SCT029 10/05 Q1012=
201511121250 METAR ESMX 121250Z 27014KT 9999 SCT027 10/05 Q1011=
201511121220 METAR ESMX 121220Z 27014G25KT 240V300 9999 BKN028 10/06 Q1011=
201511121150 METAR ESMX 121150Z 26016KT 9999 SCT024 10/06 Q1011=
201511121120 METAR ESMX 121120Z 25016KT 9999 SCT025 10/06 Q1010=
201511121050 METAR ESMX 121050Z 26015G28KT 9999 BKN023 10/06 Q1010=
201511121020 METAR ESMX 121020Z 27014KT 9999 BKN023 10/07 Q1009=
201511120950 METAR ESMX 120950Z 25013KT 9999 BKN018 10/07 Q1009=
201511120917 METAR ESMX 120917Z 26013KT 9999 BKN019 10/07 Q1008=
201511120850 METAR ESMX 120850Z 24013G26KT 9999 FEW015 BKN020 10/08 Q1008=
201511120745 METAR ESMX 120745Z 26010KT 8000 SHRA BKN016CB 10/08 Q1007=
201511120720 METAR ESMX 120720Z 23010KT 9999 FEW015 BKN020 10/08 Q1007=
201511120650 METAR ESMX 120650Z 23011KT 200V260 9999 FEW014 SCT016 BKN020 11/09 Q1007=
201511120620 METAR ESMX 120620Z 22011KT 200V260 9999 FEW008 SCT010 BKN013 11/10 Q1007=
201511120550 METAR ESMX 120550Z 21009KT 9999 FEW007 SCT010 BKN015 11/10 Q1007=
201511120520 METAR ESMX 120520Z 21009KT 9999 FEW006 SCT009 BKN010 11/10 Q1007=
201511120450 METAR ESMX 120450Z 22007KT 9999 FEW008 SCT012 OVC023 10/10 Q1008=
201511120420 METAR ESMX 120420Z AUTO 21008KT 9999 FEW002/// SCT005/// BKN008/// 10/10 Q1008=
201511120350 METAR ESMX 120350Z AUTO 23008KT 9999 OVC001/// 10/10 Q1008=
201511120320 METAR ESMX 120320Z AUTO 21007KT 8000 BR OVC001/// 09/09 Q1008=
201511120250 METAR ESMX 120250Z AUTO 21006KT 9999 -RA OVC001/// 09/09 Q1009=
201511120150 METAR ESMX 120150Z AUTO 17004KT 5000 -RA FEW007/// OVC009/// 08/08 Q1009=
201511120120 METAR ESMX 120120Z AUTO 19003KT 9999 DZ OVC011/// 08/08 Q1009=
201511120050 METAR ESMX 120050Z 22003KT 9999 -DZ FEW002 BKN015 BKN021 08/08 Q1009=
201511120020 METAR ESMX 120020Z 22004KT 9999 RA FEW002 SCT004 BKN023 08/08 Q1009=
201511112350 METAR COR ESMX 112350Z 20005KT 9000 -RA FEW002 SCT027 BKN032 08/08 Q1009=
201511112320 METAR ESMX 112320Z 19005KT 5000 RA FEW003 SCT005 08/08 Q1009=
201511112220 METAR COR ESMX 112220Z 24006KT 8000 RA FEW004 SCT006 BKN049 09/08 Q1010=
201511112150 METAR ESMX 112150Z 19008KT 9999 -RA FEW005 BKN051 09/09 Q1010=
201511112120 METAR ESMX 112120Z 20006KT 9999 -DZ FEW008 SCT011 09/09 Q1010=
201511112050 METAR COR ESMX 112050Z 22006KT 9999 DZ FEW008 BKN010 BKN057 10/09 Q1011=
201511112020 METAR ESMX 112020Z 22006KT 9999 -DZ FEW009 SCT012 BKN015 10/09 Q1011=
201511111950 METAR ESMX 111950Z 21005KT 9999 FEW010 SCT016 BKN075 10/09 Q1011=
201511111850 METAR COR ESMX 111850Z 23007KT 9999 FEW010 10/09 Q1011=
201511111820 METAR ESMX 111820Z 24008KT 9999 FEW014 10/09 Q1011=
201511111750 METAR ESMX 111750Z 23008KT 9999 FEW014 10/09 Q1011=
201511111720 METAR ESMX 111720Z 24006KT 9999 FEW014 SCT110 09/08 Q1011=
201511111650 METAR ESMX 111650Z 22007KT 9999 FEW012 09/08 Q1011=
201511111620 METAR ESMX 111620Z 23007KT 9999 FEW014 09/08 Q1011=
201511111550 METAR ESMX 111550Z 25007KT 9999 FEW016 09/08 Q1011=
201511111520 METAR ESMX 111520Z 25007KT 9999 FEW021 10/07 Q1011=
201511111450 METAR ESMX 111450Z 25009KT 9999 FEW018 SCT038 10/07 Q1011=
201511111420 METAR ESMX 111420Z 26011KT 9999 FEW018 SCT021 11/07 Q1011=
201511111350 METAR ESMX 111350Z 27010KT 9999 FEW023 11/07 Q1011=
201511111320 METAR ESMX 111320Z 27010KT 9999 FEW025 11/07 Q1011=
201511111250 METAR ESMX 111250Z 27010KT 230V290 9999 SCT022 12/07 Q1011=
201511111220 METAR ESMX 111220Z 26012KT 9999 SCT021 BKN027 12/07 Q1011=
201511111150 METAR ESMX 111150Z 27013KT 9999 BKN020 BKN053 12/07 Q1011=
201511111120 METAR ESMX 111120Z 27012KT 9999 FEW019 BKN025 12/07 Q1010=
201511111050 METAR ESMX 111050Z 27011KT 9999 FEW017 SCT020 12/08 Q1010=
201511111020 METAR ESMX 111020Z 27011KT 9999 BKN016 11/08 Q1010=
201511110950 METAR COR ESMX 110950Z 27010KT 230V300 9999 BKN015 11/08 Q1010=
201511110920 METAR ESMX 110920Z 26010KT 230V290 9999 BKN015 11/08 Q1010=
201511110850 METAR ESMX 110850Z 25010KT 9999 BKN015 OVC020 10/08 Q1009=
201511110820 METAR ESMX 110820Z 26010KT 220V290 9999 FEW012 BKN015 BKN017 10/08 Q1009=
201511110750 METAR ESMX 110750Z 26009KT 230V300 9999 BKN012 BKN021 10/08 Q1009=
201511110720 METAR ESMX 110720Z 26008KT 9999 BKN013 10/08 Q1008=
201511110650 METAR ESMX 110650Z 27010KT 9999 FEW013 SCT020 BKN023 10/08 Q1008=
201511110620 METAR ESMX 110620Z 28012KT 9999 FEW012 BKN015 BKN026 10/08 Q1008=
201511110550 METAR ESMX 110550Z 27010KT 9999 BKN010 OVC015 11/08 Q1007=
201511110520 METAR ESMX 110520Z 27010KT 9999 FEW009 BKN012 10/09 Q1007=
201511110450 METAR ESMX 110450Z 27011KT 9999 BKN010 OVC015 11/09 Q1007=
201511110420 METAR ESMX 110420Z AUTO 27010KT 9999 FEW009/// OVC011/// 11/09 Q1006=
201511110350 METAR ESMX 110350Z AUTO 27010KT 9999 FEW008/// OVC009/// 11/09 Q1006=
201511110320 METAR ESMX 110320Z AUTO 26009KT 9999 BKN007/// OVC011/// 10/09 Q1006=
201511110250 METAR ESMX 110250Z AUTO 27010KT 9999 BKN008/// OVC011/// 10/09 Q1006=
201511110220 METAR ESMX 110220Z AUTO 26010KT 9999 OVC008/// 10/09 Q1006=
201511110150 METAR ESMX 110150Z AUTO 26009KT 9999 FEW007/// OVC009/// 10/09 Q1005=
201511110120 METAR ESMX 110120Z AUTO 26010KT 9999 FEW010/// SCT012/// OVC021/// 10/08 Q1005=
201511110050 METAR ESMX 110050Z 26010KT 220V290 9999 SCT010 OVC022 10/08 Q1005=
201511110020 METAR ESMX 110020Z 26011KT 5000 -DZ FEW012 BKN022 10/08 Q1005=
201511102350 METAR ESMX 102350Z 26009KT 9999 BKN021 OVC030 11/08 Q1004=
201511102320 METAR ESMX 102320Z 26010KT 9999 FEW012 BKN027 11/09 Q1004=
201511102250 METAR ESMX 102250Z 26010KT 9999 FEW009 BKN012 BKN025 11/09 Q1004=
201511102220 METAR ESMX 102220Z 25010KT 9999 FEW009 BKN011 OVC035 11/09 Q1004=
201511102150 METAR ESMX 102150Z 26011KT 9999 FEW012 BKN015 BKN035 11/09 Q1004=
201511102120 METAR ESMX 102120Z 27012KT 9999 OVC015 12/09 Q1004=
201511102050 METAR ESMX 102050Z 26013G24KT 9999 FEW016 BKN018 12/09 Q1004=
201511102020 METAR ESMX 102020Z 26013KT 9999 FEW017 12/09 Q1004=
201511101950 METAR ESMX 101950Z 25015KT 9999 FEW018 BKN080 12/09 Q1003=
201511101920 METAR ESMX 101920Z 25013KT 9999 FEW015 BKN019 12/09 Q1004=
201511101850 METAR ESMX 101850Z 26013KT 9999 FEW015 BKN017 12/09 Q1004=
201511101820 METAR ESMX 101820Z 27015KT 9999 FEW016 BKN020 12/09 Q1003=
201511101750 METAR ESMX 101750Z 26013KT 9999 SCT015 BKN022 12/09 Q1003=
201511101720 METAR ESMX 101720Z 27015KT 9999 SCT015 BKN023 12/09 Q1003=
201511101650 METAR ESMX 101650Z 26014G26KT 9999 SCT015 BKN020 12/09 Q1003=
201511101620 METAR ESMX 101620Z 26013KT 9999 FEW014 BKN020 BKN033 12/10 Q1003=
201511101550 METAR COR ESMX 101550Z 27012KT 9999 FEW013 BKN018 12/10 Q1002=
201511101520 METAR ESMX 101520Z 27010KT 9999 FEW009 SCT011 BKN014 12/10 Q1002=
201511101450 METAR ESMX 101450Z 26012KT 6000 BR FEW008 SCT009 OVC012 11/10 Q1002=
201511101420 METAR ESMX 101420Z 26012KT 6000 BR FEW005 SCT007 BKN009 11/10 Q1001=
201511101350 METAR ESMX 101350Z 26009KT 5000 BR OVC005 11/10 Q1001=
201511101320 METAR COR ESMX 101320Z 25010KT 3600 BR OVC006 10/09 Q1001=
201511101250 METAR ESMX 101250Z 25010KT 230V290 9999 OVC008 10/09 Q1001=
201511101220 METAR ESMX 101220Z 26008KT 230V290 9999 FEW007 BKN009 OVC011 10/09 Q1001=
201511101150 METAR ESMX 101150Z 26008KT 9999 BKN008 10/09 Q1001=
201511101120 METAR ESMX 101120Z 26009KT 9999 BKN008 10/08 Q1001=
201511101050 METAR ESMX 101050Z 26010KT 210V290 9999 BKN009 10/08 Q1001=
201511101020 METAR ESMX 101020Z 25010KT 9999 FEW010 BKN027 10/08 Q1000=
201511100950 METAR ESMX 100950Z 27008KT 9999 FEW011 BKN028 10/07 Q1001=
201511100920 METAR ESMX 100920Z 27011KT 220V300 9999 FEW027 09/07 Q1001=
201511100850 METAR ESMX 100850Z 26011KT 9999 FEW031 SCT048 09/07 Q1000=
201511100820 METAR ESMX 100820Z 26010KT 9999 FEW043 SCT048 BKN056 09/07 Q1000=
201511100750 METAR ESMX 100750Z 26009KT 9999 BKN042 BKN052 09/07 Q1000=
201511100720 METAR ESMX 100720Z 26009KT 9999 OVC047 09/07 Q1000=
201511100650 METAR ESMX 100650Z 25011KT 210V290 9999 FEW011 BKN054 09/07 Q1000=
201511100620 METAR ESMX 100620Z 25010KT 9999 FEW009 SCT061 BKN100 08/07 Q1000=
201511100550 METAR ESMX 100550Z 24009KT 210V280 CAVOK 08/07 Q1000=
201511100520 METAR ESMX 100520Z 24010KT 9999 -RA NSC 09/07 Q1000=
201511100450 METAR COR ESMX 100450Z 26011KT 9999 -DZ NCD 09/06 Q1001=
201511100420 METAR ESMX 100420Z AUTO 25009KT 9999 SCT063/// 09/06 Q1001=
201511100350 METAR ESMX 100350Z AUTO 25008KT 9999 FEW069/// 09/06 Q1001=
201511100320 METAR ESMX 100320Z AUTO 25008KT 9999 FEW100/// 09/06 Q1001=
201511100250 METAR ESMX 100250Z AUTO 24009KT 9999 FEW025/// 09/06 Q1001=
201511100220 METAR ESMX 100220Z AUTO 25010KT 9999 FEW025/// 09/07 Q1002=
201511100150 METAR ESMX 100150Z AUTO 25010G21KT 9999 FEW024/// SCT030/// 09/06 Q1002=
201511100120 METAR ESMX 100120Z AUTO 26011KT 9999 FEW022/// SCT028/// BKN035/// 09/07 Q1001=
201511100050 METAR ESMX 100050Z 27011KT 230V300 9999 FEW020 BKN032 10/07 Q1002=
201511100020 METAR ESMX 100020Z 26012KT 9999 FEW020 BKN031 09/07 Q1001=
201511092350 METAR ESMX 092350Z 26011KT 9999 FEW022 SCT034 09/07 Q1001=
201511092320 METAR ESMX 092320Z 26012KT 9999 FEW022 BKN031 09/07 Q1001=
201511092250 METAR ESMX 092250Z 26010KT 9999 FEW020 SCT027 BKN045 09/07 Q1001=
201511092220 METAR ESMX 092220Z 26012KT 230V290 9999 FEW019 BKN030 09/07 Q1001=
201511092150 METAR ESMX 092150Z 25012KT 230V290 9999 FEW021 10/08 Q1001=
201511092120 METAR ESMX 092120Z 26012KT 9999 -RA FEW017 SCT023 BKN053 09/08 Q1000=
201511092050 METAR ESMX 092050Z 26012KT 220V280 9999 FEW022 09/08 Q1000=
201511092020 METAR ESMX 092020Z 26010KT 230V290 7000 RA FEW017 SCT041 08/07 Q1000=
201511091950 METAR ESMX 091950Z 28017G29KT 250V320 7000 RA FEW009 SCT014 BKN019 09/07 Q1001=
201511091920 METAR ESMX 091920Z 22017G31KT 9999 FEW007 BKN012 09/08 Q1000=
201511091850 METAR ESMX 091850Z 22017KT 5000 RA FEW006 BKN009 09/08 Q1000=
201511091820 METAR ESMX 091820Z 21016KT 6000 -RA FEW007 BKN009 09/08 Q1000=
201511091750 METAR COR ESMX 091750Z 22014KT 180V240 7000 RA FEW007 SCT008 OVC010 08/07 Q1001=
201511091720 METAR ESMX 091720Z 20015KT 7000 BR SCT011 BKN013 OVC016 08/06 Q1002=
201511091650 METAR ESMX 091650Z 21013KT 9999 -DZ SCT016 BKN020 OVC026 08/06 Q1003=
201511091620 METAR ESMX 091620Z 22014KT 190V250 9999 -DZ FEW023 SCT028 BKN038 08/05 Q1004=
201511091550 METAR ESMX 091550Z 22012KT 9999 FEW026 BKN059 08/05 Q1004=
201511091520 METAR ESMX 091520Z 23012KT 9999 FEW027 SCT047 BKN069 09/05 Q1005=
201511091450 METAR ESMX 091450Z 25012KT 210V280 9999 FEW021 SCT026 BKN033 09/05 Q1005=
201511091420 METAR ESMX 091420Z 24011KT 9999 FEW020 BKN024 BKN035 09/06 Q1005=
201511091350 METAR ESMX 091350Z 22009KT 9999 FEW020 SCT026 BKN039 09/06 Q1006=
201511091320 METAR ESMX 091320Z 24008KT 9999 FEW023 SCT032 BKN061 09/06 Q1006=
201511091250 METAR ESMX 091250Z 25009KT 9999 SCT023 09/05 Q1005=
201511091220 METAR ESMX 091220Z 25010KT 220V290 9999 FEW022 SCT027 09/06 Q1006=
201511091150 METAR ESMX 091150Z 26012G26KT 230V300 9999 FEW019 SCT030 10/06 Q1006=
201511091120 METAR ESMX 091120Z 25010KT 200V270 9999 FEW021 BKN036 10/06 Q1006=
201511091050 METAR ESMX 091050Z 26012KT 220V290 9999 FEW018 SCT021 BKN024 10/06 Q1006=
201511091020 METAR ESMX 091020Z 26010KT 9999 SCT021 10/07 Q1005=
201511090950 METAR ESMX 090950Z 26012G23KT 9999 FEW012 SCT018 09/06 Q1005=
201511090920 METAR ESMX 090920Z 26010KT 9999 FEW011 SCT018 10/08 Q1005=
201511090850 METAR ESMX 090850Z 24008KT 200V280 9999 FEW012 BKN020 10/09 Q1005=
201511090820 METAR ESMX 090820Z 25007KT 220V280 9999 SCT012 BKN026 11/09 Q1004=
201511090750 METAR ESMX 090750Z 25008KT 9999 SCT005 BKN011 10/09 Q1005=
201511090720 METAR ESMX 090720Z 23009KT 9999 -RA BKN004 10/09 Q1004=
201511090650 METAR ESMX 090650Z 20008KT 6000 RA OVC004 10/09 Q1004=
201511090620 METAR ESMX 090620Z 17010KT 9999 -RA OVC004 09/09 Q1004=
201511090550 METAR ESMX 090550Z 17012KT 9999 SCT005 BKN008 09/09 Q1004=
201511090520 METAR ESMX 090520Z 17011KT 140V210 9999 -RA OVC005 09/08 Q1005=
201511090450 METAR COR ESMX 090450Z 16011KT 9999 -RA SCT005 BKN006 09/08 Q1005=
201511090420 METAR ESMX 090420Z AUTO 16012KT 9999 RA FEW006/// SCT009/// BKN014/// 09/08 Q1007=
201511090350 METAR ESMX 090350Z AUTO 16011KT 9999 -RA FEW006/// SCT009/// 09/08 Q1007 REUP=
201511090320 METAR ESMX 090320Z AUTO 17011KT 9999 -RA FEW006/// SCT009/// 09/08 Q1008 REUP=
201511090250 METAR ESMX 090250Z AUTO 16010KT 9999 FEW004/// SCT006/// BKN083/// 08/07 Q1009=
201511090220 METAR ESMX 090220Z AUTO 17009KT 9999 OVC003/// 08/07 Q1010=
201511090150 METAR ESMX 090150Z AUTO 15009KT 9999 -RA FEW004/// BKN005/// BKN008/// 08/07 Q1010 REUP=
201511090120 METAR ESMX 090120Z AUTO 15010KT 9999 FEW008/// SCT013/// 07/06 Q1011=
201511090050 METAR ESMX 090050Z AUTO 16008KT 9999 FEW013/// BKN016/// 07/06 Q1013=
201511090020 METAR ESMX 090020Z AUTO 14008KT 9999 NCD 07/07 Q1014=
201511082350 METAR ESMX 082350Z 17007KT 9999 FEW001 BKN003 07/07 Q1015=
201511082320 METAR ESMX 082320Z 19007KT 5000 BCFG VV003 07/07 Q1016=
201511082250 METAR ESMX 082250Z 19006KT 0350 R01/1000V1800U R19/0800V1400U FG VV002 06/06 Q1017=
201511082220 METAR ESMX 082220Z 19006KT 0200 R01/0650N R19/0550V0700N FG VV002 06/06 Q1017=
201511082150 METAR ESMX 082150Z 17005KT 0250 R01/0750N R19/0800V1000N FG VV002 06/06 Q1018=
201511082120 METAR ESMX 082120Z 17005KT 0250 R01/0800V1000N R19/1000V1200N FG VV002 06/05 Q1018=
201511082050 METAR ESMX 082050Z 21006KT 160V230 1400 R01/P2000N R19/P2000N BCFG SCT002 06/05 Q1018=
201511082020 METAR ESMX 082020Z 19004KT 9000 BR FEW025 SCT060 05/05 Q1019=
201511081950 METAR ESMX 081950Z 22007KT 9999 FEW030 05/05 Q1019=
201511081920 METAR ESMX 081920Z 21007KT CAVOK 05/05 Q1020=
201511081850 METAR ESMX 081850Z 16004KT 120V200 CAVOK 05/04 Q1020=
201511081820 METAR COR ESMX 081820Z 14004KT 120V200 CAVOK 04/03 Q1020=
201511081750 METAR ESMX 081750Z 22005KT CAVOK 05/04 Q1021=
201511081720 METAR ESMX 081720Z 23004KT CAVOK 06/04 Q1020=
201511081650 METAR COR ESMX 081650Z 25004KT CAVOK 05/04 Q1020=
201511081620 METAR ESMX 081620Z 25004KT CAVOK 06/04 Q1020=
201511081550 METAR ESMX 081550Z 27006KT CAVOK 06/04 Q1020=
201511081520 METAR ESMX 081520Z 29004KT CAVOK 08/04 Q1020=
201511081450 METAR ESMX 081450Z 30006KT CAVOK 09/04 Q1020=
201511081420 METAR ESMX 081420Z 29008KT CAVOK 10/05 Q1019=
201511081350 METAR ESMX 081350Z 30010KT CAVOK 10/05 Q1019=
201511081320 METAR ESMX 081320Z 30010KT CAVOK 11/05 Q1019=
201511081250 METAR ESMX 081250Z AUTO 30011KT 9999 NCD 11/05 Q1019=
201511081220 METAR ESMX 081220Z 30011KT 9999 FEW022 10/05 Q1018=
201511081150 METAR ESMX 081150Z 30017KT 9999 FEW023 10/05 Q1018=
201511081120 METAR ESMX 081120Z AUTO 28014G24KT 260V320 9999 FEW019/// BKN021/// OVC028/// 09/06 Q1017=
201511081050 METAR ESMX 081050Z AUTO 29015KT 260V330 9999 OVC018/// 09/06 Q1017=
201511081020 METAR ESMX 081020Z AUTO 30018KT 270V340 9999 FEW018/// BKN020/// 09/06 Q1015=
201511080950 METAR ESMX 080950Z AUTO 29016KT 260V340 9999 FEW017/// OVC020/// 09/06 Q1014=
201511080920 METAR ESMX 080920Z AUTO 30017KT 9999 OVC017/// 09/06 Q1013=
201511080850 METAR ESMX 080850Z AUTO 29018KT 9999 FEW016/// OVC019/// 09/06 Q1012=
201511080820 METAR ESMX 080820Z AUTO 30019G29KT 9999 SCT017/// OVC021/// 09/06 Q1011=
201511080750 METAR ESMX 080750Z 29020G35KT 9999 BKN015 OVC022 09/06 Q1009=
201511080720 METAR ESMX 080720Z 29024G36KT 8000 -SHRA BKN014 OVC020 09/07 Q1007=
201511080650 METAR ESMX 080650Z 29023G38KT 9999 -SHRA FEW010 BKN016 09/07 Q1005=
201511080620 METAR ESMX 080620Z 29021G33KT 9999 SCT009 BKN012 10/08 Q1003=
201511080550 METAR ESMX 080550Z AUTO 28021G33KT 6000 -RA FEW008/// BKN010/// OVC013/// 09/08 Q1002=
201511080520 METAR ESMX 080520Z AUTO 26015G27KT 5000 +DZ FEW010/// BKN013/// BKN022/// 10/09 Q1000 REDZ=
201511080450 METAR ESMX 080450Z AUTO 26014G26KT 220V280 9999 FEW008/// SCT012/// BKN014/// 10/08 Q0999 REDZ=
201511080420 METAR ESMX 080420Z AUTO 24017KT 8000 BR FEW007/// SCT008/// BKN009/// 09/08 Q0998=
201511080350 METAR ESMX 080350Z AUTO 22017G29KT 2700 DZ FEW007/// SCT009/// BKN011/// 08/07 Q0997=
201511080320 METAR ESMX 080320Z AUTO 22020G31KT 8000 -RA FEW013/// SCT017/// BKN020/// 09/07 Q0998=
201511080250 METAR ESMX 080250Z AUTO 22018G30KT 9999 RA FEW013/// SCT016/// BKN020/// 09/07 Q0999=
201511080220 METAR ESMX 080220Z AUTO 21017KT 7000 DZ FEW012/// SCT017/// BKN021/// 10/08 Q1000 REDZ=
201511080150 METAR ESMX 080150Z AUTO 22017G28KT 6000 -DZ FEW015/// BKN019/// BKN028/// 10/08 Q1001=
201511080120 METAR ESMX 080120Z AUTO 22015KT 9999 -RA FEW011/// SCT020/// BKN026/// 11/09 Q1002=
201511080050 METAR ESMX 080050Z AUTO 23015KT 9999 FEW020/// SCT026/// BKN038/// 11/09 Q1002 RERA=
201511080020 METAR ESMX 080020Z AUTO 23017G30KT 9999 FEW020/// SCT028/// BKN046/// 13/10 Q1002 REDZ=
201511072350 METAR ESMX 072350Z AUTO 22014G27KT 9999 FEW013/// SCT017/// BKN020/// 13/12 Q1002 RERA=
201511072320 METAR ESMX 072320Z AUTO 20013KT 9999 FEW005/// SCT007/// BKN011/// 13/12 Q1003=
201511072250 METAR ESMX 072250Z AUTO 18015G25KT 9999 FEW004/// SCT006/// BKN007/// 12/12 Q1004 RERA=
201511072220 METAR ESMX 072220Z AUTO 17012KT 9999 -RA FEW006/// SCT008/// BKN009/// 12/11 Q1004=
201511072150 METAR ESMX 072150Z AUTO 16011KT 9999 -RA FEW003/// SCT006/// BKN007/// 11/11 Q1005=
201511072120 METAR ESMX 072120Z AUTO 15011KT 4400 RA FEW003/// BKN005/// OVC008/// 11/10 Q1006=
201511072050 METAR ESMX 072050Z 15010KT 110V180 8000 -RA BKN002 OVC005 11/10 Q1008=
201511072020 METAR ESMX 072020Z 15007KT 7000 RA OVC003 11/10 Q1009=
201511071950 METAR ESMX 071950Z 15006KT 6000 -RA FEW003 BKN005 BKN052 10/10 Q1010=
201511071920 METAR ESMX 071920Z 17007KT 9000 -RA OVC005 11/10 Q1011=
201511071850 METAR COR ESMX 071850Z 18007KT 9999 OVC005 11/10 Q1012=
201511071820 METAR ESMX 071820Z AUTO 20008KT 9999 FEW008/// SCT010/// BKN014/// 11/10 Q1013=
201511071750 METAR ESMX 071750Z AUTO 18006KT 9999 FEW008/// OVC016/// 11/10 Q1013=
201511071720 METAR ESMX 071720Z AUTO 19007KT 9999 FEW009/// OVC012/// 11/10 Q1014=
201511071650 METAR ESMX 071650Z AUTO 19005KT 9999 SCT005/// BKN007/// OVC010/// 11/10 Q1014=
201511071620 METAR ESMX 071620Z AUTO 23005KT 9999 FEW006/// SCT007/// BKN009/// 11/10 Q1014=
201511071550 METAR ESMX 071550Z AUTO 23009KT 9999 FEW007/// SCT010/// OVC013/// 11/10 Q1015=
201511071520 METAR ESMX 071520Z AUTO 24007KT 9999 OVC013/// 11/10 Q1015=
201511071450 METAR ESMX 071450Z AUTO 23008KT 9999 OVC011/// 12/10 Q1015=
201511071420 METAR ESMX 071420Z AUTO 24008KT 9999 FEW010/// SCT013/// OVC016/// 12/10 Q1015=
201511071350 METAR ESMX 071350Z AUTO 24007KT 9999 BKN011/// OVC017/// 12/10 Q1015=
201511071320 METAR ESMX 071320Z AUTO 25007KT 9999 FEW014/// OVC017/// 12/11 Q1015=
201511071250 METAR ESMX 071250Z AUTO 24008KT 9999 FEW010/// SCT015/// BKN018/// 12/11 Q1014=
201511071220 METAR ESMX 071220Z AUTO 24005KT 210V270 9999 FEW007/// OVC023/// 13/12 Q1014=
201511071120 METAR ESMX 071120Z AUTO 24008KT 210V270 9999 FEW003/// SCT006/// BKN008/// 13/12 Q1014=
201511071050 METAR ESMX 071050Z AUTO 22008KT 3900 BR BKN002/// OVC005/// 12/12 Q1014=
201511071020 METAR ESMX 071020Z AUTO 21008KT 2000 BR OVC001/// 12/12 Q1014 REDZ=
201511070950 METAR ESMX 070950Z AUTO 19009KT 1900 BR OVC001/// 12/12 Q1014=
201511070920 METAR ESMX 070920Z AUTO 19009KT 1400 R01/1400V1700N R19/1800VP2000D OVC001/// 11/11 Q1014 REDZ=
201511070850 METAR ESMX 070850Z AUTO 19010KT 1200 R01/1300V1900D R19/1700VP2000D DZ VV002 11/11 Q1014=
201511070820 METAR ESMX 070820Z AUTO 18008KT 0800 R01/1000V1400D R19/1300VP2000D FG VV001 11/10 Q1014=
201511070750 METAR ESMX 070750Z AUTO 17007KT 0900 R01/1200V1400N R19/1500V1800N FG VV001 10/10 Q1014=
201511070720 METAR ESMX 070720Z AUTO 18007KT 0900 R01/1200VP2000U R19/1300V1900U FG VV001 10/10 Q1014=
201511070650 METAR ESMX 070650Z AUTO 17008KT 140V210 0750 R01/1200VP2000U R19/1200V1900U FG VV002 10/10 Q1014=
201511070550 METAR ESMX 070550Z AUTO 18007KT 0800 R01/1800VP2000N R19/P2000N FG VV001 10/10 Q1014=
201511070520 METAR ESMX 070520Z AUTO 17006KT 0800 R01/1800VP2000N R19/P2000N -DZ VV001 10/09 Q1014 REDZ=
201511070450 METAR ESMX 070450Z AUTO 17008KT 0700 R01/1500VP2000U R19/P2000N FG VV002 09/09 Q1014=
201511070420 METAR ESMX 070420Z AUTO 15007KT 110V170 1200 R01/P2000N R19/P2000N BR VV002 09/09 Q1013 REDZ=
201511070350 METAR ESMX 070350Z AUTO 15007KT 120V180 1900 BR OVC001/// 09/09 Q1014 REDZ=
201511070320 METAR ESMX 070320Z AUTO 16007KT 3500 BR OVC001/// 09/09 Q1015 REDZ=
201511070250 METAR ESMX 070250Z AUTO 15007KT 2200 +DZ OVC001/// 09/09 Q1015=
201511070220 METAR ESMX 070220Z AUTO 14006KT 1600 OVC001/// 09/09 Q1015=
201511070150 METAR ESMX 070150Z AUTO 16006KT 120V190 0550 R01/1200V1600D R19/1600VP2000D FG VV002 09/08 Q1015 RESHUP=
201511070120 METAR ESMX 070120Z AUTO 15005KT 100V190 0800 R01/1700VP2000N R19/P2000N FG VV002 09/08 Q1016 REUP REDZ=
201511070050 METAR ESMX 070050Z AUTO 13007KT 100V170 0600 R01/1200V1600U R19/1700VP2000N FG VV002 08/08 Q1016=
201511070020 METAR ESMX 070020Z AUTO 14006KT 0500 R01/1200V1500N R19/1900VP2000N FG VV002 08/08 Q1016=
201511062350 METAR ESMX 062350Z AUTO 14005KT 0350 R01/0900V1100U R19/1300V1500N FG VV001 08/08 Q1017=
201511062320 METAR ESMX 062320Z AUTO 13006KT 080V160 0200 R01/0700N R19/0900V1000N FG VV001 08/08 Q1017=
201511062250 METAR ESMX 062250Z AUTO 14004KT 090V190 0250 R01/0800V0900N R19/1000V1300N FG VV001 08/08 Q1017=
201511062220 METAR ESMX 062220Z AUTO 15005KT 110V190 0800 R01/1700VP2000D R19/P2000N FG OVC001/// 08/08 Q1018=
201511062150 METAR ESMX 062150Z AUTO 13005KT 080V160 1000 R01/P2000N R19/P2000N OVC001/// 08/08 Q1017=
201511062120 METAR ESMX 062120Z AUTO 13004KT 090V160 1100 R01/P2000N R19/P2000N BR OVC001/// 08/07 Q1018=
201511062050 METAR ESMX 062050Z AUTO 12005KT 080V170 2300 BR OVC003/// 08/07 Q1018=
201511062020 METAR ESMX 062020Z 11004KT 060V160 3000 BR OVC005 08/07 Q1018=
201511061950 METAR ESMX 061950Z 12004KT 050V170 3500 BR BKN007 OVC010 08/07 Q1018=
201511061920 METAR ESMX 061920Z 11004KT 080V140 4300 BR BKN010 OVC051 08/07 Q1018=
201511061850 METAR ESMX 061850Z 11004KT 070V150 4000 BR FEW006 BKN013 OVC055 08/07 Q1019=
201511061820 METAR ESMX 061820Z 11004KT 070V150 4100 BR FEW006 OVC012 08/07 Q1019=
201511061750 METAR ESMX 061750Z 12005KT 080V160 4000 BR FEW005 SCT006 BKN008 08/08 Q1019=
201511061720 METAR ESMX 061720Z 12004KT 080V160 3600 BR OVC005 08/08 Q1019=
201511061650 METAR COR ESMX 061650Z 13003KT 090V170 4000 BR FEW005 SCT007 OVC012 08/08 Q1019=
201511061620 METAR ESMX 061620Z 10005KT 070V150 4500 BR FEW003 SCT006 OVC010 08/08 Q1019=
201511061550 METAR COR ESMX 061550Z 11005KT 050V150 2200 BR OVC003 09/08 Q1019=
201511061520 METAR ESMX 061520Z 13004KT 080V170 2600 BR OVC003 09/08 Q1019=
201511061450 METAR ESMX 061450Z 12003KT 060V170 2500 BR OVC003 09/09 Q1020=
201511061420 METAR ESMX 061420Z 09003KT 030V120 2400 BR OVC003 09/09 Q1020=
201511061350 METAR ESMX 061350Z 11003KT 070V160 2500 BR BKN002 OVC004 09/09 Q1020=
201511061320 METAR ESMX 061320Z 09004KT 060V120 2600 BR BKN002 OVC004 09/09 Q1020=
201511061250 METAR ESMX 061250Z 10003KT 050V150 2300 BR BKN002 09/09 Q1020=
201511061220 METAR ESMX 061220Z 13004KT 080V180 1400 R01/1400V1800U R19/1700VP2000D BR VV002 09/09 Q1020=
201511061150 METAR ESMX 061150Z 13003KT 080V200 1000 R01/1200V1500N R19/1300V1400N FG VV002 09/09 Q1020=
201511061120 METAR ESMX 061120Z 14004KT 100V180 0800 R01/1000V1400D R19/1000V1400D FG VV002 09/09 Q1020=
201511061050 METAR ESMX 061050Z 15005KT 080V170 1100 R01/1300V1400N R19/1200V1600U BR OVC001 09/09 Q1020=
201511061020 METAR ESMX 061020Z 14004KT 070V200 0750 R01/1000N R19/1300V1400N FG VV002 09/09 Q1020=
201511060950 METAR ESMX 060950Z 16005KT 120V200 0750 R01/1000V1100N R19/1300V1600D FG VV002 09/08 Q1020=
201511060920 METAR ESMX 060920Z 15004KT 110V190 0700 R01/0900V1200U R19/1000V1100N FG VV002 08/08 Q1020=
201511060850 METAR COR ESMX 060850Z 14004KT 0600 R01/0900N R19/1100N FG VV002 08/08 Q1020=
201511060820 METAR ESMX 060820Z 15004KT 120V190 0400 R01/0500N R19/0650N FG VV002 08/08 Q1020=
201511060750 METAR ESMX 060750Z 13004KT 070V180 0300 R01/0450N R19/0600N FG VV002 08/08 Q1020=
201511060650 METAR COR ESMX 060650Z VRB03KT 0300 R01/0600N R19/0700N FG VV002 08/08 Q1020=
201511060620 METAR ESMX 060620Z 14003KT 100V170 0500 R01/0800V1000D R19/0900V1300D FG VV002 08/08 Q1020=
201511060550 METAR ESMX 060550Z 15004KT 120V190 0750 R01/1700V1900N R19/P2000N FG VV002 08/07 Q1020=
201511060520 METAR ESMX 060520Z 15005KT 120V190 0500 R01/1100V1400N R19/1100V1500U FG VV002 08/07 Q1020=
201511060450 METAR ESMX 060450Z 15005KT 120V190 0400 R01/1000V1100N R19/1200V1400D FG VV001 08/07 Q1020=
201511060420 METAR ESMX 060420Z AUTO 16004KT 130V190 0450 R01/1200V1300N R19/1500V1600N FG VV001 08/07 Q1020=
201511060350 METAR ESMX 060350Z AUTO 14004KT 120V190 0400 R01/1000V1100N R19/1200V1300N FG VV001 08/07 Q1020=
201511060320 METAR ESMX 060320Z AUTO 15004KT 120V180 0450 R01/1200V1300N R19/1400V1600N FG VV001 08/07 Q1020=
201511060250 METAR ESMX 060250Z AUTO 16004KT 120V180 0600 R01/1500V1700N R19/1700VP2000D FG VV002 08/07 Q1020=
201511060220 METAR ESMX 060220Z AUTO 16005KT 1100 R01/P2000N R19/P2000N BR OVC001/// 08/07 Q1020 REDZ=
201511060150 METAR ESMX 060150Z AUTO 16005KT 120V190 1400 R01/P2000N R19/P2000N BR OVC001/// 08/07 Q1021=
201511060120 METAR ESMX 060120Z AUTO 15005KT 120V190 1600 BR OVC001/// 08/07 Q1021=
201511060050 METAR ESMX 060050Z AUTO 16004KT 2400 -DZ OVC002/// 08/07 Q1021 RERA RESHUP=
201511060020 METAR ESMX 060020Z VRB03KT 3500 BR BKN001 OVC005 08/07 Q1021=
201511052350 METAR ESMX 052350Z VRB03KT 5000 BR OVC001 08/07 Q1021=
201511052320 METAR ESMX 052320Z VRB02KT 2800 BR OVC001 08/07 Q1021=
201511052250 METAR ESMX 052250Z VRB03KT 3300 -RA OVC002 08/07 Q1021=
201511052220 METAR ESMX 052220Z 16005KT 120V200 2400 DZ OVC002 08/07 Q1021=
201511052150 METAR ESMX 052150Z 16005KT 2900 BR OVC002 08/07 Q1021=
201511052120 METAR ESMX 052120Z 15005KT 110V170 3000 DZ OVC002 08/07 Q1021=
201511052050 METAR ESMX 052050Z 16005G18KT 030V180 3600 BR OVC002 08/07 Q1021=
201511052020 METAR ESMX 052020Z 16007KT 3800 BR BKN002 OVC005 08/07 Q1021=
201511051950 METAR ESMX 051950Z 16007KT 4300 BR OVC003 08/07 Q1021=
201511051920 METAR ESMX 051920Z 17005KT 3700 -RA FEW002 OVC004 08/08 Q1021=
201511051850 METAR ESMX 051850Z 16004KT 3000 RA BKN003 OVC005 08/08 Q1021=
201511051820 METAR ESMX 051820Z 16004KT 080V200 2900 DZ FEW003 OVC005 08/08 Q1021=
201511051750 METAR ESMX 051750Z 14004KT 110V170 4000 DZ BR SCT003 BKN007 08/08 Q1021=
201511051720 METAR ESMX 051720Z 15004KT 110V170 3000 DZ BR FEW004 BKN009 08/08 Q1021=
201511051650 METAR ESMX 051650Z 18004KT 3000 -RA BR BKN005 08/08 Q1021=
201511051620 METAR ESMX 051620Z 11004KT 070V160 4000 -RA FEW007 BKN025 08/08 Q1021=
201511051550 METAR ESMX 051550Z 15004KT 5000 -DZ FEW008 BKN035 09/07 Q1021=
201511051520 METAR ESMX 051520Z 15005KT 7000 BR FEW008 SCT013 BKN031 09/07 Q1021=
201511051450 METAR ESMX 051450Z 16004KT 8000 BR BKN010 09/07 Q1021=
201511051420 METAR ESMX 051420Z 17005KT 140V200 8000 BR BKN010 09/07 Q1021=
201511051350 METAR ESMX 051350Z 18006KT 8000 BR BKN008 09/07 Q1021=
201511051320 METAR ESMX 051320Z 16004KT 100V190 8000 BR SCT007 BKN010 09/07 Q1021=
201511051250 METAR ESMX 051250Z 14003KT 100V170 8000 BR OVC008 09/07 Q1021=
201511051220 METAR ESMX 051220Z 14004KT 080V170 6000 BR BKN005 08/07 Q1022=
201511051150 METAR ESMX 051150Z 15003KT 110V200 6000 BR BKN004 08/07 Q1022=
201511051120 METAR ESMX 051120Z 16007KT 6000 BR OVC002 08/07 Q1022=
201511051050 METAR ESMX 051050Z 16004KT 120V190 5000 BR OVC002 07/07 Q1022=
201511051020 METAR ESMX 051020Z 14003KT 100V190 3500 BR OVC002 07/06 Q1022=
201511050950 METAR ESMX 050950Z 11003KT 050V150 1800 BR VV002 07/06 Q1022=
201511050920 METAR COR ESMX 050920Z VRB02KT 1700 R01/1600N R19/1700N BR VV002 06/06 Q1022=
201511050850 METAR ESMX 050850Z VRB03KT 2600 BR OVC002 06/06 Q1022=
201511050750 METAR ESMX 050750Z 14004KT 080V190 7000 BR BKN003 06/05 Q1022=
201511050720 METAR ESMX 050720Z 13004KT 060V170 2100 BR OVC002 06/05 Q1022=
201511050650 METAR ESMX 050650Z 16005KT 120V190 0750 R01/1500VP2000N R19/1400VP2000D FG VV002 06/05 Q1022=
201511050620 METAR ESMX 050620Z 15005KT 0750 R01/1200N R19/P2000N FG OVC002 06/05 Q1022=
201511050550 METAR ESMX 050550Z 17005KT 2900 BR OVC002 06/05 Q1022=
201511050520 METAR ESMX 050520Z 15005KT 120V190 4600 BR OVC002 06/05 Q1021=
201511050450 METAR ESMX 050450Z 14005KT 5000 BR OVC002 06/06 Q1021=
201511050420 METAR ESMX 050420Z AUTO 15003KT 5000 BR OVC003/// 06/06 Q1021=
201511050350 METAR ESMX 050350Z AUTO 13004KT 090V170 6000 BR OVC002/// 06/06 Q1021=
201511050320 METAR ESMX 050320Z AUTO VRB03KT 4700 BR OVC002/// 06/06 Q1021=
201511050250 METAR ESMX 050250Z AUTO 14003KT 110V170 2800 BR OVC001/// 06/06 Q1021=
201511050220 METAR ESMX 050220Z AUTO 13004KT 090V170 3100 BR OVC001/// 06/05 Q1021=
201511050150 METAR ESMX 050150Z AUTO 11004KT 050V160 4200 BR OVC001/// 06/05 Q1021=
201511050120 METAR ESMX 050120Z AUTO VRB03KT 4900 BR OVC001/// 06/05 Q1021=
201511050050 METAR ESMX 050050Z VRB03KT 7000 BR OVC001 06/05 Q1021=
201511050020 METAR ESMX 050020Z 15004KT 080V190 9000 BR OVC002 06/05 Q1021=
201511042350 METAR COR ESMX 042350Z 15004KT 110V190 9999 OVC002 06/05 Q1021=
201511042320 METAR ESMX 042320Z 15004KT 110V180 9000 BR OVC002 06/06 Q1021=
201511042250 METAR ESMX 042250Z 16004KT 130V200 8000 BR OVC003 07/06 Q1021=
201511042220 METAR COR ESMX 042220Z 13004KT 070V170 9000 BR OVC003 07/06 Q1021=
201511042150 METAR ESMX 042150Z VRB01KT 9999 OVC004 07/06 Q1021=
201511042120 METAR ESMX 042120Z 05003KT 020V120 9999 OVC004 07/06 Q1021=
201511042050 METAR ESMX 042050Z 05004KT 360V070 9999 OVC004 07/06 Q1021=
201511042020 METAR ESMX 042020Z 04004KT 9999 OVC004 07/06 Q1020=
201511041950 METAR ESMX 041950Z 03004KT 350V060 9999 OVC005 07/06 Q1020=
201511041920 METAR ESMX 041920Z 02006KT 9999 OVC005 07/06 Q1020=
201511041850 METAR ESMX 041850Z 36006KT 9999 OVC004 08/06 Q1020=
201511041820 METAR ESMX 041820Z 35006KT 9999 OVC005 07/06 Q1020=
201511041750 METAR ESMX 041750Z 34005KT 9999 OVC005 07/06 Q1020=
201511041720 METAR COR ESMX 041720Z 34005KT 9999 OVC005 07/06 Q1020=
201511041650 METAR ESMX 041650Z 30003KT 9999 OVC006 07/06 Q1019=
201511041620 METAR ESMX 041620Z VRB02KT 9999 OVC006 07/06 Q1019=
201511041550 METAR ESMX 041550Z 00000KT 9999 OVC006 07/06 Q1019=
201511041520 METAR ESMX 041520Z 00000KT 9999 OVC006 07/06 Q1019=
201511041450 METAR COR ESMX 041450Z 26003 9999 OVC006 07/06 Q1019=
201511041420 METAR ESMX 041420Z 28003KT 9999 OVC006 07/05 Q1019=
201511041350 METAR ESMX 041350Z 28003KT 260V340 9999 OVC007 07/05 Q1019=
201511041320 METAR ESMX 041320Z VRB03KT 9999 OVC007 07/05 Q1019=
201511041250 METAR ESMX 041250Z VRB03KT 9999 OVC007 07/05 Q1019=
201511041220 METAR ESMX 041220Z 32004KT 290V350 9999 OVC005 06/05 Q1019=
201511041150 METAR ESMX 041150Z 35005KT 9999 OVC005 06/05 Q1019=
201511041120 METAR ESMX 041120Z 31007KT 9999 OVC006 06/05 Q1019=
201511041050 METAR ESMX 041050Z 31006KT 7000 BR BKN005 OVC006 06/05 Q1020=
201511041020 METAR ESMX 041020Z 28006KT 6000 BR BKN002 OVC003 06/05 Q1019=
201511040950 METAR ESMX 040950Z 28005KT 250V310 5000 BR BKN003 OVC005 05/05 Q1019=
201511040920 METAR ESMX 040920Z 30004KT 250V340 4700 BR OVC002 05/04 Q1019=
201511040850 METAR ESMX 040850Z 31005KT 260V010 5000 BR OVC002 05/04 Q1019=
201511040820 METAR ESMX 040820Z 32007KT 280V350 5000 BR OVC003 05/04 Q1019=
201511040750 METAR ESMX 040750Z 31005KT 4900 BR OVC003 05/04 Q1019=
201511040720 METAR ESMX 040720Z 28006KT 4800 BR OVC003 05/04 Q1019=
201511040650 METAR ESMX 040650Z 26006KT 5000 BR OVC003 05/04 Q1018=
201511040620 METAR ESMX 040620Z 30007KT 5000 BR OVC003 05/04 Q1018=
201511040550 METAR ESMX 040550Z 28005KT 260V330 5000 BR OVC003 05/04 Q1018=
201511040520 METAR ESMX 040520Z 30006KT 4800 BR OVC003 05/04 Q1018=
201511040450 METAR ESMX 040450Z 29006KT 260V330 4900 BR OVC002 05/04 Q1018=
201511040420 METAR ESMX 040420Z AUTO 28007KT 4900 BR OVC002/// 05/04 Q1017=
201511040350 METAR ESMX 040350Z AUTO 30006KT 280V340 5000 BR OVC002/// 05/04 Q1017=
201511040320 METAR ESMX 040320Z AUTO 29005KT 250V320 5000 BR OVC002/// 05/04 Q1018=
201511040250 METAR ESMX 040250Z AUTO 28006KT 250V320 5000 BR OVC003/// 05/04 Q1018=
201511040220 METAR ESMX 040220Z AUTO 28006KT 6000 BR OVC003/// 05/04 Q1017=
201511040150 METAR ESMX 040150Z AUTO 27005KT 7000 BR OVC004/// 05/04 Q1018=
201511040050 METAR ESMX 040050Z 27006KT 240V300 9999 OVC006 06/04 Q1018=
201511040020 METAR ESMX 040020Z 30006KT 260V340 9999 OVC006 06/05 Q1018=
201511032350 METAR ESMX 032350Z 29006KT 9999 OVC007 06/04 Q1018=
201511032320 METAR ESMX 032320Z 29006KT 230V320 9999 OVC006 06/04 Q1018=
201511032250 METAR ESMX 032250Z 26006KT 230V290 9999 OVC007 06/05 Q1018=
201511032220 METAR ESMX 032220Z AUTO 27005KT 9999 OVC006/// 06/04 Q1018=
201511032150 METAR ESMX 032150Z AUTO 28006KT 9999 BKN003/// OVC006/// 06/05 Q1018=
201511032120 METAR ESMX 032120Z 27007KT 9999 OVC002 05/05 Q1019=
201511032050 METAR ESMX 032050Z 27006KT 9000 BR OVC002 06/05 Q1019=
201511032020 METAR ESMX 032020Z 25005KT 210V280 9999 OVC002 06/05 Q1019=
201511031950 METAR ESMX 031950Z 27007KT 9999 OVC002 06/05 Q1019=
201511031920 METAR ESMX 031920Z 27006KT 220V300 9999 OVC002 06/05 Q1019=
201511031850 METAR ESMX 031850Z 25005KT 210V280 9999 OVC002 06/06 Q1019=
201511031820 METAR ESMX 031820Z 26005KT 230V290 9999 OVC002 06/06 Q1019=
201511031750 METAR ESMX 031750Z 25006KT 200V270 9000 BR OVC002 06/06 Q1019=
201511031720 METAR ESMX 031720Z 23005KT 9999 OVC002 07/06 Q1019=
201511031650 METAR ESMX 031650Z 21004KT 160V260 9999 OVC003 07/06 Q1019=
201511031620 METAR ESMX 031620Z 23006KT 9999 OVC004 07/06 Q1019=
201511031550 METAR ESMX 031550Z 24005KT 190V280 9999 OVC004 08/07 Q1019=
201511031520 METAR ESMX 031520Z 23005KT 9999 OVC002 08/08 Q1020=
201511031450 METAR ESMX 031450Z 21007KT 180V250 9999 OVC002 08/08 Q1020=
201511031420 METAR ESMX 031420Z 20007KT 7000 BR OVC002 09/08 Q1020=
201511031350 METAR ESMX 031350Z 20006KT 170V240 8000 BR OVC002 09/08 Q1020=
201511031320 METAR ESMX 031320Z 23004KT 190V250 9999 OVC002 09/08 Q1020=
201511031250 METAR ESMX 031250Z 18004KT 8000 BR OVC003 09/08 Q1020=
201511031220 METAR ESMX 031220Z 21004KT 8000 BR OVC003 09/08 Q1020=
201511031150 METAR ESMX 031150Z 19005KT 160V220 4300 BR OVC001 08/08 Q1021=
201511031120 METAR ESMX 031120Z 21004KT 170V250 3300 BR OVC001 08/08 Q1021=
201511031050 METAR ESMX 031050Z 19004KT 150V240 3400 BCFG OVC001 08/08 Q1021=
201511031020 METAR ESMX 031020Z 22004KT 180V260 0900 R01/P2000N R19/0800V1600U FG VV003 08/08 Q1022=
201511030950 METAR COR ESMX 030950Z 19004KT 0350 R01/0500N R19/1400U FG VV002 07/07 Q1022=
201511030920 METAR ESMX 030920Z 20003KT 160V260 0250 R01/0500N R19/0500 FG VV002 07/07 Q1022=
201511030850 METAR ESMX 030850Z 17003KT 0250 R01/0400V0500N R19/0600V0800N FG VV002 07/07 Q1022=
201511030820 METAR COR ESMX 030820Z VRB02KT 0200 R01/0600N R19/0400V0600U FG VV002 07/07 Q1022=
201511030750 METAR COR ESMX 030750Z 17002KT 0200 R01/0450N R19/0400V0600N FG VV002 07/07 Q1022=
201511030720 METAR ESMX 030720Z VRB03KT 0200 R01/0500N R19/0650V0750N FG VV002 07/07 Q1023=
201511030650 METAR ESMX 030650Z VRB03KT 0150 R01/0350V0375N R19/0450N FG VV002 07/07 Q1023=
201511030620 METAR ESMX 030620Z VRB03KT 0200 R01/0450V0450N R19/0550N FG VV002 07/07 Q1023=
201511030550 METAR ESMX 030550Z 26001KT 0150 R01/0550N R19/0600V0800N FG VV002 07/07 Q1023=
201511030520 METAR ESMX 030520Z 30003KT 0150 R01/0600N R19/0700N FG VV002 08/07 Q1023=
201511030450 METAR ESMX 030450Z 27004KT 240V300 0200 R01/0750N R19/1000V1300N FG VV002 08/07 Q1023=
201511030420 METAR ESMX 030420Z AUTO VRB03KT 0500 R01/1000VP2000D R19/0900VP2000D FG VV001 08/08 Q1023=
201511030350 METAR ESMX 030350Z AUTO 24005KT 1200 R01/P2000N R19/P2000N VV002 08/08 Q1023=
201511030320 METAR ESMX 030320Z AUTO 25005KT 2200 BR VV002 08/08 Q1024=
201511030250 METAR ESMX 030250Z AUTO 24003KT 2600 BR OVC001/// 08/08 Q1024=
201511030220 METAR ESMX 030220Z AUTO 23005KT 7000 BR OVC001/// 09/08 Q1024=
201511030150 METAR ESMX 030150Z AUTO 23005KT 200V260 9000 BR OVC002/// 09/08 Q1024=
201511030120 METAR ESMX 030120Z AUTO 23004KT 200V280 9000 BR OVC002/// 09/08 Q1024=
201511030050 METAR ESMX 030050Z 23004KT 9999 OVC003 09/08 Q1024=
201511030020 METAR ESMX 030020Z 23006KT 200V260 8000 BR OVC003 09/09 Q1025=
201511022350 METAR ESMX 022350Z 24005KT 9000 BR OVC003 09/09 Q1025=
201511022320 METAR ESMX 022320Z 24006KT 200V270 9999 OVC003 09/09 Q1025=
201511022250 METAR ESMX 022250Z 25005KT 9999 OVC004 10/09 Q1025=
201511022220 METAR ESMX 022220Z 27006KT 9999 OVC005 10/08 Q1024=
201511022150 METAR ESMX 022150Z AUTO 27005KT 250V320 9999 OVC005/// 10/08 Q1024=
201511022120 METAR ESMX 022120Z 27007KT 240V300 9999 OVC005 10/08 Q1024=
201511022050 METAR ESMX 022050Z 26008KT 9999 OVC005 09/08 Q1024=
201511022020 METAR ESMX 022020Z 28008KT 9999 OVC005 09/08 Q1024=
201511021950 METAR ESMX 021950Z 28007KT 9999 OVC005 09/08 Q1024=
201511021920 METAR ESMX 021920Z 27007KT 240V300 9999 OVC005 09/08 Q1025=
201511021850 METAR ESMX 021850Z 27009KT 9999 OVC006 09/08 Q1025=
201511021820 METAR ESMX 021820Z 26007KT 9999 FEW008 SCT009 08/07 Q1025=
201511021750 METAR ESMX 021750Z 26006KT CAVOK 08/07 Q1025=
201511021720 METAR ESMX 021720Z 25007KT CAVOK 09/07 Q1025=
201511021650 METAR ESMX 021650Z 25008KT CAVOK 09/07 Q1025=
201511021620 METAR ESMX 021620Z 26008KT CAVOK 09/07 Q1025=
201511021550 METAR ESMX 021550Z 26007KT CAVOK 10/07 Q1025=
201511021520 METAR ESMX 021520Z 26006KT 9999 FEW017 10/07 Q1025=
201511021450 METAR ESMX 021450Z 25007KT 9999 FEW017 11/07 Q1025=
201511021420 METAR ESMX 021420Z 26007KT 220V300 9999 SCT018 11/07 Q1025=
201511021350 METAR ESMX 021350Z 28009KT 240V330 9999 SCT019 11/07 Q1025=
201511021320 METAR ESMX 021320Z 27010KT 250V310 9999 FEW020 12/07 Q1025=
201511021250 METAR ESMX 021250Z 26013KT 9999 FEW020 12/07 Q1025=
201511021220 METAR ESMX 021220Z 27011KT 230V300 9999 FEW020 12/07 Q1025=
201511021150 METAR ESMX 021150Z 28013KT 250V320 9999 SCT019 12/07 Q1025=
201511021120 METAR ESMX 021120Z 28012KT 9999 SCT018 12/08 Q1025=
201511021050 METAR ESMX 021050Z 27014KT 9999 SCT018 12/07 Q1025=
201511021020 METAR ESMX 021020Z 26012KT 9999 BKN017 12/08 Q1025=
201511020950 METAR ESMX 020950Z 26010KT 230V310 9999 BKN017 11/08 Q1025=
201511020920 METAR ESMX 020920Z 27010KT 9999 BKN015 11/08 Q1025=
201511020850 METAR ESMX 020850Z 26011KT 240V300 9999 BKN015 11/08 Q1025=
201511020820 METAR ESMX 020820Z 27012KT 9999 BKN014 11/08 Q1025=
201511020750 METAR ESMX 020750Z 26009KT 220V300 9999 BKN014 10/08 Q1025=
201511020720 METAR ESMX 020720Z 26009KT 230V300 9999 OVC014 10/07 Q1025=
201511020650 METAR ESMX 020650Z 25007KT 220V280 9999 OVC014 10/07 Q1025=
201511020620 METAR ESMX 020620Z 26008KT 9999 OVC013 10/07 Q1025=
201511020550 METAR COR ESMX 020550Z 26012KT 9999 BKN014 09/07 Q1025=
201511020520 METAR COR ESMX 020520Z 26012KT 9999 BKN014 09/07 Q1025=
201511020450 METAR ESMX 020450Z 24007KT 200V260 9999 SCT015 09/07 Q1025=
201511020420 METAR ESMX 020420Z AUTO 27010KT 230V290 9999 FEW014/// BKN016/// 09/07 Q1025=
201511020350 METAR ESMX 020350Z AUTO 25008KT 9999 FEW013/// BKN016/// 09/07 Q1025=
201511020320 METAR ESMX 020320Z AUTO 25008KT 9999 OVC014/// 10/07 Q1025=
201511020250 METAR ESMX 020250Z AUTO 25007KT 9999 OVC014/// 10/07 Q1025=
201511020220 METAR ESMX 020220Z AUTO 26008KT 230V290 9999 BKN014/// 10/07 Q1025=
201511020150 METAR ESMX 020150Z AUTO 26009KT 9999 OVC013/// 10/07 Q1025=
201511020120 METAR ESMX 020120Z AUTO 27009KT 9999 BKN012/// 10/07 Q1025=
201511020050 METAR ESMX 020050Z AUTO 27009KT 9999 OVC011/// 10/08 Q1025=
201511020020 METAR ESMX 020020Z AUTO 27007KT 250V340 9999 FEW011/// OVC013/// 10/08 Q1025=
201511012350 METAR ESMX 012350Z 27009KT 240V300 9999 OVC011 10/08 Q1025=
201511012320 METAR ESMX 012320Z 27010KT 240V310 9999 FEW010 OVC012 10/08 Q1026=
201511012250 METAR ESMX 012250Z 25007KT 210V290 9999 FEW009 OVC011 10/08 Q1026=
201511012220 METAR ESMX 012220Z 26007KT 9999 FEW008 OVC011 10/09 Q1025=
201511012150 METAR ESMX 012150Z 26007KT 8000 BR FEW007 OVC010 10/09 Q1026=
201511012120 METAR ESMX 012120Z 27009KT 5000 BR FEW004 BKN008 10/09 Q1026=
201511012050 METAR ESMX 012050Z 26007KT 2600 BR FEW002 OVC004 09/09 Q1026=
201511012020 METAR ESMX 012020Z 26007KT 2000 BR BKN002 OVC004 09/09 Q1026=
201511011950 METAR ESMX 011950Z 25007KT 1500 BR OVC002 09/09 Q1026=
201511011920 METAR ESMX 011920Z 26007KT 1700 BR OVC002 09/09 Q1026=
201511011850 METAR ESMX 011850Z 26008KT 1600 BR OVC002 09/09 Q1026=
201511011820 METAR ESMX 011820Z 26008KT 1800 BR OVC002 09/09 Q1026=
201511011750 METAR ESMX 011750Z 27009KT 3100 BR BKN002 OVC004 09/09 Q1026=
201511011720 METAR COR ESMX 011720Z 27008KT 1700 BR OVC002 09/09 Q1026=
201511011650 METAR ESMX 011650Z 27008KT 2000 BR OVC002 09/09 Q1026=
201511011620 METAR ESMX 011620Z 27010KT 2200 BR OVC002 09/09 Q1026=
201511011550 METAR ESMX 011550Z 26007KT 2000 BR OVC002 09/09 Q1026=
201511011520 METAR ESMX 011520Z 27007KT 240V300 2000 BR BKN002 OVC003 09/08 Q1026=
201511011450 METAR ESMX 011450Z 27007KT 240V300 2500 BR OVC003 09/08 Q1026=
201511011420 METAR ESMX 011420Z 26008KT 210V280 3800 BR OVC004 09/08 Q1026=
201511011350 METAR ESMX 011350Z 27009KT 4400 BR OVC004 09/08 Q1026=
201511011320 METAR ESMX 011320Z 26009KT 230V290 4000 BR OVC004 09/08 Q1026=
201511011250 METAR ESMX 011250Z 27007KT 3300 BR BKN003 OVC004 09/08 Q1026=
201511011220 METAR ESMX 011220Z 27007KT 2500 BR SCT002 OVC004 09/08 Q1026=
