##########################################################
# Query made at 04/19/2024 21:45:27 UTC
# Time interval: from 05/01/2015 12:00  to 05/31/2015 12:59  UTC
##########################################################

##########################################################
# ESMX, Vaxjo (Sweden)
# WMO index: 02641. WIGOS ID: 0-20000-0-02648
# Latitude 56-51N. Longitude 014-50E. Altitude 199 m.
##########################################################

201505311250 METAR ESMX 311250Z 24016G26KT 210V280 9999 SCT045 15/05 Q1008=
201505311220 METAR ESMX 311220Z 22017KT 200V260 9999 VCSH FEW045CB 14/03 Q1008=
201505311150 METAR ESMX 311150Z 23018KT 200V260 9999 SCT045 SCT058 13/03 Q1008=
201505311120 METAR ESMX 311120Z 23017G29KT 200V280 9999 FEW035 BKN047 13/03 Q1008=
201505311050 METAR ESMX 311050Z 23018G28KT 200V260 9999 FEW025 BKN037 13/05 Q1008=
201505311020 METAR ESMX 311020Z AUTO 24018KT 9999 FEW028/// BKN055/// 11/05 Q1008=
201505310950 METAR ESMX 310950Z AUTO 23016G26KT 9999 FEW023/// SCT036/// BKN053/// 11/06 Q1007=
201505310920 METAR ESMX 310920Z AUTO 23017G28KT 9999 NCD 12/06 Q1007=
201505310850 METAR ESMX 310850Z AUTO 22013KT 9999 FEW014/// SCT030/// 10/08 Q1007 REDZ=
201505310820 METAR ESMX 310820Z AUTO 23015KT 200V260 9999 FEW018/// SCT025/// BKN034/// 11/07 Q1007=
201505310750 METAR ESMX 310750Z AUTO 22013KT 190V250 9999 FEW012/// SCT018/// BKN050/// 10/08 Q1007=
201505310720 METAR ESMX 310720Z AUTO 22011KT 8000 BR FEW010/// SCT017/// BKN023/// 08/08 Q1007 REDZ=
201505310650 METAR ESMX 310650Z AUTO 22014KT 9999 FEW012/// SCT018/// BKN026/// 08/07 Q1006=
201505310620 METAR ESMX 310620Z AUTO 20013KT 9999 FEW011/// SCT019/// BKN035/// 08/07 Q1006=
201505310550 METAR ESMX 310550Z AUTO 20013KT 9999 -RA FEW009/// BKN012/// OVC018/// 07/07 Q1006 RERA=
201505310520 METAR ESMX 310520Z AUTO 19012KT 9999 -DZ FEW007/// SCT009/// BKN011/// 07/07 Q1006 RESHUP=
201505310450 METAR ESMX 310450Z AUTO 19012KT 9999 FEW007/// SCT010/// BKN012/// 07/07 Q1006 RESHUP=
201505310420 METAR ESMX 310420Z AUTO 19013KT 9999 FEW008/// SCT014/// BKN017/// 06/06 Q1006 RERA=
201505310350 METAR ESMX 310350Z AUTO 19013KT 9999 FEW011/// SCT021/// BKN028/// 06/06 Q1006=
201505310320 METAR ESMX 310320Z AUTO 20013KT 9999 FEW012/// SCT025/// BKN046/// 06/06 Q1006 REUP=
201505310250 METAR ESMX 310250Z AUTO 20010KT 9999 FEW008/// SCT032/// 06/05 Q1006=
201505310220 METAR ESMX 310220Z AUTO 20012KT 9999 FEW007/// SCT011/// BKN039/// 05/05 Q1006=
201505310150 METAR ESMX 310150Z AUTO 19009KT 9999 FEW011/// BKN014/// 05/05 Q1006=
201505310120 METAR ESMX 310120Z AUTO 20010KT 9999 FEW010/// SCT042/// 06/05 Q1006=
201505310050 METAR ESMX 310050Z AUTO 21010KT 9999 RA FEW011/// SCT014/// BKN018/// 06/05 Q1006 REUP=
201505310020 METAR ESMX 310020Z AUTO 20009KT 9999 FEW024/// SCT053/// 05/05 Q1006=
201505302350 METAR ESMX 302350Z AUTO 20010KT 9999 FEW022/// 05/04 Q1006=
201505302320 METAR ESMX 302320Z AUTO 21012KT 9999 NCD 06/04 Q1006=
201505302250 METAR ESMX 302250Z AUTO 21009KT 9999 NCD 06/04 Q1006=
201505302220 METAR ESMX 302220Z AUTO 19009KT 9999 NCD 06/04 Q1006=
201505302150 METAR ESMX 302150Z AUTO 20009KT 9999 NCD 06/04 Q1006=
201505302120 METAR ESMX 302120Z AUTO 21009KT 9999 NCD 07/04 Q1006=
201505302050 METAR ESMX 302050Z AUTO 20008KT 9999 NCD 07/04 Q1005=
201505302020 METAR ESMX 302020Z AUTO 22009KT 9999 NCD 07/04 Q1005=
201505301950 METAR ESMX 301950Z AUTO 24008KT 9999 FEW020/// SCT059/// 08/04 Q1005=
201505301920 METAR ESMX 301920Z AUTO 23007KT 9999 FEW036/// SCT048/// BKN059/// 09/04 Q1005=
201505301850 METAR ESMX 301850Z AUTO 23006KT 9999 FEW034/// 08/05 Q1005=
201505301820 METAR ESMX 301820Z AUTO 25007KT 9999 FEW035/// BKN039/// BKN059/// 09/05 Q1004=
201505301750 METAR ESMX 301750Z AUTO 23009KT 9999 FEW069/// 08/05 Q1004=
201505301720 METAR ESMX 301720Z AUTO 25014G25KT 230V290 9999 -RA FEW028/// SCT042/// 08/05 Q1004=
201505301650 METAR ESMX 301650Z AUTO 24011KT 9999 NCD 11/05 Q1003=
201505301620 METAR ESMX 301620Z AUTO 26012KT 210V290 9999 NCD 11/05 Q1003=
201505301550 METAR ESMX 301550Z AUTO 24013KT 200V280 9999 FEW036/// SCT046/// BKN058/// 09/05 Q1003=
201505301520 METAR ESMX 301520Z AUTO 25015G28KT 210V280 9999 -RA FEW020/// SCT030/// BKN064/// 09/07 Q1003 RERA=
201505301450 METAR ESMX 301450Z AUTO 23011KT 9999 FEW017/// SCT043/// 10/08 Q1002 RERA=
201505301420 METAR ESMX 301420Z AUTO 23011KT 9999 FEW013/// SCT018/// BKN047/// 09/09 Q1002 REDZ=
201505301350 METAR ESMX 301350Z AUTO 23012KT 9999 FEW015/// SCT020/// BKN030/// 10/08 Q1001=
201505301320 METAR ESMX 301320Z AUTO 25014G25KT 9999 FEW009/// SCT020/// BKN025/// 10/09 Q1001=
201505301250 METAR ESMX 301250Z AUTO 20014KT 7000 RA BKN010/// OVC017/// 09/09 Q1000 RERA=
201505301220 METAR ESMX 301220Z AUTO 20013KT 9999 FEW009/// SCT013/// BKN016/// 09/09 Q1000=
201505301150 METAR ESMX 301150Z AUTO 20015KT 9999 FEW017/// SCT020/// BKN024/// 09/08 Q1000 RERA=
201505301120 METAR ESMX 301120Z AUTO 20014KT 9999 FEW017/// SCT024/// BKN035/// 11/08 Q1000=
201505301050 METAR ESMX 301050Z AUTO 19014KT 9999 -DZ FEW016/// SCT024/// BKN031/// 10/09 Q1000=
201505301020 METAR ESMX 301020Z AUTO 18013KT 9999 FEW014/// SCT017/// BKN027/// 11/10 Q1000=
201505300950 METAR ESMX 300950Z AUTO 16008KT 9999 FEW022/// BKN044/// OVC054/// 11/09 Q1000=
201505300920 METAR ESMX 300920Z AUTO 18009KT 140V210 9999 FEW010/// SCT013/// BKN017/// 10/09 Q1000=
201505300850 METAR ESMX 300850Z AUTO 17007KT 9999 -RA FEW009/// SCT015/// BKN053/// 10/10 Q1000=
201505300820 METAR ESMX 300820Z AUTO 17008KT 9999 -DZ FEW008/// SCT048/// 10/10 Q1000=
201505300750 METAR ESMX 300750Z 17007KT 120V200 8000 -RA SCT005 BKN012 10/10 Q1000=
201505300720 METAR ESMX 300720Z 14005KT 080V190 9000 -RA SCT004 OVC010 10/10 Q1000=
201505300650 METAR ESMX 300650Z AUTO 15006KT 9000 DZ FEW006/// 09/09 Q1000 REDZ=
201505300620 METAR ESMX 300620Z 15006KT 110V170 9999 -RA OVC006 09/09 Q1000=
201505300550 METAR ESMX 300550Z 17006KT 100V210 9999 OVC005 09/09 Q1000=
201505300520 METAR ESMX 300520Z AUTO 12005KT 080V160 9999 BKN005/// OVC052/// 08/08 Q1000=
201505300450 METAR ESMX 300450Z AUTO 12005KT 080V170 9999 FEW007/// BKN056/// 08/08 Q1001=
201505300420 METAR ESMX 300420Z AUTO 11006KT 080V150 9999 -DZ FEW055/// 07/07 Q1001 REDZ REUP=
201505300350 METAR ESMX 300350Z AUTO 10005KT 070V150 9999 FEW036/// SCT041/// BKN057/// 07/07 Q1001=
201505300320 METAR ESMX 300320Z AUTO 08005KT 050V140 9999 BKN042/// 07/07 Q1002=
201505300250 METAR ESMX 300250Z AUTO 11004KT 040V160 9999 FEW024/// OVC042/// 07/07 Q1002=
201505300220 METAR ESMX 300220Z AUTO 12005KT 070V190 9999 -RA FEW020/// BKN042/// 07/07 Q1003=
201505300150 METAR ESMX 300150Z AUTO 12004KT 360V170 9000 -RA FEW032/// 07/06 Q1003 REUP=
201505300120 METAR ESMX 300120Z AUTO 14005KT 080V170 9999 FEW052/// 07/05 Q1004=
201505300050 METAR ESMX 300050Z AUTO 13004KT 020V190 9999 FEW100/// 07/06 Q1004=
201505300020 METAR ESMX 300020Z AUTO 13005KT 080V160 9999 NCD 07/06 Q1005=
201505292350 METAR ESMX 292350Z AUTO 14006KT 100V190 9999 NCD 07/06 Q1005=
201505292320 METAR ESMX 292320Z AUTO 14005KT 080V170 9999 NCD 07/07 Q1006=
201505292250 METAR ESMX 292250Z AUTO 13005KT 080V160 9999 NCD 07/07 Q1006=
201505292220 METAR ESMX 292220Z AUTO 12004KT 9999 NCD 07/07 Q1007=
201505292150 METAR ESMX 292150Z AUTO 14004KT 9999 NCD 07/07 Q1007=
201505292120 METAR ESMX 292120Z AUTO 13005KT 9999 NCD 07/07 Q1007=
201505292050 METAR ESMX 292050Z AUTO 13004KT 9999 NCD 07/07 Q1007=
201505292020 METAR ESMX 292020Z AUTO 12003KT 9999 FEW074/// 07/07 Q1007=
201505291950 METAR ESMX 291950Z AUTO 10003KT 9999 BKN073/// 08/08 Q1007=
201505291920 METAR ESMX 291920Z AUTO 12003KT 9999 FEW045/// BKN071/// 08/08 Q1008=
201505291850 METAR ESMX 291850Z AUTO VRB03KT 9999 -DZ FEW016/// SCT038/// BKN042/// 08/08 Q1008=
201505291820 METAR ESMX 291820Z AUTO 23004KT 190V270 9999 DZ FEW028/// SCT038/// BKN046/// 09/08 Q1008=
201505291750 METAR ESMX 291750Z AUTO 10004KT 060V130 9999 BKN040/// 09/08 Q1008=
201505291720 METAR ESMX 291720Z 09004KT 060V140 9999 FEW022 SCT041 BKN058 09/08 Q1008 RERA=
201505291650 METAR ESMX 291650Z VRB03KT 9999 FEW024 SCT040 BKN050 08/07 Q1008=
201505291620 METAR ESMX 291620Z 25005KT 200V290 9000 RA FEW023 SCT040 BKN046 08/06 Q1008=
201505291550 METAR ESMX 291550Z 28010G20KT 9999 -RA FEW028CB SCT035 BKN050 10/05 Q1008=
201505291520 METAR ESMX 291520Z 24003KT 190V320 CAVOK 12/05 Q1008=
201505291450 METAR ESMX 291450Z 24007KT 220V290 9999 -DZ FEW035 BKN056 10/05 Q1008=
201505291420 METAR ESMX 291420Z 26010KT 9999 FEW040 BKN068 11/04 Q1008=
201505291350 METAR ESMX 291350Z 20012KT 9999 FEW040CB SCT056 BKN068 14/04 Q1008=
201505291320 METAR ESMX 291320Z 22012KT 9999 FEW028 SCT096 14/04 Q1008=
201505291250 METAR ESMX 291250Z 22012KT 190V250 9999 FEW025 SCT075 BKN090 13/03 Q1008=
201505291220 METAR COR ESMX 291220Z 21013KT 9999 FEW023 SCT059 BKN076 11/04 Q1008=
201505291150 METAR ESMX 291150Z 22014KT 9999 FEW047CB SCT066 13/02 Q1008=
201505291120 METAR ESMX 291120Z 22014KT 190V250 9999 FEW042CB SCT055 12/02 Q1008=
201505291050 METAR ESMX 291050Z 22012KT 9999 FEW039CB SCT045 12/03 Q1008=
201505291020 METAR ESMX 291020Z 21016KT 9999 FEW041CB SCT045 14/05 Q1008=
201505290950 METAR ESMX 290950Z 22017G27KT 180V250 9999 FEW038 SCT046CB BKN066 13/04 Q1008=
201505290920 METAR ESMX 290920Z 21013KT 9999 FEW026CB SCT033 BKN044 11/03 Q1008=
201505290850 METAR ESMX 290850Z 20012KT 9999 -SHRA SCT024CB 12/08 Q1008=
201505290820 METAR ESMX 290820Z 21014KT 9999 FEW017 SCT028CB BKN034 08/06 Q1008=
201505290750 METAR ESMX 290750Z 26010KT 9999 FEW023 SCT032 BKN047 11/05 Q1008=
201505290720 METAR ESMX 290720Z 21011KT 190V250 9999 FEW020 BKN026 11/05 Q1008=
201505290650 METAR ESMX 290650Z 21012KT 9999 FEW019 SCT022 10/05 Q1008=
201505290620 METAR ESMX 290620Z 24010KT 210V280 9999 FEW017 SCT020 09/06 Q1008=
201505290550 METAR ESMX 290550Z 23011KT 9999 FEW016 09/06 Q1008=
201505290520 METAR ESMX 290520Z 23009KT 200V260 CAVOK 08/07 Q1007=
201505290450 METAR ESMX 290450Z 22008KT CAVOK 07/06 Q1007=
201505290420 METAR ESMX 290420Z 22007KT CAVOK 06/06 Q1007=
201505290350 METAR ESMX 290350Z 21007KT CAVOK 05/05 Q1007=
201505290320 METAR ESMX 290320Z AUTO 20007KT 9999 NCD 05/05 Q1007=
201505290250 METAR ESMX 290250Z AUTO 22006KT 9999 NCD 05/05 Q1007=
201505290220 METAR ESMX 290220Z AUTO 22006KT 9999 FEW022/// 04/04 Q1007=
201505290150 METAR ESMX 290150Z AUTO 21007KT 9999 NCD 05/05 Q1007=
201505290120 METAR ESMX 290120Z AUTO 21007KT 9999 NCD 05/05 Q1007=
201505290050 METAR ESMX 290050Z AUTO 22006KT 9999 FEW032/// 05/05 Q1006=
201505290020 METAR ESMX 290020Z AUTO 22006KT 9999 FEW030/// 05/05 Q1006=
201505282350 METAR ESMX 282350Z AUTO 22006KT 9999 FEW044/// 05/05 Q1006=
201505282320 METAR ESMX 282320Z 22008KT CAVOK 06/06 Q1006=
201505282250 METAR ESMX 282250Z 21007KT CAVOK 06/06 Q1006=
201505282220 METAR ESMX 282220Z 21006KT CAVOK 06/06 Q1006=
201505282150 METAR ESMX 282150Z 22008KT 9999 FEW016 07/06 Q1006=
201505282120 METAR ESMX 282120Z 21007KT 9999 FEW017 SCT024 08/07 Q1006=
201505282050 METAR ESMX 282050Z 18007KT CAVOK 08/07 Q1005=
201505282020 METAR ESMX 282020Z 18007KT CAVOK 09/08 Q1005=
201505281950 METAR ESMX 281950Z 18007KT CAVOK 09/08 Q1005=
201505281920 METAR ESMX 281920Z 19008KT CAVOK 09/08 Q1005=
201505281850 METAR ESMX 281850Z 19010KT CAVOK 10/08 Q1005=
201505281820 METAR ESMX 281820Z 18007KT 9999 OVC043 09/08 Q1005=
201505281750 METAR ESMX 281750Z 20006KT 9999 FEW020 BKN041 09/07 Q1005 RERA=
201505281720 METAR ESMX 281720Z 24009G20KT 9999 -RA FEW017 BKN026CB OVC035 10/08 Q1006=
201505281650 METAR ESMX 281650Z 20009KT 9999 FEW027CB BKN053 10/09 Q1005=
201505281620 METAR ESMX 281620Z 20009KT 9999 FEW046 BKN053 09/08 Q1005=
201505281550 METAR ESMX 281550Z 21010KT 9999 -DZ FEW021 BKN045 09/08 Q1006 RERA=
201505281520 METAR ESMX 281520Z 21010KT 9999 -SHRA FEW020CB SCT033 BKN040 11/09 Q1006=
201505281450 METAR ESMX 281450Z 20018KT 9999 SHRA FEW026CB SCT038 BKN052 11/09 Q1006=
201505281420 METAR ESMX 281420Z 17014KT 130V190 9999 FEW032 SCT049 BKN064 14/07 Q1005=
201505281350 METAR ESMX 281350Z 17015KT 9999 FEW032 SCT041 BKN052 14/07 Q1005=
201505281320 METAR ESMX 281320Z 16012KT 130V190 9999 FEW028 SCT032 BKN039 15/08 Q1006=
201505281250 METAR COR ESMX 281250Z 17010KT 9999 FEW027 SCT035 BKN039 14/07 Q1006=
201505281220 METAR ESMX 281220Z 15010KT 120V180 9999 FEW029 SCT036 BKN052 13/07 Q1006=
201505281150 METAR ESMX 281150Z 15010KT 110V190 9999 SCT030 BKN076 14/07 Q1007=
201505281120 METAR ESMX 281120Z 15012KT 120V180 9999 FEW028 BKN032 14/06 Q1007=
201505281050 METAR ESMX 281050Z 16013KT 9999 BKN033 BKN044 14/06 Q1007=
201505281020 METAR ESMX 281020Z 16012KT 110V190 9999 FEW038 14/05 Q1008=
201505280950 METAR ESMX 280950Z 15012KT 9999 FEW048 14/05 Q1008=
201505280920 METAR ESMX 280920Z 16012KT 9999 FEW039 12/05 Q1009=
201505280850 METAR ESMX 280850Z 18011KT 140V200 9999 FEW039 BKN047 12/05 Q1009=
201505280820 METAR ESMX 280820Z 17011KT 9999 FEW044 BKN050 11/05 Q1010=
201505280750 METAR ESMX 280750Z AUTO 17009KT 9999 FEW045/// BKN051/// 11/06 Q1010=
201505280720 METAR ESMX 280720Z 16007KT 120V190 9999 FEW019 BKN062 10/06 Q1010=
201505280650 METAR COR ESMX 280650Z 18009KT 9999 FEW015 BKN065 10/06 Q1011=
201505280620 METAR ESMX 280620Z 15006KT CAVOK 09/07 Q1011=
201505280550 METAR ESMX 280550Z 17005KT CAVOK 08/07 Q1011=
201505280520 METAR ESMX 280520Z 17004KT 150V210 CAVOK 07/07 Q1011=
201505280450 METAR ESMX 280450Z 18005KT CAVOK 07/07 Q1011=
201505280420 METAR ESMX 280420Z 18004KT CAVOK 07/07 Q1011=
201505280350 METAR ESMX 280350Z 17003KT CAVOK 05/05 Q1012=
201505280320 METAR ESMX 280320Z AUTO 20004KT 4900 BR NCD 04/04 Q1012=
201505280250 METAR ESMX 280250Z AUTO 19004KT 6000 BR NCD 04/04 Q1012=
201505280220 METAR ESMX 280220Z AUTO 22004KT 0600 R01/P2000N R19/P2000D BR FEW001/// SCT003/// 03/03 Q1012=
201505280150 METAR ESMX 280150Z AUTO 21005KT 9999 NCD 03/03 Q1012=
201505280120 METAR ESMX 280120Z AUTO 20004KT 6000 BR NCD 04/03 Q1012=
201505280050 METAR ESMX 280050Z AUTO 23004KT 9999 NCD 05/04 Q1012=
201505280020 METAR ESMX 280020Z AUTO 24004KT 9999 NCD 05/04 Q1012=
201505272350 METAR ESMX 272350Z 25004KT CAVOK 05/04 Q1012=
201505272320 METAR ESMX 272320Z 24004KT CAVOK 06/05 Q1013=
201505272250 METAR ESMX 272250Z 25005KT CAVOK 06/05 Q1013=
201505272220 METAR ESMX 272220Z 25006KT CAVOK 07/05 Q1013=
201505272150 METAR ESMX 272150Z 25007KT 240V020 CAVOK 07/05 Q1013=
201505272120 METAR ESMX 272120Z 25006KT CAVOK 07/04 Q1013=
201505272050 METAR ESMX 272050Z AUTO 25007KT 9999 NCD 08/03 Q1013=
201505272020 METAR ESMX 272020Z 26006KT CAVOK 09/03 Q1013=
201505271950 METAR ESMX 271950Z 26007KT CAVOK 10/03 Q1013=
201505271920 METAR ESMX 271920Z 26008KT CAVOK 11/02 Q1013=
201505271850 METAR ESMX 271850Z 27009KT 230V300 CAVOK 12/02 Q1012=
201505271820 METAR ESMX 271820Z 26010KT CAVOK 12/03 Q1012=
201505271753 METAR ESMX 271753Z 27010KT 240V300 CAVOK 13/03 Q1012=
201505271750 METAR ESMX 271750Z AUTO 27009KT 240V300 9999 FEW060/// 13/03 Q1012=
201505271720 METAR ESMX 271720Z 26012KT 9999 FEW047 SCT070 14/03 Q1012=
201505271650 METAR ESMX 271650Z 26012KT 9999 FEW048 SCT070 14/03 Q1012=
201505271620 METAR ESMX 271620Z 27013KT 240V300 9999 SCT048 15/03 Q1012=
201505271550 METAR ESMX 271550Z 24012KT 9999 SCT049 15/03 Q1012=
201505271520 METAR ESMX 271520Z 26014KT 230V320 9999 SCT054 15/03 Q1012=
201505271450 METAR ESMX 271450Z 26013KT 9999 SCT050 15/03 Q1012=
201505271420 METAR ESMX 271420Z 26014KT 220V290 9999 SCT050 16/03 Q1012=
201505271350 METAR ESMX 271350Z 22015KT 9999 FEW050 16/04 Q1012=
201505271320 METAR ESMX 271320Z 25011KT 210V280 9999 SCT047 16/05 Q1012=
201505271250 METAR ESMX 271250Z 27011KT 9999 SCT048 15/03 Q1012=
201505271220 METAR ESMX 271220Z 27011KT 9999 SCT048 14/03 Q1012=
201505271150 METAR ESMX 271150Z 27010KT 9999 FEW044 BKN052 14/04 Q1012=
201505271120 METAR ESMX 271120Z 26012KT 9999 SCT042 15/04 Q1012=
201505271050 METAR ESMX 271050Z 28012KT 240V320 9999 SCT042 14/05 Q1012=
201505271020 METAR COR ESMX 271020Z 27012KT 9999 FEW040 SCT050 13/04 Q1012=
201505270950 METAR ESMX 270950Z 26010KT 230V290 9999 SCT036 13/04 Q1012=
201505270920 METAR ESMX 270920Z 27010KT 210V300 9999 FEW030 BKN037 12/05 Q1012=
201505270850 METAR ESMX 270850Z 24010KT 9999 FEW027 BKN035 12/05 Q1012=
201505270820 METAR ESMX 270820Z 29011KT 9999 FEW024 BKN031 12/06 Q1012=
201505270750 METAR ESMX 270750Z 26011KT 9999 FEW023 BKN028 11/05 Q1012=
201505270720 METAR ESMX 270720Z 26011KT 230V300 9999 BKN022 11/06 Q1012=
201505270650 METAR ESMX 270650Z 26010KT 9999 FEW020 BKN025 10/05 Q1012=
201505270620 METAR ESMX 270620Z 25009KT 210V280 9999 FEW018 BKN023 09/05 Q1012=
201505270550 METAR ESMX 270550Z 26009KT 240V300 9999 BKN019 09/06 Q1012=
201505270520 METAR ESMX 270520Z 24007KT 200V280 9999 BKN020 09/06 Q1012=
201505270450 METAR ESMX 270450Z 23005KT 200V270 9999 BKN020 08/06 Q1012=
201505270420 METAR ESMX 270420Z 22005KT 9999 BKN018 07/06 Q1012=
201505270350 METAR ESMX 270350Z 21004KT 9999 BKN018 06/06 Q1012=
201505270320 METAR COR ESMX 270320Z 22005KT 9999 BKN017 06/05 Q1012=
201505270250 METAR ESMX 270250Z AUTO 22005KT 9999 OVC017/// 05/05 Q1012=
201505270220 METAR ESMX 270220Z AUTO 22004KT 9999 OVC016/// 05/04 Q1012=
201505270150 METAR ESMX 270150Z AUTO 15003KT 9999 BKN016/// 05/04 Q1012=
201505270120 METAR ESMX 270120Z AUTO 24005KT 9999 NCD 05/05 Q1012=
201505270050 METAR ESMX 270050Z AUTO 25006KT 9999 NCD 05/05 Q1012=
201505270020 METAR ESMX 270020Z AUTO 25006KT 9999 NCD 06/05 Q1012=
201505262350 METAR ESMX 262350Z AUTO 25006KT 9999 FEW012/// 06/05 Q1012=
201505262320 METAR COR ESMX 262320Z 23006KT 9999 FEW012 06/06 Q1012=
201505262250 METAR ESMX 262250Z 25007KT CAVOK 07/06 Q1012=
201505262220 METAR ESMX 262220Z 25007KT CAVOK 07/05 Q1012=
201505262150 METAR ESMX 262150Z 24006KT CAVOK 07/05 Q1012=
201505262120 METAR ESMX 262120Z 23005KT 9999 FEW035 07/05 Q1012=
201505262050 METAR ESMX 262050Z 23005KT 9999 FEW035 07/05 Q1011=
201505262020 METAR ESMX 262020Z 23006KT 9999 FEW035 07/05 Q1012=
201505261950 METAR COR ESMX 261950Z 24007KT 9999 FEW030 09/05 Q1011=
201505261920 METAR ESMX 261920Z AUTO 23006KT 9999 NCD 09/05 Q1011=
201505261850 METAR ESMX 261850Z 24007KT 9999 FEW035 10/06 Q1011=
201505261820 METAR ESMX 261820Z 22006KT 9999 FEW035 11/07 Q1011=
201505261750 METAR ESMX 261750Z 24006KT 9999 FEW020 11/06 Q1011=
201505261720 METAR ESMX 261720Z 23004KT 190V260 9999 FEW037 SCT055 BKN077 11/07 Q1011=
201505261650 METAR ESMX 261650Z 27006KT 9999 FEW039 SCT054 BKN068 11/06 Q1011=
201505261620 METAR ESMX 261620Z 26011KT 9999 VCSH FEW025 SCT032CB BKN045 11/07 Q1011=
201505261550 METAR ESMX 261550Z 24008KT 9999 FEW035 SCT046 11/07 Q1010=
201505261520 METAR ESMX 261520Z 24008KT 9999 SCT040 10/08 Q1010=
201505261450 METAR ESMX 261450Z 25006KT 230V290 9999 FEW031 SCT035CB 09/07 Q1010=
201505261420 METAR ESMX 261420Z 28009KT 9999 SHRA FEW022 SCT035CB BKN050 07/06 Q1011=
201505261350 METAR ESMX 261350Z 28006KT 230V320 9999 SHRA FEW015 SCT035CB 11/07 Q1010 RERA=
201505261320 METAR ESMX 261320Z 29004KT 240V330 9999 SHRA FEW012 SCT035CB SCT044 10/07 Q1010=
201505261250 METAR ESMX 261250Z 28004KT 210V340 9999 VCSH FEW016 SCT045CB BKN079 11/07 Q1010=
201505261220 METAR ESMX 261220Z 28012KT 9999 VCSH FEW020 BKN027 BKN035 09/06 Q1010 REDZ=
201505261150 METAR ESMX 261150Z 24007KT 9999 VCSH FEW020CB BKN040 11/07 Q1010=
201505261120 METAR ESMX 261120Z 23006KT 200V260 9999 VCSH FEW023CB BKN037 09/07 Q1010=
201505261050 METAR ESMX 261050Z 28004KT 220V320 9999 VCSH FEW017CB BKN040 09/06 Q1010=
201505261020 METAR ESMX 261020Z 20010KT 9999 FEW032 SCT045 BKN070 11/05 Q1010=
201505260950 METAR ESMX 260950Z 22013KT 9999 FEW044 SCT064 BKN077 10/04 Q1010=
201505260920 METAR ESMX 260920Z 26008KT 210V320 9999 VCSH FEW020CB SCT050 09/04 Q1010=
201505260850 METAR ESMX 260850Z 26013KT 9999 SHRA FEW020CB SCT033 BKN070 08/05 Q1010=
201505260820 METAR ESMX 260820Z 24007KT 210V310 9999 FEW022 BKN075 11/05 Q1010=
201505260750 METAR ESMX 260750Z 23007KT 200V260 9999 FEW018 SCT025 BKN075 10/05 Q1010=
201505260720 METAR ESMX 260720Z 26006KT 230V300 9999 FEW018 SCT025 BKN040 10/06 Q1010=
201505260650 METAR ESMX 260650Z 24007KT 210V280 9999 FEW017 SCT025 BKN055 10/06 Q1010=
201505260620 METAR ESMX 260620Z 27006KT 9999 FEW015 SCT027 BKN090 10/05 Q1010=
201505260550 METAR ESMX 260550Z 25004KT 190V280 9999 FEW040 09/06 Q1010=
201505260520 METAR ESMX 260520Z 23004KT 200V260 CAVOK 08/07 Q1010=
201505260450 METAR ESMX 260450Z 23004KT CAVOK 08/06 Q1010=
201505260420 METAR ESMX 260420Z 24004KT CAVOK 07/06 Q1010=
201505260350 METAR ESMX 260350Z VRB03KT CAVOK 06/06 Q1010=
201505260320 METAR COR ESMX 260320Z 22002KT CAVOK 05/05 Q1010=
201505260250 METAR ESMX 260250Z AUTO 24003KT 9999 BKN089/// 03/03 Q1010=
201505260220 METAR ESMX 260220Z AUTO 24003KT 9999 FEW090/// 04/04 Q1010=
201505260150 METAR ESMX 260150Z AUTO 25003KT 9999 FEW084/// 05/04 Q1010=
201505260120 METAR ESMX 260120Z AUTO 27004KT 9999 NCD 06/05 Q1010=
201505260050 METAR ESMX 260050Z AUTO 27004KT 9999 OVC050/// 07/05 Q1010=
201505260020 METAR ESMX 260020Z AUTO 27004KT 9999 OVC048/// 08/06 Q1010=
201505252350 METAR ESMX 252350Z 26004KT 9999 BKN048 08/06 Q1010=
201505252320 METAR ESMX 252320Z 28005KT 250V310 9999 BKN048 08/06 Q1010=
201505252250 METAR COR ESMX 252250Z 28006KT 9999 BKN045 09/06 Q1010=
201505252220 METAR ESMX 252220Z 28005KT 9999 BKN048 09/06 Q1010=
201505252150 METAR COR ESMX 252150Z 26005KT 9999 BKN045 09/07 Q1010=
201505252120 METAR ESMX 252120Z 24004KT 9999 FEW030 BKN050 09/08 Q1010=
201505252050 METAR ESMX 252050Z 23004KT 9999 -DZ FEW030 BKN050 09/08 Q1010 REDZ=
201505252020 METAR COR ESMX 252020Z 23003KT 9999 -RA BKN045 09/08 Q1010 REDZ=
201505251950 METAR COR ESMX 251950Z 22003KT 9999 BKN050 10/08 Q1010=
201505251920 METAR COR ESMX 251920Z VRB03KT 9999 BKN045 10/08 Q1009=
201505251850 METAR ESMX 251850Z 22003KT 9999 BKN045 10/08 Q1009=
201505251820 METAR COR ESMX 251820Z 23003KT 9999 BKN045 11/08 Q1009=
201505251750 METAR ESMX 251750Z 19004KT 9999 BKN040 11/08 Q1009=
201505251720 METAR ESMX 251720Z 20004KT 170V240 9999 BKN035 11/08 Q1009=
201505251650 METAR ESMX 251650Z 20003KT 170V240 9999 BKN035 11/08 Q1010=
201505251620 METAR ESMX 251620Z 19003KT 9999 FEW028 BKN032 10/08 Q1010=
201505251550 METAR ESMX 251550Z VRB01KT 9999 SCT025 BKN029 10/08 Q1010=
201505251520 METAR ESMX 251520Z 30003KT 9999 SCT015 BKN030 10/08 Q1010=
201505251450 METAR ESMX 251450Z 30005KT 9999 FEW009 BKN015 10/09 Q1010=
201505251420 METAR ESMX 251420Z 29006KT 9999 -DZ SCT010 BKN035 10/08 Q1010=
201505251350 METAR ESMX 251350Z 29007KT 9999 FEW011 BKN040 11/08 Q1010=
201505251320 METAR ESMX 251320Z 26006KT 9999 SCT010 BKN040 12/09 Q1010=
201505251250 METAR ESMX 251250Z 26006KT 230V300 9999 SCT011 BKN043 12/10 Q1010=
201505251220 METAR ESMX 251220Z 26007KT 9999 -RA FEW014 BKN022 12/09 Q1010=
201505251150 METAR ESMX 251150Z 28007KT 9999 BKN018 12/08 Q1010=
201505251120 METAR ESMX 251120Z 25006KT 190V350 9999 BKN017 13/08 Q1010=
201505251050 METAR ESMX 251050Z 21008KT 170V240 9999 SCT016 BKN028 12/08 Q1010=
201505251020 METAR ESMX 251020Z 22008KT 9999 FEW016 BKN024 12/07 Q1011=
201505250950 METAR ESMX 250950Z 21010KT 9999 -DZ BKN023 11/06 Q1011=
201505250920 METAR ESMX 250920Z 21012KT 9999 -DZ FEW026 BKN033 11/05 Q1011=
201505250850 METAR ESMX 250850Z 22011KT 9999 -DZ SCT038 BKN055 13/04 Q1011=
201505250820 METAR ESMX 250820Z 22010KT 9999 SCT040 BKN053 12/05 Q1011=
201505250750 METAR COR ESMX 250750Z 21011KT 9999 BKN045 11/06 Q1011=
201505250720 METAR ESMX 250720Z 22010KT 9999 FEW044 BKN052 11/06 Q1011=
201505250650 METAR ESMX 250650Z 21011KT 9999 FEW021 SCT046 BKN067 11/06 Q1011=
201505250620 METAR COR ESMX 250620Z 20012KT 9999 FEW020 BKN050 11/06 Q1011=
201505250550 METAR ESMX 250550Z 21011KT CAVOK 10/06 Q1011=
201505250420 METAR ESMX 250420Z 18008KT CAVOK 08/06 Q1011=
201505250350 METAR ESMX 250350Z 19071KT CAVOK 07/06 Q1011=
201505250050 METAR ESMX 250050Z AUTO 17003KT 9999 NCD 04/04 Q1012=
201505250020 METAR ESMX 250020Z AUTO 18004KT 9999 NCD 05/03 Q1013=
201505242350 METAR ESMX 242350Z AUTO 18004KT 9999 NCD 04/03 Q1013=
201505242320 METAR ESMX 242320Z 18004KT CAVOK 05/04 Q1013=
201505242250 METAR ESMX 242250Z 22004KT CAVOK 05/03 Q1013=
201505242220 METAR ESMX 242220Z 22004KT CAVOK 06/03 Q1013=
201505242150 METAR ESMX 242150Z 24005KT CAVOK 06/03 Q1014=
201505242120 METAR ESMX 242120Z 23004KT CAVOK 07/03 Q1014=
201505242050 METAR ESMX 242050Z 22005KT CAVOK 07/03 Q1014=
201505242020 METAR ESMX 242020Z 22006KT CAVOK 07/02 Q1014=
201505241950 METAR ESMX 241950Z 24007KT CAVOK 09/02 Q1014=
201505241920 METAR ESMX 241920Z 24008KT CAVOK 10/02 Q1014=
201505241850 METAR ESMX 241850Z 25008KT CAVOK 12/01 Q1014=
201505241820 METAR ESMX 241820Z 23009KT CAVOK 13/01 Q1014=
201505241750 METAR ESMX 241750Z 24010KT 200V270 CAVOK 14/01 Q1014=
201505241720 METAR ESMX 241720Z 23009KT CAVOK 15/01 Q1014=
201505241650 METAR ESMX 241650Z 23010KT CAVOK 15/00 Q1014=
201505241620 METAR ESMX 241620Z 23009KT CAVOK 15/01 Q1014=
201505241550 METAR COR ESMX 241550Z 21010KT 180V270 CAVOK 16/02 Q1015=
201505241520 METAR ESMX 241520Z 21012KT CAVOK 17/00 Q1015=
201505241450 METAR ESMX 241450Z 25010G21KT 200V270 CAVOK 17/01 Q1015=
201505241420 METAR ESMX 241420Z 25010KT 190V300 CAVOK 17/01 Q1015=
201505241350 METAR ESMX 241350Z 26011KT CAVOK 17/01 Q1015=
201505241320 METAR COR ESMX 241320Z 29011KT 240V320 CAVOK 16/03 Q1015=
201505241250 METAR ESMX 241250Z 21011KT CAVOK 16/03 Q1016=
201505241220 METAR ESMX 241220Z 24011KT 190V290 CAVOK 17/03 Q1016=
201505241150 METAR ESMX 241150Z 23010KT 200V260 CAVOK 16/04 Q1016=
201505241120 METAR ESMX 241120Z 25011KT 210V280 CAVOK 16/05 Q1016=
201505241050 METAR COR ESMX 241050Z 27010KT 240V300 CAVOK 15/04 Q1016=
201505241020 METAR ESMX 241020Z AUTO 24009KT 200V290 9999 NCD 15/04 Q1016=
201505240950 METAR ESMX 240950Z AUTO 23010KT 190V300 9999 NCD 14/06 Q1016=
201505240920 METAR ESMX 240920Z AUTO 23010KT 210V290 9999 NCD 13/05 Q1016=
201505240850 METAR ESMX 240850Z AUTO 23010KT 200V260 9999 NCD 13/05 Q1016=
201505240820 METAR ESMX 240820Z AUTO 25009KT 210V310 9999 FEW025/// 13/05 Q1016=
201505240750 METAR ESMX 240750Z AUTO 24008KT 200V280 9999 SCT020/// 12/05 Q1016=
201505240720 METAR ESMX 240720Z AUTO 26008KT 210V300 9999 SCT017/// 10/05 Q1016=
201505240650 METAR ESMX 240650Z AUTO 25009KT 9999 BKN014/// 09/05 Q1017=
201505240620 METAR ESMX 240620Z AUTO 28009KT 240V300 9999 BKN012/// 08/05 Q1017=
201505240550 METAR ESMX 240550Z AUTO 28009KT 9999 OVC009/// 08/05 Q1016=
201505240520 METAR ESMX 240520Z AUTO 25009KT 9999 OVC008/// 07/05 Q1016=
201505240450 METAR ESMX 240450Z AUTO 26007KT 200V290 9999 OVC007/// 06/05 Q1016=
201505240420 METAR ESMX 240420Z AUTO 26008KT 9999 OVC007/// 06/05 Q1016=
201505240350 METAR ESMX 240350Z AUTO 26006KT 9999 OVC007/// 06/05 Q1016=
201505240320 METAR ESMX 240320Z AUTO 24005KT 200V270 9999 OVC008/// 06/05 Q1016=
201505240250 METAR ESMX 240250Z AUTO 23006KT 9999 BKN011/// 05/04 Q1016=
201505240220 METAR ESMX 240220Z AUTO 22004KT 9999 FEW013/// 04/04 Q1016=
201505240150 METAR ESMX 240150Z AUTO 23005KT 9999 NCD 04/04 Q1016=
201505240120 METAR ESMX 240120Z AUTO 25004KT 9999 NCD 04/04 Q1016=
201505240050 METAR ESMX 240050Z AUTO 25004KT 9999 NCD 05/04 Q1016=
201505240020 METAR ESMX 240020Z AUTO 26005KT 9999 NCD 05/04 Q1017=
201505232350 METAR ESMX 232350Z AUTO 24004KT 210V290 9999 NCD 05/04 Q1017=
201505232320 METAR ESMX 232320Z AUTO 25005KT 9999 NCD 06/04 Q1017=
201505232250 METAR ESMX 232250Z AUTO 23004KT 9999 NCD 06/04 Q1017=
201505232220 METAR ESMX 232220Z AUTO 23004KT 9999 NCD 06/04 Q1017=
201505232150 METAR ESMX 232150Z AUTO 23005KT 9999 NCD 06/04 Q1017=
201505232120 METAR ESMX 232120Z AUTO 22005KT 9999 NCD 08/04 Q1017=
201505232050 METAR ESMX 232050Z AUTO 24006KT 9999 NCD 08/04 Q1017=
201505232020 METAR ESMX 232020Z AUTO 26006KT 9999 NCD 09/04 Q1017=
201505231950 METAR ESMX 231950Z AUTO 25006KT 9999 NCD 10/04 Q1016=
201505231920 METAR ESMX 231920Z AUTO 25006KT 230V290 9999 NCD 10/04 Q1016=
201505231850 METAR ESMX 231850Z AUTO 25007KT 9999 NCD 12/04 Q1016=
201505231820 METAR ESMX 231820Z AUTO 26008KT 9999 NCD 13/04 Q1016=
201505231750 METAR ESMX 231750Z AUTO 28009KT 9999 NCD 13/04 Q1016=
201505231720 METAR ESMX 231720Z AUTO 25009KT 220V290 9999 NCD 14/04 Q1016=
201505231650 METAR ESMX 231650Z AUTO 26009KT 230V290 9999 NCD 14/04 Q1015=
201505231620 METAR ESMX 231620Z AUTO 27011KT 9999 FEW048/// SCT054/// 15/04 Q1015=
201505231550 METAR ESMX 231550Z AUTO 25010KT 210V290 9999 FEW047/// 15/04 Q1015=
201505231520 METAR ESMX 231520Z AUTO 26011KT 230V300 9999 FEW047/// 15/03 Q1015=
201505231450 METAR ESMX 231450Z AUTO 27010KT 230V300 9999 BKN046/// 15/04 Q1015=
201505231420 METAR ESMX 231420Z AUTO 28010KT 9999 FEW047/// 16/04 Q1015=
201505231350 METAR ESMX 231350Z AUTO 28011KT 9999 FEW046/// 16/05 Q1015=
201505231320 METAR ESMX 231320Z AUTO 28012KT 260V330 9999 FEW041/// 16/04 Q1015=
201505231250 METAR ESMX 231250Z AUTO 25011KT 220V300 9999 FEW043/// 15/05 Q1015=
201505231220 METAR ESMX 231220Z AUTO 25012KT 220V280 9999 FEW037/// SCT043/// 15/04 Q1015=
201505231150 METAR ESMX 231150Z AUTO 28012KT 230V310 9999 SCT036/// 14/05 Q1015=
201505231120 METAR ESMX 231120Z AUTO 26012KT 9999 SCT035/// 14/05 Q1015=
201505231050 METAR ESMX 231050Z AUTO 26011KT 9999 BKN033/// 13/05 Q1015=
201505231020 METAR ESMX 231020Z AUTO 26013KT 230V290 9999 FEW032/// 13/05 Q1015=
201505230950 METAR ESMX 230950Z AUTO 24012KT 9999 SCT030/// 13/05 Q1016=
201505230920 METAR ESMX 230920Z AUTO 25014KT 210V280 9999 FEW090/// 12/05 Q1016=
201505230850 METAR ESMX 230850Z AUTO 25013KT 210V290 9999 FEW027/// 12/04 Q1016=
201505230820 METAR ESMX 230820Z 25013KT 9999 SCT026 11/05 Q1015=
201505230750 METAR ESMX 230750Z 26014KT 230V290 9999 BKN025 10/04 Q1015=
201505230720 METAR ESMX 230720Z 26013KT 230V300 9999 BKN021 10/04 Q1015=
201505230650 METAR COR ESMX 230650Z 27012KT 240V300 9999 BKN021 09/04 Q1015=
201505230620 METAR ESMX 230620Z 27010KT 240V300 9999 BKN021 08/04 Q1015=
201505230550 METAR ESMX 230550Z 26010KT 230V290 9999 BKN018 08/04 Q1015=
201505230520 METAR ESMX 230520Z AUTO 26010KT 9999 FEW016/// BKN018/// 08/05 Q1015=
201505230450 METAR ESMX 230450Z AUTO 26007KT 220V290 9999 FEW014/// SCT021/// 08/05 Q1015=
201505230420 METAR ESMX 230420Z AUTO 26007KT 230V300 9999 FEW014/// SCT020/// 07/05 Q1015=
201505230350 METAR ESMX 230350Z AUTO 25008KT 210V290 9999 FEW014/// BKN020/// 07/05 Q1015=
201505230320 METAR ESMX 230320Z AUTO 25007KT 9999 FEW014/// SCT017/// BKN021/// 07/06 Q1015=
201505230250 METAR ESMX 230250Z AUTO 25008KT 9999 FEW014/// SCT017/// 07/06 Q1015=
201505230220 METAR ESMX 230220Z AUTO 26008KT 9999 FEW018/// SCT021/// 08/06 Q1015=
201505230150 METAR ESMX 230150Z AUTO 26011KT 9999 FEW010/// SCT016/// BKN100/// 08/06 Q1015=
201505230120 METAR ESMX 230120Z AUTO 26010KT 220V280 9999 FEW009/// SCT099/// 08/07 Q1015=
201505230050 METAR ESMX 230050Z AUTO 24007KT 9999 FEW073/// 08/08 Q1015=
201505230020 METAR ESMX 230020Z AUTO 25008KT 220V300 9999 -RA FEW034/// BKN039/// 09/07 Q1015 REDZ=
201505222350 METAR ESMX 222350Z AUTO 28015G25KT 9999 -RA FEW007/// SCT010/// BKN013/// 10/08 Q1015=
201505222320 METAR ESMX 222320Z AUTO 24012G23KT 6000 BR OVC013/// 11/09 Q1015=
201505222250 METAR ESMX 222250Z AUTO 20012KT 9999 SCT018/// BKN023/// OVC032/// 11/09 Q1015=
201505222220 METAR ESMX 222220Z AUTO 19012KT 9999 FEW022/// BKN032/// 11/09 Q1015=
201505222150 METAR ESMX 222150Z AUTO 19012KT 9999 FEW031/// SCT035/// 11/08 Q1015=
201505222120 METAR ESMX 222120Z AUTO 19013KT 9999 SCT030/// BKN054/// 11/08 Q1015=
201505222050 METAR ESMX 222050Z AUTO 19013KT 9999 FEW036/// OVC057/// 11/08 Q1015=
201505222020 METAR ESMX 222020Z AUTO 19013KT 9999 OVC033/// 11/08 Q1016=
201505221950 METAR ESMX 221950Z AUTO 18013KT 9999 FEW025/// OVC034/// 11/08 Q1016=
201505221920 METAR ESMX 221920Z AUTO 18011KT 9999 OVC029/// 12/07 Q1016=
201505221850 METAR ESMX 221850Z AUTO 18010KT 9999 OVC028/// 12/07 Q1017=
201505221820 METAR ESMX 221820Z AUTO 21010KT 9999 OVC026/// 12/07 Q1017=
201505221750 METAR ESMX 221750Z 20009KT 9999 BKN025 12/07 Q1017=
201505221720 METAR ESMX 221720Z 21009KT 9999 BKN025 12/07 Q1018=
201505221650 METAR ESMX 221650Z 21011KT 9999 BKN022 12/07 Q1018=
201505221620 METAR ESMX 221620Z 21012KT 9999 BKN023 12/07 Q1018=
201505221550 METAR ESMX 221550Z 21011KT 9999 BKN023 12/07 Q1018=
201505221520 METAR ESMX 221520Z 22010KT 9999 BKN023 12/07 Q1019=
201505221450 METAR ESMX 221450Z 22011KT 9999 BKN024 12/07 Q1019=
201505221420 METAR ESMX 221420Z 22010KT 190V250 9999 BKN024 12/07 Q1019=
201505221350 METAR ESMX 221350Z 22012KT 9999 BKN025 13/06 Q1020=
201505221320 METAR ESMX 221320Z 23010KT 9999 BKN026 13/07 Q1020=
201505221250 METAR COR ESMX 221250Z 21013KT 9999 BKN030 13/06 Q1020=
201505221220 METAR COR ESMX 221220Z 23012KT 9999 BKN030 13/06 Q1020=
201505221150 METAR ESMX 221150Z 22012KT 9999 BKN029 13/06 Q1021=
201505221120 METAR ESMX 221120Z 22011KT 9999 BKN029 12/06 Q1021=
201505221050 METAR ESMX 221050Z 23011KT 9999 BKN029 12/05 Q1021=
201505221020 METAR ESMX 221020Z 21012KT 9999 BKN030 12/06 Q1021=
201505220950 METAR ESMX 220950Z 21011KT 9999 BKN031 13/05 Q1021=
201505220920 METAR ESMX 220920Z 21012KT 9999 BKN030 12/05 Q1021=
201505220850 METAR ESMX 220850Z 21012KT 9999 FEW027 BKN040 12/06 Q1022=
201505220820 METAR ESMX 220820Z 21013KT 9999 BKN029 12/05 Q1022=
201505220750 METAR COR ESMX 220750Z 21011KT 9999 SCT027 12/05 Q1022=
201505220720 METAR ESMX 220720Z 22010KT 9999 SCT022 11/05 Q1022=
201505220650 METAR ESMX 220650Z 21009KT 9999 FEW016 SCT021 11/07 Q1022=
201505220620 METAR ESMX 220620Z 22010KT 9999 SCT015 10/07 Q1022=
201505220550 METAR ESMX 220550Z 22007KT 9999 FEW027 10/07 Q1022=
201505220520 METAR ESMX 220520Z 22005KT 9999 FEW025 08/08 Q1022=
201505220450 METAR ESMX 220450Z 18005KT 9999 FEW012 SCT025 07/07 Q1022=
201505220420 METAR ESMX 220420Z 19004KT 9999 FEW014 06/06 Q1022=
201505220350 METAR ESMX 220350Z 22004KT 9999 FEW001 05/05 Q1022=
201505220320 METAR ESMX 220320Z AUTO 22004KT 9000 BR NCD 05/05 Q1022=
201505220250 METAR ESMX 220250Z AUTO 22005KT 2800 NCD 04/04 Q1022=
201505220220 METAR ESMX 220220Z AUTO 22005KT 3900 NCD 04/04 Q1022=
201505220150 METAR ESMX 220150Z AUTO 22006KT 9999 NCD 05/05 Q1022=
201505220120 METAR ESMX 220120Z AUTO 22005KT 9999 NCD 05/05 Q1021=
201505220050 METAR ESMX 220050Z AUTO 21005KT 9999 NCD 05/05 Q1021=
201505220020 METAR ESMX 220020Z AUTO 22005KT 9999 NCD 05/04 Q1021=
201505212350 METAR ESMX 212350Z AUTO 21005KT 9999 NCD 05/04 Q1021=
201505212320 METAR ESMX 212320Z 21004KT CAVOK 06/04 Q1021=
201505212250 METAR ESMX 212250Z 22005KT CAVOK 06/03 Q1021=
201505212220 METAR ESMX 212220Z 24005KT CAVOK 06/03 Q1021=
201505212150 METAR ESMX 212150Z 23005KT CAVOK 06/03 Q1021=
201505212120 METAR ESMX 212120Z 22005KT CAVOK 07/03 Q1021=
201505212050 METAR ESMX 212050Z 24005KT CAVOK 08/03 Q1021=
201505212020 METAR ESMX 212020Z 23005KT CAVOK 08/04 Q1021=
201505211950 METAR COR ESMX 211950Z 23006KT CAVOK 09/04 Q1021=
201505211920 METAR ESMX 211920Z 22006KT CAVOK 10/04 Q1020=
201505211850 METAR ESMX 211850Z 23005KT CAVOK 11/04 Q1020=
201505211820 METAR ESMX 211820Z 25009KT CAVOK 13/03 Q1020=
201505211750 METAR ESMX 211750Z 25009KT 9999 FEW047 SCT070 13/03 Q1020=
201505211720 METAR ESMX 211720Z 24004KT 9999 SCT047 14/03 Q1020=
201505211650 METAR ESMX 211650Z 25010KT 9999 FEW048 SCT080 15/04 Q1019=
201505211620 METAR ESMX 211620Z 25009KT 9999 FEW048 BKN075 14/04 Q1019=
201505211550 METAR COR ESMX 211550Z 23008G25KT 200V260 9999 FEW048 BKN075 14/03 Q1019=
201505211520 METAR ESMX 211520Z 23010KT 200V260 9999 FEW044 BKN075 14/03 Q1019=
201505211450 METAR ESMX 211450Z 25007KT 210V270 9999 FEW046 BKN070 15/04 Q1019=
201505211420 METAR ESMX 211420Z 21009G19KT 170V260 CAVOK 15/02 Q1019=
201505211350 METAR ESMX 211350Z 24008KT 200V300 9999 FEW044 SCT074 15/04 Q1019=
201505211320 METAR ESMX 211320Z 24010KT 190V290 9999 FEW047 SCT065 15/04 Q1019=
201505211250 METAR COR ESMX 211250Z 25009KT 9999 FEW047 SCT074 14/04 Q1019=
201505211220 METAR COR ESMX 211220Z 23009KT 200V270 9999 FEW047 14/04 Q1019=
201505211150 METAR ESMX 211150Z 24009KT 210V280 9999 FEW045 BKN072 15/04 Q1019=
201505211120 METAR COR ESMX 211120Z 24009KT 180V280 9999 FEW040 BKN070 15/03 Q1019=
201505211050 METAR ESMX 211050Z 22007KT 200V260 9999 FEW037 BKN070 14/04 Q1019=
201505211020 METAR ESMX 211020Z 21010KT 190V250 9999 FEW036 BKN065 14/04 Q1019=
201505210950 METAR ESMX 210950Z 19010KT 160V240 9999 FEW032 SCT060 14/04 Q1018=
201505210920 METAR COR ESMX 210920Z 25008KT 9999 FEW027 SCT060 13/04 Q1018=
201505210850 METAR COR ESMX 210850Z 22007KT 9999 FEW028 SCT056 13/06 Q1018=
201505210820 METAR ESMX 210820Z 25006KT 9999 SCT028 SCT058 12/06 Q1018=
201505210750 METAR ESMX 210750Z 26007KT 9999 SCT027 12/06 Q1018=
201505210720 METAR ESMX 210720Z 20006KT 160V250 9999 FEW020 12/07 Q1018=
201505210650 METAR ESMX 210650Z 24005KT 200V270 CAVOK 11/06 Q1017=
201505210620 METAR ESMX 210620Z 25003KT 210V280 CAVOK 11/07 Q1017=
201505210550 METAR ESMX 210550Z VRB03KT CAVOK 09/09 Q1017=
201505210520 METAR ESMX 210520Z 22004KT CAVOK 07/07 Q1017=
201505210450 METAR ESMX 210450Z VRB02KT CAVOK 06/06 Q1017=
201505210420 METAR ESMX 210420Z 00000KT 9999 BCFG NSC 03/03 Q1016=
201505210350 METAR ESMX 210350Z VRB02KT 2300 R01/P2000N R19/0400V0550N BCFG NSC 02/02 Q1016=
201505210320 METAR ESMX 210320Z AUTO 00000KT 0100 R01/0650V1400D R19/0375N BCFG VV000 01/01 Q1016=
201505210250 METAR ESMX 210250Z AUTO 00000KT 0150 R01/0700N R19/0325V0450N FG VV000 02/02 Q1016=
201505210220 METAR ESMX 210220Z AUTO 22004KT 0200 R01/P2000N R19/0450V0600N NCD 03/03 Q1016=
201505210150 METAR ESMX 210150Z AUTO 20003KT 0100 R01/P2000N R19/0225V0500N BCFG NCD 03/03 Q1016=
201505210120 METAR ESMX 210120Z AUTO 23003KT 0100 R01/0600V0800N R19/0400V0550N BCFG NCD 03/03 Q1015=
201505210050 METAR ESMX 210050Z AUTO 21003KT 0200 R01/P2000N R19/0375V0550N BCFG NCD 03/03 Q1015=
201505210020 METAR ESMX 210020Z AUTO 18003KT 0350 R01/P2000N R19/0800VP2000U BCFG NCD 04/04 Q1015=
201505202350 METAR ESMX 202350Z 22003KT 0350 R01/P2000N R19/0750N BCFG NSC 05/05 Q1015=
201505202320 METAR ESMX 202320Z 23003KT 0900 R01/1200D R19/1200N BCFG NSC 03/03 Q1015=
201505202250 METAR ESMX 202250Z VRB02KT 1500 R01/P2000N R19/P2000N BCFG NSC 03/03 Q1015=
201505202220 METAR ESMX 202220Z 00000KT 0500 R01/0450V0650N R19/0750N BCFG NSC 04/04 Q1015=
201505202150 METAR ESMX 202150Z VRB02KT 1200 R01/P2000N R19/0900V1500N BCFG NSC 05/04 Q1015=
201505202120 METAR COR ESMX 202120Z 00000KT 0500 R01/0800VP2000U R19/0350V0900U BCFG FEW036 06/06 Q1014=
201505202050 METAR ESMX 202050Z 14002KT 9999 R01/P2000N R19/P2000N MIFG NSC 07/06 Q1014=
201505202020 METAR ESMX 202020Z VRB02KT 9999 FEW045 BKN057 08/08 Q1014=
201505201950 METAR ESMX 201950Z 04004KT 010V070 9999 FEW020 BKN039 BKN063 09/08 Q1014=
201505201920 METAR ESMX 201920Z 07003KT 9999 -RA FEW019 SCT030 BKN050 09/08 Q1014=
201505201850 METAR ESMX 201850Z 34005KT 310V010 9999 -RA FEW024 BKN051 10/08 Q1013 RERA=
201505201820 METAR COR ESMX 201820Z 34007KT 9999 FEW014 FEW020CB BKN045 10/08 Q1013=
201505201750 METAR ESMX 201750Z 32010KT 9999 -RA FEW009 FEW020CB SCT041 BKN066 10/08 Q1013=
201505201720 METAR ESMX 201720Z VRB03KT 9999 -RA FEW025CB SCT042 10/09 Q1012=
201505201650 METAR ESMX 201650Z 07003KT 020V120 9999 -SHRA FEW006CB SCT042 11/08 Q1012=
201505201620 METAR ESMX 201620Z 35007KT 300V020 9999 -SHRA FEW031CB SCT054 11/07 Q1012=
201505201550 METAR ESMX 201550Z 21009KT 180V250 9999 FEW035CB BKN047 15/04 Q1011=
201505201520 METAR ESMX 201520Z 04004KT 010V070 9999 SCT037 BKN057 14/06 Q1011=
201505201450 METAR ESMX 201450Z 06005KT 9999 FEW045 SCT057 14/07 Q1011=
201505201420 METAR ESMX 201420Z VRB03KT 9999 FEW043 BKN063 13/06 Q1011=
201505201350 METAR ESMX 201350Z 36005KT 300V030 9999 -SHRA FEW048 SCT071 12/07 Q1011=
201505201320 METAR ESMX 201320Z 29006KT 9999 FEW020CB BKN054 11/08 Q1012=
201505201250 METAR ESMX 201250Z 22011KT 200V260 9999 SHRA FEW030CB BKN050 12/05 Q1011=
201505201220 METAR ESMX 201220Z 17010KT 9999 SCT046TCU BKN054 14/03 Q1011=
201505201150 METAR ESMX 201150Z 19009KT 140V220 9999 FEW025 BKN045TCU 15/04 Q1011=
201505201120 METAR ESMX 201120Z 19011KT 9999 BKN039TCU 14/04 Q1011=
201505201050 METAR ESMX 201050Z 19010KT 9999 FEW041 BKN055 14/04 Q1011=
201505201020 METAR ESMX 201020Z 20007KT 160V240 9999 FEW025 BKN040 13/05 Q1011=
201505200950 METAR ESMX 200950Z 18009KT 140V230 9999 FEW029TCU BKN034 12/05 Q1011=
201505200920 METAR ESMX 200920Z 18006KT 140V210 9999 FEW030TCU BKN035 12/05 Q1011=
201505200850 METAR ESMX 200850Z 20009KT 9999 BKN030TCU 11/05 Q1011=
201505200820 METAR ESMX 200820Z 21008KT 9999 FEW024TCU BKN035 11/05 Q1011=
201505200750 METAR ESMX 200750Z 20008KT 9999 SCT018 11/06 Q1011=
201505200720 METAR ESMX 200720Z 19008KT 9999 SCT016 10/06 Q1010=
201505200650 METAR ESMX 200650Z 18010KT 9999 FEW012 BKN020 09/06 Q1010=
201505200620 METAR ESMX 200620Z 20011KT 9999 FEW009 SCT015 09/06 Q1010=
201505200550 METAR ESMX 200550Z 18009KT 150V220 9999 SCT009 09/06 Q1010=
201505200520 METAR ESMX 200520Z 19010KT 9999 FEW006 08/07 Q1009=
201505200450 METAR COR ESMX 200450Z 18007KT 9999 FEW006 07/06 Q1009=
201505200420 METAR ESMX 200420Z 18007KT 9999 FEW007 06/06 Q1009=
201505200350 METAR ESMX 200350Z 18007KT 9999 FEW008 05/05 Q1009=
201505200320 METAR ESMX 200320Z 18007KT CAVOK 04/04 Q1008=
201505200250 METAR ESMX 200250Z AUTO 18007KT 9999 NCD 05/04 Q1008=
201505200220 METAR ESMX 200220Z AUTO 19006KT 9999 NCD 04/04 Q1008=
201505200150 METAR ESMX 200150Z AUTO 20006KT 9999 NCD 04/04 Q1008=
201505200120 METAR ESMX 200120Z AUTO 21007KT 9999 NCD 04/04 Q1008=
201505200050 METAR ESMX 200050Z AUTO 19006KT 9999 NCD 05/04 Q1007=
201505200020 METAR ESMX 200020Z AUTO 19008KT 9999 NCD 05/04 Q1007=
201505192350 METAR ESMX 192350Z 18008KT CAVOK 06/05 Q1007=
201505192320 METAR ESMX 192320Z 18007KT CAVOK 06/05 Q1007=
201505192250 METAR COR ESMX 192250Z 18008KT CAVOK 07/05 Q1007=
201505192220 METAR ESMX 192220Z 16006KT CAVOK 07/06 Q1006=
201505192150 METAR ESMX 192150Z 19005KT CAVOK 06/05 Q1006=
201505192120 METAR ESMX 192120Z 19006KT CAVOK 06/05 Q1006=
201505192050 METAR ESMX 192050Z 18006KT CAVOK 06/05 Q1006=
201505192020 METAR ESMX 192020Z 18006KT CAVOK 07/06 Q1005=
201505191950 METAR ESMX 191950Z 19006KT 9999 SCT050 06/05 Q1005=
201505191920 METAR ESMX 191920Z 17007KT 9999 FEW040 08/05 Q1005=
201505191850 METAR ESMX 191850Z 19006KT 9999 FEW042 08/05 Q1004=
201505191820 METAR ESMX 191820Z 19007KT 9999 FEW030 09/06 Q1004=
201505191750 METAR ESMX 191750Z 22012KT 9999 -SHRA FEW025 SCT030CB 10/05 Q1004=
201505191720 METAR ESMX 191720Z 23007KT 9999 FEW028 FEW030CB 11/06 Q1004=
201505191650 METAR ESMX 191650Z 21008KT 190V250 9999 FEW035CB 11/06 Q1003=
201505191620 METAR ESMX 191620Z 23008KT 9999 FEW026CB SCT037 11/06 Q1003=
201505191550 METAR ESMX 191550Z 23007KT 200V280 9999 FEW021CB SCT040 11/07 Q1003=
201505191520 METAR ESMX 191520Z 25006KT 210V280 9999 FEW040CB 11/08 Q1003=
201505191450 METAR ESMX 191450Z 24009KT 9999 VCSH FEW014 BKN027CB 10/08 Q1003=
201505191420 METAR ESMX 191420Z 21011KT 190V260 9999 SHRA FEW013 BKN040CB 10/07 Q1002=
201505191350 METAR ESMX 191350Z 22008KT 9999 FEW037 BKN040CB 13/05 Q1002=
201505191320 METAR ESMX 191320Z 23004KT 180V270 9999 FEW025 SCT030CB 12/07 Q1001=
201505191250 METAR ESMX 191250Z 20007KT 160V240 9999 FEW025 SCT030 12/07 Q1001=
201505191220 METAR COR ESMX 191220Z 22009KT 9999 FEW020 SCT031 13/09 Q1001=
201505191150 METAR ESMX 191150Z 23008KT 9999 FEW009 BKN057 12/08 Q1001=
201505191120 METAR ESMX 191120Z 19008KT 9999 FEW007 SCT010 BKN020 10/09 Q1001=
201505191050 METAR ESMX 191050Z 19008KT 150V210 9999 FEW004 BKN009 10/09 Q1001=
201505191020 METAR ESMX 191020Z 17005KT 9999 -DZ FEW003 BKN008 09/08 Q1001=
201505190950 METAR ESMX 190950Z 17007KT 9999 -RA OVC003 08/08 Q1001=
201505190920 METAR ESMX 190920Z 15008KT 9999 -RA OVC003 08/08 Q1001=
201505190850 METAR ESMX 190850Z 16008KT 110V190 9999 OVC004 08/07 Q1000=
201505190820 METAR ESMX 190820Z 14007KT 100V160 9999 BKN004 08/07 Q1000=
201505190750 METAR COR ESMX 190750Z 13006KT 090V180 9999 -RA BKN004 07/07 Q1000=
201505190720 METAR ESMX 190720Z 13006KT 090V160 9999 RA FEW003 BKN006 07/06 Q1000=
201505190650 METAR COR ESMX 190650Z 14007KT 8000 RA SCT005 BKN008 07/06 Q1001=
201505190620 METAR COR ESMX 190620Z 14007KT 110V170 8000 RA SCT007 BKN009 07/06 Q1001=
201505190550 METAR ESMX 190550Z 13008KT 090V170 9999 RA OVC006 07/06 Q1001=
201505190520 METAR COR ESMX 190520Z 14010KT 100V170 8000 RA BKN007 07/06 Q1001=
201505190450 METAR ESMX 190450Z 14010KT 100V170 9999 -RA BKN007 07/06 Q1001=
201505190420 METAR ESMX 190420Z 14010KT 100V180 9999 OVC006 07/06 Q1001=
201505190350 METAR ESMX 190350Z 14009KT 090V170 9999 OVC005 07/06 Q1001=
201505190320 METAR ESMX 190320Z 13009KT 090V180 9999 BKN005 OVC008 07/06 Q1002=
201505190250 METAR ESMX 190250Z AUTO 13007KT 080V170 9999 FEW005/// BKN007/// OVC009/// 07/06 Q1002=
201505190220 METAR ESMX 190220Z AUTO 12007KT 080V170 9999 -RA FEW006/// BKN007/// OVC010/// 07/06 Q1002=
201505190150 METAR ESMX 190150Z AUTO 14008KT 080V170 9999 -DZ BKN006/// OVC010/// 07/06 Q1003 RERA=
201505190120 METAR ESMX 190120Z AUTO 13007KT 080V160 9999 FEW007/// BKN009/// BKN011/// 07/06 Q1003=
201505190050 METAR ESMX 190050Z AUTO 13006KT 070V170 9999 DZ FEW010/// SCT048/// 07/06 Q1004 REDZ=
201505190020 METAR ESMX 190020Z AUTO 15007KT 100V190 9999 -RA FEW013/// BKN030/// 07/06 Q1004 REDZ=
201505182350 METAR ESMX 182350Z 14004KT 060V170 9999 -RA BKN031 08/06 Q1005=
201505182320 METAR ESMX 182320Z 12004KT 070V170 9999 -RA SCT024 BKN041 08/06 Q1005=
201505182250 METAR ESMX 182250Z 11004KT 060V170 9999 -RA FEW045 08/05 Q1005=
201505182220 METAR ESMX 182220Z 13003KT 100V180 CAVOK 09/05 Q1005=
201505182150 METAR ESMX 182150Z 14004KT CAVOK 09/05 Q1005=
201505182120 METAR ESMX 182120Z 15006KT CAVOK 09/05 Q1005=
201505182050 METAR ESMX 182050Z 16005KT CAVOK 10/06 Q1006=
201505182020 METAR ESMX 182020Z 16006KT CAVOK 10/05 Q1006=
201505181950 METAR ESMX 181950Z AUTO 16007KT 9999 NCD 10/04 Q1006=
201505181920 METAR ESMX 181920Z 15005KT 110V170 CAVOK 11/02 Q1007=
201505181850 METAR ESMX 181850Z 17003KT CAVOK 10/04 Q1007=
201505181820 METAR ESMX 181820Z 17002KT CAVOK 11/02 Q1007=
201505181750 METAR ESMX 181750Z 18004KT CAVOK 12/00 Q1007=
201505181720 METAR ESMX 181720Z 20006KT CAVOK 12/01 Q1007=
201505181650 METAR ESMX 181650Z 21007KT CAVOK 13/01 Q1007=
201505181620 METAR COR ESMX 181620Z 20007KT 160V240 CAVOK 13/01 Q1007=
201505181550 METAR ESMX 181550Z 22007KT 200V260 CAVOK 13/00 Q1007=
201505181520 METAR ESMX 181520Z 22007KT 200V270 CAVOK 13/02 Q1007=
201505181450 METAR ESMX 181450Z 19007KT CAVOK 13/01 Q1008=
201505181420 METAR COR ESMX 181420Z VRB03KT CAVOK 13/01 Q1008=
201505181350 METAR ESMX 181350Z 27005KT 230V300 9999 FEW048 SCT070 12/01 Q1008=
201505181320 METAR ESMX 181320Z 28006KT 250V320 9999 FEW048 BKN075 13/01 Q1008=
201505181250 METAR ESMX 181250Z 28009KT 9999 FEW042 SCT060 13/02 Q1009=
201505181220 METAR COR ESMX 181220Z VRB05G16KT 140V010 9999 SCT040 13/02 Q1009=
201505181150 METAR COR ESMX 181150Z 27007KT 240V310 9999 FEW038 SCT073 13/04 Q1009=
201505181120 METAR COR ESMX 181120Z 32007KT 280V350 9999 FEW042 BKN061 12/03 Q1009=
201505181050 METAR ESMX 181050Z 23008KT 9999 FEW039 BKN065 12/02 Q1009=
201505181020 METAR ESMX 181020Z 28009KT 240V320 9999 -SHRA FEW035TCU BKN050 11/01 Q1009=
201505180950 METAR ESMX 180950Z 27011KT 9999 FEW031 SCT044 11/03 Q1009=
201505180920 METAR ESMX 180920Z 28011KT 250V310 9999 FEW030 SCT044 BKN046 11/03 Q1009=
201505180850 METAR ESMX 180850Z 26010KT 180V300 9999 FEW024 SCT031 BKN037 10/04 Q1009=
201505180820 METAR ESMX 180820Z 27013KT 9999 FEW019 BKN035 10/04 Q1009=
201505180750 METAR ESMX 180750Z 27012KT 240V300 9999 SCT018 BKN035 09/04 Q1009=
201505180720 METAR ESMX 180720Z 27010KT 240V300 9999 FEW017 SCT028 BKN035 08/05 Q1009=
201505180650 METAR ESMX 180650Z 27010KT 9999 FEW016 SCT022 BKN032 07/04 Q1009=
201505180620 METAR ESMX 180620Z 27012KT 9999 FEW012 SCT017 BKN029 07/04 Q1009=
201505180550 METAR ESMX 180550Z 26012KT 9999 SCT011 BKN015 07/05 Q1009=
201505180520 METAR ESMX 180520Z 26011KT 230V290 9999 FEW006 SCT009 BKN012 07/05 Q1009=
201505180450 METAR ESMX 180450Z 24008KT 9999 SCT006 06/05 Q1009=
201505180420 METAR ESMX 180420Z 26007KT 9999 FEW011 SCT022 06/05 Q1009=
201505180350 METAR ESMX 180350Z 26006KT 9999 SCT023 05/04 Q1009=
201505180322 METAR ESMX 180322Z 25007KT 9999 FEW022 04/04 Q1009=
201505180250 METAR ESMX 180250Z AUTO 25005KT 9999 FEW015/// BKN075/// 04/04 Q1009 REUP=
201505180220 METAR ESMX 180220Z AUTO 24005KT 200V260 9999 FEW015/// BKN076/// 04/04 Q1009=
201505180150 METAR ESMX 180150Z AUTO 23004KT 9999 FEW015/// SCT018/// BKN078/// 04/04 Q1009=
201505180120 METAR ESMX 180120Z AUTO 22005KT 9999 FEW016/// BKN076/// 04/03 Q1009=
201505180050 METAR ESMX 180050Z AUTO 23005KT 9999 FEW019/// SCT024/// BKN033/// 05/04 Q1009=
201505180020 METAR ESMX 180020Z AUTO 25008KT 9999 -RA FEW010/// SCT046/// 05/04 Q1009 RERA=
201505172350 METAR ESMX 172350Z AUTO 26009KT 9999 SCT045/// BKN084/// 05/04 Q1009 RERA=
201505172320 METAR ESMX 172320Z AUTO 25010KT 9999 BKN046/// BKN088/// 05/04 Q1009=
201505172250 METAR ESMX 172250Z 25011KT 9999 -RA FEW029 BKN057 06/04 Q1009=
201505172220 METAR ESMX 172220Z 25010KT 9999 -RA SCT022 06/04 Q1009=
201505172150 METAR ESMX 172150Z 24008KT 9999 FEW042 05/04 Q1009=
201505172123 METAR ESMX 172123Z 23008KT 9999 FEW026 05/04 Q1009=
201505172120 METAR ESMX 172120Z AUTO 23008KT 9999 NCD 05/04 Q1009=
201505172050 METAR ESMX 172050Z 23008KT 9999 FEW028 SCT040 05/04 Q1009 RERA=
201505172020 METAR ESMX 172020Z 25007KT 9999 FEW023CB SCT035 06/04 Q1009=
201505171950 METAR ESMX 171950Z 26008KT 9999 FEW020 SCT034 06/04 Q1009=
201505171920 METAR ESMX 171920Z 26010G21KT 9999 -SHRA FEW017CB SCT045 06/04 Q1009=
201505171850 METAR ESMX 171850Z 25006KT 9999 SHRA FEW020 SCT033 07/05 Q1009=
201505171822 METAR ESMX 171822Z 25008KT 210V280 9999 FEW028 07/05 Q1009 RERA=
201505171750 METAR ESMX 171750Z 26012KT 240V300 9999 FEW008 SCT027 07/04 Q1009 RESHRA=
201505171720 METAR ESMX 171720Z AUTO 25013G24KT 200V280 9999 -RA FEW014/// 08/05 Q1009 REUP=
201505171650 METAR ESMX 171650Z 25012G22KT 9999 FEW025 09/05 Q1009=
201505171620 METAR ESMX 171620Z 25011KT 9999 FEW020 08/05 Q1010=
201505171550 METAR ESMX 171550Z 23011KT 9999 FEW021 06/05 Q1010=
201505171520 METAR ESMX 171520Z 27017G30KT 250V320 9999 RASH FEW017 SCT034CB BKN075 07/04 Q1010=
201505171450 METAR ESMX 171450Z 24013G23KT 220V280 9999 VCSH FEW025CB SCT035 09/05 Q1010=
201505171420 METAR ESMX 171420Z 25015G31KT 9999 SHRA SCT033CB SCT045 BKN051 10/02 Q1010=
201505171350 METAR ESMX 171350Z 24016G27KT 200V260 9999 FEW028 SCT040 10/03 Q1010=
201505171320 METAR ESMX 171320Z 26020G34KT 230V290 9999 FEW037CB BKN048 10/01 Q1010=
201505171250 METAR ESMX 171250Z 26019G31KT 9999 FEW041 SCT055 11/M00 Q1009=
201505171220 METAR ESMX 171220Z 26019G34KT 230V290 9999 FEW043 SCT059 12/01 Q1009=
201505171150 METAR ESMX 171150Z 26018G30KT 9999 FEW025 SCT043 BKN065 11/00 Q1009=
201505171120 METAR ESMX 171120Z 27014KT 240V300 9999 FEW027 SCT040 11/02 Q1009=
201505171050 METAR ESMX 171050Z 27021G34KT 210V310 9999 -RA FEW019 SCT059 07/02 Q1009=
201505171020 METAR ESMX 171020Z AUTO 27015G28KT 240V310 9999 FEW037/// 11/01 Q1009=
201505170950 METAR ESMX 170950Z AUTO 27019G30KT 240V310 9999 FEW009/// SCT052/// 10/01 Q1009=
201505170920 METAR ESMX 170920Z AUTO 26015G25KT 220V300 9999 FEW037/// BKN042/// BKN065/// 10/03 Q1009=
201505170850 METAR ESMX 170850Z AUTO 25017KT 9999 FEW040/// 10/M00 Q1009=
201505170820 METAR ESMX 170820Z AUTO 26015G26KT 230V290 9999 FEW037/// SCT044/// 10/02 Q1009=
201505170750 METAR ESMX 170750Z AUTO 26013KT 220V290 9999 FEW034/// SCT042/// 10/02 Q1009=
201505170720 METAR ESMX 170720Z AUTO 27015KT 9999 FEW030/// SCT040/// 09/01 Q1009=
201505170650 METAR ESMX 170650Z AUTO 27014KT 240V310 9999 FEW027/// SCT033/// BKN038/// 08/01 Q1009=
201505170620 METAR ESMX 170620Z AUTO 27016KT 9999 FEW026/// SCT031/// BKN036/// 08/02 Q1009=
201505170550 METAR ESMX 170550Z AUTO 26014G25KT 230V290 9999 FEW023/// BKN031/// 07/02 Q1009=
201505170520 METAR ESMX 170520Z AUTO 25014KT 9999 FEW023/// BKN035/// 07/03 Q1009=
201505170450 METAR ESMX 170450Z AUTO 26011KT 230V290 9999 FEW022/// 07/03 Q1009=
201505170420 METAR ESMX 170420Z AUTO 26011KT 9999 FEW021/// OVC032/// 06/03 Q1009=
201505170350 METAR ESMX 170350Z AUTO 26011KT 9999 FEW020/// BKN035/// 06/03 Q1009=
201505170320 METAR ESMX 170320Z AUTO 26012KT 9999 FEW019/// SCT026/// BKN036/// 06/03 Q1009=
201505170250 METAR ESMX 170250Z AUTO 26012KT 9999 FEW018/// SCT021/// OVC035/// 07/04 Q1009=
201505170220 METAR ESMX 170220Z AUTO 26013KT 9999 FEW018/// SCT021/// BKN025/// 06/04 Q1009=
201505170150 METAR ESMX 170150Z AUTO 26012KT 9999 FEW016/// BKN019/// BKN030/// 07/04 Q1009=
201505170120 METAR ESMX 170120Z AUTO 26011KT 9999 FEW015/// SCT020/// BKN025/// 07/04 Q1009=
201505170050 METAR ESMX 170050Z AUTO 27013KT 9999 FEW014/// SCT017/// BKN020/// 07/05 Q1009=
201505170020 METAR ESMX 170020Z AUTO 26012KT 9999 FEW013/// SCT019/// BKN021/// 07/05 Q1009=
201505162350 METAR ESMX 162350Z AUTO 26011KT 9999 SCT014/// BKN019/// OVC022/// 07/05 Q1008=
201505162320 METAR ESMX 162320Z AUTO 26010KT 220V280 9999 FEW011/// BKN014/// OVC019/// 07/06 Q1008=
201505162250 METAR ESMX 162250Z AUTO 26011KT 9999 OVC012/// 07/06 Q1009=
201505162220 METAR ESMX 162220Z AUTO 25010KT 9999 FEW010/// OVC013/// 07/06 Q1009=
201505162150 METAR ESMX 162150Z AUTO 26010KT 220V280 9999 FEW010/// BKN014/// BKN047/// 08/06 Q1009=
201505162120 METAR ESMX 162120Z AUTO 25010KT 230V290 9999 FEW009/// SCT013/// BKN024/// 08/07 Q1009=
201505162050 METAR ESMX 162050Z AUTO 21009KT 9999 -RA FEW005/// SCT007/// BKN009/// 08/08 Q1008 REDZ=
201505162020 METAR ESMX 162020Z AUTO 19011KT 6000 -DZ FEW003/// BKN005/// OVC008/// 08/07 Q1009=
201505161950 METAR ESMX 161950Z AUTO 18010KT 5000 -RA FEW006/// BKN009/// OVC011/// 08/07 Q1009 REDZ=
201505161920 METAR ESMX 161920Z AUTO 18009KT 8000 -RA OVC011/// 07/07 Q1009=
201505161850 METAR ESMX 161850Z AUTO 18008KT 9999 -RA OVC013/// 08/07 Q1009=
201505161820 METAR ESMX 161820Z AUTO 18009KT 9999 -RA FEW010/// BKN013/// OVC017/// 08/06 Q1010 REDZ REUP=
201505161750 METAR ESMX 161750Z AUTO 21008KT 9999 FEW011/// SCT013/// OVC017/// 08/06 Q1010=
201505161720 METAR ESMX 161720Z AUTO 21009KT 9999 FEW015/// BKN018/// OVC022/// 08/06 Q1011=
201505161650 METAR ESMX 161650Z AUTO 21008KT 170V250 9999 BKN019/// OVC025/// 09/05 Q1011=
201505161620 METAR ESMX 161620Z AUTO 23010KT 9999 FEW021/// OVC031/// 09/04 Q1011=
201505161550 METAR ESMX 161550Z AUTO 23010KT 9999 -DZ FEW036/// SCT051/// 09/05 Q1011 REDZ=
201505161520 METAR ESMX 161520Z AUTO 24008KT 9999 BKN041/// 10/03 Q1011=
201505161450 METAR ESMX 161450Z AUTO 23008KT 200V270 9999 BKN050/// 10/03 Q1012=
201505161420 METAR ESMX 161420Z AUTO 24010KT 9999 FEW050/// 10/02 Q1012=
201505161350 METAR ESMX 161350Z AUTO 24009KT 200V280 9999 FEW053/// BKN071/// 11/02 Q1012=
201505161320 METAR ESMX 161320Z AUTO 26011KT 9999 FEW038/// BKN086/// 12/02 Q1012=
201505161250 METAR ESMX 161250Z AUTO 25011KT 220V280 9999 FEW044/// SCT100/// 12/02 Q1012=
201505161220 METAR ESMX 161220Z AUTO 25010KT 210V290 9999 FEW058/// 13/03 Q1012=
201505161150 METAR ESMX 161150Z AUTO 25011KT 210V290 9999 FEW037/// 12/03 Q1012=
201505161120 METAR ESMX 161120Z AUTO 25009KT 220V300 9999 FEW029/// 13/03 Q1012=
201505161050 METAR ESMX 161050Z AUTO 25009KT 210V290 9999 FEW033/// 13/04 Q1012=
201505161020 METAR ESMX 161020Z AUTO 24010KT 190V290 9999 FEW032/// SCT037/// 13/04 Q1013=
201505160950 METAR ESMX 160950Z AUTO 24008KT 170V280 9999 FEW028/// SCT039/// 13/04 Q1013=
201505160920 METAR ESMX 160920Z AUTO 26008KT 9999 FEW024/// SCT035/// BKN040/// 12/05 Q1013=
201505160850 METAR ESMX 160850Z AUTO 25009KT 210V280 9999 FEW035/// BKN040/// 11/05 Q1013=
201505160820 METAR ESMX 160820Z 23009KT 9999 FEW026 BKN040 12/03 Q1014=
201505160750 METAR ESMX 160750Z 22008KT 190V260 9999 FEW032 SCT040 12/04 Q1014=
201505160720 METAR ESMX 160720Z 21006KT 170V250 9999 SCT039 11/04 Q1014=
201505160650 METAR ESMX 160650Z VRB03KT 9999 FEW013 SCT040 10/03 Q1014=
201505160620 METAR ESMX 160620Z 20003KT 160V250 9999 FEW030 SCT045 09/04 Q1014=
201505160550 METAR ESMX 160550Z VRB03KT CAVOK 08/04 Q1014=
201505160520 METAR ESMX 160520Z 23003KT 200V260 CAVOK 08/03 Q1014=
201505160450 METAR ESMX 160450Z AUTO 19003KT 9999 FEW056/// 06/03 Q1014=
201505160420 METAR ESMX 160420Z AUTO 21003KT 9999 FEW058/// 06/03 Q1014=
201505160350 METAR ESMX 160350Z AUTO 00000KT 9999 SCT059/// 05/03 Q1014=
201505160320 METAR ESMX 160320Z AUTO 17002KT 9999 FEW033/// BKN060/// 04/01 Q1015=
201505160250 METAR ESMX 160250Z AUTO 18004KT 9999 FEW040/// OVC060/// 04/01 Q1015=
201505160220 METAR ESMX 160220Z AUTO 17003KT 9999 FEW041/// BKN063/// 03/01 Q1015=
201505160150 METAR ESMX 160150Z AUTO VRB02KT 9999 BKN058/// 03/00 Q1015=
201505160120 METAR ESMX 160120Z AUTO 24002KT 9999 BKN055/// 03/00 Q1015=
201505160050 METAR ESMX 160050Z AUTO VRB01KT 9999 BKN055/// 02/M00 Q1015=
201505160020 METAR ESMX 160020Z AUTO 23004KT 9999 FEW054/// 02/M01 Q1015=
201505152350 METAR ESMX 152350Z AUTO 24003KT 9999 NCD 02/M01 Q1015=
201505152320 METAR ESMX 152320Z AUTO 24005KT 9999 NCD 02/M01 Q1015=
201505152250 METAR ESMX 152250Z AUTO 25003KT 9999 NCD 03/M01 Q1015=
201505152220 METAR ESMX 152220Z AUTO 26003KT 9999 NCD 04/M02 Q1015=
201505152150 METAR ESMX 152150Z AUTO 27004KT 9999 NCD 06/M01 Q1015=
201505152120 METAR ESMX 152120Z AUTO 27005KT 9999 NCD 07/M01 Q1015=
201505152050 METAR ESMX 152050Z AUTO 29005KT 9999 NCD 08/M02 Q1015=
201505152020 METAR ESMX 152020Z AUTO 30006KT 260V360 9999 NCD 09/M01 Q1014=
201505151950 METAR ESMX 151950Z AUTO 36004KT 9999 NCD 09/M00 Q1014=
201505151920 METAR ESMX 151920Z AUTO 28007KT 9999 NCD 10/M01 Q1014=
201505151850 METAR ESMX 151850Z AUTO 26006KT 9999 SCT075/// 12/M02 Q1013=
201505151820 METAR ESMX 151820Z AUTO 29005KT 9999 FEW077/// 13/M03 Q1013=
201505151750 METAR ESMX 151750Z AUTO 30006KT 9999 NCD 13/M04 Q1013=
201505151720 METAR ESMX 151720Z AUTO 29006KT 260V330 9999 NCD 14/M04 Q1013=
201505151650 METAR ESMX 151650Z AUTO 32009KT 290V350 9999 NCD 14/M04 Q1013=
201505151620 METAR ESMX 151620Z 33010KT CAVOK 15/M04 Q1013=
201505151550 METAR ESMX 151550Z 31009KT 260V350 CAVOK 15/M05 Q1013=
201505151520 METAR COR ESMX 151520Z 29010KT 250V330 CAVOK 15/M07 Q1013=
201505151450 METAR COR ESMX 151450Z 30012KT 260V330 CAVOK 15/M05 Q1013=
201505151420 METAR COR ESMX 151420Z 29014KT CAVOK 15/M06 Q1013=
201505151350 METAR COR ESMX 151350Z 29011KT 240V330 CAVOK 15/M04 Q1013=
201505151320 METAR COR ESMX 151320Z 29012KT 250V320 CAVOK 15/M04 Q1013=
201505151250 METAR COR ESMX 151250Z 31011KT 260V350 CAVOK 15/M05 Q1012=
201505151220 METAR ESMX 151220Z AUTO 31013KT 9999 NCD 14/M05 Q1012=
201505151150 METAR ESMX 151150Z 29013KT 260V320 CAVOK 15/M04 Q1012=
201505151120 METAR COR ESMX 151120Z 28014KT 240V300 CAVOK 14/M05 Q1012=
201505151050 METAR ESMX 151050Z 33014KT CAVOK 13/M04 Q1012=
201505151020 METAR ESMX 151020Z 32013KT 280V340 CAVOK 13/M04 Q1012=
201505150950 METAR COR ESMX 150950Z 31013KT 270V340 CAVOK 12/M04 Q1012=
201505150920 METAR ESMX 150920Z 29012G22KT 250V330 CAVOK 12/M03 Q1012=
201505150850 METAR COR ESMX 150850Z 31011KT 270V340 CAVOK 11/M04 Q1012=
201505150820 METAR COR ESMX 150820Z 29009KT 260V330 CAVOK 11/M03 Q1012=
201505150750 METAR ESMX 150750Z 29011KT 250V330 CAVOK 10/M04 Q1012=
201505150720 METAR ESMX 150720Z 32010KT CAVOK 09/M03 Q1012=
201505150650 METAR ESMX 150650Z 33009KT 290V020 CAVOK 09/M02 Q1012=
201505150620 METAR ESMX 150620Z AUTO 33008KT 300V360 9999 NCD 09/M02 Q1012=
201505150550 METAR ESMX 150550Z AUTO 34008KT 9999 NCD 07/M02 Q1011=
201505150520 METAR ESMX 150520Z AUTO 34010KT 9999 NCD 07/M01 Q1011=
201505150450 METAR ESMX 150450Z AUTO 33008KT 290V360 9999 NCD 06/M01 Q1011=
201505150420 METAR ESMX 150420Z AUTO 33010KT 9999 NCD 05/M01 Q1011=
201505150350 METAR ESMX 150350Z AUTO 32007KT 9999 NCD 04/M02 Q1011=
201505150320 METAR ESMX 150320Z AUTO 32007KT 9999 NCD 03/M02 Q1011=
201505150250 METAR ESMX 150250Z AUTO 32008KT 9999 NCD 03/M02 Q1011=
201505150220 METAR ESMX 150220Z AUTO 33008KT 9999 NCD 03/M02 Q1011=
201505150150 METAR ESMX 150150Z AUTO 32006KT 9999 NCD 02/M01 Q1010=
201505150120 METAR ESMX 150120Z AUTO 33007KT 9999 NCD 03/M01 Q1010=
201505150050 METAR ESMX 150050Z AUTO 33007KT 9999 NCD 03/M01 Q1010=
201505150020 METAR ESMX 150020Z AUTO 31004KT 270V340 9999 NCD 03/01 Q1010=
201505142350 METAR ESMX 142350Z AUTO 29006KT 9999 NCD 02/00 Q1010=
201505142320 METAR ESMX 142320Z AUTO 02003KT 9999 NCD 03/M00 Q1009=
201505142250 METAR ESMX 142250Z 00000KT CAVOK 06/01 Q1010=
201505142220 METAR ESMX 142220Z 30002KT CAVOK 07/01 Q1010=
201505142150 METAR ESMX 142150Z AUTO 34003KT 9999 BKN055/// BKN081/// 08/01 Q1010=
201505142120 METAR ESMX 142120Z 35005KT CAVOK 08/01 Q1010=
201505142050 METAR ESMX 142050Z 35008KT CAVOK 09/01 Q1009=
201505142020 METAR ESMX 142020Z 35007KT CAVOK 09/02 Q1009=
201505141950 METAR ESMX 141950Z AUTO 35006KT 9999 BKN080/// 09/02 Q1009=
201505141920 METAR ESMX 141920Z 34006KT CAVOK 10/02 Q1009=
201505141850 METAR ESMX 141850Z 35005KT CAVOK 11/02 Q1008=
201505141820 METAR ESMX 141820Z 36007KT CAVOK 12/01 Q1008=
201505141750 METAR ESMX 141750Z 31006KT CAVOK 13/01 Q1008=
201505141720 METAR ESMX 141720Z 31005KT CAVOK 13/01 Q1008=
201505141650 METAR ESMX 141650Z AUTO 32006KT 9999 BKN067/// 13/00 Q1008=
201505141620 METAR ESMX 141620Z AUTO 33007KT 9999 SCT069/// OVC089/// 13/01 Q1008=
201505141550 METAR ESMX 141550Z AUTO 32010KT 9999 FEW073/// SCT089/// 14/M00 Q1007=
201505141520 METAR ESMX 141520Z AUTO 35006KT 300V020 9999 SCT098/// 14/00 Q1007=
201505141450 METAR ESMX 141450Z AUTO 33007KT 9999 FEW064/// SCT098/// 13/01 Q1007=
201505141420 METAR ESMX 141420Z AUTO 32010KT 9999 FEW061/// SCT078/// 14/00 Q1007=
201505141350 METAR ESMX 141350Z AUTO 32006KT 290V350 9999 FEW055/// SCT079/// 14/01 Q1007=
201505141320 METAR ESMX 141320Z AUTO 36008KT 9999 FEW075/// SCT099/// 14/03 Q1007=
201505141250 METAR ESMX 141250Z AUTO 33009KT 290V350 9999 FEW044/// BKN091/// 15/02 Q1007=
201505141220 METAR ESMX 141220Z AUTO 01009KT 320V030 9999 FEW057/// 15/02 Q1007=
201505141150 METAR ESMX 141150Z AUTO 34009KT 300V020 9999 FEW070/// 14/02 Q1007=
201505141120 METAR ESMX 141120Z AUTO 36009KT 9999 FEW047/// 13/03 Q1007=
201505141050 METAR ESMX 141050Z AUTO 33008KT 280V010 9999 FEW041/// 14/04 Q1007=
201505141020 METAR ESMX 141020Z AUTO 34011KT 9999 FEW039/// 13/04 Q1007=
201505140950 METAR ESMX 140950Z 30007KT 250V330 9999 SCT036 13/04 Q1007=
201505140920 METAR ESMX 140920Z 35010KT 300V010 9999 SCT034 13/05 Q1007=
201505140850 METAR ESMX 140850Z 33007KT 250V010 9999 SCT030 13/04 Q1007=
201505140820 METAR ESMX 140820Z 36007KT 320V030 9999 FEW026 12/05 Q1007=
201505140750 METAR ESMX 140750Z 32006KT 280V360 CAVOK 12/06 Q1007=
201505140720 METAR ESMX 140720Z 36007KT 300V030 CAVOK 11/06 Q1007=
201505140650 METAR ESMX 140650Z 34007KT CAVOK 10/05 Q1006=
201505140620 METAR ESMX 140620Z AUTO 34008KT 9999 NCD 10/05 Q1006=
201505140550 METAR ESMX 140550Z AUTO 34008KT 9999 NCD 09/06 Q1006=
201505140520 METAR ESMX 140520Z AUTO 32008KT 9999 NCD 08/06 Q1006=
201505140450 METAR ESMX 140450Z AUTO 31006KT 280V340 9999 NCD 08/06 Q1006=
201505140420 METAR ESMX 140420Z AUTO 31006KT 280V340 9999 FEW007/// BKN067/// 08/06 Q1006=
201505140350 METAR ESMX 140350Z AUTO 30006KT 9999 OVC067/// 07/06 Q1005=
201505140320 METAR ESMX 140320Z AUTO 30005KT 9999 SCT068/// 06/06 Q1005=
201505140250 METAR ESMX 140250Z AUTO 29007KT 9999 FEW006/// SCT007/// BKN070/// 06/06 Q1005=
201505140220 METAR ESMX 140220Z AUTO 29007KT 9999 OVC005/// 07/06 Q1005=
201505140150 METAR ESMX 140150Z AUTO 30006KT 270V330 9999 BKN005/// OVC008/// 07/06 Q1005=
201505140120 METAR ESMX 140120Z AUTO 28005KT 250V320 9999 OVC005/// 07/06 Q1005=
201505140050 METAR ESMX 140050Z AUTO 28007KT 240V310 9999 OVC005/// 07/06 Q1005=
201505140020 METAR ESMX 140020Z AUTO 28006KT 9999 FEW005/// BKN006/// OVC038/// 07/06 Q1005=
201505132350 METAR ESMX 132350Z AUTO 28005KT 9999 BKN038/// BKN049/// 07/06 Q1005=
201505132320 METAR ESMX 132320Z AUTO 28006KT 9999 BKN045/// 07/07 Q1005=
201505132250 METAR ESMX 132250Z AUTO 28005KT 9999 OVC042/// 08/07 Q1005=
201505132220 METAR ESMX 132220Z AUTO 29005KT 9999 FEW005/// BKN007/// BKN047/// 08/07 Q1005=
201505132150 METAR ESMX 132150Z AUTO 26005KT 9999 OVC006/// 08/07 Q1005=
201505132120 METAR ESMX 132120Z AUTO 26005KT 9999 FEW007/// SCT009/// BKN072/// 07/07 Q1005=
201505132050 METAR ESMX 132050Z AUTO 25004KT 9999 FEW010/// SCT014/// BKN020/// 08/07 Q1005=
201505132020 METAR ESMX 132020Z AUTO 25005KT 9999 FEW020/// SCT026/// BKN030/// 08/07 Q1005=
201505131950 METAR ESMX 131950Z AUTO 25007KT 9999 FEW029/// SCT034/// BKN039/// 08/07 Q1005=
201505131920 METAR ESMX 131920Z 25007KT 9999 FEW015 BKN030 08/07 Q1005=
201505131850 METAR ESMX 131850Z 22007KT 9999 VCSH FEW025CB BKN042 08/07 Q1005=
201505131820 METAR ESMX 131820Z 25007KT 9999 VCSH FEW010 BKN035CB 09/07 Q1005=
201505131750 METAR ESMX 131750Z 26009KT 230V290 9000 SHRA BKN015CB 09/07 Q1005=
201505131720 METAR ESMX 131720Z 25010KT 9999 VCSH BKN014CB 09/08 Q1005=
201505131650 METAR ESMX 131650Z 27007KT 230V300 9999 SHRA FEW014 BKN019CB 09/07 Q1005=
201505131620 METAR COR ESMX 131620Z 26012KT 9999 SHRA FEW016 BKN025CB 10/07 Q1005=
201505131550 METAR ESMX 131550Z 26010KT 230V290 9999 VCSH FEW013 BKN030CB 10/08 Q1005=
201505131520 METAR ESMX 131520Z 26012KT 9999 SHRA FEW014 SCT020 BKN030CB 10/07 Q1005=
201505131450 METAR ESMX 131450Z 26013G24KT 9999 FEW018 SCT025CB BKN040 10/07 Q1005=
201505131420 METAR ESMX 131420Z 25013G23KT 230V290 9999 FEW023 SCT032CB BKN045 11/06 Q1005=
201505131350 METAR ESMX 131350Z 25014G24KT 220V280 9999 FEW024 BKN032CB 11/06 Q1005=
201505131320 METAR ESMX 131320Z 25014KT 9999 FEW025 BKN032CB 11/06 Q1005=
201505131250 METAR ESMX 131250Z 26015KT 230V290 9999 FEW026 BKN035CB 11/06 Q1005=
201505131220 METAR ESMX 131220Z 26013KT 230V310 9999 -RA FEW022 SCT036CB BKN041 10/07 Q1005=
201505131150 METAR ESMX 131150Z AUTO 26014KT 9999 FEW021/// SCT032/// BKN039/// 11/07 Q1005 RERA=
201505131120 METAR ESMX 131120Z 26015G26KT 9999 FEW020 SCT032 BKN051 11/06 Q1005=
201505131050 METAR ESMX 131050Z 26013G23KT 210V290 9999 FEW019 SCT030 11/08 Q1005=
201505131020 METAR ESMX 131020Z 27014KT 9999 VCSH FEW008 BKN025CB 09/07 Q1005=
201505130950 METAR ESMX 130950Z 29013G24KT 260V320 9999 VCSH FEW016 BKN025CB 09/07 Q1005=
201505130920 METAR ESMX 130920Z 24011KT 210V270 9999 -RA FEW016 SCT020 BKN026 10/07 Q1005=
201505130850 METAR ESMX 130850Z 25016KT 9999 FEW015 SCT022 BKN025 10/07 Q1005=
201505130830 METAR ESMX 130830Z 24013KT 9999 FEW013 SCT020 BKN025 10/07 Q1005=
201505130820 METAR ESMX 130820Z AUTO 25011KT 210V280 9999 FEW013/// SCT016/// BKN020/// 10/08 Q1005=
201505130750 METAR ESMX 130750Z 25011G22KT 9999 FEW008 BKN010 OVC014 09/07 Q1005=
201505130720 METAR ESMX 130720Z 23011KT 200V260 8000 BR FEW008 BKN010 OVC014 09/08 Q1005=
201505130650 METAR ESMX 130650Z 22011KT 9999 -DZ FEW008 BKN010 BKN014 09/07 Q1005=
201505130620 METAR ESMX 130620Z 23012KT 200V260 6000 -RA FEW008 SCT011 BKN014 08/07 Q1005=
201505130550 METAR ESMX 130550Z AUTO 23010KT 7000 DZ FEW009/// SCT016/// BKN020/// 08/07 Q1005 RERA=
201505130523 METAR ESMX 130523Z 25010KT 220V280 9999 -RA FEW009 SCT014 BKN018 08/07 Q1005=
201505130520 METAR ESMX 130520Z AUTO 25010KT 220V280 9999 FEW008/// SCT013/// BKN018/// 08/07 Q1005=
201505130450 METAR ESMX 130450Z 23010KT 6000 RA FEW008 SCT012 BKN016 08/07 Q1005=
201505130420 METAR ESMX 130420Z 22010KT 9999 -RA FEW008 OVC013 07/06 Q1005 RERA=
201505130350 METAR ESMX 130350Z 22010KT 9999 FEW009 SCT014 BKN016 07/06 Q1005=
201505130320 METAR ESMX 130320Z AUTO 24010KT 8000 -RA FEW010/// BKN012/// BKN019/// 07/06 Q1005=
201505130250 METAR ESMX 130250Z AUTO 23010KT 9000 -RA BKN010/// OVC016/// 07/06 Q1005 RESHUP REDZ=
201505130220 METAR ESMX 130220Z AUTO 22011KT 9999 -DZ FEW012/// BKN015/// BKN022/// 07/05 Q1005 REUP=
201505130150 METAR ESMX 130150Z AUTO 24010KT 9999 FEW015/// BKN021/// BKN048/// 07/05 Q1006=
201505130120 METAR ESMX 130120Z AUTO 24009KT 9999 FEW013/// SCT023/// BKN027/// 07/05 Q1006=
201505130050 METAR ESMX 130050Z AUTO 24010KT 9999 FEW011/// BKN017/// BKN051/// 07/06 Q1006 RERA=
201505130020 METAR ESMX 130020Z AUTO 24010KT 9999 FEW013/// SCT017/// BKN021/// 07/06 Q1006=
201505122350 METAR ESMX 122350Z 24011KT 9999 -RA FEW013 SCT016 BKN020 07/06 Q1006=
201505122320 METAR ESMX 122320Z 24011KT 9999 -RA FEW010 BKN013 OVC017 07/06 Q1006=
201505122250 METAR COR ESMX 122250Z 25011KT 9999 FEW010 BKN014 BKN022 07/05 Q1006=
201505122220 METAR ESMX 122220Z 25011KT 220V280 9999 FEW011 BKN014 OVC022 07/05 Q1006=
201505122150 METAR ESMX 122150Z 26012KT 9999 FEW012 BKN014 OVC026 07/05 Q1006=
201505122120 METAR ESMX 122120Z 25012KT 9999 FEW010 SCT014 BKN018 07/06 Q1006=
201505122050 METAR ESMX 122050Z 24008G18KT 9999 FEW012 SCT014 BKN017 07/06 Q1006=
201505122020 METAR ESMX 122020Z 26012KT 9999 FEW013 SCT017 BKN021 07/06 Q1006=
201505121950 METAR ESMX 121950Z 24010KT 210V270 9999 -RA FEW008 SCT012 BKN015 08/07 Q1005 REDZ=
201505121920 METAR ESMX 121920Z 25009KT 9999 -RA FEW009 OVC011 08/07 Q1005=
201505121850 METAR ESMX 121850Z 24010KT 9999 -RA FEW008 SCT011 BKN014 08/08 Q1005=
201505121820 METAR ESMX 121820Z 25012KT 9999 -RA FEW012 SCT019 BKN022 09/07 Q1005=
201505121750 METAR COR ESMX 121750Z 26012KT 7000 RA FEW013 SCT041 BKN049 09/08 Q1005 REDZ=
201505121720 METAR ESMX 121720Z 26012KT 9999 FEW005 SCT011 BKN021 10/09 Q1005 REDZ=
201505121650 METAR ESMX 121650Z 20011KT 3700 BR FEW005 SCT008 BKN009 12/11 Q1004=
201505121620 METAR ESMX 121620Z 19011KT 9999 FEW006 SCT075 BKN086 12/11 Q1004=
201505121550 METAR ESMX 121550Z 19010KT 9999 FEW004 SCT009 BKN082 12/12 Q1005=
201505121520 METAR ESMX 121520Z 21006KT 170V230 9999 -DZ FEW004 SCT038 12/12 Q1006=
201505121450 METAR ESMX 121450Z 20010KT 8000 RA FEW037 SCT049 12/11 Q1007=
201505121420 METAR ESMX 121420Z 20010KT 9999 RA FEW043 12/11 Q1007=
201505121350 METAR ESMX 121350Z 19011KT 9999 RA SCT029 12/11 Q1007=
201505121320 METAR ESMX 121320Z 21014KT 9999 RA FEW010 SCT025 BKN040 13/10 Q1008=
201505121252 METAR ESMX 121252Z 20015KT 9999 -RA FEW042 SCT048 BKN060 16/10 Q1008=
201505121220 METAR ESMX 121220Z 21007KT 9999 -DZ FEW042 18/10 Q1008=
201505121150 METAR ESMX 121150Z 20012KT 9999 FEW035 SCT080 19/09 Q1008=
201505121120 METAR ESMX 121120Z 18007KT 9999 FEW027 SCT085 18/09 Q1009=
201505121050 METAR ESMX 121050Z 15008KT 110V190 9999 FEW041 17/09 Q1009=
201505121020 METAR ESMX 121020Z 18010KT CAVOK 17/10 Q1010=
201505120950 METAR ESMX 120950Z 17007KT CAVOK 16/09 Q1011=
201505120920 METAR ESMX 120920Z 16007KT 140V200 9999 FEW046 15/09 Q1012=
201505120850 METAR ESMX 120850Z 17007KT 130V200 9999 FEW043 15/08 Q1012=
201505120820 METAR ESMX 120820Z 18007KT 9999 FEW039 14/08 Q1012=
201505120750 METAR ESMX 120750Z VRB06KT 160V010 CAVOK 14/08 Q1013=
201505120720 METAR ESMX 120720Z 17005KT 140V210 9999 FEW045 13/08 Q1013=
201505120650 METAR ESMX 120650Z 18006KT 150V210 9999 FEW038 12/07 Q1013=
201505120620 METAR ESMX 120620Z 15005KT 120V190 CAVOK 12/07 Q1013=
201505120550 METAR ESMX 120550Z 16004KT 120V190 CAVOK 11/07 Q1013=
201505120520 METAR ESMX 120520Z 16005KT 110V180 CAVOK 11/06 Q1014=
201505120450 METAR ESMX 120450Z 17004KT CAVOK 10/06 Q1014=
201505120420 METAR ESMX 120420Z 18004KT CAVOK 10/06 Q1014=
201505120350 METAR ESMX 120350Z 18005KT CAVOK 10/06 Q1014=
201505120320 METAR ESMX 120320Z 16008KT CAVOK 10/06 Q1014=
201505120250 METAR ESMX 120250Z AUTO 16006KT 9999 FEW064/// 10/06 Q1014=
201505120220 METAR ESMX 120220Z AUTO 18006KT 9999 FEW085/// 10/05 Q1015=
201505120150 METAR ESMX 120150Z AUTO 18007KT 9999 BKN083/// 10/06 Q1015=
201505120120 METAR ESMX 120120Z AUTO 17009KT 9999 FEW054/// BKN081/// 10/05 Q1015=
201505120050 METAR ESMX 120050Z AUTO 17009KT 9999 FEW054/// 10/05 Q1016=
201505120020 METAR ESMX 120020Z AUTO 17008KT 9999 NCD 09/05 Q1016=
201505112350 METAR ESMX 112350Z 17010KT CAVOK 09/05 Q1016=
201505112320 METAR ESMX 112320Z 16009KT CAVOK 09/05 Q1017=
201505112250 METAR ESMX 112250Z 16010KT CAVOK 09/05 Q1017=
201505112220 METAR ESMX 112220Z 16010KT CAVOK 09/05 Q1017=
201505112152 METAR ESMX 112152Z 16010KT CAVOK 10/05 Q1018=
201505112120 METAR ESMX 112120Z 16011KT CAVOK 10/04 Q1019=
201505112050 METAR ESMX 112050Z 16010KT CAVOK 10/04 Q1019=
201505112020 METAR ESMX 112020Z 17011KT CAVOK 10/04 Q1019=
201505111951 METAR ESMX 111951Z 17012KT CAVOK 10/04 Q1020=
201505111920 METAR ESMX 111920Z 17012KT CAVOK 11/04 Q1019=
201505111850 METAR ESMX 111850Z 16011KT CAVOK 11/01 Q1019=
201505111820 METAR ESMX 111820Z 16011KT CAVOK 12/M02 Q1019=
201505111750 METAR ESMX 111750Z 17012KT CAVOK 13/M02 Q1020=
201505111720 METAR ESMX 111720Z 17012KT 140V200 CAVOK 14/M02 Q1020=
201505111650 METAR ESMX 111650Z 16014KT CAVOK 15/M01 Q1020=
201505111620 METAR ESMX 111620Z 16011KT CAVOK 15/M01 Q1020=
201505111550 METAR ESMX 111550Z 17013KT CAVOK 15/M01 Q1021=
201505111520 METAR ESMX 111520Z 19013KT CAVOK 17/01 Q1021=
201505111450 METAR ESMX 111450Z 17014KT CAVOK 17/01 Q1022=
201505111420 METAR ESMX 111420Z 17015KT 140V200 CAVOK 17/02 Q1022=
201505111350 METAR ESMX 111350Z 18015KT CAVOK 17/03 Q1022=
201505111320 METAR ESMX 111320Z 16011KT 120V200 CAVOK 16/03 Q1023=
201505111250 METAR ESMX 111250Z AUTO 17011KT 140V210 9999 NCD 17/04 Q1023=
201505111220 METAR ESMX 111220Z 18013KT 150V230 CAVOK 17/04 Q1023=
201505111150 METAR ESMX 111150Z 19012KT 170V240 CAVOK 17/03 Q1023=
201505111120 METAR ESMX 111120Z 20012KT CAVOK 17/04 Q1024=
201505111050 METAR ESMX 111050Z 18013KT 140V210 CAVOK 16/03 Q1024=
201505111020 METAR ESMX 111020Z 19011KT CAVOK 15/04 Q1024=
201505110950 METAR ESMX 110950Z 19011KT 160V230 CAVOK 14/03 Q1025=
201505110920 METAR ESMX 110920Z 20011KT CAVOK 13/04 Q1025=
201505110850 METAR ESMX 110850Z 19010KT CAVOK 13/04 Q1025=
201505110820 METAR ESMX 110820Z 20010KT CAVOK 13/04 Q1025=
201505110750 METAR ESMX 110750Z 19010KT CAVOK 12/04 Q1025=
201505110720 METAR ESMX 110720Z 19005KT 160V230 CAVOK 11/03 Q1025=
201505110650 METAR ESMX 110650Z 21006KT CAVOK 10/05 Q1025=
201505110620 METAR ESMX 110620Z 21004KT 180V240 CAVOK 08/05 Q1025=
201505110550 METAR ESMX 110550Z 18004KT CAVOK 08/05 Q1025=
201505110520 METAR ESMX 110520Z 22004KT CAVOK 06/05 Q1026=
201505110450 METAR ESMX 110450Z 19003KT 160V230 CAVOK 05/05 Q1025=
201505110420 METAR ESMX 110420Z 18003KT CAVOK 04/04 Q1025=
201505110350 METAR ESMX 110350Z 22003KT CAVOK 03/03 Q1025=
201505110320 METAR ESMX 110320Z 23003KT 9999 BCFG NSC 02/01 Q1025=
201505110250 METAR ESMX 110250Z AUTO 21003KT 9999 NCD 03/03 Q1025=
201505110220 METAR ESMX 110220Z AUTO 23003KT 9999 NCD 03/03 Q1025=
201505110150 METAR ESMX 110150Z AUTO 26003KT 9999 NCD 04/03 Q1025=
201505110120 METAR ESMX 110120Z AUTO 25005KT 9999 NCD 04/03 Q1025=
201505110050 METAR ESMX 110050Z AUTO 26005KT 9999 NCD 04/03 Q1025=
201505110020 METAR ESMX 110020Z AUTO 26006KT 9999 NCD 04/03 Q1024=
201505102350 METAR ESMX 102350Z AUTO 26007KT 9999 NCD 04/03 Q1024=
201505102320 METAR ESMX 102320Z AUTO 26005KT 9999 NCD 04/02 Q1024=
201505102250 METAR ESMX 102250Z 25006KT CAVOK 05/02 Q1024=
201505102220 METAR ESMX 102220Z 26007KT CAVOK 05/02 Q1023=
201505102150 METAR ESMX 102150Z 25007KT CAVOK 05/02 Q1023=
201505102120 METAR ESMX 102120Z 26006KT CAVOK 06/02 Q1023=
201505102050 METAR ESMX 102050Z 25005KT CAVOK 05/03 Q1022=
201505102020 METAR COR ESMX 102020Z 25004KT CAVOK 06/03 Q1022=
201505101950 METAR COR ESMX 101950Z 19004KT CAVOK 07/04 Q1022=
201505101920 METAR ESMX 101920Z 26003KT 9999 FEW038 07/04 Q1021=
201505101850 METAR ESMX 101850Z 27003KT 9999 SCT037 09/04 Q1021=
201505101820 METAR ESMX 101820Z 30006KT 9999 BKN034 09/04 Q1021=
201505101750 METAR ESMX 101750Z 31009KT 9999 FEW028 BKN035 10/05 Q1020=
201505101720 METAR ESMX 101720Z 30012KT 9999 BKN029 09/04 Q1020=
201505101650 METAR ESMX 101650Z 29012KT 9999 BKN021 OVC030 09/05 Q1019=
201505101620 METAR ESMX 101620Z 29011KT 9999 FEW021 SCT026 OVC030 09/05 Q1018=
201505101550 METAR COR ESMX 101550Z 29012KT 9999 FEW022 OVC027 10/06 Q1018=
201505101520 METAR ESMX 101520Z 29012KT 9999 BKN019 09/06 Q1018=
201505101450 METAR ESMX 101450Z 29012KT 9999 FEW015 BKN020 09/06 Q1017=
201505101420 METAR ESMX 101420Z 28012KT 9999 BKN017 09/06 Q1017=
201505101350 METAR ESMX 101350Z 27012KT 9999 FEW015 BKN018 10/06 Q1016=
201505101320 METAR ESMX 101320Z 26013KT 230V320 9999 FEW014 BKN020 11/07 Q1015=
201505101250 METAR ESMX 101250Z 28010KT 9999 VCSH FEW018CB BKN038 11/09 Q1015 RESHRA=
201505101220 METAR ESMX 101220Z 27009KT 9999 VCSH FEW017CB SCT061 12/09 Q1014=
201505101150 METAR ESMX 101150Z 24006KT 210V280 9999 -SHRA FEW017 BKN020CB 11/08 Q1014=
201505101120 METAR ESMX 101120Z 25008KT 220V300 9999 SCT010 BKN015 12/09 Q1013=
201505101050 METAR ESMX 101050Z 23008KT 8000 -DZ BKN006 10/09 Q1014=
201505101020 METAR ESMX 101020Z AUTO 23009KT 9999 FEW009/// BKN014/// OVC022/// 10/08 Q1013=
201505100950 METAR ESMX 100950Z AUTO 22007KT 9999 BKN008/// OVC012/// 10/08 Q1013=
201505100920 METAR ESMX 100920Z AUTO 24006KT 200V260 9999 FEW008/// SCT013/// BKN022/// 10/08 Q1013=
201505100850 METAR ESMX 100850Z AUTO 24007KT 9999 FEW007/// SCT010/// BKN019/// 10/08 Q1012=
201505100820 METAR ESMX 100820Z AUTO 23007KT 8000 -RA FEW008/// SCT009/// BKN012/// 09/08 Q1012 REDZ=
201505100750 METAR ESMX 100750Z AUTO 20006KT 9999 FEW008/// SCT010/// BKN014/// 09/08 Q1012=
201505100720 METAR ESMX 100720Z AUTO 22007KT 9999 FEW008/// SCT010/// BKN013/// 09/08 Q1012 REDZ=
201505100650 METAR ESMX 100650Z AUTO 20006KT 9999 BKN006/// OVC009/// 09/08 Q1011=
201505100620 METAR ESMX 100620Z AUTO 20006KT 9999 -RA BKN005/// OVC007/// 09/08 Q1011 REDZ=
201505100550 METAR ESMX 100550Z AUTO 20006KT 9999 OVC005/// 08/08 Q1011=
201505100520 METAR ESMX 100520Z AUTO 20008KT 9999 -DZ FEW005/// SCT007/// BKN009/// 08/08 Q1011=
201505100450 METAR ESMX 100450Z AUTO 18006KT 9999 -DZ SCT007/// OVC009/// 08/08 Q1011 RESHUP REUP=
201505100420 METAR ESMX 100420Z AUTO 17004KT 8000 -DZ FEW003/// BKN010/// BKN052/// 08/07 Q1011=
201505100350 METAR ESMX 100350Z AUTO 17004KT 5000 BR FEW002/// SCT026/// OVC050/// 08/07 Q1011=
201505100320 METAR ESMX 100320Z AUTO 18004KT 5000 BR SCT002/// BKN025/// OVC057/// 08/07 Q1011=
201505100250 METAR ESMX 100250Z AUTO 19007KT 4700 BR FEW002/// BKN003/// BKN062/// 07/07 Q1011=
201505100220 METAR ESMX 100220Z AUTO 20006KT 6000 BR SCT004/// BKN006/// BKN008/// 07/07 Q1011=
201505100150 METAR ESMX 100150Z AUTO 20009KT 6000 BR FEW004/// BKN006/// OVC008/// 08/08 Q1011=
201505100120 METAR ESMX 100120Z AUTO 19006KT 7000 BR FEW006/// SCT009/// OVC011/// 08/08 Q1011=
201505100050 METAR ESMX 100050Z AUTO 19007KT 6000 BR FEW004/// SCT006/// BKN011/// 09/08 Q1011=
201505100020 METAR ESMX 100020Z AUTO 21006KT 6000 FEW002/// OVC005/// 08/08 Q1011=
201505092350 METAR ESMX 092350Z AUTO 21006KT 2900 BKN001/// OVC003/// 08/08 Q1011=
201505092320 METAR ESMX 092320Z AUTO 17006KT 0600 R01/1400V1700N R19/P2000N FG VV001 08/08 Q1011=
201505092250 METAR ESMX 092250Z AUTO 16006KT 2200 BR OVC001/// 08/08 Q1011=
201505092220 METAR ESMX 092220Z AUTO 15005KT 6000 BR OVC002/// 08/07 Q1011 REUP=
201505092150 METAR ESMX 092150Z AUTO 14006KT 9999 BKN003/// OVC006/// 07/07 Q1011=
201505092120 METAR ESMX 092120Z AUTO 15006KT 120V180 9999 FEW004/// SCT006/// BKN008/// 07/07 Q1012=
201505092050 METAR ESMX 092050Z AUTO 15006KT 8000 RA FEW008/// SCT009/// OVC012/// 07/06 Q1012 REDZ=
201505092020 METAR ESMX 092020Z AUTO 14006KT 100V170 9999 FEW014/// OVC016/// 07/06 Q1012=
201505091950 METAR ESMX 091950Z AUTO 13006KT 080V180 9000 DZ FEW017/// BKN020/// 07/06 Q1012 RESHUP REDZ=
201505091920 METAR ESMX 091920Z AUTO 13006KT 080V160 9999 FEW015/// BKN022/// OVC027/// 07/06 Q1012=
201505091850 METAR ESMX 091850Z AUTO 13005KT 9999 OVC014/// 07/06 Q1013 REDZ=
201505091820 METAR ESMX 091820Z AUTO 14006KT 100V170 6000 DZ FEW009/// SCT017/// BKN019/// 07/06 Q1013=
201505091750 METAR ESMX 091750Z AUTO 13005KT 080V190 9999 DZ FEW014/// BKN029/// 07/06 Q1013=
201505091720 METAR ESMX 091720Z AUTO 12004KT 080V180 9999 -RA FEW033/// BKN047/// 07/06 Q1013=
201505091650 METAR ESMX 091650Z AUTO 11005KT 070V150 9999 RA FEW056/// 08/05 Q1013=
201505091620 METAR ESMX 091620Z AUTO 14008KT 110V190 9999 -RA FEW043/// 09/05 Q1013 REDZ=
201505091550 METAR ESMX 091550Z AUTO 14008KT 080V170 9999 BKN042/// OVC077/// 12/02 Q1014=
201505091520 METAR ESMX 091520Z AUTO 13008KT 100V170 9999 BKN048/// 12/02 Q1014=
201505091450 METAR ESMX 091450Z AUTO 14007KT 100V170 9999 BKN049/// 12/02 Q1014=
201505091420 METAR ESMX 091420Z AUTO 13008KT 090V170 9999 SCT053/// BKN069/// 12/02 Q1014=
201505091350 METAR ESMX 091350Z AUTO 14007KT 9999 BKN051/// 12/01 Q1014=
201505091320 METAR ESMX 091320Z AUTO 14008KT 100V170 9999 OVC055/// 12/02 Q1015=
201505091250 METAR ESMX 091250Z AUTO 16007KT 9999 OVC059/// 12/01 Q1015=
201505091220 METAR ESMX 091220Z AUTO 16008KT 9999 BKN064/// 12/01 Q1016=
201505091150 METAR ESMX 091150Z AUTO 16009KT 9999 BKN072/// 12/01 Q1016=
201505091120 METAR ESMX 091120Z AUTO 16008KT 9999 BKN079/// 12/01 Q1016=
201505091050 METAR ESMX 091050Z AUTO 14007KT 100V190 9999 BKN085/// 12/01 Q1016=
201505091020 METAR ESMX 091020Z AUTO 16009KT 110V200 9999 FEW022/// 13/01 Q1016=
201505090950 METAR ESMX 090950Z AUTO 14008KT 090V190 9999 FEW058/// 12/01 Q1017=
201505090920 METAR ESMX 090920Z AUTO 14006KT 060V190 9999 NCD 12/00 Q1017=
201505090850 METAR ESMX 090850Z AUTO VRB05KT 010V200 9999 NCD 11/01 Q1018=
201505090820 METAR ESMX 090820Z 16005KT 100V200 CAVOK 10/01 Q1018=
201505090750 METAR ESMX 090750Z 14005KT 110V200 CAVOK 10/01 Q1018=
201505090720 METAR ESMX 090720Z 16004KT 110V210 CAVOK 09/02 Q1018=
201505090650 METAR ESMX 090650Z 18005KT 150V250 CAVOK 08/02 Q1018=
201505090620 METAR ESMX 090620Z 20004KT 150V220 CAVOK 07/02 Q1018=
201505090550 METAR ESMX 090550Z 17003KT CAVOK 07/02 Q1018=
201505090520 METAR ESMX 090520Z AUTO 21004KT 9999 NCD 05/03 Q1018=
201505090450 METAR ESMX 090450Z AUTO 18004KT 9999 NCD 04/03 Q1018=
201505090420 METAR ESMX 090420Z AUTO 18003KT 9999 NCD 00/00 Q1018=
201505090350 METAR ESMX 090350Z AUTO 20003KT 9999 NCD M01/M01 Q1018=
201505090320 METAR ESMX 090320Z AUTO 19003KT 9999 NCD M01/M01 Q1018=
201505090250 METAR ESMX 090250Z AUTO 18003KT 4800 BR NCD M01/M01 Q1018=
201505090220 METAR ESMX 090220Z AUTO 17004KT 9999 NCD 00/M00 Q1018=
201505090150 METAR ESMX 090150Z AUTO 16003KT 9999 NCD M00/M00 Q1018=
201505090120 METAR ESMX 090120Z AUTO 16003KT 9999 NCD 00/M00 Q1018=
201505090050 METAR ESMX 090050Z AUTO 19004KT 9999 NCD 01/M00 Q1018=
201505090020 METAR ESMX 090020Z AUTO VRB02KT 9999 NCD M00/M01 Q1017=
201505082350 METAR ESMX 082350Z AUTO 27003KT 9999 NCD 01/01 Q1018=
201505082320 METAR ESMX 082320Z AUTO 28003KT 9999 NCD 02/01 Q1018=
201505082250 METAR ESMX 082250Z AUTO 24004KT 9999 NCD 03/01 Q1018=
201505082220 METAR ESMX 082220Z AUTO 23005KT 9999 NCD 03/01 Q1018=
201505082150 METAR ESMX 082150Z AUTO 21004KT 9999 NCD 03/01 Q1018=
201505082120 METAR ESMX 082120Z AUTO 22004KT 9999 NCD 04/01 Q1017=
201505082050 METAR ESMX 082050Z AUTO 23006KT 9999 NCD 04/01 Q1017=
201505082020 METAR ESMX 082020Z AUTO 23006KT 9999 NCD 05/01 Q1017=
201505081950 METAR ESMX 081950Z AUTO 23007KT 9999 NCD 06/01 Q1017=
201505081920 METAR ESMX 081920Z AUTO 23007KT 9999 NCD 06/01 Q1017=
201505081850 METAR ESMX 081850Z AUTO 25008KT 9999 NCD 07/00 Q1017=
201505081820 METAR ESMX 081820Z AUTO 26009KT 9999 NCD 08/M00 Q1016=
201505081750 METAR ESMX 081750Z AUTO 26012KT 9999 NCD 09/M01 Q1016=
201505081720 METAR ESMX 081720Z 26013KT CAVOK 09/M01 Q1016=
201505081650 METAR ESMX 081650Z 27012KT 230V300 9999 FEW048 10/M01 Q1016=
201505081620 METAR ESMX 081620Z 27013KT 9999 SCT046 10/M01 Q1016=
201505081550 METAR ESMX 081550Z 27013KT 240V300 9999 SCT049 11/M01 Q1016=
201505081520 METAR ESMX 081520Z 26012G24KT 230V310 9999 SCT053 10/M01 Q1016=
201505081450 METAR ESMX 081450Z 25013KT 210V280 9999 BKN045 11/M00 Q1016=
201505081420 METAR ESMX 081420Z 25016KT 9999 BKN047 11/M01 Q1016=
201505081350 METAR ESMX 081350Z 26015G26KT 230V310 9999 FEW048CB BKN054 11/M01 Q1016=
201505081320 METAR ESMX 081320Z 27013KT 230V290 9999 BKN047 10/M01 Q1016=
201505081250 METAR ESMX 081250Z 27013KT 230V300 9999 FEW045CB BKN052 11/M01 Q1016=
201505081220 METAR ESMX 081220Z 25014KT 220V290 9999 FEW045CB BKN054 10/M01 Q1016=
201505081150 METAR COR ESMX 081150Z 24013KT 9999 FEW040CB BKN050 11/01 Q1015=
201505081120 METAR ESMX 081120Z 26013KT 9999 FEW035CB SCT050 10/M01 Q1015=
201505081050 METAR ESMX 081050Z 26013KT 230V290 9999 FEW041CB BKN046 10/M01 Q1015=
201505081020 METAR ESMX 081020Z 27013KT 9999 FEW041CB BKN055 09/00 Q1015=
201505080950 METAR ESMX 080950Z 24012KT 200V280 9999 FEW035CB SCT040 11/01 Q1015=
201505080920 METAR ESMX 080920Z 27013KT 9999 FEW035CB SCT050 10/01 Q1015=
201505080850 METAR ESMX 080850Z 23013KT 9999 FEW030CB SCT040 10/02 Q1015=
201505080820 METAR ESMX 080820Z 24011KT 200V270 9999 FEW025CB SCT035 09/03 Q1015=
201505080750 METAR ESMX 080750Z 28011KT 9999 FEW020CB SCT040 08/02 Q1015=
201505080720 METAR ESMX 080720Z 25011KT 210V290 9999 FEW024 SCT030 BKN045 07/02 Q1015=
201505080650 METAR ESMX 080650Z 26009KT 220V290 9999 BKN025 07/02 Q1015=
201505080620 METAR COR ESMX 080620Z 26013KT 230V290 9999 SCT020 07/02 Q1015=
201505080550 METAR ESMX 080550Z 24009KT 9999 FEW015 06/03 Q1015=
201505080520 METAR ESMX 080520Z 25006KT CAVOK 05/03 Q1015=
201505080450 METAR ESMX 080450Z 23008KT CAVOK 05/03 Q1014=
201505080420 METAR ESMX 080420Z 23007KT 9999 FEW045 04/03 Q1014=
201505080350 METAR ESMX 080350Z AUTO 22005KT 9999 NCD 03/03 Q1014=
201505080320 METAR ESMX 080320Z AUTO 21006KT 9999 NCD 03/02 Q1014=
201505080250 METAR ESMX 080250Z AUTO 24007KT 9999 FEW018/// SCT027/// 05/03 Q1014 RESHUP REDZ=
201505080220 METAR ESMX 080220Z AUTO 21006KT 9999 FEW026/// SCT031/// BKN039/// 05/04 Q1014 REDZ=
201505080150 METAR ESMX 080150Z AUTO 22007KT 9999 -RA FEW021/// SCT031/// BKN036/// 05/04 Q1014 REUP REDZ=
201505080120 METAR ESMX 080120Z AUTO 22007KT 9999 FEW028/// BKN051/// 05/03 Q1013=
201505080050 METAR ESMX 080050Z AUTO 21007KT 9999 FEW036/// SCT051/// 04/03 Q1013=
201505080020 METAR ESMX 080020Z AUTO 22006KT 9999 FEW037/// BKN051/// 05/03 Q1013=
201505072350 METAR ESMX 072350Z 22008KT 9999 SCT044 05/03 Q1013=
201505072320 METAR ESMX 072320Z 20007KT 9999 SCT045 05/03 Q1013=
201505072250 METAR ESMX 072250Z 22006KT CAVOK 04/02 Q1013=
201505072220 METAR ESMX 072220Z 22006KT CAVOK 04/02 Q1013=
201505072150 METAR ESMX 072150Z 22006KT CAVOK 05/02 Q1013=
201505072120 METAR COR ESMX 072120Z 22007KT CAVOK 05/03 Q1013=
201505072050 METAR ESMX 072050Z 23008KT 9999 FEW030 06/03 Q1013=
201505072020 METAR ESMX 072020Z 24007KT 9999 FEW023 07/04 Q1012=
201505071950 METAR ESMX 071950Z 24008KT 9999 FEW028 07/04 Q1012=
201505071920 METAR ESMX 071920Z 24008KT 9999 FEW027 07/04 Q1012=
201505071850 METAR ESMX 071850Z 23009KT 9999 FEW027 08/04 Q1012=
201505071820 METAR ESMX 071820Z 24008KT 9999 FEW028 08/04 Q1011=
201505071750 METAR ESMX 071750Z 26013KT 230V290 9999 VCSH FEW020CB SCT035 09/05 Q1011=
201505071720 METAR ESMX 071720Z 24010KT 9999 VCSH FEW027CB SCT035 10/04 Q1010=
201505071650 METAR ESMX 071650Z 25010KT 210V300 9999 FEW026TCU BKN035 10/04 Q1010=
201505071620 METAR ESMX 071620Z 25012KT 9999 FEW025CB SCT035 10/05 Q1010=
201505071550 METAR ESMX 071550Z 25014KT 9999 FEW018CB SCT035 10/05 Q1009=
201505071520 METAR ESMX 071520Z 24014KT 9999 FEW015 SCT025CB 10/06 Q1009=
201505071450 METAR ESMX 071450Z 26014KT 220V290 9999 FEW017 SCT025CB BKN035 10/06 Q1009=
201505071420 METAR ESMX 071420Z 25013KT 220V290 9999 FEW015 FEW020CB SCT040 12/07 Q1008=
201505071350 METAR ESMX 071350Z 24011KT 9999 -SHRA FEW014 SCT025CB BKN054 11/07 Q1008 RERA=
201505071320 METAR COR ESMX 071320Z 23012KT 200V260 9999 FEW015 SCT025CB BKN050 12/08 Q1008 RERA=
201505071250 METAR ESMX 071250Z 20011KT 9999 FEW020 SCT025CB BKN040 11/09 Q1008=
201505071220 METAR ESMX 071220Z 20012KT 9999 FEW023CB BKN044 BKN052 11/09 Q1008=
201505071150 METAR ESMX 071150Z 22010KT 9999 VCSH FEW026CB SCT043 09/08 Q1008 RESHRA=
201505071120 METAR ESMX 071120Z 25010KT 220V290 9999 -SHRA FEW007 SCT024CB BKN089 10/08 Q1007=
201505071050 METAR ESMX 071050Z 23013KT 9999 -SHRA FEW015 BKN025CB 12/08 Q1007 RERA=
201505071020 METAR ESMX 071020Z 21012KT 190V260 6000 -SHRA FEW015 BKN025CB 11/09 Q1007 RERA=
201505070950 METAR COR ESMX 070950Z 19015KT 9999 -SHRA FEW021 SCT026CB BKN031 12/07 Q1007=
201505070920 METAR ESMX 070920Z 18016KT 9999 FEW017 SCT022 BKN026 12/07 Q1007=
201505070850 METAR ESMX 070850Z 18011KT 9999 FEW017 SCT056 11/08 Q1007=
201505070820 METAR ESMX 070820Z 18011KT 9999 -SHRA FEW015 BKN021CB 10/08 Q1007=
201505070750 METAR ESMX 070750Z 19013KT 9999 -DZ FEW019 BKN021 10/07 Q1007=
201505070720 METAR ESMX 070720Z 19015KT 9999 FEW018 BKN037 11/07 Q1007=
201505070650 METAR ESMX 070650Z 18014KT 9999 FEW017 SCT042 11/07 Q1007=
201505070620 METAR ESMX 070620Z 17012KT 9999 FEW043 10/07 Q1007=
201505070550 METAR ESMX 070550Z 17011KT CAVOK 09/07 Q1007=
201505070520 METAR ESMX 070520Z 17009KT 140V200 CAVOK 09/07 Q1007=
201505070450 METAR ESMX 070450Z 16009KT CAVOK 08/06 Q1007=
201505070420 METAR ESMX 070420Z 15007KT CAVOK 08/07 Q1007=
201505070350 METAR ESMX 070350Z 15007KT 9999 FEW047 BKN058 07/07 Q1007=
201505070320 METAR ESMX 070320Z AUTO 14007KT 9999 FEW047/// SCT074/// 07/06 Q1007=
201505070250 METAR ESMX 070250Z AUTO 14007KT 9999 NCD 07/06 Q1007=
201505070220 METAR ESMX 070220Z AUTO 14007KT 9999 NCD 07/06 Q1007=
201505070150 METAR ESMX 070150Z AUTO 15005KT 9999 FEW052/// 07/06 Q1007=
201505070120 METAR ESMX 070120Z AUTO 15005KT 9999 NCD 07/06 Q1008=
201505070050 METAR ESMX 070050Z AUTO 14006KT 9999 FEW048/// 07/06 Q1008=
201505070020 METAR ESMX 070020Z AUTO 14005KT 9999 FEW047/// BKN057/// OVC071/// 07/07 Q1008 RESHUP REUP=
201505062350 METAR ESMX 062350Z 12003KT CAVOK 06/06 Q1008=
201505062320 METAR ESMX 062320Z 11001KT CAVOK 07/06 Q1009=
201505062250 METAR ESMX 062250Z 19004KT 160V230 9999 -RA FEW037 08/06 Q1009=
201505062220 METAR ESMX 062220Z 24013KT 9999 RA FEW019 SCT067 08/06 Q1010=
201505062150 METAR ESMX 062150Z AUTO 11004KT 9999 NCD 07/06 Q1009=
201505062121 METAR ESMX 062121Z 11004KT CAVOK 08/06 Q1009=
201505062050 METAR ESMX 062050Z 27008KT 230V300 9999 -RA FEW023 SCT027 BKN032 10/07 Q1009=
201505062020 METAR ESMX 062020Z 24005KT 180V280 9999 SCT025 BKN100 09/07 Q1009=
201505061950 METAR ESMX 061950Z 00000KT 9999 FEW031 BKN094 09/06 Q1009=
201505061920 METAR ESMX 061920Z VRB03KT 9999 SCT028 BKN052CB BKN077 11/07 Q1009=
201505061850 METAR ESMX 061850Z 24002KT CAVOK 11/07 Q1009=
201505061820 METAR ESMX 061820Z 17007KT CAVOK 12/07 Q1008=
201505061754 METAR ESMX 061754Z 17008KT CAVOK 13/06 Q1008=
201505061750 METAR ESMX 061750Z AUTO 17009KT 9999 FEW100/// 13/06 Q1008=
201505061720 METAR ESMX 061720Z 17009KT 9999 FEW046 SCT055CB BKN068 14/07 Q1008=
201505061650 METAR ESMX 061650Z 18008KT 9999 -SHRA SCT045CB 14/07 Q1008=
201505061620 METAR COR ESMX 061620Z 29009KT 250V320 9999 VCSH SCT048CB 15/05 Q1008=
201505061550 METAR ESMX 061550Z 30003KT 9999 FEW048TCU SCT053 15/07 Q1008=
201505061520 METAR ESMX 061520Z 30003KT 260V340 9999 FEW047TCU BKN062 15/06 Q1008=
201505061450 METAR ESMX 061450Z 26004KT 200V290 9999 FEW051TCU BKN077 16/06 Q1008=
201505061420 METAR ESMX 061420Z 25007KT 200V280 9999 FEW055TCU BKN083 17/06 Q1008=
201505061350 METAR COR ESMX 061350Z 25006KT 9999 FEW056TCU BKN074 15/06 Q1008=
201505061320 METAR ESMX 061320Z 27008KT 240V300 9999 FEW040TCU BKN083 16/06 Q1008=
201505061250 METAR ESMX 061250Z 23005KT 9999 BKN047 16/05 Q1008=
201505061220 METAR ESMX 061220Z 24009KT 9999 BKN047 16/05 Q1008=
201505061150 METAR ESMX 061150Z 21012KT 180V250 9999 SCT045 16/06 Q1008=
201505061120 METAR ESMX 061120Z 22011KT 200V260 9999 FEW040 SCT055 16/05 Q1008=
201505061050 METAR ESMX 061050Z 25010KT 220V290 9999 FEW040 BKN045 14/05 Q1008=
201505061020 METAR ESMX 061020Z 24011KT 210V280 9999 FEW035 BKN045 14/06 Q1008=
201505060950 METAR ESMX 060950Z 24010KT 200V260 9999 FEW033TCU SCT042 14/07 Q1008=
201505060920 METAR ESMX 060920Z 20012KT 170V250 9999 FEW020 SCT025TCU 14/08 Q1008=
201505060850 METAR ESMX 060850Z 23012KT 200V260 9999 FEW020 BKN023 14/08 Q1007=
201505060820 METAR ESMX 060820Z 24009KT 9999 FEW017 BKN020 13/09 Q1007=
201505060750 METAR ESMX 060750Z 23011KT 9999 BKN013 12/09 Q1007=
201505060720 METAR ESMX 060720Z 23011KT 9999 BKN012 11/09 Q1007=
201505060650 METAR ESMX 060650Z 23012KT 9999 BKN010 11/09 Q1007=
201505060620 METAR ESMX 060620Z 24010KT 9999 BKN010 11/08 Q1006=
201505060550 METAR ESMX 060550Z 23009KT 9999 SCT009 10/08 Q1006=
201505060520 METAR ESMX 060520Z 24007KT 210V270 9999 BKN008 10/08 Q1006=
201505060450 METAR ESMX 060450Z 24007KT 9999 BKN009 09/08 Q1006=
201505060420 METAR ESMX 060420Z AUTO 24009KT 200V260 9999 FEW008/// BKN010/// 09/08 Q1005=
201505060350 METAR ESMX 060350Z 24012KT 9999 FEW008 SCT009 BKN011 09/08 Q1005=
201505060320 METAR ESMX 060320Z AUTO 25011KT 9999 FEW009/// BKN011/// 09/08 Q1005=
201505060250 METAR ESMX 060250Z AUTO 25011KT 9999 FEW011/// SCT014/// BKN016/// 10/09 Q1004=
201505060220 METAR ESMX 060220Z AUTO 26011KT 9999 FEW016/// OVC077/// 10/08 Q1004=
201505060150 METAR ESMX 060150Z AUTO 25013KT 9999 FEW007/// BKN010/// OVC025/// 11/10 Q1004=
201505060120 METAR ESMX 060120Z AUTO 25015KT 9999 FEW007/// SCT009/// BKN011/// 12/11 Q1003=
201505060050 METAR ESMX 060050Z AUTO 25013KT 9999 FEW007/// SCT008/// BKN009/// 13/12 Q1002=
201505060020 METAR ESMX 060020Z AUTO 25011KT 8000 BR FEW004/// SCT006/// BKN008/// 13/13 Q1001=
201505052350 METAR ESMX 052350Z AUTO 23010KT 9999 FEW003/// OVC005/// 13/13 Q1001=
201505052320 METAR ESMX 052320Z 21007KT 6000 BR BKN002 OVC005 13/13 Q1001=
201505052257 METAR ESMX 052257Z 18007KT 3600 DZ BKN002 OVC005 13/12 Q1001 RERA=
201505052250 METAR ESMX 052250Z AUTO 18007KT 3700 DZ BKN002/// OVC005/// 13/12 Q1001 RERA=
201505052220 METAR ESMX 052220Z 17007KT 5000 -DZ FEW001 OVC003 12/12 Q1001=
201505052150 METAR ESMX 052150Z AUTO 23004KT 150V280 2700 -RA OVC001/// 12/12 Q1001=
201505052120 METAR ESMX 052120Z 14005KT 110V170 0900 R01/P2000N R19/P2000N FG VV001 12/12 Q1000=
201505052050 METAR ESMX 052050Z 13006KT 100V170 0300 R01/0900V1000N R19/1200V1500U FG VV001 12/12 Q1001=
201505052020 METAR ESMX 052020Z 13006KT 110V170 0400 R01/1000V1300N R19/1400V1900N FG VV001 13/12 Q1001=
201505051950 METAR ESMX 051950Z 15007KT 110V170 0900 R01/P2000N R19/P2000N FG OVC001 12/12 Q1001=
201505051920 METAR ESMX 051920Z 15007KT 120V180 6000 BR OVC001 12/12 Q1002=
201505051850 METAR ESMX 051850Z 15008KT 5000 BR OVC002 12/12 Q1002=
201505051820 METAR ESMX 051820Z 14009KT 110V170 9999 BKN004 12/12 Q1002 RERA=
201505051750 METAR ESMX 051750Z 12007KT 100V170 9999 OVC005 12/12 Q1001=
201505051720 METAR ESMX 051720Z 13009KT 100V160 9999 -RA FEW006 BKN008 BKN028 12/11 Q1002=
201505051650 METAR ESMX 051650Z 14007KT 050V180 6000 RA SCT003 OVC005 12/11 Q1002=
201505051620 METAR ESMX 051620Z 13007KT 080V180 7000 RA FEW007 SCT009 BKN010 12/11 Q1003=
201505051550 METAR ESMX 051550Z 13008KT 090V160 9000 -RA FEW009 SCT012 BKN048 12/11 Q1003 REDZ=
201505051520 METAR ESMX 051520Z 13009KT 060V170 8000 DZ FEW015 SCT036 OVC051 12/10 Q1003=
201505051450 METAR ESMX 051450Z 13008KT 070V170 9999 -RA FEW031 SCT036 BKN058 12/10 Q1004=
201505051420 METAR ESMX 051420Z 12009KT 070V160 9999 -RA FEW021 SCT057 BKN078 12/10 Q1004=
201505051350 METAR COR ESMX 051350Z 12008KT 080V160 9999 -RA FEW040 SCT048 BKN075 12/10 Q1005=
201505051320 METAR ESMX 051320Z 12008KT 080V180 9999 -RA FEW027 SCT039 BKN084 12/11 Q1005=
201505051250 METAR ESMX 051250Z 12008G19KT 070V180 9999 RA FEW037 SCT042 BKN075 13/10 Q1005=
201505051220 METAR ESMX 051220Z 12010KT 070V170 9999 SCT044 BKN066 14/10 Q1006=
201505051150 METAR ESMX 051150Z 12010KT 070V160 9999 FEW025 BKN048 14/10 Q1006=
201505051120 METAR ESMX 051120Z 12009KT 080V150 CAVOK 15/09 Q1006=
201505051050 METAR ESMX 051050Z 12007KT 080V170 CAVOK 15/09 Q1007=
201505051020 METAR ESMX 051020Z 11009KT 070V150 9999 FEW023 SCT048 15/10 Q1007=
201505050950 METAR ESMX 050950Z 13008KT 080V170 9999 FEW013 SCT040 BKN058 14/10 Q1008=
201505050920 METAR ESMX 050920Z 13008KT 030V170 9999 BKN012 14/10 Q1008=
201505050850 METAR ESMX 050850Z AUTO 13008KT 090V170 9999 FEW009/// BKN011/// BKN016/// 13/10 Q1008=
201505050820 METAR ESMX 050820Z AUTO 13008KT 100V170 9999 BKN008/// OVC011/// 12/11 Q1009=
201505050750 METAR ESMX 050750Z 14007KT 110V170 9999 BKN008 12/11 Q1009=
201505050720 METAR ESMX 050720Z 14007KT 100V170 9999 BKN007 11/10 Q1009=
201505050650 METAR ESMX 050650Z 14006KT 100V170 9000 BR FEW004 BKN006 11/11 Q1009=
201505050620 METAR ESMX 050620Z 14006KT 100V170 6000 BR BKN003 11/11 Q1009=
201505050550 METAR COR ESMX 050550Z 13005KT 100V170 1500 R01/P2000N R19/P2000N BR OVC002 10/10 Q1009=
201505050520 METAR ESMX 050520Z 14004KT 080V170 0300 R01/0550N R19/0750N FG VV002 10/10 Q1010=
201505050450 METAR ESMX 050450Z 13004KT 070V170 0250 R01/0500V0600N R19/0500N FG VV000 10/10 Q1010=
201505050420 METAR ESMX 050420Z 14004KT 100V170 0150 R01/0325N R19/0450N FG VV001 10/10 Q1010=
201505050350 METAR ESMX 050350Z 12003KT 080V160 0350 R01/0550N R19/P2000D FG OVC001 10/10 Q1009=
201505050320 METAR ESMX 050320Z AUTO 15003KT 1700 OVC000/// 10/10 Q1009=
201505050250 METAR ESMX 050250Z AUTO 12003KT 0750 R01/P2000N R19/1000VP2000N BKN013/// 09/09 Q1009=
201505050220 METAR ESMX 050220Z AUTO 12004KT 0300 R01/P2000N R19/0800V1100U SCT012/// BKN058/// 10/09 Q1009=
201505050150 METAR ESMX 050150Z AUTO 12003KT 2600 BR FEW004/// SCT007/// OVC010/// 10/10 Q1010=
201505050120 METAR ESMX 050120Z AUTO 16002KT 2500 BR SCT007/// BKN010/// OVC015/// 10/10 Q1010=
201505050050 METAR ESMX 050050Z AUTO 19003KT 3500 BR FEW005/// BKN007/// OVC010/// 10/10 Q1010=
201505050020 METAR ESMX 050020Z AUTO 14003KT 4100 BR OVC006/// 11/10 Q1009=
201505042350 METAR ESMX 042350Z VRB02KT 6000 BR FEW004 BKN006 OVC008 11/10 Q1009=
201505042320 METAR ESMX 042320Z 24005KT 7000 BR OVC004 11/10 Q1009=
201505042250 METAR ESMX 042250Z 20003KT 5000 BR OVC005 11/10 Q1009=
201505042220 METAR ESMX 042220Z VRB03KT 6000 BR FEW004 BKN005 OVC007 11/10 Q1009=
201505042150 METAR ESMX 042150Z 22004KT 5000 BR FEW008 OVC012 11/10 Q1009=
201505042120 METAR ESMX 042120Z 21004KT 7000 BR FEW010 OVC013 11/11 Q1009=
201505042052 METAR ESMX 042052Z 20005KT 4600 BR FEW006 SCT012 BKN014 11/11 Q1009=
201505042020 METAR ESMX 042020Z 18005KT 3300 BR FEW008 SCT021 OVC025 11/11 Q1009=
201505041950 METAR ESMX 041950Z 19004KT 3400 BR FEW006 SCT009 BKN013 11/11 Q1008=
201505041920 METAR ESMX 041920Z AUTO 21004KT 3400 BR FEW008/// SCT014/// BKN018/// 11/11 Q1008=
201505041850 METAR ESMX 041850Z 21004KT 4700 BR FEW008 SCT010 BKN013 11/11 Q1008=
201505041820 METAR ESMX 041820Z 20004KT 4300 BR FEW007 OVC019 11/11 Q1008=
201505041750 METAR ESMX 041750Z 22005KT 5000 BR FEW003 SCT005 BKN009 11/11 Q1007=
201505041720 METAR ESMX 041720Z 21005KT 5000 BR FEW003 BKN005 OVC007 11/11 Q1007 REDZ=
201505041650 METAR ESMX 041650Z 20006KT 3600 BR BKN003 11/11 Q1007=
201505041620 METAR ESMX 041620Z 19007KT 5000 BR BKN003 11/11 Q1006=
201505041550 METAR ESMX 041550Z 19006KT 4300 -RA BKN003 11/10 Q1006=
201505041520 METAR ESMX 041520Z 16005KT 140V200 7000 BR OVC003 10/10 Q1006 RERA=
201505041450 METAR ESMX 041450Z 16005KT 140V200 4400 RA OVC002 10/09 Q1006=
201505041420 METAR ESMX 041420Z 18005KT 140V210 7000 -RA OVC003 10/09 Q1006=
201505041350 METAR ESMX 041350Z 20007KT 9000 BR OVC003 10/09 Q1005=
201505041320 METAR ESMX 041320Z 17005KT 9999 OVC003 09/08 Q1005=
201505041250 METAR ESMX 041250Z 15005KT 6000 BR OVC003 09/08 Q1005=
201505041220 METAR ESMX 041220Z 16006KT 4200 -DZ OVC003 08/08 Q1005=
201505041150 METAR ESMX 041150Z 17006KT 9000 BR OVC004 08/08 Q1004=
201505041120 METAR ESMX 041120Z 15007KT 120V190 4900 BR FEW003 OVC004 08/08 Q1004 REDZ=
201505041050 METAR ESMX 041050Z 15007KT 9000 BR OVC004 08/07 Q1004=
201505041020 METAR ESMX 041020Z 14007KT 080V190 9000 OVC005 08/07 Q1004 REDZ=
201505040950 METAR ESMX 040950Z 13008KT 100V170 9999 -DZ BKN005 08/07 Q1004=
201505040920 METAR ESMX 040920Z 14007KT 110V170 9999 -DZ BKN004 08/07 Q1004=
201505040850 METAR ESMX 040850Z 12006KT 060V160 9999 -DZ BKN005 08/07 Q1004=
201505040820 METAR ESMX 040820Z 11005KT 030V150 9999 -RA BKN005 07/07 Q1004=
201505040750 METAR ESMX 040750Z 11006KT 030V160 9999 -RA BKN005 07/06 Q1004=
201505040720 METAR ESMX 040720Z 11007KT 060V150 9999 -RA BKN006 07/06 Q1004=
201505040650 METAR ESMX 040650Z 10007KT 060V150 9999 RA SCT006 BKN023 06/06 Q1004=
201505040620 METAR ESMX 040620Z 11006KT 050V170 9999 RA SCT009 BKN040 06/05 Q1005=
201505040550 METAR ESMX 040550Z 10006KT 060V140 9999 RA FEW009 SCT045 06/05 Q1005=
201505040520 METAR ESMX 040520Z 10008KT 060V150 9999 RA SCT045 06/05 Q1005=
201505040450 METAR ESMX 040450Z 09006KT 050V140 9999 -RA SCT038 06/05 Q1005=
201505040420 METAR ESMX 040420Z 10007KT 060V150 8000 RA FEW028 SCT041 06/05 Q1006=
201505040350 METAR ESMX 040350Z 12006KT 080V160 9999 -RA FEW009 SCT045 06/04 Q1006=
201505040320 METAR ESMX 040320Z AUTO 11006KT 070V160 9999 -RA FEW012/// SCT049/// 07/03 Q1006=
201505040250 METAR ESMX 040250Z AUTO 11007KT 020V160 9999 -DZ FEW060/// 07/02 Q1006 REUP=
201505040220 METAR ESMX 040220Z AUTO 10008KT 050V160 9999 NCD 07/02 Q1007=
201505040150 METAR ESMX 040150Z AUTO 11007KT 030V160 9999 SCT071/// BKN085/// 07/02 Q1007=
201505040120 METAR ESMX 040120Z AUTO 10007KT 020V160 9999 NCD 07/02 Q1007=
201505040050 METAR ESMX 040050Z AUTO 10005KT 010V180 9999 NCD 07/02 Q1008=
201505040020 METAR ESMX 040020Z AUTO 11006KT 050V160 9999 NCD 06/02 Q1008=
201505032350 METAR ESMX 032350Z AUTO 10006KT 070V140 9999 NCD 06/02 Q1009=
201505032320 METAR ESMX 032320Z AUTO 11006KT 070V180 9999 NCD 06/03 Q1009=
201505032250 METAR ESMX 032250Z AUTO 11006KT 050V180 9999 NCD 06/03 Q1010=
201505032220 METAR ESMX 032220Z 12006KT 050V150 CAVOK 06/03 Q1010=
201505032150 METAR ESMX 032150Z 13006KT 080V160 CAVOK 06/01 Q1011=
201505032120 METAR ESMX 032120Z 12005KT 080V160 CAVOK 06/M01 Q1011=
201505032050 METAR ESMX 032050Z 12005KT 060V170 CAVOK 07/M02 Q1011=
201505032020 METAR ESMX 032020Z AUTO 11004KT 060V150 9999 NCD 07/M03 Q1011=
201505031950 METAR ESMX 031950Z 14005KT 080V170 CAVOK 08/M03 Q1011=
201505031920 METAR ESMX 031920Z 14005KT 110V180 CAVOK 08/M03 Q1011=
201505031850 METAR ESMX 031850Z 15006KT CAVOK 09/M04 Q1011=
201505031820 METAR ESMX 031820Z 15008KT 100V200 CAVOK 10/M04 Q1011=
201505031750 METAR ESMX 031750Z 16010KT CAVOK 10/M03 Q1011=
201505031720 METAR ESMX 031720Z 18009KT CAVOK 11/M03 Q1011=
201505031650 METAR ESMX 031650Z 17010KT 140V200 CAVOK 12/M03 Q1011=
201505031621 METAR ESMX 031621Z 15010KT CAVOK 13/M03 Q1011=
201505031550 METAR ESMX 031550Z 16008KT 130V200 CAVOK 13/00 Q1011=
201505031520 METAR ESMX 031520Z 16008KT 120V200 CAVOK 14/M01 Q1011=
201505031450 METAR ESMX 031450Z 16007KT 120V200 CAVOK 14/M01 Q1011=
201505031420 METAR ESMX 031420Z 16007KT 110V200 9999 FEW040 SCT060 14/M02 Q1011=
201505031350 METAR ESMX 031350Z 15008KT 100V190 CAVOK 14/M02 Q1012=
201505031320 METAR ESMX 031320Z 15005KT 090V210 CAVOK 14/M00 Q1012=
201505031250 METAR ESMX 031250Z VRB05KT 360V360 CAVOK 14/00 Q1012=
201505031220 METAR ESMX 031220Z 18006KT 120V200 CAVOK 12/M01 Q1012=
201505031150 METAR COR ESMX 031150Z VRB04KT 360V360 9999 FEW040TCU SCT070 13/01 Q1013=
201505031120 METAR ESMX 031120Z 18005KT 140V230 9999 FEW040TCU SCT070 13/01 Q1013=
201505031050 METAR ESMX 031050Z 17005KT 140V210 9999 FEW040TCU SCT050 12/00 Q1013=
201505031020 METAR ESMX 031020Z AUTO 18006KT 9999 FEW040/// SCT047/// BKN053/// 12/00 Q1013=
201505030950 METAR ESMX 030950Z AUTO 32003KT 250V010 9999 FEW042/// OVC052/// 11/02 Q1013=
201505030920 METAR ESMX 030920Z AUTO 28006KT 9999 OVC053/// 11/04 Q1013=
201505030850 METAR ESMX 030850Z AUTO 11003KT 030V150 9999 FEW032/// SCT052/// BKN062/// 11/03 Q1013=
201505030820 METAR ESMX 030820Z AUTO 10004KT 050V200 9999 NCD 10/03 Q1013=
201505030750 METAR ESMX 030750Z AUTO 11004KT 060V160 9999 NCD 10/05 Q1013=
201505030720 METAR ESMX 030720Z AUTO 14003KT 9999 SCT000/// BKN050/// 09/05 Q1013=
201505030650 METAR ESMX 030650Z AUTO VRB02KT 9999 VV000 07/07 Q1013=
201505030620 METAR ESMX 030620Z AUTO 00000KT 0300 R01/0500N R19/P2000N FG VV001 05/05 Q1013=
201505030550 METAR ESMX 030550Z AUTO 00000KT 0150 R01/0300N R19/0350N FG VV001 04/04 Q1013=
201505030520 METAR ESMX 030520Z AUTO VRB02KT 0100 R01/0150V0300N R19/0450N FG VV000 04/04 Q1013=
201505030450 METAR ESMX 030450Z AUTO 00000KT 0050 R01/0250N R19/0125N FG VV000 01/01 Q1012=
201505030420 METAR ESMX 030420Z AUTO 00000KT 0050 R01/0125N R19/0125N FG VV000 00/00 Q1012=
201505030350 METAR ESMX 030350Z AUTO 00000KT 0050 R01/0275N R19/0125V0275N BCFG VV000 00/M00 Q1012=
201505030320 METAR ESMX 030320Z AUTO VRB02KT 0150 R01/0300VP2000N R19/0350V0650U BCFG VV001 M02/M02 Q1012=
201505030250 METAR ESMX 030250Z AUTO 00000KT 0750 R01/P2000N R19/P2000N BCFG FEW028/// M01/M01 Q1012=
201505030220 METAR ESMX 030220Z AUTO 00000KT 0800 R01/P2000N R19/P2000D BCFG OVC027/// 01/00 Q1012=
201505030150 METAR ESMX 030150Z AUTO 00000KT 9999 BKN028/// 01/00 Q1012=
201505030120 METAR ESMX 030120Z AUTO 20002KT 2700 BCFG BKN027/// 01/00 Q1012=
201505030050 METAR ESMX 030050Z AUTO 00000KT 0500 R01/P2000D R19/P2000N BCFG FEW027/// SCT046/// 01/01 Q1011=
201505030020 METAR ESMX 030020Z AUTO VRB02KT 2100 FEW029/// BKN035/// BKN047/// 01/01 Q1011=
201505022350 METAR ESMX 022350Z AUTO 22001KT 4200 BR FEW032/// BKN047/// 02/01 Q1011=
201505022320 METAR ESMX 022320Z AUTO 00000KT 6000 BR FEW036/// BKN040/// 02/02 Q1011=
201505022250 METAR ESMX 022250Z AUTO 21002KT 9999 BKN064/// 01/01 Q1011=
201505022220 METAR ESMX 022220Z AUTO 26003KT 4800 BR BKN065/// 02/02 Q1011=
201505022150 METAR ESMX 022150Z AUTO VRB02KT 9999 OVC063/// 02/02 Q1011 REDZ REUP=
201505022120 METAR ESMX 022120Z AUTO 00000KT 9999 FEW024/// SCT046/// BKN078/// 02/02 Q1011=
201505022050 METAR ESMX 022050Z AUTO 00000KT 9999 FEW025/// BKN083/// 02/01 Q1011=
201505022020 METAR ESMX 022020Z AUTO 18003KT 9999 FEW041/// 03/02 Q1010=
201505021950 METAR ESMX 021950Z AUTO 18003KT 9999 NCD 03/02 Q1010=
201505021920 METAR ESMX 021920Z AUTO 00000KT 9999 NCD 04/03 Q1010=
201505021850 METAR ESMX 021850Z AUTO 02002KT 9999 NCD 05/04 Q1010=
201505021820 METAR ESMX 021820Z AUTO 34003KT 9999 NCD 07/04 Q1009=
201505021750 METAR ESMX 021750Z AUTO 01005KT 9999 NCD 09/04 Q1009=
201505021720 METAR ESMX 021720Z AUTO 36005KT 9999 NCD 09/04 Q1009=
201505021650 METAR ESMX 021650Z AUTO 35006KT 9999 SCT069/// 09/04 Q1009=
201505021620 METAR ESMX 021620Z AUTO 35009KT 330V030 9999 FEW044/// BKN073/// 09/05 Q1009=
201505021550 METAR ESMX 021550Z AUTO 01009KT 9999 FEW019/// SCT022/// BKN072/// 09/05 Q1008=
201505021520 METAR ESMX 021520Z AUTO 32010KT 9999 FEW019/// SCT023/// 10/05 Q1008=
201505021450 METAR ESMX 021450Z AUTO 31008KT 270V340 9999 BKN018/// 08/04 Q1008=
201505021420 METAR ESMX 021420Z AUTO 31009KT 9999 OVC018/// 08/05 Q1008=
201505021350 METAR ESMX 021350Z AUTO 32007KT 9999 OVC017/// 09/05 Q1008=
201505021320 METAR ESMX 021320Z AUTO 32009KT 9999 OVC018/// 09/05 Q1007=
201505021250 METAR ESMX 021250Z AUTO 31009KT 9999 OVC016/// 08/05 Q1007=
201505021220 METAR ESMX 021220Z AUTO 29009KT 260V330 9999 FEW013/// OVC016/// 08/04 Q1007=
201505021150 METAR ESMX 021150Z AUTO 31010KT 280V350 9999 OVC013/// 07/04 Q1007=
201505021120 METAR ESMX 021120Z AUTO 30010KT 260V330 9999 OVC012/// 07/04 Q1006=
201505021050 METAR ESMX 021050Z AUTO 30010KT 9999 OVC010/// 07/05 Q1006=
201505021020 METAR ESMX 021020Z AUTO 29011KT 9999 BKN010/// OVC051/// 06/04 Q1006=
201505020950 METAR ESMX 020950Z AUTO 29012KT 9999 FEW009/// OVC011/// 06/04 Q1005=
201505020920 METAR ESMX 020920Z AUTO 30010KT 9999 FEW008/// OVC009/// 06/04 Q1005=
201505020850 METAR ESMX 020850Z AUTO 29012KT 9999 -DZ FEW007/// BKN009/// BKN011/// 05/04 Q1005=
201505020820 METAR ESMX 020820Z AUTO 30010KT 9999 DZ FEW008/// BKN010/// 05/04 Q1004=
201505020750 METAR ESMX 020750Z AUTO 31011KT 9000 -RA FEW008/// BKN010/// 04/03 Q1004=
201505020720 METAR ESMX 020720Z AUTO 31013KT 9000 RA FEW008/// BKN009/// BKN013/// 04/03 Q1003=
201505020650 METAR ESMX 020650Z AUTO 31015KT 6000 -RA FEW008/// BKN010/// 04/03 Q1003=
201505020620 METAR ESMX 020620Z AUTO 30014KT 7000 -RA FEW008/// SCT012/// BKN015/// 04/03 Q1002 REDZ=
201505020550 METAR ESMX 020550Z AUTO 30014KT 8000 -RA FEW008/// SCT011/// BKN013/// 04/03 Q1002=
201505020520 METAR ESMX 020520Z AUTO 30012KT 7000 -RA FEW007/// BKN011/// BKN015/// 04/03 Q1002=
201505020450 METAR ESMX 020450Z AUTO 29014KT 5000 -RA FEW008/// BKN011/// BKN018/// 04/03 Q1001 REDZ=
201505020420 METAR ESMX 020420Z AUTO 29012KT 9999 -RA FEW009/// BKN012/// BKN018/// 04/03 Q1001=
201505020350 METAR ESMX 020350Z AUTO 28011KT 5000 RA FEW011/// BKN014/// 04/03 Q1001=
201505020320 METAR ESMX 020320Z AUTO 29012KT 9999 -RA BKN014/// OVC021/// 04/03 Q1001=
201505020250 METAR ESMX 020250Z AUTO 28012KT 9999 -RA SCT015/// BKN020/// 04/03 Q1000=
201505020220 METAR ESMX 020220Z AUTO 29015KT 9999 DZ FEW017/// 04/02 Q1000=
201505020150 METAR ESMX 020150Z AUTO 28015KT 9000 -RA FEW017/// SCT020/// 04/02 Q1000 RESHUP REDZ=
201505020120 METAR ESMX 020120Z AUTO 28011KT 9999 SCT048/// 05/02 Q1000=
201505020050 METAR ESMX 020050Z AUTO 27010KT 9999 NCD 04/02 Q1001=
201505020020 METAR ESMX 020020Z AUTO 29011KT 250V320 9999 -DZ NCD 04/02 Q1001 RESHUP REDZ=
201505012350 METAR ESMX 012350Z AUTO 28010KT 9999 NCD 04/02 Q1001=
201505012320 METAR ESMX 012320Z AUTO 27009KT 250V310 9999 FEW062/// 04/02 Q1001=
201505012250 METAR ESMX 012250Z AUTO 29010KT 9999 -DZ FEW026/// 04/02 Q1002 REUP RESHUP=
201505012220 METAR ESMX 012220Z AUTO 28009KT 9999 FEW030/// 04/02 Q1002=
201505012150 METAR ESMX 012150Z AUTO 28008KT 9999 FEW032/// 04/02 Q1002=
201505012120 METAR ESMX 012120Z AUTO 27007KT 9999 BKN038/// 04/03 Q1002=
201505012050 METAR ESMX 012050Z AUTO 27007KT 9999 FEW039/// 04/03 Q1002=
201505012020 METAR ESMX 012020Z AUTO 27005KT 9999 FEW064/// 04/03 Q1002=
201505011950 METAR ESMX 011950Z AUTO 26005KT 9999 FEW062/// 04/03 Q1003=
201505011920 METAR ESMX 011920Z AUTO 28004KT 9999 FEW013/// 04/03 Q1003=
201505011850 METAR ESMX 011850Z AUTO 30004KT 270V340 9999 NCD 04/03 Q1003=
201505011820 METAR ESMX 011820Z AUTO 31006KT 9999 FEW035/// 04/03 Q1003 RERA=
201505011750 METAR ESMX 011750Z AUTO 30006KT 9999 -DZ FEW028/// 04/03 Q1003=
201505011720 METAR ESMX 011720Z AUTO 32006KT 9999 -RA FEW027/// 04/03 Q1003 REDZ=
201505011650 METAR ESMX 011650Z AUTO 31005KT 9999 DZ FEW030/// 04/03 Q1003=
201505011620 METAR ESMX 011620Z AUTO 31007KT 9999 -RA FEW010/// SCT013/// 04/03 Q1003=
201505011550 METAR ESMX 011550Z AUTO 30008KT 9999 -RA FEW010/// SCT014/// BKN020/// 05/03 Q1004=
201505011520 METAR ESMX 011520Z AUTO 32010KT 9999 -RA FEW013/// 05/03 Q1004=
201505011450 METAR ESMX 011450Z 31009KT 9999 -RA SCT012 BKN020 05/04 Q1004=
201505011420 METAR ESMX 011420Z 30007KT 270V330 9999 -RA BKN009 05/03 Q1004=
201505011350 METAR ESMX 011350Z 32008KT 9999 -RA BKN010 05/03 Q1004=
201505011320 METAR ESMX 011320Z 33009KT 9999 -RA BKN012 05/03 Q1004=
201505011250 METAR ESMX 011250Z 35009KT 9999 -RA FEW007 BKN010 05/04 Q1004=
201505011220 METAR ESMX 011220Z 34009KT 9999 -RA FEW010 SCT014 05/03 Q1004=
