##########################################################
# Query made at 04/19/2024 21:47:00 UTC
# Time interval: from 08/01/2015 12:00  to 08/31/2015 12:59  UTC
##########################################################

##########################################################
# ESMX, Vaxjo (Sweden)
# WMO index: 02641. WIGOS ID: 0-20000-0-02648
# Latitude 56-51N. Longitude 014-50E. Altitude 199 m.
##########################################################

201508311250 METAR ESMX 311250Z 03005KT 9999 -RA BKN050 16/14 Q1017=
201508311220 METAR ESMX 311220Z 02005KT 9999 -RA BKN055 17/14 Q1017=
201508311154 METAR ESMX 311154Z 03005KT 9999 BKN054 17/13 Q1017=
201508311150 METAR ESMX 311150Z AUTO 03005KT 9999 BKN054/// 17/13 Q1017=
201508311120 METAR ESMX 311120Z 03005KT 9999 BKN048 17/13 Q1017=
201508311050 METAR ESMX 311050Z VRB02KT 9999 BKN045 17/13 Q1018=
201508311020 METAR ESMX 311020Z 06003KT 030V090 9999 BKN041 17/13 Q1018=
201508310950 METAR ESMX 310950Z 08003KT 040V150 9999 BKN041 17/13 Q1018=
201508310920 METAR ESMX 310920Z 12003KT 060V180 9999 BKN044 16/14 Q1018=
201508310850 METAR ESMX 310850Z VRB03KT 9999 FEW033 BKN042 16/15 Q1018=
201508310820 METAR ESMX 310820Z VRB01KT 9000 BR BKN032 15/14 Q1018=
201508310750 METAR ESMX 310750Z 14004KT 6000 BR FEW035 BKN044 15/14 Q1018=
201508310720 METAR ESMX 310720Z 16005KT 7000 -DZ FEW027 BKN050 15/14 Q1018=
201508310650 METAR ESMX 310650Z 15004KT 8000 BR FEW037 BKN060 15/14 Q1018=
201508310620 METAR ESMX 310620Z 00000KT 9999 -RA FEW025 BKN061 15/14 Q1018=
201508310550 METAR ESMX 310550Z 00000KT 9999 FEW025 BKN065 BKN096 14/13 Q1018=
201508310520 METAR ESMX 310520Z VRB02KT 9999 FEW027 BKN093 14/13 Q1018=
201508310450 METAR ESMX 310450Z 00000KT 9999 SCT030 BKN100 13/13 Q1018=
201508310420 METAR ESMX 310420Z 09002KT 9999 SCT025 BKN080 13/13 Q1018=
201508310350 METAR ESMX 310350Z AUTO 00000KT 9999 FEW026/// SCT085/// BKN099/// 13/12 Q1018=
201508310320 METAR ESMX 310320Z AUTO 00000KT 9999 FEW030/// BKN100/// 13/12 Q1018=
201508310250 METAR ESMX 310250Z AUTO 00000KT 9999 FEW029/// BKN034/// BKN110/// 12/12 Q1019=
201508310220 METAR ESMX 310220Z AUTO VRB02KT 9999 FEW110/// 13/12 Q1018=
201508310150 METAR ESMX 310150Z AUTO 00000KT 9999 SCT033/// 12/12 Q1019=
201508310120 METAR ESMX 310120Z AUTO 00000KT 9999 FEW037/// SCT092/// 12/11 Q1019=
201508310050 METAR ESMX 310050Z AUTO 00000KT 9999 FEW034/// 12/12 Q1019=
201508310020 METAR ESMX 310020Z AUTO 00000KT 9999 NCD 12/11 Q1019=
201508302350 METAR ESMX 302350Z AUTO 00000KT 9999 NCD 12/11 Q1019=
201508302320 METAR ESMX 302320Z AUTO 00000KT 9999 SCT032/// 12/11 Q1019=
201508302250 METAR COR ESMX 302250Z 00000KT 9999 BKN030 12/11 Q1020=
201508302220 METAR ESMX 302220Z 00000KT CAVOK 11/11 Q1020=
201508302150 METAR COR ESMX 302150Z 00000KT CAVOK 11/10 Q1020=
201508302120 METAR ESMX 302120Z 19002KT CAVOK 11/11 Q1020=
201508302050 METAR ESMX 302050Z 00000KT CAVOK 11/11 Q1020=
201508302020 METAR ESMX 302020Z 00000KT CAVOK 11/11 Q1020=
201508301950 METAR COR ESMX 301950Z 17002KT 9999 FEW030 12/11 Q1020=
201508301920 METAR ESMX 301920Z 00000KT 9999 FEW025 12/11 Q1020=
201508301850 METAR ESMX 301850Z 00000KT 9999 VCFG 13/12 Q1020=
201508301820 METAR ESMX 301820Z 20002KT CAVOK 14/13 Q1020=
201508301750 METAR ESMX 301750Z 00000KT CAVOK 16/13 Q1019=
201508301720 METAR ESMX 301720Z 00000KT CAVOK 19/13 Q1019=
201508301650 METAR ESMX 301650Z 30003KT 250V320 CAVOK 19/12 Q1019=
201508301620 METAR ESMX 301620Z 29003KT CAVOK 19/12 Q1020=
201508301550 METAR ESMX 301550Z 30005KT 280V340 CAVOK 20/12 Q1019=
201508301520 METAR ESMX 301520Z 29003KT 250V320 9999 FEW035 19/12 Q1019=
201508301450 METAR ESMX 301450Z AUTO 29005KT 9999 NCD 19/12 Q1020=
201508301420 METAR ESMX 301420Z 23005KT 9999 FEW034 SCT043 20/12 Q1020=
201508301350 METAR ESMX 301350Z 26005KT 220V280 9999 FEW039 20/12 Q1020=
201508301320 METAR ESMX 301320Z 25004KT 190V290 9999 FEW030 20/12 Q1020=
201508301250 METAR ESMX 301250Z 23003KT 9999 FEW028 SCT041 19/13 Q1020=
201508301220 METAR ESMX 301220Z AUTO 20005KT 9999 BKN028/// OVC035/// 19/12 Q1020=
201508301150 METAR ESMX 301150Z 10002KT 9999 FEW027 SCT030 BKN038 19/12 Q1020=
201508301120 METAR ESMX 301120Z 05004KT 340V080 9999 FEW023 SCT028 19/12 Q1020=
201508301050 METAR ESMX 301050Z VRB04KT 150V010 9999 SCT021 BKN026 19/13 Q1020=
201508301020 METAR ESMX 301020Z AUTO VRB03KT 9999 FEW019/// SCT044/// 18/13 Q1021=
201508300950 METAR ESMX 300950Z AUTO VRB03KT 9999 NCD 17/13 Q1021=
201508300920 METAR ESMX 300920Z AUTO 08004KT 020V190 9999 FEW018/// SCT082/// 17/13 Q1021=
201508300850 METAR ESMX 300850Z AUTO VRB02KT 9999 BKN044/// BKN087/// 16/12 Q1021=
201508300820 METAR ESMX 300820Z AUTO VRB02KT 9999 FEW046/// BKN083/// 16/12 Q1021=
201508300750 METAR ESMX 300750Z AUTO 00000KT 9999 SCT053/// BKN083/// 15/12 Q1021=
201508300720 METAR ESMX 300720Z AUTO 00000KT 9999 BKN040/// 14/12 Q1021=
201508300650 METAR ESMX 300650Z AUTO VRB02KT 9999 OVC041/// 14/12 Q1021=
201508300620 METAR ESMX 300620Z AUTO 18004KT 9999 OVC048/// 13/11 Q1021=
201508300550 METAR ESMX 300550Z AUTO 18003KT 9999 OVC055/// 13/11 Q1021=
201508300520 METAR ESMX 300520Z AUTO 18004KT 9999 FEW057/// OVC076/// 13/11 Q1021=
201508300450 METAR ESMX 300450Z AUTO 20004KT 9999 FEW064/// SCT082/// 12/10 Q1021=
201508300420 METAR ESMX 300420Z AUTO 19006KT 9999 NCD 12/10 Q1021=
201508300350 METAR ESMX 300350Z AUTO 18005KT 9999 NCD 12/10 Q1021=
201508300320 METAR ESMX 300320Z AUTO 18007KT 9999 NCD 12/10 Q1021=
201508300250 METAR ESMX 300250Z AUTO 18006KT 9999 NCD 12/10 Q1021=
201508300220 METAR ESMX 300220Z AUTO 18006KT 9999 NCD 12/11 Q1021=
201508300150 METAR ESMX 300150Z AUTO 19006KT 9999 NCD 13/11 Q1021=
201508300120 METAR ESMX 300120Z 19005KT CAVOK 13/11 Q1021=
201508300050 METAR ESMX 300050Z 20006KT CAVOK 12/11 Q1021=
201508300020 METAR ESMX 300020Z 19006KT CAVOK 12/11 Q1021=
201508292350 METAR ESMX 292350Z 19005KT CAVOK 12/10 Q1022=
201508292320 METAR ESMX 292320Z 20006KT CAVOK 12/10 Q1022=
201508292251 METAR ESMX 292251Z 20006KT CAVOK 12/10 Q1022=
201508292220 METAR ESMX 292220Z AUTO 20006KT 9999 NCD 12/10 Q1022=
201508292150 METAR ESMX 292150Z AUTO 20005KT 9999 FEW041/// 12/09 Q1022=
201508292120 METAR ESMX 292120Z AUTO 19004KT 9999 FEW040/// 12/09 Q1022=
201508292050 METAR ESMX 292050Z AUTO 21004KT 9999 NCD 11/09 Q1022=
201508292020 METAR ESMX 292020Z AUTO 21005KT 9999 NCD 12/10 Q1022=
201508291950 METAR ESMX 291950Z AUTO 21005KT 9999 NCD 13/09 Q1022=
201508291920 METAR ESMX 291920Z AUTO 23004KT 9999 NCD 13/09 Q1022=
201508291850 METAR ESMX 291850Z 23005KT CAVOK 15/09 Q1022=
201508291820 METAR ESMX 291820Z 24006KT CAVOK 15/09 Q1022=
201508291753 METAR ESMX 291753Z 24006KT CAVOK 16/10 Q1021=
201508291750 METAR ESMX 291750Z AUTO 24006KT 9999 NCD 15/10 Q1021=
201508291720 METAR ESMX 291720Z AUTO 23006KT 9999 NCD 17/09 Q1021=
201508291650 METAR ESMX 291650Z 25008KT CAVOK 18/09 Q1021=
201508291620 METAR ESMX 291620Z 25009KT 220V280 CAVOK 19/10 Q1021=
201508291550 METAR ESMX 291550Z 24009KT CAVOK 19/10 Q1021=
201508291520 METAR ESMX 291520Z AUTO 27009KT 230V320 9999 NCD 19/10 Q1021=
201508291450 METAR ESMX 291450Z 25010KT CAVOK 20/09 Q1021=
201508291420 METAR ESMX 291420Z 25012KT 220V290 9999 FEW043 19/10 Q1021=
201508291350 METAR ESMX 291350Z 25010KT 210V280 9999 FEW044 SCT066 19/09 Q1021=
201508291320 METAR ESMX 291320Z 26011KT 230V300 9999 SCT043 19/09 Q1021=
201508291253 METAR ESMX 291253Z 25013KT 9999 SCT043 19/09 Q1021=
201508291250 METAR ESMX 291250Z AUTO 25013KT 9999 SCT043/// 20/08 Q1021=
201508291220 METAR ESMX 291220Z 27009KT 230V300 9999 FEW042 19/09 Q1021=
201508291150 METAR ESMX 291150Z 25010KT 220V290 9999 BKN040 19/09 Q1021=
201508291127 METAR ESMX 291127Z 26012KT 240V320 9999 BKN039 19/10 Q1021=
201508291120 METAR ESMX 291120Z AUTO 24012KT 210V280 9999 FEW039/// SCT043/// 19/10 Q1021=
201508291050 METAR ESMX 291050Z 27011KT 240V310 9999 FEW035 SCT041 19/10 Q1021=
201508291020 METAR ESMX 291020Z AUTO 23011KT 200V260 9999 FEW031/// SCT044/// 17/10 Q1021=
201508290950 METAR ESMX 290950Z AUTO 25011KT 210V280 9999 FEW032/// BKN049/// 18/11 Q1021=
201508290920 METAR ESMX 290920Z AUTO 25010KT 210V300 9999 FEW047/// 17/11 Q1021=
201508290850 METAR ESMX 290850Z AUTO 27007KT 220V300 9999 FEW026/// 16/12 Q1021=
201508290820 METAR ESMX 290820Z AUTO 25008KT 220V290 9999 FEW017/// 16/12 Q1021=
201508290750 METAR ESMX 290750Z AUTO 25010KT 9999 BKN014/// BKN024/// 16/12 Q1020=
201508290720 METAR ESMX 290720Z AUTO 26009KT 9999 FEW011/// SCT014/// BKN021/// 15/12 Q1020=
201508290650 METAR ESMX 290650Z AUTO 23006KT 9999 FEW010/// 15/13 Q1020=
201508290620 METAR ESMX 290620Z AUTO 22007KT 9999 NCD 13/12 Q1019=
201508290550 METAR ESMX 290550Z AUTO 22006KT 9999 FEW004/// 12/11 Q1019=
201508290520 METAR ESMX 290520Z AUTO 21006KT 9999 NCD 11/11 Q1019=
201508290450 METAR ESMX 290450Z AUTO 22006KT 9999 FEW025/// 11/10 Q1018=
201508290420 METAR ESMX 290420Z AUTO 22007KT 9999 NCD 10/10 Q1018=
201508290350 METAR ESMX 290350Z AUTO 20007KT 9999 NCD 10/10 Q1018=
201508290320 METAR ESMX 290320Z AUTO 21006KT 9999 NCD 10/09 Q1018=
201508290250 METAR ESMX 290250Z AUTO 20006KT 9999 FEW065/// 10/10 Q1018=
201508290220 METAR ESMX 290220Z AUTO 21006KT 9999 NCD 10/10 Q1017=
201508290150 METAR ESMX 290150Z AUTO 20005KT 9999 NCD 10/10 Q1017=
201508290120 METAR ESMX 290120Z AUTO 22007KT 9999 FEW017/// BKN110/// 11/11 Q1017=
201508290050 METAR ESMX 290050Z AUTO 22006KT 9999 RA FEW023/// 11/10 Q1017=
201508290020 METAR ESMX 290020Z AUTO 21007KT 9999 NCD 11/09 Q1017=
201508282350 METAR ESMX 282350Z AUTO 21005KT 9999 NCD 11/09 Q1016=
201508282320 METAR ESMX 282320Z AUTO 22005KT 9999 FEW099/// 11/10 Q1016=
201508282250 METAR ESMX 282250Z AUTO 21005KT 9999 SCT100/// 12/10 Q1016=
201508282220 METAR ESMX 282220Z AUTO 22006KT 9999 FEW100/// 12/10 Q1016=
201508282150 METAR ESMX 282150Z AUTO 21005KT 9999 BKN100/// 13/11 Q1016=
201508282120 METAR ESMX 282120Z AUTO 22008KT 9999 NCD 12/10 Q1016=
201508282050 METAR ESMX 282050Z AUTO 22006KT 9999 NCD 12/10 Q1015=
201508282020 METAR ESMX 282020Z AUTO 22007KT 9999 SCT110/// 14/11 Q1015=
201508281950 METAR ESMX 281950Z AUTO 21007KT 9999 FEW110/// 14/11 Q1015=
201508281920 METAR ESMX 281920Z AUTO 21008KT 9999 NCD 13/11 Q1015=
201508281850 METAR ESMX 281850Z AUTO 22007KT 9999 NCD 14/11 Q1014=
201508281820 METAR ESMX 281820Z AUTO 23008KT 9999 NCD 14/11 Q1014=
201508281750 METAR ESMX 281750Z AUTO 23009KT 9999 NCD 15/10 Q1014=
201508281720 METAR ESMX 281720Z 23013KT 9999 FEW049 16/10 Q1014=
201508281650 METAR ESMX 281650Z 25013KT 9999 FEW049 17/07 Q1013=
201508281620 METAR ESMX 281620Z 25011KT 9999 FEW049 18/08 Q1013=
201508281550 METAR ESMX 281550Z 24010KT 210V280 9999 SCT045 18/09 Q1013=
201508281520 METAR COR ESMX 281520Z 24011KT 9999 SCT045 19/08 Q1013=
201508281450 METAR ESMX 281450Z 24013KT 9999 SCT049 19/08 Q1013=
201508281420 METAR ESMX 281420Z 24015G25KT 9999 SCT047 19/08 Q1012=
201508281350 METAR ESMX 281350Z 26015KT 9999 SCT048 19/08 Q1012=
201508281320 METAR ESMX 281320Z 27014KT 9999 SCT045 18/09 Q1012=
201508281250 METAR ESMX 281250Z 25014KT 9999 SCT041 19/09 Q1012=
201508281220 METAR ESMX 281220Z 26013G23KT 210V290 9999 FEW039 SCT064 19/11 Q1011=
201508281150 METAR ESMX 281150Z 23013KT 200V270 9999 FEW032 SCT059 18/10 Q1011=
201508281120 METAR ESMX 281120Z 24013KT 9999 SCT037 BKN061 17/10 Q1011=
201508281050 METAR ESMX 281050Z 23013KT 200V260 9999 FEW039 SCT045 18/10 Q1011=
201508281020 METAR ESMX 281020Z 24012KT 210V290 9999 BKN041 18/09 Q1010=
201508280950 METAR ESMX 280950Z 25011KT 9999 SCT039 18/10 Q1010=
201508280920 METAR ESMX 280920Z 27012KT 230V300 9999 FEW034 17/10 Q1010=
201508280851 METAR ESMX 280851Z 29010KT 9999 SCT030 16/10 Q1010=
201508280829 METAR ESMX 280829Z 25010KT 9999 FEW019 SCT035 17/12 Q1010=
201508280820 METAR ESMX 280820Z AUTO 28010KT 250V310 9999 FEW019/// 16/11 Q1010=
201508280750 METAR ESMX 280750Z 24009KT 210V290 9999 FEW015 SCT022 16/12 Q1009=
201508280720 METAR ESMX 280720Z 26007KT 220V290 9999 FEW012 SCT014 15/12 Q1009=
201508280650 METAR ESMX 280650Z 22008KT 9999 FEW009 SCT015 BKN033 15/12 Q1009=
201508280620 METAR ESMX 280620Z 23008KT 9999 FEW033 BKN042 14/12 Q1008=
201508280550 METAR ESMX 280550Z 23007KT CAVOK 14/12 Q1008=
201508280520 METAR ESMX 280520Z 22007KT CAVOK 13/12 Q1008=
201508280453 METAR ESMX 280453Z 22007KT 9999 FEW008 SCT011 BKN056 13/12 Q1008=
201508280450 METAR ESMX 280450Z AUTO 21007KT 9999 FEW008/// SCT016/// BKN059/// 13/12 Q1008 REUP=
201508280420 METAR ESMX 280420Z 22005KT 9999 FEW009 SCT042 BKN048 13/12 Q1007=
201508280350 METAR ESMX 280350Z AUTO 20005KT 9999 SCT008/// BKN011/// BKN016/// 13/12 Q1007=
201508280320 METAR ESMX 280320Z AUTO 21006KT 9999 OVC008/// 13/12 Q1008=
201508280250 METAR ESMX 280250Z AUTO 20007KT 9999 FEW009/// OVC010/// 13/12 Q1007=
201508280220 METAR ESMX 280220Z AUTO 21007KT 9999 OVC009/// 13/12 Q1007=
201508280150 METAR ESMX 280150Z AUTO 20007KT 9999 FEW009/// BKN011/// 13/12 Q1007=
201508280120 METAR ESMX 280120Z AUTO 19008KT 9999 OVC010/// 13/12 Q1007=
201508280050 METAR ESMX 280050Z AUTO 19008KT 9999 BKN010/// OVC021/// 13/12 Q1007=
201508280020 METAR ESMX 280020Z AUTO 20009KT 9999 FEW039/// OVC043/// 13/12 Q1007=
201508272350 METAR ESMX 272350Z 21009KT 9999 FEW023 SCT040 BKN046 13/12 Q1007=
201508272329 METAR ESMX 272329Z 21010KT 9999 FEW022 SCT027 BKN075 14/12 Q1007=
201508272320 METAR ESMX 272320Z AUTO 20010KT 9999 FEW022/// SCT027/// BKN075/// 14/12 Q1007=
201508272250 METAR ESMX 272250Z 20009KT 9999 FEW016 SCT021 BKN034 14/13 Q1007=
201508272220 METAR ESMX 272220Z 19012KT 9999 -DZ SCT010 BKN016 BKN020 15/13 Q1007=
201508272150 METAR ESMX 272150Z 19008KT 9999 FEW015 SCT020 BKN088 15/13 Q1007=
201508272120 METAR ESMX 272120Z 18009KT 9999 FEW022 15/13 Q1007=
201508272053 METAR ESMX 272053Z 18008KT CAVOK 16/13 Q1007=
201508272050 METAR ESMX 272050Z AUTO 18008KT 9999 FEW110/// 16/13 Q1007=
201508272020 METAR ESMX 272020Z 18007G39KT CAVOK 15/13 Q1007=
201508271950 METAR ESMX 271950Z 18009KT 9999 FEW022 SCT100 16/13 Q1007=
201508271920 METAR ESMX 271920Z 20007KT 9999 BKN022 16/13 Q1007=
201508271853 METAR ESMX 271853Z 20009KT 9999 FEW023 SCT030 16/13 Q1007=
201508271850 METAR ESMX 271850Z AUTO 20009KT 9999 FEW023/// SCT027/// 16/13 Q1007=
201508271820 METAR ESMX 271820Z AUTO 21010KT 9999 BKN092/// 17/13 Q1007=
201508271750 METAR ESMX 271750Z 22012KT 9999 SCT025 18/13 Q1007=
201508271720 METAR ESMX 271720Z 20012KT 180V240 9999 FEW038 18/13 Q1007=
201508271650 METAR ESMX 271650Z 19014KT 9999 FEW045 18/13 Q1006=
201508271620 METAR ESMX 271620Z 20013KT 9999 FEW025 19/14 Q1006=
201508271550 METAR ESMX 271550Z 20015KT 9999 SCT025 19/14 Q1007=
201508271520 METAR ESMX 271520Z 20016KT 9999 SCT028 BKN054 19/14 Q1006=
201508271450 METAR ESMX 271450Z 20014KT 9999 FEW022 SCT028 BKN054 19/15 Q1007=
201508271420 METAR ESMX 271420Z 21015KT 9999 SCT024 BKN043 19/14 Q1007=
201508271350 METAR ESMX 271350Z 19013KT 9999 SCT013 19/15 Q1006=
201508271320 METAR ESMX 271320Z 20013KT 9999 FEW013 BKN025 18/15 Q1006=
201508271250 METAR ESMX 271250Z 19015KT 9999 FEW009 SCT014 BKN037 18/16 Q1006=
201508271220 METAR ESMX 271220Z 18012KT 9999 -RA FEW007 SCT010 BKN025 17/16 Q1007=
201508271150 METAR ESMX 271150Z 17009KT 9999 FEW015 SCT023 17/16 Q1006=
201508271120 METAR COR ESMX 271120Z 17008KT 9999 -RA FEW020 SCT024 BKN029 17/16 Q1007=
201508271050 METAR ESMX 271050Z 16007KT 9999 -RA FEW037 SCT044 BKN090 18/15 Q1006=
201508271020 METAR ESMX 271020Z 17010KT 9999 -RA FEW045 BKN090 19/15 Q1006 REDZ=
201508270950 METAR ESMX 270950Z 17012KT CAVOK 21/14 Q1006=
201508270920 METAR ESMX 270920Z 17012G24KT CAVOK 22/14 Q1007=
201508270850 METAR ESMX 270850Z 15011KT 120V190 CAVOK 21/14 Q1007=
201508270820 METAR ESMX 270820Z 15009KT CAVOK 20/14 Q1007=
201508270750 METAR ESMX 270750Z 15009KT 110V170 CAVOK 20/14 Q1007=
201508270720 METAR ESMX 270720Z 14008KT CAVOK 19/15 Q1007=
201508270650 METAR ESMX 270650Z 15008KT CAVOK 18/15 Q1007=
201508270620 METAR ESMX 270620Z 14008KT 110V170 CAVOK 17/15 Q1008=
201508270550 METAR ESMX 270550Z 14007KT 100V190 CAVOK 17/15 Q1008=
201508270520 METAR ESMX 270520Z 14007KT 100V160 CAVOK 16/14 Q1008=
201508270450 METAR ESMX 270450Z 15007KT 110V170 CAVOK 16/14 Q1009=
201508270420 METAR ESMX 270420Z 15008KT CAVOK 16/14 Q1009=
201508270350 METAR ESMX 270350Z 14008KT 100V170 CAVOK 16/14 Q1009=
201508270320 METAR ESMX 270320Z AUTO 15008KT 110V170 9999 NCD 16/14 Q1010=
201508270250 METAR ESMX 270250Z AUTO 13009KT 9999 FEW100/// 16/14 Q1010=
201508270220 METAR ESMX 270220Z AUTO 15009KT 9999 NCD 16/14 Q1010=
201508270150 METAR ESMX 270150Z AUTO 14008KT 110V170 9999 NCD 15/14 Q1011=
201508270120 METAR ESMX 270120Z AUTO 14008KT 100V170 9999 NCD 15/14 Q1011=
201508270050 METAR ESMX 270050Z AUTO 14008KT 100V170 9999 NCD 15/14 Q1012=
201508270020 METAR ESMX 270020Z AUTO 14008KT 9999 NCD 15/13 Q1012=
201508262350 METAR ESMX 262350Z 14008KT CAVOK 15/14 Q1012=
201508262320 METAR ESMX 262320Z 15007KT 9999 FEW039 15/14 Q1012=
201508262250 METAR ESMX 262250Z 15006KT CAVOK 15/14 Q1012=
201508262220 METAR ESMX 262220Z 15007KT CAVOK 15/14 Q1013=
201508262150 METAR ESMX 262150Z 15006KT CAVOK 15/14 Q1013=
201508262120 METAR ESMX 262120Z 14005KT CAVOK 15/14 Q1013=
201508262050 METAR ESMX 262050Z 15005KT CAVOK 15/14 Q1013=
201508262020 METAR ESMX 262020Z 15005KT CAVOK 15/14 Q1013=
201508261950 METAR ESMX 261950Z 15005KT CAVOK 16/14 Q1014=
201508261920 METAR ESMX 261920Z 17005KT 9999 FEW026 16/14 Q1014=
201508261850 METAR ESMX 261850Z 16005KT CAVOK 16/14 Q1014=
201508261820 METAR ESMX 261820Z 16005KT 9999 FEW025 BKN080 17/14 Q1013=
201508261750 METAR ESMX 261750Z 17005KT CAVOK 17/14 Q1013=
201508261720 METAR COR ESMX 261720Z 17005KT 9999 SCT034 BKN100 17/14 Q1013=
201508261650 METAR COR ESMX 261650Z 17006KT 9999 SCT018 BKN033 17/14 Q1013=
201508261620 METAR ESMX 261620Z AUTO 19008KT 9999 FEW025/// SCT033/// BKN038/// 17/14 Q1013=
201508261550 METAR ESMX 261550Z 19009KT 9999 FEW012 BKN038 17/14 Q1013=
201508261520 METAR ESMX 261520Z 17008KT 140V200 9999 FEW013 BKN034 17/14 Q1013=
201508261450 METAR COR ESMX 261450Z 20011KT 9999 SCT016 BKN025 17/14 Q1013=
201508261420 METAR COR ESMX 261420Z 20011KT 9999 BKN015 17/14 Q1013=
201508261350 METAR ESMX 261350Z 20013KT 9999 BKN020 17/13 Q1013=
201508261320 METAR ESMX 261320Z 17010KT 9999 BKN021 18/13 Q1013=
201508261250 METAR ESMX 261250Z 18007KT 9999 BKN023 18/13 Q1013=
201508261220 METAR ESMX 261220Z 18009KT 9999 OVC026 18/12 Q1013=
201508261150 METAR ESMX 261150Z 17012KT 140V200 9999 BKN032 18/11 Q1013=
201508261120 METAR ESMX 261120Z 17010KT 9999 BKN035 18/11 Q1013=
201508261050 METAR ESMX 261050Z 18012KT 9999 FEW034 BKN039 BKN050 18/11 Q1013=
201508261020 METAR ESMX 261020Z 18010KT 150V210 9999 SCT027 BKN060 18/12 Q1013=
201508260950 METAR ESMX 260950Z 18011KT 150V210 9999 SCT028 BKN060 18/11 Q1013=
201508260920 METAR ESMX 260920Z 17011KT 9999 FEW024 SCT038 BKN067 18/12 Q1013=
201508260850 METAR ESMX 260850Z 18010KT 140V210 9999 FEW020 BKN070 18/11 Q1014=
201508260820 METAR ESMX 260820Z 18011KT 9999 FEW020 17/11 Q1013=
201508260750 METAR ESMX 260750Z 18010KT 9999 FEW009 17/12 Q1013=
201508260720 METAR COR ESMX 260720Z 20010KT 9999 FEW009 16/13 Q1013=
201508260650 METAR ESMX 260650Z 19010KT 9999 FEW008 15/13 Q1013=
201508260620 METAR ESMX 260620Z 19009KT 9999 FEW008 14/12 Q1013=
201508260550 METAR ESMX 260550Z 19008KT 9999 FEW005 13/12 Q1013=
201508260520 METAR ESMX 260520Z 19008KT CAVOK 12/11 Q1013=
201508260450 METAR ESMX 260450Z 19007KT CAVOK 12/11 Q1013=
201508260420 METAR ESMX 260420Z 19006KT CAVOK 11/10 Q1013=
201508260350 METAR ESMX 260350Z AUTO 20007KT 9999 NCD 11/10 Q1013=
201508260320 METAR ESMX 260320Z AUTO 19008KT 9999 NCD 11/10 Q1013=
201508260250 METAR ESMX 260250Z AUTO 20008KT 9999 NCD 11/10 Q1013=
201508260220 METAR ESMX 260220Z AUTO 18008KT 9999 NCD 11/10 Q1012=
201508260150 METAR ESMX 260150Z AUTO 18007KT 9999 NCD 11/10 Q1012=
201508260120 METAR ESMX 260120Z 17007KT CAVOK 11/10 Q1012=
201508260050 METAR ESMX 260050Z 18007KT 9999 FEW041 12/11 Q1012=
201508260020 METAR ESMX 260020Z 17005KT CAVOK 12/12 Q1012=
201508252320 METAR ESMX 252320Z 21006KT CAVOK 12/11 Q1012=
201508252250 METAR ESMX 252250Z 19006KT CAVOK 13/12 Q1012=
201508252220 METAR ESMX 252220Z 20007KT 9999 FEW029 SCT062 14/12 Q1011=
201508252150 METAR ESMX 252150Z 20007KT 9999 FEW025 SCT065 14/13 Q1011=
201508252120 METAR ESMX 252120Z 20007KT 9999 FEW028 14/13 Q1011=
201508252050 METAR ESMX 252050Z 20009KT CAVOK 14/13 Q1011=
201508252020 METAR ESMX 252020Z 19007KT 9999 FEW033 BKN062 14/13 Q1010=
201508251950 METAR ESMX 251950Z 19008KT 9999 FEW028 SCT046 14/13 Q1010=
201508251920 METAR ESMX 251920Z 18006KT CAVOK 13/13 Q1010=
201508251850 METAR COR ESMX 251850Z 18007KT CAVOK 14/13 Q1009=
201508251820 METAR ESMX 251820Z 20007KT 9999 FEW019 BKN051 15/13 Q1009=
201508251750 METAR ESMX 251750Z 21009KT 9999 -RA FEW014 SCT030 BKN044 17/13 Q1009=
201508251720 METAR ESMX 251720Z 19010KT 9999 FEW031 BKN075 17/13 Q1008=
201508251650 METAR ESMX 251650Z 19010KT 9999 SCT027 18/13 Q1008=
201508251620 METAR ESMX 251620Z 19012KT 9999 FEW033 SCT060 18/14 Q1008=
201508251550 METAR ESMX 251550Z 18011KT 9999 SCT023 19/14 Q1008=
201508251520 METAR ESMX 251520Z 17011KT 9999 FEW018 SCT024 19/15 Q1008=
201508251450 METAR ESMX 251450Z 16008KT 9999 FEW012 BKN018 19/16 Q1008=
201508251420 METAR ESMX 251420Z 16008KT 9999 FEW008 SCT012 BKN016 18/16 Q1008=
201508251350 METAR ESMX 251350Z 15007KT 100V190 9999 FEW005 SCT007 BKN010 18/16 Q1008=
201508251320 METAR ESMX 251320Z 14004KT 100V190 9999 FEW005 SCT008 BKN011 17/16 Q1007 REDZ=
201508251250 METAR ESMX 251250Z 16006KT 9999 -DZ SCT006 BKN009 17/16 Q1008=
201508251220 METAR ESMX 251220Z 15005KT 9999 -RA FEW005 SCT025 17/16 Q1008=
201508251150 METAR ESMX 251150Z 18005KT 9999 -RA FEW004 SCT035 BKN060 17/16 Q1008=
201508251120 METAR ESMX 251120Z 20009KT 9000 -RA FEW009 SCT020 BKN027 16/15 Q1008 RESHRA=
201508251050 METAR ESMX 251050Z 19009KT 9999 RA SCT014 OVC019 17/16 Q1007=
201508251020 METAR ESMX 251020Z 16007KT 140V200 9999 -RA SCT013 BKN018 19/16 Q1007 RERA=
201508250950 METAR ESMX 250950Z 16006KT 9999 -RA FEW023 SCT048 19/15 Q1007=
201508250920 METAR ESMX 250920Z 16009KT 130V200 CAVOK 20/15 Q1007=
201508250853 METAR ESMX 250853Z 16007KT 120V200 CAVOK 20/15 Q1007=
201508250850 METAR ESMX 250850Z AUTO 15007KT 120V190 9999 FEW050/// SCT064/// BKN076/// 20/15 Q1007=
201508250820 METAR ESMX 250820Z 14007KT 110V180 CAVOK 20/15 Q1006=
201508250750 METAR ESMX 250750Z 13007KT 100V170 CAVOK 20/14 Q1006=
201508250720 METAR ESMX 250720Z 12006KT 080V160 CAVOK 20/14 Q1007=
201508250650 METAR ESMX 250650Z 13004KT 060V170 CAVOK 19/14 Q1007=
201508250620 METAR ESMX 250620Z 13004KT 070V180 CAVOK 19/14 Q1007=
201508250550 METAR ESMX 250550Z AUTO 12005KT 060V160 9999 FEW065/// 19/14 Q1007=
201508250520 METAR ESMX 250520Z 12005KT 070V160 CAVOK 18/14 Q1007=
201508250450 METAR ESMX 250450Z 09003KT 040V120 CAVOK 17/14 Q1007=
201508250420 METAR ESMX 250420Z 09003KT 050V130 CAVOK 17/13 Q1008=
201508250350 METAR ESMX 250350Z 09003KT 050V120 CAVOK 17/13 Q1008=
201508250320 METAR ESMX 250320Z AUTO VRB03KT 9999 NCD 16/13 Q1008=
201508250250 METAR ESMX 250250Z AUTO 09003KT 060V140 9999 NCD 16/14 Q1008=
201508250220 METAR ESMX 250220Z AUTO 11003KT 070V140 9999 NCD 16/13 Q1009=
201508250150 METAR ESMX 250150Z AUTO VRB03KT 9999 NCD 16/13 Q1009=
201508250120 METAR ESMX 250120Z AUTO 10004KT 070V140 9999 NCD 16/13 Q1009=
201508250050 METAR ESMX 250050Z AUTO VRB03KT 9999 NCD 16/13 Q1009=
201508250020 METAR ESMX 250020Z AUTO 09003KT 9999 NCD 16/13 Q1009=
201508242350 METAR ESMX 242350Z 07003KT 040V110 CAVOK 16/13 Q1010=
201508242320 METAR ESMX 242320Z VRB03KT CAVOK 16/13 Q1010=
201508242250 METAR ESMX 242250Z 09003KT 060V150 CAVOK 16/13 Q1010=
201508242220 METAR ESMX 242220Z 09003KT CAVOK 17/13 Q1010=
201508242150 METAR ESMX 242150Z VRB02KT CAVOK 17/13 Q1010=
201508242120 METAR ESMX 242120Z 08002KT CAVOK 17/13 Q1011=
201508242050 METAR COR ESMX 242050Z 08004KT 030V110 CAVOK 17/13 Q1011=
201508242020 METAR ESMX 242020Z 08003KT 020V150 CAVOK 18/13 Q1011=
201508241950 METAR ESMX 241950Z 09004KT 060V150 CAVOK 18/13 Q1011=
201508241920 METAR ESMX 241920Z 10004KT 030V160 CAVOK 19/13 Q1011=
201508241850 METAR ESMX 241850Z 10005KT 050V190 CAVOK 19/13 Q1011=
201508241820 METAR COR ESMX 241820Z 11005KT 060V170 CAVOK 20/13 Q1011=
201508241750 METAR ESMX 241750Z 11005KT 050V170 CAVOK 20/13 Q1011=
201508241720 METAR COR ESMX 241720Z 10006KT 060V140 CAVOK 19/13 Q1011=
201508241650 METAR ESMX 241650Z 09005KT 050V140 CAVOK 19/14 Q1011=
201508241620 METAR ESMX 241620Z 07005KT 030V100 CAVOK 18/15 Q1011=
201508241552 METAR ESMX 241552Z 07003KT 040V110 CAVOK 17/16 Q1012=
201508241520 METAR COR ESMX 241520Z VRB03KT 9999 -RA FEW028 BKN082 17/15 Q1012=
201508241450 METAR ESMX 241450Z 16011KT 9999 -SHRA SCT058 21/12 Q1013=
201508241420 METAR ESMX 241420Z 13010KT 080V170 CAVOK 23/10 Q1012=
201508241350 METAR ESMX 241350Z 12009KT 080V210 CAVOK 24/10 Q1012=
201508241320 METAR ESMX 241320Z 12010G21KT 080V180 CAVOK 24/11 Q1012=
201508241250 METAR ESMX 241250Z 12008KT 060V150 CAVOK 24/11 Q1012=
201508241220 METAR ESMX 241220Z 11009KT 060V180 CAVOK 24/11 Q1012=
201508241150 METAR ESMX 241150Z 12009KT 070V210 CAVOK 24/11 Q1012=
201508241120 METAR ESMX 241120Z 10010KT 050V160 CAVOK 24/12 Q1013=
201508241050 METAR ESMX 241050Z 09008KT 040V150 CAVOK 24/14 Q1013=
201508241020 METAR ESMX 241020Z 08010KT 040V120 CAVOK 23/15 Q1013=
201508240950 METAR ESMX 240950Z 07009KT 030V110 CAVOK 22/16 Q1014=
201508240920 METAR ESMX 240920Z 05008KT 360V080 CAVOK 20/16 Q1014=
201508240850 METAR ESMX 240850Z 04009KT CAVOK 19/16 Q1014=
201508240820 METAR ESMX 240820Z 04009KT 020V080 CAVOK 19/15 Q1015=
201508240750 METAR ESMX 240750Z 05004KT 340V110 CAVOK 17/15 Q1015=
201508240720 METAR ESMX 240720Z 04003KT 010V070 CAVOK 18/14 Q1015=
201508240650 METAR COR ESMX 240650Z 16003KT 040V210 9999 FEW015 BKN085 18/14 Q1016=
201508240620 METAR ESMX 240620Z 04007KT CAVOK 17/14 Q1015=
201508240550 METAR ESMX 240550Z 06006KT 020V110 CAVOK 17/15 Q1015=
201508240520 METAR ESMX 240520Z 06005KT 020V110 CAVOK 17/15 Q1016=
201508240450 METAR ESMX 240450Z 05006KT 020V100 CAVOK 16/14 Q1016=
201508240420 METAR ESMX 240420Z 05007KT 020V080 CAVOK 16/14 Q1016=
201508240350 METAR ESMX 240350Z 05006KT 010V100 CAVOK 16/14 Q1016=
201508240320 METAR ESMX 240320Z AUTO 05005KT 020V090 9999 NCD 16/14 Q1016=
201508240250 METAR ESMX 240250Z AUTO 04007KT 020V080 9999 NCD 16/14 Q1016=
201508240220 METAR ESMX 240220Z AUTO 04007KT 9999 NCD 16/14 Q1017=
201508240150 METAR ESMX 240150Z AUTO 05006KT 030V090 9999 NCD 16/14 Q1017=
201508240120 METAR ESMX 240120Z AUTO 03005KT 350V060 9999 NCD 16/14 Q1017=
201508240050 METAR ESMX 240050Z AUTO 05005KT 010V100 9999 NCD 16/14 Q1017=
201508240020 METAR ESMX 240020Z AUTO 06007KT 030V090 9999 NCD 16/14 Q1018=
201508232350 METAR ESMX 232350Z AUTO 07005KT 020V100 9999 NCD 16/14 Q1018=
201508232320 METAR ESMX 232320Z AUTO 06005KT 030V100 9999 NCD 17/14 Q1018=
201508232250 METAR COR ESMX 232250Z 04005KT 360V100 CAVOK 17/14 Q1019=
201508232220 METAR ESMX 232220Z 06006KT 020V110 CAVOK 17/14 Q1019=
201508232150 METAR ESMX 232150Z 07006KT 020V110 CAVOK 17/14 Q1019=
201508232120 METAR ESMX 232120Z 06007KT 010V090 CAVOK 17/14 Q1019=
201508232050 METAR ESMX 232050Z 06007KT 040V110 CAVOK 17/14 Q1019=
201508232020 METAR ESMX 232020Z 07006KT 040V120 CAVOK 17/13 Q1020=
201508231950 METAR COR ESMX 231950Z 05006KT 010V080 CAVOK 18/13 Q1020=
201508231920 METAR ESMX 231920Z 07007KT 010V120 CAVOK 18/13 Q1019=
201508231850 METAR ESMX 231850Z 04005KT 010V100 CAVOK 19/13 Q1020=
201508231820 METAR ESMX 231820Z 07006KT 030V140 CAVOK 20/13 Q1020=
201508231750 METAR COR ESMX 231750Z 08006KT 030V120 CAVOK 20/12 Q1020=
201508231720 METAR ESMX 231720Z 09007KT 050V120 CAVOK 21/11 Q1020=
201508231650 METAR ESMX 231650Z 08009KT 050V140 CAVOK 22/11 Q1020=
201508231620 METAR ESMX 231620Z 07007KT 030V130 CAVOK 22/12 Q1020=
201508231550 METAR COR ESMX 231550Z 08007KT 030V140 CAVOK 23/12 Q1020=
201508231520 METAR COR ESMX 231520Z 10007KT 060V150 CAVOK 23/11 Q1020=
201508231450 METAR ESMX 231450Z 07007KT 010V130 CAVOK 23/11 Q1020=
201508231420 METAR ESMX 231420Z 11007KT 060V150 CAVOK 23/11 Q1020=
201508231350 METAR ESMX 231350Z 10009KT 060V160 CAVOK 24/11 Q1020=
201508231320 METAR COR ESMX 231320Z 08008G19KT 030V120 CAVOK 23/12 Q1021=
201508231250 METAR ESMX 231250Z 07009KT 030V110 9999 FEW047 23/12 Q1021=
201508231220 METAR ESMX 231220Z AUTO 07009KT 030V110 9999 FEW047/// SCT072/// 23/12 Q1021=
201508231150 METAR ESMX 231150Z AUTO 08009KT 040V110 9999 FEW048/// SCT072/// 22/12 Q1021=
201508231120 METAR ESMX 231120Z AUTO 07009G19KT 020V140 9999 FEW044/// SCT053/// 22/11 Q1022=
201508231050 METAR ESMX 231050Z AUTO 08009KT 020V140 9999 FEW041/// 23/12 Q1022=
201508231020 METAR ESMX 231020Z AUTO 06009KT 020V100 9999 NCD 23/12 Q1022=
201508230950 METAR ESMX 230950Z AUTO 04008KT 010V080 9999 FEW062/// 22/11 Q1022=
201508230920 METAR ESMX 230920Z AUTO 06008KT 020V100 9999 NCD 21/12 Q1022=
201508230850 METAR ESMX 230850Z AUTO 05010KT 020V080 9999 NCD 21/12 Q1023=
201508230820 METAR ESMX 230820Z AUTO 04009KT 9999 NCD 20/11 Q1023=
201508230750 METAR ESMX 230750Z AUTO 05008KT 010V070 9999 NCD 19/12 Q1023=
201508230720 METAR ESMX 230720Z AUTO 04008KT 020V080 9999 NCD 18/12 Q1023=
201508230650 METAR ESMX 230650Z AUTO 04007KT 020V080 9999 NCD 17/11 Q1024=
201508230620 METAR ESMX 230620Z AUTO 03006KT 360V070 9999 NCD 15/12 Q1024=
201508230550 METAR ESMX 230550Z AUTO 02006KT 9999 NCD 14/12 Q1024=
201508230520 METAR ESMX 230520Z AUTO 03007KT 9999 NCD 13/12 Q1024=
201508230450 METAR ESMX 230450Z AUTO 02004KT 9999 NCD 12/12 Q1024=
201508230420 METAR ESMX 230420Z AUTO 36003KT 0250 R01/P2000N R19/0325V0450N NCD 09/09 Q1024=
201508230350 METAR ESMX 230350Z AUTO 02003KT 7000 NCD 08/07 Q1024=
201508230320 METAR ESMX 230320Z AUTO 03004KT 0500 R01/P2000N R19/0600V0800N BR NCD 07/07 Q1024=
201508230250 METAR ESMX 230250Z AUTO 05002KT 9999 NCD 08/08 Q1024=
201508230220 METAR ESMX 230220Z AUTO 00000KT 7000 BR NCD 09/09 Q1024=
201508230150 METAR ESMX 230150Z AUTO 03003KT 9999 NCD 08/07 Q1025=
201508230120 METAR ESMX 230120Z AUTO 00000KT 0350 R01/P2000N R19/P2000N NCD 09/09 Q1025=
201508230050 METAR ESMX 230050Z AUTO 00000KT 4900 BR NCD 11/10 Q1025=
201508230020 METAR ESMX 230020Z AUTO 00000KT 8000 BR NCD 09/09 Q1025=
201508222350 METAR ESMX 222350Z AUTO 00000KT 9999 NCD 09/09 Q1025=
201508222320 METAR ESMX 222320Z AUTO 00000KT 9999 NCD 10/09 Q1025=
201508222250 METAR ESMX 222250Z AUTO 00000KT 9999 NCD 10/10 Q1025=
201508222220 METAR ESMX 222220Z AUTO 00000KT 9999 NCD 11/10 Q1025=
201508222150 METAR ESMX 222150Z AUTO 09003KT 9999 NCD 14/11 Q1025=
201508222120 METAR ESMX 222120Z AUTO 10003KT 9999 NCD 14/11 Q1025=
201508222050 METAR ESMX 222050Z AUTO 11003KT 9999 NCD 14/11 Q1026=
201508222020 METAR ESMX 222020Z AUTO VRB03KT 9999 NCD 16/11 Q1025=
201508221950 METAR ESMX 221950Z AUTO VRB02KT 9999 NCD 17/11 Q1025=
201508221920 METAR ESMX 221920Z AUTO 12003KT 080V160 9999 NCD 18/11 Q1025=
201508221850 METAR ESMX 221850Z AUTO 13003KT 9999 NCD 18/10 Q1025=
201508221820 METAR ESMX 221820Z AUTO 14006KT 110V170 9999 NCD 20/10 Q1025=
201508221750 METAR ESMX 221750Z 14005KT CAVOK 21/09 Q1025=
201508221720 METAR ESMX 221720Z 14005KT 110V190 CAVOK 22/08 Q1025=
201508221650 METAR ESMX 221650Z 15003KT 100V190 CAVOK 23/07 Q1025=
201508221620 METAR ESMX 221620Z 13003KT 090V180 CAVOK 23/07 Q1025=
201508221550 METAR ESMX 221550Z 14003KT 090V200 CAVOK 23/07 Q1025=
201508221520 METAR ESMX 221520Z 13003KT 070V210 CAVOK 23/07 Q1025=
201508221450 METAR ESMX 221450Z 19006KT 150V230 CAVOK 23/07 Q1026=
201508221420 METAR ESMX 221420Z VRB03KT 300V130 CAVOK 23/06 Q1026=
201508221350 METAR COR ESMX 221350Z 18004KT 110V250 CAVOK 23/06 Q1026=
201508221320 METAR ESMX 221320Z AUTO 09004KT 350V140 9999 NCD 23/06 Q1026=
201508221250 METAR ESMX 221250Z 09005KT 030V130 CAVOK 23/06 Q1026=
201508221220 METAR ESMX 221220Z 05007KT 020V100 CAVOK 23/06 Q1026=
201508221150 METAR COR ESMX 221150Z VRB05KT 360V360 CAVOK 22/06 Q1027=
201508221120 METAR ESMX 221120Z VRB04KT 360V360 CAVOK 22/07 Q1027=
201508221050 METAR ESMX 221050Z VRB06KT 310V130 CAVOK 22/08 Q1027=
201508221020 METAR ESMX 221020Z AUTO 09003KT 9999 NCD 22/08 Q1027=
201508220950 METAR ESMX 220950Z AUTO VRB03KT 9999 NCD 21/08 Q1027=
201508220920 METAR ESMX 220920Z AUTO 19006KT 130V210 9999 NCD 22/09 Q1027=
201508220850 METAR ESMX 220850Z AUTO 18005KT 100V220 9999 NCD 21/08 Q1027=
201508220820 METAR COR ESMX 220820Z 14004KT 070V200 CAVOK 20/09 Q1028=
201508220750 METAR ESMX 220750Z VRB02KT CAVOK 19/09 Q1028=
201508220720 METAR ESMX 220720Z 10003KT CAVOK 18/09 Q1028=
201508220650 METAR ESMX 220650Z AUTO VRB02KT 9999 NCD 18/10 Q1028=
201508220620 METAR ESMX 220620Z AUTO 00000KT 9999 NCD 16/12 Q1028=
201508220550 METAR ESMX 220550Z AUTO 00000KT 9999 NCD 14/12 Q1028=
201508220520 METAR ESMX 220520Z AUTO 00000KT 9999 NCD 10/09 Q1028=
201508220450 METAR ESMX 220450Z AUTO 00000KT 0650 R01/P2000N R19/P2000N BCFG NCD 07/07 Q1028=
201508220420 METAR ESMX 220420Z AUTO 00000KT 0250 R01/P2000N R19/0175VP2000U NCD 06/06 Q1028=
201508220350 METAR ESMX 220350Z AUTO 00000KT 9999 BCFG NCD 06/06 Q1028=
201508220320 METAR ESMX 220320Z AUTO 00000KT 0250 R01/P2000N R19/P2000N BCFG NCD 06/06 Q1028=
201508220250 METAR ESMX 220250Z AUTO 00000KT 0900 R01/P2000N R19/P2000N BR NCD 07/06 Q1028=
201508220220 METAR ESMX 220220Z AUTO 00000KT 1600 BR NCD 07/07 Q1028=
201508220150 METAR ESMX 220150Z AUTO 00000KT 9999 NCD 07/07 Q1028=
201508220120 METAR ESMX 220120Z AUTO 00000KT 9999 NCD 08/07 Q1028=
201508220050 METAR ESMX 220050Z AUTO 00000KT 9999 NCD 08/07 Q1028=
201508220020 METAR ESMX 220020Z AUTO 00000KT 9999 NCD 08/08 Q1028=
201508212350 METAR ESMX 212350Z AUTO 00000KT 9999 NCD 08/08 Q1028=
201508212320 METAR ESMX 212320Z AUTO 00000KT 9999 NCD 09/08 Q1028=
201508212250 METAR ESMX 212250Z AUTO 00000KT 9999 NCD 10/09 Q1028=
201508212220 METAR ESMX 212220Z AUTO 14003KT 9999 NCD 11/10 Q1028=
201508212150 METAR ESMX 212150Z AUTO 16005KT 9999 NCD 11/09 Q1028=
201508212120 METAR ESMX 212120Z AUTO 16004KT 9999 NCD 12/09 Q1028=
201508212050 METAR ESMX 212050Z AUTO 16005KT 9999 NCD 15/09 Q1028=
201508212020 METAR ESMX 212020Z AUTO 15003KT 9999 NCD 14/10 Q1028=
201508211950 METAR ESMX 211950Z AUTO 16004KT 9999 NCD 17/09 Q1028=
201508211920 METAR ESMX 211920Z AUTO 16005KT 9999 NCD 17/10 Q1028=
201508211850 METAR ESMX 211850Z AUTO 17004KT 9999 SCT064/// 18/10 Q1028=
201508211820 METAR ESMX 211820Z AUTO 16005KT 9999 NCD 17/11 Q1028=
201508211750 METAR ESMX 211750Z AUTO 17002KT 9999 NCD 19/11 Q1027=
201508211720 METAR ESMX 211720Z 15003KT CAVOK 21/10 Q1027=
201508211650 METAR ESMX 211650Z 00000KT CAVOK 22/10 Q1027=
201508211620 METAR ESMX 211620Z VRB01KT CAVOK 21/11 Q1027=
201508211550 METAR ESMX 211550Z 16004KT 090V200 CAVOK 23/07 Q1027=
201508211520 METAR ESMX 211520Z 10005KT 040V140 CAVOK 23/08 Q1028=
201508211450 METAR ESMX 211450Z 17004KT 090V220 CAVOK 23/06 Q1028=
201508211420 METAR ESMX 211420Z 16004KT 080V240 CAVOK 23/07 Q1028=
201508211350 METAR ESMX 211350Z 19006KT 130V230 CAVOK 23/07 Q1028=
201508211320 METAR ESMX 211320Z 13004KT 060V180 CAVOK 23/07 Q1028=
201508211250 METAR ESMX 211250Z 10006KT 070V150 CAVOK 23/08 Q1029=
201508211220 METAR ESMX 211220Z VRB04KT 030V350 CAVOK 22/08 Q1029=
201508211150 METAR ESMX 211150Z VRB03KT 020V230 CAVOK 22/08 Q1029=
201508211120 METAR ESMX 211120Z 16004KT 100V220 CAVOK 21/08 Q1029=
201508211050 METAR ESMX 211050Z 09003KT 330V150 CAVOK 21/09 Q1029=
201508211020 METAR ESMX 211020Z VRB05KT 320V210 CAVOK 21/09 Q1030=
201508210950 METAR ESMX 210950Z 16004KT 070V250 CAVOK 20/10 Q1030=
201508210920 METAR COR ESMX 210920Z 15004KT 060V180 CAVOK 19/11 Q1030=
201508210850 METAR ESMX 210850Z 09004KT 030V130 CAVOK 18/12 Q1030=
201508210820 METAR ESMX 210820Z VRB03KT 300V140 9999 FEW007 17/13 Q1030=
201508210750 METAR ESMX 210750Z 04004KT 350V150 9999 FEW005 SCT007 16/12 Q1030=
201508210720 METAR ESMX 210720Z 09003KT 020V140 9999 FEW003 SCT004 14/12 Q1030=
201508210650 METAR ESMX 210650Z VRB03KT 9999 SCT001 BKN005 13/13 Q1030=
201508210620 METAR ESMX 210620Z 10003KT 050V150 4000 BCFG OVC002 13/13 Q1030=
201508210550 METAR ESMX 210550Z 11003KT 050V150 0900 R01/0900V1700U R19/0800V1300N FG VV002 12/12 Q1030=
201508210520 METAR ESMX 210520Z 12003KT 080V200 0200 R01/0400V0700U R19/0400N FG VV002 12/12 Q1030=
201508210450 METAR ESMX 210450Z 12003KT 080V160 0250 R01/0500N R19/0650V1100N FG VV003 12/12 Q1030=
201508210420 METAR COR ESMX 210420Z VRB03KT 0900 R01/0650N R19/P2000N FG VV003 07/06 Q1030=
201508210350 METAR ESMX 210350Z AUTO 08002KT 0350 R01/P2000N R19/0450V1200U NCD 05/05 Q1029=
201508210320 METAR ESMX 210320Z AUTO 08002KT 0150 R01/P2000N R19/0350V0650N FEW005/// 06/06 Q1029=
201508210250 METAR ESMX 210250Z AUTO 00000KT 0350 R01/P2000N R19/P2000D FEW005/// 06/06 Q1029=
201508210220 METAR ESMX 210220Z AUTO 06002KT 1700 BCFG FEW005/// 06/05 Q1029=
201508210150 METAR ESMX 210150Z AUTO 00000KT 9999 NCD 06/06 Q1030=
201508210120 METAR ESMX 210120Z AUTO VRB02KT 9999 NCD 08/07 Q1030=
201508210050 METAR ESMX 210050Z AUTO VRB02KT 2300 BR NCD 08/07 Q1030=
201508210020 METAR ESMX 210020Z AUTO 10003KT 9999 NCD 11/10 Q1030=
201508202350 METAR ESMX 202350Z 09003KT CAVOK 09/08 Q1030=
201508202320 METAR ESMX 202320Z 10003KT CAVOK 09/08 Q1030=
201508202250 METAR ESMX 202250Z 11003KT CAVOK 11/10 Q1030=
201508202220 METAR ESMX 202220Z 10003KT CAVOK 12/10 Q1030=
201508202150 METAR ESMX 202150Z 11003KT CAVOK 12/10 Q1030=
201508202120 METAR ESMX 202120Z 11003KT CAVOK 13/10 Q1029=
201508202050 METAR ESMX 202050Z 14003KT 100V170 CAVOK 15/10 Q1029=
201508202020 METAR ESMX 202020Z 15004KT CAVOK 15/10 Q1029=
201508201950 METAR ESMX 201950Z 15004KT 120V190 CAVOK 16/10 Q1029=
201508201920 METAR ESMX 201920Z 15005KT CAVOK 17/10 Q1029=
201508201850 METAR ESMX 201850Z 15006KT 120V200 CAVOK 19/09 Q1028=
201508201820 METAR ESMX 201820Z 14006KT 100V170 CAVOK 20/09 Q1028=
201508201750 METAR ESMX 201750Z 14006KT 110V170 CAVOK 21/09 Q1028=
201508201720 METAR ESMX 201720Z 15006KT CAVOK 22/08 Q1028=
201508201650 METAR ESMX 201650Z AUTO 16006KT 110V190 9999 NCD 22/08 Q1027=
201508201620 METAR ESMX 201620Z 17006KT CAVOK 23/07 Q1027=
201508201550 METAR COR ESMX 201550Z 16005KT CAVOK 22/08 Q1027=
201508201520 METAR ESMX 201520Z 17006KT 110V210 CAVOK 23/08 Q1027=
201508201450 METAR COR ESMX 201450Z 17006KT CAVOK 23/06 Q1028=
201508201420 METAR COR ESMX 201420Z 17006KT 120V200 CAVOK 24/07 Q1028=
201508201350 METAR COR ESMX 201350Z 18008KT 150V210 9999 FEW040 24/08 Q1028=
201508201320 METAR COR ESMX 201320Z 17006KT 140V200 9999 FEW040 24/07 Q1028=
201508201250 METAR ESMX 201250Z 12007KT 060V160 CAVOK 24/08 Q1028=
201508201220 METAR ESMX 201220Z 13006KT 070V170 CAVOK 24/08 Q1028=
201508201150 METAR ESMX 201150Z 13007KT 030V180 CAVOK 23/08 Q1028=
201508201120 METAR ESMX 201120Z 12007KT 070V170 CAVOK 23/08 Q1028=
201508201050 METAR ESMX 201050Z 11007KT 060V180 CAVOK 23/10 Q1028=
201508201020 METAR COR ESMX 201020Z 14009KT 100V170 CAVOK 22/09 Q1028=
201508200950 METAR ESMX 200950Z 12008KT 070V160 CAVOK 22/09 Q1028=
201508200920 METAR COR ESMX 200920Z 12007KT 060V170 CAVOK 21/09 Q1028=
201508200850 METAR ESMX 200850Z 11007KT 050V160 CAVOK 21/10 Q1028=
201508200820 METAR ESMX 200820Z 12008KT 040V160 CAVOK 20/10 Q1028=
201508200750 METAR ESMX 200750Z 13006KT 090V160 CAVOK 19/11 Q1028=
201508200720 METAR ESMX 200720Z 10006KT 070V210 CAVOK 18/11 Q1028=
201508200650 METAR ESMX 200650Z 11005KT 060V160 CAVOK 18/12 Q1028=
201508200620 METAR ESMX 200620Z 11004KT 050V160 CAVOK 16/13 Q1028=
201508200550 METAR ESMX 200550Z 07004KT 020V120 CAVOK 15/12 Q1028=
201508200520 METAR ESMX 200520Z 07005KT 010V140 CAVOK 14/12 Q1028=
201508200450 METAR ESMX 200450Z 06004KT 010V100 CAVOK 13/12 Q1028=
201508200420 METAR ESMX 200420Z 06005KT 020V100 CAVOK 13/12 Q1027=
201508200350 METAR ESMX 200350Z 07004KT 030V110 CAVOK 13/12 Q1027=
201508200320 METAR ESMX 200320Z AUTO 07003KT 030V100 9999 NCD 12/12 Q1027=
201508200250 METAR ESMX 200250Z AUTO 06004KT 020V100 9999 NCD 12/12 Q1027=
201508200220 METAR ESMX 200220Z AUTO 07003KT 030V110 9999 NCD 12/11 Q1027=
201508200150 METAR ESMX 200150Z AUTO 07004KT 010V130 9999 NCD 12/11 Q1027=
201508200120 METAR ESMX 200120Z AUTO 07004KT 030V130 9999 NCD 12/11 Q1027=
201508200050 METAR ESMX 200050Z AUTO 07004KT 040V110 9999 NCD 12/11 Q1027=
201508200020 METAR ESMX 200020Z AUTO 07003KT 020V110 9999 NCD 12/11 Q1027=
201508192350 METAR ESMX 192350Z 08003KT 030V120 CAVOK 12/11 Q1027=
201508192320 METAR ESMX 192320Z 07003KT 020V140 CAVOK 12/11 Q1027=
201508192250 METAR ESMX 192250Z 08003KT 030V120 CAVOK 13/11 Q1027=
201508192220 METAR ESMX 192220Z 08004KT 030V120 CAVOK 13/11 Q1027=
201508192150 METAR ESMX 192150Z 07004KT 030V110 CAVOK 13/10 Q1027=
201508192120 METAR ESMX 192120Z 08004KT 050V120 CAVOK 14/10 Q1027=
201508192050 METAR ESMX 192050Z 08004KT 050V120 CAVOK 14/10 Q1027=
201508192020 METAR ESMX 192020Z 09004KT 060V140 CAVOK 15/10 Q1027=
201508191950 METAR ESMX 191950Z 09004KT 050V130 CAVOK 15/09 Q1027=
201508191920 METAR ESMX 191920Z 10004KT 060V130 CAVOK 16/09 Q1027=
201508191850 METAR ESMX 191850Z 09004KT 060V150 CAVOK 17/09 Q1026=
201508191820 METAR ESMX 191820Z 12003KT 050V160 CAVOK 18/09 Q1026=
201508191750 METAR ESMX 191750Z 09005KT 050V150 CAVOK 19/08 Q1025=
201508191720 METAR COR ESMX 191720Z 10007KT 060V130 CAVOK 19/08 Q1025=
201508191650 METAR ESMX 191650Z 11007KT 070V160 CAVOK 20/08 Q1025=
201508191620 METAR ESMX 191620Z AUTO 07007KT 030V120 9999 NCD 20/08 Q1025=
201508191550 METAR ESMX 191550Z 08007KT 050V140 CAVOK 21/07 Q1025=
201508191520 METAR ESMX 191520Z 07009KT 040V120 CAVOK 21/06 Q1025=
201508191450 METAR ESMX 191450Z 07008KT 030V110 CAVOK 22/07 Q1025=
201508191420 METAR COR ESMX 191420Z 08009KT 050V130 CAVOK 22/06 Q1025=
201508191350 METAR ESMX 191350Z 08008KT 030V120 CAVOK 23/07 Q1025=
201508191320 METAR ESMX 191320Z 08009KT 030V130 CAVOK 23/09 Q1025=
201508191250 METAR ESMX 191250Z 07010KT 030V110 CAVOK 23/09 Q1025=
201508191220 METAR COR ESMX 191220Z 07007KT 030V120 CAVOK 23/09 Q1025=
201508191150 METAR ESMX 191150Z 10008KT 030V140 CAVOK 23/10 Q1025=
201508191120 METAR COR ESMX 191120Z 08006KT 030V170 CAVOK 22/10 Q1025=
201508191050 METAR ESMX 191050Z 06009KT 030V170 CAVOK 22/11 Q1025=
201508191020 METAR ESMX 191020Z 08007G18KT 020V130 9999 FEW041 21/10 Q1025=
201508190950 METAR ESMX 190950Z 08007KT 040V140 9999 FEW037 21/12 Q1025=
201508190920 METAR ESMX 190920Z 08007KT 040V140 CAVOK 21/12 Q1025=
201508190850 METAR ESMX 190850Z 05007KT 020V080 CAVOK 20/12 Q1025=
201508190820 METAR ESMX 190820Z 07007KT 030V120 CAVOK 19/12 Q1025=
201508190750 METAR ESMX 190750Z AUTO 06008KT 030V100 9999 NCD 18/13 Q1025=
201508190720 METAR ESMX 190720Z 05007KT 020V090 9999 FEW011 17/13 Q1025=
201508190650 METAR ESMX 190650Z 07007KT 030V150 9999 FEW008 BKN010 16/14 Q1025=
201508190620 METAR ESMX 190620Z 07007KT 020V110 9999 BKN006 15/13 Q1025=
201508190550 METAR ESMX 190550Z AUTO 06008KT 030V120 9999 SCT006/// 15/13 Q1025=
201508190520 METAR ESMX 190520Z 06006KT 030V100 9999 FEW006 14/13 Q1025=
201508190450 METAR ESMX 190450Z 05005KT 020V080 9999 SCT005 14/13 Q1025=
201508190420 METAR ESMX 190420Z 07005KT 040V110 9999 FEW005 13/13 Q1025=
201508190350 METAR ESMX 190350Z 07005KT 030V100 9999 FEW005 13/12 Q1024=
201508190320 METAR ESMX 190320Z AUTO 06005KT 020V090 9999 NCD 13/12 Q1024=
201508190250 METAR ESMX 190250Z AUTO 06007KT 9999 NCD 13/12 Q1024=
201508190220 METAR ESMX 190220Z AUTO 06007KT 040V100 9999 NCD 13/12 Q1024=
201508190150 METAR ESMX 190150Z AUTO 07007KT 020V100 9999 NCD 13/12 Q1024=
201508190120 METAR ESMX 190120Z AUTO 07005KT 030V100 9999 NCD 13/12 Q1024=
201508190050 METAR ESMX 190050Z 07006KT 040V110 CAVOK 13/11 Q1024=
201508190020 METAR ESMX 190020Z 07005KT 030V100 CAVOK 14/11 Q1024=
201508182350 METAR ESMX 182350Z 06006KT 030V110 CAVOK 13/11 Q1024=
201508182320 METAR ESMX 182320Z 06005KT 030V100 CAVOK 13/11 Q1024=
201508182250 METAR ESMX 182250Z 03004KT 360V070 CAVOK 13/10 Q1024=
201508182220 METAR ESMX 182220Z 05004KT 010V090 CAVOK 14/09 Q1024=
201508182150 METAR ESMX 182150Z 05004KT 020V080 CAVOK 14/09 Q1024=
201508182120 METAR ESMX 182120Z 06004KT 030V100 CAVOK 14/08 Q1024=
201508182050 METAR COR ESMX 182050Z 04003KT 350V120 CAVOK 14/07 Q1024=
201508182020 METAR ESMX 182020Z 07004KT 030V110 CAVOK 15/07 Q1024=
201508181950 METAR ESMX 181950Z 05005KT 350V080 CAVOK 15/06 Q1024=
201508181920 METAR ESMX 181920Z 07004KT CAVOK 16/06 Q1024=
201508181850 METAR COR ESMX 181850Z 08006KT 030V130 CAVOK 17/05 Q1024=
201508181820 METAR ESMX 181820Z 09005KT 060V150 CAVOK 18/05 Q1023=
201508181750 METAR ESMX 181750Z 09007KT 030V140 CAVOK 19/04 Q1023=
201508181720 METAR COR ESMX 181720Z 08007KT 360V120 CAVOK 19/05 Q1023=
201508181650 METAR ESMX 181650Z 09007G18KT 020V140 CAVOK 20/04 Q1023=
201508181621 METAR ESMX 181621Z 10008KT 030V140 CAVOK 21/04 Q1023=
201508181551 METAR ESMX 181551Z 08010KT 050V130 CAVOK 21/06 Q1023=
201508181522 METAR ESMX 181522Z 10010G20KT 070V160 CAVOK 21/05 Q1023=
201508181520 METAR ESMX 181520Z AUTO 10009G20KT 060V150 9999 NCD 21/05 Q1023=
201508181450 METAR ESMX 181450Z 11010G20KT 070V150 CAVOK 22/06 Q1023=
201508181420 METAR ESMX 181420Z VRB10KT 360V360 CAVOK 22/05 Q1023=
201508181350 METAR ESMX 181350Z 09009KT 030V140 CAVOK 22/07 Q1022=
201508181320 METAR ESMX 181320Z 08009KT 040V140 CAVOK 21/09 Q1022=
201508181250 METAR ESMX 181250Z 09010KT 050V120 CAVOK 22/09 Q1023=
201508181220 METAR ESMX 181220Z 07008KT 020V120 CAVOK 21/09 Q1022=
201508181150 METAR ESMX 181150Z 10011KT 060V150 CAVOK 22/11 Q1022=
201508181120 METAR ESMX 181120Z 08010KT 050V140 CAVOK 21/09 Q1022=
201508181050 METAR ESMX 181050Z 08011KT 030V140 CAVOK 21/09 Q1022=
201508181020 METAR ESMX 181020Z 08009KT 040V140 CAVOK 20/09 Q1022=
201508180950 METAR ESMX 180950Z 08009G20KT 040V120 CAVOK 20/09 Q1022=
201508180920 METAR ESMX 180920Z 07009KT 030V120 CAVOK 19/10 Q1022=
201508180850 METAR ESMX 180850Z 08009KT 030V120 CAVOK 19/10 Q1022=
201508180820 METAR ESMX 180820Z 08011G22KT 030V120 9999 FEW035 18/10 Q1022=
201508180750 METAR ESMX 180750Z 09010KT 060V140 9999 SCT026 18/11 Q1022=
201508180720 METAR ESMX 180720Z 09010KT 060V130 9999 BKN023 17/11 Q1022=
201508180650 METAR ESMX 180650Z 09010KT 050V140 9999 BKN021 17/11 Q1022=
201508180620 METAR ESMX 180620Z 08009KT 040V140 9999 SCT024 16/11 Q1022=
201508180550 METAR ESMX 180550Z 08007KT 030V120 9999 SCT025 16/12 Q1022=
201508180520 METAR ESMX 180520Z 07008G18KT 030V110 9999 SCT025 15/12 Q1022=
201508180450 METAR COR ESMX 180450Z 07006KT 050V120 9999 BKN025 14/12 Q1022=
201508180420 METAR ESMX 180420Z 07006KT 030V110 9999 BKN025 14/12 Q1022=
201508180350 METAR COR ESMX 180350Z 07006KT 030V110 9999 BKN025 14/12 Q1022=
201508180320 METAR ESMX 180320Z AUTO 07006KT 030V110 9999 BKN025/// 14/12 Q1022=
201508180250 METAR ESMX 180250Z AUTO 07007KT 030V110 9999 NCD 14/12 Q1022=
201508180220 METAR ESMX 180220Z AUTO 07006KT 020V120 9999 NCD 14/13 Q1022=
201508180150 METAR ESMX 180150Z AUTO 07006KT 9999 NCD 14/13 Q1021=
201508180120 METAR ESMX 180120Z AUTO 07006KT 020V120 9999 NCD 14/12 Q1022=
201508180050 METAR ESMX 180050Z AUTO 05006KT 9999 FEW011/// SCT014/// 14/12 Q1022=
201508180020 METAR ESMX 180020Z AUTO 06006KT 030V100 9999 BKN012/// 14/12 Q1022=
201508172350 METAR ESMX 172350Z AUTO 06007KT 030V100 9999 FEW014/// BKN019/// 14/12 Q1022=
201508172320 METAR ESMX 172320Z 07007KT 030V110 9999 FEW011 SCT014 BKN017 14/12 Q1022=
201508172250 METAR ESMX 172250Z 06008KT 040V170 9999 FEW015 14/12 Q1022=
201508172220 METAR COR ESMX 172220Z 05008KT 020V100 9999 FEW015 14/12 Q1022=
201508172150 METAR ESMX 172150Z 07008KT 040V110 9999 SCT020 15/11 Q1022=
201508172120 METAR ESMX 172120Z 06007KT 030V100 9999 SCT020 15/11 Q1022=
201508172050 METAR ESMX 172050Z 05007KT 020V100 9999 FEW023 SCT031 15/11 Q1022=
201508172020 METAR ESMX 172020Z 07008KT 050V110 9999 FEW027 BKN032 16/11 Q1022=
201508171950 METAR ESMX 171950Z 07009KT 030V120 9999 FEW025 BKN030 16/11 Q1022=
201508171920 METAR ESMX 171920Z AUTO 07009KT 030V120 9999 OVC032/// 16/10 Q1022=
201508171850 METAR ESMX 171850Z 06008KT 010V100 9999 FEW025 BKN030 17/11 Q1022=
201508171820 METAR COR ESMX 171820Z 05009KT 010V100 9999 FEW025 BKN035 17/11 Q1021=
201508171750 METAR ESMX 171750Z 06010KT 030V110 9999 FEW030 BKN035 17/11 Q1021=
201508171720 METAR ESMX 171720Z 06010KT 030V110 9999 FEW030 BKN040 18/11 Q1021=
201508171650 METAR ESMX 171650Z 06010KT 020V090 9999 FEW035 BKN042 18/11 Q1021=
201508171620 METAR ESMX 171620Z 06012KT 030V100 9999 FEW037 SCT044 19/11 Q1021=
201508171550 METAR ESMX 171550Z 07011KT 030V120 9999 SCT041 19/11 Q1021=
201508171520 METAR ESMX 171520Z 05010KT 020V100 9999 FEW042 SCT049 20/10 Q1021=
201508171450 METAR ESMX 171450Z 07009KT 020V130 9999 SCT043 21/10 Q1021=
201508171420 METAR ESMX 171420Z 05011KT 020V110 9999 SCT045 21/10 Q1021=
201508171350 METAR ESMX 171350Z 05011KT 330V100 9999 FEW043 SCT052 22/10 Q1021=
201508171320 METAR ESMX 171320Z 06011KT 030V110 9999 FEW048 22/11 Q1021=
201508171250 METAR ESMX 171250Z 07011KT 040V110 9999 SCT045 22/10 Q1021=
201508171220 METAR ESMX 171220Z 08009KT 030V120 9999 SCT043 22/11 Q1021=
201508171150 METAR ESMX 171150Z 08010KT 040V140 9999 SCT046 22/11 Q1021=
201508171120 METAR ESMX 171120Z 07011KT 020V120 9999 FEW040 SCT051 22/11 Q1021=
201508171050 METAR ESMX 171050Z 08010KT 030V120 9999 FEW036 SCT044 22/12 Q1021=
201508171020 METAR ESMX 171020Z 06010KT 020V110 9999 FEW037 21/11 Q1021=
201508170950 METAR ESMX 170950Z 07009KT 030V140 9999 FEW034 21/12 Q1021=
201508170920 METAR ESMX 170920Z 06010KT 030V130 CAVOK 20/13 Q1021=
201508170850 METAR ESMX 170850Z 06011KT CAVOK 20/13 Q1021=
201508170820 METAR ESMX 170820Z 05010KT 030V100 9999 FEW020 19/13 Q1021=
201508170750 METAR ESMX 170750Z 06010KT 030V100 9999 FEW018 19/13 Q1021=
201508170720 METAR ESMX 170720Z 06010KT 030V110 9999 SCT015 18/13 Q1021=
201508170650 METAR ESMX 170650Z 07010KT 030V110 9999 BKN014 17/13 Q1021=
201508170620 METAR ESMX 170620Z 06010KT 030V100 9999 BKN012 17/13 Q1020=
201508170550 METAR ESMX 170550Z 06010KT 030V110 9999 BKN011 16/14 Q1020=
201508170520 METAR ESMX 170520Z 05009KT 020V080 9999 BKN010 16/13 Q1020=
201508170450 METAR ESMX 170450Z 06009KT 030V100 9999 SCT010 15/13 Q1020=
201508170420 METAR ESMX 170420Z 05008KT 020V090 9999 FEW011 15/13 Q1020=
201508170350 METAR ESMX 170350Z AUTO 06008KT 030V100 9999 FEW009/// 14/13 Q1020=
201508170320 METAR ESMX 170320Z AUTO 06008KT 010V090 9999 NCD 14/13 Q1020=
201508170250 METAR ESMX 170250Z AUTO 05008KT 020V090 9999 NCD 15/13 Q1020=
201508170220 METAR ESMX 170220Z AUTO 05009G19KT 030V090 9999 NCD 14/13 Q1020=
201508170150 METAR ESMX 170150Z AUTO 05009KT 020V080 9999 NCD 15/13 Q1020=
201508170120 METAR ESMX 170120Z AUTO 05009KT 9999 NCD 15/13 Q1020=
201508170050 METAR ESMX 170050Z AUTO 06009KT 030V100 9999 NCD 15/13 Q1020=
201508170020 METAR ESMX 170020Z AUTO 06009KT 9999 NCD 15/12 Q1020=
201508162350 METAR ESMX 162350Z AUTO 06008KT 030V100 9999 NCD 15/12 Q1020=
201508162320 METAR ESMX 162320Z 06009KT 030V100 CAVOK 15/12 Q1020=
201508162250 METAR ESMX 162250Z 05010KT CAVOK 15/12 Q1020=
201508162220 METAR ESMX 162220Z 05009KT 020V090 CAVOK 15/12 Q1020=
201508162150 METAR ESMX 162150Z 05008KT CAVOK 16/12 Q1020=
201508162120 METAR ESMX 162120Z 05008KT CAVOK 16/12 Q1019=
201508162050 METAR ESMX 162050Z 06009KT 020V090 CAVOK 17/12 Q1019=
201508162020 METAR ESMX 162020Z 05008KT CAVOK 17/12 Q1019=
201508161950 METAR ESMX 161950Z 06008KT 030V110 CAVOK 18/13 Q1019=
201508161920 METAR ESMX 161920Z 05008KT 020V080 CAVOK 18/12 Q1019=
201508161850 METAR ESMX 161850Z 07006KT 050V110 CAVOK 19/11 Q1019=
201508161820 METAR ESMX 161820Z 08008KT 040V120 CAVOK 20/11 Q1018=
201508161750 METAR ESMX 161750Z 07009KT 030V110 CAVOK 20/09 Q1018=
201508161720 METAR ESMX 161720Z 08010KT 040V120 CAVOK 21/10 Q1018=
201508161650 METAR ESMX 161650Z 06009KT 020V100 CAVOK 22/10 Q1017=
201508161620 METAR ESMX 161620Z 09009KT 050V140 CAVOK 22/11 Q1017=
201508161550 METAR ESMX 161550Z 08010KT 050V110 CAVOK 22/11 Q1017=
201508161520 METAR ESMX 161520Z 08010KT 030V140 CAVOK 23/11 Q1017=
201508161450 METAR ESMX 161450Z 06009KT 020V120 CAVOK 24/11 Q1017=
201508161420 METAR ESMX 161420Z 07011KT 030V110 CAVOK 24/11 Q1017=
201508161350 METAR ESMX 161350Z 07010KT 030V140 CAVOK 24/11 Q1017=
201508161320 METAR ESMX 161320Z 09008KT 050V130 CAVOK 25/11 Q1017=
201508161250 METAR ESMX 161250Z 09009KT 020V160 CAVOK 24/10 Q1017=
201508161220 METAR ESMX 161220Z 09010G20KT 030V120 CAVOK 25/10 Q1017=
201508161150 METAR COR ESMX 161150Z 07010KT 030V110 CAVOK 25/11 Q1016=
201508161120 METAR ESMX 161120Z AUTO 09009KT 050V120 9999 SCT052/// 25/11 Q1016=
201508161050 METAR ESMX 161050Z AUTO 07011KT 030V110 9999 FEW048/// 24/12 Q1016=
201508161020 METAR ESMX 161020Z AUTO 08008KT 030V120 9999 FEW087/// 24/13 Q1016=
201508160950 METAR ESMX 160950Z AUTO 06009KT 020V120 9999 NCD 22/13 Q1016=
201508160920 METAR ESMX 160920Z AUTO 07010G20KT 030V110 9999 FEW100/// 22/14 Q1016=
201508160850 METAR ESMX 160850Z AUTO 04010KT 9999 FEW110/// 22/14 Q1016=
201508160820 METAR ESMX 160820Z AUTO 04008KT 020V080 9999 FEW110/// 20/14 Q1016=
201508160750 METAR ESMX 160750Z AUTO 06010KT 030V100 9999 FEW110/// 20/14 Q1016=
201508160720 METAR ESMX 160720Z AUTO 05008KT 020V080 9999 FEW110/// 19/14 Q1016=
201508160650 METAR ESMX 160650Z AUTO 05008KT 020V100 9999 FEW083/// 18/14 Q1015=
201508160620 METAR ESMX 160620Z AUTO 04008KT 360V070 9999 FEW066/// 18/14 Q1015=
201508160550 METAR ESMX 160550Z AUTO 04009KT 9999 FEW011/// 17/14 Q1015=
201508160520 METAR ESMX 160520Z AUTO 04010KT 020V080 9999 FEW009/// 17/14 Q1015=
201508160450 METAR ESMX 160450Z AUTO 05009KT 9999 SCT008/// 16/14 Q1015=
201508160420 METAR ESMX 160420Z AUTO 06008KT 030V090 9999 FEW007/// SCT009/// 16/14 Q1015=
201508160350 METAR ESMX 160350Z AUTO 05008KT 020V100 9999 BKN007/// 15/14 Q1015=
201508160320 METAR ESMX 160320Z AUTO 04007KT 9999 FEW007/// SCT110/// 15/14 Q1015=
201508160250 METAR ESMX 160250Z AUTO 05009KT 9999 NCD 15/14 Q1015=
201508160220 METAR ESMX 160220Z AUTO 06006KT 9999 SCT087/// 15/13 Q1015=
201508160150 METAR ESMX 160150Z AUTO 05006KT 020V100 9999 SCT094/// 16/14 Q1015=
201508160120 METAR ESMX 160120Z AUTO 06007KT 030V100 9999 BKN095/// 16/13 Q1015=
201508160050 METAR ESMX 160050Z AUTO 06007KT 030V100 9999 SCT093/// BKN100/// 16/13 Q1015=
201508160020 METAR ESMX 160020Z AUTO 06006KT 9999 NCD 16/13 Q1015=
201508152350 METAR ESMX 152350Z AUTO 07007KT 9999 NCD 16/13 Q1015=
201508152320 METAR ESMX 152320Z AUTO 05006KT 010V080 9999 NCD 16/13 Q1015=
201508152250 METAR ESMX 152250Z AUTO 07007KT 010V100 9999 NCD 16/12 Q1015=
201508152220 METAR ESMX 152220Z AUTO 06007KT 9999 NCD 16/12 Q1015=
201508152150 METAR ESMX 152150Z AUTO 04006KT 010V070 9999 NCD 16/11 Q1015=
201508152120 METAR ESMX 152120Z AUTO 07004KT 030V110 9999 NCD 17/11 Q1015=
201508152050 METAR ESMX 152050Z AUTO 08005KT 050V120 9999 NCD 17/11 Q1015=
201508152020 METAR ESMX 152020Z AUTO 06006KT 020V100 9999 NCD 17/11 Q1014=
201508151950 METAR ESMX 151950Z AUTO 07005KT 030V130 9999 NCD 18/11 Q1014=
201508151920 METAR ESMX 151920Z 08004KT 040V110 CAVOK 19/10 Q1014=
201508151850 METAR ESMX 151850Z 08004KT 320V140 CAVOK 19/10 Q1014=
201508151820 METAR ESMX 151820Z 09009KT 060V130 CAVOK 20/09 Q1014=
201508151750 METAR ESMX 151750Z 08008KT 050V120 CAVOK 21/10 Q1014=
201508151720 METAR ESMX 151720Z 09008KT 050V140 CAVOK 22/09 Q1013=
201508151650 METAR ESMX 151650Z 08008KT 040V130 CAVOK 23/10 Q1013=
201508151620 METAR ESMX 151620Z AUTO 10009KT 050V140 9999 NCD 23/11 Q1013=
201508151550 METAR ESMX 151550Z AUTO 10008KT 050V140 9999 NCD 24/11 Q1013=
201508151520 METAR ESMX 151520Z 08010KT 050V110 CAVOK 24/12 Q1013=
201508151450 METAR ESMX 151450Z 08010KT 050V120 CAVOK 24/11 Q1013=
201508151420 METAR ESMX 151420Z 08010G22KT 050V110 CAVOK 25/11 Q1013=
201508151350 METAR ESMX 151350Z 10008KT 050V140 CAVOK 25/12 Q1013=
201508151320 METAR ESMX 151320Z 11008KT 070V150 CAVOK 26/12 Q1013=
201508151250 METAR COR ESMX 151250Z 09008G19KT 050V140 CAVOK 25/12 Q1013=
201508151220 METAR ESMX 151220Z AUTO 11008G19KT 070V160 9999 NCD 25/12 Q1013=
201508151150 METAR ESMX 151150Z AUTO 09009KT 020V150 9999 NCD 25/12 Q1013=
201508151120 METAR ESMX 151120Z AUTO 10010KT 050V140 9999 NCD 25/12 Q1013=
201508151050 METAR ESMX 151050Z AUTO 10009KT 050V200 9999 NCD 25/12 Q1013=
201508151020 METAR ESMX 151020Z AUTO 09008KT 050V150 9999 NCD 25/13 Q1013=
201508150950 METAR ESMX 150950Z AUTO 10010KT 050V140 9999 NCD 24/13 Q1013=
201508150920 METAR ESMX 150920Z AUTO 09010KT 050V140 9999 NCD 24/13 Q1013=
201508150850 METAR ESMX 150850Z AUTO 09010KT 050V140 9999 NCD 23/13 Q1013=
201508150820 METAR ESMX 150820Z AUTO 10007KT 050V160 9999 NCD 23/13 Q1013=
201508150750 METAR ESMX 150750Z AUTO 08007KT 050V150 9999 NCD 22/14 Q1013=
201508150720 METAR ESMX 150720Z AUTO 08007KT 030V110 9999 NCD 20/14 Q1013=
201508150650 METAR ESMX 150650Z AUTO 06007KT 030V120 9999 NCD 19/14 Q1013=
201508150620 METAR ESMX 150620Z AUTO 07007KT 030V120 9999 NCD 18/14 Q1013=
201508150550 METAR ESMX 150550Z AUTO 08007KT 030V120 9999 NCD 17/13 Q1013=
201508150520 METAR ESMX 150520Z AUTO 07005KT 030V100 9999 NCD 16/13 Q1013=
201508150450 METAR ESMX 150450Z AUTO 07006KT 020V140 9999 NCD 15/13 Q1014=
201508150420 METAR ESMX 150420Z AUTO 06006KT 030V100 9999 NCD 15/13 Q1013=
201508150350 METAR ESMX 150350Z AUTO 06007KT 020V110 9999 NCD 14/13 Q1014=
201508150320 METAR ESMX 150320Z AUTO 06006KT 030V100 9999 FEW005/// 14/13 Q1014=
201508150250 METAR ESMX 150250Z AUTO 05005KT 030V090 9999 FEW006/// 14/13 Q1014=
201508150220 METAR ESMX 150220Z AUTO 04004KT 350V080 9999 FEW006/// 14/13 Q1015=
201508150150 METAR ESMX 150150Z AUTO 06006KT 020V100 9999 FEW005/// 14/13 Q1015=
201508150120 METAR ESMX 150120Z AUTO 04006KT 9999 FEW004/// SCT006/// 13/13 Q1015=
201508150050 METAR ESMX 150050Z AUTO 06004KT 030V100 9999 FEW005/// 13/12 Q1015=
201508150020 METAR ESMX 150020Z AUTO 04004KT 010V090 9999 NCD 13/12 Q1016=
201508142350 METAR ESMX 142350Z AUTO 04004KT 020V090 9999 NCD 13/12 Q1016=
201508142320 METAR ESMX 142320Z AUTO 06005KT 9999 NCD 12/12 Q1016=
201508142250 METAR ESMX 142250Z AUTO 07004KT 9999 NCD 13/11 Q1016=
201508142220 METAR ESMX 142220Z AUTO 07005KT 030V100 9999 NCD 13/11 Q1016=
201508142150 METAR ESMX 142150Z AUTO 08005KT 050V120 9999 NCD 13/10 Q1016=
201508142120 METAR ESMX 142120Z AUTO 07005KT 020V120 9999 NCD 13/10 Q1016=
201508142050 METAR ESMX 142050Z AUTO 08005KT 040V120 9999 NCD 14/10 Q1017=
201508142020 METAR ESMX 142020Z AUTO 09005KT 050V120 9999 NCD 14/08 Q1017=
201508141950 METAR ESMX 141950Z AUTO 09005KT 330V140 9999 NCD 15/08 Q1017=
201508141920 METAR ESMX 141920Z AUTO 09005KT 050V130 9999 NCD 15/06 Q1017=
201508141850 METAR ESMX 141850Z AUTO 09007KT 060V130 9999 NCD 17/04 Q1017=
201508141820 METAR ESMX 141820Z 08005KT 350V150 CAVOK 18/04 Q1017=
201508141750 METAR ESMX 141750Z 10007KT 060V160 CAVOK 19/03 Q1017=
201508141720 METAR ESMX 141720Z 10007KT 050V150 CAVOK 20/04 Q1017=
201508141650 METAR ESMX 141650Z 09006KT 050V150 CAVOK 20/04 Q1017=
201508141620 METAR ESMX 141620Z VRB07KT 320V160 CAVOK 21/04 Q1018=
201508141550 METAR ESMX 141550Z 12008KT 090V160 CAVOK 21/03 Q1018=
201508141520 METAR ESMX 141520Z 10009G20KT 060V150 CAVOK 22/03 Q1018=
201508141450 METAR ESMX 141450Z 11009KT 060V140 CAVOK 22/03 Q1018=
201508141420 METAR ESMX 141420Z 13008KT 080V170 CAVOK 22/04 Q1018=
201508141350 METAR ESMX 141350Z 13009KT 050V190 CAVOK 22/04 Q1019=
201508141320 METAR ESMX 141320Z 10007KT 040V170 CAVOK 23/04 Q1019=
201508141250 METAR ESMX 141250Z 11008KT 050V170 CAVOK 23/06 Q1019=
201508141220 METAR ESMX 141220Z 11009KT 060V150 CAVOK 22/05 Q1020=
201508141150 METAR ESMX 141150Z 10008KT 060V160 CAVOK 22/06 Q1020=
201508141120 METAR ESMX 141120Z 13008KT 060V190 CAVOK 22/07 Q1020=
201508141050 METAR ESMX 141050Z 11009KT 050V170 CAVOK 21/08 Q1020=
201508141020 METAR ESMX 141020Z 13009KT 070V170 CAVOK 20/09 Q1021=
201508140950 METAR ESMX 140950Z 11006KT 070V160 9999 FEW032 20/10 Q1021=
201508140920 METAR ESMX 140920Z 11009KT 060V160 9999 FEW032 20/11 Q1022=
201508140850 METAR ESMX 140850Z 12009KT 070V150 9999 FEW020 19/10 Q1022=
201508140820 METAR ESMX 140820Z 11008KT 070V160 9999 FEW015 19/09 Q1022=
201508140750 METAR ESMX 140750Z 10007KT 040V150 9999 FEW013 18/11 Q1022=
201508140720 METAR ESMX 140720Z 12007KT 080V170 9999 FEW010 17/12 Q1022=
201508140650 METAR ESMX 140650Z 10007KT 060V140 9999 FEW009 16/12 Q1022=
201508140620 METAR ESMX 140620Z 10005KT 030V150 9999 FEW009 15/13 Q1022=
201508140550 METAR ESMX 140550Z 08005KT 030V140 9999 FEW005 14/12 Q1022=
201508140520 METAR ESMX 140520Z 07005KT 350V120 CAVOK 13/12 Q1022=
201508140450 METAR ESMX 140450Z 08005KT 050V130 CAVOK 12/12 Q1022=
201508140420 METAR ESMX 140420Z 07004KT 030V100 CAVOK 12/12 Q1022=
201508140350 METAR ESMX 140350Z AUTO 05003KT 010V100 9999 NCD 11/11 Q1023=
201508140320 METAR ESMX 140320Z AUTO VRB02KT 1100 R01/0800VP2000N R19/P2000N NCD 10/10 Q1023=
201508140250 METAR ESMX 140250Z AUTO VRB02KT 1500 NCD 10/10 Q1023=
201508140220 METAR ESMX 140220Z AUTO VRB03KT 0650 R01/P2000N R19/P2000N BCFG NCD 11/10 Q1023=
201508140150 METAR ESMX 140150Z AUTO 07003KT 3400 BCFG NCD 11/11 Q1023=
201508140120 METAR ESMX 140120Z AUTO VRB03KT 0350 R01/P2000N R19/P2000N BCFG NCD 10/09 Q1023=
201508140050 METAR ESMX 140050Z AUTO 09002KT 2300 BR NCD 10/09 Q1024=
201508140020 METAR ESMX 140020Z AUTO VRB03KT 9999 NCD 10/10 Q1024=
201508132350 METAR ESMX 132350Z 06003KT 030V100 CAVOK 10/09 Q1024=
201508132320 METAR ESMX 132320Z VRB03KT CAVOK 10/09 Q1024=
201508132250 METAR ESMX 132250Z 10003KT CAVOK 10/09 Q1024=
201508132220 METAR ESMX 132220Z 14003KT CAVOK 11/09 Q1024=
201508132150 METAR ESMX 132150Z 10003KT 060V140 CAVOK 12/08 Q1023=
201508132120 METAR ESMX 132120Z VRB03KT CAVOK 12/07 Q1023=
201508132050 METAR ESMX 132050Z AUTO VRB03KT 9999 NCD 14/07 Q1023=
201508132020 METAR ESMX 132020Z 12003KT 060V160 CAVOK 15/06 Q1023=
201508131950 METAR ESMX 131950Z 10004KT 040V130 CAVOK 16/06 Q1023=
201508131920 METAR ESMX 131920Z 11004KT 070V160 CAVOK 17/08 Q1023=
201508131850 METAR ESMX 131850Z 10004KT 050V140 CAVOK 18/07 Q1023=
201508131820 METAR ESMX 131820Z 11005KT 080V150 CAVOK 19/07 Q1023=
201508131750 METAR ESMX 131750Z 11004KT 070V170 CAVOK 20/08 Q1023=
201508131723 METAR ESMX 131723Z 11005KT 060V180 9999 NSC 21/09 Q1023=
201508131720 METAR ESMX 131720Z AUTO 13005KT 090V170 9999 NCD 21/09 Q1023=
201508131650 METAR ESMX 131650Z 13006KT 080V160 CAVOK 22/10 Q1023=
201508131620 METAR ESMX 131620Z 13005KT 080V170 CAVOK 22/08 Q1023=
201508131550 METAR ESMX 131550Z 11006KT 070V150 CAVOK 23/09 Q1023=
201508131520 METAR ESMX 131520Z 11005KT 010V160 CAVOK 23/10 Q1024=
201508131450 METAR ESMX 131450Z 11004KT 070V160 CAVOK 22/10 Q1024=
201508131420 METAR ESMX 131420Z 09006KT 040V160 CAVOK 23/11 Q1024=
201508131350 METAR ESMX 131350Z 10005KT 030V160 CAVOK 23/10 Q1024=
201508131320 METAR ESMX 131320Z 06006KT 020V140 CAVOK 24/10 Q1024=
201508131250 METAR ESMX 131250Z 07007KT 020V110 CAVOK 22/10 Q1024=
201508131220 METAR ESMX 131220Z 07006KT 030V120 CAVOK 23/10 Q1024=
201508131150 METAR ESMX 131150Z 05007KT 360V080 9999 FEW047 23/10 Q1024=
201508131120 METAR COR ESMX 131120Z 05006KT 360V100 CAVOK 23/10 Q1024=
201508131050 METAR COR ESMX 131050Z 05008KT 020V090 9999 FEW043 22/11 Q1024=
201508131020 METAR ESMX 131020Z 08004KT 020V160 9999 FEW045 22/11 Q1025=
201508130950 METAR ESMX 130950Z 05007KT 020V110 CAVOK 21/10 Q1025=
201508130920 METAR ESMX 130920Z 04006KT 010V110 CAVOK 21/11 Q1024=
201508130850 METAR ESMX 130850Z 05006KT 020V100 CAVOK 20/11 Q1025=
201508130820 METAR COR ESMX 130820Z 03004KT 330V080 CAVOK 19/12 Q1025=
201508130750 METAR COR ESMX 130750Z 06005KT 020V110 CAVOK 18/12 Q1024=
201508130720 METAR ESMX 130720Z 04005KT 010V100 CAVOK 17/12 Q1024=
201508130650 METAR ESMX 130650Z 05005KT 030V090 CAVOK 16/12 Q1024=
201508130620 METAR ESMX 130620Z 04006KT 350V070 CAVOK 15/11 Q1024=
201508130550 METAR ESMX 130550Z 03006KT CAVOK 13/11 Q1024=
201508130520 METAR ESMX 130520Z 01003KT CAVOK 11/11 Q1024=
201508130450 METAR ESMX 130450Z 36003KT CAVOK 08/08 Q1024=
201508130420 METAR ESMX 130420Z VRB02KT 5000 BCFG NSC 06/06 Q1024=
201508130350 METAR ESMX 130350Z AUTO 00000KT 0300 R01/0450N R19/0500N FG NCD 05/05 Q1023=
201508130320 METAR ESMX 130320Z AUTO 00000KT 1200 R01/P2000N R19/P2000N NCD 05/05 Q1023=
201508130250 METAR ESMX 130250Z AUTO VRB02KT 3600 BR NCD 07/07 Q1023=
201508130220 METAR ESMX 130220Z AUTO 27002KT 9999 NCD 07/07 Q1023=
201508130150 METAR ESMX 130150Z AUTO 30004KT 9999 NCD 07/07 Q1023=
201508130120 METAR ESMX 130120Z AUTO 30003KT 9999 NCD 07/07 Q1023=
201508130050 METAR ESMX 130050Z AUTO 30001KT 9999 NCD 09/09 Q1023=
201508130020 METAR ESMX 130020Z AUTO 30003KT 9999 NCD 09/09 Q1023=
201508122350 METAR ESMX 122350Z 31003KT CAVOK 09/09 Q1023=
201508122320 METAR ESMX 122320Z 31003KT CAVOK 10/09 Q1023=
201508122250 METAR ESMX 122250Z 30004KT CAVOK 11/10 Q1023=
201508122223 METAR ESMX 122223Z 30004KT CAVOK 11/10 Q1023=
201508122220 METAR ESMX 122220Z AUTO 30004KT 9999 NCD 12/10 Q1023=
201508122150 METAR ESMX 122150Z 26004KT CAVOK 13/10 Q1023=
201508122120 METAR ESMX 122120Z 27005KT CAVOK 13/10 Q1022=
201508122050 METAR ESMX 122050Z 26005KT CAVOK 13/11 Q1022=
201508122020 METAR ESMX 122020Z 26005KT CAVOK 14/11 Q1022=
201508121950 METAR ESMX 121950Z 25004KT CAVOK 14/11 Q1022=
201508121920 METAR ESMX 121920Z 25004KT CAVOK 15/11 Q1022=
201508121850 METAR ESMX 121850Z 26005KT CAVOK 16/11 Q1021=
201508121820 METAR ESMX 121820Z AUTO 27007KT 9999 NCD 18/11 Q1021=
201508121750 METAR ESMX 121750Z 27006KT CAVOK 19/11 Q1021=
201508121723 METAR ESMX 121723Z 26007KT CAVOK 20/11 Q1021=
201508121720 METAR ESMX 121720Z AUTO 26007KT 9999 NCD 20/11 Q1021=
201508121650 METAR ESMX 121650Z 27008KT CAVOK 21/10 Q1021=
201508121620 METAR ESMX 121620Z 27009KT CAVOK 21/10 Q1021=
201508121550 METAR ESMX 121550Z 27007KT 230V300 CAVOK 22/11 Q1021=
201508121520 METAR ESMX 121520Z 24007KT 9999 FEW040 21/12 Q1021=
201508121450 METAR ESMX 121450Z 27008KT 9999 FEW039 21/12 Q1021=
201508121420 METAR ESMX 121420Z 24007KT 200V280 CAVOK 21/11 Q1021=
201508121350 METAR ESMX 121350Z 24006KT 200V290 CAVOK 21/13 Q1021=
201508121320 METAR ESMX 121320Z 27006KT CAVOK 21/12 Q1021=
201508121250 METAR ESMX 121250Z 26008KT 230V290 CAVOK 21/12 Q1022=
201508121220 METAR ESMX 121220Z 28007KT 250V320 CAVOK 20/12 Q1022=
201508121150 METAR ESMX 121150Z 28007KT CAVOK 19/09 Q1022=
201508121120 METAR ESMX 121120Z 29007KT CAVOK 19/11 Q1022=
201508121050 METAR ESMX 121050Z 23006KT CAVOK 19/11 Q1022=
201508121020 METAR ESMX 121020Z 25004KT 230V290 CAVOK 19/13 Q1022=
201508120950 METAR ESMX 120950Z 30004KT 250V350 CAVOK 19/12 Q1022=
201508120920 METAR ESMX 120920Z 28005KT CAVOK 19/12 Q1022=
201508120850 METAR ESMX 120850Z 31006KT 9999 FEW025 19/14 Q1022=
201508120820 METAR ESMX 120820Z 29005KT 250V330 9999 FEW007 SCT097 18/15 Q1021=
201508120750 METAR ESMX 120750Z 28004KT 9999 FEW009 17/15 Q1021=
201508120720 METAR ESMX 120720Z 27004KT CAVOK 17/15 Q1022=
201508120650 METAR ESMX 120650Z 00000KT CAVOK 16/16 Q1021=
201508120620 METAR ESMX 120620Z 00000KT CAVOK 16/15 Q1021=
201508120550 METAR ESMX 120550Z VRB03KT CAVOK 15/15 Q1021=
201508120520 METAR ESMX 120520Z 27002KT CAVOK 15/15 Q1021=
201508120450 METAR ESMX 120450Z 29002KT CAVOK 13/13 Q1021=
201508120420 METAR ESMX 120420Z 00000KT CAVOK 13/12 Q1021=
201508120350 METAR ESMX 120350Z 00000KT 7000 BCFG NSC 11/11 Q1021=
201508120320 METAR ESMX 120320Z AUTO 00000KT 0400 R01/P2000N R19/P2000N BCFG NCD 12/12 Q1020=
201508120250 METAR ESMX 120250Z AUTO 00000KT 0200 R01/P2000N R19/P2000D BCFG NCD 12/12 Q1020=
201508120220 METAR ESMX 120220Z AUTO 33002KT 0450 R01/P2000N R19/P2000D BR NCD 11/11 Q1020=
201508120150 METAR ESMX 120150Z AUTO 00000KT 2400 NCD 12/12 Q1021=
201508120120 METAR ESMX 120120Z 00000KT 5000 BCFG NSC 13/12 Q1021=
201508120050 METAR ESMX 120050Z 18001KT 0650 R01/0800V1300N R19/P2000N BCFG NSC 13/13 Q1021=
201508120020 METAR ESMX 120020Z 00000KT CAVOK 13/13 Q1020=
201508112350 METAR ESMX 112350Z 00000KT 6000 BR NSC 14/14 Q1021=
201508112320 METAR ESMX 112320Z 00000KT 6000 BR FEW029 13/13 Q1020=
201508112250 METAR ESMX 112250Z 28002KT 8000 BCFG NSC 13/12 Q1020=
201508112220 METAR ESMX 112220Z 00000KT 5000 BCFG NSC 13/13 Q1020=
201508112150 METAR ESMX 112150Z 00000KT 0450 R01/P2000D R19/P2000N FG NSC 13/13 Q1020=
201508112120 METAR ESMX 112120Z 00000KT CAVOK 14/13 Q1020=
201508112050 METAR ESMX 112050Z 00000KT CAVOK 15/14 Q1020=
201508112020 METAR ESMX 112020Z 00000KT 7000 BR NSC 14/14 Q1020=
201508111950 METAR COR ESMX 111950Z 00000KT 7000 BR NSC 16/15 Q1020=
201508111920 METAR ESMX 111920Z VRB01KT CAVOK 16/15 Q1020=
201508111850 METAR ESMX 111850Z 00000KT CAVOK 16/15 Q1019=
201508111820 METAR ESMX 111820Z 00000KT CAVOK 18/16 Q1019=
201508111750 METAR COR ESMX 111750Z VRB03KT CAVOK 19/16 Q1019=
201508111720 METAR ESMX 111720Z 31002KT CAVOK 21/15 Q1019=
201508111650 METAR ESMX 111650Z VRB02KT CAVOK 21/15 Q1019=
201508111620 METAR ESMX 111620Z VRB03KT CAVOK 20/16 Q1019=
201508111550 METAR ESMX 111550Z 29003KT CAVOK 20/15 Q1019=
201508111520 METAR ESMX 111520Z 02004KT 340V040 CAVOK 20/15 Q1019=
201508111450 METAR ESMX 111450Z 01004KT CAVOK 20/16 Q1019=
201508111420 METAR ESMX 111420Z 32003KT 280V020 CAVOK 19/16 Q1019=
201508111350 METAR ESMX 111350Z 32003KT 9999 FEW041 BKN050 19/16 Q1019=
201508111320 METAR COR ESMX 111320Z 31005KT 9999 FEW020 BKN040 19/16 Q1019=
201508111250 METAR COR ESMX 111250Z 31004KT 9999 FEW018 SCT046 BKN120 19/17 Q1019=
201508111220 METAR ESMX 111220Z 25004KT 9999 -RA FEW021 SCT051 BKN120 19/14 Q1019=
201508111153 METAR ESMX 111153Z 23004KT 160V280 9999 FEW018 SCT059 20/15 Q1019=
201508111150 METAR ESMX 111150Z AUTO VRB03KT 9999 FEW018/// SCT069/// 20/15 Q1019=
201508111120 METAR ESMX 111120Z VRB03KT CAVOK 20/16 Q1018=
201508111050 METAR ESMX 111050Z 16003KT 110V210 9999 -RA FEW100 19/16 Q1018=
201508111020 METAR ESMX 111020Z 11005KT 060V160 9999 -RA FEW016 19/15 Q1018 RERA=
201508110950 METAR ESMX 110950Z 09004KT 050V120 9999 FEW018 SCT081 BKN092 19/15 Q1018=
201508110920 METAR ESMX 110920Z 19007KT 150V210 9999 SCT016 SCT084 19/16 Q1019=
201508110850 METAR ESMX 110850Z 17004KT 110V220 9999 FEW005 BKN089 19/15 Q1019 RERA=
201508110820 METAR ESMX 110820Z 12004KT 060V170 9999 FEW013 BKN089 18/15 Q1019=
201508110750 METAR ESMX 110750Z 11004KT 070V160 9999 SCT010 SCT084 18/15 Q1019=
201508110720 METAR ESMX 110720Z AUTO 07001KT 9999 FEW008/// BKN087/// 17/15 Q1019=
201508110650 METAR ESMX 110650Z 09003KT 330V120 9999 SCT007 SCT088 17/15 Q1019=
201508110620 METAR ESMX 110620Z 10004KT 050V140 9999 FEW005 16/15 Q1018 RERA=
201508110550 METAR ESMX 110550Z 09004KT 060V140 9999 FEW001 SCT003 BKN085 16/15 Q1018=
201508110520 METAR ESMX 110520Z 12005KT 070V160 8000 BR FEW002 OVC003 15/14 Q1019=
201508110450 METAR ESMX 110450Z 12005KT 080V150 9999 BKN005 15/14 Q1019=
201508110420 METAR ESMX 110420Z 10003KT 030V150 9999 FEW005 BKN089 15/13 Q1019=
201508110350 METAR COR ESMX 110350Z VRB02KT CAVOK 15/13 Q1019=
201508110320 METAR ESMX 110320Z AUTO VRB03KT 9999 BKN088/// BKN100/// 15/14 Q1019=
201508110250 METAR ESMX 110250Z AUTO 00000KT 9999 FEW100/// 12/11 Q1019=
201508110220 METAR ESMX 110220Z AUTO 00000KT 9999 FEW092/// 13/12 Q1019=
201508110150 METAR ESMX 110150Z AUTO 00000KT 9999 BKN090/// 13/12 Q1020=
201508110120 METAR ESMX 110120Z AUTO 00000KT 9999 BKN091/// 13/12 Q1020=
201508110050 METAR ESMX 110050Z AUTO 00000KT 9999 BKN094/// 12/11 Q1020=
201508110020 METAR ESMX 110020Z AUTO 00000KT 9999 BKN094/// 11/11 Q1020=
201508102350 METAR ESMX 102350Z 17001KT CAVOK 12/11 Q1020=
201508102320 METAR ESMX 102320Z 00000KT CAVOK 12/11 Q1020=
201508102250 METAR ESMX 102250Z 00000KT CAVOK 13/12 Q1020=
201508102220 METAR ESMX 102220Z 00000KT CAVOK 13/12 Q1020=
201508102150 METAR ESMX 102150Z 17002KT CAVOK 14/12 Q1020=
201508102120 METAR ESMX 102120Z 18003KT CAVOK 15/13 Q1020=
201508102050 METAR ESMX 102050Z 16004KT CAVOK 14/13 Q1020=
201508102020 METAR ESMX 102020Z 14003KT CAVOK 14/12 Q1019=
201508101950 METAR COR ESMX 101950Z 16003KT CAVOK 15/12 Q1019=
201508101920 METAR ESMX 101920Z 16004KT CAVOK 17/12 Q1019=
201508101850 METAR ESMX 101850Z 17004KT CAVOK 18/12 Q1019=
201508101820 METAR ESMX 101820Z 18004KT CAVOK 17/12 Q1019=
201508101750 METAR ESMX 101750Z 18005KT CAVOK 20/12 Q1019=
201508101720 METAR ESMX 101720Z 17006KT CAVOK 21/11 Q1019=
201508101650 METAR ESMX 101650Z 17007KT CAVOK 22/11 Q1019=
201508101620 METAR ESMX 101620Z 18008KT CAVOK 23/11 Q1019=
201508101553 METAR ESMX 101553Z 17008KT 140V200 CAVOK 23/12 Q1019=
201508101550 METAR ESMX 101550Z AUTO 18008KT 9999 NCD 23/12 Q1019=
201508101520 METAR ESMX 101520Z 16008KT 140V200 CAVOK 23/13 Q1019=
201508101450 METAR ESMX 101450Z 16007KT 120V200 CAVOK 23/12 Q1020=
201508101420 METAR ESMX 101420Z 19006KT 150V230 CAVOK 23/13 Q1020=
201508101352 METAR ESMX 101352Z 20007KT 160V230 CAVOK 23/11 Q1020=
201508101350 METAR ESMX 101350Z AUTO 21006KT 160V280 9999 NCD 23/12 Q1020=
201508101320 METAR ESMX 101320Z 16005KT 100V210 CAVOK 23/11 Q1020=
201508101250 METAR ESMX 101250Z 15006KT 080V170 CAVOK 23/11 Q1020=
201508101220 METAR ESMX 101220Z 16006KT 130V200 CAVOK 23/11 Q1020=
201508101200 METAR ESMX 101200Z 16006KT 080V200 CAVOK 23/12 Q1020=
201508101150 METAR ESMX 101150Z AUTO 15006KT 120V180 9999 NCD 22/11 Q1020=
201508101120 METAR ESMX 101120Z 17007KT 110V210 CAVOK 23/12 Q1020=
201508101054 METAR ESMX 101054Z 16007KT CAVOK 22/11 Q1020=
201508101050 METAR ESMX 101050Z AUTO 16007KT 140V200 9999 NCD 22/12 Q1020=
201508101020 METAR ESMX 101020Z 12005KT 080V160 CAVOK 22/12 Q1021=
201508100950 METAR ESMX 100950Z 16005KT 100V250 CAVOK 21/12 Q1021=
201508100920 METAR ESMX 100920Z 13004KT 070V210 CAVOK 21/11 Q1021=
201508100850 METAR COR ESMX 100850Z 04005KT 010V080 CAVOK 20/12 Q1021=
201508100820 METAR ESMX 100820Z 08004KT 020V130 CAVOK 19/12 Q1021=
201508100750 METAR ESMX 100750Z 09003KT 030V150 CAVOK 19/12 Q1021=
201508100720 METAR ESMX 100720Z 09004KT 050V140 CAVOK 17/12 Q1021=
201508100650 METAR ESMX 100650Z 09004KT 060V120 CAVOK 16/12 Q1021=
201508100620 METAR ESMX 100620Z 09004KT 060V130 CAVOK 15/12 Q1021=
201508100550 METAR ESMX 100550Z 03003KT 360V070 CAVOK 14/12 Q1021=
201508100520 METAR ESMX 100520Z 01003KT CAVOK 13/12 Q1021=
201508100450 METAR ESMX 100450Z 01003KT CAVOK 12/12 Q1021=
201508100420 METAR COR ESMX 100420Z 03003KT CAVOK 10/10 Q1021=
201508100350 METAR ESMX 100350Z VRB01KT 9999 BCFG NSC 09/09 Q1021=
201508100320 METAR ESMX 100320Z AUTO 00000KT 3000 BCFG NCD 08/08 Q1021=
201508100250 METAR ESMX 100250Z AUTO 00000KT 0900 R01/P2000N R19/P2000N BCFG NCD 07/07 Q1021=
201508100220 METAR ESMX 100220Z AUTO 00000KT 0150 R01/0350V0500N R19/P2000N BCFG NCD 07/07 Q1021=
201508100150 METAR ESMX 100150Z AUTO 00000KT 9999 BCFG NCD 07/07 Q1021=
201508100120 METAR ESMX 100120Z AUTO 00000KT 9999 NCD 08/08 Q1021=
201508100050 METAR ESMX 100050Z AUTO 00000KT 9999 BCFG NCD 08/08 Q1021=
201508100020 METAR ESMX 100020Z AUTO 00000KT 0600 R01/P2000N R19/P2000N FG NCD 09/09 Q1021=
201508092350 METAR ESMX 092350Z AUTO 00000KT 9999 NCD 08/08 Q1021=
201508092320 METAR ESMX 092320Z 00000KT 9999 MIFG NSC 08/08 Q1021=
201508092250 METAR ESMX 092250Z 00000KT 9999 MIFG NSC 09/09 Q1021=
201508092220 METAR COR ESMX 092220Z 00000KT 9999 MIFG NSC 10/09 Q1021=
201508092150 METAR ESMX 092150Z AUTO 00000KT 9999 NCD 10/09 Q1021=
201508092120 METAR ESMX 092120Z 00000KT CAVOK 11/10 Q1021=
201508092050 METAR ESMX 092050Z 00000KT CAVOK 11/10 Q1021=
201508092020 METAR COR ESMX 092020Z 17002KT CAVOK 12/10 Q1021=
201508091950 METAR ESMX 091950Z 18002KT CAVOK 13/11 Q1021=
201508091920 METAR ESMX 091920Z 00000KT CAVOK 14/12 Q1021=
201508091850 METAR ESMX 091850Z 30003KT CAVOK 16/12 Q1021=
201508091820 METAR ESMX 091820Z 31003KT CAVOK 19/11 Q1020=
201508091750 METAR ESMX 091750Z 34005KT CAVOK 20/10 Q1020=
201508091720 METAR ESMX 091720Z 36006KT CAVOK 21/11 Q1020=
201508091650 METAR ESMX 091650Z 33006KT CAVOK 21/10 Q1021=
201508091620 METAR ESMX 091620Z 30007KT 260V340 CAVOK 21/10 Q1021=
201508091550 METAR ESMX 091550Z 30008KT 280V350 CAVOK 22/10 Q1021=
201508091520 METAR ESMX 091520Z 29007KT 260V360 CAVOK 21/10 Q1021=
201508091450 METAR ESMX 091450Z 30008KT 260V330 CAVOK 21/10 Q1021=
201508091420 METAR ESMX 091420Z 30007KT 260V330 CAVOK 22/11 Q1021=
201508091350 METAR ESMX 091350Z 30008KT 250V360 CAVOK 21/10 Q1021=
201508091320 METAR ESMX 091320Z 31007KT 280V340 CAVOK 21/10 Q1021=
201508091250 METAR ESMX 091250Z 32010KT CAVOK 21/10 Q1021=
201508091220 METAR ESMX 091220Z AUTO 29008KT 250V330 9999 NCD 21/10 Q1021=
201508091150 METAR ESMX 091150Z AUTO 28009KT 230V330 9999 NCD 20/09 Q1021=
201508091120 METAR ESMX 091120Z AUTO 30008KT 230V340 9999 NCD 20/10 Q1021=
201508091050 METAR ESMX 091050Z AUTO 27009KT 240V300 9999 NCD 20/11 Q1021=
201508091020 METAR ESMX 091020Z AUTO 28008KT 250V310 9999 NCD 20/10 Q1021=
201508090950 METAR ESMX 090950Z AUTO 30007KT 260V350 9999 FEW032/// 19/10 Q1021=
201508090920 METAR ESMX 090920Z AUTO 32007KT 280V340 9999 NCD 19/11 Q1021=
201508090850 METAR ESMX 090850Z AUTO 33007KT 280V010 9999 NCD 18/11 Q1021=
201508090820 METAR ESMX 090820Z AUTO 31007KT 280V340 9999 NCD 17/12 Q1021=
201508090750 METAR ESMX 090750Z AUTO 31007KT 280V340 9999 NCD 16/12 Q1021=
201508090720 METAR ESMX 090720Z AUTO 31008KT 260V340 9999 FEW010/// 15/11 Q1021=
201508090650 METAR ESMX 090650Z AUTO 30007KT 280V340 9999 BKN007/// 14/12 Q1021=
201508090620 METAR ESMX 090620Z AUTO 32008KT 290V350 9999 BKN006/// 13/11 Q1021=
201508090550 METAR ESMX 090550Z AUTO 32008KT 9999 BKN005/// 13/12 Q1021=
201508090520 METAR ESMX 090520Z AUTO 30005KT 270V330 9999 BKN005/// 12/11 Q1021=
201508090450 METAR ESMX 090450Z AUTO 29006KT 9999 FEW008/// 11/10 Q1021=
201508090420 METAR ESMX 090420Z AUTO 29007KT 9999 NCD 10/10 Q1021=
201508090350 METAR ESMX 090350Z AUTO 28003KT 9999 NCD 09/09 Q1021=
201508090320 METAR ESMX 090320Z AUTO 23003KT 9999 NCD 09/09 Q1021=
201508090250 METAR ESMX 090250Z AUTO 27003KT 9999 NCD 08/08 Q1021=
201508090220 METAR ESMX 090220Z AUTO 26004KT 9999 NCD 10/09 Q1020=
201508090150 METAR ESMX 090150Z AUTO 28005KT 9999 NCD 10/09 Q1020=
201508090120 METAR ESMX 090120Z AUTO 29003KT 270V340 9999 NCD 12/10 Q1020=
201508090050 METAR ESMX 090050Z AUTO 29004KT 9999 NCD 12/10 Q1020=
201508090020 METAR ESMX 090020Z AUTO 30004KT 9999 NCD 12/10 Q1020=
201508082350 METAR ESMX 082350Z AUTO 29004KT 260V330 9999 NCD 13/11 Q1020=
201508082320 METAR ESMX 082320Z AUTO 29007KT 9999 NCD 13/11 Q1020=
201508082250 METAR ESMX 082250Z AUTO 30005KT 9999 SCT081/// 13/11 Q1020=
201508082220 METAR ESMX 082220Z AUTO 27004KT 9999 FEW082/// 13/11 Q1020=
201508082150 METAR ESMX 082150Z AUTO 25003KT 9999 NCD 14/11 Q1021=
201508082120 METAR ESMX 082120Z AUTO 26004KT 9999 NCD 14/12 Q1020=
201508082050 METAR ESMX 082050Z AUTO 28004KT 9999 FEW026/// 15/12 Q1020=
201508082020 METAR ESMX 082020Z AUTO 27006KT 9999 NCD 15/13 Q1020=
201508081950 METAR ESMX 081950Z AUTO 25005KT 9999 FEW027/// 15/13 Q1020=
201508081920 METAR ESMX 081920Z AUTO 22004KT 9999 NCD 15/13 Q1020=
201508081850 METAR ESMX 081850Z AUTO 26004KT 9999 NCD 16/14 Q1019=
201508081820 METAR ESMX 081820Z AUTO 24003KT 9999 NCD 17/14 Q1019=
201508081750 METAR ESMX 081750Z AUTO 27004KT 9999 NCD 19/14 Q1019=
201508081720 METAR ESMX 081720Z AUTO 27007KT 240V300 9999 FEW093/// 19/15 Q1020=
201508081650 METAR ESMX 081650Z AUTO 28008KT 9999 FEW023/// 20/14 Q1019=
201508081620 METAR ESMX 081620Z AUTO 29008KT 9999 FEW020/// SCT088/// 20/16 Q1019=
201508081550 METAR ESMX 081550Z AUTO 25008KT 230V300 9999 SCT020/// 21/16 Q1019=
201508081520 METAR ESMX 081520Z AUTO 26008KT 230V290 9999 FEW017/// SCT022/// BKN025/// 21/16 Q1019=
201508081450 METAR ESMX 081450Z AUTO 27007KT 9999 FEW016/// BKN019/// 20/17 Q1019=
201508081420 METAR ESMX 081420Z AUTO 26007KT 9999 OVC015/// 21/17 Q1019=
201508081350 METAR ESMX 081350Z AUTO 26007KT 220V290 9999 BKN015/// 21/17 Q1019=
201508081320 METAR ESMX 081320Z AUTO 27007KT 240V300 9999 FEW013/// SCT083/// 20/17 Q1019=
201508081250 METAR ESMX 081250Z AUTO 26007KT 9999 FEW085/// SCT100/// 19/16 Q1019=
201508081220 METAR ESMX 081220Z AUTO 27004KT 9999 FEW020/// SCT079/// BKN096/// 19/16 Q1019=
201508081150 METAR ESMX 081150Z AUTO 26006KT 9999 FEW078/// SCT089/// 19/16 Q1019=
201508081120 METAR ESMX 081120Z AUTO 24004KT 200V270 9999 FEW056/// SCT092/// 20/16 Q1019=
201508081050 METAR ESMX 081050Z AUTO 24003KT 200V260 9999 FEW075/// BKN092/// 19/17 Q1019=
201508081020 METAR ESMX 081020Z AUTO 23004KT 9999 -DZ BKN076/// BKN096/// 18/17 Q1020 RERA=
201508080950 METAR ESMX 080950Z AUTO VRB02KT 9999 FEW068/// 19/16 Q1019=
201508080920 METAR ESMX 080920Z AUTO 19004KT 9999 -RA FEW061/// 19/18 Q1020 RERA REDZ=
201508080850 METAR ESMX 080850Z AUTO 23004KT 9999 -RA SCT070/// 18/17 Q1020 REDZ=
201508080820 METAR ESMX 080820Z AUTO VRB02KT 9999 -DZ SCT074/// 19/16 Q1019=
201508080750 METAR ESMX 080750Z AUTO VRB02KT 9999 FEW065/// 19/16 Q1019=
201508080720 METAR ESMX 080720Z AUTO VRB02KT 9999 NCD 19/16 Q1019=
201508080650 METAR ESMX 080650Z AUTO 36002KT 9999 NCD 17/16 Q1018=
201508080620 METAR ESMX 080620Z AUTO VRB03KT 9999 NCD 17/16 Q1018=
201508080550 METAR ESMX 080550Z AUTO 35003KT 320V020 9999 FEW081/// 16/15 Q1019=
201508080520 METAR ESMX 080520Z AUTO 29002KT 9999 NCD 15/15 Q1019=
201508080450 METAR ESMX 080450Z AUTO 00000KT 9999 NCD 14/14 Q1019=
201508080420 METAR ESMX 080420Z AUTO 00000KT 9999 NCD 13/13 Q1019=
201508080350 METAR ESMX 080350Z AUTO 00000KT 9000 NCD 13/12 Q1018=
201508080320 METAR ESMX 080320Z AUTO 25003KT 0550 R01/P2000N R19/P2000N NCD 11/11 Q1018=
201508080250 METAR ESMX 080250Z AUTO 22002KT 0200 R01/0800VP2000N R19/P2000N BCFG NCD 12/12 Q1018=
201508080220 METAR ESMX 080220Z AUTO 30003KT 0550 R01/P2000N R19/P2000N BCFG NCD 12/12 Q1018=
201508080150 METAR ESMX 080150Z AUTO 00000KT 0600 R01/P2000N R19/P2000N BCFG NCD 13/12 Q1018=
201508080120 METAR ESMX 080120Z AUTO 17003KT 6000 BR NCD 14/13 Q1018=
201508080050 METAR ESMX 080050Z AUTO 17002KT 3300 BR FEW015/// 14/14 Q1018=
201508080020 METAR ESMX 080020Z AUTO 00000KT 9999 FEW014/// 13/13 Q1018=
201508072350 METAR ESMX 072350Z AUTO 00000KT 4100 BR FEW014/// 15/14 Q1018=
201508072320 METAR ESMX 072320Z AUTO 00000KT 9999 FEW010/// SCT013/// 15/15 Q1018=
201508072250 METAR ESMX 072250Z AUTO 00000KT 9999 BCFG FEW008/// 15/14 Q1018=
201508072220 METAR ESMX 072220Z AUTO 00000KT 6000 BCFG NCD 15/15 Q1018=
201508072150 METAR ESMX 072150Z AUTO 00000KT 0400 R01/P2000D R19/P2000N FG NCD 15/15 Q1018=
201508072120 METAR ESMX 072120Z AUTO 00000KT 9999 NCD 14/14 Q1018=
201508072050 METAR ESMX 072050Z AUTO 00000KT 9999 NCD 16/15 Q1018=
201508072020 METAR ESMX 072020Z AUTO 14002KT 9999 NCD 16/15 Q1018=
201508071950 METAR ESMX 071950Z AUTO 00000KT 9999 NCD 17/16 Q1018=
201508071920 METAR ESMX 071920Z AUTO 16002KT 9999 NCD 17/16 Q1018=
201508071850 METAR ESMX 071850Z AUTO 17002KT 9999 NCD 18/16 Q1018=
201508071820 METAR ESMX 071820Z AUTO 20003KT 9999 FEW100/// 20/16 Q1018=
201508071750 METAR ESMX 071750Z AUTO 20005KT 9999 SCT086/// 21/16 Q1018=
201508071720 METAR ESMX 071720Z AUTO 16004KT 9999 SCT087/// 22/16 Q1018=
201508071650 METAR ESMX 071650Z VRB01KT 9999 -RA FEW028 SCT090 20/17 Q1017=
201508071620 METAR ESMX 071620Z 28007KT 9999 -RA NSC 23/16 Q1018=
201508071550 METAR ESMX 071550Z 23009KT CAVOK 25/19 Q1018=
201508071520 METAR COR ESMX 071520Z 21007KT CAVOK 26/19 Q1018=
201508071450 METAR ESMX 071450Z 19011KT CAVOK 26/19 Q1018=
201508071420 METAR ESMX 071420Z 19011KT CAVOK 27/18 Q1017=
201508071350 METAR ESMX 071350Z 19013KT CAVOK 27/18 Q1017=
201508071320 METAR ESMX 071320Z 20011KT 160V230 CAVOK 29/18 Q1017=
201508071250 METAR ESMX 071250Z 17011KT 130V210 CAVOK 28/18 Q1017=
201508071220 METAR COR ESMX 071220Z 17013KT 130V200 CAVOK 28/18 Q1017=
201508071150 METAR ESMX 071150Z 16010KT 120V190 CAVOK 27/18 Q1017=
201508071120 METAR ESMX 071120Z 16007KT 140V200 CAVOK 26/17 Q1017=
201508071050 METAR ESMX 071050Z 16008KT 120V200 9999 FEW042 SCT062 25/17 Q1017=
201508071020 METAR ESMX 071020Z 15008KT 9999 FEW036 SCT080 25/16 Q1017=
201508070950 METAR ESMX 070950Z 16008KT 130V190 9999 FEW040 SCT079 24/15 Q1017=
201508070920 METAR ESMX 070920Z 13007KT 080V170 9999 FEW028 SCT077 23/15 Q1018=
201508070850 METAR ESMX 070850Z 14007KT 100V180 CAVOK 23/14 Q1018=
201508070820 METAR ESMX 070820Z 16007KT 110V190 CAVOK 22/13 Q1018=
201508070750 METAR ESMX 070750Z 13006KT 100V190 CAVOK 21/13 Q1018=
201508070720 METAR ESMX 070720Z 14007KT 080V170 CAVOK 20/12 Q1018=
201508070650 METAR ESMX 070650Z 13006KT 090V170 CAVOK 19/11 Q1018=
201508070620 METAR ESMX 070620Z 12005KT 070V170 CAVOK 18/11 Q1018=
201508070550 METAR ESMX 070550Z VRB03KT CAVOK 17/12 Q1018=
201508070520 METAR ESMX 070520Z AUTO VRB02KT 9999 NCD 16/12 Q1018=
201508070450 METAR ESMX 070450Z AUTO VRB03KT 9999 NCD 13/12 Q1018=
201508070420 METAR ESMX 070420Z AUTO 19002KT 9999 NCD 10/10 Q1018=
201508070350 METAR ESMX 070350Z AUTO 00000KT 4900 NCD 09/09 Q1018=
201508070320 METAR ESMX 070320Z AUTO VRB02KT 1400 R01/P2000N R19/P2000N BCFG NCD 10/09 Q1018=
201508070250 METAR ESMX 070250Z AUTO 00000KT 1900 BR NCD 08/08 Q1018=
201508070220 METAR ESMX 070220Z AUTO 00000KT 0650 R01/P2000N R19/P2000N BR NCD 09/08 Q1018=
201508070150 METAR ESMX 070150Z AUTO 00000KT 9999 NCD 09/09 Q1019=
201508070120 METAR ESMX 070120Z AUTO 00000KT 9999 NCD 10/10 Q1019=
201508070050 METAR ESMX 070050Z AUTO 00000KT 9999 NCD 10/10 Q1019=
201508070020 METAR ESMX 070020Z VRB02KT CAVOK 11/11 Q1019=
201508062350 METAR ESMX 062350Z 15003KT CAVOK 11/11 Q1019=
201508062320 METAR ESMX 062320Z 00000KT CAVOK 11/11 Q1019=
201508062250 METAR COR ESMX 062250Z 00000KT CAVOK 12/12 Q1019=
201508062220 METAR COR ESMX 062220Z 16004KT CAVOK 13/12 Q1019=
201508062150 METAR ESMX 062150Z 15004KT CAVOK 14/12 Q1019=
201508062120 METAR ESMX 062120Z 19005KT CAVOK 15/12 Q1019=
201508062050 METAR ESMX 062050Z 15004KT CAVOK 17/13 Q1019=
201508062020 METAR ESMX 062020Z 17005KT CAVOK 15/13 Q1019=
201508061950 METAR ESMX 061950Z 18002KT CAVOK 14/12 Q1018=
201508061920 METAR COR ESMX 061920Z 00000KT CAVOK 15/13 Q1018=
201508061850 METAR ESMX 061850Z AUTO 20004KT 9999 NCD 19/13 Q1018=
201508061820 METAR ESMX 061820Z AUTO 20006KT 9999 NCD 20/14 Q1018=
201508061750 METAR ESMX 061750Z AUTO 21004KT 9999 NCD 21/14 Q1018=
201508061720 METAR ESMX 061720Z AUTO 16002KT 9999 NCD 20/14 Q1018=
201508061650 METAR ESMX 061650Z AUTO 18003KT 110V210 9999 NCD 23/12 Q1018=
201508061620 METAR ESMX 061620Z AUTO 17004KT 110V230 9999 NCD 23/12 Q1018=
201508061550 METAR ESMX 061550Z 20004KT 130V250 CAVOK 23/12 Q1018=
201508061520 METAR ESMX 061520Z 16005KT 9999 FEW040 23/12 Q1018=
201508061450 METAR ESMX 061450Z VRB03KT 9999 FEW047 23/12 Q1018=
201508061420 METAR ESMX 061420Z 18006KT 110V210 CAVOK 24/13 Q1018=
201508061350 METAR ESMX 061350Z 18006KT 120V200 9999 FEW046 23/13 Q1019=
201508061320 METAR ESMX 061320Z 13004KT 050V180 9999 FEW045 23/12 Q1018=
201508061250 METAR ESMX 061250Z 18005KT 060V230 9999 SCT044 23/12 Q1019=
201508061220 METAR ESMX 061220Z AUTO 18003KT 9999 SCT043/// 23/12 Q1019=
201508061150 METAR ESMX 061150Z AUTO 18006KT 120V230 9999 SCT042/// 23/13 Q1019=
201508061120 METAR ESMX 061120Z AUTO 15004KT 100V250 9999 FEW040/// 21/12 Q1019=
201508061050 METAR ESMX 061050Z AUTO VRB05KT 050V260 9999 FEW039/// 22/13 Q1019=
201508061020 METAR ESMX 061020Z AUTO 19004KT 150V250 9999 SCT036/// 22/12 Q1019=
201508060950 METAR ESMX 060950Z AUTO 23004KT 150V310 9999 FEW035/// 21/12 Q1019=
201508060920 METAR ESMX 060920Z AUTO VRB02KT 9999 SCT033/// 21/13 Q1019=
201508060850 METAR ESMX 060850Z AUTO 23002KT 9999 FEW030/// 20/12 Q1019=
201508060820 METAR ESMX 060820Z AUTO VRB03KT 9999 FEW059/// 20/12 Q1019=
201508060750 METAR ESMX 060750Z AUTO VRB03KT 9999 FEW071/// 20/12 Q1019=
201508060720 METAR COR ESMX 060720Z 00000KT CAVOK 19/12 Q1019=
201508060650 METAR ESMX 060650Z VRB03KT CAVOK 18/13 Q1019=
201508060620 METAR ESMX 060620Z 11003KT 070V160 CAVOK 17/14 Q1019=
201508060550 METAR COR ESMX 060550Z 00000KT CAVOK 16/14 Q1019=
201508060520 METAR ESMX 060520Z 00000KT 9999 2000N BCFG NSC 15/14 Q1019=
201508060450 METAR ESMX 060450Z 00000KT CAVOK 11/11 Q1019=
201508060420 METAR COR ESMX 060420Z 00000KT 9999 BCFG SCT200 09/08 Q1019=
201508060350 METAR ESMX 060350Z 00000KT 9999 BCFG SCT200 08/08 Q1019=
201508060320 METAR ESMX 060320Z AUTO 17002KT 9999 NCD 09/09 Q1019=
201508060250 METAR ESMX 060250Z AUTO 18002KT 9999 NCD 09/08 Q1019=
201508060220 METAR ESMX 060220Z AUTO 00000KT 1900 BR NCD 08/08 Q1019=
201508060150 METAR ESMX 060150Z AUTO 17002KT 9000 BR NCD 09/09 Q1019=
201508060120 METAR ESMX 060120Z AUTO 18003KT 9999 NCD 09/09 Q1019=
201508060050 METAR ESMX 060050Z AUTO 18002KT 9999 NCD 10/09 Q1019=
201508060020 METAR ESMX 060020Z AUTO 17002KT 9999 NCD 10/10 Q1019=
201508052350 METAR COR ESMX 052350Z 17001KT CAVOK 10/10 Q1019=
201508052320 METAR ESMX 052320Z 00000KT CAVOK 10/10 Q1019=
201508052250 METAR COR ESMX 052250Z 00000KT CAVOK 11/11 Q1019=
201508052220 METAR ESMX 052220Z 26003KT CAVOK 11/10 Q1019=
201508052150 METAR ESMX 052150Z AUTO 25003KT 9999 NCD 12/11 Q1019=
201508052120 METAR ESMX 052120Z 25003KT CAVOK 12/10 Q1018=
201508052050 METAR COR ESMX 052050Z 25003KT CAVOK 13/11 Q1018=
201508052020 METAR ESMX 052020Z 25003KT CAVOK 13/11 Q1018=
201508051950 METAR ESMX 051950Z 25003KT CAVOK 14/12 Q1018=
201508051920 METAR ESMX 051920Z 26002KT CAVOK 16/12 Q1018=
201508051850 METAR ESMX 051850Z AUTO 27003KT 9999 NCD 18/12 Q1018=
201508051820 METAR ESMX 051820Z AUTO 25004KT 9999 NCD 19/12 Q1018=
201508051750 METAR ESMX 051750Z AUTO 26005KT 9999 NCD 20/11 Q1017=
201508051720 METAR ESMX 051720Z AUTO 27006KT 9999 NCD 21/11 Q1017=
201508051650 METAR ESMX 051650Z AUTO 26006KT 9999 NCD 21/12 Q1017=
201508051620 METAR ESMX 051620Z AUTO 27006KT 230V320 9999 NCD 21/12 Q1017=
201508051550 METAR ESMX 051550Z 26009KT 9999 FEW040 21/12 Q1017=
201508051520 METAR ESMX 051520Z 24009KT 220V290 9999 FEW040 22/12 Q1017=
201508051450 METAR ESMX 051450Z 25008KT 210V280 9999 FEW040 22/13 Q1017=
201508051420 METAR ESMX 051420Z 22010KT 9999 FEW037 22/13 Q1017=
201508051350 METAR ESMX 051350Z 23008KT 180V250 9999 SCT036 23/14 Q1017=
201508051320 METAR ESMX 051320Z 24008KT 210V290 9999 FEW035 22/14 Q1017=
201508051250 METAR ESMX 051250Z AUTO 24008KT 190V280 9999 FEW026/// 22/15 Q1017=
201508051220 METAR ESMX 051220Z 24010KT 210V270 9999 SCT025 22/16 Q1016=
201508051150 METAR COR ESMX 051150Z 25008KT 200V280 9999 FEW024 SCT038 21/16 Q1017=
201508051120 METAR ESMX 051120Z 23007KT 9999 FEW016 SCT020 BKN032 22/16 Q1016=
201508051050 METAR ESMX 051050Z 24007KT 210V270 9999 FEW013 BKN030 22/17 Q1016=
201508051020 METAR ESMX 051020Z 21005KT 9999 FEW013 BKN021 20/17 Q1016=
201508050950 METAR ESMX 050950Z AUTO 24003KT 130V300 9999 FEW013/// BKN035/// 20/17 Q1016=
201508050920 METAR ESMX 050920Z AUTO 25006KT 220V300 9999 FEW014/// SCT023/// BKN027/// 20/16 Q1016=
201508050850 METAR ESMX 050850Z AUTO 24004KT 200V260 9999 FEW009/// OVC021/// 19/17 Q1016=
201508050820 METAR ESMX 050820Z AUTO 23004KT 9999 FEW014/// OVC020/// 18/16 Q1016=
201508050750 METAR ESMX 050750Z AUTO 24005KT 210V280 9999 FEW006/// SCT009/// OVC013/// 18/17 Q1016=
201508050720 METAR ESMX 050720Z 24004KT 210V270 9999 FEW005 BKN011 18/17 Q1015=
201508050650 METAR ESMX 050650Z 23004KT 210V270 9999 FEW002 BKN005 17/17 Q1015=
201508050620 METAR ESMX 050620Z 26006KT 6000 BR OVC003 17/16 Q1014=
201508050550 METAR ESMX 050550Z 24005KT 210V280 9999 FEW003 BKN007 17/16 Q1014=
201508050520 METAR ESMX 050520Z VRB03KT 7000 BR SCT010 BKN027 16/15 Q1014=
201508050450 METAR ESMX 050450Z VRB03KT 7000 BR BKN024 16/15 Q1014=
201508050420 METAR ESMX 050420Z 00000KT 7000 BR SCT026 BKN100 16/15 Q1014=
201508050350 METAR ESMX 050350Z 00000KT 8000 -RA FEW030 BKN100 15/15 Q1014=
201508050320 METAR ESMX 050320Z AUTO VRB02KT 7000 -RA FEW097/// 15/15 Q1014 RERA=
201508050250 METAR ESMX 050250Z AUTO 13002KT 9999 FEW096/// 15/15 Q1013=
201508050220 METAR ESMX 050220Z AUTO 10003KT 030V160 9999 FEW100/// 15/15 Q1014=
201508050150 METAR ESMX 050150Z AUTO 08005KT 030V130 9999 -RA FEW008/// 15/15 Q1014=
201508050120 METAR ESMX 050120Z 07003KT 350V120 4000 +RA FEW006 SCT027 BKN089 15/15 Q1014=
201508050050 METAR ESMX 050050Z 00000KT 3100 +RA VCTS FEW005 SCT028CB SCT038 BKN080 15/14 Q1014 RESHRA=
201508050020 METAR ESMX 050020Z 03008KT 9999 -RA VCTS FEW014 FEW028CB SCT045 15/14 Q1013=
201508042350 METAR ESMX 042350Z VRB02KT 9999 RA BKN035 BKN079 17/13 Q1015 RERA=
201508042320 METAR ESMX 042320Z VRB02KT 9999 -RA FEW040 BKN080 17/13 Q1015=
201508042250 METAR ESMX 042250Z 25005KT 210V300 9999 FEW029 BKN083 BKN100 18/12 Q1015=
201508042220 METAR ESMX 042220Z VRB09KT 080V280 CAVOK 18/11 Q1014=
201508042150 METAR ESMX 042150Z 12006KT 060V200 CAVOK 19/11 Q1014=
201508042120 METAR ESMX 042120Z 10006KT 040V140 CAVOK 18/10 Q1014=
201508042050 METAR ESMX 042050Z 10004KT 040V190 CAVOK 18/10 Q1014=
201508042020 METAR ESMX 042020Z 09005KT 050V160 CAVOK 18/10 Q1014=
201508041950 METAR ESMX 041950Z 10004KT 050V140 CAVOK 19/10 Q1015=
201508041920 METAR ESMX 041920Z 09006KT 340V160 CAVOK 19/10 Q1015=
201508041850 METAR ESMX 041850Z AUTO 10006KT 050V150 9999 NCD 20/10 Q1015=
201508041820 METAR ESMX 041820Z AUTO 11007KT 040V150 9999 NCD 21/09 Q1015=
201508041750 METAR ESMX 041750Z AUTO 12006KT 050V150 9999 NCD 22/10 Q1015=
201508041720 METAR ESMX 041720Z AUTO 11007KT 060V170 9999 NCD 23/11 Q1015=
201508041650 METAR ESMX 041650Z 10007KT 070V160 CAVOK 23/11 Q1015=
201508041620 METAR ESMX 041620Z 10007KT 070V140 CAVOK 24/11 Q1016=
201508041550 METAR ESMX 041550Z 12008KT 080V170 CAVOK 24/11 Q1016=
201508041520 METAR ESMX 041520Z 10008KT 050V160 CAVOK 24/11 Q1016=
201508041450 METAR ESMX 041450Z 12008KT 080V160 CAVOK 25/12 Q1016=
201508041420 METAR ESMX 041420Z 11009KT 080V160 CAVOK 25/12 Q1016=
201508041350 METAR ESMX 041350Z 12007KT 070V160 CAVOK 25/12 Q1016=
201508041320 METAR ESMX 041320Z 12008KT 060V170 CAVOK 25/11 Q1016=
201508041250 METAR ESMX 041250Z 13008KT 080V170 CAVOK 25/11 Q1017=
201508041220 METAR ESMX 041220Z AUTO 12007KT 080V170 9999 NCD 25/11 Q1017=
201508041150 METAR ESMX 041150Z AUTO 12008KT 070V170 9999 NCD 24/11 Q1017=
201508041120 METAR ESMX 041120Z AUTO 13008KT 070V170 9999 NCD 24/11 Q1018=
201508041050 METAR ESMX 041050Z AUTO 11008KT 060V160 9999 NCD 23/11 Q1018=
201508041020 METAR ESMX 041020Z AUTO 14007KT 100V170 9999 NCD 23/11 Q1018=
201508040950 METAR ESMX 040950Z AUTO 15008KT 120V180 9999 NCD 22/11 Q1018=
201508040920 METAR ESMX 040920Z AUTO 14006KT 080V190 9999 NCD 22/11 Q1019=
201508040850 METAR ESMX 040850Z AUTO 13008KT 070V180 9999 NCD 21/11 Q1019=
201508040820 METAR ESMX 040820Z AUTO 12007KT 060V190 9999 NCD 20/10 Q1019=
201508040750 METAR ESMX 040750Z AUTO 11007KT 060V150 9999 NCD 20/11 Q1019=
201508040720 METAR ESMX 040720Z 12008KT 080V170 CAVOK 19/10 Q1019=
201508040650 METAR ESMX 040650Z 11007KT 040V160 CAVOK 18/11 Q1019=
201508040620 METAR ESMX 040620Z 11006KT 070V150 CAVOK 17/11 Q1019=
201508040550 METAR ESMX 040550Z 12006KT 080V160 CAVOK 16/11 Q1019=
201508040520 METAR ESMX 040520Z 12005KT 070V160 CAVOK 15/10 Q1020=
201508040450 METAR ESMX 040450Z 11004KT 070V150 CAVOK 14/11 Q1020=
201508040420 METAR ESMX 040420Z 12004KT 080V160 CAVOK 14/10 Q1020=
201508040350 METAR ESMX 040350Z 11004KT 070V150 CAVOK 13/10 Q1020=
201508040320 METAR ESMX 040320Z AUTO 12004KT 9999 NCD 13/10 Q1020=
201508040250 METAR ESMX 040250Z AUTO 12004KT 9999 NCD 13/10 Q1020=
201508040220 METAR ESMX 040220Z AUTO 11003KT 080V160 9999 NCD 12/10 Q1020=
201508040150 METAR ESMX 040150Z AUTO 12003KT 080V150 9999 NCD 13/11 Q1020=
201508040120 METAR ESMX 040120Z AUTO 11004KT 080V140 9999 NCD 13/11 Q1020=
201508040050 METAR ESMX 040050Z AUTO 12004KT 080V170 9999 NCD 13/11 Q1021=
201508040020 METAR ESMX 040020Z AUTO 12003KT 080V170 9999 NCD 13/11 Q1021=
201508032350 METAR ESMX 032350Z 12004KT 080V150 CAVOK 14/11 Q1021=
201508032320 METAR ESMX 032320Z 14004KT CAVOK 14/11 Q1021=
201508032250 METAR ESMX 032250Z AUTO 14005KT 110V170 9999 NCD 15/11 Q1021=
201508032220 METAR ESMX 032220Z 15005KT CAVOK 15/10 Q1021=
201508032150 METAR ESMX 032150Z 15005KT CAVOK 15/11 Q1021=
201508032120 METAR ESMX 032120Z 14005KT CAVOK 16/11 Q1021=
201508032050 METAR ESMX 032050Z 16006KT CAVOK 17/11 Q1021=
201508032020 METAR ESMX 032020Z 16005KT CAVOK 17/11 Q1021=
201508031950 METAR ESMX 031950Z 17006KT CAVOK 18/11 Q1021=
201508031920 METAR ESMX 031920Z 15008KT CAVOK 19/11 Q1020=
201508031850 METAR ESMX 031850Z AUTO 16007KT 9999 NCD 19/11 Q1020=
201508031820 METAR ESMX 031820Z AUTO 17008KT 9999 NCD 20/12 Q1020=
201508031750 METAR ESMX 031750Z AUTO 18008KT 9999 NCD 22/12 Q1020=
201508031720 METAR ESMX 031720Z AUTO 16004KT 9999 NCD 23/10 Q1020=
201508031650 METAR ESMX 031650Z AUTO 12004KT 080V170 9999 NCD 23/10 Q1020=
201508031620 METAR ESMX 031620Z 15005KT 100V200 CAVOK 23/10 Q1020=
201508031550 METAR ESMX 031550Z 11004KT 070V180 CAVOK 23/11 Q1020=
201508031520 METAR ESMX 031520Z 15003KT 100V190 CAVOK 23/10 Q1021=
201508031450 METAR ESMX 031450Z 22006KT 170V250 CAVOK 23/09 Q1021=
201508031420 METAR ESMX 031420Z 17004KT 080V250 CAVOK 23/09 Q1021=
201508031350 METAR ESMX 031350Z 20005KT 140V250 CAVOK 23/10 Q1021=
201508031320 METAR ESMX 031320Z 22002KT CAVOK 22/07 Q1021=
201508031250 METAR ESMX 031250Z VRB04KT 360V360 CAVOK 22/07 Q1021=
201508031220 METAR ESMX 031220Z 21004KT 140V290 CAVOK 21/08 Q1021=
201508031150 METAR ESMX 031150Z 16005KT 110V190 CAVOK 21/06 Q1021=
201508031120 METAR ESMX 031120Z 14003KT CAVOK 21/08 Q1022=
201508031050 METAR ESMX 031050Z 20004KT 080V260 CAVOK 21/09 Q1022=
201508031020 METAR ESMX 031020Z 17004KT 120V240 CAVOK 20/10 Q1022=
201508030950 METAR ESMX 030950Z 19004KT 100V260 CAVOK 19/10 Q1022=
201508030920 METAR COR ESMX 030920Z 10003KT 050V180 9999 FEW036 19/09 Q1022=
201508030850 METAR COR ESMX 030850Z 03004KT 350V070 9999 FEW030 18/11 Q1022=
201508030820 METAR ESMX 030820Z 07002KT CAVOK 18/10 Q1022=
201508030750 METAR ESMX 030750Z 36002KT CAVOK 17/11 Q1022=
201508030720 METAR ESMX 030720Z 04005KT CAVOK 16/11 Q1021=
201508030650 METAR ESMX 030650Z 03006KT CAVOK 16/11 Q1021=
201508030620 METAR ESMX 030620Z 36004KT CAVOK 15/11 Q1021=
201508030550 METAR ESMX 030550Z VRB02KT CAVOK 14/11 Q1021=
201508030520 METAR COR ESMX 030520Z 36003KT CAVOK 13/11 Q1021=
201508030450 METAR ESMX 030450Z 00000KT CAVOK 10/09 Q1021=
201508030420 METAR ESMX 030420Z 00000KT CAVOK 07/07 Q1021=
201508030350 METAR ESMX 030350Z 00000KT CAVOK 06/06 Q1020=
201508030320 METAR ESMX 030320Z AUTO 00000KT 9999 NCD 06/06 Q1020=
201508030250 METAR ESMX 030250Z AUTO 00000KT 9999 NCD 07/06 Q1020=
201508030220 METAR ESMX 030220Z AUTO 00000KT 9999 NCD 07/06 Q1020=
201508030150 METAR ESMX 030150Z AUTO 00000KT 9999 NCD 08/07 Q1020=
201508030120 METAR ESMX 030120Z AUTO 00000KT 9999 NCD 08/07 Q1020=
201508030050 METAR ESMX 030050Z AUTO 00000KT 9999 NCD 08/08 Q1020=
201508030020 METAR ESMX 030020Z AUTO 00000KT 9999 NCD 08/08 Q1020=
201508022350 METAR ESMX 022350Z AUTO 00000KT 9999 NCD 09/08 Q1020=
201508022320 METAR ESMX 022320Z 19003KT CAVOK 10/09 Q1020=
201508022250 METAR ESMX 022250Z 20003KT CAVOK 12/09 Q1020=
201508022220 METAR ESMX 022220Z 23003KT CAVOK 13/10 Q1020=
201508022150 METAR ESMX 022150Z 25003KT CAVOK 13/09 Q1020=
201508022120 METAR COR ESMX 022120Z 22004KT CAVOK 14/09 Q1020=
201508022050 METAR ESMX 022050Z 22004KT CAVOK 14/10 Q1020=
201508022020 METAR ESMX 022020Z 20005KT CAVOK 14/10 Q1020=
201508021950 METAR ESMX 021950Z 20005KT CAVOK 14/10 Q1020=
201508021920 METAR ESMX 021920Z VRB03KT CAVOK 16/10 Q1019=
201508021850 METAR ESMX 021850Z VRB03KT CAVOK 17/09 Q1019=
201508021820 METAR ESMX 021820Z 27003KT CAVOK 17/09 Q1019=
201508021750 METAR ESMX 021750Z 26004KT CAVOK 18/10 Q1019=
201508021720 METAR ESMX 021720Z 27006KT CAVOK 18/09 Q1019=
201508021650 METAR ESMX 021650Z AUTO 26009KT 230V290 9999 NCD 19/10 Q1019=
201508021620 METAR ESMX 021620Z AUTO 26010KT 220V290 9999 FEW050/// 20/10 Q1019=
201508021550 METAR ESMX 021550Z AUTO 25010KT 9999 SCT087/// 20/10 Q1019=
201508021520 METAR ESMX 021520Z AUTO 25009KT 220V280 9999 SCT091/// 20/09 Q1019=
201508021450 METAR ESMX 021450Z AUTO 22010KT 200V260 9999 FEW077/// BKN094/// 21/09 Q1019=
201508021420 METAR ESMX 021420Z AUTO 21007KT 190V250 9999 FEW056/// SCT094/// 21/10 Q1019=
201508021350 METAR ESMX 021350Z AUTO 22008KT 160V270 9999 FEW051/// SCT069/// 20/09 Q1019=
201508021320 METAR ESMX 021320Z AUTO 21009KT 170V270 9999 FEW053/// SCT110/// 21/10 Q1019=
201508021250 METAR ESMX 021250Z AUTO 22009KT 9999 FEW048/// SCT110/// 20/09 Q1019=
201508021220 METAR ESMX 021220Z AUTO 20007KT 150V230 9999 FEW048/// 20/09 Q1019=
201508021150 METAR ESMX 021150Z AUTO 22007KT 170V290 9999 FEW056/// 20/10 Q1020=
201508021120 METAR ESMX 021120Z AUTO 21009KT 170V280 9999 FEW042/// 20/09 Q1020=
201508021050 METAR ESMX 021050Z AUTO 25009KT 200V280 9999 NCD 19/09 Q1020=
201508021020 METAR ESMX 021020Z AUTO 24008KT 210V280 9999 FEW059/// 19/10 Q1020=
201508020950 METAR ESMX 020950Z AUTO 26007KT 210V300 9999 NCD 18/09 Q1020=
201508020920 METAR ESMX 020920Z AUTO 24007KT 210V280 9999 NCD 18/10 Q1020=
201508020850 METAR ESMX 020850Z AUTO 22005KT 190V260 9999 NCD 17/10 Q1020=
201508020820 METAR ESMX 020820Z AUTO 24006KT 9999 NCD 16/10 Q1019=
201508020750 METAR ESMX 020750Z AUTO 24005KT 9999 FEW070/// 15/10 Q1019=
201508020720 METAR ESMX 020720Z AUTO 20006KT 9999 NCD 14/10 Q1019=
201508020650 METAR ESMX 020650Z AUTO 20007KT 9999 FEW089/// 13/10 Q1019=
201508020620 METAR ESMX 020620Z AUTO 20006KT 9999 NCD 12/10 Q1019=
201508020550 METAR ESMX 020550Z AUTO 19006KT 9999 NCD 12/10 Q1019=
201508020520 METAR ESMX 020520Z AUTO 17003KT 140V200 9999 NCD 12/10 Q1019=
201508020450 METAR ESMX 020450Z AUTO 18002KT 9999 NCD 10/10 Q1019=
201508020420 METAR ESMX 020420Z AUTO 17001KT 9999 FEW037/// 10/10 Q1019=
201508020350 METAR ESMX 020350Z AUTO 18004KT 9999 FEW037/// 09/09 Q1019=
201508020320 METAR ESMX 020320Z AUTO 17003KT 8000 NCD 09/09 Q1019=
201508020250 METAR ESMX 020250Z AUTO 17003KT 7000 BR NCD 09/08 Q1018=
201508020220 METAR ESMX 020220Z AUTO 19004KT 9999 NCD 08/08 Q1018=
201508020150 METAR ESMX 020150Z AUTO VRB02KT 9999 NCD 07/07 Q1018=
201508020120 METAR ESMX 020120Z AUTO 00000KT 9999 NCD 08/07 Q1018=
201508020050 METAR ESMX 020050Z AUTO 00000KT 9999 NCD 08/07 Q1019=
201508020020 METAR ESMX 020020Z AUTO 00000KT 9999 NCD 08/07 Q1019=
201508012350 METAR ESMX 012350Z AUTO 00000KT 9999 NCD 08/08 Q1019=
201508012320 METAR ESMX 012320Z AUTO 00000KT 9999 NCD 09/08 Q1018=
201508012250 METAR ESMX 012250Z AUTO 00000KT 9999 NCD 09/08 Q1018=
201508012220 METAR ESMX 012220Z AUTO 00000KT 9999 NCD 09/08 Q1018=
201508012150 METAR ESMX 012150Z AUTO 00000KT 9999 NCD 09/08 Q1018=
201508012120 METAR ESMX 012120Z AUTO 18001KT 9999 NCD 10/09 Q1018=
201508012050 METAR ESMX 012050Z AUTO 16003KT 9999 NCD 11/10 Q1018=
201508012020 METAR ESMX 012020Z AUTO 17003KT 9999 NCD 12/10 Q1018=
201508011950 METAR ESMX 011950Z AUTO 25003KT 9999 NCD 12/10 Q1018=
201508011920 METAR ESMX 011920Z AUTO 24003KT 9999 NCD 13/10 Q1018=
201508011850 METAR ESMX 011850Z AUTO 23003KT 9999 NCD 14/09 Q1018=
201508011820 METAR ESMX 011820Z AUTO 22004KT 9999 NCD 15/09 Q1017=
201508011750 METAR ESMX 011750Z AUTO 22004KT 9999 NCD 17/09 Q1017=
201508011720 METAR ESMX 011720Z AUTO 21005KT 9999 FEW046/// SCT053/// 17/08 Q1017=
201508011650 METAR ESMX 011650Z AUTO 20004KT 9999 FEW048/// 18/09 Q1017=
201508011620 METAR ESMX 011620Z AUTO 26004KT 9999 NCD 18/09 Q1017=
201508011550 METAR ESMX 011550Z AUTO 24004KT 9999 FEW045/// 17/08 Q1017=
201508011520 METAR ESMX 011520Z AUTO VRB03KT 200V050 9999 FEW047/// 19/09 Q1017=
201508011450 METAR ESMX 011450Z AUTO 26005KT 210V300 9999 SCT041/// 18/08 Q1017=
201508011420 METAR ESMX 011420Z AUTO 26006KT 160V290 9999 BKN042/// 19/08 Q1017=
201508011350 METAR ESMX 011350Z AUTO 30005KT 270V010 9999 FEW040/// 19/10 Q1017=
201508011320 METAR ESMX 011320Z AUTO 22007KT 170V270 9999 SCT040/// 19/09 Q1018=
201508011250 METAR ESMX 011250Z AUTO 21008KT 170V260 9999 FEW037/// SCT041/// 18/08 Q1018=
201508011220 METAR ESMX 011220Z AUTO 22007KT 170V260 9999 FEW034/// SCT043/// BKN048/// 18/09 Q1018=
