##########################################################
# Query made at 04/19/2024 21:46:28 UTC
# Time interval: from 07/01/2015 12:00  to 07/31/2015 12:59  UTC
##########################################################

##########################################################
# ESMX, Vaxjo (Sweden)
# WMO index: 02641. WIGOS ID: 0-20000-0-02648
# Latitude 56-51N. Longitude 014-50E. Altitude 199 m.
##########################################################

201507311250 METAR ESMX 311250Z 25011KT 210V280 9999 OVC030 16/09 Q1011=
201507311220 METAR ESMX 311220Z 27010KT 240V300 9999 OVC030 15/09 Q1010=
201507311150 METAR ESMX 311150Z 25011KT 210V280 9999 OVC030 16/09 Q1010=
201507311120 METAR ESMX 311120Z 25011KT 210V280 9999 OVC027 16/09 Q1010=
201507311050 METAR ESMX 311050Z 24011KT 200V260 9999 OVC026 15/09 Q1010=
201507311020 METAR ESMX 311020Z 24008KT 9999 OVC023 15/09 Q1010=
201507310950 METAR ESMX 310950Z 26009KT 9999 OVC019 14/10 Q1010=
201507310920 METAR ESMX 310920Z 25009KT 9999 OVC018 14/10 Q1009=
201507310850 METAR ESMX 310850Z 25010KT 220V290 9999 OVC015 14/10 Q1009=
201507310820 METAR ESMX 310820Z 25010KT 9999 OVC014 14/11 Q1009=
201507310750 METAR ESMX 310750Z 25009KT 9999 SCT012 OVC015 13/10 Q1009=
201507310720 METAR ESMX 310720Z 23008KT 9999 FEW013 OVC015 14/11 Q1008=
201507310650 METAR ESMX 310650Z 24009KT 9999 FEW011 OVC016 13/11 Q1008=
201507310620 METAR ESMX 310620Z AUTO 26009KT 9999 FEW012/// OVC018/// 14/11 Q1008=
201507310550 METAR ESMX 310550Z AUTO 26008KT 210V290 9999 FEW011/// BKN019/// 14/12 Q1007=
201507310520 METAR ESMX 310520Z AUTO 26006KT 9999 OVC018/// 14/12 Q1007=
201507310450 METAR ESMX 310450Z AUTO 25005KT 9999 FEW008/// OVC016/// 13/12 Q1007=
201507310420 METAR ESMX 310420Z AUTO 26008KT 9999 FEW006/// SCT008/// BKN009/// 13/12 Q1007=
201507310350 METAR ESMX 310350Z AUTO 27008KT 9999 FEW006/// SCT007/// OVC009/// 13/12 Q1007=
201507310320 METAR ESMX 310320Z AUTO 26007KT 9999 FEW004/// SCT006/// OVC008/// 13/12 Q1006=
201507310250 METAR ESMX 310250Z AUTO 27006KT 250V310 9999 FEW004/// OVC005/// 13/13 Q1006=
201507310220 METAR ESMX 310220Z AUTO 29004KT 9999 OVC005/// 13/13 Q1006=
201507310150 METAR ESMX 310150Z AUTO 28006KT 9999 FEW005/// BKN008/// BKN087/// 13/12 Q1006=
201507310120 METAR ESMX 310120Z AUTO 26006KT 9999 OVC005/// 13/13 Q1006=
201507310050 METAR ESMX 310050Z AUTO 26006KT 9999 FEW006/// BKN008/// OVC010/// 13/13 Q1005=
201507310020 METAR ESMX 310020Z AUTO 25004KT 9999 OVC005/// 13/13 Q1005=
201507302350 METAR ESMX 302350Z 26006KT 9999 FEW007 BKN025 14/13 Q1005=
201507302320 METAR ESMX 302320Z 25006KT 9999 FEW007 SCT010 BKN012 14/13 Q1005=
201507302250 METAR ESMX 302250Z 24006KT 9999 SCT010 BKN014 13/13 Q1005=
201507302220 METAR ESMX 302220Z 24006KT 9999 SCT010 BKN085 13/13 Q1004=
201507302150 METAR ESMX 302150Z 24007KT 9999 FEW009 13/13 Q1004=
201507302120 METAR ESMX 302120Z 24005KT 9999 FEW026 OVC070 13/13 Q1004=
201507302050 METAR ESMX 302050Z 24005KT 9999 FEW021 14/13 Q1004=
201507302020 METAR ESMX 302020Z 23005KT 8000 -RA FEW016 BKN045 13/13 Q1004=
201507301950 METAR ESMX 301950Z 24004KT 9999 FEW022 SCT072 13/13 Q1003=
201507301920 METAR ESMX 301920Z 26005KT CAVOK 14/13 Q1003 RERA=
201507301850 METAR ESMX 301850Z AUTO 26005KT 230V290 9999 -RA FEW059/// 14/13 Q1003=
201507301820 METAR ESMX 301820Z AUTO 30005KT 250V340 8000 -RA FEW017/// SCT022/// BKN031/// 14/13 Q1003=
201507301750 METAR ESMX 301750Z AUTO 25007KT 9999 FEW022/// SCT029/// BKN073/// 15/12 Q1002=
201507301720 METAR ESMX 301720Z AUTO 25008KT 9999 FEW022/// SCT032/// BKN067/// 15/12 Q1002=
201507301650 METAR ESMX 301650Z AUTO 25008KT 9999 FEW025/// SCT030/// BKN036/// 16/12 Q1002=
201507301620 METAR ESMX 301620Z AUTO 25009KT 220V290 9999 FEW023/// SCT031/// BKN076/// 16/12 Q1002=
201507301550 METAR ESMX 301550Z 25010KT 9999 FEW020 SCT025 BKN067 16/12 Q1001=
201507301520 METAR ESMX 301520Z 23008KT 200V260 9999 FEW020 SCT040 BKN052 16/13 Q1001=
201507301450 METAR ESMX 301450Z 24007KT 9999 FEW016 SCT023 BKN032 16/13 Q1001=
201507301420 METAR ESMX 301420Z 24008KT 9999 FEW015 SCT030 BKN042 15/13 Q1001=
201507301350 METAR ESMX 301350Z 24007KT 200V280 9999 FEW009 SCT028 BKN050 14/13 Q1001=
201507301320 METAR ESMX 301320Z 23007KT 4000 +RA FEW015 SCT021 BKN036 15/13 Q1001 RERA=
201507301250 METAR ESMX 301250Z 22007KT 9999 SCT020 BKN057 15/13 Q1001=
201507301220 METAR ESMX 301220Z AUTO 25005KT 9999 FEW051/// SCT065/// 15/13 Q1001=
201507301150 METAR ESMX 301150Z AUTO 28008KT 9999 -RA FEW020/// SCT028/// BKN041/// 13/12 Q1001 RESHRA=
201507301120 METAR ESMX 301120Z AUTO 30003KT 270V330 9999 -RA FEW020/// 13/12 Q1000=
201507301050 METAR ESMX 301050Z AUTO 19005KT 150V230 9999 RA FEW024/// SCT070/// 15/12 Q1000=
201507301020 METAR ESMX 301020Z AUTO 20006KT 9999 FEW021/// SCT031/// BKN064/// 15/11 Q1000=
201507300950 METAR ESMX 300950Z AUTO 21006KT 150V240 9999 FEW020/// SCT073/// 15/10 Q0999=
201507300920 METAR ESMX 300920Z AUTO 21006KT 180V250 9999 FEW018/// 15/11 Q0999=
201507300850 METAR ESMX 300850Z AUTO 26007KT 220V300 9999 FEW016/// 15/11 Q0999=
201507300820 METAR ESMX 300820Z AUTO 24006KT 190V270 9999 FEW012/// SCT023/// 14/11 Q0999=
201507300750 METAR ESMX 300750Z AUTO 25006KT 210V280 9999 FEW006/// 13/11 Q0999=
201507300720 METAR ESMX 300720Z AUTO 22007KT 9999 FEW003/// BKN004/// 13/12 Q0999=
201507300650 METAR ESMX 300650Z AUTO 22005KT 9999 OVC001/// 11/11 Q0999=
201507300620 METAR ESMX 300620Z 22005KT 9999 SCT002 11/11 Q0999=
201507300550 METAR ESMX 300550Z 22005KT 0900 R01/0800V1600U R19/P2000N FG VV002 10/10 Q0999=
201507300520 METAR ESMX 300520Z 22005KT 0250 R01/0450N R19/0550N FG VV002 10/10 Q0999=
201507300450 METAR ESMX 300450Z 22005KT 0250 R01/0600N R19/0450N FG VV002 09/09 Q0999=
201507300420 METAR ESMX 300420Z 20004KT 0300 R01/0600V0750N R19/0400V0700D FG VV001 09/09 Q0999=
201507300350 METAR ESMX 300350Z AUTO 19004KT 2900 BR VV000 09/08 Q0999=
201507300320 METAR ESMX 300320Z AUTO 19004KT 3600 BR NCD 08/08 Q0999=
201507300250 METAR ESMX 300250Z AUTO 19004KT 0700 R01/P2000N R19/0800VP2000N NCD 08/08 Q0998=
201507300220 METAR ESMX 300220Z AUTO 19005KT 8000 NCD 08/08 Q0999=
201507300150 METAR ESMX 300150Z AUTO 22004KT 9999 NCD 08/08 Q0999=
201507300120 METAR ESMX 300120Z AUTO 21005KT 9999 NCD 09/08 Q0999=
201507300050 METAR ESMX 300050Z AUTO 21005KT 9999 FEW065/// 08/08 Q0999=
201507300020 METAR ESMX 300020Z AUTO 20005KT 9999 FEW064/// 09/08 Q0999=
201507292350 METAR ESMX 292350Z AUTO 19005KT 9999 BKN062/// 09/09 Q0999=
201507292320 METAR ESMX 292320Z 19006KT CAVOK 09/09 Q0999=
201507292250 METAR ESMX 292250Z 20005KT CAVOK 09/09 Q0999=
201507292220 METAR ESMX 292220Z 18004KT 3100 BR FEW025 10/10 Q0999=
201507292150 METAR ESMX 292150Z 19004KT 9999 FEW024 10/09 Q0999=
201507292120 METAR ESMX 292120Z 18006KT CAVOK 11/10 Q0999=
201507292050 METAR ESMX 292050Z 19005KT 9999 FEW035 11/10 Q0999=
201507292020 METAR ESMX 292020Z 20006KT 9999 -RA FEW019 SCT047 BKN061 12/11 Q0999=
201507291950 METAR ESMX 291950Z 17004KT 9999 SHRA FEW025CB SCT043 BKN063 13/11 Q0999=
201507291920 METAR ESMX 291920Z 17005KT 9999 FEW037 12/11 Q0999=
201507291850 METAR ESMX 291850Z AUTO 19005KT 9999 FEW078/// 13/11 Q0999=
201507291820 METAR ESMX 291820Z AUTO 21006KT 9999 BKN067/// 14/12 Q0999=
201507291750 METAR ESMX 291750Z AUTO 18007KT 9999 FEW008/// 14/13 Q0999=
201507291720 METAR ESMX 291720Z AUTO 18008KT 9999 FEW008/// 14/12 Q0999=
201507291650 METAR ESMX 291650Z AUTO 19007KT 9999 FEW067/// 14/13 Q0999=
201507291620 METAR ESMX 291620Z AUTO 17008KT 9999 -RA FEW079/// 14/13 Q0999 RERA=
201507291550 METAR ESMX 291550Z AUTO 20007KT 9999 -RA FEW063/// 13/12 Q0999=
201507291520 METAR ESMX 291520Z AUTO 21011KT 9999 -RA FEW029/// BKN054/// 14/11 Q0999 RERA=
201507291450 METAR ESMX 291450Z AUTO 20014KT 9999 FEW015/// SCT020/// BKN043/// 15/12 Q0998 RERA=
201507291420 METAR ESMX 291420Z AUTO 19008KT 9999 FEW019/// SCT035/// OVC054/// 16/13 Q0998 RERA=
201507291350 METAR ESMX 291350Z AUTO 22007KT 190V290 9999 FEW021/// SCT083/// 16/13 Q0998=
201507291320 METAR ESMX 291320Z AUTO 21009KT 9999 FEW026/// SCT086/// 16/13 Q0998=
201507291250 METAR ESMX 291250Z AUTO 21010KT 9999 FEW022/// SCT043/// BKN061/// 15/13 Q0998=
201507291220 METAR ESMX 291220Z AUTO 23012KT 9999 FEW025/// SCT029/// 18/12 Q0998=
201507291150 METAR ESMX 291150Z AUTO 25009KT 9999 FEW052/// BKN067/// 18/13 Q0998=
201507291120 METAR ESMX 291120Z AUTO 25009KT 220V280 9999 FEW017/// BKN049/// 17/13 Q0998=
201507291050 METAR ESMX 291050Z AUTO 24008KT 9999 FEW022/// SCT051/// 17/13 Q0998=
201507291020 METAR ESMX 291020Z AUTO 23008KT 210V270 9999 FEW005/// BKN046/// 17/14 Q0998=
201507290950 METAR ESMX 290950Z AUTO 21013KT 180V250 9999 FEW020/// SCT038/// 17/12 Q0998=
201507290920 METAR ESMX 290920Z AUTO 22006KT 190V260 9999 FEW012/// 16/14 Q0998 RERA=
201507290850 METAR ESMX 290850Z AUTO 23010KT 9999 FEW005/// SCT017/// BKN023/// 15/13 Q0998=
201507290820 METAR ESMX 290820Z AUTO 21008KT 180V250 9999 FEW007/// SCT012/// BKN022/// 17/14 Q0997=
201507290750 METAR ESMX 290750Z AUTO 21010KT 170V240 9999 FEW008/// SCT014/// BKN025/// 16/13 Q0998=
201507290720 METAR ESMX 290720Z AUTO 19009KT 9999 FEW007/// SCT010/// BKN028/// 15/14 Q0998=
201507290650 METAR ESMX 290650Z AUTO 19009KT 9999 FEW006/// SCT012/// BKN026/// 15/14 Q0998 RERA=
201507290620 METAR ESMX 290620Z AUTO 19009KT 9999 +RA FEW006/// BKN007/// OVC010/// 14/13 Q0998=
201507290550 METAR ESMX 290550Z AUTO 18008KT 9999 FEW004/// SCT012/// BKN018/// 14/13 Q0997=
201507290520 METAR ESMX 290520Z 18008KT 9999 FEW005 BKN008 14/13 Q0997=
201507290450 METAR ESMX 290450Z 18008KT 9999 SCT005 BKN007 14/13 Q0997=
201507290420 METAR ESMX 290420Z 19008KT 9999 OVC005 14/13 Q0997=
201507290350 METAR ESMX 290350Z AUTO 18008KT 9999 FEW004/// OVC006/// 14/13 Q0997=
201507290320 METAR ESMX 290320Z AUTO 19007KT 9999 OVC004/// 14/13 Q0997=
201507290250 METAR ESMX 290250Z AUTO 19007KT 9999 FEW004/// SCT005/// BKN007/// 14/13 Q0997 RERA=
201507290220 METAR ESMX 290220Z AUTO 20008KT 9999 BKN005/// OVC008/// 14/13 Q0997=
201507290150 METAR ESMX 290150Z AUTO 18008KT 9999 FEW006/// SCT008/// BKN011/// 14/13 Q0997=
201507290120 METAR ESMX 290120Z 17006KT 9999 FEW006 SCT025 BKN029 14/13 Q0997=
201507290050 METAR ESMX 290050Z 18007KT 9999 SCT005 BKN008 14/14 Q0997=
201507290020 METAR ESMX 290020Z 18006KT 9999 BKN005 OVC023 14/14 Q0997=
201507282350 METAR ESMX 282350Z 18006KT 9999 FEW004 SCT006 BKN009 14/14 Q0997=
201507282320 METAR ESMX 282320Z 18005KT 9999 BKN005 OVC009 14/14 Q0997=
201507282250 METAR ESMX 282250Z 19007KT 9999 BKN005 14/14 Q0997=
201507282220 METAR ESMX 282220Z 20006KT 9999 OVC004 14/14 Q0997=
201507282150 METAR ESMX 282150Z 18006KT 9999 BKN006 14/14 Q0997=
201507282120 METAR ESMX 282120Z 17005KT 9999 SCT007 14/13 Q0997=
201507282050 METAR ESMX 282050Z 17005KT 9999 FEW025 SCT090 14/13 Q0997=
201507282020 METAR ESMX 282020Z 18006KT 9999 FEW040 BKN086 15/14 Q0997=
201507281950 METAR COR ESMX 281950Z 16005KT 9999 FEW007 SCT080 15/14 Q0997=
201507281924 METAR ESMX 281924Z 17005KT 9999 FEW007 BKN050 15/14 Q0997=
201507281920 METAR ESMX 281920Z AUTO 17005KT 9999 -DZ FEW007/// BKN078/// 15/14 Q0997=
201507281850 METAR ESMX 281850Z AUTO 16005KT 130V190 9999 -RA FEW016/// SCT027/// BKN041/// 16/14 Q0997 RERA=
201507281820 METAR ESMX 281820Z AUTO 17004KT 9999 -DZ FEW013/// SCT022/// BKN029/// 16/14 Q0997 REDZ=
201507281750 METAR ESMX 281750Z AUTO 17006KT 9999 DZ FEW029/// SCT038/// OVC086/// 16/14 Q0997=
201507281720 METAR ESMX 281720Z AUTO 17007KT 9999 FEW072/// BKN087/// 17/14 Q0997=
201507281650 METAR ESMX 281650Z 16005KT 130V200 9999 SCT025 BKN085 18/14 Q0996=
201507281620 METAR ESMX 281620Z 19007KT 9999 FEW019 SCT023 17/14 Q0996=
201507281550 METAR ESMX 281550Z 18006KT 150V220 9999 FEW017 SCT023 19/13 Q0996=
201507281520 METAR ESMX 281520Z 15005KT 110V200 9999 FEW018 SCT023 18/14 Q0996=
201507281450 METAR ESMX 281450Z 19006KT 120V210 9999 SCT015 BKN060 18/14 Q0996=
201507281420 METAR COR ESMX 281420Z 16006KT 9999 FEW009 SCT017 BKN057 17/14 Q0996=
201507281350 METAR ESMX 281350Z 17006KT 130V200 9999 FEW010 SCT017 BKN022 17/14 Q0996=
201507281320 METAR ESMX 281320Z AUTO 16004KT 120V200 9999 FEW027/// 17/14 Q0997=
201507281250 METAR ESMX 281250Z AUTO 18008KT 9999 FEW006/// SCT013/// BKN022/// 17/14 Q0997=
201507281220 METAR ESMX 281220Z AUTO 16005KT 140V200 9999 -DZ FEW013/// SCT018/// BKN026/// 17/15 Q0997 RERA=
201507281150 METAR ESMX 281150Z AUTO 08004KT 030V120 9999 FEW008/// SCT036/// BKN070/// 16/15 Q0997=
201507281120 METAR ESMX 281120Z AUTO 11005KT 080V150 3300 +RA FEW011/// SCT050/// 15/14 Q0997 RERA=
201507281050 METAR ESMX 281050Z AUTO 13005KT 070V160 9999 FEW013/// SCT017/// BKN029/// 16/14 Q0997=
201507281020 METAR ESMX 281020Z AUTO 13005KT 080V160 9999 FEW009/// SCT014/// BKN016/// 17/14 Q0997=
201507280950 METAR ESMX 280950Z AUTO 11005KT 060V150 9999 FEW008/// SCT010/// BKN012/// 16/14 Q0997=
201507280920 METAR ESMX 280920Z AUTO 11006KT 060V180 9999 FEW008/// SCT010/// BKN014/// 16/15 Q0997=
201507280850 METAR ESMX 280850Z AUTO 12005KT 070V170 9999 FEW005/// SCT008/// BKN010/// 15/15 Q0997=
201507280820 METAR ESMX 280820Z AUTO 10004KT 060V160 9000 -RA FEW005/// BKN006/// OVC010/// 14/14 Q0997=
201507280750 METAR ESMX 280750Z AUTO 10005KT 060V130 6000 RA FEW006/// SCT007/// BKN009/// 14/14 Q0997 RESHRA=
201507280720 METAR ESMX 280720Z AUTO 09004KT 040V140 9999 DZ FEW006/// SCT007/// BKN008/// 14/14 Q0997=
201507280650 METAR ESMX 280650Z AUTO 10004KT 060V140 9999 DZ FEW004/// OVC006/// 14/13 Q0997 REDZ=
201507280620 METAR ESMX 280620Z AUTO 08004KT 050V120 9999 DZ FEW003/// SCT005/// BKN006/// 14/14 Q0997=
201507280550 METAR ESMX 280550Z AUTO 09003KT 040V120 9000 -RA OVC003/// 14/13 Q0997=
201507280520 METAR ESMX 280520Z AUTO 08005KT 050V130 9999 OVC003/// 14/13 Q0997 REDZ=
201507280450 METAR ESMX 280450Z AUTO 09003KT 040V120 9000 BR OVC003/// 13/13 Q0997=
201507280420 METAR ESMX 280420Z AUTO 07003KT 040V110 9999 OVC004/// 13/13 Q0997 REDZ=
201507280350 METAR ESMX 280350Z AUTO 07004KT 030V110 9999 DZ OVC005/// 13/13 Q0998 RESHRA=
201507280320 METAR ESMX 280320Z AUTO 08004KT 050V120 9999 -RA OVC006/// 13/12 Q0998=
201507280250 METAR ESMX 280250Z AUTO 08004KT 050V120 9999 -DZ FEW006/// BKN010/// BKN046/// 13/12 Q0998=
201507280220 METAR ESMX 280220Z AUTO 09004KT 060V140 9999 -RA FEW010/// BKN043/// 13/12 Q0998=
201507280150 METAR ESMX 280150Z AUTO 10003KT 040V150 9999 SCT014/// BKN044/// OVC052/// 13/12 Q0998=
201507280120 METAR ESMX 280120Z AUTO 09004KT 050V140 9999 FEW006/// SCT008/// BKN010/// 12/12 Q0999=
201507280050 METAR ESMX 280050Z AUTO 09003KT 030V130 9999 OVC006/// 12/12 Q0999=
201507280020 METAR ESMX 280020Z AUTO VRB03KT 9999 BKN007/// OVC011/// 12/11 Q0999=
201507272350 METAR ESMX 272350Z 09004KT 050V130 9999 FEW009 SCT010 BKN014 12/11 Q0999=
201507272320 METAR ESMX 272320Z 09004KT 9999 FEW012 OVC055 13/11 Q1000=
201507272250 METAR ESMX 272250Z 11003KT 060V150 CAVOK 13/11 Q1000=
201507272220 METAR ESMX 272220Z 09004KT 050V140 CAVOK 13/11 Q1000=
201507272150 METAR ESMX 272150Z 09004KT 040V150 9999 FEW040 OVC052 13/11 Q1000=
201507272120 METAR ESMX 272120Z 10004KT 060V140 9999 FEW030 OVC051 13/11 Q1001=
201507272050 METAR ESMX 272050Z 10004KT 060V150 9999 SCT034 OVC048 12/11 Q1001=
201507272020 METAR ESMX 272020Z 09004KT 030V140 9999 OVC034 12/11 Q1001=
201507271950 METAR ESMX 271950Z 08004KT 020V120 9999 OVC035 12/11 Q1001=
201507271920 METAR ESMX 271920Z 07004KT 030V110 9999 OVC040 12/11 Q1001=
201507271850 METAR ESMX 271850Z AUTO 07003KT 010V110 9999 FEW046/// BKN059/// 12/11 Q1002=
201507271820 METAR ESMX 271820Z AUTO 07004KT 040V110 9999 OVC053/// 12/11 Q1002=
201507271750 METAR ESMX 271750Z AUTO 07004KT 040V110 9999 OVC049/// 12/12 Q1002=
201507271720 METAR ESMX 271720Z AUTO 07003KT 010V120 9999 BKN044/// 13/12 Q1002 REDZ=
201507271650 METAR ESMX 271650Z AUTO 10003KT 060V140 9999 BKN044/// 13/12 Q1003=
201507271620 METAR ESMX 271620Z AUTO 12003KT 070V170 9999 DZ FEW019/// BKN041/// 12/12 Q1003=
201507271550 METAR ESMX 271550Z 12004KT 080V150 4000 RA FEW018 SCT025 OVC033 13/12 Q1003=
201507271520 METAR ESMX 271520Z 11004KT 070V160 8000 RA FEW007 BKN042 BKN049 14/11 Q1003=
201507271450 METAR ESMX 271450Z 11003KT 070V170 9999 -RA FEW025 SCT049 BKN063 15/11 Q1003=
201507271420 METAR ESMX 271420Z 10004KT 070V160 9999 FEW016 SCT045 15/11 Q1003=
201507271350 METAR ESMX 271350Z 09004KT 040V130 9999 -RA FEW022 BKN056 15/11 Q1003=
201507271320 METAR ESMX 271320Z 12005KT 100V160 9999 -DZ FEW024 BKN056 15/10 Q1003=
201507271250 METAR ESMX 271250Z AUTO 14005KT 090V170 9999 -DZ FEW021/// SCT061/// 16/11 Q1003=
201507271220 METAR ESMX 271220Z 14005KT 100V210 CAVOK 15/10 Q1004=
201507271150 METAR ESMX 271150Z AUTO 15005KT 120V210 9999 FEW053/// 15/11 Q1004=
201507271120 METAR ESMX 271120Z 20006KT 160V230 9999 FEW018 15/10 Q1004=
201507271050 METAR ESMX 271050Z 19007KT 170V230 9999 -RA FEW016 SCT045 14/11 Q1004=
201507271020 METAR ESMX 271020Z 17007KT 9999 SCT014 14/10 Q1004=
201507270950 METAR ESMX 270950Z 18006KT 9999 -RA FEW015 SCT030 BKN049 14/12 Q1004 REDZ=
201507270920 METAR ESMX 270920Z 19009KT 9999 -RA FEW018 BKN063 14/11 Q1004=
201507270850 METAR ESMX 270850Z 19009KT 9999 -DZ FEW020 14/10 Q1004=
201507270820 METAR ESMX 270820Z 20010KT CAVOK 14/10 Q1004=
201507270750 METAR ESMX 270750Z 18008KT CAVOK 14/09 Q1004=
201507270720 METAR ESMX 270720Z 19009KT CAVOK 13/09 Q1004=
201507270650 METAR ESMX 270650Z 19008KT CAVOK 12/09 Q1004=
201507270620 METAR ESMX 270620Z AUTO 21007KT 9999 BKN075/// 12/09 Q1004=
201507270550 METAR ESMX 270550Z AUTO 21008KT 9999 FEW081/// 12/10 Q1004=
201507270520 METAR ESMX 270520Z AUTO 21007KT 9999 NCD 11/09 Q1004=
201507270450 METAR ESMX 270450Z AUTO 21007KT 9999 NCD 09/08 Q1004=
201507270420 METAR ESMX 270420Z AUTO 21005KT 9999 NCD 08/07 Q1004=
201507270350 METAR ESMX 270350Z AUTO 20006KT 9999 NCD 08/07 Q1004=
201507270320 METAR ESMX 270320Z AUTO 18005KT 9999 NCD 08/07 Q1003=
201507270250 METAR ESMX 270250Z AUTO 17004KT 9999 NCD 08/07 Q1004=
201507270220 METAR ESMX 270220Z AUTO 20006KT 9999 NCD 08/07 Q1003=
201507270150 METAR ESMX 270150Z AUTO 19008KT 9999 NCD 08/07 Q1003=
201507270120 METAR ESMX 270120Z AUTO 19007KT 9999 SCT039/// 09/07 Q1003=
201507270050 METAR ESMX 270050Z AUTO 20008KT 9999 FEW040/// 10/08 Q1003=
201507270020 METAR ESMX 270020Z AUTO 21008KT 9999 BKN046/// 11/08 Q1003=
201507262350 METAR ESMX 262350Z AUTO 21009KT 9999 OVC043/// 11/08 Q1003=
201507262320 METAR ESMX 262320Z 21009KT 9999 OVC039 12/08 Q1003=
201507262250 METAR ESMX 262250Z 23009KT 9999 OVC039 12/08 Q1003=
201507262220 METAR ESMX 262220Z 22009KT 190V250 9999 FEW032 BKN041 12/08 Q1003=
201507262150 METAR COR ESMX 262150Z 21011KT 9999 FEW029 BKN037 OVC044 12/08 Q1003=
201507262120 METAR ESMX 262120Z 20010KT 9999 FEW037 OVC047 12/09 Q1002=
201507262050 METAR ESMX 262050Z 22011KT 9999 OVC048 12/09 Q1002=
201507262020 METAR ESMX 262020Z 22012KT 9999 FEW029 OVC050 12/09 Q1002=
201507261950 METAR ESMX 261950Z 21010KT 9999 FEW031 OVC049 12/09 Q1002=
201507261920 METAR ESMX 261920Z 21011KT 9999 FEW030 BKN050 12/09 Q1002=
201507261850 METAR ESMX 261850Z 22012KT 9999 FEW029 SCT033 BKN059 12/09 Q1002=
201507261820 METAR ESMX 261820Z 22012KT 9999 FEW028 SCT032 BKN058 13/09 Q1002=
201507261750 METAR ESMX 261750Z 22013KT 9999 FEW035 OVC051 13/08 Q1002=
201507261720 METAR ESMX 261720Z 22012KT 9999 FEW027 OVC051 14/09 Q1002=
201507261650 METAR ESMX 261650Z AUTO 24013KT 9999 FEW030/// SCT041/// BKN052/// 14/09 Q1002=
201507261620 METAR ESMX 261620Z AUTO 23014G25KT 200V260 9999 FEW028/// SCT044/// BKN051/// 14/09 Q1001=
201507261550 METAR ESMX 261550Z AUTO 24011KT 9999 FEW018/// SCT039/// BKN055/// 13/10 Q1001=
201507261520 METAR ESMX 261520Z AUTO 23013KT 200V270 9999 FEW019/// BKN024/// BKN048/// 13/11 Q1001=
201507261450 METAR ESMX 261450Z AUTO 24012KT 210V270 9999 FEW012/// SCT017/// BKN021/// 13/11 Q1001 RERA=
201507261420 METAR ESMX 261420Z AUTO 25013G25KT 9999 FEW015/// SCT022/// BKN032/// 14/11 Q1001=
201507261350 METAR ESMX 261350Z AUTO 25012KT 9999 FEW007/// SCT013/// BKN019/// 13/12 Q1000 RERA=
201507261320 METAR ESMX 261320Z AUTO 24011KT 9999 FEW018/// SCT029/// BKN037/// 13/12 Q1000=
201507261250 METAR ESMX 261250Z AUTO 24011KT 9999 -RA FEW022/// SCT047/// BKN053/// 14/11 Q1000 RERA=
201507261220 METAR ESMX 261220Z AUTO 26017G30KT 7000 -RA FEW013/// SCT019/// BKN034/// 13/10 Q1000=
201507261150 METAR ESMX 261150Z AUTO 23016KT 190V280 9000 FEW013/// SCT018/// BKN022/// 14/11 Q0999=
201507261120 METAR ESMX 261120Z AUTO 23013KT 8000 BR FEW017/// SCT025/// BKN038/// 14/12 Q0999 REDZ=
201507261050 METAR ESMX 261050Z AUTO 24015KT 9999 FEW009/// SCT018/// BKN024/// 15/12 Q0998 REDZ=
201507261020 METAR ESMX 261020Z AUTO 25013G23KT 9999 FEW011/// SCT015/// BKN018/// 14/12 Q0998 REDZ=
201507260950 METAR ESMX 260950Z AUTO 24016G28KT 7000 BR FEW010/// SCT014/// BKN016/// 14/13 Q0997=
201507260920 METAR ESMX 260920Z AUTO 25016G28KT 220V280 9999 FEW007/// SCT012/// BKN015/// 15/13 Q0997 REDZ=
201507260850 METAR ESMX 260850Z AUTO 24014G24KT 210V280 5000 FEW008/// SCT011/// BKN016/// 14/13 Q0996=
201507260820 METAR ESMX 260820Z AUTO 24012KT 9000 BKN010/// OVC020/// 14/13 Q0996 RERA=
201507260750 METAR ESMX 260750Z AUTO 21013KT 9999 FEW005/// SCT007/// BKN010/// 14/13 Q0995=
201507260720 METAR ESMX 260720Z AUTO 18010KT 6000 BR FEW005/// SCT008/// BKN010/// 14/13 Q0995 RERA=
201507260650 METAR ESMX 260650Z AUTO 17009KT 9999 FEW010/// SCT014/// BKN018/// 15/13 Q0995=
201507260620 METAR ESMX 260620Z AUTO 18010KT 9999 FEW009/// SCT012/// BKN015/// 15/13 Q0995=
201507260550 METAR ESMX 260550Z AUTO 16008KT 9999 FEW010/// BKN068/// 15/13 Q0995=
201507260520 METAR ESMX 260520Z AUTO 16007KT 9999 BKN070/// 14/13 Q0996=
201507260450 METAR ESMX 260450Z AUTO 15006KT 9999 FEW007/// BKN070/// 14/13 Q0996=
201507260420 METAR ESMX 260420Z AUTO 16006KT 100V190 9999 FEW005/// SCT007/// BKN073/// 14/13 Q0996=
201507260350 METAR ESMX 260350Z AUTO 15006KT 9999 FEW006/// BKN068/// 14/13 Q0996=
201507260320 METAR ESMX 260320Z AUTO 15005KT 9999 FEW010/// SCT012/// 14/13 Q0996=
201507260250 METAR ESMX 260250Z AUTO 16007KT 9999 FEW007/// SCT014/// BKN017/// 14/13 Q0996=
201507260220 METAR ESMX 260220Z AUTO 17006KT 9999 FEW006/// BKN024/// 15/14 Q0996=
201507260150 METAR ESMX 260150Z AUTO 18009KT 9999 FEW008/// SCT013/// BKN020/// 15/14 Q0996=
201507260120 METAR ESMX 260120Z AUTO 18006KT 9999 FEW013/// BKN019/// BKN026/// 15/14 Q0996=
201507260050 METAR ESMX 260050Z AUTO 19007KT 9000 BR FEW008/// OVC020/// 16/15 Q0996=
201507260020 METAR ESMX 260020Z AUTO 19009KT 6000 FEW001/// SCT005/// BKN008/// 16/15 Q0996=
201507252350 METAR ESMX 252350Z AUTO 17005KT 1000 R01/P2000N R19/P2000N FEW001/// BKN003/// 17/16 Q0996=
201507252320 METAR ESMX 252320Z AUTO 15004KT 0750 R01/P2000N R19/P2000N FEW003/// SCT110/// 16/16 Q0997=
201507252250 METAR ESMX 252250Z AUTO 12003KT 070V150 3000 BKN021/// 16/16 Q0997=
201507252220 METAR ESMX 252220Z AUTO 11003KT 0450 R01/0900VP2000N R19/0600VP2000D FG FEW041/// SCT084/// 16/15 Q0997 RERA=
201507252150 METAR ESMX 252150Z AUTO 20007KT 5000 -RA FEW032/// BKN039/// 17/16 Q0997 REDZ=
201507252120 METAR ESMX 252120Z AUTO 16009KT 3300 -RA FEW001/// SCT003/// BKN005/// 17/16 Q0997=
201507252050 METAR ESMX 252050Z AUTO 13006KT 100V160 2800 BR OVC003/// 17/17 Q0997=
201507252020 METAR ESMX 252020Z AUTO 13005KT 080V170 3100 BR FEW003/// BKN004/// OVC007/// 17/17 Q0997=
201507251950 METAR ESMX 251950Z AUTO 14004KT 100V170 3200 BR FEW003/// OVC005/// 17/17 Q0998=
201507251920 METAR ESMX 251920Z AUTO 15005KT 3300 BR FEW002/// BKN004/// OVC006/// 17/17 Q0998=
201507251850 METAR ESMX 251850Z AUTO 13003KT 100V160 2800 BR FEW003/// SCT005/// BKN008/// 17/17 Q0998=
201507251820 METAR ESMX 251820Z AUTO 16003KT 3100 BR FEW002/// BKN004/// OVC006/// 17/17 Q0998=
201507251750 METAR ESMX 251750Z AUTO VRB03KT 3400 BR BKN001/// OVC004/// 17/17 Q0998=
201507251720 METAR ESMX 251720Z AUTO 13004KT 080V170 3200 BR OVC001/// 17/16 Q0998 REDZ=
201507251650 METAR ESMX 251650Z AUTO 14003KT 080V200 1800 BR VV001 16/16 Q0998=
201507251620 METAR ESMX 251620Z AUTO 09004KT 060V130 3300 BR OVC002/// 16/16 Q0998=
201507251550 METAR ESMX 251550Z AUTO 12003KT 070V150 4500 DZ OVC002/// 15/15 Q0999 RERA=
201507251520 METAR ESMX 251520Z AUTO 09003KT 040V150 3900 -DZ VV003 15/15 Q0999=
201507251450 METAR ESMX 251450Z AUTO 06004KT 020V110 2500 -RA VV004 15/14 Q0999 REDZ=
201507251420 METAR ESMX 251420Z AUTO 07004KT 030V110 4400 -DZ FEW003/// BKN005/// OVC008/// 14/14 Q1000=
201507251350 METAR ESMX 251350Z AUTO 06009KT 030V110 4500 DZ FEW003/// SCT005/// BKN006/// 14/13 Q1000 REDZ=
201507251320 METAR ESMX 251320Z AUTO 06008KT 030V120 5000 -RA FEW005/// SCT006/// BKN008/// 13/13 Q1000 REDZ=
201507251250 METAR ESMX 251250Z AUTO 04010KT 020V080 7000 +DZ FEW005/// SCT006/// BKN008/// 13/13 Q1001=
201507251220 METAR ESMX 251220Z AUTO 04008KT 5000 +RA FEW004/// BKN006/// OVC008/// 13/13 Q1002 RESHRA=
201507251150 METAR ESMX 251150Z AUTO 05009KT 020V090 3600 +RA FEW006/// OVC009/// 13/12 Q1002=
201507251120 METAR ESMX 251120Z AUTO 05008KT 010V100 9999 -RA OVC010/// 13/12 Q1003 RERA=
201507251050 METAR ESMX 251050Z AUTO 05010KT 010V090 9999 DZ FEW016/// SCT023/// BKN031/// 13/12 Q1004=
201507251020 METAR ESMX 251020Z AUTO 04010KT 350V080 9999 -RA FEW071/// 13/11 Q1004=
201507250950 METAR ESMX 250950Z AUTO 04008KT 010V080 9999 -RA BKN057/// 13/11 Q1005=
201507250920 METAR ESMX 250920Z AUTO 07007KT 030V120 9999 -RA FEW059/// SCT073/// 14/11 Q1006=
201507250850 METAR ESMX 250850Z AUTO 07008KT 030V120 9999 FEW072/// 15/09 Q1006=
201507250820 METAR ESMX 250820Z AUTO 05008KT 010V090 9999 FEW056/// 15/09 Q1007=
201507250750 METAR ESMX 250750Z AUTO 08007KT 030V110 9999 NCD 15/08 Q1007=
201507250720 METAR ESMX 250720Z AUTO 09007KT 050V120 9999 NCD 15/08 Q1007=
201507250650 METAR ESMX 250650Z AUTO 07007KT 050V110 9999 FEW079/// 15/09 Q1008=
201507250620 METAR ESMX 250620Z AUTO 08006KT 050V120 9999 NCD 15/10 Q1009=
201507250550 METAR ESMX 250550Z AUTO 09005KT 040V150 9999 NCD 15/11 Q1009=
201507250520 METAR ESMX 250520Z AUTO 09004KT 030V150 9999 NCD 13/12 Q1010=
201507250450 METAR ESMX 250450Z AUTO VRB03KT 9999 SCT000/// 12/12 Q1011=
201507250420 METAR ESMX 250420Z AUTO 09003KT 060V130 2400 BR VV001 11/11 Q1011=
201507250350 METAR ESMX 250350Z AUTO 12003KT 090V160 2400 BR SCT001/// 10/10 Q1011=
201507250320 METAR ESMX 250320Z AUTO VRB03KT 9999 NCD 09/08 Q1011=
201507250250 METAR ESMX 250250Z AUTO 10003KT 9999 NCD 08/08 Q1011=
201507250220 METAR ESMX 250220Z AUTO 00000KT 9999 NCD 06/06 Q1012=
201507250150 METAR ESMX 250150Z AUTO VRB01KT 9999 FEW088/// 07/06 Q1012=
201507250120 METAR ESMX 250120Z AUTO 00000KT 9999 BKN096/// 07/06 Q1012=
201507250050 METAR ESMX 250050Z AUTO 00000KT 9999 FEW100/// 07/06 Q1012=
201507250020 METAR ESMX 250020Z AUTO 20002KT 9999 NCD 07/07 Q1013=
201507242350 METAR ESMX 242350Z AUTO VRB01KT 9999 NCD 07/06 Q1013=
201507242320 METAR ESMX 242320Z AUTO 00000KT 9999 NCD 08/07 Q1013=
201507242250 METAR ESMX 242250Z AUTO 00000KT 9999 NCD 07/06 Q1013=
201507242220 METAR ESMX 242220Z AUTO 18003KT 9999 NCD 09/07 Q1014=
201507242150 METAR ESMX 242150Z AUTO 21003KT 9999 NCD 09/06 Q1014=
201507242120 METAR ESMX 242120Z AUTO 21004KT 9999 NCD 08/05 Q1014=
201507242050 METAR ESMX 242050Z AUTO 20004KT 9999 NCD 08/06 Q1014=
201507242020 METAR ESMX 242020Z AUTO 21004KT 9999 NCD 10/06 Q1014=
201507241950 METAR ESMX 241950Z AUTO 24004KT 9999 NCD 13/05 Q1014=
201507241920 METAR ESMX 241920Z AUTO 24005KT 9999 NCD 13/05 Q1013=
201507241850 METAR ESMX 241850Z AUTO 22003KT 9999 NCD 15/05 Q1013=
201507241820 METAR ESMX 241820Z AUTO 23003KT 210V280 9999 NCD 16/06 Q1013=
201507241750 METAR ESMX 241750Z AUTO 24006KT 9999 FEW057/// 17/06 Q1013=
201507241720 METAR ESMX 241720Z AUTO 25006KT 9999 FEW055/// 18/07 Q1014=
201507241650 METAR ESMX 241650Z AUTO 22007KT 190V260 9999 BKN065/// 18/07 Q1014=
201507241620 METAR ESMX 241620Z AUTO 21007KT 9999 BKN062/// 17/07 Q1014=
201507241550 METAR ESMX 241550Z AUTO 23008KT 9999 SCT067/// 18/06 Q1014=
201507241520 METAR ESMX 241520Z AUTO 23008KT 200V260 9999 SCT068/// 18/06 Q1014=
201507241450 METAR ESMX 241450Z 25007KT CAVOK 18/08 Q1014=
201507241420 METAR ESMX 241420Z 27005KT 240V320 9999 FEW042 SCT048 OVC061 17/09 Q1014=
201507241350 METAR ESMX 241350Z 28006KT 9999 FEW043 BKN062 17/09 Q1014=
201507241320 METAR ESMX 241320Z AUTO 25008KT 230V300 9999 FEW036/// BKN053/// OVC070/// 17/09 Q1015=
201507241250 METAR ESMX 241250Z 24008KT 9999 FEW041 17/09 Q1015=
201507241220 METAR ESMX 241220Z 23009KT 200V260 9999 FEW041 SCT046 17/08 Q1015=
201507241150 METAR ESMX 241150Z 22009KT 180V250 9999 FEW040 18/07 Q1015=
201507241128 METAR ESMX 241128Z 22011KT 190V270 9999 FEW033 BKN071 17/08 Q1015=
201507241120 METAR ESMX 241120Z AUTO 20010KT 170V230 9999 FEW033/// BKN069/// 18/09 Q1015=
201507241050 METAR ESMX 241050Z 21011KT 9999 FEW036 BKN065 16/08 Q1015=
201507241020 METAR ESMX 241020Z AUTO 21012KT 9999 FEW039/// BKN066/// 17/09 Q1015=
201507240956 METAR ESMX 240956Z 22012KT 9999 FEW042 SCT049 BKN066 17/09 Q1015=
201507240950 METAR ESMX 240950Z AUTO 23012KT 9999 FEW040/// SCT046/// BKN059/// 17/08 Q1015=
201507240920 METAR ESMX 240920Z 25012KT 210V280 9999 FEW039 SCT048 BKN053 18/07 Q1015=
201507240850 METAR ESMX 240850Z 25010KT 220V290 9999 FEW038 SCT056 17/09 Q1014=
201507240820 METAR ESMX 240820Z 25010KT 210V280 9999 FEW033 SCT043 16/09 Q1015=
201507240750 METAR ESMX 240750Z 25010KT 9999 SCT030 16/08 Q1015=
201507240720 METAR ESMX 240720Z 23009KT 200V260 9999 FEW022 SCT047 15/09 Q1014=
201507240650 METAR ESMX 240650Z 25010KT 230V290 9999 FEW017 SCT021 BKN028 14/09 Q1015=
201507240620 METAR ESMX 240620Z AUTO 25008KT 210V290 9999 FEW016/// 14/10 Q1014=
201507240550 METAR ESMX 240550Z AUTO 23008KT 220V020 9999 FEW060/// 13/11 Q1014=
201507240520 METAR ESMX 240520Z AUTO 20007KT 9999 FEW041/// SCT059/// 12/10 Q1014 REDZ=
201507240450 METAR ESMX 240450Z AUTO 22006KT 9999 DZ FEW027/// SCT038/// BKN060/// 11/10 Q1014=
201507240420 METAR ESMX 240420Z AUTO 22005KT 9999 FEW065/// 11/09 Q1014=
201507240350 METAR ESMX 240350Z AUTO 22006KT 9999 SCT064/// 10/09 Q1014=
201507240320 METAR ESMX 240320Z AUTO 22005KT 9999 BKN065/// 09/08 Q1014=
201507240250 METAR ESMX 240250Z AUTO 22006KT 9999 NCD 08/07 Q1014=
201507240220 METAR ESMX 240220Z AUTO 21006KT 9999 NCD 08/07 Q1013=
201507240150 METAR ESMX 240150Z AUTO 23006KT 9999 NCD 09/08 Q1014=
201507240120 METAR ESMX 240120Z AUTO 23006KT 220V020 9999 NCD 09/08 Q1013=
201507240050 METAR ESMX 240050Z AUTO 22007KT 9999 NCD 09/08 Q1013=
201507240020 METAR ESMX 240020Z AUTO 23007KT 9999 NCD 09/08 Q1013=
201507232350 METAR ESMX 232350Z 22007KT CAVOK 09/08 Q1013=
201507232320 METAR ESMX 232320Z 22006KT CAVOK 10/08 Q1013=
201507232250 METAR COR ESMX 232250Z 23006KT CAVOK 10/08 Q1012=
201507232220 METAR ESMX 232220Z 23006KT 9999 FEW031 10/08 Q1012=
201507232150 METAR ESMX 232150Z 22005KT 9999 FEW032 10/08 Q1012=
201507232120 METAR ESMX 232120Z 24006KT CAVOK 11/08 Q1012=
201507232050 METAR ESMX 232050Z 24006KT 9999 FEW033 12/08 Q1012=
201507232020 METAR ESMX 232020Z 25007KT CAVOK 13/08 Q1012=
201507231950 METAR COR ESMX 231950Z 25007KT 9999 FEW035 SCT080 13/08 Q1012=
201507231920 METAR ESMX 231920Z 26007KT 9999 FEW037 SCT045 14/07 Q1011=
201507231850 METAR ESMX 231850Z AUTO 26007KT 9999 NCD 14/07 Q1011=
201507231820 METAR ESMX 231820Z AUTO 26010KT 230V290 9999 NCD 15/07 Q1011=
201507231750 METAR ESMX 231750Z AUTO 25010KT 220V280 9999 NCD 16/08 Q1010=
201507231720 METAR ESMX 231720Z AUTO 27011KT 240V310 9999 FEW054/// 16/09 Q1010=
201507231650 METAR ESMX 231650Z AUTO 26012KT 240V300 9999 FEW057/// 16/08 Q1011=
201507231620 METAR ESMX 231620Z AUTO 25014KT 9999 FEW047/// 17/08 Q1010=
201507231550 METAR ESMX 231550Z AUTO 26013KT 210V290 9999 FEW048/// 17/06 Q1010=
201507231522 METAR ESMX 231522Z 27012KT 240V320 9999 FEW044 BKN049 18/08 Q1010=
201507231450 METAR ESMX 231450Z AUTO 25015KT 220V290 9999 SCT047/// 17/07 Q1010=
201507231420 METAR ESMX 231420Z 26015KT 230V290 9999 SCT045 17/07 Q1010=
201507231350 METAR ESMX 231350Z 25014KT 9999 SCT047 17/07 Q1010=
201507231320 METAR ESMX 231320Z 26014KT 230V300 9999 BKN043 17/07 Q1009=
201507231250 METAR ESMX 231250Z 26015KT 9999 SCT046 18/07 Q1009=
201507231220 METAR ESMX 231220Z AUTO 25015KT 220V280 9999 FEW038/// 18/08 Q1009=
201507231150 METAR ESMX 231150Z AUTO 26014KT 210V290 9999 FEW031/// SCT043/// BKN053/// 18/08 Q1009=
201507231120 METAR ESMX 231120Z AUTO 25012KT 9999 R01///// R19///// FEW034/// BKN057/// 16/09 Q1009=
201507231050 METAR ESMX 231050Z AUTO 26011KT 220V280 9999 R01///// R19/P2000N FEW030/// SCT035/// BKN044/// 16/09 Q1009=
201507231020 METAR ESMX 231020Z AUTO 24011KT 9999 R01///// R19/P2000N FEW032/// SCT039/// BKN044/// 17/09 Q1008=
201507230950 METAR ESMX 230950Z AUTO 23010KT 200V260 9999 FEW046/// SCT052/// 17/09 Q1008=
201507230920 METAR ESMX 230920Z AUTO 24012KT 9999 FEW029/// SCT041/// BKN049/// 16/10 Q1008=
201507230850 METAR ESMX 230850Z AUTO 24011G22KT 9999 FEW034/// SCT039/// 17/09 Q1008=
201507230820 METAR ESMX 230820Z AUTO 22011KT 200V260 9999 FEW023/// BKN032/// BKN040/// 15/10 Q1008=
201507230750 METAR ESMX 230750Z AUTO 23008KT 200V270 9999 FEW026/// BKN032/// 15/09 Q1008=
201507230720 METAR ESMX 230720Z AUTO 25010KT 9999 FEW025/// SCT032/// BKN037/// 15/09 Q1008=
201507230620 METAR ESMX 230620Z AUTO 26011KT 9999 FEW016/// SCT035/// 15/11 Q1008=
201507230550 METAR ESMX 230550Z 25010KT 9999 FEW011 SCT018 BKN035 15/12 Q1008=
201507230520 METAR ESMX 230520Z 23008KT 9999 FEW011 SCT026 BKN043 15/13 Q1007=
201507230450 METAR ESMX 230450Z 23005KT 9999 FEW010 SCT041 BKN049 14/13 Q1008 REDZ=
201507230420 METAR ESMX 230420Z 22006KT 8000 -DZ FEW010 SCT028 BKN044 15/14 Q1007=
201507230350 METAR ESMX 230350Z AUTO 22006KT 9999 FEW028/// OVC056/// 15/14 Q1007=
201507230320 METAR ESMX 230320Z AUTO 21007KT 9999 FEW013/// BKN067/// BKN080/// 15/14 Q1007=
201507230250 METAR ESMX 230250Z AUTO 21006KT 9999 FEW069/// 15/14 Q1007=
201507230220 METAR ESMX 230220Z AUTO 21005KT 9999 FEW042/// SCT053/// 15/14 Q1007=
201507230150 METAR ESMX 230150Z AUTO 20006KT 9999 FEW041/// SCT046/// BKN054/// 15/14 Q1008 RERA=
201507230120 METAR ESMX 230120Z AUTO 18006KT 9999 FEW045/// SCT085/// 15/14 Q1008=
201507230050 METAR ESMX 230050Z AUTO 18007KT 9999 -RA SCT041/// BKN056/// BKN080/// 15/14 Q1008=
201507230020 METAR ESMX 230020Z AUTO 18005KT 9999 FEW043/// SCT053/// BKN081/// 16/14 Q1008=
201507222350 METAR ESMX 222350Z 19005KT CAVOK 15/14 Q1009=
201507222320 METAR ESMX 222320Z 19005KT CAVOK 15/13 Q1009=
201507222250 METAR ESMX 222250Z 21005KT CAVOK 14/13 Q1009=
201507222220 METAR ESMX 222220Z 19006KT CAVOK 14/13 Q1009=
201507222150 METAR ESMX 222150Z 19005KT 9999 FEW049 BKN078 15/13 Q1009=
201507222120 METAR ESMX 222120Z 19006KT 9999 FEW048 BKN082 15/13 Q1009=
201507222050 METAR ESMX 222050Z 19005KT 9999 FEW048 SCT052 BKN083 15/12 Q1009=
201507222020 METAR ESMX 222020Z 18004KT 9999 SCT049 BKN052 15/12 Q1010=
201507221950 METAR ESMX 221950Z 17005KT CAVOK 16/12 Q1010=
201507221920 METAR ESMX 221920Z 21005KT CAVOK 16/12 Q1009=
201507221850 METAR ESMX 221850Z AUTO 21005KT 9999 SCT077/// 17/12 Q1009=
201507221820 METAR ESMX 221820Z AUTO 21004KT 9999 SCT054/// BKN077/// 19/13 Q1010=
201507221750 METAR ESMX 221750Z AUTO 25004KT 9999 BKN057/// 19/13 Q1010=
201507221720 METAR ESMX 221720Z AUTO 25007KT 220V280 9999 FEW061/// 19/12 Q1010=
201507221650 METAR ESMX 221650Z AUTO 26009KT 9999 FEW085/// 20/12 Q1010=
201507221620 METAR ESMX 221620Z AUTO 25007KT 220V290 9999 FEW037/// BKN084/// 20/12 Q1010=
201507221550 METAR ESMX 221550Z AUTO 26010KT 230V290 9999 FEW089/// 20/11 Q1010=
201507221520 METAR ESMX 221520Z AUTO 25007KT 9999 SCT064/// BKN083/// 20/13 Q1010=
201507221450 METAR ESMX 221450Z AUTO 26009KT 230V320 9999 BKN062/// BKN084/// 20/12 Q1010=
201507221420 METAR ESMX 221420Z AUTO 26007KT 9999 BKN057/// BKN083/// 20/12 Q1010=
201507221350 METAR ESMX 221350Z AUTO 26009KT 9999 FEW045/// BKN072/// 20/11 Q1010=
201507221320 METAR ESMX 221320Z AUTO 25008KT 210V280 9999 SCT069/// 20/12 Q1010=
201507221250 METAR ESMX 221250Z AUTO 22012KT 9999 FEW035/// SCT055/// BKN072/// 20/12 Q1010=
201507221220 METAR ESMX 221220Z AUTO 24008KT 190V280 9999 FEW032/// BKN056/// BKN079/// 20/13 Q1010=
201507221150 METAR ESMX 221150Z AUTO 23010KT 9999 BKN061/// 20/13 Q1010=
201507221120 METAR ESMX 221120Z AUTO 24009KT 9999 SCT052/// BKN069/// 19/14 Q1010=
201507221050 METAR ESMX 221050Z AUTO 23009KT 200V270 9999 FEW022/// SCT026/// BKN036/// 18/13 Q1010 REDZ=
201507221020 METAR ESMX 221020Z AUTO 21011KT 9999 FEW029/// BKN069/// 18/13 Q1010=
201507220950 METAR ESMX 220950Z AUTO 21012KT 9999 FEW019/// SCT043/// OVC069/// 17/13 Q1010=
201507220920 METAR ESMX 220920Z AUTO 23011KT 9999 FEW015/// SCT027/// BKN078/// 19/14 Q1010=
201507220850 METAR ESMX 220850Z AUTO 22010KT 180V250 9999 FEW014/// SCT029/// BKN079/// 17/14 Q1010=
201507220820 METAR ESMX 220820Z AUTO 22010KT 9999 FEW013/// SCT017/// BKN021/// 17/14 Q1010=
201507220750 METAR ESMX 220750Z AUTO 23008KT 190V250 9999 FEW012/// SCT040/// BKN077/// 16/14 Q1010=
201507220720 METAR ESMX 220720Z AUTO 22008KT 9999 FEW013/// SCT017/// BKN042/// 16/13 Q1010=
201507220650 METAR ESMX 220650Z AUTO 22009KT 9999 FEW013/// BKN071/// 16/13 Q1010=
201507220620 METAR ESMX 220620Z AUTO 22008KT 9999 FEW011/// BKN078/// 15/13 Q1010=
201507220550 METAR ESMX 220550Z AUTO 22009KT 9999 FEW009/// SCT011/// OVC080/// 15/13 Q1010=
201507220520 METAR ESMX 220520Z AUTO 22008KT 9999 FEW008/// SCT009/// BKN011/// 15/13 Q1010=
201507220450 METAR ESMX 220450Z 22006KT 9999 FEW006 BKN010 OVC032 14/13 Q1009=
201507220430 METAR ESMX 220430Z 22006KT 9999 FEW007 SCT015 OVC031 14/13 Q1009=
201507220420 METAR ESMX 220420Z AUTO 22006KT 9999 FEW010/// BKN031/// OVC075/// 14/13 Q1009=
201507220350 METAR ESMX 220350Z AUTO 22006KT 9999 FEW015/// SCT019/// BKN024/// 13/13 Q1009=
201507220320 METAR ESMX 220320Z AUTO 22006KT 9999 SCT013/// BKN019/// OVC073/// 13/12 Q1009=
201507220250 METAR ESMX 220250Z AUTO 20006KT 9999 FEW013/// BKN018/// OVC035/// 13/12 Q1009=
201507220220 METAR ESMX 220220Z AUTO 21005KT 9999 SCT034/// BKN049/// BKN070/// 12/12 Q1009=
201507220150 METAR ESMX 220150Z AUTO 23005KT 9999 OVC073/// 12/11 Q1009=
201507220120 METAR ESMX 220120Z AUTO 22005KT 9999 SCT073/// 11/11 Q1009=
201507220050 METAR ESMX 220050Z 22005KT CAVOK 11/10 Q1009=
201507220020 METAR ESMX 220020Z 22005KT CAVOK 11/10 Q1009=
201507212350 METAR ESMX 212350Z 22005KT CAVOK 11/11 Q1009=
201507212320 METAR ESMX 212320Z 21005KT CAVOK 12/11 Q1009=
201507212250 METAR ESMX 212250Z 22006KT CAVOK 12/11 Q1009=
201507212220 METAR ESMX 212220Z 24006KT CAVOK 13/11 Q1009=
201507212150 METAR ESMX 212150Z 21006KT 9999 FEW049 13/11 Q1009=
201507212120 METAR ESMX 212120Z 23005KT CAVOK 13/11 Q1009=
201507212050 METAR ESMX 212050Z AUTO 25006KT 9999 FEW028/// 14/12 Q1009=
201507212020 METAR ESMX 212020Z 24006KT 9999 FEW031 SCT042 BKN048 15/12 Q1008=
201507211950 METAR ESMX 211950Z AUTO 24006KT 9999 FEW033/// SCT052/// 15/12 Q1008=
201507211921 METAR ESMX 211921Z 25006KT 9999 FEW033 BKN052 16/12 Q1008=
201507211850 METAR ESMX 211850Z 25007KT 9999 FEW032 SCT054 16/12 Q1008=
201507211820 METAR ESMX 211820Z AUTO 27012KT 240V300 9999 NCD 17/11 Q1007=
201507211750 METAR ESMX 211750Z AUTO 27011KT 250V310 9999 FEW030/// 18/11 Q1007=
201507211720 METAR ESMX 211720Z AUTO 27013G24KT 230V300 9999 FEW035/// 18/12 Q1007=
201507211650 METAR ESMX 211650Z 26010KT 9999 FEW023 SCT036 18/13 Q1006=
201507211620 METAR ESMX 211620Z 25015KT 9999 FEW020 SCT050 BKN067 18/14 Q1006=
201507211550 METAR ESMX 211550Z 25015KT 9999 FEW017 SCT020 BKN037 18/14 Q1006=
201507211520 METAR ESMX 211520Z 23012KT 200V260 9999 SCT013 BKN018 BKN056 18/15 Q1006=
201507211450 METAR ESMX 211450Z 23012KT 9999 FEW012 SCT016 BKN020 18/16 Q1005=
201507211420 METAR ESMX 211420Z 22013KT 9999 FEW009 SCT011 BKN013 18/16 Q1005=
201507211350 METAR ESMX 211350Z 22015KT 5000 RA SCT011 BKN015 OVC020 17/16 Q1005=
201507211320 METAR ESMX 211320Z AUTO 19013KT 150V210 9999 FEW007/// SCT011/// BKN014/// 18/16 Q1005=
201507211250 METAR ESMX 211250Z AUTO 17008KT 9999 FEW005/// SCT006/// BKN008/// 17/16 Q1005=
201507211220 METAR ESMX 211220Z AUTO 17008KT 9999 BKN004/// OVC006/// 16/15 Q1005=
201507211150 METAR ESMX 211150Z AUTO 18009KT 9999 OVC004/// 15/15 Q1006=
201507211120 METAR ESMX 211120Z AUTO 16009KT 130V190 5000 DZ FEW005/// SCT007/// BKN008/// 15/14 Q1006=
201507211050 METAR ESMX 211050Z AUTO 15009KT 120V190 9999 -RA BKN010/// OVC015/// 15/13 Q1006 RERA=
201507211020 METAR ESMX 211020Z AUTO 14009KT 100V160 9999 -DZ FEW015/// BKN021/// OVC027/// 15/13 Q1006=
201507210950 METAR ESMX 210950Z AUTO 14008KT 120V180 9999 -DZ FEW027/// BKN031/// 15/13 Q1007 RERA=
201507210920 METAR ESMX 210920Z AUTO 15004KT 110V190 9999 FEW006/// BKN037/// 15/14 Q1007=
201507210850 METAR ESMX 210850Z AUTO 16007KT 100V190 9999 RA BKN040/// 15/13 Q1008 RERA=
201507210820 METAR ESMX 210820Z AUTO 16006KT 9999 FEW041/// SCT059/// BKN071/// 15/13 Q1008=
201507210750 METAR ESMX 210750Z AUTO 17008KT 9999 -DZ FEW021/// SCT072/// 16/13 Q1008 RERA=
201507210720 METAR ESMX 210720Z AUTO 17008KT 140V200 9999 FEW019/// SCT100/// 17/11 Q1008=
201507210650 METAR ESMX 210650Z AUTO 15008KT 120V190 9999 FEW016/// 16/12 Q1009=
201507210620 METAR ESMX 210620Z AUTO 17006KT 9999 BKN025/// 15/12 Q1009=
201507210550 METAR ESMX 210550Z AUTO 17007KT 140V200 9999 FEW029/// 14/11 Q1009=
201507210520 METAR ESMX 210520Z AUTO 16005KT 9999 NCD 14/11 Q1010=
201507210450 METAR ESMX 210450Z AUTO 16006KT 9999 NCD 13/11 Q1010=
201507210420 METAR ESMX 210420Z AUTO 16005KT 9999 NCD 12/11 Q1010=
201507210350 METAR ESMX 210350Z AUTO 16004KT 9999 NCD 11/11 Q1010=
201507210320 METAR ESMX 210320Z AUTO 16004KT 9999 NCD 11/10 Q1010=
201507210250 METAR ESMX 210250Z AUTO 17003KT 9999 NCD 09/09 Q1010=
201507210220 METAR ESMX 210220Z AUTO 18004KT 9999 NCD 10/10 Q1010=
201507210150 METAR ESMX 210150Z AUTO 17003KT 4100 BCFG NCD 08/08 Q1010=
201507210120 METAR ESMX 210120Z AUTO 18003KT 0650 R01/P2000N R19/P2000D BR NCD 09/09 Q1010=
201507210050 METAR ESMX 210050Z AUTO 21005KT 0750 R01/P2000N R19/P2000N NCD 09/09 Q1010=
201507210020 METAR ESMX 210020Z AUTO 22004KT 5000 NCD 10/09 Q1011=
201507202350 METAR ESMX 202350Z 21005KT CAVOK 09/09 Q1011=
201507202320 METAR ESMX 202320Z 21005KT CAVOK 09/08 Q1011=
201507202250 METAR ESMX 202250Z AUTO 19003KT 9999 NCD 11/10 Q1011=
201507202220 METAR ESMX 202220Z 23005KT CAVOK 10/09 Q1011=
201507202150 METAR ESMX 202150Z 23004KT CAVOK 11/09 Q1011=
201507202120 METAR ESMX 202120Z 23004KT CAVOK 11/09 Q1011=
201507202050 METAR ESMX 202050Z 22004KT CAVOK 12/09 Q1011=
201507202024 METAR ESMX 202024Z 23004KT CAVOK 12/09 Q1011=
201507202020 METAR ESMX 202020Z AUTO 23004KT 9999 NCD 12/09 Q1011=
201507201950 METAR ESMX 201950Z AUTO 23004KT 9999 NCD 13/09 Q1011=
201507201920 METAR ESMX 201920Z 25005KT CAVOK 14/09 Q1010=
201507201850 METAR ESMX 201850Z AUTO 25006KT 9999 NCD 16/09 Q1010=
201507201820 METAR ESMX 201820Z AUTO 26007KT 9999 NCD 17/10 Q1010=
201507201750 METAR ESMX 201750Z AUTO 26010KT 230V290 9999 FEW033/// 17/09 Q1010=
201507201720 METAR ESMX 201720Z AUTO 26011KT 240V300 9999 FEW042/// 18/10 Q1010=
201507201650 METAR ESMX 201650Z AUTO 26009KT 9999 FEW041/// 17/09 Q1009=
201507201620 METAR ESMX 201620Z AUTO 26010KT 9999 NCD 19/10 Q1009=
201507201550 METAR ESMX 201550Z 26008KT 210V300 9999 FEW041 SCT048 19/10 Q1009=
201507201520 METAR ESMX 201520Z 28011KT 240V310 9999 FEW039 19/10 Q1009=
201507201450 METAR ESMX 201450Z 27012KT 9999 FEW045 19/09 Q1008=
201507201420 METAR ESMX 201420Z 28012KT 9999 FEW037 19/10 Q1008=
201507201350 METAR ESMX 201350Z 26012KT 9999 FEW037 18/10 Q1008=
201507201320 METAR ESMX 201320Z AUTO 25011KT 220V290 9999 FEW037/// SCT059/// BKN069/// 18/09 Q1008=
201507201250 METAR ESMX 201250Z 25012KT 220V280 9999 FEW035 18/10 Q1008=
201507201220 METAR ESMX 201220Z 26012KT 9999 FEW032 SCT045 18/10 Q1008=
201507201150 METAR ESMX 201150Z 24009KT 210V270 9999 FEW029 SCT035 17/11 Q1008=
201507201120 METAR ESMX 201120Z 26007KT 230V290 9999 FEW031 BKN064 17/11 Q1007=
201507201050 METAR ESMX 201050Z 27010KT 250V310 9999 -SHRA FEW031 SCT064 17/10 Q1007=
201507201020 METAR ESMX 201020Z 28007KT 240V300 9999 FEW022 SCT026 17/11 Q1007=
201507200950 METAR ESMX 200950Z 26006KT 230V290 9999 FEW024 SCT040 16/10 Q1007=
201507200920 METAR ESMX 200920Z 30009KT 260V330 9999 FEW021 SCT032 16/10 Q1006=
201507200850 METAR ESMX 200850Z 29009KT 250V340 9999 SCT022 BKN067 16/11 Q1006=
201507200820 METAR ESMX 200820Z 27009KT 9999 FEW014 SCT039 15/12 Q1006=
201507200750 METAR ESMX 200750Z 28010KT 9999 FEW011 SCT017 14/12 Q1006=
201507200720 METAR ESMX 200720Z 28008KT 9999 SCT008 BKN052 14/12 Q1005=
201507200650 METAR ESMX 200650Z 27008KT 9999 FEW006 SCT009 BKN012 13/12 Q1005=
201507200620 METAR ESMX 200620Z AUTO 28006KT 250V320 9999 FEW007/// SCT012/// BKN020/// 13/12 Q1005=
201507200550 METAR ESMX 200550Z AUTO 26006KT 9999 FEW006/// SCT012/// BKN017/// 13/12 Q1005=
201507200520 METAR ESMX 200520Z AUTO 28006KT 240V300 9999 FEW005/// SCT006/// BKN009/// 13/12 Q1005=
201507200450 METAR ESMX 200450Z AUTO 27005KT 9999 FEW004/// SCT007/// BKN011/// 13/12 Q1004=
201507200420 METAR ESMX 200420Z AUTO 27004KT 9999 FEW005/// BKN011/// OVC027/// 12/12 Q1004=
201507200350 METAR ESMX 200350Z AUTO 26004KT 9999 FEW021/// OVC025/// 12/12 Q1004=
201507200320 METAR ESMX 200320Z AUTO 26004KT 9999 FEW002/// SCT010/// BKN020/// 12/12 Q1004=
201507200250 METAR ESMX 200250Z AUTO 25004KT 9999 SCT002/// BKN004/// OVC044/// 12/12 Q1004=
201507200220 METAR ESMX 200220Z AUTO 24004KT 9999 -RA FEW003/// SCT004/// BKN037/// 12/12 Q1004=
201507200150 METAR ESMX 200150Z AUTO 31005KT 270V340 7000 -RA FEW007/// BKN027/// 12/12 Q1004=
201507200120 METAR ESMX 200120Z AUTO 29005KT 8000 -RA FEW003/// SCT020/// BKN043/// 12/12 Q1004=
201507200050 METAR ESMX 200050Z AUTO 27004KT 230V290 9000 -RA FEW005/// 12/11 Q1004 REDZ=
201507200020 METAR ESMX 200020Z AUTO 28006KT 9999 -RA SCT046/// BKN069/// 12/11 Q1004 REDZ=
201507192350 METAR ESMX 192350Z AUTO 26005KT 9999 FEW007/// BKN008/// OVC064/// 13/11 Q1004=
201507192320 METAR ESMX 192320Z AUTO 23005KT 9999 SCT008/// BKN010/// OVC074/// 12/11 Q1004=
201507192250 METAR ESMX 192250Z AUTO 24005KT 9999 -DZ FEW008/// OVC065/// 12/11 Q1004=
201507192220 METAR ESMX 192220Z 19004KT CAVOK 13/11 Q1004=
201507192150 METAR ESMX 192150Z 20004KT 9999 FEW037 BKN052 OVC068 13/11 Q1004=
201507192120 METAR ESMX 192120Z 22004KT 9999 FEW029 BKN033 OVC049 13/11 Q1005=
201507192050 METAR ESMX 192050Z 23006KT CAVOK 13/11 Q1005=
201507192020 METAR ESMX 192020Z 25005KT 9999 FEW015 13/11 Q1005=
201507191950 METAR ESMX 191950Z 23004KT CAVOK 14/11 Q1005=
201507191920 METAR ESMX 191920Z 24003KT 180V300 CAVOK 14/10 Q1005=
201507191850 METAR ESMX 191850Z 26006KT CAVOK 15/10 Q1005=
201507191820 METAR ESMX 191820Z 26007KT CAVOK 15/11 Q1005=
201507191750 METAR ESMX 191750Z 26008KT CAVOK 16/10 Q1005=
201507191720 METAR ESMX 191720Z 25007KT CAVOK 17/09 Q1006=
201507191650 METAR ESMX 191650Z AUTO 22007KT 9999 OVC054/// 16/09 Q1006=
201507191620 METAR ESMX 191620Z AUTO 24006KT 9999 FEW044/// BKN062/// 17/09 Q1006=
201507191550 METAR ESMX 191550Z AUTO 22008KT 9999 BKN055/// 18/08 Q1006=
201507191520 METAR ESMX 191520Z AUTO 23007KT 200V260 9999 SCT059/// 18/08 Q1006=
201507191450 METAR ESMX 191450Z AUTO 23006KT 200V270 9999 BKN057/// 18/08 Q1007=
201507191420 METAR ESMX 191420Z AUTO 22007KT 9999 SCT058/// 18/08 Q1007=
201507191350 METAR ESMX 191350Z AUTO 22008KT 9999 BKN054/// 18/07 Q1007=
201507191320 METAR ESMX 191320Z AUTO 24007KT 9999 FEW046/// SCT058/// 18/08 Q1007=
201507191250 METAR ESMX 191250Z AUTO 26009KT 210V280 9999 FEW046/// SCT059/// 19/07 Q1008=
201507191220 METAR ESMX 191220Z AUTO 24008KT 200V280 9999 FEW046/// 18/07 Q1008=
201507191150 METAR ESMX 191150Z AUTO 27008KT 9999 BKN045/// 18/07 Q1008=
201507191120 METAR ESMX 191120Z AUTO 22010KT 180V260 9999 FEW046/// SCT055/// 19/08 Q1009=
201507191050 METAR ESMX 191050Z AUTO 23010KT 9999 FEW050/// 19/08 Q1009=
201507191020 METAR ESMX 191020Z AUTO 28011KT 230V300 9999 FEW048/// SCT053/// 18/07 Q1009=
201507190950 METAR ESMX 190950Z AUTO 27008KT 230V300 9999 FEW040/// BKN048/// 17/08 Q1009=
201507190920 METAR ESMX 190920Z AUTO 23010KT 9999 FEW040/// BKN048/// 18/08 Q1010=
201507190850 METAR ESMX 190850Z AUTO 27010KT 230V320 9999 FEW037/// SCT046/// 17/08 Q1010=
201507190820 METAR ESMX 190820Z AUTO 26011KT 210V330 9999 FEW032/// SCT100/// 17/07 Q1010=
201507190750 METAR ESMX 190750Z AUTO 23011KT 9999 FEW028/// SCT043/// 16/09 Q1010=
201507190720 METAR ESMX 190720Z AUTO 24012KT 9999 FEW025/// SCT032/// 15/09 Q1010=
201507190650 METAR ESMX 190650Z AUTO 22014KT 9999 FEW020/// SCT026/// 15/10 Q1010=
201507190620 METAR ESMX 190620Z AUTO 24012KT 9999 FEW024/// 14/10 Q1011=
201507190550 METAR ESMX 190550Z AUTO 22011KT 9999 NCD 14/10 Q1011=
201507190520 METAR ESMX 190520Z AUTO 21009KT 9999 NCD 13/10 Q1011=
201507190450 METAR ESMX 190450Z AUTO 20008KT 9999 SCT050/// 12/09 Q1011=
201507190420 METAR ESMX 190420Z AUTO 22009KT 9999 OVC051/// 12/09 Q1011=
201507190350 METAR ESMX 190350Z AUTO 20009KT 9999 BKN049/// 11/09 Q1011=
201507190320 METAR ESMX 190320Z AUTO 21008KT 9999 BKN048/// 11/08 Q1011=
201507190250 METAR ESMX 190250Z AUTO 21008KT 9999 BKN048/// 11/08 Q1011=
201507190220 METAR ESMX 190220Z AUTO 22008KT 9999 FEW045/// 10/08 Q1011=
201507190150 METAR ESMX 190150Z AUTO 23007KT 9999 SCT053/// 11/08 Q1011=
201507190120 METAR ESMX 190120Z AUTO 22007KT 9999 FEW053/// 11/08 Q1011=
201507190050 METAR ESMX 190050Z AUTO 23007KT 9999 SCT057/// 11/08 Q1011=
201507190020 METAR ESMX 190020Z AUTO 22007KT 9999 NCD 11/08 Q1011=
201507182350 METAR ESMX 182350Z AUTO 20007KT 9999 FEW030/// 11/09 Q1011=
201507182320 METAR ESMX 182320Z AUTO 20006KT 9999 NCD 12/08 Q1011=
201507182250 METAR ESMX 182250Z AUTO 22006KT 9999 NCD 12/08 Q1011=
201507182220 METAR ESMX 182220Z AUTO 24006KT 9999 SCT064/// 13/08 Q1011=
201507182150 METAR ESMX 182150Z AUTO 23008KT 180V260 9999 FEW045/// BKN056/// 14/08 Q1011=
201507182120 METAR ESMX 182120Z AUTO 23006KT 9999 BKN045/// BKN070/// 15/08 Q1011=
201507182050 METAR ESMX 182050Z AUTO 22005KT 9999 SCT042/// BKN064/// 14/08 Q1011=
201507182020 METAR ESMX 182020Z AUTO 24008KT 9999 FEW046/// SCT067/// 15/08 Q1010=
201507181950 METAR ESMX 181950Z AUTO 25009KT 9999 OVC040/// 16/08 Q1010=
201507181920 METAR ESMX 181920Z AUTO 25008KT 9999 FEW043/// BKN067/// 16/08 Q1010=
201507181850 METAR ESMX 181850Z AUTO 25010KT 9999 FEW041/// SCT047/// BKN073/// 17/09 Q1010=
201507181820 METAR ESMX 181820Z AUTO 24009KT 9999 FEW071/// 17/09 Q1010=
201507181750 METAR ESMX 181750Z AUTO 23013KT 9999 NCD 18/08 Q1010=
201507181720 METAR ESMX 181720Z AUTO 23012KT 9999 FEW062/// 19/09 Q1010=
201507181650 METAR ESMX 181650Z AUTO 23013G26KT 9999 FEW046/// 19/09 Q1010=
201507181620 METAR ESMX 181620Z AUTO 24013G24KT 9999 SCT041/// BKN051/// 20/09 Q1009=
201507181550 METAR ESMX 181550Z AUTO 25011KT 210V280 9999 FEW050/// 19/10 Q1009=
201507181520 METAR ESMX 181520Z AUTO 25010KT 210V280 9999 FEW063/// 19/10 Q1010=
201507181450 METAR ESMX 181450Z AUTO 26014KT 230V300 9999 FEW043/// SCT058/// 19/09 Q1010=
201507181420 METAR ESMX 181420Z AUTO 28013KT 9999 FEW047/// SCT077/// 21/09 Q1010=
201507181350 METAR ESMX 181350Z AUTO 26011KT 230V290 9999 NCD 20/09 Q1010=
201507181320 METAR ESMX 181320Z AUTO 27013G23KT 250V310 9999 NCD 21/11 Q1010=
201507181250 METAR ESMX 181250Z AUTO 26011KT 230V290 9999 FEW040/// 20/12 Q1009=
201507181220 METAR ESMX 181220Z AUTO 29012KT 9999 FEW025/// SCT036/// 19/13 Q1009=
201507181150 METAR ESMX 181150Z AUTO 25012KT 9999 FEW026/// 20/14 Q1009=
201507181120 METAR ESMX 181120Z AUTO 29013KT 9999 FEW025/// 20/13 Q1009=
201507181050 METAR ESMX 181050Z AUTO 28011KT 9999 FEW007/// SCT017/// BKN026/// 19/14 Q1009=
201507181020 METAR ESMX 181020Z AUTO 23010KT 190V260 9999 FEW024/// SCT040/// BKN052/// 20/15 Q1009=
201507180950 METAR ESMX 180950Z AUTO 23008KT 200V270 9999 FEW022/// SCT031/// BKN037/// 20/14 Q1009=
201507180920 METAR ESMX 180920Z AUTO 21008KT 9999 FEW018/// SCT022/// BKN025/// 19/14 Q1009=
201507180850 METAR ESMX 180850Z AUTO 21007KT 170V260 9999 SCT015/// BKN020/// 19/14 Q1009=
201507180820 METAR ESMX 180820Z AUTO 20008KT 170V230 9999 FEW013/// 18/14 Q1009=
201507180750 METAR ESMX 180750Z AUTO 21006KT 180V250 9999 SCT012/// BKN019/// 17/14 Q1009=
201507180720 METAR ESMX 180720Z AUTO 21006KT 190V250 9999 SCT012/// OVC018/// 16/13 Q1010=
201507180650 METAR ESMX 180650Z AUTO 21007KT 9999 SCT012/// BKN092/// 16/13 Q1010=
201507180620 METAR ESMX 180620Z AUTO 20007KT 9999 SCT014/// 15/12 Q1010=
201507180550 METAR ESMX 180550Z AUTO 16007KT 9999 FEW015/// SCT099/// 15/12 Q1010=
201507180520 METAR ESMX 180520Z AUTO 16008KT 120V190 9999 FEW015/// 14/11 Q1010=
201507180450 METAR ESMX 180450Z AUTO 17007KT 9999 FEW016/// SCT021/// BKN036/// 14/11 Q1010=
201507180420 METAR ESMX 180420Z AUTO 16008KT 9999 BKN022/// OVC034/// 14/11 Q1010=
201507180350 METAR ESMX 180350Z AUTO 17008KT 9999 OVC024/// 14/10 Q1011=
201507180320 METAR ESMX 180320Z AUTO 15009KT 120V190 9999 FEW024/// OVC027/// 14/10 Q1011=
201507180250 METAR ESMX 180250Z AUTO 17008KT 9999 OVC028/// 14/10 Q1011 RERA=
201507180220 METAR ESMX 180220Z AUTO 15008KT 9999 BKN031/// OVC041/// 14/09 Q1011 REDZ=
201507180150 METAR ESMX 180150Z AUTO 16008KT 120V190 9999 BKN033/// BKN041/// 14/08 Q1012=
201507180120 METAR ESMX 180120Z AUTO 15008KT 120V180 9999 OVC032/// 15/07 Q1012=
201507180050 METAR ESMX 180050Z AUTO 15009KT 9999 OVC034/// 15/07 Q1012=
201507180020 METAR ESMX 180020Z AUTO 15009KT 120V180 9999 OVC037/// 15/06 Q1012=
201507172350 METAR ESMX 172350Z AUTO 15009KT 9999 OVC036/// 15/05 Q1013=
201507172320 METAR ESMX 172320Z AUTO 15009KT 9999 OVC038/// 15/05 Q1013=
201507172250 METAR ESMX 172250Z AUTO 15007KT 9999 SCT043/// BKN068/// 15/06 Q1013=
201507172220 METAR ESMX 172220Z AUTO 15007KT 120V190 9999 BKN085/// 15/06 Q1013=
201507172150 METAR ESMX 172150Z AUTO 15005KT 110V180 9999 BKN071/// BKN097/// 15/06 Q1014=
201507172120 METAR ESMX 172120Z AUTO 15006KT 9999 BKN079/// 16/06 Q1014=
201507172050 METAR ESMX 172050Z AUTO 15007KT 9999 SCT087/// BKN100/// 16/06 Q1014=
201507172020 METAR ESMX 172020Z AUTO 16006KT 9999 OVC091/// 17/08 Q1014=
201507171950 METAR ESMX 171950Z AUTO 16006G17KT 030V180 9999 BKN097/// 17/08 Q1014=
201507171920 METAR ESMX 171920Z AUTO 16009KT 9999 FEW100/// 18/09 Q1014=
201507171850 METAR ESMX 171850Z AUTO 18009KT 9999 BKN100/// 18/10 Q1014=
201507171820 METAR ESMX 171820Z AUTO 15004KT 120V180 9999 SCT100/// 20/07 Q1013=
201507171750 METAR ESMX 171750Z AUTO VRB03KT 9999 NCD 18/11 Q1014=
201507171720 METAR ESMX 171720Z AUTO 05004KT 020V100 9999 NCD 20/10 Q1014=
201507171650 METAR ESMX 171650Z AUTO 06004KT 020V110 9999 NCD 21/08 Q1014=
201507171620 METAR ESMX 171620Z AUTO 08005KT 030V130 9999 NCD 21/09 Q1014=
201507171550 METAR ESMX 171550Z AUTO 05004KT 020V100 9999 NCD 21/09 Q1015=
201507171520 METAR ESMX 171520Z VRB03KT CAVOK 21/09 Q1015=
201507171450 METAR ESMX 171450Z 06005KT 020V110 CAVOK 20/08 Q1015=
201507171420 METAR COR ESMX 171420Z 06004KT 020V110 CAVOK 21/09 Q1015=
201507171350 METAR ESMX 171350Z 09005KT 050V140 CAVOK 21/08 Q1016=
201507171320 METAR COR ESMX 171320Z VRB03KT 140V070 CAVOK 21/09 Q1016=
201507171250 METAR ESMX 171250Z AUTO VRB03KT 360V360 9999 NCD 20/09 Q1016=
201507171220 METAR COR ESMX 171220Z 36006KT 300V070 9999 FEW020 20/09 Q1016=
201507171150 METAR ESMX 171150Z 33003KT 9999 FEW020 19/08 Q1016=
201507171120 METAR COR ESMX 171120Z 36005KT 9999 FEW020 19/08 Q1016=
201507171050 METAR ESMX 171050Z 36004KT 300V040 9999 FEW020 19/08 Q1016=
201507171020 METAR COR ESMX 171020Z 01006KT 9999 FEW020 18/08 Q1016=
201507170950 METAR ESMX 170950Z AUTO 36005KT 320V060 9999 NCD 17/08 Q1016=
201507170920 METAR ESMX 170920Z 01006KT 320V050 9999 FEW020 17/08 Q1016=
201507170850 METAR ESMX 170850Z 34006KT 290V010 9999 FEW020 16/08 Q1016=
201507170820 METAR ESMX 170820Z 35007KT 290V030 9999 FEW020 16/07 Q1016=
201507170750 METAR ESMX 170750Z 34008KT 9999 FEW020 15/07 Q1016=
201507170720 METAR COR ESMX 170720Z 34008KT 310V010 9999 FEW020 15/08 Q1016=
201507170650 METAR ESMX 170650Z 30007KT 9999 FEW020 14/08 Q1016=
201507170620 METAR ESMX 170620Z AUTO 33008KT 9999 NCD 13/08 Q1016=
201507170550 METAR ESMX 170550Z AUTO 31007KT 9999 NCD 13/09 Q1016=
201507170520 METAR ESMX 170520Z AUTO 29005KT 270V330 9999 NCD 12/09 Q1016=
201507170450 METAR ESMX 170450Z AUTO 30005KT 260V330 9999 NCD 11/10 Q1016=
201507170420 METAR ESMX 170420Z AUTO 29005KT 260V320 9999 NCD 10/09 Q1015=
201507170350 METAR ESMX 170350Z AUTO 27004KT 230V310 9999 NCD 10/09 Q1016=
201507170320 METAR ESMX 170320Z AUTO 26006KT 9999 NCD 09/08 Q1015=
201507170250 METAR ESMX 170250Z AUTO 26006KT 9999 NCD 09/08 Q1015=
201507170220 METAR ESMX 170220Z AUTO 26006KT 9999 NCD 09/08 Q1015=
201507170150 METAR ESMX 170150Z AUTO 27005KT 9999 NCD 09/08 Q1015=
201507170120 METAR ESMX 170120Z AUTO 25006KT 9999 NCD 09/08 Q1015=
201507170050 METAR ESMX 170050Z AUTO 25006KT 9999 NCD 09/08 Q1015=
201507170020 METAR ESMX 170020Z 25006KT CAVOK 09/08 Q1015=
201507162350 METAR ESMX 162350Z 25006KT CAVOK 10/08 Q1015=
201507162320 METAR ESMX 162320Z 26005KT CAVOK 10/08 Q1015=
201507162250 METAR ESMX 162250Z 25004KT CAVOK 09/07 Q1015=
201507162220 METAR ESMX 162220Z 25005KT CAVOK 10/07 Q1015=
201507162150 METAR ESMX 162150Z 26005KT CAVOK 10/07 Q1015=
201507162120 METAR ESMX 162120Z 24005KT CAVOK 11/07 Q1015=
201507162050 METAR ESMX 162050Z 25004KT CAVOK 11/07 Q1015=
201507162020 METAR ESMX 162020Z 25005KT CAVOK 12/07 Q1015=
201507161950 METAR ESMX 161950Z 26006KT CAVOK 13/07 Q1015=
201507161920 METAR ESMX 161920Z 26006KT CAVOK 15/07 Q1015=
201507161850 METAR ESMX 161850Z AUTO 24007KT 210V270 9999 NCD 15/07 Q1015=
201507161820 METAR ESMX 161820Z AUTO 26008KT 230V300 9999 NCD 17/07 Q1015=
201507161750 METAR ESMX 161750Z AUTO 27011KT 240V300 9999 NCD 17/06 Q1015=
201507161720 METAR ESMX 161720Z AUTO 27009KT 250V310 9999 NCD 18/07 Q1015=
201507161650 METAR ESMX 161650Z AUTO 26010KT 9999 NCD 18/07 Q1015=
201507161620 METAR ESMX 161620Z 26011KT 230V300 CAVOK 19/07 Q1015=
201507161550 METAR ESMX 161550Z 27011KT 230V300 CAVOK 19/07 Q1015=
201507161520 METAR ESMX 161520Z 26011KT 220V290 CAVOK 19/06 Q1015=
201507161450 METAR ESMX 161450Z 24012KT 210V270 9999 FEW025 20/06 Q1015=
201507161420 METAR ESMX 161420Z 27012KT 230V290 9999 FEW025 20/06 Q1014=
201507161350 METAR ESMX 161350Z 26014KT 230V300 9999 FEW025 20/06 Q1015=
201507161320 METAR ESMX 161320Z 27011G21KT 9999 FEW025 20/06 Q1014=
201507161250 METAR ESMX 161250Z 25014KT 240V310 CAVOK 20/06 Q1014=
201507161220 METAR ESMX 161220Z AUTO 27012KT 230V300 9999 NCD 20/05 Q1014=
201507161150 METAR ESMX 161150Z AUTO 26011KT 220V320 9999 NCD 20/06 Q1014=
201507161120 METAR ESMX 161120Z AUTO 25011KT 220V280 9999 NCD 20/08 Q1014=
201507161050 METAR ESMX 161050Z AUTO 25011KT 210V280 9999 NCD 19/08 Q1014=
201507161020 METAR ESMX 161020Z AUTO 25012KT 220V290 9999 NCD 20/08 Q1014=
201507160950 METAR ESMX 160950Z AUTO 26012KT 230V300 9999 NCD 19/08 Q1014=
201507160920 METAR ESMX 160920Z AUTO 24010KT 200V280 9999 NCD 19/09 Q1014=
201507160850 METAR ESMX 160850Z AUTO 23011KT 190V260 9999 NCD 18/10 Q1014=
201507160820 METAR ESMX 160820Z AUTO 26011KT 220V290 9999 NCD 17/10 Q1014=
201507160750 METAR ESMX 160750Z AUTO 24011KT 210V280 9999 NCD 16/10 Q1014=
201507160720 METAR ESMX 160720Z AUTO 24011KT 9999 FEW023/// 16/11 Q1014=
201507160650 METAR ESMX 160650Z AUTO 24011KT 210V280 9999 FEW015/// 15/10 Q1014=
201507160620 METAR ESMX 160620Z AUTO 25011KT 9999 BKN012/// 14/10 Q1014=
201507160550 METAR ESMX 160550Z 26009KT 9999 BKN012 13/11 Q1014=
201507160520 METAR ESMX 160520Z 26007KT 9999 FEW005 SCT007 12/11 Q1014=
201507160450 METAR ESMX 160450Z 24006KT 9999 FEW005 11/10 Q1014=
201507160420 METAR ESMX 160420Z 24006KT CAVOK 10/10 Q1014=
201507160350 METAR ESMX 160350Z AUTO 23006KT 9999 SCT013/// 10/09 Q1014=
201507160320 METAR ESMX 160320Z AUTO 22008KT 9999 FEW014/// 10/09 Q1014=
201507160250 METAR ESMX 160250Z AUTO 23007KT 9999 FEW015/// 09/09 Q1014=
201507160220 METAR ESMX 160220Z AUTO 21006KT 9999 SCT017/// 09/08 Q1014=
201507160150 METAR ESMX 160150Z AUTO 20006KT 9999 FEW019/// 08/08 Q1014=
201507160120 METAR ESMX 160120Z AUTO 19006KT 9999 NCD 08/08 Q1014=
201507160050 METAR ESMX 160050Z AUTO 20006KT 9999 NCD 08/08 Q1014=
201507160020 METAR ESMX 160020Z AUTO 19005KT 9999 NCD 09/08 Q1014=
201507152350 METAR ESMX 152350Z 22005KT CAVOK 09/08 Q1014=
201507152320 METAR ESMX 152320Z 23003KT CAVOK 09/08 Q1014=
201507152250 METAR ESMX 152250Z 23003KT CAVOK 09/08 Q1014=
201507152220 METAR ESMX 152220Z 23003KT CAVOK 10/08 Q1014=
201507152150 METAR ESMX 152150Z 23004KT CAVOK 10/08 Q1014=
201507152120 METAR ESMX 152120Z 21005KT CAVOK 11/08 Q1014=
201507152050 METAR ESMX 152050Z 23005KT CAVOK 12/08 Q1014=
201507152020 METAR ESMX 152020Z 25005KT CAVOK 12/08 Q1014=
201507151950 METAR ESMX 151950Z 24006KT CAVOK 13/09 Q1014=
201507151920 METAR ESMX 151920Z 24006KT CAVOK 14/09 Q1014=
201507151850 METAR ESMX 151850Z AUTO 26008KT 9999 NCD 15/09 Q1014=
201507151820 METAR ESMX 151820Z AUTO 27011KT 9999 NCD 15/09 Q1014=
201507151750 METAR ESMX 151750Z AUTO 25010KT 210V280 9999 FEW029/// 16/10 Q1013=
201507151720 METAR ESMX 151720Z AUTO 25010KT 9999 FEW028/// SCT046/// 17/11 Q1013=
201507151650 METAR ESMX 151650Z AUTO 26011KT 230V290 9999 FEW026/// SCT035/// 17/11 Q1013=
201507151620 METAR ESMX 151620Z AUTO 25011KT 9999 FEW028/// SCT038/// 18/11 Q1013=
201507151550 METAR ESMX 151550Z AUTO 25010KT 9999 FEW039/// 18/11 Q1013=
201507151520 METAR ESMX 151520Z AUTO 25010KT 9999 BKN032/// 19/11 Q1013=
201507151450 METAR ESMX 151450Z AUTO 23011KT 9999 NCD 19/11 Q1013=
201507151420 METAR ESMX 151420Z AUTO 24011KT 210V280 9999 FEW032/// 19/11 Q1013=
201507151350 METAR ESMX 151350Z AUTO 26011KT 9999 FEW033/// 19/10 Q1013=
201507151320 METAR ESMX 151320Z AUTO 25011KT 9999 FEW044/// BKN055/// 19/11 Q1013=
201507151250 METAR ESMX 151250Z AUTO 25010G20KT 210V290 9999 FEW033/// BKN057/// 18/09 Q1013=
201507151220 METAR ESMX 151220Z AUTO 25009KT 210V280 9999 FEW031/// SCT046/// BKN058/// 18/10 Q1013=
201507151150 METAR ESMX 151150Z AUTO 25009KT 220V280 9999 SCT031/// BKN044/// BKN054/// 18/10 Q1013=
201507151120 METAR ESMX 151120Z AUTO 24009KT 210V270 9999 FEW030/// SCT040/// BKN052/// 18/09 Q1013=
201507151050 METAR ESMX 151050Z AUTO 26009KT 9999 FEW028/// SCT040/// OVC048/// 17/10 Q1013=
201507151020 METAR ESMX 151020Z AUTO 24008KT 9999 FEW040/// OVC045/// 17/10 Q1013=
201507150950 METAR ESMX 150950Z AUTO 27007KT 220V310 9999 OVC039/// 17/10 Q1012=
201507150920 METAR ESMX 150920Z AUTO 28009KT 230V320 9999 FEW024/// BKN036/// 16/10 Q1012=
201507150850 METAR ESMX 150850Z AUTO 24008KT 9999 FEW022/// OVC033/// 16/11 Q1012=
201507150820 METAR ESMX 150820Z AUTO 27009KT 9999 FEW023/// BKN031/// 15/10 Q1012=
201507150750 METAR ESMX 150750Z AUTO 26008KT 9999 FEW017/// SCT028/// BKN032/// 15/11 Q1012=
201507150720 METAR ESMX 150720Z AUTO 27008KT 9999 FEW013/// BKN019/// 15/11 Q1012=
201507150650 METAR ESMX 150650Z AUTO 24007KT 9999 OVC010/// 14/11 Q1012=
201507150620 METAR ESMX 150620Z AUTO 24007KT 200V260 9999 FEW009/// BKN010/// BKN014/// 13/11 Q1012=
201507150550 METAR ESMX 150550Z AUTO 23006KT 200V260 9999 FEW008/// SCT020/// BKN023/// 13/12 Q1011=
201507150520 METAR ESMX 150520Z 26004KT 9999 BKN013 12/11 Q1011=
201507150459 METAR ESMX 150459Z 25004KT 9999 OVC011 12/11 Q1011=
201507150450 METAR ESMX 150450Z AUTO 21003KT 9999 OVC010/// 12/11 Q1012=
201507150420 METAR ESMX 150420Z AUTO 23001KT 9999 FEW005/// OVC008/// 11/11 Q1012=
201507150350 METAR ESMX 150350Z AUTO 26002KT 9999 OVC009/// 10/09 Q1011=
201507150320 METAR ESMX 150320Z AUTO 22004KT 9999 FEW010/// SCT023/// 10/09 Q1011=
201507150250 METAR ESMX 150250Z AUTO 22003KT 9999 BKN020/// 10/10 Q1011=
201507150220 METAR ESMX 150220Z AUTO 24004KT 9999 FEW012/// SCT016/// OVC019/// 11/10 Q1011=
201507150150 METAR ESMX 150150Z AUTO 23004KT 9000 FEW013/// 09/09 Q1011=
201507150120 METAR ESMX 150120Z AUTO VRB03KT 9999 NCD 09/09 Q1011=
201507150050 METAR ESMX 150050Z 00000KT CAVOK 10/09 Q1011=
201507150020 METAR ESMX 150020Z 22004KT CAVOK 10/09 Q1011=
201507142350 METAR ESMX 142350Z 23004KT CAVOK 10/09 Q1011=
201507142320 METAR ESMX 142320Z 21003KT CAVOK 11/09 Q1011=
201507142250 METAR ESMX 142250Z AUTO 22003KT 9999 NCD 11/09 Q1011=
201507142220 METAR ESMX 142220Z AUTO 23004KT 9999 NCD 12/09 Q1011=
201507142150 METAR ESMX 142150Z AUTO VRB03KT 9999 NCD 12/09 Q1011=
201507142120 METAR ESMX 142120Z 23004KT CAVOK 13/09 Q1011=
201507142050 METAR ESMX 142050Z 24003KT CAVOK 13/10 Q1011=
201507142020 METAR ESMX 142020Z 25004KT CAVOK 13/10 Q1011=
201507141950 METAR ESMX 141950Z 25004KT CAVOK 14/10 Q1011=
201507141920 METAR ESMX 141920Z 26005KT CAVOK 16/10 Q1010=
201507141850 METAR ESMX 141850Z AUTO 26009KT 240V310 9999 NCD 16/09 Q1010=
201507141820 METAR ESMX 141820Z AUTO 26009KT 9999 NCD 17/10 Q1010=
201507141750 METAR ESMX 141750Z AUTO 27009KT 9999 NCD 18/09 Q1010=
201507141720 METAR ESMX 141720Z AUTO 28011KT 9999 NCD 18/09 Q1010=
201507141650 METAR ESMX 141650Z AUTO 25009KT 9999 NCD 19/09 Q1010=
201507141620 METAR ESMX 141620Z 27009KT CAVOK 19/10 Q1010=
201507141550 METAR COR ESMX 141550Z 28009KT 240V310 CAVOK 20/10 Q1010=
201507141520 METAR ESMX 141520Z 29004KT 230V330 CAVOK 19/09 Q1010=
201507141450 METAR ESMX 141450Z 28007KT 250V320 9999 FEW040 SCT050 19/08 Q1010=
201507141420 METAR ESMX 141420Z 24008KT 210V280 9999 FEW040 SCT050 20/08 Q1010=
201507141350 METAR ESMX 141350Z 28008KT 240V330 9999 FEW040 SCT050 20/09 Q1010=
201507141320 METAR ESMX 141320Z AUTO 28008KT 9999 FEW049/// BKN057/// 19/09 Q1010=
201507141250 METAR ESMX 141250Z AUTO 30007KT 250V320 9999 FEW042/// BKN055/// 19/09 Q1010=
201507141220 METAR ESMX 141220Z AUTO 25007KT 210V290 9999 BKN053/// 20/10 Q1010=
201507141150 METAR ESMX 141150Z AUTO 30008KT 260V340 9999 FEW037/// BKN051/// 18/10 Q1010=
201507141120 METAR ESMX 141120Z AUTO 22005KT 170V280 9999 FEW035/// BKN053/// 19/10 Q1010=
201507141050 METAR ESMX 141050Z AUTO VRB06KT 360V360 9999 FEW037/// SCT043/// BKN051/// 19/11 Q1010=
201507141020 METAR ESMX 141020Z AUTO 23006KT 200V290 9999 FEW035/// SCT046/// 18/09 Q1010=
201507140950 METAR ESMX 140950Z AUTO 24008KT 200V330 9999 SCT025/// 17/10 Q1010=
201507140920 METAR ESMX 140920Z AUTO 28008KT 9999 SCT022/// BKN032/// 17/11 Q1010=
201507140850 METAR ESMX 140850Z AUTO 28007KT 230V320 9999 FEW017/// SCT020/// BKN039/// 17/12 Q1010=
201507140820 METAR ESMX 140820Z AUTO 27006KT 240V340 9999 FEW066/// 16/11 Q1010=
201507140750 METAR ESMX 140750Z AUTO 29006KT 250V320 9999 FEW014/// 15/11 Q1009=
201507140720 METAR ESMX 140720Z AUTO 28004KT 250V320 9999 FEW011/// 14/11 Q1009=
201507140650 METAR ESMX 140650Z AUTO 26004KT 9999 FEW009/// 14/11 Q1009=
201507140620 METAR ESMX 140620Z AUTO 28003KT 240V330 9999 FEW009/// 13/12 Q1009=
201507140550 METAR ESMX 140550Z AUTO 30004KT 260V340 9999 NCD 13/11 Q1009=
201507140520 METAR ESMX 140520Z AUTO 31004KT 280V350 9999 NCD 13/11 Q1009=
201507140450 METAR ESMX 140450Z AUTO 31003KT 9999 NCD 12/11 Q1009=
201507140420 METAR ESMX 140420Z AUTO 28004KT 9999 FEW056/// 12/11 Q1009=
201507140350 METAR ESMX 140350Z AUTO 27005KT 9999 NCD 12/11 Q1009=
201507140320 METAR ESMX 140320Z AUTO 29004KT 9999 FEW055/// 11/11 Q1009=
201507140250 METAR ESMX 140250Z AUTO 26005KT 9999 FEW055/// 11/11 Q1009=
201507140220 METAR ESMX 140220Z AUTO 25003KT 9999 NCD 11/11 Q1009=
201507140150 METAR ESMX 140150Z AUTO 28003KT 9999 NCD 12/11 Q1009=
201507140120 METAR ESMX 140120Z AUTO 26004KT 9999 SCT056/// 12/11 Q1009=
201507140050 METAR ESMX 140050Z AUTO 26003KT 9999 SCT043/// BKN059/// 13/12 Q1009=
201507140020 METAR ESMX 140020Z AUTO 29003KT 9999 BKN041/// OVC058/// 13/12 Q1009=
201507132320 METAR ESMX 132320Z 28005KT 9999 BKN037 OVC060 14/12 Q1009=
201507132250 METAR ESMX 132250Z 28005KT 9999 OVC035 14/12 Q1009=
201507132220 METAR ESMX 132220Z 27007KT 9999 SCT035 BKN068 BKN098 14/12 Q1009=
201507132150 METAR ESMX 132150Z 27007KT 9999 FEW041 SCT047 BKN070 15/12 Q1009=
201507132120 METAR COR ESMX 132120Z 26005KT 9999 FEW029 OVC038 15/12 Q1009=
201507132050 METAR ESMX 132050Z 26003KT 9999 SCT028 BKN038 OVC069 15/12 Q1009=
201507132020 METAR ESMX 132020Z 26004KT 9999 FEW014 BKN032 OVC040 16/12 Q1009=
201507131950 METAR ESMX 131950Z 28005KT 9999 SCT024 OVC033 16/12 Q1009=
201507131920 METAR ESMX 131920Z 27004KT 9999 FEW025 SCT037 BKN055 16/13 Q1009=
201507131850 METAR ESMX 131850Z AUTO 28005KT 9999 SCT024/// BKN033/// OVC054/// 17/12 Q1009=
201507131820 METAR ESMX 131820Z AUTO 28003KT 9999 FEW031/// OVC048/// 17/13 Q1009=
201507131750 METAR ESMX 131750Z AUTO 30004KT 280V340 9999 FEW030/// SCT036/// OVC046/// 17/13 Q1009=
201507131720 METAR ESMX 131720Z AUTO 28005KT 9999 FEW030/// OVC049/// 18/13 Q1008=
201507131650 METAR ESMX 131650Z AUTO 28007KT 9999 FEW039/// BKN045/// 18/12 Q1009=
201507131620 METAR ESMX 131620Z 30008KT 260V330 9999 SCT035TCU BKN050 18/13 Q1009=
201507131550 METAR ESMX 131550Z 28009KT 9999 FEW024CB SCT040TCU BKN075 19/13 Q1009=
201507131520 METAR COR ESMX 131520Z 28008KT 250V320 9999 SCT030CB BKN080 19/13 Q1009=
201507131450 METAR ESMX 131450Z 29010KT 9999 SCT030CB BKN070 19/13 Q1009=
201507131420 METAR ESMX 131420Z 27011KT 9999 FEW030CB SCT035TCU BKN080 21/13 Q1008=
201507131350 METAR ESMX 131350Z 30007KT 260V340 9999 SCT035TCU BKN080 20/13 Q1008=
201507131320 METAR ESMX 131320Z 28009KT 240V320 9999 SCT035TCU BKN080 20/12 Q1009=
201507131250 METAR ESMX 131250Z AUTO 29009KT 260V320 9999 FEW037/// BKN073/// 21/13 Q1009=
201507131220 METAR ESMX 131220Z 28008KT 9999 SCT025TCU BKN060 19/13 Q1009=
201507131150 METAR ESMX 131150Z 29008KT 240V310 9999 SCT025TCU BKN067 20/13 Q1009=
201507131120 METAR COR ESMX 131120Z 29006KT 9999 SCT030TCU BKN060 19/13 Q1008=
201507131050 METAR ESMX 131050Z 27006KT 9999 SCT025TCU BKN050 19/13 Q1009=
201507131020 METAR ESMX 131020Z 30005KT 270V340 9999 SCT023TCU BKN050 19/13 Q1009=
201507130950 METAR ESMX 130950Z 30005KT 270V350 9999 FEW020TCU BKN045 18/13 Q1009=
201507130920 METAR ESMX 130920Z 27005KT 250V310 9999 SCT020 BKN045 18/13 Q1009=
201507130850 METAR ESMX 130850Z 27005KT 240V320 9999 FEW020 SCT035 BKN050 18/13 Q1009=
201507130820 METAR COR ESMX 130820Z 07001KT 9999 BKN035 17/13 Q1009=
201507130750 METAR ESMX 130750Z VRB03KT 9999 BKN030 16/13 Q1009=
201507130720 METAR ESMX 130720Z 26004KT 9999 BKN032 16/14 Q1009=
201507130650 METAR COR ESMX 130650Z 27004KT 230V310 9999 FEW015 BKN035 16/14 Q1009=
201507130620 METAR ESMX 130620Z AUTO 33003KT 9999 SCT034/// BKN078/// 15/14 Q1009=
201507130550 METAR ESMX 130550Z AUTO 31003KT 290V050 9999 BKN035/// 15/13 Q1009=
201507130520 METAR ESMX 130520Z AUTO 30004KT 9999 SCT037/// 14/13 Q1009=
201507130450 METAR ESMX 130450Z AUTO 25002KT 9999 FEW080/// 13/12 Q1009=
201507130420 METAR ESMX 130420Z AUTO 34002KT 9999 SCT080/// 13/12 Q1009=
201507130350 METAR ESMX 130350Z AUTO 26003KT 9999 NCD 12/11 Q1009=
201507130320 METAR ESMX 130320Z AUTO 27002KT 9999 NCD 12/11 Q1009=
201507130250 METAR ESMX 130250Z AUTO VRB01KT 9999 FEW035/// 12/11 Q1009=
201507130220 METAR ESMX 130220Z AUTO 26004KT 9999 FEW022/// OVC033/// 12/11 Q1009=
201507130150 METAR ESMX 130150Z AUTO 27004KT 9999 BKN021/// OVC028/// 13/12 Q1009=
201507130120 METAR ESMX 130120Z AUTO 28005KT 9999 SCT021/// OVC027/// 13/12 Q1009=
201507130050 METAR ESMX 130050Z AUTO 26004KT 9999 BKN110/// 12/11 Q1009=
201507130020 METAR ESMX 130020Z AUTO 29004KT 9999 FEW110/// 13/12 Q1010=
201507122350 METAR ESMX 122350Z AUTO 26004KT 9999 SCT100/// 13/12 Q1010=
201507122320 METAR ESMX 122320Z 26004KT CAVOK 14/12 Q1010=
201507122250 METAR ESMX 122250Z 25005KT CAVOK 14/13 Q1010=
201507122220 METAR ESMX 122220Z 25003KT CAVOK 14/13 Q1010=
201507122150 METAR ESMX 122150Z 24004KT CAVOK 14/13 Q1010=
201507122120 METAR ESMX 122120Z 25004KT 9999 BKN043 15/13 Q1010=
201507122050 METAR ESMX 122050Z 24005KT 9999 SCT042 BKN070 BKN100 15/14 Q1010=
201507122020 METAR COR ESMX 122020Z 22004KT 9999 BKN044 BKN110 16/14 Q1010=
201507121950 METAR ESMX 121950Z 22004KT 9999 SCT030 BKN110 16/15 Q1010=
201507121920 METAR ESMX 121920Z 22003KT 9999 BKN025 16/16 Q1010=
201507121850 METAR ESMX 121850Z 00000KT 9999 BKN027 BKN043 17/16 Q1010=
201507121820 METAR ESMX 121820Z 00000KT 9999 BKN027 17/16 Q1010=
201507121750 METAR COR ESMX 121750Z VRB03KT 9999 SCT031 BKN042 BKN054 17/16 Q1010=
201507121720 METAR ESMX 121720Z VRB02KT 9999 FEW033 BKN048 17/16 Q1010=
201507121650 METAR ESMX 121650Z 31005KT 230V350 9000 RA FEW010 SCT036 BKN044 16/14 Q1011=
201507121620 METAR ESMX 121620Z AUTO 08003KT 9999 FEW042/// SCT052/// 19/14 Q1010=
201507121550 METAR ESMX 121550Z AUTO VRB02KT 9999 SCT062/// 20/13 Q1011=
201507121520 METAR ESMX 121520Z AUTO 07003KT 050V110 9999 BKN054/// 19/13 Q1011=
201507121450 METAR ESMX 121450Z AUTO 01003KT 310V080 9999 FEW032/// BKN055/// 19/13 Q1011=
201507121420 METAR ESMX 121420Z AUTO VRB03KT 9999 FEW043/// 20/13 Q1011=
201507121350 METAR ESMX 121350Z AUTO 02003KT 340V060 9999 SCT030/// BKN049/// 19/12 Q1011=
201507121320 METAR ESMX 121320Z AUTO 01005KT 9999 FEW048/// SCT054/// 19/13 Q1011=
201507121250 METAR ESMX 121250Z 03007KT 360V060 9999 BKN030 19/12 Q1012=
201507121220 METAR ESMX 121220Z 01006KT 9999 BKN032 19/13 Q1012=
201507121150 METAR ESMX 121150Z 28005KT 230V310 9999 SCT030 BKN050 19/12 Q1012=
201507121120 METAR ESMX 121120Z 28006KT 190V330 9999 SCT025 BKN045 19/11 Q1012=
201507121050 METAR ESMX 121050Z 27003KT 9999 SCT025 BKN045 19/12 Q1012=
201507121020 METAR ESMX 121020Z AUTO 27004KT 190V320 9999 FEW027/// BKN046/// 18/12 Q1012=
201507120950 METAR ESMX 120950Z AUTO 25005KT 200V310 9999 BKN026/// BKN059/// 18/12 Q1012=
201507120920 METAR ESMX 120920Z AUTO 22005KT 170V260 9999 SCT025/// BKN056/// 18/12 Q1013=
201507120850 METAR ESMX 120850Z AUTO 23006KT 190V260 9999 FEW024/// BKN038/// BKN073/// 18/11 Q1013=
201507120820 METAR ESMX 120820Z AUTO 23006KT 9999 FEW020/// BKN039/// BKN080/// 17/12 Q1013=
201507120750 METAR ESMX 120750Z AUTO 27006KT 200V300 9999 FEW040/// BKN060/// BKN085/// 17/12 Q1013=
201507120720 METAR ESMX 120720Z AUTO 25006KT 9999 FEW060/// SCT075/// BKN092/// 16/12 Q1013=
201507120650 METAR ESMX 120650Z AUTO 24005KT 9999 SCT071/// BKN092/// 16/13 Q1013=
201507120620 METAR ESMX 120620Z AUTO 23004KT 200V260 9999 BKN069/// 15/13 Q1013=
201507120550 METAR ESMX 120550Z AUTO 26003KT 9999 BKN068/// 15/13 Q1013=
201507120520 METAR ESMX 120520Z AUTO 00000KT 9999 FEW054/// SCT076/// BKN100/// 15/12 Q1013=
201507120450 METAR ESMX 120450Z AUTO 00000KT 9999 SCT055/// BKN100/// 14/12 Q1013=
201507120420 METAR ESMX 120420Z AUTO 22002KT 9999 SCT055/// BKN082/// 13/12 Q1013=
201507120350 METAR ESMX 120350Z AUTO 22003KT 9999 FEW061/// SCT090/// BKN100/// 13/12 Q1013=
201507120320 METAR ESMX 120320Z AUTO 25003KT 9999 -RA FEW060/// SCT072/// BKN084/// 13/12 Q1013 RERA=
201507120250 METAR ESMX 120250Z AUTO 03003KT 330V070 9999 DZ FEW047/// SCT058/// BKN071/// 13/12 Q1013 REDZ=
201507120220 METAR ESMX 120220Z AUTO 32003KT 9999 BKN039/// BKN054/// 14/10 Q1014=
201507120150 METAR ESMX 120150Z AUTO 26004KT 9999 BKN055/// OVC072/// 14/10 Q1014=
201507120120 METAR ESMX 120120Z AUTO VRB02KT 9999 SCT061/// OVC073/// 14/10 Q1014=
201507120050 METAR ESMX 120050Z AUTO 28002KT 9999 BKN076/// 14/09 Q1014=
201507120020 METAR ESMX 120020Z AUTO 27004KT 9999 BKN079/// 15/10 Q1014=
201507112350 METAR ESMX 112350Z AUTO 28004KT 9999 BKN089/// 15/09 Q1014=
201507112320 METAR ESMX 112320Z AUTO 27004KT 9999 BKN094/// 15/09 Q1014=
201507112250 METAR ESMX 112250Z AUTO 26005KT 9999 BKN093/// 15/10 Q1014=
201507112220 METAR ESMX 112220Z AUTO 26005KT 9999 FEW088/// SCT100/// 15/11 Q1014=
201507112150 METAR ESMX 112150Z AUTO 24006KT 9999 FEW089/// SCT100/// 15/12 Q1014=
201507112120 METAR ESMX 112120Z AUTO 25005KT 9999 FEW096/// 16/12 Q1014=
201507112050 METAR ESMX 112050Z AUTO 25006KT 210V290 9999 BKN041/// 17/12 Q1014=
201507112020 METAR ESMX 112020Z AUTO VRB02KT 9999 OVC048/// 17/12 Q1014=
201507111950 METAR ESMX 111950Z AUTO 25002KT 9999 FEW051/// BKN062/// 16/12 Q1014=
201507111920 METAR ESMX 111920Z AUTO 24002KT 9999 FEW051/// SCT110/// 17/13 Q1014=
201507111850 METAR ESMX 111850Z AUTO 26001KT 9999 BKN047/// BKN076/// 18/13 Q1014=
201507111820 METAR ESMX 111820Z AUTO 25003KT 9999 FEW056/// BKN075/// 18/12 Q1014=
201507111750 METAR ESMX 111750Z AUTO 27004KT 9999 SCT048/// BKN072/// 20/11 Q1014=
201507111720 METAR ESMX 111720Z AUTO 31004KT 9999 FEW054/// SCT078/// 20/11 Q1014=
201507111650 METAR ESMX 111650Z AUTO 29006KT 250V340 9999 FEW044/// BKN072/// 20/11 Q1014=
201507111620 METAR ESMX 111620Z AUTO 29006KT 250V330 9999 FEW044/// SCT073/// 20/10 Q1014=
201507111550 METAR ESMX 111550Z AUTO 31007KT 260V340 9999 FEW047/// BKN069/// 21/10 Q1014=
201507111520 METAR ESMX 111520Z AUTO 30005KT 9999 OVC059/// 20/10 Q1014=
201507111450 METAR ESMX 111450Z AUTO 30004KT 9999 OVC062/// 20/10 Q1014=
201507111420 METAR ESMX 111420Z AUTO 30006KT 260V330 9999 FEW043/// BKN050/// 19/10 Q1014=
201507111350 METAR ESMX 111350Z AUTO 28008KT 250V310 9999 FEW046/// BKN056/// 20/10 Q1014=
201507111320 METAR ESMX 111320Z AUTO 33006KT 300V010 9999 FEW041/// SCT047/// BKN092/// 20/10 Q1014=
201507111250 METAR ESMX 111250Z AUTO 31006KT 260V340 9999 FEW040/// 20/11 Q1014=
201507111220 METAR ESMX 111220Z AUTO 33006KT 290V360 9999 FEW041/// SCT047/// 19/10 Q1014=
201507111150 METAR ESMX 111150Z AUTO 31006KT 260V070 9999 FEW036/// BKN046/// 20/10 Q1015=
201507111120 METAR ESMX 111120Z AUTO 32007KT 270V350 9999 FEW036/// BKN043/// 19/10 Q1015=
201507111050 METAR ESMX 111050Z AUTO 28007KT 250V340 9999 FEW034/// BKN040/// 18/10 Q1015=
201507111020 METAR ESMX 111020Z AUTO 36005KT 310V050 9999 FEW033/// 18/10 Q1015=
201507110950 METAR ESMX 110950Z AUTO 33007KT 290V050 9999 BKN032/// 17/10 Q1015=
201507110920 METAR ESMX 110920Z AUTO 34005KT 290V040 9999 FEW030/// 17/10 Q1015=
201507110850 METAR ESMX 110850Z AUTO 32006KT 270V020 9999 NCD 17/09 Q1015=
201507110820 METAR ESMX 110820Z AUTO 35009KT 310V020 9999 FEW032/// 17/09 Q1015=
201507110750 METAR ESMX 110750Z AUTO 35009KT 9999 FEW029/// 17/10 Q1015=
201507110720 METAR ESMX 110720Z AUTO 35008KT 300V010 9999 NCD 16/09 Q1015=
201507110650 METAR ESMX 110650Z AUTO 32008KT 290V350 9999 NCD 15/09 Q1015=
201507110620 METAR ESMX 110620Z AUTO 31009KT 9999 NCD 15/09 Q1015=
201507110550 METAR ESMX 110550Z AUTO 32006KT 290V350 9999 NCD 14/09 Q1015=
201507110520 METAR ESMX 110520Z AUTO 31007KT 9999 NCD 13/09 Q1014=
201507110450 METAR ESMX 110450Z AUTO 29007KT 9999 NCD 12/09 Q1014=
201507110420 METAR ESMX 110420Z AUTO 29007KT 9999 NCD 11/09 Q1014=
201507110350 METAR ESMX 110350Z AUTO 29007KT 9999 NCD 10/09 Q1014=
201507110320 METAR ESMX 110320Z AUTO 28005KT 9999 NCD 10/08 Q1014=
201507110250 METAR ESMX 110250Z AUTO 28005KT 9999 NCD 09/08 Q1014=
201507110220 METAR ESMX 110220Z AUTO 27005KT 9999 NCD 10/08 Q1014=
201507110150 METAR ESMX 110150Z AUTO 27005KT 9999 NCD 10/08 Q1014=
201507110120 METAR ESMX 110120Z AUTO 27005KT 9999 NCD 10/08 Q1014=
201507110050 METAR ESMX 110050Z AUTO 28004KT 9999 NCD 11/07 Q1014=
201507110020 METAR ESMX 110020Z AUTO 27005KT 9999 SCT051/// 12/07 Q1014=
201507102350 METAR ESMX 102350Z AUTO 28005KT 9999 SCT053/// 12/07 Q1014=
201507102320 METAR ESMX 102320Z AUTO 28007KT 260V330 9999 OVC054/// 13/07 Q1014=
201507102250 METAR ESMX 102250Z AUTO 28008KT 9999 OVC054/// 13/07 Q1014=
201507102220 METAR ESMX 102220Z AUTO 27008KT 9999 OVC055/// 13/07 Q1014=
201507102150 METAR ESMX 102150Z AUTO 27008KT 9999 OVC057/// 13/07 Q1014=
201507102120 METAR ESMX 102120Z AUTO 27008KT 9999 OVC058/// 13/08 Q1014=
201507102050 METAR ESMX 102050Z AUTO 27008KT 9999 OVC057/// 14/08 Q1013=
201507102020 METAR ESMX 102020Z AUTO 28007KT 9999 OVC054/// 14/09 Q1013=
201507101950 METAR ESMX 101950Z AUTO 27007KT 9999 FEW041/// OVC054/// 14/09 Q1013=
201507101920 METAR ESMX 101920Z AUTO 27005KT 9999 OVC051/// 14/09 Q1013=
201507101850 METAR ESMX 101850Z AUTO 29006KT 9999 OVC047/// 14/09 Q1012=
201507101820 METAR ESMX 101820Z AUTO 29005KT 9999 BKN046/// 15/08 Q1012=
201507101750 METAR ESMX 101750Z AUTO 31010KT 9999 FEW037/// SCT047/// 15/08 Q1012=
201507101720 METAR ESMX 101720Z AUTO 31010KT 9999 FEW063/// 16/08 Q1012=
201507101650 METAR ESMX 101650Z AUTO 32013KT 280V350 9999 BKN036/// OVC066/// 16/08 Q1012=
201507101620 METAR ESMX 101620Z AUTO 31011KT 9999 OVC036/// 16/08 Q1011=
201507101550 METAR ESMX 101550Z 32013KT 9999 OVC038 16/08 Q1011=
201507101520 METAR ESMX 101520Z 31014KT 9999 OVC038 16/08 Q1011=
201507101450 METAR ESMX 101450Z 31014KT 270V330 9999 OVC039 16/07 Q1010=
201507101420 METAR ESMX 101420Z 30013KT 280V340 9999 OVC040 16/07 Q1010=
201507101350 METAR ESMX 101350Z 30014KT 260V330 9999 OVC040 16/07 Q1010=
201507101320 METAR ESMX 101320Z 30014KT 9999 OVC040 16/07 Q1009=
201507101250 METAR ESMX 101250Z 30015KT 260V330 9999 OVC041 15/06 Q1009=
201507101220 METAR ESMX 101220Z 30015KT 9999 FEW041 BKN047 16/07 Q1009=
201507101150 METAR ESMX 101150Z 30014KT 280V340 9999 BKN042 16/07 Q1009=
201507101120 METAR ESMX 101120Z 29014KT 250V320 9999 BKN041 15/06 Q1008=
201507101050 METAR ESMX 101050Z 28013KT 250V330 9999 BKN040 15/05 Q1008=
201507101020 METAR ESMX 101020Z 28013KT 260V320 9999 FEW038 BKN043 15/07 Q1008=
201507100950 METAR ESMX 100950Z 29014G28KT 9999 FEW036 BKN044 14/06 Q1008=
201507100920 METAR ESMX 100920Z 29013KT 9999 FEW033 BKN040 14/07 Q1007=
201507100850 METAR ESMX 100850Z 29015KT 9999 FEW030 BKN040 14/06 Q1007=
201507100820 METAR ESMX 100820Z 30015G26KT 270V330 9999 FEW028 SCT034 BKN041 14/07 Q1007=
201507100750 METAR COR ESMX 100750Z 30015KT 9999 FEW026 SCT036 13/07 Q1007=
201507100720 METAR COR ESMX 100720Z 29013G24KT 250V330 9999 FEW025 SCT031 BKN037 12/07 Q1007=
201507100650 METAR ESMX 100650Z 30013KT 260V330 9999 FEW017 SCT027 BKN033 12/07 Q1006=
201507100620 METAR ESMX 100620Z 30011KT 9999 FEW019 SCT027 12/09 Q1006=
201507100550 METAR ESMX 100550Z AUTO 30011KT 9999 FEW019/// SCT025/// 11/09 Q1006=
201507100520 METAR ESMX 100520Z AUTO 29011KT 250V320 9999 FEW008/// SCT015/// BKN026/// 11/10 Q1006=
201507100450 METAR ESMX 100450Z AUTO 28007KT 9999 FEW008/// 10/10 Q1005=
201507100420 METAR ESMX 100420Z AUTO 28007KT 9999 SCT096/// 10/10 Q1005=
201507100350 METAR ESMX 100350Z AUTO 27006KT 9999 FEW010/// SCT097/// 10/10 Q1005=
201507100320 METAR ESMX 100320Z AUTO 27006KT 9999 FEW064/// SCT082/// 10/10 Q1004=
201507100250 METAR ESMX 100250Z AUTO 29009KT 9999 FEW019/// SCT028/// BKN071/// 11/10 Q1004 RERA RESHRA=
201507100220 METAR ESMX 100220Z AUTO 27010KT 7000 RA FEW007/// SCT013/// BKN015/// 11/10 Q1004 RERA=
201507100150 METAR ESMX 100150Z AUTO 25008KT 9999 FEW045/// BKN068/// 11/11 Q1004=
201507100120 METAR ESMX 100120Z AUTO 25008KT 210V280 9999 -RA FEW014/// SCT057/// 11/11 Q1004 RERA=
201507100050 METAR ESMX 100050Z AUTO 25009KT 9999 FEW051/// BKN062/// 11/11 Q1004=
201507100020 METAR ESMX 100020Z 25009KT 8000 -RA FEW006 11/11 Q1004=
201507092350 METAR COR ESMX 092350Z 24009KT 9000 RA FEW009 SCT054 BKN065 12/11 Q1004=
201507092320 METAR ESMX 092320Z 25008KT 9999 -RA FEW013 SCT026 BKN054 12/11 Q1004=
201507092250 METAR COR ESMX 092250Z 25009KT 9999 RA FEW020 SCT033 BKN041 12/11 Q1004=
201507092220 METAR ESMX 092220Z 25010KT 9999 FEW012 SCT021 BKN027 12/11 Q1004=
201507092150 METAR ESMX 092150Z 25008KT 230V290 9999 FEW014 BKN018 12/11 Q1004=
201507092120 METAR ESMX 092120Z 25009KT 9999 SCT019 12/11 Q1004=
201507092050 METAR ESMX 092050Z 25008KT 9999 SCT019 11/10 Q1004=
201507092020 METAR ESMX 092020Z 25008KT 9999 SCT059 12/10 Q1003=
201507091950 METAR ESMX 091950Z 26010KT 9999 SCT044 BKN057 13/10 Q1003=
201507091920 METAR ESMX 091920Z 26008KT 9999 SCT037 BKN050 13/11 Q1003=
201507091850 METAR ESMX 091850Z AUTO 25006KT 9999 FEW038/// OVC057/// 12/11 Q1003=
201507091820 METAR ESMX 091820Z AUTO 28007KT 9999 FEW011/// BKN064/// 12/11 Q1003 RERA=
201507091750 METAR ESMX 091750Z AUTO 28008KT 250V320 9999 FEW014/// SCT036/// BKN064/// 12/11 Q1002 REDZ=
201507091720 METAR ESMX 091720Z AUTO 30011KT 260V330 9999 -DZ FEW014/// SCT018/// BKN026/// 12/12 Q1002=
201507091650 METAR ESMX 091650Z 29012KT 9999 -SHRA FEW010 SCT015 BKN025 13/11 Q1001 REDZ=
201507091620 METAR ESMX 091620Z 29013KT 8000 -SHRA SCT010 BKN015 13/11 Q1001=
201507091550 METAR ESMX 091550Z 29010KT 8000 DZ FEW006 SCT010 BKN025 13/11 Q1000=
201507091520 METAR ESMX 091520Z 30010KT 9999 -SHRA SCT006 BKN013 13/12 Q1000=
201507091450 METAR ESMX 091450Z 32012KT 9999 -SHRA SCT005 BKN008 13/11 Q0999=
201507091420 METAR ESMX 091420Z 25005KT 9999 -RA FEW006 BKN008 BKN025 13/12 Q0999 REDZ=
201507091350 METAR COR ESMX 091350Z 22007KT 9999 FEW008 BKN009 13/12 Q0999=
201507091320 METAR ESMX 091320Z 20009KT 9999 -SHRA BKN010 13/11 Q0998=
201507091250 METAR ESMX 091250Z 19012KT 9999 BKN010 13/11 Q0998=
201507091220 METAR ESMX 091220Z AUTO 19012KT 7000 BR BKN010/// OVC015/// 13/11 Q0998=
201507091150 METAR ESMX 091150Z AUTO 20014KT 5000 BR FEW008/// BKN013/// BKN020/// 13/11 Q0998 REDZ=
201507091120 METAR ESMX 091120Z AUTO 20012KT 9999 FEW008/// SCT011/// BKN021/// 13/11 Q0998=
201507091050 METAR ESMX 091050Z AUTO 21015KT 4700 -RA FEW008/// SCT011/// BKN014/// 13/11 Q0998 RERA=
201507091020 METAR ESMX 091020Z AUTO 21013KT 7000 BR FEW010/// SCT013/// BKN019/// 13/12 Q0998 RERA=
201507090950 METAR ESMX 090950Z AUTO 19014KT 7000 -RA FEW015/// SCT018/// BKN025/// 13/11 Q0998=
201507090920 METAR ESMX 090920Z AUTO 20016KT 9999 FEW014/// SCT020/// BKN028/// 15/12 Q0998 REDZ=
201507090850 METAR ESMX 090850Z AUTO 21015KT 9999 FEW012/// SCT016/// BKN022/// 14/11 Q0997=
201507090820 METAR ESMX 090820Z AUTO 21014KT 6000 BR SCT010/// BKN015/// BKN018/// 12/11 Q0998=
201507090750 METAR ESMX 090750Z AUTO 23013KT 9999 FEW012/// BKN015/// 13/12 Q0997=
201507090720 METAR ESMX 090720Z 23011KT 8000 BR FEW007 SCT013 BKN019 11/10 Q0998 REDZ=
201507090650 METAR ESMX 090650Z AUTO 22012KT 7000 BR FEW007/// BKN014/// BKN019/// 12/10 Q0997=
201507090620 METAR COR ESMX 090620Z 21012KT 8000 BR SCT008 BKN015 11/10 Q0998=
201507090550 METAR ESMX 090550Z 21013KT 8000 BR SCT012 BKN015 11/10 Q0997=
201507090520 METAR COR ESMX 090520Z 22011KT 9999 SCT010 BKN018 12/10 Q0997=
201507090450 METAR ESMX 090450Z 21011KT 9999 FEW005 SCT009 BKN012 11/10 Q0997=
201507090420 METAR ESMX 090420Z 22010KT 3000 RA FEW006 BKN010 11/10 Q0997=
201507090350 METAR ESMX 090350Z AUTO 22011KT 9999 FEW009/// BKN012/// OVC019/// 11/10 Q0997=
201507090320 METAR ESMX 090320Z AUTO 23010KT 9999 FEW010/// SCT013/// BKN015/// 11/10 Q0997=
201507090250 METAR ESMX 090250Z AUTO 23010KT 9999 FEW009/// BKN013/// OVC023/// 11/10 Q0997=
201507090220 METAR ESMX 090220Z AUTO 23008KT 9999 FEW011/// SCT014/// BKN027/// 12/11 Q0997=
201507090150 METAR ESMX 090150Z AUTO 24010KT 220V280 9999 FEW013/// SCT022/// BKN026/// 12/11 Q0997=
201507090120 METAR ESMX 090120Z AUTO 26013KT 230V290 4100 DZ FEW007/// SCT009/// BKN015/// 12/11 Q0997 REDZ=
201507090050 METAR ESMX 090050Z AUTO 25010KT 9999 FEW010/// SCT014/// BKN023/// 13/12 Q0997=
201507090020 METAR ESMX 090020Z AUTO 23010KT 200V260 9999 FEW008/// SCT014/// BKN023/// 13/12 Q0997=
201507082350 METAR ESMX 082350Z 20011KT 9000 DZ FEW007 BKN011 13/13 Q0996=
201507082320 METAR ESMX 082320Z 19010KT 9999 FEW006 BKN008 13/13 Q0996=
201507082250 METAR ESMX 082250Z 19010KT 9999 FEW006 SCT009 BKN013 13/13 Q0997=
201507082220 METAR ESMX 082220Z 20008KT 9999 FEW007 OVC009 13/13 Q0997=
201507082150 METAR ESMX 082150Z 21007KT 9999 FEW008 BKN014 13/13 Q0997=
201507082120 METAR ESMX 082120Z 21009KT 9999 FEW006 SCT012 BKN021 13/13 Q0997=
201507082050 METAR ESMX 082050Z 21011KT 9999 FEW007 BKN011 BKN020 14/13 Q0997=
201507082020 METAR ESMX 082020Z 20012KT 7000 RA FEW005 SCT012 BKN018 14/13 Q0996=
201507081950 METAR ESMX 081950Z 19011KT 9999 -RA FEW014 SCT018 BKN022 14/13 Q0996=
201507081920 METAR ESMX 081920Z 18010KT 9999 FEW013 SCT023 BKN052 14/13 Q0996=
201507081850 METAR ESMX 081850Z AUTO 20008KT 9999 -RA FEW014/// SCT023/// BKN027/// 14/13 Q0997 REDZ=
201507081820 METAR ESMX 081820Z AUTO 19010KT 9999 DZ FEW035/// SCT050/// BKN082/// 14/12 Q0997=
201507081750 METAR ESMX 081750Z AUTO 19011KT 9999 FEW044/// SCT074/// 15/12 Q0997=
201507081720 METAR ESMX 081720Z AUTO 19011KT 9999 FEW020/// SCT056/// 15/13 Q0997 RERA=
201507081650 METAR ESMX 081650Z AUTO 20009KT 9999 FEW039/// 15/13 Q0997=
201507081620 METAR ESMX 081620Z AUTO 20014KT 5000 -RA FEW012/// SCT047/// 15/14 Q0998 RERA=
201507081550 METAR COR ESMX 081550Z 21011KT 9999 FEW030 SCT040CB BKN090 15/13 Q0997 RERA=
201507081520 METAR ESMX 081520Z 18017KT 9999 FEW020 SCT040CB SCT090 16/12 Q0997=
201507081450 METAR ESMX 081450Z 23009KT 9999 -SHRA SCT040CB BKN090 17/12 Q0997 RERA=
201507081420 METAR ESMX 081420Z 23015KT 9999 FEW040TCU SCT080 19/09 Q0997=
201507081350 METAR ESMX 081350Z 22016KT 190V250 9999 FEW025 FEW040CB SCT085 19/10 Q0997=
201507081320 METAR ESMX 081320Z AUTO 22014G25KT 9999 FEW040/// SCT070/// 18/09 Q0997=
201507081250 METAR ESMX 081250Z AUTO 24015G28KT 9999 FEW039/// SCT087/// 20/11 Q0997=
201507081220 METAR ESMX 081220Z AUTO 22014KT 190V250 9999 FEW040/// BKN073/// 19/10 Q0997=
201507081150 METAR ESMX 081150Z AUTO 24016G27KT 210V280 9999 FEW032/// SCT045/// 20/10 Q0997=
201507081120 METAR ESMX 081120Z AUTO 25012KT 9999 FEW026/// SCT069/// 17/10 Q0997=
201507081050 METAR ESMX 081050Z AUTO 27016KT 230V300 9999 FEW055/// SCT070/// 17/10 Q0997=
201507081020 METAR ESMX 081020Z AUTO 24017KT 9999 FEW024/// SCT052/// 17/11 Q0997=
201507080950 METAR ESMX 080950Z AUTO 25014KT 9999 SCT054/// 17/12 Q0997=
201507080920 METAR ESMX 080920Z AUTO 25017G28KT 230V290 9999 FEW014/// SCT025/// BKN036/// 16/11 Q0997=
201507080850 METAR ESMX 080850Z AUTO 24013KT 210V290 9999 FEW011/// SCT019/// 17/14 Q0996=
201507080820 METAR ESMX 080820Z AUTO 24012KT 9999 FEW008/// BKN012/// 17/14 Q0996=
201507080750 METAR ESMX 080750Z AUTO 23011KT 9999 FEW007/// BKN008/// OVC014/// 17/16 Q0996=
201507080720 METAR ESMX 080720Z 19011KT 9999 SCT007 BKN008 16/15 Q0996=
201507080650 METAR ESMX 080650Z 16008KT 9999 -DZ SCT006 BKN012 15/15 Q0996=
201507080620 METAR ESMX 080620Z 16008KT 9999 -DZ SCT005 BKN009 15/15 Q0996 RERA=
201507080550 METAR ESMX 080550Z 16008KT 9999 FEW004 BKN007 15/14 Q0996=
201507080520 METAR ESMX 080520Z 16007KT 130V190 9999 FEW002 BKN004 15/14 Q0997=
201507080450 METAR ESMX 080450Z 16006KT 9000 BR BKN002 OVC004 15/15 Q0997=
201507080420 METAR ESMX 080420Z 15007KT 7000 BR OVC002 15/15 Q0997=
201507080350 METAR ESMX 080350Z AUTO 14005KT 110V180 6000 -RA BKN003/// 15/15 Q0997=
201507080320 METAR ESMX 080320Z AUTO 15005KT 7000 -RA FEW004/// SCT005/// 15/15 Q0998 REDZ=
201507080250 METAR ESMX 080250Z AUTO 15006KT 8000 -RA FEW004/// 15/15 Q0999=
201507080220 METAR ESMX 080220Z AUTO 16007KT 9000 DZ SCT040/// 15/15 Q0999 REDZ=
201507080150 METAR ESMX 080150Z AUTO 16003KT 8000 DZ OVC057/// 15/15 Q1000=
201507080120 METAR ESMX 080120Z AUTO 00000KT 3100 BR FEW058/// SCT096/// 15/14 Q1000=
201507080050 METAR ESMX 080050Z 13003KT CAVOK 15/14 Q1000=
201507080020 METAR ESMX 080020Z 14004KT CAVOK 15/15 Q1001=
201507072350 METAR ESMX 072350Z 16003KT CAVOK 16/15 Q1001=
201507072320 METAR ESMX 072320Z 17003KT CAVOK 16/15 Q1002=
201507072250 METAR ESMX 072250Z 17003KT CAVOK 16/15 Q1002=
201507072220 METAR ESMX 072220Z 18004KT CAVOK 15/14 Q1002=
201507072150 METAR ESMX 072150Z 16005KT CAVOK 16/15 Q1002=
201507072120 METAR ESMX 072120Z 17006KT CAVOK 16/15 Q1003=
201507072050 METAR ESMX 072050Z 16006KT CAVOK 16/14 Q1003=
201507072020 METAR ESMX 072020Z 16007KT CAVOK 16/14 Q1004=
201507071950 METAR ESMX 071950Z 16005KT 9999 -RA NSC 16/14 Q1004=
201507071920 METAR ESMX 071920Z 16004KT CAVOK 17/14 Q1005=
201507071850 METAR ESMX 071850Z AUTO 18003KT 9999 DZ FEW087/// 17/13 Q1005=
201507071820 METAR ESMX 071820Z AUTO 21004KT 170V240 9999 BKN059/// 18/12 Q1005=
201507071750 METAR ESMX 071750Z AUTO 23003KT 9999 SCT039/// BKN069/// 18/12 Q1006=
201507071720 METAR ESMX 071720Z AUTO 20005KT 9999 OVC035/// 18/12 Q1007=
201507071650 METAR ESMX 071650Z 21009KT 9999 FEW025 BKN035 18/12 Q1007=
201507071620 METAR COR ESMX 071620Z 22010KT 9999 BKN030 18/12 Q1007=
201507071550 METAR ESMX 071550Z 25009KT 210V280 9999 FEW025 BKN035 19/12 Q1007=
201507071520 METAR ESMX 071520Z 24010KT 200V270 9999 SCT025 SCT035 18/12 Q1008=
201507071450 METAR ESMX 071450Z 24011KT 9999 FEW027 SCT035 18/12 Q1008=
201507071420 METAR ESMX 071420Z 25012KT 9999 SCT025 BKN035 18/11 Q1008=
201507071350 METAR ESMX 071350Z 23014KT 9999 FEW025 BKN035 18/11 Q1008=
201507071320 METAR ESMX 071320Z AUTO 23013KT 9999 FEW035/// BKN041/// 18/11 Q1008=
201507071250 METAR ESMX 071250Z AUTO 23016KT 9999 FEW033/// SCT041/// 19/11 Q1008=
201507071220 METAR ESMX 071220Z AUTO 24015KT 9999 FEW035/// SCT045/// 19/10 Q1008=
201507071150 METAR ESMX 071150Z AUTO 22015G26KT 9999 FEW038/// 19/10 Q1008=
201507071120 METAR ESMX 071120Z AUTO 23015KT 9999 FEW036/// 19/10 Q1008=
201507071050 METAR ESMX 071050Z AUTO 26014KT 9999 FEW035/// 19/11 Q1009=
201507071020 METAR ESMX 071020Z AUTO 24015KT 210V270 9999 FEW035/// 18/10 Q1009=
201507070950 METAR ESMX 070950Z AUTO 26013KT 220V290 9999 FEW032/// 18/10 Q1009=
201507070920 METAR ESMX 070920Z AUTO 27015KT 9999 SCT031/// BKN038/// 18/11 Q1009=
201507070850 METAR ESMX 070850Z AUTO 24013KT 200V280 9999 FEW027/// SCT030/// BKN037/// 18/10 Q1009=
201507070820 METAR ESMX 070820Z AUTO 24012KT 200V280 9999 FEW027/// 17/11 Q1009=
201507070750 METAR ESMX 070750Z AUTO 26014G26KT 9999 FEW026/// SCT036/// BKN043/// 16/10 Q1009=
201507070720 METAR ESMX 070720Z 24011KT 210V280 9999 SCT020 BKN040 16/10 Q1009=
201507070650 METAR COR ESMX 070650Z 24012KT 210V280 9999 SCT020 BKN040 15/10 Q1009=
201507070620 METAR ESMX 070620Z 23009KT 190V270 9999 FEW022 BKN036 14/10 Q1009=
201507070550 METAR ESMX 070550Z 23010KT 9999 SCT020 BKN035 15/10 Q1009=
201507070520 METAR ESMX 070520Z AUTO 25010KT 200V280 9999 OVC036/// 14/10 Q1009=
201507070450 METAR ESMX 070450Z AUTO 24009KT 210V280 9999 SCT019/// BKN025/// OVC037/// 14/10 Q1010=
201507070420 METAR ESMX 070420Z AUTO 24009KT 9999 FEW022/// SCT027/// BKN034/// 14/10 Q1009=
201507070350 METAR ESMX 070350Z AUTO 25010KT 220V280 9999 FEW022/// SCT030/// BKN040/// 14/10 Q1010=
201507070320 METAR ESMX 070320Z AUTO 23009KT 190V250 9999 FEW020/// BKN024/// BKN037/// 14/10 Q1010=
201507070250 METAR ESMX 070250Z AUTO 24008KT 210V290 9999 BKN019/// OVC031/// 14/10 Q1010=
201507070220 METAR ESMX 070220Z AUTO 25009KT 9999 OVC019/// 14/10 Q1010=
201507070150 METAR ESMX 070150Z AUTO 24010KT 9999 FEW020/// SCT024/// BKN033/// 14/10 Q1010=
201507070120 METAR ESMX 070120Z AUTO 24010KT 220V280 9999 FEW021/// SCT028/// BKN038/// 14/10 Q1010=
201507070050 METAR ESMX 070050Z AUTO 24011KT 9999 BKN019/// OVC027/// 14/10 Q1010=
201507070020 METAR ESMX 070020Z AUTO 24010KT 210V280 9999 FEW023/// BKN035/// 14/10 Q1011=
201507062350 METAR ESMX 062350Z 24012KT 210V270 9999 FEW022 SCT027 OVC031 14/10 Q1011=
201507062320 METAR ESMX 062320Z 24011KT 9999 BKN022 OVC028 14/10 Q1011=
201507062250 METAR ESMX 062250Z 25010KT 230V290 9999 FEW022 BKN026 15/10 Q1011=
201507062220 METAR ESMX 062220Z 24010KT 9999 BKN022 15/10 Q1011=
201507062150 METAR ESMX 062150Z 23010KT 9999 SCT024 BKN031 15/11 Q1011=
201507062120 METAR ESMX 062120Z 24010KT 9999 FEW027 BKN031 15/10 Q1011=
201507062050 METAR ESMX 062050Z 23009KT 9999 SCT033 15/10 Q1011=
201507062020 METAR ESMX 062020Z 22010KT 190V250 9999 FEW030 SCT045 15/11 Q1011=
201507061950 METAR ESMX 061950Z 22011KT 9999 FEW029 SCT057 15/11 Q1011=
201507061920 METAR ESMX 061920Z 23009KT 200V260 9999 FEW031 SCT060 16/11 Q1011=
201507061850 METAR ESMX 061850Z 22009KT 9999 FEW036 BKN058 16/11 Q1012=
201507061820 METAR ESMX 061820Z AUTO 23010KT 200V280 9999 BKN052/// 16/10 Q1012=
201507061750 METAR ESMX 061750Z AUTO 25012KT 9999 BKN054/// 16/09 Q1012=
201507061720 METAR ESMX 061720Z AUTO 26013KT 220V290 9999 FEW038/// SCT057/// 17/09 Q1012=
201507061650 METAR ESMX 061650Z AUTO 26015KT 9999 FEW041/// SCT057/// 17/09 Q1012=
201507061620 METAR ESMX 061620Z AUTO 25015G30KT 9999 FEW039/// 17/09 Q1012=
201507061550 METAR ESMX 061550Z 26012G23KT 220V290 9999 FEW030 SCT050 18/10 Q1012=
201507061520 METAR ESMX 061520Z 25017KT 9999 FEW025 BKN045 18/10 Q1012=
201507061450 METAR ESMX 061450Z 25016G29KT 220V290 9999 FEW025 BKN040 18/10 Q1012=
201507061420 METAR ESMX 061420Z 26016KT 9999 FEW035TCU SCT050 18/11 Q1011=
201507061350 METAR ESMX 061350Z 25013KT 220V290 9999 FEW015 SCT025TCU BKN045 17/11 Q1011=
201507061320 METAR COR ESMX 061320Z 26017KT 230V300 9999 FEW015 SCT023TCU BKN045 18/12 Q1011=
201507061250 METAR COR ESMX 061250Z 24012G24KT 210V280 9999 FEW020 SCT030 BKN045 17/12 Q1011=
201507061220 METAR ESMX 061220Z 23013KT 9999 SCT025 BKN045 17/11 Q1011=
201507061150 METAR ESMX 061150Z 24017G28KT 9999 SCT025 BKN045 19/11 Q1011=
201507061120 METAR ESMX 061120Z 24016G27KT 200V260 9999 BKN038 20/11 Q1010=
201507061050 METAR ESMX 061050Z 25013KT 9999 BKN030 20/12 Q1010=
201507061020 METAR ESMX 061020Z 24013KT 9999 FEW024 SCT039 18/12 Q1010=
201507060950 METAR COR ESMX 060950Z 23013KT 9999 FEW022 SCT035 18/14 Q1010=
201507060920 METAR ESMX 060920Z 24012KT 9999 FEW017 BKN030 19/14 Q1010=
201507060850 METAR ESMX 060850Z 24012KT 9999 FEW016 SCT024 BKN033 18/15 Q1009=
201507060820 METAR ESMX 060820Z 23011KT 200V260 9999 FEW010 BKN022 18/16 Q1009=
201507060750 METAR ESMX 060750Z 22010KT 9999 FEW011 BKN020 17/16 Q1009=
201507060720 METAR ESMX 060720Z 24013KT 210V280 9999 FEW010 SCT028 OVC032 18/16 Q1009=
201507060650 METAR ESMX 060650Z 23010KT 9999 FEW009 SCT018 OVC028 19/17 Q1009=
201507060620 METAR ESMX 060620Z 22008KT 9999 FEW007 BKN013 19/18 Q1009=
201507060550 METAR ESMX 060550Z 20008KT 9000 BR FEW008 BKN010 OVC014 19/18 Q1009=
201507060520 METAR ESMX 060520Z AUTO 18008KT 7000 BR FEW006/// SCT013/// BKN016/// 19/18 Q1009=
201507060450 METAR ESMX 060450Z AUTO 18007KT 8000 BR FEW004/// SCT019/// BKN024/// 18/18 Q1009=
201507060420 METAR ESMX 060420Z AUTO 20006KT 150V220 8000 BR FEW035/// 18/18 Q1009 REDZ=
201507060350 METAR ESMX 060350Z AUTO VRB03KT 9999 FEW077/// 18/17 Q1009=
201507060320 METAR ESMX 060320Z AUTO 10002KT 9999 -DZ FEW100/// 18/17 Q1009=
201507060250 METAR ESMX 060250Z AUTO 07004KT 030V100 9999 -RA NCD 18/17 Q1009=
201507060220 METAR ESMX 060220Z AUTO 15003KT 6000 -RA FEW036/// 18/18 Q1011=
201507060150 METAR ESMX 060150Z AUTO 18003KT 4500 -RA NCD 18/18 Q1011 RESHRA=
201507060120 METAR ESMX 060120Z AUTO VRB03KT 8000 RA NCD 18/17 Q1011=
201507060050 METAR ESMX 060050Z AUTO 13007KT 080V160 9999 -RA FEW071/// 19/17 Q1012=
201507060020 METAR ESMX 060020Z AUTO 00000KT 9999 FEW110/// 19/18 Q1012=
201507052350 METAR ESMX 052350Z VRB02KT 9999 -RA FEW091 20/18 Q1012=
201507052320 METAR ESMX 052320Z 12003KT 070V170 9999 -DZ FEW095 SCT110 22/15 Q1012=
201507052250 METAR COR ESMX 052250Z 11004KT 080V150 9999 -DZ FEW098 SCT110 22/15 Q1013=
201507052220 METAR ESMX 052220Z 16005KT 130V190 CAVOK 23/15 Q1013=
201507052150 METAR ESMX 052150Z 16006KT 120V190 CAVOK 24/16 Q1013=
201507052120 METAR ESMX 052120Z 14006KT 110V170 CAVOK 24/16 Q1013=
201507052050 METAR ESMX 052050Z 13004KT 090V160 CAVOK 24/17 Q1013=
201507052020 METAR ESMX 052020Z 11005KT 060V150 CAVOK 24/17 Q1013=
201507051950 METAR ESMX 051950Z 00000KT CAVOK 22/17 Q1013=
201507051920 METAR ESMX 051920Z 00000KT CAVOK 23/18 Q1013=
201507051850 METAR COR ESMX 051850Z 00000KT CAVOK 25/18 Q1013=
201507051820 METAR ESMX 051820Z 05003KT CAVOK 28/16 Q1013=
201507051750 METAR ESMX 051750Z 04003KT CAVOK 29/16 Q1014=
201507051720 METAR ESMX 051720Z 36003KT CAVOK 29/16 Q1014=
201507051650 METAR ESMX 051650Z 01005KT 340V040 CAVOK 29/15 Q1014=
201507051620 METAR ESMX 051620Z 34004KT 300V030 CAVOK 30/15 Q1015=
201507051550 METAR ESMX 051550Z 02006KT CAVOK 30/13 Q1015=
201507051520 METAR ESMX 051520Z 04007KT CAVOK 30/14 Q1015=
201507051450 METAR ESMX 051450Z 05004KT 020V100 CAVOK 30/14 Q1016=
201507051420 METAR ESMX 051420Z 08004KT 030V120 9999 FEW050 30/13 Q1016=
201507051350 METAR ESMX 051350Z 03004KT 350V070 9999 FEW028 SCT068 30/13 Q1016=
201507051320 METAR ESMX 051320Z AUTO 10002KT 9999 FEW056/// 30/13 Q1016=
201507051250 METAR ESMX 051250Z AUTO 10004KT 070V140 9999 FEW110/// 29/14 Q1017=
201507051220 METAR ESMX 051220Z AUTO 02005KT 330V130 9999 NCD 30/13 Q1017=
201507051150 METAR ESMX 051150Z AUTO VRB03KT 9999 NCD 29/14 Q1017=
201507051120 METAR ESMX 051120Z AUTO VRB04KT 320V140 9999 NCD 29/13 Q1017=
201507051050 METAR ESMX 051050Z AUTO 07005KT 020V110 9999 NCD 28/13 Q1017=
201507051020 METAR ESMX 051020Z AUTO 35003KT 320V080 9999 NCD 28/12 Q1017=
201507050950 METAR ESMX 050950Z AUTO 02005KT 340V060 9999 NCD 27/12 Q1018=
201507050920 METAR ESMX 050920Z AUTO 02006KT 9999 NCD 27/14 Q1018=
201507050850 METAR ESMX 050850Z AUTO 35003KT 280V050 9999 NCD 26/16 Q1018=
201507050820 METAR ESMX 050820Z AUTO 33004KT 290V030 9999 NCD 25/16 Q1018=
201507050750 METAR ESMX 050750Z AUTO 35004KT 330V030 9999 NCD 24/17 Q1018=
201507050720 METAR ESMX 050720Z AUTO 35004KT 280V050 9999 NCD 24/17 Q1018=
201507050650 METAR ESMX 050650Z AUTO VRB03KT 9999 NCD 23/17 Q1018=
201507050620 METAR ESMX 050620Z AUTO 36005KT 9999 NCD 22/17 Q1018=
201507050550 METAR ESMX 050550Z AUTO VRB02KT 9999 NCD 21/17 Q1018=
201507050520 METAR ESMX 050520Z AUTO 35002KT 9999 NCD 19/17 Q1018=
201507050450 METAR ESMX 050450Z AUTO 00000KT 9999 FEW100/// 19/17 Q1018=
201507050420 METAR ESMX 050420Z AUTO VRB02KT 9999 FEW095/// 18/17 Q1018=
201507050350 METAR ESMX 050350Z AUTO 18003KT 9999 FEW096/// 18/17 Q1018=
201507050320 METAR ESMX 050320Z AUTO 00000KT 9999 NCD 16/15 Q1018=
201507050250 METAR ESMX 050250Z AUTO VRB03KT 9999 NCD 16/16 Q1018=
201507050220 METAR ESMX 050220Z AUTO 00000KT 9999 FEW100/// 17/17 Q1018=
201507050150 METAR ESMX 050150Z AUTO 18003KT 9999 -RA FEW100/// 19/17 Q1018=
201507050120 METAR ESMX 050120Z AUTO 23004KT 9999 FEW110/// 18/16 Q1019=
201507050050 METAR ESMX 050050Z AUTO 22004KT 9999 NCD 18/16 Q1018=
201507050020 METAR ESMX 050020Z AUTO 24003KT 9999 NCD 18/16 Q1019=
201507042350 METAR ESMX 042350Z AUTO 24004KT 9999 NCD 17/16 Q1019=
201507042320 METAR ESMX 042320Z AUTO 20002KT 9999 NCD 18/16 Q1018=
201507042250 METAR ESMX 042250Z AUTO 23004KT 9999 NCD 18/17 Q1019=
201507042220 METAR ESMX 042220Z AUTO 23002KT 9999 NCD 20/17 Q1019=
201507042150 METAR ESMX 042150Z AUTO 22004KT 9999 NCD 21/17 Q1019=
201507042120 METAR ESMX 042120Z AUTO 21005KT 9999 NCD 21/17 Q1019=
201507042050 METAR ESMX 042050Z AUTO 21005KT 9999 NCD 22/17 Q1019=
201507042020 METAR ESMX 042020Z AUTO 20006KT 9999 NCD 23/17 Q1019=
201507041950 METAR ESMX 041950Z AUTO 19006KT 9999 NCD 23/17 Q1019=
201507041920 METAR ESMX 041920Z AUTO 19004KT 9999 FEW051/// 24/17 Q1019=
201507041850 METAR ESMX 041850Z AUTO 17004KT 020V190 9999 SCT051/// 26/16 Q1019=
201507041820 METAR ESMX 041820Z AUTO 18006KT 9999 FEW055/// SCT066/// 27/17 Q1019=
201507041750 METAR ESMX 041750Z AUTO 18006KT 9999 FEW065/// 27/16 Q1019=
201507041720 METAR ESMX 041720Z AUTO 17008KT 9999 NCD 28/16 Q1019=
201507041650 METAR ESMX 041650Z AUTO 15006KT 9999 NCD 28/15 Q1019=
201507041620 METAR ESMX 041620Z AUTO 17007KT 140V200 9999 FEW069/// 29/15 Q1019=
201507041550 METAR ESMX 041550Z AUTO 18008KT 9999 FEW069/// 28/16 Q1020=
201507041520 METAR ESMX 041520Z AUTO 20007KT 9999 FEW065/// 29/15 Q1020=
201507041450 METAR ESMX 041450Z AUTO 21006KT 190V250 9999 FEW064/// 30/15 Q1020=
201507041420 METAR ESMX 041420Z AUTO 19008KT 140V220 9999 NCD 29/13 Q1020=
201507041350 METAR ESMX 041350Z AUTO 19008KT 150V210 9999 NCD 29/14 Q1020=
201507041320 METAR ESMX 041320Z AUTO 21007KT 170V230 9999 NCD 29/14 Q1021=
201507041250 METAR ESMX 041250Z AUTO 17005KT 130V230 9999 NCD 29/14 Q1021=
201507041220 METAR ESMX 041220Z AUTO 16004KT 080V230 9999 NCD 29/14 Q1021=
201507041150 METAR ESMX 041150Z AUTO VRB04KT 360V360 9999 NCD 29/14 Q1021=
201507041120 METAR ESMX 041120Z AUTO 22006KT 9999 NCD 28/13 Q1021=
201507041050 METAR ESMX 041050Z AUTO 16006KT 130V200 9999 NCD 28/13 Q1022=
201507041020 METAR ESMX 041020Z AUTO 20006KT 150V250 9999 NCD 27/12 Q1022=
201507040950 METAR ESMX 040950Z AUTO 22006KT 170V260 9999 NCD 27/12 Q1022=
201507040920 METAR ESMX 040920Z AUTO 21007KT 160V260 9999 NCD 26/13 Q1023=
201507040850 METAR ESMX 040850Z AUTO 23004KT 180V290 9999 NCD 26/14 Q1023=
201507040820 METAR ESMX 040820Z AUTO 15004KT 080V220 9999 NCD 25/15 Q1023=
201507040750 METAR ESMX 040750Z AUTO 14003KT 080V210 9999 NCD 24/16 Q1023=
201507040720 METAR ESMX 040720Z AUTO VRB03KT 9999 FEW070/// 24/15 Q1023=
201507040650 METAR ESMX 040650Z AUTO 00000KT 9999 SCT073/// 23/15 Q1023=
201507040620 METAR ESMX 040620Z AUTO VRB01KT 9999 FEW076/// 21/15 Q1023=
201507040550 METAR ESMX 040550Z AUTO 00000KT 9999 BKN076/// 20/14 Q1023=
201507040520 METAR ESMX 040520Z AUTO 00000KT 9999 BKN078/// 19/14 Q1023=
201507040450 METAR ESMX 040450Z AUTO 00000KT 9999 SCT080/// 18/15 Q1023=
201507040420 METAR ESMX 040420Z AUTO 18003KT 9999 FEW081/// 17/15 Q1023=
201507040350 METAR ESMX 040350Z AUTO 00000KT 9999 NCD 14/13 Q1024=
201507040320 METAR ESMX 040320Z AUTO 19002KT 9999 NCD 12/12 Q1024=
201507040250 METAR ESMX 040250Z AUTO 17002KT 9999 NCD 12/12 Q1024=
201507040220 METAR ESMX 040220Z AUTO 00000KT 9999 NCD 12/12 Q1024=
201507040150 METAR ESMX 040150Z AUTO 00000KT 9999 NCD 12/12 Q1024=
201507040120 METAR ESMX 040120Z AUTO 00000KT 9999 NCD 13/12 Q1024=
201507040050 METAR ESMX 040050Z AUTO 00000KT 9999 NCD 13/13 Q1025=
201507040020 METAR ESMX 040020Z AUTO 17003KT 9999 NCD 14/13 Q1025=
201507032350 METAR ESMX 032350Z AUTO 18003KT 9999 NCD 14/12 Q1025=
201507032320 METAR ESMX 032320Z AUTO 17004KT 9999 NCD 17/13 Q1025=
201507032250 METAR ESMX 032250Z AUTO 18004KT 9999 NCD 16/13 Q1025=
201507032220 METAR ESMX 032220Z AUTO 18005KT 9999 NCD 17/12 Q1025=
201507032150 METAR ESMX 032150Z AUTO 18006KT 9999 NCD 18/12 Q1025=
201507032120 METAR ESMX 032120Z AUTO 18006KT 9999 NCD 19/12 Q1025=
201507032050 METAR ESMX 032050Z AUTO 18007KT 9999 NCD 19/12 Q1025=
201507032020 METAR ESMX 032020Z AUTO 18008KT 9999 NCD 20/12 Q1025=
201507031950 METAR ESMX 031950Z AUTO 18007KT 9999 NCD 22/12 Q1025=
201507031920 METAR ESMX 031920Z AUTO 17007KT 9999 NCD 23/13 Q1025=
201507031850 METAR ESMX 031850Z AUTO 16008KT 9999 NCD 24/13 Q1025=
201507031820 METAR ESMX 031820Z AUTO 16009KT 9999 NCD 25/13 Q1025=
201507031750 METAR ESMX 031750Z AUTO 17008KT 9999 NCD 26/13 Q1025=
201507031720 METAR ESMX 031720Z AUTO 15008KT 120V190 9999 NCD 26/12 Q1025=
201507031650 METAR ESMX 031650Z AUTO 16007KT 140V210 9999 NCD 27/12 Q1025=
201507031620 METAR ESMX 031620Z 19008KT 150V210 CAVOK 27/11 Q1025=
201507031550 METAR COR ESMX 031550Z 18008KT CAVOK 27/11 Q1026=
201507031520 METAR ESMX 031520Z 20007KT 160V260 CAVOK 28/11 Q1026=
201507031450 METAR ESMX 031450Z 19007KT 130V230 CAVOK 27/11 Q1026=
201507031420 METAR ESMX 031420Z 19009KT 150V220 CAVOK 28/11 Q1026=
201507031350 METAR ESMX 031350Z 21007KT 160V250 CAVOK 27/10 Q1026=
201507031320 METAR ESMX 031320Z 18010KT 130V220 CAVOK 27/12 Q1027=
201507031250 METAR ESMX 031250Z AUTO 17008KT 130V200 9999 NCD 27/12 Q1027=
201507031220 METAR ESMX 031220Z 16010KT 110V190 CAVOK 26/11 Q1027=
201507031150 METAR ESMX 031150Z 18010KT 140V210 CAVOK 27/12 Q1027=
201507031120 METAR ESMX 031120Z 16010KT CAVOK 26/12 Q1027=
201507031050 METAR ESMX 031050Z 17010KT CAVOK 26/12 Q1027=
201507031020 METAR ESMX 031020Z 17011KT 130V200 CAVOK 26/11 Q1027=
201507030950 METAR ESMX 030950Z 18007KT 120V220 CAVOK 25/12 Q1028=
201507030920 METAR ESMX 030920Z 15008KT 120V200 CAVOK 24/13 Q1028=
201507030850 METAR ESMX 030850Z 16007KT 110V190 CAVOK 23/13 Q1028=
201507030820 METAR ESMX 030820Z 16007KT 110V200 CAVOK 22/12 Q1028=
201507030750 METAR ESMX 030750Z 16006KT 120V190 CAVOK 22/12 Q1028=
201507030720 METAR ESMX 030720Z 16006KT 130V190 CAVOK 21/12 Q1028=
201507030650 METAR ESMX 030650Z 14007KT 110V170 CAVOK 20/13 Q1028=
201507030620 METAR ESMX 030620Z AUTO 14006KT 110V190 9999 NCD 19/13 Q1028=
201507030550 METAR ESMX 030550Z AUTO 15007KT 9999 NCD 18/12 Q1029=
201507030520 METAR ESMX 030520Z AUTO 16008KT 9999 NCD 17/12 Q1029=
201507030450 METAR ESMX 030450Z AUTO 15007KT 120V190 9999 NCD 17/12 Q1029=
201507030420 METAR ESMX 030420Z AUTO 15007KT 9999 NCD 16/11 Q1029=
201507030350 METAR ESMX 030350Z AUTO 15006KT 9999 NCD 15/11 Q1029=
201507030320 METAR ESMX 030320Z AUTO 15004KT 9999 NCD 14/10 Q1029=
201507030250 METAR ESMX 030250Z AUTO 13005KT 9999 NCD 14/10 Q1029=
201507030220 METAR ESMX 030220Z AUTO 14004KT 9999 NCD 11/09 Q1029=
201507030150 METAR ESMX 030150Z AUTO 00000KT 9999 NCD 11/09 Q1029=
201507030120 METAR ESMX 030120Z AUTO VRB03KT 9999 NCD 12/10 Q1029=
201507030050 METAR ESMX 030050Z AUTO 11003KT 070V140 9999 NCD 12/10 Q1029=
201507030020 METAR ESMX 030020Z AUTO 12003KT 9999 NCD 12/10 Q1029=
201507022350 METAR ESMX 022350Z VRB02KT CAVOK 11/10 Q1029=
201507022320 METAR ESMX 022320Z 11002KT CAVOK 12/10 Q1029=
201507022250 METAR COR ESMX 022250Z 14003KT CAVOK 14/10 Q1029=
201507022220 METAR ESMX 022220Z 15003KT CAVOK 15/10 Q1029=
201507022150 METAR ESMX 022150Z 15005KT CAVOK 15/10 Q1029=
201507022120 METAR ESMX 022120Z 17002KT CAVOK 14/10 Q1029=
201507022050 METAR ESMX 022050Z 16003KT CAVOK 15/11 Q1029=
201507022020 METAR ESMX 022020Z 17003KT CAVOK 18/10 Q1029=
201507021950 METAR ESMX 021950Z 17004KT CAVOK 20/09 Q1029=
201507021920 METAR ESMX 021920Z 16007KT CAVOK 21/09 Q1029=
201507021850 METAR ESMX 021850Z AUTO 16006KT 9999 NCD 22/09 Q1029=
201507021820 METAR ESMX 021820Z AUTO 18008KT 9999 NCD 23/09 Q1029=
201507021750 METAR ESMX 021750Z AUTO 18010KT 9999 NCD 23/08 Q1029=
201507021720 METAR ESMX 021720Z AUTO 18010KT 9999 NCD 23/09 Q1029=
201507021650 METAR ESMX 021650Z AUTO 18011KT 9999 NCD 24/08 Q1029=
201507021620 METAR ESMX 021620Z AUTO 17010KT 9999 NCD 25/09 Q1029=
201507021550 METAR COR ESMX 021550Z 18010KT CAVOK 25/09 Q1029=
201507021520 METAR ESMX 021520Z 18009KT 140V210 CAVOK 25/09 Q1029=
201507021450 METAR ESMX 021450Z 17009KT 130V200 CAVOK 25/08 Q1029=
201507021420 METAR ESMX 021420Z 17009KT 140V200 CAVOK 26/10 Q1029=
201507021350 METAR ESMX 021350Z 19008KT 140V220 CAVOK 26/09 Q1029=
201507021320 METAR ESMX 021320Z 17008KT 120V210 CAVOK 25/09 Q1029=
201507021250 METAR ESMX 021250Z 16007KT 120V190 CAVOK 25/08 Q1029=
201507021220 METAR ESMX 021220Z AUTO 17007KT 120V210 9999 NCD 25/09 Q1030=
201507021150 METAR ESMX 021150Z AUTO 14007KT 110V190 9999 NCD 26/09 Q1030=
201507021120 METAR ESMX 021120Z AUTO 19006KT 130V230 9999 NCD 25/10 Q1030=
201507021050 METAR ESMX 021050Z AUTO 16006KT 100V200 9999 NCD 24/11 Q1030=
201507021020 METAR ESMX 021020Z AUTO 16006KT 130V190 9999 NCD 24/11 Q1030=
201507020950 METAR ESMX 020950Z AUTO 15005KT 110V230 9999 NCD 23/11 Q1030=
201507020920 METAR ESMX 020920Z AUTO 15005KT 100V200 9999 NCD 23/09 Q1030=
201507020850 METAR ESMX 020850Z AUTO 14005KT 020V200 9999 NCD 23/09 Q1030=
201507020820 METAR ESMX 020820Z AUTO 16004KT 100V210 9999 NCD 22/10 Q1030=
201507020750 METAR ESMX 020750Z AUTO 14005KT 080V190 9999 NCD 21/09 Q1030=
201507020720 METAR ESMX 020720Z VRB03KT CAVOK 21/10 Q1030=
201507020650 METAR ESMX 020650Z 22004KT 150V250 CAVOK 20/10 Q1030=
201507020620 METAR ESMX 020620Z 20004KT 170V240 CAVOK 19/09 Q1030=
201507020550 METAR ESMX 020550Z 20005KT CAVOK 18/09 Q1030=
201507020520 METAR COR ESMX 020520Z 20006KT CAVOK 18/09 Q1029=
201507020450 METAR ESMX 020450Z 18004KT CAVOK 16/11 Q1029=
201507020420 METAR ESMX 020420Z 17005KT CAVOK 16/11 Q1029=
201507020350 METAR ESMX 020350Z 18003KT CAVOK 13/13 Q1029=
201507020320 METAR ESMX 020320Z 17002KT CAVOK 12/12 Q1029=
201507020250 METAR ESMX 020250Z AUTO 00000KT 4400 BR NCD 11/11 Q1029=
201507020220 METAR ESMX 020220Z AUTO 17002KT 9999 NCD 12/12 Q1029=
201507020150 METAR ESMX 020150Z AUTO 17003KT 2100 NCD 11/11 Q1029=
201507020120 METAR ESMX 020120Z AUTO 17003KT 6000 BR NCD 12/12 Q1029=
201507020050 METAR ESMX 020050Z AUTO 00000KT 0700 R01/P2000N R19/P2000D BR NCD 12/12 Q1029=
201507020020 METAR ESMX 020020Z 17003KT CAVOK 12/12 Q1028=
201507012350 METAR ESMX 012350Z 17002KT CAVOK 13/12 Q1028=
201507012320 METAR ESMX 012320Z 19003KT CAVOK 14/13 Q1028=
201507012250 METAR ESMX 012250Z 19003KT CAVOK 14/13 Q1028=
201507012220 METAR ESMX 012220Z 19005KT CAVOK 15/13 Q1028=
201507012150 METAR ESMX 012150Z 18005KT CAVOK 17/14 Q1027=
201507012120 METAR ESMX 012120Z 18007KT CAVOK 18/14 Q1027=
201507012050 METAR COR ESMX 012050Z 18006KT CAVOK 18/14 Q1027=
201507012020 METAR ESMX 012020Z 17005KT CAVOK 19/14 Q1027=
201507011950 METAR ESMX 011950Z 17006KT CAVOK 20/14 Q1026=
201507011920 METAR ESMX 011920Z 17007KT CAVOK 21/15 Q1026=
201507011850 METAR ESMX 011850Z AUTO 17006KT 9999 NCD 22/15 Q1026=
201507011820 METAR ESMX 011820Z AUTO 18008KT 9999 NCD 23/15 Q1026=
201507011750 METAR ESMX 011750Z AUTO 18008KT 9999 NCD 24/14 Q1025=
201507011720 METAR ESMX 011720Z AUTO 17008KT 9999 NCD 24/14 Q1025=
201507011650 METAR ESMX 011650Z AUTO 21008KT 9999 NCD 24/14 Q1025=
201507011620 METAR ESMX 011620Z AUTO 18006KT 9999 BKN070/// 25/13 Q1025=
201507011550 METAR ESMX 011550Z 21005KT 180V250 CAVOK 24/13 Q1025=
201507011520 METAR ESMX 011520Z 19003KT 170V240 CAVOK 24/13 Q1025=
201507011450 METAR ESMX 011450Z VRB02KT CAVOK 24/12 Q1025=
201507011420 METAR ESMX 011420Z 00000KT CAVOK 25/14 Q1025=
201507011350 METAR ESMX 011350Z 22005KT 180V270 CAVOK 25/12 Q1025=
201507011320 METAR COR ESMX 011320Z 26003KT 150V320 CAVOK 25/12 Q1025=
201507011250 METAR ESMX 011250Z AUTO 31004KT 270V360 9999 NCD 23/11 Q1025=
201507011220 METAR ESMX 011220Z AUTO 08004KT 030V130 9999 NCD 24/10 Q1025=
