##########################################################
# Query made at 04/19/2024 21:49:03 UTC
# Time interval: from 12/01/2015 12:00  to 12/31/2015 12:59  UTC
##########################################################

##########################################################
# ESMX, Vaxjo (Sweden)
# WMO index: 02641. WIGOS ID: 0-20000-0-02648
# Latitude 56-51N. Longitude 014-50E. Altitude 199 m.
##########################################################

201512311250 METAR ESMX 311250Z AUTO 15010KT 9999 NCD 02/M03 Q1022=
201512311220 METAR ESMX 311220Z AUTO 14009KT 110V170 9999 NCD 02/M03 Q1022=
201512311150 METAR ESMX 311150Z AUTO 14010G21KT 100V170 9999 NCD 01/M03 Q1022=
201512311120 METAR ESMX 311120Z AUTO 13011KT 100V160 9999 NCD 01/M03 Q1022=
201512311050 METAR ESMX 311050Z AUTO 14011KT 100V160 9999 NCD 01/M03 Q1022=
201512311020 METAR ESMX 311020Z AUTO 13010KT 100V170 9999 NCD 00/M03 Q1023=
201512310950 METAR ESMX 310950Z AUTO 14009KT 110V170 9999 NCD 00/M03 Q1023=
201512310920 METAR ESMX 310920Z AUTO 13011KT 080V160 9999 NCD M00/M03 Q1023=
201512310850 METAR ESMX 310850Z AUTO 14010KT 090V160 9999 NCD M00/M03 Q1024=
201512310820 METAR ESMX 310820Z AUTO 14010KT 110V170 9999 NCD M01/M03 Q1024=
201512310750 METAR ESMX 310750Z AUTO 14010KT 9999 NCD M01/M03 Q1024=
201512310720 METAR ESMX 310720Z AUTO 13010KT 090V160 9999 NCD M01/M03 Q1024=
201512310650 METAR ESMX 310650Z AUTO 14012KT 9999 NCD M01/M03 Q1024=
201512310620 METAR ESMX 310620Z AUTO 14010G20KT 110V170 9999 FEW010/// M01/M03 Q1024=
201512310550 METAR ESMX 310550Z AUTO 13009KT 100V170 9999 NCD M01/M03 Q1025=
201512310520 METAR ESMX 310520Z AUTO 14009KT 110V170 9999 NCD M01/M03 Q1025=
201512310450 METAR ESMX 310450Z AUTO 14010KT 110V170 9999 NCD M01/M03 Q1025=
201512310420 METAR ESMX 310420Z AUTO 15009KT 9999 NCD M01/M03 Q1026=
201512310350 METAR ESMX 310350Z AUTO 14009KT 080V170 9999 NCD M01/M03 Q1026=
201512310320 METAR ESMX 310320Z AUTO 14009KT 110V170 9999 NCD M01/M03 Q1026=
201512310250 METAR ESMX 310250Z AUTO 15008KT 110V180 9999 NCD M01/M03 Q1026=
201512310220 METAR ESMX 310220Z AUTO 15007KT 120V210 9999 NCD M01/M03 Q1027=
201512310150 METAR ESMX 310150Z AUTO 15007KT 120V190 9999 NCD M01/M03 Q1027=
201512310120 METAR ESMX 310120Z AUTO 14007KT 110V170 9999 NCD M01/M03 Q1027=
201512310050 METAR ESMX 310050Z AUTO 15006KT 120V190 9999 NCD M01/M03 Q1028=
201512310020 METAR ESMX 310020Z AUTO 16007KT 120V190 9999 NCD M01/M03 Q1028=
201512302350 METAR ESMX 302350Z AUTO 15007KT 120V180 9999 NCD M01/M03 Q1028=
201512302320 METAR ESMX 302320Z AUTO 15008KT 120V190 9999 NCD M01/M03 Q1028=
201512302250 METAR ESMX 302250Z AUTO 15007KT 9999 NCD M01/M03 Q1028=
201512302220 METAR ESMX 302220Z AUTO 14008KT 120V180 9999 NCD M01/M04 Q1029=
201512302150 METAR ESMX 302150Z AUTO 16007KT 120V190 9999 NCD M01/M04 Q1029=
201512302120 METAR ESMX 302120Z AUTO 15007KT 9999 NCD M01/M04 Q1029=
201512302050 METAR ESMX 302050Z AUTO 15007KT 130V190 9999 NCD M01/M04 Q1029=
201512302020 METAR ESMX 302020Z AUTO 15007KT 9999 NCD M01/M04 Q1029=
201512301950 METAR ESMX 301950Z 15006KT 110V190 CAVOK M01/M04 Q1030=
201512301920 METAR ESMX 301920Z 16007KT CAVOK M01/M04 Q1030=
201512301850 METAR ESMX 301850Z 15007KT CAVOK M01/M04 Q1031=
201512301820 METAR ESMX 301820Z 15006KT 110V170 CAVOK M00/M04 Q1031=
201512301750 METAR ESMX 301750Z 15008KT CAVOK M00/M04 Q1031=
201512301720 METAR ESMX 301720Z 15008KT CAVOK M00/M04 Q1031=
201512301650 METAR ESMX 301650Z 17009KT CAVOK M00/M04 Q1032=
201512301620 METAR ESMX 301620Z 17008KT CAVOK M00/M04 Q1032=
201512301550 METAR ESMX 301550Z 16009KT CAVOK M00/M04 Q1032=
201512301520 METAR ESMX 301520Z 16007KT CAVOK 00/M04 Q1032=
201512301450 METAR ESMX 301450Z 16008KT CAVOK 00/M04 Q1033=
201512301420 METAR ESMX 301420Z 17009KT CAVOK 01/M04 Q1033=
201512301350 METAR ESMX 301350Z AUTO 16011KT 9999 NCD 01/M04 Q1033=
201512301320 METAR ESMX 301320Z AUTO 15009KT 110V170 9999 NCD 01/M04 Q1033=
201512301250 METAR ESMX 301250Z AUTO 16012KT 110V180 9999 NCD 02/M03 Q1033=
201512301220 METAR ESMX 301220Z 16010KT 9999 SCT019 02/M03 Q1034=
201512301150 METAR COR ESMX 301150Z 16011KT 9999 SCT019 01/M03 Q1034=
201512301120 METAR COR ESMX 301120Z 17011KT 140V200 9999 FEW018 01/M03 Q1034=
201512301050 METAR ESMX 301050Z AUTO 15010KT 9999 NCD 01/M03 Q1034=
201512301020 METAR ESMX 301020Z 16009KT CAVOK 00/M04 Q1034=
201512300950 METAR ESMX 300950Z 15009KT CAVOK M00/M04 Q1034=
201512300920 METAR ESMX 300920Z 14008KT 110V170 CAVOK M01/M05 Q1035=
201512300850 METAR ESMX 300850Z 16007KT 120V190 CAVOK M01/M05 Q1035=
201512300820 METAR COR ESMX 300820Z 15007KT CAVOK M01/M05 Q1035=
201512300750 METAR ESMX 300750Z 13007KT 100V170 CAVOK M01/M06 Q1035=
201512300720 METAR ESMX 300720Z 14007KT 110V170 CAVOK M01/M06 Q1036=
201512300650 METAR ESMX 300650Z 14005KT 110V170 CAVOK M02/M06 Q1036=
201512300620 METAR ESMX 300620Z 14004KT 110V170 CAVOK M01/M06 Q1036=
201512300550 METAR ESMX 300550Z 15004KT 110V170 CAVOK M01/M06 Q1036=
201512300520 METAR ESMX 300520Z 14006KT 090V170 CAVOK M01/M06 Q1036=
201512300450 METAR ESMX 300450Z 15007KT CAVOK M01/M06 Q1036=
201512300420 METAR ESMX 300420Z AUTO 15008KT 110V200 9999 NCD M01/M06 Q1036=
201512300350 METAR ESMX 300350Z AUTO 14008KT 100V180 9999 NCD M00/M06 Q1036=
201512300320 METAR ESMX 300320Z AUTO 14008KT 100V170 9999 NCD M00/M06 Q1036=
201512300250 METAR ESMX 300250Z AUTO 14007KT 090V190 9999 NCD M01/M06 Q1036=
201512300220 METAR ESMX 300220Z AUTO 13006KT 100V170 9999 NCD M01/M06 Q1037=
201512300150 METAR ESMX 300150Z AUTO 14005KT 100V170 9999 NCD M01/M06 Q1037=
201512300120 METAR ESMX 300120Z AUTO 13005KT 070V170 9999 NCD M01/M07 Q1037=
201512300050 METAR ESMX 300050Z 14005KT CAVOK M01/M07 Q1037=
201512300020 METAR ESMX 300020Z 15005KT CAVOK M01/M07 Q1037=
201512292350 METAR ESMX 292350Z 13006KT 080V170 CAVOK M00/M07 Q1037=
201512292320 METAR ESMX 292320Z 15007KT 120V200 CAVOK M00/M07 Q1037=
201512292250 METAR ESMX 292250Z 14007KT 080V200 CAVOK 00/M08 Q1037=
201512292220 METAR ESMX 292220Z 12007KT 080V160 CAVOK M00/M08 Q1037=
201512292150 METAR ESMX 292150Z 14007KT 080V170 CAVOK M00/M08 Q1037=
201512292120 METAR ESMX 292120Z 14007KT 110V170 CAVOK M00/M08 Q1037=
201512292050 METAR ESMX 292050Z 14009KT 100V160 CAVOK M00/M07 Q1037=
201512292020 METAR ESMX 292020Z 15008KT 110V180 CAVOK 00/M06 Q1037=
201512291950 METAR ESMX 291950Z 15008KT 120V180 CAVOK 00/M06 Q1037=
201512291920 METAR ESMX 291920Z 14009KT 100V190 CAVOK 00/M05 Q1037=
201512291850 METAR ESMX 291850Z 13009KT 080V200 CAVOK 00/M05 Q1037=
201512291820 METAR ESMX 291820Z 13008KT 070V190 CAVOK 00/M05 Q1037=
201512291750 METAR ESMX 291750Z 13009KT 090V160 CAVOK 00/M05 Q1037=
201512291720 METAR ESMX 291720Z 12009KT 080V160 CAVOK 00/M05 Q1037=
201512291650 METAR ESMX 291650Z 13008KT 070V170 CAVOK 00/M05 Q1037=
201512291620 METAR ESMX 291620Z 12007KT 080V160 CAVOK 00/M05 Q1037=
201512291550 METAR ESMX 291550Z 12007KT 080V170 CAVOK 00/M05 Q1037=
201512291520 METAR ESMX 291520Z 13007KT 080V190 CAVOK 01/M05 Q1037=
201512291450 METAR ESMX 291450Z 13007KT 060V170 CAVOK 01/M05 Q1037=
201512291420 METAR ESMX 291420Z 13008KT 080V170 CAVOK 01/M05 Q1037=
201512291350 METAR ESMX 291350Z AUTO 13009KT 100V170 9999 NCD 01/M05 Q1037=
201512291320 METAR ESMX 291320Z AUTO 13010KT 080V170 9999 NCD 02/M05 Q1037=
201512291250 METAR ESMX 291250Z AUTO 13010KT 100V170 9999 NCD 02/M05 Q1037=
201512291220 METAR ESMX 291220Z AUTO 13009G19KT 090V170 9999 NCD 02/M05 Q1037=
201512291150 METAR ESMX 291150Z AUTO 14010KT 100V180 9999 NCD 02/M05 Q1037=
201512291120 METAR ESMX 291120Z AUTO 14009G19KT 080V170 9999 NCD 01/M05 Q1037=
201512291050 METAR ESMX 291050Z AUTO 14008KT 060V190 9999 NCD 01/M05 Q1037=
201512291020 METAR ESMX 291020Z AUTO 13007G17KT 080V180 9999 NCD 01/M05 Q1037=
201512290950 METAR ESMX 290950Z AUTO 13008KT 080V170 9999 NCD 00/M05 Q1037=
201512290920 METAR ESMX 290920Z 13005KT 060V180 CAVOK M00/M05 Q1037=
201512290850 METAR ESMX 290850Z 12007KT 080V180 CAVOK M01/M05 Q1037=
201512290820 METAR ESMX 290820Z 12005KT 080V160 CAVOK M01/M05 Q1038=
201512290750 METAR ESMX 290750Z 11006KT 070V170 CAVOK M01/M05 Q1037=
201512290720 METAR ESMX 290720Z 11006KT 060V170 CAVOK M01/M05 Q1037=
201512290650 METAR ESMX 290650Z 12006KT 070V170 CAVOK M01/M05 Q1037=
201512290620 METAR ESMX 290620Z 12006KT 080V200 CAVOK M01/M05 Q1037=
201512290550 METAR ESMX 290550Z 12007KT 070V190 CAVOK M01/M05 Q1037=
201512290520 METAR ESMX 290520Z 11006KT 060V150 CAVOK M01/M05 Q1037=
201512290450 METAR ESMX 290450Z AUTO 11007KT 060V150 9999 NCD M01/M05 Q1037=
201512290420 METAR ESMX 290420Z AUTO 11006KT 060V190 9999 NCD M01/M05 Q1038=
201512290350 METAR ESMX 290350Z AUTO 11006KT 050V190 9999 NCD M01/M05 Q1038=
201512290320 METAR ESMX 290320Z AUTO 11006KT 070V160 9999 NCD M01/M05 Q1038=
201512290250 METAR ESMX 290250Z AUTO 11006KT 050V160 9999 NCD M01/M05 Q1038=
201512290220 METAR ESMX 290220Z AUTO 10006KT 060V160 9999 NCD M01/M05 Q1038=
201512290150 METAR ESMX 290150Z AUTO 10007KT 060V140 9999 NCD M01/M05 Q1038=
201512290120 METAR ESMX 290120Z AUTO 09006KT 030V140 9999 NCD M01/M05 Q1038=
201512290050 METAR ESMX 290050Z 09006KT 050V150 CAVOK M01/M05 Q1038=
201512290020 METAR ESMX 290020Z 09006KT 350V140 CAVOK M01/M05 Q1038=
201512282350 METAR ESMX 282350Z 09006KT 060V150 CAVOK M01/M05 Q1038=
201512282320 METAR ESMX 282320Z 09006KT 040V120 CAVOK M01/M05 Q1038=
201512282250 METAR ESMX 282250Z 09004KT 040V150 CAVOK M01/M05 Q1038=
201512282220 METAR ESMX 282220Z 08005KT 040V110 CAVOK M02/M05 Q1038=
201512282150 METAR ESMX 282150Z 10004KT 010V140 CAVOK M01/M05 Q1038=
201512282121 METAR ESMX 282121Z 10005KT 010V160 CAVOK M01/M05 Q1037=
201512282050 METAR ESMX 282050Z 10005KT 050V150 CAVOK M01/M04 Q1037=
201512282020 METAR ESMX 282020Z 09006KT 050V120 CAVOK M01/M04 Q1037=
201512281950 METAR ESMX 281950Z 09006KT 050V130 CAVOK M01/M03 Q1037=
201512281920 METAR ESMX 281920Z 08005KT 030V120 CAVOK M01/M03 Q1037=
201512281850 METAR ESMX 281850Z 08005KT CAVOK M01/M03 Q1037=
201512281820 METAR ESMX 281820Z 08004KT CAVOK M00/M02 Q1037=
201512281750 METAR ESMX 281750Z 08005KT 030V110 CAVOK M00/M02 Q1037=
201512281720 METAR ESMX 281720Z 09004KT 030V140 CAVOK 00/M02 Q1037=
201512281650 METAR ESMX 281650Z 08004KT 030V110 9999 FEW027 00/M02 Q1037=
201512281620 METAR ESMX 281620Z 08003KT 050V110 9999 FEW023 BKN028 01/M02 Q1037=
201512281550 METAR ESMX 281550Z 07004KT 020V110 9999 OVC025 01/M03 Q1037=
201512281520 METAR ESMX 281520Z 09005KT 050V140 9999 FEW021 OVC025 01/M02 Q1036=
201512281450 METAR ESMX 281450Z 08007KT 050V140 9999 OVC019 01/M02 Q1036=
201512281420 METAR ESMX 281420Z 08006KT 030V120 9999 OVC020 02/M02 Q1035=
201512281350 METAR ESMX 281350Z AUTO 09006KT 040V140 9999 OVC020/// 02/M02 Q1035=
201512281320 METAR ESMX 281320Z 07007KT 030V140 9999 OVC019 02/M02 Q1035=
201512281250 METAR ESMX 281250Z 08007KT 030V120 9999 OVC019 02/M02 Q1034=
201512281220 METAR ESMX 281220Z 08007KT 030V110 9999 FEW019 BKN022 02/M02 Q1034=
201512281150 METAR ESMX 281150Z AUTO 08008KT 040V120 9999 -SN FEW017/// OVC022/// 02/M01 Q1033 REUP=
201512281120 METAR ESMX 281120Z AUTO 08007KT 030V100 9999 FEW017/// OVC020/// 02/M01 Q1033=
201512281050 METAR ESMX 281050Z AUTO 07008KT 030V110 9999 FEW017/// BKN021/// 02/M01 Q1033 RESHUP=
201512281020 METAR ESMX 281020Z 05007KT 010V080 9999 SCT014 BKN019 02/M01 Q1032=
201512280950 METAR ESMX 280950Z 05008KT 010V090 9999 FEW016 BKN019 02/M01 Q1032=
201512280920 METAR ESMX 280920Z 05010KT 9999 FEW013 BKN016 01/M01 Q1031=
201512280850 METAR ESMX 280850Z 03009KT 9999 FEW011 SCT014 BKN017 02/M01 Q1031=
201512280820 METAR ESMX 280820Z 05008KT 030V090 9999 BKN009 OVC016 01/M00 Q1030=
201512280750 METAR ESMX 280750Z 04010KT 010V080 9999 FEW009 BKN012 01/M00 Q1029=
201512280720 METAR ESMX 280720Z 04010KT 9999 FEW007 OVC009 01/00 Q1028=
201512280650 METAR ESMX 280650Z 02009KT 350V060 9999 OVC006 01/00 Q1027=
201512280620 METAR ESMX 280620Z 35009KT 9999 BKN006 OVC010 01/00 Q1027=
201512280550 METAR ESMX 280550Z 36010KT 9999 OVC006 01/00 Q1026 RESN=
201512280520 METAR ESMX 280520Z 34010KT 9999 -SN OVC007 01/M00 Q1026=
201512280450 METAR ESMX 280450Z AUTO 33009KT 9999 SG OVC009/// 01/M00 Q1025 RESHUP=
201512280420 METAR ESMX 280420Z AUTO 31008KT 9999 OVC010/// 01/M00 Q1025 RESG REUP=
201512280350 METAR ESMX 280350Z AUTO 31008KT 9999 OVC011/// 01/M01 Q1024=
201512280320 METAR ESMX 280320Z AUTO 31010KT 9999 OVC010/// 01/M01 Q1023=
201512280250 METAR ESMX 280250Z AUTO 30009KT 9999 OVC011/// 01/M00 Q1022=
201512280220 METAR ESMX 280220Z AUTO 30007KT 9999 BKN013/// 01/M00 Q1022=
201512280150 METAR ESMX 280150Z AUTO 30010KT 280V340 9999 FEW015/// SCT017/// BKN022/// 01/M00 Q1021=
201512280120 METAR ESMX 280120Z 30010KT 260V330 9999 FEW012 OVC018 02/01 Q1020=
201512280050 METAR ESMX 280050Z 29008KT 260V320 9999 FEW010 SCT013 BKN016 03/02 Q1019=
201512280020 METAR ESMX 280020Z 29010KT 240V320 9999 FEW009 SCT012 OVC015 03/02 Q1019=
201512272350 METAR ESMX 272350Z 27007KT 9999 FEW009 SCT012 BKN015 04/03 Q1018=
201512272320 METAR ESMX 272320Z 27009KT 9999 FEW012 BKN022 04/03 Q1017=
201512272250 METAR ESMX 272250Z 26009KT 9999 FEW008 BKN010 OVC024 04/03 Q1017=
201512272220 METAR ESMX 272220Z 26008KT 9999 SCT010 BKN015 OVC019 04/03 Q1016=
201512272150 METAR ESMX 272150Z 26008KT 9999 BKN008 OVC012 04/03 Q1016=
201512272120 METAR ESMX 272120Z 25010KT 9999 FEW008 BKN011 OVC014 04/03 Q1015=
201512272050 METAR COR ESMX 272050Z 25008KT 9999 -RA FEW008 BKN015 04/04 Q1015=
201512272020 METAR ESMX 272020Z 24008KT 9999 -DZ FEW012 BKN015 04/03 Q1015=
201512271950 METAR ESMX 271950Z 23007KT 9999 FEW012 SCT015 BKN019 04/03 Q1015=
201512271920 METAR ESMX 271920Z 19006KT 9999 FEW013 BKN015 BKN036 03/03 Q1014=
201512271850 METAR ESMX 271850Z 21007KT 9999 FEW017 SCT024 OVC037 03/03 Q1014=
201512271820 METAR ESMX 271820Z 21006KT 8000 BKN019 03/02 Q1014=
201512271750 METAR ESMX 271750Z 19006KT 5000 FEW001 SCT022 OVC041 02/02 Q1014=
201512271720 METAR ESMX 271720Z 21006KT 0750 R01/P2000N R19/1700U VV001 02/02 Q1014=
201512271650 METAR ESMX 271650Z 20005KT 0700 R01/P2000D R19/P2000N FG BKN001 OVC014 02/01 Q1013=
201512271620 METAR ESMX 271620Z 20004KT 6000 BR FEW002 SCT005 BKN009 01/01 Q1013=
201512271550 METAR ESMX 271550Z 19002KT 9999 FEW004 BKN007 01/01 Q1013=
201512271520 METAR ESMX 271520Z 00000KT 7000 -RA OVC006 01/01 Q1012=
201512271450 METAR ESMX 271450Z VRB02KT 9999 FEW003 BKN009 01/01 Q1012=
201512271420 METAR ESMX 271420Z VRB03KT 9999 FEW002 SCT005 BKN008 01/01 Q1013=
201512271350 METAR ESMX 271350Z VRB02KT 4900 DZ SCT003 BKN006 01/01 Q1012=
201512271320 METAR ESMX 271320Z VRB01KT 3700 -RA OVC004 01/01 Q1012=
201512271250 METAR ESMX 271250Z 12007KT 080V160 5000 -RA OVC005 01/01 Q1012=
201512271220 METAR ESMX 271220Z 12007KT 080V150 6000 -RA OVC004 01/01 Q1012=
201512271150 METAR ESMX 271150Z 12008KT 080V160 9999 -RA OVC005 01/00 Q1013=
201512271120 METAR ESMX 271120Z AUTO 12007KT 070V160 9999 DZ OVC006/// 01/00 Q1013=
201512271050 METAR ESMX 271050Z AUTO VRB06KT 9999 -RA BKN007/// OVC010/// 01/00 Q1014 REUP=
201512271020 METAR ESMX 271020Z AUTO 11006KT 050V170 5000 -PL FEW006/// OVC008/// 00/M00 Q1015=
201512270950 METAR ESMX 270950Z AUTO 10009KT 040V160 2000 -SN FEW006/// SCT007/// BKN008/// M00/M01 Q1016=
201512270920 METAR ESMX 270920Z 11007KT 070V160 1500 -SN SCT005 BKN009 M01/M01 Q1016=
201512270850 METAR ESMX 270850Z 11007KT 070V150 1000 R01/1400U R19/1400U -SN FEW002 OVC005 M01/M01 Q1016=
201512270820 METAR ESMX 270820Z 11007KT 070V160 0900 R01/1500D R19/1500D -SN FEW003 OVC005 M01/M02 Q1017=
201512270750 METAR ESMX 270750Z 10008KT 050V160 1000 R01/1900D R19/P2000D -SN OVC005 M01/M02 Q1017=
201512270720 METAR ESMX 270720Z 11007KT 070V170 1100 R01/P2000N R19/P2000N SN SCT005 BKN007 M01/M02 Q1018=
201512270650 METAR ESMX 270650Z 10008KT 070V150 2100 -SN FEW006 BKN008 M01/M02 Q1018=
201512270620 METAR COR ESMX 270620Z 10008KT 060V150 1900 SN FEW005 BKN007 M01/M02 Q1018=
201512270550 METAR ESMX 270550Z AUTO 10008KT 050V150 2400 -SN FEW006/// SCT008/// BKN010/// M01/M02 Q1019=
201512270520 METAR ESMX 270520Z AUTO 10007KT 060V160 2300 -PL FEW005/// SCT008/// M02/M03 Q1020=
201512270450 METAR ESMX 270450Z AUTO 10007KT 040V140 2500 -SN FEW005/// M02/M03 Q1020=
201512270420 METAR ESMX 270420Z AUTO 09006KT 030V120 2200 -SN FEW007/// M02/M03 Q1021=
201512270350 METAR ESMX 270350Z AUTO 11006KT 060V160 3600 -SN FEW005/// SCT007/// M02/M03 Q1021=
201512270320 METAR ESMX 270320Z AUTO 11006KT 060V170 2100 -SN SCT005/// BKN009/// M02/M04 Q1021=
201512270250 METAR ESMX 270250Z AUTO 11008KT 070V160 2500 -SN FEW010/// SCT014/// BKN026/// M01/M06 Q1022 REFZUP=
201512270220 METAR ESMX 270220Z AUTO 12004KT 080V160 9999 FEW029/// SCT035/// M01/M08 Q1022=
201512270150 METAR ESMX 270150Z AUTO 11003KT 060V170 9999 NCD M01/M09 Q1022=
201512270120 METAR ESMX 270120Z AUTO 09005KT 050V140 9999 NCD M01/M10 Q1021=
201512270050 METAR ESMX 270050Z AUTO 09006KT 050V150 9999 NCD M01/M09 Q1021=
201512270020 METAR ESMX 270020Z AUTO 09004KT 040V160 9999 NCD M01/M09 Q1022=
201512262350 METAR ESMX 262350Z AUTO 09005KT 040V140 9999 NCD M00/M09 Q1022=
201512262320 METAR ESMX 262320Z AUTO 07006KT 030V120 9999 NCD M00/M09 Q1022=
201512262250 METAR ESMX 262250Z AUTO 07006KT 030V110 9999 NCD M00/M10 Q1022=
201512262220 METAR ESMX 262220Z AUTO 07006KT 030V140 9999 NCD M00/M10 Q1021=
201512262150 METAR ESMX 262150Z AUTO 06007KT 030V100 9999 NCD M00/M09 Q1021=
201512262120 METAR ESMX 262120Z AUTO 06008KT 030V100 9999 SCT100/// M00/M09 Q1021=
201512262050 METAR ESMX 262050Z AUTO 05008KT 020V110 9999 FEW110/// M00/M09 Q1021=
201512262020 METAR ESMX 262020Z 05008KT 020V080 CAVOK 00/M08 Q1021=
201512261950 METAR ESMX 261950Z 05008KT 030V110 CAVOK 00/M08 Q1020=
201512261920 METAR ESMX 261920Z 05009KT CAVOK 00/M07 Q1020=
201512261850 METAR ESMX 261850Z AUTO 04008KT 020V080 9999 NCD 00/M06 Q1019=
201512261820 METAR ESMX 261820Z AUTO 04007KT 9999 NCD 01/M05 Q1019=
201512261750 METAR ESMX 261750Z AUTO 04008KT 9999 NCD 01/M05 Q1019=
201512261720 METAR ESMX 261720Z AUTO 04007KT 9999 NCD 01/M05 Q1018=
201512261650 METAR ESMX 261650Z AUTO 04007KT 9999 NCD 01/M03 Q1017=
201512261620 METAR ESMX 261620Z AUTO 04009KT 9999 NCD 02/M03 Q1017=
201512261550 METAR ESMX 261550Z AUTO 02010KT 360V060 9999 NCD 02/M00 Q1016=
201512261520 METAR ESMX 261520Z 02007KT CAVOK 03/01 Q1016=
201512261450 METAR ESMX 261450Z 01007KT CAVOK 03/01 Q1015=
201512261420 METAR ESMX 261420Z 01007KT 9999 NSC 04/01 Q1015=
201512261350 METAR ESMX 261350Z 01006KT 9999 FEW011 SCT016 BKN049 04/02 Q1015=
201512261320 METAR ESMX 261320Z AUTO 35006KT 9999 FEW011/// SCT020/// OVC028/// 04/03 Q1014=
201512261250 METAR ESMX 261250Z AUTO 34004KT 9999 FEW009/// SCT018/// BKN020/// 04/03 Q1014=
201512261220 METAR ESMX 261220Z AUTO 33007KT 9999 -DZ FEW008/// SCT009/// BKN011/// 04/03 Q1014 REUP=
201512261150 METAR ESMX 261150Z AUTO 31006KT 9999 OVC008/// 05/03 Q1013=
201512261120 METAR ESMX 261120Z AUTO 29005KT 250V320 9999 OVC008/// 05/03 Q1013=
201512261050 METAR ESMX 261050Z AUTO 29006KT 9999 OVC008/// 05/03 Q1013=
201512261020 METAR ESMX 261020Z AUTO 29006KT 9999 OVC007/// 05/03 Q1013=
201512260950 METAR ESMX 260950Z AUTO 28005KT 9999 OVC007/// 04/03 Q1013=
201512260920 METAR ESMX 260920Z AUTO 26004KT 9999 OVC006/// 04/03 Q1012=
201512260850 METAR ESMX 260850Z AUTO 27004KT 9999 FEW007/// OVC008/// 04/03 Q1012=
201512260820 METAR ESMX 260820Z AUTO 26004KT 9999 FEW006/// SCT009/// BKN012/// 04/03 Q1012=
201512260750 METAR ESMX 260750Z AUTO 26007KT 230V300 9999 SCT006/// BKN009/// OVC011/// 04/03 Q1012=
201512260720 METAR ESMX 260720Z AUTO 26005KT 230V300 9999 SCT007/// BKN009/// OVC011/// 04/03 Q1011=
201512260650 METAR ESMX 260650Z AUTO 23005KT 9999 BKN007/// OVC011/// 04/03 Q1011=
201512260620 METAR ESMX 260620Z AUTO 26006KT 9999 OVC009/// 04/03 Q1012=
201512260550 METAR ESMX 260550Z AUTO 24007KT 9999 -DZ FEW008/// OVC009/// 04/03 Q1011 RESHUP REDZ=
201512260520 METAR ESMX 260520Z AUTO 22007KT 9999 FEW008/// OVC010/// 05/03 Q1011=
201512260450 METAR ESMX 260450Z AUTO 24007KT 9999 -DZ FEW007/// BKN010/// BKN015/// 05/04 Q1011 REUP RESHUP=
201512260420 METAR ESMX 260420Z AUTO 24007KT 9999 FEW008/// SCT010/// 05/04 Q1012=
201512260350 METAR ESMX 260350Z AUTO 22007KT 9999 FEW015/// 05/04 Q1012=
201512260320 METAR ESMX 260320Z AUTO 23006KT 9999 FEW024/// 05/04 Q1012=
201512260250 METAR ESMX 260250Z AUTO 21007KT 9999 FEW011/// BKN019/// 05/04 Q1012=
201512260220 METAR ESMX 260220Z AUTO 23005KT 9999 FEW011/// SCT015/// BKN019/// 05/04 Q1012 REDZ=
201512260150 METAR ESMX 260150Z AUTO 24007KT 9999 FEW013/// SCT016/// BKN018/// 05/04 Q1013 REDZ REUP=
201512260120 METAR ESMX 260120Z AUTO 22009KT 9999 BKN014/// BKN025/// 06/03 Q1013=
201512260050 METAR ESMX 260050Z AUTO 23011KT 9999 FEW015/// SCT017/// BKN020/// 06/03 Q1013=
201512260020 METAR ESMX 260020Z AUTO 24009KT 210V270 9999 FEW015/// OVC033/// 06/03 Q1013=
201512252350 METAR ESMX 252350Z AUTO 24010KT 9999 FEW014/// BKN016/// OVC033/// 06/03 Q1013=
201512252320 METAR ESMX 252320Z AUTO 23011KT 9999 OVC014/// 06/03 Q1013=
201512252250 METAR ESMX 252250Z AUTO 24011KT 9999 SCT013/// BKN018/// OVC021/// 06/03 Q1014 RESHUP REDZ=
201512252220 METAR ESMX 252220Z AUTO 25012KT 9999 FEW014/// SCT017/// BKN019/// 06/03 Q1014 RESHUP=
201512252150 METAR ESMX 252150Z AUTO 24013KT 9999 BKN016/// OVC037/// 06/03 Q1014 REUP=
201512252120 METAR ESMX 252120Z AUTO 25013KT 9999 BKN017/// OVC032/// 06/03 Q1014=
201512252050 METAR ESMX 252050Z AUTO 25014KT 9999 BKN019/// OVC031/// 06/03 Q1013=
201512252020 METAR ESMX 252020Z AUTO 25013G24KT 9999 BKN020/// OVC029/// 06/03 Q1013=
201512251950 METAR ESMX 251950Z AUTO 26014KT 9999 OVC021/// 06/02 Q1013=
201512251920 METAR ESMX 251920Z AUTO 25014G25KT 9999 FEW023/// SCT028/// OVC032/// 06/02 Q1013=
201512251850 METAR ESMX 251850Z AUTO 24011KT 200V280 9999 FEW023/// SCT026/// BKN035/// 06/03 Q1013 REDZ=
201512251820 METAR ESMX 251820Z AUTO 25011KT 230V290 9999 DZ FEW011/// SCT019/// BKN023/// 05/03 Q1013=
201512251750 METAR ESMX 251750Z AUTO 25013G25KT 9000 DZ FEW011/// SCT022/// BKN026/// 05/03 Q1013=
201512251720 METAR ESMX 251720Z AUTO 24016G28KT 9999 -RA FEW014/// OVC027/// 06/02 Q1012 RERA=
201512251650 METAR ESMX 251650Z AUTO 24017G30KT 9999 BKN024/// 06/02 Q1012=
201512251620 METAR ESMX 251620Z AUTO 22015G27KT 190V250 9999 DZ FEW022/// BKN029/// BKN038/// 06/02 Q1012 REDZ=
201512251550 METAR ESMX 251550Z AUTO 23015G25KT 200V260 9999 FEW030/// SCT035/// BKN044/// 06/02 Q1012 RESHUP REDZ=
201512251520 METAR ESMX 251520Z AUTO 22016KT 9999 -DZ FEW030/// BKN049/// 06/02 Q1012 REUP=
201512251450 METAR ESMX 251450Z AUTO 23014KT 9999 FEW034/// SCT054/// 05/01 Q1012=
201512251420 METAR ESMX 251420Z AUTO 23014KT 9999 FEW043/// BKN055/// 06/02 Q1012=
201512251350 METAR ESMX 251350Z AUTO 22014G27KT 9999 FEW033/// BKN054/// 06/01 Q1012=
201512251320 METAR ESMX 251320Z AUTO 24015G27KT 9999 FEW028/// SCT038/// BKN050/// 06/02 Q1012=
201512251250 METAR ESMX 251250Z AUTO 22016G30KT 9999 FEW031/// SCT051/// 06/01 Q1012=
201512251220 METAR ESMX 251220Z AUTO 24014KT 9999 FEW030/// SCT058/// 06/01 Q1011=
201512251150 METAR ESMX 251150Z AUTO 23015KT 9999 FEW026/// SCT032/// 06/02 Q1012=
201512251120 METAR ESMX 251120Z AUTO 24012KT 9999 FEW029/// SCT061/// 05/03 Q1012=
201512251050 METAR ESMX 251050Z AUTO 23016G28KT 8000 -RA FEW018/// SCT037/// 05/03 Q1012 RESHUP=
201512251020 METAR ESMX 251020Z AUTO 24016G28KT 210V280 9999 UP FEW019/// SCT025/// BKN030/// 06/02 Q1011 REDZ=
201512250950 METAR ESMX 250950Z AUTO 24015KT 9999 FEW009/// SCT022/// BKN030/// 06/02 Q1011 RESHUP RERA=
201512250920 METAR ESMX 250920Z AUTO 22014KT 9999 FEW010/// BKN052/// 05/02 Q1011=
201512250850 METAR ESMX 250850Z AUTO 23014G24KT 9999 FEW015/// BKN046/// 05/02 Q1011=
201512250820 METAR ESMX 250820Z AUTO 23017G29KT 9999 -DZ FEW016/// SCT022/// BKN029/// 05/02 Q1011=
201512250750 METAR ESMX 250750Z AUTO 23017KT 9999 FEW017/// BKN022/// BKN027/// 06/02 Q1010=
201512250720 METAR ESMX 250720Z AUTO 22014G26KT 200V260 9999 DZ FEW019/// SCT030/// BKN035/// 06/02 Q1009 RESHUP REUP=
201512250650 METAR ESMX 250650Z AUTO 23014KT 9999 FEW026/// SCT032/// BKN061/// 05/02 Q1009 RESHUP=
201512250620 METAR ESMX 250620Z AUTO 24014G30KT 9999 FEW027/// SCT036/// BKN054/// 05/01 Q1009 REUP=
201512250550 METAR ESMX 250550Z AUTO 23015G26KT 9999 FEW024/// SCT032/// BKN038/// 05/02 Q1009=
201512250520 METAR ESMX 250520Z AUTO 22016G28KT 9999 FEW020/// SCT026/// BKN038/// 06/02 Q1009=
201512250450 METAR ESMX 250450Z AUTO 22015KT 190V250 9999 FEW021/// SCT047/// 06/03 Q1009=
201512250420 METAR ESMX 250420Z AUTO 22012KT 190V250 9999 FEW019/// SCT021/// BKN025/// 06/03 Q1009=
201512250350 METAR ESMX 250350Z AUTO 23013KT 200V260 9999 FEW015/// BKN018/// BKN029/// 06/04 Q1009=
201512250320 METAR ESMX 250320Z AUTO 22013G24KT 9999 FEW016/// SCT020/// BKN025/// 06/04 Q1008=
201512250250 METAR ESMX 250250Z AUTO 22013KT 9999 FEW021/// SCT026/// BKN046/// 06/04 Q1008 REUP=
201512250220 METAR ESMX 250220Z AUTO 23011KT 9999 FEW021/// SCT049/// BKN091/// 07/05 Q1008=
201512250150 METAR ESMX 250150Z AUTO 24012KT 9999 FEW025/// SCT079/// BKN094/// 07/05 Q1008=
201512250120 METAR ESMX 250120Z AUTO 24015KT 9999 FEW019/// 08/05 Q1007=
201512250050 METAR ESMX 250050Z AUTO 24012KT 9999 FEW008/// SCT016/// BKN041/// 08/06 Q1007 RESHUP RERA=
201512250020 METAR ESMX 250020Z AUTO 20016KT 9999 FEW007/// SCT012/// BKN016/// 09/07 Q1007=
201512242350 METAR ESMX 242350Z AUTO 20017KT 5000 -RA FEW006/// SCT008/// BKN009/// 08/08 Q1007 REDZ=
201512242320 METAR ESMX 242320Z AUTO 19015KT 9999 -RA FEW007/// BKN011/// BKN018/// 08/07 Q1007=
201512242250 METAR ESMX 242250Z AUTO 19015KT 9000 -RA FEW008/// BKN010/// 08/07 Q1008 REDZ REUP=
201512242220 METAR ESMX 242220Z AUTO 19015KT 9999 FEW007/// BKN008/// OVC010/// 08/07 Q1008=
201512242150 METAR ESMX 242150Z AUTO 19015KT 9999 OVC005/// 08/07 Q1008=
201512242120 METAR ESMX 242120Z AUTO 18014KT 9999 OVC004/// 07/06 Q1009=
201512242050 METAR ESMX 242050Z AUTO 18015KT 9999 OVC004/// 07/06 Q1009=
201512242020 METAR ESMX 242020Z AUTO 18014KT 9999 FEW004/// OVC006/// 07/06 Q1010=
201512241950 METAR ESMX 241950Z AUTO 17011KT 5000 -RA FEW004/// OVC005/// 06/06 Q1010=
201512241920 METAR ESMX 241920Z AUTO 17011KT 9999 -DZ OVC006/// 06/05 Q1011 REDZ REUP=
201512241850 METAR ESMX 241850Z AUTO 17012KT 9999 OVC006/// 06/05 Q1011=
201512241820 METAR ESMX 241820Z AUTO 17012KT 9999 OVC007/// 06/05 Q1012=
201512241750 METAR ESMX 241750Z AUTO 17013KT 9999 BKN007/// OVC010/// 06/04 Q1012=
201512241720 METAR ESMX 241720Z AUTO 17014KT 9999 BKN007/// OVC010/// 06/04 Q1013=
201512241650 METAR ESMX 241650Z AUTO 17010KT 130V190 9999 BKN006/// BKN009/// 06/05 Q1013=
201512241620 METAR ESMX 241620Z AUTO 16010KT 9999 FEW007/// BKN008/// BKN010/// 06/05 Q1013=
201512241550 METAR ESMX 241550Z AUTO 16009KT 9999 FEW009/// BKN010/// 06/05 Q1014=
201512241520 METAR ESMX 241520Z AUTO 16009KT 9999 OVC010/// 06/05 Q1014=
201512241450 METAR ESMX 241450Z AUTO 17011KT 9999 OVC011/// 07/05 Q1015=
201512241420 METAR ESMX 241420Z AUTO 18010KT 9999 BKN010/// OVC015/// 07/05 Q1015=
201512241350 METAR ESMX 241350Z AUTO 17010KT 9999 FEW008/// OVC010/// 07/05 Q1016=
201512241320 METAR ESMX 241320Z AUTO 17012KT 9999 BKN006/// OVC009/// 07/05 Q1016=
201512241250 METAR ESMX 241250Z AUTO 17012KT 9999 OVC006/// 06/05 Q1017=
201512241220 METAR ESMX 241220Z AUTO 17010KT 9999 OVC006/// 06/05 Q1017=
201512241150 METAR ESMX 241150Z AUTO 18011KT 9999 OVC006/// 06/05 Q1018=
201512241120 METAR ESMX 241120Z AUTO 19012KT 9999 OVC006/// 06/05 Q1018=
201512241050 METAR ESMX 241050Z AUTO 18012KT 9999 BKN007/// OVC009/// 06/05 Q1018=
201512241020 METAR ESMX 241020Z AUTO 18011KT 9999 OVC006/// 06/05 Q1018=
201512240950 METAR ESMX 240950Z AUTO 18010KT 9999 OVC007/// 06/04 Q1019=
201512240920 METAR ESMX 240920Z AUTO 18011KT 9999 OVC008/// 05/04 Q1019=
201512240850 METAR ESMX 240850Z AUTO 20009KT 9999 FEW007/// SCT008/// OVC010/// 05/04 Q1019=
201512240820 METAR ESMX 240820Z AUTO 19011KT 9999 OVC006/// 05/04 Q1019=
201512240750 METAR ESMX 240750Z AUTO 20010KT 9999 OVC006/// 05/04 Q1019=
201512240720 METAR ESMX 240720Z AUTO 21011KT 9999 OVC006/// 05/04 Q1019=
201512240650 METAR ESMX 240650Z AUTO 22012KT 9999 FEW006/// BKN008/// OVC010/// 05/04 Q1019=
201512240620 METAR ESMX 240620Z AUTO 22012KT 9999 FEW009/// OVC013/// 05/03 Q1019=
201512240550 METAR ESMX 240550Z AUTO 22010KT 9999 FEW013/// 04/03 Q1019=
201512240520 METAR ESMX 240520Z AUTO 21008KT 9999 FEW010/// 04/03 Q1019=
201512240450 METAR ESMX 240450Z AUTO 22007KT 9999 FEW008/// BKN010/// 04/03 Q1019=
201512240420 METAR ESMX 240420Z AUTO 22008KT 9999 FEW010/// SCT013/// 04/03 Q1019=
201512240350 METAR ESMX 240350Z AUTO 22006KT 9999 FEW013/// SCT016/// 04/03 Q1019=
201512240320 METAR ESMX 240320Z AUTO 22009KT 9999 FEW018/// 05/03 Q1019=
201512240250 METAR ESMX 240250Z AUTO 24008KT 210V280 9999 FEW015/// BKN018/// 05/03 Q1019=
201512240220 METAR ESMX 240220Z AUTO 23007KT 9999 SCT013/// 04/03 Q1018=
201512240150 METAR ESMX 240150Z AUTO 24008KT 9999 FEW013/// 05/03 Q1018=
201512240120 METAR ESMX 240120Z AUTO 25010KT 9999 SCT014/// BKN020/// 05/03 Q1018=
201512240050 METAR ESMX 240050Z AUTO 26011G24KT 210V280 9999 FEW018/// SCT020/// BKN027/// 06/03 Q1018=
201512240020 METAR ESMX 240020Z AUTO 25010KT 9999 FEW026/// BKN032/// 05/03 Q1017=
201512232350 METAR ESMX 232350Z AUTO 24011KT 9999 FEW022/// SCT028/// 05/03 Q1017=
201512232320 METAR ESMX 232320Z AUTO 25010KT 9999 FEW021/// 05/03 Q1016=
201512232250 METAR ESMX 232250Z AUTO 25010KT 9999 NCD 05/03 Q1016=
201512232220 METAR ESMX 232220Z AUTO 25011KT 9999 SCT020/// BKN029/// 05/03 Q1015=
201512232150 METAR ESMX 232150Z AUTO 25013KT 9999 FEW022/// SCT026/// BKN037/// 05/03 Q1015=
201512232120 METAR ESMX 232120Z AUTO 24012KT 9999 FEW023/// BKN028/// 05/03 Q1014=
201512232050 METAR ESMX 232050Z AUTO 26015G25KT 9999 FEW025/// SCT036/// 05/03 Q1013=
201512232020 METAR ESMX 232020Z AUTO 24013G23KT 9999 FEW027/// SCT031/// BKN038/// 06/03 Q1013=
201512231950 METAR ESMX 231950Z 25011KT 9999 FEW014 SCT032 BKN050 05/03 Q1012=
201512231920 METAR ESMX 231920Z 25015G28KT 210V290 9999 RA FEW009 SCT024 04/03 Q1012=
201512231850 METAR ESMX 231850Z 25015KT 9999 FEW021 SCT027 BKN035 06/03 Q1011=
201512231820 METAR ESMX 231820Z 25012KT 9999 FEW024 SCT031 BKN050 06/04 Q1010=
201512231750 METAR ESMX 231750Z 25016G27KT 9999 FEW021 SCT029 BKN033 06/04 Q1010=
201512231720 METAR ESMX 231720Z 25014KT 9999 FEW023 SCT034 BKN043 06/04 Q1009=
201512231650 METAR ESMX 231650Z 25014G25KT 9999 FEW027 BKN041 07/04 Q1009=
201512231620 METAR ESMX 231620Z 23017G28KT 9999 FEW015 SCT032 BKN038 07/05 Q1008=
201512231550 METAR ESMX 231550Z 25016G30KT 6000 RA FEW013 SCT020 BKN032 07/05 Q1007=
201512231520 METAR ESMX 231520Z 23012KT 7000 RA FEW013 SCT022 07/05 Q1007=
201512231450 METAR ESMX 231450Z 23014G32KT 7000 RA FEW014 SCT020 BKN024 07/06 Q1007=
201512231420 METAR ESMX 231420Z 22011KT 190V250 9999 -RA FEW016 SCT024 BKN029 07/06 Q1007 RERA REDZ=
201512231350 METAR ESMX 231350Z 23011KT 200V260 9999 -RA FEW018 SCT031 BKN039 08/05 Q1007=
201512231320 METAR ESMX 231320Z 24012KT 9999 FEW016 SCT020 BKN024 08/06 Q1006=
201512231250 METAR ESMX 231250Z 23013G24KT 9999 -RA FEW015 SCT019 BKN023 08/06 Q1006=
201512231220 METAR ESMX 231220Z 24012KT 9999 DZ FEW016 SCT020 BKN024 08/06 Q1006=
201512231150 METAR ESMX 231150Z 23012KT 200V260 9999 FEW017 SCT021 BKN028 08/06 Q1006=
201512231120 METAR ESMX 231120Z 24011KT 9999 FEW015 BKN021 08/06 Q1005=
201512231050 METAR ESMX 231050Z 24013KT 9999 FEW015 SCT018 BKN020 08/06 Q1005=
201512231020 METAR ESMX 231020Z 24012KT 9999 FEW013 BKN018 BKN036 08/06 Q1005=
201512230950 METAR ESMX 230950Z 23011G22KT 180V260 9999 FEW015 BKN017 OVC036 08/06 Q1004=
201512230920 METAR ESMX 230920Z 23013KT 9999 FEW012 SCT019 BKN032 08/07 Q1004=
201512230850 METAR ESMX 230850Z 23011KT 9999 FEW012 BKN015 08/07 Q1004=
201512230820 METAR ESMX 230820Z 22010KT 180V250 9999 FEW007 BKN011 09/08 Q1003=
201512230750 METAR ESMX 230750Z 21012KT 9999 -RA FEW006 BKN008 09/08 Q1003=
201512230720 METAR ESMX 230720Z 21010KT 9999 DZ FEW005 OVC007 09/08 Q1002=
201512230650 METAR ESMX 230650Z 19007KT 9999 -RA FEW005 BKN009 09/08 Q1002=
201512230620 METAR ESMX 230620Z 22007KT 9999 -RA FEW005 09/08 Q1002=
201512230550 METAR ESMX 230550Z AUTO 21008KT 9000 -RA NCD 09/08 Q1002=
201512230520 METAR ESMX 230520Z AUTO 22007KT 8000 RA NCD 09/08 Q1003 RESHRA=
201512230450 METAR ESMX 230450Z AUTO 23005KT 9999 -RA NCD 09/08 Q1003=
201512230420 METAR ESMX 230420Z AUTO 23008KT 9999 DZ NCD 09/08 Q1003=
201512230350 METAR ESMX 230350Z AUTO 22009KT 7000 -RA FEW009/// 10/09 Q1003 RERA=
201512230320 METAR ESMX 230320Z AUTO 23009KT 9999 FEW005/// SCT007/// BKN010/// 10/09 Q1003=
201512230250 METAR ESMX 230250Z AUTO 22008KT 9999 -DZ FEW005/// SCT006/// BKN010/// 10/09 Q1003=
201512230220 METAR ESMX 230220Z AUTO 23008KT 8000 DZ FEW005/// SCT007/// 10/10 Q1004=
201512230150 METAR ESMX 230150Z 22008KT 5000 DZ FEW004 BKN006 OVC009 10/10 Q1004=
201512230120 METAR ESMX 230120Z 23006KT 210V270 5000 +DZ FEW005 BKN006 BKN011 10/10 Q1004=
201512230050 METAR ESMX 230050Z 23009KT 4800 +DZ FEW006 SCT007 BKN009 10/10 Q1004=
201512230020 METAR ESMX 230020Z 22010KT 4500 DZ FEW006 OVC009 10/10 Q1004=
201512222350 METAR ESMX 222350Z 22011KT 5000 RADZ FEW005 BKN008 10/10 Q1004=
201512222320 METAR ESMX 222320Z 22012KT 4900 DZ FEW005 BKN008 10/10 Q1004=
201512222250 METAR ESMX 222250Z 22013KT 6000 -DZ SCT006 OVC010 10/10 Q1004=
201512222220 METAR ESMX 222220Z 23012KT 5000 -DZ BKN005 OVC010 10/10 Q1003=
201512222150 METAR ESMX 222150Z 23014KT 3600 DZ SCT006 OVC008 10/10 Q1003=
201512222120 METAR ESMX 222120Z 23013KT 6000 BR SCT006 OVC008 11/10 Q1003=
201512222050 METAR ESMX 222050Z 24013KT 9999 SCT007 BKN009 OVC011 11/10 Q1003=
201512222020 METAR ESMX 222020Z 23014KT 9000 -DZ FEW006 BKN008 11/10 Q1003=
201512221950 METAR ESMX 221950Z 23013KT 5000 BR SCT006 OVC008 11/10 Q1003=
201512221920 METAR ESMX 221920Z 22012KT 6000 DZ BKN005 OVC008 10/10 Q1003=
201512221850 METAR ESMX 221850Z 22012KT 5000 -DZ OVC004 10/09 Q1003=
201512221820 METAR ESMX 221820Z 21013KT 3200 DZ SCT003 OVC005 09/09 Q1003=
201512221750 METAR ESMX 221750Z 20013KT 2700 -RA BKN002 OVC005 08/08 Q1003=
201512221720 METAR ESMX 221720Z 18010KT 3400 -DZ OVC002 07/07 Q1003=
201512221650 METAR ESMX 221650Z 18011KT 6000 BR OVC003 07/06 Q1004=
201512221620 METAR ESMX 221620Z 16010KT 8000 -DZ OVC004 06/06 Q1004=
201512221550 METAR ESMX 221550Z 16009KT 6000 DZ BKN005 OVC008 06/06 Q1005=
201512221520 METAR ESMX 221520Z 17011KT 4100 DZ FEW009 SCT012 BKN016 06/05 Q1006=
201512221450 METAR ESMX 221450Z 17011KT 9999 OVC024 07/05 Q1006=
201512221420 METAR ESMX 221420Z 18009KT 9999 FEW013 SCT036 BKN040 07/05 Q1007=
201512221320 METAR ESMX 221320Z 19007KT 9999 FEW016 BKN070 07/05 Q1007=
201512221250 METAR ESMX 221250Z 21008KT CAVOK 06/04 Q1008=
201512221220 METAR ESMX 221220Z 23007KT CAVOK 06/04 Q1008=
201512221150 METAR ESMX 221150Z 24009KT 9999 FEW015 SCT023 07/04 Q1008=
201512221120 METAR ESMX 221120Z 24009KT 9999 FEW017 BKN020 07/04 Q1009=
201512221050 METAR ESMX 221050Z 23010KT 9999 SCT018 07/03 Q1009=
201512221020 METAR ESMX 221020Z 25009KT 220V290 9999 FEW022 06/03 Q1009=
201512220950 METAR ESMX 220950Z 26011KT 9999 FEW023 07/03 Q1008=
201512220920 METAR ESMX 220920Z 26013KT 9999 SCT025 06/03 Q1008=
201512220850 METAR ESMX 220850Z 26015KT 9999 SCT022 06/03 Q1008=
201512220820 METAR ESMX 220820Z 26015G27KT 9999 FEW020 BKN025 06/03 Q1007=
201512220750 METAR ESMX 220750Z 27016KT 240V300 9999 FEW020 BKN023 07/03 Q1006=
201512220720 METAR COR ESMX 220720Z 27017G28KT 9999 SCT025 BKN030 07/03 Q1005=
201512220650 METAR ESMX 220650Z 26017KT 210V290 9999 FEW020 SCT025 BKN031 07/04 Q1004=
201512220620 METAR ESMX 220620Z 27017KT 9999 SCT018 BKN025 07/04 Q1003=
201512220550 METAR ESMX 220550Z 27015G26KT 9999 FEW016 SCT020 BKN023 07/05 Q1002=
201512220520 METAR ESMX 220520Z 27016KT 9999 FEW016 SCT021 BKN024 07/05 Q1002=
201512220450 METAR COR ESMX 220450Z 27017KT 9999 FEW010 BKN016 BKN022 07/05 Q1000=
201512220420 METAR ESMX 220420Z AUTO 27017KT 230V300 7000 DZ FEW008/// SCT014/// BKN018/// 07/05 Q0999 RERA=
201512220350 METAR ESMX 220350Z AUTO 28013KT 6000 -RA FEW009/// BKN013/// BKN020/// 07/06 Q0998 RERA=
201512220320 METAR ESMX 220320Z AUTO 27017G30KT 9999 FEW010/// SCT015/// BKN020/// 07/06 Q0997 RESHUP=
201512220250 METAR ESMX 220250Z AUTO 27017G27KT 9999 FEW009/// SCT014/// BKN018/// 08/06 Q0995 REDZ=
201512220220 METAR ESMX 220220Z AUTO 25014G25KT 230V290 3100 +DZ FEW006/// SCT008/// BKN010/// 07/07 Q0994=
201512220150 METAR ESMX 220150Z AUTO 24013KT 5000 DZ FEW006/// SCT007/// BKN009/// 07/07 Q0993=
201512220120 METAR ESMX 220120Z 21011KT 6000 DZ FEW006 SCT009 BKN011 07/06 Q0993=
201512220050 METAR ESMX 220050Z 17010KT 8000 RA FEW005 SCT008 BKN010 06/05 Q0994=
201512220020 METAR ESMX 220020Z 16009KT 9999 -RA FEW009 SCT013 BKN016 06/05 Q0994=
201512212350 METAR ESMX 212350Z 17014KT 9999 RA FEW009 SCT014 BKN016 06/05 Q0996=
201512212320 METAR ESMX 212320Z 18010KT 9999 -RA FEW009 SCT015 BKN021 06/05 Q0997=
201512212250 METAR ESMX 212250Z 19014KT 9999 -RA FEW010 SCT015 BKN017 06/05 Q0998=
201512212220 METAR ESMX 212220Z 17010KT 9999 DZ FEW011 SCT015 BKN017 06/05 Q0999=
201512212150 METAR ESMX 212150Z 17010KT 9999 FEW007 SCT020 BKN034 06/05 Q1000=
201512212120 METAR ESMX 212120Z 18012KT 8000 -RA FEW010 SCT020 BKN023 06/05 Q1001=
201512212050 METAR ESMX 212050Z 18010KT 9999 DZ FEW009 BKN042 06/05 Q1002=
201512212020 METAR ESMX 212020Z 20013KT 9999 FEW009 SCT014 BKN017 06/05 Q1003=
201512211950 METAR ESMX 211950Z 21013KT 9999 -DZ FEW009 SCT013 BKN016 06/05 Q1003=
201512211920 METAR ESMX 211920Z 20012KT 9999 FEW012 SCT017 BKN023 06/05 Q1004=
201512211850 METAR ESMX 211850Z 21011KT 9999 FEW016 SCT020 BKN028 07/05 Q1004=
201512211820 METAR ESMX 211820Z 22012KT 9999 -RA FEW015 BKN020 BKN025 07/05 Q1004=
201512211750 METAR ESMX 211750Z 23013KT 9999 FEW018 BKN020 OVC029 07/05 Q1005=
201512211720 METAR ESMX 211720Z 22010KT 9999 FEW014 SCT017 BKN020 07/05 Q1005=
201512211650 METAR ESMX 211650Z 22010KT 9999 -RA FEW011 SCT013 BKN016 07/05 Q1005=
201512211620 METAR ESMX 211620Z 23010KT 9999 -RA FEW016 BKN018 BKN025 07/05 Q1005=
201512211550 METAR ESMX 211550Z 21011KT 9999 FEW016 SCT019 BKN021 07/05 Q1005=
201512211520 METAR ESMX 211520Z 22010KT 9999 FEW016 SCT019 BKN021 08/05 Q1005=
201512211450 METAR ESMX 211450Z 23010KT 9999 -DZ FEW017 BKN020 BKN041 08/05 Q1005=
201512211420 METAR ESMX 211420Z 22012KT 9999 FEW016 BKN020 OVC027 08/05 Q1005=
201512211350 METAR ESMX 211350Z 22012KT 9999 FEW019 SCT027 OVC045 08/06 Q1006=
201512211320 METAR ESMX 211320Z 22010KT 9999 FEW019 SCT023 BKN028 08/05 Q1006=
201512211250 METAR ESMX 211250Z 23011KT 9999 FEW021 BKN041 08/05 Q1006=
201512211220 METAR ESMX 211220Z 23013KT 9999 FEW012 BKN021 08/06 Q1006=
201512211150 METAR ESMX 211150Z 22009KT 9999 -RA FEW016 SCT021 BKN036 08/06 Q1007=
201512211120 METAR ESMX 211120Z 22009KT 9999 FEW019 SCT027 BKN036 08/06 Q1007 RERA=
201512211050 METAR ESMX 211050Z 23010KT 9999 FEW020 BKN032 08/05 Q1007=
201512211020 METAR ESMX 211020Z 23012KT 9999 FEW021 OVC035 08/05 Q1008=
201512210950 METAR ESMX 210950Z 23014KT 9999 FEW024 BKN038 08/05 Q1008=
201512210920 METAR ESMX 210920Z 22013KT 9999 FEW020 OVC039 08/06 Q1008=
201512210850 METAR ESMX 210850Z 23013KT 9999 FEW021 OVC038 08/06 Q1008=
201512210820 METAR ESMX 210820Z 22010KT 9999 FEW021 OVC033 08/06 Q1008=
201512210750 METAR ESMX 210750Z 22009KT 9999 FEW024 BKN041 08/07 Q1008=
201512210720 METAR ESMX 210720Z 23009KT 9999 FEW018 SCT041 08/07 Q1008=
201512210650 METAR ESMX 210650Z 22009KT 9999 FEW018 SCT025 BKN059 08/07 Q1007=
201512210620 METAR ESMX 210620Z 21015G26KT 170V240 9000 RA FEW015 BKN029 08/06 Q1007=
201512210550 METAR ESMX 210550Z 20010KT 9000 -RA FEW015 BKN019 BKN031 09/08 Q1007=
201512210520 METAR ESMX 210520Z 21009KT 9999 SCT017 BKN020 09/07 Q1007=
201512210450 METAR ESMX 210450Z 20011KT 9999 FEW014 SCT018 BKN024 09/08 Q1007=
201512210420 METAR ESMX 210420Z AUTO 21010KT 9999 -RA FEW015/// SCT026/// BKN039/// 09/08 Q1008 RERA=
201512210350 METAR ESMX 210350Z AUTO 21011KT 4700 RA FEW009/// SCT012/// BKN014/// 09/08 Q1008=
201512210320 METAR ESMX 210320Z AUTO 20010KT 6000 -RA FEW013/// SCT047/// BKN058/// 09/08 Q1008 REDZ=
201512210250 METAR ESMX 210250Z AUTO 20010KT 9999 FEW011/// SCT025/// BKN055/// 09/07 Q1008=
201512210220 METAR ESMX 210220Z AUTO 20011KT 9999 FEW041/// BKN052/// 09/07 Q1008 RESHUP=
201512210150 METAR ESMX 210150Z AUTO 20010KT 9999 FEW039/// SCT065/// BKN088/// 09/07 Q1008 REUP=
201512210120 METAR ESMX 210120Z 20011KT 9999 FEW011 SCT014 BKN020 09/07 Q1009=
201512210050 METAR ESMX 210050Z 20011KT 9999 BKN011 09/07 Q1008=
201512210020 METAR ESMX 210020Z 20011KT 9999 BKN012 BKN017 09/07 Q1009=
201512202350 METAR ESMX 202350Z 21011KT 9999 BKN012 OVC016 09/08 Q1009=
201512202320 METAR ESMX 202320Z 22010KT 9999 BKN012 OVC017 10/08 Q1009=
201512202250 METAR ESMX 202250Z 21011KT 9999 BKN012 OVC016 10/08 Q1009=
201512202220 METAR ESMX 202220Z 22010KT 9999 FEW011 BKN014 OVC019 10/08 Q1009=
201512202150 METAR ESMX 202150Z 21009KT 9999 BKN011 OVC017 10/08 Q1009=
201512202120 METAR ESMX 202120Z 21010KT 9999 FEW011 BKN014 BKN018 10/08 Q1009=
201512202050 METAR ESMX 202050Z 21010KT 9999 FEW010 SCT013 BKN016 09/08 Q1009=
201512202020 METAR ESMX 202020Z 21011KT 9999 FEW008 SCT012 BKN015 09/08 Q1009=
201512201950 METAR ESMX 201950Z 22011KT 9000 BR BKN006 OVC010 09/08 Q1009=
201512201920 METAR ESMX 201920Z 22011KT 6000 BR OVC006 09/08 Q1009=
201512201850 METAR ESMX 201850Z 22012KT 9999 BKN007 09/08 Q1008=
201512201820 METAR ESMX 201820Z 20013KT 9999 BKN008 09/08 Q1008=
201512201750 METAR ESMX 201750Z 20014KT 9999 BKN009 09/08 Q1008=
201512201720 METAR ESMX 201720Z 20014KT 9999 BKN010 09/08 Q1008=
201512201650 METAR ESMX 201650Z 21013KT 9999 BKN010 09/08 Q1008=
201512201620 METAR ESMX 201620Z 21012KT 9999 BKN010 09/08 Q1008=
201512201550 METAR COR ESMX 201550Z 21012KT 9999 SCT012 BKN100 09/08 Q1008=
201512201520 METAR COR ESMX 201520Z 19012KT 9999 SCT010 BKN100 09/08 Q1008=
201512201450 METAR ESMX 201450Z AUTO 19012KT 9999 FEW017/// 09/08 Q1008=
201512201420 METAR ESMX 201420Z AUTO 19012KT 9999 NCD 10/08 Q1008=
201512201350 METAR ESMX 201350Z AUTO 19012KT 9999 NCD 10/08 Q1008=
201512201320 METAR ESMX 201320Z AUTO 18010KT 9999 NCD 10/08 Q1008=
201512201250 METAR ESMX 201250Z AUTO 18010KT 9999 NCD 10/08 Q1009=
201512201220 METAR ESMX 201220Z AUTO 19012KT 9999 NCD 10/09 Q1009=
201512201150 METAR ESMX 201150Z AUTO 19010KT 9999 NCD 10/09 Q1010=
201512201120 METAR ESMX 201120Z AUTO 19011KT 9999 FEW060/// 10/09 Q1009=
201512201050 METAR ESMX 201050Z AUTO 20011KT 9999 NCD 10/09 Q1009=
201512201020 METAR ESMX 201020Z AUTO 19011KT 9999 NCD 10/09 Q1010=
201512200950 METAR ESMX 200950Z AUTO 19012KT 9999 FEW006/// 10/09 Q1010=
201512200920 METAR ESMX 200920Z AUTO 19013KT 8000 BR BKN005/// 10/09 Q1010=
201512200850 METAR ESMX 200850Z AUTO 19013KT 7000 BR FEW005/// 10/09 Q1010=
201512200820 METAR ESMX 200820Z AUTO 20011KT 9000 BR NCD 10/09 Q1010=
201512200750 METAR ESMX 200750Z 19013KT CAVOK 11/10 Q1010=
201512200720 METAR ESMX 200720Z 20012KT 9999 FEW010 BKN100 11/10 Q1010=
201512200650 METAR ESMX 200650Z 19012KT 8000 BR SCT010 11/10 Q1010=
201512200620 METAR ESMX 200620Z 21012KT 8000 BR SCT009 11/10 Q1011=
201512200550 METAR ESMX 200550Z AUTO 20014KT 6000 BR FEW007/// SCT010/// 11/10 Q1011=
201512200520 METAR ESMX 200520Z AUTO 19014KT 6000 BR FEW005/// SCT007/// BKN009/// 12/11 Q1011=
201512200450 METAR ESMX 200450Z AUTO 20013KT 6000 BR FEW005/// SCT007/// BKN008/// 12/11 Q1011=
201512200420 METAR ESMX 200420Z AUTO 20012KT 6000 BR FEW005/// OVC007/// 12/11 Q1011=
201512200350 METAR ESMX 200350Z AUTO 22010KT 6000 BR BKN006/// OVC009/// 12/11 Q1012=
201512200320 METAR ESMX 200320Z AUTO 22010KT 6000 BR FEW006/// OVC007/// 12/11 Q1012=
201512200250 METAR ESMX 200250Z AUTO 22012KT 6000 BR FEW005/// OVC006/// 12/11 Q1012=
201512200220 METAR ESMX 200220Z AUTO 22012KT 5000 BR OVC003/// 11/11 Q1012=
201512200150 METAR ESMX 200150Z AUTO 21013KT 4100 BR OVC003/// 11/11 Q1012=
201512200120 METAR ESMX 200120Z AUTO 23011KT 3600 BR OVC003/// 11/10 Q1012=
201512200050 METAR ESMX 200050Z AUTO 23013KT 4800 BR OVC003/// 11/10 Q1012=
201512200020 METAR ESMX 200020Z AUTO 23011KT 4800 BR BKN004/// OVC007/// 11/10 Q1012=
201512192350 METAR ESMX 192350Z AUTO 23011KT 9000 BR OVC003/// 11/10 Q1012=
201512192320 METAR ESMX 192320Z AUTO 22010KT 4600 BR OVC002/// 10/10 Q1012=
201512192250 METAR ESMX 192250Z AUTO 22011KT 4200 BR OVC002/// 10/10 Q1012=
201512192220 METAR ESMX 192220Z AUTO 22011KT 4000 BR OVC001/// 10/10 Q1012=
201512192150 METAR ESMX 192150Z AUTO 21011KT 2300 BR OVC001/// 10/09 Q1012=
201512192120 METAR ESMX 192120Z AUTO 21011KT 6000 BR OVC002/// 10/09 Q1012=
201512192050 METAR ESMX 192050Z AUTO 22010KT 8000 BR OVC002/// 10/09 Q1012=
201512192020 METAR ESMX 192020Z 21010KT 4300 BR OVC001 09/09 Q1012=
201512191950 METAR ESMX 191950Z 21010KT 3300 BR OVC002 09/09 Q1012=
201512191920 METAR ESMX 191920Z 21010KT 7000 BR OVC002 09/09 Q1012=
201512191850 METAR ESMX 191850Z AUTO 21009KT 2900 BR OVC001/// 09/09 Q1012=
201512191820 METAR ESMX 191820Z AUTO 21008KT 2500 BR OVC001/// 09/09 Q1012 REDZ=
201512191750 METAR ESMX 191750Z AUTO 21008KT 5000 BR OVC002/// 09/09 Q1012=
201512191720 METAR ESMX 191720Z AUTO 21007KT 2400 BR OVC002/// 09/09 Q1012 REDZ=
201512191650 METAR ESMX 191650Z AUTO 22007KT 2500 BR OVC002/// 09/09 Q1012=
201512191620 METAR ESMX 191620Z AUTO 21008KT 3800 BR OVC003/// 09/09 Q1012 REDZ=
201512191550 METAR ESMX 191550Z AUTO 22009KT 2500 BR OVC003/// 09/09 Q1012=
201512191520 METAR ESMX 191520Z AUTO 23009KT 4500 BR OVC004/// 09/09 Q1012 REDZ=
201512191450 METAR ESMX 191450Z AUTO 22009KT 6000 DZ OVC004/// 09/09 Q1012=
201512191420 METAR ESMX 191420Z AUTO 23009KT 9999 OVC005/// 09/09 Q1012=
201512191350 METAR ESMX 191350Z AUTO 24010KT 200V270 9999 OVC004/// 09/09 Q1012=
201512191320 METAR ESMX 191320Z AUTO 24009KT 9999 OVC004/// 09/08 Q1012=
201512191250 METAR ESMX 191250Z AUTO 24009KT 9999 FEW004/// OVC005/// 09/08 Q1011=
201512191220 METAR ESMX 191220Z AUTO 22008KT 4000 -RA SCT002/// OVC004/// 09/09 Q1011 REDZ REUP=
201512191150 METAR ESMX 191150Z AUTO 24010KT 5000 BR OVC002/// 09/08 Q1012=
201512191120 METAR ESMX 191120Z AUTO 24011KT 210V270 3600 BR BKN002/// OVC005/// 09/08 Q1012=
201512191050 METAR ESMX 191050Z AUTO 22009KT 4500 BR FEW004/// BKN005/// OVC007/// 09/08 Q1012 REDZ=
201512191020 METAR ESMX 191020Z AUTO 23010KT 4800 BR FEW004/// SCT006/// OVC008/// 09/08 Q1011=
201512190950 METAR ESMX 190950Z AUTO 24011KT 3700 BR FEW003/// OVC005/// 09/08 Q1011 REDZ=
201512190920 METAR ESMX 190920Z AUTO 24011KT 2800 BR BKN004/// OVC007/// 09/08 Q1011=
201512190850 METAR ESMX 190850Z AUTO 24010KT 3400 -DZ OVC004/// 09/08 Q1011=
201512190820 METAR ESMX 190820Z AUTO 24013KT 9000 -DZ FEW005/// BKN007/// OVC009/// 09/08 Q1010=
201512190750 METAR ESMX 190750Z AUTO 23012KT 9999 -RA BKN006/// OVC009/// 09/08 Q1010 REDZ=
201512190720 METAR ESMX 190720Z AUTO 22012KT 9999 DZ FEW006/// SCT007/// BKN009/// 09/08 Q1010=
201512190650 METAR ESMX 190650Z AUTO 23012KT 9999 -RA FEW005/// BKN007/// OVC010/// 09/08 Q1010 REDZ=
201512190620 METAR ESMX 190620Z AUTO 22012KT 9999 DZ FEW006/// BKN007/// OVC010/// 09/08 Q1009 REDZ=
201512190550 METAR ESMX 190550Z AUTO 22011KT 9000 DZ FEW005/// SCT007/// BKN008/// 09/08 Q1010=
201512190520 METAR ESMX 190520Z AUTO 21010KT 7000 DZ FEW005/// BKN006/// OVC009/// 09/08 Q1010=
201512190450 METAR ESMX 190450Z AUTO 22010KT 4100 -RA FEW004/// BKN006/// OVC008/// 09/08 Q1010 REDZ=
201512190420 METAR ESMX 190420Z AUTO 22010KT 6000 DZ BKN005/// OVC008/// 09/08 Q1010=
201512190350 METAR ESMX 190350Z AUTO 22011KT 4000 -DZ FEW005/// SCT006/// BKN008/// 09/08 Q1010=
201512190320 METAR ESMX 190320Z AUTO 23012KT 3600 DZ FEW005/// SCT007/// BKN008/// 08/08 Q1010=
201512190250 METAR ESMX 190250Z AUTO 24012KT 3400 -DZ FEW006/// OVC007/// 09/08 Q1010 REUP REDZ=
201512190220 METAR ESMX 190220Z AUTO 23014G26KT 9999 OVC007/// 09/07 Q1010=
201512190150 METAR ESMX 190150Z AUTO 23012KT 200V260 9999 BKN008/// OVC010/// 09/07 Q1010=
201512190120 METAR ESMX 190120Z AUTO 24012KT 210V270 9999 FEW008/// OVC010/// 09/07 Q1010=
201512190050 METAR ESMX 190050Z AUTO 23013KT 9999 BKN005/// OVC008/// 09/08 Q1010=
201512190020 METAR ESMX 190020Z AUTO 24013G23KT 210V280 4900 BR OVC005/// 08/08 Q1010=
201512182350 METAR ESMX 182350Z AUTO 23013KT 9000 BR OVC006/// 09/07 Q1010=
201512182320 METAR ESMX 182320Z AUTO 24014KT 200V260 9999 OVC006/// 09/07 Q1010=
201512182250 METAR ESMX 182250Z AUTO 24014KT 9999 OVC006/// 09/07 Q1010=
201512182220 METAR ESMX 182220Z AUTO 23015KT 200V260 8000 BR SCT006/// BKN008/// OVC009/// 09/07 Q1010=
201512182150 METAR ESMX 182150Z AUTO 24013KT 9999 OVC010/// 09/07 Q1010=
201512182120 METAR ESMX 182120Z AUTO 23012KT 9999 OVC012/// 09/07 Q1010=
201512182050 METAR ESMX 182050Z AUTO 24012KT 9999 FEW013/// SCT016/// BKN019/// 09/07 Q1010=
201512182020 METAR ESMX 182020Z 24012KT 9999 FEW009 SCT010 BKN013 09/07 Q1010=
201512181950 METAR ESMX 181950Z 23012KT 9999 FEW009 BKN010 OVC014 09/07 Q1010=
201512181920 METAR ESMX 181920Z 23013KT 9999 OVC010 09/07 Q1010=
201512181850 METAR ESMX 181850Z 24013KT 9999 FEW009 OVC012 09/07 Q1010=
201512181820 METAR ESMX 181820Z 25013G23KT 9999 OVC006 09/08 Q1010=
201512181750 METAR COR ESMX 181750Z 23012KT 9999 OVC007 09/08 Q1010=
201512181720 METAR ESMX 181720Z 24011KT 9999 OVC008 09/07 Q1009=
201512181650 METAR ESMX 181650Z 23011KT 9999 SCT008 OVC010 09/07 Q1009=
201512181620 METAR ESMX 181620Z 23009KT 190V260 8000 BR FEW005 BKN007 09/08 Q1010=
201512181550 METAR ESMX 181550Z 23010KT 200V260 7000 BR OVC005 09/08 Q1010=
201512181520 METAR ESMX 181520Z 24011KT 5000 BR OVC005 09/08 Q1010=
201512181450 METAR ESMX 181450Z 23013KT 9000 BR OVC005 09/08 Q1009=
201512181420 METAR ESMX 181420Z 25012KT 9000 DZ OVC006 09/08 Q1009=
201512181350 METAR ESMX 181350Z 24011KT 9999 OVC006 09/08 Q1009=
201512181320 METAR ESMX 181320Z 24011KT 9999 BKN005 OVC007 09/08 Q1009=
201512181250 METAR ESMX 181250Z 25010KT 9999 OVC005 09/08 Q1009=
201512181220 METAR ESMX 181220Z 23010KT 9999 OVC005 09/08 Q1009=
201512181150 METAR ESMX 181150Z 24010KT 9999 BKN006 OVC010 09/08 Q1009=
201512181120 METAR ESMX 181120Z 24011KT 200V270 9999 BR OVC003 09/08 Q1009=
201512181050 METAR ESMX 181050Z 25011KT 210V280 9999 OVC004 09/08 Q1008=
201512181020 METAR ESMX 181020Z 22009KT 9999 OVC003 09/09 Q1008=
201512180950 METAR ESMX 180950Z 23011KT 9999 OVC003 09/08 Q1008=
201512180920 METAR ESMX 180920Z 23010KT 9999 DZ OVC004 09/08 Q1008=
201512180850 METAR ESMX 180850Z 22010KT 9999 OVC005 09/08 Q1008=
201512180820 METAR ESMX 180820Z 24010KT 9999 FEW004 OVC005 09/08 Q1008=
201512180750 METAR ESMX 180750Z 23013KT 7000 BR BKN002 OVC005 09/08 Q1008=
201512180720 METAR ESMX 180720Z 22012KT 4400 BR OVC002 09/08 Q1007=
201512180650 METAR ESMX 180650Z 21009KT 3800 BR OVC002 09/08 Q1007=
201512180620 METAR ESMX 180620Z 23008KT 3100 BR OVC001 09/09 Q1008=
201512180550 METAR ESMX 180550Z 22009KT 2200 BR OVC002 09/09 Q1008=
201512180520 METAR ESMX 180520Z 21010KT 2400 BR OVC002 09/08 Q1008=
201512180450 METAR ESMX 180450Z 23010KT 1200 R01/P2000N R19/P2000N BR OVC002 09/08 Q1008=
201512180420 METAR ESMX 180420Z AUTO 22010KT 1000 R01/P2000N R19/P2000N OVC001/// 09/09 Q1008=
201512180350 METAR ESMX 180350Z AUTO 22009KT 1100 R01/P2000N R19/P2000N BR OVC001/// 09/08 Q1008=
201512180320 METAR ESMX 180320Z AUTO 22010KT 1500 BR OVC001/// 09/09 Q1008=
201512180250 METAR ESMX 180250Z AUTO 23009KT 1500 BR OVC001/// 09/08 Q1008=
201512180220 METAR ESMX 180220Z AUTO 22008KT 1400 R01/P2000N R19/P2000N BR OVC001/// 09/09 Q1009=
201512180150 METAR ESMX 180150Z 22008KT 3100 BR OVC002 09/09 Q1009=
201512180120 METAR ESMX 180120Z 23007KT 2500 BR OVC002 09/08 Q1009=
201512180050 METAR ESMX 180050Z 23008KT 2500 BR OVC002 09/08 Q1010=
201512180020 METAR ESMX 180020Z 23009KT 200V260 2100 BR OVC002 09/08 Q1009=
201512172350 METAR ESMX 172350Z 24009KT 210V270 3500 BR OVC002 09/08 Q1009=
201512172320 METAR ESMX 172320Z 24008KT 210V270 3400 BR OVC002 09/09 Q1009=
201512172250 METAR ESMX 172250Z 24008KT 5000 BR OVC003 09/09 Q1010=
201512172220 METAR ESMX 172220Z 24009KT 210V280 4400 BR OVC004 09/09 Q1010=
201512172150 METAR ESMX 172150Z 23009KT 1900 BR VV002 09/09 Q1010=
201512172120 METAR ESMX 172120Z 22008KT 1800 -DZ OVC002 08/08 Q1010=
201512172050 METAR ESMX 172050Z 21007KT 1200 R01/P2000N R19/P2000N -DZ VV002 08/08 Q1010=
201512172020 METAR ESMX 172020Z 22008KT 1800 VV002 08/08 Q1010=
201512171950 METAR ESMX 171950Z 22006KT 1100 R01/P2000N R19/P2000N FG VV002 08/08 Q1010=
201512171920 METAR ESMX 171920Z 21005KT 0700 R01/1800N R19/P2000N FG VV002 08/08 Q1010=
201512171850 METAR ESMX 171850Z 21008KT 0800 R01/P2000N R19/P2000N -DZ VV002 08/08 Q1011=
201512171820 METAR ESMX 171820Z 20007KT 0650 R01/1600N R19/P2000N -RA VV002 08/07 Q1010=
201512171750 METAR ESMX 171750Z 21006KT 1200 R01/P2000N R19/P2000N BR VV002 07/07 Q1011=
201512171720 METAR ESMX 171720Z 20006KT 1200 R01/P1500N R19/P1700N BR VV002 07/07 Q1011=
201512171650 METAR ESMX 171650Z 22006KT 1800 BR OVC002 07/07 Q1011=
201512171620 METAR ESMX 171620Z 21006KT 3800 BR OVC002 07/07 Q1011=
201512171550 METAR ESMX 171550Z 22006KT 4100 BR OVC002 07/07 Q1011=
201512171520 METAR ESMX 171520Z 24006KT 3300 BR OVC002 07/07 Q1011=
201512171450 METAR ESMX 171450Z 23007KT 200V260 4000 BR VV002 07/07 Q1011=
201512171420 METAR ESMX 171420Z 23008KT 2100 BR OVC002 07/07 Q1011=
201512171350 METAR ESMX 171350Z 22007KT 4700 DZ OVC002 07/07 Q1011=
201512171320 METAR ESMX 171320Z 23007KT 1500 BR OVC001 07/06 Q1011=
201512171250 METAR ESMX 171250Z 24006KT 1300 R01/1600N R19/1500N BR VV002 06/06 Q1012=
201512171220 METAR ESMX 171220Z 20007KT 0800 R01/1100N R19/1200N FG VV002 06/06 Q1012=
201512171150 METAR ESMX 171150Z 20006KT 0800 R01/1000N R19/1100N FG VV002 06/06 Q1012=
201512171120 METAR ESMX 171120Z 20007KT 0750 R01/1000N R19/1000U FG VV002 06/05 Q1012=
201512171050 METAR ESMX 171050Z 21007KT 1400 R01/1500N R19/1700U -DZ OVC001 05/05 Q1013=
201512171020 METAR ESMX 171020Z 20006KT 1300 R01/1000U R19/1100U BR VV002 05/05 Q1013=
201512170950 METAR ESMX 170950Z 19004KT 0450 R01/0800N R19/0800N FG VV002 04/04 Q1013=
201512170920 METAR ESMX 170920Z 16004KT 0400 R01/0700N R19/0800N FG VV002 04/04 Q1013=
201512170850 METAR ESMX 170850Z 16004KT 0400 R01/0700N R19/0900N FG VV002 04/04 Q1013=
201512170820 METAR ESMX 170820Z 16004KT 0400 R01/0800N R19/0900N FG VV002 04/04 Q1014=
201512170750 METAR ESMX 170750Z 17004KT 0550 R01/1100N R19/1300N FG VV002 04/04 Q1014=
201512170720 METAR ESMX 170720Z 16003KT 0500 R01/0800N R19/0800N FG VV002 04/03 Q1014=
201512170650 METAR ESMX 170650Z 17003KT 0500 R01/1000D R19/1000N FG VV002 04/03 Q1014=
201512170620 METAR ESMX 170620Z 16004KT 120V190 0600 R01/1100N R19/1100U FG VV002 04/03 Q1014=
201512170550 METAR ESMX 170550Z 16004KT 0300 R01/0800N R19/1000N FG VV002 03/03 Q1014=
201512170520 METAR ESMX 170520Z 16005KT 140V200 0300 R01/0900N R19/1200N FG VV002 03/03 Q1014=
201512170450 METAR ESMX 170450Z 15004KT 0400 R01/1000N R19/1200N FG VV002 03/03 Q1015=
201512170420 METAR ESMX 170420Z AUTO 15005KT 0400 R01/1100N R19/1700N FG VV001 03/03 Q1015=
201512170350 METAR ESMX 170350Z AUTO 14005KT 0400 R01/1100N R19/1500N FG VV001 03/03 Q1015=
201512170320 METAR ESMX 170320Z AUTO 15004KT 0450 R01/1200N R19/1500U FG VV001 03/03 Q1016=
201512170250 METAR ESMX 170250Z AUTO 15004KT 0400 R01/1100N R19/1500N FG VV001 03/03 Q1016=
201512170220 METAR ESMX 170220Z AUTO 14004KT 110V180 0400 R01/1100N R19/1400N FG VV001 03/02 Q1017=
201512170150 METAR ESMX 170150Z 16005KT 0350 R01/1000N R19/1300D -DZ VV002 02/02 Q1017=
201512170120 METAR ESMX 170120Z 15005KT 110V170 0650 R01/1800D R19/P2000N -RA VV002 02/02 Q1017=
201512170050 METAR ESMX 170050Z 14005KT 1500 -RA VV002 02/02 Q1018=
201512170020 METAR ESMX 170020Z 14005KT 110V170 0750 R01/1700U R19/P2000N -RA VV002 02/02 Q1018=
201512162350 METAR ESMX 162350Z 15005KT 0500 R01/1200U R19/1600U RA VV002 02/02 Q1019=
201512162320 METAR ESMX 162320Z 15005KT 0250 R01/0800N R19/1000N -RA VV002 02/02 Q1019 REUP=
201512162250 METAR ESMX 162250Z 15006KT 0300 R01/0900N R19/1300N FG VV002 02/02 Q1019=
201512162220 METAR ESMX 162220Z 14006KT 0500 R01/1300N R19/1800D FG VV002 02/01 Q1020=
201512162150 METAR ESMX 162150Z 15005KT 0700 R01/1700N R19/P2000N FG VV002 02/01 Q1020=
201512162120 METAR ESMX 162120Z 15006KT 0900 R01/P2000N R19/P2000N FG VV002 01/01 Q1021=
201512162050 METAR ESMX 162050Z 16006KT 1000 R01/P2000N R19/P2000N BR OVC002 01/01 Q1021=
201512162020 METAR ESMX 162020Z 15007KT 2300 BR BKN001 01/01 Q1021=
201512161950 METAR ESMX 161950Z 15006KT 090V180 2300 BR VV002 01/01 Q1022=
201512161920 METAR ESMX 161920Z 14004KT 040V170 2300 R01/1800N R19/P2000N FG VV002 01/01 Q1022=
201512161850 METAR ESMX 161850Z 12004KT 080V150 1500 R01/1400U R19/P2000N BR VV002 01/00 Q1023=
201512161820 METAR ESMX 161820Z 15004KT 1500 R01/1600D R19/P2000N BR VV002 01/00 Q1023=
201512161750 METAR ESMX 161750Z 15005KT 2300 BR BKN002 01/00 Q1023=
201512161720 METAR ESMX 161720Z 14004KT 100V170 2000 R01/P2000N R19/P2000N BR BKN002 00/00 Q1024=
201512161650 METAR ESMX 161650Z 14005KT 2000 BR BKN002 00/00 Q1024=
201512161620 METAR ESMX 161620Z 14004KT 2800 BR BKN004 00/M00 Q1024=
201512161550 METAR ESMX 161550Z 14004KT 3500 BR BKN007 M00/M00 Q1024=
201512161520 METAR ESMX 161520Z 14003KT 110V170 7000 BR BKN008 M00/M00 Q1025=
201512161450 METAR ESMX 161450Z 12003KT 8000 BR BKN010 M00/M01 Q1025=
201512161420 METAR ESMX 161420Z 14003KT 9999 BKN009 M01/M01 Q1025=
201512161350 METAR ESMX 161350Z AUTO 14003KT 9999 OVC010/// M01/M01 Q1025=
201512161320 METAR ESMX 161320Z AUTO 16003KT 9999 OVC011/// M01/M01 Q1026=
201512161250 METAR ESMX 161250Z 15003KT 9999 BKN013 M01/M01 Q1026=
201512161220 METAR ESMX 161220Z VRB02KT 9999 BKN015 M01/M01 Q1027=
201512161150 METAR ESMX 161150Z VRB01KT 9999 BKN016 M01/M01 Q1027=
201512161120 METAR ESMX 161120Z 00000KT 9999 BKN016 M01/M02 Q1027=
201512161050 METAR ESMX 161050Z 00000KT 9999 BKN016 M02/M02 Q1028=
201512161020 METAR ESMX 161020Z 00000KT 8000 BR BKN014 M02/M03 Q1028=
201512160950 METAR ESMX 160950Z 00000KT 8000 BR BKN002 OVC014 M03/M04 Q1028=
201512160920 METAR ESMX 160920Z 00000KT 6000 BR VV002 M04/M04 Q1028=
201512160850 METAR ESMX 160850Z 00000KT 4500 BR VV002 M04/M05 Q1028=
201512160820 METAR ESMX 160820Z 00000KT 1200 R01/1700N R19/1100U BR VV002 M05/M05 Q1029=
201512160750 METAR ESMX 160750Z VRB01KT 0200 R01/0700U R19/0550U FZFG VV002 M04/M05 Q1029=
201512160720 METAR ESMX 160720Z 00000KT 0100 R01/0400N R19/0450N FZFG VV002 M04/M05 Q1028=
201512160650 METAR ESMX 160650Z 00000KT 0150 R01/0550N R19/0800N FZFG VV002 M05/M05 Q1029=
201512160620 METAR ESMX 160620Z 00000KT 0250 R01/0700N R19/0750N FZFG VV002 M05/M05 Q1029=
201512160557 METAR ESMX 160557Z 00000KT 0150 R01/0600N R19/0600N FZFG VV002 M05/M06 Q1029=
201512160550 METAR ESMX 160550Z AUTO 00000KT 0200 R01/1300N R19/0600N FZFG VV001 M05/M06 Q1029=
201512160520 METAR ESMX 160520Z AUTO 00000KT 0150 R01/0550N R19/0500N FZFG VV001 M05/M05 Q1029=
201512160450 METAR ESMX 160450Z 00000KT 0200 R01/0700N R19/0900N FZFG VV002 M05/M05 Q1029=
201512160420 METAR ESMX 160420Z AUTO 00000KT 0200 R01/0750N R19/0650N FZFG VV001 M05/M05 Q1029 RESHUP=
201512160350 METAR ESMX 160350Z AUTO VRB02KT 0200 R01/0650N R19/0650N FZFG VV001 M04/M05 Q1029=
201512160320 METAR ESMX 160320Z AUTO VRB01KT 0200 R01/0900N R19/0600N FZFG VV000 M04/M05 Q1029 REFZUP=
201512160250 METAR ESMX 160250Z AUTO 00000KT 0150 R01/0600N R19/0550N FZFG VV000 M04/M05 Q1030=
201512160220 METAR ESMX 160220Z AUTO 00000KT 0150 R01/0550N R19/0550N FZFG VV001 M04/M04 Q1030=
201512160150 METAR ESMX 160150Z AUTO VRB02KT 0150 R01/0550N R19/0600N FZFG VV001 M04/M04 Q1030=
201512160120 METAR ESMX 160120Z 00000KT 0200 R01/0650N R19/0650N FZFG VV002 M04/M04 Q1030=
201512160050 METAR ESMX 160050Z VRB02KT 0250 R01/0700N R19/0900U FG VV002 M04/M04 Q1030=
201512160020 METAR ESMX 160020Z 30002KT 0250 R01/1000N R19/0800N SG VV002 M04/M05 Q1030=
201512152350 METAR ESMX 152350Z VRB02KT 0150 R01/0900N R19/0650N FZFG VV002 M04/M04 Q1030=
201512152320 METAR ESMX 152320Z 00000KT 0100 R01/0450N R19/0450N FZFG VV002 M03/M04 Q1030=
201512152250 METAR ESMX 152250Z VRB02KT 0150 R01/0650N R19/0550N FZFG VV002 M03/M04 Q1030=
201512152220 METAR ESMX 152220Z 00000KT 0150 R01/0550N R19/0500N FZFG VV002 M03/M04 Q1030=
201512152150 METAR ESMX 152150Z VRB02KT 0100 R01/0450N R19/0450N FZFG VV002 M03/M03 Q1030=
201512152120 METAR ESMX 152120Z VRB02KT 0100 R01/0375N R19/0400N FZFG VV002 M02/M03 Q1030=
201512152050 METAR ESMX 152050Z 00000KT 0100 R01/0450N R19/0400N FZFG VV002 M02/M03 Q1030=
201512152020 METAR ESMX 152020Z 00000KT 0100 R01/0500N R19/0375N FZFG VV002 M02/M03 Q1030=
201512151950 METAR ESMX 151950Z VRB01KT 0100 R01/0450N R19/0450N FZFG VV002 M02/M03 Q1030=
201512151920 METAR ESMX 151920Z AUTO VRB02KT 0100 R01/0400N R19/0500N FZFG VV000 M02/M02 Q1030=
201512151850 METAR ESMX 151850Z VRB01KT 0150 R01/0550N R19/0450N FZFG VV002 M02/M02 Q1029=
201512151820 METAR ESMX 151820Z VRB02KT 0150 R01/0500N R19/0500N FZFG VV002 M02/M02 Q1029=
201512151750 METAR ESMX 151750Z 00000KT 0150 R01/0500N R19/0550N FZFG VV002 M01/M01 Q1029=
201512151720 METAR ESMX 151720Z VRB02KT 0150 R01/0500N R19/0700N FZFG VV002 M01/M01 Q1029=
201512151650 METAR ESMX 151650Z 36003KT 0100 R01/0450N R19/0500N FZFG VV002 M01/M01 Q1028=
201512151620 METAR ESMX 151620Z VRB02KT 0100 R01/0400N R19/0400N FZFG VV001 M01/M01 Q1028=
201512151550 METAR ESMX 151550Z VRB03KT 0100 R01/0350N R19/0400N FZFG VV002 M00/M01 Q1028=
201512151520 METAR ESMX 151520Z VRB03KT 0100 R01/0350N R19/0350N FZFG VV002 M00/M01 Q1028=
201512151450 METAR ESMX 151450Z VRB03KT 0100 R01/0500N R19/0450N FZFG VV002 M00/M00 Q1028=
201512151420 METAR ESMX 151420Z VRB03KT 0300 R01/0800N R19/0700N FG VV002 00/M00 Q1027=
201512151350 METAR ESMX 151350Z 36004KT 0350 R01/0800N R19/0550N FG VV002 00/M00 Q1027=
201512151320 METAR ESMX 151320Z 35005KT 320V020 4500 BCFG VV002 01/00 Q1027=
201512151250 METAR ESMX 151250Z 33003KT 9999 SCT005 02/00 Q1027=
201512151220 METAR ESMX 151220Z 35002KT CAVOK 02/01 Q1027=
201512151150 METAR ESMX 151150Z 36003KT 9999 FEW004 02/01 Q1026=
201512151120 METAR ESMX 151120Z 36003KT 9999 FEW003 01/01 Q1026=
201512151050 METAR ESMX 151050Z 36003KT CAVOK 01/00 Q1026=
201512151020 METAR ESMX 151020Z 00000KT 9999 FEW013 01/00 Q1026=
201512150950 METAR COR ESMX 150950Z 00000KT 9999 BKN012 M00/M00 Q1026=
201512150920 METAR ESMX 150920Z 00000KT 9999 FEW003 SCT011 BKN014 00/00 Q1026=
201512150850 METAR ESMX 150850Z 00000KT 9000 R01/1200U R19/P2000N BCFG BKN009 M03/M03 Q1026=
201512150820 METAR ESMX 150820Z 00000KT 4500 R01/0650U R19/1600N BCFG BKN009 M03/M03 Q1025=
201512150750 METAR ESMX 150750Z 00000KT 7000 R01/0400D R19/0600N BCFG BKN008 M03/M03 Q1025=
201512150720 METAR ESMX 150720Z 00000KT 7000 R01/P2000N R19/0900N BCFG FEW008 SCT011 M02/M03 Q1025=
201512150650 METAR ESMX 150650Z 00000KT 7000 R01/P2000N R19/P2000D BCFG SCT009 BKN028 M01/M01 Q1024=
201512150620 METAR COR ESMX 150620Z 00000KT 0700 R01/0900N R19/0900D BCFZFG SCT007 BKN029 M01/M01 Q1024=
201512150550 METAR ESMX 150550Z AUTO 00000KT 9999 OVC007/// 00/M00 Q1024=
201512150520 METAR ESMX 150520Z 00000KT 9999 OVC005 00/M00 Q1024=
201512150450 METAR COR ESMX 150450Z 06002KT 9999 SCT005 BKN009 OVC011 00/M00 Q1023=
201512150420 METAR ESMX 150420Z AUTO VRB02KT 9999 FEW006/// OVC009/// 00/00 Q1023 RESHUP=
201512150350 METAR ESMX 150350Z AUTO 00000KT 6000 BR FEW006/// SCT021/// OVC028/// 00/M00 Q1023 REUP=
201512150320 METAR ESMX 150320Z AUTO 00000KT 9000 FEW013/// OVC017/// 00/M00 Q1023=
201512150250 METAR ESMX 150250Z AUTO 00000KT 9000 SCT009/// BKN018/// 00/M00 Q1023=
201512150220 METAR ESMX 150220Z AUTO 00000KT 3900 -RA OVC007/// 00/M00 Q1023=
201512150150 METAR ESMX 150150Z AUTO VRB02KT 9999 -RA SCT008/// BKN012/// OVC017/// 00/M00 Q1023 REUP RESHUP REFZRA=
201512150120 METAR ESMX 150120Z AUTO 13004KT 8000 -DZ FEW011/// SCT014/// BKN018/// 00/M00 Q1023 REFZUP=
201512150050 METAR ESMX 150050Z 14003KT 9999 -SN SCT012 BKN017 OVC027 M01/M01 Q1023=
201512150020 METAR ESMX 150020Z VRB01KT 9999 SCT011 OVC023 M01/M01 Q1023=
201512142350 METAR ESMX 142350Z 00000KT 9999 BKN011 OVC015 M01/M01 Q1023=
201512142320 METAR ESMX 142320Z VRB01KT 9999 FEW012 SCT016 BKN019 M01/M02 Q1023=
201512142250 METAR ESMX 142250Z 00000KT 9999 FEW013 SCT021 BKN035 M02/M02 Q1023=
201512142220 METAR ESMX 142220Z 14003KT 9999 FEW012 SCT040 M01/M02 Q1023=
201512142150 METAR ESMX 142150Z 14003KT 9999 FEW013 BKN031 M00/M01 Q1023=
201512142120 METAR ESMX 142120Z 17003KT 9999 OVC028 00/M01 Q1023=
201512142050 METAR ESMX 142050Z VRB02KT 9999 OVC028 M01/M02 Q1023=
201512142020 METAR ESMX 142020Z VRB03KT 9999 SCT027 M00/M01 Q1023=
201512141950 METAR ESMX 141950Z 15003KT 9999 BKN026 00/M02 Q1023=
201512141920 METAR ESMX 141920Z 16004KT 9999 OVC025 M00/M02 Q1023=
201512141850 METAR ESMX 141850Z 17004KT 9999 BKN022 M00/M02 Q1023=
201512141820 METAR ESMX 141820Z 16004KT 9999 FEW021 SCT027 M00/M02 Q1023=
201512141750 METAR ESMX 141750Z 14003KT 9999 SCT022 M01/M02 Q1023=
201512141720 METAR ESMX 141720Z 14004KT 9999 FEW023 M00/M02 Q1023=
201512141650 METAR ESMX 141650Z 15003KT 120V200 9999 BKN022 M00/M02 Q1023=
201512141620 METAR ESMX 141620Z 14004KT 9999 FEW018 M00/M02 Q1023=
201512141550 METAR ESMX 141550Z 15003KT 9999 FEW014 M01/M02 Q1023=
201512141520 METAR ESMX 141520Z 16004KT 9999 SCT013 M01/M02 Q1023=
201512141450 METAR ESMX 141450Z 15004KT 9999 FEW012 SCT038 M01/M02 Q1023=
201512141420 METAR ESMX 141420Z 15003KT 9999 BKN038 M01/M02 Q1023=
201512141350 METAR ESMX 141350Z 16003KT 9999 BKN039 M01/M02 Q1023=
201512141320 METAR ESMX 141320Z 16003KT 9999 SCT027 OVC039 M01/M02 Q1023=
201512141250 METAR ESMX 141250Z 15003KT 9999 FEW025 BKN035 M01/M02 Q1023=
201512141220 METAR ESMX 141220Z 16002KT 9999 SCT034 M01/M02 Q1023=
201512141150 METAR ESMX 141150Z 16003KT 9999 SCT036 M01/M02 Q1023=
201512141120 METAR ESMX 141120Z 17003KT CAVOK M01/M02 Q1023=
201512141050 METAR ESMX 141050Z 19003KT CAVOK M01/M03 Q1023=
201512141020 METAR ESMX 141020Z 19003KT CAVOK M02/M03 Q1023=
201512140950 METAR COR ESMX 140950Z 19003KT CAVOK M02/M03 Q1023=
201512140920 METAR ESMX 140920Z 20003KT CAVOK M03/M04 Q1023=
201512140850 METAR ESMX 140850Z 21003KT CAVOK M03/M04 Q1023=
201512140820 METAR ESMX 140820Z 16002KT CAVOK M04/M04 Q1023=
201512140750 METAR ESMX 140750Z AUTO 22004KT 9999 NCD M04/M05 Q1022=
201512140720 METAR ESMX 140720Z 23005KT CAVOK M05/M06 Q1022=
201512140650 METAR ESMX 140650Z 22003KT CAVOK M06/M06 Q1022=
201512140620 METAR ESMX 140620Z 18003KT CAVOK M06/M07 Q1022=
201512140550 METAR ESMX 140550Z VRB02KT CAVOK M05/M06 Q1022=
201512140520 METAR ESMX 140520Z 22003KT CAVOK M05/M06 Q1022=
201512140450 METAR ESMX 140450Z 23004KT CAVOK M06/M07 Q1022=
201512140420 METAR ESMX 140420Z AUTO 22003KT 9999 NCD M06/M07 Q1021=
201512140350 METAR ESMX 140350Z AUTO 21002KT 9999 NCD M05/M05 Q1021=
201512140320 METAR ESMX 140320Z AUTO 25003KT 9999 NCD M05/M05 Q1021=
201512140250 METAR ESMX 140250Z AUTO 24004KT 9999 NCD M05/M06 Q1021=
201512140220 METAR ESMX 140220Z AUTO 24004KT 9999 NCD M04/M05 Q1021=
201512140150 METAR ESMX 140150Z AUTO 26005KT 9999 NCD M05/M05 Q1021=
201512140120 METAR ESMX 140120Z AUTO 26004KT 9999 NCD M05/M06 Q1021=
201512140050 METAR ESMX 140050Z AUTO 28003KT 9999 NCD M04/M05 Q1021=
201512140020 METAR COR ESMX 140020Z 29004KT CAVOK M04/M05 Q1020=
201512132350 METAR COR ESMX 132350Z 28005KT CAVOK M04/M05 Q1020=
201512132320 METAR COR ESMX 132320Z 28004KT CAVOK M04/M05 Q1020=
201512132250 METAR ESMX 132250Z 26005KT CAVOK M04/M05 Q1020=
201512132220 METAR ESMX 132220Z 25005KT CAVOK M04/M05 Q1019=
201512132150 METAR ESMX 132150Z 29005KT CAVOK M04/M05 Q1019=
201512132120 METAR ESMX 132120Z 27005KT CAVOK M03/M04 Q1019=
201512132050 METAR ESMX 132050Z 26005KT CAVOK M03/M04 Q1018=
201512132020 METAR ESMX 132020Z 27004KT CAVOK M03/M04 Q1018=
201512131950 METAR ESMX 131950Z 28006KT CAVOK M03/M04 Q1018=
201512131920 METAR ESMX 131920Z 30006KT CAVOK M02/M04 Q1017=
201512131850 METAR ESMX 131850Z 29006KT CAVOK M02/M04 Q1017=
201512131820 METAR ESMX 131820Z 29005KT CAVOK M02/M04 Q1017=
201512131750 METAR ESMX 131750Z 29006KT CAVOK M02/M04 Q1016=
201512131720 METAR ESMX 131720Z 29006KT CAVOK M02/M04 Q1016=
201512131650 METAR ESMX 131650Z 30006KT CAVOK M02/M04 Q1015=
201512131620 METAR ESMX 131620Z 30005KT CAVOK M02/M03 Q1015=
201512131550 METAR ESMX 131550Z 31004KT CAVOK M01/M03 Q1014=
201512131520 METAR ESMX 131520Z 31005KT CAVOK M01/M04 Q1014=
201512131450 METAR ESMX 131450Z 33008KT CAVOK M00/M04 Q1013=
201512131420 METAR ESMX 131420Z 33008KT 290V350 CAVOK 00/M03 Q1013=
201512131350 METAR ESMX 131350Z 34008KT CAVOK 01/M03 Q1012=
201512131320 METAR ESMX 131320Z 32007KT CAVOK 01/M02 Q1012=
201512131250 METAR ESMX 131250Z 31006KT CAVOK 02/M01 Q1011=
201512131220 METAR ESMX 131220Z 31006KT 280V350 CAVOK 02/M02 Q1011=
201512131150 METAR ESMX 131150Z 34005KT CAVOK 02/M02 Q1010=
201512131120 METAR ESMX 131120Z AUTO 33006KT 9999 NCD 02/M01 Q1010=
201512131050 METAR ESMX 131050Z AUTO 34006KT 9999 NCD 01/M01 Q1009=
201512131020 METAR ESMX 131020Z AUTO 34007KT 9999 NCD 01/M00 Q1009=
201512130950 METAR ESMX 130950Z AUTO 34007KT 9999 FEW006/// SCT008/// BKN012/// 01/00 Q1009=
201512130920 METAR ESMX 130920Z AUTO 34009KT 9999 OVC006/// 02/01 Q1008=
201512130850 METAR ESMX 130850Z AUTO 35009KT 9999 BKN005/// OVC008/// 02/01 Q1008 REDZ REUP=
201512130820 METAR ESMX 130820Z AUTO 34007KT 9999 BKN005/// OVC009/// 02/02 Q1007=
201512130750 METAR ESMX 130750Z 34007KT 9999 SCT006 OVC009 03/02 Q1007=
201512130720 METAR ESMX 130720Z 33005KT 8000 -RA FEW003 SCT006 BKN010 03/03 Q1006=
201512130650 METAR ESMX 130650Z 03003KT 9999 FEW005 BKN007 03/03 Q1006=
201512130620 METAR ESMX 130620Z 01003KT 9999 SCT003 BKN007 03/03 Q1006=
201512130550 METAR ESMX 130550Z AUTO 36005KT 8000 FEW002/// OVC004/// 03/03 Q1006=
201512130520 METAR ESMX 130520Z AUTO 00000KT 0250 R01/0800N R19/1000U FG BKN001/// OVC004/// 03/03 Q1006=
201512130450 METAR ESMX 130450Z AUTO 00000KT 0200 R01/0700N R19/0800N FG VV001 03/03 Q1006=
201512130420 METAR ESMX 130420Z AUTO 00000KT 0150 R01/0650N R19/0550N FG VV001 03/02 Q1006=
201512130350 METAR ESMX 130350Z AUTO 00000KT 0150 R01/0650N R19/0600N FG VV001 03/02 Q1006=
201512130320 METAR ESMX 130320Z AUTO 00000KT 0200 R01/0700N R19/0750N FG VV001 03/02 Q1006=
201512130250 METAR ESMX 130250Z AUTO 19004KT 0300 R01/0900N R19/1000D FG VV001 03/03 Q1006=
201512130220 METAR ESMX 130220Z AUTO 18004KT 1200 R01/P2000N R19/P2000N BR VV002 03/03 Q1007=
201512130150 METAR ESMX 130150Z AUTO 20003KT 1100 R01/P2000N R19/P2000N VV002 03/03 Q1007=
201512130120 METAR ESMX 130120Z AUTO VRB02KT 0750 R01/P2000N R19/P2000D VV002 03/03 Q1007=
201512130050 METAR ESMX 130050Z AUTO 23004KT 200V260 1100 R01/P2000N R19/P2000N BR OVC001/// 03/03 Q1007=
201512130020 METAR ESMX 130020Z AUTO 24004KT 210V270 5000 BR OVC001/// 03/03 Q1008=
201512122350 METAR ESMX 122350Z AUTO 23005KT 4800 BR OVC001/// 03/03 Q1008=
201512122320 METAR ESMX 122320Z AUTO 23004KT 9999 OVC002/// 03/03 Q1008=
201512122250 METAR ESMX 122250Z AUTO 22006KT 9999 FEW005/// SCT012/// BKN016/// 03/02 Q1009=
201512122220 METAR ESMX 122220Z AUTO 22006KT 9999 OVC010/// 03/02 Q1009=
201512122150 METAR ESMX 122150Z AUTO 22006KT 9999 SCT004/// BKN009/// OVC011/// 03/02 Q1009=
201512122120 METAR ESMX 122120Z AUTO 21005KT 9999 FEW004/// SCT007/// 02/01 Q1009=
201512122050 METAR ESMX 122050Z 23006KT 9999 FEW007 BKN025 03/02 Q1009=
201512122020 METAR ESMX 122020Z 24006KT 9999 FEW020 BKN025 03/02 Q1009=
201512121950 METAR ESMX 121950Z 24007KT 9999 BKN025 03/02 Q1009=
201512121920 METAR ESMX 121920Z 23007KT 9999 BKN025 03/02 Q1009=
201512121850 METAR ESMX 121850Z AUTO 24007KT 9999 FEW026/// 03/02 Q1010=
201512121820 METAR ESMX 121820Z AUTO 24008KT 9999 BKN024/// 03/02 Q1009=
201512121750 METAR ESMX 121750Z AUTO 22007KT 9999 BKN022/// 03/01 Q1009=
201512121720 METAR ESMX 121720Z AUTO 23006KT 9999 SCT023/// 02/01 Q1009=
201512121650 METAR ESMX 121650Z AUTO 23007KT 9999 SCT023/// 03/01 Q1009=
201512121620 METAR ESMX 121620Z AUTO 24007KT 9999 BKN022/// 03/01 Q1009=
201512121550 METAR ESMX 121550Z AUTO 26007KT 9999 FEW017/// OVC021/// 04/01 Q1009=
201512121520 METAR ESMX 121520Z AUTO 27008KT 9999 FEW013/// SCT018/// BKN020/// 04/02 Q1009=
201512121450 METAR ESMX 121450Z AUTO 26008KT 9999 FEW013/// SCT017/// BKN023/// 04/02 Q1009=
201512121420 METAR ESMX 121420Z AUTO 26007KT 9999 FEW018/// BKN021/// 04/02 Q1009=
201512121350 METAR ESMX 121350Z AUTO 27008KT 9999 FEW018/// OVC022/// 05/02 Q1008=
201512121320 METAR ESMX 121320Z AUTO 26010KT 9999 FEW017/// BKN020/// 05/02 Q1008=
201512121250 METAR ESMX 121250Z AUTO 27011KT 240V300 9999 FEW015/// SCT019/// BKN022/// 05/02 Q1008=
201512121220 METAR ESMX 121220Z AUTO 26010KT 9999 SCT015/// OVC021/// 05/02 Q1008=
201512121150 METAR ESMX 121150Z AUTO 26008KT 220V300 9999 FEW015/// BKN017/// OVC022/// 05/02 Q1007=
201512121120 METAR ESMX 121120Z AUTO 27009KT 9999 FEW017/// BKN023/// 05/02 Q1007=
201512121050 METAR ESMX 121050Z AUTO 26010KT 9999 FEW015/// OVC024/// 05/03 Q1007=
201512121020 METAR ESMX 121020Z AUTO 26010KT 9999 BKN023/// 04/02 Q1007=
201512120950 METAR ESMX 120950Z AUTO 26009KT 9999 FEW013/// BKN024/// 04/02 Q1007=
201512120920 METAR ESMX 120920Z AUTO 26008KT 9999 FEW009/// SCT013/// BKN023/// 03/02 Q1007=
201512120850 METAR ESMX 120850Z AUTO 26006KT 9999 FEW020/// BKN023/// 03/02 Q1006=
201512120820 METAR ESMX 120820Z AUTO 26008KT 9999 FEW009/// SCT013/// BKN015/// 03/02 Q1006=
201512120750 METAR ESMX 120750Z AUTO 27010KT 9999 OVC011/// 03/02 Q1006=
201512120720 METAR ESMX 120720Z AUTO 26009KT 220V300 9999 FEW010/// SCT013/// OVC016/// 03/02 Q1006=
201512120650 METAR ESMX 120650Z AUTO 24007KT 9999 FEW008/// SCT011/// BKN014/// 03/02 Q1005=
201512120620 METAR ESMX 120620Z AUTO 24006KT 9999 FEW010/// BKN014/// OVC020/// 03/02 Q1005=
201512120550 METAR ESMX 120550Z AUTO 22006KT 9999 FEW014/// BKN019/// BKN022/// 03/02 Q1005=
201512120520 METAR ESMX 120520Z AUTO 22005KT 9999 BKN013/// 02/02 Q1005=
201512120450 METAR ESMX 120450Z AUTO 25008KT 9999 FEW008/// SCT014/// 02/01 Q1005=
201512120420 METAR ESMX 120420Z AUTO 26009KT 9999 FEW008/// BKN011/// OVC015/// 03/02 Q1005=
201512120350 METAR ESMX 120350Z AUTO 26008KT 9999 FEW007/// SCT009/// BKN011/// 03/02 Q1004=
201512120320 METAR ESMX 120320Z AUTO 24008KT 9999 SCT008/// OVC010/// 03/02 Q1004=
201512120250 METAR ESMX 120250Z AUTO 27009KT 9999 SCT008/// OVC011/// 03/02 Q1004=
201512120220 METAR ESMX 120220Z AUTO 25008KT 9999 FEW008/// SCT010/// BKN014/// 03/02 Q1004=
201512120150 METAR ESMX 120150Z AUTO 24009KT 9999 FEW007/// OVC019/// 03/02 Q1004=
201512120120 METAR ESMX 120120Z AUTO 25008KT 9999 FEW008/// SCT010/// OVC024/// 02/01 Q1004=
201512120050 METAR ESMX 120050Z AUTO 26009KT 9999 FEW008/// BKN012/// OVC017/// 03/01 Q1004=
201512120020 METAR ESMX 120020Z AUTO 25009KT 9999 FEW007/// OVC010/// 02/01 Q1004=
201512112350 METAR ESMX 112350Z AUTO 24008KT 9999 OVC008/// 03/01 Q1004=
201512112320 METAR ESMX 112320Z AUTO 26008KT 230V290 9999 FEW009/// BKN011/// OVC016/// 03/02 Q1004=
201512112250 METAR ESMX 112250Z AUTO 26009KT 9999 FEW006/// SCT009/// BKN010/// 03/02 Q1004 RESHUP REUP=
201512112220 METAR ESMX 112220Z AUTO 24006KT 220V280 9999 BKN007/// OVC012/// 03/02 Q1004=
201512112150 METAR ESMX 112150Z AUTO 24009KT 9999 FEW006/// SCT008/// BKN010/// 03/02 Q1004=
201512112120 METAR ESMX 112120Z AUTO 24007KT 210V280 9999 FEW005/// BKN008/// OVC011/// 03/02 Q1004=
201512112050 METAR ESMX 112050Z 25008KT 9999 FEW008 SCT009 OVC010 03/02 Q1004=
201512112020 METAR ESMX 112020Z 26008KT 9999 SCT007 OVC009 03/02 Q1004=
201512111950 METAR ESMX 111950Z 25008KT 9999 -RA SCT007 BKN012 03/02 Q1003=
201512111920 METAR ESMX 111920Z 25009KT 220V290 5000 RA SCT006 BKN008 03/02 Q1004=
201512111850 METAR COR ESMX 111850Z 24008KT 9999 -RA FEW006 BKN010 BKN015 03/02 Q1003=
201512111820 METAR ESMX 111820Z 23010KT 8000 DZ FEW008 BKN011 OVC015 03/02 Q1003 RESHUP RERA=
201512111750 METAR ESMX 111750Z 22009KT 9999 FEW008 BKN016 BKN020 03/02 Q1003=
201512111720 METAR ESMX 111720Z 23011KT 9999 -RA FEW008 SCT010 BKN015 03/02 Q1003=
201512111650 METAR ESMX 111650Z 22010KT 9999 FEW008 SCT011 BKN014 03/02 Q1003=
201512111620 METAR ESMX 111620Z 21011KT 9999 FEW008 BKN010 OVC014 03/02 Q1004=
201512111550 METAR ESMX 111550Z 20010KT 9999 FEW007 BKN010 BKN031 03/02 Q1004=
201512111520 METAR ESMX 111520Z 21010KT 9999 FEW012 SCT023 BKN031 03/02 Q1005=
201512111450 METAR ESMX 111450Z 21009KT 180V240 9999 FEW012 BKN020 BKN050 03/02 Q1005=
201512111420 METAR ESMX 111420Z 21010KT 9999 -RA FEW009 SCT013 BKN045 03/02 Q1005=
201512111350 METAR ESMX 111350Z 19014KT 8000 -RA FEW010 SCT017 BKN020 05/04 Q1005=
201512111320 METAR COR ESMX 111320Z 18010KT 9999 FEW010 SCT014 BKN017 05/04 Q1006=
201512111250 METAR ESMX 111250Z 18010KT 9999 FEW010 SCT014 BKN017 05/04 Q1006=
201512111220 METAR ESMX 111220Z 17009KT 9999 -RA FEW010 BKN013 OVC021 05/04 Q1007=
201512111150 METAR ESMX 111150Z 18009KT 9999 FEW011 BKN015 05/03 Q1008=
201512111120 METAR ESMX 111120Z 19010KT 9999 FEW011 SCT015 BKN022 05/03 Q1008=
201512111050 METAR COR ESMX 111050Z 21009KT 9999 FEW011 SCT015 BKN018 05/03 Q1009=
201512111020 METAR ESMX 111020Z 22011KT 9999 FEW008 BKN012 05/03 Q1009=
201512110950 METAR ESMX 110950Z 22010KT 9999 FEW008 BKN011 05/04 Q1009=
201512110920 METAR ESMX 110920Z 21011KT 9999 FEW008 BKN011 05/03 Q1010=
201512110850 METAR ESMX 110850Z 22010KT 9999 FEW008 BKN010 05/04 Q1010=
201512110820 METAR ESMX 110820Z 22011KT 170V240 9999 FEW007 BKN009 05/04 Q1010=
201512110750 METAR ESMX 110750Z 21012KT 9999 SCT007 BKN010 05/04 Q1010=
201512110720 METAR ESMX 110720Z 22010KT 9999 FEW007 BKN010 05/04 Q1010=
201512110650 METAR ESMX 110650Z 24009KT 200V260 9999 FEW007 SCT009 BKN011 05/04 Q1010=
201512110620 METAR ESMX 110620Z 22010KT 9999 FEW008 SCT011 05/04 Q1010=
201512110550 METAR ESMX 110550Z 22010KT 9999 FEW010 SCT019 05/04 Q1010=
201512110520 METAR ESMX 110520Z 22007KT 9999 FEW042 03/03 Q1010=
201512110450 METAR ESMX 110450Z 23009KT 190V250 9999 RA FEW006 SCT008 BKN010 05/04 Q1011=
201512110420 METAR ESMX 110420Z AUTO 21008KT 9999 FEW006/// BKN008/// OVC011/// 05/04 Q1011 RESHUP=
201512110350 METAR ESMX 110350Z AUTO 22009KT 9999 UP FEW012/// SCT017/// BKN022/// 05/04 Q1011=
201512110320 METAR ESMX 110320Z AUTO 23011KT 9999 -DZ FEW014/// SCT026/// BKN032/// 05/04 Q1011=
201512110250 METAR ESMX 110250Z AUTO 22008KT 9999 -DZ FEW007/// SCT012/// 05/05 Q1011 REDZ=
201512110220 METAR ESMX 110220Z AUTO 21010KT 9999 -RA FEW006/// SCT014/// BKN017/// 06/05 Q1011 REDZ=
201512110150 METAR ESMX 110150Z AUTO 22010KT 9999 DZ FEW007/// SCT011/// BKN015/// 06/05 Q1012=
201512110120 METAR ESMX 110120Z 22010KT 9999 -RA FEW007 SCT009 BKN012 06/05 Q1012=
201512110050 METAR ESMX 110050Z 20011KT 9999 SCT004 BKN007 06/05 Q1012=
201512110020 METAR ESMX 110020Z 22010KT 9999 BKN005 OVC009 06/05 Q1013=
201512102350 METAR ESMX 102350Z 23008KT 200V260 3000 DZ SCT004 BKN007 06/05 Q1013=
201512102320 METAR ESMX 102320Z 20011KT 6000 -RA FEW005 OVC007 06/05 Q1013=
201512102250 METAR ESMX 102250Z 21012KT 9000 DZ BKN006 OVC010 06/05 Q1013=
201512102220 METAR ESMX 102220Z 20014KT 9000 DZ BKN006 OVC010 06/05 Q1013=
201512102150 METAR ESMX 102150Z 21013KT 9999 DZ FEW006 OVC009 06/05 Q1014=
201512102120 METAR ESMX 102120Z 21013KT 9999 DZ SCT006 OVC008 06/05 Q1014=
201512102050 METAR ESMX 102050Z 21013KT 6000 DZ SCT005 OVC008 06/06 Q1014=
201512102020 METAR ESMX 102020Z 20014KT 9999 DZ FEW005 OVC006 06/05 Q1014=
201512101950 METAR ESMX 101950Z 20015KT 8000 -DZ OVC005 06/05 Q1014=
201512101920 METAR ESMX 101920Z 20014KT 9999 -DZ SCT007 OVC009 06/05 Q1015=
201512101850 METAR ESMX 101850Z 22015KT 9999 DZ BKN006 OVC009 06/05 Q1015=
201512101820 METAR ESMX 101820Z 21015KT 9000 -RA OVC006 06/05 Q1015=
201512101750 METAR ESMX 101750Z 20016KT 9999 OVC006 06/05 Q1015=
201512101720 METAR ESMX 101720Z 21015KT 9999 -RA FEW005 OVC006 06/05 Q1015 REDZ=
201512101650 METAR ESMX 101650Z 20015G25KT 3300 -DZ FEW004 OVC005 06/06 Q1016=
201512101620 METAR ESMX 101620Z 21016KT 3400 -DZ BKN005 OVC007 06/05 Q1016=
201512101550 METAR ESMX 101550Z 20016KT 3600 BR FEW004 BKN006 OVC009 06/05 Q1016 REDZ=
201512101520 METAR ESMX 101520Z 21015KT 2800 DZ OVC004 06/06 Q1016 REDZ=
201512101450 METAR ESMX 101450Z 20016KT 5000 BR OVC005 06/06 Q1016 REDZ=
201512101420 METAR ESMX 101420Z 20017KT 4800 BR FEW005 SCT006 OVC007 07/06 Q1016=
201512101350 METAR ESMX 101350Z 20016KT 2700 DZ FEW005 BKN006 OVC008 07/06 Q1017=
201512101320 METAR ESMX 101320Z 20016KT 2500 -RA BKN005 OVC008 07/06 Q1017 REDZ=
201512101250 METAR ESMX 101250Z 20016KT 2800 DZ FEW004 BKN006 OVC008 07/06 Q1017=
201512101220 METAR ESMX 101220Z 20016KT 2600 DZ BKN005 OVC008 07/06 Q1017=
201512101150 METAR ESMX 101150Z 21016G26KT 3900 DZ BKN005 07/06 Q1017=
201512101120 METAR ESMX 101120Z 21017KT 5000 BR FEW005 SCT007 OVC008 07/06 Q1018 REDZ=
201512101050 METAR ESMX 101050Z 21017KT 2900 DZ FEW003 OVC005 07/06 Q1018=
201512101020 METAR ESMX 101020Z 22017KT 3800 DZ OVC004 07/06 Q1018=
201512100950 METAR ESMX 100950Z 21017G27KT 3200 DZ BKN004 BKN005 07/06 Q1018=
201512100920 METAR ESMX 100920Z 21017G26KT 2800 -DZ SCT007 OVC009 07/06 Q1019=
201512100850 METAR ESMX 100850Z 21016KT 5000 DZ OVC009 07/06 Q1019=
201512100820 METAR ESMX 100820Z 22014KT 4500 BR FEW007 SCT009 OVC010 07/05 Q1019=
201512100750 METAR ESMX 100750Z 20018KT 6000 BR OVC011 07/05 Q1019=
201512100720 METAR ESMX 100720Z 20017KT 9999 OVC012 07/04 Q1019=
201512100650 METAR ESMX 100650Z 20016G27KT 9999 OVC013 07/04 Q1019=
201512100620 METAR ESMX 100620Z 21016G24KT 9999 OVC013 06/04 Q1020=
201512100550 METAR ESMX 100550Z 21017KT 9999 OVC013 06/04 Q1020=
201512100520 METAR ESMX 100520Z 20017KT 9999 OVC015 06/04 Q1020=
201512100450 METAR ESMX 100450Z 20018KT 9999 OVC015 06/04 Q1021=
201512100420 METAR ESMX 100420Z AUTO 21016KT 9999 SCT014/// BKN019/// OVC023/// 06/04 Q1021=
201512100350 METAR ESMX 100350Z AUTO 22014KT 180V240 9999 BKN014/// OVC020/// 06/04 Q1021=
201512100320 METAR ESMX 100320Z AUTO 21015KT 9999 FEW012/// SCT015/// BKN017/// 06/04 Q1021=
201512100250 METAR ESMX 100250Z AUTO 21013KT 9999 SCT010/// BKN015/// OVC023/// 06/04 Q1022=
201512100220 METAR ESMX 100220Z AUTO 20012KT 9999 FEW007/// SCT009/// BKN010/// 06/05 Q1022=
201512100150 METAR ESMX 100150Z AUTO 20011KT 9999 BKN006/// OVC009/// 06/05 Q1023 REUP REDZ=
201512100120 METAR ESMX 100120Z AUTO 22014KT 5000 BR OVC006/// 06/05 Q1023=
201512100050 METAR ESMX 100050Z 20013KT 9999 OVC006 05/04 Q1023=
201512100020 METAR ESMX 100020Z 20012KT 9999 OVC006 05/04 Q1024=
201512092350 METAR ESMX 092350Z 20012KT 9999 OVC007 05/04 Q1024=
201512092320 METAR ESMX 092320Z 20012KT 9999 SCT010 BKN014 05/03 Q1024=
201512092250 METAR ESMX 092250Z 22011KT 9999 FEW011 BKN017 04/03 Q1025=
201512092220 METAR ESMX 092220Z 19010KT 9999 FEW009 SCT013 OVC020 04/03 Q1025=
201512092150 METAR ESMX 092150Z 20008KT 9999 FEW010 04/03 Q1025=
201512092120 METAR ESMX 092120Z 22008KT 9999 FEW017 03/03 Q1025=
201512092050 METAR ESMX 092050Z 20007KT CAVOK 03/02 Q1025=
201512092020 METAR ESMX 092020Z 22009KT CAVOK 03/02 Q1025=
201512091950 METAR ESMX 091950Z 22008KT CAVOK 03/02 Q1025=
201512091920 METAR ESMX 091920Z 23008KT 9999 FEW019 03/02 Q1025=
201512091850 METAR ESMX 091850Z 22008KT CAVOK 03/02 Q1025=
201512091820 METAR ESMX 091820Z 22008KT CAVOK 03/02 Q1025=
201512091750 METAR ESMX 091750Z 24007KT CAVOK 04/03 Q1025=
201512091720 METAR ESMX 091720Z 25008KT CAVOK 04/03 Q1025=
201512091650 METAR ESMX 091650Z 23007KT CAVOK 04/03 Q1024=
201512091620 METAR ESMX 091620Z 25009KT 9999 FEW025 05/03 Q1024=
201512091550 METAR ESMX 091550Z 24009KT 9999 FEW030 05/03 Q1024=
201512091520 METAR ESMX 091520Z 26009KT 9999 FEW023 05/03 Q1024=
201512091450 METAR ESMX 091450Z 26009KT 9999 FEW022 SCT030 06/03 Q1023=
201512091420 METAR ESMX 091420Z 26010KT 9999 FEW020 SCT025 BKN042 06/04 Q1023=
201512091350 METAR ESMX 091350Z 26008KT 9999 FEW017 SCT022 BKN031 07/05 Q1022=
201512091320 METAR ESMX 091320Z 26009KT 220V280 9999 FEW014 SCT020 BKN036 07/05 Q1022=
201512091250 METAR ESMX 091250Z 25010KT 9999 FEW012 BKN038 07/06 Q1022=
201512091220 METAR ESMX 091220Z 24011KT 200V280 9999 FEW012 SCT018 BKN024 07/06 Q1022=
201512091150 METAR ESMX 091150Z 24010KT 9999 FEW013 SCT017 BKN022 08/06 Q1021=
201512091120 METAR ESMX 091120Z 24010KT 9999 FEW013 SCT019 BKN039 07/06 Q1021=
201512091050 METAR ESMX 091050Z 24009KT 9999 FEW011 SCT015 08/06 Q1021=
201512091020 METAR ESMX 091020Z 23009KT 190V260 9999 FEW012 SCT018 BKN043 08/06 Q1021=
201512090950 METAR ESMX 090950Z 25010KT 9999 FEW010 SCT012 BKN015 08/06 Q1021=
201512090920 METAR ESMX 090920Z 24008KT 210V270 9999 FEW010 SCT013 BKN016 08/07 Q1020=
201512090850 METAR ESMX 090850Z 23008KT 9999 FEW005 BKN010 OVC015 08/07 Q1020=
201512090820 METAR ESMX 090820Z 21007KT 8000 BR FEW002 SCT004 BKN006 07/07 Q1020=
201512090750 METAR ESMX 090750Z 23008KT 6000 BR OVC002 07/07 Q1020=
201512090720 METAR ESMX 090720Z 21009KT 9000 BR OVC003 07/07 Q1019 REDZ=
201512090650 METAR ESMX 090650Z 22008KT 8000 BR BKN003 OVC006 07/07 Q1019=
201512090620 METAR ESMX 090620Z 22009KT 5000 -RA OVC003 07/07 Q1019 REDZ=
201512090550 METAR COR ESMX 090550Z 20008KT 2300 DZ SCT002 OVC005 07/07 Q1019=
201512090520 METAR COR ESMX 090520Z 19009KT 1800 DZ OVC003 07/07 Q1019=
201512090450 METAR ESMX 090450Z 19009KT 3000 DZ OVC003 07/07 Q1019=
201512090420 METAR ESMX 090420Z AUTO 18009KT 3100 -RA OVC003/// 07/07 Q1019 REUP=
201512090350 METAR ESMX 090350Z AUTO 17010KT 3200 BR OVC003/// 07/07 Q1019=
201512090320 METAR ESMX 090320Z AUTO 18010KT 3300 BR OVC003/// 07/07 Q1020=
201512090250 METAR ESMX 090250Z AUTO 18010KT 3600 BR OVC003/// 07/07 Q1020=
201512090220 METAR ESMX 090220Z AUTO 18009KT 3900 BR OVC004/// 07/07 Q1020=
201512090150 METAR ESMX 090150Z AUTO 18007KT 4600 BR OVC005/// 08/07 Q1021=
201512090120 METAR ESMX 090120Z AUTO 18008KT 4600 BR OVC004/// 07/07 Q1021=
201512090050 METAR ESMX 090050Z 18010KT 4500 BR OVC004 07/07 Q1021=
201512090020 METAR ESMX 090020Z 18010KT 4000 BR OVC004 07/07 Q1022=
201512082350 METAR COR ESMX 082350Z 18009KT 3500 BR OVC004 07/07 Q1022=
201512082320 METAR ESMX 082320Z 17008KT 3300 BR BKN003 OVC005 07/07 Q1022=
201512082250 METAR ESMX 082250Z 17009KT 3400 BR OVC002 07/07 Q1023=
201512082220 METAR ESMX 082220Z 17010KT 1700 BR VV002 07/07 Q1023=
201512082150 METAR ESMX 082150Z 17009KT 0900 R01/P2000N R19/P2000N FG VV002 07/07 Q1023=
201512082120 METAR ESMX 082120Z 17010KT 0600 R01/1500N R19/1800U FG VV002 07/07 Q1023=
201512082050 METAR ESMX 082050Z 17010KT 0600 R01/1600N R19/1900D FG VV002 07/07 Q1024=
201512082020 METAR ESMX 082020Z 17012KT 0600 R01/1500N R19/1900D FG VV002 07/07 Q1024=
201512081950 METAR ESMX 081950Z 18011KT 0650 R01/1600N R19/P2000D FG VV002 07/07 Q1024=
201512081920 METAR ESMX 081920Z 17010KT 0650 R01/1700N R19/1700D FG VV002 07/07 Q1024=
201512081850 METAR ESMX 081850Z 16011KT 120V180 0650 R01/1600N R19/P2000N FG VV002 07/07 Q1025=
201512081820 METAR ESMX 081820Z 16010KT 1400 R01/P2000N R19/P2000N BR VV002 07/07 Q1025=
201512081750 METAR ESMX 081750Z 16009KT 1700 BR VV002 07/07 Q1026=
201512081720 METAR ESMX 081720Z 17009KT 2100 BR VV002 07/07 Q1026=
201512081650 METAR ESMX 081650Z 17010KT 1800 VV002 07/07 Q1026=
201512081620 METAR ESMX 081620Z 16009KT 1000 R01/P2000N R19/P2000N VV002 07/07 Q1027=
201512081550 METAR ESMX 081550Z 16007KT 0500 R01/1400N R19/1700N FG VV002 07/06 Q1027=
201512081520 METAR ESMX 081520Z 16007KT 120V190 1100 R01/P2000N R19/P2000N BR VV002 06/06 Q1027=
201512081450 METAR ESMX 081450Z 17006KT 2600 DZ OVC001 06/06 Q1028=
201512081420 METAR ESMX 081420Z 16007KT 6000 -RA OVC001 06/05 Q1028=
201512081350 METAR ESMX 081350Z 16007KT 130V190 9000 BR OVC003 06/05 Q1028=
201512081320 METAR ESMX 081320Z 16007KT 130V200 9999 OVC004 06/05 Q1029=
201512081250 METAR ESMX 081250Z 17007KT 9000 DZ OVC005 06/05 Q1029=
201512081220 METAR ESMX 081220Z 16008KT 140V200 9999 -DZ FEW005 OVC008 06/05 Q1030=
201512081150 METAR ESMX 081150Z 16007KT 9999 DZ FEW004 BKN017 05/05 Q1030=
201512081120 METAR ESMX 081120Z 17009KT 9999 -DZ SCT005 BKN012 05/05 Q1030=
201512081050 METAR ESMX 081050Z 16009KT 9999 SCT004 BKN015 05/05 Q1031=
201512081020 METAR ESMX 081020Z 16009KT 9999 BKN005 OVC024 04/04 Q1031=
201512080950 METAR ESMX 080950Z 16008KT 9999 BKN004 OVC025 04/04 Q1031=
201512080920 METAR ESMX 080920Z 16006KT 130V190 0900 R01/1100U R19/1100U FG VV002 03/03 Q1032=
201512080850 METAR ESMX 080850Z 16006KT 0350 R01/0700N R19/0800N FG VV002 03/03 Q1032=
201512080820 METAR ESMX 080820Z 15006KT 0400 R01/0800N R19/0900N FG VV002 02/02 Q1032=
201512080750 METAR ESMX 080750Z 15006KT 0300 R01/0700N R19/0700N FG VV002 02/02 Q1032=
201512080720 METAR ESMX 080720Z 15004KT 110V170 0900 R01/1800D R19/P2000N FG VV002 01/01 Q1032=
201512080650 METAR ESMX 080650Z 16004KT 120V190 0650 R01/1600D R19/P2000N FG VV002 01/01 Q1032=
201512080620 METAR ESMX 080620Z VRB03KT 0700 R01/1100N R19/1200U FG VV002 00/00 Q1032=
201512080550 METAR ESMX 080550Z VRB03KT 0250 R01/0900N R19/0800N FG VV002 00/M00 Q1032=
201512080520 METAR ESMX 080520Z 00000KT 0150 R01/0600N R19/0550N FG VV002 00/00 Q1033=
201512080450 METAR ESMX 080450Z VRB02KT 0100 R01/0450N R19/0450N FG VV001 00/M00 Q1033=
201512080420 METAR ESMX 080420Z AUTO VRB02KT 0100 R01/0350N R19/0450N FG VV000 00/M00 Q1033=
201512080350 METAR ESMX 080350Z AUTO VRB01KT 0050 R01/0300N R19/0325N FG VV000 00/00 Q1033=
201512080320 METAR ESMX 080320Z AUTO 00000KT 0100 R01/0350N R19/0450N FG VV001 00/00 Q1033=
201512080250 METAR ESMX 080250Z AUTO VRB01KT 0200 R01/0750N R19/0650N FG VV001 01/00 Q1033=
201512080220 METAR ESMX 080220Z AUTO VRB01KT 0350 R01/1000D R19/1800D FG VV001 01/01 Q1033=
201512080150 METAR ESMX 080150Z AUTO 00000KT 0200 R01/0800N R19/0650U FG VV001 01/01 Q1034=
201512080120 METAR ESMX 080120Z AUTO 21004KT 0150 R01/0600N R19/0600N FG VV001 01/01 Q1034=
201512080050 METAR ESMX 080050Z 20002KT 0150 R01/0550N R19/0600N FG VV002 01/00 Q1034=
201512080020 METAR ESMX 080020Z VRB01KT 0150 R01/0650N R19/0900N FG VV002 00/M00 Q1034=
201512072350 METAR COR ESMX 072350Z 00000KT 0100 R01/0450N R19/0550N FG VV002 00/00 Q1034=
201512072320 METAR ESMX 072320Z 22002KT 0150 R01/0500N R19/0650N FG VV002 00/00 Q1034=
201512072250 METAR ESMX 072250Z VRB01KT 0100 R01/0550N R19/0450N FG VV001 01/01 Q1033=
201512072220 METAR ESMX 072220Z 21004KT 0150 R01/0700N R19/0450N FG VV001 01/01 Q1033=
201512072150 METAR ESMX 072150Z 00000KT 0100 R01/0350N R19/0400N FG VV002 02/01 Q1033=
201512072120 METAR ESMX 072120Z 00000KT 0150 R01/0500N R19/0600N FG VV002 02/02 Q1033=
201512072050 METAR ESMX 072050Z VRB02KT 0300 R01/0650N R19/0600N FG VV002 02/02 Q1032=
201512072020 METAR ESMX 072020Z 26004KT 230V300 0500 R01/P2000N R19/1400D FG VV002 02/02 Q1032=
201512071950 METAR ESMX 071950Z 23004KT 5000 R01/P2000N R19/1000D MIFG FEW005 01/01 Q1032=
201512071920 METAR ESMX 071920Z 00000KT 5000 MIFG NSC 01/01 Q1031=
201512071850 METAR COR ESMX 071850Z 24003KT 2800 BR NSC 01/01 Q1031=
201512071820 METAR ESMX 071820Z 24004KT 7000 BR NSC 02/02 Q1031=
201512071750 METAR ESMX 071750Z 24005KT CAVOK 02/01 Q1030=
201512071720 METAR ESMX 071720Z 26004KT CAVOK 03/02 Q1030=
201512071650 METAR ESMX 071650Z 21004KT CAVOK 03/02 Q1029=
201512071620 METAR ESMX 071620Z 24005KT CAVOK 04/02 Q1029=
201512071550 METAR ESMX 071550Z 24006KT CAVOK 04/02 Q1029=
201512071520 METAR ESMX 071520Z 25005KT 9999 FEW025 04/03 Q1029=
201512071450 METAR ESMX 071450Z 25005KT 9999 FEW025 04/02 Q1028=
201512071420 METAR ESMX 071420Z 25006KT 9999 FEW025 05/03 Q1028=
201512071350 METAR ESMX 071350Z 27008KT 9999 FEW020 SCT024 07/03 Q1027=
201512071320 METAR ESMX 071320Z 27007KT 9999 BKN019 07/03 Q1027=
201512071250 METAR ESMX 071250Z 28009KT 9999 SCT020 07/03 Q1026=
201512071220 METAR ESMX 071220Z 28008KT 250V320 9999 SCT019 07/03 Q1026=
201512071150 METAR ESMX 071150Z 26011KT 9999 SCT019 08/03 Q1025=
201512071120 METAR ESMX 071120Z 27009KT 210V300 9999 FEW019 SCT022 08/03 Q1025=
201512071050 METAR ESMX 071050Z 27012KT 9999 SCT020 08/03 Q1025=
201512071020 METAR ESMX 071020Z 27013KT 9999 SCT020 07/03 Q1024=
201512070950 METAR ESMX 070950Z 27014G24KT 9999 BKN018 07/04 Q1024=
201512070920 METAR ESMX 070920Z 26013KT 9999 BKN017 07/04 Q1023=
201512070850 METAR ESMX 070850Z 26013KT 9999 BKN018 07/04 Q1022=
201512070820 METAR ESMX 070820Z 27011KT 9999 BKN019 07/03 Q1021=
201512070750 METAR ESMX 070750Z 27011KT 230V290 9999 BKN020 07/03 Q1020=
201512070720 METAR ESMX 070720Z 28012KT 9999 BKN021 07/03 Q1020=
201512070650 METAR ESMX 070650Z 27013KT 9999 BKN022 07/03 Q1019=
201512070620 METAR ESMX 070620Z 26012KT 9999 OVC022 07/03 Q1019=
201512070550 METAR ESMX 070550Z 26011KT 9999 FEW025 07/02 Q1018=
201512070520 METAR ESMX 070520Z 25015KT 230V290 9999 FEW026 07/02 Q1017=
201512070450 METAR ESMX 070450Z 26015G29KT 9999 FEW025 07/02 Q1016=
201512070420 METAR ESMX 070420Z AUTO 26017KT 9999 NCD 07/02 Q1016=
201512070350 METAR ESMX 070350Z AUTO 26015KT 9999 FEW027/// SCT043/// 07/02 Q1015=
201512070320 METAR ESMX 070320Z AUTO 26016G29KT 230V290 9999 FEW028/// BKN042/// 07/02 Q1015=
201512070250 METAR ESMX 070250Z AUTO 26015G26KT 9999 FEW027/// SCT032/// OVC038/// 07/02 Q1015=
201512070220 METAR ESMX 070220Z AUTO 26017G27KT 9999 OVC025/// 07/02 Q1014=
201512070150 METAR ESMX 070150Z AUTO 26018G33KT 9999 FEW025/// SCT029/// BKN032/// 07/02 Q1013=
201512070120 METAR ESMX 070120Z AUTO 26016KT 240V300 9999 FEW027/// BKN031/// 07/02 Q1013=
201512070050 METAR ESMX 070050Z 26016G27KT 9999 BKN027 07/02 Q1012=
201512070020 METAR ESMX 070020Z 26015G27KT 9999 BKN025 07/02 Q1011=
201512062350 METAR ESMX 062350Z 25016KT 220V280 9999 BKN026 07/02 Q1011=
201512062320 METAR COR ESMX 062320Z 26015KT 9999 BKN025 07/02 Q1010=
201512062250 METAR ESMX 062250Z AUTO 25017KT 9999 FEW028/// BKN034/// 07/02 Q1009=
201512062220 METAR ESMX 062220Z 26016G27KT 230V290 9999 SCT025 07/03 Q1009=
201512062150 METAR ESMX 062150Z 26015G27KT 9999 SCT026 06/03 Q1008=
201512062120 METAR COR ESMX 062120Z 26016G32KT 9999 SCT026 07/03 Q1008=
201512062050 METAR ESMX 062050Z 26016KT 9999 SCT023 07/03 Q1007=
201512062020 METAR ESMX 062020Z 26015G25KT 9999 SCT020 07/04 Q1006=
201512061950 METAR ESMX 061950Z 26015G29KT 9999 FEW020 07/04 Q1006=
201512061920 METAR COR ESMX 061920Z 27019G31KT 240V300 9999 SCT018 08/04 Q1004=
201512061850 METAR ESMX 061850Z 27017G29KT 9999 FEW010 BKN015 09/06 Q1004=
201512061820 METAR COR ESMX 061820Z 26021G35KT 230V290 9999 FEW009 BKN012 10/07 Q1003=
201512061750 METAR ESMX 061750Z 24017G28KT 7000 DZ FEW013 SCT016 BKN018 10/08 Q1001 REDZ=
201512061720 METAR COR ESMX 061720Z 23020G30KT 200V270 9999 FEW009 SCT014 BKN018 10/08 Q1001=
201512061650 METAR ESMX 061650Z 23019G29KT 6000 DZ FEW006 BKN008 BKN012 10/09 Q1001=
201512061620 METAR ESMX 061620Z 22019G31KT 3300 DZ FEW005 SCT009 OVC010 10/09 Q1001 REDZ=
201512061550 METAR ESMX 061550Z 23019G30KT 3500 -DZ FEW006 SCT007 OVC009 09/08 Q1001=
201512061520 METAR ESMX 061520Z 21018KT 3400 DZ FEW006 SCT008 OVC010 09/08 Q1001=
201512061450 METAR ESMX 061450Z 22019G31KT 4100 DZ FEW006 SCT008 OVC010 09/08 Q1001=
201512061420 METAR ESMX 061420Z 23019G31KT 2800 DZ FEW007 BKN009 OVC011 09/08 Q1001 REDZ=
201512061350 METAR ESMX 061350Z 23019KT 9000 -RA BKN008 OVC011 09/08 Q1001 REDZ=
201512061320 METAR ESMX 061320Z 21020G31KT 8000 -DZ FEW006 BKN008 OVC010 09/08 Q1001=
201512061250 METAR ESMX 061250Z 21017G27KT 7000 -DZ FEW008 OVC010 09/08 Q1001=
201512061220 METAR ESMX 061220Z 21017KT 9999 -DZ FEW008 BKN010 OVC015 09/08 Q1002 REDZ=
201512061150 METAR ESMX 061150Z 22015G25KT 9999 -RA FEW008 SCT009 BKN011 09/08 Q1002=
201512061120 METAR ESMX 061120Z AUTO 21016KT 9000 -RA FEW007/// SCT009/// OVC010/// 09/08 Q1002=
201512061050 METAR ESMX 061050Z AUTO 22018KT 9000 DZ FEW007/// OVC009/// 09/08 Q1002=
201512061020 METAR ESMX 061020Z AUTO 22017KT 7000 -DZ FEW007/// OVC009/// 09/08 Q1002=
201512060950 METAR ESMX 060950Z AUTO 22018G29KT 8000 -DZ FEW007/// OVC008/// 09/08 Q1002=
201512060920 METAR ESMX 060920Z AUTO 22017KT 5000 -DZ BKN006/// OVC009/// 09/08 Q1002=
201512060850 METAR ESMX 060850Z AUTO 21017KT 5000 -DZ FEW005/// OVC007/// 09/08 Q1002=
201512060820 METAR ESMX 060820Z AUTO 21018G29KT 3700 -DZ BKN006/// OVC009/// 09/08 Q1002 REUP=
201512060750 METAR ESMX 060750Z 22017KT 4700 BR OVC006 09/08 Q1001=
201512060720 METAR ESMX 060720Z 23018G31KT 5000 BR BKN007 OVC010 09/08 Q1001=
201512060650 METAR ESMX 060650Z 22019G31KT 5000 BR FEW006 OVC008 09/08 Q1001 REDZ=
201512060620 METAR ESMX 060620Z 23017G30KT 4400 BR BKN007 OVC010 09/08 Q1001=
201512060550 METAR ESMX 060550Z AUTO 22018G29KT 5000 BR OVC007/// 09/08 Q1001=
201512060520 METAR ESMX 060520Z AUTO 23017G29KT 4400 -DZ BKN006/// OVC010/// 08/07 Q1000 REUP=
201512060450 METAR ESMX 060450Z AUTO 23017G29KT 4000 BR FEW006/// BKN008/// OVC010/// 08/07 Q1000 REDZ=
201512060420 METAR ESMX 060420Z AUTO 23018G29KT 4300 BR FEW007/// OVC009/// 08/07 Q1000=
201512060350 METAR ESMX 060350Z AUTO 22016G27KT 9999 -RA OVC008/// 09/07 Q1000=
201512060320 METAR ESMX 060320Z AUTO 22017G35KT 9000 -DZ FEW008/// OVC009/// 08/07 Q1000 REDZ=
201512060250 METAR ESMX 060250Z AUTO 22018G32KT 6000 BR BKN008/// OVC011/// 08/07 Q1001 REDZ=
201512060220 METAR ESMX 060220Z AUTO 23017KT 190V260 5000 BR FEW008/// OVC009/// 09/07 Q1001 REUP=
201512060150 METAR ESMX 060150Z AUTO 22018G31KT 190V250 6000 BR SCT008/// OVC010/// 08/07 Q1001=
201512060120 METAR ESMX 060120Z AUTO 22019G32KT 190V250 6000 BR FEW007/// OVC009/// 08/07 Q1001 REDZ=
201512060050 METAR ESMX 060050Z AUTO 22019G33KT 6000 BR FEW007/// BKN008/// OVC012/// 08/07 Q1001=
201512060020 METAR ESMX 060020Z AUTO 23019G32KT 3600 -DZ FEW006/// SCT008/// OVC010/// 08/07 Q1001=
201512052350 METAR ESMX 052350Z AUTO 22019G31KT 3000 DZ FEW006/// SCT008/// OVC010/// 08/07 Q1001=
201512052320 METAR ESMX 052320Z AUTO 23018KT 2800 DZ FEW006/// BKN008/// OVC010/// 08/07 Q1001=
201512052250 METAR ESMX 052250Z AUTO 22017KT 4000 DZ FEW007/// SCT009/// OVC010/// 08/07 Q1001=
201512052220 METAR ESMX 052220Z AUTO 23018KT 4400 -DZ BKN007/// OVC010/// 08/07 Q1001=
201512052150 METAR ESMX 052150Z AUTO 22019G30KT 3800 DZ FEW007/// BKN008/// OVC010/// 08/07 Q1002 REDZ=
201512052120 METAR ESMX 052120Z AUTO 22018KT 8000 BR FEW007/// BKN009/// OVC011/// 08/07 Q1002 REDZ=
201512052050 METAR ESMX 052050Z 22019G33KT 200V260 8000 RA OVC009 08/07 Q1002=
201512052020 METAR ESMX 052020Z 22020KT 6000 RADZ FEW007 BKN010 08/07 Q1002=
201512051950 METAR ESMX 051950Z 22017G28KT 7000 RADZ BKN007 08/07 Q1002=
201512051920 METAR ESMX 051920Z 22018G29KT 7000 RADZ FEW007 BKN009 08/07 Q1003=
201512051850 METAR ESMX 051850Z AUTO 22018KT 7000 DZ FEW007/// SCT009/// BKN011/// 08/07 Q1003=
201512051820 METAR ESMX 051820Z AUTO 22018KT 6000 DZ FEW007/// OVC009/// 08/07 Q1003=
201512051750 METAR ESMX 051750Z AUTO 22019KT 7000 -DZ FEW007/// BKN009/// OVC012/// 08/07 Q1003=
201512051720 METAR ESMX 051720Z AUTO 21017KT 4000 -DZ FEW006/// SCT008/// BKN009/// 08/07 Q1004 REDZ=
201512051650 METAR ESMX 051650Z AUTO 21016KT 7000 DZ FEW006/// BKN008/// OVC011/// 08/07 Q1004=
201512051620 METAR ESMX 051620Z AUTO 22015KT 6000 DZ FEW006/// OVC008/// 08/07 Q1004 RESHUP=
201512051550 METAR ESMX 051550Z AUTO 22015KT 5000 DZ FEW006/// BKN008/// OVC010/// 08/07 Q1004 RESHUP REDZ=
201512051520 METAR ESMX 051520Z AUTO 21016G26KT 6000 BR FEW007/// SCT008/// OVC009/// 08/07 Q1004 REUP=
201512051450 METAR ESMX 051450Z AUTO 22017KT 7000 UP OVC008/// 08/07 Q1004 REDZ=
201512051420 METAR ESMX 051420Z AUTO 23016KT 8000 BR FEW007/// OVC009/// 08/07 Q1004=
201512051350 METAR ESMX 051350Z AUTO 22017G30KT 6000 BR FEW006/// SCT008/// BKN009/// 08/07 Q1004=
201512051320 METAR ESMX 051320Z AUTO 21016G29KT 4000 -DZ FEW006/// BKN008/// OVC011/// 08/07 Q1004 REDZ=
201512051250 METAR ESMX 051250Z AUTO 22017KT 4700 -DZ FEW007/// SCT009/// BKN010/// 08/07 Q1004 RERA REDZ=
201512051220 METAR ESMX 051220Z AUTO 22017KT 9999 FEW009/// BKN011/// OVC016/// 08/07 Q1004=
201512051150 METAR ESMX 051150Z AUTO 23016G26KT 9999 DZ FEW008/// OVC011/// 08/07 Q1004=
201512051120 METAR ESMX 051120Z AUTO 22018KT 9999 -RA FEW008/// OVC010/// 08/07 Q1005=
201512051050 METAR ESMX 051050Z AUTO 22017KT 7000 DZ FEW007/// SCT009/// OVC011/// 08/07 Q1005=
201512051020 METAR ESMX 051020Z AUTO 21017KT 5000 -RA FEW008/// SCT009/// BKN012/// 08/07 Q1006=
201512050950 METAR ESMX 050950Z AUTO 21018G29KT 8000 -RA FEW007/// SCT009/// BKN011/// 08/07 Q1006=
201512050920 METAR ESMX 050920Z AUTO 20017KT 6000 -RA FEW007/// BKN010/// BKN014/// 08/07 Q1007=
201512050850 METAR ESMX 050850Z AUTO 21018G28KT 8000 DZ FEW006/// BKN010/// OVC014/// 08/07 Q1007 REDZ=
201512050820 METAR ESMX 050820Z AUTO 21017KT 9000 DZ FEW006/// SCT009/// OVC012/// 08/07 Q1007 REDZ=
201512050750 METAR ESMX 050750Z AUTO 21017KT 4300 DZ FEW007/// BKN010/// OVC015/// 08/07 Q1008 REDZ=
201512050720 METAR ESMX 050720Z AUTO 21017KT 5000 -DZ FEW013/// BKN016/// 08/07 Q1008 REDZ=
201512050650 METAR ESMX 050650Z AUTO 21016KT 9000 BR OVC013/// 08/06 Q1008=
201512050620 METAR ESMX 050620Z AUTO 22016KT 5000 -DZ BKN016/// BKN021/// 09/06 Q1009 REUP RESHUP=
201512050550 METAR ESMX 050550Z AUTO 21017KT 9999 FEW017/// OVC019/// 09/06 Q1009=
201512050520 METAR ESMX 050520Z AUTO 22019G30KT 190V250 9999 OVC018/// 09/06 Q1009=
201512050450 METAR ESMX 050450Z AUTO 22016KT 9999 OVC018/// 09/06 Q1009=
201512050420 METAR ESMX 050420Z AUTO 22016KT 9999 OVC018/// 09/06 Q1010=
201512050350 METAR ESMX 050350Z AUTO 23014KT 9999 FEW016/// BKN019/// OVC024/// 08/06 Q1011=
201512050320 METAR ESMX 050320Z AUTO 22015KT 9999 FEW014/// OVC016/// 08/06 Q1011 REDZ=
201512050250 METAR ESMX 050250Z AUTO 22014KT 9000 -DZ OVC015/// 08/06 Q1011 REUP=
201512050220 METAR ESMX 050220Z AUTO 23015KT 9999 OVC014/// 08/05 Q1012=
201512050150 METAR ESMX 050150Z AUTO 22014KT 8000 BR OVC014/// 08/05 Q1012=
201512050120 METAR ESMX 050120Z AUTO 23013KT 9999 BKN017/// OVC020/// 08/05 Q1013=
201512050050 METAR ESMX 050050Z AUTO 23014G25KT 9999 OVC016/// 08/04 Q1013=
201512050020 METAR ESMX 050020Z AUTO 24013KT 9999 BKN020/// OVC029/// 08/04 Q1013=
201512042350 METAR ESMX 042350Z AUTO 24013KT 9999 FEW019/// BKN021/// OVC028/// 08/04 Q1013=
201512042320 METAR ESMX 042320Z AUTO 23013KT 9999 BKN020/// OVC030/// 07/04 Q1013=
201512042250 METAR ESMX 042250Z AUTO 23013G24KT 9999 OVC019/// 07/04 Q1013=
201512042220 METAR ESMX 042220Z AUTO 24013G27KT 9999 FEW020/// BKN023/// BKN036/// 07/04 Q1013=
201512042150 METAR ESMX 042150Z AUTO 25014G24KT 9999 BKN020/// BKN035/// 07/03 Q1013=
201512042120 METAR ESMX 042120Z AUTO 23014G25KT 9999 SCT020/// BKN026/// BKN033/// 07/03 Q1013=
201512042050 METAR ESMX 042050Z 25016KT 9999 FEW021 BKN025 07/03 Q1013=
201512042020 METAR ESMX 042020Z 26015G26KT 9999 BKN025 07/03 Q1012=
201512041950 METAR ESMX 041950Z 26016G25KT 9999 FEW025 BKN030 07/03 Q1012=
201512041920 METAR ESMX 041920Z 26017G28KT 210V280 9999 BKN025 07/03 Q1012=
201512041850 METAR ESMX 041850Z 26018G31KT 9999 OVC025 07/03 Q1011=
201512041820 METAR ESMX 041820Z 26017G28KT 230V300 9999 OVC026 08/03 Q1011=
201512041750 METAR ESMX 041750Z 26017G27KT 9999 BKN025 08/03 Q1010=
201512041720 METAR ESMX 041720Z 25016KT 220V280 9999 -RA FEW013 SCT028 BKN035 07/04 Q1010=
201512041650 METAR ESMX 041650Z 26018G30KT 180V280 9999 RA FEW017 BKN025 08/03 Q1009=
201512041620 METAR ESMX 041620Z 25018G29KT 9999 FEW021 SCT030 BKN038 08/03 Q1009=
201512041550 METAR ESMX 041550Z 25019G33KT 9999 SCT025 BKN032 08/03 Q1008=
201512041520 METAR ESMX 041520Z 25018G31KT 210V280 9999 BKN024 07/03 Q1007 REDZ=
201512041450 METAR ESMX 041450Z 25018G31KT 200V270 9999 FEW017 OVC025 07/04 Q1007=
201512041420 METAR ESMX 041420Z 25019G32KT 220V280 7000 RA FEW011 BKN023 07/04 Q1006=
201512041350 METAR ESMX 041350Z 25019G36KT 9999 RA BKN024 OVC034 07/03 Q1006=
201512041320 METAR ESMX 041320Z 26019G35KT 230V290 9999 FEW026 BKN030 07/03 Q1005=
201512041250 METAR ESMX 041250Z 23018G28KT 9999 FEW023 SCT027 BKN032 07/03 Q1005=
201512041220 METAR ESMX 041220Z 23018G31KT 210V270 9999 FEW022 OVC026 07/04 Q1004=
201512041150 METAR ESMX 041150Z 23020G33KT 200V260 9999 FEW019 BKN023 OVC029 07/04 Q1003=
201512041120 METAR ESMX 041120Z 24017G29KT 9999 FEW015 BKN019 07/05 Q1003=
201512041050 METAR ESMX 041050Z 22020KT 9999 SHRA SCT006 BKN009 07/06 Q1003=
201512041020 METAR ESMX 041020Z 20018KT 5000 DZ BKN005 OVC009 06/06 Q1002=
201512040950 METAR ESMX 040950Z 19020KT 9999 -RA OVC006 06/05 Q1002=
201512040920 METAR ESMX 040920Z 18018KT 6000 -RA BKN006 OVC010 05/05 Q1003=
201512040850 METAR ESMX 040850Z 18018KT 6000 -RA BKN007 OVC012 05/04 Q1004=
201512040820 METAR ESMX 040820Z 18017KT 8000 -RA FEW009 OVC011 06/04 Q1004=
201512040750 METAR ESMX 040750Z 18017KT 9999 -RA BKN011 BKN018 06/04 Q1005=
201512040720 METAR ESMX 040720Z 18014KT 9999 FEW011 SCT015 06/04 Q1005=
201512040650 METAR ESMX 040650Z 17014KT 9999 FEW009 SCT012 06/05 Q1006=
201512040620 METAR ESMX 040620Z 17014KT 9999 BKN005 OVC012 06/05 Q1007=
201512040550 METAR ESMX 040550Z 17015KT 8000 BR OVC005 06/05 Q1008=
201512040520 METAR ESMX 040520Z 17013KT 6000 BR BKN005 OVC007 07/06 Q1009 REDZ=
201512040450 METAR ESMX 040450Z 16011KT 130V190 6000 BR OVC004 07/06 Q1009=
201512040420 METAR ESMX 040420Z AUTO 17010KT 7000 BR FEW003/// OVC004/// 07/06 Q1010 REDZ=
201512040350 METAR ESMX 040350Z AUTO 17011KT 3600 DZ OVC002/// 07/07 Q1012 REUP REDZ=
201512040320 METAR ESMX 040320Z AUTO 17013KT 3400 BR OVC002/// 07/07 Q1013=
201512040250 METAR ESMX 040250Z AUTO 16011KT 2400 OVC001/// 07/07 Q1013=
201512040220 METAR ESMX 040220Z AUTO 16010KT 1800 OVC001/// 07/07 Q1014=
201512040150 METAR ESMX 040150Z AUTO 17010KT 0900 R01/P2000N R19/P2000N FG VV001 07/07 Q1015=
201512040120 METAR ESMX 040120Z 17008KT 0700 R01/1900D R19/P2000N FG VV002 07/07 Q1016=
201512040050 METAR ESMX 040050Z 17010KT 2000 BR VV002 07/07 Q1016=
201512040020 METAR ESMX 040020Z 17011KT 0750 R01/P2000D R19/P2000N FG VV002 07/07 Q1016=
201512032350 METAR ESMX 032350Z 17012KT 1400 R01/P2000N R19/P2000N BR VV002 07/07 Q1017=
201512032320 METAR ESMX 032320Z 17008KT 1100 R01/P2000N R19/P2000N BR VV002 07/07 Q1018=
201512032250 METAR ESMX 032250Z 17007KT 1600 BR VV002 07/07 Q1018=
201512032220 METAR ESMX 032220Z 16008KT 2100 BR OVC002 07/07 Q1019=
201512032150 METAR ESMX 032150Z 17007KT 1800 BR VV002 07/06 Q1019=
201512032120 METAR ESMX 032120Z 16007KT 1200 R01/P2000N R19/P2000N BR VV002 06/06 Q1020=
201512032050 METAR ESMX 032050Z 15006KT 4200 BR OVC003 06/05 Q1020=
201512032020 METAR ESMX 032020Z 15005KT 9999 SCT006 OVC008 06/04 Q1020=
201512031950 METAR ESMX 031950Z VRB03KT 9999 OVC008 06/04 Q1020=
201512031920 METAR ESMX 031920Z VRB03KT 9999 OVC012 06/04 Q1021=
201512031850 METAR ESMX 031850Z 15004KT 9999 OVC015 06/05 Q1021=
201512031820 METAR COR ESMX 031820Z 15004KT 9999 -DZ OVC019 06/05 Q1021=
201512031750 METAR ESMX 031750Z 15003KT 9999 OVC025 06/05 Q1022=
201512031720 METAR ESMX 031720Z VRB02KT 9999 OVC028 06/06 Q1021=
201512031650 METAR ESMX 031650Z 12002KT 9999 -DZ BKN033 06/05 Q1021=
201512031620 METAR ESMX 031620Z 19002KT 9999 -DZ OVC038 06/05 Q1022=
201512031550 METAR ESMX 031550Z 00000KT 9999 OVC040 06/05 Q1022=
201512031520 METAR ESMX 031520Z 00000KT 9999 SCT042 BKN050 06/05 Q1022=
201512031450 METAR ESMX 031450Z 21003KT 9999 BKN042 06/05 Q1022=
201512031420 METAR ESMX 031420Z 19004KT 9999 FEW044 BKN052 07/05 Q1021=
201512031350 METAR ESMX 031350Z 27004KT 9999 FEW045 BKN085 07/05 Q1022=
201512031320 METAR ESMX 031320Z 24003KT CAVOK 07/05 Q1022=
201512031250 METAR ESMX 031250Z 25004KT 210V290 CAVOK 08/06 Q1021=
201512031220 METAR COR ESMX 031220Z 25004KT 200V280 9999 FEW010 08/05 Q1021=
201512031150 METAR ESMX 031150Z 27008KT 9999 SCT010 08/06 Q1021=
201512031120 METAR ESMX 031120Z 25008KT 9999 BKN010 08/06 Q1021=
201512031050 METAR ESMX 031050Z 27008KT 9999 BKN011 08/06 Q1021=
201512031020 METAR ESMX 031020Z 25008KT 230V290 9999 BKN012 08/06 Q1021=
201512030950 METAR COR ESMX 030950Z 26009KT 9999 SCT010 BKN150 08/07 Q1020=
201512030920 METAR ESMX 030920Z 25008KT 9999 FEW010 BKN018 08/07 Q1020=
201512030850 METAR ESMX 030850Z 26007KT 9999 FEW013 BKN018 09/07 Q1020=
201512030820 METAR ESMX 030820Z 24007KT 9999 SCT011 BKN017 09/08 Q1020=
201512030750 METAR ESMX 030750Z 24007KT 8000 BR FEW004 SCT006 BKN008 09/08 Q1019=
201512030720 METAR ESMX 030720Z 24008KT 4700 -DZ OVC004 09/08 Q1019=
201512030650 METAR ESMX 030650Z 23008KT 200V260 3700 DZ FEW003 BKN005 09/08 Q1018=
201512030620 METAR ESMX 030620Z 24009KT 3000 DZ OVC004 09/08 Q1018=
201512030550 METAR ESMX 030550Z 23008KT 7000 BR OVC004 09/08 Q1017=
201512030520 METAR ESMX 030520Z 25008KT 6000 BR FEW003 OVC005 09/08 Q1017=
201512030450 METAR ESMX 030450Z 23010KT 210V270 4900 BR OVC003 09/08 Q1017=
201512030420 METAR ESMX 030420Z AUTO 25010KT 9999 BR OVC004/// 09/08 Q1017=
201512030350 METAR ESMX 030350Z AUTO 25009KT 210V270 9999 OVC005/// 09/08 Q1017=
201512030320 METAR ESMX 030320Z AUTO 24009KT 9000 BR OVC005/// 09/08 Q1016=
201512030250 METAR ESMX 030250Z AUTO 24009KT 9999 OVC004/// 09/08 Q1016 REDZ=
201512030220 METAR ESMX 030220Z AUTO 22009KT 4900 BR BKN004/// OVC007/// 09/08 Q1016=
201512030150 METAR ESMX 030150Z AUTO 23009KT 4200 BR OVC004/// 08/08 Q1016=
201512030120 METAR ESMX 030120Z AUTO 23008KT 2600 DZ FEW004/// OVC005/// 08/08 Q1016 REDZ=
201512030050 METAR ESMX 030050Z 21008KT 3800 BR SCT002 OVC003 08/07 Q1016 REDZ=
201512030020 METAR ESMX 030020Z 20009KT 3400 BR OVC003 07/07 Q1016=
201512022350 METAR ESMX 022350Z 19008KT 3100 BR OVC002 07/07 Q1016=
201512022320 METAR ESMX 022320Z 20009KT 3600 BR OVC003 07/07 Q1016=
201512022250 METAR COR ESMX 022250Z 21010KT 6000 BR OVC004 07/06 Q1016=
201512022220 METAR ESMX 022220Z 20010KT 8000 BR FEW006 OVC007 07/06 Q1016=
201512022150 METAR ESMX 022150Z 21011KT 9999 SCT007 OVC009 07/06 Q1016=
201512022120 METAR ESMX 022120Z 21011KT 9999 FEW011 BKN041 07/06 Q1016=
201512022050 METAR ESMX 022050Z 20010KT 9999 OVC038 07/06 Q1016=
201512022020 METAR ESMX 022020Z 20009KT 9999 FEW005 OVC037 07/06 Q1016=
201512021950 METAR ESMX 021950Z 20009KT 9999 SCT006 OVC036 07/06 Q1016=
201512021920 METAR ESMX 021920Z 20008KT 9999 FEW005 OVC035 07/06 Q1016=
201512021850 METAR ESMX 021850Z 20010KT 9999 OVC039 07/06 Q1016=
201512021820 METAR ESMX 021820Z 20009KT 8000 BR FEW003 SCT005 BKN007 07/06 Q1016=
201512021750 METAR ESMX 021750Z 19009KT 7000 BR FEW002 OVC004 07/07 Q1016=
201512021720 METAR ESMX 021720Z 21008KT 6000 BR SCT002 BKN005 07/06 Q1016=
201512021650 METAR ESMX 021650Z 21008KT 5000 BR BKN002 OVC004 07/06 Q1016=
201512021620 METAR ESMX 021620Z 22007KT 1800 BR VV002 06/06 Q1016=
201512021550 METAR ESMX 021550Z 21006KT 0900 R01/P2000N R19/P2000N FG VV002 06/06 Q1016=
201512021520 METAR ESMX 021520Z 18007KT 1500 DZ VV002 05/05 Q1016=
201512021450 METAR ESMX 021450Z 19007KT 3000 DZ VV002 05/05 Q1016=
201512021420 METAR ESMX 021420Z 19008KT 1800 DZ VV002 05/04 Q1016=
201512021350 METAR ESMX 021350Z 19008KT 1500 DZ VV002 04/04 Q1016=
201512021320 METAR ESMX 021320Z 17009KT 2000 DZ VV002 04/04 Q1016=
201512021250 METAR COR ESMX 021250Z 18008KT 2100 DZ OVC002 04/03 Q1016=
201512021220 METAR ESMX 021220Z 17006KT 9000 BR BKN004 OVC010 04/03 Q1016=
201512021150 METAR ESMX 021150Z 16005KT 130V200 9999 FEW003 SCT005 BKN006 04/03 Q1016=
201512021120 METAR ESMX 021120Z 19006KT 6000 BR FEW003 BKN020 04/03 Q1017=
201512021050 METAR ESMX 021050Z 20006KT 9999 BKN024 BKN036 03/03 Q1017=
201512021020 METAR ESMX 021020Z 22006KT 8000 BR BKN002 BKN030 03/03 Q1017=
201512020950 METAR ESMX 020950Z 20006KT 2000 BR OVC002 02/02 Q1017=
201512020920 METAR ESMX 020920Z 21005KT 0750 R01/1000N R19/1400D -DZ VV002 02/02 Q1017=
201512020850 METAR ESMX 020850Z 21005KT 0700 R01/1100U R19/1100N BCFG VV002 02/02 Q1017 REDZ=
201512020820 METAR ESMX 020820Z 20005KT 2500 BR OVC002 02/01 Q1017 RESHUP REUP=
201512020750 METAR ESMX 020750Z 19003KT 0750 R01/P2000N R19/0900U BCFG VV002 01/01 Q1017=
201512020720 METAR ESMX 020720Z 21003KT 1500 BCFG VV002 01/01 Q1017=
201512020650 METAR ESMX 020650Z 18004KT 0500 R01/1400U R19/1000D FZFG VV001 00/00 Q1016=
201512020620 METAR ESMX 020620Z 17003KT 0500 R01/1500D R19/P2000N FZFG OVC002 M00/M01 Q1016=
201512020550 METAR ESMX 020550Z 22002KT 5000 R01/P2000N R19/P2000N BR BKN002 OVC007 M02/M02 Q1016=
201512020520 METAR ESMX 020520Z 00000KT 7000 BR SCT002 BKN005 M02/M02 Q1016=
201512020450 METAR ESMX 020450Z 22003KT 0400 R01/P2000N R19/1000D BR BCFG FEW002 M02/M02 Q1016=
201512020420 METAR ESMX 020420Z AUTO 19003KT 1700 BR FEW002/// M03/M03 Q1016=
201512020350 METAR ESMX 020350Z AUTO 00000KT 8000 BR OVC003/// M02/M02 Q1016=
201512020320 METAR ESMX 020320Z AUTO VRB01KT 9999 FEW003/// M01/M02 Q1016=
201512020250 METAR ESMX 020250Z AUTO 20003KT 9999 NCD M01/M02 Q1015=
201512020220 METAR ESMX 020220Z AUTO VRB03KT 9999 NCD M01/M01 Q1015=
201512020150 METAR ESMX 020150Z AUTO 23004KT 9999 NCD M00/M01 Q1015=
201512020120 METAR ESMX 020120Z AUTO 25004KT 9999 NCD 00/M00 Q1015=
201512020050 METAR ESMX 020050Z 25006KT CAVOK 00/M00 Q1015=
201512020020 METAR ESMX 020020Z 25007KT CAVOK 00/M01 Q1015=
201512012350 METAR ESMX 012350Z 25006KT CAVOK M00/M01 Q1014=
201512012320 METAR ESMX 012320Z 25006KT CAVOK 00/M01 Q1014=
201512012250 METAR ESMX 012250Z 25006KT CAVOK 01/M00 Q1014=
201512012220 METAR ESMX 012220Z 26006KT CAVOK 01/M00 Q1014=
201512012150 METAR ESMX 012150Z 25007KT CAVOK 01/M01 Q1014=
201512012120 METAR ESMX 012120Z 25007KT CAVOK M00/M02 Q1014=
201512012050 METAR ESMX 012050Z 26005KT CAVOK M00/M02 Q1014=
201512012020 METAR ESMX 012020Z 26006KT CAVOK M00/M02 Q1013=
201512011950 METAR ESMX 011950Z 26004KT CAVOK 00/M02 Q1013=
201512011920 METAR ESMX 011920Z 25006KT CAVOK 00/M02 Q1013=
201512011850 METAR ESMX 011850Z 25007KT CAVOK 01/M02 Q1013=
201512011820 METAR ESMX 011820Z 27008KT CAVOK 02/M02 Q1013=
201512011750 METAR ESMX 011750Z 27008KT CAVOK 02/M02 Q1012=
201512011720 METAR ESMX 011720Z 26006KT CAVOK 02/M03 Q1012=
201512011650 METAR ESMX 011650Z 26008KT CAVOK 02/M03 Q1011=
201512011620 METAR ESMX 011620Z 27007KT CAVOK 02/M04 Q1011=
201512011550 METAR ESMX 011550Z 27006KT CAVOK 03/M04 Q1011=
201512011520 METAR ESMX 011520Z 26008KT CAVOK 03/M04 Q1010=
201512011450 METAR ESMX 011450Z 26009KT CAVOK 04/M04 Q1010=
201512011420 METAR ESMX 011420Z 28010KT CAVOK 04/M04 Q1009=
201512011350 METAR ESMX 011350Z 28011KT CAVOK 05/M04 Q1009=
201512011320 METAR ESMX 011320Z 28013KT CAVOK 05/M04 Q1008=
201512011250 METAR ESMX 011250Z 29013KT CAVOK 05/M03 Q1007=
201512011220 METAR ESMX 011220Z 29016KT CAVOK 05/M03 Q1007=
