##########################################################
# Query made at 04/19/2024 21:43:56 UTC
# Time interval: from 02/01/2015 12:00  to 02/28/2015 12:59  UTC
##########################################################

##########################################################
# ESMX, Vaxjo (Sweden)
# WMO index: 02641. WIGOS ID: 0-20000-0-02648
# Latitude 56-51N. Longitude 014-50E. Altitude 199 m.
##########################################################

201502281250 METAR ESMX 281250Z 21006KT 9000 BR FEW011 SCT024 OVC061 03/01 Q1013=
201502281220 METAR ESMX 281220Z 23005KT 6000 BR FEW004 SCT007 BKN021 03/02 Q1013=
201502281150 METAR ESMX 281150Z 23006KT 2800 BR OVC004 02/02 Q1013=
201502281120 METAR ESMX 281120Z 25006KT 4000 BR OVC005 02/02 Q1013=
201502281050 METAR ESMX 281050Z AUTO 23005KT 4000 BR BKN005/// OVC007/// 03/02 Q1013=
201502281020 METAR ESMX 281020Z AUTO 21005KT 3400 BR FEW004/// OVC005/// 02/02 Q1013=
201502280950 METAR ESMX 280950Z AUTO 22004KT 2800 BR FEW002/// BKN005/// OVC008/// 02/02 Q1014=
201502280920 METAR ESMX 280920Z AUTO 24004KT 220V280 2300 BR OVC002/// 02/02 Q1014=
201502280850 METAR ESMX 280850Z AUTO 24005KT 1700 OVC001/// 02/02 Q1013=
201502280820 METAR ESMX 280820Z AUTO 21004KT 1300 R01/1300V1600N R19/1400V1600N OVC001/// 02/02 Q1013 RERA=
201502280750 METAR ESMX 280750Z AUTO 18003KT 0900 R01/1200V1500N R19/1400V1600N FG OVC001/// 02/02 Q1013=
201502280720 METAR ESMX 280720Z AUTO 20003KT 1000 R01/1600V1800N R19/1600VP2000D -DZ OVC001/// 02/02 Q1013 REDZ REUP=
201502280650 METAR ESMX 280650Z AUTO 20003KT 1300 R01/P2000N R19/P2000D BR BKN003/// OVC005/// 02/01 Q1014 REDZ=
201502280620 METAR ESMX 280620Z AUTO 18004KT 1800 BR OVC005/// 02/01 Q1013=
201502280550 METAR ESMX 280550Z AUTO 18003KT 1600 BR OVC007/// 02/01 Q1013 REDZ=
201502280520 METAR ESMX 280520Z AUTO 20003KT 1900 DZ BKN007/// 01/01 Q1013=
201502280450 METAR ESMX 280450Z AUTO 17003KT 2100 -RA BKN008/// 01/01 Q1013 REDZ=
201502280420 METAR ESMX 280420Z AUTO 18003KT 2600 -RA FEW009/// SCT011/// 02/01 Q1013 REUP=
201502280350 METAR ESMX 280350Z AUTO 16004KT 3300 BR SCT011/// BKN058/// 02/01 Q1013=
201502280320 METAR ESMX 280320Z AUTO 16004KT 4000 BR BKN011/// BKN069/// 02/01 Q1013=
201502280250 METAR ESMX 280250Z AUTO 15003KT 4200 BR FEW010/// OVC012/// 02/01 Q1013=
201502280220 METAR ESMX 280220Z AUTO 15003KT 4200 BR OVC013/// 02/01 Q1014=
201502280150 METAR ESMX 280150Z AUTO 15003KT 3900 BR OVC013/// 02/01 Q1014=
201502280120 METAR ESMX 280120Z AUTO 15003KT 4000 BR OVC012/// 02/01 Q1014=
201502280050 METAR ESMX 280050Z AUTO 15003KT 4800 BR BKN012/// 02/01 Q1014=
201502280020 METAR ESMX 280020Z AUTO 15003KT 5000 BR FEW010/// OVC012/// 02/01 Q1014=
201502272350 METAR ESMX 272350Z AUTO 16004KT 140V200 5000 BR OVC008/// 02/01 Q1014=
201502272320 METAR ESMX 272320Z AUTO 18007KT 5000 BR OVC007/// 02/01 Q1014=
201502272250 METAR ESMX 272250Z AUTO 17005KT 5000 BR OVC007/// 02/01 Q1014=
201502272220 METAR ESMX 272220Z AUTO 17005KT 5000 BR OVC007/// 02/01 Q1014=
201502272150 METAR ESMX 272150Z 17004KT 140V210 5000 BR OVC006 02/01 Q1014=
201502272120 METAR ESMX 272120Z 18006KT 6000 BR OVC006 02/01 Q1014=
201502272050 METAR COR ESMX 272050Z 17005KT 6000 BR OVC006 02/01 Q1014=
201502272020 METAR ESMX 272020Z AUTO 17005KT 4000 BR BKN007/// 02/01 Q1014=
201502271950 METAR ESMX 271950Z AUTO 16005KT 3600 BR FEW009/// 02/01 Q1014=
201502271920 METAR ESMX 271920Z AUTO 15005KT 5000 BR NCD 02/01 Q1013=
201502271850 METAR ESMX 271850Z AUTO 15005KT 6000 BR NCD 02/01 Q1014=
201502271820 METAR ESMX 271820Z 15005KT CAVOK 02/01 Q1013=
201502271750 METAR ESMX 271750Z 15005KT CAVOK 02/01 Q1013=
201502271720 METAR ESMX 271720Z 15004KT CAVOK 02/01 Q1013=
201502271650 METAR COR ESMX 271650Z 15004KT CAVOK 02/01 Q1013=
201502271620 METAR ESMX 271620Z 17005KT 9999 FEW026 04/01 Q1013=
201502271550 METAR ESMX 271550Z 15007KT 9999 FEW026 05/01 Q1013=
201502271520 METAR ESMX 271520Z 15007KT 9999 FEW026 05/01 Q1013=
201502271450 METAR ESMX 271450Z 17009KT 140V200 9999 FEW029 06/01 Q1013=
201502271420 METAR COR ESMX 271420Z 16009KT 9999 FEW021 BKN030 06/02 Q1012=
201502271350 METAR ESMX 271350Z 17009KT 9999 FEW021 SCT028 BKN032 06/01 Q1012=
201502271320 METAR ESMX 271320Z 15007KT 9999 FEW019 SCT022 BKN026 06/02 Q1012=
201502271250 METAR ESMX 271250Z 16008KT 8000 BR FEW017 BKN020 05/02 Q1012=
201502271220 METAR ESMX 271220Z 16008KT 120V190 7000 BR FEW012 BKN016 05/02 Q1013=
201502271150 METAR ESMX 271150Z 16007KT 120V190 6000 BR BKN012 05/02 Q1013=
201502271120 METAR ESMX 271120Z 15008KT 120V190 6000 BR BKN012 04/02 Q1013=
201502271050 METAR ESMX 271050Z 16007KT 120V190 7000 BR BKN012 04/02 Q1013=
201502271020 METAR ESMX 271020Z 14007KT 080V170 7000 BR BKN011 04/01 Q1013=
201502270950 METAR ESMX 270950Z 15007KT 7000 BR FEW008 BKN011 04/02 Q1013=
201502270920 METAR ESMX 270920Z 16006KT 6000 BR BKN008 04/02 Q1013=
201502270850 METAR ESMX 270850Z 16008KT 120V190 6000 BR BKN007 03/02 Q1013=
201502270820 METAR ESMX 270820Z 16007KT 120V190 6000 BR BKN007 03/02 Q1013=
201502270750 METAR ESMX 270750Z 15008KT 120V180 5000 BR BKN007 03/02 Q1013=
201502270720 METAR ESMX 270720Z 16007KT 120V190 5000 BR BKN007 03/02 Q1013=
201502270650 METAR ESMX 270650Z 15007KT 6000 BR BKN007 03/01 Q1013=
201502270620 METAR ESMX 270620Z 15008KT 5000 BR SCT006 BKN009 02/01 Q1013=
201502270550 METAR ESMX 270550Z 14007KT 110V170 5000 BR BKN005 02/01 Q1013=
201502270520 METAR ESMX 270520Z 14008KT 110V170 5000 BR BKN005 OVC007 02/01 Q1013=
201502270450 METAR ESMX 270450Z AUTO 14007KT 5000 BR OVC004/// 02/01 Q1013=
201502270420 METAR ESMX 270420Z AUTO 13007KT 080V160 6000 BR BKN005/// BKN008/// 02/01 Q1013=
201502270350 METAR ESMX 270350Z AUTO 14008KT 100V160 6000 BR BKN005/// 01/01 Q1013=
201502270320 METAR ESMX 270320Z AUTO 14007KT 110V170 7000 BR BKN005/// OVC008/// 01/00 Q1013=
201502270250 METAR ESMX 270250Z AUTO 15007KT 7000 BR BKN005/// 01/00 Q1013=
201502270220 METAR ESMX 270220Z AUTO 14009KT 7000 BR BKN005/// 01/00 Q1014=
201502270150 METAR ESMX 270150Z AUTO 14009KT 100V170 7000 BR BKN005/// 01/00 Q1014=
201502270120 METAR ESMX 270120Z AUTO 14008KT 7000 BR BKN005/// BKN007/// 01/00 Q1014=
201502270050 METAR ESMX 270050Z AUTO 15008KT 120V190 7000 BR BKN005/// 01/00 Q1014=
201502270020 METAR ESMX 270020Z 15009KT 110V190 7000 BR OVC004 01/00 Q1015=
201502262350 METAR ESMX 262350Z 16009KT 110V180 7000 BR OVC005 01/00 Q1015=
201502262320 METAR ESMX 262320Z 15010KT 7000 BR OVC005 01/00 Q1016=
201502262250 METAR ESMX 262250Z 15009KT 7000 BR OVC005 01/00 Q1016=
201502262220 METAR ESMX 262220Z 15010KT 8000 BR OVC006 01/M00 Q1016=
201502262150 METAR ESMX 262150Z 14008KT 100V180 8000 BR BKN007 01/M00 Q1016=
201502262120 METAR ESMX 262120Z 15008KT 8000 BR OVC007 01/M00 Q1016=
201502262050 METAR ESMX 262050Z AUTO 15009KT 120V190 8000 BR BKN007/// OVC010/// 01/M00 Q1016=
201502262020 METAR ESMX 262020Z 15010KT 9000 BR BKN007 01/M00 Q1017=
201502261950 METAR ESMX 261950Z AUTO 16009KT 9999 BKN008/// 01/M01 Q1017=
201502261920 METAR ESMX 261920Z 15009KT 110V180 8000 BR OVC007 01/M00 Q1017=
201502261850 METAR ESMX 261850Z 16010KT 8000 BR BKN007 OVC010 01/00 Q1017=
201502261820 METAR ESMX 261820Z 15009KT 110V190 7000 BR BKN008 02/00 Q1017=
201502261750 METAR ESMX 261750Z 16011KT 8000 BR BKN009 02/00 Q1017=
201502261720 METAR ESMX 261720Z 14009KT 9000 BR BKN009 02/00 Q1017=
201502261650 METAR ESMX 261650Z 16009KT 9999 FEW011 02/M00 Q1017=
201502261620 METAR ESMX 261620Z 15011KT 9999 FEW020 02/00 Q1018=
201502261550 METAR ESMX 261550Z 15009KT CAVOK 03/00 Q1018=
201502261520 METAR ESMX 261520Z 15010KT 9999 FEW019 04/M00 Q1018=
201502261450 METAR ESMX 261450Z 16010KT 9999 FEW020 04/00 Q1019=
201502261420 METAR ESMX 261420Z 16010KT 9999 FEW019 04/00 Q1019=
201502261350 METAR ESMX 261350Z 16010KT 120V190 9999 FEW019 05/01 Q1019=
201502261320 METAR ESMX 261320Z 15010KT 9999 SCT020 05/01 Q1019=
201502261250 METAR ESMX 261250Z 17011KT 120V200 9999 FEW017 SCT052 05/01 Q1019=
201502261220 METAR COR ESMX 261220Z 16010KT 9999 FEW013 BKN045 04/01 Q1020=
201502261150 METAR ESMX 261150Z 15008KT 120V190 8000 BR BKN010 03/01 Q1020=
201502261120 METAR ESMX 261120Z 17009KT 7000 BR FEW005 BKN007 03/01 Q1020=
201502261050 METAR ESMX 261050Z 15008KT 6000 BR SCT004 BKN007 02/02 Q1021=
201502261020 METAR ESMX 261020Z 15008KT 120V180 4200 BR OVC002 01/01 Q1021=
201502260950 METAR ESMX 260950Z 15007KT 2900 BR OVC001 01/01 Q1021=
201502260920 METAR ESMX 260920Z 17007KT 1700 BR OVC001 01/01 Q1021=
201502260850 METAR ESMX 260850Z 17006KT 1400 R01/1200V1800D R19/1500V1900N BR OVC001 00/00 Q1021=
201502260820 METAR ESMX 260820Z 17005KT 120V190 0700 R01/0800V1400D R19/0800V1600U FG VV002 00/00 Q1021=
201502260750 METAR ESMX 260750Z 17006KT 0450 R01/0800V1000N R19/0800V1400N FG VV002 00/M00 Q1021=
201502260720 METAR ESMX 260720Z 16006KT 0200 R01/0450N R19/0500N FZFG VV001 M00/M00 Q1021=
201502260650 METAR ESMX 260650Z 19005KT 150V220 0300 R01/0750V1000D R19/0600V1200N FZFG VV002 M00/M00 Q1021=
201502260620 METAR ESMX 260620Z 18006KT 0350 R01/0750N R19/0700N FZFG VV002 M00/M00 Q1021=
201502260550 METAR ESMX 260550Z 18006KT 0350 R01/0800V1700D R19/P2000D FG VV002 M00/M00 Q1021=
201502260520 METAR ESMX 260520Z 18005KT 0300 R01/1400V1300U R19/0900V1000N FG VV002 00/00 Q1020=
201502260450 METAR ESMX 260450Z 18006KT 0300 R01/0800V1000N R19/0900V1300N FG VV002 00/00 Q1020=
201502260420 METAR ESMX 260420Z AUTO 19007KT 0350 R01/0800V1100N R19/0900V1100N FG VV001 00/00 Q1020=
201502260350 METAR ESMX 260350Z AUTO 18008KT 0400 R01/0800V1700D R19/1100V1500D=
201502260320 METAR ESMX 260320Z AUTO 18006KT 0650 R01/1400V1900U R19/1700VP2000N FG VV001 00/00 Q1020=
201502260250 METAR ESMX 260250Z AUTO 18006KT 0500 R01/1100V1600D R19/1300VP2000D FG VV001 00/00 Q1020=
201502260220 METAR ESMX 260220Z AUTO 18005KT 0900 R01/P2000N R19/P2000N FG VV002 00/00 Q1020=
201502260150 METAR ESMX 260150Z AUTO 20006KT 0550 R01/1400V1500N R19/1300V1800D FG VV002 00/00 Q1020=
201502260120 METAR ESMX 260120Z AUTO 18006KT 1100 R01/P2000N R19/P2000N BR OVC001/// 00/00 Q1020=
201502260050 METAR ESMX 260050Z AUTO 19006KT 2700 BR OVC001/// 00/00 Q1020=
201502260020 METAR ESMX 260020Z 20006KT 3900 BR OVC002 00/M00 Q1020=
201502252350 METAR ESMX 252350Z 18005KT 6000 BR BKN002 M00/M00 Q1019=
201502252320 METAR ESMX 252320Z 17004KT 8000 BR BKN017 OVC041 M00/M00 Q1019=
201502252250 METAR ESMX 252250Z 18004KT 8000 BR FEW041 M01/M01 Q1019=
201502252220 METAR ESMX 252220Z 18004KT 8000 BR NSC M01/M02 Q1019=
201502252150 METAR ESMX 252150Z 18005KT 9000 BR NSC 00/M01 Q1018=
201502252120 METAR ESMX 252120Z 18006KT 9999 BKN039 00/M00 Q1018=
201502252050 METAR ESMX 252050Z 21006KT 9999 BKN042 01/00 Q1018=
201502252020 METAR ESMX 252020Z AUTO 19005KT 9999 BKN041/// 00/M00 Q1018=
201502251950 METAR ESMX 251950Z 19005KT 9999 BKN041 01/M00 Q1017=
201502251920 METAR ESMX 251920Z 19006KT 9999 FEW022 OVC042 01/00 Q1017=
201502251850 METAR ESMX 251850Z 19006KT 9999 OVC038 02/00 Q1017=
201502251820 METAR ESMX 251820Z 19007KT 9999 OVC035 02/00 Q1017=
201502251750 METAR ESMX 251750Z 18005KT 9999 SCT028 02/M00 Q1016=
201502251720 METAR ESMX 251720Z 18003KT 9999 SCT027 02/01 Q1016=
201502251650 METAR COR ESMX 251650Z 20005KT 9999 FEW028 02/00 Q1016=
201502251620 METAR ESMX 251620Z 19005KT 9999 FEW022 03/01 Q1015=
201502251550 METAR ESMX 251550Z 18006KT 9999 FEW023 04/01 Q1015=
201502251520 METAR ESMX 251520Z 19007KT CAVOK 04/02 Q1015=
201502251450 METAR COR ESMX 251450Z 20006KT CAVOK 04/02 Q1014=
201502251420 METAR ESMX 251420Z 19009KT 9999 -SHRA FEW007 SCT020CB 04/02 Q1014=
201502251350 METAR ESMX 251350Z 19008KT 9999 FEW035 BKN058 05/01 Q1014=
201502251320 METAR ESMX 251320Z 20006KT 9999 BKN027 05/02 Q1014=
201502251250 METAR ESMX 251250Z 19007KT 9999 FEW008 BKN035 05/03 Q1013=
201502251220 METAR ESMX 251220Z 23007KT 9999 FEW009 BKN025 03/02 Q1013=
201502251150 METAR ESMX 251150Z 23006KT 9999 -RA FEW008 BKN023 04/02 Q1013=
201502251120 METAR ESMX 251120Z 18010KT 9999 FEW024 BKN035 06/01 Q1013=
201502251050 METAR ESMX 251050Z 19011KT 9999 FEW015 OVC035 05/01 Q1013=
201502251020 METAR ESMX 251020Z 18011KT 9999 FEW014 BKN033 05/02 Q1012=
201502250950 METAR COR ESMX 250950Z 19010KT 9999 FEW012 BKN032 04/02 Q1012=
201502250920 METAR ESMX 250920Z 18009KT 9999 SCT010 BKN035 04/02 Q1012=
201502250850 METAR ESMX 250850Z 19011KT 9999 BKN009 04/02 Q1011=
201502250820 METAR ESMX 250820Z 19010KT 9999 BKN008 03/02 Q1011=
201502250750 METAR ESMX 250750Z 18009KT 9999 BKN008 BKN035 03/02 Q1011=
201502250720 METAR ESMX 250720Z 18009KT 9999 BKN007 BKN032 03/02 Q1011=
201502250650 METAR ESMX 250650Z 17009KT 9999 FEW008 OVC032 03/01 Q1010=
201502250620 METAR ESMX 250620Z 17008KT 9999 BKN031 03/01 Q1010=
201502250550 METAR ESMX 250550Z 18009KT 9999 FEW008 SCT009 BKN029 03/02 Q1010=
201502250520 METAR ESMX 250520Z 18009KT 9999 BKN008 OVC033 03/02 Q1009=
201502250450 METAR ESMX 250450Z 17009KT 9999 FEW008 BKN010 OVC037 03/01 Q1009=
201502250420 METAR ESMX 250420Z AUTO 18010KT 9999 OVC010/// 03/01 Q1009=
201502250350 METAR ESMX 250350Z AUTO 19008KT 9999 FEW011/// OVC037/// 03/01 Q1008=
201502250320 METAR ESMX 250320Z AUTO 17008KT 9999 FEW012/// OVC034/// 03/01 Q1008=
201502250250 METAR ESMX 250250Z AUTO 18009KT 9999 OVC032/// 03/01 Q1007=
201502250220 METAR ESMX 250220Z AUTO 19010KT 9999 FEW014/// OVC038/// 03/01 Q1007=
201502250150 METAR ESMX 250150Z AUTO 19011KT 9999 FEW015/// SCT020/// BKN041/// 03/01 Q1007=
201502250120 METAR ESMX 250120Z AUTO 18010KT 9999 FEW015/// BKN041/// 03/02 Q1007=
201502250050 METAR ESMX 250050Z 18011KT 9999 FEW012 SCT017 BKN038 03/02 Q1006=
201502250020 METAR ESMX 250020Z 19010KT 9999 BKN012 OVC045 04/02 Q1006=
201502242350 METAR ESMX 242350Z AUTO 18010KT 9999 FEW008/// SCT034/// BKN045/// 04/02 Q1005 RESHUP=
201502242320 METAR ESMX 242320Z 19013KT 9999 FEW012 SCT018 BKN021 04/02 Q1005=
201502242250 METAR ESMX 242250Z 20013KT 9999 FEW010 OVC013 04/02 Q1005=
201502242220 METAR ESMX 242220Z 18011KT 9000 -DZ BKN010 OVC015 04/02 Q1005=
201502242150 METAR COR ESMX 242150Z 18011KT 9999 OVC010 03/02 Q1005=
201502242120 METAR ESMX 242120Z 18011KT 9999 FEW009 SCT011 BKN014 03/02 Q1004=
201502242050 METAR ESMX 242050Z 17011KT 9999 FEW009 OVC010 03/02 Q1004=
201502242020 METAR COR ESMX 242020Z 17010KT 9999 FEW009 BKN011 OVC017 03/02 Q1004=
201502241950 METAR ESMX 241950Z 16010KT 9999 -DZ FEW011 BKN019 BKN026 03/01 Q1003=
201502241920 METAR ESMX 241920Z 16009KT 9999 FEW013 BKN020 OVC036 03/01 Q1003=
201502241850 METAR ESMX 241850Z 16009KT 9999 FEW035 BKN042 OVC056 03/01 Q1003=
201502241820 METAR ESMX 241820Z 16009KT 9999 SCT023 OVC056 03/01 Q1003=
201502241750 METAR ESMX 241750Z 18012KT 9999 SCT015 BKN045 03/01 Q1002=
201502241720 METAR ESMX 241720Z 17011KT 9999 SCT012 BKN016 03/01 Q1002=
201502241650 METAR ESMX 241650Z 17013KT 140V200 9999 SCT012 BKN016 03/01 Q1002=
201502241620 METAR ESMX 241620Z 19014KT 160V220 9999 SCT013 BKN015 03/01 Q1001=
201502241550 METAR ESMX 241550Z 19012KT 9999 SCT016 BKN019 03/01 Q1001=
201502241520 METAR ESMX 241520Z 17013KT 9999 SCT017 BKN020 04/01 Q1001=
201502241450 METAR ESMX 241450Z 17010KT 140V200 9999 SCT022 BKN025 04/00 Q1000=
201502241420 METAR ESMX 241420Z 17012KT 9999 FEW022 BKN025 04/00 Q1000=
201502241350 METAR ESMX 241350Z 17010KT 9999 FEW021 BKN024 04/01 Q0999=
201502241320 METAR ESMX 241320Z 18013KT 9999 FEW020 BKN025 04/00 Q0999=
201502241250 METAR ESMX 241250Z 19014KT 9999 FEW016 BKN022 04/01 Q0999=
201502241220 METAR ESMX 241220Z 18010KT 9999 FEW016 BKN022 04/01 Q0999=
201502241150 METAR ESMX 241150Z 18011KT 9999 FEW011 BKN030 04/01 Q0999=
201502241120 METAR ESMX 241120Z 17011KT 9000 BR SCT010 BKN031 03/02 Q0998=
201502241050 METAR ESMX 241050Z 17009KT 9000 BR SCT011 BKN032 03/01 Q0998=
201502241020 METAR ESMX 241020Z 18011KT 9999 SCT006 BKN012 03/01 Q0998=
201502240950 METAR ESMX 240950Z 17010KT 6000 BR SCT005 BKN007 03/02 Q0997=
201502240920 METAR ESMX 240920Z 16010KT 4000 -DZ BKN003 OVC006 02/01 Q0997=
201502240850 METAR ESMX 240850Z 16010KT 5000 BR OVC004 02/01 Q0997=
201502240820 METAR ESMX 240820Z 17009KT 5000 -DZ OVC004 02/01 Q0996=
201502240750 METAR ESMX 240750Z 16010KT 9999 SCT007 OVC009 02/01 Q0996=
201502240720 METAR ESMX 240720Z 17010KT 9999 BKN007 OVC010 02/01 Q0996=
201502240650 METAR ESMX 240650Z 16009KT 7000 BR SCT006 BKN010 02/01 Q0996=
201502240620 METAR ESMX 240620Z 15008KT 7000 BR FEW006 OVC009 02/01 Q0995=
201502240550 METAR ESMX 240550Z AUTO 15007KT 110V170 7000 BR FEW008/// BKN011/// OVC016/// 01/01 Q0995=
201502240520 METAR ESMX 240520Z 17008KT 7000 BR FEW005 SCT007 BKN009 01/01 Q0995=
201502240450 METAR ESMX 240450Z 16007KT 7000 BR FEW006 SCT008 BKN009 02/01 Q0995=
201502240420 METAR ESMX 240420Z AUTO 16007KT 7000 BR FEW007/// SCT009/// BKN011/// 02/01 Q0995=
201502240350 METAR ESMX 240350Z AUTO 16005KT 6000 BR FEW006/// SCT012/// OVC015/// 02/01 Q0995=
201502240320 METAR ESMX 240320Z AUTO 16005KT 5000 BR FEW006/// SCT010/// BKN016/// 02/01 Q0995=
201502240250 METAR ESMX 240250Z AUTO 17006KT 7000 BR FEW007/// SCT011/// OVC016/// 02/01 Q0995=
201502240220 METAR ESMX 240220Z AUTO 20006KT 6000 BR FEW006/// OVC007/// 01/01 Q0994=
201502240150 METAR ESMX 240150Z AUTO 18007KT 6000 BR OVC006/// 01/01 Q0994=
201502240120 METAR ESMX 240120Z AUTO 18007KT 5000 BR FEW002/// BKN008/// OVC014/// 01/01 Q0994=
201502240050 METAR ESMX 240050Z 15005KT 4200 BR NSC 01/01 Q0994=
201502240020 METAR ESMX 240020Z 16005KT 5000 BR FEW020 01/01 Q0994=
201502232350 METAR ESMX 232350Z 18007KT 6000 BR FEW007 OVC018 02/01 Q0994=
201502232320 METAR ESMX 232320Z 18006KT 5000 BR FEW004 SCT006 OVC020 02/01 Q0994=
201502232250 METAR ESMX 232250Z 17006KT 5000 BR FEW004 SCT007 BKN009 02/01 Q0993=
201502232220 METAR ESMX 232220Z 17006KT 6000 BR FEW003 BKN005 OVC008 02/01 Q0993=
201502232150 METAR ESMX 232150Z 18006KT 5000 BR BKN003 OVC007 02/01 Q0993=
201502232120 METAR ESMX 232120Z 18007KT 6000 BR OVC002 02/01 Q0993=
201502232050 METAR ESMX 232050Z 17005KT 4000 BR OVC002 01/01 Q0993=
201502232020 METAR ESMX 232020Z 18008KT 3700 BR OVC002 01/01 Q0993=
201502231950 METAR ESMX 231950Z 19008KT 3100 BR OVC002 01/01 Q0992=
201502231920 METAR ESMX 231920Z 19008KT 4900 BR OVC002 01/01 Q0992 REDZ=
201502231850 METAR ESMX 231850Z 19010KT 6000 BR OVC003 01/01 Q0992=
201502231820 METAR ESMX 231820Z 18011KT 9999 OVC005 01/01 Q0992=
201502231750 METAR ESMX 231750Z 17010KT 9000 -SN SCT005 OVC007 01/01 Q0991=
201502231720 METAR COR ESMX 231720Z 17010KT 4100 -SN SCT004 BKN007 01/00 Q0991=
201502231650 METAR ESMX 231650Z 17011KT 5000 -SNRA SCT005 OVC008 01/01 Q0991=
201502231620 METAR ESMX 231620Z 17010KT 8000 -RA FEW004 BKN008 01/01 Q0990=
201502231550 METAR COR ESMX 231550Z 16011KT 5000 -SN SCT005 BKN008 01/01 Q0990=
201502231520 METAR ESMX 231520Z 16011KT 4600 -SN BKN004 OVC008 01/00 Q0990=
201502231450 METAR ESMX 231450Z 17012KT 7000 -SN BKN004 OVC009 01/00 Q0990=
201502231420 METAR ESMX 231420Z 17012KT 9000 -SN BKN006 01/00 Q0990=
201502231350 METAR ESMX 231350Z 16013KT 6000 -SN FEW006 BKN008 01/01 Q0990=
201502231320 METAR ESMX 231320Z 17016KT 4000 -RASN FEW008 BKN011 01/00 Q0990=
201502231250 METAR ESMX 231250Z 17015G28KT 140V200 9999 -DZ SCT011 BKN014 02/00 Q0990=
201502231220 METAR ESMX 231220Z 18013KT 8000 -DZ SCT010 BKN014 02/00 Q0991=
201502231150 METAR ESMX 231150Z 17012KT 8000 -RA SCT007 BKN011 02/01 Q0991=
201502231120 METAR ESMX 231120Z 16013KT 7000 BR SCT006 BKN009 02/01 Q0991=
201502231050 METAR ESMX 231050Z 16011KT 5000 -SN SCT006 BKN010 01/00 Q0992=
201502231020 METAR ESMX 231020Z 17013KT 6000 -SN SCT006 BKN015 02/00 Q0992=
201502230950 METAR ESMX 230950Z 16015KT 9000 -SN FEW018 BKN020 02/M00 Q0993=
201502230920 METAR ESMX 230920Z 17015KT 9999 SCT017 BKN021 02/M01 Q0993=
201502230850 METAR ESMX 230850Z 16016G28KT 9999 SCT017 BKN020 02/M01 Q0994=
201502230820 METAR ESMX 230820Z 16013G24KT 9999 FEW017 BKN020 02/M01 Q0994=
201502230750 METAR ESMX 230750Z 15013KT 9999 FEW016 BKN021 02/M01 Q0994=
201502230720 METAR ESMX 230720Z 16013KT 9999 FEW016 BKN021 02/M01 Q0995=
201502230650 METAR ESMX 230650Z 15012KT 9999 FEW015 BKN020 02/M01 Q0995=
201502230620 METAR ESMX 230620Z 16012KT 140V210 9999 FEW014 BKN020 02/M01 Q0996=
201502230550 METAR ESMX 230550Z 16011KT 9999 FEW015 02/M01 Q0996=
201502230520 METAR ESMX 230520Z 16010KT CAVOK 01/M01 Q0997=
201502230450 METAR ESMX 230450Z 16008KT CAVOK 01/M01 Q0997=
201502230420 METAR ESMX 230420Z AUTO 15008KT 9999 NCD 01/M01 Q0998=
201502230350 METAR ESMX 230350Z AUTO 15008KT 9999 NCD 01/M01 Q0998=
201502230320 METAR ESMX 230320Z AUTO 16009KT 9999 NCD 01/M01 Q0999=
201502230250 METAR ESMX 230250Z AUTO 16010KT 9999 NCD 01/M01 Q0999=
201502230220 METAR ESMX 230220Z AUTO 16010KT 9999 NCD 01/M01 Q0999=
201502230150 METAR ESMX 230150Z AUTO 17010KT 9999 NCD 01/M00 Q1000=
201502230120 METAR ESMX 230120Z AUTO 17010KT 9999 NCD 01/M00 Q1000=
201502230050 METAR ESMX 230050Z AUTO 17010KT 9999 FEW008/// SCT010/// 01/00 Q1001=
201502230020 METAR ESMX 230020Z 17010KT 9999 FEW009 SCT012 BKN015 02/01 Q1001=
201502222350 METAR ESMX 222350Z 18011KT 9999 FEW006 SCT009 BKN012 02/01 Q1001=
201502222320 METAR ESMX 222320Z 17010KT 9999 SCT007 OVC010 02/01 Q1002=
201502222250 METAR ESMX 222250Z 18010KT 9999 FEW006 BKN008 OVC011 02/01 Q1002=
201502222220 METAR ESMX 222220Z 17009KT 9999 FEW006 SCT009 BKN012 02/01 Q1002=
201502222150 METAR ESMX 222150Z 17007KT 9999 FEW010 SCT017 BKN020 02/01 Q1002=
201502222120 METAR ESMX 222120Z 18008KT 9999 FEW004 SCT019 BKN023 02/01 Q1003=
201502222050 METAR ESMX 222050Z 18008KT 9999 SCT003 BKN005 OVC010 01/01 Q1002=
201502222020 METAR ESMX 222020Z 17008KT 9999 BKN003 OVC006 01/01 Q1003=
201502221950 METAR ESMX 221950Z 16008KT 6000 -RASN FEW004 BKN006 BKN008 01/01 Q1003=
201502221920 METAR ESMX 221920Z 18006KT 9999 -RA FEW006 SCT009 BKN011 02/01 Q1003 RESHUP RERA=
201502221850 METAR ESMX 221850Z 19008KT 9999 FEW010 SCT026 BKN040 02/01 Q1002=
201502221820 METAR ESMX 221820Z 21007KT 9999 FEW006 SCT024 BKN037 01/00 Q1002=
201502221750 METAR ESMX 221750Z 19005KT 9999 -RA FEW015 BKN024 OVC035 02/01 Q1002 RERA=
201502221720 METAR ESMX 221720Z 21005KT 9999 -RA FEW007 SCT020 BKN038 02/01 Q1002=
201502221650 METAR COR ESMX 221650Z 22007KT 9999 -SHRA SCT006 BKN019 02/00 Q1002=
201502221620 METAR ESMX 221620Z 23007KT 9999 FEW020 BKN030 02/00 Q1002=
201502221550 METAR ESMX 221550Z 23009KT 9999 FEW019 BKN027 03/M00 Q1001=
201502221520 METAR ESMX 221520Z 22010KT 9999 FEW021 BKN025 03/00 Q1001=
201502221450 METAR ESMX 221450Z 23012KT 9999 FEW019 BKN025 03/00 Q1001=
201502221420 METAR ESMX 221420Z 23012KT 9999 SCT021 BKN025 03/00 Q1001=
201502221350 METAR ESMX 221350Z 22014KT 9999 SCT015 BKN024 03/00 Q1001=
201502221320 METAR ESMX 221320Z 22010KT 9999 FEW007 BKN026 03/01 Q1001=
201502221250 METAR ESMX 221250Z 23010KT 9999 SCT005 BKN015 02/02 Q1001=
201502221220 METAR ESMX 221220Z 22012KT 4000 SHRASN SCT006 BKN015 03/01 Q1000=
201502221150 METAR ESMX 221150Z 20014KT 9999 FEW015 BKN020 03/01 Q1000=
201502221120 METAR ESMX 221120Z AUTO 20014KT 9999 FEW019/// BKN023/// BKN041/// 03/01 Q1000=
201502221050 METAR ESMX 221050Z AUTO 21012KT 190V250 9999 FEW012/// SCT018/// BKN026/// 03/01 Q1000=
201502221020 METAR ESMX 221020Z AUTO 22012KT 190V250 9999 FEW010/// SCT013/// BKN015/// 03/01 Q1000=
201502220950 METAR ESMX 220950Z AUTO 21013KT 9999 FEW006/// SCT008/// BKN012/// 02/01 Q1000=
201502220920 METAR ESMX 220920Z AUTO 21012KT 9000 -RA FEW007/// SCT010/// OVC013/// 02/01 Q0999 RESHUP RESN=
201502220850 METAR ESMX 220850Z AUTO 20012KT 9999 FEW006/// SCT008/// OVC010/// 02/01 Q0999 RESHUP=
201502220820 METAR ESMX 220820Z AUTO 20013KT 7000 -SN FEW005/// SCT008/// BKN009/// 02/01 Q0999=
201502220750 METAR ESMX 220750Z AUTO 20011KT 9999 -PL FEW005/// SCT008/// BKN011/// 02/01 Q0998=
201502220720 METAR ESMX 220720Z AUTO 20011KT 9999 -RA FEW006/// SCT008/// BKN011/// 01/01 Q0998 RESHUP=
201502220650 METAR ESMX 220650Z 21010KT 9999 FEW007 BKN011 01/01 Q0998=
201502220620 METAR COR ESMX 220620Z 22010KT 9999 FEW006 BKN012 01/01 Q0998=
201502220550 METAR ESMX 220550Z 23009KT 9999 SCT007 BKN010 01/01 Q0997=
201502220520 METAR ESMX 220520Z AUTO 22008KT 9999 FEW010/// SCT017/// BKN022/// 01/00 Q0997=
201502220450 METAR ESMX 220450Z AUTO 22007KT 9999 FEW007/// BKN011/// OVC016/// 01/00 Q0996=
201502220420 METAR ESMX 220420Z AUTO 23008KT 9999 FEW007/// OVC010/// 01/00 Q0996=
201502220350 METAR ESMX 220350Z AUTO 24009KT 9999 FEW005/// SCT008/// BKN010/// 01/01 Q0995=
201502220320 METAR ESMX 220320Z AUTO 24008KT 9999 UP FEW004/// OVC006/// 01/01 Q0995 RESHUP RESN=
201502220250 METAR ESMX 220250Z AUTO 24007KT 9999 OVC004/// 01/01 Q0995=
201502220220 METAR ESMX 220220Z AUTO 24009KT 190V270 5000 -SN FEW004/// OVC006/// 01/01 Q0994 RESN=
201502220150 METAR ESMX 220150Z AUTO 24009KT 9999 OVC005/// 01/00 Q0994=
201502220120 METAR ESMX 220120Z AUTO 26010KT 9999 -SN FEW006/// SCT007/// BKN008/// 01/00 Q0993=
201502220050 METAR ESMX 220050Z AUTO 26010KT 5000 -SN FEW005/// BKN007/// OVC009/// 01/00 Q0993=
201502220020 METAR ESMX 220020Z AUTO 27011KT 2300 -SN FEW005/// SCT007/// BKN009/// 01/00 Q0992=
201502212350 METAR ESMX 212350Z AUTO 28013KT 2900 -SN FEW005/// SCT007/// BKN008/// 01/00 Q0991=
201502212320 METAR ESMX 212320Z AUTO 27014KT 2600 -SN SCT005/// BKN007/// OVC009/// 01/00 Q0989=
201502212250 METAR ESMX 212250Z AUTO 27012KT 1700 -SN FEW004/// SCT005/// BKN007/// 01/00 Q0988=
201502212220 METAR ESMX 212220Z AUTO 26011KT 2400 -SN FEW003/// BKN004/// OVC007/// 01/00 Q0987=
201502212150 METAR ESMX 212150Z AUTO 25011KT 4500 RA FEW004/// BKN005/// OVC008/// 02/01 Q0986=
201502212120 METAR ESMX 212120Z 17008KT 7000 BR FEW005 SCT006 BKN008 03/03 Q0985=
201502212050 METAR ESMX 212050Z 18009KT 6000 BR OVC004 03/03 Q0985=
201502212020 METAR ESMX 212020Z 17007KT 5000 BR BKN005 OVC008 03/03 Q0986=
201502211950 METAR ESMX 211950Z 16009KT 5000 BR OVC006 03/03 Q0986=
201502211920 METAR ESMX 211920Z 15007KT 4500 BR FEW004 SCT007 BKN010 03/03 Q0986=
201502211850 METAR ESMX 211850Z 15007KT 3900 BR FEW003 BKN005 OVC008 03/02 Q0986=
201502211820 METAR ESMX 211820Z 15008KT 4100 -RA OVC004 03/03 Q0987=
201502211750 METAR ESMX 211750Z AUTO 16007KT 2600 DZ BKN001/// OVC003/// 03/03 Q0987=
201502211720 METAR ESMX 211720Z AUTO 14006KT 2200 -RA OVC001/// 03/02 Q0987=
201502211650 METAR ESMX 211650Z AUTO 15007KT 3300 -RA OVC002/// 02/02 Q0988=
201502211620 METAR ESMX 211620Z AUTO 15006KT 4600 -RA OVC003/// 02/02 Q0988=
201502211550 METAR ESMX 211550Z AUTO 15007KT 9999 -DZ BKN004/// OVC006/// 02/02 Q0988 RESHUP REDZ=
201502211520 METAR ESMX 211520Z AUTO 14006KT 9999 -DZ FEW004/// SCT006/// BKN009/// 02/02 Q0988=
201502211450 METAR ESMX 211450Z 16006KT 4800 -RA FEW005 BKN006 OVC010 03/02 Q0989=
201502211420 METAR ESMX 211420Z 15005KT 110V190 4000 RA FEW002 SCT004 OVC006 03/02 Q0989=
201502211350 METAR ESMX 211350Z 14003KT 100V170 5000 RA BKN001 OVC004 02/02 Q0989=
201502211320 METAR ESMX 211320Z 11003KT 050V160 4100 -RA BKN002 OVC003 02/02 Q0989=
201502211250 METAR ESMX 211250Z VRB03KT 4300 -RA FEW002 OVC003 02/02 Q0990=
201502211220 METAR ESMX 211220Z AUTO VRB03KT 5000 -RA OVC001/// 02/02 Q0990=
201502211150 METAR ESMX 211150Z AUTO VRB02KT 8000 -DZ OVC001/// 02/02 Q0991 RESHUP=
201502211120 METAR ESMX 211120Z AUTO VRB02KT 9999 UP OVC001/// 01/01 Q0991=
201502211050 METAR ESMX 211050Z AUTO VRB03KT 5000 -RASN OVC001/// 01/01 Q0991=
201502211020 METAR ESMX 211020Z AUTO VRB03KT 3900 -RASN OVC001/// 01/01 Q0992=
201502210950 METAR ESMX 210950Z AUTO VRB03KT 3300 -PL BKN001/// OVC004/// 01/01 Q0992=
201502210920 METAR ESMX 210920Z AUTO VRB03KT 3100 -RASN OVC001/// 01/01 Q0993=
201502210850 METAR ESMX 210850Z AUTO VRB02KT 2700 -SN OVC001/// 01/01 Q0993=
201502210820 METAR ESMX 210820Z AUTO VRB02KT 2000 -SN VV002 01/00 Q0993=
201502210750 METAR ESMX 210750Z AUTO VRB03KT 1200 R01/1200V1700U R19/1500VP2000N -SN BKN001/// OVC004/// 01/00 Q0994=
201502210720 METAR ESMX 210720Z AUTO 05003KT 1900 -SN OVC001/// 01/00 Q0994=
201502210650 METAR ESMX 210650Z AUTO 05003KT 2000 -PL BKN001/// OVC005/// 01/00 Q0994 RERASN=
201502210620 METAR ESMX 210620Z AUTO 07002KT 1900 -RASN OVC001/// 01/00 Q0994 RERA=
201502210550 METAR ESMX 210550Z AUTO 13003KT 2500 RA SCT002/// OVC005/// 01/01 Q0994=
201502210520 METAR ESMX 210520Z AUTO 15004KT 3300 -RA OVC002/// 01/01 Q0995 REDZ=
201502210450 METAR ESMX 210450Z AUTO 15004KT 120V190 3300 -RA OVC002/// 02/02 Q0995 REUP=
201502210420 METAR ESMX 210420Z AUTO VRB03KT 2900 UP OVC002/// 02/02 Q0995=
201502210350 METAR ESMX 210350Z AUTO VRB03KT 4000 BR OVC002/// 02/01 Q0996=
201502210320 METAR ESMX 210320Z AUTO 14004KT 5000 BR BKN003/// BKN006/// 02/02 Q0996=
201502210250 METAR ESMX 210250Z AUTO 12003KT 9000 BR OVC004/// 01/01 Q0997=
201502210220 METAR ESMX 210220Z AUTO VRB03KT 9999 BKN004/// OVC024/// 02/01 Q0997=
201502210150 METAR ESMX 210150Z AUTO 17003KT 9999 FEW007/// OVC022/// 02/01 Q0997=
201502210120 METAR ESMX 210120Z AUTO 17003KT 9999 FEW018/// OVC020/// 02/01 Q0998=
201502210050 METAR ESMX 210050Z AUTO 18005KT 9999 FEW018/// OVC021/// 02/01 Q0998=
201502210020 METAR ESMX 210020Z AUTO 20005KT 9999 OVC019/// 02/01 Q0999=
201502202350 METAR ESMX 202350Z AUTO 20006KT 9999 BKN014/// OVC020/// 02/01 Q0999=
201502202320 METAR ESMX 202320Z AUTO 22008KT 9999 BKN015/// OVC024/// 02/01 Q0999=
201502202250 METAR ESMX 202250Z AUTO 22008KT 9999 FEW013/// BKN018/// OVC023/// 02/01 Q0999=
201502202220 METAR ESMX 202220Z AUTO 22009KT 170V250 9999 FEW010/// SCT013/// OVC016/// 02/01 Q0999=
201502202150 METAR ESMX 202150Z AUTO 24010G20KT 9999 FEW011/// SCT015/// OVC019/// 03/01 Q0999=
201502202120 METAR ESMX 202120Z AUTO 22010KT 9999 FEW012/// OVC018/// 03/02 Q0999=
201502202050 METAR ESMX 202050Z AUTO 20011KT 8000 BR FEW005/// SCT006/// BKN008/// 03/02 Q0999 REDZ REUP=
201502202020 METAR ESMX 202020Z AUTO 20010KT 6000 BR FEW004/// OVC006/// 02/02 Q0999 REDZ=
201502201950 METAR ESMX 201950Z AUTO 20011KT 4900 BR OVC003/// 02/02 Q1000=
201502201920 METAR ESMX 201920Z AUTO 20011KT 4200 BR OVC003/// 02/02 Q1000=
201502201850 METAR ESMX 201850Z 19012KT 2800 -RA OVC003 02/01 Q1000=
201502201820 METAR ESMX 201820Z 19011KT 2300 -RASN OVC003 01/01 Q1001=
201502201750 METAR ESMX 201750Z 19012KT 2400 -RASN OVC003 01/01 Q1001=
201502201720 METAR ESMX 201720Z 19012KT 2800 -SN OVC004 01/01 Q1001 RESG=
201502201650 METAR COR ESMX 201650Z 19011KT 3700 SG OVC004 01/00 Q1001=
201502201620 METAR ESMX 201620Z 19011KT 4800 SG BKN005 OVC007 01/00 Q1001=
201502201550 METAR ESMX 201550Z 20011KT 4300 -RASN FEW003 OVC005 01/00 Q1001=
201502201520 METAR ESMX 201520Z 19010KT 3700 -RASN FEW003 BKN005 OVC009 01/00 Q1001=
201502201450 METAR ESMX 201450Z 19011KT 1400 R01/1200VP2000N R19/1300VP2000D -SN FEW004 BKN006 OVC009 01/00 Q1002=
201502201420 METAR ESMX 201420Z 19012KT 3100 -RASN FEW003 BKN005 OVC008 01/01 Q1002=
201502201350 METAR ESMX 201350Z 19011KT 1800 SN FEW004 BKN006 BKN009 01/01 Q1002=
201502201320 METAR ESMX 201320Z 19011KT 2900 SN FEW005 SCT006 BKN009 01/01 Q1002=
201502201250 METAR ESMX 201250Z 19011KT 1500 -SNRA FEW003 OVC005 01/01 Q1003=
201502201220 METAR ESMX 201220Z 20008KT 1400 R01/1500V1800N R19/1400V1600N -RASN OVC002 01/01 Q1003=
201502201150 METAR ESMX 201150Z 19011KT 1700 RASN OVC003 01/01 Q1004=
201502201120 METAR ESMX 201120Z 18010KT 3000 -SN OVC005 02/01 Q1004 RERA=
201502201050 METAR ESMX 201050Z 18010KT 2100 -RASN BKN004 OVC006 02/01 Q1005=
201502201020 METAR ESMX 201020Z 19011KT 1800 -RASN OVC004 02/01 Q1005=
201502200950 METAR ESMX 200950Z 19012KT 1800 -RADZ OVC003 02/01 Q1005=
201502200920 METAR ESMX 200920Z 20012KT 1700 -RADZ OVC004 02/01 Q1005=
201502200850 METAR ESMX 200850Z 20012KT 1700 DZ BR OVC003 02/01 Q1006=
201502200820 METAR ESMX 200820Z 20013KT 1400 R01/1500V1800N R19/1600V1800N DZ BR OVC004 02/01 Q1006=
201502200750 METAR COR ESMX 200750Z 19012KT 1500 DZ BR OVC005 02/01 Q1006=
201502200720 METAR ESMX 200720Z 20011KT 2000 DZ BR OVC005 02/01 Q1007=
201502200650 METAR ESMX 200650Z 20011KT 2200 BR OVC005 02/01 Q1007=
201502200620 METAR ESMX 200620Z 20012KT 2000 BR OVC005 02/01 Q1007=
201502200550 METAR ESMX 200550Z 20011KT 2500 BR OVC005 02/01 Q1007=
201502200520 METAR ESMX 200520Z 20011KT 2500 BR OVC006 02/01 Q1007=
201502200450 METAR ESMX 200450Z AUTO 20011KT 2700 BR OVC006/// 02/01 Q1008=
201502200420 METAR ESMX 200420Z AUTO 19011KT 2900 BR OVC007/// 02/01 Q1008=
201502200350 METAR ESMX 200350Z AUTO 19013KT 3300 BR OVC007/// 02/01 Q1008=
201502200320 METAR ESMX 200320Z AUTO 21011KT 4100 BR OVC008/// 02/01 Q1009=
201502200250 METAR ESMX 200250Z AUTO 20011KT 4500 BR OVC009/// 02/00 Q1009=
201502200220 METAR ESMX 200220Z AUTO 21011KT 6000 BR OVC011/// 02/00 Q1009=
201502200150 METAR ESMX 200150Z AUTO 20012KT 6000 BR OVC012/// 02/M00 Q1010=
201502200120 METAR ESMX 200120Z AUTO 22013KT 5000 BR OVC011/// 02/M00 Q1010=
201502200050 METAR ESMX 200050Z 22011KT 5000 BR OVC010 02/00 Q1011=
201502200020 METAR ESMX 200020Z 20012KT 5000 BR OVC010 02/M00 Q1011=
201502192350 METAR ESMX 192350Z 21012KT 6000 BR OVC010 02/M00 Q1011=
201502192320 METAR ESMX 192320Z 22013KT 6000 BR OVC010 01/M01 Q1012=
201502192250 METAR ESMX 192250Z 22012KT 5000 BR OVC009 01/00 Q1012=
201502192220 METAR ESMX 192220Z 22013KT 190V250 5000 BR OVC006 02/00 Q1013=
201502192150 METAR ESMX 192150Z 24012KT 4000 BR OVC009 02/01 Q1013=
201502192120 METAR ESMX 192120Z 23012KT 6000 BR OVC009 02/00 Q1013=
201502192050 METAR ESMX 192050Z 22013KT 8000 BR OVC012 02/00 Q1013=
201502192020 METAR COR ESMX 192020Z 24013KT 210V270 9999 OVC013 03/00 Q1013=
201502191950 METAR ESMX 191950Z 24013KT 9999 OVC013 03/01 Q1013=
201502191920 METAR ESMX 191920Z 24014KT 8000 BR OVC011 03/01 Q1014=
201502191850 METAR ESMX 191850Z 23014KT 8000 BR OVC010 03/01 Q1014=
201502191820 METAR COR ESMX 191820Z 23014KT 8000 BR OVC011 03/01 Q1014=
201502191750 METAR ESMX 191750Z 23012KT 9000 BR OVC013 03/00 Q1014=
201502191720 METAR ESMX 191720Z 24015KT 9000 BR OVC011 03/01 Q1015=
201502191650 METAR COR ESMX 191650Z 25012KT 210V280 9000 BR FEW009 OVC012 03/01 Q1015=
201502191620 METAR ESMX 191620Z 24014KT 9000 BR FEW006 OVC007 03/01 Q1015=
201502191550 METAR ESMX 191550Z 24013KT 210V280 6000 BR OVC005 03/02 Q1015=
201502191520 METAR ESMX 191520Z 22010KT 190V250 5000 BR OVC004 03/02 Q1015=
201502191450 METAR ESMX 191450Z 22010KT 200V260 5000 BR OVC005 03/02 Q1015=
201502191420 METAR ESMX 191420Z 22010KT 7000 BR OVC005 03/02 Q1016=
201502191350 METAR ESMX 191350Z 23012KT 7000 BR OVC006 03/02 Q1016=
201502191320 METAR ESMX 191320Z 22011KT 190V260 5000 BR FEW004 OVC005 03/03 Q1016=
201502191250 METAR ESMX 191250Z 24010KT 210V280 4000 BR OVC004 03/03 Q1017=
201502191220 METAR ESMX 191220Z 25013KT 2200 BR OVC002 03/03 Q1017=
201502191150 METAR ESMX 191150Z 25013KT 1800 BR OVC002 04/03 Q1017=
201502191120 METAR ESMX 191120Z 23013KT 3300 BR OVC003 04/03 Q1017=
201502191050 METAR ESMX 191050Z 23013KT 7000 BR SCT003 BKN005 04/04 Q1017=
201502191020 METAR ESMX 191020Z 23010KT 6000 BR SCT003 BKN005 05/04 Q1017=
201502190950 METAR ESMX 190950Z 23011KT 5000 BR SCT003 BKN005 05/04 Q1017=
201502190920 METAR ESMX 190920Z 23010KT 5000 BR SCT003 BKN005 OVC030 04/04 Q1017=
201502190850 METAR COR ESMX 190850Z 23009KT 8000 BR SCT003 BKN005 04/04 Q1017=
201502190820 METAR COR ESMX 190820Z 23009KT 8000 BR SCT003 BKN005 04/04 Q1017=
201502190750 METAR ESMX 190750Z 24010KT 200V260 9999 OVC005 04/03 Q1018=
201502190720 METAR COR ESMX 190720Z 24010KT 9999 OVC004 04/03 Q1018=
201502190650 METAR ESMX 190650Z 24009KT 9999 OVC003 04/04 Q1018=
201502190620 METAR ESMX 190620Z 23010KT 9999 OVC003 04/04 Q1018=
201502190550 METAR ESMX 190550Z 23010KT 8000 BR OVC002 04/04 Q1018=
201502190520 METAR ESMX 190520Z 23009KT 4000 BR OVC002 04/04 Q1019=
201502190450 METAR ESMX 190450Z 23010KT 3500 BR OVC002 04/04 Q1019=
201502190420 METAR ESMX 190420Z AUTO 23010KT 3700 BR OVC001/// 04/04 Q1019=
201502190350 METAR ESMX 190350Z AUTO 24010KT 3900 BR OVC001/// 04/04 Q1019=
201502190320 METAR ESMX 190320Z AUTO 25011KT 3200 BR OVC001/// 04/04 Q1019=
201502190250 METAR ESMX 190250Z AUTO 25011KT 210V270 2500 BR OVC001/// 04/04 Q1020=
201502190220 METAR ESMX 190220Z AUTO 25012KT 2300 BR OVC001/// 04/04 Q1020=
201502190150 METAR ESMX 190150Z AUTO 25011KT 1900 BR OVC001/// 04/04 Q1020=
201502190120 METAR ESMX 190120Z AUTO 23011KT 200V260 4100 BR OVC002/// 04/04 Q1020=
201502190050 METAR ESMX 190050Z 25012KT 230V290 5000 BR OVC002 04/04 Q1021=
201502190020 METAR ESMX 190020Z 24013KT 6000 BR OVC003 04/03 Q1021=
201502182350 METAR ESMX 182350Z 25013KT 4300 BR OVC002 04/03 Q1021=
201502182320 METAR ESMX 182320Z 25015KT 7000 BR OVC003 04/03 Q1021=
201502182250 METAR ESMX 182250Z 24012KT 9999 OVC004 04/03 Q1021=
201502182220 METAR ESMX 182220Z 25012KT 7000 BR OVC003 04/03 Q1021=
201502182150 METAR ESMX 182150Z 25012KT 9000 BR OVC004 04/03 Q1022=
201502182120 METAR ESMX 182120Z 24013KT 6000 BR OVC004 04/03 Q1022=
201502182050 METAR ESMX 182050Z 23012KT 5000 BR OVC005 04/03 Q1022=
201502182020 METAR ESMX 182020Z 25011KT 5000 BR OVC006 04/03 Q1022=
201502181950 METAR ESMX 181950Z 24013KT 7000 BR OVC007 04/03 Q1022=
201502181920 METAR ESMX 181920Z 23013KT 200V260 9999 OVC007 04/03 Q1023=
201502181850 METAR ESMX 181850Z 22013KT 9999 OVC008 04/03 Q1023=
201502181820 METAR ESMX 181820Z 23012KT 200V260 9999 OVC008 04/03 Q1023=
201502181750 METAR ESMX 181750Z 23011KT 210V280 9999 OVC008 04/03 Q1023=
201502181720 METAR ESMX 181720Z 24013KT 9999 -RA OVC009 04/03 Q1023=
201502181650 METAR ESMX 181650Z 24013KT 9999 -RA OVC010 04/02 Q1023=
201502181620 METAR ESMX 181620Z 24013G24KT 9999 OVC012 04/02 Q1024=
201502181550 METAR ESMX 181550Z 24014KT 9999 -RA BKN013 04/02 Q1024=
201502181520 METAR COR ESMX 181520Z 24013G24KT 9999 BKN014 05/02 Q1024=
201502181450 METAR ESMX 181450Z 23014KT 200V290 9999 BKN015 05/02 Q1024=
201502181420 METAR ESMX 181420Z 24012KT 210V270 9999 BKN015 05/02 Q1025=
201502181350 METAR ESMX 181350Z 23013KT 200V270 9999 BKN016 05/02 Q1025=
201502181320 METAR ESMX 181320Z 25013KT 9999 BKN019 06/02 Q1025=
201502181250 METAR ESMX 181250Z 26016KT 9999 FEW020 SCT046 BKN066 06/02 Q1025=
201502181220 METAR ESMX 181220Z 24017KT 9999 FEW015 SCT080 07/01 Q1025=
201502181150 METAR ESMX 181150Z 24014KT 9999 FEW015 SCT054 06/01 Q1026=
201502181120 METAR ESMX 181120Z 24012G25KT 9999 FEW015 SCT100 06/02 Q1026=
201502181050 METAR ESMX 181050Z 24012KT 210V280 9999 FEW014 SCT017 06/02 Q1027=
201502181020 METAR ESMX 181020Z 23013KT 200V260 9999 BKN013 05/02 Q1027=
201502180950 METAR ESMX 180950Z 24012KT 9999 BKN012 BKN017 04/02 Q1028=
201502180920 METAR ESMX 180920Z 23012KT 200V270 9999 OVC008 04/02 Q1028=
201502180850 METAR COR ESMX 180850Z 24010KT 9999 OVC008 04/02 Q1028=
201502180820 METAR ESMX 180820Z 24011KT 9999 OVC009 04/02 Q1028=
201502180750 METAR ESMX 180750Z 24011KT 9999 OVC009 03/02 Q1028=
201502180720 METAR ESMX 180720Z 25012KT 9999 FEW008 OVC010 03/02 Q1029=
201502180650 METAR ESMX 180650Z 23012KT 200V260 9999 OVC007 03/02 Q1028=
201502180620 METAR ESMX 180620Z 24012KT 9999 OVC006 03/02 Q1028=
201502180550 METAR ESMX 180550Z 24012KT 9999 OVC006 03/02 Q1028=
201502180520 METAR ESMX 180520Z 24011KT 9999 OVC006 03/02 Q1028=
201502180450 METAR ESMX 180450Z 24011KT 9999 OVC007 03/02 Q1028=
201502180420 METAR ESMX 180420Z AUTO 23010KT 9999 OVC007/// 03/02 Q1028=
201502180350 METAR ESMX 180350Z AUTO 23010KT 200V270 9999 OVC006/// 03/01 Q1028=
201502180320 METAR ESMX 180320Z AUTO 24011KT 9999 BKN005/// OVC007/// 03/02 Q1028=
201502180250 METAR ESMX 180250Z AUTO 24012KT 9999 OVC005/// 02/01 Q1028=
201502180220 METAR ESMX 180220Z AUTO 23013KT 9000 BR OVC006/// 02/01 Q1028=
201502180150 METAR ESMX 180150Z AUTO 24011KT 8000 BR OVC006/// 02/01 Q1028=
201502180120 METAR ESMX 180120Z AUTO 24011KT 210V270 7000 BR OVC006/// 02/01 Q1028=
201502180050 METAR ESMX 180050Z AUTO 24012KT 6000 BR OVC006/// 02/01 Q1028=
201502180020 METAR ESMX 180020Z 24012KT 7000 BR OVC008 02/01 Q1028=
201502172350 METAR ESMX 172350Z 24011KT 210V280 7000 BR OVC008 02/01 Q1028=
201502172320 METAR ESMX 172320Z 22010KT 6000 BR FEW007 OVC009 02/00 Q1028=
201502172250 METAR ESMX 172250Z AUTO 22009KT 5000 BR BKN007/// OVC009/// 01/00 Q1029=
201502172220 METAR ESMX 172220Z 24010KT 4800 BR OVC008 01/M00 Q1029=
201502172150 METAR ESMX 172150Z 24011KT 4000 BR FEW004 BKN006 OVC008 01/M00 Q1029=
201502172120 METAR ESMX 172120Z 22009KT 3700 BR FEW003 BKN005 OVC007 01/00 Q1029=
201502172050 METAR ESMX 172050Z 22009KT 2500 BR OVC003 01/00 Q1029=
201502172020 METAR ESMX 172020Z 23009KT 200V260 2400 BR OVC002 00/00 Q1029=
201502171950 METAR ESMX 171950Z 22010KT 2300 BR OVC003 00/M00 Q1029=
201502171920 METAR ESMX 171920Z 23008KT 3500 BR OVC004 00/M01 Q1029=
201502171850 METAR ESMX 171850Z 22008KT 4500 SG OVC005 00/M01 Q1029=
201502171820 METAR ESMX 171820Z 22009KT 5000 BR OVC007 00/M01 Q1029=
201502171750 METAR ESMX 171750Z 22008KT 6000 BR OVC008 00/M01 Q1029=
201502171720 METAR ESMX 171720Z 21007KT 6000 BR OVC009 01/M01 Q1028=
201502171650 METAR ESMX 171650Z 20009KT 6000 BR OVC009 01/M01 Q1028=
201502171620 METAR ESMX 171620Z 20009KT 7000 BR OVC010 00/M01 Q1028=
201502171550 METAR ESMX 171550Z 19008KT 8000 BR OVC010 00/M01 Q1028=
201502171520 METAR ESMX 171520Z 22008KT 8000 BR OVC010 00/M01 Q1028=
201502171450 METAR COR ESMX 171450Z 20009KT 9000 BR OVC010 00/M02 Q1028=
201502171420 METAR ESMX 171420Z 19009KT 9999 OVC011 01/M02 Q1027=
201502171350 METAR ESMX 171350Z 20009KT 9999 OVC011 00/M02 Q1027=
201502171320 METAR ESMX 171320Z 19010KT 9999 OVC011 00/M02 Q1027=
201502171250 METAR ESMX 171250Z 19009KT 9999 OVC011 00/M02 Q1027=
201502171220 METAR ESMX 171220Z 19010KT 9999 OVC011 00/M02 Q1027=
201502171150 METAR COR ESMX 171150Z 18010KT 9999 OVC011 00/M02 Q1027=
201502171120 METAR ESMX 171120Z 18012KT 9999 OVC012 M00/M03 Q1027=
201502171050 METAR ESMX 171050Z 17009KT 150V210 9999 OVC012 M00/M03 Q1028=
201502171020 METAR ESMX 171020Z 18012KT 9999 OVC012 M00/M03 Q1028=
201502170950 METAR ESMX 170950Z 17011KT 9999 OVC012 M00/M03 Q1028=
201502170920 METAR ESMX 170920Z 18010KT 9999 OVC013 M00/M03 Q1027=
201502170850 METAR ESMX 170850Z 17012KT 9999 OVC013 M00/M03 Q1027=
201502170820 METAR ESMX 170820Z 17013KT 9999 OVC013 M00/M03 Q1027=
201502170750 METAR ESMX 170750Z 17010KT 9999 OVC013 M00/M03 Q1028=
201502170720 METAR ESMX 170720Z 18010KT 9999 OVC014 M00/M03 Q1027=
201502170650 METAR ESMX 170650Z 17010KT 9999 OVC014 M00/M03 Q1027=
201502170620 METAR COR ESMX 170620Z 17011KT 9999 OVC014 M00/M03 Q1027=
201502170550 METAR ESMX 170550Z 15010KT 9999 OVC013 M00/M03 Q1027=
201502170520 METAR ESMX 170520Z 16011KT 120V180 9999 OVC013 M00/M03 Q1027=
201502170450 METAR ESMX 170450Z 16010KT 9999 OVC014 M00/M03 Q1027=
201502170420 METAR ESMX 170420Z AUTO 16011KT 120V190 9999 OVC014/// M00/M03 Q1027=
201502170350 METAR ESMX 170350Z AUTO 16013KT 9999 OVC015/// M00/M03 Q1027=
201502170320 METAR ESMX 170320Z AUTO 17012KT 9999 OVC016/// M00/M03 Q1027=
201502170250 METAR ESMX 170250Z AUTO 17010KT 140V210 9999 OVC016/// M00/M03 Q1027=
201502170220 METAR ESMX 170220Z AUTO 15011KT 9999 OVC016/// 00/M03 Q1027=
201502170150 METAR ESMX 170150Z AUTO 16011KT 9999 OVC016/// 00/M03 Q1027=
201502170120 METAR ESMX 170120Z AUTO 17010KT 140V200 9999 OVC016/// 00/M03 Q1027=
201502170050 METAR ESMX 170050Z 16012KT 120V190 9999 OVC016 00/M03 Q1027=
201502170020 METAR ESMX 170020Z 15010KT 110V170 9999 OVC016 00/M03 Q1027=
201502162350 METAR ESMX 162350Z 16011KT 9999 OVC016 00/M03 Q1027=
201502162320 METAR ESMX 162320Z 15011KT 9999 OVC016 00/M03 Q1027=
201502162250 METAR ESMX 162250Z 16010KT 9999 OVC015 00/M03 Q1027=
201502162220 METAR ESMX 162220Z 15011KT 110V190 9999 OVC015 00/M03 Q1027=
201502162150 METAR COR ESMX 162150Z 15010KT 9999 OVC016 00/M03 Q1028=
201502162120 METAR ESMX 162120Z 16009KT 110V190 9999 OVC015 00/M03 Q1028=
201502162050 METAR ESMX 162050Z 15007KT 120V200 9999 OVC015 00/M03 Q1028=
201502162020 METAR ESMX 162020Z 15008KT 110V190 9999 OVC015 00/M03 Q1028=
201502161950 METAR COR ESMX 161950Z 15008KT 110V190 9999 OVC015 00/M03 Q1028=
201502161920 METAR ESMX 161920Z 15008KT 110V190 9999 OVC015 M00/M03 Q1028=
201502161850 METAR COR ESMX 161850Z 14008KT 100V170 9999 OVC014 M00/M03 Q1028=
201502161820 METAR ESMX 161820Z 15009KT 110V190 9999 OVC014 M00/M03 Q1028=
201502161750 METAR ESMX 161750Z 14010G23KT 110V180 9999 OVC015 M00/M03 Q1028=
201502161720 METAR ESMX 161720Z 14010KT 9999 OVC014 M00/M03 Q1028=
201502161650 METAR ESMX 161650Z 14010KT 090V170 9999 OVC014 00/M03 Q1028=
201502161620 METAR ESMX 161620Z 13010KT 080V170 9999 OVC014 00/M03 Q1028=
201502161550 METAR ESMX 161550Z 13009KT 080V160 9999 OVC013 00/M03 Q1028=
201502161520 METAR ESMX 161520Z 13008KT 080V160 9999 OVC014 00/M03 Q1028=
201502161450 METAR ESMX 161450Z 14009KT 110V170 9999 OVC013 01/M02 Q1028=
201502161420 METAR ESMX 161420Z 14008KT 090V160 9999 OVC013 01/M02 Q1028=
201502161350 METAR ESMX 161350Z 14008KT 100V190 9999 OVC012 01/M02 Q1028=
201502161320 METAR ESMX 161320Z 14008KT 100V180 9999 OVC012 01/M02 Q1028=
201502161250 METAR ESMX 161250Z 13009KT 100V180 9999 OVC012 01/M02 Q1028=
201502161220 METAR ESMX 161220Z 14011KT 090V170 9999 OVC012 01/M02 Q1028=
201502161150 METAR ESMX 161150Z 13009KT 080V170 9999 OVC012 01/M02 Q1029=
201502161120 METAR ESMX 161120Z 13008KT 100V170 9999 OVC012 01/M02 Q1029=
201502161050 METAR ESMX 161050Z 13008KT 070V160 9999 OVC012 01/M02 Q1029=
201502161020 METAR ESMX 161020Z 13009KT 080V170 9999 OVC011 00/M02 Q1029=
201502160950 METAR ESMX 160950Z 13009KT 020V170 9999 OVC012 00/M02 Q1029=
201502160920 METAR ESMX 160920Z 13010KT 080V160 9999 OVC013 00/M02 Q1029=
201502160850 METAR ESMX 160850Z 13009KT 080V170 9999 OVC012 00/M03 Q1029=
201502160820 METAR ESMX 160820Z 13009KT 080V170 9999 OVC012 00/M02 Q1029=
201502160750 METAR ESMX 160750Z 11008KT 040V170 9999 OVC012 M00/M03 Q1029=
201502160720 METAR ESMX 160720Z 11006KT 060V170 9999 OVC013 M00/M03 Q1029=
201502160650 METAR ESMX 160650Z 10008KT 050V150 9999 OVC013 M01/M03 Q1030=
201502160620 METAR ESMX 160620Z 10006KT 070V150 9999 OVC014 M01/M04 Q1030=
201502160550 METAR ESMX 160550Z 10007KT 050V140 9999 OVC015 M01/M04 Q1030=
201502160520 METAR ESMX 160520Z 10009KT 060V150 9999 OVC016 M01/M04 Q1030=
201502160450 METAR ESMX 160450Z VRB08G19KT 360V360 9999 OVC018 M01/M05 Q1030=
201502160420 METAR ESMX 160420Z AUTO 11009KT 070V150 9999 OVC018/// M01/M05 Q1030=
201502160350 METAR ESMX 160350Z AUTO 12006KT 080V160 9999 OVC018/// M01/M04 Q1030=
201502160320 METAR ESMX 160320Z AUTO 11010KT 060V150 9999 OVC018/// M01/M04 Q1031=
201502160250 METAR ESMX 160250Z AUTO 11008KT 060V170 9999 OVC019/// M01/M05 Q1031=
201502160220 METAR ESMX 160220Z AUTO 11007KT 060V160 9999 OVC019/// M01/M05 Q1031=
201502160150 METAR ESMX 160150Z AUTO 11010KT 040V140 9999 OVC019/// M00/M04 Q1031=
201502160120 METAR ESMX 160120Z AUTO 11008KT 060V160 9999 OVC019/// M00/M05 Q1031=
201502160050 METAR ESMX 160050Z AUTO 11008G19KT 070V150 9999 OVC019/// M00/M04 Q1031=
201502160020 METAR ESMX 160020Z AUTO 11009G23KT 050V150 9999 OVC019/// M00/M04 Q1031=
201502152350 METAR ESMX 152350Z 11008KT 060V170 9999 OVC020 M00/M04 Q1031=
201502152320 METAR ESMX 152320Z 10010KT 060V140 9999 OVC020 00/M04 Q1031=
201502152250 METAR COR ESMX 152250Z 11010KT 060V150 9999 OVC019 00/M04 Q1031=
201502152220 METAR ESMX 152220Z 11009KT 080V160 9999 OVC018 00/M04 Q1031=
201502152150 METAR COR ESMX 152150Z 11007KT 070V160 9999 OVC019 00/M04 Q1031=
201502152120 METAR ESMX 152120Z 10008KT 050V150 9999 OVC019 00/M04 Q1031=
201502152050 METAR ESMX 152050Z 09008KT 060V130 9999 OVC020 00/M04 Q1031=
201502152020 METAR ESMX 152020Z 09007KT 050V130 9999 OVC020 00/M04 Q1031=
201502151950 METAR ESMX 151950Z 09008KT 050V170 9999 OVC020 00/M04 Q1031=
201502151920 METAR ESMX 151920Z 09008KT 050V160 9999 OVC019 00/M04 Q1031=
201502151850 METAR ESMX 151850Z 09010KT 050V140 9999 OVC020 M00/M04 Q1031=
201502151820 METAR ESMX 151820Z 09010KT 050V140 9999 OVC020 00/M04 Q1031=
201502151750 METAR ESMX 151750Z 08010KT 050V130 9999 OVC019 00/M04 Q1031=
201502151720 METAR ESMX 151720Z 09009G21KT 050V140 9999 OVC019 01/M04 Q1031=
201502151650 METAR ESMX 151650Z 08010G21KT 050V120 9999 BKN019 01/M03 Q1030=
201502151620 METAR ESMX 151620Z 09009G19KT 040V130 9999 BKN020 01/M03 Q1030=
201502151550 METAR ESMX 151550Z 09008KT 010V150 9999 BKN020 01/M02 Q1030=
201502151520 METAR ESMX 151520Z 09011G21KT 050V150 9999 BKN020 01/M03 Q1030=
201502151450 METAR ESMX 151450Z 09009KT 030V140 9999 FEW019 BKN022 02/M03 Q1030=
201502151420 METAR ESMX 151420Z 09009G19KT 040V130 9999 FEW010 BKN019 01/M01 Q1030=
201502151350 METAR ESMX 151350Z 09008G19KT 040V130 9999 FEW019 BKN021 01/M01 Q1029=
201502151320 METAR ESMX 151320Z 08007KT 030V140 9999 6000S -SN SCT006 BKN015 01/00 Q1029=
201502151250 METAR ESMX 151250Z 09009KT 050V110 3000 SN SCT006 BKN010 02/M00 Q1029=
201502151220 METAR ESMX 151220Z 08009KT 050V120 8000 -SN FEW009 BKN014 02/M00 Q1029=
201502151150 METAR ESMX 151150Z 09008KT 050V140 9999 -SN OVC015 02/M01 Q1029=
201502151120 METAR ESMX 151120Z AUTO 09008KT 040V160 9999 FEW012/// BKN015/// OVC020/// 02/M00 Q1029=
201502151050 METAR ESMX 151050Z AUTO 09008KT 060V130 9999 SG BKN013/// OVC023/// 02/M00 Q1029 RESHUP RESN=
201502151020 METAR ESMX 151020Z AUTO 09007KT 050V140 9999 SCT015/// BKN019/// OVC022/// 02/M01 Q1029 RESHUP=
201502150950 METAR ESMX 150950Z AUTO 08008KT 030V120 6000 -SN FEW012/// SCT015/// OVC018/// 02/M01 Q1028 REUP=
201502150920 METAR ESMX 150920Z AUTO 09009KT 050V140 9999 FEW015/// SCT019/// BKN021/// 02/M01 Q1028 REUP=
201502150850 METAR ESMX 150850Z AUTO 08010KT 040V130 9999 FEW017/// SCT021/// BKN025/// 02/M01 Q1028=
201502150820 METAR ESMX 150820Z 08008KT 040V120 9999 BKN015 02/M01 Q1028=
201502150750 METAR ESMX 150750Z 08008KT 040V120 9999 FEW013 BKN015 02/M01 Q1028=
201502150720 METAR ESMX 150720Z 07006KT 030V160 9999 OVC012 01/M01 Q1027=
201502150650 METAR ESMX 150650Z 08006KT 040V170 9999 OVC012 01/M01 Q1027=
201502150620 METAR ESMX 150620Z 07007KT 020V110 9999 OVC011 01/M01 Q1027=
201502150550 METAR ESMX 150550Z 07008KT 030V130 9999 -SN OVC011 01/M01 Q1026=
201502150520 METAR ESMX 150520Z AUTO 05008KT 010V090 9999 -SN OVC010/// 01/M01 Q1026=
201502150450 METAR ESMX 150450Z AUTO 06007KT 040V100 6000 SG FEW009/// OVC010/// 01/M01 Q1026 RESHUP=
201502150420 METAR ESMX 150420Z AUTO 07007KT 030V100 9999 UP OVC012/// 01/M01 Q1025 RERA RESHUP=
201502150350 METAR ESMX 150350Z AUTO 07006KT 030V100 9999 FEW011/// BKN014/// OVC018/// 01/M01 Q1025 REUP=
201502150320 METAR ESMX 150320Z AUTO 07007KT 030V110 9999 UP BKN013/// OVC025/// 01/M01 Q1025=
201502150250 METAR ESMX 150250Z AUTO 06006KT 010V110 9999 FEW014/// OVC021/// 01/M01 Q1025=
201502150220 METAR ESMX 150220Z AUTO 07007KT 020V120 9999 FEW012/// BKN014/// OVC018/// 01/M01 Q1025=
201502150150 METAR ESMX 150150Z AUTO 07007KT 030V100 9999 OVC010/// 00/M01 Q1025=
201502150120 METAR ESMX 150120Z AUTO 06009KT 040V110 9999 FEW009/// OVC011/// 00/M01 Q1024=
201502150050 METAR ESMX 150050Z AUTO 07007KT 030V110 9999 OVC008/// 00/M01 Q1024=
201502150020 METAR ESMX 150020Z AUTO 07006KT 040V120 9999 OVC008/// M00/M01 Q1024=
201502142350 METAR ESMX 142350Z AUTO 08008KT 030V110 9999 OVC008/// M00/M02 Q1023=
201502142320 METAR ESMX 142320Z AUTO 07007KT 030V100 9999 OVC009/// M01/M02 Q1023=
201502142250 METAR ESMX 142250Z AUTO 06004KT 020V100 9999 FEW007/// OVC009/// M02/M02 Q1023=
201502142220 METAR ESMX 142220Z AUTO 04004KT 9999 OVC007/// M02/M03 Q1023=
201502142150 METAR ESMX 142150Z AUTO 36003KT 9000 BR OVC007/// M03/M04 Q1022=
201502142120 METAR ESMX 142120Z AUTO 04003KT 5000 BR SCT008/// M04/M04 Q1022=
201502142050 METAR ESMX 142050Z AUTO 04003KT 2500 BR NCD M04/M04 Q1022=
201502142020 METAR ESMX 142020Z AUTO 05003KT 6000 BR NCD M04/M05 Q1021=
201502141950 METAR ESMX 141950Z AUTO VRB03KT 8000 BR NCD M03/M04 Q1021=
201502141920 METAR ESMX 141920Z 06003KT 9000 BR NSC M03/M04 Q1021=
201502141850 METAR ESMX 141850Z 03003KT 9000 BR NSC M03/M04 Q1020=
201502141820 METAR ESMX 141820Z VRB03KT 8000 BR NSC M03/M04 Q1020=
201502141750 METAR ESMX 141750Z 07003KT 7000 BR NSC M03/M04 Q1020=
201502141720 METAR ESMX 141720Z AUTO 07002KT 9000 BR NCD M03/M04 Q1020=
201502141650 METAR ESMX 141650Z AUTO VRB03KT 9000 NCD M02/M03 Q1019=
201502141620 METAR ESMX 141620Z AUTO 06003KT 9000 NCD M02/M03 Q1019=
201502141550 METAR ESMX 141550Z AUTO 08004KT 040V150 9999 BKN008/// M02/M03 Q1019=
201502141520 METAR ESMX 141520Z AUTO 05006KT 9000 BR OVC006/// M01/M03 Q1018=
201502141450 METAR ESMX 141450Z AUTO 06004KT 030V110 9000 BR OVC006/// M01/M02 Q1018=
201502141420 METAR ESMX 141420Z AUTO 04006KT 8000 BR OVC006/// M01/M02 Q1018=
201502141350 METAR ESMX 141350Z AUTO 04006KT 8000 BR OVC005/// M01/M02 Q1018=
201502141320 METAR ESMX 141320Z AUTO 05005KT 010V090 7000 BR OVC005/// M01/M02 Q1018=
201502141250 METAR ESMX 141250Z AUTO 03004KT 350V090 7000 BR OVC005/// M01/M02 Q1018=
201502141220 METAR ESMX 141220Z AUTO 07003KT 020V150 6000 BR OVC004/// M01/M02 Q1018=
201502141150 METAR ESMX 141150Z AUTO 04005KT 020V080 6000 BR OVC004/// M01/M03 Q1017=
201502141120 METAR ESMX 141120Z AUTO 06004KT 020V090 5000 BR OVC003/// M02/M02 Q1017=
201502141050 METAR ESMX 141050Z AUTO 04005KT 360V080 5000 BR OVC003/// M02/M02 Q1017=
201502141020 METAR ESMX 141020Z AUTO 06004KT 010V100 5000 BR OVC002/// M02/M02 Q1017=
201502140950 METAR ESMX 140950Z AUTO 03005KT 4600 BR OVC002/// M02/M03 Q1017=
201502140920 METAR ESMX 140920Z AUTO 06004KT 030V110 4100 BR OVC001/// M02/M03 Q1017=
201502140850 METAR ESMX 140850Z AUTO 12003KT 060V160 4100 BR OVC002/// M02/M03 Q1017=
201502140820 METAR ESMX 140820Z AUTO 05004KT 010V100 4500 BR OVC002/// M02/M03 Q1017=
201502140750 METAR ESMX 140750Z AUTO 08004KT 040V140 5000 BR OVC003/// M02/M03 Q1017=
201502140720 METAR ESMX 140720Z AUTO 11003KT 060V150 4900 BR OVC003/// M02/M03 Q1017=
201502140650 METAR ESMX 140650Z AUTO 11003KT 060V150 4800 BR OVC003/// M02/M03 Q1017=
201502140620 METAR ESMX 140620Z AUTO VRB03KT 4900 BR OVC003/// M02/M03 Q1016=
201502140550 METAR ESMX 140550Z AUTO 12004KT 080V160 4900 BR OVC003/// M02/M03 Q1016=
201502140520 METAR ESMX 140520Z AUTO 08004KT 030V110 5000 BR OVC003/// M02/M03 Q1016=
201502140450 METAR ESMX 140450Z AUTO 11003KT 060V160 6000 BR OVC003/// M02/M03 Q1016=
201502140420 METAR ESMX 140420Z AUTO VRB03KT 5000 BR OVC004/// M02/M03 Q1016=
201502140350 METAR ESMX 140350Z AUTO 36003KT 5000 BR OVC004/// M02/M03 Q1016=
201502140320 METAR ESMX 140320Z AUTO 04003KT 340V070 5000 BR OVC004/// M02/M03 Q1016=
201502140250 METAR ESMX 140250Z AUTO 03004KT 5000 BR OVC004/// M02/M03 Q1016=
201502140220 METAR ESMX 140220Z AUTO 01002KT 5000 BR OVC004/// M02/M02 Q1016=
201502140150 METAR ESMX 140150Z AUTO VRB03KT 4800 BR OVC004/// M02/M02 Q1016=
201502140120 METAR ESMX 140120Z AUTO VRB03KT 5000 BR OVC003/// M02/M02 Q1016=
201502140050 METAR ESMX 140050Z AUTO 16003KT 120V190 5000 BR OVC003/// M02/M02 Q1016=
201502140020 METAR ESMX 140020Z AUTO VRB01KT 4700 BR OVC004/// M02/M02 Q1016=
201502132350 METAR ESMX 132350Z AUTO 00000KT 4600 BR OVC004/// M02/M02 Q1016=
201502132320 METAR ESMX 132320Z AUTO VRB02KT 5000 BR OVC004/// M02/M02 Q1016=
201502132250 METAR ESMX 132250Z AUTO VRB02KT 5000 BR OVC004/// M01/M02 Q1016=
201502132220 METAR ESMX 132220Z AUTO VRB03KT 5000 BR OVC004/// M01/M02 Q1016=
201502132150 METAR ESMX 132150Z AUTO 25003KT 5000 BR OVC004/// M01/M02 Q1016=
201502132120 METAR ESMX 132120Z AUTO 21005KT 6000 BR OVC004/// M01/M02 Q1016=
201502132050 METAR ESMX 132050Z AUTO 20004KT 140V220 5000 BR OVC004/// M01/M02 Q1016=
201502132020 METAR ESMX 132020Z AUTO 23004KT 4700 BR OVC004/// M01/M02 Q1016=
201502131950 METAR ESMX 131950Z AUTO 26004KT 230V290 4700 BR OVC004/// M01/M02 Q1016=
201502131920 METAR ESMX 131920Z AUTO 18004KT 150V230 5000 BR OVC004/// M01/M02 Q1016=
201502131850 METAR ESMX 131850Z 19005KT 150V210 5000 BR OVC005 M01/M02 Q1016=
201502131820 METAR ESMX 131820Z 18005KT 6000 BR OVC005 M01/M02 Q1016=
201502131750 METAR ESMX 131750Z 17004KT 7000 BR OVC005 M01/M02 Q1016=
201502131720 METAR ESMX 131720Z 18006KT 7000 BR OVC006 M01/M02 Q1016=
201502131650 METAR ESMX 131650Z 21005KT 6000 BR OVC006 M01/M02 Q1016=
201502131620 METAR ESMX 131620Z 19007KT 6000 BR OVC005 M01/M02 Q1016=
201502131550 METAR ESMX 131550Z 18006KT 6000 BR OVC005 M01/M02 Q1016=
201502131520 METAR ESMX 131520Z 24004KT 5000 BR OVC005 M01/M01 Q1016=
201502131450 METAR ESMX 131450Z 20006KT 7000 BR OVC006 M00/M01 Q1016=
201502131420 METAR ESMX 131420Z 21004KT 6000 BR OVC005 M00/M01 Q1016=
201502131350 METAR ESMX 131350Z 21005KT 6000 BR OVC005 M00/M01 Q1016=
201502131320 METAR ESMX 131320Z 21007KT 7000 BR OVC005 M00/M01 Q1017=
201502131250 METAR ESMX 131250Z 20007KT 8000 BR OVC006 M00/M01 Q1017=
201502131220 METAR ESMX 131220Z 20006KT 7000 BR OVC005 M00/M01 Q1017=
201502131150 METAR ESMX 131150Z 17007KT 7000 BR OVC005 M00/M01 Q1017=
201502131120 METAR ESMX 131120Z 18005KT 7000 BR OVC004 M00/M01 Q1017=
201502131050 METAR ESMX 131050Z 20009KT 5000 -FZDZ BR OVC005 M01/M01 Q1018=
201502131020 METAR ESMX 131020Z 20007KT 4900 BR OVC004 M01/M01 Q1018=
201502130950 METAR COR ESMX 130950Z 20008KT 4600 FZDZ BR OVC004 M01/M01 Q1018=
201502130920 METAR ESMX 130920Z 18008KT 4800 BR OVC004 M01/M02 Q1018=
201502130850 METAR COR ESMX 130850Z 18005KT 4600 BR OVC005 M01/M02 Q1018=
201502130820 METAR ESMX 130820Z 19010KT 4000 BR OVC003 M01/M02 Q1018=
201502130750 METAR ESMX 130750Z 17008KT 3400 BR OVC003 M01/M02 Q1018=
201502130720 METAR ESMX 130720Z 16006KT 3200 BR OVC004 M01/M01 Q1018=
201502130650 METAR ESMX 130650Z 17008KT 140V210 4400 BR OVC003 M01/M02 Q1019=
201502130620 METAR ESMX 130620Z 19006KT 5000 BR FEW003 OVC005 M01/M02 Q1019=
201502130550 METAR ESMX 130550Z 16004KT 120V180 1900 SN FEW005 OVC016 M01/M01 Q1018=
201502130520 METAR ESMX 130520Z 16004KT 6000 SG FEW003 BKN005 OVC009 M01/M01 Q1018=
201502130450 METAR ESMX 130450Z AUTO 17004KT 2600 -SN FEW004/// SCT008/// BKN016/// M01/M01 Q1019=
201502130420 METAR ESMX 130420Z AUTO 14003KT 8000 SG FEW004/// SCT006/// BKN011/// M01/M01 Q1019=
201502130350 METAR ESMX 130350Z AUTO 14003KT 3000 -SN FEW004/// OVC017/// M01/M01 Q1019=
201502130320 METAR ESMX 130320Z AUTO 15003KT 2800 -SN FEW008/// OVC016/// M00/M01 Q1019=
201502130250 METAR ESMX 130250Z AUTO 15003KT 4700 -SN FEW003/// SCT004/// BKN005/// M00/M01 Q1019=
201502130220 METAR ESMX 130220Z AUTO 17003KT 4100 SG SCT004/// OVC016/// M00/M01 Q1019=
201502130150 METAR ESMX 130150Z AUTO 16003KT 5000 -SN FEW003/// SCT005/// OVC015/// M00/M01 Q1020 RESG REFZUP=
201502130120 METAR ESMX 130120Z AUTO 17003KT 120V200 6000 FZUP BKN003/// OVC018/// M00/M01 Q1020 RESG=
201502130050 METAR ESMX 130050Z 17004KT 5000 -SN OVC003 M00/M00 Q1020=
201502130020 METAR ESMX 130020Z 18004KT 3700 -SN BKN003 OVC020 M00/M00 Q1020=
201502122350 METAR ESMX 122350Z 17004KT 3400 -SN SCT002 BKN016 OVC020 M00/M00 Q1020=
201502122320 METAR ESMX 122320Z 18004KT 4500 -SN FEW002 SCT016 OVC019 00/M00 Q1020=
201502122250 METAR ESMX 122250Z 19005KT 7000 -SN FEW002 OVC020 00/M00 Q1020=
201502122220 METAR ESMX 122220Z 19005KT 7000 -SN FEW008 BKN020 00/M00 Q1020=
201502122150 METAR ESMX 122150Z 19005KT 5000 -SN FEW008 BKN020 00/M00 Q1020=
201502122120 METAR COR ESMX 122120Z 19004KT 6000 -SN FEW010 BKN020 00/M00 Q1021=
201502122050 METAR ESMX 122050Z 20004KT 5000 -SN FEW008 BKN020 00/M00 Q1021=
201502122020 METAR ESMX 122020Z 20004KT 3000 -SN FEW006 BKN012 BKN023 00/M00 Q1021=
201502121950 METAR ESMX 121950Z 21004KT 6000 -SN SCT012 BKN020 01/M00 Q1021=
201502121920 METAR ESMX 121920Z 18005KT 9999 FEW012 BKN020 01/M00 Q1020=
201502121850 METAR COR ESMX 121850Z 22005KT 9999 SN FEW010 BKN018 01/M00 Q1020=
201502121820 METAR ESMX 121820Z 22004KT 8000 SN FEW015 OVC020 01/M00 Q1020 REUP=
201502121750 METAR ESMX 121750Z 22004KT 9999 -SN FEW013 OVC017 01/M01 Q1020=
201502121720 METAR ESMX 121720Z 25005KT 180V300 9999 OVC013 01/M01 Q1020=
201502121650 METAR ESMX 121650Z 24004KT 190V280 9999 -SN OVC014 01/M01 Q1020=
201502121620 METAR ESMX 121620Z 24006KT 210V280 9999 OVC015 01/M01 Q1020=
201502121550 METAR ESMX 121550Z 24006KT 9999 OVC014 01/M01 Q1019=
201502121520 METAR ESMX 121520Z AUTO 24007KT 9999 OVC014/// 02/M01 Q1019=
201502121450 METAR ESMX 121450Z 25008KT 9999 OVC013 02/M01 Q1019=
201502121420 METAR ESMX 121420Z AUTO 27010KT 9999 FEW009/// OVC012/// 02/M01 Q1019=
201502121350 METAR ESMX 121350Z 27010KT 9999 OVC009 01/M00 Q1019=
201502121320 METAR ESMX 121320Z 25007KT 210V280 9999 OVC009 01/M00 Q1019=
201502121250 METAR ESMX 121250Z 26006KT 230V310 9999 SCT009 OVC012 01/M00 Q1020=
201502121220 METAR COR ESMX 121220Z 26009KT 9999 OVC009 01/M00 Q1020=
201502121150 METAR ESMX 121150Z 26008KT 9999 OVC009 01/M00 Q1020=
201502121120 METAR ESMX 121120Z 26008KT 9999 OVC009 01/M00 Q1020=
201502121050 METAR ESMX 121050Z 26010KT 9999 OVC009 01/M00 Q1020=
201502121020 METAR ESMX 121020Z 25009KT 9999 OVC009 01/M00 Q1020=
201502120950 METAR COR ESMX 120950Z 26009KT 9999 OVC009 01/M00 Q1020=
201502120920 METAR ESMX 120920Z 25008KT 9999 OVC010 01/M00 Q1020=
201502120850 METAR ESMX 120850Z 25008KT 9999 OVC010 01/M00 Q1020=
201502120820 METAR ESMX 120820Z 25009KT 210V280 9999 OVC009 01/M00 Q1020=
201502120750 METAR ESMX 120750Z 25010KT 9999 OVC009 01/M00 Q1020=
201502120720 METAR ESMX 120720Z 26008KT 9999 OVC009 01/M00 Q1020=
201502120650 METAR ESMX 120650Z 26011KT 9999 OVC009 01/M01 Q1019=
201502120620 METAR ESMX 120620Z 26008KT 230V300 9999 OVC008 01/M00 Q1019=
201502120550 METAR ESMX 120550Z 26009KT 220V290 9999 OVC008 01/M00 Q1019=
201502120520 METAR COR ESMX 120520Z 25008KT 9999 OVC007 01/M00 Q1019=
201502120450 METAR ESMX 120450Z 25009KT 9999 OVC007 01/M00 Q1019=
201502120420 METAR ESMX 120420Z AUTO 26008KT 9999 OVC006/// 01/M00 Q1020=
201502120350 METAR ESMX 120350Z AUTO 25009KT 9999 OVC006/// 01/M00 Q1020=
201502120320 METAR ESMX 120320Z AUTO 25007KT 220V290 9999 OVC006/// 01/00 Q1020=
201502120250 METAR ESMX 120250Z AUTO 25009KT 9999 OVC006/// 01/M00 Q1020=
201502120220 METAR ESMX 120220Z AUTO 25007KT 210V290 9000 BR OVC005/// 01/M00 Q1020=
201502120150 METAR ESMX 120150Z AUTO 24008KT 200V280 9000 BR OVC005/// 01/M00 Q1021=
201502120120 METAR ESMX 120120Z AUTO 26008KT 210V280 7000 BR OVC004/// 01/M00 Q1021=
201502120050 METAR ESMX 120050Z 25009KT 7000 BR OVC004 01/M00 Q1021=
201502112320 METAR ESMX 112320Z 25009KT 6000 BR OVC004 00/M00 Q1021=
201502112250 METAR ESMX 112250Z AUTO 25007KT 5000 BR OVC003/// 00/M00 Q1021=
201502112220 METAR ESMX 112220Z 25008KT 210V280 6000 BR OVC004 00/M00 Q1021=
201502112150 METAR COR ESMX 112150Z 25007KT 210V280 6000 BR OVC004 00/M00 Q1021=
201502112120 METAR ESMX 112120Z 27009KT 6000 BR OVC004 00/M00 Q1021=
201502112050 METAR COR ESMX 112050Z 25007KT 7000 BR OVC004 00/M00 Q1022=
201502112020 METAR COR ESMX 112020Z 26007KT 230V300 7000 BR OVC004 00/M00 Q1022=
201502111950 METAR ESMX 111950Z 25008KT 220V280 9000 BR OVC003 00/M00 Q1022=
201502111920 METAR ESMX 111920Z 27009KT 9999 OVC002 00/M00 Q1022=
201502111850 METAR ESMX 111850Z 24007KT 200V260 9000 BR OVC002 00/00 Q1022=
201502111820 METAR ESMX 111820Z 25008KT 220V290 8000 BR OVC002 01/00 Q1022=
201502111750 METAR ESMX 111750Z 27009KT 8000 BR OVC002 01/00 Q1022=
201502111720 METAR ESMX 111720Z 26006KT 8000 BR OVC002 01/01 Q1022=
201502111650 METAR ESMX 111650Z 25006KT 9000 BR OVC002 01/01 Q1022=
201502111620 METAR ESMX 111620Z 25006KT 210V280 8000 BR OVC002 01/01 Q1022=
201502111550 METAR ESMX 111550Z 26004KT 9999 OVC002 01/01 Q1022=
201502111520 METAR ESMX 111520Z 25005KT 9999 OVC002 01/01 Q1022=
201502111450 METAR ESMX 111450Z 28005KT 9999 OVC002 01/01 Q1023=
201502111420 METAR ESMX 111420Z 25006KT 9999 OVC002 02/01 Q1023=
201502111350 METAR COR ESMX 111350Z 28010KT 9999 OVC003 02/01 Q1023=
201502111320 METAR ESMX 111320Z 26009KT 9999 OVC003 02/02 Q1023=
201502111250 METAR ESMX 111250Z 26009KT 9999 OVC002 02/02 Q1023=
201502111220 METAR ESMX 111220Z 26007KT 5000 BR OVC001 02/01 Q1023=
201502111150 METAR ESMX 111150Z 27006KT 2400 BR OVC002 01/01 Q1024=
201502111120 METAR ESMX 111120Z 25007KT 200V290 5000 BR OVC002 01/01 Q1024=
201502111050 METAR ESMX 111050Z 26008KT 1900 BR OVC002 01/01 Q1024=
201502111020 METAR ESMX 111020Z 26007KT 1300 R01/1100V1700D R19/1000VP2000N BR VV002 00/00 Q1024=
201502110950 METAR ESMX 110950Z 26006KT 220V290 0800 R01/0800V1100U R19/1000V1700U FG VV002 00/00 Q1024=
201502110920 METAR ESMX 110920Z 26005KT 210V280 0500 R01/0750N R19/0900V1300N FG VV002 00/00 Q1024=
201502110850 METAR ESMX 110850Z 24006KT 0300 R01/0500N R19/0550V0750N FG VV002 00/00 Q1024=
201502110820 METAR ESMX 110820Z 27006KT 0400 R01/0800V0900N R19/0600V0750N FG VV002 00/00 Q1024=
201502110750 METAR ESMX 110750Z 23005KT 200V280 0400 R01/0700N R19/0800V0900N FG VV002 00/00 Q1024=
201502110720 METAR ESMX 110720Z 26006KT 0450 R01/0650V0800N R19/0800V1000N FZFG VV002 M00/M00 Q1023=
201502110650 METAR ESMX 110650Z 26007KT 0350 R01/0750N R19/0800V1100N FZFG VV002 M00/M00 Q1023=
201502110620 METAR ESMX 110620Z 25006KT 0300 R01/0800V0900N R19/0800V1100N FZFG VV002 M00/M00 Q1023=
201502110550 METAR ESMX 110550Z 25005KT 0300 R01/0800V0900N R19/0800V1100U FZFG VV002 M00/M00 Q1023=
201502110520 METAR ESMX 110520Z 26003KT 0250 R01/0700N R19/0700V0900N FZFG VV002 M00/M00 Q1022=
201502110450 METAR ESMX 110450Z 28004KT 0250 R01/0800N R19/0800N FZFG VV002 M00/M00 Q1022=
201502110420 METAR ESMX 110420Z AUTO 26004KT 0300 R01/0800V0900N R19/0900V1000N=
201502110350 METAR ESMX 110350Z AUTO 27005KT 0250 R01/0750N R19/0800N FZFG VV001 M00/M00 Q1022=
201502110320 METAR ESMX 110320Z AUTO 27005KT 0200 R01/0800N R19/0700N FZFG VV001 M00/M00 Q1022=
201502110250 METAR ESMX 110250Z AUTO 27006KT 0250 R01/0750N R19/0800N FZFG VV001 M00/M00 Q1022=
201502110220 METAR ESMX 110220Z AUTO 26005KT 1300 R01/P2000N R19/P2000N BR SCT001/// M01/M01 Q1022=
201502110150 METAR ESMX 110150Z AUTO 31003KT 250V330 2600 NCD M02/M02 Q1022=
201502110120 METAR ESMX 110120Z AUTO VRB02KT 1200 R01/P2000N R19/P2000N NCD M02/M02 Q1022=
201502110050 METAR ESMX 110050Z VRB01KT 8000 BR BCFG NSC M03/M03 Q1022=
201502110020 METAR ESMX 110020Z 23002KT 8000 BR BCFG NSC M01/M01 Q1022=
201502102350 METAR ESMX 102350Z 24005KT CAVOK M02/M02 Q1022=
201502102320 METAR COR ESMX 102320Z 22003KT 5000 BR NSC M01/M01 Q1022=
201502102250 METAR ESMX 102250Z 22006KT CAVOK M02/M02 Q1022=
201502102220 METAR ESMX 102220Z 24004KT CAVOK M02/M03 Q1021=
201502102150 METAR ESMX 102150Z 26004KT CAVOK 01/M00 Q1021=
201502102120 METAR ESMX 102120Z 30003KT 260V330 CAVOK 01/M00 Q1021=
201502102050 METAR ESMX 102050Z 31003KT 260V340 CAVOK 01/M00 Q1022=
201502102020 METAR ESMX 102020Z 29005KT CAVOK 01/M00 Q1022=
201502101950 METAR ESMX 101950Z 28005KT CAVOK 01/M00 Q1021=
201502101920 METAR ESMX 101920Z 29005KT CAVOK 01/M00 Q1021=
201502101850 METAR ESMX 101850Z 27006KT CAVOK 02/00 Q1021=
201502101820 METAR ESMX 101820Z 27004KT CAVOK 02/00 Q1021=
201502101750 METAR ESMX 101750Z 26004KT CAVOK 03/01 Q1021=
201502101720 METAR ESMX 101720Z 26006KT CAVOK 03/00 Q1021=
201502101650 METAR ESMX 101650Z 25005KT CAVOK 03/00 Q1020=
201502101620 METAR ESMX 101620Z 25004KT CAVOK 03/00 Q1020=
201502101550 METAR ESMX 101550Z 25004KT CAVOK 04/00 Q1020=
201502101520 METAR ESMX 101520Z 25004KT CAVOK 05/00 Q1020=
201502101450 METAR ESMX 101450Z 26005KT CAVOK 05/00 Q1020=
201502101420 METAR ESMX 101420Z 27007KT CAVOK 06/00 Q1020=
201502101350 METAR ESMX 101350Z 28007KT 250V320 CAVOK 06/M00 Q1019=
201502101320 METAR COR ESMX 101320Z 26006KT CAVOK 06/M00 Q1019=
201502101250 METAR ESMX 101250Z 28008KT CAVOK 06/M00 Q1019=
201502101220 METAR ESMX 101220Z 27008KT CAVOK 06/00 Q1019=
201502101150 METAR ESMX 101150Z 28007KT CAVOK 05/00 Q1019=
201502101120 METAR ESMX 101120Z 27007KT CAVOK 04/00 Q1019=
201502101050 METAR ESMX 101050Z 27006KT CAVOK 04/00 Q1019=
201502101020 METAR ESMX 101020Z 28006KT CAVOK 04/00 Q1019=
201502100950 METAR ESMX 100950Z 28007KT CAVOK 03/00 Q1019=
201502100920 METAR ESMX 100920Z 27005KT CAVOK 02/00 Q1019=
201502100850 METAR ESMX 100850Z 26006KT CAVOK 02/00 Q1019=
201502100820 METAR ESMX 100820Z 26006KT CAVOK 01/M00 Q1018=
201502100750 METAR ESMX 100750Z 26006KT CAVOK M00/M00 Q1018=
201502100720 METAR ESMX 100720Z 24006KT CAVOK M01/M01 Q1018=
201502100650 METAR ESMX 100650Z 25005KT CAVOK M00/M01 Q1018=
201502100620 METAR ESMX 100620Z 25004KT CAVOK M00/M01 Q1017=
201502100550 METAR ESMX 100550Z 25006KT CAVOK M00/M01 Q1017=
201502100520 METAR ESMX 100520Z 25003KT CAVOK M02/M03 Q1016=
201502100450 METAR ESMX 100450Z 18003KT CAVOK M01/M02 Q1016=
201502100420 METAR COR ESMX 100420Z VRB02KT CAVOK M01/M02 Q1016=
201502100350 METAR COR ESMX 100350Z 25004KT CAVOK 00/M01 Q1016=
201502100320 METAR ESMX 100320Z AUTO 25006KT 9999 NCD 00/M02 Q1016=
201502100250 METAR ESMX 100250Z AUTO 26006KT 9999 NCD 01/M02 Q1016=
201502100220 METAR ESMX 100220Z AUTO 26006KT 9999 NCD 01/M02 Q1016=
201502100150 METAR ESMX 100150Z AUTO 26005KT 9999 NCD M02/M03 Q1016=
201502100120 METAR ESMX 100120Z AUTO VRB02KT 9999 NCD M01/M02 Q1016=
201502100050 METAR ESMX 100050Z 00000KT CAVOK 00/M02 Q1016=
201502100020 METAR ESMX 100020Z 26004KT CAVOK 01/M02 Q1015=
201502092350 METAR ESMX 092350Z 24004KT CAVOK 01/M02 Q1015=
201502092320 METAR COR ESMX 092320Z 28002KT CAVOK 01/M02 Q1015=
201502092250 METAR COR ESMX 092250Z 28004KT CAVOK 03/M02 Q1015=
201502092220 METAR COR ESMX 092220Z 27007KT CAVOK 04/M02 Q1015=
201502092150 METAR COR ESMX 092150Z 28006KT CAVOK 04/M02 Q1015=
201502092120 METAR ESMX 092120Z 27004KT CAVOK 02/M02 Q1014=
201502092050 METAR COR ESMX 092050Z VRB03KT CAVOK 02/M02 Q1014=
201502092020 METAR ESMX 092020Z 28007KT CAVOK 04/M02 Q1014=
201502091950 METAR COR ESMX 091950Z 28003KT CAVOK 03/M02 Q1014=
201502091920 METAR ESMX 091920Z 32004KT CAVOK 05/M02 Q1014=
201502091850 METAR ESMX 091850Z 31004KT CAVOK 05/M02 Q1013=
201502091821 METAR ESMX 091821Z 29006KT CAVOK 05/M02 Q1013=
201502091750 METAR ESMX 091750Z 30005KT CAVOK 05/M02 Q1013=
201502091720 METAR ESMX 091720Z 29005KT CAVOK 05/M01 Q1013=
201502091650 METAR ESMX 091650Z 28004KT CAVOK 06/M01 Q1013=
201502091620 METAR ESMX 091620Z 30004KT CAVOK 06/M01 Q1013=
201502091550 METAR ESMX 091550Z 29004KT CAVOK 07/M01 Q1012=
201502091520 METAR ESMX 091520Z 29004KT 240V310 CAVOK 08/M01 Q1013=
201502091450 METAR ESMX 091450Z 28006KT CAVOK 08/M01 Q1012=
201502091420 METAR ESMX 091420Z 28008KT CAVOK 09/M01 Q1012=
201502091350 METAR ESMX 091350Z 31006KT CAVOK 09/M01 Q1012=
201502091320 METAR ESMX 091320Z 31009KT CAVOK 09/M01 Q1012=
201502091250 METAR ESMX 091250Z 32009KT CAVOK 08/M01 Q1012=
201502091220 METAR ESMX 091220Z 33008KT 300V010 CAVOK 08/M01 Q1012=
201502091150 METAR ESMX 091150Z 31010KT CAVOK 08/M01 Q1011=
201502091120 METAR ESMX 091120Z 33009KT 290V350 CAVOK 07/M00 Q1012=
201502091053 METAR ESMX 091053Z 31007KT 280V340 CAVOK 07/M00 Q1011=
201502091050 METAR ESMX 091050Z AUTO 31007KT 9999 NCD 07/M00 Q1011=
201502091020 METAR ESMX 091020Z 31008KT 290V350 CAVOK 07/M00 Q1011=
201502090950 METAR ESMX 090950Z 32008KT CAVOK 06/00 Q1011=
201502090920 METAR ESMX 090920Z 31009KT CAVOK 05/00 Q1010=
201502090850 METAR ESMX 090850Z 32007KT CAVOK 04/00 Q1010=
201502090820 METAR ESMX 090820Z 31004KT 280V340 CAVOK 03/00 Q1010=
201502090750 METAR ESMX 090750Z 31005KT CAVOK 02/M00 Q1010=
201502090720 METAR COR ESMX 090720Z 32006KT CAVOK 02/M00 Q1010=
201502090650 METAR COR ESMX 090650Z 31006KT CAVOK 02/M00 Q1009=
201502090620 METAR ESMX 090620Z 32006KT CAVOK 02/M00 Q1009=
201502090550 METAR ESMX 090550Z AUTO 31006KT 9999 NCD 02/00 Q1008=
201502090520 METAR ESMX 090520Z 31007KT CAVOK 02/00 Q1008=
201502090450 METAR COR ESMX 090450Z 31006KT CAVOK 02/00 Q1008=
201502090420 METAR ESMX 090420Z AUTO 31007KT 270V350 9999 NCD 02/01 Q1008=
201502090350 METAR ESMX 090350Z AUTO 30010KT 9999 NCD 02/01 Q1008=
201502090320 METAR ESMX 090320Z AUTO 30008KT 9999 NCD 02/01 Q1008=
201502090250 METAR ESMX 090250Z AUTO 29009KT 9999 FEW066/// 03/01 Q1008=
201502090220 METAR ESMX 090220Z AUTO 30009KT 270V010 9999 NCD 03/01 Q1008=
201502090150 METAR ESMX 090150Z AUTO 29011KT 9999 NCD 02/01 Q1008=
201502090120 METAR ESMX 090120Z AUTO 28010KT 9999 FEW008/// 02/01 Q1008=
201502090050 METAR ESMX 090050Z AUTO 28010KT 9999 FEW008/// SCT009/// 02/01 Q1008=
201502090020 METAR COR ESMX 090020Z 28012KT 9999 BKN007 OVC010 02/01 Q1009=
201502082350 METAR COR ESMX 082350Z 28010KT 9999 OVC007 02/01 Q1009=
201502082320 METAR ESMX 082320Z 27013KT 9999 OVC007 02/01 Q1009=
201502082250 METAR ESMX 082250Z 27012KT 9999 OVC006 02/00 Q1010=
201502082220 METAR ESMX 082220Z 27012KT 9999 OVC007 02/00 Q1010=
201502082150 METAR COR ESMX 082150Z 26011KT 220V290 9999 OVC008 02/M00 Q1011=
201502082120 METAR ESMX 082120Z 27010KT 9999 OVC008 01/M01 Q1012=
201502082050 METAR COR ESMX 082050Z 25008KT 9999 SCT012 01/M02 Q1012=
201502082020 METAR ESMX 082020Z 23007KT CAVOK M00/M03 Q1012=
201502081950 METAR ESMX 081950Z 25008KT CAVOK 00/M04 Q1013=
201502081920 METAR ESMX 081920Z 25008KT CAVOK 00/M06 Q1013=
201502081850 METAR ESMX 081850Z 25009KT CAVOK 00/M07 Q1014=
201502081820 METAR COR ESMX 081820Z 26009KT CAVOK 00/M07 Q1014=
201502081750 METAR ESMX 081750Z 25008KT CAVOK M00/M07 Q1014=
201502081720 METAR COR ESMX 081720Z 26006KT CAVOK M00/M08 Q1015=
201502081650 METAR ESMX 081650Z 26007KT CAVOK 00/M08 Q1015=
201502081620 METAR ESMX 081620Z 28008KT CAVOK 00/M08 Q1016=
201502081550 METAR ESMX 081550Z 29008KT CAVOK 00/M08 Q1016=
201502081520 METAR ESMX 081520Z 29009KT CAVOK 01/M09 Q1017=
201502081450 METAR ESMX 081450Z 31009KT CAVOK 01/M09 Q1017=
201502081420 METAR COR ESMX 081420Z 31013KT CAVOK 00/M09 Q1017=
201502081350 METAR ESMX 081350Z 31015KT 9999 FEW050 00/M09 Q1017=
201502081320 METAR COR ESMX 081320Z 32014KT 9999 SCT050 00/M09 Q1017=
201502081250 METAR ESMX 081250Z 32017KT 9999 SCT045 00/M10 Q1017=
201502081220 METAR ESMX 081220Z 31016KT 9999 FEW035 SCT045 M00/M09 Q1017=
201502081150 METAR ESMX 081150Z 31017KT 9999 SCT045 M00/M09 Q1017=
201502081120 METAR ESMX 081120Z AUTO 31019KT 9999 FEW043/// BKN050/// M01/M09 Q1017=
201502081050 METAR ESMX 081050Z AUTO 32018KT 9999 FEW043/// SCT053/// M01/M09 Q1016=
201502081020 METAR ESMX 081020Z AUTO 32016KT 9999 FEW049/// M01/M10 Q1016=
201502080950 METAR ESMX 080950Z AUTO 32017KT 9999 NCD M01/M09 Q1016=
201502080920 METAR ESMX 080920Z AUTO 31017KT 9999 NCD M01/M10 Q1015=
201502080850 METAR ESMX 080850Z AUTO 31014KT 9999 NCD M02/M10 Q1015=
201502080820 METAR ESMX 080820Z AUTO 31014KT 9999 NCD M02/M10 Q1015=
201502080750 METAR ESMX 080750Z AUTO 32016G26KT 9999 NCD M02/M10 Q1014=
201502080720 METAR ESMX 080720Z AUTO 32015KT 9999 NCD M02/M10 Q1014=
201502080650 METAR ESMX 080650Z 32015KT 290V350 9999 FEW010 M02/M10 Q1013=
201502080620 METAR ESMX 080620Z 31017KT 9999 FEW010 M02/M10 Q1012=
201502080550 METAR ESMX 080550Z 32017KT CAVOK M02/M10 Q1012=
201502080520 METAR ESMX 080520Z AUTO 33017KT 9999 NCD M02/M10 Q1012=
201502080450 METAR ESMX 080450Z AUTO 32019G29KT 9999 NCD M02/M11 Q1012=
201502080420 METAR ESMX 080420Z AUTO 32019G29KT 9999 NCD M02/M10 Q1011=
201502080350 METAR ESMX 080350Z AUTO 33020KT 9999 NCD M02/M10 Q1011=
201502080320 METAR ESMX 080320Z AUTO 32018KT 9999 NCD M02/M10 Q1010=
201502080250 METAR ESMX 080250Z AUTO 33016KT 9999 NCD M02/M10 Q1010=
201502080220 METAR ESMX 080220Z AUTO 33018G30KT 9999 FEW049/// M01/M10 Q1009=
201502080150 METAR ESMX 080150Z AUTO 33017G28KT 9999 FEW046/// BKN053/// M01/M09 Q1009=
201502080120 METAR ESMX 080120Z AUTO 32019KT 9999 FEW045/// BKN055/// M01/M08 Q1009=
201502080050 METAR ESMX 080050Z AUTO 33018G29KT 9999 FEW048/// M01/M08 Q1008=
201502080020 METAR ESMX 080020Z AUTO 32016G27KT 9999 NCD M01/M08 Q1008=
201502072350 METAR ESMX 072350Z AUTO 32018G28KT 9999 NCD M01/M08 Q1008=
201502072320 METAR ESMX 072320Z AUTO 32018G33KT 9999 NCD M01/M08 Q1007=
201502072250 METAR ESMX 072250Z AUTO 32017KT 9999 NCD M00/M07 Q1007=
201502072220 METAR ESMX 072220Z AUTO 33014G26KT 9999 NCD M00/M06 Q1006=
201502072150 METAR ESMX 072150Z AUTO 33013KT 9999 NCD 00/M06 Q1006=
201502072120 METAR ESMX 072120Z AUTO 33016KT 9999 FEW110/// 01/M05 Q1006=
201502072050 METAR ESMX 072050Z 32017KT 9999 SCT042 01/M05 Q1006=
201502072020 METAR ESMX 072020Z 32012KT 9999 FEW007 02/M04 Q1005=
201502071950 METAR ESMX 071950Z 31011KT 9999 FEW006 SCT060 02/M02 Q1005=
201502071920 METAR ESMX 071920Z AUTO 29010KT 9000 -SN FEW006/// SCT089/// 02/M02 Q1005=
201502071850 METAR ESMX 071850Z AUTO 29011KT 9999 -SN FEW007/// 02/M02 Q1005 REUP=
201502071820 METAR ESMX 071820Z AUTO 29011KT 9999 NCD 02/M02 Q1005=
201502071750 METAR ESMX 071750Z AUTO 29011KT 9999 NCD 02/M02 Q1005=
201502071720 METAR ESMX 071720Z AUTO 29011KT 9999 NCD 03/M02 Q1005=
201502071650 METAR ESMX 071650Z AUTO 29013KT 9999 NCD 03/M03 Q1005=
201502071620 METAR ESMX 071620Z AUTO 29013KT 9999 NCD 04/M02 Q1006=
201502071550 METAR ESMX 071550Z AUTO 30013KT 9999 NCD 04/M02 Q1006=
201502071520 METAR ESMX 071520Z AUTO 29014KT 9999 NCD 04/00 Q1006=
201502071450 METAR ESMX 071450Z AUTO 29011KT 9999 NCD 04/01 Q1006=
201502071420 METAR ESMX 071420Z AUTO 29012KT 9999 NCD 04/02 Q1006=
201502071350 METAR ESMX 071350Z AUTO 29013KT 9999 FEW015/// 04/02 Q1007=
201502071320 METAR ESMX 071320Z AUTO 28014G27KT 9999 FEW013/// SCT017/// 04/02 Q1007=
201502071250 METAR ESMX 071250Z AUTO 28016G29KT 9999 BKN014/// BKN020/// 04/02 Q1007=
201502071220 METAR ESMX 071220Z AUTO 26015KT 9999 SCT013/// 04/02 Q1008=
201502071150 METAR ESMX 071150Z AUTO 27011KT 240V300 9999 FEW009/// 03/01 Q1008=
201502071120 METAR ESMX 071120Z AUTO 27012KT 9999 FEW008/// SCT009/// BKN012/// 03/01 Q1009=
201502071050 METAR ESMX 071050Z AUTO 27013KT 9999 FEW006/// BKN008/// 02/01 Q1010=
201502071020 METAR ESMX 071020Z AUTO 26011KT 9999 BKN005/// BKN008/// 02/01 Q1010=
201502070950 METAR ESMX 070950Z AUTO 27011KT 9999 BKN005/// 02/01 Q1011=
201502070920 METAR ESMX 070920Z AUTO 25009KT 210V290 9999 OVC004/// 02/01 Q1011=
201502070850 METAR ESMX 070850Z AUTO 26008KT 9999 OVC004/// 02/01 Q1012=
201502070820 METAR ESMX 070820Z AUTO 26009KT 210V280 9999 OVC002/// 01/01 Q1013=
201502070750 METAR ESMX 070750Z AUTO 25010KT 210V280 8000 BR OVC001/// 01/01 Q1014=
201502070720 METAR ESMX 070720Z AUTO 25009KT 210V280 7000 BR OVC001/// 01/01 Q1015=
201502070650 METAR ESMX 070650Z AUTO 25011KT 5000 BR OVC001/// 01/01 Q1015=
201502070620 METAR ESMX 070620Z AUTO 26010KT 4300 BR OVC001/// 01/01 Q1015=
201502070550 METAR ESMX 070550Z AUTO 24009KT 200V280 3200 BR OVC001/// 01/01 Q1016=
201502070520 METAR ESMX 070520Z AUTO 24009KT 3000 BR OVC001/// 01/01 Q1017=
201502070450 METAR ESMX 070450Z AUTO 25012KT 3400 BR OVC001/// 01/01 Q1017=
201502070420 METAR ESMX 070420Z AUTO 24007KT 210V270 4300 BR OVC001/// 01/01 Q1018=
201502070350 METAR ESMX 070350Z AUTO 25007KT 220V290 4500 BR OVC001/// 01/01 Q1018=
201502070320 METAR ESMX 070320Z AUTO 25008KT 210V300 4400 BR OVC001/// 01/01 Q1019=
201502070250 METAR ESMX 070250Z AUTO 25009KT 3800 BR OVC001/// 01/01 Q1020=
201502070220 METAR ESMX 070220Z AUTO 27008KT 240V310 2300 OVC001/// 01/01 Q1020=
201502070150 METAR ESMX 070150Z AUTO 26008KT 1400 R01/P2000N R19/P2000N VV002 01/01 Q1021=
201502070120 METAR ESMX 070120Z AUTO 24008KT 0800 R01/1800VP2000N R19/P2000N FG VV002 01/01 Q1021=
201502070050 METAR ESMX 070050Z AUTO 23008KT 0800 R01/1700VP2000N R19/P2000N FG VV002 01/01 Q1021=
201502070020 METAR ESMX 070020Z AUTO 23007KT 0800 R01/1700VP2000N R19/P2000N FG VV002 01/01 Q1022=
201502062350 METAR ESMX 062350Z AUTO 24006KT 0900 R01/P2000N R19/P2000N FG VV002 01/00 Q1022=
201502062320 METAR ESMX 062320Z AUTO 25007KT 1200 R01/P2000N R19/P2000N BR VV002 00/00 Q1023=
201502062250 METAR ESMX 062250Z AUTO 24007KT 210V270 2200 BR OVC001/// 00/00 Q1023=
201502062220 METAR ESMX 062220Z AUTO 26007KT 230V290 2700 BR OVC001/// M00/M00 Q1023=
201502062150 METAR ESMX 062150Z AUTO 25007KT 220V280 1700 BR VV002 M00/M00 Q1024=
201502062120 METAR ESMX 062120Z AUTO 24006KT 190V270 1800 BR OVC001/// M00/M00 Q1024=
201502062050 METAR ESMX 062050Z AUTO 27006KT 2100 BR OVC001/// M00/M00 Q1025=
201502062020 METAR ESMX 062020Z AUTO 26006KT 3200 BR OVC001/// M00/M00 Q1025=
201502061950 METAR ESMX 061950Z AUTO 28007KT 7000 BR OVC001/// 00/M00 Q1025=
201502061920 METAR ESMX 061920Z AUTO 28007KT 250V330 7000 BR OVC002/// 00/M00 Q1025=
201502061850 METAR ESMX 061850Z AUTO 27006KT 240V320 9000 BR OVC002/// 00/M00 Q1024=
201502061820 METAR COR ESMX 061820Z 28008KT 9999 OVC002 00/M00 Q1025=
201502061750 METAR ESMX 061750Z 28007KT 9000 BR OVC002 00/M00 Q1025=
201502061720 METAR ESMX 061720Z 28008KT 260V320 9000 BR OVC002 00/M00 Q1025=
201502061650 METAR ESMX 061650Z 28009KT 9999 OVC002 00/M00 Q1025=
201502061620 METAR ESMX 061620Z 30007KT 270V340 9999 OVC003 00/M00 Q1025=
201502061550 METAR ESMX 061550Z 27007KT 9999 OVC003 00/M00 Q1025=
201502061520 METAR ESMX 061520Z 29009KT 9999 OVC003 00/M00 Q1025=
201502061450 METAR COR ESMX 061450Z 27008KT 9999 OVC004 01/M00 Q1025=
201502061420 METAR ESMX 061420Z 29010KT 250V320 9999 OVC004 01/M00 Q1025=
201502061350 METAR ESMX 061350Z 28008KT 240V310 9999 OVC004 01/M00 Q1026=
201502061320 METAR ESMX 061320Z 27010KT 9999 OVC004 01/M00 Q1026=
201502061250 METAR ESMX 061250Z 28009KT 9999 OVC004 00/M00 Q1026=
201502061220 METAR ESMX 061220Z 28009KT 9999 OVC004 00/M01 Q1026=
201502061150 METAR ESMX 061150Z 27010KT 8000 BR OVC003 00/M01 Q1026=
201502061120 METAR ESMX 061120Z 28010KT 7000 BR OVC003 M00/M01 Q1027=
201502061050 METAR COR ESMX 061050Z 28009KT 6000 BR OVC002 M00/M01 Q1027=
201502061020 METAR ESMX 061020Z 27007KT 3000 BR OVC002 M01/M01 Q1027=
201502060950 METAR ESMX 060950Z 26009KT 3000 BR OVC002 M01/M01 Q1027=
201502060920 METAR ESMX 060920Z 26008KT 7000 BR OVC002 M01/M02 Q1027=
201502060850 METAR ESMX 060850Z 26008KT 9999 OVC003 M01/M02 Q1026=
201502060820 METAR ESMX 060820Z 25008KT 9999 BKN004 M02/M02 Q1026=
201502060750 METAR ESMX 060750Z 24007KT 9999 OVC004 M02/M03 Q1026=
201502060720 METAR ESMX 060720Z 23006KT 9999 OVC005 M02/M03 Q1026=
201502060650 METAR ESMX 060650Z 22007KT 9999 -SN OVC005 M02/M03 Q1026=
201502060620 METAR ESMX 060620Z 22005KT 200V260 9999 -SN OVC005 M03/M03 Q1027=
201502060550 METAR ESMX 060550Z 24006KT 9999 -SN OVC005 M03/M04 Q1027=
201502060520 METAR ESMX 060520Z 26006KT 7000 -SN OVC005 M03/M04 Q1027=
201502060450 METAR ESMX 060450Z AUTO 26007KT 210V290 7000 -SN OVC005/// M03/M04 Q1027 RESG=
201502060420 METAR ESMX 060420Z AUTO 25007KT 220V300 5000 SG OVC005/// M03/M04 Q1027=
201502060350 METAR ESMX 060350Z AUTO 27008KT 6000 SG OVC005/// M04/M04 Q1027 RESG=
201502060320 METAR ESMX 060320Z AUTO 27008KT 2800 SG OVC004/// M04/M04 Q1028=
201502060250 METAR ESMX 060250Z AUTO 26008KT 1900 -SN OVC005/// M04/M04 Q1028 RESG REFZUP=
201502060220 METAR ESMX 060220Z AUTO 26008KT 1700 OVC004/// M04/M04 Q1028=
201502060150 METAR ESMX 060150Z AUTO 25007KT 9999 OVC004/// M04/M04 Q1028 RESG=
201502060120 METAR ESMX 060120Z AUTO 25006KT 1000 R01/P2000N R19/P2000D -SN BKN001/// OVC004/// M04/M04 Q1028 RESG=
201502060050 METAR ESMX 060050Z 25005KT 1500 -SN OVC002 M04/M04 Q1029=
201502060020 METAR ESMX 060020Z 24005KT 1200 R01/P2000N R19/P2000N -SN BR OVC003 M04/M04 Q1029=
201502052350 METAR ESMX 052350Z 26005KT 1200 R01/P2000N R19/P2000N BR OVC002 M04/M05 Q1029=
201502052320 METAR ESMX 052320Z 25004KT 2400 BR OVC002 M04/M05 Q1030=
201502052250 METAR ESMX 052250Z 25004KT 5000 -SN OVC002 M04/M05 Q1030=
201502052220 METAR ESMX 052220Z 27004KT 6000 BR OVC002 M04/M05 Q1030=
201502052150 METAR ESMX 052150Z 27004KT 230V310 6000 BR OVC002 M04/M05 Q1030=
201502052120 METAR ESMX 052120Z 28004KT 6000 BR OVC002 M04/M05 Q1030=
201502052050 METAR ESMX 052050Z 26004KT 7000 BR OVC002 M04/M05 Q1030=
201502052020 METAR ESMX 052020Z VRB02KT 2000 BR OVC002 M04/M05 Q1030=
201502051950 METAR ESMX 051950Z VRB03KT 3000 BR VV002 M04/M05 Q1030=
201502051920 METAR ESMX 051920Z 33005KT 1500 BR VV002 M04/M05 Q1029=
201502051850 METAR ESMX 051850Z 31004KT 270V330 3000 BR OVC002 M04/M04 Q1029=
201502051820 METAR ESMX 051820Z 32006KT 9000 BR OVC003 M03/M04 Q1029=
201502051750 METAR ESMX 051750Z 31004KT 280V340 9999 BKN004 M03/M04 Q1029=
201502051720 METAR ESMX 051720Z 27004KT 240V300 9999 BKN004 M03/M04 Q1029=
201502051650 METAR ESMX 051650Z 29004KT 260V340 9999 BKN005 M03/M04 Q1028=
201502051620 METAR ESMX 051620Z 33003KT 300V060 9999 BKN005 M02/M03 Q1028=
201502051550 METAR ESMX 051550Z 03004KT 340V060 9999 BKN006 M02/M03 Q1028=
201502051520 METAR ESMX 051520Z 36004KT 310V030 9999 BKN007 M02/M03 Q1028=
201502051450 METAR ESMX 051450Z 02002KT 9999 BKN009 M01/M03 Q1028=
201502051420 METAR ESMX 051420Z VRB03KT 9999 BKN009 M01/M03 Q1028=
201502051350 METAR ESMX 051350Z VRB03KT 9999 BKN009 M01/M03 Q1028=
201502051320 METAR ESMX 051320Z 36003KT 9999 BKN010 M01/M03 Q1028=
201502051250 METAR ESMX 051250Z 36005KT 9999 OVC010 M01/M03 Q1027=
201502051220 METAR ESMX 051220Z 34005KT 9999 OVC007 M01/M02 Q1027=
201502051150 METAR ESMX 051150Z 35003KT 9999 OVC008 M01/M02 Q1027=
201502051120 METAR ESMX 051120Z 03004KT 350V070 9999 BKN006 M01/M03 Q1027=
201502051050 METAR ESMX 051050Z 35003KT 9999 BKN006 M01/M02 Q1026=
201502051020 METAR ESMX 051020Z 34005KT 9999 OVC005 M02/M03 Q1026=
201502050950 METAR ESMX 050950Z 34005KT 9999 OVC005 M01/M02 Q1026=
201502050920 METAR ESMX 050920Z 36006KT 9999 OVC005 M02/M03 Q1026=
201502050850 METAR ESMX 050850Z 36005KT 9999 OVC005 M02/M03 Q1026=
201502050820 METAR ESMX 050820Z 08001KT 9999 OVC005 M01/M02 Q1025=
201502050750 METAR ESMX 050750Z 06003KT 020V100 9999 OVC005 M02/M03 Q1024=
201502050720 METAR ESMX 050720Z 03006KT 9999 OVC006 M02/M03 Q1024=
201502050650 METAR ESMX 050650Z 02005KT 9999 FEW007 BKN008 M02/M03 Q1023=
201502050620 METAR ESMX 050620Z 02004KT 9999 BKN008 M02/M03 Q1023=
201502050550 METAR ESMX 050550Z 03007KT 9999 BKN003 M02/M03 Q1022=
201502050520 METAR ESMX 050520Z 03005KT 9999 BKN007 M02/M03 Q1022=
201502050450 METAR ESMX 050450Z 03005KT 9999 BKN007 M02/M03 Q1021=
201502050420 METAR ESMX 050420Z AUTO 02005KT 9999 BKN005/// M02/M02 Q1021=
201502050350 METAR ESMX 050350Z AUTO 03006KT 9999 OVC005/// M02/M02 Q1021=
201502050320 METAR ESMX 050320Z AUTO 03005KT 9999 BKN005/// M02/M02 Q1020=
201502050250 METAR ESMX 050250Z AUTO 05004KT 9999 FEW006/// BKN015/// M02/M02 Q1020=
201502050220 METAR ESMX 050220Z AUTO 03005KT 9999 OVC006/// M01/M02 Q1020=
201502050150 METAR ESMX 050150Z AUTO 03004KT 9999 OVC006/// M01/M02 Q1020=
201502050120 METAR ESMX 050120Z AUTO 05003KT 020V090 9999 OVC007/// M02/M02 Q1019=
201502050050 METAR COR ESMX 050050Z 03003KT 9999 -SN BKN010 OVC041 M02/M02 Q1019=
201502050020 METAR ESMX 050020Z 04004KT 9999 -SN FEW007 SCT008 BKN041 M02/M02 Q1018=
201502042350 METAR ESMX 042350Z 05005KT 9999 -SN OVC007 M01/M02 Q1018=
201502042320 METAR ESMX 042320Z 03005KT 9999 -SN FEW008 SCT013 BKN015 M02/M02 Q1018=
201502042250 METAR ESMX 042250Z 03004KT 9999 -SN FEW007 SCT017 BKN024 M02/M02 Q1018=
201502042220 METAR COR ESMX 042220Z 01004KT 9999 -SN FEW029 BKN038 BKN046 M02/M03 Q1017=
201502042150 METAR COR ESMX 042150Z 01005KT 9999 -SN BKN032 M03/M03 Q1017=
201502042120 METAR ESMX 042120Z 03006KT 9999 -SN FEW010 SCT031 OVC042 M02/M02 Q1016=
201502042050 METAR ESMX 042050Z 01006KT 9999 -SN FEW010 BKN029 OVC043 M02/M03 Q1016=
201502042020 METAR COR ESMX 042020Z 01006KT 9000 -SN FEW002 BKN010 BKN027 M02/M03 Q1016=
201502041950 METAR ESMX 041950Z 02005KT 7000 -SN FEW007 SCT008 OVC010 M02/M03 Q1015=
201502041920 METAR ESMX 041920Z 02006KT 9999 FEW008 OVC009 M02/M03 Q1015=
201502041850 METAR ESMX 041850Z 01006KT 9999 -SN FEW006 BKN008 BKN011 M02/M03 Q1014=
201502041820 METAR ESMX 041820Z 01006KT 2500 -SN FEW008 BKN010 OVC017 M02/M03 Q1014=
201502041750 METAR ESMX 041750Z 01007KT 9999 -SN SCT006 BKN010 M02/M03 Q1013=
201502041720 METAR ESMX 041720Z 01009KT 9999 -SN OVC006 M02/M03 Q1013=
201502041650 METAR ESMX 041650Z 35007KT 9999 -SN OVC007 M02/M03 Q1013=
201502041620 METAR ESMX 041620Z 35006KT 7000 -SN OVC010 M03/M03 Q1012=
201502041550 METAR ESMX 041550Z 34007KT 9999 -SNSG OVC010 M02/M04 Q1012=
201502041520 METAR ESMX 041520Z 36007KT 9999 -SG BKN007 OVC015 M02/M03 Q1012=
201502041450 METAR ESMX 041450Z 01008KT 9999 -SN OVC006 M02/M03 Q1011=
201502041420 METAR ESMX 041420Z 35008KT 9999 OVC006 M02/M03 Q1011=
201502041350 METAR ESMX 041350Z 01007KT 9999 -SN OVC006 M02/M04 Q1011=
201502041320 METAR ESMX 041320Z 01008KT 9999 -SN OVC006 M02/M04 Q1010=
201502041250 METAR ESMX 041250Z 36008KT 9999 -SN OVC006 M03/M04 Q1010=
201502041220 METAR ESMX 041220Z 35008KT 6000 -SN OVC006 M03/M04 Q1010=
201502041150 METAR ESMX 041150Z 01010KT 9999 OVC005 M03/M04 Q1010=
201502041120 METAR ESMX 041120Z 01010KT 9999 OVC005 M03/M04 Q1009=
201502041050 METAR COR ESMX 041050Z 36009KT 9999 OVC005 M03/M05 Q1009=
201502041020 METAR ESMX 041020Z 35008KT 9999 OVC006 M04/M05 Q1009=
201502040950 METAR ESMX 040950Z 36009KT 9999 OVC007 M04/M06 Q1009=
201502040920 METAR ESMX 040920Z 01009KT 9999 OVC008 M04/M06 Q1008=
201502040850 METAR ESMX 040850Z 36008KT 9999 OVC007 M04/M06 Q1008=
201502040820 METAR ESMX 040820Z 35008KT 9999 OVC008 M05/M06 Q1008=
201502040750 METAR ESMX 040750Z 36009KT 9999 OVC008 M05/M06 Q1007=
201502040720 METAR ESMX 040720Z 35008KT 9999 OVC007 M05/M06 Q1007=
201502040650 METAR ESMX 040650Z 36009KT 9999 OVC008 M05/M06 Q1007=
201502040620 METAR ESMX 040620Z 35010KT 9999 OVC008 M05/M06 Q1007=
201502040550 METAR ESMX 040550Z 36007KT 9999 -SN FEW007 OVC009 M05/M06 Q1006=
201502040520 METAR COR ESMX 040520Z 35008KT 9999 -SN OVC008 M05/M06 Q1006=
201502040450 METAR ESMX 040450Z 36010KT 9999 -SN OVC008 M05/M06 Q1006=
201502040420 METAR ESMX 040420Z AUTO 36010KT 9999 OVC008/// M05/M06 Q1006 RESG=
201502040350 METAR ESMX 040350Z AUTO 36009KT 9999 OVC008/// M05/M06 Q1005=
201502040320 METAR ESMX 040320Z AUTO 36009KT 9999 SG FEW009/// BKN013/// OVC017/// M05/M07 Q1005=
201502040250 METAR ESMX 040250Z AUTO 35009KT 9999 SG FEW009/// BKN016/// M05/M07 Q1005=
201502040220 METAR ESMX 040220Z AUTO 35009KT 8000 SG FEW009/// SCT013/// BKN025/// M05/M06 Q1005=
201502040150 METAR ESMX 040150Z AUTO 35008KT 9999 OVC008/// M05/M06 Q1004 RESG=
201502040120 METAR ESMX 040120Z AUTO 36008KT 9999 SG OVC008/// M05/M06 Q1004=
201502040050 METAR ESMX 040050Z AUTO 35007KT 9999 OVC008/// M05/M06 Q1004=
201502040020 METAR ESMX 040020Z 34007KT 9999 -SN FEW008 OVC010 M05/M06 Q1004=
201502032350 METAR ESMX 032350Z 34009KT 9999 -SN FEW009 OVC010 M05/M06 Q1004=
201502032320 METAR ESMX 032320Z 34008KT 9999 -SN SCT010 OVC015 M05/M06 Q1003=
201502032250 METAR COR ESMX 032250Z 34009KT 9999 -SN FEW010 BKN014 OVC018 M05/M06 Q1003=
201502032220 METAR ESMX 032220Z 35008KT 9999 -SN BKN009 OVC017 M05/M06 Q1003=
201502032150 METAR ESMX 032150Z 35008KT 9999 -SN OVC008 M05/M06 Q1003=
201502032120 METAR COR ESMX 032120Z 34008KT 9999 -SN OVC009 M05/M06 Q1003=
201502032050 METAR ESMX 032050Z 34008KT 9999 -SN OVC008 M05/M06 Q1002=
201502032020 METAR COR ESMX 032020Z 34008KT 9999 -SN OVC008 M05/M06 Q1002=
201502031950 METAR ESMX 031950Z 36009KT 9999 -SN OVC008 M05/M06 Q1002=
201502031920 METAR ESMX 031920Z 36008KT 9999 -SN OVC008 M04/M06 Q1001=
201502031850 METAR ESMX 031850Z 35008KT 9999 -SN OVC008 M04/M06 Q1001=
201502031820 METAR ESMX 031820Z 01007KT 9999 -SN OVC009 M04/M06 Q1001=
201502031750 METAR ESMX 031750Z 36008KT 9999 -SN OVC010 M04/M06 Q1001=
201502031720 METAR ESMX 031720Z 02009KT 9999 -SN BKN012 OVC024 M04/M06 Q1000=
201502031650 METAR ESMX 031650Z 01009KT 9999 -SN OVC010 M04/M06 Q1000=
201502031620 METAR ESMX 031620Z 35010KT 9999 -SN BKN010 M04/M06 Q1000=
201502031550 METAR COR ESMX 031550Z 35011KT 9999 -SN OVC011 M04/M06 Q1000=
201502031520 METAR ESMX 031520Z 36008KT 9999 -SN SCT014 OVC020 M04/M06 Q0999=
201502031450 METAR ESMX 031450Z 35009KT 8000 -SN FEW012 BKN019 M04/M06 Q0999=
201502031420 METAR ESMX 031420Z 35009KT 9999 -SN FEW012 BKN015 M04/M06 Q0998=
201502031350 METAR ESMX 031350Z 35007KT 8000 -SN SCT012 BKN021 M04/M05 Q0998=
201502031320 METAR ESMX 031320Z 36009KT 8000 -SN FEW010 BKN019 M04/M06 Q0998=
201502031250 METAR ESMX 031250Z 36008KT 9000 -SN FEW011 OVC013 M03/M05 Q0998=
201502031220 METAR ESMX 031220Z 01008KT 9000 -SN FEW009 BKN015 M03/M05 Q0997=
201502031150 METAR ESMX 031150Z 01009KT 5000 -SN SCT009 BKN015 M04/M05 Q0997=
201502031120 METAR ESMX 031120Z 01010KT 4500 -SN FEW011 BKN013 M04/M06 Q0997=
201502031050 METAR ESMX 031050Z 36010KT 5000 -SN FEW010 BKN012 M04/M06 Q0997=
201502031020 METAR ESMX 031020Z 36010KT 5000 -SN BKN009 M04/M06 Q0996=
201502030950 METAR ESMX 030950Z 35009KT 5000 -SN SCT008 BKN030 M04/M06 Q0996=
201502030920 METAR ESMX 030920Z 35007KT 5000 -SN BKN024 M05/M06 Q0996=
201502030850 METAR ESMX 030850Z 35007KT 5000 -SN FEW010 M05/M06 Q0996=
201502030820 METAR ESMX 030820Z 32004KT 3000 -SN FEW008 BKN020 M06/M07 Q0995=
201502030750 METAR ESMX 030750Z 31004KT 5000 -SN FEW009 BKN019 M07/M07 Q0995=
201502030720 METAR ESMX 030720Z 31004KT 7000 -SN FEW007 SCT010 M07/M08 Q0995=
201502030650 METAR ESMX 030650Z 33005KT 5000 -SN FEW008 SCT031 M06/M08 Q0994=
201502030620 METAR ESMX 030620Z 35005KT 6000 -SN FEW008 M06/M07 Q0994=
201502030550 METAR COR ESMX 030550Z 35006KT 6000 -SN FEW010 SCT027 M06/M07 Q0994=
201502030520 METAR ESMX 030520Z 35006KT 7000 -SN SCT010 M06/M07 Q0994=
201502030450 METAR ESMX 030450Z 35007KT 9999 -SN SCT010 M06/M07 Q0993=
201502030420 METAR ESMX 030420Z AUTO 36008KT 9999 SG NCD M06/M08 Q0993=
201502030350 METAR ESMX 030350Z AUTO 34007KT 9999 NCD M06/M08 Q0993=
201502030320 METAR ESMX 030320Z AUTO 34008KT 9999 NCD M06/M08 Q0993=
201502030250 METAR ESMX 030250Z AUTO 34008KT 9999 NCD M07/M08 Q0992=
201502030220 METAR ESMX 030220Z AUTO 33007KT 9999 FEW100/// M07/M08 Q0992=
201502030150 METAR ESMX 030150Z AUTO 34007KT 9999 FEW100/// M06/M08 Q0992=
201502030120 METAR ESMX 030120Z 36007KT CAVOK M06/M07 Q0992=
201502030050 METAR ESMX 030050Z 36007KT CAVOK M06/M07 Q0992=
201502030020 METAR ESMX 030020Z 34006KT CAVOK M06/M07 Q0991=
201502022350 METAR ESMX 022350Z 35006KT CAVOK M06/M07 Q0991=
201502022320 METAR ESMX 022320Z 35008KT CAVOK M05/M07 Q0991=
201502022250 METAR ESMX 022250Z 35007KT CAVOK M05/M07 Q0991=
201502022220 METAR ESMX 022220Z 35007KT 9999 -SN FEW041 SCT100 M05/M07 Q0991=
201502022150 METAR ESMX 022150Z 35007KT 9999 -SN SCT041 M06/M07 Q0990=
201502022120 METAR ESMX 022120Z AUTO 34006KT 9999 FEW027/// M07/M08 Q0990=
201502022050 METAR ESMX 022050Z AUTO 34007KT 9999 SCT027/// M07/M08 Q0990=
201502022020 METAR ESMX 022020Z 35005KT 9999 -SN FEW035 M06/M07 Q0990=
201502021950 METAR ESMX 021950Z 36006KT 9999 -SN FEW009 SCT029 M05/M07 Q0990=
201502021920 METAR ESMX 021920Z 02005KT 9999 -SN OVC023 M05/M06 Q0989=
201502021851 METAR ESMX 021851Z 02006KT 9999 -SN FEW008 OVC024 M04/M06 Q0989=
201502021820 METAR ESMX 021820Z 35005KT 7000 -SN BKN020 M04/M05 Q0989=
201502021750 METAR ESMX 021750Z 34006KT 9999 -SN FEW013 SCT015 OVC018 M04/M05 Q0989=
201502021720 METAR ESMX 021720Z 32005KT 7000 -SN FEW007 BKN015 M05/M06 Q0989=
201502021650 METAR ESMX 021650Z 31004KT 9999 -SN FEW008 OVC010 M04/M05 Q0988=
201502021620 METAR COR ESMX 021620Z 31005KT 7000 -SN FEW008 SCT010 M04/M05 Q0988=
201502021550 METAR ESMX 021550Z 30005KT 4200 -SN FEW007 OVC009 M04/M05 Q0988=
201502021520 METAR ESMX 021520Z 31005KT 4800 -SN FEW009 SCT013 M04/M05 Q0988=
201502021450 METAR ESMX 021450Z 31004KT 280V340 4500 -SN FEW009 M04/M05 Q0988=
201502021420 METAR COR ESMX 021420Z 30005KT 3900 -SN FEW012 SCT053 M04/M05 Q0987=
201502021350 METAR ESMX 021350Z 29005KT 3300 -SN FEW008 SCT013 M04/M05 Q0987=
201502021320 METAR ESMX 021320Z 32005KT 8000 -SN FEW008 M04/M05 Q0987=
201502021250 METAR ESMX 021250Z 33005KT 4400 -SN FEW007 SCT014 M04/M05 Q0987=
201502021220 METAR ESMX 021220Z 34005KT 3100 R01///// R19/P2000N -SN FEW027 M04/M05 Q0987 REFZDZ=
201502021150 METAR COR ESMX 021150Z 32006KT 4200 R01///// R19/P2000N -SN FEW007 SCT020 M04/M05 Q0987 REFZDZ=
201502021120 METAR ESMX 021120Z 31005KT 5000 -SN FEW008 SCT018 M03/M05 Q0986=
201502021050 METAR ESMX 021050Z 33006KT 9000 -SN FEW018 SCT100 M03/M05 Q0986=
201502021020 METAR ESMX 021020Z 32006KT 9999 R01///// R19/P2000N -SN OVC017 M03/M06 Q0986=
201502020950 METAR COR ESMX 020950Z 34006KT 9999 R01///// R19/P2000N -SN OVC016 M03/M06 Q0986=
201502020920 METAR ESMX 020920Z 34006KT 9999 R01///// R19/P2000N -SN OVC010 M03/M05 Q0986=
201502020850 METAR COR ESMX 020850Z 32005KT 9999 R01///// R19/P2000N -SN OVC008 M03/M04 Q0986=
201502020820 METAR ESMX 020820Z 32004KT 9999 R01///// R19/P2000N -SN FEW007 SCT008 OVC010 M03/M04 Q0985=
201502020750 METAR ESMX 020750Z 33005KT 9999 R01///// R19/P2000N -SN FEW009 OVC010 M03/M04 Q0985=
201502020720 METAR ESMX 020720Z 31003KT 8000 R01///// R19/P2000N -SN FEW009 OVC010 M03/M04 Q0985=
201502020650 METAR ESMX 020650Z 32005KT 9999 R01///// R19/P2000N SCT008 OVC011 M03/M04 Q0985=
201502020620 METAR ESMX 020620Z 31004KT 9999 R01///// R19/P2000N SCT012 OVC023 M03/M04 Q0984=
201502020550 METAR ESMX 020550Z 31004KT 270V340 9999 -SN SCT010 BKN023 M03/M04 Q0984=
201502020520 METAR ESMX 020520Z 31003KT 9999 -SN FEW012 BKN030 M03/M04 Q0984=
201502020450 METAR COR ESMX 020450Z 30004KT 280V340 9999 -SN SCT010 BKN030 M03/M04 Q0984 REFZDZ=
201502020420 METAR ESMX 020420Z AUTO 29004KT 9999 FZDZ FEW009/// BKN020/// OVC030/// M02/M03 Q0984 REFZDZ=
201502020350 METAR ESMX 020350Z AUTO 29004KT 9999 -FZDZ FEW010/// SCT019/// BKN021/// M02/M03 Q0984=
201502020320 METAR ESMX 020320Z AUTO 28003KT 9999 -FZDZ OVC019/// M02/M03 Q0983=
201502020250 METAR ESMX 020250Z AUTO 27004KT 9999 -FZDZ FEW013/// OVC017/// M02/M03 Q0983 REFZDZ=
201502020220 METAR ESMX 020220Z AUTO 27003KT 9999 -FZDZ FEW009/// OVC023/// M02/M03 Q0983=
201502020150 METAR ESMX 020150Z AUTO 27003KT 9999 -FZDZ FEW012/// OVC023/// M02/M03 Q0983=
201502020120 METAR ESMX 020120Z AUTO 26004KT 9999 -FZDZ FEW010/// OVC022/// M02/M03 Q0983=
201502020050 METAR ESMX 020050Z 26003KT 9999 -SN SCT010 BKN020 M02/M03 Q0983=
201502020020 METAR ESMX 020020Z 27004KT 9999 -SN FEW008 SCT012 OVC022 M02/M03 Q0983=
201502012350 METAR ESMX 012350Z 27004KT 9999 -SN SCT009 BKN020 M02/M03 Q0982 REFZDZ=
201502012320 METAR ESMX 012320Z 26004KT 9999 -SN SCT010 OVC020 M02/M03 Q0982=
201502012250 METAR ESMX 012250Z 27004KT 9999 -SN SCT008 SCT026 M02/M03 Q0982=
201502012220 METAR COR ESMX 012220Z 27004KT 9999 -SN SCT008 BKN025 M02/M02 Q0982=
201502012150 METAR ESMX 012150Z 25004KT 9999 -SN FEW008 BKN025 M02/M02 Q0982=
201502012120 METAR ESMX 012120Z 25004KT 9999 -SN FEW007 SCT009 BKN035 M02/M02 Q0982=
201502012050 METAR ESMX 012050Z 25005KT 9999 -SN FEW007 SCT013 OVC020 M01/M02 Q0981=
201502012020 METAR COR ESMX 012020Z 25006KT 9999 -SN FEW008 BKN020 M01/M02 Q0981=
201502011950 METAR ESMX 011950Z 25006KT 9999 -SN FEW010 SCT020 BKN028 M01/M02 Q0981 REFZDZ=
201502011920 METAR ESMX 011920Z 25006KT 9999 -SN FEW010 SCT020 BKN035 M01/M03 Q0981=
201502011850 METAR ESMX 011850Z 25006KT 9999 -SN FEW010 SCT020 BKN035 M01/M03 Q0981=
201502011820 METAR ESMX 011820Z 26007KT 9999 -SN FEW010 BKN020 M01/M03 Q0981=
201502011750 METAR ESMX 011750Z 24007KT 9999 -SN FEW010 BKN017 M01/M03 Q0980=
201502011720 METAR ESMX 011720Z 25007KT 9999 -SN SCT009 BKN017 M01/M02 Q0980=
201502011650 METAR ESMX 011650Z 24007KT 5000 -SN SCT008 BKN011 OVC014 M01/M02 Q0980=
201502011620 METAR ESMX 011620Z 24005KT 9999 -SN FEW009 OVC010 M01/M02 Q0980=
201502011550 METAR ESMX 011550Z 25006KT 2800 -SN BR FEW006 SCT010 BKN015 M01/M02 Q0979 REDZ=
201502011520 METAR ESMX 011520Z 26007KT 9999 FEW009 BKN011 OVC015 M01/M02 Q0979=
201502011450 METAR ESMX 011450Z 25008KT 9999 FEW007 SCT009 OVC010 M01/M02 Q0979=
201502011420 METAR ESMX 011420Z 25007KT 6000 -SN FEW006 BKN008 OVC011 M01/M02 Q0979=
201502011350 METAR ESMX 011350Z 25008KT 220V280 9999 FEW007 SCT009 OVC010 M01/M02 Q0978=
201502011320 METAR ESMX 011320Z 26007KT 6000 -SN FEW006 SCT008 BKN010 M01/M02 Q0978 REDZ=
201502011250 METAR ESMX 011250Z 26008KT 220V290 7000 -SN FEW006 SCT008 BKN009 M01/M02 Q0978=
201502011220 METAR ESMX 011220Z 26010KT 9999 FEW007 SCT009 OVC010 M01/M02 Q0977=
