##########################################################
# Query made at 04/19/2024 21:50:30 UTC
# Time interval: from 03/01/2016 12:00  to 03/31/2016 12:59  UTC
##########################################################

##########################################################
# ESMX, Vaxjo (Sweden)
# WMO index: 02641. WIGOS ID: 0-20000-0-02648
# Latitude 56-51N. Longitude 014-50E. Altitude 199 m.
##########################################################

201603311250 METAR ESMX 311250Z 25013KT 210V290 9999 FEW031 BKN051 08/01 Q1009=
201603311220 METAR ESMX 311220Z 28009KT 9999 SCT039 08/00 Q1009=
201603311150 METAR ESMX 311150Z 24012KT 210V280 9999 SCT033 08/M01 Q1009=
201603311120 METAR ESMX 311120Z 24011KT 210V270 9999 FEW024 SCT033 BKN038 08/01 Q1008=
201603311050 METAR ESMX 311050Z 26011KT 9999 FEW031 SCT038 BKN044 08/01 Q1008=
201603311020 METAR ESMX 311020Z 26010KT 9999 FEW032 SCT041 06/01 Q1008=
201603310950 METAR ESMX 310950Z 27010KT 230V310 9999 FEW029 SCT042 06/00 Q1008=
201603310920 METAR ESMX 310920Z 29008KT 9999 SCT026 07/01 Q1008=
201603310850 METAR ESMX 310850Z 29010KT 250V330 9999 FEW015 SCT019 BKN024 06/01 Q1008=
201603310820 METAR ESMX 310820Z 29007KT 240V340 9999 FEW015 BKN022 05/02 Q1008=
201603310750 METAR ESMX 310750Z 27007KT 240V300 9999 FEW009 SCT014 BKN017 05/02 Q1007=
201603310720 METAR ESMX 310720Z 27006KT 240V300 9999 FEW009 SCT016 BKN019 04/02 Q1007=
201603310650 METAR ESMX 310650Z 27006KT 9999 FEW008 SCT013 BKN017 04/03 Q1007=
201603310620 METAR ESMX 310620Z 27005KT 9999 FEW009 BKN017 03/02 Q1007=
201603310550 METAR ESMX 310550Z 27006KT 240V320 9999 FEW008 SCT012 BKN019 03/02 Q1007=
201603310520 METAR ESMX 310520Z 27006KT 9999 SCT008 OVC013 03/02 Q1006=
201603310450 METAR ESMX 310450Z 27005KT 9999 SCT007 BKN010 03/02 Q1006=
201603310420 METAR ESMX 310420Z 31005KT 260V330 9999 FEW008 BKN010 03/02 Q1006=
201603310350 METAR ESMX 310350Z 29006KT 250V320 9999 SCT005 BKN007 OVC010 03/02 Q1005=
201603310320 METAR ESMX 310320Z AUTO 30004KT 9000 BR FEW004/// OVC005/// 03/02 Q1005=
201603310250 METAR ESMX 310250Z AUTO 27004KT 240V300 8000 BR OVC003/// 03/02 Q1005=
201603310220 METAR ESMX 310220Z AUTO 26003KT 9999 OVC003/// 03/02 Q1005=
201603310150 METAR ESMX 310150Z AUTO 24004KT 9000 BR OVC003/// 02/02 Q1004=
201603310120 METAR ESMX 310120Z AUTO 25004KT 9999 FEW003/// OVC005/// 02/02 Q1004=
201603310050 METAR ESMX 310050Z AUTO 27004KT 9999 OVC004/// 02/02 Q1004=
201603310020 METAR ESMX 310020Z AUTO 27004KT 9999 FEW004/// OVC005/// 02/02 Q1004=
201603302350 METAR ESMX 302350Z 29008KT 9999 OVC004 02/02 Q1004=
201603302320 METAR ESMX 302320Z 27006KT 240V300 9999 OVC004 02/02 Q1004=
201603302250 METAR ESMX 302250Z 27006KT 9999 -DZ BKN005 02/02 Q1004=
201603302220 METAR ESMX 302220Z 26004KT 9999 SCT003 BKN024 02/02 Q1003=
201603302150 METAR ESMX 302150Z 26003KT 9999 FEW005 SCT015 BKN025 03/02 Q1003=
201603302120 METAR ESMX 302120Z 28003KT 9999 -DZ SCT005 BKN023 03/02 Q1003=
201603302050 METAR COR ESMX 302050Z 29003KT 9999 SCT006 BKN020 03/02 Q1003=
201603302020 METAR ESMX 302020Z 29003KT 8000 BR FEW006 BKN009 OVC013 03/03 Q1003=
201603301950 METAR ESMX 301950Z 26002KT 9999 -DZ OVC015 03/02 Q1003=
201603301920 METAR ESMX 301920Z 32003KT 9999 -RA SCT009 BKN015 03/03 Q1002=
201603301850 METAR ESMX 301850Z 34003KT 7000 -RA FEW007 BKN009 03/03 Q1002 REDZ=
201603301820 METAR ESMX 301820Z 36003KT 9999 DZ OVC009 03/03 Q1002=
201603301750 METAR ESMX 301750Z 00000KT 9999 -RA OVC014 03/02 Q1002=
201603301720 METAR ESMX 301720Z 17006KT 9999 -RA FEW007 BKN012 04/02 Q1002 REDZ=
201603301650 METAR ESMX 301650Z 19005KT 9999 -RA FEW005 BKN012 04/03 Q1002=
201603301620 METAR ESMX 301620Z 18006KT 9999 -RA SCT041 05/03 Q1002=
201603301550 METAR ESMX 301550Z 17006KT 9999 BKN022 05/03 Q1002=
201603301520 METAR COR ESMX 301520Z 19007KT 9999 FEW020 BKN030 05/03 Q1002=
201603301450 METAR ESMX 301450Z 18009KT 9999 FEW010 BKN030 06/03 Q1002=
201603301420 METAR ESMX 301420Z 17012KT 9999 -RA FEW018 SCT037 BKN061 05/03 Q1003=
201603301350 METAR ESMX 301350Z 18009KT 9999 BKN023 BKN030 07/02 Q1003=
201603301320 METAR ESMX 301320Z 16008KT 9999 FEW023 BKN030 07/02 Q1003=
201603301250 METAR ESMX 301250Z 17008KT 9999 FEW022 SCT027 BKN033 07/02 Q1003=
201603301220 METAR ESMX 301220Z 19008KT 9999 FEW021 BKN045 BKN086 08/03 Q1003=
201603301150 METAR COR ESMX 301150Z 17006KT 9999 FEW017 BKN044 06/03 Q1003=
201603301120 METAR ESMX 301120Z 19008KT 150V220 7000 RA FEW012 BKN020 OVC043 05/03 Q1004=
201603301050 METAR ESMX 301050Z 17008KT 9999 SCT020 BKN030 OVC044 06/02 Q1004=
201603301020 METAR ESMX 301020Z 20009KT 9999 BKN022 06/02 Q1004=
201603300950 METAR ESMX 300950Z 20007KT 160V230 9999 FEW016 BKN023 06/01 Q1004=
201603300920 METAR ESMX 300920Z 20008KT 9999 FEW015 SCT020 BKN023 06/02 Q1004=
201603300850 METAR ESMX 300850Z 20008KT 9999 FEW017 BKN023 05/02 Q1004=
201603300820 METAR ESMX 300820Z 18008KT 150V210 9999 FEW010 BKN023 05/03 Q1004=
201603300750 METAR ESMX 300750Z 17005KT 130V200 9999 BKN022 05/03 Q1004=
201603300720 METAR ESMX 300720Z 20004KT 170V240 9999 FEW008 OVC021 04/03 Q1004=
201603300650 METAR ESMX 300650Z 19006KT 9999 SCT013 BKN016 04/03 Q1004=
201603300620 METAR ESMX 300620Z 18006KT 9999 BKN014 03/02 Q1004=
201603300550 METAR ESMX 300550Z 20006KT 9999 BKN012 02/02 Q1004=
201603300520 METAR ESMX 300520Z 19006KT 9999 SCT013 02/01 Q1004=
201603300450 METAR ESMX 300450Z 20005KT 4100 SCT010 01/00 Q1003=
201603300420 METAR ESMX 300420Z 17004KT 3600 BR SCT002 01/00 Q1003=
201603300350 METAR ESMX 300350Z 19006KT 3200 BR FEW005 SCT010 00/M00 Q1003=
201603300320 METAR ESMX 300320Z AUTO 20005KT 4900 BR NCD M00/M00 Q1003=
201603300250 METAR ESMX 300250Z AUTO 21006KT 8000 NCD 00/M00 Q1003=
201603300220 METAR ESMX 300220Z AUTO 20007KT 9999 NCD 01/00 Q1003=
201603300150 METAR ESMX 300150Z AUTO 20007KT 9999 NCD 01/00 Q1003=
201603300120 METAR ESMX 300120Z AUTO 20006KT 9999 NCD 01/M00 Q1003=
201603300050 METAR ESMX 300050Z AUTO 21006KT 9999 NCD 01/00 Q1003=
201603300020 METAR ESMX 300020Z AUTO 21006KT 9999 FEW041/// 01/00 Q1003=
201603292350 METAR ESMX 292350Z 21006KT 9999 FEW036 02/01 Q1003=
201603292320 METAR ESMX 292320Z 21007KT 9999 FEW035 01/00 Q1003=
201603292250 METAR ESMX 292250Z 21005KT 9999 FEW033 01/00 Q1003=
201603292220 METAR ESMX 292220Z 21007KT 9999 FEW040 02/01 Q1003=
201603292150 METAR ESMX 292150Z 20007KT CAVOK 02/01 Q1003=
201603292120 METAR ESMX 292120Z 19006KT 9999 FEW039 03/01 Q1003=
201603292050 METAR ESMX 292050Z AUTO 18006KT 9999 NCD 03/01 Q1002=
201603292020 METAR ESMX 292020Z 19006KT CAVOK 04/01 Q1002=
201603291950 METAR ESMX 291950Z 21005KT CAVOK 03/00 Q1002=
201603291920 METAR ESMX 291920Z 22005KT CAVOK 03/00 Q1002=
201603291850 METAR ESMX 291850Z 22004KT CAVOK 04/01 Q1002=
201603291820 METAR ESMX 291820Z 23005KT CAVOK 04/01 Q1002=
201603291750 METAR ESMX 291750Z 21004KT CAVOK 06/01 Q1001=
201603291720 METAR ESMX 291720Z 24006KT CAVOK 07/01 Q1001=
201603291650 METAR ESMX 291650Z 24010KT 9999 FEW032 09/02 Q1001=
201603291620 METAR ESMX 291620Z 23007KT 9999 FEW031 09/02 Q1001=
201603291550 METAR ESMX 291550Z 24011KT 9999 FEW035 SCT069 10/02 Q1000=
201603291520 METAR ESMX 291520Z 23010KT 9999 VCSH FEW037 SCT057 09/02 Q1000=
201603291450 METAR ESMX 291450Z 24012KT 9999 VCSH SCT037CB 09/02 Q1000=
201603291420 METAR ESMX 291420Z 22009KT 190V260 9999 FEW037CB FEW063 11/01 Q1000=
201603291350 METAR ESMX 291350Z 22010KT 180V240 9999 FEW037CB BKN078 09/01 Q1000=
201603291320 METAR ESMX 291320Z 22011KT 190V260 9999 FEW045TCU 11/02 Q1000=
201603291250 METAR ESMX 291250Z 27011KT 9999 FEW032CB SCT041 BKN077 10/01 Q0999=
201603291220 METAR ESMX 291220Z 23010KT 9999 VCSH SCT032CB 10/03 Q0999=
201603291150 METAR ESMX 291150Z 20010KT 170V230 9999 SCT032TCU 10/04 Q0999=
201603291120 METAR ESMX 291120Z 22010KT 9999 FEW028 SCT069 09/03 Q0999=
201603291050 METAR ESMX 291050Z 20012KT 9999 FEW024 10/03 Q0999=
201603291020 METAR ESMX 291020Z 21010KT 160V230 9999 FEW020 SCT029 10/04 Q0999=
201603290950 METAR ESMX 290950Z 21010KT 9999 FEW014 SCT018 09/04 Q0999=
201603290920 METAR ESMX 290920Z 19007KT 160V230 9999 FEW012 08/05 Q0999=
201603290850 METAR ESMX 290850Z 21008KT 9999 SCT010 08/05 Q0999=
201603290820 METAR ESMX 290820Z 17007KT 9999 BKN008 07/04 Q0998=
201603290750 METAR COR ESMX 290750Z 17007KT 9999 BKN006 06/05 Q0998=
201603290720 METAR ESMX 290720Z 17007KT 9999 FEW004 05/04 Q0998=
201603290650 METAR ESMX 290650Z 18008KT 9000 BR FEW003 05/04 Q0998=
201603290620 METAR ESMX 290620Z 16004KT 6000 BR NSC 04/04 Q0998=
201603290550 METAR ESMX 290550Z 18005KT 5000 BR FEW001 SCT200 04/03 Q0997=
201603290520 METAR ESMX 290520Z 17006KT 0600 R19/1400D FG VV002 04/04 Q0997=
201603290450 METAR ESMX 290450Z 16005KT 6000 BR FEW001 04/04 Q0997=
201603290420 METAR ESMX 290420Z 17005KT 6000 BR NSC 05/04 Q0997=
201603290350 METAR ESMX 290350Z 16005KT 5000 BR NSC 05/04 Q0997 REDZ=
201603290320 METAR ESMX 290320Z AUTO 17003KT 4600 BR NCD 05/04 Q0997=
201603290250 METAR ESMX 290250Z AUTO 13003KT 5000 BR FEW039/// 05/04 Q0997=
201603290220 METAR ESMX 290220Z AUTO VRB03KT 7000 -DZ FEW005/// SCT027/// 05/05 Q0997=
201603290150 METAR ESMX 290150Z AUTO 20009KT 5000 -RA FEW006/// SCT009/// BKN012/// 06/05 Q0997 REDZ=
201603290120 METAR ESMX 290120Z AUTO 17007KT 3700 -RA FEW007/// BKN011/// 06/05 Q0997=
201603290050 METAR ESMX 290050Z AUTO 16006KT 110V180 4000 -DZ FEW016/// BKN027/// BKN036/// 06/05 Q0997 RESHUP REDZ=
201603290020 METAR ESMX 290020Z AUTO 14006KT 100V170 6000 BR FEW015/// BKN035/// OVC048/// 06/04 Q0997=
201603282350 METAR ESMX 282350Z 14007KT 7000 -DZ BKN033 05/04 Q0997=
201603282320 METAR ESMX 282320Z 15009KT 8000 -RA FEW020 SCT034 BKN048 06/03 Q0997=
201603282250 METAR ESMX 282250Z 14009KT CAVOK 06/03 Q0997=
201603282220 METAR ESMX 282220Z 14007KT 100V170 CAVOK 06/03 Q0998=
201603282150 METAR ESMX 282150Z 14007KT 110V170 CAVOK 06/03 Q0998=
201603282120 METAR ESMX 282120Z 13007KT 080V160 CAVOK 06/03 Q0998=
201603282050 METAR ESMX 282050Z 13007KT 100V170 CAVOK 06/03 Q0999=
201603282020 METAR ESMX 282020Z 12007KT 090V160 CAVOK 06/03 Q0999=
201603281950 METAR ESMX 281950Z 12006KT 060V150 CAVOK 06/03 Q0999=
201603281920 METAR ESMX 281920Z 12007KT 080V150 CAVOK 06/03 Q1000=
201603281850 METAR ESMX 281850Z 13007KT 080V170 CAVOK 06/03 Q1000=
201603281820 METAR ESMX 281820Z 12006KT 080V160 CAVOK 07/02 Q1000=
201603281750 METAR ESMX 281750Z 13006KT 070V190 CAVOK 07/02 Q1001=
201603281720 METAR ESMX 281720Z 15008KT 110V170 CAVOK 08/01 Q1001=
201603281650 METAR ESMX 281650Z 14009KT 110V170 CAVOK 08/01 Q1002=
201603281620 METAR ESMX 281620Z 15009KT 110V190 CAVOK 09/01 Q1002=
201603281550 METAR ESMX 281550Z 17009KT CAVOK 10/01 Q1002=
201603281520 METAR ESMX 281520Z 16009KT CAVOK 10/01 Q1002=
201603281450 METAR ESMX 281450Z 14009KT 110V180 9999 FEW038 10/01 Q1003=
201603281420 METAR ESMX 281420Z 14010KT 110V170 9999 FEW037 12/01 Q1003=
201603281350 METAR ESMX 281350Z 14010KT 110V180 9999 FEW035 11/00 Q1004=
201603281320 METAR COR ESMX 281320Z 15010KT 100V180 9999 FEW033 11/01 Q1004=
201603281250 METAR ESMX 281250Z 13010KT 100V170 9999 FEW033 11/02 Q1005=
201603281220 METAR ESMX 281220Z 16012KT 9999 FEW032 11/02 Q1005=
201603281150 METAR ESMX 281150Z 16011KT 120V190 9999 FEW030 10/02 Q1006=
201603281120 METAR ESMX 281120Z 16012KT 9999 FEW030 10/01 Q1006=
201603281050 METAR ESMX 281050Z 15010KT 120V190 9999 FEW030 10/02 Q1006=
201603281020 METAR ESMX 281020Z AUTO 15010KT 090V200 9999 NCD 10/02 Q1006=
201603280950 METAR ESMX 280950Z AUTO 15010KT 120V190 9999 NCD 09/02 Q1007=
201603280920 METAR ESMX 280920Z AUTO 17012KT 9999 NCD 09/03 Q1007=
201603280850 METAR ESMX 280850Z AUTO 14008KT 110V190 9999 NCD 08/03 Q1007=
201603280820 METAR ESMX 280820Z AUTO 16010KT 9999 NCD 07/03 Q1008=
201603280750 METAR ESMX 280750Z AUTO 15008KT 100V180 9999 FEW005/// SCT007/// 05/03 Q1008=
201603280720 METAR ESMX 280720Z AUTO 16007KT 120V190 9999 BKN002/// OVC005/// 04/03 Q1008=
201603280650 METAR ESMX 280650Z AUTO 15007KT 120V190 6000 OVC001/// 03/03 Q1008=
201603280620 METAR ESMX 280620Z AUTO 15005KT 120V180 1700 OVC001/// 03/03 Q1008=
201603280550 METAR ESMX 280550Z AUTO 14006KT 100V170 0900 R01/1200N R19/1700D FG VV002 03/03 Q1008=
201603280520 METAR ESMX 280520Z AUTO 16004KT 130V210 1300 R01/P2000D R19/P2000N BR OVC001/// 03/03 Q1008=
201603280450 METAR ESMX 280450Z AUTO 17005KT 3200 BR OVC001/// 03/03 Q1009=
201603280420 METAR ESMX 280420Z AUTO 14005KT 090V190 2100 BR OVC001/// 03/03 Q1009=
201603280350 METAR ESMX 280350Z AUTO 17005KT 140V200 2300 BR OVC001/// 03/03 Q1009=
201603280320 METAR ESMX 280320Z AUTO 17005KT 1000 R01/P2000N R19/P2000N BR VV002 03/03 Q1009=
201603280250 METAR ESMX 280250Z AUTO 16004KT 2200 BR OVC001/// 03/03 Q1009=
201603280220 METAR ESMX 280220Z AUTO 21005KT 1100 R01/P2000N R19/P2000N BR VV002 03/03 Q1009=
201603280150 METAR ESMX 280150Z AUTO 22007KT 1100 R01/P2000N R19/P2000N BR OVC001/// 03/03 Q1009=
201603280120 METAR ESMX 280120Z AUTO 23005KT 9999 FEW003/// SCT006/// BKN009/// 03/02 Q1009=
201603280050 METAR ESMX 280050Z AUTO 19006KT 9999 BKN010/// 02/02 Q1009=
201603280020 METAR ESMX 280020Z AUTO 20004KT 9000 BR FEW011/// SCT014/// 01/01 Q1009=
201603272350 METAR ESMX 272350Z AUTO 20003KT 9999 NCD 01/01 Q1008=
201603272320 METAR ESMX 272320Z AUTO 17004KT 9999 NCD 02/02 Q1008=
201603272250 METAR ESMX 272250Z AUTO 22004KT 9999 FEW006/// SCT009/// 02/02 Q1008=
201603272220 METAR ESMX 272220Z AUTO 21003KT 9999 NCD 03/02 Q1008=
201603272150 METAR ESMX 272150Z AUTO 24005KT 9999 FEW006/// SCT008/// 03/02 Q1008=
201603272120 METAR ESMX 272120Z AUTO 23005KT 9999 BKN008/// BKN065/// 04/03 Q1008=
201603272050 METAR ESMX 272050Z AUTO 22005KT 9999 FEW009/// SCT012/// BKN060/// 04/03 Q1008=
201603272020 METAR ESMX 272020Z AUTO 23004KT 200V280 9999 FEW010/// 05/03 Q1008=
201603271950 METAR ESMX 271950Z 24007KT 9999 -DZ FEW011 SCT015 BKN087 05/04 Q1008 REDZ=
201603271920 METAR ESMX 271920Z 25010KT 9999 BKN012 OVC017 06/03 Q1007=
201603271850 METAR ESMX 271850Z 24010KT 9999 BKN010 OVC017 07/04 Q1007=
201603271820 METAR ESMX 271820Z 22009KT 190V260 9999 SCT016 OVC021 08/04 Q1006=
201603271750 METAR ESMX 271750Z 17008KT 9999 OVC026 08/03 Q1006=
201603271720 METAR COR ESMX 271720Z 16009KT 9999 BKN030 OVC044 08/03 Q1005=
201603271650 METAR ESMX 271650Z 17009KT 9999 FEW035 BKN070 08/03 Q1005=
201603271620 METAR ESMX 271620Z 17012KT CAVOK 09/02 Q1005=
201603271550 METAR ESMX 271550Z 16014KT CAVOK 10/02 Q1005=
201603271520 METAR ESMX 271520Z 17014KT CAVOK 10/02 Q1005=
201603271450 METAR ESMX 271450Z 16015G26KT CAVOK 10/02 Q1005=
201603271420 METAR ESMX 271420Z 17019KT CAVOK 10/01 Q1005=
201603271350 METAR ESMX 271350Z 17020KT CAVOK 11/01 Q1005=
201603271320 METAR ESMX 271320Z AUTO 17013KT 130V190 9999 NCD 11/01 Q1005=
201603271250 METAR ESMX 271250Z AUTO 17015KT 9999 NCD 11/01 Q1005=
201603271220 METAR ESMX 271220Z AUTO 14015G27KT 9999 NCD 11/01 Q1005=
201603271150 METAR ESMX 271150Z AUTO 16014G24KT 9999 FEW087/// 11/01 Q1006=
201603271120 METAR ESMX 271120Z AUTO 17016G27KT 9999 NCD 10/01 Q1006=
201603271050 METAR ESMX 271050Z AUTO 17016KT 9999 NCD 10/01 Q1006=
201603271020 METAR ESMX 271020Z AUTO 16015KT 9999 NCD 10/01 Q1007=
201603270950 METAR ESMX 270950Z AUTO 15016KT 9999 NCD 09/01 Q1007=
201603270920 METAR ESMX 270920Z AUTO 15015G25KT 9999 NCD 09/02 Q1007=
201603270850 METAR ESMX 270850Z AUTO 16014KT 130V190 9999 NCD 09/02 Q1008=
201603270820 METAR ESMX 270820Z AUTO 17015KT 9999 FEW088/// 08/02 Q1008=
201603270750 METAR ESMX 270750Z AUTO 17014KT 9999 NCD 07/03 Q1008=
201603270720 METAR ESMX 270720Z AUTO 17013KT 9999 NCD 06/03 Q1008=
201603270650 METAR ESMX 270650Z AUTO 16014KT 9999 FEW011/// 05/02 Q1008=
201603270620 METAR ESMX 270620Z 17011KT 9999 FEW003 SCT010 05/02 Q1009=
201603270550 METAR ESMX 270550Z 16011KT 9999 FEW001 04/02 Q1009=
201603270520 METAR ESMX 270520Z 15009KT CAVOK 04/02 Q1009=
201603270450 METAR ESMX 270450Z 15009KT CAVOK 03/01 Q1009=
201603270420 METAR ESMX 270420Z 16009KT CAVOK 03/01 Q1009=
201603270350 METAR ESMX 270350Z 16008KT CAVOK 03/01 Q1010=
201603270320 METAR ESMX 270320Z AUTO 15007KT 9999 NCD 03/00 Q1010=
201603270250 METAR ESMX 270250Z AUTO 16006KT 9999 NCD 03/00 Q1010=
201603270220 METAR ESMX 270220Z AUTO 16006KT 9999 NCD 02/M00 Q1011=
201603270150 METAR ESMX 270150Z AUTO 16007KT 9999 NCD 02/M00 Q1011=
201603270120 METAR ESMX 270120Z AUTO 16008KT 9999 NCD 02/00 Q1011=
201603270050 METAR ESMX 270050Z AUTO 16008KT 9999 NCD 02/M00 Q1011=
201603270020 METAR ESMX 270020Z AUTO 15009KT 9999 NCD 02/M01 Q1011=
201603262350 METAR ESMX 262350Z AUTO 16009KT 9999 NCD 03/M01 Q1012=
201603262320 METAR ESMX 262320Z AUTO 16009KT 9999 NCD 03/M02 Q1012=
201603262250 METAR ESMX 262250Z AUTO 16009KT 9999 NCD 04/M02 Q1012=
201603262220 METAR ESMX 262220Z AUTO 17009KT 9999 NCD 04/M02 Q1012=
201603262150 METAR ESMX 262150Z AUTO 16009KT 9999 NCD 04/M01 Q1013=
201603262120 METAR ESMX 262120Z AUTO 16009KT 9999 NCD 05/01 Q1013=
201603262050 METAR ESMX 262050Z AUTO 16008KT 9999 NCD 05/02 Q1013=
201603262020 METAR ESMX 262020Z AUTO 16008KT 9999 NCD 05/01 Q1013=
201603261950 METAR ESMX 261950Z AUTO 16007KT 9999 NCD 05/01 Q1013=
201603261920 METAR ESMX 261920Z AUTO 17007KT 9999 NCD 06/01 Q1013=
201603261850 METAR ESMX 261850Z AUTO 17006KT 9999 NCD 07/00 Q1014=
201603261820 METAR ESMX 261820Z AUTO 16005KT 9999 NCD 07/00 Q1013=
201603261750 METAR ESMX 261750Z AUTO 18005KT 9999 NCD 08/01 Q1014=
201603261720 METAR ESMX 261720Z AUTO 17004KT 9999 NCD 09/01 Q1014=
201603261650 METAR ESMX 261650Z AUTO 19003KT 9999 NCD 09/01 Q1014=
201603261620 METAR ESMX 261620Z AUTO 22005KT 9999 NCD 10/01 Q1014=
201603261550 METAR ESMX 261550Z AUTO 23008KT 9999 NCD 11/00 Q1014=
201603261520 METAR ESMX 261520Z AUTO 22008KT 9999 NCD 11/01 Q1014=
201603261450 METAR ESMX 261450Z AUTO 20010KT 9999 NCD 11/01 Q1014=
201603261420 METAR ESMX 261420Z AUTO 20008KT 160V230 9999 NCD 11/03 Q1014=
201603261350 METAR ESMX 261350Z AUTO 22007KT 9999 NCD 11/02 Q1015=
201603261320 METAR ESMX 261320Z AUTO 20007KT 160V240 9999 NCD 11/02 Q1015=
201603261250 METAR ESMX 261250Z AUTO 22007KT 170V260 9999 NCD 10/00 Q1015=
201603261220 METAR ESMX 261220Z AUTO 25007KT 210V290 9999 NCD 10/01 Q1015=
201603261150 METAR ESMX 261150Z AUTO 23007KT 190V270 9999 NCD 09/03 Q1015=
201603261120 METAR ESMX 261120Z AUTO 25006KT 190V270 9999 NCD 09/03 Q1015=
201603261050 METAR ESMX 261050Z AUTO 23006KT 180V310 9999 FEW047/// 08/02 Q1015=
201603261020 METAR ESMX 261020Z AUTO 24007KT 210V280 9999 NCD 07/04 Q1015=
201603260950 METAR ESMX 260950Z AUTO 23006KT 190V280 9999 FEW008/// SCT011/// 06/03 Q1015=
201603260920 METAR ESMX 260920Z AUTO 23006KT 9999 BKN005/// 05/03 Q1015=
201603260850 METAR ESMX 260850Z AUTO 24005KT 9999 FEW003/// BKN005/// 04/03 Q1014=
201603260820 METAR ESMX 260820Z AUTO VRB03KT 9999 OVC002/// 03/03 Q1014=
201603260750 METAR ESMX 260750Z AUTO 26004KT 220V290 9999 OVC001/// 02/02 Q1014=
201603260720 METAR ESMX 260720Z AUTO 23005KT 0550 R01/0900N R19/0800N FG VV001 02/02 Q1014=
201603260650 METAR ESMX 260650Z AUTO 22006KT 0400 R01/0650N R19/0900N FG VV001 02/01 Q1013=
201603260620 METAR ESMX 260620Z AUTO 22004KT 160V240 0350 R01/0650N R19/0700N FG VV001 02/02 Q1013=
201603260550 METAR ESMX 260550Z AUTO 25003KT 0450 R01/1700D R19/P2000N FG VV002 02/02 Q1013=
201603260520 METAR ESMX 260520Z AUTO 28003KT 9999 OVC001/// 02/01 Q1012=
201603260450 METAR ESMX 260450Z AUTO 32004KT 9999 OVC003/// 02/01 Q1012=
201603260420 METAR ESMX 260420Z AUTO 32004KT 290V350 9999 OVC003/// 02/01 Q1012=
201603260350 METAR ESMX 260350Z AUTO 29005KT 9999 OVC004/// 03/02 Q1011=
201603260320 METAR ESMX 260320Z AUTO 31004KT 9999 OVC005/// 03/02 Q1011=
201603260250 METAR ESMX 260250Z AUTO 31005KT 9999 OVC006/// 03/02 Q1011=
201603260220 METAR ESMX 260220Z AUTO 32006KT 9999 OVC007/// 03/02 Q1010=
201603260150 METAR ESMX 260150Z AUTO 32005KT 9999 OVC007/// 03/02 Q1010=
201603260120 METAR ESMX 260120Z AUTO 31006KT 290V350 9999 FEW007/// OVC008/// 03/03 Q1009=
201603260050 METAR ESMX 260050Z AUTO 31006KT 9999 FEW005/// OVC007/// 03/03 Q1009=
201603260020 METAR ESMX 260020Z AUTO 30007KT 270V330 9999 FEW007/// BKN009/// 03/02 Q1009=
201603252350 METAR ESMX 252350Z AUTO 29007KT 9999 FEW007/// SCT010/// BKN025/// 03/03 Q1008=
201603252320 METAR ESMX 252320Z AUTO 28006KT 9999 FEW007/// SCT009/// 04/03 Q1008=
201603252250 METAR ESMX 252250Z AUTO 27007KT 240V310 9999 FEW009/// SCT013/// BKN016/// 04/03 Q1008=
201603252220 METAR ESMX 252220Z AUTO 27007KT 9999 FEW009/// SCT013/// BKN016/// 04/03 Q1007=
201603252150 METAR ESMX 252150Z AUTO 27007KT 9999 FEW008/// SCT015/// BKN018/// 05/04 Q1007=
201603252120 METAR ESMX 252120Z AUTO 26006KT 9999 FEW013/// SCT027/// BKN031/// 05/04 Q1006 RESHUP REUP=
201603252050 METAR ESMX 252050Z AUTO 27007KT 9999 UP FEW007/// SCT012/// BKN021/// 05/04 Q1006=
201603252020 METAR ESMX 252020Z AUTO 24005KT 200V280 6000 BR FEW008/// SCT011/// BKN016/// 05/05 Q1006=
201603251950 METAR ESMX 251950Z AUTO VRB03KT 6000 -DZ FEW006/// SCT012/// BKN018/// 05/05 Q1006=
201603251920 METAR ESMX 251920Z AUTO 22008KT 2700 RA FEW003/// BKN005/// BKN008/// 05/05 Q1005=
201603251850 METAR ESMX 251850Z AUTO 18008KT 3600 -RA OVC004/// 05/05 Q1005=
201603251820 METAR ESMX 251820Z AUTO 19008KT 3900 -RA FEW004/// BKN006/// OVC011/// 05/05 Q1005=
201603251750 METAR ESMX 251750Z AUTO 19009KT 3800 DZ SCT008/// OVC010/// 05/04 Q1005 REUP=
201603251720 METAR ESMX 251720Z AUTO 19007KT 6000 BR FEW008/// OVC012/// 05/04 Q1005=
201603251650 METAR ESMX 251650Z 19008KT 9000 BR BKN011 OVC017 06/04 Q1005=
201603251620 METAR ESMX 251620Z 19008KT 9000 BR FEW013 SCT016 OVC018 06/04 Q1005=
201603251550 METAR ESMX 251550Z 20007KT 9000 BR BKN014 OVC021 06/04 Q1005 REDZ=
201603251520 METAR ESMX 251520Z 19008KT 8000 BR FEW011 SCT015 OVC020 06/04 Q1005=
201603251450 METAR ESMX 251450Z 20008KT 8000 -DZ FEW010 OVC015 06/04 Q1005=
201603251420 METAR ESMX 251420Z 21008KT 7000 -RA FEW010 BKN017 OVC022 06/04 Q1005 RERA=
201603251350 METAR ESMX 251350Z 20009KT 6000 -DZ FEW009 SCT011 OVC016 06/04 Q1005=
201603251320 METAR ESMX 251320Z 21008KT 5000 -DZ FEW008 SCT015 OVC018 06/04 Q1005 REDZ=
201603251250 METAR ESMX 251250Z 19008KT 4400 -RA FEW009 BKN017 OVC020 06/04 Q1005 REDZ=
201603251220 METAR ESMX 251220Z AUTO 19007KT 5000 DZ FEW009/// SCT016/// BKN018/// 06/04 Q1005 REDZ=
201603251150 METAR ESMX 251150Z AUTO 19007KT 6000 DZ FEW006/// SCT013/// BKN018/// 06/04 Q1005=
201603251120 METAR ESMX 251120Z 21007KT 6000 -RA FEW007 SCT011 OVC013 05/04 Q1006=
201603251050 METAR ESMX 251050Z 20007KT 6000 DZ FEW008 BKN010 05/04 Q1005=
201603251020 METAR ESMX 251020Z 21008KT 5000 -RA FEW006 SCT008 OVC010 05/04 Q1005 REDZ=
201603250950 METAR ESMX 250950Z 22006KT 5000 DZ FEW005 BKN006 OVC009 05/04 Q1005=
201603250920 METAR ESMX 250920Z 20007KT 4000 -DZ FEW003 BKN004 OVC006 04/04 Q1005=
201603250850 METAR ESMX 250850Z 21007KT 2100 -DZ SCT001 BKN002 OVC003 04/04 Q1005=
201603250820 METAR ESMX 250820Z 20007KT 1200 R01/1200N R19/1500N -DZ OVC002 04/04 Q1005=
201603250750 METAR ESMX 250750Z AUTO 20007KT 0750 R01/0900N R19/1200U -RA OVC001/// 04/03 Q1005=
201603250720 METAR ESMX 250720Z AUTO 19007KT 0800 R01/1100N R19/1200N -DZ OVC001/// 04/03 Q1005=
201603250650 METAR ESMX 250650Z AUTO 19008KT 1200 R01/1600D R19/1700D -DZ OVC001/// 03/03 Q1005=
201603250620 METAR ESMX 250620Z AUTO 18007KT 1600 -DZ OVC001/// 03/03 Q1006=
201603250550 METAR ESMX 250550Z AUTO 18007KT 1200 R01/1600U R19/1700U -DZ OVC001/// 03/03 Q1006=
201603250520 METAR ESMX 250520Z AUTO 18007KT 0700 R01/1300N R19/1500N -DZ VV001 03/02 Q1006=
201603250450 METAR ESMX 250450Z AUTO 17006KT 0900 R01/1900D R19/P2000N -DZ OVC001/// 02/02 Q1006=
201603250420 METAR ESMX 250420Z AUTO 17007KT 1900 -DZ OVC002/// 02/02 Q1006=
201603250350 METAR ESMX 250350Z AUTO 17006KT 2300 DZ OVC002/// 02/02 Q1006=
201603250320 METAR ESMX 250320Z AUTO 18007KT 2500 DZ OVC003/// 02/01 Q1006=
201603250250 METAR ESMX 250250Z AUTO 17007KT 3100 DZ OVC004/// 02/01 Q1006 RESHUP REDZ=
201603250220 METAR ESMX 250220Z AUTO 17006KT 4300 BR BKN005/// OVC007/// 02/01 Q1006=
201603250150 METAR ESMX 250150Z AUTO 17005KT 6000 -DZ OVC007/// 01/01 Q1007=
201603250120 METAR ESMX 250120Z AUTO 16006KT 8000 -DZ BKN010/// OVC018/// 01/00 Q1007=
201603250050 METAR ESMX 250050Z AUTO 17007KT 5000 -RA SCT010/// BKN016/// BKN020/// 01/00 Q1007 REDZ=
201603250020 METAR ESMX 250020Z AUTO 19007KT 9999 -RA FEW010/// SCT024/// OVC028/// 02/M00 Q1007 REUP=
201603242350 METAR ESMX 242350Z AUTO 17006KT 9999 FEW031/// BKN037/// OVC066/// 02/M01 Q1007=
201603242320 METAR ESMX 242320Z AUTO 17007KT 9999 BKN066/// 01/M01 Q1008=
201603242250 METAR ESMX 242250Z AUTO 17006KT 9999 BKN070/// OVC088/// 02/M01 Q1008=
201603242220 METAR ESMX 242220Z AUTO 18008KT 9999 FEW084/// 02/M01 Q1008=
201603242150 METAR ESMX 242150Z AUTO 18008KT 9999 FEW100/// 02/M00 Q1008=
201603242120 METAR ESMX 242120Z AUTO 19008KT 9999 BKN100/// 02/M00 Q1008=
201603242050 METAR ESMX 242050Z AUTO 18008KT 9999 FEW100/// SCT110/// 02/M00 Q1008=
201603242020 METAR ESMX 242020Z AUTO 18007KT 9999 FEW110/// 02/00 Q1009=
201603241950 METAR ESMX 241950Z AUTO 18007KT 9999 FEW110/// 02/00 Q1009=
201603241920 METAR ESMX 241920Z AUTO 18008KT 9999 FEW049/// 03/00 Q1009=
201603241850 METAR ESMX 241850Z AUTO 17009KT 9999 FEW032/// SCT039/// BKN046/// 03/01 Q1009=
201603241820 METAR ESMX 241820Z AUTO 17007KT 9999 FEW039/// BKN051/// 03/00 Q1009=
201603241750 METAR ESMX 241750Z 18008KT 9999 FEW034 SCT040 BKN047 04/01 Q1009=
201603241720 METAR ESMX 241720Z 18009KT 9999 FEW033 BKN046 04/01 Q1009=
201603241650 METAR ESMX 241650Z 18008KT 9999 FEW025 SCT041 BKN046 05/01 Q1009=
201603241620 METAR ESMX 241620Z 17006KT 9999 FEW026 SCT030 BKN036 05/M00 Q1009=
201603241550 METAR ESMX 241550Z 16008KT 9999 FEW032 OVC045 05/M01 Q1009=
201603241520 METAR ESMX 241520Z 19009KT 9999 FEW033 BKN050 05/M01 Q1009=
201603241450 METAR ESMX 241450Z 19007KT 150V220 9999 FEW042 BKN048 05/M01 Q1009=
201603241420 METAR ESMX 241420Z 22007KT 180V260 9999 OVC044 06/M01 Q1010=
201603241350 METAR ESMX 241350Z 21008KT 9999 FEW030 OVC044 05/M02 Q1010=
201603241320 METAR COR ESMX 241320Z 20006KT 150V240 9999 BKN041 05/M01 Q1010=
201603241250 METAR ESMX 241250Z 20008KT 170V240 9999 FEW024 SCT046 06/M01 Q1010=
201603241220 METAR COR ESMX 241220Z 20007KT 170V240 9999 FEW022 BKN036 04/M01 Q1010=
201603241150 METAR ESMX 241150Z 19007KT 9999 FEW027 BKN034 04/M01 Q1010=
201603241120 METAR ESMX 241120Z 19006KT 150V210 9999 FEW022 BKN032 04/M01 Q1011=
201603241050 METAR ESMX 241050Z 19007KT 9999 FEW026 SCT029 04/M00 Q1011=
201603241020 METAR ESMX 241020Z 19008KT 9999 BKN021 04/M01 Q1011=
201603240950 METAR ESMX 240950Z 19007KT 140V210 9999 BKN015 04/M00 Q1011=
201603240920 METAR ESMX 240920Z 20007KT 150V250 9999 SCT015 04/00 Q1011=
201603240850 METAR ESMX 240850Z 18007KT 9999 SCT011 03/00 Q1011=
201603240820 METAR ESMX 240820Z 19004KT 170V240 9999 FEW005 SCT024 02/00 Q1011=
201603240750 METAR ESMX 240750Z 17003KT 9999 BKN024 01/00 Q1011=
201603240720 METAR ESMX 240720Z 00000KT 9999 FEW002 BKN025 M00/M01 Q1011=
201603240650 METAR ESMX 240650Z 00000KT 2900 BKN025 M01/M01 Q1011=
201603240620 METAR ESMX 240620Z 00000KT 0300 R01/0550N R19/0650N FZFG BKN021 OVC026 M02/M02 Q1011=
201603240550 METAR ESMX 240550Z 00000KT 0150 R01/0450N R19/0350N FZFG VV001 M03/M03 Q1011=
201603240520 METAR ESMX 240520Z 00000KT 0300 R01/0200N R19/0225N FZFG VV001 M04/M04 Q1010=
201603240450 METAR ESMX 240450Z 00000KT 0600 BCFG VV001 M04/M04 Q1010=
201603240420 METAR ESMX 240420Z AUTO 00000KT 9999 NCD M04/M05 Q1010=
201603240350 METAR ESMX 240350Z AUTO 00000KT 9999 NCD M04/M05 Q1010=
201603240320 METAR ESMX 240320Z AUTO 17002KT 0400 R01/P2000N R19/1900D NCD M03/M03 Q1010=
201603240250 METAR ESMX 240250Z AUTO 00000KT 9999 NCD M03/M04 Q1010=
201603240220 METAR ESMX 240220Z AUTO 00000KT 9000 NCD M03/M03 Q1010=
201603240150 METAR ESMX 240150Z AUTO VRB01KT 9999 BKN013/// M02/M02 Q1010=
201603240120 METAR ESMX 240120Z AUTO 00000KT 9999 BKN015/// M02/M02 Q1010=
201603240050 METAR ESMX 240050Z 00000KT 9999 OVC015 M02/M03 Q1010=
201603240020 METAR ESMX 240020Z 00000KT 9999 BKN015 M02/M02 Q1010=
201603232350 METAR ESMX 232350Z 00000KT 9999 FEW011 OVC013 M02/M02 Q1010=
201603232320 METAR ESMX 232320Z 34001KT 9999 OVC011 M02/M03 Q1010=
201603232250 METAR ESMX 232250Z 35003KT 0900 R19/2000 BCFG NSC M02/M03 Q1010=
201603232220 METAR ESMX 232220Z 00000KT 9999 MIFG NSC M03/M03 Q1009=
201603232150 METAR ESMX 232150Z 17002KT 9999 MIFG NSC M01/M02 Q1009=
201603232120 METAR ESMX 232120Z VRB01KT 9999 MIFG NSC M01/M02 Q1009=
201603232050 METAR ESMX 232050Z VRB02KT 9999 MIFG NSC 00/M00 Q1009=
201603232020 METAR ESMX 232020Z 02004KT 9999 SCT045 01/M00 Q1009=
201603231950 METAR ESMX 231950Z 02004KT 9999 FEW017 BKN045 02/00 Q1009=
201603231920 METAR ESMX 231920Z 02004KT 9999 FEW017 BKN045 02/01 Q1009=
201603231850 METAR ESMX 231850Z 36005KT 9999 OVC049 03/01 Q1009=
201603231820 METAR ESMX 231820Z 35008KT 9999 FEW015 SCT038 OVC044 03/01 Q1008=
201603231750 METAR ESMX 231750Z 01007KT 9999 FEW017 SCT029 03/01 Q1008=
201603231720 METAR ESMX 231720Z 36010KT 9999 -DZ FEW016 SCT019 04/01 Q1008=
201603231650 METAR ESMX 231650Z 35009KT 9999 SCT022 OVC033 04/01 Q1007=
201603231620 METAR ESMX 231620Z 01004KT 340V060 9999 FEW014 SCT028 04/02 Q1007=
201603231550 METAR ESMX 231550Z 02003KT 350V060 9999 FEW014 SCT022 04/02 Q1006 RESHRA=
201603231520 METAR ESMX 231520Z 03012KT 9999 FEW021 SCT025 BKN053 05/01 Q1006=
201603231450 METAR ESMX 231450Z 36010KT 9999 SCT021 07/01 Q1006=
201603231420 METAR ESMX 231420Z 01012KT 9999 FEW018 SCT044 06/01 Q1006=
201603231350 METAR ESMX 231350Z 01011KT 9999 FEW018 SCT035 05/02 Q1006=
201603231320 METAR ESMX 231320Z 01009KT 9999 FEW018 SCT032 06/01 Q1006=
201603231250 METAR ESMX 231250Z 35007KT 9999 FEW013 06/03 Q1006=
201603231220 METAR ESMX 231220Z 34008KT 9999 FEW018 SCT022 BKN028 06/02 Q1006=
201603231150 METAR ESMX 231150Z 01009KT 340V040 9999 FEW012 SCT020 BKN033 06/02 Q1006=
201603231120 METAR ESMX 231120Z 01010KT 9999 FEW010 SCT015 05/02 Q1005=
201603231050 METAR ESMX 231050Z 36010KT 9999 FEW009 OVC011 04/02 Q1005=
201603231020 METAR ESMX 231020Z 34008KT 9999 -DZ FEW009 SCT011 OVC014 04/02 Q1005=
201603230950 METAR ESMX 230950Z 01008KT 9999 FEW009 BKN018 04/02 Q1005=
201603230920 METAR ESMX 230920Z 36008KT 9999 FEW009 BKN017 04/02 Q1005=
201603230850 METAR ESMX 230850Z 36007KT 9999 FEW005 SCT007 BKN008 04/03 Q1004=
201603230820 METAR COR ESMX 230820Z 30005KT 280V350 6000 BR FEW001 SCT003 BKN004 03/03 Q1004=
201603230750 METAR ESMX 230750Z 28004KT 250V310 4700 -DZ OVC001 03/02 Q1004=
201603230720 METAR ESMX 230720Z 26003KT 1900 BR FEW001 OVC006 02/01 Q1004=
201603230650 METAR ESMX 230650Z 00000KT 9999 FEW003 BKN007 OVC010 01/01 Q1004=
201603230620 METAR COR ESMX 230620Z 01003KT 9999 FEW002 BKN003 OVC007 01/01 Q1004=
201603230550 METAR ESMX 230550Z 00000KT 9999 SCT004 BKN015 01/00 Q1003=
201603230520 METAR ESMX 230520Z 18004KT 6000 -RASN FEW002 BKN004 BKN012 01/00 Q1003=
201603230450 METAR ESMX 230450Z 21005KT 4000 RASN FEW002 BKN005 01/01 Q1003=
201603230420 METAR ESMX 230420Z AUTO 20007KT 6000 -RA BKN004/// OVC007/// 02/01 Q1003=
201603230350 METAR ESMX 230350Z AUTO 20008KT 6000 -RA FEW005/// BKN007/// OVC009/// 03/02 Q1003=
201603230320 METAR ESMX 230320Z AUTO 18007KT 5000 -RA FEW005/// OVC007/// 03/02 Q1003=
201603230250 METAR ESMX 230250Z AUTO 19006KT 5000 DZ FEW005/// BKN007/// BKN009/// 03/03 Q1003 REDZ=
201603230220 METAR ESMX 230220Z AUTO 20006KT 6000 -RA OVC005/// 03/02 Q1004 REUP=
201603230150 METAR ESMX 230150Z AUTO 21006KT 8000 BR SCT006/// BKN066/// 03/02 Q1004=
201603230120 METAR ESMX 230120Z AUTO 20007KT 8000 BR FEW006/// OVC025/// 03/02 Q1004=
201603230050 METAR ESMX 230050Z 19008KT 7000 BR OVC005 03/02 Q1004=
201603230020 METAR ESMX 230020Z 20007KT 8000 BR OVC005 03/02 Q1005=
201603222350 METAR ESMX 222350Z 20006KT 8000 BR OVC005 03/02 Q1005=
201603222320 METAR ESMX 222320Z 18008KT 9999 -RA OVC006 03/02 Q1005=
201603222250 METAR ESMX 222250Z 18006KT 9999 FEW006 BKN020 03/02 Q1006=
201603222220 METAR ESMX 222220Z 18007KT 140V200 9999 BKN020 03/02 Q1006=
201603222150 METAR ESMX 222150Z 18007KT 9999 FEW008 BKN022 03/01 Q1006=
201603222120 METAR ESMX 222120Z 18007KT 9999 FEW009 BKN024 03/01 Q1006=
201603222050 METAR ESMX 222050Z 17006KT 9999 FEW018 OVC020 03/01 Q1006=
201603222020 METAR ESMX 222020Z 18007KT 9999 FEW014 BKN019 03/01 Q1006=
201603221950 METAR ESMX 221950Z 18007KT 9999 FEW014 BKN020 03/01 Q1007=
201603221920 METAR ESMX 221920Z 19007KT 9999 FEW022 SCT026 BKN083 03/01 Q1007=
201603221850 METAR ESMX 221850Z 17008KT CAVOK 03/01 Q1006=
201603221820 METAR ESMX 221820Z 17008KT CAVOK 04/01 Q1006=
201603221750 METAR ESMX 221750Z 17008KT CAVOK 04/01 Q1007=
201603221720 METAR COR ESMX 221720Z 17007KT CAVOK 05/01 Q1007=
201603221650 METAR ESMX 221650Z 17009KT CAVOK 05/01 Q1006=
201603221620 METAR ESMX 221620Z 17009KT CAVOK 06/01 Q1006=
201603221550 METAR ESMX 221550Z 17010KT CAVOK 07/00 Q1006=
201603221520 METAR ESMX 221520Z 18010KT 150V210 CAVOK 08/01 Q1006=
201603221450 METAR COR ESMX 221450Z 18010KT CAVOK 08/M00 Q1006=
201603221420 METAR ESMX 221420Z AUTO 18010KT 9999 BKN078/// 08/M00 Q1006=
201603221350 METAR COR ESMX 221350Z 20008KT 170V250 CAVOK 09/M04 Q1006=
201603221320 METAR ESMX 221320Z 20007KT 170V240 CAVOK 09/M02 Q1006=
201603221250 METAR ESMX 221250Z 23008KT 200V260 CAVOK 08/M02 Q1006=
201603221220 METAR ESMX 221220Z 21008KT 170V240 CAVOK 09/M01 Q1006=
201603221150 METAR ESMX 221150Z 20008KT 160V230 CAVOK 09/M01 Q1006=
201603221120 METAR ESMX 221120Z 18006KT 140V240 CAVOK 08/M03 Q1006=
201603221050 METAR ESMX 221050Z AUTO 18004KT 110V280 9999 NCD 09/M02 Q1006=
201603221020 METAR ESMX 221020Z 19004KT 150V250 CAVOK 08/M02 Q1006=
201603220950 METAR ESMX 220950Z 12004KT 050V180 CAVOK 07/M02 Q1006=
201603220920 METAR ESMX 220920Z 16005KT CAVOK 06/M01 Q1006=
201603220850 METAR ESMX 220850Z 15005KT 110V180 CAVOK 05/M01 Q1006=
201603220820 METAR ESMX 220820Z 16004KT 110V190 CAVOK 05/M01 Q1006=
201603220750 METAR ESMX 220750Z 15005KT CAVOK 03/M00 Q1006=
201603220720 METAR COR ESMX 220720Z 15005KT 110V190 CAVOK 02/M01 Q1006=
201603220650 METAR ESMX 220650Z 00000KT CAVOK 01/M01 Q1005=
201603220620 METAR ESMX 220620Z 12004KT CAVOK 01/M01 Q1005=
201603220550 METAR ESMX 220550Z 19003KT CAVOK M00/M02 Q1005=
201603220520 METAR ESMX 220520Z 00000KT CAVOK M01/M03 Q1005=
201603220450 METAR ESMX 220450Z 00000KT CAVOK M00/M02 Q1005=
201603220420 METAR ESMX 220420Z AUTO 00000KT 9999 BKN085/// M01/M03 Q1005=
201603220350 METAR ESMX 220350Z AUTO 00000KT 9999 BKN088/// M01/M03 Q1005=
201603220320 METAR ESMX 220320Z AUTO 00000KT 9999 SCT087/// M01/M03 Q1004=
201603220250 METAR ESMX 220250Z AUTO 00000KT 9999 BKN088/// M00/M02 Q1004=
201603220220 METAR ESMX 220220Z AUTO VRB01KT 9999 OVC085/// M00/M03 Q1004=
201603220150 METAR ESMX 220150Z AUTO 00000KT 9999 BKN085/// M00/M03 Q1004=
201603220120 METAR ESMX 220120Z AUTO 00000KT 9999 OVC084/// M00/M03 Q1004=
201603220050 METAR ESMX 220050Z 00000KT CAVOK M00/M03 Q1004=
201603220020 METAR ESMX 220020Z 00000KT CAVOK M00/M03 Q1004=
201603212350 METAR ESMX 212350Z AUTO 00000KT 9999 OVC082/// M00/M03 Q1004=
201603212320 METAR ESMX 212320Z AUTO 30003KT 9999 BKN079/// M00/M03 Q1004=
201603212250 METAR ESMX 212250Z 32003KT CAVOK 01/M03 Q1004=
201603212220 METAR ESMX 212220Z 32003KT CAVOK 02/M03 Q1004=
201603212150 METAR ESMX 212150Z 31003KT CAVOK 03/M04 Q1004=
201603212120 METAR ESMX 212120Z 36004KT CAVOK 03/M03 Q1004=
201603212050 METAR ESMX 212050Z 33005KT CAVOK 04/M03 Q1004=
201603212020 METAR ESMX 212020Z 35005KT CAVOK 04/M03 Q1003=
201603211950 METAR ESMX 211950Z 34007KT CAVOK 05/M04 Q1003=
201603211920 METAR ESMX 211920Z 33007KT CAVOK 05/M04 Q1003=
201603211850 METAR ESMX 211850Z 31007KT CAVOK 05/M04 Q1003=
201603211820 METAR ESMX 211820Z 33006KT CAVOK 05/M04 Q1003=
201603211750 METAR ESMX 211750Z 32004KT 290V350 CAVOK 06/M03 Q1003=
201603211720 METAR ESMX 211720Z 34005KT CAVOK 06/M03 Q1003=
201603211650 METAR ESMX 211650Z 34007KT CAVOK 07/M03 Q1002=
201603211620 METAR ESMX 211620Z 35008KT 9999 BKN048 07/M02 Q1002=
201603211550 METAR ESMX 211550Z 30007KT 9999 SCT046 BKN058 08/M03 Q1002=
201603211520 METAR ESMX 211520Z 30006KT 260V330 CAVOK 08/M04 Q1002=
201603211450 METAR ESMX 211450Z 28006KT 250V320 CAVOK 08/M03 Q1002=
201603211420 METAR ESMX 211420Z 34009KT 9999 FEW045 SCT064 09/M04 Q1002=
201603211350 METAR COR ESMX 211350Z 33007KT 280V010 9999 FEW045 SCT080 09/M04 Q1002=
201603211320 METAR ESMX 211320Z 32009KT 280V010 9999 FEW040 SCT070 09/M02 Q1003=
201603211250 METAR ESMX 211250Z 32006KT 270V010 9999 SCT040 08/M01 Q1003=
201603211220 METAR ESMX 211220Z 28005KT 210V330 CAVOK 08/M00 Q1003=
201603211150 METAR ESMX 211150Z 29004KT 260V340 CAVOK 08/00 Q1004=
201603211120 METAR ESMX 211120Z 30004KT 260V350 9999 FEW015 07/00 Q1004=
201603211050 METAR ESMX 211050Z 25004KT 190V290 9999 FEW010 SCT013 05/01 Q1004=
201603211020 METAR ESMX 211020Z 28004KT 210V340 9999 BKN008 04/01 Q1005=
201603210950 METAR ESMX 210950Z 28005KT 9999 OVC007 03/01 Q1004=
201603210920 METAR ESMX 210920Z 31005KT 260V350 9999 OVC005 03/01 Q1004=
201603210850 METAR ESMX 210850Z 28006KT 250V310 9999 OVC004 02/01 Q1005=
201603210820 METAR ESMX 210820Z 26006KT 9999 OVC004 02/01 Q1005=
201603210750 METAR ESMX 210750Z 32007KT 9999 OVC002 02/01 Q1005=
201603210720 METAR ESMX 210720Z 26005KT 240V320 9000 BR OVC002 01/01 Q1004=
201603210650 METAR ESMX 210650Z 29006KT 260V320 6000 BR OVC001 01/01 Q1004=
201603210620 METAR ESMX 210620Z 29005KT 250V330 4000 OVC001 01/01 Q1004=
201603210550 METAR COR ESMX 210550Z 28005KT 1200 R01/1500U R19/1500U BR VV002 01/01 Q1004=
201603210520 METAR ESMX 210520Z 27003KT 240V300 0500 R01/1000N R19/1200N FG VV003 01/00 Q1004=
201603210450 METAR ESMX 210450Z VRB03KT 0300 R01/0900N R19/1000N FG VV002 00/00 Q1004=
201603210420 METAR ESMX 210420Z AUTO 26004KT 0300 R01/0800N R19/0900N FZFG VV001 M00/M00 Q1004=
201603210350 METAR ESMX 210350Z AUTO 25006KT 0550 R01/P2000D R19/P2000N FZFG VV002 M01/M01 Q1004=
201603210320 METAR ESMX 210320Z AUTO 25005KT 9999 NCD M02/M03 Q1005=
201603210250 METAR ESMX 210250Z AUTO 22005KT 9999 NCD M01/M03 Q1005=
201603210220 METAR ESMX 210220Z 22005KT CAVOK M01/M03 Q1005=
201603210150 METAR COR ESMX 210150Z 22004KT CAVOK M01/M04 Q1005=
201603210120 METAR ESMX 210120Z AUTO 23003KT 9999 NCD M01/M04 Q1006=
201603210050 METAR ESMX 210050Z AUTO 24005KT 9999 NCD M01/M04 Q1006=
201603210020 METAR ESMX 210020Z 24005KT CAVOK M00/M04 Q1006=
201603202350 METAR ESMX 202350Z 25005KT CAVOK 00/M04 Q1006=
201603202320 METAR ESMX 202320Z 25006KT CAVOK 01/M04 Q1006=
201603202250 METAR ESMX 202250Z 25005KT CAVOK 01/M04 Q1006=
201603202220 METAR ESMX 202220Z 25005KT CAVOK 03/M03 Q1006=
201603202150 METAR ESMX 202150Z 25005KT CAVOK 03/M03 Q1006=
201603202120 METAR ESMX 202120Z 26005KT CAVOK 03/M03 Q1006=
201603202050 METAR COR ESMX 202050Z 26005KT CAVOK 04/M03 Q1006=
201603202020 METAR COR ESMX 202020Z 26005KT CAVOK 04/M03 Q1006=
201603201950 METAR ESMX 201950Z 27005KT CAVOK 05/M03 Q1006=
201603201920 METAR COR ESMX 201920Z 25006KT CAVOK 05/M03 Q1007=
201603201850 METAR ESMX 201850Z 27003KT CAVOK 02/M04 Q1007=
201603201820 METAR ESMX 201820Z 30004KT CAVOK 05/M04 Q1007=
201603201750 METAR ESMX 201750Z 30004KT CAVOK 06/M03 Q1007=
201603201720 METAR ESMX 201720Z 32005KT CAVOK 07/M04 Q1007=
201603201650 METAR ESMX 201650Z 31006KT CAVOK 08/M03 Q1007=
201603201620 METAR ESMX 201620Z 32008KT CAVOK 09/M03 Q1007=
201603201550 METAR ESMX 201550Z 32009KT 290V350 CAVOK 09/M03 Q1007=
201603201520 METAR ESMX 201520Z 31011KT CAVOK 10/M03 Q1007=
201603201450 METAR ESMX 201450Z 32010KT 9999 SCT048 11/M03 Q1007=
201603201420 METAR ESMX 201420Z 31010KT 280V340 9999 SCT049 11/M02 Q1007=
201603201350 METAR ESMX 201350Z 34008KT 310V010 9999 SCT047 10/M02 Q1007=
201603201320 METAR ESMX 201320Z 33008KT 280V360 9999 SCT048 10/M02 Q1007=
201603201250 METAR ESMX 201250Z 35010KT 9999 SCT048 10/M02 Q1007=
201603201220 METAR ESMX 201220Z 28008KT 250V320 9999 FEW047 09/M02 Q1007=
201603201150 METAR ESMX 201150Z 33008G19KT 280V010 9999 FEW049 10/M03 Q1008=
201603201120 METAR ESMX 201120Z AUTO 34009KT 9999 FEW046/// 10/M02 Q1008=
201603201050 METAR ESMX 201050Z AUTO 36009KT 9999 NCD 10/M02 Q1008=
201603201020 METAR ESMX 201020Z AUTO 34010KT 310V010 9999 NCD 10/M03 Q1008=
201603200950 METAR ESMX 200950Z 32007KT 280V010 CAVOK 08/M02 Q1008=
201603200920 METAR ESMX 200920Z 01005KT CAVOK 08/M02 Q1008=
201603200850 METAR ESMX 200850Z 35005KT 300V020 CAVOK 07/M02 Q1008=
201603200820 METAR ESMX 200820Z 32005KT 290V350 CAVOK 06/M01 Q1008=
201603200750 METAR ESMX 200750Z 31005KT 270V340 CAVOK 04/M01 Q1008=
201603200720 METAR ESMX 200720Z 29005KT 260V340 CAVOK 03/M01 Q1008=
201603200650 METAR ESMX 200650Z 28004KT 240V320 CAVOK 02/M01 Q1008=
201603200620 METAR ESMX 200620Z VRB02KT CAVOK 01/M02 Q1007=
201603200550 METAR ESMX 200550Z VRB02KT CAVOK 00/M02 Q1007=
201603200520 METAR ESMX 200520Z 00000KT CAVOK 00/M02 Q1007=
201603200450 METAR ESMX 200450Z AUTO VRB02KT 9999 OVC064/// 00/M02 Q1007=
201603200420 METAR ESMX 200420Z AUTO 26004KT 9999 OVC066/// M00/M02 Q1007=
201603200350 METAR ESMX 200350Z AUTO 26005KT 9999 OVC066/// M00/M02 Q1007=
201603200320 METAR ESMX 200320Z AUTO VRB03KT 9999 OVC064/// M00/M02 Q1008=
201603200250 METAR ESMX 200250Z AUTO 24004KT 9999 OVC066/// M01/M02 Q1008=
201603200220 METAR ESMX 200220Z AUTO 25003KT 9000 BR OVC062/// M01/M01 Q1008=
201603200150 METAR ESMX 200150Z AUTO 24003KT 200V260 8000 BR OVC064/// M01/M01 Q1008=
201603200120 METAR ESMX 200120Z AUTO 24003KT 6000 BR BKN064/// M02/M02 Q1008=
201603200050 METAR ESMX 200050Z AUTO 25003KT 5000 BR NCD M02/M02 Q1008=
201603200020 METAR ESMX 200020Z AUTO 25003KT 5000 BR NCD M02/M02 Q1009=
201603192350 METAR ESMX 192350Z AUTO 24004KT 5000 BR NCD M02/M02 Q1009=
201603192320 METAR ESMX 192320Z AUTO 24003KT 220V290 6000 BR NCD M01/M02 Q1009=
201603192250 METAR ESMX 192250Z AUTO 26004KT 8000 BR NCD M00/M01 Q1009=
201603192220 METAR ESMX 192220Z AUTO 24004KT 9999 NCD 00/M01 Q1010=
201603192150 METAR ESMX 192150Z AUTO 26004KT 9999 NCD 01/M01 Q1010=
201603192120 METAR ESMX 192120Z AUTO 27005KT 9999 NCD 02/M00 Q1010=
201603192050 METAR ESMX 192050Z AUTO 27006KT 9999 NCD 02/M00 Q1010=
201603192020 METAR ESMX 192020Z 26007KT CAVOK 02/M01 Q1010=
201603191950 METAR ESMX 191950Z 26006KT CAVOK 02/M02 Q1010=
201603191920 METAR ESMX 191920Z 25005KT CAVOK 03/M03 Q1010=
201603191850 METAR ESMX 191850Z AUTO 26005KT 9999 NCD 04/M02 Q1010=
201603191820 METAR ESMX 191820Z AUTO 26005KT 9999 NCD 04/M03 Q1010=
201603191750 METAR ESMX 191750Z AUTO 26005KT 9999 NCD 05/M03 Q1010=
201603191720 METAR ESMX 191720Z AUTO 27006KT 9999 NCD 06/M03 Q1010=
201603191650 METAR ESMX 191650Z AUTO 26007KT 9999 NCD 07/M04 Q1010=
201603191620 METAR ESMX 191620Z AUTO 28009KT 9999 FEW058/// 08/M04 Q1010=
201603191550 METAR ESMX 191550Z AUTO 28011KT 9999 FEW060/// 09/M05 Q1010=
201603191520 METAR ESMX 191520Z AUTO 27013KT 9999 NCD 09/M05 Q1011=
201603191450 METAR ESMX 191450Z AUTO 27010KT 230V300 9999 FEW057/// 10/M04 Q1011=
201603191420 METAR ESMX 191420Z AUTO 28011KT 230V320 9999 FEW073/// 10/M05 Q1011=
201603191350 METAR ESMX 191350Z AUTO 27011KT 230V310 9999 NCD 09/M06 Q1011=
201603191320 METAR ESMX 191320Z AUTO 28011KT 250V330 9999 NCD 10/M06 Q1012=
201603191250 METAR ESMX 191250Z AUTO 29010KT 250V330 9999 NCD 10/M06 Q1012=
201603191220 METAR ESMX 191220Z AUTO 28010KT 250V310 9999 NCD 10/M05 Q1012=
201603191150 METAR ESMX 191150Z AUTO 27010KT 240V320 9999 NCD 09/M06 Q1013=
201603191120 METAR ESMX 191120Z AUTO 28009KT 9999 NCD 08/M06 Q1013=
201603191050 METAR ESMX 191050Z AUTO 29010KT 9999 NCD 08/M06 Q1014=
201603191020 METAR ESMX 191020Z AUTO 28010KT 9999 NCD 07/M06 Q1014=
201603190950 METAR ESMX 190950Z AUTO 30009KT 260V340 9999 NCD 07/M07 Q1014=
201603190920 METAR ESMX 190920Z AUTO 27009KT 9999 NCD 06/M07 Q1015=
201603190850 METAR ESMX 190850Z AUTO 27008KT 9999 NCD 06/M08 Q1015=
201603190820 METAR ESMX 190820Z AUTO 29008KT 9999 NCD 04/M05 Q1015=
201603190750 METAR ESMX 190750Z AUTO 29006KT 9999 NCD 03/M04 Q1015=
201603190720 METAR ESMX 190720Z AUTO 27006KT 9999 BKN100/// 01/M04 Q1016=
201603190650 METAR ESMX 190650Z AUTO 27005KT 9999 BKN100/// 01/M04 Q1016=
201603190620 METAR ESMX 190620Z AUTO 26004KT 9999 BKN100/// 01/M03 Q1016=
201603190550 METAR ESMX 190550Z AUTO 27005KT 9999 BKN110/// M00/M04 Q1016=
201603190520 METAR ESMX 190520Z AUTO 26004KT 9999 SCT110/// M00/M04 Q1016=
201603190450 METAR ESMX 190450Z AUTO 27005KT 9999 FEW081/// 00/M05 Q1016=
201603190420 METAR ESMX 190420Z AUTO 29004KT 250V320 9999 BKN061/// BKN087/// 01/M04 Q1016=
201603190350 METAR ESMX 190350Z AUTO 31006KT 9999 FEW062/// BKN073/// 02/M04 Q1016=
201603190320 METAR ESMX 190320Z AUTO 30005KT 9999 FEW039/// BKN053/// 02/M04 Q1016=
201603190250 METAR ESMX 190250Z AUTO 30006KT 9999 FEW041/// BKN054/// 02/M03 Q1017=
201603190220 METAR ESMX 190220Z AUTO 27005KT 9999 FEW047/// BKN060/// 01/M03 Q1017=
201603190150 METAR ESMX 190150Z AUTO 30003KT 9999 BKN052/// OVC070/// 01/M03 Q1017=
201603190120 METAR ESMX 190120Z AUTO 27005KT 9999 FEW034/// BKN087/// 01/M03 Q1017=
201603190050 METAR ESMX 190050Z AUTO 24003KT 9999 FEW041/// BKN059/// M00/M03 Q1017=
201603190020 METAR ESMX 190020Z AUTO 24003KT 9999 OVC057/// M00/M03 Q1017=
201603182350 METAR ESMX 182350Z AUTO 24005KT 9999 SCT074/// BKN110/// M01/M03 Q1017=
201603182320 METAR ESMX 182320Z AUTO 19002KT 9999 BKN062/// BKN110/// M00/M04 Q1017=
201603182250 METAR ESMX 182250Z AUTO 25002KT 9999 BKN068/// OVC110/// M01/M04 Q1018=
201603182220 METAR ESMX 182220Z AUTO 00000KT 9999 NCD M02/M05 Q1018=
201603182150 METAR ESMX 182150Z AUTO 17003KT 9999 FEW061/// M02/M04 Q1018=
201603182120 METAR ESMX 182120Z AUTO 18002KT 9999 NCD M02/M04 Q1018=
201603182050 METAR ESMX 182050Z AUTO 27003KT 9999 NCD M02/M04 Q1018=
201603182020 METAR ESMX 182020Z 00000KT CAVOK M01/M04 Q1017=
201603181950 METAR ESMX 181950Z 29005KT CAVOK M01/M04 Q1017=
201603181920 METAR ESMX 181920Z 27003KT CAVOK 00/M03 Q1018=
201603181850 METAR ESMX 181850Z 00000KT CAVOK M00/M03 Q1017=
201603181820 METAR ESMX 181820Z VRB02KT CAVOK 01/M03 Q1017=
201603181750 METAR ESMX 181750Z 00000KT 9999 FEW042 02/M03 Q1017=
201603181720 METAR ESMX 181720Z 36002KT 9999 FEW048 04/M03 Q1017=
201603181650 METAR ESMX 181650Z 35004KT 9999 FEW048 SCT053 04/M03 Q1017=
201603181620 METAR ESMX 181620Z 01006KT 9999 SCT048 06/M03 Q1016=
201603181550 METAR ESMX 181550Z 01008KT 9999 FEW045 SCT056 06/M03 Q1016=
201603181520 METAR ESMX 181520Z 33009KT 9999 FEW049 06/M03 Q1016=
201603181450 METAR ESMX 181450Z 36009KT 9999 FEW045 SCT049 06/M03 Q1016=
201603181420 METAR ESMX 181420Z 34011KT 9999 FEW042 SCT050 07/M03 Q1016=
201603181350 METAR COR ESMX 181350Z 35009KT 9999 FEW041 SCT054 07/M04 Q1016=
201603181320 METAR ESMX 181320Z 01010KT 9999 FEW039 BKN048 07/M03 Q1016=
201603181250 METAR ESMX 181250Z 01012KT 9999 FEW034 BKN048 07/M03 Q1016=
201603181220 METAR ESMX 181220Z 01011KT 9999 FEW034 SCT047 07/M02 Q1016=
201603181150 METAR ESMX 181150Z 36014KT 9999 FEW040 BKN047 08/M02 Q1016=
201603181120 METAR ESMX 181120Z 34013KT 9999 BKN043 08/M01 Q1016=
201603181050 METAR ESMX 181050Z 01013KT 9999 FEW032 BKN038 08/M01 Q1015=
201603181020 METAR ESMX 181020Z 01010KT 9999 FEW032 08/00 Q1015=
201603180950 METAR ESMX 180950Z 01010KT CAVOK 07/00 Q1015=
201603180920 METAR ESMX 180920Z 34010KT CAVOK 07/00 Q1015=
201603180850 METAR ESMX 180850Z 35010KT CAVOK 06/00 Q1015=
201603180820 METAR ESMX 180820Z 34010KT CAVOK 06/M00 Q1015=
201603180750 METAR ESMX 180750Z 32006KT 290V350 CAVOK 05/00 Q1015=
201603180720 METAR ESMX 180720Z 32005KT 290V350 CAVOK 03/01 Q1015=
201603180650 METAR ESMX 180650Z 30005KT CAVOK 01/01 Q1015=
201603180620 METAR ESMX 180620Z 30005KT CAVOK M00/M00 Q1015=
201603180550 METAR ESMX 180550Z 29005KT 9999 FEW003 M00/M01 Q1015=
201603180520 METAR ESMX 180520Z 29005KT 4700 BR SCT004 M00/M01 Q1015=
201603180450 METAR ESMX 180450Z 29006KT 9999 FEW004 M00/M00 Q1015=
201603180420 METAR ESMX 180420Z AUTO 29006KT 9999 NCD M00/M00 Q1015=
201603180350 METAR ESMX 180350Z AUTO 29006KT 9999 FEW070/// 00/00 Q1015=
201603180320 METAR ESMX 180320Z AUTO 30005KT 9999 OVC067/// 01/01 Q1015=
201603180250 METAR ESMX 180250Z AUTO 30005KT 9999 OVC068/// 01/01 Q1015=
201603180220 METAR ESMX 180220Z AUTO 31005KT 9999 BKN002/// OVC069/// 01/01 Q1015=
201603180150 METAR ESMX 180150Z AUTO 30006KT 5000 BR OVC001/// 01/01 Q1016=
201603180120 METAR ESMX 180120Z AUTO 31006KT 5000 BR OVC001/// 01/01 Q1016=
201603180050 METAR ESMX 180050Z 30007KT 2900 VV002 01/01 Q1016=
201603180020 METAR ESMX 180020Z 31008KT 290V350 2100 BR VV002 01/01 Q1016=
201603172350 METAR ESMX 172350Z 32007KT 280V360 0450 R01/1200N R19/P2000N FG VV002 01/01 Q1017=
201603172320 METAR ESMX 172320Z 32007KT 0900 R01/1700N R19/1800N FG VV001 01/01 Q1016=
201603172250 METAR ESMX 172250Z 28006KT 0450 R01/1200D R19/1700U FG VV001 02/01 Q1016=
201603172220 METAR ESMX 172220Z 27007KT 0400 R01/1100N R19/1800N FG VV002 02/02 Q1017=
201603172150 METAR ESMX 172150Z 29006KT 0800 R01/P2000N R19/P2000N FG VV002 02/02 Q1017=
201603172120 METAR ESMX 172120Z 29007KT 1800 BR VV002 02/02 Q1017=
201603172050 METAR ESMX 172050Z 30007KT 260V330 5000 BR OVC002 02/02 Q1018=
201603172020 METAR ESMX 172020Z 30006KT 4000 BR VV002 03/02 Q1018=
201603171950 METAR ESMX 171950Z 28007KT 2600 BR OVC002 03/03 Q1018=
201603171920 METAR ESMX 171920Z 27005KT 2000 BR OVC002 03/03 Q1018=
201603171850 METAR ESMX 171850Z 29009KT 2600 BR VV002 03/03 Q1018=
201603171820 METAR ESMX 171820Z 29008KT 1900 BR VV002 03/03 Q1019=
201603171750 METAR ESMX 171750Z 30010KT 260V330 2300 BR VV002 03/03 Q1019=
201603171720 METAR ESMX 171720Z 28009KT 3000 BR OVC002 03/03 Q1019=
201603171650 METAR ESMX 171650Z 27009KT 240V300 9000 BR OVC003 04/03 Q1019=
201603171620 METAR ESMX 171620Z 28009KT 9999 OVC003 04/03 Q1019=
201603171550 METAR ESMX 171550Z 28008KT 9999 BKN004 05/03 Q1020=
201603171520 METAR ESMX 171520Z 28008KT 9999 SCT008 06/03 Q1020=
201603171450 METAR ESMX 171450Z 27009KT CAVOK 08/04 Q1020=
201603171420 METAR ESMX 171420Z 28009KT CAVOK 09/04 Q1021=
201603171350 METAR ESMX 171350Z 28008KT CAVOK 10/04 Q1021=
201603171320 METAR ESMX 171320Z 30008KT CAVOK 10/04 Q1022=
201603171250 METAR ESMX 171250Z 27007KT 250V320 CAVOK 10/04 Q1022=
201603171220 METAR ESMX 171220Z 26007KT 240V320 CAVOK 09/04 Q1023=
201603171150 METAR ESMX 171150Z 27006KT 220V330 CAVOK 09/04 Q1023=
201603171120 METAR ESMX 171120Z 24006KT 200V300 CAVOK 08/03 Q1024=
201603171050 METAR ESMX 171050Z 27008KT 9999 FEW009 06/03 Q1024=
201603171020 METAR ESMX 171020Z 28008KT 9999 FEW006 SCT008 06/03 Q1024=
201603170950 METAR ESMX 170950Z 29007KT 210V330 9999 FEW003 BKN006 05/03 Q1025=
201603170920 METAR ESMX 170920Z 29008KT 9999 OVC002 04/02 Q1025=
201603170850 METAR ESMX 170850Z 28008KT 9999 OVC002 04/03 Q1025=
201603170820 METAR ESMX 170820Z 28008KT 6000 BR OVC002 03/03 Q1025=
201603170750 METAR ESMX 170750Z 31008KT 5000 BR OVC002 03/03 Q1026=
201603170720 METAR ESMX 170720Z 29007KT 250V320 2500 BR VV002 03/03 Q1026=
201603170650 METAR ESMX 170650Z 29007KT 0800 R01/1600U R19/1000U FG VV002 03/03 Q1026=
201603170620 METAR ESMX 170620Z 28007KT 0800 R01/1100N R19/1100U FG VV002 03/03 Q1026=
201603170550 METAR ESMX 170550Z 27007KT 0800 R01/1600D R19/1300N VV002 03/03 Q1026=
201603170520 METAR ESMX 170520Z 28005KT 0900 R01/1700N R19/1900D FG VV002 03/03 Q1026=
201603170450 METAR ESMX 170450Z 28006KT 1000 R01/P2000N R19/P2000N BR VV002 03/03 Q1026=
201603170420 METAR ESMX 170420Z AUTO 28008KT 2100 BR OVC001/// 03/03 Q1027=
201603170350 METAR ESMX 170350Z AUTO 28008KT 2000 BR OVC001/// 04/04 Q1027=
201603170320 METAR ESMX 170320Z AUTO 27007KT 3300 BR OVC001/// 04/04 Q1027=
201603170250 METAR ESMX 170250Z AUTO 28007KT 2300 BR OVC001/// 04/04 Q1027=
201603170220 METAR ESMX 170220Z AUTO 29007KT 3400 BR OVC001/// 04/04 Q1028=
201603170150 METAR ESMX 170150Z AUTO 30008KT 3200 OVC001/// 04/04 Q1028=
201603170120 METAR ESMX 170120Z AUTO 31007KT 260V350 2400 OVC001/// 04/04 Q1028=
201603170050 METAR ESMX 170050Z AUTO 30006KT 260V330 0900 R01/P2000N R19/P2000N FG OVC001/// 04/04 Q1029=
201603170020 METAR ESMX 170020Z 30004KT 0450 R01/1200U R19/1300U FG VV002 04/04 Q1029=
201603162350 METAR ESMX 162350Z 28004KT 250V310 0300 R01/0900N R19/1200N FG VV002 04/04 Q1029=
201603162320 METAR ESMX 162320Z 30007KT 0300 R01/1000N R19/0900N FG VV001 04/04 Q1030=
201603162250 METAR ESMX 162250Z 30006KT 270V340 0300 R01/0900N R19/1000N FG VV001 04/03 Q1030=
201603162220 METAR ESMX 162220Z 29006KT 250V320 0400 R01/1100N R19/1300N FG VV001 04/03 Q1030=
201603162150 METAR ESMX 162150Z 29007KT 0550 R01/1400D R19/1900N FG VV002 03/03 Q1030=
201603162120 METAR ESMX 162120Z 28006KT 1100 R01/P2000N R19/P2000N BR VV002 03/03 Q1030=
201603162050 METAR ESMX 162050Z 28007KT 3100 BR BKN002 BKN005 03/03 Q1030=
201603162020 METAR ESMX 162020Z 27006KT CAVOK 02/02 Q1031=
201603161950 METAR ESMX 161950Z 26005KT CAVOK 03/02 Q1031=
201603161920 METAR ESMX 161920Z 25005KT CAVOK 03/02 Q1031=
201603161850 METAR ESMX 161850Z 25004KT CAVOK 03/02 Q1031=
201603161820 METAR ESMX 161820Z 25004KT CAVOK 03/02 Q1031=
201603161750 METAR ESMX 161750Z 27003KT CAVOK 02/01 Q1031=
201603161720 METAR ESMX 161720Z 29002KT CAVOK 05/03 Q1031=
201603161650 METAR ESMX 161650Z 28004KT CAVOK 06/03 Q1031=
201603161620 METAR ESMX 161620Z 28006KT CAVOK 06/03 Q1031=
201603161550 METAR ESMX 161550Z 29009KT CAVOK 07/03 Q1031=
201603161520 METAR ESMX 161520Z 29007KT CAVOK 07/03 Q1032=
201603161450 METAR ESMX 161450Z 30008KT CAVOK 07/03 Q1032=
201603161420 METAR ESMX 161420Z 28007KT 250V320 CAVOK 08/03 Q1032=
201603161350 METAR ESMX 161350Z 26007KT CAVOK 08/03 Q1033=
201603161320 METAR ESMX 161320Z 28006KT 240V340 CAVOK 07/03 Q1033=
201603161250 METAR COR ESMX 161250Z 29006KT CAVOK 06/02 Q1033=
201603161220 METAR ESMX 161220Z 28008KT 9999 FEW010 06/02 Q1034=
201603161150 METAR ESMX 161150Z 30006KT 240V340 9999 FEW009 06/02 Q1034=
201603161120 METAR ESMX 161120Z 28006KT 240V320 9999 SCT009 06/02 Q1034=
201603161050 METAR ESMX 161050Z 32005KT 280V350 9999 SCT006 05/02 Q1034=
201603161020 METAR ESMX 161020Z 32004KT 270V350 9999 BKN006 04/01 Q1034=
201603160950 METAR ESMX 160950Z 28004KT 230V320 9999 OVC004 03/01 Q1034=
201603160920 METAR ESMX 160920Z 28005KT 250V320 9999 OVC003 02/01 Q1034=
201603160850 METAR ESMX 160850Z 29005KT 9000 BR OVC002 01/01 Q1034=
201603160820 METAR ESMX 160820Z 28005KT 240V310 7000 BR OVC002 01/01 Q1034=
201603160750 METAR ESMX 160750Z 29004KT 250V320 5000 BR OVC002 00/M00 Q1034=
201603160720 METAR ESMX 160720Z VRB03KT 0800 R01/0900U R19/1000U FZFG VV002 M00/M01 Q1035=
201603160650 METAR ESMX 160650Z 26003KT 0400 R01/0650N R19/0900N FZFG VV002 M01/M01 Q1035=
201603160620 METAR ESMX 160620Z VRB03KT 0300 R01/0550N R19/0650N FZFG VV002 M01/M01 Q1035=
201603160550 METAR ESMX 160550Z VRB03KT 0200 R01/0450N R19/0500N FZFG VV001 M01/M01 Q1035=
201603160520 METAR ESMX 160520Z VRB03KT 0200 R01/0550N R19/0700N FZFG VV001 M01/M01 Q1035=
201603160450 METAR ESMX 160450Z 26002KT 0600 R01/P2000D R19/P2000N FZFG VV002 M01/M01 Q1035=
201603160420 METAR ESMX 160420Z AUTO VRB02KT 0900 R01/P2000N R19/P2000N FZFG VV002 M01/M01 Q1035=
201603160350 METAR ESMX 160350Z AUTO 23002KT 1000 R01/P2000N R19/P2000N BR VV002 M01/M01 Q1035=
201603160320 METAR ESMX 160320Z AUTO 27003KT 240V320 3600 BR OVC001/// M01/M01 Q1035=
201603160250 METAR ESMX 160250Z AUTO 28005KT 4000 BR OVC001/// M00/M01 Q1035=
201603160220 METAR ESMX 160220Z AUTO 28003KT 9999 OVC001/// M00/M00 Q1035=
201603160150 METAR ESMX 160150Z AUTO VRB03KT 9999 OVC001/// M00/M00 Q1035=
201603160120 METAR ESMX 160120Z AUTO 25005KT 4800 BR OVC001/// M00/M00 Q1035=
201603160050 METAR ESMX 160050Z 23005KT 9000 BR OVC002 00/M00 Q1035=
201603160020 METAR ESMX 160020Z 22004KT 9999 OVC002 00/M00 Q1034=
201603152350 METAR ESMX 152350Z 23004KT 9999 OVC004 00/M00 Q1034=
201603152320 METAR ESMX 152320Z 22003KT 9999 BKN005 00/M00 Q1034=
201603152250 METAR ESMX 152250Z 21004KT CAVOK M01/M02 Q1034=
201603152220 METAR ESMX 152220Z 20003KT CAVOK M00/M01 Q1034=
201603152150 METAR ESMX 152150Z 19004KT CAVOK 00/M01 Q1034=
201603152120 METAR ESMX 152120Z 18003KT CAVOK 01/M01 Q1034=
201603152050 METAR ESMX 152050Z 17003KT CAVOK 02/M01 Q1034=
201603152020 METAR ESMX 152020Z 15004KT CAVOK 03/M01 Q1033=
201603151950 METAR ESMX 151950Z 14003KT CAVOK 04/M01 Q1033=
201603151920 METAR ESMX 151920Z 14005KT CAVOK 04/M02 Q1033=
201603151850 METAR ESMX 151850Z 13004KT 090V170 CAVOK 03/M03 Q1033=
201603151820 METAR ESMX 151820Z VRB01KT CAVOK 03/M03 Q1033=
201603151750 METAR ESMX 151750Z VRB02KT CAVOK 05/M03 Q1032=
201603151720 METAR ESMX 151720Z 03004KT CAVOK 06/M03 Q1032=
201603151650 METAR ESMX 151650Z 03005KT CAVOK 08/M03 Q1032=
201603151620 METAR ESMX 151620Z 02006KT 9999 FEW008 09/M04 Q1032=
201603151550 METAR ESMX 151550Z 01007KT 9999 FEW007 09/M03 Q1031=
201603151520 METAR ESMX 151520Z 36007KT 9999 FEW007 09/M03 Q1031=
201603151450 METAR ESMX 151450Z 36007KT 9999 FEW008 10/M04 Q1031=
201603151420 METAR ESMX 151420Z 02008KT 350V060 9999 FEW007 09/M04 Q1031=
201603151350 METAR ESMX 151350Z 04009KT 9999 FEW007 10/M05 Q1031=
201603151320 METAR ESMX 151320Z 04007KT 010V080 9999 FEW007 10/M05 Q1031=
201603151250 METAR ESMX 151250Z 04009KT 9999 FEW010 10/M04 Q1031=
201603151220 METAR ESMX 151220Z 06007KT 020V100 9999 FEW010 09/M04 Q1031=
201603151150 METAR ESMX 151150Z 07007KT 030V100 9999 FEW010 09/M03 Q1031=
201603151120 METAR ESMX 151120Z 35007KT 9999 FEW007 09/M01 Q1031=
201603151050 METAR ESMX 151050Z 05007KT 350V080 9999 FEW007 09/01 Q1031=
201603151020 METAR ESMX 151020Z 36010KT 9999 FEW007 SCT100 08/02 Q1031=
201603150950 METAR ESMX 150950Z 36010KT 9999 FEW007 SCT100 07/02 Q1031=
201603150920 METAR ESMX 150920Z 01009KT 9999 FEW019 BKN100 07/02 Q1031=
201603150850 METAR ESMX 150850Z 05007KT 9999 SCT014 OVC019 06/01 Q1031=
201603150820 METAR ESMX 150820Z 05006KT 020V080 9999 OVC011 05/01 Q1031=
201603150750 METAR ESMX 150750Z 06006KT 030V100 9999 FEW006 OVC011 04/02 Q1031=
201603150720 METAR ESMX 150720Z 05005KT 010V150 9999 OVC006 04/03 Q1030=
201603150650 METAR ESMX 150650Z 03007KT 9999 FEW009 BKN010 OVC020 05/03 Q1030 REDZ=
201603150620 METAR ESMX 150620Z 03005KT 9999 BKN008 OVC017 05/04 Q1030=
201603150550 METAR ESMX 150550Z 02004KT 9999 BKN010 OVC017 04/04 Q1029=
201603150520 METAR ESMX 150520Z 01005KT 9999 BKN018 04/04 Q1029=
201603150450 METAR ESMX 150450Z 01005KT 9999 FEW027 OVC051 04/03 Q1029=
201603150420 METAR ESMX 150420Z AUTO 36005KT 9999 SCT027/// OVC053/// 04/04 Q1029=
201603150350 METAR ESMX 150350Z AUTO 35005KT 9999 OVC017/// 04/04 Q1029=
201603150320 METAR ESMX 150320Z AUTO 01005KT 9999 SCT004/// OVC055/// 04/03 Q1029=
201603150250 METAR ESMX 150250Z AUTO 36006KT 9999 FEW007/// BKN025/// OVC061/// 05/04 Q1029=
201603150220 METAR ESMX 150220Z AUTO 36006KT 9999 OVC025/// 04/03 Q1029=
201603150150 METAR ESMX 150150Z AUTO 36006KT 9999 BKN026/// OVC064/// 04/04 Q1029=
201603150120 METAR ESMX 150120Z AUTO 36006KT 9999 FEW007/// BKN027/// OVC065/// 04/03 Q1029=
201603150050 METAR ESMX 150050Z 36007KT 9999 FEW008 OVC025 05/04 Q1029=
201603150020 METAR ESMX 150020Z 36006KT 9999 FEW021 OVC025 05/04 Q1029=
201603142350 METAR ESMX 142350Z 36008KT 9999 OVC022 05/03 Q1029=
201603142320 METAR ESMX 142320Z 35006KT 9999 OVC021 05/02 Q1029=
201603142250 METAR ESMX 142250Z 36006KT 9999 OVC027 04/02 Q1029=
201603142220 METAR ESMX 142220Z 35006KT 9999 OVC028 05/02 Q1029=
201603142150 METAR ESMX 142150Z 34007KT 9999 OVC025 05/03 Q1029=
201603142120 METAR ESMX 142120Z 35006KT 9999 OVC024 05/02 Q1029=
201603142050 METAR ESMX 142050Z 36005KT 9999 OVC025 05/02 Q1029=
201603142020 METAR ESMX 142020Z 35007KT 9999 OVC024 05/02 Q1030=
201603141950 METAR ESMX 141950Z 35005KT 9999 OVC024 05/02 Q1029=
201603141920 METAR ESMX 141920Z 36006KT 9999 BKN024 05/03 Q1030=
201603141850 METAR ESMX 141850Z 36004KT CAVOK 05/03 Q1030=
201603141820 METAR ESMX 141820Z 34003KT 9999 FEW032 04/03 Q1029=
201603141750 METAR ESMX 141750Z 28003KT 9999 FEW048 04/03 Q1029=
201603141720 METAR ESMX 141720Z 30003KT CAVOK 05/03 Q1030=
201603141650 METAR ESMX 141650Z 29003KT CAVOK 05/03 Q1029=
201603141620 METAR ESMX 141620Z 32004KT CAVOK 06/03 Q1030=
201603141550 METAR ESMX 141550Z 31006KT 9999 SCT035 07/03 Q1029=
201603141520 METAR ESMX 141520Z 32006KT CAVOK 07/03 Q1030=
201603141450 METAR ESMX 141450Z 32005KT CAVOK 06/03 Q1030=
201603141420 METAR ESMX 141420Z 30007KT CAVOK 06/03 Q1030=
201603141350 METAR ESMX 141350Z 31006KT CAVOK 06/03 Q1030=
201603141320 METAR ESMX 141320Z 27005KT 9999 FEW045 BKN070 06/03 Q1030=
201603141250 METAR ESMX 141250Z 28005KT 9999 FEW045 BKN070 05/03 Q1031=
201603141220 METAR ESMX 141220Z 30006KT 9999 FEW025 SCT075 05/03 Q1031=
201603141150 METAR ESMX 141150Z 30005KT 270V340 9999 SCT005 BKN080 04/03 Q1031=
201603141120 METAR ESMX 141120Z 31007KT 9999 OVC003 03/03 Q1031=
201603141050 METAR ESMX 141050Z 30005KT 9999 OVC001 03/03 Q1032=
201603141020 METAR ESMX 141020Z 28006KT 250V320 5000 BR OVC002 03/02 Q1032=
201603140950 METAR COR ESMX 140950Z 30006KT 2300 BR OVC001 02/02 Q1032=
201603140920 METAR ESMX 140920Z 29005KT 1300 R01/1000U R19/1400U BR VV002 02/02 Q1032=
201603140850 METAR ESMX 140850Z 24004KT 210V280 0500 R01/0550N R19/1000 FG VV002 02/01 Q1032=
201603140820 METAR ESMX 140820Z AUTO 27005KT 0250 R01/0400N R19/0500N FG VV001 01/01 Q1033=
201603140750 METAR ESMX 140750Z 28004KT 240V320 0250 R01/0450N R19/0550N FG VV002 01/01 Q1033=
201603140720 METAR ESMX 140720Z 26004KT 0250 R01/0400N R19/0600N FG VV002 01/01 Q1033=
201603140650 METAR ESMX 140650Z 29004KT 0300 R01/0450N R19/0600N FG VV002 01/01 Q1033=
201603140620 METAR ESMX 140620Z 29004KT 0300 R01/0600N R19/0800N FG VV002 01/01 Q1033=
201603140550 METAR ESMX 140550Z 30003KT 0500 R01/1000N R19/1600U FG OVC002 01/01 Q1033=
201603140520 METAR ESMX 140520Z 32003KT 290V350 0700 R01/1700D R19/P2000N FG VV002 01/01 Q1033=
201603140450 METAR ESMX 140450Z 31005KT 280V350 1200 R01/P2000N R19/P2000N VV002 01/01 Q1033=
201603140420 METAR ESMX 140420Z AUTO 31005KT 0900 R01/P2000N R19/1900N FG VV002 01/01 Q1033=
201603140350 METAR ESMX 140350Z AUTO 29004KT 0700 R01/1700U R19/1800D FG VV002 01/01 Q1033=
201603140320 METAR ESMX 140320Z AUTO 30004KT 0500 R01/1400U R19/1300D FG VV002 01/01 Q1033=
201603140250 METAR ESMX 140250Z AUTO 31004KT 0700 R01/P2000D R19/P2000N FG OVC001/// 01/01 Q1033=
201603140220 METAR ESMX 140220Z AUTO 30004KT 0550 R01/1500D R19/1400N FG VV002 01/01 Q1034=
201603140150 METAR ESMX 140150Z AUTO 30004KT 0600 R01/1500D R19/1600U FG OVC001/// 01/01 Q1034=
201603140120 METAR ESMX 140120Z AUTO 29003KT 0500 R01/1300N R19/1300N FG VV002 01/01 Q1034=
201603140050 METAR ESMX 140050Z AUTO 28004KT 0500 R01/1300N R19/1500N FG VV002 01/00 Q1034=
201603140020 METAR ESMX 140020Z AUTO 27004KT 0500 R01/1300N R19/1500N FG VV002 01/00 Q1034=
201603132350 METAR ESMX 132350Z 26004KT 0500 R01/1300N R19/1500N FG VV002 01/00 Q1034=
201603132320 METAR ESMX 132320Z 28004KT 250V310 0450 R01/1300N R19/1500N FG VV002 00/00 Q1035=
201603132250 METAR ESMX 132250Z 27005KT 0550 R01/1500N R19/1700N FG VV002 00/00 Q1035=
201603132220 METAR ESMX 132220Z 28004KT 0700 R01/1700N R19/1800N FG VV002 00/00 Q1035=
201603132150 METAR ESMX 132150Z 27004KT 0650 R01/1600N R19/1800N FG VV002 00/00 Q1035=
201603132120 METAR ESMX 132120Z 28004KT 0550 R01/1400N R19/1500U FG VV002 00/00 Q1035=
201603132050 METAR ESMX 132050Z 28005KT 0450 R01/1200N R19/1400N FG VV002 00/M00 Q1035=
201603132020 METAR ESMX 132020Z 26004KT 240V310 0550 R01/1400N R19/1700D FZFG VV002 M00/M00 Q1035=
201603131950 METAR ESMX 131950Z 24004KT 200V270 0800 R01/1900N R19/P2000N FZFG VV002 M00/M00 Q1035=
201603131920 METAR ESMX 131920Z 23004KT 1000 R01/P2000N R19/P2000N BR OVC002 M00/M00 Q1036=
201603131850 METAR ESMX 131850Z 26004KT 1400 R01/P2000N R19/P2000N BR OVC002 M00/M01 Q1036=
201603131820 METAR ESMX 131820Z 24004KT 2500 BR OVC003 M00/M01 Q1036=
201603131750 METAR ESMX 131750Z 26004KT 220V290 3300 BR OVC002 M00/M01 Q1036=
201603131720 METAR ESMX 131720Z 27006KT 5000 BR OVC003 M00/M01 Q1036=
201603131650 METAR ESMX 131650Z 23005KT 6000 BR OVC004 M00/M01 Q1036=
201603131620 METAR ESMX 131620Z 24005KT 7000 BR OVC006 M00/M01 Q1036=
201603131550 METAR ESMX 131550Z 21005KT 7000 BR OVC005 M00/M00 Q1036=
201603131520 METAR ESMX 131520Z 24004KT 8000 BR OVC006 M00/M00 Q1036=
201603131450 METAR ESMX 131450Z VRB03KT 8000 BR OVC006 M00/M00 Q1036=
201603131420 METAR ESMX 131420Z AUTO 29005KT 260V320 9000 BR OVC006/// M00/M01 Q1037=
201603131350 METAR ESMX 131350Z AUTO 31006KT 8000 BR OVC005/// M01/M01 Q1037=
201603131320 METAR ESMX 131320Z AUTO 25005KT 6000 BR OVC003/// M01/M01 Q1037=
201603131250 METAR ESMX 131250Z AUTO 26005KT 240V300 7000 BR OVC002/// M01/M01 Q1037=
201603131220 METAR ESMX 131220Z AUTO 24005KT 210V280 7000 BR OVC002/// M01/M01 Q1037=
201603131150 METAR ESMX 131150Z AUTO 25004KT 210V280 7000 BR OVC002/// M01/M01 Q1037=
201603131120 METAR ESMX 131120Z AUTO 24004KT 200V290 4300 OVC001/// M01/M01 Q1037=
201603131050 METAR ESMX 131050Z AUTO 24004KT 210V270 1400 R01/1400N R19/P2000D OVC001/// M01/M01 Q1038=
201603131020 METAR ESMX 131020Z AUTO 22003KT 190V250 1000 R01/0900N R19/1200U=
201603130950 METAR ESMX 130950Z AUTO 17003KT 0350 R01/0500N R19/1000D FZFG VV001 M02/M02 Q1037=
201603130920 METAR ESMX 130920Z AUTO VRB02KT 0900 R01/0900N R19/1000N FZFG VV001 M02/M02 Q1038=
201603130850 METAR ESMX 130850Z AUTO VRB02KT 0700 R01/0800N R19/1000U FZFG VV001 M02/M02 Q1038=
201603130820 METAR ESMX 130820Z AUTO 25003KT 210V280 0450 R01/0700N R19/0650N=
201603130750 METAR ESMX 130750Z AUTO VRB02KT 0250 R01/0450N R19/0550N FZFG VV001 M03/M03 Q1037=
201603130720 METAR ESMX 130720Z 25004KT 190V270 0300 R01/0500N R19/0600N FZFG VV001 M02/M03 Q1037=
201603130650 METAR ESMX 130650Z VRB02KT 0200 R01/0450N R19/0500N FZFG VV001 M02/M02 Q1037=
201603130620 METAR ESMX 130620Z 25004KT 210V280 0200 R01/0400N R19/0550N FZFG VV001 M02/M03 Q1037=
201603130550 METAR ESMX 130550Z 24003KT 0150 R01/0450N R19/0500N FZFG VV001 M02/M03 Q1037=
201603130520 METAR ESMX 130520Z AUTO 22003KT 190V260 0150 R01/0450N R19/0600N=
201603130450 METAR ESMX 130450Z AUTO VRB02KT 0200 R01/0650N R19/0800N FZFG VV001 M02/M03 Q1037=
201603130420 METAR ESMX 130420Z AUTO 19003KT 0250 R01/0800N R19/0800N FZFG VV001 M02/M03 Q1037=
201603130350 METAR ESMX 130350Z AUTO 19004KT 0200 R01/0600N R19/0650N FZFG VV001 M03/M03 Q1036=
201603130320 METAR ESMX 130320Z AUTO 22003KT 0200 R01/0650N R19/0700N FZFG VV001 M03/M03 Q1036=
201603130250 METAR ESMX 130250Z AUTO 18004KT 140V220 0150 R01/0650N R19/0600N=
201603130220 METAR ESMX 130220Z AUTO 17004KT 130V200 0150 R01/0550N R19/0600N=
201603130150 METAR ESMX 130150Z AUTO 18004KT 0150 R01/0600N R19/0650N FZFG VV001 M02/M03 Q1036=
201603130120 METAR ESMX 130120Z AUTO 16004KT 130V190 0200 R01/0650N R19/0650N=
201603130050 METAR ESMX 130050Z AUTO 15003KT 110V190 0200 R01/0650D R19/0650N=
201603130020 METAR ESMX 130020Z AUTO 15003KT 080V180 0350 R01/0700N R19/P2000N=
201603122350 METAR ESMX 122350Z AUTO 12003KT 5000 NCD M03/M03 Q1036=
201603122320 METAR ESMX 122320Z AUTO 00000KT 0500 R01/1500N R19/P2000N BCFG NCD M03/M03 Q1036=
201603122250 METAR ESMX 122250Z AUTO 00000KT 1000 R01/P2000N R19/P2000N BCFG NCD M03/M04 Q1036=
201603122220 METAR ESMX 122220Z AUTO 00000KT 5000 BR NCD M03/M04 Q1036=
201603122150 METAR ESMX 122150Z AUTO 00000KT 2900 BR NCD M03/M03 Q1036=
201603122120 METAR ESMX 122120Z AUTO 00000KT 5000 BR NCD M02/M03 Q1035=
201603122050 METAR ESMX 122050Z 00000KT CAVOK M02/M03 Q1035=
201603122020 METAR ESMX 122020Z 00000KT CAVOK M03/M04 Q1035=
201603121950 METAR ESMX 121950Z 00000KT CAVOK M02/M03 Q1035=
201603121920 METAR ESMX 121920Z 35001KT CAVOK M01/M02 Q1035=
201603121850 METAR ESMX 121850Z 32003KT CAVOK M00/M02 Q1034=
201603121820 METAR ESMX 121820Z AUTO 33005KT 9999 NCD 00/M02 Q1034=
201603121750 METAR ESMX 121750Z AUTO 34005KT 9999 NCD 01/M01 Q1034=
201603121720 METAR ESMX 121720Z AUTO 33006KT 9999 NCD 03/M01 Q1034=
201603121650 METAR ESMX 121650Z AUTO 32006KT 9999 NCD 03/M01 Q1033=
201603121620 METAR ESMX 121620Z AUTO 32006KT 9999 NCD 05/M01 Q1033=
201603121550 METAR ESMX 121550Z AUTO 02004KT 9999 NCD 07/M02 Q1033=
201603121520 METAR ESMX 121520Z AUTO 35004KT 9999 NCD 07/M03 Q1033=
201603121450 METAR ESMX 121450Z AUTO 02005KT 9999 NCD 07/M02 Q1033=
201603121420 METAR ESMX 121420Z AUTO 36004KT 320V030 9999 NCD 08/M02 Q1033=
201603121350 METAR ESMX 121350Z AUTO 01004KT 340V040 9999 NCD 08/M02 Q1033=
201603121320 METAR ESMX 121320Z AUTO 01005KT 330V030 9999 NCD 07/M02 Q1033=
201603121250 METAR ESMX 121250Z AUTO 36006KT 320V030 9999 NCD 07/M02 Q1033=
201603121220 METAR ESMX 121220Z AUTO 36005KT 330V050 9999 NCD 07/M02 Q1033=
201603121150 METAR ESMX 121150Z AUTO 02005KT 320V050 9999 NCD 06/M01 Q1033=
201603121120 METAR ESMX 121120Z AUTO 02006KT 9999 NCD 06/M02 Q1033=
201603121050 METAR ESMX 121050Z AUTO 01005KT 330V040 9999 NCD 06/M02 Q1033=
201603121020 METAR ESMX 121020Z AUTO 34005KT 310V030 9999 NCD 05/M03 Q1033=
201603120950 METAR ESMX 120950Z AUTO 35004KT 310V030 9999 NCD 04/M02 Q1033=
201603120920 METAR ESMX 120920Z AUTO 35003KT 9999 NCD 03/M01 Q1033=
201603120850 METAR ESMX 120850Z AUTO 34003KT 310V020 9999 NCD 02/M02 Q1033=
201603120820 METAR ESMX 120820Z AUTO 36003KT 9999 NCD 01/M02 Q1033=
201603120750 METAR ESMX 120750Z AUTO 33003KT 9999 FEW026/// M01/M03 Q1033=
201603120720 METAR ESMX 120720Z AUTO 00000KT 9999 FEW025/// M02/M03 Q1033=
201603120650 METAR ESMX 120650Z AUTO 00000KT 9999 FEW026/// M03/M04 Q1033=
201603120620 METAR ESMX 120620Z AUTO 00000KT 9999 FEW026/// M06/M07 Q1033=
201603120550 METAR ESMX 120550Z AUTO 00000KT 9999 FEW028/// M07/M08 Q1032=
201603120520 METAR ESMX 120520Z AUTO 00000KT 9999 NCD M07/M07 Q1032=
201603120450 METAR ESMX 120450Z AUTO 00000KT 9999 NCD M07/M07 Q1032=
201603120420 METAR ESMX 120420Z AUTO 00000KT 9999 SCT032/// M06/M07 Q1032=
201603120350 METAR ESMX 120350Z AUTO 00000KT 9999 FEW033/// M06/M07 Q1032=
201603120320 METAR ESMX 120320Z AUTO 00000KT 9999 NCD M06/M07 Q1032=
201603120250 METAR ESMX 120250Z AUTO 00000KT 9999 NCD M06/M07 Q1032=
201603120220 METAR ESMX 120220Z AUTO 00000KT 9999 NCD M06/M06 Q1032=
201603120150 METAR ESMX 120150Z AUTO 00000KT 9999 NCD M06/M07 Q1032=
201603120120 METAR ESMX 120120Z AUTO 00000KT 9999 FEW039/// M06/M06 Q1032=
201603120050 METAR ESMX 120050Z AUTO 00000KT 9999 NCD M05/M06 Q1032=
201603120020 METAR ESMX 120020Z AUTO 00000KT 9999 NCD M05/M06 Q1032=
201603112350 METAR ESMX 112350Z AUTO 00000KT 9999 NCD M05/M06 Q1032=
201603112320 METAR ESMX 112320Z AUTO 00000KT 9999 NCD M04/M05 Q1032=
201603112250 METAR ESMX 112250Z AUTO 00000KT 9999 NCD M04/M05 Q1032=
201603112220 METAR ESMX 112220Z AUTO 00000KT 9999 FEW041/// M04/M05 Q1032=
201603112150 METAR ESMX 112150Z AUTO 00000KT 9999 SCT039/// M03/M04 Q1032=
201603112120 METAR ESMX 112120Z AUTO 00000KT 9999 FEW041/// M04/M05 Q1032=
201603112050 METAR ESMX 112050Z AUTO 00000KT 9999 NCD M03/M04 Q1031=
201603112020 METAR ESMX 112020Z 00000KT CAVOK M03/M05 Q1031=
201603111950 METAR ESMX 111950Z 00000KT CAVOK M03/M04 Q1031=
201603111920 METAR ESMX 111920Z 00000KT CAVOK M02/M04 Q1031=
201603111850 METAR ESMX 111850Z 00000KT CAVOK M01/M04 Q1031=
201603111820 METAR ESMX 111820Z 00000KT CAVOK M00/M04 Q1031=
201603111750 METAR ESMX 111750Z 00000KT CAVOK 00/M04 Q1031=
201603111720 METAR ESMX 111720Z 00000KT 9999 FEW051 02/M04 Q1031=
201603111650 METAR ESMX 111650Z 33003KT 9999 FEW050 04/M04 Q1031=
201603111620 METAR ESMX 111620Z 36005KT CAVOK 06/M04 Q1031=
201603111550 METAR ESMX 111550Z 35006KT 320V020 CAVOK 07/M04 Q1031=
201603111520 METAR ESMX 111520Z AUTO 34004KT 300V030 9999 NCD 07/M04 Q1030=
201603111450 METAR ESMX 111450Z VRB02KT CAVOK 07/M04 Q1031=
201603111420 METAR ESMX 111420Z 32003KT 260V020 CAVOK 07/M04 Q1030=
201603111350 METAR ESMX 111350Z VRB03KT CAVOK 07/M04 Q1031=
201603111320 METAR ESMX 111320Z 36004KT 320V070 CAVOK 07/M04 Q1031=
201603111250 METAR ESMX 111250Z 35004KT 300V010 CAVOK 07/M05 Q1031=
201603111220 METAR ESMX 111220Z 32004KT CAVOK 07/M03 Q1031=
201603111150 METAR ESMX 111150Z 04003KT 360V080 CAVOK 06/M02 Q1031=
201603111120 METAR ESMX 111120Z VRB03KT CAVOK 05/M02 Q1031=
201603111050 METAR ESMX 111050Z 06003KT 030V130 CAVOK 04/M01 Q1031=
201603111020 METAR ESMX 111020Z VRB02KT CAVOK 02/00 Q1031=
201603110950 METAR ESMX 110950Z VRB02KT CAVOK 00/M00 Q1031=
201603110920 METAR ESMX 110920Z VRB01KT 9999 FEW002 M01/M01 Q1031=
201603110850 METAR ESMX 110850Z VRB01KT 9000 BR SCT002 M01/M02 Q1031=
201603110820 METAR ESMX 110820Z 35002KT 3000 R01/P2000D R19/1300U BR VV002 M02/M02 Q1031=
201603110750 METAR ESMX 110750Z 01003KT 2000 BR VV002 M02/M03 Q1031=
201603110720 METAR ESMX 110720Z VRB03KT 0400 R01/0550N R19/0650N FZFG VV002 M03/M03 Q1031=
201603110650 METAR ESMX 110650Z 04003KT 0350 R01/1000N R19/0650N FZFG VV002 M03/M04 Q1031=
201603110620 METAR ESMX 110620Z 06003KT 0300 R01/0550N R19/0600N FZFG VV002 M03/M04 Q1031=
201603110550 METAR ESMX 110550Z 01004KT 0200 R01/0600N R19/0550N FZFG VV002 M03/M04 Q1031=
201603110520 METAR ESMX 110520Z 01004KT 0200 R01/0800N R19/0650N FZFG VV002 M03/M03 Q1030=
201603110450 METAR ESMX 110450Z 02003KT 350V060 0150 R01/0700N R19/0550N FZFG VV002 M03/M03 Q1030=
201603110420 METAR ESMX 110420Z AUTO 04004KT 0200 R01/0750N R19/0800N FZFG VV000 M03/M03 Q1030=
201603110350 METAR ESMX 110350Z AUTO VRB02KT 0250 R01/1000N R19/0800N FZFG VV001 M03/M03 Q1030=
201603110320 METAR ESMX 110320Z AUTO 04003KT 010V070 0200 R01/0500N R19/0650N=
201603110250 METAR ESMX 110250Z AUTO 04003KT 360V060 0200 R01/0700N R19/1000N=
201603110220 METAR ESMX 110220Z AUTO VRB03KT 0100 R01/0400N R19/0600N FZFG VV000 M02/M02 Q1030=
201603110150 METAR ESMX 110150Z AUTO VRB02KT 0100 R01/0450N R19/0500N FZFG VV001 M02/M02 Q1030=
201603110120 METAR ESMX 110120Z AUTO 07003KT 0300 R01/1500D R19/P2000N BCFG SCT002/// M03/M03 Q1029=
201603110050 METAR ESMX 110050Z AUTO 00000KT 0150 R01/P2000D R19/0450N BCFG NCD M04/M04 Q1030=
201603110020 METAR ESMX 110020Z 10001KT 3100 BCFG NSC M04/M04 Q1030=
201603102350 METAR COR ESMX 102350Z VRB01KT 0200 R01/0600N R19/0900N FZFG FEW010 M03/M04 Q1029=
201603102320 METAR ESMX 102320Z 00000KT 0250 R01/P2000N R19/1500D BCFG NSC M03/M04 Q1029=
201603102250 METAR COR ESMX 102250Z 00000KT 5000 R01/0900D R19/2000N MIFG NSC M03/M03 Q1029=
201603102220 METAR ESMX 102220Z 00000KT 3000 R01/P2000N R19/P2000D BR NSC M02/M03 Q1029=
201603102150 METAR ESMX 102150Z VRB02KT 8000 BR NSC M01/M02 Q1029=
201603102120 METAR ESMX 102120Z 01003KT 5000 BR NSC M01/M02 Q1029=
201603102050 METAR ESMX 102050Z 36003KT 5000 BR NSC M01/M02 Q1029=
201603102020 METAR ESMX 102020Z 04003KT 9000 BR NSC 01/M01 Q1029=
201603101950 METAR ESMX 101950Z 06004KT 030V110 CAVOK 01/M00 Q1028=
201603101920 METAR ESMX 101920Z 04003KT CAVOK 00/M01 Q1028=
201603101850 METAR ESMX 101850Z VRB03KT CAVOK 01/M00 Q1028=
201603101820 METAR ESMX 101820Z 05003KT CAVOK 01/M00 Q1028=
201603101750 METAR ESMX 101750Z 05003KT CAVOK 02/00 Q1028=
201603101720 METAR ESMX 101720Z 04004KT 010V070 CAVOK 03/M00 Q1028=
201603101650 METAR ESMX 101650Z 03004KT CAVOK 04/00 Q1027=
201603101620 METAR ESMX 101620Z 04004KT CAVOK 05/00 Q1027=
201603101550 METAR ESMX 101550Z 04006KT CAVOK 06/01 Q1027=
201603101520 METAR ESMX 101520Z 05005KT 020V100 CAVOK 06/01 Q1027=
201603101450 METAR ESMX 101450Z 04006KT 9999 SCT025 06/01 Q1027=
201603101420 METAR ESMX 101420Z 36006KT 9999 BKN022 05/02 Q1027=
201603101350 METAR ESMX 101350Z 02006KT 9999 FEW020 BKN026 05/01 Q1027=
201603101320 METAR ESMX 101320Z 01006KT 9999 BKN020 06/02 Q1026=
201603101250 METAR ESMX 101250Z 36006KT 9999 BKN022 05/01 Q1026=
201603101220 METAR ESMX 101220Z 34006KT 9999 FEW023 BKN056 06/01 Q1026=
201603101150 METAR ESMX 101150Z 01005KT 350V050 9999 SCT013 05/01 Q1026=
201603101120 METAR ESMX 101120Z 01005KT 330V060 9999 BKN013 04/01 Q1026=
201603101050 METAR ESMX 101050Z 04005KT 9999 BKN012 04/01 Q1026=
201603101020 METAR ESMX 101020Z 05005KT 030V090 9999 FEW035 BKN051 04/00 Q1026=
201603100950 METAR ESMX 100950Z 05006KT 9999 FEW035 BKN046 03/01 Q1026=
201603100920 METAR ESMX 100920Z 05004KT 9999 FEW037 BKN044 02/01 Q1025=
201603100850 METAR ESMX 100850Z AUTO 04004KT 8000 BR FEW023/// SCT030/// BKN044/// 02/01 Q1025=
201603100820 METAR ESMX 100820Z 08004KT 050V120 9000 -RA BKN020 01/00 Q1025=
201603100750 METAR ESMX 100750Z 07004KT 030V100 7000 BR SCT019 BKN025 01/00 Q1025=
201603100720 METAR ESMX 100720Z 05005KT 6000 BR FEW007 BKN027 01/M00 Q1024=
201603100650 METAR ESMX 100650Z 03004KT 6000 BR FEW007 SCT019 BKN022 00/M01 Q1024=
201603100620 METAR ESMX 100620Z 04003KT 6000 BR BKN018 M00/M01 Q1024=
201603100550 METAR ESMX 100550Z 01004KT 6000 BR SCT017 BKN020 OVC024 M01/M01 Q1023=
201603100520 METAR ESMX 100520Z 35005KT 7000 BR BKN017 OVC027 M01/M02 Q1023=
201603100450 METAR ESMX 100450Z 01005KT 6000 BR BKN016 M01/M02 Q1023=
201603100420 METAR ESMX 100420Z AUTO 01004KT 8000 SCT016/// OVC024/// M01/M02 Q1023=
201603100350 METAR ESMX 100350Z AUTO 00000KT 9999 BKN025/// M02/M03 Q1022=
201603100320 METAR ESMX 100320Z AUTO 01003KT 6000 NCD M04/M05 Q1022=
201603100250 METAR ESMX 100250Z AUTO 34003KT 9000 FEW026/// SCT050/// M03/M03 Q1022=
201603100220 METAR ESMX 100220Z AUTO 02002KT 7000 BR BKN049/// M04/M05 Q1022=
201603100150 METAR ESMX 100150Z AUTO 04002KT 6000 BR FEW029/// M04/M04 Q1021=
201603100120 METAR ESMX 100120Z AUTO 34002KT 9999 NCD M04/M04 Q1021=
201603100050 METAR ESMX 100050Z AUTO 06003KT 9999 BKN039/// M03/M04 Q1021=
201603100020 METAR ESMX 100020Z 07002KT 9999 SCT042 M03/M03 Q1021=
201603092350 METAR ESMX 092350Z 00000KT 5000 BR NSC M03/M04 Q1021=
201603092320 METAR ESMX 092320Z AUTO 00000KT 9999 NCD M04/M04 Q1020=
201603092250 METAR ESMX 092250Z 00000KT 9999 NSC M03/M04 Q1020=
201603092220 METAR ESMX 092220Z 00000KT 9999 FEW036 M03/M03 Q1020=
201603092150 METAR ESMX 092150Z 00000KT 9999 BKN039 M02/M03 Q1020=
201603092120 METAR ESMX 092120Z 00000KT 9999 FEW041 M03/M03 Q1020=
201603092050 METAR ESMX 092050Z 00000KT CAVOK M02/M03 Q1019=
201603092020 METAR ESMX 092020Z 00000KT CAVOK M02/M03 Q1019=
201603091950 METAR ESMX 091950Z 00000KT 9999 FEW048 M01/M03 Q1019=
201603091920 METAR ESMX 091920Z VRB01KT 9999 SCT047 00/M02 Q1018=
201603091850 METAR ESMX 091850Z 09003KT 020V140 9999 BKN046 02/M02 Q1018=
201603091820 METAR ESMX 091820Z 02003KT 9999 BKN047 02/M02 Q1018=
201603091750 METAR ESMX 091750Z 36003KT 9999 BKN046 02/M02 Q1018=
201603091720 METAR ESMX 091720Z 05003KT 020V080 9999 BKN037 03/M03 Q1017=
201603091650 METAR ESMX 091650Z 04004KT 9999 BKN037 04/M02 Q1017=
201603091620 METAR ESMX 091620Z 02004KT 9999 FEW038 SCT043 05/M03 Q1017=
201603091550 METAR ESMX 091550Z 00000KT 9999 FEW035 06/M03 Q1016=
201603091520 METAR ESMX 091520Z 09003KT 030V130 9999 FEW038 05/M03 Q1016=
201603091450 METAR ESMX 091450Z VRB03KT 9999 FEW034 06/M03 Q1016=
201603091420 METAR ESMX 091420Z 14004KT 070V210 9999 FEW034 06/M03 Q1016=
201603091350 METAR ESMX 091350Z 19006KT 9999 FEW030 05/M02 Q1016=
201603091320 METAR ESMX 091320Z 12004KT 070V170 9999 FEW025 05/M02 Q1016=
201603091250 METAR ESMX 091250Z 12004KT 070V160 9999 FEW017 05/M01 Q1016=
201603091220 METAR ESMX 091220Z 14004KT 100V190 9999 FEW015 04/M00 Q1016=
201603091150 METAR ESMX 091150Z 14006KT 110V180 9999 SCT013 03/00 Q1016=
201603091120 METAR ESMX 091120Z 13005KT 080V190 9999 FEW012 SCT016 03/M00 Q1016=
201603091050 METAR ESMX 091050Z 15006KT 120V180 9999 SCT012 03/M00 Q1016=
201603091020 METAR ESMX 091020Z 17005KT 9999 FEW009 BKN012 02/M01 Q1015=
201603090950 METAR ESMX 090950Z 18006KT 9999 FEW007 BKN010 02/M00 Q1015=
201603090920 METAR ESMX 090920Z 17007KT 9999 BKN007 02/M00 Q1015=
201603090850 METAR ESMX 090850Z 21005KT 9999 SCT007 BKN009 01/M01 Q1015=
201603090820 METAR ESMX 090820Z 19005KT 150V230 9999 BKN007 01/M01 Q1015=
201603090750 METAR ESMX 090750Z 17006KT 9999 BKN007 01/M01 Q1014=
201603090720 METAR ESMX 090720Z 21006KT 9999 BKN008 01/M01 Q1014=
201603090650 METAR ESMX 090650Z 21006KT 9999 FEW006 BKN009 01/M00 Q1014=
201603090620 METAR ESMX 090620Z 20006KT 7000 BR FEW004 OVC010 01/00 Q1014=
201603090550 METAR ESMX 090550Z 19007KT 6000 BR OVC004 01/00 Q1013=
201603090520 METAR COR ESMX 090520Z 19008KT 5000 -SN BR OVC004 01/00 Q1013=
201603090450 METAR ESMX 090450Z 18008KT 6000 BR BKN004 OVC007 01/00 Q1012=
201603090420 METAR ESMX 090420Z AUTO 17006KT 5000 BR FEW003/// BKN004/// OVC007/// 01/00 Q1012 REUP=
201603090350 METAR ESMX 090350Z AUTO 16004KT 4700 BR BKN002/// OVC005/// 01/00 Q1012=
201603090320 METAR ESMX 090320Z AUTO 15004KT 4300 BR BKN001/// OVC004/// 01/00 Q1012=
201603090250 METAR ESMX 090250Z AUTO 14004KT 0800 R01/P2000N R19/P2000N -SN OVC001/// 01/00 Q1012 RERA=
201603090220 METAR ESMX 090220Z AUTO 15003KT 130V210 2700 -RASN OVC001/// 01/00 Q1012=
201603090150 METAR ESMX 090150Z AUTO 16003KT 3100 -RA BKN001/// OVC004/// 01/00 Q1012=
201603090120 METAR ESMX 090120Z AUTO 18003KT 3800 -SN FEW003/// BKN006/// 01/00 Q1012=
201603090050 METAR ESMX 090050Z AUTO 20004KT 5000 -SN FEW003/// SCT005/// BKN007/// 01/00 Q1012=
201603090020 METAR ESMX 090020Z 20006KT 3700 -SN OVC002 01/00 Q1012=
201603082350 METAR COR ESMX 082350Z 20008KT 5000 -SN OVC003 01/00 Q1012=
201603082320 METAR ESMX 082320Z 19005KT 9000 DZ OVC005 01/00 Q1012=
201603082250 METAR ESMX 082250Z 18005KT 6000 -SN FEW004 OVC005 01/00 Q1012=
201603082220 METAR ESMX 082220Z 14002KT 5000 -SN FEW004 BKN007 OVC009 00/00 Q1012=
201603082150 METAR ESMX 082150Z VRB03KT 4000 -SN SCT002 BKN007 OVC011 01/00 Q1012=
201603082120 METAR ESMX 082120Z 16003KT 1900 SN FEW004 SCT007 BKN009 01/00 Q1012=
201603082050 METAR ESMX 082050Z 15003KT 120V190 3000 -SN FEW006 OVC016 01/00 Q1012=
201603082020 METAR ESMX 082020Z 16003KT 8000 -SN BKN017 01/00 Q1012=
201603081950 METAR ESMX 081950Z 19004KT 6000 -SN FEW002 BKN020 OVC039 01/00 Q1012=
201603081920 METAR COR ESMX 081920Z 17004KT 4000 -SN FEW003 SCT026 OVC040 01/00 Q1012=
201603081850 METAR ESMX 081850Z 20004KT 6000 BR BKN045 01/00 Q1012=
201603081820 METAR ESMX 081820Z 19004KT 7000 BR BKN045 01/00 Q1011=
201603081750 METAR ESMX 081750Z 22004KT 9999 BKN049 01/00 Q1011=
201603081720 METAR ESMX 081720Z 23003KT 9999 FEW007 BKN045 01/00 Q1011=
201603081650 METAR ESMX 081650Z 21010KT 3100 -SN FEW006 SCT018 BKN026 01/00 Q1011=
201603081620 METAR ESMX 081620Z 14003KT 9999 BKN021 BKN049 02/01 Q1010=
201603081550 METAR ESMX 081550Z VRB03KT 9999 FEW020 SCT025 BKN030 03/00 Q1010=
201603081520 METAR ESMX 081520Z 21003KT 9999 SCT024 BKN036 03/M00 Q1010=
201603081450 METAR ESMX 081450Z 19004KT 9999 FEW025 SCT030 OVC053 03/00 Q1010=
201603081420 METAR ESMX 081420Z 20003KT 9999 FEW009 OVC037 03/00 Q1010=
201603081350 METAR ESMX 081350Z 19005KT 9999 BKN041 03/M01 Q1010=
201603081320 METAR ESMX 081320Z 21005KT 9999 FEW017 SCT023 BKN048 03/M00 Q1011=
201603081250 METAR ESMX 081250Z 20007KT 9999 FEW016 BKN020 OVC048 03/M01 Q1011=
201603081220 METAR ESMX 081220Z 21008KT 9999 FEW016 BKN023 03/M01 Q1010=
201603081150 METAR ESMX 081150Z 21007KT 190V250 9999 FEW016 SCT026 BKN048 03/M00 Q1010=
201603081120 METAR ESMX 081120Z 22007KT 9999 FEW019 SCT024 BKN028 03/M00 Q1010=
201603081050 METAR ESMX 081050Z 20009KT 9999 SCT017 BKN028 02/M01 Q1010=
201603081020 METAR ESMX 081020Z 20008KT 9999 FEW014 SCT023 BKN032 03/M00 Q1010=
201603080950 METAR ESMX 080950Z 21009KT 9999 FEW010 BKN012 02/M00 Q1010=
201603080920 METAR ESMX 080920Z 21007KT 9999 FEW008 SCT009 BKN012 02/M00 Q1009=
201603080850 METAR ESMX 080850Z 18007KT 9999 SCT005 BKN008 01/M00 Q1009=
201603080820 METAR ESMX 080820Z 19008KT 8000 BR OVC005 01/M00 Q1009=
201603080750 METAR ESMX 080750Z 18007KT 9000 BR OVC005 01/M00 Q1009=
201603080720 METAR ESMX 080720Z 19009KT 9000 BR OVC005 01/M00 Q1009=
201603080650 METAR ESMX 080650Z 17006KT 9999 FEW007 OVC009 01/M00 Q1009=
201603080620 METAR ESMX 080620Z 18007KT 9999 FEW009 OVC011 01/M00 Q1009=
201603080550 METAR ESMX 080550Z 18006KT 150V210 9999 FEW010 OVC012 01/M01 Q1008=
201603080527 METAR ESMX 080527Z 16004KT 120V190 9999 OVC010 01/M00 Q1008=
201603080520 METAR ESMX 080520Z AUTO 17004KT 110V200 9000 BR OVC011/// 01/M00 Q1008=
201603080450 METAR ESMX 080450Z 18004KT 9000 FEW013 OVC015 01/M00 Q1008=
201603080420 METAR ESMX 080420Z AUTO 17004KT 9999 FEW013/// OVC016/// 00/M01 Q1008=
201603080350 METAR ESMX 080350Z AUTO 18005KT 9000 BR FEW016/// BKN019/// OVC021/// 01/M00 Q1008=
201603080320 METAR ESMX 080320Z AUTO 18006KT 8000 BR FEW010/// OVC022/// 01/M00 Q1007=
201603080250 METAR ESMX 080250Z AUTO 17006KT 7000 BR FEW005/// BKN010/// OVC028/// 01/M00 Q1007=
201603080220 METAR ESMX 080220Z AUTO 17006KT 6000 BR FEW004/// BKN005/// OVC007/// 01/M00 Q1007=
201603080150 METAR ESMX 080150Z AUTO 17006KT 5000 BR OVC004/// 01/M00 Q1007=
201603080120 METAR ESMX 080120Z AUTO 17006KT 6000 BR SCT004/// OVC023/// 01/M00 Q1007=
201603080050 METAR ESMX 080050Z 17008KT 6000 BR FEW005 SCT007 BKN015 01/M00 Q1007=
201603080020 METAR ESMX 080020Z 17008KT 6000 BR BKN005 OVC009 01/00 Q1006=
201603072350 METAR ESMX 072350Z 16006KT 9000 BR BKN007 OVC019 01/00 Q1006=
201603072320 METAR ESMX 072320Z 17007KT 9999 FEW007 SCT009 BKN011 02/00 Q1006=
201603072250 METAR ESMX 072250Z 18009KT 9999 FEW007 SCT017 BKN037 01/00 Q1005=
201603072220 METAR ESMX 072220Z 17006KT 7000 BR SCT005 BKN008 02/01 Q1005=
201603072150 METAR ESMX 072150Z 19007KT 7000 -DZ BKN006 02/01 Q1005=
201603072120 METAR ESMX 072120Z 18008KT 5000 -RA FEW006 SCT009 BKN010 01/01 Q1005=
201603072050 METAR ESMX 072050Z 17010KT 9999 FEW009 BKN010 02/00 Q1005=
201603072020 METAR ESMX 072020Z 17008KT 9999 FEW007 BKN010 02/00 Q1005=
201603071950 METAR ESMX 071950Z 18010KT 9999 SCT006 BKN009 02/01 Q1004=
201603071920 METAR ESMX 071920Z 17010KT 9999 BKN006 02/01 Q1004=
201603071850 METAR ESMX 071850Z 16008KT 9999 FEW006 BKN008 02/01 Q1004=
201603071820 METAR ESMX 071820Z 16009KT 9999 FEW007 SCT008 BKN010 02/01 Q1004=
201603071750 METAR ESMX 071750Z 16007KT 140V200 9999 BKN005 OVC009 02/01 Q1003=
201603071720 METAR ESMX 071720Z 16007KT 9999 -RA FEW007 SCT013 BKN022 02/01 Q1003=
201603071650 METAR ESMX 071650Z 16004KT 9999 FEW005 SCT042 BKN059 01/00 Q1003=
201603071620 METAR ESMX 071620Z 17008KT 140V220 2600 RASN FEW007 SCT029 BKN067 02/01 Q1002=
201603071550 METAR ESMX 071550Z 18008KT 9999 FEW030 SCT061 02/M00 Q1002=
201603071520 METAR ESMX 071520Z 18008KT 9999 FEW017 BKN025 03/00 Q1001=
201603071420 METAR ESMX 071420Z 18009KT 9999 FEW012 SCT014 03/00 Q1001=
201603071350 METAR ESMX 071350Z 18009KT 9999 FEW011 SCT014 BKN016 03/00 Q1001=
201603071320 METAR ESMX 071320Z 20009KT 9999 SCT009 BKN010 02/01 Q1000=
201603071250 METAR ESMX 071250Z 19010KT 9999 SCT006 BKN009 02/01 Q1000=
201603071220 METAR ESMX 071220Z 19010KT 9999 OVC005 02/00 Q1000=
201603071150 METAR ESMX 071150Z 19010KT 9000 BKN005 OVC009 02/01 Q1000=
201603071120 METAR ESMX 071120Z 18010KT 9000 BR FEW006 BKN007 OVC009 02/01 Q1000=
201603071050 METAR ESMX 071050Z 18010KT 7000 BR OVC004 01/00 Q1000=
201603071020 METAR ESMX 071020Z 18010KT 9000 -SN OVC005 01/00 Q0999=
201603070950 METAR ESMX 070950Z 18009KT 140V210 9999 -SN OVC004 01/00 Q0999=
201603070920 METAR ESMX 070920Z 17009KT 6000 -SN FEW004 OVC006 01/00 Q0999=
201603070850 METAR ESMX 070850Z 17008KT 7000 -SN FEW005 BKN007 OVC009 01/M00 Q0999=
201603070820 METAR ESMX 070820Z 17007KT 4400 -SN BKN004 OVC008 01/M00 Q0998=
201603070750 METAR ESMX 070750Z 17007KT 4800 -RA BKN004 OVC008 01/M00 Q0998=
201603070720 METAR ESMX 070720Z 17006KT 5000 -RASN OVC004 00/M00 Q0997=
201603070650 METAR ESMX 070650Z 18007KT 4800 -SN BKN004 OVC007 00/M00 Q0997=
201603070620 METAR ESMX 070620Z 18007KT 8000 -SN OVC004 00/M00 Q0996=
201603070550 METAR ESMX 070550Z 19007KT 3100 -SN FEW004 BKN005 00/M00 Q0996=
201603070520 METAR ESMX 070520Z 19008KT 7000 -SN FEW003 BKN005 00/M00 Q0995=
201603070450 METAR ESMX 070450Z 20008KT 6000 -SN FEW004 OVC006 00/M00 Q0995=
201603070420 METAR ESMX 070420Z AUTO 20007KT 9999 -SN FEW004/// BKN006/// OVC009/// 00/M00 Q0995=
201603070350 METAR ESMX 070350Z AUTO 20008KT 9999 -SN BKN004/// OVC007/// 00/M00 Q0994=
201603070320 METAR ESMX 070320Z AUTO 20008KT 9999 UP OVC003/// 00/M00 Q0994=
201603070250 METAR ESMX 070250Z AUTO 19007KT 9999 UP OVC002/// 00/00 Q0994=
201603070220 METAR ESMX 070220Z AUTO 21004KT 5000 -RASN FEW002/// SCT003/// BKN006/// 00/00 Q0993=
201603070150 METAR ESMX 070150Z AUTO 20002KT 7000 -RASN BKN001/// OVC004/// 00/00 Q0993=
201603070120 METAR ESMX 070120Z 00000KT 4800 -SNRA FEW001 OVC005 00/00 Q0993=
201603070050 METAR ESMX 070050Z 00000KT 4000 -SN SCT001 OVC005 00/00 Q0993=
201603070020 METAR ESMX 070020Z 35002KT 4200 -SN SCT001 OVC003 00/00 Q0993=
201603062350 METAR ESMX 062350Z 01002KT 3000 -SN OVC002 00/00 Q0993=
201603062320 METAR ESMX 062320Z 01003KT 2500 -SN BKN002 OVC005 00/00 Q0993=
201603062250 METAR COR ESMX 062250Z 01003KT 2500 SN FEW003 OVC004 00/00 Q0993=
201603062220 METAR COR ESMX 062220Z 01004KT 4000 -SN OVC005 00/00 Q0993=
201603062150 METAR ESMX 062150Z 02004KT 6000 -SN OVC007 00/M00 Q0993=
201603062120 METAR COR ESMX 062120Z 03004KT 6000 -SN OVC007 00/M00 Q0993 RESN=
201603062050 METAR ESMX 062050Z 03004KT 2200 SN BKN006 00/M00 Q0993=
201603062020 METAR ESMX 062020Z 01004KT 3300 SN FEW004 OVC007 00/M00 Q0993=
201603061950 METAR COR ESMX 061950Z 03004KT 4100 SN FEW004 BKN006 00/M00 Q0993=
201603061920 METAR ESMX 061920Z 04005KT 2500 SN FEW005 BKN007 00/M00 Q0993=
201603061850 METAR COR ESMX 061850Z 04005KT 2500 SN FEW005 BKN007 00/M00 Q0994=
201603061820 METAR ESMX 061820Z 04007KT 3000 SN FEW004 BKN006 M00/M00 Q0994=
201603061750 METAR ESMX 061750Z 04007KT 2000 SN FEW004 BKN006 M00/M00 Q0994=
201603061720 METAR ESMX 061720Z 05006KT 020V090 1000 R01/P2000N R19/P2000N SN FEW003 BKN006 BKN009 M00/M00 Q0994=
201603061650 METAR ESMX 061650Z 05007KT 1200 R01/P2000N R19/P2000N SN VV006 00/M00 Q0994=
201603061620 METAR ESMX 061620Z 04008KT 1000 R01/1800N R19/P2000D SN FEW003 BKN005 BKN007 00/M00 Q0994=
201603061550 METAR ESMX 061550Z 05008KT 020V080 2000 SN FEW005 BKN007 OVC010 00/M00 Q0995=
201603061520 METAR ESMX 061520Z 06007KT 020V080 4400 -RASN FEW005 OVC007 00/M00 Q0995=
201603061450 METAR ESMX 061450Z 06007KT 020V090 2000 SN OVC006 00/M01 Q0995=
201603061420 METAR ESMX 061420Z 06008KT 030V110 9000 -RASN OVC006 01/M01 Q0995=
201603061350 METAR ESMX 061350Z 05009KT 010V090 9999 OVC006 00/M01 Q0996=
201603061320 METAR COR ESMX 061320Z 05008KT 010V080 9000 -DZ OVC006 01/M01 Q0996=
201603061250 METAR ESMX 061250Z 07008KT 040V120 9999 OVC007 01/M01 Q0996=
201603061220 METAR ESMX 061220Z 07007KT 030V110 9999 OVC009 01/M01 Q0997=
201603061150 METAR ESMX 061150Z 06008KT 030V110 9999 OVC008 01/M01 Q0997=
201603061120 METAR ESMX 061120Z AUTO 06009KT 030V110 9999 OVC008/// 01/M01 Q0997=
201603061050 METAR ESMX 061050Z AUTO 08007KT 030V130 9999 OVC008/// 00/M01 Q0998=
201603061020 METAR ESMX 061020Z AUTO 07006KT 030V120 9999 OVC008/// 00/M01 Q0998=
201603060950 METAR ESMX 060950Z AUTO 07008KT 030V120 9999 OVC008/// 00/M01 Q0998=
201603060920 METAR ESMX 060920Z AUTO 07007KT 030V130 9999 -PL OVC008/// 00/M01 Q0998=
201603060850 METAR ESMX 060850Z 09008KT 050V120 2100 SN OVC008 00/M01 Q0999=
201603060820 METAR ESMX 060820Z 09008KT 040V140 2000 SN OVC008 00/M01 Q0999=
201603060750 METAR ESMX 060750Z 08008KT 020V110 4000 SN OVC008 00/M01 Q0999=
201603060720 METAR ESMX 060720Z 09008G19KT 040V130 9999 FEW006 BKN008 00/M01 Q0999=
201603060650 METAR ESMX 060650Z 08008KT 030V120 2600 SN BKN008 OVC011 00/M01 Q0999=
201603060620 METAR ESMX 060620Z 07008KT 030V110 1500 SN OVC009 00/M01 Q0999=
201603060550 METAR ESMX 060550Z 08009KT 020V140 9000 BR BKN007 OVC009 00/M01 Q0999=
201603060520 METAR ESMX 060520Z AUTO 09007KT 040V130 9000 BR OVC007/// 01/M01 Q0999=
201603060450 METAR ESMX 060450Z AUTO 09008G18KT 050V130 9999 OVC008/// 01/M01 Q1000=
201603060420 METAR ESMX 060420Z AUTO 08008KT 040V130 9999 OVC008/// 01/M01 Q1000=
201603060350 METAR ESMX 060350Z AUTO 09007KT 050V130 9999 OVC009/// 01/M01 Q1000=
201603060320 METAR ESMX 060320Z AUTO 07007KT 040V120 9999 OVC010/// 01/M01 Q1000=
201603060250 METAR ESMX 060250Z AUTO 07006KT 040V110 9999 OVC011/// 01/M01 Q1000=
201603060220 METAR ESMX 060220Z AUTO VRB06KT 9999 OVC010/// 01/M01 Q1001=
201603060150 METAR ESMX 060150Z AUTO 07007KT 030V110 9999 OVC009/// 01/M01 Q1001=
201603060120 METAR ESMX 060120Z AUTO 08008KT 030V140 9999 BKN007/// OVC009/// 01/M01 Q1001=
201603060050 METAR ESMX 060050Z AUTO 08008KT 030V120 9999 OVC006/// 01/M01 Q1002=
201603060020 METAR ESMX 060020Z AUTO 09007KT 030V150 9999 FEW004/// OVC006/// 01/M01 Q1002=
201603052350 METAR ESMX 052350Z AUTO 09008KT 060V120 8000 BR OVC003/// 00/M00 Q1002=
201603052320 METAR ESMX 052320Z AUTO 09007KT 050V140 5000 BR OVC003/// 00/M00 Q1002=
201603052250 METAR ESMX 052250Z AUTO 08008KT 050V120 4600 BR OVC003/// 01/M00 Q1002=
201603052220 METAR ESMX 052220Z AUTO 09006KT 030V150 8000 BR OVC004/// 01/M00 Q1003=
201603052150 METAR ESMX 052150Z AUTO 09006KT 050V150 8000 BR OVC005/// 01/M00 Q1003=
201603052120 METAR ESMX 052120Z AUTO 08006KT 340V130 8000 BR OVC004/// 01/M00 Q1003=
201603052050 METAR ESMX 052050Z 09008KT 050V120 9000 BR OVC004 01/00 Q1003=
201603052020 METAR ESMX 052020Z 08007KT 030V120 6000 BR FEW003 OVC005 01/00 Q1003=
201603051950 METAR COR ESMX 051950Z 09009KT 040V150 8000 BR OVC002 01/00 Q1003=
201603051920 METAR ESMX 051920Z 09007KT 050V150 9000 BR OVC004 01/00 Q1003=
201603051850 METAR ESMX 051850Z AUTO 08008KT 040V130 9000 OVC004/// 02/00 Q1003=
201603051820 METAR ESMX 051820Z AUTO 08006KT 030V120 5000 BR OVC004/// 02/01 Q1003=
201603051750 METAR ESMX 051750Z AUTO 09008KT 040V120 6000 BR BKN004/// OVC009/// 02/01 Q1003=
201603051720 METAR ESMX 051720Z AUTO 08007KT 030V120 9000 BR FEW007/// OVC009/// 02/00 Q1002=
201603051650 METAR ESMX 051650Z AUTO 08007KT 340V140 8000 FEW006/// BKN008/// OVC010/// 02/01 Q1002=
201603051620 METAR ESMX 051620Z AUTO 09008KT 050V150 9999 FEW006/// SCT007/// BKN009/// 02/00 Q1002=
201603051550 METAR ESMX 051550Z AUTO 09006KT 060V160 9000 BR FEW007/// OVC011/// 03/01 Q1003=
201603051520 METAR ESMX 051520Z AUTO 10008KT 060V160 6000 BKN006/// OVC010/// 03/01 Q1003=
201603051450 METAR ESMX 051450Z AUTO 10007KT 060V140 6000 BR OVC005/// 03/01 Q1002=
201603051420 METAR ESMX 051420Z AUTO 09006KT 020V150 6000 BR FEW005/// OVC007/// 03/02 Q1002=
201603051350 METAR ESMX 051350Z AUTO 10007KT 060V140 4000 BR OVC003/// 03/02 Q1003=
201603051320 METAR ESMX 051320Z AUTO 10005KT 050V130 2900 BR OVC002/// 03/02 Q1003=
201603051250 METAR ESMX 051250Z AUTO 09006KT 050V140 3600 BR OVC002/// 03/02 Q1003=
201603051220 METAR ESMX 051220Z AUTO 09005KT 040V130 5000 BR OVC003/// 03/02 Q1003=
201603051150 METAR ESMX 051150Z AUTO 09005KT 030V130 5000 BR OVC003/// 02/02 Q1003=
201603051120 METAR ESMX 051120Z AUTO 09005KT 050V160 6000 BR OVC003/// 02/02 Q1003=
201603051050 METAR ESMX 051050Z AUTO 08005KT 040V140 5000 BR OVC002/// 02/02 Q1004=
201603051020 METAR ESMX 051020Z AUTO 08004KT 030V140 2200 BR OVC002/// 02/02 Q1003=
201603050950 METAR ESMX 050950Z AUTO 08005KT 040V120 2300 BR OVC003/// 02/01 Q1004=
201603050920 METAR ESMX 050920Z AUTO 08003KT 050V120 9999 OVC005/// 02/01 Q1004=
201603050850 METAR ESMX 050850Z AUTO 06003KT 020V120 9999 BKN004/// OVC007/// 01/00 Q1003=
201603050820 METAR ESMX 050820Z AUTO 05004KT 010V090 9999 BKN003/// OVC005/// 01/00 Q1004=
201603050750 METAR ESMX 050750Z AUTO 07004KT 030V100 7000 OVC002/// 00/M00 Q1004=
201603050720 METAR ESMX 050720Z AUTO VRB03KT 4400 OVC001/// 00/M00 Q1004=
201603050650 METAR ESMX 050650Z AUTO 04005KT 0750 R01/1300D R19/1500D FZFG VV002 M00/M00 Q1003=
201603050620 METAR ESMX 050620Z AUTO 07004KT 040V120 4300 BR OVC001/// M00/M01 Q1003=
201603050550 METAR ESMX 050550Z AUTO 10004KT 030V160 9999 OVC002/// M00/M01 Q1004=
201603050520 METAR ESMX 050520Z AUTO 09004KT 050V140 6000 BR OVC002/// M00/M01 Q1003=
201603050450 METAR ESMX 050450Z AUTO 06005KT 020V120 7000 BR OVC003/// M00/M01 Q1004=
201603050420 METAR ESMX 050420Z AUTO 07005KT 030V110 8000 BR OVC003/// M00/M01 Q1004=
201603050350 METAR ESMX 050350Z AUTO 08003KT 040V120 9999 OVC005/// M01/M02 Q1004=
201603050320 METAR ESMX 050320Z AUTO 08004KT 030V110 9999 OVC005/// M01/M02 Q1004=
201603050250 METAR ESMX 050250Z AUTO 09005KT 360V130 9999 OVC004/// M01/M02 Q1004=
201603050220 METAR ESMX 050220Z AUTO 08004KT 020V120 8000 BR OVC003/// M01/M01 Q1004=
201603050150 METAR ESMX 050150Z AUTO 07005KT 050V110 8000 BR OVC004/// M01/M01 Q1004=
201603050120 METAR ESMX 050120Z AUTO 09004KT 050V160 7000 BR FEW002/// OVC003/// M01/M01 Q1004=
201603050050 METAR ESMX 050050Z AUTO VRB03KT 6000 BR OVC001/// M01/M01 Q1004=
201603050020 METAR ESMX 050020Z AUTO 09004KT 050V150 4200 BR OVC001/// M01/M01 Q1004=
201603042350 METAR ESMX 042350Z AUTO 09005KT 060V150 4700 BR SCT001/// BKN004/// OVC006/// M00/M01 Q1004=
201603042320 METAR ESMX 042320Z AUTO 09003KT 060V120 9999 FEW006/// OVC008/// 01/M00 Q1004=
201603042250 METAR ESMX 042250Z AUTO 11003KT 070V150 9999 OVC007/// 01/M00 Q1004=
201603042220 METAR ESMX 042220Z AUTO 10003KT 080V200 9999 FEW007/// OVC009/// 01/M00 Q1005=
201603042150 METAR ESMX 042150Z AUTO 09005KT 030V120 8000 BR OVC006/// 01/M00 Q1005=
201603042120 METAR ESMX 042120Z 09004KT 060V130 9000 BR OVC007 01/M00 Q1005=
201603042050 METAR ESMX 042050Z 12004KT 080V160 9999 OVC008 01/M00 Q1005=
201603042020 METAR COR ESMX 042020Z 14004KT 100V190 9999 OVC009 01/M00 Q1005=
201603041950 METAR ESMX 041950Z VRB03KT 9999 OVC009 01/M00 Q1005=
201603041920 METAR ESMX 041920Z 09003KT 060V140 9999 OVC010 01/M00 Q1004=
201603041850 METAR ESMX 041850Z 09003KT 050V110 9999 OVC010 01/M00 Q1004=
201603041820 METAR ESMX 041820Z VRB01KT 7000 BR OVC009 01/00 Q1004=
201603041750 METAR ESMX 041750Z VRB02KT 9000 BR BKN008 01/00 Q1005=
201603041720 METAR ESMX 041720Z 12003KT 080V160 9000 BR BKN007 01/00 Q1005=
201603041650 METAR ESMX 041650Z 20003KT 9999 BKN007 01/00 Q1004=
201603041620 METAR ESMX 041620Z 21004KT 9999 BKN006 01/00 Q1004=
201603041550 METAR ESMX 041550Z 16005KT 9999 BKN006 01/00 Q1004=
201603041520 METAR ESMX 041520Z 19005KT 9999 BKN006 02/00 Q1004=
201603041450 METAR ESMX 041450Z 15004KT 9999 BKN006 01/M00 Q1004=
201603041420 METAR ESMX 041420Z 12003KT 090V150 9999 BKN006 02/M00 Q1004=
201603041350 METAR ESMX 041350Z 15004KT 120V180 9999 BKN007 02/00 Q1004=
201603041320 METAR ESMX 041320Z 17006KT 140V200 9999 BKN006 02/M00 Q1004=
201603041250 METAR ESMX 041250Z 14003KT 100V210 9999 OVC007 02/00 Q1004=
201603041220 METAR ESMX 041220Z 12004KT 070V170 9999 FEW005 OVC007 02/M00 Q1004=
201603041150 METAR ESMX 041150Z 19005KT 150V240 9999 BKN005 OVC008 01/M00 Q1004=
201603041120 METAR ESMX 041120Z 18004KT 140V230 9999 BKN004 01/M00 Q1004=
201603041050 METAR ESMX 041050Z AUTO 19003KT 9999 OVC003/// 01/M00 Q1004=
201603041020 METAR ESMX 041020Z 17003KT 140V210 9999 BKN003 OVC005 01/M00 Q1004=
201603040950 METAR ESMX 040950Z VRB03KT 9999 BKN002 OVC004 00/M00 Q1004=
201603040920 METAR ESMX 040920Z 21006KT 170V250 9999 OVC002 00/M00 Q1004=
201603040850 METAR ESMX 040850Z 23005KT 9999 OVC002 00/M00 Q1004=
201603040820 METAR ESMX 040820Z 23006KT 9999 OVC001 00/M00 Q1004=
201603040750 METAR ESMX 040750Z 20006KT 9999 OVC001 00/M00 Q1003=
201603040720 METAR ESMX 040720Z 23004KT 190V260 9999 OVC001 00/M00 Q1003=
201603040650 METAR ESMX 040650Z 21006KT 9999 OVC001 00/M00 Q1003=
201603040620 METAR ESMX 040620Z 21005KT 9000 OVC001 00/00 Q1003=
201603040550 METAR ESMX 040550Z 21004KT 5000 OVC002 00/00 Q1003=
201603040520 METAR ESMX 040520Z 00000KT 0500 R01/1500U R19/1300N FG VV002 00/00 Q1002=
201603040450 METAR ESMX 040450Z 00000KT 1300 R01/P2000N R19/P2000N BR OVC002 00/00 Q1003=
201603040420 METAR ESMX 040420Z AUTO 00000KT 1900 -SN OVC001/// 00/00 Q1003=
201603040350 METAR ESMX 040350Z AUTO 00000KT 1000 R01/P2000N R19/P2000N -SN FEW001/// BKN002/// OVC005/// 00/00 Q1003 RERA RERASN=
201603040320 METAR ESMX 040320Z AUTO 00000KT 2400 RA FEW002/// BKN003/// OVC005/// 00/00 Q1003 RERASN=
201603040250 METAR ESMX 040250Z AUTO 00000KT 2200 -RASN OVC001/// 00/00 Q1003=
201603040220 METAR ESMX 040220Z AUTO 00000KT 2700 -SN OVC001/// 00/00 Q1003=
201603040150 METAR ESMX 040150Z AUTO 01002KT 1700 -SN BKN002/// OVC005/// 00/00 Q1003=
201603040120 METAR ESMX 040120Z AUTO 01003KT 2700 -SN OVC004/// 00/00 Q1003=
201603040050 METAR ESMX 040050Z 36003KT 1600 -SN OVC004 00/00 Q1003=
201603040020 METAR ESMX 040020Z 36003KT 1900 -SN BKN002 OVC005 00/00 Q1003=
201603032350 METAR ESMX 032350Z 35003KT 2200 -SN BKN002 OVC009 00/00 Q1003=
201603032320 METAR ESMX 032320Z 02004KT 2600 -SN BKN002 OVC009 00/00 Q1003=
201603032250 METAR ESMX 032250Z 02003KT 2000 -SN BKN002 OVC009 00/00 Q1003=
201603032220 METAR ESMX 032220Z 02004KT 3500 -SN FEW002 BKN007 00/00 Q1004=
201603032150 METAR ESMX 032150Z 36003KT 2500 -SN FEW005 BKN006 00/00 Q1004=
201603032120 METAR ESMX 032120Z 01003KT 3500 -SN OVC005 01/00 Q1004=
201603032050 METAR ESMX 032050Z VRB03KT 8000 -SN BKN006 01/00 Q1004=
201603032020 METAR ESMX 032020Z 04003KT 010V080 9999 -SN FEW007 BKN025 01/00 Q1004=
201603031950 METAR ESMX 031950Z VRB02KT 9999 -SN FEW025 BKN043 02/00 Q1004=
201603031920 METAR ESMX 031920Z 05004KT 010V100 9999 -SN BKN010 02/M00 Q1004=
201603031850 METAR ESMX 031850Z 08004KT 050V130 9999 OVC010 02/M00 Q1004=
201603031820 METAR ESMX 031820Z VRB02KT 9999 BKN012 02/M00 Q1004=
201603031750 METAR ESMX 031750Z VRB03KT 9999 BKN015 02/M00 Q1004=
201603031720 METAR ESMX 031720Z 03003KT 9999 FEW017 02/M00 Q1004=
201603031650 METAR ESMX 031650Z 04005KT 9999 FEW018 02/M00 Q1004=
201603031620 METAR ESMX 031620Z 03004KT 010V070 9999 FEW018 03/M00 Q1004=
201603031550 METAR ESMX 031550Z VRB03KT 9999 FEW016 03/00 Q1004=
201603031520 METAR ESMX 031520Z 05004KT 020V100 9999 SCT018 03/00 Q1003=
201603031450 METAR ESMX 031450Z 03004KT 9999 SCT017 03/00 Q1003=
201603031420 METAR ESMX 031420Z 02005KT 9999 SCT016 03/00 Q1003=
201603031350 METAR ESMX 031350Z 01005KT 340V050 9999 FEW015 SCT018 03/01 Q1003=
201603031320 METAR ESMX 031320Z 35006KT 9999 SCT014 03/00 Q1004=
201603031250 METAR ESMX 031250Z 36005KT 9999 SCT010 03/00 Q1004=
201603031220 METAR ESMX 031220Z 36004KT 320V050 9999 SCT010 03/00 Q1004=
201603031150 METAR ESMX 031150Z VRB02KT 9999 SCT007 BKN009 02/M00 Q1004=
201603031120 METAR ESMX 031120Z 09003KT 050V160 9999 OVC007 02/M00 Q1004=
201603031050 METAR ESMX 031050Z 05003KT 360V110 9999 OVC006 02/M00 Q1003=
201603031020 METAR ESMX 031020Z 00000KT 9999 OVC005 02/00 Q1003=
201603030950 METAR ESMX 030950Z VRB02KT 9999 OVC005 02/M00 Q1003=
201603030920 METAR ESMX 030920Z VRB03KT 9999 OVC006 01/M00 Q1003=
201603030850 METAR ESMX 030850Z VRB03KT 9999 OVC007 02/00 Q1003=
201603030820 METAR ESMX 030820Z VRB02KT 9999 OVC006 01/M00 Q1003=
201603030750 METAR ESMX 030750Z VRB02KT 9999 OVC006 01/M00 Q1002=
201603030720 METAR ESMX 030720Z 18003KT 150V230 9999 OVC007 01/M01 Q1002=
201603030650 METAR ESMX 030650Z 19003KT 9999 OVC006 01/M00 Q1002=
201603030620 METAR ESMX 030620Z 20003KT 9999 FEW007 OVC011 00/M00 Q1001=
201603030550 METAR ESMX 030550Z 21004KT 9999 FEW008 OVC011 00/M00 Q1001=
201603030520 METAR ESMX 030520Z 19003KT 9999 FEW009 OVC011 01/M00 Q1001=
201603030450 METAR ESMX 030450Z 17003KT 9999 BR SCT008 OVC011 01/M00 Q1000=
201603030420 METAR ESMX 030420Z AUTO 17004KT 9999 FEW008/// OVC010/// 01/M00 Q1000=
201603030350 METAR ESMX 030350Z AUTO 17004KT 9999 BKN008/// OVC011/// 01/M00 Q0999=
201603030320 METAR ESMX 030320Z AUTO 21005KT 9999 OVC009/// 01/M00 Q0999=
201603030250 METAR ESMX 030250Z AUTO 17004KT 9999 SCT007/// OVC009/// 01/00 Q0998=
201603030220 METAR ESMX 030220Z AUTO VRB02KT 9999 FEW007/// OVC008/// 01/00 Q0998=
201603030150 METAR ESMX 030150Z AUTO 21006KT 9999 SCT007/// OVC010/// 01/M00 Q0997=
201603030120 METAR ESMX 030120Z AUTO 21008KT 9999 FEW008/// BKN010/// OVC014/// 02/00 Q0997=
201603030050 METAR ESMX 030050Z AUTO 22009KT 9999 FEW007/// OVC009/// 02/01 Q0997=
201603030020 METAR ESMX 030020Z 18011KT 9999 FEW010 SCT013 BKN016 02/01 Q0996=
201603022350 METAR ESMX 022350Z 18012KT 9999 FEW004 OVC015 03/01 Q0995=
201603022320 METAR ESMX 022320Z 15009KT 3500 BR OVC003 03/02 Q0995=
201603022250 METAR ESMX 022250Z 14006KT 110V170 2100 BR OVC002 02/02 Q0994=
201603022220 METAR ESMX 022220Z 14006KT 110V170 5000 BR OVC003 02/02 Q0994=
201603022150 METAR ESMX 022150Z 12006KT 070V190 7000 BR OVC003 02/02 Q0994=
201603022120 METAR ESMX 022120Z 13006KT 080V160 6000 -DZ OVC003 02/01 Q0993=
201603022050 METAR ESMX 022050Z 13007KT 080V170 5000 -DZ OVC003 02/01 Q0993=
201603022020 METAR ESMX 022020Z 14007KT 100V170 4500 -DZ OVC003 02/01 Q0993=
201603021950 METAR ESMX 021950Z 14006KT 090V170 3500 -DZ OVC003 01/01 Q0993=
201603021920 METAR ESMX 021920Z 12007KT 080V180 3300 -DZ OVC004 01/01 Q0993=
201603021850 METAR ESMX 021850Z 14008KT 110V170 8000 BR OVC003 01/01 Q0993=
201603021820 METAR ESMX 021820Z 12006KT 070V160 9999 OVC004 01/00 Q0993=
201603021750 METAR ESMX 021750Z 12006KT 080V160 7000 -SN OVC003 01/00 Q0993=
201603021720 METAR ESMX 021720Z 12005KT 060V160 3500 -SN OVC003 01/00 Q0993=
201603021650 METAR ESMX 021650Z 13006KT 080V170 2400 -SN FEW003 OVC005 01/00 Q0993=
201603021620 METAR ESMX 021620Z 13007KT 100V170 2800 SN OVC004 01/00 Q0993=
201603021550 METAR ESMX 021550Z 13006KT 080V170 6000 BR OVC004 01/00 Q0993=
201603021520 METAR ESMX 021520Z 12006KT 080V160 4100 FEW003 OVC005 01/00 Q0993=
201603021450 METAR ESMX 021450Z 13007KT 090V170 2600 -RASN OVC004 01/00 Q0993=
201603021420 METAR ESMX 021420Z 12008KT 080V160 4000 -SN OVC003 01/00 Q0993=
201603021350 METAR ESMX 021350Z 12008KT 350V160 6000 BR OVC003 01/00 Q0994=
201603021320 METAR ESMX 021320Z AUTO 13007KT 100V170 4800 BR OVC003/// 01/00 Q0994=
201603021250 METAR ESMX 021250Z 13007KT 090V190 3700 BR OVC003 01/00 Q0994=
201603021220 METAR ESMX 021220Z 14007KT 090V160 2600 BR OVC003 01/01 Q0994=
201603021150 METAR ESMX 021150Z 13007KT 100V170 2100 BR OVC002 01/00 Q0995=
201603021120 METAR ESMX 021120Z 13008KT 080V170 2100 BR OVC003 01/00 Q0995=
201603021050 METAR ESMX 021050Z 13009KT 080V160 4000 BR OVC005 01/M00 Q0995=
201603021020 METAR ESMX 021020Z 13008KT 080V150 5000 BR OVC006 01/M00 Q0996=
201603020950 METAR ESMX 020950Z 13006KT 070V170 6000 BR OVC007 01/M01 Q0996=
201603020920 METAR ESMX 020920Z 14007KT 100V170 8000 BR OVC008 01/M01 Q0997 RERA=
201603020850 METAR ESMX 020850Z 13007KT 9000 BR OVC009 01/M01 Q0997=
201603020820 METAR ESMX 020820Z 15008KT 110V180 9999 OVC010 01/M01 Q0997=
201603020750 METAR ESMX 020750Z 13007KT 090V170 7000 -DZ BKN009 OVC014 01/M01 Q0997=
201603020720 METAR ESMX 020720Z 13007KT 070V170 8000 -DZ OVC008 01/M01 Q0997=
201603020650 METAR ESMX 020650Z 14007KT 100V180 9999 OVC009 01/M01 Q0998=
201603020620 METAR ESMX 020620Z 13007KT 100V190 9999 BKN009 BKN020 00/M02 Q0998=
201603020550 METAR ESMX 020550Z 14007KT 110V170 9999 BKN009 00/M02 Q0998=
201603020520 METAR ESMX 020520Z 13006KT 070V160 9999 OVC009 M00/M02 Q0999=
201603020450 METAR ESMX 020450Z 13005KT 080V170 9999 BKN009 OVC050 M00/M02 Q0999=
201603020420 METAR ESMX 020420Z AUTO VRB05KT 6000 -RASN OVC009/// M00/M02 Q0999 REFZUP=
201603020350 METAR ESMX 020350Z AUTO 14006KT 090V180 9999 BKN010/// M00/M02 Q1000=
201603020320 METAR ESMX 020320Z AUTO 12005KT 080V150 9999 BKN012/// BKN020/// M00/M03 Q1000=
201603020250 METAR ESMX 020250Z AUTO 14005KT 080V190 9999 FEW020/// M00/M03 Q1001=
201603020220 METAR ESMX 020220Z AUTO 14005KT 100V190 9999 FEW015/// SCT023/// M00/M03 Q1002=
201603020150 METAR ESMX 020150Z AUTO 13005KT 090V170 9999 BKN014/// OVC021/// M00/M03 Q1002=
201603020120 METAR ESMX 020120Z AUTO 13006KT 100V170 9999 BKN021/// M00/M03 Q1003=
201603020050 METAR ESMX 020050Z AUTO 13006KT 090V190 9999 FEW015/// OVC020/// M00/M03 Q1003=
201603020020 METAR ESMX 020020Z 15006KT 110V190 9999 FEW015 BKN017 OVC021 M00/M04 Q1004=
201603012350 METAR ESMX 012350Z 14006KT 080V170 9999 FEW017 OVC020 M00/M04 Q1005=
201603012320 METAR ESMX 012320Z 15006KT 110V190 9999 FEW016 OVC020 M00/M04 Q1005=
201603012250 METAR ESMX 012250Z 13006KT 090V170 9999 OVC020 M00/M04 Q1006=
201603012220 METAR ESMX 012220Z 14006KT 100V180 9999 OVC020 M00/M04 Q1007=
201603012150 METAR ESMX 012150Z 14005KT 100V170 9999 OVC020 M00/M04 Q1007=
201603012120 METAR ESMX 012120Z 12006KT 070V170 9999 BKN021 M00/M04 Q1008=
201603012050 METAR ESMX 012050Z 14006KT 110V170 9999 OVC021 M00/M05 Q1008=
201603012020 METAR ESMX 012020Z 13006KT 080V190 9999 OVC022 M00/M05 Q1009=
201603011950 METAR ESMX 011950Z 13007KT 100V160 9999 OVC022 M00/M05 Q1009=
201603011920 METAR ESMX 011920Z 13006KT 070V170 9999 BKN023 M00/M05 Q1010=
201603011850 METAR ESMX 011850Z 13005KT 010V170 9999 OVC023 M00/M05 Q1011=
201603011820 METAR ESMX 011820Z 11004KT 070V170 9999 BKN024 M00/M05 Q1011=
201603011750 METAR ESMX 011750Z 12004KT 070V170 9999 FEW028 M00/M05 Q1012=
201603011720 METAR ESMX 011720Z 12004KT 080V170 9999 FEW045 BKN200 00/M05 Q1012=
201603011650 METAR ESMX 011650Z 13006KT 090V180 9999 FEW035 BKN200 01/M05 Q1012=
201603011620 METAR ESMX 011620Z 12005KT 080V160 9999 FEW035 BKN200 01/M06 Q1013=
201603011550 METAR ESMX 011550Z 13007KT 080V170 9999 FEW035 BKN200 02/M06 Q1013=
201603011520 METAR ESMX 011520Z 13005KT 080V170 9999 FEW035 BKN200 02/M06 Q1014=
201603011450 METAR ESMX 011450Z 13006KT 080V170 9999 FEW035 BKN200 02/M06 Q1014=
201603011420 METAR ESMX 011420Z 16006KT 130V190 9999 FEW035 03/M06 Q1015=
201603011350 METAR ESMX 011350Z 15007KT 100V200 9999 FEW035 03/M06 Q1015=
201603011320 METAR ESMX 011320Z 13006KT 080V170 9999 FEW032 03/M05 Q1016=
201603011250 METAR ESMX 011250Z 13006KT 080V190 9999 FEW031 03/M05 Q1016=
201603011220 METAR ESMX 011220Z 13007KT 060V170 9999 FEW030 02/M05 Q1017=
