##########################################################
# Query made at 04/19/2024 21:51:59 UTC
# Time interval: from 06/01/2016 12:00  to 06/30/2016 12:59  UTC
##########################################################

##########################################################
# ESMX, Vaxjo (Sweden)
# WMO index: 02641. WIGOS ID: 0-20000-0-02648
# Latitude 56-51N. Longitude 014-50E. Altitude 199 m.
##########################################################

201606301250 METAR ESMX 301250Z 19008KT 150V220 9999 FEW047 BKN052 18/12 Q1011=
201606301220 METAR ESMX 301220Z 22009KT 9999 FEW017 SCT023 BKN032 17/13 Q1011=
201606301150 METAR ESMX 301150Z 21010KT 9999 FEW020CB BKN045 18/15 Q1011=
201606301120 METAR ESMX 301120Z 21012KT 170V240 9999 -SHRA SCT017CB BKN029 17/13 Q1011=
201606301050 METAR ESMX 301050Z 20013KT 9999 -SHRA SCT015CB BKN050 15/14 Q1011=
201606301020 METAR ESMX 301020Z 18011KT 9999 -RA FEW019 SCT026 BKN045 16/13 Q1011=
201606300950 METAR ESMX 300950Z 20009KT 160V220 9999 -RA FEW018 SCT020 BKN031 17/13 Q1011=
201606300920 METAR ESMX 300920Z 18008KT 130V210 9999 SCT016 BKN070 17/13 Q1011=
201606300850 METAR ESMX 300850Z 17009KT 9999 SCT015 BKN080 16/13 Q1011=
201606300820 METAR ESMX 300820Z 19008KT 9999 BKN013 BKN060 16/13 Q1011=
201606300750 METAR ESMX 300750Z 17008KT 9999 SCT014 BKN060 16/13 Q1011=
201606300720 METAR ESMX 300720Z 19007KT 9999 SCT007 BKN040 16/13 Q1011=
201606300650 METAR ESMX 300650Z 17005KT 130V200 9999 BKN004 BKN050 15/13 Q1011=
201606300620 METAR ESMX 300620Z 16005KT 9999 OVC004 14/13 Q1011=
201606300550 METAR ESMX 300550Z 18005KT 140V210 9999 BKN004 13/13 Q1011=
201606300520 METAR COR ESMX 300520Z 19005KT 9999 BKN003 13/13 Q1011=
201606300450 METAR ESMX 300450Z VRB03KT 7000 BR OVC001 13/13 Q1010=
201606300420 METAR ESMX 300420Z VRB03KT 5000 BR OVC001 13/12 Q1010=
201606300350 METAR ESMX 300350Z 17004KT 5000 OVC001 12/12 Q1010=
201606300320 METAR ESMX 300320Z AUTO 17003KT 2200 BKN000/// OVC004/// 12/12 Q1010=
201606300250 METAR ESMX 300250Z AUTO 18004KT 0300 R01/0650N R19/1000N FG VV001 12/12 Q1010=
201606300220 METAR ESMX 300220Z AUTO 17003KT 0250 R01/0650N R19/0650N FG VV001 12/11 Q1010=
201606300150 METAR ESMX 300150Z AUTO 15004KT 0200 R01/0500N R19/0900N FG VV001 11/11 Q1010=
201606300120 METAR ESMX 300120Z AUTO VRB03KT 0200 R01/0800N R19/0650N FG VV001 12/11 Q1010=
201606300050 METAR ESMX 300050Z AUTO 18005KT 0350 R01/1000D R19/1500D FG VV001 12/11 Q1010=
201606300020 METAR ESMX 300020Z AUTO 19004KT 160V220 2200 BR OVC001/// 12/11 Q1010=
201606292350 METAR ESMX 292350Z 21004KT 180V240 9999 SCT003 OVC005 12/11 Q1010=
201606292320 METAR ESMX 292320Z 21004KT 9999 SCT005 OVC009 11/11 Q1010=
201606292250 METAR ESMX 292250Z 21004KT 7000 FEW007 BKN015 OVC020 11/10 Q1010=
201606292220 METAR ESMX 292220Z 21002KT 0800 R01/P2000N R19/1400D BCFG FEW009 SCT012 BKN021 09/09 Q1010=
201606292150 METAR ESMX 292150Z 16002KT 7000 BKN012 10/10 Q1010=
201606292120 METAR ESMX 292120Z 21001KT 9999 BKN013 12/11 Q1010=
201606292050 METAR ESMX 292050Z VRB03KT 9999 SCT010 BKN016 12/11 Q1010=
201606292020 METAR ESMX 292020Z VRB01KT 9999 FEW011 BKN015 OVC022 12/11 Q1010=
201606291950 METAR ESMX 291950Z VRB02KT 9999 SCT014 BKN025 OVC030 12/11 Q1009=
201606291920 METAR ESMX 291920Z 08004KT 9999 FEW017 SCT020 BKN023 12/11 Q1009=
201606291850 METAR ESMX 291850Z VRB03KT 9999 FEW009 SCT018 BKN020 12/11 Q1009=
201606291820 METAR ESMX 291820Z 07004KT 030V110 9999 -DZ FEW018 SCT023 BKN035 13/11 Q1009=
201606291750 METAR ESMX 291750Z 11004KT 060V150 9999 DZ OVC027 13/11 Q1010=
201606291720 METAR ESMX 291720Z 09004KT 030V130 9999 FEW032 BKN045 BKN065 13/11 Q1010=
201606291650 METAR ESMX 291650Z 12003KT 070V200 9999 -RA FEW018 BKN045 14/12 Q1010=
201606291620 METAR ESMX 291620Z 08004KT 030V110 9999 -RA FEW020 BKN060 14/12 Q1009=
201606291550 METAR ESMX 291550Z 08003KT 050V120 9999 -RA FEW025 BKN040 14/12 Q1009=
201606291520 METAR ESMX 291520Z VRB03KT 9999 -RA FEW025 BKN050 14/12 Q1010=
201606291450 METAR ESMX 291450Z 13006KT 100V160 9999 -RA FEW025 BKN050 15/11 Q1010=
201606291420 METAR ESMX 291420Z 14007KT 090V170 9999 -RA FEW030 BKN075 17/08 Q1010 RERA=
201606291350 METAR ESMX 291350Z 11006KT 070V160 9999 FEW040 BKN075 18/08 Q1010 REDZ=
201606291320 METAR ESMX 291320Z 13007KT 090V170 9999 BKN040 18/09 Q1010=
201606291250 METAR ESMX 291250Z AUTO 15008KT 100V190 9999 BKN037/// 18/09 Q1010 REDZ=
201606291220 METAR ESMX 291220Z 16009KT 120V190 9999 FEW025 SCT040 BKN070 18/09 Q1010=
201606291150 METAR ESMX 291150Z 13008KT 090V180 9999 -RA FEW056 18/09 Q1011=
201606291120 METAR ESMX 291120Z 15007KT 110V190 9999 FEW044 SCT054 BKN074 18/08 Q1011=
201606291050 METAR ESMX 291050Z 13007KT 080V180 9999 FEW029 SCT062 BKN088 18/07 Q1011=
201606291020 METAR ESMX 291020Z 13007KT 060V170 9999 FEW020 BKN064 18/07 Q1011=
201606290950 METAR COR ESMX 290950Z 13008KT 070V200 9999 FEW020 BKN060 18/07 Q1011=
201606290920 METAR ESMX 290920Z 14008KT 080V170 9999 FEW048 BKN082 19/07 Q1012=
201606290850 METAR ESMX 290850Z 14007KT 080V190 9999 FEW044 19/07 Q1012=
201606290820 METAR ESMX 290820Z 10006KT 030V160 CAVOK 18/07 Q1012=
201606290750 METAR ESMX 290750Z 14007KT 110V170 CAVOK 17/07 Q1012=
201606290720 METAR ESMX 290720Z 14008KT 110V170 CAVOK 17/06 Q1013=
201606290650 METAR ESMX 290650Z 14006KT 080V200 CAVOK 17/07 Q1013=
201606290620 METAR ESMX 290620Z 11005KT 070V160 CAVOK 16/07 Q1013=
201606290550 METAR ESMX 290550Z 13004KT 070V170 CAVOK 16/08 Q1013=
201606290520 METAR ESMX 290520Z 09004KT 060V130 CAVOK 15/09 Q1013=
201606290450 METAR ESMX 290450Z 07003KT CAVOK 14/09 Q1013=
201606290420 METAR ESMX 290420Z VRB02KT CAVOK 12/09 Q1013=
201606290350 METAR ESMX 290350Z 00000KT CAVOK 07/06 Q1013=
201606290320 METAR ESMX 290320Z AUTO 00000KT 9999 NCD 06/05 Q1014=
201606290250 METAR ESMX 290250Z AUTO 00000KT 9999 SCT079/// 05/04 Q1014=
201606290220 METAR ESMX 290220Z AUTO 00000KT 9999 BKN079/// 05/04 Q1014=
201606290150 METAR ESMX 290150Z AUTO 18002KT 9999 FEW080/// 05/05 Q1014=
201606290120 METAR ESMX 290120Z AUTO 00000KT 9999 NCD 05/03 Q1014=
201606290050 METAR ESMX 290050Z AUTO 18003KT 9999 NCD 06/05 Q1014=
201606290020 METAR ESMX 290020Z AUTO 00000KT 9999 NCD 06/05 Q1015=
201606282350 METAR ESMX 282350Z VRB01KT CAVOK 07/06 Q1015=
201606282320 METAR ESMX 282320Z 15002KT CAVOK 07/05 Q1015=
201606282250 METAR ESMX 282250Z 17002KT CAVOK 07/06 Q1015=
201606282220 METAR ESMX 282220Z 20002KT CAVOK 08/06 Q1014=
201606282150 METAR ESMX 282150Z 16002KT CAVOK 09/07 Q1014=
201606282120 METAR ESMX 282120Z 25003KT CAVOK 11/06 Q1014=
201606282050 METAR ESMX 282050Z 25003KT CAVOK 12/06 Q1014=
201606282020 METAR ESMX 282020Z 25004KT CAVOK 13/06 Q1014=
201606281950 METAR ESMX 281950Z 25004KT CAVOK 14/06 Q1014=
201606281920 METAR ESMX 281920Z 26005KT CAVOK 16/06 Q1014=
201606281850 METAR ESMX 281850Z 26006KT CAVOK 17/05 Q1014=
201606281820 METAR ESMX 281820Z 25007KT 220V280 CAVOK 18/05 Q1014=
201606281750 METAR ESMX 281750Z 24006KT CAVOK 19/05 Q1014=
201606281720 METAR ESMX 281720Z 22004KT 190V260 CAVOK 18/06 Q1014=
201606281650 METAR ESMX 281650Z 26009KT CAVOK 18/05 Q1014=
201606281620 METAR ESMX 281620Z 28006KT 220V310 CAVOK 18/05 Q1014=
201606281550 METAR ESMX 281550Z 26006KT CAVOK 19/05 Q1014=
201606281520 METAR ESMX 281520Z 29006KT 240V340 CAVOK 19/04 Q1014=
201606281450 METAR ESMX 281450Z VRB05KT CAVOK 19/04 Q1014=
201606281420 METAR ESMX 281420Z 26006KT 210V300 CAVOK 18/05 Q1014=
201606281350 METAR ESMX 281350Z 27010KT 230V310 CAVOK 20/04 Q1014=
201606281320 METAR ESMX 281320Z 28008KT 250V320 CAVOK 19/05 Q1014=
201606281250 METAR ESMX 281250Z 28008KT 170V330 CAVOK 19/06 Q1014=
201606281220 METAR ESMX 281220Z 25012KT CAVOK 21/06 Q1014=
201606281150 METAR ESMX 281150Z 25010KT 9999 BKN050 19/06 Q1014=
201606281120 METAR ESMX 281120Z 26008KT 210V290 9999 FEW045 BKN053 20/06 Q1014=
201606281050 METAR ESMX 281050Z 28011KT CAVOK 19/06 Q1014=
201606281020 METAR ESMX 281020Z 29010KT 9999 SCT049 18/06 Q1014=
201606280950 METAR ESMX 280950Z 26008KT 200V300 9999 FEW043 BKN051 19/06 Q1014=
201606280920 METAR ESMX 280920Z 23009KT 190V270 9999 FEW040 BKN050 18/07 Q1014=
201606280850 METAR ESMX 280850Z 27010KT 240V320 9999 SCT046 17/07 Q1014=
201606280820 METAR ESMX 280820Z AUTO 26008KT 210V330 9999 FEW035/// SCT050/// 17/07 Q1014=
201606280750 METAR ESMX 280750Z 27007KT 240V300 9999 SCT032 16/07 Q1014=
201606280720 METAR COR ESMX 280720Z 27010KT 9999 SCT028 16/08 Q1014=
201606280650 METAR ESMX 280650Z 27009KT 230V320 9999 SCT024 16/08 Q1014=
201606280620 METAR ESMX 280620Z 26008KT 230V310 9999 FEW022 16/09 Q1014=
201606280550 METAR ESMX 280550Z 27008KT 240V300 9999 FEW018 15/10 Q1013=
201606280520 METAR ESMX 280520Z 25009KT 9999 SCT016 14/10 Q1013=
201606280450 METAR ESMX 280450Z 24008KT 210V280 9999 FEW013 SCT017 14/11 Q1013=
201606280420 METAR ESMX 280420Z 23006KT 9999 FEW013 SCT018 BKN080 14/12 Q1013=
201606280350 METAR ESMX 280350Z 23007KT 200V260 9999 FEW015 SCT019 14/12 Q1013=
201606280320 METAR ESMX 280320Z AUTO 20007KT 9999 FEW010/// 14/12 Q1013=
201606280250 METAR ESMX 280250Z AUTO 22007KT 9999 NCD 13/12 Q1013=
201606280220 METAR ESMX 280220Z AUTO 20008KT 9999 FEW011/// SCT019/// BKN025/// 14/13 Q1012=
201606280150 METAR ESMX 280150Z AUTO 19006KT 9999 FEW029/// BKN054/// 14/13 Q1012=
201606280120 METAR ESMX 280120Z AUTO 19008KT 9999 FEW011/// SCT014/// BKN020/// 14/13 Q1013=
201606280050 METAR ESMX 280050Z AUTO 19007KT 9999 BKN012/// OVC017/// 15/13 Q1013 RERA=
201606280020 METAR ESMX 280020Z AUTO 19010KT 9999 FEW009/// SCT013/// BKN017/// 15/14 Q1013 REDZ=
201606272350 METAR ESMX 272350Z 19011KT 9999 FEW020 SCT039 BKN065 16/12 Q1012=
201606272320 METAR ESMX 272320Z 18009KT 9999 FEW032 SCT041 BKN076 16/11 Q1012=
201606272250 METAR ESMX 272250Z 17008KT 9999 FEW028 BKN051 16/11 Q1013=
201606272220 METAR ESMX 272220Z 17008KT 9999 FEW030 SCT034 BKN039 16/11 Q1013=
201606272150 METAR ESMX 272150Z 16007KT 9999 FEW042 16/10 Q1013=
201606272120 METAR ESMX 272120Z 17005KT CAVOK 16/10 Q1013=
201606272050 METAR ESMX 272050Z 17005KT CAVOK 15/10 Q1013=
201606272020 METAR ESMX 272020Z 20005KT CAVOK 15/10 Q1013=
201606271950 METAR ESMX 271950Z 21004KT CAVOK 16/10 Q1013=
201606271920 METAR ESMX 271920Z 21006KT CAVOK 17/10 Q1013=
201606271850 METAR ESMX 271850Z 23007KT CAVOK 18/10 Q1013=
201606271820 METAR ESMX 271820Z 23007KT CAVOK 18/10 Q1013=
201606271750 METAR ESMX 271750Z 22007KT 190V250 CAVOK 18/10 Q1013=
201606271720 METAR ESMX 271720Z 22009KT CAVOK 18/10 Q1013=
201606271650 METAR ESMX 271650Z 24009KT CAVOK 19/10 Q1013=
201606271620 METAR ESMX 271620Z 21010KT 9999 FEW040 SCT064 BKN079 19/10 Q1013=
201606271550 METAR ESMX 271550Z 23010KT 9999 FEW045 BKN085 20/09 Q1013=
201606271520 METAR ESMX 271520Z 23010KT 200V290 9999 FEW045 BKN071 20/09 Q1013=
201606271450 METAR ESMX 271450Z 22010KT 9999 FEW049 BKN078 21/08 Q1013=
201606271420 METAR ESMX 271420Z 20012KT 170V240 CAVOK 20/08 Q1012=
201606271350 METAR ESMX 271350Z 22011KT 190V250 9999 FEW040 BKN068 22/09 Q1012=
201606271320 METAR ESMX 271320Z 21015KT 9999 FEW048 SCT077 20/08 Q1013=
201606271250 METAR ESMX 271250Z 20013KT 170V240 9999 SCT048 21/08 Q1013=
201606271220 METAR ESMX 271220Z 19013KT 9999 SCT044 22/09 Q1013=
201606271150 METAR ESMX 271150Z 20013KT 170V240 9999 SCT038 21/10 Q1013=
201606271120 METAR ESMX 271120Z 20012KT 170V240 9999 FEW040 SCT045 21/10 Q1013=
201606271050 METAR ESMX 271050Z 22012KT CAVOK 20/09 Q1013=
201606271020 METAR ESMX 271020Z 23011KT 190V250 9999 FEW048 BKN054 17/09 Q1013=
201606270950 METAR ESMX 270950Z 21011KT 9999 FEW035 SCT040 BKN056 18/09 Q1013=
201606270920 METAR ESMX 270920Z 23011G21KT 200V280 9999 FEW036 SCT042 BKN049 18/09 Q1013=
201606270850 METAR ESMX 270850Z 20012KT 160V240 9999 FEW036 SCT045 19/09 Q1013=
201606270820 METAR ESMX 270820Z 22013KT 9999 FEW038 19/09 Q1014=
201606270750 METAR ESMX 270750Z 22013KT 9999 FEW039 19/08 Q1014=
201606270720 METAR ESMX 270720Z 22011KT CAVOK 18/09 Q1014=
201606270650 METAR ESMX 270650Z 22010KT CAVOK 17/10 Q1014=
201606270620 METAR ESMX 270620Z 21010KT CAVOK 17/11 Q1014=
201606270550 METAR ESMX 270550Z 21010KT CAVOK 16/11 Q1014=
201606270520 METAR ESMX 270520Z 21009KT CAVOK 15/11 Q1014=
201606270450 METAR ESMX 270450Z 21007KT CAVOK 14/12 Q1013=
201606270420 METAR ESMX 270420Z 19006KT CAVOK 13/12 Q1013=
201606270350 METAR ESMX 270350Z 20006KT CAVOK 12/11 Q1013=
201606270320 METAR ESMX 270320Z AUTO 20005KT 9999 NCD 10/10 Q1014=
201606270250 METAR ESMX 270250Z AUTO 20006KT 9999 NCD 10/10 Q1014=
201606270220 METAR ESMX 270220Z AUTO 19006KT 9999 NCD 10/09 Q1014=
201606270150 METAR ESMX 270150Z AUTO 19005KT 9999 NCD 09/09 Q1013=
201606270120 METAR ESMX 270120Z AUTO 21004KT 9999 NCD 09/09 Q1013=
201606270050 METAR ESMX 270050Z AUTO 17004KT 9999 NCD 12/10 Q1013=
201606270020 METAR ESMX 270020Z AUTO 21005KT 9999 NCD 11/09 Q1013=
201606262350 METAR ESMX 262350Z AUTO 19004KT 9999 NCD 12/10 Q1013=
201606262320 METAR ESMX 262320Z AUTO 19005KT 9999 NCD 11/10 Q1014=
201606262250 METAR ESMX 262250Z 20005KT CAVOK 12/10 Q1013=
201606262220 METAR ESMX 262220Z 22005KT CAVOK 12/10 Q1014=
201606262150 METAR ESMX 262150Z 21004KT CAVOK 13/10 Q1014=
201606262120 METAR ESMX 262120Z 22005KT CAVOK 13/10 Q1013=
201606262050 METAR ESMX 262050Z 22004KT CAVOK 13/10 Q1013=
201606262020 METAR ESMX 262020Z 23004KT CAVOK 14/11 Q1013=
201606261950 METAR ESMX 261950Z 26003KT CAVOK 16/11 Q1013=
201606261920 METAR ESMX 261920Z 27007KT CAVOK 17/11 Q1013=
201606261850 METAR ESMX 261850Z 25007KT 9999 FEW040 18/11 Q1013=
201606261820 METAR ESMX 261820Z 25009KT 220V290 9999 FEW045 19/11 Q1013=
201606261750 METAR ESMX 261750Z 26007KT 230V290 9999 FEW030 SCT045 19/11 Q1012=
201606261720 METAR COR ESMX 261720Z 25007KT 9999 FEW030 BKN045 18/12 Q1012=
201606261650 METAR ESMX 261650Z 27008KT 240V300 9999 FEW028 BKN040 19/12 Q1012=
201606261620 METAR ESMX 261620Z 26008KT 240V310 9999 FEW027 BKN034 19/12 Q1012=
201606261550 METAR ESMX 261550Z 25009KT 230V290 9999 FEW026 BKN036 18/12 Q1012=
201606261520 METAR ESMX 261520Z 28011KT 250V320 9999 BKN029 18/12 Q1012=
201606261450 METAR ESMX 261450Z 26012KT 230V290 9999 BKN023 19/12 Q1012=
201606261420 METAR ESMX 261420Z 26010KT 230V290 9999 BKN021 18/12 Q1012=
201606261350 METAR ESMX 261350Z 26013KT 9999 BKN017 18/12 Q1012=
201606261320 METAR ESMX 261320Z 26013KT 220V290 9999 -RA OVC014 18/13 Q1011=
201606261250 METAR ESMX 261250Z 24011KT 9999 OVC014 17/13 Q1011=
201606261220 METAR ESMX 261220Z 25012KT 9999 OVC013 18/14 Q1011=
201606261150 METAR ESMX 261150Z 25013KT 9999 BKN015 OVC020 18/14 Q1011=
201606261120 METAR ESMX 261120Z 25010KT 9999 SCT010 BKN014 OVC041 19/15 Q1010=
201606261050 METAR ESMX 261050Z 24013KT 9999 FEW011TCU SCT022 BKN044 19/16 Q1010=
201606261020 METAR ESMX 261020Z AUTO 20008KT 9999 FEW025/// BKN042/// 24/18 Q1009=
201606260950 METAR ESMX 260950Z AUTO 20007KT 9999 FEW018/// BKN030/// OVC039/// 22/18 Q1009=
201606260920 METAR ESMX 260920Z AUTO 19007KT 9999 FEW017/// SCT021/// BKN025/// 22/18 Q1009=
201606260850 METAR ESMX 260850Z AUTO 19007KT 160V230 9999 BKN017/// OVC025/// 22/18 Q1009=
201606260820 METAR ESMX 260820Z AUTO 18007KT 120V220 9999 FEW018/// BKN023/// 22/17 Q1009=
201606260750 METAR ESMX 260750Z AUTO 18009KT 9999 OVC018/// 22/17 Q1009=
201606260720 METAR ESMX 260720Z AUTO 15007KT 120V190 9999 BKN017/// 23/18 Q1008=
201606260650 METAR ESMX 260650Z AUTO 15007KT 110V190 9999 SCT015/// 23/18 Q1008=
201606260620 METAR ESMX 260620Z AUTO 17007KT 140V210 9999 FEW014/// 22/18 Q1008=
201606260550 METAR ESMX 260550Z AUTO 16006KT 130V190 9999 FEW009/// SCT010/// 21/18 Q1008=
201606260520 METAR ESMX 260520Z AUTO 13006KT 070V160 9999 FEW008/// SCT010/// 20/18 Q1008=
201606260450 METAR ESMX 260450Z AUTO 13004KT 080V160 9999 BKN007/// 20/18 Q1008=
201606260420 METAR ESMX 260420Z AUTO 12005KT 090V160 9999 OVC006/// 20/18 Q1008=
201606260350 METAR ESMX 260350Z AUTO 11004KT 070V160 9999 OVC006/// 19/18 Q1008=
201606260320 METAR ESMX 260320Z AUTO 12004KT 070V160 9999 BKN007/// 19/18 Q1008=
201606260250 METAR ESMX 260250Z AUTO 11003KT 060V170 9999 BKN008/// 19/18 Q1008=
201606260220 METAR ESMX 260220Z AUTO 12003KT 070V160 9999 BKN009/// 20/18 Q1008=
201606260150 METAR ESMX 260150Z AUTO 15003KT 120V180 9999 FEW010/// SCT045/// 20/18 Q1008=
201606260120 METAR ESMX 260120Z AUTO 08004KT 030V120 9999 FEW044/// SCT096/// BKN100/// 20/18 Q1008=
201606260050 METAR ESMX 260050Z AUTO 10004KT 050V180 9999 -DZ SCT092/// 20/18 Q1008 RERA=
201606260020 METAR ESMX 260020Z AUTO 09007KT 050V140 9999 -RA FEW086/// SCT100/// 20/18 Q1009=
201606252350 METAR ESMX 252350Z AUTO 07005KT 030V110 9999 FEW059/// SCT094/// 21/16 Q1009=
201606252320 METAR ESMX 252320Z AUTO 07005KT 030V110 9999 FEW035/// 22/16 Q1009=
201606252250 METAR ESMX 252250Z AUTO 09005KT 040V130 9999 SCT036/// BKN055/// 22/16 Q1009=
201606252220 METAR ESMX 252220Z AUTO 06006KT 010V100 9999 FEW041/// SCT084/// 22/16 Q1009=
201606252150 METAR ESMX 252150Z AUTO 06006KT 9999 FEW042/// BKN075/// 22/16 Q1010=
201606252120 METAR ESMX 252120Z AUTO 06007KT 030V100 9999 FEW093/// 22/17 Q1010=
201606252050 METAR ESMX 252050Z AUTO 05005KT 010V080 9999 NCD 23/17 Q1011=
201606252020 METAR ESMX 252020Z AUTO 07005KT 030V110 9999 NCD 23/16 Q1011=
201606251950 METAR ESMX 251950Z AUTO 07005KT 020V110 9999 NCD 24/16 Q1011=
201606251920 METAR ESMX 251920Z AUTO 09005KT 040V120 9999 NCD 25/16 Q1011=
201606251850 METAR ESMX 251850Z AUTO 09006KT 060V150 9999 NCD 26/16 Q1011=
201606251820 METAR ESMX 251820Z AUTO 10006KT 070V140 9999 FEW068/// 26/16 Q1011=
201606251750 METAR ESMX 251750Z AUTO 11007KT 050V180 9999 NCD 27/16 Q1011=
201606251720 METAR ESMX 251720Z AUTO 09009KT 060V140 9999 NCD 28/17 Q1011=
201606251650 METAR ESMX 251650Z AUTO 09006KT 030V140 9999 NCD 29/17 Q1011=
201606251620 METAR ESMX 251620Z AUTO 09006KT 050V120 9999 FEW077/// 29/17 Q1011=
201606251550 METAR ESMX 251550Z AUTO 09007KT 050V140 9999 FEW056/// SCT090/// 28/17 Q1011=
201606251520 METAR ESMX 251520Z AUTO 05006KT 350V130 9999 NCD 31/16 Q1012=
201606251450 METAR ESMX 251450Z AUTO 34006KT 9999 NCD 30/17 Q1012=
201606251420 METAR ESMX 251420Z AUTO 02006KT 350V060 9999 NCD 30/17 Q1013=
201606251350 METAR ESMX 251350Z AUTO 35006KT 9999 NCD 29/17 Q1013=
201606251320 METAR ESMX 251320Z AUTO 34005KT 300V030 9999 NCD 29/17 Q1014=
201606251250 METAR ESMX 251250Z AUTO 01004KT 300V070 9999 NCD 29/17 Q1014=
201606251220 METAR ESMX 251220Z AUTO 36006KT 340V060 9999 NCD 28/17 Q1014=
201606251150 METAR ESMX 251150Z AUTO 35005KT 300V020 9999 FEW110/// 28/17 Q1015=
201606251120 METAR ESMX 251120Z 35003KT 290V070 9999 FEW045 SCT100 27/17 Q1015=
201606251050 METAR ESMX 251050Z 02003KT 290V100 9999 FEW045 26/18 Q1016=
201606251020 METAR ESMX 251020Z AUTO 34005KT 320V020 9999 FEW090/// 26/18 Q1016=
201606250950 METAR ESMX 250950Z AUTO VRB02KT 9999 FEW071/// 26/17 Q1016=
201606250920 METAR ESMX 250920Z AUTO 06003KT 9999 FEW067/// 25/17 Q1016=
201606250850 METAR ESMX 250850Z AUTO 04006KT 020V080 9999 FEW022/// 25/18 Q1016=
201606250820 METAR ESMX 250820Z AUTO 05005KT 020V100 9999 FEW091/// 24/18 Q1016=
201606250750 METAR ESMX 250750Z AUTO 01005KT 340V050 9999 FEW079/// 23/18 Q1016=
201606250720 METAR ESMX 250720Z AUTO 36004KT 9999 NCD 23/19 Q1016=
201606250650 METAR ESMX 250650Z AUTO VRB03KT 9999 NCD 23/18 Q1016=
201606250620 METAR ESMX 250620Z AUTO VRB03KT 9999 NCD 22/18 Q1016=
201606250550 METAR ESMX 250550Z AUTO VRB02KT 9999 NCD 22/18 Q1016=
201606250520 METAR ESMX 250520Z AUTO 00000KT 9999 NCD 22/19 Q1016=
201606250450 METAR ESMX 250450Z AUTO 00000KT 9999 NCD 21/18 Q1016=
201606250420 METAR ESMX 250420Z AUTO VRB02KT 5000 NCD 19/19 Q1016=
201606250350 METAR ESMX 250350Z AUTO 16002KT 0400 R01/1200D R19/0450N FG FEW100/// 18/18 Q1016=
201606250320 METAR ESMX 250320Z AUTO 27004KT 3200 BR FEW100/// 18/17 Q1016 RERA=
201606250250 METAR ESMX 250250Z AUTO VRB03KT 6000 BR FEW100/// 18/18 Q1016=
201606250220 METAR ESMX 250220Z AUTO 04003KT 340V110 5000 BR NCD 19/18 Q1016=
201606250150 METAR ESMX 250150Z AUTO 35005KT 3500 RA NCD 18/18 Q1016=
201606250120 METAR ESMX 250120Z AUTO 20005KT 170V240 6000 RA FEW021/// 19/18 Q1018=
201606250050 METAR ESMX 250050Z AUTO 22005KT 9999 -RA FEW066/// 18/17 Q1017=
201606250020 METAR ESMX 250020Z AUTO 23003KT 9999 NCD 18/17 Q1017=
201606242350 METAR ESMX 242350Z AUTO 00000KT 9999 NCD 18/16 Q1017=
201606242320 METAR ESMX 242320Z AUTO 23003KT 9999 NCD 19/16 Q1017=
201606242250 METAR ESMX 242250Z AUTO 21003KT 9999 NCD 19/17 Q1017=
201606242220 METAR ESMX 242220Z AUTO 19005KT 9999 NCD 20/17 Q1017=
201606242150 METAR ESMX 242150Z AUTO 25003KT 9999 NCD 20/16 Q1016=
201606242120 METAR ESMX 242120Z AUTO 26004KT 9999 NCD 21/17 Q1017=
201606242050 METAR ESMX 242050Z AUTO 27005KT 9999 NCD 22/17 Q1016=
201606242020 METAR ESMX 242020Z AUTO 27004KT 9999 NCD 22/17 Q1016=
201606241950 METAR ESMX 241950Z AUTO 24004KT 9999 NCD 23/17 Q1016=
201606241920 METAR ESMX 241920Z AUTO 25004KT 9999 NCD 24/17 Q1016=
201606241850 METAR ESMX 241850Z AUTO 25004KT 9999 NCD 26/17 Q1016=
201606241820 METAR ESMX 241820Z AUTO 23008KT 9999 NCD 27/17 Q1016=
201606241750 METAR ESMX 241750Z AUTO 22008KT 9999 NCD 28/16 Q1015=
201606241720 METAR ESMX 241720Z AUTO 24008KT 9999 NCD 28/15 Q1015=
201606241650 METAR ESMX 241650Z AUTO 23009KT 200V260 9999 NCD 29/15 Q1015=
201606241620 METAR ESMX 241620Z AUTO 19009KT 150V210 9999 NCD 29/16 Q1015=
201606241550 METAR ESMX 241550Z AUTO 20009KT 9999 FEW043/// 29/18 Q1015=
201606241520 METAR ESMX 241520Z 20007KT 150V230 9999 FEW040TCU 29/18 Q1015=
201606241450 METAR ESMX 241450Z 19008KT 150V220 9999 SCT040TCU SCT080 29/18 Q1015=
201606241420 METAR ESMX 241420Z 19010KT 150V230 9999 SCT040TCU SCT200 28/18 Q1016=
201606241350 METAR ESMX 241350Z 18006KT 130V210 9999 FEW035TCU SCT200 28/18 Q1015=
201606241320 METAR ESMX 241320Z AUTO 19009KT 9999 SCT037/// 27/18 Q1016=
201606241250 METAR ESMX 241250Z AUTO 22008KT 180V250 9999 FEW034/// 27/18 Q1016=
201606241220 METAR ESMX 241220Z AUTO 21010KT 180V250 9999 SCT032/// 27/18 Q1016=
201606241150 METAR ESMX 241150Z AUTO 22010KT 170V240 9999 FEW030/// 27/18 Q1017=
201606241120 METAR ESMX 241120Z AUTO 21010KT 9999 FEW029/// 26/18 Q1017=
201606241050 METAR ESMX 241050Z AUTO 19010KT 160V240 9999 SCT027/// 26/18 Q1016=
201606241020 METAR ESMX 241020Z AUTO VRB04KT 9999 FEW024/// 25/18 Q1016=
201606240950 METAR ESMX 240950Z AUTO 19006KT 150V220 9999 FEW017/// 25/19 Q1017=
201606240920 METAR ESMX 240920Z AUTO 17003KT 120V230 9999 FEW098/// 24/20 Q1016=
201606240850 METAR ESMX 240850Z VRB03KT 9999 FEW010 BKN080 22/18 Q1016=
201606240820 METAR ESMX 240820Z VRB02KT 9999 FEW010 SCT045 BKN080 21/18 Q1016=
201606240750 METAR ESMX 240750Z VRB03KT 9999 SCT010 BKN080 21/18 Q1016=
201606240720 METAR ESMX 240720Z 07003KT 010V110 9999 FEW025 SCT045 BKN080 21/19 Q1016 RERA=
201606240650 METAR ESMX 240650Z AUTO 17003KT 140V210 9999 NCD 20/18 Q1016=
201606240620 METAR ESMX 240620Z AUTO 16005KT 130V190 9999 NCD 19/18 Q1017=
201606240550 METAR ESMX 240550Z AUTO VRB02KT 9999 -RA NCD 18/18 Q1016=
201606240520 METAR ESMX 240520Z AUTO VRB01KT 9999 -RA NCD 18/17 Q1016=
201606240450 METAR ESMX 240450Z AUTO 16005KT 110V190 9999 FEW110/// 19/17 Q1016=
201606240420 METAR ESMX 240420Z AUTO 17003KT 130V190 9999 SCT068/// 19/16 Q1017=
201606240350 METAR ESMX 240350Z AUTO 00000KT 9999 NCD 16/15 Q1017=
201606240320 METAR ESMX 240320Z AUTO VRB01KT 9999 NCD 16/15 Q1017=
201606240250 METAR ESMX 240250Z AUTO 18001KT 9999 NCD 15/15 Q1017=
201606240220 METAR ESMX 240220Z AUTO 00000KT 9999 NCD 16/15 Q1016=
201606240150 METAR ESMX 240150Z AUTO 00000KT 9999 NCD 16/15 Q1017=
201606240120 METAR ESMX 240120Z AUTO 18004KT 9999 FEW084/// SCT099/// 18/16 Q1017=
201606240050 METAR ESMX 240050Z AUTO 18005KT 9999 SCT093/// 18/15 Q1017=
201606240020 METAR ESMX 240020Z 16008KT CAVOK 19/15 Q1017=
201606232350 METAR ESMX 232350Z 16007KT CAVOK 19/15 Q1018=
201606232320 METAR ESMX 232320Z 15007KT CAVOK 19/15 Q1018=
201606232250 METAR ESMX 232250Z 15007KT 120V190 CAVOK 19/15 Q1018=
201606232220 METAR ESMX 232220Z 15009KT CAVOK 20/14 Q1018=
201606232150 METAR ESMX 232150Z AUTO 16008KT 120V190 9999 FEW054/// SCT100/// 20/14 Q1018 REDZ=
201606232120 METAR ESMX 232120Z AUTO 15008KT 110V180 9999 SCT055/// BKN110/// 20/14 Q1018=
201606232050 METAR ESMX 232050Z AUTO 13008KT 9999 FEW110/// 21/15 Q1019=
201606232020 METAR ESMX 232020Z AUTO 14008KT 100V170 9999 FEW061/// 21/15 Q1019=
201606231950 METAR ESMX 231950Z AUTO 13006KT 100V170 9999 FEW051/// 21/15 Q1019=
201606231920 METAR ESMX 231920Z AUTO 16005KT 9999 BKN061/// 21/15 Q1020=
201606231850 METAR ESMX 231850Z AUTO 16005KT 9999 -RA NCD 22/15 Q1020=
201606231820 METAR ESMX 231820Z AUTO 16006KT 9999 NCD 22/15 Q1020=
201606231750 METAR ESMX 231750Z AUTO 18009KT 9999 FEW110/// 23/15 Q1020=
201606231720 METAR ESMX 231720Z 18010KT CAVOK 23/15 Q1021=
201606231650 METAR ESMX 231650Z 17006KT 9999 FEW045 24/15 Q1021=
201606231620 METAR ESMX 231620Z 18005KT 9999 FEW048 BKN065 24/15 Q1021=
201606231550 METAR ESMX 231550Z 18006KT CAVOK 25/14 Q1021=
201606231520 METAR ESMX 231520Z 15005KT CAVOK 25/14 Q1022=
201606231450 METAR ESMX 231450Z 18005KT 140V220 9999 FEW047 BKN069 26/14 Q1022=
201606231420 METAR ESMX 231420Z 17006KT 120V210 9999 FEW045 BKN063 25/14 Q1022=
201606231350 METAR ESMX 231350Z 16006KT 9999 FEW045 BKN051 25/14 Q1023=
201606231320 METAR ESMX 231320Z 25006KT 210V290 9999 BKN048 25/14 Q1023=
201606231250 METAR ESMX 231250Z 18008KT 150V220 9999 SCT045 26/14 Q1023=
201606231220 METAR ESMX 231220Z 21009KT 110V240 9999 FEW044 SCT071 26/13 Q1023=
201606231150 METAR ESMX 231150Z VRB05KT 9999 FEW043 25/13 Q1023=
201606231120 METAR ESMX 231120Z 24005KT 140V290 9999 FEW043 25/13 Q1023=
201606231050 METAR ESMX 231050Z 25007KT 150V300 CAVOK 24/13 Q1024=
201606231020 METAR ESMX 231020Z 24007KT 150V320 CAVOK 24/13 Q1024=
201606230950 METAR ESMX 230950Z 22008KT 190V270 CAVOK 23/12 Q1024=
201606230920 METAR ESMX 230920Z 27007G20KT 230V340 9999 FEW038 23/12 Q1024=
201606230850 METAR ESMX 230850Z 23008KT 190V280 9999 FEW036 22/12 Q1024=
201606230820 METAR ESMX 230820Z 22008KT 200V260 9999 FEW037 22/13 Q1024=
201606230750 METAR ESMX 230750Z 27007KT 9999 FEW040 21/12 Q1024=
201606230720 METAR ESMX 230720Z 25008KT 220V280 9999 FEW036 20/12 Q1024=
201606230650 METAR ESMX 230650Z 23009KT 200V290 CAVOK 20/12 Q1024=
201606230620 METAR ESMX 230620Z 23007KT 210V280 CAVOK 19/13 Q1024=
201606230550 METAR ESMX 230550Z 23006KT 200V280 CAVOK 19/13 Q1024=
201606230520 METAR ESMX 230520Z 23004KT 200V300 CAVOK 18/13 Q1024=
201606230450 METAR ESMX 230450Z 22004KT 180V250 CAVOK 17/14 Q1024=
201606230420 METAR ESMX 230420Z 20004KT CAVOK 16/14 Q1023=
201606230350 METAR ESMX 230350Z 20003KT CAVOK 15/14 Q1024=
201606230320 METAR ESMX 230320Z AUTO 19004KT 7000 FEW100/// 14/14 Q1024=
201606230250 METAR ESMX 230250Z AUTO 18005KT 1600 BR NCD 14/14 Q1023=
201606230220 METAR ESMX 230220Z AUTO 17004KT 6000 BR NCD 14/13 Q1023=
201606230150 METAR ESMX 230150Z AUTO 19005KT 7000 BR NCD 13/12 Q1023=
201606230120 METAR ESMX 230120Z AUTO 17004KT 9999 BKN035/// 16/14 Q1023=
201606230050 METAR ESMX 230050Z AUTO 18004KT 9999 BKN034/// 15/14 Q1023=
201606230020 METAR ESMX 230020Z 18003KT 9999 BKN029 15/14 Q1023=
201606222350 METAR ESMX 222350Z 18003KT 9999 BKN026 16/14 Q1023=
201606222320 METAR COR ESMX 222320Z 18003KT 9999 OVC022 16/15 Q1023=
201606222250 METAR ESMX 222250Z 19003KT 9999 SCT021 BKN029 OVC034 16/15 Q1023=
201606222220 METAR ESMX 222220Z 18004KT 9999 SCT018 BKN022 OVC028 17/15 Q1023=
201606222150 METAR ESMX 222150Z 18005KT 9999 FEW019 SCT026 BKN038 17/15 Q1023=
201606222120 METAR ESMX 222120Z 18004KT 9999 FEW022 BKN025 OVC041 17/15 Q1023 RERA=
201606222050 METAR ESMX 222050Z 18008KT 9999 FEW018 SCT027 BKN038 17/15 Q1023 RERA=
201606222020 METAR ESMX 222020Z 18007KT 9999 SCT028 BKN038 19/13 Q1023=
201606221950 METAR ESMX 221950Z 17007KT 9999 SCT033 BKN044 19/13 Q1023=
201606221920 METAR ESMX 221920Z 17007KT 9999 FEW039 BKN043 20/12 Q1022=
201606221850 METAR ESMX 221850Z 16008KT CAVOK 20/12 Q1022=
201606221820 METAR ESMX 221820Z 16010KT 120V190 CAVOK 20/11 Q1022=
201606221750 METAR ESMX 221750Z 16010KT CAVOK 21/11 Q1022=
201606221720 METAR ESMX 221720Z 18010KT CAVOK 22/12 Q1022=
201606221650 METAR ESMX 221650Z 17009KT 9999 SCT048 BKN091 22/13 Q1022=
201606221620 METAR ESMX 221620Z 17009KT 9999 BKN048 22/13 Q1022=
201606221550 METAR ESMX 221550Z 18009KT 9999 BKN045 22/12 Q1022=
201606221520 METAR ESMX 221520Z 18009KT 9999 BKN047 23/12 Q1022=
201606221450 METAR COR ESMX 221450Z 17008KT 130V200 9999 BKN045 23/12 Q1022=
201606221420 METAR ESMX 221420Z 19008KT 150V220 9999 BKN052 23/11 Q1022=
201606221350 METAR ESMX 221350Z 19008KT CAVOK 24/10 Q1022=
201606221320 METAR ESMX 221320Z 21008KT 170V230 CAVOK 23/10 Q1023=
201606221250 METAR ESMX 221250Z 18008KT 140V210 9999 BKN053 BKN091 23/10 Q1023=
201606221220 METAR ESMX 221220Z 19009KT 140V210 CAVOK 23/09 Q1023=
201606221150 METAR ESMX 221150Z 20010KT 150V230 CAVOK 24/09 Q1023=
201606221120 METAR ESMX 221120Z 18009KT CAVOK 23/09 Q1023=
201606221050 METAR ESMX 221050Z 20008KT 150V250 9999 SCT048 23/09 Q1023=
201606221020 METAR ESMX 221020Z 20007KT 160V250 9999 SCT048 22/09 Q1023=
201606220950 METAR ESMX 220950Z 20009KT 150V240 9999 SCT044 21/09 Q1023=
201606220920 METAR ESMX 220920Z 19007KT 140V240 9999 FEW044 21/10 Q1023=
201606220850 METAR ESMX 220850Z 22007KT 170V280 9999 FEW039 20/10 Q1023=
201606220820 METAR ESMX 220820Z 21007KT 180V260 9999 FEW032 19/11 Q1023=
201606220750 METAR ESMX 220750Z 26007KT 230V290 9999 FEW030 19/11 Q1023=
201606220720 METAR ESMX 220720Z 19007KT 160V240 9999 FEW028 18/11 Q1023=
201606220650 METAR ESMX 220650Z 20007KT 160V240 9999 FEW025 18/12 Q1023=
201606220620 METAR ESMX 220620Z 22006KT 190V250 CAVOK 17/13 Q1023=
201606220550 METAR ESMX 220550Z 23005KT CAVOK 15/13 Q1023=
201606220520 METAR ESMX 220520Z 22005KT CAVOK 14/13 Q1022=
201606220450 METAR ESMX 220450Z 21003KT CAVOK 12/12 Q1022=
201606220420 METAR ESMX 220420Z 21003KT 0500 R01/P2000N R19/0900N BCFG VV002 11/11 Q1022=
201606220350 METAR ESMX 220350Z 22004KT 0150 R01/0400N R19/0325U FG VV001 10/10 Q1022=
201606220320 METAR ESMX 220320Z AUTO 21004KT 0100 R01/0250N R19/0225N FG VV000 10/10 Q1022=
201606220250 METAR ESMX 220250Z AUTO 19004KT 0350 R01/0600N R19/P2000N FG VV000 09/09 Q1022=
201606220220 METAR ESMX 220220Z AUTO 18003KT 0600 R01/1500D R19/P2000N BCFG NCD 09/09 Q1021=
201606220150 METAR ESMX 220150Z AUTO 19004KT 1700 BCFG NCD 10/09 Q1021=
201606220120 METAR ESMX 220120Z AUTO 20002KT 0250 R01/0700N R19/0650N BCFG NCD 09/08 Q1021=
201606220050 METAR ESMX 220050Z AUTO 22003KT 5000 BR NCD 11/10 Q1021=
201606220020 METAR ESMX 220020Z AUTO 24003KT 9000 NCD 11/10 Q1021=
201606212350 METAR ESMX 212350Z 23004KT CAVOK 11/10 Q1020=
201606212320 METAR ESMX 212320Z 24005KT CAVOK 11/10 Q1020=
201606212250 METAR ESMX 212250Z 24006KT CAVOK 11/09 Q1020=
201606212220 METAR ESMX 212220Z 24004KT CAVOK 11/09 Q1020=
201606212150 METAR ESMX 212150Z 21004KT CAVOK 11/10 Q1019=
201606212120 METAR ESMX 212120Z 24005KT CAVOK 11/10 Q1019=
201606212050 METAR ESMX 212050Z 22003KT CAVOK 13/10 Q1019=
201606212020 METAR ESMX 212020Z 25005KT CAVOK 14/10 Q1018=
201606211950 METAR ESMX 211950Z 25006KT 9999 FEW035 15/10 Q1018=
201606211920 METAR ESMX 211920Z 25007KT 9999 FEW035 16/10 Q1017=
201606211850 METAR ESMX 211850Z 25007KT 9999 FEW038 17/11 Q1017=
201606211820 METAR ESMX 211820Z 26009KT 9999 FEW038 17/10 Q1017=
201606211750 METAR ESMX 211750Z 27010KT 9999 FEW035 18/10 Q1016=
201606211720 METAR ESMX 211720Z 26011KT 9999 FEW037 SCT043 18/11 Q1016=
201606211650 METAR ESMX 211650Z 25010KT 9999 FEW028 19/12 Q1016=
201606211620 METAR ESMX 211620Z 25009KT 9999 FEW017 SCT022 19/14 Q1015=
201606211550 METAR ESMX 211550Z 23006KT 210V270 9999 FEW011 SCT019 BKN038 18/16 Q1015=
201606211520 METAR ESMX 211520Z 23005KT 200V260 9999 FEW022 SCT050 17/15 Q1015=
201606211450 METAR ESMX 211450Z 23007KT 9000 BR FEW005 SCT009 BKN030 16/15 Q1015=
201606211420 METAR ESMX 211420Z 21008KT 180V250 9999 DZ FEW008 BKN010 OVC020 17/14 Q1015=
201606211350 METAR ESMX 211350Z 18008KT 9999 FEW007 SCT009 BKN017 17/14 Q1015=
201606211320 METAR ESMX 211320Z 19008KT 7000 BR FEW009 SCT015 OVC021 16/15 Q1015=
201606211250 METAR ESMX 211250Z 20009KT 9999 -DZ FEW016 BKN018 17/14 Q1014=
201606211220 METAR ESMX 211220Z 19008KT 9999 FEW014 BKN020 17/13 Q1014=
201606211150 METAR ESMX 211150Z 18008KT 140V200 9999 FEW013 BKN022 16/13 Q1014=
201606211120 METAR ESMX 211120Z 18008KT 9999 FEW019 BKN027 16/13 Q1014=
201606211050 METAR ESMX 211050Z 18011KT 9999 FEW020 OVC029 17/12 Q1014=
201606211020 METAR ESMX 211020Z 17010KT 9999 FEW019 BKN035 BKN055 17/13 Q1014=
201606210950 METAR ESMX 210950Z 18008KT 9999 SCT016 BKN037 17/13 Q1014=
201606210920 METAR ESMX 210920Z 16005KT 130V200 9999 FEW018 SCT022 BKN027 16/13 Q1013=
201606210850 METAR ESMX 210850Z 15005KT 120V190 9999 FEW011 SCT045 BKN058 16/14 Q1013=
201606210820 METAR ESMX 210820Z 13005KT 110V170 9999 -DZ FEW020 BKN045 16/14 Q1013=
201606210750 METAR ESMX 210750Z 14004KT 100V170 9999 -RA FEW006 BKN045 15/14 Q1013=
201606210720 METAR ESMX 210720Z 15005KT 9999 -RA FEW025 BKN070 15/14 Q1013=
201606210650 METAR ESMX 210650Z 15005KT 120V180 9999 FEW025 BKN090 15/13 Q1013=
201606210620 METAR ESMX 210620Z 16004KT 120V190 9999 FEW010 BKN100 15/13 Q1013=
201606210550 METAR ESMX 210550Z 16005KT 9999 FEW006 BKN080 14/12 Q1013=
201606210520 METAR ESMX 210520Z 15005KT 100V180 9999 FEW007 BKN055 14/12 Q1013=
201606210450 METAR ESMX 210450Z 16005KT 130V200 9999 FEW007 BKN060 13/12 Q1013=
201606210420 METAR ESMX 210420Z 15005KT 9999 SCT006 BKN060 13/12 Q1013=
201606210350 METAR ESMX 210350Z 15004KT 120V190 9999 FEW005 SCT030 BKN080 13/11 Q1013=
201606210320 METAR ESMX 210320Z AUTO 15004KT 110V190 9999 FEW046/// 12/11 Q1013=
201606210250 METAR ESMX 210250Z AUTO 14005KT 9999 FEW006/// 12/11 Q1013=
201606210220 METAR ESMX 210220Z AUTO VRB03KT 9999 SCT006/// BKN050/// 12/11 Q1013=
201606210150 METAR COR ESMX 210150Z 16007KT CAVOK 12/11 Q1013=
201606210120 METAR ESMX 210120Z AUTO 15008KT 9999 NCD 12/11 Q1013=
201606210050 METAR ESMX 210050Z AUTO 15007KT 9999 NCD 12/11 Q1014=
201606210020 METAR ESMX 210020Z AUTO 16007KT 9999 NCD 12/11 Q1014=
201606202350 METAR ESMX 202350Z 15007KT CAVOK 12/11 Q1014=
201606202320 METAR COR ESMX 202320Z 16006KT CAVOK 13/11 Q1014=
201606202250 METAR ESMX 202250Z 16007KT CAVOK 13/10 Q1014=
201606202220 METAR ESMX 202220Z 16007KT 120V200 CAVOK 13/10 Q1015=
201606202150 METAR ESMX 202150Z 16006KT CAVOK 13/10 Q1015=
201606202120 METAR ESMX 202120Z 16006KT CAVOK 13/10 Q1015=
201606202050 METAR ESMX 202050Z 16008KT CAVOK 14/10 Q1015=
201606202020 METAR ESMX 202020Z 16008KT CAVOK 14/10 Q1015=
201606201950 METAR ESMX 201950Z 16008KT CAVOK 15/09 Q1015=
201606201920 METAR ESMX 201920Z 16008KT CAVOK 15/09 Q1015=
201606201850 METAR ESMX 201850Z 17010KT CAVOK 16/09 Q1015=
201606201820 METAR ESMX 201820Z 17010KT CAVOK 17/09 Q1015=
201606201750 METAR ESMX 201750Z 16010KT 9999 FEW046 BKN200 18/09 Q1015=
201606201720 METAR ESMX 201720Z 17010KT 9999 FEW042 SCT200 18/09 Q1015=
201606201650 METAR ESMX 201650Z 18009KT CAVOK 19/09 Q1015=
201606201620 METAR ESMX 201620Z 17010KT CAVOK 20/09 Q1015=
201606201550 METAR ESMX 201550Z 17008KT 9999 FEW050 20/09 Q1016=
201606201520 METAR ESMX 201520Z 16008KT 110V190 CAVOK 20/08 Q1016=
201606201450 METAR ESMX 201450Z 21008KT 170V240 CAVOK 20/07 Q1016=
201606201420 METAR ESMX 201420Z 20010KT 170V280 CAVOK 21/07 Q1016=
201606201350 METAR ESMX 201350Z 19009KT 150V250 9999 FEW045 21/07 Q1017=
201606201320 METAR ESMX 201320Z 18010KT 150V230 9999 FEW048 20/07 Q1017=
201606201250 METAR ESMX 201250Z 19010KT 130V230 9999 FEW048 20/06 Q1017=
201606201220 METAR ESMX 201220Z 21009KT 180V250 9999 FEW045 20/07 Q1018=
201606201150 METAR ESMX 201150Z 21009KT 140V290 9999 FEW045 19/07 Q1018=
201606201120 METAR ESMX 201120Z 21009KT 170V240 9999 FEW042 19/07 Q1018=
201606201050 METAR ESMX 201050Z 19008KT 150V250 9999 FEW040 SCT089 18/07 Q1018=
201606201020 METAR ESMX 201020Z 21008KT 180V260 9999 FEW038 SCT043 18/07 Q1019=
201606200950 METAR ESMX 200950Z 17009KT 140V210 9999 FEW034 BKN039 16/07 Q1019=
201606200920 METAR ESMX 200920Z 19006KT 160V230 9999 FEW029 BKN039 17/08 Q1019=
201606200850 METAR ESMX 200850Z 20010KT 9999 FEW025 OVC035 15/07 Q1019=
201606200820 METAR ESMX 200820Z 20007KT 9999 FEW024 OVC033 15/09 Q1020=
201606200750 METAR ESMX 200750Z 21008KT 9999 FEW025 BKN033 14/08 Q1020=
201606200720 METAR ESMX 200720Z 23006KT 190V270 9999 FEW024 BKN030 14/08 Q1019=
201606200650 METAR COR ESMX 200650Z 23007KT 200V280 9999 FEW019 BKN033 14/08 Q1019=
201606200620 METAR ESMX 200620Z 23006KT 200V280 9999 FEW032 14/09 Q1019=
201606200550 METAR ESMX 200550Z 23008KT 9999 SCT020 BKN032 13/09 Q1019=
201606200520 METAR ESMX 200520Z 22008KT 9999 BKN033 12/09 Q1019=
201606200450 METAR ESMX 200450Z 22006KT 9999 SCT035 SCT080 11/09 Q1020=
201606200420 METAR ESMX 200420Z 21006KT 9999 FEW030 SCT080 10/09 Q1020=
201606200350 METAR ESMX 200350Z 19006KT 9999 FEW030 BKN100 10/08 Q1020=
201606200320 METAR ESMX 200320Z AUTO 18006KT 9999 NCD 09/08 Q1020=
201606200250 METAR ESMX 200250Z AUTO 18005KT 9999 NCD 09/08 Q1020=
201606200220 METAR ESMX 200220Z AUTO 19005KT 9999 NCD 08/07 Q1020=
201606200150 METAR ESMX 200150Z AUTO 21004KT 9999 SCT022/// 08/08 Q1020=
201606200120 METAR ESMX 200120Z AUTO 19005KT 9999 FEW031/// 09/08 Q1020=
201606200050 METAR ESMX 200050Z AUTO 23005KT 9999 BKN030/// 10/08 Q1019=
201606200020 METAR ESMX 200020Z AUTO 20005KT 9999 FEW028/// BKN033/// 11/09 Q1019=
201606192350 METAR ESMX 192350Z AUTO 20005KT 9999 FEW027/// SCT032/// 10/09 Q1019=
201606192320 METAR ESMX 192320Z 19005KT 9999 SCT025 10/08 Q1019=
201606192250 METAR ESMX 192250Z 20004KT 9999 FEW025 SCT035 09/07 Q1019=
201606192220 METAR ESMX 192220Z 21005KT 9999 FEW025 SCT080 10/07 Q1019=
201606192150 METAR ESMX 192150Z 22005KT 9999 FEW030 10/08 Q1019=
201606192120 METAR ESMX 192120Z 21006KT 9999 FEW030 11/08 Q1019=
201606192050 METAR ESMX 192050Z 21006KT 9999 FEW037 12/08 Q1019=
201606192020 METAR ESMX 192020Z 22007KT 9999 FEW037 13/08 Q1019=
201606191950 METAR ESMX 191950Z 23007KT 9999 FEW037 14/08 Q1018=
201606191920 METAR ESMX 191920Z 23008KT 9999 FEW037 15/07 Q1018=
201606191850 METAR ESMX 191850Z 23010KT 210V280 9999 SCT035 15/07 Q1017=
201606191820 METAR ESMX 191820Z 22010KT 9999 FEW040 16/07 Q1017=
201606191750 METAR ESMX 191750Z 22010KT 9999 FEW045 SCT200 16/06 Q1017=
201606191720 METAR ESMX 191720Z 25010KT 210V280 9999 FEW045 SCT200 16/06 Q1017=
201606191650 METAR ESMX 191650Z AUTO 25011KT 9999 FEW041/// 16/07 Q1017=
201606191620 METAR ESMX 191620Z AUTO 25011KT 9999 NCD 18/07 Q1017=
201606191550 METAR ESMX 191550Z 24013KT 210V280 9999 FEW043 19/07 Q1016=
201606191520 METAR ESMX 191520Z 22013KT 9999 SCT044 19/07 Q1017=
201606191450 METAR ESMX 191450Z 21013KT 180V250 9999 SCT045 19/07 Q1016=
201606191420 METAR ESMX 191420Z 20014KT 9999 SCT043 19/07 Q1016=
201606191350 METAR ESMX 191350Z 22011KT 170V250 9999 FEW043 19/08 Q1016=
201606191320 METAR ESMX 191320Z 21014G25KT 180V250 9999 FEW041 19/08 Q1016=
201606191250 METAR ESMX 191250Z 20015KT 170V230 9999 FEW039 19/07 Q1016=
201606191220 METAR ESMX 191220Z 21013KT 9999 SCT040 19/08 Q1016=
201606191150 METAR ESMX 191150Z 22013KT 190V250 9999 FEW036 18/08 Q1016=
201606191120 METAR ESMX 191120Z 23013KT 9999 SCT036 18/08 Q1016=
201606191050 METAR ESMX 191050Z 21012KT 9999 BKN032 16/08 Q1016=
201606191020 METAR ESMX 191020Z AUTO 20014KT 170V240 9999 BKN031/// 17/08 Q1016=
201606190950 METAR ESMX 190950Z AUTO 20015KT 9999 BKN027/// 16/08 Q1015=
201606190920 METAR ESMX 190920Z AUTO 21014KT 9999 OVC023/// 17/09 Q1015=
201606190850 METAR ESMX 190850Z AUTO 21011KT 9999 OVC023/// 15/09 Q1015=
201606190820 METAR ESMX 190820Z AUTO 22011KT 9999 BKN023/// 14/08 Q1015=
201606190750 METAR ESMX 190750Z AUTO 23011KT 9999 OVC022/// 14/09 Q1015=
201606190720 METAR ESMX 190720Z AUTO 23012KT 9999 OVC022/// 14/08 Q1015=
201606190650 METAR ESMX 190650Z AUTO 22013KT 9999 OVC022/// 14/08 Q1014=
201606190620 METAR ESMX 190620Z AUTO 22013KT 9999 OVC022/// 14/08 Q1014=
201606190550 METAR ESMX 190550Z AUTO 23011KT 9999 BKN022/// 14/08 Q1014=
201606190520 METAR ESMX 190520Z AUTO 22013KT 9999 FEW018/// OVC020/// 14/08 Q1013=
201606190450 METAR ESMX 190450Z AUTO 22010KT 190V250 9999 FEW018/// BKN022/// 13/09 Q1013=
201606190420 METAR ESMX 190420Z AUTO 23010KT 200V260 9999 OVC019/// 13/09 Q1013=
201606190350 METAR ESMX 190350Z AUTO 23010KT 200V280 9999 OVC016/// 13/09 Q1013=
201606190320 METAR ESMX 190320Z AUTO 24009KT 9999 FEW016/// OVC019/// 13/10 Q1012=
201606190250 METAR ESMX 190250Z AUTO 25009KT 9999 FEW017/// OVC019/// 14/10 Q1012=
201606190220 METAR ESMX 190220Z AUTO 21007KT 9999 FEW017/// OVC022/// 14/11 Q1012=
201606190150 METAR ESMX 190150Z AUTO 22009KT 9999 OVC021/// 14/11 Q1012=
201606190120 METAR ESMX 190120Z AUTO 23008KT 9999 FEW019/// OVC027/// 14/11 Q1012=
201606190050 METAR ESMX 190050Z AUTO 22008KT 9999 OVC029/// 14/11 Q1012=
201606190020 METAR ESMX 190020Z AUTO 23008KT 9999 FEW019/// OVC027/// 14/12 Q1011=
201606182350 METAR ESMX 182350Z AUTO 22009KT 9999 BKN031/// 14/12 Q1011=
201606182320 METAR ESMX 182320Z AUTO 20008KT 9999 FEW034/// 13/11 Q1011=
201606182250 METAR ESMX 182250Z AUTO 22008KT 9999 FEW022/// BKN037/// 14/12 Q1011=
201606182220 METAR ESMX 182220Z AUTO 22008KT 9999 BKN038/// 14/12 Q1011=
201606182150 METAR ESMX 182150Z AUTO 21010KT 9999 OVC037/// 15/12 Q1011=
201606182120 METAR ESMX 182120Z AUTO 22007KT 9999 SCT038/// BKN046/// 15/12 Q1011=
201606182050 METAR ESMX 182050Z AUTO 22007KT 9999 BKN046/// 14/12 Q1011=
201606182020 METAR ESMX 182020Z AUTO 23005KT 9999 BKN048/// 14/12 Q1010=
201606181950 METAR ESMX 181950Z AUTO 22008KT 9999 BKN046/// 15/12 Q1010=
201606181920 METAR ESMX 181920Z AUTO 21009KT 9999 OVC048/// 15/12 Q1010=
201606181850 METAR ESMX 181850Z AUTO 22009KT 9999 OVC042/// 16/12 Q1010=
201606181820 METAR ESMX 181820Z AUTO 23009KT 9999 OVC046/// 16/11 Q1010=
201606181750 METAR ESMX 181750Z AUTO 23010KT 9999 OVC045/// 16/11 Q1009=
201606181720 METAR ESMX 181720Z AUTO 24011KT 9999 FEW048/// SCT054/// 16/11 Q1009=
201606181650 METAR ESMX 181650Z AUTO 22012KT 9999 FEW026/// BKN031/// 17/11 Q1009=
201606181620 METAR ESMX 181620Z AUTO 23012KT 9999 BKN025/// OVC055/// 18/11 Q1009=
201606181550 METAR ESMX 181550Z AUTO 24012KT 9999 FEW025/// BKN051/// 17/11 Q1008=
201606181520 METAR ESMX 181520Z AUTO 24011KT 210V280 9999 FEW024/// SCT036/// BKN041/// 17/11 Q1008=
201606181450 METAR ESMX 181450Z AUTO 24012KT 9999 FEW025/// SCT033/// OVC039/// 16/11 Q1008=
201606181420 METAR ESMX 181420Z AUTO 24013KT 9999 FEW026/// SCT032/// OVC040/// 16/11 Q1008=
201606181350 METAR ESMX 181350Z AUTO 24010KT 9999 FEW023/// SCT030/// OVC044/// 17/12 Q1008=
201606181320 METAR ESMX 181320Z AUTO 24008KT 210V280 9999 FEW023/// SCT030/// BKN035/// 16/11 Q1008=
201606181250 METAR ESMX 181250Z AUTO 25012KT 9999 FEW016/// OVC038/// 16/11 Q1007=
201606181220 METAR ESMX 181220Z AUTO 24012KT 9999 FEW012/// SCT015/// BKN018/// 15/12 Q1007=
201606181150 METAR ESMX 181150Z AUTO 23011KT 200V260 9999 FEW016/// SCT020/// BKN023/// 15/12 Q1007=
201606181120 METAR ESMX 181120Z AUTO 24011KT 9999 FEW019/// SCT022/// BKN027/// 16/12 Q1006=
201606181050 METAR ESMX 181050Z AUTO 23012KT 9999 FEW020/// SCT026/// OVC029/// 16/11 Q1006=
201606181020 METAR ESMX 181020Z AUTO 25012KT 9999 FEW017/// SCT027/// BKN032/// 16/12 Q1005=
201606180950 METAR ESMX 180950Z AUTO 25010KT 210V280 9999 -DZ FEW015/// OVC017/// 15/12 Q1005=
201606180920 METAR ESMX 180920Z AUTO 25012KT 9999 -RA FEW016/// BKN022/// OVC030/// 16/12 Q1005=
201606180850 METAR ESMX 180850Z AUTO 24011KT 9999 FEW018/// SCT021/// BKN026/// 16/12 Q1004=
201606180820 METAR ESMX 180820Z AUTO 25013KT 9999 BKN019/// OVC030/// 16/12 Q1004=
201606180750 METAR ESMX 180750Z AUTO 25011KT 220V300 9999 FEW019/// BKN021/// OVC027/// 16/12 Q1003=
201606180720 METAR ESMX 180720Z AUTO 25011KT 9999 OVC017/// 16/12 Q1003=
201606180650 METAR ESMX 180650Z AUTO 25011KT 220V280 9999 BKN018/// 16/12 Q1003=
201606180620 METAR ESMX 180620Z AUTO 24013KT 9999 FEW017/// SCT019/// BKN021/// 16/12 Q1002=
201606180550 METAR ESMX 180550Z AUTO 25012KT 9999 SCT016/// BKN020/// BKN041/// 16/12 Q1002=
201606180520 METAR ESMX 180520Z AUTO 25012KT 9999 FEW014/// SCT018/// BKN035/// 15/12 Q1002=
201606180450 METAR ESMX 180450Z AUTO 25010KT 9999 SCT013/// BKN017/// BKN034/// 15/12 Q1001=
201606180420 METAR ESMX 180420Z AUTO 24010KT 9999 BKN014/// OVC029/// 14/12 Q1001=
201606180350 METAR ESMX 180350Z AUTO 26009KT 220V290 9999 FEW014/// OVC027/// 14/12 Q1001=
201606180320 METAR ESMX 180320Z AUTO 24010KT 9999 FEW018/// OVC027/// 14/11 Q1001=
201606180250 METAR ESMX 180250Z AUTO 26009KT 9999 FEW014/// SCT017/// BKN022/// 14/12 Q1001=
201606180220 METAR ESMX 180220Z AUTO 25010KT 220V290 9999 FEW015/// BKN023/// 14/12 Q1001=
201606180150 METAR ESMX 180150Z AUTO 24009KT 9999 BKN021/// 14/12 Q1001=
201606180120 METAR ESMX 180120Z AUTO 26010KT 9999 FEW013/// BKN018/// OVC022/// 14/12 Q1001=
201606180050 METAR ESMX 180050Z AUTO 27010KT 9999 BKN011/// 14/12 Q1001=
201606180020 METAR ESMX 180020Z AUTO 27009KT 240V300 9999 FEW009/// BKN011/// BKN110/// 14/12 Q1000=
201606172350 METAR ESMX 172350Z AUTO 27008KT 9999 FEW010/// SCT080/// 14/13 Q1000=
201606172320 METAR ESMX 172320Z AUTO 26008KT 9999 FEW010/// SCT081/// 14/13 Q1000=
201606172250 METAR ESMX 172250Z AUTO 27010KT 9999 BKN079/// 14/13 Q0999=
201606172220 METAR ESMX 172220Z AUTO 27010KT 9999 OVC061/// 15/13 Q0999=
201606172150 METAR ESMX 172150Z AUTO 27009KT 9999 -DZ BKN062/// 15/13 Q0999=
201606172120 METAR ESMX 172120Z AUTO 27008KT 9999 -DZ FEW067/// BKN080/// 15/13 Q0999 REDZ=
201606172050 METAR ESMX 172050Z AUTO 28008KT 9999 FEW091/// 15/13 Q0999=
201606172020 METAR ESMX 172020Z AUTO 28008KT 9999 FEW090/// 15/13 Q0999=
201606171950 METAR ESMX 171950Z AUTO 29010KT 9999 NCD 15/13 Q0998=
201606171920 METAR ESMX 171920Z 29009KT 9999 FEW025 SCT045 15/13 Q0998=
201606171850 METAR ESMX 171850Z 27006KT 9999 -RA FEW026 SCT044 15/14 Q0998 REDZ=
201606171820 METAR ESMX 171820Z 27009KT 9999 -RA FEW025 SCT044 15/14 Q0998=
201606171750 METAR ESMX 171750Z 28010KT 9999 -RA FEW024 SCT039 BKN047 15/13 Q0998 RESHRA=
201606171720 METAR ESMX 171720Z 29008KT 9999 -RA FEW037 SCT053 BKN069 16/13 Q0998=
201606171650 METAR ESMX 171650Z 28006KT 9999 -DZ FEW032 BKN043 17/13 Q0998 RERA=
201606171620 METAR ESMX 171620Z 27004KT 9999 BKN036 BKN047 17/14 Q0998=
201606171550 METAR ESMX 171550Z 31005KT 9999 -RA FEW023 SCT038 BKN045 19/13 Q0998=
201606171520 METAR ESMX 171520Z 29007KT 9999 FEW037 SCT047 20/13 Q0999=
201606171450 METAR ESMX 171450Z 31007KT 280V340 9999 FEW033 SCT046 19/12 Q0999=
201606171420 METAR ESMX 171420Z 30005KT 260V340 9999 FEW035 20/12 Q0999=
201606171350 METAR ESMX 171350Z 33004KT 9999 FEW033 SCT037 20/12 Q0999=
201606171320 METAR ESMX 171320Z 04004KT 350V090 9999 FEW030 SCT037 19/12 Q1000=
201606171250 METAR ESMX 171250Z VRB03KT 9999 FEW024 SCT033 19/11 Q1000=
201606171220 METAR ESMX 171220Z 32006KT 290V360 9999 FEW034 SCT054 20/11 Q0999=
201606171150 METAR ESMX 171150Z 28005KT 240V320 9999 FEW044 20/11 Q1000=
201606171120 METAR ESMX 171120Z 26003KT 200V320 9999 FEW026 19/12 Q1000=
201606171050 METAR ESMX 171050Z 19005KT 120V230 9999 FEW025 18/12 Q1001=
201606171020 METAR ESMX 171020Z 16004KT 120V200 9999 FEW030 18/12 Q1001=
201606170950 METAR ESMX 170950Z 15004KT 110V170 9999 FEW020 SCT084 18/11 Q1001=
201606170920 METAR ESMX 170920Z 10004KT 030V150 CAVOK 18/11 Q1002=
201606170850 METAR ESMX 170850Z VRB03KT 9999 FEW040 17/11 Q1002=
201606170820 METAR ESMX 170820Z 17005KT 120V240 9999 SCT023 18/12 Q1002=
201606170750 METAR ESMX 170750Z 18005KT 120V220 9999 SCT025 18/12 Q1002=
201606170720 METAR ESMX 170720Z VRB03KT CAVOK 17/12 Q1002=
201606170650 METAR ESMX 170650Z VRB03KT CAVOK 17/11 Q1002=
201606170620 METAR ESMX 170620Z 26003KT 230V320 9999 FEW006 SCT060 15/12 Q1002=
201606170550 METAR ESMX 170550Z 00000KT 9999 FEW003 SCT032 BKN060 14/13 Q1002=
201606170520 METAR ESMX 170520Z VRB03KT 8000 BR BKN003 BKN090 13/12 Q1002=
201606170450 METAR ESMX 170450Z VRB02KT 1200 R01/1200D R19/P2000N VV002 12/12 Q1002=
201606170420 METAR ESMX 170420Z VRB02KT 0200 R01/0450N R19/0400N FG VV002 12/12 Q1003=
201606170350 METAR ESMX 170350Z VRB02KT 0200 R01/0450N R19/0600N FG VV002 12/12 Q1003=
201606170320 METAR ESMX 170320Z AUTO VRB03KT 0200 R01/0400N R19/1000N FG VV001 12/12 Q1003=
201606170250 METAR ESMX 170250Z AUTO 28003KT 0150 R01/0400N R19/0450N FG VV001 12/11 Q1003=
201606170220 METAR ESMX 170220Z AUTO 19004KT 0150 R01/0400U R19/0400N FG VV001 12/12 Q1003=
201606170150 METAR ESMX 170150Z AUTO 23003KT 0200 R01/0450N R19/0600D FG VV001 12/12 Q1003=
201606170120 METAR ESMX 170120Z AUTO 23003KT 1600 BR BKN001/// BKN003/// 12/12 Q1003=
201606170050 METAR ESMX 170050Z AUTO 22005KT 4100 BR OVC001/// 13/13 Q1003=
201606170020 METAR ESMX 170020Z 22005KT 7000 BR BKN002 13/12 Q1003=
201606162350 METAR ESMX 162350Z 21006KT 9999 BKN003 BKN091 13/13 Q1003=
201606162320 METAR ESMX 162320Z 22007KT 9999 SCT003 OVC059 14/13 Q1003=
201606162250 METAR ESMX 162250Z 21005KT 9999 FEW004 OVC057 14/13 Q1003=
201606162220 METAR ESMX 162220Z 22005KT CAVOK 14/13 Q1003=
201606162150 METAR ESMX 162150Z 25003KT CAVOK 14/13 Q1003=
201606162120 METAR ESMX 162120Z 24004KT 210V280 CAVOK 14/13 Q1003=
201606162050 METAR ESMX 162050Z 23005KT CAVOK 14/13 Q1003=
201606162020 METAR ESMX 162020Z AUTO 21004KT 9999 FEW009/// BKN069/// 14/13 Q1003=
201606161950 METAR ESMX 161950Z 21003KT CAVOK 14/13 Q1003=
201606161920 METAR ESMX 161920Z 23003KT CAVOK 14/13 Q1003=
201606161850 METAR ESMX 161850Z 25004KT CAVOK 15/13 Q1002=
201606161820 METAR ESMX 161820Z 27005KT 240V300 9999 FEW010 15/13 Q1002=
201606161750 METAR ESMX 161750Z 29005KT 260V330 9999 FEW010 BKN067 15/13 Q1002=
201606161720 METAR ESMX 161720Z 22005KT 9999 FEW010CB SCT030 BKN044 15/13 Q1002=
201606161650 METAR ESMX 161650Z 26006KT 9999 -DZ FEW010CB BKN028 OVC035 15/13 Q1002=
201606161620 METAR ESMX 161620Z 25006KT 200V280 9999 FEW009CB SCT031 BKN037 16/13 Q1002=
201606161550 METAR ESMX 161550Z 22008KT 9999 FEW010 BKN053 BKN073 16/13 Q1002=
201606161520 METAR ESMX 161520Z 23007KT 9999 FEW012 SCT057 BKN082 16/13 Q1002=
201606161450 METAR ESMX 161450Z 24007KT 210V280 9999 FEW011 SCT055 16/13 Q1002=
201606161420 METAR ESMX 161420Z 24007KT 9999 FEW032 BKN048 16/13 Q1002=
201606161350 METAR ESMX 161350Z 22007KT 9999 FEW039 BKN078 16/13 Q1002=
201606161320 METAR ESMX 161320Z 24007KT 9999 FEW014 BKN034 BKN081 15/13 Q1001=
201606161250 METAR ESMX 161250Z 21004KT 160V250 9999 FEW010CB SCT034 BKN039 15/13 Q1001=
201606161220 METAR ESMX 161220Z 22006KT 9999 -RA BKN010CB OVC025 15/13 Q1001=
201606161150 METAR ESMX 161150Z 21007KT 9999 -DZ FEW010 SCT033 BKN042 16/13 Q1001=
201606161120 METAR ESMX 161120Z 20008KT 9999 FEW009 SCT029 BKN040 16/13 Q1001=
201606161050 METAR ESMX 161050Z 19009KT 9999 FEW008 BKN037 15/13 Q1001=
201606161020 METAR ESMX 161020Z 19007KT 9999 FEW009 BKN011 OVC039 15/13 Q1001=
201606160950 METAR ESMX 160950Z 19007KT 9999 FEW010 SCT026 BKN030 16/13 Q1001=
201606160920 METAR ESMX 160920Z 23006KT 9999 FEW022 BKN029 16/13 Q1001=
201606160850 METAR ESMX 160850Z 20005KT 9999 FEW021 SCT028 BKN037 16/13 Q1001=
201606160820 METAR ESMX 160820Z VRB03KT 9999 FEW028 BKN035 16/13 Q1001=
201606160750 METAR ESMX 160750Z 35004KT 9999 FEW013 BKN033 15/13 Q1001=
201606160720 METAR ESMX 160720Z 01003KT 9999 BKN026 15/12 Q1001=
201606160650 METAR ESMX 160650Z 02005KT 350V060 9999 FEW013 BKN037 15/12 Q1001=
201606160620 METAR ESMX 160620Z 03006KT 340V080 9999 SCT033 BKN044 15/12 Q1001=
201606160550 METAR ESMX 160550Z 03005KT 010V100 9999 FEW033 BKN042 15/12 Q1001=
201606160520 METAR ESMX 160520Z 01005KT 9999 SCT042 BKN051 15/12 Q1001=
201606160450 METAR ESMX 160450Z 04006KT 010V080 9999 SCT013 BKN043 14/11 Q1001=
201606160420 METAR ESMX 160420Z 03005KT 360V060 9999 OVC012 14/11 Q1001=
201606160350 METAR ESMX 160350Z 01005KT 9999 SCT012 BKN015 OVC049 13/11 Q1001=
201606160320 METAR ESMX 160320Z AUTO 01005KT 9999 FEW017/// SCT020/// OVC050/// 12/10 Q1001=
201606160250 METAR ESMX 160250Z AUTO 36003KT 9999 OVC048/// 10/09 Q1001=
201606160220 METAR ESMX 160220Z AUTO 00000KT 9999 FEW048/// BKN059/// 09/08 Q1001=
201606160150 METAR ESMX 160150Z AUTO 01004KT 9999 FEW061/// 09/08 Q1001=
201606160120 METAR ESMX 160120Z AUTO 01003KT 9999 FEW053/// SCT063/// 10/09 Q1002=
201606160050 METAR ESMX 160050Z AUTO 36003KT 9999 BKN053/// 10/09 Q1002=
201606160020 METAR ESMX 160020Z AUTO 03003KT 9999 SCT051/// 09/07 Q1002=
201606152350 METAR ESMX 152350Z AUTO 03003KT 9999 FEW041/// SCT052/// 10/08 Q1002=
201606152320 METAR ESMX 152320Z 05002KT 9999 BKN046 09/08 Q1002=
201606152250 METAR ESMX 152250Z 00000KT CAVOK 08/08 Q1002=
201606152220 METAR COR ESMX 152220Z 00000KT CAVOK 09/08 Q1002=
201606152150 METAR ESMX 152150Z 00000KT CAVOK 10/09 Q1002=
201606152120 METAR ESMX 152120Z 06002KT CAVOK 11/09 Q1002=
201606152050 METAR ESMX 152050Z 06003KT CAVOK 14/10 Q1002=
201606152020 METAR ESMX 152020Z VRB03KT CAVOK 15/10 Q1002=
201606151950 METAR ESMX 151950Z 09003KT 060V120 CAVOK 16/10 Q1002=
201606151920 METAR ESMX 151920Z 08004KT 040V120 CAVOK 17/10 Q1002=
201606151850 METAR ESMX 151850Z VRB03KT CAVOK 18/10 Q1002=
201606151820 METAR ESMX 151820Z 09004KT 050V130 CAVOK 19/10 Q1002=
201606151750 METAR ESMX 151750Z 10004KT 060V140 CAVOK 20/10 Q1002=
201606151720 METAR ESMX 151720Z 12005KT 060V170 CAVOK 20/09 Q1002=
201606151650 METAR ESMX 151650Z 11007KT 060V150 CAVOK 20/09 Q1001=
201606151620 METAR ESMX 151620Z 10005KT 060V160 9999 SCT045 BKN080 20/09 Q1001=
201606151550 METAR ESMX 151550Z 16006KT 110V210 9999 BKN048 20/10 Q1001=
201606151520 METAR ESMX 151520Z 16006KT 9999 BKN040 BKN079 20/10 Q1001=
201606151450 METAR ESMX 151450Z 13006KT 100V170 9999 FEW045CB BKN100 21/09 Q1001=
201606151420 METAR ESMX 151420Z 13006KT 080V170 9999 FEW045CB SCT075 BKN100 21/10 Q1001=
201606151350 METAR ESMX 151350Z 12008KT 080V160 9999 FEW035TCU SCT065 BKN080 20/12 Q1002=
201606151320 METAR ESMX 151320Z 13007KT 060V170 9999 FEW035 SCT075 BKN100 21/12 Q1002=
201606151250 METAR ESMX 151250Z 13009KT 080V170 9999 FEW045 BKN080 20/12 Q1002=
201606151220 METAR ESMX 151220Z 11008KT 080V160 9999 FEW031 BKN065 21/12 Q1002=
201606151150 METAR ESMX 151150Z 11007KT 060V160 9999 FEW025 BKN064 19/13 Q1002=
201606151120 METAR ESMX 151120Z 11007KT 070V160 9999 FEW020TCU SCT080 20/13 Q1002=
201606151050 METAR ESMX 151050Z 12008KT 060V160 9999 FEW038 SCT090 18/13 Q1002=
201606151020 METAR ESMX 151020Z 11009KT 060V150 9999 SCT017 BKN036 18/13 Q1002=
201606150950 METAR ESMX 150950Z 12007KT 070V160 9999 FEW017 BKN020 18/13 Q1002=
201606150920 METAR ESMX 150920Z 11007KT 070V170 9999 SCT020 BKN045 18/13 Q1002=
201606150850 METAR ESMX 150850Z 12006KT 070V170 9999 FEW020TCU SCT060 BKN090 18/13 Q1002=
201606150820 METAR ESMX 150820Z 12006KT 070V200 9999 FEW020TCU SCT040 BKN080 18/13 Q1002=
201606150750 METAR ESMX 150750Z 10006KT 060V160 9999 SCT012 BKN080 17/13 Q1002=
201606150720 METAR ESMX 150720Z 09007KT 060V120 9999 FEW010 BKN045 16/13 Q1002=
201606150659 METAR ESMX 150659Z 08005KT 030V150 9999 FEW010 BKN048 16/13 Q1002=
201606150650 METAR ESMX 150650Z AUTO 08005KT 020V120 9999 SCT047/// BKN096/// 16/14 Q1002=
201606150620 METAR ESMX 150620Z VRB03KT 9999 FEW008 BKN040 15/13 Q1002=
201606150550 METAR ESMX 150550Z 11003KT 060V150 9999 FEW007 SCT030 BKN080 15/13 Q1001=
201606150520 METAR ESMX 150520Z 06004KT 010V100 9999 FEW007 BKN030 14/13 Q1001=
201606150450 METAR ESMX 150450Z VRB02KT 9999 FEW006 SCT042 BKN100 14/13 Q1001=
201606150420 METAR ESMX 150420Z VRB03KT 9999 FEW008 SCT035 BKN073 13/12 Q1001=
201606150350 METAR ESMX 150350Z 06003KT 9999 FEW038 SCT047 BKN074 13/12 Q1001=
201606150320 METAR ESMX 150320Z 07004KT 030V120 9999 -RA SCT038 BKN045 13/12 Q1001=
201606150250 METAR ESMX 150250Z AUTO 06005KT 030V100 9999 -RA FEW036/// SCT044/// BKN068/// 13/12 Q1001=
201606150220 METAR ESMX 150220Z AUTO 07005KT 040V100 9999 -RA FEW059/// SCT075/// 13/12 Q1001=
201606150150 METAR ESMX 150150Z AUTO 06004KT 010V120 9999 -RA FEW055/// BKN069/// 13/11 Q1001=
201606150120 METAR ESMX 150120Z AUTO 07004KT 020V120 9999 DZ SCT067/// 13/11 Q1001=
201606150050 METAR ESMX 150050Z AUTO 08003KT 030V120 9999 -RA FEW055/// SCT074/// 13/11 Q1002=
201606150020 METAR ESMX 150020Z AUTO 08004KT 050V130 9999 OVC058/// 14/10 Q1002=
201606142350 METAR ESMX 142350Z 08004KT 030V120 CAVOK 13/10 Q1002=
201606142320 METAR ESMX 142320Z 07005KT 020V150 CAVOK 13/10 Q1002=
201606142250 METAR ESMX 142250Z 07005KT 020V110 CAVOK 13/10 Q1002=
201606142220 METAR ESMX 142220Z 07005KT 020V120 CAVOK 13/11 Q1002=
201606142150 METAR ESMX 142150Z 05006KT CAVOK 13/11 Q1002=
201606142120 METAR ESMX 142120Z 05006KT 030V090 9999 FEW037 BKN052 13/11 Q1003=
201606142050 METAR ESMX 142050Z 07005KT 020V120 9999 -RA FEW027 BKN052 13/11 Q1003=
201606142020 METAR ESMX 142020Z 08005KT 030V110 9999 -RA FEW043 BKN061 14/10 Q1003=
201606141950 METAR ESMX 141950Z 07004KT 9999 -RA FEW060 SCT072 14/10 Q1003=
201606141920 METAR ESMX 141920Z 09003KT 060V130 9999 -DZ FEW074 15/09 Q1003=
201606141850 METAR ESMX 141850Z 10004KT 060V150 9999 -RA FEW072 15/09 Q1003=
201606141820 METAR ESMX 141820Z 08004KT 030V130 9999 -DZ SCT071 15/09 Q1003=
201606141750 METAR ESMX 141750Z 07004KT 040V110 9999 -DZ SCT072 15/09 Q1003 REDZ=
201606141720 METAR ESMX 141720Z 06004KT 020V100 9999 -DZ FEW083 15/09 Q1003=
201606141650 METAR ESMX 141650Z 08004KT 050V120 9999 -RA FEW075 15/10 Q1003=
201606141620 METAR ESMX 141620Z 08004KT 040V150 9999 DZ NSC 15/09 Q1003=
201606141550 METAR ESMX 141550Z 10008KT 050V150 9999 -DZ BKN071 16/07 Q1003=
201606141520 METAR ESMX 141520Z 08007KT 020V130 CAVOK 18/06 Q1003=
201606141450 METAR ESMX 141450Z 10010KT 060V150 CAVOK 18/05 Q1003=
201606141420 METAR ESMX 141420Z 11009KT 070V160 CAVOK 19/07 Q1003=
201606141350 METAR ESMX 141350Z 11010KT 060V170 CAVOK 19/08 Q1003=
201606141320 METAR ESMX 141320Z 10007KT 020V150 CAVOK 18/07 Q1003=
201606141250 METAR ESMX 141250Z 11007KT 060V160 9999 FEW045 SCT052 BKN067 18/08 Q1003=
201606141220 METAR ESMX 141220Z 09008KT 030V140 9999 FEW040 SCT060 BKN080 19/08 Q1003=
201606141150 METAR ESMX 141150Z 12008KT 070V190 9999 SCT048 BKN065 18/07 Q1004=
201606141120 METAR ESMX 141120Z 11006KT 060V200 9999 SCT043 BKN063 18/08 Q1003=
201606141050 METAR COR ESMX 141050Z 10008KT 060V160 9999 FEW037 BKN042 BKN073 18/08 Q1003=
201606141020 METAR ESMX 141020Z 08008KT 030V190 9999 FEW041 BKN062 19/09 Q1004=
201606140950 METAR ESMX 140950Z 06009KT 030V120 CAVOK 16/08 Q1004=
201606140920 METAR ESMX 140920Z 06008KT CAVOK 16/08 Q1004=
201606140850 METAR ESMX 140850Z 07007KT 020V120 9999 FEW040 BKN053 14/08 Q1005=
201606140820 METAR ESMX 140820Z 08007KT 040V120 9999 BKN039 14/07 Q1005=
201606140750 METAR ESMX 140750Z 08005KT 030V120 9999 BKN036 13/07 Q1005=
201606140720 METAR ESMX 140720Z 08006KT 040V130 9999 FEW027 BKN037 13/07 Q1005=
201606140650 METAR ESMX 140650Z 07006KT 030V140 9999 FEW039 SCT049 BKN060 13/08 Q1005=
201606140620 METAR ESMX 140620Z 07006KT 030V120 9999 FEW042 BKN047 12/08 Q1005=
201606140550 METAR ESMX 140550Z 07007KT 020V110 9999 SCT046 BKN055 12/08 Q1005=
201606140520 METAR ESMX 140520Z 08006KT 050V150 CAVOK 12/08 Q1005=
201606140450 METAR ESMX 140450Z 07005KT 030V160 9999 BKN053 12/08 Q1005=
201606140420 METAR ESMX 140420Z 08005KT 010V140 9999 BKN052 11/08 Q1005=
201606140350 METAR ESMX 140350Z 06004KT 020V130 9999 OVC052 10/07 Q1005=
201606140320 METAR ESMX 140320Z 06005KT 030V100 9999 OVC052 10/07 Q1005=
201606140250 METAR ESMX 140250Z AUTO 07004KT 030V190 9999 OVC051/// 10/07 Q1006=
201606140220 METAR ESMX 140220Z AUTO 09003KT 060V120 9999 OVC049/// 10/07 Q1006=
201606140150 METAR ESMX 140150Z AUTO 06004KT 020V100 9999 OVC049/// 10/07 Q1006=
201606140120 METAR ESMX 140120Z AUTO 05003KT 010V090 9999 OVC049/// 10/07 Q1006=
201606140050 METAR ESMX 140050Z AUTO VRB03KT 9999 FEW054/// 09/06 Q1006=
201606140020 METAR ESMX 140020Z AUTO VRB03KT 9999 NCD 09/05 Q1006=
201606132350 METAR ESMX 132350Z VRB03KT CAVOK 09/05 Q1006=
201606132320 METAR ESMX 132320Z 10003KT 050V140 CAVOK 09/05 Q1006=
201606132250 METAR COR ESMX 132250Z 09003KT 060V120 CAVOK 09/04 Q1006=
201606132220 METAR ESMX 132220Z VRB03KT CAVOK 09/04 Q1007=
201606132150 METAR ESMX 132150Z VRB02KT CAVOK 10/04 Q1007=
201606132120 METAR ESMX 132120Z VRB03KT CAVOK 10/04 Q1007=
201606132050 METAR ESMX 132050Z 13004KT 060V170 CAVOK 12/04 Q1007=
201606132020 METAR ESMX 132020Z 12004KT 080V190 CAVOK 12/04 Q1007=
201606131950 METAR ESMX 131950Z 13004KT 070V160 CAVOK 13/04 Q1007=
201606131920 METAR ESMX 131920Z 13005KT 080V170 CAVOK 14/03 Q1007=
201606131850 METAR ESMX 131850Z 12005KT 060V160 CAVOK 15/03 Q1007=
201606131820 METAR ESMX 131820Z 13007KT 080V180 CAVOK 16/03 Q1007=
201606131750 METAR ESMX 131750Z 15007KT 080V210 CAVOK 17/04 Q1007=
201606131720 METAR ESMX 131720Z 15007KT 080V180 CAVOK 17/02 Q1006=
201606131650 METAR ESMX 131650Z 13007KT 100V180 CAVOK 17/03 Q1006=
201606131620 METAR ESMX 131620Z 13007KT 070V170 CAVOK 18/03 Q1006=
201606131550 METAR ESMX 131550Z 12007KT 080V180 CAVOK 18/02 Q1006=
201606131520 METAR ESMX 131520Z 15009KT 100V180 CAVOK 18/02 Q1007=
201606131450 METAR ESMX 131450Z 12008KT 060V170 CAVOK 18/02 Q1007=
201606131420 METAR ESMX 131420Z 16008KT CAVOK 19/02 Q1007=
201606131350 METAR ESMX 131350Z VRB07KT CAVOK 19/02 Q1007=
201606131320 METAR ESMX 131320Z 13007KT 060V210 CAVOK 19/02 Q1007=
201606131250 METAR ESMX 131250Z 10006KT 050V150 CAVOK 18/03 Q1007=
201606131220 METAR ESMX 131220Z 13009KT 080V190 CAVOK 19/03 Q1008=
201606131150 METAR ESMX 131150Z 14008KT 070V210 CAVOK 18/02 Q1008=
201606131120 METAR ESMX 131120Z 15008KT 110V190 CAVOK 18/01 Q1008=
201606131050 METAR ESMX 131050Z 06005KT 340V140 CAVOK 18/02 Q1008=
201606131020 METAR ESMX 131020Z 10007KT 060V170 CAVOK 18/01 Q1008=
201606130950 METAR ESMX 130950Z 09007KT 050V160 CAVOK 17/00 Q1008=
201606130920 METAR ESMX 130920Z 07008KT 020V160 CAVOK 18/01 Q1009=
201606130850 METAR ESMX 130850Z 10008KT 060V140 CAVOK 16/M00 Q1009=
201606130820 METAR ESMX 130820Z 10008KT 060V140 CAVOK 16/00 Q1009=
201606130750 METAR ESMX 130750Z 07008KT 030V130 CAVOK 16/01 Q1009=
201606130720 METAR ESMX 130720Z 07006KT 030V160 CAVOK 15/02 Q1009=
201606130650 METAR ESMX 130650Z 08005KT 050V170 CAVOK 15/04 Q1010=
201606130620 METAR ESMX 130620Z 09004KT 030V120 CAVOK 14/05 Q1010=
201606130550 METAR ESMX 130550Z 06004KT 010V140 CAVOK 13/06 Q1010=
201606130520 METAR ESMX 130520Z 06004KT 020V110 CAVOK 12/07 Q1010=
201606130450 METAR ESMX 130450Z 07003KT 020V110 CAVOK 11/08 Q1010=
201606130420 METAR ESMX 130420Z 00000KT CAVOK 08/07 Q1010=
201606130350 METAR ESMX 130350Z 33001KT CAVOK 05/04 Q1010=
201606130320 METAR ESMX 130320Z AUTO 06002KT 9999 NCD 03/03 Q1010=
201606130250 METAR ESMX 130250Z AUTO 00000KT 9999 NCD 02/02 Q1011=
201606130220 METAR ESMX 130220Z AUTO 17001KT 9999 NCD 03/02 Q1011=
201606130150 METAR ESMX 130150Z AUTO 00000KT 9999 NCD 03/02 Q1011=
201606130120 METAR ESMX 130120Z AUTO 11003KT 9999 NCD 03/03 Q1011=
201606130050 METAR ESMX 130050Z AUTO 16002KT 9999 NCD 04/03 Q1011=
201606130020 METAR ESMX 130020Z AUTO 18002KT 9999 NCD 04/03 Q1011=
201606122350 METAR ESMX 122350Z AUTO 00000KT 9999 NCD 04/04 Q1011=
201606122320 METAR ESMX 122320Z 16002KT CAVOK 06/05 Q1011=
201606122250 METAR ESMX 122250Z 00000KT CAVOK 06/05 Q1011=
201606122220 METAR ESMX 122220Z 17002KT CAVOK 07/06 Q1012=
201606122150 METAR COR ESMX 122150Z 18002KT CAVOK 08/06 Q1012=
201606122120 METAR ESMX 122120Z 17004KT CAVOK 12/06 Q1012=
201606122050 METAR ESMX 122050Z 15004KT CAVOK 11/07 Q1012=
201606122020 METAR ESMX 122020Z 14004KT CAVOK 13/06 Q1012=
201606121950 METAR ESMX 121950Z 14005KT 110V180 CAVOK 13/06 Q1012=
201606121920 METAR ESMX 121920Z 15006KT CAVOK 14/06 Q1012=
201606121850 METAR ESMX 121850Z 16007KT 9999 SCT087TCU 14/06 Q1011=
201606121820 METAR ESMX 121820Z 16008KT CAVOK 15/07 Q1012=
201606121750 METAR ESMX 121750Z 16008KT 130V200 9999 FEW048 SCT091 15/06 Q1011=
201606121720 METAR ESMX 121720Z 16006KT 100V200 CAVOK 17/04 Q1011=
201606121650 METAR ESMX 121650Z AUTO 15007KT 100V190 9999 OVC080/// 18/04 Q1011=
201606121620 METAR ESMX 121620Z 13007KT 080V180 CAVOK 18/03 Q1011=
201606121550 METAR ESMX 121550Z 11007KT 070V150 CAVOK 18/04 Q1011=
201606121520 METAR COR ESMX 121520Z 04008KT 010V100 CAVOK 18/01 Q1011=
201606121450 METAR ESMX 121450Z 09004KT 050V130 CAVOK 18/01 Q1012=
201606121420 METAR COR ESMX 121420Z 08007KT 030V120 CAVOK 18/01 Q1012=
201606121350 METAR ESMX 121350Z 36006KT 320V040 CAVOK 19/00 Q1012=
201606121320 METAR ESMX 121320Z 02005KT 330V120 9999 SCT040 18/M00 Q1012=
201606121250 METAR ESMX 121250Z VRB05KT CAVOK 18/00 Q1012=
201606121220 METAR ESMX 121220Z 35006KT 320V050 9999 SCT045 17/M01 Q1012=
201606121150 METAR ESMX 121150Z 34006KT 270V050 9999 SCT040 18/01 Q1013=
201606121120 METAR ESMX 121120Z 01005KT 230V050 9999 SCT039 17/01 Q1013=
201606121050 METAR ESMX 121050Z 01006KT 330V100 9999 SCT025 17/01 Q1013=
201606120950 METAR ESMX 120950Z AUTO 02005KT 320V110 9999 NCD 16/02 Q1013=
201606120920 METAR ESMX 120920Z AUTO 36006KT 280V070 9999 NCD 16/02 Q1014=
201606120850 METAR ESMX 120850Z AUTO 35006KT 320V030 9999 NCD 16/02 Q1014=
201606120820 METAR ESMX 120820Z AUTO 36007KT 320V100 9999 NCD 15/02 Q1014=
201606120750 METAR ESMX 120750Z AUTO 02006KT 340V060 9999 NCD 14/03 Q1014=
201606120720 METAR ESMX 120720Z AUTO 02006KT 330V070 9999 NCD 14/04 Q1014=
201606120650 METAR ESMX 120650Z AUTO 01007KT 9999 NCD 14/05 Q1014=
201606120620 METAR ESMX 120620Z AUTO 03006KT 350V100 9999 NCD 13/05 Q1014=
201606120550 METAR ESMX 120550Z 06005KT 030V110 9999 FEW025 12/05 Q1014=
201606120520 METAR ESMX 120520Z 05005KT 010V100 9999 FEW025 11/06 Q1014=
201606120450 METAR ESMX 120450Z 04004KT 350V080 9999 FEW025 10/06 Q1014=
201606120420 METAR ESMX 120420Z 03004KT 9999 FEW020 09/06 Q1014=
201606120350 METAR ESMX 120350Z AUTO 03003KT 9999 NCD 04/03 Q1014=
201606120320 METAR ESMX 120320Z AUTO 00000KT 9999 NCD 02/02 Q1014=
201606120250 METAR ESMX 120250Z AUTO VRB02KT 9999 NCD 02/01 Q1014=
201606120220 METAR ESMX 120220Z AUTO 18002KT 9999 NCD 02/01 Q1014=
201606120150 METAR ESMX 120150Z AUTO 00000KT 9999 NCD 02/02 Q1014=
201606120120 METAR ESMX 120120Z AUTO 00000KT 9999 NCD 02/01 Q1014=
201606120050 METAR ESMX 120050Z AUTO 21002KT 9999 NCD 03/02 Q1014=
201606120020 METAR ESMX 120020Z AUTO 00000KT 9999 NCD 04/03 Q1014=
201606112350 METAR ESMX 112350Z AUTO 18003KT 9999 NCD 05/03 Q1014=
201606112320 METAR ESMX 112320Z AUTO VRB01KT 9999 NCD 07/05 Q1014=
201606112250 METAR ESMX 112250Z AUTO 16003KT 9999 FEW070/// 09/05 Q1014=
201606112220 METAR ESMX 112220Z AUTO 17003KT 9999 NCD 10/05 Q1014=
201606112150 METAR ESMX 112150Z AUTO 15004KT 9999 NCD 09/04 Q1014=
201606112120 METAR ESMX 112120Z AUTO 11003KT 9999 NCD 10/04 Q1013=
201606112050 METAR ESMX 112050Z AUTO 03005KT 9999 NCD 12/03 Q1013=
201606112020 METAR ESMX 112020Z AUTO 04003KT 330V080 9999 BKN059/// 12/02 Q1013=
201606111950 METAR ESMX 111950Z AUTO 03006KT 9999 FEW065/// BKN085/// 13/02 Q1013=
201606111920 METAR ESMX 111920Z AUTO 02006KT 9999 SCT061/// OVC084/// 14/03 Q1013=
201606111850 METAR ESMX 111850Z AUTO 33005KT 9999 BKN081/// 14/03 Q1013=
201606111820 METAR ESMX 111820Z AUTO 01004KT 9999 BKN081/// 15/02 Q1013=
201606111750 METAR ESMX 111750Z AUTO 34004KT 300V070 9999 BKN080/// 16/01 Q1013=
201606111720 METAR ESMX 111720Z AUTO VRB03KT 9999 FEW080/// 15/00 Q1013=
201606111650 METAR ESMX 111650Z AUTO 36004KT 290V040 9999 BKN073/// 16/00 Q1013=
201606111620 METAR ESMX 111620Z AUTO 06005KT 020V100 9999 BKN071/// 16/01 Q1013=
201606111550 METAR ESMX 111550Z AUTO 02005KT 340V070 9999 BKN075/// 15/01 Q1013=
201606111520 METAR ESMX 111520Z AUTO VRB03KT 9999 FEW076/// 16/M00 Q1013=
201606111450 METAR ESMX 111450Z AUTO 04006KT 340V110 9999 BKN069/// 17/01 Q1013=
201606111420 METAR ESMX 111420Z AUTO VRB05KT 9999 BKN068/// 17/00 Q1013=
201606111350 METAR ESMX 111350Z AUTO 02005KT 330V060 9999 NCD 16/01 Q1013=
201606111320 METAR ESMX 111320Z AUTO 04005KT 320V130 9999 FEW067/// 15/M00 Q1013=
201606111250 METAR ESMX 111250Z AUTO VRB03KT 9999 FEW026/// SCT066/// 17/00 Q1013=
201606111220 METAR ESMX 111220Z AUTO 35005KT 310V060 9999 BKN062/// 15/01 Q1013=
201606111150 METAR ESMX 111150Z AUTO 34005KT 290V100 9999 FEW059/// 16/01 Q1013=
201606111120 METAR ESMX 111120Z AUTO VRB04KT 9999 FEW054/// 15/01 Q1013=
201606111050 METAR ESMX 111050Z AUTO VRB06KT 9999 NCD 15/01 Q1013=
201606111020 METAR ESMX 111020Z AUTO 35007KT 320V020 9999 NCD 14/01 Q1013=
201606110950 METAR ESMX 110950Z AUTO 35006KT 280V050 9999 NCD 14/01 Q1013=
201606110920 METAR ESMX 110920Z AUTO 36006KT 330V050 9999 NCD 13/01 Q1013=
201606110850 METAR ESMX 110850Z AUTO 35006KT 320V040 9999 FEW038/// 12/02 Q1013=
201606110820 METAR ESMX 110820Z AUTO 36007KT 330V050 9999 FEW034/// 12/02 Q1013=
201606110750 METAR ESMX 110750Z AUTO 01006KT 320V050 9999 NCD 11/03 Q1013=
201606110720 METAR ESMX 110720Z AUTO 02006KT 340V050 9999 FEW024/// SCT031/// 10/03 Q1013=
201606110650 METAR ESMX 110650Z AUTO 01009KT 9999 FEW024/// SCT029/// 09/02 Q1013=
201606110620 METAR ESMX 110620Z AUTO 01009KT 9999 OVC022/// 09/03 Q1013=
201606110550 METAR ESMX 110550Z AUTO 02009KT 9999 OVC020/// 08/03 Q1012=
201606110520 METAR ESMX 110520Z AUTO 02010KT 9999 FEW020/// SCT023/// 08/03 Q1012=
201606110450 METAR ESMX 110450Z AUTO 02013KT 9999 FEW019/// 07/03 Q1012=
201606110420 METAR ESMX 110420Z AUTO 35009KT 9999 NCD 07/03 Q1012=
201606110350 METAR ESMX 110350Z AUTO 01011KT 9999 NCD 07/03 Q1011=
201606110320 METAR ESMX 110320Z AUTO 36012KT 9999 NCD 06/03 Q1011=
201606110250 METAR ESMX 110250Z AUTO 35011KT 9999 NCD 06/03 Q1011=
201606110220 METAR ESMX 110220Z AUTO 35012KT 9999 NCD 06/02 Q1011=
201606110150 METAR ESMX 110150Z AUTO 34011KT 9999 NCD 06/02 Q1011=
201606110120 METAR ESMX 110120Z AUTO 34010KT 9999 NCD 06/03 Q1011=
201606110050 METAR ESMX 110050Z AUTO 34010KT 9999 FEW022/// 07/03 Q1011=
201606110020 METAR ESMX 110020Z AUTO 34011KT 9999 NCD 07/03 Q1010=
201606102350 METAR ESMX 102350Z AUTO 34008KT 9999 NCD 06/02 Q1010=
201606102320 METAR ESMX 102320Z AUTO 34008KT 9999 NCD 07/02 Q1010=
201606102250 METAR ESMX 102250Z AUTO 34008KT 9999 NCD 07/02 Q1010=
201606102220 METAR ESMX 102220Z AUTO 31007KT 9999 NCD 07/01 Q1010=
201606102150 METAR ESMX 102150Z AUTO 31007KT 9999 NCD 07/00 Q1010=
201606102120 METAR ESMX 102120Z AUTO 32007KT 9999 NCD 08/00 Q1010=
201606102050 METAR ESMX 102050Z AUTO 31006KT 9999 NCD 08/00 Q1009=
201606102020 METAR ESMX 102020Z AUTO 31006KT 9999 FEW084/// 08/00 Q1009=
201606101950 METAR ESMX 101950Z AUTO 35006KT 310V010 9999 SCT082/// 10/01 Q1009=
201606101920 METAR ESMX 101920Z 34011KT CAVOK 12/M00 Q1009=
201606101850 METAR ESMX 101850Z 34010KT CAVOK 12/M01 Q1008=
201606101820 METAR ESMX 101820Z 34011KT CAVOK 12/M01 Q1008=
201606101750 METAR ESMX 101750Z 34010KT CAVOK 13/M01 Q1008=
201606101720 METAR ESMX 101720Z 33010KT CAVOK 14/M00 Q1008=
201606101650 METAR ESMX 101650Z 32010KT 290V350 CAVOK 15/01 Q1008=
201606101620 METAR COR ESMX 101620Z 35008KT 300V030 CAVOK 14/03 Q1007=
201606101550 METAR ESMX 101550Z 33012KT CAVOK 14/01 Q1007=
201606101520 METAR ESMX 101520Z 35007KT 330V030 CAVOK 15/01 Q1007=
201606101450 METAR ESMX 101450Z 33013KT 290V360 9999 FEW020 SCT057 14/01 Q1007=
201606101420 METAR ESMX 101420Z 33012KT 9999 FEW023 SCT035 BKN100 15/01 Q1007=
201606101350 METAR ESMX 101350Z 33008KT 300V010 9999 FEW030 SCT048 BKN100 15/02 Q1007=
201606101320 METAR ESMX 101320Z 34013KT 9999 FEW030 SCT080 BKN100 15/01 Q1006=
201606101250 METAR ESMX 101250Z 35012KT 320V020 9999 BKN056 16/01 Q1006=
201606101220 METAR ESMX 101220Z 01015KT 9999 SCT053 BKN067 15/02 Q1006=
201606101150 METAR ESMX 101150Z 33016G26KT 9999 SCT048 BKN072 14/02 Q1006=
201606101120 METAR ESMX 101120Z 33009KT 290V350 9999 SCT049 15/05 Q1006=
201606101050 METAR ESMX 101050Z 32016KT 9999 FEW040 SCT057 BKN097 13/03 Q1005=
201606101020 METAR ESMX 101020Z 33011KT 300V010 9999 FEW036 SCT045 14/04 Q1005=
201606100950 METAR ESMX 100950Z 33013KT 9999 FEW033 SCT048 14/06 Q1005=
201606100920 METAR ESMX 100920Z 34014KT 9999 FEW028 SCT048 13/06 Q1005=
201606100850 METAR ESMX 100850Z 34011KT 310V010 9999 FEW020 SCT027 BKN040 13/07 Q1005=
201606100820 METAR ESMX 100820Z 34012KT 9999 SCT014 BKN081 12/08 Q1005=
201606100750 METAR ESMX 100750Z 32007KT 9999 FEW025 BKN054 11/08 Q1005=
201606100720 METAR ESMX 100720Z 36008KT 330V030 9999 -RA FEW028 BKN044 10/07 Q1005=
201606100650 METAR ESMX 100650Z 36011KT 9999 -RA FEW024 BKN056 10/08 Q1004=
201606100620 METAR COR ESMX 100620Z 36010KT 9999 -RA FEW015 BKN053 11/07 Q1004=
201606100550 METAR ESMX 100550Z 02009KT 9999 -DZ FEW014 BKN048 11/07 Q1004=
201606100520 METAR ESMX 100520Z 01008KT 9999 -DZ FEW049 11/08 Q1004=
201606100450 METAR ESMX 100450Z 02007KT 9999 FEW010 SCT045 10/07 Q1004=
201606100420 METAR ESMX 100420Z 03008KT 9999 FEW024 SCT033 BKN041 10/07 Q1004=
201606100350 METAR ESMX 100350Z 02008KT 350V060 9999 BKN010 OVC023 10/07 Q1004=
201606100320 METAR ESMX 100320Z AUTO 31005KT 9999 FEW009/// OVC015/// 09/09 Q1004=
201606100250 METAR ESMX 100250Z AUTO 18003KT 9999 FEW015/// SCT041/// BKN049/// 09/08 Q1004=
201606100220 METAR ESMX 100220Z AUTO 34005KT 290V360 9999 FEW006/// BKN011/// 09/09 Q1004=
201606100150 METAR ESMX 100150Z AUTO 23003KT 9999 FEW026/// SCT046/// 08/08 Q1004=
201606100120 METAR ESMX 100120Z AUTO 24003KT 9999 FEW025/// 09/08 Q1005=
201606100050 METAR ESMX 100050Z AUTO 23005KT 9999 NCD 09/08 Q1005=
201606100020 METAR ESMX 100020Z AUTO 21005KT 9999 FEW042/// 09/08 Q1006=
201606092350 METAR ESMX 092350Z 20005KT CAVOK 09/08 Q1006=
201606092320 METAR ESMX 092320Z 19006KT 9999 FEW030 SCT060 10/08 Q1006=
201606092250 METAR ESMX 092250Z 21005KT 9999 FEW035 10/07 Q1007=
201606092220 METAR ESMX 092220Z 20007KT 9999 SCT035 12/07 Q1007 RERA=
201606092150 METAR ESMX 092150Z 21006KT CAVOK 12/06 Q1008=
201606092120 METAR ESMX 092120Z 21005KT 9999 BKN047 12/06 Q1008=
201606092050 METAR ESMX 092050Z 22004KT CAVOK 12/05 Q1008=
201606092020 METAR ESMX 092020Z 22004KT 9999 FEW047 SCT070 13/05 Q1009=
201606091950 METAR ESMX 091950Z 22004KT CAVOK 13/04 Q1009=
201606091920 METAR ESMX 091920Z 21004KT CAVOK 14/04 Q1009=
201606091850 METAR ESMX 091850Z 25004KT CAVOK 15/03 Q1010=
201606091820 METAR ESMX 091820Z 24005KT CAVOK 16/02 Q1010=
201606091750 METAR ESMX 091750Z 26008KT 210V280 CAVOK 17/02 Q1010=
201606091720 METAR ESMX 091720Z 26011KT CAVOK 18/02 Q1011=
201606091650 METAR ESMX 091650Z 26009KT 200V300 CAVOK 19/04 Q1011=
201606091620 METAR ESMX 091620Z 25006KT 9999 FEW045 BKN088 17/06 Q1011=
201606091550 METAR ESMX 091550Z 23009KT 180V260 9999 FEW045 SCT076 17/06 Q1011=
201606091520 METAR ESMX 091520Z 22006KT 9999 FEW030 SCT065 BKN091 18/06 Q1012=
201606091450 METAR ESMX 091450Z 23008KT 190V290 CAVOK 18/05 Q1012=
201606091420 METAR ESMX 091420Z 28010KT 9999 FEW033 SCT076 BKN097 17/05 Q1013=
201606091350 METAR ESMX 091350Z 28009KT 230V320 CAVOK 18/03 Q1013=
201606091320 METAR ESMX 091320Z 30009KT 270V340 9999 FEW056 SCT100 19/03 Q1013=
201606091250 METAR ESMX 091250Z 29010KT 250V340 9999 FEW028 SCT067 BKN100 19/03 Q1013=
201606091220 METAR ESMX 091220Z 32010KT 290V360 9999 FEW040 SCT075 BKN100 19/03 Q1014=
201606091150 METAR ESMX 091150Z 28009KT 250V330 9999 FEW045 BKN075 19/03 Q1014=
201606091120 METAR ESMX 091120Z 29008KT 210V340 CAVOK 20/02 Q1014=
201606091050 METAR ESMX 091050Z 29009KT 240V330 CAVOK 19/02 Q1014=
201606091020 METAR ESMX 091020Z 29010KT CAVOK 18/02 Q1015=
201606090950 METAR ESMX 090950Z 31011KT CAVOK 17/01 Q1015=
201606090920 METAR ESMX 090920Z 31008KT 280V020 CAVOK 17/02 Q1015=
201606090850 METAR ESMX 090850Z 33012KT 300V010 CAVOK 17/02 Q1015=
201606090820 METAR ESMX 090820Z 28009KT 260V320 CAVOK 16/01 Q1016=
201606090750 METAR ESMX 090750Z 30009KT 260V330 CAVOK 15/02 Q1016=
201606090720 METAR ESMX 090720Z 31008KT 270V010 CAVOK 15/02 Q1016=
201606090650 METAR ESMX 090650Z 31007KT CAVOK 13/02 Q1016=
201606090620 METAR ESMX 090620Z 30008KT CAVOK 13/03 Q1016=
201606090550 METAR ESMX 090550Z 30005KT 250V340 CAVOK 13/04 Q1016=
201606090520 METAR ESMX 090520Z 34004KT 300V020 CAVOK 11/04 Q1017=
201606090450 METAR ESMX 090450Z 33003KT CAVOK 09/05 Q1017=
201606090420 METAR ESMX 090420Z 33004KT CAVOK 08/06 Q1017=
201606090350 METAR ESMX 090350Z VRB01KT CAVOK 05/04 Q1017=
201606090320 METAR ESMX 090320Z AUTO VRB02KT 9999 NCD 03/03 Q1017=
201606090250 METAR ESMX 090250Z AUTO VRB02KT 9999 NCD 01/01 Q1017=
201606090220 METAR ESMX 090220Z AUTO 25001KT 9999 NCD 02/02 Q1017=
201606090150 METAR ESMX 090150Z AUTO 17003KT 9999 NCD 02/01 Q1017=
201606090120 METAR ESMX 090120Z AUTO 18002KT 9999 NCD 04/04 Q1017=
201606090050 METAR ESMX 090050Z AUTO 19003KT 9999 NCD 03/02 Q1017=
201606090020 METAR ESMX 090020Z AUTO 17003KT 9999 BR NCD 05/05 Q1017=
201606082350 METAR ESMX 082350Z AUTO 22003KT 9999 NCD 06/05 Q1017=
201606082320 METAR ESMX 082320Z VRB02KT 9999 BCFG NSC 05/05 Q1017=
201606082250 METAR ESMX 082250Z VRB03KT CAVOK 06/06 Q1017=
201606082220 METAR ESMX 082220Z VRB03KT CAVOK 06/05 Q1017=
201606082150 METAR ESMX 082150Z 17003KT 9999 BCFG NSC 05/05 Q1017=
201606082120 METAR ESMX 082120Z 17003KT 9999 BR NSC 06/06 Q1017=
201606082050 METAR ESMX 082050Z 17002KT CAVOK 07/07 Q1016=
201606082020 METAR ESMX 082020Z 22003KT CAVOK 08/07 Q1016=
201606081950 METAR ESMX 081950Z 21003KT CAVOK 09/07 Q1016=
201606081920 METAR ESMX 081920Z VRB02KT CAVOK 11/08 Q1016=
201606081850 METAR ESMX 081850Z VRB02KT CAVOK 12/08 Q1016=
201606081820 METAR ESMX 081820Z 05003KT 020V090 9999 FEW015 12/08 Q1016=
201606081750 METAR ESMX 081750Z 04004KT 350V080 9999 FEW015 SCT037 12/09 Q1016=
201606081720 METAR ESMX 081720Z 04006KT 9999 FEW018 BKN027 12/09 Q1016=
201606081650 METAR ESMX 081650Z 02010KT 9999 FEW013 BKN016 OVC020 12/09 Q1016=
201606081620 METAR ESMX 081620Z 01013KT 9999 FEW013 BKN016 12/09 Q1016=
201606081550 METAR ESMX 081550Z 03010KT 350V060 9999 OVC017 13/09 Q1016=
201606081520 METAR ESMX 081520Z 03010KT 360V070 9999 FEW019 BKN021 14/09 Q1016=
201606081450 METAR ESMX 081450Z 02011KT 9999 BKN019 BKN031 15/09 Q1015=
201606081420 METAR ESMX 081420Z 03012KT 9999 FEW017 BKN027 14/08 Q1015=
201606081350 METAR ESMX 081350Z 03012KT 9999 SCT016 BKN019 14/09 Q1015=
201606081320 METAR ESMX 081320Z 03013KT 9999 BKN016 14/09 Q1015=
201606081250 METAR ESMX 081250Z 36016KT 9999 FEW016 BKN041 16/11 Q1014=
201606081220 METAR ESMX 081220Z 36015KT 9999 FEW026 BKN040 17/11 Q1014=
201606081150 METAR ESMX 081150Z VRB06KT 9999 BKN036 19/09 Q1013=
201606081120 METAR ESMX 081120Z 35010KT 9999 FEW030 BKN034 18/10 Q1013=
201606081050 METAR ESMX 081050Z 33008KT 9999 FEW029 BKN033 19/11 Q1013=
201606081020 METAR ESMX 081020Z 34009KT 9999 BKN029 18/10 Q1013=
201606080950 METAR ESMX 080950Z 35006KT 300V050 9999 FEW025 BKN028 17/10 Q1013=
201606080920 METAR ESMX 080920Z 30008KT 9999 BKN022 16/10 Q1013=
201606080850 METAR ESMX 080850Z 34008KT 290V010 9999 BKN025 16/10 Q1013=
201606080820 METAR ESMX 080820Z 28008KT 9999 BKN022 16/11 Q1013=
201606080750 METAR ESMX 080750Z 27008KT 9999 BKN022 16/11 Q1013=
201606080720 METAR ESMX 080720Z 29008KT 260V330 9999 BKN021 16/11 Q1013=
201606080650 METAR ESMX 080650Z 31007KT 270V340 9999 BKN019 16/11 Q1013=
201606080620 METAR ESMX 080620Z 29009KT 260V330 9999 BKN017 16/12 Q1013=
201606080550 METAR ESMX 080550Z 30005KT 9999 BKN018 15/12 Q1013=
201606080520 METAR ESMX 080520Z 23004KT 9999 SCT006 BKN013 14/12 Q1013=
201606080450 METAR ESMX 080450Z 23004KT 9999 OVC005 13/11 Q1013=
201606080420 METAR ESMX 080420Z 20004KT 9999 OVC004 13/10 Q1014=
201606080350 METAR ESMX 080350Z 23005KT 9999 BKN006 12/09 Q1014=
201606080320 METAR ESMX 080320Z AUTO 21005KT 9999 NCD 11/08 Q1014=
201606080250 METAR ESMX 080250Z AUTO 20005KT 9999 NCD 11/08 Q1014=
201606080220 METAR ESMX 080220Z AUTO 20005KT 9999 NCD 11/07 Q1014=
201606080150 METAR ESMX 080150Z AUTO 18007KT 9999 NCD 11/07 Q1015=
201606080120 METAR ESMX 080120Z AUTO 19006KT 9999 FEW035/// SCT041/// 12/07 Q1015=
201606080050 METAR ESMX 080050Z AUTO 19006KT 9999 SCT033/// BKN039/// 12/07 Q1016=
201606080020 METAR ESMX 080020Z AUTO 18006KT 9999 FEW033/// SCT041/// 12/07 Q1016=
201606072350 METAR ESMX 072350Z 18006KT CAVOK 12/07 Q1016=
201606072320 METAR ESMX 072320Z 18005KT CAVOK 12/07 Q1017=
201606072250 METAR ESMX 072250Z 18007KT CAVOK 13/08 Q1017=
201606072220 METAR ESMX 072220Z 18007KT CAVOK 13/07 Q1017=
201606072150 METAR ESMX 072150Z 18007KT CAVOK 14/07 Q1018=
201606072120 METAR ESMX 072120Z 19006KT CAVOK 14/07 Q1018=
201606072050 METAR ESMX 072050Z 20007KT CAVOK 15/07 Q1018=
201606072020 METAR ESMX 072020Z 18006KT CAVOK 15/06 Q1018=
201606071950 METAR ESMX 071950Z 19008KT CAVOK 17/06 Q1018=
201606071920 METAR ESMX 071920Z 18008KT CAVOK 17/07 Q1018=
201606071850 METAR ESMX 071850Z 19008KT CAVOK 19/07 Q1018=
201606071820 METAR ESMX 071820Z 19011KT CAVOK 20/08 Q1018=
201606071750 METAR ESMX 071750Z 20010KT CAVOK 21/08 Q1018=
201606071720 METAR ESMX 071720Z 20009KT CAVOK 23/06 Q1019=
201606071650 METAR ESMX 071650Z 21008KT CAVOK 23/07 Q1019=
201606071620 METAR ESMX 071620Z 21009KT 160V230 CAVOK 22/06 Q1019=
201606071550 METAR ESMX 071550Z 21012KT CAVOK 23/07 Q1020=
201606071520 METAR ESMX 071520Z 20010KT CAVOK 23/06 Q1020=
201606071450 METAR ESMX 071450Z 20010KT 170V250 CAVOK 24/06 Q1021=
201606071420 METAR ESMX 071420Z 22011KT 190V250 CAVOK 23/05 Q1021=
201606071350 METAR ESMX 071350Z 20010KT 160V240 CAVOK 24/05 Q1021=
201606071320 METAR ESMX 071320Z 21010KT 180V240 CAVOK 23/05 Q1022=
201606071250 METAR ESMX 071250Z 21009KT 170V280 CAVOK 23/05 Q1022=
201606071220 METAR ESMX 071220Z 22010KT 190V250 CAVOK 23/04 Q1022=
201606071150 METAR ESMX 071150Z 23009KT 170V280 CAVOK 23/05 Q1023=
201606071120 METAR ESMX 071120Z 24009KT 200V260 CAVOK 22/04 Q1023=
201606071050 METAR ESMX 071050Z 24010KT CAVOK 21/03 Q1023=
201606071020 METAR ESMX 071020Z 23008KT 200V280 CAVOK 21/03 Q1023=
201606070950 METAR ESMX 070950Z 24008KT 190V270 CAVOK 20/04 Q1024=
201606070920 METAR ESMX 070920Z 21008KT 170V250 CAVOK 18/03 Q1024=
201606070850 METAR ESMX 070850Z 23007KT 190V260 CAVOK 19/03 Q1024=
201606070820 METAR ESMX 070820Z 21008KT CAVOK 18/02 Q1024=
201606070750 METAR ESMX 070750Z 24006KT 200V290 CAVOK 18/03 Q1025=
201606070720 METAR ESMX 070720Z 21008KT CAVOK 16/03 Q1025=
201606070650 METAR ESMX 070650Z 22008KT CAVOK 16/02 Q1025=
201606070620 METAR ESMX 070620Z 23006KT 180V270 CAVOK 15/03 Q1025=
201606070550 METAR ESMX 070550Z 21008KT CAVOK 14/03 Q1025=
201606070520 METAR ESMX 070520Z 22007KT CAVOK 14/03 Q1025=
201606070450 METAR ESMX 070450Z 20005KT CAVOK 11/04 Q1025=
201606070420 METAR ESMX 070420Z 22004KT CAVOK 10/05 Q1025=
201606070350 METAR ESMX 070350Z 22004KT CAVOK 10/05 Q1025=
201606070320 METAR ESMX 070320Z AUTO 20003KT 9999 BKN072/// BKN100/// 10/06 Q1025=
201606070250 METAR ESMX 070250Z AUTO 19003KT 9999 BKN073/// 10/06 Q1025=
201606070220 METAR ESMX 070220Z AUTO 18004KT 9999 BKN076/// BKN100/// 10/05 Q1025=
201606070150 METAR ESMX 070150Z AUTO 21004KT 9999 FEW080/// BKN096/// 09/05 Q1025=
201606070120 METAR ESMX 070120Z AUTO 22006KT 9999 FEW078/// BKN099/// 09/05 Q1025=
201606070050 METAR ESMX 070050Z AUTO 21006KT 9999 FEW078/// BKN098/// 10/05 Q1025=
201606070020 METAR ESMX 070020Z AUTO 21007KT 9999 FEW079/// BKN092/// 10/05 Q1025=
201606062350 METAR ESMX 062350Z AUTO 20007KT 9999 BKN092/// 10/05 Q1025=
201606062320 METAR ESMX 062320Z 20007KT CAVOK 09/05 Q1025=
201606062250 METAR ESMX 062250Z 20006KT CAVOK 10/05 Q1025=
201606062220 METAR ESMX 062220Z 19006KT CAVOK 09/05 Q1025=
201606062150 METAR ESMX 062150Z 19007KT CAVOK 10/06 Q1025=
201606062120 METAR ESMX 062120Z 17006KT CAVOK 12/06 Q1025=
201606062050 METAR ESMX 062050Z 17007KT CAVOK 12/06 Q1025=
201606062020 METAR ESMX 062020Z 17007KT CAVOK 13/06 Q1025=
201606061950 METAR ESMX 061950Z 16007KT CAVOK 14/07 Q1025=
201606061920 METAR ESMX 061920Z 16007KT CAVOK 15/07 Q1024=
201606061850 METAR ESMX 061850Z 16009KT CAVOK 16/07 Q1024=
201606061820 METAR ESMX 061820Z 16008KT CAVOK 17/07 Q1024=
201606061750 METAR ESMX 061750Z 00000KT CAVOK 20/M00 Q1024=
201606061720 METAR ESMX 061720Z VRB03KT CAVOK 20/00 Q1024=
201606061650 METAR ESMX 061650Z AUTO 36004KT 9999 NCD 20/00 Q1024=
201606061620 METAR ESMX 061620Z AUTO 02003KT 320V070 9999 NCD 20/M00 Q1024=
201606061550 METAR ESMX 061550Z 02005KT 330V070 CAVOK 20/M00 Q1025=
201606061520 METAR ESMX 061520Z 05005KT 010V080 CAVOK 20/M00 Q1025=
201606061450 METAR ESMX 061450Z 34005KT 300V030 CAVOK 19/M01 Q1025=
201606061420 METAR ESMX 061420Z 35004KT 290V090 CAVOK 20/M00 Q1025=
201606061350 METAR COR ESMX 061350Z 01005KT 320V060 CAVOK 19/M01 Q1025=
201606061320 METAR ESMX 061320Z VRB04KT CAVOK 19/M01 Q1025=
201606061250 METAR ESMX 061250Z VRB04KT CAVOK 19/00 Q1025=
201606061220 METAR ESMX 061220Z AUTO VRB04KT 9999 NCD 18/M00 Q1026=
201606061150 METAR ESMX 061150Z 05006KT 350V130 CAVOK 18/M00 Q1026=
201606061120 METAR ESMX 061120Z 04006KT 360V080 CAVOK 18/M00 Q1026=
201606061050 METAR ESMX 061050Z 04006KT 020V100 CAVOK 17/00 Q1026=
201606061020 METAR ESMX 061020Z AUTO 04007KT 010V070 9999 NCD 17/M01 Q1026=
201606060950 METAR ESMX 060950Z 04008KT 340V080 CAVOK 17/M00 Q1026=
201606060920 METAR ESMX 060920Z 04008KT 360V100 CAVOK 16/M01 Q1026=
201606060850 METAR ESMX 060850Z 01006KT 330V130 CAVOK 15/00 Q1026=
201606060820 METAR ESMX 060820Z 05007KT 340V080 CAVOK 15/M01 Q1026=
201606060750 METAR ESMX 060750Z 03007KT 330V080 CAVOK 14/M01 Q1026=
201606060720 METAR COR ESMX 060720Z 06005KT 010V140 CAVOK 15/00 Q1026=
201606060650 METAR ESMX 060650Z AUTO 07006KT 020V140 9999 NCD 13/M00 Q1026=
201606060620 METAR ESMX 060620Z AUTO 06005KT 010V100 9999 NCD 13/01 Q1026=
201606060550 METAR ESMX 060550Z AUTO 01005KT 340V050 9999 NCD 12/02 Q1026=
201606060520 METAR ESMX 060520Z AUTO VRB02KT 9999 NCD 12/04 Q1026=
201606060450 METAR ESMX 060450Z AUTO VRB03KT 9999 NCD 11/04 Q1026=
201606060420 METAR ESMX 060420Z AUTO 01002KT 9999 NCD 11/05 Q1026=
201606060350 METAR ESMX 060350Z AUTO 03003KT 9999 NCD 07/04 Q1026=
201606060320 METAR ESMX 060320Z AUTO 00000KT 9999 NCD 05/04 Q1025=
201606060250 METAR ESMX 060250Z AUTO VRB03KT 9999 NCD 05/03 Q1025=
201606060220 METAR ESMX 060220Z AUTO 08004KT 050V110 9999 NCD 07/04 Q1025=
201606060150 METAR ESMX 060150Z AUTO 08005KT 040V120 9999 NCD 08/04 Q1025=
201606060120 METAR ESMX 060120Z AUTO 07005KT 030V110 9999 NCD 09/04 Q1025=
201606060050 METAR ESMX 060050Z AUTO 07004KT 030V110 9999 FEW062/// 09/04 Q1025=
201606060020 METAR ESMX 060020Z AUTO 07004KT 030V120 9999 BKN053/// 10/04 Q1025=
201606052350 METAR ESMX 052350Z AUTO 09005KT 040V120 9999 BKN052/// 10/04 Q1025=
201606052320 METAR ESMX 052320Z AUTO 09006KT 060V130 9999 BKN051/// 10/04 Q1025=
201606052250 METAR ESMX 052250Z AUTO 05006KT 020V110 9999 OVC048/// 11/03 Q1024=
201606052220 METAR ESMX 052220Z AUTO 07006KT 030V140 9999 BKN048/// 11/04 Q1024=
201606052150 METAR ESMX 052150Z AUTO 07007KT 020V110 9999 FEW048/// 11/04 Q1024=
201606052120 METAR ESMX 052120Z AUTO 06005KT 010V110 9999 NCD 11/05 Q1024=
201606052050 METAR ESMX 052050Z AUTO 08007KT 040V120 9999 NCD 12/05 Q1023=
201606052020 METAR ESMX 052020Z AUTO 07008KT 040V120 9999 NCD 13/04 Q1023=
201606051950 METAR ESMX 051950Z AUTO 07007KT 030V140 9999 NCD 13/05 Q1022=
201606051920 METAR ESMX 051920Z AUTO 06008KT 010V100 9999 NCD 14/05 Q1022=
201606051850 METAR ESMX 051850Z AUTO 07009KT 040V120 9999 NCD 15/05 Q1021=
201606051820 METAR ESMX 051820Z AUTO 06010KT 9999 NCD 16/06 Q1020=
201606051750 METAR ESMX 051750Z AUTO 06011KT 030V100 9999 NCD 17/07 Q1020=
201606051720 METAR ESMX 051720Z AUTO 05011KT 9999 NCD 19/07 Q1019=
201606051650 METAR ESMX 051650Z AUTO 06010KT 030V100 9999 NCD 20/07 Q1019=
201606051620 METAR ESMX 051620Z AUTO 01014KT 9999 NCD 22/04 Q1018=
201606051550 METAR ESMX 051550Z AUTO 01014KT 9999 FEW077/// 23/04 Q1018=
201606051520 METAR ESMX 051520Z 02009KT CAVOK 22/05 Q1018=
201606051450 METAR ESMX 051450Z 35010KT 300V020 9999 BKN080 24/05 Q1018=
201606051420 METAR ESMX 051420Z 35008KT 320V030 CAVOK 24/05 Q1018=
201606051350 METAR ESMX 051350Z 31008KT 260V350 9999 FEW045 SCT081 24/05 Q1018=
201606051320 METAR ESMX 051320Z AUTO VRB04KT 9999 FEW076/// 23/05 Q1018=
201606051250 METAR ESMX 051250Z AUTO VRB04KT 9999 FEW056/// SCT076/// 22/07 Q1018=
201606051220 METAR ESMX 051220Z AUTO VRB03KT 9999 FEW041/// BKN064/// 23/07 Q1018=
201606051150 METAR ESMX 051150Z AUTO 15004KT 100V260 9999 FEW061/// 22/06 Q1018=
201606051120 METAR ESMX 051120Z AUTO 13004KT 060V200 9999 NCD 21/07 Q1019=
201606051050 METAR ESMX 051050Z AUTO 01005KT 310V110 9999 NCD 20/06 Q1019=
201606051020 METAR ESMX 051020Z AUTO VRB03KT 9999 NCD 21/07 Q1019=
201606050950 METAR ESMX 050950Z AUTO VRB03KT 9999 NCD 20/07 Q1019=
201606050920 METAR ESMX 050920Z AUTO 08005KT 030V130 9999 NCD 20/08 Q1019=
201606050850 METAR ESMX 050850Z AUTO VRB03KT 9999 NCD 19/08 Q1019=
201606050820 METAR ESMX 050820Z AUTO 09003KT 360V170 9999 NCD 19/08 Q1019=
201606050750 METAR ESMX 050750Z AUTO 17003KT 110V230 9999 NCD 18/09 Q1019=
201606050720 METAR ESMX 050720Z AUTO VRB03KT 9999 NCD 17/08 Q1019=
201606050650 METAR ESMX 050650Z AUTO 14004KT 090V170 9999 NCD 16/09 Q1019=
201606050620 METAR ESMX 050620Z AUTO 13003KT 050V210 9999 NCD 15/09 Q1019=
201606050550 METAR ESMX 050550Z AUTO 17004KT 120V220 9999 NCD 15/09 Q1019=
201606050520 METAR ESMX 050520Z AUTO VRB03KT 9999 NCD 14/10 Q1018=
201606050450 METAR ESMX 050450Z AUTO 11003KT 070V150 9999 NCD 13/10 Q1018=
201606050420 METAR ESMX 050420Z AUTO 11003KT 050V160 9999 FEW008/// 12/10 Q1018=
201606050350 METAR ESMX 050350Z AUTO 10003KT 050V150 9999 FEW008/// 12/10 Q1018=
201606050320 METAR ESMX 050320Z AUTO 11003KT 050V160 9999 BKN048/// 11/09 Q1018=
201606050250 METAR ESMX 050250Z AUTO 09003KT 050V140 9999 BKN048/// 11/09 Q1018=
201606050220 METAR ESMX 050220Z AUTO 08004KT 040V120 9999 OVC048/// 11/08 Q1018=
201606050150 METAR ESMX 050150Z AUTO VRB03KT 9999 BKN048/// 11/08 Q1018=
201606050120 METAR ESMX 050120Z AUTO 10004KT 9999 BKN048/// 11/07 Q1018=
201606050050 METAR ESMX 050050Z AUTO 09003KT 9999 FEW048/// 11/08 Q1018=
201606050020 METAR ESMX 050020Z AUTO 10004KT 070V140 9999 NCD 12/08 Q1018=
201606042350 METAR ESMX 042350Z AUTO 10004KT 060V130 9999 BKN048/// 13/09 Q1018=
201606042320 METAR ESMX 042320Z AUTO 12004KT 060V160 9999 BKN043/// 13/09 Q1018=
201606042250 METAR ESMX 042250Z AUTO 13004KT 060V230 9999 OVC041/// 14/08 Q1018=
201606042220 METAR ESMX 042220Z AUTO 16005KT 9999 OVC038/// 14/08 Q1018=
201606042150 METAR ESMX 042150Z AUTO 13003KT 080V160 9999 OVC036/// 14/08 Q1018=
201606042120 METAR ESMX 042120Z AUTO 12005KT 070V160 9999 OVC036/// 15/07 Q1017=
201606042050 METAR ESMX 042050Z AUTO 12005KT 090V170 9999 OVC035/// 15/07 Q1017=
201606042020 METAR ESMX 042020Z AUTO 07004KT 020V120 9999 SCT034/// 15/10 Q1017=
201606041950 METAR ESMX 041950Z AUTO 08004KT 9999 NCD 15/10 Q1016=
201606041920 METAR ESMX 041920Z AUTO 07004KT 030V100 9999 NCD 16/11 Q1016=
201606041850 METAR ESMX 041850Z AUTO 04006KT 9999 FEW088/// 17/11 Q1015=
201606041820 METAR ESMX 041820Z AUTO 04004KT 360V080 9999 NCD 18/11 Q1015=
201606041750 METAR ESMX 041750Z AUTO 10004KT 050V140 9999 FEW091/// 18/11 Q1015=
201606041720 METAR ESMX 041720Z AUTO 05004KT 350V080 9999 FEW029/// 18/11 Q1015=
201606041650 METAR ESMX 041650Z AUTO 08004KT 030V120 9999 NCD 18/11 Q1015=
201606041620 METAR ESMX 041620Z AUTO 07005KT 020V110 9999 FEW099/// 17/11 Q1016=
201606041550 METAR ESMX 041550Z AUTO 05007KT 9999 FEW094/// 17/11 Q1016=
201606041520 METAR ESMX 041520Z AUTO 04010KT 9999 FEW100/// 17/10 Q1016=
201606041450 METAR ESMX 041450Z AUTO 04009KT 020V080 9999 FEW070/// SCT100/// 19/11 Q1016=
201606041420 METAR ESMX 041420Z AUTO 05007KT 030V100 9999 FEW071/// SCT100/// 19/11 Q1016=
201606041350 METAR ESMX 041350Z AUTO 04010KT 9999 FEW099/// 20/11 Q1016=
201606041320 METAR ESMX 041320Z AUTO 05010KT 9999 NCD 20/10 Q1016=
201606041250 METAR ESMX 041250Z AUTO 07008KT 020V120 9999 FEW066/// 20/10 Q1015=
201606041220 METAR ESMX 041220Z AUTO 07010KT 020V110 9999 FEW066/// 21/09 Q1015=
201606041150 METAR ESMX 041150Z AUTO 06010KT 020V110 9999 NCD 22/10 Q1015=
201606041120 METAR ESMX 041120Z AUTO 04011KT 9999 NCD 22/10 Q1015=
201606041050 METAR ESMX 041050Z AUTO 04010KT 020V080 9999 NCD 23/12 Q1015=
201606041020 METAR ESMX 041020Z AUTO 08007KT 030V120 9999 FEW059/// 23/13 Q1015=
201606040950 METAR ESMX 040950Z AUTO 05010KT 9999 NCD 22/13 Q1015=
201606040920 METAR ESMX 040920Z AUTO 04008KT 9999 FEW058/// 21/13 Q1015=
201606040850 METAR ESMX 040850Z AUTO 04007KT 020V080 9999 FEW054/// 21/12 Q1015=
201606040820 METAR ESMX 040820Z AUTO 03007KT 360V060 9999 NCD 21/12 Q1015=
201606040750 METAR ESMX 040750Z AUTO 36007KT 9999 NCD 20/12 Q1014=
201606040720 METAR ESMX 040720Z AUTO 03005KT 340V070 9999 NCD 21/13 Q1014=
201606040650 METAR ESMX 040650Z AUTO 03006KT 010V070 9999 NCD 20/13 Q1014=
201606040620 METAR ESMX 040620Z AUTO 05006KT 010V100 9999 NCD 19/12 Q1014=
201606040550 METAR ESMX 040550Z AUTO 01005KT 9999 NCD 18/12 Q1014=
201606040520 METAR ESMX 040520Z AUTO 03005KT 9999 NCD 18/13 Q1014=
201606040450 METAR ESMX 040450Z AUTO VRB02KT 9999 NCD 17/13 Q1014=
201606040420 METAR ESMX 040420Z AUTO 19002KT 9999 NCD 13/11 Q1014=
201606040350 METAR ESMX 040350Z AUTO 18001KT 9999 NCD 11/09 Q1014=
201606040320 METAR ESMX 040320Z AUTO VRB02KT 9999 NCD 11/09 Q1014=
201606040250 METAR ESMX 040250Z AUTO 17002KT 9999 NCD 10/09 Q1014=
201606040220 METAR ESMX 040220Z AUTO VRB02KT 9999 NCD 11/09 Q1014=
201606040150 METAR ESMX 040150Z AUTO VRB01KT 9999 NCD 11/09 Q1014=
201606040120 METAR ESMX 040120Z AUTO 00000KT 9999 NCD 11/10 Q1014=
201606040050 METAR ESMX 040050Z AUTO 15002KT 9999 NCD 12/10 Q1014=
201606040020 METAR ESMX 040020Z AUTO 21003KT 9999 NCD 12/10 Q1014=
201606032350 METAR ESMX 032350Z AUTO 23003KT 9999 NCD 12/10 Q1014=
201606032320 METAR ESMX 032320Z AUTO 23003KT 9999 NCD 13/11 Q1015=
201606032250 METAR ESMX 032250Z AUTO VRB03KT 9999 NCD 15/11 Q1015=
201606032220 METAR ESMX 032220Z AUTO 26004KT 9999 NCD 15/11 Q1015=
201606032150 METAR ESMX 032150Z AUTO 23004KT 9999 NCD 16/11 Q1015=
201606032120 METAR ESMX 032120Z AUTO 22005KT 9999 NCD 18/12 Q1015=
201606032050 METAR ESMX 032050Z AUTO 22005KT 9999 NCD 18/12 Q1015=
201606032020 METAR ESMX 032020Z 20006KT CAVOK 19/12 Q1014=
201606031950 METAR ESMX 031950Z 17006KT CAVOK 20/11 Q1014=
201606031920 METAR ESMX 031920Z 17004KT CAVOK 22/09 Q1014=
201606031850 METAR ESMX 031850Z 17003KT CAVOK 23/08 Q1014=
201606031820 METAR ESMX 031820Z 16005KT CAVOK 25/08 Q1014=
201606031750 METAR ESMX 031750Z 16006KT CAVOK 26/07 Q1014=
201606031720 METAR ESMX 031720Z 07003KT 020V150 CAVOK 27/09 Q1014=
201606031650 METAR ESMX 031650Z 04006KT 360V080 CAVOK 27/07 Q1014=
201606031620 METAR ESMX 031620Z 02006KT 350V070 CAVOK 27/07 Q1014=
201606031550 METAR ESMX 031550Z 02007KT 350V060 CAVOK 28/08 Q1014=
201606031520 METAR ESMX 031520Z 36006KT 340V060 CAVOK 28/07 Q1014=
201606031450 METAR ESMX 031450Z 35007KT CAVOK 28/08 Q1015=
201606031420 METAR ESMX 031420Z 34007KT 300V020 CAVOK 28/07 Q1015=
201606031350 METAR ESMX 031350Z 01007KT 340V060 CAVOK 27/07 Q1015=
201606031320 METAR ESMX 031320Z 01006KT 300V050 CAVOK 27/08 Q1015=
201606031250 METAR ESMX 031250Z 35008KT CAVOK 27/07 Q1015=
201606031220 METAR ESMX 031220Z 36008KT 320V030 CAVOK 27/07 Q1016=
201606031150 METAR ESMX 031150Z 02007KT 330V060 CAVOK 26/08 Q1016=
201606031120 METAR ESMX 031120Z 36007KT 320V040 CAVOK 26/07 Q1016=
201606031050 METAR ESMX 031050Z 02008KT 340V060 CAVOK 26/07 Q1016=
201606031020 METAR ESMX 031020Z 03007KT 350V070 CAVOK 25/08 Q1017=
201606030950 METAR ESMX 030950Z 01006KT 300V060 CAVOK 25/10 Q1017=
201606030920 METAR ESMX 030920Z 34007KT 300V010 CAVOK 25/10 Q1017=
201606030850 METAR ESMX 030850Z 01007KT 320V060 CAVOK 23/10 Q1017=
201606030820 METAR ESMX 030820Z 04006KT 340V080 CAVOK 23/10 Q1017=
201606030750 METAR ESMX 030750Z 35006KT 330V040 CAVOK 22/11 Q1017=
201606030720 METAR ESMX 030720Z 03005KT 360V080 CAVOK 21/11 Q1018=
201606030650 METAR ESMX 030650Z 02006KT CAVOK 20/11 Q1018=
201606030620 METAR ESMX 030620Z 01007KT CAVOK 19/10 Q1018=
201606030550 METAR ESMX 030550Z 03006KT CAVOK 18/10 Q1018=
201606030520 METAR ESMX 030520Z 02006KT CAVOK 17/09 Q1018=
201606030450 METAR ESMX 030450Z 03006KT CAVOK 16/08 Q1018=
201606030420 METAR ESMX 030420Z 03008KT CAVOK 15/07 Q1018=
201606030350 METAR ESMX 030350Z 04008KT CAVOK 15/06 Q1018=
201606030320 METAR ESMX 030320Z AUTO 03007KT 9999 NCD 14/06 Q1018=
201606030250 METAR ESMX 030250Z AUTO 04006KT 9999 NCD 14/07 Q1018=
201606030220 METAR ESMX 030220Z AUTO 03006KT 9999 NCD 14/06 Q1018=
201606030150 METAR ESMX 030150Z AUTO 04007KT 9999 NCD 14/06 Q1018=
201606030120 METAR ESMX 030120Z AUTO 04007KT 9999 NCD 14/06 Q1018=
201606030050 METAR ESMX 030050Z AUTO 04007KT 9999 NCD 15/05 Q1018=
201606030020 METAR ESMX 030020Z 03006KT CAVOK 15/04 Q1018=
201606022350 METAR ESMX 022350Z 03005KT CAVOK 15/04 Q1018=
201606022320 METAR ESMX 022320Z 03006KT CAVOK 16/04 Q1019=
201606022250 METAR ESMX 022250Z 03006KT CAVOK 16/03 Q1019=
201606022220 METAR ESMX 022220Z 03006KT CAVOK 17/04 Q1018=
201606022150 METAR ESMX 022150Z 04005KT CAVOK 17/05 Q1019=
201606022120 METAR ESMX 022120Z 04004KT 010V090 CAVOK 18/05 Q1019=
201606022050 METAR ESMX 022050Z 05006KT 020V080 CAVOK 19/05 Q1019=
201606022020 METAR ESMX 022020Z 06005KT 030V100 CAVOK 20/06 Q1018=
201606021950 METAR ESMX 021950Z 04005KT CAVOK 21/07 Q1018=
201606021920 METAR ESMX 021920Z 07005KT 050V110 CAVOK 22/07 Q1018=
201606021850 METAR ESMX 021850Z 05006KT CAVOK 23/08 Q1018=
201606021820 METAR ESMX 021820Z 05006KT 020V100 CAVOK 24/08 Q1018=
201606021750 METAR ESMX 021750Z 07006KT 030V110 CAVOK 24/08 Q1017=
201606021720 METAR ESMX 021720Z 06007KT 020V100 CAVOK 25/09 Q1017=
201606021650 METAR ESMX 021650Z 07008KT 030V110 CAVOK 25/10 Q1017=
201606021620 METAR ESMX 021620Z 07008KT 030V120 CAVOK 26/10 Q1017=
201606021550 METAR ESMX 021550Z 09009KT 040V160 CAVOK 26/10 Q1017=
201606021520 METAR ESMX 021520Z 08007KT 040V160 CAVOK 27/11 Q1017=
201606021450 METAR ESMX 021450Z VRB07KT CAVOK 27/10 Q1017=
201606021420 METAR ESMX 021420Z 08009KT 040V120 9999 FEW070TCU 27/11 Q1017=
201606021350 METAR ESMX 021350Z 06009KT 020V100 9999 FEW065TCU 27/11 Q1017=
201606021320 METAR ESMX 021320Z 05010KT 010V100 9999 FEW064TCU 26/11 Q1017=
201606021250 METAR ESMX 021250Z 09009KT 050V120 9999 FEW056TCU SCT075 26/11 Q1017=
201606021220 METAR ESMX 021220Z 09009KT 050V130 9999 FEW064TCU 28/12 Q1017=
201606021150 METAR ESMX 021150Z 08009KT 040V130 9999 FEW060TCU 27/12 Q1017=
201606021120 METAR ESMX 021120Z 09010KT 040V140 CAVOK 27/12 Q1017=
201606021050 METAR ESMX 021050Z 08011KT 050V130 CAVOK 27/12 Q1017=
201606021020 METAR ESMX 021020Z 09009KT 050V130 CAVOK 27/12 Q1017=
201606020950 METAR ESMX 020950Z 05010KT 020V100 CAVOK 27/13 Q1017=
201606020920 METAR ESMX 020920Z 06009KT 010V110 CAVOK 26/12 Q1017=
201606020850 METAR ESMX 020850Z 06009KT 030V090 CAVOK 25/13 Q1017=
201606020820 METAR ESMX 020820Z 06008KT 020V080 CAVOK 25/13 Q1017=
201606020750 METAR ESMX 020750Z 04009KT CAVOK 24/12 Q1017=
201606020720 METAR ESMX 020720Z 04008KT CAVOK 23/12 Q1017=
201606020650 METAR ESMX 020650Z 04008KT 010V090 CAVOK 21/12 Q1017=
201606020620 METAR ESMX 020620Z 05007KT 020V090 CAVOK 20/12 Q1017=
201606020550 METAR ESMX 020550Z 04007KT 020V080 CAVOK 19/12 Q1017=
201606020520 METAR ESMX 020520Z 04009KT CAVOK 18/11 Q1017=
201606020450 METAR COR ESMX 020450Z 04009KT CAVOK 17/11 Q1017=
201606020420 METAR ESMX 020420Z 04008KT CAVOK 16/11 Q1017=
201606020350 METAR ESMX 020350Z 04007KT CAVOK 16/10 Q1017=
201606020320 METAR ESMX 020320Z AUTO 02007KT 9999 NCD 15/10 Q1017=
201606020250 METAR ESMX 020250Z AUTO 02007KT 9999 NCD 15/10 Q1017=
201606020220 METAR ESMX 020220Z AUTO 03006KT 9999 NCD 15/10 Q1017=
201606020150 METAR ESMX 020150Z AUTO 02007KT 9999 FEW087/// 15/10 Q1017=
201606020120 METAR ESMX 020120Z AUTO 02006KT 9999 NCD 16/10 Q1017=
201606020050 METAR ESMX 020050Z AUTO 03005KT 010V070 9999 NCD 16/11 Q1017=
201606020020 METAR ESMX 020020Z AUTO 03006KT 9999 NCD 16/11 Q1017=
201606012350 METAR ESMX 012350Z AUTO 03006KT 9999 FEW067/// 16/11 Q1018=
201606012320 METAR ESMX 012320Z 03006KT CAVOK 17/12 Q1018=
201606012250 METAR ESMX 012250Z 03006KT CAVOK 17/12 Q1018=
201606012220 METAR ESMX 012220Z 04005KT CAVOK 18/12 Q1018=
201606012150 METAR ESMX 012150Z 03005KT CAVOK 18/12 Q1018=
201606012120 METAR ESMX 012120Z 04005KT CAVOK 18/12 Q1018=
201606012050 METAR ESMX 012050Z 02003KT CAVOK 19/12 Q1018=
201606012020 METAR ESMX 012020Z 07004KT CAVOK 20/12 Q1018=
201606011950 METAR ESMX 011950Z 07005KT 030V110 CAVOK 21/12 Q1018=
201606011920 METAR ESMX 011920Z 07005KT 030V120 CAVOK 22/12 Q1018=
201606011850 METAR ESMX 011850Z 07006KT 020V120 CAVOK 23/12 Q1018=
201606011820 METAR ESMX 011820Z 07007KT 020V110 CAVOK 23/11 Q1017=
201606011750 METAR ESMX 011750Z 05007KT 020V080 CAVOK 24/11 Q1017=
201606011720 METAR ESMX 011720Z 07009KT 030V100 CAVOK 25/11 Q1017=
201606011650 METAR ESMX 011650Z 06008KT 020V110 CAVOK 25/12 Q1017=
201606011620 METAR ESMX 011620Z 06007KT 040V110 CAVOK 25/12 Q1017=
201606011550 METAR ESMX 011550Z 07007KT 030V110 CAVOK 25/12 Q1017=
201606011520 METAR ESMX 011520Z 07007KT 020V110 CAVOK 26/13 Q1017=
201606011450 METAR ESMX 011450Z 06008KT 040V110 CAVOK 26/12 Q1017=
201606011420 METAR ESMX 011420Z 08007KT 030V120 CAVOK 26/13 Q1017=
201606011350 METAR ESMX 011350Z 07007KT 050V110 CAVOK 25/12 Q1018=
201606011320 METAR ESMX 011320Z 07009KT 020V150 CAVOK 27/13 Q1018=
201606011250 METAR ESMX 011250Z 08007KT 030V120 CAVOK 26/12 Q1018=
201606011220 METAR ESMX 011220Z 06009KT 020V110 CAVOK 27/13 Q1018=
