##########################################################
# Query made at 04/19/2024 21:53:30 UTC
# Time interval: from 09/01/2016 12:00  to 09/30/2016 12:59  UTC
##########################################################

##########################################################
# ESMX, Vaxjo (Sweden)
# WMO index: 02641. WIGOS ID: 0-20000-0-02648
# Latitude 56-51N. Longitude 014-50E. Altitude 199 m.
##########################################################

201609301250 METAR ESMX 301250Z 21010KT 9999 SCT026 14/09 Q1004=
201609301220 METAR ESMX 301220Z 20013KT 9999 SCT035CB 14/08 Q1004=
201609301150 METAR ESMX 301150Z 23014G25KT 200V260 9999 FEW030CB SCT035 14/07 Q1004=
201609301120 METAR ESMX 301120Z 23014KT 9999 SCT031 15/07 Q1004=
201609301050 METAR ESMX 301050Z 24013KT 190V290 9999 SCT035 14/06 Q1004=
201609301020 METAR ESMX 301020Z 24011KT 210V290 9999 SCT033 13/07 Q1004=
201609300950 METAR ESMX 300950Z 22012KT 190V260 9999 SCT029 14/07 Q1004=
201609300920 METAR ESMX 300920Z 23013KT 200V270 9999 FEW035 13/07 Q1004=
201609300850 METAR ESMX 300850Z 24012G26KT 210V270 9999 FEW025 SCT030 14/07 Q1004=
201609300820 METAR ESMX 300820Z 23012KT 200V260 9999 SCT025 13/08 Q1003=
201609300750 METAR ESMX 300750Z 23012KT 9999 FEW025 12/08 Q1003=
201609300720 METAR ESMX 300720Z 25013KT 9999 FEW035 12/07 Q1003=
201609300650 METAR ESMX 300650Z 23011KT CAVOK 11/08 Q1002=
201609300620 METAR ESMX 300620Z 22010KT 9999 FEW017 10/08 Q1002=
201609300550 METAR ESMX 300550Z 23010KT 9999 FEW024 10/08 Q1002=
201609300520 METAR ESMX 300520Z 24009KT 9999 FEW020 10/08 Q1001=
201609300450 METAR ESMX 300450Z 24009KT 9999 FEW015 10/07 Q1001=
201609300420 METAR ESMX 300420Z 25010KT 9999 FEW017 SCT020 11/08 Q1000=
201609300350 METAR COR ESMX 300350Z 25012KT 9999 FEW017 SCT022 11/08 Q1000=
201609300320 METAR ESMX 300320Z AUTO 22012KT 9999 FEW018/// SCT024/// BKN033/// 11/09 Q0999=
201609300250 METAR ESMX 300250Z AUTO 23013KT 9999 FEW017/// SCT032/// BKN036/// 11/08 Q0999=
201609300220 METAR ESMX 300220Z AUTO 21012KT 9999 FEW035/// 11/09 Q0998=
201609300150 METAR ESMX 300150Z AUTO 22013KT 9999 FEW039/// 11/08 Q0998=
201609300120 METAR ESMX 300120Z AUTO 22012KT 9999 FEW034/// 11/08 Q0998=
201609300050 METAR ESMX 300050Z AUTO 21012KT 9999 NCD 11/08 Q0998=
201609300020 METAR ESMX 300020Z AUTO 21011KT 9999 NCD 11/09 Q0999=
201609292320 METAR ESMX 292320Z 21010KT 9999 FEW027 11/09 Q0999=
201609292250 METAR ESMX 292250Z 22012KT 9999 FEW021 SCT029 BKN036 12/09 Q0998=
201609292220 METAR ESMX 292220Z 22012KT 9999 -RA FEW030 SCT037 BKN053 12/09 Q0999=
201609292150 METAR ESMX 292150Z 23012KT CAVOK 12/09 Q0999=
201609292120 METAR ESMX 292120Z 21012KT CAVOK 12/09 Q0999=
201609292050 METAR ESMX 292050Z 21012KT CAVOK 12/09 Q0999=
201609292020 METAR ESMX 292020Z 21012KT CAVOK 12/10 Q0998=
201609291950 METAR ESMX 291950Z 22012KT 9999 FEW048 12/10 Q0998=
201609291920 METAR ESMX 291920Z 22014KT 9999 FEW038 13/10 Q0999=
201609291850 METAR ESMX 291850Z 21014KT 9999 FEW028 13/11 Q0999=
201609291820 METAR ESMX 291820Z 22013KT 9999 FEW011 13/11 Q0999=
201609291750 METAR ESMX 291750Z 22013KT 9999 FEW013 SCT021 13/11 Q0998=
201609291720 METAR ESMX 291720Z 21012KT 9999 FEW043 13/11 Q0998=
201609291650 METAR ESMX 291650Z 21012KT CAVOK 13/11 Q0999=
201609291620 METAR ESMX 291620Z 22013KT CAVOK 14/11 Q0999=
201609291550 METAR ESMX 291550Z 21012KT CAVOK 14/12 Q0999=
201609291520 METAR ESMX 291520Z 22015G26KT 9999 FEW025 SCT044 BKN054 15/12 Q0999=
201609291450 METAR COR ESMX 291450Z 25016G28KT 9999 FEW009 SCT015 BKN031 14/12 Q0999=
201609291420 METAR ESMX 291420Z 23013KT 190V260 9000 -RA FEW005 BKN010 16/15 Q0998=
201609291350 METAR ESMX 291350Z 22013KT 6000 RA FEW005 BKN010 17/16 Q0998=
201609291320 METAR ESMX 291320Z 22012KT 9000 -RA FEW008 BKN010 17/16 Q0999=
201609291250 METAR ESMX 291250Z 22012KT 5000 RA FEW010 BKN015 17/15 Q0999=
201609291220 METAR ESMX 291220Z 21015KT 9999 OVC025 19/14 Q0999=
201609291150 METAR ESMX 291150Z 21015G26KT 9999 BKN024 19/14 Q1000=
201609291120 METAR ESMX 291120Z 21016G27KT 9999 BKN024 19/14 Q1000=
201609291050 METAR ESMX 291050Z 21017KT 9999 FEW020 SCT025 BKN030 19/15 Q1001=
201609291020 METAR ESMX 291020Z 22016KT 9999 FEW016 BKN021 18/15 Q1001=
201609290950 METAR ESMX 290950Z 21016KT 9999 SCT016 BKN020 18/15 Q1002=
201609290920 METAR ESMX 290920Z 20015KT 9999 FEW009 SCT013 BKN016 17/15 Q1003=
201609290850 METAR ESMX 290850Z 19013KT 9999 FEW006 SCT008 BKN011 17/16 Q1003=
201609290820 METAR ESMX 290820Z 19014KT 9999 FEW004 SCT006 BKN007 16/15 Q1004=
201609290750 METAR ESMX 290750Z 20015KT 9999 BKN002 OVC005 16/15 Q1004=
201609290720 METAR ESMX 290720Z 20016KT 5000 BR OVC002 15/14 Q1005=
201609290650 METAR ESMX 290650Z 19014KT 9000 BR OVC002 15/14 Q1005=
201609290620 METAR ESMX 290620Z 19016KT 3600 BR OVC002 14/14 Q1005=
201609290550 METAR ESMX 290550Z 19013KT 4500 BR OVC002 14/13 Q1006=
201609290520 METAR ESMX 290520Z 18012KT 2100 BR OVC002 13/13 Q1006=
201609290450 METAR ESMX 290450Z 18011KT 2300 BR OVC002 13/12 Q1007=
201609290420 METAR ESMX 290420Z 19011KT 2700 BR BKN005 13/12 Q1007=
201609290350 METAR ESMX 290350Z 18009KT 9999 FEW008 BKN010 13/11 Q1007=
201609290320 METAR ESMX 290320Z AUTO 19009KT 9999 BR BKN009/// OVC013/// 13/11 Q1008=
201609290250 METAR ESMX 290250Z AUTO 21009KT 9999 FEW014/// BKN028/// BKN058/// 13/11 Q1008=
201609290220 METAR ESMX 290220Z AUTO 22009KT 9999 FEW029/// SCT033/// OVC043/// 13/11 Q1009=
201609290150 METAR ESMX 290150Z AUTO 22007KT 9999 FEW034/// 12/10 Q1009=
201609290120 METAR ESMX 290120Z AUTO 22007KT 9999 FEW019/// BKN032/// 12/10 Q1010=
201609290050 METAR ESMX 290050Z AUTO 22006KT 9999 FEW018/// SCT021/// 12/10 Q1010=
201609290020 METAR ESMX 290020Z AUTO 22006KT 9999 FEW089/// 12/10 Q1010=
201609282350 METAR ESMX 282350Z AUTO 24008KT 9999 FEW035/// BKN089/// 13/10 Q1010=
201609282320 METAR ESMX 282320Z 25009KT 9999 FEW022 SCT040 13/10 Q1010=
201609282250 METAR ESMX 282250Z 23007KT 210V270 9999 FEW022 BKN038 13/10 Q1010=
201609282220 METAR ESMX 282220Z 24009KT 9999 FEW023 BKN038 13/09 Q1009=
201609282150 METAR ESMX 282150Z 26010KT 9999 FEW023 SCT027 BKN036 13/09 Q1010=
201609282120 METAR ESMX 282120Z 25011KT 9999 BKN036 13/09 Q1009=
201609282050 METAR ESMX 282050Z 26009KT 9999 FEW027 BKN038 13/09 Q1009=
201609282020 METAR ESMX 282020Z 24010KT 200V270 9999 BKN038 13/10 Q1009 REDZ=
201609281950 METAR ESMX 281950Z 26008KT 230V290 8000 DZ FEW018 BKN021 13/11 Q1009=
201609281920 METAR ESMX 281920Z 26011KT 9999 FEW023 BKN044 13/10 Q1009=
201609281850 METAR ESMX 281850Z 25012KT 230V290 9999 FEW023 SCT028 13/10 Q1009=
201609281820 METAR ESMX 281820Z 25010KT 210V280 9999 FEW026 SCT060 13/09 Q1009=
201609281750 METAR ESMX 281750Z 25011KT 9999 FEW021 SCT048 13/10 Q1008=
201609281720 METAR ESMX 281720Z 26011KT 9999 FEW027 SCT060 13/10 Q1008=
201609281650 METAR ESMX 281650Z 24012KT 200V260 9999 FEW031 SCT043 14/10 Q1008=
201609281620 METAR ESMX 281620Z 26012KT 220V280 9999 FEW028 SCT031 15/09 Q1008=
201609281550 METAR ESMX 281550Z 25012KT 9999 FEW016 BKN030 OVC038 15/10 Q1008=
201609281520 METAR ESMX 281520Z 25012G24KT 210V280 9999 FEW029 SCT037 BKN069 15/10 Q1007=
201609281450 METAR COR ESMX 281450Z 28012KT 9999 FEW011 SCT030 BKN041 14/11 Q1008=
201609281420 METAR ESMX 281420Z 25015KT 9999 FEW026 SCT030 BKN034 15/10 Q1007=
201609281350 METAR ESMX 281350Z 25014KT 9999 FEW028 SCT041 16/10 Q1007=
201609281320 METAR ESMX 281320Z 26015KT 9999 FEW028 SCT033 BKN053 16/10 Q1007=
201609281250 METAR ESMX 281250Z 26017KT 9999 FEW025 SCT029 BKN033 16/10 Q1007=
201609281220 METAR ESMX 281220Z 26013G27KT 230V290 9999 SCT023 16/11 Q1008=
201609281150 METAR ESMX 281150Z 26012KT 9999 -RA FEW018 SCT027 BKN033 15/12 Q1007=
201609281120 METAR ESMX 281120Z 26011KT 230V290 9999 FEW015 SCT031 16/12 Q1007=
201609281050 METAR ESMX 281050Z 25010KT 9999 FEW026 15/12 Q1007=
201609281020 METAR ESMX 281020Z 25012KT 210V290 7000 RA FEW006 SCT019 BKN026 14/12 Q1007=
201609280950 METAR ESMX 280950Z 23012KT 200V260 9999 -RA FEW015 SCT022 BKN030 16/13 Q1007=
201609280920 METAR ESMX 280920Z 22013KT 190V250 9999 FEW010 SCT014 BKN016 16/13 Q1008=
201609280850 METAR ESMX 280850Z 22010KT 190V250 9999 FEW010 SCT013 BKN016 15/13 Q1008=
201609280820 METAR ESMX 280820Z 21010KT 9999 FEW008 BKN042 14/13 Q1008=
201609280750 METAR ESMX 280750Z 21011KT 9999 FEW006 SCT008 BKN010 14/13 Q1008=
201609280720 METAR ESMX 280720Z 20011KT 9000 -DZ FEW007 SCT011 BKN067 13/12 Q1009=
201609280650 METAR COR ESMX 280650Z 21012KT 9000 -RA FEW007 BKN010 13/12 Q1009=
201609280620 METAR ESMX 280620Z 21012KT 8000 -RA FEW006 SCT009 BKN010 13/12 Q1010=
201609280550 METAR ESMX 280550Z 19012KT 9999 FEW007 SCT009 BKN010 13/12 Q1010=
201609280520 METAR ESMX 280520Z 20013KT 8000 -DZ FEW006 SCT008 BKN010 13/12 Q1011=
201609280450 METAR ESMX 280450Z 19012KT 7000 RA FEW006 BKN010 13/12 Q1011=
201609280420 METAR ESMX 280420Z 19014KT 5000 RA FEW006 SCT013 BKN015 13/12 Q1011=
201609280350 METAR ESMX 280350Z 20015KT 9999 -RA FEW017 BKN020 14/11 Q1012=
201609280320 METAR ESMX 280320Z AUTO 19015KT 9999 BKN033/// BKN045/// 15/11 Q1013=
201609280250 METAR ESMX 280250Z AUTO 19015KT 9999 SCT038/// 15/10 Q1014 RERA=
201609280220 METAR ESMX 280220Z AUTO 20013KT 9999 BKN049/// 15/10 Q1015=
201609280150 METAR ESMX 280150Z AUTO 19011KT 9999 FEW063/// 14/10 Q1015=
201609280120 METAR ESMX 280120Z AUTO 18011KT 9999 SCT080/// 14/10 Q1016=
201609280050 METAR ESMX 280050Z AUTO 17010KT 9999 FEW084/// 14/09 Q1016=
201609280020 METAR ESMX 280020Z AUTO 17008KT 9999 BKN087/// 14/10 Q1017=
201609272350 METAR ESMX 272350Z 17008KT CAVOK 13/10 Q1018=
201609272320 METAR ESMX 272320Z 17008KT CAVOK 13/10 Q1018=
201609272250 METAR ESMX 272250Z 18009KT CAVOK 13/10 Q1019=
201609272220 METAR ESMX 272220Z 17009KT CAVOK 13/11 Q1019=
201609272150 METAR ESMX 272150Z 18010KT CAVOK 13/11 Q1020=
201609272120 METAR ESMX 272120Z 18009KT CAVOK 13/11 Q1020=
201609272050 METAR ESMX 272050Z 18009KT CAVOK 13/11 Q1021=
201609272020 METAR ESMX 272020Z 18009KT CAVOK 13/11 Q1021=
201609271950 METAR ESMX 271950Z 17008KT 9999 SCT035 14/10 Q1022=
201609271920 METAR ESMX 271920Z 17007KT 9999 BKN038 14/10 Q1022=
201609271850 METAR ESMX 271850Z 17006KT 9999 SCT040 BKN055 14/10 Q1022=
201609271820 METAR ESMX 271820Z 16007KT 9999 FEW040 14/09 Q1022=
201609271750 METAR ESMX 271750Z 16007KT 9999 FEW034 SCT048 15/09 Q1023=
201609271720 METAR ESMX 271720Z 18007KT 9999 FEW032 BKN060 16/09 Q1023=
201609271650 METAR ESMX 271650Z 17007KT 9999 FEW040 SCT050 BKN061 16/10 Q1023=
201609271620 METAR ESMX 271620Z 18006KT 9999 FEW043 SCT053 17/10 Q1023=
201609271550 METAR ESMX 271550Z 18008KT 9999 FEW041 SCT057 17/10 Q1023=
201609271520 METAR ESMX 271520Z 19009KT CAVOK 18/09 Q1023=
201609271450 METAR ESMX 271450Z 18009KT CAVOK 19/09 Q1024=
201609271420 METAR ESMX 271420Z 20012KT 9999 FEW045 19/08 Q1024=
201609271350 METAR ESMX 271350Z 19011KT 9999 FEW044 19/08 Q1024=
201609271320 METAR ESMX 271320Z 19012KT 9999 FEW039 19/08 Q1024=
201609271250 METAR ESMX 271250Z 20008KT 9999 FEW034 SCT041 19/08 Q1025=
201609271220 METAR ESMX 271220Z 17009KT 9999 SCT032 18/09 Q1025=
201609271150 METAR ESMX 271150Z 19008KT 160V230 9999 SCT032 18/10 Q1025=
201609271120 METAR ESMX 271120Z 18011KT 9999 FEW026 SCT032 18/10 Q1025=
201609271050 METAR ESMX 271050Z 18008KT 140V200 9999 SCT024 17/10 Q1025=
201609271020 METAR ESMX 271020Z 15008KT 090V190 9999 SCT014 17/11 Q1025=
201609270950 METAR ESMX 270950Z 17007KT 110V210 9999 FEW014 SCT018 16/11 Q1026=
201609270920 METAR ESMX 270920Z 17005KT 100V200 9999 FEW013 15/11 Q1026=
201609270850 METAR ESMX 270850Z 16004KT 100V210 9999 FEW012 15/11 Q1026=
201609270820 METAR ESMX 270820Z 15004KT 100V200 CAVOK 14/11 Q1026=
201609270750 METAR ESMX 270750Z VRB03KT CAVOK 13/11 Q1026=
201609270720 METAR ESMX 270720Z AUTO VRB03KT 9999 FEW002/// 12/11 Q1026=
201609270650 METAR ESMX 270650Z VRB03KT 9999 SCT002 10/10 Q1026=
201609270620 METAR ESMX 270620Z 00000KT 0300 R01/0550N R19/0500N FG VV002 08/08 Q1026=
201609270550 METAR ESMX 270550Z 16002KT 0100 R01/0325D R19/0400N FG VV002 06/06 Q1026=
201609270520 METAR ESMX 270520Z 00000KT 0050 R01/0350N R19/0175N FG VV002 06/05 Q1026=
201609270450 METAR ESMX 270450Z 00000KT 0050 R01/0275N R19/0250N FG BKN001 05/05 Q1026=
201609270420 METAR ESMX 270420Z VRB02KT 0100 R01/0250N R19/0375D FG VV002 06/06 Q1026=
201609270350 METAR ESMX 270350Z VRB02KT 0150 R01/0350N R19/P2000N BCFG VV002 04/04 Q1025=
201609270320 METAR ESMX 270320Z AUTO 12003KT 6000 BCFG BKN001/// 05/05 Q1026=
201609270250 METAR ESMX 270250Z AUTO 00000KT 0150 R01/0500N R19/0550N BCFG BKN002/// 05/04 Q1026=
201609270220 METAR ESMX 270220Z AUTO VRB01KT 0250 R01/0650N R19/P2000N BCFG NCD 04/04 Q1026=
201609270150 METAR ESMX 270150Z AUTO VRB01KT 0200 R01/0600N R19/P2000N FG NCD 04/04 Q1026=
201609270120 METAR ESMX 270120Z AUTO 00000KT 0150 R01/0600N R19/0450N FG NCD 05/04 Q1026=
201609270050 METAR ESMX 270050Z AUTO 00000KT 0050 R01/0900N R19/0375N FG NCD 05/05 Q1026=
201609270020 METAR ESMX 270020Z AUTO 00000KT 0200 R01/0500N R19/P2000N BCFG NCD 06/05 Q1026=
201609262350 METAR ESMX 262350Z 17003KT 130V190 1100 R01/P2000N R19/P2000N BR NSC 08/08 Q1026=
201609262320 METAR ESMX 262320Z 14004KT 7000 NSC 10/09 Q1025=
201609262250 METAR ESMX 262250Z 14005KT 9999 NSC 10/09 Q1025=
201609262220 METAR ESMX 262220Z 14004KT CAVOK 10/09 Q1025=
201609262150 METAR ESMX 262150Z 14004KT CAVOK 11/09 Q1025=
201609262120 METAR ESMX 262120Z 15005KT CAVOK 12/10 Q1025=
201609262050 METAR ESMX 262050Z 16005KT CAVOK 12/10 Q1025=
201609262020 METAR ESMX 262020Z 15005KT CAVOK 13/10 Q1025=
201609261950 METAR ESMX 261950Z 16005KT CAVOK 13/10 Q1025=
201609261920 METAR ESMX 261920Z 15005KT CAVOK 13/10 Q1025=
201609261850 METAR ESMX 261850Z 16005KT CAVOK 14/09 Q1025=
201609261820 METAR ESMX 261820Z 17006KT CAVOK 14/09 Q1025=
201609261750 METAR ESMX 261750Z 20004KT CAVOK 13/09 Q1024=
201609261720 METAR ESMX 261720Z 22004KT 150V250 CAVOK 14/09 Q1024=
201609261650 METAR ESMX 261650Z 15004KT CAVOK 15/09 Q1024=
201609261620 METAR ESMX 261620Z 15005KT CAVOK 16/08 Q1024=
201609261550 METAR ESMX 261550Z 16005KT 110V180 CAVOK 17/08 Q1024=
201609261520 METAR ESMX 261520Z 16007KT CAVOK 18/08 Q1024=
201609261450 METAR ESMX 261450Z 17008KT CAVOK 18/07 Q1024=
201609261420 METAR ESMX 261420Z 16008KT CAVOK 18/08 Q1024=
201609261350 METAR ESMX 261350Z 15008KT CAVOK 18/09 Q1024=
201609261320 METAR ESMX 261320Z 16007KT 9999 FEW039 19/09 Q1024=
201609261250 METAR ESMX 261250Z 17008KT 130V200 9999 FEW039 19/10 Q1024=
201609261220 METAR ESMX 261220Z 16008KT 110V200 9999 FEW040 19/09 Q1024=
201609261150 METAR ESMX 261150Z 15008KT 9999 FEW033 18/10 Q1024=
201609261120 METAR ESMX 261120Z 15008KT 120V190 9999 FEW034 SCT046 19/10 Q1024=
201609261050 METAR ESMX 261050Z 17008KT 9999 FEW035 18/10 Q1023=
201609261020 METAR ESMX 261020Z 18007KT 9999 FEW040 19/11 Q1024=
201609260950 METAR ESMX 260950Z 16006KT 140V220 9999 FEW030 18/11 Q1023=
201609260920 METAR ESMX 260920Z 14007KT 090V180 9999 FEW020 18/11 Q1023=
201609260850 METAR ESMX 260850Z 16008KT 130V200 CAVOK 17/12 Q1023=
201609260820 METAR ESMX 260820Z 15008KT CAVOK 16/13 Q1023=
201609260750 METAR ESMX 260750Z 14007KT CAVOK 14/12 Q1023=
201609260720 METAR ESMX 260720Z 14006KT 120V180 CAVOK 13/12 Q1023=
201609260650 METAR ESMX 260650Z 15007KT 120V190 CAVOK 13/12 Q1023=
201609260620 METAR ESMX 260620Z 15004KT 120V180 CAVOK 12/11 Q1023=
201609260550 METAR ESMX 260550Z 14005KT 9999 FEW003 12/11 Q1023=
201609260520 METAR ESMX 260520Z 14005KT 110V170 9999 FEW004 12/11 Q1022=
201609260450 METAR ESMX 260450Z 14005KT 9999 SCT002 12/11 Q1022=
201609260420 METAR ESMX 260420Z 14006KT CAVOK 12/11 Q1022=
201609260350 METAR ESMX 260350Z 14006KT CAVOK 12/11 Q1022=
201609260320 METAR ESMX 260320Z AUTO 14006KT 9999 NCD 12/11 Q1022=
201609260250 METAR ESMX 260250Z AUTO 14006KT 110V170 9999 NCD 12/11 Q1022=
201609260220 METAR ESMX 260220Z AUTO 13005KT 100V170 9999 NCD 12/11 Q1022=
201609260150 METAR ESMX 260150Z AUTO 13005KT 9999 NCD 12/11 Q1023=
201609260120 METAR ESMX 260120Z AUTO 14006KT 9999 NCD 12/11 Q1023=
201609260050 METAR ESMX 260050Z AUTO 14005KT 9999 NCD 12/11 Q1023=
201609260020 METAR ESMX 260020Z AUTO 14005KT 9999 FEW009/// SCT011/// 12/11 Q1023=
201609252350 METAR ESMX 252350Z AUTO 13006KT 9999 FEW009/// 11/10 Q1023=
201609252320 METAR ESMX 252320Z 14005KT CAVOK 11/10 Q1023=
201609252250 METAR ESMX 252250Z 14005KT CAVOK 11/10 Q1023=
201609252220 METAR ESMX 252220Z 14005KT CAVOK 11/10 Q1023=
201609252150 METAR ESMX 252150Z 15005KT CAVOK 12/10 Q1023=
201609252120 METAR ESMX 252120Z 15005KT CAVOK 12/10 Q1023=
201609252050 METAR ESMX 252050Z 16005KT CAVOK 12/10 Q1023=
201609252020 METAR ESMX 252020Z 15005KT CAVOK 13/10 Q1023=
201609251950 METAR ESMX 251950Z 15005KT CAVOK 13/10 Q1023=
201609251920 METAR ESMX 251920Z 15006KT CAVOK 13/10 Q1023=
201609251850 METAR ESMX 251850Z 15006KT CAVOK 14/10 Q1022=
201609251820 METAR ESMX 251820Z 16006KT CAVOK 14/09 Q1023=
201609251750 METAR ESMX 251750Z 16005KT 140V200 CAVOK 14/09 Q1022=
201609251720 METAR ESMX 251720Z 15006KT 9999 FEW048 15/08 Q1022=
201609251650 METAR ESMX 251650Z AUTO 15005KT 9999 NCD 16/08 Q1022=
201609251620 METAR ESMX 251620Z AUTO 16005KT 9999 NCD 17/08 Q1022=
201609251550 METAR ESMX 251550Z AUTO 16006KT 9999 NCD 17/08 Q1022=
201609251520 METAR ESMX 251520Z 17006KT 130V210 CAVOK 18/08 Q1022=
201609251450 METAR ESMX 251450Z 18007KT 9999 FEW040 18/09 Q1022=
201609251420 METAR ESMX 251420Z 18007KT 9999 SCT035 19/09 Q1022=
201609251350 METAR ESMX 251350Z 16006KT 100V210 9999 SCT036 19/10 Q1022=
201609251320 METAR ESMX 251320Z 15007KT 110V180 9999 SCT037 19/09 Q1022=
201609251250 METAR ESMX 251250Z 16007KT 120V210 9999 FEW035 SCT040 19/09 Q1022=
201609251220 METAR ESMX 251220Z 16008KT 9999 FEW032 SCT036 19/10 Q1023=
201609251150 METAR ESMX 251150Z 16006KT 110V200 9999 SCT030 18/10 Q1023=
201609251120 METAR ESMX 251120Z 17007KT 130V200 9999 SCT030 18/10 Q1023=
201609251050 METAR ESMX 251050Z 17006KT 130V230 9999 SCT025 18/11 Q1023=
201609251020 METAR ESMX 251020Z AUTO 17007KT 130V200 9999 FEW023/// SCT028/// 18/11 Q1023=
201609250950 METAR ESMX 250950Z AUTO 18008KT 150V220 9999 FEW022/// 18/11 Q1023=
201609250920 METAR ESMX 250920Z AUTO 15007KT 120V190 9999 NCD 16/11 Q1023=
201609250850 METAR ESMX 250850Z AUTO 18008KT 150V210 9999 NCD 16/11 Q1023=
201609250820 METAR ESMX 250820Z AUTO 16006KT 120V190 9999 NCD 14/11 Q1023=
201609250750 METAR ESMX 250750Z AUTO 15006KT 9999 NCD 13/10 Q1023=
201609250720 METAR ESMX 250720Z AUTO 16004KT 130V210 9999 NCD 12/09 Q1023=
201609250650 METAR ESMX 250650Z AUTO 15004KT 110V180 9999 NCD 10/09 Q1023=
201609250620 METAR ESMX 250620Z AUTO 15003KT 120V180 9999 NCD 09/08 Q1023=
201609250550 METAR ESMX 250550Z AUTO VRB03KT 9999 NCD 06/06 Q1023=
201609250520 METAR ESMX 250520Z AUTO VRB03KT 0600 R01/P2000N R19/1000N NCD 07/07 Q1023=
201609250450 METAR ESMX 250450Z AUTO 16005KT 120V210 9999 NCD 08/07 Q1023=
201609250420 METAR ESMX 250420Z AUTO 16003KT 1200 R01/P2000N R19/P2000N NCD 07/07 Q1023=
201609250350 METAR ESMX 250350Z AUTO 16004KT 9999 BCFG NCD 05/05 Q1023=
201609250320 METAR ESMX 250320Z AUTO VRB02KT 1600 BCFG NCD 05/04 Q1023=
201609250250 METAR ESMX 250250Z AUTO 21002KT 1800 BCFG NCD 04/04 Q1023=
201609250220 METAR ESMX 250220Z AUTO VRB02KT 9999 NCD 05/04 Q1023=
201609250150 METAR ESMX 250150Z AUTO 15002KT 9999 BR NCD 06/05 Q1023=
201609250120 METAR ESMX 250120Z AUTO VRB01KT 9999 BKN029/// 04/04 Q1023=
201609250050 METAR ESMX 250050Z AUTO 14001KT 9999 BR FEW028/// 05/05 Q1023=
201609250020 METAR ESMX 250020Z AUTO VRB01KT 9999 NCD 05/04 Q1023=
201609242350 METAR ESMX 242350Z AUTO 19003KT 9999 NCD 06/05 Q1023=
201609242320 METAR ESMX 242320Z AUTO 20003KT 9999 NCD 07/05 Q1023=
201609242250 METAR ESMX 242250Z AUTO 19002KT 9999 NCD 07/06 Q1023=
201609242220 METAR ESMX 242220Z AUTO 16003KT 9999 NCD 09/07 Q1023=
201609242150 METAR ESMX 242150Z AUTO 21003KT 9999 BKN100/// 10/08 Q1023=
201609242120 METAR ESMX 242120Z AUTO 21004KT 9999 BKN100/// 11/08 Q1023=
201609242050 METAR ESMX 242050Z AUTO 22004KT 9999 SCT100/// 11/08 Q1023=
201609242020 METAR ESMX 242020Z AUTO 21004KT 9999 FEW100/// 11/08 Q1023=
201609241950 METAR ESMX 241950Z AUTO 21005KT 9999 FEW110/// 11/08 Q1023=
201609241920 METAR ESMX 241920Z AUTO 22005KT 9999 BKN110/// 10/07 Q1023=
201609241850 METAR ESMX 241850Z AUTO 22004KT 9999 NCD 10/06 Q1023=
201609241820 METAR ESMX 241820Z AUTO 23005KT 9999 NCD 09/07 Q1022=
201609241750 METAR ESMX 241750Z AUTO 22004KT 9999 NCD 10/06 Q1022=
201609241720 METAR ESMX 241720Z AUTO 22003KT 9999 NCD 12/07 Q1022=
201609241650 METAR ESMX 241650Z AUTO 23003KT 9999 NCD 13/07 Q1022=
201609241620 METAR ESMX 241620Z AUTO 25004KT 9999 NCD 15/07 Q1022=
201609241550 METAR ESMX 241550Z AUTO 25005KT 210V280 9999 NCD 16/07 Q1022=
201609241520 METAR ESMX 241520Z AUTO 25008KT 9999 SCT045/// 17/06 Q1022=
201609241450 METAR ESMX 241450Z 28007KT 250V320 9999 FEW044 18/06 Q1022=
201609241420 METAR ESMX 241420Z 27006KT 230V290 9999 FEW045 BKN085 18/07 Q1022=
201609241350 METAR ESMX 241350Z 27008KT 250V310 9999 SCT043 BKN090 18/07 Q1022=
201609241320 METAR ESMX 241320Z 26009KT 220V300 9999 FEW045 SCT090 18/07 Q1022=
201609241250 METAR ESMX 241250Z 27009KT 230V320 9999 SCT041 18/07 Q1022=
201609241220 METAR ESMX 241220Z 29008KT 250V330 9999 FEW045 17/07 Q1022=
201609241150 METAR ESMX 241150Z 26009KT 230V300 CAVOK 17/07 Q1022=
201609241120 METAR ESMX 241120Z 27009KT 250V310 CAVOK 17/06 Q1022=
201609241050 METAR ESMX 241050Z 27010KT 240V310 CAVOK 16/06 Q1021=
201609240550 METAR ESMX 240550Z AUTO 25006KT 9999 NCD 08/08 Q1020=
201609240520 METAR ESMX 240520Z AUTO 24005KT 9999 NCD 07/07 Q1020=
201609240450 METAR ESMX 240450Z AUTO 25005KT 9999 NCD 07/07 Q1020=
201609240420 METAR ESMX 240420Z AUTO 24005KT 9999 NCD 07/07 Q1020=
201609240350 METAR ESMX 240350Z AUTO 21004KT 9999 NCD 07/07 Q1019=
201609240320 METAR ESMX 240320Z AUTO 23004KT 9999 NCD 08/07 Q1019=
201609240250 METAR ESMX 240250Z AUTO 24004KT 9999 FEW039/// 08/07 Q1019=
201609240220 METAR ESMX 240220Z AUTO 24003KT 210V270 9999 NCD 08/08 Q1018=
201609240150 METAR ESMX 240150Z AUTO 24005KT 9999 NCD 08/08 Q1018=
201609240120 METAR ESMX 240120Z AUTO 23004KT 9999 NCD 08/07 Q1018=
201609240050 METAR ESMX 240050Z AUTO 26006KT 9999 NCD 09/08 Q1018=
201609240020 METAR ESMX 240020Z AUTO 26007KT 9999 NCD 10/08 Q1018=
201609232350 METAR ESMX 232350Z AUTO 25007KT 9999 NCD 09/08 Q1018=
201609232320 METAR ESMX 232320Z AUTO 24006KT 9999 NCD 09/08 Q1018=
201609232250 METAR ESMX 232250Z AUTO 25005KT 9999 NCD 10/07 Q1018=
201609232220 METAR ESMX 232220Z AUTO 25006KT 210V280 9999 NCD 10/08 Q1018=
201609232150 METAR ESMX 232150Z AUTO 25006KT 9999 NCD 10/08 Q1018=
201609232120 METAR ESMX 232120Z AUTO 24006KT 9999 NCD 10/08 Q1018=
201609232050 METAR ESMX 232050Z AUTO 24005KT 9999 FEW045/// 10/08 Q1018=
201609232020 METAR ESMX 232020Z AUTO 25004KT 9999 BKN042/// 11/09 Q1018=
201609231950 METAR ESMX 231950Z 26005KT CAVOK 12/09 Q1018=
201609231920 METAR ESMX 231920Z 26005KT CAVOK 12/10 Q1018=
201609231850 METAR ESMX 231850Z 27005KT 9999 FEW045 13/11 Q1018=
201609231820 METAR ESMX 231820Z 26006KT 9999 FEW020 13/11 Q1018=
201609231750 METAR ESMX 231750Z 26006KT CAVOK 13/11 Q1017=
201609231720 METAR ESMX 231720Z 25006KT CAVOK 14/10 Q1017=
201609231650 METAR ESMX 231650Z 25008KT 9999 FEW035 15/11 Q1017=
201609231620 METAR ESMX 231620Z 22009KT 9999 FEW032 SCT043 BKN067 16/10 Q1017 REDZ=
201609231550 METAR ESMX 231550Z 24006KT 9999 SCT046 BKN054 17/10 Q1017=
201609231520 METAR ESMX 231520Z 22006KT CAVOK 17/10 Q1017=
201609231450 METAR ESMX 231450Z 22007KT CAVOK 18/10 Q1017=
201609231420 METAR ESMX 231420Z 21008KT 9999 FEW040 SCT073 BKN091 18/10 Q1017=
201609231350 METAR ESMX 231350Z 22005KT 9999 FEW040 BKN073 18/09 Q1018=
201609231320 METAR ESMX 231320Z 23006KT 190V280 CAVOK 18/09 Q1018=
201609231250 METAR ESMX 231250Z 23007KT 200V270 9999 FEW041 18/09 Q1018=
201609231220 METAR ESMX 231220Z 24008KT CAVOK 18/08 Q1018=
201609231150 METAR ESMX 231150Z 22007KT CAVOK 17/07 Q1019=
201609231120 METAR ESMX 231120Z 21008KT CAVOK 16/07 Q1019=
201609231050 METAR ESMX 231050Z 21008KT 9999 FEW041 SCT085 17/07 Q1019=
201609231020 METAR ESMX 231020Z 22008KT 190V270 CAVOK 18/07 Q1019=
201609230950 METAR ESMX 230950Z 23008KT 200V260 CAVOK 17/08 Q1019=
201609230920 METAR ESMX 230920Z 21007KT 160V250 CAVOK 17/08 Q1019=
201609230850 METAR ESMX 230850Z 19005KT CAVOK 16/09 Q1019=
201609230820 METAR ESMX 230820Z 22003KT 190V260 CAVOK 15/09 Q1020=
201609230750 METAR ESMX 230750Z 24004KT CAVOK 14/09 Q1020=
201609230720 METAR ESMX 230720Z 21003KT CAVOK 12/10 Q1020=
201609230650 METAR ESMX 230650Z VRB03KT CAVOK 11/10 Q1020=
201609230620 METAR ESMX 230620Z 20003KT CAVOK 11/10 Q1020=
201609230550 METAR ESMX 230550Z 17003KT CAVOK 10/09 Q1020=
201609230520 METAR ESMX 230520Z 17003KT CAVOK 10/09 Q1019=
201609230450 METAR ESMX 230450Z 20001KT 9999 FEW025 BKN045 09/09 Q1019=
201609230420 METAR ESMX 230420Z 20002KT 9999 SCT025 BKN045 10/09 Q1020=
201609230350 METAR ESMX 230350Z VRB02KT 9999 FEW030 BKN050 10/09 Q1020=
201609230320 METAR ESMX 230320Z AUTO 22003KT 9999 FEW033/// SCT042/// BKN048/// 10/10 Q1020=
201609230250 METAR ESMX 230250Z AUTO 18002KT 9999 FEW032/// SCT036/// 09/09 Q1020=
201609230220 METAR ESMX 230220Z AUTO 16002KT 9999 FEW110/// 09/09 Q1020=
201609230150 METAR ESMX 230150Z AUTO 00000KT 9999 FEW030/// SCT091/// BKN110/// 10/09 Q1020=
201609230120 METAR ESMX 230120Z AUTO 27004KT 9999 BKN110/// 09/09 Q1020=
201609230050 METAR ESMX 230050Z AUTO 00000KT 9999 FEW091/// SCT110/// 10/09 Q1020=
201609230020 METAR ESMX 230020Z AUTO 00000KT 9999 BKN048/// BKN090/// 11/10 Q1020=
201609222350 METAR ESMX 222350Z 00000KT 9999 -DZ BKN110 11/10 Q1020=
201609222320 METAR ESMX 222320Z VRB01KT CAVOK 11/09 Q1021=
201609222250 METAR ESMX 222250Z VRB02KT CAVOK 10/09 Q1021=
201609222220 METAR ESMX 222220Z VRB01KT CAVOK 11/09 Q1021=
201609222150 METAR ESMX 222150Z 18002KT 9999 SCT040 BKN090 11/09 Q1021=
201609222120 METAR ESMX 222120Z 17002KT 9999 SCT040 BKN100 11/08 Q1021=
201609222050 METAR ESMX 222050Z 25002KT 9999 SCT035 BKN060 10/08 Q1021=
201609222020 METAR ESMX 222020Z 00000KT 9999 FEW035 BKN045 11/09 Q1021=
201609221950 METAR ESMX 221950Z 24002KT 9999 BKN035 11/09 Q1021=
201609221920 METAR ESMX 221920Z 27002KT 9999 BKN035 11/09 Q1021=
201609221850 METAR ESMX 221850Z 17002KT 9999 SCT040 11/09 Q1021=
201609221820 METAR ESMX 221820Z 00000KT CAVOK 12/09 Q1021=
201609221750 METAR ESMX 221750Z 29003KT CAVOK 12/09 Q1021=
201609221720 METAR ESMX 221720Z 28003KT CAVOK 12/09 Q1021=
201609221650 METAR ESMX 221650Z 28003KT CAVOK 13/09 Q1021=
201609221620 METAR ESMX 221620Z 28003KT CAVOK 14/09 Q1021=
201609221550 METAR ESMX 221550Z 29003KT CAVOK 15/09 Q1021=
201609221520 METAR ESMX 221520Z 28004KT 250V310 CAVOK 16/09 Q1021=
201609221450 METAR ESMX 221450Z 30006KT CAVOK 16/08 Q1022=
201609221420 METAR ESMX 221420Z 29006KT 260V330 9999 FEW045 17/08 Q1022=
201609221350 METAR ESMX 221350Z 31006KT 260V350 9999 FEW040 17/07 Q1022=
201609221320 METAR ESMX 221320Z 34007KT CAVOK 17/07 Q1022=
201609221250 METAR ESMX 221250Z 31007KT 9999 FEW036 17/08 Q1022=
201609221220 METAR ESMX 221220Z 33006KT 280V360 9999 FEW039 17/08 Q1022=
201609221150 METAR ESMX 221150Z 32006KT 280V010 9999 FEW040 17/07 Q1022=
201609221120 METAR ESMX 221120Z 29007KT 240V320 9999 FEW041 17/07 Q1022=
201609221050 METAR ESMX 221050Z 34004KT 280V060 CAVOK 17/08 Q1023=
201609221020 METAR ESMX 221020Z 35006KT 310V020 CAVOK 16/09 Q1023=
201609220950 METAR ESMX 220950Z VRB03KT CAVOK 15/09 Q1023=
201609220920 METAR ESMX 220920Z VRB03KT CAVOK 13/09 Q1023=
201609220850 METAR ESMX 220850Z 01003KT 340V060 CAVOK 13/09 Q1023=
201609220820 METAR ESMX 220820Z 34004KT CAVOK 12/09 Q1023=
201609220750 METAR ESMX 220750Z VRB02KT 9999 FEW040 11/09 Q1023=
201609220720 METAR ESMX 220720Z 00000KT CAVOK 10/09 Q1023=
201609220650 METAR ESMX 220650Z VRB01KT CAVOK 09/08 Q1023=
201609220620 METAR ESMX 220620Z 19001KT CAVOK 08/07 Q1023=
201609220550 METAR ESMX 220550Z 00000KT CAVOK 06/06 Q1023=
201609220520 METAR ESMX 220520Z 18002KT CAVOK 06/05 Q1023=
201609220450 METAR ESMX 220450Z 19002KT 9999 R19/P2000 BCFG BKN080 05/05 Q1023=
201609220420 METAR ESMX 220420Z 18002KT 9999 R19/P2000 BCFG BKN080 05/04 Q1023=
201609220350 METAR ESMX 220350Z 00000KT 9999 R19/P2000 BCFG BKN070 05/04 Q1023=
201609220320 METAR ESMX 220320Z AUTO 20002KT 9999 NCD 05/04 Q1023=
201609220250 METAR ESMX 220250Z AUTO 18002KT 9999 NCD 05/04 Q1023=
201609220220 METAR ESMX 220220Z AUTO 18003KT 9999 NCD 05/04 Q1023=
201609220150 METAR ESMX 220150Z AUTO 18002KT 9999 BR NCD 04/04 Q1024=
201609220120 METAR ESMX 220120Z AUTO 17001KT 9999 NCD 05/04 Q1024=
201609220050 METAR ESMX 220050Z AUTO 17002KT 9999 NCD 05/05 Q1024=
201609220020 METAR ESMX 220020Z AUTO 20002KT 9000 FG NCD 05/05 Q1024=
201609212350 METAR ESMX 212350Z AUTO 16001KT 9999 NCD 05/04 Q1024=
201609212320 METAR ESMX 212320Z 18002KT 9999 MIFG SCT050 06/05 Q1024=
201609212250 METAR COR ESMX 212250Z VRB01KT CAVOK 06/05 Q1024=
201609212220 METAR ESMX 212220Z VRB01KT 9999 BKN050 06/06 Q1024=
201609212150 METAR ESMX 212150Z AUTO 00000KT 9999 BKN050/// 06/06 Q1024=
201609212120 METAR ESMX 212120Z 00000KT CAVOK 05/04 Q1024=
201609212050 METAR ESMX 212050Z 00000KT CAVOK 06/05 Q1024=
201609212020 METAR ESMX 212020Z 15003KT CAVOK 07/06 Q1024=
201609211950 METAR ESMX 211950Z 15002KT CAVOK 06/05 Q1024=
201609211920 METAR ESMX 211920Z 15003KT 9999 FEW030 SCT055 07/06 Q1024=
201609211850 METAR ESMX 211850Z 15004KT 9999 FEW030 07/05 Q1023=
201609211820 METAR ESMX 211820Z 16002KT CAVOK 09/06 Q1023=
201609211750 METAR ESMX 211750Z VRB02KT CAVOK 09/06 Q1023=
201609211720 METAR ESMX 211720Z 12002KT CAVOK 11/07 Q1023=
201609211650 METAR ESMX 211650Z 00000KT CAVOK 13/07 Q1023=
201609211550 METAR ESMX 211550Z VRB03KT CAVOK 17/06 Q1022=
201609211520 METAR ESMX 211520Z VRB01KT CAVOK 17/05 Q1023=
201609211450 METAR ESMX 211450Z VRB03KT CAVOK 17/05 Q1023=
201609211420 METAR ESMX 211420Z 08004KT 030V160 CAVOK 17/06 Q1023=
201609211350 METAR ESMX 211350Z 04006KT 020V080 CAVOK 16/06 Q1023=
201609211320 METAR ESMX 211320Z 02006KT 9999 SCT049 17/06 Q1023=
201609211250 METAR ESMX 211250Z 36006KT 320V030 9999 BKN049 18/05 Q1023=
201609211220 METAR ESMX 211220Z 01005G13KT 330V060 9999 BKN044 18/07 Q1023=
201609211150 METAR ESMX 211150Z 01006KT 340V070 9999 FEW038 SCT046 17/06 Q1023=
201609211120 METAR ESMX 211120Z 07007KT 030V110 9999 SCT038 17/07 Q1023=
201609211050 METAR ESMX 211050Z 06006KT 010V110 9999 SCT034 16/06 Q1023=
201609211020 METAR ESMX 211020Z 03007KT 360V070 9999 FEW035 17/08 Q1023=
201609210950 METAR ESMX 210950Z 05005KT 350V110 9999 FEW035 15/08 Q1023=
201609210920 METAR ESMX 210920Z 05006KT 010V080 9999 FEW040 14/09 Q1023=
201609210850 METAR ESMX 210850Z 04005KT 020V080 CAVOK 13/09 Q1023=
201609210820 METAR ESMX 210820Z 04005KT 360V080 CAVOK 12/09 Q1023=
201609210750 METAR ESMX 210750Z 02005KT CAVOK 12/09 Q1023=
201609210720 METAR ESMX 210720Z 01005KT CAVOK 11/09 Q1023=
201609210650 METAR ESMX 210650Z 04004KT CAVOK 10/09 Q1023=
201609210620 METAR ESMX 210620Z 03003KT CAVOK 09/09 Q1023=
201609210550 METAR ESMX 210550Z 01003KT 9999 BCFG NSC 07/07 Q1023=
201609210520 METAR ESMX 210520Z 04003KT 9999 MIFG NSC 04/04 Q1023=
201609210450 METAR ESMX 210450Z 02003KT 0250 R01/P2000N R19/0550D BCFG NSC 04/04 Q1022=
201609210420 METAR ESMX 210420Z 03003KT 7000 BCFG NSC 08/07 Q1022=
201609210350 METAR ESMX 210350Z 03003KT 0150 R01/0450N R19/P2000N FG SCT032 06/06 Q1022=
201609210320 METAR ESMX 210320Z AUTO 03003KT 0200 R01/P2000N R19/0600N BCFG SCT028/// 05/05 Q1022=
201609210250 METAR ESMX 210250Z AUTO 02003KT 5000 BR BKN026/// 06/05 Q1022=
201609210220 METAR ESMX 210220Z AUTO 05004KT 9999 BKN024/// 09/08 Q1022=
201609210150 METAR ESMX 210150Z AUTO 03003KT 9999 OVC024/// 09/08 Q1022=
201609210120 METAR ESMX 210120Z AUTO 03003KT 0300 R01/P2000N R19/P2000N BCFG FEW024/// 06/06 Q1022=
201609210050 METAR ESMX 210050Z AUTO VRB01KT 9999 NCD 07/05 Q1022=
201609210020 METAR ESMX 210020Z 03004KT CAVOK 10/09 Q1022=
201609202350 METAR ESMX 202350Z 04005KT CAVOK 10/09 Q1022=
201609202320 METAR ESMX 202320Z 02006KT 9999 FEW020 10/09 Q1022=
201609202250 METAR ESMX 202250Z 02004KT CAVOK 10/09 Q1022=
201609202220 METAR ESMX 202220Z VRB03KT CAVOK 10/08 Q1022=
201609202150 METAR ESMX 202150Z 07003KT CAVOK 10/09 Q1022=
201609202120 METAR ESMX 202120Z VRB03KT CAVOK 10/08 Q1022=
201609202050 METAR ESMX 202050Z 06003KT 020V100 CAVOK 11/08 Q1021=
201609202020 METAR ESMX 202020Z 07005KT 030V110 CAVOK 12/09 Q1021=
201609201950 METAR ESMX 201950Z 02003KT CAVOK 11/09 Q1021=
201609201920 METAR ESMX 201920Z VRB03KT CAVOK 12/09 Q1021=
201609201850 METAR ESMX 201850Z 06003KT CAVOK 13/09 Q1021=
201609201820 METAR ESMX 201820Z 05004KT CAVOK 14/09 Q1020=
201609201750 METAR ESMX 201750Z 07004KT 030V110 CAVOK 14/09 Q1020=
201609201720 METAR ESMX 201720Z 07005KT 030V110 CAVOK 15/10 Q1020=
201609201650 METAR ESMX 201650Z 07005KT 030V120 CAVOK 16/10 Q1019=
201609201620 METAR ESMX 201620Z 07006KT 030V120 CAVOK 17/10 Q1019=
201609201550 METAR ESMX 201550Z 05007KT 020V080 CAVOK 18/10 Q1019=
201609201520 METAR ESMX 201520Z 06006KT 020V110 9999 FEW035 SCT200 18/11 Q1019=
201609201450 METAR ESMX 201450Z 04009KT 9999 FEW041 20/11 Q1019=
201609201420 METAR ESMX 201420Z 05008KT CAVOK 19/11 Q1018=
201609201350 METAR ESMX 201350Z 05008KT 9999 FEW036 BKN065 19/12 Q1018=
201609201320 METAR ESMX 201320Z 03009KT 360V070 9999 FEW039 BKN065 20/11 Q1018=
201609201250 METAR ESMX 201250Z 05008KT 020V100 9999 FEW040 BKN067 21/12 Q1018=
201609201220 METAR ESMX 201220Z 01008KT 9999 FEW044 BKN055 21/12 Q1018=
201609201150 METAR ESMX 201150Z 02008KT 9999 FEW037 BKN055 20/11 Q1018=
201609201120 METAR ESMX 201120Z 01009KT 9999 FEW034 BKN055 20/12 Q1019=
201609201050 METAR ESMX 201050Z 34007KT 9999 FEW030 BKN100 19/12 Q1019=
201609201020 METAR ESMX 201020Z 01006KT 330V030 9999 FEW025 BKN080 19/13 Q1019=
201609200950 METAR ESMX 200950Z AUTO 32006KT 9999 FEW100/// 18/13 Q1019=
201609200920 METAR ESMX 200920Z 34007KT CAVOK 17/12 Q1019=
201609200850 METAR ESMX 200850Z 32004KT 290V360 CAVOK 16/12 Q1019=
201609200820 METAR ESMX 200820Z 30003KT CAVOK 14/11 Q1019=
201609200750 METAR ESMX 200750Z 29002KT CAVOK 13/11 Q1019=
201609200720 METAR ESMX 200720Z 30003KT CAVOK 12/11 Q1019=
201609200650 METAR ESMX 200650Z 33002KT CAVOK 12/11 Q1019=
201609200620 METAR ESMX 200620Z 00000KT 9999 FEW035 BKN080 11/10 Q1019=
201609200550 METAR ESMX 200550Z 29001KT 9999 FEW035 BKN080 10/09 Q1019=
201609200520 METAR ESMX 200520Z 32002KT CAVOK 09/09 Q1019=
201609200450 METAR ESMX 200450Z 00000KT CAVOK 09/09 Q1019=
201609200420 METAR ESMX 200420Z 26002KT 9999 FEW042 SCT049 BKN068 09/08 Q1019=
201609200350 METAR ESMX 200350Z 00000KT 9999 SCT038 OVC048 08/08 Q1019=
201609200320 METAR ESMX 200320Z AUTO 00000KT 9999 BKN052/// BKN082/// 07/06 Q1019=
201609200250 METAR ESMX 200250Z AUTO 00000KT 9999 BR FEW044/// SCT057/// BKN079/// 07/07 Q1019=
201609200220 METAR ESMX 200220Z AUTO 00000KT 9999 FEW073/// 06/06 Q1019=
201609200150 METAR ESMX 200150Z AUTO VRB01KT 9999 BCFG OVC062/// 06/06 Q1019=
201609200120 METAR ESMX 200120Z AUTO VRB02KT 0600 R01/P2000D R19/P2000N BCFG SCT059/// 05/05 Q1019=
201609200050 METAR ESMX 200050Z AUTO VRB01KT 9999 BCFG NCD 06/06 Q1019=
201609200020 METAR ESMX 200020Z AUTO 00000KT 9999 NCD 05/05 Q1019=
201609192350 METAR ESMX 192350Z 00000KT 0350 R01/P2000N R19/P2000N BR NSC 05/05 Q1019=
201609192320 METAR ESMX 192320Z VRB02KT CAVOK 06/05 Q1019=
201609192250 METAR ESMX 192250Z 27002KT CAVOK 06/05 Q1019=
201609192220 METAR ESMX 192220Z 27002KT CAVOK 06/05 Q1019=
201609192150 METAR ESMX 192150Z 28002KT CAVOK 07/07 Q1019=
201609192120 METAR ESMX 192120Z 27001KT CAVOK 07/06 Q1019=
201609192050 METAR ESMX 192050Z 00000KT CAVOK 07/06 Q1019=
201609192020 METAR ESMX 192020Z 18002KT 9999 FEW040 SCT045 08/06 Q1019=
201609191950 METAR ESMX 191950Z 27002KT 9999 SCT041 08/06 Q1019=
201609191920 METAR ESMX 191920Z 25003KT 9999 SCT044 09/06 Q1019=
201609191850 METAR ESMX 191850Z 26002KT CAVOK 09/06 Q1019=
201609191820 METAR ESMX 191820Z 26002KT CAVOK 09/07 Q1019=
201609191750 METAR ESMX 191750Z 25003KT CAVOK 11/07 Q1019=
201609191720 METAR ESMX 191720Z 27003KT CAVOK 12/08 Q1019=
201609191650 METAR ESMX 191650Z 30003KT 9999 FEW047 14/08 Q1019=
201609191620 METAR ESMX 191620Z 31004KT 9999 FEW048 16/07 Q1019=
201609191550 METAR ESMX 191550Z 31005KT 9999 SCT046 16/07 Q1019=
201609191520 METAR ESMX 191520Z 32004KT 9999 SCT048 16/07 Q1020=
201609191450 METAR ESMX 191450Z 31005KT 9999 SCT048 17/06 Q1020=
201609191420 METAR ESMX 191420Z 32005KT 240V010 9999 SCT047 18/06 Q1020=
201609191350 METAR ESMX 191350Z 35005KT 9999 SCT048 16/05 Q1020=
201609191320 METAR ESMX 191320Z 35005KT 280V050 9999 SCT048 18/06 Q1020=
201609191250 METAR ESMX 191250Z VRB02KT 9999 SCT048 17/05 Q1020=
201609191220 METAR ESMX 191220Z VRB03KT 9999 SCT048 17/06 Q1020=
201609191150 METAR ESMX 191150Z 02005KT 350V100 9999 BKN048 17/04 Q1021=
201609191120 METAR ESMX 191120Z 36004KT 280V060 9999 BKN044 15/05 Q1021=
201609191050 METAR ESMX 191050Z 30004KT 260V030 9999 BKN038 16/05 Q1021=
201609191020 METAR ESMX 191020Z 32003KT 250V010 9999 BKN044 16/04 Q1021=
201609190950 METAR ESMX 190950Z VRB03KT 9999 BKN048 15/07 Q1021=
201609190920 METAR ESMX 190920Z VRB03KT 9999 BKN048 15/09 Q1022=
201609190850 METAR ESMX 190850Z 28003KT 250V320 9999 BKN048 14/09 Q1022=
201609190820 METAR ESMX 190820Z VRB02KT 9999 BKN048 13/09 Q1022=
201609190750 METAR ESMX 190750Z VRB01KT 9999 BKN047 12/09 Q1021=
201609190720 METAR ESMX 190720Z VRB01KT 9999 BKN046 11/10 Q1021=
201609190650 METAR ESMX 190650Z 00000KT 9999 BKN049 10/09 Q1021=
201609190620 METAR ESMX 190620Z 00000KT CAVOK 09/08 Q1021=
201609190550 METAR ESMX 190550Z 19002KT CAVOK 08/07 Q1021=
201609190520 METAR ESMX 190520Z 20002KT 9999 BKN050 07/07 Q1021=
201609190450 METAR ESMX 190450Z 18002KT 9999 BKN050 06/06 Q1021=
201609190420 METAR ESMX 190420Z VRB02KT 9999 BKN051 07/06 Q1021=
201609190350 METAR ESMX 190350Z VRB01KT 9999 BKN050 07/07 Q1021=
201609190320 METAR ESMX 190320Z AUTO VRB01KT 9999 OVC049/// 07/06 Q1021=
201609190250 METAR ESMX 190250Z AUTO 00000KT 9999 OVC050/// 07/06 Q1021=
201609190220 METAR ESMX 190220Z AUTO 00000KT 9999 BKN049/// 06/05 Q1021=
201609190150 METAR ESMX 190150Z AUTO VRB01KT 9999 BKN049/// 05/04 Q1022=
201609190120 METAR ESMX 190120Z AUTO 17002KT 9999 OVC048/// 05/04 Q1022=
201609190050 METAR ESMX 190050Z AUTO 18002KT 9999 BKN050/// 04/04 Q1022=
201609190020 METAR ESMX 190020Z AUTO 17002KT 9999 FEW049/// 04/04 Q1022=
201609182350 METAR ESMX 182350Z AUTO 16001KT 9999 NCD 04/04 Q1022=
201609182320 METAR ESMX 182320Z AUTO 00000KT 9999 NCD 05/04 Q1022=
201609182250 METAR ESMX 182250Z VRB02KT 9999 BKN050 06/05 Q1022=
201609182220 METAR ESMX 182220Z 11002KT 9999 BKN049 07/06 Q1022=
201609182150 METAR ESMX 182150Z 16001KT 9999 BKN051 07/05 Q1022=
201609182120 METAR ESMX 182120Z 00000KT 9999 BKN050 07/06 Q1022=
201609182050 METAR ESMX 182050Z 19002KT 9999 BKN050 07/06 Q1022=
201609182020 METAR ESMX 182020Z 10001KT CAVOK 07/06 Q1022=
201609181950 METAR ESMX 181950Z 12003KT 9999 FEW050 08/07 Q1022=
201609181920 METAR ESMX 181920Z VRB02KT 9999 BKN049 09/06 Q1022=
201609181850 METAR ESMX 181850Z VRB02KT 9999 BKN050 09/06 Q1022=
201609181820 METAR ESMX 181820Z VRB01KT CAVOK 10/06 Q1022=
201609181750 METAR ESMX 181750Z VRB03KT CAVOK 12/07 Q1022=
201609181720 METAR ESMX 181720Z 08003KT 050V110 CAVOK 13/07 Q1021=
201609181650 METAR ESMX 181650Z AUTO VRB03KT 9999 BKN052/// 15/08 Q1021=
201609181620 METAR ESMX 181620Z AUTO 06003KT 010V100 9999 BKN052/// 15/07 Q1021=
201609181550 METAR ESMX 181550Z AUTO 05005KT 020V080 9999 FEW045/// OVC051/// 15/07 Q1021=
201609181520 METAR ESMX 181520Z 06004KT 030V100 CAVOK 16/07 Q1022=
201609181450 METAR ESMX 181450Z 04005KT 010V070 9999 FEW040 BKN050 16/07 Q1022=
201609181420 METAR ESMX 181420Z 06004KT 360V120 9999 FEW030 SCT055 16/06 Q1022=
201609181350 METAR ESMX 181350Z 07006KT 020V100 9999 FEW030 SCT050 16/06 Q1022=
201609181320 METAR ESMX 181320Z VRB02KT 9999 FEW035 BKN050 15/08 Q1022=
201609181250 METAR ESMX 181250Z VRB01KT 9999 SCT030 BKN050 15/08 Q1022=
201609181220 METAR ESMX 181220Z 17006KT 9999 FEW030 BKN050 15/08 Q1023=
201609181150 METAR ESMX 181150Z VRB02KT 9999 FEW036 BKN050 15/08 Q1023=
201609181120 METAR ESMX 181120Z 17005KT 130V210 9999 SCT030 SCT060 15/08 Q1023=
201609181050 METAR COR ESMX 181050Z 16006KT 120V200 9999 SCT030 16/08 Q1023=
201609181020 METAR ESMX 181020Z AUTO 14006KT 080V190 9999 BKN059/// 15/08 Q1023=
201609180950 METAR ESMX 180950Z AUTO 10007KT 050V140 9999 BKN057/// 15/07 Q1023=
201609180920 METAR ESMX 180920Z AUTO 09007KT 060V140 9999 BKN057/// 15/07 Q1023=
201609180850 METAR ESMX 180850Z AUTO 09005KT 040V160 9999 BKN058/// 14/08 Q1023=
201609180820 METAR ESMX 180820Z AUTO 08006KT 020V140 9999 BKN057/// 14/09 Q1023=
201609180750 METAR ESMX 180750Z AUTO 08005KT 030V120 9999 FEW055/// 13/08 Q1023=
201609180720 METAR ESMX 180720Z AUTO 05006KT 9999 FEW053/// 13/08 Q1023=
201609180650 METAR ESMX 180650Z AUTO 02005KT 9999 NCD 12/09 Q1023=
201609180620 METAR ESMX 180620Z AUTO 04005KT 010V090 9999 NCD 10/09 Q1023=
201609180550 METAR ESMX 180550Z AUTO 01004KT 9999 NCD 08/08 Q1023=
201609180520 METAR ESMX 180520Z AUTO 02004KT 9999 BCFG NCD 08/08 Q1023=
201609180450 METAR ESMX 180450Z AUTO 05003KT 0750 R01/1700N R19/P2000N BCFG FEW071/// 07/07 Q1023=
201609180420 METAR ESMX 180420Z AUTO 01003KT 9000 SCT073/// 08/08 Q1023=
201609180350 METAR ESMX 180350Z AUTO 02004KT 9999 BCFG BKN073/// 08/08 Q1023=
201609180320 METAR ESMX 180320Z AUTO 03003KT 9999 BCFG SCT043/// BKN073/// 09/08 Q1023=
201609180250 METAR ESMX 180250Z AUTO 04003KT 0750 R01/P2000N R19/P2000N FG SCT044/// BKN074/// 08/08 Q1023=
201609180220 METAR ESMX 180220Z AUTO 02003KT 0250 R01/0750U R19/P2000N FG FEW043/// SCT074/// 07/07 Q1023=
201609180150 METAR ESMX 180150Z AUTO 04002KT 7000 NCD 09/08 Q1023=
201609180120 METAR ESMX 180120Z AUTO 36003KT 9999 NCD 08/08 Q1023=
201609180050 METAR ESMX 180050Z AUTO 05005KT 9999 NCD 08/07 Q1023=
201609180020 METAR ESMX 180020Z AUTO 03003KT 9999 NCD 09/08 Q1023=
201609172350 METAR ESMX 172350Z AUTO 01004KT 9999 SCT032/// 07/06 Q1023=
201609172320 METAR ESMX 172320Z AUTO 03005KT 9999 NCD 10/08 Q1023=
201609172250 METAR ESMX 172250Z AUTO 02003KT 9999 NCD 09/08 Q1023=
201609172220 METAR ESMX 172220Z AUTO 05003KT 9999 NCD 10/08 Q1023=
201609172150 METAR ESMX 172150Z AUTO 07003KT 040V100 9999 NCD 11/08 Q1023=
201609172120 METAR ESMX 172120Z AUTO 05004KT 9999 NCD 11/08 Q1023=
201609172050 METAR ESMX 172050Z AUTO 06004KT 030V160 9999 NCD 11/08 Q1023=
201609172020 METAR ESMX 172020Z AUTO 06004KT 020V100 9999 NCD 11/08 Q1023=
201609171950 METAR ESMX 171950Z AUTO 07004KT 010V100 9999 NCD 12/08 Q1023=
201609171920 METAR ESMX 171920Z AUTO 08004KT 050V120 9999 NCD 12/08 Q1023=
201609171850 METAR ESMX 171850Z AUTO 10005KT 060V130 9999 NCD 12/07 Q1023=
201609171820 METAR ESMX 171820Z AUTO 08003KT 020V150 9999 NCD 13/07 Q1022=
201609171750 METAR ESMX 171750Z AUTO 07003KT 010V130 9999 NCD 13/07 Q1022=
201609171720 METAR ESMX 171720Z AUTO 08004KT 050V120 9999 NCD 14/06 Q1022=
201609171650 METAR ESMX 171650Z AUTO 09004KT 060V140 9999 NCD 15/06 Q1022=
201609171620 METAR ESMX 171620Z AUTO 08005KT 040V140 9999 NCD 16/06 Q1022=
201609171550 METAR ESMX 171550Z AUTO 05005KT 350V110 9999 NCD 17/06 Q1021=
201609171520 METAR ESMX 171520Z 06006KT 020V110 9999 SCT045 17/07 Q1022=
201609171450 METAR ESMX 171450Z 05008KT 010V120 9999 SCT042 17/07 Q1021=
201609171420 METAR ESMX 171420Z 06005KT 010V120 9999 SCT042 18/08 Q1021=
201609171350 METAR ESMX 171350Z 05005KT 360V080 9999 SCT043 17/07 Q1021=
201609171320 METAR ESMX 171320Z 05007KT 020V080 9999 SCT040 17/08 Q1021=
201609171250 METAR ESMX 171250Z 06007KT 9999 BKN038 16/07 Q1021=
201609171220 METAR ESMX 171220Z 05008KT 020V090 9999 BKN036 17/07 Q1021=
201609171150 METAR ESMX 171150Z 05008KT 020V100 9999 BKN040 17/08 Q1021=
201609171120 METAR ESMX 171120Z 05007KT 020V110 9999 FEW034 BKN043 16/08 Q1021=
201609171050 METAR ESMX 171050Z AUTO 05010KT 9999 BKN041/// 16/08 Q1021=
201609171020 METAR ESMX 171020Z AUTO 04010KT 9999 FEW027/// BKN036/// 16/09 Q1021=
201609170950 METAR ESMX 170950Z AUTO 05008KT 010V100 9999 FEW025/// SCT035/// BKN041/// 15/07 Q1021=
201609170920 METAR ESMX 170920Z AUTO 07009KT 030V110 9999 FEW028/// BKN032/// BKN038/// 15/07 Q1021=
201609170850 METAR ESMX 170850Z AUTO 07010KT 040V110 9999 BKN028/// 16/08 Q1021=
201609170820 METAR ESMX 170820Z AUTO 04009KT 9999 NCD 15/09 Q1021=
201609170750 METAR ESMX 170750Z AUTO 05009KT 9999 NCD 14/09 Q1021=
201609170720 METAR ESMX 170720Z AUTO 05008KT 9999 FEW031/// 13/09 Q1021=
201609170650 METAR ESMX 170650Z AUTO 05008KT 020V080 9999 NCD 13/08 Q1021=
201609170620 METAR ESMX 170620Z AUTO 05008KT 9999 FEW033/// 12/08 Q1020=
201609170550 METAR ESMX 170550Z AUTO 04007KT 9999 BKN031/// 11/08 Q1020=
201609170520 METAR ESMX 170520Z AUTO 04006KT 360V070 9999 OVC027/// 10/08 Q1020=
201609170450 METAR ESMX 170450Z AUTO 04006KT 9999 BKN026/// 10/08 Q1020=
201609170420 METAR ESMX 170420Z AUTO 05006KT 020V080 9999 FEW026/// 09/08 Q1020=
201609170350 METAR ESMX 170350Z AUTO 04006KT 9999 NCD 10/08 Q1020=
201609170320 METAR ESMX 170320Z AUTO 04006KT 010V090 9999 NCD 10/08 Q1019=
201609170250 METAR ESMX 170250Z AUTO 03003KT 360V060 9999 NCD 10/08 Q1020=
201609170220 METAR ESMX 170220Z AUTO 03005KT 350V060 9999 NCD 10/08 Q1019=
201609170150 METAR ESMX 170150Z AUTO 03004KT 9999 NCD 10/09 Q1019=
201609170120 METAR ESMX 170120Z AUTO 03004KT 360V070 9999 NCD 10/09 Q1019=
201609170050 METAR ESMX 170050Z AUTO 02004KT 9999 NCD 10/09 Q1019=
201609170020 METAR ESMX 170020Z AUTO 06006KT 020V090 9999 FEW019/// SCT021/// 11/09 Q1019=
201609162350 METAR ESMX 162350Z AUTO 06006KT 030V100 9999 OVC017/// 11/09 Q1019=
201609162320 METAR ESMX 162320Z AUTO 05005KT 020V080 9999 NCD 11/09 Q1019=
201609162250 METAR ESMX 162250Z AUTO 04005KT 020V080 9999 FEW022/// 11/09 Q1019=
201609162220 METAR ESMX 162220Z AUTO 04006KT 9999 NCD 11/09 Q1019=
201609162150 METAR ESMX 162150Z AUTO 04008KT 9999 NCD 12/09 Q1019=
201609162120 METAR ESMX 162120Z AUTO 05007KT 020V090 9999 NCD 12/09 Q1019=
201609162050 METAR ESMX 162050Z AUTO 04006KT 010V080 9999 FEW017/// BKN045/// 12/09 Q1019=
201609162020 METAR ESMX 162020Z AUTO 06007KT 030V120 9999 FEW017/// BKN042/// 13/09 Q1019=
201609161950 METAR ESMX 161950Z AUTO 08006KT 050V120 9999 FEW040/// BKN045/// 13/09 Q1019=
201609161920 METAR ESMX 161920Z AUTO 06007KT 020V100 9999 BKN044/// 14/09 Q1019=
201609161850 METAR ESMX 161850Z AUTO 07007KT 030V140 9999 FEW021/// SCT029/// 14/09 Q1019=
201609161820 METAR ESMX 161820Z AUTO 08007KT 050V120 9999 OVC029/// 15/10 Q1019=
201609161750 METAR ESMX 161750Z AUTO 08007KT 040V120 9999 OVC028/// 16/10 Q1018=
201609161720 METAR ESMX 161720Z 06006KT 020V100 9999 OVC028 16/10 Q1018=
201609161650 METAR ESMX 161650Z 08005KT 030V130 9999 OVC029 17/10 Q1018=
201609161620 METAR ESMX 161620Z 09004KT 060V120 9999 OVC030 17/10 Q1018=
201609161550 METAR ESMX 161550Z 08005KT 050V130 9999 OVC029 17/10 Q1018=
201609161520 METAR ESMX 161520Z 06005KT 030V110 9999 OVC027 17/11 Q1018=
201609161450 METAR ESMX 161450Z 07005KT 030V120 9999 OVC025 18/11 Q1018=
201609161420 METAR ESMX 161420Z 09005KT 050V140 9999 OVC024 18/11 Q1018=
201609161350 METAR ESMX 161350Z 07005KT 360V140 9999 FEW021 BKN024 17/12 Q1018=
201609161320 METAR ESMX 161320Z 09006KT 050V140 9999 BKN018 18/12 Q1018=
201609161250 METAR ESMX 161250Z 10006KT 020V140 9999 SCT016 BKN024 17/13 Q1018=
201609161220 METAR ESMX 161220Z 09005KT 050V130 9999 BKN014 17/13 Q1018=
201609161150 METAR ESMX 161150Z 09006KT 050V140 9999 SCT011 BKN016 16/13 Q1018=
201609161120 METAR ESMX 161120Z 08006KT 040V160 9999 BKN006 16/14 Q1019=
201609161050 METAR ESMX 161050Z 06007KT 030V100 8000 BR BKN005 16/14 Q1019=
201609161020 METAR ESMX 161020Z 07006KT 030V100 9000 BR FEW005 OVC007 16/15 Q1019=
201609160950 METAR ESMX 160950Z 08007KT 030V110 8000 OVC006 16/15 Q1019=
201609160920 METAR ESMX 160920Z 07006KT 030V130 9999 BKN011 17/14 Q1019=
201609160850 METAR ESMX 160850Z 09004KT 030V140 9999 BKN010 17/14 Q1019=
201609160820 METAR ESMX 160820Z 08006KT 040V130 9999 BKN010 17/15 Q1018=
201609160750 METAR ESMX 160750Z 07006KT 030V120 9999 FEW008 BKN010 17/15 Q1018=
201609160720 METAR ESMX 160720Z 08006KT 040V120 9999 BKN007 17/15 Q1018=
201609160650 METAR ESMX 160650Z 08006KT 030V130 9999 BKN007 17/15 Q1018=
201609160620 METAR ESMX 160620Z 07005KT 040V120 9999 BKN007 17/15 Q1018=
201609160550 METAR ESMX 160550Z 08004KT 050V110 9999 BKN006 17/15 Q1018=
201609160520 METAR ESMX 160520Z 08004KT 060V120 8000 BR BKN006 16/15 Q1018=
201609160450 METAR ESMX 160450Z 09004KT 040V130 6000 BR OVC003 16/15 Q1018=
201609160420 METAR ESMX 160420Z 08006KT 8000 BR FEW004 OVC031 16/14 Q1018=
201609160350 METAR ESMX 160350Z 07004KT 040V110 9999 OVC030 16/14 Q1018=
201609160320 METAR ESMX 160320Z AUTO 08004KT 050V110 9999 OVC031/// 16/14 Q1018=
201609160250 METAR ESMX 160250Z AUTO 08003KT 9999 OVC029/// 16/14 Q1018=
201609160220 METAR ESMX 160220Z AUTO 08004KT 050V120 9999 OVC030/// 16/15 Q1018=
201609160150 METAR ESMX 160150Z AUTO 08004KT 040V110 9999 FEW004/// BKN030/// 15/15 Q1018=
201609160120 METAR ESMX 160120Z AUTO 09003KT 9999 FEW034/// SCT039/// BKN044/// 14/14 Q1018=
201609160050 METAR ESMX 160050Z AUTO 19002KT 9999 FEW034/// BKN039/// 14/13 Q1018=
201609160020 METAR ESMX 160020Z AUTO VRB02KT 9999 OVC031/// 14/13 Q1018=
201609152350 METAR ESMX 152350Z VRB01KT 8000 BR FEW034 14/13 Q1018=
201609152320 METAR ESMX 152320Z 00000KT 5000 BR NSC 14/14 Q1018=
201609152250 METAR ESMX 152250Z 14003KT CAVOK 15/14 Q1018=
201609152220 METAR ESMX 152220Z 15004KT CAVOK 16/14 Q1018=
201609152150 METAR ESMX 152150Z 15004KT CAVOK 16/15 Q1018=
201609152120 METAR ESMX 152120Z 15006KT CAVOK 17/15 Q1018=
201609152050 METAR ESMX 152050Z 14005KT CAVOK 18/15 Q1018=
201609152020 METAR ESMX 152020Z 16005KT CAVOK 18/15 Q1017=
201609151950 METAR ESMX 151950Z 18004KT CAVOK 17/15 Q1017=
201609151920 METAR ESMX 151920Z 20004KT CAVOK 17/15 Q1017=
201609151850 METAR ESMX 151850Z 16004KT CAVOK 19/15 Q1017=
201609151820 METAR ESMX 151820Z 13004KT CAVOK 19/15 Q1017=
201609151750 METAR ESMX 151750Z 00000KT CAVOK 19/15 Q1017=
201609151720 METAR ESMX 151720Z VRB02KT CAVOK 21/15 Q1017=
201609151650 METAR ESMX 151650Z 36004KT CAVOK 24/15 Q1017=
201609151620 METAR ESMX 151620Z 36004KT CAVOK 25/15 Q1017=
201609151550 METAR ESMX 151550Z 36005KT CAVOK 26/14 Q1017=
201609151520 METAR ESMX 151520Z 36004KT 320V050 CAVOK 27/13 Q1018=
201609151450 METAR ESMX 151450Z 36004KT 330V030 CAVOK 27/13 Q1018=
201609151420 METAR ESMX 151420Z 35004KT 310V010 CAVOK 27/13 Q1018=
201609151350 METAR ESMX 151350Z VRB03KT CAVOK 27/13 Q1018=
201609151320 METAR ESMX 151320Z VRB03KT CAVOK 27/14 Q1018=
201609151250 METAR ESMX 151250Z 35003KT 290V030 CAVOK 27/14 Q1019=
201609151220 METAR ESMX 151220Z 33004KT 290V010 CAVOK 27/15 Q1019=
201609151150 METAR ESMX 151150Z 33003KT 270V060 CAVOK 26/16 Q1019=
201609151120 METAR ESMX 151120Z VRB04KT CAVOK 25/15 Q1019=
201609151050 METAR ESMX 151050Z 36004KT 320V070 CAVOK 25/16 Q1019=
201609151020 METAR ESMX 151020Z 35004KT 320V030 CAVOK 24/16 Q1019=
201609150950 METAR ESMX 150950Z 34005KT CAVOK 23/16 Q1020=
201609150920 METAR ESMX 150920Z VRB03KT CAVOK 23/17 Q1020=
201609150850 METAR COR ESMX 150850Z 36003KT CAVOK 22/16 Q1020=
201609150820 METAR ESMX 150820Z 06003KT 030V090 CAVOK 22/16 Q1020=
201609150750 METAR ESMX 150750Z VRB02KT CAVOK 21/16 Q1020=
201609150720 METAR ESMX 150720Z VRB02KT CAVOK 19/16 Q1020=
201609150650 METAR ESMX 150650Z VRB02KT CAVOK 18/16 Q1020=
201609150620 METAR ESMX 150620Z 00000KT CAVOK 16/16 Q1020=
201609150550 METAR ESMX 150550Z VRB01KT 9000 BR NSC 14/13 Q1020=
201609150520 METAR ESMX 150520Z 21001KT 8000 BCFG NSC 13/12 Q1020=
201609150450 METAR ESMX 150450Z 00000KT 1400 R01/P2000D R19/P2000N BCFG BKN091 12/11 Q1020=
201609150420 METAR ESMX 150420Z 00000KT 0200 R01/0600U R19/P2000N BCFG NSC 12/11 Q1020=
201609150350 METAR COR ESMX 150350Z 03002KT 5000 BR NSC 12/12 Q1020=
201609150320 METAR ESMX 150320Z AUTO 00000KT 9999 FEW082/// 12/11 Q1020=
201609150250 METAR ESMX 150250Z AUTO 30002KT 8000 FEW077/// 12/12 Q1020=
201609150220 METAR ESMX 150220Z AUTO 00000KT 9999 BKN079/// 12/12 Q1021=
201609150150 METAR ESMX 150150Z AUTO 00000KT 9999 BCFG BKN078/// 12/11 Q1021=
201609150120 METAR ESMX 150120Z AUTO 00000KT 9999 BCFG FEW079/// 12/11 Q1021=
201609150050 METAR ESMX 150050Z AUTO 20002KT 7000 BCFG FEW077/// 13/12 Q1021=
201609150020 METAR ESMX 150020Z AUTO 36001KT 9999 BR NCD 11/11 Q1021=
201609142350 METAR ESMX 142350Z 00000KT CAVOK 13/12 Q1021=
201609142320 METAR ESMX 142320Z 00000KT 4100 BR NSC 13/12 Q1021=
201609142250 METAR ESMX 142250Z 35002KT CAVOK 13/12 Q1021=
201609142220 METAR ESMX 142220Z 34001KT CAVOK 13/12 Q1021=
201609142150 METAR ESMX 142150Z VRB01KT CAVOK 14/12 Q1021=
201609142120 METAR ESMX 142120Z VRB01KT CAVOK 15/13 Q1021=
201609142050 METAR ESMX 142050Z 00000KT CAVOK 15/13 Q1021=
201609142020 METAR ESMX 142020Z VRB01KT CAVOK 17/14 Q1021=
201609141950 METAR ESMX 141950Z VRB02KT CAVOK 17/14 Q1021=
201609141920 METAR ESMX 141920Z 28004KT CAVOK 18/14 Q1021=
201609141850 METAR ESMX 141850Z 29004KT 260V020 9999 FEW048 20/14 Q1021=
201609141820 METAR ESMX 141820Z 29004KT 9999 SCT043 BKN064 20/15 Q1021=
201609141750 METAR ESMX 141750Z 27003KT 9999 SCT044 20/15 Q1021=
201609141720 METAR ESMX 141720Z 26003KT 9999 FEW045 SCT051 21/15 Q1021=
201609141650 METAR ESMX 141650Z 27004KT CAVOK 23/15 Q1021=
201609141620 METAR ESMX 141620Z 27004KT CAVOK 24/14 Q1020=
201609141550 METAR ESMX 141550Z 30005KT CAVOK 25/14 Q1020=
201609141520 METAR ESMX 141520Z 28006KT CAVOK 25/14 Q1021=
201609141450 METAR ESMX 141450Z 28004KT 240V330 CAVOK 26/13 Q1021=
201609141420 METAR ESMX 141420Z 31004KT 240V350 CAVOK 25/13 Q1021=
201609141350 METAR ESMX 141350Z 29005KT 260V330 CAVOK 26/14 Q1021=
201609141320 METAR ESMX 141320Z VRB03KT CAVOK 26/12 Q1021=
201609141250 METAR ESMX 141250Z VRB02KT CAVOK 26/12 Q1021=
201609141220 METAR ESMX 141220Z VRB02KT CAVOK 26/11 Q1021=
201609141150 METAR ESMX 141150Z VRB03KT CAVOK 26/10 Q1021=
201609141120 METAR ESMX 141120Z VRB02KT CAVOK 25/09 Q1022=
201609141050 METAR ESMX 141050Z VRB02KT CAVOK 25/09 Q1022=
201609141020 METAR ESMX 141020Z VRB02KT CAVOK 24/07 Q1022=
201609140950 METAR ESMX 140950Z VRB02KT CAVOK 23/05 Q1022=
201609140920 METAR ESMX 140920Z VRB01KT CAVOK 22/06 Q1022=
201609140850 METAR ESMX 140850Z VRB03KT CAVOK 21/04 Q1022=
201609140820 METAR ESMX 140820Z VRB02KT CAVOK 20/10 Q1022=
201609140750 METAR ESMX 140750Z 00000KT CAVOK 20/07 Q1022=
201609140720 METAR ESMX 140720Z VRB02KT CAVOK 20/10 Q1022=
201609140650 METAR ESMX 140650Z 00000KT 9999 SCT041 BKN052 18/13 Q1022=
201609140620 METAR ESMX 140620Z 19002KT 9999 FEW045 SCT064 16/13 Q1022=
201609140550 METAR ESMX 140550Z 18002KT 9999 FEW045 SCT099 15/12 Q1022=
201609140520 METAR ESMX 140520Z 00000KT 9999 FEW042 BKN069 14/11 Q1022=
201609140450 METAR ESMX 140450Z 00000KT 9999 FEW044 BKN069 BKN090 13/10 Q1022=
201609140420 METAR ESMX 140420Z 00000KT CAVOK 14/10 Q1022=
201609140350 METAR ESMX 140350Z 00000KT CAVOK 14/10 Q1022=
201609140320 METAR ESMX 140320Z AUTO VRB02KT 9999 FEW068/// BKN089/// 14/10 Q1022=
201609140250 METAR ESMX 140250Z AUTO VRB01KT 9999 FEW077/// BKN087/// 14/10 Q1022=
201609140220 METAR ESMX 140220Z AUTO 00000KT 9999 OVC081/// 14/10 Q1022=
201609140150 METAR ESMX 140150Z AUTO 00000KT 9999 FEW069/// BKN084/// 14/10 Q1022=
201609140120 METAR ESMX 140120Z AUTO 00000KT 9999 SCT067/// BKN080/// 14/09 Q1022=
201609140050 METAR ESMX 140050Z AUTO 00000KT 9999 FEW067/// BKN082/// 14/11 Q1022=
201609140020 METAR ESMX 140020Z AUTO 18002KT 9999 OVC081/// 14/10 Q1022=
201609132350 METAR ESMX 132350Z AUTO 00000KT 9999 BKN079/// 14/10 Q1022=
201609132320 METAR ESMX 132320Z 13003KT CAVOK 15/11 Q1022=
201609132250 METAR ESMX 132250Z 19002KT CAVOK 15/11 Q1022=
201609132220 METAR ESMX 132220Z 17002KT CAVOK 15/11 Q1022=
201609132150 METAR ESMX 132150Z 14002KT CAVOK 15/11 Q1022=
201609132120 METAR ESMX 132120Z 18002KT CAVOK 15/10 Q1022=
201609132050 METAR ESMX 132050Z 18003KT CAVOK 16/10 Q1022=
201609132020 METAR ESMX 132020Z 17002KT CAVOK 16/10 Q1022=
201609131950 METAR ESMX 131950Z 18003KT CAVOK 17/12 Q1022=
201609131920 METAR ESMX 131920Z 20003KT CAVOK 17/10 Q1022=
201609131850 METAR ESMX 131850Z 19004KT 170V240 CAVOK 17/11 Q1021=
201609131820 METAR ESMX 131820Z 19004KT CAVOK 18/12 Q1021=
201609131750 METAR ESMX 131750Z 19004KT CAVOK 19/12 Q1021=
201609131720 METAR ESMX 131720Z 18004KT 9999 FEW030 BKN059 20/13 Q1021=
201609131650 METAR ESMX 131650Z 17003KT CAVOK 21/12 Q1021=
201609131620 METAR ESMX 131620Z 16004KT CAVOK 24/11 Q1021=
201609131550 METAR ESMX 131550Z 15004KT CAVOK 24/11 Q1021=
201609131520 METAR ESMX 131520Z 16005KT CAVOK 25/11 Q1021=
201609131450 METAR ESMX 131450Z 16005KT CAVOK 25/11 Q1022=
201609131420 METAR ESMX 131420Z 17004KT 090V200 CAVOK 25/11 Q1022=
201609131350 METAR ESMX 131350Z 21006KT 170V230 CAVOK 25/11 Q1022=
201609131320 METAR ESMX 131320Z 15006KT 110V190 CAVOK 25/11 Q1022=
201609131250 METAR ESMX 131250Z 19006KT CAVOK 25/10 Q1022=
201609131220 METAR ESMX 131220Z 17006KT 120V210 CAVOK 25/11 Q1022=
201609131150 METAR ESMX 131150Z 15006KT 110V190 CAVOK 24/11 Q1022=
201609131120 METAR ESMX 131120Z 16005KT 120V200 CAVOK 23/11 Q1023=
201609131050 METAR ESMX 131050Z 17006KT 140V200 CAVOK 23/11 Q1023=
201609131020 METAR ESMX 131020Z 17004KT 150V210 CAVOK 22/11 Q1023=
201609130950 METAR ESMX 130950Z 13005KT 100V180 CAVOK 22/11 Q1023=
201609130920 METAR ESMX 130920Z 14005KT 110V190 CAVOK 22/11 Q1023=
201609130850 METAR ESMX 130850Z 15005KT 110V200 CAVOK 21/10 Q1023=
201609130820 METAR ESMX 130820Z 15005KT 100V180 CAVOK 20/10 Q1023=
201609130750 METAR ESMX 130750Z VRB02KT CAVOK 19/11 Q1023=
201609130720 METAR ESMX 130720Z 11003KT 070V140 CAVOK 18/12 Q1023=
201609130650 METAR ESMX 130650Z 00000KT CAVOK 15/13 Q1023=
201609130620 METAR ESMX 130620Z 00000KT CAVOK 13/13 Q1023=
201609130550 METAR ESMX 130550Z 00000KT CAVOK 10/10 Q1023=
201609130520 METAR ESMX 130520Z 00000KT 9999 BCFG NSC 09/08 Q1023=
201609130450 METAR ESMX 130450Z 00000KT 0350 R01/P2000N R19/P2000D BCFG NSC 08/08 Q1023=
201609130420 METAR ESMX 130420Z AUTO 04001KT 9999 BCFG NCD 08/08 Q1023=
201609130350 METAR ESMX 130350Z 04002KT 0550 R01/1800N R19/P2000N BCFG NSC 08/08 Q1022=
201609130320 METAR ESMX 130320Z AUTO 00000KT 0350 R01/P2000N R19/P2000D NCD 08/07 Q1023=
201609130250 METAR ESMX 130250Z AUTO 00000KT 9999 BCFG NCD 08/07 Q1023=
201609130220 METAR ESMX 130220Z AUTO 00000KT 9999 BCFG NCD 08/07 Q1023=
201609130150 METAR ESMX 130150Z AUTO 00000KT 2200 BCFG NCD 08/08 Q1023=
201609130120 METAR ESMX 130120Z AUTO 00000KT 9999 BCFG NCD 08/08 Q1023=
201609130050 METAR ESMX 130050Z AUTO 00000KT 9999 BCFG NCD 09/08 Q1023=
201609130020 METAR ESMX 130020Z AUTO 00000KT 0200 R01/0600N R19/P2000N FG NCD 08/08 Q1023=
201609122350 METAR ESMX 122350Z AUTO 00000KT 9999 NCD 09/08 Q1023=
201609122320 METAR ESMX 122320Z 00000KT 0250 R01/P2000N R19/0650N FG NSC 09/08 Q1023=
201609122250 METAR ESMX 122250Z AUTO 00000KT 9999 NCD 09/09 Q1023=
201609122220 METAR ESMX 122220Z 18003KT CAVOK 10/10 Q1023=
201609122150 METAR ESMX 122150Z AUTO 19002KT 9999 BR NCD 09/09 Q1022=
201609122120 METAR ESMX 122120Z 00000KT CAVOK 10/09 Q1022=
201609122050 METAR ESMX 122050Z 00000KT CAVOK 10/09 Q1022=
201609122020 METAR ESMX 122020Z 00000KT CAVOK 10/09 Q1022=
201609121950 METAR ESMX 121950Z 19001KT CAVOK 11/09 Q1022=
201609121920 METAR ESMX 121920Z 17002KT CAVOK 12/10 Q1022=
201609121850 METAR ESMX 121850Z 00000KT CAVOK 12/10 Q1022=
201609121820 METAR ESMX 121820Z 18002KT CAVOK 13/10 Q1022=
201609121750 METAR ESMX 121750Z 00000KT CAVOK 14/11 Q1022=
201609121720 METAR ESMX 121720Z 36002KT CAVOK 17/11 Q1022=
201609121650 METAR ESMX 121650Z 01003KT CAVOK 19/11 Q1022=
201609121620 METAR ESMX 121620Z 01003KT CAVOK 20/10 Q1022=
201609121550 METAR ESMX 121550Z 01005KT CAVOK 21/10 Q1022=
201609121520 METAR ESMX 121520Z 01004KT CAVOK 21/09 Q1022=
201609121450 METAR ESMX 121450Z 36004KT 320V030 CAVOK 21/08 Q1022=
201609121420 METAR ESMX 121420Z 31003KT 270V010 CAVOK 22/08 Q1022=
201609121350 METAR COR ESMX 121350Z VRB02KT CAVOK 22/08 Q1022=
201609121320 METAR ESMX 121320Z VRB03KT CAVOK 22/08 Q1022=
201609121250 METAR ESMX 121250Z 25005KT 210V280 CAVOK 21/08 Q1022=
201609121220 METAR ESMX 121220Z 21003KT 160V290 CAVOK 21/08 Q1022=
201609121150 METAR ESMX 121150Z 29005KT CAVOK 20/08 Q1022=
201609121120 METAR ESMX 121120Z VRB03KT CAVOK 19/08 Q1023=
201609121050 METAR ESMX 121050Z 22004KT 150V250 CAVOK 20/07 Q1023=
201609121020 METAR ESMX 121020Z VRB03KT CAVOK 19/08 Q1023=
201609120950 METAR ESMX 120950Z VRB03KT CAVOK 18/09 Q1023=
201609120920 METAR ESMX 120920Z VRB03KT CAVOK 17/10 Q1023=
201609120850 METAR ESMX 120850Z VRB03KT CAVOK 16/09 Q1023=
201609120820 METAR ESMX 120820Z VRB03KT CAVOK 16/11 Q1023=
201609120750 METAR ESMX 120750Z VRB01KT CAVOK 14/11 Q1023=
201609120720 METAR ESMX 120720Z VRB01KT CAVOK 12/10 Q1023=
201609120650 METAR ESMX 120650Z VRB02KT CAVOK 11/11 Q1023=
201609120620 METAR ESMX 120620Z 00000KT CAVOK 09/09 Q1022=
201609120550 METAR ESMX 120550Z 00000KT 1000 R01/P2000N R19/P2000N NSC 05/05 Q1022=
201609120520 METAR ESMX 120520Z 18003KT 0300 R01/P2000N R19/0450U BCFG NSC 03/03 Q1022=
201609120450 METAR ESMX 120450Z 14001KT 0300 R01/0450N R19/1000U BCFG FEW030 03/02 Q1022=
201609120420 METAR COR ESMX 120420Z 15001KT 0200 R01/0400N R19/0400N BCFG FEW030 03/03 Q1022=
201609120350 METAR ESMX 120350Z VRB02KT 0300 R01/1400U R19/P2000D FG NSC 04/03 Q1022=
201609120320 METAR ESMX 120320Z AUTO 20003KT 0200 R01/1800D R19/P2000N BCFG NCD 06/06 Q1022=
201609120250 METAR ESMX 120250Z AUTO 21004KT 0550 R01/P2000N R19/P2000N BCFG NCD 03/03 Q1022=
201609120220 METAR ESMX 120220Z AUTO 18004KT 0150 R01/1300U R19/0400N FG NCD 04/04 Q1021=
201609120150 METAR ESMX 120150Z AUTO 18003KT 0250 R01/0750N R19/P2000N BCFG NCD 04/04 Q1021=
201609120120 METAR ESMX 120120Z AUTO VRB01KT 9999 BCFG NCD 04/04 Q1021=
201609120050 METAR ESMX 120050Z AUTO 00000KT 7000 BR NCD 04/04 Q1021=
201609120020 METAR ESMX 120020Z AUTO VRB02KT 9999 BR NCD 05/05 Q1021=
201609112350 METAR ESMX 112350Z AUTO 17003KT 9999 NCD 06/06 Q1021=
201609112320 METAR ESMX 112320Z VRB02KT CAVOK 07/06 Q1021=
201609112250 METAR ESMX 112250Z 24003KT CAVOK 07/06 Q1021=
201609112220 METAR ESMX 112220Z VRB03KT CAVOK 09/08 Q1020=
201609112150 METAR ESMX 112150Z VRB02KT CAVOK 08/07 Q1020=
201609112120 METAR ESMX 112120Z 29003KT CAVOK 10/09 Q1020=
201609112050 METAR ESMX 112050Z 29005KT CAVOK 10/08 Q1020=
201609112020 METAR ESMX 112020Z 29004KT CAVOK 12/10 Q1020=
201609111950 METAR ESMX 111950Z 27004KT CAVOK 13/10 Q1020=
201609111920 METAR ESMX 111920Z 25006KT CAVOK 13/10 Q1019=
201609111850 METAR ESMX 111850Z 25006KT CAVOK 15/11 Q1019=
201609111820 METAR ESMX 111820Z 26005KT CAVOK 15/11 Q1019=
201609111750 METAR ESMX 111750Z 25006KT 210V290 CAVOK 16/12 Q1018=
201609111720 METAR ESMX 111720Z 26007KT CAVOK 17/12 Q1018=
201609111650 METAR ESMX 111650Z AUTO 26010KT 9999 FEW027/// 19/12 Q1017=
201609111620 METAR ESMX 111620Z AUTO 26009KT 9999 FEW029/// SCT038/// 20/13 Q1017=
201609111550 METAR ESMX 111550Z AUTO 25010KT 220V280 9999 FEW035/// SCT041/// 21/13 Q1017=
201609111520 METAR ESMX 111520Z 23010KT 200V280 9999 FEW040 21/12 Q1016=
201609111450 METAR ESMX 111450Z 22013KT 9999 FEW035 23/13 Q1016=
201609111420 METAR ESMX 111420Z 21013KT 9999 FEW045 22/14 Q1016=
201609111350 METAR ESMX 111350Z 23011KT 200V280 9999 FEW020TCU SCT050 22/15 Q1016=
201609111320 METAR ESMX 111320Z 25010KT 9999 SCT010TCU BKN045 21/16 Q1016=
201609111250 METAR ESMX 111250Z 26009KT 230V300 9999 FEW020CB BKN030 20/16 Q1016=
201609111220 METAR COR ESMX 111220Z 24010KT 200V270 9999 FEW025CB BKN035 22/15 Q1015=
201609111150 METAR COR ESMX 111150Z 23010KT 9999 BKN035 22/14 Q1015=
201609111120 METAR ESMX 111120Z 22009KT 200V260 9999 BKN035 22/15 Q1015=
201609111050 METAR ESMX 111050Z 20012KT 9999 FEW030 BKN040 22/14 Q1015=
201609111020 METAR ESMX 111020Z AUTO 20011KT 180V240 9999 NCD 23/15 Q1015=
201609110950 METAR ESMX 110950Z AUTO 18010KT 9999 FEW059/// 22/16 Q1015=
201609110920 METAR ESMX 110920Z AUTO 20010KT 9999 FEW056/// 21/17 Q1015=
201609110850 METAR ESMX 110850Z AUTO 19011KT 9999 FEW048/// 19/16 Q1015=
201609110820 METAR ESMX 110820Z AUTO 18010KT 9999 SCT049/// 18/15 Q1015=
201609110750 METAR ESMX 110750Z AUTO 16008KT 9999 FEW046/// 17/15 Q1014=
201609110720 METAR ESMX 110720Z AUTO 16007KT 9999 -DZ FEW019/// SCT062/// 16/14 Q1014=
201609110650 METAR ESMX 110650Z AUTO 16008KT 9999 FEW090/// 15/14 Q1014=
201609110620 METAR ESMX 110620Z AUTO 16008KT 8000 BR SCT039/// 15/14 Q1014=
201609110550 METAR ESMX 110550Z AUTO 16006KT 9999 NCD 14/13 Q1014=
201609110520 METAR ESMX 110520Z AUTO 16006KT 9999 NCD 14/13 Q1014=
201609110450 METAR ESMX 110450Z AUTO 17005KT 9999 FEW049/// BKN064/// 13/12 Q1015=
201609110420 METAR ESMX 110420Z AUTO 15007KT 9999 NCD 13/12 Q1015=
201609110350 METAR ESMX 110350Z AUTO 15005KT 7000 BR NCD 12/12 Q1015=
201609110320 METAR ESMX 110320Z AUTO 15004KT 5000 NCD 12/12 Q1015=
201609110250 METAR ESMX 110250Z AUTO 14003KT 110V170 1600 BCFG NCD 12/12 Q1015=
201609110220 METAR ESMX 110220Z AUTO 15004KT 110V190 3800 NCD 09/09 Q1015=
201609110150 METAR ESMX 110150Z AUTO 19003KT 1600 BR NCD 09/09 Q1016=
201609110120 METAR ESMX 110120Z AUTO VRB02KT 0050 R01/P2000N R19/0275N BR NCD 10/10 Q1016=
201609110050 METAR ESMX 110050Z AUTO VRB03KT 0150 R01/P2000N R19/0400N NCD 11/10 Q1016=
201609110020 METAR ESMX 110020Z AUTO 15003KT 0550 R01/P2000N R19/P2000N NCD 11/11 Q1016=
201609102350 METAR ESMX 102350Z AUTO 16004KT 5000 NCD 10/10 Q1016=
201609102320 METAR ESMX 102320Z AUTO 16004KT 9999 NCD 11/10 Q1016=
201609102250 METAR ESMX 102250Z AUTO 16003KT 9999 NCD 12/11 Q1016=
201609102220 METAR ESMX 102220Z AUTO 21004KT 9999 NCD 13/12 Q1016=
201609102150 METAR ESMX 102150Z AUTO 19003KT 9999 NCD 12/11 Q1016=
201609102120 METAR ESMX 102120Z AUTO 19003KT 9999 NCD 11/10 Q1017=
201609102050 METAR ESMX 102050Z AUTO 19004KT 9999 NCD 12/11 Q1017=
201609102020 METAR ESMX 102020Z AUTO 17002KT 9999 NCD 11/11 Q1017=
201609101950 METAR ESMX 101950Z AUTO 16001KT 9999 NCD 12/11 Q1017=
201609101920 METAR ESMX 101920Z AUTO 17003KT 9999 NCD 13/11 Q1017=
201609101850 METAR ESMX 101850Z AUTO 18001KT 9999 NCD 13/12 Q1017=
201609101820 METAR ESMX 101820Z AUTO 17002KT 9999 NCD 14/12 Q1017=
201609101750 METAR ESMX 101750Z AUTO 17002KT 9999 NCD 16/13 Q1016=
201609101720 METAR ESMX 101720Z AUTO 25002KT 9999 NCD 18/14 Q1016=
201609101650 METAR ESMX 101650Z AUTO 24003KT 9999 NCD 21/13 Q1016=
201609101620 METAR ESMX 101620Z AUTO 25004KT 9999 NCD 22/13 Q1017=
201609101550 METAR ESMX 101550Z AUTO 29004KT 9999 NCD 23/13 Q1017=
201609101520 METAR ESMX 101520Z 22006KT 170V250 CAVOK 23/13 Q1017=
201609101450 METAR ESMX 101450Z VRB02KT CAVOK 23/13 Q1017=
201609101420 METAR ESMX 101420Z 25005KT 180V300 CAVOK 23/12 Q1017=
201609101350 METAR ESMX 101350Z 24007KT 200V260 CAVOK 23/11 Q1017=
201609101320 METAR ESMX 101320Z 22005KT 200V280 CAVOK 23/12 Q1017=
201609101250 METAR ESMX 101250Z 27004KT 190V330 CAVOK 23/11 Q1017=
201609101220 METAR ESMX 101220Z 25006KT 210V300 9999 FEW040 23/11 Q1017=
201609101150 METAR ESMX 101150Z 22006KT 190V260 9999 FEW030 23/13 Q1018=
201609101121 METAR ESMX 101121Z 23007KT 200V260 CAVOK 22/12 Q1018=
201609101050 METAR ESMX 101050Z AUTO 23006KT 200V280 9999 FEW026/// SCT031/// 22/13 Q1018=
201609101020 METAR ESMX 101020Z AUTO 25005KT 210V300 9999 FEW026/// 20/13 Q1018=
201609100950 METAR ESMX 100950Z AUTO 29007KT 250V320 9999 NCD 20/14 Q1018=
201609100920 METAR ESMX 100920Z AUTO 25006KT 210V290 9999 NCD 20/13 Q1018=
201609100850 METAR ESMX 100850Z AUTO VRB04KT 9999 NCD 19/14 Q1018=
201609100820 METAR ESMX 100820Z AUTO 22004KT 180V250 9999 NCD 19/14 Q1018=
201609100750 METAR ESMX 100750Z AUTO 22003KT 170V250 9999 NCD 17/13 Q1018=
201609100720 METAR ESMX 100720Z AUTO 00000KT 9999 BKN000/// 15/14 Q1018=
201609100650 METAR ESMX 100650Z AUTO VRB01KT 2000 VV001 14/14 Q1018=
201609100620 METAR ESMX 100620Z AUTO 00000KT 0250 R01/0500N R19/0700N FG VV000 11/11 Q1018=
201609100550 METAR ESMX 100550Z AUTO 00000KT 0350 R01/0700N R19/0600N FG VV000 09/09 Q1018=
201609100520 METAR ESMX 100520Z AUTO 20003KT 0050 R01/0325U R19/0125N FG VV000 08/08 Q1018=
201609100450 METAR ESMX 100450Z AUTO 17002KT 0150 R01/0375N R19/0275N FG VV000 08/07 Q1018=
201609100420 METAR ESMX 100420Z AUTO 17001KT 0100 R01/0275N R19/0350N FG SCT000/// 07/07 Q1018=
201609100350 METAR ESMX 100350Z AUTO 15002KT 0100 R01/0350N R19/0700U FG VV001 08/08 Q1018=
201609100320 METAR ESMX 100320Z AUTO 18002KT 0150 R01/0900N R19/P2000N FG NCD 08/07 Q1018=
201609100250 METAR ESMX 100250Z AUTO 00000KT 0050 R01/0225N R19/0200N BCFG NCD 09/08 Q1018=
201609100220 METAR ESMX 100220Z AUTO 17002KT 0100 R01/0900N R19/0375U FG BKN000/// 09/09 Q1018=
201609100150 METAR ESMX 100150Z AUTO 18002KT 0050 R01/0225N R19/0400N FG VV000 10/10 Q1018=
201609100120 METAR ESMX 100120Z AUTO 18002KT 0050 R01/0200N R19/0400N FG NCD 10/09 Q1017=
201609100050 METAR ESMX 100050Z AUTO 27001KT 0050 R01/0250N R19/0175N BCFG NCD 10/09 Q1017=
201609100020 METAR ESMX 100020Z AUTO 21002KT 0050 R01/0300N R19/0325N FG NCD 10/10 Q1017=
201609092350 METAR ESMX 092350Z AUTO 16002KT 0050 R01/0175N R19/0250N FG NCD 12/12 Q1017=
201609092320 METAR ESMX 092320Z AUTO 00000KT 0100 R01/0375N R19/0400N BCFG NCD 12/12 Q1017=
201609092250 METAR ESMX 092250Z AUTO 26002KT 0100 R01/1700D R19/1000U BCFG NCD 13/12 Q1017=
201609092220 METAR ESMX 092220Z AUTO 27003KT 2300 BR NCD 14/14 Q1017=
201609092150 METAR ESMX 092150Z AUTO 27003KT 3400 BR NCD 14/13 Q1017=
201609092120 METAR ESMX 092120Z AUTO 26003KT 230V290 1800 BR NCD 15/14 Q1017=
201609092050 METAR ESMX 092050Z AUTO 26004KT 5000 BR BKN020/// 15/14 Q1017=
201609092020 METAR ESMX 092020Z AUTO 26003KT 7000 BR OVC018/// 15/15 Q1017=
201609091950 METAR ESMX 091950Z AUTO 26003KT 6000 BCFG FEW013/// BKN017/// 15/15 Q1017=
201609091920 METAR ESMX 091920Z VRB01KT 8000 BCFG NSC 15/14 Q1016=
201609091850 METAR ESMX 091850Z 00000KT 6000 BR NSC 15/15 Q1016=
201609091820 METAR ESMX 091820Z 31002KT 9999 BKN017 17/16 Q1016=
201609091750 METAR ESMX 091750Z 32004KT 9999 BKN015 19/16 Q1016=
201609091720 METAR ESMX 091720Z 31006KT 9999 BKN013 19/16 Q1016=
201609091650 METAR ESMX 091650Z 31007KT 9999 FEW025 BKN030 19/17 Q1015=
201609091620 METAR ESMX 091620Z 29008KT CAVOK 21/17 Q1015=
201609091550 METAR ESMX 091550Z 28008KT CAVOK 22/17 Q1015=
201609091520 METAR ESMX 091520Z 30007KT 9999 SCT025 BKN070 23/18 Q1015=
201609091450 METAR ESMX 091450Z 30007KT 9999 SCT022 BKN040 23/18 Q1015=
201609091420 METAR ESMX 091420Z VRB03KT 9999 SCT025 BKN040 23/18 Q1015=
201609091350 METAR ESMX 091350Z 15003KT 120V180 9999 SCT023 BKN035 23/18 Q1015=
201609091320 METAR ESMX 091320Z 15005KT 120V180 9999 SCT025 BKN070 22/18 Q1015=
201609091250 METAR ESMX 091250Z 16005KT 120V190 9999 SCT019 BKN074 22/17 Q1015=
201609091220 METAR ESMX 091220Z 14006KT 110V170 9999 SCT018 22/17 Q1015=
201609091150 METAR ESMX 091150Z 15006KT 110V190 9999 SCT015 21/17 Q1015=
201609091120 METAR ESMX 091120Z 17006KT 100V200 9999 SCT011 21/17 Q1015=
201609091050 METAR ESMX 091050Z 15006KT 110V200 9999 FEW007 BKN009 20/17 Q1015=
201609091020 METAR ESMX 091020Z 16007KT 130V190 8000 BR BKN006 19/16 Q1015=
201609090950 METAR ESMX 090950Z 16008KT 120V190 8000 BR BKN006 18/16 Q1015=
201609090920 METAR ESMX 090920Z 15006KT 090V190 8000 BR BKN005 17/15 Q1015=
201609090850 METAR ESMX 090850Z 15005KT 090V200 8000 BR OVC006 17/15 Q1015=
201609090820 METAR ESMX 090820Z 15005KT 120V190 8000 BR BKN005 17/15 Q1015=
201609090750 METAR ESMX 090750Z 14005KT 100V190 6000 BR OVC004 16/15 Q1015=
201609090720 METAR ESMX 090720Z 15005KT 110V170 5000 BR OVC003 16/15 Q1014=
201609090650 METAR ESMX 090650Z 12004KT 080V160 3200 BR OVC002 15/15 Q1014=
201609090620 METAR ESMX 090620Z 13005KT 090V170 3000 BR OVC002 15/14 Q1014=
201609090550 METAR ESMX 090550Z 13005KT 080V160 2700 BR BKN003 14/14 Q1014=
201609090520 METAR ESMX 090520Z 12003KT 070V170 4800 BR FEW004 14/13 Q1014=
201609090450 METAR ESMX 090450Z VRB03KT 4900 BR NSC 14/13 Q1014=
201609090420 METAR ESMX 090420Z VRB03KT 5000 BR NSC 11/11 Q1014=
201609090350 METAR ESMX 090350Z 13003KT 080V170 7000 BR NSC 13/12 Q1014=
201609090320 METAR ESMX 090320Z AUTO 14004KT 100V170 8000 BR NCD 12/12 Q1014=
201609090250 METAR ESMX 090250Z AUTO VRB02KT 2200 BR NCD 10/10 Q1014=
201609090220 METAR ESMX 090220Z AUTO VRB02KT 1700 BR NCD 11/10 Q1014=
201609090150 METAR ESMX 090150Z AUTO VRB03KT 4200 NCD 11/10 Q1014=
201609090120 METAR ESMX 090120Z AUTO VRB03KT 0200 R01/P2000N R19/0500N NCD 11/11 Q1014=
201609090050 METAR ESMX 090050Z AUTO VRB03KT 9999 NCD 10/10 Q1014=
201609090020 METAR ESMX 090020Z VRB02KT CAVOK 10/10 Q1014=
201609082350 METAR ESMX 082350Z VRB03KT 3700 NSC 11/10 Q1015=
201609082320 METAR ESMX 082320Z 15003KT CAVOK 11/11 Q1015=
201609082250 METAR ESMX 082250Z VRB03KT CAVOK 14/13 Q1015=
201609082220 METAR ESMX 082220Z 14003KT CAVOK 14/14 Q1015=
201609082150 METAR ESMX 082150Z 15004KT CAVOK 14/13 Q1015=
201609082120 METAR ESMX 082120Z 12003KT 080V150 CAVOK 14/13 Q1015=
201609082050 METAR ESMX 082050Z 13003KT CAVOK 15/14 Q1015=
201609082020 METAR ESMX 082020Z 14004KT CAVOK 15/14 Q1014=
201609081950 METAR ESMX 081950Z 14003KT CAVOK 15/14 Q1014=
201609081920 METAR ESMX 081920Z 14004KT CAVOK 16/15 Q1015=
201609081850 METAR ESMX 081850Z 15004KT CAVOK 17/15 Q1015=
201609081820 METAR ESMX 081820Z 16004KT CAVOK 17/16 Q1015=
201609081750 METAR ESMX 081750Z 13003KT CAVOK 18/16 Q1014=
201609081720 METAR ESMX 081720Z VRB03KT CAVOK 20/16 Q1014=
201609081650 METAR ESMX 081650Z VRB03KT CAVOK 21/16 Q1014=
201609081620 METAR ESMX 081620Z 14005KT CAVOK 22/16 Q1014=
201609081550 METAR ESMX 081550Z VRB03KT CAVOK 22/16 Q1014=
201609081520 METAR ESMX 081520Z VRB03KT 9999 FEW020 BKN060 22/16 Q1015=
201609081450 METAR ESMX 081450Z VRB03KT CAVOK 22/16 Q1015=
201609081420 METAR ESMX 081420Z VRB02KT CAVOK 22/16 Q1015=
201609081350 METAR ESMX 081350Z 17003KT 9999 FEW020 BKN055 21/17 Q1015=
201609081320 METAR ESMX 081320Z 16004KT 9999 FEW020 BKN054 22/17 Q1016=
201609081250 METAR ESMX 081250Z 17004KT 140V200 9999 FEW017 BKN055 21/17 Q1016=
201609081220 METAR ESMX 081220Z 14003KT 100V170 9999 FEW018 BKN055 21/17 Q1016=
201609081150 METAR ESMX 081150Z 15003KT 9999 SCT030 BKN053 21/17 Q1016=
201609081120 METAR ESMX 081120Z 14003KT 100V170 9999 FEW022 BKN050 21/17 Q1016=
201609081050 METAR ESMX 081050Z 11004KT 070V140 9999 FEW015 SCT030TCU BKN055 20/17 Q1016=
201609081020 METAR ESMX 081020Z 07005KT 9999 SCT015TCU BKN020 20/17 Q1016=
201609080950 METAR ESMX 080950Z VRB01KT 9999 FEW010 FEW025CB BKN060 20/17 Q1016=
201609080920 METAR ESMX 080920Z 03004KT 340V070 9999 SCT008 BKN015 20/17 Q1017=
201609080850 METAR ESMX 080850Z 27004KT 210V300 9999 FEW006 BKN009 20/17 Q1017=
201609080820 METAR ESMX 080820Z VRB03KT 9000 BR BKN005 OVC008 19/17 Q1017=
201609080750 METAR ESMX 080750Z VRB02KT 7000 BR OVC004 18/18 Q1017=
201609080720 METAR ESMX 080720Z VRB03KT 5000 BR OVC002 18/18 Q1017=
201609080650 METAR ESMX 080650Z VRB03KT 2600 BR OVC002 18/17 Q1017=
201609080620 METAR ESMX 080620Z 21003KT 1000 R01/1300U R19/1200U VV002 17/17 Q1017=
201609080550 METAR ESMX 080550Z 19003KT 0300 R01/0900N R19/0600N FG VV001 17/17 Q1017=
201609080520 METAR ESMX 080520Z 18002KT 0250 R01/0600N R19/0550N FG VV001 17/17 Q1017=
201609080450 METAR ESMX 080450Z 18003KT 0200 R01/0600N R19/0550N FG VV001 17/17 Q1017=
201609080420 METAR ESMX 080420Z 23003KT 0250 R01/0900N R19/0750N FG VV001 17/17 Q1017=
201609080350 METAR ESMX 080350Z 20003KT 0400 R01/1200D R19/1100N FG VV001 17/17 Q1017=
201609080320 METAR ESMX 080320Z AUTO VRB02KT 0500 R01/1700D R19/1300N FG VV001 17/17 Q1017=
201609080250 METAR ESMX 080250Z AUTO 20003KT 1200 R01/P2000N R19/P2000N BR VV002 17/17 Q1017=
201609080220 METAR ESMX 080220Z AUTO 22004KT 2000 BR OVC001/// 17/17 Q1017=
201609080150 METAR ESMX 080150Z AUTO 22005KT 3500 BR OVC001/// 17/17 Q1017=
201609080120 METAR ESMX 080120Z AUTO 23004KT 5000 BR OVC002/// 17/16 Q1017=
201609080050 METAR ESMX 080050Z AUTO 24004KT 6000 BR OVC003/// 17/16 Q1018=
201609080020 METAR ESMX 080020Z AUTO 22005KT 7000 BR OVC003/// 17/16 Q1018=
201609072350 METAR ESMX 072350Z AUTO 22004KT 7000 BR OVC003/// 17/16 Q1018=
201609072320 METAR ESMX 072320Z 21004KT 8000 BR OVC004 17/16 Q1018=
201609072250 METAR ESMX 072250Z 24005KT 8000 BR OVC004 17/16 Q1018=
201609072220 METAR ESMX 072220Z 23004KT 9000 BR OVC005 17/16 Q1018=
201609072150 METAR ESMX 072150Z 24005KT 9999 OVC005 17/16 Q1018=
201609072120 METAR ESMX 072120Z 24005KT 220V280 9999 OVC006 17/16 Q1019=
201609072050 METAR ESMX 072050Z 23005KT 9999 FEW007 SCT008 OVC035 17/16 Q1019=
201609072020 METAR ESMX 072020Z 22004KT 9999 FEW008 SCT010 OVC033 17/16 Q1019=
201609071950 METAR ESMX 071950Z 21004KT 9999 OVC031 17/16 Q1019=
201609071920 METAR ESMX 071920Z 24003KT 9999 FEW011 OVC032 18/16 Q1019=
201609071850 METAR ESMX 071850Z 24004KT 9999 FEW010 BKN035 17/16 Q1019=
201609071820 METAR ESMX 071820Z 23004KT 9999 BKN037 18/16 Q1019=
201609071750 METAR ESMX 071750Z 24006KT 210V270 9999 BKN036 18/16 Q1019=
201609071720 METAR ESMX 071720Z 24006KT 190V270 9999 FEW013 SCT019 OVC035 19/16 Q1019=
201609071650 METAR ESMX 071650Z 23006KT 190V280 9999 FEW014 SCT019 OVC033 19/16 Q1019=
201609071620 METAR ESMX 071620Z 25007KT 9999 FEW014 OVC033 20/17 Q1019=
201609071550 METAR ESMX 071550Z 25008KT 9999 SCT014 OVC033 20/17 Q1019=
201609071520 METAR ESMX 071520Z 24009KT 200V260 9999 FEW011 SCT014 BKN031 20/17 Q1020=
201609071450 METAR ESMX 071450Z 24007KT 9999 FEW011 BKN018 19/17 Q1020=
201609071420 METAR ESMX 071420Z 23007KT 200V270 9999 FEW007 SCT010 BKN013 19/17 Q1020=
201609071350 METAR ESMX 071350Z 25007KT 220V280 9999 FEW005 SCT007 BKN011 19/18 Q1020=
201609071320 METAR ESMX 071320Z 23008KT 9999 FEW005 SCT007 BKN009 19/18 Q1020=
201609071250 METAR ESMX 071250Z 23007KT 200V270 4000 -DZ SCT007 BKN016 19/18 Q1020=
201609071220 METAR ESMX 071220Z 26007KT 5000 -DZ FEW009 OVC015 19/17 Q1020=
201609071150 METAR ESMX 071150Z 25007KT 5000 -DZ FEW007 BKN015 19/16 Q1021=
201609071120 METAR ESMX 071120Z 25008KT 210V280 9999 OVC015 20/16 Q1021=
201609071050 METAR ESMX 071050Z 25010KT 9999 OVC016 20/16 Q1021=
201609071020 METAR ESMX 071020Z 24008KT 9999 FEW015 SCT018 OVC028 19/16 Q1021=
201609070950 METAR ESMX 070950Z 24008KT 220V280 9999 SCT012 OVC027 19/16 Q1021=
201609070920 METAR ESMX 070920Z 24008KT 210V280 9999 FEW010 BKN014 19/16 Q1021=
201609070850 METAR ESMX 070850Z 23011KT 9999 OVC011 18/15 Q1021=
201609070820 METAR ESMX 070820Z 23010KT 9999 OVC012 18/15 Q1021=
201609070750 METAR COR ESMX 070750Z 22011KT 190V250 9999 -DZ BKN012 BKN026 18/15 Q1021=
201609070720 METAR ESMX 070720Z 23010KT 9999 FEW030 18/15 Q1021=
201609070650 METAR ESMX 070650Z 21011KT 9999 FEW033 17/15 Q1021=
201609070620 METAR ESMX 070620Z 22010KT 9999 FEW014 BKN031 17/14 Q1021=
201609070550 METAR ESMX 070550Z 22010KT 9999 SCT031 16/14 Q1021=
201609070520 METAR ESMX 070520Z 23008KT 9999 FEW030 16/14 Q1021=
201609070450 METAR ESMX 070450Z 22008KT CAVOK 16/14 Q1021=
201609070420 METAR ESMX 070420Z 23008KT 9999 BKN020 15/13 Q1021=
201609070350 METAR ESMX 070350Z 22009KT 9999 BKN032 16/13 Q1022=
201609070320 METAR ESMX 070320Z AUTO 21009KT 9999 FEW026/// BKN030/// 16/13 Q1022=
201609070250 METAR ESMX 070250Z AUTO 23008KT 9999 OVC022/// 16/13 Q1022=
201609070220 METAR ESMX 070220Z AUTO 22008KT 9999 OVC021/// 16/13 Q1022=
201609070150 METAR ESMX 070150Z AUTO 21009KT 9999 OVC021/// 16/13 Q1022=
201609070120 METAR ESMX 070120Z AUTO 19008KT 9999 OVC024/// 15/13 Q1023=
201609070050 METAR ESMX 070050Z AUTO 18007KT 9999 OVC025/// 15/13 Q1023=
201609070020 METAR ESMX 070020Z AUTO 19007KT 9999 OVC021/// 14/12 Q1023=
201609062350 METAR ESMX 062350Z 19008KT 9999 BKN024 14/12 Q1023=
201609062320 METAR ESMX 062320Z 19008KT 9999 BKN029 14/12 Q1023=
201609062250 METAR ESMX 062250Z 20008KT 9999 SCT029 14/12 Q1023=
201609062220 METAR ESMX 062220Z 21009KT 9999 BKN025 14/12 Q1023=
201609062150 METAR ESMX 062150Z 20007KT CAVOK 13/11 Q1023=
201609062120 METAR ESMX 062120Z 19007KT CAVOK 13/11 Q1023=
201609062050 METAR ESMX 062050Z 20007KT CAVOK 14/11 Q1024=
201609062020 METAR ESMX 062020Z 19007KT CAVOK 14/11 Q1024=
201609061950 METAR ESMX 061950Z 19006KT CAVOK 14/11 Q1024=
201609061920 METAR ESMX 061920Z 22006KT CAVOK 14/11 Q1024=
201609061850 METAR ESMX 061850Z 22005KT CAVOK 15/11 Q1024=
201609061820 METAR ESMX 061820Z 24004KT CAVOK 15/11 Q1024=
201609061750 METAR ESMX 061750Z 24005KT CAVOK 16/11 Q1024=
201609061720 METAR ESMX 061720Z 23007KT CAVOK 18/11 Q1024=
201609061650 METAR ESMX 061650Z 24007KT CAVOK 19/10 Q1024=
201609061620 METAR ESMX 061620Z 25009KT 210V280 CAVOK 20/10 Q1024=
201609061550 METAR ESMX 061550Z 26009KT 240V300 CAVOK 20/09 Q1024=
201609061520 METAR ESMX 061520Z AUTO 25009KT 220V280 9999 NCD 21/10 Q1025=
201609061450 METAR ESMX 061450Z 25011KT 210V280 CAVOK 21/09 Q1025=
201609061420 METAR ESMX 061420Z 25010KT 220V290 CAVOK 21/10 Q1025=
201609061350 METAR ESMX 061350Z 25011KT 9999 FEW045 21/09 Q1025=
201609061320 METAR ESMX 061320Z 26010KT 9999 FEW045 22/10 Q1025=
201609061250 METAR ESMX 061250Z 23011KT 9999 FEW048 20/10 Q1025=
201609061220 METAR ESMX 061220Z 24009KT 210V270 CAVOK 22/10 Q1025=
201609061150 METAR ESMX 061150Z 23010KT 180V290 CAVOK 22/10 Q1025=
201609061120 METAR ESMX 061120Z 21008KT 180V250 CAVOK 21/09 Q1025=
201609061050 METAR ESMX 061050Z 23007KT 190V260 CAVOK 21/09 Q1025=
201609061020 METAR ESMX 061020Z 23009KT 200V270 CAVOK 20/08 Q1025=
201609060950 METAR ESMX 060950Z 25008KT 230V290 CAVOK 20/08 Q1026=
201609060920 METAR ESMX 060920Z 24008KT 200V270 CAVOK 19/10 Q1026=
201609060850 METAR ESMX 060850Z 22007KT 190V250 CAVOK 18/09 Q1026=
201609060820 METAR ESMX 060820Z 24004KT 210V290 CAVOK 17/10 Q1026=
201609060750 METAR ESMX 060750Z 24003KT 210V280 CAVOK 16/10 Q1026=
201609060720 METAR COR ESMX 060720Z VRB02KT CAVOK 14/10 Q1026=
201609060650 METAR ESMX 060650Z VRB02KT CAVOK 12/10 Q1026=
201609060620 METAR ESMX 060620Z 00000KT CAVOK 10/10 Q1026=
201609060550 METAR ESMX 060550Z VRB01KT 4900 NSC 09/09 Q1026=
201609060520 METAR ESMX 060520Z 20002KT 0450 R01/1500U R19/0650N FG BKN002 06/05 Q1025=
201609060450 METAR ESMX 060450Z 21002KT 0250 R01/0400N R19/P2000D FG VV001 04/04 Q1025=
201609060420 METAR ESMX 060420Z 18002KT 0550 R01/1300D R19/P2000N FG VV001 04/04 Q1025=
201609060350 METAR ESMX 060350Z 00000KT 0200 R01/0650N R19/0800N FG VV001 04/04 Q1025=
201609060320 METAR ESMX 060320Z AUTO 19001KT 0300 R01/0900N R19/1600D BCFG NCD 04/03 Q1025=
201609060250 METAR ESMX 060250Z AUTO 17002KT 0150 R01/0450N R19/P2000N BCFG FEW000/// 04/04 Q1025=
201609060220 METAR ESMX 060220Z AUTO 17002KT 0200 R01/0650N R19/1600N BCFG FEW000/// 05/05 Q1025=
201609060150 METAR ESMX 060150Z AUTO 18003KT 0150 R01/0400N R19/P2000N BCFG NCD 04/04 Q1025=
201609060120 METAR ESMX 060120Z AUTO VRB01KT 0250 R01/0800D R19/P2000N BCFG NCD 05/05 Q1024=
201609060050 METAR ESMX 060050Z AUTO 18001KT 0150 R01/0400N R19/P2000N BCFG NCD 05/05 Q1024=
201609060020 METAR ESMX 060020Z AUTO 00000KT 9999 NCD 06/05 Q1024=
201609052350 METAR ESMX 052350Z AUTO 18003KT 0600 R01/P2000N R19/P2000N BCFG NCD 06/05 Q1024=
201609052320 METAR ESMX 052320Z 00000KT CAVOK 07/06 Q1024=
201609052250 METAR ESMX 052250Z VRB02KT CAVOK 07/06 Q1023=
201609052220 METAR ESMX 052220Z 00000KT CAVOK 07/07 Q1023=
201609052150 METAR ESMX 052150Z 00000KT CAVOK 07/06 Q1023=
201609052120 METAR ESMX 052120Z VRB02KT CAVOK 08/06 Q1023=
201609052050 METAR ESMX 052050Z 09003KT CAVOK 09/07 Q1022=
201609052020 METAR ESMX 052020Z VRB01KT CAVOK 09/07 Q1022=
201609051950 METAR ESMX 051950Z 16002KT CAVOK 10/08 Q1022=
201609051920 METAR ESMX 051920Z 33002KT CAVOK 10/08 Q1022=
201609051850 METAR ESMX 051850Z 00000KT CAVOK 11/09 Q1022=
201609051820 METAR ESMX 051820Z VRB01KT CAVOK 13/09 Q1021=
201609051750 METAR ESMX 051750Z VRB03KT CAVOK 14/10 Q1021=
201609051720 METAR ESMX 051720Z 00000KT CAVOK 16/11 Q1020=
201609051650 METAR ESMX 051650Z 35002KT CAVOK 20/08 Q1020=
201609051620 METAR ESMX 051620Z VRB02KT CAVOK 20/08 Q1020=
201609051550 METAR ESMX 051550Z 32003KT CAVOK 20/08 Q1020=
201609051520 METAR ESMX 051520Z 34003KT 300V020 CAVOK 20/07 Q1019=
201609051450 METAR ESMX 051450Z 34004KT 320V030 CAVOK 20/08 Q1019=
201609051420 METAR ESMX 051420Z 36006KT CAVOK 20/08 Q1019=
201609051350 METAR ESMX 051350Z 03004KT 320V110 CAVOK 20/07 Q1019=
201609051320 METAR ESMX 051320Z 36007KT 9999 FEW045 20/08 Q1019=
201609051250 METAR ESMX 051250Z 02006KT 350V060 CAVOK 20/08 Q1018=
201609051220 METAR ESMX 051220Z 01006KT 330V070 CAVOK 19/08 Q1018=
201609051150 METAR ESMX 051150Z 35005KT 320V020 9999 NSC 19/08 Q1018=
201609051120 METAR ESMX 051120Z 35007KT 330V050 9999 FEW038 19/08 Q1017=
201609051050 METAR ESMX 051050Z 36008KT 9999 FEW038 18/08 Q1017=
201609051020 METAR ESMX 051020Z 02007KT 340V070 9999 FEW036 18/08 Q1017=
201609050950 METAR ESMX 050950Z 36008KT 300V020 CAVOK 17/08 Q1017=
201609050920 METAR ESMX 050920Z 36009KT 9999 FEW033 16/08 Q1017=
201609050850 METAR ESMX 050850Z 02009KT 9999 SCT032 16/08 Q1017=
201609050820 METAR ESMX 050820Z 36011KT 9999 FEW028 17/08 Q1017=
201609050750 METAR ESMX 050750Z 36008KT CAVOK 15/09 Q1016=
201609050720 METAR ESMX 050720Z 36008KT CAVOK 14/10 Q1016=
201609050650 METAR ESMX 050650Z 02007KT CAVOK 13/10 Q1015=
201609050620 METAR ESMX 050620Z 01005KT CAVOK 12/10 Q1015=
201609050550 METAR ESMX 050550Z 01004KT CAVOK 11/10 Q1015=
201609050520 METAR ESMX 050520Z 36005KT 9999 FEW003 10/09 Q1014=
201609050450 METAR ESMX 050450Z 36004KT 9999 MIFG NSC 09/08 Q1014=
201609050420 METAR ESMX 050420Z 01004KT 9999 MIFG NSC 10/09 Q1013=
201609050350 METAR ESMX 050350Z 02005KT 9999 MIFG NSC 10/10 Q1013=
201609050320 METAR ESMX 050320Z AUTO 03006KT 9999 NCD 10/09 Q1012=
201609050250 METAR ESMX 050250Z AUTO 03005KT 9999 NCD 10/10 Q1012=
201609050220 METAR ESMX 050220Z AUTO 02006KT 9999 NCD 10/09 Q1012=
201609050150 METAR ESMX 050150Z AUTO 03006KT 9999 NCD 11/09 Q1011=
201609050120 METAR ESMX 050120Z AUTO 04005KT 9999 NCD 10/09 Q1011=
201609050050 METAR ESMX 050050Z AUTO 03005KT 9999 FEW041/// 11/09 Q1011=
201609050020 METAR ESMX 050020Z AUTO 02006KT 9999 NCD 11/09 Q1011=
201609042350 METAR ESMX 042350Z AUTO 02004KT 9999 NCD 10/09 Q1010=
201609042320 METAR ESMX 042320Z 01005KT CAVOK 10/09 Q1010=
201609042250 METAR ESMX 042250Z 03004KT CAVOK 12/09 Q1010=
201609042220 METAR ESMX 042220Z 02005KT CAVOK 12/09 Q1009=
201609042150 METAR ESMX 042150Z 01004KT CAVOK 13/09 Q1009=
201609042120 METAR ESMX 042120Z 02006KT CAVOK 13/09 Q1009=
201609042050 METAR ESMX 042050Z 02007KT CAVOK 14/09 Q1009=
201609042020 METAR ESMX 042020Z 01008KT CAVOK 14/09 Q1008=
201609041950 METAR ESMX 041950Z 01007KT CAVOK 15/09 Q1008=
201609041920 METAR ESMX 041920Z 01002KT CAVOK 11/09 Q1008=
201609041850 METAR ESMX 041850Z 00000KT CAVOK 11/08 Q1008=
201609041820 METAR ESMX 041820Z 00000KT CAVOK 12/09 Q1008=
201609041750 METAR ESMX 041750Z 00000KT CAVOK 14/10 Q1007=
201609041720 METAR ESMX 041720Z 36002KT CAVOK 16/10 Q1007=
201609041650 METAR ESMX 041650Z AUTO 35003KT 9999 NCD 18/09 Q1007=
201609041620 METAR ESMX 041620Z AUTO VRB03KT 9999 NCD 19/07 Q1007=
201609041550 METAR ESMX 041550Z VRB03KT CAVOK 19/07 Q1007=
201609041520 METAR ESMX 041520Z 04004KT 340V110 CAVOK 19/07 Q1007=
201609041450 METAR ESMX 041450Z VRB02KT CAVOK 19/07 Q1007=
201609041420 METAR ESMX 041420Z 04004KT 350V080 CAVOK 19/09 Q1008=
201609041350 METAR ESMX 041350Z 36005KT 250V040 CAVOK 19/08 Q1008=
201609041320 METAR ESMX 041320Z VRB03KT CAVOK 19/08 Q1008=
201609041250 METAR ESMX 041250Z VRB04KT CAVOK 19/08 Q1008=
201609041220 METAR ESMX 041220Z VRB01KT CAVOK 18/09 Q1008=
201609041150 METAR ESMX 041150Z 03005KT 360V100 9999 FEW048 SCT057 17/09 Q1008=
201609041120 METAR ESMX 041120Z 02004KT 340V090 9999 FEW037 18/09 Q1008=
201609041050 METAR ESMX 041050Z VRB04KT CAVOK 17/10 Q1008=
201609041020 METAR ESMX 041020Z 34005KT 250V020 9999 FEW026 16/09 Q1008=
201609040950 METAR ESMX 040950Z AUTO 25004KT 210V280 9999 NCD 17/10 Q1008=
201609040920 METAR ESMX 040920Z AUTO 32005KT 280V030 9999 NCD 16/10 Q1009=
201609040850 METAR ESMX 040850Z AUTO VRB04KT 9999 FEW010/// 15/11 Q1009=
201609040820 METAR ESMX 040820Z AUTO 30005KT 230V350 9999 FEW006/// BKN007/// 13/11 Q1009=
201609040750 METAR ESMX 040750Z AUTO 30005KT 9999 BKN005/// 13/11 Q1009=
201609040720 METAR ESMX 040720Z AUTO 29004KT 240V350 9999 BKN002/// BKN005/// 13/13 Q1009=
201609040650 METAR ESMX 040650Z AUTO 25004KT 210V280 9999 OVC001/// 12/12 Q1009=
201609040620 METAR ESMX 040620Z AUTO 21005KT 0350 R01/0600N R19/1100U FG VV002 12/11 Q1009=
201609040550 METAR ESMX 040550Z AUTO 23004KT 0450 R01/0900D R19/0700N FG VV001 11/11 Q1009=
201609040520 METAR ESMX 040520Z AUTO 23004KT 0500 R01/1800N R19/0650N VV001 11/10 Q1009=
201609040450 METAR ESMX 040450Z AUTO 22006KT 0400 R01/P2000N R19/1600D BR VV000 09/09 Q1009=
201609040420 METAR ESMX 040420Z AUTO 19005KT 0300 R01/P2000N R19/0650N BR FEW001/// 09/09 Q1009=
201609040350 METAR ESMX 040350Z AUTO 21005KT 1800 FEW001/// 10/10 Q1009=
201609040320 METAR ESMX 040320Z AUTO 23006KT 0550 R01/P2000N R19/P2000D BR FEW002/// 10/10 Q1009=
201609040250 METAR ESMX 040250Z AUTO 22006KT 9999 NCD 10/10 Q1009=
201609040220 METAR ESMX 040220Z AUTO 23005KT 0650 R01/P2000N R19/P2000N NCD 10/10 Q1009=
201609040150 METAR ESMX 040150Z AUTO 23005KT 9999 NCD 10/10 Q1009=
201609040120 METAR ESMX 040120Z AUTO 22004KT 9999 NCD 11/11 Q1009=
201609040050 METAR ESMX 040050Z AUTO 22005KT 9999 NCD 11/11 Q1010=
201609040020 METAR ESMX 040020Z AUTO 21004KT 9999 NCD 11/11 Q1010=
201609032350 METAR ESMX 032350Z AUTO 22004KT 9999 NCD 11/11 Q1010=
201609032320 METAR ESMX 032320Z AUTO 22004KT 9999 NCD 12/11 Q1010=
201609032250 METAR ESMX 032250Z AUTO 23004KT 9999 NCD 12/11 Q1010=
201609032220 METAR ESMX 032220Z AUTO 24004KT 9999 NCD 12/11 Q1010=
201609032150 METAR ESMX 032150Z AUTO 23003KT 9999 NCD 13/12 Q1010=
201609032120 METAR ESMX 032120Z AUTO 22004KT 9999 NCD 12/11 Q1010=
201609032050 METAR ESMX 032050Z AUTO 21005KT 9999 NCD 13/12 Q1010=
201609032020 METAR ESMX 032020Z AUTO 21006KT 9999 NCD 13/12 Q1010=
201609031950 METAR ESMX 031950Z AUTO 23006KT 9999 NCD 13/12 Q1010=
201609031920 METAR ESMX 031920Z AUTO 22007KT 9999 NCD 13/12 Q1010=
201609031850 METAR ESMX 031850Z AUTO 22007KT 9999 NCD 13/11 Q1010=
201609031820 METAR ESMX 031820Z AUTO 23006KT 9999 NCD 13/11 Q1010=
201609031750 METAR ESMX 031750Z AUTO 22008KT 9999 NCD 14/11 Q1010=
201609031720 METAR ESMX 031720Z AUTO 22007KT 9999 NCD 15/11 Q1010=
201609031650 METAR ESMX 031650Z AUTO 23009KT 9999 NCD 15/10 Q1010=
201609031620 METAR ESMX 031620Z AUTO 24012KT 9999 FEW093/// 16/10 Q1010=
201609031550 METAR ESMX 031550Z AUTO 24012KT 9999 FEW078/// 17/11 Q1010=
201609031520 METAR ESMX 031520Z AUTO 24013KT 210V280 9999 FEW067/// 17/11 Q1010=
201609031450 METAR ESMX 031450Z 25011KT 220V280 9999 FEW022 SCT027 17/11 Q1010=
201609031420 METAR ESMX 031420Z 24010KT 210V280 9999 FEW025 SCT033 BKN066 17/12 Q1010=
201609031350 METAR ESMX 031350Z 24012KT 210V280 9999 FEW026 SCT067 17/11 Q1010=
201609031320 METAR COR ESMX 031320Z 26011KT 230V290 9999 FEW027 BKN065 18/11 Q1010=
201609031250 METAR ESMX 031250Z 25012KT 9999 FEW025 BKN045 17/11 Q1010=
201609031220 METAR ESMX 031220Z 22013KT 190V250 9999 FEW026 SCT029 BKN038 17/11 Q1010=
201609031150 METAR ESMX 031150Z 24013KT 9999 SCT023 BKN070 19/12 Q1010=
201609031120 METAR ESMX 031120Z 24014KT 9999 -SHRA FEW029 SCT035 BKN040 17/12 Q1010=
201609031050 METAR ESMX 031050Z AUTO 24011KT 210V280 9999 FEW024/// SCT040/// BKN059/// 18/12 Q1010=
201609031020 METAR ESMX 031020Z AUTO 23012KT 9999 FEW020/// SCT025/// BKN034/// 18/12 Q1010=
201609030950 METAR ESMX 030950Z AUTO 24011KT 210V280 9999 FEW021/// SCT036/// BKN068/// 17/12 Q1010 REDZ=
201609030920 METAR ESMX 030920Z AUTO 26012KT 230V290 9999 FEW018/// SCT023/// BKN029/// 17/12 Q1010=
201609030850 METAR ESMX 030850Z AUTO 23010KT 9999 FEW014/// SCT020/// BKN036/// 16/12 Q1010=
201609030820 METAR ESMX 030820Z AUTO 24009KT 9999 FEW014/// SCT020/// BKN047/// 16/13 Q1010=
201609030750 METAR ESMX 030750Z AUTO 23010KT 9999 FEW012/// SCT015/// BKN021/// 16/13 Q1010=
201609030720 METAR ESMX 030720Z AUTO 22009KT 9999 FEW011/// SCT014/// BKN052/// 16/13 Q1010=
201609030650 METAR ESMX 030650Z AUTO 23009KT 9999 FEW010/// SCT018/// BKN044/// 16/14 Q1010=
201609030620 METAR ESMX 030620Z AUTO 21009KT 150V230 9999 FEW005/// SCT009/// BKN010/// 15/14 Q1010=
201609030550 METAR ESMX 030550Z AUTO 20009KT 9999 FEW005/// BKN006/// OVC009/// 15/14 Q1010=
201609030520 METAR ESMX 030520Z AUTO 20009KT 9999 OVC006/// 15/14 Q1010=
201609030450 METAR ESMX 030450Z AUTO 19008KT 9999 FEW007/// SCT008/// BKN011/// 15/14 Q1010=
201609030420 METAR ESMX 030420Z AUTO 20010KT 9999 BKN006/// OVC009/// 15/14 Q1010=
201609030350 METAR ESMX 030350Z AUTO 21009KT 9999 BKN006/// OVC008/// 15/14 Q1011=
201609030320 METAR ESMX 030320Z AUTO 21009KT 9999 OVC005/// 15/14 Q1011=
201609030250 METAR ESMX 030250Z AUTO 22008KT 190V250 9999 OVC004/// 15/14 Q1011=
201609030220 METAR ESMX 030220Z AUTO 21008KT 9999 OVC005/// 15/14 Q1011=
201609030150 METAR ESMX 030150Z AUTO 20009KT 9000 BR OVC004/// 15/14 Q1012=
201609030120 METAR ESMX 030120Z AUTO 19008KT 9999 FEW005/// SCT006/// BKN008/// 14/14 Q1012=
201609030050 METAR ESMX 030050Z AUTO 19008KT 9999 FEW004/// SCT006/// BKN010/// 14/14 Q1012=
201609030020 METAR ESMX 030020Z AUTO 19008KT 6000 BR FEW004/// SCT006/// BKN009/// 14/14 Q1012 REDZ=
201609022350 METAR ESMX 022350Z AUTO 19008KT 9999 FEW003/// OVC007/// 14/13 Q1013=
201609022320 METAR ESMX 022320Z AUTO 19009KT 9000 BR FEW004/// SCT007/// BKN023/// 14/13 Q1013 REDZ=
201609022250 METAR ESMX 022250Z AUTO 21008KT 9999 OVC004/// 14/13 Q1013=
201609022220 METAR ESMX 022220Z AUTO 20007KT 9999 FEW009/// OVC044/// 14/13 Q1013=
201609022150 METAR ESMX 022150Z AUTO 20008KT 9999 FEW022/// BKN044/// 14/13 Q1014=
201609022120 METAR ESMX 022120Z AUTO 19009KT 9999 BKN047/// BKN071/// 14/13 Q1014=
201609022050 METAR ESMX 022050Z AUTO 20009KT 9999 -DZ FEW015/// SCT047/// 14/13 Q1014=
201609022020 METAR ESMX 022020Z AUTO 20010KT 9999 FEW013/// SCT021/// BKN034/// 15/13 Q1014=
201609021950 METAR ESMX 021950Z AUTO 20010KT 9999 DZ BKN016/// BKN023/// 15/13 Q1014 REDZ=
201609021920 METAR ESMX 021920Z 17006KT 9999 FEW016 BKN026 OVC044 16/11 Q1014=
201609021850 METAR ESMX 021850Z 18007KT 9999 OVC028 16/10 Q1014=
201609021820 METAR ESMX 021820Z 18005KT 9999 OVC028 16/10 Q1014=
201609021750 METAR ESMX 021750Z 19004KT 9999 FEW028 BKN034 OVC042 16/10 Q1014=
201609021720 METAR ESMX 021720Z 21004KT 9999 BKN028 OVC050 16/10 Q1014=
201609021650 METAR ESMX 021650Z 21007KT 9999 FEW031 SCT035 BKN041 17/10 Q1015=
201609021620 METAR ESMX 021620Z 23009KT 9999 FEW039 OVC046 17/10 Q1015=
201609021550 METAR ESMX 021550Z 24006KT 9999 BKN039 17/10 Q1015=
201609021520 METAR COR ESMX 021520Z 23008KT 9999 BKN041 18/10 Q1015=
201609021450 METAR ESMX 021450Z 24010KT 190V270 9999 BKN049 18/10 Q1015=
201609021420 METAR ESMX 021420Z 24011KT 210V280 9999 FEW030 19/09 Q1015=
201609021350 METAR ESMX 021350Z 25009KT 200V290 9999 FEW040 SCT100 19/10 Q1015=
201609021320 METAR ESMX 021320Z 24011KT 210V280 9999 SCT037 BKN050 18/09 Q1015=
201609021250 METAR ESMX 021250Z 23014KT 200V260 9999 FEW039 SCT045 20/09 Q1015=
201609021220 METAR ESMX 021220Z 23012KT 9999 FEW041 SCT085 19/09 Q1015=
201609021150 METAR ESMX 021150Z 24012KT 220V290 9999 SCT039 19/08 Q1015=
201609021120 METAR ESMX 021120Z 24012KT 9999 SCT035 BKN045 18/09 Q1015=
201609021050 METAR ESMX 021050Z 25012KT 210V280 9999 FEW037 SCT041 19/10 Q1015=
201609021020 METAR ESMX 021020Z 25011KT 200V290 9999 FEW029 SCT036 17/10 Q1016=
201609020950 METAR ESMX 020950Z 24010KT 210V290 9999 FEW035 BKN039 16/11 Q1016=
201609020920 METAR ESMX 020920Z 28011KT 9999 FEW023 SCT031 BKN036 17/10 Q1016=
201609020850 METAR ESMX 020850Z 26008KT 220V290 9999 FEW019 SCT021 BKN029 16/11 Q1015=
201609020820 METAR ESMX 020820Z 26008KT 9999 FEW016 BKN020 BKN034 15/11 Q1015=
201609020750 METAR ESMX 020750Z 26008KT 200V300 9999 SCT014 BKN018 15/12 Q1015=
201609020720 METAR ESMX 020720Z 26009KT 9999 FEW011 SCT014 14/11 Q1015=
201609020650 METAR ESMX 020650Z 24008KT 9999 SCT012 14/11 Q1015=
201609020620 METAR ESMX 020620Z 23007KT 9999 FEW012 13/12 Q1015=
201609020550 METAR ESMX 020550Z 22008KT 9999 FEW016 13/12 Q1015=
201609020520 METAR ESMX 020520Z 21007KT 9999 BKN040 12/11 Q1015=
201609020450 METAR ESMX 020450Z 22006KT 9999 BKN039 12/11 Q1015=
201609020420 METAR ESMX 020420Z 22006KT 9999 BKN038 11/11 Q1015=
201609020350 METAR ESMX 020350Z 21006KT 9999 SCT043 10/10 Q1015=
201609020320 METAR ESMX 020320Z AUTO 22005KT 9999 NCD 10/10 Q1015=
201609020250 METAR ESMX 020250Z AUTO 22005KT 9999 FEW049/// 11/10 Q1015=
201609020220 METAR ESMX 020220Z AUTO 22005KT 8000 NCD 10/09 Q1015=
201609020150 METAR ESMX 020150Z AUTO 18006KT 9000 NCD 10/09 Q1015=
201609020120 METAR ESMX 020120Z AUTO 18005KT 9999 NCD 11/10 Q1015=
201609020050 METAR ESMX 020050Z 20005KT CAVOK 10/10 Q1015=
201609020020 METAR ESMX 020020Z 20005KT 9999 FEW019 11/10 Q1015=
201609012350 METAR ESMX 012350Z 22005KT CAVOK 11/10 Q1015=
201609012320 METAR ESMX 012320Z 21005KT CAVOK 11/10 Q1015=
201609012250 METAR ESMX 012250Z 22005KT CAVOK 11/10 Q1015=
201609012220 METAR ESMX 012220Z 22006KT CAVOK 11/10 Q1016=
201609012150 METAR ESMX 012150Z 22005KT CAVOK 11/10 Q1016=
201609012120 METAR ESMX 012120Z 22005KT CAVOK 12/11 Q1016=
201609012050 METAR ESMX 012050Z 23005KT CAVOK 12/10 Q1016=
201609012020 METAR ESMX 012020Z 23006KT CAVOK 12/10 Q1016=
201609011950 METAR ESMX 011950Z 23006KT 9999 FEW048 13/10 Q1016=
201609011920 METAR ESMX 011920Z 22006KT CAVOK 13/10 Q1016=
201609011850 METAR ESMX 011850Z 22006KT CAVOK 13/10 Q1016=
201609011820 METAR ESMX 011820Z 21005KT CAVOK 14/10 Q1015=
201609011750 METAR ESMX 011750Z 23006KT 9999 FEW057 15/10 Q1015=
201609011720 METAR ESMX 011720Z 24009KT 210V280 9999 FEW036 SCT057 17/10 Q1015=
201609011650 METAR ESMX 011650Z 25008KT 9999 FEW039 17/10 Q1015=
201609011620 METAR ESMX 011620Z 25008KT 210V280 9999 FEW039 18/09 Q1015=
201609011550 METAR ESMX 011550Z 26010KT 9999 FEW038 18/10 Q1015=
201609011520 METAR ESMX 011520Z 25009KT 210V280 9999 NSC 18/10 Q1015=
201609011450 METAR ESMX 011450Z 25013KT 230V290 9999 FEW042 18/09 Q1015=
201609011420 METAR ESMX 011420Z 27010KT 9999 FEW042 20/11 Q1015=
201609011350 METAR ESMX 011350Z 26010KT 220V280 9999 FEW035 SCT042 19/10 Q1015=
201609011320 METAR ESMX 011320Z 26011KT 220V290 9999 FEW036 SCT049 19/10 Q1015=
201609011250 METAR ESMX 011250Z 26011KT 210V290 9999 SCT033 BKN055 20/11 Q1015=
201609011220 METAR ESMX 011220Z 26011KT 9999 FEW033 SCT040 BKN055 19/10 Q1016=
