##########################################################
# Query made at 04/19/2024 21:50:01 UTC
# Time interval: from 02/01/2016 12:00  to 02/29/2016 12:59  UTC
##########################################################

##########################################################
# ESMX, Vaxjo (Sweden)
# WMO index: 02641. WIGOS ID: 0-20000-0-02648
# Latitude 56-51N. Longitude 014-50E. Altitude 199 m.
##########################################################

201602291250 METAR ESMX 291250Z 35005KT 9999 FEW040 05/M04 Q1027=
201602291220 METAR ESMX 291220Z 36003KT 310V080 9999 FEW040 05/M04 Q1027=
201602291150 METAR ESMX 291150Z 32003KT 280V020 9999 FEW040 05/M03 Q1027=
201602291120 METAR ESMX 291120Z VRB03KT CAVOK 04/M03 Q1028=
201602291050 METAR ESMX 291050Z 00000KT CAVOK 03/M03 Q1028=
201602291020 METAR ESMX 291020Z VRB01KT CAVOK 01/M03 Q1028=
201602290950 METAR ESMX 290950Z 02003KT 340V050 CAVOK M00/M03 Q1028=
201602290920 METAR ESMX 290920Z 02005KT CAVOK M02/M03 Q1028=
201602290850 METAR ESMX 290850Z 35004KT CAVOK M02/M04 Q1028=
201602290820 METAR ESMX 290820Z 00000KT CAVOK M04/M05 Q1028=
201602290750 METAR ESMX 290750Z 00000KT CAVOK M04/M05 Q1028=
201602290720 METAR ESMX 290720Z 00000KT CAVOK M07/M08 Q1027=
201602290650 METAR ESMX 290650Z 00000KT CAVOK M08/M08 Q1027=
201602290620 METAR ESMX 290620Z 00000KT CAVOK M08/M09 Q1027=
201602290550 METAR ESMX 290550Z 00000KT CAVOK M09/M10 Q1026=
201602290520 METAR ESMX 290520Z 00000KT CAVOK M08/M09 Q1026=
201602290450 METAR ESMX 290450Z 23002KT CAVOK M08/M08 Q1026=
201602290420 METAR ESMX 290420Z AUTO 00000KT 9999 NCD M09/M10 Q1026=
201602290350 METAR ESMX 290350Z AUTO 00000KT 9999 NCD M08/M09 Q1026=
201602290320 METAR ESMX 290320Z AUTO 00000KT 6000 BR NCD M06/M07 Q1026=
201602290250 METAR ESMX 290250Z AUTO 00000KT 9999 NCD M07/M08 Q1025=
201602290220 METAR ESMX 290220Z AUTO 00000KT 9999 NCD M06/M07 Q1025=
201602290150 METAR ESMX 290150Z AUTO 00000KT 9999 NCD M05/M06 Q1025=
201602290120 METAR ESMX 290120Z AUTO 00000KT 9999 NCD M06/M07 Q1025=
201602290050 METAR ESMX 290050Z AUTO 26002KT 9999 NCD M07/M07 Q1025=
201602290020 METAR ESMX 290020Z 00000KT CAVOK M07/M07 Q1025=
201602282350 METAR ESMX 282350Z 00000KT CAVOK M05/M06 Q1024=
201602282320 METAR ESMX 282320Z 00000KT CAVOK M05/M06 Q1024=
201602282250 METAR ESMX 282250Z 00000KT CAVOK M04/M05 Q1024=
201602282220 METAR ESMX 282220Z 00000KT CAVOK M03/M04 Q1024=
201602282150 METAR ESMX 282150Z 00000KT 9999 FEW018 M04/M05 Q1023=
201602282120 METAR ESMX 282120Z 00000KT CAVOK M03/M04 Q1023=
201602282050 METAR ESMX 282050Z 26003KT CAVOK M03/M05 Q1023=
201602282020 METAR ESMX 282020Z 25004KT CAVOK M04/M05 Q1023=
201602281950 METAR ESMX 281950Z 24004KT CAVOK M02/M05 Q1022=
201602281920 METAR ESMX 281920Z 25004KT CAVOK M03/M05 Q1022=
201602281850 METAR ESMX 281850Z 25004KT CAVOK M03/M05 Q1022=
201602281820 METAR ESMX 281820Z 24004KT CAVOK M02/M05 Q1022=
201602281750 METAR ESMX 281750Z 24004KT CAVOK M02/M05 Q1021=
201602281720 METAR ESMX 281720Z 24004KT CAVOK M02/M05 Q1021=
201602281650 METAR ESMX 281650Z 25004KT CAVOK M00/M05 Q1021=
201602281620 METAR ESMX 281620Z 25004KT CAVOK 01/M05 Q1020=
201602281550 METAR ESMX 281550Z 27005KT CAVOK 02/M05 Q1020=
201602281520 METAR ESMX 281520Z 28005KT 9999 FEW030 02/M04 Q1020=
201602281450 METAR ESMX 281450Z 27006KT 9999 SCT030 02/M05 Q1019=
201602281420 METAR ESMX 281420Z 31008KT 9999 BKN030 02/M05 Q1019=
201602281350 METAR ESMX 281350Z 28006KT 9999 BKN030 02/M05 Q1019=
201602281320 METAR ESMX 281320Z 30008KT 9999 BKN028 02/M05 Q1019=
201602281250 METAR ESMX 281250Z 30007KT 270V340 9999 BKN025 02/M04 Q1019=
201602281220 METAR ESMX 281220Z 26007KT 230V310 9999 OVC025 02/M04 Q1019=
201602281150 METAR ESMX 281150Z 27007KT 9999 FEW020 BKN025 02/M03 Q1019=
201602281120 METAR ESMX 281120Z AUTO 29005KT 250V320 9999 OVC021/// 02/M03 Q1019=
201602281050 METAR ESMX 281050Z AUTO 26007KT 220V330 9999 FEW019/// OVC022/// 01/M03 Q1019=
201602281020 METAR ESMX 281020Z AUTO 28005KT 250V310 9999 FEW023/// OVC027/// 01/M02 Q1018=
201602280950 METAR ESMX 280950Z AUTO 25005KT 9999 OVC027/// 00/M01 Q1018=
201602280920 METAR ESMX 280920Z AUTO 22005KT 9999 FEW006/// OVC028/// M00/M01 Q1018=
201602280850 METAR ESMX 280850Z AUTO 21004KT 9999 OVC027/// M00/M01 Q1018=
201602280820 METAR ESMX 280820Z AUTO 20005KT 9999 OVC029/// M01/M01 Q1018=
201602280750 METAR ESMX 280750Z AUTO 19005KT 9999 OVC029/// M01/M02 Q1018=
201602280720 METAR ESMX 280720Z 17004KT 150V210 9999 OVC028 M01/M02 Q1017=
201602280650 METAR ESMX 280650Z 00000KT 9999 BKN027 M02/M02 Q1017=
201602280620 METAR ESMX 280620Z 00000KT 9999 BKN025 M02/M02 Q1017=
201602280550 METAR ESMX 280550Z 00000KT 9999 FEW018 BKN020 M02/M02 Q1016=
201602280520 METAR ESMX 280520Z AUTO 19003KT 160V230 9999 OVC018/// M02/M02 Q1016=
201602280450 METAR ESMX 280450Z AUTO VRB02KT 9999 OVC017/// M02/M02 Q1016=
201602280420 METAR ESMX 280420Z AUTO 16002KT 9999 FEW011/// OVC015/// M02/M02 Q1016=
201602280350 METAR ESMX 280350Z AUTO 18004KT 9999 FEW008/// OVC012/// M02/M02 Q1016=
201602280320 METAR ESMX 280320Z AUTO 23003KT 9999 FEW004/// SCT005/// OVC008/// M02/M02 Q1016=
201602280250 METAR ESMX 280250Z AUTO VRB02KT 9999 SCT002/// OVC004/// M02/M03 Q1016=
201602280220 METAR ESMX 280220Z AUTO 28004KT 230V330 6000 OVC001/// M02/M03 Q1016=
201602280150 METAR ESMX 280150Z AUTO 29005KT 2000 OVC001/// M02/M03 Q1016=
201602280120 METAR ESMX 280120Z AUTO 27005KT 8000 BR OVC001/// M02/M03 Q1016=
201602280050 METAR ESMX 280050Z AUTO 24005KT 210V280 9999 SCT001/// OVC003/// M03/M03 Q1016=
201602280020 METAR ESMX 280020Z AUTO 14003KT 9999 OVC003/// M04/M05 Q1016=
201602272350 METAR ESMX 272350Z AUTO 00000KT 9999 SCT004/// BKN031/// M05/M05 Q1016=
201602272320 METAR ESMX 272320Z AUTO 21003KT 9999 BKN031/// M04/M05 Q1016=
201602272250 METAR ESMX 272250Z AUTO 20002KT 7000 NCD M04/M05 Q1015=
201602272220 METAR ESMX 272220Z AUTO 23002KT 9999 NCD M04/M04 Q1015=
201602272150 METAR ESMX 272150Z AUTO 21003KT 9999 NCD M03/M03 Q1015=
201602272120 METAR ESMX 272120Z AUTO 22004KT 9999 NCD M03/M04 Q1015=
201602272050 METAR ESMX 272050Z 23003KT CAVOK M03/M03 Q1015=
201602272020 METAR ESMX 272020Z 22004KT CAVOK M02/M03 Q1015=
201602271950 METAR ESMX 271950Z 23005KT CAVOK M02/M03 Q1015=
201602271920 METAR ESMX 271920Z 23005KT CAVOK M02/M03 Q1014=
201602271850 METAR ESMX 271850Z 22006KT CAVOK M01/M03 Q1014=
201602271820 METAR ESMX 271820Z AUTO 22006KT 9999 NCD M02/M04 Q1014=
201602271750 METAR ESMX 271750Z AUTO 23004KT 9999 NCD M01/M04 Q1014=
201602271720 METAR ESMX 271720Z AUTO 23005KT 9999 NCD M00/M04 Q1013=
201602271650 METAR ESMX 271650Z AUTO 23005KT 9999 NCD 00/M04 Q1013=
201602271620 METAR ESMX 271620Z AUTO 24007KT 9999 NCD 02/M03 Q1013=
201602271550 METAR ESMX 271550Z AUTO 24007KT 9999 NCD 02/M03 Q1013=
201602271520 METAR ESMX 271520Z AUTO 23004KT 9999 FEW045/// 03/M03 Q1013=
201602271450 METAR ESMX 271450Z AUTO 22011KT 9999 FEW031/// SCT043/// 04/M03 Q1013=
201602271420 METAR ESMX 271420Z AUTO 22010KT 200V260 9999 FEW029/// SCT035/// BKN039/// 04/M03 Q1013=
201602271350 METAR ESMX 271350Z AUTO 21010KT 9999 FEW027/// SCT034/// BKN040/// 03/M03 Q1013=
201602271320 METAR ESMX 271320Z AUTO 21011KT 9999 BKN029/// BKN040/// 03/M02 Q1012=
201602271250 METAR ESMX 271250Z AUTO 23012KT 9999 BKN026/// 04/M02 Q1012=
201602271220 METAR ESMX 271220Z AUTO 22011KT 9999 FEW029/// SCT033/// BKN038/// 03/M03 Q1012=
201602271150 METAR ESMX 271150Z AUTO 21010KT 9999 FEW022/// SCT035/// 03/M02 Q1012=
201602271120 METAR ESMX 271120Z AUTO 23008KT 200V260 9999 BKN029/// 02/M02 Q1012=
201602271050 METAR ESMX 271050Z AUTO 23010KT 200V280 9999 FEW016/// SCT020/// BKN024/// 02/M02 Q1012=
201602271020 METAR ESMX 271020Z AUTO 23010KT 200V260 9999 FEW015/// SCT018/// BKN020/// 03/M01 Q1012=
201602270950 METAR ESMX 270950Z AUTO 23009KT 180V250 9999 FEW012/// SCT018/// OVC024/// 02/M01 Q1012 REUP=
201602270920 METAR ESMX 270920Z AUTO 24010KT 9999 FEW008/// SCT014/// BKN022/// 01/M01 Q1012=
201602270850 METAR ESMX 270850Z AUTO 21010KT 9999 FEW007/// BKN025/// 01/M00 Q1012=
201602270820 METAR ESMX 270820Z AUTO 22009KT 9999 FEW004/// SCT006/// BKN027/// 00/M01 Q1011=
201602270750 METAR ESMX 270750Z AUTO 22008KT 9999 BKN002/// OVC005/// M00/M01 Q1011=
201602270720 METAR ESMX 270720Z AUTO 21008KT 9999 OVC001/// M01/M01 Q1011=
201602270650 METAR ESMX 270650Z AUTO 21008KT 4200 BR OVC001/// M01/M02 Q1011=
201602270620 METAR ESMX 270620Z AUTO 20008KT 1100 R01/P2000D R19/P2000N BR OVC001/// M02/M02 Q1010=
201602270550 METAR ESMX 270550Z AUTO 22009KT 7000 BR BKN001/// BKN028/// M02/M03 Q1010=
201602270520 METAR ESMX 270520Z AUTO 19007KT 9999 FEW003/// BKN030/// M03/M03 Q1010=
201602270450 METAR ESMX 270450Z AUTO 19007KT 9999 SCT029/// M03/M04 Q1010=
201602270420 METAR ESMX 270420Z AUTO 19007KT 9999 FEW028/// M04/M04 Q1009=
201602270350 METAR ESMX 270350Z AUTO 21006KT 9999 NCD M03/M04 Q1009=
201602270320 METAR ESMX 270320Z AUTO 21006KT 9999 FEW025/// M03/M04 Q1009=
201602270250 METAR ESMX 270250Z AUTO 21007KT 9999 NCD M03/M04 Q1009=
201602270220 METAR ESMX 270220Z AUTO 22006KT 9999 NCD M03/M04 Q1009=
201602270150 METAR ESMX 270150Z AUTO 20006KT 9999 FEW022/// M03/M04 Q1009=
201602270120 METAR ESMX 270120Z AUTO 21006KT 9999 NCD M03/M04 Q1009=
201602270050 METAR ESMX 270050Z AUTO 21005KT 9999 NCD M04/M05 Q1009=
201602270020 METAR ESMX 270020Z AUTO 21005KT 9999 NCD M04/M05 Q1009=
201602262350 METAR ESMX 262350Z AUTO 18005KT 9999 NCD M03/M04 Q1009=
201602262320 METAR ESMX 262320Z AUTO 22005KT 9999 NCD M04/M04 Q1008=
201602262250 METAR ESMX 262250Z AUTO 22004KT 9999 NCD M03/M04 Q1008=
201602262220 METAR ESMX 262220Z AUTO 19005KT 9999 NCD M03/M04 Q1008=
201602262150 METAR ESMX 262150Z AUTO 22005KT 9999 NCD M02/M03 Q1008=
201602262120 METAR ESMX 262120Z AUTO 24005KT 9999 NCD M02/M03 Q1008=
201602262050 METAR ESMX 262050Z 24005KT CAVOK M02/M03 Q1007=
201602262020 METAR ESMX 262020Z 24005KT CAVOK M01/M02 Q1007=
201602261950 METAR ESMX 261950Z 24007KT CAVOK M01/M03 Q1007=
201602261920 METAR ESMX 261920Z 22006KT CAVOK M01/M03 Q1007=
201602261850 METAR ESMX 261850Z 23006KT CAVOK M01/M03 Q1007=
201602261820 METAR ESMX 261820Z 23006KT CAVOK M01/M03 Q1007=
201602261750 METAR ESMX 261750Z 23006KT CAVOK M00/M03 Q1006=
201602261720 METAR ESMX 261720Z 23007KT CAVOK 00/M03 Q1006=
201602261650 METAR ESMX 261650Z 22007KT CAVOK 01/M02 Q1006=
201602261620 METAR ESMX 261620Z 21008KT CAVOK 01/M02 Q1006=
201602261550 METAR ESMX 261550Z 23008KT CAVOK 02/M02 Q1006=
201602261520 METAR ESMX 261520Z 24009KT CAVOK 03/M03 Q1005=
201602261450 METAR ESMX 261450Z 24010KT CAVOK 03/M03 Q1005=
201602261420 METAR ESMX 261420Z 24010KT CAVOK 03/M03 Q1005=
201602261350 METAR ESMX 261350Z 24011KT CAVOK 04/M02 Q1005=
201602261320 METAR ESMX 261320Z 23010KT 190V250 9999 FEW026 04/M02 Q1005=
201602261250 METAR ESMX 261250Z 22011KT 9999 FEW025 04/M02 Q1005=
201602261220 METAR ESMX 261220Z 23010KT 9999 FEW023 04/M02 Q1005=
201602261150 METAR ESMX 261150Z 23010KT 9999 FEW022 03/M02 Q1005=
201602261120 METAR ESMX 261120Z 24010KT 9999 SCT019 03/M02 Q1005=
201602261050 METAR ESMX 261050Z 23009KT 9999 FEW017 SCT019 03/M02 Q1005=
201602261020 METAR ESMX 261020Z 23008KT 190V290 9999 FEW016 SCT018 02/M02 Q1005=
201602260950 METAR ESMX 260950Z 25009KT 220V280 9999 SCT014 01/M02 Q1004=
201602260920 METAR ESMX 260920Z 23010KT 200V260 9999 BKN012 01/M02 Q1004=
201602260850 METAR ESMX 260850Z 24008KT 210V280 9999 BKN012 01/M02 Q1004=
201602260820 METAR ESMX 260820Z 24007KT 9999 BKN013 01/M02 Q1004=
201602260750 METAR ESMX 260750Z 24007KT 9999 BKN012 00/M02 Q1004=
201602260720 METAR ESMX 260720Z 24006KT 210V280 9999 OVC012 00/M02 Q1004=
201602260650 METAR ESMX 260650Z 24005KT 9999 BKN012 M00/M02 Q1004=
201602260620 METAR ESMX 260620Z 24008KT 9999 BKN010 M00/M02 Q1004=
201602260550 METAR ESMX 260550Z 23007KT 190V270 9999 FEW009 BKN010 M00/M02 Q1003=
201602260520 METAR ESMX 260520Z 23006KT 9999 OVC010 M00/M02 Q1003=
201602260450 METAR ESMX 260450Z 23007KT 9999 BKN010 M00/M01 Q1003=
201602260420 METAR ESMX 260420Z AUTO 23005KT 9999 FEW006/// OVC011/// M00/M01 Q1003=
201602260350 METAR ESMX 260350Z AUTO 22005KT 190V260 9999 FEW003/// SCT006/// BKN007/// M01/M01 Q1003=
201602260320 METAR ESMX 260320Z AUTO 23004KT 8000 BR OVC001/// M01/M01 Q1003=
201602260250 METAR ESMX 260250Z AUTO 23005KT 2100 BR OVC001/// M01/M02 Q1003=
201602260220 METAR ESMX 260220Z AUTO 23006KT 1200 R01/P2000N R19/P2000N VV002 M02/M02 Q1004=
201602260150 METAR ESMX 260150Z AUTO 22005KT 1100 R01/P2000N R19/P2000N VV002 M02/M02 Q1004=
201602260120 METAR ESMX 260120Z AUTO 23006KT 0700 R01/P2000D R19/P2000N FZFG OVC001/// M02/M03 Q1004=
201602260050 METAR ESMX 260050Z AUTO 22008KT 9999 FEW004/// M03/M03 Q1004=
201602260020 METAR ESMX 260020Z 21007KT 9999 FEW025 M03/M04 Q1004=
201602252350 METAR ESMX 252350Z 21004KT 9999 FEW025 M04/M04 Q1004=
201602252320 METAR ESMX 252320Z 15003KT CAVOK M04/M04 Q1004=
201602252250 METAR ESMX 252250Z 20004KT CAVOK M03/M03 Q1004=
201602252220 METAR ESMX 252220Z 19003KT CAVOK M03/M04 Q1004=
201602252150 METAR ESMX 252150Z 21004KT CAVOK M03/M04 Q1004=
201602252120 METAR ESMX 252120Z 23004KT CAVOK M02/M03 Q1004=
201602252050 METAR ESMX 252050Z 23005KT CAVOK M02/M03 Q1004=
201602252020 METAR ESMX 252020Z 23005KT 9999 FEW030 M02/M03 Q1004=
201602251950 METAR ESMX 251950Z 21005KT CAVOK M01/M02 Q1003=
201602251920 METAR ESMX 251920Z 23006KT 9999 FEW020 M01/M02 Q1003=
201602251850 METAR ESMX 251850Z 23006KT 200V260 9999 FEW005 BKN021 M00/M01 Q1003=
201602251820 METAR ESMX 251820Z 24007KT 9999 BKN004 00/M01 Q1003=
201602251750 METAR ESMX 251750Z 22007KT 9999 SCT005 BKN025 M00/M01 Q1003=
201602251720 METAR ESMX 251720Z 21006KT 9999 FEW006 M00/M01 Q1003=
201602251650 METAR ESMX 251650Z 20006KT 9999 FEW023 M00/M01 Q1003=
201602251620 METAR ESMX 251620Z 22006KT 9999 FEW022 00/M01 Q1003=
201602251550 METAR ESMX 251550Z 24005KT 9999 FEW023 02/M02 Q1003=
201602251520 METAR ESMX 251520Z 25006KT 9999 FEW022 02/M02 Q1003=
201602251450 METAR ESMX 251450Z 29006KT 260V320 9999 FEW017 02/M02 Q1003=
201602251420 METAR ESMX 251420Z 26007KT 240V300 9999 FEW016 SCT019 02/M01 Q1003=
201602251350 METAR ESMX 251350Z 24007KT 9999 FEW018 BKN021 02/M02 Q1003=
201602251320 METAR ESMX 251320Z 25007KT 210V280 9000 -SN FEW009 BKN012 01/M01 Q1003=
201602251250 METAR ESMX 251250Z 25007KT 220V290 9999 OVC011 01/M01 Q1003=
201602251220 METAR ESMX 251220Z 26007KT 9999 OVC010 01/M01 Q1003=
201602251150 METAR ESMX 251150Z 25007KT 9999 OVC010 01/M02 Q1003=
201602251120 METAR ESMX 251120Z 23007KT 210V270 9999 BKN008 00/M01 Q1003=
201602251050 METAR ESMX 251050Z 25005KT 220V280 9999 BKN007 01/M01 Q1003=
201602251020 METAR ESMX 251020Z 26006KT 9999 OVC008 00/M01 Q1003=
201602250950 METAR ESMX 250950Z 29006KT 9999 OVC007 M00/M02 Q1003=
201602250920 METAR ESMX 250920Z 29005KT 4800 BR SCT006 BKN008 M00/M01 Q1002=
201602250850 METAR ESMX 250850Z 25007KT 9999 BKN006 M00/M01 Q1002=
201602250820 METAR ESMX 250820Z 25006KT 210V280 9999 FEW004 BKN006 M00/M01 Q1002=
201602250750 METAR ESMX 250750Z 25004KT 2300 -SN FEW003 SCT005 OVC012 M00/M01 Q1002=
201602250720 METAR ESMX 250720Z 00000KT 3000 -SN FEW004 BKN013 M00/M01 Q1002=
201602250650 METAR ESMX 250650Z 00000KT 2500 -SN FEW003 BKN006 M01/M01 Q1002=
201602250620 METAR ESMX 250620Z 00000KT 1800 BR SCT003 OVC005 M01/M01 Q1002=
201602250550 METAR ESMX 250550Z 00000KT 9000 BR FEW004 OVC005 M01/M01 Q1002=
201602250520 METAR ESMX 250520Z 00000KT 9999 OVC003 M01/M02 Q1002=
201602250450 METAR ESMX 250450Z 00000KT 9999 BKN005 M01/M01 Q1002=
201602250420 METAR ESMX 250420Z AUTO 00000KT 9999 BKN004/// OVC009/// M01/M02 Q1001 REFZUP=
201602250350 METAR ESMX 250350Z AUTO VRB02KT 9999 SCT006/// OVC008/// M01/M02 Q1001=
201602250320 METAR ESMX 250320Z AUTO 19004KT 9999 OVC008/// M01/M02 Q1002=
201602250250 METAR ESMX 250250Z AUTO VRB03KT 9999 OVC006/// M01/M02 Q1002=
201602250220 METAR ESMX 250220Z AUTO 25004KT 9999 OVC006/// M01/M02 Q1002=
201602250150 METAR ESMX 250150Z AUTO 25004KT 9999 FEW006/// SCT007/// BKN009/// M02/M02 Q1002=
201602250120 METAR ESMX 250120Z AUTO 00000KT 9999 FEW007/// BKN014/// M03/M03 Q1002=
201602250050 METAR ESMX 250050Z AUTO 22004KT 200V260 9999 FEW003/// BKN011/// M03/M04 Q1002=
201602250020 METAR ESMX 250020Z 00000KT 9999 FEW006 BKN010 M03/M03 Q1003=
201602242350 METAR ESMX 242350Z 22002KT 9999 FEW007 SCT030 M03/M04 Q1003=
201602242320 METAR ESMX 242320Z 22005KT CAVOK M03/M04 Q1003=
201602242250 METAR ESMX 242250Z 22005KT CAVOK M03/M04 Q1003=
201602242220 METAR COR ESMX 242220Z 22004KT CAVOK M03/M04 Q1003=
201602242150 METAR ESMX 242150Z 20005KT CAVOK M03/M04 Q1003=
201602242120 METAR ESMX 242120Z 23006KT CAVOK M02/M03 Q1003=
201602242050 METAR ESMX 242050Z 21006KT CAVOK M02/M03 Q1003=
201602242020 METAR ESMX 242020Z 22005KT CAVOK M02/M03 Q1003=
201602241950 METAR ESMX 241950Z 24005KT CAVOK M01/M03 Q1003=
201602241920 METAR ESMX 241920Z 22006KT 9999 FEW045 M01/M03 Q1003=
201602241850 METAR ESMX 241850Z 23005KT 9999 FEW045 M01/M03 Q1003=
201602241820 METAR ESMX 241820Z 23006KT 9999 FEW035 SCT050 M00/M03 Q1003=
201602241750 METAR ESMX 241750Z 24007KT 9999 SCT050 01/M03 Q1003=
201602241720 METAR ESMX 241720Z 24008KT 9999 BKN048 01/M02 Q1003=
201602241650 METAR ESMX 241650Z 23007KT 9999 BKN047 02/M02 Q1003=
201602241620 METAR ESMX 241620Z 24007KT 9999 FEW039 BKN045 02/M02 Q1003=
201602241550 METAR ESMX 241550Z 23006KT 9999 FEW027 SCT036 BKN044 02/M02 Q1003=
201602241520 METAR ESMX 241520Z 25006KT 9999 FEW029 OVC042 03/M02 Q1003=
201602241450 METAR ESMX 241450Z 26006KT 9999 FEW027 BKN037 03/M02 Q1002=
201602241420 METAR ESMX 241420Z 25008KT 210V290 9999 FEW029 OVC034 03/M02 Q1003=
201602241350 METAR ESMX 241350Z 25008KT 9999 FEW022 SCT028 03/M02 Q1003=
201602241320 METAR ESMX 241320Z 23009KT 200V260 9999 OVC021 02/M02 Q1003=
201602241250 METAR ESMX 241250Z 23007KT 190V250 9999 SCT019 02/M02 Q1003=
201602241220 METAR ESMX 241220Z 24009KT 9999 FEW015 BKN018 02/M02 Q1003=
201602241150 METAR ESMX 241150Z 26007KT 9999 BKN015 02/M00 Q1003=
201602241120 METAR ESMX 241120Z 26007KT 210V290 9999 FEW012 BKN015 01/M01 Q1003=
201602241050 METAR ESMX 241050Z 25009KT 210V280 9999 FEW010 BKN017 01/M00 Q1003=
201602241020 METAR ESMX 241020Z 23007KT 9999 FEW006 BKN008 01/M00 Q1003=
201602240950 METAR ESMX 240950Z 25006KT 220V300 9999 BKN008 00/M00 Q1003=
201602240920 METAR ESMX 240920Z 25007KT 9999 FEW006 BKN009 00/M00 Q1003=
201602240850 METAR ESMX 240850Z 26007KT 230V290 9999 FEW003 BKN005 M00/M00 Q1003=
201602240820 METAR ESMX 240820Z 25007KT 5000 BR VV002 M00/M01 Q1003=
201602240750 METAR ESMX 240750Z 25007KT 3500 BR VV002 M01/M01 Q1003=
201602240720 METAR ESMX 240720Z 25006KT 210V280 1200 R01/1700N R19/P2000N BR VV002 M01/M01 Q1003=
201602240650 METAR ESMX 240650Z 23004KT 200V280 1000 R01/1700N R19/P2000N BR VV002 M01/M02 Q1003=
201602240620 METAR ESMX 240620Z 20004KT 0500 R01/1100N R19/1100U FZFG VV002 M02/M02 Q1003=
201602240550 METAR ESMX 240550Z 21003KT 0400 R01/1100N R19/1100N BR VV002 M02/M02 Q1003=
201602240520 METAR ESMX 240520Z 25005KT 0500 R01/1300D R19/1800D BR OVC001 M03/M03 Q1003=
201602240450 METAR ESMX 240450Z 26008KT 3900 BR OVC001 M03/M04 Q1003=
201602240420 METAR ESMX 240420Z AUTO 24005KT 9999 OVC001/// M04/M04 Q1003=
201602240350 METAR ESMX 240350Z AUTO 23005KT 9999 OVC001/// M04/M04 Q1003=
201602240320 METAR ESMX 240320Z AUTO 21004KT 9999 OVC001/// M03/M04 Q1002=
201602240250 METAR ESMX 240250Z AUTO 23004KT 9999 BR OVC001/// M03/M04 Q1002=
201602240220 METAR ESMX 240220Z AUTO 23005KT 9999 OVC001/// M03/M03 Q1002=
201602240150 METAR ESMX 240150Z AUTO 26004KT 9999 BKN001/// M03/M03 Q1002=
201602240120 METAR ESMX 240120Z AUTO 26005KT 9999 OVC001/// M03/M03 Q1002=
201602240050 METAR ESMX 240050Z AUTO 27005KT 9999 OVC001/// M03/M03 Q1002=
201602240020 METAR ESMX 240020Z 27005KT 9999 SCT002 BKN004 M02/M03 Q1002=
201602232350 METAR ESMX 232350Z 27002KT CAVOK M03/M03 Q1002=
201602232320 METAR ESMX 232320Z 30002KT 9999 FEW004 M02/M03 Q1001=
201602232250 METAR ESMX 232250Z 32005KT 280V340 9999 FEW004 SCT006 M02/M03 Q1001=
201602232220 METAR ESMX 232220Z 31007KT 9999 BKN005 BKN008 M01/M02 Q1001=
201602232150 METAR ESMX 232150Z 29005KT 9999 FEW004 OVC006 M01/M01 Q1001=
201602232120 METAR ESMX 232120Z 29006KT 9999 BKN002 OVC005 M00/M00 Q1000=
201602232050 METAR ESMX 232050Z 29005KT 0750 R01/1700U R19/P2000N FG BKN001 00/M00 Q1000=
201602232020 METAR ESMX 232020Z 26004KT 2800 BR VV002 00/M00 Q1000=
201602231950 METAR ESMX 231950Z 26004KT 6000 BR VV002 M00/M00 Q0999=
201602231920 METAR ESMX 231920Z 25003KT 9999 SCT001 M01/M01 Q0999=
201602231850 METAR ESMX 231850Z 23004KT 8000 BR SCT002 M00/M00 Q0999=
201602231820 METAR ESMX 231820Z 23004KT 9999 FEW020 SCT050 M00/M00 Q0999=
201602231750 METAR ESMX 231750Z 23004KT 9999 FEW004 SCT020 M00/M01 Q0999=
201602231720 METAR ESMX 231720Z 22003KT 9999 FEW005 SCT025 01/00 Q0998=
201602231650 METAR ESMX 231650Z 23003KT 9999 FEW007 BKN030 01/01 Q0998=
201602231620 METAR ESMX 231620Z VRB02KT 9999 FEW005 SCT007 01/01 Q0998=
201602231550 METAR ESMX 231550Z 24003KT 9999 FEW009 SCT020 02/01 Q0998=
201602231520 METAR ESMX 231520Z 29005KT 250V320 9999 -RA FEW005 SCT007 BKN017 02/01 Q0997=
201602231450 METAR ESMX 231450Z 27006KT 9999 FEW008 BKN026 02/01 Q0997 RESHRASN=
201602231420 METAR ESMX 231420Z 25007KT 210V280 6000 -SHRASN FEW008 BKN021 03/01 Q0997=
201602231350 METAR ESMX 231350Z 27006KT 9999 FEW010 BKN046 03/01 Q0997=
201602231320 METAR ESMX 231320Z 26007KT 230V300 9999 FEW015 BKN041 04/02 Q0997=
201602231250 METAR ESMX 231250Z 27006KT 9999 FEW009 SCT035 04/02 Q0997=
201602231220 METAR ESMX 231220Z 27009KT 9999 FEW012 SCT020 BKN028 03/02 Q0997=
201602231150 METAR ESMX 231150Z 27009KT 9999 -DZ FEW014 BKN024 04/01 Q0997=
201602231120 METAR ESMX 231120Z 26011KT 230V300 9999 FEW020 OVC025 04/00 Q0997=
201602231050 METAR ESMX 231050Z 25010KT 210V280 9999 FEW017 BKN023 04/00 Q0997=
201602231020 METAR ESMX 231020Z 27010KT 240V300 9999 FEW012 BKN021 04/01 Q0996=
201602230950 METAR ESMX 230950Z 26011KT 9999 FEW012 BKN023 03/01 Q0996=
201602230920 METAR ESMX 230920Z 25008KT 210V280 7000 -RA SCT009 BKN013 03/02 Q0996=
201602230850 METAR ESMX 230850Z 25011KT 9999 FEW010 BKN012 03/02 Q0995=
201602230820 METAR ESMX 230820Z 25009KT 200V280 9999 SCT009 BKN011 03/02 Q0995=
201602230750 METAR ESMX 230750Z 26008KT 9999 SCT007 BKN011 02/01 Q0995=
201602230720 METAR ESMX 230720Z 24006KT 9999 FEW005 BKN008 02/01 Q0994=
201602230650 METAR ESMX 230650Z 23006KT 7000 DZ SCT005 OVC008 02/01 Q0994=
201602230620 METAR ESMX 230620Z 23005KT 200V260 9999 SCT005 BKN007 BKN010 01/01 Q0994=
201602230550 METAR ESMX 230550Z 24006KT 8000 -RA FEW006 SCT008 OVC031 02/01 Q0994=
201602230520 METAR ESMX 230520Z 24008KT 9999 FEW007 BKN010 OVC017 01/01 Q0994=
201602230450 METAR ESMX 230450Z 23007KT 9999 -RA FEW019 BKN022 01/01 Q0994=
201602230420 METAR ESMX 230420Z AUTO 24008KT 9999 FEW017/// OVC020/// 01/01 Q0993 REUP REDZ=
201602230350 METAR ESMX 230350Z AUTO 25008KT 9999 FEW011/// BKN020/// 01/00 Q0993=
201602230320 METAR ESMX 230320Z AUTO 25007KT 9999 FEW015/// BKN022/// 01/00 Q0993=
201602230250 METAR ESMX 230250Z AUTO 25008KT 210V280 9999 FEW009/// BKN022/// 02/01 Q0993=
201602230220 METAR ESMX 230220Z AUTO 26007KT 9999 FEW009/// BKN021/// 01/00 Q0993=
201602230150 METAR ESMX 230150Z AUTO 26007KT 9999 FEW007/// SCT010/// BKN022/// 02/01 Q0993=
201602230120 METAR ESMX 230120Z AUTO 25007KT 9999 FEW007/// SCT018/// OVC023/// 02/01 Q0993=
201602230050 METAR ESMX 230050Z 25008KT 9999 FEW006 SCT009 BKN013 01/01 Q0992=
201602230020 METAR ESMX 230020Z 26009KT 9999 BKN006 OVC010 01/00 Q0992=
201602222350 METAR ESMX 222350Z 25009KT 9000 FEW006 BKN008 OVC010 01/00 Q0992=
201602222320 METAR ESMX 222320Z 26010KT 9999 FEW006 BKN008 OVC012 01/00 Q0991=
201602222250 METAR ESMX 222250Z 25009KT 9999 FEW005 BKN007 01/00 Q0991=
201602222220 METAR ESMX 222220Z AUTO 25010KT 2800 -SN FEW006/// SCT008/// BKN010/// 01/00 Q0991 REUP RESHUP=
201602222150 METAR ESMX 222150Z 25010KT 9999 FEW006 BKN008 01/00 Q0991=
201602222120 METAR ESMX 222120Z 24010KT 9999 OVC005 01/00 Q0990=
201602222050 METAR ESMX 222050Z 21010KT 9999 FEW005 BKN008 01/00 Q0990=
201602222020 METAR ESMX 222020Z 23009KT 9999 -SN FEW007 BKN010 BKN020 01/01 Q0991=
201602221950 METAR ESMX 221950Z 21011KT 9999 FEW005 BKN007 02/01 Q0991=
201602221920 METAR ESMX 221920Z 22009KT 9999 -RASN SCT005 OVC008 01/01 Q0991=
201602221850 METAR ESMX 221850Z 21012KT 3400 SNRA FEW008 OVC010 01/00 Q0991=
201602221820 METAR ESMX 221820Z 20009KT 9999 -RA FEW008 BKN011 02/01 Q0991=
201602221750 METAR ESMX 221750Z 21009KT 9999 FEW014 BKN017 OVC024 03/01 Q0991=
201602221720 METAR ESMX 221720Z 23007KT 9999 FEW016 SCT023 BKN030 03/01 Q0991=
201602221650 METAR ESMX 221650Z 23009KT 9999 FEW016 SCT019 BKN035 03/01 Q0991=
201602221620 METAR ESMX 221620Z 22009KT 9999 FEW016 BKN036 03/01 Q0991=
201602221550 METAR ESMX 221550Z 22009KT 9999 -DZ FEW016 BKN033 03/01 Q0991=
201602221520 METAR ESMX 221520Z 23009KT 9999 BKN033 03/01 Q0991=
201602221450 METAR ESMX 221450Z 25008KT 9999 FEW011 BKN034 02/01 Q0991=
201602221420 METAR ESMX 221420Z 24012KT 7000 -RA BKN012 BKN020 03/01 Q0991=
201602221350 METAR ESMX 221350Z 25011KT 7000 SHRA FEW017 BKN032 BKN040 03/01 Q0991=
201602221320 METAR ESMX 221320Z 25010KT 220V280 9999 FEW020 OVC027 03/00 Q0991=
201602221250 METAR ESMX 221250Z 25011KT 9999 FEW023 OVC027 03/00 Q0990=
201602221220 METAR ESMX 221220Z 26013KT 9999 FEW018 SCT021 BKN027 03/M00 Q0990=
201602221150 METAR ESMX 221150Z 25013KT 9999 FEW015 BKN019 03/00 Q0990=
201602221120 METAR ESMX 221120Z 24010KT 210V280 9999 FEW016 BKN018 03/00 Q0990=
201602221050 METAR ESMX 221050Z 25011KT 9999 FEW018 BKN023 03/M00 Q0990=
201602221020 METAR ESMX 221020Z 26010KT 240V300 9999 FEW014 SCT017 BKN020 02/M00 Q0989=
201602220950 METAR ESMX 220950Z 26011KT 9999 FEW014 BKN018 02/M00 Q0989=
201602220920 METAR ESMX 220920Z 26010KT 190V290 9999 FEW013 BKN016 02/M00 Q0989=
201602220850 METAR ESMX 220850Z 27011KT 9999 FEW010 BKN016 01/M00 Q0989=
201602220820 METAR ESMX 220820Z 27010KT 9999 FEW010 BKN015 01/M00 Q0988=
201602220750 METAR ESMX 220750Z 26012KT 9999 FEW011 BKN017 01/M00 Q0988=
201602220720 METAR ESMX 220720Z 25010KT 9999 FEW010 BKN018 01/00 Q0988=
201602220650 METAR ESMX 220650Z 24009KT 9999 FEW005 BKN013 01/00 Q0987=
201602220620 METAR ESMX 220620Z 25008KT 6000 -RA FEW005 SCT008 BKN012 01/01 Q0987=
201602220550 METAR ESMX 220550Z 23008KT 9999 FEW006 BKN009 01/01 Q0987=
201602220520 METAR ESMX 220520Z 24007KT 9999 FEW006 BKN008 01/01 Q0987=
201602220450 METAR ESMX 220450Z 24007KT 9000 -DZ FEW005 BKN007 01/01 Q0987=
201602220420 METAR ESMX 220420Z AUTO 24007KT 5000 -RA FEW004/// OVC005/// 01/01 Q0987 REUP=
201602220350 METAR ESMX 220350Z AUTO 23008KT 9999 BKN004/// OVC008/// 01/00 Q0987=
201602220320 METAR ESMX 220320Z AUTO 25006KT 220V280 9999 FEW003/// OVC005/// 01/00 Q0988=
201602220250 METAR ESMX 220250Z AUTO 26009KT 9000 BR BKN001/// OVC003/// 01/00 Q0988 REUP=
201602220220 METAR ESMX 220220Z AUTO 25008KT 9999 OVC001/// 01/00 Q0988 RESHUP=
201602220150 METAR ESMX 220150Z AUTO 24006KT 9999 OVC002/// 01/00 Q0988 RESN RESG=
201602220120 METAR ESMX 220120Z AUTO 23006KT 9999 FEW003/// OVC004/// 01/00 Q0988=
201602220050 METAR ESMX 220050Z 23005KT 5000 SN FEW003 OVC005 01/00 Q0988=
201602220020 METAR ESMX 220020Z 22006KT 3600 SN SCT002 BKN005 01/00 Q0988=
201602212350 METAR ESMX 212350Z 20007KT 5000 -SN OVC003 01/00 Q0988=
201602212320 METAR ESMX 212320Z 20008KT 7000 -RASN OVC003 01/01 Q0989=
201602212250 METAR ESMX 212250Z 20009KT 5000 RA OVC003 01/01 Q0989=
201602212220 METAR ESMX 212220Z 20008KT 8000 -RA FEW003 BKN005 02/01 Q0989=
201602212150 METAR ESMX 212150Z 20008KT 9999 -RA OVC004 02/01 Q0990=
201602212120 METAR ESMX 212120Z 22008KT 9999 -RA OVC004 02/01 Q0990=
201602212050 METAR ESMX 212050Z 20009KT 8000 -RA OVC004 02/01 Q0990=
201602212020 METAR ESMX 212020Z 22011KT 9999 -RA BKN004 OVC006 02/01 Q0991=
201602211950 METAR ESMX 211950Z 20010KT 9999 -RA FEW003 OVC005 02/01 Q0991=
201602211920 METAR ESMX 211920Z 19008KT 9999 -RA FEW004 BKN005 02/01 Q0992=
201602211850 METAR ESMX 211850Z 20008KT 9999 -RA FEW004 BKN005 02/01 Q0992=
201602211820 METAR ESMX 211820Z 20010KT 9000 -RA FEW005 BKN008 02/01 Q0992=
201602211750 METAR ESMX 211750Z 20009KT 9000 -RA BKN005 02/01 Q0993=
201602211720 METAR ESMX 211720Z 20008KT 7000 -RA FEW006 BKN010 02/01 Q0993=
201602211650 METAR ESMX 211650Z 21010KT 5000 -RA FEW007 BKN012 02/01 Q0994=
201602211620 METAR ESMX 211620Z 21008KT 9999 BKN011 OVC017 02/01 Q0994=
201602211550 METAR ESMX 211550Z 21008KT 9999 SCT015 BKN018 03/01 Q0994=
201602211520 METAR ESMX 211520Z 23008KT 9999 FEW015 SCT025 03/01 Q0994=
201602211450 METAR ESMX 211450Z 23010KT 9999 BKN016 03/01 Q0995=
201602211420 METAR ESMX 211420Z 23009KT 9999 FEW018 SCT020 BKN030 04/01 Q0995=
201602211350 METAR ESMX 211350Z 24010KT 9999 FEW014 SCT033 BKN040 04/01 Q0995=
201602211320 METAR ESMX 211320Z 23011KT 9999 SCT011 SCT014 BKN035 04/01 Q0995=
201602211250 METAR ESMX 211250Z 24011KT 9999 SCT013 BKN016 03/01 Q0995=
201602211220 METAR ESMX 211220Z 25011KT 9999 FEW013 SCT017 BKN025 03/01 Q0995=
201602211150 METAR ESMX 211150Z 24011KT 9999 SCT008 BKN015 03/01 Q0995=
201602211120 METAR ESMX 211120Z AUTO 25011KT 9999 BR FEW008/// SCT013/// BKN016/// 03/01 Q0995 RERA=
201602211050 METAR ESMX 211050Z AUTO 25012KT 9000 FEW008/// BKN010/// OVC014/// 03/01 Q0995 RERA=
201602211020 METAR ESMX 211020Z AUTO 26010KT 9000 -RA FEW007/// SCT009/// BKN011/// 02/01 Q0994 RESHUP REUP=
201602210950 METAR ESMX 210950Z AUTO 25009KT 210V290 9999 FEW008/// SCT010/// BKN012/// 02/01 Q0994=
201602210920 METAR ESMX 210920Z AUTO 25009KT 220V280 9999 FEW009/// SCT014/// BKN017/// 02/01 Q0994 RESHUP=
201602210850 METAR ESMX 210850Z 25009KT 9999 FEW005 BKN008 OVC010 02/01 Q0994=
201602210820 METAR ESMX 210820Z 26012KT 9999 FEW005 SCT007 BKN009 02/01 Q0993=
201602210750 METAR ESMX 210750Z 25010KT 220V280 9999 -RA SCT007 BKN010 01/00 Q0993=
201602210720 METAR ESMX 210720Z 25011KT 9999 BKN006 01/00 Q0993=
201602210650 METAR ESMX 210650Z 25007KT 9999 BKN005 BKN009 01/01 Q0992=
201602210620 METAR ESMX 210620Z 23006KT 9999 BKN004 01/01 Q0992=
201602210550 METAR COR ESMX 210550Z 25007KT 9999 OVC004 01/01 Q0992=
201602210520 METAR ESMX 210520Z AUTO 24009KT 9000 UP FEW003/// SCT004/// BKN006/// 01/00 Q0992 RESN=
201602210450 METAR ESMX 210450Z AUTO 20006KT 1300 R01/P2000N R19/P2000N -SN SCT001/// BKN004/// OVC006/// 01/00 Q0992=
201602210420 METAR ESMX 210420Z AUTO 19007KT 1300 R01/P2000N R19/P2000N -SN BKN003/// OVC006/// 01/00 Q0991=
201602210350 METAR ESMX 210350Z AUTO 19009KT 3800 -SN BKN003/// OVC005/// 01/00 Q0991=
201602210320 METAR ESMX 210320Z AUTO 19008KT 6000 -PL BKN003/// OVC006/// 01/01 Q0992 RERA=
201602210250 METAR ESMX 210250Z AUTO 19008KT 6000 -RA OVC003/// 01/01 Q0992=
201602210220 METAR ESMX 210220Z AUTO 19008KT 4900 -SN OVC004/// 01/01 Q0992=
201602210150 METAR ESMX 210150Z AUTO 18011KT 4500 -RASN OVC003/// 01/01 Q0992=
201602210120 METAR ESMX 210120Z AUTO 18010KT 9999 -RA OVC003/// 02/01 Q0992=
201602210050 METAR ESMX 210050Z AUTO 18010KT 6000 -RA BKN003/// OVC006/// 02/01 Q0993 REDZ=
201602210020 METAR ESMX 210020Z AUTO 19012KT 9999 -DZ OVC004/// 02/01 Q0993 REUP RESHUP=
201602202350 METAR ESMX 202350Z AUTO 19010KT 9999 SCT004/// BKN007/// OVC009/// 02/01 Q0993=
201602202320 METAR ESMX 202320Z AUTO 20011KT 9999 FEW002/// OVC004/// 02/01 Q0993=
201602202250 METAR ESMX 202250Z AUTO 19010KT 9999 BKN003/// OVC008/// 02/01 Q0994=
201602202220 METAR ESMX 202220Z AUTO 20013KT 9999 OVC003/// 02/01 Q0994=
201602202150 METAR ESMX 202150Z AUTO 20010KT 9999 OVC003/// 02/01 Q0994=
201602202120 METAR ESMX 202120Z 21009KT 9999 OVC004 02/01 Q0994=
201602202050 METAR ESMX 202050Z 21009KT 9999 FEW005 BKN006 02/01 Q0995=
201602202020 METAR ESMX 202020Z 21009KT 9999 FEW004 BKN005 OVC011 01/01 Q0995=
201602201950 METAR ESMX 201950Z 21009KT 9999 BKN003 OVC006 01/01 Q0995=
201602201920 METAR ESMX 201920Z 20008KT 9999 FEW004 BKN005 01/01 Q0995=
201602201850 METAR ESMX 201850Z 21008KT 9999 FEW003 BKN004 OVC006 01/01 Q0995=
201602201820 METAR ESMX 201820Z AUTO 20011KT 9999 -DZ OVC003/// 02/01 Q0995=
201602201750 METAR ESMX 201750Z AUTO 20011KT 7000 -DZ OVC001/// 02/01 Q0995 RESHUP REDZ=
201602201720 METAR ESMX 201720Z AUTO 19009KT 6000 -DZ OVC001/// 01/01 Q0995=
201602201650 METAR ESMX 201650Z AUTO 19009KT 6000 -DZ OVC002/// 01/01 Q0995 RESN=
201602201620 METAR ESMX 201620Z AUTO 18009KT 9999 OVC002/// 01/01 Q0995 RESHUP RESN=
201602201550 METAR ESMX 201550Z AUTO 18010KT 9999 UP FEW002/// SCT004/// OVC005/// 01/00 Q0995=
201602201520 METAR ESMX 201520Z AUTO 17010KT 4300 -SN FEW004/// OVC006/// 01/00 Q0996=
201602201450 METAR ESMX 201450Z AUTO 17012KT 8000 -RA FEW004/// BKN005/// OVC008/// 01/00 Q0996=
201602201420 METAR ESMX 201420Z AUTO 17013KT 5000 -SN BKN005/// OVC008/// 01/00 Q0996=
201602201350 METAR ESMX 201350Z AUTO 17014KT 6000 -SN FEW005/// BKN007/// OVC009/// 01/00 Q0997=
201602201320 METAR ESMX 201320Z AUTO 16013KT 5000 -RA FEW005/// SCT007/// BKN009/// 01/00 Q0997=
201602201250 METAR ESMX 201250Z AUTO 17012KT 140V200 2200 -SN FEW003/// BKN005/// OVC007/// 01/00 Q0997=
201602201220 METAR ESMX 201220Z AUTO 17012KT 1800 -SN FEW002/// OVC005/// 01/00 Q0998=
201602201150 METAR ESMX 201150Z AUTO 16014KT 5000 -RA OVC005/// 01/00 Q0999=
201602201120 METAR ESMX 201120Z AUTO 16014KT 2000 R01/P2000D R19/1400N -SN FEW005/// BKN006/// OVC008/// 01/00 Q0999=
201602201050 METAR ESMX 201050Z AUTO 15013KT 2700 -RASN FEW005/// BKN006/// OVC009/// 01/00 Q1000=
201602201020 METAR ESMX 201020Z AUTO 15013KT 120V190 2200 -SN FEW001/// SCT007/// BKN009/// 01/M00 Q1001=
201602200950 METAR ESMX 200950Z AUTO 15011KT 4100 -PL FEW005/// BKN009/// 00/M00 Q1001=
201602200920 METAR ESMX 200920Z AUTO 15013KT 4500 -RASN BKN010/// 00/M01 Q1002=
201602200850 METAR ESMX 200850Z AUTO 16013KT 120V190 5000 -PL BKN011/// 00/M02 Q1003 REUP=
201602200820 METAR ESMX 200820Z AUTO 16013KT 8000 BR SCT011/// BKN020/// 00/M02 Q1004=
201602200750 METAR ESMX 200750Z AUTO 16012G23KT 7000 BR FEW009/// SCT011/// BKN084/// 00/M02 Q1005=
201602200720 METAR ESMX 200720Z AUTO 16010KT 7000 BR FEW010/// BKN012/// 00/M01 Q1006=
201602200650 METAR ESMX 200650Z AUTO 17012KT 7000 BR FEW012/// BKN014/// 00/M02 Q1006=
201602200620 METAR ESMX 200620Z AUTO 16009KT 6000 BR OVC016/// M00/M01 Q1007=
201602200550 METAR ESMX 200550Z AUTO 16009KT 5000 BR OVC017/// M00/M01 Q1008=
201602200520 METAR ESMX 200520Z AUTO 16009KT 5000 BR FEW007/// OVC015/// M00/M01 Q1009=
201602200450 METAR ESMX 200450Z AUTO 18011KT 4000 BR SCT004/// BKN006/// OVC008/// M00/M01 Q1009=
201602200420 METAR ESMX 200420Z AUTO 17010KT 3000 FEW002/// OVC004/// M01/M01 Q1009=
201602200350 METAR ESMX 200350Z AUTO 19010KT 1900 OVC001/// M01/M01 Q1010=
201602200320 METAR ESMX 200320Z AUTO 18006KT 0800 R01/1900N R19/1800N FZFG VV001 M01/M01 Q1010=
201602200250 METAR ESMX 200250Z AUTO 18006KT 0550 R01/1400D R19/1600U FZFG VV002 M01/M01 Q1011=
201602200220 METAR ESMX 200220Z AUTO 18005KT 0500 R01/1300U R19/1300N FZFG VV001 M01/M01 Q1011=
201602200150 METAR ESMX 200150Z AUTO 16005KT 0700 R01/1800N R19/1900D FZFG VV002 M01/M01 Q1012=
201602200120 METAR ESMX 200120Z AUTO 17005KT 140V200 1500 BR OVC001/// M01/M02 Q1012=
201602200050 METAR ESMX 200050Z AUTO 18005KT 2200 BR OVC003/// M02/M02 Q1012=
201602200020 METAR ESMX 200020Z AUTO 15005KT 2400 SCT005/// BKN007/// OVC016/// M02/M02 Q1013=
201602192350 METAR ESMX 192350Z AUTO 15005KT 2100 FEW001/// BKN018/// OVC032/// M02/M03 Q1013=
201602192320 METAR ESMX 192320Z AUTO 16004KT 1000 R01/1900N R19/1700N FZFG VV001 M03/M03 Q1013=
201602192250 METAR ESMX 192250Z AUTO 15005KT 0300 R01/0900N R19/P2000N FZFG FEW067/// M03/M04 Q1013=
201602192220 METAR ESMX 192220Z AUTO 15004KT 1300 R01/P2000N R19/P2000N BR NCD M03/M03 Q1014=
201602192150 METAR ESMX 192150Z AUTO 15003KT 1300 R01/P2000N R19/P2000N BR FEW002/// SCT062/// M03/M03 Q1014=
201602192120 METAR ESMX 192120Z AUTO 16004KT 2100 BR FEW072/// M02/M02 Q1014=
201602192050 METAR ESMX 192050Z 17005KT 2100 BR FEW062 SCT076 M02/M03 Q1014=
201602192020 METAR ESMX 192020Z 19005KT 2300 BR NSC M02/M03 Q1015=
201602191950 METAR ESMX 191950Z 18004KT 2000 BR NSC M02/M02 Q1015=
201602191920 METAR ESMX 191920Z 17004KT 1900 BR NSC M02/M02 Q1015=
201602191850 METAR ESMX 191850Z 16003KT 2300 BR NSC M02/M03 Q1015=
201602191820 METAR ESMX 191820Z 16004KT 3300 BR NSC M01/M02 Q1016=
201602191750 METAR ESMX 191750Z 16005KT 4300 BR NSC M01/M02 Q1016=
201602191720 METAR ESMX 191720Z 15005KT 4900 BR NSC M01/M02 Q1016=
201602191650 METAR ESMX 191650Z 16004KT 5000 BR NSC M00/M02 Q1016=
201602191620 METAR ESMX 191620Z 15004KT 5000 BR NSC M00/M02 Q1016=
201602191550 METAR ESMX 191550Z 15003KT 6000 BR NSC 00/M02 Q1016=
201602191520 METAR ESMX 191520Z 16004KT 7000 BR NSC 01/M02 Q1016=
201602191450 METAR ESMX 191450Z 17005KT 7000 BR BKN052 01/M01 Q1016=
201602191420 METAR ESMX 191420Z 15006KT 7000 BR BKN052 01/M01 Q1016=
201602191350 METAR ESMX 191350Z 15005KT 120V190 8000 BR BKN053 01/M01 Q1016=
201602191320 METAR ESMX 191320Z 18006KT 9000 BR BKN054 01/M02 Q1016=
201602191250 METAR ESMX 191250Z 19006KT 9000 BR NSC 01/M02 Q1016=
201602191220 METAR ESMX 191220Z 22006KT 9000 BR NSC 01/M02 Q1016=
201602191150 METAR ESMX 191150Z 19005KT 150V210 8000 BR BKN054 01/M02 Q1016=
201602191120 METAR ESMX 191120Z 19006KT 8000 BR BKN054 01/M02 Q1017=
201602191050 METAR ESMX 191050Z 26004KT 7000 BR BKN053 01/M02 Q1016=
201602191020 METAR ESMX 191020Z VRB02KT 5000 BR SCT006 BKN060 00/M01 Q1017=
201602190950 METAR ESMX 190950Z 21004KT 4000 BR SCT005 BKN050 M00/M01 Q1017=
201602190920 METAR ESMX 190920Z 19004KT 3600 BR SCT005 BKN050 M01/M02 Q1017=
201602190850 METAR ESMX 190850Z 22003KT 2900 BR FEW003 OVC052 M01/M02 Q1017=
201602190820 METAR ESMX 190820Z 19004KT 2700 BR FEW005 SCT030 BKN040 M01/M02 Q1017=
201602190750 METAR ESMX 190750Z 16004KT 2800 BR FEW004 BKN040 M01/M02 Q1016=
201602190720 METAR ESMX 190720Z 18004KT 2700 BR OVC034 M01/M02 Q1016=
201602190650 METAR ESMX 190650Z 17002KT 3000 BR OVC033 M01/M02 Q1016=
201602190620 METAR ESMX 190620Z 17005KT 3000 BR OVC031 M01/M02 Q1016=
201602190550 METAR ESMX 190550Z 00000KT 2400 BR OVC035 M01/M02 Q1016=
201602190520 METAR ESMX 190520Z 17002KT 2500 BR OVC038 M01/M02 Q1016=
201602190450 METAR ESMX 190450Z 16004KT 3300 BR FEW046 OVC055 M01/M02 Q1016=
201602190420 METAR ESMX 190420Z AUTO 17003KT 2600 BR OVC052/// M01/M02 Q1016=
201602190350 METAR ESMX 190350Z AUTO 16003KT 1800 BR OVC053/// M02/M02 Q1016=
201602190320 METAR ESMX 190320Z AUTO VRB02KT 2500 BR FEW007/// SCT013/// M01/M02 Q1016=
201602190250 METAR ESMX 190250Z AUTO 26002KT 2600 BR FEW003/// SCT006/// BKN009/// M01/M02 Q1016=
201602190220 METAR ESMX 190220Z AUTO 00000KT 1200 R01/P2000N R19/P2000N BR FEW004/// M01/M01 Q1016=
201602190150 METAR ESMX 190150Z AUTO 20004KT 2800 BR SCT004/// OVC046/// M01/M01 Q1016=
201602190120 METAR ESMX 190120Z AUTO 19004KT 3100 BR FEW005/// SCT006/// BKN008/// M00/M01 Q1016=
201602190050 METAR ESMX 190050Z AUTO 21005KT 3400 BR BKN004/// OVC007/// M00/M01 Q1016=
201602190020 METAR ESMX 190020Z 22004KT 3300 BR OVC006 M00/M01 Q1016=
201602182350 METAR ESMX 182350Z 19003KT 3300 BR SCT006 BKN036 M00/M01 Q1016=
201602182320 METAR ESMX 182320Z 20004KT 3800 BR FEW005 OVC032 M00/M01 Q1016=
201602182250 METAR ESMX 182250Z 19004KT 4500 BR FEW007 OVC032 M00/M01 Q1016=
201602182220 METAR ESMX 182220Z 17003KT 4800 BR FEW005 OVC031 M00/M01 Q1015=
201602182150 METAR ESMX 182150Z 19004KT 5000 BR OVC026 00/M01 Q1016=
201602182120 METAR ESMX 182120Z 21005KT 6000 BR FEW018 OVC026 00/M01 Q1016=
201602182050 METAR ESMX 182050Z 19005KT 6000 BR OVC024 00/M01 Q1016=
201602182020 METAR ESMX 182020Z 19006KT 7000 BR BKN005 OVC009 00/M01 Q1016=
201602181950 METAR ESMX 181950Z 18005KT 8000 BR FEW005 SCT007 BKN008 00/M01 Q1016=
201602181920 METAR ESMX 181920Z 16004KT 9999 FEW011 OVC022 00/M01 Q1016=
201602181850 METAR ESMX 181850Z 15004KT 9999 OVC020 00/M01 Q1015=
201602181820 METAR ESMX 181820Z 16004KT 9999 FEW015 OVC017 00/M01 Q1015=
201602181750 METAR ESMX 181750Z 17005KT 9999 BKN012 00/M01 Q1015=
201602181720 METAR ESMX 181720Z 18004KT 9999 FEW016 BKN019 00/M01 Q1015=
201602181650 METAR ESMX 181650Z 19004KT 9999 FEW016 BKN018 00/M01 Q1015=
201602181620 METAR ESMX 181620Z 21004KT 9999 BKN015 01/M01 Q1015=
201602181550 METAR ESMX 181550Z 21005KT 9999 FEW014 BKN017 01/M01 Q1014=
201602181520 METAR ESMX 181520Z 20006KT 9999 BKN015 01/M01 Q1014=
201602181450 METAR ESMX 181450Z 20008KT 9999 FEW009 BKN014 01/M01 Q1014=
201602181420 METAR ESMX 181420Z 20007KT 9999 BKN017 01/M01 Q1014=
201602181350 METAR ESMX 181350Z 23007KT 9999 FEW014 BKN017 01/M01 Q1014=
201602181320 METAR ESMX 181320Z 22007KT 9999 FEW010 BKN016 01/M01 Q1013=
201602181250 METAR ESMX 181250Z 22007KT 9999 FEW011 SCT013 BKN016 01/M01 Q1014=
201602181220 METAR ESMX 181220Z 20007KT 9999 FEW008 BKN011 OVC017 01/M00 Q1013=
201602181150 METAR ESMX 181150Z 19007KT 9999 FEW006 SCT009 BKN013 01/M01 Q1013=
201602181120 METAR ESMX 181120Z 21006KT 9999 -SG BKN005 01/M00 Q1013=
201602181050 METAR ESMX 181050Z 20006KT 9999 -SG BKN005 01/M00 Q1013=
201602181020 METAR ESMX 181020Z 21007KT 9999 OVC006 01/M00 Q1013=
201602180950 METAR ESMX 180950Z 19007KT 9999 BKN004 OVC007 01/M00 Q1012=
201602180920 METAR ESMX 180920Z 17004KT 140V200 9999 OVC003 01/M00 Q1012=
201602180850 METAR ESMX 180850Z 17004KT 9999 FEW003 SCT005 OVC011 00/M00 Q1012=
201602180820 METAR ESMX 180820Z 13004KT 9999 FEW002 SCT011 BKN046 00/M00 Q1012=
201602180750 METAR ESMX 180750Z 14003KT 5000 -RASN FEW003 OVC005 M00/M00 Q1012=
201602180720 METAR ESMX 180720Z 00000KT 6000 -SN BKN002 OVC005 M00/M01 Q1012=
201602180650 METAR ESMX 180650Z 00000KT 7000 -SN FEW003 OVC005 M01/M01 Q1011=
201602180620 METAR ESMX 180620Z 04002KT 2600 -SN OVC006 M01/M01 Q1011=
201602180550 METAR ESMX 180550Z VRB03KT 4100 SN OVC006 M01/M01 Q1011=
201602180520 METAR ESMX 180520Z 04002KT 2200 SN OVC006 M01/M01 Q1012=
201602180450 METAR ESMX 180450Z 05003KT 6000 -SN OVC006 M01/M01 Q1012=
201602180420 METAR ESMX 180420Z AUTO 03002KT 4700 -RASN OVC006/// M01/M01 Q1012=
201602180350 METAR ESMX 180350Z AUTO VRB02KT 2000 -SN VV007 M01/M01 Q1012=
201602180320 METAR ESMX 180320Z AUTO VRB02KT 2500 -SN OVC006/// M01/M01 Q1013=
201602180250 METAR ESMX 180250Z AUTO VRB03KT 5000 -SN OVC007/// M01/M01 Q1013=
201602180220 METAR ESMX 180220Z AUTO 05003KT 010V090 5000 -SN FEW007/// BKN010/// OVC015/// M01/M01 Q1014=
201602180150 METAR ESMX 180150Z AUTO 07003KT 030V100 2200 -SN SCT005/// M01/M02 Q1014=
201602180120 METAR ESMX 180120Z AUTO 07004KT 020V140 2400 -SN FEW008/// SCT009/// OVC011/// M00/M02 Q1014 REFZUP=
201602180050 METAR ESMX 180050Z 05005KT 020V080 9999 OVC012 M00/M02 Q1015=
201602180020 METAR ESMX 180020Z 07005KT 030V110 9999 FEW013 OVC018 M00/M03 Q1016=
201602172350 METAR ESMX 172350Z 07004KT 020V140 9999 SCT014 BKN018 OVC021 M00/M03 Q1017=
201602172320 METAR ESMX 172320Z 06004KT 020V130 9999 BKN014 OVC024 M00/M03 Q1018=
201602172250 METAR ESMX 172250Z 08004KT 030V120 9999 OVC014 M00/M03 Q1018=
201602172220 METAR ESMX 172220Z 09005KT 050V140 9999 FEW016 BKN023 M00/M03 Q1019=
201602172150 METAR ESMX 172150Z 08005KT 030V120 9999 BKN021 M01/M04 Q1020=
201602172120 METAR ESMX 172120Z 11008KT 070V160 9999 BKN016 M01/M04 Q1021=
201602172050 METAR ESMX 172050Z 12006KT 070V170 9999 BKN016 M01/M04 Q1021=
201602172020 METAR ESMX 172020Z 11007KT 070V170 9999 BKN016 M01/M04 Q1022=
201602171950 METAR ESMX 171950Z 11007KT 030V170 9999 BKN014 M01/M04 Q1023=
201602171920 METAR ESMX 171920Z 11007KT 060V160 9999 BKN013 M02/M05 Q1023=
201602171850 METAR ESMX 171850Z 11005KT 060V160 9999 FEW014 M03/M05 Q1024=
201602171820 METAR ESMX 171820Z 11006KT 040V150 9999 FEW014 M02/M05 Q1024=
201602171750 METAR ESMX 171750Z 10007KT 070V160 CAVOK M02/M05 Q1024=
201602171720 METAR ESMX 171720Z 10006KT 060V140 CAVOK M01/M05 Q1025=
201602171650 METAR ESMX 171650Z 09003KT CAVOK M01/M06 Q1025=
201602171620 METAR ESMX 171620Z 11003KT 060V150 CAVOK M00/M06 Q1025=
201602171550 METAR ESMX 171550Z 12006KT 070V160 CAVOK 00/M06 Q1026=
201602171520 METAR ESMX 171520Z 12006KT 080V170 CAVOK 01/M05 Q1027=
201602171450 METAR ESMX 171450Z 14007KT 110V170 CAVOK 02/M06 Q1027=
201602171420 METAR ESMX 171420Z 15006KT 110V190 CAVOK 02/M05 Q1028=
201602171350 METAR ESMX 171350Z 15007KT 130V190 CAVOK 02/M06 Q1028=
201602171320 METAR ESMX 171320Z 14007KT 100V190 9999 FEW025 02/M05 Q1029=
201602171250 METAR ESMX 171250Z 15007KT 120V200 9999 FEW024 02/M05 Q1030=
201602171220 METAR ESMX 171220Z 16007KT 110V190 9999 FEW023 01/M04 Q1030=
201602171150 METAR ESMX 171150Z 18009KT 150V210 9999 FEW015 01/M04 Q1031=
201602171120 METAR ESMX 171120Z 15009KT 9999 SCT015 01/M03 Q1031=
201602171050 METAR ESMX 171050Z 17009KT 140V210 9999 BKN013 00/M03 Q1032=
201602171020 METAR ESMX 171020Z 18010KT 9999 BKN013 M00/M03 Q1032=
201602170950 METAR ESMX 170950Z 18009KT 9999 BKN014 M01/M03 Q1032=
201602170920 METAR ESMX 170920Z 16006KT 9999 SCT011 M02/M03 Q1033=
201602170850 METAR ESMX 170850Z 17006KT CAVOK M02/M04 Q1033=
201602170820 METAR ESMX 170820Z 16007KT CAVOK M04/M05 Q1033=
201602170750 METAR ESMX 170750Z 16006KT CAVOK M05/M06 Q1033=
201602170720 METAR ESMX 170720Z 15006KT CAVOK M06/M07 Q1033=
201602170650 METAR ESMX 170650Z 16004KT CAVOK M07/M08 Q1033=
201602170620 METAR ESMX 170620Z 15004KT CAVOK M07/M08 Q1034=
201602170550 METAR ESMX 170550Z 14004KT 9999 SCT007 M06/M07 Q1034=
201602170520 METAR ESMX 170520Z 16006KT 9999 BKN005 M06/M07 Q1034=
201602170450 METAR ESMX 170450Z 16005KT 9999 FEW006 SCT008 M07/M08 Q1034=
201602170420 METAR ESMX 170420Z AUTO 14004KT 9999 NCD M09/M10 Q1034=
201602170350 METAR ESMX 170350Z AUTO 14003KT 9999 NCD M10/M11 Q1034=
201602170320 METAR ESMX 170320Z AUTO 16002KT 9999 NCD M10/M11 Q1034=
201602170250 METAR ESMX 170250Z AUTO 15004KT 9999 NCD M09/M10 Q1034=
201602170220 METAR ESMX 170220Z AUTO 16003KT 9999 NCD M09/M10 Q1034=
201602170150 METAR ESMX 170150Z AUTO 15004KT 9999 NCD M07/M09 Q1035=
201602170120 METAR ESMX 170120Z AUTO 18005KT 9999 NCD M06/M08 Q1035=
201602170050 METAR ESMX 170050Z 19005KT CAVOK M06/M08 Q1036=
201602170020 METAR ESMX 170020Z 17004KT CAVOK M07/M09 Q1036=
201602162350 METAR ESMX 162350Z 18004KT CAVOK M06/M09 Q1035=
201602162320 METAR ESMX 162320Z 18005KT CAVOK M05/M08 Q1035=
201602162250 METAR ESMX 162250Z 18006KT CAVOK M05/M08 Q1035=
201602162220 METAR ESMX 162220Z 19006KT CAVOK M05/M08 Q1035=
201602162150 METAR ESMX 162150Z 19006KT CAVOK M05/M08 Q1036=
201602162120 METAR ESMX 162120Z 19004KT CAVOK M06/M09 Q1036=
201602162050 METAR ESMX 162050Z 21004KT CAVOK M06/M08 Q1036=
201602162020 METAR ESMX 162020Z 17003KT CAVOK M06/M08 Q1036=
201602161950 METAR ESMX 161950Z 20004KT CAVOK M04/M07 Q1036=
201602161920 METAR ESMX 161920Z 17003KT CAVOK M04/M07 Q1036=
201602161850 METAR ESMX 161850Z 22003KT CAVOK M04/M07 Q1035=
201602161820 METAR ESMX 161820Z 20005KT CAVOK M03/M07 Q1035=
201602161750 METAR ESMX 161750Z 19004KT CAVOK M02/M07 Q1035=
201602161720 METAR ESMX 161720Z 21004KT CAVOK M03/M07 Q1035=
201602161650 METAR ESMX 161650Z 20004KT CAVOK M02/M06 Q1035=
201602161620 METAR ESMX 161620Z 21003KT CAVOK M01/M06 Q1035=
201602161550 METAR ESMX 161550Z 20004KT CAVOK 00/M06 Q1035=
201602161520 METAR ESMX 161520Z 21005KT CAVOK 01/M06 Q1034=
201602161450 METAR ESMX 161450Z 21005KT 180V250 CAVOK 02/M06 Q1034=
201602161420 METAR ESMX 161420Z 23006KT CAVOK 02/M06 Q1034=
201602161350 METAR ESMX 161350Z 26004KT 230V320 CAVOK 02/M07 Q1035=
201602161320 METAR ESMX 161320Z 25004KT 210V280 CAVOK 02/M05 Q1035=
201602161250 METAR ESMX 161250Z 24004KT 190V280 CAVOK 02/M05 Q1034=
201602161220 METAR ESMX 161220Z 28005KT 240V310 CAVOK 02/M05 Q1034=
201602161150 METAR ESMX 161150Z 27004KT 230V290 CAVOK 01/M06 Q1034=
201602161120 METAR ESMX 161120Z 27005KT CAVOK 01/M05 Q1034=
201602161050 METAR ESMX 161050Z 28004KT CAVOK 00/M05 Q1034=
201602161020 METAR ESMX 161020Z 28004KT CAVOK M01/M05 Q1034=
201602160950 METAR ESMX 160950Z 28003KT 240V300 CAVOK M02/M05 Q1034=
201602160920 METAR ESMX 160920Z 28003KT CAVOK M04/M05 Q1033=
201602160850 METAR ESMX 160850Z 00000KT CAVOK M05/M06 Q1032=
201602160820 METAR ESMX 160820Z 00000KT CAVOK M06/M07 Q1032=
201602160750 METAR ESMX 160750Z 00000KT CAVOK M09/M10 Q1032=
201602160720 METAR ESMX 160720Z 00000KT CAVOK M11/M13 Q1031=
201602160650 METAR ESMX 160650Z 00000KT CAVOK M11/M12 Q1031=
201602160620 METAR ESMX 160620Z 00000KT CAVOK M12/M14 Q1030=
201602160550 METAR ESMX 160550Z 17002KT CAVOK M10/M12 Q1030=
201602160520 METAR ESMX 160520Z 16002KT CAVOK M11/M12 Q1030=
201602160450 METAR ESMX 160450Z 00000KT CAVOK M11/M12 Q1029=
201602160420 METAR ESMX 160420Z AUTO 00000KT 9999 NCD M11/M12 Q1029=
201602160350 METAR ESMX 160350Z AUTO 00000KT 9999 NCD M10/M11 Q1028=
201602160320 METAR ESMX 160320Z AUTO 30003KT 9999 NCD M10/M11 Q1028=
201602160250 METAR ESMX 160250Z AUTO 28002KT 9999 NCD M11/M12 Q1028=
201602160220 METAR ESMX 160220Z AUTO 00000KT 9999 NCD M11/M12 Q1027=
201602160150 METAR ESMX 160150Z AUTO VRB02KT 9999 NCD M10/M11 Q1027=
201602160120 METAR ESMX 160120Z AUTO 27002KT 9999 NCD M10/M12 Q1027=
201602160050 METAR ESMX 160050Z 00000KT CAVOK M10/M11 Q1026=
201602160020 METAR ESMX 160020Z 26002KT CAVOK M09/M10 Q1026=
201602152350 METAR ESMX 152350Z VRB01KT CAVOK M09/M10 Q1025=
201602152320 METAR ESMX 152320Z VRB01KT CAVOK M09/M10 Q1025=
201602152250 METAR ESMX 152250Z 28003KT CAVOK M09/M10 Q1024=
201602152220 METAR ESMX 152220Z VRB02KT CAVOK M09/M10 Q1024=
201602152150 METAR ESMX 152150Z 29003KT CAVOK M08/M09 Q1023=
201602152120 METAR ESMX 152120Z 33001KT CAVOK M07/M08 Q1023=
201602152050 METAR ESMX 152050Z 33004KT CAVOK M07/M09 Q1022=
201602152020 METAR ESMX 152020Z 33007KT CAVOK M06/M08 Q1022=
201602151950 METAR ESMX 151950Z 34006KT CAVOK M06/M09 Q1022=
201602151920 METAR ESMX 151920Z 33007KT CAVOK M05/M08 Q1021=
201602151850 METAR ESMX 151850Z 33007KT CAVOK M05/M08 Q1021=
201602151820 METAR ESMX 151820Z 33006KT CAVOK M06/M08 Q1020=
201602151750 METAR ESMX 151750Z 32005KT CAVOK M05/M08 Q1020=
201602151720 METAR ESMX 151720Z 32005KT CAVOK M05/M07 Q1019=
201602151650 METAR ESMX 151650Z 32005KT 9999 FEW050 M05/M07 Q1019=
201602151620 METAR ESMX 151620Z 33005KT 9999 FEW050 M04/M07 Q1018=
201602151550 METAR ESMX 151550Z 34006KT CAVOK M03/M06 Q1017=
201602151520 METAR ESMX 151520Z 35008KT CAVOK M02/M06 Q1017=
201602151450 METAR ESMX 151450Z 34008KT CAVOK M02/M06 Q1016=
201602151420 METAR ESMX 151420Z 34009KT CAVOK M02/M06 Q1016=
201602151350 METAR ESMX 151350Z 01007KT CAVOK M02/M06 Q1015=
201602151320 METAR ESMX 151320Z 34010KT CAVOK M02/M06 Q1015=
201602151250 METAR ESMX 151250Z 01009KT CAVOK M02/M06 Q1015=
201602151220 METAR ESMX 151220Z 36009KT CAVOK M02/M06 Q1014=
201602151150 METAR ESMX 151150Z 35010KT CAVOK M03/M06 Q1014=
201602151120 METAR ESMX 151120Z 36009KT 9999 FEW045 M03/M07 Q1013=
201602151050 METAR ESMX 151050Z 36010KT 9999 FEW010 BKN100 M03/M07 Q1013=
201602151020 METAR ESMX 151020Z 35009KT 9999 FEW012 BKN100 M04/M06 Q1013=
201602150950 METAR ESMX 150950Z 01011KT 9999 SCT012 BKN100 M04/M06 Q1012=
201602150920 METAR ESMX 150920Z 01011KT 9999 SCT012 SCT080 M04/M06 Q1012=
201602150850 METAR ESMX 150850Z 01010KT 9999 FEW010 BKN080 M04/M06 Q1011=
201602150820 METAR ESMX 150820Z 02009KT 9999 SCT010 BKN080 M04/M07 Q1011=
201602150750 METAR ESMX 150750Z 02007KT 9999 SCT010 BKN050 M05/M07 Q1011=
201602150720 METAR ESMX 150720Z 02007KT 9999 OVC008 M05/M07 Q1010=
201602150650 METAR ESMX 150650Z 01008KT 9999 FEW008 BKN009 M06/M07 Q1010=
201602150620 METAR ESMX 150620Z 01009KT 9999 SCT009 BKN080 M05/M07 Q1009=
201602150550 METAR ESMX 150550Z 02008KT 9999 FEW009 M05/M06 Q1008=
201602150520 METAR ESMX 150520Z 35007KT CAVOK M05/M06 Q1008=
201602150450 METAR ESMX 150450Z 36007KT CAVOK M05/M06 Q1007=
201602150420 METAR ESMX 150420Z AUTO 36007KT 9999 FEW057/// M05/M07 Q1007=
201602150350 METAR ESMX 150350Z AUTO 36008KT 9999 BKN056/// M05/M06 Q1006=
201602150320 METAR ESMX 150320Z AUTO 36008KT 9999 OVC057/// M04/M06 Q1006=
201602150250 METAR ESMX 150250Z AUTO 36007KT 9999 BKN057/// M04/M06 Q1006=
201602150220 METAR ESMX 150220Z AUTO 36006KT 9999 FEW057/// M05/M06 Q1005=
201602150150 METAR ESMX 150150Z AUTO 36006KT 9999 NCD M05/M06 Q1005=
201602150120 METAR ESMX 150120Z AUTO 01008KT 9999 SCT016/// M03/M06 Q1004=
201602150050 METAR ESMX 150050Z AUTO 01009KT 9999 BKN012/// OVC017/// M02/M05 Q1004=
201602150020 METAR ESMX 150020Z 01008KT 9999 OVC011 M02/M05 Q1003=
201602142350 METAR ESMX 142350Z 01008KT 9999 BKN012 M02/M05 Q1003=
201602142320 METAR ESMX 142320Z 01007KT 9999 BKN012 M02/M05 Q1003=
201602142250 METAR ESMX 142250Z 02006KT 9999 OVC013 M02/M05 Q1003=
201602142220 METAR ESMX 142220Z 03006KT 360V060 9999 BKN012 OVC052 M02/M05 Q1003=
201602142150 METAR ESMX 142150Z 01010KT 9999 OVC014 M02/M05 Q1002=
201602142120 METAR ESMX 142120Z 01008KT 9999 OVC014 M01/M04 Q1002=
201602142050 METAR ESMX 142050Z 03007KT 9999 OVC015 M01/M04 Q1002=
201602142020 METAR ESMX 142020Z 04006KT 010V070 9999 FEW019 OVC049 M01/M04 Q1002=
201602141950 METAR ESMX 141950Z 02007KT 9999 FEW020 OVC051 M01/M03 Q1002=
201602141920 METAR ESMX 141920Z 36008KT 9999 FEW008 BKN010 M01/M02 Q1001=
201602141850 METAR ESMX 141850Z 03009KT 360V060 9999 OVC008 M00/M02 Q1001=
201602141820 METAR ESMX 141820Z 02007KT 9999 OVC008 M00/M02 Q1000=
201602141750 METAR ESMX 141750Z 01007KT 9999 OVC008 M00/M02 Q1000=
201602141720 METAR ESMX 141720Z 36008KT 9999 OVC008 M00/M02 Q1000=
201602141650 METAR ESMX 141650Z 03007KT 9999 OVC008 M00/M02 Q0999=
201602141620 METAR ESMX 141620Z 04008KT 9999 BKN009 M00/M02 Q0999=
201602141550 METAR ESMX 141550Z 04008KT 9999 BKN010 M00/M02 Q0998=
201602141520 METAR ESMX 141520Z 03006KT 9999 SCT012 OVC054 M00/M02 Q0998=
201602141450 METAR ESMX 141450Z 02006KT 9999 BKN053 00/M02 Q0998=
201602141420 METAR ESMX 141420Z 03007KT 9999 BKN013 OVC053 00/M02 Q0998=
201602141350 METAR ESMX 141350Z 03007KT 9999 OVC012 00/M02 Q0998=
201602141320 METAR ESMX 141320Z 05006KT 9999 OVC011 00/M02 Q0998=
201602141250 METAR ESMX 141250Z 03008KT 9999 FEW011 OVC052 00/M02 Q0998=
201602141220 METAR ESMX 141220Z 02006KT 9999 OVC051 00/M02 Q0997=
201602141150 METAR ESMX 141150Z 03007KT 9999 OVC049 M00/M02 Q0997=
201602141120 METAR ESMX 141120Z AUTO 03008KT 9999 FEW008/// OVC049/// M00/M02 Q0997=
201602141050 METAR ESMX 141050Z AUTO 01007KT 9999 OVC048/// M00/M02 Q0997=
201602141020 METAR ESMX 141020Z AUTO 01006KT 9999 SCT006/// BKN008/// OVC048/// M01/M02 Q0997=
201602140950 METAR ESMX 140950Z AUTO 03006KT 9999 SCT005/// OVC046/// M01/M02 Q0997=
201602140920 METAR ESMX 140920Z AUTO 02006KT 9999 FEW005/// OVC045/// M02/M03 Q0997=
201602140850 METAR ESMX 140850Z AUTO 04007KT 9999 FEW006/// OVC017/// M02/M02 Q0997=
201602140820 METAR ESMX 140820Z AUTO 03004KT 9999 BKN018/// OVC046/// M02/M02 Q0996=
201602140750 METAR ESMX 140750Z 02004KT 350V060 9999 FEW006 BKN023 BKN046 M02/M03 Q0996=
201602140720 METAR ESMX 140720Z 05005KT 010V080 9999 FEW005 SCT035 M02/M02 Q0996=
201602140650 METAR ESMX 140650Z 02005KT 9999 BKN031 M02/M02 Q0996=
201602140620 METAR ESMX 140620Z 01005KT 9999 BR OVC028 M02/M02 Q0996=
201602140550 METAR ESMX 140550Z AUTO 03005KT 9999 FEW021/// OVC027/// M02/M02 Q0996=
201602140520 METAR ESMX 140520Z AUTO 03004KT 350V060 9999 FEW003/// OVC023/// M01/M02 Q0996=
201602140450 METAR ESMX 140450Z AUTO VRB03KT 6000 BR SCT002/// OVC020/// M02/M02 Q0996=
201602140420 METAR ESMX 140420Z AUTO VRB02KT 7000 BR OVC002/// M02/M02 Q0996=
201602140350 METAR ESMX 140350Z AUTO 00000KT 6000 BR FEW001/// OVC017/// M01/M02 Q0996=
201602140320 METAR ESMX 140320Z AUTO 00000KT 7000 BR FEW001/// OVC016/// M01/M02 Q0996=
201602140250 METAR ESMX 140250Z AUTO 04003KT 020V080 5000 OVC001/// M01/M02 Q0996=
201602140220 METAR ESMX 140220Z AUTO 01003KT 2200 OVC001/// M01/M02 Q0996=
201602140150 METAR ESMX 140150Z AUTO 01004KT 0900 R01/P2000N R19/P2000N BR VV002 M02/M02 Q0996=
201602140120 METAR ESMX 140120Z AUTO 36003KT 1800 OVC001/// M02/M02 Q0996=
201602140050 METAR ESMX 140050Z AUTO 36005KT 1800 OVC001/// M01/M02 Q0996=
201602140020 METAR ESMX 140020Z AUTO 36003KT 1000 R01/P2000N R19/P2000N OVC001/// M01/M02 Q0996=
201602132350 METAR ESMX 132350Z AUTO VRB02KT 1000 R01/P2000N R19/P2000N -SN VV002 M01/M02 Q0996=
201602132320 METAR ESMX 132320Z AUTO 01003KT 0900 R01/P2000N R19/P2000N FZFG VV002 M01/M02 Q0996=
201602132250 METAR ESMX 132250Z AUTO 02004KT 0700 R01/1700N R19/1800U -SN VV001 M01/M02 Q0996=
201602132220 METAR ESMX 132220Z AUTO 01003KT 0400 R01/1100N R19/1500D -SN VV001 M01/M02 Q0996=
201602132150 METAR ESMX 132150Z AUTO 02003KT 0350 R01/1100D R19/1100N -SN VV001 M01/M02 Q0996 RESHUP=
201602132120 METAR ESMX 132120Z AUTO 02003KT 1300 R01/P2000N R19/P2000N SG VV002 M01/M02 Q0996 RESHUP REUP=
201602132050 METAR ESMX 132050Z 02003KT 9999 -SN OVC001 M02/M02 Q0996=
201602132020 METAR ESMX 132020Z 02003KT 9999 -SN OVC002 M02/M02 Q0996=
201602131950 METAR ESMX 131950Z 32002KT 9999 -SN OVC004 M02/M03 Q0997=
201602131920 METAR ESMX 131920Z 00000KT 9999 -SN OVC002 M02/M02 Q0997=
201602131850 METAR ESMX 131850Z AUTO VRB02KT 9999 OVC002/// M02/M03 Q0997 RESHUP REFZUP=
201602131820 METAR ESMX 131820Z AUTO 03003KT 9999 OVC004/// M02/M03 Q0997 RESHUP REFZUP=
201602131750 METAR ESMX 131750Z AUTO 36002KT 9999 OVC005/// M03/M04 Q0997=
201602131720 METAR ESMX 131720Z AUTO 36001KT 9999 OVC005/// M03/M03 Q0997=
201602131650 METAR ESMX 131650Z AUTO 01002KT 9000 BR BKN005/// BKN041/// M04/M05 Q0997 RESHUP REFZUP=
201602131620 METAR ESMX 131620Z AUTO 36002KT 9999 BKN036/// BKN060/// M03/M03 Q0997=
201602131550 METAR ESMX 131550Z AUTO 02002KT 9999 BKN034/// BKN062/// M02/M03 Q0997=
201602131520 METAR ESMX 131520Z AUTO 03002KT 9999 FEW035/// BKN062/// M02/M03 Q0997=
201602131450 METAR ESMX 131450Z AUTO 08003KT 050V110 9999 FEW007/// M01/M03 Q0997=
201602131420 METAR ESMX 131420Z AUTO 06004KT 020V100 9999 FEW007/// SCT017/// M01/M03 Q0997 RESHUP=
201602131350 METAR ESMX 131350Z AUTO 07004KT 030V100 9999 FZUP FEW007/// SCT018/// BKN020/// M01/M02 Q0997 REFZUP RESHUP=
201602131320 METAR ESMX 131320Z AUTO 07004KT 040V100 9999 OVC018/// M01/M03 Q0997=
201602131250 METAR ESMX 131250Z AUTO 06003KT 010V110 9999 SCT005/// BKN020/// OVC027/// M01/M03 Q0997 RESHUP REFZUP=
201602131220 METAR ESMX 131220Z AUTO 07004KT 020V110 9999 BKN004/// BKN025/// M02/M03 Q0997=
201602131150 METAR ESMX 131150Z AUTO VRB02KT 1000 R01/1000N R19/1100N -SN VV003 M02/M03 Q0998=
201602131120 METAR ESMX 131120Z AUTO VRB02KT 3800 -SN FEW001/// SCT005/// BKN028/// M02/M03 Q0998=
201602131050 METAR ESMX 131050Z AUTO VRB02KT 1000 R01/1400U R19/1200U -SN VV002 M02/M03 Q0998=
201602131020 METAR ESMX 131020Z AUTO 00000KT 0800 R01/1500D R19/1400U SN FEW001/// SCT005/// BKN015/// M02/M03 Q0998=
201602130950 METAR ESMX 130950Z AUTO VRB03KT 3300 -SN FEW009/// OVC037/// M03/M04 Q0999 REFZUP=
201602130920 METAR ESMX 130920Z AUTO 12004KT 9999 FZUP FEW008/// BKN039/// M03/M04 Q0999=
201602130850 METAR ESMX 130850Z AUTO 15005KT 6000 -SN FEW014/// BKN053/// M03/M05 Q0999=
201602130820 METAR ESMX 130820Z AUTO 15005KT 9999 -SN BKN052/// M04/M05 Q0999 RESHUP REFZUP=
201602130750 METAR ESMX 130750Z AUTO 15004KT 9999 BKN064/// M04/M05 Q0999=
201602130720 METAR ESMX 130720Z AUTO 15005KT 9999 BKN072/// M05/M06 Q0999=
201602130650 METAR ESMX 130650Z AUTO 15004KT 9999 BKN072/// M05/M06 Q0999=
201602130620 METAR ESMX 130620Z AUTO 16004KT 9999 OVC072/// M05/M06 Q0999=
201602130550 METAR ESMX 130550Z AUTO 16004KT 9999 OVC072/// M06/M07 Q0999=
201602130520 METAR ESMX 130520Z AUTO 18003KT 9999 BKN075/// M06/M07 Q0999=
201602130450 METAR ESMX 130450Z AUTO 16004KT 9999 BKN075/// M06/M07 Q0999=
201602130420 METAR ESMX 130420Z AUTO 16004KT 9999 NCD M06/M08 Q0999=
201602130350 METAR ESMX 130350Z AUTO 16004KT 9999 NCD M06/M07 Q0999=
201602130320 METAR ESMX 130320Z AUTO 16003KT 9999 NCD M07/M08 Q0999=
201602130250 METAR ESMX 130250Z AUTO 18004KT 9999 NCD M06/M07 Q0999=
201602130220 METAR ESMX 130220Z AUTO 20006KT 9999 NCD M07/M08 Q0999=
201602130150 METAR ESMX 130150Z AUTO 20005KT 9999 NCD M06/M08 Q0999=
201602130120 METAR ESMX 130120Z AUTO 22006KT 9999 NCD M06/M07 Q0999=
201602130050 METAR ESMX 130050Z AUTO 21007KT 9999 NCD M06/M07 Q0999=
201602130020 METAR ESMX 130020Z AUTO 22006KT 9999 NCD M06/M07 Q0999=
201602122350 METAR ESMX 122350Z AUTO 22006KT 9999 NCD M05/M06 Q0999=
201602122320 METAR ESMX 122320Z AUTO 22007KT 9999 NCD M05/M06 Q0999=
201602122250 METAR ESMX 122250Z AUTO 21005KT 9999 NCD M05/M06 Q0999=
201602122220 METAR ESMX 122220Z AUTO 22006KT 9999 NCD M05/M06 Q0998=
201602122150 METAR ESMX 122150Z AUTO 22005KT 9999 NCD M05/M06 Q0998=
201602122120 METAR ESMX 122120Z AUTO 19005KT 9999 NCD M05/M07 Q0998=
201602122050 METAR ESMX 122050Z AUTO 21005KT 9999 NCD M05/M06 Q0998=
201602122020 METAR ESMX 122020Z 21005KT CAVOK M04/M06 Q0998=
201602121950 METAR ESMX 121950Z 21004KT 9999 BKN027 M04/M05 Q0998=
201602121920 METAR ESMX 121920Z 19004KT 9999 FEW034 M04/M05 Q0998=
201602121850 METAR ESMX 121850Z 17002KT 9999 BKN032 M04/M05 Q0998=
201602121820 METAR ESMX 121820Z 00000KT CAVOK M04/M05 Q0998=
201602121750 METAR ESMX 121750Z 00000KT CAVOK M04/M05 Q0998=
201602121720 METAR ESMX 121720Z 00000KT CAVOK M04/M06 Q0998=
201602121650 METAR ESMX 121650Z 27002KT 9999 BKN036 M03/M05 Q0998=
201602121620 METAR ESMX 121620Z 29001KT 9999 SCT035 M02/M05 Q0998=
201602121550 METAR ESMX 121550Z 29004KT 9999 BKN032 M02/M05 Q0998=
201602121520 METAR ESMX 121520Z 30005KT 9999 FEW027 BKN035 M01/M05 Q0997=
201602121450 METAR ESMX 121450Z 29006KT 9999 BKN032 M01/M05 Q0997=
201602121420 METAR ESMX 121420Z 30007KT 9999 FEW027 BKN031 M01/M05 Q0997=
201602121350 METAR ESMX 121350Z 29006KT 240V320 9999 BKN025 M01/M06 Q0997=
201602121320 METAR ESMX 121320Z 26009KT 9999 FEW020 BKN024 M01/M05 Q0997=
201602121250 METAR ESMX 121250Z 28006KT 250V330 9999 BKN020 M01/M05 Q0997=
201602121220 METAR ESMX 121220Z 28007KT 240V310 9999 OVC018 M01/M04 Q0997=
201602121150 METAR ESMX 121150Z 30007KT 260V330 9999 SCT017 BKN020 M01/M05 Q0997=
201602121120 METAR ESMX 121120Z 29006KT 9999 BKN016 M01/M05 Q0997=
201602121050 METAR ESMX 121050Z 30006KT 9999 FEW015 M01/M05 Q0997=
201602121020 METAR ESMX 121020Z 31008KT 290V350 9999 SCT014 M01/M04 Q0997=
201602120950 METAR ESMX 120950Z 30008KT 9999 SCT010 M02/M05 Q0997=
201602120920 METAR ESMX 120920Z 31005KT 280V340 9999 FEW010 SCT100 M02/M04 Q0997=
201602120850 METAR ESMX 120850Z 31006KT 9999 SCT009 SCT100 M02/M04 Q0997=
201602120820 METAR ESMX 120820Z 30006KT 9999 SCT007 BKN012 M02/M03 Q0997=
201602120750 METAR ESMX 120750Z 29006KT 9999 SCT007 BKN010 M02/M03 Q0997=
201602120720 METAR ESMX 120720Z 31006KT 9999 BKN010 OVC014 M01/M02 Q0997=
201602120650 METAR ESMX 120650Z 30006KT 9999 SG FEW004 BKN012 M01/M02 Q0997=
201602120620 METAR ESMX 120620Z 30002KT 2500 -SN FEW005 BKN009 M01/M02 Q0997=
201602120550 METAR ESMX 120550Z 30004KT 5000 -SN FEW015 OVC018 M01/M02 Q0997=
201602120520 METAR ESMX 120520Z 32005KT 2400 SN FEW008 SCT021 BKN047 M01/M02 Q0997=
201602120450 METAR ESMX 120450Z 33005KT 8000 -SN FEW007 SCT032 BKN047 M01/M02 Q0997=
201602120420 METAR ESMX 120420Z AUTO 34005KT 9999 -SN FEW007/// SCT010/// BKN032/// M01/M02 Q0997=
201602120350 METAR ESMX 120350Z AUTO 35007KT 9999 -SN FEW008/// SCT011/// OVC013/// M01/M02 Q0997=
201602120320 METAR ESMX 120320Z AUTO 33006KT 9999 -SN FEW007/// SCT009/// OVC030/// M00/M02 Q0997=
201602120250 METAR ESMX 120250Z AUTO 33006KT 9999 -SN FEW007/// OVC029/// M00/M01 Q0997 RESG=
201602120220 METAR ESMX 120220Z AUTO 34007KT 9999 SG SCT012/// OVC028/// M00/M01 Q0997=
201602120150 METAR ESMX 120150Z AUTO 35005KT 6000 -RASN FEW006/// SCT008/// OVC010/// M00/M01 Q0997 RESG REFZUP=
201602120120 METAR ESMX 120120Z AUTO 34005KT 9999 -SN FEW007/// OVC024/// M00/M01 Q0997 REUP=
201602120050 METAR ESMX 120050Z 31004KT 3400 SN FEW004 SCT006 BKN013 00/M00 Q0997=
201602120020 METAR ESMX 120020Z 29003KT 9999 -SN FEW007 SCT012 OVC041 00/M00 Q0997=
201602112350 METAR ESMX 112350Z 31004KT 9999 -SN FEW013 BKN024 OVC042 M00/M00 Q0997=
201602112320 METAR ESMX 112320Z 30003KT 9999 -SN FEW024 OVC042 00/M00 Q0997=
201602112250 METAR ESMX 112250Z 32004KT 9999 FEW007 OVC040 00/M00 Q0997=
201602112220 METAR ESMX 112220Z 32003KT 8000 -SN FEW005 BKN010 BKN013 00/00 Q0997=
201602112150 METAR ESMX 112150Z 32003KT 6000 -SN BKN005 00/00 Q0997=
201602112120 METAR ESMX 112120Z 30003KT 7000 -SN FEW007 OVC035 01/00 Q0997=
201602112050 METAR ESMX 112050Z 30003KT 9999 -RA FEW008 BKN038 01/00 Q0997=
201602112020 METAR ESMX 112020Z 32003KT 9999 -SN FEW009 OVC036 01/00 Q0997=
201602111950 METAR COR ESMX 111950Z 31003KT 9999 -SN BKN007 OVC015 01/00 Q0997=
201602111920 METAR ESMX 111920Z 29004KT 9999 OVC005 01/00 Q0997=
201602111850 METAR ESMX 111850Z 31004KT 9999 BKN005 01/00 Q0997=
201602111820 METAR ESMX 111820Z 32003KT 9999 SCT006 OVC038 01/00 Q0997=
201602111750 METAR ESMX 111750Z 31003KT 9999 FEW006 OVC036 01/00 Q0996=
201602111720 METAR ESMX 111720Z 34004KT 9999 FEW005 BKN010 01/00 Q0996=
201602111650 METAR ESMX 111650Z 34005KT 9999 BKN007 01/01 Q0996=
201602111620 METAR ESMX 111620Z 32004KT 9999 FEW006 SCT009 BKN013 02/01 Q0996=
201602111550 METAR ESMX 111550Z 32008KT 9000 SCT007 BKN010 02/01 Q0996=
201602111520 METAR ESMX 111520Z 32004KT 9999 -DZ SCT008 BKN010 02/01 Q0996=
201602111450 METAR ESMX 111450Z 29004KT 7000 -RA SCT008 BKN012 OVC025 02/01 Q0995 REDZ=
201602111420 METAR ESMX 111420Z 28007KT 5000 -SN FEW007 BKN020 02/01 Q0995=
201602111350 METAR ESMX 111350Z 31004KT 9999 BKN020 OVC027 03/00 Q0995=
201602111320 METAR ESMX 111320Z 32006KT 9999 BKN010 OVC017 03/00 Q0995=
201602111250 METAR ESMX 111250Z 32007KT 9999 BKN010 OVC016 03/01 Q0994=
201602111220 METAR ESMX 111220Z 30006KT 9999 FEW007 SCT009 BKN013 03/02 Q0994=
201602111150 METAR ESMX 111150Z 33005KT 300V360 9999 FEW007 SCT011 BKN020 03/02 Q0994=
201602111120 METAR ESMX 111120Z 35004KT 9999 FEW007 BKN009 02/01 Q0994=
201602111050 METAR ESMX 111050Z 35005KT 9999 -DZ FEW003 BKN008 02/01 Q0994=
201602111020 METAR ESMX 111020Z 35005KT 9999 -DZ FEW007 BKN009 02/02 Q0994=
201602110950 METAR ESMX 110950Z 32005KT 9999 SCT002 BKN006 02/02 Q0993=
201602110920 METAR ESMX 110920Z 29004KT 4000 BR OVC002 02/02 Q0993=
201602110850 METAR ESMX 110850Z 28004KT 240V310 4000 BR OVC002 02/02 Q0993=
201602110820 METAR ESMX 110820Z 26004KT 210V290 4000 BR OVC002 02/02 Q0993=
201602110750 METAR ESMX 110750Z 24004KT 3000 BR OVC002 02/02 Q0993=
201602110720 METAR ESMX 110720Z 22004KT 2500 BR OVC002 02/02 Q0992=
201602110650 METAR ESMX 110650Z 23004KT 3000 BR OVC002 02/02 Q0992=
201602110620 METAR ESMX 110620Z 24004KT 5000 BR OVC002 02/02 Q0992=
201602110550 METAR ESMX 110550Z 22004KT 190V260 4700 BR OVC002 02/02 Q0992=
201602110520 METAR ESMX 110520Z 23005KT 4600 -DZ OVC001 02/01 Q0992=
201602110450 METAR ESMX 110450Z 23005KT 5000 -DZ OVC002 02/01 Q0991=
201602110420 METAR ESMX 110420Z AUTO 23005KT 4900 DZ OVC003/// 02/01 Q0991=
201602110350 METAR ESMX 110350Z AUTO 23005KT 7000 -DZ OVC004/// 02/01 Q0991 RESHUP REDZ=
201602110320 METAR ESMX 110320Z AUTO 23006KT 8000 BR OVC004/// 02/01 Q0991=
201602110250 METAR ESMX 110250Z AUTO 22005KT 6000 -DZ FEW005/// SCT007/// BKN008/// 02/01 Q0991 RERA=
201602110220 METAR ESMX 110220Z AUTO 22005KT 9999 FEW004/// BKN006/// OVC008/// 02/01 Q0991 REDZ=
201602110150 METAR ESMX 110150Z AUTO 22005KT 9999 OVC004/// 02/02 Q0990 RESHUP=
201602110120 METAR ESMX 110120Z AUTO 23005KT 9999 -DZ OVC004/// 02/01 Q0990 REUP=
201602110050 METAR ESMX 110050Z 21005KT 9999 OVC003 02/01 Q0990=
201602110020 METAR ESMX 110020Z 21004KT 9999 SCT003 OVC006 02/01 Q0990=
201602102350 METAR ESMX 102350Z 21005KT 9999 SCT004 OVC006 02/01 Q0990=
201602102320 METAR ESMX 102320Z 21006KT 9999 SCT004 BKN007 OVC009 02/01 Q0990=
201602102250 METAR ESMX 102250Z 19006KT 9999 OVC003 02/01 Q0989=
201602102220 METAR ESMX 102220Z 21006KT 9000 FEW003 BKN005 02/01 Q0989=
201602102150 METAR ESMX 102150Z 19006KT 9000 BR SCT003 BKN018 02/01 Q0989=
201602102120 METAR ESMX 102120Z 20005KT 9000 BR FEW004 SCT006 OVC015 02/01 Q0989=
201602102050 METAR ESMX 102050Z 21006KT 9999 OVC005 02/01 Q0989=
201602102020 METAR ESMX 102020Z 21006KT 9999 FEW004 BKN006 OVC011 02/01 Q0988=
201602101950 METAR ESMX 101950Z 21007KT 9999 -DZ BKN005 BKN051 02/01 Q0988=
201602101920 METAR ESMX 101920Z 22006KT 9999 FEW022 SCT037 OVC047 02/01 Q0988=
201602101850 METAR ESMX 101850Z 24007KT 9999 FEW006 SCT020 OVC030 02/01 Q0988=
201602101820 METAR ESMX 101820Z 23009KT 9999 BKN006 OVC010 02/01 Q0988=
201602101750 METAR ESMX 101750Z 22007KT 9999 FEW005 SCT008 BKN009 03/02 Q0987=
201602101720 METAR ESMX 101720Z 21007KT 9999 FEW007 SCT009 BKN011 02/02 Q0987=
201602101650 METAR ESMX 101650Z 23007KT 9999 SCT007 BKN010 OVC041 02/01 Q0986=
201602101620 METAR ESMX 101620Z 25008KT 9999 FEW007 SCT008 BKN010 02/01 Q0986=
201602101550 METAR ESMX 101550Z 23010KT 190V250 9999 FEW007 SCT008 BKN010 02/01 Q0986=
201602101520 METAR ESMX 101520Z 24010KT 9999 FEW007 SCT009 BKN011 02/01 Q0985=
201602101450 METAR ESMX 101450Z 25010KT 9999 FEW008 BKN015 02/01 Q0984=
201602101420 METAR ESMX 101420Z 25010KT 9999 FEW006 BKN009 02/01 Q0984=
201602101350 METAR ESMX 101350Z 25010KT 220V280 8000 BR FEW006 SCT008 BKN013 02/01 Q0983=
201602101320 METAR ESMX 101320Z 26011KT 9999 SCT007 BKN009 02/01 Q0982=
201602101250 METAR ESMX 101250Z 24010KT 9999 -RA SCT006 BKN009 02/01 Q0982=
201602101220 METAR COR ESMX 101220Z 25009KT 5000 RASN FEW004 OVC006 02/01 Q0981=
201602101150 METAR ESMX 101150Z 25010KT 4500 BR OVC004 02/01 Q0980=
201602101120 METAR ESMX 101120Z 25010KT 5000 BR BKN003 OVC004 02/01 Q0979=
201602101050 METAR ESMX 101050Z 24010KT 6000 BR BKN002 OVC004 02/01 Q0978=
201602101020 METAR ESMX 101020Z 22012KT 9999 FEW003 BKN005 03/02 Q0978=
201602100950 METAR ESMX 100950Z 20010KT 6000 RA FEW004 BKN005 OVC007 04/03 Q0977=
201602100920 METAR ESMX 100920Z 16008KT 7000 RA FEW003 OVC005 04/04 Q0977=
201602100850 METAR ESMX 100850Z 16006KT 140V200 4400 DZ FEW003 BKN006 04/04 Q0976=
201602100820 METAR ESMX 100820Z 15006KT 9999 BKN005 BKN015 04/04 Q0975=
201602100750 METAR ESMX 100750Z 16003KT 9000 -DZ FEW003 OVC004 04/04 Q0975=
201602100720 METAR ESMX 100720Z 00000KT 6000 -DZ BKN002 OVC005 03/03 Q0975=
201602100650 METAR ESMX 100650Z 02003KT 7000 RA OVC002 03/02 Q0975=
201602100620 METAR ESMX 100620Z 02004KT 8000 -RA OVC002 02/02 Q0975=
201602100550 METAR ESMX 100550Z 03003KT 350V070 3500 RA OVC002 02/02 Q0975=
201602100520 METAR ESMX 100520Z 06004KT 020V120 8000 -RA OVC002 02/02 Q0975=
201602100450 METAR ESMX 100450Z 04007KT 6000 RA OVC004 02/01 Q0976=
201602100420 METAR ESMX 100420Z AUTO 04010KT 8000 -RA OVC004/// 01/01 Q0976=
201602100350 METAR ESMX 100350Z AUTO 04008KT 9999 -DZ OVC003/// 01/01 Q0976=
201602100320 METAR ESMX 100320Z AUTO 05008KT 030V090 3500 -SN FEW003/// OVC005/// 01/01 Q0977 RERA=
201602100250 METAR ESMX 100250Z AUTO 04006KT 360V080 4400 RA BKN005/// OVC007/// 02/01 Q0978=
201602100220 METAR ESMX 100220Z AUTO 04007KT 010V070 9999 -RA BKN005/// OVC008/// 02/02 Q0978=
201602100150 METAR ESMX 100150Z AUTO 04007KT 010V080 6000 -RA FEW004/// BKN006/// BKN010/// 02/02 Q0979=
201602100120 METAR ESMX 100120Z AUTO 07005KT 030V110 9999 DZ FEW006/// SCT008/// BKN054/// 02/02 Q0980 REDZ=
201602100050 METAR ESMX 100050Z 07005KT 030V110 7000 -RA FEW018 SCT021 BKN030 02/02 Q0981=
201602100020 METAR ESMX 100020Z 07005KT 030V100 5000 RA FEW016 BKN021 02/01 Q0981=
201602092350 METAR ESMX 092350Z 08004KT 030V140 9999 -DZ SCT024 BKN059 02/01 Q0982=
201602092320 METAR ESMX 092320Z 08004KT 050V120 9999 SCT026 02/01 Q0982=
201602092250 METAR ESMX 092250Z 07006KT 9999 FEW026 SCT032 BKN039 02/01 Q0983=
201602092220 METAR ESMX 092220Z 11004KT 080V160 9000 SCT027 BKN048 OVC054 02/01 Q0984=
201602092150 METAR ESMX 092150Z 10004KT 060V130 9999 SCT044 BKN056 01/01 Q0984=
201602092120 METAR COR ESMX 092120Z 10004KT 9999 FEW023 SCT055 02/01 Q0984=
201602092050 METAR ESMX 092050Z 12005KT 090V170 9999 FEW026 SCT032 BKN041 02/01 Q0985 REDZ=
201602092020 METAR ESMX 092020Z 15005KT 9999 SCT035 OVC047 02/01 Q0985=
201602091950 METAR ESMX 091950Z 16007KT 9999 BKN038 03/01 Q0985=
201602091920 METAR ESMX 091920Z 16006KT CAVOK 03/02 Q0985=
201602091850 METAR ESMX 091850Z 17006KT 9999 FEW012 BKN037 03/02 Q0985=
201602091820 METAR ESMX 091820Z 17009KT 9999 OVC028 04/02 Q0985=
201602091750 METAR ESMX 091750Z 17011KT 9999 FEW009 SCT015 BKN032 04/03 Q0985=
201602091720 METAR ESMX 091720Z 18010KT 9999 FEW007 BKN013 BKN032 04/03 Q0985=
201602091650 METAR ESMX 091650Z 18010KT 9999 FEW007 BKN010 OVC014 04/03 Q0985=
201602091620 METAR ESMX 091620Z 19012KT 9999 -DZ FEW006 SCT009 BKN011 04/03 Q0985=
201602091550 METAR ESMX 091550Z 19010KT 6000 -DZ FEW005 SCT008 BKN010 04/03 Q0984=
201602091520 METAR ESMX 091520Z 20013KT 5000 -RA FEW007 SCT009 BKN013 04/04 Q0984=
201602091450 METAR ESMX 091450Z 21012KT 9999 FEW007 BKN010 05/04 Q0984=
201602091420 METAR ESMX 091420Z 20012KT 9999 FEW006 BKN009 05/04 Q0983=
201602091350 METAR ESMX 091350Z 20012KT 9000 -RA FEW006 BKN011 05/04 Q0983=
201602091320 METAR ESMX 091320Z 21011KT 9999 -RA SCT007 BKN008 05/04 Q0983=
201602091250 METAR ESMX 091250Z 20011KT 8000 -RA SCT008 BKN012 05/04 Q0983=
201602091220 METAR ESMX 091220Z 20015KT 9999 -DZ SCT013 BKN015 05/03 Q0983=
201602091150 METAR ESMX 091150Z 20013KT 9999 FEW011 SCT015 BKN017 05/04 Q0983=
201602091120 METAR ESMX 091120Z 20011KT 170V240 9999 FEW007 BKN010 BKN017 05/04 Q0983=
201602091050 METAR ESMX 091050Z 22013KT 8000 -RA FEW008 BKN012 05/04 Q0983=
201602091020 METAR ESMX 091020Z 22011KT 9999 FEW011 BKN016 05/04 Q0983=
201602090950 METAR ESMX 090950Z 23011KT 8000 -RA FEW008 BKN015 05/03 Q0982=
201602090920 METAR ESMX 090920Z 21010KT 8000 -RA FEW007 BKN011 05/04 Q0982=
201602090850 METAR ESMX 090850Z 20010KT 9999 -DZ SCT008 BKN011 04/04 Q0982=
201602090820 METAR ESMX 090820Z 22011KT 8000 -RA FEW008 BKN013 04/03 Q0981=
201602090750 METAR ESMX 090750Z 20012KT 9999 DZ FEW008 BKN010 04/03 Q0981=
201602090720 METAR ESMX 090720Z 19011KT 9999 SCT009 BKN012 04/03 Q0981=
201602090650 METAR ESMX 090650Z 20011KT 9999 SCT012 BKN015 05/04 Q0980=
201602090620 METAR ESMX 090620Z 20011KT 9999 FEW006 SCT009 BKN010 04/04 Q0980=
201602090550 METAR ESMX 090550Z 19013KT 9999 -DZ FEW006 BKN012 05/04 Q0980=
201602090520 METAR ESMX 090520Z 19012KT 9999 BKN005 04/04 Q0980=
201602090450 METAR ESMX 090450Z 18012KT 9999 -DZ FEW006 BKN009 04/03 Q0980=
201602090420 METAR ESMX 090420Z AUTO 18014KT 5000 -RA SCT007/// OVC010/// 04/03 Q0980=
201602090350 METAR ESMX 090350Z AUTO 17013KT 6000 -RA FEW004/// OVC006/// 04/03 Q0980 REDZ=
201602090320 METAR ESMX 090320Z AUTO 17011KT 6000 DZ FEW005/// BKN007/// OVC009/// 04/03 Q0980=
201602090250 METAR ESMX 090250Z AUTO 17012KT 5000 -RA FEW006/// BKN007/// BKN012/// 04/03 Q0980 REDZ=
201602090220 METAR ESMX 090220Z AUTO 16011KT 9999 -DZ FEW006/// BKN008/// OVC010/// 04/03 Q0980=
201602090150 METAR ESMX 090150Z AUTO 17012KT 9999 -RA FEW007/// OVC009/// 04/03 Q0981=
201602090120 METAR ESMX 090120Z AUTO 16010KT 9999 -DZ FEW007/// SCT009/// BKN011/// 04/03 Q0981=
201602090050 METAR ESMX 090050Z 16012KT 9999 -DZ FEW008 BKN010 04/03 Q0982=
201602090020 METAR ESMX 090020Z 16011KT 9999 -DZ FEW007 SCT009 BKN011 04/03 Q0982=
201602082350 METAR ESMX 082350Z 17011KT 9999 FEW007 SCT009 BKN011 04/03 Q0982=
201602082320 METAR ESMX 082320Z 17010KT 9999 FEW007 SCT009 BKN011 04/03 Q0982=
201602082250 METAR ESMX 082250Z 17010KT 9999 -DZ FEW007 SCT013 BKN024 04/03 Q0983=
201602082220 METAR ESMX 082220Z 16010KT 9999 FEW005 SCT008 BKN013 04/03 Q0983=
201602082150 METAR ESMX 082150Z 16009KT 9999 -DZ FEW007 BKN014 04/03 Q0983=
201602082120 METAR ESMX 082120Z 16009KT 9999 FEW005 SCT014 BKN018 04/04 Q0983=
201602082050 METAR ESMX 082050Z 16008KT 9999 FEW006 SCT008 BKN026 05/04 Q0984=
201602082020 METAR ESMX 082020Z 17009KT 9999 -DZ FEW010 BKN020 05/04 Q0984=
201602081950 METAR ESMX 081950Z 16008KT 9999 FEW014 BKN017 04/04 Q0984=
201602081920 METAR ESMX 081920Z 15008KT 9999 FEW020 BKN028 03/02 Q0984=
201602081850 METAR ESMX 081850Z 19010KT 7000 -RA FEW005 BKN020CB 04/03 Q0984=
201602081820 METAR ESMX 081820Z 17015KT 2000 SHRA FEW006 BKN009CB 05/04 Q0985=
201602081750 METAR ESMX 081750Z 16011KT 9999 SCT009 BKN011 05/04 Q0984=
201602081720 METAR ESMX 081720Z 16012KT 130V190 9999 BKN005 OVC009 05/04 Q0984=
201602081650 METAR ESMX 081650Z 15011KT 9999 SCT008 BKN010 05/04 Q0984=
201602081620 METAR ESMX 081620Z 17011KT 9999 -DZ SCT006 BKN008 04/04 Q0984=
201602081550 METAR ESMX 081550Z 17012KT 8000 -DZ SCT005 BKN007 04/03 Q0985=
201602081520 METAR COR ESMX 081520Z 16012KT 9999 -RADZ BKN005 04/03 Q0985=
201602081450 METAR COR ESMX 081450Z 15011KT 8000 -DZRA SCT005 BKN006 04/03 Q0985=
201602081420 METAR ESMX 081420Z 16012KT 9999 -RA SCT009 BKN010 03/02 Q0985=
201602081350 METAR ESMX 081350Z 17013KT 9999 -RA FEW007 SCT009 BKN010 04/03 Q0985=
201602081320 METAR ESMX 081320Z 16014KT 9999 -RA FEW007 BKN008 04/03 Q0986=
201602081250 METAR ESMX 081250Z 16012G23KT 9999 -RA BKN006 04/03 Q0986=
201602081220 METAR ESMX 081220Z 16012G23KT 9999 -RA BKN006 04/03 Q0986=
201602081150 METAR ESMX 081150Z 16013KT 130V190 9999 -RA BKN007 OVC011 04/03 Q0987=
201602081120 METAR ESMX 081120Z 16015KT 9999 -RA FEW009 BKN011 04/02 Q0987=
201602081050 METAR ESMX 081050Z 16014KT 9999 -RA BKN011 04/02 Q0988=
201602081020 METAR ESMX 081020Z 16015KT 9999 FEW014 BKN020 05/02 Q0988=
201602080950 METAR ESMX 080950Z 17015KT 9999 -DZ BKN014 BKN020 04/02 Q0989=
201602080920 METAR ESMX 080920Z 16013KT 9999 FEW017 04/02 Q0989=
201602080850 METAR ESMX 080850Z 16013KT 9999 FEW011 04/01 Q0990=
201602080820 METAR ESMX 080820Z 17012KT 9999 FEW010 03/01 Q0990=
201602080750 METAR ESMX 080750Z 15011KT CAVOK 03/01 Q0990=
201602080720 METAR ESMX 080720Z 15009KT 9999 FEW015 02/01 Q0991=
201602080650 METAR ESMX 080650Z 16010KT 9999 FEW013 03/01 Q0992=
201602080620 METAR ESMX 080620Z 15010KT CAVOK 03/01 Q0992=
201602080550 METAR ESMX 080550Z 16012KT 9999 FEW025 03/01 Q0992=
201602080520 METAR ESMX 080520Z 16011KT 9999 FEW025 03/01 Q0993=
201602080450 METAR ESMX 080450Z 16010KT 9999 FEW025 03/02 Q0993=
201602080420 METAR ESMX 080420Z AUTO 17010KT 9999 NCD 03/02 Q0993=
201602080350 METAR ESMX 080350Z AUTO 16009KT 9999 BKN046/// 04/02 Q0994=
201602080320 METAR ESMX 080320Z AUTO 16010KT 9999 BKN052/// 04/02 Q0994=
201602080250 METAR ESMX 080250Z AUTO 17009KT 9999 SCT056/// 04/03 Q0994=
201602080220 METAR ESMX 080220Z AUTO 17010KT 9999 BKN050/// 05/02 Q0995=
201602080150 METAR ESMX 080150Z AUTO 17012KT 9999 BKN050/// 05/02 Q0995=
201602080120 METAR ESMX 080120Z AUTO 17010KT 9999 BKN049/// 05/03 Q0995=
201602080050 METAR ESMX 080050Z AUTO 18009KT 9999 SCT048/// 05/03 Q0995=
201602080020 METAR ESMX 080020Z 19009KT 9999 FEW018 BKN050 05/03 Q0996=
201602072350 METAR ESMX 072350Z 18010KT 9999 FEW023 BKN045 BKN058 05/03 Q0996=
201602072320 METAR ESMX 072320Z 19011KT 9999 FEW025 BKN055 06/03 Q0996=
201602072250 METAR ESMX 072250Z 19008KT 9999 FEW030 BKN050 05/03 Q0996=
201602072220 METAR ESMX 072220Z 17006KT 9999 SCT035 BKN080 05/03 Q0996=
201602072150 METAR ESMX 072150Z 16006KT 9999 SCT030 BKN080 05/03 Q0996=
201602072120 METAR ESMX 072120Z 15006KT 9999 FEW040 BKN080 05/04 Q0996=
201602072050 METAR ESMX 072050Z 15006KT 9999 SCT020 BKN080 06/04 Q0996=
201602072020 METAR ESMX 072020Z 18008KT 9999 SCT020 BKN080 06/04 Q0996=
201602071950 METAR ESMX 071950Z 18009KT 9999 SCT020 BKN084 05/04 Q0996=
201602071920 METAR ESMX 071920Z 18010KT 9999 SCT020 BKN080 05/04 Q0996=
201602071850 METAR ESMX 071850Z 17009KT 9999 -RA SCT021 BKN032 05/03 Q0996=
201602071820 METAR ESMX 071820Z 16008KT 9999 SCT020 BKN045 05/03 Q0996=
201602071750 METAR ESMX 071750Z 16009KT 9999 FEW041 BKN047 05/03 Q0996=
201602071720 METAR ESMX 071720Z 16009KT 9999 BKN046 OVC056 04/03 Q0996=
201602071650 METAR ESMX 071650Z 16010KT 9999 FEW045 SCT060 04/03 Q0996=
201602071620 METAR ESMX 071620Z 16010KT CAVOK 04/03 Q0996=
201602071550 METAR ESMX 071550Z 16010KT CAVOK 05/03 Q0996=
201602071520 METAR ESMX 071520Z 16010KT CAVOK 05/03 Q0996=
201602071450 METAR ESMX 071450Z 15010KT CAVOK 06/03 Q0996=
201602071420 METAR ESMX 071420Z 16009KT CAVOK 06/03 Q0996=
201602071350 METAR ESMX 071350Z 15010KT 120V190 CAVOK 06/03 Q0996=
201602071320 METAR ESMX 071320Z 16008KT CAVOK 06/03 Q0996=
201602071250 METAR ESMX 071250Z 16010KT CAVOK 07/04 Q0997=
201602071220 METAR ESMX 071220Z 15010KT CAVOK 07/04 Q0997=
201602071150 METAR ESMX 071150Z 17010KT CAVOK 07/04 Q0998=
201602071120 METAR ESMX 071120Z AUTO 17009KT 9999 FEW009/// 07/04 Q0998=
201602071050 METAR ESMX 071050Z AUTO 16007KT 9999 FEW005/// SCT007/// 06/04 Q0998=
201602071020 METAR ESMX 071020Z AUTO 15008KT 120V190 9000 BR OVC003/// 04/03 Q0998=
201602070950 METAR ESMX 070950Z AUTO 16009KT 5000 BR OVC002/// 04/03 Q0999=
201602070920 METAR ESMX 070920Z AUTO 16007KT 120V190 4700 OVC001/// 04/03 Q0999=
201602070850 METAR ESMX 070850Z AUTO 16008KT 2100 OVC001/// 04/03 Q0999=
201602070820 METAR ESMX 070820Z AUTO 15008KT 120V190 1000 R01/1200U R19/1800N FG OVC001/// 03/03 Q0999=
201602070750 METAR ESMX 070750Z 16007KT 120V190 1300 R01/1800D R19/P2000N OVC001 04/03 Q0999=
201602070720 METAR ESMX 070720Z 16007KT 0750 R01/1400D R19/P2000N FG VV002 04/03 Q1000=
201602070650 METAR ESMX 070650Z 16009KT 2300 BR OVC001 04/03 Q1000=
201602070620 METAR ESMX 070620Z 16009KT 2500 BR OVC001 04/04 Q1000=
201602070550 METAR ESMX 070550Z AUTO 16008KT 3200 BR BKN002/// 04/04 Q1000=
201602070520 METAR ESMX 070520Z AUTO 17008KT 4500 BR FEW006/// 04/04 Q1000=
201602070450 METAR ESMX 070450Z AUTO 16007KT 5000 BR FEW028/// 05/04 Q1000=
201602070420 METAR ESMX 070420Z AUTO 16006KT 5000 BR OVC027/// 05/04 Q1001=
201602070350 METAR ESMX 070350Z AUTO 15007KT 3600 BR FEW003/// SCT005/// OVC032/// 05/04 Q1001=
201602070320 METAR ESMX 070320Z AUTO 15007KT 5000 BR FEW005/// OVC030/// 05/04 Q1001=
201602070250 METAR ESMX 070250Z AUTO 16007KT 5000 BR OVC029/// 05/04 Q1001=
201602070220 METAR ESMX 070220Z AUTO 18007KT 5000 BR OVC030/// 05/04 Q1002=
201602070150 METAR ESMX 070150Z AUTO 17007KT 5000 BR OVC024/// 05/05 Q1002=
201602070120 METAR ESMX 070120Z AUTO 17006KT 4000 BR OVC023/// 05/05 Q1002=
201602070050 METAR ESMX 070050Z AUTO 17007KT 3600 BR BKN003/// OVC031/// 05/05 Q1002=
201602070020 METAR ESMX 070020Z AUTO 16008KT 3300 BR OVC002/// 05/05 Q1003=
201602062350 METAR ESMX 062350Z AUTO 17006KT 2700 BR OVC002/// 05/05 Q1003=
201602062320 METAR ESMX 062320Z AUTO 16007KT 2700 BR OVC003/// 05/05 Q1003=
201602062250 METAR ESMX 062250Z AUTO 17007KT 2600 BR OVC001/// 05/05 Q1004=
201602062220 METAR ESMX 062220Z AUTO 16007KT 2400 BR OVC002/// 05/05 Q1004=
201602062150 METAR ESMX 062150Z AUTO 16007KT 2700 BR OVC002/// 06/05 Q1004=
201602062120 METAR ESMX 062120Z AUTO 16007KT 2500 BR OVC002/// 06/05 Q1004=
201602062050 METAR ESMX 062050Z 16007KT 3500 BR OVC003 06/05 Q1004=
201602062020 METAR ESMX 062020Z 17008KT 5000 BR OVC004 06/06 Q1005=
201602061950 METAR ESMX 061950Z 17009KT 5000 BR OVC002 06/06 Q1005=
201602061920 METAR ESMX 061920Z 17009KT 4000 BR OVC003 06/06 Q1005=
201602061850 METAR ESMX 061850Z AUTO 18010KT 3500 BR OVC001/// 06/06 Q1005 REDZ=
201602061820 METAR ESMX 061820Z AUTO 18009KT 3600 BR OVC001/// 06/06 Q1005=
201602061750 METAR ESMX 061750Z AUTO 17011KT 2900 BR OVC002/// 06/06 Q1005 REDZ=
201602061720 METAR ESMX 061720Z AUTO 18010KT 4100 -DZ OVC002/// 06/06 Q1005 RESHUP REDZ=
201602061650 METAR ESMX 061650Z AUTO 17010KT 4100 BR OVC003/// 06/06 Q1006=
201602061620 METAR ESMX 061620Z AUTO 17009KT 5000 -DZ OVC004/// 06/06 Q1005 REUP=
201602061550 METAR ESMX 061550Z AUTO 18010KT 8000 BR BKN005/// OVC008/// 06/06 Q1006 REDZ=
201602061520 METAR ESMX 061520Z AUTO 20010KT 8000 BR FEW005/// SCT006/// BKN008/// 06/06 Q1006=
201602061450 METAR ESMX 061450Z AUTO 19011KT 6000 BR BKN004/// OVC007/// 06/06 Q1006 RESHUP REDZ=
201602061420 METAR ESMX 061420Z AUTO 19011KT 5000 BR OVC004/// 06/06 Q1006=
201602061350 METAR ESMX 061350Z AUTO 19011KT 6000 BR BKN006/// OVC010/// 07/06 Q1006 REDZ REUP=
201602061320 METAR ESMX 061320Z AUTO 19012KT 9999 BKN003/// OVC008/// 06/06 Q1006=
201602061250 METAR ESMX 061250Z AUTO 19013KT 9999 OVC003/// 06/06 Q1007=
201602061220 METAR ESMX 061220Z AUTO 19012KT 6000 -DZ OVC002/// 06/06 Q1007=
201602061150 METAR ESMX 061150Z AUTO 18012KT 2300 -RA BKN003/// OVC005/// 06/06 Q1007 RESHUP REDZ=
201602061120 METAR ESMX 061120Z AUTO 18011KT 7000 BR OVC003/// 06/06 Q1007=
201602061050 METAR ESMX 061050Z AUTO 18012KT 5000 -DZ OVC002/// 06/05 Q1008 REUP=
201602061020 METAR ESMX 061020Z AUTO 19013KT 4900 UP OVC002/// 05/05 Q1008=
201602060950 METAR ESMX 060950Z AUTO 18011KT 4400 BR OVC001/// 05/05 Q1008=
201602060920 METAR ESMX 060920Z AUTO 17010KT 3500 BR OVC001/// 05/05 Q1008=
201602060850 METAR ESMX 060850Z AUTO 18010KT 5000 BR OVC001/// 05/05 Q1008 REDZ=
201602060820 METAR ESMX 060820Z AUTO 19010KT 4500 OVC001/// 05/05 Q1009=
201602060750 METAR ESMX 060750Z AUTO 18009KT 2000 -RA OVC001/// 05/04 Q1009 REDZ REUP=
201602060720 METAR ESMX 060720Z AUTO 16008KT 0600 R01/1100N R19/1300N FG VV001 04/04 Q1009=
201602060650 METAR ESMX 060650Z AUTO 17008KT 0600 R01/1400D R19/1700D FG VV001 04/04 Q1009=
201602060620 METAR ESMX 060620Z AUTO 17009KT 0650 R01/1600U R19/1700N FG VV001 04/04 Q1010=
201602060550 METAR ESMX 060550Z AUTO 18009KT 0550 R01/1400N R19/1400U FG VV001 03/03 Q1009=
201602060520 METAR ESMX 060520Z AUTO 19007KT 0350 R01/1100U R19/1000N FG VV001 03/03 Q1010=
201602060450 METAR ESMX 060450Z AUTO 17007KT 0300 R01/0900N R19/0900N FG VV001 03/03 Q1010=
201602060420 METAR ESMX 060420Z AUTO 17007KT 0250 R01/0800N R19/0800N FG VV001 03/02 Q1010=
201602060350 METAR ESMX 060350Z AUTO 18007KT 0350 R01/1000N R19/1100N FG VV001 03/02 Q1011=
201602060320 METAR ESMX 060320Z AUTO 17007KT 0550 R01/1400D R19/1600D FG VV001 02/02 Q1011=
201602060250 METAR ESMX 060250Z AUTO 17006KT 1000 R01/P2000N R19/P2000N BR VV001 02/02 Q1011 REDZ=
201602060220 METAR ESMX 060220Z AUTO 17008KT 2600 BR OVC001/// 02/02 Q1011=
201602060150 METAR ESMX 060150Z AUTO 18007KT 3600 OVC001/// 02/02 Q1011 REDZ=
201602060120 METAR ESMX 060120Z AUTO 18008KT 1700 DZ OVC001/// 02/02 Q1012=
201602060050 METAR ESMX 060050Z AUTO 18008KT 1000 R01/P2000N R19/P2000N FG VV002 02/02 Q1012 RESHUP REUP=
201602060020 METAR ESMX 060020Z AUTO 17008KT 0650 R01/1600N R19/1800U FG VV001 02/02 Q1012=
201602052350 METAR ESMX 052350Z AUTO 17008KT 0650 R01/1700D R19/P2000N FG VV001 02/01 Q1012 RERA=
201602052320 METAR ESMX 052320Z AUTO 16009KT 3500 BR OVC001/// 02/01 Q1012=
201602052250 METAR ESMX 052250Z AUTO 17008KT 3600 -RA OVC001/// 02/01 Q1013=
201602052220 METAR ESMX 052220Z AUTO 17007KT 1800 -RA OVC001/// 01/01 Q1013 REDZ=
201602052150 METAR ESMX 052150Z AUTO 17006KT 2200 -DZ OVC001/// 01/01 Q1013 RESHUP=
201602052120 METAR ESMX 052120Z AUTO 17007KT 2600 BR OVC001/// 01/01 Q1013 REUP=
201602052050 METAR ESMX 052050Z AUTO 16007KT 3700 BR OVC002/// 01/01 Q1014=
201602052020 METAR ESMX 052020Z 17006KT 9999 OVC005 01/00 Q1014=
201602051950 METAR ESMX 051950Z 16006KT 9999 BKN005 01/M00 Q1014=
201602051920 METAR ESMX 051920Z 17006KT 9999 SCT006 BKN050 01/M01 Q1014=
201602051850 METAR ESMX 051850Z 18005KT 9999 FEW010 BKN080 01/M01 Q1014=
201602051820 METAR ESMX 051820Z 18006KT 9999 FEW012 OVC080 01/M01 Q1014=
201602051750 METAR ESMX 051750Z 19005KT CAVOK 00/M01 Q1015=
201602051720 METAR ESMX 051720Z 18004KT CAVOK 00/M01 Q1015=
201602051650 METAR ESMX 051650Z 21004KT CAVOK 00/M01 Q1015=
201602051620 METAR ESMX 051620Z 20004KT CAVOK 00/M01 Q1014=
201602051550 METAR ESMX 051550Z 20004KT CAVOK 01/M01 Q1015=
201602051520 METAR ESMX 051520Z 23005KT 9999 FEW017 BKN100 01/M01 Q1015=
201602051450 METAR ESMX 051450Z 24004KT 9999 FEW018 BKN080 02/M01 Q1015=
201602051420 METAR ESMX 051420Z 26007KT 210V290 9999 FEW020 BKN080 02/M02 Q1015=
201602051350 METAR ESMX 051350Z 27009KT 9999 FEW020 BKN080 02/M02 Q1015=
201602051320 METAR ESMX 051320Z 26007KT 9999 FEW046 02/M02 Q1015=
201602051250 METAR ESMX 051250Z 26009KT 9999 FEW017 02/M02 Q1014=
201602051220 METAR ESMX 051220Z 28010KT 230V300 9999 SCT016 01/M02 Q1015=
201602051150 METAR ESMX 051150Z 27010KT 240V300 9999 SCT013 01/M02 Q1014=
201602051120 METAR ESMX 051120Z 25008KT 220V300 9999 SCT012 BKN100 01/M01 Q1015=
201602051050 METAR ESMX 051050Z 25007KT 9999 BKN008 00/M01 Q1015=
201602051020 METAR ESMX 051020Z 25009KT 210V280 9999 BKN006 00/M01 Q1015=
201602050950 METAR ESMX 050950Z 24007KT 9999 BKN006 M00/M01 Q1015=
201602050920 METAR ESMX 050920Z 23006KT 9999 BKN006 M01/M02 Q1015=
201602050850 METAR ESMX 050850Z 24006KT 9999 FEW003 BKN006 M01/M02 Q1015=
201602050820 METAR ESMX 050820Z 23007KT 9999 SCT003 M02/M03 Q1014=
201602050750 METAR ESMX 050750Z 23006KT CAVOK M03/M04 Q1014=
201602050720 METAR ESMX 050720Z 24007KT CAVOK M03/M04 Q1014=
201602050650 METAR ESMX 050650Z 24006KT CAVOK M03/M04 Q1014=
201602050620 METAR ESMX 050620Z 25006KT CAVOK M03/M04 Q1014=
201602050550 METAR ESMX 050550Z 26007KT CAVOK M03/M04 Q1013=
201602050520 METAR ESMX 050520Z 25007KT CAVOK M03/M05 Q1013=
201602050450 METAR ESMX 050450Z 25007KT 9999 FEW046 M03/M05 Q1013=
201602050420 METAR ESMX 050420Z AUTO 26007KT 9999 NCD M03/M05 Q1013=
201602050350 METAR ESMX 050350Z AUTO 24005KT 9999 NCD M04/M06 Q1013=
201602050320 METAR ESMX 050320Z AUTO 23003KT 190V260 9999 NCD M03/M06 Q1013=
201602050250 METAR ESMX 050250Z AUTO 26004KT 9999 NCD M04/M06 Q1013=
201602050220 METAR ESMX 050220Z AUTO 20003KT 170V240 9999 NCD M04/M07 Q1013=
201602050150 METAR ESMX 050150Z AUTO VRB02KT 9999 NCD M03/M06 Q1013=
201602050120 METAR ESMX 050120Z AUTO 27005KT 9999 NCD M03/M06 Q1013=
201602050050 METAR ESMX 050050Z 28006KT CAVOK M03/M06 Q1013=
201602050020 METAR ESMX 050020Z 27007KT CAVOK M03/M06 Q1012=
201602042350 METAR COR ESMX 042350Z 25005KT CAVOK M03/M06 Q1012=
201602042320 METAR ESMX 042320Z 27005KT CAVOK M03/M06 Q1012=
201602042250 METAR ESMX 042250Z 28004KT CAVOK M03/M06 Q1012=
201602042220 METAR ESMX 042220Z 29005KT CAVOK M03/M06 Q1011=
201602042150 METAR ESMX 042150Z 27004KT CAVOK M02/M06 Q1011=
201602042120 METAR ESMX 042120Z 27005KT CAVOK M02/M05 Q1011=
201602042050 METAR ESMX 042050Z 27005KT CAVOK M02/M06 Q1010=
201602042020 METAR ESMX 042020Z 26006KT CAVOK M02/M05 Q1010=
201602041950 METAR ESMX 041950Z 26005KT CAVOK M02/M05 Q1010=
201602041920 METAR ESMX 041920Z 27005KT CAVOK M01/M05 Q1009=
201602041850 METAR ESMX 041850Z 28006KT CAVOK M01/M05 Q1009=
201602041820 METAR ESMX 041820Z 27006KT CAVOK M01/M05 Q1009=
201602041750 METAR ESMX 041750Z 28005KT CAVOK M01/M05 Q1008=
201602041720 METAR COR ESMX 041720Z 28005KT CAVOK M01/M05 Q1008=
201602041650 METAR ESMX 041650Z 27005KT CAVOK 00/M05 Q1007=
201602041620 METAR ESMX 041620Z 28005KT CAVOK 01/M05 Q1007=
201602041550 METAR ESMX 041550Z 28007KT CAVOK 01/M05 Q1007=
201602041520 METAR ESMX 041520Z 29008KT CAVOK 02/M04 Q1006=
201602041450 METAR ESMX 041450Z 27009KT 9999 FEW035 03/M04 Q1006=
201602041420 METAR ESMX 041420Z 27010KT 240V300 9999 FEW040 03/M03 Q1005=
201602041350 METAR ESMX 041350Z 28012KT 9999 FEW030 03/M03 Q1005=
201602041220 METAR ESMX 041220Z 28011KT CAVOK 03/M03 Q1005=
201602041150 METAR ESMX 041150Z 27010KT CAVOK 03/M03 Q1005=
201602041120 METAR ESMX 041120Z 28010KT CAVOK 03/M03 Q1005=
201602041050 METAR ESMX 041050Z 28008KT CAVOK 02/M02 Q1005=
201602041020 METAR ESMX 041020Z 28010KT CAVOK 02/M01 Q1005=
201602040950 METAR ESMX 040950Z 28010KT CAVOK 01/M02 Q1004=
201602040920 METAR ESMX 040920Z 28009KT 250V310 CAVOK 01/M01 Q1004=
201602040850 METAR ESMX 040850Z 28009KT CAVOK 01/M01 Q1004=
201602040820 METAR ESMX 040820Z 26007KT CAVOK M00/M01 Q1004=
201602040750 METAR ESMX 040750Z 25007KT CAVOK M01/M02 Q1004=
201602040720 METAR ESMX 040720Z 27006KT CAVOK M01/M02 Q1003=
201602040650 METAR ESMX 040650Z 25006KT CAVOK M01/M02 Q1003=
201602040620 METAR ESMX 040620Z 26006KT 9999 FEW010 M01/M02 Q1003=
201602040550 METAR ESMX 040550Z 26007KT 9999 FEW009 BKN011 M00/M01 Q1003=
201602040520 METAR ESMX 040520Z 26008KT 9999 FEW008 SCT010 M00/M01 Q1002=
201602040450 METAR ESMX 040450Z 27007KT 240V300 9999 FEW010 M00/M02 Q1002=
201602040420 METAR ESMX 040420Z AUTO 25009KT 9999 FEW012/// M00/M01 Q1002=
201602040350 METAR ESMX 040350Z AUTO 26008KT 9999 NCD M00/M01 Q1002=
201602040320 METAR ESMX 040320Z AUTO 25009KT 9999 FEW007/// M00/M02 Q1002=
201602040250 METAR ESMX 040250Z AUTO 25008KT 9999 FEW009/// M01/M02 Q1002=
201602040220 METAR ESMX 040220Z AUTO 24007KT 9999 NCD M01/M02 Q1002=
201602040150 METAR ESMX 040150Z AUTO 24007KT 9999 NCD M01/M02 Q1002=
201602040120 METAR ESMX 040120Z AUTO 25007KT 9999 NCD M01/M02 Q1002=
201602040050 METAR ESMX 040050Z 25008KT CAVOK M00/M01 Q1002=
201602040020 METAR ESMX 040020Z 25009KT CAVOK 00/M01 Q1002=
201602032350 METAR ESMX 032350Z 25010KT 9999 FEW006 SCT008 00/M01 Q1002=
201602032320 METAR ESMX 032320Z 25010KT 9999 BKN005 OVC007 01/00 Q1002=
201602032250 METAR ESMX 032250Z 23006KT 9999 BKN004 00/M00 Q1001=
201602032220 METAR ESMX 032220Z 24007KT 210V280 9999 BKN004 BKN007 00/M00 Q1002=
201602032150 METAR ESMX 032150Z 25009KT 9999 BKN003 00/M00 Q1001=
201602032120 METAR ESMX 032120Z 25008KT 9999 FEW003 SCT006 00/M00 Q1001=
201602032050 METAR ESMX 032050Z 24008KT 9999 FEW027 M00/M01 Q1001=
201602032020 METAR ESMX 032020Z 23007KT CAVOK M01/M02 Q1001=
201602031950 METAR ESMX 031950Z 22005KT CAVOK M01/M02 Q1001=
201602031920 METAR ESMX 031920Z 22005KT CAVOK M01/M02 Q1001=
201602031850 METAR ESMX 031850Z 20005KT CAVOK M01/M02 Q1000=
201602031820 METAR ESMX 031820Z 23006KT CAVOK M00/M01 Q1000=
201602031750 METAR ESMX 031750Z 23005KT CAVOK M00/M02 Q1000=
201602031720 METAR ESMX 031720Z 22005KT 9999 FEW021 M00/M02 Q1000=
201602031650 METAR ESMX 031650Z 22003KT 9999 SCT022 00/M02 Q1000=
201602031620 METAR ESMX 031620Z 24005KT 9999 FEW025 01/M02 Q0999=
201602031550 METAR ESMX 031550Z 26006KT CAVOK 02/M02 Q0999=
201602031520 METAR ESMX 031520Z 27008KT CAVOK 02/M02 Q0998=
201602031450 METAR ESMX 031450Z 27009KT CAVOK 03/M02 Q0998=
201602031420 METAR ESMX 031420Z 27010KT CAVOK 03/M02 Q0998=
201602031350 METAR ESMX 031350Z 29011KT 9999 FEW045 03/M02 Q0997=
201602031320 METAR ESMX 031320Z 29009KT 250V320 9999 FEW027 03/M01 Q0997=
201602031250 METAR ESMX 031250Z 28011KT 9999 FEW020 03/M01 Q0996=
201602031220 METAR ESMX 031220Z 28013KT 9999 FEW015 SCT018 BKN021 03/M00 Q0996=
201602031150 METAR ESMX 031150Z 28012KT 9999 FEW013 SCT016 BKN018 02/M00 Q0995=
201602031120 METAR ESMX 031120Z 28010KT 9999 FEW011 BKN014 02/00 Q0995=
201602031050 METAR ESMX 031050Z 27009KT 9999 BKN011 BKN054 02/01 Q0994=
201602031020 METAR ESMX 031020Z 27010KT 9999 FEW007 SCT010 BKN013 02/00 Q0994=
201602030950 METAR ESMX 030950Z 27011KT 8000 -SN FEW007 SCT009 BKN011 02/01 Q0994=
201602030920 METAR ESMX 030920Z 27010KT 9999 FEW008 BKN010 02/01 Q0993=
201602030850 METAR ESMX 030850Z 26011KT 230V290 9999 -DZ SCT007 BKN010 02/01 Q0992=
201602030820 METAR ESMX 030820Z 26012KT 240V300 9999 SCT008 BKN010 03/02 Q0991=
201602030750 METAR ESMX 030750Z 27011KT 7000 DZ BKN006 OVC009 03/02 Q0991=
201602030720 METAR ESMX 030720Z 27014KT 5000 -RA BKN007 03/02 Q0990=
201602030650 METAR ESMX 030650Z 26015KT 210V290 7000 DZ FEW007 BKN009 03/02 Q0989=
201602030620 METAR ESMX 030620Z 26013G24KT 9000 -DZ FEW007 OVC008 03/02 Q0988=
201602030550 METAR ESMX 030550Z 26015KT 8000 -DZ FEW008 OVC009 03/02 Q0987=
201602030520 METAR ESMX 030520Z 26015KT 9999 -DZ FEW008 BKN011 03/02 Q0987=
201602030450 METAR ESMX 030450Z 26017KTG27KT 9999 -RA SCT007 BKN010 04/02 Q0986=
201602030420 METAR ESMX 030420Z AUTO 26018KT 3400 DZ FEW007/// BKN010/// 04/03 Q0985 RESHUP REDZ=
201602030350 METAR ESMX 030350Z AUTO 26017KT 220V290 7000 BR FEW009/// OVC011/// 04/03 Q0984=
201602030320 METAR ESMX 030320Z AUTO 25017KT 8000 -DZ FEW009/// OVC011/// 04/03 Q0984=
201602030250 METAR ESMX 030250Z AUTO 25016G28KT 6000 DZ FEW008/// OVC010/// 04/03 Q0984 REDZ=
201602030220 METAR ESMX 030220Z AUTO 24015G26KT 7000 -RA SCT009/// BKN012/// BKN015/// 05/03 Q0983=
201602030150 METAR ESMX 030150Z AUTO 24016KT 4900 DZ FEW009/// OVC011/// 04/03 Q0983=
201602030120 METAR ESMX 030120Z AUTO 24016G26KT 210V270 5000 DZ FEW008/// OVC010/// 05/03 Q0983=
201602030050 METAR ESMX 030050Z 24017G27KT 3900 DZ SCT008 OVC010 04/03 Q0983=
201602030020 METAR COR ESMX 030020Z 22015KTG25KT 2600 -RA FEW008 BKN010 04/03 Q0983 REDZ=
201602022350 METAR ESMX 022350Z 22017KT 180V240 7000 -RA FEW009 OVC010 04/03 Q0983=
201602022320 METAR ESMX 022320Z 23016G26KT 7000 -RA FEW009 OVC010 04/03 Q0983=
201602022250 METAR ESMX 022250Z 23017KT 6000 -RA SCT009 BKN012 04/03 Q0984=
201602022220 METAR ESMX 022220Z 21018KT 6000 -RA SCT009 BKN012 04/02 Q0984=
201602022150 METAR ESMX 022150Z 21017G30KT 6000 RA FEW010 OVC015 04/03 Q0984=
201602022120 METAR ESMX 022120Z 22017G30KT 5000 SHRA FEW007 OVC011 04/03 Q0984=
201602022050 METAR ESMX 022050Z 22016G27KT 4900 SHRA FEW008 BKN012 04/03 Q0985=
201602022020 METAR ESMX 022020Z 22017KT 4500 SHRA FEW008 BKN011 04/02 Q0985=
201602021950 METAR ESMX 021950Z 23017G28KT 5000 SHRA FEW011 BKN015 04/02 Q0985 RERA=
201602021920 METAR COR ESMX 021920Z 23020KT 7000 RA SCT015 04/02 Q0986=
201602021850 METAR ESMX 021850Z 23017KT 7000 -RA FEW014 SCT020 BKN024 04/02 Q0986=
201602021820 METAR ESMX 021820Z 22019G35KT 8000 -DZRA FEW019 SCT023 04/01 Q0986=
201602021750 METAR ESMX 021750Z 22020G38KT 9999 -DZ BKN022 05/01 Q0987=
201602021720 METAR ESMX 021720Z 23018KT 200V260 9999 BKN023 05/00 Q0987=
201602021650 METAR ESMX 021650Z 23018KT 9999 BKN023 05/00 Q0987=
201602021620 METAR ESMX 021620Z 22017KT 9999 BKN022 05/01 Q0988=
201602021550 METAR ESMX 021550Z 23016G29KT 9999 FEW021 SCT024 BKN028 05/01 Q0988=
201602021520 METAR ESMX 021520Z 23015KT 9999 FEW017 SCT024 BKN028 04/02 Q0988=
201602021450 METAR ESMX 021450Z 22016G26KT 9999 BKN023 05/02 Q0989=
201602021420 METAR ESMX 021420Z 23018G31KT 200V260 8000 -DZ FEW010 SCT021 BKN025 05/02 Q0989=
201602021350 METAR ESMX 021350Z 23019G30KT 9000 -DZ FEW018 BKN021 05/02 Q0989=
201602021320 METAR ESMX 021320Z 24019G33KT 210V270 9999 FEW020 BKN024 05/01 Q0989=
201602021250 METAR ESMX 021250Z 23019G32KT 200V260 9999 -RA FEW019 SCT022 BKN026 05/02 Q0990=
201602021220 METAR ESMX 021220Z 23017G29KT 9999 -RA FEW019 BKN024 05/01 Q0990=
201602021150 METAR ESMX 021150Z 23019G29KT 9999 -RA BKN020 OVC030 05/02 Q0990=
201602021120 METAR ESMX 021120Z 23019G33KT 9999 FEW019 BKN023 OVC029 05/01 Q0990=
201602021050 METAR ESMX 021050Z 23018G28KT 9999 FEW019 OVC021 05/02 Q0990=
201602021020 METAR ESMX 021020Z 24022G36KT 200V270 9999 FEW017 BKN020 05/02 Q0990=
201602020950 METAR ESMX 020950Z 23017G30KT 9999 FEW017 BKN020 BKN026 05/02 Q0990=
201602020920 METAR ESMX 020920Z 24017G28KT 210V280 9999 FEW018 BKN026 05/02 Q0990=
201602020850 METAR ESMX 020850Z 24017KT 9999 BKN016 OVC021 05/02 Q0990=
201602020820 METAR ESMX 020820Z 23017G27KT 9999 SCT015 BKN026 04/02 Q0991=
201602020750 METAR ESMX 020750Z 24016KT 9999 SCT014 BKN023 04/02 Q0990=
201602020720 METAR ESMX 020720Z 23016G27KT 200V270 9999 -RA FEW019 BKN023 OVC036 04/01 Q0991=
201602020650 METAR ESMX 020650Z 24016G28KT 9999 SCT021 OVC049 04/01 Q0991=
201602020620 METAR ESMX 020620Z 24015G25KT 200V270 9999 SCT017 BKN026 04/01 Q0990=
201602020550 METAR ESMX 020550Z 25014G26KT 9999 SCT020 BKN025 04/01 Q0990=
201602020520 METAR ESMX 020520Z 25014KT 9999 FEW020 BKN025 05/01 Q0990=
201602020450 METAR ESMX 020450Z 25017KT 210V270 9999 FEW017 OVC022 04/01 Q0990=
201602020420 METAR ESMX 020420Z AUTO 24015G30KT 200V280 9999 FEW017/// BKN019/// 05/02 Q0990=
201602020350 METAR ESMX 020350Z AUTO 23015KT 200V260 9999 FEW018/// SCT023/// BKN027/// 05/02 Q0990=
201602020320 METAR ESMX 020320Z AUTO 25014KT 9999 FEW020/// SCT025/// BKN029/// 05/01 Q0990=
201602020250 METAR ESMX 020250Z AUTO 26018KT 9999 FEW019/// BKN023/// BKN041/// 05/01 Q0990=
201602020220 METAR ESMX 020220Z AUTO 25017G30KT 9999 FEW015/// SCT019/// BKN021/// 04/02 Q0990=
201602020150 METAR ESMX 020150Z AUTO 23018G33KT 9999 -RA FEW015/// SCT021/// BKN026/// 05/02 Q0989 RERA=
201602020120 METAR ESMX 020120Z 24017KT 9999 -SHRA FEW015 BKN020 04/02 Q0990=
201602020050 METAR ESMX 020050Z 26019G30KT 9000 -RA FEW016 BKN020 05/03 Q0990 RESHRA=
201602020020 METAR ESMX 020020Z 25018G30KT 220V280 9999 BKN019 OVC028 06/03 Q0990=
201602012350 METAR ESMX 012350Z 24018G31KT 9999 FEW019 BKN021 06/03 Q0990=
201602012320 METAR ESMX 012320Z 25017G27KT 9999 FEW019 BKN022 06/03 Q0990=
201602012250 METAR ESMX 012250Z 23016G26KT 200V260 9999 FEW018 BKN027 06/04 Q0990=
201602012220 METAR ESMX 012220Z 24017G33KT 9999 FEW017 BKN020 BKN027 06/03 Q0990=
201602012150 METAR ESMX 012150Z 25018G28KT 9999 FEW014 BKN020 06/04 Q0991=
201602012120 METAR COR ESMX 012120Z 25017KT 9999 -RA FEW014 BKN018 06/04 Q0991=
201602012050 METAR ESMX 012050Z 25015G25KT 210V270 9999 FEW015 BKN027 06/04 Q0991=
201602012020 METAR ESMX 012020Z 24015G26KT 9999 FEW008 BKN015 06/05 Q0991=
201602011950 METAR ESMX 011950Z 25015KT 9999 FEW006 BKN009 06/05 Q0991=
201602011920 METAR ESMX 011920Z 21011KT 8000 -DZ BKN004 OVC007 05/04 Q0991=
201602011850 METAR ESMX 011850Z 21013KT 6000 -DZ FEW003 BKN004 04/03 Q0991=
201602011820 METAR COR ESMX 011820Z 19013KT 7000 -DZ FEW003 BKN005 03/02 Q0991=
201602011750 METAR ESMX 011750Z 19013KT 150V210 2800 RA BKN004 OVC006 02/02 Q0992=
201602011720 METAR COR ESMX 011720Z 17014KT 9999 -RA OVC005 02/01 Q0992=
201602011650 METAR ESMX 011650Z 17015KT 8000 -RA BKN005 OVC009 01/01 Q0993=
201602011620 METAR ESMX 011620Z 17014KT 5000 -SN BKN005 OVC007 01/00 Q0994=
201602011550 METAR ESMX 011550Z 16013KT 5000 -SN FEW003 SCT005 BKN006 01/00 Q0995=
201602011520 METAR ESMX 011520Z 16012KT 2300 -SN FEW003 OVC005 01/00 Q0996=
201602011450 METAR ESMX 011450Z 17010KT 2400 SN FEW004 BKN006 OVC009 01/00 Q0997=
201602011420 METAR ESMX 011420Z 16009KT 4400 -SN FEW002 OVC007 01/M00 Q0998=
201602011350 METAR ESMX 011350Z 18009KT 3500 -SN FEW005 SCT008 BKN010 01/M00 Q1000=
201602011320 METAR ESMX 011320Z 19012KT 4000 -SN SCT005 BKN050 01/M01 Q1001=
201602011250 METAR ESMX 011250Z 19009KT 7000 -SN FEW007 SCT023 BKN047 01/M00 Q1002=
201602011220 METAR ESMX 011220Z 20010KT 9999 FEW007 SCT023 BKN047 01/M01 Q1002=
