##########################################################
# Query made at 04/19/2024 21:53:01 UTC
# Time interval: from 08/01/2016 12:00  to 08/31/2016 12:59  UTC
##########################################################

##########################################################
# ESMX, Vaxjo (Sweden)
# WMO index: 02641. WIGOS ID: 0-20000-0-02648
# Latitude 56-51N. Longitude 014-50E. Altitude 199 m.
##########################################################

201608311250 METAR ESMX 311250Z 25009KT 210V290 CAVOK 21/14 Q1020=
201608311220 METAR ESMX 311220Z 21009KT 170V240 CAVOK 21/14 Q1020=
201608311150 METAR ESMX 311150Z 21009KT 170V250 CAVOK 20/14 Q1021=
201608311120 METAR ESMX 311120Z 26009KT CAVOK 20/14 Q1021=
201608311050 METAR ESMX 311050Z 23008KT 190V280 9999 SCT020 19/13 Q1021=
201608311020 METAR ESMX 311020Z 24008KT 180V290 9999 BKN016 18/13 Q1021=
201608310950 METAR ESMX 310950Z 25008KT 9999 BKN015 17/13 Q1021=
201608310920 METAR ESMX 310920Z 25008KT 9999 OVC015 17/13 Q1021=
201608310850 METAR ESMX 310850Z 26009KT 9999 BKN015 17/13 Q1021=
201608310820 METAR ESMX 310820Z 25008KT 230V300 9999 BKN013 16/12 Q1021=
201608310750 METAR ESMX 310750Z 25007KT 210V290 9999 BKN011 16/13 Q1021=
201608310720 METAR ESMX 310720Z 25007KT 9999 BKN012 15/13 Q1021=
201608310650 METAR ESMX 310650Z 25006KT 220V290 9999 FEW011 BKN014 15/13 Q1021=
201608310620 METAR ESMX 310620Z 22005KT 180V240 9999 BKN015 15/13 Q1021=
201608310550 METAR ESMX 310550Z 23005KT 200V260 9999 FEW013 BKN015 15/13 Q1021=
201608310520 METAR ESMX 310520Z 24005KT 9999 BKN013 14/13 Q1021=
201608310450 METAR ESMX 310450Z 23006KT 9999 BKN013 14/13 Q1021=
201608310420 METAR ESMX 310420Z 25006KT 9999 FEW010 BKN015 14/13 Q1021=
201608310350 METAR COR ESMX 310350Z 25005KT 9999 SCT010 BKN015 15/13 Q1021=
201608310320 METAR ESMX 310320Z AUTO 25004KT 9999 OVC012/// 14/13 Q1021=
201608310250 METAR ESMX 310250Z AUTO 27005KT 220V310 9999 OVC011/// 15/13 Q1021=
201608310220 METAR ESMX 310220Z AUTO 26005KT 230V300 9999 OVC011/// 15/13 Q1021=
201608310150 METAR ESMX 310150Z AUTO 27005KT 220V300 9999 BKN011/// 14/13 Q1021=
201608310120 METAR ESMX 310120Z AUTO 25003KT 9999 FEW013/// 13/12 Q1021=
201608310050 METAR ESMX 310050Z AUTO 27004KT 9999 SCT013/// 15/13 Q1020=
201608310020 METAR ESMX 310020Z AUTO 27006KT 9999 OVC014/// 15/13 Q1020=
201608302350 METAR ESMX 302350Z AUTO 27006KT 9999 OVC016/// 15/13 Q1020=
201608302320 METAR ESMX 302320Z 26008KT 9999 FEW013 BKN017 15/13 Q1020=
201608302250 METAR ESMX 302250Z 26004KT 230V300 9999 FEW025 14/13 Q1020=
201608302220 METAR ESMX 302220Z 26005KT 9999 FEW025 14/13 Q1020=
201608302150 METAR ESMX 302150Z 25007KT 9999 FEW023 14/13 Q1020=
201608302120 METAR ESMX 302120Z 24007KT 9999 SCT025 14/13 Q1020=
201608302050 METAR ESMX 302050Z 24006KT 9999 SCT022 14/12 Q1020=
201608302020 METAR ESMX 302020Z 24006KT 9999 SCT035 14/12 Q1020=
201608301950 METAR ESMX 301950Z 22006KT 200V260 9999 BKN035 14/12 Q1020=
201608301920 METAR ESMX 301920Z 22006KT 9999 BKN034 15/12 Q1020=
201608301850 METAR ESMX 301850Z 23005KT 9999 SCT035 14/11 Q1020=
201608301820 METAR ESMX 301820Z 24007KT 9999 FEW035 15/11 Q1020=
201608301750 METAR ESMX 301750Z 25008KT 9999 BKN035 16/11 Q1020=
201608301720 METAR ESMX 301720Z 26009KT 230V290 9999 BKN030 16/11 Q1020=
201608301650 METAR ESMX 301650Z 26011KT 9999 BKN027 17/11 Q1020=
201608301620 METAR ESMX 301620Z 26010KT 210V280 9999 BKN028 17/11 Q1020=
201608301550 METAR ESMX 301550Z 26010KT 9999 BKN029 17/11 Q1020=
201608301520 METAR ESMX 301520Z 26010KT 9999 BKN030 17/11 Q1020=
201608301450 METAR ESMX 301450Z 27010KT 9999 BKN036 18/10 Q1020=
201608301420 METAR ESMX 301420Z 27013KT 240V300 9999 FEW038 18/09 Q1020=
201608301350 METAR ESMX 301350Z 27009KT 240V300 9999 BKN040 18/09 Q1020=
201608301320 METAR ESMX 301320Z 25011KT 220V300 9999 SCT039 19/09 Q1020=
201608301250 METAR ESMX 301250Z 28013KT 9999 SCT036 18/09 Q1020=
201608301220 METAR ESMX 301220Z 26011KT 220V300 9999 FEW036 SCT040 18/10 Q1020=
201608301150 METAR ESMX 301150Z 27010KT 240V010 9999 BKN039 18/10 Q1020=
201608301120 METAR ESMX 301120Z 25009KT 210V280 9999 SCT036 17/10 Q1020=
201608301050 METAR ESMX 301050Z 27010KT 230V300 9999 BKN040 17/10 Q1020=
201608301020 METAR ESMX 301020Z 25010KT 220V290 9999 BKN034 18/10 Q1019=
201608300950 METAR ESMX 300950Z 29009KT 9999 FEW027 SCT031 16/10 Q1019=
201608300920 METAR ESMX 300920Z 28010KT 9999 FEW028 SCT035 16/10 Q1019=
201608300850 METAR ESMX 300850Z 27011KT 240V310 9999 FEW023 SCT029 17/10 Q1019=
201608300820 METAR ESMX 300820Z 27009KT 230V300 9999 FEW019 16/11 Q1019=
201608300750 METAR ESMX 300750Z 27008KT 9999 FEW016 SCT021 15/11 Q1019=
201608300720 METAR ESMX 300720Z 27008KT 9999 BKN020 14/11 Q1018=
201608300650 METAR ESMX 300650Z 27008KT 9999 BKN025 14/11 Q1018=
201608300620 METAR ESMX 300620Z 27007KT 9999 FEW025 13/10 Q1018=
201608300550 METAR ESMX 300550Z 27006KT CAVOK 11/09 Q1017=
201608300520 METAR ESMX 300520Z 26005KT CAVOK 09/09 Q1017=
201608300450 METAR ESMX 300450Z 26004KT 9999 FEW025 08/08 Q1017=
201608300420 METAR ESMX 300420Z 25004KT 9999 BCFG NSC 08/07 Q1017=
201608300350 METAR ESMX 300350Z VRB02KT 9999 BCFG NSC 08/08 Q1016=
201608300320 METAR ESMX 300320Z AUTO 25003KT 9999 NCD 08/08 Q1016=
201608300250 METAR ESMX 300250Z AUTO 28004KT 9999 NCD 09/08 Q1015=
201608300220 METAR ESMX 300220Z AUTO 26005KT 9999 NCD 09/09 Q1015=
201608300150 METAR ESMX 300150Z AUTO 27005KT 9999 NCD 10/09 Q1015=
201608300120 METAR ESMX 300120Z AUTO 28005KT 9999 NCD 10/09 Q1015=
201608300050 METAR ESMX 300050Z AUTO 27005KT 9999 NCD 10/09 Q1015=
201608300020 METAR ESMX 300020Z AUTO 27006KT 9999 NCD 11/09 Q1014=
201608292350 METAR ESMX 292350Z AUTO 29007KT 9999 NCD 11/09 Q1014=
201608292320 METAR ESMX 292320Z 28008KT CAVOK 12/10 Q1014=
201608292250 METAR ESMX 292250Z 29007KT CAVOK 12/09 Q1013=
201608292220 METAR ESMX 292220Z 27007KT 9999 SCT045 12/09 Q1013=
201608292150 METAR ESMX 292150Z 27008KT 9999 FEW030 BKN045 12/09 Q1013=
201608292120 METAR ESMX 292120Z AUTO 27008KT 9999 FEW046/// 13/09 Q1013=
201608292050 METAR ESMX 292050Z 26010KT 9999 FEW038 OVC042 13/10 Q1012=
201608292020 METAR ESMX 292020Z 27007KT 9999 FEW036 OVC041 13/10 Q1012=
201608291950 METAR ESMX 291950Z 26006KT 240V300 9999 FEW025 BKN045 12/09 Q1012=
201608291920 METAR ESMX 291920Z 27006KT 230V300 9999 FEW028 BKN045 12/09 Q1011=
201608291850 METAR ESMX 291850Z 29007KT 9999 FEW025 SCT045 12/09 Q1011=
201608291820 METAR ESMX 291820Z 30009KT 9999 FEW026 12/09 Q1011=
201608291750 METAR ESMX 291750Z 28012KT 250V320 9999 FEW025 13/09 Q1010=
201608291720 METAR ESMX 291720Z 29015KT 9999 FEW020 BKN025 13/09 Q1010=
201608291650 METAR ESMX 291650Z 27015KT 9999 FEW017 BKN020 14/10 Q1009=
201608291620 METAR ESMX 291620Z 28012KT 9999 FEW015 BKN018 14/10 Q1009=
201608291550 METAR ESMX 291550Z 26012KT 240V300 9999 FEW015 BKN017 14/11 Q1008=
201608291520 METAR ESMX 291520Z 27014KT 240V300 9999 SCT011 BKN016 BKN023 14/12 Q1008=
201608291450 METAR ESMX 291450Z 26015KT 9999 FEW011 OVC014 15/13 Q1008=
201608291420 METAR ESMX 291420Z 27012KT 9999 FEW011 BKN015 15/13 Q1007=
201608291350 METAR ESMX 291350Z 27011KT 9999 FEW008 SCT009 BKN011 15/14 Q1007=
201608291320 METAR ESMX 291320Z 26012KT 230V290 5000 -DZ FEW007 OVC009 15/14 Q1006=
201608291250 METAR ESMX 291250Z 26011KT 9999 FEW009 SCT011 BKN013 16/14 Q1006=
201608291220 METAR ESMX 291220Z 26012KT 9999 FEW012 SCT018 BKN024 17/14 Q1005=
201608291150 METAR ESMX 291150Z 25012KT 220V290 9999 FEW008 SCT014 BKN024 18/15 Q1005=
201608291120 METAR ESMX 291120Z 22010KT 9999 FEW012 SCT014 BKN018 17/15 Q1005=
201608291050 METAR ESMX 291050Z 22009KT 9999 FEW011 SCT018 BKN022 18/15 Q1005=
201608291020 METAR ESMX 291020Z 22010KT 9999 FEW014 SCT039 BKN045 17/15 Q1005=
201608290950 METAR ESMX 290950Z 22010KT 9999 FEW020 BKN050 17/15 Q1005=
201608290920 METAR ESMX 290920Z 24011KT 9999 FEW023 SCT051 18/14 Q1004=
201608290850 METAR ESMX 290850Z 23010KT 9999 FEW030 BKN053 18/15 Q1004=
201608290820 METAR ESMX 290820Z 26009KT 9999 FEW011 SCT015 BKN018 17/15 Q1004=
201608290750 METAR ESMX 290750Z 23010KT 200V260 9999 FEW008 SCT013 18/16 Q1004=
201608290720 METAR ESMX 290720Z 23008KT 200V260 9000 BR FEW006 SCT009 BKN013 17/16 Q1004=
201608290650 METAR ESMX 290650Z 23007KT 8000 FEW005 SCT006 BKN007 17/17 Q1004=
201608290620 METAR ESMX 290620Z 22006KT 5000 SCT001 BKN005 OVC007 16/16 Q1004=
201608290550 METAR ESMX 290550Z 20007KT 0500 R01/1000N R19/0800U FG VV002 16/16 Q1004=
201608290520 METAR ESMX 290520Z 17004KT 0400 R01/0750N R19/0800N FG VV002 16/15 Q1005=
201608290450 METAR ESMX 290450Z 15003KT 0200 R01/0500N R19/0550N FG VV002 15/15 Q1005=
201608290420 METAR ESMX 290420Z VRB02KT 0200 R01/0450N R19/0550N FG VV002 15/15 Q1005=
201608290358 METAR ESMX 290358Z VRB02KT 0150 R01/0450N R19/0650D FG VV002 15/15 Q1005=
201608290350 METAR ESMX 290350Z AUTO VRB01KT 0200 R01/0600D R19/0800N FG VV001 15/15 Q1005=
201608290320 METAR ESMX 290320Z AUTO VRB01KT 0300 R01/0800N R19/1000N FG VV001 15/14 Q1005=
201608290250 METAR ESMX 290250Z AUTO VRB01KT 0450 R01/1200N R19/1300N FG VV001 15/15 Q1006=
201608290220 METAR ESMX 290220Z AUTO 20003KT 0300 R01/0800N R19/1100N FG VV001 15/14 Q1006=
201608290150 METAR ESMX 290150Z AUTO VRB02KT 0400 R01/1200D R19/P2000N FG VV001 15/14 Q1006=
201608290120 METAR ESMX 290120Z AUTO 17004KT 130V220 2300 BR OVC001/// 15/14 Q1007 REDZ=
201608290050 METAR ESMX 290050Z AUTO 14004KT 110V190 7000 BR OVC001/// 15/14 Q1007=
201608290020 METAR ESMX 290020Z AUTO 13004KT 100V160 9999 OVC003/// 14/14 Q1008=
201608282350 METAR ESMX 282350Z 16005KT 140V200 9999 OVC005 15/14 Q1008=
201608282320 METAR ESMX 282320Z 14003KT 070V180 9999 BKN006 14/13 Q1009=
201608282250 METAR ESMX 282250Z 17004KT 9999 FEW007 BKN089 15/13 Q1009=
201608282220 METAR ESMX 282220Z 15003KT 110V200 CAVOK 14/13 Q1009=
201608282150 METAR ESMX 282150Z 15004KT 110V190 CAVOK 15/13 Q1010=
201608282120 METAR ESMX 282120Z 15005KT 110V200 CAVOK 15/13 Q1010=
201608282050 METAR ESMX 282050Z 15004KT 110V190 CAVOK 15/13 Q1011=
201608282020 METAR ESMX 282020Z 14005KT 100V170 CAVOK 15/13 Q1011=
201608281950 METAR ESMX 281950Z 11004KT 060V170 CAVOK 14/13 Q1010=
201608281920 METAR ESMX 281920Z 10005KT 070V140 CAVOK 14/13 Q1011=
201608281850 METAR ESMX 281850Z 10006KT 070V140 CAVOK 14/13 Q1011=
201608281820 METAR ESMX 281820Z 12005KT 070V170 CAVOK 15/13 Q1012=
201608281750 METAR ESMX 281750Z 13003KT 080V190 CAVOK 15/13 Q1012=
201608281720 METAR ESMX 281720Z 11004KT 070V190 9999 FEW021 15/14 Q1012 RERA=
201608281650 METAR ESMX 281650Z 13003KT 100V160 9999 -DZ FEW067 SCT086 BKN099 16/13 Q1013=
201608281620 METAR ESMX 281620Z 14004KT 100V190 CAVOK 16/13 Q1013 REDZ=
201608281550 METAR ESMX 281550Z 12005KT 030V170 9999 FEW017 16/13 Q1013=
201608281520 METAR ESMX 281520Z 15006KT 110V180 CAVOK 17/12 Q1014=
201608281450 METAR ESMX 281450Z 14005KT 100V190 9999 FEW019 BKN091 17/13 Q1014=
201608281420 METAR ESMX 281420Z 13004KT 040V170 9999 FEW019 BKN090 17/13 Q1014=
201608281350 METAR ESMX 281350Z 14006KT 100V170 9999 SCT014 BKN091 17/13 Q1014=
201608281320 METAR ESMX 281320Z 09005KT 050V130 9999 FEW011 SCT016 16/13 Q1015=
201608281250 METAR ESMX 281250Z 11006KT 060V160 9999 SCT010 BKN100 15/13 Q1015=
201608281220 METAR ESMX 281220Z 11006KT 050V160 9999 SCT012 BKN025 BKN100 15/12 Q1015=
201608281150 METAR COR ESMX 281150Z 11006KT 070V150 9999 -DZ SCT025 15/12 Q1015=
201608281120 METAR ESMX 281120Z 09007KT 050V120 CAVOK 15/12 Q1015=
201608281050 METAR ESMX 281050Z 11007KT 060V150 9999 FEW041 14/12 Q1016=
201608281020 METAR ESMX 281020Z 10004KT 060V140 CAVOK 14/12 Q1016=
201608280950 METAR ESMX 280950Z AUTO 09005KT 040V120 9999 FEW100/// 14/12 Q1016=
201608280920 METAR ESMX 280920Z AUTO 09004KT 030V180 9999 -DZ FEW100/// 14/12 Q1017=
201608280850 METAR ESMX 280850Z AUTO 11005KT 010V160 9999 FEW053/// SCT084/// 14/12 Q1017=
201608280820 METAR ESMX 280820Z AUTO 14004KT 090V170 9999 FEW090/// 13/12 Q1018=
201608280750 METAR ESMX 280750Z AUTO 10005KT 060V150 9999 FEW094/// 12/12 Q1018=
201608280720 METAR ESMX 280720Z AUTO 07004KT 9999 -RA NCD 12/12 Q1018=
201608280650 METAR ESMX 280650Z AUTO 11003KT 6000 -RA NCD 12/11 Q1019=
201608280620 METAR ESMX 280620Z AUTO 13002KT 6000 RA FEW074/// 12/11 Q1020=
201608280550 METAR ESMX 280550Z AUTO 28004KT 9999 FEW110/// 12/11 Q1020=
201608280520 METAR ESMX 280520Z AUTO VRB02KT 9999 FEW110/// 11/11 Q1019=
201608280450 METAR ESMX 280450Z AUTO 03003KT 9999 FEW110/// 08/08 Q1019=
201608280420 METAR ESMX 280420Z AUTO 04003KT 9999 SCT110/// 08/08 Q1019=
201608280350 METAR ESMX 280350Z AUTO 00000KT 9999 BCFG SCT100/// 06/06 Q1019=
201608280320 METAR ESMX 280320Z AUTO 00000KT 0150 R01/0450N R19/0450N BCFG FEW000/// 06/05 Q1019=
201608280250 METAR ESMX 280250Z AUTO 01001KT 0100 R01/P2000N R19/0375N BCFG VV000 06/05 Q1019=
201608280220 METAR ESMX 280220Z AUTO 00000KT 0350 R01/P2000N R19/P2000N BCFG VV000 06/05 Q1019=
201608280150 METAR ESMX 280150Z AUTO VRB01KT 0300 R01/P2000N R19/P2000N BCFG SCT002/// 07/07 Q1019=
201608280120 METAR ESMX 280120Z AUTO 17002KT 9999 NCD 06/06 Q1019=
201608280050 METAR ESMX 280050Z AUTO 16002KT 9999 NCD 07/07 Q1019=
201608280020 METAR ESMX 280020Z AUTO 17002KT 9999 NCD 07/07 Q1020=
201608272350 METAR ESMX 272350Z AUTO VRB02KT 9999 NCD 06/06 Q1020=
201608272320 METAR ESMX 272320Z AUTO 17002KT 5000 BR NCD 08/07 Q1020=
201608272250 METAR ESMX 272250Z AUTO 15002KT 9999 NCD 08/08 Q1020=
201608272220 METAR ESMX 272220Z AUTO 19001KT 9999 NCD 09/08 Q1021=
201608272150 METAR ESMX 272150Z AUTO 16003KT 9999 NCD 09/08 Q1020=
201608272120 METAR ESMX 272120Z AUTO 26004KT 9999 NCD 10/08 Q1020=
201608272050 METAR ESMX 272050Z AUTO VRB02KT 9999 NCD 10/09 Q1020=
201608272020 METAR ESMX 272020Z AUTO 20003KT 9999 NCD 10/08 Q1020=
201608271950 METAR ESMX 271950Z AUTO 24003KT 9999 NCD 13/10 Q1020=
201608271920 METAR ESMX 271920Z AUTO 26003KT 9999 NCD 14/10 Q1020=
201608271850 METAR ESMX 271850Z AUTO 26004KT 9999 NCD 15/10 Q1020=
201608271820 METAR ESMX 271820Z AUTO 28003KT 9999 NCD 16/10 Q1020=
201608271750 METAR ESMX 271750Z AUTO 28005KT 250V310 9999 NCD 17/10 Q1020=
201608271720 METAR ESMX 271720Z AUTO 27006KT 9999 NCD 19/10 Q1020=
201608271650 METAR ESMX 271650Z AUTO 26007KT 9999 NCD 19/10 Q1020=
201608271620 METAR ESMX 271620Z AUTO 28009KT 250V330 9999 NCD 20/09 Q1020=
201608271550 METAR ESMX 271550Z AUTO 29008KT 240V330 9999 FEW047/// 20/09 Q1020=
201608271520 METAR ESMX 271520Z 26011KT 220V290 CAVOK 21/08 Q1020=
201608271450 METAR ESMX 271450Z 26011KT CAVOK 21/09 Q1020=
201608271420 METAR ESMX 271420Z 27011KT CAVOK 21/08 Q1020=
201608271350 METAR ESMX 271350Z 27011KT 240V310 CAVOK 21/08 Q1020=
201608271320 METAR ESMX 271320Z 26012KT 230V300 CAVOK 21/09 Q1020=
201608271250 METAR ESMX 271250Z 27011KT 240V300 CAVOK 21/08 Q1020=
201608271220 METAR ESMX 271220Z 28012KT 250V320 CAVOK 21/09 Q1020=
201608271150 METAR ESMX 271150Z 26012KT 230V310 CAVOK 21/09 Q1020=
201608271120 METAR ESMX 271120Z 25013KT 220V290 CAVOK 21/10 Q1020=
201608271050 METAR ESMX 271050Z AUTO 26011KT 220V290 9999 NCD 20/09 Q1020=
201608271020 METAR ESMX 271020Z AUTO 27012KT 230V290 9999 FEW037/// 19/10 Q1020=
201608270950 METAR ESMX 270950Z AUTO 27011KT 240V320 9999 FEW036/// 19/10 Q1020=
201608270920 METAR ESMX 270920Z AUTO 28011KT 9999 NCD 19/10 Q1020=
201608270850 METAR ESMX 270850Z AUTO 28011KT 9999 NCD 18/10 Q1020=
201608270820 METAR ESMX 270820Z AUTO 29010KT 260V330 9999 NCD 18/10 Q1019=
201608270750 METAR ESMX 270750Z AUTO 27010KT 240V320 9999 NCD 17/11 Q1019=
201608270720 METAR ESMX 270720Z AUTO 26010KT 230V290 9999 FEW018/// 16/11 Q1019=
201608270650 METAR ESMX 270650Z AUTO 26010KT 210V300 9999 FEW017/// 16/12 Q1019=
201608270620 METAR ESMX 270620Z AUTO 26009KT 240V300 9999 NCD 15/12 Q1019=
201608270550 METAR ESMX 270550Z AUTO 26007KT 9999 FEW014/// 14/12 Q1018=
201608270520 METAR ESMX 270520Z AUTO 25006KT 9999 FEW014/// 14/12 Q1018=
201608270450 METAR ESMX 270450Z AUTO 23006KT 9999 NCD 13/12 Q1018=
201608270420 METAR ESMX 270420Z AUTO 20005KT 9999 NCD 12/11 Q1017=
201608270350 METAR ESMX 270350Z AUTO 21004KT 9999 FEW016/// SCT024/// 12/11 Q1018=
201608270320 METAR ESMX 270320Z AUTO 22004KT 9999 NCD 12/11 Q1018=
201608270250 METAR ESMX 270250Z AUTO 24005KT 9999 FEW021/// 13/12 Q1018=
201608270220 METAR ESMX 270220Z AUTO 24005KT 9999 BKN018/// 13/12 Q1017=
201608270150 METAR ESMX 270150Z AUTO 23004KT 9999 FEW020/// 13/12 Q1017=
201608270120 METAR ESMX 270120Z AUTO 24005KT 9999 NCD 14/12 Q1017=
201608270050 METAR ESMX 270050Z AUTO 27006KT 9999 NCD 14/13 Q1017=
201608270020 METAR ESMX 270020Z AUTO 24005KT 220V290 9999 NCD 14/13 Q1017=
201608262350 METAR ESMX 262350Z AUTO 24006KT 9999 NCD 15/13 Q1017=
201608262320 METAR ESMX 262320Z AUTO 25007KT 9999 FEW020/// 15/14 Q1017=
201608262250 METAR ESMX 262250Z AUTO 24007KT 9999 NCD 16/14 Q1016=
201608262220 METAR ESMX 262220Z AUTO 25007KT 9999 FEW016/// 16/14 Q1016=
201608262150 METAR ESMX 262150Z AUTO 26008KT 220V300 9999 FEW015/// 17/14 Q1016=
201608262120 METAR ESMX 262120Z AUTO 26010KT 9999 FEW015/// 18/15 Q1016=
201608262050 METAR ESMX 262050Z AUTO 27008KT 9999 FEW100/// 19/15 Q1015=
201608262020 METAR ESMX 262020Z AUTO 26010KT 9999 NCD 20/15 Q1015=
201608261950 METAR ESMX 261950Z AUTO 26010KT 230V290 9999 NCD 21/16 Q1015=
201608261920 METAR ESMX 261920Z AUTO 26010KT 9999 NCD 23/17 Q1014=
201608261850 METAR ESMX 261850Z AUTO 22010KT 9999 NCD 24/16 Q1014=
201608261820 METAR ESMX 261820Z AUTO 24009KT 9999 NCD 24/17 Q1013=
201608261750 METAR ESMX 261750Z AUTO 18007KT 9999 NCD 24/18 Q1013=
201608261720 METAR ESMX 261720Z 19007KT CAVOK 25/18 Q1013=
201608261650 METAR ESMX 261650Z 17008KT CAVOK 25/18 Q1013=
201608261620 METAR ESMX 261620Z 16010KT CAVOK 26/17 Q1013=
201608261550 METAR ESMX 261550Z 17009KT CAVOK 26/17 Q1013=
201608261520 METAR ESMX 261520Z 17009KT CAVOK 27/17 Q1013=
201608261450 METAR ESMX 261450Z 16011KT CAVOK 27/17 Q1013=
201608261420 METAR ESMX 261420Z 18009KT CAVOK 28/17 Q1013=
201608261350 METAR ESMX 261350Z 18012KT CAVOK 28/17 Q1013=
201608261320 METAR ESMX 261320Z 18010KT 140V200 CAVOK 28/16 Q1013=
201608261250 METAR ESMX 261250Z 15009KT 100V170 CAVOK 26/16 Q1014=
201608261220 METAR ESMX 261220Z 17010KT 130V200 CAVOK 26/16 Q1014=
201608261150 METAR ESMX 261150Z 17011KT 150V210 CAVOK 26/17 Q1014=
201608261120 METAR ESMX 261120Z 18010KT 130V210 CAVOK 26/16 Q1014=
201608261050 METAR ESMX 261050Z 16010KT CAVOK 24/16 Q1014=
201608261020 METAR ESMX 261020Z 16010KT 120V200 CAVOK 24/16 Q1014=
201608260950 METAR ESMX 260950Z 15008KT 110V180 CAVOK 24/16 Q1014=
201608260920 METAR ESMX 260920Z 17009KT 140V200 CAVOK 23/15 Q1015=
201608260850 METAR COR ESMX 260850Z 17010KT CAVOK 23/16 Q1015=
201608260820 METAR ESMX 260820Z 15007KT 120V190 CAVOK 21/16 Q1015=
201608260750 METAR ESMX 260750Z 17008KT CAVOK 20/16 Q1016=
201608260720 METAR ESMX 260720Z 17007KT CAVOK 20/16 Q1016=
201608260650 METAR ESMX 260650Z 17007KT 140V200 CAVOK 19/16 Q1016=
201608260620 METAR ESMX 260620Z 16007KT 140V200 CAVOK 18/15 Q1016=
201608260550 METAR ESMX 260550Z 16006KT 120V180 CAVOK 17/15 Q1016=
201608260520 METAR ESMX 260520Z 15006KT CAVOK 16/15 Q1016=
201608260450 METAR ESMX 260450Z 15005KT CAVOK 16/15 Q1017=
201608260420 METAR ESMX 260420Z 16005KT CAVOK 16/14 Q1017=
201608260350 METAR ESMX 260350Z 15005KT 100V170 CAVOK 15/14 Q1017=
201608260320 METAR ESMX 260320Z AUTO 16004KT 9999 NCD 16/14 Q1017=
201608260250 METAR ESMX 260250Z AUTO 17005KT 9999 NCD 16/15 Q1017=
201608260220 METAR ESMX 260220Z AUTO 15006KT 9999 NCD 16/15 Q1018=
201608260150 METAR ESMX 260150Z AUTO 15005KT 9999 NCD 15/14 Q1018=
201608260120 METAR ESMX 260120Z AUTO 15005KT 9999 NCD 16/15 Q1018=
201608260050 METAR ESMX 260050Z AUTO 15007KT 9999 NCD 16/15 Q1018=
201608260020 METAR ESMX 260020Z AUTO 15007KT 9999 NCD 15/14 Q1018=
201608252350 METAR ESMX 252350Z 15005KT CAVOK 15/14 Q1019=
201608252320 METAR ESMX 252320Z 14004KT CAVOK 14/13 Q1019=
201608252250 METAR ESMX 252250Z 14003KT CAVOK 12/12 Q1019=
201608252220 METAR ESMX 252220Z 12002KT CAVOK 13/12 Q1019=
201608252150 METAR ESMX 252150Z 12003KT CAVOK 13/13 Q1019=
201608252120 METAR ESMX 252120Z VRB01KT CAVOK 14/13 Q1020=
201608252050 METAR ESMX 252050Z 14002KT CAVOK 14/13 Q1020=
201608252020 METAR ESMX 252020Z 17003KT CAVOK 17/14 Q1020=
201608251950 METAR ESMX 251950Z 16004KT CAVOK 18/14 Q1020=
201608251920 METAR ESMX 251920Z 16007KT CAVOK 19/14 Q1020=
201608251850 METAR ESMX 251850Z 16007KT CAVOK 19/14 Q1020=
201608251820 METAR ESMX 251820Z 17007KT CAVOK 20/14 Q1020=
201608251750 METAR ESMX 251750Z 17007KT CAVOK 21/14 Q1020=
201608251720 METAR ESMX 251720Z 17009KT CAVOK 22/14 Q1020=
201608251650 METAR ESMX 251650Z 17010KT CAVOK 23/14 Q1020=
201608251620 METAR ESMX 251620Z 16011KT CAVOK 24/15 Q1020=
201608251550 METAR ESMX 251550Z 16010KT CAVOK 25/15 Q1020=
201608251520 METAR ESMX 251520Z 17010KT 120V200 CAVOK 25/16 Q1020=
201608251450 METAR ESMX 251450Z 15010KT 110V190 CAVOK 26/17 Q1021=
201608251420 METAR ESMX 251420Z 16011KT 9999 FEW040 26/17 Q1021=
201608251350 METAR ESMX 251350Z 18011KT 9999 FEW040 26/17 Q1021=
201608251320 METAR ESMX 251320Z 16010KT 120V190 9999 FEW040 SCT200 26/16 Q1021=
201608251257 METAR ESMX 251257Z 18007KT 130V220 9999 FEW040 SCT200 26/17 Q1021=
201608251250 METAR ESMX 251250Z AUTO 19009KT 130V210 9999 NCD 26/16 Q1021=
201608251220 METAR ESMX 251220Z 19011KT 150V230 9999 FEW040 SCT200 27/16 Q1022=
201608251150 METAR ESMX 251150Z 19011KT 160V230 9999 FEW040 27/16 Q1022=
201608251120 METAR ESMX 251120Z 21011KT 170V240 9999 FEW035 26/16 Q1022=
201608251050 METAR ESMX 251050Z 21010KT 190V250 9999 FEW036 26/16 Q1022=
201608251020 METAR ESMX 251020Z 19010KT 150V220 CAVOK 25/17 Q1022=
201608250950 METAR ESMX 250950Z 21010KT CAVOK 24/17 Q1023=
201608250920 METAR ESMX 250920Z 18008KT CAVOK 24/17 Q1023=
201608250850 METAR ESMX 250850Z 21006KT 170V240 CAVOK 23/17 Q1023=
201608250820 METAR ESMX 250820Z 16006KT CAVOK 21/16 Q1023=
201608250750 METAR ESMX 250750Z 18007KT 150V210 CAVOK 19/16 Q1023=
201608250720 METAR ESMX 250720Z 17006KT CAVOK 18/15 Q1023=
201608250650 METAR ESMX 250650Z 17005KT 130V200 CAVOK 17/15 Q1023=
201608250620 METAR ESMX 250620Z 17005KT 120V200 CAVOK 15/14 Q1023=
201608250550 METAR ESMX 250550Z 16005KT 120V200 CAVOK 14/14 Q1023=
201608250520 METAR ESMX 250520Z 15003KT 110V190 0600 R01/0800N R19/P2000N FG VV002 13/13 Q1023=
201608250450 METAR ESMX 250450Z 15004KT 120V180 0300 R01/0600N R19/0650N FG VV001 13/13 Q1024=
201608250420 METAR ESMX 250420Z 16003KT 110V190 0150 R01/0400N R19/0450N FG VV001 12/12 Q1023=
201608250350 METAR ESMX 250350Z 16004KT 130V190 0200 R01/0400N R19/P2000N BCFG VV001 11/11 Q1024=
201608250320 METAR ESMX 250320Z AUTO 16003KT 4200 NCD 11/11 Q1024=
201608250250 METAR ESMX 250250Z AUTO 15003KT 1800 BCFG NCD 11/11 Q1024=
201608250220 METAR ESMX 250220Z AUTO 15003KT 0100 R01/1600N R19/P2000N BCFG NCD 12/12 Q1024=
201608250150 METAR ESMX 250150Z AUTO 19003KT 6000 BR NCD 12/12 Q1024=
201608250120 METAR ESMX 250120Z AUTO 16004KT 9000 BR NCD 14/13 Q1024=
201608250050 METAR ESMX 250050Z AUTO 16004KT 9999 NCD 14/14 Q1024=
201608250020 METAR ESMX 250020Z AUTO 18003KT 9999 BR NCD 13/12 Q1024=
201608242350 METAR ESMX 242350Z AUTO 19004KT 9999 NCD 14/13 Q1024=
201608242320 METAR ESMX 242320Z 15004KT CAVOK 15/14 Q1024=
201608242250 METAR ESMX 242250Z 20004KT CAVOK 14/13 Q1025=
201608242220 METAR ESMX 242220Z 17004KT CAVOK 16/14 Q1024=
201608242150 METAR ESMX 242150Z 18005KT CAVOK 17/14 Q1025=
201608242120 METAR ESMX 242120Z 18005KT CAVOK 17/14 Q1025=
201608242050 METAR ESMX 242050Z 17005KT CAVOK 17/14 Q1025=
201608242020 METAR ESMX 242020Z 18006KT CAVOK 18/14 Q1025=
201608241950 METAR ESMX 241950Z 18006KT CAVOK 17/14 Q1025=
201608241920 METAR ESMX 241920Z 18006KT CAVOK 19/14 Q1025=
201608241850 METAR ESMX 241850Z 20004KT CAVOK 18/13 Q1025=
201608241820 METAR ESMX 241820Z 20003KT CAVOK 18/14 Q1025=
201608241750 METAR ESMX 241750Z 20003KT CAVOK 20/15 Q1025=
201608241720 METAR ESMX 241720Z 22002KT CAVOK 21/14 Q1025=
201608241650 METAR ESMX 241650Z 23003KT CAVOK 21/13 Q1025=
201608241620 METAR ESMX 241620Z 20006KT CAVOK 23/12 Q1025=
201608241550 METAR ESMX 241550Z 20008KT 150V220 CAVOK 23/12 Q1025=
201608241520 METAR ESMX 241520Z 20007KT 170V240 CAVOK 23/12 Q1025=
201608241450 METAR COR ESMX 241450Z 19007KT 150V230 CAVOK 24/12 Q1025=
201608241420 METAR ESMX 241420Z 19007KT 160V230 CAVOK 23/11 Q1025=
201608241350 METAR ESMX 241350Z 22006KT 170V280 CAVOK 24/10 Q1025=
201608241320 METAR ESMX 241320Z 18007KT 140V230 CAVOK 23/12 Q1025=
201608241250 METAR ESMX 241250Z 19006KT 160V240 9999 FEW038 23/13 Q1026=
201608241220 METAR ESMX 241220Z 22006KT 9999 FEW035 22/13 Q1026=
201608241150 METAR ESMX 241150Z 20008KT 9999 FEW032 22/13 Q1026=
201608241120 METAR ESMX 241120Z 23005KT 9999 FEW032 21/13 Q1026=
201608241050 METAR ESMX 241050Z 21004KT 170V260 9999 FEW033 22/14 Q1026=
201608241020 METAR ESMX 241020Z 18004KT 100V260 9999 FEW027 21/13 Q1026=
201608240950 METAR ESMX 240950Z 24004KT 160V290 9999 FEW025 20/13 Q1027=
201608240920 METAR ESMX 240920Z 27004KT 220V330 9999 FEW024 20/14 Q1027=
201608240850 METAR ESMX 240850Z 33003KT 280V030 CAVOK 20/13 Q1027=
201608240820 METAR ESMX 240820Z VRB02KT CAVOK 19/13 Q1027=
201608240750 METAR ESMX 240750Z VRB01KT CAVOK 18/13 Q1027=
201608240720 METAR ESMX 240720Z 04003KT CAVOK 18/13 Q1027=
201608240650 METAR ESMX 240650Z VRB03KT CAVOK 16/14 Q1027=
201608240620 METAR ESMX 240620Z VRB03KT CAVOK 15/14 Q1027=
201608240550 METAR ESMX 240550Z 00000KT CAVOK 13/13 Q1027=
201608240520 METAR ESMX 240520Z 00000KT 9000 BCFG NSC 12/12 Q1026=
201608240450 METAR ESMX 240450Z 00000KT 5000 BR NSC 08/08 Q1026=
201608240420 METAR ESMX 240420Z 19001KT 0250 R01/P0400N R19/P2000N BCFG NSC 08/07 Q1026=
201608240350 METAR ESMX 240350Z 15001KT 0150 R01/0400N R19/0300N BCFG NSC 08/08 Q1026=
201608240320 METAR ESMX 240320Z AUTO 16002KT 0150 R01/0400N R19/P2000N BCFG NCD 09/09 Q1026=
201608240250 METAR ESMX 240250Z AUTO 17003KT 0450 R01/P2000N R19/P2000N BCFG NCD 10/10 Q1026=
201608240220 METAR ESMX 240220Z AUTO 00000KT 9999 BCFG NCD 09/09 Q1026=
201608240150 METAR ESMX 240150Z AUTO 30001KT 9999 BCFG NCD 09/09 Q1026=
201608240120 METAR ESMX 240120Z AUTO VRB02KT 0150 R01/0400N R19/P2000N BCFG NCD 10/10 Q1026=
201608240050 METAR ESMX 240050Z AUTO 00000KT 0200 R01/1700N R19/0700N BCFG NCD 10/09 Q1026=
201608240020 METAR ESMX 240020Z AUTO 00000KT 6000 BCFG NCD 10/10 Q1026=
201608232350 METAR ESMX 232350Z AUTO 26002KT 9999 NCD 10/10 Q1026=
201608232320 METAR ESMX 232320Z 26002KT 8000 BR NSC 11/11 Q1026=
201608232250 METAR ESMX 232250Z 27003KT 9999 NSC 13/12 Q1025=
201608232220 METAR ESMX 232220Z VRB03KT 9999 NSC 13/12 Q1025=
201608232150 METAR ESMX 232150Z 26005KT 9999 NSC 13/12 Q1025=
201608232120 METAR ESMX 232120Z 28003KT 9999 NSC 13/13 Q1025=
201608232050 METAR ESMX 232050Z 28002KT 9999 NSC 14/13 Q1025=
201608232020 METAR ESMX 232020Z 27003KT 9999 NSC 14/13 Q1025=
201608231950 METAR ESMX 231950Z 25004KT 9999 NSC 15/13 Q1025=
201608231920 METAR ESMX 231920Z 25004KT 9999 NSC 15/13 Q1024=
201608231850 METAR ESMX 231850Z 24005KT CAVOK 15/13 Q1024=
201608231820 METAR ESMX 231820Z 26003KT CAVOK 17/13 Q1024=
201608231750 METAR ESMX 231750Z 27005KT 9999 FEW045 19/13 Q1024=
201608231720 METAR ESMX 231720Z 29006KT CAVOK 21/13 Q1023=
201608231650 METAR ESMX 231650Z 31005KT CAVOK 21/13 Q1023=
201608231620 METAR ESMX 231620Z 32006KT 290V350 CAVOK 21/12 Q1023=
201608231550 METAR ESMX 231550Z 33006KT 260V360 CAVOK 21/12 Q1023=
201608231520 METAR ESMX 231520Z 32005KT 260V010 9999 FEW045 22/12 Q1023=
201608231450 METAR ESMX 231450Z 35007KT 9999 FEW040 SCT065 21/13 Q1023=
201608231420 METAR ESMX 231420Z 34007KT 290V010 9999 FEW043 SCT070 22/13 Q1023=
201608231350 METAR ESMX 231350Z 29008KT CAVOK 22/13 Q1023=
201608231320 METAR ESMX 231320Z 31006KT 9999 FEW045 21/13 Q1023=
201608231250 METAR ESMX 231250Z 28004KT 240V320 9999 SCT036 21/13 Q1023=
201608231220 METAR ESMX 231220Z 30004KT 230V010 9999 SCT040 21/12 Q1023=
201608231150 METAR ESMX 231150Z 32005KT 270V010 9999 FEW032 BKN056 20/13 Q1022=
201608231120 METAR ESMX 231120Z 34006KT 9999 FEW028 SCT044 20/13 Q1022=
201608231050 METAR ESMX 231050Z 30004KT 260V330 9999 SCT028 20/13 Q1022=
201608231020 METAR ESMX 231020Z 01005KT 290V070 9999 BKN023 19/13 Q1022=
201608230950 METAR ESMX 230950Z AUTO 34005KT 300V020 9999 FEW019/// SCT027/// 19/14 Q1022=
201608230920 METAR ESMX 230920Z 32005KT 280V350 9999 FEW015 SCT025 BKN065 18/14 Q1022=
201608230850 METAR ESMX 230850Z 32005KT 280V360 9999 FEW015 BKN018 17/15 Q1022=
201608230820 METAR ESMX 230820Z 33006KT 9999 FEW012 BKN017 17/14 Q1022=
201608230750 METAR ESMX 230750Z 34009KT 9999 FEW008 BKN010 18/15 Q1021=
201608230720 METAR ESMX 230720Z 34004KT 280V020 8000 BR SCT006 BKN009 17/15 Q1021=
201608230650 METAR ESMX 230650Z 30004KT 250V340 8000 BR OVC005 16/15 Q1021=
201608230620 METAR ESMX 230620Z 31005KT 8000 BR OVC005 15/14 Q1021=
201608230550 METAR ESMX 230550Z 33004KT 8000 BR FEW005 OVC006 15/15 Q1021=
201608230520 METAR ESMX 230520Z 29003KT 8000 BR SCT006 BKN010 15/15 Q1020=
201608230450 METAR ESMX 230450Z 31002KT 6000 BR FEW007 SCT013 15/15 Q1020=
201608230420 METAR ESMX 230420Z 35002KT 3500 BR SCT004 BKN006 OVC009 15/15 Q1020=
201608230350 METAR ESMX 230350Z 00000KT 3200 BR OVC004 15/14 Q1020=
201608230320 METAR ESMX 230320Z AUTO 00000KT 4300 BR FEW006/// SCT011/// BKN030/// 15/15 Q1020 REDZ=
201608230250 METAR ESMX 230250Z AUTO 16003KT 2500 DZ FEW003/// OVC026/// 15/15 Q1020 RERA=
201608230220 METAR ESMX 230220Z AUTO VRB02KT 4400 BR FEW004/// SCT007/// BKN019/// 15/15 Q1020 RERA=
201608230150 METAR ESMX 230150Z AUTO 18003KT 2500 DZ FEW002/// SCT012/// BKN019/// 15/15 Q1020 RESHRA=
201608230120 METAR ESMX 230120Z AUTO 19003KT 3300 RA SCT020/// BKN025/// 15/14 Q1020=
201608230050 METAR ESMX 230050Z AUTO VRB01KT 7000 -RA FEW002/// SCT012/// BKN026/// 15/14 Q1020 RERA=
201608230020 METAR ESMX 230020Z AUTO 17002KT 9999 SCT026/// BKN033/// OVC047/// 15/14 Q1020=
201608222350 METAR ESMX 222350Z 19005KT 9999 OVC038 15/14 Q1021=
201608222320 METAR ESMX 222320Z 17004KT 9999 FEW037 SCT043 BKN075 15/14 Q1021=
201608222250 METAR ESMX 222250Z 16004KT CAVOK 15/13 Q1020=
201608222220 METAR ESMX 222220Z 17004KT CAVOK 16/13 Q1021=
201608222150 METAR ESMX 222150Z 18005KT CAVOK 16/13 Q1021=
201608222120 METAR ESMX 222120Z 19006KT CAVOK 15/13 Q1021=
201608222050 METAR ESMX 222050Z 19005KT CAVOK 15/12 Q1021=
201608222020 METAR ESMX 222020Z 18004KT CAVOK 16/12 Q1021=
201608221950 METAR ESMX 221950Z 17003KT CAVOK 14/12 Q1021=
201608221920 METAR ESMX 221920Z 21003KT 9999 FEW029 SCT033 BKN100 14/12 Q1021=
201608221850 METAR ESMX 221850Z 20003KT CAVOK 14/12 Q1021=
201608221820 METAR ESMX 221820Z 21003KT CAVOK 16/12 Q1021=
201608221750 METAR ESMX 221750Z 23004KT CAVOK 16/11 Q1021=
201608221720 METAR ESMX 221720Z 23004KT CAVOK 18/11 Q1021=
201608221650 METAR ESMX 221650Z 25006KT 9999 FEW040 BKN200 19/10 Q1021=
201608221620 METAR ESMX 221620Z 23007KT 9999 FEW025 BKN200 19/11 Q1020=
201608221550 METAR ESMX 221550Z 22008KT 200V260 9999 FEW030 SCT100 20/11 Q1020=
201608221520 METAR ESMX 221520Z 25007KT 9999 SCT030 20/13 Q1020=
201608221450 METAR ESMX 221450Z 24006KT 190V290 9999 FEW035 SCT060 20/14 Q1020=
201608221420 METAR ESMX 221420Z 27006KT 230V320 9999 FEW017TCU SCT030 20/13 Q1020=
201608221350 METAR ESMX 221350Z 27006KT 220V310 9999 FEW015 SCT020CB BKN060 19/14 Q1020=
201608221320 METAR ESMX 221320Z 25006KT 210V280 9999 FEW015 SCT020CB BKN065 19/15 Q1020=
201608221250 METAR ESMX 221250Z 22007KT 9999 FEW018 SCT025CB BKN040 19/15 Q1020 RERA=
201608221220 METAR ESMX 221220Z 23008KT 170V260 9999 SHRA FEW019 SCT028CB BKN060 17/15 Q1020=
201608221150 METAR ESMX 221150Z 19012KT 9999 SCT030 BKN070 20/14 Q1020=
201608221120 METAR ESMX 221120Z 19010KT 9999 VCSH FEW030CB SCT035 BKN040 20/13 Q1019=
201608221050 METAR ESMX 221050Z 18010KT 9999 FEW030CB SCT040 20/13 Q1019=
201608221020 METAR ESMX 221020Z 20010KT 160V220 9999 FEW025TCU SCT035 20/13 Q1019=
201608220950 METAR ESMX 220950Z 20009KT 170V240 9999 SCT026 BKN037 21/13 Q1019=
201608220920 METAR ESMX 220920Z 20009KT 9999 SCT030 20/13 Q1019=
201608220850 METAR ESMX 220850Z 21008KT 9999 SCT025 18/14 Q1019=
201608220820 METAR ESMX 220820Z 19007KT 170V230 9999 FEW018 19/13 Q1019=
201608220750 METAR ESMX 220750Z 20005KT 9999 FEW035 18/14 Q1019=
201608220720 METAR ESMX 220720Z 25003KT 210V280 CAVOK 17/13 Q1019=
201608220650 METAR ESMX 220650Z 23004KT 190V260 CAVOK 15/13 Q1019=
201608220620 METAR ESMX 220620Z 19004KT CAVOK 14/13 Q1019=
201608220550 METAR ESMX 220550Z 18003KT CAVOK 13/13 Q1018=
201608220520 METAR ESMX 220520Z VRB02KT CAVOK 11/11 Q1018=
201608220450 METAR ESMX 220450Z 19003KT 0400 R01/1000N R19/0700U FG NSC 10/10 Q1018=
201608220420 METAR ESMX 220420Z 18003KT 0100 R01/0200N R19/0400N FG NSC 09/09 Q1018=
201608220350 METAR ESMX 220350Z 00000KT 0100 R01/0200N R19/0400N BCFG NSC 08/07 Q1018=
201608220320 METAR ESMX 220320Z AUTO 18003KT 0250 R01/1000N R19/P2000N BCFG FEW000/// 08/08 Q1018=
201608220250 METAR ESMX 220250Z AUTO 18002KT 0300 R01/0700N R19/P2000N BCFG FEW000/// 08/08 Q1017=
201608220220 METAR ESMX 220220Z AUTO 16002KT 1400 R01/P2000N R19/P2000N BCFG VV000 09/09 Q1017=
201608220150 METAR ESMX 220150Z AUTO 19003KT 0200 R01/P2000N R19/P2000N BCFG NCD 07/07 Q1017=
201608220120 METAR ESMX 220120Z AUTO 00000KT 0150 R01/P2000N R19/P2000N BCFG FEW000/// 09/09 Q1017=
201608220050 METAR ESMX 220050Z AUTO 15002KT 0100 R01/P2000N R19/0350D BCFG NCD 09/09 Q1017=
201608220020 METAR ESMX 220020Z AUTO 16002KT 2000 BCFG NCD 11/10 Q1017=
201608212350 METAR ESMX 212350Z AUTO 18002KT 1200 R01/P2000N R19/P2000N BCFG NCD 10/09 Q1017=
201608212320 METAR ESMX 212320Z 15002KT CAVOK 11/10 Q1017=
201608212250 METAR ESMX 212250Z 20003KT CAVOK 10/09 Q1016=
201608212220 METAR ESMX 212220Z 16002KT CAVOK 11/10 Q1016=
201608212150 METAR ESMX 212150Z 18001KT CAVOK 11/11 Q1016=
201608212120 METAR ESMX 212120Z 21002KT CAVOK 11/10 Q1016=
201608212050 METAR ESMX 212050Z VRB02KT CAVOK 13/12 Q1016=
201608212020 METAR ESMX 212020Z 19003KT CAVOK 13/12 Q1016=
201608211950 METAR ESMX 211950Z VRB02KT CAVOK 15/13 Q1016=
201608211920 METAR ESMX 211920Z 24004KT CAVOK 16/13 Q1016=
201608211850 METAR ESMX 211850Z 21004KT CAVOK 15/13 Q1016=
201608211820 METAR ESMX 211820Z 18002KT CAVOK 17/13 Q1016=
201608211750 METAR ESMX 211750Z 19003KT CAVOK 19/13 Q1015=
201608211720 METAR ESMX 211720Z 21003KT CAVOK 20/12 Q1015=
201608211650 METAR ESMX 211650Z AUTO 20003KT 9999 NCD 20/11 Q1015=
201608211620 METAR ESMX 211620Z AUTO VRB03KT 9999 FEW100/// 21/11 Q1015=
201608211550 METAR ESMX 211550Z VRB02KT 9999 FEW045 SCT100 21/11 Q1015=
201608211520 METAR ESMX 211520Z VRB02KT 9999 FEW045 SCT100 20/11 Q1015=
201608211450 METAR ESMX 211450Z 04004KT 350V070 9999 FEW035 SCT100 21/11 Q1014=
201608211420 METAR ESMX 211420Z VRB02KT 9999 FEW030 SCT100 21/09 Q1014=
201608211350 METAR ESMX 211350Z VRB01KT 9999 FEW035 SCT100 20/09 Q1015=
201608211320 METAR ESMX 211320Z VRB03KT 9999 FEW035 BKN090 20/09 Q1014=
201608211250 METAR ESMX 211250Z 05004KT 360V080 9999 FEW035 BKN090 20/09 Q1014=
201608211220 METAR ESMX 211220Z VRB02KT 9999 FEW040 SCT100 20/11 Q1015=
201608211150 METAR ESMX 211150Z VRB03KT 9999 FEW040 20/11 Q1014=
201608211120 METAR ESMX 211120Z VRB03KT 9999 FEW040 20/11 Q1014=
201608211050 METAR ESMX 211050Z VRB03KT 9999 FEW045 BKN080 19/12 Q1014=
201608211020 METAR ESMX 211020Z VRB02KT 9999 FEW030 18/13 Q1014=
201608210950 METAR ESMX 210950Z AUTO 32003KT 270V350 9999 FEW081/// 18/14 Q1014=
201608210920 METAR ESMX 210920Z AUTO 02004KT 340V060 9999 FEW067/// 17/14 Q1014=
201608210850 METAR ESMX 210850Z AUTO 03004KT 340V060 9999 FEW005/// SCT090/// 16/14 Q1014=
201608210820 METAR ESMX 210820Z AUTO VRB03KT 9999 SCT003/// BKN005/// BKN091/// 16/14 Q1014=
201608210750 METAR ESMX 210750Z AUTO VRB03KT 9999 OVC003/// 16/14 Q1014=
201608210720 METAR ESMX 210720Z AUTO 31004KT 260V350 9999 BKN002/// 15/14 Q1014=
201608210650 METAR ESMX 210650Z AUTO 28003KT 9999 OVC002/// 15/14 Q1014=
201608210620 METAR ESMX 210620Z AUTO 29005KT 9999 OVC001/// 14/14 Q1014=
201608210550 METAR ESMX 210550Z AUTO 30004KT 2400 OVC001/// 14/14 Q1014=
201608210520 METAR ESMX 210520Z AUTO VRB03KT 6000 BCFG BKN002/// 14/13 Q1014=
201608210450 METAR ESMX 210450Z AUTO 26003KT 4700 BCFG NCD 12/11 Q1014=
201608210420 METAR ESMX 210420Z AUTO 00000KT 0200 R01/0350N R19/P2000N BCFG SCT098/// 13/12 Q1013=
201608210350 METAR ESMX 210350Z AUTO 18001KT 7000 BR FEW083/// BKN099/// 13/13 Q1013=
201608210320 METAR ESMX 210320Z AUTO 00000KT 5000 BR FEW093/// SCT100/// 12/12 Q1013=
201608210250 METAR ESMX 210250Z AUTO 00000KT 6000 BR FEW007/// BKN086/// 14/13 Q1013=
201608210220 METAR ESMX 210220Z AUTO 00000KT 6000 BR BKN092/// 14/14 Q1013=
201608210150 METAR ESMX 210150Z AUTO VRB02KT 5000 BR BKN097/// 14/13 Q1013=
201608210120 METAR ESMX 210120Z AUTO VRB03KT 9999 SCT100/// 15/14 Q1013=
201608210050 METAR ESMX 210050Z AUTO 26006KT 9999 FEW010/// BKN036/// BKN052/// 16/15 Q1013=
201608210020 METAR ESMX 210020Z AUTO 21006KT 9999 FEW005/// SCT007/// BKN009/// 16/15 Q1013=
201608202350 METAR ESMX 202350Z AUTO 20005KT 160V230 9999 OVC006/// 16/15 Q1013=
201608202320 METAR ESMX 202320Z AUTO 21006KT 9000 BR OVC006/// 16/15 Q1012=
201608202250 METAR ESMX 202250Z AUTO 18005KT 6000 BR OVC006/// 16/15 Q1012 REDZ=
201608202220 METAR ESMX 202220Z AUTO 17006KT 8000 BR BKN006/// BKN031/// 16/15 Q1013 REDZ=
201608202150 METAR ESMX 202150Z AUTO 17005KT 9000 -DZ FEW016/// SCT028/// BKN033/// 16/15 Q1012=
201608202120 METAR ESMX 202120Z AUTO 17006KT 9999 SCT031/// BKN046/// BKN070/// 16/15 Q1012=
201608202050 METAR ESMX 202050Z AUTO 16005KT 120V190 9999 FEW010/// BKN066/// 16/15 Q1012=
201608202020 METAR ESMX 202020Z AUTO 16005KT 120V190 9999 BKN065/// 16/14 Q1012=
201608201950 METAR ESMX 201950Z AUTO 16005KT 120V190 9999 FEW087/// BKN100/// 17/14 Q1012 REDZ=
201608201920 METAR ESMX 201920Z AUTO 14005KT 100V170 9999 BKN092/// 17/14 Q1012=
201608201850 METAR ESMX 201850Z AUTO 12003KT 100V170 9999 BKN085/// 17/14 Q1012=
201608201820 METAR ESMX 201820Z AUTO 10004KT 050V160 9999 FEW022/// SCT099/// 17/14 Q1012=
201608201750 METAR ESMX 201750Z AUTO 11006KT 070V170 9999 FEW100/// 18/13 Q1012=
201608201720 METAR ESMX 201720Z AUTO 11004KT 060V170 9999 FEW071/// SCT100/// 18/13 Q1012=
201608201650 METAR ESMX 201650Z AUTO 13006KT 080V170 9999 FEW100/// 18/13 Q1012=
201608201620 METAR ESMX 201620Z AUTO 11004KT 060V160 9999 SCT100/// 19/13 Q1012=
201608201550 METAR ESMX 201550Z AUTO 11006KT 070V150 9999 SCT100/// 19/13 Q1012=
201608201520 METAR ESMX 201520Z 10004KT 050V150 CAVOK 19/13 Q1012=
201608201450 METAR ESMX 201450Z 11005KT 060V160 CAVOK 19/13 Q1013=
201608201420 METAR ESMX 201420Z 10004KT 070V140 CAVOK 18/13 Q1013=
201608201350 METAR ESMX 201350Z 10003KT 050V140 CAVOK 18/13 Q1013=
201608201320 METAR ESMX 201320Z 10004KT 040V140 CAVOK 18/13 Q1013=
201608201250 METAR ESMX 201250Z 10003KT 060V160 CAVOK 18/13 Q1013=
201608201220 METAR ESMX 201220Z 11004KT 060V150 CAVOK 17/13 Q1013=
201608201150 METAR ESMX 201150Z 11005KT 070V170 CAVOK 17/13 Q1013=
201608201120 METAR ESMX 201120Z 11003KT 060V170 CAVOK 17/13 Q1013=
201608201050 METAR ESMX 201050Z AUTO 13003KT 070V170 9999 OVC063/// 17/13 Q1013=
201608201020 METAR ESMX 201020Z AUTO 12004KT 080V210 9999 FEW074/// SCT089/// 16/13 Q1013=
201608200950 METAR ESMX 200950Z AUTO 11005KT 060V150 9999 -RA FEW069/// SCT095/// 16/13 Q1013=
201608200920 METAR ESMX 200920Z AUTO 12004KT 070V160 9999 FEW060/// BKN100/// 16/13 Q1013=
201608200850 METAR ESMX 200850Z AUTO 12004KT 080V170 9999 FEW065/// 16/13 Q1013=
201608200820 METAR ESMX 200820Z AUTO 12004KT 080V170 9999 SCT067/// 16/13 Q1013=
201608200750 METAR ESMX 200750Z AUTO 15004KT 110V170 9999 FEW074/// 15/13 Q1013=
201608200720 METAR ESMX 200720Z AUTO 14003KT 100V170 9999 SCT005/// BKN009/// BKN074/// 15/13 Q1013=
201608200650 METAR ESMX 200650Z AUTO 17004KT 100V200 9999 FEW003/// BKN005/// BKN073/// 15/13 Q1013=
201608200620 METAR ESMX 200620Z AUTO 18004KT 140V210 9999 OVC001/// 14/13 Q1013=
201608200550 METAR ESMX 200550Z AUTO 17004KT 130V210 0800 R01/1100U R19/1300U FG VV002 13/13 Q1013=
201608200520 METAR ESMX 200520Z AUTO 15004KT 9999 FEW002/// 12/12 Q1013=
201608200450 METAR ESMX 200450Z AUTO VRB02KT 9000 BR SCT001/// BKN074/// 12/12 Q1013=
201608200420 METAR ESMX 200420Z AUTO VRB01KT 7000 BR FEW001/// SCT056/// BKN074/// 12/12 Q1013=
201608200350 METAR ESMX 200350Z AUTO 13003KT 7000 SCT001/// OVC073/// 12/12 Q1013=
201608200320 METAR ESMX 200320Z AUTO 15004KT 130V190 6000 OVC001/// 12/12 Q1013=
201608200250 METAR ESMX 200250Z AUTO VRB02KT 0150 R01/0600N R19/0550N FG VV001 11/10 Q1013=
201608200220 METAR ESMX 200220Z AUTO 17001KT 0150 R01/0400N R19/0600N FG VV001 11/10 Q1013=
201608200150 METAR ESMX 200150Z AUTO VRB01KT 0100 R01/0450N R19/0450N FG VV000 11/10 Q1013=
201608200120 METAR ESMX 200120Z AUTO VRB03KT 0200 R01/0600N R19/P2000N FG FEW001/// 11/10 Q1013=
201608200050 METAR ESMX 200050Z AUTO 00000KT 0250 R01/0750N R19/P2000N FG NCD 09/09 Q1013=
201608200020 METAR ESMX 200020Z AUTO 17002KT 0200 R01/P2000N R19/P2000N BCFG NCD 10/10 Q1013=
201608192350 METAR ESMX 192350Z AUTO 00000KT 0300 R01/P2000D R19/0750N BCFG NCD 10/10 Q1013=
201608192320 METAR ESMX 192320Z AUTO 16002KT 9000 BR NCD 11/11 Q1013=
201608192250 METAR ESMX 192250Z AUTO 19005KT 9999 NCD 12/11 Q1013=
201608192220 METAR ESMX 192220Z AUTO 17003KT 9999 NCD 12/11 Q1013=
201608192150 METAR ESMX 192150Z AUTO 17004KT 9999 BKN071/// 14/12 Q1013=
201608192120 METAR ESMX 192120Z AUTO 19006KT 9999 OVC073/// 14/13 Q1013=
201608192050 METAR ESMX 192050Z AUTO 19005KT 9999 FEW047/// OVC072/// 15/13 Q1012=
201608192020 METAR ESMX 192020Z AUTO 19004KT 9999 FEW038/// OVC071/// 16/13 Q1012=
201608191950 METAR ESMX 191950Z AUTO 19003KT 9999 FEW047/// OVC068/// 16/13 Q1012=
201608191920 METAR ESMX 191920Z AUTO 21003KT 9999 OVC056/// 16/13 Q1012=
201608191850 METAR ESMX 191850Z AUTO 21003KT 9999 BKN054/// OVC073/// 16/14 Q1012=
201608191820 METAR ESMX 191820Z AUTO 19002KT 9999 BKN070/// 17/13 Q1012=
201608191750 METAR ESMX 191750Z AUTO 22003KT 9999 FEW046/// SCT052/// OVC070/// 17/13 Q1012=
201608191720 METAR ESMX 191720Z AUTO 21004KT 9999 OVC068/// 17/13 Q1011=
201608191650 METAR ESMX 191650Z AUTO 24004KT 9999 FEW055/// BKN068/// 17/13 Q1011=
201608191620 METAR ESMX 191620Z 25004KT 190V290 CAVOK 18/12 Q1011=
201608191550 METAR ESMX 191550Z 23008KT CAVOK 19/12 Q1011=
201608191520 METAR ESMX 191520Z 22007KT CAVOK 19/12 Q1011=
201608191450 METAR ESMX 191450Z 24006KT 210V270 9999 BKN049 BKN077 20/12 Q1011=
201608191420 METAR ESMX 191420Z 26009KT 9999 BKN045 20/11 Q1011=
201608191350 METAR ESMX 191350Z 22009KT 9999 SCT028 BKN041 19/12 Q1011=
201608191320 METAR ESMX 191320Z 24008KT 210V270 9999 SCT031 BKN048 20/12 Q1011=
201608191250 METAR ESMX 191250Z 25007KT 220V300 9999 FEW026 BKN070 20/11 Q1011=
201608191220 METAR ESMX 191220Z 27006KT 240V320 9999 FEW028 BKN069 18/13 Q1011=
201608191150 METAR ESMX 191150Z 23005KT 180V270 9999 SCT024 BKN046 19/12 Q1010=
201608191120 METAR ESMX 191120Z 30006KT 260V340 9999 FEW020 BKN044 18/13 Q1010=
201608191050 METAR ESMX 191050Z VRB02KT 9999 FEW017 BKN037 17/13 Q1010=
201608191020 METAR ESMX 191020Z VRB02KT 9999 FEW015 BKN037 17/12 Q1010=
201608190950 METAR ESMX 190950Z 25003KT 210V280 9999 FEW014 BKN033 16/12 Q1010=
201608190920 METAR ESMX 190920Z 28004KT 9999 BKN030 16/12 Q1010=
201608190850 METAR ESMX 190850Z 28005KT 240V340 9999 FEW014 BKN025 16/13 Q1010=
201608190820 METAR ESMX 190820Z 29006KT 9999 SCT012 BKN030 15/12 Q1010=
201608190750 METAR ESMX 190750Z 29006KT 9999 SCT011 BKN035 15/12 Q1010=
201608190720 METAR ESMX 190720Z 31006KT 9999 FEW014 BKN032 15/12 Q1010=
201608190650 METAR ESMX 190650Z 32004KT 280V020 9999 BKN010 15/13 Q1009=
201608190620 METAR ESMX 190620Z 29004KT 260V340 9999 FEW007 SCT025 BKN035 15/13 Q1009=
201608190550 METAR ESMX 190550Z 32005KT 9999 FEW006 SCT035 14/12 Q1009=
201608190520 METAR ESMX 190520Z AUTO 32004KT 9999 FEW005/// SCT007/// BKN008/// 13/13 Q1009=
201608190450 METAR ESMX 190450Z AUTO 31004KT 9999 FEW005/// SCT007/// BKN037/// 13/12 Q1009=
201608190420 METAR ESMX 190420Z AUTO 33005KT 9999 FEW007/// SCT020/// BKN034/// 13/12 Q1009=
201608190350 METAR ESMX 190350Z AUTO 32005KT 9999 FEW007/// SCT028/// BKN033/// 13/12 Q1009=
201608190320 METAR ESMX 190320Z AUTO 33005KT 6000 BR FEW004/// SCT006/// BKN011/// 13/13 Q1009=
201608190250 METAR ESMX 190250Z AUTO 32005KT 9999 FEW006/// SCT009/// BKN013/// 13/13 Q1009=
201608190220 METAR ESMX 190220Z AUTO 31004KT 9999 FEW005/// SCT009/// BKN017/// 13/12 Q1009=
201608190150 METAR ESMX 190150Z AUTO 31004KT 9999 FEW006/// SCT012/// OVC019/// 13/13 Q1009=
201608190120 METAR ESMX 190120Z AUTO 33004KT 4700 -RA FEW003/// SCT007/// BKN009/// 13/13 Q1009 REDZ=
201608190050 METAR ESMX 190050Z AUTO 35005KT 9999 -RA FEW004/// SCT007/// BKN015/// 14/13 Q1009=
201608190020 METAR ESMX 190020Z 34005KT 9999 FEW005 BKN009 OVC013 14/13 Q1009=
201608182350 METAR ESMX 182350Z 01005KT 9999 BKN005 OVC009 14/13 Q1009=
201608182320 METAR ESMX 182320Z 02005KT 9999 BKN006 OVC022 14/13 Q1009=
201608182250 METAR ESMX 182250Z 01007KT 9999 FEW005 SCT007 BKN013 14/13 Q1009=
201608182220 METAR ESMX 182220Z 36008KT 9999 SCT005 BKN008 OVC020 14/13 Q1008=
201608182150 METAR ESMX 182150Z 02008KT 9999 FEW006 SCT007 BKN012 14/13 Q1009=
201608182120 METAR ESMX 182120Z 35007KT 9999 -RA FEW006 SCT007 BKN009 14/13 Q1009=
201608182050 METAR ESMX 182050Z 35008KT 9999 FEW003 SCT007 BKN009 14/13 Q1009 RERA=
201608182020 METAR ESMX 182020Z 35008KT 9999 SCT006 BKN010 14/13 Q1009=
201608181950 METAR ESMX 181950Z 35008KT 9999 DZ SCT006 BKN012 14/13 Q1009 RERA=
201608181920 METAR ESMX 181920Z 35008KT 9999 FEW010 SCT014 BKN017 14/13 Q1008=
201608181850 METAR ESMX 181850Z 35008KT 9999 FEW007 SCT017 OVC020 14/13 Q1008=
201608181820 METAR ESMX 181820Z 35009KT 9999 -DZ SCT005 BKN010 14/13 Q1008=
201608181750 METAR ESMX 181750Z 34008KT 9999 SCT005 BKN010 14/13 Q1008=
201608181720 METAR ESMX 181720Z 34009KT 9999 SCT005 BKN010 15/14 Q1008=
201608181650 METAR ESMX 181650Z 35009KT 9999 BKN007 BKN012 15/14 Q1008=
201608181620 METAR ESMX 181620Z 35010KT 9999 SCT007 BKN010 15/13 Q1008=
201608181550 METAR ESMX 181550Z 34010KT 9999 BKN007 BKN023 15/14 Q1008 REDZ=
201608181520 METAR ESMX 181520Z 35011KT 9999 SCT008 BKN024 15/14 Q1008=
201608181450 METAR ESMX 181450Z 35010KT 7000 DZ SCT006 BKN009 15/14 Q1008=
201608181420 METAR COR ESMX 181420Z 35012KT 6000 DZ BKN007 15/13 Q1008=
201608181350 METAR ESMX 181350Z 35011KT 9000 -RA BKN009 15/13 Q1008=
201608181320 METAR ESMX 181320Z 02013KT 9999 SCT008 BKN014 15/13 Q1008=
201608181250 METAR ESMX 181250Z 35013KT 9999 -DZ BKN010 15/13 Q1008 RERA=
201608181220 METAR ESMX 181220Z 35011KT 9999 FEW008 BKN010 OVC018 14/13 Q1008=
201608181150 METAR ESMX 181150Z 01012KT 9999 -RA FEW008 BKN011 OVC016 14/13 Q1008=
201608181120 METAR ESMX 181120Z 36014KT 9999 FEW008 BKN011 OVC016 14/13 Q1008 REDZ=
201608181050 METAR ESMX 181050Z 36014KT 9000 -RA SCT008 BKN015 14/13 Q1008=
201608181020 METAR ESMX 181020Z 35015KT 9000 BR SCT008 BKN014 14/13 Q1007=
201608180950 METAR ESMX 180950Z 36013KT 9000 -RA SCT009 BKN014 14/13 Q1008=
201608180920 METAR ESMX 180920Z 35016KT 9999 SCT010 BKN015 OVC019 15/12 Q1007=
201608180850 METAR ESMX 180850Z 35017KT 9999 FEW011 BKN013 OVC020 14/12 Q1007=
201608180820 METAR ESMX 180820Z 35015KT 9999 FEW009 BKN011 OVC015 14/12 Q1007=
201608180750 METAR ESMX 180750Z 35015KT 9999 FEW010 BKN013 OVC016 14/12 Q1007=
201608180720 METAR ESMX 180720Z 35016KT 9999 BKN011 OVC018 14/12 Q1007=
201608180650 METAR ESMX 180650Z 34016KT 9999 FEW010 OVC014 14/12 Q1007=
201608180620 METAR ESMX 180620Z 34015KT 9999 SCT010 BKN014 13/12 Q1007=
201608180550 METAR ESMX 180550Z 34017KT 9999 SCT013 BKN018 OVC021 13/11 Q1007=
201608180520 METAR ESMX 180520Z 34016KT 9999 FEW016 SCT023 OVC031 13/11 Q1008=
201608180450 METAR ESMX 180450Z 34013KT 9999 -RA FEW012 SCT020 BKN035 13/11 Q1008=
201608180420 METAR ESMX 180420Z 34012KT 9999 -RA SCT013 BKN030 12/11 Q1008=
201608180350 METAR ESMX 180350Z 34013G25KT 9999 -RA SCT012 BKN016 12/11 Q1008=
201608180320 METAR ESMX 180320Z AUTO 32011KT 9999 -DZ FEW009/// SCT016/// BKN023/// 12/11 Q1008=
201608180250 METAR ESMX 180250Z AUTO 33009KT 9999 -DZ FEW010/// SCT064/// 12/10 Q1009 REDZ=
201608180220 METAR ESMX 180220Z AUTO 33010KT 9999 -DZ FEW071/// 12/10 Q1009=
201608180150 METAR ESMX 180150Z AUTO 33010KT 9999 FEW023/// 12/11 Q1010=
201608180120 METAR ESMX 180120Z AUTO 33010KT 9999 FEW021/// 12/11 Q1010=
201608180050 METAR ESMX 180050Z AUTO 34010KT 9999 FEW009/// BKN065/// 12/11 Q1010 REDZ=
201608180020 METAR ESMX 180020Z AUTO 35011KT 9999 FEW010/// SCT038/// BKN067/// 12/11 Q1011=
201608172350 METAR ESMX 172350Z AUTO 35009KT 9999 FEW009/// SCT012/// BKN015/// 12/11 Q1011=
201608172320 METAR ESMX 172320Z 35010KT 9999 OVC009 12/11 Q1011=
201608172250 METAR ESMX 172250Z 35008KT 9999 OVC010 12/11 Q1012=
201608172220 METAR ESMX 172220Z 35009KT 9999 SCT011 BKN016 12/11 Q1012=
201608172150 METAR ESMX 172150Z AUTO 36010KT 9999 FEW007/// BKN010/// BKN020/// 12/11 Q1012=
201608172120 METAR ESMX 172120Z 35010KT 9999 FEW007 OVC009 12/11 Q1012=
201608172050 METAR ESMX 172050Z 36009KT 9999 SCT007 BKN009 12/11 Q1012=
201608172020 METAR ESMX 172020Z 35010KT 9999 BKN010 OVC015 12/11 Q1012=
201608171950 METAR ESMX 171950Z 35010KT 9999 -RA SCT009 BKN017 12/11 Q1012=
201608171920 METAR ESMX 171920Z 35010KT 9999 -DZ SCT010 BKN017 12/11 Q1012=
201608171850 METAR ESMX 171850Z AUTO 35010KT 9999 FEW010/// BKN012/// BKN044/// 12/11 Q1012=
201608171820 METAR ESMX 171820Z AUTO 35010KT 9999 -DZ FEW013/// SCT028/// BKN045/// 12/11 Q1012=
201608171750 METAR ESMX 171750Z AUTO 35013KT 9999 -RA BKN024/// 13/11 Q1012=
201608171720 METAR ESMX 171720Z AUTO 36013KT 9999 -RA OVC027/// 14/11 Q1012 RERA=
201608171650 METAR ESMX 171650Z AUTO 35013KT 9999 -RA SCT032/// OVC041/// 15/11 Q1011=
201608171620 METAR ESMX 171620Z AUTO 35010KT 9999 -RA OVC038/// 17/10 Q1011=
201608171550 METAR ESMX 171550Z AUTO 01011KT 9999 OVC038/// 17/10 Q1012=
201608171520 METAR ESMX 171520Z AUTO 35007KT 9999 BKN036/// OVC046/// 17/10 Q1012=
201608171450 METAR ESMX 171450Z 34009KT 9999 BKN041 OVC054 17/10 Q1012=
201608171420 METAR ESMX 171420Z 36007KT 9999 OVC039 17/10 Q1012=
201608171350 METAR ESMX 171350Z 35008KT 9999 OVC041 17/09 Q1012=
201608171320 METAR ESMX 171320Z 34010KT 310V020 9999 OVC044 18/09 Q1012=
201608171250 METAR ESMX 171250Z 32008KT 9999 -DZ OVC048 18/10 Q1012=
201608171220 METAR ESMX 171220Z 34008KT 9999 FEW040 OVC069 18/10 Q1012=
201608171150 METAR ESMX 171150Z 34011KT 9999 FEW030 BKN082 19/09 Q1012=
201608171120 METAR ESMX 171120Z 32011KT 9999 FEW030 BKN090 19/09 Q1012=
201608171050 METAR ESMX 171050Z 33011KT 290V350 9999 FEW040 BKN090 19/08 Q1012=
201608171020 METAR ESMX 171020Z 33007KT 9999 FEW045 BKN090 18/09 Q1012=
201608170950 METAR ESMX 170950Z 34010KT 310V010 9999 FEW045 BKN096 19/09 Q1013=
201608170920 METAR ESMX 170920Z 32012KT 9999 FEW045 SCT100 19/09 Q1013=
201608170850 METAR ESMX 170850Z 33011KT CAVOK 19/08 Q1013=
201608170820 METAR ESMX 170820Z 32009KT 290V010 CAVOK 18/10 Q1013=
201608170750 METAR ESMX 170750Z 31007KT 290V350 CAVOK 18/10 Q1013=
201608170720 METAR ESMX 170720Z 31005KT 280V350 CAVOK 17/10 Q1013=
201608170650 METAR ESMX 170650Z 32006KT CAVOK 16/10 Q1013=
201608170620 METAR ESMX 170620Z 31006KT 290V350 CAVOK 15/10 Q1014=
201608170550 METAR ESMX 170550Z 33005KT 300V010 CAVOK 14/09 Q1014=
201608170520 METAR ESMX 170520Z 30003KT 260V350 CAVOK 12/09 Q1014=
201608170450 METAR ESMX 170450Z VRB03KT CAVOK 11/08 Q1014=
201608170420 METAR ESMX 170420Z VRB03KT CAVOK 09/08 Q1015=
201608170350 METAR ESMX 170350Z AUTO 24002KT 9999 NCD 09/07 Q1015=
201608170320 METAR ESMX 170320Z AUTO 24002KT 9999 NCD 09/08 Q1015=
201608170250 METAR ESMX 170250Z AUTO VRB03KT 9999 NCD 09/08 Q1015=
201608170220 METAR ESMX 170220Z AUTO 29004KT 9999 NCD 09/08 Q1016=
201608170150 METAR ESMX 170150Z AUTO 28004KT 9999 NCD 09/07 Q1016=
201608170120 METAR ESMX 170120Z AUTO 29003KT 9999 NCD 09/08 Q1016=
201608170050 METAR ESMX 170050Z AUTO 28003KT 9999 NCD 09/08 Q1016=
201608170020 METAR ESMX 170020Z VRB02KT CAVOK 09/08 Q1017=
201608162350 METAR ESMX 162350Z 28002KT CAVOK 09/08 Q1017=
201608162320 METAR ESMX 162320Z 29001KT CAVOK 09/08 Q1017=
201608162250 METAR ESMX 162250Z 28002KT CAVOK 08/08 Q1017=
201608162220 METAR ESMX 162220Z 27001KT CAVOK 09/08 Q1017=
201608162150 METAR ESMX 162150Z 28002KT CAVOK 10/08 Q1017=
201608162120 METAR ESMX 162120Z VRB02KT CAVOK 11/08 Q1017=
201608162050 METAR ESMX 162050Z 31004KT CAVOK 11/08 Q1017=
201608162020 METAR ESMX 162020Z 32005KT CAVOK 13/09 Q1017=
201608161950 METAR COR ESMX 161950Z 31003KT CAVOK 13/09 Q1017=
201608161920 METAR ESMX 161920Z 31004KT CAVOK 13/08 Q1017=
201608161850 METAR ESMX 161850Z 31003KT CAVOK 13/10 Q1017=
201608161820 METAR ESMX 161820Z 32004KT CAVOK 14/09 Q1017=
201608161750 METAR ESMX 161750Z AUTO 32004KT 9999 NCD 16/08 Q1017=
201608161720 METAR ESMX 161720Z AUTO 32005KT 9999 NCD 17/08 Q1017=
201608161650 METAR ESMX 161650Z AUTO 34006KT 310V020 9999 FEW091/// 18/08 Q1017=
201608161620 METAR ESMX 161620Z 34009KT CAVOK 18/08 Q1017=
201608161550 METAR ESMX 161550Z 34008KT CAVOK 18/07 Q1017=
201608161520 METAR ESMX 161520Z 34009KT CAVOK 18/08 Q1018=
201608161450 METAR ESMX 161450Z 33011KT 280V360 9999 SCT048 18/08 Q1018=
201608161420 METAR ESMX 161420Z 35009KT 9999 SCT035 18/08 Q1017=
201608161350 METAR ESMX 161350Z 34009KT 300V010 9999 FEW045 19/08 Q1017=
201608161320 METAR ESMX 161320Z 34009KT 300V020 9999 FEW045 19/08 Q1017=
201608161250 METAR ESMX 161250Z 33012KT 9999 SCT035 19/09 Q1018=
201608161220 METAR ESMX 161220Z 35009KT 320V030 9999 SCT041 19/08 Q1018=
201608161150 METAR COR ESMX 161150Z 01010KT 330V030 9999 SCT040 18/08 Q1017=
201608161120 METAR ESMX 161120Z 35010KT 310V020 9999 FEW030 SCT045 17/08 Q1018=
201608161050 METAR ESMX 161050Z 34007KT 310V040 9999 FEW032 SCT046 18/10 Q1018=
201608161020 METAR ESMX 161020Z 34007KT 9999 SCT025 16/11 Q1018=
201608160950 METAR ESMX 160950Z 32008KT 9999 FEW020 SCT080 15/12 Q1018=
201608160920 METAR ESMX 160920Z 32008KT 290V360 9999 FEW022 SCT100 15/12 Q1018=
201608160850 METAR ESMX 160850Z 32007KT 290V350 9999 FEW045 SCT100 13/11 Q1018=
201608160820 METAR ESMX 160820Z 32007KT 9999 -RA FEW030 BKN045 12/10 Q1018=
201608160750 METAR ESMX 160750Z 33008KT 9999 -DZ FEW040 BKN090 13/09 Q1018=
201608160720 METAR ESMX 160720Z 34009KT 9999 FEW040 BKN100 14/09 Q1018=
201608160650 METAR ESMX 160650Z 34010KT CAVOK 14/09 Q1018=
201608160620 METAR ESMX 160620Z 33009KT CAVOK 14/08 Q1018=
201608160520 METAR ESMX 160520Z AUTO 33005KT 9999 NCD 12/08 Q1018=
201608160450 METAR ESMX 160450Z AUTO 34006KT 9999 NCD 11/08 Q1018=
201608160420 METAR ESMX 160420Z AUTO 32005KT 9999 NCD 09/07 Q1018=
201608160350 METAR ESMX 160350Z AUTO 33006KT 9999 NCD 07/06 Q1018=
201608160320 METAR ESMX 160320Z AUTO 32006KT 9999 NCD 07/06 Q1018=
201608160250 METAR ESMX 160250Z AUTO 32004KT 9999 NCD 08/06 Q1018=
201608160220 METAR ESMX 160220Z AUTO 30003KT 9999 NCD 08/05 Q1018=
201608160150 METAR ESMX 160150Z AUTO 29006KT 9999 NCD 08/06 Q1018=
201608160120 METAR ESMX 160120Z AUTO 28005KT 9999 NCD 07/04 Q1019=
201608160050 METAR ESMX 160050Z AUTO 29005KT 9999 NCD 09/06 Q1019=
201608160020 METAR ESMX 160020Z AUTO 28005KT 9999 NCD 07/05 Q1019=
201608152350 METAR ESMX 152350Z AUTO 28004KT 9999 NCD 07/06 Q1019=
201608152320 METAR ESMX 152320Z 17002KT CAVOK 08/06 Q1019=
201608152250 METAR ESMX 152250Z 27002KT CAVOK 08/05 Q1020=
201608152220 METAR ESMX 152220Z VRB01KT CAVOK 08/06 Q1020=
201608152150 METAR ESMX 152150Z 28003KT CAVOK 08/06 Q1020=
201608152120 METAR ESMX 152120Z 29003KT CAVOK 09/06 Q1020=
201608152050 METAR ESMX 152050Z 32001KT CAVOK 10/07 Q1020=
201608152020 METAR ESMX 152020Z 33005KT CAVOK 12/07 Q1020=
201608151950 METAR ESMX 151950Z 32006KT CAVOK 12/07 Q1020=
201608151920 METAR ESMX 151920Z 34007KT CAVOK 13/06 Q1019=
201608151850 METAR ESMX 151850Z 35008KT CAVOK 15/07 Q1019=
201608151820 METAR ESMX 151820Z 33009KT CAVOK 16/05 Q1019=
201608151750 METAR ESMX 151750Z 34007KT CAVOK 17/05 Q1019=
201608151720 METAR ESMX 151720Z 32008KT 300V360 CAVOK 19/03 Q1019=
201608151650 METAR ESMX 151650Z AUTO 32010KT 9999 NCD 20/02 Q1019=
201608151620 METAR ESMX 151620Z 32012KT CAVOK 20/03 Q1019=
201608151550 METAR ESMX 151550Z 33010KT CAVOK 21/06 Q1018=
201608151520 METAR ESMX 151520Z 30010KT 260V340 CAVOK 21/08 Q1019=
201608151450 METAR ESMX 151450Z 30008KT 250V340 9999 FEW048 21/09 Q1019=
201608151420 METAR ESMX 151420Z 30009KT 270V330 9999 FEW045 21/10 Q1019=
201608151350 METAR ESMX 151350Z 29009KT 250V330 9999 FEW048 21/09 Q1019=
201608151320 METAR ESMX 151320Z 30011KT 9999 FEW040 20/10 Q1019=
201608151250 METAR ESMX 151250Z 32009KT 250V360 9999 FEW025 20/09 Q1019=
201608151220 METAR ESMX 151220Z 29010KT 250V330 9999 FEW028 20/09 Q1019=
201608151150 METAR ESMX 151150Z 28008KT 240V320 9999 FEW025 19/11 Q1019=
201608151120 METAR ESMX 151120Z 29010KT 9999 FEW025 19/12 Q1019=
201608151050 METAR ESMX 151050Z 30009KT 240V330 9999 FEW020 18/13 Q1020=
201608151020 METAR ESMX 151020Z 29010KT 9999 FEW020 17/12 Q1020=
201608150950 METAR ESMX 150950Z 28009KT 250V320 9999 FEW013 16/12 Q1020=
201608150920 METAR ESMX 150920Z 27008KT 9999 SCT014 16/12 Q1020=
201608150850 METAR ESMX 150850Z 28006KT 9999 BKN010 15/12 Q1020=
201608150820 METAR ESMX 150820Z 26007KT 9999 BKN005 13/11 Q1020=
201608150750 METAR ESMX 150750Z 26007KT 9999 BKN004 12/12 Q1020=
201608150720 METAR ESMX 150720Z 24007KT 210V280 6000 BR OVC002 12/11 Q1020=
201608150650 METAR ESMX 150650Z 28006KT 0800 R01/1000N R19/0900N FG VV002 11/11 Q1020=
201608150620 METAR ESMX 150620Z 27005KT 230V300 1000 R01/1000N R19/1600D FG VV002 10/10 Q1020=
201608150550 METAR ESMX 150550Z 28005KT 9999 BKN004 11/10 Q1020=
201608150520 METAR ESMX 150520Z AUTO 25003KT 9999 FEW059/// 10/10 Q1020=
201608150450 METAR ESMX 150450Z AUTO 25003KT 9999 NCD 09/09 Q1020=
201608150420 METAR ESMX 150420Z AUTO 25004KT 0400 R01/P2000N R19/0600N BCFG NCD 08/08 Q1019=
201608150350 METAR ESMX 150350Z AUTO VRB01KT 0200 R01/0600N R19/0550N FG NCD 07/06 Q1019=
201608150320 METAR ESMX 150320Z AUTO 00000KT 0150 R01/0800N R19/0400N FG NCD 06/06 Q1019=
201608150250 METAR ESMX 150250Z AUTO 00000KT 0150 R01/0550N R19/1100D FG NCD 06/06 Q1019=
201608150220 METAR ESMX 150220Z AUTO VRB01KT 0150 R01/0600N R19/1100D FG NCD 07/07 Q1019=
201608150150 METAR ESMX 150150Z AUTO 00000KT 0150 R01/1200U R19/0450N FG NCD 07/07 Q1019=
201608150120 METAR ESMX 150120Z AUTO 00000KT 0300 R01/1100N R19/1100N FG NCD 08/08 Q1019=
201608150050 METAR ESMX 150050Z AUTO VRB01KT 0250 R01/1000D R19/0750N BCFG NCD 09/09 Q1019=
201608150020 METAR ESMX 150020Z AUTO VRB01KT 0400 R01/P2000N R19/P2000N NCD 09/08 Q1019=
201608142350 METAR ESMX 142350Z AUTO 29004KT 9999 NCD 10/10 Q1019=
201608142320 METAR ESMX 142320Z 28004KT CAVOK 11/10 Q1019=
201608142250 METAR ESMX 142250Z 28004KT CAVOK 12/11 Q1019=
201608142220 METAR ESMX 142220Z 28004KT CAVOK 12/11 Q1019=
201608142150 METAR ESMX 142150Z 28005KT CAVOK 12/11 Q1019=
201608142120 METAR ESMX 142120Z 26004KT CAVOK 12/12 Q1019=
201608142050 METAR ESMX 142050Z 26005KT 9999 FEW030 SCT054 13/12 Q1018=
201608142020 METAR ESMX 142020Z 26005KT 9999 FEW034 13/12 Q1018=
201608141950 METAR ESMX 141950Z 25004KT CAVOK 12/12 Q1018=
201608141920 METAR ESMX 141920Z 25004KT 9999 BCFG NSC 13/13 Q1018=
201608141850 METAR COR ESMX 141850Z 25004KT CAVOK 14/13 Q1017=
201608141820 METAR ESMX 141820Z 26003KT 9999 FEW048 SCT071 15/13 Q1017=
201608141750 METAR ESMX 141750Z 26004KT 9999 FEW020 SCT060 15/14 Q1017=
201608141720 METAR ESMX 141720Z 25003KT 9999 FEW038 SCT062 16/14 Q1017=
201608141650 METAR ESMX 141650Z 26005KT CAVOK 16/14 Q1017=
201608141620 METAR ESMX 141620Z 28003KT 240V300 CAVOK 16/13 Q1017=
201608141550 METAR ESMX 141550Z 30004KT 260V340 9999 FEW029 15/13 Q1016=
201608141520 METAR ESMX 141520Z 30007KT CAVOK 15/13 Q1016=
201608141450 METAR ESMX 141450Z 28006KT 9999 RA SCT030CB 14/12 Q1016=
201608141420 METAR ESMX 141420Z 31012KT 7000 RA FEW011 SCT046CB 15/13 Q1016=
201608141350 METAR ESMX 141350Z 26010KT 230V290 9999 -RA FEW034 SCT039 BKN060CB 19/11 Q1015=
201608141320 METAR COR ESMX 141320Z 26010KT 230V300 9999 FEW036 SCT068 20/12 Q1015=
201608141250 METAR ESMX 141250Z AUTO 26010KT 230V300 9999 FEW036/// SCT068/// 20/12 Q1015=
201608141220 METAR ESMX 141220Z 27012KT 9999 FEW032 SCT046 20/11 Q1015=
201608141150 METAR ESMX 141150Z 26013KT 9999 FEW031 SCT052 19/12 Q1014=
201608141120 METAR ESMX 141120Z 27012KT 9999 SCT048 19/11 Q1014=
201608141050 METAR ESMX 141050Z 27012KT 250V320 9999 FEW031 SCT041 BKN046 18/11 Q1014=
201608141020 METAR ESMX 141020Z 28011KT 240V310 9999 FEW030 SCT040 18/11 Q1014=
201608140950 METAR ESMX 140950Z AUTO 28012KT 250V320 9999 FEW027/// 18/11 Q1014=
201608140920 METAR ESMX 140920Z AUTO 26014KT 9999 FEW024/// 18/12 Q1014=
201608140850 METAR ESMX 140850Z AUTO 27012KT 9999 FEW021/// SCT026/// 17/11 Q1014=
201608140820 METAR ESMX 140820Z AUTO 27014KT 9999 FEW017/// SCT020/// 16/11 Q1014=
201608140750 METAR ESMX 140750Z AUTO 27010KT 240V300 9999 BKN015/// BKN020/// 15/12 Q1014=
201608140720 METAR ESMX 140720Z AUTO 27011KT 230V300 9999 BKN014/// OVC019/// 14/11 Q1013=
201608140650 METAR ESMX 140650Z AUTO 27010KT 9999 FEW012/// OVC014/// 14/12 Q1013=
201608140620 METAR ESMX 140620Z AUTO 26010KT 230V290 9999 OVC010/// 14/12 Q1013=
201608140550 METAR ESMX 140550Z AUTO 27009KT 9999 OVC011/// 14/12 Q1012=
201608140520 METAR ESMX 140520Z AUTO 27010KT 9999 FEW008/// OVC010/// 14/12 Q1012=
201608140450 METAR ESMX 140450Z AUTO 27010KT 9999 BKN008/// OVC011/// 14/12 Q1012=
201608140420 METAR ESMX 140420Z AUTO 27009KT 9000 BR OVC006/// 14/13 Q1012=
201608140350 METAR ESMX 140350Z AUTO 26008KT 9999 OVC007/// 13/13 Q1011=
201608140320 METAR ESMX 140320Z AUTO 26008KT 9999 OVC006/// 13/13 Q1011=
201608140250 METAR ESMX 140250Z AUTO 24008KT 8000 BR OVC005/// 13/13 Q1011=
201608140220 METAR ESMX 140220Z AUTO 25007KT 9000 BR OVC005/// 13/13 Q1011=
201608140150 METAR ESMX 140150Z AUTO 25007KT 9999 OVC004/// 13/12 Q1011=
201608140120 METAR ESMX 140120Z AUTO 24009KT 5000 BR OVC003/// 13/12 Q1011 REDZ=
201608140050 METAR ESMX 140050Z AUTO 23008KT 9999 OVC004/// 13/12 Q1011=
201608140020 METAR ESMX 140020Z AUTO 23008KT 7000 BR FEW005/// SCT006/// BKN007/// 13/12 Q1011=
201608132350 METAR ESMX 132350Z AUTO 22009KT 5000 -DZ FEW006/// OVC009/// 13/12 Q1011=
201608132320 METAR ESMX 132320Z AUTO 23009KT 7000 BR FEW006/// OVC010/// 13/12 Q1011 RERA=
201608132250 METAR ESMX 132250Z AUTO 22008KT 200V260 6000 BR FEW006/// SCT009/// BKN010/// 13/12 Q1011=
201608132220 METAR ESMX 132220Z AUTO 22009KT 9999 FEW006/// SCT009/// BKN012/// 13/12 Q1011=
201608132150 METAR ESMX 132150Z AUTO 25008KT 200V300 7000 FEW006/// BKN010/// BKN014/// 13/12 Q1011 RERA=
201608132120 METAR ESMX 132120Z AUTO 25010KT 210V280 9999 DZ FEW006/// SCT012/// BKN016/// 13/12 Q1011 REDZ=
201608132050 METAR ESMX 132050Z AUTO 23006KT 9999 -RA FEW017/// BKN037/// 13/12 Q1011=
201608132020 METAR ESMX 132020Z AUTO 24008KT 9999 FEW009/// SCT029/// BKN036/// 14/12 Q1011=
201608131950 METAR ESMX 131950Z AUTO 25009KT 9999 FEW023/// BKN027/// 14/13 Q1011=
201608131920 METAR ESMX 131920Z AUTO 23010KT 200V280 9999 FEW007/// SCT011/// BKN015/// 15/14 Q1011=
201608131850 METAR ESMX 131850Z AUTO 21008KT 170V250 9999 -RA FEW007/// SCT011/// BKN015/// 15/14 Q1011 REDZ=
201608131820 METAR ESMX 131820Z AUTO 21007KT 9999 FEW008/// SCT012/// BKN015/// 15/14 Q1011=
201608131750 METAR ESMX 131750Z AUTO 22009KT 9999 FEW009/// SCT013/// BKN018/// 15/14 Q1011=
201608131720 METAR ESMX 131720Z AUTO 22010KT 9999 FEW008/// SCT016/// BKN019/// 15/14 Q1011=
201608131650 METAR ESMX 131650Z AUTO 22011KT 180V240 4900 -RA FEW006/// SCT010/// BKN012/// 15/14 Q1011=
201608131620 METAR ESMX 131620Z AUTO 22010KT 9000 BR FEW006/// SCT009/// BKN011/// 15/14 Q1011 RERA=
201608131550 METAR ESMX 131550Z AUTO 21010KT 9999 FEW007/// SCT010/// BKN013/// 16/15 Q1011=
201608131520 METAR ESMX 131520Z AUTO 22010KT 9999 -RA FEW006/// SCT008/// BKN010/// 16/15 Q1011 RERA RESHRA=
201608131450 METAR ESMX 131450Z 21009KT 9999 RA FEW006 SCT008 BKN010 16/15 Q1011=
201608131420 METAR ESMX 131420Z 23013KT 6000 -RA FEW004 SCT006 BKN008 16/15 Q1011=
201608131350 METAR COR ESMX 131350Z 23010KT 4700 DZ FEW008 SCT011 BKN015 16/15 Q1011=
201608131320 METAR COR ESMX 131320Z 23012KT 9000 -RA FEW010 SCT019 BKN027 17/15 Q1011=
201608131250 METAR ESMX 131250Z 22012KT 190V250 9000 -RA FEW009 SCT012 BKN017 17/15 Q1011=
201608131220 METAR ESMX 131220Z AUTO 24013KT 9999 BR FEW013/// SCT016/// BKN032/// 18/15 Q1011=
201608131150 METAR ESMX 131150Z AUTO 24014KT 9999 FEW017/// SCT022/// BKN025/// 18/15 Q1011=
201608131120 METAR ESMX 131120Z AUTO 24010KT 200V260 9999 FEW027/// SCT036/// BKN041/// 18/13 Q1011=
201608131050 METAR ESMX 131050Z AUTO 25010KT 9999 -RA FEW022/// BKN030/// BKN038/// 18/13 Q1011=
201608131020 METAR ESMX 131020Z AUTO 26010KT 210V280 9999 FEW028/// BKN036/// 19/14 Q1011=
201608130950 METAR ESMX 130950Z AUTO 27010KT 9999 FEW024/// SCT031/// BKN041/// 18/13 Q1011=
201608130920 METAR ESMX 130920Z AUTO 24012KT 9999 FEW023/// SCT029/// BKN035/// 18/13 Q1011=
201608130850 METAR ESMX 130850Z AUTO 23014KT 200V260 9999 SCT020/// 18/13 Q1011=
201608130820 METAR ESMX 130820Z AUTO 25014G27KT 9999 FEW018/// SCT028/// 18/13 Q1011=
201608130750 METAR ESMX 130750Z AUTO 25014G24KT 9999 FEW015/// BKN018/// BKN068/// 18/14 Q1011=
201608130720 METAR ESMX 130720Z AUTO 23013KT 210V280 9999 FEW013/// SCT016/// BKN066/// 17/14 Q1011=
201608130650 METAR ESMX 130650Z AUTO 24012KT 9999 FEW009/// SCT013/// BKN016/// 16/14 Q1011=
201608130620 METAR ESMX 130620Z AUTO 23011KT 210V270 9999 FEW008/// OVC010/// 16/14 Q1011=
201608130550 METAR ESMX 130550Z AUTO 24011KT 9999 FEW008/// OVC010/// 16/14 Q1010=
201608130520 METAR ESMX 130520Z AUTO 24010KT 210V270 9999 BR FEW009/// OVC010/// 15/14 Q1010=
201608130450 METAR ESMX 130450Z AUTO 23010KT 9999 FEW008/// OVC010/// 15/14 Q1010=
201608130420 METAR ESMX 130420Z AUTO 23010KT 9999 BKN010/// OVC014/// 15/14 Q1010=
201608130350 METAR ESMX 130350Z AUTO 23011KT 9999 FEW009/// BKN013/// OVC020/// 15/14 Q1010=
201608130320 METAR ESMX 130320Z AUTO 24011KT 200V260 9999 FEW009/// SCT012/// BKN016/// 15/14 Q1010=
201608130250 METAR ESMX 130250Z AUTO 22012KT 9999 FEW009/// SCT016/// OVC031/// 15/14 Q1010=
201608130220 METAR ESMX 130220Z AUTO 24011KT 9999 FEW008/// SCT012/// BKN018/// 15/14 Q1011=
201608130150 METAR ESMX 130150Z AUTO 24011KT 9999 FEW008/// SCT009/// BKN011/// 15/14 Q1011=
201608130120 METAR ESMX 130120Z AUTO 22010KT 9999 FEW006/// SCT009/// BKN010/// 15/14 Q1011=
201608130050 METAR ESMX 130050Z AUTO 23012KT 7000 BR FEW004/// BKN006/// OVC009/// 15/14 Q1011 REDZ=
201608130020 METAR ESMX 130020Z AUTO 22010KT 9999 FEW007/// SCT009/// OVC010/// 15/14 Q1011=
201608122350 METAR ESMX 122350Z AUTO 22011KT 9999 FEW008/// BKN012/// OVC016/// 15/14 Q1011=
201608122320 METAR ESMX 122320Z AUTO 22010KT 9999 FEW008/// OVC011/// 15/14 Q1012 REDZ=
201608122250 METAR ESMX 122250Z AUTO 22010KT 9999 FEW005/// SCT009/// BKN011/// 15/14 Q1012=
201608122220 METAR ESMX 122220Z AUTO 23009KT 6000 DZ FEW005/// SCT008/// BKN010/// 15/14 Q1012 REDZ=
201608122150 METAR ESMX 122150Z AUTO 21008KT 190V250 6000 DZ FEW003/// SCT004/// BKN006/// 15/14 Q1012=
201608122120 METAR ESMX 122120Z AUTO 21010KT 2400 DZ FEW002/// BKN004/// OVC008/// 15/14 Q1012=
201608122050 METAR ESMX 122050Z AUTO 19012KT 2800 DZ FEW003/// OVC004/// 15/14 Q1012=
201608122020 METAR ESMX 122020Z AUTO 18011KT 3900 -RA OVC004/// 15/14 Q1012 REDZ=
201608121950 METAR ESMX 121950Z AUTO 18011KT 4700 DZ FEW003/// OVC005/// 14/14 Q1013=
201608121920 METAR ESMX 121920Z AUTO 17010KT 5000 DZ FEW004/// BKN005/// OVC008/// 14/14 Q1013=
201608121850 METAR ESMX 121850Z AUTO 17010KT 7000 DZ FEW005/// SCT006/// BKN007/// 14/14 Q1013=
201608121820 METAR ESMX 121820Z AUTO 17010KT 7000 DZ FEW006/// SCT010/// BKN012/// 14/13 Q1014=
201608121750 METAR ESMX 121750Z 16009KT 9999 -DZ FEW008 14/13 Q1014=
201608121720 METAR ESMX 121720Z 16009KT 9999 -RA FEW047 15/13 Q1014=
201608121650 METAR ESMX 121650Z 17007KT 9999 -RA BKN046 15/13 Q1015=
201608121620 METAR ESMX 121620Z 15006KT 9999 -RA FEW037 BKN080 15/12 Q1015=
201608121550 METAR ESMX 121550Z 17007KT 9999 -RA FEW044 SCT054 16/11 Q1015=
201608121520 METAR ESMX 121520Z 17007KT 9999 -DZ FEW043 BKN075 17/10 Q1015=
201608121450 METAR ESMX 121450Z 18007KT 150V210 9999 -DZ FEW035 SCT085 17/10 Q1015=
201608121420 METAR ESMX 121420Z 18009KT 9999 -DZ FEW044 SCT084 17/10 Q1016=
201608121350 METAR ESMX 121350Z 20011KT 160V220 9999 FEW035 17/09 Q1016=
201608121320 METAR ESMX 121320Z 18010KT 140V210 9999 FEW035 17/08 Q1016=
201608121250 METAR ESMX 121250Z 20011KT 9999 SCT036 17/09 Q1016=
201608121220 METAR ESMX 121220Z 19010KT 150V210 9999 FEW034 SCT043 17/09 Q1016=
201608121150 METAR ESMX 121150Z 18010KT 9999 FEW041 BKN048 17/09 Q1016=
201608121120 METAR ESMX 121120Z 21010KT 170V230 9999 FEW032 BKN048 16/09 Q1017=
201608121050 METAR ESMX 121050Z 19008KT 9999 FEW035 BKN048 16/09 Q1017=
201608121020 METAR ESMX 121020Z 19010KT 9999 SCT031 16/09 Q1017=
201608120950 METAR ESMX 120950Z 20009KT 9999 FEW028 SCT033 16/09 Q1017=
201608120920 METAR ESMX 120920Z 21008KT 170V240 9999 SCT023 16/09 Q1017=
201608120850 METAR ESMX 120850Z 18007KT 140V220 9999 FEW019 SCT024 16/10 Q1017=
201608120820 METAR ESMX 120820Z 17008KT 9999 FEW016 SCT020 15/10 Q1017=
201608120750 METAR ESMX 120750Z 22007KT 190V260 9999 FEW013 14/10 Q1017=
201608120720 METAR ESMX 120720Z 21005KT 170V240 9999 FEW040 13/10 Q1017=
201608120650 METAR ESMX 120650Z 17005KT 9999 FEW020 12/10 Q1017=
201608120620 METAR ESMX 120620Z 19005KT CAVOK 11/09 Q1017=
201608120550 METAR ESMX 120550Z VRB03KT CAVOK 09/08 Q1017=
201608120520 METAR ESMX 120520Z VRB02KT 9999 VCFG NSC 07/07 Q1017=
201608120450 METAR ESMX 120450Z VRB01KT 9999 VCFG FEW001 03/03 Q1017=
201608120420 METAR ESMX 120420Z 19002KT 9999 BCFG NSC 02/01 Q1017=
201608120350 METAR ESMX 120350Z 18002KT 9999 R19/P2000N BCFG NSC 01/01 Q1016=
201608120320 METAR ESMX 120320Z AUTO 17003KT 0500 R01/1000N R19/P2000N BCFG FEW000/// 02/02 Q1016=
201608120250 METAR ESMX 120250Z AUTO 17002KT 6000 BCFG NCD 01/01 Q1016=
201608120220 METAR ESMX 120220Z AUTO 00000KT 2400 BCFG NCD 02/01 Q1016=
201608120150 METAR ESMX 120150Z AUTO 00000KT 9999 BR NCD 02/02 Q1016=
201608120120 METAR ESMX 120120Z AUTO 22004KT 9999 NCD 04/04 Q1016=
201608120050 METAR ESMX 120050Z AUTO 22004KT 9999 NCD 04/04 Q1016=
201608120020 METAR ESMX 120020Z AUTO 22005KT 9999 NCD 04/03 Q1016=
201608112350 METAR ESMX 112350Z 22005KT CAVOK 05/04 Q1016=
201608112320 METAR ESMX 112320Z 22004KT CAVOK 04/04 Q1016=
201608112250 METAR ESMX 112250Z 22004KT CAVOK 05/04 Q1016=
201608112220 METAR ESMX 112220Z AUTO 20003KT 9999 NCD 05/04 Q1016=
201608112150 METAR ESMX 112150Z 23005KT CAVOK 06/05 Q1016=
201608112120 METAR ESMX 112120Z 22005KT CAVOK 06/05 Q1016=
201608112050 METAR ESMX 112050Z 21003KT 9999 MIFG NSC 06/05 Q1016=
201608112020 METAR ESMX 112020Z 21004KT 1000 MIFG NSC 07/06 Q1016=
201608111950 METAR ESMX 111950Z 20004KT 9999 MIFG NSC 06/06 Q1015=
201608111920 METAR ESMX 111920Z 20004KT 9999 MIFG NSC 07/07 Q1015=
201608111850 METAR ESMX 111850Z 17002KT 9999 MIFG NSC 09/08 Q1015=
201608111820 METAR ESMX 111820Z 20002KT 9999 FEW030 SCT070 10/08 Q1015=
201608111750 METAR ESMX 111750Z VRB03KT 9999 FEW030 11/08 Q1015=
201608111720 METAR ESMX 111720Z VRB03KT 9999 SCT027 11/08 Q1015=
201608111650 METAR ESMX 111650Z 36008KT 9999 DZ FEW015 SCT037 BKN042 11/08 Q1015=
201608111620 METAR ESMX 111620Z 03005KT 9999 VCSH FEW056 BKN091 11/07 Q1015=
201608111550 METAR COR ESMX 111550Z 36006KT 9999 VCSH FEW057 SCT091 12/07 Q1015=
201608111520 METAR ESMX 111520Z 27007KT 9999 FEW041 BKN051 13/07 Q1014=
201608111450 METAR ESMX 111450Z VRB03KT 9999 FEW047 BKN059 13/07 Q1014=
201608111420 METAR ESMX 111420Z 30004KT 240V350 9999 FEW029 SCT043 BKN054 12/08 Q1014=
201608111350 METAR ESMX 111350Z 32005KT 290V350 9999 VCSH FEW029 SCT049 11/09 Q1014=
201608111320 METAR COR ESMX 111320Z VRB06KT 6000 RA VCSH FEW014 BKN025CB 11/07 Q1014=
201608111250 METAR ESMX 111250Z 19007KT 170V240 9999 -RA VCSH FEW019 SCT036 BKN061 13/08 Q1014=
201608111220 METAR ESMX 111220Z 20007KT 170V270 9999 VCSH FEW020CB SCT045 14/09 Q1014=
201608111150 METAR ESMX 111150Z 22005KT 190V250 9999 VCSH FEW030CB SCT060 12/07 Q1014=
201608111120 METAR COR ESMX 111120Z 30010KT 270V330 9999 -RA FEW025 SCT039 BKN051 10/07 Q1014=
201608111050 METAR ESMX 111050Z 21012KT 9999 SCT033 BKN082 13/07 Q1013=
201608111020 METAR ESMX 111020Z 24008KT 210V280 9999 -RA FEW033 BKN035 14/06 Q1013=
201608110950 METAR ESMX 110950Z 20007KT 150V230 9999 FEW022 SCT025 14/08 Q1013=
201608110920 METAR ESMX 110920Z 19007KT 150V220 9999 FEW020 SCT025 13/08 Q1013=
201608110850 METAR ESMX 110850Z 16005KT 120V200 9999 FEW024 SCT049 12/08 Q1013=
201608110820 METAR ESMX 110820Z 16004KT 120V190 9999 VCSH FEW025CB SCT032 BKN080 11/08 Q1013=
201608110750 METAR ESMX 110750Z 15004KT 100V190 9999 -SHRA FEW028CB SCT041 10/07 Q1013=
201608110720 METAR ESMX 110720Z 36007KT 9999 -SHRA FEW020CB SCT042 BKN066 09/07 Q1013=
201608110650 METAR ESMX 110650Z 34010KT 9999 VCSH FEW020CB BKN060 12/07 Q1013=
201608110620 METAR ESMX 110620Z 23007KT 9999 SCT020 11/07 Q1013=
201608110550 METAR ESMX 110550Z 21007KT CAVOK 10/07 Q1012=
201608110520 METAR ESMX 110520Z 22006KT CAVOK 09/07 Q1013=
201608110450 METAR COR ESMX 110450Z 22005KT CAVOK 08/06 Q1012=
201608110420 METAR ESMX 110420Z 22006KT CAVOK 06/05 Q1012=
201608110350 METAR ESMX 110350Z 21006KT CAVOK 05/04 Q1012=
201608110320 METAR ESMX 110320Z AUTO 22005KT 9999 NCD 05/04 Q1012=
201608110250 METAR ESMX 110250Z AUTO 22005KT 9999 NCD 06/05 Q1012=
201608110220 METAR ESMX 110220Z AUTO 23004KT 9999 FEW100/// 06/05 Q1013=
201608110150 METAR ESMX 110150Z AUTO 24004KT 190V270 9999 BKN099/// 06/05 Q1012=
201608110120 METAR ESMX 110120Z AUTO 23005KT 9999 SCT100/// 07/05 Q1012=
201608110050 METAR ESMX 110050Z AUTO 23005KT 9999 FEW110/// 07/05 Q1012=
201608110020 METAR ESMX 110020Z AUTO 23006KT 9999 NCD 07/05 Q1012=
201608102350 METAR ESMX 102350Z 22007KT CAVOK 06/05 Q1012=
201608102320 METAR ESMX 102320Z 22006KT CAVOK 07/05 Q1012=
201608102250 METAR ESMX 102250Z 22006KT CAVOK 06/05 Q1012=
201608102220 METAR ESMX 102220Z 22006KT 9999 FEW025 07/06 Q1012=
201608102150 METAR ESMX 102150Z 22006KT CAVOK 07/06 Q1012=
201608102120 METAR ESMX 102120Z 22006KT CAVOK 08/06 Q1012=
201608102050 METAR ESMX 102050Z 21005KT 9999 FEW028 08/06 Q1012=
201608102020 METAR ESMX 102020Z 24004KT 9999 FEW030 08/06 Q1012=
201608101950 METAR ESMX 101950Z 25007KT CAVOK 09/06 Q1012=
201608101920 METAR ESMX 101920Z 26007KT 9999 FEW043 SCT051 10/06 Q1011=
201608101850 METAR ESMX 101850Z 24007KT 9999 BKN043 10/07 Q1011=
201608101820 METAR ESMX 101820Z 25010KT 9999 -RA FEW025 BKN040 11/07 Q1011=
201608101750 METAR ESMX 101750Z 26010KT 9999 SCT026 BKN036 12/06 Q1011=
201608101720 METAR ESMX 101720Z 26006KT 230V300 9999 SCT030 BKN040 12/07 Q1011=
201608101650 METAR ESMX 101650Z 25010KT 220V280 9999 BKN027 OVC041 12/07 Q1010=
201608101620 METAR ESMX 101620Z 24010KT 210V280 9999 FEW024 SCT027 BKN033 12/07 Q1010=
201608101550 METAR ESMX 101550Z 23012KT 200V260 9999 FEW026 SCT034 BKN045 12/09 Q1010=
201608101520 METAR ESMX 101520Z 23011KT 200V270 9999 FEW018 SCT028 BKN036 12/09 Q1010=
201608101450 METAR ESMX 101450Z 23011KT 9999 FEW014 SCT020 BKN032 11/09 Q1010=
201608101420 METAR ESMX 101420Z 21012KT 9999 FEW012 BKN023 11/10 Q1010=
201608101350 METAR ESMX 101350Z 22013KT 9999 FEW010 SCT014 BKN020 11/10 Q1010=
201608101320 METAR ESMX 101320Z 23014KT 9999 -SHRA FEW017CB SCT024 BKN037 11/09 Q1009=
201608101250 METAR ESMX 101250Z 21014KT 9999 FEW027CB BKN050 11/10 Q1009=
201608101220 METAR COR ESMX 101220Z 22016KT 9999 SHRA FEW020CB BKN029 10/09 Q1009=
201608101150 METAR ESMX 101150Z 22016G26KT 9999 FEW021CB SCT050 13/10 Q1009=
201608101120 METAR ESMX 101120Z 23013KT 210V270 9999 -SHRA FEW026CB SCT038 BKN045 11/09 Q1009=
201608101050 METAR ESMX 101050Z 22019KT 9999 -SHRA FEW020CB SCT032 BKN039 14/07 Q1008=
201608101020 METAR ESMX 101020Z 20019G33KT 9999 FEW031 SCT040 13/10 Q1009=
201608100950 METAR ESMX 100950Z 21018G28KT 9999 FEW021 SCT033 BKN041 14/07 Q1009=
201608100920 METAR ESMX 100920Z 21020KT 9999 SCT032 BKN053 14/06 Q1009=
201608100850 METAR ESMX 100850Z 22018G29KT 9999 FEW028 SCT032 BKN036 13/06 Q1009=
201608100820 METAR ESMX 100820Z 21018KT 9999 FEW027 SCT033 BKN046 13/06 Q1009=
201608100750 METAR ESMX 100750Z 21017KT 9999 FEW022 SCT026 BKN031 13/08 Q1009=
201608100720 METAR ESMX 100720Z 20015KT 9999 FEW020 BKN024 12/07 Q1009=
201608100650 METAR ESMX 100650Z 20017KT 9999 FEW015 SCT020 BKN023 11/07 Q1009=
201608100620 METAR ESMX 100620Z 19015KT 9999 SCT014 10/07 Q1009=
201608100550 METAR ESMX 100550Z 20015KT 9999 FEW014 10/07 Q1009=
201608100520 METAR ESMX 100520Z 19016KT 9999 FEW011 09/07 Q1009=
201608100450 METAR ESMX 100450Z 18013KT CAVOK 09/07 Q1009=
201608100420 METAR ESMX 100420Z 19012KT 9999 FEW015 08/07 Q1009=
201608100350 METAR COR ESMX 100350Z 19010KT CAVOK 08/06 Q1009=
201608100320 METAR ESMX 100320Z AUTO 20010KT 9999 NCD 08/06 Q1009=
201608100250 METAR ESMX 100250Z AUTO 19010KT 9999 NCD 08/07 Q1009=
201608100220 METAR ESMX 100220Z AUTO 19011KT 9999 NCD 08/07 Q1009=
201608100150 METAR ESMX 100150Z AUTO 20011KT 9999 NCD 08/07 Q1009=
201608100120 METAR ESMX 100120Z AUTO 19010KT 9999 NCD 08/07 Q1009=
201608100050 METAR ESMX 100050Z AUTO 20010KT 9999 NCD 08/07 Q1009=
201608100020 METAR ESMX 100020Z AUTO 19009KT 9999 NCD 08/07 Q1009=
201608092350 METAR ESMX 092350Z 19009KT 9999 FEW025 SCT037 09/07 Q1010=
201608092320 METAR ESMX 092320Z 18009KT 9999 FEW026 SCT031 09/07 Q1010=
201608092250 METAR ESMX 092250Z 19009KT 9999 FEW030 09/07 Q1010=
201608092220 METAR ESMX 092220Z 20010KT CAVOK 09/07 Q1010=
201608092150 METAR ESMX 092150Z 19011KT 9999 FEW036 09/07 Q1009=
201608092120 METAR ESMX 092120Z AUTO 19009KT 9999 FEW034/// 09/07 Q1009=
201608092050 METAR ESMX 092050Z 19010KT CAVOK 10/07 Q1010=
201608092020 METAR ESMX 092020Z 20010KT 9999 FEW036 10/06 Q1010=
201608091950 METAR ESMX 091950Z 20010KT 9999 FEW036 10/06 Q1010=
201608091920 METAR ESMX 091920Z 21010KT CAVOK 11/06 Q1010=
201608091850 METAR ESMX 091850Z 23010KT CAVOK 11/06 Q1010=
201608091820 METAR ESMX 091820Z 22012KT 190V250 CAVOK 12/07 Q1010=
201608091750 METAR ESMX 091750Z 20013KT CAVOK 12/07 Q1010=
201608091720 METAR ESMX 091720Z 23013KT CAVOK 13/07 Q1009=
201608091650 METAR ESMX 091650Z 22016KT 9999 VCSH FEW030CB SCT090 14/07 Q1009=
201608091620 METAR ESMX 091620Z 22016KT 9999 VCSH FEW030CB 14/07 Q1009=
201608091550 METAR ESMX 091550Z 22016KT 9999 VCSH FEW030CB 14/06 Q1009=
201608091520 METAR ESMX 091520Z 24014KT 9999 FEW035 16/05 Q1009=
201608091450 METAR COR ESMX 091450Z 23015KT 200V270 9999 FEW033 16/06 Q1009=
201608091420 METAR ESMX 091420Z 24014KT 220V280 9999 FEW030 15/08 Q1009=
201608091350 METAR ESMX 091350Z 25013KT 210V270 9999 FEW030 SCT076 15/08 Q1009=
201608091320 METAR COR ESMX 091320Z 23014KT 9999 FEW030 SCT080 14/09 Q1010=
201608091250 METAR ESMX 091250Z 24015KT 9999 -SHRA FEW029CB SCT060 13/08 Q1010=
201608091220 METAR ESMX 091220Z 23013KT 200V260 9999 VCSH FEW023CB SCT039 13/09 Q1009=
201608091150 METAR ESMX 091150Z 26012KT 9999 -SHRA FEW020CB SCT055 13/10 Q1009=
201608091120 METAR ESMX 091120Z 26012KT 230V290 9999 -SHRA FEW032 12/10 Q1010=
201608091050 METAR ESMX 091050Z 23015KT 200V260 9999 VCSH FEW030CB 14/09 Q1009=
201608091020 METAR ESMX 091020Z 22016KT 190V250 9999 -SHRA FEW036CB SCT070 14/07 Q1010=
201608090950 METAR ESMX 090950Z 23018KT 9999 FEW035 SCT045 15/06 Q1009=
201608090920 METAR ESMX 090920Z 23016KT 9999 FEW037 SCT058 15/06 Q1010=
201608090850 METAR ESMX 090850Z 23018KT 9999 FEW036 SCT044 BKN060 16/07 Q1009=
201608090820 METAR ESMX 090820Z 22016KT 9999 FEW032 SCT039 BKN058 15/07 Q1009=
201608090750 METAR ESMX 090750Z 24015KT 9999 FEW031 SCT050 14/07 Q1009=
201608090720 METAR ESMX 090720Z 24012KT 9999 FEW026 BKN034 13/08 Q1009=
201608090650 METAR ESMX 090650Z 22011G23KT 9999 FEW019 BKN022 BKN042 12/08 Q1009=
201608090620 METAR ESMX 090620Z 21014KT 9999 FEW020 BKN025 13/09 Q1009=
201608090550 METAR ESMX 090550Z 21011KT 9999 FEW034 12/09 Q1009=
201608090520 METAR COR ESMX 090520Z 20010KT 9999 FEW023 11/09 Q1009=
201608090450 METAR ESMX 090450Z 19010KT 9999 FEW039 10/09 Q1009=
201608090420 METAR ESMX 090420Z 20009KT 9999 FEW029 10/08 Q1009=
201608090350 METAR COR ESMX 090350Z 19008KT 9999 FEW022 SCT041 BKN051 10/09 Q1009=
201608090320 METAR ESMX 090320Z AUTO 20009KT 9999 DZ FEW021/// SCT033/// BKN048/// 10/09 Q1009 REDZ=
201608090250 METAR ESMX 090250Z AUTO 20011KT 8000 BR FEW010/// SCT034/// BKN047/// 10/09 Q1009 REDZ=
201608090220 METAR ESMX 090220Z AUTO 20009KT 9999 FEW026/// SCT035/// 11/09 Q1009=
201608090150 METAR ESMX 090150Z AUTO 22010KT 9999 FEW028/// SCT060/// 11/09 Q1009=
201608090120 METAR ESMX 090120Z AUTO 20008KT 9999 FEW031/// SCT062/// 11/09 Q1009=
201608090050 METAR ESMX 090050Z AUTO 23008KT 9999 FEW059/// 11/09 Q1009=
201608090020 METAR ESMX 090020Z AUTO 23009KT 9999 FEW033/// SCT060/// 11/09 Q1009=
201608082350 METAR ESMX 082350Z 22009KT CAVOK 11/09 Q1009=
201608082320 METAR COR ESMX 082320Z 21008KT CAVOK 11/09 Q1009=
201608082250 METAR ESMX 082250Z 21008KT CAVOK 12/10 Q1009=
201608082220 METAR ESMX 082220Z 22008KT 9999 FEW026 12/10 Q1009=
201608082150 METAR COR ESMX 082150Z 21008KT 9999 FEW042 SCT061 12/10 Q1009=
201608082120 METAR ESMX 082120Z 22008KT CAVOK 12/11 Q1009=
201608082050 METAR ESMX 082050Z 22009KT 9999 FEW030 13/11 Q1009=
201608082020 METAR ESMX 082020Z 23010KT CAVOK 13/11 Q1009=
201608081950 METAR ESMX 081950Z 21009KT CAVOK 13/11 Q1009=
201608081920 METAR ESMX 081920Z 23010KT CAVOK 13/12 Q1009=
201608081850 METAR COR ESMX 081850Z 24009KT 9999 FEW014 SCT055 13/12 Q1008=
201608081820 METAR ESMX 081820Z 23013KT 9000 FEW013 SCT026 BKN031 13/12 Q1008=
201608081750 METAR ESMX 081750Z 22010KT 9999 FEW024 SCT031 BKN067 15/12 Q1008=
201608081720 METAR ESMX 081720Z 23016G26KT 9999 DZ FEW026 SCT036 BKN046 16/11 Q1008=
201608081650 METAR ESMX 081650Z 23013G24KT 9999 FEW025 BKN065 17/10 Q1008=
201608081620 METAR COR ESMX 081620Z 23015KT 9999 FEW035 BKN065 17/10 Q1008=
201608081550 METAR COR ESMX 081550Z 22013KT 9999 FEW040 BKN065 18/10 Q1008=
201608081520 METAR ESMX 081520Z 24017KT 200V280 9999 FEW040 BKN064 18/10 Q1008=
201608081450 METAR ESMX 081450Z 23014KT 9999 FEW042 SCT063 19/10 Q1007=
201608081420 METAR ESMX 081420Z 24017G27KT 200V260 9999 FEW041 SCT052 19/10 Q1007=
201608081350 METAR ESMX 081350Z 22016KT 9999 SCT043 19/11 Q1007=
201608081320 METAR ESMX 081320Z 23016G27KT 9999 SCT032 19/11 Q1007=
201608081250 METAR ESMX 081250Z 24013G23KT 9999 FEW026 SCT049 19/13 Q1007=
201608081220 METAR ESMX 081220Z 23016KT 200V260 9999 FEW035 18/13 Q1007=
201608081150 METAR ESMX 081150Z 24015KT 9999 FEW010 BKN058 16/14 Q1008=
201608081120 METAR ESMX 081120Z 26017KT 5000 RA FEW005 SCT015 BKN033 16/15 Q1007 RERA=
201608081050 METAR ESMX 081050Z 20017KT 9999 FEW032 BKN043 BKN071 21/13 Q1006=
201608081020 METAR ESMX 081020Z 20013KT 9999 FEW027TCU SCT039 BKN049 20/14 Q1007=
201608080950 METAR ESMX 080950Z 21016KT 9999 FEW024 BKN055 21/15 Q1007=
201608080920 METAR ESMX 080920Z 19013KT 9999 FEW023 SCT046 BKN053 19/15 Q1007=
201608080850 METAR ESMX 080850Z 20014KT 9999 FEW022 SCT033 BKN048 19/14 Q1008=
201608080820 METAR ESMX 080820Z 19015KT 9999 SCT018 BKN028 19/15 Q1008=
201608080750 METAR ESMX 080750Z 19014KT 9999 SCT014 BKN024 19/15 Q1008=
201608080720 METAR ESMX 080720Z 19011KT 9999 SCT013 BKN016 OVC023 18/15 Q1009=
201608080650 METAR ESMX 080650Z 19012KT 9999 SCT012 BKN016 OVC020 17/15 Q1009=
201608080620 METAR ESMX 080620Z 18010KT 9999 FEW008 BKN010 OVC017 17/15 Q1009=
201608080550 METAR ESMX 080550Z 19010KT 9999 FEW007 SCT009 BKN015 16/14 Q1010=
201608080520 METAR ESMX 080520Z 19009KT 9999 FEW007 SCT013 BKN042 15/13 Q1010=
201608080450 METAR ESMX 080450Z 19009KT 9999 FEW014 14/13 Q1010=
201608080420 METAR ESMX 080420Z 19008KT CAVOK 13/12 Q1011=
201608080350 METAR ESMX 080350Z 19007KT 9999 FEW035 13/12 Q1011=
201608080320 METAR ESMX 080320Z 21008KT 9999 FEW029 SCT034 14/12 Q1011=
201608080250 METAR ESMX 080250Z AUTO 22008KT 9999 FEW022/// 14/12 Q1011=
201608080220 METAR ESMX 080220Z AUTO 22009KT 9999 FEW018/// 15/13 Q1011=
201608080150 METAR ESMX 080150Z AUTO 23009KT 9999 FEW017/// SCT041/// 15/13 Q1012=
201608080120 METAR ESMX 080120Z AUTO 20008KT 9999 FEW013/// SCT036/// BKN041/// 15/14 Q1012=
201608080050 METAR ESMX 080050Z AUTO 22008KT 9999 FEW025/// SCT042/// 15/14 Q1012=
201608080020 METAR ESMX 080020Z AUTO 20008KT 9999 FEW011/// SCT014/// BKN041/// 15/14 Q1012=
201608072350 METAR ESMX 072350Z AUTO 21010KT 9999 BKN010/// OVC017/// 16/14 Q1013=
201608072320 METAR ESMX 072320Z 20010KT 9999 FEW009 SCT011 BKN014 16/15 Q1013=
201608072250 METAR ESMX 072250Z 21012KT 9999 FEW011 SCT014 BKN017 17/15 Q1014=
201608072220 METAR ESMX 072220Z 20010KT 9999 FEW011 SCT015 BKN047 17/15 Q1014=
201608072150 METAR ESMX 072150Z 21010KT 9999 FEW008 BKN012 17/15 Q1014=
201608072120 METAR ESMX 072120Z 20010KT 9999 FEW007 BKN009 16/15 Q1014=
201608072050 METAR ESMX 072050Z 20009KT 9999 FEW006 BKN008 OVC010 16/15 Q1015=
201608072020 METAR ESMX 072020Z 20011KT 9999 OVC006 16/15 Q1015=
201608071950 METAR ESMX 071950Z 20011KT 9999 BKN006 16/15 Q1015=
201608071920 METAR ESMX 071920Z 20011KT 6000 BR BKN007 16/15 Q1015=
201608071850 METAR ESMX 071850Z 20010KT 8000 BR FEW008 BKN010 16/15 Q1015=
201608071820 METAR ESMX 071820Z 20010KT 9999 BKN012 17/14 Q1016=
201608071750 METAR ESMX 071750Z 20012KT 9999 FEW017 BKN022 17/13 Q1016=
201608071720 METAR ESMX 071720Z 21009KT 9999 BKN026 18/12 Q1016=
201608071650 METAR ESMX 071650Z 20009KT 9999 BKN029 18/12 Q1016=
201608071620 METAR ESMX 071620Z 22009KT 9999 BKN030 18/12 Q1017=
201608071550 METAR ESMX 071550Z AUTO 20009KT 9999 OVC030/// 18/11 Q1017=
201608071520 METAR ESMX 071520Z AUTO 22008KT 190V250 9999 OVC030/// 18/11 Q1017=
201608071450 METAR ESMX 071450Z AUTO 23010KT 9999 FEW035/// SCT041/// 18/11 Q1017=
201608071420 METAR ESMX 071420Z AUTO 23010KT 9999 SCT054/// 19/10 Q1017=
201608071350 METAR ESMX 071350Z AUTO 23012KT 200V260 9999 BKN060/// 20/09 Q1018=
201608071320 METAR ESMX 071320Z AUTO 23012KT 9999 FEW042/// BKN060/// 20/10 Q1018=
201608071250 METAR ESMX 071250Z 26013KT 230V290 9999 FEW045 SCT110 20/09 Q1018=
201608071220 METAR ESMX 071220Z 25013KT 9999 FEW052 SCT081 BKN095 20/08 Q1018=
201608071150 METAR ESMX 071150Z 23013KT 9999 FEW040 SCT100 19/09 Q1018=
201608071120 METAR ESMX 071120Z 26014KT 9999 FEW038 SCT095 19/09 Q1018=
201608071050 METAR ESMX 071050Z 28012KT 9999 SCT032 19/09 Q1018=
201608071020 METAR ESMX 071020Z 25010KT 230V300 9999 FEW033 SCT038 18/10 Q1018=
201608070950 METAR ESMX 070950Z AUTO 26013KT 230V300 9999 SCT035/// 18/08 Q1018=
201608070920 METAR ESMX 070920Z AUTO 27012KT 9999 FEW036/// 18/09 Q1018=
201608070850 METAR ESMX 070850Z AUTO 27012KT 240V300 9999 FEW030/// 17/08 Q1018=
201608070820 METAR ESMX 070820Z AUTO 27010KT 230V300 9999 FEW023/// 16/10 Q1018=
201608070750 METAR ESMX 070750Z AUTO 24012KT 9999 FEW020/// SCT024/// 15/10 Q1018=
201608070720 METAR ESMX 070720Z AUTO 26011KT 9999 BKN018/// BKN025/// 15/10 Q1018=
201608070650 METAR ESMX 070650Z AUTO 27011KT 9999 BKN017/// 15/10 Q1018=
201608070620 METAR ESMX 070620Z AUTO 26011KT 240V300 9999 BKN017/// 14/11 Q1018=
201608070550 METAR ESMX 070550Z AUTO 27010KT 9999 FEW014/// OVC016/// 14/11 Q1018=
201608070520 METAR ESMX 070520Z AUTO 26009KT 9999 OVC012/// 14/11 Q1018=
201608070450 METAR ESMX 070450Z AUTO 26009KT 9999 OVC012/// 14/11 Q1018=
201608070420 METAR ESMX 070420Z AUTO 26010KT 9999 OVC012/// 14/11 Q1018=
201608070350 METAR ESMX 070350Z AUTO 25009KT 9999 OVC011/// 13/12 Q1018=
201608070320 METAR ESMX 070320Z AUTO 25009KT 9999 OVC010/// 13/12 Q1017=
201608070250 METAR ESMX 070250Z AUTO 26009KT 9999 OVC010/// 13/12 Q1017=
201608070220 METAR ESMX 070220Z AUTO 25008KT 9999 OVC011/// 13/12 Q1017=
201608070150 METAR ESMX 070150Z AUTO 26008KT 9999 OVC011/// 13/12 Q1017=
201608070120 METAR ESMX 070120Z AUTO 26009KT 9999 OVC012/// 13/11 Q1017=
201608070050 METAR ESMX 070050Z AUTO 26009KT 9999 OVC013/// 13/11 Q1017=
201608070020 METAR ESMX 070020Z AUTO 26008KT 9999 OVC014/// 13/12 Q1017=
201608062350 METAR ESMX 062350Z AUTO 24008KT 9999 BKN015/// OVC019/// 13/12 Q1017=
201608062320 METAR ESMX 062320Z AUTO 25007KT 210V280 9999 BKN015/// OVC022/// 13/12 Q1017=
201608062250 METAR ESMX 062250Z AUTO 23006KT 9999 FEW016/// SCT019/// BKN021/// 13/12 Q1017=
201608062220 METAR ESMX 062220Z AUTO 25007KT 9999 FEW020/// SCT043/// BKN092/// 13/12 Q1017=
201608062150 METAR ESMX 062150Z AUTO 24008KT 9999 FEW019/// BKN026/// OVC045/// 13/12 Q1016=
201608062120 METAR ESMX 062120Z AUTO 23007KT 9999 FEW022/// SCT032/// BKN040/// 13/12 Q1016=
201608062050 METAR ESMX 062050Z AUTO 22008KT 9999 BR FEW020/// BKN032/// 13/12 Q1016 REDZ=
201608062020 METAR ESMX 062020Z AUTO 22007KT 9999 -DZ FEW020/// BKN025/// 13/11 Q1016=
201608061950 METAR ESMX 061950Z AUTO 25009KT 210V280 9999 FEW021/// OVC028/// 14/10 Q1016=
201608061920 METAR ESMX 061920Z AUTO 24007KT 9999 SCT032/// BKN050/// BKN061/// 14/09 Q1016=
201608061850 METAR ESMX 061850Z AUTO 24006KT 9999 FEW062/// BKN082/// 14/09 Q1016=
201608061820 METAR ESMX 061820Z AUTO 23006KT 9999 FEW070/// BKN087/// 14/09 Q1016=
201608061750 METAR ESMX 061750Z AUTO 25007KT 220V280 9999 BKN082/// 15/09 Q1016=
201608061720 METAR ESMX 061720Z AUTO 25009KT 9999 FEW048/// BKN080/// 15/09 Q1016=
201608061650 METAR ESMX 061650Z AUTO 25009KT 9999 FEW031/// BKN064/// 15/09 Q1015=
201608061620 METAR ESMX 061620Z AUTO 23007KT 200V260 9999 FEW044/// BKN080/// 16/10 Q1015=
201608061550 METAR ESMX 061550Z AUTO 23008KT 200V260 9999 FEW041/// BKN078/// 16/10 Q1016 REDZ=
201608061520 METAR ESMX 061520Z AUTO 24010KT 9999 DZ FEW031/// SCT047/// BKN076/// 15/10 Q1015=
201608061450 METAR ESMX 061450Z AUTO 26010KT 9999 FEW037/// SCT068/// 16/09 Q1015=
201608061420 METAR ESMX 061420Z AUTO 25011KT 220V290 9999 FEW046/// SCT075/// BKN110/// 17/09 Q1015=
201608061350 METAR ESMX 061350Z AUTO 26010KT 230V300 9999 BKN069/// 17/09 Q1015=
201608061320 METAR ESMX 061320Z AUTO 26013KT 240V300 9999 FEW036/// BKN063/// 17/09 Q1015=
201608061250 METAR ESMX 061250Z AUTO 24013KT 9999 SCT033/// BKN056/// 17/09 Q1015=
201608061220 METAR ESMX 061220Z AUTO 23014KT 9999 FEW030/// SCT039/// BKN070/// 18/09 Q1015=
201608061150 METAR ESMX 061150Z AUTO 22010KT 190V250 9999 FEW026/// SCT032/// BKN066/// 17/11 Q1015=
201608061120 METAR ESMX 061120Z AUTO 21009KT 9999 FEW024/// SCT034/// BKN064/// 17/11 Q1015 REDZ=
201608061050 METAR ESMX 061050Z AUTO 21010KT 160V240 9999 FEW031/// SCT043/// BKN056/// 16/10 Q1015=
201608061020 METAR ESMX 061020Z AUTO 21010KT 9999 FEW030/// BKN056/// 16/11 Q1015 REDZ=
201608060950 METAR ESMX 060950Z AUTO 22011KT 9999 FEW032/// SCT039/// BKN043/// 17/10 Q1015=
201608060920 METAR ESMX 060920Z AUTO 23010KT 190V260 9999 FEW033/// SCT054/// BKN065/// 18/10 Q1015=
201608060850 METAR ESMX 060850Z AUTO 23012KT 9999 SCT060/// 17/10 Q1015=
201608060820 METAR ESMX 060820Z AUTO 26012KT 9999 FEW049/// BKN060/// 17/10 Q1015=
201608060750 METAR ESMX 060750Z AUTO 25009KT 210V290 9999 FEW026/// SCT034/// BKN045/// 17/11 Q1015=
201608060720 METAR ESMX 060720Z AUTO 25010KT 200V290 9999 FEW022/// SCT030/// 17/10 Q1015=
201608060650 METAR ESMX 060650Z AUTO 25009KT 210V280 9999 FEW017/// SCT021/// BKN026/// 16/11 Q1015=
201608060620 METAR ESMX 060620Z AUTO 24006KT 170V290 9999 FEW017/// SCT081/// 15/11 Q1015=
201608060550 METAR ESMX 060550Z AUTO 25009KT 200V290 9999 FEW013/// SCT082/// 15/12 Q1014=
201608060520 METAR ESMX 060520Z AUTO 25007KT 210V280 9999 NCD 14/12 Q1014=
201608060450 METAR ESMX 060450Z AUTO 23006KT 9999 NCD 14/12 Q1014=
201608060420 METAR ESMX 060420Z AUTO 24005KT 210V270 9999 FEW020/// 13/12 Q1014=
201608060350 METAR ESMX 060350Z AUTO 26007KT 9999 FEW012/// SCT023/// BKN027/// 14/13 Q1014=
201608060320 METAR ESMX 060320Z AUTO 23005KT 9999 FEW009/// BKN021/// 14/13 Q1014=
201608060250 METAR ESMX 060250Z AUTO 22005KT 9999 FEW001/// BKN004/// 13/13 Q1014=
201608060220 METAR ESMX 060220Z AUTO 20004KT 9999 FEW008/// 13/13 Q1013=
201608060150 METAR ESMX 060150Z AUTO 22005KT 9999 FEW013/// 12/12 Q1013=
201608060120 METAR ESMX 060120Z AUTO 22006KT 9999 FEW023/// 13/12 Q1013=
201608060050 METAR ESMX 060050Z AUTO 22006KT 9999 FEW007/// 13/12 Q1013=
201608060020 METAR ESMX 060020Z AUTO 19005KT 7000 NCD 13/12 Q1013=
201608052350 METAR ESMX 052350Z AUTO 20004KT 9999 NCD 13/12 Q1013=
201608052320 METAR ESMX 052320Z AUTO 18004KT 9999 NCD 14/12 Q1013=
201608052250 METAR ESMX 052250Z AUTO 21004KT 9999 NCD 13/12 Q1013=
201608052220 METAR ESMX 052220Z AUTO 21005KT 9999 NCD 14/12 Q1013=
201608052150 METAR ESMX 052150Z AUTO 21005KT 9999 NCD 14/12 Q1013=
201608052120 METAR ESMX 052120Z AUTO 22005KT 9999 NCD 14/12 Q1013=
201608052050 METAR ESMX 052050Z AUTO 22005KT 9999 NCD 14/13 Q1013=
201608052020 METAR ESMX 052020Z AUTO 22005KT 9999 NCD 15/13 Q1013=
201608051950 METAR ESMX 051950Z AUTO 22005KT 9999 NCD 15/13 Q1013=
201608051920 METAR ESMX 051920Z AUTO 22004KT 9999 FEW034/// 16/13 Q1013=
201608051850 METAR ESMX 051850Z AUTO 21005KT 9999 NCD 17/14 Q1013=
201608051820 METAR ESMX 051820Z AUTO 21005KT 9999 FEW091/// 18/14 Q1013=
201608051750 METAR ESMX 051750Z AUTO 22007KT 9999 BKN088/// 20/13 Q1013=
201608051720 METAR ESMX 051720Z AUTO 22009KT 9999 BKN081/// 20/13 Q1012=
201608051650 METAR ESMX 051650Z AUTO 22008KT 9999 SCT077/// 19/13 Q1012=
201608051620 METAR ESMX 051620Z AUTO 23010KT 200V260 9999 FEW077/// 21/12 Q1012=
201608051550 METAR ESMX 051550Z AUTO 22009KT 9999 BKN077/// 20/14 Q1012=
201608051520 METAR ESMX 051520Z 22011KT 9999 FEW025 SCT032 BKN042 20/13 Q1012=
201608051450 METAR ESMX 051450Z 21007KT 9999 FEW025 SCT043 BKN090 20/14 Q1012=
201608051420 METAR ESMX 051420Z 21007KT 180V250 9999 FEW045 BKN090 20/14 Q1012=
201608051350 METAR ESMX 051350Z 23006KT 190V260 9999 FEW045 BKN080 20/14 Q1012=
201608051320 METAR ESMX 051320Z 27005KT 240V310 9999 FEW039 SCT050 BKN080 18/14 Q1012=
201608051250 METAR ESMX 051250Z AUTO 28004KT 250V340 9999 FEW028/// SCT038/// BKN047/// 19/15 Q1012=
201608051220 METAR ESMX 051220Z AUTO 30005KT 270V330 9999 SCT023/// BKN033/// BKN044/// 17/14 Q1012=
201608051150 METAR ESMX 051150Z AUTO 24007KT 190V340 9999 FEW019/// BKN024/// BKN077/// 18/13 Q1012=
201608051120 METAR ESMX 051120Z AUTO 20009KT 9999 FEW024/// SCT034/// BKN041/// 19/14 Q1012=
201608051050 METAR ESMX 051050Z AUTO 19009KT 9999 FEW024/// 19/13 Q1012=
201608051020 METAR ESMX 051020Z AUTO 20010KT 150V230 9999 FEW023/// 20/13 Q1012=
201608050950 METAR ESMX 050950Z 20010KT 170V230 9999 FEW015 SCT019 BKN022 18/13 Q1012=
201608050920 METAR ESMX 050920Z 20010KT 9999 FEW015 SCT018 BKN021 18/14 Q1012=
201608050850 METAR ESMX 050850Z 19010KT 9999 FEW014 SCT017 18/14 Q1012=
201608050820 METAR ESMX 050820Z 20009KT 9999 FEW009 SCT012 BKN017 17/14 Q1011=
201608050750 METAR ESMX 050750Z 20008KT 9999 SCT008 BKN010 17/15 Q1011=
201608050720 METAR ESMX 050720Z 20007KT 9999 SCT007 BKN010 16/14 Q1011=
201608050650 METAR ESMX 050650Z AUTO 21006KT 9999 OVC005/// 15/14 Q1011=
201608050620 METAR ESMX 050620Z AUTO 21007KT 9999 BKN005/// BKN008/// 15/14 Q1011=
201608050550 METAR ESMX 050550Z AUTO 21007KT 9999 SCT004/// BKN006/// 15/14 Q1011=
201608050520 METAR ESMX 050520Z AUTO 22006KT 9999 OVC003/// 14/13 Q1010=
201608050450 METAR ESMX 050450Z AUTO 20006KT 9999 SCT002/// OVC004/// 14/13 Q1010=
201608050420 METAR ESMX 050420Z AUTO 19005KT 9000 BR OVC001/// 13/13 Q1010=
201608050350 METAR ESMX 050350Z AUTO 19004KT 6000 BR FEW003/// SCT007/// 12/12 Q1010=
201608050320 METAR ESMX 050320Z AUTO 18005KT 9999 OVC005/// 13/13 Q1010=
201608050250 METAR ESMX 050250Z AUTO 16004KT 9000 BR BKN006/// BKN008/// 13/13 Q1009=
201608050220 METAR ESMX 050220Z AUTO 15004KT 7000 BR BKN006/// 12/12 Q1009=
201608050150 METAR ESMX 050150Z AUTO 15004KT 7000 BR FEW007/// SCT008/// BKN013/// 13/12 Q1009=
201608050120 METAR ESMX 050120Z AUTO 20005KT 9999 SCT097/// 13/12 Q1009=
201608050050 METAR ESMX 050050Z AUTO 20005KT 9999 FEW097/// 13/12 Q1009=
201608050020 METAR ESMX 050020Z 21007KT CAVOK 14/13 Q1009=
201608042350 METAR ESMX 042350Z 20007KT CAVOK 14/13 Q1009=
201608042320 METAR ESMX 042320Z 19007KT CAVOK 14/13 Q1009=
201608042250 METAR ESMX 042250Z 18007KT CAVOK 15/14 Q1009=
201608042220 METAR ESMX 042220Z 18006KT CAVOK 15/14 Q1009=
201608042150 METAR ESMX 042150Z 17004KT CAVOK 15/14 Q1008=
201608042120 METAR ESMX 042120Z 18005KT CAVOK 15/14 Q1008=
201608042050 METAR ESMX 042050Z 20005KT CAVOK 15/14 Q1008=
201608042020 METAR ESMX 042020Z 19006KT CAVOK 16/15 Q1008=
201608041950 METAR ESMX 041950Z 18007KT 9999 VCSH FEW062CB BKN074 16/15 Q1008=
201608041920 METAR COR ESMX 041920Z 19007KT 9999 VCSH FEW048CB BKN084 16/15 Q1008=
201608041850 METAR ESMX 041850Z 19007KT 9999 VCSH FEW052CB SCT095 16/15 Q1008=
201608041820 METAR ESMX 041820Z 18005KT 9999 VCSH SCT051CB 17/15 Q1007=
201608041750 METAR ESMX 041750Z 20006KT 9999 VCSH BKN058CB 17/15 Q1007=
201608041720 METAR ESMX 041720Z 19007KT 9999 -RA FEW045 SCT060 17/15 Q1007=
201608041650 METAR ESMX 041650Z 21007KT 9999 -RA FEW010 SCT040 16/15 Q1007=
201608041620 METAR ESMX 041620Z AUTO 27005KT 9999 -RA FEW035/// SCT081/// 18/14 Q1007=
201608041550 METAR ESMX 041550Z AUTO 24004KT 220V290 9999 FEW070/// SCT091/// 19/13 Q1006=
201608041520 METAR ESMX 041520Z 26012KT 9999 -SHRA SCT030CB 19/14 Q1006=
201608041450 METAR ESMX 041450Z 22010KT 200V260 9999 VCSH FEW030CB 22/12 Q1006=
201608041420 METAR ESMX 041420Z 21010KT 9999 VCSH FEW030CB 22/12 Q1006=
201608041350 METAR ESMX 041350Z 21011KT 9999 FEW026 SCT100 21/12 Q1006=
201608041320 METAR ESMX 041320Z 22010KT 9999 VCSH FEW030CB 21/12 Q1006=
201608041250 METAR ESMX 041250Z 21008KT 9999 FEW030 21/14 Q1006=
201608041220 METAR ESMX 041220Z 22009KT 9999 FEW027CB SCT042 21/14 Q1006=
201608041150 METAR ESMX 041150Z 22010KT 9999 VCSH FEW030CB 21/14 Q1006=
201608041120 METAR ESMX 041120Z 25009KT 9999 FEW027 20/14 Q1006=
201608041050 METAR ESMX 041050Z 23007KT 210V270 9999 FEW025 SCT076 19/13 Q1006=
201608041020 METAR ESMX 041020Z 25004KT 9999 FEW025 BKN066 17/15 Q1006 RERA=
201608040950 METAR ESMX 040950Z AUTO 20010KT 9999 -RA FEW008/// SCT034/// BKN068/// 17/14 Q1006 RERA REDZ=
201608040920 METAR ESMX 040920Z AUTO 22010KT 9999 FEW023/// SCT029/// BKN036/// 20/14 Q1005=
201608040850 METAR ESMX 040850Z AUTO 20012KT 9999 FEW025/// 19/14 Q1005=
201608040820 METAR ESMX 040820Z AUTO 20013KT 9999 FEW020/// SCT031/// 18/14 Q1006=
201608040750 METAR ESMX 040750Z 21010KT 170V250 9999 FEW018 BKN020 19/14 Q1005=
201608040720 METAR ESMX 040720Z 22010KT 9999 FEW011 SCT014 BKN019 17/14 Q1005=
201608040650 METAR ESMX 040650Z 20010KT 9999 FEW009 SCT012 BKN015 17/14 Q1005=
201608040620 METAR ESMX 040620Z 21011KT 9999 FEW008 BKN010 16/14 Q1005=
201608040550 METAR ESMX 040550Z 20010KT 9999 FEW009 BKN011 16/14 Q1005=
201608040520 METAR ESMX 040520Z 21010KT 9999 FEW007 SCT010 BKN019 16/14 Q1004=
201608040450 METAR ESMX 040450Z 20009KT 9999 FEW006 SCT009 BKN011 16/15 Q1004=
201608040420 METAR ESMX 040420Z 19008KT 9999 FEW007 SCT017 BKN020 16/15 Q1004=
201608040350 METAR ESMX 040350Z AUTO 20008KT 9999 FEW007/// SCT017/// 15/14 Q1004=
201608040320 METAR ESMX 040320Z AUTO 22006KT 9999 FEW007/// SCT009/// 15/14 Q1004=
201608040250 METAR ESMX 040250Z AUTO 23009KT 9999 FEW007/// SCT010/// BKN013/// 15/14 Q1004=
201608040220 METAR ESMX 040220Z AUTO 23009KT 9999 FEW008/// SCT010/// BKN012/// 16/15 Q1004=
201608040150 METAR ESMX 040150Z AUTO 23008KT 9999 FEW007/// SCT011/// BKN014/// 16/15 Q1004=
201608040120 METAR ESMX 040120Z AUTO 23008KT 9999 FEW006/// SCT010/// BKN014/// 16/15 Q1003=
201608040050 METAR ESMX 040050Z AUTO 22008KT 9999 FEW010/// SCT014/// BKN021/// 17/16 Q1003=
201608040020 METAR ESMX 040020Z AUTO 23008KT 9999 FEW009/// BKN010/// 17/15 Q1003=
201608032350 METAR ESMX 032350Z 21009KT 9999 FEW007 SCT010 BKN013 17/16 Q1003=
201608032320 METAR ESMX 032320Z 20009KT 9999 FEW006 SCT008 BKN012 17/16 Q1003=
201608032250 METAR ESMX 032250Z 22008KT 9999 FEW005 SCT007 BKN009 17/16 Q1003=
201608032220 METAR ESMX 032220Z 20009KT 9999 FEW003 BKN005 17/16 Q1003=
201608032150 METAR ESMX 032150Z 20008KT 9999 BKN003 OVC006 16/16 Q1003=
201608032120 METAR ESMX 032120Z 16007KT 9999 -RA BKN005 16/15 Q1003=
201608032050 METAR ESMX 032050Z 15008KT 9999 BKN005 15/15 Q1003=
201608032020 METAR ESMX 032020Z 13007KT 080V170 8000 -RA OVC004 15/14 Q1003=
201608031950 METAR ESMX 031950Z 14007KT 090V180 9999 -RA BKN004 15/14 Q1004=
201608031920 METAR ESMX 031920Z 12007KT 070V170 7000 RA BKN005 14/14 Q1004=
201608031850 METAR ESMX 031850Z AUTO 12005KT 060V170 9999 -RA FEW008/// SCT012/// OVC016/// 14/13 Q1004=
201608031820 METAR ESMX 031820Z AUTO 12005KT 080V170 9999 -RA OVC018/// 14/13 Q1005=
201608031750 METAR ESMX 031750Z AUTO 14006KT 100V190 9999 -RA OVC022/// 14/12 Q1005=
201608031720 METAR ESMX 031720Z AUTO 13004KT 060V170 9999 -RA FEW024/// BKN033/// 15/11 Q1006=
201608031650 METAR ESMX 031650Z AUTO 16007KT 120V190 9999 -DZ FEW030/// BKN035/// OVC043/// 16/10 Q1007 RERA=
201608031620 METAR ESMX 031620Z AUTO 15008KT 100V190 9999 -RA FEW029/// 16/11 Q1007=
201608031550 METAR ESMX 031550Z AUTO 15010KT 110V190 9999 FEW052/// SCT073/// BKN090/// 18/10 Q1007 REDZ=
201608031520 METAR ESMX 031520Z AUTO 16011KT 120V190 9999 FEW038/// OVC057/// 19/09 Q1008=
201608031450 METAR ESMX 031450Z AUTO 15009KT 120V190 9999 FEW045/// 19/10 Q1008=
201608031420 METAR ESMX 031420Z AUTO 16011KT 120V190 9999 NCD 20/09 Q1008=
201608031350 METAR ESMX 031350Z AUTO 18010KT 9999 FEW041/// 20/10 Q1008=
201608031320 METAR ESMX 031320Z 17011KT 130V200 9999 FEW030 21/10 Q1009=
201608031250 METAR ESMX 031250Z 17012KT 140V200 9999 FEW045 SCT074 20/10 Q1009=
201608031220 METAR ESMX 031220Z 17011KT 9999 SCT043 20/09 Q1009=
201608031150 METAR ESMX 031150Z 17010KT 120V190 9999 SCT042 20/09 Q1010=
201608031120 METAR ESMX 031120Z 16009KT 120V200 9999 FEW049 SCT061 20/09 Q1010=
201608031050 METAR ESMX 031050Z 17009KT 120V200 9999 SCT045 20/09 Q1010=
201608031020 METAR ESMX 031020Z 17009KT 140V210 9999 FEW042 20/09 Q1010=
201608030950 METAR ESMX 030950Z AUTO 20005KT 170V240 9999 NCD 19/09 Q1011=
201608030920 METAR ESMX 030920Z AUTO 20008KT 9999 FEW053/// 18/09 Q1011=
201608030850 METAR ESMX 030850Z AUTO 19009KT 160V230 9999 SCT035/// BKN043/// BKN069/// 18/09 Q1011=
201608030820 METAR ESMX 030820Z AUTO 18006KT 140V230 9999 FEW033/// 18/09 Q1011=
201608030750 METAR ESMX 030750Z AUTO 22008KT 9999 FEW026/// 18/11 Q1012=
201608030720 METAR ESMX 030720Z AUTO 21006KT 180V240 9999 NCD 17/11 Q1012=
201608030650 METAR ESMX 030650Z 20006KT CAVOK 16/11 Q1012=
201608030620 METAR ESMX 030620Z 20006KT CAVOK 15/11 Q1012=
201608030550 METAR ESMX 030550Z 19005KT CAVOK 14/11 Q1012=
201608030520 METAR ESMX 030520Z 18006KT CAVOK 13/11 Q1012=
201608030450 METAR ESMX 030450Z 18004KT CAVOK 11/10 Q1012=
201608030420 METAR ESMX 030420Z 18004KT CAVOK 08/08 Q1012=
201608030350 METAR ESMX 030350Z AUTO 17003KT 9999 NCD 07/07 Q1012=
201608030320 METAR ESMX 030320Z AUTO 16004KT 9999 BCFG NCD 07/07 Q1012=
201608030250 METAR ESMX 030250Z AUTO 18003KT 9999 BCFG NCD 06/06 Q1012=
201608030220 METAR ESMX 030220Z AUTO 16002KT 9999 BR NCD 06/06 Q1012=
201608030150 METAR ESMX 030150Z AUTO 16003KT 9999 NCD 07/06 Q1013=
201608030120 METAR ESMX 030120Z AUTO 18002KT 6000 BR NCD 07/06 Q1012=
201608030050 METAR ESMX 030050Z AUTO 19003KT 9999 NCD 07/07 Q1013=
201608030020 METAR ESMX 030020Z AUTO 20004KT 9999 NCD 08/07 Q1013=
201608022350 METAR ESMX 022350Z 20003KT CAVOK 08/08 Q1013=
201608022320 METAR ESMX 022320Z 20003KT CAVOK 08/08 Q1012=
201608022250 METAR ESMX 022250Z 16004KT CAVOK 11/08 Q1012=
201608022220 METAR ESMX 022220Z 22003KT CAVOK 10/08 Q1012=
201608022150 METAR ESMX 022150Z 25004KT CAVOK 10/08 Q1012=
201608022120 METAR ESMX 022120Z 24003KT CAVOK 10/08 Q1012=
201608022050 METAR ESMX 022050Z 21004KT CAVOK 12/08 Q1012=
201608022020 METAR ESMX 022020Z 22003KT CAVOK 12/09 Q1012=
201608021950 METAR ESMX 021950Z 23004KT CAVOK 13/08 Q1012=
201608021920 METAR ESMX 021920Z 23003KT CAVOK 14/08 Q1012=
201608021850 METAR ESMX 021850Z AUTO 26003KT 9999 NCD 15/08 Q1011=
201608021820 METAR ESMX 021820Z AUTO 25005KT 9999 NCD 17/08 Q1011=
201608021750 METAR ESMX 021750Z AUTO 27006KT 9999 FEW048/// 18/08 Q1011=
201608021720 METAR ESMX 021720Z AUTO 27007KT 9999 FEW050/// 18/07 Q1011=
201608021650 METAR ESMX 021650Z 27009KT 240V310 9999 FEW047 19/08 Q1011=
201608021620 METAR ESMX 021620Z 21006KT 180V250 9999 FEW049 SCT078 19/09 Q1011=
201608021550 METAR ESMX 021550Z 17007KT 9999 FEW047 SCT081 18/10 Q1011=
201608021520 METAR ESMX 021520Z 19008KT 9999 VCSH FEW048CB SCT070 17/10 Q1011=
201608021450 METAR ESMX 021450Z 19009KT 160V220 9999 VCSH FEW044CB SCT056 BKN080 19/10 Q1011=
201608021420 METAR ESMX 021420Z 21007KT 170V250 9999 FEW045CB SCT060 19/10 Q1011=
201608021350 METAR ESMX 021350Z 19008KT 170V240 9999 FEW038CB SCT047 BKN076 18/10 Q1012=
201608021320 METAR ESMX 021320Z 22007KT 170V260 9999 FEW040CB SCT046 18/09 Q1012=
201608021250 METAR ESMX 021250Z AUTO 24007KT 200V300 9999 NCD 18/10 Q1012=
201608021220 METAR ESMX 021220Z AUTO 22008KT 9999 FEW067/// 17/12 Q1012 RERA=
201608021150 METAR ESMX 021150Z 27008KT 9999 -SHRA FEW046CB SCT060 18/11 Q1012=
201608021120 METAR ESMX 021120Z 26004KT 230V330 9999 -SHRA FEW038CB SCT050 16/12 Q1012=
201608021050 METAR ESMX 021050Z 24005KT 200V280 9999 -SHRA FEW020 SCT076 14/10 Q1012=
201608021020 METAR ESMX 021020Z AUTO 30004KT 250V330 9999 FEW027/// 16/12 Q1012=
201608020950 METAR ESMX 020950Z AUTO 25011KT 220V290 9999 FEW037/// SCT046/// 18/08 Q1012=
201608020920 METAR ESMX 020920Z AUTO 24011KT 200V280 9999 FEW034/// SCT042/// BKN049/// 18/09 Q1012=
201608020850 METAR ESMX 020850Z AUTO 24011KT 9999 FEW023/// SCT050/// BKN089/// 17/10 Q1012=
201608020820 METAR ESMX 020820Z AUTO 23011KT 210V290 9999 FEW029/// SCT034/// BKN047/// 17/10 Q1012=
201608020750 METAR ESMX 020750Z AUTO 24010KT 9999 FEW027/// SCT033/// 17/10 Q1012=
201608020720 METAR ESMX 020720Z AUTO 23012KT 9999 FEW023/// SCT027/// 16/10 Q1012=
201608020650 METAR ESMX 020650Z AUTO 22010KT 200V260 9999 FEW019/// SCT023/// 16/11 Q1012=
201608020620 METAR ESMX 020620Z AUTO 23010KT 9999 NCD 14/11 Q1012=
201608020550 METAR ESMX 020550Z AUTO 23009KT 9999 NCD 14/11 Q1012=
201608020520 METAR ESMX 020520Z AUTO 22009KT 9999 NCD 13/11 Q1012=
201608020450 METAR ESMX 020450Z AUTO 20008KT 9999 FEW065/// 12/11 Q1012=
201608020420 METAR ESMX 020420Z AUTO 20007KT 9999 FEW021/// 11/10 Q1012=
201608020350 METAR ESMX 020350Z AUTO 19006KT 9999 FEW058/// 10/10 Q1012=
201608020320 METAR ESMX 020320Z AUTO 18005KT 9999 FEW063/// 11/10 Q1012=
201608020250 METAR ESMX 020250Z AUTO 19007KT 9999 FEW058/// 10/09 Q1012=
201608020220 METAR ESMX 020220Z AUTO 21006KT 9999 FEW061/// 10/10 Q1012=
201608020150 METAR ESMX 020150Z AUTO 20007KT 9999 OVC058/// 11/10 Q1012=
201608020120 METAR ESMX 020120Z AUTO 18007KT 9999 FEW065/// 10/10 Q1012=
201608020050 METAR ESMX 020050Z AUTO 18007KT 9999 FEW069/// 11/10 Q1012=
201608020020 METAR ESMX 020020Z AUTO 19006KT 9999 FEW066/// 10/09 Q1012=
201608012350 METAR ESMX 012350Z 19006KT CAVOK 11/09 Q1012=
201608012320 METAR ESMX 012320Z 22006KT 9999 FEW025 SCT061 12/10 Q1012=
201608012250 METAR ESMX 012250Z 22006KT 9999 FEW020 SCT032 BKN069 12/10 Q1012=
201608012220 METAR ESMX 012220Z 22006KT CAVOK 11/10 Q1012=
201608012150 METAR ESMX 012150Z 20006KT 9999 FEW025 11/10 Q1012=
201608012120 METAR ESMX 012120Z 21005KT 9999 FEW025 SCT074 12/10 Q1011=
201608012050 METAR ESMX 012050Z 21006KT 9999 FEW023 SCT064 BKN100 13/11 Q1011=
201608012020 METAR ESMX 012020Z 21005KT 9999 FEW023 12/10 Q1011=
201608011950 METAR ESMX 011950Z 21006KT CAVOK 13/11 Q1011=
201608011920 METAR ESMX 011920Z 22006KT 9999 FEW029 13/11 Q1011=
201608011850 METAR ESMX 011850Z AUTO 23008KT 9999 NCD 14/10 Q1011=
201608011820 METAR ESMX 011820Z AUTO 23007KT 9999 NCD 15/10 Q1011=
201608011750 METAR ESMX 011750Z AUTO 22009KT 9999 NCD 15/10 Q1011=
201608011720 METAR ESMX 011720Z AUTO 22011KT 9999 FEW089/// 17/09 Q1011=
201608011650 METAR ESMX 011650Z AUTO 23009KT 180V260 9999 FEW070/// 17/11 Q1011 REDZ=
201608011620 METAR ESMX 011620Z AUTO 27013KT 9999 SCT037/// BKN051/// 16/09 Q1011=
201608011550 METAR ESMX 011550Z 21010KT 180V240 9999 FEW035 19/11 Q1010=
201608011520 METAR ESMX 011520Z 23009KT 200V260 9999 FEW035 18/11 Q1010=
201608011450 METAR ESMX 011450Z 21010KT 190V250 9999 FEW035 18/11 Q1011=
201608011420 METAR ESMX 011420Z 22008KT 9999 FEW033CB 17/11 Q1011=
201608011350 METAR COR ESMX 011350Z 25011KT 9999 -SHRA FEW033CB SCT057 15/10 Q1011=
201608011320 METAR ESMX 011320Z 22010KT 200V260 9999 VCSH FEW030CB BKN058 18/10 Q1010=
201608011250 METAR ESMX 011250Z 23011KT 9999 VCSH FEW034CB BKN080 18/10 Q1011=
201608011220 METAR ESMX 011220Z 23009KT 200V260 9999 VCSH FEW030CB SCT080 17/12 Q1011=
