##########################################################
# Query made at 04/19/2024 21:49:31 UTC
# Time interval: from 01/01/2016 12:00  to 01/31/2016 12:59  UTC
##########################################################

##########################################################
# ESMX, Vaxjo (Sweden)
# WMO index: 02641. WIGOS ID: 0-20000-0-02648
# Latitude 56-51N. Longitude 014-50E. Altitude 199 m.
##########################################################

201601311250 METAR ESMX 311250Z 25018G31KT 9999 SCT020 BKN027 04/M00 Q0990=
201601311220 METAR ESMX 311220Z 26015G25KT 9999 BKN021 04/M00 Q0990=
201601311150 METAR ESMX 311150Z 25017G27KT 9999 FEW019 SCT024 04/00 Q0990=
201601311120 METAR ESMX 311120Z AUTO 25016G27KT 9999 FEW018/// SCT022/// 04/00 Q0989=
201601311050 METAR ESMX 311050Z AUTO 25014G24KT 9999 FEW018/// SCT020/// BKN024/// 03/00 Q0990=
201601311020 METAR ESMX 311020Z AUTO 24016G27KT 9999 FEW017/// BKN020/// 03/M00 Q0989=
201601310950 METAR ESMX 310950Z AUTO 23015KT 9999 FEW015/// BKN018/// BKN027/// 03/01 Q0989=
201601310920 METAR ESMX 310920Z AUTO 25015G25KT 9999 FEW013/// SCT016/// BKN021/// 03/01 Q0989=
201601310850 METAR ESMX 310850Z AUTO 23014KT 9999 FEW014/// SCT020/// BKN027/// 02/01 Q0988=
201601310820 METAR ESMX 310820Z AUTO 25013G24KT 210V270 9999 FEW010/// SCT018/// BKN023/// 02/00 Q0988=
201601310750 METAR ESMX 310750Z 24012KT 9999 FEW010 SCT015 BKN017 02/00 Q0988=
201601310720 METAR ESMX 310720Z 24013KT 9999 FEW008 SCT012 BKN014 01/00 Q0988=
201601310650 METAR ESMX 310650Z 23012KT 9999 SG FEW006 SCT008 BKN009 01/01 Q0987=
201601310620 METAR ESMX 310620Z 21011KT 6000 -SN FEW005 SCT006 BKN008 01/00 Q0987=
201601310550 METAR ESMX 310550Z AUTO 20013KT 2200 -SN FEW004/// BKN005/// BKN008/// 00/00 Q0987=
201601310520 METAR ESMX 310520Z AUTO 20012KT 0400 R01/P2000D R19/1100N SN FEW001/// BKN005/// BKN008/// 00/M00 Q0987=
201601310450 METAR ESMX 310450Z AUTO 21013KT 5000 -SN BKN006/// OVC009/// 01/M00 Q0988=
201601310420 METAR ESMX 310420Z AUTO 20011KT 5000 -SN FEW006/// SCT008/// OVC010/// 01/M00 Q0988=
201601310350 METAR ESMX 310350Z AUTO 20012KT 5000 -RA FEW009/// OVC011/// 01/M00 Q0988 RESHUP REUP=
201601310320 METAR ESMX 310320Z AUTO 20010KT 9999 OVC011/// 01/M00 Q0989 RESHUP REUP=
201601310250 METAR ESMX 310250Z AUTO 21009KT 9999 UP BKN011/// OVC016/// 01/M01 Q0989=
201601310220 METAR ESMX 310220Z AUTO 23010KT 9999 OVC011/// 01/M00 Q0990=
201601310150 METAR ESMX 310150Z AUTO 22010KT 9999 OVC011/// 01/M01 Q0990=
201601310120 METAR ESMX 310120Z AUTO 22011KT 9999 OVC012/// 01/M01 Q0990=
201601310050 METAR ESMX 310050Z AUTO 21011KT 9999 SCT012/// BKN017/// OVC020/// 01/M00 Q0990=
201601310020 METAR ESMX 310020Z AUTO 21011KT 9999 BKN013/// OVC019/// 01/M00 Q0990=
201601302350 METAR ESMX 302350Z AUTO 21010KT 190V250 9999 FEW011/// SCT015/// BKN019/// 01/M00 Q0990 REUP REDZ=
201601302320 METAR ESMX 302320Z AUTO 22011KT 9999 FEW011/// SCT014/// BKN016/// 01/M00 Q0990=
201601302250 METAR ESMX 302250Z AUTO 23010KT 9999 BKN010/// OVC016/// 02/M00 Q0990=
201601302220 METAR ESMX 302220Z AUTO 24011KT 9999 FEW009/// BKN011/// BKN019/// 01/M00 Q0990=
201601302150 METAR ESMX 302150Z AUTO 24011KT 9999 FEW009/// BKN010/// 01/M00 Q0990=
201601302120 METAR ESMX 302120Z AUTO 23010KT 9999 FEW009/// BKN011/// BKN015/// 01/M00 Q0990=
201601302050 METAR ESMX 302050Z 24010KT 9999 SCT008 BKN010 01/00 Q0990=
201601302020 METAR ESMX 302020Z 22010KT 9999 FEW008 OVC010 01/00 Q0990=
201601301950 METAR ESMX 301950Z 23008KT 9999 FEW008 BKN011 OVC016 02/00 Q0991=
201601301920 METAR ESMX 301920Z 24011KT 6000 -RASN FEW007 SCT015 BKN054 02/00 Q0991=
201601301850 METAR ESMX 301850Z AUTO 23008KT 9999 FEW054/// 02/01 Q0991=
201601301820 METAR ESMX 301820Z AUTO 22010KT 9999 NCD 02/01 Q0991=
201601301750 METAR ESMX 301750Z AUTO 20011KT 9999 NCD 02/01 Q0991=
201601301720 METAR ESMX 301720Z AUTO 20009KT 9999 NCD 02/01 Q0992=
201601301650 METAR ESMX 301650Z AUTO 20008KT 9999 NCD 02/00 Q0991=
201601301620 METAR ESMX 301620Z AUTO 22008KT 9999 NCD 02/01 Q0991=
201601301550 METAR ESMX 301550Z AUTO 23009KT 9999 FEW012/// BKN016/// 03/01 Q0992=
201601301520 METAR ESMX 301520Z AUTO 23009KT 9999 FEW010/// SCT016/// BKN020/// 03/02 Q0991=
201601301450 METAR ESMX 301450Z AUTO 22010KT 9999 BKN012/// BKN020/// 04/02 Q0992 RESHUP REUP=
201601301420 METAR ESMX 301420Z AUTO 23010KT 9999 FEW013/// SCT018/// BKN023/// 04/02 Q0992=
201601301350 METAR ESMX 301350Z AUTO 23010KT 9999 FEW032/// 04/02 Q0991 RESHUP RERA=
201601301320 METAR ESMX 301320Z AUTO 25012G23KT 9999 FEW006/// SCT015/// BKN052/// 04/03 Q0992=
201601301250 METAR ESMX 301250Z AUTO 22012KT 9999 -DZ FEW011/// BKN014/// BKN019/// 06/04 Q0991 RESHUP=
201601301220 METAR ESMX 301220Z AUTO 22012KT 9999 FEW010/// SCT013/// BKN016/// 06/04 Q0992 REUP=
201601301150 METAR ESMX 301150Z AUTO 22014KT 9999 FEW010/// BKN013/// OVC019/// 06/05 Q0992=
201601301120 METAR ESMX 301120Z AUTO 22013KT 9999 FEW011/// SCT014/// BKN017/// 06/05 Q0992=
201601301050 METAR ESMX 301050Z AUTO 22010KT 9999 FEW017/// SCT029/// 06/05 Q0992=
201601301020 METAR ESMX 301020Z AUTO 23014G24KT 9999 -RA FEW009/// SCT013/// BKN016/// 06/04 Q0993 RESHRA=
201601300950 METAR ESMX 300950Z AUTO 22014KT 9999 -RA FEW008/// OVC011/// 06/05 Q0993 RESHUP RERA=
201601300920 METAR ESMX 300920Z AUTO 20014G25KT 9999 FEW006/// SCT009/// BKN011/// 06/06 Q0993=
201601300850 METAR ESMX 300850Z AUTO 19016KT 9999 -DZ FEW005/// SCT007/// BKN009/// 06/05 Q0993=
201601300820 METAR ESMX 300820Z AUTO 18014KT 9999 FEW003/// BKN005/// OVC008/// 05/05 Q0994=
201601300750 METAR ESMX 300750Z AUTO 20009KT 2200 -RA FEW005/// SCT006/// BKN008/// 04/04 Q0995 RESHRA=
201601300720 METAR ESMX 300720Z AUTO 20013KT 9999 -DZ FEW010/// BKN013/// BKN044/// 05/03 Q0995=
201601300650 METAR ESMX 300650Z AUTO 20016KT 9999 -RA FEW013/// SCT053/// 05/03 Q0996 REUP RESHUP=
201601300620 METAR ESMX 300620Z AUTO 20017KT 9999 FEW017/// SCT056/// 05/02 Q0996=
201601300550 METAR ESMX 300550Z AUTO 20014KT 9999 SCT067/// 04/02 Q0997=
201601300520 METAR ESMX 300520Z AUTO 20013KT 9999 FEW013/// SCT018/// 04/02 Q0997=
201601300450 METAR ESMX 300450Z AUTO 20015KT 9999 FEW014/// SCT018/// BKN021/// 05/03 Q0998=
201601300420 METAR ESMX 300420Z AUTO 20014KT 9999 FEW013/// SCT016/// BKN020/// 05/03 Q0999=
201601300350 METAR ESMX 300350Z AUTO 21013KT 9999 FEW013/// SCT016/// BKN019/// 05/03 Q0999=
201601300320 METAR ESMX 300320Z AUTO 22016KT 9999 SCT013/// BKN017/// OVC020/// 05/03 Q1000=
201601300250 METAR ESMX 300250Z AUTO 22012KT 200V260 9999 OVC014/// 05/03 Q1000=
201601300220 METAR ESMX 300220Z AUTO 21012KT 9999 FEW014/// SCT017/// 04/02 Q1000=
201601300150 METAR ESMX 300150Z AUTO 22010KT 9999 FEW015/// SCT019/// BKN023/// 04/02 Q1001=
201601300120 METAR ESMX 300120Z AUTO 21012KT 9999 FEW017/// 05/02 Q1001=
201601300050 METAR ESMX 300050Z AUTO 22012KT 9999 FEW022/// 05/02 Q1001=
201601300020 METAR ESMX 300020Z AUTO 23016KT 9999 FEW021/// 05/02 Q1001=
201601292350 METAR ESMX 292350Z AUTO 23014G24KT 9999 FEW019/// BKN021/// 05/02 Q1001=
201601292320 METAR ESMX 292320Z AUTO 24015KT 9999 FEW017/// BKN020/// 06/03 Q1001=
201601292250 METAR ESMX 292250Z AUTO 22013KT 9999 FEW019/// SCT022/// 05/02 Q1001=
201601292220 METAR ESMX 292220Z AUTO 24014G25KT 210V280 9999 FEW024/// 06/02 Q1001=
201601292150 METAR ESMX 292150Z AUTO 23016G30KT 200V260 9999 FEW023/// SCT027/// BKN042/// 06/02 Q1001=
201601292120 METAR ESMX 292120Z AUTO 24014KT 9999 FEW020/// SCT024/// BKN031/// 06/03 Q1001=
201601292050 METAR ESMX 292050Z 22014G24KT 9999 FEW023 SCT028 06/03 Q1001=
201601292020 METAR ESMX 292020Z 24016G28KT 9999 FEW021 BKN025 06/03 Q1001=
201601291950 METAR ESMX 291950Z AUTO 24016G27KT 9999 FEW021/// SCT025/// OVC039/// 07/03 Q1000=
201601291920 METAR ESMX 291920Z 24016G25KT 9999 FEW019 SCT023 BKN042 07/04 Q1000=
201601291850 METAR ESMX 291850Z 25017G29KT 9999 SCT019 BKN024 07/04 Q1000=
201601291820 METAR ESMX 291820Z 25018G30KT 220V280 9999 -DZ FEW017 BKN023 07/05 Q0999=
201601291750 METAR ESMX 291750Z 24016G26KT 9999 FEW012 BKN018 07/06 Q0999=
201601291720 METAR ESMX 291720Z 22017G28KT 7000 -RA FEW006 BKN009 07/06 Q0998=
201601291650 METAR ESMX 291650Z 22018G27KT 4100 +DZ FEW006 BKN008 OVC011 07/06 Q0998=
201601291620 METAR ESMX 291620Z 21019G28KT 7000 DZ FEW007 SCT008 OVC010 07/06 Q0998 REDZ=
201601291550 METAR ESMX 291550Z 21020G33KT 6000 DZ FEW008 OVC010 07/05 Q0998=
201601291520 METAR ESMX 291520Z 21019KT 9999 FEW007 SCT008 OVC010 07/05 Q0999=
201601291450 METAR ESMX 291450Z 20018G29KT 8000 -RA FEW004 BKN009 06/05 Q0999=
201601291420 METAR ESMX 291420Z 19016KT 4100 DZ FEW003 BKN005 05/05 Q0999=
201601291350 METAR ESMX 291350Z 19018KT 3000 -RA BKN005 05/04 Q1000 REDZ=
201601291320 METAR ESMX 291320Z 19017KT 3000 DZ SCT004 BKN008 04/04 Q1001=
201601291250 METAR ESMX 291250Z 19018KT 5000 -DZ FEW004 BKN009 04/03 Q1002=
201601291220 METAR ESMX 291220Z 18017KT 6000 -RA BKN005 04/03 Q1002=
201601291150 METAR ESMX 291150Z 19017KT 9000 DZ OVC004 04/03 Q1003=
201601291120 METAR ESMX 291120Z 19015KT 3000 BR BKN002 04/03 Q1004=
201601291050 METAR ESMX 291050Z 19015KT 3000 BR BKN002 03/03 Q1005=
201601291020 METAR ESMX 291020Z 19015KT 2600 BR BKN002 03/03 Q1005=
201601290950 METAR ESMX 290950Z 19015KT 2700 -DZ BR BKN002 03/03 Q1006=
201601290920 METAR ESMX 290920Z 21014KT 3700 BR BKN002 03/03 Q1006=
201601290850 METAR ESMX 290850Z 20013KT 6000 -RA BKN003 03/03 Q1007 RERA=
201601290820 METAR ESMX 290820Z 20013KT 9000 BR OVC003 03/03 Q1007=
201601290750 METAR ESMX 290750Z 19014KT 6000 BR BKN004 OVC007 03/03 Q1007=
201601290720 METAR ESMX 290720Z 20014KT 5000 BR FEW004 OVC005 03/03 Q1007=
201601290650 METAR ESMX 290650Z 19012KT 5000 DZ FEW005 BKN007 OVC010 03/03 Q1008=
201601290620 METAR ESMX 290620Z 20013KT 8000 -DZ BKN006 OVC010 04/03 Q1008=
201601290550 METAR ESMX 290550Z 20013KT 9999 DZ OVC006 04/03 Q1008=
201601290520 METAR ESMX 290520Z 20013KT 9999 -DZ FEW006 OVC007 04/03 Q1009=
201601290450 METAR ESMX 290450Z 20011KT 9000 DZ SCT006 BKN008 OVC010 04/03 Q1009=
201601290420 METAR ESMX 290420Z AUTO 21010KT 9999 FEW007/// OVC009/// 04/03 Q1009 RESHUP RERA=
201601290350 METAR ESMX 290350Z AUTO 20011KT 7000 BR FEW006/// OVC008/// 04/03 Q1010=
201601290320 METAR ESMX 290320Z AUTO 20010KT 9999 FEW007/// SCT009/// OVC011/// 04/03 Q1010=
201601290250 METAR ESMX 290250Z AUTO 21009KT 9999 -RA FEW009/// OVC011/// 04/03 Q1010=
201601290220 METAR ESMX 290220Z AUTO 20009KT 7000 -RA FEW010/// BKN013/// OVC018/// 04/02 Q1010 RESHUP RERA=
201601290150 METAR ESMX 290150Z AUTO 23010KT 9999 FEW010/// BKN013/// OVC018/// 04/02 Q1010=
201601290120 METAR ESMX 290120Z AUTO 23009KT 9000 RA OVC010/// 04/02 Q1011 RERA=
201601290050 METAR ESMX 290050Z AUTO 22009KT 9999 UP FEW010/// BKN012/// OVC016/// 04/02 Q1011=
201601290020 METAR ESMX 290020Z 23012KT 200V260 9999 OVC013 04/02 Q1011=
201601282350 METAR ESMX 282350Z 24011KT 9999 FEW012 BKN015 04/02 Q1011=
201601282320 METAR ESMX 282320Z 22010KT 9999 BKN013 OVC018 03/02 Q1011=
201601282250 METAR ESMX 282250Z AUTO 23010KT 9999 OVC012/// 03/02 Q1012 REDZ REUP=
201601282220 METAR ESMX 282220Z 23010KT 9999 BKN012 BKN038 03/01 Q1012=
201601282150 METAR ESMX 282150Z 25010KT 220V280 9999 BKN013 OVC034 04/01 Q1012=
201601282120 METAR ESMX 282120Z 25011KT 9999 BKN014 03/01 Q1011=
201601282050 METAR ESMX 282050Z 25010KT 9999 BKN014 OVC018 04/01 Q1011=
201601282020 METAR ESMX 282020Z 24012KT 9999 OVC013 03/01 Q1011=
201601281950 METAR ESMX 281950Z 23011KT 200V260 9999 FEW014 BKN017 BKN020 03/01 Q1011=
201601281920 METAR ESMX 281920Z 25011KT 9999 BKN018 03/01 Q1011=
201601281850 METAR ESMX 281850Z 26014KT 9999 FEW019 SCT022 BKN026 04/00 Q1011=
201601281820 METAR ESMX 281820Z 26012KT 9999 FEW020 BKN024 BKN030 04/00 Q1010=
201601281750 METAR ESMX 281750Z 26013KT 9999 FEW023 BKN039 04/M00 Q1010=
201601281720 METAR ESMX 281720Z 26016KT 9999 BKN037 04/M00 Q1010=
201601281650 METAR ESMX 281650Z 26015KT 9999 SCT036 04/M00 Q1009=
201601281620 METAR ESMX 281620Z 26014KT 9999 FEW027 BKN034 04/M00 Q1009=
201601281550 METAR ESMX 281550Z 26016G26KT 9999 FEW029 BKN035 04/M01 Q1008=
201601281520 METAR ESMX 281520Z 26016G28KT 9999 BKN029 04/M01 Q1008=
201601281450 METAR ESMX 281450Z 27016G29KT 9999 BKN029 05/M01 Q1007=
201601281420 METAR ESMX 281420Z 27019G32KT 240V300 9999 FEW031 SCT035 05/M01 Q1006=
201601281350 METAR ESMX 281350Z 27020G33KT 9999 FEW032 SCT038 05/M01 Q1005=
201601281320 METAR ESMX 281320Z 27018G29KT 9999 SCT032 05/M01 Q1004=
201601281250 METAR ESMX 281250Z 27018G31KT 9999 SCT030 05/M01 Q1003=
201601281220 METAR ESMX 281220Z 27019G35KT 9999 BKN029 05/M01 Q1003=
201601281150 METAR ESMX 281150Z 27018G33KT 230V300 9999 BKN025 05/M00 Q1002=
201601281120 METAR ESMX 281120Z 26019G37KT 9999 BKN022 05/00 Q1001=
201601281050 METAR ESMX 281050Z 26017G31KT 240V300 9999 BKN021 04/01 Q1000=
201601281020 METAR ESMX 281020Z 26018G31KT 9999 FEW018 BKN021 04/01 Q0999=
201601280950 METAR ESMX 280950Z 26020G31KT 9999 -RA FEW017 BKN020 04/01 Q0998=
201601280920 METAR ESMX 280920Z 25018G35KT 9999 FEW015 BKN018 04/01 Q0998=
201601280850 METAR ESMX 280850Z 25015G28KT 9999 FEW012 BKN016 OVC020 04/02 Q0997=
201601280820 METAR ESMX 280820Z 25014G27KT 9999 FEW014 BKN016 04/02 Q0997=
201601280750 METAR ESMX 280750Z 25018G31KT 9999 -RA FEW010 BKN013 04/02 Q0996=
201601280720 METAR ESMX 280720Z 25016G27KT 8000 -RA SCT010 BKN012 04/02 Q0996=
201601280650 METAR ESMX 280650Z 25017G29KT 220V290 8000 -DZ SCT009 BKN011 04/02 Q0996=
201601280620 METAR ESMX 280620Z 24013G23KT 210V270 4000 DZ FEW007 BKN011 04/03 Q0996=
201601280550 METAR ESMX 280550Z 24012KT 210V280 6000 -DZ FEW009 BKN012 OVC017 04/03 Q0996=
201601280520 METAR ESMX 280520Z 24014KT 5000 BR FEW008 OVC010 04/03 Q0995=
201601280450 METAR ESMX 280450Z 25013KT 210V280 5000 BR FEW007 BKN010 OVC014 04/03 Q0995=
201601280420 METAR ESMX 280420Z AUTO 24015G26KT 6000 BR BKN010/// OVC017/// 04/03 Q0995=
201601280350 METAR ESMX 280350Z AUTO 23014G27KT 200V260 9999 OVC010/// 05/03 Q0995=
201601280320 METAR ESMX 280320Z AUTO 25015KT 9999 FEW013/// BKN016/// OVC020/// 05/03 Q0995 REUP=
201601280250 METAR ESMX 280250Z AUTO 24017G30KT 9999 FEW013/// SCT015/// BKN018/// 06/03 Q0994=
201601280220 METAR ESMX 280220Z AUTO 24018G30KT 9999 BR FEW013/// BKN016/// OVC022/// 06/04 Q0994=
201601280150 METAR ESMX 280150Z AUTO 23018G30KT 210V270 9999 FEW017/// BKN022/// OVC031/// 07/05 Q0994 REUP=
201601280120 METAR ESMX 280120Z AUTO 23019G36KT 9999 FEW018/// BKN023/// OVC030/// 08/05 Q0993=
201601280050 METAR ESMX 280050Z 23019G29KT 9999 FEW016 SCT019 BKN021 08/06 Q0993=
201601280020 METAR ESMX 280020Z 22017G29KT 9999 FEW012 SCT018 BKN033 09/07 Q0993=
201601272350 METAR ESMX 272350Z 22018G30KT 9999 DZ FEW006 SCT009 BKN015 09/07 Q0994=
201601272320 METAR ESMX 272320Z 22015KT 5000 DZ SCT005 OVC008 08/08 Q0994=
201601272250 METAR ESMX 272250Z 21016KT 5000 -RA BKN005 OVC009 08/08 Q0994=
201601272220 METAR ESMX 272220Z 20015KT 5000 -DZ OVC005 08/08 Q0994 REDZ=
201601272150 METAR ESMX 272150Z 20016KT 3800 DZ BKN005 OVC008 08/07 Q0995=
201601272120 METAR ESMX 272120Z 20015KT 3600 DZ FEW005 OVC006 08/07 Q0995=
201601272050 METAR ESMX 272050Z 19016KT 9999 DZ FEW005 SCT007 BKN008 08/07 Q0995=
201601272020 METAR ESMX 272020Z 20013KT 3500 +DZ FEW004 BKN006 OVC008 08/07 Q0996=
201601271950 METAR ESMX 271950Z 21014KT 3000 -RA OVC004 08/07 Q0996=
201601271920 METAR ESMX 271920Z 20015KT 4500 DZ FEW005 BKN006 OVC009 08/07 Q0996=
201601271850 METAR ESMX 271850Z 20014KT 3800 DZ FEW005 BKN006 OVC009 08/07 Q0996=
201601271820 METAR ESMX 271820Z 20013KT 6000 -RA BKN005 OVC009 08/07 Q0997=
201601271750 METAR ESMX 271750Z 21014KT 4500 DZ OVC006 08/07 Q0997=
201601271720 METAR ESMX 271720Z 22014KT 6000 -DZ FEW005 OVC007 08/07 Q0997=
201601271650 METAR ESMX 271650Z 22014KT 5000 -DZ BKN005 OVC008 08/07 Q0997=
201601271620 METAR ESMX 271620Z 22013KT 8000 -DZRA FEW006 OVC008 08/07 Q0997=
201601271550 METAR ESMX 271550Z 22013KT 5000 RADZ BKN005 OVC008 08/07 Q0998=
201601271520 METAR ESMX 271520Z 21013KT 170V240 9000 -DZ OVC005 08/07 Q0998=
201601271450 METAR ESMX 271450Z 21010KT 5000 -DZ OVC005 08/07 Q0998=
201601271420 METAR ESMX 271420Z 21012KT 190V250 6000 -DZ OVC006 08/07 Q0998=
201601271350 METAR ESMX 271350Z 22013KT 6000 -DZ FEW005 BKN008 08/07 Q0998=
201601271320 METAR ESMX 271320Z 22012KT 3300 DZ OVC005 08/07 Q0998=
201601271250 METAR ESMX 271250Z 23012KT 2500 DZ BKN004 OVC007 08/07 Q0999=
201601271220 METAR ESMX 271220Z 22011KT 6000 -DZ OVC005 08/07 Q0999=
201601271150 METAR ESMX 271150Z 22011G21KT 4300 BR FEW006 OVC008 08/07 Q0999=
201601271120 METAR ESMX 271120Z 24013G24KT 9999 BKN010 BKN015 08/06 Q0999=
201601271050 METAR ESMX 271050Z 23012KT 9999 BKN014 BKN023 08/06 Q0999=
201601271020 METAR ESMX 271020Z 24014KT 210V290 9999 FEW014 BKN022 08/06 Q1000=
201601270950 METAR ESMX 270950Z 23014G24KT 9999 FEW014 BKN020 08/06 Q1000=
201601270920 METAR ESMX 270920Z 24014G24KT 9999 FEW012 BKN018 08/06 Q0999=
201601270850 METAR ESMX 270850Z 24014KT 9999 FEW010 BKN021 08/06 Q0999=
201601270820 METAR ESMX 270820Z 24012KT 9999 FEW008 BKN011 08/07 Q0999=
201601270750 METAR ESMX 270750Z 23012KT 210V270 9999 FEW006 BKN009 08/06 Q0999=
201601270720 METAR ESMX 270720Z 24012KT 4200 DZ FEW006 BKN011 07/07 Q0999=
201601270650 METAR ESMX 270650Z 24013KT 5000 BR FEW005 BKN010 08/07 Q0998=
201601270620 METAR ESMX 270620Z 24012KT 210V270 2700 DZ OVC005 07/07 Q0998=
201601270550 METAR ESMX 270550Z 24013G24KT 9999 OVC005 07/07 Q0998=
201601270520 METAR ESMX 270520Z 22014KT 6000 BR OVC004 07/06 Q0998=
201601270450 METAR ESMX 270450Z 23014KT 7000 BR FEW003 OVC005 07/06 Q0998 REDZ=
201601270420 METAR ESMX 270420Z AUTO 22013KT 4600 BR OVC004/// 07/06 Q0998 RESHUP REDZ=
201601270350 METAR ESMX 270350Z AUTO 22013KT 180V240 3800 BR OVC004/// 06/06 Q0998=
201601270320 METAR ESMX 270320Z AUTO 20014KT 4600 BR FEW003/// OVC005/// 06/05 Q0998 REDZ=
201601270250 METAR ESMX 270250Z AUTO 21013KT 4200 BR FEW004/// BKN006/// OVC008/// 06/05 Q0998=
201601270220 METAR ESMX 270220Z AUTO 20014KT 3800 -DZ BKN005/// OVC008/// 06/05 Q0999=
201601270150 METAR ESMX 270150Z AUTO 20014KT 5000 -DZ FEW005/// SCT006/// BKN008/// 05/05 Q0999=
201601270120 METAR ESMX 270120Z AUTO 20015KT 4400 -RA FEW005/// SCT007/// BKN008/// 05/05 Q0999 REDZ=
201601270050 METAR ESMX 270050Z 20015KT 4000 DZ FEW006 BKN008 OVC009 05/04 Q1000=
201601270020 METAR ESMX 270020Z 20015KT 5000 -RA FEW005 SCT006 OVC008 05/04 Q1000=
201601262350 METAR ESMX 262350Z 20015KT 4700 -RA FEW005 BKN006 OVC008 05/04 Q1000=
201601262320 METAR ESMX 262320Z 19014KT 5000 -DZ FEW005 BKN006 OVC008 05/04 Q1001=
201601262250 METAR ESMX 262250Z 18014KT 5000 -RA BKN006 OVC008 05/04 Q1002=
201601262220 METAR ESMX 262220Z 18013KT 3700 DZ FEW007 SCT009 BKN012 04/04 Q1002=
201601262150 METAR COR ESMX 262150Z 18012KT 7000 DZ FEW007 SCT010 BKN012 04/04 Q1003=
201601262120 METAR ESMX 262120Z 18012KT 7000 -DZ OVC006 04/03 Q1005=
201601262050 METAR ESMX 262050Z 18010KT 9000 BR FEW007 BKN009 OVC011 04/03 Q1005=
201601262020 METAR ESMX 262020Z 19011KT 9999 FEW005 SCT006 BKN008 04/03 Q1006=
201601261950 METAR ESMX 261950Z 19012KT 9000 BR OVC005 04/03 Q1007=
201601261920 METAR ESMX 261920Z 19012KT 9999 OVC005 03/03 Q1007=
201601261850 METAR ESMX 261850Z 19011KT 9999 OVC006 03/02 Q1008=
201601261820 METAR ESMX 261820Z 20011KT 9999 OVC006 03/02 Q1008=
201601261750 METAR ESMX 261750Z 20011KT 9999 SCT007 BKN012 03/02 Q1009=
201601261720 METAR ESMX 261720Z 20010KT 9999 FEW008 OVC010 03/02 Q1009=
201601261650 METAR ESMX 261650Z 21010KT 9999 FEW007 OVC011 03/02 Q1009=
201601261620 METAR ESMX 261620Z 21009KT 9999 FEW007 BKN008 BKN011 03/02 Q1010=
201601261550 METAR ESMX 261550Z 23010KT 9999 BKN007 03/02 Q1010=
201601261520 METAR ESMX 261520Z 22009KT 9999 FEW009 03/02 Q1010=
201601261450 METAR ESMX 261450Z 21007KT 9999 FEW010 03/02 Q1010=
201601261420 METAR ESMX 261420Z 23007KT 9999 FEW011 SCT014 03/02 Q1010=
201601261350 METAR ESMX 261350Z 25008KT 9999 FEW012 SCT015 04/02 Q1011=
201601261320 METAR ESMX 261320Z 25008KT 9999 BKN012 04/02 Q1011=
201601261250 METAR ESMX 261250Z 25009KT 9999 BKN012 04/02 Q1010=
201601261220 METAR ESMX 261220Z 27011KT 9999 FEW012 BKN014 04/02 Q1010=
201601261150 METAR ESMX 261150Z 27010KT 9999 BKN012 04/02 Q1010=
201601261120 METAR ESMX 261120Z 26010KT 230V290 9999 BKN012 BKN019 04/02 Q1010=
201601261050 METAR ESMX 261050Z 27012KT 240V300 9999 BKN010 04/03 Q1010=
201601261020 METAR ESMX 261020Z 27011KT 9999 FEW009 BKN011 04/03 Q1009=
201601260950 METAR ESMX 260950Z 26014KT 9999 SCT008 BKN011 04/04 Q1008=
201601260920 METAR ESMX 260920Z 26013KT 230V290 9999 FEW009 BKN011 OVC015 05/04 Q1008=
201601260850 METAR ESMX 260850Z 26015KT 230V290 9999 BKN008 OVC013 05/05 Q1008=
201601260820 METAR ESMX 260820Z 25010KT 9999 OVC005 05/05 Q1008=
201601260750 METAR ESMX 260750Z 23010KT 2500 DZ OVC002 05/05 Q1007=
201601260720 METAR ESMX 260720Z 22011KT 1500 -DZ OVC002 05/05 Q1007=
201601260650 METAR ESMX 260650Z 22011KT 2200 -DZ OVC002 05/05 Q1007=
201601260620 METAR ESMX 260620Z 22011KT 0800 R01/1700U R19/P2000N FG VV002 05/05 Q1007=
201601260550 METAR ESMX 260550Z 21011KT 0450 R01/1100N R19/1700U FG VV002 04/04 Q1007=
201601260520 METAR ESMX 260520Z 21012KT 0400 R01/1100N R19/1500N FG VV002 05/05 Q1008=
201601260450 METAR ESMX 260450Z 21011KT 2100 BR OVC002 04/04 Q1008 REDZ=
201601260420 METAR ESMX 260420Z 21012KT 1300 R01/P2000N R19/P2000N DZ OVC002 05/05 Q1009=
201601260350 METAR ESMX 260350Z AUTO 20012KT 0900 R01/P2000N R19/P2000N OVC001/// 05/04 Q1009=
201601260320 METAR ESMX 260320Z AUTO 20013KT 0400 R01/1100N R19/1500U FG VV001 05/05 Q1009=
201601260250 METAR ESMX 260250Z AUTO 19012KT 0500 R01/1400D R19/1600D FG VV002 04/04 Q1010 REUP=
201601260220 METAR ESMX 260220Z AUTO 18012KT 1100 R01/P2000N R19/1900N -RA VV002 05/05 Q1010 REUP=
201601260150 METAR ESMX 260150Z AUTO 20012KT 0350 R01/1000D R19/1500D FG VV002 05/05 Q1011=
201601260120 METAR ESMX 260120Z 19012KT 0550 R01/1500U R19/1400N BCFG VV002 05/05 Q1012=
201601260050 METAR ESMX 260050Z 18011KT 0450 R01/1100D R19/1100U FG VV002 05/05 Q1013=
201601260020 METAR ESMX 260020Z 19010KT 0250 R01/0800N R19/0900N FG VV002 05/05 Q1013=
201601252350 METAR ESMX 252350Z 19008KT 0400 R01/1500U R19/1000N FG VV002 04/04 Q1013=
201601252320 METAR ESMX 252320Z 18006KT 0350 R01/0900D R19/1200N FG VV002 04/03 Q1014=
201601252250 METAR ESMX 252250Z 14004KT 0700 R01/1400D R19/1700N FG VV002 03/03 Q1014=
201601252220 METAR ESMX 252220Z 15004KT 0400 R01/1400U R19/1300U FG VV002 03/03 Q1015=
201601252150 METAR ESMX 252150Z 17005KT 0300 R01/0900N R19/0900N FG VV001 04/04 Q1016=
201601252120 METAR ESMX 252120Z 17005KT 0100 R01/0500N R19/0450N FG VV001 04/04 Q1016=
201601252050 METAR ESMX 252050Z 19005KT 0100 R01/0400N R19/0400N FG VV001 03/03 Q1016=
201601252020 METAR ESMX 252020Z 19006KT 0100 R01/0450N R19/0450N FG VV001 03/03 Q1016=
201601251950 METAR ESMX 251950Z 18006KT 0150 R01/0600N R19/0600N FG VV001 03/03 Q1017=
201601251920 METAR ESMX 251920Z 18005KT 0200 R01/0650N R19/0600N FG VV001 03/03 Q1017=
201601251850 METAR ESMX 251850Z 17005KT 0200 R01/0550N R19/0550N FG VV001 03/03 Q1017=
201601251820 METAR ESMX 251820Z 18005KT 0800 R01/0900N R19/0800N FG VV001 03/03 Q1017=
201601251750 METAR ESMX 251750Z 19006KT 0300 R01/1000N R19/0900N FG VV002 03/03 Q1017=
201601251720 METAR ESMX 251720Z 21006KT 0300 R01/0700N R19/0700N FG VV002 03/03 Q1017=
201601251650 METAR ESMX 251650Z 21004KT 0250 R01/0800N R19/0800N FG VV002 03/03 Q1017=
201601251620 METAR ESMX 251620Z 23006KT 0900 R01/P2000N R19/P2000N FG VV002 03/03 Q1017=
201601251550 METAR ESMX 251550Z 19004KT 150V220 0500 R01/1600D R19/1300N FG VV002 03/03 Q1017=
201601251520 METAR ESMX 251520Z 21005KT 0350 R01/0800N R19/0750N FG VV002 02/02 Q1017=
201601251450 METAR ESMX 251450Z 19003KT 0350 R01/0600N R19/0650N FG VV002 03/03 Q1018=
201601251420 METAR ESMX 251420Z 21004KT 0300 R01/0550N R19/0600N FG VV002 03/02 Q1018=
201601251350 METAR ESMX 251350Z 17004KT 0400 R01/0650N R19/0700N FG VV002 03/03 Q1017=
201601251320 METAR ESMX 251320Z 22004KT 1100 R01/1600D R19/1300N -DZ VV002 02/02 Q1018=
201601251250 METAR ESMX 251250Z 20003KT 0900 R01/1100U R19/1300U DZ VV002 03/03 Q1018=
201601251220 METAR ESMX 251220Z AUTO 22004KT 2100 VV002 02/02 Q1018=
201601251150 METAR ESMX 251150Z VRB03KT 0800 R01/0900U R19/1000N FG VV002 03/02 Q1018=
201601251120 METAR ESMX 251120Z 21003KT 0400 R01/0550N R19/0500N FG VV002 02/02 Q1018=
201601251050 METAR ESMX 251050Z 22005KT 0700 R01/1100D R19/1200U FG VV002 02/02 Q1018=
201601251020 METAR ESMX 251020Z 18003KT 0300 R01/0550N R19/0500N FG VV002 02/02 Q1018=
201601250950 METAR ESMX 250950Z VRB02KT 0350 R01/0600N R19/0600N FG VV002 02/02 Q1018=
201601250920 METAR ESMX 250920Z 22005KT 0600 R01/0750N R19/1000D FG VV002 02/01 Q1018=
201601250850 METAR ESMX 250850Z 21003KT 0700 R01/1300U R19/0900U FG VV002 01/01 Q1018=
201601250820 METAR ESMX 250820Z 22004KT 0400 R01/0800N R19/0600N FG VV002 01/01 Q1018=
201601250750 METAR ESMX 250750Z 24003KT 0400 R01/0800N R19/0800N FG VV002 01/01 Q1018=
201601250720 METAR ESMX 250720Z 22003KT 0450 R01/1000N R19/1300D FG VV002 01/01 Q1018=
201601250650 METAR COR ESMX 250650Z 23004KT 0800 R01/1700N R19/P2000N FG VV002 01/01 Q1017=
201601250620 METAR ESMX 250620Z 18003KT 0300 R01/0900U R19/0900N FG VV002 01/01 Q1017=
201601250550 METAR ESMX 250550Z 00000KT 0200 R01/0650D R19/0600N FG VV001 01/01 Q1017=
201601250520 METAR ESMX 250520Z 00000KT 0150 R01/0600N R19/0550N FG VV001 01/01 Q1017=
201601250450 METAR ESMX 250450Z 00000KT 0150 R01/0550N R19/0550N FG VV001 01/01 Q1017=
201601250420 METAR ESMX 250420Z AUTO 15001KT 0150 R01/0550N R19/0550N FG VV000 01/01 Q1017=
201601250350 METAR ESMX 250350Z AUTO 20003KT 0150 R01/0500N R19/0500N FG VV001 01/01 Q1017=
201601250320 METAR ESMX 250320Z AUTO 00000KT 0150 R01/0550N R19/0600N FG VV000 01/01 Q1017=
201601250250 METAR ESMX 250250Z AUTO 00000KT 0100 R01/0500N R19/0450N FG VV000 01/01 Q1017=
201601250220 METAR ESMX 250220Z AUTO 00000KT 0150 R01/0500N R19/0500N FG VV000 01/01 Q1018=
201601250150 METAR ESMX 250150Z AUTO 00000KT 0150 R01/0550N R19/0500N FG VV000 01/01 Q1018=
201601250120 METAR ESMX 250120Z AUTO 18002KT 0100 R01/0450N R19/0450N FG VV000 01/01 Q1018=
201601250050 METAR ESMX 250050Z AUTO 19003KT 0150 R01/0550N R19/0600N FG VV001 01/01 Q1018=
201601250020 METAR ESMX 250020Z 22003KT 0200 R01/0700N R19/0800N FG VV001 01/01 Q1018=
201601242350 METAR ESMX 242350Z 21005KT 0250 R01/0800N R19/1000D FG VV001 01/01 Q1018=
201601242320 METAR ESMX 242320Z 20005KT 0300 R01/0800N R19/1000N FG VV001 01/01 Q1018=
201601242250 METAR ESMX 242250Z 20005KT 0400 R01/1100N R19/1400N FG VV001 02/01 Q1018=
201601242220 METAR ESMX 242220Z 20006KT 0600 R01/1600D R19/1800D FG VV001 02/01 Q1019=
201601242150 METAR ESMX 242150Z 21006KT 1600 BR OVC001 02/02 Q1019=
201601242120 METAR ESMX 242120Z 22007KT 1200 R01/P2000N R19/P2000N VV002 02/02 Q1019=
201601242050 METAR ESMX 242050Z 21008KT 0400 R01/1100N R19/1300N FG VV001 02/02 Q1019=
201601242020 METAR ESMX 242020Z 21007KT 0250 R01/0800N R19/0900N FG VV001 02/02 Q1020=
201601241950 METAR ESMX 241950Z 20006KT 0250 R01/0800N R19/0800N FG VV001 02/02 Q1020=
201601241920 METAR ESMX 241920Z 20006KT 0250 R01/0800N R19/0800N FG VV001 02/02 Q1020=
201601241850 METAR ESMX 241850Z 20007KT 0300 R01/0900D R19/1100D FG VV002 02/02 Q1020=
201601241820 METAR ESMX 241820Z 20007KT 0550 R01/1400D R19/1500N FG VV002 02/02 Q1021=
201601241750 METAR ESMX 241750Z 22006KT 0300 R01/0900N R19/1300N FG VV002 02/02 Q1021=
201601241720 METAR ESMX 241720Z 22005KT 0250 R01/0900N R19/0900N FG VV002 02/02 Q1021=
201601241650 METAR ESMX 241650Z 22003KT 0200 R01/0700N R19/0800N FG VV002 02/02 Q1022=
201601241620 METAR ESMX 241620Z 23005KT 0300 R01/0900N R19/1000N FG VV002 02/02 Q1022=
201601241550 METAR ESMX 241550Z 23005KT 0250 R01/0800N R19/0750N FG VV002 02/02 Q1022=
201601241520 METAR ESMX 241520Z 25005KT 0300 R01/0700N R19/0800N FG VV002 02/02 Q1022=
201601241450 METAR ESMX 241450Z 23005KT 0300 R01/0600N R19/0750N FG VV002 02/02 Q1022=
201601241420 METAR ESMX 241420Z AUTO 25005KT 0450 R01/0750N R19/0900D FG VV001 02/02 Q1022=
201601241350 METAR ESMX 241350Z AUTO 23004KT 2300 BR OVC001/// 02/01 Q1022=
201601241320 METAR ESMX 241320Z AUTO 24004KT 5000 BR VV002 02/01 Q1022=
201601241250 METAR ESMX 241250Z AUTO 24004KT 3400 BR OVC001/// 01/01 Q1023=
201601241220 METAR ESMX 241220Z AUTO 26003KT 5000 BR OVC001/// 01/01 Q1023=
201601241150 METAR ESMX 241150Z AUTO 26005KT 1900 BR OVC001/// 01/01 Q1023=
201601241120 METAR ESMX 241120Z AUTO 27006KT 1200 R01/1200N R19/1500N BR OVC001/// 01/01 Q1023=
201601241050 METAR ESMX 241050Z AUTO 26008KT 1400 R01/1300N R19/1500D VV002 01/00 Q1024=
201601241020 METAR ESMX 241020Z AUTO 26008KT 230V290 1100 R01/1200N R19/1600U VV002 01/00 Q1023=
201601240950 METAR ESMX 240950Z AUTO 25008KT 0700 R01/0900N R19/1100N FG VV002 01/00 Q1023=
201601240920 METAR ESMX 240920Z AUTO 25007KT 0650 R01/0900U R19/0900N FG VV002 01/00 Q1023=
201601240850 METAR ESMX 240850Z AUTO 23005KT 200V260 0500 R01/0750N R19/0900N FG VV002 01/00 Q1023=
201601240820 METAR ESMX 240820Z AUTO 23006KT 0550 R01/0750N R19/0900N FG VV002 00/00 Q1024=
201601240750 METAR ESMX 240750Z 23005KT 0500 R01/0900N R19/1000N FG VV002 00/00 Q1024=
201601240720 METAR ESMX 240720Z 23006KT 0300 R01/0700N R19/0700N FG VV002 00/00 Q1024=
201601240650 METAR ESMX 240650Z 24005KT 0250 R01/0750N R19/0800N FG VV002 00/00 Q1024=
201601240620 METAR ESMX 240620Z 25005KT 0250 R01/0700N R19/0900N FG VV002 00/00 Q1024=
201601240550 METAR ESMX 240550Z AUTO 25007KT 0250 R01/0800N R19/1000N FG VV001 00/00 Q1024=
201601240520 METAR ESMX 240520Z AUTO 25007KT 0350 R01/1000D R19/1100N FG VV001 00/M00 Q1024=
201601240450 METAR ESMX 240450Z AUTO 25006KT 0450 R01/1200N R19/1300N FG VV001 00/M00 Q1024=
201601240420 METAR ESMX 240420Z AUTO 22005KT 190V250 0500 R01/1300N R19/1400N=
201601240350 METAR ESMX 240350Z AUTO 19004KT 0600 R01/1600N R19/1500N FZFG VV001 M00/M00 Q1024=
201601240320 METAR ESMX 240320Z AUTO 22005KT 0700 R01/1700N R19/1800N FZFG VV002 M00/M01 Q1024=
201601240250 METAR ESMX 240250Z AUTO 22006KT 0800 R01/P2000N R19/P2000N FZFG VV002 M01/M01 Q1024=
201601240220 METAR ESMX 240220Z AUTO 18004KT 0900 R01/P2000N R19/P2000N VV002 M01/M01 Q1024=
201601240150 METAR ESMX 240150Z AUTO 19004KT 160V230 1000 R01/P2000N R19/P2000N OVC001/// M01/M01 Q1024=
201601240120 METAR ESMX 240120Z AUTO 18005KT 1100 R01/P2000N R19/P2000N BR OVC001/// M02/M02 Q1025=
201601240050 METAR ESMX 240050Z AUTO 21004KT 1300 R01/P2000N R19/P2000N BR OVC001/// M02/M02 Q1025=
201601240020 METAR ESMX 240020Z AUTO 21004KT 1200 R01/P2000N R19/P2000N BR OVC001/// M02/M02 Q1025=
201601232350 METAR ESMX 232350Z AUTO 23004KT 1900 BR OVC001/// M02/M02 Q1025=
201601232320 METAR ESMX 232320Z AUTO 22003KT 2500 BR OVC002/// M02/M03 Q1025=
201601232250 METAR ESMX 232250Z AUTO 23004KT 3300 BR OVC002/// M02/M03 Q1025=
201601232220 METAR ESMX 232220Z AUTO 22003KT 190V250 3900 BR OVC003/// M02/M03 Q1025=
201601232150 METAR ESMX 232150Z AUTO 24004KT 4600 BR OVC003/// M02/M03 Q1025=
201601232120 METAR ESMX 232120Z 25005KT 4800 BR OVC003 M02/M03 Q1025=
201601232050 METAR ESMX 232050Z 27004KT 240V310 5000 BR OVC004 M02/M03 Q1025=
201601232020 METAR ESMX 232020Z 25005KT 220V290 6000 BR OVC005 M02/M03 Q1025=
201601231950 METAR ESMX 231950Z 24004KT 5000 BR OVC004 M02/M03 Q1025=
201601231920 METAR ESMX 231920Z 25004KT 5000 BR OVC005 M02/M03 Q1025=
201601231850 METAR ESMX 231850Z 22003KT 4600 BR FEW007 SCT009 BKN013 M02/M03 Q1024=
201601231820 METAR ESMX 231820Z AUTO 21003KT 5000 BR FEW017/// OVC055/// M02/M03 Q1024=
201601231750 METAR ESMX 231750Z AUTO VRB02KT 4700 BR FEW008/// BKN009/// OVC011/// M02/M02 Q1025=
201601231720 METAR ESMX 231720Z AUTO 19003KT 4800 BR FEW009/// BKN011/// OVC034/// M02/M02 Q1024=
201601231650 METAR ESMX 231650Z AUTO 22003KT 4700 BR OVC034/// M02/M03 Q1024=
201601231620 METAR ESMX 231620Z AUTO 20003KT 4400 BR FEW012/// OVC041/// M02/M03 Q1024=
201601231550 METAR ESMX 231550Z AUTO 00000KT 4500 BR FEW005/// OVC007/// M02/M02 Q1024=
201601231520 METAR ESMX 231520Z AUTO 00000KT 5000 BR OVC005/// M02/M02 Q1024=
201601231450 METAR ESMX 231450Z AUTO VRB02KT 6000 BR OVC006/// M02/M03 Q1024=
201601231420 METAR ESMX 231420Z AUTO 00000KT 7000 BR OVC007/// M02/M02 Q1023=
201601231350 METAR ESMX 231350Z AUTO 19003KT 8000 BR FEW008/// BKN012/// M02/M02 Q1023=
201601231320 METAR ESMX 231320Z AUTO 00000KT 8000 BR FEW013/// M02/M02 Q1023=
201601231250 METAR ESMX 231250Z AUTO VRB03KT 8000 BR FEW013/// SCT100/// M02/M02 Q1023=
201601231220 METAR ESMX 231220Z AUTO 15003KT 9000 BR FEW058/// SCT077/// M02/M03 Q1023=
201601231150 METAR ESMX 231150Z AUTO 13003KT 9000 BR SCT077/// BKN090/// M02/M03 Q1023=
201601231120 METAR ESMX 231120Z 17005KT CAVOK M02/M03 Q1023=
201601231050 METAR ESMX 231050Z 16004KT 120V190 9999 FEW044 M02/M03 Q1023=
201601231020 METAR ESMX 231020Z 14003KT 040V170 CAVOK M03/M03 Q1023=
201601230950 METAR ESMX 230950Z 15003KT 110V180 CAVOK M03/M03 Q1023=
201601230920 METAR ESMX 230920Z VRB03KT CAVOK M03/M04 Q1023=
201601230850 METAR ESMX 230850Z AUTO 14003KT 110V180 9999 NCD M03/M04 Q1023=
201601230820 METAR ESMX 230820Z AUTO 15004KT 110V170 9999 FEW100/// M03/M04 Q1023=
201601230750 METAR ESMX 230750Z AUTO 13004KT 100V160 9999 SCT110/// M04/M04 Q1023=
201601230720 METAR ESMX 230720Z AUTO 13004KT 080V160 9999 FEW110/// M04/M05 Q1023=
201601230650 METAR ESMX 230650Z AUTO 13004KT 100V170 9999 BKN097/// M04/M05 Q1023=
201601230620 METAR ESMX 230620Z AUTO 13003KT 100V160 9999 SCT098/// M04/M05 Q1022=
201601230550 METAR ESMX 230550Z AUTO 14004KT 9999 BKN096/// M04/M05 Q1022=
201601230520 METAR ESMX 230520Z AUTO 14004KT 090V180 9999 BKN095/// M04/M05 Q1022=
201601230450 METAR ESMX 230450Z AUTO 14004KT 9999 BKN096/// M05/M05 Q1022=
201601230420 METAR ESMX 230420Z AUTO 13003KT 080V150 9999 BKN100/// M05/M06 Q1023=
201601230350 METAR ESMX 230350Z AUTO 14004KT 9000 BR FEW012/// BKN100/// M05/M06 Q1023=
201601230320 METAR ESMX 230320Z AUTO 15005KT 120V200 9999 OVC096/// M06/M07 Q1023=
201601230250 METAR ESMX 230250Z AUTO 14004KT 110V170 9000 BR BKN095/// BKN100/// M06/M07 Q1023=
201601230220 METAR ESMX 230220Z AUTO 15004KT 120V200 9000 BR BKN096/// M07/M08 Q1023=
201601230150 METAR ESMX 230150Z AUTO 14003KT 100V190 9000 BR FEW012/// OVC098/// M09/M10 Q1024=
201601230120 METAR ESMX 230120Z AUTO VRB02KT 7000 SCT002/// OVC011/// M09/M10 Q1024=
201601230050 METAR ESMX 230050Z AUTO VRB03KT 2100 OVC001/// M09/M10 Q1025=
201601230020 METAR ESMX 230020Z AUTO VRB02KT 5000 BR OVC001/// M13/M15 Q1025=
201601222350 METAR ESMX 222350Z AUTO VRB02KT 8000 BR FEW002/// M13/M15 Q1025=
201601222320 METAR ESMX 222320Z AUTO VRB02KT 5000 BR NCD M13/M15 Q1025=
201601222250 METAR ESMX 222250Z AUTO VRB01KT 6000 BR NCD M12/M14 Q1026=
201601222220 METAR ESMX 222220Z AUTO VRB02KT 4900 BR SCT000/// M11/M13 Q1026=
201601222150 METAR ESMX 222150Z AUTO VRB02KT 5000 BR VV001 M09/M11 Q1026=
201601222120 METAR ESMX 222120Z AUTO 15003KT 110V190 3700 BR OVC001/// M09/M10 Q1026=
201601222050 METAR ESMX 222050Z AUTO 16004KT 1200 R01/P2000N R19/P2000N BR OVC001/// M08/M10 Q1027=
201601222020 METAR ESMX 222020Z 16004KT 1700 BR BKN001 M09/M10 Q1027=
201601221950 METAR ESMX 221950Z 16004KT 8000 BR FEW002 M09/M10 Q1027=
201601221920 METAR ESMX 221920Z 16004KT CAVOK M08/M09 Q1027=
201601221850 METAR ESMX 221850Z 15004KT CAVOK M07/M08 Q1028=
201601221820 METAR ESMX 221820Z 15004KT CAVOK M06/M07 Q1028=
201601221750 METAR ESMX 221750Z 17004KT CAVOK M06/M07 Q1028=
201601221720 METAR ESMX 221720Z 16004KT CAVOK M06/M07 Q1028=
201601221650 METAR ESMX 221650Z 16004KT 9999 BKN003 OVC053 M06/M07 Q1028=
201601221620 METAR ESMX 221620Z 16004KT 9999 SCT003 OVC052 M06/M07 Q1028=
201601221550 METAR ESMX 221550Z 16004KT 120V190 9999 BKN004 OVC053 M06/M07 Q1028=
201601221520 METAR ESMX 221520Z 17004KT 9999 BKN004 M06/M07 Q1029=
201601221450 METAR ESMX 221450Z 17004KT 9999 OVC003 M05/M06 Q1029=
201601221420 METAR ESMX 221420Z 16004KT 9999 OVC003 M05/M06 Q1029=
201601221350 METAR ESMX 221350Z 17004KT 9999 OVC002 M05/M06 Q1029=
201601221320 METAR ESMX 221320Z 16004KT 9999 BKN003 M05/M06 Q1029=
201601221250 METAR ESMX 221250Z 16003KT 120V200 8000 BR BKN003 M05/M06 Q1028=
201601221220 METAR ESMX 221220Z 16003KT 8000 BR BKN003 M05/M06 Q1029=
201601221150 METAR ESMX 221150Z 19003KT 8000 BR OVC001 M05/M06 Q1029=
201601221120 METAR ESMX 221120Z VRB03KT 4400 BR OVC001 M05/M06 Q1029=
201601221050 METAR ESMX 221050Z 18003KT 5000 BR OVC001 M05/M06 Q1029=
201601221020 METAR ESMX 221020Z 21004KT 2000 R01/1400U R19/P2000N BR OVC002 M05/M06 Q1029=
201601220950 METAR ESMX 220950Z VRB03KT 3000 BR VV002 M05/M06 Q1029=
201601220920 METAR ESMX 220920Z 18003KT 1000 R01/1200D R19/P2000N BR OVC002 M05/M06 Q1029=
201601220850 METAR ESMX 220850Z VRB03KT 3700 BR OVC002 M05/M06 Q1029=
201601220820 METAR ESMX 220820Z VRB02KT 6000 BR OVC002 M05/M06 Q1029=
201601220750 METAR ESMX 220750Z 24003KT 6000 BR OVC002 M05/M06 Q1029=
201601220720 METAR ESMX 220720Z VRB02KT 9999 OVC003 M06/M07 Q1029=
201601220650 METAR ESMX 220650Z VRB01KT 9999 OVC004 M07/M08 Q1029=
201601220620 METAR ESMX 220620Z 00000KT 9999 OVC005 M08/M09 Q1028=
201601220550 METAR ESMX 220550Z 00000KT 9999 OVC006 M08/M09 Q1028=
201601220520 METAR COR ESMX 220520Z 00000KT 9999 OVC008 M09/M10 Q1028=
201601220450 METAR ESMX 220450Z 00000KT 9999 OVC009 M08/M10 Q1028=
201601220420 METAR ESMX 220420Z AUTO 00000KT 9999 OVC011/// M09/M10 Q1028=
201601220350 METAR ESMX 220350Z AUTO 00000KT 9000 BR OVC011/// M09/M10 Q1028=
201601220320 METAR ESMX 220320Z AUTO 00000KT 6000 BR OVC011/// M09/M10 Q1028=
201601220250 METAR ESMX 220250Z AUTO 00000KT 7000 BR FEW001/// BKN008/// OVC012/// M09/M10 Q1028=
201601220220 METAR ESMX 220220Z AUTO 00000KT 5000 BR OVC000/// M09/M10 Q1028=
201601220150 METAR ESMX 220150Z AUTO VRB01KT 7000 VV002 M09/M10 Q1028=
201601220120 METAR ESMX 220120Z AUTO 00000KT 7000 BR OVC001/// M09/M10 Q1028=
201601220050 METAR ESMX 220050Z 00000KT 5000 BR VV003 M10/M11 Q1028=
201601220020 METAR COR ESMX 220020Z 00000KT 3000 BR VV003 M10/M11 Q1028=
201601212350 METAR ESMX 212350Z 00000KT 0500 R01/P2000N R19/1300U VV003 M10/M12 Q1027=
201601212320 METAR ESMX 212320Z 00000KT 0450 R01/1400U R19/1200U FZFG VV002 M11/M12 Q1027=
201601212250 METAR ESMX 212250Z VRB01KT 0150 R01/0650N R19/0600N FZFG VV002 M11/M12 Q1027=
201601212220 METAR ESMX 212220Z 01002KT 0150 R01/0650N R19/0500N FZFG VV002 M11/M13 Q1027=
201601212150 METAR ESMX 212150Z 00000KT 0150 R01/1500U R19/0500N FZFG VV002 M10/M12 Q1027=
201601212120 METAR ESMX 212120Z 00000KT 0150 R01/0550N R19/0600N FZFG VV002 M12/M13 Q1027=
201601212050 METAR ESMX 212050Z 00000KT 0150 R01/0600N R19/0750N FZFG VV002 M11/M12 Q1027=
201601212020 METAR ESMX 212020Z VRB01KT 0200 R01/0750N R19/0700N FZFG VV002 M10/M11 Q1027=
201601211950 METAR ESMX 211950Z 28002KT 0150 R01/0500N R19/0600N FZFG VV002 M11/M13 Q1026=
201601211920 METAR ESMX 211920Z VRB02KT 0100 R01/0600N R19/0450N FZFG VV001 M12/M14 Q1026 RESG=
201601211850 METAR COR ESMX 211850Z VRB01KT 0600 FZFG VV003 M15/M17 Q1026=
201601211820 METAR ESMX 211820Z 24002KT CAVOK M15/M16 Q1026=
201601211750 METAR ESMX 211750Z 00000KT CAVOK M15/M17 Q1025=
201601211720 METAR ESMX 211720Z 00000KT CAVOK M14/M16 Q1025=
201601211650 METAR ESMX 211650Z 00000KT CAVOK M12/M13 Q1025=
201601211620 METAR ESMX 211620Z VRB01KT CAVOK M12/M14 Q1024=
201601211550 METAR ESMX 211550Z VRB01KT CAVOK M11/M13 Q1024=
201601211520 METAR ESMX 211520Z 30003KT CAVOK M10/M11 Q1024=
201601211450 METAR ESMX 211450Z 30002KT CAVOK M08/M10 Q1024=
201601211420 METAR ESMX 211420Z 29004KT CAVOK M07/M10 Q1023=
201601211350 METAR ESMX 211350Z 31004KT CAVOK M07/M10 Q1023=
201601211320 METAR ESMX 211320Z 28006KT CAVOK M07/M09 Q1023=
201601211250 METAR ESMX 211250Z 29005KT CAVOK M07/M09 Q1023=
201601211220 METAR ESMX 211220Z 28004KT CAVOK M08/M09 Q1022=
201601211150 METAR ESMX 211150Z 28004KT CAVOK M08/M10 Q1022=
201601211120 METAR ESMX 211120Z VRB01KT CAVOK M09/M11 Q1022=
201601211050 METAR ESMX 211050Z 28004KT CAVOK M10/M11 Q1022=
201601211020 METAR ESMX 211020Z 28003KT CAVOK M09/M10 Q1022=
201601210950 METAR ESMX 210950Z 25001KT CAVOK M12/M13 Q1021=
201601210920 METAR ESMX 210920Z 00000KT CAVOK M12/M14 Q1021=
201601210850 METAR ESMX 210850Z 28002KT CAVOK M13/M15 Q1021=
201601210820 METAR ESMX 210820Z 00000KT CAVOK M16/M18 Q1020=
201601210750 METAR ESMX 210750Z 00000KT CAVOK M17/M19 Q1020=
201601210720 METAR ESMX 210720Z 00000KT CAVOK M16/M18 Q1020=
201601210650 METAR ESMX 210650Z 00000KT CAVOK M17/M19 Q1020=
201601210620 METAR ESMX 210620Z 25003KT CAVOK M15/M17 Q1019=
201601210550 METAR ESMX 210550Z 26003KT CAVOK M14/M16 Q1019=
201601210520 METAR ESMX 210520Z 26004KT CAVOK M16/M17 Q1019=
201601210450 METAR ESMX 210450Z 22002KT CAVOK M15/M16 Q1019=
201601210420 METAR ESMX 210420Z AUTO 18002KT 9999 NCD M14/M16 Q1019=
201601210350 METAR ESMX 210350Z AUTO 25002KT 9999 NCD M13/M15 Q1018=
201601210320 METAR ESMX 210320Z AUTO 25003KT 9999 NCD M16/M17 Q1018=
201601210250 METAR ESMX 210250Z AUTO 26003KT 9999 NCD M14/M15 Q1018=
201601210220 METAR ESMX 210220Z AUTO 26002KT 4800 NCD M14/M15 Q1018=
201601210150 METAR ESMX 210150Z AUTO 27001KT 9999 NCD M12/M14 Q1018=
201601210120 METAR ESMX 210120Z AUTO 32002KT 9999 NCD M12/M14 Q1018=
201601210050 METAR ESMX 210050Z 28003KT 9999 FEW033 M11/M12 Q1017=
201601210020 METAR ESMX 210020Z VRB02KT CAVOK M10/M11 Q1017=
201601202350 METAR ESMX 202350Z 31003KT 9999 BKN031 M09/M10 Q1017=
201601202320 METAR ESMX 202320Z 31004KT 9999 FEW024 BKN030 M09/M10 Q1016=
201601202250 METAR ESMX 202250Z 29007KT 9999 OVC023 M07/M08 Q1016=
201601202220 METAR ESMX 202220Z 31006KT 9999 OVC025 M06/M08 Q1016=
201601202150 METAR ESMX 202150Z 33005KT 9999 OVC025 M07/M08 Q1016=
201601202120 METAR ESMX 202120Z VRB03KT 9999 OVC025 M07/M08 Q1015=
201601202050 METAR ESMX 202050Z 31003KT 9999 OVC026 M08/M09 Q1015=
201601202020 METAR ESMX 202020Z VRB03KT 9999 OVC029 M09/M10 Q1015=
201601201950 METAR ESMX 201950Z 30004KT 9999 FEW032 M10/M11 Q1015=
201601201920 METAR ESMX 201920Z 29005KT 9999 FEW034 M09/M11 Q1014=
201601201850 METAR ESMX 201850Z 30006KT 9999 FEW035 M08/M09 Q1014=
201601201820 METAR ESMX 201820Z 29007KT 9999 SCT032 M08/M09 Q1014=
201601201750 METAR ESMX 201750Z 30006KT 9999 FEW032 M08/M09 Q1013=
201601201720 METAR ESMX 201720Z 30006KT 9999 FEW030 M08/M09 Q1013=
201601201650 METAR ESMX 201650Z 30005KT 9999 FEW029 M08/M09 Q1013=
201601201620 METAR ESMX 201620Z 31005KT 9999 SCT031 M08/M09 Q1013=
201601201550 METAR ESMX 201550Z 30005KT 9999 SCT011 M08/M09 Q1012=
201601201520 METAR ESMX 201520Z 30006KT 9999 SCT011 M07/M08 Q1012=
201601201450 METAR ESMX 201450Z 28005KT 9999 BKN010 M07/M08 Q1012=
201601201420 METAR ESMX 201420Z 30006KT 9999 OVC007 M07/M08 Q1012=
201601201350 METAR ESMX 201350Z 31007KT 9999 BKN005 M07/M08 Q1011=
201601201320 METAR COR ESMX 201320Z 31007KT 9999 OVC005 M07/M08 Q1011=
201601201250 METAR ESMX 201250Z 33007KT 9999 OVC005 M07/M08 Q1011=
201601201220 METAR ESMX 201220Z 32007KT 290V010 9999 OVC005 M08/M09 Q1011=
201601201150 METAR ESMX 201150Z 33008KT 9999 OVC004 M08/M09 Q1011=
201601201120 METAR ESMX 201120Z 36008KT 9999 OVC005 M08/M09 Q1011=
201601201050 METAR ESMX 201050Z 35008KT 9999 OVC005 M08/M09 Q1010=
201601201020 METAR ESMX 201020Z 34008KT 300V010 9999 OVC004 M08/M09 Q1010=
201601200950 METAR ESMX 200950Z 34008KT 9999 OVC004 M08/M09 Q1010=
201601200920 METAR ESMX 200920Z 32007KT 9999 OVC004 M07/M09 Q1010=
201601200850 METAR ESMX 200850Z 31006KT 9999 OVC004 M08/M09 Q1009=
201601200820 METAR ESMX 200820Z 30007KT 9999 OVC004 M08/M09 Q1009=
201601200750 METAR ESMX 200750Z 32007KT 290V350 9999 OVC005 M08/M09 Q1009=
201601200720 METAR ESMX 200720Z 33006KT 9999 OVC005 M07/M09 Q1009=
201601200650 METAR ESMX 200650Z 32006KT 9999 OVC006 M07/M08 Q1009=
201601200620 METAR ESMX 200620Z 34006KT 9999 OVC007 M07/M08 Q1008=
201601200550 METAR ESMX 200550Z 34006KT 300V010 9999 OVC007 M07/M08 Q1008=
201601200520 METAR ESMX 200520Z 31004KT 9999 OVC006 M07/M08 Q1008=
201601200450 METAR ESMX 200450Z 34003KT 9999 OVC005 M08/M09 Q1008=
201601200420 METAR ESMX 200420Z AUTO 36003KT 9999 OVC005/// M08/M09 Q1008=
201601200350 METAR ESMX 200350Z AUTO 36004KT 9999 BKN004/// OVC007/// M08/M09 Q1008=
201601200320 METAR ESMX 200320Z AUTO 01005KT 9999 OVC002/// M08/M09 Q1008=
201601200250 METAR ESMX 200250Z AUTO 35007KT 9999 OVC002/// M09/M09 Q1008=
201601200220 METAR ESMX 200220Z AUTO 31007KT 9999 OVC003/// M09/M10 Q1008=
201601200150 METAR ESMX 200150Z AUTO 31008KT 9999 OVC004/// M08/M09 Q1007=
201601200120 METAR ESMX 200120Z AUTO 33005KT 9999 BKN006/// M07/M09 Q1007=
201601200050 METAR ESMX 200050Z 35006KT 9999 OVC006 M07/M08 Q1007=
201601200020 METAR ESMX 200020Z 34007KT 9999 OVC007 M06/M08 Q1007=
201601192350 METAR ESMX 192350Z 33008KT 9999 OVC006 M06/M07 Q1007=
201601192320 METAR ESMX 192320Z 34006KT 9999 OVC007 M06/M07 Q1007=
201601192250 METAR ESMX 192250Z 33007KT 9999 OVC007 M06/M07 Q1007=
201601192220 METAR ESMX 192220Z 34007KT 9999 OVC007 M05/M07 Q1007=
201601192150 METAR ESMX 192150Z 36009KT 9999 OVC008 M05/M07 Q1006=
201601192120 METAR ESMX 192120Z 01008KT 9999 OVC008 M05/M07 Q1006=
201601192050 METAR ESMX 192050Z 35008KT 9999 OVC011 M04/M07 Q1006=
201601192020 METAR ESMX 192020Z 01008KT 9999 BKN011 M04/M06 Q1006=
201601191950 METAR ESMX 191950Z 02006KT 9999 OVC012 M04/M06 Q1006=
201601191920 METAR ESMX 191920Z 02007KT 9999 FEW014 OVC017 M04/M06 Q1005=
201601191850 METAR ESMX 191850Z 01008KT 9999 OVC019 M03/M05 Q1005=
201601191820 METAR ESMX 191820Z 35007KT 9999 FEW010 OVC020 M03/M04 Q1005=
201601191750 METAR ESMX 191750Z 34006KT 9999 FEW011 SCT016 BKN021 M03/M04 Q1005=
201601191720 METAR ESMX 191720Z 36004KT 9999 FEW012 BKN022 M03/M05 Q1005=
201601191650 METAR ESMX 191650Z 02008KT 9999 -SN FEW006 SCT018 BKN023 M03/M04 Q1005=
201601191620 METAR ESMX 191620Z 36005KT 9999 -SN FEW008 BKN012 OVC021 M03/M04 Q1004=
201601191550 METAR ESMX 191550Z 36003KT 8000 BR FEW012 BKN020 M04/M04 Q1004=
201601191520 METAR ESMX 191520Z 02003KT 7000 BR FEW010 OVC022 M04/M04 Q1004=
201601191450 METAR ESMX 191450Z 36004KT 8000 BR FEW009 BKN025 M04/M04 Q1004=
201601191420 METAR ESMX 191420Z 04003KT 9000 -SN SCT022 BKN028 M03/M03 Q1004=
201601191350 METAR ESMX 191350Z 05003KT 6000 -SN BKN021 M02/M03 Q1004=
201601191320 METAR ESMX 191320Z 06003KT 3500 -SN FEW005 BKN013 M02/M03 Q1004=
201601191250 METAR ESMX 191250Z 07003KT 3500 -SN FEW006 BKN012 M02/M03 Q1004=
201601191220 METAR ESMX 191220Z VRB02KT 3000 -SN FEW005 BKN012 M02/M03 Q1004=
201601191150 METAR ESMX 191150Z VRB01KT 0450 R01/0900N R19/0700U SN VV003 M02/M03 Q1004=
201601191120 METAR ESMX 191120Z 17004KT 110V210 1000 R01/P2000N R19/1500D SN VV003 M02/M03 Q1004=
201601191050 METAR ESMX 191050Z 17004KT 150V210 2000 -SN BKN006 M02/M04 Q1004=
201601191020 METAR ESMX 191020Z 19005KT 140V210 1900 SN VV006 M02/M03 Q1005=
201601190950 METAR ESMX 190950Z 17005KT 1000 R01/1200D R19/1600U SN VV007 M02/M03 Q1005=
201601190920 METAR ESMX 190920Z 18005KT 0800 R01/1300D R19/1200D SN VV004 M02/M03 Q1005=
201601190850 METAR ESMX 190850Z 17007KT 1400 R01/1600U R19/1800D SN VV004 M02/M03 Q1005=
201601190820 METAR ESMX 190820Z 16006KT 2600 SN VV008 M02/M04 Q1006=
201601190750 METAR ESMX 190750Z 17009KT 2700 SN VV003 M02/M04 Q1006=
201601190720 METAR ESMX 190720Z 15008KT 1000 R01/P2000N R19/P2000D SN VV002 M02/M03 Q1006=
201601190650 METAR ESMX 190650Z 16008KT 1100 R01/P2000N R19/P2000N SN VV002 M02/M03 Q1006=
201601190620 METAR ESMX 190620Z 18009KT 1500 SN VV002 M02/M03 Q1007=
201601190550 METAR ESMX 190550Z 20008KT 1500 R01/P2000N R19/P2000N +SN VV002 M02/M03 Q1007=
201601190520 METAR ESMX 190520Z 20009KT 170V230 2200 +SN SCT006 M01/M02 Q1008=
201601190450 METAR ESMX 190450Z 19007KT 2200 +SN FEW005 SCT010 M01/M02 Q1008=
201601190420 METAR ESMX 190420Z 19004KT 7000 SN SCT010 M01/M02 Q1008=
201601190350 METAR ESMX 190350Z 21004KT 5000 SN FEW009 BKN012 BKN019 M01/M01 Q1008=
201601190320 METAR ESMX 190320Z 22004KT 6000 SGSN FEW008 SCT013 M01/M01 Q1008=
201601190250 METAR ESMX 190250Z 22006KT 9000 SN FEW005 SCT012 BKN027 M01/M01 Q1009=
201601190220 METAR ESMX 190220Z 22005KT 4300 SN FEW005 SCT008 BKN015 M01/M01 Q1009=
201601190150 METAR ESMX 190150Z 22006KT 4400 SN FEW005 BKN011 M01/M01 Q1009=
201601190120 METAR ESMX 190120Z 20005KT 2500 -SN SCT004 BKN007 M01/M01 Q1009=
201601190050 METAR ESMX 190050Z 20005KT 2500 SN OVC003 M01/M01 Q1010=
201601190020 METAR ESMX 190020Z 21005KT 6000 SN BKN004 OVC008 M01/M01 Q1010=
201601182350 METAR ESMX 182350Z 23005KT 3300 -SN OVC005 M01/M01 Q1010=
201601182320 METAR ESMX 182320Z 22005KT 9999 BKN004 OVC006 M01/M02 Q1010=
201601182250 METAR ESMX 182250Z 22003KT 9000 BR BKN004 M02/M02 Q1011=
201601182220 METAR ESMX 182220Z 20003KT 9999 OVC005 M02/M02 Q1011=
201601182150 METAR ESMX 182150Z 20003KT 9999 BKN005 M02/M02 Q1011=
201601182120 METAR ESMX 182120Z 19005KT 9999 FEW005 BKN012 BKN018 M02/M02 Q1011=
201601182050 METAR ESMX 182050Z 20004KT 2500 SN SCT005 BKN009 M02/M02 Q1011=
201601182020 METAR ESMX 182020Z 22004KT 9999 SCT004 BKN009 M02/M03 Q1011=
201601181950 METAR ESMX 181950Z 21004KT 6000 SG SCT005 BKN009 M02/M03 Q1011=
201601181920 METAR ESMX 181920Z 20004KT 2100 SN BKN006 M02/M03 Q1012=
201601181850 METAR ESMX 181850Z 17004KT 2600 SN SCT004 BKN015 BKN026 M03/M03 Q1012=
201601181820 METAR ESMX 181820Z 20004KT 9000 SG BKN004 M03/M04 Q1012=
201601181750 METAR ESMX 181750Z 20004KT 9999 BKN005 BKN010 M03/M03 Q1012=
201601181720 METAR ESMX 181720Z 21004KT 9999 BKN003 BKN007 M03/M03 Q1012=
201601181650 METAR ESMX 181650Z 22005KT 9999 OVC003 M03/M03 Q1012=
201601181620 METAR ESMX 181620Z 21005KT 9999 BKN003 M03/M04 Q1012=
201601181550 METAR ESMX 181550Z 20005KT 9999 OVC004 M03/M03 Q1013=
201601181520 METAR ESMX 181520Z 21004KT 8000 BR OVC002 M03/M03 Q1013=
201601181450 METAR ESMX 181450Z 20005KT 7000 BR OVC003 M03/M03 Q1013=
201601181420 METAR ESMX 181420Z 21006KT 9999 OVC002 M03/M03 Q1013=
201601181350 METAR ESMX 181350Z 23006KT 6000 BR OVC002 M03/M03 Q1013=
201601181320 METAR ESMX 181320Z 22006KT 7000 BR OVC002 M03/M04 Q1013=
201601181250 METAR ESMX 181250Z 24005KT 210V270 9000 BR OVC002 M03/M04 Q1013=
201601181220 METAR ESMX 181220Z 22006KT 9000 BR BKN002 OVC003 M03/M04 Q1014=
201601181150 METAR ESMX 181150Z 23005KT 8000 BR BKN002 OVC003 M04/M05 Q1014=
201601181120 METAR ESMX 181120Z 20006KT 3800 BR OVC002 M04/M05 Q1014=
201601181050 METAR ESMX 181050Z 23006KT 5000 BR OVC002 M05/M06 Q1014=
201601181020 METAR ESMX 181020Z 23006KT 2200 BR OVC002 M06/M06 Q1015=
201601180950 METAR ESMX 180950Z 23005KT 1500 BR OVC002 M07/M08 Q1015=
201601180920 METAR COR ESMX 180920Z 23006KT 5000 BR OVC002 M08/M09 Q1015=
201601180850 METAR ESMX 180850Z 22006KT 5000 BR FEW001 BKN002 OVC003 M09/M10 Q1015=
201601180820 METAR ESMX 180820Z 21006KT 9999 BKN002 M10/M11 Q1016=
201601180750 METAR ESMX 180750Z 22005KT CAVOK M12/M13 Q1016=
201601180720 METAR ESMX 180720Z 20004KT CAVOK M12/M13 Q1016=
201601180650 METAR ESMX 180650Z 20003KT CAVOK M12/M14 Q1016=
201601180620 METAR ESMX 180620Z 22003KT CAVOK M12/M14 Q1016=
201601180550 METAR ESMX 180550Z 22004KT 9999 FEW003 M13/M15 Q1016=
201601180520 METAR ESMX 180520Z 22003KT 9999 FEW003 M13/M15 Q1016=
201601180450 METAR ESMX 180450Z 19003KT CAVOK M15/M16 Q1016=
201601180420 METAR ESMX 180420Z AUTO 16002KT 9999 BKN000/// M14/M16 Q1017=
201601180350 METAR ESMX 180350Z AUTO VRB02KT 9999 VV001 M14/M16 Q1017=
201601180320 METAR ESMX 180320Z AUTO 23003KT 9999 -SN VV001 M14/M15 Q1017 RESN=
201601180250 METAR ESMX 180250Z AUTO 22004KT 9999 VV001 M16/M18 Q1017=
201601180220 METAR ESMX 180220Z AUTO 22003KT 9999 VV001 M17/M19 Q1018 RESN=
201601180150 METAR ESMX 180150Z AUTO 14002KT 0350 R01/P2000N R19/1000N VV000 M17/M18 Q1018=
201601180120 METAR ESMX 180120Z AUTO 17002KT 0550 R01/P2000N R19/1400N VV000 M16/M18 Q1018 RESN=
201601180050 METAR ESMX 180050Z AUTO 20002KT 0200 R01/P2000N R19/0600N VV000 M16/M18 Q1018=
201601180020 METAR COR ESMX 180020Z 20003KT CAVOK M16/M18 Q1018=
201601172350 METAR ESMX 172350Z 14001KT CAVOK M16/M18 Q1019=
201601172320 METAR ESMX 172320Z 17002KT 8000 IC NSC M16/M18 Q1019=
201601172250 METAR ESMX 172250Z 24002KT 8000 IC NSC M15/M17 Q1019=
201601172220 METAR ESMX 172220Z 25003KT 8000 IC NSC M15/M17 Q1019=
201601172150 METAR ESMX 172150Z 26003KT 8000 IC NSC M15/M16 Q1019=
201601172120 METAR ESMX 172120Z 25004KT 8000 IC NSC M16/M18 Q1019=
201601172050 METAR ESMX 172050Z 25004KT 8000 IC NSC M15/M16 Q1020=
201601172020 METAR ESMX 172020Z 22003KT 8000 IC NSC M15/M16 Q1019=
201601171950 METAR COR ESMX 171950Z 23004KT 9000 IC M14/M16 Q1019=
201601171920 METAR ESMX 171920Z 26002KT CAVOK M15/M16 Q1019=
201601171850 METAR ESMX 171850Z 26003KT CAVOK M14/M15 Q1019=
201601171820 METAR ESMX 171820Z 28004KT CAVOK M15/M16 Q1020=
201601171750 METAR ESMX 171750Z 26004KT CAVOK M15/M17 Q1020=
201601171720 METAR ESMX 171720Z 23002KT CAVOK M14/M15 Q1020=
201601171650 METAR ESMX 171650Z 26002KT CAVOK M15/M17 Q1020=
201601171620 METAR ESMX 171620Z 27003KT CAVOK M13/M14 Q1020=
201601171550 METAR ESMX 171550Z 27002KT CAVOK M13/M14 Q1020=
201601171520 METAR ESMX 171520Z 26003KT CAVOK M13/M14 Q1020=
201601171450 METAR ESMX 171450Z 27003KT CAVOK M11/M13 Q1020=
201601171420 METAR ESMX 171420Z 24002KT CAVOK M10/M13 Q1020=
201601171350 METAR ESMX 171350Z AUTO 27004KT 9999 NCD M10/M13 Q1020=
201601171320 METAR ESMX 171320Z AUTO 28004KT 9999 NCD M10/M13 Q1020=
201601171250 METAR ESMX 171250Z AUTO 30005KT 9999 NCD M11/M13 Q1020=
201601171220 METAR ESMX 171220Z AUTO 29005KT 9999 NCD M11/M13 Q1020=
201601171150 METAR ESMX 171150Z AUTO 28004KT 260V330 9999 NCD M11/M13 Q1020=
201601171120 METAR ESMX 171120Z 28003KT 250V320 CAVOK M12/M13 Q1020=
201601171050 METAR ESMX 171050Z 31004KT CAVOK M12/M14 Q1020=
201601171020 METAR ESMX 171020Z 31004KT CAVOK M12/M14 Q1020=
201601170950 METAR ESMX 170950Z 28004KT CAVOK M13/M15 Q1020=
201601170920 METAR ESMX 170920Z 27003KT CAVOK M13/M15 Q1020=
201601170850 METAR ESMX 170850Z 26003KT CAVOK M15/M17 Q1019=
201601170820 METAR ESMX 170820Z 29002KT CAVOK M17/M19 Q1019=
201601170750 METAR ESMX 170750Z 19003KT CAVOK M16/M18 Q1019=
201601170720 METAR ESMX 170720Z 23003KT CAVOK M15/M17 Q1019=
201601170650 METAR ESMX 170650Z VRB02KT CAVOK M15/M16 Q1019=
201601170620 METAR ESMX 170620Z VRB02KT CAVOK M16/M17 Q1019=
201601170550 METAR ESMX 170550Z 00000KT CAVOK M16/M18 Q1019=
201601170520 METAR ESMX 170520Z AUTO VRB02KT 9999 NCD M16/M18 Q1019=
201601170450 METAR ESMX 170450Z AUTO 00000KT 9999 NCD M14/M16 Q1019=
201601170420 METAR ESMX 170420Z AUTO 00000KT 9999 NCD M14/M16 Q1019=
201601170350 METAR ESMX 170350Z AUTO 00000KT 9999 NCD M16/M19 Q1019=
201601170320 METAR ESMX 170320Z AUTO VRB02KT 9999 NCD M16/M18 Q1019=
201601170250 METAR ESMX 170250Z AUTO VRB02KT 9999 NCD M16/M17 Q1019=
201601170220 METAR ESMX 170220Z AUTO 32002KT 9999 NCD M16/M18 Q1019=
201601170150 METAR ESMX 170150Z AUTO 29002KT 9999 NCD M14/M15 Q1019=
201601170120 METAR ESMX 170120Z AUTO 31003KT 9999 NCD M15/M17 Q1019=
201601170050 METAR ESMX 170050Z AUTO 30003KT 9999 NCD M15/M17 Q1019=
201601170020 METAR ESMX 170020Z AUTO 00000KT 9999 NCD M14/M16 Q1019=
201601162350 METAR ESMX 162350Z AUTO 00000KT 9999 NCD M14/M16 Q1019=
201601162320 METAR ESMX 162320Z AUTO 28002KT 9999 NCD M13/M14 Q1019=
201601162250 METAR ESMX 162250Z AUTO 24002KT 9999 NCD M13/M15 Q1019=
201601162220 METAR ESMX 162220Z AUTO 29002KT 9999 FEW080/// M12/M13 Q1018=
201601162150 METAR ESMX 162150Z AUTO 00000KT 9999 NCD M12/M13 Q1018=
201601162120 METAR ESMX 162120Z 31002KT 9999 FEW030 BKN050 M11/M12 Q1018=
201601162050 METAR ESMX 162050Z 02003KT 9999 SCT040 BKN065 M09/M10 Q1018=
201601162020 METAR ESMX 162020Z 02005KT 9999 SCT040 BKN065 M08/M10 Q1018=
201601161950 METAR ESMX 161950Z 02005KT 9999 FEW040 BKN065 M08/M09 Q1018=
201601161920 METAR ESMX 161920Z 01007KT 9999 SCT038 BKN070 M07/M09 Q1018=
201601161850 METAR ESMX 161850Z 01005KT 9999 SCT040 BKN070 M07/M09 Q1018=
201601161820 METAR ESMX 161820Z 02004KT 9999 SCT040 BKN070 M07/M08 Q1018=
201601161750 METAR ESMX 161750Z AUTO 36006KT 9999 FEW040/// M07/M08 Q1018=
201601161720 METAR ESMX 161720Z AUTO 01004KT 9999 SCT065/// M09/M10 Q1018=
201601161650 METAR ESMX 161650Z AUTO 00000KT 9999 NCD M09/M10 Q1018=
201601161620 METAR ESMX 161620Z AUTO 00000KT 9999 NCD M08/M10 Q1017=
201601161550 METAR ESMX 161550Z AUTO 00000KT 9999 NCD M08/M09 Q1017=
201601161520 METAR ESMX 161520Z AUTO VRB02KT 9999 FEW040/// M07/M09 Q1017=
201601161450 METAR ESMX 161450Z AUTO 28003KT 9999 NCD M07/M09 Q1017=
201601161420 METAR ESMX 161420Z AUTO 25004KT 9999 FEW038/// M07/M09 Q1017=
201601161350 METAR ESMX 161350Z AUTO 26003KT 9999 OVC051/// M06/M09 Q1017=
201601161320 METAR ESMX 161320Z AUTO 25003KT 9999 OVC048/// M06/M09 Q1017=
201601161250 METAR ESMX 161250Z AUTO 00000KT 9999 BKN047/// M06/M09 Q1017=
201601161220 METAR ESMX 161220Z AUTO 00000KT 9999 OVC050/// M07/M09 Q1017=
201601161150 METAR ESMX 161150Z AUTO 00000KT 9999 OVC050/// M07/M09 Q1017=
201601161120 METAR ESMX 161120Z AUTO VRB02KT 9999 FEW059/// M07/M09 Q1017=
201601161050 METAR ESMX 161050Z 03003KT CAVOK M09/M10 Q1017=
201601161020 METAR ESMX 161020Z 01003KT CAVOK M10/M11 Q1017=
201601160950 METAR ESMX 160950Z VRB01KT CAVOK M10/M12 Q1017=
201601160920 METAR ESMX 160920Z 21002KT CAVOK M12/M14 Q1017=
201601160850 METAR ESMX 160850Z AUTO 00000KT 9999 NCD M14/M16 Q1017=
201601160820 METAR ESMX 160820Z AUTO 00000KT 9999 FEW095/// M13/M15 Q1017=
201601160750 METAR ESMX 160750Z AUTO 00000KT 9999 BKN095/// M13/M15 Q1017=
201601160720 METAR ESMX 160720Z AUTO 35001KT 9999 SCT096/// M14/M15 Q1017=
201601160650 METAR ESMX 160650Z AUTO 17002KT 9999 FEW067/// BKN096/// M14/M15 Q1016=
201601160620 METAR ESMX 160620Z AUTO 00000KT 9999 SCT089/// M14/M16 Q1016=
201601160550 METAR ESMX 160550Z AUTO 00000KT 9999 BKN089/// M14/M16 Q1016=
201601160520 METAR ESMX 160520Z AUTO VRB01KT 9999 FEW081/// BKN094/// M14/M16 Q1016=
201601160450 METAR ESMX 160450Z AUTO 00000KT 9999 FEW080/// BKN095/// M15/M17 Q1017=
201601160420 METAR ESMX 160420Z AUTO 00000KT 9999 BKN094/// M16/M18 Q1016=
201601160350 METAR ESMX 160350Z AUTO 00000KT 9999 BKN092/// M15/M17 Q1016=
201601160320 METAR ESMX 160320Z AUTO 00000KT 9999 BKN094/// M17/M19 Q1016=
201601160250 METAR ESMX 160250Z AUTO VRB01KT 9999 NCD M17/M19 Q1016=
201601160220 METAR ESMX 160220Z AUTO 00000KT 9999 NCD M17/M19 Q1016=
201601160150 METAR ESMX 160150Z AUTO 00000KT 9999 NCD M17/M19 Q1016=
201601160120 METAR ESMX 160120Z AUTO 00000KT 9999 NCD M16/M18 Q1016=
201601160050 METAR ESMX 160050Z AUTO 00000KT 9999 NCD M16/M17 Q1016=
201601160020 METAR ESMX 160020Z AUTO 04003KT 9999 NCD M16/M18 Q1016=
201601152350 METAR ESMX 152350Z AUTO VRB03KT 9999 NCD M15/M16 Q1016=
201601152320 METAR ESMX 152320Z AUTO 36002KT 9999 NCD M16/M18 Q1016=
201601152250 METAR ESMX 152250Z AUTO 36002KT 9999 NCD M17/M19 Q1015=
201601152220 METAR ESMX 152220Z AUTO 36002KT 9999 NCD M17/M19 Q1015=
201601152150 METAR ESMX 152150Z AUTO VRB02KT 9999 NCD M16/M18 Q1015=
201601152120 METAR ESMX 152120Z AUTO 00000KT 9999 NCD M16/M18 Q1015=
201601152050 METAR ESMX 152050Z AUTO 17001KT 9999 NCD M16/M17 Q1015=
201601152020 METAR ESMX 152020Z 17001KT CAVOK M15/M16 Q1015=
201601151950 METAR ESMX 151950Z 34002KT CAVOK M15/M17 Q1014=
201601151920 METAR ESMX 151920Z 00000KT CAVOK M15/M17 Q1014=
201601151850 METAR ESMX 151850Z 01002KT CAVOK M15/M16 Q1014=
201601151820 METAR ESMX 151820Z 35003KT CAVOK M15/M17 Q1014=
201601151750 METAR ESMX 151750Z VRB02KT CAVOK M15/M17 Q1014=
201601151720 METAR ESMX 151720Z 00000KT CAVOK M14/M15 Q1014=
201601151650 METAR ESMX 151650Z 01001KT CAVOK M14/M15 Q1013=
201601151620 METAR ESMX 151620Z 00000KT CAVOK M14/M15 Q1013=
201601151550 METAR ESMX 151550Z 00000KT CAVOK M13/M15 Q1013=
201601151520 METAR ESMX 151520Z 35002KT CAVOK M11/M13 Q1013=
201601151450 METAR ESMX 151450Z 33002KT CAVOK M10/M13 Q1013=
201601151420 METAR ESMX 151420Z 33003KT CAVOK M09/M13 Q1012=
201601151350 METAR ESMX 151350Z 36003KT CAVOK M09/M13 Q1012=
201601151320 METAR ESMX 151320Z 36003KT CAVOK M09/M13 Q1012=
201601151250 METAR ESMX 151250Z 35004KT CAVOK M09/M13 Q1012=
201601151220 METAR ESMX 151220Z 36005KT CAVOK M10/M13 Q1012=
201601151150 METAR ESMX 151150Z 35004KT CAVOK M10/M13 Q1012=
201601151120 METAR ESMX 151120Z 35004KT CAVOK M11/M14 Q1011=
201601151050 METAR ESMX 151050Z 35004KT CAVOK M12/M14 Q1011=
201601151020 METAR COR ESMX 151020Z 36005KT CAVOK M12/M15 Q1012=
201601150950 METAR ESMX 150950Z 01005KT CAVOK M13/M16 Q1012=
201601150920 METAR ESMX 150920Z 01005KT CAVOK M14/M16 Q1011=
201601150850 METAR ESMX 150850Z 01004KT CAVOK M14/M16 Q1011=
201601150820 METAR ESMX 150820Z 02005KT CAVOK M14/M16 Q1011=
201601150750 METAR ESMX 150750Z 02004KT CAVOK M15/M17 Q1011=
201601150720 METAR ESMX 150720Z 02005KT CAVOK M15/M16 Q1011=
201601150650 METAR ESMX 150650Z 02004KT CAVOK M15/M17 Q1010=
201601150620 METAR ESMX 150620Z 01004KT CAVOK M16/M17 Q1010=
201601150550 METAR ESMX 150550Z 01003KT CAVOK M15/M17 Q1010=
201601150520 METAR ESMX 150520Z 03004KT CAVOK M14/M17 Q1010=
201601150450 METAR ESMX 150450Z 03003KT CAVOK M14/M16 Q1010=
201601150420 METAR ESMX 150420Z AUTO 02004KT 9999 NCD M14/M16 Q1010=
201601150350 METAR ESMX 150350Z AUTO 01006KT 9999 NCD M13/M16 Q1009=
201601150320 METAR ESMX 150320Z AUTO 02005KT 9999 NCD M13/M16 Q1009=
201601150250 METAR ESMX 150250Z AUTO 04004KT 9999 NCD M13/M15 Q1009=
201601150220 METAR ESMX 150220Z AUTO 04005KT 9999 NCD M13/M15 Q1009=
201601150150 METAR ESMX 150150Z AUTO 03005KT 9999 NCD M12/M15 Q1009=
201601150120 METAR ESMX 150120Z AUTO 04005KT 9999 NCD M12/M14 Q1009=
201601150050 METAR ESMX 150050Z 04004KT CAVOK M12/M14 Q1009=
201601150020 METAR ESMX 150020Z 06003KT 010V080 CAVOK M12/M14 Q1009=
201601142350 METAR ESMX 142350Z 02003KT CAVOK M11/M14 Q1009=
201601142320 METAR ESMX 142320Z 06003KT CAVOK M11/M14 Q1009=
201601142250 METAR ESMX 142250Z 04004KT CAVOK M10/M14 Q1009=
201601142220 METAR ESMX 142220Z 05004KT CAVOK M10/M13 Q1009=
201601142150 METAR ESMX 142150Z 05004KT CAVOK M09/M13 Q1009=
201601142120 METAR ESMX 142120Z 05004KT 030V090 CAVOK M09/M13 Q1009=
201601142050 METAR ESMX 142050Z 03004KT CAVOK M09/M12 Q1009=
201601142020 METAR ESMX 142020Z 02003KT CAVOK M09/M13 Q1009=
201601141950 METAR ESMX 141950Z 02004KT CAVOK M09/M13 Q1008=
201601141920 METAR ESMX 141920Z 05004KT 020V090 CAVOK M08/M12 Q1008=
201601141850 METAR ESMX 141850Z 04005KT CAVOK M08/M13 Q1008=
201601141820 METAR ESMX 141820Z 04004KT CAVOK M08/M13 Q1008=
201601141750 METAR ESMX 141750Z 04005KT CAVOK M08/M13 Q1008=
201601141720 METAR ESMX 141720Z 04005KT CAVOK M08/M13 Q1008=
201601141650 METAR ESMX 141650Z 02005KT CAVOK M08/M13 Q1008=
201601141620 METAR ESMX 141620Z 04005KT CAVOK M08/M12 Q1008=
201601141550 METAR ESMX 141550Z 04003KT CAVOK M09/M11 Q1008=
201601141520 METAR ESMX 141520Z VRB02KT CAVOK M11/M12 Q1008=
201601141450 METAR ESMX 141450Z VRB01KT CAVOK M11/M12 Q1008=
201601141420 METAR ESMX 141420Z VRB02KT CAVOK M11/M12 Q1008=
201601141350 METAR ESMX 141350Z VRB02KT CAVOK M09/M11 Q1008=
201601141320 METAR ESMX 141320Z 36003KT CAVOK M08/M11 Q1008=
201601141250 METAR ESMX 141250Z 36003KT CAVOK M09/M11 Q1008=
201601141220 METAR ESMX 141220Z 01005KT CAVOK M08/M11 Q1008=
201601141150 METAR ESMX 141150Z VRB02KT CAVOK M08/M11 Q1008=
201601141120 METAR ESMX 141120Z 36003KT CAVOK M09/M11 Q1008=
201601141050 METAR ESMX 141050Z 01002KT CAVOK M09/M11 Q1008=
201601141020 METAR ESMX 141020Z 36004KT CAVOK M09/M11 Q1009=
201601140950 METAR ESMX 140950Z 00000KT CAVOK M10/M11 Q1009=
201601140920 METAR ESMX 140920Z 00000KT CAVOK M10/M12 Q1008=
201601140850 METAR ESMX 140850Z 00000KT CAVOK M12/M13 Q1009=
201601140820 METAR ESMX 140820Z 00000KT 9999 FEW045 M14/M16 Q1009=
201601140750 METAR ESMX 140750Z 00000KT CAVOK M15/M17 Q1008=
201601140720 METAR ESMX 140720Z 18003KT CAVOK M14/M16 Q1008=
201601140650 METAR ESMX 140650Z 00000KT 9999 FEW025 M13/M15 Q1008=
201601140620 METAR ESMX 140620Z 00000KT CAVOK M12/M14 Q1008=
201601140550 METAR ESMX 140550Z 00000KT CAVOK M12/M14 Q1008=
201601140520 METAR ESMX 140520Z 27002KT CAVOK M11/M13 Q1008=
201601140450 METAR ESMX 140450Z 36003KT CAVOK M10/M12 Q1008=
201601140420 METAR ESMX 140420Z AUTO 36005KT 9999 SCT073/// BKN100/// M10/M11 Q1008=
201601140350 METAR ESMX 140350Z AUTO 01005KT 9999 BKN074/// M10/M11 Q1008=
201601140320 METAR ESMX 140320Z AUTO 28002KT 9999 BKN073/// M10/M12 Q1009=
201601140250 METAR ESMX 140250Z AUTO 26002KT 9999 BKN073/// M11/M12 Q1008=
201601140220 METAR ESMX 140220Z AUTO 26003KT 9999 BKN080/// M11/M13 Q1009=
201601140150 METAR ESMX 140150Z AUTO 00000KT 9999 BKN084/// M13/M14 Q1008=
201601140120 METAR ESMX 140120Z AUTO 25002KT 9999 SCT083/// M13/M14 Q1009=
201601140050 METAR ESMX 140050Z 29003KT CAVOK M13/M14 Q1008=
201601140020 METAR ESMX 140020Z 30003KT CAVOK M11/M13 Q1008=
201601132350 METAR ESMX 132350Z 27003KT CAVOK M12/M13 Q1008=
201601132320 METAR ESMX 132320Z 29006KT CAVOK M11/M12 Q1008=
201601132250 METAR ESMX 132250Z 30005KT CAVOK M10/M11 Q1008=
201601132220 METAR ESMX 132220Z 30006KT CAVOK M10/M11 Q1008=
201601132150 METAR ESMX 132150Z 29006KT CAVOK M09/M11 Q1008=
201601132120 METAR ESMX 132120Z 30005KT CAVOK M09/M10 Q1008=
201601132050 METAR ESMX 132050Z 31005KT CAVOK M08/M10 Q1007=
201601132020 METAR ESMX 132020Z 32007KT 9999 BKN014 M07/M10 Q1007=
201601131950 METAR ESMX 131950Z 31008KT 9999 FEW015 BKN018 M07/M09 Q1007=
201601131920 METAR ESMX 131920Z 30008KT 9999 OVC020 M07/M09 Q1007=
201601131850 METAR ESMX 131850Z 29007KT 9999 OVC019 M06/M09 Q1007=
201601131820 METAR ESMX 131820Z 31006KT 9999 -SN BKN019 M07/M09 Q1006=
201601131750 METAR ESMX 131750Z 30006KT 9999 -SN BKN018 M06/M08 Q1006=
201601131720 METAR ESMX 131720Z 31006KT 9999 SCT019 M07/M08 Q1006=
201601131650 METAR ESMX 131650Z 32008KT 9999 SCT020 M06/M08 Q1006=
201601131620 METAR ESMX 131620Z 32008KT 9999 FEW016 BKN019 M06/M08 Q1006=
201601131550 METAR ESMX 131550Z 32006KT 9999 FEW018 M06/M09 Q1005=
201601131520 METAR ESMX 131520Z 33008KT 9999 SCT020 M06/M09 Q1005=
201601131450 METAR ESMX 131450Z 32007KT 9999 SCT025 M06/M09 Q1005=
201601131420 METAR ESMX 131420Z 33009KT 9999 FEW016 SCT025 M05/M09 Q1004=
201601131350 METAR ESMX 131350Z 35012KT 9999 BKN020 M05/M09 Q1004=
201601131320 METAR ESMX 131320Z 33012KT 9999 BKN020 M05/M09 Q1004=
201601131250 METAR ESMX 131250Z 34009KT 9999 SCT023 M05/M08 Q1004=
201601131220 METAR ESMX 131220Z 36011KT 9999 FEW018 SCT020 M05/M09 Q1003=
201601131150 METAR ESMX 131150Z 34012KT 9999 BKN018 M05/M08 Q1003=
201601131120 METAR ESMX 131120Z 35011KT 9999 BKN018 M05/M08 Q1002=
201601131050 METAR ESMX 131050Z 35013KT 9999 SCT017 M05/M08 Q1002=
201601131020 METAR ESMX 131020Z 34010KT 9999 FEW017 M05/M08 Q1002=
201601130950 METAR ESMX 130950Z 34010KT CAVOK M05/M08 Q1002=
201601130920 METAR ESMX 130920Z 34010KT CAVOK M06/M08 Q1001=
201601130850 METAR ESMX 130850Z 35008KT CAVOK M07/M09 Q1001=
201601130820 METAR ESMX 130820Z 35008KT CAVOK M07/M09 Q1001=
201601130750 METAR ESMX 130750Z 35008KT CAVOK M07/M09 Q1000=
201601130720 METAR ESMX 130720Z 34009KT CAVOK M07/M09 Q1000=
201601130650 METAR ESMX 130650Z 35009KT CAVOK M07/M09 Q0999=
201601130620 METAR ESMX 130620Z 35009KT 9999 FEW018 M08/M09 Q0999=
201601130550 METAR ESMX 130550Z 34006KT 9999 FEW010 M08/M09 Q0999=
201601130520 METAR ESMX 130520Z 35008KT 9999 FEW010 M07/M09 Q0999=
201601130450 METAR ESMX 130450Z 35009KT 9999 FEW010 M07/M09 Q0999=
201601130420 METAR ESMX 130420Z AUTO 35009KT 9999 FEW009/// M07/M09 Q0999=
201601130350 METAR ESMX 130350Z AUTO 35009KT 9999 FEW010/// M07/M08 Q0999=
201601130320 METAR ESMX 130320Z AUTO 35009KT 9999 NCD M07/M08 Q0998=
201601130250 METAR ESMX 130250Z AUTO 36009KT 9999 NCD M06/M08 Q0998=
201601130220 METAR ESMX 130220Z AUTO 35009KT 9999 NCD M06/M08 Q0998=
201601130150 METAR ESMX 130150Z AUTO 36010KT 9999 NCD M06/M08 Q0998=
201601130120 METAR ESMX 130120Z AUTO 35009KT 9999 NCD M05/M08 Q0998=
201601130050 METAR COR ESMX 130050Z 02008KT 9999 FEW020 M05/M08 Q0998=
201601130020 METAR ESMX 130020Z 02010KT 9999 FEW012 SCT035 BKN070 M04/M07 Q0998=
201601122350 METAR ESMX 122350Z 03010KT 9999 FEW012 SCT035 BKN070 M04/M07 Q0997=
201601122320 METAR ESMX 122320Z 02011KT 9999 SCT012 BKN035 M04/M07 Q0997=
201601122250 METAR ESMX 122250Z 01012KT 9999 FEW012 BKN035 M04/M07 Q0997=
201601122220 METAR ESMX 122220Z 01010KT 9999 SCT012 BKN035 M03/M06 Q0997=
201601122150 METAR ESMX 122150Z 01012KT 9999 FEW012 BKN016 OVC030 M03/M05 Q0997=
201601122120 METAR ESMX 122120Z 02010KT 9999 SG FEW008 OVC010 M02/M03 Q0996=
201601122050 METAR ESMX 122050Z 03010KT 9999 -SN FEW007 OVC009 M01/M02 Q0996=
201601122020 METAR ESMX 122020Z 03008KT 9999 SCT012 BKN025 M01/M02 Q0996=
201601121950 METAR ESMX 121950Z 02007KT 9999 -SN FEW009 SCT017 OVC024 M01/M02 Q0996=
201601121920 METAR ESMX 121920Z 03009KT 9999 -SN FEW004 OVC007 M00/M01 Q0995=
201601121850 METAR ESMX 121850Z 05007KT 020V080 9000 -SN FEW003 SCT005 BKN007 00/M00 Q0995=
201601121820 METAR ESMX 121820Z 36003KT 4100 -SN OVC009 00/00 Q0995=
201601121750 METAR ESMX 121750Z 36003KT 1000 R01/P2000N R19/P2000N BR SCT010 BKN022 OVC038 M00/M00 Q0995=
201601121720 METAR ESMX 121720Z 36002KT 1500 BR BKN009 M00/M00 Q0995=
201601121650 METAR ESMX 121650Z 00000KT 1500 BR BKN010 M00/M00 Q0994=
201601121620 METAR ESMX 121620Z 02002KT 4100 BR BKN010 00/00 Q0994=
201601121550 METAR ESMX 121550Z 00000KT 2400 BR BKN010 00/M00 Q0994=
201601121520 METAR ESMX 121520Z 00000KT 3900 BR FEW010 BKN036 OVC067 00/00 Q0994=
201601121450 METAR ESMX 121450Z 02002KT 8000 BR FEW004 BKN006 OVC038 00/00 Q0994=
201601121420 METAR ESMX 121420Z 02003KT 9000 BR OVC004 01/00 Q0994=
201601121350 METAR ESMX 121350Z 35002KT 8000 BR OVC004 00/00 Q0993=
201601121320 METAR ESMX 121320Z 34003KT 6000 BR OVC002 00/00 Q0993=
201601121250 METAR ESMX 121250Z 35004KT 3500 BR VV002 00/00 Q0993=
201601121220 METAR ESMX 121220Z 35004KT 3000 BR VV002 00/00 Q0993=
201601121150 METAR ESMX 121150Z 03004KT 5000 BR VV002 01/01 Q0993=
201601121120 METAR ESMX 121120Z 02003KT 2900 VV002 01/01 Q0993=
201601121050 METAR ESMX 121050Z VRB02KT 4000 OVC002 01/01 Q0993=
201601121020 METAR ESMX 121020Z 33003KT 0550 R01/0750N R19/0800N FG VV002 01/00 Q0993=
201601120950 METAR ESMX 120950Z 36002KT 1000 R01/1200U R19/P2000N FG VV002 01/01 Q0993=
201601120920 METAR ESMX 120920Z 00000KT 0200 R01/0400N R19/1200N FG VV002 00/00 Q0992=
201601120850 METAR ESMX 120850Z 36002KT 0200 R01/0350N R19/1200U FG BKN002 00/M00 Q0992=
201601120820 METAR ESMX 120820Z 00000KT 0450 R01/0750N R19/1200D FG BKN002 00/00 Q0992=
201601120750 METAR ESMX 120750Z 36001KT 2200 BR FEW002 BKN023 00/00 Q0992=
201601120720 METAR ESMX 120720Z 00000KT 2200 BR FEW003 OVC023 01/00 Q0991=
201601120650 METAR ESMX 120650Z VRB02KT 3900 BR OVC003 01/01 Q0991=
201601120620 METAR ESMX 120620Z VRB02KT 3300 BR OVC003 01/01 Q0991=
201601120550 METAR ESMX 120550Z 00000KT 4000 BR OVC003 01/01 Q0991=
201601120520 METAR ESMX 120520Z 00000KT 3600 BR FEW002 OVC004 01/01 Q0991=
201601120450 METAR ESMX 120450Z VRB01KT 3000 FEW003 SCT008 OVC015 01/01 Q0991=
201601120420 METAR ESMX 120420Z AUTO 01002KT 2700 FEW001/// OVC007/// 01/01 Q0991=
201601120350 METAR ESMX 120350Z AUTO 02003KT 0550 R01/1400N R19/P2000N FG FEW001/// SCT003/// BKN006/// 01/01 Q0991=
201601120320 METAR ESMX 120320Z AUTO 01002KT 1200 R01/P2000N R19/P2000N BR VV001 01/01 Q0991 REDZ=
201601120250 METAR ESMX 120250Z AUTO VRB03KT 2500 BR VV002 01/01 Q0991=
201601120220 METAR ESMX 120220Z AUTO 02003KT 2400 VV001 01/01 Q0991=
201601120150 METAR ESMX 120150Z AUTO 02003KT 3500 -DZ FEW008/// BKN010/// 01/00 Q0991=
201601120120 METAR ESMX 120120Z AUTO 02004KT 2000 DZ FEW007/// SCT009/// 01/00 Q0991=
201601120050 METAR ESMX 120050Z 01003KT 1500 DZ FEW002 BKN005 01/01 Q0992 REDZ=
201601120020 METAR ESMX 120020Z 04001KT 2000 DZ OVC005 01/01 Q0992=
201601112350 METAR COR ESMX 112350Z 00000KT 0800 R01/P2000N R19/1700D UP SCT002 OVC003 01/01 Q0992=
201601112320 METAR COR ESMX 112320Z 00000KT 1100 R01/P2000N R19/1900N BR OVC002 01/01 Q0992=
201601112250 METAR ESMX 112250Z VRB02KT 2400 BR OVC002 01/01 Q0992=
201601112220 METAR ESMX 112220Z VRB03KT 1800 OVC002 01/01 Q0991=
201601112150 METAR ESMX 112150Z 08004KT 030V120 1500 BR VV002 01/00 Q0991=
201601112120 METAR ESMX 112120Z VRB04KT 0900 R01/1700U R19/P2000N FG VV002 01/00 Q0991=
201601112050 METAR ESMX 112050Z 09004KT 040V160 0900 R01/P2000N R19/P2000N FG VV002 01/01 Q0991=
201601112020 METAR ESMX 112020Z 08003KT 050V120 2000 BR VV002 01/01 Q0991=
201601111950 METAR ESMX 111950Z 08004KT 040V110 2000 BR OVC002 01/01 Q0991=
201601111920 METAR ESMX 111920Z VRB03KT 1500 R01/P2000N R19/P2000N BR OVC002 01/01 Q0991=
201601111850 METAR ESMX 111850Z VRB03KT 3000 BR SCT002 OVC004 01/01 Q0991=
201601111820 METAR ESMX 111820Z VRB03KT 3000 BR BKN002 OVC004 01/01 Q0991=
201601111750 METAR ESMX 111750Z VRB02KT 3000 BR OVC002 01/01 Q0992=
201601111720 METAR ESMX 111720Z VRB02KT 1600 BR VV002 02/01 Q0992=
201601111650 METAR ESMX 111650Z VRB02KT 0400 R01/1000N R19/1000U FG VV002 01/01 Q0992=
201601111620 METAR ESMX 111620Z 00000KT 0350 R01/0900N R19/0900N FG VV002 01/01 Q0992=
201601111550 METAR ESMX 111550Z 00000KT 0300 R01/0650N R19/0700N FG VV002 01/01 Q0992=
201601111520 METAR ESMX 111520Z 00000KT 0350 R01/0600N R19/0650N FG VV002 01/01 Q0992=
201601111450 METAR ESMX 111450Z 00000KT 0400 R01/0600N R19/0700N FG VV002 02/01 Q0992=
201601111420 METAR ESMX 111420Z VRB03KT 0800 R01/1000N R19/1700D FG VV002 02/01 Q0992=
201601111350 METAR ESMX 111350Z 16005KT 1800 BR OVC002 02/01 Q0992=
201601111320 METAR ESMX 111320Z 16004KT 130V200 1800 OVC002 02/02 Q0992=
201601111250 METAR ESMX 111250Z 15004KT 1300 R01/1400N R19/P2000N OVC002 02/02 Q0992=
201601111220 METAR ESMX 111220Z 15005KT 1000 R01/1100U R19/1400U VV002 02/02 Q0992=
201601111150 METAR ESMX 111150Z 19005KT 0700 R01/1000U R19/0900N FG VV002 02/01 Q0992=
201601111120 METAR ESMX 111120Z 17005KT 130V210 0450 R01/1000N R19/0700N FG VV002 02/01 Q0992=
201601111050 METAR ESMX 111050Z 16004KT 0400 R01/0650N R19/0650N FG VV002 02/01 Q0992=
201601111020 METAR ESMX 111020Z 17005KT 0450 R01/0700N R19/0700N FG VV002 02/01 Q0992=
201601110950 METAR ESMX 110950Z 16005KT 0300 R01/0550N R19/0650N FG VV002 02/01 Q0992=
201601110920 METAR ESMX 110920Z 16005KT 0400 R01/0650D R19/0700N FG VV002 02/01 Q0992=
201601110850 METAR ESMX 110850Z 16006KT 0400 R01/0750N R19/0750N FG VV002 01/01 Q0992=
201601110820 METAR ESMX 110820Z 18006KT 0300 R01/0600N R19/0650N FG VV002 01/01 Q0992=
201601110750 METAR ESMX 110750Z 17008KT 0350 R01/0750N R19/0800N FG VV002 01/01 Q0991=
201601110720 METAR ESMX 110720Z 16007KT 0250 R01/0700N R19/0700N FG VV002 01/01 Q0991=
201601110650 METAR ESMX 110650Z 16008KT 0200 R01/0650N R19/0650N FG VV002 01/01 Q0991=
201601110620 METAR ESMX 110620Z 16007KT 0250 R01/0750N R19/0800N FG VV001 01/01 Q0991=
201601110550 METAR ESMX 110550Z 17006KT 0200 R01/0700N R19/0700N FG VV002 01/01 Q0991=
201601110520 METAR ESMX 110520Z 18006KT 0200 R01/0700N R19/0750N FG VV002 01/00 Q0992=
201601110450 METAR ESMX 110450Z 17004KT 0200 R01/0700N R19/0700N FG VV002 01/00 Q0991=
201601110420 METAR ESMX 110420Z AUTO 17005KT 0300 R01/0900N R19/1000D FG VV001 01/00 Q0991 RESHUP=
201601110350 METAR ESMX 110350Z AUTO 18005KT 1100 R01/P2000N R19/P2000N -SN VV001 00/00 Q0991=
201601110320 METAR ESMX 110320Z AUTO 18005KT 0600 R01/1900D R19/P2000N FG VV002 00/00 Q0991=
201601110250 METAR ESMX 110250Z AUTO 19006KT 5000 -SN OVC003/// 00/00 Q0991=
201601110220 METAR ESMX 110220Z AUTO 18005KT 6000 -SN FEW003/// OVC004/// 00/00 Q0991=
201601110150 METAR ESMX 110150Z AUTO 17005KT 3000 -SN FEW002/// OVC004/// 00/00 Q0991=
201601110120 METAR ESMX 110120Z 17004KT 1000 R01/P2000N R19/P2000N SN VV004 00/00 Q0991=
201601110050 METAR ESMX 110050Z 15004KT 1000 R01/P2000N R19/P2000N -SN FEW002 BKN004 00/00 Q0991=
201601110020 METAR ESMX 110020Z 14003KT 0900 R01/P2000N R19/P2000N SN VV004 01/00 Q0991=
201601102350 METAR ESMX 102350Z 14003KT 090V200 1800 SN SCT002 OVC004 01/00 Q0991=
201601102320 METAR ESMX 102320Z 13004KT 100V190 1700 SN OVC005 01/00 Q0991=
201601102250 METAR ESMX 102250Z 13005KT 080V170 9999 DZ FEW004 OVC006 01/00 Q0992=
201601102220 METAR ESMX 102220Z 11003KT 060V150 6000 DZ OVC005 01/01 Q0992=
201601102150 METAR ESMX 102150Z 09004KT 040V140 5000 -DZ FEW003 OVC005 01/01 Q0992=
201601102120 METAR ESMX 102120Z 10004KT 060V130 5000 -RA FEW003 OVC004 01/01 Q0992=
201601102050 METAR ESMX 102050Z 12005KT 050V180 2200 -RA OVC003 01/01 Q0992=
201601102020 METAR ESMX 102020Z 11005KT 080V200 2800 -SNRA OVC003 01/01 Q0993=
201601101950 METAR ESMX 101950Z 10005KT 060V150 3200 DZ FEW003 OVC007 01/01 Q0993=
201601101920 METAR ESMX 101920Z 11006KT 070V150 2200 DZ BKN002 OVC005 01/01 Q0993=
201601101850 METAR ESMX 101850Z 12006KT 070V160 2000 DZ OVC002 01/01 Q0994=
201601101820 METAR ESMX 101820Z 13008KT 100V170 2200 BR OVC002 01/01 Q0994=
201601101750 METAR ESMX 101750Z 12007KT 070V190 2200 DZ BR OVC001 01/01 Q0994=
201601101720 METAR ESMX 101720Z 11007KT 050V170 1700 DZ BR OVC002 01/01 Q0995=
201601101650 METAR ESMX 101650Z 12007KT 030V170 1800 BR OVC002 01/01 Q0995=
201601101620 METAR ESMX 101620Z 10008KT 070V160 1600 BR OVC002 01/01 Q0995=
201601101550 METAR ESMX 101550Z 11007KT 070V150 1100 R01/P2000N R19/P2000N BR DZ OVC002 01/01 Q0995=
201601101520 METAR COR ESMX 101520Z 11007KT 060V150 1300 R01/P2000N R19/P2000N BR DZ OVC002 01/00 Q0996=
201601101450 METAR ESMX 101450Z 11008KT 040V150 5000 BR FEW003 BKN005 OVC007 01/00 Q0996=
201601101420 METAR ESMX 101420Z 11007KT 050V150 9000 BR OVC007 01/M00 Q0997=
201601101350 METAR ESMX 101350Z AUTO 10008KT 060V140 9000 BR FEW005/// OVC007/// 01/00 Q0997=
201601101320 METAR ESMX 101320Z AUTO 11008KT 050V150 6000 BR BKN003/// OVC005/// 01/00 Q0997 REUP=
201601101250 METAR ESMX 101250Z AUTO 11009KT 070V160 5000 BR OVC003/// 01/00 Q0998 RESHUP=
201601101220 METAR ESMX 101220Z AUTO 12008KT 070V170 7000 BR OVC004/// 01/00 Q0998=
201601101150 METAR ESMX 101150Z AUTO 11006KT 040V170 4700 -SN FEW004/// BKN006/// OVC008/// 01/00 Q0998=
201601101120 METAR ESMX 101120Z AUTO 11006KT 070V220 2000 -SN OVC004/// 01/00 Q0999=
201601101050 METAR ESMX 101050Z AUTO 12007KT 080V160 2400 -SN FEW004/// OVC006/// 01/M00 Q0999 RESG=
201601101020 METAR ESMX 101020Z AUTO 12007KT 070V160 2400 SG OVC007/// 01/M00 Q0999 REUP RESHUP=
201601100950 METAR ESMX 100950Z AUTO 11008KT 070V160 9999 OVC006/// 01/M00 Q1000=
201601100920 METAR ESMX 100920Z AUTO 12008KT 060V160 7000 BR OVC004/// 00/M00 Q1000=
201601100850 METAR ESMX 100850Z AUTO 12009KT 080V170 6000 BR OVC004/// 00/M00 Q1001=
201601100820 METAR ESMX 100820Z AUTO 13007KT 100V170 2700 BR OVC003/// 00/M00 Q1001=
201601100750 METAR ESMX 100750Z 14009KT 100V160 7000 BR OVC003 01/M00 Q1001=
201601100720 METAR ESMX 100720Z 13008KT 100V170 7000 BR OVC004 01/M00 Q1001=
201601100650 METAR ESMX 100650Z 12007KT 080V160 8000 BR OVC004 01/M00 Q1001=
201601100620 METAR ESMX 100620Z 14008KT 110V170 8000 BR SCT003 OVC005 01/M00 Q1001=
201601100550 METAR ESMX 100550Z AUTO 14010KT 100V170 7000 BR OVC004/// 01/00 Q1001=
201601100520 METAR ESMX 100520Z AUTO 14009KT 100V170 8000 BR OVC004/// 01/00 Q1002=
201601100450 METAR ESMX 100450Z AUTO 13007KT 100V160 8000 BR OVC004/// 01/00 Q1002=
201601100420 METAR ESMX 100420Z AUTO 13008KT 080V160 9000 BR OVC004/// 01/00 Q1002=
201601100350 METAR ESMX 100350Z AUTO 14007KT 090V190 9999 OVC005/// 01/00 Q1002=
201601100320 METAR ESMX 100320Z AUTO 14007KT 9999 OVC004/// 01/01 Q1002=
201601100250 METAR ESMX 100250Z AUTO 14007KT 120V190 6000 BR OVC002/// 01/01 Q1002=
201601100220 METAR ESMX 100220Z AUTO 13004KT 080V160 5000 BR FEW001/// OVC002/// 01/01 Q1003=
201601100150 METAR ESMX 100150Z AUTO 12004KT 070V170 1500 BR OVC001/// 01/00 Q1003=
201601100120 METAR ESMX 100120Z AUTO 11004KT 060V160 2600 BR OVC001/// 01/00 Q1003=
201601100050 METAR ESMX 100050Z AUTO 13004KT 080V170 4000 BR OVC001/// 00/M00 Q1003=
201601100020 METAR ESMX 100020Z 11005KT 060V170 6000 BR OVC002 M00/M00 Q1003=
201601092350 METAR ESMX 092350Z 10005KT 070V140 9000 OVC003 M00/M01 Q1003=
201601092320 METAR ESMX 092320Z 10005KT 060V150 9999 OVC003 M00/M01 Q1004=
201601092250 METAR ESMX 092250Z 12003KT 060V170 9999 SHSN OVC003 M01/M01 Q1004=
201601092220 METAR ESMX 092220Z 11005KT 080V160 3500 -SG OVC003 M01/M01 Q1004=
201601092150 METAR ESMX 092150Z 11006KT 030V160 3100 -SN OVC003 M01/M01 Q1004=
201601092120 METAR ESMX 092120Z 11006KT 070V160 4400 -SN OVC003 M01/M02 Q1004=
201601092050 METAR ESMX 092050Z 12005KT 070V160 8000 -SN OVC005 M01/M02 Q1004=
201601092020 METAR ESMX 092020Z 11006KT 070V150 9000 -SN OVC006 M01/M02 Q1004=
201601091950 METAR ESMX 091950Z 11005KT 060V170 9999 -SN OVC007 M01/M02 Q1004=
201601091920 METAR ESMX 091920Z 11006KT 070V160 9999 SN OVC007 M02/M03 Q1004=
201601091850 METAR ESMX 091850Z AUTO 11005KT 020V160 5000 -SN FEW007/// OVC008/// M02/M03 Q1004=
201601091820 METAR ESMX 091820Z AUTO 11004KT 070V170 4700 -SN FEW006/// OVC008/// M02/M03 Q1004=
201601091750 METAR ESMX 091750Z AUTO 10005KT 060V120 2300 -SN FEW006/// SCT009/// BKN011/// M02/M03 Q1005=
201601091720 METAR ESMX 091720Z AUTO 09004KT 050V110 2000 -SN FEW006/// SCT009/// BKN011/// M02/M03 Q1005=
201601091650 METAR ESMX 091650Z AUTO 10004KT 060V140 1400 R01/P2000N R19/P2000N -SN FEW007/// SCT011/// M02/M03 Q1005=
201601091620 METAR ESMX 091620Z AUTO 10004KT 060V160 1200 R01/P2000N R19/P2000N -SN FEW002/// M03/M03 Q1005=
201601091550 METAR ESMX 091550Z AUTO 09004KT 060V140 0900 R01/P2000N R19/P2000N -SN FEW002/// SCT007/// M03/M03 Q1005=
201601091520 METAR ESMX 091520Z AUTO 09006KT 1100 R01/P2000N R19/P2000N -SN FEW005/// M03/M03 Q1005=
201601091450 METAR ESMX 091450Z AUTO 08004KT 050V130 1000 R01/1900D R19/P2000N SN FEW006/// M03/M03 Q1005=
201601091420 METAR ESMX 091420Z AUTO 08005KT 050V120 0600 R01/1100N R19/1100D SN NCD M03/M03 Q1005=
201601091350 METAR ESMX 091350Z AUTO 08004KT 050V120 0800 R01/1200N R19/1300N SN FEW006/// M03/M03 Q1005=
201601091320 METAR ESMX 091320Z AUTO 08005KT 050V120 1200 R01/1700D R19/1900D -SN FEW008/// M03/M04 Q1005=
201601091250 METAR ESMX 091250Z AUTO 09005KT 050V120 1000 R01/1200U R19/1300U -SN FEW005/// SCT007/// BKN010/// M03/M04 Q1005 RESG=
201601091220 METAR ESMX 091220Z AUTO 09005KT 050V120 8000 FZUP OVC008/// M02/M04 Q1005=
201601091150 METAR ESMX 091150Z AUTO 09005KT 060V130 9999 FZUP OVC007/// M02/M04 Q1005=
201601091120 METAR ESMX 091120Z AUTO 07004KT 030V110 9999 -FZDZ OVC007/// M03/M04 Q1005 REFZUP=
201601091050 METAR ESMX 091050Z AUTO 09004KT 050V120 9999 FZUP OVC006/// M03/M04 Q1005=
201601091020 METAR ESMX 091020Z AUTO 09004KT 050V120 6000 -SN OVC006/// M03/M04 Q1005=
201601090950 METAR ESMX 090950Z AUTO 08003KT 040V130 9999 -SN OVC006/// M03/M04 Q1005=
201601090920 METAR ESMX 090920Z AUTO 08003KT 050V120 9999 -SN OVC006/// M03/M04 Q1005 REFZUP=
201601090850 METAR ESMX 090850Z AUTO 07003KT 050V110 9999 OVC006/// M03/M05 Q1005=
201601090820 METAR ESMX 090820Z AUTO 08003KT 030V110 9999 BKN007/// OVC014/// M03/M05 Q1004=
201601090750 METAR ESMX 090750Z AUTO 07003KT 030V100 9999 FEW008/// OVC014/// M04/M05 Q1004=
201601090720 METAR ESMX 090720Z AUTO VRB03KT 9999 BKN007/// OVC016/// M04/M05 Q1004=
201601090650 METAR ESMX 090650Z AUTO 08004KT 050V120 9999 SCT007/// OVC016/// M04/M05 Q1004=
201601090620 METAR ESMX 090620Z AUTO 07004KT 040V100 9999 OVC008/// M04/M05 Q1003=
201601090550 METAR ESMX 090550Z AUTO 05003KT 020V100 9999 SCT008/// OVC018/// M04/M05 Q1003=
201601090520 METAR ESMX 090520Z AUTO 07004KT 050V110 9999 FEW010/// OVC018/// M04/M05 Q1003=
201601090450 METAR ESMX 090450Z AUTO 07003KT 030V110 9999 FEW009/// SCT010/// OVC019/// M04/M05 Q1003=
201601090420 METAR ESMX 090420Z AUTO 06004KT 020V110 9999 FEW009/// SCT021/// OVC025/// M04/M05 Q1003=
201601090350 METAR ESMX 090350Z AUTO 06004KT 020V100 9999 OVC009/// M04/M05 Q1003=
201601090320 METAR ESMX 090320Z AUTO 05005KT 010V080 9999 OVC009/// M04/M05 Q1003=
201601090250 METAR ESMX 090250Z AUTO 05006KT 9999 BKN010/// OVC031/// M04/M05 Q1002 RESG=
201601090220 METAR ESMX 090220Z AUTO 05006KT 9999 -SN FEW005/// SCT010/// OVC032/// M04/M05 Q1002=
201601090150 METAR ESMX 090150Z AUTO 05006KT 3800 -SN FEW007/// OVC009/// M04/M05 Q1002=
201601090120 METAR ESMX 090120Z AUTO 05006KT 2100 -SN FEW009/// BKN044/// M04/M05 Q1002=
201601090050 METAR ESMX 090050Z AUTO 04007KT 4300 -SN FEW006/// SCT022/// BKN045/// M04/M05 Q1002=
201601090020 METAR ESMX 090020Z AUTO 04007KT 9999 -SN FEW009/// BKN048/// M04/M05 Q1001=
201601082350 METAR ESMX 082350Z AUTO 04006KT 9000 -SN FEW007/// OVC049/// M04/M05 Q1001=
201601082320 METAR ESMX 082320Z AUTO 04007KT 6000 -SN FEW006/// BKN050/// M04/M05 Q1001=
201601082250 METAR ESMX 082250Z AUTO 03008KT 3900 -SN FEW006/// OVC010/// M04/M06 Q1001 REFZUP=
201601082220 METAR ESMX 082220Z AUTO 03008KT 9999 FZUP FEW009/// SCT010/// BKN013/// M04/M05 Q1000=
201601082150 METAR ESMX 082150Z AUTO 03008KT 9000 SG FEW008/// SCT010/// BKN015/// M04/M05 Q1000=
201601082120 METAR ESMX 082120Z AUTO 03008KT 4100 -SN FEW008/// SCT016/// M04/M05 Q1000=
201601082050 METAR ESMX 082050Z AUTO 04008KT 3300 -SN FEW006/// M03/M04 Q0999=
201601082020 METAR ESMX 082020Z AUTO 04008KT 020V080 2300 -SN FEW005/// SCT007/// M03/M04 Q0999=
201601081950 METAR ESMX 081950Z AUTO 04008KT 2800 -SN FEW006/// M03/M04 Q0999=
201601081920 METAR ESMX 081920Z AUTO 05007KT 020V080 1700 -SN FEW006/// SCT011/// M03/M04 Q0999=
201601081850 METAR ESMX 081850Z AUTO 06007KT 030V100 4600 -SN FEW006/// M03/M04 Q0998=
201601081820 METAR ESMX 081820Z AUTO 06007KT 030V100 2200 -SN FEW006/// SCT012/// M03/M04 Q0998=
201601081750 METAR ESMX 081750Z 07008KT 030V110 2300 -SN SCT010 BKN015 M03/M04 Q0998=
201601081720 METAR ESMX 081720Z 05008KT 020V080 2000 -SN BKN010 M03/M04 Q0997=
201601081650 METAR ESMX 081650Z 06009KT 030V120 2100 -SN BKN010 M03/M04 Q0997=
201601081620 METAR ESMX 081620Z 07008KT 030V100 2400 -SN FEW007 BKN012 BKN016 M02/M04 Q0997=
201601081550 METAR ESMX 081550Z 06007KT 010V110 2000 -SN SCT007 BKN010 M02/M04 Q0997=
201601081520 METAR ESMX 081520Z 08008KT 050V120 1900 -SN OVC009 M02/M04 Q0996=
201601081450 METAR ESMX 081450Z 08010KT 040V120 9999 -SN OVC010 M02/M04 Q0996=
201601081420 METAR ESMX 081420Z 08008KT 030V120 8000 SG OVC011 M02/M04 Q0996=
201601081350 METAR ESMX 081350Z 08008KT 030V140 8000 SG OVC011 M01/M03 Q0996=
201601081320 METAR ESMX 081320Z 09008KT 050V120 8000 SG OVC011 M01/M03 Q0996=
201601081250 METAR ESMX 081250Z 08008KT 020V110 9000 SG BKN010 OVC015 M02/M03 Q0996=
201601081220 METAR ESMX 081220Z 08008KT 050V120 5000 SG FEW008 OVC010 M02/M03 Q0996=
201601081150 METAR ESMX 081150Z 08008KT 050V120 5000 SG OVC007 M02/M03 Q0996=
201601081120 METAR ESMX 081120Z 08009KT 040V150 4000 SG OVC007 M02/M03 Q0996=
201601081050 METAR ESMX 081050Z 09009KT 030V120 9999 SG OVC007 M02/M03 Q0997=
201601081020 METAR COR ESMX 081020Z 08009G23KT 040V130 8000 -SG OVC006 M02/M03 Q0997=
201601080950 METAR COR ESMX 080950Z 08009G19KT 030V130 5000 FZDZ OVC005 M02/M03 Q0997=
201601080920 METAR ESMX 080920Z 08010KT 030V130 5000 FZDZ OVC005 M03/M04 Q0998=
201601080850 METAR ESMX 080850Z 08007KT 030V120 5000 -FZDZSN OVC004 M03/M04 Q0998=
201601080820 METAR ESMX 080820Z 08009KT 030V140 6000 -FZDZSN OVC005 M03/M04 Q0998=
201601080750 METAR ESMX 080750Z 08008KT 040V120 6000 -FZDZSN OVC005 M03/M04 Q0998=
201601080720 METAR ESMX 080720Z 09009KT 030V140 3800 -FZDZSN OVC005 M04/M05 Q0998=
201601080650 METAR ESMX 080650Z 08009KT 050V140 6000 FZUP OVC007 M04/M05 Q0999=
201601080620 METAR ESMX 080620Z 09009KT 050V130 9999 -SN OVC008 M04/M05 Q0999=
201601080550 METAR ESMX 080550Z 09010KT 050V150 9999 -SN BKN009 M04/M06 Q0999=
201601080520 METAR ESMX 080520Z AUTO 09008G18KT 050V160 9999 FZUP OVC009/// M04/M06 Q0999=
201601080450 METAR ESMX 080450Z 09009G21KT 040V140 9999 -SN BKN010 M04/M06 Q1000=
201601080420 METAR ESMX 080420Z AUTO 09009KT 030V140 9999 FZUP OVC010/// M04/M06 Q1000=
201601080350 METAR ESMX 080350Z AUTO 10010KT 030V140 9999 OVC011/// M04/M07 Q1000=
201601080320 METAR ESMX 080320Z AUTO 09008KT 030V140 9999 OVC012/// M05/M07 Q1001=
201601080250 METAR ESMX 080250Z AUTO 09010KT 060V140 9999 OVC012/// M05/M07 Q1001=
201601080220 METAR ESMX 080220Z AUTO 09009KT 030V120 9999 -FZDZ OVC012/// M05/M07 Q1001=
201601080150 METAR ESMX 080150Z AUTO 10008KT 060V150 9999 SG OVC011/// M05/M07 Q1002 RESG=
201601080120 METAR ESMX 080120Z AUTO 09008KT 050V150 9000 -SN OVC012/// M05/M07 Q1002=
201601080050 METAR ESMX 080050Z 09008KT 060V140 9999 -SN BKN012 M05/M07 Q1002=
201601080020 METAR ESMX 080020Z VRB08KT 9999 -SN BKN013 M05/M07 Q1003=
201601072350 METAR ESMX 072350Z 10007KT 040V150 9999 -SN BKN013 M05/M07 Q1003=
201601072320 METAR ESMX 072320Z 09008G18KT 040V150 9999 -SN SCT014 BKN018 M05/M07 Q1004=
201601072250 METAR ESMX 072250Z 10008KT 050V150 9999 -SN BKN013 M05/M07 Q1004=
201601072220 METAR ESMX 072220Z 09008KT 050V140 9999 -SN BKN013 M05/M07 Q1004=
201601072150 METAR ESMX 072150Z 09007KT 050V150 9999 -SN SCT017 BKN029 M05/M07 Q1005=
201601072120 METAR ESMX 072120Z 09006KT 020V140 9999 -SN FEW013 SCT017 BKN029 M05/M07 Q1005=
201601072050 METAR ESMX 072050Z 09009KT 040V120 9999 -SN FEW013 SCT017 BKN031 M05/M07 Q1005=
201601072020 METAR ESMX 072020Z 09008KT 060V130 8000 -SN FEW014 SCT021 BKN033 M05/M07 Q1005=
201601071950 METAR ESMX 071950Z 09007KT 060V130 9999 -SN FEW014 SCT018 BKN034 M05/M07 Q1006=
201601071920 METAR ESMX 071920Z 09006KT 050V140 8000 -SN FEW016 SCT025 BKN032 M05/M07 Q1006=
201601071850 METAR ESMX 071850Z 09007KT 050V130 9999 -SN BKN034 M05/M07 Q1006=
201601071820 METAR ESMX 071820Z 10007KT 060V130 9999 -SN BKN036 M05/M07 Q1006=
201601071750 METAR ESMX 071750Z 10006KT 050V140 9999 -SN FEW027 BKN036 M05/M07 Q1006=
201601071720 METAR ESMX 071720Z 09005KT 050V140 9999 -SN FEW032 BKN038 M05/M07 Q1006=
201601071650 METAR ESMX 071650Z 09006KT 050V130 9999 -SN FEW023 BKN038 M05/M07 Q1007=
201601071620 METAR ESMX 071620Z 10004KT 030V150 9999 FEW021 BKN031 M05/M08 Q1007=
201601071550 METAR ESMX 071550Z 10007KT 060V150 9999 BKN017 M04/M07 Q1007=
201601071520 METAR ESMX 071520Z 13007KT 080V160 9999 FEW020 BKN023 BKN027 M04/M07 Q1007=
201601071450 METAR ESMX 071450Z 11007KT 070V150 9999 SCT012 BKN025 M04/M07 Q1007=
201601071420 METAR ESMX 071420Z 11007KT 080V160 9999 -PL FEW012 SCT017 BKN021 M04/M06 Q1007=
201601071350 METAR ESMX 071350Z AUTO 11007KT 050V160 9999 -SN SCT010/// BKN015/// OVC026/// M03/M06 Q1007=
201601071320 METAR ESMX 071320Z AUTO 11008KT 060V160 9999 -SN FEW012/// BKN015/// OVC023/// M03/M06 Q1007=
201601071250 METAR ESMX 071250Z AUTO 10007KT 060V160 9999 -SN OVC010/// M03/M05 Q1007=
201601071220 METAR ESMX 071220Z AUTO 08006KT 050V130 8000 -SN OVC010/// M03/M04 Q1007=
201601071150 METAR ESMX 071150Z AUTO 08005KT 050V130 4400 -SN FEW008/// SCT010/// BKN014/// M03/M05 Q1007=
201601071120 METAR ESMX 071120Z AUTO 08003KT 030V140 4900 -SN FEW016/// BKN018/// BKN027/// M04/M05 Q1008=
201601071050 METAR ESMX 071050Z AUTO 08004KT 030V140 2500 -SN FEW005/// BKN021/// M04/M05 Q1008=
201601071020 METAR ESMX 071020Z AUTO 08005KT 030V120 4700 -SN FEW016/// BKN019/// M04/M06 Q1008=
201601070950 METAR ESMX 070950Z AUTO 08006KT 030V130 5000 -SN FEW009/// BKN012/// OVC015/// M04/M06 Q1008=
201601070920 METAR ESMX 070920Z 07005KT 020V100 9999 -SN OVC009 M05/M06 Q1008=
201601070850 METAR ESMX 070850Z 06006KT 030V100 9999 -SN OVC009 M05/M06 Q1009=
201601070820 METAR ESMX 070820Z 04006KT 7000 -SN SCT008 OVC010 M06/M07 Q1009=
201601070750 METAR ESMX 070750Z 03006KT 6000 -SN FEW010 OVC013 M06/M08 Q1009=
201601070720 METAR ESMX 070720Z 03005KT 6000 -SN OVC012 M07/M08 Q1009=
201601070650 METAR ESMX 070650Z 03006KT 9999 -SN OVC013 M07/M09 Q1009=
201601070620 METAR ESMX 070620Z 04006KT 9999 -SN FEW007 SCT016 OVC044 M08/M09 Q1009=
201601070550 METAR COR ESMX 070550Z 03006KT 9999 -SN BKN007 M08/M09 Q1009=
201601070520 METAR ESMX 070520Z 02005KT 9999 OVC007 M08/M09 Q1009=
201601070450 METAR ESMX 070450Z AUTO 04006KT 9999 OVC007/// M08/M09 Q1009=
201601070420 METAR ESMX 070420Z AUTO 02005KT 9999 OVC006/// M08/M10 Q1009=
201601070350 METAR ESMX 070350Z AUTO 04005KT 010V070 9999 OVC006/// M09/M10 Q1009=
201601070320 METAR ESMX 070320Z AUTO 03009KT 9999 OVC007/// M09/M10 Q1009=
201601070250 METAR ESMX 070250Z AUTO 03008KT 9999 FEW007/// SCT009/// OVC012/// M09/M11 Q1010=
201601070220 METAR ESMX 070220Z AUTO 02006KT 9999 BKN015/// M10/M11 Q1010=
201601070150 METAR ESMX 070150Z AUTO 01007KT 9999 -SN SCT034/// M11/M12 Q1010=
201601070120 METAR ESMX 070120Z AUTO 36008KT 9999 -SN FEW011/// OVC035/// M10/M12 Q1010=
201601070050 METAR ESMX 070050Z AUTO 01006KT 7000 -SN FEW010/// SCT025/// OVC033/// M10/M11 Q1010=
201601070020 METAR ESMX 070020Z 03007KT 9999 -SN FEW019 OVC033 M10/M12 Q1010=
201601062350 METAR ESMX 062350Z 03008KT 9999 -SN FEW019 SCT028 BKN034 M11/M12 Q1010=
201601062320 METAR ESMX 062320Z 03008KT 9999 -SN FEW022 M11/M13 Q1011=
201601062250 METAR ESMX 062250Z 03008KT 9999 -SN NSC M11/M13 Q1011=
201601062220 METAR ESMX 062220Z 04009KT CAVOK M11/M13 Q1011=
201601062150 METAR ESMX 062150Z 04009KT CAVOK M11/M13 Q1011=
201601062120 METAR ESMX 062120Z 03008KT CAVOK M11/M13 Q1011=
201601062050 METAR ESMX 062050Z 03007KT CAVOK M12/M13 Q1011=
201601062020 METAR ESMX 062020Z 03007KT CAVOK M11/M13 Q1011=
201601061950 METAR ESMX 061950Z 03007KT 010V080 CAVOK M11/M13 Q1011=
201601061920 METAR ESMX 061920Z 02006KT CAVOK M11/M13 Q1011=
201601061850 METAR ESMX 061850Z 03006KT CAVOK M11/M12 Q1011=
201601061820 METAR ESMX 061820Z 03006KT 010V070 CAVOK M10/M12 Q1011=
201601061750 METAR ESMX 061750Z 03008KT CAVOK M10/M12 Q1011=
201601061720 METAR ESMX 061720Z 03008KT CAVOK M10/M12 Q1011=
201601061650 METAR ESMX 061650Z 03009KT CAVOK M10/M12 Q1011=
201601061620 METAR ESMX 061620Z 04009KT CAVOK M09/M12 Q1011=
201601061550 METAR ESMX 061550Z 03007KT CAVOK M09/M11 Q1011=
201601061520 METAR ESMX 061520Z 03007KT CAVOK M09/M12 Q1011=
201601061450 METAR ESMX 061450Z 03007KT 9999 FEW032 M08/M11 Q1011=
201601061420 METAR ESMX 061420Z 04008KT 9999 FEW032 M08/M11 Q1011=
201601061350 METAR ESMX 061350Z 05009KT 9999 FEW030 M07/M10 Q1011=
201601061320 METAR ESMX 061320Z 04007KT 010V080 CAVOK M07/M10 Q1010=
201601061250 METAR ESMX 061250Z 04007KT CAVOK M07/M10 Q1010=
201601061220 METAR ESMX 061220Z 03009KT CAVOK M07/M10 Q1010=
201601061150 METAR ESMX 061150Z 03006KT 9999 FEW029 M08/M11 Q1010=
201601061120 METAR ESMX 061120Z 04007KT 9999 FEW023 M08/M11 Q1011=
201601061050 METAR ESMX 061050Z 03008KT 9999 FEW017 SCT022 BKN028 M08/M11 Q1011=
201601061020 METAR ESMX 061020Z 03009KT 9999 FEW023 SCT032 M08/M12 Q1011=
201601060950 METAR ESMX 060950Z 03007KT 9999 FEW020 FEW025 M08/M12 Q1011=
201601060920 METAR ESMX 060920Z 04008KT 9999 FEW015 M09/M12 Q1011=
201601060850 METAR ESMX 060850Z 04008KT CAVOK M09/M12 Q1011=
201601060820 METAR ESMX 060820Z 04008KT CAVOK M09/M13 Q1010=
201601060750 METAR ESMX 060750Z 04009KT CAVOK M10/M12 Q1010=
201601060720 METAR ESMX 060720Z 03008KT 360V080 CAVOK M10/M12 Q1010 RESG=
201601060650 METAR ESMX 060650Z 02006KT 9999 SG NSC M10/M12 Q1010=
201601060620 METAR ESMX 060620Z 03008KT CAVOK M10/M12 Q1010=
201601060550 METAR ESMX 060550Z AUTO 03007KT 9999 NCD M10/M12 Q1009=
201601060520 METAR ESMX 060520Z AUTO 03007KT 9999 NCD M10/M12 Q1009=
201601060450 METAR ESMX 060450Z AUTO 03008KT 9999 NCD M10/M12 Q1009=
201601060420 METAR ESMX 060420Z AUTO 04007KT 9999 NCD M10/M12 Q1009=
201601060350 METAR ESMX 060350Z AUTO 04007KT 9999 NCD M10/M12 Q1009=
201601060320 METAR ESMX 060320Z AUTO 04007KT 9999 NCD M10/M12 Q1009=
201601060250 METAR ESMX 060250Z AUTO 04008KT 9999 NCD M10/M12 Q1009=
201601060220 METAR ESMX 060220Z AUTO 04009KT 9999 NCD M10/M12 Q1009=
201601060150 METAR ESMX 060150Z AUTO 04009KT 9999 NCD M10/M12 Q1009=
201601060120 METAR ESMX 060120Z AUTO 04009KT 9999 FEW036/// M09/M12 Q1009=
201601060050 METAR ESMX 060050Z AUTO 04010KT 9999 FEW038/// BKN044/// M09/M11 Q1009=
201601060020 METAR ESMX 060020Z AUTO 04010KT 9999 FEW046/// BKN054/// M09/M11 Q1008=
201601052350 METAR ESMX 052350Z AUTO 04010KT 9999 FEW045/// M08/M11 Q1008=
201601052320 METAR ESMX 052320Z AUTO 03007KT 9999 FEW041/// BKN046/// M09/M11 Q1008=
201601052250 METAR ESMX 052250Z AUTO 03008KT 9999 FEW040/// BKN048/// M09/M11 Q1008=
201601052220 METAR ESMX 052220Z AUTO 01008KT 9999 SCT036/// M09/M11 Q1008=
201601052150 METAR ESMX 052150Z AUTO 03008KT 9999 FEW048/// M09/M11 Q1008=
201601052120 METAR ESMX 052120Z AUTO 01009KT 9999 FEW014/// SCT024/// M08/M10 Q1008 RESG=
201601052050 METAR ESMX 052050Z AUTO 03011KT 9999 FEW010/// OVC022/// M08/M10 Q1008=
201601052020 METAR ESMX 052020Z AUTO 03007KT 9999 FEW013/// SCT022/// M08/M10 Q1008=
201601051950 METAR ESMX 051950Z AUTO 03008KT 9999 SCT010/// M08/M10 Q1008 RESG=
201601051920 METAR ESMX 051920Z AUTO 03011KT 9999 -SN OVC010/// M08/M10 Q1008=
201601051850 METAR ESMX 051850Z 03011KT 9999 BKN010 M08/M10 Q1007=
201601051820 METAR ESMX 051820Z 03009KT 9999 BKN009 M08/M10 Q1007=
201601051750 METAR ESMX 051750Z 04009KT 9999 BKN009 M08/M10 Q1007=
201601051720 METAR ESMX 051720Z 04009KT 9999 BKN009 M08/M10 Q1007=
201601051650 METAR ESMX 051650Z 03007KT 9999 BKN010 M07/M10 Q1007=
201601051620 METAR ESMX 051620Z 01009KT 9999 BKN010 M07/M10 Q1006=
201601051550 METAR COR ESMX 051550Z 02011KT 9999 FEW011 M07/M10 Q1006=
201601051520 METAR ESMX 051520Z 02007KT CAVOK M07/M10 Q1006=
201601051450 METAR ESMX 051450Z 02006KT CAVOK M07/M10 Q1006=
201601051420 METAR ESMX 051420Z 01006KT CAVOK M07/M10 Q1006=
201601051350 METAR ESMX 051350Z AUTO 03007KT 9999 FEW018/// M06/M10 Q1006=
201601051320 METAR ESMX 051320Z AUTO 04009KT 9999 NCD M06/M10 Q1006=
201601051250 METAR ESMX 051250Z 01010KT CAVOK M06/M10 Q1006=
201601051220 METAR ESMX 051220Z 36009KT CAVOK M06/M10 Q1006=
201601051150 METAR ESMX 051150Z 36008KT 9999 FEW015 M05/M09 Q1006=
201601051120 METAR ESMX 051120Z 36008KT 9999 FEW015 M06/M09 Q1006=
201601051050 METAR ESMX 051050Z 02008KT 9999 FEW013 SCT030 M06/M09 Q1006=
201601051020 METAR ESMX 051020Z 01008KT 9999 FEW030 SCT045 M06/M08 Q1006=
201601050950 METAR ESMX 050950Z 01007KT 9999 -SN FEW010 SCT034 BKN040 M06/M08 Q1006=
201601050920 METAR COR ESMX 050920Z 02009KT 9999 -SN FEW012 BKN025 M06/M07 Q1006=
201601050850 METAR ESMX 050850Z 03008KT 8000 -SN SCT010 BKN024 M06/M08 Q1006 RESN=
201601050820 METAR ESMX 050820Z 03007KT 9999 SCT010 BKN020 M06/M08 Q1006=
201601050750 METAR ESMX 050750Z 03008KT 9999 -SN FEW009 SCT025 BKN030 M06/M08 Q1006=
201601050720 METAR ESMX 050720Z 04008KT 9999 -SN FEW010 BKN025 M06/M08 Q1006=
201601050650 METAR ESMX 050650Z 03006KT 9999 FEW010 BKN020 M06/M08 Q1005=
201601050620 METAR ESMX 050620Z 04009KT 9999 SCT011 BKN020 M05/M08 Q1005=
201601050550 METAR ESMX 050550Z 03005KT CAVOK M05/M07 Q1005=
201601050520 METAR ESMX 050520Z AUTO 02005KT 9999 OVC076/// M05/M08 Q1005=
201601050450 METAR ESMX 050450Z AUTO 06004KT 030V110 9999 OVC071/// M04/M07 Q1005=
201601050420 METAR ESMX 050420Z AUTO 04005KT 010V090 9999 OVC070/// M04/M07 Q1005=
201601050350 METAR ESMX 050350Z AUTO 06005KT 020V100 9999 OVC069/// M04/M07 Q1005=
201601050320 METAR ESMX 050320Z AUTO 04005KT 010V090 9999 -SN FEW043/// SCT052/// BKN068/// M04/M07 Q1005=
201601050250 METAR ESMX 050250Z AUTO 04006KT 010V070 9999 SG FEW049/// BKN060/// M04/M06 Q1005 RESHUP RESN=
201601050220 METAR ESMX 050220Z AUTO 05005KT 360V100 9999 SCT049/// BKN074/// M04/M06 Q1005=
201601050150 METAR ESMX 050150Z AUTO 07008KT 300V110 9999 SG FEW024/// BKN045/// M04/M06 Q1005=
201601050120 METAR ESMX 050120Z 06008KT 030V090 9000 -SN FEW016 BKN030 OVC038 M04/M06 Q1005=
201601050050 METAR ESMX 050050Z 05007KT 9999 -SN FEW019 BKN021 OVC027 M04/M06 Q1005=
201601050020 METAR ESMX 050020Z 04008KT 9999 -SN FEW013 BKN023 BKN031 M04/M06 Q1005=
201601042350 METAR ESMX 042350Z 04008KT 9999 -SN FEW007 OVC032 M04/M06 Q1005=
201601042320 METAR ESMX 042320Z 04007KT 9999 FEW008 SCT010 BKN016 M04/M06 Q1005=
201601042250 METAR ESMX 042250Z 04008KT 9999 -SN BKN014 OVC025 M04/M06 Q1005=
201601042220 METAR ESMX 042220Z 04007KT 9999 FEW008 SCT013 BKN027 M04/M06 Q1005=
201601042150 METAR ESMX 042150Z 03006KT 9999 -SN FEW011 OVC018 M04/M06 Q1005=
201601042120 METAR ESMX 042120Z 04007KT 9999 -SN FEW013 OVC024 M04/M06 Q1005=
201601042050 METAR ESMX 042050Z 04005KT 9999 BKN027 BKN041 M05/M06 Q1005=
201601042020 METAR ESMX 042020Z 05005KT 010V080 9999 FEW034 BKN043 M05/M06 Q1005=
201601041950 METAR ESMX 041950Z 04008KT 9999 OVC040 M05/M06 Q1005=
201601041920 METAR ESMX 041920Z 04008KT 9999 BKN038 M05/M06 Q1006=
201601041850 METAR ESMX 041850Z 03009KT 9999 OVC036 M04/M06 Q1006=
201601041820 METAR ESMX 041820Z 05007KT 9999 -SN OVC031 M04/M06 Q1005=
201601041750 METAR ESMX 041750Z 06008KT 9999 -SN BKN030 M04/M06 Q1005=
201601041720 METAR ESMX 041720Z 06008KT 020V080 9999 BKN033 M04/M06 Q1005=
201601041650 METAR ESMX 041650Z 06009KT 9999 BKN032 M03/M06 Q1005=
201601041620 METAR ESMX 041620Z 06008KT 030V100 9999 FEW015 BKN030 M03/M06 Q1005=
201601041550 METAR COR ESMX 041550Z 05007KT 010V100 9999 FEW015 BKN030 M03/M06 Q1005=
201601041520 METAR ESMX 041520Z 07007KT 030V120 9999 FEW012 BKN032 M03/M06 Q1005=
201601041450 METAR ESMX 041450Z 07007KT 040V110 9999 FEW020 BKN030 M03/M06 Q1005=
201601041420 METAR ESMX 041420Z 08006KT 040V130 9999 FEW022 BKN035 M03/M06 Q1005=
201601041350 METAR ESMX 041350Z AUTO 07006KT 030V120 9999 -SN FEW018/// SCT029/// OVC035/// M03/M06 Q1005=
201601041320 METAR ESMX 041320Z AUTO 07007KT 040V110 9999 -SN FEW018/// SCT028/// OVC032/// M03/M07 Q1005 REFZUP RESHUP=
201601041250 METAR ESMX 041250Z AUTO 07006KT 030V110 9999 FZUP OVC028/// M03/M07 Q1005 RESHUP=
201601041220 METAR ESMX 041220Z AUTO 07007KT 040V110 9999 OVC031/// M03/M07 Q1005 REUP=
201601041150 METAR ESMX 041150Z AUTO 06007KT 030V100 9999 OVC031/// M04/M07 Q1006 RESHUP=
201601041120 METAR ESMX 041120Z AUTO 07007KT 9999 FZUP OVC030/// M04/M07 Q1006 RESHUP=
201601041050 METAR ESMX 041050Z AUTO 07007KT 050V110 9999 BKN032/// M04/M07 Q1006 REFZUP=
201601041020 METAR ESMX 041020Z AUTO 07006KT 030V120 9999 BKN031/// M04/M08 Q1007 RESHUP REFZUP=
201601040950 METAR ESMX 040950Z AUTO 07007KT 030V110 9999 FEW023/// BKN032/// M05/M08 Q1007=
201601040920 METAR ESMX 040920Z 07007KT 030V100 9999 BKN030 M05/M08 Q1007=
201601040850 METAR ESMX 040850Z 06008KT 030V100 9999 BKN030 M06/M08 Q1008=
201601040820 METAR ESMX 040820Z 06006KT 030V100 9999 BKN030 M06/M08 Q1008=
201601040750 METAR ESMX 040750Z 06007KT 030V090 9999 BKN030 M06/M09 Q1008=
201601040720 METAR ESMX 040720Z 06006KT 020V090 9999 OVC030 M06/M09 Q1008=
201601040650 METAR ESMX 040650Z 06007KT 030V100 9999 BKN030 M06/M09 Q1008=
201601040620 METAR ESMX 040620Z 07006KT 020V110 9999 BKN030 M06/M09 Q1008=
201601040550 METAR ESMX 040550Z 07006KT 030V100 9999 BKN030 M06/M08 Q1008=
201601040520 METAR ESMX 040520Z AUTO 08006KT 050V110 9999 FEW032/// M06/M08 Q1009=
201601040450 METAR ESMX 040450Z AUTO 07007KT 030V110 9999 BKN030/// M05/M08 Q1009=
201601040420 METAR ESMX 040420Z AUTO 07006KT 040V130 9999 OVC029/// M05/M08 Q1009=
201601040350 METAR ESMX 040350Z AUTO 07006KT 040V110 9999 OVC028/// M05/M08 Q1009 RESN=
201601040320 METAR ESMX 040320Z AUTO 06006KT 030V110 9999 OVC030/// M05/M08 Q1010=
201601040250 METAR ESMX 040250Z AUTO 07007KT 030V110 9999 -SN OVC029/// M05/M08 Q1010 RESN=
201601040220 METAR ESMX 040220Z AUTO 08007KT 040V110 9999 -SN OVC028/// M05/M08 Q1010=
201601040150 METAR ESMX 040150Z AUTO 07007KT 040V110 9999 -SN OVC028/// M05/M08 Q1011=
201601040120 METAR ESMX 040120Z AUTO 08006KT 020V110 9999 OVC026/// M05/M08 Q1011=
201601040050 METAR ESMX 040050Z 07005KT 020V140 9999 -SN OVC026 M05/M08 Q1012=
201601040020 METAR ESMX 040020Z 08006KT 040V120 9999 -SN OVC026 M05/M08 Q1012=
201601032350 METAR ESMX 032350Z 08006KT 050V120 9999 -SN OVC026 M05/M08 Q1012=
201601032320 METAR ESMX 032320Z 09006KT 040V120 9999 -SN OVC025 M05/M08 Q1013=
201601032250 METAR ESMX 032250Z 09005KT 050V130 9999 -SN OVC026 M05/M09 Q1013=
201601032220 METAR ESMX 032220Z 08006KT 050V110 9999 -SN OVC026 M05/M09 Q1014=
201601032150 METAR ESMX 032150Z 09005KT 060V130 9999 -SN OVC026 M05/M08 Q1014=
201601032120 METAR ESMX 032120Z 08005KT 030V120 9999 -SN OVC026 M05/M08 Q1015=
201601032050 METAR ESMX 032050Z 09005KT 050V140 9999 -SN OVC026 M05/M08 Q1015=
201601032020 METAR ESMX 032020Z 08004KT 030V120 9999 -SN OVC024 M05/M08 Q1016=
201601031950 METAR ESMX 031950Z 08004KT 050V120 9999 -SN OVC025 M05/M08 Q1016=
201601031920 METAR ESMX 031920Z 08005KT 9999 -SN OVC026 M05/M08 Q1017=
201601031850 METAR ESMX 031850Z 10004KT 050V140 9999 -SN OVC026 M05/M08 Q1017=
201601031820 METAR ESMX 031820Z 08006KT 050V140 9999 -SN OVC026 M05/M08 Q1017=
201601031750 METAR ESMX 031750Z 09005KT 050V140 9999 SN OVC026 M06/M08 Q1018=
201601031720 METAR ESMX 031720Z 09005KT 060V120 9999 -SN FEW010 BKN028 M06/M08 Q1018=
201601031650 METAR ESMX 031650Z 09005KT 050V160 9999 FEW010 BKN030 M06/M08 Q1019=
201601031620 METAR ESMX 031620Z 09005KT 040V140 9999 -SN SCT009 BKN035 M06/M08 Q1019=
201601031550 METAR ESMX 031550Z 08005KT 050V130 9999 -SN SCT010 BKN035 M06/M07 Q1020=
201601031520 METAR ESMX 031520Z 09005KT 050V120 9999 -SN SCT015 BKN030 M06/M08 Q1020=
201601031450 METAR ESMX 031450Z 09005KT 050V120 9999 -SN SCT012 BKN030 M05/M08 Q1021=
201601031420 METAR ESMX 031420Z 08006KT 020V110 9999 -SN FEW014 SCT015 BKN040 M05/M08 Q1021=
201601031350 METAR ESMX 031350Z AUTO 09006KT 050V140 9999 -SN BKN013/// OVC020/// M05/M08 Q1021=
201601031320 METAR ESMX 031320Z AUTO 09007KT 050V120 9999 -SN FEW014/// SCT016/// BKN018/// M05/M08 Q1022=
201601031250 METAR ESMX 031250Z AUTO 10006KT 060V130 9999 -SN BKN014/// OVC040/// M05/M08 Q1022=
201601031220 METAR ESMX 031220Z AUTO 09006KT 030V150 9999 -SN FEW014/// SCT016/// OVC040/// M05/M08 Q1023=
201601031150 METAR ESMX 031150Z AUTO 10007KT 030V150 9999 -SN SCT014/// OVC040/// M05/M08 Q1024=
201601031120 METAR ESMX 031120Z AUTO 09007KT 040V120 9999 -SN FEW015/// SCT023/// BKN041/// M05/M08 Q1024=
201601031050 METAR ESMX 031050Z AUTO 09007KT 050V140 9999 -SN FEW013/// BKN040/// M05/M07 Q1025=
201601031020 METAR ESMX 031020Z AUTO 09007KT 050V120 9999 -SN FEW014/// BKN039/// M05/M08 Q1025=
201601030950 METAR ESMX 030950Z AUTO 09006KT 050V130 9999 -SN FEW028/// OVC038/// M05/M08 Q1025=
201601030920 METAR ESMX 030920Z AUTO 09006KT 050V130 9999 -SN FEW021/// BKN037/// M05/M08 Q1026=
201601030850 METAR ESMX 030850Z AUTO 09006KT 020V150 9999 -SN BKN037/// M05/M08 Q1026=
201601030820 METAR ESMX 030820Z AUTO 10006KT 050V140 7000 -SN FEW021/// BKN036/// M05/M08 Q1027=
201601030750 METAR ESMX 030750Z 09006KT 040V130 7000 -SN SCT015 BKN035 M05/M08 Q1027=
201601030720 METAR ESMX 030720Z 09006KT 030V140 9999 -SN SCT015 BKN035 M05/M08 Q1027=
201601030650 METAR ESMX 030650Z 09006KT 030V140 8000 -SN SCT015 BKN035 M05/M07 Q1027=
201601030620 METAR COR ESMX 030620Z 08006KT 030V120 7000 -SN SCT011 BKN035 M05/M07 Q1027=
201601030550 METAR ESMX 030550Z AUTO 09007KT 030V110 7000 -SN FEW010/// SCT014/// BKN033/// M05/M07 Q1028=
201601030520 METAR ESMX 030520Z AUTO 08005KT 030V140 7000 -SN FEW009/// SCT012/// BKN016/// M05/M07 Q1028=
201601030450 METAR ESMX 030450Z AUTO 08006KT 020V130 8000 -SN FEW009/// SCT011/// BKN015/// M05/M07 Q1028=
201601030420 METAR ESMX 030420Z AUTO 09006KT 030V120 7000 -SN FEW009/// SCT014/// BKN037/// M05/M07 Q1028=
201601030350 METAR ESMX 030350Z AUTO 09005KT 030V210 6000 -SN FEW009/// BKN014/// BKN037/// M05/M07 Q1029=
201601030320 METAR ESMX 030320Z AUTO 09006KT 050V120 4700 -SN FEW009/// SCT014/// BKN018/// M05/M06 Q1029=
201601030250 METAR ESMX 030250Z AUTO 08006KT 010V110 2400 -SN SCT010/// BKN014/// BKN033/// M05/M06 Q1030=
201601030220 METAR ESMX 030220Z AUTO 09006KT 040V120 4600 -SN FEW011/// SCT014/// BKN016/// M05/M06 Q1030=
201601030150 METAR ESMX 030150Z AUTO 08007KT 050V120 4400 -SN FEW013/// SCT020/// BKN035/// M05/M06 Q1030=
201601030120 METAR ESMX 030120Z AUTO 08007KT 050V110 4600 -SN FEW007/// SCT020/// BKN034/// M05/M07 Q1030=
201601030050 METAR ESMX 030050Z AUTO 09006KT 050V130 3300 -SN FEW006/// SCT016/// BKN025/// M05/M07 Q1030=
201601030020 METAR ESMX 030020Z AUTO 07007KT 020V120 4300 -SN FEW017/// BKN026/// M04/M07 Q1031=
201601022350 METAR ESMX 022350Z AUTO 08008KT 050V110 7000 -SN FEW018/// OVC025/// M04/M07 Q1031=
201601022320 METAR ESMX 022320Z AUTO 09007KT 050V120 6000 -SN FEW009/// SCT026/// OVC030/// M04/M07 Q1031=
201601022250 METAR ESMX 022250Z AUTO 09006KT 040V140 9999 -SN FEW009/// OVC030/// M04/M07 Q1031=
201601022220 METAR ESMX 022220Z AUTO 09006KT 050V130 8000 -SN FEW016/// OVC027/// M04/M07 Q1031=
201601022150 METAR ESMX 022150Z 09008KT 050V110 9999 -SN FEW018 BKN023 M05/M07 Q1031=
201601022120 METAR ESMX 022120Z 09007KT 020V140 9999 -SN BKN020 M05/M08 Q1031=
201601022050 METAR ESMX 022050Z 10007KT 060V140 9999 -SN FEW019 OVC025 M05/M08 Q1032=
201601022020 METAR ESMX 022020Z 10007KT 050V160 8000 -SN FEW018 OVC023 M05/M08 Q1032=
201601021950 METAR ESMX 021950Z 09009KT 030V120 7000 -SN FEW019 OVC025 M05/M08 Q1032=
201601021920 METAR ESMX 021920Z 09010KT 050V140 8000 -SN FEW018 BKN024 M05/M08 Q1032=
201601021850 METAR ESMX 021850Z AUTO 09008KT 050V140 9999 -SN FEW021/// OVC026/// M05/M08 Q1032=
201601021820 METAR ESMX 021820Z AUTO 09008KT 030V150 9999 -SN FEW019/// OVC027/// M05/M08 Q1032=
201601021750 METAR ESMX 021750Z AUTO 09008KT 020V150 9000 -SN FEW018/// OVC027/// M05/M08 Q1032=
201601021720 METAR ESMX 021720Z AUTO 09009KT 060V140 9000 -SN FEW018/// SCT027/// OVC033/// M05/M08 Q1032=
201601021650 METAR ESMX 021650Z AUTO 10009KT 040V150 9999 -SN FEW015/// SCT019/// BKN023/// M05/M08 Q1032=
201601021620 METAR ESMX 021620Z AUTO 10007KT 040V150 9999 -SN FEW014/// SCT018/// BKN025/// M05/M08 Q1032=
201601021550 METAR ESMX 021550Z AUTO 09010KT 050V130 9999 -SN FEW016/// BKN021/// OVC034/// M04/M08 Q1032=
201601021520 METAR ESMX 021520Z AUTO 08008KT 040V120 9000 -SN FEW019/// OVC022/// M04/M07 Q1032=
201601021450 METAR ESMX 021450Z AUTO 09008KT 030V150 9999 -SN FEW018/// SCT023/// OVC028/// M04/M08 Q1032=
201601021420 METAR ESMX 021420Z AUTO 08008KT 040V120 6000 -SN FEW015/// SCT019/// OVC026/// M04/M07 Q1032=
201601021350 METAR ESMX 021350Z AUTO 08008KT 060V120 9999 -SN FEW017/// SCT020/// OVC023/// M04/M07 Q1032=
201601021320 METAR ESMX 021320Z AUTO 08007KT 050V150 9999 -SN FEW013/// OVC027/// M04/M07 Q1032=
201601021250 METAR ESMX 021250Z 08009KT 040V120 9999 -SN FEW013 BKN030 M04/M07 Q1032=
201601021220 METAR ESMX 021220Z 07006KT 030V110 7000 -SN SCT014 BKN027 M04/M07 Q1032=
201601021150 METAR COR ESMX 021150Z 08007KT 020V120 7000 -SN FEW015 BKN025 M04/M07 Q1032=
201601021120 METAR ESMX 021120Z 09008KT 050V120 7000 -SN FEW009 BKN020 M04/M07 Q1032=
201601021050 METAR ESMX 021050Z AUTO 08007KT 040V110 6000 -SN FEW018/// BKN021/// M04/M07 Q1032=
201601021020 METAR ESMX 021020Z AUTO 09008KT 030V150 9999 -SN OVC022/// M04/M08 Q1032=
201601020950 METAR ESMX 020950Z AUTO 10010KT 050V150 9999 -SN OVC022/// M04/M08 Q1032=
201601020920 METAR ESMX 020920Z AUTO 10009KT 030V160 9999 -SN OVC023/// M04/M08 Q1032=
201601020850 METAR ESMX 020850Z AUTO 10008KT 060V150 9999 -SN OVC021/// M04/M08 Q1032=
201601020820 METAR ESMX 020820Z AUTO 10008G19KT 040V190 9999 SG OVC022/// M03/M07 Q1032 RESHUP=
201601020750 METAR ESMX 020750Z AUTO 09008KT 050V130 9999 OVC020/// M03/M07 Q1032 REUP RESHUP=
201601020720 METAR ESMX 020720Z AUTO 10008KT 060V150 9999 OVC020/// M03/M07 Q1031=
201601020650 METAR ESMX 020650Z AUTO 09009KT 040V130 9999 FZUP OVC021/// M03/M07 Q1031 REUP=
201601020620 METAR ESMX 020620Z AUTO 09008G19KT 050V140 9999 OVC020/// M03/M07 Q1031 RESHUP=
201601020550 METAR ESMX 020550Z AUTO 08007KT 020V140 9999 FZUP OVC020/// M03/M06 Q1031 REFZUP=
201601020520 METAR ESMX 020520Z AUTO VRB08KT 9999 OVC020/// M03/M07 Q1031=
201601020450 METAR ESMX 020450Z AUTO 10008G18KT 050V140 9999 OVC021/// M03/M07 Q1031=
201601020420 METAR ESMX 020420Z AUTO 10008KT 060V150 9999 OVC020/// M03/M06 Q1031=
201601020350 METAR ESMX 020350Z AUTO 10009KT 050V120 9999 OVC020/// M03/M06 Q1031=
201601020320 METAR ESMX 020320Z AUTO 09008KT 030V150 9999 OVC020/// M03/M06 Q1031=
201601020250 METAR ESMX 020250Z AUTO 09008KT 050V120 9999 OVC022/// M03/M06 Q1031=
201601020220 METAR ESMX 020220Z AUTO 10007KT 060V170 9999 OVC020/// M02/M06 Q1030=
201601020150 METAR ESMX 020150Z AUTO 09009KT 030V140 9999 OVC021/// M02/M05 Q1030=
201601020120 METAR ESMX 020120Z AUTO 09006KT 030V160 9999 OVC024/// M02/M06 Q1030=
201601020050 METAR ESMX 020050Z AUTO 09007KT 030V150 9999 OVC022/// M02/M05 Q1030=
201601020020 METAR ESMX 020020Z AUTO 10007KT 040V140 9999 OVC023/// M02/M05 Q1030=
201601012350 METAR ESMX 012350Z AUTO 09006KT 070V140 9999 OVC023/// M02/M04 Q1030=
201601012320 METAR ESMX 012320Z AUTO 09005KT 010V180 9999 OVC022/// M02/M04 Q1030=
201601012250 METAR ESMX 012250Z AUTO 09005KT 050V130 9999 OVC024/// M01/M03 Q1029=
201601012220 METAR ESMX 012220Z AUTO 09005KT 010V120 9999 BKN026/// OVC055/// M01/M03 Q1029=
201601012150 METAR ESMX 012150Z AUTO 09006KT 060V150 9999 BKN026/// OVC073/// M01/M03 Q1029=
201601012120 METAR ESMX 012120Z AUTO 09005KT 060V120 9999 OVC054/// M01/M02 Q1029=
201601012050 METAR ESMX 012050Z AUTO 10005KT 060V130 9999 OVC060/// M01/M02 Q1029=
201601012020 METAR ESMX 012020Z AUTO 10004KT 060V160 9999 OVC057/// M01/M02 Q1029=
201601011950 METAR ESMX 011950Z AUTO 09004KT 050V140 9999 OVC046/// M01/M02 Q1028=
201601011920 METAR ESMX 011920Z AUTO 09004KT 050V140 9999 FEW038/// BKN043/// M01/M02 Q1028=
201601011850 METAR ESMX 011850Z AUTO 10003KT 060V140 9999 BKN034/// M01/M02 Q1028=
201601011820 METAR ESMX 011820Z AUTO VRB02KT 9999 FEW018/// SCT030/// BKN035/// M01/M02 Q1028=
201601011750 METAR ESMX 011750Z AUTO VRB02KT 9999 OVC026/// M01/M02 Q1028=
201601011720 METAR ESMX 011720Z AUTO 09004KT 050V120 9999 BKN028/// OVC038/// M01/M02 Q1027 RESHUP=
201601011650 METAR ESMX 011650Z AUTO 08004KT 050V120 8000 FZUP OVC025/// M01/M01 Q1027 RESN=
201601011620 METAR ESMX 011620Z AUTO VRB02KT 8000 BR OVC025/// M00/M01 Q1027=
201601011550 METAR ESMX 011550Z AUTO VRB03KT 8000 SG OVC024/// M00/M01 Q1027=
201601011520 METAR ESMX 011520Z AUTO VRB01KT 6000 SG FEW020/// OVC024/// M00/M01 Q1027=
201601011450 METAR ESMX 011450Z AUTO 00000KT 5000 -SN OVC023/// M00/M01 Q1027=
201601011420 METAR ESMX 011420Z 11003KT 080V180 6000 -RASN FEW022 M00/M01 Q1026=
201601011350 METAR ESMX 011350Z VRB03KT 6000 -SN BKN040 M00/M01 Q1026=
201601011320 METAR ESMX 011320Z 11004KT 080V160 4200 -SN FEW005 BKN007 M00/M01 Q1026=
201601011250 METAR ESMX 011250Z 11003KT 060V160 2500 SN FEW004 BKN006 OVC009 M00/M00 Q1026=
201601011220 METAR ESMX 011220Z 12003KT 070V160 2400 SN FEW004 SCT005 BKN007 M00/M00 Q1025=
