##########################################################
# Query made at 04/19/2024 21:51:29 UTC
# Time interval: from 05/01/2016 12:00  to 05/31/2016 12:59  UTC
##########################################################

##########################################################
# ESMX, Vaxjo (Sweden)
# WMO index: 02641. WIGOS ID: 0-20000-0-02648
# Latitude 56-51N. Longitude 014-50E. Altitude 199 m.
##########################################################

201605311250 METAR ESMX 311250Z 09010KT 050V150 9999 FEW048 27/13 Q1017=
201605311220 METAR ESMX 311220Z 09010KT 050V160 9999 FEW045 SCT060 27/14 Q1017=
201605311150 METAR ESMX 311150Z 09008KT 050V160 9999 FEW046 SCT056 26/14 Q1017=
201605311120 METAR ESMX 311120Z 07011KT 040V100 9999 SCT042 26/15 Q1017=
201605311050 METAR COR ESMX 311050Z 08010KT 040V140 9999 FEW040 SCT046 25/16 Q1017=
201605311020 METAR ESMX 311020Z 06009KT 020V110 9999 FEW041 24/15 Q1017=
201605310950 METAR ESMX 310950Z 06011KT 030V110 CAVOK 24/15 Q1017=
201605310920 METAR ESMX 310920Z 07008KT 030V140 CAVOK 23/14 Q1017=
201605310850 METAR ESMX 310850Z 04010KT CAVOK 23/15 Q1017=
201605310820 METAR ESMX 310820Z 04009KT CAVOK 22/15 Q1017=
201605310750 METAR ESMX 310750Z 04009KT CAVOK 21/14 Q1017=
201605310720 METAR ESMX 310720Z 04009KT 020V090 CAVOK 19/14 Q1017=
201605310650 METAR ESMX 310650Z 03010KT 010V070 CAVOK 18/13 Q1017=
201605310620 METAR ESMX 310620Z 03010KT CAVOK 17/13 Q1017=
201605310550 METAR ESMX 310550Z 03010KT CAVOK 16/12 Q1017=
201605310520 METAR ESMX 310520Z 04009KT 010V070 CAVOK 16/12 Q1017=
201605310450 METAR ESMX 310450Z 04009KT 010V080 CAVOK 15/12 Q1017=
201605310420 METAR ESMX 310420Z 03010KT CAVOK 15/12 Q1017=
201605310350 METAR ESMX 310350Z 03009KT CAVOK 14/12 Q1016=
201605310320 METAR ESMX 310320Z AUTO 03010KT 9999 NCD 14/12 Q1017=
201605310250 METAR ESMX 310250Z AUTO 03009KT 9999 FEW039/// 14/12 Q1016=
201605310220 METAR ESMX 310220Z AUTO 03009KT 9999 FEW036/// 14/12 Q1016=
201605310150 METAR ESMX 310150Z AUTO 03009KT 9999 SCT037/// BKN048/// 14/12 Q1016=
201605310120 METAR ESMX 310120Z AUTO 03009KT 9999 FEW041/// SCT058/// 14/12 Q1016=
201605310050 METAR ESMX 310050Z AUTO 04013KT 9999 FEW045/// SCT093/// 15/11 Q1016=
201605310020 METAR ESMX 310020Z AUTO 04010KT 9999 NCD 15/11 Q1017=
201605302350 METAR ESMX 302350Z 04011KT CAVOK 15/11 Q1016=
201605302320 METAR ESMX 302320Z 03011KT CAVOK 15/11 Q1016=
201605302250 METAR ESMX 302250Z AUTO 04011KT 9999 NCD 16/12 Q1017=
201605302220 METAR ESMX 302220Z 04011KT 9999 FEW049 16/12 Q1017=
201605302150 METAR ESMX 302150Z 04012KT CAVOK 17/12 Q1017=
201605302120 METAR ESMX 302120Z 04011KT 030V090 CAVOK 17/12 Q1017=
201605302050 METAR ESMX 302050Z 04010KT CAVOK 17/12 Q1017=
201605302020 METAR ESMX 302020Z 05012KT CAVOK 18/11 Q1017=
201605301950 METAR ESMX 301950Z 06011KT 030V110 CAVOK 19/11 Q1017=
201605301920 METAR ESMX 301920Z 06011KT 030V090 CAVOK 20/10 Q1016=
201605301850 METAR ESMX 301850Z 06012KT 030V100 CAVOK 21/11 Q1016=
201605301820 METAR ESMX 301820Z 06011KT 020V080 CAVOK 22/13 Q1016=
201605301750 METAR ESMX 301750Z 06010KT 030V110 CAVOK 22/12 Q1016=
201605301720 METAR ESMX 301720Z 07009KT 030V110 CAVOK 23/12 Q1016=
201605301650 METAR ESMX 301650Z 07011KT 030V110 CAVOK 23/12 Q1015=
201605301620 METAR ESMX 301620Z 05011KT 020V110 9999 FEW045 24/12 Q1015=
201605301550 METAR ESMX 301550Z 06011KT 030V120 9999 FEW048 24/12 Q1015=
201605301520 METAR ESMX 301520Z 08010KT 040V110 9999 FEW047 24/12 Q1015=
201605301450 METAR ESMX 301450Z 07011KT 030V110 9999 FEW046 SCT054 24/13 Q1016=
201605301420 METAR ESMX 301420Z 09008KT 030V130 9999 SCT047 25/13 Q1016=
201605301350 METAR ESMX 301350Z 09011KT 040V120 9999 SCT048 25/13 Q1016=
201605301320 METAR ESMX 301320Z 08011KT 050V120 9999 SCT045 25/13 Q1016=
201605301250 METAR ESMX 301250Z 08011KT 040V120 9999 SCT045 25/13 Q1016=
201605301220 METAR ESMX 301220Z 09008KT 030V150 9999 SCT045 25/13 Q1016=
201605301150 METAR ESMX 301150Z 08010KT 040V140 9999 FEW044 SCT051 25/13 Q1016=
201605301120 METAR ESMX 301120Z 09011KT 040V120 9999 FEW045 25/13 Q1016=
201605301050 METAR ESMX 301050Z 07011KT 040V110 9999 FEW041 24/13 Q1016=
201605301020 METAR ESMX 301020Z 08012KT 020V130 9999 FEW040 24/14 Q1016=
201605300950 METAR ESMX 300950Z 06010KT 030V110 CAVOK 23/14 Q1016=
201605300920 METAR ESMX 300920Z 06010KT 030V100 CAVOK 23/14 Q1016=
201605300750 METAR ESMX 300750Z 04010KT 020V080 CAVOK 19/13 Q1016=
201605300720 METAR COR ESMX 300720Z 04010KT CAVOK 19/12 Q1017=
201605300650 METAR ESMX 300650Z 04011KT CAVOK 17/12 Q1016=
201605300620 METAR COR ESMX 300620Z 04010KT CAVOK 16/12 Q1016=
201605300550 METAR ESMX 300550Z 04010KT 020V080 CAVOK 15/11 Q1016=
201605300520 METAR COR ESMX 300520Z 04011KT CAVOK 14/11 Q1016=
201605300450 METAR ESMX 300450Z 04010KT 020V080 CAVOK 14/11 Q1016=
201605300420 METAR ESMX 300420Z 04011KT CAVOK 13/10 Q1016=
201605300350 METAR ESMX 300350Z 04010KT 9999 SCT048 BKN063 13/10 Q1016=
201605300320 METAR ESMX 300320Z AUTO 04010KT 9999 FEW051/// 12/10 Q1016=
201605300250 METAR ESMX 300250Z AUTO 04010KT 9999 NCD 12/10 Q1017=
201605300220 METAR ESMX 300220Z AUTO 03010KT 9999 NCD 12/10 Q1017=
201605300150 METAR ESMX 300150Z AUTO 03010KT 9999 NCD 12/10 Q1016=
201605300120 METAR ESMX 300120Z AUTO 04008KT 020V080 9999 NCD 12/10 Q1017=
201605300050 METAR ESMX 300050Z AUTO 04009KT 9999 NCD 12/10 Q1017=
201605300020 METAR ESMX 300020Z AUTO 04009KT 9999 NCD 13/10 Q1017=
201605292350 METAR ESMX 292350Z AUTO 04009KT 010V070 9999 NCD 13/10 Q1017=
201605292320 METAR ESMX 292320Z 05008KT 010V090 CAVOK 13/10 Q1017=
201605292250 METAR ESMX 292250Z 05008KT 020V090 CAVOK 14/10 Q1017=
201605292220 METAR ESMX 292220Z 05010KT 020V080 CAVOK 14/10 Q1017=
201605292150 METAR ESMX 292150Z 05008KT 020V080 CAVOK 15/11 Q1017=
201605292120 METAR ESMX 292120Z 05010KT 020V090 CAVOK 16/11 Q1017=
201605292050 METAR ESMX 292050Z 05008KT 020V100 CAVOK 17/11 Q1017=
201605292020 METAR ESMX 292020Z 06007KT 030V110 CAVOK 17/11 Q1017=
201605291950 METAR ESMX 291950Z 05006KT 010V100 CAVOK 17/12 Q1016=
201605291920 METAR ESMX 291920Z 05007KT 010V100 CAVOK 18/12 Q1016=
201605291850 METAR ESMX 291850Z 06008KT 030V110 CAVOK 18/13 Q1016=
201605291820 METAR ESMX 291820Z 07008KT 030V110 CAVOK 19/14 Q1016=
201605291750 METAR ESMX 291750Z 08007KT 050V130 CAVOK 20/13 Q1016=
201605291720 METAR ESMX 291720Z 07009KT 030V120 CAVOK 21/13 Q1015=
201605291650 METAR ESMX 291650Z AUTO 07007KT 040V110 9999 FEW067/// 22/13 Q1015=
201605291620 METAR ESMX 291620Z AUTO 07008KT 030V110 9999 NCD 22/14 Q1015=
201605291550 METAR ESMX 291550Z 07009KT 030V110 9999 FEW040 22/13 Q1015=
201605291520 METAR ESMX 291520Z 07009KT 030V140 9999 FEW040 23/14 Q1015=
201605291450 METAR ESMX 291450Z 06007KT 010V130 9999 FEW041 23/13 Q1015=
201605291420 METAR ESMX 291420Z 09008KT 050V140 9999 FEW048 23/13 Q1015=
201605291350 METAR ESMX 291350Z 08008KT 040V120 9999 SCT045 22/13 Q1015=
201605291320 METAR ESMX 291320Z 08009KT 030V150 9999 FEW041 SCT059 BKN071 22/13 Q1015=
201605291250 METAR ESMX 291250Z 07007KT 030V140 9999 SCT039 BKN050 22/13 Q1015=
201605291220 METAR ESMX 291220Z 09006KT 040V150 9999 FEW038 BKN048 23/14 Q1015=
201605291150 METAR ESMX 291150Z 09006KT 030V140 9999 FEW034 BKN039 22/13 Q1015=
201605291120 METAR ESMX 291120Z 04008KT 020V080 9999 FEW026 SCT038 BKN045 20/14 Q1015=
201605291050 METAR ESMX 291050Z 04009KT 9999 FEW026 SCT048 21/14 Q1015=
201605291020 METAR ESMX 291020Z AUTO 04011KT 9999 FEW058/// 20/14 Q1015=
201605290950 METAR ESMX 290950Z AUTO 04008KT 9999 FEW019/// 19/14 Q1016=
201605290920 METAR ESMX 290920Z AUTO 05009KT 020V090 9999 SCT014/// BKN057/// 18/13 Q1016=
201605290850 METAR ESMX 290850Z AUTO 04008KT 010V080 9999 BKN013/// 17/13 Q1016=
201605290820 METAR ESMX 290820Z AUTO 05010KT 9999 BKN011/// 17/13 Q1016=
201605290750 METAR ESMX 290750Z AUTO 04009KT 9999 BKN009/// 17/13 Q1016=
201605290720 METAR ESMX 290720Z AUTO 04008KT 020V080 9999 FEW008/// BKN010/// BKN078/// 16/13 Q1016=
201605290650 METAR ESMX 290650Z AUTO 04007KT 9999 FEW007/// BKN008/// BKN011/// 14/12 Q1016=
201605290620 METAR ESMX 290620Z AUTO 04009KT 9999 OVC007/// 14/12 Q1016=
201605290550 METAR ESMX 290550Z AUTO 05009KT 9999 OVC006/// 13/11 Q1016=
201605290520 METAR ESMX 290520Z AUTO 04009KT 9999 BKN006/// BKN008/// 13/11 Q1016=
201605290450 METAR ESMX 290450Z AUTO 05008KT 9999 OVC005/// 13/11 Q1016=
201605290420 METAR ESMX 290420Z AUTO 04008KT 9999 OVC005/// 13/11 Q1016=
201605290350 METAR ESMX 290350Z AUTO 04009KT 9999 FEW006/// BKN007/// BKN039/// 13/11 Q1016=
201605290320 METAR ESMX 290320Z AUTO 04007KT 9999 SCT006/// OVC036/// 12/11 Q1016=
201605290250 METAR ESMX 290250Z AUTO 04008KT 9999 BKN006/// OVC009/// 12/11 Q1017=
201605290220 METAR ESMX 290220Z AUTO 04008KT 9999 SCT006/// BKN038/// OVC047/// 12/11 Q1017=
201605290150 METAR ESMX 290150Z AUTO 04009KT 9999 FEW007/// SCT008/// BKN043/// 12/11 Q1017=
201605290120 METAR ESMX 290120Z AUTO 03008KT 9999 BKN053/// 12/11 Q1017=
201605290050 METAR ESMX 290050Z AUTO 03007KT 9999 FEW069/// 12/11 Q1017=
201605290020 METAR ESMX 290020Z AUTO 03007KT 9999 SCT063/// BKN086/// 12/11 Q1017=
201605282350 METAR ESMX 282350Z AUTO 04008KT 9999 SCT064/// BKN080/// BKN093/// 13/11 Q1017=
201605282320 METAR ESMX 282320Z AUTO 04009KT 010V070 9999 BKN052/// BKN075/// 13/11 Q1017=
201605282250 METAR ESMX 282250Z AUTO 03008KT 9999 BKN055/// 14/12 Q1018=
201605282220 METAR ESMX 282220Z AUTO 04006KT 010V070 9999 FEW041/// SCT068/// BKN088/// 14/12 Q1018=
201605282150 METAR ESMX 282150Z AUTO 02006KT 9999 FEW038/// BKN042/// BKN110/// 14/12 Q1018=
201605282120 METAR ESMX 282120Z AUTO 03005KT 9999 BKN038/// BKN057/// 14/12 Q1018=
201605282050 METAR ESMX 282050Z AUTO 03006KT 9999 OVC050/// 14/12 Q1018=
201605282020 METAR ESMX 282020Z AUTO 05006KT 020V080 9999 BKN064/// 14/12 Q1018=
201605281950 METAR ESMX 281950Z AUTO 04008KT 9999 FEW039/// BKN060/// BKN081/// 14/12 Q1019=
201605281920 METAR ESMX 281920Z AUTO 05007KT 020V080 9999 FEW037/// BKN071/// BKN099/// 15/12 Q1019=
201605281850 METAR ESMX 281850Z AUTO 07008KT 030V100 9999 FEW016/// BKN075/// 15/12 Q1019=
201605281820 METAR ESMX 281820Z AUTO 06007KT 020V100 9999 BKN038/// 16/11 Q1018=
201605281750 METAR ESMX 281750Z AUTO 07006KT 040V120 9999 FEW037/// SCT042/// BKN096/// 16/11 Q1018=
201605281720 METAR ESMX 281720Z AUTO 07006KT 030V100 9999 -DZ FEW029/// SCT038/// BKN050/// 17/11 Q1018=
201605281650 METAR ESMX 281650Z AUTO 06007KT 030V100 9999 FEW029/// BKN044/// 17/11 Q1018=
201605281620 METAR ESMX 281620Z AUTO 07008KT 030V110 9999 BKN028/// 18/11 Q1019=
201605281550 METAR ESMX 281550Z AUTO 06006KT 020V110 9999 BKN027/// 17/11 Q1019=
201605281520 METAR ESMX 281520Z AUTO 04008KT 9999 BKN027/// 17/11 Q1019=
201605281450 METAR ESMX 281450Z AUTO 05009KT 9999 BKN026/// 17/11 Q1019=
201605281420 METAR ESMX 281420Z AUTO 03007KT 010V070 9999 FEW029/// SCT046/// 17/10 Q1019=
201605281350 METAR ESMX 281350Z AUTO 04007KT 010V080 9999 FEW027/// SCT045/// BKN053/// 17/10 Q1019=
201605281320 METAR ESMX 281320Z AUTO 01005KT 9999 RA OVC027/// 15/11 Q1019 RERA=
201605281250 METAR ESMX 281250Z AUTO 03003KT 350V070 9999 FEW011/// OVC027///=
201605281220 METAR ESMX 281220Z AUTO 06007KT 030V100 9999 DZ FEW026/// OVC033///=
201605281150 METAR ESMX 281150Z AUTO 05006KT 010V120 9999 SCT035/// BKN064/// 18/09 Q1019=
201605281120 METAR ESMX 281120Z AUTO 05008KT 010V130 9999 FEW035/// SCT061/// 18/08 Q1019=
201605281050 METAR ESMX 281050Z AUTO 07006KT 020V130 9999 SCT031/// 18/07 Q1019=
201605281020 METAR ESMX 281020Z AUTO 06007KT 020V110 9999 FEW032/// SCT038/// BKN043/// 18/10 Q1019=
201605280950 METAR ESMX 280950Z AUTO 05009KT 020V090 9999 FEW035/// BKN040/// 17/09 Q1020=
201605280920 METAR ESMX 280920Z AUTO 04007KT 010V080 9999 FEW028/// 17/09 Q1020=
201605280850 METAR ESMX 280850Z AUTO 04006KT 020V080 9000 FEW024/// SCT037/// 16/10 Q1020=
201605280820 METAR ESMX 280820Z AUTO 05007KT 020V120 9999 SCT022/// BKN032/// BKN037/// 16/10 Q1020=
201605280750 METAR ESMX 280750Z AUTO 04006KT 020V100 9999 BKN021/// 15/10 Q1020=
201605280720 METAR ESMX 280720Z AUTO 05005KT 360V100 9999 NCD 15/09 Q1020=
201605280650 METAR ESMX 280650Z AUTO 05004KT 010V160 9999 BKN056/// 15/09 Q1020=
201605280620 METAR ESMX 280620Z AUTO 08005KT 040V120 9999 FEW030/// BKN061/// 14/09 Q1020=
201605280550 METAR ESMX 280550Z AUTO 06006KT 020V110 9999 SCT026/// BKN062/// 13/09 Q1020=
201605280520 METAR ESMX 280520Z AUTO 07005KT 030V100 5000 FEW026/// OVC059/// 12/09 Q1019=
201605280450 METAR ESMX 280450Z AUTO 09004KT 050V120 6000 OVC059/// 12/09 Q1019=
201605280420 METAR ESMX 280420Z AUTO 07003KT 030V110 9999 OVC059/// 11/09 Q1019=
201605280350 METAR ESMX 280350Z AUTO 09004KT 070V140 9999 OVC059/// 11/08 Q1019=
201605280320 METAR ESMX 280320Z AUTO VRB03KT 9999 OVC060/// 11/09 Q1019=
201605280250 METAR ESMX 280250Z AUTO VRB03KT 9999 FEW026/// SCT031/// BKN039/// 11/09 Q1020=
201605280220 METAR ESMX 280220Z AUTO 08003KT 040V120 9999 BKN025/// OVC036/// 11/10 Q1019=
201605280150 METAR ESMX 280150Z AUTO 07003KT 030V100 9999 OVC025/// 11/10 Q1019=
201605280120 METAR ESMX 280120Z AUTO 08003KT 050V110 9999 OVC024/// 11/10 Q1019=
201605280050 METAR ESMX 280050Z AUTO 07004KT 040V110 9999 BKN023/// OVC062/// 12/10 Q1019=
201605280020 METAR ESMX 280020Z AUTO 06003KT 030V110 9999 FEW009/// OVC062/// 12/10 Q1019=
201605272350 METAR ESMX 272350Z AUTO 05004KT 9999 BKN009/// OVC062/// 12/10 Q1019=
201605272320 METAR ESMX 272320Z AUTO 04004KT 9999 FEW010/// OVC058/// 12/10 Q1019=
201605272250 METAR ESMX 272250Z AUTO 05004KT 9999 SCT027/// BKN034/// OVC060/// 12/10 Q1019=
201605272220 METAR ESMX 272220Z AUTO 07003KT 9999 OVC025/// 12/09 Q1019=
201605272150 METAR ESMX 272150Z AUTO VRB03KT 9999 BKN024/// OVC059/// 13/09 Q1019=
201605272120 METAR ESMX 272120Z AUTO 06003KT 010V110 9999 OVC024/// 13/09 Q1019=
201605272050 METAR ESMX 272050Z AUTO 08004KT 050V110 9999 OVC023/// 13/09 Q1019=
201605272020 METAR ESMX 272020Z AUTO 06005KT 9999 BKN023/// OVC058/// 13/10 Q1019=
201605271950 METAR ESMX 271950Z AUTO 05005KT 030V090 9999 SCT022/// OVC054/// 13/10 Q1019=
201605271920 METAR ESMX 271920Z 07003KT 9999 SCT022 BKN046 14/10 Q1019=
201605271850 METAR ESMX 271850Z VRB03KT 9999 SCT020 OVC044 14/10 Q1019=
201605271820 METAR ESMX 271820Z 04003KT 9999 BR FEW021 BKN043 14/10 Q1018=
201605271750 METAR ESMX 271750Z VRB02KT 9999 BKN041 14/10 Q1018=
201605271720 METAR ESMX 271720Z 36003KT 9999 SCT032 OVC041 15/10 Q1018=
201605271650 METAR ESMX 271650Z 01004KT 290V030 9999 FEW036 BKN040 15/10 Q1018=
201605271620 METAR ESMX 271620Z 33004KT 300V020 9999 FEW035 OVC044 15/09 Q1018=
201605271550 METAR COR ESMX 271550Z 34004KT 310V030 9999 BKN039 15/10 Q1018=
201605271520 METAR ESMX 271520Z 33005KT 300V010 9999 BKN033 15/09 Q1018=
201605271450 METAR ESMX 271450Z 31006KT 9999 BKN033 15/09 Q1018=
201605271420 METAR ESMX 271420Z 31004KT 9999 BKN034 15/09 Q1018=
201605271350 METAR ESMX 271350Z 30004KT 260V340 9999 BKN032 15/08 Q1018=
201605271320 METAR ESMX 271320Z VRB02KT 9999 BKN030 15/08 Q1018=
201605271250 METAR ESMX 271250Z VRB03KT 9999 SCT024 BKN029 15/09 Q1018=
201605271220 METAR ESMX 271220Z 31003KT 260V040 9999 FEW022 BKN028 15/09 Q1018=
201605271150 METAR ESMX 271150Z 34004KT 310V020 9999 BKN024 14/09 Q1018=
201605271120 METAR ESMX 271120Z 29005KT 250V010 9999 FEW021 OVC025 14/09 Q1018=
201605271050 METAR ESMX 271050Z 32004KT 270V360 9999 OVC021 14/08 Q1018=
201605271020 METAR ESMX 271020Z 34005KT 290V030 9999 OVC021 14/08 Q1018=
201605270950 METAR ESMX 270950Z 30005KT 250V340 9999 OVC019 14/08 Q1018=
201605270920 METAR ESMX 270920Z VRB03KT 9999 OVC020 13/08 Q1018=
201605270850 METAR ESMX 270850Z 35004KT 320V030 9999 OVC022 13/08 Q1017=
201605270820 METAR ESMX 270820Z 02006KT 330V050 9999 OVC020 13/08 Q1017=
201605270750 METAR ESMX 270750Z 30004KT 250V330 9999 BKN021 13/08 Q1017=
201605270720 METAR ESMX 270720Z 31004KT 260V340 9999 BKN020 13/08 Q1017=
201605270650 METAR ESMX 270650Z 31004KT 280V360 9999 BKN020 13/08 Q1017=
201605270620 METAR ESMX 270620Z 31006KT 250V330 9999 BKN018 13/07 Q1017=
201605270550 METAR ESMX 270550Z 32007KT 280V010 9999 SCT017 BKN023 12/08 Q1017=
201605270520 METAR ESMX 270520Z 30006KT 9999 SCT025 12/08 Q1016=
201605270450 METAR ESMX 270450Z 29005KT 260V330 9999 BKN023 11/07 Q1016=
201605270420 METAR ESMX 270420Z 26004KT 9999 BKN020 10/07 Q1016=
201605270350 METAR ESMX 270350Z 26004KT 9999 BKN020 10/07 Q1016=
201605270320 METAR ESMX 270320Z AUTO 28003KT 9999 OVC020/// 09/07 Q1016=
201605270250 METAR ESMX 270250Z AUTO 27004KT 9999 OVC020/// 09/06 Q1016=
201605270220 METAR ESMX 270220Z AUTO 28004KT 250V320 9999 OVC021/// 08/06 Q1017=
201605270150 METAR ESMX 270150Z AUTO 25003KT 9999 BKN020/// 07/06 Q1017=
201605270120 METAR ESMX 270120Z AUTO 24004KT 9999 NCD 06/05 Q1016=
201605270050 METAR ESMX 270050Z AUTO VRB02KT 9999 NCD 07/05 Q1017=
201605270020 METAR ESMX 270020Z AUTO 28003KT 9999 NCD 06/04 Q1016=
201605262350 METAR ESMX 262350Z AUTO 29004KT 9999 NCD 07/04 Q1016=
201605262320 METAR ESMX 262320Z 27003KT CAVOK 07/04 Q1016=
201605262250 METAR ESMX 262250Z 25005KT CAVOK 06/04 Q1016=
201605262220 METAR ESMX 262220Z 25003KT CAVOK 07/05 Q1016=
201605262150 METAR ESMX 262150Z 00000KT CAVOK 07/04 Q1016=
201605262120 METAR ESMX 262120Z 00000KT CAVOK 07/05 Q1016=
201605262050 METAR ESMX 262050Z VRB02KT CAVOK 08/05 Q1016=
201605262020 METAR ESMX 262020Z 31003KT CAVOK 10/05 Q1016=
201605261950 METAR ESMX 261950Z 34006KT CAVOK 11/04 Q1016=
201605261920 METAR ESMX 261920Z 34006KT CAVOK 12/04 Q1016=
201605261850 METAR ESMX 261850Z 33009KT CAVOK 13/04 Q1016=
201605261820 METAR ESMX 261820Z 35011KT 310V010 CAVOK 14/05 Q1016=
201605261750 METAR ESMX 261750Z 35011KT CAVOK 15/05 Q1016=
201605261720 METAR ESMX 261720Z 35011KT CAVOK 15/05 Q1015=
201605261650 METAR ESMX 261650Z 30006KT 280V340 CAVOK 17/04 Q1015=
201605261620 METAR ESMX 261620Z 31006KT 270V340 CAVOK 17/04 Q1015=
201605261550 METAR ESMX 261550Z 31008KT 290V350 CAVOK 18/05 Q1015=
201605261520 METAR ESMX 261520Z 33008KT 290V020 CAVOK 18/04 Q1015=
201605261450 METAR ESMX 261450Z 33009KT CAVOK 17/04 Q1015=
201605261420 METAR ESMX 261420Z 29010KT 260V340 CAVOK 18/04 Q1015=
201605261350 METAR ESMX 261350Z 29010KT 260V330 CAVOK 17/02 Q1015=
201605261320 METAR ESMX 261320Z 32008KT 270V010 CAVOK 19/04 Q1015=
201605261250 METAR ESMX 261250Z AUTO 31010KT 280V350 9999 BKN057/// 17/03 Q1015=
201605261220 METAR ESMX 261220Z 31009KT 290V350 CAVOK 18/04 Q1016=
201605261150 METAR ESMX 261150Z 32009KT 260V010 CAVOK 18/04 Q1016=
201605261120 METAR ESMX 261120Z 28006KT 220V330 9999 FEW045 SCT060 17/04 Q1016=
201605261050 METAR ESMX 261050Z 29007KT 250V350 9999 FEW047 SCT057 18/04 Q1016=
201605261020 METAR ESMX 261020Z 33007KT 270V050 9999 FEW045 SCT055 16/04 Q1016=
201605260950 METAR ESMX 260950Z 32008KT 270V010 9999 SCT048 16/04 Q1016=
201605260920 METAR ESMX 260920Z AUTO 33009KT 290V020 9999 FEW045/// 15/04 Q1016=
201605260850 METAR ESMX 260850Z 30008KT 9999 FEW037 15/06 Q1016=
201605260820 METAR ESMX 260820Z 35008KT 320V020 CAVOK 15/05 Q1017=
201605260750 METAR ESMX 260750Z 35005KT 250V060 CAVOK 14/06 Q1017=
201605260720 METAR ESMX 260720Z 04005KT 010V080 CAVOK 13/07 Q1017=
201605260650 METAR ESMX 260650Z 02005KT 330V060 CAVOK 12/06 Q1017=
201605260620 METAR ESMX 260620Z 02008KT CAVOK 11/05 Q1017=
201605260550 METAR ESMX 260550Z 36007KT CAVOK 10/06 Q1017=
201605260520 METAR ESMX 260520Z 01009KT CAVOK 10/07 Q1017=
201605260450 METAR ESMX 260450Z 36008KT CAVOK 09/07 Q1017=
201605260420 METAR ESMX 260420Z 34006KT CAVOK 08/08 Q1017=
201605260350 METAR ESMX 260350Z 34006KT CAVOK 06/06 Q1017=
201605260320 METAR ESMX 260320Z AUTO 32004KT 9999 NCD 05/05 Q1017=
201605260250 METAR ESMX 260250Z AUTO 30003KT 9999 NCD 05/05 Q1017=
201605260220 METAR ESMX 260220Z AUTO 33004KT 9999 NCD 06/06 Q1017=
201605260150 METAR ESMX 260150Z AUTO 33004KT 9999 NCD 07/06 Q1017=
201605260120 METAR ESMX 260120Z AUTO 35003KT 9999 FEW059/// 07/06 Q1017=
201605260050 METAR ESMX 260050Z AUTO 34005KT 9999 BKN051/// 09/07 Q1017=
201605260020 METAR ESMX 260020Z AUTO 02007KT 9999 OVC048/// 09/07 Q1017=
201605252350 METAR ESMX 252350Z AUTO 01006KT 350V060 9999 BKN044/// 09/08 Q1017=
201605252320 METAR ESMX 252320Z 02005KT 9999 OVC040 09/08 Q1017=
201605252250 METAR ESMX 252250Z 02004KT 9999 OVC037 09/08 Q1017=
201605252220 METAR ESMX 252220Z 03006KT 9999 FEW010 OVC030 09/08 Q1017=
201605252150 METAR COR ESMX 252150Z 04009KT 9999 DZ FEW010 BKN027 09/08 Q1017=
201605252120 METAR ESMX 252120Z 04010KT 9999 FEW014 BKN023 OVC030 10/07 Q1017=
201605252050 METAR ESMX 252050Z 03010KT 360V070 9999 FEW012 BKN015 10/07 Q1017=
201605252020 METAR ESMX 252020Z 02010KT 9999 SCT011 BKN016 OVC022 10/08 Q1017=
201605251950 METAR ESMX 251950Z 03012KT 9999 BKN011 10/08 Q1017=
201605251920 METAR ESMX 251920Z 02011KT 9999 OVC009 10/08 Q1017=
201605251850 METAR ESMX 251850Z 01011KT 9999 -DZ FEW010 SCT013 OVC024 10/09 Q1016=
201605251820 METAR ESMX 251820Z 01012KT 9999 -RA FEW008 BKN010 OVC021 11/09 Q1016=
201605251750 METAR ESMX 251750Z 02013KT 9999 -RA BKN012 11/09 Q1016=
201605251720 METAR ESMX 251720Z 01016KT 9999 -DZ FEW014 BKN048 12/09 Q1015=
201605251650 METAR ESMX 251650Z 01014KT 9999 BKN048 14/10 Q1015=
201605251620 METAR ESMX 251620Z 01014KT CAVOK 15/10 Q1015=
201605251550 METAR ESMX 251550Z 01012KT CAVOK 16/11 Q1015=
201605251520 METAR ESMX 251520Z 01010KT 9999 -SHRA FEW050CB BKN055 17/11 Q1015=
201605251450 METAR ESMX 251450Z 35011KT CAVOK 18/11 Q1014=
201605251420 METAR ESMX 251420Z 01011KT CAVOK 19/11 Q1014=
201605251350 METAR ESMX 251350Z 01009KT CAVOK 20/12 Q1014=
201605251320 METAR ESMX 251320Z 35008KT CAVOK 21/12 Q1014=
201605251250 METAR ESMX 251250Z 36007KT 330V030 CAVOK 21/10 Q1014=
201605251220 METAR ESMX 251220Z 36008KT CAVOK 20/10 Q1014=
201605251150 METAR ESMX 251150Z 35007KT CAVOK 20/10 Q1014=
201605251120 METAR ESMX 251120Z 02008KT CAVOK 19/11 Q1014=
201605251050 METAR ESMX 251050Z 03008KT 9999 BKN050 19/11 Q1015=
201605251020 METAR ESMX 251020Z 02009KT 9999 BKN048 19/11 Q1015=
201605250950 METAR ESMX 250950Z 01007KT 9999 FEW045 BKN055 17/11 Q1015=
201605250920 METAR ESMX 250920Z 01007KT 9999 BKN048 17/11 Q1015=
201605250850 METAR ESMX 250850Z 04005KT 350V090 9999 BKN048 16/11 Q1015=
201605250820 METAR ESMX 250820Z 06006KT 020V100 9999 BKN048 17/11 Q1015=
201605250750 METAR ESMX 250750Z 04006KT 340V080 CAVOK 16/11 Q1015=
201605250720 METAR ESMX 250720Z 02007KT CAVOK 15/10 Q1015=
201605250650 METAR ESMX 250650Z 02006KT CAVOK 15/10 Q1015=
201605250620 METAR ESMX 250620Z 02007KT CAVOK 14/09 Q1015=
201605250550 METAR ESMX 250550Z 04006KT 010V070 CAVOK 13/10 Q1014=
201605250520 METAR ESMX 250520Z 02007KT CAVOK 13/09 Q1014=
201605250450 METAR ESMX 250450Z 36007KT CAVOK 13/10 Q1014=
201605250420 METAR ESMX 250420Z 03005KT CAVOK 12/09 Q1014=
201605250350 METAR ESMX 250350Z 04006KT CAVOK 11/09 Q1014=
201605250320 METAR ESMX 250320Z 04008KT 9999 NSC 11/09 Q1014=
201605250250 METAR ESMX 250250Z AUTO 03006KT 9999 NCD 11/09 Q1014=
201605250220 METAR ESMX 250220Z AUTO 02005KT 9999 NCD 07/06 Q1014=
201605250150 METAR ESMX 250150Z AUTO 00000KT 9999 NCD 08/07 Q1014=
201605250120 METAR ESMX 250120Z AUTO VRB01KT 9999 NCD 09/08 Q1014=
201605250050 METAR ESMX 250050Z AUTO 07004KT 9999 NCD 11/09 Q1014=
201605250020 METAR ESMX 250020Z AUTO 08003KT 9999 NCD 10/10 Q1014=
201605242350 METAR ESMX 242350Z 07002KT CAVOK 10/08 Q1014=
201605242320 METAR ESMX 242320Z 06001KT CAVOK 11/09 Q1014=
201605242250 METAR ESMX 242250Z 09002KT CAVOK 11/09 Q1014=
201605242220 METAR ESMX 242220Z 00000KT CAVOK 12/09 Q1014=
201605242150 METAR ESMX 242150Z 10003KT 070V140 CAVOK 15/09 Q1013=
201605242120 METAR ESMX 242120Z 08002KT CAVOK 16/09 Q1013=
201605242050 METAR ESMX 242050Z VRB03KT CAVOK 17/10 Q1013=
201605242020 METAR ESMX 242020Z VRB02KT CAVOK 19/10 Q1013=
201605241950 METAR ESMX 241950Z 12003KT 100V160 CAVOK 18/10 Q1013=
201605241920 METAR ESMX 241920Z 13003KT 030V150 CAVOK 19/10 Q1012=
201605241850 METAR ESMX 241850Z 14004KT 110V170 9999 NSC 21/10 Q1012=
201605241820 METAR ESMX 241820Z 15004KT 110V190 CAVOK 23/09 Q1012=
201605241750 METAR ESMX 241750Z 12005KT 070V170 CAVOK 24/10 Q1012=
201605241720 METAR COR ESMX 241720Z 12005KT 080V170 CAVOK 24/10 Q1012=
201605241650 METAR ESMX 241650Z 14006KT 090V160 CAVOK 25/10 Q1011=
201605241620 METAR ESMX 241620Z 14006KT 080V190 CAVOK 25/11 Q1011=
201605241550 METAR ESMX 241550Z 13006KT 060V190 CAVOK 25/10 Q1011=
201605241520 METAR ESMX 241520Z 15007KT 110V190 CAVOK 26/11 Q1011=
201605241450 METAR ESMX 241450Z 12005KT 070V170 CAVOK 26/10 Q1011=
201605241420 METAR ESMX 241420Z 12007KT 060V230 CAVOK 26/11 Q1011=
201605241350 METAR ESMX 241350Z 15008KT 120V200 CAVOK 26/11 Q1011=
201605241320 METAR ESMX 241320Z 13007KT 090V180 CAVOK 25/11 Q1011=
201605241250 METAR ESMX 241250Z 08007KT 050V190 CAVOK 25/11 Q1011=
201605241220 METAR ESMX 241220Z 14006KT 020V200 9999 FEW027 BKN061 25/11 Q1011=
201605241150 METAR ESMX 241150Z 14007KT 070V180 CAVOK 25/11 Q1012=
201605241120 METAR ESMX 241120Z 15007KT 100V190 CAVOK 26/11 Q1012=
201605241050 METAR ESMX 241050Z 14008KT 100V190 CAVOK 25/11 Q1011=
201605241020 METAR ESMX 241020Z 12006KT 070V170 CAVOK 26/11 Q1011=
201605240950 METAR ESMX 240950Z 10006KT 030V150 CAVOK 25/11 Q1011=
201605240920 METAR ESMX 240920Z 11008KT 070V150 CAVOK 25/11 Q1011=
201605240850 METAR ESMX 240850Z 04006KT 360V100 CAVOK 24/13 Q1011=
201605240820 METAR ESMX 240820Z 35006KT CAVOK 24/14 Q1011=
201605240750 METAR ESMX 240750Z 05006KT 010V080 CAVOK 22/13 Q1011=
201605240720 METAR ESMX 240720Z 03005KT 010V070 CAVOK 21/13 Q1011=
201605240650 METAR ESMX 240650Z 05005KT 020V090 CAVOK 20/13 Q1011=
201605240620 METAR ESMX 240620Z 06004KT 010V080 CAVOK 18/12 Q1011=
201605240550 METAR ESMX 240550Z 05005KT 020V100 CAVOK 17/12 Q1011=
201605240520 METAR ESMX 240520Z 06004KT 020V100 CAVOK 16/11 Q1011=
201605240450 METAR ESMX 240450Z 07004KT 030V110 CAVOK 15/11 Q1011=
201605240420 METAR ESMX 240420Z 07003KT 030V110 CAVOK 14/11 Q1011=
201605240350 METAR ESMX 240350Z 06004KT CAVOK 13/11 Q1011=
201605240320 METAR ESMX 240320Z 02004KT CAVOK 12/10 Q1011=
201605240250 METAR ESMX 240250Z AUTO 01004KT 9999 NCD 11/10 Q1011=
201605240220 METAR ESMX 240220Z AUTO 01003KT 9999 NCD 11/10 Q1011=
201605240150 METAR ESMX 240150Z AUTO 02004KT 9999 NCD 11/11 Q1011=
201605240120 METAR ESMX 240120Z AUTO 02003KT 9999 NCD 12/11 Q1011=
201605240050 METAR ESMX 240050Z 01002KT 9999 NSC 11/10 Q1011=
201605240020 METAR ESMX 240020Z 08004KT CAVOK 13/11 Q1011=
201605232350 METAR ESMX 232350Z 08004KT CAVOK 13/11 Q1011=
201605232320 METAR ESMX 232320Z 07004KT CAVOK 13/11 Q1012=
201605232250 METAR ESMX 232250Z 07004KT 030V100 CAVOK 14/12 Q1012=
201605232220 METAR ESMX 232220Z 06004KT CAVOK 14/12 Q1012=
201605232150 METAR ESMX 232150Z 07003KT CAVOK 14/12 Q1012=
201605232120 METAR ESMX 232120Z 08004KT CAVOK 15/12 Q1012=
201605232050 METAR ESMX 232050Z 08003KT CAVOK 17/12 Q1012=
201605232020 METAR ESMX 232020Z VRB03KT CAVOK 18/12 Q1012=
201605231950 METAR ESMX 231950Z 11004KT 050V150 CAVOK 19/12 Q1011=
201605231920 METAR ESMX 231920Z 12006KT 070V160 CAVOK 20/12 Q1011=
201605231850 METAR ESMX 231850Z 11006KT 070V160 CAVOK 21/12 Q1011=
201605231820 METAR ESMX 231820Z 12005KT 060V170 CAVOK 22/12 Q1010=
201605231750 METAR ESMX 231750Z 12006KT 070V150 CAVOK 24/11 Q1010=
201605231720 METAR ESMX 231720Z 13007KT 090V160 CAVOK 24/11 Q1010=
201605231650 METAR ESMX 231650Z 16009KT 130V190 CAVOK 25/10 Q1010=
201605231620 METAR ESMX 231620Z 16008KT 090V200 CAVOK 25/10 Q1010=
201605231550 METAR ESMX 231550Z 17009KT 110V190 CAVOK 25/10 Q1010=
201605231520 METAR ESMX 231520Z 16009KT 120V190 CAVOK 25/09 Q1010=
201605231450 METAR ESMX 231450Z 17010KT 140V200 CAVOK 25/09 Q1010=
201605231420 METAR ESMX 231420Z 17012KT CAVOK 26/10 Q1010=
201605231350 METAR ESMX 231350Z 15010KT 110V190 CAVOK 26/10 Q1010=
201605231320 METAR ESMX 231320Z 16011KT 100V190 CAVOK 27/10 Q1010=
201605231250 METAR ESMX 231250Z 15009KT 100V190 CAVOK 26/10 Q1010=
201605231220 METAR ESMX 231220Z 15010KT 110V180 CAVOK 26/10 Q1010=
201605231150 METAR ESMX 231150Z 16013KT CAVOK 26/11 Q1010=
201605231120 METAR ESMX 231120Z 16010G21KT 130V190 CAVOK 26/11 Q1010=
201605231050 METAR ESMX 231050Z 16010KT 120V190 CAVOK 25/11 Q1010=
201605231020 METAR ESMX 231020Z 13009KT 080V200 CAVOK 25/11 Q1010=
201605230950 METAR ESMX 230950Z 15009KT 100V190 CAVOK 24/12 Q1010=
201605230920 METAR ESMX 230920Z 12007KT 080V170 CAVOK 24/12 Q1010=
201605230850 METAR ESMX 230850Z 13008KT 070V170 CAVOK 23/11 Q1010=
201605230820 METAR ESMX 230820Z 13006KT 070V240 CAVOK 22/12 Q1010=
201605230750 METAR ESMX 230750Z 13005KT 080V190 CAVOK 21/12 Q1010=
201605230720 METAR ESMX 230720Z 14007KT CAVOK 20/12 Q1010=
201605230650 METAR ESMX 230650Z 14007KT 080V200 CAVOK 19/11 Q1010=
201605230620 METAR ESMX 230620Z 12006KT 090V170 CAVOK 18/11 Q1010=
201605230550 METAR ESMX 230550Z 12007KT 090V150 CAVOK 17/11 Q1010=
201605230520 METAR ESMX 230520Z 14007KT 100V170 CAVOK 17/11 Q1010=
201605230450 METAR ESMX 230450Z 13007KT 100V170 CAVOK 16/11 Q1010=
201605230420 METAR ESMX 230420Z 13007KT 090V160 CAVOK 15/11 Q1010=
201605230350 METAR ESMX 230350Z 13007KT 080V160 CAVOK 15/11 Q1010=
201605230320 METAR ESMX 230320Z AUTO 14007KT 100V170 9999 NCD 15/10 Q1010=
201605230250 METAR ESMX 230250Z AUTO 14006KT 110V180 9999 NCD 14/10 Q1011=
201605230220 METAR ESMX 230220Z AUTO 13006KT 090V160 9999 NCD 14/10 Q1010=
201605230150 METAR ESMX 230150Z AUTO 14006KT 100V170 9999 NCD 14/10 Q1011=
201605230120 METAR ESMX 230120Z AUTO 14006KT 100V190 9999 NCD 14/10 Q1011=
201605230050 METAR ESMX 230050Z AUTO 13006KT 090V160 9999 NCD 15/10 Q1011=
201605230020 METAR ESMX 230020Z AUTO 14006KT 100V170 9999 NCD 15/10 Q1011=
201605222350 METAR ESMX 222350Z AUTO 13007KT 100V160 9999 NCD 15/10 Q1011=
201605222320 METAR ESMX 222320Z AUTO 14006KT 100V170 9999 NCD 15/10 Q1011=
201605222250 METAR ESMX 222250Z 12006KT 080V170 CAVOK 15/10 Q1011=
201605222220 METAR ESMX 222220Z 12005KT 070V160 CAVOK 15/10 Q1011=
201605222150 METAR ESMX 222150Z 13005KT 080V190 CAVOK 16/10 Q1012=
201605222120 METAR ESMX 222120Z 12005KT 070V160 CAVOK 16/10 Q1012=
201605222050 METAR COR ESMX 222050Z 13006KT 070V190 CAVOK 17/10 Q1012=
201605222020 METAR ESMX 222020Z 14006KT 090V170 CAVOK 17/10 Q1012=
201605221950 METAR ESMX 221950Z 15006KT 120V190 CAVOK 18/10 Q1012=
201605221920 METAR ESMX 221920Z 16006KT 110V180 CAVOK 19/10 Q1012=
201605221850 METAR ESMX 221850Z 15007KT 110V180 CAVOK 20/10 Q1012=
201605221820 METAR ESMX 221820Z 15008KT 120V180 CAVOK 20/09 Q1012=
201605221750 METAR ESMX 221750Z 15007KT 110V190 CAVOK 21/09 Q1012=
201605221720 METAR ESMX 221720Z 15009KT 120V190 CAVOK 21/09 Q1012=
201605221650 METAR ESMX 221650Z AUTO 15010KT 120V180 9999 NCD 21/09 Q1012=
201605221620 METAR ESMX 221620Z AUTO 16010KT 110V200 9999 NCD 22/09 Q1012=
201605221550 METAR ESMX 221550Z 16009KT CAVOK 22/09 Q1012=
201605221520 METAR ESMX 221520Z 16012KT CAVOK 22/09 Q1012=
201605221450 METAR ESMX 221450Z 16012KT CAVOK 23/08 Q1012=
201605221420 METAR ESMX 221420Z 15011KT 110V190 CAVOK 22/09 Q1012=
201605221350 METAR ESMX 221350Z 16011KT 120V190 CAVOK 23/09 Q1012=
201605221320 METAR ESMX 221320Z 16012KT 140V210 CAVOK 23/09 Q1013=
201605221250 METAR ESMX 221250Z 16012KT 130V200 CAVOK 23/10 Q1012=
201605221220 METAR ESMX 221220Z 18018KT CAVOK 23/10 Q1013=
201605221150 METAR ESMX 221150Z 17014KT CAVOK 23/09 Q1013=
201605221120 METAR ESMX 221120Z 17013KT 130V200 CAVOK 22/10 Q1013=
201605221050 METAR ESMX 221050Z 16011KT 120V200 9999 FEW031 SCT100 22/10 Q1013=
201605221020 METAR ESMX 221020Z 17013KT 9999 FEW043 21/10 Q1013=
201605220950 METAR ESMX 220950Z 16011KT 120V190 CAVOK 22/12 Q1013=
201605220920 METAR ESMX 220920Z 15009KT 110V190 CAVOK 20/12 Q1013=
201605220850 METAR ESMX 220850Z 16007KT 120V190 CAVOK 19/12 Q1014=
201605220820 METAR ESMX 220820Z 17007KT 130V190 CAVOK 17/13 Q1014=
201605220750 METAR ESMX 220750Z 15007KT 120V190 CAVOK 15/12 Q1014=
201605220720 METAR ESMX 220720Z AUTO 15005KT 120V190 9000 BR SCT084/// 14/12 Q1014 REDZ=
201605220650 METAR ESMX 220650Z AUTO 13004KT 6000 BR FEW053/// BKN081/// 13/11 Q1014=
201605220620 METAR ESMX 220620Z AUTO 12004KT 080V150 5000 BR SCT054/// 12/11 Q1014=
201605220550 METAR ESMX 220550Z AUTO 14006KT 4600 -RA NCD 12/11 Q1014=
201605220520 METAR ESMX 220520Z AUTO 21004KT 150V240 8000 +RA FEW047/// SCT055/// BKN069/// 12/11 Q1015=
201605220450 METAR ESMX 220450Z AUTO 15005KT 120V180 9000 -DZ FEW067/// 12/10 Q1014 REDZ=
201605220420 METAR ESMX 220420Z AUTO 15004KT 110V180 7000 -DZ FEW060/// BKN071/// 12/11 Q1014=
201605220350 METAR ESMX 220350Z AUTO 15004KT 110V170 8000 -RA OVC043/// 12/10 Q1014 REDZ=
201605220320 METAR ESMX 220320Z AUTO 14004KT 120V180 7000 BR BKN040/// OVC065/// 12/11 Q1014=
201605220250 METAR ESMX 220250Z AUTO 15006KT 7000 BR FEW033/// SCT049/// BKN060/// 12/11 Q1014=
201605220220 METAR ESMX 220220Z AUTO 17005KT 9000 DZ OVC040/// 13/11 Q1014 RERA=
201605220150 METAR ESMX 220150Z AUTO 16004KT 9999 BKN046/// 13/11 Q1014=
201605220120 METAR ESMX 220120Z AUTO 16004KT 9999 SCT046/// BKN060/// OVC079/// 13/11 Q1014=
201605220050 METAR ESMX 220050Z AUTO 16005KT 9999 BKN057/// 13/11 Q1014=
201605220020 METAR ESMX 220020Z AUTO 16004KT 9999 BKN059/// 13/11 Q1014=
201605212350 METAR ESMX 212350Z AUTO 16003KT 9999 FEW067/// SCT100/// 12/11 Q1014=
201605212320 METAR ESMX 212320Z AUTO 15002KT 9999 SCT080/// BKN100/// 12/11 Q1014=
201605212250 METAR ESMX 212250Z AUTO 17003KT 9999 FEW040/// SCT059/// BKN110/// 13/11 Q1014=
201605212220 METAR ESMX 212220Z AUTO 21005KT 9999 FEW050/// BKN060/// 13/11 Q1015=
201605212150 METAR ESMX 212150Z AUTO 18006KT 9999 -DZ FEW045/// BKN064/// BKN100/// 13/11 Q1015=
201605212120 METAR ESMX 212120Z AUTO 18005KT 9999 -DZ FEW059/// BKN070/// BKN100/// 13/11 Q1015=
201605212050 METAR ESMX 212050Z AUTO 17005KT 9999 -DZ BKN057/// 14/11 Q1015=
201605212020 METAR ESMX 212020Z AUTO 16005KT 9999 OVC064/// 14/11 Q1015=
201605211950 METAR ESMX 211950Z AUTO 17005KT 9999 OVC049/// 14/11 Q1015=
201605211920 METAR ESMX 211920Z AUTO 17005KT 9999 OVC051/// 14/11 Q1014=
201605211850 METAR ESMX 211850Z AUTO 17004KT 110V200 9999 FEW041/// OVC054/// 15/11 Q1015=
201605211820 METAR ESMX 211820Z AUTO 17006KT 9999 -RA FEW041/// OVC050/// 15/11=
201605211750 METAR ESMX 211750Z AUTO 18007KT 9999 FEW035/// BKN064/// 15/11 Q1014=
201605211720 METAR ESMX 211720Z AUTO 17007KT 120V200 9999 BKN074/// 16/10 Q1014=
201605211650 METAR ESMX 211650Z AUTO 18007KT 9999 FEW038/// BKN082/// 16/10 Q1014=
201605211620 METAR ESMX 211620Z AUTO 20008KT 9999 FEW038/// SCT084/// 17/09 Q1014=
201605211550 METAR ESMX 211550Z AUTO 21009KT 170V250 9999 FEW033/// SCT059/// BKN070/// 17/09 Q1014=
201605211520 METAR ESMX 211520Z AUTO 22008KT 170V250 9999 FEW034/// SCT041/// 16/09 Q1014=
201605211450 METAR ESMX 211450Z AUTO 21008KT 180V240 9999 FEW034/// SCT063/// 17/09 Q1014=
201605211420 METAR ESMX 211420Z AUTO 22008KT 190V280 9999 FEW048/// SCT060/// BKN095/// 17/08 Q1014=
201605211350 METAR ESMX 211350Z AUTO 22008KT 180V280 9999 FEW039/// SCT067/// BKN092/// 18/09 Q1014=
201605211320 METAR ESMX 211320Z AUTO 23008KT 190V260 9999 FEW027/// SCT040/// BKN066/// 17/09 Q1014=
201605211250 METAR ESMX 211250Z AUTO 24006KT 200V280 9999 FEW027/// SCT033/// BKN054/// 16/10 Q1014=
201605211220 METAR ESMX 211220Z AUTO 20008KT 9999 FEW028/// SCT066/// 16/10 Q1014=
201605211150 METAR ESMX 211150Z AUTO 25005KT 200V310 9999 FEW026/// SCT037/// BKN069/// 15/09 Q1014=
201605211120 METAR ESMX 211120Z AUTO 23008KT 200V280 9999 FEW023/// BKN027/// BKN068/// 15/09 Q1015=
201605211050 METAR ESMX 211050Z AUTO 25007KT 210V300 9999 FEW021/// SCT027/// 15/09 Q1015=
201605211020 METAR ESMX 211020Z AUTO 21011KT 9999 FEW021/// SCT024/// BKN029/// 14/09 Q1015=
201605210950 METAR ESMX 210950Z AUTO 21010KT 190V250 9999 FEW022/// SCT025/// BKN029/// 14/10 Q1015=
201605210920 METAR ESMX 210920Z AUTO 23007KT 9999 FEW020/// SCT025/// BKN030/// 14/09 Q1015=
201605210850 METAR ESMX 210850Z AUTO 22008KT 190V260 9999 FEW019/// SCT027/// 14/10 Q1015=
201605210820 METAR ESMX 210820Z AUTO 22006KT 180V260 9999 FEW018/// 14/09 Q1015=
201605210750 METAR ESMX 210750Z AUTO 21006KT 170V230 9999 FEW016/// 13/09 Q1015=
201605210720 METAR ESMX 210720Z AUTO 21005KT 180V250 9999 FEW013/// 13/09 Q1014=
201605210650 METAR ESMX 210650Z AUTO 22005KT 190V260 9999 FEW010/// SCT013/// 12/08 Q1014=
201605210620 METAR ESMX 210620Z AUTO 22006KT 9999 FEW009/// BKN010/// 12/09 Q1014=
201605210550 METAR ESMX 210550Z AUTO 23005KT 9999 BKN007/// BKN010/// 11/09 Q1014=
201605210520 METAR ESMX 210520Z AUTO 23005KT 190V260 9999 FEW005/// BKN007/// BKN009/// 10/09 Q1014=
201605210450 METAR ESMX 210450Z AUTO 25005KT 210V290 8000 BR FEW005/// BKN010/// 10/09 Q1014=
201605210420 METAR ESMX 210420Z AUTO 27004KT 7000 BR FEW009/// BKN011/// 10/09 Q1014=
201605210350 METAR ESMX 210350Z AUTO 20004KT 4200 BR FEW012/// 10/09 Q1014=
201605210320 METAR ESMX 210320Z AUTO 26004KT 6000 BR FEW010/// 09/09 Q1014=
201605210250 METAR ESMX 210250Z AUTO 26003KT 3300 BR FEW001/// SCT013/// BKN020/// 09/09 Q1014=
201605210220 METAR ESMX 210220Z AUTO VRB03KT 0200 R01/P2000N R19/0700N BR SCT001/// BKN007/// BKN016/// 09/09 Q1014=
201605210150 METAR ESMX 210150Z AUTO 22004KT 2400 BR FEW002/// 08/08 Q1014=
201605210120 METAR ESMX 210120Z AUTO 26004KT 4800 BR FEW005/// 10/09 Q1013=
201605210050 METAR ESMX 210050Z AUTO 24006KT 5000 BR FEW004/// SCT006/// BKN007/// 10/10 Q1013=
201605210020 METAR ESMX 210020Z AUTO 24004KT 6000 BR FEW006/// BKN008/// 10/09 Q1013 REDZ=
201605202350 METAR ESMX 202350Z AUTO 22003KT 3800 BR FEW005/// SCT009///=
201605202320 METAR ESMX 202320Z AUTO 23004KT 5000 BR FEW006/// SCT009/// BKN040/// 11/10 Q1013 REDZ=
201605202250 METAR ESMX 202250Z AUTO 24003KT 5000 BR FEW007/// SCT010/// BKN013/// 11/10 Q1013=
201605202220 METAR ESMX 202220Z AUTO 22005KT 7000 BR FEW008/// BKN039/// 11/10 Q1013=
201605202150 METAR ESMX 202150Z AUTO 23005KT 7000 BR FEW009/// SCT015/// BKN018/// 11/10 Q1013=
201605202120 METAR ESMX 202120Z AUTO 23006KT 7000 BR FEW007/// SCT009/// BKN011/// 11/10 Q1013=
201605202050 METAR ESMX 202050Z AUTO 24006KT 8000 BR FEW007/// BKN009/// OVC013/// 12/11 Q1013=
201605202020 METAR ESMX 202020Z 23006KT 8000 BR BKN016 12/11 Q1013=
201605201950 METAR ESMX 201950Z 23006KT 8000 BR FEW014 BKN038 12/10 Q1013=
201605201920 METAR ESMX 201920Z 21008KT 7000 BR FEW020 BKN036 12/10 Q1013=
201605201850 METAR ESMX 201850Z 23005KT 200V260 9999 FEW020 BKN040 12/10 Q1012=
201605201820 METAR ESMX 201820Z 24007KT 9999 FEW030CB BKN040 13/10 Q1012=
201605201750 METAR ESMX 201750Z 23005KT 9999 FEW030CB BKN040 13/11 Q1012=
201605201720 METAR ESMX 201720Z 22004KT 180V270 9999 FEW033CB BKN054 13/11 Q1012=
201605201650 METAR ESMX 201650Z 23005KT 9999 FEW045CB BKN060 13/11 Q1012=
201605201620 METAR ESMX 201620Z 24003KT 9999 FEW040CB BKN080 12/11 Q1012=
201605201550 METAR ESMX 201550Z 25005KT 220V290 9999 -SHRA SCT025CB BKN060 12/10 Q1012 RETS=
201605201520 METAR ESMX 201520Z 20006KT 5000 +SHRA VCTS SCT025CB BKN060 14/11 Q1012=
201605201450 METAR ESMX 201450Z 18006KT 140V200 9999 FEW025CB BKN060 16/12 Q1012=
201605201420 METAR ESMX 201420Z 17005KT 140V220 9999 FEW025CB BKN055 16/11 Q1012=
201605201350 METAR ESMX 201350Z 15004KT 9999 FEW025CB BKN052 14/11 Q1012=
201605201320 METAR ESMX 201320Z 15005KT 8000 -SHRA FEW025 BKN045 13/11 Q1012=
201605201250 METAR ESMX 201250Z 21004KT 8000 -SHRA FEW020CB BKN050 12/11 Q1012=
201605201220 METAR ESMX 201220Z 18008KT 5000 SHRA FEW025CB BKN060 12/11 Q1013=
201605201150 METAR ESMX 201150Z 16005KT 9000 SHRA FEW030CB BKN080 13/11 Q1012=
201605201120 METAR ESMX 201120Z 17007KT 9999 -SHRA FEW036CB BKN088 15/09 Q1012=
201605201050 METAR ESMX 201050Z 16007KT 140V200 9999 -SHRA FEW030CB BKN080 16/09 Q1012=
201605201020 METAR ESMX 201020Z 17005KT 130V220 9999 -SHRA FEW030CB BKN080 16/09 Q1013=
201605200950 METAR ESMX 200950Z 16006KT 110V210 9999 FEW035CB BKN080 16/10 Q1013=
201605200920 METAR ESMX 200920Z 16004KT 9999 FEW071 14/09 Q1013=
201605200820 METAR ESMX 200820Z 16003KT 9999 FEW074 SCT091 13/09 Q1013=
201605200750 METAR ESMX 200750Z 12003KT 100V160 9999 FEW069 12/09 Q1013=
201605200720 METAR ESMX 200720Z VRB03KT 9999 FEW069 11/09 Q1013=
201605200650 METAR ESMX 200650Z 17003KT 140V210 9999 -RA SCT063 12/08 Q1013=
201605200620 METAR ESMX 200620Z VRB03KT 9999 BKN066 BKN083 11/08 Q1013=
201605200550 METAR ESMX 200550Z VRB02KT 9000 BR BKN063 10/08 Q1013=
201605200520 METAR ESMX 200520Z VRB03KT 9000 BR SCT064 BKN084 10/08 Q1013=
201605200450 METAR COR ESMX 200450Z 16003KT 120V190 9000 BR SCT081 09/08 Q1013=
201605200420 METAR ESMX 200420Z 14004KT 110V170 9000 BR BKN088 09/07 Q1013=
201605200350 METAR ESMX 200350Z VRB03KT 9000 BR SCT083 BKN110 08/07 Q1013=
201605200320 METAR ESMX 200320Z AUTO VRB02KT 9999 FEW099/// SCT110/// 07/07 Q1013=
201605200250 METAR ESMX 200250Z AUTO 00000KT 9999 SCT097/// BKN110/// 06/06 Q1013=
201605200220 METAR ESMX 200220Z AUTO 15003KT 110V190 9999 BKN098/// 07/06 Q1013=
201605200150 METAR ESMX 200150Z AUTO 16004KT 120V190 9999 FEW093/// 07/06 Q1013=
201605200120 METAR ESMX 200120Z AUTO 00000KT 9999 BKN097/// 07/06 Q1013=
201605200050 METAR ESMX 200050Z AUTO 14004KT 9999 OVC095/// 08/07 Q1013=
201605200020 METAR ESMX 200020Z AUTO VRB01KT 9999 BKN097/// 05/05 Q1013=
201605192350 METAR ESMX 192350Z AUTO VRB02KT 9999 FEW100/// 05/04 Q1014=
201605192320 METAR ESMX 192320Z VRB01KT CAVOK 06/05 Q1014=
201605192250 METAR COR ESMX 192250Z 16003KT CAVOK 08/06 Q1014=
201605192220 METAR ESMX 192220Z 15004KT CAVOK 09/06 Q1013=
201605192150 METAR ESMX 192150Z AUTO 16003KT 9999 BKN088/// 10/06 Q1014=
201605192120 METAR ESMX 192120Z 18004KT CAVOK 09/06 Q1014=
201605192050 METAR ESMX 192050Z 19006KT CAVOK 09/06 Q1014=
201605192020 METAR ESMX 192020Z 18005KT CAVOK 11/06 Q1014=
201605191950 METAR ESMX 191950Z 17005KT CAVOK 12/06 Q1013=
201605191920 METAR ESMX 191920Z 18005KT CAVOK 12/06 Q1013=
201605191850 METAR ESMX 191850Z 18006KT CAVOK 14/06 Q1013=
201605191820 METAR ESMX 191820Z 17006KT CAVOK 15/06 Q1013=
201605191750 METAR ESMX 191750Z 21009KT CAVOK 15/06 Q1012=
201605191720 METAR ESMX 191720Z 20009KT CAVOK 16/07 Q1012=
201605191650 METAR ESMX 191650Z 17008KT CAVOK 16/06 Q1012=
201605191620 METAR ESMX 191620Z 19007KT CAVOK 16/07 Q1012=
201605191550 METAR ESMX 191550Z 19007KT 9999 OVC076 16/07 Q1012=
201605191520 METAR ESMX 191520Z 19004KT 9999 BKN074 16/07 Q1012=
201605191450 METAR ESMX 191450Z 26004KT 9999 BKN045 16/06 Q1012=
201605191420 METAR ESMX 191420Z 27005KT 9999 BKN051 16/06 Q1012=
201605191350 METAR ESMX 191350Z 23007KT 9999 BKN053 OVC075 16/05 Q1011=
201605191320 METAR ESMX 191320Z 21007KT 190V240 SCT055TCU BKN071 18/04 Q1011=
201605191250 METAR ESMX 191250Z 20007KT 170V260 9999 SCT052TCU 18/04 Q1011=
201605191220 METAR ESMX 191220Z 19008KT 140V240 9999 SCT051TCU 19/05 Q1011=
201605191150 METAR ESMX 191150Z 20008KT 170V230 9999 BR SCT048 BKN069 17/04 Q1011=
201605191120 METAR ESMX 191120Z 17006KT 110V230 9999 FEW045 BKN050 18/06 Q1011=
201605191050 METAR ESMX 191050Z 22005KT 170V300 CAVOK 17/04 Q1011=
201605191020 METAR ESMX 191020Z VRB05KT CAVOK BKN050 17/05 Q1011=
201605190950 METAR ESMX 190950Z 22007KT 190V250 CAVOK 17/06 Q1011=
201605190920 METAR ESMX 190920Z 16006KT 110V200 CAVOK 16/04 Q1011=
201605190850 METAR ESMX 190850Z 19006KT 150V230 CAVOK 15/04 Q1011=
201605190820 METAR ESMX 190820Z 16005KT 120V230 CAVOK 14/04 Q1011=
201605190750 METAR ESMX 190750Z 17006KT 120V230 CAVOK 14/04 Q1011=
201605190720 METAR ESMX 190720Z 20005KT 120V240 CAVOK 13/04 Q1011=
201605190650 METAR ESMX 190650Z 19007KT CAVOK 13/04 Q1011=
201605190620 METAR ESMX 190620Z 17005KT CAVOK 12/05 Q1011=
201605190550 METAR ESMX 190550Z 18005KT CAVOK 11/05 Q1011=
201605190520 METAR ESMX 190520Z 19005KT CAVOK 10/04 Q1011=
201605190450 METAR ESMX 190450Z 18003KT CAVOK 08/05 Q1010=
201605190420 METAR ESMX 190420Z 17003KT CAVOK 06/05 Q1010=
201605190350 METAR ESMX 190350Z 16003KT CAVOK 05/04 Q1010=
201605190320 METAR ESMX 190320Z AUTO 18003KT 9999 BKN042/// 05/04 Q1010=
201605190250 METAR ESMX 190250Z AUTO 18002KT 9999 BKN042/// 05/04 Q1010=
201605190220 METAR ESMX 190220Z AUTO 19002KT 9999 OVC043/// 05/04 Q1010=
201605190150 METAR ESMX 190150Z AUTO 18002KT 9999 BKN043/// 06/05 Q1009=
201605190120 METAR ESMX 190120Z AUTO 22002KT 9999 OVC044/// 07/05 Q1010=
201605190050 METAR ESMX 190050Z AUTO 17004KT 9999 OVC044/// 09/05 Q1009=
201605190020 METAR ESMX 190020Z AUTO 17003KT 9999 OVC044/// 09/06 Q1010=
201605182350 METAR ESMX 182350Z AUTO 16003KT 9999 OVC043/// 09/06 Q1010=
201605182320 METAR ESMX 182320Z 17003KT 9999 OVC041 09/06 Q1009=
201605182250 METAR COR ESMX 182250Z 17003KT 9999 OVC042 09/06 Q1009=
201605182220 METAR ESMX 182220Z 19003KT 9999 OVC043 09/06 Q1010=
201605182150 METAR ESMX 182150Z 18003KT 9999 OVC043 09/06 Q1010=
201605182120 METAR ESMX 182120Z 19003KT 9999 OVC043 09/06 Q1010=
201605182050 METAR ESMX 182050Z 26004KT 9999 BKN044 09/06 Q1009=
201605182020 METAR ESMX 182020Z 17006KT 9999 BKN043 10/06 Q1009=
201605181950 METAR ESMX 181950Z 15005KT 9999 BKN042 11/06 Q1009=
201605181920 METAR ESMX 181920Z 17005KT 9999 BKN042 11/05 Q1009=
201605181850 METAR ESMX 181850Z 17003KT 9999 BKN044 11/05 Q1009=
201605181820 METAR ESMX 181820Z 16003KT 9999 BKN045 12/04 Q1009=
201605181750 METAR ESMX 181750Z 18003KT 9999 BKN045 12/04 Q1009=
201605181720 METAR ESMX 181720Z 21003KT 180V240 9999 BKN043 12/05 Q1009=
201605181650 METAR ESMX 181650Z 22004KT 9999 BKN045 12/04 Q1009=
201605181620 METAR ESMX 181620Z 22005KT 9999 BKN044 12/03 Q1009=
201605181550 METAR ESMX 181550Z 22005KT 180V260 9999 BKN045 12/03 Q1009=
201605181520 METAR ESMX 181520Z 22005KT 9999 BKN040 12/03 Q1009=
201605181450 METAR ESMX 181450Z 24006KT 210V270 9999 BKN035 11/04 Q1009=
201605181420 METAR ESMX 181420Z 22005KT 190V250 9999 BKN036 11/05 Q1009=
201605181350 METAR ESMX 181350Z 21006KT 9999 BKN036 12/05 Q1009=
201605181320 METAR ESMX 181320Z 22007KT 9999 BKN040 12/06 Q1009=
201605181250 METAR ESMX 181250Z 23008KT 9999 BKN033 11/06 Q1009=
201605181220 METAR ESMX 181220Z 21006KT 9999 FEW018 BKN032 11/06 Q1009=
201605181150 METAR ESMX 181150Z 21008KT 9999 FEW019 SCT024 OVC034 10/06 Q1009=
201605181120 METAR ESMX 181120Z 21007KT 190V250 9999 FEW021 OVC036 11/06 Q1009=
201605181050 METAR ESMX 181050Z 22008KT 170V240 9999 FEW020 OVC031 10/06 Q1009=
201605181020 METAR ESMX 181020Z 20010KT 9999 FEW020 BKN036 10/06 Q1009=
201605180950 METAR ESMX 180950Z 23008KT 9999 FEW021 BKN038 11/05 Q1009=
201605180920 METAR ESMX 180920Z 22008KT 190V260 9999 FEW017 OVC034 11/06 Q1009=
201605180850 METAR ESMX 180850Z 21009KT 9999 FEW018 OVC036 10/06 Q1009=
201605180820 METAR ESMX 180820Z 22009KT 9999 FEW014 SCT022 OVC035 10/06 Q1009=
201605180750 METAR ESMX 180750Z 21008KT 9999 FEW016 BKN033 09/06 Q1009=
201605180720 METAR ESMX 180720Z 21008KT 9999 OVC030 09/06 Q1009=
201605180650 METAR ESMX 180650Z 20007KT 9999 OVC030 09/06 Q1009=
201605180620 METAR ESMX 180620Z 20007KT 9999 BKN029 08/06 Q1009=
201605180550 METAR ESMX 180550Z 20007KT 9999 BKN030 08/06 Q1009=
201605180520 METAR ESMX 180520Z AUTO 19006KT 9999 OVC029/// 08/06 Q1008=
201605180450 METAR ESMX 180450Z 20006KT 9999 BKN030 07/06 Q1008=
201605180420 METAR ESMX 180420Z 21004KT 9999 BKN030 07/06 Q1008=
201605180350 METAR ESMX 180350Z 21005KT 9999 OVC032 06/06 Q1008=
201605180320 METAR ESMX 180320Z AUTO 21005KT 9999 OVC032/// 06/06 Q1008=
201605180250 METAR ESMX 180250Z AUTO 19005KT 9999 FEW025/// OVC032/// 06/05 Q1008=
201605180220 METAR ESMX 180220Z AUTO 20004KT 9999 BKN030/// 05/05 Q1008=
201605180150 METAR ESMX 180150Z AUTO 20004KT 9999 BKN030/// 04/04 Q1008=
201605180120 METAR ESMX 180120Z AUTO 20005KT 9999 SCT029/// 04/03 Q1008=
201605180050 METAR ESMX 180050Z AUTO 20004KT 9999 FEW030/// 04/04 Q1008=
201605180020 METAR ESMX 180020Z AUTO 21004KT 9999 NCD 05/04 Q1008=
201605172350 METAR ESMX 172350Z AUTO 21004KT 9999 NCD 05/04 Q1008=
201605172320 METAR ESMX 172320Z 19004KT CAVOK 06/05 Q1008=
201605172250 METAR ESMX 172250Z 18004KT CAVOK 06/05 Q1008=
201605172220 METAR ESMX 172220Z 20003KT CAVOK 07/05 Q1008=
201605172150 METAR ESMX 172150Z 22003KT CAVOK 08/05 Q1008=
201605172120 METAR ESMX 172120Z 21004KT CAVOK 08/05 Q1008=
201605172050 METAR ESMX 172050Z 24005KT CAVOK 09/05 Q1008=
201605172020 METAR ESMX 172020Z 23005KT CAVOK 09/05 Q1008=
201605171950 METAR ESMX 171950Z 24004KT CAVOK 10/05 Q1008=
201605171920 METAR ESMX 171920Z 23007KT 200V260 CAVOK 10/05 Q1008=
201605171850 METAR ESMX 171850Z 25008KT CAVOK 11/04 Q1007=
201605171820 METAR ESMX 171820Z 27008KT CAVOK 12/04 Q1007=
201605171750 METAR ESMX 171750Z 26009KT 9999 SCT045 BKN200 13/04 Q1007=
201605171720 METAR ESMX 171720Z 25009KT 9999 SCT045 BKN200 14/05 Q1007=
201605171650 METAR ESMX 171650Z 26009KT 9999 SCT040 OVC070 15/05 Q1007=
201605171620 METAR ESMX 171620Z 24007KT 200V260 9999 SCT051 15/06 Q1006=
201605171550 METAR ESMX 171550Z 24006KT 210V280 9999 SCT041 BKN053 14/06 Q1006=
201605171520 METAR ESMX 171520Z 22006KT 9999 FEW046 SCT052 BKN067 15/06 Q1006=
201605171450 METAR ESMX 171450Z 25006KT 220V280 9999 FEW041 SCT054 BKN066 15/06 Q1006=
201605171420 METAR ESMX 171420Z 36003KT 300V060 CAVOK 15/04 Q1006=
201605171350 METAR ESMX 171350Z 02005KT 350V060 CAVOK 15/04 Q1006=
201605171320 METAR ESMX 171320Z 01005KT 320V070 9999 FEW048 16/05 Q1006=
201605171250 METAR ESMX 171250Z AUTO 01006G17KT 270V070 9999 FEW039/// 15/05 Q1006=
201605171220 METAR ESMX 171220Z 04006KT 360V080 9999 FEW035 SCT041 14/06 Q1006=
201605171150 METAR ESMX 171150Z VRB03KT 9999 SCT030 BKN051 13/05 Q1007=
201605171120 METAR ESMX 171120Z VRB03KT 9999 SCT030 BKN046 13/05 Q1006=
201605171050 METAR ESMX 171050Z 27004KT 210V330 9999 FEW030 BKN048 12/05 Q1006=
201605171020 METAR ESMX 171020Z 30004KT 250V350 9999 FEW028 BKN047 11/04 Q1006=
201605170950 METAR ESMX 170950Z 28005KT 240V340 9999 FEW028 BKN046 11/04 Q1006=
201605170920 METAR ESMX 170920Z 27006KT 240V300 9999 FEW027 BKN047 10/04 Q1006=
201605170850 METAR ESMX 170850Z 27005KT 240V320 9999 SCT038 BKN079 10/04 Q1006=
201605170820 METAR ESMX 170820Z 32006KT 280V350 9999 FEW023 BKN034 10/03 Q1006=
201605170750 METAR ESMX 170750Z 31007KT 290V350 9999 BKN032 09/04 Q1006=
201605170720 METAR ESMX 170720Z 30007KT 9999 BKN034 08/04 Q1006=
201605170650 METAR ESMX 170650Z 30006KT 280V340 9999 BKN035 08/04 Q1006=
201605170620 METAR ESMX 170620Z 28006KT 240V320 9999 BKN036 08/04 Q1006=
201605170550 METAR ESMX 170550Z 30004KT 270V340 9999 BKN038 08/05 Q1005=
201605170520 METAR ESMX 170520Z 29005KT 9999 FEW022 BKN035 07/05 Q1005=
201605170450 METAR ESMX 170450Z 29004KT 9999 BKN028 07/04 Q1005=
201605170420 METAR ESMX 170420Z 29005KT 9999 BKN028 06/04 Q1005=
201605170350 METAR COR ESMX 170350Z 29003KT 9999 BKN028 06/04 Q1005=
201605170320 METAR ESMX 170320Z AUTO 28003KT 9999 OVC031/// 05/04 Q1005=
201605170250 METAR ESMX 170250Z AUTO 28003KT 9999 OVC034/// 05/04 Q1005=
201605170220 METAR ESMX 170220Z AUTO 29003KT 9999 SCT035/// BKN049/// 04/04 Q1005=
201605170150 METAR ESMX 170150Z AUTO 32003KT 9999 FEW034/// BKN046/// 05/04 Q1005=
201605170120 METAR ESMX 170120Z AUTO 32004KT 9999 FEW022/// BKN032/// BKN044/// 05/04 Q1006=
201605170050 METAR ESMX 170050Z AUTO 35004KT 9999 FEW016/// SCT021/// OVC026/// 06/04 Q1006=
201605170020 METAR ESMX 170020Z AUTO 30005KT 9999 BKN014/// OVC020/// 06/04 Q1006=
201605162350 METAR ESMX 162350Z AUTO 28005KT 9999 OVC013/// 06/04 Q1006=
201605162320 METAR ESMX 162320Z 30006KT 9999 FEW010 BKN015 06/04 Q1006=
201605162250 METAR ESMX 162250Z 31006KT 9999 SCT008 OVC018 06/04 Q1006=
201605162220 METAR ESMX 162220Z 31007KT 280V340 9999 OVC008 06/05 Q1006=
201605162150 METAR ESMX 162150Z 31007KT 9999 FEW009 BKN012 OVC017 06/05 Q1006=
201605162120 METAR ESMX 162120Z 31005KT 9999 -RA OVC012 06/05 Q1006=
201605162050 METAR ESMX 162050Z 30006KT 9999 SCT012 BKN015 06/05 Q1006=
201605162020 METAR ESMX 162020Z 29007KT 9999 SCT018 OVC020 06/05 Q1006=
201605161950 METAR ESMX 161950Z 31006KT 9999 SCT010 BKN030 06/05 Q1006=
201605161920 METAR ESMX 161920Z 30006KT 9999 SCT012 BKN018 06/05 Q1006=
201605161850 METAR ESMX 161850Z 31007KT 9999 SCT012 BKN016 OVC040 06/05 Q1006=
201605161820 METAR ESMX 161820Z 32008KT 9999 FEW010 SCT030 BKN054 06/04 Q1006=
201605161750 METAR ESMX 161750Z 31009KT 9999 -DZ FEW016 BKN030 BKN060 06/05 Q1006=
201605161720 METAR ESMX 161720Z 31008KT 9999 SCT012 BKN030 06/05 Q1006=
201605161650 METAR ESMX 161650Z 31010KT 9999 -RA SCT013 BKN029 06/05 Q1006=
201605161620 METAR ESMX 161620Z 31011KT 9999 FEW011 SCT015 BKN018 06/04 Q1006=
201605161550 METAR ESMX 161550Z 32010KT 9999 SCT011 BKN018 06/05 Q1006=
201605161520 METAR ESMX 161520Z 31009KT 9999 FEW008 SCT011 BKN015 06/05 Q1005=
201605161450 METAR ESMX 161450Z 31011KT 9999 -RA FEW008 SCT013 BKN017 06/04 Q1005=
201605161420 METAR ESMX 161420Z 31012KT 9999 -RA FEW009 SCT013 BKN018 06/04 Q1005=
201605161350 METAR ESMX 161350Z 33012KT 9999 DZ FEW012 SCT017 BKN020 06/04 Q1005=
201605161320 METAR ESMX 161320Z 31013KT 280V350 9999 -RA FEW012 SCT015 BKN018 06/04 Q1005=
201605161250 METAR ESMX 161250Z 33013KT 9999 -RA FEW012 SCT016 BKN021 06/04 Q1005=
201605161220 METAR ESMX 161220Z 32011KT 9999 -RA FEW013 SCT016 BKN027 06/04 Q1005=
201605161150 METAR ESMX 161150Z 32013KT 290V350 8000 RA FEW012 BKN017 06/05 Q1005=
201605161120 METAR ESMX 161120Z 33013KT 9999 -RA FEW013 BKN024 06/04 Q1005=
201605161050 METAR ESMX 161050Z 33014KT 290V350 9999 -RA FEW013 BKN017 06/04 Q1004=
201605161020 METAR ESMX 161020Z 33015KT 9999 DZ FEW014 SCT021 BKN029 06/04 Q1004=
201605160950 METAR ESMX 160950Z 33014KT 9999 -RA FEW015 SCT020 BKN026 06/04 Q1004=
201605160920 METAR ESMX 160920Z 32015KT 290V350 9000 RA FEW016 BKN020 06/04 Q1004=
201605160850 METAR ESMX 160850Z 32013KT 9999 -RA FEW013 BKN017 06/04 Q1004=
201605160820 METAR ESMX 160820Z 32014KT 280V340 9000 -RA FEW016 BKN025 06/04 Q1004=
201605160750 METAR ESMX 160750Z 32013KT 7000 RA BKN017 06/04 Q1003=
201605160720 METAR ESMX 160720Z 32014KT 9000 RA BKN020 06/03 Q1003=
201605160650 METAR ESMX 160650Z 32013KT 300V360 9999 -RA BKN024 07/03 Q1003=
201605160620 METAR ESMX 160620Z 31011KT 9999 SCT027 BKN062 07/03 Q1003=
201605160550 METAR ESMX 160550Z 30011KT 9999 FEW040 BKN057 06/03 Q1003=
201605160520 METAR ESMX 160520Z 30011KT 280V340 9999 FEW035 BKN071 06/03 Q1003=
201605160450 METAR ESMX 160450Z 30011KT 9999 FEW008 BKN077 06/03 Q1003=
201605160420 METAR ESMX 160420Z 31009KT 9999 FEW008 SCT030 BKN100 06/03 Q1003=
201605160350 METAR ESMX 160350Z 31008KT 9999 SCT045 05/03 Q1003=
201605160320 METAR ESMX 160320Z AUTO 30008KT 9999 NCD 05/03 Q1003=
201605160250 METAR ESMX 160250Z AUTO 31009KT 9999 NCD 06/04 Q1003=
201605160220 METAR ESMX 160220Z AUTO 31007KT 280V340 9999 NCD 06/04 Q1003=
201605160150 METAR ESMX 160150Z AUTO 31007KT 9999 NCD 06/04 Q1004=
201605160120 METAR ESMX 160120Z AUTO 30008KT 9999 NCD 06/04 Q1004=
201605160050 METAR ESMX 160050Z AUTO 29010KT 9999 SCT066/// 06/05 Q1004=
201605160020 METAR ESMX 160020Z AUTO 28009KT 9999 SCT065/// 06/05 Q1004=
201605152350 METAR ESMX 152350Z AUTO 29008KT 9999 FEW038/// 06/05 Q1005 REDZ=
201605152320 METAR ESMX 152320Z 28010KT 9999 FEW043 SCT059 06/05 Q1005=
201605152250 METAR ESMX 152250Z 28008KT 9999 -DZ FEW021 SCT054 06/05 Q1005=
201605152220 METAR ESMX 152220Z 27005KT 230V290 9999 -DZ FEW021 SCT050 05/05 Q1005=
201605152150 METAR ESMX 152150Z 29004KT 250V340 9999 -DZ FEW037 SCT057 BKN070 05/04 Q1005 RERA=
201605152120 METAR ESMX 152120Z 26006KT 9999 -DZ FEW018 SCT052 05/04 Q1006 REDZ=
201605152050 METAR ESMX 152050Z 26003KT 230V300 9999 -DZ FEW025 SCT036 05/04 Q1006=
201605152020 METAR ESMX 152020Z 31005KT 9999 -RA FEW009 SCT023 BKN025 05/04 Q1006=
201605151950 METAR ESMX 151950Z 35009KT 9000 RA FEW008 SCT013 BKN020 05/04 Q1006=
201605151920 METAR ESMX 151920Z 35011KT 9999 RA FEW006 SCT010 BKN013 06/05 Q1006=
201605151850 METAR ESMX 151850Z 34013KT 9999 -RA FEW010 SCT016 BKN021 06/04 Q1006=
201605151820 METAR ESMX 151820Z 32010KT 9999 -RA FEW008 SCT014 BKN020 06/04=
201605151750 METAR ESMX 151750Z 30007KT 8000 -RA FEW007 SCT016 BKN020 05/04 Q1006=
201605151720 METAR COR ESMX 151720Z 31006KT 6000 RA SCT009 BKN024 05/04 Q1005=
201605151650 METAR ESMX 151650Z AUTO 32009KT 300V360 8000 RA FEW009/// 05/04 Q1006=
201605151620 METAR ESMX 151620Z AUTO 34012KT 9999 -RA FEW009/// SCT022/// 06/04 Q1006=
201605151550 METAR ESMX 151550Z 35011KT 9999 RA FEW009 BKN024 06/04 Q1005=
201605151520 METAR ESMX 151520Z 34008KT 8000 RA FEW009 SCT012 BKN015 06/05 Q1005=
201605151450 METAR ESMX 151450Z 36007KT 9999 RA FEW009 BKN020 07/05 Q1005=
201605151420 METAR ESMX 151420Z 34006KT 300V010 9999 -RA FEW008 SCT013 BKN022 07/06 Q1005=
201605151350 METAR ESMX 151350Z 32007KT 9999 -RA FEW008 SCT019 BKN027 06/05 Q1005=
201605151320 METAR ESMX 151320Z 34008KT 9999 -RA FEW012 BKN029 06/04 Q1005=
201605151250 METAR ESMX 151250Z 34010KT 9999 -RA FEW010 BKN016 BKN019 07/05 Q1005=
201605151220 METAR ESMX 151220Z 34010KT 9999 -RA FEW010 BKN015 07/05 Q1005=
201605151150 METAR ESMX 151150Z 35011KT 9999 OVC015 07/04 Q1005=
201605151120 METAR ESMX 151120Z 34010KT 9999 FEW017 BKN019 08/04 Q1004=
201605151050 METAR ESMX 151050Z 34006KT 320V020 9999 OVC020 08/03 Q1004=
201605151020 METAR ESMX 151020Z AUTO 34007KT 9999 OVC019/// 08/03 Q1004=
201605150950 METAR ESMX 150950Z AUTO 32008KT 290V360 9999 OVC017/// 07/03 Q1004=
201605150920 METAR ESMX 150920Z AUTO 35008KT 320V020 9999 OVC016/// 07/03 Q1004=
201605150850 METAR ESMX 150850Z AUTO 34009KT 9999 OVC015/// 07/03 Q1004=
201605150820 METAR ESMX 150820Z AUTO 34011KT 9999 OVC015/// 07/03 Q1003=
201605150750 METAR ESMX 150750Z AUTO 01010KT 9999 BKN015/// OVC017/// 07/03 Q1004=
201605150720 METAR ESMX 150720Z AUTO 36010KT 9999 BKN014/// OVC018/// 07/03 Q1003=
201605150650 METAR ESMX 150650Z AUTO 35009KT 9999 OVC013/// 07/03 Q1003=
201605150620 METAR ESMX 150620Z AUTO 36008KT 9999 OVC012/// 06/03 Q1003=
201605150550 METAR ESMX 150550Z AUTO 35009KT 9999 FEW013/// SCT016/// BKN019/// 06/03 Q1003=
201605150520 METAR ESMX 150520Z AUTO 36011KT 9999 FEW012/// OVC018/// 05/03 Q1003=
201605150450 METAR ESMX 150450Z AUTO 34010KT 9999 FEW011/// SCT018/// BKN020/// 05/03 Q1003=
201605150420 METAR ESMX 150420Z AUTO 31006KT 9999 -DZ FEW009/// BKN016/// OVC021/// 05/04 Q1003=
201605150350 METAR ESMX 150350Z AUTO 31006KT 9999 -RA FEW009/// BKN011/// OVC016/// 05/04 Q1003=
201605150320 METAR ESMX 150320Z AUTO 31006KT 9999 -DZ FEW009/// OVC011/// 05/04 Q1003=
201605150250 METAR ESMX 150250Z AUTO 31006KT 9999 -RA SCT010/// BKN016/// OVC019/// 05/04 Q1003 RESHUP=
201605150220 METAR ESMX 150220Z AUTO 31006KT 9999 UP SCT010/// BKN014/// OVC024/// 05/04 Q1003=
201605150150 METAR ESMX 150150Z AUTO 33006KT 9999 -RA FEW009/// OVC011/// 05/03 Q1003 RERA RESHUP=
201605150120 METAR ESMX 150120Z AUTO 32006KT 9999 -DZ OVC009/// 05/04 Q1003 RESHUP REDZ=
201605150050 METAR ESMX 150050Z AUTO 30007KT 9999 OVC009/// 05/04 Q1003=
201605150020 METAR ESMX 150020Z AUTO 31006KT 9999 -DZ OVC009/// 05/04 Q1003=
201605142350 METAR ESMX 142350Z AUTO 31007KT 9999 UP SCT010/// OVC015/// 06/03 Q1003=
201605142320 METAR ESMX 142320Z AUTO 32007KT 9999 -DZ FEW012/// OVC015/// 06/03 Q1003 REUP=
201605142250 METAR ESMX 142250Z AUTO 33006KT 9999 FEW013/// OVC016/// 06/03 Q1003=
201605142220 METAR ESMX 142220Z AUTO 31008KT 9999 FEW013/// OVC017/// 06/03 Q1003=
201605142150 METAR ESMX 142150Z AUTO 33007KT 9999 FEW015/// SCT018/// OVC021/// 06/03 Q1003=
201605142120 METAR ESMX 142120Z AUTO 33008KT 9999 FEW029/// OVC072/// 06/03 Q1003=
201605142050 METAR ESMX 142050Z AUTO 33009KT 9999 FEW015/// OVC028/// 06/03 Q1003=
201605142020 METAR ESMX 142020Z AUTO 32009KT 9999 BKN012/// OVC023/// 06/03 Q1003=
201605141950 METAR ESMX 141950Z AUTO 32010KT 9999 BKN012/// OVC026/// 06/03 Q1003=
201605141920 METAR ESMX 141920Z AUTO 33010KT 9999 SCT014/// BKN024/// OVC031/// 06/03 Q1003=
201605141850 METAR ESMX 141850Z AUTO 30009KT 9999 FEW015/// OVC021/// 07/04 Q1003=
201605141820 METAR ESMX 141820Z AUTO 33008KT 300V360 9999 FEW017/// OVC020///=
201605141750 METAR ESMX 141750Z AUTO 31009KT 9999 FEW016/// BKN019/// 08/04 Q1002=
201605141720 METAR ESMX 141720Z AUTO 33011KT 9999 SCT018/// 08/04 Q1002=
201605141650 METAR ESMX 141650Z AUTO 32011KT 9999 FEW057/// 09/04 Q1001=
201605141620 METAR ESMX 141620Z AUTO 32012KT 9999 FEW020/// SCT073/// 10/05 Q1001=
201605141550 METAR ESMX 141550Z AUTO 33010KT 9999 FEW072/// 10/04 Q1001=
201605141520 METAR ESMX 141520Z AUTO 34010KT 300V010 9999 NCD 11/04 Q1001=
201605141450 METAR ESMX 141450Z AUTO 33012KT 9999 NCD 11/04 Q1001=
201605141420 METAR ESMX 141420Z AUTO 31010KT 9999 SCT056/// 12/03 Q1000=
201605141350 METAR ESMX 141350Z AUTO 32010KT 290V350 9999 FEW030/// SCT035/// BKN059/// 13/04 Q1000=
201605141320 METAR ESMX 141320Z AUTO 33008KT 300V360 9999 FEW029/// SCT035/// BKN058/// 13/04 Q1000=
201605141250 METAR ESMX 141250Z AUTO 28008KT 240V320 9999 SCT032/// BKN055/// 12/04 Q1000=
201605141220 METAR ESMX 141220Z AUTO 32006KT 270V010 9999 FEW037/// BKN049/// 13/04 Q1000=
201605141150 METAR ESMX 141150Z AUTO 31009KT 270V330 9999 FEW028/// SCT033/// BKN046/// 12/05 Q1000=
201605141120 METAR ESMX 141120Z AUTO 29005KT 230V330 9999 FEW033/// BKN046/// 12/04 Q1000=
201605141050 METAR ESMX 141050Z AUTO 29006KT 9999 BKN038/// 12/05 Q1000=
201605141020 METAR ESMX 141020Z AUTO 29007KT 9999 BKN038/// 11/04 Q1000=
201605140950 METAR ESMX 140950Z AUTO 31007KT 280V350 9999 SCT023/// BKN035/// 11/05 Q1000=
201605140920 METAR ESMX 140920Z AUTO 28007KT 9999 BKN021/// BKN032/// 10/05 Q0999=
201605140850 METAR ESMX 140850Z AUTO 29006KT 260V340 9999 FEW024/// OVC028/// 11/04 Q0999=
201605140820 METAR ESMX 140820Z AUTO 30006KT 9999 FEW018/// OVC021/// 10/05 Q0999=
201605140750 METAR ESMX 140750Z AUTO 30005KT 9999 OVC019/// 10/05 Q0999=
201605140720 METAR ESMX 140720Z AUTO 30007KT 260V340 9999 OVC018/// 10/05 Q0998=
201605140650 METAR ESMX 140650Z AUTO 30007KT 270V340 9999 OVC016/// 10/05 Q0998=
201605140620 METAR ESMX 140620Z AUTO 30007KT 9999 FEW016/// OVC019/// 09/05 Q0998=
201605140550 METAR ESMX 140550Z AUTO 29006KT 250V320 9999 FEW011/// SCT014/// BKN017/// 09/06 Q0998=
201605140520 METAR ESMX 140520Z AUTO 30005KT 9999 OVC017/// 09/07 Q0998=
201605140450 METAR ESMX 140450Z AUTO 26003KT 9999 BKN017/// 08/07 Q0998=
201605140420 METAR ESMX 140420Z AUTO 30004KT 9999 OVC013/// 08/07 Q0998=
201605140350 METAR ESMX 140350Z AUTO VRB02KT 9999 FEW009/// OVC011/// 07/07 Q0998=
201605140320 METAR ESMX 140320Z AUTO 31004KT 280V340 9999 FEW002/// SCT004/// BKN006/// 07/07 Q0998=
201605140250 METAR ESMX 140250Z AUTO 33004KT 6000 OVC001/// 06/06 Q0998=
201605140220 METAR ESMX 140220Z AUTO 32006KT 1300 R01/P2000N R19/P2000N FG SCT001/// BKN006/// BKN009/// 06/05 Q0998=
201605140150 METAR ESMX 140150Z AUTO 27004KT 9999 FEW081/// BKN097/// 04/03 Q0998=
201605140120 METAR ESMX 140120Z AUTO 27001KT 9999 FEW094/// 04/02 Q0998=
201605140050 METAR ESMX 140050Z AUTO 26003KT 9999 NCD 06/04 Q0998=
201605140020 METAR ESMX 140020Z AUTO 24003KT 9999 NCD 06/04 Q0998=
201605132350 METAR ESMX 132350Z AUTO 17003KT 9999 NCD 07/04 Q0998=
201605132320 METAR ESMX 132320Z AUTO 25004KT 9999 NCD 07/03 Q0999=
201605132250 METAR ESMX 132250Z AUTO 16003KT 9999 NCD 07/05 Q0999=
201605132220 METAR ESMX 132220Z AUTO 17003KT 9999 NCD 08/05 Q0999=
201605132150 METAR ESMX 132150Z AUTO 19005KT 9999 NCD 08/05 Q0999=
201605132120 METAR ESMX 132120Z AUTO 18004KT 150V220 9999 NCD 11/05 Q0999=
201605132050 METAR ESMX 132050Z AUTO 15006KT 9999 FEW100/// 11/06 Q0999=
201605132020 METAR ESMX 132020Z AUTO 16005KT 9999 FEW100/// 12/05 Q0999=
201605131950 METAR ESMX 131950Z 14007KT CAVOK 13/05 Q0999=
201605131920 METAR ESMX 131920Z 13009KT CAVOK 14/06 Q0999=
201605131850 METAR ESMX 131850Z 16005KT 140V200 CAVOK 16/06 Q0999=
201605131820 METAR ESMX 131820Z 23003KT 200V270 CAVOK 18/05 Q0999=
201605131750 METAR ESMX 131750Z 25003KT CAVOK 18/06 Q0999=
201605131720 METAR ESMX 131720Z VRB01KT CAVOK 19/07 Q0999=
201605131650 METAR ESMX 131650Z 32004KT 280V350 CAVOK 19/05 Q0999=
201605131620 METAR ESMX 131620Z 33005KT 290V350 CAVOK 19/07 Q0999=
201605131550 METAR ESMX 131550Z 32006KT CAVOK 19/06 Q0999=
201605131520 METAR ESMX 131520Z 31006KT 280V350 9999 FEW030 SCT070 BKN095 19/06 Q0999=
201605131450 METAR ESMX 131450Z 26006KT 230V290 9999 FEW030 SCT069 BKN100 21/04 Q0999=
201605131420 METAR COR ESMX 131420Z 26006KT 230V330 CAVOK 21/03 Q0999=
201605131350 METAR ESMX 131350Z 27007KT 9999 FEW110 22/04 Q1000=
201605131320 METAR ESMX 131320Z 34004KT 300V010 CAVOK 21/03 Q1000=
201605131250 METAR ESMX 131250Z 13003KT 070V210 CAVOK 20/03 Q1000=
201605131220 METAR ESMX 131220Z 15003KT 080V240 CAVOK 20/03 Q1001=
201605131150 METAR ESMX 131150Z 04004KT 010V130 CAVOK 19/03 Q1001=
201605131120 METAR ESMX 131120Z VRB03KT CAVOK 20/03 Q1001=
201605131050 METAR ESMX 131050Z 05007KT CAVOK 20/03 Q1001=
201605131020 METAR ESMX 131020Z 08007KT 040V110 CAVOK 19/03 Q1002=
201605130950 METAR ESMX 130950Z 07006KT 010V110 CAVOK 19/02 Q1002=
201605130920 METAR ESMX 130920Z 08003KT 010V150 CAVOK 19/05 Q1002=
201605130850 METAR ESMX 130850Z VRB03KT CAVOK 19/05 Q1002=
201605130820 METAR ESMX 130820Z VRB03KT CAVOK 16/04 Q1002=
201605130750 METAR ESMX 130750Z 31003KT 240V360 CAVOK 15/05 Q1003=
201605130720 METAR ESMX 130720Z VRB01KT CAVOK 14/04 Q1003=
201605130650 METAR ESMX 130650Z 29004KT 260V320 CAVOK 13/03 Q1003=
201605130620 METAR ESMX 130620Z 26005KT CAVOK 12/02 Q1003=
201605130550 METAR ESMX 130550Z VRB03KT CAVOK 11/04 Q1003=
201605130520 METAR ESMX 130520Z 31004KT CAVOK 09/04 Q1004=
201605130450 METAR ESMX 130450Z VRB02KT CAVOK 06/04 Q1004=
201605130420 METAR ESMX 130420Z 29002KT CAVOK 02/01 Q1004=
201605130350 METAR ESMX 130350Z 16001KT CAVOK 02/01 Q1004=
201605130320 METAR ESMX 130320Z AUTO 17002KT 9999 NCD 00/M00 Q1005=
201605130250 METAR ESMX 130250Z AUTO 21001KT 9999 NCD 00/M01 Q1005=
201605130220 METAR ESMX 130220Z AUTO VRB01KT 9999 NCD 01/M00 Q1005=
201605130150 METAR ESMX 130150Z AUTO 17003KT 9999 NCD 00/M01 Q1005=
201605130120 METAR ESMX 130120Z AUTO 18002KT 9999 NCD 01/M00 Q1006=
201605130050 METAR ESMX 130050Z AUTO 00000KT 9999 NCD 01/M00 Q1006=
201605130020 METAR ESMX 130020Z AUTO 00000KT 9999 NCD 02/00 Q1006=
201605122350 METAR ESMX 122350Z AUTO 18002KT 9999 NCD 03/01 Q1006=
201605122320 METAR ESMX 122320Z 18002KT CAVOK 05/01 Q1007=
201605122250 METAR ESMX 122250Z 21003KT CAVOK 05/01 Q1007=
201605122220 METAR ESMX 122220Z 16004KT CAVOK 06/02 Q1007=
201605122150 METAR ESMX 122150Z 14004KT CAVOK 09/02 Q1007=
201605122120 METAR ESMX 122120Z 15005KT CAVOK 11/02 Q1007=
201605122050 METAR ESMX 122050Z 14005KT 100V170 CAVOK 11/02 Q1007=
201605122020 METAR ESMX 122020Z 13005KT 080V170 CAVOK 12/02 Q1007=
201605121950 METAR ESMX 121950Z 12004KT 080V160 CAVOK 12/01 Q1007=
201605121920 METAR ESMX 121920Z 13004KT 100V160 CAVOK 14/00 Q1007=
201605121850 METAR ESMX 121850Z 13004KT 090V160 CAVOK 15/M00 Q1007=
201605121820 METAR ESMX 121820Z 11005KT 070V140 CAVOK 16/00 Q1007=
201605121750 METAR ESMX 121750Z 06003KT 020V130 CAVOK 18/00 Q1007=
201605121720 METAR ESMX 121720Z 04004KT 010V080 CAVOK 18/M00 Q1007=
201605121650 METAR ESMX 121650Z 04005KT CAVOK 18/M01 Q1007=
201605121620 METAR ESMX 121620Z 02004KT 340V060 CAVOK 19/M01 Q1008=
201605121550 METAR ESMX 121550Z 01005KT 340V040 CAVOK 19/M01 Q1008=
201605121520 METAR ESMX 121520Z 01006KT 320V070 CAVOK 19/00 Q1008=
201605121450 METAR ESMX 121450Z 36004KT 250V050 CAVOK 19/M01 Q1009=
201605121420 METAR ESMX 121420Z 34006KT 290V030 CAVOK 19/00 Q1009=
201605121350 METAR ESMX 121350Z 36006KT 320V080 CAVOK 19/M00 Q1009=
201605121320 METAR ESMX 121320Z 35006KT 330V050 CAVOK 19/M00 Q1010=
201605121250 METAR ESMX 121250Z 35005KT 300V040 CAVOK 18/M00 Q1010=
201605121220 METAR ESMX 121220Z 35008KT CAVOK 18/M00 Q1011=
201605121150 METAR ESMX 121150Z 36006KT 300V100 CAVOK 18/M01 Q1011=
201605121120 METAR ESMX 121120Z VRB03KT CAVOK 18/M01 Q1011=
201605121050 METAR ESMX 121050Z 02006KT 320V060 CAVOK 17/M01 Q1012=
201605121020 METAR ESMX 121020Z 04005KT 350V100 CAVOK 17/M00 Q1012=
201605120950 METAR ESMX 120950Z 03005KT 330V090 CAVOK 16/M01 Q1013=
201605120920 METAR ESMX 120920Z 03006KT 350V110 CAVOK 16/M00 Q1013=
201605120850 METAR ESMX 120850Z 05007KT 010V080 9999 FEW049 14/M01 Q1013=
201605120820 METAR ESMX 120820Z 05007KT 010V110 CAVOK 13/M01 Q1013=
201605120750 METAR ESMX 120750Z 06007KT 020V110 CAVOK 13/00 Q1014=
201605120720 METAR ESMX 120720Z 06007KT 030V100 CAVOK 12/M00 Q1014=
201605120650 METAR ESMX 120650Z 05007KT 030V110 CAVOK 11/01 Q1014=
201605120620 METAR ESMX 120620Z 07006KT 020V120 CAVOK 10/02 Q1014=
201605120550 METAR ESMX 120550Z 06005KT 020V100 CAVOK 09/01 Q1015=
201605120520 METAR ESMX 120520Z 05006KT 020V080 CAVOK 08/01 Q1015=
201605120450 METAR ESMX 120450Z 07005KT 030V140 CAVOK 07/01 Q1015=
201605120420 METAR ESMX 120420Z 06005KT 030V110 CAVOK 06/02 Q1015=
201605120350 METAR ESMX 120350Z 05005KT 010V090 CAVOK 06/02 Q1015=
201605120320 METAR ESMX 120320Z AUTO 04005KT 010V080 9999 NCD 05/02 Q1015=
201605120250 METAR ESMX 120250Z AUTO 04005KT 9999 NCD 05/02 Q1016=
201605120220 METAR ESMX 120220Z AUTO 04006KT 9999 NCD 05/02 Q1016=
201605120150 METAR ESMX 120150Z AUTO 04006KT 9999 NCD 05/02 Q1016=
201605120120 METAR ESMX 120120Z AUTO 04006KT 9999 NCD 06/02 Q1016=
201605120050 METAR ESMX 120050Z AUTO 04005KT 9999 NCD 06/01 Q1016=
201605120020 METAR ESMX 120020Z AUTO 07005KT 9999 NCD 06/01 Q1017=
201605112350 METAR ESMX 112350Z AUTO 05005KT 010V080 9999 NCD 06/00 Q1017=
201605112320 METAR ESMX 112320Z 07005KT 030V100 CAVOK 07/M00 Q1017=
201605112250 METAR ESMX 112250Z 03004KT CAVOK 07/M01 Q1017=
201605112220 METAR ESMX 112220Z 05004KT 010V100 CAVOK 08/M01 Q1017=
201605112150 METAR ESMX 112150Z 06005KT 030V110 CAVOK 08/M02 Q1017=
201605112120 METAR ESMX 112120Z 07006KT 040V100 CAVOK 09/M02 Q1017=
201605112050 METAR ESMX 112050Z 08005KT 050V120 CAVOK 09/M02 Q1017=
201605112020 METAR ESMX 112020Z 07005KT 030V120 CAVOK 10/M02 Q1018=
201605111950 METAR ESMX 111950Z 07006KT 040V120 CAVOK 11/M02 Q1017=
201605111920 METAR ESMX 111920Z 05007KT 020V080 CAVOK 12/M02 Q1017=
201605111850 METAR ESMX 111850Z 05007KT 020V100 CAVOK 12/M02 Q1017=
201605111820 METAR ESMX 111820Z 08007KT 030V120 CAVOK 13/M02 Q1017=
201605111750 METAR ESMX 111750Z 07008KT 030V100 CAVOK 14/M02 Q1017=
201605111720 METAR ESMX 111720Z 05008KT 360V090 CAVOK 15/M00 Q1017=
201605111650 METAR ESMX 111650Z 07008KT 040V120 CAVOK 16/01 Q1017=
201605111620 METAR ESMX 111620Z 05007KT 010V110 CAVOK 17/02 Q1017=
201605111550 METAR ESMX 111550Z 06009KT 030V110 CAVOK 17/02 Q1017=
201605111520 METAR ESMX 111520Z 05008KT 010V080 CAVOK 18/03 Q1017=
201605111450 METAR ESMX 111450Z 07009KT 030V100 CAVOK 18/03 Q1017=
201605111420 METAR ESMX 111420Z 07010KT 020V100 CAVOK 18/04 Q1017=
201605111350 METAR ESMX 111350Z 07008KT 030V110 CAVOK 18/04 Q1017=
201605111320 METAR ESMX 111320Z 07010KT 020V110 CAVOK 18/04 Q1018=
201605111250 METAR ESMX 111250Z 09008KT 050V140 CAVOK 18/04 Q1018=
201605111220 METAR ESMX 111220Z 06009KT 020V110 CAVOK 17/04 Q1018=
201605111150 METAR ESMX 111150Z 04012KT CAVOK 17/04 Q1018=
201605111120 METAR ESMX 111120Z 06009KT 030V120 CAVOK 17/05 Q1018=
201605111050 METAR ESMX 111050Z 05011KT 020V080 CAVOK 17/05 Q1018=
201605111020 METAR ESMX 111020Z 06009KT 030V100 CAVOK 16/06 Q1018=
201605110950 METAR ESMX 110950Z 04011KT CAVOK 15/06 Q1018=
201605110920 METAR ESMX 110920Z 05009KT 010V080 CAVOK 15/07 Q1018=
201605110850 METAR ESMX 110850Z 08008KT 020V110 9999 FEW037 15/07 Q1018=
201605110820 METAR ESMX 110820Z 05008KT 010V090 CAVOK 14/07 Q1018=
201605110750 METAR ESMX 110750Z 04009KT 020V080 CAVOK 13/07 Q1018=
201605110720 METAR ESMX 110720Z 05010KT CAVOK 13/06 Q1018=
201605110650 METAR ESMX 110650Z 04009KT 010V080 CAVOK 11/06 Q1018=
201605110620 METAR ESMX 110620Z 03009KT CAVOK 11/07 Q1018=
201605110550 METAR ESMX 110550Z 04008KT CAVOK 11/07 Q1018=
201605110520 METAR ESMX 110520Z 03008KT 360V060 CAVOK 11/08 Q1018=
201605110450 METAR ESMX 110450Z 04007KT CAVOK 12/08 Q1017=
201605110420 METAR ESMX 110420Z 06004KT 030V100 CAVOK 12/09 Q1017=
201605110350 METAR ESMX 110350Z 00000KT CAVOK 09/07 Q1017=
201605110320 METAR ESMX 110320Z AUTO 19003KT 9999 NCD 08/07 Q1017=
201605110250 METAR ESMX 110250Z AUTO VRB02KT 9999 FEW100/// 07/05 Q1017=
201605110220 METAR ESMX 110220Z AUTO 00000KT 9999 NCD 07/05 Q1016=
201605110150 METAR ESMX 110150Z AUTO 00000KT 9999 NCD 07/05 Q1016=
201605110120 METAR ESMX 110120Z AUTO 18003KT 9999 NCD 08/06 Q1016=
201605110050 METAR ESMX 110050Z AUTO 19003KT 9999 NCD 08/05 Q1016=
201605110020 METAR ESMX 110020Z AUTO 18003KT 9999 NCD 08/06 Q1016=
201605102350 METAR ESMX 102350Z 00000KT CAVOK 07/05 Q1016=
201605102320 METAR ESMX 102320Z VRB02KT CAVOK 09/06 Q1016=
201605102250 METAR ESMX 102250Z 17003KT CAVOK 10/06 Q1016=
201605102220 METAR ESMX 102220Z VRB02KT CAVOK 10/06 Q1017=
201605102150 METAR ESMX 102150Z 00000KT CAVOK 10/06 Q1017=
201605102120 METAR ESMX 102120Z 19003KT CAVOK 12/06 Q1017=
201605102050 METAR ESMX 102050Z 19004KT CAVOK 13/06 Q1017=
201605102020 METAR ESMX 102020Z 20004KT CAVOK 13/06 Q1017=
201605101950 METAR ESMX 101950Z 17004KT CAVOK 16/06 Q1017=
201605101920 METAR ESMX 101920Z 18005KT CAVOK 17/05 Q1017=
201605101850 METAR COR ESMX 101850Z 18005KT CAVOK 17/06 Q1017=
201605101820 METAR ESMX 101820Z 17004KT CAVOK 20/06 Q1016=
201605101750 METAR ESMX 101750Z 21002KT CAVOK 20/06 Q1016=
201605101720 METAR ESMX 101720Z 20003KT CAVOK 22/05 Q1016=
201605101650 METAR ESMX 101650Z 20003KT CAVOK 22/05 Q1016=
201605101620 METAR ESMX 101620Z 20003KT CAVOK 22/06 Q1017=
201605101550 METAR ESMX 101550Z 21004KT CAVOK 22/06 Q1017=
201605101520 METAR ESMX 101520Z 20006KT 9999 FEW035 BKN100 22/05 Q1017=
201605101450 METAR ESMX 101450Z 20006KT 9999 FEW045TCU BKN100 23/03 Q1017=
201605101420 METAR ESMX 101420Z 20003KT 080V250 9999 FEW045TCU BKN100 23/03 Q1018=
201605101350 METAR ESMX 101350Z 04005KT 350V080 9999 FEW045 SCT110 23/03 Q1018=
201605101320 METAR ESMX 101320Z VRB03KT 9999 FEW045 SCT100 23/03 Q1018=
201605101250 METAR ESMX 101250Z VRB02KT 9999 FEW045 SCT100 23/02 Q1018=
201605101220 METAR ESMX 101220Z VRB03KT 9999 FEW045 SCT100 23/03 Q1019=
201605101150 METAR ESMX 101150Z 15004KT 090V220 9999 FEW045 SCT100 23/03 Q1019=
201605101120 METAR ESMX 101120Z 08005KT 010V160 9999 FEW045 SCT100 23/03 Q1019=
201605101050 METAR ESMX 101050Z VRB03KT CAVOK 23/01 Q1020=
201605101020 METAR ESMX 101020Z 16005KT 080V240 CAVOK 23/02 Q1020=
201605100950 METAR ESMX 100950Z 17005KT 110V210 CAVOK 23/02 Q1020=
201605100920 METAR ESMX 100920Z 19005KT 150V240 CAVOK 23/03 Q1020=
201605100850 METAR ESMX 100850Z 08004KT 030V140 CAVOK 23/04 Q1021=
201605100820 METAR ESMX 100820Z 16004KT 070V220 CAVOK 21/03 Q1021=
201605100750 METAR ESMX 100750Z 17004KT 100V210 CAVOK 20/04 Q1021=
201605100720 METAR ESMX 100720Z 14003KT 100V190 CAVOK 20/04 Q1021=
201605100650 METAR ESMX 100650Z VRB01KT CAVOK 18/06 Q1021=
201605100620 METAR ESMX 100620Z VRB02KT CAVOK 17/05 Q1022=
201605100550 METAR ESMX 100550Z VRB01KT CAVOK 16/08 Q1022=
201605100520 METAR ESMX 100520Z 00000KT CAVOK 13/09 Q1022=
201605100450 METAR ESMX 100450Z VRB02KT CAVOK 11/08 Q1022=
201605100420 METAR ESMX 100420Z 00000KT CAVOK 06/06 Q1022=
201605100350 METAR ESMX 100350Z 00000KT CAVOK 05/04 Q1022=
201605100320 METAR ESMX 100320Z AUTO 00000KT 9999 NCD 05/04 Q1022=
201605100250 METAR ESMX 100250Z AUTO 17001KT 9999 NCD 05/04 Q1022=
201605100220 METAR ESMX 100220Z AUTO 00000KT 9999 NCD 05/04 Q1022=
201605100150 METAR ESMX 100150Z AUTO 00000KT 9999 NCD 06/05 Q1023=
201605100120 METAR ESMX 100120Z AUTO 00000KT 9999 NCD 05/03 Q1023=
201605100050 METAR ESMX 100050Z AUTO 00000KT 9999 NCD 05/03 Q1023=
201605100020 METAR ESMX 100020Z AUTO 00000KT 9999 NCD 06/04 Q1023=
201605092350 METAR ESMX 092350Z AUTO 18002KT 9999 NCD 07/04 Q1023=
201605092320 METAR ESMX 092320Z 00000KT CAVOK 08/04 Q1023=
201605092250 METAR ESMX 092250Z 21002KT CAVOK 07/04 Q1024=
201605092220 METAR ESMX 092220Z 00000KT CAVOK 09/04 Q1024=
201605092150 METAR ESMX 092150Z 00000KT CAVOK 11/04 Q1024=
201605092120 METAR ESMX 092120Z 15003KT CAVOK 13/04 Q1024=
201605092050 METAR ESMX 092050Z 17005KT CAVOK 17/04 Q1024=
201605092020 METAR ESMX 092020Z 17006KT CAVOK 16/05 Q1024=
201605091950 METAR ESMX 091950Z 14004KT CAVOK 16/04 Q1024=
201605091920 METAR ESMX 091920Z 14004KT CAVOK 18/04 Q1024=
201605091850 METAR ESMX 091850Z 13005KT 090V160 CAVOK 20/03 Q1023=
201605091820 METAR ESMX 091820Z 14006KT 110V170 CAVOK 21/03 Q1023=
201605091750 METAR ESMX 091750Z 12008KT 080V170 CAVOK 22/03 Q1023=
201605091720 METAR ESMX 091720Z 11004KT 060V180 CAVOK 23/02 Q1023=
201605091650 METAR ESMX 091650Z VRB03KT CAVOK 24/M01 Q1023=
201605091620 METAR ESMX 091620Z 35003KT CAVOK 24/M02 Q1023=
201605091550 METAR ESMX 091550Z 35007KT CAVOK 24/00 Q1023=
201605091520 METAR ESMX 091520Z 35007KT CAVOK 24/M01 Q1023=
201605091450 METAR ESMX 091450Z 03007KT 360V110 CAVOK 24/M00 Q1023=
201605091420 METAR ESMX 091420Z 02005KT 350V060 CAVOK 24/M00 Q1024=
201605091350 METAR ESMX 091350Z 36007KT CAVOK 24/M00 Q1024=
201605091320 METAR ESMX 091320Z VRB06KT CAVOK 24/01 Q1024=
201605091250 METAR ESMX 091250Z 06006KT 020V100 CAVOK 24/M01 Q1024=
201605091220 METAR ESMX 091220Z 36008KT 330V070 CAVOK 23/02 Q1024=
201605091150 METAR ESMX 091150Z 36008KT 330V060 CAVOK 24/02 Q1025=
201605091120 METAR ESMX 091120Z 04008KT 360V060 CAVOK 23/02 Q1025=
201605091050 METAR ESMX 091050Z 02006KT 340V070 CAVOK 23/02 Q1025=
201605091020 METAR ESMX 091020Z 02006KT 330V070 CAVOK 22/03 Q1025=
201605090950 METAR ESMX 090950Z 03004KT 350V070 CAVOK 23/03 Q1025=
201605090920 METAR ESMX 090920Z 32005KT 290V350 CAVOK 21/03 Q1026=
201605090850 METAR ESMX 090850Z 04005KT 010V090 CAVOK 20/03 Q1026=
201605090820 METAR ESMX 090820Z VRB04KT CAVOK 20/03 Q1026=
201605090750 METAR ESMX 090750Z VRB03KT CAVOK 20/02 Q1026=
201605090720 METAR ESMX 090720Z 32003KT 290V360 CAVOK 18/02 Q1026=
201605090650 METAR ESMX 090650Z VRB02KT CAVOK 17/05 Q1026=
201605090620 METAR ESMX 090620Z 36003KT CAVOK 16/07 Q1026=
201605090550 METAR ESMX 090550Z 00000KT CAVOK 14/08 Q1026=
201605090520 METAR ESMX 090520Z VRB02KT CAVOK 12/09 Q1026=
201605090450 METAR ESMX 090450Z 35002KT CAVOK 09/07 Q1026=
201605090420 METAR ESMX 090420Z 00000KT CAVOK 05/05 Q1026=
201605090350 METAR ESMX 090350Z 00000KT 9999 BCFG NSC 03/03 Q1026=
201605090320 METAR ESMX 090320Z AUTO 00000KT 9999 NCD 04/03 Q1026=
201605090250 METAR ESMX 090250Z AUTO 00000KT 9999 BR NCD 03/02 Q1026=
201605090220 METAR ESMX 090220Z AUTO 00000KT 9999 NCD 04/02 Q1026=
201605090150 METAR ESMX 090150Z AUTO 00000KT 9999 NCD 05/04 Q1026=
201605090120 METAR ESMX 090120Z AUTO 00000KT 9999 NCD 05/03 Q1026=
201605090050 METAR ESMX 090050Z AUTO 00000KT 9999 NCD 05/03 Q1026=
201605090020 METAR ESMX 090020Z AUTO 00000KT 9999 NCD 06/03 Q1026=
201605082350 METAR ESMX 082350Z AUTO 00000KT 9999 NCD 06/04 Q1026=
201605082320 METAR COR ESMX 082320Z 00000KT CAVOK 07/04 Q1026=
201605082250 METAR ESMX 082250Z 00000KT CAVOK 09/04 Q1026=
201605082220 METAR ESMX 082220Z AUTO 14004KT 9999 NCD 07/03 Q1026=
201605082150 METAR ESMX 082150Z 14004KT CAVOK 10/04 Q1026=
201605082120 METAR ESMX 082120Z 00000KT CAVOK 11/04 Q1026=
201605082050 METAR ESMX 082050Z 14004KT CAVOK 12/05 Q1025=
201605082020 METAR ESMX 082020Z 14004KT CAVOK 13/05 Q1025=
201605081950 METAR ESMX 081950Z 14004KT CAVOK 14/05 Q1025=
201605081920 METAR ESMX 081920Z 16004KT CAVOK 17/04 Q1025=
201605081850 METAR ESMX 081850Z 17004KT CAVOK 19/04 Q1024=
201605081820 METAR ESMX 081820Z 17007KT CAVOK 20/04 Q1024=
201605081750 METAR ESMX 081750Z 17008KT CAVOK 21/04 Q1024=
201605081720 METAR ESMX 081720Z 18004KT CAVOK 22/03 Q1023=
201605081650 METAR ESMX 081650Z AUTO 20005KT 140V230 9999 NCD 23/02 Q1023=
201605081620 METAR ESMX 081620Z AUTO VRB02KT 9999 NCD 23/01 Q1024=
201605081550 METAR ESMX 081550Z 02004KT CAVOK 24/02 Q1024=
201605081520 METAR ESMX 081520Z 23004KT 170V290 CAVOK 24/02 Q1024=
201605081450 METAR ESMX 081450Z VRB04KT CAVOK 24/03 Q1024=
201605081420 METAR ESMX 081420Z 19005KT 150V210 CAVOK 24/03 Q1024=
201605081350 METAR ESMX 081350Z 03003KT 320V080 CAVOK 24/03 Q1024=
201605081320 METAR ESMX 081320Z 09005KT 020V150 CAVOK 23/02 Q1024=
201605081250 METAR ESMX 081250Z 17005KT 120V210 CAVOK 24/03 Q1024=
201605081220 METAR ESMX 081220Z 07007KT 030V140 CAVOK 24/03 Q1025=
201605081150 METAR ESMX 081150Z 01007KT 330V040 CAVOK 23/02 Q1025=
201605081120 METAR ESMX 081120Z VRB03KT CAVOK 23/02 Q1025=
201605081050 METAR ESMX 081050Z 16005KT 090V240 CAVOK 23/04 Q1025=
201605081020 METAR ESMX 081020Z AUTO 18007KT 140V220 9999 NCD 23/03 Q1025=
201605080950 METAR ESMX 080950Z AUTO 18008KT 140V210 9999 NCD 22/02 Q1025=
201605080920 METAR ESMX 080920Z AUTO 14004KT 080V240 9999 NCD 22/03 Q1025=
201605080850 METAR ESMX 080850Z AUTO 12005KT 070V210 9999 NCD 21/01 Q1025=
201605080820 METAR ESMX 080820Z AUTO 14006KT 080V190 9999 NCD 20/01 Q1025=
201605080750 METAR ESMX 080750Z AUTO 11005KT 070V160 9999 NCD 20/01 Q1025=
201605080720 METAR ESMX 080720Z AUTO 11006KT 070V190 9999 NCD 18/M00 Q1025=
201605080650 METAR ESMX 080650Z AUTO 11004KT 070V150 9999 NCD 17/03 Q1025=
201605080620 METAR ESMX 080620Z AUTO VRB02KT 9999 NCD 16/03 Q1025=
201605080550 METAR ESMX 080550Z AUTO VRB02KT 9999 NCD 14/02 Q1025=
201605080520 METAR ESMX 080520Z AUTO 01002KT 9999 NCD 12/06 Q1025=
201605080450 METAR ESMX 080450Z AUTO 36003KT 9999 NCD 09/05 Q1025=
201605080420 METAR ESMX 080420Z AUTO 36002KT 9999 NCD 05/02 Q1025=
201605080350 METAR ESMX 080350Z AUTO 02001KT 9999 NCD 04/03 Q1025=
201605080320 METAR ESMX 080320Z AUTO VRB02KT 9999 NCD 02/01 Q1024=
201605080250 METAR ESMX 080250Z AUTO 00000KT 9999 NCD 02/01 Q1024=
201605080220 METAR ESMX 080220Z AUTO 00000KT 9999 NCD 03/01 Q1024=
201605080150 METAR ESMX 080150Z AUTO 00000KT 9999 NCD 03/01 Q1024=
201605080120 METAR ESMX 080120Z AUTO 00000KT 9999 NCD 03/01 Q1024=
201605080050 METAR ESMX 080050Z AUTO 00000KT 9999 NCD 04/02 Q1024=
201605080020 METAR ESMX 080020Z AUTO 00000KT 9999 NCD 04/02 Q1024=
201605072350 METAR ESMX 072350Z AUTO 00000KT 9999 NCD 06/02 Q1024=
201605072320 METAR ESMX 072320Z AUTO 00000KT 9999 NCD 07/02 Q1024=
201605072250 METAR ESMX 072250Z AUTO VRB01KT 9999 NCD 07/03 Q1023=
201605072220 METAR ESMX 072220Z AUTO 14004KT 9999 NCD 10/03 Q1023=
201605072150 METAR ESMX 072150Z AUTO 14005KT 9999 NCD 10/04 Q1023=
201605072120 METAR ESMX 072120Z AUTO 13003KT 9999 NCD 11/04 Q1023=
201605072050 METAR ESMX 072050Z AUTO 12001KT 9999 NCD 10/04 Q1023=
201605072020 METAR ESMX 072020Z AUTO 13003KT 9999 NCD 12/05 Q1023=
201605071950 METAR ESMX 071950Z AUTO 15005KT 9999 NCD 16/04 Q1022=
201605071920 METAR ESMX 071920Z AUTO 16006KT 9999 NCD 16/04 Q1022=
201605071850 METAR ESMX 071850Z AUTO 16007KT 9999 NCD 18/03 Q1022=
201605071820 METAR ESMX 071820Z AUTO 16008KT 9999 NCD 19/04 Q1021=
201605071750 METAR ESMX 071750Z AUTO 17006KT 9999 NCD 20/03 Q1021=
201605071720 METAR ESMX 071720Z AUTO 18006KT 9999 NCD 20/04 Q1021=
201605071650 METAR ESMX 071650Z AUTO 15005KT 120V200 9999 NCD 21/03 Q1021=
201605071620 METAR ESMX 071620Z AUTO 16008KT 9999 NCD 21/03 Q1021=
201605071550 METAR ESMX 071550Z AUTO 16005KT 090V200 9999 NCD 22/03 Q1021=
201605071520 METAR ESMX 071520Z AUTO 15004KT 100V220 9999 NCD 22/03 Q1021=
201605071450 METAR ESMX 071450Z AUTO VRB04KT 9999 NCD 22/02 Q1021=
201605071420 METAR ESMX 071420Z AUTO VRB04KT 9999 NCD 22/02 Q1021=
201605071350 METAR ESMX 071350Z AUTO 12005KT 060V230 9999 NCD 22/02 Q1022=
201605071320 METAR ESMX 071320Z AUTO 15007KT 100V200 9999 NCD 21/02 Q1022=
201605071250 METAR ESMX 071250Z AUTO 19007KT 140V240 9999 NCD 22/03 Q1022=
201605071220 METAR ESMX 071220Z AUTO 16008KT 120V210 9999 NCD 22/03 Q1022=
201605071150 METAR ESMX 071150Z AUTO 16006KT 110V220 9999 NCD 21/02 Q1022=
201605071120 METAR ESMX 071120Z AUTO 13005KT 060V190 9999 NCD 20/01 Q1022=
201605071050 METAR ESMX 071050Z AUTO VRB05KT 9999 NCD 20/01 Q1022=
201605071020 METAR ESMX 071020Z AUTO 16006KT 120V290 9999 NCD 19/01 Q1022=
201605070950 METAR ESMX 070950Z AUTO 14007KT 090V190 9999 NCD 19/01 Q1022=
201605070920 METAR ESMX 070920Z AUTO 10006KT 050V170 9999 NCD 18/00 Q1023=
201605070850 METAR ESMX 070850Z AUTO 14006KT 080V180 9999 NCD 18/M00 Q1023=
201605070820 METAR ESMX 070820Z AUTO 14006KT 100V190 9999 NCD 17/M02 Q1023=
201605070750 METAR ESMX 070750Z AUTO 13006KT 050V170 9999 NCD 17/M02 Q1023=
201605070720 METAR ESMX 070720Z AUTO 12006KT 070V190 9999 NCD 15/M02 Q1023=
201605070650 METAR ESMX 070650Z AUTO 14006KT 080V190 9999 NCD 15/M02 Q1023=
201605070620 METAR ESMX 070620Z AUTO 12005KT 080V160 9999 NCD 14/M01 Q1023=
201605070550 METAR ESMX 070550Z AUTO 11005KT 070V160 9999 NCD 13/01 Q1023=
201605070520 METAR ESMX 070520Z AUTO VRB02KT 9999 NCD 10/03 Q1023=
201605070450 METAR ESMX 070450Z AUTO 00000KT 9999 NCD 07/03 Q1023=
201605070420 METAR ESMX 070420Z AUTO 00000KT 9999 NCD 02/02 Q1022=
201605070350 METAR ESMX 070350Z AUTO 00000KT 9999 NCD 01/01 Q1022=
201605070320 METAR ESMX 070320Z AUTO 00000KT 9999 NCD 01/01 Q1022=
201605070250 METAR ESMX 070250Z AUTO VRB02KT 9999 NCD 02/02 Q1023=
201605070220 METAR ESMX 070220Z AUTO 00000KT 9999 NCD 01/00 Q1023=
201605070150 METAR ESMX 070150Z AUTO 00000KT 9999 NCD 01/M00 Q1023=
201605070120 METAR ESMX 070120Z AUTO 00000KT 9999 NCD 01/M00 Q1023=
201605070050 METAR ESMX 070050Z AUTO 00000KT 9999 NCD 02/01 Q1023=
201605070020 METAR ESMX 070020Z AUTO 00000KT 9999 NCD 02/01 Q1023=
201605062350 METAR ESMX 062350Z AUTO 00000KT 9999 NCD 02/01 Q1023=
201605062320 METAR ESMX 062320Z AUTO 00000KT 9999 NCD 03/M00 Q1022=
201605062250 METAR ESMX 062250Z AUTO 00000KT 9999 NCD 04/00 Q1022=
201605062220 METAR ESMX 062220Z AUTO 00000KT 9999 NCD 05/02 Q1022=
201605062150 METAR ESMX 062150Z AUTO 00000KT 9999 NCD 05/01 Q1022=
201605062120 METAR ESMX 062120Z AUTO 00000KT 9999 NCD 06/01 Q1022=
201605062050 METAR ESMX 062050Z AUTO 16003KT 9999 NCD 08/02 Q1022=
201605062020 METAR ESMX 062020Z AUTO 18004KT 9999 NCD 10/01 Q1022=
201605061950 METAR ESMX 061950Z AUTO 19005KT 9999 NCD 10/01 Q1022=
201605061920 METAR ESMX 061920Z AUTO 18006KT 9999 NCD 12/01 Q1022=
201605061850 METAR ESMX 061850Z AUTO 17007KT 9999 NCD 14/01 Q1022=
201605061820 METAR ESMX 061820Z AUTO 18008KT 9999 NCD 15/01 Q1022=
201605061750 METAR ESMX 061750Z AUTO 17008KT 9999 NCD 16/01 Q1022=
201605061720 METAR ESMX 061720Z AUTO 18009KT 9999 NCD 17/01 Q1022=
201605061650 METAR ESMX 061650Z AUTO 18010KT 9999 NCD 17/01 Q1022=
201605061620 METAR ESMX 061620Z AUTO 18009KT 140V200 9999 NCD 18/02 Q1022=
201605061550 METAR ESMX 061550Z 16009KT CAVOK 19/01 Q1022=
201605061520 METAR ESMX 061520Z 16008KT 120V190 CAVOK 19/01 Q1022=
201605061450 METAR ESMX 061450Z 17008KT 130V230 CAVOK 19/01 Q1022=
201605061420 METAR ESMX 061420Z 17009KT CAVOK 19/02 Q1022=
201605061350 METAR ESMX 061350Z 17007KT 110V220 CAVOK 20/02 Q1022=
201605061320 METAR ESMX 061320Z 18010KT 150V220 CAVOK 20/02 Q1023=
201605061250 METAR ESMX 061250Z 18009KT 120V220 CAVOK 20/03 Q1023=
201605061220 METAR ESMX 061220Z 15008KT 080V250 CAVOK 19/02 Q1023=
201605061150 METAR ESMX 061150Z 15008KT 110V200 CAVOK 19/02 Q1023=
201605061120 METAR ESMX 061120Z 17010KT 120V220 CAVOK 19/03 Q1024=
201605061050 METAR ESMX 061050Z VRB05KT CAVOK 19/03 Q1024=
201605061020 METAR ESMX 061020Z 20008KT 150V240 CAVOK 18/02 Q1024=
201605060950 METAR ESMX 060950Z 19007KT 140V240 CAVOK 18/01 Q1024=
201605060920 METAR ESMX 060920Z 18007KT 120V230 CAVOK 18/01 Q1024=
201605060850 METAR ESMX 060850Z 22006KT 190V260 CAVOK 17/03 Q1025=
201605060820 METAR ESMX 060820Z 20008KT CAVOK 17/03 Q1025=
201605060750 METAR ESMX 060750Z 18008KT CAVOK 16/03 Q1025=
201605060720 METAR ESMX 060720Z 21007KT 170V240 CAVOK 15/04 Q1025=
201605060650 METAR ESMX 060650Z 19004KT 160V240 CAVOK 14/04 Q1025=
201605060620 METAR ESMX 060620Z AUTO 18004KT 140V210 9999 NCD 12/03 Q1025=
201605060550 METAR ESMX 060550Z AUTO VRB02KT 9999 NCD 11/05 Q1025=
201605060520 METAR ESMX 060520Z AUTO 00000KT 9999 NCD 09/06 Q1025=
201605060450 METAR ESMX 060450Z AUTO 00000KT 9999 NCD 06/05 Q1025=
201605060420 METAR ESMX 060420Z AUTO 00000KT 9999 NCD 02/02 Q1025=
201605060350 METAR ESMX 060350Z AUTO 00000KT 9999 NCD 01/01 Q1025=
201605060320 METAR ESMX 060320Z AUTO VRB01KT 9999 NCD 02/01 Q1025=
201605060250 METAR ESMX 060250Z AUTO 00000KT 9999 BCFG NCD 02/01 Q1025=
201605060220 METAR ESMX 060220Z AUTO 00000KT 9999 BCFG NCD 02/02 Q1025=
201605060150 METAR ESMX 060150Z AUTO 00000KT 9999 NCD 02/02 Q1025=
201605060120 METAR ESMX 060120Z AUTO 00000KT 9999 NCD 03/02 Q1025=
201605060050 METAR ESMX 060050Z AUTO 00000KT 9999 NCD 03/03 Q1025=
201605060020 METAR ESMX 060020Z AUTO 00000KT 9999 NCD 04/03 Q1025=
201605052350 METAR ESMX 052350Z AUTO 00000KT 9999 NCD 04/02 Q1025=
201605052320 METAR ESMX 052320Z AUTO 14001KT 9999 NCD 05/03 Q1025=
201605052250 METAR ESMX 052250Z 00000KT CAVOK 06/03 Q1025=
201605052220 METAR ESMX 052220Z 15002KT CAVOK 07/04 Q1025=
201605052150 METAR ESMX 052150Z 15005KT CAVOK 08/04 Q1025=
201605052120 METAR ESMX 052120Z 14004KT CAVOK 08/04 Q1025=
201605052050 METAR ESMX 052050Z 13004KT CAVOK 09/04 Q1025=
201605052020 METAR ESMX 052020Z 15004KT 9999 NSC 11/04 Q1025=
201605051950 METAR ESMX 051950Z 18005KT CAVOK 13/03 Q1025=
201605051920 METAR ESMX 051920Z 20004KT CAVOK 13/03 Q1025=
201605051850 METAR ESMX 051850Z 18007KT CAVOK 14/03 Q1025=
201605051820 METAR COR ESMX 051820Z 17003KT CAVOK 16/01 Q1025=
201605051750 METAR ESMX 051750Z 31004KT CAVOK 17/M00 Q1025=
201605051720 METAR ESMX 051720Z 31004KT 270V340 CAVOK 18/M00 Q1025=
201605051650 METAR ESMX 051650Z AUTO 25004KT 200V280 9999 NCD 18/M00 Q1025=
201605051620 METAR ESMX 051620Z 31004KT 250V010 CAVOK 19/M00 Q1025=
201605051550 METAR ESMX 051550Z 24006KT 200V280 CAVOK 19/01 Q1026=
201605051520 METAR ESMX 051520Z 27004KT 170V330 CAVOK 19/M01 Q1026=
201605051450 METAR ESMX 051450Z VRB03KT CAVOK 18/01 Q1026=
201605051420 METAR ESMX 051420Z VRB03KT CAVOK 17/01 Q1026=
201605051350 METAR ESMX 051350Z VRB05KT CAVOK 18/01 Q1026=
201605051320 METAR ESMX 051320Z VRB03KT CAVOK 18/02 Q1027=
201605051250 METAR ESMX 051250Z 31005KT 270V010 CAVOK 17/01 Q1027=
201605051220 METAR ESMX 051220Z VRB02KT CAVOK 18/03 Q1027=
201605051150 METAR ESMX 051150Z AUTO 35006KT 9999 FEW064/// 16/01 Q1027=
201605051120 METAR ESMX 051120Z AUTO 35006KT 9999 NCD 16/02 Q1027=
201605051050 METAR ESMX 051050Z AUTO 08005KT 010V110 9999 NCD 17/02 Q1028=
201605051020 METAR ESMX 051020Z AUTO 35006KT 9999 NCD 17/00 Q1028=
201605050950 METAR ESMX 050950Z AUTO 35006KT 320V040 9999 NCD 16/01 Q1028=
201605050920 METAR ESMX 050920Z AUTO 34005KT 290V020 9999 NCD 15/M01 Q1028=
201605050850 METAR ESMX 050850Z AUTO 32005KT 290V010 9999 NCD 15/M01 Q1028=
201605050820 METAR ESMX 050820Z AUTO 01003KT 310V120 9999 NCD 14/00 Q1028=
201605050750 METAR ESMX 050750Z AUTO 34004KT 300V010 9999 NCD 13/M01 Q1028=
201605050720 METAR ESMX 050720Z AUTO 36004KT 320V030 9999 NCD 12/00 Q1029=
201605050650 METAR ESMX 050650Z AUTO 36006KT 9999 NCD 11/00 Q1029=
201605050620 METAR ESMX 050620Z AUTO 01006KT 9999 FEW064/// 10/00 Q1028=
201605050550 METAR ESMX 050550Z AUTO 01006KT 9999 NCD 10/01 Q1028=
201605050520 METAR ESMX 050520Z AUTO 35005KT 310V010 9999 SCT070/// 08/02 Q1028=
201605050450 METAR ESMX 050450Z AUTO 34005KT 9999 BKN066/// 08/02 Q1028=
201605050420 METAR ESMX 050420Z AUTO 32003KT 9999 SCT068/// 06/02 Q1028=
201605050350 METAR ESMX 050350Z AUTO VRB02KT 9999 BKN068/// 06/02 Q1028=
201605050320 METAR ESMX 050320Z AUTO 31002KT 9999 BKN065/// 05/02 Q1028=
201605050250 METAR ESMX 050250Z AUTO VRB02KT 9999 BKN063/// 05/02 Q1028=
201605050220 METAR ESMX 050220Z AUTO 31004KT 9999 OVC063/// 03/01 Q1028=
201605050150 METAR ESMX 050150Z AUTO 31002KT 9999 OVC064/// 03/01 Q1028=
201605050120 METAR ESMX 050120Z AUTO 31003KT 9999 FEW065/// 04/01 Q1028=
201605050050 METAR ESMX 050050Z AUTO 00000KT 9999 NCD 04/01 Q1028=
201605050020 METAR ESMX 050020Z AUTO 32003KT 9999 NCD 05/01 Q1027=
201605042350 METAR ESMX 042350Z AUTO 31005KT 9999 NCD 05/01 Q1028=
201605042320 METAR ESMX 042320Z AUTO 32006KT 9999 FEW064/// 06/01 Q1027=
201605042250 METAR ESMX 042250Z AUTO 32006KT 9999 SCT064/// 07/01 Q1027=
201605042220 METAR ESMX 042220Z AUTO 31005KT 9999 FEW066/// 08/01 Q1027=
201605042150 METAR ESMX 042150Z AUTO 30006KT 9999 NCD 08/01 Q1027=
201605042120 METAR ESMX 042120Z AUTO 30006KT 9999 NCD 09/01 Q1027=
201605042050 METAR ESMX 042050Z AUTO 29006KT 9999 FEW067/// 10/01 Q1027=
201605042020 METAR ESMX 042020Z AUTO 28005KT 9999 NCD 10/01 Q1026=
201605041950 METAR ESMX 041950Z 28005KT CAVOK 11/00 Q1026=
201605041920 METAR ESMX 041920Z 26004KT 190V290 CAVOK 12/00 Q1026=
201605041850 METAR COR ESMX 041850Z VRB02KT CAVOK 12/01 Q1025=
201605041820 METAR ESMX 041820Z 32003KT CAVOK 15/00 Q1025=
201605041750 METAR ESMX 041750Z 32005KT 290V350 CAVOK 16/01 Q1025=
201605041720 METAR ESMX 041720Z 35005KT 310V020 CAVOK 16/00 Q1025=
201605041650 METAR ESMX 041650Z 34006KT 300V010 CAVOK 17/01 Q1025=
201605041620 METAR ESMX 041620Z 33006KT CAVOK 16/02 Q1025=
201605041550 METAR ESMX 041550Z 32007KT 290V360 CAVOK 16/01 Q1025=
201605041520 METAR ESMX 041520Z 30006KT 250V340 CAVOK 17/01 Q1025=
201605041420 METAR ESMX 041420Z 29004KT 240V360 CAVOK 16/01 Q1025=
201605041350 METAR ESMX 041350Z 35009KT 320V030 CAVOK 18/02 Q1024=
201605041320 METAR ESMX 041320Z 36007KT 320V070 9999 FEW040 SCT060 17/01 Q1024=
201605041250 METAR ESMX 041250Z 02006KT 320V050 9999 FEW040 17/02 Q1024=
201605041220 METAR ESMX 041220Z 36004KT 270V050 9999 FEW045 16/01 Q1025=
201605041150 METAR ESMX 041150Z 36006KT 270V080 9999 FEW045 15/02 Q1024=
201605041120 METAR ESMX 041120Z 02009KT 330V060 9999 FEW045 16/03 Q1024=
201605041050 METAR ESMX 041050Z 36010KT 320V030 CAVOK 15/03 Q1024=
201605041020 METAR ESMX 041020Z 01010KT 340V040 CAVOK 15/03 Q1024=
201605040950 METAR ESMX 040950Z 34007KT 290V020 CAVOK 14/01 Q1024=
201605040920 METAR ESMX 040920Z 30006KT 250V020 CAVOK 13/02 Q1024=
201605040850 METAR ESMX 040850Z 32004KT 270V020 CAVOK 12/04 Q1024=
201605040820 METAR ESMX 040820Z 29006KT 230V330 CAVOK 11/04 Q1024=
201605040750 METAR ESMX 040750Z 29006KT 250V330 CAVOK 10/05 Q1024=
201605040720 METAR ESMX 040720Z 28005KT 240V350 CAVOK 09/04 Q1024=
201605040650 METAR ESMX 040650Z 33006KT 9999 SCT008 07/04 Q1024=
201605040620 METAR ESMX 040620Z 33008KT 9999 BKN007 06/04 Q1024=
201605040550 METAR ESMX 040550Z 28006KT 9999 BKN006 06/04 Q1023=
201605040520 METAR ESMX 040520Z 30008KT 250V330 9999 BKN006 06/05 Q1023=
201605040450 METAR ESMX 040450Z 28004KT 9999 FEW007 SCT085 05/04 Q1023=
201605040420 METAR ESMX 040420Z VRB03KT CAVOK 04/03 Q1022=
201605040350 METAR ESMX 040350Z 27004KT CAVOK 03/02 Q1022=
201605040320 METAR ESMX 040320Z AUTO 29004KT 9999 NCD 03/02 Q1022=
201605040250 METAR ESMX 040250Z AUTO 31004KT 9999 NCD 04/03 Q1021=
201605040220 METAR ESMX 040220Z AUTO 29005KT 9999 NCD 04/03 Q1021=
201605040150 METAR ESMX 040150Z AUTO 29005KT 9999 NCD 04/03 Q1021=
201605040120 METAR ESMX 040120Z AUTO 31005KT 9999 NCD 05/03 Q1021=
201605040050 METAR ESMX 040050Z AUTO 31005KT 9999 NCD 06/03 Q1021=
201605040020 METAR ESMX 040020Z AUTO 29007KT 9999 NCD 06/04 Q1021=
201605032350 METAR ESMX 032350Z AUTO 29005KT 9999 NCD 06/04 Q1020=
201605032320 METAR ESMX 032320Z 30006KT CAVOK 07/04 Q1020=
201605032250 METAR ESMX 032250Z 29007KT CAVOK 07/05 Q1020=
201605032220 METAR ESMX 032220Z 29005KT 9999 FEW034 BKN087 08/05 Q1020=
201605032150 METAR ESMX 032150Z 30005KT CAVOK 08/06 Q1020=
201605032120 METAR ESMX 032120Z 27005KT 9999 BKN083 09/06 Q1019=
201605032050 METAR ESMX 032050Z 28006KT CAVOK 10/06 Q1019=
201605032020 METAR ESMX 032020Z 27005KT 9999 FEW035 10/06 Q1019=
201605031950 METAR ESMX 031950Z 26005KT 210V290 CAVOK 11/05 Q1018=
201605031920 METAR ESMX 031920Z 26005KT 9999 FEW031 11/04 Q1018=
201605031850 METAR ESMX 031850Z 20008KT CAVOK 12/03 Q1017=
201605031820 METAR ESMX 031820Z 19008KT CAVOK 12/03 Q1017=
201605031750 METAR ESMX 031750Z 18010KT CAVOK 14/02 Q1017=
201605031720 METAR ESMX 031720Z 17008KT CAVOK 16/02 Q1017=
201605031650 METAR ESMX 031650Z 17008KT 140V200 9999 FEW030 16/02 Q1016=
201605031620 METAR ESMX 031620Z 17008KT 140V210 9999 FEW030 17/02 Q1016=
201605031550 METAR ESMX 031550Z 17007KT 150V210 CAVOK 17/00 Q1016=
201605031520 METAR ESMX 031520Z 18008KT 140V200 CAVOK 17/01 Q1016=
201605031450 METAR ESMX 031450Z 20009KT CAVOK 18/01 Q1016=
201605031420 METAR ESMX 031420Z 19008KT 150V220 CAVOK 18/00 Q1016=
201605031350 METAR ESMX 031350Z 16009KT 110V210 CAVOK 18/M01 Q1016=
201605031320 METAR ESMX 031320Z 17009KT 110V210 CAVOK 17/M01 Q1017=
201605031250 METAR ESMX 031250Z 17009KT 120V200 CAVOK 18/00 Q1017=
201605031220 METAR ESMX 031220Z 18010KT 140V210 CAVOK 18/M01 Q1017=
201605031150 METAR ESMX 031150Z 20011KT 150V230 CAVOK 18/00 Q1017=
201605031120 METAR ESMX 031120Z 17010KT 130V200 CAVOK 17/M01 Q1017=
201605031050 METAR ESMX 031050Z 17010KT 130V200 CAVOK 17/M00 Q1017=
201605031020 METAR ESMX 031020Z 16009KT 120V200 CAVOK 16/M00 Q1017=
201605030950 METAR ESMX 030950Z 18010KT 110V220 CAVOK 16/M00 Q1018=
201605030920 METAR ESMX 030920Z 15008KT 100V190 CAVOK 16/00 Q1018=
201605030850 METAR ESMX 030850Z 16009KT 120V190 CAVOK 15/00 Q1018=
201605030820 METAR ESMX 030820Z 15009KT 120V190 CAVOK 14/M01 Q1018=
201605030750 METAR ESMX 030750Z 15009KT 120V190 CAVOK 13/01 Q1018=
201605030720 METAR ESMX 030720Z 15008KT 120V190 CAVOK 12/01 Q1018=
201605030650 METAR ESMX 030650Z 15008KT CAVOK 11/02 Q1018=
201605030620 METAR ESMX 030620Z 16007KT 120V190 CAVOK 10/02 Q1018=
201605030550 METAR ESMX 030550Z 15006KT 120V180 CAVOK 09/02 Q1018=
201605030520 METAR ESMX 030520Z 16006KT 130V190 CAVOK 08/02 Q1018=
201605030450 METAR ESMX 030450Z 15005KT CAVOK 07/03 Q1018=
201605030420 METAR ESMX 030420Z 15003KT CAVOK 03/02 Q1018=
201605030350 METAR ESMX 030350Z VRB03KT CAVOK 01/01 Q1018=
201605030320 METAR ESMX 030320Z AUTO 00000KT 9999 NCD 01/01 Q1018=
201605030250 METAR ESMX 030250Z AUTO 00000KT 9999 NCD 02/01 Q1019=
201605030220 METAR ESMX 030220Z AUTO VRB01KT 9999 NCD 02/02 Q1019=
201605030150 METAR ESMX 030150Z AUTO VRB03KT 9999 NCD 03/02 Q1019=
201605030120 METAR ESMX 030120Z AUTO 14003KT 9999 NCD 03/02 Q1019=
201605030050 METAR ESMX 030050Z AUTO 15003KT 9999 NCD 04/02 Q1019=
201605030020 METAR ESMX 030020Z AUTO 15003KT 9999 NCD 06/03 Q1019=
201605022350 METAR ESMX 022350Z 15004KT CAVOK 08/03 Q1020=
201605022320 METAR ESMX 022320Z 15004KT CAVOK 07/03 Q1020=
201605022250 METAR ESMX 022250Z 17003KT CAVOK 08/03 Q1020=
201605022220 METAR ESMX 022220Z 18004KT CAVOK 08/03 Q1020=
201605022150 METAR ESMX 022150Z 17004KT CAVOK 09/03 Q1020=
201605022120 METAR ESMX 022120Z 18005KT CAVOK 09/03 Q1020=
201605022050 METAR ESMX 022050Z 18007KT CAVOK 08/03 Q1020=
201605022020 METAR ESMX 022020Z 18004KT 9999 FEW049 09/04 Q1021=
201605021950 METAR ESMX 021950Z 19005KT CAVOK 10/04 Q1020=
201605021920 METAR ESMX 021920Z 19006KT CAVOK 10/04 Q1021=
201605021850 METAR ESMX 021850Z 16007KT CAVOK 13/04 Q1021=
201605021820 METAR ESMX 021820Z 15006KT CAVOK 14/02 Q1020=
201605021750 METAR ESMX 021750Z 21007KT CAVOK 14/M03 Q1020=
201605021720 METAR ESMX 021720Z 21008KT CAVOK 16/M03 Q1020=
201605021650 METAR ESMX 021650Z 21008KT 190V260 CAVOK 17/M04 Q1021=
201605021620 METAR ESMX 021620Z AUTO 20009KT 9999 NCD 17/M04 Q1021=
201605021550 METAR ESMX 021550Z 23007KT 200V270 CAVOK 17/M04 Q1021=
201605021520 METAR ESMX 021520Z 22009KT CAVOK 18/M05 Q1021=
201605021450 METAR ESMX 021450Z 23009KT 180V260 CAVOK 18/M05 Q1022=
201605021420 METAR ESMX 021420Z 21008KT 170V240 CAVOK 18/M02 Q1022=
201605021350 METAR ESMX 021350Z 22008KT 160V260 CAVOK 18/M03 Q1022=
201605021320 METAR COR ESMX 021320Z 22007KT 140V280 CAVOK 18/M03 Q1022=
201605021250 METAR ESMX 021250Z 25008KT 190V290 CAVOK 18/M02 Q1023=
201605021220 METAR ESMX 021220Z 21007KT 150V300 CAVOK 17/M03 Q1023=
201605021150 METAR ESMX 021150Z 20007KT 140V250 CAVOK 17/M04 Q1024=
201605021120 METAR ESMX 021120Z 16004KT 070V240 CAVOK 16/M04 Q1024=
201605021050 METAR ESMX 021050Z 15006KT 100V200 CAVOK 16/M04 Q1024=
201605021020 METAR ESMX 021020Z 15006KT 090V170 CAVOK 15/M00 Q1024=
201605020950 METAR COR ESMX 020950Z 12007KT 070V160 CAVOK 15/M01 Q1025=
201605020920 METAR ESMX 020920Z 13006KT 080V210 CAVOK 15/01 Q1025=
201605020850 METAR ESMX 020850Z 11005KT 020V160 CAVOK 13/M01 Q1025=
201605020820 METAR ESMX 020820Z 21004KT 160V260 CAVOK 13/00 Q1026=
201605020750 METAR ESMX 020750Z VRB02KT CAVOK 12/02 Q1026=
201605020720 METAR ESMX 020720Z VRB02KT CAVOK 11/03 Q1026=
201605020650 METAR ESMX 020650Z VRB03KT CAVOK 09/02 Q1026=
201605020620 METAR ESMX 020620Z 03003KT 010V080 CAVOK 09/02 Q1026=
201605020550 METAR ESMX 020550Z 36004KT CAVOK 07/02 Q1026=
201605020520 METAR ESMX 020520Z 35003KT CAVOK 06/03 Q1026=
201605020450 METAR ESMX 020450Z 00000KT CAVOK 03/02 Q1026=
201605020420 METAR ESMX 020420Z 00000KT CAVOK M00/M01 Q1026=
201605020350 METAR ESMX 020350Z 00000KT CAVOK M01/M02 Q1026=
201605020320 METAR ESMX 020320Z AUTO 00000KT 9999 NCD M01/M02 Q1026=
201605020250 METAR ESMX 020250Z AUTO 00000KT 9999 NCD M01/M02 Q1026=
201605020220 METAR ESMX 020220Z AUTO 00000KT 9999 NCD M00/M01 Q1026=
201605020150 METAR ESMX 020150Z AUTO 00000KT 9999 NCD 01/M02 Q1026=
201605020120 METAR ESMX 020120Z AUTO 00000KT 9999 NCD 01/M01 Q1026=
201605020050 METAR ESMX 020050Z AUTO 00000KT 9999 NCD 01/M00 Q1026=
201605020020 METAR ESMX 020020Z AUTO 00000KT 9999 NCD 01/M01 Q1026=
201605012350 METAR ESMX 012350Z AUTO 27002KT 9999 NCD 02/00 Q1026=
201605012320 METAR ESMX 012320Z AUTO 00000KT 9999 NCD 03/M01 Q1026=
201605012250 METAR ESMX 012250Z 00000KT CAVOK 05/01 Q1026=
201605012220 METAR ESMX 012220Z 25003KT CAVOK 06/01 Q1026=
201605012150 METAR ESMX 012150Z 24004KT CAVOK 06/01 Q1026=
201605012120 METAR ESMX 012120Z 25005KT CAVOK 06/02 Q1026=
201605012050 METAR ESMX 012050Z 26005KT CAVOK 09/02 Q1026=
201605012020 METAR ESMX 012020Z 24006KT 9999 SCT049 08/03 Q1026=
201605011950 METAR ESMX 011950Z 20006KT 9999 FEW049 08/04 Q1026=
201605011920 METAR ESMX 011920Z VRB03KT 9999 FEW049 10/04 Q1026=
201605011850 METAR ESMX 011850Z 19003KT CAVOK 11/04 Q1026=
201605011820 METAR ESMX 011820Z 23003KT CAVOK 11/04 Q1025=
201605011750 METAR ESMX 011750Z 21005KT CAVOK 12/04 Q1025=
201605011720 METAR ESMX 011720Z 21007KT CAVOK 14/03 Q1025=
201605011650 METAR ESMX 011650Z AUTO 21005KT 160V240 9999 FEW049/// SCT072/// BKN086/// 13/04 Q1025=
201605011620 METAR ESMX 011620Z VRB03KT 5000 FEW025CB SCT050 BKN086 15/03 Q1025=
201605011550 METAR ESMX 011550Z 35004KT 9999 FEW025CB SCT060 14/04 Q1025=
201605011520 METAR COR ESMX 011520Z 19006KT 9999 -SHRA FEW050CB SCT080 14/03 Q1025=
201605011450 METAR ESMX 011450Z 22005KT 190V290 CAVOK 15/02 Q1025=
201605011420 METAR ESMX 011420Z 25006KT 210V310 CAVOK 15/01 Q1025=
201605011350 METAR ESMX 011350Z 17003KT 120V250 CAVOK 16/02 Q1025=
201605011320 METAR ESMX 011320Z 18005KT 150V210 CAVOK 15/02 Q1025=
201605011250 METAR ESMX 011250Z 19005KT 120V220 CAVOK 15/01 Q1025=
201605011220 METAR ESMX 011220Z VRB03KT CAVOK 15/M00 Q1025=
