##########################################################
# Query made at 04/19/2024 21:54:53 UTC
# Time interval: from 12/01/2016 12:00  to 12/31/2016 12:59  UTC
##########################################################

##########################################################
# ESMX, Vaxjo (Sweden)
# WMO index: 02641. WIGOS ID: 0-20000-0-02648
# Latitude 56-51N. Longitude 014-50E. Altitude 199 m.
##########################################################

201612311250 METAR ESMX 311250Z AUTO 24015KT 3000 BR OVC003/// 07/07 Q1014=
201612311220 METAR ESMX 311220Z AUTO 24016KT 4100 BR OVC003/// 07/06 Q1015=
201612311150 METAR ESMX 311150Z AUTO 24014G25KT 4900 BR OVC003/// 07/06 Q1015=
201612311120 METAR ESMX 311120Z AUTO 24014KT 6000 BR OVC004/// 07/06 Q1015=
201612311050 METAR ESMX 311050Z AUTO 24014KT 7000 BR OVC004/// 07/07 Q1016=
201612311020 METAR ESMX 311020Z AUTO 23015KT 3300 BR BKN004/// OVC007/// 07/06 Q1016=
201612310950 METAR ESMX 310950Z AUTO 24014KT 3100 BR FEW003/// OVC004/// 07/06 Q1017=
201612310920 METAR ESMX 310920Z AUTO 25015KT 4500 BR BKN003/// OVC005/// 07/06 Q1017=
201612310850 METAR ESMX 310850Z AUTO 25015G28KT 5000 BR OVC003/// 07/07 Q1017=
201612310820 METAR ESMX 310820Z AUTO 24017G27KT 7000 BR OVC003/// 08/07 Q1017=
201612310750 METAR ESMX 310750Z AUTO 24012KT 6000 BR OVC003/// 07/07 Q1017=
201612310720 METAR ESMX 310720Z AUTO 23014G24KT 200V260 4900 BR OVC002/// 07/07 Q1017=
201612310650 METAR ESMX 310650Z AUTO 23013KT 3200 BR OVC002/// 07/07 Q1017=
201612310620 METAR ESMX 310620Z AUTO 24012KT 5000 BR OVC003/// 07/07 Q1018=
201612310550 METAR ESMX 310550Z AUTO 24013G23KT 210V280 3400 BR OVC002/// 07/07 Q1018=
201612310520 METAR ESMX 310520Z AUTO 24012KT 2800 BR OVC002/// 07/07 Q1018=
201612310450 METAR ESMX 310450Z AUTO 24011KT 2700 BR OVC002/// 07/07 Q1018=
201612310420 METAR ESMX 310420Z AUTO 24011KT 2400 BR OVC002/// 07/06 Q1019=
201612310350 METAR ESMX 310350Z AUTO 24011KT 3700 BR OVC003/// 07/06 Q1019=
201612310320 METAR ESMX 310320Z AUTO 23011KT 4500 BR OVC004/// 07/06 Q1019=
201612310250 METAR ESMX 310250Z AUTO 23012KT 4600 BR OVC004/// 07/06 Q1019=
201612310220 METAR ESMX 310220Z AUTO 23012KT 3800 BR OVC004/// 07/06 Q1020=
201612310150 METAR ESMX 310150Z AUTO 23012KT 3600 BR OVC004/// 07/06 Q1020=
201612310120 METAR ESMX 310120Z AUTO 24012KT 3800 BR OVC004/// 07/06 Q1020=
201612310050 METAR ESMX 310050Z AUTO 25013KT 210V280 5000 BR OVC004/// 07/06 Q1021=
201612310020 METAR ESMX 310020Z AUTO 24010KT 8000 BR OVC004/// 07/06 Q1021=
201612302350 METAR ESMX 302350Z AUTO 24012KT 9999 OVC004/// 07/06 Q1021=
201612302320 METAR ESMX 302320Z AUTO 24011KT 8000 BR OVC003/// 07/06 Q1021=
201612302250 METAR ESMX 302250Z AUTO 24011KT 210V280 5000 BR OVC003/// 07/06 Q1022=
201612302220 METAR ESMX 302220Z AUTO 23011KT 3200 BR OVC003/// 07/06 Q1022=
201612302150 METAR ESMX 302150Z 23012KT 5000 BR OVC003 06/06 Q1022=
201612302120 METAR ESMX 302120Z 24011KT 9000 BR OVC004 06/05 Q1022=
201612302050 METAR COR ESMX 302050Z 24012KT 9999 OVC005 06/05 Q1022=
201612302020 METAR ESMX 302020Z AUTO 23012KT 200V260 9999 OVC006/// 06/05 Q1022=
201612301950 METAR ESMX 301950Z AUTO 23011KT 9999 OVC006/// 06/05 Q1022=
201612301920 METAR ESMX 301920Z AUTO 23010KT 9999 OVC006/// 06/05 Q1023=
201612301850 METAR ESMX 301850Z AUTO 22012KT 9999 OVC006/// 06/05 Q1023=
201612301820 METAR ESMX 301820Z 24012KT 7000 BR OVC007 06/05 Q1023=
201612301750 METAR ESMX 301750Z 25010KT 210V290 9999 OVC007 06/04 Q1023=
201612301720 METAR ESMX 301720Z 25010G21KT 9999 OVC008 06/04 Q1024=
201612301650 METAR ESMX 301650Z 25012KT 210V280 9999 OVC008 06/04 Q1024=
201612301620 METAR ESMX 301620Z 24010KT 9999 OVC008 06/04 Q1024=
201612301550 METAR ESMX 301550Z 25011KT 9999 OVC007 06/04 Q1024=
201612301520 METAR ESMX 301520Z 24010KT 9999 OVC008 05/04 Q1024=
201612301450 METAR ESMX 301450Z 25010KT 9999 OVC008 05/04 Q1024=
201612301420 METAR ESMX 301420Z 24010KT 200V270 9000 BR OVC008 05/03 Q1024=
201612301350 METAR ESMX 301350Z 25012KT 9999 OVC008 05/03 Q1025=
201612301320 METAR ESMX 301320Z AUTO 24011KT 200V280 9999 OVC008/// 05/03 Q1024=
201612301250 METAR ESMX 301250Z AUTO 23013KT 200V260 9999 OVC009/// 05/03 Q1025=
201612301220 METAR ESMX 301220Z AUTO 25010KT 9999 OVC009/// 05/03 Q1025=
201612301150 METAR ESMX 301150Z AUTO 25010KT 210V280 9999 OVC009/// 05/03 Q1025=
201612301120 METAR ESMX 301120Z AUTO 25011KT 9999 OVC010/// 05/03 Q1026=
201612301050 METAR ESMX 301050Z AUTO 25012KT 210V290 9999 OVC010/// 05/02 Q1026=
201612301020 METAR ESMX 301020Z AUTO 26012KT 220V290 9999 OVC010/// 05/02 Q1026=
201612300950 METAR ESMX 300950Z AUTO 26013KT 9999 OVC011/// 05/02 Q1026=
201612300920 METAR ESMX 300920Z AUTO 25010KT 210V280 9999 OVC012/// 05/02 Q1026=
201612300850 METAR ESMX 300850Z AUTO 26010KT 210V300 9999 OVC012/// 05/02 Q1026=
201612300820 METAR ESMX 300820Z AUTO 26011KT 9999 OVC011/// 04/02 Q1027=
201612300750 METAR ESMX 300750Z AUTO 25011KT 9999 OVC011/// 04/02 Q1026=
201612300720 METAR ESMX 300720Z AUTO 25011KT 9999 OVC012/// 04/02 Q1026=
201612300650 METAR ESMX 300650Z AUTO 24009KT 220V280 9999 OVC012/// 04/01 Q1027=
201612300620 METAR ESMX 300620Z AUTO 26011KT 230V290 9999 OVC011/// 04/01 Q1027=
201612300550 METAR ESMX 300550Z AUTO 26010KT 230V290 9999 OVC011/// 04/01 Q1027=
201612300520 METAR ESMX 300520Z AUTO 25008KT 9999 OVC010/// 04/01 Q1027=
201612300450 METAR ESMX 300450Z AUTO 25009KT 9000 BR OVC010/// 04/01 Q1028=
201612300420 METAR ESMX 300420Z AUTO 24009KT 210V280 9000 BR OVC009/// 03/01 Q1028=
201612300350 METAR ESMX 300350Z AUTO 24010KT 9000 BR OVC009/// 03/01 Q1028=
201612300320 METAR ESMX 300320Z AUTO 22010KT 9999 OVC009/// 03/01 Q1028=
201612300250 METAR ESMX 300250Z AUTO 25010KT 9999 OVC009/// 03/01 Q1029=
201612300220 METAR ESMX 300220Z AUTO 25009KT 9999 OVC009/// 03/01 Q1029=
201612300150 METAR ESMX 300150Z AUTO 24012KT 9000 BR OVC009/// 03/01 Q1029=
201612300120 METAR ESMX 300120Z AUTO 24010KT 210V280 9999 OVC009/// 04/01 Q1029=
201612300050 METAR ESMX 300050Z AUTO 24010KT 9000 BR OVC010/// 04/02 Q1029=
201612300020 METAR ESMX 300020Z 26014KT 9999 OVC010 04/02 Q1030=
201612292350 METAR ESMX 292350Z AUTO 26012KT 9999 OVC010/// 04/02 Q1030=
201612292320 METAR ESMX 292320Z 27011KT 9999 OVC012 04/02 Q1030=
201612292250 METAR ESMX 292250Z 26011KT 9999 BKN011 04/02 Q1030=
201612292220 METAR ESMX 292220Z 26011KT 9999 OVC011 04/02 Q1030=
201612292150 METAR ESMX 292150Z 26011KT 220V280 9999 OVC011 04/02 Q1030=
201612292120 METAR ESMX 292120Z 23009KT 210V280 9999 OVC010 04/02 Q1031=
201612292050 METAR ESMX 292050Z 25009KT 210V280 9999 FEW010 OVC013 04/02 Q1031=
201612292020 METAR ESMX 292020Z 24009KT 9999 FEW009 SCT012 OVC016 04/02 Q1031=
201612291950 METAR ESMX 291950Z 24011KT 200V260 8000 BR FEW005 SCT007 BKN010 04/03 Q1030=
201612291920 METAR ESMX 291920Z 23010KT 5000 BR OVC005 04/03 Q1031=
201612291850 METAR ESMX 291850Z 22009KT 4700 BR OVC005 04/03 Q1031=
201612291820 METAR ESMX 291820Z 24010KT 5000 BR OVC006 04/03 Q1031=
201612291750 METAR ESMX 291750Z 23009KT 6000 BR FEW007 OVC008 04/03 Q1031=
201612291720 METAR ESMX 291720Z 24010KT 9999 BKN010 04/02 Q1031=
201612291650 METAR ESMX 291650Z 22009KT 200V260 9999 BKN013 04/02 Q1031=
201612291620 METAR ESMX 291620Z 24010KT 9999 BKN015 05/02 Q1031=
201612291550 METAR ESMX 291550Z 24009KT 9999 BKN015 05/01 Q1031=
201612291520 METAR ESMX 291520Z 25012KT 9999 BKN017 05/01 Q1031=
201612291450 METAR COR ESMX 291450Z 24013KT 9999 BKN014 05/02 Q1031=
201612291420 METAR ESMX 291420Z 26011KT 9999 BKN014 05/02 Q1031=
201612291350 METAR ESMX 291350Z 25011KT 9999 BKN015 05/01 Q1031=
201612291320 METAR ESMX 291320Z 24011KT 9999 BKN016 05/01 Q1031=
201612291250 METAR COR ESMX 291250Z 24010KT 9999 OVC017 04/01 Q1032=
201612291220 METAR ESMX 291220Z 26013KT 9999 BKN016 04/01 Q1032=
201612291150 METAR ESMX 291150Z 25011KT 220V290 9999 BKN017 04/00 Q1032=
201612291120 METAR ESMX 291120Z 26012KT 9999 BKN017 04/00 Q1033=
201612291050 METAR ESMX 291050Z 26010KT 9999 BKN017 04/M00 Q1033=
201612291020 METAR ESMX 291020Z 26012KT 9999 BKN017 04/00 Q1033=
201612290950 METAR ESMX 290950Z 25012G23KT 9999 BKN017 04/M00 Q1033=
201612290920 METAR ESMX 290920Z 26010KT 9999 BKN017 04/00 Q1033=
201612290850 METAR ESMX 290850Z 25010KT 230V290 9999 BKN016 04/00 Q1033=
201612290820 METAR ESMX 290820Z 25009KT 9999 OVC016 04/01 Q1033=
201612290750 METAR ESMX 290750Z 24009KT 200V280 9999 OVC014 04/01 Q1033=
201612290720 METAR ESMX 290720Z 23009KT 200V260 9999 OVC014 04/01 Q1033=
201612290650 METAR ESMX 290650Z 24010KT 9999 OVC014 04/01 Q1033=
201612290620 METAR ESMX 290620Z 24008KT 9999 OVC015 04/00 Q1033=
201612290550 METAR ESMX 290550Z 24007KT 9999 OVC016 04/00 Q1033=
201612290520 METAR ESMX 290520Z 26008KT 9999 OVC018 04/00 Q1034=
201612290450 METAR ESMX 290450Z AUTO 25007KT 200V280 9999 OVC018/// 04/00 Q1034=
201612290420 METAR ESMX 290420Z AUTO 24009KT 9999 OVC018/// 04/00 Q1034=
201612290350 METAR ESMX 290350Z AUTO 25009KT 210V280 9999 OVC018/// 03/00 Q1034=
201612290320 METAR ESMX 290320Z AUTO 26008KT 9999 OVC017/// 03/00 Q1034=
201612290250 METAR ESMX 290250Z AUTO 25010KT 9999 OVC016/// 03/00 Q1035=
201612290220 METAR ESMX 290220Z AUTO 23007KT 210V270 9999 OVC015/// 03/01 Q1035=
201612290150 METAR ESMX 290150Z AUTO 26008KT 9999 FEW012/// OVC014/// 03/01 Q1035=
201612290120 METAR ESMX 290120Z AUTO 26009KT 220V290 9999 OVC011/// 03/01 Q1035=
201612290050 METAR ESMX 290050Z AUTO 24008KT 9999 OVC012/// 03/01 Q1035=
201612290020 METAR ESMX 290020Z 24005KT 9999 OVC014 02/01 Q1035=
201612282350 METAR ESMX 282350Z 19005KT 9000 BR SCT002 OVC017 01/00 Q1036=
201612282320 METAR ESMX 282320Z 21006KT 9999 OVC003 01/00 Q1036=
201612282250 METAR ESMX 282250Z 21006KT 9999 BKN004 01/00 Q1036=
201612282220 METAR ESMX 282220Z 21006KT 9999 OVC015 00/M00 Q1036=
201612282150 METAR ESMX 282150Z 19006KT 9000 BKN002 OVC015 M00/M01 Q1037=
201612282120 METAR ESMX 282120Z 18005KT 0700 R01/P2000N R19/1600U FZFG OVC002 M01/M01 Q1037=
201612282050 METAR ESMX 282050Z 18005KT 0550 R01/1400N R19/1500D FZFG VV002 M01/M01 Q1037=
201612282020 METAR COR ESMX 282020Z 19004KT 2600 BR OVC002 M01/M02 Q1037=
201612281950 METAR ESMX 281950Z 23005KT 9999 SCT002 BKN005 M02/M03 Q1037=
201612281920 METAR ESMX 281920Z 23005KT CAVOK M03/M07 Q1037=
201612281850 METAR ESMX 281850Z 20005KT CAVOK M02/M06 Q1036=
201612281820 METAR ESMX 281820Z 22006KT CAVOK M03/M06 Q1037=
201612281750 METAR ESMX 281750Z 21004KT CAVOK M04/M07 Q1037=
201612281720 METAR COR ESMX 281720Z 18003KT CAVOK M04/M06 Q1037=
201612281650 METAR ESMX 281650Z 18003KT CAVOK M03/M06 Q1037=
201612281620 METAR ESMX 281620Z 18003KT CAVOK M03/M06 Q1037=
201612281550 METAR ESMX 281550Z VRB01KT CAVOK M02/M06 Q1036=
201612281520 METAR ESMX 281520Z 25004KT CAVOK M03/M06 Q1037=
201612281450 METAR ESMX 281450Z 17002KT CAVOK M02/M06 Q1036=
201612281420 METAR ESMX 281420Z 22002KT CAVOK M01/M06 Q1036=
201612281350 METAR ESMX 281350Z 00000KT CAVOK 01/M05 Q1036=
201612281320 METAR ESMX 281320Z 27004KT CAVOK 02/M06 Q1036=
201612281250 METAR ESMX 281250Z 28004KT CAVOK 02/M06 Q1036=
201612281220 METAR ESMX 281220Z 29003KT CAVOK 02/M06 Q1036=
201612281150 METAR ESMX 281150Z 28003KT CAVOK 01/M06 Q1036=
201612281120 METAR ESMX 281120Z 27002KT CAVOK 00/M06 Q1036=
201612281050 METAR ESMX 281050Z 30003KT CAVOK 00/M06 Q1036=
201612281020 METAR ESMX 281020Z VRB03KT CAVOK M00/M06 Q1036=
201612280950 METAR ESMX 280950Z 28003KT 250V320 CAVOK 01/M06 Q1035=
201612280920 METAR ESMX 280920Z 28006KT CAVOK M00/M06 Q1035=
201612280850 METAR ESMX 280850Z 31004KT CAVOK M02/M06 Q1035=
201612280820 METAR ESMX 280820Z 29007KT CAVOK M03/M07 Q1034=
201612280750 METAR ESMX 280750Z 28008KT CAVOK M03/M07 Q1034=
201612280720 METAR ESMX 280720Z 28005KT CAVOK M03/M07 Q1034=
201612280650 METAR ESMX 280650Z 29005KT 260V330 CAVOK M03/M06 Q1033=
201612280620 METAR ESMX 280620Z 30005KT CAVOK M02/M07 Q1033=
201612280550 METAR ESMX 280550Z 28006KT CAVOK M03/M07 Q1033=
201612280520 METAR ESMX 280520Z AUTO 29004KT 9999 NCD M03/M07 Q1033=
201612280450 METAR ESMX 280450Z AUTO 28005KT 9999 NCD M03/M08 Q1033=
201612280420 METAR ESMX 280420Z AUTO 31004KT 9999 NCD M02/M07 Q1032=
201612280350 METAR ESMX 280350Z AUTO 32005KT 9999 NCD M02/M07 Q1032=
201612280320 METAR ESMX 280320Z AUTO 33004KT 290V350 9999 NCD M02/M07 Q1032=
201612280250 METAR ESMX 280250Z AUTO 31006KT 9999 NCD M01/M07 Q1031=
201612280220 METAR ESMX 280220Z AUTO 31005KT 9999 NCD M01/M07 Q1031=
201612280150 METAR ESMX 280150Z AUTO 31007KT 9999 NCD M01/M07 Q1031=
201612280120 METAR ESMX 280120Z AUTO 32006KT 9999 NCD M01/M07 Q1031=
201612280050 METAR ESMX 280050Z 32007KT CAVOK M00/M07 Q1031=
201612280020 METAR ESMX 280020Z 32007KT CAVOK M00/M07 Q1030=
201612272350 METAR ESMX 272350Z 31009KT CAVOK 00/M07 Q1030=
201612272320 METAR ESMX 272320Z 32010KT CAVOK 00/M08 Q1030=
201612272250 METAR ESMX 272250Z 33008KT CAVOK M00/M07 Q1030=
201612272220 METAR ESMX 272220Z 31009KT CAVOK 00/M07 Q1030=
201612272150 METAR COR ESMX 272150Z 32009KT CAVOK 01/M07 Q1030=
201612272120 METAR ESMX 272120Z 31010KT CAVOK 01/M07 Q1029=
201612272050 METAR ESMX 272050Z 32011KT CAVOK 01/M08 Q1028=
201612272020 METAR ESMX 272020Z 30008KT CAVOK 01/M07 Q1028=
201612271950 METAR ESMX 271950Z 30010KT CAVOK 01/M07 Q1028=
201612271920 METAR ESMX 271920Z 30009KT CAVOK 01/M07 Q1027=
201612271850 METAR ESMX 271850Z 30009KT CAVOK 02/M07 Q1027=
201612271820 METAR ESMX 271820Z 30012KT CAVOK 02/M07 Q1027=
201612271750 METAR ESMX 271750Z 29011KT CAVOK 02/M07 Q1026=
201612271720 METAR ESMX 271720Z 29013KT CAVOK 02/M07 Q1025=
201612271650 METAR ESMX 271650Z 29012KT CAVOK 02/M07 Q1025=
201612271620 METAR ESMX 271620Z 29011KT CAVOK 02/M07 Q1024=
201612271550 METAR ESMX 271550Z 30013KT CAVOK 02/M07 Q1024=
201612271520 METAR ESMX 271520Z 30013KT CAVOK 03/M06 Q1023=
201612271450 METAR ESMX 271450Z 31014KT CAVOK 03/M07 Q1022=
201612271420 METAR ESMX 271420Z 30015KT CAVOK 03/M06 Q1021=
201612271350 METAR ESMX 271350Z 31016KT CAVOK 04/M07 Q1020=
201612271320 METAR ESMX 271320Z 31017G29KT CAVOK 04/M06 Q1020=
201612271250 METAR ESMX 271250Z 32018G31KT CAVOK 05/M06 Q1019=
201612271220 METAR ESMX 271220Z 32020KT CAVOK 05/M06 Q1018=
201612271150 METAR ESMX 271150Z 31018G30KT 290V350 CAVOK 05/M06 Q1017=
201612271120 METAR ESMX 271120Z 33020G31KT CAVOK 05/M06 Q1016=
201612271050 METAR COR ESMX 271050Z 33019G29KT 290V010 CAVOK 05/M05 Q1016=
201612271020 METAR ESMX 271020Z 33017G29KT 300V360 CAVOK 05/M05 Q1014=
201612270950 METAR COR ESMX 270950Z 31017G30KT 280V340 CAVOK 05/M05 Q1014=
201612270920 METAR ESMX 270920Z 31014KT 270V340 CAVOK 05/M04 Q1012=
201612270850 METAR ESMX 270850Z 31015KT CAVOK 05/M03 Q1011=
201612270820 METAR ESMX 270820Z 31018G32KT 260V330 9999 BKN045 06/M03 Q1010=
201612270750 METAR ESMX 270750Z 31016KT 9999 BKN045 06/M03 Q1008=
201612270720 METAR ESMX 270720Z 31018G30KT 9999 BKN045 06/M02 Q1007=
201612270650 METAR ESMX 270650Z 31016G26KT 9999 FEW015 BKN040 06/M01 Q1006=
201612270620 METAR COR ESMX 270620Z 31013KT 9999 FEW010 BKN040 06/M00 Q1005=
201612270550 METAR ESMX 270550Z 30014KT 9999 -DZ FEW022 BKN040 05/01 Q1004=
201612270520 METAR ESMX 270520Z AUTO 30019KT 9999 FEW012/// SCT033/// BKN040/// 05/01 Q1003 REDZ REUP=
201612270450 METAR ESMX 270450Z AUTO 31019G36KT 9999 DZ FEW027/// BKN036/// 06/00 Q1002 REDZ REUP=
201612270420 METAR ESMX 270420Z AUTO 29015G27KT 9999 FEW030/// SCT046/// BKN057/// 06/M00 Q1000=
201612270350 METAR ESMX 270350Z AUTO 29016KT 9999 FEW036/// BKN044/// 06/M00 Q0999=
201612270320 METAR ESMX 270320Z AUTO 29018G29KT 9999 FEW016/// BKN054/// 06/00 Q0998=
201612270250 METAR ESMX 270250Z AUTO 27016G26KT 9999 BKN051/// 05/01 Q0997=
201612270220 METAR ESMX 270220Z AUTO 28017KT 9999 FEW050/// 05/01 Q0996=
201612270150 METAR ESMX 270150Z AUTO 28016G26KT 9999 NCD 05/02 Q0995=
201612270120 METAR ESMX 270120Z AUTO 27017KT 9999 FEW068/// 05/02 Q0994=
201612270050 METAR ESMX 270050Z AUTO 26017G31KT 9999 FEW026/// 05/03 Q0993=
201612270020 METAR ESMX 270020Z 26016KT 9999 FEW014 SCT020 BKN030 05/03 Q0992=
201612262350 METAR ESMX 262350Z 26017G28KT 5000 RA FEW011 BKN014 BKN020 05/03 Q0992=
201612262320 METAR ESMX 262320Z 25016G28KT 5000 DZ FEW011 SCT013 BKN016 05/03 Q0992=
201612262250 METAR ESMX 262250Z 25017G31KT 8000 RA FEW008 BKN011 OVC014 04/03 Q0992=
201612262220 METAR ESMX 262220Z 23017KT 6000 -RA FEW007 BKN010 BKN013 03/02 Q0992=
201612262150 METAR ESMX 262150Z 22019KT 3200 RASN FEW006 BKN007 OVC010 02/01 Q0993=
201612262120 METAR ESMX 262120Z 21020KT 3700 SNRA FEW005 SCT007 BKN009 01/00 Q0994=
201612262050 METAR ESMX 262050Z 22019KT 1800 RASN FEW005 SCT007 BKN009 01/00 Q0994=
201612262020 METAR ESMX 262020Z 22018G31KT 9999 -RA FEW013 SCT016 BKN021 02/00 Q0996=
201612261950 METAR ESMX 261950Z 23015KT 190V250 9999 -RA FEW007 SCT016 BKN022 02/M00 Q0997=
201612261920 METAR ESMX 261920Z 23016KT 5000 RA FEW006 SCT014 BKN018 02/00 Q0998=
201612261850 METAR ESMX 261850Z 24016KT 8000 -DZ FEW007 SCT017 BKN019 02/M00 Q0999=
201612261820 METAR ESMX 261820Z 23014KT 9999 FEW014 SCT018 BKN020 02/M00 Q0999=
201612261750 METAR ESMX 261750Z 22013KT 200V260 9999 FEW015 SCT020 BKN026 02/M00 Q1000=
201612261720 METAR ESMX 261720Z 23013KT 9999 -SHRA FEW015 BKN025 02/M00 Q1000=
201612261650 METAR ESMX 261650Z 23015KT 200V260 9999 FEW012 SCT020 BKN023 02/M00 Q1000=
201612261620 METAR ESMX 261620Z 23012KT 200V260 9999 SCT025 02/M00 Q1000=
201612261550 METAR ESMX 261550Z 24016KT 9999 BKN020 02/M00 Q1000=
201612261520 METAR ESMX 261520Z 23014KT 200V260 9999 -SHRA FEW010 BKN040 02/M00 Q1000=
201612261450 METAR ESMX 261450Z 25013KT 9999 -SHRA SCT005 BKN020CB 01/M00 Q1000=
201612261420 METAR ESMX 261420Z 27016KT 230V300 4300 -SHRASN SCT005 BKN008 01/00 Q1001=
201612261350 METAR ESMX 261350Z 23013KT 200V270 9999 FEW015 BKN020CB BKN039 03/01 Q1000=
201612261320 METAR ESMX 261320Z 23014KT 190V260 9999 FEW010 SCT020CB BKN030 03/01 Q1000=
201612261250 METAR ESMX 261250Z 23015KT 9999 FEW008 SCT020CB BKN025 04/01 Q1000=
201612261220 METAR ESMX 261220Z 24015G25KT 9000 -RA FEW010 SCT021 BKN026 05/03 Q1001=
201612261150 METAR ESMX 261150Z 24013G24KT 9999 -RA FEW013 SCT022 05/03 Q1001=
201612261120 METAR ESMX 261120Z 22011KT 9999 FEW011 BKN016 05/03 Q1002=
201612261050 METAR ESMX 261050Z 23011KT 9999 FEW011 SCT015 BKN017 05/03 Q1002=
201612261020 METAR ESMX 261020Z 23009KT 180V250 9999 BKN010 BKN018 04/03 Q1003=
201612260950 METAR ESMX 260950Z 23011KT 9999 BKN010 BKN016 04/03 Q1003=
201612260920 METAR ESMX 260920Z 22010KT CAVOK 04/02 Q1003=
201612260850 METAR ESMX 260850Z 24009KT CAVOK 04/02 Q1003=
201612260820 METAR ESMX 260820Z 25010KT CAVOK 04/02 Q1003=
201612260750 METAR ESMX 260750Z 24009KT CAVOK 05/03 Q1003=
201612260720 METAR ESMX 260720Z 24009KT 210V280 CAVOK 05/03 Q1002=
201612260650 METAR ESMX 260650Z 25008KT 9999 FEW023 BKN049 06/04 Q1002=
201612260620 METAR ESMX 260620Z 27012KT 240V300 9999 -DZ FEW009 SCT013 BKN019 06/05 Q1002=
201612260550 METAR ESMX 260550Z 26012KT 230V290 9999 DZ FEW013 SCT026 BKN032 07/05 Q1002=
201612260520 METAR ESMX 260520Z AUTO 26012KT 230V290 9999 DZ FEW013/// SCT030/// BKN045/// 07/05 Q1002=
201612260450 METAR ESMX 260450Z AUTO 24012KT 210V280 5000 RA FEW005/// SCT007/// BKN009/// 08/07 Q1002=
201612260420 METAR ESMX 260420Z AUTO 24011KT 4000 BR FEW006/// SCT009/// BKN011/// 08/07 Q1001 REDZ REUP=
201612260350 METAR ESMX 260350Z AUTO 23012KT 9999 FEW009/// BKN011/// OVC017/// 08/07 Q1002=
201612260320 METAR ESMX 260320Z AUTO 24011KT 9999 BR FEW009/// BKN014/// BKN023/// 08/07 Q1002=
201612260250 METAR ESMX 260250Z AUTO 23013KT 200V260 5000 BR FEW007/// SCT011/// BKN014/// 09/07 Q1002 RESHUP=
201612260220 METAR ESMX 260220Z AUTO 23013G24KT 9999 FEW008/// SCT009/// OVC010/// 09/07 Q1002 REUP=
201612260150 METAR ESMX 260150Z AUTO 24013KT 6000 BR SCT007/// BKN010/// OVC012/// 09/08 Q1002 REDZ=
201612260120 METAR ESMX 260120Z AUTO 24012KT 6000 BR FEW005/// OVC008/// 09/08 Q1002=
201612260050 METAR ESMX 260050Z AUTO 24013G24KT 4000 -DZ FEW006/// BKN007/// OVC010/// 09/08 Q1002 REDZ=
201612260020 METAR ESMX 260020Z AUTO 25013KT 4100 BR FEW006/// SCT007/// BKN009/// 09/08 Q1002=
201612252350 METAR ESMX 252350Z AUTO 23014KT 200V260 3600 -RA SCT005/// BKN008/// OVC011/// 09/08 Q1002 REDZ=
201612252320 METAR ESMX 252320Z AUTO 24013KT 3900 -DZ FEW005/// SCT006/// OVC008/// 09/08 Q1002=
201612252250 METAR ESMX 252250Z AUTO 24011KT 210V280 3100 -DZ BKN005/// OVC008/// 09/08 Q1002 REUP REDZ=
201612252220 METAR ESMX 252220Z AUTO 24013KT 4100 BR BKN006/// OVC009/// 09/08 Q1002 REDZ=
201612252150 METAR ESMX 252150Z AUTO 25012G24KT 4400 BR SCT005/// OVC007/// 09/08 Q1002=
201612252120 METAR ESMX 252120Z AUTO 24014KT 5000 BR SCT006/// OVC008/// 09/08 Q1002=
201612252050 METAR ESMX 252050Z 25015KT 2700 DZ BKN005 BKN008 09/08 Q1002=
201612252020 METAR ESMX 252020Z 26016KT 4100 BR OVC004 09/08 Q1002=
201612251950 METAR ESMX 251950Z 23014G25KT 190V270 4500 DZ OVC005 09/08 Q1002=
201612251920 METAR ESMX 251920Z AUTO 25013KT 3400 BR BKN004/// OVC007/// 09/08 Q1002 REUP=
201612251850 METAR ESMX 251850Z AUTO 24012KT 2600 BR OVC004/// 08/08 Q1002 REDZ=
201612251820 METAR ESMX 251820Z AUTO 24011KT 220V280 3600 BR SCT002/// OVC004/// 08/08 Q1002=
201612251750 METAR ESMX 251750Z AUTO 24010KT 8000 BR BKN002/// OVC005/// 07/07 Q1002 REDZ=
201612251720 METAR ESMX 251720Z AUTO 21011KT 1800 DZ OVC002/// 07/06 Q1002 REUP=
201612251650 METAR ESMX 251650Z AUTO 22011KT 1600 BR OVC001/// 06/06 Q1002=
201612251620 METAR ESMX 251620Z AUTO 22011KT 2200 BR OVC002/// 06/05 Q1002=
201612251550 METAR ESMX 251550Z AUTO 21010KT 3800 BR BKN002/// OVC006/// 05/05 Q1002 REDZ=
201612251520 METAR ESMX 251520Z AUTO 22011KT 4700 BR OVC002/// 05/05 Q1003=
201612251450 METAR ESMX 251450Z AUTO 22009KT 6000 BR OVC002/// 05/04 Q1003 REUP=
201612251420 METAR ESMX 251420Z AUTO 20010KT 2300 -DZ OVC002/// 05/04 Q1003 RESHUP=
201612251350 METAR ESMX 251350Z AUTO 18010KT 2000 BR FEW005/// OVC007/// 04/04 Q1003=
201612251320 METAR ESMX 251320Z AUTO 18008KT 9999 OVC010/// 05/03 Q1004=
201612251250 METAR ESMX 251250Z AUTO 21009KT 9999 OVC011/// 05/03 Q1004=
201612251220 METAR ESMX 251220Z AUTO 21008KT 9999 FEW012/// BKN015/// BKN019/// 05/03 Q1004=
201612251150 METAR ESMX 251150Z AUTO 22008KT 9999 BKN012/// 05/02 Q1004=
201612251120 METAR ESMX 251120Z AUTO 24009KT 9999 BKN012/// BKN017/// 05/02 Q1004=
201612251050 METAR ESMX 251050Z AUTO 23010KT 9999 BKN013/// BKN021/// 05/02 Q1004=
201612251020 METAR ESMX 251020Z AUTO 25010KT 210V280 9999 FEW016/// SCT020/// 04/02 Q1005=
201612250950 METAR ESMX 250950Z AUTO 24011KT 9999 FEW019/// 04/01 Q1005=
201612250920 METAR ESMX 250920Z AUTO 23010KT 190V260 9999 FEW016/// SCT019/// BKN021/// 04/01 Q1005=
201612250850 METAR ESMX 250850Z AUTO 24010KT 200V260 9999 FEW017/// BKN019/// OVC024/// 04/01 Q1004=
201612250820 METAR ESMX 250820Z AUTO 25010KT 210V290 9999 FEW019/// BKN022/// 04/01 Q1004=
201612250750 METAR ESMX 250750Z AUTO 25012KT 9999 FEW019/// BKN022/// BKN030/// 03/01 Q1004=
201612250720 METAR ESMX 250720Z AUTO 25012KT 9999 FEW017/// BKN021/// BKN029/// 03/01 Q1004=
201612250650 METAR ESMX 250650Z AUTO 26013KT 9999 FEW017/// BKN020/// 03/01 Q1004=
201612250620 METAR ESMX 250620Z AUTO 26011KT 9999 BKN017/// 03/00 Q1004=
201612250550 METAR ESMX 250550Z AUTO 25011KT 220V280 9999 BKN018/// OVC025/// 04/01 Q1003=
201612250520 METAR ESMX 250520Z AUTO 25012KT 9999 FEW017/// SCT020/// BKN024/// 03/01 Q1003=
201612250450 METAR ESMX 250450Z AUTO 25013G24KT 9999 FEW018/// OVC020/// 03/01 Q1003=
201612250420 METAR ESMX 250420Z AUTO 24010KT 210V280 9999 FEW017/// BKN021/// 03/00 Q1003=
201612250350 METAR ESMX 250350Z AUTO 24012KT 9999 FEW018/// BKN022/// BKN035/// 03/00 Q1003=
201612250320 METAR ESMX 250320Z AUTO 23009KT 9999 FEW015/// SCT019/// BKN023/// 03/01 Q1003=
201612250250 METAR ESMX 250250Z AUTO 25010G20KT 9999 FEW016/// SCT027/// BKN038/// 03/00 Q1003=
201612250220 METAR ESMX 250220Z AUTO 25012KT 9999 FEW015/// BKN035/// 02/00 Q1003=
201612250150 METAR ESMX 250150Z AUTO 23011KT 200V260 9999 BKN013/// OVC037/// 02/00 Q1003=
201612250120 METAR ESMX 250120Z AUTO 25011KT 9999 FEW014/// BKN016/// OVC034/// 02/00 Q1003=
201612250050 METAR ESMX 250050Z AUTO 26010KT 220V300 9999 FEW014/// SCT017/// OVC020/// 03/M00 Q1003=
201612250020 METAR ESMX 250020Z AUTO 26011KT 9999 FEW014/// BKN020/// BKN024/// 03/00 Q1003=
201612242350 METAR ESMX 242350Z AUTO 26011KT 9999 FEW013/// SCT016/// BKN019/// 03/01 Q1002=
201612242320 METAR ESMX 242320Z AUTO 26010KT 9999 FEW008/// OVC010/// 03/01 Q1002=
201612242250 METAR ESMX 242250Z AUTO 23010KT 9999 FEW008/// OVC009/// 02/01 Q1002=
201612242220 METAR ESMX 242220Z AUTO 23011KT 9999 FEW008/// BKN009/// OVC014/// 02/01 Q1002=
201612242150 METAR ESMX 242150Z AUTO 24010KT 9999 FEW008/// BKN010/// OVC014/// 02/01 Q1002=
201612242120 METAR ESMX 242120Z AUTO 24010KT 210V290 9999 OVC008/// 02/01 Q1002=
201612242050 METAR ESMX 242050Z AUTO 23012KT 9999 FEW008/// SCT009/// BKN013/// 02/01 Q1002=
201612242020 METAR ESMX 242020Z AUTO 23010KT 9999 FEW010/// SCT013/// 02/01 Q1002=
201612241950 METAR ESMX 241950Z AUTO 24010KT 9999 FEW009/// BKN011/// BKN022/// 03/01 Q1002=
201612241920 METAR ESMX 241920Z AUTO 23010G21KT 190V260 9999 BR FEW006/// BKN007/// OVC010/// 03/02 Q1002=
201612241850 METAR ESMX 241850Z AUTO 21012KT 5000 -RA FEW008/// SCT018/// BKN023/// 02/02 Q1002 RESHUP REUP=
201612241820 METAR ESMX 241820Z AUTO 21009KT 9999 FEW020/// SCT031/// 02/01 Q1002=
201612241750 METAR ESMX 241750Z AUTO 23009KT 9999 FEW067/// 02/01 Q1002=
201612241720 METAR ESMX 241720Z AUTO 23013KT 200V260 9999 -RA FEW009/// SCT012/// BKN015/// 03/01 Q1003=
201612241650 METAR ESMX 241650Z AUTO 24012KT 9999 -DZ FEW009/// BKN011/// 03/02 Q1003 REDZ=
201612241620 METAR ESMX 241620Z AUTO 22012KT 9999 DZ FEW011/// SCT016/// BKN023/// 04/02 Q1003 REUP REDZ=
201612241550 METAR ESMX 241550Z AUTO 23012KT 9999 FEW011/// SCT015/// BKN017/// 04/02 Q1003=
201612241520 METAR ESMX 241520Z AUTO 22011KT 9999 FEW010/// SCT014/// BKN019/// 04/02 Q1003=
201612241450 METAR ESMX 241450Z AUTO 21012KT 9999 FEW011/// BKN014/// OVC019/// 04/02 Q1004=
201612241420 METAR ESMX 241420Z AUTO 23012KT 9999 FEW009/// OVC012/// 04/03 Q1004=
201612241350 METAR ESMX 241350Z AUTO 22014G25KT 7000 -RA FEW013/// SCT016/// BKN019/// 04/02 Q1004=
201612241320 METAR ESMX 241320Z AUTO 21016G26KT 9999 FEW018/// BKN022/// 05/02 Q1004 RESHUP REUP=
201612241250 METAR ESMX 241250Z AUTO 22015G27KT 9999 FEW019/// BKN022/// OVC031/// 05/02 Q1004=
201612241220 METAR ESMX 241220Z AUTO 23014KT 9999 FEW019/// SCT022/// BKN025/// 05/02 Q1005=
201612241150 METAR ESMX 241150Z AUTO 24013KT 9999 FEW019/// SCT023/// BKN027/// 05/02 Q1005=
201612241120 METAR ESMX 241120Z AUTO 24011KT 9999 FEW020/// SCT023/// 05/02 Q1006=
201612241050 METAR ESMX 241050Z AUTO 22013KT 9999 FEW019/// 05/02 Q1006=
201612241020 METAR ESMX 241020Z AUTO 23013G24KT 9999 FEW018/// SCT020/// BKN025/// 05/02 Q1006=
201612240950 METAR ESMX 240950Z AUTO 24012KT 9999 FEW020/// 05/02 Q1006=
201612240920 METAR ESMX 240920Z AUTO 24011KT 9999 FEW016/// 05/02 Q1006 RESHUP=
201612240850 METAR ESMX 240850Z AUTO 24010KT 9999 FEW009/// SCT020/// BKN028/// 05/02 Q1006 REUP=
201612240820 METAR ESMX 240820Z AUTO 25013KT 9999 FEW016/// BKN020/// 05/02 Q1006=
201612240750 METAR ESMX 240750Z AUTO 23013KT 9999 FEW013/// SCT018/// BKN020/// 05/03 Q1006 REDZ REUP=
201612240720 METAR ESMX 240720Z AUTO 24013G24KT 9999 SCT014/// BKN019/// BKN025/// 05/03 Q1006=
201612240650 METAR ESMX 240650Z AUTO 24014KT 9999 FEW012/// BKN016/// OVC026/// 05/03 Q1005 REUP=
201612240620 METAR ESMX 240620Z AUTO 24013KT 9999 FEW011/// SCT015/// BKN018/// 06/04 Q1005=
201612240550 METAR ESMX 240550Z AUTO 22013KT 9999 FEW010/// SCT013/// BKN016/// 06/04 Q1005=
201612240520 METAR ESMX 240520Z AUTO 22013KT 9999 FEW008/// BKN010/// OVC017/// 05/04 Q1005=
201612240450 METAR ESMX 240450Z AUTO 22012KT 9999 -RA FEW006/// SCT008/// BKN010/// 05/04 Q1005=
201612240420 METAR ESMX 240420Z AUTO 22014KT 6000 -RA BKN005/// OVC008/// 05/04 Q1005=
201612240350 METAR ESMX 240350Z AUTO 21016KT 8000 -RA FEW006/// BKN007/// OVC010/// 04/04 Q1005=
201612240320 METAR ESMX 240320Z AUTO 20019G30KT 5000 DZ FEW007/// BKN008/// OVC011/// 04/03 Q1006=
201612240250 METAR ESMX 240250Z AUTO 20018KT 6000 -DZ FEW010/// OVC012/// 04/03 Q1006=
201612240220 METAR ESMX 240220Z AUTO 20020KT 6000 -RA FEW009/// OVC013/// 05/03 Q1006=
201612240150 METAR ESMX 240150Z AUTO 19020G32KT 6000 -RA FEW011/// BKN014/// OVC018/// 05/04 Q1007 REDZ RESHUP=
201612240120 METAR ESMX 240120Z AUTO 19019KT 9999 UP FEW012/// OVC015/// 06/04 Q1007 REDZ=
201612240050 METAR ESMX 240050Z AUTO 18017KT 9999 FEW009/// SCT011/// BKN014/// 05/04 Q1008=
201612240020 METAR ESMX 240020Z AUTO 18018KT 6000 -DZ BKN006/// OVC008/// 05/04 Q1009=
201612232350 METAR ESMX 232350Z AUTO 18014KT 5000 -RA OVC005/// 04/03 Q1010 RESHUP REDZ=
201612232320 METAR ESMX 232320Z AUTO 18015KT 6000 BR OVC005/// 04/03 Q1012 RERA=
201612232250 METAR ESMX 232250Z AUTO 18016KT 6000 BR OVC006/// 04/03 Q1013 REDZ=
201612232220 METAR ESMX 232220Z AUTO 18018KT 8000 -DZ OVC008/// 04/02 Q1014 REUP REDZ=
201612232150 METAR ESMX 232150Z AUTO 18016KT 9999 OVC011/// 04/02 Q1015=
201612232120 METAR ESMX 232120Z AUTO 19016KT 9999 BKN014/// OVC019/// 04/02 Q1015=
201612232050 METAR ESMX 232050Z AUTO 19015KT 9999 FEW014/// BKN017/// OVC024/// 04/02 Q1016=
201612232020 METAR ESMX 232020Z 20014KT 9999 FEW013 SCT016 BKN024 05/03 Q1017=
201612231950 METAR ESMX 231950Z 20014KT 9999 FEW007 BKN010 05/03 Q1017=
201612231920 METAR ESMX 231920Z 19012KT 9999 BKN007 05/03 Q1018=
201612231850 METAR ESMX 231850Z 19012KT 9999 BKN005 04/03 Q1018=
201612231820 METAR ESMX 231820Z 18011KT 9999 BKN006 04/03 Q1019=
201612231750 METAR ESMX 231750Z 19010KT 9999 BKN008 04/03 Q1019=
201612231720 METAR ESMX 231720Z 19010KT 9999 BKN008 04/03 Q1020=
201612231650 METAR ESMX 231650Z 21010KT 9999 BKN008 04/03 Q1020=
201612231620 METAR ESMX 231620Z 18008KT 9999 FEW010 BKN013 04/02 Q1021=
201612231550 METAR ESMX 231550Z 20006KT 9999 FEW010 BKN013 04/02 Q1021=
201612231520 METAR ESMX 231520Z 20006KT 9999 BKN010 04/02 Q1021=
201612231450 METAR ESMX 231450Z 21008KT 9999 BKN010 04/02 Q1021=
201612231420 METAR ESMX 231420Z 21008KT 190V250 9999 SCT010 04/02 Q1021=
201612231350 METAR ESMX 231350Z 23010KT 190V260 9999 BKN010 BKN014 04/02 Q1021=
201612231320 METAR ESMX 231320Z 22010KT 9999 SCT010 BKN018 04/02 Q1021=
201612231250 METAR ESMX 231250Z 23008KT 9999 FEW012 BKN015 04/02 Q1021=
201612231220 METAR COR ESMX 231220Z 25006KT 9999 FEW010 SCT012 BKN016 04/02 Q1021=
201612231150 METAR ESMX 231150Z 25007KT 9999 FEW010 BKN012 04/02 Q1021=
201612231120 METAR ESMX 231120Z 26009KT 230V300 9999 BKN010 04/02 Q1021=
201612231050 METAR ESMX 231050Z 24008KT 190V260 9999 FEW009 BKN011 04/02 Q1021=
201612231020 METAR ESMX 231020Z 25009KT 9999 FEW010 SCT015 BKN020 04/02 Q1021=
201612230950 METAR ESMX 230950Z 26010KT 9999 FEW009 BKN012 OVC016 04/02 Q1021=
201612230920 METAR ESMX 230920Z 26011KT 9999 FEW009 BKN013 BKN017 04/02 Q1020=
201612230850 METAR ESMX 230850Z 26010KT 9999 FEW008 SCT012 BKN015 04/02 Q1020=
201612230820 METAR ESMX 230820Z 26009KT 9999 FEW010 SCT013 BKN018 04/02 Q1019=
201612230750 METAR ESMX 230750Z 25008KT 9999 FEW007 SCT009 BKN011 04/03 Q1019=
201612230720 METAR ESMX 230720Z 25009KT 220V280 8000 FEW005 BKN007 BKN010 04/03 Q1018=
201612230650 METAR ESMX 230650Z 24010KT 2000 -RA FEW006 SCT008 BKN011 04/03 Q1018 RERA=
201612230620 METAR ESMX 230620Z 24011KT 9999 -RA BKN010 OVC014 04/03 Q1018=
201612230550 METAR ESMX 230550Z 23010KT 9999 SCT009 OVC013 04/03 Q1018=
201612230520 METAR ESMX 230520Z 22009KT 9999 -RA FEW011 SCT016 BKN023 04/03 Q1017=
201612230450 METAR ESMX 230450Z 22008KT 170V260 9999 -RA FEW008 SCT013 BKN016 04/03 Q1018=
201612230420 METAR ESMX 230420Z 23009KT 4200 -RA FEW006 SCT017 BKN047 04/03 Q1018=
201612230350 METAR ESMX 230350Z 24010KT 210V270 9999 FEW011 SCT031 BKN041 04/02 Q1018=
201612230320 METAR ESMX 230320Z AUTO 25010KT 9999 -RA FEW011/// BKN014/// BKN022/// 05/03 Q1018 RESHUP REUP=
201612230250 METAR ESMX 230250Z AUTO 20013KT 9999 FEW010/// SCT012/// BKN014/// 05/03 Q1018=
201612230220 METAR ESMX 230220Z AUTO 21011KT 9999 FEW007/// OVC009/// 05/04 Q1018=
201612230150 METAR ESMX 230150Z AUTO 21010KT 9999 BKN007/// OVC012/// 05/04 Q1018=
201612230120 METAR ESMX 230120Z 21010KT 9999 BKN006 OVC009 04/03 Q1018=
201612230050 METAR ESMX 230050Z 20013KT 9999 BKN007 OVC010 04/03 Q1018=
201612230020 METAR ESMX 230020Z 20012KT 9999 FEW007 OVC009 04/03 Q1018=
201612222350 METAR ESMX 222350Z 20011KT 9999 OVC008 04/03 Q1018=
201612222320 METAR ESMX 222320Z 20011KT 8000 -DZ FEW009 OVC011 04/03 Q1018=
201612222250 METAR ESMX 222250Z 20012KT 9999 OVC010 04/03 Q1019=
201612222220 METAR ESMX 222220Z 20013KT 9999 BKN012 OVC018 04/03 Q1019=
201612222150 METAR ESMX 222150Z 21012KT 9999 FEW012 SCT017 BKN020 04/02 Q1019=
201612222120 METAR ESMX 222120Z 21010KT 9999 FEW013 SCT017 BKN025 04/03 Q1019=
201612222050 METAR ESMX 222050Z 21011KT 9999 FEW010 SCT017 BKN027 04/03 Q1019=
201612222020 METAR ESMX 222020Z 20012KT 9999 FEW010 SCT013 BKN016 04/03 Q1020=
201612221950 METAR ESMX 221950Z 20011KT 9999 FEW010 BKN012 OVC022 04/03 Q1020=
201612221920 METAR ESMX 221920Z 20012KT 9999 FEW010 SCT013 BKN018 04/03 Q1020=
201612221850 METAR ESMX 221850Z 20010KT 9999 FEW009 SCT021 BKN034 04/03 Q1020=
201612221820 METAR ESMX 221820Z 20010KT 9999 FEW010 BKN038 04/03 Q1020=
201612221750 METAR ESMX 221750Z 21009KT 9999 FEW009 SCT026 BKN039 03/02 Q1020=
201612221720 METAR ESMX 221720Z 20009KT 9999 BR FEW007 BKN039 03/02 Q1020=
201612221650 METAR ESMX 221650Z 20009KT 9000 BR FEW005 SCT026 BKN040 03/02 Q1020=
201612221620 METAR ESMX 221620Z 19009KT 9000 BR FEW006 BKN039 03/02 Q1020=
201612221550 METAR ESMX 221550Z 21008KT 9000 BR FEW019 SCT041 03/03 Q1020=
201612221520 METAR ESMX 221520Z 21008KT 9000 BR FEW009 SCT012 BKN014 03/02 Q1020=
201612221450 METAR ESMX 221450Z 21008KT 9999 SCT010 BKN040 04/03 Q1020=
201612221420 METAR ESMX 221420Z 21008KT 9999 SCT037 04/03 Q1020=
201612221350 METAR ESMX 221350Z 23009KT 9999 FEW009 SCT030 04/03 Q1020=
201612221320 METAR ESMX 221320Z 22007KT 8000 -DZ FEW009 SCT016 04/03 Q1020=
201612221250 METAR ESMX 221250Z 21008KT 9999 FEW009 SCT012 BKN015 05/04 Q1020=
201612221220 METAR ESMX 221220Z 22007KT 9000 BR FEW007 SCT012 BKN016 05/04 Q1020=
201612221150 METAR ESMX 221150Z 23007KT 8000 BR FEW006 SCT009 BKN011 05/04 Q1020=
201612221120 METAR ESMX 221120Z 21008KT 6000 BR FEW003 SCT006 BKN009 05/04 Q1020=
201612221050 METAR ESMX 221050Z 22008KT 3500 BR BKN002 OVC005 05/04 Q1020=
201612221020 METAR ESMX 221020Z 21008KT 3500 BR OVC003 05/04 Q1020=
201612220950 METAR ESMX 220950Z 20009KT 2000 -DZ BR OVC002 05/04 Q1020=
201612220920 METAR ESMX 220920Z 21010KT 2000 BR OVC002 05/04 Q1020=
201612220850 METAR ESMX 220850Z 20009KT 4500 BR OVC003 05/04 Q1020=
201612220820 METAR ESMX 220820Z 21009KT 5000 BR OVC002 05/04 Q1020=
201612220750 METAR ESMX 220750Z 19011KT 2100 BR OVC002 05/04 Q1020=
201612220720 METAR ESMX 220720Z 21010KT 2500 -DZ OVC003 05/04 Q1020=
201612220650 METAR ESMX 220650Z 20010KT 2500 -DZ OVC003 05/04 Q1019=
201612220620 METAR ESMX 220620Z 20010KT 2800 BR OVC003 05/04 Q1019=
201612220550 METAR ESMX 220550Z 20011KT 3000 BR OVC004 05/04 Q1019=
201612220520 METAR ESMX 220520Z AUTO 19011KT 3000 BR OVC004/// 05/04 Q1019=
201612220450 METAR ESMX 220450Z AUTO 19011KT 3300 BR OVC005/// 05/04 Q1019=
201612220420 METAR ESMX 220420Z AUTO 20010KT 3300 BR OVC004/// 04/04 Q1019=
201612220350 METAR ESMX 220350Z AUTO 20011KT 3400 BR OVC004/// 04/04 Q1019=
201612220320 METAR ESMX 220320Z AUTO 21011KT 3500 BR OVC004/// 04/04 Q1019=
201612220250 METAR ESMX 220250Z AUTO 20012KT 3600 BR OVC004/// 04/04 Q1019=
201612220220 METAR ESMX 220220Z AUTO 19011KT 4300 BR OVC005/// 04/04 Q1019=
201612220150 METAR ESMX 220150Z AUTO 19010KT 4000 BR OVC004/// 04/04 Q1019=
201612220120 METAR ESMX 220120Z 20010KT 3500 BR OVC003 04/04 Q1020=
201612220050 METAR ESMX 220050Z 19011KT 2100 BR OVC003 04/04 Q1020=
201612220020 METAR ESMX 220020Z 21010KT 2000 BR OVC002 04/04 Q1020=
201612212350 METAR ESMX 212350Z 20010KT 2000 BR OVC002 04/03 Q1019=
201612212320 METAR ESMX 212320Z 20011KT 1700 BR OVC001 04/03 Q1019=
201612212250 METAR ESMX 212250Z 20012KT 1200 R01/P2000N R19/P2000N BR OVC001 03/03 Q1019=
201612212220 METAR ESMX 212220Z 19012KT 1100 R01/P2000N R19/P2000N OVC001 03/03 Q1019=
201612212150 METAR ESMX 212150Z 19012KT 1300 R01/P2000N R19/P2000N BR OVC001 03/03 Q1019=
201612212120 METAR ESMX 212120Z 20012KT 1200 R01/P2000N R19/P2000N OVC001 03/02 Q1019=
201612212050 METAR ESMX 212050Z 19012KT 1500 BR OVC002 02/02 Q1019=
201612212020 METAR ESMX 212020Z 19013KT 2700 BR OVC003 02/02 Q1019=
201612211950 METAR ESMX 211950Z 18013KT 3900 BR OVC004 02/01 Q1019=
201612211920 METAR ESMX 211920Z 19014KT 5000 BR OVC006 02/01 Q1019=
201612211850 METAR ESMX 211850Z 19013KT 6000 BR OVC007 02/01 Q1019=
201612211820 METAR ESMX 211820Z 18011KT 5000 BR OVC006 02/01 Q1019=
201612211750 METAR ESMX 211750Z 18010KT 5000 BR OVC005 02/01 Q1019=
201612211720 METAR ESMX 211720Z 19009KT 4200 BR OVC004 02/01 Q1019=
201612211650 METAR ESMX 211650Z 19009KT 3400 BR OVC003 01/00 Q1019=
201612211620 METAR ESMX 211620Z 19011KT 3200 BR OVC003 01/00 Q1019=
201612211550 METAR ESMX 211550Z 21010KT 3400 BR OVC004 01/00 Q1019=
201612211520 METAR ESMX 211520Z 20010KT 4300 BR OVC004 01/M00 Q1019=
201612211450 METAR ESMX 211450Z 22009KT 5000 BR OVC005 01/M00 Q1019=
201612211420 METAR ESMX 211420Z 19010KT 5000 BR OVC005 00/M00 Q1018=
201612211350 METAR ESMX 211350Z 22010KT 5000 BR OVC005 00/M01 Q1018=
201612211320 METAR ESMX 211320Z 21011KT 5000 BR OVC006 00/M01 Q1018=
201612211250 METAR ESMX 211250Z 22011KT 9000 BR OVC009 00/M01 Q1019=
201612211220 METAR ESMX 211220Z 23011KT 9999 OVC009 00/M01 Q1019=
201612211150 METAR ESMX 211150Z 22012KT 9999 BKN008 OVC010 01/M01 Q1019=
201612211120 METAR ESMX 211120Z 21012KT 9000 BR OVC007 00/M01 Q1018=
201612211050 METAR ESMX 211050Z 19012KT 8000 BR OVC009 00/M01 Q1018=
201612211020 METAR ESMX 211020Z 21011KT 9000 BR OVC009 01/M01 Q1018=
201612210950 METAR ESMX 210950Z 21012KT 9000 BR OVC008 01/M01 Q1018=
201612210920 METAR ESMX 210920Z 20012KT 8000 BR OVC008 01/M01 Q1018=
201612210850 METAR ESMX 210850Z 19013KT 7000 BR OVC009 01/M00 Q1019=
201612210820 METAR ESMX 210820Z 20014KT 7000 BR OVC009 02/M00 Q1019=
201612210750 METAR ESMX 210750Z 18013KT 7000 BR OVC009 02/00 Q1019=
201612210720 METAR ESMX 210720Z 19013KT 9000 BR BKN009 OVC013 02/00 Q1019=
201612210650 METAR ESMX 210650Z 17013KT 8000 BR OVC009 03/01 Q1019=
201612210620 METAR ESMX 210620Z 18011KT 9000 BR OVC007 03/01 Q1019=
201612210550 METAR ESMX 210550Z 17010KT 150V210 9999 OVC007 03/01 Q1019=
201612210520 METAR ESMX 210520Z 16009KT 9000 BR OVC007 03/01 Q1020=
201612210450 METAR ESMX 210450Z 17009KT 9999 OVC005 02/01 Q1020=
201612210420 METAR ESMX 210420Z AUTO 17008KT 9999 OVC005/// 02/01 Q1021=
201612210350 METAR ESMX 210350Z AUTO 17010KT 9999 OVC004/// 02/01 Q1021=
201612210320 METAR ESMX 210320Z AUTO 16007KT 7000 BR OVC004/// 02/01 Q1021=
201612210250 METAR ESMX 210250Z AUTO 17006KT 120V210 5000 BR OVC004/// 02/01 Q1022=
201612210220 METAR ESMX 210220Z AUTO 16006KT 110V190 4700 BR OVC004/// 02/01 Q1022=
201612210150 METAR ESMX 210150Z AUTO 13006KT 4400 BR OVC004/// 02/01 Q1022=
201612210120 METAR ESMX 210120Z 15008KT 4700 BR OVC004 02/01 Q1023=
201612210050 METAR ESMX 210050Z 15007KT 4900 BR OVC004 02/01 Q1024=
201612210020 METAR ESMX 210020Z 17007KT 8000 BR OVC005 02/01 Q1024=
201612202350 METAR ESMX 202350Z 17008KT 140V200 9000 OVC003 02/01 Q1024=
201612202320 METAR ESMX 202320Z 18009KT 8000 BR OVC003 01/01 Q1025=
201612202250 METAR ESMX 202250Z 17009KT 4500 BR OVC002 01/01 Q1025=
201612202220 METAR COR ESMX 202220Z 17008KT 3400 OVC002 01/01 Q1025=
201612202150 METAR ESMX 202150Z 17006KT 140V210 1800 OVC002 00/00 Q1025=
201612202120 METAR ESMX 202120Z 17005KT 0600 R01/1500N R19/1900D FZFG VV002 M00/M00 Q1026=
201612202050 METAR ESMX 202050Z 17007KT 0900 R01/P2000N R19/P2000N FZFG VV002 M00/M01 Q1026=
201612202020 METAR ESMX 202020Z 16006KT 120V200 0700 R01/1900D R19/P2000N FG VV002 M00/M00 Q1026=
201612201950 METAR ESMX 201950Z 15006KT 1200 R01/P2000N R19/P2000N BR VV002 00/M00 Q1026=
201612201920 METAR ESMX 201920Z 17006KT 4000 BR OVC002 00/M00 Q1026=
201612201850 METAR ESMX 201850Z 18006KT 4300 BR OVC002 00/M00 Q1027=
201612201820 METAR ESMX 201820Z 17006KT 6000 BR OVC003 01/M00 Q1027=
201612201750 METAR ESMX 201750Z 19005KT 9000 BR OVC003 01/M00 Q1027=
201612201720 METAR ESMX 201720Z 22004KT 170V260 9999 OVC003 01/00 Q1027=
201612201650 METAR ESMX 201650Z 19006KT 9999 OVC004 01/00 Q1027=
201612201620 METAR ESMX 201620Z 23006KT 200V260 9999 OVC004 01/00 Q1027=
201612201550 METAR COR ESMX 201550Z 22004KT 190V250 9999 OVC004 01/00 Q1027=
201612201520 METAR ESMX 201520Z 22006KT 9999 OVC005 02/01 Q1027=
201612201450 METAR ESMX 201450Z 24005KT 9999 OVC005 02/01 Q1028=
201612201420 METAR ESMX 201420Z 23005KT 9999 OVC005 02/01 Q1027=
201612201350 METAR ESMX 201350Z 23007KT 200V260 9999 OVC006 02/01 Q1028=
201612201320 METAR ESMX 201320Z 26005KT 230V290 9999 OVC005 02/01 Q1028=
201612201250 METAR ESMX 201250Z 25004KT 9999 OVC006 03/01 Q1028=
201612201220 METAR ESMX 201220Z 26007KT 9999 OVC006 03/01 Q1028=
201612201150 METAR ESMX 201150Z 23006KT 9999 OVC006 03/01 Q1028=
201612201120 METAR ESMX 201120Z 26005KT 220V290 9999 OVC006 03/01 Q1028=
201612201050 METAR ESMX 201050Z 25006KT 9999 OVC006 03/01 Q1028=
201612201020 METAR ESMX 201020Z 28007KT 9999 OVC007 03/01 Q1028=
201612200950 METAR ESMX 200950Z 25005KT 230V290 9999 OVC007 03/01 Q1028=
201612200920 METAR ESMX 200920Z 24007KT 9999 OVC006 03/02 Q1028=
201612200850 METAR ESMX 200850Z 27006KT 240V300 9999 OVC006 03/02 Q1028=
201612200820 METAR ESMX 200820Z 27007KT 9999 OVC006 03/02 Q1028=
201612200750 METAR ESMX 200750Z 25007KT 9999 OVC006 03/02 Q1028=
201612200720 METAR ESMX 200720Z 27007KT 230V290 9999 OVC006 03/02 Q1028=
201612200650 METAR ESMX 200650Z 27007KT 9999 OVC006 04/02 Q1027=
201612200620 METAR ESMX 200620Z 26008KT 9999 OVC006 04/02 Q1027=
201612200550 METAR ESMX 200550Z 27008KT 9999 OVC007 04/02 Q1027=
201612200520 METAR ESMX 200520Z AUTO 27008KT 230V300 9999 OVC007/// 04/02 Q1027=
201612200450 METAR ESMX 200450Z AUTO 27007KT 240V300 9999 OVC007/// 04/02 Q1027=
201612200420 METAR ESMX 200420Z AUTO 27008KT 9999 FEW008/// OVC009/// 04/03 Q1027=
201612200350 METAR ESMX 200350Z AUTO 27007KT 240V310 9999 FEW006/// OVC008/// 04/03 Q1027=
201612200320 METAR ESMX 200320Z AUTO 26007KT 9999 FEW006/// OVC010/// 04/03 Q1028=
201612200250 METAR ESMX 200250Z AUTO 24005KT 9999 FEW005/// OVC011/// 04/03 Q1028=
201612200220 METAR ESMX 200220Z AUTO 24005KT 9999 FEW005/// SCT008/// OVC012/// 04/03 Q1028=
201612200150 METAR ESMX 200150Z AUTO 23006KT 9999 FEW005/// OVC010/// 04/04 Q1027=
201612200120 METAR ESMX 200120Z 23005KT 190V260 9999 FEW005 OVC006 05/04 Q1028=
201612200050 METAR ESMX 200050Z 26007KT 9999 BKN005 OVC008 05/04 Q1028=
201612200020 METAR ESMX 200020Z 26007KT 230V290 6000 BR BKN004 OVC007 05/04 Q1028=
201612192350 METAR ESMX 192350Z 26007KT 6000 BR BKN005 OVC009 05/04 Q1028=
201612192320 METAR ESMX 192320Z 27007KT 6000 BR BKN005 OVC008 05/04 Q1028=
201612192250 METAR ESMX 192250Z 27007KT 230V290 9999 OVC004 05/04 Q1028=
201612192220 METAR ESMX 192220Z 27007KT 9999 OVC005 05/04 Q1027=
201612192150 METAR ESMX 192150Z 27008KT 230V290 9999 OVC005 05/04 Q1027=
201612192120 METAR ESMX 192120Z 26006KT 230V290 9999 OVC006 05/04 Q1027=
201612192050 METAR ESMX 192050Z 27007KT 9999 BKN005 OVC007 05/04 Q1027=
201612192020 METAR ESMX 192020Z 27008KT 9000 BR OVC004 05/04 Q1027=
201612191950 METAR ESMX 191950Z 28007KT 240V310 7000 BR FEW003 OVC005 05/04 Q1027=
201612191920 METAR ESMX 191920Z 27007KT 240V300 9000 BR OVC004 04/04 Q1027=
201612191850 METAR ESMX 191850Z 28008KT 6000 BR OVC004 05/04 Q1027=
201612191820 METAR ESMX 191820Z 28009KT 5000 BR OVC003 05/04 Q1027=
201612191750 METAR ESMX 191750Z 28008KT 6000 BR FEW002 OVC004 05/04 Q1027=
201612191720 METAR ESMX 191720Z 28008KT 250V320 7000 BR OVC003 05/04 Q1027=
201612191650 METAR ESMX 191650Z 28007KT 240V310 7000 BR OVC003 05/04 Q1027=
201612191620 METAR ESMX 191620Z 27008KT 8000 BR OVC003 05/04 Q1027=
201612191550 METAR ESMX 191550Z 28009KT 7000 BR OVC003 05/04 Q1027=
201612191520 METAR ESMX 191520Z 28009KT 9999 FEW003 OVC004 05/04 Q1027=
201612191450 METAR ESMX 191450Z 27007KT 9999 OVC004 05/04 Q1027=
201612191420 METAR ESMX 191420Z 28007KT 9999 OVC003 05/04 Q1027=
201612191350 METAR ESMX 191350Z 27008KT 240V300 8000 BR OVC003 05/04 Q1027=
201612191320 METAR ESMX 191320Z 27008KT 230V290 7000 BR OVC003 05/04 Q1027=
201612191250 METAR ESMX 191250Z 27008KT 4800 BR OVC003 05/04 Q1027=
201612191220 METAR ESMX 191220Z 27007KT 240V310 4500 BR BKN002 OVC005 05/04 Q1028=
201612191150 METAR ESMX 191150Z 25006KT 3200 BR OVC001 04/04 Q1028=
201612191120 METAR ESMX 191120Z 26006KT 2500 BR OVC002 04/04 Q1028=
201612191050 METAR ESMX 191050Z 26007KT 2500 BR OVC002 04/04 Q1028=
201612191020 METAR ESMX 191020Z 26006KT 230V300 2100 BR OVC001 04/04 Q1028=
201612190950 METAR ESMX 190950Z 25007KT 2100 BR OVC001 04/03 Q1028=
201612190920 METAR ESMX 190920Z 26005KT 220V300 1300 R01/1600N R19/1800N BR OVC001 03/03 Q1028=
201612190850 METAR ESMX 190850Z 26007KT 1600 OVC001 03/03 Q1028=
201612190820 METAR ESMX 190820Z 25006KT 1800 OVC001 03/03 Q1028=
201612190750 METAR ESMX 190750Z 25005KT 220V290 0900 R01/1700N R19/1800N FG VV002 03/02 Q1028=
201612190720 METAR ESMX 190720Z 23006KT 0900 R01/1800N R19/1900N FG OVC001 02/02 Q1028=
201612190650 METAR ESMX 190650Z 25006KT 1500 BR OVC001 02/02 Q1028=
201612190620 METAR ESMX 190620Z 26006KT 7000 BR OVC001 02/02 Q1028=
201612190550 METAR ESMX 190550Z 26008KT 230V290 7000 BR OVC002 02/02 Q1027=
201612190520 METAR ESMX 190520Z 25007KT 5000 BR OVC002 02/02 Q1027=
201612190450 METAR ESMX 190450Z 26007KT 1600 BR VV002 02/02 Q1027=
201612190420 METAR ESMX 190420Z AUTO 26008KT 230V290 1100 R01/P2000N R19/P2000N BR VV002 01/01 Q1027=
201612190350 METAR ESMX 190350Z AUTO 26007KT 2300 BR OVC001/// 01/01 Q1028=
201612190320 METAR ESMX 190320Z AUTO 25008KT 2600 BR VV002 01/01 Q1028=
201612190250 METAR ESMX 190250Z AUTO 26008KT 2700 BR OVC001/// 01/01 Q1028=
201612190220 METAR ESMX 190220Z AUTO 25009KT 3700 OVC001/// 02/01 Q1028=
201612190150 METAR ESMX 190150Z AUTO 25007KT 220V280 1700 OVC001/// 02/01 Q1028=
201612190120 METAR ESMX 190120Z AUTO 24007KT 210V290 0750 R01/1800N R19/P2000N FG VV002 02/01 Q1028=
201612190050 METAR ESMX 190050Z 24008KT 0450 R01/1300U R19/1200U FG VV002 02/01 Q1028=
201612190020 METAR ESMX 190020Z 23006KT 200V260 0250 R01/0750N R19/0800N FG VV002 02/01 Q1029=
201612182350 METAR ESMX 182350Z 21005KT 0250 R01/0700N R19/1000D FG VV002 01/01 Q1029=
201612182320 METAR ESMX 182320Z 25006KT 0250 R01/0800N R19/1000D FG VV002 01/01 Q1029=
201612182250 METAR ESMX 182250Z 25006KT 220V280 0900 R01/P2000N R19/P2000N VV002 01/01 Q1029=
201612182220 METAR ESMX 182220Z 24005KT 0350 R01/1000N R19/1100U FG VV002 01/01 Q1029=
201612182150 METAR ESMX 182150Z 22005KT 0300 R01/0900N R19/1300D FG VV002 01/01 Q1029=
201612182120 METAR ESMX 182120Z 23007KT 0200 R01/0650N R19/P2000N FG VV002 01/01 Q1029=
201612182050 METAR ESMX 182050Z 23005KT 0250 R01/0750N R19/1000N FG VV002 01/01 Q1029=
201612182020 METAR ESMX 182020Z 21006KT 0350 R01/1000U R19/0900U FG VV002 02/01 Q1029=
201612181950 METAR ESMX 181950Z 23005KT 0350 R01/1000N R19/1200N FG VV002 02/01 Q1029=
201612181920 METAR ESMX 181920Z 24006KT 200V260 0350 R01/1000N R19/1400U FG VV002 02/01 Q1029=
201612181850 METAR ESMX 181850Z 24005KT 0450 R01/1200N R19/1200D FG VV002 02/01 Q1029=
201612181820 METAR ESMX 181820Z 27004KT 0900 R01/P2000D R19/P2000N FG VV002 02/01 Q1029=
201612181750 METAR ESMX 181750Z AUTO 24006KT 2300 BR VV002 02/01 Q1029=
201612181720 METAR ESMX 181720Z 22005KT 6000 BR OVC001 02/02 Q1029=
201612181650 METAR ESMX 181650Z 26004KT 240V310 9999 OVC001 02/02 Q1029=
201612181620 METAR ESMX 181620Z 27003KT 210V290 9999 OVC003 02/02 Q1029=
201612181550 METAR ESMX 181550Z 28004KT 240V310 9999 OVC003 03/02 Q1029=
201612181520 METAR ESMX 181520Z 30003KT 9999 OVC005 03/02 Q1029=
201612181450 METAR ESMX 181450Z 30003KT 9999 OVC005 03/02 Q1029=
201612181420 METAR ESMX 181420Z AUTO 29004KT 9999 OVC006/// 03/02 Q1029=
201612181350 METAR ESMX 181350Z AUTO 30005KT 9999 OVC007/// 03/03 Q1029=
201612181320 METAR ESMX 181320Z AUTO 29002KT 9999 OVC008/// 04/03 Q1029=
201612181250 METAR ESMX 181250Z AUTO 28003KT 9999 OVC008/// 04/03 Q1028=
201612181220 METAR ESMX 181220Z AUTO VRB02KT 9999 OVC009/// 04/03 Q1028=
201612181150 METAR ESMX 181150Z AUTO 29003KT 9999 OVC010/// 04/03 Q1029=
201612181120 METAR ESMX 181120Z AUTO 28002KT 9999 OVC010/// 04/03 Q1029=
201612181050 METAR ESMX 181050Z AUTO 33002KT 9999 OVC011/// 04/03 Q1029=
201612181020 METAR ESMX 181020Z AUTO 31005KT 9000 OVC012/// 04/03 Q1028=
201612180950 METAR ESMX 180950Z AUTO 32003KT 9999 FEW002/// OVC014/// 04/04 Q1028=
201612180920 METAR ESMX 180920Z AUTO VRB01KT 9999 OVC003/// 03/03 Q1028=
201612180850 METAR ESMX 180850Z AUTO 01002KT 9999 OVC004/// 03/03 Q1028=
201612180820 METAR ESMX 180820Z AUTO 36004KT 9999 OVC004/// 03/03 Q1027=
201612180750 METAR ESMX 180750Z AUTO 31005KT 280V340 7000 BR FEW003/// BKN005/// OVC007/// 03/03 Q1027=
201612180720 METAR ESMX 180720Z AUTO 30003KT 3900 OVC006/// 03/02 Q1027=
201612180650 METAR ESMX 180650Z AUTO 29002KT 1900 OVC007/// 03/03 Q1026=
201612180620 METAR ESMX 180620Z AUTO VRB02KT 0400 R01/1200N R19/1200N FG BKN001/// OVC010/// 03/03 Q1026=
201612180550 METAR ESMX 180550Z AUTO 00000KT 0350 R01/1000N R19/1000U FG VV001 03/02 Q1026=
201612180520 METAR ESMX 180520Z AUTO 00000KT 0450 R01/1300U R19/1300D FG VV001 03/03 Q1026=
201612180450 METAR ESMX 180450Z AUTO 23003KT 0400 R01/1100U R19/1100N FG VV001 03/02 Q1026=
201612180420 METAR ESMX 180420Z AUTO 27005KT 0300 R01/0900U R19/0900N FG VV001 03/03 Q1026=
201612180350 METAR ESMX 180350Z AUTO 25004KT 0200 R01/0650N R19/0800N FG VV001 03/03 Q1025=
201612180320 METAR ESMX 180320Z AUTO 25004KT 0200 R01/0700N R19/0750N FG VV001 03/03 Q1025=
201612180250 METAR ESMX 180250Z AUTO 27003KT 0200 R01/0700N R19/0800N FG VV001 03/03 Q1026=
201612180220 METAR ESMX 180220Z AUTO 23004KT 0300 R01/0900D R19/1200D FG VV001 03/03 Q1026=
201612180150 METAR ESMX 180150Z AUTO 23005KT 0700 R01/1700D R19/P2000N FG VV002 03/03 Q1026=
201612180120 METAR ESMX 180120Z AUTO 24007KT 1000 R01/P2000N R19/P2000N VV002 03/02 Q1026=
201612180050 METAR ESMX 180050Z AUTO 24007KT 1300 R01/P2000N R19/P2000N VV002 03/02 Q1026=
201612180020 METAR ESMX 180020Z AUTO 22007KT 0700 R01/1700U R19/1900N FG VV002 02/02 Q1026=
201612172350 METAR ESMX 172350Z AUTO 22007KT 0600 R01/1600D R19/1800D FG VV001 02/02 Q1026 RERA=
201612172320 METAR ESMX 172320Z AUTO 23007KT 2100 OVC001/// 02/02 Q1026 RESHUP=
201612172250 METAR ESMX 172250Z AUTO 23008KT 0250 R01/0800N R19/0800N FG VV001 02/02 Q1026 REUP=
201612172220 METAR ESMX 172220Z AUTO 22007KT 0150 R01/0600N R19/0600N FG VV001 02/02 Q1027=
201612172150 METAR ESMX 172150Z AUTO 22008KT 0150 R01/0550N R19/0600N FG VV001 02/02 Q1027=
201612172120 METAR ESMX 172120Z AUTO 22007KT 0300 R01/0900D R19/1000D FG VV001 02/02 Q1027=
201612172050 METAR ESMX 172050Z AUTO 22006KT 0400 R01/1100N R19/1400N FG VV001 01/01 Q1028=
201612172020 METAR ESMX 172020Z AUTO 22007KT 0550 R01/1400U R19/1400U FG VV001 01/01 Q1028=
201612171950 METAR ESMX 171950Z AUTO 22006KT 0300 R01/0800N R19/0900N FG VV001 01/01 Q1028=
201612171920 METAR ESMX 171920Z AUTO 23006KT 0300 R01/0900N R19/0900N FG VV001 01/01 Q1028=
201612171850 METAR ESMX 171850Z AUTO 20005KT 0350 R01/1000D R19/1200D FG VV001 01/00 Q1028=
201612171820 METAR ESMX 171820Z AUTO 22005KT 1100 R01/P2000N R19/P2000N VV002 01/00 Q1029=
201612171750 METAR ESMX 171750Z AUTO 22005KT 0750 R01/1900D R19/P2000N FG VV002 00/00 Q1029=
201612171720 METAR ESMX 171720Z AUTO 21006KT 1000 R01/P2000N R19/P2000N OVC001/// 00/00 Q1029=
201612171650 METAR ESMX 171650Z AUTO 23005KT 0800 R01/P2000N R19/P2000N FG VV002 00/00 Q1029=
201612171620 METAR ESMX 171620Z AUTO 22005KT 1000 R01/P2000N R19/P2000N FG VV002 00/00 Q1029=
201612171550 METAR ESMX 171550Z AUTO 25005KT 1600 BR OVC001/// 00/00 Q1030=
201612171520 METAR ESMX 171520Z AUTO 25006KT 1900 BR OVC001/// 00/00 Q1030=
201612171450 METAR ESMX 171450Z AUTO 25007KT 1300 R01/P2000N R19/P2000N OVC001/// 00/M00 Q1030=
201612171420 METAR ESMX 171420Z AUTO 26007KT 1100 R01/P2000N R19/P2000N VV002 00/M00 Q1030=
201612171350 METAR ESMX 171350Z AUTO 23007KT 0750 R01/1200N R19/1400U FG VV002 00/M00 Q1030=
201612171320 METAR ESMX 171320Z AUTO 23005KT 190V250 0800 R01/1300N R19/1400N FG VV002 00/M00 Q1030=
201612171250 METAR ESMX 171250Z AUTO 23005KT 1500 BR OVC001/// 00/M00 Q1030=
201612171220 METAR ESMX 171220Z AUTO 23005KT 3300 BR OVC002/// 00/M00 Q1030=
201612171150 METAR ESMX 171150Z AUTO 26006KT 3900 BR OVC002/// 00/M00 Q1031=
201612171120 METAR ESMX 171120Z AUTO 27006KT 250V310 2900 BR OVC002/// 00/M00 Q1031=
201612171050 METAR ESMX 171050Z AUTO 26007KT 210V290 2800 BR OVC002/// M00/M00 Q1031=
201612171020 METAR ESMX 171020Z 27006KT 2100 BR OVC002 M00/M01 Q1031=
201612170950 METAR ESMX 170950Z 27007KT 1900 BR OVC002 M00/M01 Q1031=
201612170920 METAR ESMX 170920Z 27006KT 1500 BR OVC002 M00/M01 Q1031=
201612170850 METAR ESMX 170850Z 27005KT 230V300 2300 BR OVC002 M00/M01 Q1031=
201612170820 METAR ESMX 170820Z AUTO 28006KT 250V320 2500 BR OVC001/// M00/M01 Q1031=
201612170750 METAR ESMX 170750Z AUTO 25006KT 2400 BR OVC001/// M00/M01 Q1031=
201612170720 METAR ESMX 170720Z AUTO 28006KT 2700 BR OVC001/// M00/M01 Q1031=
201612170650 METAR ESMX 170650Z AUTO 27005KT 250V310 2300 BR OVC001/// M00/M01 Q1031=
201612170620 METAR ESMX 170620Z AUTO 27005KT 2600 BR OVC002/// M00/M01 Q1031=
201612170550 METAR ESMX 170550Z AUTO 25004KT 230V290 3400 BR FEW002/// OVC004/// M01/M01 Q1031=
201612170520 METAR ESMX 170520Z AUTO 27003KT 3900 BR FEW003/// OVC005/// M01/M01 Q1031=
201612170450 METAR ESMX 170450Z AUTO 26003KT 5000 BR OVC004/// M01/M01 Q1031=
201612170420 METAR ESMX 170420Z AUTO 27003KT 240V300 7000 BR OVC005/// M01/M02 Q1031=
201612170350 METAR ESMX 170350Z AUTO 26002KT 7000 BR OVC005/// M01/M02 Q1031=
201612170320 METAR ESMX 170320Z AUTO 25003KT 7000 BR OVC005/// M01/M02 Q1031=
201612170250 METAR ESMX 170250Z AUTO VRB03KT 8000 BR OVC005/// M01/M02 Q1031=
201612170220 METAR ESMX 170220Z AUTO 29003KT 9999 OVC005/// M01/M02 Q1032=
201612170150 METAR ESMX 170150Z AUTO 29005KT 9999 OVC005/// M01/M02 Q1032=
201612170120 METAR ESMX 170120Z AUTO 30005KT 9999 OVC005/// M02/M03 Q1032=
201612170050 METAR ESMX 170050Z AUTO 29005KT 9999 OVC004/// M02/M03 Q1032=
201612170020 METAR ESMX 170020Z AUTO 29003KT 260V330 9999 OVC004/// M02/M03 Q1032=
201612162350 METAR ESMX 162350Z AUTO 28005KT 250V320 9999 OVC004/// M02/M03 Q1032=
201612162320 METAR ESMX 162320Z AUTO 27006KT 230V300 9999 OVC004/// M02/M03 Q1032=
201612162250 METAR ESMX 162250Z AUTO 28005KT 9999 OVC003/// M02/M03 Q1032=
201612162220 METAR ESMX 162220Z AUTO 26006KT 9999 OVC003/// M02/M03 Q1032=
201612162150 METAR ESMX 162150Z AUTO 29005KT 9999 OVC003/// M02/M03 Q1032=
201612162120 METAR ESMX 162120Z AUTO 25006KT 9999 OVC003/// M02/M03 Q1032=
201612162050 METAR ESMX 162050Z AUTO 28006KT 9999 OVC003/// M02/M03 Q1032=
201612162020 METAR ESMX 162020Z 24005KT 9999 OVC004 M02/M03 Q1032=
201612161950 METAR ESMX 161950Z 30006KT 9999 OVC003 M02/M03 Q1032=
201612161920 METAR ESMX 161920Z 29006KT 9999 OVC004 M02/M03 Q1032=
201612161850 METAR ESMX 161850Z 26004KT 9999 OVC003 M02/M03 Q1032=
201612161820 METAR ESMX 161820Z 28005KT 240V320 9999 OVC004 M02/M03 Q1032=
201612161750 METAR ESMX 161750Z 27004KT 240V310 9000 BR OVC004 M02/M03 Q1032=
201612161720 METAR ESMX 161720Z 28004KT 250V310 6000 BR OVC003 M02/M03 Q1032=
201612161650 METAR ESMX 161650Z 25005KT 220V280 6000 BR OVC003 M02/M03 Q1032=
201612161620 METAR ESMX 161620Z 29005KT 5000 BR OVC003 M02/M03 Q1032=
201612161550 METAR ESMX 161550Z 31005KT 260V340 4900 BR OVC003 M02/M02 Q1032=
201612161520 METAR ESMX 161520Z 27005KT 5000 BR OVC004 M02/M02 Q1032=
201612161450 METAR ESMX 161450Z 25004KT 5000 BR OVC004 M01/M02 Q1032=
201612161420 METAR ESMX 161420Z 25006KT 6000 BR OVC004 M01/M02 Q1032=
201612161350 METAR ESMX 161350Z 26005KT 220V310 6000 BR OVC005 M01/M02 Q1032=
201612161320 METAR ESMX 161320Z 27006KT 230V290 7000 BR OVC004 M01/M02 Q1032=
201612161250 METAR ESMX 161250Z 26006KT 7000 BR OVC005 M01/M02 Q1032=
201612161220 METAR ESMX 161220Z 27005KT 240V300 7000 BR OVC005 M01/M02 Q1031=
201612161150 METAR ESMX 161150Z 25006KT 8000 BR OVC005 M01/M02 Q1031=
201612161120 METAR ESMX 161120Z 21006KT 9000 BR OVC006 M00/M02 Q1031=
201612161050 METAR ESMX 161050Z 22005KT 9999 OVC007 M00/M02 Q1031=
201612161020 METAR ESMX 161020Z 25003KT 230V300 9999 FEW006 OVC008 M00/M02 Q1032=
201612160950 METAR ESMX 160950Z 22005KT 180V250 9999 OVC007 M00/M02 Q1032=
201612160920 METAR ESMX 160920Z 23004KT 210V270 9999 OVC008 M00/M01 Q1032=
201612160850 METAR ESMX 160850Z 23003KT 180V290 9999 OVC009 M00/M01 Q1032=
201612160820 METAR ESMX 160820Z 23005KT 9999 OVC009 M00/M01 Q1032=
201612160750 METAR ESMX 160750Z VRB02KT 9999 OVC010 M00/M01 Q1032=
201612160720 METAR ESMX 160720Z 22003KT 200V260 9999 OVC010 M00/M01 Q1032=
201612160650 METAR ESMX 160650Z 23004KT 9999 OVC010 M00/M01 Q1032=
201612160620 METAR ESMX 160620Z 22003KT 9999 OVC009 M00/M01 Q1032=
201612160550 METAR ESMX 160550Z 21003KT 9999 OVC009 M00/M01 Q1032=
201612160520 METAR ESMX 160520Z 23005KT 9999 OVC008 M00/M01 Q1032=
201612160450 METAR ESMX 160450Z 22004KT 9999 OVC009 M00/M01 Q1032=
201612160420 METAR ESMX 160420Z AUTO 22004KT 190V260 9999 OVC009/// M00/M01 Q1032=
201612160350 METAR ESMX 160350Z AUTO 24003KT 9999 OVC010/// M00/M01 Q1031=
201612160320 METAR ESMX 160320Z AUTO 23003KT 9999 OVC010/// 00/M00 Q1032=
201612160250 METAR ESMX 160250Z AUTO VRB02KT 9999 OVC011/// M00/M00 Q1032=
201612160220 METAR ESMX 160220Z AUTO VRB02KT 9999 OVC011/// M00/M00 Q1032=
201612160150 METAR ESMX 160150Z AUTO 22003KT 9999 OVC011/// M00/M00 Q1032=
201612160120 METAR ESMX 160120Z AUTO 20003KT 9999 OVC011/// M00/M00 Q1031=
201612160050 METAR ESMX 160050Z 21003KT 9999 OVC009 M00/M00 Q1031=
201612160020 METAR ESMX 160020Z 21005KT 9999 OVC008 M00/M00 Q1031=
201612152350 METAR ESMX 152350Z 20005KT 9999 OVC007 M00/M01 Q1031=
201612152320 METAR ESMX 152320Z 22005KT 9999 OVC006 M00/M01 Q1032=
201612152250 METAR ESMX 152250Z 22005KT 190V250 9999 OVC005 M00/M01 Q1032=
201612152220 METAR ESMX 152220Z 22004KT 9999 OVC006 M01/M01 Q1032=
201612152150 METAR ESMX 152150Z 22003KT 4400 BR SCT002 OVC006 M01/M01 Q1032=
201612152120 METAR ESMX 152120Z 19003KT 0900 R01/P2000N R19/P2000N FZFG VV002 M01/M01 Q1032=
201612152050 METAR ESMX 152050Z 18003KT 0250 R01/1400U R19/0750N FZFG VV002 M01/M02 Q1032=
201612152020 METAR ESMX 152020Z 20003KT 0200 R01/0750N R19/0700N FZFG VV002 M01/M02 Q1032=
201612151950 METAR ESMX 151950Z 17003KT 0200 R01/0650D R19/0800N FZFG VV002 M01/M02 Q1032=
201612151920 METAR ESMX 151920Z VRB02KT 0300 R01/0900D R19/1100D FZFG VV002 M02/M02 Q1032=
201612151850 METAR ESMX 151850Z 16003KT 0600 R01/1500N R19/1800U FZFG VV002 M02/M02 Q1032=
201612151820 METAR COR ESMX 151820Z 17004KT 0450 R01/1200N R19/1200U FZFG VV002 M02/M02 Q1032=
201612151750 METAR ESMX 151750Z 24004KT 210V280 0600 R01/1500U R19/1700D FZFG VV002 M02/M02 Q1032=
201612151720 METAR ESMX 151720Z 26005KT 220V280 0450 R01/1200U R19/1400D FZFG VV002 M02/M02 Q1032=
201612151650 METAR ESMX 151650Z 23004KT 0350 R01/1100U R19/1200D FZFG VV002 M02/M03 Q1032=
201612151620 METAR ESMX 151620Z 22005KT 0600 R01/1100N R19/1300N FZFG VV002 M02/M03 Q1032=
201612151550 METAR ESMX 151550Z 22005KT 0550 R01/1500D R19/1700D FZFG VV002 M02/M03 Q1032=
201612151520 METAR ESMX 151520Z 22005KT 0550 R01/1400U R19/P2000N FZFG VV002 M02/M03 Q1032=
201612151450 METAR ESMX 151450Z 22006KT 0400 R01/0900D R19/1700D FZFG VV002 M02/M03 Q1032=
201612151420 METAR ESMX 151420Z 20005KT 0900 R01/1000N R19/1400N FZFG OVC003 M02/M03 Q1031=
201612151350 METAR ESMX 151350Z 18005KT CAVOK M02/M03 Q1031=
201612151320 METAR ESMX 151320Z 17004KT CAVOK M01/M02 Q1031=
201612151250 METAR ESMX 151250Z 17003KT CAVOK M01/M01 Q1031=
201612151220 METAR ESMX 151220Z 00000KT CAVOK M00/M01 Q1031=
201612151150 METAR ESMX 151150Z 00000KT CAVOK M01/M01 Q1031=
201612151120 METAR ESMX 151120Z 18003KT CAVOK M01/M02 Q1031=
201612151050 METAR ESMX 151050Z 00000KT CAVOK M01/M02 Q1031=
201612151020 METAR ESMX 151020Z 00000KT CAVOK M03/M03 Q1032=
201612150950 METAR ESMX 150950Z 00000KT CAVOK M03/M04 Q1032=
201612150920 METAR ESMX 150920Z 00000KT CAVOK M06/M07 Q1032=
201612150850 METAR ESMX 150850Z VRB01KT CAVOK M06/M07 Q1032=
201612150820 METAR ESMX 150820Z 17001KT CAVOK M08/M10 Q1031=
201612150750 METAR ESMX 150750Z 00000KT CAVOK M08/M10 Q1031=
201612150720 METAR ESMX 150720Z 15001KT CAVOK M08/M09 Q1031=
201612150650 METAR ESMX 150650Z 00000KT CAVOK M09/M10 Q1031=
201612150620 METAR ESMX 150620Z 00000KT CAVOK M08/M09 Q1030=
201612150550 METAR ESMX 150550Z 00000KT CAVOK M07/M08 Q1030=
201612150520 METAR ESMX 150520Z 00000KT CAVOK M06/M07 Q1030=
201612150450 METAR ESMX 150450Z 22003KT CAVOK M06/M07 Q1030=
201612150420 METAR ESMX 150420Z AUTO 22003KT 9999 NCD M08/M09 Q1030=
201612150350 METAR ESMX 150350Z AUTO 19002KT 9999 NCD M08/M09 Q1030=
201612150320 METAR ESMX 150320Z AUTO 16001KT 9999 NCD M07/M08 Q1029=
201612150250 METAR ESMX 150250Z AUTO 00000KT 9999 NCD M08/M09 Q1029=
201612150220 METAR ESMX 150220Z AUTO 00000KT 9999 NCD M08/M09 Q1029=
201612150150 METAR ESMX 150150Z AUTO 18002KT 9999 NCD M08/M09 Q1029=
201612150120 METAR ESMX 150120Z AUTO 18002KT 9999 NCD M07/M07 Q1029=
201612150050 METAR ESMX 150050Z AUTO 18001KT 9999 NCD M06/M07 Q1029=
201612150020 METAR ESMX 150020Z 00000KT 9999 VCFG NSC M07/M08 Q1029=
201612142350 METAR ESMX 142350Z 15002KT 6000 VCFG NSC M05/M06 Q1029=
201612142320 METAR ESMX 142320Z VRB01KT 9999 BCFG NSC M05/M06 Q1029=
201612142250 METAR ESMX 142250Z 00000KT CAVOK M06/M07 Q1029=
201612142220 METAR COR ESMX 142220Z 28003KT CAVOK M05/M06 Q1029=
201612142150 METAR ESMX 142150Z 30002KT 9999 VCFG NSC M06/M07 Q1028=
201612142120 METAR ESMX 142120Z 28001KT 9999 VCFG NSC M04/M05 Q1028=
201612142050 METAR ESMX 142050Z 30001KT 9999 VCFG NSC M06/M07 Q1028=
201612142020 METAR ESMX 142020Z 33003KT 9999 VCFG NSC M05/M06 Q1028=
201612141950 METAR ESMX 141950Z VRB01KT 7000 R19/P2000 BCFG NSC M05/M05 Q1027=
201612141920 METAR ESMX 141920Z 32002KT 0900 R01/1900N R19/P2000N BCFG NSC M06/M07 Q1027=
201612141850 METAR ESMX 141850Z 33003KT 6000 R19/2000 VCFG NSC M04/M05 Q1027=
201612141820 METAR ESMX 141820Z 31003KT 8000 BCFG NSC M03/M03 Q1027=
201612141750 METAR ESMX 141750Z 29003KT CAVOK M04/M05 Q1027=
201612141720 METAR ESMX 141720Z 30002KT 5000 MIFG NSC M03/M04 Q1026=
201612141650 METAR ESMX 141650Z 29005KT CAVOK M03/M04 Q1026=
201612141620 METAR ESMX 141620Z 28003KT CAVOK M03/M03 Q1026=
201612141550 METAR ESMX 141550Z 31004KT 9999 MIFG NSC M02/M02 Q1025=
201612141520 METAR ESMX 141520Z 31003KT CAVOK M02/M03 Q1025=
201612141450 METAR ESMX 141450Z VRB02KT CAVOK M01/M01 Q1025=
201612141420 METAR ESMX 141420Z 32005KT CAVOK 00/M01 Q1024=
201612141350 METAR ESMX 141350Z 33006KT CAVOK 01/M01 Q1024=
201612141320 METAR ESMX 141320Z 33006KT CAVOK 02/M00 Q1024=
201612141250 METAR ESMX 141250Z 33007KT CAVOK 02/M00 Q1024=
201612141220 METAR ESMX 141220Z 33006KT CAVOK 02/M00 Q1023=
201612141150 METAR ESMX 141150Z 34008KT CAVOK 02/M00 Q1023=
201612141120 METAR ESMX 141120Z 34008KT CAVOK 02/M00 Q1023=
201612141050 METAR ESMX 141050Z 34007KT CAVOK 02/M01 Q1023=
201612141020 METAR ESMX 141020Z 36007KT CAVOK 01/M01 Q1023=
201612140950 METAR ESMX 140950Z 35008KT CAVOK 01/M01 Q1022=
201612140920 METAR ESMX 140920Z 35008KT CAVOK 00/M01 Q1022=
201612140850 METAR ESMX 140850Z 34007KT CAVOK M00/M02 Q1021=
201612140820 METAR ESMX 140820Z 34007KT CAVOK M01/M02 Q1021=
201612140750 METAR ESMX 140750Z 34007KT CAVOK M01/M02 Q1021=
201612140720 METAR ESMX 140720Z 33007KT CAVOK M01/M02 Q1021=
201612140650 METAR ESMX 140650Z 33007KT CAVOK M01/M02 Q1020=
201612140620 METAR ESMX 140620Z 33008KT CAVOK M00/M02 Q1020=
201612140550 METAR ESMX 140550Z 33009KT CAVOK M00/M02 Q1020=
201612140520 METAR ESMX 140520Z 33008KT CAVOK 00/M02 Q1019=
201612140450 METAR ESMX 140450Z 33008KT CAVOK M00/M02 Q1019=
201612140420 METAR ESMX 140420Z AUTO 32008KT 9999 NCD 00/M02 Q1019=
201612140350 METAR ESMX 140350Z AUTO 33009KT 9999 NCD 00/M02 Q1018=
201612140320 METAR ESMX 140320Z AUTO 33008KT 9999 NCD 00/M01 Q1018=
201612140250 METAR ESMX 140250Z AUTO 33009KT 9999 NCD 00/M01 Q1018=
201612140220 METAR ESMX 140220Z AUTO 32005KT 9999 NCD M00/M02 Q1018=
201612140150 METAR ESMX 140150Z AUTO 32006KT 9999 NCD M00/M01 Q1018=
201612140120 METAR ESMX 140120Z AUTO 31006KT 9999 NCD 00/M01 Q1017=
201612140050 METAR ESMX 140050Z 29007KT CAVOK 00/M00 Q1017=
201612140020 METAR ESMX 140020Z 29007KT CAVOK 01/M00 Q1017=
201612132350 METAR ESMX 132350Z 30005KT CAVOK 01/00 Q1017=
201612132320 METAR ESMX 132320Z 29007KT CAVOK 02/01 Q1017=
201612132250 METAR ESMX 132250Z 29006KT CAVOK 02/01 Q1017=
201612132220 METAR ESMX 132220Z 31007KT CAVOK 03/02 Q1017=
201612132150 METAR ESMX 132150Z 31006KT 9999 FEW010 03/02 Q1017=
201612132120 METAR ESMX 132120Z 31006KT 9999 FEW015 BKN018 04/03 Q1016=
201612132050 METAR ESMX 132050Z 30007KT 9999 FEW006 SCT009 BKN022 04/04 Q1016=
201612132020 METAR ESMX 132020Z 29007KT 9999 BKN004 OVC009 04/04 Q1016=
201612131950 METAR ESMX 131950Z 28008KT 9999 OVC002 04/04 Q1016=
201612131920 METAR ESMX 131920Z 27007KT 240V300 8000 BR OVC002 04/04 Q1016=
201612131850 METAR ESMX 131850Z 26007KT 6000 BR OVC002 04/04 Q1016 REDZ=
201612131820 METAR ESMX 131820Z 26008KT 3500 -DZ SCT002 OVC003 04/04 Q1016=
201612131750 METAR ESMX 131750Z 27006KT 1600 BR VV002 04/04 Q1016=
201612131720 METAR ESMX 131720Z 26007KT 220V290 1800 BR VV002 04/04 Q1016=
201612131650 METAR ESMX 131650Z 24008KT 3600 BR VV002 04/04 Q1016=
201612131620 METAR ESMX 131620Z 23008KT 1500 R01/P2000N R19/P2000N BR VV002 04/03 Q1016=
201612131550 METAR ESMX 131550Z 23008KT 1500 BR VV002 04/03 Q1017=
201612131520 METAR ESMX 131520Z 25007KT 3000 BR VV002 03/03 Q1017=
201612131450 METAR ESMX 131450Z 24008KT 1800 BR VV002 03/03 Q1017=
201612131420 METAR ESMX 131420Z 23007KT 210V280 3600 BR VV002 03/03 Q1017=
201612131350 METAR ESMX 131350Z 23009KT 1300 R01/1800N R19/P2000N BR VV002 03/03 Q1017=
201612131320 METAR ESMX 131320Z 24007KT 0900 R01/1200U R19/1600U FG VV002 03/03 Q1017=
201612131250 METAR ESMX 131250Z 24007KT 0650 R01/1000N R19/1300N FG VV002 02/02 Q1018=
201612131220 METAR ESMX 131220Z 23006KT 0600 R01/1000N R19/1100N FG VV002 02/02 Q1018=
201612131150 METAR ESMX 131150Z 22007KT 0900 R01/1300D R19/1600D FG VV002 02/01 Q1018=
201612131120 METAR ESMX 131120Z 21006KT 2000 BR OVC002 02/01 Q1019=
201612131050 METAR ESMX 131050Z 21006KT 2300 BR OVC002 01/01 Q1019=
201612131020 METAR ESMX 131020Z 21008KT 1900 -DZ OVC002 01/01 Q1019=
201612130950 METAR ESMX 130950Z 21007KT 2600 -DZ OVC003 01/01 Q1019=
201612130920 METAR ESMX 130920Z 20006KT 2200 BR OVC002 01/01 Q1019=
201612130850 METAR ESMX 130850Z 22007KT 3800 BR BKN002 01/00 Q1020=
201612130820 METAR ESMX 130820Z 21005KT 2300 -DZ OVC002 01/00 Q1020=
201612130750 METAR COR ESMX 130750Z 20005KT 2400 -DZ OVC003 00/M00 Q1020=
201612130720 METAR ESMX 130720Z 22006KT 9999 BKN004 00/M00 Q1020=
201612130650 METAR ESMX 130650Z 21006KT 9999 BKN007 OVC012 00/M00 Q1020=
201612130620 METAR ESMX 130620Z 21005KT 9999 BKN006 OVC009 00/M00 Q1020=
201612130550 METAR ESMX 130550Z 24004KT 9999 OVC007 00/M01 Q1020=
201612130520 METAR ESMX 130520Z 23005KT 9999 BKN007 OVC010 00/M01 Q1020=
201612130450 METAR ESMX 130450Z 24006KT 2800 -SN FEW006 OVC011 M00/M01 Q1020=
201612130420 METAR ESMX 130420Z AUTO 22005KT 2400 -SN FEW006/// BKN011/// OVC015/// M00/M01 Q1020=
201612130350 METAR ESMX 130350Z AUTO 21005KT 9999 -SN SCT015/// BKN021/// 00/M01 Q1021 REFZUP=
201612130320 METAR ESMX 130320Z AUTO 22004KT 9999 OVC022/// M00/M02 Q1021=
201612130250 METAR ESMX 130250Z AUTO 21003KT 9999 OVC021/// M00/M02 Q1021=
201612130220 METAR ESMX 130220Z AUTO 23005KT 200V260 9999 FEW023/// BKN028/// M01/M02 Q1021=
201612130150 METAR ESMX 130150Z AUTO 23005KT 9999 FEW025/// M01/M03 Q1021=
201612130120 METAR ESMX 130120Z AUTO 22009KT 9999 SCT032/// M01/M03 Q1021=
201612130050 METAR ESMX 130050Z 21008KT 9999 OVC031 M01/M03 Q1022=
201612130020 METAR ESMX 130020Z 20009KT 9999 OVC029 M01/M03 Q1023=
201612122350 METAR ESMX 122350Z 19006KT 9999 OVC027 M02/M03 Q1023=
201612122320 METAR ESMX 122320Z 22006KT 9999 OVC027 M02/M03 Q1023=
201612122250 METAR ESMX 122250Z 20007KT 9999 OVC026 M02/M03 Q1023=
201612122220 METAR ESMX 122220Z 21008KT 9999 OVC025 M02/M04 Q1023=
201612122150 METAR ESMX 122150Z 20008KT 9999 OVC026 M02/M04 Q1024=
201612122120 METAR ESMX 122120Z 19006KT 9999 FEW013 OVC027 M03/M04 Q1024=
201612122050 METAR ESMX 122050Z 21004KT 9999 BKN013 OVC028 M03/M05 Q1024=
201612122020 METAR ESMX 122020Z 21003KT 9999 BKN024 M04/M05 Q1024=
201612121950 METAR ESMX 121950Z 22006KT 9999 FEW023 SCT026 M04/M05 Q1024=
201612121920 METAR ESMX 121920Z 21005KT CAVOK M05/M07 Q1024=
201612121850 METAR ESMX 121850Z 19005KT CAVOK M05/M06 Q1024=
201612121820 METAR ESMX 121820Z 20005KT CAVOK M05/M06 Q1025=
201612121750 METAR ESMX 121750Z 21005KT CAVOK M05/M06 Q1025=
201612121720 METAR ESMX 121720Z 22004KT CAVOK M05/M06 Q1025=
201612121650 METAR ESMX 121650Z 21004KT CAVOK M05/M06 Q1025=
201612121620 METAR ESMX 121620Z 20004KT CAVOK M04/M05 Q1025=
201612121550 METAR COR ESMX 121550Z 22004KT CAVOK M04/M06 Q1025=
201612121520 METAR ESMX 121520Z 23004KT CAVOK M04/M06 Q1025=
201612121450 METAR ESMX 121450Z 23003KT CAVOK M04/M06 Q1025=
201612121420 METAR ESMX 121420Z 21004KT CAVOK M03/M06 Q1025=
201612121350 METAR COR ESMX 121350Z 19004KT CAVOK M02/M05 Q1025=
201612121320 METAR ESMX 121320Z 20005KT CAVOK M01/M05 Q1025=
201612121250 METAR ESMX 121250Z 19003KT CAVOK M01/M05 Q1025=
201612121220 METAR ESMX 121220Z VRB02KT CAVOK M00/M05 Q1025=
201612121150 METAR ESMX 121150Z 00000KT CAVOK M01/M06 Q1026=
201612121120 METAR ESMX 121120Z VRB03KT CAVOK M02/M05 Q1026=
201612121050 METAR ESMX 121050Z 30003KT CAVOK M02/M06 Q1025=
201612121020 METAR ESMX 121020Z 31005KT CAVOK M02/M05 Q1025=
201612120950 METAR ESMX 120950Z 02004KT CAVOK M02/M06 Q1025=
201612120920 METAR ESMX 120920Z 01003KT CAVOK M03/M06 Q1025=
201612120850 METAR ESMX 120850Z 01005KT CAVOK M03/M06 Q1024=
201612120820 METAR ESMX 120820Z 33004KT CAVOK M04/M06 Q1024=
201612120750 METAR ESMX 120750Z 35005KT CAVOK M04/M06 Q1024=
201612120720 METAR ESMX 120720Z 02006KT CAVOK M03/M06 Q1024=
201612120650 METAR ESMX 120650Z 02006KT CAVOK M03/M06 Q1023=
201612120620 METAR ESMX 120620Z 02007KT CAVOK M03/M06 Q1022=
201612120550 METAR ESMX 120550Z 03007KT 9999 BKN020 M02/M06 Q1022=
201612120520 METAR ESMX 120520Z 02009KT 350V060 9999 BKN016 M01/M05 Q1021=
201612120450 METAR ESMX 120450Z 03008KT 360V070 9999 FEW015 BKN018 M01/M04 Q1021=
201612120420 METAR ESMX 120420Z AUTO 05008KT 010V080 9999 FEW012/// OVC015/// M01/M04 Q1020=
201612120350 METAR ESMX 120350Z AUTO 02006KT 9999 NCD M02/M03 Q1020=
201612120320 METAR ESMX 120320Z AUTO 02007KT 9999 NCD M02/M04 Q1019=
201612120250 METAR ESMX 120250Z AUTO 02007KT 9999 NCD M01/M03 Q1019=
201612120220 METAR ESMX 120220Z AUTO 01007KT 9999 FEW078/// M02/M03 Q1018=
201612120150 METAR ESMX 120150Z AUTO 01007KT 9999 FEW012/// SCT016/// BKN077/// M01/M03 Q1017=
201612120120 METAR ESMX 120120Z 01008KT 9999 FEW015 BKN033 M01/M03 Q1017=
201612120050 METAR ESMX 120050Z 03008KT 9999 BKN034 BKN080 M01/M03 Q1016=
201612120020 METAR ESMX 120020Z 03007KT 9999 FEW015 BKN080 M01/M02 Q1016=
201612112350 METAR COR ESMX 112350Z 04009KT 020V080 9999 FEW009 SCT030 BKN079 M00/M02 Q1015=
201612112320 METAR ESMX 112320Z 05008KT 020V080 9999 BKN015 BKN063 M00/M02 Q1014=
201612112250 METAR ESMX 112250Z 05010KT 030V110 9999 FEW006 BKN015 M00/M02 Q1013=
201612112220 METAR ESMX 112220Z 05009KT 9000 -SN BKN010 00/M01 Q1013=
201612112150 METAR ESMX 112150Z 05008KT 020V080 5000 -SN FEW005 BKN010 00/M01 Q1012=
201612112120 METAR ESMX 112120Z 05010KT 9999 -SN SCT006 BKN045 01/M00 Q1011=
201612112050 METAR ESMX 112050Z 04010KT 020V080 7000 -SN FEW005 BKN009 01/M00 Q1010=
201612112020 METAR COR ESMX 112020Z 04011KT 9999 -SN BKN006 01/00 Q1009=
201612111950 METAR ESMX 111950Z 36012KT 5000 -RASN FEW005 OVC007 02/01 Q1008=
201612111920 METAR ESMX 111920Z 34011KT 9999 -RA FEW006 OVC009 03/02 Q1007=
201612111850 METAR ESMX 111850Z 34011KT 9999 -RA SCT007 OVC010 04/02 Q1006=
201612111820 METAR ESMX 111820Z 34009KT 9999 -RA SCT009 OVC014 04/03 Q1006=
201612111750 METAR ESMX 111750Z AUTO 34008KT 9999 -DZ FEW009/// BKN013/// OVC019/// 05/04 Q1005 RERA=
201612111720 METAR ESMX 111720Z AUTO 33007KT 9999 FEW009/// BKN018/// OVC021/// 05/04 Q1005=
201612111650 METAR ESMX 111650Z 31005KT 9999 OVC017 05/04 Q1004=
201612111620 METAR ESMX 111620Z 31005KT 9999 OVC022 05/04 Q1004=
201612111550 METAR ESMX 111550Z 31006KT 9999 OVC021 05/04 Q1004=
201612111520 METAR ESMX 111520Z 33007KT 9999 FEW010 SCT018 OVC025 05/04 Q1004=
201612111450 METAR ESMX 111450Z 34009KT 9999 FEW010 SCT015 BKN017 05/04 Q1003=
201612111420 METAR ESMX 111420Z 31007KT 9000 -RA FEW016 BKN026 06/05 Q1003=
201612111350 METAR ESMX 111350Z 30006KT 9999 FEW011 BKN028 06/05 Q1002=
201612111320 METAR ESMX 111320Z 29006KT 9999 FEW013 OVC027 06/05 Q1002=
201612111250 METAR ESMX 111250Z 28007KT 9999 -DZ FEW012 SCT018 BKN021 06/05 Q1002=
201612111220 METAR ESMX 111220Z 28005KT 9999 FEW010 BKN012 06/04 Q1002=
201612111150 METAR ESMX 111150Z 28005KT 9999 -DZ FEW008 SCT015 BKN049 07/05 Q1002=
201612111120 METAR ESMX 111120Z AUTO 27006KT 230V300 9999 BKN007/// BKN012/// 07/05 Q1002=
201612111050 METAR ESMX 111050Z AUTO 26005KT 9999 FEW007/// SCT009/// OVC010/// 06/05 Q1002 REDZ REUP RESHUP=
201612111020 METAR ESMX 111020Z AUTO 25005KT 210V280 9999 FEW008/// SCT017/// OVC026/// 06/05 Q1002=
201612110950 METAR ESMX 110950Z AUTO 26004KT 230V300 9999 FEW009/// OVC024/// 06/05 Q1003=
201612110920 METAR ESMX 110920Z AUTO 26005KT 9999 FEW006/// BKN009/// OVC016/// 06/05 Q1003=
201612110850 METAR ESMX 110850Z AUTO 26004KT 9999 FEW006/// BKN008/// OVC011/// 06/05 Q1003=
201612110820 METAR ESMX 110820Z AUTO 26005KT 230V290 9999 FEW006/// BKN008/// OVC024/// 06/05 Q1003=
201612110750 METAR ESMX 110750Z AUTO 25005KT 9999 BKN006/// OVC009/// 06/05 Q1003=
201612110720 METAR ESMX 110720Z AUTO 26004KT 9999 FEW007/// SCT008/// BKN010/// 06/05 Q1003=
201612110650 METAR ESMX 110650Z AUTO 26006KT 230V290 9999 BKN006/// OVC010/// 06/05 Q1003=
201612110620 METAR ESMX 110620Z AUTO 24006KT 9999 FEW006/// BKN007/// OVC010/// 06/05 Q1003=
201612110550 METAR ESMX 110550Z AUTO 24006KT 9000 BR FEW006/// BKN007/// OVC009/// 06/05 Q1003=
201612110520 METAR ESMX 110520Z AUTO 24006KT 9000 BR OVC005/// 06/05 Q1004=
201612110450 METAR ESMX 110450Z AUTO 23006KT 9000 BR BKN005/// OVC008/// 06/05 Q1004=
201612110420 METAR ESMX 110420Z AUTO 23006KT 200V260 9000 BR FEW006/// BKN007/// OVC015/// 06/05 Q1004=
201612110350 METAR ESMX 110350Z AUTO 23004KT 9999 BKN006/// OVC015/// 06/05 Q1005=
201612110320 METAR ESMX 110320Z AUTO 23005KT 9999 FEW014/// BKN017/// OVC021/// 06/05 Q1005=
201612110250 METAR ESMX 110250Z AUTO 23005KT 9999 OVC014/// 06/05 Q1005=
201612110220 METAR ESMX 110220Z AUTO 24006KT 9999 OVC014/// 06/05 Q1006=
201612110150 METAR ESMX 110150Z AUTO 25006KT 9999 FEW009/// OVC015/// 06/05 Q1006=
201612110120 METAR ESMX 110120Z AUTO 24006KT 9999 FEW011/// OVC013/// 06/05 Q1006=
201612110050 METAR ESMX 110050Z AUTO 26008KT 220V290 9999 FEW011/// OVC014/// 06/05 Q1007=
201612110020 METAR ESMX 110020Z AUTO 27006KT 9999 OVC011/// 06/05 Q1007=
201612102350 METAR ESMX 102350Z AUTO 24006KT 9999 OVC011/// 06/05 Q1007=
201612102320 METAR ESMX 102320Z AUTO 28007KT 9999 OVC012/// 07/05 Q1008=
201612102250 METAR ESMX 102250Z AUTO 27007KT 9999 OVC011/// 07/05 Q1007=
201612102220 METAR ESMX 102220Z AUTO 26009KT 230V300 9999 OVC011/// 07/05 Q1008=
201612102150 METAR ESMX 102150Z AUTO 28007KT 250V320 9999 FEW012/// OVC014/// 07/05 Q1008=
201612102120 METAR ESMX 102120Z AUTO 27007KT 9999 FEW011/// OVC016/// 07/05 Q1008=
201612102050 METAR ESMX 102050Z AUTO 27007KT 240V300 9999 FEW014/// OVC019/// 07/05 Q1008=
201612102020 METAR ESMX 102020Z AUTO 26009KT 9999 FEW011/// BKN015/// OVC019/// 07/05 Q1008=
201612101950 METAR ESMX 101950Z AUTO 26010KT 9999 FEW012/// BKN015/// OVC020/// 07/05 Q1007=
201612101920 METAR ESMX 101920Z AUTO 28010KT 9999 FEW012/// OVC015/// 07/06 Q1008=
201612101850 METAR ESMX 101850Z AUTO 28009KT 250V320 9999 FEW010/// BKN013/// OVC017/// 07/06 Q1008=
201612101820 METAR ESMX 101820Z AUTO 26010KT 9999 FEW009/// SCT012/// BKN014/// 07/06 Q1007=
201612101750 METAR ESMX 101750Z AUTO 26010KT 9999 OVC021/// 08/06 Q1007=
201612101720 METAR ESMX 101720Z AUTO 26011KT 9999 FEW014/// OVC029/// 08/06 Q1007=
201612101650 METAR ESMX 101650Z AUTO 27010KT 9999 FEW010/// SCT014/// BKN019/// 08/06 Q1007=
201612101620 METAR ESMX 101620Z AUTO 25011KT 9999 FEW009/// SCT012/// BKN021/// 08/07 Q1007=
201612101550 METAR ESMX 101550Z AUTO 27010KT 9999 FEW009/// BKN012/// OVC028/// 08/07 Q1007=
201612101520 METAR ESMX 101520Z AUTO 27010KT 240V320 9999 FEW007/// SCT009/// BKN010/// 08/07 Q1007=
201612101450 METAR ESMX 101450Z AUTO 26010KT 200V280 8000 -RA FEW005/// SCT007/// BKN009/// 08/07 Q1007 REDZ=
201612101420 METAR ESMX 101420Z 27009KT 4800 DZ FEW006 BKN008 OVC010 08/07 Q1007=
201612101350 METAR ESMX 101350Z 27009KT 7000 DZ FEW007 SCT009 OVC010 08/07 Q1007=
201612101320 METAR ESMX 101320Z 26007KT 220V280 9999 FEW003 SCT006 BKN008 08/07 Q1007=
201612101250 METAR ESMX 101250Z 25004KT 210V280 3600 DZ OVC002 08/08 Q1007=
201612101220 METAR ESMX 101220Z 27005KT 2000 DZ FEW002 OVC006 08/07 Q1008=
201612101150 METAR COR ESMX 101150Z 26003KT 240V300 6000 DZ FEW002 BKN005 OVC007 08/07 Q1007=
201612101120 METAR ESMX 101120Z AUTO 29006KT 4900 -DZ BKN005/// OVC009/// 08/07 Q1008 REUP=
201612101050 METAR ESMX 101050Z AUTO 30006KT 9999 FEW008/// SCT012/// BKN016/// 08/07 Q1008=
201612101020 METAR ESMX 101020Z AUTO 30009KT 260V330 9999 FEW007/// SCT012/// BKN018/// 08/07 Q1008 REUP=
201612100950 METAR ESMX 100950Z AUTO 29009KT 6000 BR FEW007/// SCT008/// BKN010/// 08/07 Q1008 REDZ=
201612100920 METAR ESMX 100920Z AUTO 29008KT 9999 BR FEW009/// OVC012/// 08/07 Q1007=
201612100850 METAR ESMX 100850Z AUTO 30008KT 280V340 8000 -DZ FEW006/// BKN007/// OVC012/// 08/07 Q1007=
201612100820 METAR ESMX 100820Z AUTO 30007KT 4600 +DZ BKN006/// OVC009/// 08/08 Q1007=
201612100750 METAR ESMX 100750Z AUTO 28009KT 2700 -DZ FEW003/// BKN005/// OVC008/// 09/08 Q1006 REDZ=
201612100720 METAR ESMX 100720Z AUTO 28009KT 2600 DZ FEW004/// BKN005/// OVC007/// 09/08 Q1006 REDZ=
201612100650 METAR ESMX 100650Z AUTO 28009KT 3000 BR OVC003/// 09/08 Q1006=
201612100620 METAR ESMX 100620Z AUTO 28011KT 3500 -DZ FEW003/// BKN005/// OVC006/// 09/08 Q1006 REUP REDZ=
201612100550 METAR ESMX 100550Z AUTO 26010KT 2700 BR FEW002/// OVC004/// 09/08 Q1006=
201612100520 METAR ESMX 100520Z AUTO 26009KT 240V300 2400 BR OVC001/// 08/08 Q1006=
201612100450 METAR ESMX 100450Z AUTO 26008KT 240V300 1700 -DZ VV002 08/08 Q1006 REUP REDZ=
201612100420 METAR ESMX 100420Z AUTO 24008KT 1800 BR OVC001/// 07/07 Q1006 REDZ=
201612100350 METAR ESMX 100350Z AUTO 22010KT 9999 OVC001/// 07/07 Q1006 REDZ=
201612100320 METAR ESMX 100320Z AUTO 19009KT 9999 OVC001/// 07/06 Q1007=
201612100250 METAR ESMX 100250Z AUTO 18007KT 9999 -RA OVC001/// 06/06 Q1007 REDZ=
201612100220 METAR ESMX 100220Z AUTO 18006KT 5000 DZ OVC001/// 06/06 Q1009=
201612100150 METAR ESMX 100150Z AUTO 19004KT 7000 DZ OVC001/// 06/06 Q1009=
201612100120 METAR ESMX 100120Z AUTO 22005KT 5000 -RA BKN001/// OVC003/// 06/06 Q1010=
201612100050 METAR ESMX 100050Z AUTO 22006KT 1300 R01/P2000N R19/P2000N -RA VV002 06/06 Q1010 REDZ=
201612100020 METAR ESMX 100020Z AUTO 21003KT 1900 -DZ BKN001/// OVC004/// 06/06 Q1010=
201612092350 METAR ESMX 092350Z AUTO 25003KT 4300 -RA OVC003/// 07/06 Q1011 REDZ=
201612092320 METAR ESMX 092320Z AUTO 26005KT 6000 DZ OVC004/// 07/06 Q1012 REUP=
201612092250 METAR ESMX 092250Z AUTO 25006KT 9000 BR OVC005/// 07/06 Q1012=
201612092220 METAR ESMX 092220Z AUTO 24007KT 9999 OVC007/// 07/05 Q1012=
201612092150 METAR ESMX 092150Z AUTO 25006KT 9999 BKN008/// OVC010/// 07/05 Q1012=
201612092120 METAR ESMX 092120Z AUTO 25008KT 9999 FEW009/// OVC011/// 07/05 Q1013=
201612092050 METAR ESMX 092050Z 26009KT 9999 OVC010 07/05 Q1013=
201612092020 METAR ESMX 092020Z 26007KT 9999 OVC009 07/06 Q1013=
201612091950 METAR ESMX 091950Z 25006KT 230V290 9999 OVC011 07/06 Q1013=
201612091920 METAR ESMX 091920Z 26008KT 9999 OVC011 08/06 Q1013=
201612091850 METAR ESMX 091850Z 24007KT 9999 BKN011 07/06 Q1013=
201612091820 METAR COR ESMX 091820Z 25006KT 9999 SCT010 07/05 Q1013=
201612091750 METAR ESMX 091750Z 27006KT CAVOK 07/05 Q1013=
201612091720 METAR ESMX 091720Z 27006KT CAVOK 07/05 Q1013=
201612091650 METAR ESMX 091650Z 27008KT 240V310 9999 FEW014 07/05 Q1013=
201612091620 METAR ESMX 091620Z 27008KT 9999 FEW013 07/05 Q1013=
201612091550 METAR ESMX 091550Z 27008KT 230V300 9999 FEW015 07/05 Q1013=
201612091520 METAR ESMX 091520Z 27007KT CAVOK 07/05 Q1013=
201612091450 METAR ESMX 091450Z 27009KT CAVOK 07/05 Q1012=
201612091420 METAR ESMX 091420Z 28008KT CAVOK 07/04 Q1012=
201612091350 METAR ESMX 091350Z 28012KT 9999 FEW019 08/04 Q1012=
201612091320 METAR ESMX 091320Z 29013G24KT 9999 SCT019 08/05 Q1012=
201612091250 METAR ESMX 091250Z 28014KT 240V310 9999 BKN017 08/05 Q1012=
201612091220 METAR ESMX 091220Z 29016KT 9999 BKN017 09/05 Q1011=
201612091150 METAR ESMX 091150Z 28016KT 9999 BKN016 08/05 Q1011=
201612091120 METAR ESMX 091120Z 28015KT 9999 BKN016 08/05 Q1011=
201612091050 METAR ESMX 091050Z 28017KT 9999 BKN016 08/05 Q1010=
201612091020 METAR ESMX 091020Z 27014KT 9999 BKN015 08/05 Q1010=
201612090950 METAR ESMX 090950Z 27013KT 240V310 9999 BKN015 08/05 Q1010=
201612090920 METAR ESMX 090920Z 28014KT 250V310 9999 BKN015 08/05 Q1010=
201612090850 METAR ESMX 090850Z 28013G23KT 230V310 9999 BKN015 08/05 Q1010=
201612090820 METAR ESMX 090820Z 27014KT 9999 BKN014 08/05 Q1010=
201612090750 METAR ESMX 090750Z 27015G25KT 9999 OVC014 08/05 Q1010=
201612090720 METAR ESMX 090720Z 26014KT 240V300 9999 OVC013 08/05 Q1010=
201612090650 METAR ESMX 090650Z 26014KT 230V320 9999 OVC012 08/05 Q1009=
201612090620 METAR ESMX 090620Z 26014KT 220V280 9999 OVC011 07/05 Q1009=
201612090550 METAR ESMX 090550Z 26013G23KT 9999 OVC010 07/05 Q1009=
201612090520 METAR ESMX 090520Z 25011KT 9999 OVC010 07/05 Q1009=
201612090450 METAR ESMX 090450Z 24011KT 9999 OVC012 07/05 Q1010=
201612090420 METAR ESMX 090420Z AUTO 25010KT 220V280 9999 OVC011/// 07/05 Q1010=
201612090350 METAR ESMX 090350Z AUTO 25011KT 230V290 9999 OVC011/// 07/05 Q1010=
201612090320 METAR ESMX 090320Z AUTO 26009KT 9999 OVC011/// 08/05 Q1011=
201612090250 METAR ESMX 090250Z AUTO 26010KT 9999 FEW009/// OVC010/// 08/06 Q1011=
201612090220 METAR ESMX 090220Z AUTO 26009KT 9999 OVC009/// 08/06 Q1011=
201612090150 METAR ESMX 090150Z AUTO 27009KT 240V310 9999 OVC009/// 08/06 Q1012=
201612090120 METAR ESMX 090120Z AUTO 26009KT 9999 OVC008/// 07/06 Q1012=
201612090050 METAR ESMX 090050Z 26009KT 220V290 9999 OVC009 08/06 Q1012=
201612090020 METAR ESMX 090020Z 26009KT 9999 OVC010 08/06 Q1012=
201612082350 METAR ESMX 082350Z 26009KT 9999 OVC009 08/06 Q1012=
201612082320 METAR ESMX 082320Z 26008KT 210V280 9999 OVC009 08/06 Q1013=
201612082250 METAR ESMX 082250Z 25008KT 9999 OVC010 07/06 Q1013=
201612082220 METAR ESMX 082220Z 27009KT 9999 OVC009 08/06 Q1013=
201612082150 METAR ESMX 082150Z 26008KT 230V290 9999 OVC009 07/06 Q1012=
201612082120 METAR ESMX 082120Z 26008KT 9999 BKN010 07/06 Q1012=
201612082050 METAR ESMX 082050Z 26008KT 240V300 9999 BKN010 BKN014 07/05 Q1011=
201612082020 METAR ESMX 082020Z 27007KT 9999 FEW013 06/05 Q1011=
201612081950 METAR ESMX 081950Z 27007KT 240V300 CAVOK 07/05 Q1011=
201612081920 METAR ESMX 081920Z 27011KT CAVOK 07/05 Q1010=
201612081850 METAR ESMX 081850Z 27009KT CAVOK 07/05 Q1010=
201612081820 METAR ESMX 081820Z 26012KT CAVOK 08/05 Q1010=
201612081750 METAR ESMX 081750Z 27013KT CAVOK 08/05 Q1010=
201612081720 METAR ESMX 081720Z 27014KT 9999 FEW017 08/05 Q1009=
201612081650 METAR ESMX 081650Z 28014KT 9999 FEW017 08/06 Q1009=
201612081620 METAR ESMX 081620Z 26015KT 9999 SCT016 08/06 Q1009=
201612081550 METAR ESMX 081550Z 28016KT 9999 BKN015 09/06 Q1009=
201612081520 METAR ESMX 081520Z 28015KT 250V310 9999 BKN015 09/06 Q1009=
201612081450 METAR ESMX 081450Z 27017KT 9999 SCT017 09/06 Q1008=
201612081420 METAR ESMX 081420Z 26020G35KT 9999 SCT015 09/06 Q1008=
201612081350 METAR ESMX 081350Z 27019G30KT 9999 BKN015 10/07 Q1008=
201612081320 METAR ESMX 081320Z 27018G29KT 9999 BKN015 10/07 Q1008=
201612081250 METAR ESMX 081250Z 26017G32KT 240V300 9999 BKN015 10/07 Q1008=
201612081220 METAR ESMX 081220Z 26017G31KT 240V300 9999 BKN015 10/07 Q1008=
201612081150 METAR ESMX 081150Z 27019G31KT 9999 SCT015 BKN017 10/07 Q1008=
201612081120 METAR ESMX 081120Z 26019G31KT 9999 FEW012 BKN015 10/08 Q1008=
201612081050 METAR ESMX 081050Z 26018KT 230V290 9999 FEW011 BKN014 10/08 Q1008=
201612081020 METAR ESMX 081020Z 25018G31KT 9999 SCT012 BKN020 10/08 Q1008=
201612080950 METAR ESMX 080950Z 27014G24KT 9999 FEW009 BKN011 10/08 Q1009=
201612080920 METAR ESMX 080920Z 26014G24KT 9999 BKN008 BKN015 10/09 Q1009=
201612080850 METAR ESMX 080850Z 27016KT 240V300 5000 BR OVC006 10/09 Q1009=
201612080820 METAR ESMX 080820Z 25015G27KT 220V280 9000 BR OVC006 10/09 Q1008=
201612080750 METAR ESMX 080750Z 26016KT 9999 OVC006 10/09 Q1008=
201612080720 METAR ESMX 080720Z 26018G31KT 9999 OVC005 10/09 Q1008=
201612080650 METAR ESMX 080650Z 25017KT 5000 RADZ OVC004 10/09 Q1008=
201612080620 METAR ESMX 080620Z 26014KT 220V290 9999 OVC004 10/09 Q1008=
201612080550 METAR ESMX 080550Z 26014G25KT 6000 BR OVC003 10/10 Q1008=
201612080520 METAR ESMX 080520Z 26014KT 240V300 9999 OVC003 10/09 Q1008=
201612080450 METAR ESMX 080450Z 25013KT 9000 BR OVC002 10/09 Q1008=
201612080420 METAR ESMX 080420Z AUTO 25013KT 4100 BR OVC002/// 09/09 Q1008=
201612080350 METAR ESMX 080350Z AUTO 25014KT 3200 BR OVC003/// 09/08 Q1009=
201612080320 METAR ESMX 080320Z AUTO 24012KT 200V260 5000 BR FEW001/// OVC003/// 09/08 Q1009=
201612080250 METAR ESMX 080250Z AUTO 24014KT 1900 BR OVC001/// 09/09 Q1009=
201612080220 METAR ESMX 080220Z AUTO 24013KT 1500 BR OVC001/// 09/08 Q1009=
201612080150 METAR ESMX 080150Z 24013KT 1600 BR OVC002 09/08 Q1010=
201612080120 METAR ESMX 080120Z 25012KT 1600 BR OVC002 08/08 Q1010=
201612080050 METAR ESMX 080050Z 23012KT 2700 BR OVC002 08/08 Q1011=
201612080020 METAR ESMX 080020Z 24011KT 210V280 2500 BR OVC002 08/08 Q1011=
201612072350 METAR ESMX 072350Z 24012KT 6000 BR FEW002 OVC003 08/07 Q1011=
201612072320 METAR ESMX 072320Z 24011KT 9999 OVC003 07/07 Q1011=
201612072250 METAR ESMX 072250Z 24011KT 4600 BR OVC003 07/06 Q1012=
201612072220 METAR ESMX 072220Z 24010KT 2600 -DZ OVC002 06/06 Q1012=
201612072150 METAR ESMX 072150Z 23010KT 3600 BR OVC002 06/06 Q1012=
201612072120 METAR ESMX 072120Z 23011KT 2100 BR OVC002 06/05 Q1012=
201612072050 METAR ESMX 072050Z 22011KT 2400 BR OVC002 05/05 Q1013=
201612072020 METAR ESMX 072020Z 23011KT 2200 DZ OVC002 05/04 Q1013=
201612071950 METAR ESMX 071950Z 21011KT 5000 BR OVC002 04/04 Q1013=
201612071920 METAR ESMX 071920Z 23010KT 2000 DZ OVC002 04/04 Q1014=
201612071850 METAR ESMX 071850Z 21011KT 8000 BR OVC002 04/03 Q1014=
201612071820 METAR ESMX 071820Z 20012KT 3500 -DZ OVC002 04/03 Q1014=
201612071750 METAR ESMX 071750Z 20011KT 3800 BR OVC002 03/03 Q1015=
201612071720 METAR COR ESMX 071720Z 21010KT 9000 DZ OVC002 03/02 Q1015=
201612071650 METAR ESMX 071650Z 19014KT 5000 RA OVC003 03/02 Q1016=
201612071620 METAR ESMX 071620Z 18014KT 4400 -RA OVC003 03/02 Q1016=
201612071550 METAR ESMX 071550Z 19013KT 5000 -RA OVC003 02/02 Q1017=
201612071520 METAR ESMX 071520Z 18011KT 6000 -RADZ OVC004 02/02 Q1018=
201612071450 METAR ESMX 071450Z 18011KT 7000 -DZ OVC005 02/01 Q1019=
201612071420 METAR ESMX 071420Z 18010KT 8000 -DZ BKN006 OVC009 02/01 Q1019=
201612071350 METAR ESMX 071350Z 18010KT 9999 -DZ FEW006 SCT007 BKN009 02/01 Q1020=
201612071320 METAR ESMX 071320Z 19011KT 9999 -DZ FEW007 BKN008 OVC027 02/01 Q1021=
201612071250 METAR ESMX 071250Z 19012KT 9999 FEW006 OVC007 02/01 Q1021=
201612071220 METAR ESMX 071220Z 20011KT 9999 FEW005 BKN006 OVC009 02/02 Q1022=
201612071150 METAR ESMX 071150Z 21013KT 9000 BR SCT002 OVC004 02/02 Q1022=
201612071120 METAR ESMX 071120Z 20013KT 2200 BR OVC002 02/02 Q1023=
201612071050 METAR ESMX 071050Z 21011KT 6000 BR OVC002 02/02 Q1024=
201612071020 METAR COR ESMX 071020Z 19010KT 4000 BR OVC002 02/01 Q1024=
201612070950 METAR ESMX 070950Z 20010KT 0400 R01/0700N R19/0750N FG VV002 01/01 Q1025=
201612070920 METAR ESMX 070920Z 19009KT 0500 R01/0900N R19/1000N FG VV002 01/01 Q1025=
201612070850 METAR ESMX 070850Z 19008KT 0800 R01/1200N R19/1300N FG VV003 01/00 Q1026=
201612070820 METAR ESMX 070820Z 19007KT 0650 R01/1100N R19/1100N FG VV003 00/00 Q1026=
201612070750 METAR ESMX 070750Z 20006KT 0300 R01/0800N R19/0750N FG VV002 00/M00 Q1026=
201612070720 METAR ESMX 070720Z 19005KT 0300 R01/0900N R19/0800N FZFG VV002 M01/M01 Q1027=
201612070650 METAR ESMX 070650Z 21006KT 0300 R01/0900N R19/0900N FZFG VV002 M01/M02 Q1027=
201612070620 METAR ESMX 070620Z 20007KT 0550 R01/1500D R19/1700D FZFG VV002 M02/M02 Q1027=
201612070550 METAR ESMX 070550Z 21007KT 9999 FEW002 BKN003 OVC005 M02/M03 Q1028=
201612070520 METAR ESMX 070520Z 20006KT 9999 FEW006 SCT008 M02/M03 Q1028=
201612070450 METAR ESMX 070450Z 18003KT CAVOK M04/M04 Q1028=
201612070420 METAR ESMX 070420Z AUTO 19005KT 9999 NCD M03/M04 Q1029=
201612070350 METAR ESMX 070350Z AUTO 19004KT 9999 NCD M05/M06 Q1029=
201612070320 METAR ESMX 070320Z AUTO 19004KT 9999 NCD M04/M05 Q1030=
201612070250 METAR ESMX 070250Z AUTO 19004KT 9999 NCD M05/M06 Q1030=
201612070220 METAR ESMX 070220Z AUTO 19004KT 9999 NCD M06/M07 Q1030=
201612070150 METAR ESMX 070150Z AUTO 19003KT 9999 NCD M06/M07 Q1031=
201612070120 METAR ESMX 070120Z AUTO 19004KT 9999 NCD M06/M07 Q1031=
201612070050 METAR ESMX 070050Z 18003KT CAVOK M08/M09 Q1031=
201612070020 METAR ESMX 070020Z 00000KT CAVOK M08/M10 Q1031=
201612062350 METAR ESMX 062350Z 18002KT CAVOK M08/M09 Q1031=
201612062320 METAR ESMX 062320Z 00000KT CAVOK M07/M08 Q1031=
201612062250 METAR ESMX 062250Z 00000KT CAVOK M08/M09 Q1031=
201612062220 METAR ESMX 062220Z 00000KT CAVOK M09/M10 Q1031=
201612062150 METAR ESMX 062150Z 17002KT CAVOK M08/M09 Q1031=
201612062120 METAR ESMX 062120Z 19002KT CAVOK M08/M09 Q1031=
201612062050 METAR ESMX 062050Z 00000KT CAVOK M07/M08 Q1032=
201612062020 METAR ESMX 062020Z 18002KT CAVOK M08/M09 Q1032=
201612061950 METAR ESMX 061950Z 20003KT CAVOK M07/M08 Q1032=
201612061920 METAR ESMX 061920Z 22003KT CAVOK M08/M10 Q1032=
201612061850 METAR ESMX 061850Z 19003KT CAVOK M07/M08 Q1031=
201612061820 METAR ESMX 061820Z 00000KT CAVOK M06/M07 Q1031=
201612061750 METAR ESMX 061750Z 00000KT CAVOK M06/M06 Q1031=
201612061720 METAR ESMX 061720Z 17002KT CAVOK M05/M06 Q1031=
201612061650 METAR ESMX 061650Z 00000KT CAVOK M06/M06 Q1031=
201612061620 METAR ESMX 061620Z 00000KT 9000 BR NSC M05/M05 Q1031=
201612061550 METAR ESMX 061550Z 00000KT CAVOK M05/M05 Q1030=
201612061520 METAR ESMX 061520Z 00000KT CAVOK M04/M05 Q1030=
201612061450 METAR ESMX 061450Z 00000KT CAVOK M03/M03 Q1030=
201612061420 METAR ESMX 061420Z 00000KT CAVOK M02/M03 Q1030=
201612061350 METAR ESMX 061350Z 26003KT CAVOK M02/M03 Q1029=
201612061320 METAR ESMX 061320Z 01002KT CAVOK M01/M03 Q1029=
201612061250 METAR ESMX 061250Z 33004KT CAVOK M00/M03 Q1029=
201612061220 METAR ESMX 061220Z 36005KT CAVOK 00/M03 Q1029=
201612061150 METAR ESMX 061150Z 34006KT CAVOK 01/M03 Q1028=
201612061120 METAR ESMX 061120Z 33006KT CAVOK 00/M03 Q1028=
201612061050 METAR ESMX 061050Z 33006KT CAVOK M00/M03 Q1028=
201612061020 METAR ESMX 061020Z 32005KT CAVOK M00/M03 Q1028=
201612060950 METAR ESMX 060950Z 34006KT CAVOK M00/M03 Q1027=
201612060920 METAR ESMX 060920Z 33006KT CAVOK M01/M03 Q1027=
201612060850 METAR ESMX 060850Z 33005KT CAVOK M02/M04 Q1027=
201612060820 METAR ESMX 060820Z 34004KT 300V010 CAVOK M02/M04 Q1027=
201612060750 METAR ESMX 060750Z VRB03KT CAVOK M03/M04 Q1026=
201612060720 METAR ESMX 060720Z 31004KT CAVOK M03/M04 Q1026=
201612060650 METAR ESMX 060650Z 32007KT CAVOK M02/M04 Q1025=
201612060620 METAR ESMX 060620Z VRB02KT CAVOK M03/M04 Q1025=
201612060550 METAR ESMX 060550Z 33004KT CAVOK M05/M06 Q1024=
201612060520 METAR ESMX 060520Z VRB01KT CAVOK M03/M04 Q1024=
201612060450 METAR ESMX 060450Z 31005KT CAVOK M03/M04 Q1023=
201612060420 METAR ESMX 060420Z AUTO 32004KT 9999 NCD M02/M04 Q1023=
201612060350 METAR ESMX 060350Z AUTO 32005KT 9999 NCD M03/M05 Q1023=
201612060320 METAR ESMX 060320Z AUTO 31004KT 9999 NCD M02/M04 Q1023=
201612060250 METAR ESMX 060250Z AUTO 33004KT 9999 NCD M02/M04 Q1022=
201612060220 METAR ESMX 060220Z AUTO 32005KT 9999 NCD M02/M04 Q1022=
201612060150 METAR ESMX 060150Z AUTO VRB01KT 9999 NCD M02/M04 Q1022=
201612060120 METAR ESMX 060120Z AUTO 33004KT 9999 NCD M00/M04 Q1021=
201612060050 METAR ESMX 060050Z 30004KT CAVOK M01/M04 Q1021=
201612060020 METAR ESMX 060020Z 32005KT CAVOK 00/M03 Q1020=
201612052350 METAR ESMX 052350Z 33006KT CAVOK 01/M02 Q1020=
201612052320 METAR ESMX 052320Z 36007KT CAVOK 02/M02 Q1020=
201612052250 METAR ESMX 052250Z 33007KT CAVOK 03/M01 Q1020=
201612052220 METAR ESMX 052220Z 32003KT 300V010 CAVOK 03/M00 Q1019=
201612052150 METAR ESMX 052150Z 31003KT 9999 FEW039 SCT062 03/M00 Q1019=
201612052120 METAR ESMX 052120Z 34008KT 9999 FEW017 BKN039 04/M00 Q1018=
201612052050 METAR ESMX 052050Z 34008KT 9999 OVC049 04/02 Q1018=
201612052020 METAR ESMX 052020Z 33005KT CAVOK 04/02 Q1018=
201612051950 METAR ESMX 051950Z 31004KT CAVOK 04/03 Q1017=
201612051920 METAR ESMX 051920Z 30006KT CAVOK 04/03 Q1017=
201612051850 METAR ESMX 051850Z 29005KT 260V330 9999 FEW004 OVC072 04/03 Q1017=
201612051820 METAR ESMX 051820Z 27005KT 9999 FEW005 BKN075 04/03 Q1017=
201612051750 METAR ESMX 051750Z 27005KT 9999 FEW006 04/03 Q1016=
201612051720 METAR ESMX 051720Z 27005KT 240V320 9999 FEW006 04/03 Q1016=
201612051650 METAR ESMX 051650Z 27007KT 230V310 9999 FEW007 04/03 Q1016=
201612051620 METAR ESMX 051620Z 26005KT 230V300 9999 FEW008 04/03 Q1016=
201612051550 METAR ESMX 051550Z 28005KT 250V320 CAVOK 04/03 Q1016=
201612051520 METAR ESMX 051520Z 27008KT 9999 FEW020 04/03 Q1016=
201612051450 METAR ESMX 051450Z 26008KT 9999 FEW020 04/03 Q1016=
201612051420 METAR ESMX 051420Z 27008KT 9999 FEW012 05/03 Q1016=
201612051350 METAR ESMX 051350Z 27010KT 9999 BKN012 05/03 Q1016=
201612051320 METAR ESMX 051320Z 27010KT 9999 BKN012 05/03 Q1016=
201612051250 METAR ESMX 051250Z 27011KT 9999 BKN012 05/03 Q1016=
201612051220 METAR ESMX 051220Z 27012KT 9999 BKN013 05/03 Q1015=
201612051150 METAR ESMX 051150Z 26012KT 9999 OVC013 05/03 Q1016=
201612051120 METAR ESMX 051120Z 27012KT 9999 OVC013 06/03 Q1016=
201612051050 METAR ESMX 051050Z 27011KT 230V290 9999 OVC010 05/03 Q1016=
201612051020 METAR ESMX 051020Z 26011KT 9999 FEW008 BKN010 05/03 Q1016=
201612050950 METAR ESMX 050950Z 26012KT 230V290 9999 OVC008 05/03 Q1017=
201612050920 METAR ESMX 050920Z 27013KT 9999 OVC007 05/03 Q1017=
201612050850 METAR ESMX 050850Z 26012KT 220V300 9999 BKN007 OVC009 05/03 Q1017=
201612050820 METAR ESMX 050820Z 27010KT 9999 OVC007 05/03 Q1017=
201612050750 METAR ESMX 050750Z 27013KT 9999 OVC007 05/03 Q1016=
201612050720 METAR ESMX 050720Z 27013KT 9999 OVC007 05/03 Q1017=
201612050650 METAR ESMX 050650Z 26012KT 230V290 9999 OVC008 05/03 Q1016=
201612050620 METAR ESMX 050620Z 25011KT 220V290 9999 OVC008 05/03 Q1016=
201612050550 METAR ESMX 050550Z 25011KT 9999 OVC008 05/03 Q1017=
201612050520 METAR ESMX 050520Z 25012KT 210V280 9999 OVC008 05/03 Q1017=
201612050450 METAR ESMX 050450Z 26011KT 9999 OVC008 05/03 Q1017=
201612050420 METAR ESMX 050420Z AUTO 26012KT 220V290 9999 BKN008/// OVC010/// 05/03 Q1017=
201612050350 METAR ESMX 050350Z AUTO 26013KT 9999 OVC007/// 05/03 Q1018=
201612050320 METAR ESMX 050320Z AUTO 25013KT 9999 OVC007/// 05/03 Q1018=
201612050250 METAR ESMX 050250Z AUTO 26012KT 9999 OVC007/// 05/03 Q1018=
201612050220 METAR ESMX 050220Z AUTO 26014KT 9999 OVC007/// 04/03 Q1019=
201612050150 METAR ESMX 050150Z AUTO 26011KT 9999 OVC007/// 05/03 Q1019=
201612050120 METAR ESMX 050120Z AUTO 25009KT 9999 OVC006/// 05/03 Q1019=
201612050050 METAR ESMX 050050Z 26011KT 9999 OVC007 04/03 Q1019=
201612050020 METAR ESMX 050020Z 26010KT 9999 OVC007 05/03 Q1020=
201612042350 METAR COR ESMX 042350Z 26011KT 9999 OVC007 05/03 Q1020=
201612042320 METAR ESMX 042320Z 26010KT 9999 OVC008 05/03 Q1020=
201612042250 METAR ESMX 042250Z 26011KT 9999 OVC008 05/03 Q1020=
201612042220 METAR ESMX 042220Z 26010KT 9999 FEW008 BKN010 05/03 Q1020=
201612042150 METAR ESMX 042150Z 25011KT 9999 OVC008 05/03 Q1021=
201612042120 METAR ESMX 042120Z 25011KT 9999 FEW008 OVC009 05/03 Q1021=
201612042050 METAR ESMX 042050Z 25010KT 9999 OVC008 05/03 Q1021=
201612042020 METAR ESMX 042020Z 25010KT 9999 FEW007 BKN008 OVC010 05/03 Q1021=
201612041950 METAR ESMX 041950Z 26009KT 9999 FEW006 OVC008 04/03 Q1021=
201612041920 METAR ESMX 041920Z 26009KT 210V290 9999 BKN006 OVC009 04/03 Q1021=
201612041850 METAR ESMX 041850Z 25008KT 9999 BKN006 OVC008 04/03 Q1021=
201612041820 METAR ESMX 041820Z 26009KT 9999 OVC005 04/03 Q1022=
201612041750 METAR ESMX 041750Z AUTO 25008KT 9999 OVC005/// 04/03 Q1021=
201612041720 METAR ESMX 041720Z 25008KT 9999 OVC005 04/03 Q1022=
201612041650 METAR ESMX 041650Z 26007KT 210V300 9999 OVC005 04/03 Q1022=
201612041620 METAR ESMX 041620Z 25006KT 9999 FEW006 BKN008 04/03 Q1021=
201612041550 METAR ESMX 041550Z 25006KT 9999 FEW006 SCT008 BKN010 03/03 Q1022=
201612041520 METAR ESMX 041520Z 25006KT 9999 FEW008 OVC009 03/03 Q1022=
201612041450 METAR ESMX 041450Z 25006KT 9999 FEW004 SCT008 OVC009 03/03 Q1022=
201612041420 METAR ESMX 041420Z 25006KT 9000 BR FEW003 SCT005 OVC006 03/03 Q1022=
201612041350 METAR ESMX 041350Z 24004KT 6000 BR BKN002 OVC006 03/02 Q1022=
201612041320 METAR ESMX 041320Z 23003KT 1200 R01/1500U R19/1900N BR VV002 02/02 Q1022=
201612041250 METAR ESMX 041250Z 22005KT 0400 R01/0700U R19/0900U FG VV002 02/02 Q1022=
201612041220 METAR ESMX 041220Z 22005KT 0300 R01/0550N R19/0600N FG VV002 02/01 Q1022=
201612041150 METAR ESMX 041150Z 20005KT 0400 R01/0700N R19/0700N FG VV002 02/01 Q1022=
201612041120 METAR ESMX 041120Z AUTO 20005KT 0400 R01/0700N R19/0700N FG VV001 01/01 Q1022=
201612041050 METAR ESMX 041050Z AUTO 18005KT 0350 R01/0650N R19/0650N FG VV001 01/01 Q1023=
201612041020 METAR ESMX 041020Z AUTO 18004KT 0300 R01/0550N R19/0550N FG VV001 01/01 Q1023=
201612040950 METAR ESMX 040950Z AUTO 17004KT 0350 R01/0600N R19/0600N FG VV001 01/01 Q1023=
201612040920 METAR ESMX 040920Z AUTO 19004KT 0650 R01/1000D R19/1100D FG VV002 01/00 Q1023=
201612040850 METAR ESMX 040850Z AUTO 17003KT 1300 R01/1700N R19/P2000D BR VV002 00/00 Q1023=
201612040820 METAR ESMX 040820Z AUTO 18004KT 2100 BR VV002 00/M00 Q1023=
201612040750 METAR ESMX 040750Z AUTO 17004KT 1800 BR OVC001/// 00/M00 Q1023=
201612040720 METAR ESMX 040720Z AUTO 18003KT 7000 BR OVC001/// 00/M00 Q1023=
201612040650 METAR ESMX 040650Z AUTO 19003KT 5000 BR OVC001/// M00/M01 Q1023=
201612040620 METAR ESMX 040620Z AUTO 21004KT 5000 BR BKN002/// OVC004/// M00/M01 Q1022=
201612040550 METAR ESMX 040550Z AUTO 21004KT 8000 BR FEW003/// SCT004/// OVC006/// M01/M01 Q1023=
201612040520 METAR ESMX 040520Z AUTO 21004KT 9999 OVC007/// M00/M01 Q1023=
201612040450 METAR ESMX 040450Z AUTO 20006KT 9999 OVC006/// M01/M01 Q1023=
201612040420 METAR ESMX 040420Z AUTO 20005KT 0350 R01/1000U R19/1100N FZFG VV001 M01/M02 Q1023=
201612040350 METAR ESMX 040350Z AUTO 19006KT 0800 R01/P2000D R19/P2000N FZFG OVC001/// M01/M02 Q1023=
201612040320 METAR ESMX 040320Z AUTO 15003KT 9999 OVC004/// M02/M03 Q1023=
201612040250 METAR ESMX 040250Z AUTO 19004KT 8000 SCT000/// OVC004/// M03/M04 Q1023=
201612040220 METAR ESMX 040220Z AUTO 20004KT 0300 R01/1500U R19/1400D FZFG VV000 M04/M05 Q1023=
201612040150 METAR ESMX 040150Z AUTO 16003KT 0200 R01/1600D R19/0700N FZFG VV001 M04/M04 Q1023=
201612040120 METAR ESMX 040120Z AUTO 17003KT 0350 R01/P2000D R19/P2000N FZFG VV001 M04/M05 Q1023=
201612040050 METAR ESMX 040050Z AUTO 14002KT 9999 NCD M04/M05 Q1023=
201612040020 METAR ESMX 040020Z AUTO 00000KT 9999 NCD M05/M05 Q1023=
201612032350 METAR ESMX 032350Z AUTO VRB02KT 9999 NCD M05/M06 Q1023=
201612032320 METAR ESMX 032320Z AUTO 17003KT 9999 NCD M04/M05 Q1023=
201612032250 METAR ESMX 032250Z AUTO 22003KT 9999 FEW062/// M04/M05 Q1023=
201612032220 METAR ESMX 032220Z AUTO 00000KT 9999 FEW063/// M04/M05 Q1023=
201612032150 METAR ESMX 032150Z VRB02KT CAVOK M03/M04 Q1022=
201612032120 METAR ESMX 032120Z 25003KT CAVOK M03/M03 Q1022=
201612032050 METAR ESMX 032050Z VRB03KT 9999 BKN045 M03/M03 Q1022=
201612032020 METAR ESMX 032020Z 00000KT 9999 OVC046 M02/M03 Q1022=
201612031950 METAR ESMX 031950Z 00000KT 9999 BKN045 M02/M03 Q1022=
201612031920 METAR ESMX 031920Z AUTO 00000KT 9999 OVC047/// M02/M03 Q1022=
201612031850 METAR ESMX 031850Z AUTO 00000KT 9999 OVC046/// M01/M02 Q1022=
201612031820 METAR ESMX 031820Z AUTO 00000KT 9999 OVC046/// M01/M02 Q1022=
201612031750 METAR ESMX 031750Z AUTO 30002KT 9999 OVC052/// M00/M03 Q1021=
201612031720 METAR ESMX 031720Z AUTO 31002KT 9999 BKN060/// M00/M02 Q1021=
201612031650 METAR ESMX 031650Z AUTO 28004KT 9999 BKN062/// M00/M02 Q1021=
201612031620 METAR ESMX 031620Z AUTO 26006KT 9999 BKN064/// M00/M02 Q1021=
201612031550 METAR ESMX 031550Z AUTO 27003KT 9999 SCT066/// BKN096/// M00/M03 Q1021=
201612031520 METAR ESMX 031520Z AUTO 27004KT 230V300 9999 FEW076/// M00/M03 Q1021=
201612031450 METAR ESMX 031450Z AUTO VRB01KT 9999 SCT085/// M01/M03 Q1020=
201612031420 METAR ESMX 031420Z AUTO 00000KT 9999 BKN091/// M01/M03 Q1020=
201612031350 METAR ESMX 031350Z AUTO 28003KT 9999 NCD M00/M03 Q1020=
201612031320 METAR ESMX 031320Z AUTO 28005KT 9999 NCD 00/M03 Q1020=
201612031250 METAR ESMX 031250Z AUTO 28007KT 9999 FEW110/// 00/M03 Q1020=
201612031220 METAR ESMX 031220Z AUTO 28007KT 9999 NCD 00/M03 Q1020=
201612031150 METAR ESMX 031150Z AUTO 29006KT 260V330 9999 NCD M00/M04 Q1020=
201612031120 METAR ESMX 031120Z AUTO 29005KT 260V330 9999 NCD M01/M04 Q1020=
201612031050 METAR ESMX 031050Z AUTO 27005KT 9999 NCD M01/M05 Q1020=
201612031020 METAR ESMX 031020Z VRB03KT CAVOK M02/M05 Q1020=
201612030950 METAR ESMX 030950Z VRB02KT CAVOK M03/M05 Q1020=
201612030920 METAR ESMX 030920Z 24003KT 190V280 CAVOK M03/M06 Q1020=
201612030850 METAR ESMX 030850Z 25004KT 210V280 CAVOK M04/M06 Q1020=
201612030820 METAR ESMX 030820Z AUTO 25005KT 9999 NCD M04/M06 Q1020=
201612030750 METAR ESMX 030750Z AUTO 26005KT 9999 NCD M04/M06 Q1020=
201612030720 METAR ESMX 030720Z AUTO 29005KT 9999 NCD M04/M07 Q1020=
201612030650 METAR ESMX 030650Z AUTO 29007KT 9999 NCD M04/M06 Q1020=
201612030620 METAR ESMX 030620Z AUTO 29008KT 9999 NCD M03/M06 Q1019=
201612030550 METAR ESMX 030550Z AUTO 30006KT 9999 NCD M04/M06 Q1019=
201612030520 METAR ESMX 030520Z AUTO 30006KT 9999 NCD M04/M06 Q1019=
201612030450 METAR ESMX 030450Z AUTO 29004KT 9999 NCD M04/M06 Q1019=
201612030420 METAR ESMX 030420Z AUTO 28005KT 9999 NCD M04/M06 Q1019=
201612030350 METAR ESMX 030350Z AUTO 28007KT 9999 NCD M03/M06 Q1019=
201612030320 METAR ESMX 030320Z AUTO 28006KT 9999 NCD M03/M06 Q1019=
201612030250 METAR ESMX 030250Z AUTO 29006KT 9999 NCD M04/M06 Q1019=
201612030220 METAR ESMX 030220Z AUTO 30005KT 9999 NCD M04/M06 Q1019=
201612030150 METAR ESMX 030150Z AUTO 30004KT 9999 NCD M04/M06 Q1019=
201612030120 METAR ESMX 030120Z AUTO 29007KT 9999 NCD M04/M06 Q1019=
201612030050 METAR ESMX 030050Z AUTO 29005KT 9999 NCD M04/M06 Q1019=
201612030020 METAR ESMX 030020Z AUTO 28006KT 9999 NCD M04/M06 Q1019=
201612022350 METAR ESMX 022350Z AUTO 29007KT 9999 NCD M03/M06 Q1019=
201612022320 METAR ESMX 022320Z AUTO 28006KT 9999 NCD M04/M06 Q1019=
201612022250 METAR ESMX 022250Z AUTO 28005KT 9999 NCD M05/M07 Q1019=
201612022220 METAR ESMX 022220Z AUTO 30005KT 9999 NCD M04/M06 Q1019=
201612022150 METAR ESMX 022150Z AUTO 28003KT 9999 NCD M04/M06 Q1019=
201612022120 METAR ESMX 022120Z AUTO 31004KT 9999 NCD M03/M06 Q1019=
201612022050 METAR ESMX 022050Z 30006KT CAVOK M03/M06 Q1018=
201612022020 METAR ESMX 022020Z 31005KT CAVOK M02/M05 Q1018=
201612021950 METAR ESMX 021950Z 30006KT CAVOK M02/M05 Q1018=
201612021920 METAR ESMX 021920Z 31007KT CAVOK M01/M04 Q1018=
201612021850 METAR ESMX 021850Z 31007KT 9999 SCT045 M00/M04 Q1017=
201612021820 METAR COR ESMX 021820Z 31008KT 9999 BKN044 01/M04 Q1017=
201612021750 METAR ESMX 021750Z 30009KT 9999 BKN044 00/M03 Q1016=
201612021720 METAR ESMX 021720Z 30008KT 9999 OVC047 00/M03 Q1016=
201612021650 METAR ESMX 021650Z 31009KT CAVOK 01/M03 Q1016=
201612021620 METAR ESMX 021620Z 30009KT 270V330 9999 BKN044 01/M03 Q1015=
201612021550 METAR ESMX 021550Z 31009KT 9999 BKN043 01/M03 Q1015=
201612021520 METAR ESMX 021520Z 29008KT 9999 BKN042 01/M03 Q1015=
201612021450 METAR ESMX 021450Z 30008KT 9999 BKN037 01/M03 Q1015=
201612021420 METAR ESMX 021420Z 31009KT 9999 SCT042 01/M03 Q1014=
201612021350 METAR ESMX 021350Z 32009KT 9999 FEW045 02/M02 Q1014=
201612021320 METAR ESMX 021320Z 32010KT CAVOK 02/M02 Q1013=
201612021250 METAR ESMX 021250Z 31011KT CAVOK 02/M02 Q1013=
201612021220 METAR ESMX 021220Z 32010KT 280V350 CAVOK 02/M02 Q1013=
201612021150 METAR ESMX 021150Z 32010KT CAVOK 02/M02 Q1013=
201612021120 METAR ESMX 021120Z 31009KT 9999 FEW035 01/M02 Q1012=
201612021050 METAR ESMX 021050Z 32010KT 9999 SCT033 01/M02 Q1012=
201612021020 METAR ESMX 021020Z 32008KT 9999 SCT033 01/M02 Q1012=
201612020950 METAR ESMX 020950Z 32007KT 9999 BKN032 M00/M03 Q1011=
201612020920 METAR ESMX 020920Z 30007KT 9999 SCT032 M01/M03 Q1011=
201612020850 METAR ESMX 020850Z 30006KT CAVOK M01/M04 Q1011=
201612020820 METAR ESMX 020820Z 32006KT CAVOK M02/M04 Q1010=
201612020750 METAR ESMX 020750Z 31009KT CAVOK M02/M04 Q1010=
201612020720 METAR ESMX 020720Z 31008KT CAVOK M02/M04 Q1009=
201612020650 METAR ESMX 020650Z 31008KT CAVOK M02/M04 Q1009=
201612020620 METAR ESMX 020620Z 32009KT 290V350 CAVOK M02/M04 Q1008=
201612020550 METAR ESMX 020550Z 31011KT CAVOK M01/M04 Q1008=
201612020520 METAR ESMX 020520Z 31010KT CAVOK M01/M03 Q1008=
201612020450 METAR ESMX 020450Z 31009KT CAVOK M02/M03 Q1008=
201612020420 METAR ESMX 020420Z AUTO 31009KT 9999 NCD M01/M03 Q1007=
201612020350 METAR ESMX 020350Z AUTO 31008KT 9999 NCD M01/M03 Q1007=
201612020320 METAR ESMX 020320Z AUTO 31009KT 9999 NCD M01/M03 Q1007=
201612020250 METAR ESMX 020250Z AUTO 30008KT 260V330 9999 FEW018/// M01/M02 Q1006=
201612020220 METAR ESMX 020220Z AUTO 31009KT 9999 FEW017/// M01/M02 Q1006=
201612020150 METAR ESMX 020150Z AUTO 32010KT 9999 FEW010/// SCT015/// M00/M02 Q1005=
201612020120 METAR ESMX 020120Z AUTO 32010KT 9999 FEW011/// SCT015/// M00/M01 Q1005=
201612020050 METAR ESMX 020050Z AUTO 32011KT 9999 FEW009/// SCT014/// 00/M01 Q1004 RESHUP=
201612020020 METAR COR ESMX 020020Z 32008KT 9999 -SN FEW009 BKN015 00/M01 Q1003=
201612012350 METAR ESMX 012350Z 33009KT 9999 FEW037 01/M01 Q1003=
201612012320 METAR ESMX 012320Z 34012KT 9999 -SN FEW006 BKN012 01/M00 Q1003=
201612012250 METAR ESMX 012250Z 33010KT 6000 -SN FEW004 SCT006 BKN009 01/00 Q1002=
201612012220 METAR ESMX 012220Z 33010KT 1800 -SN FEW002 SCT006 BKN011 01/M00 Q1001=
201612012150 METAR ESMX 012150Z 34012KT 7000 -RASN FEW005 SCT007 BKN009 01/00 Q1000=
201612012120 METAR ESMX 012120Z 32013KT 9999 BKN009 OVC013 01/M00 Q1000=
201612012050 METAR ESMX 012050Z 31013KT 9999 SCT011 BKN018 02/00 Q0999=
201612012020 METAR ESMX 012020Z 33014KT 9999 FEW013 BKN020 OVC045 02/M00 Q0998=
201612011950 METAR ESMX 011950Z 32014G25KT 9999 -DZ FEW011 BKN015 BKN022 03/01 Q0998=
201612011920 METAR ESMX 011920Z 32012KT 9999 FEW012 SCT018 BKN020 03/01 Q0997=
201612011850 METAR ESMX 011850Z 32013KT 9999 FEW017 BKN020 04/02 Q0997=
201612011820 METAR ESMX 011820Z 32011KT 9999 SCT015 BKN020 04/02 Q0997=
201612011750 METAR ESMX 011750Z 32014G25KT 9999 FEW011 SCT015 BKN020 05/03 Q0997=
201612011720 METAR ESMX 011720Z 29009KT 270V330 9999 FEW008 SCT011 BKN013 05/04 Q0997=
201612011650 METAR ESMX 011650Z 28007KT 9999 SCT002 BKN012 04/04 Q0997=
201612011620 METAR ESMX 011620Z 25005KT 230V290 3500 -RA BKN002 BKN011 04/03 Q0998=
201612011550 METAR ESMX 011550Z 23005KT 3300 -DZ OVC002 03/03 Q0998=
201612011520 METAR ESMX 011520Z 24005KT 7000 BR BKN002 03/03 Q0999=
201612011450 METAR ESMX 011450Z 24006KT 200V280 5000 BR BKN002 03/03 Q0999=
201612011420 METAR ESMX 011420Z 22004KT 0300 R01/0700N R19/0750N FG VV002 03/02 Q1000=
201612011350 METAR ESMX 011350Z 20004KT 0450 R01/0900N R19/0900D FG VV002 02/02 Q1000=
201612011320 METAR ESMX 011320Z 20006KT 3200 BR OVC002 02/02 Q1000=
201612011250 METAR ESMX 011250Z 20005KT 170V250 2500 -DZ VV002 02/02 Q1001=
201612011220 METAR ESMX 011220Z 20005KT 2500 DZ BR VV003 02/02 Q1002=
