##########################################################
# Query made at 04/19/2024 21:58:11 UTC
# Time interval: from 07/01/2017 12:00  to 07/31/2017 12:59  UTC
##########################################################

##########################################################
# ESMX, Vaxjo (Sweden)
# WMO index: 02641. WIGOS ID: 0-20000-0-02648
# Latitude 56-51N. Longitude 014-50E. Altitude 199 m.
##########################################################

201707311250 METAR ESMX 311250Z 21009KT 9999 FEW039 BKN050 19/12 Q1012=
201707311220 METAR ESMX 311220Z 24008KT 9999 FEW032 BKN048 20/13 Q1012=
201707311150 METAR ESMX 311150Z 23007KT 200V260 9999 FEW033 BKN045 19/13 Q1012=
201707311120 METAR ESMX 311120Z AUTO 24007KT 210V290 9999 FEW029/// SCT034/// BKN055/// 18/12 Q1012=
201707311050 METAR ESMX 311050Z AUTO 25009KT 200V280 9999 FEW028/// SCT031/// BKN038/// 19/12 Q1012=
201707311020 METAR ESMX 311020Z 22011KT 200V260 9999 SCT027 BKN036 19/11 Q1012=
201707310950 METAR ESMX 310950Z 25010KT 9999 FEW025 SCT030 18/11 Q1012=
201707310920 METAR ESMX 310920Z 23011KT 210V270 9999 FEW025 SCT030 18/12 Q1012=
201707310850 METAR ESMX 310850Z 23008KT 9999 SCT026 17/12 Q1012=
201707310820 METAR ESMX 310820Z 23009KT 9999 FEW021 BKN030 17/12 Q1012=
201707310750 METAR ESMX 310750Z 25010KT 210V270 9999 BKN023 17/12 Q1011=
201707310720 METAR ESMX 310720Z 23008KT 9999 FEW014 BKN020 17/13 Q1011=
201707310650 METAR ESMX 310650Z 24007KT 200V270 9999 FEW008 SCT013 16/13 Q1011=
201707310620 METAR ESMX 310620Z 25007KT 9999 SCT008 15/13 Q1011=
201707310550 METAR ESMX 310550Z AUTO 22006KT 9999 NCD 15/13 Q1011=
201707310520 METAR ESMX 310520Z AUTO 22005KT 9999 NCD 14/13 Q1010=
201707310450 METAR ESMX 310450Z AUTO 21004KT 9999 NCD 14/13 Q1010=
201707310420 METAR ESMX 310420Z AUTO 22004KT 9999 FEW014/// 13/13 Q1010=
201707310350 METAR ESMX 310350Z AUTO 20004KT 9999 FEW015/// 13/12 Q1009=
201707310320 METAR ESMX 310320Z AUTO 23004KT 9999 NCD 13/12 Q1009=
201707310250 METAR ESMX 310250Z AUTO 25004KT 9999 NCD 13/12 Q1009=
201707310220 METAR ESMX 310220Z AUTO 25005KT 9999 NCD 14/13 Q1009=
201707310150 METAR ESMX 310150Z AUTO 26006KT 9999 FEW031/// 15/14 Q1009=
201707310120 METAR ESMX 310120Z AUTO 25007KT 190V280 9999 FEW009/// BKN030/// 16/15 Q1009=
201707310050 METAR ESMX 310050Z AUTO 24007KT 9999 FEW008/// SCT010/// BKN030/// 17/16 Q1008=
201707310020 METAR ESMX 310020Z AUTO 24007KT 9999 FEW007/// SCT010/// BKN020/// 17/16 Q1008=
201707302350 METAR ESMX 302350Z AUTO 22008KT 9999 ////// 18/17 Q1008=
201707302320 METAR ESMX 302320Z 19008KT 6000 BR BKN001 OVC005 18/17 Q1008=
201707302250 METAR ESMX 302250Z 20008KT 6000 OVC002 17/17 Q1008=
201707302220 METAR ESMX 302220Z 19007KT 1800 BR VV002 17/17 Q1007=
201707302150 METAR ESMX 302150Z 18008KT 1900 BR VV002 17/17 Q1007=
201707302120 METAR ESMX 302120Z 16006KT 6000 BR VV002 17/17 Q1007=
201707302050 METAR ESMX 302050Z 18006KT 9999 FEW001 BKN004 BKN023 17/16 Q1007=
201707302020 METAR ESMX 302020Z 17007KT 9999 SCT002 BKN027 17/16 Q1007=
201707301950 METAR ESMX 301950Z 15007KT 9999 FEW032 SCT041 17/16 Q1007=
201707301920 METAR ESMX 301920Z 15005KT CAVOK 17/16 Q1006=
201707301850 METAR ESMX 301850Z 16005KT CAVOK 18/16 Q1006=
201707301820 METAR ESMX 301820Z 15005KT 110V190 9999 FEW020 18/16 Q1006=
201707301750 METAR ESMX 301750Z 14007KT 110V170 9999 FEW003 SCT020 18/17 Q1006=
201707301720 METAR ESMX 301720Z 16007KT 9999 FEW002 SCT190 18/17 Q1006=
201707301650 METAR ESMX 301650Z AUTO 14009KT 110V170 9999 SCT002/// BKN004/// 17/16 Q1006=
201707301620 METAR ESMX 301620Z AUTO 14010KT 100V160 9999 -RA BKN001/// 17/16 Q1006=
201707301550 METAR ESMX 301550Z 15006KT 110V170 8000 TSRA BKN010CB 17/16 Q1007=
201707301520 METAR ESMX 301520Z 10005KT 050V140 7000 TSRA SCT004 BKN012CB 17/16 Q1006=
201707301450 METAR ESMX 301450Z VRB02KT 4900 TSRA BKN011CB 17/16 Q1007=
201707301420 METAR ESMX 301420Z 21005KT 170V250 7000 TSRA BKN011CB 17/16 Q1007=
201707301350 METAR ESMX 301350Z 15008KT 9999 TS SHRA BKN013CB 18/15 Q1007=
201707301320 METAR ESMX 301320Z 16011KT 9999 OVC014 19/15 Q1007=
201707301250 METAR ESMX 301250Z 15009KT 120V180 9999 OVC014 19/15 Q1007=
201707301220 METAR ESMX 301220Z 15006KT 9999 OVC014 19/15 Q1007=
201707301150 METAR ESMX 301150Z 13006KT 070V160 9999 BKN018 18/14 Q1008=
201707301120 METAR ESMX 301120Z 16007KT 9999 BKN013 19/14 Q1008=
201707301050 METAR ESMX 301050Z 15008KT 120V180 9999 SCT015 BKN040 18/14 Q1008=
201707301020 METAR ESMX 301020Z 12007KT 070V170 9999 SCT019 BKN038 19/14 Q1008=
201707300950 METAR ESMX 300950Z AUTO 16007KT 110V200 9999 FEW017/// BKN046/// 18/13 Q1009=
201707300920 METAR ESMX 300920Z AUTO 16006KT 110V190 9999 FEW014/// BKN045/// BKN090/// 18/13 Q1009=
201707300850 METAR ESMX 300850Z AUTO 13006KT 080V170 9999 FEW010/// SCT033/// BKN042/// 17/13 Q1009=
201707300820 METAR ESMX 300820Z AUTO 15006KT 120V190 9999 FEW005/// OVC029/// 15/13 Q1010=
201707300750 METAR ESMX 300750Z AUTO 14005KT 110V170 9999 FEW003/// SCT005/// OVC037/// 15/13 Q1010=
201707300720 METAR ESMX 300720Z AUTO 14005KT 090V160 9999 OVC001/// 15/13 Q1010=
201707300650 METAR ESMX 300650Z AUTO 14005KT 100V160 9999 OVC001/// 14/13 Q1010=
201707300620 METAR ESMX 300620Z AUTO 15004KT 120V190 9999 OVC001/// 14/13 Q1010=
201707300550 METAR ESMX 300550Z AUTO 17003KT 8000 VV002 13/13 Q1010=
201707300520 METAR ESMX 300520Z AUTO 17003KT 140V200 1800 VV001 13/13 Q1010=
201707300450 METAR ESMX 300450Z AUTO 18003KT 130V210 0900 R01/1800D R19/1100U VV001 13/12 Q1009=
201707300420 METAR ESMX 300420Z AUTO 19003KT 160V220 0550 R01/0800N R19/0900N FG VV001 13/12 Q1010=
201707300350 METAR ESMX 300350Z AUTO 21003KT 0800 R01/1100U R19/1300U FG VV001 13/12 Q1010=
201707300320 METAR ESMX 300320Z AUTO 22004KT 170V250 0900 R01/1200U R19/1600D FG VV001 13/12 Q1010=
201707300250 METAR ESMX 300250Z AUTO 23005KT 1000 R01/1900N R19/P2000N VV001 13/12 Q1010=
201707300220 METAR ESMX 300220Z AUTO 23006KT 0900 R01/P2000N R19/P2000N FG VV001 13/12 Q1010=
201707300150 METAR ESMX 300150Z AUTO 21006KT 6000 BR OVC001/// 13/12 Q1010=
201707300120 METAR ESMX 300120Z AUTO 20005KT 8000 BR OVC001/// 12/12 Q1010=
201707300050 METAR ESMX 300050Z AUTO 19005KT 5000 BR FEW002/// BKN004/// 12/11 Q1010=
201707300020 METAR ESMX 300020Z AUTO 20005KT 9999 FEW025/// 12/12 Q1010=
201707292350 METAR ESMX 292350Z AUTO 20006KT 9999 NCD 12/12 Q1010=
201707292320 METAR ESMX 292320Z AUTO 22005KT 9999 NCD 13/12 Q1010=
201707292250 METAR ESMX 292250Z AUTO 22006KT 9999 FEW077/// 13/13 Q1010=
201707292220 METAR ESMX 292220Z AUTO 22006KT 9999 NCD 14/13 Q1009=
201707292150 METAR ESMX 292150Z AUTO 22006KT 9999 FEW026/// 14/13 Q1009=
201707292120 METAR ESMX 292120Z AUTO 22007KT 9999 FEW016/// SCT059/// 15/14 Q1009=
201707292050 METAR ESMX 292050Z AUTO 21007KT 9999 FEW016/// BKN025/// 15/14 Q1009=
201707292020 METAR ESMX 292020Z AUTO 20007KT 9999 FEW012/// SCT017/// BKN056/// 15/14 Q1009=
201707291950 METAR ESMX 291950Z AUTO 18007KT 9999 FEW018/// 15/15 Q1009=
201707291920 METAR ESMX 291920Z AUTO 19006KT 9999 FEW014/// 15/15 Q1009=
201707291850 METAR ESMX 291850Z 20009KT 9999 SCT008 BKN012 16/15 Q1008=
201707291820 METAR ESMX 291820Z 18008KT 9999 FEW005 BKN008 16/15 Q1008=
201707291750 METAR ESMX 291750Z 20009KT 9999 BKN008 16/15 Q1008=
201707291720 METAR ESMX 291720Z 17008KT 4500 DZ BKN004 16/15 Q1008=
201707291650 METAR ESMX 291650Z 17008KT 9999 -RA FEW004 BKN007 16/15 Q1008=
201707291620 METAR ESMX 291620Z 17008KT 9999 -RA FEW006 BKN008 16/15 Q1008=
201707291550 METAR ESMX 291550Z AUTO 19011KT 9999 -RA FEW007/// BKN009/// OVC013/// 16/15 Q1008 REDZ=
201707291520 METAR ESMX 291520Z AUTO 17010KT 9999 FEW007/// SCT008/// BKN009/// 16/14 Q1008 REDZ=
201707291450 METAR ESMX 291450Z AUTO 17010KT 9999 FEW009/// OVC011/// 17/14 Q1008=
201707291420 METAR ESMX 291420Z AUTO 18011KT 8000 BR FEW009/// BKN013/// 17/15 Q1008=
201707291350 METAR ESMX 291350Z AUTO 18011KT 9999 -DZ FEW013/// SCT015/// BKN018/// 17/14 Q1008 REDZ=
201707291320 METAR ESMX 291320Z AUTO 20011KT 9999 FEW015/// OVC018/// 17/14 Q1008 REDZ=
201707291250 METAR ESMX 291250Z AUTO 19010KT 9999 FEW019/// SCT021/// BKN025/// 18/13 Q1008 REDZ=
201707291220 METAR ESMX 291220Z AUTO 16012KT 9999 OVC022/// 18/12 Q1008=
201707291150 METAR ESMX 291150Z AUTO 16010KT 9999 FEW025/// BKN029/// OVC038/// 18/12 Q1008=
201707291120 METAR ESMX 291120Z AUTO 17010KT 130V200 9999 FEW024/// OVC030/// 18/11 Q1009=
201707291050 METAR ESMX 291050Z AUTO 18010KT 9999 -DZ FEW026/// SCT035/// BKN048/// 18/12 Q1009=
201707291020 METAR ESMX 291020Z AUTO 17009KT 9999 FEW027/// SCT057/// BKN086/// 18/11 Q1009=
201707290950 METAR ESMX 290950Z AUTO 19010KT 9999 FEW024/// 18/12 Q1009=
201707290920 METAR ESMX 290920Z AUTO 21011KT 9999 FEW027/// SCT075/// 18/12 Q1009=
201707290850 METAR ESMX 290850Z AUTO 21010KT 9999 FEW026/// SCT032/// BKN078/// 18/11 Q1009=
201707290820 METAR ESMX 290820Z AUTO 19010KT 140V220 9999 FEW023/// SCT027/// 17/11 Q1009=
201707290750 METAR ESMX 290750Z AUTO 20010KT 9999 FEW018/// SCT025/// 16/11 Q1009=
201707290720 METAR ESMX 290720Z AUTO 18010KT 9999 FEW016/// 17/12 Q1009=
201707290650 METAR ESMX 290650Z AUTO 19008KT 9999 FEW007/// SCT044/// 16/12 Q1009=
201707290620 METAR ESMX 290620Z AUTO 20006KT 160V230 9999 FEW005/// SCT007/// 15/13 Q1009=
201707290550 METAR ESMX 290550Z AUTO 19007KT 9999 FEW005/// SCT072/// 14/12 Q1009=
201707290520 METAR ESMX 290520Z AUTO 19006KT 9999 FEW075/// 13/12 Q1009=
201707290450 METAR ESMX 290450Z AUTO 20007KT 9999 SCT077/// 13/12 Q1009=
201707290420 METAR ESMX 290420Z AUTO 18006KT 9999 FEW017/// 12/11 Q1009=
201707290350 METAR ESMX 290350Z AUTO 20006KT 9999 SCT083/// 12/11 Q1009=
201707290320 METAR ESMX 290320Z AUTO 20006KT 9999 BKN083/// 12/11 Q1009=
201707290250 METAR ESMX 290250Z AUTO 19005KT 9999 BKN083/// 11/11 Q1009=
201707290220 METAR ESMX 290220Z AUTO 21005KT 9999 FEW059/// SCT085/// 11/10 Q1009=
201707290150 METAR ESMX 290150Z AUTO 20006KT 9999 FEW110/// 11/10 Q1009=
201707290120 METAR ESMX 290120Z AUTO 20006KT 9999 NCD 11/10 Q1009=
201707290050 METAR ESMX 290050Z AUTO 20006KT 9999 NCD 11/10 Q1009=
201707290020 METAR ESMX 290020Z AUTO 19006KT 9999 NCD 12/11 Q1009=
201707282350 METAR ESMX 282350Z AUTO 18005KT 9999 NCD 13/12 Q1008=
201707282320 METAR ESMX 282320Z AUTO 20005KT 9999 BKN081/// 13/12 Q1008=
201707282250 METAR ESMX 282250Z AUTO 20006KT 9999 BKN083/// 13/12 Q1008=
201707282220 METAR ESMX 282220Z AUTO 18004KT 9999 BKN076/// 14/13 Q1008=
201707282150 METAR ESMX 282150Z AUTO 19006KT 9999 BKN073/// 13/12 Q1008=
201707282120 METAR ESMX 282120Z AUTO 20005KT 9999 FEW083/// 13/11 Q1008=
201707282050 METAR ESMX 282050Z AUTO 18004KT 9999 FEW063/// SCT074/// 14/13 Q1008=
201707282020 METAR ESMX 282020Z AUTO 20004KT 9999 FEW070/// 13/12 Q1008=
201707281950 METAR ESMX 281950Z AUTO 20004KT 9999 FEW063/// SCT089/// 14/13 Q1008=
201707281920 METAR ESMX 281920Z AUTO 26003KT 9999 -RA FEW041/// SCT066/// 14/13 Q1008=
201707281850 METAR ESMX 281850Z AUTO 21006G16KT 9999 RA FEW017/// SCT043/// 16/10 Q1007=
201707281820 METAR ESMX 281820Z AUTO 22004KT 9999 NCD 17/10 Q1007=
201707281750 METAR ESMX 281750Z AUTO 22005KT 9999 FEW083/// 19/10 Q1007=
201707281720 METAR ESMX 281720Z AUTO 24007KT 200V280 9999 SCT089/// 19/09 Q1007=
201707281650 METAR ESMX 281650Z AUTO 23008KT 9999 FEW054/// SCT076/// BKN086/// 19/09 Q1006=
201707281620 METAR ESMX 281620Z AUTO 24008KT 9999 FEW053/// 19/08 Q1006=
201707281550 METAR ESMX 281550Z AUTO 25008KT 220V280 9999 SCT053/// BKN089/// 20/08 Q1006=
201707281520 METAR ESMX 281520Z 27008KT 220V300 CAVOK 21/08 Q1006=
201707281450 METAR ESMX 281450Z 26009KT CAVOK 21/08 Q1006=
201707281420 METAR ESMX 281420Z 24007KT CAVOK 21/08 Q1006=
201707281350 METAR ESMX 281350Z 23011KT CAVOK 21/08 Q1006=
201707281320 METAR ESMX 281320Z 25010KT CAVOK 21/08 Q1006=
201707281250 METAR ESMX 281250Z 23010KT 190V260 9999 SCT045 20/08 Q1005=
201707281220 METAR ESMX 281220Z 24008KT 210V310 9999 SCT047 21/08 Q1006=
201707281150 METAR ESMX 281150Z AUTO 22011KT 190V250 9999 FEW042/// 21/08 Q1005=
201707281120 METAR ESMX 281120Z AUTO 22012KT 9999 NCD 21/09 Q1005=
201707281050 METAR ESMX 281050Z AUTO 23011KT 9999 FEW053/// 20/09 Q1005=
201707281020 METAR ESMX 281020Z 22010KT 9999 SCT045 20/09 Q1005=
201707280950 METAR ESMX 280950Z 26008KT 9999 FEW040 19/08 Q1005=
201707280920 METAR ESMX 280920Z 23010KT 200V270 9999 FEW028 SCT035 18/10 Q1005=
201707280850 METAR ESMX 280850Z 23009KT 200V260 9999 SCT035 18/10 Q1005=
201707280820 METAR ESMX 280820Z 26007KT 210V300 9999 SCT025 18/10 Q1005=
201707280750 METAR ESMX 280750Z 26008KT 200V280 9999 SCT020 16/11 Q1005=
201707280720 METAR ESMX 280720Z 23007KT 9999 FEW011 SCT045 17/13 Q1004=
201707280650 METAR ESMX 280650Z 26007KT 9999 SCT011 16/13 Q1004=
201707280620 METAR ESMX 280620Z 24005KT 220V290 9999 FEW025 15/12 Q1004=
201707280550 METAR ESMX 280550Z AUTO 23006KT 9999 FEW033/// 14/12 Q1004=
201707280520 METAR ESMX 280520Z AUTO 22006KT 9999 FEW004/// 14/13 Q1004=
201707280450 METAR ESMX 280450Z AUTO 23004KT 9999 SCT003/// 14/13 Q1004=
201707280420 METAR ESMX 280420Z AUTO 23006KT 9999 OVC002/// 14/13 Q1004=
201707280350 METAR ESMX 280350Z AUTO 24005KT 9999 BKN002/// 14/13 Q1004=
201707280320 METAR ESMX 280320Z AUTO 26005KT 9000 BR OVC002/// 14/13 Q1004=
201707280250 METAR ESMX 280250Z AUTO 25005KT 9000 BR OVC001/// 14/13 Q1003=
201707280220 METAR ESMX 280220Z AUTO 24005KT 8000 BR OVC001/// 14/13 Q1003=
201707280150 METAR ESMX 280150Z AUTO 22005KT 9999 SCT001/// BKN005/// BKN007/// 14/13 Q1003=
201707280120 METAR ESMX 280120Z AUTO 22003KT 9000 BR OVC004/// 14/13 Q1003=
201707280050 METAR ESMX 280050Z AUTO 24004KT 9999 FEW003/// SCT005/// BKN007/// 14/13 Q1003=
201707280020 METAR ESMX 280020Z AUTO 25003KT 9999 BKN004/// OVC007/// 14/13 Q1003=
201707272350 METAR ESMX 272350Z 23002KT 9000 BR BKN006 13/13 Q1003=
201707272320 METAR ESMX 272320Z 24003KT 9999 FEW040 14/13 Q1003=
201707272250 METAR ESMX 272250Z 24003KT 9999 FEW034 SCT070 14/13 Q1003=
201707272220 METAR ESMX 272220Z 23003KT 9999 FEW032 SCT070 15/13 Q1003=
201707272150 METAR ESMX 272150Z 24004KT 210V270 9999 FEW014 SCT062 BKN074 15/14 Q1003=
201707272120 METAR ESMX 272120Z 23003KT CAVOK 16/14 Q1003=
201707272050 METAR ESMX 272050Z 22004KT 9999 FEW043 BKN074 15/14 Q1003=
201707272020 METAR ESMX 272020Z 20004KT CAVOK 15/14 Q1003=
201707271950 METAR ESMX 271950Z 21004KT CAVOK 16/14 Q1003=
201707271920 METAR ESMX 271920Z 22004KT CAVOK 16/14 Q1003=
201707271850 METAR ESMX 271850Z 20007KT CAVOK 17/13 Q1003=
201707271820 METAR ESMX 271820Z 22004KT CAVOK 18/14 Q1002=
201707271750 METAR ESMX 271750Z 27005KT 240V300 CAVOK 19/13 Q1002=
201707271720 METAR ESMX 271720Z 21005KT CAVOK 20/12 Q1003=
201707271650 METAR ESMX 271650Z 20005KT CAVOK 20/11 Q1003=
201707271620 METAR ESMX 271620Z 21005KT 160V230 CAVOK 20/12 Q1003=
201707271550 METAR ESMX 271550Z VRB02KT CAVOK 20/12 Q1003=
201707271520 METAR ESMX 271520Z VRB02KT CAVOK 20/12 Q1003=
201707271450 METAR ESMX 271450Z 22003KT CAVOK 20/13 Q1003=
201707271420 METAR ESMX 271420Z 23004KT 200V260 CAVOK 20/13 Q1003=
201707271350 METAR ESMX 271350Z 24005KT CAVOK 20/13 Q1003=
201707271320 METAR ESMX 271320Z 25006KT CAVOK 20/12 Q1003=
201707271250 METAR ESMX 271250Z 24006KT CAVOK 21/13 Q1003=
201707271220 METAR ESMX 271220Z 23006KT CAVOK 21/12 Q1003=
201707271150 METAR ESMX 271150Z 23003KT 9999 FEW088 21/10 Q1003=
201707271120 METAR ESMX 271120Z VRB02KT CAVOK 21/10 Q1003=
201707271050 METAR ESMX 271050Z 35003KT 300V030 CAVOK 22/11 Q1003=
201707271020 METAR ESMX 271020Z 07004KT 020V120 CAVOK 21/10 Q1003=
201707270950 METAR ESMX 270950Z AUTO 31003KT 250V360 9999 NCD 21/11 Q1003=
201707270920 METAR ESMX 270920Z AUTO 34005KT 300V030 9999 NCD 21/13 Q1003=
201707270850 METAR ESMX 270850Z AUTO 36004KT 310V070 9999 NCD 20/12 Q1004=
201707270820 METAR ESMX 270820Z AUTO 33005KT 280V010 9999 NCD 19/13 Q1004=
201707270750 METAR ESMX 270750Z AUTO 34004KT 310V010 9999 NCD 18/13 Q1004=
201707270720 METAR ESMX 270720Z AUTO 08005KT 020V120 9999 NCD 17/13 Q1004=
201707270650 METAR ESMX 270650Z AUTO 04005KT 010V080 9999 FEW053/// 17/13 Q1004=
201707270620 METAR ESMX 270620Z AUTO 02005KT 330V040 9999 FEW100/// 15/13 Q1004=
201707270550 METAR ESMX 270550Z 36004KT 330V030 9999 SCT003 14/13 Q1004=
201707270520 METAR ESMX 270520Z 03006KT 1200 R01/P2000N R19/1200U BR VV002 13/12 Q1005=
201707270450 METAR ESMX 270450Z 02006KT CAVOK 12/12 Q1004=
201707270420 METAR ESMX 270420Z VRB02KT CAVOK 09/08 Q1004=
201707270350 METAR COR ESMX 270350Z 00000KT 9999 MIFG FEW069 07/07 Q1005=
201707270320 METAR ESMX 270320Z AUTO 00000KT 9999 NCD 07/06 Q1005=
201707270250 METAR ESMX 270250Z AUTO 00000KT 9999 BR FEW089/// 07/06 Q1005=
201707270220 METAR ESMX 270220Z AUTO 00000KT 9999 FEW084/// 07/07 Q1005=
201707270150 METAR ESMX 270150Z AUTO 06003KT 9999 BR NCD 08/07 Q1005=
201707270120 METAR ESMX 270120Z AUTO 00000KT 9999 NCD 09/08 Q1005=
201707270050 METAR ESMX 270050Z AUTO 00000KT 9999 NCD 09/08 Q1005=
201707270020 METAR ESMX 270020Z AUTO 00000KT 9999 FEW078/// 10/09 Q1005=
201707262350 METAR ESMX 262350Z 05003KT CAVOK 09/09 Q1005=
201707262320 METAR ESMX 262320Z 00000KT CAVOK 10/09 Q1005=
201707262250 METAR ESMX 262250Z 00000KT CAVOK 10/09 Q1005=
201707262220 METAR ESMX 262220Z 05002KT CAVOK 10/09 Q1005=
201707262150 METAR ESMX 262150Z 05001KT CAVOK 11/10 Q1005=
201707262120 METAR ESMX 262120Z 00000KT CAVOK 12/10 Q1005=
201707262050 METAR ESMX 262050Z 00000KT CAVOK 13/11 Q1005=
201707262020 METAR ESMX 262020Z 06003KT CAVOK 15/11 Q1005=
201707261950 METAR ESMX 261950Z 06002KT 9999 FEW047 15/11 Q1005=
201707261920 METAR ESMX 261920Z AUTO 00000KT 9999 FEW047/// 16/11 Q1005=
201707261850 METAR ESMX 261850Z AUTO 06002KT 9999 FEW060/// 18/11 Q1005=
201707261820 METAR ESMX 261820Z AUTO 06003KT 020V100 9999 BKN058/// 19/10 Q1005=
201707261750 METAR ESMX 261750Z AUTO 06004KT 030V120 9999 BKN053/// 20/10 Q1005=
201707261720 METAR ESMX 261720Z AUTO 02006KT 9999 BKN056/// 20/10 Q1005=
201707261650 METAR ESMX 261650Z AUTO 01008KT 9999 BKN056/// 20/10 Q1005=
201707261620 METAR ESMX 261620Z AUTO 01007KT 9999 SCT058/// 21/11 Q1005=
201707261550 METAR ESMX 261550Z AUTO 02007KT 360V070 9999 BKN058/// 21/10 Q1005=
201707261520 METAR ESMX 261520Z AUTO 02007KT 9999 BKN054/// 21/11 Q1005=
201707261450 METAR ESMX 261450Z AUTO 02008KT 350V070 9999 BKN054/// 21/11 Q1005=
201707261420 METAR ESMX 261420Z AUTO 36008KT 9999 SCT055/// 21/11 Q1005=
201707261350 METAR ESMX 261350Z AUTO 01007KT 340V050 9999 FEW047/// SCT053/// 21/10 Q1005=
201707261320 METAR ESMX 261320Z AUTO 36010KT 330V030 9999 NCD 21/11 Q1005=
201707261250 METAR ESMX 261250Z AUTO 02009KT 9999 NCD 21/11 Q1005=
201707261220 METAR ESMX 261220Z AUTO 02010KT 9999 NCD 20/11 Q1005=
201707261150 METAR ESMX 261150Z AUTO 36010KT 9999 FEW035/// 20/12 Q1005=
201707261120 METAR ESMX 261120Z AUTO 36011KT 9999 FEW030/// BKN039/// 19/12 Q1005=
201707261050 METAR ESMX 261050Z AUTO 01009KT 340V050 9999 FEW028/// 20/12 Q1005=
201707261020 METAR ESMX 261020Z AUTO 01008KT 340V060 9999 FEW028/// SCT033/// 19/12 Q1006=
201707260950 METAR ESMX 260950Z AUTO 03008KT 350V070 9999 FEW024/// SCT033/// 19/11 Q1006=
201707260920 METAR ESMX 260920Z AUTO 02010KT 360V070 9999 BKN024/// 18/11 Q1006=
201707260850 METAR ESMX 260850Z AUTO 02010KT 9999 SCT024/// 17/11 Q1006=
201707260820 METAR ESMX 260820Z AUTO 01009KT 9999 SCT024/// 17/12 Q1006=
201707260750 METAR ESMX 260750Z AUTO 36010KT 340V040 9999 FEW022/// 17/11 Q1006=
201707260720 METAR ESMX 260720Z AUTO 02012KT 9999 FEW016/// BKN021/// 16/11 Q1006=
201707260650 METAR ESMX 260650Z AUTO 03010KT 9999 SCT015/// BKN019/// 16/11 Q1006=
201707260620 METAR ESMX 260620Z AUTO 03011KT 9999 FEW013/// BKN018/// 15/11 Q1006=
201707260550 METAR ESMX 260550Z 03010KT 9999 FEW012 SCT015 15/11 Q1006=
201707260520 METAR ESMX 260520Z 01010KT 9999 FEW012 SCT028 15/12 Q1006=
201707260450 METAR ESMX 260450Z 03010KT 9999 SCT012 BKN055 15/12 Q1006=
201707260420 METAR ESMX 260420Z 03011KT 360V060 9999 BKN011 14/12 Q1006=
201707260350 METAR ESMX 260350Z 03010KT 9999 FEW010 BKN012 14/12 Q1006=
201707260320 METAR ESMX 260320Z AUTO 01009KT 9999 FEW011/// BKN015/// 14/12 Q1006=
201707260250 METAR ESMX 260250Z AUTO 02007KT 9999 FEW010/// SCT015/// BKN018/// 14/12 Q1006=
201707260220 METAR ESMX 260220Z AUTO 01008KT 9999 FEW010/// SCT093/// 14/12 Q1006=
201707260150 METAR ESMX 260150Z AUTO 03009KT 9999 NCD 14/12 Q1007=
201707260120 METAR ESMX 260120Z AUTO 03008KT 9999 NCD 14/12 Q1007=
201707260050 METAR ESMX 260050Z AUTO 03011KT 9999 FEW013/// 14/12 Q1007=
201707260020 METAR ESMX 260020Z AUTO 03010KT 360V060 9999 SCT011/// 15/12 Q1007=
201707252350 METAR ESMX 252350Z 03010KT CAVOK 15/12 Q1007=
201707252320 METAR ESMX 252320Z 03010KT CAVOK 15/12 Q1008=
201707252250 METAR ESMX 252250Z 03009KT 020V080 CAVOK 15/12 Q1008=
201707252220 METAR ESMX 252220Z 03009KT CAVOK 16/12 Q1008=
201707252150 METAR ESMX 252150Z 03007KT CAVOK 16/11 Q1008=
201707252120 METAR ESMX 252120Z 03008KT CAVOK 16/11 Q1008=
201707252050 METAR ESMX 252050Z 03008KT CAVOK 17/10 Q1008=
201707252020 METAR ESMX 252020Z 03007KT CAVOK 17/10 Q1008=
201707251950 METAR ESMX 251950Z 03006KT CAVOK 17/10 Q1008=
201707251920 METAR ESMX 251920Z 04008KT 010V080 CAVOK 18/10 Q1008=
201707251850 METAR ESMX 251850Z 05006KT 360V080 CAVOK 18/10 Q1008=
201707251820 METAR ESMX 251820Z 04009KT 9999 FEW040 BKN130 18/10 Q1008=
201707251750 METAR ESMX 251750Z 05009KT 020V080 9999 FEW040 19/10 Q1008=
201707251720 METAR ESMX 251720Z 04010KT 9999 FEW041 19/11 Q1008=
201707251650 METAR ESMX 251650Z 04009KT 010V070 9999 FEW039 19/11 Q1008=
201707251620 METAR ESMX 251620Z 02010KT 9999 FEW047 19/11 Q1008=
201707251550 METAR ESMX 251550Z 03010KT 350V060 9999 FEW040 19/11 Q1008=
201707251520 METAR ESMX 251520Z 04010KT 9999 FEW032 19/10 Q1008=
201707251450 METAR ESMX 251450Z 02012KT 9999 FEW032 19/11 Q1008=
201707251420 METAR ESMX 251420Z 02011KT 9999 FEW029 SCT034 19/11 Q1009=
201707251350 METAR ESMX 251350Z AUTO 04012KT 9999 FEW027/// 19/11 Q1009=
201707251320 METAR ESMX 251320Z AUTO 02010KT 360V070 9999 FEW026/// 18/11 Q1009=
201707251250 METAR ESMX 251250Z AUTO 04012KT 360V070 9999 FEW026/// BKN032/// 18/12 Q1009=
201707251220 METAR ESMX 251220Z AUTO 02012KT 350V050 9999 FEW030/// SCT039/// 19/11 Q1009=
201707251150 METAR ESMX 251150Z AUTO 02014KT 9999 FEW033/// SCT039/// 19/10 Q1009=
201707251120 METAR ESMX 251120Z AUTO 02011KT 9999 FEW036/// 20/11 Q1009=
201707251050 METAR ESMX 251050Z AUTO 02013KT 9999 FEW030/// SCT038/// 19/11 Q1009=
201707251020 METAR ESMX 251020Z AUTO 03012KT 010V070 9999 FEW032/// 19/10 Q1009=
201707250950 METAR ESMX 250950Z AUTO 03010KT 360V070 9999 FEW035/// 18/10 Q1009=
201707250920 METAR ESMX 250920Z AUTO 04011KT 020V080 9999 FEW030/// 18/10 Q1009=
201707250850 METAR ESMX 250850Z 03010KT 9999 FEW024 SCT035 17/11 Q1010=
201707250820 METAR ESMX 250820Z 05011KT 010V080 9999 FEW023 17/11 Q1010=
201707250750 METAR ESMX 250750Z 03012KT 010V070 9999 FEW020 SCT025 16/11 Q1010=
201707250720 METAR ESMX 250720Z 04013KT 9999 SCT019 16/11 Q1010=
201707250650 METAR ESMX 250650Z 04013KT 020V080 9999 BKN020 16/12 Q1010=
201707250620 METAR ESMX 250620Z 04013KT 9999 FEW013 16/12 Q1010=
201707250550 METAR ESMX 250550Z 04011KT 9999 FEW012 15/12 Q1010=
201707250520 METAR ESMX 250520Z AUTO 04009KT 9999 SCT010/// BKN014/// 15/12 Q1010=
201707250450 METAR ESMX 250450Z AUTO 04011KT 9999 FEW008/// BKN010/// 14/12 Q1010=
201707250420 METAR ESMX 250420Z AUTO 04011KT 9999 FEW007/// BKN008/// BKN010/// 14/12 Q1011=
201707250350 METAR ESMX 250350Z AUTO 04011KT 9999 FEW007/// SCT008/// 14/12 Q1011=
201707250320 METAR ESMX 250320Z AUTO 03009KT 9999 FEW054/// 13/12 Q1010=
201707250250 METAR ESMX 250250Z AUTO 03009KT 9999 FEW007/// 13/12 Q1010=
201707250220 METAR ESMX 250220Z AUTO 04008KT 9999 FEW007/// 13/12 Q1011=
201707250150 METAR ESMX 250150Z AUTO 04008KT 350V060 9999 FEW006/// 13/12 Q1011=
201707250120 METAR ESMX 250120Z AUTO 04009KT 9999 NCD 14/12 Q1011=
201707250050 METAR ESMX 250050Z AUTO 04009KT 9999 NCD 14/12 Q1011=
201707250020 METAR ESMX 250020Z AUTO 03007KT 9999 NCD 14/11 Q1011=
201707242350 METAR ESMX 242350Z AUTO 03008KT 9999 NCD 14/11 Q1011=
201707242320 METAR ESMX 242320Z 03007KT CAVOK 14/11 Q1012=
201707242250 METAR ESMX 242250Z 04006KT CAVOK 14/10 Q1012=
201707242220 METAR ESMX 242220Z 03006KT CAVOK 14/09 Q1012=
201707242150 METAR ESMX 242150Z 03006KT CAVOK 14/09 Q1012=
201707242120 METAR ESMX 242120Z 03005KT CAVOK 15/10 Q1011=
201707242050 METAR ESMX 242050Z 03005KT CAVOK 15/10 Q1012=
201707242020 METAR ESMX 242020Z 06004KT 020V090 CAVOK 16/10 Q1012=
201707241950 METAR ESMX 241950Z 06005KT 030V100 CAVOK 17/10 Q1012=
201707241920 METAR ESMX 241920Z 03005KT 010V070 CAVOK 17/10 Q1012=
201707241850 METAR ESMX 241850Z AUTO 04003KT 020V080 9999 SCT100/// 18/10 Q1012=
201707241820 METAR ESMX 241820Z AUTO 07005KT 030V100 9999 FEW077/// 18/10 Q1011=
201707241750 METAR ESMX 241750Z AUTO 07004KT 040V110 9999 FEW083/// 18/11 Q1011=
201707241720 METAR ESMX 241720Z AUTO 07006KT 030V120 9999 FEW087/// SCT110/// 19/10 Q1011=
201707241650 METAR ESMX 241650Z 05008KT 010V090 CAVOK 19/11 Q1011=
201707241620 METAR ESMX 241620Z 04007KT 010V070 CAVOK 19/12 Q1011=
201707241550 METAR ESMX 241550Z 05008KT 010V080 CAVOK 19/12 Q1011=
201707241520 METAR ESMX 241520Z 05009KT 020V090 CAVOK 19/12 Q1011=
201707241450 METAR ESMX 241450Z 05007KT 020V090 CAVOK 19/11 Q1012=
201707241420 METAR ESMX 241420Z 06009KT 9999 FEW030 BKN055 18/11 Q1012=
201707241350 METAR ESMX 241350Z 06007KT 030V100 9999 FEW025 SCT033 BKN067 19/12 Q1012=
201707241320 METAR ESMX 241320Z 05008KT 020V090 9999 SCT023 BKN029 18/13 Q1012=
201707241250 METAR ESMX 241250Z 04008KT 9999 FEW022 SCT027 BKN051 18/14 Q1011=
201707241220 METAR ESMX 241220Z 04007KT 020V080 9999 BKN021 17/14 Q1012=
201707241150 METAR ESMX 241150Z 04004KT 020V080 9999 DZ FEW011 SCT020 BKN024 16/14 Q1012=
201707241120 METAR ESMX 241120Z 06006KT 020V100 9000 DZ FEW014 BKN041 16/14 Q1012=
201707241050 METAR ESMX 241050Z 04010KT 010V090 9999 FEW016 BKN021 18/13 Q1011=
201707241020 METAR ESMX 241020Z 04010KT 9999 SCT016 BKN021 OVC045 18/13 Q1011=
201707240950 METAR ESMX 240950Z 05008KT 020V080 9999 BKN014 OVC020 17/13 Q1011=
201707240920 METAR ESMX 240920Z 05011KT 030V100 9999 BKN013 BKN019 17/13 Q1012=
201707240850 METAR ESMX 240850Z 05008KT 030V090 9999 FEW012 SCT014 BKN017 17/14 Q1011=
201707240820 METAR ESMX 240820Z 04010KT 9999 SCT011 BKN015 BKN048 17/14 Q1011=
201707240750 METAR ESMX 240750Z 05008KT 010V100 9999 SCT009 OVC014 16/14 Q1011=
201707240720 METAR ESMX 240720Z 03009KT 010V070 9999 FEW007 OVC009 16/14 Q1011=
201707240650 METAR ESMX 240650Z 04008KT 010V070 9999 FEW007 OVC009 15/14 Q1011=
201707240620 METAR ESMX 240620Z 04007KT 9999 SCT008 OVC011 15/14 Q1011=
201707240550 METAR ESMX 240550Z AUTO 04007KT 020V080 9999 FEW007/// OVC009/// 15/14 Q1011=
201707240520 METAR ESMX 240520Z AUTO 04006KT 9999 FEW006/// OVC008/// 15/13 Q1011=
201707240450 METAR ESMX 240450Z AUTO 04007KT 9999 -DZ FEW007/// OVC009/// 15/13 Q1012 REDZ=
201707240420 METAR ESMX 240420Z AUTO 02006KT 9999 FEW006/// SCT009/// BKN010/// 14/13 Q1012=
201707240350 METAR ESMX 240350Z AUTO 04006KT 010V070 9999 -DZ BKN008/// 14/13 Q1012=
201707240320 METAR ESMX 240320Z AUTO 04006KT 020V080 9999 FEW009/// SCT011/// BKN062/// 14/13 Q1012=
201707240250 METAR ESMX 240250Z AUTO 05006KT 9999 FEW008/// BKN060/// 14/13 Q1012=
201707240220 METAR ESMX 240220Z AUTO 03005KT 9999 FEW007/// BKN055/// 14/13 Q1012=
201707240150 METAR ESMX 240150Z AUTO 04006KT 9999 FEW006/// SCT056/// BKN088/// 14/13 Q1012=
201707240120 METAR ESMX 240120Z AUTO 05005KT 020V090 9999 FEW007/// SCT010/// BKN086/// 15/14 Q1012=
201707240050 METAR ESMX 240050Z AUTO VRB03KT 9999 FEW009/// SCT012/// BKN086/// 14/13 Q1013=
201707240020 METAR ESMX 240020Z AUTO 07003KT 020V100 9999 BKN082/// 14/13 Q1013=
201707232350 METAR ESMX 232350Z AUTO 04005KT 010V080 9999 -DZ FEW046/// SCT100/// 14/13 Q1013=
201707232320 METAR ESMX 232320Z VRB03KT 9999 -RA FEW015 SCT042 14/13 Q1013=
201707232250 METAR ESMX 232250Z 07005KT 030V110 9999 RA FEW022 14/13 Q1013=
201707232220 METAR ESMX 232220Z 07006KT 9999 -RA FEW027 15/12 Q1014=
201707232150 METAR ESMX 232150Z AUTO 07005KT 030V110 9999 -DZ FEW015/// SCT058/// 16/11 Q1014=
201707232120 METAR ESMX 232120Z 08004KT 030V110 CAVOK 16/11 Q1014=
201707232050 METAR ESMX 232050Z 08004KT 020V130 CAVOK 16/11 Q1014=
201707232020 METAR ESMX 232020Z 09004KT 050V150 9999 FEW024 16/11 Q1014=
201707231950 METAR ESMX 231950Z 08006KT 050V140 9999 FEW025 SCT096 17/11 Q1014=
201707231920 METAR ESMX 231920Z 08006KT 040V150 CAVOK 17/10 Q1014=
201707231850 METAR ESMX 231850Z 08007KT 020V120 CAVOK 17/10 Q1014=
201707231820 METAR ESMX 231820Z 09006KT 060V140 CAVOK 18/11 Q1014=
201707231750 METAR ESMX 231750Z 09006KT 050V140 CAVOK 19/10 Q1014=
201707231720 METAR ESMX 231720Z 11005KT 060V150 9999 FEW037 19/10 Q1014=
201707231650 METAR ESMX 231650Z AUTO 10008KT 060V140 9999 NCD 19/10 Q1014=
201707231620 METAR ESMX 231620Z AUTO 12008KT 070V170 9999 NCD 20/10 Q1014=
201707231550 METAR ESMX 231550Z 10008KT 060V150 CAVOK 20/10 Q1014=
201707231520 METAR ESMX 231520Z 12007KT 070V170 CAVOK 21/10 Q1014=
201707231450 METAR ESMX 231450Z 12008KT 070V160 CAVOK 22/09 Q1014=
201707231420 METAR ESMX 231420Z 09007KT 040V140 9999 FEW045 22/10 Q1014=
201707231350 METAR ESMX 231350Z 11008KT 070V160 CAVOK 23/11 Q1014=
201707231320 METAR ESMX 231320Z 09008KT 010V150 CAVOK 22/09 Q1015=
201707231250 METAR ESMX 231250Z 09009KT 060V130 CAVOK 23/09 Q1015=
201707231220 METAR ESMX 231220Z 09009KT 040V140 CAVOK 22/09 Q1015=
201707231150 METAR ESMX 231150Z 10010KT 070V160 CAVOK 23/09 Q1015=
201707231120 METAR ESMX 231120Z 09011KT 060V140 9999 FEW046 23/09 Q1015=
201707231050 METAR ESMX 231050Z 09008KT 050V150 9999 FEW040 22/10 Q1016=
201707231020 METAR ESMX 231020Z 10009KT 060V150 9999 FEW040 22/10 Q1016=
201707230950 METAR ESMX 230950Z AUTO 11010KT 060V170 9999 FEW037/// 21/11 Q1016=
201707230920 METAR ESMX 230920Z AUTO 10008KT 020V150 9999 NCD 21/10 Q1016=
201707230850 METAR ESMX 230850Z AUTO 07007KT 020V140 9999 FEW077/// 20/11 Q1016=
201707230820 METAR ESMX 230820Z AUTO 08009KT 040V120 9999 NCD 19/11 Q1017=
201707230750 METAR ESMX 230750Z AUTO 08007KT 030V120 9999 FEW067/// 18/11 Q1017=
201707230720 METAR ESMX 230720Z AUTO 08007KT 020V150 9999 NCD 17/10 Q1017=
201707230650 METAR ESMX 230650Z AUTO 10007KT 060V150 9999 NCD 17/11 Q1017=
201707230620 METAR ESMX 230620Z AUTO 10006KT 050V150 9999 NCD 17/11 Q1018=
201707230550 METAR ESMX 230550Z AUTO 09007KT 030V140 9999 NCD 16/12 Q1018=
201707230520 METAR ESMX 230520Z AUTO 09006KT 040V130 9999 NCD 16/12 Q1018=
201707230450 METAR ESMX 230450Z AUTO 09005KT 030V120 9999 NCD 15/12 Q1018=
201707230420 METAR ESMX 230420Z AUTO 08003KT 010V140 9999 NCD 13/11 Q1018=
201707230350 METAR ESMX 230350Z AUTO 09004KT 050V150 9999 FEW072/// 13/11 Q1018=
201707230320 METAR ESMX 230320Z AUTO 07004KT 040V110 9999 NCD 13/11 Q1018=
201707230250 METAR ESMX 230250Z AUTO 06004KT 030V100 9999 NCD 13/10 Q1018=
201707230220 METAR ESMX 230220Z AUTO 01004KT 9999 FEW068/// 12/10 Q1018=
201707230150 METAR ESMX 230150Z AUTO 02004KT 9999 NCD 11/09 Q1018=
201707230120 METAR ESMX 230120Z AUTO VRB03KT 9999 FEW057/// 12/09 Q1019=
201707230050 METAR ESMX 230050Z AUTO 06004KT 020V100 9999 NCD 12/10 Q1019=
201707230020 METAR ESMX 230020Z AUTO VRB01KT 9999 NCD 12/10 Q1019=
201707222350 METAR ESMX 222350Z AUTO VRB03KT 9999 NCD 12/10 Q1019=
201707222320 METAR ESMX 222320Z AUTO 06003KT 9999 NCD 12/10 Q1019=
201707222250 METAR ESMX 222250Z AUTO 00000KT 9999 NCD 12/09 Q1020=
201707222220 METAR ESMX 222220Z AUTO VRB03KT 9999 NCD 13/10 Q1019=
201707222150 METAR ESMX 222150Z AUTO VRB02KT 9999 FEW079/// 14/10 Q1020=
201707222120 METAR ESMX 222120Z AUTO VRB03KT 9999 NCD 14/10 Q1020=
201707222050 METAR ESMX 222050Z AUTO VRB02KT 9999 NCD 15/10 Q1020=
201707222020 METAR ESMX 222020Z AUTO 13003KT 080V160 9999 NCD 15/10 Q1020=
201707221950 METAR ESMX 221950Z AUTO 13003KT 090V170 9999 FEW083/// 16/09 Q1020=
201707221920 METAR ESMX 221920Z AUTO 12003KT 070V160 9999 FEW060/// 17/10 Q1020=
201707221850 METAR ESMX 221850Z 12004KT 080V190 CAVOK 17/09 Q1019=
201707221820 METAR ESMX 221820Z 12005KT 070V170 CAVOK 18/09 Q1019=
201707221750 METAR ESMX 221750Z 12006KT 080V160 CAVOK 19/09 Q1019=
201707221720 METAR ESMX 221720Z 14007KT 080V170 CAVOK 20/09 Q1019=
201707221650 METAR ESMX 221650Z 11006KT 060V140 CAVOK 20/09 Q1019=
201707221620 METAR ESMX 221620Z 14005KT 100V180 CAVOK 20/09 Q1019=
201707221550 METAR ESMX 221550Z AUTO 13005KT 090V170 9999 NCD 20/08 Q1019=
201707221520 METAR ESMX 221520Z AUTO 13006KT 080V170 9999 FEW058/// 21/08 Q1019=
201707221450 METAR ESMX 221450Z AUTO 13005KT 060V190 9999 NCD 21/08 Q1019=
201707221420 METAR ESMX 221420Z AUTO 14007KT 100V170 9999 NCD 21/07 Q1019=
201707221350 METAR ESMX 221350Z AUTO 10005KT 060V150 9999 NCD 21/08 Q1019=
201707221320 METAR ESMX 221320Z AUTO 12007KT 060V160 9999 NCD 22/06 Q1019=
201707221250 METAR ESMX 221250Z AUTO 13007KT 080V240 9999 NCD 21/08 Q1020=
201707221220 METAR ESMX 221220Z AUTO 14008KT 080V180 9999 NCD 21/08 Q1020=
201707221150 METAR ESMX 221150Z AUTO 12008KT 070V170 9999 NCD 21/08 Q1020=
201707221120 METAR ESMX 221120Z AUTO 12006KT 070V190 9999 NCD 21/09 Q1020=
201707221050 METAR ESMX 221050Z AUTO 09006KT 030V140 9999 FEW085/// 20/09 Q1020=
201707221020 METAR ESMX 221020Z AUTO 12007KT 070V170 9999 NCD 20/09 Q1020=
201707220950 METAR ESMX 220950Z AUTO 12006KT 070V160 9999 NCD 19/08 Q1020=
201707220920 METAR ESMX 220920Z AUTO 08006KT 030V150 9999 NCD 19/09 Q1020=
201707220850 METAR ESMX 220850Z AUTO 07005KT 030V140 9999 FEW100/// 18/10 Q1020=
201707220820 METAR ESMX 220820Z AUTO 09006KT 030V120 9999 FEW084/// 18/10 Q1020=
201707220750 METAR ESMX 220750Z AUTO 06006KT 020V110 9999 FEW022/// 17/12 Q1020=
201707220720 METAR ESMX 220720Z AUTO 07009KT 040V110 9999 FEW017/// SCT021/// 17/11 Q1020=
201707220650 METAR ESMX 220650Z AUTO VRB03KT 9999 FEW005/// 16/13 Q1020=
201707220620 METAR ESMX 220620Z AUTO 07005KT 020V140 9999 FEW002/// SCT003/// BKN005/// 14/12 Q1020=
201707220550 METAR ESMX 220550Z AUTO 05004KT 010V080 9999 OVC001/// 12/12 Q1020=
201707220520 METAR ESMX 220520Z AUTO 05006KT 9999 VV002 12/12 Q1020=
201707220450 METAR ESMX 220450Z AUTO VRB02KT 4400 VV002 12/11 Q1020=
201707220420 METAR ESMX 220420Z AUTO 05004KT 1000 R01/1000U R19/P2000D FG VV001 12/11 Q1020=
201707220350 METAR ESMX 220350Z AUTO 07003KT 030V110 0400 R01/0650D R19/1700D FG VV001 12/11 Q1020=
201707220320 METAR ESMX 220320Z AUTO 06003KT 0800 R01/1400D R19/P2000N FG VV001 12/11 Q1019=
201707220250 METAR ESMX 220250Z AUTO VRB03KT 9000 BR VV002 12/11 Q1019=
201707220220 METAR ESMX 220220Z AUTO 07004KT 040V100 9999 FEW003/// 11/11 Q1019=
201707220150 METAR ESMX 220150Z AUTO 07003KT 040V100 9999 NCD 11/10 Q1019=
201707220120 METAR ESMX 220120Z AUTO 06003KT 020V080 9999 NCD 12/11 Q1019=
201707220050 METAR ESMX 220050Z AUTO 06003KT 030V100 9999 NCD 11/10 Q1019=
201707220020 METAR ESMX 220020Z AUTO 06003KT 9999 NCD 11/10 Q1019=
201707212350 METAR ESMX 212350Z AUTO 05003KT 9999 NCD 12/11 Q1019=
201707212320 METAR ESMX 212320Z AUTO 03003KT 9999 BR NCD 11/09 Q1019=
201707212250 METAR ESMX 212250Z AUTO 07002KT 9999 NCD 13/11 Q1019=
201707212220 METAR ESMX 212220Z AUTO 07003KT 9999 SCT052/// 14/11 Q1019=
201707212150 METAR ESMX 212150Z AUTO 08003KT 9999 OVC053/// 14/11 Q1019=
201707212120 METAR ESMX 212120Z AUTO 08003KT 9999 FEW043/// BKN053/// BKN083/// 14/11 Q1018=
201707212050 METAR ESMX 212050Z AUTO 06003KT 9999 FEW053/// BKN080/// 15/11 Q1018=
201707212020 METAR ESMX 212020Z AUTO 06004KT 030V100 9999 FEW053/// BKN078/// 15/10 Q1018=
201707211950 METAR ESMX 211950Z AUTO 07003KT 040V110 9999 BKN073/// 15/10 Q1018=
201707211920 METAR ESMX 211920Z AUTO VRB03KT 9999 BKN069/// 15/10 Q1018=
201707211850 METAR ESMX 211850Z AUTO VRB03KT 9999 BKN067/// 15/11 Q1018=
201707211820 METAR ESMX 211820Z AUTO 07003KT 040V100 9999 BKN067/// 16/10 Q1018=
201707211750 METAR ESMX 211750Z AUTO 07003KT 9999 BKN065/// 16/10 Q1018=
201707211720 METAR ESMX 211720Z AUTO VRB03KT 9999 SCT064/// 16/11 Q1018=
201707211650 METAR ESMX 211650Z AUTO VRB02KT 9999 BKN064/// 16/11 Q1018=
201707211620 METAR ESMX 211620Z AUTO 09004KT 020V130 9999 BKN063/// BKN077/// 16/11 Q1018=
201707211550 METAR ESMX 211550Z 08004KT 050V130 CAVOK 16/11 Q1018=
201707211520 METAR ESMX 211520Z 07004KT CAVOK 16/12 Q1018=
201707211450 METAR ESMX 211450Z 09004KT 040V140 CAVOK 16/11 Q1018=
201707211420 METAR ESMX 211420Z 11005KT 060V160 CAVOK 16/12 Q1017=
201707211350 METAR ESMX 211350Z 11005KT 070V180 CAVOK 16/13 Q1018=
201707211320 METAR COR ESMX 211320Z 10005KT 060V130 9999 -RA FEW078 15/13 Q1018=
201707211250 METAR ESMX 211250Z 08004KT 020V150 9999 -RA FEW056 15/13 Q1018=
201707211220 METAR ESMX 211220Z 08003KT 030V120 9999 -RA FEW026 BKN075 15/13 Q1017=
201707211150 METAR ESMX 211150Z 06004KT 020V090 9999 -RA FEW027 BKN075 15/13 Q1017=
201707211120 METAR ESMX 211120Z 09004KT 030V130 9999 -RA FEW047 BKN080 15/13 Q1017=
201707211050 METAR ESMX 211050Z 07003KT 010V100 9999 -RA FEW027 BKN090 15/14 Q1017=
201707211020 METAR ESMX 211020Z 07003KT 030V110 9999 -RA FEW025 BKN090 15/13 Q1017=
201707210950 METAR ESMX 210950Z 06004KT 030V100 9999 -RA FEW047 15/13 Q1016=
201707210920 METAR ESMX 210920Z VRB02KT 9999 -RA FEW026 15/13 Q1016=
201707210850 METAR ESMX 210850Z 09004KT 050V130 9999 -RA FEW028 15/12 Q1016=
201707210820 METAR ESMX 210820Z 08005KT 030V130 9999 -RA FEW028 16/11 Q1015=
201707210750 METAR ESMX 210750Z 08006KT 040V150 CAVOK 16/11 Q1015=
201707210720 METAR ESMX 210720Z 09005KT 020V160 9999 FEW049 16/11 Q1015=
201707210650 METAR ESMX 210650Z 09005KT 030V160 CAVOK 16/11 Q1014=
201707210620 METAR ESMX 210620Z 08007KT 030V120 CAVOK 16/10 Q1014=
201707210550 METAR ESMX 210550Z AUTO 09006KT 040V140 9999 FEW110/// 16/10 Q1014=
201707210520 METAR ESMX 210520Z AUTO 08005KT 030V160 9999 FEW110/// 15/11 Q1014=
201707210450 METAR ESMX 210450Z AUTO 09005KT 050V130 9999 NCD 15/11 Q1014=
201707210420 METAR ESMX 210420Z AUTO 06003KT 010V110 9999 FEW110/// 15/11 Q1014=
201707210350 METAR ESMX 210350Z AUTO 08004KT 030V110 9999 NCD 14/10 Q1014=
201707210320 METAR ESMX 210320Z AUTO VRB03KT 9999 NCD 14/10 Q1013=
201707210250 METAR ESMX 210250Z AUTO 10004KT 060V150 9999 NCD 14/10 Q1013=
201707210220 METAR ESMX 210220Z AUTO 11003KT 040V170 9999 NCD 14/10 Q1014=
201707210150 METAR ESMX 210150Z AUTO 10004KT 060V150 9999 NCD 14/09 Q1013=
201707210120 METAR ESMX 210120Z AUTO 08003KT 030V120 9999 NCD 14/08 Q1013=
201707210050 METAR ESMX 210050Z AUTO 12003KT 070V170 9999 NCD 14/09 Q1013=
201707210020 METAR ESMX 210020Z 11004KT 050V160 CAVOK 14/09 Q1014=
201707202350 METAR ESMX 202350Z 09003KT 350V140 CAVOK 14/09 Q1013=
201707202320 METAR ESMX 202320Z VRB03KT CAVOK 14/08 Q1014=
201707202250 METAR ESMX 202250Z 10004KT 060V160 CAVOK 14/08 Q1013=
201707202220 METAR ESMX 202220Z AUTO VRB03KT 9999 NCD 15/08 Q1013=
201707202150 METAR ESMX 202150Z 12003KT 070V190 CAVOK 15/07 Q1013=
201707202120 METAR ESMX 202120Z 14004KT 090V170 CAVOK 16/08 Q1013=
201707202050 METAR ESMX 202050Z 14005KT 110V190 CAVOK 16/09 Q1013=
201707202020 METAR ESMX 202020Z 12004KT 080V170 CAVOK 17/09 Q1013=
201707201950 METAR ESMX 201950Z 13004KT 070V160 CAVOK 18/09 Q1013=
201707201920 METAR ESMX 201920Z 14005KT CAVOK 19/08 Q1013=
201707201850 METAR ESMX 201850Z 14007KT CAVOK 20/07 Q1012=
201707201820 METAR ESMX 201820Z 15008KT CAVOK 21/06 Q1012=
201707201750 METAR ESMX 201750Z 15008KT CAVOK 21/07 Q1012=
201707201720 METAR ESMX 201720Z 14008KT 100V160 CAVOK 21/06 Q1012=
201707201650 METAR ESMX 201650Z 14009KT CAVOK 22/07 Q1012=
201707201620 METAR ESMX 201620Z 15009KT CAVOK 23/08 Q1012=
201707201550 METAR ESMX 201550Z 18010KT 150V210 CAVOK 23/07 Q1012=
201707201520 METAR ESMX 201520Z 17008KT 130V210 CAVOK 23/07 Q1012=
201707201450 METAR ESMX 201450Z 15007KT 050V180 CAVOK 23/07 Q1012=
201707201420 METAR ESMX 201420Z 17009KT CAVOK 23/07 Q1012=
201707201350 METAR ESMX 201350Z 14008KT 070V180 CAVOK 24/07 Q1013=
201707201320 METAR ESMX 201320Z 16008KT 110V190 CAVOK 23/09 Q1013=
201707201250 METAR ESMX 201250Z 16007KT 110V200 CAVOK 23/09 Q1013=
201707201220 METAR ESMX 201220Z 12005KT 070V170 CAVOK 22/09 Q1013=
201707201150 METAR ESMX 201150Z 16007KT 100V200 CAVOK 22/09 Q1013=
201707201120 METAR ESMX 201120Z 15006KT 070V210 CAVOK 23/09 Q1013=
201707201050 METAR ESMX 201050Z 17009KT 140V200 CAVOK 23/09 Q1014=
201707201020 METAR ESMX 201020Z 16005KT 130V200 CAVOK 22/09 Q1014=
201707200950 METAR ESMX 200950Z AUTO 14007KT 080V200 9999 NCD 21/09 Q1014=
201707200920 METAR ESMX 200920Z AUTO 14005KT 080V190 9999 NCD 21/08 Q1014=
201707200850 METAR ESMX 200850Z AUTO 13006KT 100V190 9999 FEW059/// 21/08 Q1014=
201707200820 METAR ESMX 200820Z AUTO 13006KT 080V170 9999 NCD 20/08 Q1014=
201707200750 METAR ESMX 200750Z AUTO 13006KT 080V180 9999 FEW100/// 19/09 Q1014=
201707200720 METAR ESMX 200720Z AUTO 16006KT 9999 NCD 19/10 Q1014=
201707200650 METAR ESMX 200650Z AUTO 15005KT 080V220 9999 NCD 18/09 Q1015=
201707200620 METAR ESMX 200620Z AUTO 14004KT 080V170 9999 NCD 18/09 Q1015=
201707200550 METAR ESMX 200550Z 11003KT 070V150 CAVOK 16/09 Q1015=
201707200520 METAR ESMX 200520Z 11003KT 080V150 CAVOK 15/10 Q1015=
201707200450 METAR ESMX 200450Z 00000KT CAVOK 13/10 Q1015=
201707200420 METAR ESMX 200420Z 00000KT CAVOK 10/09 Q1015=
201707200350 METAR ESMX 200350Z AUTO 00000KT 9999 NCD 07/07 Q1015=
201707200320 METAR ESMX 200320Z AUTO 00000KT 9999 NCD 06/06 Q1015=
201707200250 METAR ESMX 200250Z AUTO 00000KT 9999 FG NCD 07/07 Q1015=
201707200220 METAR ESMX 200220Z AUTO 00000KT 9999 NCD 07/06 Q1015=
201707200150 METAR ESMX 200150Z AUTO 00000KT 9999 NCD 07/06 Q1015=
201707200120 METAR ESMX 200120Z AUTO 00000KT 9999 NCD 08/07 Q1015=
201707200050 METAR ESMX 200050Z AUTO 00000KT 9999 NCD 08/06 Q1016=
201707200020 METAR ESMX 200020Z AUTO 00000KT 9999 NCD 08/06 Q1016=
201707192350 METAR ESMX 192350Z AUTO 00000KT 9999 NCD 09/07 Q1016=
201707192320 METAR ESMX 192320Z VRB02KT CAVOK 10/08 Q1016=
201707192250 METAR ESMX 192250Z 15004KT CAVOK 10/08 Q1016=
201707192220 METAR ESMX 192220Z AUTO 00000KT 9999 NCD 11/09 Q1016=
201707192150 METAR ESMX 192150Z 20002KT CAVOK 12/09 Q1016=
201707192120 METAR ESMX 192120Z 22003KT CAVOK 12/08 Q1016=
201707192050 METAR ESMX 192050Z 17004KT CAVOK 16/09 Q1016=
201707192020 METAR COR ESMX 192020Z 18006KT CAVOK 16/09 Q1016=
201707191950 METAR ESMX 191950Z 16007KT CAVOK 17/09 Q1016=
201707191920 METAR ESMX 191920Z AUTO 17007KT 9999 NCD 18/08 Q1016=
201707191850 METAR ESMX 191850Z AUTO 18010KT 9999 NCD 19/09 Q1016=
201707191820 METAR ESMX 191820Z AUTO 17010KT 9999 FEW056/// SCT066/// 20/10 Q1016=
201707191750 METAR ESMX 191750Z AUTO 16010KT 9999 SCT055/// 20/10 Q1016=
201707191720 METAR ESMX 191720Z AUTO 15010KT 9999 SCT052/// BKN081/// 21/11 Q1016=
201707191650 METAR ESMX 191650Z AUTO 11006KT 050V180 9999 BKN054/// 22/11 Q1016=
201707191620 METAR ESMX 191620Z AUTO VRB03KT 9999 BKN054/// BKN083/// 23/10 Q1016=
201707191550 METAR ESMX 191550Z AUTO VRB03KT 9999 SCT054/// 23/09 Q1016=
201707191520 METAR ESMX 191520Z AUTO 16004KT 090V220 9999 FEW055/// 23/09 Q1016=
201707191450 METAR ESMX 191450Z AUTO 17004KT 110V250 9999 FEW054/// 23/08 Q1016=
201707191420 METAR ESMX 191420Z AUTO 19005KT 160V230 9999 NCD 22/09 Q1016=
201707191350 METAR ESMX 191350Z AUTO 07005KT 020V150 9999 FEW071/// 22/09 Q1016=
201707191320 METAR ESMX 191320Z AUTO 20004KT 150V230 9999 FEW054/// 23/09 Q1017=
201707191250 METAR ESMX 191250Z AUTO VRB03KT 9999 NCD 22/08 Q1017=
201707191220 METAR ESMX 191220Z AUTO 14003KT 070V220 9999 NCD 22/08 Q1017=
201707191150 METAR ESMX 191150Z AUTO VRB03KT 9999 FEW047/// 22/10 Q1018=
201707191120 METAR ESMX 191120Z AUTO 01005KT 340V060 9999 BKN044/// 20/08 Q1018=
201707191050 METAR ESMX 191050Z AUTO VRB03KT 9999 FEW038/// SCT086/// 20/09 Q1018=
201707191020 METAR ESMX 191020Z AUTO VRB02KT 9999 FEW036/// BKN041/// BKN052/// 19/10 Q1018=
201707190950 METAR ESMX 190950Z AUTO 23004KT 9999 FEW036/// SCT047/// BKN062/// 19/10 Q1018=
201707190920 METAR ESMX 190920Z AUTO VRB03KT 9999 SCT029/// 20/11 Q1018=
201707190850 METAR ESMX 190850Z AUTO 29004KT 240V330 9999 SCT028/// 19/10 Q1018=
201707190820 METAR ESMX 190820Z AUTO 05003KT 330V080 9999 NCD 19/11 Q1019=
201707190750 METAR ESMX 190750Z AUTO 03003KT 350V120 9999 NCD 18/11 Q1019=
201707190720 METAR ESMX 190720Z AUTO 29004KT 260V320 9999 NCD 17/11 Q1019=
201707190650 METAR ESMX 190650Z AUTO 31005KT 280V350 9999 NCD 16/11 Q1019=
201707190620 METAR ESMX 190620Z AUTO 28005KT 240V310 9999 NCD 15/12 Q1019=
201707190550 METAR ESMX 190550Z 27003KT 230V330 CAVOK 13/12 Q1019=
201707190520 METAR ESMX 190520Z 29004KT CAVOK 12/12 Q1019=
201707190450 METAR COR ESMX 190450Z VRB03KT CAVOK 11/11 Q1018=
201707190420 METAR COR ESMX 190420Z VRB02KT 1200 R01/P2000N R19/0650N BCFG NSC 10/09 Q1018=
201707190350 METAR ESMX 190350Z 25002KT 2100 BR VV002 09/09 Q1018=
201707190320 METAR ESMX 190320Z AUTO VRB02KT 0200 R01/0450N R19/0700N FG VV000 09/09 Q1018=
201707190250 METAR ESMX 190250Z AUTO 24003KT 0150 R01/0550N R19/0400N FG VV000 09/09 Q1018=
201707190220 METAR ESMX 190220Z AUTO 25003KT 0200 R01/0450N R19/P2000N FG VV000 09/08 Q1019=
201707190150 METAR ESMX 190150Z AUTO 23003KT 3500 NCD 09/08 Q1018=
201707190120 METAR ESMX 190120Z AUTO 26002KT 8000 BR NCD 10/10 Q1018=
201707190050 METAR ESMX 190050Z AUTO 25004KT 9999 FEW081/// 10/09 Q1018=
201707190020 METAR ESMX 190020Z AUTO VRB03KT 9999 NCD 11/10 Q1018=
201707182350 METAR ESMX 182350Z 27004KT CAVOK 11/10 Q1018=
201707182320 METAR ESMX 182320Z 27004KT CAVOK 11/10 Q1018=
201707182250 METAR COR ESMX 182250Z 25005KT CAVOK 11/10 Q1018=
201707182220 METAR ESMX 182220Z 26005KT CAVOK 12/10 Q1018=
201707182150 METAR COR ESMX 182150Z 26005KT CAVOK 12/10 Q1018=
201707182120 METAR ESMX 182120Z 25005KT CAVOK 12/10 Q1018=
201707182050 METAR ESMX 182050Z 25005KT CAVOK 13/11 Q1018=
201707182020 METAR ESMX 182020Z 22005KT CAVOK 13/10 Q1018=
201707181950 METAR ESMX 181950Z 24005KT CAVOK 14/11 Q1018=
201707181920 METAR COR ESMX 181920Z 24005KT CAVOK 15/11 Q1018=
201707181850 METAR ESMX 181850Z 25007KT CAVOK 17/11 Q1017=
201707181820 METAR ESMX 181820Z 26008KT CAVOK 17/11 Q1017=
201707181750 METAR COR ESMX 181750Z 25009KT 220V280 9999 FEW043 18/10 Q1017=
201707181720 METAR ESMX 181720Z 27010KT 230V290 9999 FEW035 SCT041 18/10 Q1017=
201707181650 METAR ESMX 181650Z 26010KT 220V290 CAVOK 19/10 Q1017=
201707181620 METAR ESMX 181620Z 27010KT 230V300 CAVOK 19/10 Q1017=
201707181550 METAR ESMX 181550Z 26010KT CAVOK 19/11 Q1017=
201707181520 METAR ESMX 181520Z 26011KT 220V290 9999 FEW036 SCT069 20/10 Q1017=
201707181450 METAR ESMX 181450Z 25010KT 9999 FEW040 BKN067 19/10 Q1017=
201707181420 METAR ESMX 181420Z 26011KT 230V290 CAVOK 19/10 Q1017=
201707181350 METAR ESMX 181350Z 27012KT 230V310 9999 FEW041 BKN063 20/10 Q1017=
201707181320 METAR ESMX 181320Z 26011KT 230V300 9999 FEW046 SCT064 20/10 Q1017=
201707181250 METAR ESMX 181250Z 27013KT 9999 FEW040 SCT062 21/10 Q1017=
201707181220 METAR ESMX 181220Z 27011KT 9999 FEW038 SCT067 20/10 Q1017=
201707181150 METAR ESMX 181150Z 27011KT 250V310 9999 FEW035 SCT040 BKN055 20/11 Q1017=
201707181120 METAR ESMX 181120Z 27011KT 240V310 9999 FEW036 SCT063 19/10 Q1017=
201707181050 METAR ESMX 181050Z 26012KT 9999 FEW032 SCT042 BKN056 18/10 Q1017=
201707181020 METAR ESMX 181020Z 24011KT 9999 FEW034 SCT058 19/10 Q1017=
201707180950 METAR ESMX 180950Z 26013KT 9999 FEW037 19/09 Q1017=
201707180920 METAR ESMX 180920Z 26011KT 230V310 9999 FEW035 SCT058 18/09 Q1017=
201707180850 METAR ESMX 180850Z 26013KT 9999 FEW036 17/08 Q1017=
201707180820 METAR ESMX 180820Z 26012KT CAVOK 17/09 Q1017=
201707180750 METAR ESMX 180750Z 27010KT 240V320 9999 SCT048 16/09 Q1017=
201707180720 METAR ESMX 180720Z 28010KT 240V320 9999 FEW019 16/11 Q1017=
201707180650 METAR ESMX 180650Z 26009KT 9999 FEW019 SCT031 14/11 Q1017=
201707180620 METAR ESMX 180620Z 26009KT 9999 BKN031 14/11 Q1017=
201707180550 METAR ESMX 180550Z 26008KT 9999 FEW031 OVC044 13/11 Q1017=
201707180520 METAR ESMX 180520Z AUTO 25008KT 9999 FEW023/// SCT037/// BKN046/// 13/11 Q1017=
201707180450 METAR ESMX 180450Z AUTO 25008KT 9999 FEW020/// OVC045/// 13/10 Q1017=
201707180420 METAR ESMX 180420Z AUTO 25007KT 220V280 9999 OVC045/// 13/10 Q1017=
201707180350 METAR ESMX 180350Z AUTO 23006KT 9999 OVC046/// 11/10 Q1016=
201707180320 METAR ESMX 180320Z AUTO 22004KT 9999 FEW049/// 09/08 Q1016=
201707180250 METAR ESMX 180250Z AUTO 23005KT 9999 FEW018/// SCT067/// 09/08 Q1016=
201707180220 METAR ESMX 180220Z AUTO 22005KT 9999 FEW017/// SCT019/// 09/08 Q1016=
201707180150 METAR ESMX 180150Z AUTO 22004KT 9999 FEW019/// 09/08 Q1016=
201707180120 METAR ESMX 180120Z AUTO 21004KT 9999 SCT020/// 10/08 Q1016=
201707180050 METAR ESMX 180050Z AUTO 24005KT 9999 NCD 11/09 Q1016=
201707180020 METAR ESMX 180020Z AUTO 25007KT 220V290 9999 NCD 11/09 Q1016=
201707172350 METAR ESMX 172350Z 25006KT 9999 FEW028 11/09 Q1016=
201707172320 METAR COR ESMX 172320Z 23006KT CAVOK 11/09 Q1016=
201707172250 METAR ESMX 172250Z AUTO 23007KT 9999 FEW059/// 12/08 Q1016=
201707172220 METAR ESMX 172220Z 26007KT CAVOK 13/08 Q1016=
201707172150 METAR ESMX 172150Z 26010KT 9999 FEW034 SCT046 BKN052 14/09 Q1016=
201707172120 METAR ESMX 172120Z 26008KT 9999 FEW028 SCT046 14/09 Q1015=
201707172050 METAR ESMX 172050Z 25009KT 9999 FEW030 SCT048 14/09 Q1015=
201707172020 METAR ESMX 172020Z 25010KT CAVOK 14/09 Q1015=
201707171950 METAR ESMX 171950Z 25009KT 9999 FEW033 SCT068 BKN080 15/09 Q1015=
201707171920 METAR COR ESMX 171920Z 25008KT 9999 FEW043 BKN074 15/09 Q1015=
201707171850 METAR ESMX 171850Z AUTO 26009KT 9999 FEW044/// SCT074/// 15/09 Q1015=
201707171820 METAR ESMX 171820Z AUTO 27007KT 9999 SCT034/// BKN042/// BKN057/// 16/09 Q1015=
201707171750 METAR ESMX 171750Z AUTO 26008KT 9999 FEW037/// SCT050/// BKN072/// 16/09 Q1015=
201707171720 METAR ESMX 171720Z AUTO 26008KT 9999 FEW040/// SCT047/// BKN053/// 16/09 Q1015=
201707171650 METAR ESMX 171650Z AUTO 27010KT 240V300 9999 FEW035/// SCT066/// 17/09 Q1015=
201707171620 METAR ESMX 171620Z 27009KT 240V310 9999 BKN036 16/09 Q1014=
201707171550 METAR ESMX 171550Z 29009KT 250V330 9999 FEW043 SCT052 BKN067 17/09 Q1014=
201707171520 METAR COR ESMX 171520Z 30011KT 9999 SCT043 BKN060 BKN074 16/09 Q1014=
201707171450 METAR ESMX 171450Z 25012G24KT 220V280 9999 FEW038 SCT058 19/09 Q1014=
201707171420 METAR ESMX 171420Z 24013KT 210V280 9999 FEW035 SCT045 BKN084 19/09 Q1014=
201707171350 METAR ESMX 171350Z 25015KT 230V300 9999 FEW040 BKN079 20/09 Q1014=
201707171320 METAR ESMX 171320Z 25012KT 200V290 9999 FEW038 BKN070 19/09 Q1014=
201707171250 METAR ESMX 171250Z 26015KT 9999 FEW037 BKN067 18/08 Q1014=
201707171220 METAR ESMX 171220Z 27013KT 9999 FEW040 SCT061 19/09 Q1014=
201707171150 METAR ESMX 171150Z AUTO 26011KT 220V290 9999 FEW041/// SCT065/// 17/08 Q1014=
201707171120 METAR ESMX 171120Z AUTO 25012KT 220V290 9999 FEW039/// SCT059/// 18/08 Q1014=
201707171050 METAR ESMX 171050Z AUTO 26014KT 230V300 9999 FEW042/// SCT065/// 18/08 Q1014=
201707171020 METAR ESMX 171020Z 26015KT 240V310 9999 FEW034 SCT056 17/08 Q1014=
201707170950 METAR ESMX 170950Z 27016KT 9999 SCT037 17/09 Q1014=
201707170920 METAR ESMX 170920Z 28012KT 240V320 9999 SCT043 17/09 Q1014=
201707170850 METAR ESMX 170850Z 29015KT 250V320 9999 FEW033 SCT042 17/08 Q1014=
201707170820 METAR COR ESMX 170820Z 29015KT 9999 FEW031 SCT040 16/09 Q1014=
201707170750 METAR ESMX 170750Z 27014KT 9999 FEW029 15/08 Q1014=
201707170720 METAR ESMX 170720Z 28016KT 9999 SCT025 15/08 Q1014=
201707170650 METAR ESMX 170650Z 28014KT 240V320 9999 SCT020 14/08 Q1013=
201707170620 METAR ESMX 170620Z 27013KT 9999 FEW018 SCT025 14/09 Q1013=
201707170550 METAR ESMX 170550Z AUTO 27010KT 240V300 9999 FEW018/// SCT021/// 13/09 Q1013=
201707170520 METAR ESMX 170520Z AUTO 27010KT 9999 NCD 13/10 Q1013=
201707170450 METAR ESMX 170450Z AUTO 27009KT 9999 FEW060/// 12/10 Q1013=
201707170420 METAR ESMX 170420Z AUTO 26008KT 9999 NCD 11/09 Q1013=
201707170350 METAR ESMX 170350Z AUTO 26006KT 9999 NCD 11/09 Q1013=
201707170320 METAR ESMX 170320Z AUTO 25006KT 9999 NCD 10/09 Q1012=
201707170250 METAR ESMX 170250Z AUTO 25007KT 9999 NCD 10/09 Q1013=
201707170220 METAR ESMX 170220Z AUTO 24006KT 9999 NCD 10/09 Q1013=
201707170150 METAR ESMX 170150Z AUTO 24007KT 9999 NCD 09/08 Q1013=
201707170120 METAR ESMX 170120Z AUTO 23006KT 9999 FEW060/// 10/09 Q1013=
201707170050 METAR ESMX 170050Z AUTO 24007KT 9999 NCD 10/09 Q1013=
201707170020 METAR ESMX 170020Z AUTO 24007KT 9999 NCD 10/09 Q1013=
201707162350 METAR ESMX 162350Z AUTO 24007KT 9999 NCD 10/09 Q1013=
201707162320 METAR ESMX 162320Z 23007KT CAVOK 10/10 Q1013=
201707162250 METAR ESMX 162250Z 23006KT CAVOK 11/10 Q1013=
201707162220 METAR ESMX 162220Z 24007KT CAVOK 11/10 Q1013=
201707162150 METAR ESMX 162150Z 24006KT 9999 FEW020 12/10 Q1013=
201707162120 METAR ESMX 162120Z 24006KT 9999 BKN025 13/11 Q1013=
201707162050 METAR ESMX 162050Z 26008KT 9999 SCT028 13/11 Q1013=
201707162020 METAR ESMX 162020Z 26009KT 9999 FEW047 13/11 Q1013=
201707161950 METAR ESMX 161950Z 26010KT 9999 FEW006 SCT019 15/13 Q1013=
201707161920 METAR ESMX 161920Z 25009G19KT 9999 FEW003 SCT007 BKN011 16/14 Q1012=
201707161850 METAR COR ESMX 161850Z 21006KT 9999 BKN003 OVC007 16/15 Q1012=
201707161820 METAR ESMX 161820Z 19009KT 9999 OVC003 16/15 Q1012=
201707161750 METAR ESMX 161750Z 20009KT 9999 OVC003 15/15 Q1013=
201707161720 METAR ESMX 161720Z 18010KT 4800 DZ OVC003 15/15 Q1013=
201707161650 METAR ESMX 161650Z AUTO 19010KT 9999 BKN002/// 15/14 Q1013=
201707161620 METAR ESMX 161620Z AUTO 19013KT 3800 DZ BKN003/// OVC005/// 15/14 Q1013=
201707161550 METAR ESMX 161550Z 19012KT 2500 -DZ FEW004 OVC005 15/14 Q1014=
201707161520 METAR ESMX 161520Z 19012KT 8000 -DZ BKN006 OVC009 15/14 Q1014=
201707161450 METAR COR ESMX 161450Z 19012KT 3800 DZ FEW002 SCT005 BKN006 15/14 Q1014=
201707161420 METAR ESMX 161420Z 18011KT 4200 DZ FEW003 SCT004 BKN006 15/14 Q1015=
201707161350 METAR ESMX 161350Z 18012KT 4800 DZ SCT005 BKN009 BKN012 15/14 Q1015=
201707161320 METAR ESMX 161320Z 18011KT 4400 DZ FEW007 SCT009 BKN012 15/14 Q1015=
201707161250 METAR ESMX 161250Z 19013KT 8000 BR FEW012 SCT018 BKN026 16/14 Q1016 REDZ=
201707161220 METAR COR ESMX 161220Z 20013KT 7000 -DZ FEW016 SCT022 BKN035 16/13 Q1016=
201707161150 METAR ESMX 161150Z 19012KT 9999 FEW019 SCT024 BKN031 16/12 Q1016=
201707161120 METAR ESMX 161120Z 20013KT 9999 FEW021 SCT027 BKN032 18/13 Q1017=
201707161050 METAR ESMX 161050Z 19010KT 9999 FEW028 SCT037 17/13 Q1017=
201707161020 METAR ESMX 161020Z 19013KT 9999 -RA FEW027 SCT033 18/11 Q1017=
201707160950 METAR COR ESMX 160950Z 19013KT 9999 -RA SCT076 18/11 Q1017=
201707160920 METAR ESMX 160920Z AUTO 20011KT 9999 FEW030/// 18/10 Q1018=
201707160850 METAR ESMX 160850Z AUTO 19013KT 9999 FEW035/// 18/10 Q1018=
201707160820 METAR ESMX 160820Z AUTO 19012KT 9999 FEW048/// 18/12 Q1018=
201707160750 METAR ESMX 160750Z AUTO 20013KT 9999 FEW020/// 17/12 Q1018=
201707160720 METAR ESMX 160720Z AUTO 19012KT 9999 NCD 18/12 Q1018=
201707160650 METAR ESMX 160650Z AUTO 20009KT 9999 NCD 17/12 Q1019=
201707160620 METAR ESMX 160620Z AUTO 19007KT 9999 NCD 16/12 Q1019=
201707160550 METAR ESMX 160550Z AUTO 19005KT 9999 NCD 15/12 Q1019=
201707160520 METAR ESMX 160520Z AUTO 20006KT 9999 NCD 14/12 Q1019=
201707160450 METAR ESMX 160450Z AUTO 19006KT 9999 NCD 14/11 Q1019=
201707160420 METAR ESMX 160420Z AUTO 20006KT 9999 FEW074/// 12/10 Q1019=
201707160350 METAR ESMX 160350Z AUTO 19004KT 9999 NCD 09/07 Q1019=
201707160320 METAR ESMX 160320Z AUTO 15003KT 9999 NCD 07/06 Q1019=
201707160250 METAR ESMX 160250Z AUTO 16003KT 9999 NCD 07/06 Q1019=
201707160220 METAR ESMX 160220Z AUTO 18003KT 9999 NCD 07/06 Q1019=
201707160150 METAR ESMX 160150Z AUTO 16003KT 9999 FEW059/// 07/05 Q1020=
201707160120 METAR ESMX 160120Z AUTO 17002KT 9999 NCD 07/06 Q1020=
201707160050 METAR ESMX 160050Z AUTO 15002KT 9999 NCD 08/06 Q1020=
201707160020 METAR ESMX 160020Z AUTO 19003KT 9999 FEW054/// 08/07 Q1020=
201707152350 METAR ESMX 152350Z AUTO 21004KT 9999 FEW048/// 08/05 Q1020=
201707152320 METAR ESMX 152320Z AUTO 21004KT 9999 NCD 09/06 Q1020=
201707152250 METAR ESMX 152250Z AUTO 21004KT 9999 NCD 11/07 Q1020=
201707152220 METAR ESMX 152220Z AUTO 23004KT 9999 NCD 12/07 Q1020=
201707152150 METAR ESMX 152150Z AUTO 22005KT 9999 FEW079/// 13/07 Q1020=
201707152120 METAR ESMX 152120Z AUTO 24005KT 9999 NCD 14/09 Q1019=
201707152050 METAR ESMX 152050Z AUTO 24005KT 9999 NCD 13/09 Q1019=
201707152020 METAR ESMX 152020Z AUTO 24003KT 9999 NCD 12/10 Q1019=
201707151950 METAR ESMX 151950Z AUTO 23003KT 9999 NCD 14/10 Q1019=
201707151920 METAR ESMX 151920Z AUTO 25003KT 9999 NCD 16/10 Q1019=
201707151850 METAR ESMX 151850Z 25004KT CAVOK 18/10 Q1019=
201707151820 METAR COR ESMX 151820Z VRB03KT CAVOK 19/10 Q1019=
201707151750 METAR ESMX 151750Z 26005KT CAVOK 18/10 Q1019=
201707151720 METAR ESMX 151720Z 26005KT CAVOK 19/09 Q1019=
201707151650 METAR ESMX 151650Z 27008KT 240V300 CAVOK 20/09 Q1019=
201707151620 METAR ESMX 151620Z 24006KT CAVOK 20/09 Q1019=
201707151550 METAR COR ESMX 151550Z 26007KT 230V290 CAVOK 20/08 Q1019=
201707151520 METAR ESMX 151520Z AUTO 26009KT 9999 SCT054/// 20/08 Q1018=
201707151450 METAR ESMX 151450Z AUTO 27007KT 230V300 9999 FEW047/// SCT055/// BKN074/// 21/09 Q1018=
201707151420 METAR ESMX 151420Z AUTO 22008KT 200V280 9999 FEW076/// 21/07 Q1018=
201707151350 METAR ESMX 151350Z AUTO 24011KT 210V280 9999 NCD 21/08 Q1018=
201707151320 METAR ESMX 151320Z AUTO 24008KT 210V290 9999 FEW068/// 21/07 Q1018=
201707151250 METAR ESMX 151250Z AUTO 28006KT 9999 FEW057/// BKN076/// 20/07 Q1018=
201707151220 METAR ESMX 151220Z AUTO 29005KT 240V020 9999 FEW062/// 21/06 Q1018=
201707151150 METAR ESMX 151150Z AUTO 28007KT 240V310 9999 FEW058/// 21/07 Q1018=
201707151120 METAR ESMX 151120Z AUTO 28008KT 240V300 9999 FEW052/// SCT073/// 20/08 Q1018=
201707151050 METAR ESMX 151050Z AUTO VRB07KT 9999 FEW047/// 20/08 Q1018=
201707151020 METAR ESMX 151020Z AUTO 30008KT 240V330 9999 NCD 20/08 Q1018=
201707150950 METAR ESMX 150950Z AUTO 32008KT 280V340 9999 FEW041/// 20/08 Q1018=
201707150920 METAR ESMX 150920Z AUTO 32008KT 270V350 9999 FEW039/// 19/08 Q1018=
201707150850 METAR ESMX 150850Z AUTO 31007KT 270V010 9999 NCD 18/09 Q1018=
201707150820 METAR ESMX 150820Z AUTO 30008KT 9999 NCD 18/09 Q1017=
201707150750 METAR ESMX 150750Z AUTO 33008KT 290V350 9999 FEW059/// 17/09 Q1017=
201707150720 METAR ESMX 150720Z AUTO 34008KT 290V010 9999 NCD 17/10 Q1017=
201707150650 METAR ESMX 150650Z AUTO 31007KT 280V340 9999 NCD 16/11 Q1017=
201707150620 METAR ESMX 150620Z AUTO 31007KT 280V340 9999 NCD 15/11 Q1017=
201707150550 METAR ESMX 150550Z AUTO 31006KT 290V350 9999 FEW055/// 14/12 Q1017=
201707150520 METAR ESMX 150520Z AUTO 32005KT 280V350 9999 NCD 13/11 Q1016=
201707150450 METAR ESMX 150450Z AUTO 32003KT 9999 NCD 12/11 Q1016=
201707150420 METAR ESMX 150420Z AUTO 28004KT 9999 FEW110/// 11/10 Q1016=
201707150350 METAR ESMX 150350Z AUTO 30004KT 6000 BCFG NCD 09/09 Q1016=
201707150320 METAR ESMX 150320Z AUTO 29004KT 0900 R01/1600N R19/P2000N BCFG NCD 08/07 Q1016=
201707150250 METAR ESMX 150250Z AUTO 28003KT 9999 NCD 07/07 Q1016=
201707150220 METAR ESMX 150220Z AUTO 28005KT 9999 FEW088/// 08/07 Q1015=
201707150150 METAR ESMX 150150Z AUTO VRB02KT 9000 BR NCD 08/07 Q1015=
201707150120 METAR ESMX 150120Z AUTO 25002KT 9999 NCD 09/08 Q1015=
201707150050 METAR ESMX 150050Z AUTO VRB01KT 9999 FEW077/// 09/09 Q1015=
201707150020 METAR ESMX 150020Z AUTO 25004KT 9999 NCD 09/08 Q1015=
201707142350 METAR ESMX 142350Z AUTO 27003KT 9999 NCD 10/09 Q1015=
201707142320 METAR ESMX 142320Z AUTO 26003KT 9999 NCD 11/10 Q1015=
201707142250 METAR ESMX 142250Z AUTO 27003KT 9999 NCD 11/10 Q1014=
201707142220 METAR ESMX 142220Z AUTO 27004KT 9999 NCD 11/09 Q1014=
201707142150 METAR ESMX 142150Z AUTO 26004KT 9999 NCD 11/09 Q1014=
201707142120 METAR ESMX 142120Z AUTO 25004KT 9999 NCD 11/09 Q1014=
201707142050 METAR ESMX 142050Z AUTO 24003KT 9999 SCT100/// 12/09 Q1014=
201707142020 METAR ESMX 142020Z AUTO 24003KT 9999 FEW100/// 13/09 Q1014=
201707141950 METAR ESMX 141950Z AUTO 27003KT 9999 NCD 14/09 Q1014=
201707141920 METAR ESMX 141920Z AUTO 27005KT 9999 FEW100/// 15/09 Q1013=
201707141850 METAR ESMX 141850Z AUTO 29008KT 9999 FEW079/// 15/08 Q1013=
201707141820 METAR ESMX 141820Z AUTO 27009KT 240V300 9999 BKN080/// 17/09 Q1013=
201707141750 METAR ESMX 141750Z AUTO 27009KT 9999 NCD 17/09 Q1013=
201707141720 METAR ESMX 141720Z AUTO 26008KT 9999 NCD 17/10 Q1013=
201707141650 METAR ESMX 141650Z AUTO 27009KT 240V320 9999 NCD 17/08 Q1013=
201707141620 METAR ESMX 141620Z AUTO 27012KT 9999 NCD 18/07 Q1013=
201707141550 METAR ESMX 141550Z 26013KT 9999 FEW042 19/08 Q1012=
201707141520 METAR ESMX 141520Z 25007KT 230V300 9999 TSRA SCT045CB BKN061 19/09 Q1012=
201707141450 METAR ESMX 141450Z 27008KT 250V320 CAVOK 20/08 Q1012=
201707141420 METAR ESMX 141420Z 28006KT 230V310 CAVOK 20/07 Q1012=
201707141350 METAR ESMX 141350Z 28005KT 250V330 CAVOK 20/07 Q1012=
201707141320 METAR ESMX 141320Z 31008KT 250V330 CAVOK 20/07 Q1012=
201707141250 METAR ESMX 141250Z 30006KT 260V340 CAVOK 19/06 Q1012=
201707141220 METAR ESMX 141220Z 30008KT 250V350 CAVOK 19/06 Q1012=
201707141150 METAR ESMX 141150Z AUTO 28009KT 9999 FEW057/// 18/06 Q1013=
201707141120 METAR ESMX 141120Z AUTO 27009KT 210V340 9999 NCD 19/06 Q1013=
201707141050 METAR ESMX 141050Z AUTO 28008KT 250V320 9999 FEW041/// 19/06 Q1013=
201707141020 METAR ESMX 141020Z 28008KT 230V320 9999 FEW038 SCT055 18/08 Q1013=
201707140950 METAR ESMX 140950Z 26008KT 210V310 9999 FEW035 18/07 Q1013=
201707140920 METAR ESMX 140920Z 25007KT 210V300 9999 FEW035 SCT051 17/08 Q1013=
201707140850 METAR ESMX 140850Z 26010KT 220V290 9999 FEW031 SCT049 16/08 Q1013=
201707140820 METAR ESMX 140820Z 26008KT 220V290 9999 SCT025 16/08 Q1013=
201707140750 METAR ESMX 140750Z 26010KT 9999 SCT020 15/09 Q1013=
201707140720 METAR ESMX 140720Z 26009KT 9999 SCT019 15/09 Q1013=
201707140650 METAR ESMX 140650Z 28009KT 250V310 9999 BKN015 14/10 Q1013=
201707140620 METAR ESMX 140620Z 24007KT 9999 BKN011 14/10 Q1013=
201707140550 METAR ESMX 140550Z AUTO 26008KT 230V290 9999 FEW008/// 13/10 Q1013=
201707140520 METAR ESMX 140520Z AUTO 26005KT 210V290 9999 FEW060/// 12/10 Q1013=
201707140450 METAR ESMX 140450Z AUTO 25004KT 210V280 9999 FEW087/// 11/09 Q1013=
201707140420 METAR ESMX 140420Z AUTO VRB03KT 9999 NCD 10/09 Q1013=
201707140350 METAR ESMX 140350Z AUTO VRB02KT 9999 NCD 08/08 Q1013=
201707140320 METAR ESMX 140320Z AUTO 22003KT 5000 FEW091/// 08/07 Q1014=
201707140250 METAR ESMX 140250Z AUTO 22003KT 9999 NCD 07/07 Q1014=
201707140220 METAR ESMX 140220Z AUTO 23004KT 9999 FEW081/// 08/07 Q1014=
201707140150 METAR ESMX 140150Z AUTO 24004KT 9999 NCD 07/06 Q1014=
201707140120 METAR ESMX 140120Z AUTO 24003KT 9999 NCD 08/07 Q1014=
201707140050 METAR ESMX 140050Z AUTO 25002KT 9999 FEW099/// 09/08 Q1014=
201707140020 METAR ESMX 140020Z AUTO 23003KT 9999 NCD 09/08 Q1014=
201707132350 METAR ESMX 132350Z 25004KT CAVOK 09/07 Q1014=
201707132320 METAR ESMX 132320Z 26004KT CAVOK 10/08 Q1014=
201707132250 METAR ESMX 132250Z 25005KT CAVOK 10/08 Q1014=
201707132220 METAR ESMX 132220Z 26005KT CAVOK 11/08 Q1014=
201707132150 METAR ESMX 132150Z AUTO 26005KT 9999 NCD 11/08 Q1014=
201707132120 METAR ESMX 132120Z 26006KT CAVOK 12/08 Q1014=
201707132050 METAR ESMX 132050Z 25006KT CAVOK 12/07 Q1014=
201707132020 METAR ESMX 132020Z 25006KT CAVOK 13/07 Q1014=
201707131950 METAR ESMX 131950Z 26006KT CAVOK 14/07 Q1014=
201707131920 METAR ESMX 131920Z 26007KT CAVOK 15/07 Q1014=
201707131850 METAR ESMX 131850Z 25008KT CAVOK 16/07 Q1013=
201707131820 METAR ESMX 131820Z 27010KT CAVOK 17/07 Q1013=
201707131750 METAR ESMX 131750Z 27010KT CAVOK 18/07 Q1013=
201707131720 METAR ESMX 131720Z 26011KT CAVOK 18/07 Q1013=
201707131650 METAR ESMX 131650Z 28012KT CAVOK 19/06 Q1013=
201707131620 METAR ESMX 131620Z 26011KT 230V300 CAVOK 19/06 Q1013=
201707131550 METAR ESMX 131550Z 27008KT 230V300 9999 -SHRA FEW030 SCT070 18/07 Q1013=
201707131520 METAR ESMX 131520Z 27011KT CAVOK 19/06 Q1013=
201707131450 METAR ESMX 131450Z 27010KT CAVOK 21/05 Q1013=
201707131420 METAR ESMX 131420Z 28010KT 240V320 CAVOK 21/04 Q1012=
201707131350 METAR ESMX 131350Z 29008KT 250V330 CAVOK 20/04 Q1013=
201707131320 METAR ESMX 131320Z 29008KT 250V320 CAVOK 19/04 Q1013=
201707131250 METAR ESMX 131250Z 28010KT 240V310 CAVOK 20/04 Q1013=
201707131220 METAR ESMX 131220Z 29010KT CAVOK 20/04 Q1013=
201707131150 METAR ESMX 131150Z 28010KT CAVOK 19/03 Q1012=
201707131120 METAR COR ESMX 131120Z 29011KT CAVOK 20/05 Q1012=
201707131050 METAR ESMX 131050Z 28009KT 250V330 CAVOK 19/04 Q1012=
201707131020 METAR ESMX 131020Z 29009KT 250V330 CAVOK 18/05 Q1012=
201707130950 METAR ESMX 130950Z AUTO 29010KT 260V330 9999 FEW052/// 19/06 Q1012=
201707130920 METAR ESMX 130920Z AUTO 28007KT 210V340 9999 FEW050/// 18/05 Q1012=
201707130850 METAR ESMX 130850Z AUTO 30010KT 260V340 9999 NCD 18/06 Q1012=
201707130820 METAR ESMX 130820Z AUTO 31009KT 260V340 9999 NCD 17/05 Q1012=
201707130750 METAR ESMX 130750Z AUTO 33010KT 290V350 9999 NCD 17/06 Q1012=
201707130720 METAR ESMX 130720Z AUTO 33011KT 9999 NCD 16/06 Q1011=
201707130650 METAR ESMX 130650Z AUTO 33011KT 9999 NCD 16/06 Q1011=
201707130620 METAR ESMX 130620Z AUTO 33010KT 9999 NCD 15/08 Q1011=
201707130550 METAR ESMX 130550Z 32007KT 290V350 CAVOK 14/08 Q1011=
201707130520 METAR ESMX 130520Z 31008KT CAVOK 13/08 Q1010=
201707130450 METAR ESMX 130450Z 31007KT CAVOK 12/08 Q1010=
201707130420 METAR ESMX 130420Z 30006KT CAVOK 11/08 Q1010=
201707130350 METAR ESMX 130350Z 29006KT CAVOK 10/08 Q1009=
201707130320 METAR ESMX 130320Z AUTO 29006KT 9999 NCD 10/08 Q1009=
201707130250 METAR ESMX 130250Z AUTO 28005KT 9999 NCD 09/08 Q1009=
201707130220 METAR ESMX 130220Z AUTO 28005KT 9999 NCD 10/08 Q1009=
201707130150 METAR ESMX 130150Z AUTO 31005KT 9999 NCD 10/08 Q1008=
201707130120 METAR ESMX 130120Z AUTO 31005KT 9999 NCD 11/09 Q1008=
201707130050 METAR ESMX 130050Z AUTO 31005KT 280V340 9999 FEW054/// 11/09 Q1008=
201707130020 METAR ESMX 130020Z AUTO 30006KT 9999 NCD 11/09 Q1008=
201707122350 METAR ESMX 122350Z 30006KT CAVOK 11/08 Q1007=
201707122320 METAR ESMX 122320Z 29005KT CAVOK 11/08 Q1007=
201707122250 METAR ESMX 122250Z 29006KT CAVOK 12/08 Q1007=
201707122220 METAR ESMX 122220Z 28005KT CAVOK 12/08 Q1007=
201707122150 METAR ESMX 122150Z 26004KT CAVOK 11/08 Q1006=
201707122120 METAR ESMX 122120Z 26005KT CAVOK 12/08 Q1006=
201707122050 METAR ESMX 122050Z 26005KT CAVOK 12/08 Q1006=
201707122020 METAR ESMX 122020Z 27004KT CAVOK 13/08 Q1006=
201707121950 METAR ESMX 121950Z 26004KT CAVOK 13/07 Q1006=
201707121920 METAR ESMX 121920Z AUTO 26004KT 9999 NCD 14/08 Q1006=
201707121850 METAR ESMX 121850Z AUTO 26005KT 9999 FEW089/// 14/07 Q1005=
201707121820 METAR ESMX 121820Z AUTO 27006KT 9999 NCD 15/07 Q1005=
201707121750 METAR ESMX 121750Z AUTO 27008KT 9999 FEW056/// 16/06 Q1005=
201707121720 METAR ESMX 121720Z AUTO 26006KT 240V300 9999 FEW041/// 17/08 Q1005=
201707121650 METAR ESMX 121650Z AUTO 27007KT 9999 FEW042/// 17/07 Q1005=
201707121620 METAR ESMX 121620Z AUTO 27008KT 230V290 9999 FEW039/// 17/07 Q1005=
201707121550 METAR ESMX 121550Z AUTO 26009KT 220V290 9999 FEW037/// 18/08 Q1005=
201707121520 METAR ESMX 121520Z AUTO 23010KT 210V280 9999 FEW031/// 18/09 Q1005=
201707121450 METAR ESMX 121450Z AUTO 24009KT 9999 FEW029/// 17/09 Q1005=
201707121420 METAR ESMX 121420Z AUTO 24009KT 9999 FEW029/// SCT036/// 17/09 Q1005=
201707121350 METAR ESMX 121350Z AUTO 25009KT 200V280 9999 FEW028/// SCT036/// 17/10 Q1005=
201707121320 METAR ESMX 121320Z AUTO 23009KT 200V260 9999 FEW034/// BKN039/// 17/10 Q1005=
201707121250 METAR ESMX 121250Z AUTO 21010KT 9999 FEW029/// SCT036/// BKN041/// 17/09 Q1005=
201707121220 METAR ESMX 121220Z AUTO 24010KT 9999 FEW029/// SCT039/// BKN043/// 17/10 Q1005=
201707121150 METAR ESMX 121150Z AUTO 24010KT 9999 FEW031/// BKN035/// BKN043/// 17/10 Q1005=
201707121120 METAR ESMX 121120Z AUTO 21011KT 9999 FEW031/// SCT054/// BKN075/// 19/10 Q1005=
201707121050 METAR ESMX 121050Z AUTO 23009KT 9999 FEW029/// BKN036/// 17/10 Q1005=
201707121020 METAR ESMX 121020Z AUTO 24011KT 9999 SCT026/// BKN034/// 18/10 Q1005=
201707120950 METAR ESMX 120950Z AUTO 23012KT 9999 FEW024/// BKN031/// 17/10 Q1005=
201707120920 METAR ESMX 120920Z AUTO 24011KT 9999 FEW027/// SCT031/// 17/10 Q1005=
201707120850 METAR ESMX 120850Z AUTO 23011KT 200V280 9999 FEW024/// SCT030/// 18/10 Q1005=
201707120820 METAR ESMX 120820Z AUTO 24011KT 210V280 9999 FEW031/// 18/11 Q1005=
201707120750 METAR ESMX 120750Z AUTO 22012KT 190V250 9999 FEW019/// SCT022/// BKN031/// 17/11 Q1005=
201707120720 METAR ESMX 120720Z AUTO 24010KT 9999 FEW017/// SCT026/// BKN032/// 16/11 Q1005=
201707120650 METAR ESMX 120650Z AUTO 24010KT 210V280 9999 FEW014/// BKN030/// 16/11 Q1005=
201707120620 METAR ESMX 120620Z AUTO 24009KT 9999 FEW012/// SCT016/// BKN031/// 15/11 Q1005=
201707120550 METAR ESMX 120550Z 23010KT 9999 FEW012 SCT019 BKN024 15/11 Q1005=
201707120520 METAR ESMX 120520Z 23008KT 9999 FEW009 SCT013 BKN019 15/12 Q1005=
201707120450 METAR ESMX 120450Z 22007KT 9999 FEW008 SCT009 BKN011 15/13 Q1005=
201707120420 METAR COR ESMX 120420Z 22006KT 9999 FEW006 14/13 Q1005=
201707120350 METAR ESMX 120350Z 22006KT 9999 FEW005 SCT007 14/12 Q1005=
201707120320 METAR ESMX 120320Z AUTO 22006KT 9999 BKN006/// 14/13 Q1005=
201707120250 METAR ESMX 120250Z AUTO 24006KT 9999 FEW007/// SCT009/// BKN011/// 14/13 Q1005=
201707120220 METAR ESMX 120220Z AUTO 22007KT 9999 FEW006/// SCT008/// BKN009/// 14/13 Q1005=
201707120150 METAR ESMX 120150Z AUTO 23008KT 9999 FEW006/// SCT008/// BKN010/// 14/13 Q1005=
201707120120 METAR ESMX 120120Z AUTO 22008KT 9999 FEW005/// SCT007/// BKN008/// 14/13 Q1005=
201707120050 METAR ESMX 120050Z AUTO 24007KT 210V270 9999 FEW005/// SCT007/// BKN009/// 15/13 Q1005=
201707120020 METAR ESMX 120020Z AUTO 23007KT 9999 SCT004/// BKN007/// 15/14 Q1006=
201707112350 METAR ESMX 112350Z 22005KT 9999 SCT006 15/14 Q1005=
201707112320 METAR ESMX 112320Z 22006KT 9999 FEW005 SCT023 15/14 Q1006=
201707112250 METAR COR ESMX 112250Z 21006KT 9999 FEW005 SCT007 15/14 Q1006=
201707112220 METAR ESMX 112220Z 22005KT CAVOK 15/14 Q1006=
201707112150 METAR ESMX 112150Z 22005KT CAVOK 15/14 Q1006=
201707112120 METAR ESMX 112120Z 22006KT CAVOK 15/14 Q1006=
201707112050 METAR ESMX 112050Z 23008KT CAVOK 16/14 Q1006=
201707112020 METAR ESMX 112020Z 22008KT CAVOK 17/14 Q1006=
201707111950 METAR ESMX 111950Z 22008KT CAVOK 18/14 Q1006=
201707111920 METAR ESMX 111920Z 24006KT 9999 FEW035 SCT085 18/13 Q1005=
201707111850 METAR ESMX 111850Z 23007KT 9999 FEW032 BKN039 19/13 Q1005=
201707111820 METAR ESMX 111820Z 23006KT 9999 FEW038 SCT053 20/12 Q1005=
201707111750 METAR ESMX 111750Z 22005KT 9999 FEW039 SCT045 BKN062 20/12 Q1005=
201707111720 METAR ESMX 111720Z 23006KT 200V260 CAVOK 20/11 Q1005=
201707111650 METAR ESMX 111650Z 26008KT 9999 FEW037 SCT086 20/11 Q1005=
201707111620 METAR ESMX 111620Z 26009KT 230V290 9999 FEW042 21/12 Q1005=
201707111550 METAR ESMX 111550Z 27010KT 9999 FEW045 22/11 Q1005=
201707111520 METAR ESMX 111520Z 23010KT 9999 SCT045 22/11 Q1005=
201707111450 METAR ESMX 111450Z 27009KT 220V300 CAVOK 23/10 Q1005=
201707111420 METAR ESMX 111420Z 26008KT 220V300 CAVOK 24/11 Q1005=
201707111350 METAR ESMX 111350Z AUTO 25010KT 9999 NCD 23/09 Q1005=
201707111320 METAR ESMX 111320Z AUTO 28009KT 240V320 9999 NCD 23/09 Q1005=
201707111250 METAR ESMX 111250Z AUTO 25008KT 210V280 9999 FEW051/// 22/09 Q1005=
201707111220 METAR ESMX 111220Z AUTO 23009KT 200V290 9999 FEW046/// 23/11 Q1005=
201707111150 METAR ESMX 111150Z AUTO 28009KT 210V320 9999 SCT043/// 21/11 Q1005=
201707111120 METAR ESMX 111120Z AUTO 27008KT 240V310 9999 SCT043/// 21/10 Q1005=
201707111050 METAR ESMX 111050Z AUTO 25007KT 210V300 9999 FEW039/// BKN043/// 21/11 Q1005=
201707111020 METAR ESMX 111020Z AUTO 27006KT 220V320 9999 FEW038/// 21/11 Q1005=
201707110950 METAR ESMX 110950Z AUTO 27009KT 220V280 9999 FEW035/// SCT044/// 21/12 Q1005=
201707110920 METAR ESMX 110920Z AUTO 28006KT 230V330 9999 FEW029/// 21/12 Q1005=
201707110850 METAR ESMX 110850Z AUTO 26006KT 210V340 9999 FEW027/// 20/13 Q1005=
201707110820 METAR ESMX 110820Z 29008KT 9999 SCT025 19/13 Q1005=
201707110750 METAR ESMX 110750Z 30004KT 260V360 9999 SCT019 19/14 Q1005=
201707110720 METAR ESMX 110720Z 29003KT 220V350 9999 FEW010 18/13 Q1005=
201707110650 METAR ESMX 110650Z 29004KT 240V330 9999 FEW007 17/14 Q1005=
201707110620 METAR ESMX 110620Z VRB03KT 9999 FEW006 SCT058 16/13 Q1005=
201707110550 METAR ESMX 110550Z VRB02KT 9999 FEW008 BKN067 15/13 Q1005=
201707110520 METAR ESMX 110520Z AUTO VRB01KT 9999 FEW033/// SCT066/// 15/12 Q1005=
201707110450 METAR ESMX 110450Z AUTO 00000KT 9999 SCT083/// 15/13 Q1005 RESHGS=
201707110420 METAR ESMX 110420Z AUTO VRB02KT 9999 -RA NCD 14/13 Q1006=
201707110350 METAR ESMX 110350Z AUTO 21003KT 9999 -RA FEW060/// 13/13 Q1005=
201707110320 METAR ESMX 110320Z AUTO 00000KT 9999 FEW095/// 13/12 Q1005=
201707110250 METAR ESMX 110250Z AUTO 00000KT 9000 BR FEW078/// 13/12 Q1005=
201707110220 METAR ESMX 110220Z AUTO 00000KT 9999 FEW076/// 13/12 Q1005=
201707110150 METAR ESMX 110150Z AUTO 19002KT 9999 FEW054/// BKN066/// 13/12 Q1006 REDZ=
201707110120 METAR ESMX 110120Z AUTO 07003KT 9999 -DZ FEW054/// SCT069/// 13/12 Q1006=
201707110050 METAR ESMX 110050Z AUTO VRB02KT 9999 -RA FEW028/// 13/12 Q1006=
201707110020 METAR ESMX 110020Z AUTO 00000KT 9999 -DZ SCT079/// 13/11 Q1006=
201707102350 METAR ESMX 102350Z 00000KT CAVOK 14/12 Q1007=
201707102320 METAR COR ESMX 102320Z 00000KT CAVOK 13/12 Q1007=
201707102250 METAR ESMX 102250Z 00000KT CAVOK 14/11 Q1007=
201707102220 METAR ESMX 102220Z VRB02KT CAVOK 15/11 Q1007=
201707102150 METAR ESMX 102150Z VRB02KT CAVOK 15/11 Q1007=
201707102120 METAR ESMX 102120Z 16004KT CAVOK 16/11 Q1008=
201707102050 METAR COR ESMX 102050Z 15005KT 120V180 CAVOK 16/11 Q1008=
201707102020 METAR ESMX 102020Z 15006KT CAVOK 17/10 Q1008=
201707101950 METAR ESMX 101950Z 16006KT CAVOK 17/11 Q1008=
201707101920 METAR COR ESMX 101920Z 16005KT CAVOK 17/12 Q1008=
201707101850 METAR ESMX 101850Z AUTO 14003KT 9999 NCD 17/12 Q1008=
201707101820 METAR ESMX 101820Z AUTO 17002KT 9999 NCD 17/12 Q1008=
201707101750 METAR ESMX 101750Z AUTO 19003KT 9999 NCD 18/12 Q1008=
201707101720 METAR ESMX 101720Z AUTO 20004KT 9999 NCD 19/12 Q1008=
201707101650 METAR ESMX 101650Z AUTO 21004KT 9999 NCD 19/12 Q1008=
201707101620 METAR ESMX 101620Z 17006KT CAVOK 20/11 Q1008=
201707101550 METAR ESMX 101550Z 17007KT CAVOK 20/11 Q1009=
201707101520 METAR ESMX 101520Z 17007KT CAVOK 21/11 Q1009=
201707101450 METAR ESMX 101450Z 17007KT CAVOK 21/11 Q1009=
201707101420 METAR ESMX 101420Z 17007KT CAVOK 21/11 Q1009=
201707101350 METAR ESMX 101350Z 16006KT 130V190 CAVOK 22/10 Q1009=
201707101320 METAR ESMX 101320Z 15007KT 070V180 9999 FEW042 22/10 Q1010=
201707101250 METAR ESMX 101250Z 19008KT 9999 FEW040 21/11 Q1010=
201707101220 METAR ESMX 101220Z 17007KT 150V220 CAVOK 21/11 Q1010=
201707101150 METAR COR ESMX 101150Z 17007KT 130V210 CAVOK 21/11 Q1010=
201707101120 METAR ESMX 101120Z AUTO 17006KT 130V200 9999 NCD 21/12 Q1011=
201707101050 METAR ESMX 101050Z AUTO 17006KT 9999 NCD 20/10 Q1011=
201707101020 METAR ESMX 101020Z 18005KT 140V210 CAVOK 20/11 Q1011=
201707100950 METAR ESMX 100950Z VRB03KT CAVOK 20/11 Q1011=
201707100920 METAR ESMX 100920Z 15005KT 080V180 CAVOK 19/11 Q1011=
201707100850 METAR ESMX 100850Z 21004KT 160V280 CAVOK 18/10 Q1012=
201707100820 METAR ESMX 100820Z 14005KT 100V180 CAVOK 18/10 Q1012=
201707100750 METAR ESMX 100750Z 12004KT 070V170 CAVOK 18/09 Q1012=
201707100720 METAR ESMX 100720Z VRB03KT CAVOK 17/11 Q1012=
201707100650 METAR ESMX 100650Z 14003KT 040V190 CAVOK 16/10 Q1012=
201707100620 METAR ESMX 100620Z 15003KT 060V210 CAVOK 16/11 Q1012=
201707100550 METAR ESMX 100550Z AUTO VRB02KT 9999 NCD 16/11 Q1012=
201707100520 METAR ESMX 100520Z AUTO 15003KT 9999 NCD 14/11 Q1013=
201707100450 METAR ESMX 100450Z AUTO VRB03KT 9999 NCD 13/11 Q1013=
201707100420 METAR ESMX 100420Z AUTO 12003KT 9999 NCD 11/10 Q1012=
201707100350 METAR ESMX 100350Z AUTO 00000KT 9999 FEW093/// 08/07 Q1012=
201707100320 METAR ESMX 100320Z AUTO 19002KT 9999 BCFG NCD 06/06 Q1012=
201707100250 METAR ESMX 100250Z AUTO 00000KT 7000 NCD 06/06 Q1012=
201707100220 METAR ESMX 100220Z AUTO 16002KT 0200 R01/0400N R19/P2000D BCFG FEW110/// 07/07 Q1012=
201707100150 METAR ESMX 100150Z AUTO 00000KT 0200 R01/P2000N R19/P2000N FG NCD 07/06 Q1013=
201707100120 METAR ESMX 100120Z AUTO 19002KT 9999 NCD 07/06 Q1013=
201707100050 METAR ESMX 100050Z AUTO 24002KT 9999 NCD 09/08 Q1013=
201707100020 METAR ESMX 100020Z AUTO 24002KT 9999 NCD 10/09 Q1013=
201707092350 METAR ESMX 092350Z 26002KT CAVOK 09/08 Q1013=
201707092320 METAR ESMX 092320Z VRB02KT CAVOK 10/09 Q1013=
201707092250 METAR ESMX 092250Z 25002KT CAVOK 10/08 Q1013=
201707092220 METAR ESMX 092220Z 23003KT CAVOK 11/10 Q1013=
201707092150 METAR ESMX 092150Z VRB02KT CAVOK 12/10 Q1013=
201707092120 METAR ESMX 092120Z VRB02KT CAVOK 12/10 Q1013=
201707092050 METAR ESMX 092050Z 22003KT CAVOK 13/10 Q1013=
201707092020 METAR ESMX 092020Z 25004KT CAVOK 14/10 Q1013=
201707091950 METAR ESMX 091950Z 24004KT CAVOK 15/10 Q1013=
201707091920 METAR ESMX 091920Z 26005KT CAVOK 16/11 Q1013=
201707091850 METAR ESMX 091850Z 26007KT CAVOK 17/11 Q1012=
201707091820 METAR ESMX 091820Z 25007KT CAVOK 18/11 Q1012=
201707091750 METAR ESMX 091750Z 27009KT CAVOK 19/10 Q1012=
201707091720 METAR ESMX 091720Z 27009KT 240V310 CAVOK 19/11 Q1012=
201707091650 METAR ESMX 091650Z AUTO 25009KT 220V310 9999 NCD 20/10 Q1012=
201707091620 METAR ESMX 091620Z 28009KT 240V300 CAVOK 20/10 Q1012=
201707091550 METAR COR ESMX 091550Z 28010KT 250V310 CAVOK 21/10 Q1012=
201707091520 METAR COR ESMX 091520Z 28010KT 240V320 CAVOK 21/10 Q1012=
201707091450 METAR ESMX 091450Z 26009KT 230V300 CAVOK 21/09 Q1012=
201707091420 METAR ESMX 091420Z 28009KT 240V320 CAVOK 21/09 Q1012=
201707091350 METAR COR ESMX 091350Z 30010KT 250V340 CAVOK 21/09 Q1012=
201707091320 METAR ESMX 091320Z 28009KT 240V340 CAVOK 21/07 Q1012=
201707091250 METAR ESMX 091250Z 27008KT 230V300 CAVOK 20/08 Q1012=
201707091220 METAR ESMX 091220Z 26008KT 220V300 CAVOK 20/08 Q1012=
201707091150 METAR ESMX 091150Z 28008KT 240V320 9999 FEW031 19/10 Q1012=
201707091120 METAR ESMX 091120Z 26007KT 210V300 9999 FEW030 19/11 Q1012=
201707091050 METAR ESMX 091050Z 24006KT 190V300 9999 FEW027 17/10 Q1012=
201707091020 METAR ESMX 091020Z 27008KT 230V310 9999 SCT025 17/10 Q1012=
201707090950 METAR COR ESMX 090950Z 24009KT 210V290 9999 BKN021 16/10 Q1012=
201707090920 METAR ESMX 090920Z AUTO 25009KT 220V290 9999 OVC020/// 15/09 Q1012=
201707090850 METAR ESMX 090850Z AUTO 27009KT 240V310 9999 OVC019/// 15/09 Q1012=
201707090820 METAR ESMX 090820Z AUTO 27007KT 240V300 9999 FEW017/// OVC022/// 14/09 Q1012=
201707090750 METAR ESMX 090750Z AUTO 26007KT 230V290 9999 FEW017/// OVC022/// 13/09 Q1011=
201707090720 METAR ESMX 090720Z AUTO 27009KT 9999 FEW016/// OVC020/// 13/09 Q1011=
201707090650 METAR ESMX 090650Z AUTO 25008KT 9999 FEW014/// SCT019/// OVC025/// 14/10 Q1011=
201707090620 METAR ESMX 090620Z AUTO 28009KT 240V300 9999 FEW012/// SCT016/// BKN027/// 13/10 Q1011=
201707090550 METAR ESMX 090550Z AUTO 26008KT 220V290 9999 FEW012/// SCT015/// BKN024/// 13/10 Q1011=
201707090520 METAR ESMX 090520Z AUTO 26007KT 9999 BKN025/// 12/09 Q1011=
201707090450 METAR ESMX 090450Z AUTO 22005KT 9999 NCD 12/09 Q1011=
201707090420 METAR ESMX 090420Z AUTO 21004KT 9999 SCT024/// 11/09 Q1011=
201707090350 METAR ESMX 090350Z AUTO 22005KT 9999 BKN023/// 10/09 Q1011=
201707090320 METAR ESMX 090320Z AUTO 20004KT 9999 BKN020/// 09/09 Q1011=
201707090250 METAR ESMX 090250Z AUTO 22005KT 9999 NCD 08/07 Q1011=
201707090220 METAR ESMX 090220Z AUTO 22004KT 9999 NCD 08/07 Q1011=
201707090150 METAR ESMX 090150Z AUTO 21003KT 9999 NCD 07/07 Q1011=
201707090120 METAR ESMX 090120Z AUTO VRB02KT 9999 NCD 08/07 Q1010=
201707090050 METAR ESMX 090050Z AUTO 25004KT 9999 NCD 10/08 Q1011=
201707090020 METAR ESMX 090020Z AUTO VRB02KT 9999 NCD 10/08 Q1011=
201707082350 METAR ESMX 082350Z AUTO 27004KT 9999 NCD 11/09 Q1011=
201707082320 METAR ESMX 082320Z AUTO 27007KT 9999 FEW082/// 11/09 Q1011=
201707082250 METAR ESMX 082250Z AUTO 26007KT 9999 NCD 12/09 Q1011=
201707082220 METAR ESMX 082220Z AUTO 26009KT 9999 FEW066/// 12/10 Q1011=
201707082150 METAR ESMX 082150Z AUTO 25007KT 9999 NCD 13/10 Q1010=
201707082120 METAR ESMX 082120Z AUTO 25010KT 9999 NCD 13/11 Q1010=
201707082050 METAR ESMX 082050Z AUTO 26006KT 9999 NCD 14/12 Q1010=
201707082020 METAR ESMX 082020Z AUTO 25005KT 9999 NCD 13/11 Q1010=
201707081950 METAR ESMX 081950Z AUTO 22003KT 9999 NCD 14/12 Q1010=
201707081920 METAR ESMX 081920Z AUTO 26004KT 9999 NCD 15/12 Q1010=
201707081850 METAR ESMX 081850Z 27007KT CAVOK 16/11 Q1009=
201707081820 METAR ESMX 081820Z 27008KT 9999 FEW023 17/11 Q1009=
201707081750 METAR ESMX 081750Z 27009KT 240V300 9999 FEW023 17/12 Q1009=
201707081720 METAR ESMX 081720Z 25009KT 9999 SCT048 18/12 Q1009=
201707081650 METAR ESMX 081650Z 25009KT 230V290 9999 FEW042 18/13 Q1009=
201707081620 METAR ESMX 081620Z 26009KT 9999 FEW028 SCT044 19/13 Q1009=
201707081550 METAR COR ESMX 081550Z 25008KT 9999 FEW029 SCT055 19/13 Q1009=
201707081520 METAR ESMX 081520Z AUTO 27008KT 9999 FEW031/// SCT037/// BKN048/// 18/13 Q1009=
201707081450 METAR ESMX 081450Z AUTO 25010KT 220V280 9999 FEW035/// 19/14 Q1009=
201707081420 METAR ESMX 081420Z AUTO 26009KT 220V310 9999 FEW021/// 19/15 Q1009=
201707081350 METAR ESMX 081350Z AUTO 26007KT 220V280 9999 -RA FEW059/// 18/16 Q1009 RERA=
201707081320 METAR ESMX 081320Z AUTO 29008KT 9999 -RA FEW010/// SCT035/// BKN049/// 17/15 Q1009=
201707081250 METAR ESMX 081250Z AUTO 28005KT 240V320 9999 FEW020/// SCT038/// 18/15 Q1009=
201707081220 METAR ESMX 081220Z AUTO 27004KT 210V310 9999 FEW034/// 17/15 Q1009 RERA=
201707081150 METAR ESMX 081150Z AUTO 28005KT 240V300 6000 RA FEW009/// SCT025/// BKN056/// 16/14 Q1010 REDZ=
201707081120 METAR ESMX 081120Z AUTO 25005KT 190V320 9999 FEW012/// SCT020/// BKN025/// 18/13 Q1009=
201707081050 METAR ESMX 081050Z AUTO 25006KT 200V290 9999 FEW009/// SCT018/// BKN021/// 17/15 Q1009=
201707081020 METAR ESMX 081020Z AUTO 27006KT 240V300 9999 FEW007/// SCT010/// OVC016/// 17/14 Q1010=
201707080950 METAR ESMX 080950Z AUTO 27004KT 240V300 9999 FEW007/// SCT014/// BKN017/// 16/14 Q1010=
201707080920 METAR ESMX 080920Z AUTO 28005KT 9999 FEW003/// SCT004/// BKN008/// 16/14 Q1010=
201707080850 METAR ESMX 080850Z AUTO VRB02KT 9999 -RA BKN003/// 15/13 Q1009=
201707080820 METAR ESMX 080820Z AUTO 00000KT 9999 -RA FEW004/// SCT009/// BKN011/// 15/13 Q1009=
201707080750 METAR ESMX 080750Z AUTO VRB03KT 9999 -RA FEW004/// SCT010/// BKN013/// 15/13 Q1010=
201707080720 METAR ESMX 080720Z AUTO 26006KT 240V300 7000 RA FEW005/// SCT016/// BKN028/// 15/14 Q1010 REDZ=
201707080650 METAR ESMX 080650Z AUTO 25006KT 9999 -DZ FEW003/// SCT008/// BKN024/// 15/14 Q1010=
201707080620 METAR ESMX 080620Z AUTO 19003KT 9999 FEW003/// BKN040/// 15/14 Q1009=
201707080550 METAR ESMX 080550Z AUTO 18004KT 9999 FEW027/// BKN041/// BKN059/// 15/14 Q1010=
201707080520 METAR ESMX 080520Z AUTO VRB03KT 9999 BKN033/// BKN041/// 15/14 Q1010=
201707080450 METAR ESMX 080450Z AUTO VRB01KT 9999 FEW001/// SCT003/// BKN053/// 15/14 Q1010=
201707080420 METAR ESMX 080420Z AUTO 30002KT 9999 FEW002/// BKN007/// BKN055/// 14/14 Q1010=
201707080350 METAR ESMX 080350Z AUTO 21003KT 180V250 9999 BR FEW000/// SCT027/// BKN067/// 14/13 Q1010=
201707080320 METAR ESMX 080320Z AUTO 22004KT 6000 -RA FEW001/// SCT018/// 15/14 Q1010=
201707080250 METAR ESMX 080250Z AUTO 21004KT 4900 RA BKN001/// 15/14 Q1011 RESHRA=
201707080220 METAR ESMX 080220Z AUTO 18005KT 4200 -RA FEW001/// SCT027/// 15/14 Q1011=
201707080150 METAR ESMX 080150Z AUTO 19005KT 5000 -RA BKN002/// BKN007/// 15/14 Q1011 RERA=
201707080120 METAR ESMX 080120Z AUTO 16004KT 7000 BR OVC002/// 15/14 Q1011=
201707080050 METAR ESMX 080050Z AUTO 15004KT 7000 -RA FEW010/// BKN028/// 15/14 Q1011 RERA=
201707080020 METAR ESMX 080020Z AUTO 18005KT 2600 RA FEW002/// SCT005/// BKN020/// 15/14 Q1011=
201707072350 METAR ESMX 072350Z AUTO VRB03KT 9999 -RA SCT005/// BKN025/// OVC046/// 15/14 Q1012=
201707072320 METAR ESMX 072320Z AUTO 16004KT 9999 BKN048/// 15/14 Q1012=
201707072250 METAR ESMX 072250Z AUTO VRB03KT 9999 BKN048/// BKN069/// 15/14 Q1012=
201707072220 METAR ESMX 072220Z AUTO 17003KT 9999 BKN040/// 15/14 Q1012=
201707072150 METAR ESMX 072150Z AUTO 18003KT 9999 FEW039/// BKN050/// 15/14 Q1013=
201707072120 METAR ESMX 072120Z AUTO 15003KT 9999 FEW076/// 15/14 Q1012=
201707072050 METAR ESMX 072050Z AUTO 16003KT 9999 -RA SCT051/// 16/15 Q1012 RERA=
201707072020 METAR ESMX 072020Z AUTO 19003KT 9999 FEW017/// BKN047/// BKN059/// 16/15 Q1012 RERA=
201707071950 METAR ESMX 071950Z AUTO 19003KT 9999 FEW038/// BKN043/// 16/15 Q1013=
201707071920 METAR ESMX 071920Z AUTO 19005KT 140V210 9999 -RA FEW027/// SCT036/// BKN054/// 16/15 Q1012=
201707071850 METAR ESMX 071850Z AUTO 16008KT 9999 -RA FEW045/// SCT052/// 18/13 Q1012=
201707071820 METAR ESMX 071820Z AUTO 18009KT 9999 FEW047/// BKN062/// 18/13 Q1012=
201707071750 METAR ESMX 071750Z 17005KT CAVOK 19/11 Q1012=
201707071720 METAR ESMX 071720Z 17007KT 9999 FEW043 BKN054 19/11 Q1012=
201707071650 METAR ESMX 071650Z 16006KT 120V190 9999 FEW044 BKN054 20/12 Q1012=
201707071620 METAR ESMX 071620Z 16005KT 120V190 9999 FEW042 20/11 Q1013=
201707071550 METAR ESMX 071550Z 17005KT 140V220 9999 FEW038 20/10 Q1013=
201707071520 METAR ESMX 071520Z 15006KT 100V190 9999 BKN042 21/11 Q1013=
201707071450 METAR ESMX 071450Z 15006KT 110V210 9999 FEW044 SCT100 21/11 Q1013=
201707071420 METAR ESMX 071420Z 19008KT 140V230 CAVOK 21/11 Q1013=
201707071350 METAR ESMX 071350Z 14007KT 100V180 9999 FEW041 SCT069 20/10 Q1013=
201707071320 METAR ESMX 071320Z 17009KT 140V210 9999 SCT040 BKN048 19/09 Q1014=
201707071250 METAR ESMX 071250Z VRB06KT 9999 FEW041 SCT069 BKN085 20/09 Q1014=
201707071220 METAR ESMX 071220Z 15006KT 090V190 9999 FEW045 BKN068 19/10 Q1014=
201707071150 METAR ESMX 071150Z 15006KT 110V180 9999 FEW046 SCT073 19/10 Q1014=
201707071120 METAR ESMX 071120Z 17006KT 110V200 9999 FEW046 SCT069 18/09 Q1014=
201707071050 METAR ESMX 071050Z 17005KT 140V200 CAVOK 18/10 Q1015=
201707071020 METAR ESMX 071020Z 16005KT 100V200 9999 FEW037 SCT068 18/09 Q1015=
201707070950 METAR ESMX 070950Z 18004KT 120V220 CAVOK 17/09 Q1015=
201707070920 METAR ESMX 070920Z 14004KT 110V200 CAVOK 17/08 Q1015=
201707070850 METAR ESMX 070850Z 15003KT 080V190 CAVOK 17/09 Q1015=
201707070820 METAR ESMX 070820Z 15004KT 110V170 CAVOK 16/10 Q1015=
201707070750 METAR ESMX 070750Z VRB02KT CAVOK 16/10 Q1015=
201707070720 METAR ESMX 070720Z VRB02KT CAVOK 16/10 Q1015=
201707070650 METAR ESMX 070650Z 15003KT CAVOK 15/10 Q1015=
201707070620 METAR ESMX 070620Z 17004KT CAVOK 15/10 Q1016=
201707070550 METAR ESMX 070550Z 18004KT CAVOK 14/10 Q1016=
201707070520 METAR ESMX 070520Z 15003KT CAVOK 14/09 Q1016=
201707070450 METAR ESMX 070450Z 00000KT CAVOK 12/10 Q1016=
201707070420 METAR ESMX 070420Z 18002KT CAVOK 11/09 Q1016=
201707070350 METAR ESMX 070350Z 00000KT CAVOK 11/08 Q1016=
201707070320 METAR ESMX 070320Z AUTO 00000KT 9999 BKN085/// 11/08 Q1016=
201707070250 METAR ESMX 070250Z AUTO 00000KT 9999 SCT088/// 11/08 Q1016=
201707070220 METAR ESMX 070220Z AUTO VRB02KT 9999 SCT090/// 12/07 Q1017=
201707070150 METAR ESMX 070150Z AUTO 15006KT 9999 NCD 12/07 Q1017=
201707070120 METAR ESMX 070120Z AUTO 18004KT 9999 FEW059/// 11/07 Q1017=
201707070050 METAR ESMX 070050Z AUTO 14004KT 9999 NCD 12/05 Q1017=
201707070020 METAR ESMX 070020Z AUTO 15002KT 9999 FEW100/// 11/06 Q1017=
201707062350 METAR ESMX 062350Z 00000KT CAVOK 11/06 Q1017=
201707062320 METAR ESMX 062320Z 22002KT CAVOK 11/06 Q1017=
201707062250 METAR ESMX 062250Z 27002KT CAVOK 11/06 Q1018=
201707062220 METAR ESMX 062220Z 22003KT CAVOK 13/05 Q1018=
201707062150 METAR ESMX 062150Z 23004KT CAVOK 12/05 Q1018=
201707062120 METAR ESMX 062120Z 23004KT CAVOK 13/04 Q1018=
201707062050 METAR ESMX 062050Z 23004KT CAVOK 14/04 Q1018=
201707062020 METAR ESMX 062020Z 22005KT CAVOK 14/05 Q1018=
201707061950 METAR ESMX 061950Z 26007KT CAVOK 16/07 Q1018=
201707061920 METAR ESMX 061920Z 26006KT CAVOK 17/09 Q1017=
201707061850 METAR ESMX 061850Z 19005KT CAVOK 18/09 Q1017=
201707061820 METAR ESMX 061820Z 17005KT CAVOK 19/07 Q1017=
201707061750 METAR ESMX 061750Z 20006KT CAVOK 19/06 Q1017=
201707061720 METAR ESMX 061720Z 19006KT 160V240 CAVOK 21/04 Q1017=
201707061650 METAR ESMX 061650Z 19005KT 140V240 CAVOK 21/06 Q1017=
201707061620 METAR ESMX 061620Z 18004KT 140V230 CAVOK 21/05 Q1017=
201707061550 METAR ESMX 061550Z 19005KT 150V220 CAVOK 21/06 Q1018=
201707061520 METAR ESMX 061520Z 23005KT 210V280 CAVOK 20/06 Q1018=
201707061450 METAR ESMX 061450Z 20006KT 170V240 CAVOK 20/06 Q1018=
201707061420 METAR ESMX 061420Z 18006KT 120V240 CAVOK 21/06 Q1018=
201707061350 METAR ESMX 061350Z 21004KT 170V250 CAVOK 20/04 Q1018=
201707061320 METAR ESMX 061320Z 22006KT 190V250 CAVOK 21/04 Q1018=
201707061250 METAR ESMX 061250Z 17003KT 110V260 CAVOK 20/03 Q1019=
201707061220 METAR ESMX 061220Z 21004KT 170V250 CAVOK 21/05 Q1019=
201707061150 METAR ESMX 061150Z 21004KT 180V250 CAVOK 20/04 Q1019=
201707061120 METAR ESMX 061120Z 05003KT 010V110 CAVOK 19/03 Q1019=
201707061050 METAR ESMX 061050Z 04004KT 350V130 CAVOK 20/05 Q1019=
201707061020 METAR ESMX 061020Z VRB03KT CAVOK 19/04 Q1019=
201707060950 METAR ESMX 060950Z 32004KT 250V010 9999 FEW053 19/01 Q1019=
201707060920 METAR ESMX 060920Z VRB03KT 9999 FEW045 18/04 Q1019=
201707060850 METAR ESMX 060850Z VRB03KT 9999 FEW046 18/07 Q1019=
201707060820 METAR ESMX 060820Z VRB03KT CAVOK 17/08 Q1019=
201707060750 METAR ESMX 060750Z VRB03KT CAVOK 16/10 Q1019=
201707060720 METAR ESMX 060720Z VRB01KT CAVOK 14/12 Q1019=
201707060650 METAR ESMX 060650Z VRB02KT 9999 FEW005 13/13 Q1019=
201707060620 METAR ESMX 060620Z 29003KT 240V340 9999 SCT010 11/11 Q1019=
201707060550 METAR ESMX 060550Z 27003KT 240V020 1000 R01/1000N R19/1500D FG VV001 11/10 Q1018=
201707060520 METAR ESMX 060520Z 27004KT 0250 R01/0500N R19/0500N FG VV001 11/10 Q1018=
201707060450 METAR ESMX 060450Z 30003KT 280V340 0200 R01/0450N R19/0400N FG VV001 10/10 Q1018=
201707060420 METAR ESMX 060420Z VRB03KT 0300 R01/0450N R19/P2000D FG VV002 10/09 Q1018=
201707060350 METAR ESMX 060350Z 26002KT 9999 BCFG SCT002 07/06 Q1018=
201707060320 METAR ESMX 060320Z AUTO 00000KT 9999 BCFG SCT005/// 06/05 Q1017=
201707060250 METAR ESMX 060250Z AUTO 00000KT 0300 R01/0700N R19/P2000N FEW074/// 06/05 Q1017=
201707060220 METAR ESMX 060220Z AUTO 19003KT 1600 BCFG FEW076/// 06/06 Q1017=
201707060150 METAR ESMX 060150Z AUTO 00000KT 0250 R01/P2000N R19/0800N BCFG FEW076/// 06/05 Q1017=
201707060120 METAR ESMX 060120Z AUTO 00000KT 0350 R01/P2000N R19/1000N BCFG FEW066/// 07/06 Q1017=
201707060050 METAR ESMX 060050Z AUTO 00000KT 0200 R01/P2000N R19/0600N NCD 08/08 Q1017=
201707060020 METAR ESMX 060020Z AUTO 22004KT 9000 NCD 08/07 Q1017=
201707052350 METAR ESMX 052350Z 22006KT CAVOK 09/08 Q1017=
201707052320 METAR ESMX 052320Z 22005KT CAVOK 08/08 Q1016=
201707052250 METAR COR ESMX 052250Z 24005KT 9999 BCFG NSC 09/09 Q1016=
201707052220 METAR ESMX 052220Z 22006KT 9999 BCFG NSC 10/09 Q1016=
201707052150 METAR ESMX 052150Z 21004KT 9999 BCFG NSC 09/08 Q1017=
201707052120 METAR ESMX 052120Z VRB02KT 9999 R01/P2000N R19/P2000N BCFG NSC 10/10 Q1017=
201707052050 METAR ESMX 052050Z 00000KT 9999 R01/P2000N R19/1500N BCFG SCT048 09/09 Q1017=
201707052020 METAR ESMX 052020Z 21002KT 9999 R01/P2000N R19/0250N MIFG NSC 10/10 Q1017=
201707051950 METAR ESMX 051950Z 21003KT 9999 R01/P2000N R19/0350N MIFG NSC 11/10 Q1016=
201707051920 METAR ESMX 051920Z 22003KT CAVOK 12/10 Q1016=
201707051850 METAR ESMX 051850Z VRB01KT CAVOK 13/11 Q1016=
201707051820 METAR ESMX 051820Z 35002KT CAVOK 13/11 Q1016=
201707051750 METAR ESMX 051750Z VRB03KT CAVOK 13/11 Q1016=
201707051720 METAR ESMX 051720Z 04006KT 9999 FEW020 13/11 Q1016=
201707051650 METAR ESMX 051650Z 02013KT 9999 -RA FEW027 SCT062 11/10 Q1016=
201707051620 METAR ESMX 051620Z 35012KT 9999 TSRA SCT025CB 12/10 Q1017=
201707051550 METAR ESMX 051550Z 33018KT 9999 TSRA FEW024 BKN060CB 13/08 Q1016=
201707051520 METAR ESMX 051520Z 31005KT 9999 VCSH FEW050TCU 19/06 Q1014=
201707051450 METAR ESMX 051450Z 30005KT 260V340 9999 VCSH FEW047TCU 21/05 Q1014=
201707051420 METAR ESMX 051420Z 30004KT 220V350 CAVOK 20/06 Q1014=
201707051350 METAR ESMX 051350Z 21004KT 120V240 CAVOK 19/06 Q1014=
201707051320 METAR ESMX 051320Z VRB02KT 9999 VCSH FEW021 18/06 Q1015=
201707051250 METAR ESMX 051250Z 26003KT 220V320 9999 -RA FEW067CB 16/06 Q1015=
201707051220 METAR ESMX 051220Z 02010KT 9999 FEW054CB 16/06 Q1015=
201707051150 METAR ESMX 051150Z 34011KT 9999 SCT058CB 17/07 Q1015=
201707051120 METAR ESMX 051120Z VRB03G14KT CAVOK 20/06 Q1015=
201707051050 METAR ESMX 051050Z AUTO 24006KT 150V300 9999 NCD 20/08 Q1015=
201707051020 METAR ESMX 051020Z AUTO 27004KT 230V300 9999 FEW077/// 19/08 Q1015=
201707050950 METAR ESMX 050950Z AUTO 28004KT 220V360 9999 FEW038/// SCT098/// 18/07 Q1015=
201707050920 METAR ESMX 050920Z AUTO 33005KT 9999 SCT034/// BKN057/// 18/07 Q1015=
201707050850 METAR ESMX 050850Z AUTO 32004KT 270V030 9999 FEW082/// 17/08 Q1015=
201707050820 METAR ESMX 050820Z AUTO 34004KT 290V010 9999 FEW058/// 17/09 Q1015=
201707050750 METAR ESMX 050750Z AUTO 28004KT 210V340 9999 FEW070/// 16/09 Q1015=
201707050720 METAR ESMX 050720Z AUTO 28006KT 250V330 9999 NCD 15/08 Q1015=
201707050650 METAR ESMX 050650Z AUTO 28006KT 9999 NCD 15/08 Q1015=
201707050620 METAR ESMX 050620Z AUTO 28006KT 250V320 9999 FEW058/// 14/07 Q1015=
201707050550 METAR ESMX 050550Z AUTO 29006KT 9999 NCD 14/06 Q1015=
201707050520 METAR ESMX 050520Z 29004KT 250V320 CAVOK 12/08 Q1015=
201707050450 METAR ESMX 050450Z 27004KT CAVOK 11/08 Q1015=
201707050420 METAR ESMX 050420Z 22003KT CAVOK 09/07 Q1015=
201707050350 METAR ESMX 050350Z VRB01KT CAVOK 09/07 Q1014=
201707050320 METAR ESMX 050320Z AUTO 25003KT 9999 NCD 08/07 Q1014=
201707050250 METAR ESMX 050250Z AUTO 24003KT 9999 NCD 08/06 Q1015=
201707050220 METAR ESMX 050220Z AUTO 25002KT 9999 NCD 08/06 Q1015=
201707050150 METAR ESMX 050150Z AUTO 26005KT 9999 NCD 08/06 Q1015=
201707050120 METAR ESMX 050120Z AUTO 26004KT 9999 NCD 08/06 Q1014=
201707050050 METAR ESMX 050050Z AUTO 25004KT 9999 NCD 08/06 Q1015=
201707050020 METAR ESMX 050020Z 26004KT CAVOK 09/06 Q1015=
201707042350 METAR ESMX 042350Z 25004KT CAVOK 10/06 Q1015=
201707042320 METAR ESMX 042320Z 26005KT CAVOK 10/06 Q1015=
201707042250 METAR ESMX 042250Z 26005KT CAVOK 11/06 Q1015=
201707042220 METAR ESMX 042220Z 26005KT CAVOK 11/06 Q1015=
201707042150 METAR ESMX 042150Z AUTO 26005KT 9999 FEW052/// 12/07 Q1014=
201707042120 METAR ESMX 042120Z 25005KT 9999 SCT051 BKN073 12/08 Q1014=
201707042050 METAR ESMX 042050Z 21003KT CAVOK 13/10 Q1014=
201707042020 METAR ESMX 042020Z 22005KT CAVOK 12/09 Q1014=
201707041950 METAR ESMX 041950Z VRB02KT 9999 SCT043 BKN058 14/09 Q1014=
201707041920 METAR ESMX 041920Z 36009KT 9999 SCT047CB 15/09 Q1014=
201707041850 METAR ESMX 041850Z 23004KT 9999 SCT055CB 15/10 Q1013=
201707041820 METAR ESMX 041820Z 29003KT 9999 SCT050CB 16/08 Q1013=
201707041750 METAR ESMX 041750Z 30004KT 250V330 9999 SCT040CB 16/08 Q1013=
201707041720 METAR ESMX 041720Z 33005KT 9999 FEW039 BKN067CB 16/08 Q1013=
201707041650 METAR ESMX 041650Z 25009KT 9999 VCSH SCT055CB 18/09 Q1013=
201707041620 METAR ESMX 041620Z 26008KT 9999 VCSH SCT055CB 17/09 Q1013=
201707041550 METAR ESMX 041550Z 25006KT 9999 BKN045CB 15/10 Q1013=
201707041520 METAR ESMX 041520Z 27007G17KT 240V300 9999 SHRA FEW028CB SCT055 14/07 Q1012=
201707041450 METAR ESMX 041450Z 29009KT CAVOK 20/07 Q1012=
201707041420 METAR ESMX 041420Z 29008KT 260V330 9999 FEW048CB SCT062 18/09 Q1012=
201707041350 METAR ESMX 041350Z 29006KT 9999 SCT047CB 17/10 Q1012=
201707041320 METAR ESMX 041320Z 28009KT 230V310 9999 FEW040CB SCT057 16/10 Q1012=
201707041250 METAR ESMX 041250Z 30009KT 9999 FEW038CB SCT070 19/09 Q1012=
201707041220 METAR ESMX 041220Z 28009KT 250V320 9999 FEW025CB SCT054 19/09 Q1012=
201707041150 METAR ESMX 041150Z 30010KT 260V350 9999 -SHRA FEW023CB SCT043 17/09 Q1011=
201707041120 METAR ESMX 041120Z 30010KT 9999 FEW034 BKN042 18/09 Q1011=
201707041050 METAR ESMX 041050Z 29010KT 250V330 9999 FEW028 BKN033 18/10 Q1011=
201707041020 METAR ESMX 041020Z 28006KT 250V330 9999 FEW025 BKN050 15/10 Q1011=
201707040950 METAR ESMX 040950Z AUTO 30009KT 260V360 9999 FEW021/// SCT041/// 16/10 Q1011=
201707040920 METAR ESMX 040920Z AUTO 28009KT 9999 FEW015/// SCT024/// BKN031/// 15/10 Q1011=
201707040850 METAR ESMX 040850Z AUTO 28005KT 250V340 9999 FEW013/// BKN020/// OVC030/// 13/10 Q1010=
201707040820 METAR ESMX 040820Z AUTO 30008KT 9999 FEW011/// SCT016/// OVC020/// 13/10 Q1010=
201707040750 METAR ESMX 040750Z AUTO 30006KT 280V350 9999 FEW014/// OVC017/// 12/10 Q1010=
201707040720 METAR ESMX 040720Z AUTO 29008KT 9999 FEW007/// SCT009/// BKN012/// 12/10 Q1010=
201707040650 METAR ESMX 040650Z AUTO 27006KT 9999 FEW008/// BKN010/// OVC015/// 11/09 Q1009=
201707040620 METAR ESMX 040620Z AUTO 29006KT 8000 -DZ FEW009/// SCT016/// BKN021/// 10/09 Q1009=
201707040550 METAR ESMX 040550Z AUTO 28006KT 240V310 9999 -RA FEW006/// SCT009/// BKN012/// 11/09 Q1008=
201707040520 METAR ESMX 040520Z AUTO 27006KT 9999 DZ SCT006/// BKN008/// BKN012/// 10/09 Q1008 REDZ=
201707040450 METAR ESMX 040450Z 27007KT 9999 SCT006 BKN009 10/09 Q1008=
201707040420 METAR ESMX 040420Z 26007KT 9999 -RA FEW005 BKN008 10/09 Q1008=
201707040350 METAR ESMX 040350Z 24008KT 9999 FEW005 SCT008 BKN030 10/08 Q1008=
201707040320 METAR ESMX 040320Z 24005KT 9999 FEW004 SCT006 SCT025 09/08 Q1008=
201707040250 METAR ESMX 040250Z AUTO 23006KT 9999 FEW005/// SCT006/// 09/08 Q1008=
201707040220 METAR ESMX 040220Z AUTO 23006KT 9999 SCT005/// BKN008/// 09/08 Q1008=
201707040150 METAR ESMX 040150Z AUTO 25007KT 9999 FEW008/// SCT085/// 10/08 Q1008=
201707040120 METAR ESMX 040120Z AUTO 26007KT 9999 FEW009/// SCT024/// 10/09 Q1008=
201707040050 METAR ESMX 040050Z AUTO 26007KT 9999 FEW008/// BKN011/// 11/09 Q1008=
201707040020 METAR ESMX 040020Z AUTO 27008KT 9999 FEW007/// SCT009/// OVC011/// 11/09 Q1008=
201707032350 METAR ESMX 032350Z 26008KT 9999 FEW008 SCT011 11/10 Q1008=
201707032320 METAR ESMX 032320Z 24008KT 9999 BKN005 OVC009 11/10 Q1008=
201707032250 METAR ESMX 032250Z 23008KT 9999 SCT007 BKN068 11/10 Q1008=
201707032220 METAR ESMX 032220Z 22006KT CAVOK 11/10 Q1008=
201707032150 METAR ESMX 032150Z AUTO 21007KT 9999 SCT059/// 11/10 Q1008=
201707032120 METAR ESMX 032120Z 27006KT CAVOK 12/09 Q1008=
201707032050 METAR ESMX 032050Z 24007KT 9999 -SHRA SCT055 12/10 Q1008=
201707032020 METAR ESMX 032020Z 22009KT CAVOK 13/09 Q1009=
201707031950 METAR ESMX 031950Z 23007KT CAVOK 13/09 Q1009=
201707031920 METAR COR ESMX 031920Z 24007KT CAVOK 13/09 Q1009=
201707031850 METAR ESMX 031850Z 23009KT CAVOK 14/10 Q1008=
201707031820 METAR ESMX 031820Z 22010KT 180V250 CAVOK 15/10 Q1009=
201707031750 METAR COR ESMX 031750Z 23007KT 9999 FEW044 14/11 Q1009=
201707031720 METAR ESMX 031720Z 23010KT 9999 -SHRA FEW031CB SCT035 16/09 Q1009=
201707031650 METAR ESMX 031650Z 24012KT 210V280 9999 FEW034 SCT039 17/09 Q1009=
201707031620 METAR ESMX 031620Z 24010KT 200V270 9999 SCT037 17/09 Q1009=
201707031550 METAR ESMX 031550Z 26013KT 220V290 9999 FEW041 SCT063 17/08 Q1009=
201707031520 METAR ESMX 031520Z 25012G23KT 210V290 9999 FEW040 SCT063 17/08 Q1009=
201707031450 METAR ESMX 031450Z 26013G23KT 230V290 9999 FEW060CB 17/07 Q1009=
201707031420 METAR ESMX 031420Z 25016G26KT 230V290 9999 FEW045 SCT060 18/07 Q1009=
201707031350 METAR ESMX 031350Z 25016G27KT 9999 FEW045 SCT058 18/07 Q1009=
201707031320 METAR ESMX 031320Z 26013KT 210V290 9999 SCT043 18/07 Q1010=
201707031250 METAR ESMX 031250Z 27014KT 240V320 9999 SCT041 17/06 Q1010=
201707031220 METAR ESMX 031220Z 25013KT 210V280 9999 FEW040 SCT045 18/07 Q1010=
201707031150 METAR ESMX 031150Z 26014G26KT 220V310 9999 FEW040 SCT049 BKN054 16/06 Q1010=
201707031120 METAR ESMX 031120Z 27015G25KT 240V300 9999 FEW037 BKN043 17/06 Q1010=
201707031050 METAR ESMX 031050Z 27015KT 9999 FEW037 BKN044 16/07 Q1010=
201707031020 METAR ESMX 031020Z 26011G25KT 9999 FEW036 BKN041 16/06 Q1009=
201707030950 METAR ESMX 030950Z 25015KT 9999 FEW037 SCT043 BKN050 16/07 Q1009=
201707030920 METAR ESMX 030920Z 26013KT 220V290 9999 FEW032 BKN048 16/06 Q1009=
201707030850 METAR ESMX 030850Z 27014KT 230V300 9999 FEW033 BKN039 14/06 Q1009=
201707030820 METAR ESMX 030820Z 25013KT 220V290 9999 SCT029 BKN039 15/07 Q1009=
201707030750 METAR ESMX 030750Z 27012KT 240V320 9999 FEW029 BKN034 14/07 Q1009=
201707030720 METAR COR ESMX 030720Z 27013G26KT 220V300 9999 FEW030 BKN036 14/06 Q1009=
201707030650 METAR ESMX 030650Z AUTO 25014KT 210V290 9999 OVC035/// 13/07 Q1008=
201707030620 METAR ESMX 030620Z 25015KT 9999 FEW027 BKN039 13/07 Q1008=
201707030550 METAR ESMX 030550Z 26012KT 230V290 9999 FEW025 BKN039 13/07 Q1008=
201707030520 METAR ESMX 030520Z 25013KT 9999 OVC036 12/07 Q1008=
201707030450 METAR ESMX 030450Z 25012KT 9999 BKN036 12/07 Q1008=
201707030420 METAR ESMX 030420Z 25014KT 9999 BKN036 12/07 Q1008=
201707030350 METAR ESMX 030350Z 26011KT 9999 BKN036 12/07 Q1008=
201707030320 METAR ESMX 030320Z AUTO 26012G24KT 230V290 9999 OVC030/// 12/06 Q1008=
201707030250 METAR ESMX 030250Z AUTO 26014KT 230V290 9999 FEW024/// OVC028/// 12/06 Q1008=
201707030220 METAR ESMX 030220Z AUTO 24012KT 9999 FEW024/// OVC028/// 12/07 Q1008=
201707030150 METAR ESMX 030150Z AUTO 26010KT 220V290 9999 OVC031/// 12/07 Q1008=
201707030120 METAR ESMX 030120Z AUTO 26010KT 230V290 9999 FEW024/// OVC037/// 12/07 Q1008=
201707030050 METAR ESMX 030050Z AUTO 26010KT 9999 BKN037/// 12/07 Q1008=
201707030020 METAR ESMX 030020Z 24010KT 210V280 9999 OVC036 12/07 Q1008=
201707022350 METAR ESMX 022350Z 25011G22KT 230V300 9999 FEW024 OVC036 12/07 Q1008=
201707022320 METAR ESMX 022320Z 26012G23KT 9999 FEW024 OVC035 12/07 Q1008=
201707022250 METAR ESMX 022250Z 25010KT 9999 SCT024 BKN032 BKN040 12/07 Q1008=
201707022220 METAR ESMX 022220Z AUTO 26010KT 210V290 9999 FEW026/// SCT032/// BKN041/// 12/07 Q1007=
201707022150 METAR ESMX 022150Z 26012KT 230V290 9999 OVC036 13/07 Q1007=
201707022120 METAR ESMX 022120Z 26009KT 220V300 9999 OVC037 13/07 Q1007=
201707022050 METAR ESMX 022050Z AUTO 25010KT 220V300 9999 OVC040/// 13/07 Q1007=
201707022020 METAR ESMX 022020Z 25010KT 9999 FEW035 OVC041 13/07 Q1007=
201707021950 METAR ESMX 021950Z 26010KT 230V300 9999 OVC034 13/07 Q1007=
201707021920 METAR ESMX 021920Z 25011KT 9999 BKN036 14/07 Q1007=
201707021850 METAR ESMX 021850Z 26011KT 230V290 9999 FEW032 BKN039 14/08 Q1007=
201707021820 METAR ESMX 021820Z 26013KT 230V300 9999 BKN040 14/08 Q1007=
201707021750 METAR ESMX 021750Z 26013KT 230V290 9999 FEW030 OVC040 14/08 Q1007=
201707021720 METAR ESMX 021720Z 27012KT 9999 FEW029 BKN035 15/08 Q1007=
201707021650 METAR ESMX 021650Z 28016G27KT 9999 FEW034 BKN040 15/07 Q1006=
201707021620 METAR ESMX 021620Z 27014KT 9999 FEW041 BKN051 16/08 Q1006=
201707021550 METAR ESMX 021550Z 26014KT 230V300 9999 FEW036 BKN057 17/09 Q1006=
201707021520 METAR ESMX 021520Z 26012KT 9999 FEW030 BKN059 17/11 Q1006=
201707021450 METAR ESMX 021450Z 25012G23KT 220V290 9999 FEW024 BKN059 17/11 Q1006=
201707021420 METAR ESMX 021420Z 24010KT 200V290 9999 SCT025 BKN056 17/11 Q1006=
201707021350 METAR ESMX 021350Z 27013KT 230V300 9999 FEW026 BKN040 17/10 Q1006=
201707021320 METAR ESMX 021320Z 28010KT 230V300 9999 SCT025 BKN047 17/11 Q1006=
201707021250 METAR ESMX 021250Z 26009KT 230V300 9999 FEW020 BKN025 16/11 Q1006 REDZ=
201707021220 METAR ESMX 021220Z 24010KT 200V280 9999 FEW023 BKN040 16/12 Q1006=
201707021150 METAR ESMX 021150Z 26011KT 9999 FEW015 BKN022 16/11 Q1006=
201707021120 METAR ESMX 021120Z 26011KT 220V280 9999 -SHRA SCT020 OVC029 16/11 Q1006=
201707021050 METAR ESMX 021050Z AUTO 28010KT 240V310 9999 FEW027/// OVC032/// 17/11 Q1006=
201707021020 METAR ESMX 021020Z AUTO 27010KT 240V300 9999 FEW034/// BKN038/// 17/09 Q1005=
201707020950 METAR ESMX 020950Z AUTO 26013KT 230V300 9999 FEW038/// 18/09 Q1005=
201707020920 METAR ESMX 020920Z AUTO 27011KT 240V310 9999 FEW019/// BKN026/// 17/10 Q1006=
201707020850 METAR ESMX 020850Z AUTO 26010KT 9999 FEW017/// OVC020/// 15/10 Q1006=
201707020820 METAR ESMX 020820Z AUTO 26010KT 210V300 9999 OVC015/// 14/10 Q1006=
201707020750 METAR ESMX 020750Z AUTO 28009KT 250V320 9999 OVC016/// 15/10 Q1005=
201707020720 METAR ESMX 020720Z AUTO 28009KT 240V310 9999 OVC014/// 14/10 Q1005=
201707020650 METAR ESMX 020650Z AUTO 28009KT 240V300 9999 OVC012/// 14/10 Q1005=
201707020620 METAR ESMX 020620Z AUTO 27010KT 240V300 9999 OVC010/// 13/10 Q1005=
201707020550 METAR ESMX 020550Z AUTO 27009KT 230V320 9999 FEW008/// OVC009/// 13/10 Q1005=
201707020520 METAR ESMX 020520Z AUTO 27009KT 240V300 9999 SCT005/// BKN007/// OVC008/// 12/10 Q1005=
201707020450 METAR ESMX 020450Z AUTO 26010KT 9999 OVC003/// 12/11 Q1005=
201707020420 METAR ESMX 020420Z AUTO 27008KT 230V300 9999 BKN004/// 12/11 Q1005=
201707020350 METAR ESMX 020350Z AUTO 28003KT 240V320 9999 NCD 12/10 Q1004=
201707020320 METAR ESMX 020320Z AUTO VRB03KT 9999 FEW079/// 11/10 Q1004=
201707020250 METAR ESMX 020250Z AUTO 28003KT 240V320 9999 NCD 12/10 Q1004=
201707020220 METAR ESMX 020220Z AUTO 25004KT 9999 NCD 12/11 Q1004=
201707020150 METAR ESMX 020150Z AUTO 25004KT 9999 FEW063/// 12/11 Q1004=
201707020120 METAR ESMX 020120Z AUTO 23006KT 9999 FEW054/// SCT072/// 12/12 Q1004=
201707020050 METAR ESMX 020050Z AUTO 23006KT 9999 BKN053/// BKN071/// 13/12 Q1004=
201707020020 METAR ESMX 020020Z AUTO 24004KT 6000 BCFG BKN071/// 12/12 Q1004=
201707012350 METAR ESMX 012350Z AUTO 19003KT 0150 R01/1700U R19/0500N BCFG NCD 12/11 Q1005=
201707012320 METAR ESMX 012320Z AUTO 00000KT 9999 FEW045/// SCT072/// 13/12 Q1005=
201707012250 METAR ESMX 012250Z AUTO VRB02KT 9999 FEW029/// BKN069/// 13/12 Q1005=
201707012220 METAR ESMX 012220Z AUTO 00000KT 9999 FEW033/// SCT038/// BKN043/// 13/12 Q1005=
201707012150 METAR ESMX 012150Z AUTO VRB02KT 9999 BKN038/// OVC052/// 13/12 Q1005=
201707012120 METAR ESMX 012120Z AUTO VRB03KT 9999 OVC038/// 13/12 Q1005=
201707012050 METAR ESMX 012050Z AUTO 25005KT 9999 BKN038/// BKN046/// 12/12 Q1005=
201707012020 METAR ESMX 012020Z AUTO VRB02KT 9999 BKN064/// 13/12 Q1005=
201707011950 METAR ESMX 011950Z AUTO 00000KT 9999 FEW059/// 14/12 Q1004=
201707011920 METAR ESMX 011920Z AUTO 28003KT 260V350 9999 FEW048/// BKN063/// 14/12 Q1004=
201707011850 METAR ESMX 011850Z 00000KT CAVOK 15/13 Q1004=
201707011820 METAR ESMX 011820Z 00000KT 9999 FEW024 BKN057 15/12 Q1004=
201707011750 METAR ESMX 011750Z 08003KT 040V120 9999 SCT028 BKN054 15/12 Q1004=
201707011720 METAR ESMX 011720Z 09004KT 040V150 9999 FEW030 BKN052 15/12 Q1004=
201707011650 METAR ESMX 011650Z 10003KT 050V140 9999 FEW032 BKN048 16/13 Q1004=
201707011620 METAR ESMX 011620Z 07004KT 050V110 9999 OVC035 16/12 Q1004=
201707011550 METAR ESMX 011550Z AUTO 07004KT 9999 BKN035/// OVC044/// 16/12 Q1003=
201707011520 METAR ESMX 011520Z AUTO 36006KT 9999 OVC033/// 16/12 Q1003=
201707011450 METAR ESMX 011450Z AUTO 36006KT 9999 FEW027/// OVC032/// 16/12 Q1003=
201707011420 METAR ESMX 011420Z AUTO 36007KT 9999 FEW020/// BKN032/// OVC041/// 16/12 Q1003=
201707011350 METAR ESMX 011350Z AUTO 36008KT 9999 SCT022/// OVC028/// 15/12 Q1003=
201707011320 METAR ESMX 011320Z AUTO 35007KT 9999 UP BKN025/// OVC031/// 15/12 Q1003 REDZ=
201707011250 METAR ESMX 011250Z AUTO 36009KT 9999 DZ FEW015/// OVC020/// 14/12 Q1003=
201707011220 METAR ESMX 011220Z AUTO 01012KT 9999 FEW016/// OVC020/// 14/11 Q1003=
