##########################################################
# Query made at 04/19/2024 21:59:41 UTC
# Time interval: from 10/01/2017 12:00  to 10/31/2017 12:59  UTC
##########################################################

##########################################################
# ESMX, Vaxjo (Sweden)
# WMO index: 02641. WIGOS ID: 0-20000-0-02648
# Latitude 56-51N. Longitude 014-50E. Altitude 199 m.
##########################################################

201710311250 METAR ESMX 311250Z 27008KT 9999 FEW026 BKN100 08/02 Q1014=
201710311220 METAR ESMX 311220Z 26007KT 230V290 CAVOK 07/02 Q1014=
201710311150 METAR ESMX 311150Z 25007KT CAVOK 07/02 Q1015=
201710311120 METAR ESMX 311120Z 25009KT CAVOK 06/01 Q1015=
201710311050 METAR ESMX 311050Z 24006KT 220V280 CAVOK 06/01 Q1015=
201710311020 METAR ESMX 311020Z 27005KT CAVOK 05/00 Q1015=
201710310950 METAR ESMX 310950Z 26005KT CAVOK 04/M00 Q1015=
201710310920 METAR ESMX 310920Z 26005KT 220V290 CAVOK 03/M01 Q1015=
201710310850 METAR ESMX 310850Z 23003KT 200V260 CAVOK 02/M02 Q1016=
201710310820 METAR ESMX 310820Z 23003KT CAVOK 01/M03 Q1016=
201710310750 METAR ESMX 310750Z 22004KT 210V020 CAVOK 01/M03 Q1016=
201710310720 METAR ESMX 310720Z 20003KT CAVOK M00/M04 Q1016=
201710310650 METAR ESMX 310650Z 26002KT CAVOK M02/M05 Q1016=
201710310620 METAR ESMX 310620Z 26004KT CAVOK M02/M05 Q1016=
201710310550 METAR ESMX 310550Z 25004KT 220V280 CAVOK M01/M05 Q1016=
201710310520 METAR ESMX 310520Z 25006KT CAVOK M02/M05 Q1016=
201710310450 METAR ESMX 310450Z 25006KT CAVOK M02/M05 Q1016=
201710310420 METAR ESMX 310420Z AUTO 25006KT 9999 NCD M02/M05 Q1016=
201710310350 METAR ESMX 310350Z AUTO 25004KT 9999 NCD M02/M05 Q1016=
201710310320 METAR ESMX 310320Z AUTO VRB01KT 9999 NCD M02/M05 Q1016=
201710310250 METAR ESMX 310250Z AUTO 27003KT 9999 NCD M02/M05 Q1016=
201710310220 METAR ESMX 310220Z AUTO 27004KT 9999 NCD M01/M05 Q1016=
201710310150 METAR ESMX 310150Z AUTO 27004KT 9999 NCD M01/M05 Q1016=
201710310120 METAR ESMX 310120Z AUTO 27005KT 9999 NCD M02/M05 Q1016=
201710310050 METAR ESMX 310050Z 27006KT CAVOK M02/M05 Q1016=
201710310020 METAR ESMX 310020Z 28006KT CAVOK M01/M05 Q1017=
201710302350 METAR ESMX 302350Z 28005KT CAVOK M01/M05 Q1017=
201710302320 METAR ESMX 302320Z 29005KT CAVOK M01/M05 Q1017=
201710302250 METAR ESMX 302250Z 28005KT CAVOK M01/M05 Q1017=
201710302220 METAR ESMX 302220Z 29006KT CAVOK M01/M05 Q1017=
201710302150 METAR ESMX 302150Z 30006KT CAVOK M01/M05 Q1017=
201710302120 METAR ESMX 302120Z 28005KT CAVOK M01/M05 Q1016=
201710302050 METAR ESMX 302050Z 28004KT CAVOK M01/M05 Q1016=
201710302020 METAR ESMX 302020Z 29006KT CAVOK M01/M05 Q1016=
201710301950 METAR ESMX 301950Z AUTO 28005KT 9999 NCD M01/M05 Q1016=
201710301920 METAR ESMX 301920Z 29007KT CAVOK M00/M05 Q1016=
201710301850 METAR ESMX 301850Z 29008KT CAVOK 00/M05 Q1015=
201710301820 METAR ESMX 301820Z 28007KT CAVOK 00/M05 Q1015=
201710301750 METAR ESMX 301750Z 29005KT CAVOK 01/M05 Q1015=
201710301720 METAR ESMX 301720Z 29007KT CAVOK 01/M05 Q1015=
201710301650 METAR ESMX 301650Z 30008KT CAVOK 02/M05 Q1015=
201710301620 METAR ESMX 301620Z 30008KT CAVOK 02/M05 Q1015=
201710301550 METAR ESMX 301550Z 31008KT CAVOK 02/M05 Q1015=
201710301520 METAR ESMX 301520Z 31009KT CAVOK 03/M05 Q1015=
201710301450 METAR ESMX 301450Z 32010KT CAVOK 03/M05 Q1014=
201710301420 METAR ESMX 301420Z 31013KT 280V340 9999 FEW045 04/M05 Q1014=
201710301350 METAR ESMX 301350Z 32015KT 9999 FEW047 05/M05 Q1014=
201710301320 METAR ESMX 301320Z 31015KT 280V350 9999 FEW044 05/M05 Q1013=
201710301250 METAR ESMX 301250Z 31015KT 9999 FEW044 05/M05 Q1013=
201710301220 METAR ESMX 301220Z 32014KT 9999 SCT044 05/M05 Q1013=
201710301150 METAR ESMX 301150Z 32016KT 9999 SCT039 04/M05 Q1013=
201710301120 METAR ESMX 301120Z 32016KT 9999 SCT040 04/M05 Q1012=
201710301050 METAR ESMX 301050Z 33015KT 9999 FEW037 04/M05 Q1012=
201710301020 METAR ESMX 301020Z 32013G23KT 9999 FEW036 04/M04 Q1012=
201710300950 METAR ESMX 300950Z 34016KT CAVOK 04/M04 Q1012=
201710300920 METAR ESMX 300920Z 33015KT CAVOK 03/M04 Q1012=
201710300850 METAR ESMX 300850Z 33015KT CAVOK 03/M04 Q1011=
201710300820 METAR ESMX 300820Z 33013KT CAVOK 03/M04 Q1011=
201710300750 METAR ESMX 300750Z 32013KT CAVOK 02/M04 Q1011=
201710300720 METAR ESMX 300720Z 32011KT CAVOK 02/M04 Q1010=
201710300650 METAR ESMX 300650Z 31014KT 9999 SCT038 02/M04 Q1010=
201710300620 METAR ESMX 300620Z 32012KT 9999 SCT039 02/M04 Q1009=
201710300550 METAR ESMX 300550Z 31012KT 290V350 9999 FEW038 01/M04 Q1009=
201710300520 METAR ESMX 300520Z 32013KT 9999 SCT038 01/M04 Q1009=
201710300450 METAR ESMX 300450Z 32011KT 290V350 9999 FEW039 01/M04 Q1008=
201710300420 METAR ESMX 300420Z AUTO 33011KT 9999 FEW038/// 02/M04 Q1008=
201710300350 METAR ESMX 300350Z AUTO 32012KT 9999 FEW038/// 02/M04 Q1007=
201710300320 METAR ESMX 300320Z AUTO 33012KT 290V350 9999 BKN038/// 02/M04 Q1007=
201710300250 METAR ESMX 300250Z AUTO 32012KT 9999 OVC038/// 02/M03 Q1007=
201710300220 METAR ESMX 300220Z AUTO 32011KT 290V350 9999 OVC036/// 03/M03 Q1006=
201710300150 METAR ESMX 300150Z AUTO 32010KT 9999 OVC035/// 03/M03 Q1006=
201710300120 METAR ESMX 300120Z AUTO 31011KT 290V350 9999 OVC036/// 03/M03 Q1006=
201710300050 METAR ESMX 300050Z AUTO 32011KT 9999 OVC035/// 03/M03 Q1005=
201710300020 METAR ESMX 300020Z 31011KT 9999 SCT038 03/M03 Q1005=
201710292350 METAR ESMX 292350Z 31010KT 9999 SCT040 03/M03 Q1005=
201710292320 METAR ESMX 292320Z 31012KT CAVOK 03/M03 Q1004=
201710292250 METAR ESMX 292250Z AUTO 31011KT 9999 NCD 03/M03 Q1004=
201710292220 METAR ESMX 292220Z 32011KT CAVOK 03/M03 Q1003=
201710292150 METAR ESMX 292150Z 32011KT 9999 FEW041 04/M04 Q1003=
201710292120 METAR ESMX 292120Z 31014KT 9999 FEW047 04/M04 Q1002=
201710292050 METAR ESMX 292050Z 32014KT 9999 FEW044 04/M03 Q1002=
201710292020 METAR ESMX 292020Z 32013KT 9999 FEW046 04/M03 Q1002=
201710291950 METAR ESMX 291950Z 33016KT CAVOK 04/M03 Q1001=
201710291920 METAR ESMX 291920Z 31012KT CAVOK 04/M03 Q1001=
201710291850 METAR ESMX 291850Z 33015KT CAVOK 05/M03 Q1000=
201710291820 METAR ESMX 291820Z 31015KT CAVOK 05/M03 Q1000=
201710291750 METAR ESMX 291750Z 31016KT CAVOK 05/M03 Q0999=
201710291720 METAR ESMX 291720Z 31015KT CAVOK 05/M03 Q0999=
201710291650 METAR ESMX 291650Z 31014KT CAVOK 05/M03 Q0998=
201710291620 METAR ESMX 291620Z 31013KT CAVOK 05/M03 Q0998=
201710291550 METAR ESMX 291550Z 31017G28KT CAVOK 05/M03 Q0997=
201710291520 METAR ESMX 291520Z 31017KT 270V340 CAVOK 05/M04 Q0997=
201710291450 METAR ESMX 291450Z 31019G30KT 290V350 CAVOK 06/M04 Q0996=
201710291420 METAR ESMX 291420Z 32017G28KT CAVOK 06/M04 Q0996=
201710291350 METAR ESMX 291350Z 32019G30KT 9999 FEW049 06/M03 Q0995=
201710291320 METAR ESMX 291320Z 31017KT 280V340 9999 SCT049 06/M03 Q0994=
201710291250 METAR ESMX 291250Z 31017G28KT 9999 BKN044 06/M03 Q0994=
201710291220 METAR ESMX 291220Z 32019KT 9999 BKN042 06/M03 Q0993=
201710291150 METAR ESMX 291150Z 32019G30KT 9999 SCT041 06/M02 Q0993=
201710291120 METAR ESMX 291120Z 32018KT 9999 SCT040 06/M02 Q0992=
201710291050 METAR ESMX 291050Z AUTO 32017KT 9999 BKN038/// 05/M02 Q0992=
201710291020 METAR ESMX 291020Z AUTO 33017G28KT 9999 NCD 05/M02 Q0991=
201710290950 METAR ESMX 290950Z AUTO 33018KT 9999 FEW031/// 05/M02 Q0991=
201710290920 METAR ESMX 290920Z AUTO 32017KT 300V010 9999 SCT028/// BKN140/// 04/M01 Q0990=
201710290850 METAR ESMX 290850Z AUTO 34014KT 9999 FEW026/// SCT140/// BKN200/// 04/M01 Q0990=
201710290820 METAR ESMX 290820Z AUTO 34018KT 9999 FEW190/// 04/M01 Q0989=
201710290750 METAR ESMX 290750Z AUTO 34017KT 9999 FEW200/// 03/M01 Q0988=
201710290720 METAR ESMX 290720Z AUTO 34016KT 9999 NCD 03/00 Q0987=
201710290650 METAR ESMX 290650Z AUTO 34015KT 9999 NCD 03/01 Q0986=
201710290620 METAR ESMX 290620Z AUTO 34015KT 9999 SCT076/// BKN098/// 03/01 Q0985=
201710290550 METAR ESMX 290550Z AUTO 35014KT 9999 SCT061/// BKN096/// 03/01 Q0984 RESHUP=
201710290520 METAR ESMX 290520Z AUTO 35019KT 9999 FEW020/// SCT038/// BKN051/// 03/01 Q0982 REUP=
201710290450 METAR ESMX 290450Z AUTO 02016KT 9999 FEW059/// SCT072/// BKN110/// 04/01 Q0981=
201710290420 METAR ESMX 290420Z AUTO 02014KT 9999 SCT086/// BKN110/// 04/01 Q0980=
201710290350 METAR ESMX 290350Z AUTO 03011KT 9999 BKN080/// 05/03 Q0979=
201710290320 METAR ESMX 290320Z AUTO 04007KT 020V090 9999 FEW004/// BKN057/// OVC070/// 05/04 Q0978=
201710290250 METAR ESMX 290250Z AUTO 03006KT 9999 DZ FEW004/// BKN018/// OVC048/// 05/04 Q0977 RESHUP REDZ=
201710290220 METAR ESMX 290220Z AUTO 07004KT 040V100 9999 OVC020/// 05/04 Q0976=
201710290150 METAR ESMX 290150Z AUTO 08004KT 050V110 9999 -DZ FEW012/// BKN021/// OVC046/// 05/04 Q0976 RERA=
201710290120 METAR ESMX 290120Z AUTO 09003KT 060V120 9999 FEW003/// SCT023/// OVC055/// 05/04 Q0977=
201710290050 METAR ESMX 290050Z AUTO 00000KT 9999 -RA SCT004/// BKN019/// OVC047/// 05/04 Q0977=
201710290020 METAR ESMX 290020Z AUTO 04005KT 9999 -RA BKN003/// OVC005/// 05/05 Q0978 REUP=
201710282350 METAR ESMX 282350Z AUTO 13005KT 9999 UP BKN004/// OVC066/// 05/05 Q0979=
201710282320 METAR ESMX 282320Z AUTO 18004KT 9999 FEW025/// SCT038/// BKN070/// 05/05 Q0980=
201710282250 METAR ESMX 282250Z AUTO 18005KT 9999 SCT037/// OVC090/// 05/04 Q0981=
201710282220 METAR ESMX 282220Z AUTO VRB03KT 9999 FEW023/// SCT038/// BKN049/// 05/04 Q0982 REUP RESHUP=
201710282150 METAR ESMX 282150Z AUTO 21005KT 9999 FEW017/// SCT057/// OVC140/// 04/04 Q0983=
201710282120 METAR ESMX 282120Z AUTO 20006KT 9999 FEW070/// SCT120/// BKN140/// 04/03 Q0984=
201710282050 METAR ESMX 282050Z AUTO 21007KT 9999 NCD 04/03 Q0986=
201710282020 METAR ESMX 282020Z AUTO 23005KT 9999 NCD 03/02 Q0986=
201710281950 METAR ESMX 281950Z AUTO 22005KT 9999 NCD 04/03 Q0987=
201710281920 METAR ESMX 281920Z AUTO 24005KT 9999 NCD 05/03 Q0987=
201710281850 METAR ESMX 281850Z 25005KT 200V280 CAVOK 06/03 Q0988=
201710281820 METAR ESMX 281820Z 26005KT CAVOK 06/03 Q0989=
201710281750 METAR ESMX 281750Z 26005KT CAVOK 07/03 Q0989=
201710281720 METAR ESMX 281720Z 26005KT CAVOK 07/02 Q0990=
201710281650 METAR ESMX 281650Z 27007KT CAVOK 08/03 Q0990=
201710281620 METAR ESMX 281620Z 27006KT CAVOK 08/03 Q0990=
201710281550 METAR ESMX 281550Z AUTO 27006KT 9999 FEW200/// 09/02 Q0990=
201710281520 METAR ESMX 281520Z AUTO 28007KT 9999 FEW043/// SCT200/// 10/03 Q0990=
201710281450 METAR ESMX 281450Z AUTO 30012KT 9999 NCD 11/02 Q0991=
201710281420 METAR ESMX 281420Z AUTO 29010KT 260V330 9999 BKN059/// 12/03 Q0991=
201710281350 METAR ESMX 281350Z AUTO 29010KT 260V320 9999 BKN051/// OVC062/// 12/03 Q0991=
201710281320 METAR ESMX 281320Z AUTO 29014G24KT 9999 OVC055/// 12/02 Q0991=
201710281250 METAR ESMX 281250Z AUTO 30013KT 9999 SCT057/// 12/03 Q0991=
201710281220 METAR ESMX 281220Z AUTO 30015KT 9999 BKN051/// 12/02 Q0991=
201710281150 METAR ESMX 281150Z AUTO 30017KT 9999 SCT049/// 12/04 Q0991=
201710281120 METAR ESMX 281120Z AUTO 31014KT 260V330 9999 FEW038/// 11/05 Q0991 RERA=
201710281050 METAR ESMX 281050Z AUTO 30012KT 9999 FEW028/// SCT038/// 09/06 Q0991 REDZ=
201710281020 METAR ESMX 281020Z AUTO 27014G24KT 240V300 9999 FEW020/// SCT029/// BKN041/// 12/06 Q0991=
201710280950 METAR ESMX 280950Z AUTO 27010KT 9999 BKN023/// BKN046/// OVC059/// 11/07 Q0992=
201710280920 METAR ESMX 280920Z AUTO 27012KT 240V300 9999 -DZ FEW009/// SCT020/// BKN033/// 10/07 Q0992 REDZ=
201710280850 METAR ESMX 280850Z 27013G24KT 240V310 9999 -DZ FEW007 SCT012 BKN021 10/07 Q0992=
201710280820 METAR ESMX 280820Z 26012KT 9999 BKN019 OVC035 09/06 Q0993=
201710280750 METAR ESMX 280750Z 27013KT 9999 SCT021 BKN030 09/06 Q0993=
201710280720 METAR ESMX 280720Z 25015KT 9999 BKN018 BKN036 09/06 Q0993=
201710280650 METAR ESMX 280650Z AUTO 26013G24KT 220V290 9999 BKN018/// OVC023/// 09/06 Q0994=
201710280620 METAR ESMX 280620Z AUTO 25012KT 9999 SCT013/// BKN017/// OVC021/// 08/06 Q0994=
201710280550 METAR ESMX 280550Z AUTO 26013KT 9999 DZ BKN016/// OVC033/// 08/06 Q0995=
201710280520 METAR ESMX 280520Z AUTO 26013KT 230V290 9999 -DZ OVC023/// 09/06 Q0996=
201710280450 METAR ESMX 280450Z AUTO 24013KT 210V280 9999 SCT027/// BKN041/// OVC049/// 09/06 Q0997=
201710280420 METAR ESMX 280420Z AUTO 25016KT 9999 BKN021/// BKN029/// OVC098/// 09/06 Q0998=
201710280350 METAR ESMX 280350Z AUTO 25013G23KT 220V280 9999 SCT023/// BKN028/// BKN036/// 09/06 Q0999=
201710280320 METAR ESMX 280320Z AUTO 26013KT 9999 BKN043/// OVC110/// 09/06 Q1000=
201710280250 METAR ESMX 280250Z AUTO 26012KT 9999 BKN018/// BKN024/// OVC120/// 09/06 Q1000=
201710280220 METAR ESMX 280220Z AUTO 26011KT 9999 OVC016/// 09/06 Q1001=
201710280150 METAR ESMX 280150Z AUTO 25009KT 9999 BKN016/// OVC025/// 08/07 Q1002=
201710280120 METAR ESMX 280120Z AUTO 25009KT 9999 OVC020/// 08/06 Q1003=
201710280050 METAR ESMX 280050Z AUTO 25008KT 9999 FEW019/// SCT033/// BKN043/// 08/06 Q1004 RESHUP=
201710280020 METAR ESMX 280020Z AUTO 23006KT 9999 BKN011/// OVC019/// 07/06 Q1005 REUP REDZ=
201710272350 METAR ESMX 272350Z AUTO 22007KT 9999 SCT009/// BKN015/// BKN020/// 07/06 Q1006=
201710272320 METAR ESMX 272320Z AUTO 23008KT 9999 SCT009/// OVC012/// 07/06 Q1007=
201710272250 METAR ESMX 272250Z AUTO 22008KT 9999 SCT011/// BKN019/// BKN040/// 07/06 Q1007=
201710272220 METAR ESMX 272220Z AUTO 24008KT 9999 BKN007/// BKN130/// 06/06 Q1008=
201710272150 METAR ESMX 272150Z AUTO 23007KT 9999 FEW082/// OVC098/// 06/05 Q1009=
201710272120 METAR ESMX 272120Z AUTO 21007KT 9999 FEW038/// BKN098/// 06/05 Q1009=
201710272050 METAR ESMX 272050Z AUTO 23007KT 9999 SCT098/// 05/04 Q1011=
201710272020 METAR ESMX 272020Z AUTO 22008KT 9999 FEW100/// SCT140/// 05/04 Q1011=
201710271950 METAR ESMX 271950Z AUTO 19005KT 9999 SCT018/// BKN034/// 04/04 Q1012 RERA REUP=
201710271920 METAR ESMX 271920Z 21007KT 9999 FEW042 SCT051 BKN100 04/04 Q1012=
201710271850 METAR ESMX 271850Z 21006KT CAVOK 05/04 Q1013=
201710271820 METAR ESMX 271820Z 24006KT CAVOK 04/04 Q1013=
201710271750 METAR ESMX 271750Z 25006KT CAVOK 05/04 Q1013=
201710271720 METAR ESMX 271720Z 25006KT CAVOK 05/04 Q1014=
201710271650 METAR ESMX 271650Z 26005KT CAVOK 04/03 Q1014=
201710271620 METAR ESMX 271620Z 25003KT CAVOK 04/03 Q1014=
201710271550 METAR ESMX 271550Z 25003KT CAVOK 05/03 Q1015=
201710271520 METAR ESMX 271520Z 29006KT 9999 SCT016 05/03 Q1015=
201710271450 METAR ESMX 271450Z 28006KT 250V320 9999 BKN014 06/04 Q1015=
201710271420 METAR COR ESMX 271420Z 29006KT 9999 SCT014 OVC018 06/03 Q1015=
201710271350 METAR ESMX 271350Z 30007KT 9999 OVC011 05/03 Q1015=
201710271320 METAR ESMX 271320Z 31007KT 9999 OVC009 05/03 Q1014=
201710271250 METAR ESMX 271250Z 32010KT 9999 OVC011 05/03 Q1015=
201710271220 METAR COR ESMX 271220Z 32011KT 9999 OVC011 05/03 Q1015=
201710271150 METAR ESMX 271150Z 32009KT 9999 BKN011 OVC014 06/04 Q1014=
201710271120 METAR ESMX 271120Z 34008KT 9999 OVC011 06/04 Q1014=
201710271050 METAR ESMX 271050Z 34009KT 9999 OVC010 05/03 Q1014=
201710271020 METAR ESMX 271020Z 33009KT 9999 OVC009 05/03 Q1014=
201710270950 METAR ESMX 270950Z 35010KT 9999 BKN008 OVC010 04/03 Q1014=
201710270920 METAR ESMX 270920Z 34010KT 9999 BKN008 OVC009 05/03 Q1013=
201710270850 METAR ESMX 270850Z 01010KT 9999 BKN007 OVC010 04/03 Q1013=
201710270820 METAR ESMX 270820Z 36013KT 9999 OVC009 04/03 Q1012=
201710270750 METAR ESMX 270750Z 35013KT 9999 OVC008 05/04 Q1012=
201710270720 METAR ESMX 270720Z 35013KT 9999 SCT006 BKN008 OVC009 06/04 Q1011=
201710270650 METAR ESMX 270650Z 36012KT 9999 OVC009 06/05 Q1011=
201710270620 METAR ESMX 270620Z 02012KT 9999 SCT007 OVC010 07/05 Q1010=
201710270550 METAR ESMX 270550Z 03010KT 9999 BKN005 OVC007 07/06 Q1009=
201710270520 METAR ESMX 270520Z 35013KT 9000 -DZ FEW002 BKN004 BKN008 07/06 Q1009=
201710270450 METAR ESMX 270450Z 35010KT 9999 BKN016 08/07 Q1008=
201710270420 METAR ESMX 270420Z 35008KT 9999 FEW013 SCT019 OVC030 07/07 Q1008=
201710270350 METAR ESMX 270350Z 35008KT 9999 FEW008 SCT012 BKN023 07/07 Q1007=
201710270320 METAR ESMX 270320Z AUTO 34006KT 9999 FEW022/// OVC038/// 07/06 Q1007=
201710270250 METAR ESMX 270250Z AUTO 36006KT 9999 OVC003/// 07/07 Q1007=
201710270220 METAR ESMX 270220Z AUTO 32002KT 2000 BCFG BKN002/// OVC015/// 06/06 Q1007=
201710270150 METAR ESMX 270150Z AUTO 36002KT 0150 R01/0650N R19/0550N FEW004/// SCT042/// 06/06 Q1006 RERA=
201710270120 METAR ESMX 270120Z AUTO 20003KT 4200 BR FEW003/// SCT039/// 07/06 Q1006=
201710270050 METAR ESMX 270050Z AUTO 00000KT 2000 +DZ SCT002/// BKN019/// OVC034/// 08/07 Q1007 REUP=
201710270020 METAR ESMX 270020Z AUTO 25002KT 1600 BR BKN024/// OVC030/// 07/07 Q1007=
201710262350 METAR ESMX 262350Z 24002KT 8000 BR FEW006 BKN020 BKN050 08/07 Q1007=
201710262320 METAR ESMX 262320Z 26002KT 9999 SCT007 OVC020 08/07 Q1007=
201710262250 METAR ESMX 262250Z 23003KT 9999 SCT014 OVC035 08/08 Q1007=
201710262220 METAR ESMX 262220Z 25004KT 220V290 9999 SCT022 OVC041 08/08 Q1007 RERA=
201710262150 METAR ESMX 262150Z 21004KT 9999 -RA FEW026 BKN034 08/08 Q1008=
201710262120 METAR ESMX 262120Z 21003KT 9999 -RA BKN036 08/08 Q1008=
201710262050 METAR ESMX 262050Z 23006KT 4000 RA BKN032 08/08 Q1008=
201710262020 METAR ESMX 262020Z 21004KT 9999 FEW013 BKN018 07/06 Q1008=
201710261950 METAR ESMX 261950Z 22005KT CAVOK 07/06 Q1008=
201710261920 METAR ESMX 261920Z 23005KT 9999 SCT045 08/07 Q1008=
201710261850 METAR ESMX 261850Z 24006KT 9000 -RA OVC046 09/08 Q1009=
201710261820 METAR ESMX 261820Z 22003KT 9999 SCT019 BKN057 08/07 Q1009=
201710261750 METAR ESMX 261750Z 26005KT 230V290 9999 FEW020 BKN040 08/07 Q1009=
201710261720 METAR ESMX 261720Z 27008KT 9999 -RA OVC045 08/07 Q1009=
201710261650 METAR ESMX 261650Z 26010KT 9999 -RA FEW035 BKN053 BKN078 09/07 Q1009=
201710261620 METAR ESMX 261620Z 24007KT CAVOK 09/07 Q1009=
201710261550 METAR ESMX 261550Z 25007KT CAVOK 09/07 Q1010=
201710261520 METAR ESMX 261520Z 25009KT 9999 SCT020 10/08 Q1010=
201710261450 METAR ESMX 261450Z 26009KT 230V290 9999 FEW020 11/07 Q1010=
201710261420 METAR ESMX 261420Z 26011KT 240V310 9999 FEW022 11/07 Q1010=
201710261350 METAR ESMX 261350Z 26012KT 9999 FEW029 12/07 Q1010=
201710261320 METAR ESMX 261320Z 27012KT 9999 FEW027 12/07 Q1010=
201710261250 METAR ESMX 261250Z 26012KT CAVOK 13/07 Q1010=
201710261220 METAR ESMX 261220Z 27014KT CAVOK 12/08 Q1010=
201710261150 METAR ESMX 261150Z 26013KT 9999 FEW040 12/08 Q1010=
201710261120 METAR ESMX 261120Z 26015G25KT 230V290 9999 SCT024 12/07 Q1011=
201710261050 METAR ESMX 261050Z 26013KT 9999 FEW023 12/08 Q1011=
201710261020 METAR ESMX 261020Z 26013KT 9999 SCT019 12/08 Q1011=
201710260950 METAR ESMX 260950Z 25011KT 220V290 9999 SCT016 12/08 Q1011=
201710260920 METAR ESMX 260920Z 26011KT 230V300 9999 SCT015 11/08 Q1011=
201710260850 METAR ESMX 260850Z 25011KT 9999 FEW015 10/08 Q1011=
201710260820 METAR ESMX 260820Z 26011KT 220V280 9999 SCT012 10/08 Q1011=
201710260750 METAR ESMX 260750Z 26009KT 9999 BKN012 10/08 Q1011=
201710260720 METAR ESMX 260720Z 25010KT 200V290 9999 FEW012 10/08 Q1011=
201710260650 METAR ESMX 260650Z 26011KT 9999 SCT016 10/07 Q1011=
201710260620 METAR ESMX 260620Z 26010KT 220V280 9999 SCT016 10/07 Q1011=
201710260550 METAR ESMX 260550Z 26011KT 9999 SCT017 09/07 Q1011=
201710260520 METAR ESMX 260520Z 26010KT 9999 SCT015 BKN045 10/07 Q1011=
201710260450 METAR ESMX 260450Z 26010KT 9999 BKN015 BKN045 09/07 Q1011=
201710260420 METAR ESMX 260420Z 25009KT 9999 SCT013 BKN017 09/07 Q1011=
201710260350 METAR ESMX 260350Z 25008KT 230V290 9999 OVC014 10/07 Q1011=
201710260320 METAR ESMX 260320Z AUTO 26009KT 220V280 9999 OVC014/// 10/07 Q1011=
201710260250 METAR ESMX 260250Z AUTO 26010KT 240V320 9999 BKN015/// OVC020/// 10/07 Q1011=
201710260220 METAR ESMX 260220Z AUTO 26010KT 220V290 9999 BKN018/// OVC030/// 10/07 Q1011=
201710260150 METAR ESMX 260150Z AUTO 26012KT 9999 SCT018/// OVC033/// 10/07 Q1010=
201710260120 METAR ESMX 260120Z AUTO 26011KT 9999 FEW018/// OVC033/// 10/07 Q1010=
201710260050 METAR ESMX 260050Z AUTO 26012KT 230V300 9999 SCT018/// OVC030/// 10/07 Q1010=
201710260020 METAR ESMX 260020Z AUTO 26011KT 9999 BKN016/// OVC031/// 10/08 Q1010=
201710252350 METAR ESMX 252350Z 26011KT 9999 BKN015 10/08 Q1010=
201710252320 METAR ESMX 252320Z 25010KT 210V280 9999 BKN014 OVC034 10/08 Q1010=
201710252250 METAR ESMX 252250Z 26011KT 9999 SCT014 OVC034 10/08 Q1010=
201710252220 METAR ESMX 252220Z 27010KT 9999 BKN013 10/08 Q1010=
201710252150 METAR ESMX 252150Z 26013KT 220V290 9999 BKN015 10/08 Q1009=
201710252120 METAR ESMX 252120Z 27011KT 230V290 9999 OVC012 10/08 Q1009=
201710252050 METAR ESMX 252050Z 27010KT 9999 OVC011 10/08 Q1009=
201710252020 METAR ESMX 252020Z 26009KT 230V290 9999 OVC010 10/08 Q1009=
201710251950 METAR ESMX 251950Z 27009KT 9999 BKN010 09/08 Q1009=
201710251920 METAR ESMX 251920Z 27009KT 9999 BKN012 OVC027 09/08 Q1008=
201710251850 METAR ESMX 251850Z 27011KT 9999 SCT013 OVC027 09/07 Q1008=
201710251820 METAR ESMX 251820Z 28013KT 240V320 9999 BKN015 09/07 Q1008=
201710251750 METAR ESMX 251750Z 27013KT 9999 BKN015 09/07 Q1007=
201710251720 METAR ESMX 251720Z 28012KT 9999 FEW005 SCT011 BKN030 09/07 Q1007=
201710251650 METAR ESMX 251650Z 28014KT 260V320 9999 BKN014 10/07 Q1006=
201710251620 METAR ESMX 251620Z 27011KT 240V300 9999 FEW002 SCT012 BKN016 10/07 Q1005=
201710251550 METAR ESMX 251550Z 29015G27KT 7000 BR FEW002 SCT005 BKN014 10/08 Q1005=
201710251520 METAR ESMX 251520Z 27013KT 9999 BKN014 10/08 Q1004=
201710251450 METAR ESMX 251450Z 27015KT 240V300 9999 BKN013 10/08 Q1003=
201710251420 METAR ESMX 251420Z 27015KT 9999 FEW008 BKN012 11/09 Q1003=
201710251350 METAR ESMX 251350Z 28017KT 9999 FEW013 SCT026 BKN051 11/09 Q1002=
201710251320 METAR ESMX 251320Z AUTO 22020G33KT 190V250 9999 DZ SCT007/// BKN018/// OVC025/// 13/12 Q1000=
201710251250 METAR ESMX 251250Z AUTO 20015KT 9999 -RA BKN008/// BKN021/// OVC027/// 14/13 Q1000=
201710251220 METAR ESMX 251220Z 20014KT 9999 DZ BKN006 13/12 Q1001=
201710251150 METAR ESMX 251150Z 18015KT 5000 DZ FEW002 OVC005 13/12 Q1002=
201710251120 METAR ESMX 251120Z 17011KT 5000 DZRA BKN002 OVC005 12/12 Q1002=
201710251050 METAR ESMX 251050Z 15009KT 5000 DZ FEW002 BKN005 BKN011 12/11 Q1003=
201710251020 METAR ESMX 251020Z 16007KT 9999 BKN006 12/11 Q1004=
201710250950 METAR ESMX 250950Z 18007KT 9999 SCT007 OVC038 12/11 Q1005=
201710250920 METAR ESMX 250920Z 20010KT 9000 -RA BKN006 BKN009 OVC045 12/11 Q1006=
201710250850 METAR ESMX 250850Z 20009KT 9999 -RA OVC006 12/11 Q1006=
201710250820 METAR ESMX 250820Z 20010KT 9999 -RA BKN006 OVC008 12/11 Q1007=
201710250750 METAR ESMX 250750Z 21009KT 9999 OVC004 12/11 Q1007=
201710250720 METAR ESMX 250720Z 20008KT 9999 OVC004 12/11 Q1007=
201710250650 METAR ESMX 250650Z 19008KT 9999 OVC004 12/11 Q1007=
201710250620 METAR ESMX 250620Z 19009KT 9999 OVC002 11/11 Q1008=
201710250550 METAR ESMX 250550Z 19009KT 9999 OVC002 11/11 Q1008=
201710250520 METAR ESMX 250520Z 18008KT 9999 OVC002 11/10 Q1008=
201710250450 METAR ESMX 250450Z 18008KT 6000 BR OVC002 10/10 Q1008=
201710250420 METAR ESMX 250420Z 17008KT 4100 -DZ OVC002 10/10 Q1009=
201710250350 METAR ESMX 250350Z 15008KT 3800 -DZ OVC002 10/09 Q1009=
201710250320 METAR ESMX 250320Z AUTO 15009KT 4100 BR OVC002/// 10/09 Q1009=
201710250250 METAR ESMX 250250Z AUTO 15010KT 6000 BR OVC003/// 10/09 Q1009=
201710250220 METAR ESMX 250220Z AUTO 14011KT 4400 -RA OVC003/// 09/09 Q1010=
201710250150 METAR ESMX 250150Z AUTO 14011KT 4200 +DZ OVC002/// 09/08 Q1010=
201710250120 METAR ESMX 250120Z AUTO 14009KT 9999 DZ OVC004/// 08/08 Q1011 REDZ=
201710250050 METAR ESMX 250050Z AUTO 14008KT 080V170 9999 -RA OVC004/// 08/07 Q1011=
201710250020 METAR ESMX 250020Z AUTO 14008KT 100V160 7000 RA OVC003/// 08/07 Q1012 REDZ=
201710242350 METAR ESMX 242350Z 13008KT 110V170 8000 DZ OVC005 07/07 Q1013=
201710242320 METAR ESMX 242320Z 13008KT 100V170 9999 RA OVC005 07/06 Q1013=
201710242250 METAR ESMX 242250Z 14008KT 090V190 9999 OVC006 07/06 Q1014=
201710242220 METAR ESMX 242220Z 13007KT 080V170 9999 -RA OVC006 06/06 Q1015=
201710242150 METAR ESMX 242150Z 13007KT 080V170 8000 RA BKN006 OVC059 06/06 Q1016=
201710242120 METAR ESMX 242120Z 13008KT 100V170 9999 -RA BKN006 OVC057 06/05 Q1016=
201710242050 METAR ESMX 242050Z 12008KT 080V160 8000 -RA OVC005 06/05 Q1017=
201710242020 METAR ESMX 242020Z 13007KT 090V160 7000 RA OVC005 06/05 Q1018=
201710241950 METAR ESMX 241950Z 13007KT 080V170 6000 RA OVC005 06/05 Q1018=
201710241920 METAR ESMX 241920Z 12007KT 080V170 9000 -RA OVC007 05/05 Q1019=
201710241850 METAR ESMX 241850Z VRB06KT 9999 -RA FEW009 OVC021 05/04 Q1019=
201710241820 METAR ESMX 241820Z 11005KT 050V170 9999 -RA OVC026 05/04 Q1020=
201710241750 METAR ESMX 241750Z 12007KT 070V170 9999 -RA FEW013 BKN029 OVC061 06/03 Q1020=
201710241720 METAR ESMX 241720Z 13006KT 080V180 9999 FEW014 OVC027 06/03 Q1020=
201710241650 METAR ESMX 241650Z 12005KT 070V170 9999 FEW020 BKN031 06/03 Q1020=
201710241620 METAR ESMX 241620Z 13006KT 080V180 9999 FEW017 SCT031 BKN080 06/03 Q1020=
201710241550 METAR ESMX 241550Z 12005KT 090V160 9999 FEW017 BKN080 06/03 Q1020=
201710241520 METAR ESMX 241520Z 13006KT 080V170 CAVOK 06/02 Q1021=
201710241450 METAR ESMX 241450Z 13006KT 070V170 CAVOK 06/02 Q1021=
201710241420 METAR COR ESMX 241420Z 12006KT 080V160 9999 FEW033 BKN080 06/02 Q1022=
201710241350 METAR ESMX 241350Z 13007KT 070V170 9999 FEW030 OVC088 06/02 Q1022=
201710241320 METAR COR ESMX 241320Z 12008KT 080V160 9999 FEW020 BKN037 06/02 Q1022=
201710241250 METAR ESMX 241250Z 12007KT 080V150 9999 FEW020 BKN031 06/02 Q1023=
201710241220 METAR ESMX 241220Z 13006KT 080V170 9999 BKN029 06/02 Q1023=
201710241150 METAR ESMX 241150Z 11006KT 070V160 9999 BKN031 06/01 Q1024=
201710241120 METAR ESMX 241120Z 11005KT 070V160 9999 BKN030 06/01 Q1024=
201710241050 METAR ESMX 241050Z 13006KT 080V160 9999 BKN030 06/01 Q1024=
201710241020 METAR ESMX 241020Z 11006KT 060V160 9999 OVC029 05/01 Q1024=
201710240950 METAR ESMX 240950Z 11005KT 070V160 9999 OVC028 05/01 Q1024=
201710240920 METAR ESMX 240920Z 11005KT 060V150 9999 BKN029 05/01 Q1024=
201710240850 METAR ESMX 240850Z 12004KT 070V160 9999 FEW032 04/01 Q1024=
201710240820 METAR ESMX 240820Z 10005KT 060V160 9999 FEW030 04/01 Q1024=
201710240750 METAR ESMX 240750Z 11004KT 060V150 9999 FEW030 04/01 Q1025=
201710240720 METAR ESMX 240720Z VRB03KT 9999 BKN030 04/01 Q1025=
201710240650 METAR ESMX 240650Z 14003KT 090V210 9999 BKN030 04/00 Q1025=
201710240620 METAR ESMX 240620Z 13004KT 070V160 9999 BKN030 04/M00 Q1024=
201710240550 METAR ESMX 240550Z 15004KT 120V200 9999 BKN030 04/M00 Q1025=
201710240520 METAR ESMX 240520Z AUTO 14004KT 100V160 9999 OVC029/// 03/M00 Q1025=
201710240450 METAR ESMX 240450Z 11004KT 050V150 9999 OVC030 03/M00 Q1024=
201710240420 METAR ESMX 240420Z 12005KT 080V170 9999 OVC029 03/00 Q1024=
201710240350 METAR ESMX 240350Z 11003KT 040V140 9999 OVC030 03/00 Q1025=
201710240320 METAR ESMX 240320Z AUTO 11003KT 070V160 9999 OVC030/// 03/00 Q1024=
201710240250 METAR ESMX 240250Z AUTO 10003KT 050V150 9999 OVC030/// 03/00 Q1024=
201710240220 METAR ESMX 240220Z AUTO VRB03KT 9999 OVC029/// 03/00 Q1025=
201710240150 METAR ESMX 240150Z AUTO VRB03KT 9999 OVC029/// 03/00 Q1025=
201710240120 METAR ESMX 240120Z 07004KT 030V110 9999 OVC030 03/01 Q1024=
201710240050 METAR ESMX 240050Z 06004KT 020V080 9999 OVC030 03/01 Q1025=
201710240020 METAR ESMX 240020Z 06004KT 9999 OVC030 02/01 Q1024=
201710232350 METAR ESMX 232350Z 04004KT 9999 OVC031 02/00 Q1024=
201710232320 METAR ESMX 232320Z 05003KT 9999 FEW032 01/00 Q1024=
201710232250 METAR ESMX 232250Z 06004KT 020V080 9999 FEW033 02/00 Q1024=
201710232220 METAR ESMX 232220Z 06004KT 030V090 CAVOK 02/M00 Q1024=
201710232150 METAR ESMX 232150Z 06003KT 010V100 CAVOK 03/00 Q1023=
201710232120 METAR ESMX 232120Z 06004KT 040V100 CAVOK 03/00 Q1023=
201710232050 METAR ESMX 232050Z 07005KT 9999 FEW031 03/01 Q1023=
201710232020 METAR ESMX 232020Z 06004KT 9999 BKN030 03/01 Q1023=
201710231950 METAR ESMX 231950Z 07003KT 050V110 9999 SCT032 03/01 Q1023=
201710231920 METAR ESMX 231920Z 06004KT 9999 BKN031 03/01 Q1023=
201710231850 METAR ESMX 231850Z 07004KT 030V100 9999 SCT032 03/01 Q1023=
201710231820 METAR ESMX 231820Z 06004KT 030V100 9999 BKN032 04/01 Q1023=
201710231750 METAR ESMX 231750Z 06003KT 9999 BKN032 04/01 Q1023=
201710231720 METAR ESMX 231720Z 04003KT 010V080 9999 BKN030 04/01 Q1022=
201710231650 METAR ESMX 231650Z 05005KT 010V100 9999 FEW029 05/01 Q1022=
201710231620 METAR ESMX 231620Z 08005KT 040V150 9999 FEW030 05/01 Q1021=
201710231550 METAR ESMX 231550Z 07005KT 030V110 9999 FEW030 05/01 Q1021=
201710231520 METAR ESMX 231520Z 07006KT 030V120 9999 SCT030 05/01 Q1021=
201710231450 METAR ESMX 231450Z 07007KT 040V120 9999 SCT030 05/01 Q1020=
201710231420 METAR ESMX 231420Z 05008KT 010V120 9999 SCT025 06/01 Q1020=
201710231350 METAR ESMX 231350Z 07009KT 020V100 9999 BKN023 06/02 Q1020=
201710231320 METAR ESMX 231320Z 07008G19KT 030V130 9999 BKN022 06/02 Q1019=
201710231250 METAR ESMX 231250Z 07007KT 030V110 9999 BKN019 06/03 Q1019=
201710231220 METAR ESMX 231220Z 05009KT 020V090 9999 BKN013 06/03 Q1019=
201710231150 METAR ESMX 231150Z 05010KT 020V080 9999 BKN011 BKN015 05/03 Q1019=
201710231120 METAR COR ESMX 231120Z 06010KT 030V100 9999 -RA OVC008 05/04 Q1018=
201710231050 METAR ESMX 231050Z 05009KT 020V100 9999 OVC009 05/04 Q1018=
201710231020 METAR ESMX 231020Z 06009KT 030V100 9999 OVC009 06/04 Q1018=
201710230950 METAR ESMX 230950Z 06009KT 030V100 9999 OVC009 06/04 Q1017=
201710230920 METAR ESMX 230920Z 06009KT 030V090 9999 OVC009 06/04 Q1017=
201710230850 METAR ESMX 230850Z 06009KT 030V100 9999 -RA OVC009 06/05 Q1017=
201710230820 METAR ESMX 230820Z 05009KT 030V100 9999 -RA BKN007 06/05 Q1016=
201710230750 METAR ESMX 230750Z 06009KT 030V100 9999 BKN008 06/05 Q1016=
201710230720 METAR ESMX 230720Z 07008KT 040V100 9999 OVC007 06/05 Q1016=
201710230650 METAR ESMX 230650Z 05008KT 030V110 9999 -RA OVC006 06/05 Q1015=
201710230620 METAR ESMX 230620Z 05008KT 9999 -RA OVC007 06/05 Q1015=
201710230550 METAR ESMX 230550Z 06007KT 030V100 9999 -RA OVC007 07/06 Q1014=
201710230520 METAR ESMX 230520Z 04007KT 010V080 9999 -RA OVC006 07/06 Q1014=
201710230450 METAR ESMX 230450Z 04007KT 010V090 6000 DZ BKN006 BKN011 OVC014 07/06 Q1013=
201710230420 METAR ESMX 230420Z 06008KT 030V100 6000 -DZ OVC005 07/06 Q1013=
201710230350 METAR ESMX 230350Z 05007KT 020V120 9999 OVC006 07/06 Q1012=
201710230320 METAR ESMX 230320Z AUTO 06007KT 020V100 9999 OVC006/// 08/07 Q1012 REDZ=
201710230250 METAR ESMX 230250Z AUTO 05007KT 010V090 9999 -DZ OVC006/// 08/07 Q1012=
201710230220 METAR ESMX 230220Z AUTO 05006KT 350V090 5000 DZ BKN005/// BKN008/// OVC011/// 08/07 Q1012 REUP=
201710230150 METAR ESMX 230150Z AUTO 07005KT 030V120 9999 UP OVC005/// 08/08 Q1011=
201710230120 METAR ESMX 230120Z AUTO 07003KT 040V110 9999 OVC006/// 09/08 Q1011=
201710230050 METAR ESMX 230050Z AUTO VRB02KT 9999 OVC005/// 09/08 Q1011=
201710230020 METAR ESMX 230020Z AUTO 12004KT 080V200 9999 OVC005/// 09/08 Q1011=
201710222350 METAR ESMX 222350Z AUTO 08003KT 050V110 9999 FEW002/// OVC004/// 09/09 Q1010=
201710222320 METAR ESMX 222320Z 06004KT 020V100 9999 OVC005 09/09 Q1010=
201710222250 METAR ESMX 222250Z 06006KT 9999 BKN005 OVC010 09/08 Q1010=
201710222220 METAR ESMX 222220Z 04008KT 7000 DZ BKN004 OVC006 09/08 Q1010=
201710222150 METAR ESMX 222150Z 04007KT 6000 +DZ BKN004 OVC009 09/08 Q1010=
201710222120 METAR ESMX 222120Z 03007KT 9999 DZ FEW002 BKN004 OVC014 09/08 Q1010=
201710222050 METAR ESMX 222050Z 01007KT 9999 DZ BKN005 BKN038 OVC045 09/08 Q1009=
201710222020 METAR ESMX 222020Z 02006KT 9999 DZ BKN004 OVC042 09/08 Q1010=
201710221950 METAR ESMX 221950Z 03006KT 9999 -RA BKN005 BKN015 OVC024 09/08 Q1009=
201710221920 METAR ESMX 221920Z 04004KT 9999 -RA FEW004 OVC005 09/09 Q1009=
201710221850 METAR ESMX 221850Z 05005KT 020V080 9999 DZ BKN003 OVC006 09/09 Q1009=
201710221820 METAR ESMX 221820Z 07004KT 030V120 9999 -RA OVC002 09/08 Q1009=
201710221750 METAR ESMX 221750Z 05004KT 9000 -RA SCT002 BKN005 OVC008 09/08 Q1009=
201710221720 METAR ESMX 221720Z 04004KT 9999 -RA FEW009 BKN012 OVC042 09/08 Q1009=
201710221650 METAR ESMX 221650Z 06003KT 9999 -RA FEW009 BKN014 OVC048 09/08 Q1009=
201710221620 METAR ESMX 221620Z VRB03KT 9999 RA BKN017 OVC032 09/08 Q1009=
201710221550 METAR ESMX 221550Z 06003KT 030V100 9999 RA FEW005 OVC033 09/08 Q1009=
201710221520 METAR ESMX 221520Z 08003KT 020V140 9999 -RA FEW002 OVC005 09/08 Q1009=
201710221450 METAR ESMX 221450Z 06005KT 030V090 9999 RA BKN005 OVC019 09/08 Q1009=
201710221420 METAR ESMX 221420Z 06006KT 020V110 9999 -RA OVC005 09/08 Q1009=
201710221350 METAR ESMX 221350Z 07005KT 030V120 8000 RA OVC004 09/08 Q1009=
201710221320 METAR ESMX 221320Z 08005KT 020V130 9999 DZ OVC005 09/08 Q1009=
201710221250 METAR ESMX 221250Z 06006KT 010V100 9999 DZ OVC006 09/08 Q1009=
201710221220 METAR ESMX 221220Z 07006KT 030V110 9999 -RA OVC006 09/08 Q1010=
201710221150 METAR ESMX 221150Z 07006KT 020V110 9999 -RA OVC006 09/08 Q1010=
201710221120 METAR ESMX 221120Z 07007KT 030V110 9999 -RA OVC006 09/08 Q1010=
201710221050 METAR COR ESMX 221050Z 07006KT 020V110 9999 DZ OVC006 09/08 Q1010=
201710221020 METAR ESMX 221020Z AUTO 08005KT 020V120 9999 -RA OVC006/// 09/08 Q1011=
201710220950 METAR ESMX 220950Z AUTO 07005KT 020V130 9999 -RA OVC006/// 09/08 Q1011=
201710220920 METAR ESMX 220920Z AUTO 08006KT 010V140 8000 RA OVC005/// 09/08 Q1011=
201710220850 METAR ESMX 220850Z AUTO 09005KT 050V140 9000 -RA OVC005/// 09/08 Q1011=
201710220820 METAR ESMX 220820Z AUTO 09006KT 040V150 7000 -RA OVC005/// 09/08 Q1011=
201710220750 METAR ESMX 220750Z AUTO 09007KT 050V150 3800 -DZ OVC004/// 08/08 Q1012 REUP=
201710220720 METAR ESMX 220720Z AUTO 08008KT 050V120 7000 BR OVC005/// 08/08 Q1012 REDZ=
201710220650 METAR ESMX 220650Z AUTO 09006KT 050V130 9999 BR OVC005/// 08/08 Q1012=
201710220620 METAR ESMX 220620Z AUTO 09005KT 030V140 9000 OVC004/// 08/08 Q1012=
201710220550 METAR ESMX 220550Z AUTO 09006KT 050V150 5000 -DZ FEW002/// OVC004/// 08/07 Q1012=
201710220520 METAR ESMX 220520Z AUTO 09005KT 010V160 6000 -DZ OVC005/// 08/07 Q1012 REUP REDZ=
201710220450 METAR ESMX 220450Z AUTO 09005KT 010V160 9999 OVC007/// 08/07 Q1012=
201710220420 METAR ESMX 220420Z AUTO 09006KT 050V160 9999 OVC006/// 08/07 Q1012=
201710220350 METAR ESMX 220350Z AUTO 11007KT 040V160 9999 -DZ OVC006/// 08/07 Q1013=
201710220320 METAR ESMX 220320Z AUTO 10006KT 030V170 9999 -RA OVC004/// 08/07 Q1013 RESHRA=
201710220250 METAR ESMX 220250Z AUTO VRB06KT 5000 -RA OVC003/// 08/07 Q1013 RERA=
201710220220 METAR ESMX 220220Z AUTO 09008KT 040V150 4700 BR OVC003/// 08/07 Q1013=
201710220150 METAR ESMX 220150Z AUTO 10008KT 060V150 5000 -RA OVC003/// 08/07 Q1014 REDZ REUP=
201710220120 METAR ESMX 220120Z AUTO 10008KT 040V150 4700 BR OVC003/// 08/07 Q1014 REDZ=
201710220050 METAR ESMX 220050Z AUTO 10008G18KT 050V150 6000 BR OVC003/// 08/07 Q1014=
201710220020 METAR ESMX 220020Z AUTO 10007KT 020V150 4400 BR OVC003/// 08/07 Q1014=
201710212350 METAR ESMX 212350Z AUTO 10006KT 050V170 5000 BR OVC003/// 08/07 Q1015=
201710212320 METAR ESMX 212320Z AUTO 10007KT 050V140 4500 -DZ OVC003/// 08/07 Q1015 REUP=
201710212250 METAR ESMX 212250Z AUTO 10007KT 050V160 4300 BR OVC003/// 08/07 Q1015=
201710212220 METAR ESMX 212220Z AUTO 10007KT 070V140 5000 BR OVC004/// 08/07 Q1015=
201710212150 METAR ESMX 212150Z AUTO 09007KT 050V160 4300 BR FEW002/// OVC004/// 08/07 Q1015=
201710212120 METAR ESMX 212120Z AUTO 10007KT 050V160 8000 BR OVC005/// 08/07 Q1016=
201710212050 METAR ESMX 212050Z VRB07KT 5000 BR OVC005 08/07 Q1016=
201710212020 METAR ESMX 212020Z 10007G20KT 040V160 9000 BR OVC005 08/07 Q1016=
201710211950 METAR ESMX 211950Z 10007KT 340V140 9999 OVC006 08/07 Q1016=
201710211920 METAR ESMX 211920Z 09009KT 030V140 9999 OVC006 08/07 Q1016=
201710211850 METAR ESMX 211850Z 09008G20KT 060V140 9999 OVC007 08/07 Q1016=
201710211820 METAR ESMX 211820Z 09008KT 020V190 9999 OVC007 08/07 Q1016=
201710211750 METAR ESMX 211750Z 09009KT 050V160 9999 OVC007 08/07 Q1016=
201710211720 METAR ESMX 211720Z 08008KT 020V120 9999 OVC007 08/07 Q1016=
201710211650 METAR ESMX 211650Z 08009KT 050V140 9999 OVC007 08/07 Q1016=
201710211620 METAR COR ESMX 211620Z 08007KT 030V140 9999 OVC007 08/07 Q1016=
201710211550 METAR ESMX 211550Z AUTO 07010KT 030V120 9999 OVC009/// 09/07 Q1016=
201710211520 METAR ESMX 211520Z AUTO 08009KT 040V120 9999 OVC012/// 09/06 Q1016=
201710211450 METAR ESMX 211450Z AUTO 06008KT 020V110 9999 OVC015/// 09/06 Q1016=
201710211420 METAR ESMX 211420Z AUTO 08008KT 030V130 9999 BKN016/// BKN019/// OVC026/// 09/06 Q1016=
201710211350 METAR ESMX 211350Z AUTO 08007KT 030V160 9999 BKN015/// OVC018/// 09/06 Q1016=
201710211320 METAR ESMX 211320Z AUTO 06008KT 010V100 9999 OVC013/// 09/06 Q1016=
201710211250 METAR ESMX 211250Z AUTO 06008KT 020V100 9999 OVC011/// 09/07 Q1016=
201710211220 METAR ESMX 211220Z AUTO 06009KT 020V100 9999 OVC011/// 10/07 Q1016=
201710211150 METAR ESMX 211150Z AUTO 08008KT 020V120 9999 OVC012/// 10/07 Q1016=
201710211120 METAR ESMX 211120Z AUTO 07009KT 030V120 9999 OVC012/// 10/07 Q1016=
201710211050 METAR ESMX 211050Z AUTO 08009G21KT 050V150 9999 OVC010/// 10/07 Q1016=
201710211020 METAR ESMX 211020Z AUTO 08008KT 040V120 9999 OVC010/// 10/08 Q1016=
201710210950 METAR ESMX 210950Z AUTO 07009KT 030V100 9999 OVC010/// 10/08 Q1016=
201710210920 METAR ESMX 210920Z 07007KT 030V130 9999 OVC009 10/08 Q1016=
201710210850 METAR ESMX 210850Z 07008G19KT 9999 OVC009 10/08 Q1015=
201710210820 METAR ESMX 210820Z 06009KT 030V100 9999 OVC007 09/08 Q1015=
201710210750 METAR ESMX 210750Z 06008KT 020V080 9999 OVC006 09/08 Q1015=
201710210720 METAR ESMX 210720Z 05006KT 030V090 9000 BR OVC005 09/08 Q1015=
201710210650 METAR ESMX 210650Z 06007KT 030V110 8000 BR OVC005 09/08 Q1015=
201710210620 METAR ESMX 210620Z AUTO 05008KT 350V100 9999 OVC006/// 09/08 Q1015=
201710210550 METAR ESMX 210550Z AUTO 06009KT 9999 OVC006/// 09/07 Q1015=
201710210520 METAR ESMX 210520Z AUTO 06009KT 020V090 9999 OVC006/// 09/07 Q1015=
201710210450 METAR ESMX 210450Z AUTO 06009KT 030V100 9999 OVC007/// 09/07 Q1015=
201710210420 METAR ESMX 210420Z AUTO 05009KT 010V080 9999 OVC008/// 09/07 Q1014=
201710210350 METAR ESMX 210350Z AUTO 05010KT 9999 OVC008/// 09/07 Q1014=
201710210320 METAR ESMX 210320Z AUTO 04010KT 010V080 9999 OVC008/// 09/07 Q1014=
201710210250 METAR ESMX 210250Z AUTO 05008KT 020V090 9999 OVC008/// 09/07 Q1015=
201710210220 METAR ESMX 210220Z AUTO 06007KT 030V100 9999 OVC008/// 09/07 Q1015=
201710210150 METAR ESMX 210150Z AUTO 06008KT 020V100 9999 OVC009/// 09/07 Q1015=
201710210120 METAR ESMX 210120Z AUTO 05007KT 020V100 9999 OVC009/// 09/07 Q1015=
201710210050 METAR ESMX 210050Z AUTO 06007KT 030V100 9999 OVC008/// 09/08 Q1015=
201710210020 METAR ESMX 210020Z AUTO 05006KT 010V090 9999 OVC007/// 09/08 Q1016=
201710202350 METAR ESMX 202350Z AUTO 06008KT 030V100 9999 OVC007/// 09/08 Q1016=
201710202320 METAR ESMX 202320Z AUTO 05006KT 020V080 9999 OVC007/// 09/08 Q1016=
201710202250 METAR ESMX 202250Z AUTO 06006KT 030V100 9999 OVC007/// 09/08 Q1016=
201710202220 METAR ESMX 202220Z AUTO 07007KT 040V110 9999 OVC008/// 09/08 Q1016=
201710202150 METAR ESMX 202150Z AUTO 07006KT 030V120 9999 OVC008/// 09/08 Q1016=
201710202120 METAR ESMX 202120Z AUTO 07005KT 040V100 9999 OVC008/// 09/08 Q1016=
201710202050 METAR ESMX 202050Z AUTO 08006KT 040V150 9999 OVC007/// 09/08 Q1016=
201710202020 METAR ESMX 202020Z AUTO 06007KT 020V100 9999 OVC008/// 09/08 Q1016=
201710201950 METAR ESMX 201950Z AUTO 07006KT 030V120 9999 OVC008/// 09/08 Q1016=
201710201920 METAR ESMX 201920Z 07006KT 030V140 9999 OVC009 09/08 Q1016=
201710201850 METAR ESMX 201850Z 07005KT 030V130 9999 -DZ OVC009 10/08 Q1016=
201710201820 METAR ESMX 201820Z 08005KT 050V150 9999 -RA OVC009 10/08 Q1016=
201710201750 METAR ESMX 201750Z 08007KT 030V130 9999 OVC009 10/08 Q1016=
201710201720 METAR ESMX 201720Z 09007KT 030V140 9999 OVC009 10/08 Q1015=
201710201650 METAR ESMX 201650Z 09006KT 060V120 9999 OVC009 10/09 Q1016=
201710201620 METAR ESMX 201620Z 08005KT 040V140 9999 OVC010 11/08 Q1016=
201710201550 METAR ESMX 201550Z 10005KT 060V150 9999 BKN010 OVC012 11/08 Q1016=
201710201520 METAR ESMX 201520Z 09005KT 050V140 9999 OVC010 11/08 Q1016=
201710201450 METAR ESMX 201450Z 09006KT 040V140 9999 OVC009 11/09 Q1016=
201710201420 METAR ESMX 201420Z 09005KT 030V130 9999 OVC009 11/09 Q1016=
201710201350 METAR ESMX 201350Z 09005KT 010V130 9999 OVC009 11/09 Q1016=
201710201320 METAR ESMX 201320Z 11005KT 060V170 9999 OVC009 11/09 Q1016=
201710201250 METAR ESMX 201250Z 09005KT 010V140 9999 OVC009 11/09 Q1016=
201710201220 METAR ESMX 201220Z 09006KT 050V150 9999 OVC009 11/09 Q1016=
201710201150 METAR ESMX 201150Z 08005KT 040V140 9999 OVC007 10/09 Q1016=
201710201120 METAR ESMX 201120Z 10005KT 050V140 9999 OVC007 10/08 Q1016=
201710201050 METAR ESMX 201050Z 09005KT 030V150 9999 OVC007 10/08 Q1016=
201710201020 METAR ESMX 201020Z 10006KT 060V150 9999 OVC007 10/08 Q1017=
201710200950 METAR ESMX 200950Z 10006KT 050V150 9999 OVC008 10/08 Q1017=
201710200920 METAR ESMX 200920Z 11006KT 040V150 9999 OVC008 10/08 Q1017=
201710200850 METAR ESMX 200850Z 10006KT 050V170 9999 OVC008 10/08 Q1017=
201710200820 METAR ESMX 200820Z 11006KT 050V160 9999 OVC008 10/08 Q1017=
201710200750 METAR ESMX 200750Z 10006KT 050V160 9999 OVC009 09/08 Q1017=
201710200720 METAR ESMX 200720Z 10006KT 060V170 9999 OVC009 09/08 Q1017=
201710200650 METAR ESMX 200650Z 10006KT 020V150 9999 OVC009 09/07 Q1017=
201710200620 METAR ESMX 200620Z 11006KT 070V150 9999 OVC009 09/07 Q1017=
201710200550 METAR ESMX 200550Z 10005KT 060V160 9999 OVC010 09/07 Q1017=
201710200520 METAR ESMX 200520Z 10005KT 040V160 9999 OVC010 09/07 Q1017=
201710200450 METAR ESMX 200450Z 09004KT 050V170 9999 OVC009 09/07 Q1017=
201710200420 METAR ESMX 200420Z VRB05KT 9999 BKN009 09/07 Q1017=
201710200350 METAR COR ESMX 200350Z 10006KT 340V140 9999 -DZ OVC009 09/07 Q1017=
201710200320 METAR ESMX 200320Z AUTO 10005KT 050V190 9999 OVC009/// 08/07 Q1017=
201710200250 METAR ESMX 200250Z AUTO 10004KT 020V160 9999 OVC008/// 08/07 Q1017=
201710200220 METAR ESMX 200220Z AUTO 10005KT 070V150 9999 OVC008/// 08/07 Q1017=
201710200150 METAR ESMX 200150Z AUTO 11006KT 050V150 9999 -DZ BKN008/// OVC057/// 08/07 Q1018=
201710200120 METAR ESMX 200120Z AUTO 11005KT 060V170 9999 -RA OVC007/// 08/07 Q1018 RESHUP REDZ=
201710200050 METAR ESMX 200050Z AUTO 11004KT 060V190 9999 -DZ OVC007/// 08/07 Q1018=
201710200020 METAR ESMX 200020Z AUTO 11005KT 070V160 9999 -DZ OVC007/// 08/07 Q1019=
201710192350 METAR ESMX 192350Z 12005KT 060V150 9999 -RA OVC007 08/06 Q1019=
201710192320 METAR ESMX 192320Z 10005KT 050V180 9999 -RA OVC008 07/06 Q1019=
201710192250 METAR ESMX 192250Z 10004KT 020V150 9999 BKN010 07/06 Q1019=
201710192220 METAR ESMX 192220Z 11004KT 070V150 9999 BKN048 07/05 Q1019=
201710192150 METAR ESMX 192150Z 12004KT 020V170 CAVOK 07/05 Q1019=
201710192120 METAR ESMX 192120Z VRB05KT CAVOK 07/05 Q1019=
201710192050 METAR ESMX 192050Z 11005KT 050V160 CAVOK 07/05 Q1019=
201710192020 METAR ESMX 192020Z VRB04KT CAVOK 07/05 Q1019=
201710191950 METAR ESMX 191950Z 11005KT 050V160 CAVOK 07/05 Q1019=
201710191920 METAR ESMX 191920Z 10005KT 060V150 CAVOK 07/05 Q1019=
201710191850 METAR ESMX 191850Z 10004KT 040V140 CAVOK 07/06 Q1019=
201710191820 METAR ESMX 191820Z VRB03KT CAVOK 07/06 Q1019=
201710191750 METAR ESMX 191750Z AUTO 08003KT 050V120 9999 NCD 07/05 Q1019=
201710191720 METAR ESMX 191720Z 07004KT 040V110 CAVOK 06/05 Q1019=
201710191650 METAR ESMX 191650Z 08003KT CAVOK 06/04 Q1019=
201710191620 METAR ESMX 191620Z 09003KT CAVOK 06/04 Q1019=
201710191550 METAR ESMX 191550Z VRB02KT CAVOK 08/04 Q1019=
201710191520 METAR ESMX 191520Z 11004KT 050V170 CAVOK 09/04 Q1019=
201710191450 METAR ESMX 191450Z 11005KT 050V170 CAVOK 10/03 Q1019=
201710191420 METAR ESMX 191420Z 12006KT 080V160 CAVOK 10/03 Q1019=
201710191350 METAR ESMX 191350Z 12005KT 080V160 CAVOK 10/03 Q1019=
201710191320 METAR ESMX 191320Z 11005KT 070V160 CAVOK 11/04 Q1019=
201710191250 METAR ESMX 191250Z 13004KT 100V170 CAVOK 11/03 Q1019=
201710191220 METAR ESMX 191220Z 13004KT 070V190 CAVOK 11/03 Q1019=
201710191150 METAR ESMX 191150Z 06004KT 020V110 CAVOK 10/04 Q1019=
201710191120 METAR ESMX 191120Z 06004KT 010V110 CAVOK 09/05 Q1020=
201710191050 METAR ESMX 191050Z 06005KT 030V100 9999 FEW004 08/05 Q1020=
201710191020 METAR ESMX 191020Z 05007KT 9999 BKN003 06/05 Q1020=
201710190950 METAR ESMX 190950Z 06006KT 030V110 5000 BR BKN002 06/05 Q1020=
201710190920 METAR COR ESMX 190920Z 06005KT 020V110 9999 SCT006 08/06 Q1020=
201710190850 METAR ESMX 190850Z 04004KT 020V080 9999 FEW007 07/05 Q1020=
201710190820 METAR ESMX 190820Z 04004KT 020V080 CAVOK 06/05 Q1020=
201710190750 METAR ESMX 190750Z VRB03KT CAVOK 04/04 Q1019=
201710190720 METAR ESMX 190720Z 04004KT 010V080 CAVOK 03/03 Q1019=
201710190650 METAR ESMX 190650Z 03002KT 9999 R01/P2000N R19/0650N FZFG NSC M00/M01 Q1019=
201710190620 METAR COR ESMX 190620Z 36001KT 0250 R01/0375N R19/0650N FZFG NSC M00/M01 Q1019=
201710190550 METAR COR ESMX 190550Z 08001KT 0400 R01/0600N R19/P2000N FZFG NSC M00/M00 Q1018=
201710190520 METAR ESMX 190520Z AUTO 03003KT 0150 R01/0750N R19/1000U FZFG NCD M00/M01 Q1018=
201710190450 METAR ESMX 190450Z 00000KT 0150 R01/P2000N R19/0225N BCFG NSC M00/M00 Q1018=
201710190420 METAR ESMX 190420Z 05002KT 0250 R01/1900D R19/P2000D FG NSC 00/M00 Q1018=
201710190350 METAR COR ESMX 190350Z 04004KT 0400 R01/1100D R19/P2000N FZFG NSC M00/M00 Q1018=
201710190320 METAR ESMX 190320Z 03004KT 0350 R01/1300N R19/P2000D FZFG NSC M00/M01 Q1018=
201710190250 METAR ESMX 190250Z AUTO 06002KT 0150 R01/1000D R19/0350N FG NCD 01/00 Q1018=
201710190220 METAR ESMX 190220Z AUTO 04003KT 0300 R01/1000N R19/P2000N FG NCD 01/00 Q1018=
201710190150 METAR ESMX 190150Z AUTO 03005KT 0300 R01/P2000D R19/P2000N BCFG NCD 03/02 Q1018=
201710190120 METAR ESMX 190120Z AUTO 03004KT 9999 NCD 03/03 Q1018=
201710190050 METAR ESMX 190050Z AUTO 03005KT 9999 NCD 03/03 Q1018=
201710190020 METAR ESMX 190020Z AUTO 03005KT 9999 BCFG NCD 02/02 Q1018=
201710182350 METAR ESMX 182350Z 03003KT 0750 R01/P2000N R19/P2000D MIFG NSC 01/01 Q1018=
201710182320 METAR ESMX 182320Z 03002KT CAVOK 02/01 Q1018=
201710182250 METAR COR ESMX 182250Z 02004KT CAVOK 04/03 Q1018=
201710182220 METAR ESMX 182220Z AUTO 03004KT 9999 SCT200/// 04/03 Q1018=
201710182150 METAR ESMX 182150Z 06003KT 020V090 CAVOK 04/03 Q1018=
201710182120 METAR ESMX 182120Z AUTO 03003KT 9999 FEW200/// 05/04 Q1017=
201710182050 METAR ESMX 182050Z 06003KT 020V100 CAVOK 06/04 Q1017=
201710182020 METAR ESMX 182020Z 03005KT CAVOK 06/05 Q1017=
201710181950 METAR ESMX 181950Z 04005KT CAVOK 06/05 Q1017=
201710181920 METAR ESMX 181920Z 04006KT CAVOK 07/05 Q1016=
201710181850 METAR ESMX 181850Z 03006KT CAVOK 08/06 Q1016=
201710181820 METAR ESMX 181820Z 02004KT CAVOK 08/06 Q1016=
201710181750 METAR ESMX 181750Z 04006KT CAVOK 08/06 Q1016=
201710181720 METAR ESMX 181720Z 04007KT 9999 FEW045 09/07 Q1016=
201710181650 METAR ESMX 181650Z 03005KT 9999 FEW046 SCT210 09/07 Q1015=
201710181620 METAR ESMX 181620Z 01006KT 9999 FEW043 SCT210 09/08 Q1015=
201710181550 METAR ESMX 181550Z 01006KT 9999 FEW023 SCT200 10/08 Q1015=
201710181520 METAR ESMX 181520Z 35006KT 330V030 9999 SCT011 BKN023 11/09 Q1014=
201710181450 METAR ESMX 181450Z 35006KT 9999 BKN009 OVC023 11/09 Q1014=
201710181420 METAR ESMX 181420Z 35006KT 9999 SCT009 BKN012 11/10 Q1014=
201710181350 METAR ESMX 181350Z 36006KT 9999 BKN008 12/10 Q1014=
201710181320 METAR ESMX 181320Z 36005KT 9999 SCT008 BKN022 12/11 Q1014=
201710181250 METAR ESMX 181250Z 01006KT 9999 SCT006 BKN020 12/11 Q1013=
201710181220 METAR ESMX 181220Z 02011KT 9000 -DZ BR BKN004 OVC035 12/11 Q1013=
201710181150 METAR ESMX 181150Z 28004KT 9999 SCT022 BKN040 13/11 Q1013=
201710181120 METAR ESMX 181120Z 29003KT 260V340 9000 BR SCT018 BKN042 13/11 Q1013=
201710181050 METAR ESMX 181050Z 25006KT 9999 FEW005 BKN015 13/11 Q1013=
201710181020 METAR ESMX 181020Z 27005KT 230V300 9999 BKN015 13/10 Q1012=
201710180950 METAR ESMX 180950Z 28006KT 250V320 9999 BKN013 13/10 Q1012=
201710180920 METAR ESMX 180920Z 29006KT 250V330 9999 SCT007 BKN015 12/10 Q1012=
201710180850 METAR ESMX 180850Z 27006KT 9999 BKN008 12/11 Q1012=
201710180820 METAR ESMX 180820Z 26007KT 9000 BR SCT007 BKN013 12/11 Q1011=
201710180750 METAR ESMX 180750Z 25006KT 210V280 6000 BR BKN007 11/11 Q1011=
201710180720 METAR ESMX 180720Z 23006KT 8000 BR BKN006 11/10 Q1011=
201710180650 METAR ESMX 180650Z 23006KT 9000 BR SCT006 BKN011 11/10 Q1010=
201710180620 METAR ESMX 180620Z 25007KT 5000 -DZ BR OVC005 11/10 Q1010=
201710180550 METAR ESMX 180550Z 23008KT 190V250 5000 -DZ BR BKN006 11/10 Q1010=
201710180520 METAR ESMX 180520Z 23007KT 7000 BR BKN006 11/10 Q1010=
201710180450 METAR ESMX 180450Z 25008KT 210V280 9999 FEW005 BKN009 11/10 Q1009=
201710180420 METAR ESMX 180420Z 24009KT 9999 OVC009 11/10 Q1009=
201710180350 METAR COR ESMX 180350Z 23009KT 200V260 9999 BKN009 11/10 Q1009=
201710180320 METAR ESMX 180320Z AUTO 23010KT 9999 BR SCT007/// BKN009/// OVC011/// 11/10 Q1009=
201710180250 METAR ESMX 180250Z AUTO 24011KT 6000 BR FEW008/// SCT010/// BKN012/// 11/10 Q1009=
201710180220 METAR ESMX 180220Z AUTO 24009KT 9999 FEW010/// BKN014/// OVC023/// 11/10 Q1009=
201710180150 METAR ESMX 180150Z AUTO 24009KT 9999 BKN010/// BKN013/// OVC051/// 11/09 Q1009=
201710180120 METAR ESMX 180120Z AUTO 22010KT 9000 BR FEW006/// BKN016/// OVC019/// 11/09 Q1009=
201710180050 METAR ESMX 180050Z AUTO 23009KT 190V260 9999 OVC016/// 11/09 Q1009=
201710180020 METAR ESMX 180020Z AUTO 23010KT 190V260 9999 BKN019/// OVC035/// 11/09 Q1009=
201710172350 METAR ESMX 172350Z 22010KT 9999 BKN020 11/08 Q1009=
201710172320 METAR ESMX 172320Z 23010KT 9999 -DZ BKN018 11/09 Q1009=
201710172250 METAR ESMX 172250Z 22011KT 9999 BKN017 11/09 Q1009 REDZ=
201710172220 METAR ESMX 172220Z 22010KT 9999 -DZ FEW020 BKN037 11/08 Q1009=
201710172150 METAR ESMX 172150Z 22012KT 180V250 9999 -DZ FEW005 OVC022 12/08 Q1009=
201710172120 METAR ESMX 172120Z 22011KT 9999 BKN022 12/08 Q1009=
201710172050 METAR ESMX 172050Z 23011KT 9999 BKN022 BKN038 12/08 Q1009=
201710172020 METAR ESMX 172020Z 22014KT 9999 SCT023 BKN043 12/08 Q1010=
201710171950 METAR ESMX 171950Z 23012KT 9999 FEW023 BKN045 12/08 Q1010=
201710171920 METAR ESMX 171920Z 23011KT 9999 BKN045 12/08 Q1010=
201710171850 METAR ESMX 171850Z 23010KT 9999 BKN045 12/08 Q1010=
201710171820 METAR ESMX 171820Z 23011KT 9999 BKN044 12/08 Q1010=
201710171750 METAR ESMX 171750Z 23010KT 9999 BKN043 12/08 Q1010=
201710171720 METAR ESMX 171720Z 22013G23KT 9999 FEW024 BKN043 12/08 Q1010=
201710171650 METAR ESMX 171650Z 22011KT 200V260 9999 FEW027 BKN041 12/08 Q1011=
201710171620 METAR ESMX 171620Z 22010KT 9999 BKN041 13/08 Q1011=
201710171550 METAR ESMX 171550Z 23010KT 9999 BKN040 13/08 Q1011=
201710171520 METAR ESMX 171520Z 24010KT 9999 SCT024 BKN035 13/08 Q1011=
201710171450 METAR ESMX 171450Z 23012KT 9999 SCT026 BKN036 13/08 Q1011=
201710171420 METAR ESMX 171420Z 23011KT 210V270 9999 FEW028 BKN035 13/08 Q1011=
201710171350 METAR ESMX 171350Z 23012KT 9999 BKN030 13/07 Q1012=
201710171320 METAR ESMX 171320Z 23015KT 9999 BKN033 14/07 Q1012=
201710171250 METAR ESMX 171250Z 25017KT 9999 BKN033 14/07 Q1012=
201710171220 METAR ESMX 171220Z 23017G27KT 9999 BKN026 OVC033 15/08 Q1012=
201710171150 METAR ESMX 171150Z 24015G25KT 9999 BKN030 14/09 Q1012=
201710171120 METAR ESMX 171120Z 24014KT 9999 SCT024 14/09 Q1012=
201710171050 METAR ESMX 171050Z 23013KT 9999 BKN021 BKN031 15/10 Q1012=
201710171020 METAR ESMX 171020Z 22015KT 9999 BKN019 OVC023 15/11 Q1012=
201710170950 METAR ESMX 170950Z 23014KT 190V250 9999 FEW015 BKN018 14/11 Q1012=
201710170920 METAR ESMX 170920Z 22013KT 190V250 9999 BKN013 OVC016 14/12 Q1012=
201710170850 METAR ESMX 170850Z 22011KT 9999 BKN015 14/12 Q1013=
201710170820 METAR ESMX 170820Z 20011KT 7000 BR VV010 14/12 Q1013=
201710170750 METAR ESMX 170750Z 20011KT 5000 BR BKN008 14/12 Q1013=
201710170720 METAR COR ESMX 170720Z 19011KT 4700 BR OVC007 14/13 Q1013=
201710170650 METAR ESMX 170650Z 21011KT 3300 BR OVC005 14/13 Q1013=
201710170620 METAR ESMX 170620Z 18012KT 2400 BR OVC004 14/13 Q1013=
201710170550 METAR ESMX 170550Z 18010KT 2400 BR OVC004 14/13 Q1013=
201710170520 METAR ESMX 170520Z 18010KT 2700 BR OVC004 13/12 Q1014=
201710170450 METAR ESMX 170450Z 18010KT 3200 BR OVC004 13/12 Q1014=
201710170420 METAR ESMX 170420Z 17009KT 4000 BR OVC004 13/12 Q1015=
201710170350 METAR ESMX 170350Z 17008KT 5000 BR SCT006 OVC008 12/12 Q1015=
201710170320 METAR ESMX 170320Z AUTO 15008KT 4500 BR BKN010/// OVC014/// 12/12 Q1015=
201710170250 METAR ESMX 170250Z AUTO 17004KT 3200 BR SCT016/// BKN100/// 12/12 Q1016=
201710170220 METAR ESMX 170220Z AUTO 14004KT 3400 BR SCT005/// BKN024/// OVC100/// 12/12 Q1016=
201710170150 METAR ESMX 170150Z AUTO 23004KT 3900 BR OVC004/// 12/12 Q1017=
201710170120 METAR ESMX 170120Z AUTO 21005KT 4000 BR OVC004/// 12/12 Q1017=
201710170050 METAR ESMX 170050Z AUTO 19007KT 3400 BR OVC003/// 13/12 Q1017=
201710170020 METAR ESMX 170020Z AUTO 19008KT 2500 OVC001/// 13/12 Q1017=
201710162350 METAR ESMX 162350Z 21007KT 180V240 1200 R01/P2000N R19/P2000N BR OVC002 12/12 Q1018=
201710162320 METAR ESMX 162320Z 18008KT 1100 R01/P2000N R19/P2000N BR OVC002 12/12 Q1018=
201710162250 METAR ESMX 162250Z 19005KT 2900 BR OVC002 12/12 Q1018=
201710162220 METAR ESMX 162220Z 22004KT 3700 BR OVC002 12/12 Q1018=
201710162150 METAR ESMX 162150Z 23004KT 190V260 3100 BR OVC002 12/12 Q1019=
201710162120 METAR ESMX 162120Z 20005KT 2400 BR OVC002 12/11 Q1019=
201710162050 METAR ESMX 162050Z 20007KT 4000 BR FEW002 11/11 Q1018=
201710162020 METAR ESMX 162020Z 20006KT 4500 BR FEW120 11/10 Q1018=
201710161950 METAR ESMX 161950Z 22005KT CAVOK 12/11 Q1018=
201710161920 METAR ESMX 161920Z 23005KT CAVOK 12/11 Q1018=
201710161850 METAR ESMX 161850Z 23006KT CAVOK 12/11 Q1018=
201710161820 METAR ESMX 161820Z 23006KT 9999 FEW021 13/11 Q1018=
201710161750 METAR ESMX 161750Z 25007KT 210V280 9999 BKN018 14/11 Q1018=
201710161720 METAR ESMX 161720Z 26006KT 9999 OVC016 14/11 Q1018=
201710161651 METAR ESMX 161651Z 25007KT 220V290 9999 BKN015 14/11 Q1018=
201710161620 METAR ESMX 161620Z 25007KT 9999 OVC018 14/11 Q1018=
201710161550 METAR ESMX 161550Z 25008KT 9999 BKN022 14/11 Q1017=
201710161520 METAR ESMX 161520Z 26009KT 210V290 9999 BKN021 14/10 Q1017=
201710161450 METAR ESMX 161450Z 25008KT 230V290 9999 SCT021 15/10 Q1016=
201710161420 METAR ESMX 161420Z 26010KT 9999 BKN022 15/10 Q1016=
201710161350 METAR ESMX 161350Z 28008KT 240V320 9999 BKN024 16/11 Q1016=
201710161320 METAR ESMX 161320Z 26010KT 210V290 9999 BKN021 16/11 Q1016=
201710161250 METAR ESMX 161250Z 27010KT 240V300 9999 BKN022 16/11 Q1016=
201710161220 METAR ESMX 161220Z 26010KT 210V300 9999 BKN022 16/11 Q1016=
201710161150 METAR ESMX 161150Z 27013KT 250V310 9999 BKN021 16/11 Q1016=
201710161120 METAR ESMX 161120Z 26011KT 210V280 9999 BKN017 15/11 Q1016=
201710161050 METAR ESMX 161050Z 26012KT 230V290 9999 BKN017 15/12 Q1016=
201710161020 METAR ESMX 161020Z 26010KT 230V300 9999 BKN015 OVC018 15/12 Q1016=
201710160950 METAR ESMX 160950Z 25010KT 210V280 9999 BKN014 OVC024 15/12 Q1016=
201710160920 METAR ESMX 160920Z 25009KT 9999 BKN013 15/12 Q1016=
201710160850 METAR ESMX 160850Z 26010KT 230V290 9999 BKN012 14/12 Q1016=
201710160820 METAR ESMX 160820Z 26010KT 230V290 9999 BKN014 14/12 Q1015=
201710160750 METAR ESMX 160750Z 26010KT 210V290 9999 BKN014 14/11 Q1015=
201710160720 METAR ESMX 160720Z 25009KT 9999 OVC013 14/12 Q1015=
201710160650 METAR ESMX 160650Z 26010KT 9999 OVC012 14/11 Q1015=
201710160620 METAR ESMX 160620Z 25010KT 220V290 9999 OVC012 14/12 Q1014=
201710160550 METAR ESMX 160550Z 24008KT 220V290 9999 OVC013 14/12 Q1014=
201710160520 METAR ESMX 160520Z 23007KT 200V260 8000 BR OVC016 14/12 Q1014=
201710160450 METAR ESMX 160450Z 22008KT 8000 BR OVC018 14/12 Q1014=
201710160420 METAR ESMX 160420Z 23008KT 7000 BR SCT010 OVC017 14/13 Q1014=
201710160350 METAR ESMX 160350Z 23009KT 6000 BR BKN008 OVC010 14/13 Q1014=
201710160320 METAR ESMX 160320Z AUTO 24010KT 200V270 7000 BR OVC007/// 14/13 Q1015=
201710160250 METAR ESMX 160250Z AUTO 22009KT 8000 BR OVC008/// 14/13 Q1015=
201710160220 METAR ESMX 160220Z AUTO 20008KT 7000 BR OVC009/// 14/13 Q1015=
201710160150 METAR ESMX 160150Z AUTO 21008KT 7000 BR BKN010/// BKN014/// 13/12 Q1015=
201710160120 METAR ESMX 160120Z AUTO 19008KT 8000 BR OVC009/// 14/13 Q1015=
201710160050 METAR ESMX 160050Z AUTO 21008KT 8000 BR OVC009/// 14/13 Q1016=
201710160020 METAR ESMX 160020Z AUTO 20008KT 5000 BR OVC007/// 14/13 Q1016=
201710152350 METAR ESMX 152350Z 20010KT 5000 BR OVC006 14/13 Q1016=
201710152320 METAR ESMX 152320Z 19010KT 3600 BR OVC003 13/13 Q1017=
201710152250 METAR ESMX 152250Z 19010KT 2100 BR OVC002 13/12 Q1017=
201710152220 METAR ESMX 152220Z 20010KT 6000 BR OVC003 13/12 Q1017=
201710152150 METAR ESMX 152150Z 21010KT 9000 BR OVC005 13/12 Q1018=
201710152120 METAR ESMX 152120Z 18009KT 9999 OVC006 13/12 Q1018=
201710152050 METAR ESMX 152050Z 19009KT 9999 OVC007 13/12 Q1018=
201710152020 METAR ESMX 152020Z 20009KT 9999 OVC008 13/12 Q1018=
201710151950 METAR ESMX 151950Z 18009KT 9999 FEW008 BKN025 13/12 Q1018=
201710151920 METAR ESMX 151920Z 18010KT 9999 FEW006 SCT028 13/12 Q1019=
201710151850 METAR ESMX 151850Z 19009KT 9999 BKN006 OVC031 13/12 Q1019=
201710151820 METAR ESMX 151820Z 17010KT 9999 OVC005 14/13 Q1019=
201710151750 METAR ESMX 151750Z 17010KT 9999 OVC004 13/13 Q1019=
201710151720 METAR ESMX 151720Z 17009KT 9999 OVC004 13/12 Q1020=
201710151650 METAR ESMX 151650Z 16007KT 8000 BR OVC003 13/12 Q1020=
201710151620 METAR ESMX 151620Z 16005KT 9999 OVC006 13/12 Q1020=
201710151550 METAR ESMX 151550Z 19007KT 5000 -DZ BR OVC005 13/12 Q1020=
201710151520 METAR ESMX 151520Z 22008KT 9999 BKN012 14/11 Q1020=
201710151450 METAR ESMX 151450Z 21010KT 9999 OVC020 14/11 Q1020=
201710151420 METAR ESMX 151420Z 22009KT 190V260 9999 SCT024 15/10 Q1021=
201710151350 METAR ESMX 151350Z 22008KT CAVOK 16/09 Q1020=
201710151320 METAR ESMX 151320Z 23007KT 190V260 CAVOK 16/09 Q1021=
201710151250 METAR ESMX 151250Z 22005KT 190V250 CAVOK 15/09 Q1021=
201710151220 METAR ESMX 151220Z 23009KT CAVOK 15/08 Q1021=
201710151150 METAR ESMX 151150Z 23009KT 200V260 CAVOK 14/08 Q1021=
201710151120 METAR ESMX 151120Z 23006KT CAVOK 14/08 Q1021=
201710151050 METAR ESMX 151050Z 25005KT 200V280 CAVOK 13/08 Q1021=
201710151020 METAR ESMX 151020Z AUTO 24005KT 9999 OVC200/// 13/08 Q1021=
201710150950 METAR ESMX 150950Z AUTO 26007KT 240V300 9999 FEW210/// 13/08 Q1021=
201710150920 METAR ESMX 150920Z AUTO 27006KT 230V300 9999 SCT160/// BKN210/// 13/08 Q1021=
201710150850 METAR ESMX 150850Z AUTO 25007KT 9999 BKN150/// 13/09 Q1021=
201710150820 METAR ESMX 150820Z AUTO 27006KT 250V320 9999 FEW160/// 12/09 Q1021=
201710150750 METAR ESMX 150750Z AUTO 27004KT 230V310 9999 FEW009/// 11/09 Q1021=
201710150720 METAR ESMX 150720Z AUTO 27006KT 240V300 9999 OVC009/// 10/09 Q1021=
201710150650 METAR ESMX 150650Z AUTO 26006KT 230V300 9999 BKN009/// BKN011/// 10/09 Q1020=
201710150620 METAR ESMX 150620Z AUTO 26007KT 9999 SCT011/// BKN190/// 10/09 Q1020=
201710150550 METAR ESMX 150550Z AUTO 26008KT 9999 SCT012/// BKN200/// 10/09 Q1020=
201710150520 METAR ESMX 150520Z AUTO 25007KT 9999 BKN013/// BKN200/// 10/09 Q1019=
201710150450 METAR ESMX 150450Z AUTO 27005KT 240V300 9999 SCT011/// OVC210/// 10/09 Q1019=
201710150420 METAR ESMX 150420Z AUTO 27006KT 250V320 9999 FEW012/// BKN210/// 10/09 Q1019=
201710150350 METAR ESMX 150350Z AUTO 26007KT 9999 BKN012/// BKN014/// 10/09 Q1019=
201710150320 METAR ESMX 150320Z AUTO 23004KT 9999 BKN013/// 10/09 Q1019=
201710150250 METAR ESMX 150250Z AUTO 25004KT 9999 FEW190/// 10/09 Q1019=
201710150220 METAR ESMX 150220Z AUTO 25008KT 9999 FEW013/// 10/09 Q1018=
201710150150 METAR ESMX 150150Z AUTO 26007KT 9999 FEW220/// 11/09 Q1018=
201710150120 METAR ESMX 150120Z AUTO 25007KT 9999 NCD 11/09 Q1017=
201710150050 METAR ESMX 150050Z AUTO 25006KT 9999 FEW200/// 11/10 Q1017=
201710150020 METAR ESMX 150020Z AUTO 26007KT 9999 FEW015/// OVC041/// 12/10 Q1017=
201710142350 METAR ESMX 142350Z AUTO 26007KT 9999 FEW015/// BKN044/// OVC057/// 12/10 Q1017=
201710142320 METAR ESMX 142320Z AUTO 25008KT 9999 OVC042/// 13/11 Q1017=
201710142250 METAR ESMX 142250Z AUTO 25008KT 9999 OVC043/// 12/11 Q1016=
201710142220 METAR ESMX 142220Z AUTO 24007KT 9999 SCT046/// BKN062/// 12/11 Q1016=
201710142150 METAR ESMX 142150Z AUTO 24007KT 9999 SCT059/// BKN072/// 12/11 Q1016=
201710142120 METAR ESMX 142120Z AUTO 24007KT 9999 BKN059/// OVC200/// 12/11 Q1016=
201710142050 METAR ESMX 142050Z AUTO 23007KT 9999 FEW048/// BKN150/// OVC210/// 12/11 Q1016=
201710142020 METAR ESMX 142020Z AUTO 23008KT 200V260 9999 FEW012/// SCT038/// BKN076/// 12/11 Q1016=
201710141950 METAR ESMX 141950Z AUTO 24008KT 9999 FEW010/// BKN035/// 12/11 Q1016=
201710141920 METAR ESMX 141920Z AUTO 25009KT 9999 SCT010/// BKN036/// 12/11 Q1017=
201710141850 METAR ESMX 141850Z 23009KT 9999 BKN010 12/11 Q1016=
201710141820 METAR ESMX 141820Z 24010KT 9999 SCT010 BKN014 12/11 Q1016=
201710141750 METAR ESMX 141750Z 25009KT 9999 FEW023 12/11 Q1016=
201710141720 METAR ESMX 141720Z 25008KT 220V280 9999 FEW017 12/11 Q1016=
201710141650 METAR ESMX 141650Z 24009KT 9999 FEW014 12/11 Q1016=
201710141620 METAR ESMX 141620Z 25008KT CAVOK 13/11 Q1016=
201710141550 METAR ESMX 141550Z AUTO 25008KT 9999 FEW023/// 13/11 Q1016=
201710141520 METAR ESMX 141520Z AUTO 26010KT 9999 FEW017/// 13/11 Q1015=
201710141450 METAR ESMX 141450Z AUTO 26010KT 9999 FEW017/// 14/11 Q1015=
201710141420 METAR ESMX 141420Z AUTO 27014KT 240V300 9999 SCT017/// BKN023/// 14/12 Q1015=
201710141350 METAR ESMX 141350Z AUTO 26013G25KT 230V310 9999 SCT014/// BKN017/// 15/13 Q1015=
201710141320 METAR ESMX 141320Z AUTO 26011KT 9999 FEW016/// SCT023/// OVC029/// 15/13 Q1015=
201710141250 METAR ESMX 141250Z AUTO 28012KT 9999 FEW010/// SCT015/// OVC028/// 15/13 Q1015=
201710141220 METAR ESMX 141220Z AUTO 25008KT 210V290 7000 -DZ BKN008/// OVC012/// 15/14 Q1014=
201710141150 METAR ESMX 141150Z AUTO 26009KT 230V290 4500 DZ SCT009/// BKN026/// 15/14 Q1014 REDZ=
201710141120 METAR ESMX 141120Z AUTO 26009KT 3300 BR VV007 15/15 Q1014=
201710141050 METAR ESMX 141050Z AUTO 25009KT 2600 -DZ VV006 15/14 Q1014=
201710141020 METAR ESMX 141020Z AUTO 25010KT 2200 DZ VV007 15/14 Q1014 REDZ=
201710140950 METAR ESMX 140950Z AUTO 24010KT 190V250 4000 BR SCT000/// BKN007/// 15/14 Q1014 REDZ=
201710140920 METAR ESMX 140920Z AUTO 23010KT 2700 -DZ VV006 15/14 Q1014 REDZ=
201710140850 METAR ESMX 140850Z 23009KT 210V270 5000 BR BKN008 15/14 Q1014=
201710140820 METAR ESMX 140820Z 24009KT 3500 -DZ BR VV008 15/14 Q1014=
201710140750 METAR ESMX 140750Z 22009KT 2200 -DZ BR OVC003 15/14 Q1013=
201710140720 METAR ESMX 140720Z 22010KT 3500 BR OVC003 15/14 Q1013=
201710140650 METAR ESMX 140650Z AUTO 24010KT 6000 BR OVC004/// 15/14 Q1013 REDZ=
201710140620 METAR ESMX 140620Z AUTO 24010KT 7000 BR OVC004/// 15/14 Q1013=
201710140550 METAR ESMX 140550Z AUTO 24009KT 210V280 3500 BR OVC004/// 15/14 Q1013 REDZ=
201710140520 METAR ESMX 140520Z AUTO 24008KT 2500 DZ OVC002/// 14/14 Q1013=
201710140450 METAR ESMX 140450Z AUTO 23008KT 210V270 2400 BR OVC001/// 14/14 Q1013=
201710140420 METAR ESMX 140420Z AUTO 23007KT 1900 BR OVC001/// 14/13 Q1013=
201710140350 METAR ESMX 140350Z AUTO 22008KT 3500 BR OVC002/// 14/13 Q1013=
201710140320 METAR ESMX 140320Z AUTO 23010KT 3000 BR OVC002/// 13/13 Q1013=
201710140250 METAR ESMX 140250Z AUTO 22010KT 2200 BR OVC002/// 13/13 Q1014=
201710140220 METAR ESMX 140220Z AUTO 22010KT 6000 BR OVC002/// 13/13 Q1014=
201710140150 METAR ESMX 140150Z AUTO 21010KT 2600 BR OVC002/// 13/12 Q1014=
201710140120 METAR ESMX 140120Z AUTO 22009KT 3900 BR OVC002/// 13/12 Q1014=
201710140050 METAR ESMX 140050Z AUTO 22010KT 2400 BR OVC002/// 12/12 Q1015 REDZ=
201710140020 METAR ESMX 140020Z AUTO 21010KT 3400 BR OVC002/// 12/11 Q1015=
201710132350 METAR ESMX 132350Z AUTO 21010KT 6000 BR OVC003/// 12/11 Q1015=
201710132320 METAR ESMX 132320Z AUTO 20010KT 4300 BR OVC003/// 11/11 Q1015 REDZ=
201710132250 METAR ESMX 132250Z AUTO 19010KT 8000 -DZ OVC003/// 11/11 Q1015=
201710132220 METAR ESMX 132220Z AUTO 19010KT 4100 DZ OVC003/// 11/10 Q1016 REDZ=
201710132150 METAR ESMX 132150Z AUTO 19009KT 9000 -RA SCT004/// OVC006/// 11/10 Q1016 REDZ=
201710132120 METAR ESMX 132120Z AUTO 19008KT 9999 DZ FEW004/// OVC006/// 11/09 Q1016=
201710132050 METAR ESMX 132050Z AUTO 19009KT 9999 BR SCT004/// BKN007/// OVC010/// 11/09 Q1017=
201710132020 METAR ESMX 132020Z AUTO 18009KT 9999 BKN011/// OVC015/// 11/08 Q1017=
201710131950 METAR ESMX 131950Z 17007KT 9999 BKN020 OVC045 11/08 Q1017=
201710131920 METAR ESMX 131920Z 17007KT 9999 BKN040 10/08 Q1017=
201710131850 METAR ESMX 131850Z 18007KT 9999 OVC046 10/08 Q1018=
201710131820 METAR ESMX 131820Z 18006KT 9999 OVC045 10/07 Q1018=
201710131750 METAR ESMX 131750Z 17005KT CAVOK 10/07 Q1018=
201710131720 METAR ESMX 131720Z 18004KT 9999 -RA NSC 11/07 Q1018=
201710131650 METAR ESMX 131650Z 20004KT CAVOK 11/06 Q1018=
201710131620 METAR ESMX 131620Z 23005KT CAVOK 11/07 Q1018=
201710131550 METAR ESMX 131550Z 17003KT CAVOK 11/06 Q1018=
201710131520 METAR ESMX 131520Z 24003KT CAVOK 12/06 Q1018=
201710131450 METAR ESMX 131450Z 26005KT 210V300 CAVOK 12/06 Q1018=
201710131420 METAR ESMX 131420Z 25005KT CAVOK 12/05 Q1018=
201710131350 METAR ESMX 131350Z 26005KT CAVOK 12/04 Q1018=
201710131320 METAR ESMX 131320Z 28008KT 240V300 CAVOK 12/04 Q1018=
201710131250 METAR ESMX 131250Z 27008KT CAVOK 13/05 Q1018=
201710131220 METAR ESMX 131220Z 29008KT 250V320 CAVOK 12/04 Q1018=
201710131150 METAR ESMX 131150Z 27010KT CAVOK 12/04 Q1018=
201710131120 METAR ESMX 131120Z 28008KT 260V320 CAVOK 12/04 Q1018=
201710131050 METAR ESMX 131050Z 29009KT CAVOK 11/04 Q1017=
201710131020 METAR ESMX 131020Z 29005KT 260V330 CAVOK 10/03 Q1017=
201710130950 METAR ESMX 130950Z 31007KT 280V340 CAVOK 09/04 Q1017=
201710130920 METAR ESMX 130920Z 30007KT 260V330 CAVOK 09/04 Q1017=
201710130850 METAR ESMX 130850Z 32008KT 290V360 CAVOK 09/04 Q1017=
201710130820 METAR ESMX 130820Z 31010KT CAVOK 08/03 Q1016=
201710130750 METAR ESMX 130750Z 32007KT 280V350 CAVOK 08/03 Q1016=
201710130720 METAR ESMX 130720Z 32007KT CAVOK 07/03 Q1016=
201710130650 METAR ESMX 130650Z 31007KT CAVOK 06/03 Q1015=
201710130620 METAR ESMX 130620Z 30008KT 280V340 CAVOK 06/03 Q1014=
201710130550 METAR ESMX 130550Z 31007KT CAVOK 06/03 Q1014=
201710130520 METAR ESMX 130520Z 30008KT CAVOK 06/03 Q1013=
201710130450 METAR ESMX 130450Z 30011KT CAVOK 07/03 Q1013=
201710130420 METAR ESMX 130420Z 30012KT CAVOK 07/03 Q1012=
201710130350 METAR ESMX 130350Z 30012KT CAVOK 07/03 Q1012=
201710130320 METAR ESMX 130320Z AUTO 30011KT 9999 NCD 07/03 Q1011=
201710130250 METAR ESMX 130250Z AUTO 30011G23KT 9999 NCD 08/03 Q1011=
201710130220 METAR ESMX 130220Z AUTO 29013KT 9999 NCD 08/04 Q1010=
201710130150 METAR ESMX 130150Z AUTO 29012KT 9999 NCD 08/04 Q1009=
201710130120 METAR ESMX 130120Z AUTO 29012KT 9999 NCD 09/04 Q1009=
201710130050 METAR ESMX 130050Z AUTO 29011G21KT 250V320 9999 NCD 09/05 Q1008=
201710130020 METAR ESMX 130020Z AUTO 28014G26KT 9999 NCD 09/05 Q1007=
201710122350 METAR ESMX 122350Z 27014KT 240V300 CAVOK 09/05 Q1006=
201710122320 METAR ESMX 122320Z 28013KT CAVOK 09/05 Q1006=
201710122250 METAR ESMX 122250Z 27014KT CAVOK 09/05 Q1005=
201710122220 METAR ESMX 122220Z 26016G29KT 9999 FEW025 09/05 Q1005=
201710122150 METAR ESMX 122150Z 27015G27KT 9999 SCT024 09/05 Q1005=
201710122120 METAR ESMX 122120Z 27013KT 9999 FEW025 09/05 Q1004=
201710122050 METAR ESMX 122050Z 27015G25KT 9999 BKN025 10/05 Q1004=
201710122020 METAR ESMX 122020Z 27015KT 9999 BKN027 10/05 Q1004=
201710121950 METAR ESMX 121950Z 27015G27KT 9999 SCT030 10/05 Q1003=
201710121920 METAR ESMX 121920Z 27014KT 230V300 9999 FEW025 BKN043 10/05 Q1003=
201710121850 METAR ESMX 121850Z 27014G24KT 9999 FEW025 BKN053 09/05 Q1003=
201710121820 METAR ESMX 121820Z 26018G29KT 9999 BKN025 BKN035 10/05 Q1002=
201710121750 METAR ESMX 121750Z 25014G24KT 210V300 9999 BKN026 10/05 Q1002=
201710121720 METAR COR ESMX 121720Z 26015G26KT 9999 FEW010 BKN025 BKN045 10/05 Q1002=
201710121650 METAR ESMX 121650Z 26017KT 9999 BKN033 BKN043 10/05 Q1002=
201710121620 METAR ESMX 121620Z 26017G30KT 9999 FEW029 SCT045 10/06 Q1001=
201710121550 METAR ESMX 121550Z 27015G26KT 9999 SCT025 BKN039 10/06 Q1001=
201710121520 METAR ESMX 121520Z 26016G30KT 210V290 9999 SCT025 BKN032 11/06 Q1001=
201710121450 METAR ESMX 121450Z 27016G27KT 9999 FEW020 BKN044 11/08 Q1000=
201710121420 METAR ESMX 121420Z 25018KT 9999 -RA SCT026 12/07 Q0999=
201710121350 METAR ESMX 121350Z 26017G27KT 220V280 9999 SCT024 BKN047 12/08 Q0999=
201710121320 METAR ESMX 121320Z 26016G27KT 230V300 9999 OVC020 11/08 Q0999=
201710121250 METAR ESMX 121250Z 25015KT 210V290 9999 FEW005 BKN019 OVC024 11/08 Q0998=
201710121220 METAR ESMX 121220Z 24013G27KT 9999 -RA FEW009 SCT017 BKN024 11/09 Q0998 RERA=
201710121150 METAR ESMX 121150Z 25014KT 9999 SCT016 BKN026 12/09 Q0998=
201710121120 METAR ESMX 121120Z 23014KT 9999 -RA BKN017 OVC023 12/09 Q0997=
201710121050 METAR ESMX 121050Z 24015KT 200V270 9999 FEW006 BKN015 12/09 Q0997=
201710121020 METAR ESMX 121020Z 24013KT 9999 BKN015 12/10 Q0997=
201710120950 METAR ESMX 120950Z 24012KT 9999 BKN014 OVC053 12/10 Q0997=
201710120920 METAR ESMX 120920Z 23011G21KT 9999 FEW009 BKN016 BKN033 12/10 Q0997=
201710120850 METAR ESMX 120850Z 23013KT 9999 -RA SCT008 BKN019 OVC042 11/10 Q0997=
201710120820 METAR ESMX 120820Z 24011KT 200V280 9999 -RA FEW008 SCT013 BKN042 12/10 Q0996=
201710120750 METAR ESMX 120750Z 19015KT 9999 BKN007 OVC012 12/11 Q0996=
201710120720 METAR ESMX 120720Z 19012KT 9000 BR BKN006 12/11 Q0996=
201710120650 METAR ESMX 120650Z 19014KT 9999 OVC007 12/11 Q0997=
201710120620 METAR ESMX 120620Z 19014KT 9000 BR BKN005 OVC009 11/11 Q0997=
201710120550 METAR ESMX 120550Z 19013KT 5000 DZ BR FEW002 OVC005 11/11 Q0997=
201710120520 METAR ESMX 120520Z 19012KT 9000 DZ BR BKN005 OVC011 12/11 Q0998=
201710120450 METAR ESMX 120450Z 18013KT 3800 DZ BR BKN005 12/11 Q0998=
201710120420 METAR ESMX 120420Z 19013KT 3400 DZ BR FEW002 OVC005 12/11 Q0999=
201710120350 METAR ESMX 120350Z 19012KT 5000 -DZ BR BKN005 12/11 Q0999=
201710120320 METAR ESMX 120320Z AUTO 19013KT 8000 BR OVC005/// 12/11 Q1000 REDZ=
201710120250 METAR ESMX 120250Z AUTO 19011KT 9999 -RA BKN007/// OVC009/// 12/11 Q1000=
201710120220 METAR ESMX 120220Z AUTO 19011KT 9999 BKN007/// OVC009/// 12/11 Q1001=
201710120150 METAR ESMX 120150Z AUTO 20010KT 9999 OVC008/// 12/11 Q1001=
201710120120 METAR ESMX 120120Z AUTO 20012KT 9999 OVC008/// 12/11 Q1002=
201710120050 METAR ESMX 120050Z AUTO 21011KT 9999 BKN006/// OVC009/// 12/11 Q1002 REDZ=
201710120020 METAR ESMX 120020Z AUTO 21011KT 7000 BR BKN006/// OVC008/// 12/11 Q1002=
201710112350 METAR ESMX 112350Z 21010KT 4000 DZ BKN004 13/12 Q1003=
201710112320 METAR ESMX 112320Z 23010KT 4000 DZ BR OVC005 13/12 Q1003=
201710112250 METAR ESMX 112250Z 22010KT 6000 -DZ BKN005 13/12 Q1003=
201710112220 METAR ESMX 112220Z 21010KT 9999 BKN010 13/12 Q1003=
201710112150 METAR ESMX 112150Z 22010KT 190V250 9999 BKN006 13/12 Q1003=
201710112120 METAR ESMX 112120Z 20010KT 7000 -DZ BR BKN005 12/12 Q1004=
201710112050 METAR ESMX 112050Z 20010KT 4500 -DZ BR OVC003 12/12 Q1004=
201710112020 METAR ESMX 112020Z 19010KT 9999 -DZ OVC003 12/11 Q1004=
201710111950 METAR ESMX 111950Z 18010KT 4000 DZ BR OVC003 12/11 Q1004=
201710111920 METAR ESMX 111920Z 17008KT 4000 DZ BR OVC003 11/11 Q1004=
201710111850 METAR ESMX 111850Z 16008KT 7000 DZ BR OVC003 11/11 Q1004=
201710111820 METAR ESMX 111820Z 17008KT 7000 -RADZ OVC003 11/11 Q1005=
201710111750 METAR ESMX 111750Z 17006KT 9999 OVC004 11/10 Q1005=
201710111720 METAR ESMX 111720Z 17006KT 9999 OVC004 11/10 Q1005=
201710111650 METAR ESMX 111650Z 17006KT 8000 BR OVC003 11/10 Q1005=
201710111620 METAR ESMX 111620Z 16006KT 5000 -RA BKN004 OVC008 11/10 Q1005=
201710111550 METAR ESMX 111550Z 17007KT 7000 FEW006 BKN013 11/09 Q1005=
201710111520 METAR ESMX 111520Z 18006KT 9999 FEW014 BKN022 12/09 Q1005=
201710111450 METAR ESMX 111450Z 16005KT 9999 FEW019 BKN029 BKN043 12/08 Q1006=
201710111420 METAR ESMX 111420Z 18006KT 9999 FEW036 OVC051 12/08 Q1006=
201710111350 METAR ESMX 111350Z 20006KT 9999 FEW018 BKN023 BKN046 12/08 Q1006=
201710111320 METAR ESMX 111320Z 20007KT 9999 BKN018 BKN068 12/08 Q1006=
201710111250 METAR ESMX 111250Z 21007KT 9999 FEW020 BKN050 12/08 Q1006=
201710111220 METAR ESMX 111220Z 23008KT 9999 BKN020 OVC055 12/08 Q1006=
201710111150 METAR ESMX 111150Z 22008KT 9999 SCT019 BKN064 12/08 Q1006=
201710111120 METAR ESMX 111120Z 23007KT 9999 SCT021 BKN064 11/07 Q1006=
201710111050 METAR ESMX 111050Z 23007KT 9999 FEW020 BKN065 12/07 Q1006=
201710111020 METAR ESMX 111020Z 24007KT 210V270 9999 FEW018 OVC066 11/07 Q1006=
201710110950 METAR ESMX 110950Z 27007KT 9999 BKN025 11/07 Q1006=
201710110920 METAR ESMX 110920Z 24007KT 210V290 9999 BKN015 10/07 Q1006=
201710110850 METAR ESMX 110850Z 25007KT 220V280 9999 BKN015 10/07 Q1006=
201710110820 METAR ESMX 110820Z 25007KT 9999 BKN010 09/07 Q1006=
201710110750 METAR ESMX 110750Z 25006KT 220V280 9999 BKN011 09/07 Q1006=
201710110720 METAR ESMX 110720Z 27004KT 250V310 9999 FEW011 SCT016 09/07 Q1005=
201710110650 METAR ESMX 110650Z 27006KT 9999 SCT012 09/07 Q1005=
201710110620 METAR ESMX 110620Z 27006KT 9999 SCT014 08/07 Q1005=
201710110550 METAR ESMX 110550Z 27006KT 9999 FEW011 BKN019 08/07 Q1005=
201710110520 METAR COR ESMX 110520Z 27007KT 9999 FEW010 BKN018 08/07 Q1004=
201710110450 METAR ESMX 110450Z 27009KT 9999 OVC010 08/07 Q1004=
201710110420 METAR ESMX 110420Z 26009KT 230V290 9999 BKN011 OVC021 08/07 Q1003=
201710110350 METAR ESMX 110350Z 26010KT 9999 OVC009 09/07 Q1003=
201710110320 METAR ESMX 110320Z AUTO 26010KT 9999 BKN009/// OVC012/// 09/07 Q1003=
201710110250 METAR ESMX 110250Z AUTO 25009KT 9999 OVC011/// 09/07 Q1002=
201710110220 METAR ESMX 110220Z AUTO 24010KT 210V280 9999 OVC011/// 09/07 Q1002=
201710110150 METAR ESMX 110150Z 25009KT 210V280 9999 BKN014 09/07 Q1002=
201710110120 METAR ESMX 110120Z 25009KT 9999 SCT012 BKN028 09/07 Q1002=
201710110050 METAR COR ESMX 110050Z 25007KT 220V280 9999 BKN013 OVC016 09/08 Q1002=
201710110020 METAR ESMX 110020Z AUTO 25008KT 9999 BKN015/// 09/08 Q1002=
201710102350 METAR ESMX 102350Z 25007KT 230V290 9999 FEW007 SCT012 BKN028 09/08 Q1002=
201710102320 METAR ESMX 102320Z 25008KT 9999 BKN006 OVC031 09/09 Q1002=
201710102250 METAR ESMX 102250Z 24006KT 9999 OVC004 09/08 Q1002=
201710102220 METAR ESMX 102220Z 20008KT 9999 OVC003 08/08 Q1002=
201710102150 METAR ESMX 102150Z 16006KT 9999 OVC003 08/07 Q1002=
201710102120 METAR ESMX 102120Z 16005KT 7000 -DZ OVC003 07/07 Q1002=
201710102050 METAR ESMX 102050Z 15004KT 110V190 9999 -RA BKN004 OVC008 07/07 Q1002=
201710101950 METAR ESMX 101950Z 17004KT 9000 -RA OVC013 07/06 Q1003=
201710101920 METAR ESMX 101920Z 19004KT 9999 -RA BKN019 OVC030 07/06 Q1004=
201710101850 METAR ESMX 101850Z 19005KT 9999 -RA BKN023 OVC029 08/06 Q1004=
201710101820 METAR ESMX 101820Z 17003KT 9999 BKN031 OVC043 08/05 Q1004=
201710101750 METAR ESMX 101750Z 18004KT CAVOK 08/05 Q1005=
201710101720 METAR ESMX 101720Z 18003KT CAVOK 07/05 Q1005=
201710101650 METAR ESMX 101650Z 16003KT CAVOK 07/05 Q1005=
201710101620 METAR ESMX 101620Z 15002KT CAVOK 07/05 Q1005=
201710101550 METAR ESMX 101550Z 13002KT CAVOK 08/05 Q1006=
201710101520 METAR ESMX 101520Z VRB01KT CAVOK 09/05 Q1006=
201710101450 METAR ESMX 101450Z 33002KT CAVOK 09/04 Q1006=
201710101420 METAR ESMX 101420Z 28005KT 240V340 9999 FEW020 09/04 Q1006=
201710101350 METAR ESMX 101350Z 30008KT 260V330 9999 SCT020 09/04 Q1007=
201710101320 METAR ESMX 101320Z 30007KT 260V330 9999 SCT016 09/04 Q1007=
201710101250 METAR ESMX 101250Z 25006KT 210V290 9999 OVC016 08/04 Q1007=
201710101220 METAR ESMX 101220Z 31008KT 9999 OVC015 08/04 Q1007=
201710101150 METAR ESMX 101150Z 29008KT 9999 OVC016 08/05 Q1007=
201710101120 METAR ESMX 101120Z 27009KT 9999 OVC014 08/05 Q1008=
201710101050 METAR ESMX 101050Z 30007KT 9999 OVC011 08/05 Q1008=
201710101020 METAR ESMX 101020Z 28006KT 250V320 9999 BKN010 07/04 Q1008=
201710100950 METAR ESMX 100950Z 26008KT 9999 OVC009 07/05 Q1008=
201710100920 METAR ESMX 100920Z 25007KT 9999 BKN010 08/05 Q1008=
201710100850 METAR ESMX 100850Z 28006KT 9999 BKN011 08/05 Q1008=
201710100820 METAR ESMX 100820Z 30007KT 9999 BKN011 07/05 Q1008=
201710100750 METAR ESMX 100750Z 30005KT 9999 BKN011 07/05 Q1008=
201710100720 METAR ESMX 100720Z 28005KT 9999 BKN012 07/05 Q1008=
201710100650 METAR ESMX 100650Z 27006KT 9999 BKN013 06/05 Q1008=
201710100620 METAR ESMX 100620Z 27005KT 9999 BKN012 06/05 Q1007=
201710100550 METAR ESMX 100550Z 27004KT 9999 OVC011 06/05 Q1008=
201710100520 METAR ESMX 100520Z 28005KT 9999 BKN010 06/04 Q1007=
201710100450 METAR ESMX 100450Z 29006KT 9999 SCT013 BKN036 OVC080 05/04 Q1007=
201710100420 METAR ESMX 100420Z 28005KT 9999 SCT038 04/03 Q1007=
201710100350 METAR ESMX 100350Z 28006KT 9999 BKN014 OVC037 05/04 Q1007=
201710100320 METAR ESMX 100320Z AUTO 29005KT 9999 BKN014/// 05/04 Q1008=
201710100250 METAR ESMX 100250Z AUTO 29005KT 9999 SCT016/// OVC037/// 05/04 Q1008=
201710100220 METAR ESMX 100220Z AUTO 28005KT 9999 BKN016/// BKN038/// 06/04 Q1008=
201710100150 METAR ESMX 100150Z AUTO 30006KT 9999 BKN016/// OVC022/// 07/05 Q1008=
201710100120 METAR ESMX 100120Z AUTO 31008KT 9999 OVC020/// 07/05 Q1008=
201710100050 METAR ESMX 100050Z AUTO 31009KT 9999 SCT017/// OVC023/// 07/04 Q1008=
201710100020 METAR ESMX 100020Z AUTO 31008KT 9999 OVC018/// 07/04 Q1008=
201710092350 METAR ESMX 092350Z 31008KT 9999 OVC017 07/05 Q1008=
201710092320 METAR ESMX 092320Z AUTO 30007KT 9999 OVC017/// 07/05 Q1008=
201710092250 METAR ESMX 092250Z 30008KT 9999 OVC015 07/05 Q1008=
201710092220 METAR ESMX 092220Z 31009KT 280V340 9999 OVC018 07/05 Q1008=
201710092150 METAR ESMX 092150Z AUTO 31008KT 9999 OVC017/// 07/05 Q1008=
201710092120 METAR ESMX 092120Z 31009KT 270V340 9999 OVC016 07/05 Q1008=
201710092050 METAR ESMX 092050Z 31008KT 9999 OVC015 07/05 Q1008=
201710092020 METAR COR ESMX 092020Z 31009KT 9999 BKN015 OVC020 07/05 Q1009=
201710091950 METAR ESMX 091950Z 31010KT 9999 SCT015 OVC024 07/05 Q1009=
201710091920 METAR ESMX 091920Z 31011KT 9999 FEW016 OVC025 07/05 Q1009=
201710091850 METAR ESMX 091850Z 30009KT 270V330 9999 BKN016 OVC021 07/05 Q1009=
201710091820 METAR ESMX 091820Z 30009KT 9999 SCT015 OVC022 07/05 Q1009=
201710091750 METAR ESMX 091750Z 31009KT 9999 FEW009 BKN015 OVC019 07/05 Q1009=
201710091720 METAR ESMX 091720Z 31009KT 9999 BKN016 OVC022 07/05 Q1009=
201710091650 METAR ESMX 091650Z 31009KT 9999 BKN014 07/05 Q1009=
201710091620 METAR ESMX 091620Z 30009KT 9999 SCT015 BKN022 07/05 Q1009=
201710091550 METAR ESMX 091550Z 31010KT 9999 BKN023 08/05 Q1009=
201710091520 METAR ESMX 091520Z 32010KT 9999 BKN016 08/05 Q1009=
201710091450 METAR ESMX 091450Z 32011KT 9999 BKN017 08/05 Q1009=
201710091420 METAR ESMX 091420Z 33012KT 9999 BKN017 08/04 Q1009=
201710091350 METAR ESMX 091350Z 32012KT 9999 BKN019 08/04 Q1009=
201710091320 METAR ESMX 091320Z 32013KT 9999 BKN019 08/04 Q1009=
201710091250 METAR ESMX 091250Z 33013KT 9999 BKN019 08/04 Q1009=
201710091220 METAR ESMX 091220Z 32013KT 9999 BKN018 08/04 Q1008=
201710091150 METAR ESMX 091150Z 32013KT 9999 OVC017 08/04 Q1008=
201710091120 METAR ESMX 091120Z 31012KT 9999 OVC017 08/04 Q1008=
201710091050 METAR ESMX 091050Z 32012KT 9999 OVC016 08/04 Q1008=
201710091020 METAR ESMX 091020Z 32012KT 9999 OVC015 08/04 Q1008=
201710090950 METAR ESMX 090950Z 32013KT 9999 OVC016 08/04 Q1008=
201710090920 METAR ESMX 090920Z 32013KT 9999 BKN016 07/04 Q1008=
201710090850 METAR ESMX 090850Z 31012KT 9999 BKN017 07/04 Q1008=
201710090820 METAR ESMX 090820Z 31011KT 9999 BKN017 07/04 Q1008=
201710090750 METAR ESMX 090750Z 31010KT 9999 BKN017 BKN062 06/03 Q1007=
201710090720 METAR ESMX 090720Z 31010KT 9999 -RA SCT017 BKN050 05/03 Q1007=
201710090650 METAR ESMX 090650Z 31010KT 9999 BKN040 05/03 Q1007=
201710090620 METAR ESMX 090620Z 31010KT 9999 BKN044 05/03 Q1007=
201710090550 METAR ESMX 090550Z 31010KT CAVOK 04/02 Q1007=
201710090520 METAR COR ESMX 090520Z 31012KT CAVOK 04/02 Q1007=
201710090450 METAR COR ESMX 090450Z 31011KT 9999 FEW020 04/02 Q1007=
201710090420 METAR ESMX 090420Z 31010KT CAVOK 04/02 Q1007=
201710090350 METAR ESMX 090350Z 31011KT CAVOK 04/02 Q1007=
201710090320 METAR ESMX 090320Z AUTO 31010KT 9999 NCD 04/02 Q1007=
201710090250 METAR ESMX 090250Z AUTO 31010KT 9999 NCD 04/02 Q1007=
201710090220 METAR ESMX 090220Z AUTO 31010KT 9999 NCD 04/02 Q1008=
201710090150 METAR ESMX 090150Z AUTO 31009KT 9999 NCD 05/02 Q1008=
201710090120 METAR ESMX 090120Z AUTO 31010KT 9999 NCD 05/02 Q1008=
201710090050 METAR ESMX 090050Z AUTO 31010KT 9999 NCD 05/02 Q1008=
201710090020 METAR ESMX 090020Z AUTO 31011KT 9999 NCD 05/02 Q1008=
201710082350 METAR ESMX 082350Z AUTO 30010KT 9999 NCD 05/02 Q1008=
201710082320 METAR ESMX 082320Z 31011KT 270V330 CAVOK 05/02 Q1008=
201710082250 METAR ESMX 082250Z 31012KT CAVOK 06/03 Q1008=
201710082220 METAR COR ESMX 082220Z 31012KT CAVOK 06/02 Q1008=
201710082150 METAR ESMX 082150Z AUTO 31010KT 9999 NCD 06/03 Q1008=
201710082120 METAR ESMX 082120Z AUTO 30010KT 9999 NCD 06/03 Q1008=
201710082050 METAR ESMX 082050Z 31012KT CAVOK 06/03 Q1008=
201710082020 METAR ESMX 082020Z 30011KT CAVOK 06/03 Q1008=
201710081950 METAR ESMX 081950Z 31012KT CAVOK 06/04 Q1008=
201710081920 METAR ESMX 081920Z 30010KT CAVOK 06/04 Q1008=
201710081850 METAR ESMX 081850Z 30010KT CAVOK 06/04 Q1008=
201710081820 METAR ESMX 081820Z 28010KT 9999 -RA SCT061 OVC120 06/04 Q1007=
201710081750 METAR ESMX 081750Z 29011KT 9999 FEW048 OVC061 06/05 Q1007=
201710081720 METAR ESMX 081720Z 30010KT 9999 -RA SCT024 BKN044 OVC055 06/05 Q1007=
201710081650 METAR ESMX 081650Z 31010KT 9999 -RA BKN013 06/05 Q1007=
201710081620 METAR ESMX 081620Z 30010KT 280V340 9999 DZ BKN011 06/05 Q1007=
201710081550 METAR ESMX 081550Z 29010KT 9999 DZ BKN015 06/04 Q1007=
201710081520 METAR ESMX 081520Z 31012KT 9999 -DZ BKN017 07/04 Q1007=
201710081450 METAR ESMX 081450Z 30011KT 270V350 9999 SCT024 BKN033 07/03 Q1006=
201710081420 METAR ESMX 081420Z 30011KT 260V330 9999 SCT025 BKN037 07/02 Q1006=
201710081350 METAR ESMX 081350Z AUTO 31014KT 9999 -DZ FEW016/// BKN023/// 07/03 Q1006 RERA=
201710081320 METAR ESMX 081320Z 31012KT 270V330 9999 -RA FEW021 SCT027 06/04 Q1006=
201710081250 METAR ESMX 081250Z 29013KT 9999 BKN034 08/03 Q1006=
201710081220 METAR ESMX 081220Z 32012KT 280V350 9999 BKN036 08/01 Q1005=
201710081150 METAR ESMX 081150Z 30014KT 260V320 9999 SCT028 08/02 Q1005=
201710081120 METAR ESMX 081120Z 30011KT 9999 -DZ FEW020 07/03 Q1005=
201710081050 METAR ESMX 081050Z 30011KT 260V340 9999 SCT018 BKN034 07/04 Q1005=
201710081020 METAR ESMX 081020Z AUTO 30010KT 260V320 9999 RA BKN016/// BKN023/// OVC040/// 06/04 Q1005 REUP RERA=
201710080950 METAR ESMX 080950Z AUTO 31010KT 270V340 9999 BKN015/// OVC022/// 07/03 Q1005=
201710080920 METAR ESMX 080920Z AUTO 31011KT 280V340 9999 BKN013/// 06/04 Q1005=
201710080850 METAR ESMX 080850Z AUTO 30010KT 270V330 9999 BKN010/// 06/03 Q1004=
201710080820 METAR ESMX 080820Z AUTO 31010KT 290V350 9999 BKN009/// BKN013/// 05/04 Q1004=
201710080750 METAR ESMX 080750Z AUTO 32011KT 9999 SCT008/// BKN031/// 05/04 Q1004=
201710080720 METAR ESMX 080720Z AUTO 31008KT 280V340 9999 FEW007/// 04/03 Q1003=
201710080650 METAR ESMX 080650Z AUTO 31007KT 9999 FEW035/// 04/03 Q1003=
201710080620 METAR ESMX 080620Z AUTO 30007KT 9999 NCD 03/02 Q1002=
201710080550 METAR ESMX 080550Z AUTO 32006KT 9999 FEW008/// 03/02 Q1002=
201710080520 METAR ESMX 080520Z AUTO 31007KT 9999 OVC007/// 03/02 Q1002=
201710080450 METAR ESMX 080450Z AUTO 31006KT 9999 -DZ OVC006/// 04/03 Q1001 RESHUP REUP REDZ=
201710080420 METAR ESMX 080420Z AUTO 31006KT 9999 OVC006/// 03/03 Q1001=
201710080350 METAR ESMX 080350Z AUTO 32006KT 9999 BKN006/// OVC053/// 03/02 Q1001=
201710080320 METAR ESMX 080320Z AUTO 31005KT 9999 SCT006/// BKN055/// BKN078/// 03/02 Q1000=
201710080250 METAR ESMX 080250Z AUTO 27005KT 9999 FEW084/// 03/02 Q0999=
201710080220 METAR ESMX 080220Z AUTO 27003KT 9999 NCD 02/02 Q0999=
201710080150 METAR ESMX 080150Z AUTO 26004KT 9999 BKN013/// 03/02 Q0999=
201710080120 METAR ESMX 080120Z AUTO 29004KT 9999 NCD 02/02 Q0999=
201710080050 METAR ESMX 080050Z AUTO 29005KT 9999 NCD 03/03 Q0999=
201710080020 METAR ESMX 080020Z AUTO 30006KT 9999 NCD 04/04 Q0998=
201710072350 METAR ESMX 072350Z AUTO 30006KT 9999 NCD 04/03 Q0998=
201710072320 METAR ESMX 072320Z AUTO 31005KT 9999 FEW006/// 04/04 Q0998=
201710072250 METAR ESMX 072250Z AUTO 31005KT 9999 FEW008/// 04/04 Q0998=
201710072220 METAR ESMX 072220Z AUTO 31007KT 9999 FEW007/// SCT009/// 05/05 Q0998=
201710072150 METAR ESMX 072150Z AUTO 32006KT 9999 BKN008/// 05/05 Q0998=
201710072120 METAR ESMX 072120Z AUTO 31005KT 9999 NCD 05/04 Q0998=
201710072050 METAR ESMX 072050Z AUTO 30004KT 9999 FEW190/// 06/05 Q0997=
201710072020 METAR ESMX 072020Z AUTO 32002KT 9999 FEW045/// BKN066/// BKN180/// 06/06 Q0998 REDZ=
201710071950 METAR ESMX 071950Z AUTO 31002KT 9999 DZ FEW005/// OVC042/// 07/06 Q0998=
201710071920 METAR ESMX 071920Z AUTO 30001KT 9999 -DZ FEW038/// BKN049/// OVC059/// 07/06 Q0998=
201710071850 METAR ESMX 071850Z 31002KT 9999 DZ OVC039 07/06 Q0998=
201710071820 METAR ESMX 071820Z VRB02KT 9999 -DZ FEW019 OVC028 07/06 Q0998=
201710071750 METAR ESMX 071750Z 34004KT 300V360 3500 +DZ BKN016 07/07 Q0998=
201710071720 METAR ESMX 071720Z 22003KT 9999 DZ FEW002 BKN005 07/07 Q0999=
201710071650 METAR ESMX 071650Z 23003KT 5000 -RA SCT007 BKN009 07/07 Q0999 RERA=
201710071620 METAR COR ESMX 071620Z 22006KT 2900 BR SCT005 BKN008 08/07 Q0999=
201710071550 METAR ESMX 071550Z AUTO 22007KT 9999 -DZ SCT005/// BKN007/// BKN010/// 08/07 Q0999=
201710071520 METAR ESMX 071520Z AUTO 22008KT 9999 -DZ OVC007/// 08/07 Q0999=
201710071450 METAR ESMX 071450Z AUTO 22008KT 9999 -RA BKN006/// OVC008/// 08/07 Q1000=
201710071420 METAR ESMX 071420Z AUTO 21009KT 9999 -RA SCT009/// BKN020/// OVC025/// 08/07 Q1000 RESHUP=
201710071350 METAR ESMX 071350Z AUTO 22010KT 9999 -RA SCT009/// BKN034/// OVC047/// 08/06 Q1001 RERA REDZ=
201710071320 METAR ESMX 071320Z AUTO 22010KT 9999 BKN008/// BKN026/// 08/07 Q1001=
201710071250 METAR ESMX 071250Z AUTO 22010KT 9999 -RA SCT008/// BKN026/// OVC046/// 08/06 Q1001=
201710071220 METAR ESMX 071220Z AUTO 23011KT 9999 -RA BKN007/// BKN012/// OVC043/// 08/07 Q1001=
201710071150 METAR ESMX 071150Z AUTO 23012KT 7000 RA FEW002/// SCT006/// BKN009/// 08/07 Q1002 REDZ=
201710071120 METAR ESMX 071120Z AUTO 22011KT 190V250 9999 BKN016/// BKN022/// OVC032/// 09/07 Q1002=
201710071050 METAR ESMX 071050Z AUTO 24011KT 9999 BKN016/// BKN020/// OVC032/// 09/06 Q1002=
201710071020 METAR ESMX 071020Z AUTO 23010KT 9999 BKN015/// BKN020/// OVC042/// 10/07 Q1003=
201710070950 METAR ESMX 070950Z AUTO 23010KT 9999 BKN012/// BKN018/// OVC042/// 10/07 Q1003=
201710070920 METAR ESMX 070920Z AUTO 22008KT 9999 FEW002/// SCT013/// BKN021/// 09/07 Q1003=
201710070850 METAR ESMX 070850Z 21009KT 9999 BKN045 09/07 Q1003=
201710070820 METAR ESMX 070820Z 21009KT 9999 FEW030 BKN047 09/07 Q1004=
201710070750 METAR ESMX 070750Z 22008KT 9999 SCT030 BKN042 09/08 Q1004=
201710070720 METAR ESMX 070720Z 22007KT CAVOK 08/08 Q1004=
201710070650 METAR ESMX 070650Z AUTO 23006KT 9999 SCT005/// 08/08 Q1004=
201710070620 METAR ESMX 070620Z AUTO 24007KT 9999 FEW003/// BKN005/// BKN007/// 08/08 Q1005=
201710070550 METAR ESMX 070550Z AUTO 23007KT 9999 OVC002/// 08/07 Q1005=
201710070520 METAR ESMX 070520Z AUTO 23007KT 4200 OVC001/// 07/07 Q1005=
201710070450 METAR ESMX 070450Z AUTO 22006KT 1800 OVC001/// 07/07 Q1005=
201710070420 METAR ESMX 070420Z AUTO 22006KT 0400 R01/1100U R19/1400U FG OVC001/// 07/06 Q1005=
201710070350 METAR ESMX 070350Z AUTO 22006KT 0300 R01/1000N R19/0900N FG OVC001/// 07/06 Q1005=
201710070320 METAR ESMX 070320Z AUTO 22006KT 0500 R01/1900D R19/P2000N FG BKN001/// OVC003/// 06/06 Q1005=
201710070250 METAR ESMX 070250Z AUTO 22005KT 1500 FEW005/// 04/04 Q1006=
201710070220 METAR ESMX 070220Z AUTO 21006KT 0700 R01/P2000N R19/1600U NCD 04/03 Q1006=
201710070150 METAR ESMX 070150Z AUTO 22004KT 9999 NCD 04/04 Q1006=
201710070120 METAR ESMX 070120Z AUTO 22004KT 9999 NCD 05/04 Q1006=
201710070050 METAR ESMX 070050Z AUTO 23005KT 9999 FEW049/// 04/04 Q1006=
201710070020 METAR ESMX 070020Z AUTO 24005KT 9999 BKN049/// 06/05 Q1007=
201710062350 METAR ESMX 062350Z AUTO 25004KT 9999 OVC049/// 06/05 Q1007=
201710062320 METAR ESMX 062320Z AUTO 25005KT 9999 OVC049/// 07/05 Q1007=
201710062250 METAR ESMX 062250Z AUTO 25006KT 9999 OVC047/// 06/05 Q1007=
201710062220 METAR ESMX 062220Z AUTO 26006KT 9999 NCD 06/05 Q1007=
201710062150 METAR ESMX 062150Z AUTO 25005KT 9999 FEW045/// 05/04 Q1007=
201710062120 METAR ESMX 062120Z AUTO 26005KT 9999 NCD 06/05 Q1007=
201710062050 METAR ESMX 062050Z AUTO 25006KT 9999 FEW180/// 05/04 Q1007=
201710062020 METAR ESMX 062020Z AUTO 24005KT 9999 NCD 05/04 Q1007=
201710061950 METAR ESMX 061950Z AUTO 25005KT 9999 NCD 05/04 Q1007=
201710061920 METAR ESMX 061920Z 25003KT CAVOK 06/04 Q1007=
201710061850 METAR ESMX 061850Z 27005KT CAVOK 07/04 Q1007=
201710061820 METAR ESMX 061820Z 27004KT CAVOK 07/04 Q1007=
201710061750 METAR ESMX 061750Z 30004KT CAVOK 09/05 Q1006=
201710061720 METAR ESMX 061720Z AUTO 29005KT 9999 NCD 09/05 Q1006=
201710061650 METAR ESMX 061650Z 31008KT 9999 FEW036 10/05 Q1006=
201710061620 METAR ESMX 061620Z 31006KT 9999 FEW035 10/05 Q1005=
201710061550 METAR ESMX 061550Z 32007KT CAVOK 11/05 Q1005=
201710061520 METAR ESMX 061520Z 31008KT CAVOK 12/05 Q1005=
201710061450 METAR ESMX 061450Z 31009KT 9999 FEW037 13/05 Q1005=
201710061420 METAR ESMX 061420Z 32011KT 290V350 CAVOK 13/05 Q1004=
201710061350 METAR ESMX 061350Z 34010KT CAVOK 13/05 Q1004=
201710061320 METAR ESMX 061320Z 33010KT 9999 FEW035 13/04 Q1004=
201710061250 METAR ESMX 061250Z 32011KT 290V350 9999 FEW035 13/04 Q1003=
201710061220 METAR ESMX 061220Z 31012KT CAVOK 13/04 Q1003=
201710061150 METAR ESMX 061150Z 33010KT CAVOK 13/05 Q1003=
201710061120 METAR COR ESMX 061120Z 34011KT CAVOK 12/05 Q1002=
201710061050 METAR ESMX 061050Z 33011KT CAVOK 12/05 Q1002=
201710061020 METAR ESMX 061020Z 31009KT CAVOK 12/05 Q1002=
201710060950 METAR ESMX 060950Z 33009KT CAVOK 11/05 Q1001=
201710060920 METAR ESMX 060920Z 33009KT CAVOK 10/05 Q1001=
201710060850 METAR ESMX 060850Z 34007KT 300V010 CAVOK 10/05 Q1001=
201710060820 METAR ESMX 060820Z 31006KT CAVOK 08/06 Q1000=
201710060750 METAR ESMX 060750Z 32006KT CAVOK 06/06 Q1000=
201710060720 METAR ESMX 060720Z 31004KT CAVOK 05/05 Q1000=
201710060650 METAR ESMX 060650Z 27005KT CAVOK 04/04 Q0999=
201710060620 METAR ESMX 060620Z 25003KT CAVOK 02/02 Q0999=
201710060550 METAR ESMX 060550Z 29004KT 0900 FZFG NSC M00/M01 Q0999=
201710060520 METAR ESMX 060520Z 27003KT 9999 1500NE BCFG NSC 01/00 Q0998=
201710060450 METAR ESMX 060450Z 25003KT 1300 R01/P2000N R19/P2000N NSC 01/01 Q0998=
201710060420 METAR ESMX 060420Z VRB01KT 0600 R01/1400U R19/1700N FG BKN001 02/02 Q0998=
201710060350 METAR ESMX 060350Z 25002KT 0200 R01/P2000N R19/0650N FG BKN001 01/01 Q0998=
201710060320 METAR ESMX 060320Z AUTO 25003KT 0500 R01/P2000N R19/1600D OVC001/// 02/02 Q0997=
201710060250 METAR ESMX 060250Z AUTO 24003KT 0200 R01/P2000N R19/0700N VV002 03/02 Q0997=
201710060220 METAR ESMX 060220Z AUTO VRB03KT 0350 R01/1300U R19/1000U FG OVC001/// 03/02 Q0997=
201710060150 METAR ESMX 060150Z AUTO 24004KT 0250 R01/1200U R19/0800D FG BKN001/// 03/02 Q0997=
201710060120 METAR ESMX 060120Z AUTO 25004KT 0300 R01/0750N R19/P2000N FG FEW003/// 03/03 Q0997=
201710060050 METAR ESMX 060050Z AUTO 26005KT 9999 NCD 03/03 Q0997=
201710060020 METAR ESMX 060020Z AUTO 25004KT 9999 NCD 03/02 Q0997=
201710052350 METAR ESMX 052350Z 26005KT CAVOK 03/03 Q0997=
201710052320 METAR ESMX 052320Z 25004KT CAVOK 03/03 Q0997=
201710052250 METAR ESMX 052250Z VRB02KT CAVOK 05/04 Q0996=
201710052220 METAR ESMX 052220Z VRB03KT CAVOK 05/04 Q0996=
201710052150 METAR ESMX 052150Z VRB02KT CAVOK 06/04 Q0996=
201710052120 METAR ESMX 052120Z 26004KT CAVOK 06/04 Q0996=
201710052050 METAR ESMX 052050Z 26004KT CAVOK 06/04 Q0996=
201710052020 METAR ESMX 052020Z 27005KT CAVOK 06/04 Q0995=
201710051950 METAR ESMX 051950Z 28005KT CAVOK 07/05 Q0995=
201710051920 METAR ESMX 051920Z 30005KT CAVOK 07/05 Q0995=
201710051850 METAR ESMX 051850Z 28005KT CAVOK 07/05 Q0994=
201710051820 METAR ESMX 051820Z 28005KT CAVOK 08/05 Q0994=
201710051750 METAR ESMX 051750Z 28006KT CAVOK 08/05 Q0994=
201710051720 METAR ESMX 051720Z 28006KT CAVOK 08/05 Q0993=
201710051650 METAR ESMX 051650Z 27005KT CAVOK 08/05 Q0993=
201710051620 METAR ESMX 051620Z 27004KT CAVOK 09/05 Q0993=
201710051550 METAR ESMX 051550Z 29006KT CAVOK 10/05 Q0993=
201710051520 METAR ESMX 051520Z 30006KT 9999 FEW030 11/05 Q0992=
201710051450 METAR ESMX 051450Z 31006KT 280V350 9999 FEW030 11/05 Q0992=
201710051420 METAR ESMX 051420Z 32006KT 9999 FEW035 11/05 Q0992=
201710051350 METAR ESMX 051350Z 31006KT 9999 FEW033 12/05 Q0992=
201710051320 METAR ESMX 051320Z 27006KT 230V300 9999 SCT030 12/04 Q0992=
201710051250 METAR ESMX 051250Z 29007KT 260V320 9999 SCT034 12/04 Q0992=
201710051220 METAR ESMX 051220Z 27006KT 240V310 9999 BKN034 12/04 Q0992=
201710051150 METAR ESMX 051150Z 25007KT 230V290 9999 SCT032 11/05 Q0992=
201710051120 METAR ESMX 051120Z 27007KT 9999 SCT027 11/05 Q0992=
201710051050 METAR ESMX 051050Z 26006KT 220V300 9999 SCT026 11/06 Q0992=
201710051020 METAR ESMX 051020Z 26006KT 240V300 9999 SCT023 11/06 Q0992=
201710050950 METAR ESMX 050950Z 26006KT 230V310 9999 SCT022 11/06 Q0993=
201710050920 METAR ESMX 050920Z 27006KT 9999 SCT015 11/07 Q0993=
201710050850 METAR ESMX 050850Z 23008KT 9999 SCT011 10/08 Q0993=
201710050820 METAR ESMX 050820Z 25007KT 220V300 9999 BKN009 09/07 Q0993=
201710050750 METAR ESMX 050750Z 26006KT 230V300 9999 SCT007 09/07 Q0993=
201710050720 METAR ESMX 050720Z 26004KT 220V300 9999 BKN007 08/08 Q0993=
201710050650 METAR ESMX 050650Z VRB02KT 9999 SCT008 SCT030 07/07 Q0993=
201710050620 METAR COR ESMX 050620Z 27003KT 9999 SCT012 SCT030 07/06 Q0993=
201710050550 METAR ESMX 050550Z 27005KT 9999 SCT011 BKN029 07/07 Q0993=
201710050520 METAR ESMX 050520Z 26006KT 9999 BKN010 07/06 Q0993=
201710050450 METAR ESMX 050450Z 25007KT 230V290 9999 BKN010 OVC027 07/06 Q0994=
201710050420 METAR ESMX 050420Z 25006KT 9999 OVC012 07/06 Q0994=
201710050350 METAR ESMX 050350Z 25006KT 9999 OVC011 07/06 Q0994=
201710050320 METAR ESMX 050320Z AUTO 25007KT 9999 OVC010/// 07/06 Q0994=
201710050250 METAR ESMX 050250Z AUTO 24006KT 9999 FEW014/// SCT017/// 06/05 Q0994=
201710050220 METAR ESMX 050220Z AUTO 25007KT 9999 SCT010/// 07/06 Q0994=
201710050150 METAR ESMX 050150Z AUTO 24007KT 9999 BKN014/// BKN021/// OVC033/// 07/06 Q0994=
201710050120 METAR ESMX 050120Z AUTO 24009KT 8000 -RA SCT021/// BKN036/// OVC049/// 07/06 Q0994 RESHUP=
201710050050 METAR ESMX 050050Z AUTO 23008KT 9999 -DZ SCT041/// BKN064/// BKN110/// 07/05 Q0994=
201710050020 METAR ESMX 050020Z AUTO 24014KT 9999 -RA FEW015/// SCT028/// BKN037/// 07/05 Q0995 RESHUP RERA=
201710042350 METAR ESMX 042350Z 23009KT 9999 FEW020 SCT047 07/06 Q0995=
201710042320 METAR ESMX 042320Z 24011KT 9999 -RA FEW012 SCT031 BKN049 07/06 Q0995=
201710042250 METAR ESMX 042250Z 24011KT 9999 FEW015 SCT027 07/05 Q0996=
201710042220 METAR ESMX 042220Z 25012KT 9999 BKN021 08/05 Q0996=
201710042150 METAR ESMX 042150Z 24010KT 210V280 9999 BKN026 OVC039 08/06 Q0996=
201710042120 METAR ESMX 042120Z 24011KT 9999 FEW021 BKN033 07/06 Q0996=
201710042050 METAR ESMX 042050Z 24011KT 9999 SCT030 BKN037 07/05 Q0996=
201710042020 METAR ESMX 042020Z 24009KT 9999 SCT023 BKN030 07/05 Q0996=
201710041950 METAR ESMX 041950Z 24009KT 210V280 9999 SCT026 07/05 Q0996=
201710041920 METAR ESMX 041920Z 23009KT 9999 FEW029 07/05 Q0996=
201710041850 METAR ESMX 041850Z 23010KT 9999 SCT022 BKN031 OVC051 07/06 Q0996=
201710041820 METAR ESMX 041820Z 23008KT 9999 FEW041 07/05 Q0996=
201710041750 METAR ESMX 041750Z 22008KT CAVOK 07/06 Q0997=
201710041720 METAR ESMX 041720Z 24008KT 9999 BKN016 08/06 Q0997=
201710041650 METAR ESMX 041650Z 23009KT 190V260 9999 SCT010 BKN020 08/07 Q0997=
201710041620 METAR ESMX 041620Z 22009KT 190V250 9999 SCT011 BKN028 08/07 Q0997=
201710041550 METAR COR ESMX 041550Z 22011KT 190V250 9999 -SHRA FEW012 SCT021CB BKN051 08/07 Q0998 RERA=
201710041520 METAR ESMX 041520Z 22010KT 9999 -SHRA SCT015 BKN040 08/07 Q0998=
201710041450 METAR COR ESMX 041450Z 22010KT 9999 -SHRA FEW015CB BKN040 08/06 Q0998 RERA=
201710041420 METAR ESMX 041420Z 25017G30KT 220V280 8000 SHRA BKN015CB 09/07 Q0999=
201710041350 METAR ESMX 041350Z 22013KT 200V260 9999 -SHRA BKN013 10/09 Q0999=
201710041320 METAR ESMX 041320Z 21008KT 9999 -SHRA SCT013 BKN028 10/09 Q1000=
201710041250 METAR ESMX 041250Z 23007KT 9999 FEW020 SCT031 OVC042 09/08 Q1000=
201710041220 METAR COR ESMX 041220Z 24010KT 210V280 9999 RA SCT040 09/08 Q1001=
201710041150 METAR ESMX 041150Z 23009KT 9999 FEW020 SCT036 10/08 Q1001=
201710041120 METAR ESMX 041120Z 26008KT 220V290 9000 -RA BKN034 08/07 Q1002=
201710041050 METAR ESMX 041050Z 25011KT 210V280 8000 -SHRA SCT018 BKN045 08/07 Q1002=
201710041020 METAR ESMX 041020Z 23011KT 190V260 9999 SCT013 BKN044 10/07 Q1002=
201710040950 METAR ESMX 040950Z 24009KT 9999 SCT013 BKN045 09/07 Q1003=
201710040920 METAR ESMX 040920Z 24009KT 210V290 9999 SCT042 09/07 Q1003=
201710040850 METAR ESMX 040850Z 24012KT 9999 -RA FEW013 SCT021 BKN036 08/07 Q1003=
201710040820 METAR ESMX 040820Z 24010KT 210V280 9999 BKN025 08/06 Q1003=
201710040750 METAR ESMX 040750Z 23011KT 200V260 9999 -RA FEW024 08/06 Q1003=
201710040720 METAR ESMX 040720Z 24012KT 9999 -RA FEW027 SCT034 BKN051 08/07 Q1004=
201710040650 METAR ESMX 040650Z 25011KT 9999 -RA SCT011 OVC055 08/07 Q1004=
201710040620 METAR COR ESMX 040620Z 25013KT 9999 -RA FEW025 OVC053 08/06 Q1005=
201710040550 METAR ESMX 040550Z 23013KT 9999 -RA BKN051 BKN062 08/06 Q1004=
201710040520 METAR ESMX 040520Z 24015KT 9999 -RA SCT023 BKN030 OVC055 10/06 Q1004=
201710040450 METAR ESMX 040450Z 24011KT 200V270 9999 BKN024 11/07 Q1004=
201710040420 METAR ESMX 040420Z 25012G23KT 220V280 9999 BKN022 11/07 Q1004=
201710040350 METAR ESMX 040350Z 23012KT 200V260 9999 BKN021 OVC043 11/07 Q1004=
201710040320 METAR ESMX 040320Z AUTO 24010KT 9999 -RA BKN021/// OVC041/// 10/08 Q1004=
201710040250 METAR ESMX 040250Z AUTO 24009KT 9999 BKN022/// OVC040/// 11/07 Q1004=
201710040220 METAR ESMX 040220Z AUTO 23010KT 9999 BKN022/// BKN042/// 10/08 Q1004=
201710040150 METAR ESMX 040150Z AUTO 23011G23KT 9999 BKN020/// 10/08 Q1004=
201710040120 METAR ESMX 040120Z AUTO 23010KT 180V250 9999 FEW018/// BKN024/// OVC046/// 10/08 Q1004=
201710040050 METAR ESMX 040050Z AUTO 23010KT 9999 SCT022/// BKN051/// 10/08 Q1004=
201710040020 METAR ESMX 040020Z AUTO 23012KT 200V260 9999 FEW010/// SCT021/// BKN035/// 10/08 Q1004 REDZ=
201710032350 METAR ESMX 032350Z 24012KT CAVOK 10/07 Q1004=
201710032320 METAR ESMX 032320Z 22011KT 9999 SCT026 BKN055 10/07 Q1004=
201710032250 METAR ESMX 032250Z 23011KT 190V270 9999 BKN025 OVC050 11/07 Q1004=
201710032220 METAR ESMX 032220Z 24013KT 200V260 9999 FEW026 OVC045 11/07 Q1004=
201710032150 METAR ESMX 032150Z 24011G21KT 9999 FEW024 SCT035 BKN047 11/08 Q1004=
201710032120 METAR ESMX 032120Z 24011KT 200V260 9999 SCT022 OVC043 11/08 Q1004=
201710032050 METAR ESMX 032050Z 24012KT 9999 SCT014 BKN025 11/09 Q1004=
201710032020 METAR ESMX 032020Z 22012KT 9999 BKN013 11/09 Q1003=
201710031950 METAR ESMX 031950Z 22013G24KT 6000 -RA SCT012 BKN018 11/09 Q1003=
201710031920 METAR ESMX 031920Z 22014KT 9999 BKN011 11/09 Q1003=
201710031850 METAR ESMX 031850Z 21014KT 9999 BKN011 11/10 Q1003=
201710031820 METAR ESMX 031820Z 22013KT 8000 -RA FEW006 SCT016 BKN024 11/09 Q1003=
201710031750 METAR ESMX 031750Z 22011KT 9999 FEW006 BKN030 11/09 Q1003=
201710031720 METAR ESMX 031720Z 22012KT 9999 SCT015 BKN053 11/09 Q1003=
201710031650 METAR ESMX 031650Z 23012KT 9999 SCT012 BKN020 11/10 Q1003=
201710031620 METAR ESMX 031620Z 22012KT 9999 BKN015 12/10 Q1003=
201710031550 METAR ESMX 031550Z 22015KT 9999 BKN015 12/10 Q1002=
201710031520 METAR ESMX 031520Z 21011KT 9999 BKN016 12/10 Q1002=
201710031450 METAR ESMX 031450Z 22014KT 190V250 9999 BKN013 12/10 Q1002=
201710031420 METAR ESMX 031420Z 22013KT 9999 BKN014 OVC026 12/10 Q1002=
201710031350 METAR ESMX 031350Z 23013KT 9999 SCT015 BKN020 BKN037 13/09 Q1002=
201710031320 METAR ESMX 031320Z 23015KT 9999 FEW007 SCT024 BKN033 13/09 Q1002=
201710031250 METAR ESMX 031250Z 24011KT 9999 FEW006 SCT025 BKN043 13/09 Q1002=
201710031220 METAR ESMX 031220Z 21013KT 9999 FEW020 BKN031 13/08 Q1002=
201710031150 METAR ESMX 031150Z 24017KT 9999 BKN027 14/08 Q1002=
201710031120 METAR ESMX 031120Z 23012KT 9999 BKN026 15/09 Q1002=
201710031050 METAR ESMX 031050Z 23013KT 9999 BKN025 14/08 Q1002=
201710031020 METAR ESMX 031020Z 23016KT 9999 SCT026 BKN033 14/08 Q1002=
201710030950 METAR ESMX 030950Z 22012G24KT 9999 SCT021 BKN032 13/09 Q1002=
201710030920 METAR ESMX 030920Z 22011KT 9999 SCT016 BKN024 13/09 Q1002=
201710030850 METAR ESMX 030850Z 22011KT 9999 BKN013 12/09 Q1001=
201710030820 METAR ESMX 030820Z 23009KT 9999 BKN012 OVC015 12/09 Q1001=
201710030750 METAR ESMX 030750Z 23010KT 9999 BKN013 OVC017 12/09 Q1001=
201710030720 METAR ESMX 030720Z 22009KT 9999 BKN011 OVC013 11/10 Q1001=
201710030650 METAR ESMX 030650Z 23010KT 9999 FEW004 BKN010 11/10 Q1001=
201710030620 METAR ESMX 030620Z 21010KT 9999 SCT009 BKN012 11/09 Q1000=
201710030550 METAR ESMX 030550Z 21007KT 9999 BKN010 11/09 Q1000=
201710030520 METAR ESMX 030520Z 22007KT 9999 FEW010 SCT014 BKN024 10/09 Q1000=
201710030450 METAR ESMX 030450Z 22010KT 190V250 8000 -DZ FEW002 BKN008 11/09 Q1000=
201710030420 METAR ESMX 030420Z 21010KT 9999 BKN011 11/10 Q1000=
201710030350 METAR ESMX 030350Z 21011KT 9999 BKN010 11/10 Q1000=
201710030320 METAR ESMX 030320Z AUTO 22009KT 9999 BKN011/// 11/10 Q1000=
201710030250 METAR ESMX 030250Z AUTO 20009KT 6000 DZ FEW006/// SCT009/// OVC012/// 11/10 Q1000 REDZ=
201710030220 METAR ESMX 030220Z AUTO 19011KT 9999 DZ SCT010/// OVC013/// 11/10 Q1000=
201710030150 METAR ESMX 030150Z AUTO 19009KT 9999 BKN011/// OVC014/// 11/10 Q1000=
201710030120 METAR ESMX 030120Z AUTO 19010KT 9999 OVC013/// 11/10 Q1000=
201710030050 METAR ESMX 030050Z AUTO 19010KT 9999 BKN011/// OVC015/// 11/10 Q1000=
201710030020 METAR ESMX 030020Z AUTO 19008KT 9999 BKN010/// OVC015/// 11/10 Q1000=
201710022350 METAR ESMX 022350Z 21008KT 9999 FEW010 BKN012 12/10 Q1000=
201710022320 METAR ESMX 022320Z 19009KT 9999 BKN013 12/10 Q1000=
201710022250 METAR ESMX 022250Z 20010KT 9999 FEW010 SCT017 OVC023 11/10 Q1001=
201710022220 METAR ESMX 022220Z 20010KT 9999 SCT009 BKN012 12/11 Q1001 RERA=
201710022150 METAR ESMX 022150Z 20011KT 9999 -RA BKN010 12/11 Q1001=
201710022120 METAR ESMX 022120Z 21011KT 9999 SCT010 BKN014 12/11 Q1001 RERA=
201710022050 METAR ESMX 022050Z 21011KT 9999 -RA BKN012 12/11 Q1001=
201710022020 METAR ESMX 022020Z 20011KT 9000 -RA SCT010 BKN017 12/11 Q1001=
201710021950 METAR ESMX 021950Z 19010KT 8000 -RA BKN009 12/11 Q1002=
201710021920 METAR ESMX 021920Z 18009KT 9999 FEW010 BKN018 12/11 Q1002=
201710021850 METAR ESMX 021850Z 19010KT 9999 BKN009 12/11 Q1002=
201710021820 METAR ESMX 021820Z 19011KT 9999 SCT005 BKN008 OVC036 12/11 Q1002 REDZ=
201710021750 METAR ESMX 021750Z 18010KT 9999 -DZ OVC006 12/11 Q1002=
201710021720 METAR ESMX 021720Z 18010KT 9999 BKN008 12/11 Q1002=
201710021650 METAR ESMX 021650Z 19011KT 9999 OVC008 12/11 Q1002=
201710021620 METAR ESMX 021620Z 19010KT 9999 OVC008 12/11 Q1002=
201710021550 METAR ESMX 021550Z 21012KT 9999 BKN006 12/11 Q1002=
201710021520 METAR ESMX 021520Z 18012KT 9999 OVC006 12/11 Q1002=
201710021450 METAR ESMX 021450Z 17011KT 9999 OVC006 12/11 Q1002=
201710021420 METAR ESMX 021420Z 17011KT 9999 -RA OVC006 12/11 Q1003=
201710021350 METAR ESMX 021350Z 17012KT 5000 -RA OVC005 12/11 Q1003=
201710021320 METAR ESMX 021320Z 17010KT 9999 -RA OVC006 12/11 Q1003=
201710021250 METAR ESMX 021250Z 16012KT 8000 -RA BKN005 12/11 Q1003=
201710021220 METAR ESMX 021220Z 16012KT 6000 -RA OVC006 12/11 Q1004=
201710021150 METAR ESMX 021150Z 17013KT 7000 -RA BKN006 12/11 Q1004=
201710021120 METAR ESMX 021120Z 17013KT 6000 -RA OVC007 12/10 Q1005=
201710021050 METAR ESMX 021050Z 16013KT 8000 RA BKN007 OVC012 12/10 Q1005=
201710021020 METAR ESMX 021020Z 17010G21KT 7000 RA SCT012 BKN017 OVC048 12/10 Q1006=
201710020950 METAR ESMX 020950Z 16015KT 9999 -RA BKN016 12/10 Q1006=
201710020920 METAR ESMX 020920Z 16015KT 9999 -RA BKN017 OVC086 12/09 Q1007=
201710020850 METAR ESMX 020850Z 16017KT 9999 BKN018 OVC190 13/09 Q1007=
201710020820 METAR ESMX 020820Z 16016KT 9999 BKN017 OVC150 13/09 Q1008=
201710020750 METAR ESMX 020750Z 16013G26KT 120V190 9999 OVC018 13/09 Q1009=
201710020720 METAR ESMX 020720Z 16013G24KT 9999 BKN016 13/09 Q1009=
201710020650 METAR ESMX 020650Z 17014KT 9999 SCT015 BKN020 13/09 Q1010=
201710020620 METAR ESMX 020620Z 17013KT 140V200 9999 SCT011 BKN015 13/10 Q1010=
201710020550 METAR ESMX 020550Z 17010KT 130V190 9999 BKN009 OVC012 12/10 Q1011=
201710020520 METAR ESMX 020520Z 17009KT 9999 BKN008 OVC011 12/10 Q1012=
201710020450 METAR ESMX 020450Z 14009KT 9999 FEW013 OVC023 12/10 Q1012=
201710020420 METAR ESMX 020420Z 16010KT 9999 FEW007 BKN021 12/10 Q1013=
201710020350 METAR ESMX 020350Z 17008KT 9999 OVC006 12/11 Q1014=
201710020320 METAR ESMX 020320Z AUTO 16008KT 9000 BR BKN006/// OVC017/// 12/11 Q1014=
201710020250 METAR ESMX 020250Z AUTO 16009KT 9999 FEW009/// OVC017/// 12/11 Q1015=
201710020220 METAR ESMX 020220Z AUTO 17009KT 7000 BR FEW004/// BKN006/// BKN013/// 12/11 Q1016 REDZ=
201710020150 METAR ESMX 020150Z AUTO 17009KT 3600 -DZ BKN004/// OVC006/// 12/11 Q1016=
201710020120 METAR ESMX 020120Z AUTO 17008KT 9999 OVC007/// 12/10 Q1016=
201710020050 METAR ESMX 020050Z AUTO 16008KT 9999 OVC008/// 12/10 Q1016=
201710020020 METAR ESMX 020020Z AUTO 15008KT 110V190 9999 OVC009/// 12/10 Q1017=
201710012350 METAR ESMX 012350Z AUTO 16008KT 9999 BKN010/// OVC034/// 12/10 Q1017=
201710012320 METAR ESMX 012320Z 14008KT 120V180 9999 OVC030 12/10 Q1017=
201710012250 METAR ESMX 012250Z 14007KT 080V160 9999 OVC035 12/10 Q1018=
201710012220 METAR ESMX 012220Z 14006KT 030V170 9999 OVC038 12/10 Q1018=
201710012150 METAR ESMX 012150Z 13006KT 090V160 9999 OVC042 11/10 Q1019=
201710012120 METAR ESMX 012120Z 14007KT 9999 OVC045 11/10 Q1019=
201710012050 METAR ESMX 012050Z 14006KT 110V170 9999 OVC045 11/10 Q1019=
201710012020 METAR ESMX 012020Z 15006KT 110V180 9999 OVC049 11/10 Q1020=
201710011950 METAR ESMX 011950Z 14005KT 100V170 9999 OVC048 12/10 Q1020=
201710011920 METAR ESMX 011920Z 14006KT 100V170 9999 FEW011 OVC053 12/09 Q1020=
201710011850 METAR ESMX 011850Z 15006KT 120V200 9999 BKN012 OVC053 12/09 Q1021=
201710011820 METAR ESMX 011820Z 14007KT 100V160 9999 BKN014 OVC045 12/09 Q1021=
201710011750 METAR ESMX 011750Z 15007KT 120V190 9999 FEW018 OVC051 12/09 Q1021=
201710011720 METAR ESMX 011720Z 14006KT 100V200 CAVOK 13/09 Q1021=
201710011650 METAR ESMX 011650Z 12005KT 070V160 CAVOK 13/09 Q1021=
201710011620 METAR ESMX 011620Z 14004KT 090V180 CAVOK 13/08 Q1021=
201710011550 METAR ESMX 011550Z 15007KT CAVOK 14/08 Q1021=
201710011520 METAR ESMX 011520Z 14009KT CAVOK 15/07 Q1021=
201710011450 METAR ESMX 011450Z 14008KT CAVOK 16/05 Q1021=
201710011420 METAR ESMX 011420Z 15008KT 120V190 CAVOK 16/06 Q1021=
201710011350 METAR ESMX 011350Z 14008KT 080V170 CAVOK 16/06 Q1021=
201710011320 METAR ESMX 011320Z 13009KT 080V170 9999 FEW045 16/06 Q1021=
201710011250 METAR ESMX 011250Z 14008KT 070V170 9999 FEW036 SCT046 16/07 Q1021=
201710011220 METAR ESMX 011220Z 14008KT 070V170 9999 FEW033 SCT052 15/08 Q1021=
