##########################################################
# Query made at 04/19/2024 21:55:20 UTC
# Time interval: from 01/01/2017 12:00  to 01/31/2017 12:59  UTC
##########################################################

##########################################################
# ESMX, Vaxjo (Sweden)
# WMO index: 02641. WIGOS ID: 0-20000-0-02648
# Latitude 56-51N. Longitude 014-50E. Altitude 199 m.
##########################################################

201701311250 METAR ESMX 311250Z 08004KT 020V130 9999 OVC014 01/M02 Q1022=
201701311220 METAR ESMX 311220Z 08006KT 050V120 9999 OVC014 01/M02 Q1021=
201701311150 METAR COR ESMX 311150Z 09006KT 050V120 8000 BR FEW009 BKN011 01/M01 Q1021=
201701311120 METAR ESMX 311120Z 08006KT 030V120 8000 BR FEW007 OVC010 01/M01 Q1021=
201701311050 METAR ESMX 311050Z 09005KT 050V130 7000 BR OVC008 01/M01 Q1021=
201701311020 METAR ESMX 311020Z 08006KT 020V120 8000 BR OVC007 01/M01 Q1021=
201701310950 METAR ESMX 310950Z 07005KT 020V120 7000 BR SCT008 OVC010 01/M01 Q1021=
201701310920 METAR ESMX 310920Z 09005KT 040V140 9999 OVC011 01/M01 Q1021=
201701310850 METAR COR ESMX 310850Z 08004KT 030V120 9000 BR BKN011 01/M01 Q1021=
201701310820 METAR ESMX 310820Z 07004KT 040V110 8000 BR OVC011 01/M01 Q1021=
201701310750 METAR ESMX 310750Z 03003KT 340V080 7000 BR FEW013 BKN016 01/M00 Q1021=
201701310720 METAR ESMX 310720Z 05003KT 010V080 8000 BR OVC014 00/M01 Q1021=
201701310650 METAR ESMX 310650Z 04004KT 020V080 9999 FEW014 OVC017 00/M01 Q1021=
201701310620 METAR ESMX 310620Z 05004KT 020V090 9999 OVC013 00/M01 Q1021=
201701310550 METAR ESMX 310550Z 05004KT 020V100 9999 OVC018 00/M01 Q1020=
201701310520 METAR ESMX 310520Z 06004KT 030V100 9999 OVC017 00/M01 Q1020=
201701310450 METAR ESMX 310450Z 05004KT 9999 OVC018 00/M01 Q1020=
201701310420 METAR ESMX 310420Z AUTO 05005KT 020V080 9999 OVC019/// 00/M01 Q1020=
201701310350 METAR ESMX 310350Z AUTO 05004KT 020V080 9999 OVC020/// 00/M01 Q1020=
201701310320 METAR ESMX 310320Z AUTO 04005KT 9999 OVC020/// 00/M01 Q1020=
201701310250 METAR ESMX 310250Z AUTO 01004KT 9999 OVC020/// M00/M02 Q1020=
201701310220 METAR ESMX 310220Z AUTO 04003KT 9999 OVC018/// M01/M02 Q1020=
201701310150 METAR ESMX 310150Z AUTO 04003KT 9999 FEW017/// OVC020/// M01/M02 Q1020=
201701310120 METAR ESMX 310120Z AUTO VRB03KT 9999 BKN023/// M01/M02 Q1019=
201701310050 METAR ESMX 310050Z VRB02KT 9999 BKN025 M01/M02 Q1019=
201701310020 METAR COR ESMX 310020Z 04004KT 9999 BKN026 M00/M02 Q1019=
201701302350 METAR ESMX 302350Z 04005KT 9999 BKN027 M00/M01 Q1019=
201701302320 METAR ESMX 302320Z 04006KT CAVOK M00/M01 Q1019=
201701302250 METAR ESMX 302250Z 04006KT CAVOK 00/M02 Q1019=
201701302220 METAR COR ESMX 302220Z 03005KT 9999 FEW023 M00/M02 Q1019=
201701302150 METAR ESMX 302150Z 06003KT 030V100 9999 OVC022 01/M01 Q1019=
201701302120 METAR ESMX 302120Z 03003KT 350V080 9999 OVC022 01/M01 Q1019=
201701302050 METAR ESMX 302050Z 07003KT 030V100 9999 OVC022 01/M00 Q1019=
201701302020 METAR ESMX 302020Z 06003KT 9999 OVC022 01/M00 Q1019=
201701301950 METAR ESMX 301950Z VRB02KT 9999 OVC022 01/M00 Q1019=
201701301920 METAR ESMX 301920Z 06003KT 030V100 9999 OVC022 01/M00 Q1019=
201701301850 METAR ESMX 301850Z VRB03KT 9999 OVC024 01/00 Q1019=
201701301820 METAR ESMX 301820Z 04004KT 9999 OVC025 01/00 Q1019=
201701301750 METAR ESMX 301750Z 06003KT 9999 BKN026 01/00 Q1018=
201701301720 METAR ESMX 301720Z VRB03KT 9999 BKN027 01/00 Q1018=
201701301650 METAR ESMX 301650Z 06003KT 020V080 8000 BR BKN027 01/01 Q1018=
201701301620 METAR ESMX 301620Z VRB02KT 7000 BR BKN028 01/01 Q1018=
201701301550 METAR ESMX 301550Z VRB03KT 7000 BR BKN028 02/01 Q1017=
201701301520 METAR ESMX 301520Z 09004KT 060V120 8000 BR BKN026 02/01 Q1017=
201701301450 METAR ESMX 301450Z 06003KT 7000 BR BKN028 02/01 Q1017=
201701301420 METAR ESMX 301420Z VRB03KT 9000 BR FEW003 SCT005 BKN029 02/01 Q1017=
201701301350 METAR ESMX 301350Z 04003KT 010V100 7000 BR BKN027 02/02 Q1017=
201701301320 METAR ESMX 301320Z 06003KT 020V090 7000 BR FEW007 BKN028 02/02 Q1017=
201701301250 METAR ESMX 301250Z VRB02KT 7000 BR SCT004 OVC028 02/02 Q1017=
201701301220 METAR ESMX 301220Z 15003KT 6000 BR FEW003 BKN005 BKN008 02/01 Q1017 REDZ=
201701301150 METAR ESMX 301150Z 16002KT 7000 -DZ BR BKN003 BKN011 02/01 Q1017=
201701301120 METAR ESMX 301120Z VRB02KT 7000 BR FEW003 BKN005 02/01 Q1017=
201701301050 METAR ESMX 301050Z 17003KT 6000 BR FEW003 OVC005 02/01 Q1017=
201701301020 METAR ESMX 301020Z 19004KT 6000 BR BKN004 OVC025 02/01 Q1017=
201701300950 METAR ESMX 300950Z 20004KT 4500 -DZ BR BKN003 OVC030 02/01 Q1017=
201701300920 METAR ESMX 300920Z 19004KT 5000 BR BKN003 BKN025 02/01 Q1017=
201701300850 METAR ESMX 300850Z 20005KT 4000 BR BKN004 BKN024 02/01 Q1017=
201701300820 METAR ESMX 300820Z 18006KT 4500 BR FEW004 OVC020 02/01 Q1016=
201701300750 METAR ESMX 300750Z 19005KT 4000 BR SCT005 BKN024 01/01 Q1016=
201701300720 METAR ESMX 300720Z 17004KT 4500 -DZ BR SCT006 BKN020 02/01 Q1016=
201701300650 METAR ESMX 300650Z 18006KT 4500 BR SCT005 BKN018 02/01 Q1016=
201701300620 METAR ESMX 300620Z 20004KT 5000 BR FEW009 BKN015 01/01 Q1016=
201701300550 METAR ESMX 300550Z 18005KT 3800 BR FEW008 BKN012 01/01 Q1016=
201701300520 METAR ESMX 300520Z 19006KT 3500 BR SCT004 BKN006 01/01 Q1015=
201701300450 METAR ESMX 300450Z 19003KT 4400 BR FEW004 BKN005 01/01 Q1015=
201701300420 METAR ESMX 300420Z AUTO 22005KT 5000 BR FEW004/// SCT009/// BKN019/// 01/01 Q1015=
201701300350 METAR ESMX 300350Z AUTO 21006KT 5000 BR FEW005/// SCT007/// BKN009/// 02/01 Q1015=
201701300320 METAR ESMX 300320Z AUTO 23005KT 7000 BR FEW007/// SCT011/// OVC013/// 02/01 Q1015=
201701300250 METAR ESMX 300250Z AUTO 22008KT 4600 BR FEW005/// SCT008/// BKN011/// 02/01 Q1015=
201701300220 METAR ESMX 300220Z AUTO 21008KT 4900 BR FEW004/// SCT006/// BKN008/// 02/01 Q1015 REDZ=
201701300150 METAR ESMX 300150Z AUTO 21007KT 3000 BR FEW002/// OVC004/// 02/01 Q1015=
201701300120 METAR ESMX 300120Z AUTO 20008KT 2400 BR OVC002/// 02/02 Q1015 REDZ REUP RESHUP=
201701300050 METAR ESMX 300050Z AUTO 21007KT 2500 BR OVC002/// 02/02 Q1015=
201701300020 METAR ESMX 300020Z 20009KT 2300 BR BKN002 02/02 Q1015=
201701292350 METAR ESMX 292350Z 19009KT 0900 R01/1900N R19/1600U FG VV002 02/01 Q1015=
201701292320 METAR ESMX 292320Z 19008KT 1100 R01/P2000N R19/P2000N BR OVC002 02/01 Q1015=
201701292250 METAR ESMX 292250Z 19008KT 1800 BR OVC002 02/01 Q1015=
201701292220 METAR ESMX 292220Z 19008KT 1300 R01/P2000N R19/P2000N BR VV002 01/01 Q1014=
201701292150 METAR ESMX 292150Z 20007KT 1300 R01/P2000N R19/P2000N BR OVC002 01/01 Q1014=
201701292120 METAR ESMX 292120Z 20009KT 3900 BR OVC002 01/01 Q1014=
201701292050 METAR ESMX 292050Z 19010KT 6000 BR OVC002 01/01 Q1014=
201701292020 METAR ESMX 292020Z 18007KT 2800 -RASN OVC002 01/00 Q1014=
201701291950 METAR ESMX 291950Z 18005KT 1200 R01/P2000N R19/P2000N -SN VV002 01/00 Q1014=
201701291920 METAR ESMX 291920Z 15004KT 1000 R01/P2000N R19/P2000N -SN OVC002 01/00 Q1014=
201701291850 METAR ESMX 291850Z 16006KT 1200 R01/P2000N R19/P2000N -RASN OVC002 01/01 Q1014=
201701291820 METAR ESMX 291820Z 17007KT 1300 R01/P2000N R19/P2000N -DZ BR OVC002 01/01 Q1015=
201701291750 METAR ESMX 291750Z 18009KT 1200 R01/P2000N R19/P2000N BR OVC002 01/01 Q1015=
201701291720 METAR ESMX 291720Z 17009KT 0400 R01/1100U R19/1200U FG VV002 01/01 Q1015=
201701291650 METAR ESMX 291650Z 17008KT 0500 R01/1300D R19/1400U FG VV002 01/01 Q1015=
201701291620 METAR ESMX 291620Z 15006KT 0300 R01/0900N R19/1100N FG VV002 00/00 Q1015=
201701291550 METAR ESMX 291550Z 17006KT 0650 R01/1500N R19/1600N FG VV002 00/00 Q1015=
201701291520 METAR ESMX 291520Z 17007KT 1200 R01/P2000D R19/P2000N BR OVC002 00/M00 Q1015=
201701291450 METAR ESMX 291450Z 18006KT 2000 BR OVC003 00/M00 Q1015=
201701291420 METAR ESMX 291420Z 16006KT 3000 BR OVC003 00/M01 Q1015=
201701291350 METAR ESMX 291350Z 17006KT 3000 BR OVC005 M00/M01 Q1014=
201701291320 METAR ESMX 291320Z 18007KT 3500 BR OVC006 M00/M01 Q1015=
201701291250 METAR ESMX 291250Z 18007KT 3500 BR OVC007 M01/M02 Q1015=
201701291220 METAR ESMX 291220Z 17007KT 3500 BR OVC008 M01/M02 Q1015=
201701291150 METAR ESMX 291150Z 18007KT 4000 BR OVC009 M01/M02 Q1015=
201701291120 METAR ESMX 291120Z AUTO 17008KT 3700 BR FEW007/// OVC010/// M01/M02 Q1015=
201701291050 METAR ESMX 291050Z AUTO 17008KT 3800 BR FEW007/// OVC013/// M01/M03 Q1015=
201701291020 METAR ESMX 291020Z AUTO 18007KT 140V200 3900 BR FEW007/// SCT008/// OVC016/// M02/M03 Q1015=
201701290950 METAR ESMX 290950Z AUTO 17006KT 3900 BR BKN007/// BKN010/// M02/M03 Q1015=
201701290920 METAR ESMX 290920Z AUTO 18011KT 4400 BR OVC007/// M02/M03 Q1015=
201701290850 METAR ESMX 290850Z AUTO 18009KT 4200 BR BKN007/// OVC010/// M02/M03 Q1015=
201701290820 METAR ESMX 290820Z AUTO 19010KT 4500 BR OVC009/// M02/M03 Q1015=
201701290750 METAR ESMX 290750Z AUTO 19009KT 4000 BR FEW008/// OVC009/// M02/M03 Q1015=
201701290720 METAR ESMX 290720Z AUTO 19010KT 4000 BR OVC009/// M02/M03 Q1015=
201701290650 METAR ESMX 290650Z AUTO 19009KT 3700 BR FEW007/// OVC009/// M02/M03 Q1015=
201701290620 METAR ESMX 290620Z AUTO 17008KT 3600 BR FEW009/// OVC011/// M02/M03 Q1015=
201701290550 METAR ESMX 290550Z AUTO 18007KT 3700 BR OVC011/// M02/M03 Q1015=
201701290520 METAR ESMX 290520Z AUTO 16007KT 3600 BR OVC012/// M02/M03 Q1015=
201701290450 METAR ESMX 290450Z AUTO 16006KT 3500 BR OVC012/// M02/M03 Q1015=
201701290420 METAR ESMX 290420Z AUTO 15005KT 3400 BR OVC015/// M02/M03 Q1015=
201701290350 METAR ESMX 290350Z AUTO 14003KT 100V160 2900 BR BKN017/// M03/M03 Q1015=
201701290320 METAR ESMX 290320Z AUTO VRB03KT 2600 BR FEW005/// BKN017/// M03/M03 Q1015=
201701290250 METAR ESMX 290250Z AUTO VRB02KT 2200 BR FEW003/// SCT005/// BKN009/// M04/M04 Q1016=
201701290220 METAR ESMX 290220Z AUTO VRB02KT 2100 BR FEW003/// SCT005/// BKN018/// M04/M04 Q1016=
201701290150 METAR ESMX 290150Z AUTO VRB03KT 2200 BR BKN002/// BKN005/// M03/M04 Q1016=
201701290120 METAR ESMX 290120Z AUTO VRB03KT 2300 BR OVC001/// M03/M04 Q1016=
201701290050 METAR ESMX 290050Z AUTO VRB03KT 2200 BR OVC001/// M03/M04 Q1016=
201701290020 METAR ESMX 290020Z 10003KT 3300 BR BKN002 M04/M05 Q1017=
201701282350 METAR ESMX 282350Z 00000KT 3400 BR NSC M07/M08 Q1018=
201701282320 METAR ESMX 282320Z 09002KT 4000 BR NSC M05/M06 Q1018=
201701282250 METAR ESMX 282250Z 00000KT 4800 BR NSC M05/M06 Q1018=
201701282220 METAR ESMX 282220Z VRB02KT 5000 BR NSC M04/M05 Q1018=
201701282150 METAR ESMX 282150Z VRB01KT 5000 BR FEW045 M04/M04 Q1019=
201701282120 METAR ESMX 282120Z AUTO 09003KT 4100 BR NCD M03/M04 Q1019=
201701282050 METAR ESMX 282050Z AUTO VRB02KT 3600 BR FEW002/// M03/M04 Q1019=
201701282020 METAR ESMX 282020Z AUTO VRB02KT 3400 BR BKN001/// M03/M03 Q1019=
201701281950 METAR ESMX 281950Z AUTO VRB01KT 2300 BR OVC001/// M02/M03 Q1019=
201701281920 METAR ESMX 281920Z AUTO VRB03KT 2100 OVC001/// M02/M03 Q1020=
201701281850 METAR ESMX 281850Z AUTO VRB03KT 1000 R01/P2000N R19/P2000N FZFG VV002 M02/M02 Q1020=
201701281820 METAR ESMX 281820Z AUTO 09003KT 060V130 1200 R01/P2000N R19/P2000N BR VV001 M02/M02 Q1020=
201701281750 METAR ESMX 281750Z AUTO VRB02KT 2000 BR OVC001/// M01/M02 Q1020=
201701281720 METAR ESMX 281720Z AUTO VRB03KT 2000 BR OVC001/// M01/M02 Q1020=
201701281650 METAR ESMX 281650Z AUTO VRB03KT 2700 BR OVC001/// M01/M02 Q1021=
201701281620 METAR ESMX 281620Z AUTO VRB03KT 2600 BR OVC002/// M01/M02 Q1021=
201701281550 METAR ESMX 281550Z AUTO VRB02KT 2700 BR OVC002/// M01/M01 Q1021=
201701281520 METAR ESMX 281520Z AUTO VRB02KT 2900 BR OVC002/// M01/M01 Q1021=
201701281450 METAR ESMX 281450Z AUTO VRB03KT 3100 BR OVC002/// M01/M01 Q1021=
201701281420 METAR ESMX 281420Z AUTO VRB03KT 3600 BR OVC003/// M01/M01 Q1021=
201701281350 METAR ESMX 281350Z AUTO 17002KT 3600 BR OVC002/// M01/M01 Q1021=
201701281320 METAR ESMX 281320Z VRB03KT 4000 BR OVC003 M01/M01 Q1021=
201701281250 METAR ESMX 281250Z 19004KT 4000 BR OVC003 M01/M01 Q1022=
201701281220 METAR ESMX 281220Z VRB03KT 4000 BR OVC003 M01/M01 Q1022=
201701281150 METAR ESMX 281150Z VRB03KT 4500 BR OVC004 M01/M01 Q1022=
201701281120 METAR ESMX 281120Z AUTO 15003KT 090V190 3100 BR OVC002/// M01/M01 Q1022=
201701281050 METAR ESMX 281050Z AUTO 18004KT 2700 BR OVC001/// M01/M01 Q1022=
201701281020 METAR ESMX 281020Z AUTO 17005KT 140V210 2500 BR OVC001/// M01/M02 Q1022=
201701280950 METAR ESMX 280950Z AUTO 17004KT 120V190 1200 R01/1500D R19/P2000N BR OVC001/// M01/M02 Q1022=
201701280920 METAR ESMX 280920Z AUTO 16003KT 130V190 2100 OVC001/// M02/M02 Q1022=
201701280850 METAR ESMX 280850Z AUTO 16003KT 120V190 1200 R01/1500N R19/P2000N OVC001/// M02/M02 Q1023=
201701280820 METAR ESMX 280820Z AUTO 20004KT 0700 R01/1400D R19/P2000N FZFG OVC001/// M02/M02 Q1022=
201701280750 METAR ESMX 280750Z AUTO 19005KT 1300 R01/1800D R19/P2000N BR OVC001/// M02/M02 Q1022=
201701280720 METAR ESMX 280720Z AUTO 18005KT 2300 BR OVC001/// M02/M02 Q1022=
201701280650 METAR ESMX 280650Z AUTO 18004KT 2200 BR OVC001/// M02/M02 Q1022=
201701280620 METAR ESMX 280620Z AUTO 20004KT 2100 BR OVC001/// M02/M02 Q1022=
201701280550 METAR ESMX 280550Z AUTO 19004KT 2100 BR OVC001/// M02/M02 Q1022=
201701280520 METAR ESMX 280520Z AUTO 15004KT 110V190 1600 BR OVC001/// M02/M03 Q1022=
201701280450 METAR ESMX 280450Z AUTO 17003KT 2500 BR OVC001/// M02/M03 Q1022=
201701280420 METAR ESMX 280420Z AUTO 15003KT 120V210 1800 BR OVC001/// M02/M03 Q1022=
201701280350 METAR ESMX 280350Z AUTO VRB03KT 2100 BR OVC001/// M02/M03 Q1022=
201701280320 METAR ESMX 280320Z AUTO 17004KT 120V190 2600 BR OVC001/// M02/M03 Q1022=
201701280250 METAR ESMX 280250Z AUTO 17004KT 3200 BR OVC002/// M02/M03 Q1022=
201701280220 METAR ESMX 280220Z AUTO VRB03KT 3700 BR OVC002/// M02/M03 Q1022=
201701280150 METAR ESMX 280150Z AUTO 14003KT 110V170 3800 BR OVC002/// M02/M03 Q1022=
201701280120 METAR ESMX 280120Z AUTO 16003KT 130V200 4200 BR OVC001/// M02/M03 Q1022=
201701280050 METAR ESMX 280050Z AUTO 19004KT 2300 OVC001/// M02/M03 Q1023=
201701280020 METAR ESMX 280020Z AUTO 19004KT 1100 R01/P2000N R19/P2000N OVC001/// M02/M03 Q1023=
201701272350 METAR ESMX 272350Z AUTO 16003KT 0650 R01/1800D R19/P2000N FZFG VV002 M03/M03 Q1023=
201701272320 METAR ESMX 272320Z AUTO 17005KT 1100 R01/P2000N R19/1800N FZFG VV001 M03/M04 Q1023=
201701272250 METAR ESMX 272250Z AUTO VRB03KT 0800 R01/P2000D R19/P2000N FZFG OVC001/// M03/M04 Q1023 REDZ=
201701272220 METAR ESMX 272220Z 17004KT 120V220 3500 BR OVC002 M04/M04 Q1023=
201701272150 METAR ESMX 272150Z 17004KT 2500 BR OVC002 M04/M04 Q1023=
201701272120 METAR ESMX 272120Z 14004KT 110V170 2400 BR OVC002 M04/M04 Q1022=
201701272050 METAR ESMX 272050Z 17004KT 3200 BR VV002 M04/M05 Q1022=
201701272020 METAR ESMX 272020Z 16004KT 100V190 0800 R01/P1500D R19/P2000N FZFG VV002 M04/M05 Q1022=
201701271950 METAR ESMX 271950Z 18004KT 0900 R01/1600U R19/P2000D FZFG VV002 M04/M05 Q1023=
201701271920 METAR ESMX 271920Z 17003KT 1800 BR VV002 M04/M05 Q1023=
201701271850 METAR ESMX 271850Z 17004KT 130V200 2600 BR VV002 M04/M05 Q1023=
201701271820 METAR ESMX 271820Z 19004KT 0400 R01/1900N R19/1200U FZFG VV002 M03/M04 Q1023=
201701271750 METAR ESMX 271750Z 18002KT 0300 R01/0600N R19/P1100D FZFG VV002 M03/M04 Q1023=
201701271720 METAR ESMX 271720Z 17004KT 0650 R01/P2000N R19/1500U FZFG VV002 M03/M04 Q1023=
201701271650 METAR ESMX 271650Z 19005KT 0250 R01/1000D R19/0800N FZFG VV002 M03/M03 Q1023=
201701271620 METAR ESMX 271620Z VRB02KT 0200 R01/0800N R19/0450N FZFG VV002 M03/M03 Q1023=
201701271550 METAR ESMX 271550Z VRB01KT 0150 R01/0500N R19/0650N FZFG VV002 M03/M04 Q1023=
201701271520 METAR ESMX 271520Z 13002KT 0250 R01/0650N R19/0600N FZFG VV002 M03/M04 Q1023=
201701271450 METAR ESMX 271450Z VRB03KT 0250 R01/0600N R19/0750N FZFG VV002 M02/M03 Q1023=
201701271420 METAR ESMX 271420Z 17003KT 130V210 0500 R01/0900N R19/0800D FZFG VV002 M02/M03 Q1023=
201701271350 METAR ESMX 271350Z VRB03KT 4100 BR VV001 M02/M03 Q1023=
201701271320 METAR ESMX 271320Z VRB02KT 2900 VV001 M02/M03 Q1023=
201701271250 METAR ESMX 271250Z VRB03KT 1600 BCFG BKN003 M03/M03 Q1024=
201701271220 METAR ESMX 271220Z VRB02KT 0450 R01/0650N R19/1900D FZFG VV001 M03/M03 Q1024=
201701271150 METAR ESMX 271150Z 04003KT 360V080 1500 BR VV001 M03/M03 Q1024=
201701271120 METAR ESMX 271120Z 00000KT 1100 R01/1200N R19/1500D BR VV002 M03/M03 Q1024=
201701271050 METAR ESMX 271050Z VRB02KT 1200 R01/1400U R19/1400U BCFG VV001 M03/M03 Q1024=
201701271020 METAR ESMX 271020Z 00000KT 0400 R01/0600N R19/0650N FZFG VV001 M03/M04 Q1025=
201701270950 METAR ESMX 270950Z VRB01KT 0250 R01/0500N R19/0400N FZFG VV001 M03/M04 Q1025=
201701270920 METAR ESMX 270920Z VRB03KT 0200 R01/0450N R19/0550N FZFG VV001 M03/M04 Q1025=
201701270850 METAR ESMX 270850Z VRB01KT 0250 R01/0550N R19/0450N FZFG VV001 M03/M04 Q1025=
201701270820 METAR ESMX 270820Z 00000KT 0150 R01/0450N R19/0400N FZFG VV001 M03/M04 Q1025=
201701270750 METAR ESMX 270750Z VRB02KT 0150 R01/0400N R19/0500N FZFG VV001 M03/M04 Q1025=
201701270720 METAR ESMX 270720Z VRB03KT 0150 R01/0450N R19/0400N FZFG VV001 M03/M04 Q1025=
201701270650 METAR ESMX 270650Z 30004KT 280V350 0150 R01/0600N R19/0600N FZFG VV001 M03/M04 Q1025=
201701270620 METAR ESMX 270620Z 31004KT 0150 R01/0500N R19/0600N FZFG VV001 M03/M03 Q1025=
201701270550 METAR ESMX 270550Z 30004KT 260V340 0150 R01/0600N R19/0600D VV100 M03/M03 Q1025=
201701270520 METAR ESMX 270520Z VRB03KT 0150 R01/0600N R19/0650N FZFG VV001 M03/M03 Q1025=
201701270450 METAR ESMX 270450Z 35003KT 280V030 0200 R01/0700N R19/0800U FZFG VV001 M03/M03 Q1026=
201701270420 METAR ESMX 270420Z AUTO 34006KT 0200 R01/0650N R19/0750N FZFG VV001 M02/M03 Q1026=
201701270350 METAR ESMX 270350Z AUTO 32006KT 0250 R01/0750N R19/0800N FZFG VV001 M02/M03 Q1026=
201701270320 METAR ESMX 270320Z AUTO 32006KT 0200 R01/0650N R19/1200N FZFG VV001 M02/M03 Q1026=
201701270250 METAR ESMX 270250Z AUTO 32007KT 0250 R01/0650N R19/0700N FZFG VV001 M02/M03 Q1026=
201701270220 METAR ESMX 270220Z AUTO 30005KT 0250 R01/0750U R19/1400D FZFG VV001 M02/M02 Q1026=
201701270150 METAR ESMX 270150Z AUTO 28004KT 230V310 0200 R01/0650D R19/1300D=
201701270120 METAR ESMX 270120Z AUTO 29004KT 250V330 0450 R01/1200N R19/1900N=
201701270050 METAR ESMX 270050Z 28005KT 240V320 1000 R01/P2000N R19/P2000N BR OVC001 M02/M02 Q1027=
201701270020 METAR ESMX 270020Z 26005KT 5000 BR OVC001 M02/M02 Q1027=
201701262350 METAR ESMX 262350Z 29005KT 4000 BR OVC002 M02/M02 Q1028=
201701262320 METAR ESMX 262320Z 27005KT 4200 BR OVC002 M02/M02 Q1028=
201701262250 METAR ESMX 262250Z 26006KT 230V290 5000 BR OVC003 M01/M02 Q1028=
201701262220 METAR ESMX 262220Z 26004KT 7000 BR OVC003 M01/M02 Q1028=
201701262150 METAR ESMX 262150Z 28006KT 8000 BR OVC002 M01/M02 Q1028=
201701262120 METAR ESMX 262120Z 26005KT 8000 BR OVC003 M01/M02 Q1027=
201701262050 METAR ESMX 262050Z 26007KT 8000 BR OVC004 M01/M02 Q1027=
201701262020 METAR ESMX 262020Z 30006KT 9000 BR OVC004 M01/M02 Q1027=
201701261950 METAR ESMX 261950Z 26007KT 9999 OVC005 M01/M02 Q1027=
201701261920 METAR ESMX 261920Z 28008KT 9999 OVC006 M01/M02 Q1027=
201701261850 METAR ESMX 261850Z 28007KT 9999 OVC006 M01/M02 Q1027=
201701261820 METAR ESMX 261820Z 29007KT 9999 OVC006 M01/M02 Q1027=
201701261750 METAR ESMX 261750Z 29009KT 9999 OVC007 M01/M02 Q1027=
201701261720 METAR ESMX 261720Z 29008KT 9999 OVC007 M00/M02 Q1027=
201701261650 METAR ESMX 261650Z 27009KT 9999 OVC008 M00/M02 Q1027=
201701261620 METAR ESMX 261620Z 27008KT 9999 OVC008 M00/M02 Q1028=
201701261550 METAR ESMX 261550Z 27011KT 9999 BKN008 M00/M02 Q1028=
201701261520 METAR ESMX 261520Z 29009KT 9999 BKN008 M00/M02 Q1028=
201701261450 METAR ESMX 261450Z 26010KT 9999 BKN009 M00/M02 Q1028=
201701261420 METAR ESMX 261420Z 27010KT 9999 BKN009 00/M01 Q1028=
201701261350 METAR ESMX 261350Z 26007KT 220V290 9999 BKN009 00/M02 Q1028=
201701261320 METAR ESMX 261320Z 26011KT 9999 OVC009 00/M02 Q1028=
201701261250 METAR ESMX 261250Z 27011KT 240V300 9999 OVC009 00/M02 Q1028=
201701261220 METAR ESMX 261220Z 26010KT 210V300 9999 OVC010 00/M02 Q1028=
201701261150 METAR ESMX 261150Z 27012KT 9999 OVC008 00/M02 Q1029=
201701261120 METAR ESMX 261120Z 27013KT 8000 BR OVC009 00/M02 Q1029=
201701261050 METAR ESMX 261050Z 26012KT 230V290 8000 BR OVC008 00/M02 Q1029=
201701261020 METAR ESMX 261020Z 27011KT 7000 BR OVC006 M00/M02 Q1029=
201701260950 METAR ESMX 260950Z 26011KT 6000 BR OVC008 M00/M01 Q1029=
201701260920 METAR ESMX 260920Z 26009KT 240V300 7000 BR SCT006 BKN009 OVC011 M00/M02 Q1030=
201701260850 METAR ESMX 260850Z 27008KT 6000 BR OVC006 M00/M02 Q1029=
201701260820 METAR ESMX 260820Z 26010KT 6000 BR SCT005 OVC008 M00/M01 Q1029=
201701260750 METAR ESMX 260750Z 26010KT 6000 BR FEW005 OVC007 M00/M01 Q1029=
201701260720 METAR ESMX 260720Z 26010KT 5000 BR OVC004 M00/M01 Q1029=
201701260650 METAR ESMX 260650Z 26009KT 5000 BR BKN003 OVC005 M00/M01 Q1029=
201701260620 METAR ESMX 260620Z 25009KT 3300 BR BKN002 OVC004 M00/M01 Q1029=
201701260550 METAR ESMX 260550Z 25009KT 1500 BR OVC001 M00/M01 Q1029=
201701260520 METAR ESMX 260520Z 23008KT 210V270 1200 R01/P2000N R19/P2000N BR OVC003 M00/M01 Q1029=
201701260450 METAR ESMX 260450Z 26009KT 3000 BR OVC002 00/M00 Q1028=
201701260420 METAR ESMX 260420Z AUTO 26012KT 2600 BR OVC002/// 00/M00 Q1028=
201701260350 METAR ESMX 260350Z AUTO 27008KT 2900 BR OVC002/// 00/M01 Q1029=
201701260320 METAR ESMX 260320Z AUTO 26007KT 230V290 2600 BR OVC001/// M00/M01 Q1029=
201701260250 METAR ESMX 260250Z AUTO 24010KT 2500 BR OVC001/// M00/M01 Q1028=
201701260220 METAR ESMX 260220Z AUTO 26010KT 2100 BR OVC002/// M00/M01 Q1028=
201701260150 METAR ESMX 260150Z AUTO 27009KT 3800 BR BKN002/// OVC004/// M00/M01 Q1029=
201701260120 METAR ESMX 260120Z AUTO 25009KT 210V280 5000 BR SCT002/// OVC004/// 00/M00 Q1029=
201701260050 METAR ESMX 260050Z AUTO 25010KT 7000 BR OVC003/// 00/M00 Q1029=
201701260020 METAR ESMX 260020Z 25008KT 8000 BR OVC003 01/M00 Q1029=
201701252350 METAR ESMX 252350Z 26009KT 7000 BR OVC003 01/M00 Q1029=
201701252320 METAR ESMX 252320Z 26009KT 220V280 8000 BR OVC004 01/00 Q1029=
201701252250 METAR ESMX 252250Z 25008KT 220V310 6000 BR OVC003 01/00 Q1029=
201701252220 METAR ESMX 252220Z 24006KT 4800 BR OVC002 01/00 Q1029=
201701252150 METAR ESMX 252150Z 24007KT 3600 BR OVC002 01/01 Q1029=
201701252120 METAR ESMX 252120Z 23007KT 190V250 3100 BR OVC002 01/01 Q1029=
201701252050 METAR ESMX 252050Z 24006KT 2600 BR OVC002 01/01 Q1029=
201701252020 METAR ESMX 252020Z 24006KT 2200 BR OVC001 01/01 Q1029=
201701251950 METAR ESMX 251950Z 24006KT 2200 BR OVC001 01/00 Q1029=
201701251920 METAR ESMX 251920Z 22005KT 3200 BR OVC002 01/00 Q1029=
201701251850 METAR ESMX 251850Z 23007KT 3500 BR OVC001 01/00 Q1028=
201701251820 METAR ESMX 251820Z 23006KT 190V250 2500 BR BKN002 OVC005 01/01 Q1028=
201701251750 METAR ESMX 251750Z 25006KT 3700 BR OVC003 01/01 Q1028=
201701251720 METAR ESMX 251720Z 25007KT 210V290 3900 BR SCT004 BKN006 OVC009 01/01 Q1028=
201701251650 METAR ESMX 251650Z 28008KT 4500 BR OVC002 01/01 Q1029=
201701251620 METAR ESMX 251620Z 25008KT 3000 BR OVC002 01/01 Q1028=
201701251550 METAR ESMX 251550Z 26006KT 230V290 2600 BR OVC002 02/01 Q1028=
201701251520 METAR ESMX 251520Z 25006KT 2600 BR OVC002 02/01 Q1028=
201701251450 METAR ESMX 251450Z 25007KT 2600 BR OVC002 02/01 Q1028=
201701251420 METAR ESMX 251420Z AUTO 25007KT 3100 BR OVC002/// 02/01 Q1028=
201701251350 METAR ESMX 251350Z 26007KT 230V290 3400 BR OVC002 02/01 Q1028=
201701251320 METAR ESMX 251320Z 26007KT 3800 BR OVC003 02/01 Q1028=
201701251250 METAR ESMX 251250Z 25007KT 200V290 5000 BR OVC004 02/01 Q1028=
201701251220 METAR ESMX 251220Z 26007KT 5000 BR SCT003 BKN005 02/01 Q1028=
201701251150 METAR ESMX 251150Z 27009KT 6000 BR FEW002 BKN003 OVC005 02/02 Q1028=
201701251120 METAR ESMX 251120Z 26009KT 3400 BR OVC003 02/02 Q1028=
201701251050 METAR ESMX 251050Z 27010KT 5000 BR OVC003 03/02 Q1028=
201701251020 METAR ESMX 251020Z 26010KT 230V290 5000 BR VV002 03/02 Q1028=
201701250950 METAR ESMX 250950Z 26009KT 4500 BR VV002 03/02 Q1028=
201701250920 METAR ESMX 250920Z 26008KT 220V290 3600 BR VV002 03/02 Q1027=
201701250850 METAR ESMX 250850Z 26009KT 3800 BR VV002 03/02 Q1027=
201701250820 METAR ESMX 250820Z 25007KT 2200 -DZ OVC002 03/03 Q1027=
201701250750 METAR ESMX 250750Z 24007KT 2100 DZ VV002 03/02 Q1027=
201701250720 METAR ESMX 250720Z 25005KT 1800 DZ VV002 03/02 Q1027=
201701250650 METAR ESMX 250650Z 23005KT 1800 DZ BKN002 OVC003 02/02 Q1026=
201701250620 METAR ESMX 250620Z 22004KT 1600 DZ VV002 02/02 Q1026=
201701250550 METAR ESMX 250550Z 20004KT 2000 -DZ BR BKN003 02/02 Q1026=
201701250520 METAR ESMX 250520Z 22004KT 4500 BR SCT002 BKN005 OVC017 02/02 Q1026=
201701250450 METAR ESMX 250450Z 23005KT 6000 BR BKN004 OVC022 02/01 Q1026=
201701250420 METAR ESMX 250420Z AUTO 23004KT 9000 BR BKN003/// OVC024/// 02/01 Q1026=
201701250350 METAR ESMX 250350Z AUTO 22004KT 9999 OVC003/// 02/01 Q1026=
201701250320 METAR ESMX 250320Z AUTO 21004KT 9999 OVC004/// 01/01 Q1026=
201701250250 METAR ESMX 250250Z AUTO 22004KT 9999 FEW006/// OVC029/// 01/00 Q1026=
201701250220 METAR ESMX 250220Z AUTO 22004KT 9999 OVC030/// 01/00 Q1026=
201701250150 METAR ESMX 250150Z AUTO 22005KT 9999 OVC029/// 01/00 Q1026=
201701250120 METAR ESMX 250120Z AUTO 22004KT 9999 OVC023/// 01/00 Q1026=
201701250050 METAR ESMX 250050Z AUTO 20004KT 9999 OVC023/// 01/00 Q1026=
201701250020 METAR ESMX 250020Z 22004KT 9999 OVC023 01/00 Q1026=
201701242350 METAR ESMX 242350Z 23003KT 9999 FEW012 BKN025 01/M00 Q1026=
201701242320 METAR ESMX 242320Z 25003KT 9999 BKN024 M00/M01 Q1026=
201701242250 METAR ESMX 242250Z 00000KT 9999 SCT021 BKN026 01/M01 Q1026=
201701242220 METAR ESMX 242220Z 29003KT 9999 BKN010 OVC018 02/M00 Q1026=
201701242150 METAR ESMX 242150Z 28005KT 250V320 9999 OVC008 02/M00 Q1025=
201701242120 METAR ESMX 242120Z 28006KT 250V320 9999 OVC007 02/M00 Q1025=
201701242050 METAR ESMX 242050Z 27006KT 9999 OVC008 02/M00 Q1025=
201701242020 METAR ESMX 242020Z 26005KT 9999 OVC008 02/M00 Q1025=
201701241950 METAR ESMX 241950Z 29006KT 9999 OVC008 02/00 Q1025=
201701241920 METAR ESMX 241920Z VRB03KT 9999 OVC008 01/M00 Q1025=
201701241850 METAR ESMX 241850Z VRB02KT 9999 OVC007 01/M00 Q1025=
201701241820 METAR ESMX 241820Z 29005KT 250V330 9999 OVC006 01/M00 Q1025=
201701241750 METAR ESMX 241750Z 27005KT 250V310 9999 OVC006 01/M00 Q1025=
201701241720 METAR ESMX 241720Z 27004KT 240V300 9999 OVC006 01/M00 Q1024=
201701241650 METAR ESMX 241650Z 28005KT 9999 OVC006 01/M00 Q1024=
201701241620 METAR ESMX 241620Z 27004KT 230V300 9999 OVC006 01/M00 Q1024=
201701241550 METAR ESMX 241550Z 30005KT 9999 OVC006 02/00 Q1024=
201701241520 METAR ESMX 241520Z 30004KT 270V330 9999 OVC007 02/M00 Q1024=
201701241450 METAR ESMX 241450Z 31004KT 9999 OVC007 02/00 Q1023=
201701241420 METAR ESMX 241420Z 29006KT 9999 OVC007 02/00 Q1023=
201701241350 METAR ESMX 241350Z 29005KT 240V330 9999 OVC007 02/00 Q1023=
201701241320 METAR ESMX 241320Z 26006KT 9999 OVC007 02/00 Q1023=
201701241250 METAR ESMX 241250Z 29005KT 9999 OVC006 02/00 Q1023=
201701241220 METAR ESMX 241220Z 25006KT 9999 OVC007 02/00 Q1023=
201701241150 METAR ESMX 241150Z 30007KT 9999 OVC006 02/00 Q1023=
201701241120 METAR ESMX 241120Z 27007KT 9999 OVC006 02/00 Q1023=
201701241050 METAR ESMX 241050Z 27006KT 240V310 9999 BKN006 02/00 Q1023=
201701241020 METAR ESMX 241020Z 27006KT 9999 OVC006 02/00 Q1023=
201701240950 METAR ESMX 240950Z 28005KT 250V320 9999 OVC006 02/00 Q1023=
201701240920 METAR ESMX 240920Z 26007KT 240V300 9999 OVC006 02/00 Q1022=
201701240850 METAR ESMX 240850Z 29005KT 9999 OVC006 01/00 Q1022=
201701240820 METAR ESMX 240820Z 29007KT 9999 OVC006 01/M00 Q1022=
201701240750 METAR ESMX 240750Z 30005KT 9999 OVC006 01/M00 Q1022=
201701240720 METAR ESMX 240720Z 29005KT 250V320 9999 OVC006 01/M00 Q1021=
201701240650 METAR ESMX 240650Z 29006KT 9999 OVC006 01/M00 Q1021=
201701240620 METAR ESMX 240620Z 29007KT 9999 OVC006 01/00 Q1021=
201701240550 METAR ESMX 240550Z 28005KT 250V330 9999 OVC006 01/M00 Q1020=
201701240520 METAR ESMX 240520Z 29006KT 260V330 9999 OVC006 01/00 Q1020=
201701240450 METAR ESMX 240450Z 30006KT 260V330 9999 OVC006 01/00 Q1020=
201701240420 METAR ESMX 240420Z AUTO 30007KT 260V340 9999 OVC006/// 01/00 Q1020=
201701240350 METAR ESMX 240350Z AUTO 30005KT 9999 OVC007/// 02/00 Q1020=
201701240320 METAR ESMX 240320Z AUTO 28007KT 240V310 9999 OVC007/// 02/00 Q1019=
201701240250 METAR ESMX 240250Z AUTO 29007KT 9999 OVC007/// 02/00 Q1019=
201701240220 METAR ESMX 240220Z AUTO 29007KT 9999 OVC008/// 02/00 Q1019=
201701240150 METAR ESMX 240150Z AUTO 29007KT 9999 OVC009/// 02/00 Q1019=
201701240120 METAR ESMX 240120Z AUTO 29007KT 9999 OVC009/// 02/00 Q1019=
201701240050 METAR ESMX 240050Z 28007KT 9999 OVC009 02/00 Q1019=
201701240020 METAR ESMX 240020Z 28006KT 9999 OVC010 02/00 Q1019=
201701232350 METAR ESMX 232350Z 27006KT 9999 OVC011 02/00 Q1019=
201701232320 METAR ESMX 232320Z 27007KT 9999 OVC010 02/00 Q1019=
201701232250 METAR ESMX 232250Z 29006KT 250V320 9999 OVC010 02/00 Q1019=
201701232220 METAR ESMX 232220Z 28007KT 9999 OVC010 02/00 Q1019=
201701232150 METAR ESMX 232150Z 28008KT 240V300 9999 FEW009 OVC010 02/00 Q1019=
201701232120 METAR ESMX 232120Z 28007KT 240V330 9999 FEW009 OVC011 02/00 Q1019=
201701232050 METAR ESMX 232050Z 29007KT 9999 OVC009 02/00 Q1018=
201701232020 METAR ESMX 232020Z 27008KT 240V310 9999 FEW009 OVC010 02/00 Q1018=
201701231950 METAR ESMX 231950Z 26007KT 240V300 9000 BR FEW009 OVC011 02/00 Q1018=
201701231920 METAR ESMX 231920Z 28007KT 9999 FEW008 SCT009 BKN011 02/00 Q1018=
201701231850 METAR ESMX 231850Z 26006KT 230V290 8000 BR BKN011 OVC016 02/00 Q1018=
201701231820 METAR ESMX 231820Z 29006KT 6000 BR FEW008 BKN010 01/00 Q1018=
201701231750 METAR ESMX 231750Z 27006KT 7000 BR FEW006 OVC008 01/00 Q1018=
201701231720 METAR ESMX 231720Z 26005KT 7000 BR OVC009 01/00 Q1018=
201701231650 METAR ESMX 231650Z 25003KT 7000 BR FEW010 BKN013 01/00 Q1018=
201701231620 METAR ESMX 231620Z 24006KT 200V270 8000 BR FEW011 SCT014 BKN017 01/00 Q1018=
201701231550 METAR ESMX 231550Z 26005KT 9000 BR FEW009 BKN011 02/01 Q1018=
201701231520 METAR ESMX 231520Z 26006KT 9999 BKN010 BKN015 02/01 Q1018=
201701231450 METAR ESMX 231450Z 25007KT 9999 FEW013 SCT019 BKN023 02/00 Q1018=
201701231420 METAR ESMX 231420Z 27008KT 9999 FEW013 OVC016 02/01 Q1018=
201701231350 METAR ESMX 231350Z 27008KT 240V300 9999 FEW012 OVC016 02/00 Q1018=
201701231320 METAR ESMX 231320Z 26009KT 9999 FEW010 BKN014 OVC018 02/01 Q1018=
201701231250 METAR ESMX 231250Z 27010KT 9999 FEW009 SCT011 BKN013 02/01 Q1018=
201701231220 METAR ESMX 231220Z 27010KT 9999 FEW010 SCT014 BKN017 02/00 Q1018=
201701231150 METAR ESMX 231150Z 26007KT 230V300 9999 FEW011 OVC021 02/00 Q1019=
201701231120 METAR ESMX 231120Z 25008KT 9999 FEW011 OVC022 02/01 Q1019=
201701231050 METAR ESMX 231050Z 25007KT 9999 OVC021 02/00 Q1019=
201701231020 METAR ESMX 231020Z 23007KT 9999 OVC021 02/M00 Q1019=
201701230950 METAR ESMX 230950Z 25006KT 220V280 9999 OVC021 01/00 Q1020=
201701230920 METAR ESMX 230920Z 25005KT 9999 OVC017 01/M00 Q1020=
201701230850 METAR COR ESMX 230850Z 26005KT 220V290 9999 OVC016 01/M00 Q1020=
201701230820 METAR ESMX 230820Z 26008KT 230V290 9999 FEW013 OVC016 01/M00 Q1020=
201701230750 METAR ESMX 230750Z 27009KT 240V320 9999 FEW005 SCT010 OVC012 01/00 Q1020=
201701230720 METAR ESMX 230720Z 26007KT 3800 DZ FEW004 BKN005 BKN008 01/00 Q1020=
201701230650 METAR ESMX 230650Z 26007KT 6000 DZ FEW004 OVC005 01/00 Q1019=
201701230620 METAR ESMX 230620Z 25007KT 9000 FEW005 SCT008 BKN009 01/00 Q1019=
201701230550 METAR ESMX 230550Z 25009KT 7000 BR SCT006 BKN010 01/01 Q1020=
201701230520 METAR ESMX 230520Z 25007KT 7000 BR FEW005 SCT007 BKN009 01/01 Q1020=
201701230450 METAR ESMX 230450Z 24007KT 7000 BR SCT005 BKN007 OVC008 01/01 Q1020=
201701230420 METAR ESMX 230420Z AUTO 23006KT 6000 BR FEW004/// OVC005/// 01/00 Q1020=
201701230350 METAR ESMX 230350Z AUTO 24006KT 8000 BR FEW005/// BKN006/// OVC010/// 01/00 Q1020=
201701230320 METAR ESMX 230320Z AUTO 25007KT 210V280 9000 BKN006/// OVC010/// 01/00 Q1021=
201701230250 METAR ESMX 230250Z AUTO 24006KT 210V280 9999 FEW007/// OVC010/// 01/00 Q1021=
201701230220 METAR ESMX 230220Z AUTO 24005KT 9999 FEW006/// OVC010/// 01/00 Q1021=
201701230150 METAR ESMX 230150Z AUTO 27009KT 240V300 8000 SCT004/// BKN006/// OVC008/// 01/00 Q1021 RESHUP=
201701230120 METAR ESMX 230120Z AUTO 25007KT 200V290 5000 BR OVC004/// 01/01 Q1022 REUP=
201701230050 METAR ESMX 230050Z AUTO 26008KT 230V300 6000 BR FEW004/// OVC005/// 01/01 Q1022=
201701230020 METAR ESMX 230020Z AUTO 26008KT 210V290 6000 BR OVC004/// 02/01 Q1022=
201701222350 METAR ESMX 222350Z 25007KT 210V280 5000 BR OVC005 01/01 Q1022=
201701222320 METAR ESMX 222320Z 23007KT 5000 BR FEW004 BKN005 OVC008 01/01 Q1022=
201701222250 METAR ESMX 222250Z 26008KT 5000 BR BKN003 OVC006 01/01 Q1023=
201701222220 METAR ESMX 222220Z 26008KT 5000 BR FEW003 OVC004 01/01 Q1023=
201701222150 METAR ESMX 222150Z 24005KT 6000 BR FEW003 BKN005 OVC008 01/01 Q1023=
201701222120 METAR ESMX 222120Z 24006KT 200V260 5000 BR FEW002 SCT003 BKN005 01/01 Q1023=
201701222050 METAR ESMX 222050Z 22005KT 5000 BR FEW002 SCT005 BKN007 01/01 Q1023=
201701222020 METAR ESMX 222020Z 23005KT 4800 BR BKN002 OVC005 01/01 Q1023=
201701221950 METAR ESMX 221950Z 23005KT 4400 BR BKN002 OVC003 01/01 Q1023=
201701221920 METAR ESMX 221920Z 23005KT 3600 BR OVC002 01/01 Q1024=
201701221850 METAR ESMX 221850Z 22005KT 4400 BR OVC002 01/01 Q1024=
201701221820 METAR ESMX 221820Z 21005KT 3500 BR OVC002 01/00 Q1024=
201701221750 METAR ESMX 221750Z 21006KT 3400 BR OVC001 01/00 Q1024=
201701221720 METAR ESMX 221720Z 20005KT 3300 BR OVC001 01/00 Q1024=
201701221650 METAR ESMX 221650Z 20005KT 2900 BR OVC001 01/00 Q1024=
201701221620 METAR ESMX 221620Z 20004KT 3600 BR OVC001 01/00 Q1025=
201701221550 METAR ESMX 221550Z 19004KT 3500 BR BKN001 OVC003 00/00 Q1025=
201701221520 METAR ESMX 221520Z 20005KT 3100 BR OVC001 00/00 Q1025=
201701221450 METAR ESMX 221450Z 20004KT 2700 BR OVC001 00/00 Q1025=
201701221420 METAR ESMX 221420Z AUTO 21004KT 2900 BR OVC001/// 00/00 Q1025=
201701221350 METAR ESMX 221350Z AUTO 20004KT 3200 BR OVC001/// 00/M00 Q1025=
201701221320 METAR ESMX 221320Z AUTO 19004KT 2900 BR OVC001/// 00/M00 Q1026=
201701221250 METAR ESMX 221250Z AUTO 21004KT 2900 BR OVC001/// M00/M00 Q1026 REFZRA=
201701221220 METAR ESMX 221220Z AUTO 21004KT 3200 BR OVC001/// M00/M01 Q1026=
201701221150 METAR ESMX 221150Z AUTO 20005KT 3800 BR OVC001/// M01/M01 Q1026=
201701221120 METAR ESMX 221120Z AUTO 21004KT 2400 -FZDZ OVC001/// M01/M01 Q1027 RESHUP=
201701221050 METAR ESMX 221050Z AUTO 19004KT 2400 OVC001/// M01/M02 Q1027 REFZUP=
201701221020 METAR ESMX 221020Z AUTO 18003KT 1000 R01/1200N R19/1200U FZUP VV002 M02/M02 Q1027 RESHUP=
201701220950 METAR ESMX 220950Z AUTO VRB03KT 0600 R01/1200D R19/1100D FZFG VV002 M02/M03 Q1027 REFZRA=
201701220920 METAR ESMX 220920Z AUTO 22004KT 1600 -FZDZ OVC001/// M02/M03 Q1028=
201701220850 METAR ESMX 220850Z AUTO 22005KT 3600 -FZDZ VV002 M03/M03 Q1028 REFZUP RESHUP REFZRA=
201701220820 METAR ESMX 220820Z AUTO 23003KT 0900 R01/1400U R19/1300N OVC001/// M03/M03 Q1028 REFZRA=
201701220750 METAR ESMX 220750Z AUTO 24003KT 210V270 0900 R01/1400N R19/1500D=
201701220720 METAR ESMX 220720Z AUTO 25003KT 1200 R01/P2000N R19/P2000N -FZDZ OVC001/// M03/M04 Q1028 REFZUP RESHUP=
201701220650 METAR ESMX 220650Z AUTO 25004KT 1000 R01/1800U R19/P2000N FZFG OVC001/// M03/M04 Q1028=
201701220620 METAR ESMX 220620Z AUTO 23004KT 190V260 0700 R01/P2000N R19/1900D=
201701220550 METAR ESMX 220550Z AUTO 25004KT 210V280 0400 R01/1200U R19/1100N=
201701220520 METAR ESMX 220520Z AUTO 23003KT 0450 R01/1200N R19/1400U -FZDZ VV002 M04/M04 Q1028 RESHUP=
201701220450 METAR ESMX 220450Z AUTO 22003KT 0350 R01/1000D R19/P2000N FZFG VV002 M04/M04 Q1028=
201701220420 METAR ESMX 220420Z AUTO 26003KT 0450 R01/1900D R19/P2000N FZFG VV001 M04/M04 Q1028=
201701220350 METAR ESMX 220350Z AUTO 24003KT 0900 R01/P2000N R19/P2000N -FZDZ VV002 M04/M04 Q1028=
201701220320 METAR ESMX 220320Z AUTO 21003KT 1100 R01/P2000N R19/P2000N -FZDZ VV002 M04/M04 Q1028 RESHUP=
201701220250 METAR ESMX 220250Z AUTO 22003KT 1200 R01/P2000N R19/P2000N FZUP OVC001/// M04/M04 Q1028 RESHUP=
201701220220 METAR ESMX 220220Z AUTO 19004KT 0300 R01/1500U R19/0900U FZFG VV002 M04/M04 Q1028 RESHUP=
201701220150 METAR ESMX 220150Z AUTO 20003KT 0300 R01/0750N R19/P2000N FZFG VV002 M04/M05 Q1028 REFZUP=
201701220120 METAR ESMX 220120Z AUTO 21004KT 0800 R01/P2000N R19/P2000N BKN001/// M04/M05 Q1029=
201701220050 METAR ESMX 220050Z AUTO 00000KT 1200 R01/P2000N R19/P2000N BR BKN001/// M05/M05 Q1028=
201701220020 METAR ESMX 220020Z AUTO 00000KT 5000 OVC001/// M04/M04 Q1029=
201701212350 METAR ESMX 212350Z AUTO 18002KT 9999 FEW002/// M03/M04 Q1029=
201701212320 METAR ESMX 212320Z AUTO 17002KT 7000 SCT001/// M03/M04 Q1029=
201701212250 METAR ESMX 212250Z AUTO 18002KT 0500 R01/1300N R19/1500U FZFG VV001 M03/M03 Q1029=
201701212220 METAR ESMX 212220Z AUTO 17003KT 0350 R01/1300D R19/1000D FZFG VV001 M03/M03 Q1029=
201701212150 METAR ESMX 212150Z AUTO 21002KT 0350 R01/P2000N R19/1000D BR VV001 M03/M04 Q1029=
201701212120 METAR ESMX 212120Z AUTO 25002KT 9999 SCT001/// M03/M03 Q1029=
201701212050 METAR ESMX 212050Z AUTO 22003KT 9999 NCD M03/M03 Q1029=
201701212020 METAR ESMX 212020Z AUTO 17003KT 9999 NCD M02/M02 Q1029=
201701211950 METAR ESMX 211950Z AUTO 21003KT 9999 NCD M02/M03 Q1029=
201701211920 METAR ESMX 211920Z AUTO 22003KT 9999 NCD M03/M03 Q1029=
201701211850 METAR ESMX 211850Z AUTO 18004KT 7000 NCD M02/M02 Q1029=
201701211820 METAR ESMX 211820Z AUTO 18004KT 8000 BR NCD M02/M02 Q1029=
201701211750 METAR ESMX 211750Z AUTO 20002KT 9000 BR NCD M02/M02 Q1029=
201701211720 METAR ESMX 211720Z AUTO 19002KT 9000 NCD M02/M02 Q1029=
201701211650 METAR ESMX 211650Z AUTO 00000KT 0550 R01/P2000N R19/P2000D BR NCD M01/M01 Q1029=
201701211620 METAR ESMX 211620Z AUTO VRB01KT 5000 NCD M01/M02 Q1029=
201701211550 METAR ESMX 211550Z AUTO 19002KT 5000 BR NCD M01/M01 Q1029=
201701211520 METAR ESMX 211520Z AUTO 16002KT 9999 NCD 00/M00 Q1028=
201701211450 METAR ESMX 211450Z AUTO 19004KT 9999 NCD 01/00 Q1028=
201701211420 METAR ESMX 211420Z AUTO 20002KT 9999 NCD 03/01 Q1028=
201701211350 METAR ESMX 211350Z AUTO 26003KT 9999 NCD 03/01 Q1028=
201701211320 METAR ESMX 211320Z AUTO 24003KT 9999 NCD 04/02 Q1029=
201701211250 METAR ESMX 211250Z AUTO 00000KT 9999 NCD 04/02 Q1029=
201701211220 METAR ESMX 211220Z AUTO VRB02KT 9999 NCD 03/01 Q1029=
201701211150 METAR ESMX 211150Z AUTO VRB02KT 9999 NCD 02/01 Q1029=
201701211120 METAR ESMX 211120Z AUTO VRB01KT 9999 NCD 03/02 Q1029=
201701211050 METAR ESMX 211050Z AUTO 21003KT 9999 NCD 02/01 Q1029=
201701211020 METAR ESMX 211020Z AUTO 00000KT 9999 NCD 00/M00 Q1029=
201701210950 METAR ESMX 210950Z AUTO 00000KT 9999 FEW000/// M01/M01 Q1029=
201701210920 METAR ESMX 210920Z AUTO 00000KT 0550 R01/0700N R19/1100U FZFG BKN000/// M01/M02 Q1029=
201701210850 METAR ESMX 210850Z AUTO 00000KT 0450 R01/0700N R19/1500U FZFG VV000 M02/M02 Q1029=
201701210820 METAR ESMX 210820Z AUTO VRB02KT 0200 R01/0400N R19/0600N FZFG VV000 M02/M02 Q1029=
201701210750 METAR ESMX 210750Z AUTO 00000KT 0150 R01/0600N R19/0400N FZFG VV000 M02/M02 Q1029=
201701210720 METAR ESMX 210720Z AUTO 00000KT 0150 R01/0450N R19/0500N FZFG VV001 M02/M02 Q1028=
201701210650 METAR ESMX 210650Z AUTO 27001KT 0200 R01/0600N R19/0800N FZFG VV001 M02/M02 Q1028=
201701210620 METAR ESMX 210620Z AUTO VRB03KT 0200 R01/0800D R19/0750N FZFG VV001 M02/M02 Q1028=
201701210550 METAR ESMX 210550Z AUTO VRB02KT 0150 R01/0700N R19/0450N FZFG VV001 M01/M02 Q1028=
201701210520 METAR ESMX 210520Z AUTO VRB01KT 0200 R01/0700N R19/0650N FZFG VV000 M01/M01 Q1028=
201701210450 METAR ESMX 210450Z AUTO VRB02KT 0200 R01/0700N R19/0800N FZFG VV001 M01/M01 Q1027=
201701210420 METAR ESMX 210420Z AUTO VRB01KT 0250 R01/0750N R19/0800N FZFG VV001 M01/M01 Q1027=
201701210350 METAR ESMX 210350Z AUTO 23002KT 0250 R01/1000N R19/0800N FZFG VV001 M01/M01 Q1027=
201701210320 METAR ESMX 210320Z AUTO VRB03KT 0150 R01/0550N R19/0650N FZFG VV001 M00/M01 Q1027=
201701210250 METAR ESMX 210250Z AUTO 00000KT 0150 R01/0500N R19/0500N FZFG VV000 M00/M00 Q1027=
201701210220 METAR ESMX 210220Z AUTO VRB01KT 0200 R01/0600N R19/0650N FG VV000 00/M00 Q1027=
201701210150 METAR ESMX 210150Z AUTO 27004KT 0200 R01/0700N R19/0700N FG VV001 01/00 Q1027=
201701210120 METAR ESMX 210120Z AUTO 27003KT 0150 R01/0600N R19/0800N FG VV001 01/01 Q1027=
201701210050 METAR ESMX 210050Z AUTO 27004KT 0250 R01/0700N R19/0900D FG VV001 01/01 Q1027=
201701210020 METAR ESMX 210020Z AUTO 28003KT 260V320 0250 R01/0750N R19/0900N FG VV001 02/01 Q1027=
201701202350 METAR ESMX 202350Z AUTO 30004KT 0300 R01/0900N R19/0900N FG VV001 02/02 Q1027=
201701202320 METAR ESMX 202320Z AUTO 29005KT 0300 R01/0900N R19/0900D FG VV001 02/02 Q1027=
201701202250 METAR ESMX 202250Z AUTO 30005KT 0550 R01/1500D R19/1500N FG VV001 02/02 Q1027=
201701202220 METAR ESMX 202220Z AUTO 29005KT 1000 R01/P2000N R19/P2000N BR VV002 03/02 Q1027=
201701202150 METAR ESMX 202150Z AUTO 29005KT 3400 BR OVC001/// 03/02 Q1027=
201701202120 METAR ESMX 202120Z AUTO 29005KT 240V330 7000 BR OVC001/// 03/03 Q1027=
201701202050 METAR ESMX 202050Z AUTO 29005KT 9999 BR OVC001/// 03/03 Q1026=
201701202020 METAR COR ESMX 202020Z 28006KT 9999 OVC002 03/03 Q1026=
201701201950 METAR ESMX 201950Z 28005KT 250V330 9999 OVC003 04/03 Q1026=
201701201920 METAR ESMX 201920Z 28005KT 240V300 9999 OVC004 04/03 Q1026=
201701201850 METAR ESMX 201850Z 27008KT 9999 BKN005 04/03 Q1026=
201701201820 METAR ESMX 201820Z 27003KT 230V290 9999 BKN006 03/03 Q1026=
201701201750 METAR ESMX 201750Z 27003KT 230V020 9999 BKN005 04/03 Q1025=
201701201720 METAR ESMX 201720Z 26007KT 9999 BKN005 04/03 Q1025=
201701201650 METAR ESMX 201650Z 26007KT 240V300 9999 FEW006 SCT008 04/03 Q1025=
201701201620 METAR ESMX 201620Z 24006KT 210V280 9999 BKN007 05/03 Q1025=
201701201550 METAR ESMX 201550Z 27007KT 9999 BKN007 05/04 Q1025=
201701201520 METAR ESMX 201520Z 25007KT 210V300 9999 OVC007 05/04 Q1025=
201701201450 METAR ESMX 201450Z 27006KT 240V340 9999 OVC008 05/04 Q1025=
201701201420 METAR ESMX 201420Z 26009KT 9999 FEW008 BKN009 05/04 Q1025=
201701201350 METAR ESMX 201350Z 26009KT 220V300 9999 OVC008 06/04 Q1025=
201701201320 METAR ESMX 201320Z 27008KT 240V320 9999 OVC008 06/04 Q1025=
201701201250 METAR ESMX 201250Z 28010KT 9999 OVC007 06/04 Q1025=
201701201220 METAR ESMX 201220Z 27010KT 9999 OVC007 06/04 Q1025=
201701201150 METAR ESMX 201150Z 27011KT 9999 OVC006 05/04 Q1025=
201701201120 METAR ESMX 201120Z 26012KT 230V300 9999 OVC005 05/04 Q1026=
201701201050 METAR ESMX 201050Z 27010KT 9999 OVC005 05/04 Q1026=
201701201020 METAR ESMX 201020Z 27009KT 9999 OVC004 05/04 Q1026=
201701200950 METAR ESMX 200950Z 27009KT 240V300 9999 OVC004 05/04 Q1026=
201701200920 METAR ESMX 200920Z 26009KT 220V300 9999 OVC003 05/04 Q1026=
201701200850 METAR ESMX 200850Z 26009KT 9999 OVC002 05/04 Q1026=
201701200820 METAR ESMX 200820Z 26009KT 7000 BR OVC002 05/04 Q1026=
201701200750 METAR ESMX 200750Z 26008KT 230V290 6000 BR OVC002 05/04 Q1026=
201701200720 METAR ESMX 200720Z 26006KT 5000 BR OVC002 04/04 Q1026=
201701200650 METAR ESMX 200650Z 26006KT 220V300 5000 BR OVC002 04/04 Q1026=
201701200620 METAR ESMX 200620Z 24005KT 200V280 6000 BR OVC002 04/04 Q1026=
201701200550 METAR ESMX 200550Z 25007KT 4900 BR OVC002 04/04 Q1026=
201701200520 METAR ESMX 200520Z 26008KT 7000 BR OVC002 04/04 Q1027=
201701200450 METAR COR ESMX 200450Z 26007KT 6000 BR OVC002 04/04 Q1026=
201701200420 METAR ESMX 200420Z AUTO 27006KT 6000 BR OVC002/// 04/04 Q1027=
201701200350 METAR ESMX 200350Z AUTO 27006KT 240V300 6000 BR OVC002/// 04/04 Q1027=
201701200320 METAR ESMX 200320Z AUTO 28006KT 240V330 8000 BR BKN003/// OVC005/// 04/03 Q1027=
201701200250 METAR ESMX 200250Z AUTO 28007KT 250V330 9000 BR OVC003/// 04/03 Q1027=
201701200220 METAR ESMX 200220Z AUTO 27008KT 240V300 9999 OVC003/// 04/03 Q1027=
201701200150 METAR ESMX 200150Z AUTO 28007KT 240V320 9999 OVC003/// 04/04 Q1027=
201701200120 METAR ESMX 200120Z AUTO 27009KT 8000 FEW003/// OVC004/// 04/04 Q1027=
201701200050 METAR ESMX 200050Z AUTO 27010KT 8000 BR OVC004/// 05/04 Q1027=
201701200020 METAR ESMX 200020Z 27009KT 8000 BR OVC004 05/04 Q1027=
201701192350 METAR ESMX 192350Z 28010KT 240V300 6000 BR OVC002 05/04 Q1028=
201701192320 METAR ESMX 192320Z 27009KT 5000 BR OVC002 05/04 Q1028=
201701192250 METAR ESMX 192250Z 28008KT 4900 BR OVC002 05/04 Q1028=
201701192220 METAR ESMX 192220Z 27009KT 240V320 6000 BR OVC002 05/04 Q1028=
201701192150 METAR ESMX 192150Z 29007KT 250V340 8000 BR OVC002 05/04 Q1028=
201701192120 METAR ESMX 192120Z 27008KT 9000 BR OVC002 05/04 Q1027=
201701192050 METAR ESMX 192050Z 26006KT 230V290 7000 BR OVC002 05/05 Q1027=
201701192020 METAR ESMX 192020Z 25010KT 6000 BR OVC002 05/05 Q1027=
201701191950 METAR ESMX 191950Z 26012KT 7000 BR OVC002 05/05 Q1027=
201701191920 METAR ESMX 191920Z 27011KT 240V320 7000 BR OVC002 05/05 Q1027=
201701191850 METAR ESMX 191850Z 27010KT 5000 BR OVC002 05/05 Q1027=
201701191820 METAR ESMX 191820Z 26012KT 5000 BR OVC002 05/05 Q1027=
201701191750 METAR ESMX 191750Z 27011KT 4500 BR OVC002 05/05 Q1027=
201701191720 METAR ESMX 191720Z 27013KT 240V310 4400 BR OVC002 05/05 Q1027=
201701191650 METAR ESMX 191650Z 26014KT 4000 BR OVC002 05/05 Q1026=
201701191620 METAR ESMX 191620Z 27013KT 3400 BR OVC002 05/05 Q1027=
201701191550 METAR ESMX 191550Z 27012KT 4300 BR OVC002 05/04 Q1027=
201701191520 METAR ESMX 191520Z 27013KT 250V310 3600 BR OVC002 05/04 Q1027=
201701191450 METAR ESMX 191450Z 27013KT 3500 BR OVC002 05/04 Q1027=
201701191420 METAR ESMX 191420Z 26012KT 3000 BR OVC002 05/04 Q1027=
201701191350 METAR ESMX 191350Z 26013KT 2700 BR OVC002 05/04 Q1027=
201701191320 METAR ESMX 191320Z 26012KT 4100 BR OVC002 05/04 Q1027=
201701191250 METAR ESMX 191250Z 27010KT 240V300 3600 BR OVC001 04/04 Q1027=
201701191220 METAR ESMX 191220Z 26010KT 3700 BR OVC001 05/04 Q1027=
201701191150 METAR ESMX 191150Z 26012KT 3600 BR OVC001 05/04 Q1027=
201701191120 METAR ESMX 191120Z 26012KT 3300 BR OVC002 05/04 Q1027=
201701191050 METAR ESMX 191050Z 26013KT 3000 BR OVC002 05/04 Q1028=
201701191020 METAR ESMX 191020Z 27012KT 3100 BR OVC001 05/04 Q1028=
201701190950 METAR ESMX 190950Z 26011KT 230V290 2600 BR OVC001 05/04 Q1028=
201701190920 METAR ESMX 190920Z 26012KT 3000 BR OVC002 05/04 Q1028=
201701190850 METAR ESMX 190850Z AUTO 26010KT 2600 BR OVC001/// 05/04 Q1028=
201701190820 METAR ESMX 190820Z 26011KT 3300 BR BKN002 OVC004 05/04 Q1028=
201701190750 METAR ESMX 190750Z 27011KT 3100 BR OVC002 04/04 Q1028=
201701190720 METAR ESMX 190720Z 26010KT 5000 BR OVC002 04/04 Q1028=
201701190650 METAR ESMX 190650Z 25010KT 3900 BR OVC002 04/04 Q1028=
201701190620 METAR ESMX 190620Z 27008KT 250V320 3700 BR OVC002 04/04 Q1028=
201701190550 METAR ESMX 190550Z 28009KT 250V310 4800 BR OVC002 04/04 Q1028=
201701190520 METAR ESMX 190520Z 28009KT 4500 BR OVC002 04/04 Q1028=
201701190450 METAR ESMX 190450Z 28009KT 4100 BR OVC002 04/04 Q1028=
201701190420 METAR ESMX 190420Z AUTO 27010KT 4800 BR OVC002/// 04/04 Q1027=
201701190350 METAR ESMX 190350Z AUTO 27012KT 240V300 6000 BR OVC002/// 04/04 Q1027=
201701190320 METAR ESMX 190320Z AUTO 27012KT 6000 BR OVC002/// 04/04 Q1028=
201701190250 METAR ESMX 190250Z AUTO 25011G21KT 9999 OVC003/// 04/03 Q1028=
201701190220 METAR ESMX 190220Z AUTO 27013KT 9999 OVC003/// 04/03 Q1028=
201701190150 METAR ESMX 190150Z AUTO 26008KT 9999 OVC004/// 04/03 Q1028=
201701190120 METAR ESMX 190120Z AUTO 26007KT 230V300 9000 BR BKN002/// OVC005/// 04/03 Q1028=
201701190050 METAR ESMX 190050Z AUTO 25007KT 220V280 7000 BR OVC002/// 04/03 Q1028=
201701190020 METAR ESMX 190020Z 24008KT 8000 BR OVC004 04/03 Q1028=
201701182350 METAR ESMX 182350Z 24008KT 5000 BR OVC003 04/03 Q1028=
201701182320 METAR ESMX 182320Z 23009KT 4200 BR OVC003 03/03 Q1028=
201701182250 METAR ESMX 182250Z 24009KT 3000 BR OVC004 03/03 Q1029=
201701182220 METAR ESMX 182220Z 23009KT 2600 BR OVC004 03/03 Q1029=
201701182150 METAR ESMX 182150Z 23009KT 2400 BR OVC004 03/03 Q1029=
201701182120 METAR ESMX 182120Z 23009KT 2300 BR OVC003 03/02 Q1029=
201701182050 METAR ESMX 182050Z 24009KT 1900 BR OVC002 03/02 Q1029=
201701182020 METAR ESMX 182020Z 24010KT 2200 BR OVC002 03/02 Q1029=
201701181950 METAR ESMX 181950Z 23010KT 1700 BR OVC002 03/02 Q1029=
201701181920 METAR ESMX 181920Z 23010KT 1600 BR OVC002 03/02 Q1029=
201701181850 METAR ESMX 181850Z 22010KT 1500 BR OVC002 03/02 Q1029=
201701181820 METAR ESMX 181820Z 22010KT 1900 BR OVC002 02/02 Q1030=
201701181750 METAR ESMX 181750Z 24009KT 5000 BR OVC001 02/02 Q1030=
201701181720 METAR ESMX 181720Z 24010KT 1900 BR OVC001 02/02 Q1030=
201701181650 METAR ESMX 181650Z 22008KT 1900 BR OVC001 02/02 Q1030=
201701181620 METAR ESMX 181620Z 23009KT 2500 OVC001 02/02 Q1030=
201701181550 METAR ESMX 181550Z 25009KT 1300 R01/P2000N R19/P2000N OVC001 02/02 Q1030=
201701181520 METAR ESMX 181520Z 24008KT 210V280 1000 R01/P2000D R19/P2000N OVC001 02/02 Q1030=
201701181450 METAR ESMX 181450Z 24009KT 0800 R01/1400N R19/1600N FG VV002 02/02 Q1030=
201701181420 METAR ESMX 181420Z 24008KT 0800 R01/1300N R19/1300N FG VV002 02/02 Q1030=
201701181350 METAR ESMX 181350Z 25009KT 0650 R01/1100N R19/1200N FG VV002 02/02 Q1030=
201701181320 METAR ESMX 181320Z 25008KT 220V280 0900 R01/1300D R19/1500D FG VV002 02/02 Q1030=
201701181250 METAR ESMX 181250Z 23007KT 4000 BR OVC002 02/02 Q1030=
201701181220 METAR ESMX 181220Z 23008KT 200V260 7000 BR OVC002 02/02 Q1030=
201701181150 METAR ESMX 181150Z 25008KT 4500 BR OVC002 02/02 Q1031=
201701181120 METAR ESMX 181120Z 25007KT 4400 BR OVC001 02/02 Q1031=
201701181050 METAR ESMX 181050Z 25008KT 210V290 4000 BR OVC001 02/01 Q1031=
201701181020 METAR ESMX 181020Z 25008KT 3500 BR OVC002 02/01 Q1031=
201701180950 METAR ESMX 180950Z 23008KT 210V280 3000 BR OVC002 02/01 Q1031=
201701180920 METAR ESMX 180920Z 25009KT 210V280 3500 BR OVC002 02/01 Q1031=
201701180850 METAR ESMX 180850Z 24008KT 4500 BR OVC002 02/01 Q1031=
201701180820 METAR ESMX 180820Z 24009KT 210V270 3500 BR OVC002 01/01 Q1031=
201701180750 METAR ESMX 180750Z 23007KT 3100 BR OVC002 01/01 Q1031=
201701180720 METAR ESMX 180720Z 23007KT 2500 BR OVC002 01/01 Q1031=
201701180650 METAR ESMX 180650Z 23007KT 3300 -DZ BR OVC002 01/01 Q1031=
201701180620 METAR ESMX 180620Z 23007KT 2600 -DZ BR OVC002 01/01 Q1031=
201701180550 METAR ESMX 180550Z 23007KT 2400 -SN OVC002 01/00 Q1031=
201701180520 METAR COR ESMX 180520Z 22008KT 2500 BR OVC003 01/00 Q1031=
201701180450 METAR ESMX 180450Z 23008KT 2100 -SN OVC003 01/00 Q1031=
201701180420 METAR ESMX 180420Z AUTO 23008KT 2200 UP BKN002/// OVC005/// 01/00 Q1031 RESHUP=
201701180350 METAR ESMX 180350Z AUTO 23009KT 3100 -RA BKN002/// OVC005/// 01/00 Q1031=
201701180320 METAR ESMX 180320Z AUTO 23009KT 2800 -DZ OVC002/// 01/00 Q1031=
201701180250 METAR ESMX 180250Z AUTO 23008KT 2800 -RA OVC002/// 00/M00 Q1031=
201701180220 METAR ESMX 180220Z AUTO 22009KT 3100 -DZ OVC002/// 00/M00 Q1031=
201701180150 METAR ESMX 180150Z AUTO 22009KT 2100 -DZ OVC002/// 00/M00 Q1032=
201701180120 METAR ESMX 180120Z 21008KT 180V240 2900 -SN OVC003 M00/M00 Q1032=
201701180050 METAR ESMX 180050Z 22008KT 190V250 2700 -RASN OVC005 M00/M01 Q1032=
201701180020 METAR ESMX 180020Z 22009KT 3400 -SN OVC004 M00/M01 Q1032=
201701172350 METAR COR ESMX 172350Z 21009KT 5000 -SN BKN005 OVC008 M01/M01 Q1032=
201701172320 METAR ESMX 172320Z 22009KT 3000 -SN SCT005 BKN007 M01/M02 Q1032=
201701172250 METAR ESMX 172250Z 22009KT 2000 -SN FEW005 BKN006 BKN008 M01/M02 Q1032=
201701172220 METAR ESMX 172220Z 21010KT 5000 -RASN FEW005 BKN007 BKN008 M01/M02 Q1032=
201701172150 METAR ESMX 172150Z 20009KT 3900 -SN BKN005 BKN008 M01/M02 Q1033=
201701172120 METAR ESMX 172120Z 21009KT 3200 -SN BKN005 M01/M02 Q1033=
201701172050 METAR ESMX 172050Z 21009KT 3100 -SN SCT005 BKN007 M02/M02 Q1033=
201701172020 METAR ESMX 172020Z 21009KT 4100 -SN FEW005 SCT007 OVC008 M02/M02 Q1033=
201701171950 METAR ESMX 171950Z 21008KT 2200 -SN FEW007 SCT009 BKN015 M02/M03 Q1033=
201701171920 METAR ESMX 171920Z 20008KT 9999 -SN FEW008 BKN026 M02/M03 Q1033=
201701171850 METAR ESMX 171850Z 21007KT 9999 OVC006 M02/M04 Q1033=
201701171820 METAR ESMX 171820Z 22008KT 9999 -SN OVC007 M02/M04 Q1033=
201701171750 METAR ESMX 171750Z 23007KT 9999 BKN007 BKN032 M03/M04 Q1033=
201701171720 METAR ESMX 171720Z 22006KT 9999 -SN FEW009 BKN034 M03/M04 Q1033=
201701171650 METAR ESMX 171650Z 22006KT 9999 FEW009 SCT025 BKN050 M03/M05 Q1034=
201701171620 METAR ESMX 171620Z 23005KT 9999 BKN026 M03/M05 Q1034=
201701171550 METAR ESMX 171550Z 22006KT CAVOK M03/M05 Q1034=
201701171520 METAR ESMX 171520Z 20006KT CAVOK M03/M05 Q1034=
201701171450 METAR ESMX 171450Z 22005KT CAVOK M03/M05 Q1034=
201701171420 METAR ESMX 171420Z 23005KT CAVOK M03/M05 Q1034=
201701171350 METAR ESMX 171350Z 22006KT CAVOK M03/M05 Q1034=
201701171320 METAR ESMX 171320Z 22005KT CAVOK M03/M05 Q1034=
201701171250 METAR ESMX 171250Z 22005KT 9999 FEW017 M03/M05 Q1034=
201701171220 METAR ESMX 171220Z 22006KT 9999 SCT020 M03/M05 Q1034=
201701171150 METAR ESMX 171150Z 22005KT CAVOK M04/M05 Q1034=
201701171120 METAR ESMX 171120Z 22004KT CAVOK M04/M05 Q1034=
201701171050 METAR ESMX 171050Z 21004KT CAVOK M04/M05 Q1034=
201701171020 METAR ESMX 171020Z 23003KT CAVOK M05/M06 Q1034=
201701170950 METAR ESMX 170950Z 22004KT CAVOK M05/M06 Q1034=
201701170920 METAR ESMX 170920Z 24003KT CAVOK M05/M06 Q1034=
201701170850 METAR ESMX 170850Z 26004KT CAVOK M06/M07 Q1034=
201701170820 METAR ESMX 170820Z 19003KT CAVOK M09/M10 Q1033=
201701170750 METAR ESMX 170750Z 00000KT CAVOK M11/M13 Q1033=
201701170720 METAR ESMX 170720Z 17002KT CAVOK M12/M14 Q1033=
201701170650 METAR ESMX 170650Z 19002KT 9999 FEW016 M12/M14 Q1033=
201701170620 METAR ESMX 170620Z VRB02KT 9999 FEW017 M12/M13 Q1033=
201701170550 METAR COR ESMX 170550Z 17002KT 9999 FEW015 M12/M13 Q1033=
201701170520 METAR COR ESMX 170520Z 00000KT 9999 FEW025 M12/M13 Q1033=
201701170450 METAR ESMX 170450Z 00000KT 9999 FEW025 M11/M13 Q1032=
201701170420 METAR ESMX 170420Z AUTO 00000KT 9999 NCD M11/M12 Q1032=
201701170350 METAR ESMX 170350Z AUTO 18002KT 9999 NCD M11/M12 Q1032=
201701170320 METAR ESMX 170320Z AUTO 00000KT 9999 NCD M10/M11 Q1032=
201701170250 METAR ESMX 170250Z AUTO 00000KT 9999 FEW025/// M09/M10 Q1032=
201701170220 METAR ESMX 170220Z AUTO 34002KT 9999 SCT025/// M09/M11 Q1032=
201701170150 METAR ESMX 170150Z AUTO 00000KT 9999 NCD M09/M11 Q1031=
201701170120 METAR ESMX 170120Z AUTO 00000KT 9999 NCD M08/M09 Q1031=
201701170050 METAR ESMX 170050Z AUTO 00000KT 9999 NCD M08/M09 Q1031=
201701170020 METAR ESMX 170020Z 00000KT 9999 SCT035 M07/M08 Q1031=
201701162350 METAR ESMX 162350Z 00000KT 9999 SCT009 BKN035 M06/M07 Q1031=
201701162320 METAR ESMX 162320Z VRB02KT 9999 BKN009 M06/M06 Q1031=
201701162250 METAR ESMX 162250Z 27002KT 9999 FEW010 M07/M08 Q1030=
201701162220 METAR ESMX 162220Z 00000KT 9999 FEW010 M06/M06 Q1030=
201701162150 METAR ESMX 162150Z 00000KT 9999 FEW030 M05/M06 Q1029=
201701162120 METAR ESMX 162120Z VRB03KT 9999 FEW030 M03/M05 Q1029=
201701162050 METAR ESMX 162050Z 36004KT 9999 FEW017 OVC031 M02/M04 Q1029=
201701162020 METAR ESMX 162020Z 34006KT 9999 BKN012 OVC033 M02/M04 Q1029=
201701161950 METAR ESMX 161950Z 35005KT 9999 BKN011 OVC032 M02/M04 Q1029=
201701161920 METAR ESMX 161920Z 02005KT 9999 FEW010 OVC012 M02/M04 Q1028=
201701161850 METAR ESMX 161850Z 01005KT 9999 OVC009 M02/M04 Q1028=
201701161820 METAR ESMX 161820Z 01006KT 9999 OVC010 M02/M04 Q1027=
201701161750 METAR ESMX 161750Z 36006KT 9999 OVC010 M02/M04 Q1027=
201701161720 METAR ESMX 161720Z 02007KT 9999 OVC011 M02/M05 Q1027=
201701161650 METAR ESMX 161650Z 01007KT 9999 OVC012 M02/M05 Q1027=
201701161620 METAR ESMX 161620Z 02008KT 9999 OVC010 M02/M05 Q1026=
201701161550 METAR ESMX 161550Z 36009KT 9999 OVC010 M02/M05 Q1026=
201701161520 METAR ESMX 161520Z 01009KT 9999 BKN011 M02/M05 Q1026=
201701161450 METAR ESMX 161450Z 36010KT 9999 BKN011 M02/M05 Q1025=
201701161420 METAR ESMX 161420Z 01011KT 9999 BKN010 M02/M05 Q1025=
201701161350 METAR ESMX 161350Z 36009KT 9999 BKN010 M02/M05 Q1025=
201701161320 METAR ESMX 161320Z 02009KT 9999 BKN011 M02/M05 Q1024=
201701161250 METAR ESMX 161250Z 35008KT CAVOK M02/M05 Q1024=
201701161220 METAR ESMX 161220Z 01008KT 9999 FEW013 M02/M05 Q1024=
201701161150 METAR ESMX 161150Z 34009KT CAVOK M03/M05 Q1024=
201701161120 METAR ESMX 161120Z 34008KT CAVOK M03/M06 Q1023=
201701161050 METAR ESMX 161050Z 33008KT CAVOK M04/M06 Q1023=
201701161020 METAR ESMX 161020Z 32006KT CAVOK M05/M07 Q1023=
201701160950 METAR ESMX 160950Z 32005KT CAVOK M05/M07 Q1023=
201701160920 METAR ESMX 160920Z VRB02KT CAVOK M06/M08 Q1023=
201701160850 METAR ESMX 160850Z 31005KT CAVOK M07/M09 Q1023=
201701160820 METAR ESMX 160820Z 30005KT CAVOK M08/M09 Q1023=
201701160750 METAR ESMX 160750Z 30005KT CAVOK M08/M09 Q1022=
201701160720 METAR ESMX 160720Z 32004KT CAVOK M09/M10 Q1022=
201701160650 METAR ESMX 160650Z 31004KT CAVOK M10/M11 Q1022=
201701160620 METAR ESMX 160620Z 00000KT CAVOK M09/M10 Q1021=
201701160550 METAR ESMX 160550Z 31004KT CAVOK M08/M09 Q1021=
201701160520 METAR ESMX 160520Z 33006KT CAVOK M07/M09 Q1020=
201701160450 METAR ESMX 160450Z 33005KT CAVOK M08/M09 Q1020=
201701160420 METAR ESMX 160420Z AUTO 33005KT 9999 NCD M08/M09 Q1020=
201701160350 METAR ESMX 160350Z AUTO 29003KT 9999 NCD M08/M09 Q1020=
201701160320 METAR ESMX 160320Z AUTO 34003KT 9999 NCD M08/M09 Q1020=
201701160250 METAR ESMX 160250Z AUTO 31004KT 9999 NCD M09/M10 Q1020=
201701160220 METAR ESMX 160220Z AUTO 29005KT 9999 NCD M10/M11 Q1020=
201701160150 METAR ESMX 160150Z AUTO 31005KT 9999 NCD M09/M10 Q1020=
201701160120 METAR ESMX 160120Z AUTO 31005KT 9999 NCD M08/M09 Q1020=
201701160050 METAR ESMX 160050Z 32004KT CAVOK M09/M10 Q1020=
201701160020 METAR ESMX 160020Z 31004KT CAVOK M07/M08 Q1020=
201701152350 METAR ESMX 152350Z 31005KT CAVOK M07/M08 Q1019=
201701152320 METAR ESMX 152320Z 31005KT CAVOK M06/M08 Q1019=
201701152250 METAR ESMX 152250Z 33004KT CAVOK M06/M08 Q1019=
201701152220 METAR ESMX 152220Z 32006KT CAVOK M06/M08 Q1019=
201701152150 METAR ESMX 152150Z 32005KT CAVOK M06/M08 Q1018=
201701152120 METAR ESMX 152120Z 29004KT CAVOK M07/M08 Q1018=
201701152050 METAR ESMX 152050Z 33004KT CAVOK M07/M08 Q1018=
201701152020 METAR ESMX 152020Z 31004KT CAVOK M07/M08 Q1018=
201701151950 METAR ESMX 151950Z 33006KT CAVOK M06/M07 Q1017=
201701151920 METAR ESMX 151920Z 34006KT CAVOK M05/M07 Q1017=
201701151850 METAR ESMX 151850Z 31006KT CAVOK M06/M07 Q1017=
201701151820 METAR ESMX 151820Z 31005KT CAVOK M06/M08 Q1017=
201701151750 METAR ESMX 151750Z AUTO 32005KT 9999 NCD M06/M08 Q1016=
201701151720 METAR ESMX 151720Z AUTO 32005KT 9999 NCD M05/M08 Q1016=
201701151650 METAR ESMX 151650Z 31007KT CAVOK M05/M07 Q1016=
201701151620 METAR ESMX 151620Z 31006KT CAVOK M04/M07 Q1016=
201701151550 METAR ESMX 151550Z 30006KT CAVOK M04/M07 Q1015=
201701151520 METAR ESMX 151520Z 31006KT CAVOK M03/M07 Q1015=
201701151450 METAR ESMX 151450Z 33007KT CAVOK M03/M07 Q1014=
201701151420 METAR ESMX 151420Z AUTO 31007KT 9999 NCD M02/M07 Q1014=
201701151350 METAR ESMX 151350Z AUTO 32006KT 290V360 9999 NCD M01/M06 Q1014=
201701151320 METAR ESMX 151320Z AUTO 34010KT 9999 NCD M01/M07 Q1013=
201701151250 METAR ESMX 151250Z AUTO 34007KT 9999 NCD M01/M06 Q1013=
201701151220 METAR ESMX 151220Z AUTO 35008KT 9999 NCD M01/M06 Q1013=
201701151150 METAR ESMX 151150Z AUTO 34007KT 9999 NCD M01/M06 Q1012=
201701151120 METAR ESMX 151120Z AUTO 33008KT 9999 NCD M01/M05 Q1012=
201701151050 METAR ESMX 151050Z AUTO 36007KT 9999 NCD M02/M05 Q1012=
201701151020 METAR ESMX 151020Z AUTO 34008KT 9999 NCD M02/M05 Q1011=
201701150950 METAR ESMX 150950Z AUTO 35008KT 9999 NCD M02/M05 Q1011=
201701150920 METAR ESMX 150920Z AUTO 33008KT 9999 NCD M03/M05 Q1011=
201701150850 METAR ESMX 150850Z AUTO 35006KT 9999 NCD M03/M05 Q1010=
201701150820 METAR ESMX 150820Z AUTO 35007KT 9999 NCD M04/M06 Q1010=
201701150750 METAR ESMX 150750Z AUTO 35008KT 9999 FEW016/// M03/M06 Q1009=
201701150720 METAR ESMX 150720Z AUTO 36011KT 9999 FEW016/// SCT018/// M03/M06 Q1009=
201701150650 METAR ESMX 150650Z AUTO 35009KT 9999 OVC017/// M02/M05 Q1009=
201701150620 METAR ESMX 150620Z AUTO 34010KT 9999 BKN016/// M02/M05 Q1008=
201701150550 METAR ESMX 150550Z AUTO 34010KT 9999 OVC017/// M02/M05 Q1008=
201701150520 METAR ESMX 150520Z AUTO 34009KT 9999 OVC017/// M02/M05 Q1007=
201701150450 METAR ESMX 150450Z AUTO 33007KT 9999 OVC022/// M02/M05 Q1007=
201701150420 METAR ESMX 150420Z AUTO 34007KT 9999 OVC020/// M02/M05 Q1007=
201701150350 METAR ESMX 150350Z AUTO 36009KT 9999 FEW017/// OVC019/// M02/M05 Q1006=
201701150320 METAR ESMX 150320Z AUTO 36009KT 9999 OVC016/// M02/M05 Q1006=
201701150250 METAR ESMX 150250Z AUTO 34011KT 9999 OVC014/// M02/M05 Q1006=
201701150220 METAR ESMX 150220Z AUTO 35011KT 9999 OVC016/// M02/M05 Q1005=
201701150150 METAR ESMX 150150Z AUTO 33010KT 9999 OVC016/// M01/M04 Q1004=
201701150120 METAR ESMX 150120Z AUTO 34009KT 9999 OVC017/// M01/M05 Q1004=
201701150050 METAR ESMX 150050Z AUTO 34007KT 310V010 9999 OVC018/// M01/M04 Q1004=
201701150020 METAR ESMX 150020Z AUTO 35005KT 9999 OVC018/// M01/M04 Q1003=
201701142350 METAR ESMX 142350Z AUTO 35007KT 9999 OVC020/// M01/M04 Q1003=
201701142320 METAR ESMX 142320Z AUTO 35008KT 9999 BKN018/// OVC057/// M01/M03 Q1003=
201701142250 METAR ESMX 142250Z AUTO 34007KT 9999 FEW018/// BKN025/// OVC057/// M01/M03 Q1003 RESHUP=
201701142220 METAR ESMX 142220Z AUTO 33005KT 9999 OVC024/// M01/M02 Q1002 REFZUP=
201701142150 METAR ESMX 142150Z AUTO 34006KT 9999 OVC024/// M01/M02 Q1002=
201701142120 METAR ESMX 142120Z AUTO 35004KT 9999 FEW014/// SCT018/// OVC020/// M01/M02 Q1002=
201701142050 METAR ESMX 142050Z AUTO 34003KT 9999 OVC011/// M01/M02 Q1001 RESHUP REFZUP=
201701142020 METAR ESMX 142020Z AUTO 31003KT 9999 FZUP OVC012/// M02/M02 Q1001=
201701141950 METAR ESMX 141950Z AUTO VRB02KT 9999 FEW009/// BKN012/// OVC016/// M02/M02 Q1001=
201701141920 METAR ESMX 141920Z AUTO 01004KT 9999 SCT008/// OVC034/// M02/M02 Q1000=
201701141850 METAR ESMX 141850Z AUTO 20002KT 9999 FEW042/// OVC049/// M03/M03 Q1000=
201701141820 METAR ESMX 141820Z AUTO 20004KT 9999 OVC048/// M03/M03 Q0999=
201701141750 METAR ESMX 141750Z AUTO 18003KT 9999 BKN047/// M03/M04 Q0999=
201701141720 METAR ESMX 141720Z AUTO 00000KT 9999 BKN047/// M02/M03 Q0999=
201701141650 METAR ESMX 141650Z AUTO 27002KT 9999 OVC046/// M01/M03 Q0999=
201701141620 METAR ESMX 141620Z AUTO VRB02KT 9999 BKN026/// OVC046/// M01/M02 Q0999=
201701141550 METAR ESMX 141550Z AUTO 16004KT 9999 OVC023/// M01/M02 Q0998=
201701141520 METAR ESMX 141520Z AUTO 15003KT 9999 OVC020/// M01/M02 Q0998 RESHUP=
201701141450 METAR ESMX 141450Z AUTO 22003KT 9999 -RASN OVC020/// M01/M02 Q0998 RESHUP REFZUP=
201701141420 METAR ESMX 141420Z AUTO 19003KT 9999 OVC021/// M01/M03 Q0998=
201701141350 METAR ESMX 141350Z AUTO 18005KT 9999 BKN010/// OVC021/// M01/M03 Q0997=
201701141320 METAR ESMX 141320Z AUTO 20005KT 9999 OVC010/// M01/M03 Q0997=
201701141250 METAR ESMX 141250Z AUTO 20005KT 170V260 9999 OVC011/// M01/M04 Q0997=
201701141220 METAR ESMX 141220Z AUTO 22006KT 9999 OVC011/// M01/M03 Q0997=
201701141150 METAR ESMX 141150Z AUTO 22007KT 9999 OVC010/// M01/M03 Q0997=
201701141120 METAR ESMX 141120Z AUTO 23006KT 9999 BKN009/// M01/M03 Q0997=
201701141050 METAR ESMX 141050Z AUTO 23008KT 190V250 9999 BKN009/// M01/M03 Q0997=
201701141020 METAR ESMX 141020Z AUTO 23007KT 9999 FEW008/// OVC010/// M00/M03 Q0997=
201701140950 METAR ESMX 140950Z AUTO 21008KT 9999 BKN007/// BKN010/// M00/M02 Q0996=
201701140920 METAR ESMX 140920Z AUTO 20006KT 9999 FEW007/// SCT013/// M01/M02 Q0996=
201701140850 METAR ESMX 140850Z AUTO 20005KT 9999 FEW017/// M01/M02 Q0996=
201701140820 METAR ESMX 140820Z AUTO 19006KT 9999 BKN016/// M01/M02 Q0996=
201701140750 METAR ESMX 140750Z AUTO 20004KT 9999 OVC014/// M00/M02 Q0995=
201701140720 METAR ESMX 140720Z AUTO 25004KT 9999 FEW009/// SCT012/// OVC014/// M00/M02 Q0995=
201701140650 METAR ESMX 140650Z AUTO 22006KT 9999 FEW008/// OVC010/// M00/M02 Q0995=
201701140620 METAR ESMX 140620Z AUTO 22005KT 9999 FEW008/// OVC010/// M00/M01 Q0995=
201701140550 METAR ESMX 140550Z AUTO 24005KT 210V270 9999 FEW007/// BKN010/// M00/M01 Q0994=
201701140520 METAR ESMX 140520Z AUTO 25006KT 200V280 9999 OVC006/// M00/M01 Q0994=
201701140450 METAR ESMX 140450Z AUTO 22005KT 9999 FEW007/// SCT009/// OVC011/// M00/M01 Q0994=
201701140420 METAR ESMX 140420Z AUTO 23005KT 9999 SCT006/// BKN009/// OVC012/// M00/M01 Q0994=
201701140350 METAR ESMX 140350Z AUTO 25006KT 220V280 9999 OVC007/// M00/M01 Q0994=
201701140320 METAR ESMX 140320Z AUTO 24005KT 9999 OVC006/// M00/M01 Q0994=
201701140250 METAR ESMX 140250Z AUTO 22004KT 9999 SCT007/// BKN009/// OVC011/// M00/M01 Q0994=
201701140220 METAR ESMX 140220Z AUTO 21005KT 170V240 9999 OVC008/// M00/M01 Q0994=
201701140150 METAR ESMX 140150Z AUTO 25004KT 210V290 9999 FEW007/// SCT009/// OVC011/// M00/M02 Q0994=
201701140120 METAR ESMX 140120Z AUTO VRB02KT 9999 BKN006/// OVC011/// M00/M01 Q0994=
201701140050 METAR ESMX 140050Z AUTO 26004KT 9999 OVC006/// M00/M01 Q0993=
201701140020 METAR ESMX 140020Z AUTO 24004KT 190V280 9999 OVC007/// M00/M02 Q0993=
201701132350 METAR ESMX 132350Z AUTO 25004KT 210V280 9999 OVC008/// M00/M02 Q0993=
201701132320 METAR ESMX 132320Z AUTO 25005KT 220V290 9999 OVC008/// M00/M02 Q0993=
201701132250 METAR ESMX 132250Z AUTO 24004KT 210V280 9999 OVC009/// M00/M02 Q0993=
201701132220 METAR ESMX 132220Z AUTO 26004KT 9999 OVC011/// M00/M02 Q0993=
201701132150 METAR ESMX 132150Z AUTO 21003KT 9999 OVC011/// M01/M02 Q0993=
201701132120 METAR ESMX 132120Z AUTO 24004KT 210V270 9999 OVC011/// M00/M02 Q0992=
201701132050 METAR ESMX 132050Z VRB02KT 9999 OVC013 M00/M02 Q0992=
201701132020 METAR ESMX 132020Z 28003KT 9999 OVC014 M00/M02 Q0992=
201701131950 METAR ESMX 131950Z 29004KT 9999 OVC015 M00/M02 Q0992=
201701131920 METAR ESMX 131920Z 27004KT 9999 OVC015 M01/M01 Q0992=
201701131850 METAR ESMX 131850Z 26004KT 9999 BKN016 M00/M01 Q0991=
201701131820 METAR ESMX 131820Z 26005KT 9999 BKN010 M01/M01 Q0991=
201701131750 METAR ESMX 131750Z 26003KT 9999 BKN008 BKN021 M01/M02 Q0991=
201701131720 METAR ESMX 131720Z 25003KT 9999 BKN007 M02/M03 Q0991=
201701131650 METAR COR ESMX 131650Z 18003KT 9999 IC FEW009 BKN024 M01/M02 Q0991=
201701131620 METAR ESMX 131620Z VRB02KT 9999 SCT011 OVC015 M01/M01 Q0991=
201701131550 METAR ESMX 131550Z 31004KT 9999 BKN006 M01/M01 Q0991=
201701131520 METAR ESMX 131520Z 00000KT 9999 FEW033 M02/M03 Q0990=
201701131450 METAR ESMX 131450Z 23002KT CAVOK M01/M02 Q0990=
201701131420 METAR ESMX 131420Z 26003KT CAVOK M01/M02 Q0990=
201701131350 METAR ESMX 131350Z 23003KT CAVOK 00/M02 Q0989=
201701131320 METAR ESMX 131320Z 23003KT 9999 FEW020 01/M01 Q0989=
201701131250 METAR ESMX 131250Z 22005KT 9999 OVC019 01/M01 Q0989=
201701131220 METAR ESMX 131220Z 21005KT 9999 OVC016 01/M01 Q0989=
201701131150 METAR ESMX 131150Z 20006KT 9999 FEW012 OVC016 00/M02 Q0989=
201701131120 METAR ESMX 131120Z 21004KT 9999 OVC009 00/M02 Q0989=
201701131050 METAR ESMX 131050Z 23004KT 190V250 9999 BKN008 OVC011 00/M01 Q0989=
201701131020 METAR ESMX 131020Z 23004KT 190V260 9999 OVC008 00/M02 Q0989=
201701130950 METAR ESMX 130950Z 20004KT 160V230 9999 OVC007 00/M01 Q0989=
201701130920 METAR ESMX 130920Z 24003KT 210V280 9999 OVC009 00/M02 Q0988=
201701130850 METAR ESMX 130850Z 24003KT 220V280 9999 OVC009 00/M01 Q0988=
201701130820 METAR ESMX 130820Z VRB02KT 9999 OVC008 00/M01 Q0988=
201701130750 METAR ESMX 130750Z 19005KT 9999 OVC008 M00/M01 Q0988=
201701130720 METAR ESMX 130720Z 21004KT 9999 OVC008 M00/M01 Q0988=
201701130650 METAR COR ESMX 130650Z 20003KT 9999 FEW008 OVC010 M00/M01 Q0988=
201701130620 METAR ESMX 130620Z 20004KT 9999 OVC009 M00/M01 Q0988=
201701130550 METAR ESMX 130550Z 21004KT 9999 OVC009 00/M01 Q0988=
201701130520 METAR ESMX 130520Z 24004KT 210V280 9999 OVC010 00/M01 Q0988=
201701130450 METAR ESMX 130450Z 24005KT 210V290 9999 OVC009 00/M01 Q0988=
201701130420 METAR ESMX 130420Z AUTO 23007KT 9999 OVC008/// 00/M01 Q0988=
201701130350 METAR ESMX 130350Z AUTO 21008KT 9999 OVC008/// 00/M01 Q0988=
201701130320 METAR ESMX 130320Z AUTO 23010KT 9999 BKN007/// OVC011/// 00/M01 Q0988=
201701130250 METAR ESMX 130250Z AUTO 21011KT 9999 FEW009/// OVC010/// 01/M01 Q0988=
201701130220 METAR ESMX 130220Z AUTO 21010KT 9999 FEW009/// OVC011/// 01/M01 Q0988=
201701130120 METAR ESMX 130120Z AUTO 22009KT 9999 FEW008/// BKN010/// 00/M01 Q0988=
201701130050 METAR ESMX 130050Z 22010KT 9999 FEW008 BKN010 01/M01 Q0987=
201701130020 METAR ESMX 130020Z 22009KT 190V250 9999 BKN010 01/M01 Q0987=
201701122350 METAR ESMX 122350Z 22011KT 9999 BKN011 01/M01 Q0987=
201701122320 METAR ESMX 122320Z 23010KT 9999 BKN012 01/M01 Q0987=
201701122250 METAR ESMX 122250Z 23010G21KT 9999 FEW012 SCT015 BKN018 01/M01 Q0987=
201701122220 METAR ESMX 122220Z 22012KT 9999 FEW015 BKN025 01/M01 Q0987=
201701122150 METAR ESMX 122150Z 23012KT 9999 FEW014 BKN017 01/M01 Q0987=
201701122120 METAR ESMX 122120Z 23014KT 9999 -SNRA FEW014 SCT020 01/M01 Q0987=
201701122050 METAR ESMX 122050Z 24012KT 9999 FEW010 SCT015 BKN020 01/M00 Q0987=
201701122020 METAR ESMX 122020Z 23014KT 9999 -SN FEW009 BKN012 OVC016 01/M00 Q0987=
201701121950 METAR ESMX 121950Z 23013KT 210V270 7000 -SN FEW008 BKN014 01/00 Q0987=
201701121920 METAR ESMX 121920Z 24012G23KT 210V280 9999 FEW010 SCT013 BKN015 02/M00 Q0987 RERA=
201701121850 METAR ESMX 121850Z 24012KT 9999 -RA FEW010 BKN015 02/00 Q0987=
201701121820 METAR ESMX 121820Z 23012KT 9999 FEW013 SCT018 BKN025 02/M00 Q0987=
201701121750 METAR ESMX 121750Z 22013KT 9999 FEW010 SCT014 BKN019 02/00 Q0987=
201701121720 METAR ESMX 121720Z 24013G25KT 9999 -RA FEW009 BKN012 OVC016 02/00 Q0987=
201701121650 METAR ESMX 121650Z 22013KT 9999 -RA FEW010 BKN012 BKN017 02/00 Q0987=
201701121620 METAR ESMX 121620Z 24012KT 9999 -RA OVC010 02/01 Q0987=
201701121550 METAR ESMX 121550Z 24013G24KT 9999 FEW009 SCT013 BKN015 02/01 Q0986=
201701121520 METAR ESMX 121520Z 22012KT 9999 BKN010 02/01 Q0986=
201701121450 METAR ESMX 121450Z 24012KT 210V270 9999 FEW011 SCT013 BKN016 02/00 Q0986=
201701121420 METAR ESMX 121420Z 24012G23KT 9999 -RA FEW008 BKN010 BKN016 02/01 Q0986=
201701121350 METAR ESMX 121350Z 24015G28KT 8000 -DZ FEW007 SCT010 BKN012 01/00 Q0986=
201701121320 METAR COR ESMX 121320Z 22012KT 4800 SNRA FEW004 BKN005 BKN008 01/00 Q0985=
201701121250 METAR ESMX 121250Z 22013KT 3600 SN FEW004 BKN008 BKN013 01/00 Q0985=
201701121220 METAR ESMX 121220Z 21014KT 3500 SN SCT005 BKN007 BKN011 01/00 Q0985=
201701121150 METAR ESMX 121150Z 22014G25KT 3600 SN FEW005 SCT010 BKN013 01/00 Q0985=
201701121120 METAR ESMX 121120Z 23014KT 7000 -SN FEW005 SCT011 BKN038 02/00 Q0985=
201701121050 METAR ESMX 121050Z 22014KT 9999 FEW015 SCT022 BKN041 02/00 Q0985=
201701121020 METAR ESMX 121020Z 22016KT 9999 FEW005 SCT012 BKN020 02/00 Q0985=
201701120950 METAR ESMX 120950Z 23012KT 9999 FEW014 SCT017 BKN020 02/01 Q0986=
201701120920 METAR ESMX 120920Z 22011KT 9999 FEW020 SCT026 BKN031 01/00 Q0985=
201701120850 METAR ESMX 120850Z 23010KT 9999 FEW007 SCT011 BKN025 01/00 Q0986=
201701120820 METAR ESMX 120820Z 23009KT 8000 -SN FEW002 SCT007 BKN023 01/00 Q0985=
201701120750 METAR ESMX 120750Z 25012KT 1900 -SN FEW008 SCT038 01/M00 Q0985=
201701120720 METAR ESMX 120720Z 22011KT 7000 -SN FEW003 SCT008 BKN013 01/00 Q0985=
201701120650 METAR ESMX 120650Z 21010KT 9999 FEW019 SCT026 BKN030 02/00 Q0985=
201701120620 METAR ESMX 120620Z 23011KT 200V260 9999 FEW004 SCT016 BKN031 01/00 Q0985=
201701120550 METAR ESMX 120550Z 23013KT 9999 FEW045 02/M01 Q0984=
201701120520 METAR ESMX 120520Z 24014KT 9999 FEW040 02/M00 Q0984=
201701120450 METAR ESMX 120450Z 24013KT 9999 FEW020 02/M00 Q0984=
201701120420 METAR ESMX 120420Z AUTO 23013KT 200V260 9999 FEW016/// SCT021/// BKN025/// 02/M00 Q0984=
201701120350 METAR ESMX 120350Z AUTO 23012G24KT 9999 FEW015/// SCT018/// BKN021/// 02/00 Q0984=
201701120320 METAR ESMX 120320Z AUTO 24013KT 9999 FEW016/// SCT021/// 03/00 Q0984=
201701120250 METAR ESMX 120250Z AUTO 23013KT 200V260 9999 FEW015/// SCT019/// BKN031/// 03/00 Q0983=
201701120220 METAR ESMX 120220Z AUTO 25011KT 9999 FEW015/// SCT021/// BKN025/// 03/01 Q0983=
201701120150 METAR ESMX 120150Z AUTO 24011KT 9999 FEW016/// SCT019/// BKN023/// 03/01 Q0983=
201701120120 METAR ESMX 120120Z AUTO 22010KT 200V260 9999 FEW013/// SCT028/// OVC036/// 03/01 Q0982=
201701120050 METAR ESMX 120050Z 22012KT 9999 FEW012 SCT016 BKN035 02/01 Q0982=
201701120020 METAR ESMX 120020Z 24012KT 9999 FEW011 BKN015 02/01 Q0982=
201701112350 METAR ESMX 112350Z 23014G24KT 9999 FEW010 SCT012 BKN017 03/01 Q0982=
201701112320 METAR ESMX 112320Z 23013KT 9999 SCT011 BKN016 BKN020 03/01 Q0981=
201701112250 METAR ESMX 112250Z 23014KT 9999 BKN010 BKN018 03/01 Q0981=
201701112220 METAR ESMX 112220Z 23012KT 9999 BKN010 OVC015 03/01 Q0981=
201701112150 METAR ESMX 112150Z 21013KT 9999 FEW008 BKN011 OVC016 03/01 Q0980=
201701112120 METAR ESMX 112120Z 21015KT 9000 -RA FEW007 SCT009 BKN010 02/01 Q0980=
201701112050 METAR ESMX 112050Z 21016KT 9000 -RA FEW006 BKN008 OVC010 02/01 Q0980=
201701112020 METAR ESMX 112020Z 20014KT 9999 BKN006 OVC010 02/01 Q0980=
201701111950 METAR ESMX 111950Z 20015KT 9999 -RA FEW004 BKN006 OVC009 02/01 Q0980=
201701111920 METAR ESMX 111920Z 19017KT 9999 -RASN BKN004 OVC007 01/01 Q0980=
201701111850 METAR ESMX 111850Z 19016KT 4300 -RASN OVC004 01/00 Q0980=
201701111820 METAR ESMX 111820Z 19016KT 5000 -RASN BKN005 OVC008 01/00 Q0980=
201701111750 METAR COR ESMX 111750Z 19016KT 5000 -SN OVC005 01/00 Q0980=
201701111720 METAR ESMX 111720Z 17014KT 9999 -SN SCT004 OVC007 01/M00 Q0980=
201701111650 METAR ESMX 111650Z 17013KT 3300 -SN OVC005 00/M01 Q0981=
201701111620 METAR ESMX 111620Z 17014KT 7000 SN OVC006 M00/M01 Q0981=
201701111550 METAR COR ESMX 111550Z 17016G26KT 6000 -SN SCT006 BKN010 M00/M01 Q0982=
201701111520 METAR ESMX 111520Z 17015G26KT 1800 -SN FEW005 BKN007 OVC009 M00/M01 Q0982=
201701111450 METAR ESMX 111450Z 17018G28KT 1400 R01/P2000N R19/P2000N -SN SCT005 BKN007 BKN009 M00/M01 Q0983=
201701111420 METAR ESMX 111420Z 18018KT 1100 R01/1700D R19/1600N -SN FEW005 BKN007 BKN011 M00/M01 Q0983=
201701111350 METAR ESMX 111350Z 17016G28KT 2500 SN OVC005 M00/M01 Q0984=
201701111320 METAR ESMX 111320Z 17017G28KT 1300 R01/1800N R19/1600N SN VV004 00/M01 Q0985=
201701111250 METAR COR ESMX 111250Z 16019G32KT 0600 R01/1300D R19/1000N SN VV003 00/M01 Q0985=
201701111220 METAR ESMX 111220Z 16018G28KT 1200 R01/1800U R19/1600D SN OVC006 01/M00 Q0986=
201701111150 METAR ESMX 111150Z 16017G27KT 9999 -SN OVC010 01/M01 Q0988=
201701111120 METAR ESMX 111120Z 16018G28KT 9999 -RASN OVC012 01/M01 Q0989=
201701111050 METAR ESMX 111050Z 17017KT 9000 -SN BKN010 01/M01 Q0990=
201701111020 METAR ESMX 111020Z 16018G29KT 4500 SN FEW009 OVC011 01/M01 Q0992=
201701110950 METAR ESMX 110950Z 16017G27KT 9999 OVC010 01/M01 Q0993=
201701110920 METAR ESMX 110920Z 17017KT 9999 OVC009 01/M01 Q0994=
201701110850 METAR ESMX 110850Z 17015G26KT 9999 BKN007 BKN034 01/M01 Q0995=
201701110820 METAR ESMX 110820Z 16015KT 9999 OVC006 00/M01 Q0996=
201701110750 METAR ESMX 110750Z 17014KT 9999 -SN OVC005 00/M01 Q0997=
201701110720 METAR ESMX 110720Z 17013KT 9999 -SN OVC005 00/M01 Q0998=
201701110650 METAR ESMX 110650Z 17015KT 9999 -SN OVC005 00/M01 Q0999=
201701110620 METAR ESMX 110620Z 17013KT 8000 -SN OVC005 M00/M01 Q1000=
201701110550 METAR ESMX 110550Z 17012KT 6000 -SN OVC005 M00/M01 Q1001=
201701110520 METAR ESMX 110520Z 18012KT 4400 SN OVC005 M00/M01 Q1002=
201701110450 METAR ESMX 110450Z 17014KT 7000 FZRASN OVC006 M00/M01 Q1002=
201701110420 METAR ESMX 110420Z AUTO 18014KT 2200 -SN OVC005/// M00/M01 Q1003 RESN=
201701110350 METAR ESMX 110350Z AUTO 17015KT 9999 OVC005/// M00/M01 Q1003 RESG=
201701110320 METAR ESMX 110320Z AUTO 17013KT 6000 -RASN OVC006/// M00/M01 Q1004=
201701110250 METAR ESMX 110250Z AUTO 17013KT 4300 -SN OVC006/// M00/M01 Q1005 REFZUP REUP=
201701110220 METAR ESMX 110220Z AUTO 17012KT 7000 BR OVC005/// 00/M01 Q1006=
201701110150 METAR ESMX 110150Z AUTO 18012KT 7000 BR OVC005/// M00/M01 Q1006=
201701110120 METAR ESMX 110120Z AUTO 18013KT 7000 BR OVC006/// M00/M01 Q1007=
201701110050 METAR ESMX 110050Z 18014KT 8000 BR OVC006 00/M01 Q1007=
201701110020 METAR ESMX 110020Z 17012KT 8000 BR OVC006 00/M01 Q1007=
201701102350 METAR ESMX 102350Z 17011KT 8000 BR OVC006 00/M01 Q1008=
201701102320 METAR ESMX 102320Z 17011KT 8000 -SN FEW007 OVC009 00/M01 Q1008=
201701102250 METAR ESMX 102250Z 16009KT 5000 -SN FEW007 SCT009 BKN011 00/M01 Q1008=
201701102220 METAR ESMX 102220Z 17009KT 130V200 6000 BR FEW007 BKN009 OVC015 00/M01 Q1009 RESN=
201701102150 METAR ESMX 102150Z 19012KT 9999 FEW006 OVC008 00/M01 Q1009=
201701102120 METAR ESMX 102120Z 18010KT 5000 BR OVC006 00/M01 Q1009=
201701102050 METAR ESMX 102050Z 18010KT 7000 BR OVC005 00/M01 Q1010=
201701102020 METAR ESMX 102020Z 19012KT 150V210 4900 BR OVC005 00/M01 Q1010=
201701101950 METAR ESMX 101950Z 18011KT 8000 BR OVC006 00/M01 Q1009=
201701101920 METAR ESMX 101920Z 19014KT 7000 BR OVC006 00/M01 Q1010=
201701101850 METAR ESMX 101850Z 16012KT 7000 BR OVC006 00/M01 Q1009=
201701101820 METAR ESMX 101820Z 16012KT 8000 BR OVC007 00/M01 Q1009=
201701101750 METAR ESMX 101750Z 17013KT 9999 OVC008 00/M02 Q1010=
201701101720 METAR ESMX 101720Z 17011KT 9999 OVC011 00/M02 Q1010=
201701101650 METAR ESMX 101650Z 17011KT 9999 BKN011 00/M02 Q1010=
201701101620 METAR ESMX 101620Z 16011KT 9999 FEW011 BKN015 BKN023 00/M02 Q1010=
201701101550 METAR COR ESMX 101550Z 16012KT 9999 SCT015 OVC019 01/M02 Q1009=
201701101520 METAR ESMX 101520Z 18010KT 9999 FEW015 OVC020 01/M02 Q1010=
201701101450 METAR ESMX 101450Z 18010KT 9999 FEW010 OVC015 01/M02 Q1010=
201701101420 METAR ESMX 101420Z AUTO 17010KT 9999 BKN010/// OVC021/// 01/M01 Q1010=
201701101350 METAR ESMX 101350Z 17008KT 9999 OVC010 00/M02 Q1010=
201701101320 METAR ESMX 101320Z 16008KT 9999 OVC010 00/M02 Q1010=
201701101250 METAR ESMX 101250Z 17009KT 9999 OVC010 00/M02 Q1010=
201701101220 METAR COR ESMX 101220Z 17009KT 9999 OVC010 00/M02 Q1010=
201701101150 METAR COR ESMX 101150Z 16009KT 9999 OVC010 00/M02 Q1010=
201701101120 METAR ESMX 101120Z 17010KT 140V200 9999 OVC009 00/M02 Q1010=
201701101050 METAR ESMX 101050Z AUTO 16010KT 130V190 9999 OVC010/// 00/M02 Q1011=
201701101020 METAR ESMX 101020Z 17010KT 9999 OVC010 M00/M02 Q1011=
201701100950 METAR ESMX 100950Z 17009KT 130V190 9999 OVC010 M00/M02 Q1011=
201701100920 METAR ESMX 100920Z 17009KT 9999 OVC010 M00/M02 Q1011=
201701100850 METAR ESMX 100850Z 17011KT 120V200 9999 OVC011 M00/M03 Q1011=
201701100820 METAR ESMX 100820Z 17010KT 140V200 9999 OVC010 M00/M02 Q1011=
201701100750 METAR ESMX 100750Z 16010KT 9999 OVC011 M00/M02 Q1011=
201701100720 METAR ESMX 100720Z 17009KT 9999 OVC010 M00/M02 Q1011=
201701100650 METAR ESMX 100650Z 16011KT 9999 OVC012 M00/M03 Q1011=
201701100620 METAR ESMX 100620Z 17010KT 9999 OVC011 M00/M03 Q1011=
201701100550 METAR ESMX 100550Z 16009KT 120V190 9999 OVC012 M00/M03 Q1011=
201701100520 METAR ESMX 100520Z 17012KT 9999 OVC013 M01/M03 Q1011=
201701100450 METAR ESMX 100450Z 18011KT 9999 OVC013 M01/M03 Q1011=
201701100420 METAR ESMX 100420Z AUTO 18012KT 9999 OVC011/// M01/M03 Q1011=
201701100350 METAR ESMX 100350Z AUTO 18011KT 160V220 9999 OVC012/// M01/M03 Q1011=
201701100320 METAR ESMX 100320Z AUTO 17015KT 9999 FEW009/// OVC012/// M00/M03 Q1011=
201701100250 METAR ESMX 100250Z AUTO 17012KT 9999 SCT006/// OVC009/// M00/M02 Q1012=
201701100220 METAR ESMX 100220Z AUTO 17012KT 9999 OVC007/// M00/M02 Q1012=
201701100150 METAR ESMX 100150Z AUTO 17015KT 130V190 9999 SCT006/// OVC008/// M00/M02 Q1012=
201701100120 METAR ESMX 100120Z AUTO 17012KT 9999 OVC006/// M00/M01 Q1012=
201701100050 METAR ESMX 100050Z 18013KT 9999 OVC006 M00/M01 Q1013=
201701100020 METAR ESMX 100020Z 18013KT 9999 OVC006 00/M01 Q1013=
201701092350 METAR ESMX 092350Z 17013KT 9999 BKN005 OVC008 00/M01 Q1013=
201701092320 METAR ESMX 092320Z 17010KT 9999 SCT003 OVC005 01/M00 Q1013=
201701092250 METAR ESMX 092250Z 18013KT 9999 BKN005 OVC008 01/00 Q1013=
201701092220 METAR ESMX 092220Z 19011KT 9999 FEW003 BKN004 OVC007 01/01 Q1014=
201701092150 METAR ESMX 092150Z 19015KT 9999 FEW003 BKN004 OVC006 01/01 Q1014=
201701092120 METAR ESMX 092120Z 19011KT 7000 BR OVC002 01/01 Q1014=
201701092050 METAR ESMX 092050Z 19010KT 9999 BKN003 OVC006 02/01 Q1014=
201701092020 METAR ESMX 092020Z 19008KT 4100 BR OVC002 02/02 Q1015=
201701091950 METAR ESMX 091950Z 18008KT 3200 BR VV002 02/02 Q1015=
201701091920 METAR ESMX 091920Z 18009KT 5000 BR VV002 02/02 Q1015=
201701091850 METAR ESMX 091850Z 19008KT 3400 DZ VV002 02/02 Q1016=
201701091820 METAR ESMX 091820Z 19009KT 1700 DZ VV002 02/02 Q1016=
201701091750 METAR ESMX 091750Z 20009KT 0500 R01/1300D R19/1500D FG VV002 02/02 Q1016=
201701091720 METAR ESMX 091720Z 19008KT 1200 R01/P2000N R19/P2000N BR VV002 02/02 Q1016=
201701091650 METAR ESMX 091650Z 19008KT 0450 R01/1200U R19/1300N FG VV002 02/02 Q1016=
201701091620 METAR ESMX 091620Z 20008KT 1500 R01/P2000N R19/P2000N BR VV002 02/02 Q1016=
201701091550 METAR ESMX 091550Z 20007KT 3200 BR OVC002 02/02 Q1017=
201701091520 METAR ESMX 091520Z 20007KT 2500 BR OVC002 02/02 Q1017=
201701091450 METAR ESMX 091450Z 19007KT 4000 BR OVC002 02/02 Q1017=
201701091420 METAR ESMX 091420Z 22007KT 1700 BR VV002 02/02 Q1017=
201701091350 METAR ESMX 091350Z 21008KT 7000 BR OVC001 02/02 Q1017=
201701091320 METAR ESMX 091320Z 21009KT 4600 BR OVC001 02/02 Q1017=
201701091250 METAR ESMX 091250Z 22008KT 1900 -DZ OVC001 02/02 Q1017=
201701091220 METAR ESMX 091220Z 22009KT 1300 R01/1600D R19/1900D OVC001 02/02 Q1018=
201701091150 METAR ESMX 091150Z 21009KT 190V250 2000 OVC001 02/02 Q1018=
201701091120 METAR ESMX 091120Z 22008KT 0900 R01/1200U R19/1300U FG VV002 02/02 Q1018=
201701091050 METAR ESMX 091050Z 22008KT 1500 BR OVC002 02/02 Q1019=
201701091020 METAR ESMX 091020Z 22008KT 1900 OVC001 02/01 Q1019=
201701090950 METAR ESMX 090950Z 21008KT 1000 R01/1200U R19/1200N VV002 01/01 Q1019=
201701090920 METAR ESMX 090920Z 21008KT 0600 R01/0900N R19/1000N FG VV002 01/01 Q1020=
201701090850 METAR ESMX 090850Z 20009KT 0550 R01/0900N R19/1000N FG VV001 01/01 Q1020=
201701090820 METAR ESMX 090820Z 21008KT 0500 R01/0900N R19/1000N FG VV001 01/01 Q1020=
201701090750 METAR ESMX 090750Z 19007KT 0500 R01/1000N R19/1100N FG VV002 01/01 Q1020=
201701090720 METAR ESMX 090720Z 21006KT 0450 R01/1100N R19/1300D FG VV002 01/01 Q1020=
201701090650 METAR ESMX 090650Z 20006KT 0700 R01/1700D R19/1900D FG VV002 01/01 Q1020=
201701090620 METAR ESMX 090620Z 23005KT 0600 R01/1500U R19/1600N FG VV002 01/01 Q1020=
201701090550 METAR ESMX 090550Z 23005KT 180V260 1600 BR VV002 01/01 Q1020=
201701090520 METAR ESMX 090520Z 24005KT 2100 BR VV002 01/01 Q1020=
201701090450 METAR ESMX 090450Z 26007KT 2800 BR OVC002 01/01 Q1020=
201701090420 METAR ESMX 090420Z AUTO 25006KT 1900 BR OVC001/// 01/01 Q1020=
201701090350 METAR ESMX 090350Z AUTO 24005KT 1700 BR VV002 01/01 Q1021=
201701090320 METAR ESMX 090320Z AUTO 25006KT 1200 R01/P2000N R19/P2000N VV002 01/01 Q1021=
201701090250 METAR ESMX 090250Z AUTO 24006KT 1000 R01/P2000N R19/P2000N VV002 01/01 Q1021=
201701090220 METAR ESMX 090220Z AUTO 24006KT 1000 R01/P2000N R19/P2000N VV002 01/00 Q1022=
201701090150 METAR ESMX 090150Z AUTO 24006KT 0800 R01/1900N R19/P2000N FG VV002 01/00 Q1022=
201701090120 METAR ESMX 090120Z AUTO 24006KT 0800 R01/1800N R19/1900N FG VV002 01/00 Q1022=
201701090050 METAR ESMX 090050Z AUTO 22007KT 0750 R01/P2000D R19/P2000N FG VV002 01/00 Q1022=
201701090020 METAR ESMX 090020Z 23006KT 2100 BR OVC002 01/00 Q1023=
201701082350 METAR ESMX 082350Z 22007KT 2000 BR OVC002 01/00 Q1023=
201701082320 METAR ESMX 082320Z 23006KT 1800 BR OVC002 01/00 Q1023=
201701082250 METAR ESMX 082250Z 24008KT 1700 BR OVC002 00/00 Q1023=
201701082220 METAR ESMX 082220Z 23007KT 1400 R01/P2000N R19/P2000N BR OVC002 00/00 Q1024=
201701082150 METAR ESMX 082150Z 25007KT 1700 BR OVC002 00/M00 Q1024=
201701082120 METAR ESMX 082120Z 23006KT 200V260 1900 BR OVC003 00/M00 Q1024=
201701082050 METAR ESMX 082050Z 25005KT 3300 BR OVC004 00/M00 Q1024=
201701082020 METAR ESMX 082020Z 23006KT 5000 BR OVC004 M00/M01 Q1024=
201701081950 METAR ESMX 081950Z 24006KT 7000 BR OVC005 M00/M01 Q1024=
201701081920 METAR ESMX 081920Z 22006KT 9999 OVC006 M00/M01 Q1024=
201701081850 METAR ESMX 081850Z 23006KT 9999 OVC006 M00/M01 Q1024=
201701081820 METAR ESMX 081820Z 23006KT 9999 OVC005 M01/M02 Q1025=
201701081750 METAR ESMX 081750Z AUTO 25007KT 210V290 9999 OVC005/// M01/M02 Q1025=
201701081720 METAR ESMX 081720Z AUTO 23006KT 190V260 9999 OVC005/// M01/M02 Q1025=
201701081650 METAR ESMX 081650Z 23008KT 9999 FEW003 OVC005 M01/M02 Q1025=
201701081620 METAR ESMX 081620Z 22006KT 9999 OVC002 M02/M03 Q1026=
201701081550 METAR ESMX 081550Z 26007KT 6000 -SN FEW003 OVC005 M02/M03 Q1026=
201701081520 METAR ESMX 081520Z 26006KT 220V290 5000 -SN FEW003 SCT004 OVC006 M02/M03 Q1026=
201701081450 METAR ESMX 081450Z 25007KT 9999 OVC003 M02/M03 Q1026=
201701081420 METAR ESMX 081420Z 24007KT 9999 OVC003 M02/M03 Q1027=
201701081350 METAR ESMX 081350Z 24007KT 9999 OVC002 M02/M03 Q1027=
201701081320 METAR ESMX 081320Z 25006KT 9999 OVC002 M03/M03 Q1027=
201701081250 METAR ESMX 081250Z 23007KT 9999 FEW002 OVC003 M03/M03 Q1026=
201701081220 METAR ESMX 081220Z 23006KT 9999 OVC004 M03/M03 Q1027=
201701081150 METAR ESMX 081150Z 22006KT 9999 OVC003 M03/M03 Q1027=
201701081120 METAR ESMX 081120Z 21007KT 9999 OVC003 M03/M03 Q1027=
201701081050 METAR ESMX 081050Z AUTO 23006KT 9999 -FZDZ OVC001/// M03/M04 Q1027 RESHUP REFZRA=
201701081020 METAR ESMX 081020Z AUTO 25006KT 210V280 4500 FZUP OVC001/// M03/M04 Q1027 REFZUP=
201701080950 METAR ESMX 080950Z AUTO 23005KT 200V280 3500 FZUP OVC001/// M03/M04 Q1027 RESHUP=
201701080920 METAR ESMX 080920Z AUTO 20005KT 0600 R01/P2000N R19/0900N FZUP VV001 M03/M04 Q1027=
201701080850 METAR ESMX 080850Z AUTO 23005KT 190V280 1100 R01/1500D R19/1400D=
201701080820 METAR ESMX 080820Z AUTO 17005KT 0900 R01/1200U R19/P2000N -FZDZ VV002 M03/M04 Q1027 REFZUP RESHUP=
201701080750 METAR ESMX 080750Z AUTO 21004KT 170V250 0800 R01/P2000D R19/P2000N BR VV002 M03/M04 Q1027=
201701080720 METAR ESMX 080720Z AUTO VRB03KT 8000 -FZDZ OVC001/// M03/M04 Q1027 REFZUP=
201701080650 METAR ESMX 080650Z AUTO 00000KT 9999 OVC001/// M03/M04 Q1027=
201701080620 METAR ESMX 080620Z AUTO VRB01KT 9999 OVC002/// M03/M04 Q1027=
201701080550 METAR ESMX 080550Z AUTO VRB02KT 9999 OVC003/// M03/M04 Q1027=
201701080520 METAR ESMX 080520Z AUTO VRB01KT 9999 OVC003/// M03/M04 Q1027=
201701080450 METAR ESMX 080450Z AUTO 12002KT 9999 OVC003/// M03/M04 Q1026=
201701080420 METAR ESMX 080420Z AUTO 00000KT 9999 OVC004/// M02/M04 Q1026=
201701080350 METAR ESMX 080350Z AUTO VRB02KT 9999 OVC005/// M02/M04 Q1026=
201701080320 METAR ESMX 080320Z AUTO 03003KT 9999 OVC005/// M02/M04 Q1026=
201701080250 METAR ESMX 080250Z AUTO 09003KT 020V150 9999 -FZDZ OVC006/// M02/M03 Q1025 RESG REFZUP=
201701080220 METAR ESMX 080220Z AUTO VRB03KT 9999 SG OVC005/// M02/M03 Q1025 RESG=
201701080150 METAR ESMX 080150Z AUTO 04004KT 020V080 7000 FZUP OVC005/// M02/M03 Q1025 REFZUP RESG=
201701080120 METAR ESMX 080120Z AUTO 04004KT 4600 FZUP FEW003/// OVC005/// M02/M03 Q1025 REFZUP RESG=
201701080050 METAR ESMX 080050Z AUTO 04004KT 010V080 7000 FZUP OVC005/// M02/M03 Q1025 REFZUP=
201701080020 METAR ESMX 080020Z AUTO 03006KT 010V070 6000 FZUP BKN004/// OVC006/// M02/M03 Q1025 RESG=
201701072350 METAR ESMX 072350Z AUTO 02005KT 4900 SG OVC004/// M02/M03 Q1025 REFZUP=
201701072320 METAR ESMX 072320Z AUTO 01006KT 6000 FZUP OVC004/// M02/M03 Q1025 RESHUP=
201701072250 METAR ESMX 072250Z AUTO 03007KT 9999 OVC003/// M02/M03 Q1024=
201701072220 METAR ESMX 072220Z AUTO 02005KT 350V060 9999 OVC004/// M02/M02 Q1024=
201701072150 METAR ESMX 072150Z AUTO 02006KT 9000 BR OVC004/// M02/M02 Q1024=
201701072120 METAR ESMX 072120Z AUTO 02005KT 6000 BR FEW003/// OVC005/// M02/M02 Q1024=
201701072050 METAR ESMX 072050Z AUTO 01006KT 7000 BR OVC004/// M02/M03 Q1023=
201701072020 METAR ESMX 072020Z AUTO 02006KT 9999 OVC005/// M02/M03 Q1023=
201701071950 METAR ESMX 071950Z AUTO 02005KT 9999 OVC007/// M02/M03 Q1022=
201701071920 METAR ESMX 071920Z AUTO 01005KT 9999 OVC007/// M03/M04 Q1022=
201701071850 METAR ESMX 071850Z AUTO 36004KT 9999 SCT009/// OVC028/// M03/M04 Q1022=
201701071820 METAR ESMX 071820Z AUTO 34004KT 9999 BKN010/// OVC030/// M03/M04 Q1021=
201701071750 METAR ESMX 071750Z AUTO 34004KT 9999 OVC010/// M03/M04 Q1021=
201701071720 METAR ESMX 071720Z AUTO 01002KT 9999 OVC010/// M03/M04 Q1021=
201701071650 METAR ESMX 071650Z AUTO 01004KT 9999 SCT010/// OVC029/// M03/M04 Q1021 RESHUP=
201701071620 METAR ESMX 071620Z AUTO 36004KT 9999 FEW012/// OVC029/// M03/M04 Q1021=
201701071550 METAR ESMX 071550Z AUTO 02003KT 9999 -FZDZ FEW013/// OVC029/// M03/M04 Q1020=
201701071520 METAR ESMX 071520Z AUTO 03003KT 9999 -FZDZ FEW005/// SCT008/// BKN014/// M03/M04 Q1020 REFZUP=
201701071450 METAR ESMX 071450Z AUTO 02002KT 9999 BKN007/// OVC011/// M03/M04 Q1020=
201701071420 METAR ESMX 071420Z AUTO 03001KT 9999 OVC007/// M03/M04 Q1019=
201701071350 METAR ESMX 071350Z AUTO 09002KT 9999 FEW005/// OVC008/// M03/M04 Q1019=
201701071320 METAR ESMX 071320Z AUTO VRB02KT 9999 -FZDZ OVC009/// M03/M04 Q1019 REFZUP=
201701071250 METAR ESMX 071250Z AUTO VRB01KT 5000 -SN FEW005/// BKN013/// BKN041/// M03/M04 Q1019=
201701071220 METAR ESMX 071220Z AUTO 16002KT 2800 FZUP SCT012/// M03/M04 Q1019 REFZUP=
201701071150 METAR ESMX 071150Z AUTO 17003KT 3500 FZUP OVC011/// M03/M05 Q1019 RESG=
201701071120 METAR ESMX 071120Z AUTO VRB02KT 2200 SG BKN012/// M04/M05 Q1019=
201701071050 METAR ESMX 071050Z AUTO 17003KT 1100 R01/1200U R19/1200U -SN FEW001/// SCT005/// M04/M05 Q1020=
201701071020 METAR ESMX 071020Z AUTO 18005KT 1800 -SN FEW006/// OVC008/// M04/M05 Q1020=
201701070950 METAR ESMX 070950Z AUTO 21005KT 9999 FZUP FEW006/// BKN009/// M04/M05 Q1020=
201701070920 METAR ESMX 070920Z AUTO 20006KT 0400 R01/0700N R19/1000N +SN FEW005/// SCT015/// M04/M05 Q1021=
201701070850 METAR ESMX 070850Z AUTO 20008KT 4000 -SN FEW006/// BKN014/// BKN018/// M04/M06 Q1021=
201701070820 METAR ESMX 070820Z AUTO 19010KT 1400 R01/P2000N R19/P2000N -SN FEW003/// SCT007/// M05/M06 Q1021=
201701070750 METAR ESMX 070750Z AUTO 20010KT 1900 -SN FEW006/// SCT010/// BKN029/// M05/M06 Q1021=
201701070720 METAR ESMX 070720Z AUTO 20011KT 9999 SG OVC015/// M05/M07 Q1021 REFZUP RESHUP REFZRA=
201701070650 METAR ESMX 070650Z AUTO 19011KT 9999 OVC016/// M05/M08 Q1022 REDZ=
201701070620 METAR ESMX 070620Z AUTO 19015KT 9999 FEW019/// OVC025/// M05/M08 Q1021=
201701070550 METAR ESMX 070550Z AUTO 19015KT 9999 SCT017/// OVC027/// M05/M08 Q1022 RESHUP RESN=
201701070520 METAR ESMX 070520Z AUTO 20013KT 9999 OVC020/// M05/M08 Q1023=
201701070450 METAR ESMX 070450Z AUTO 19014KT 4800 -SN FEW007/// SCT013/// BKN034/// M05/M08 Q1024=
201701070420 METAR ESMX 070420Z AUTO 19012KT 9999 SG OVC036/// M05/M09 Q1025 RESHUP=
201701070350 METAR ESMX 070350Z AUTO 20011KT 9999 -SN OVC039/// M05/M08 Q1025 RESHUP RESN=
201701070320 METAR ESMX 070320Z AUTO 20011KT 9999 OVC047/// M05/M09 Q1026=
201701070250 METAR ESMX 070250Z AUTO 20011KT 9999 BKN058/// M05/M09 Q1026=
201701070220 METAR ESMX 070220Z AUTO 20012KT 9999 BKN064/// M06/M09 Q1027=
201701070150 METAR ESMX 070150Z AUTO 20012KT 9999 BKN077/// M06/M10 Q1028=
201701070120 METAR ESMX 070120Z AUTO 20010KT 9999 BKN081/// M06/M10 Q1028=
201701070050 METAR ESMX 070050Z AUTO 20009KT 9999 FEW089/// M06/M11 Q1029=
201701070020 METAR ESMX 070020Z AUTO 21010KT 9999 NCD M07/M11 Q1029=
201701062350 METAR ESMX 062350Z AUTO 21009KT 9999 NCD M07/M11 Q1030=
201701062320 METAR ESMX 062320Z AUTO 19010KT 9999 NCD M07/M12 Q1030=
201701062250 METAR ESMX 062250Z AUTO 19010KT 9999 FEW077/// BKN100/// M07/M12 Q1031=
201701062220 METAR ESMX 062220Z AUTO 19009KT 9999 SCT110/// M08/M12 Q1032=
201701062150 METAR ESMX 062150Z AUTO 19007KT 9999 FEW083/// M08/M12 Q1032=
201701062120 METAR ESMX 062120Z AUTO 19007KT 9999 NCD M09/M13 Q1033=
201701062050 METAR ESMX 062050Z AUTO 19009KT 9999 NCD M09/M14 Q1033=
201701062020 METAR ESMX 062020Z AUTO 19008KT 9999 NCD M09/M14 Q1033=
201701061950 METAR ESMX 061950Z AUTO 19007KT 9999 NCD M10/M15 Q1034=
201701061920 METAR ESMX 061920Z AUTO 19006KT 9999 NCD M10/M15 Q1034=
201701061850 METAR ESMX 061850Z AUTO 19006KT 9999 NCD M11/M15 Q1035=
201701061820 METAR ESMX 061820Z AUTO 20007KT 9999 NCD M10/M15 Q1035=
201701061750 METAR ESMX 061750Z AUTO 19007KT 9999 NCD M10/M14 Q1035=
201701061720 METAR ESMX 061720Z AUTO 20006KT 9999 NCD M10/M14 Q1036=
201701061650 METAR ESMX 061650Z 20006KT CAVOK M11/M15 Q1036=
201701061620 METAR ESMX 061620Z 20004KT CAVOK M11/M14 Q1036=
201701061550 METAR ESMX 061550Z 17004KT CAVOK M10/M14 Q1036=
201701061520 METAR ESMX 061520Z 18005KT CAVOK M10/M14 Q1037=
201701061450 METAR ESMX 061450Z 19004KT CAVOK M09/M14 Q1037=
201701061420 METAR ESMX 061420Z AUTO 19004KT 9999 NCD M10/M14 Q1037=
201701061350 METAR ESMX 061350Z AUTO 21004KT 9999 NCD M08/M14 Q1037=
201701061320 METAR ESMX 061320Z AUTO 21006KT 9999 NCD M08/M13 Q1038=
201701061250 METAR ESMX 061250Z AUTO 21006KT 9999 NCD M08/M13 Q1037=
201701061220 METAR ESMX 061220Z 21006KT CAVOK M08/M13 Q1038=
201701061150 METAR ESMX 061150Z 20005KT CAVOK M08/M13 Q1038=
201701061120 METAR ESMX 061120Z 22004KT CAVOK M08/M13 Q1039=
201701061050 METAR ESMX 061050Z 22004KT CAVOK M09/M12 Q1039=
201701061020 METAR ESMX 061020Z 23003KT CAVOK M10/M12 Q1039=
201701060950 METAR ESMX 060950Z 20002KT CAVOK M11/M13 Q1039=
201701060920 METAR ESMX 060920Z 00000KT CAVOK M12/M14 Q1040=
201701060850 METAR ESMX 060850Z 20002KT CAVOK M15/M17 Q1040=
201701060820 METAR ESMX 060820Z 18002KT CAVOK M17/M20 Q1040=
201701060750 METAR ESMX 060750Z 18003KT 9999 BCFG NSC M17/M20 Q1040=
201701060720 METAR ESMX 060720Z 18003KT 2000 BCFG NSC M17/M19 Q1040=
201701060650 METAR COR ESMX 060650Z 20002KT 1500 BCFG VV002 M18/M20 Q1039=
201701060620 METAR ESMX 060620Z AUTO VRB02KT 9999 BKN001/// M19/M21 Q1039=
201701060550 METAR ESMX 060550Z AUTO 16002KT 9999 NCD M18/M20 Q1039=
201701060520 METAR ESMX 060520Z AUTO 18002KT 9999 NCD M19/M21 Q1039=
201701060450 METAR ESMX 060450Z AUTO 17002KT 9999 NCD M18/M20 Q1039=
201701060420 METAR ESMX 060420Z AUTO 20002KT 9999 NCD M17/M20 Q1039=
201701060350 METAR ESMX 060350Z AUTO 00000KT 9999 NCD M17/M19 Q1039=
201701060320 METAR ESMX 060320Z AUTO VRB02KT 9999 NCD M17/M20 Q1039=
201701060250 METAR ESMX 060250Z AUTO 00000KT 9999 NCD M16/M18 Q1039=
201701060220 METAR ESMX 060220Z AUTO 29002KT 9999 NCD M18/M20 Q1039=
201701060150 METAR ESMX 060150Z AUTO VRB01KT 9999 NCD M15/M16 Q1039=
201701060120 METAR ESMX 060120Z AUTO 02005KT 9999 NCD M16/M18 Q1039=
201701060050 METAR ESMX 060050Z AUTO 34004KT 9999 NCD M16/M17 Q1039=
201701060020 METAR ESMX 060020Z AUTO 34004KT 9999 NCD M14/M15 Q1038=
201701052350 METAR ESMX 052350Z AUTO 32005KT 9999 NCD M15/M17 Q1038=
201701052320 METAR ESMX 052320Z AUTO 01008KT 9999 NCD M12/M14 Q1038=
201701052250 METAR ESMX 052250Z AUTO 36008KT 9999 NCD M12/M14 Q1038=
201701052220 METAR ESMX 052220Z AUTO 36008KT 9999 NCD M12/M14 Q1038=
201701052150 METAR ESMX 052150Z AUTO 34005KT 9999 NCD M13/M15 Q1038=
201701052120 METAR ESMX 052120Z AUTO 36007KT 9999 NCD M12/M14 Q1038=
201701052050 METAR ESMX 052050Z AUTO 36008KT 9999 NCD M11/M14 Q1037=
201701052020 METAR ESMX 052020Z AUTO 35007KT 9999 NCD M11/M14 Q1037=
201701051950 METAR ESMX 051950Z 35007KT CAVOK M11/M14 Q1037=
201701051920 METAR ESMX 051920Z 36010KT CAVOK M11/M14 Q1037=
201701051850 METAR ESMX 051850Z 36010KT CAVOK M10/M14 Q1036=
201701051820 METAR ESMX 051820Z 35011KT CAVOK M11/M14 Q1036=
201701051750 METAR ESMX 051750Z 36010KT CAVOK M10/M14 Q1035=
201701051720 METAR ESMX 051720Z AUTO 36012KT 9999 NCD M10/M14 Q1035=
201701051650 METAR ESMX 051650Z AUTO 35012KT 9999 NCD M10/M14 Q1035=
201701051620 METAR ESMX 051620Z AUTO 34012KT 9999 NCD M10/M14 Q1035=
201701051550 METAR ESMX 051550Z AUTO 34014KT 9999 NCD M10/M14 Q1035=
201701051520 METAR ESMX 051520Z AUTO 34012KT 9999 NCD M09/M15 Q1034=
201701051450 METAR ESMX 051450Z 36012KT CAVOK M09/M15 Q1034=
201701051420 METAR ESMX 051420Z 35012KT CAVOK M09/M15 Q1033=
201701051350 METAR ESMX 051350Z 36013KT CAVOK M09/M15 Q1033=
201701051320 METAR ESMX 051320Z 36015KT CAVOK M08/M15 Q1032=
201701051250 METAR ESMX 051250Z 36015KT CAVOK M08/M15 Q1032=
201701051220 METAR ESMX 051220Z 35013KT 9999 FEW025 M08/M14 Q1031=
201701051150 METAR ESMX 051150Z 36014KT 9999 FEW025 M08/M14 Q1031=
201701051120 METAR ESMX 051120Z AUTO 02014KT 340V050 9999 NCD M09/M14 Q1031=
201701051050 METAR ESMX 051050Z AUTO 36016KT 9999 FEW024/// M09/M14 Q1030=
201701051020 METAR ESMX 051020Z 01018KT 9999 FEW024 M09/M14 Q1030=
201701050950 METAR ESMX 050950Z 01015KT CAVOK M09/M13 Q1030=
201701050920 METAR ESMX 050920Z AUTO 36013KT 9999 -SN FEW009/// SCT013/// BKN016/// M10/M13 Q1029 RESG=
201701050850 METAR ESMX 050850Z AUTO 35013KT 9999 FEW007/// SCT014/// BKN016/// M10/M13 Q1029=
201701050820 METAR ESMX 050820Z AUTO 35015KT 9999 -SN FEW011/// BKN020/// M10/M14 Q1028=
201701050750 METAR ESMX 050750Z AUTO 35014KT 9999 FEW020/// M10/M14 Q1028=
201701050720 METAR ESMX 050720Z AUTO 36014KT 9999 NCD M10/M14 Q1027=
201701050650 METAR ESMX 050650Z AUTO 01014KT 9999 NCD M10/M14 Q1026=
201701050620 METAR ESMX 050620Z AUTO 36014KT 9999 NCD M10/M15 Q1026=
201701050550 METAR ESMX 050550Z AUTO 35016KT 9999 NCD M10/M15 Q1025=
201701050520 METAR ESMX 050520Z AUTO 01015KT 9999 NCD M10/M15 Q1025=
201701050450 METAR ESMX 050450Z AUTO 02014KT 350V060 9999 NCD M09/M16 Q1024=
201701050420 METAR ESMX 050420Z AUTO 02018KT 9999 FEW012/// M09/M17 Q1023=
201701050350 METAR ESMX 050350Z AUTO 03015KT 350V060 9000 -SN FEW021/// OVC028/// M09/M13 Q1023=
201701050320 METAR ESMX 050320Z AUTO 01016KT 9999 OVC030/// M08/M14 Q1022=
201701050250 METAR ESMX 050250Z AUTO 01017KT 9999 OVC028/// M08/M13 Q1021=
201701050220 METAR ESMX 050220Z AUTO 01017G29KT 9999 -SN FEW021/// OVC028/// M07/M13 Q1021 RESN=
201701050150 METAR ESMX 050150Z AUTO 02017KT 9999 FEW019/// BKN028/// M08/M14 Q1020=
201701050120 METAR ESMX 050120Z AUTO 36018KT 9999 -SN FEW021/// OVC026/// M07/M13 Q1020=
201701050050 METAR ESMX 050050Z 02014KT 9999 -SN BKN020 M07/M12 Q1019=
201701050020 METAR ESMX 050020Z 02017KT 9999 -SN FEW018 SCT022 BKN026 M07/M13 Q1018=
201701042350 METAR ESMX 042350Z 01017KT 9999 -SN FEW015 M07/M12 Q1017=
201701042320 METAR ESMX 042320Z 02017KT 9999 -SN FEW017 SCT021 BKN027 M07/M12 Q1016=
201701042250 METAR ESMX 042250Z 36017KT CAVOK M07/M12 Q1016=
201701042220 METAR ESMX 042220Z 01015KT CAVOK M07/M12 Q1015=
201701042150 METAR ESMX 042150Z 36017KT 9999 FEW026 M07/M12 Q1014=
201701042120 METAR ESMX 042120Z 36015KT 9999 -SG FEW021 M07/M11 Q1013=
201701042050 METAR ESMX 042050Z 02014KT 9999 FEW020 BKN024 M07/M11 Q1013=
201701042020 METAR ESMX 042020Z 02016KT 9999 SCT024 M06/M11 Q1012=
201701041950 METAR ESMX 041950Z 36018KT 9999 FEW022 M06/M11 Q1011=
201701041920 METAR ESMX 041920Z 01016KT 9999 FEW025 M05/M10 Q1010=
201701041850 METAR ESMX 041850Z 01017KT 9999 FEW026 SCT035 M05/M11 Q1009=
201701041820 METAR ESMX 041820Z 01019KT 9999 FEW018 BKN025 BKN033 M05/M10 Q1008=
201701041750 METAR ESMX 041750Z 36018G28KT 9999 FEW021 BKN024 M04/M09 Q1007=
201701041720 METAR ESMX 041720Z 01020KT 9999 FEW022 SCT025 BKN030 M04/M09 Q1006=
201701041650 METAR ESMX 041650Z 36020KT 9999 FEW022 BKN025 BKN034 M04/M09 Q1005=
201701041620 METAR ESMX 041620Z 01020KT 9999 FEW025 SCT029 M03/M09 Q1004=
201701041550 METAR ESMX 041550Z 02019KT 9999 FEW020 BKN027 M03/M09 Q1003=
201701041520 METAR ESMX 041520Z 01019KT 9999 -SN FEW023 SCT027 BKN033 M03/M07 Q1003=
201701041450 METAR ESMX 041450Z 01019KT 9999 -SN BKN024 BKN037 M02/M07 Q1001=
201701041420 METAR ESMX 041420Z 36018KT 9999 -SN FEW022 OVC027 M02/M06 Q1000=
201701041350 METAR ESMX 041350Z 36016KT 9999 BKN025 BKN032 M02/M07 Q0999=
201701041320 METAR ESMX 041320Z 36016KT 9999 SCT026 BKN033 M01/M06 Q0999=
201701041250 METAR ESMX 041250Z 36017KT 9999 FEW029 SCT034 BKN080 M01/M07 Q0997=
201701041220 METAR ESMX 041220Z 01018KT 9999 SCT024 BKN030 M01/M06 Q0996=
201701041150 METAR ESMX 041150Z 36019G30KT 9999 FEW025 BKN030 M01/M05 Q0995=
201701041120 METAR ESMX 041120Z 02020G31KT 9999 FEW021 SCT025 BKN033 M01/M05 Q0995=
201701041050 METAR ESMX 041050Z 01018G28KT 9999 -SN FEW017 SCT021 BKN027 M01/M04 Q0994=
201701041020 METAR ESMX 041020Z 36017KT 9999 -SN FEW006 SCT025 BKN030 M01/M04 Q0993=
201701040950 METAR ESMX 040950Z 01018KT 9999 -SN FEW021 BKN025 M00/M04 Q0992=
201701040920 METAR ESMX 040920Z 01021G32KT 9999 BKN023 00/M04 Q0990=
201701040850 METAR ESMX 040850Z 01024KT 9999 BKN022 M00/M04 Q0989=
201701040820 METAR ESMX 040820Z 36023G36KT 9999 -RASN BKN020 00/M04 Q0988=
201701040750 METAR ESMX 040750Z 35023KT 9999 FEW020 BKN025 00/M03 Q0987=
201701040720 METAR ESMX 040720Z 34017KT 9999 -SN FEW005 SCT019 BKN050 00/M02 Q0985=
201701040650 METAR ESMX 040650Z 34017KT 9999 -SN FEW016 SCT020 BKN025 00/M03 Q0984=
201701040620 METAR ESMX 040620Z 33015KT 6000 -SN FEW011 SCT017 BKN020 M01/M03 Q0983=
201701040550 METAR ESMX 040550Z 31016KT 4500 -SN FEW006 SCT023 M01/M03 Q0983=
201701040520 METAR ESMX 040520Z AUTO 31016KT 3000 -SN FEW006/// SCT008/// BKN021/// M01/M03 Q0982 REFZUP=
201701040450 METAR ESMX 040450Z AUTO 31017KT 9999 FEW022/// BKN027/// M00/M05 Q0982=
201701040420 METAR ESMX 040420Z AUTO 30018G33KT 9999 SCT029/// 00/M05 Q0981=
201701040350 METAR ESMX 040350Z AUTO 28014KT 9999 NCD 00/M04 Q0981=
201701040320 METAR ESMX 040320Z AUTO 29012KT 9999 NCD 00/M04 Q0981=
201701040250 METAR ESMX 040250Z AUTO 27013KT 9999 NCD 00/M03 Q0981=
201701040220 METAR ESMX 040220Z AUTO 28012KT 9999 NCD 00/M03 Q0982=
201701040150 METAR ESMX 040150Z AUTO 27013KT 9999 NCD 00/M03 Q0982=
201701040120 METAR ESMX 040120Z AUTO 28013KT 9999 NCD 01/M03 Q0982=
201701040050 METAR ESMX 040050Z 27013KT CAVOK 01/M03 Q0982=
201701040020 METAR ESMX 040020Z 27011KT CAVOK 01/M03 Q0983=
201701032350 METAR ESMX 032350Z 28013KT CAVOK 01/M02 Q0983=
201701032320 METAR ESMX 032320Z 28012KT CAVOK 01/M02 Q0983=
201701032250 METAR ESMX 032250Z 27012KT CAVOK 01/M03 Q0983=
201701032220 METAR ESMX 032220Z 28010KT CAVOK 01/M01 Q0984=
201701032150 METAR ESMX 032150Z 28012KT 250V320 CAVOK 02/M02 Q0984=
201701032120 METAR ESMX 032120Z 28014KT CAVOK 02/M01 Q0984=
201701032050 METAR ESMX 032050Z 26012KT CAVOK 02/M01 Q0984=
201701032020 METAR ESMX 032020Z 26011G22KT 230V300 9999 VCSH FEW023 SCT031 03/M00 Q0984=
201701031950 METAR COR ESMX 031950Z 30013G24KT 9999 VCSH FEW016 SCT027 BKN038 03/M00 Q0984=
201701031920 METAR ESMX 031920Z 27016KT 9999 FEW015 BKN020 04/02 Q0984=
201701031850 METAR ESMX 031850Z 26012KT 9999 DZ FEW008 SCT013 BKN017 04/03 Q0985=
201701031820 METAR ESMX 031820Z 25010KT 4700 DZ FEW004 SCT006 BKN008 04/03 Q0985=
201701031750 METAR ESMX 031750Z 22009KT 3200 DZ FEW002 BKN005 OVC008 03/02 Q0986=
201701031720 METAR ESMX 031720Z 20010KT 2500 DZ OVC002 02/02 Q0987=
201701031650 METAR ESMX 031650Z 19011KT 3200 -DZ OVC003 02/01 Q0989=
201701031620 METAR ESMX 031620Z 19013KT 2100 -RA OVC002 02/01 Q0990=
201701031550 METAR ESMX 031550Z 19013KT 6000 -RA OVC002 01/01 Q0991=
201701031520 METAR ESMX 031520Z 18013KT 5000 -RASN OVC002 01/01 Q0992=
201701031450 METAR ESMX 031450Z 18012KT 1600 R01/P2000N R19/P2000N -RASN VV002 01/01 Q0994=
201701031420 METAR ESMX 031420Z 17010KT 0900 R01/1300U R19/1500U FG VV002 01/00 Q0995=
201701031350 METAR ESMX 031350Z 18009KT 0900 R01/1600D R19/P2000D FG VV002 00/00 Q0997=
201701031320 METAR ESMX 031320Z 18008KT 8000 BR OVC002 00/M00 Q0998=
201701031250 METAR COR ESMX 031250Z 17007KT 9999 OVC002 M00/M01 Q0999=
201701031220 METAR ESMX 031220Z 18006KT 6000 BR OVC002 M01/M01 Q1000 RESN=
201701031150 METAR ESMX 031150Z 18008KT 2500 BR VV002 M01/M02 Q1001=
201701031120 METAR ESMX 031120Z 19007KT 1700 R01/1600N R19/1400U VV002 M02/M02 Q1002=
201701031050 METAR ESMX 031050Z 17007KT 1700 VV002 M02/M02 Q1002=
201701031020 METAR ESMX 031020Z 20008KT 0400 R01/0750N R19/0600N FZFG VV002 M02/M03 Q1003=
201701030950 METAR ESMX 030950Z 20007KT 0550 R01/0800N R19/0900N FZFG VV002 M03/M03 Q1004=
201701030920 METAR ESMX 030920Z 21008KT 2100 BR OVC002 M03/M04 Q1004=
201701030850 METAR ESMX 030850Z 20006KT 8000 BR OVC002 M03/M04 Q1005=
201701030820 METAR ESMX 030820Z 20006KT 9999 BKN003 BKN021 M05/M06 Q1005=
201701030750 METAR ESMX 030750Z 19006KT 9999 FEW004 SCT020 M06/M07 Q1005=
201701030720 METAR ESMX 030720Z 17004KT CAVOK M07/M08 Q1006=
201701030650 METAR ESMX 030650Z 17003KT CAVOK M09/M10 Q1006=
201701030620 METAR ESMX 030620Z 15002KT CAVOK M08/M10 Q1006=
201701030550 METAR ESMX 030550Z 14002KT CAVOK M08/M09 Q1007=
201701030520 METAR ESMX 030520Z AUTO 14002KT 9999 NCD M08/M09 Q1007=
201701030450 METAR ESMX 030450Z AUTO 16003KT 9999 NCD M07/M08 Q1007=
201701030420 METAR ESMX 030420Z AUTO 20003KT 9999 NCD M06/M08 Q1008=
201701030350 METAR ESMX 030350Z AUTO 18003KT 9999 NCD M06/M08 Q1008=
201701030320 METAR ESMX 030320Z AUTO 20003KT 9999 NCD M06/M08 Q1008=
201701030250 METAR ESMX 030250Z AUTO 20003KT 9999 NCD M06/M08 Q1009=
201701030220 METAR ESMX 030220Z AUTO 26003KT 9999 NCD M07/M09 Q1009=
201701030150 METAR ESMX 030150Z AUTO 24003KT 9999 NCD M07/M08 Q1009=
201701030120 METAR ESMX 030120Z AUTO 21002KT 9999 NCD M06/M08 Q1009=
201701030050 METAR ESMX 030050Z AUTO VRB02KT 9999 NCD M06/M08 Q1010=
201701030020 METAR ESMX 030020Z 24004KT CAVOK M07/M08 Q1010=
201701022350 METAR ESMX 022350Z 22004KT CAVOK M07/M09 Q1010=
201701022320 METAR ESMX 022320Z 25004KT CAVOK M07/M09 Q1010=
201701022250 METAR ESMX 022250Z 25004KT CAVOK M07/M08 Q1010=
201701022220 METAR ESMX 022220Z 24005KT CAVOK M07/M08 Q1010=
201701022150 METAR ESMX 022150Z 25005KT CAVOK M07/M09 Q1011=
201701022120 METAR ESMX 022120Z 25005KT CAVOK M07/M08 Q1010=
201701022050 METAR ESMX 022050Z 19004KT CAVOK M08/M09 Q1010=
201701022020 METAR ESMX 022020Z 21004KT CAVOK M06/M08 Q1010=
201701021950 METAR ESMX 021950Z 19006KT CAVOK M07/M09 Q1010=
201701021920 METAR ESMX 021920Z 19005KT CAVOK M06/M08 Q1010=
201701021850 METAR ESMX 021850Z 21006KT CAVOK M07/M09 Q1010=
201701021820 METAR ESMX 021820Z VRB01KT CAVOK M07/M09 Q1010=
201701021750 METAR ESMX 021750Z VRB02KT CAVOK M05/M07 Q1010=
201701021720 METAR ESMX 021720Z 27004KT CAVOK M05/M07 Q1010=
201701021650 METAR ESMX 021650Z 28005KT CAVOK M04/M06 Q1010=
201701021620 METAR ESMX 021620Z 26005KT CAVOK M04/M07 Q1010=
201701021550 METAR ESMX 021550Z 29005KT CAVOK M03/M06 Q1010=
201701021520 METAR ESMX 021520Z 28007KT CAVOK M03/M06 Q1009=
201701021450 METAR ESMX 021450Z 29007KT CAVOK M02/M06 Q1009=
201701021420 METAR ESMX 021420Z 29008KT CAVOK M02/M06 Q1009=
201701021350 METAR ESMX 021350Z 29007KT CAVOK M02/M05 Q1009=
201701021320 METAR ESMX 021320Z 29007KT CAVOK M01/M05 Q1009=
201701021250 METAR ESMX 021250Z 28007KT CAVOK M01/M05 Q1009=
201701021220 METAR ESMX 021220Z 30007KT 280V340 CAVOK M01/M05 Q1009=
201701021150 METAR ESMX 021150Z 30009KT CAVOK M01/M05 Q1009=
201701021120 METAR ESMX 021120Z 31008KT CAVOK M01/M05 Q1009=
201701021050 METAR ESMX 021050Z 31007KT 280V340 CAVOK M02/M05 Q1009=
201701021020 METAR ESMX 021020Z 30007KT 260V340 CAVOK M02/M05 Q1009=
201701020950 METAR ESMX 020950Z 31006KT CAVOK M02/M05 Q1009=
201701020920 METAR ESMX 020920Z 33006KT CAVOK M03/M05 Q1009=
201701020850 METAR ESMX 020850Z 30005KT 260V330 CAVOK M03/M05 Q1009=
201701020820 METAR ESMX 020820Z 29005KT CAVOK M03/M05 Q1009=
201701020750 METAR ESMX 020750Z 28005KT CAVOK M04/M05 Q1008=
201701020720 METAR ESMX 020720Z 30005KT CAVOK M03/M05 Q1008=
201701020650 METAR ESMX 020650Z 31007KT CAVOK M03/M05 Q1008=
201701020620 METAR ESMX 020620Z 30007KT CAVOK M02/M04 Q1008=
201701020550 METAR ESMX 020550Z 31006KT CAVOK M02/M04 Q1008=
201701020520 METAR ESMX 020520Z AUTO 33009KT 9999 FEW019/// SCT023/// M01/M04 Q1007 RESHUP=
201701020450 METAR ESMX 020450Z AUTO 33010KT 9999 FZUP FEW005/// SCT012/// BKN016/// M01/M02 Q1007=
201701020420 METAR ESMX 020420Z AUTO 31007KT 280V340 6000 -RASN FEW008/// SCT013/// OVC026/// M00/M01 Q1007 RESHUP RESN=
201701020350 METAR ESMX 020350Z AUTO 31007KT 9999 FEW018/// BKN031/// BKN037/// M01/M02 Q1007 RESHUP REUP=
201701020320 METAR ESMX 020320Z AUTO 31008KT 9999 BKN012/// OVC026/// M01/M02 Q1007=
201701020250 METAR ESMX 020250Z AUTO 31007KT 9999 FEW012/// BKN014/// M01/M02 Q1007 RESHUP REFZUP=
201701020220 METAR ESMX 020220Z AUTO 31006KT 9999 FEW024/// M01/M03 Q1007=
201701020150 METAR ESMX 020150Z AUTO 31007KT 9999 FEW025/// BKN029/// M01/M02 Q1007=
201701020120 METAR ESMX 020120Z AUTO 31008KT 9999 OVC027/// M00/M02 Q1007=
201701020050 METAR ESMX 020050Z AUTO 32008KT 9999 SCT030/// M01/M02 Q1007=
201701020020 METAR ESMX 020020Z 32005KT 9999 SCT035 M02/M03 Q1006=
201701012350 METAR ESMX 012350Z 30004KT CAVOK M02/M03 Q1006=
201701012320 METAR ESMX 012320Z 30005KT CAVOK M02/M03 Q1006=
201701012250 METAR ESMX 012250Z 31004KT CAVOK M02/M03 Q1007=
201701012220 METAR ESMX 012220Z 30004KT CAVOK M01/M02 Q1006=
201701012150 METAR ESMX 012150Z 30004KT CAVOK M01/M02 Q1006=
201701012120 METAR ESMX 012120Z 29006KT CAVOK M01/M02 Q1006=
201701012050 METAR ESMX 012050Z 29006KT CAVOK M01/M02 Q1006=
201701012020 METAR ESMX 012020Z 29005KT CAVOK M00/M01 Q1006=
201701011950 METAR ESMX 011950Z 29005KT CAVOK 00/M00 Q1006=
201701011920 METAR ESMX 011920Z 27006KT CAVOK 01/M00 Q1006=
201701011850 METAR ESMX 011850Z 28006KT CAVOK 01/00 Q1006=
201701011820 METAR ESMX 011820Z 28005KT 9999 FEW006 02/01 Q1006=
201701011750 METAR ESMX 011750Z 27007KT 9999 BKN005 02/01 Q1006=
201701011720 METAR ESMX 011720Z 26007KT 9999 FEW004 SCT005 02/02 Q1005=
201701011650 METAR ESMX 011650Z 25006KT CAVOK 02/02 Q1005=
201701011620 METAR ESMX 011620Z 25005KT CAVOK 02/02 Q1005=
201701011550 METAR ESMX 011550Z 26006KT CAVOK 03/02 Q1005=
201701011520 METAR ESMX 011520Z AUTO 27006KT 9999 FEW013/// 03/02 Q1005=
201701011450 METAR ESMX 011450Z AUTO 28007KT 9999 FEW010/// SCT016/// 04/02 Q1005=
201701011420 METAR ESMX 011420Z AUTO 26006KT 9999 FEW011/// 04/03 Q1005=
201701011350 METAR ESMX 011350Z AUTO 26007KT 9999 FEW012/// 04/03 Q1005=
201701011320 METAR ESMX 011320Z AUTO 27006KT 9999 NCD 05/03 Q1005=
201701011250 METAR ESMX 011250Z AUTO 27008KT 9999 FEW013/// 05/03 Q1005=
201701011220 METAR ESMX 011220Z AUTO 26008KT 230V290 9999 FEW013/// SCT026/// 05/03 Q1005=
