##########################################################
# Query made at 04/19/2024 21:57:16 UTC
# Time interval: from 05/01/2017 12:00  to 05/31/2017 12:59  UTC
##########################################################

##########################################################
# ESMX, Vaxjo (Sweden)
# WMO index: 02641. WIGOS ID: 0-20000-0-02648
# Latitude 56-51N. Longitude 014-50E. Altitude 199 m.
##########################################################

201705311250 METAR ESMX 311250Z 26012KT 230V290 9999 -RA FEW006 SCT008 BKN012 13/11 Q1007=
201705311220 METAR ESMX 311220Z 27012KT 9999 FEW006 BKN011 13/11 Q1007=
201705311150 METAR ESMX 311150Z 26013KT 5000 -RA FEW008 BKN010 12/11 Q1007=
201705311120 METAR ESMX 311120Z 26013KT 9000 -RA FEW013 BKN018 13/11 Q1006=
201705311050 METAR ESMX 311050Z 26014KT 230V300 9999 FEW014 BKN020 13/11 Q1006=
201705311020 METAR ESMX 311020Z 27013KT 9999 FEW012 SCT017 BKN020 14/11 Q1005 RERA=
201705310950 METAR ESMX 310950Z 26014G25KT 9999 -RA FEW009 BKN012 BKN017 13/11 Q1005=
201705310920 METAR ESMX 310920Z 25014KT 8000 -RA FEW008 BKN010 12/11 Q1004=
201705310850 METAR ESMX 310850Z 24011KT 4700 -RA SCT010 BKN017 12/11 Q1004=
201705310820 METAR ESMX 310820Z 26011KT 9999 FEW009 SCT014 BKN020 13/11 Q1004=
201705310750 METAR ESMX 310750Z 26012KT 9999 FEW013 BKN022 14/12 Q1004=
201705310720 METAR ESMX 310720Z 23009KT 200V290 9999 FEW010 SCT022 BKN045 13/11 Q1004=
201705310650 METAR ESMX 310650Z 23012KT 9999 FEW009 SCT013 BKN016 12/11 Q1004=
201705310620 METAR ESMX 310620Z 22010KT 9999 -RA FEW006 SCT010 BKN012 12/11 Q1003=
201705310550 METAR ESMX 310550Z 23008KT 7000 RA FEW006 BKN009 OVC013 12/11 Q1004=
201705310520 METAR ESMX 310520Z 24008KT 9000 -RA FEW007 SCT011 BKN014 12/11 Q1004=
201705310450 METAR ESMX 310450Z 23009KT 8000 -DZ FEW007 SCT009 OVC011 12/10 Q1004=
201705310420 METAR ESMX 310420Z 25008KT 9999 FEW008 SCT009 BKN011 12/10 Q1004=
201705310350 METAR ESMX 310350Z 24009KT 9999 OVC008 12/10 Q1004=
201705310320 METAR ESMX 310320Z AUTO 24008KT 210V290 9999 OVC009/// 12/10 Q1004=
201705310250 METAR ESMX 310250Z AUTO 26012KT 9999 OVC010/// 12/10 Q1005=
201705310220 METAR ESMX 310220Z AUTO 26009KT 210V270 9999 OVC009/// 12/10 Q1005=
201705310150 METAR ESMX 310150Z AUTO 25008KT 220V290 9999 OVC011/// 12/10 Q1005=
201705310120 METAR ESMX 310120Z AUTO 24009KT 210V270 9999 OVC010/// 12/10 Q1005=
201705310050 METAR ESMX 310050Z AUTO 24010KT 9999 OVC011/// 12/10 Q1005=
201705310020 METAR ESMX 310020Z AUTO 26012KT 240V300 9999 BKN013/// 12/09 Q1005=
201705302350 METAR ESMX 302350Z 24007KT 210V270 9999 FEW014 SCT016 BKN019 12/10 Q1006=
201705302320 METAR ESMX 302320Z 26008KT 9999 FEW012 SCT016 BKN020 13/10 Q1006=
201705302250 METAR ESMX 302250Z 25007KT 9999 BKN014 13/10 Q1006=
201705302220 METAR ESMX 302220Z 24007KT 9999 FEW018 OVC021 13/10 Q1006=
201705302150 METAR ESMX 302150Z 27010KT 9999 BKN012 OVC017 13/10 Q1006=
201705302120 METAR ESMX 302120Z 28008KT 9999 FEW011 OVC014 13/11 Q1006=
201705302050 METAR ESMX 302050Z 27009KT 9999 SCT012 BKN019 OVC022 14/11 Q1006=
201705302020 METAR ESMX 302020Z 25007KT 9999 SCT011 BKN016 OVC022 14/12 Q1006=
201705301950 METAR ESMX 301950Z 25008KT 9999 FEW014 OVC020 15/13 Q1005=
201705301920 METAR COR ESMX 301920Z 25005KT 210V280 9999 FEW013 SCT015 BKN020 15/14 Q1005=
201705301850 METAR ESMX 301850Z 25006KT 8000 BR FEW006 SCT010 BKN016 15/14 Q1005=
201705301820 METAR ESMX 301820Z 26006KT 8000 BR FEW010 SCT019 BKN025 16/14 Q1005=
201705301750 METAR ESMX 301750Z 25007KT 8000 BR FEW006 BKN010 BKN027 16/14 Q1005=
201705301720 METAR ESMX 301720Z 22006KT 6000 -DZ FEW008 OVC010 16/14 Q1006=
201705301650 METAR ESMX 301650Z 19009KT 8000 -DZ OVC014 16/14 Q1006=
201705301620 METAR ESMX 301620Z 20009KT 9999 OVC013 17/14 Q1006=
201705301550 METAR ESMX 301550Z 21008KT 9999 OVC015 17/14 Q1006=
201705301520 METAR ESMX 301520Z 17006KT 9999 OVC016 17/13 Q1006=
201705301450 METAR ESMX 301450Z 16007KT 9999 OVC016 16/13 Q1007=
201705301420 METAR ESMX 301420Z 18010KT 9999 OVC017 17/13 Q1007=
201705301350 METAR ESMX 301350Z 19012KT 9999 FEW018 BKN020 17/13 Q1007=
201705301320 METAR ESMX 301320Z 19011KT 150V220 9999 FEW018 BKN020 18/13 Q1007=
201705301250 METAR ESMX 301250Z 20010KT 9999 SCT018 BKN100 18/13 Q1008=
201705301220 METAR ESMX 301220Z 20004KT 140V290 9999 BKN011 17/12 Q1008=
201705301150 METAR ESMX 301150Z 17009KT 9999 OVC011 15/12 Q1008=
201705301120 METAR ESMX 301120Z 17008KT 9999 -DZ OVC011 15/12 Q1009=
201705301050 METAR ESMX 301050Z 17010KT 9999 OVC012 15/11 Q1009=
201705301020 METAR ESMX 301020Z 19011KT 9999 OVC011 15/11 Q1010=
201705300950 METAR ESMX 300950Z 18010KT 9999 OVC011 14/11 Q1010=
201705300920 METAR ESMX 300920Z 17010KT 9999 OVC010 14/11 Q1010=
201705300850 METAR ESMX 300850Z 17008KT 9999 OVC009 14/11 Q1011=
201705300820 METAR ESMX 300820Z 17009KT 9999 BKN008 OVC010 14/11 Q1011=
201705300750 METAR ESMX 300750Z 17010KT 9999 OVC008 14/11 Q1011=
201705300720 METAR ESMX 300720Z 16008KT 9999 BKN009 14/12 Q1011=
201705300650 METAR ESMX 300650Z 16009KT 130V190 9999 SCT007 BKN010 14/12 Q1011=
201705300620 METAR ESMX 300620Z 16008KT 9000 BR FEW006 BKN008 OVC010 13/12 Q1011=
201705300550 METAR ESMX 300550Z 16007KT 9000 BR FEW004 SCT006 BKN007 13/12 Q1011=
201705300520 METAR ESMX 300520Z 17007KT 7000 BR FEW003 BKN005 OVC010 13/12 Q1011=
201705300450 METAR ESMX 300450Z 17003KT 140V200 7000 BR SCT005 BKN009 OVC011 13/12 Q1011=
201705300420 METAR ESMX 300420Z 19004KT 6000 BR SCT005 BKN010 OVC014 13/12 Q1011=
201705300350 METAR ESMX 300350Z 17003KT 6000 BR BKN005 OVC007 13/12 Q1011=
201705300320 METAR ESMX 300320Z AUTO 18002KT 5000 BR FEW002/// SCT004/// BKN007/// 12/12 Q1012=
201705300250 METAR ESMX 300250Z AUTO 22003KT 6000 BR OVC003/// 12/11 Q1012=
201705300220 METAR ESMX 300220Z AUTO 19004KT 5000 BR FEW003/// OVC005/// 12/11 Q1012=
201705300150 METAR ESMX 300150Z AUTO VRB02KT 7000 BR OVC003/// 11/11 Q1012=
201705300120 METAR ESMX 300120Z AUTO 18003KT 9999 FEW015/// OVC020/// 11/10 Q1012=
201705300050 METAR ESMX 300050Z AUTO 00000KT 9000 OVC019/// 09/09 Q1012=
201705300020 METAR ESMX 300020Z AUTO VRB02KT 0200 R01/P2000N R19/0700N BCFG VV000 10/09 Q1012=
201705292350 METAR ESMX 292350Z 17003KT 0100 R01/0400N R19/P2000N BCFG NSC 09/09 Q1012=
201705292320 METAR ESMX 292320Z 16002KT 4000 BR NSC 09/09 Q1012=
201705292250 METAR ESMX 292250Z VRB02KT 3000 BR NSC 11/10 Q1012=
201705292220 METAR ESMX 292220Z 26002KT 7000 BR NSC 11/11 Q1012=
201705292150 METAR ESMX 292150Z 27003KT 9000 BR NSC 11/10 Q1012=
201705292120 METAR ESMX 292120Z 25004KT CAVOK 12/11 Q1012=
201705292050 METAR ESMX 292050Z 24003KT CAVOK 12/11 Q1012=
201705292020 METAR ESMX 292020Z 26004KT CAVOK 13/11 Q1012=
201705291950 METAR ESMX 291950Z 26004KT CAVOK 14/12 Q1012=
201705291920 METAR ESMX 291920Z VRB02KT CAVOK 15/12 Q1012=
201705291850 METAR ESMX 291850Z 22003KT CAVOK 16/12 Q1012=
201705291820 METAR COR ESMX 291820Z 22004KT CAVOK 16/12 Q1012=
201705291750 METAR ESMX 291750Z 22005KT CAVOK 17/12 Q1012=
201705291720 METAR ESMX 291720Z 22006KT CAVOK 18/12 Q1012=
201705291650 METAR ESMX 291650Z 22006KT 190V260 9999 SCT030 SCT100 18/12 Q1012=
201705291620 METAR ESMX 291620Z 23005KT 9999 BKN030 18/12 Q1012=
201705291550 METAR ESMX 291550Z 24004KT 170V270 9999 BKN029 18/12 Q1012=
201705291520 METAR ESMX 291520Z VRB02KT 9999 BKN030 18/12 Q1012=
201705291450 METAR ESMX 291450Z 03003KT 350V070 9999 BKN025 18/11 Q1012=
201705291420 METAR ESMX 291420Z VRB02KT 9999 BKN025 18/11 Q1012=
201705291350 METAR ESMX 291350Z VRB01KT 9999 BKN024 18/12 Q1012=
201705291320 METAR ESMX 291320Z VRB03KT 9999 BKN025 17/11 Q1012=
201705291250 METAR ESMX 291250Z 22003KT 170V280 9999 BKN022 17/11 Q1012=
201705291220 METAR ESMX 291220Z 25003KT 190V280 9999 BKN023 17/11 Q1012=
201705291150 METAR ESMX 291150Z 27004KT 230V290 9999 OVC021 16/11 Q1012=
201705291120 METAR ESMX 291120Z VRB02KT 9999 OVC020 16/11 Q1012=
201705291050 METAR ESMX 291050Z 04004KT 350V110 9999 OVC017 16/11 Q1012=
201705291020 METAR ESMX 291020Z VRB04KT 9999 OVC017 16/11 Q1012=
201705290950 METAR ESMX 290950Z 33005KT 300V010 9999 OVC016 16/11 Q1012=
201705290920 METAR ESMX 290920Z 31005KT 280V350 9999 OVC015 15/11 Q1012=
201705290850 METAR ESMX 290850Z 29006KT 9999 OVC015 15/11 Q1011=
201705290820 METAR ESMX 290820Z 30009KT 9999 OVC015 15/10 Q1011=
201705290750 METAR ESMX 290750Z 30008KT 9999 OVC014 14/11 Q1011=
201705290720 METAR ESMX 290720Z 32008KT 9999 BKN012 14/11 Q1011=
201705290650 METAR ESMX 290650Z 30009KT 260V340 9999 OVC013 14/11 Q1011=
201705290620 METAR ESMX 290620Z 30008KT 9999 BKN011 14/11 Q1011=
201705290550 METAR ESMX 290550Z 30008KT 9999 BKN012 14/11 Q1010=
201705290520 METAR ESMX 290520Z 30007KT 9999 FEW008 BKN013 14/11 Q1010=
201705290450 METAR ESMX 290450Z 31008KT 280V340 9999 FEW007 SCT013 OVC016 14/11 Q1010=
201705290420 METAR ESMX 290420Z 28007KT 9999 FEW006 OVC008 14/12 Q1009=
201705290350 METAR ESMX 290350Z 28006KT 240V320 9999 FEW009 BKN010 OVC014 14/12 Q1009=
201705290320 METAR ESMX 290320Z AUTO 29006KT 250V330 9999 SCT010/// BKN014/// OVC020/// 14/12 Q1009=
201705290250 METAR ESMX 290250Z AUTO 28007KT 250V320 9999 SCT011/// OVC023/// 14/12 Q1009=
201705290220 METAR ESMX 290220Z AUTO 27009KT 250V310 9999 SCT013/// OVC027/// 14/12 Q1009=
201705290150 METAR ESMX 290150Z AUTO 26009KT 9999 FEW009/// BKN010/// OVC017/// 15/13 Q1009 REDZ=
201705290120 METAR ESMX 290120Z AUTO 25008KT 9999 FEW009/// BKN012/// BKN016/// 15/13 Q1009=
201705290050 METAR ESMX 290050Z AUTO 26007KT 9999 BKN011/// OVC018/// 15/13 Q1009=
201705290020 METAR ESMX 290020Z AUTO 26009KT 230V290 9999 OVC010/// 15/13 Q1009=
201705282350 METAR ESMX 282350Z AUTO 25010KT 220V280 9999 OVC011/// 15/13 Q1009=
201705282320 METAR ESMX 282320Z 25011KT 9999 SCT012 BKN016 OVC019 16/12 Q1010=
201705282250 METAR ESMX 282250Z 25009KT 9999 SCT018 BKN024 OVC028 16/12 Q1010=
201705282220 METAR ESMX 282220Z 25012KT 220V280 9999 OVC018 16/12 Q1010=
201705282150 METAR ESMX 282150Z 24013G27KT 210V280 9999 OVC019 17/12 Q1010=
201705282120 METAR ESMX 282120Z 24010KT 9999 SCT022 BKN029 BKN070 17/12 Q1010=
201705282050 METAR ESMX 282050Z 24009KT CAVOK 17/12 Q1010=
201705282020 METAR ESMX 282020Z 24009KT CAVOK 17/11 Q1010=
201705281950 METAR ESMX 281950Z 25011KT CAVOK 18/11 Q1010=
201705281920 METAR ESMX 281920Z 23010KT CAVOK 18/11 Q1010=
201705281850 METAR ESMX 281850Z 24011KT CAVOK 20/11 Q1010=
201705281820 METAR ESMX 281820Z 25010KT 220V290 CAVOK 20/12 Q1010=
201705281750 METAR ESMX 281750Z 24013KT CAVOK 21/11 Q1010=
201705281720 METAR ESMX 281720Z 26014KT CAVOK 22/10 Q1010=
201705281650 METAR COR ESMX 281650Z 23015KT CAVOK 23/08 Q1010=
201705281620 METAR ESMX 281620Z 24012KT CAVOK 24/09 Q1010=
201705281550 METAR ESMX 281550Z 21013KT 170V240 9999 FEW050CB SCT080 25/12 Q1011=
201705281520 METAR ESMX 281520Z 20016KT CAVOK 24/12 Q1011=
201705281450 METAR ESMX 281450Z 21015KT 180V240 CAVOK 26/12 Q1011=
201705281420 METAR ESMX 281420Z 21007KT CAVOK 24/11 Q1012=
201705281350 METAR ESMX 281350Z 19012KT CAVOK 24/11 Q1012=
201705281320 METAR ESMX 281320Z 21011KT 9999 VCSH BKN065CB 25/09 Q1013=
201705281250 METAR ESMX 281250Z 21014KT 190V250 CAVOK 26/08 Q1013=
201705281220 METAR ESMX 281220Z 19018KT CAVOK 27/08 Q1013=
201705281150 METAR ESMX 281150Z 20017KT CAVOK 27/08 Q1014=
201705281120 METAR ESMX 281120Z 20015KT CAVOK 27/09 Q1014=
201705281050 METAR ESMX 281050Z 18015KT CAVOK 26/09 Q1014=
201705281020 METAR ESMX 281020Z AUTO 18016KT 160V220 9999 NCD 27/10 Q1014=
201705280950 METAR ESMX 280950Z AUTO 19015KT 9999 FEW050/// 26/10 Q1015=
201705280920 METAR ESMX 280920Z AUTO 19015KT 160V220 9999 NCD 26/09 Q1015=
201705280850 METAR ESMX 280850Z AUTO 19013KT 9999 NCD 26/10 Q1016=
201705280820 METAR ESMX 280820Z AUTO 21012KT 9999 FEW069/// 25/10 Q1016=
201705280750 METAR ESMX 280750Z AUTO 20011KT 9999 NCD 25/11 Q1016=
201705280720 METAR ESMX 280720Z AUTO 20011KT 9999 NCD 23/10 Q1017=
201705280650 METAR ESMX 280650Z AUTO 22010KT 9999 NCD 22/11 Q1017=
201705280620 METAR ESMX 280620Z AUTO 21011KT 9999 NCD 21/11 Q1017=
201705280550 METAR ESMX 280550Z AUTO 21009KT 9999 NCD 20/11 Q1018=
201705280520 METAR ESMX 280520Z AUTO 21009KT 9999 NCD 18/11 Q1018=
201705280450 METAR ESMX 280450Z AUTO 21008KT 9999 NCD 17/11 Q1018=
201705280420 METAR ESMX 280420Z AUTO 20007KT 9999 NCD 16/11 Q1018=
201705280350 METAR ESMX 280350Z AUTO 20005KT 9999 NCD 14/11 Q1019=
201705280320 METAR ESMX 280320Z AUTO 21005KT 9999 NCD 12/10 Q1019=
201705280250 METAR ESMX 280250Z AUTO 17003KT 9999 NCD 12/10 Q1019=
201705280220 METAR ESMX 280220Z AUTO 18004KT 9999 NCD 13/10 Q1019=
201705280150 METAR ESMX 280150Z AUTO 21005KT 9999 NCD 13/10 Q1020=
201705280120 METAR ESMX 280120Z AUTO 19005KT 9999 NCD 12/10 Q1020=
201705280050 METAR ESMX 280050Z AUTO 21005KT 9999 NCD 12/10 Q1020=
201705280020 METAR ESMX 280020Z AUTO 21005G42KT 210V030 9999 NCD 13/10 Q1020=
201705272350 METAR ESMX 272350Z AUTO 21005KT 9999 NCD 13/10 Q1020=
201705272320 METAR ESMX 272320Z AUTO 21005KT 9999 NCD 13/10 Q1020=
201705272250 METAR ESMX 272250Z AUTO 22004KT 9999 NCD 15/11 Q1020=
201705272220 METAR ESMX 272220Z AUTO 24003KT 9999 NCD 16/11 Q1020=
201705272150 METAR ESMX 272150Z AUTO 26004KT 9999 NCD 16/11 Q1020=
201705272120 METAR ESMX 272120Z AUTO 26003KT 9999 NCD 17/12 Q1020=
201705272050 METAR ESMX 272050Z AUTO 24004KT 9999 NCD 17/11 Q1020=
201705272020 METAR ESMX 272020Z AUTO 23004KT 9999 NCD 18/11 Q1020=
201705271950 METAR ESMX 271950Z AUTO 24004KT 9999 NCD 19/11 Q1020=
201705271920 METAR ESMX 271920Z AUTO 24004KT 9999 NCD 20/11 Q1020=
201705271850 METAR ESMX 271850Z AUTO 24005KT 9999 NCD 21/11 Q1020=
201705271820 METAR ESMX 271820Z 24006KT CAVOK 23/11 Q1020=
201705271750 METAR ESMX 271750Z 25008KT CAVOK 24/11 Q1020=
201705271720 METAR ESMX 271720Z 25007KT 210V300 CAVOK 25/12 Q1020=
201705271650 METAR ESMX 271650Z 25008KT CAVOK 25/12 Q1020=
201705271620 METAR ESMX 271620Z 27010KT CAVOK 25/12 Q1020=
201705271550 METAR ESMX 271550Z AUTO 27010KT 230V300 9999 NCD 26/12 Q1020=
201705271520 METAR ESMX 271520Z AUTO 24010KT 9999 NCD 26/11 Q1020=
201705271450 METAR ESMX 271450Z AUTO 26010KT 230V290 9999 NCD 26/11 Q1020=
201705271420 METAR ESMX 271420Z AUTO 26009KT 230V320 9999 NCD 26/11 Q1020=
201705271350 METAR ESMX 271350Z AUTO 25010KT 210V290 9999 NCD 26/11 Q1020=
201705271320 METAR ESMX 271320Z AUTO 23010KT 200V260 9999 NCD 27/12 Q1020=
201705271250 METAR ESMX 271250Z AUTO 28010KT 250V320 9999 NCD 26/11 Q1021=
201705271220 METAR ESMX 271220Z AUTO 26009KT 210V300 9999 NCD 26/12 Q1021=
201705271150 METAR ESMX 271150Z AUTO 25011KT 210V280 9999 NCD 25/11 Q1021=
201705271120 METAR ESMX 271120Z AUTO 25010KT 210V280 9999 NCD 26/11 Q1021=
201705271050 METAR ESMX 271050Z AUTO 25010KT 210V300 9999 NCD 25/11 Q1021=
201705271020 METAR ESMX 271020Z AUTO 23012KT 9999 NCD 24/11 Q1021=
201705270950 METAR ESMX 270950Z AUTO 26011KT 9999 NCD 24/11 Q1021=
201705270920 METAR ESMX 270920Z AUTO 23010KT 9999 NCD 23/11 Q1021=
201705270850 METAR ESMX 270850Z 22011KT 190V250 CAVOK 22/11 Q1022=
201705270820 METAR ESMX 270820Z 21010KT CAVOK 22/10 Q1022=
201705270750 METAR ESMX 270750Z 25009KT CAVOK 21/10 Q1022=
201705270720 METAR ESMX 270720Z 22008KT 190V260 CAVOK 20/10 Q1022=
201705270650 METAR ESMX 270650Z 23007KT CAVOK 19/10 Q1022=
201705270620 METAR ESMX 270620Z AUTO 20006KT 9999 NCD 18/11 Q1022=
201705270550 METAR ESMX 270550Z AUTO 21005KT 170V260 9999 NCD 16/10 Q1022=
201705270520 METAR ESMX 270520Z AUTO 22006KT 190V250 9999 NCD 14/10 Q1022=
201705270450 METAR ESMX 270450Z AUTO 21007KT 9999 NCD 13/09 Q1022=
201705270420 METAR ESMX 270420Z AUTO 22005KT 9999 NCD 12/08 Q1022=
201705270350 METAR ESMX 270350Z AUTO 22005KT 9999 NCD 11/07 Q1022=
201705270320 METAR ESMX 270320Z AUTO 18006KT 9999 NCD 11/07 Q1022=
201705270250 METAR ESMX 270250Z AUTO 18005KT 9999 NCD 10/06 Q1022=
201705270220 METAR ESMX 270220Z AUTO 17005KT 9999 NCD 10/06 Q1022=
201705270150 METAR ESMX 270150Z AUTO 18004KT 9999 NCD 10/06 Q1022=
201705270120 METAR ESMX 270120Z AUTO 19005KT 9999 NCD 08/05 Q1022=
201705270050 METAR ESMX 270050Z AUTO 19004KT 9999 NCD 09/05 Q1022=
201705270020 METAR ESMX 270020Z AUTO 17004KT 9999 NCD 09/05 Q1022=
201705262350 METAR ESMX 262350Z AUTO 17004KT 9999 NCD 12/06 Q1022=
201705262320 METAR ESMX 262320Z AUTO 17005KT 9999 NCD 12/06 Q1022=
201705262250 METAR ESMX 262250Z AUTO 17004KT 9999 NCD 11/05 Q1023=
201705262220 METAR ESMX 262220Z AUTO 17004KT 9999 NCD 13/06 Q1022=
201705262150 METAR ESMX 262150Z AUTO 17005KT 9999 NCD 14/06 Q1022=
201705262120 METAR ESMX 262120Z AUTO 18006KT 9999 NCD 13/06 Q1022=
201705262050 METAR ESMX 262050Z AUTO 17005KT 9999 NCD 14/07 Q1022=
201705262020 METAR ESMX 262020Z AUTO 17008KT 9999 NCD 15/07 Q1022=
201705261950 METAR ESMX 261950Z AUTO 16010KT 9999 NCD 16/07 Q1021=
201705261920 METAR ESMX 261920Z AUTO 15007KT 090V180 9999 NCD 18/08 Q1021=
201705261850 METAR ESMX 261850Z AUTO VRB02KT 9999 NCD 20/07 Q1020=
201705261820 METAR ESMX 261820Z AUTO 05003KT 010V080 9999 NCD 22/06 Q1020=
201705261750 METAR ESMX 261750Z AUTO 03004KT 360V080 9999 NCD 22/05 Q1020=
201705261720 METAR ESMX 261720Z AUTO 36006KT 9999 NCD 23/06 Q1020=
201705261650 METAR ESMX 261650Z AUTO 36008KT 9999 NCD 23/05 Q1020=
201705261620 METAR ESMX 261620Z AUTO 36007KT 320V030 9999 NCD 23/05 Q1020=
201705261550 METAR ESMX 261550Z AUTO 33008KT 300V360 9999 NCD 23/05 Q1020=
201705261520 METAR ESMX 261520Z 36010KT 330V030 CAVOK 23/05 Q1020=
201705261450 METAR ESMX 261450Z 33010KT CAVOK 23/05 Q1020=
201705261420 METAR ESMX 261420Z 35011KT CAVOK 24/05 Q1020=
201705261350 METAR ESMX 261350Z 35011KT 310V030 CAVOK 24/04 Q1020=
201705261320 METAR ESMX 261320Z 35012KT CAVOK 23/05 Q1020=
201705261250 METAR ESMX 261250Z 34010KT 300V360 CAVOK 23/05 Q1019=
201705261220 METAR ESMX 261220Z 35010KT 310V030 CAVOK 23/05 Q1020=
201705261150 METAR ESMX 261150Z 36009KT CAVOK 23/05 Q1019=
201705261120 METAR ESMX 261120Z 34010KT CAVOK 23/06 Q1019=
201705261050 METAR ESMX 261050Z 35008KT 320V030 CAVOK 22/07 Q1019=
201705261020 METAR ESMX 261020Z 02009KT 330V040 CAVOK 22/06 Q1019=
201705260950 METAR ESMX 260950Z 34010KT 300V010 CAVOK 21/07 Q1019=
201705260920 METAR ESMX 260920Z 36009KT 320V030 CAVOK 21/07 Q1019=
201705260850 METAR ESMX 260850Z 03008KT CAVOK 20/06 Q1019=
201705260820 METAR ESMX 260820Z 36009KT CAVOK 19/07 Q1019=
201705260750 METAR ESMX 260750Z AUTO 01009KT 9999 NCD 19/07 Q1019=
201705260720 METAR ESMX 260720Z AUTO 36009KT 9999 NCD 19/07 Q1019=
201705260650 METAR ESMX 260650Z AUTO 01007KT 9999 NCD 18/08 Q1019=
201705260620 METAR ESMX 260620Z AUTO 01006KT 9999 NCD 17/09 Q1018=
201705260550 METAR ESMX 260550Z AUTO 02006KT 9999 NCD 16/09 Q1018=
201705260520 METAR ESMX 260520Z AUTO 34005KT 9999 NCD 15/10 Q1018=
201705260450 METAR ESMX 260450Z AUTO 33003KT 9999 NCD 13/10 Q1017=
201705260420 METAR ESMX 260420Z AUTO 31003KT 280V350 9999 NCD 12/10 Q1017=
201705260350 METAR ESMX 260350Z AUTO 28004KT 9999 NCD 09/09 Q1017=
201705260320 METAR ESMX 260320Z AUTO 29002KT 9999 NCD 08/07 Q1017=
201705260250 METAR ESMX 260250Z AUTO 27001KT 9999 NCD 07/06 Q1016=
201705260220 METAR ESMX 260220Z AUTO 25002KT 9999 NCD 09/09 Q1016=
201705260150 METAR ESMX 260150Z AUTO 24002KT 9999 NCD 10/08 Q1016=
201705260120 METAR ESMX 260120Z AUTO VRB02KT 9999 NCD 10/08 Q1016=
201705260050 METAR ESMX 260050Z AUTO 26004KT 9999 NCD 10/08 Q1016=
201705260020 METAR ESMX 260020Z AUTO 25004KT 9999 FEW082/// 10/07 Q1016=
201705252350 METAR ESMX 252350Z AUTO 26003KT 9999 NCD 11/07 Q1016=
201705252320 METAR ESMX 252320Z AUTO 26005KT 9999 BKN081/// 11/07 Q1016=
201705252250 METAR ESMX 252250Z 26004KT CAVOK 11/07 Q1016=
201705252220 METAR ESMX 252220Z 26005KT CAVOK 12/07 Q1016=
201705252150 METAR ESMX 252150Z 26003KT CAVOK 13/07 Q1016=
201705252120 METAR ESMX 252120Z 27004KT CAVOK 14/07 Q1015=
201705252050 METAR ESMX 252050Z 29005KT CAVOK 15/07 Q1015=
201705252020 METAR ESMX 252020Z 28006KT CAVOK 16/07 Q1015=
201705251950 METAR ESMX 251950Z 29008KT CAVOK 17/07 Q1015=
201705251920 METAR ESMX 251920Z 30009KT CAVOK 18/06 Q1015=
201705251850 METAR ESMX 251850Z 29009KT CAVOK 19/06 Q1014=
201705251820 METAR ESMX 251820Z 29012KT CAVOK 20/07 Q1014=
201705251750 METAR COR ESMX 251750Z 30006KT CAVOK 21/08 Q1014=
201705251720 METAR ESMX 251720Z 29010KT CAVOK 21/07 Q1014=
201705251650 METAR ESMX 251650Z 29010KT CAVOK 21/07 Q1014=
201705251620 METAR ESMX 251620Z 28010KT CAVOK 21/07 Q1014=
201705251550 METAR ESMX 251550Z 29010KT CAVOK 22/06 Q1014=
201705251520 METAR ESMX 251520Z 29009KT 250V330 CAVOK 23/06 Q1014=
201705251450 METAR ESMX 251450Z 31009KT 270V340 CAVOK 23/06 Q1014=
201705251420 METAR ESMX 251420Z 28009KT CAVOK 22/07 Q1014=
201705251350 METAR ESMX 251350Z 28010KT CAVOK 22/07 Q1014=
201705251320 METAR ESMX 251320Z 32006KT 210V350 CAVOK 21/06 Q1015=
201705251250 METAR ESMX 251250Z 28006KT 230V350 CAVOK 22/06 Q1015=
201705251220 METAR ESMX 251220Z 31007KT 260V350 CAVOK 21/07 Q1015=
201705251150 METAR ESMX 251150Z 30006KT 240V010 CAVOK 22/09 Q1015=
201705251120 METAR ESMX 251120Z AUTO 27010KT 230V330 9999 NCD 22/08 Q1015=
201705251050 METAR ESMX 251050Z AUTO 33010KT 9999 NCD 21/08 Q1015=
201705251020 METAR ESMX 251020Z AUTO 31008KT 280V350 9999 NCD 20/08 Q1015=
201705250950 METAR ESMX 250950Z AUTO 28005KT 230V330 9999 NCD 19/08 Q1015=
201705250920 METAR ESMX 250920Z AUTO 28006KT 240V310 9999 NCD 18/09 Q1015=
201705250850 METAR ESMX 250850Z AUTO 30005KT 260V020 9999 NCD 17/09 Q1015=
201705250820 METAR ESMX 250820Z AUTO 24005KT 190V320 9999 NCD 16/09 Q1015=
201705250750 METAR ESMX 250750Z AUTO 26005KT 220V310 9999 NCD 15/09 Q1015=
201705250720 METAR ESMX 250720Z 25004KT 190V330 9999 FEW013 13/09 Q1015=
201705250650 METAR COR ESMX 250650Z 24006KT 200V280 9999 FEW008 12/08 Q1015=
201705250620 METAR ESMX 250620Z 27005KT 210V300 9999 OVC007 11/09 Q1015=
201705250550 METAR ESMX 250550Z 26006KT 9999 OVC006 11/09 Q1015=
201705250520 METAR ESMX 250520Z 28005KT 240V310 9999 BKN005 10/09 Q1015=
201705250450 METAR ESMX 250450Z 30005KT 9999 BKN004 10/09 Q1015=
201705250420 METAR ESMX 250420Z AUTO 27005KT 9999 BR OVC002/// 10/09 Q1015=
201705250350 METAR ESMX 250350Z AUTO 27006KT 240V320 6000 BR OVC001/// 10/09 Q1015=
201705250320 METAR ESMX 250320Z AUTO 24005KT 210V270 6000 BR OVC001/// 09/09 Q1015=
201705250250 METAR ESMX 250250Z AUTO 26006KT 5000 BR OVC002/// 10/09 Q1014=
201705250220 METAR ESMX 250220Z AUTO 26006KT 6000 BR OVC002/// 10/09 Q1015=
201705250150 METAR ESMX 250150Z AUTO 27006KT 9000 BR SCT003/// BKN004/// 10/09 Q1015=
201705250120 METAR ESMX 250120Z AUTO 26004KT 9999 NCD 09/08 Q1015=
201705250050 METAR ESMX 250050Z AUTO 26004KT 240V300 9999 NCD 09/08 Q1015=
201705250020 METAR ESMX 250020Z AUTO 25004KT 9999 NCD 09/08 Q1015=
201705242350 METAR ESMX 242350Z AUTO 24005KT 9999 NCD 09/08 Q1015=
201705242320 METAR ESMX 242320Z AUTO 24004KT 9999 NCD 10/09 Q1015=
201705242250 METAR ESMX 242250Z AUTO 24004KT 9999 NCD 10/09 Q1015=
201705242220 METAR ESMX 242220Z AUTO 25005KT 9999 NCD 11/09 Q1015=
201705242150 METAR ESMX 242150Z 24004KT CAVOK 12/09 Q1015=
201705242120 METAR ESMX 242120Z 23006KT CAVOK 12/09 Q1015=
201705242050 METAR ESMX 242050Z 23006KT CAVOK 13/09 Q1015=
201705242020 METAR ESMX 242020Z 24006KT 210V270 CAVOK 13/09 Q1015=
201705241950 METAR COR ESMX 241950Z 26008KT CAVOK 14/09 Q1015=
201705241920 METAR ESMX 241920Z 26010KT CAVOK 15/10 Q1015=
201705241850 METAR ESMX 241850Z 26008KT 220V280 CAVOK 17/09 Q1014=
201705241820 METAR ESMX 241820Z 26008KT 210V280 CAVOK 18/08 Q1014=
201705241750 METAR ESMX 241750Z 26010KT CAVOK 18/08 Q1014=
201705241720 METAR ESMX 241720Z 27009KT 230V310 CAVOK 19/09 Q1014=
201705241650 METAR ESMX 241650Z 25006KT 220V280 CAVOK 19/10 Q1014=
201705241620 METAR ESMX 241620Z 22007KT CAVOK 18/09 Q1014=
201705241550 METAR ESMX 241550Z 26008KT 230V300 CAVOK 18/10 Q1014=
201705241520 METAR ESMX 241520Z 24010KT 210V280 CAVOK 18/10 Q1014=
201705241450 METAR ESMX 241450Z 26010KT 230V300 9999 FEW043 SCT092 21/08 Q1014=
201705241420 METAR ESMX 241420Z 26009KT 230V300 CAVOK 20/09 Q1014=
201705241350 METAR ESMX 241350Z 26009KT CAVOK 19/08 Q1014=
201705241320 METAR ESMX 241320Z 23006KT 130V300 CAVOK 20/06 Q1014=
201705241250 METAR ESMX 241250Z VRB06KT CAVOK 19/06 Q1014=
201705241220 METAR ESMX 241220Z VRB03KT CAVOK 20/05 Q1014=
201705241150 METAR ESMX 241150Z 35006KT 320V030 CAVOK 19/05 Q1014=
201705241120 METAR ESMX 241120Z 05004KT 020V080 CAVOK 20/05 Q1013=
201705241050 METAR ESMX 241050Z VRB03KT CAVOK 19/05 Q1013=
201705241020 METAR ESMX 241020Z VRB03KT CAVOK 19/06 Q1013=
201705240950 METAR ESMX 240950Z 15004KT 090V210 CAVOK 19/05 Q1013=
201705240920 METAR ESMX 240920Z VRB03KT CAVOK 18/05 Q1013=
201705240850 METAR COR ESMX 240850Z VRB03KT CAVOK 19/05 Q1013=
201705240820 METAR ESMX 240820Z 13004KT 080V230 CAVOK 17/05 Q1013=
201705240750 METAR ESMX 240750Z 17004KT 080V230 CAVOK 17/04 Q1013=
201705240720 METAR ESMX 240720Z 17006KT 140V200 CAVOK 17/06 Q1013=
201705240650 METAR ESMX 240650Z 15005KT 110V180 CAVOK 16/05 Q1013=
201705240620 METAR ESMX 240620Z 17006KT CAVOK 16/05 Q1013=
201705240550 METAR ESMX 240550Z 16003KT 090V200 CAVOK 15/05 Q1012=
201705240520 METAR ESMX 240520Z 00000KT CAVOK 14/06 Q1012=
201705240450 METAR ESMX 240450Z 00000KT CAVOK 13/07 Q1012=
201705240420 METAR ESMX 240420Z VRB02KT CAVOK 09/06 Q1012=
201705240350 METAR ESMX 240350Z VRB02KT CAVOK 05/04 Q1012=
201705240320 METAR ESMX 240320Z AUTO 08002KT 9999 NCD 04/03 Q1012=
201705240250 METAR ESMX 240250Z AUTO 00000KT 9999 NCD 04/03 Q1012=
201705240220 METAR ESMX 240220Z AUTO 00000KT 9999 NCD 04/04 Q1012=
201705240150 METAR ESMX 240150Z AUTO 00000KT 9999 NCD 05/04 Q1012=
201705240120 METAR ESMX 240120Z AUTO 00000KT 9999 NCD 06/04 Q1012=
201705240050 METAR ESMX 240050Z AUTO 00000KT 9999 NCD 06/04 Q1012=
201705240020 METAR ESMX 240020Z AUTO 09002KT 9999 NCD 07/04 Q1012=
201705232350 METAR ESMX 232350Z 00000KT CAVOK 08/04 Q1012=
201705232320 METAR ESMX 232320Z 12002KT CAVOK 09/05 Q1012=
201705232250 METAR ESMX 232250Z 14003KT CAVOK 10/05 Q1012=
201705232220 METAR ESMX 232220Z 10003KT CAVOK 11/05 Q1012=
201705232150 METAR ESMX 232150Z 10003KT 050V150 CAVOK 12/05 Q1012=
201705232120 METAR ESMX 232120Z 10003KT 060V150 CAVOK 13/05 Q1012=
201705232050 METAR ESMX 232050Z 12004KT 070V170 CAVOK 14/06 Q1012=
201705232020 METAR ESMX 232020Z 08004KT 030V110 CAVOK 15/07 Q1012=
201705231950 METAR ESMX 231950Z 00000KT CAVOK 13/07 Q1012=
201705231920 METAR ESMX 231920Z VRB02KT CAVOK 15/07 Q1011=
201705231850 METAR ESMX 231850Z 00000KT CAVOK 16/06 Q1011=
201705231820 METAR ESMX 231820Z 00000KT CAVOK 18/07 Q1011=
201705231750 METAR ESMX 231750Z 02003KT 350V060 CAVOK 19/05 Q1011=
201705231720 METAR ESMX 231720Z 01004KT CAVOK 19/03 Q1011=
201705231650 METAR ESMX 231650Z 33003KT CAVOK 19/04 Q1011=
201705231620 METAR ESMX 231620Z 31004KT CAVOK 19/04 Q1011=
201705231550 METAR ESMX 231550Z 32007KT 300V010 CAVOK 19/04 Q1012=
201705231520 METAR ESMX 231520Z 33005KT CAVOK 19/04 Q1012=
201705231450 METAR ESMX 231450Z 32008KT 300V360 CAVOK 19/05 Q1012=
201705231420 METAR ESMX 231420Z 32008KT CAVOK 19/05 Q1012=
201705231350 METAR ESMX 231350Z 32007KT 260V030 CAVOK 20/05 Q1012=
201705231320 METAR ESMX 231320Z 27006KT 210V330 9999 FEW042 BKN068 19/05 Q1012=
201705231250 METAR ESMX 231250Z 32007KT 290V350 CAVOK 19/05 Q1013=
201705231220 METAR ESMX 231220Z 31007KT CAVOK 18/05 Q1013=
201705231150 METAR ESMX 231150Z 29007KT 230V350 CAVOK 19/04 Q1013=
201705231120 METAR ESMX 231120Z 24007KT 210V270 CAVOK 18/04 Q1013=
201705231050 METAR ESMX 231050Z 28007KT 230V320 CAVOK 18/05 Q1013=
201705231020 METAR ESMX 231020Z 32008KT 270V020 CAVOK 18/04 Q1013=
201705230950 METAR ESMX 230950Z 27007KT 230V310 9999 FEW049 SCT058 18/05 Q1013=
201705230920 METAR ESMX 230920Z 28007KT 230V320 9999 FEW040 SCT050 17/05 Q1014=
201705230850 METAR ESMX 230850Z AUTO 24009KT 200V270 9999 FEW042/// 17/06 Q1014=
201705230820 METAR ESMX 230820Z 28009KT 9999 FEW035 17/06 Q1014=
201705230750 METAR ESMX 230750Z 25008KT 9999 FEW030 16/07 Q1014=
201705230720 METAR ESMX 230720Z 28008KT 230V320 9999 FEW030 15/07 Q1014=
201705230650 METAR ESMX 230650Z 28007KT 9999 FEW027 14/07 Q1014=
201705230620 METAR ESMX 230620Z 27006KT 230V300 CAVOK 14/08 Q1014=
201705230550 METAR ESMX 230550Z 24006KT CAVOK 13/08 Q1014=
201705230520 METAR ESMX 230520Z 23004KT CAVOK 12/08 Q1015=
201705230450 METAR ESMX 230450Z 26005KT CAVOK 11/08 Q1015=
201705230420 METAR ESMX 230420Z VRB01KT CAVOK 09/08 Q1015=
201705230350 METAR ESMX 230350Z 25003KT CAVOK 08/07 Q1015=
201705230320 METAR ESMX 230320Z AUTO 25004KT 9999 NCD 07/06 Q1015=
201705230250 METAR ESMX 230250Z AUTO 25003KT 9999 NCD 07/06 Q1015=
201705230220 METAR ESMX 230220Z AUTO 26004KT 9999 NCD 08/06 Q1015=
201705230150 METAR ESMX 230150Z AUTO 26005KT 9999 NCD 08/06 Q1015=
201705230120 METAR ESMX 230120Z AUTO 26005KT 9999 BKN088/// 08/06 Q1015=
201705230050 METAR ESMX 230050Z AUTO 26004KT 9999 FEW092/// 08/06 Q1015=
201705230020 METAR ESMX 230020Z AUTO 26004KT 9999 NCD 09/06 Q1015=
201705222350 METAR ESMX 222350Z 26004KT CAVOK 09/06 Q1015=
201705222320 METAR ESMX 222320Z 28003KT 260V320 CAVOK 10/06 Q1015=
201705222250 METAR ESMX 222250Z 28003KT CAVOK 10/05 Q1016=
201705222220 METAR ESMX 222220Z 27004KT CAVOK 10/05 Q1016=
201705222150 METAR ESMX 222150Z 26004KT CAVOK 10/05 Q1016=
201705222120 METAR ESMX 222120Z 26005KT CAVOK 11/05 Q1016=
201705222050 METAR ESMX 222050Z 26004KT CAVOK 11/04 Q1016=
201705222020 METAR ESMX 222020Z 26004KT CAVOK 11/04 Q1016=
201705221950 METAR ESMX 221950Z 26004KT CAVOK 12/04 Q1016=
201705221920 METAR ESMX 221920Z 26003KT CAVOK 13/04 Q1016=
201705221850 METAR ESMX 221850Z 28006KT CAVOK 14/04 Q1016=
201705221820 METAR ESMX 221820Z 28007KT CAVOK 15/04 Q1016=
201705221750 METAR ESMX 221750Z 28008KT 240V330 CAVOK 16/04 Q1017=
201705221720 METAR ESMX 221720Z 28008KT 240V320 CAVOK 17/04 Q1017=
201705221650 METAR ESMX 221650Z 28009KT CAVOK 17/04 Q1017=
201705221620 METAR ESMX 221620Z 27010KT 230V300 CAVOK 18/04 Q1017=
201705221550 METAR ESMX 221550Z 27009KT 230V320 CAVOK 18/04 Q1017=
201705221520 METAR ESMX 221520Z 26009KT 230V300 CAVOK 18/05 Q1017=
201705221450 METAR ESMX 221450Z 28010KT CAVOK 19/05 Q1018=
201705221420 METAR ESMX 221420Z 29009KT 260V330 CAVOK 19/04 Q1018=
201705221350 METAR ESMX 221350Z 28009KT 250V320 CAVOK 19/04 Q1018=
201705221320 METAR ESMX 221320Z 26011KT 220V300 CAVOK 20/05 Q1018=
201705221250 METAR COR ESMX 221250Z 30011KT 270V330 CAVOK 19/04 Q1018=
201705221220 METAR ESMX 221220Z 27010KT 240V330 CAVOK 19/03 Q1019=
201705221150 METAR ESMX 221150Z 28011KT CAVOK 19/03 Q1019=
201705221120 METAR ESMX 221120Z 28011KT CAVOK 18/04 Q1019=
201705221050 METAR ESMX 221050Z 29010KT 240V330 CAVOK 18/05 Q1019=
201705221020 METAR ESMX 221020Z 27009KT 230V320 CAVOK 17/04 Q1020=
201705220950 METAR COR ESMX 220950Z 29009KT 250V330 CAVOK 17/05 Q1020=
201705220920 METAR ESMX 220920Z 26009KT 230V310 CAVOK 16/04 Q1020=
201705220850 METAR ESMX 220850Z 29010KT 260V320 CAVOK 15/04 Q1020=
201705220820 METAR ESMX 220820Z 29010KT 260V330 CAVOK 15/05 Q1020=
201705220750 METAR ESMX 220750Z 27008KT 220V320 CAVOK 14/05 Q1020=
201705220720 METAR ESMX 220720Z 27010KT 230V300 CAVOK 14/05 Q1020=
201705220650 METAR ESMX 220650Z 25008KT 220V290 CAVOK 13/06 Q1021=
201705220620 METAR ESMX 220620Z 26007KT CAVOK 12/07 Q1021=
201705220550 METAR ESMX 220550Z 26006KT CAVOK 11/07 Q1021=
201705220520 METAR ESMX 220520Z 26006KT 220V290 CAVOK 10/07 Q1021=
201705220450 METAR ESMX 220450Z 22005KT 180V250 CAVOK 09/07 Q1021=
201705220420 METAR ESMX 220420Z 25004KT CAVOK 08/06 Q1021=
201705220350 METAR ESMX 220350Z 24003KT CAVOK 07/06 Q1021=
201705220320 METAR ESMX 220320Z AUTO 23003KT 9999 NCD 07/06 Q1021=
201705220250 METAR ESMX 220250Z AUTO 25004KT 9999 NCD 07/06 Q1021=
201705220220 METAR ESMX 220220Z AUTO 26003KT 240V300 9999 NCD 08/06 Q1021=
201705220150 METAR ESMX 220150Z AUTO 28003KT 9999 NCD 08/07 Q1021=
201705220120 METAR ESMX 220120Z AUTO 28004KT 9999 NCD 08/07 Q1021=
201705220050 METAR ESMX 220050Z AUTO 25003KT 9999 NCD 07/06 Q1021=
201705220020 METAR ESMX 220020Z AUTO 26003KT 9999 NCD 08/07 Q1022=
201705212350 METAR ESMX 212350Z AUTO 26004KT 9999 NCD 09/07 Q1022=
201705212320 METAR ESMX 212320Z 27005KT CAVOK 09/07 Q1022=
201705212250 METAR ESMX 212250Z 26004KT CAVOK 09/06 Q1022=
201705212220 METAR ESMX 212220Z 27004KT CAVOK 09/06 Q1022=
201705212150 METAR ESMX 212150Z 25003KT CAVOK 09/06 Q1022=
201705212120 METAR ESMX 212120Z 27004KT CAVOK 11/06 Q1022=
201705212050 METAR ESMX 212050Z 26005KT CAVOK 11/05 Q1022=
201705212020 METAR ESMX 212020Z 26004KT CAVOK 12/06 Q1022=
201705211950 METAR ESMX 211950Z 27004KT CAVOK 13/06 Q1022=
201705211920 METAR ESMX 211920Z 27006KT CAVOK 14/06 Q1022=
201705211850 METAR ESMX 211850Z 28008KT CAVOK 15/05 Q1022=
201705211820 METAR ESMX 211820Z 29008KT 240V330 CAVOK 16/05 Q1022=
201705211750 METAR ESMX 211750Z 27009KT CAVOK 17/05 Q1022=
201705211720 METAR ESMX 211720Z 27012KT CAVOK 17/04 Q1022=
201705211650 METAR ESMX 211650Z AUTO 27010KT 9999 NCD 18/04 Q1022=
201705211620 METAR ESMX 211620Z AUTO 28014KT 9999 NCD 18/01 Q1022=
201705211550 METAR ESMX 211550Z 27012KT CAVOK 19/00 Q1022=
201705211520 METAR ESMX 211520Z 27012KT 250V310 CAVOK 19/02 Q1022=
201705211450 METAR ESMX 211450Z 28011KT 250V330 CAVOK 20/03 Q1022=
201705211420 METAR ESMX 211420Z 26013KT 220V290 CAVOK 20/03 Q1022=
201705211350 METAR ESMX 211350Z 26012KT 230V300 CAVOK 20/03 Q1022=
201705211320 METAR ESMX 211320Z 27013KT 240V310 CAVOK 20/03 Q1022=
201705211250 METAR ESMX 211250Z 29011G21KT 250V320 CAVOK 19/04 Q1022=
201705211220 METAR ESMX 211220Z 27010KT CAVOK 20/05 Q1023=
201705211150 METAR ESMX 211150Z 29011KT 250V330 CAVOK 20/05 Q1023=
201705211120 METAR ESMX 211120Z 30012KT 260V330 CAVOK 19/04 Q1023=
201705211050 METAR ESMX 211050Z 28012KT 240V310 CAVOK 19/05 Q1023=
201705211020 METAR ESMX 211020Z AUTO 28011KT 9999 NCD 18/05 Q1023=
201705210950 METAR ESMX 210950Z AUTO 28011KT 9999 NCD 18/04 Q1023=
201705210920 METAR ESMX 210920Z AUTO 30010KT 270V330 9999 NCD 18/04 Q1023=
201705210850 METAR ESMX 210850Z AUTO 31010KT 270V350 9999 NCD 18/06 Q1023=
201705210820 METAR ESMX 210820Z AUTO 30010KT 260V350 9999 NCD 16/06 Q1023=
201705210750 METAR ESMX 210750Z AUTO 30011KT 260V330 9999 NCD 15/06 Q1023=
201705210720 METAR ESMX 210720Z AUTO 31011KT 270V350 9999 NCD 14/06 Q1023=
201705210650 METAR ESMX 210650Z AUTO 30009KT 9999 SCT058/// BKN072/// 13/06 Q1023=
201705210620 METAR ESMX 210620Z AUTO 32012KT 9999 SCT061/// 13/06 Q1022=
201705210550 METAR ESMX 210550Z AUTO 31010KT 260V350 9999 FEW048/// 12/07 Q1022=
201705210520 METAR ESMX 210520Z AUTO 30009KT 270V340 9999 FEW046/// BKN095/// 11/07 Q1022=
201705210450 METAR ESMX 210450Z AUTO 30007KT 9999 SCT041/// BKN098/// 11/07 Q1022=
201705210420 METAR ESMX 210420Z AUTO 30009KT 9999 BKN037/// BKN094/// 11/07 Q1022=
201705210350 METAR ESMX 210350Z AUTO 30008KT 9999 OVC031/// 11/07 Q1022=
201705210320 METAR ESMX 210320Z AUTO 30007KT 9999 OVC026/// 11/07 Q1022=
201705210250 METAR ESMX 210250Z AUTO 31009KT 9999 OVC025/// 11/08 Q1021=
201705210220 METAR ESMX 210220Z AUTO 30007KT 9999 OVC027/// 11/08 Q1021=
201705210150 METAR ESMX 210150Z AUTO 31008KT 270V350 9999 OVC025/// 11/08 Q1021=
201705210120 METAR ESMX 210120Z AUTO 30006KT 9999 OVC024/// 11/08 Q1021=
201705210050 METAR ESMX 210050Z AUTO 31007KT 9999 OVC024/// 11/08 Q1021=
201705210020 METAR ESMX 210020Z AUTO 31007KT 270V340 9999 OVC025/// 11/08 Q1021=
201705202350 METAR ESMX 202350Z AUTO 30008KT 9999 BKN025/// 11/08 Q1021=
201705202320 METAR ESMX 202320Z AUTO 31007KT 9999 SCT015/// 12/08 Q1020=
201705202250 METAR ESMX 202250Z AUTO 30011KT 9999 OVC015/// 12/08 Q1020=
201705202220 METAR ESMX 202220Z AUTO 30008KT 9999 BKN014/// 12/09 Q1020=
201705202150 METAR ESMX 202150Z AUTO 29009KT 9999 BKN014/// 12/09 Q1020=
201705202120 METAR ESMX 202120Z AUTO 30008KT 270V330 9999 BKN014/// 12/09 Q1020=
201705202050 METAR ESMX 202050Z AUTO 27009KT 9999 NCD 12/09 Q1020=
201705202020 METAR ESMX 202020Z AUTO 28008KT 240V330 9999 NCD 13/10 Q1019=
201705201950 METAR ESMX 201950Z AUTO 27008KT 9999 NCD 14/10 Q1019=
201705201920 METAR ESMX 201920Z AUTO 27007KT 9999 FEW017/// 14/10 Q1019=
201705201850 METAR ESMX 201850Z 27009KT CAVOK 15/11 Q1018=
201705201820 METAR ESMX 201820Z 27010KT CAVOK 16/11 Q1018=
201705201750 METAR ESMX 201750Z 26009KT 220V280 9999 FEW030 BKN059 16/11 Q1018=
201705201720 METAR ESMX 201720Z 26010KT 9999 FEW030 BKN058 17/12 Q1017=
201705201650 METAR ESMX 201650Z 25010KT 9999 FEW030 BKN059 19/12 Q1016=
201705201620 METAR ESMX 201620Z 25007KT CAVOK 20/12 Q1016=
201705201550 METAR ESMX 201550Z AUTO 27010KT 240V300 9999 BKN064/// 20/12 Q1016=
201705201520 METAR ESMX 201520Z AUTO 25011KT 9999 SCT072/// 22/13 Q1015=
201705201450 METAR ESMX 201450Z AUTO 26012KT 9999 NCD 23/13 Q1015=
201705201420 METAR ESMX 201420Z AUTO 24009KT 9999 FEW072/// BKN086/// 23/14 Q1014=
201705201350 METAR ESMX 201350Z AUTO 24008KT 9999 SCT083/// 25/13 Q1014=
201705201320 METAR ESMX 201320Z AUTO VRB02KT 9999 FEW068/// SCT092/// 27/10 Q1014=
201705201250 METAR ESMX 201250Z AUTO 19005KT 140V250 9999 FEW068/// SCT082/// 27/11 Q1014=
201705201220 METAR ESMX 201220Z AUTO 17006KT 130V210 9999 FEW071/// 26/10 Q1013=
201705201150 METAR ESMX 201150Z AUTO 17006KT 080V210 9999 FEW071/// 26/10 Q1013=
201705201120 METAR ESMX 201120Z AUTO 16007KT 090V210 9999 NCD 27/11 Q1013=
201705201050 METAR ESMX 201050Z AUTO 14005KT 070V240 9999 NCD 27/09 Q1013=
201705201020 METAR ESMX 201020Z AUTO 15006KT 100V190 9999 NCD 26/10 Q1013=
201705200950 METAR ESMX 200950Z AUTO 14007KT 090V190 9999 NCD 26/08 Q1013=
201705200920 METAR ESMX 200920Z 13005KT 050V190 CAVOK 26/09 Q1013=
201705200850 METAR ESMX 200850Z 06006KT 020V120 CAVOK 26/10 Q1013=
201705200820 METAR ESMX 200820Z 06007KT 020V100 CAVOK 25/10 Q1013=
201705200750 METAR ESMX 200750Z 05006KT 020V090 CAVOK 24/11 Q1013=
201705200720 METAR ESMX 200720Z 06005KT 020V100 CAVOK 22/11 Q1013=
201705200650 METAR ESMX 200650Z 05005KT 010V090 CAVOK 21/11 Q1013=
201705200620 METAR ESMX 200620Z AUTO 05003KT 010V120 3500 NCD 19/11 Q1013=
201705200550 METAR ESMX 200550Z AUTO 04004KT 010V080 6000 NCD 18/10 Q1013=
201705200520 METAR ESMX 200520Z AUTO 04004KT 020V080 6000 NCD 17/10 Q1013=
201705200450 METAR ESMX 200450Z AUTO 02003KT 9999 NCD 15/11 Q1012=
201705200420 METAR ESMX 200420Z AUTO 01002KT 9999 NCD 13/11 Q1012=
201705200350 METAR ESMX 200350Z AUTO 01003KT 9999 NCD 11/10 Q1012=
201705200320 METAR ESMX 200320Z AUTO 01002KT 8000 NCD 10/09 Q1012=
201705200250 METAR ESMX 200250Z AUTO 01002KT 2100 NCD 09/08 Q1012=
201705200220 METAR ESMX 200220Z AUTO 07002KT 9999 NCD 10/08 Q1012=
201705200150 METAR ESMX 200150Z AUTO 05003KT 2600 NCD 10/09 Q1012=
201705200120 METAR ESMX 200120Z AUTO 06001KT 3700 NCD 10/09 Q1012=
201705200050 METAR ESMX 200050Z AUTO 36001KT 9999 NCD 10/09 Q1012=
201705200020 METAR ESMX 200020Z AUTO 01003KT 9999 NCD 11/09 Q1012=
201705192350 METAR ESMX 192350Z AUTO 01003KT 9999 NCD 10/09 Q1012=
201705192320 METAR ESMX 192320Z AUTO 36003KT 9999 NCD 11/09 Q1012=
201705192250 METAR ESMX 192250Z AUTO 00000KT 9999 NCD 12/09 Q1012=
201705192220 METAR ESMX 192220Z AUTO 00000KT 9999 NCD 12/10 Q1012=
201705192150 METAR ESMX 192150Z AUTO 15003KT 9999 NCD 14/10 Q1012=
201705192120 METAR ESMX 192120Z AUTO 16004KT 9999 NCD 13/10 Q1012=
201705192050 METAR ESMX 192050Z AUTO 15004KT 9999 NCD 14/10 Q1012=
201705192020 METAR ESMX 192020Z AUTO 16004KT 9999 NCD 16/10 Q1012=
201705191950 METAR ESMX 191950Z AUTO 17003KT 9999 NCD 17/10 Q1012=
201705191920 METAR ESMX 191920Z 18003KT CAVOK 18/10 Q1011=
201705191850 METAR ESMX 191850Z 15003KT CAVOK 22/10 Q1011=
201705191820 METAR ESMX 191820Z 17008KT CAVOK 23/09 Q1011=
201705191750 METAR ESMX 191750Z 17010KT CAVOK 24/10 Q1011=
201705191720 METAR ESMX 191720Z 18010KT CAVOK 25/10 Q1011=
201705191650 METAR ESMX 191650Z 17011KT CAVOK 26/10 Q1011=
201705191620 METAR ESMX 191620Z 18009KT CAVOK 27/10 Q1010=
201705191550 METAR ESMX 191550Z 15007KT 120V190 CAVOK 28/11 Q1010=
201705191520 METAR ESMX 191520Z 17005KT 100V230 CAVOK 27/11 Q1010=
201705191450 METAR ESMX 191450Z VRB04G15KT CAVOK 27/10 Q1010=
201705191420 METAR ESMX 191420Z 11005KT 050V210 CAVOK 28/11 Q1010=
201705191350 METAR ESMX 191350Z 15006KT 100V190 CAVOK 27/10 Q1011=
201705191320 METAR ESMX 191320Z 13007KT 070V190 CAVOK 27/10 Q1011=
201705191250 METAR ESMX 191250Z 13006KT 080V170 CAVOK 27/10 Q1011=
201705191220 METAR ESMX 191220Z 15006KT 080V200 CAVOK 27/10 Q1011=
201705191150 METAR ESMX 191150Z 15007KT 110V190 CAVOK 26/10 Q1011=
201705191120 METAR ESMX 191120Z 17009KT 140V210 CAVOK 27/10 Q1011=
201705191050 METAR ESMX 191050Z 17009KT 140V210 CAVOK 26/10 Q1011=
201705191020 METAR ESMX 191020Z 16010KT 120V190 CAVOK 26/10 Q1011=
201705190950 METAR ESMX 190950Z 16009KT 120V190 CAVOK 25/10 Q1011=
201705190920 METAR ESMX 190920Z 16010KT CAVOK 25/10 Q1011=
201705190850 METAR ESMX 190850Z 17008KT CAVOK 24/10 Q1011=
201705190820 METAR ESMX 190820Z 16007KT 110V200 CAVOK 23/11 Q1011=
201705190750 METAR ESMX 190750Z 14006KT 090V160 CAVOK 22/10 Q1011=
201705190720 METAR ESMX 190720Z 15006KT 090V190 CAVOK 21/10 Q1011=
201705190650 METAR ESMX 190650Z 13004KT 080V170 CAVOK 20/11 Q1011=
201705190620 METAR ESMX 190620Z 12003KT 060V190 CAVOK 18/10 Q1011=
201705190550 METAR ESMX 190550Z 14004KT 090V170 CAVOK 17/10 Q1011=
201705190520 METAR ESMX 190520Z VRB03KT CAVOK 15/09 Q1011=
201705190450 METAR ESMX 190450Z VRB03KT CAVOK 15/09 Q1012=
201705190420 METAR ESMX 190420Z 15004KT CAVOK 12/10 Q1011=
201705190350 METAR ESMX 190350Z 00000KT CAVOK 08/07 Q1011=
201705190320 METAR ESMX 190320Z AUTO 00000KT 8000 NCD 08/06 Q1011=
201705190250 METAR ESMX 190250Z AUTO 36002KT 9999 NCD 08/07 Q1011=
201705190220 METAR ESMX 190220Z AUTO VRB02KT 9999 NCD 08/07 Q1011=
201705190150 METAR ESMX 190150Z AUTO 00000KT 9999 NCD 08/07 Q1011=
201705190120 METAR ESMX 190120Z AUTO 00000KT 9999 NCD 09/08 Q1012=
201705190050 METAR ESMX 190050Z AUTO VRB01KT 9999 NCD 08/06 Q1012=
201705190020 METAR ESMX 190020Z AUTO 13004KT 090V150 9999 NCD 09/06 Q1012=
201705182350 METAR ESMX 182350Z 00000KT CAVOK 10/07 Q1012=
201705182320 METAR ESMX 182320Z 14004KT CAVOK 15/08 Q1012=
201705182250 METAR ESMX 182250Z 13005KT 100V160 CAVOK 15/08 Q1012=
201705182220 METAR ESMX 182220Z 14004KT 110V170 CAVOK 15/08 Q1012=
201705182150 METAR ESMX 182150Z 15004KT 110V170 CAVOK 14/09 Q1013=
201705182120 METAR ESMX 182120Z 14004KT CAVOK 14/09 Q1013=
201705182050 METAR ESMX 182050Z 16004KT CAVOK 15/09 Q1013=
201705182020 METAR ESMX 182020Z 17004KT CAVOK 17/09 Q1013=
201705181950 METAR ESMX 181950Z 17005KT CAVOK 18/09 Q1013=
201705181920 METAR ESMX 181920Z 16005KT CAVOK 19/09 Q1013=
201705181850 METAR ESMX 181850Z 17006KT 140V200 CAVOK 20/09 Q1013=
201705181820 METAR ESMX 181820Z 15008KT CAVOK 21/09 Q1013=
201705181750 METAR COR ESMX 181750Z 17009KT CAVOK 21/09 Q1013=
201705181720 METAR COR ESMX 181720Z 17011KT CAVOK 22/08 Q1013=
201705181650 METAR ESMX 181650Z 16013KT CAVOK 22/08 Q1013=
201705181620 METAR ESMX 181620Z 16015KT CAVOK 22/09 Q1013=
201705181550 METAR ESMX 181550Z 16013KT 140V200 CAVOK 23/09 Q1013=
201705181520 METAR ESMX 181520Z 18014KT 140V210 CAVOK 23/09 Q1013=
201705181450 METAR ESMX 181450Z 16016KT CAVOK 23/09 Q1013=
201705181420 METAR ESMX 181420Z 17017KT CAVOK 23/09 Q1013=
201705181350 METAR ESMX 181350Z 16013KT CAVOK 24/09 Q1013=
201705181320 METAR ESMX 181320Z 16013KT 120V180 CAVOK 24/07 Q1014=
201705181250 METAR ESMX 181250Z 16013KT CAVOK 23/07 Q1014=
201705181220 METAR ESMX 181220Z 16015KT CAVOK 23/05 Q1014=
201705181150 METAR ESMX 181150Z 17014KT 120V190 CAVOK 24/07 Q1014=
201705181120 METAR ESMX 181120Z 16013KT CAVOK 24/07 Q1014=
201705181050 METAR ESMX 181050Z 18013KT CAVOK 24/07 Q1014=
201705181020 METAR ESMX 181020Z 16013KT CAVOK 23/07 Q1014=
201705180950 METAR ESMX 180950Z 15013KT CAVOK 23/08 Q1015=
201705180920 METAR ESMX 180920Z 16014KT 120V190 CAVOK 22/08 Q1015=
201705180850 METAR ESMX 180850Z 16012KT 110V190 CAVOK 22/08 Q1015=
201705180820 METAR ESMX 180820Z 17013KT CAVOK 21/08 Q1015=
201705180750 METAR ESMX 180750Z 18010KT 140V210 CAVOK 21/09 Q1015=
201705180720 METAR ESMX 180720Z 15009KT CAVOK 20/09 Q1015=
201705180650 METAR ESMX 180650Z 15007KT 120V180 CAVOK 18/09 Q1016=
201705180620 METAR ESMX 180620Z 15008KT CAVOK 17/10 Q1016=
201705180550 METAR ESMX 180550Z 15007KT 120V180 CAVOK 16/09 Q1016=
201705180520 METAR ESMX 180520Z 16006KT CAVOK 15/10 Q1016=
201705180450 METAR ESMX 180450Z 14006KT 110V170 CAVOK 13/10 Q1016=
201705180420 METAR ESMX 180420Z 14004KT 100V170 CAVOK 12/10 Q1016=
201705180350 METAR ESMX 180350Z 14003KT 090V170 CAVOK 11/10 Q1017=
201705180320 METAR ESMX 180320Z AUTO 15003KT 100V190 9999 NCD 12/10 Q1017=
201705180250 METAR ESMX 180250Z AUTO 14004KT 110V180 9999 SCT100/// 12/11 Q1017=
201705180220 METAR ESMX 180220Z AUTO 15004KT 120V180 9999 OVC100/// 13/11 Q1017=
201705180150 METAR ESMX 180150Z AUTO 14004KT 9999 SCT100/// 13/12 Q1017=
201705180120 METAR ESMX 180120Z AUTO 14004KT 4900 BR NCD 12/12 Q1017=
201705180050 METAR ESMX 180050Z AUTO 13003KT 0800 R01/P2000N R19/1400U BR NCD 11/11 Q1018=
201705180020 METAR ESMX 180020Z AUTO VRB03KT 1000 R01/P2000N R19/P2000D BR NCD 12/11 Q1018=
201705172350 METAR ESMX 172350Z 15004KT 120V180 8000 BR NSC 13/12 Q1018=
201705172320 METAR COR ESMX 172320Z 15003KT 120V180 9000 BR NSC 13/12 Q1018=
201705172250 METAR ESMX 172250Z 14004KT CAVOK 14/13 Q1019=
201705172220 METAR ESMX 172220Z 14004KT 100V170 CAVOK 14/13 Q1019=
201705172150 METAR ESMX 172150Z 16004KT CAVOK 15/13 Q1019=
201705172120 METAR ESMX 172120Z 15004KT CAVOK 16/13 Q1019=
201705172050 METAR ESMX 172050Z 16004KT CAVOK 16/13 Q1019=
201705172020 METAR ESMX 172020Z 16004KT 9999 FEW040 SCT060 16/13 Q1019=
201705171950 METAR ESMX 171950Z 15006KT 9999 FEW043 SCT053 17/14 Q1019=
201705171920 METAR ESMX 171920Z 15004KT 110V170 9999 FEW025 BKN045 18/14 Q1019=
201705171850 METAR ESMX 171850Z 16004KT 9999 FEW038 BKN045 18/15 Q1020=
201705171820 METAR ESMX 171820Z 16004KT 9999 FEW024 BKN027 OVC037 18/14 Q1020=
201705171750 METAR ESMX 171750Z 16004KT 9999 FEW030 BKN060 19/14 Q1020=
201705171720 METAR ESMX 171720Z 17004KT 9999 FEW035 BKN060 19/14 Q1020=
201705171650 METAR ESMX 171650Z 19005KT 9999 FEW020 BKN062 19/14 Q1020=
201705171620 METAR ESMX 171620Z 21005KT 170V240 9999 FEW020 BKN043 19/14 Q1020=
201705171550 METAR ESMX 171550Z 21006KT 180V250 9999 SCT019 BKN045 19/14 Q1020=
201705171520 METAR ESMX 171520Z 20006KT 170V250 9999 SCT018 BKN045 19/15 Q1020=
201705171450 METAR ESMX 171450Z AUTO 21007KT 9999 FEW018/// SCT020/// BKN023/// 19/14 Q1021=
201705171420 METAR ESMX 171420Z 21006KT 9999 BKN018 19/14 Q1021=
201705171350 METAR COR ESMX 171350Z 22005KT 170V260 9999 BKN017 19/14 Q1021=
201705171320 METAR ESMX 171320Z 23006KT 9999 BKN013 18/14 Q1022=
201705171250 METAR ESMX 171250Z 23005KT 9999 BKN011 17/14 Q1022=
201705171220 METAR ESMX 171220Z 22006KT 180V270 9999 FEW007 BKN010 17/14 Q1022=
201705171150 METAR ESMX 171150Z 19007KT 9999 BKN007 16/14 Q1022=
201705171120 METAR ESMX 171120Z 19008KT 8000 BR OVC005 15/13 Q1022=
201705171050 METAR ESMX 171050Z 22006KT 7000 BR OVC004 14/13 Q1022=
201705171020 METAR ESMX 171020Z 19008KT 7000 BR OVC004 14/13 Q1022=
201705170950 METAR ESMX 170950Z 20008KT 6000 BR OVC004 14/13 Q1023=
201705170920 METAR ESMX 170920Z 19009KT 7000 BR OVC005 13/12 Q1023=
201705170850 METAR ESMX 170850Z 19007KT 6000 BR OVC004 13/12 Q1023=
201705170820 METAR ESMX 170820Z 21007KT 7000 BR FEW003 OVC004 13/12 Q1023=
201705170750 METAR ESMX 170750Z 22006KT 180V260 5000 -DZ OVC002 12/12 Q1023=
201705170720 METAR ESMX 170720Z 18008KT 6000 -DZ OVC002 11/11 Q1023=
201705170650 METAR ESMX 170650Z 18009KT 5000 -DZ OVC002 11/10 Q1023=
201705170620 METAR ESMX 170620Z 18008KT 7000 -DZ OVC002 10/10 Q1023=
201705170550 METAR ESMX 170550Z 18008KT 8000 -DZ OVC002 10/09 Q1024=
201705170520 METAR ESMX 170520Z 17007KT 9999 -DZ OVC002 09/09 Q1024=
201705170450 METAR ESMX 170450Z 18007KT 9000 -DZ OVC002 09/09 Q1024=
201705170420 METAR ESMX 170420Z 17008KT 5000 -DZ OVC002 09/08 Q1024=
201705170350 METAR ESMX 170350Z 16006KT 5000 -DZ OVC002 08/08 Q1024=
201705170320 METAR ESMX 170320Z AUTO 17006KT 6000 -RA OVC002/// 08/07 Q1024 REDZ=
201705170250 METAR ESMX 170250Z AUTO 17007KT 6000 DZ OVC002/// 08/07 Q1024=
201705170220 METAR ESMX 170220Z AUTO 17008KT 130V200 5000 RA OVC002/// 07/07 Q1025=
201705170150 METAR ESMX 170150Z AUTO 17008KT 130V190 5000 RA BKN003/// OVC007/// 07/06 Q1025=
201705170120 METAR ESMX 170120Z AUTO 16008KT 5000 DZ OVC008/// 07/06 Q1025 RESHUP=
201705170050 METAR ESMX 170050Z AUTO 16008KT 9999 DZ OVC010/// 08/04 Q1026 RESHUP REDZ=
201705170020 METAR ESMX 170020Z AUTO 16006KT 9999 OVC011/// 08/02 Q1026 RESHUP REDZ=
201705162350 METAR ESMX 162350Z 16007KT 9999 BKN015 OVC020 08/01 Q1026=
201705162320 METAR COR ESMX 162320Z 15006KT 110V190 9999 OVC019 08/00 Q1026=
201705162250 METAR ESMX 162250Z 15007KT 120V180 9999 OVC027 09/M00 Q1027=
201705162220 METAR ESMX 162220Z 16008KT 120V190 9999 FEW028 OVC033 09/M00 Q1027=
201705162150 METAR ESMX 162150Z 17008KT 9999 SCT038 BKN070 09/M01 Q1027=
201705162120 METAR ESMX 162120Z 15008KT CAVOK 10/M00 Q1027=
201705162050 METAR ESMX 162050Z 17008KT 9999 BKN047 10/02 Q1028=
201705162020 METAR ESMX 162020Z 17009KT CAVOK 11/03 Q1028=
201705161950 METAR ESMX 161950Z 17007KT CAVOK 11/03 Q1028=
201705161920 METAR ESMX 161920Z 16009KT CAVOK 11/03 Q1028=
201705161850 METAR ESMX 161850Z 17008KT CAVOK 12/03 Q1028=
201705161820 METAR ESMX 161820Z 16009KT CAVOK 13/03 Q1028=
201705161750 METAR ESMX 161750Z 16009KT CAVOK 13/03 Q1028=
201705161720 METAR ESMX 161720Z 17010KT CAVOK 14/03 Q1028=
201705161650 METAR ESMX 161650Z 17010KT CAVOK 14/04 Q1028=
201705161620 METAR ESMX 161620Z 17012KT CAVOK 15/05 Q1028=
201705161550 METAR ESMX 161550Z 18013KT CAVOK 16/05 Q1028=
201705161520 METAR ESMX 161520Z 17011KT CAVOK 16/05 Q1028=
201705161450 METAR ESMX 161450Z 17011KT 9999 SCT040 16/05 Q1028=
201705161420 METAR ESMX 161420Z 15009KT 100V190 9999 SCT042 17/06 Q1028=
201705161350 METAR ESMX 161350Z 16008KT 120V190 9999 SCT040 BKN080 17/05 Q1029=
201705161320 METAR ESMX 161320Z 15009KT 100V200 9999 SCT040 BKN080 17/05 Q1029=
201705161250 METAR ESMX 161250Z 16008KT 120V200 9999 SCT040 BKN080 17/05 Q1029=
201705161220 METAR ESMX 161220Z 15007KT 9999 FEW036 SCT083 16/06 Q1029=
201705161150 METAR ESMX 161150Z 17008KT 9999 R01///// R19/P2000N SCT034 16/06 Q1030=
201705161120 METAR ESMX 161120Z 17006KT 9999 SCT032 16/06 Q1030=
201705161050 METAR ESMX 161050Z 15006KT 9999 BKN031 15/07 Q1030=
201705161020 METAR ESMX 161020Z 15006KT 070V180 9999 SCT030 15/07 Q1030=
201705160950 METAR ESMX 160950Z 16006KT 120V200 9999 SCT030 14/07 Q1030=
201705160920 METAR ESMX 160920Z 13005KT 9999 SCT030 13/06 Q1030=
201705160850 METAR ESMX 160850Z 16005KT 9999 SCT031 12/06 Q1030=
201705160820 METAR ESMX 160820Z VRB05KT 9999 SCT031 12/06 Q1030=
201705160750 METAR COR ESMX 160750Z 12005KT 9999 SCT034 11/05 Q1031=
201705160720 METAR ESMX 160720Z 14005KT 050V190 9999 SCT022 10/05 Q1031=
201705160650 METAR ESMX 160650Z 15006KT 9999 BKN020 09/05 Q1031=
201705160620 METAR ESMX 160620Z 11004KT 060V170 9999 OVC020 08/04 Q1031=
201705160550 METAR ESMX 160550Z 10005KT 060V150 9999 BKN020 08/04 Q1030=
201705160520 METAR ESMX 160520Z 14004KT 9999 BKN020 08/05 Q1030=
201705160450 METAR ESMX 160450Z 11004KT 070V170 9999 BKN019 08/04 Q1030=
201705160420 METAR ESMX 160420Z 13003KT 080V170 9999 BKN018 08/04 Q1030=
201705160350 METAR ESMX 160350Z 11003KT 070V170 9999 BKN020 07/04 Q1030=
201705160320 METAR ESMX 160320Z AUTO 11003KT 070V160 9999 OVC020/// 07/04 Q1030=
201705160250 METAR ESMX 160250Z AUTO 12003KT 060V170 9999 OVC019/// 07/04 Q1030=
201705160220 METAR ESMX 160220Z AUTO 11005KT 050V170 9999 OVC019/// 07/04 Q1030=
201705160150 METAR ESMX 160150Z AUTO 11004KT 070V180 9999 OVC019/// 07/04 Q1029=
201705160120 METAR ESMX 160120Z AUTO 10004KT 050V150 9999 OVC019/// 08/04 Q1029=
201705160050 METAR ESMX 160050Z AUTO 10004KT 050V140 9999 OVC020/// 08/05 Q1029=
201705160020 METAR ESMX 160020Z AUTO 10004KT 060V150 9999 FEW008/// OVC020/// 08/05 Q1029=
201705152350 METAR ESMX 152350Z 11005KT 060V150 9999 FEW009 OVC019 08/06 Q1029=
201705152320 METAR COR ESMX 152320Z 12005KT 070V160 9999 OVC018 09/06 Q1029=
201705152250 METAR COR ESMX 152250Z 11005KT 070V170 9999 OVC018 09/07 Q1029=
201705152220 METAR ESMX 152220Z 10003KT 060V170 9999 OVC017 09/06 Q1029=
201705152150 METAR ESMX 152150Z VRB02KT 9999 BKN018 09/06 Q1028=
201705152120 METAR ESMX 152120Z VRB04KT 9999 FEW010 SCT019 09/06 Q1028=
201705152050 METAR ESMX 152050Z 09006KT 050V130 9999 OVC010 10/07 Q1028=
201705152020 METAR ESMX 152020Z 04008KT 9999 BKN012 BKN088 11/09 Q1028=
201705151950 METAR ESMX 151950Z 10004KT 030V160 9999 BKN030 BKN042 13/10 Q1027=
201705151920 METAR ESMX 151920Z 07004KT 030V130 9999 BKN032 OVC051 14/10 Q1027=
201705151850 METAR ESMX 151850Z 09003KT 050V140 9999 FEW037 BKN054 14/10 Q1026=
201705151820 METAR ESMX 151820Z 07003KT 030V140 9999 SCT041 BKN092 14/11 Q1026=
201705151750 METAR ESMX 151750Z 26004KT 220V300 9999 SCT070TCU 16/10 Q1026=
201705151720 METAR ESMX 151720Z 00000KT 9999 VCSH FEW043CB SCT052 15/11 Q1025 RESHRA=
201705151650 METAR COR ESMX 151650Z 33007KT 9999 SHRA FEW027TCU BKN059 17/07 Q1025=
201705151620 METAR ESMX 151620Z 25008KT CAVOK 18/07 Q1025=
201705151550 METAR ESMX 151550Z 31005KT 270V350 CAVOK 18/06 Q1025=
201705151520 METAR ESMX 151520Z 30008KT 260V330 CAVOK 18/07 Q1025=
201705151450 METAR ESMX 151450Z 29007KT 260V340 CAVOK 19/06 Q1025=
201705151420 METAR ESMX 151420Z 31006KT 280V340 CAVOK 19/06 Q1025=
201705151350 METAR ESMX 151350Z 30007KT 270V330 CAVOK 19/05 Q1025=
201705151320 METAR ESMX 151320Z 26009KT 230V290 CAVOK 20/04 Q1024=
201705151250 METAR ESMX 151250Z 28007KT 210V350 CAVOK 20/04 Q1024=
201705151220 METAR ESMX 151220Z 27008KT 230V300 9999 FEW047 SCT066 20/05 Q1024=
201705151150 METAR ESMX 151150Z 30007KT 9999 FEW046 SCT066 18/06 Q1024=
201705151120 METAR ESMX 151120Z 29007KT 260V320 9999 FEW045 18/05 Q1024=
201705151050 METAR COR ESMX 151050Z 30007KT 260V340 9999 FEW035 18/07 Q1024=
201705151020 METAR ESMX 151020Z 29007KT 250V340 CAVOK 18/09 Q1024=
201705150950 METAR ESMX 150950Z 32007KT 270V030 CAVOK 16/09 Q1024=
201705150920 METAR ESMX 150920Z 31008KT 260V350 9999 FEW018 SCT060 16/09 Q1024=
201705150850 METAR ESMX 150850Z 31007KT 270V010 9999 FEW017 SCT065 16/10 Q1024=
201705150820 METAR ESMX 150820Z 33007KT 270V010 9999 SCT012 15/10 Q1024=
201705150750 METAR ESMX 150750Z 29006KT 260V350 9999 SCT010 14/10 Q1023=
201705150720 METAR ESMX 150720Z 30008KT 9999 BKN010 14/10 Q1023=
201705150650 METAR ESMX 150650Z 31007KT 260V350 9999 SCT010 BKN015 13/10 Q1023=
201705150620 METAR ESMX 150620Z 02003KT 8000 FEW002 SCT004 12/11 Q1022=
201705150550 METAR ESMX 150550Z 32005KT 3000 BR OVC002 11/10 Q1022=
201705150520 METAR ESMX 150520Z 28007KT 0350 R01/0450N R19/0500N FG VV002 10/09 Q1022=
201705150450 METAR ESMX 150450Z 29005KT 0300 R01/0650N R19/0450N FG VV002 09/09 Q1022=
201705150420 METAR ESMX 150420Z 27004KT 240V300 5000 BR FEW002 SCT030 09/09 Q1022=
201705150350 METAR ESMX 150350Z 25004KT 5000 BR NSC 08/08 Q1021=
201705150320 METAR ESMX 150320Z AUTO 26004KT 4300 NCD 07/07 Q1021=
201705150250 METAR ESMX 150250Z AUTO 24004KT 4800 BCFG NCD 06/05 Q1021=
201705150220 METAR ESMX 150220Z AUTO 25002KT 0300 R01/P2000N R19/0550U BR NCD 08/07 Q1021=
201705150150 METAR ESMX 150150Z AUTO 25003KT 0700 R01/P2000N R19/P2000N BR NCD 07/07 Q1021=
201705150120 METAR ESMX 150120Z AUTO 23003KT 1500 NCD 09/08 Q1020=
201705150050 METAR ESMX 150050Z AUTO 26003KT 9999 NCD 09/08 Q1020=
201705150020 METAR ESMX 150020Z AUTO 25003KT 9999 NCD 09/09 Q1020=
201705142350 METAR ESMX 142350Z AUTO 25004KT 9999 FEW048/// SCT062/// 09/08 Q1020=
201705142320 METAR ESMX 142320Z VRB02KT CAVOK 12/09 Q1020=
201705142250 METAR ESMX 142250Z VRB02KT CAVOK 12/10 Q1020=
201705142220 METAR ESMX 142220Z 22003KT CAVOK 12/10 Q1020=
201705142150 METAR ESMX 142150Z 26003KT CAVOK 13/10 Q1020=
201705142120 METAR ESMX 142120Z 23004KT CAVOK 12/09 Q1020=
201705142050 METAR ESMX 142050Z 22004KT 9999 BKN037 14/10 Q1020=
201705142020 METAR ESMX 142020Z 24004KT 200V270 9999 SCT040 BKN050 15/10 Q1019=
201705141950 METAR ESMX 141950Z 25005KT 9999 SCT040 BKN075 15/10 Q1019=
201705141920 METAR ESMX 141920Z 24006KT 9999 SCT040 BKN100 16/10 Q1019=
201705141850 METAR ESMX 141850Z 00000KT 9999 BKN041 16/10 Q1018=
201705141820 METAR ESMX 141820Z 00000KT 9999 SCT040 BKN050 17/10 Q1018=
201705141750 METAR ESMX 141750Z 26002KT 9999 BKN043 18/09 Q1018=
201705141720 METAR ESMX 141720Z 23002KT 9999 FEW048 BKN100 18/09 Q1018=
201705141650 METAR ESMX 141650Z AUTO VRB03KT 9999 FEW048/// SCT100/// 18/08 Q1018=
201705141620 METAR ESMX 141620Z AUTO 22005KT 180V250 9999 NCD 19/07 Q1018=
201705141550 METAR ESMX 141550Z 36005KT CAVOK 18/06 Q1018=
201705141520 METAR ESMX 141520Z VRB02KT CAVOK 18/06 Q1018=
201705141450 METAR ESMX 141450Z 01005KT 320V040 9999 FEW035 18/06 Q1018=
201705141420 METAR ESMX 141420Z 36005KT 9999 FEW035 SCT050 19/07 Q1018=
201705141350 METAR ESMX 141350Z 01004KT 9999 SCT035 BKN045 17/06 Q1018=
201705141320 METAR ESMX 141320Z 32005KT 9999 SCT035 BKN100 16/06 Q1019=
201705141250 METAR ESMX 141250Z 35005KT 9999 FEW035 SCT050 BKN070 15/07 Q1019=
201705141220 METAR ESMX 141220Z 35004KT 9999 FEW020 SCT050 BKN070 15/06 Q1019=
201705141150 METAR ESMX 141150Z VRB03KT 9999 FEW015 BKN070 13/06 Q1019=
201705141120 METAR ESMX 141120Z 34003KT 9999 FEW015 BKN065 13/07 Q1019=
201705141050 METAR ESMX 141050Z VRB03KT 9999 FEW015 BKN060 12/08 Q1018=
201705141020 METAR ESMX 141020Z AUTO VRB02KT 9999 FEW016/// BKN070/// 12/06 Q1018=
201705140950 METAR ESMX 140950Z AUTO 07004KT 040V100 9999 -DZ FEW027/// BKN064/// 10/07 Q1018=
201705140920 METAR ESMX 140920Z AUTO VRB02KT 9999 DZ FEW072/// 10/07 Q1019=
201705140850 METAR ESMX 140850Z AUTO VRB02KT 9999 -RA FEW057/// SCT097/// 12/05 Q1019 REDZ=
201705140820 METAR ESMX 140820Z AUTO 15004KT 070V180 9999 -RA BKN055/// 13/04 Q1019=
201705140750 METAR ESMX 140750Z AUTO 17004KT 150V210 9999 FEW059/// BKN071/// 14/00 Q1019=
201705140720 METAR ESMX 140720Z AUTO 11003KT 060V170 9999 FEW046/// SCT052/// 13/00 Q1018=
201705140650 METAR ESMX 140650Z AUTO VRB02KT 9999 FEW048/// SCT058/// 12/01 Q1018=
201705140620 METAR ESMX 140620Z AUTO VRB01KT 9999 FEW048/// 10/01 Q1018=
201705140550 METAR ESMX 140550Z AUTO 07003KT 010V100 9999 BKN045/// 10/01 Q1018=
201705140520 METAR ESMX 140520Z AUTO VRB02KT 9999 BKN041/// 09/01 Q1018=
201705140450 METAR ESMX 140450Z AUTO 00000KT 9999 FEW041/// 08/01 Q1018=
201705140420 METAR ESMX 140420Z AUTO 03003KT 9999 FEW045/// 07/02 Q1018=
201705140350 METAR ESMX 140350Z AUTO VRB02KT 9999 BKN045/// 06/02 Q1018=
201705140320 METAR ESMX 140320Z AUTO 07003KT 9999 NCD 05/01 Q1018=
201705140250 METAR ESMX 140250Z AUTO 03002KT 9999 NCD 05/01 Q1018=
201705140220 METAR ESMX 140220Z AUTO VRB02KT 9999 NCD 05/00 Q1018=
201705140150 METAR ESMX 140150Z AUTO VRB02KT 9999 NCD 05/00 Q1018=
201705140120 METAR ESMX 140120Z AUTO 08002KT 9999 NCD 06/M00 Q1018=
201705140050 METAR ESMX 140050Z AUTO VRB03KT 9999 NCD 07/M00 Q1018=
201705140020 METAR ESMX 140020Z AUTO VRB02KT 9999 NCD 08/M00 Q1018=
201705132350 METAR ESMX 132350Z AUTO VRB03KT 9999 NCD 09/M00 Q1018=
201705132320 METAR ESMX 132320Z AUTO 13004KT 070V170 9999 NCD 10/M01 Q1018=
201705132250 METAR ESMX 132250Z AUTO 14004KT 080V180 9999 NCD 10/M01 Q1018=
201705132220 METAR ESMX 132220Z AUTO 13004KT 080V160 9999 NCD 11/M00 Q1018=
201705132150 METAR ESMX 132150Z AUTO 13005KT 080V160 9999 NCD 11/01 Q1018=
201705132120 METAR ESMX 132120Z AUTO 13005KT 100V160 9999 NCD 12/01 Q1018=
201705132050 METAR ESMX 132050Z AUTO 14004KT 090V190 9999 NCD 12/00 Q1017=
201705132020 METAR ESMX 132020Z AUTO 13006KT 9999 NCD 13/01 Q1017=
201705131950 METAR ESMX 131950Z AUTO 13007KT 100V190 9999 NCD 13/02 Q1017=
201705131920 METAR ESMX 131920Z AUTO 13006KT 080V170 9999 NCD 14/02 Q1017=
201705131850 METAR ESMX 131850Z 13006KT 080V170 CAVOK 15/01 Q1016=
201705131820 METAR ESMX 131820Z 13005KT 080V170 CAVOK 15/00 Q1016=
201705131750 METAR ESMX 131750Z 13005KT 070V160 CAVOK 16/M00 Q1016=
201705131720 METAR ESMX 131720Z 14006KT 090V170 CAVOK 16/00 Q1015=
201705131650 METAR ESMX 131650Z 14006KT 090V170 CAVOK 17/00 Q1015=
201705131620 METAR ESMX 131620Z 15007KT 100V180 CAVOK 18/00 Q1015=
201705131550 METAR ESMX 131550Z AUTO 15007KT 100V170 9999 NCD 18/01 Q1015=
201705131520 METAR ESMX 131520Z AUTO 12008KT 080V160 9999 NCD 18/00 Q1015=
201705131450 METAR ESMX 131450Z AUTO 12008KT 070V170 9999 NCD 19/01 Q1015=
201705131420 METAR ESMX 131420Z AUTO 15008KT 070V170 9999 BKN062/// 18/01 Q1015=
201705131350 METAR ESMX 131350Z AUTO 13006KT 080V190 9999 SCT062/// 18/01 Q1015=
201705131320 METAR ESMX 131320Z AUTO 13006KT 080V170 9999 FEW064/// 18/01 Q1015=
201705131250 METAR ESMX 131250Z AUTO 11006KT 060V150 9999 FEW059/// 19/01 Q1015=
201705131220 METAR ESMX 131220Z AUTO 12006KT 070V170 9999 FEW054/// 18/02 Q1015=
201705131150 METAR ESMX 131150Z AUTO 10009KT 070V150 9999 FEW052/// 18/02 Q1015=
201705131120 METAR ESMX 131120Z AUTO 14007KT 090V170 9999 FEW051/// 17/02 Q1015=
201705131050 METAR ESMX 131050Z AUTO 15006KT 100V220 9999 NCD 17/02 Q1015=
201705131020 METAR ESMX 131020Z AUTO 12007KT 060V210 9999 NCD 17/02 Q1015=
201705130950 METAR ESMX 130950Z AUTO 14008KT 090V170 9999 NCD 16/01 Q1015=
201705130920 METAR ESMX 130920Z AUTO 15009KT 100V170 9999 NCD 16/01 Q1015=
201705130850 METAR ESMX 130850Z 12007KT 070V160 CAVOK 15/01 Q1015=
201705130820 METAR ESMX 130820Z 07005KT 360V110 CAVOK 14/01 Q1015=
201705130750 METAR ESMX 130750Z 08005KT 030V150 CAVOK 13/01 Q1015=
201705130720 METAR ESMX 130720Z 08006KT 030V110 CAVOK 11/01 Q1015=
201705130650 METAR ESMX 130650Z 06005KT 030V120 CAVOK 09/01 Q1015=
201705130620 METAR ESMX 130620Z AUTO 06006KT 030V090 9999 NCD 08/01 Q1015=
201705130550 METAR ESMX 130550Z AUTO 05007KT 020V090 9999 NCD 07/01 Q1015=
201705130520 METAR ESMX 130520Z AUTO 05008KT 020V080 9999 NCD 06/01 Q1015=
201705130450 METAR ESMX 130450Z AUTO 05007KT 020V080 9999 NCD 05/00 Q1014=
201705130420 METAR ESMX 130420Z AUTO 05006KT 9999 NCD 04/00 Q1015=
201705130350 METAR ESMX 130350Z AUTO 04006KT 010V070 9999 NCD 03/M00 Q1014=
201705130320 METAR ESMX 130320Z AUTO 06005KT 040V100 9999 NCD 03/M00 Q1014=
201705130250 METAR ESMX 130250Z AUTO 06005KT 030V090 9999 NCD 03/M01 Q1014=
201705130220 METAR ESMX 130220Z AUTO 06005KT 9999 NCD 03/M00 Q1014=
201705130150 METAR ESMX 130150Z AUTO 06005KT 9999 NCD 03/M00 Q1014=
201705130120 METAR ESMX 130120Z AUTO 07006KT 030V110 9999 NCD 03/M00 Q1014=
201705130050 METAR ESMX 130050Z AUTO 07004KT 030V100 9999 NCD 03/00 Q1015=
201705130020 METAR ESMX 130020Z AUTO 04005KT 010V090 9999 NCD 03/01 Q1015=
201705122350 METAR ESMX 122350Z AUTO 04007KT 010V080 9999 NCD 03/00 Q1015=
201705122320 METAR ESMX 122320Z AUTO 04005KT 010V080 9999 NCD 04/01 Q1015=
201705122250 METAR ESMX 122250Z AUTO 07006KT 040V120 9999 NCD 04/00 Q1015=
201705122220 METAR ESMX 122220Z AUTO 05006KT 020V120 9999 NCD 04/00 Q1015=
201705122150 METAR ESMX 122150Z AUTO 07005KT 030V120 9999 NCD 05/M00 Q1015=
201705122120 METAR ESMX 122120Z AUTO 07006KT 030V100 9999 NCD 05/M00 Q1015=
201705122050 METAR ESMX 122050Z AUTO 07005KT 030V110 9999 NCD 06/00 Q1014=
201705122020 METAR ESMX 122020Z AUTO 08005KT 050V120 9999 NCD 07/M00 Q1014=
201705121950 METAR ESMX 121950Z AUTO 09004KT 060V130 9999 NCD 07/M00 Q1014=
201705121920 METAR ESMX 121920Z 09005KT 060V130 CAVOK 08/M00 Q1014=
201705121850 METAR ESMX 121850Z 10005KT 050V140 CAVOK 09/M00 Q1013=
201705121820 METAR ESMX 121820Z AUTO 11006KT 070V150 9999 NCD 10/M00 Q1013=
201705121750 METAR ESMX 121750Z 12007KT 060V160 9999 FEW045 11/M00 Q1012=
201705121720 METAR ESMX 121720Z 10006KT 010V150 9999 SCT046 12/00 Q1012=
201705121650 METAR ESMX 121650Z 13006KT 080V180 9999 SCT047 12/00 Q1012=
201705121620 METAR ESMX 121620Z 11005KT 070V170 9999 SCT045 12/00 Q1012=
201705121550 METAR ESMX 121550Z 11007KT 080V170 CAVOK 13/00 Q1012=
201705121520 METAR ESMX 121520Z 10006KT 050V170 CAVOK 12/M00 Q1012=
201705121450 METAR ESMX 121450Z 11008KT 060V170 CAVOK 13/00 Q1012=
201705121420 METAR ESMX 121420Z 12007KT 060V170 CAVOK 13/M00 Q1012=
201705121350 METAR ESMX 121350Z 11007KT 040V170 CAVOK 14/M00 Q1012=
201705121320 METAR COR ESMX 121320Z 08006G17KT 020V150 CAVOK 13/00 Q1012=
201705121250 METAR ESMX 121250Z 11006KT 050V230 CAVOK 13/M01 Q1012=
201705121220 METAR ESMX 121220Z 09008KT 030V150 9999 SCT048 13/M01 Q1012=
201705121150 METAR ESMX 121150Z 12007KT 050V180 9999 SCT048 12/M01 Q1012=
201705121120 METAR ESMX 121120Z 07007KT 010V160 9999 SCT046 12/M01 Q1012=
201705121050 METAR ESMX 121050Z 09006KT 040V160 9999 SCT043 12/M00 Q1012=
201705121020 METAR ESMX 121020Z 06008KT 010V110 CAVOK 11/M00 Q1012=
201705120950 METAR ESMX 120950Z 08007KT 010V120 CAVOK 11/M01 Q1012=
201705120920 METAR ESMX 120920Z 09007KT 030V150 CAVOK 10/M01 Q1012=
201705120850 METAR ESMX 120850Z 07008KT 030V100 CAVOK 10/M01 Q1012=
201705120820 METAR ESMX 120820Z 07008KT 030V120 9999 FEW040 09/M02 Q1012=
201705120750 METAR ESMX 120750Z VRB06KT 9999 SCT040 08/M02 Q1012=
201705120720 METAR ESMX 120720Z 11006KT 050V150 9999 BKN040 07/M02 Q1012=
201705120650 METAR ESMX 120650Z 08006KT 050V120 9999 BKN040 06/M02 Q1012=
201705120620 METAR ESMX 120620Z 08005KT 030V140 9999 BKN040 05/M01 Q1012=
201705120550 METAR ESMX 120550Z 08007KT 050V120 9999 BKN037 04/M00 Q1012=
201705120520 METAR ESMX 120520Z 09005KT 050V150 9999 BKN037 04/00 Q1012=
201705120450 METAR ESMX 120450Z 07005KT 030V140 9999 FEW031 OVC037 04/00 Q1011=
201705120420 METAR ESMX 120420Z 09005KT 050V140 9999 FEW029 OVC039 03/00 Q1011=
201705120350 METAR ESMX 120350Z 09005KT 050V120 9999 FEW027 OVC037 03/00 Q1011=
201705120320 METAR ESMX 120320Z AUTO 07005KT 020V110 9999 BKN026/// OVC038/// 03/00 Q1011=
201705120250 METAR ESMX 120250Z AUTO 06005KT 030V090 9999 OVC026/// 03/00 Q1011=
201705120220 METAR ESMX 120220Z AUTO 09004KT 040V160 9999 OVC023/// 03/00 Q1011=
201705120150 METAR ESMX 120150Z AUTO 08005KT 050V130 9999 FEW039/// OVC054/// 03/00 Q1011=
201705120120 METAR ESMX 120120Z AUTO 08005KT 050V130 9999 BKN037/// BKN053/// 03/00 Q1011=
201705120050 METAR ESMX 120050Z AUTO 09005KT 050V140 9999 FEW022/// OVC034/// 03/00 Q1011=
201705120020 METAR ESMX 120020Z AUTO 09004KT 050V130 9999 SCT021/// BKN028/// OVC033/// 03/00 Q1011=
201705112350 METAR ESMX 112350Z AUTO 08005KT 050V130 9999 OVC020/// 03/01 Q1011=
201705112320 METAR ESMX 112320Z 09004KT 9999 -DZ OVC019 03/01 Q1011=
201705112250 METAR ESMX 112250Z 09004KT 060V140 9999 OVC020 03/01 Q1010=
201705112220 METAR ESMX 112220Z 10004KT 060V140 9999 -RA OVC019 03/01 Q1010=
201705112150 METAR ESMX 112150Z 10004KT 030V150 9999 DZ SCT019 OVC027 03/00 Q1010=
201705112120 METAR ESMX 112120Z 09004KT 010V140 9999 OVC018 03/00 Q1010=
201705112050 METAR ESMX 112050Z 11004KT 080V190 9999 OVC018 03/00 Q1010=
201705112020 METAR ESMX 112020Z 11004KT 070V180 9999 DZ OVC019 03/01 Q1010=
201705111950 METAR ESMX 111950Z 10004KT 050V150 9999 DZ OVC019 03/01 Q1010=
201705111920 METAR ESMX 111920Z 12004KT 080V160 9999 FEW011 OVC019 04/01 Q1010=
201705111850 METAR ESMX 111850Z 10004KT 070V150 9999 OVC012 04/01 Q1009=
201705111820 METAR ESMX 111820Z 10004KT 040V150 9999 FEW010 SCT014 OVC018 04/02 Q1009=
201705111750 METAR ESMX 111750Z 11005KT 050V160 9999 -DZ FEW010 BKN015 OVC019 04/02 Q1009=
201705111720 METAR ESMX 111720Z 13005KT 080V170 7000 -DZ FEW015 SCT018 OVC021 04/02 Q1009=
201705111650 METAR ESMX 111650Z 14006KT 110V170 9999 -DZ SCT010 BKN015 04/02 Q1009=
201705111620 METAR ESMX 111620Z 14007KT 110V170 9999 -DZ SCT012 BKN017 05/02 Q1009=
201705111550 METAR ESMX 111550Z 14006KT 100V160 9999 DZ FEW013 BKN016 05/02 Q1009=
201705111520 METAR ESMX 111520Z 16007KT 9999 DZ FEW017 SCT028 05/01 Q1009=
201705111450 METAR ESMX 111450Z 16007KT 110V200 9999 DZ SCT026 05/01 Q1009=
201705111420 METAR ESMX 111420Z 16007KT 100V200 9999 FEW023 BKN030 06/M00 Q1009=
201705111350 METAR ESMX 111350Z 14007KT 100V180 9999 FEW018 BKN032 07/M02 Q1008=
201705111320 METAR ESMX 111320Z 15009KT 9999 FEW023 BKN035 07/M02 Q1008=
201705111250 METAR ESMX 111250Z 17009KT 140V200 9999 SCT036 07/M02 Q1008=
201705111220 METAR ESMX 111220Z 14009KT 100V180 9999 SCT041 BKN050 07/M03 Q1008=
201705111150 METAR ESMX 111150Z 14009KT 100V190 9999 FEW042 SCT085 07/M04 Q1008=
201705111120 METAR ESMX 111120Z 14009KT 080V180 9999 BKN046 07/M04 Q1008=
201705111050 METAR ESMX 111050Z 12009KT 090V160 9999 FEW026 BKN048 06/M04 Q1008=
201705111020 METAR ESMX 111020Z 16010KT 120V190 9999 FEW030 SCT075 06/M04 Q1008=
201705110950 METAR ESMX 110950Z 13009KT 110V170 9999 FEW026 06/M04 Q1008=
201705110920 METAR ESMX 110920Z 17011KT 130V210 9999 FEW023 SCT042 06/M04 Q1008=
201705110850 METAR ESMX 110850Z 12010KT 080V160 9999 FEW007 SCT025 05/M04 Q1008=
201705110820 METAR ESMX 110820Z 15009KT 100V190 9999 FEW022 SCT030 05/M03 Q1008=
201705110750 METAR COR ESMX 110750Z 14008KT 080V170 9999 FEW044 SCT100 05/M03 Q1008=
201705110720 METAR ESMX 110720Z 14009KT 090V170 9999 FEW025 SCT059 04/M03 Q1008=
201705110650 METAR ESMX 110650Z 14010KT 9999 FEW039 BKN053 04/M02 Q1008=
201705110620 METAR ESMX 110620Z 14009KT 090V200 CAVOK 03/M02 Q1008=
201705110550 METAR ESMX 110550Z 14008KT 100V170 CAVOK 03/M02 Q1007=
201705110520 METAR ESMX 110520Z 14007KT 100V170 CAVOK 02/M02 Q1007=
201705110450 METAR ESMX 110450Z 15006KT 080V180 CAVOK 02/M02 Q1007=
201705110420 METAR ESMX 110420Z 13004KT 070V190 CAVOK 01/M02 Q1007=
201705110350 METAR ESMX 110350Z 12004KT 080V170 CAVOK 01/M01 Q1007=
201705110320 METAR ESMX 110320Z AUTO 11003KT 060V150 9999 NCD M00/M01 Q1007=
201705110250 METAR ESMX 110250Z AUTO 10003KT 060V150 9999 NCD M00/M02 Q1007=
201705110220 METAR ESMX 110220Z AUTO 13003KT 080V180 9999 NCD M00/M02 Q1008=
201705110150 METAR ESMX 110150Z AUTO 14004KT 050V170 9999 NCD 00/M02 Q1008=
201705110120 METAR ESMX 110120Z AUTO 14005KT 080V180 9999 SCT020/// 01/M02 Q1008=
201705110050 METAR ESMX 110050Z AUTO 15005KT 9999 BKN020/// 01/M01 Q1008=
201705110020 METAR ESMX 110020Z AUTO 15005KT 110V170 9999 FEW020/// 01/M01 Q1008=
201705102350 METAR ESMX 102350Z 14006KT 100V170 9999 FEW018 02/M01 Q1008=
201705102320 METAR ESMX 102320Z 15005KT 120V180 9999 FEW018 02/M01 Q1008=
201705102250 METAR ESMX 102250Z 12004KT 080V160 CAVOK 02/M01 Q1008=
201705102220 METAR ESMX 102220Z 15004KT 9999 FEW020 02/M02 Q1008=
201705102150 METAR ESMX 102150Z 15005KT CAVOK 02/M02 Q1008=
201705102120 METAR ESMX 102120Z 14006KT 100V170 CAVOK 03/M02 Q1008=
201705102050 METAR ESMX 102050Z 14006KT 100V170 CAVOK 03/M02 Q1008=
201705102020 METAR ESMX 102020Z 14006KT 110V170 CAVOK 03/M03 Q1008=
201705101950 METAR ESMX 101950Z 16006KT CAVOK 04/M03 Q1008=
201705101920 METAR ESMX 101920Z AUTO 16007KT 120V200 9999 NCD 04/M03 Q1007=
201705101850 METAR ESMX 101850Z 15008KT 120V180 CAVOK 05/M03 Q1007=
201705101820 METAR ESMX 101820Z 15010KT CAVOK 05/M04 Q1007=
201705101750 METAR ESMX 101750Z 16008KT 110V190 CAVOK 06/M03 Q1007=
201705101720 METAR ESMX 101720Z 15009KT CAVOK 06/M04 Q1007=
201705101650 METAR ESMX 101650Z 14009KT 100V170 9999 FEW040 SCT049 06/M04 Q1007=
201705101620 METAR ESMX 101620Z 14008KT 110V170 9999 FEW042 SCT050 06/M03 Q1007=
201705101550 METAR ESMX 101550Z 13008KT 050V160 9999 SCT044 BKN065 07/M04 Q1007=
201705101520 METAR ESMX 101520Z 17008KT 150V210 CAVOK 08/M04 Q1007=
201705101450 METAR ESMX 101450Z 13006KT 090V160 9999 SCT047 08/M04 Q1007=
201705101420 METAR ESMX 101420Z 10007KT 060V140 9999 BKN046 08/M04 Q1007=
201705101350 METAR ESMX 101350Z 15007KT 100V180 CAVOK 07/M05 Q1007=
201705101320 METAR ESMX 101320Z 11006KT 060V160 CAVOK 08/M05 Q1007=
201705101250 METAR ESMX 101250Z VRB04KT CAVOK 08/M05 Q1007=
201705101220 METAR ESMX 101220Z 14006KT 080V170 9999 BKN047 07/M06 Q1007=
201705101150 METAR ESMX 101150Z 18008KT 150V210 9999 BKN045 07/M04 Q1007=
201705101120 METAR ESMX 101120Z 15008KT 090V190 9999 FEW046 BKN055 07/M05 Q1007=
201705101050 METAR ESMX 101050Z 09006G19KT 050V130 9999 BKN045 06/M04 Q1007=
201705101020 METAR ESMX 101020Z 12006KT 030V150 9999 FEW038 BKN050 06/M05 Q1008=
201705100950 METAR ESMX 100950Z 08007KT 020V140 9999 FEW038 BKN046 05/M04 Q1008=
201705100920 METAR ESMX 100920Z 09006KT 060V170 9999 FEW033 BKN039 05/M04 Q1008=
201705100850 METAR ESMX 100850Z 11008KT 050V160 9999 FEW027 SCT031 BKN036 05/M03 Q1008=
201705100820 METAR ESMX 100820Z 13007KT 080V210 9999 FEW028 BKN032 05/M02 Q1008=
201705100750 METAR ESMX 100750Z 12007KT 060V160 9999 FEW029 BKN032 04/M02 Q1008=
201705100720 METAR ESMX 100720Z 10006KT 060V160 9999 FEW020 BKN027 04/M01 Q1008=
201705100650 METAR ESMX 100650Z 12007KT 030V170 9999 BKN020 03/M02 Q1008=
201705100620 METAR ESMX 100620Z 10006KT 050V160 9999 FEW016 BKN022 03/M01 Q1008=
201705100550 METAR ESMX 100550Z 09006KT 050V130 9999 FEW013 BKN025 03/M01 Q1008=
201705100520 METAR ESMX 100520Z 10005KT 050V160 9999 FEW011 BKN023 03/00 Q1008=
201705100450 METAR ESMX 100450Z 08005KT 050V140 9999 FEW011 BKN020 02/M00 Q1008=
201705100420 METAR ESMX 100420Z 09004KT 040V140 9999 FEW013 BKN018 02/M00 Q1008=
201705100350 METAR ESMX 100350Z 09003KT 030V160 9999 BKN014 02/M00 Q1008=
201705100320 METAR ESMX 100320Z AUTO 09003KT 050V130 9999 FEW009/// OVC010/// 02/M00 Q1008=
201705100250 METAR ESMX 100250Z AUTO 10004KT 030V150 9999 OVC008/// 02/M00 Q1008=
201705100220 METAR ESMX 100220Z AUTO 11005KT 070V160 9999 OVC006/// 02/M00 Q1008=
201705100150 METAR ESMX 100150Z AUTO 11004KT 070V150 9999 OVC005/// 02/00 Q1008=
201705100120 METAR ESMX 100120Z AUTO 14004KT 110V200 9999 OVC004/// 02/00 Q1009=
201705100050 METAR ESMX 100050Z AUTO 15005KT 100V200 9999 OVC004/// 01/00 Q1009=
201705100020 METAR ESMX 100020Z AUTO 16004KT 9999 OVC004/// 02/01 Q1009=
201705092350 METAR ESMX 092350Z 13005KT 080V170 9999 OVC004 02/00 Q1009=
201705092320 METAR ESMX 092320Z 14005KT 090V190 9999 OVC004 02/01 Q1009=
201705092250 METAR ESMX 092250Z 14005KT 110V170 9999 OVC004 02/01 Q1010=
201705092220 METAR ESMX 092220Z 14004KT 100V180 9999 BKN004 02/01 Q1010=
201705092150 METAR ESMX 092150Z 12004KT 080V150 9999 OVC004 02/01 Q1010=
201705092120 METAR ESMX 092120Z 13003KT 100V170 9999 BKN004 BKN080 02/01 Q1010=
201705092050 METAR ESMX 092050Z 10004KT 070V140 9999 FEW005 SCT075 BKN095 02/01 Q1011=
201705092020 METAR ESMX 092020Z 13003KT 090V170 CAVOK 03/01 Q1011=
201705091950 METAR ESMX 091950Z 15004KT CAVOK 03/01 Q1011=
201705091920 METAR ESMX 091920Z 15004KT 9999 FEW020 SCT085 BKN100 03/00 Q1011=
201705091850 METAR ESMX 091850Z 16004KT CAVOK 04/01 Q1011=
201705091820 METAR ESMX 091820Z 14003KT 110V180 CAVOK 04/01 Q1011=
201705091750 METAR ESMX 091750Z 22005KT CAVOK 04/01 Q1011=
201705091720 METAR ESMX 091720Z 23006KT CAVOK 04/01 Q1012=
201705091650 METAR ESMX 091650Z 20006KT 9999 FEW030CB BKN080 04/01 Q1012=
201705091620 METAR ESMX 091620Z 20006KT 9999 FEW008 SCT025CB BKN080 04/01 Q1012=
201705091550 METAR ESMX 091550Z 33007G17KT 250V010 9999 -SHRASN FEW005 SCT030CB BKN060 03/M02 Q1013=
201705091520 METAR ESMX 091520Z VRB04KT 9999 VCSH FEW010 SCT035CB BKN060 06/M02 Q1013=
201705091450 METAR ESMX 091450Z VRB02KT 9999 FEW008 SCT030CB SCT050 05/M01 Q1013=
201705091420 METAR ESMX 091420Z 30005KT 220V010 9999 -SHRASN FEW005 BKN040CB 04/M01 Q1013=
201705091350 METAR ESMX 091350Z 35005KT 310V040 9999 VCSH FEW005 SCT040CB BKN060 05/M03 Q1013=
201705091320 METAR ESMX 091320Z 01011KT 330V050 9999 FEW020 SCT045CB BKN060 06/M04 Q1013=
201705091250 METAR ESMX 091250Z 30005KT 240V010 9999 FEW030 SCT040CB BKN060 07/M05 Q1014=
201705091220 METAR ESMX 091220Z 32007KT 260V350 9999 FEW047CB SCT073 08/M05 Q1014=
201705091150 METAR ESMX 091150Z VRB05KT 9999 FEW048CB SCT053 BKN073 07/M04 Q1014=
201705091120 METAR ESMX 091120Z 31004KT 250V020 9999 FEW056CB BKN100 07/M04 Q1015=
201705091050 METAR ESMX 091050Z 29009KT 260V330 9999 FEW008 BKN045CB 06/M03 Q1015=
201705091020 METAR ESMX 091020Z 01011KT 9999 VCSH FEW006 SCT048CB BKN080 07/M04 Q1015=
201705090950 METAR ESMX 090950Z 02009KT 9999 SCT040CB BKN080 06/M06 Q1015=
201705090920 METAR ESMX 090920Z 33010KT 9999 FEW046CB SCT057 BKN067 07/M06 Q1016=
201705090850 METAR ESMX 090850Z 32010KT 270V350 9999 SCT051CB BKN069 06/M06 Q1016=
201705090820 METAR ESMX 090820Z 31008KT 270V350 9999 BKN054CB 06/M06 Q1016=
201705090750 METAR ESMX 090750Z 33007KT 280V020 CAVOK 06/M07 Q1016=
201705090720 METAR ESMX 090720Z 36009KT 320V050 CAVOK 05/M08 Q1016=
201705090650 METAR ESMX 090650Z 35008KT 310V020 CAVOK 05/M05 Q1017=
201705090620 METAR ESMX 090620Z 34006KT 300V040 CAVOK 05/M04 Q1017=
201705090550 METAR ESMX 090550Z 33005KT CAVOK 03/M04 Q1017=
201705090520 METAR ESMX 090520Z 34003KT CAVOK 02/M03 Q1017=
201705090450 METAR ESMX 090450Z 31004KT CAVOK 01/M04 Q1017=
201705090420 METAR ESMX 090420Z 30004KT CAVOK M02/M04 Q1017=
201705090350 METAR ESMX 090350Z 30003KT CAVOK M03/M05 Q1017=
201705090320 METAR ESMX 090320Z AUTO 00000KT 9999 NCD M03/M05 Q1017=
201705090250 METAR ESMX 090250Z AUTO 00000KT 9999 NCD M02/M05 Q1018=
201705090220 METAR ESMX 090220Z AUTO 31003KT 9999 NCD M01/M05 Q1018=
201705090150 METAR ESMX 090150Z AUTO 31003KT 9999 NCD M02/M04 Q1018=
201705090120 METAR ESMX 090120Z AUTO 30004KT 9999 NCD M00/M05 Q1018=
201705090050 METAR ESMX 090050Z AUTO 28005KT 9999 FEW062/// M01/M04 Q1018=
201705090020 METAR ESMX 090020Z AUTO 25003KT 9999 FEW064/// M01/M04 Q1018=
201705082350 METAR ESMX 082350Z 26003KT CAVOK 01/M04 Q1018=
201705082320 METAR ESMX 082320Z 27003KT CAVOK 00/M04 Q1019=
201705082250 METAR ESMX 082250Z 25003KT CAVOK M01/M04 Q1019=
201705082220 METAR ESMX 082220Z 23003KT CAVOK M01/M04 Q1019=
201705082150 METAR ESMX 082150Z 18003KT CAVOK M02/M05 Q1019=
201705082120 METAR ESMX 082120Z 26002KT CAVOK M02/M04 Q1019=
201705082050 METAR ESMX 082050Z VRB01KT CAVOK 02/M04 Q1019=
201705082020 METAR ESMX 082020Z 35006KT CAVOK 02/M04 Q1020=
201705081950 METAR ESMX 081950Z 34008KT CAVOK 04/M03 Q1020=
201705081920 METAR ESMX 081920Z 35007KT 9999 FEW046 BKN063 04/M03 Q1019=
201705081850 METAR ESMX 081850Z 01009KT 9999 FEW048 SCT053 BKN078 05/M03 Q1019=
201705081820 METAR ESMX 081820Z 36013KT 9999 FEW040CB BKN077 05/M04 Q1019=
201705081750 METAR ESMX 081750Z VRB03KT 9999 FEW043CB BKN080 05/M02 Q1019=
201705081720 METAR ESMX 081720Z 35010KT 9999 FEW040CB SCT080 05/M02 Q1019=
201705081650 METAR ESMX 081650Z 34012KT 9999 BKN082CB 05/M02 Q1019=
201705081620 METAR ESMX 081620Z 35007KT 310V020 9999 FEW026CB BKN082 05/M01 Q1019 RESHGS=
201705081550 METAR ESMX 081550Z 36015KT 9999 SHGS FEW009 SCT043CB BKN055 04/M02 Q1019 RESHRA=
201705081520 METAR ESMX 081520Z 35010KT 9999 FEW055CB BKN084 06/M03 Q1018=
201705081450 METAR ESMX 081450Z 35014KT 9999 FEW029CB SCT062 04/M01 Q1019 RESHRA=
201705081420 METAR ESMX 081420Z 05006KT 360V090 9999 SCT054CB 06/M03 Q1018=
201705081350 METAR ESMX 081350Z 01018KT 9999 FEW031CB SCT053 04/M01 Q1019=
201705081320 METAR ESMX 081320Z 36014KT 9999 SCT048CB 07/M04 Q1018=
201705081250 METAR ESMX 081250Z 03013KT 9999 SCT049CB 06/M06 Q1018=
201705081220 METAR ESMX 081220Z 36013KT 9999 FEW040 07/M04 Q1018=
201705081150 METAR COR ESMX 081150Z 36016KT 9999 FEW037CB 08/M04 Q1018=
201705081120 METAR ESMX 081120Z 36017KT 9999 FEW035CB SCT072 08/M04 Q1018=
201705081050 METAR ESMX 081050Z 36015KT 9999 FEW035CB 08/M02 Q1018=
201705081020 METAR ESMX 081020Z 01017KT 9999 SCT030CB 07/M02 Q1017=
201705080950 METAR ESMX 080950Z 01015KT 9999 FEW025CB SCT051 05/M01 Q1017=
201705080920 METAR COR ESMX 080920Z 35017KT 9999 -SHGS FEW025CB SCT070 06/M01 Q1017=
201705080850 METAR ESMX 080850Z 01015KT 9999 VCSH FEW020CB 06/M01 Q1017=
201705080820 METAR ESMX 080820Z 36014KT 9999 FEW016 SCT028 05/00 Q1017=
201705080750 METAR ESMX 080750Z 01012KT 9999 SCT015 SCT070 05/02 Q1016=
201705080720 METAR ESMX 080720Z 02012KT 9999 VCSH FEW007 FEW015CB BKN060 03/01 Q1016=
201705080650 METAR ESMX 080650Z 36013KT 9999 VCSH FEW011 FEW016CB BKN075 03/01 Q1016 RERA=
201705080620 METAR ESMX 080620Z 02013KT 9999 SHRA FEW011 SCT015CB BKN080 03/00 Q1016=
201705080550 METAR ESMX 080550Z 02009KT 9999 SCT011 BKN080 03/01 Q1015=
201705080520 METAR ESMX 080520Z 01010KT 9999 FEW012 BKN065 03/01 Q1015=
201705080450 METAR ESMX 080450Z 02013KT 9999 FEW010 SCT015 BKN041 03/01 Q1015=
201705080420 METAR ESMX 080420Z 01013KT 9999 FEW009 SCT013 BKN035 03/01 Q1015=
201705080350 METAR ESMX 080350Z AUTO 02012KT 9999 FEW011/// SCT013/// BKN020/// 03/01 Q1014=
201705080320 METAR ESMX 080320Z AUTO 36016KT 9999 FEW007/// SCT009/// BKN011/// 04/02 Q1014=
201705080250 METAR ESMX 080250Z AUTO 36011KT 9999 FEW010/// SCT013/// BKN016/// 05/04 Q1014=
201705080220 METAR ESMX 080220Z AUTO 36009KT 9999 FEW024/// BKN027/// BKN032/// 05/04 Q1013=
201705080150 METAR ESMX 080150Z AUTO 35012KT 9999 FEW006/// BKN024/// OVC032/// 06/04 Q1013=
201705080120 METAR ESMX 080120Z AUTO 30003KT 9999 SCT006/// BKN008/// OVC016/// 05/05 Q1013=
201705080050 METAR ESMX 080050Z AUTO 27003KT 9999 -DZ FEW005/// SCT009/// BKN012/// 05/05 Q1013 REDZ=
201705080020 METAR ESMX 080020Z AUTO 25003KT 9999 DZ FEW017/// SCT028/// BKN038/// 05/05 Q1013=
201705072350 METAR ESMX 072350Z AUTO 21002KT 9000 DZ FEW020/// 05/05 Q1013=
201705072320 METAR ESMX 072320Z VRB01KT 9999 -RA BKN024 05/05 Q1014=
201705072250 METAR ESMX 072250Z VRB02KT 9999 -RA SCT025 BKN032 05/05 Q1014=
201705072220 METAR ESMX 072220Z VRB03KT 9999 -RA FEW024 SCT027 06/04 Q1014=
201705072150 METAR ESMX 072150Z 05005KT 9999 -RA FEW022 BKN026 06/04 Q1014=
201705072120 METAR ESMX 072120Z 04006KT 9999 RA FEW018 BKN026 06/04 Q1014=
201705072050 METAR ESMX 072050Z 04008KT 9999 -RA FEW019 SCT025 BKN029 06/05 Q1013=
201705072020 METAR ESMX 072020Z 36005KT 9999 RA FEW025 SCT033 07/06 Q1013=
201705071950 METAR ESMX 071950Z 30003KT 260V350 9999 RA FEW016 BKN036 08/05 Q1013=
201705071920 METAR ESMX 071920Z VRB03KT 9999 -RA SCT048 08/07 Q1013=
201705071850 METAR ESMX 071850Z 35004KT 320V110 9999 -DZ BKN044 09/06 Q1012=
201705071820 METAR ESMX 071820Z 13004KT 9999 BKN043 09/06 Q1012=
201705071750 METAR ESMX 071750Z 13003KT 9999 -RA BKN041 09/06 Q1012=
201705071720 METAR ESMX 071720Z 08003KT 9999 -RA BKN041 09/06 Q1012=
201705071650 METAR ESMX 071650Z AUTO 05003KT 010V090 9999 -RA BKN041/// 09/05 Q1012=
201705071620 METAR ESMX 071620Z AUTO 03006KT 9999 -RA BKN044/// 11/05 Q1012=
201705071550 METAR ESMX 071550Z 02005KT 320V070 9999 -RA FEW026 BKN050 12/04 Q1013=
201705071520 METAR ESMX 071520Z 35009KT 9999 FEW025 BKN055 13/01 Q1013=
201705071450 METAR ESMX 071450Z 31005KT CAVOK 14/01 Q1013=
201705071420 METAR ESMX 071420Z 01005KT 330V060 9999 -RA SCT058 14/M00 Q1013=
201705071350 METAR ESMX 071350Z 03003KT 320V070 CAVOK 14/M00 Q1013=
201705071320 METAR ESMX 071320Z VRB03KT CAVOK 15/M00 Q1013=
201705071250 METAR ESMX 071250Z 03005KT 350V080 CAVOK 15/00 Q1013=
201705071220 METAR ESMX 071220Z 36006KT 330V040 CAVOK 15/M00 Q1013=
201705071150 METAR ESMX 071150Z 36010KT CAVOK 15/01 Q1013=
201705071120 METAR ESMX 071120Z 35008KT 290V020 CAVOK 15/00 Q1014=
201705071050 METAR ESMX 071050Z 01008KT 330V040 CAVOK 14/00 Q1014=
201705071020 METAR ESMX 071020Z AUTO 03008KT 340V060 9999 FEW049/// 14/01 Q1014=
201705070950 METAR ESMX 070950Z AUTO 36009KT 320V030 9999 BKN051/// 14/01 Q1014=
201705070920 METAR ESMX 070920Z AUTO 01007KT 340V060 9999 FEW053/// 14/00 Q1014=
201705070850 METAR ESMX 070850Z AUTO 02006KT 350V150 9999 SCT041/// BKN053/// 13/00 Q1014=
201705070820 METAR ESMX 070820Z AUTO 06008KT 030V100 9999 BKN038/// 12/00 Q1014=
201705070750 METAR ESMX 070750Z AUTO 03006KT 330V110 9999 BKN039/// BKN051/// 11/00 Q1014=
201705070720 METAR ESMX 070720Z AUTO 02006KT 9999 OVC038/// 11/01 Q1014=
201705070650 METAR ESMX 070650Z AUTO 05007KT 010V080 9999 OVC038/// 10/M00 Q1014=
201705070620 METAR ESMX 070620Z AUTO 04006KT 010V080 9999 OVC038/// 09/M00 Q1014=
201705070550 METAR ESMX 070550Z AUTO 05005KT 030V090 9999 BKN039/// BKN058/// 08/M01 Q1014=
201705070520 METAR ESMX 070520Z AUTO 04005KT 360V080 9999 FEW039/// OVC058/// 08/M00 Q1014=
201705070450 METAR ESMX 070450Z AUTO 02004KT 350V070 9999 OVC052/// 07/M00 Q1014=
201705070420 METAR ESMX 070420Z AUTO 05005KT 9999 FEW044/// OVC055/// 07/00 Q1014=
201705070350 METAR ESMX 070350Z AUTO 07004KT 040V120 9999 BKN054/// 07/01 Q1014=
201705070320 METAR ESMX 070320Z AUTO 06004KT 020V090 9999 NCD 06/01 Q1014=
201705070250 METAR ESMX 070250Z AUTO 04003KT 9999 SCT064/// 07/01 Q1014=
201705070220 METAR ESMX 070220Z AUTO 07003KT 030V110 9999 FEW065/// 07/01 Q1014=
201705070150 METAR ESMX 070150Z AUTO 06004KT 030V100 9999 NCD 07/01 Q1014=
201705070120 METAR ESMX 070120Z AUTO 04004KT 010V080 9999 BKN068/// 08/02 Q1014=
201705070050 METAR ESMX 070050Z AUTO 06006KT 010V100 9999 OVC067/// 09/02 Q1014=
201705070020 METAR ESMX 070020Z AUTO 05005KT 360V110 9999 OVC066/// 09/02 Q1014=
201705062350 METAR ESMX 062350Z AUTO 07003KT 030V120 9999 OVC064/// 09/02 Q1014=
201705062320 METAR ESMX 062320Z AUTO 09003KT 050V130 9999 OVC062/// 10/02 Q1014=
201705062250 METAR ESMX 062250Z AUTO 08003KT 050V110 9999 OVC060/// 10/03 Q1014=
201705062220 METAR ESMX 062220Z AUTO 06004KT 360V110 9999 OVC060/// 10/03 Q1014=
201705062150 METAR ESMX 062150Z AUTO 08005KT 050V130 9999 OVC058/// 11/04 Q1014=
201705062120 METAR ESMX 062120Z AUTO 09005KT 050V140 9999 OVC059/// 11/04 Q1014=
201705062050 METAR ESMX 062050Z AUTO 08007KT 040V120 9999 OVC057/// 11/04 Q1014=
201705062020 METAR ESMX 062020Z AUTO 08004KT 050V120 9999 BKN057/// 12/05 Q1014=
201705061950 METAR ESMX 061950Z AUTO 08004KT 030V120 9999 NCD 12/05 Q1014=
201705061920 METAR ESMX 061920Z AUTO 07005KT 020V150 9999 NCD 12/05 Q1014=
201705061850 METAR ESMX 061850Z AUTO 07006KT 030V120 9999 FEW064/// 13/06 Q1014=
201705061820 METAR ESMX 061820Z 08008KT 050V110 CAVOK 15/06 Q1013=
201705061750 METAR ESMX 061750Z 08008KT 040V120 CAVOK 16/06 Q1013=
201705061720 METAR ESMX 061720Z 08007KT 030V120 CAVOK 17/05 Q1013=
201705061650 METAR ESMX 061650Z 09008KT 050V120 CAVOK 18/06 Q1013=
201705061620 METAR ESMX 061620Z 11008KT 070V170 CAVOK 19/06 Q1013=
201705061550 METAR ESMX 061550Z AUTO 10008KT 050V180 9999 NCD 19/06 Q1013=
201705061520 METAR ESMX 061520Z AUTO 07008KT 030V110 9999 BKN082/// 19/06 Q1013=
201705061450 METAR ESMX 061450Z AUTO 09007KT 050V120 9999 FEW072/// BKN083/// 21/06 Q1013=
201705061420 METAR ESMX 061420Z AUTO 05007KT 9999 BKN080/// 21/05 Q1014=
201705061350 METAR ESMX 061350Z AUTO 04007KT 350V080 9999 BKN073/// 22/04 Q1014=
201705061320 METAR ESMX 061320Z AUTO 35009KT 320V040 9999 FEW043/// 22/04 Q1014=
201705061250 METAR ESMX 061250Z AUTO 36004KT 300V060 9999 FEW074/// 22/03 Q1014=
201705061220 METAR ESMX 061220Z 36005KT 320V030 CAVOK 22/03 Q1015=
201705061150 METAR ESMX 061150Z 36005KT 300V070 CAVOK 21/03 Q1015=
201705061120 METAR ESMX 061120Z VRB04KT CAVOK 21/03 Q1016=
201705061050 METAR ESMX 061050Z 35004KT 300V030 CAVOK 21/03 Q1016=
201705061020 METAR ESMX 061020Z 04005KT 360V090 CAVOK 21/02 Q1016=
201705060950 METAR ESMX 060950Z VRB02KT CAVOK 19/01 Q1016=
201705060920 METAR ESMX 060920Z 08003KT 010V130 CAVOK 19/M00 Q1017=
201705060850 METAR ESMX 060850Z 02004KT 330V080 CAVOK 19/M03 Q1017=
201705060820 METAR ESMX 060820Z VRB02KT CAVOK 18/M04 Q1017=
201705060750 METAR ESMX 060750Z 36004KT 300V050 CAVOK 17/M03 Q1017=
201705060720 METAR ESMX 060720Z 01004KT 340V050 CAVOK 16/M03 Q1018=
201705060650 METAR ESMX 060650Z VRB03KT CAVOK 14/00 Q1018=
201705060620 METAR ESMX 060620Z AUTO VRB01KT 9999 NCD 12/01 Q1018=
201705060550 METAR ESMX 060550Z AUTO VRB03KT 9999 NCD 09/02 Q1018=
201705060520 METAR ESMX 060520Z AUTO VRB03KT 9999 NCD 06/03 Q1018=
201705060450 METAR ESMX 060450Z AUTO VRB01KT 9999 NCD 04/02 Q1019=
201705060420 METAR ESMX 060420Z AUTO 00000KT 9999 NCD M00/M01 Q1019=
201705060350 METAR ESMX 060350Z AUTO 00000KT 9999 NCD M00/M01 Q1019=
201705060320 METAR ESMX 060320Z AUTO 00000KT 0400 R01/0900N R19/P2000N FZFG NCD M02/M03 Q1019=
201705060250 METAR ESMX 060250Z AUTO 00000KT 9999 NCD M01/M02 Q1019=
201705060220 METAR ESMX 060220Z AUTO 00000KT 9999 NCD M02/M03 Q1019=
201705060150 METAR ESMX 060150Z AUTO 00000KT 9999 NCD M01/M03 Q1020=
201705060120 METAR ESMX 060120Z AUTO 00000KT 9999 NCD M01/M03 Q1020=
201705060050 METAR ESMX 060050Z AUTO 00000KT 9999 NCD M01/M03 Q1020=
201705060020 METAR ESMX 060020Z AUTO 00000KT 9999 NCD M01/M03 Q1021=
201705052350 METAR ESMX 052350Z AUTO 17002KT 9999 NCD 01/M03 Q1021=
201705052320 METAR ESMX 052320Z AUTO 00000KT 9999 NCD 00/M03 Q1021=
201705052250 METAR ESMX 052250Z AUTO 17002KT 9999 NCD 02/M04 Q1021=
201705052220 METAR ESMX 052220Z AUTO 00000KT 9999 NCD 02/M03 Q1021=
201705052150 METAR ESMX 052150Z AUTO 00000KT 9999 NCD 02/M03 Q1022=
201705052120 METAR ESMX 052120Z AUTO 22001KT 9999 NCD 04/M03 Q1022=
201705052050 METAR ESMX 052050Z AUTO 18002KT 9999 NCD 05/M03 Q1022=
201705052020 METAR ESMX 052020Z AUTO VRB02KT 9999 NCD 07/M04 Q1022=
201705051950 METAR ESMX 051950Z AUTO 17002KT 9999 NCD 08/M04 Q1022=
201705051920 METAR ESMX 051920Z 10003KT CAVOK 11/M03 Q1022=
201705051850 METAR ESMX 051850Z 03004KT CAVOK 12/M02 Q1022=
201705051820 METAR ESMX 051820Z 07002KT CAVOK 15/M05 Q1022=
201705051750 METAR ESMX 051750Z 05005KT 020V080 CAVOK 16/M06 Q1022=
201705051720 METAR ESMX 051720Z 05005KT CAVOK 17/M07 Q1022=
201705051650 METAR ESMX 051650Z 05006KT CAVOK 17/M06 Q1022=
201705051620 METAR ESMX 051620Z 04008KT CAVOK 17/M05 Q1022=
201705051550 METAR ESMX 051550Z 04008KT 360V080 CAVOK 18/M05 Q1023=
201705051520 METAR ESMX 051520Z 04010KT CAVOK 18/M04 Q1023=
201705051450 METAR ESMX 051450Z 02009KT 350V060 CAVOK 18/M04 Q1023=
201705051420 METAR ESMX 051420Z 04009KT 010V090 CAVOK 18/M03 Q1023=
201705051350 METAR ESMX 051350Z 04010KT 010V080 CAVOK 18/M03 Q1024=
201705051320 METAR ESMX 051320Z 04011KT 010V070 CAVOK 17/M03 Q1024=
201705051250 METAR ESMX 051250Z 04009KT 010V080 CAVOK 17/M03 Q1024=
201705051220 METAR ESMX 051220Z 04012KT 9999 FEW045 16/M04 Q1025=
201705051150 METAR ESMX 051150Z 05010KT 020V080 CAVOK 17/M03 Q1025=
201705051120 METAR ESMX 051120Z 04011KT 350V080 CAVOK 16/M03 Q1025=
201705051050 METAR ESMX 051050Z 04011KT 360V080 CAVOK 15/M02 Q1025=
201705051020 METAR ESMX 051020Z 04010KT 010V080 CAVOK 15/M02 Q1026=
201705050950 METAR ESMX 050950Z 04011KT CAVOK 14/M02 Q1026=
201705050920 METAR ESMX 050920Z 04013KT 360V070 CAVOK 14/M01 Q1026=
201705050850 METAR ESMX 050850Z 04011KT 010V070 CAVOK 13/M01 Q1026=
201705050820 METAR ESMX 050820Z 04012KT CAVOK 12/M01 Q1026=
201705050750 METAR ESMX 050750Z 04013KT 010V080 CAVOK 11/M01 Q1027=
201705050720 METAR ESMX 050720Z 04011KT 360V080 CAVOK 10/M01 Q1027=
201705050650 METAR ESMX 050650Z 04014KT 360V070 CAVOK 09/M01 Q1027=
201705050620 METAR ESMX 050620Z 04010KT 010V080 CAVOK 08/M02 Q1027=
201705050550 METAR ESMX 050550Z 04011KT CAVOK 07/M01 Q1027=
201705050520 METAR ESMX 050520Z 04010KT 360V070 CAVOK 06/M02 Q1027=
201705050450 METAR ESMX 050450Z 04011KT 020V080 CAVOK 05/M02 Q1027=
201705050420 METAR ESMX 050420Z 04009KT 360V080 CAVOK 04/M02 Q1027=
201705050350 METAR ESMX 050350Z 04011KT 010V070 CAVOK 04/M02 Q1027=
201705050320 METAR ESMX 050320Z AUTO 04011KT 9999 NCD 04/M02 Q1028=
201705050250 METAR ESMX 050250Z AUTO 04011KT 9999 NCD 04/M02 Q1028=
201705050220 METAR ESMX 050220Z AUTO 04011KT 010V080 9999 NCD 04/M02 Q1028=
201705050150 METAR ESMX 050150Z AUTO 04011KT 010V070 9999 NCD 04/M02 Q1028=
201705050120 METAR ESMX 050120Z AUTO 04010KT 010V080 9999 NCD 04/M02 Q1028=
201705050050 METAR ESMX 050050Z AUTO 04010KT 9999 NCD 04/M02 Q1029=
201705050020 METAR ESMX 050020Z AUTO 04011KT 020V080 9999 NCD 04/M02 Q1029=
201705042350 METAR ESMX 042350Z 04011KT 010V080 CAVOK 05/M02 Q1029=
201705042320 METAR ESMX 042320Z 04011KT 010V070 CAVOK 05/M03 Q1029=
201705042250 METAR ESMX 042250Z 04011KT CAVOK 05/M03 Q1029=
201705042220 METAR ESMX 042220Z AUTO 04011KT 360V070 9999 NCD 05/M03 Q1029=
201705042150 METAR ESMX 042150Z 04011KT 020V080 CAVOK 06/M03 Q1029=
201705042120 METAR ESMX 042120Z 04011KT CAVOK 06/M03 Q1029=
201705042050 METAR ESMX 042050Z 04012KT 360V070 CAVOK 06/M03 Q1030=
201705042020 METAR ESMX 042020Z 04010KT CAVOK 07/M03 Q1030=
201705041950 METAR ESMX 041950Z 04013KT CAVOK 07/M03 Q1030=
201705041920 METAR ESMX 041920Z 04012KT CAVOK 08/M03 Q1030=
201705041850 METAR ESMX 041850Z 04014KT CAVOK 09/M03 Q1030=
201705041820 METAR ESMX 041820Z 05012KT 030V090 CAVOK 09/M03 Q1030=
201705041750 METAR ESMX 041750Z 06014G25KT 030V090 CAVOK 10/M03 Q1029=
201705041720 METAR ESMX 041720Z 06013KT CAVOK 10/M04 Q1029=
201705041650 METAR ESMX 041650Z 05014KT 020V080 CAVOK 11/M04 Q1029=
201705041620 METAR ESMX 041620Z 05017KT CAVOK 12/M04 Q1029=
201705041550 METAR ESMX 041550Z 05014KT 020V080 CAVOK 12/M03 Q1029=
201705041520 METAR ESMX 041520Z 04017KT 010V070 CAVOK 13/M03 Q1029=
201705041450 METAR ESMX 041450Z 04016KT 010V080 CAVOK 13/M03 Q1029=
201705041420 METAR ESMX 041420Z 04016KT 010V080 CAVOK 14/M03 Q1029=
201705041350 METAR ESMX 041350Z 05014KT 020V090 CAVOK 14/M02 Q1029=
201705041320 METAR ESMX 041320Z 05015KT CAVOK 14/M03 Q1029=
201705041250 METAR ESMX 041250Z 04014KT CAVOK 14/M02 Q1030=
201705041220 METAR ESMX 041220Z 05014KT CAVOK 14/M02 Q1030=
201705041150 METAR ESMX 041150Z 06013G23KT 020V110 CAVOK 14/M02 Q1030=
201705041120 METAR ESMX 041120Z 06014G25KT 010V100 CAVOK 13/M02 Q1030=
201705041050 METAR ESMX 041050Z 05017G27KT CAVOK 13/M02 Q1030=
201705041020 METAR ESMX 041020Z 06012KT 030V150 CAVOK 13/M01 Q1030=
201705040950 METAR ESMX 040950Z AUTO 04016KT 010V070 9999 NCD 13/M02 Q1030=
201705040920 METAR ESMX 040920Z 06014G24KT 030V100 CAVOK 12/M02 Q1030=
201705040850 METAR ESMX 040850Z 05014KT CAVOK 12/M02 Q1030=
201705040820 METAR ESMX 040820Z 05013KT CAVOK 11/M02 Q1031=
201705040750 METAR ESMX 040750Z 04013KT 010V080 CAVOK 11/M01 Q1031=
201705040720 METAR ESMX 040720Z 04012KT CAVOK 10/M01 Q1031=
201705040650 METAR ESMX 040650Z 03012KT CAVOK 09/M01 Q1031=
201705040620 METAR ESMX 040620Z 05011KT CAVOK 08/M02 Q1031=
201705040550 METAR ESMX 040550Z 04012KT CAVOK 07/M02 Q1031=
201705040520 METAR ESMX 040520Z 03008KT CAVOK 06/M02 Q1031=
201705040450 METAR ESMX 040450Z 04011KT 010V070 CAVOK 05/M02 Q1031=
201705040420 METAR ESMX 040420Z 04013KT CAVOK 05/M02 Q1031=
201705040350 METAR ESMX 040350Z 04012KT CAVOK 04/M02 Q1031=
201705040320 METAR ESMX 040320Z AUTO 04012KT 9999 NCD 04/M02 Q1031=
201705040250 METAR ESMX 040250Z AUTO 04011KT 010V070 9999 NCD 04/M02 Q1031=
201705040220 METAR ESMX 040220Z AUTO 04009KT 010V080 9999 NCD 04/M02 Q1032=
201705040150 METAR ESMX 040150Z AUTO 04009KT 020V080 9999 NCD 04/M02 Q1032=
201705040120 METAR ESMX 040120Z AUTO 04008KT 9999 NCD 04/M03 Q1032=
201705040050 METAR ESMX 040050Z AUTO 04009KT 9999 NCD 05/M03 Q1032=
201705040020 METAR ESMX 040020Z AUTO 04009KT 360V070 9999 NCD 05/M04 Q1032=
201705032350 METAR ESMX 032350Z 04010KT CAVOK 05/M04 Q1032=
201705032320 METAR ESMX 032320Z 04010KT CAVOK 05/M04 Q1032=
201705032250 METAR ESMX 032250Z 05009KT CAVOK 05/M03 Q1032=
201705032220 METAR ESMX 032220Z 05009KT 030V100 CAVOK 06/M04 Q1032=
201705032150 METAR ESMX 032150Z 05010KT 020V080 CAVOK 06/M03 Q1032=
201705032120 METAR ESMX 032120Z 04010KT CAVOK 07/M04 Q1032=
201705032050 METAR ESMX 032050Z 04008KT CAVOK 07/M03 Q1031=
201705032020 METAR ESMX 032020Z 05010KT CAVOK 08/M03 Q1031=
201705031950 METAR ESMX 031950Z 04009KT CAVOK 08/M03 Q1031=
201705031920 METAR ESMX 031920Z 04006KT 010V080 CAVOK 09/M03 Q1031=
201705031850 METAR ESMX 031850Z 06007KT 030V100 CAVOK 10/M03 Q1031=
201705031820 METAR ESMX 031820Z 04006KT 010V080 CAVOK 10/M03 Q1031=
201705031750 METAR ESMX 031750Z 05008KT 020V090 CAVOK 11/M03 Q1031=
201705031720 METAR ESMX 031720Z 07009KT 010V120 CAVOK 12/M04 Q1030=
201705031650 METAR ESMX 031650Z 06009KT 010V100 CAVOK 12/M04 Q1030=
201705031620 METAR ESMX 031620Z 05010KT 020V110 CAVOK 13/M03 Q1030=
201705031550 METAR ESMX 031550Z 05012KT 010V080 CAVOK 13/M04 Q1030=
201705031520 METAR ESMX 031520Z 05012KT 360V100 CAVOK 14/M04 Q1030=
201705031450 METAR ESMX 031450Z 06011KT 030V140 CAVOK 14/M03 Q1030=
201705031420 METAR ESMX 031420Z 04013KT 020V080 CAVOK 15/M03 Q1030=
201705031350 METAR ESMX 031350Z 06012KT 010V090 CAVOK 15/M03 Q1030=
201705031320 METAR ESMX 031320Z 05013KT 020V080 CAVOK 15/M03 Q1030=
201705031250 METAR ESMX 031250Z AUTO 05014KT 9999 NCD 14/M03 Q1031=
201705031220 METAR ESMX 031220Z 05013KT 020V080 CAVOK 14/M02 Q1031=
201705031150 METAR COR ESMX 031150Z 03013KT 360V070 CAVOK 15/M02 Q1031=
201705031120 METAR ESMX 031120Z 04012KT 020V080 CAVOK 15/M02 Q1031=
201705031050 METAR ESMX 031050Z 05013KT CAVOK 14/M02 Q1031=
201705031020 METAR ESMX 031020Z 04013KT 010V080 CAVOK 14/M02 Q1031=
201705030950 METAR ESMX 030950Z 05012KT 020V080 CAVOK 14/M02 Q1031=
201705030920 METAR ESMX 030920Z 05011KT 020V100 CAVOK 13/M02 Q1031=
201705030850 METAR ESMX 030850Z 05010KT 020V080 CAVOK 13/M03 Q1031=
201705030820 METAR COR ESMX 030820Z 06009KT 030V110 CAVOK 12/M03 Q1031=
201705030750 METAR ESMX 030750Z 04008KT 010V100 CAVOK 11/M03 Q1031=
201705030720 METAR ESMX 030720Z 05009KT CAVOK 10/M02 Q1031=
201705030650 METAR ESMX 030650Z 04008KT 020V080 CAVOK 09/M02 Q1031=
201705030620 METAR ESMX 030620Z 04006KT CAVOK 09/M02 Q1031=
201705030550 METAR ESMX 030550Z 04007KT CAVOK 07/M02 Q1031=
201705030520 METAR COR ESMX 030520Z 04006KT CAVOK 06/M02 Q1031=
201705030450 METAR COR ESMX 030450Z 02005KT CAVOK 05/M01 Q1031=
201705030420 METAR ESMX 030420Z 02005KT CAVOK 03/M01 Q1031=
201705030350 METAR ESMX 030350Z VRB02KT CAVOK 03/M02 Q1030=
201705030320 METAR ESMX 030320Z AUTO 03003KT 9999 NCD 02/M02 Q1030=
201705030250 METAR ESMX 030250Z AUTO 02002KT 9999 NCD 02/M02 Q1030=
201705030220 METAR ESMX 030220Z AUTO 03003KT 9999 NCD 03/M02 Q1030=
201705030150 METAR ESMX 030150Z AUTO 01003KT 9999 NCD 03/M03 Q1030=
201705030120 METAR ESMX 030120Z AUTO 05003KT 010V080 9999 NCD 04/M03 Q1030=
201705030050 METAR ESMX 030050Z AUTO VRB03KT 9999 NCD 05/M03 Q1030=
201705030020 METAR ESMX 030020Z AUTO 06004KT 030V100 9999 NCD 06/M03 Q1030=
201705022350 METAR ESMX 022350Z 05004KT CAVOK 06/M03 Q1030=
201705022320 METAR ESMX 022320Z 05004KT CAVOK 06/M02 Q1030=
201705022250 METAR COR ESMX 022250Z 04003KT CAVOK 04/M01 Q1030=
201705022220 METAR ESMX 022220Z AUTO VRB03KT 9999 NCD 05/M02 Q1029=
201705022150 METAR ESMX 022150Z 05004KT CAVOK 06/M01 Q1029=
201705022120 METAR ESMX 022120Z 06003KT CAVOK 07/M01 Q1029=
201705022050 METAR ESMX 022050Z 07003KT CAVOK 07/M01 Q1029=
201705022020 METAR ESMX 022020Z 06003KT CAVOK 07/M01 Q1028=
201705021950 METAR ESMX 021950Z 05003KT CAVOK 08/M02 Q1028=
201705021920 METAR ESMX 021920Z 06003KT CAVOK 10/M02 Q1028=
201705021850 METAR ESMX 021850Z 04003KT CAVOK 11/M02 Q1028=
201705021820 METAR ESMX 021820Z 08005KT 040V110 CAVOK 12/M03 Q1028=
201705021750 METAR ESMX 021750Z 08007KT 030V130 CAVOK 13/M03 Q1028=
201705021720 METAR ESMX 021720Z 08007KT 030V150 CAVOK 14/M03 Q1027=
201705021650 METAR ESMX 021650Z 08008KT 040V120 CAVOK 14/M04 Q1027=
201705021620 METAR ESMX 021620Z 07009KT 010V110 CAVOK 15/M04 Q1027=
201705021550 METAR ESMX 021550Z 07008KT 030V120 CAVOK 15/M04 Q1027=
201705021520 METAR ESMX 021520Z 06010KT 030V120 CAVOK 15/M05 Q1027=
201705021450 METAR ESMX 021450Z 06010KT 030V110 CAVOK 16/M06 Q1027=
201705021420 METAR ESMX 021420Z 07009KT 030V130 CAVOK 16/M06 Q1027=
201705021350 METAR ESMX 021350Z 05010KT 020V100 CAVOK 16/M06 Q1027=
201705021320 METAR ESMX 021320Z 05009KT 020V120 CAVOK 16/M04 Q1027=
201705021250 METAR ESMX 021250Z 06008KT 020V110 CAVOK 16/M04 Q1028=
201705021220 METAR ESMX 021220Z 08009KT 360V130 CAVOK 15/M04 Q1028=
201705021150 METAR ESMX 021150Z 07007KT 020V130 CAVOK 15/M04 Q1028=
201705021120 METAR ESMX 021120Z 06007KT 350V150 CAVOK 15/M04 Q1028=
201705021050 METAR ESMX 021050Z 07008KT 020V130 CAVOK 14/M03 Q1028=
201705021020 METAR ESMX 021020Z 09008KT 040V130 CAVOK 14/M04 Q1028=
201705020950 METAR ESMX 020950Z 08009KT 020V120 CAVOK 13/M04 Q1029=
201705020920 METAR ESMX 020920Z 08009KT 020V120 CAVOK 12/M04 Q1029=
201705020850 METAR ESMX 020850Z 08008KT 050V120 CAVOK 12/M04 Q1029=
201705020820 METAR ESMX 020820Z 09007KT 010V140 CAVOK 12/M04 Q1029=
201705020750 METAR ESMX 020750Z 08007KT 030V130 CAVOK 11/M03 Q1029=
201705020720 METAR ESMX 020720Z 05006KT 010V080 CAVOK 10/M02 Q1029=
201705020650 METAR ESMX 020650Z 07006KT 030V120 CAVOK 09/M01 Q1028=
201705020620 METAR ESMX 020620Z 06005KT 020V130 CAVOK 08/M01 Q1028=
201705020550 METAR ESMX 020550Z 05005KT CAVOK 06/M02 Q1028=
201705020520 METAR ESMX 020520Z 06005KT 030V110 CAVOK 05/M03 Q1028=
201705020450 METAR ESMX 020450Z 05005KT 020V080 CAVOK 04/M03 Q1028=
201705020420 METAR ESMX 020420Z 05004KT 360V090 CAVOK 02/M03 Q1028=
201705020350 METAR ESMX 020350Z 05003KT 360V080 CAVOK 00/M03 Q1028=
201705020320 METAR ESMX 020320Z AUTO 05003KT 9999 NCD 00/M03 Q1027=
201705020250 METAR ESMX 020250Z AUTO 04004KT 9999 NCD 01/M03 Q1027=
201705020220 METAR ESMX 020220Z AUTO 03003KT 9999 NCD M01/M04 Q1027=
201705020150 METAR ESMX 020150Z AUTO 02003KT 9999 NCD 01/M03 Q1027=
201705020120 METAR ESMX 020120Z AUTO 03004KT 9999 NCD 01/M03 Q1027=
201705020050 METAR ESMX 020050Z AUTO 03004KT 9999 NCD 01/M03 Q1027=
201705020020 METAR ESMX 020020Z AUTO 03003KT 9999 NCD 01/M04 Q1028=
201705012350 METAR ESMX 012350Z AUTO 03003KT 9999 NCD 00/M04 Q1028=
201705012320 METAR ESMX 012320Z 03003KT CAVOK 01/M04 Q1028=
201705012250 METAR ESMX 012250Z 06002KT CAVOK 01/M05 Q1028=
201705012220 METAR ESMX 012220Z 08003KT CAVOK 02/M05 Q1027=
201705012150 METAR ESMX 012150Z 05003KT CAVOK 03/M05 Q1027=
201705012120 METAR ESMX 012120Z 06003KT 020V090 CAVOK 03/M06 Q1027=
201705012050 METAR ESMX 012050Z 08003KT 050V110 CAVOK 04/M06 Q1027=
201705012020 METAR ESMX 012020Z 08005KT 040V120 CAVOK 05/M07 Q1027=
201705011950 METAR ESMX 011950Z 08004KT 040V130 CAVOK 06/M07 Q1026=
201705011920 METAR ESMX 011920Z 08005KT 040V120 CAVOK 07/M08 Q1026=
201705011850 METAR ESMX 011850Z 07006KT 040V110 CAVOK 08/M09 Q1026=
201705011820 METAR ESMX 011820Z 08008KT 040V130 CAVOK 09/M10 Q1026=
201705011750 METAR ESMX 011750Z 10006KT 040V140 CAVOK 10/M08 Q1025=
201705011720 METAR ESMX 011720Z 09009KT 050V140 CAVOK 11/M08 Q1025=
201705011650 METAR ESMX 011650Z 08008KT 030V140 CAVOK 12/M07 Q1025=
201705011620 METAR ESMX 011620Z 06010KT 030V100 CAVOK 12/M07 Q1025=
201705011550 METAR ESMX 011550Z 09008KT 050V160 CAVOK 13/M06 Q1025=
201705011520 METAR ESMX 011520Z 10009KT 060V140 CAVOK 13/M06 Q1024=
201705011450 METAR ESMX 011450Z 07008KT 020V120 CAVOK 13/M06 Q1024=
201705011420 METAR ESMX 011420Z 09008KT 030V140 CAVOK 14/M06 Q1024=
201705011350 METAR ESMX 011350Z 09007KT 040V160 CAVOK 14/M07 Q1024=
201705011320 METAR ESMX 011320Z 07009G21KT 030V140 CAVOK 14/M07 Q1025=
201705011250 METAR ESMX 011250Z 09009KT 030V140 CAVOK 14/M06 Q1025=
201705011220 METAR ESMX 011220Z VRB08KT CAVOK 13/M06 Q1025=
