##########################################################
# Query made at 04/19/2024 21:57:46 UTC
# Time interval: from 06/01/2017 12:00  to 06/30/2017 12:59  UTC
##########################################################

##########################################################
# ESMX, Vaxjo (Sweden)
# WMO index: 02641. WIGOS ID: 0-20000-0-02648
# Latitude 56-51N. Longitude 014-50E. Altitude 199 m.
##########################################################

201706301250 METAR ESMX 301250Z 03013KT 9999 FEW006 BKN010 BKN014 14/12 Q0997=
201706301220 METAR ESMX 301220Z 02013KT 9999 -RA FEW007 SCT008 BKN010 14/12 Q0997=
201706301150 METAR COR ESMX 301150Z 02013KT 9999 -DZ FEW008 OVC010 14/12 Q0997=
201706301120 METAR ESMX 301120Z 03013KT 9999 BKN011 14/12 Q0996=
201706301050 METAR ESMX 301050Z 03015KT 9999 BKN009 OVC013 14/12 Q0996=
201706301020 METAR ESMX 301020Z 02014KT 9999 BKN007 OVC010 14/12 Q0996=
201706300950 METAR ESMX 300950Z 02014KT 9999 -DZ FEW008 BKN009 14/12 Q0996=
201706300920 METAR ESMX 300920Z 01012KT 8000 -DZ FEW006 BKN007 13/12 Q0996=
201706300850 METAR ESMX 300850Z 03014KT 9999 FEW007 BKN008 13/12 Q0995=
201706300820 METAR ESMX 300820Z 03015KT 9999 OVC009 14/12 Q0995=
201706300750 METAR ESMX 300750Z 03013KT 9999 OVC008 14/12 Q0995=
201706300720 METAR ESMX 300720Z 03015G27KT 9999 OVC009 13/12 Q0995=
201706300650 METAR ESMX 300650Z 03014KT 9999 -RA SCT008 OVC011 13/12 Q0995=
201706300620 METAR ESMX 300620Z 01013KT 9999 SCT007 OVC009 13/12 Q0995=
201706300550 METAR ESMX 300550Z 02013KT 9999 FEW006 BKN008 13/12 Q0995=
201706300520 METAR ESMX 300520Z 03013KT 9999 BKN006 13/12 Q0995=
201706300450 METAR ESMX 300450Z 01013KT 9999 FEW006 OVC009 13/12 Q0995=
201706300420 METAR ESMX 300420Z 03015KT 9999 FEW007 SCT009 OVC011 13/12 Q0996=
201706300350 METAR COR ESMX 300350Z 03015KT 9999 -RA FEW006 BKN009 13/12 Q0996=
201706300320 METAR ESMX 300320Z 03014KT 9999 -RA FEW007 BKN009 13/12 Q0996=
201706300250 METAR ESMX 300250Z AUTO 03015G25KT 360V070 9999 -RA FEW008/// SCT009/// BKN011/// 13/12 Q0996=
201706300220 METAR ESMX 300220Z AUTO 03015KT 360V070 9999 -RA OVC008/// 14/12 Q0996=
201706300150 METAR ESMX 300150Z AUTO 03014KT 360V070 9999 FEW008/// OVC009/// 14/12 Q0997=
201706300120 METAR ESMX 300120Z AUTO 04015G26KT 360V060 9999 FEW008/// OVC009/// 14/12 Q0997=
201706300050 METAR COR ESMX 300050Z 04015KT 9999 FEW007 OVC009 14/12 Q0997=
201706300020 METAR ESMX 300020Z 03016G26KT 9999 FEW007 OVC008 14/12 Q0997=
201706292350 METAR ESMX 292350Z 04017KT 9999 -RA BKN007 OVC010 14/12 Q0998=
201706292320 METAR ESMX 292320Z 04016KT 010V070 9999 -RA FEW007 SCT009 OVC010 14/13 Q0998=
201706292250 METAR ESMX 292250Z 03018KT 9999 -RA OVC011 14/12 Q0998=
201706292220 METAR ESMX 292220Z 03014KT 9999 OVC013 15/12 Q0998=
201706292150 METAR ESMX 292150Z 04014KT 010V070 9999 OVC014 14/12 Q0998=
201706292120 METAR ESMX 292120Z 04014KT 9999 OVC015 14/12 Q0999=
201706292050 METAR ESMX 292050Z 04015KT 9999 FEW015 OVC018 14/12 Q0999=
201706292020 METAR ESMX 292020Z 04012KT 9999 FEW014 SCT018 OVC021 14/12 Q0999=
201706291950 METAR ESMX 291950Z 04013KT 020V080 9999 -RA FEW010 SCT017 OVC021 14/12 Q0999=
201706291920 METAR ESMX 291920Z 04012KT 9999 RA OVC010 13/12 Q0999=
201706291850 METAR ESMX 291850Z 04015G26KT 9999 OVC010 14/12 Q0999=
201706291820 METAR ESMX 291820Z 03013KT 9999 FEW009 OVC011 14/12 Q1000=
201706291750 METAR ESMX 291750Z 03014KT 360V060 9999 BKN009 14/12 Q1000=
201706291720 METAR ESMX 291720Z 04015KT 9999 DZ BKN009 14/12 Q1000=
201706291650 METAR ESMX 291650Z 03016KT 9999 BKN008 OVC011 14/12 Q1000=
201706291620 METAR ESMX 291620Z 04013KT 9999 FEW007 OVC009 14/12 Q1000=
201706291550 METAR ESMX 291550Z 04017KT 9999 BKN010 14/12 Q1000=
201706291520 METAR ESMX 291520Z 04012KT 9999 SCT012 BKN017 OVC025 14/12 Q1000=
201706291450 METAR ESMX 291450Z 04015KT 9999 -RA BKN019 BKN027 14/12 Q1000=
201706291420 METAR ESMX 291420Z 04015KT 9999 -RA SCT023 BKN029 15/12 Q1001=
201706291350 METAR ESMX 291350Z 06016G27KT 9999 BKN027 OVC033 17/10 Q1001=
201706291320 METAR ESMX 291320Z 05015KT 9999 OVC028 17/10 Q1001=
201706291250 METAR ESMX 291250Z 05019G32KT 030V100 9999 BKN030 BKN040 18/10 Q1001=
201706291220 METAR ESMX 291220Z 05017KT 9999 BKN032 18/10 Q1000=
201706291150 METAR ESMX 291150Z 06017G27KT 020V090 9999 BKN032 19/10 Q1001=
201706291120 METAR COR ESMX 291120Z 05015G25KT 020V100 9999 BKN033 19/11 Q1001=
201706291050 METAR ESMX 291050Z 06014G27KT 020V110 9999 BKN037 19/10 Q1001=
201706291020 METAR ESMX 291020Z 07014G28KT 030V120 9999 FEW038 BKN046 19/11 Q1001=
201706290950 METAR ESMX 290950Z 05014G28KT 010V090 9999 SCT034 20/11 Q1001=
201706290920 METAR ESMX 290920Z 06013KT 030V110 9999 FEW034 20/12 Q1001=
201706290850 METAR ESMX 290850Z 06012KT 010V100 CAVOK 18/11 Q1001=
201706290820 METAR ESMX 290820Z 06011KT 030V090 CAVOK 17/10 Q1001=
201706290750 METAR ESMX 290750Z 05010KT CAVOK 17/10 Q1001=
201706290720 METAR ESMX 290720Z 05011KT 020V080 CAVOK 17/09 Q1001=
201706290650 METAR ESMX 290650Z 05012KT 020V090 CAVOK 16/09 Q1001=
201706290620 METAR ESMX 290620Z 06009KT 030V110 CAVOK 16/09 Q1002=
201706290550 METAR ESMX 290550Z 05010KT 020V080 CAVOK 16/08 Q1002=
201706290520 METAR ESMX 290520Z 05011KT 030V090 CAVOK 15/08 Q1002=
201706290450 METAR ESMX 290450Z 05010KT 010V090 CAVOK 14/08 Q1003=
201706290420 METAR ESMX 290420Z 05010KT CAVOK 14/08 Q1003=
201706290350 METAR ESMX 290350Z 05009KT 030V100 9999 FEW037 BKN070 14/08 Q1003=
201706290320 METAR ESMX 290320Z AUTO 03009KT 360V080 9999 FEW077/// SCT091/// 14/08 Q1004=
201706290250 METAR ESMX 290250Z AUTO 05011KT 030V090 9999 FEW081/// 14/09 Q1004=
201706290220 METAR ESMX 290220Z AUTO 05009KT 030V100 9999 FEW050/// 13/08 Q1004=
201706290150 METAR ESMX 290150Z AUTO 05009KT 360V090 9999 FEW050/// 13/08 Q1004=
201706290120 METAR ESMX 290120Z AUTO 06009KT 030V100 9999 NCD 14/08 Q1004=
201706290050 METAR ESMX 290050Z AUTO 06010KT 020V100 9999 NCD 14/08 Q1004=
201706290020 METAR ESMX 290020Z AUTO 06012KT 030V090 9999 NCD 14/07 Q1005=
201706282350 METAR ESMX 282350Z 07010KT 010V090 CAVOK 14/07 Q1005=
201706282320 METAR ESMX 282320Z 04009KT 010V090 CAVOK 14/06 Q1006=
201706282250 METAR ESMX 282250Z 05008KT 360V100 CAVOK 14/06 Q1006=
201706282220 METAR ESMX 282220Z 05008KT 030V090 CAVOK 14/07 Q1006=
201706282150 METAR ESMX 282150Z 07008G18KT 030V110 CAVOK 14/07 Q1007=
201706282120 METAR ESMX 282120Z 07008KT 030V130 CAVOK 14/06 Q1006=
201706282050 METAR ESMX 282050Z 07007KT 030V120 CAVOK 14/06 Q1007=
201706282020 METAR ESMX 282020Z 08007KT 020V120 CAVOK 14/05 Q1007=
201706281950 METAR ESMX 281950Z 07007KT 030V120 CAVOK 15/04 Q1007=
201706281920 METAR ESMX 281920Z 06008KT 010V100 CAVOK 15/04 Q1007=
201706281850 METAR ESMX 281850Z 06008KT 020V100 CAVOK 16/04 Q1007=
201706281820 METAR ESMX 281820Z 06008KT 020V120 CAVOK 16/04 Q1007=
201706281750 METAR ESMX 281750Z 09008KT 060V140 CAVOK 17/04 Q1007=
201706281720 METAR ESMX 281720Z 09009KT 050V130 CAVOK 18/04 Q1007=
201706281650 METAR ESMX 281650Z VRB08KT CAVOK 18/04 Q1007=
201706281620 METAR ESMX 281620Z 11009KT 060V170 9999 FEW043 19/04 Q1008=
201706281550 METAR ESMX 281550Z 09010KT 050V140 CAVOK 19/04 Q1008=
201706281520 METAR ESMX 281520Z 11009KT 050V150 CAVOK 19/04 Q1008=
201706281450 METAR ESMX 281450Z 08008KT 030V130 CAVOK 20/04 Q1008=
201706281420 METAR ESMX 281420Z 11009G20KT 060V170 CAVOK 20/04 Q1008=
201706281350 METAR ESMX 281350Z 11009G19KT 060V170 CAVOK 19/03 Q1008=
201706281320 METAR ESMX 281320Z 10010G21KT 050V150 CAVOK 19/03 Q1009=
201706281250 METAR ESMX 281250Z 10009KT 040V140 CAVOK 19/04 Q1009=
201706281220 METAR ESMX 281220Z 10008KT 9999 FEW041 18/04 Q1009=
201706281150 METAR ESMX 281150Z 11009KT 050V170 CAVOK 18/04 Q1009=
201706281120 METAR ESMX 281120Z 11007KT CAVOK 18/05 Q1009=
201706281050 METAR ESMX 281050Z 13007KT CAVOK 19/06 Q1009=
201706281020 METAR ESMX 281020Z 14007KT 080V190 CAVOK 18/04 Q1009=
201706280950 METAR ESMX 280950Z 11008KT 030V170 CAVOK 18/04 Q1009=
201706280920 METAR ESMX 280920Z 10007KT CAVOK 18/05 Q1009=
201706280850 METAR ESMX 280850Z 09007KT 050V140 CAVOK 19/07 Q1010=
201706280820 METAR ESMX 280820Z 12006KT 070V170 CAVOK 18/07 Q1009=
201706280750 METAR ESMX 280750Z 13006KT 070V180 CAVOK 17/08 Q1010=
201706280720 METAR ESMX 280720Z 13005KT CAVOK 17/09 Q1010=
201706280650 METAR ESMX 280650Z 13005KT 080V170 CAVOK 16/10 Q1010=
201706280620 METAR ESMX 280620Z 14006KT 090V170 CAVOK 15/09 Q1010=
201706280550 METAR ESMX 280550Z VRB03KT CAVOK 15/10 Q1010=
201706280520 METAR ESMX 280520Z 08004KT CAVOK 13/09 Q1010=
201706280450 METAR ESMX 280450Z 05005KT CAVOK 13/09 Q1009=
201706280420 METAR ESMX 280420Z 04004KT CAVOK 13/08 Q1010=
201706280350 METAR ESMX 280350Z 04005KT CAVOK 12/08 Q1010=
201706280320 METAR ESMX 280320Z AUTO 04004KT 9999 OVC100/// 13/07 Q1010=
201706280250 METAR ESMX 280250Z AUTO 08004KT 050V110 9999 OVC100/// 12/07 Q1010=
201706280220 METAR ESMX 280220Z AUTO 07004KT 9999 OVC100/// 12/07 Q1010=
201706280150 METAR ESMX 280150Z AUTO 03003KT 9999 OVC110/// 11/08 Q1010=
201706280120 METAR ESMX 280120Z AUTO 01001KT 9999 OVC110/// 10/08 Q1010=
201706280050 METAR ESMX 280050Z AUTO 00000KT 9999 OVC110/// 10/08 Q1010=
201706280020 METAR ESMX 280020Z AUTO VRB02KT 9999 OVC110/// 10/09 Q1010=
201706272350 METAR ESMX 272350Z 29001KT CAVOK 10/09 Q1010=
201706272320 METAR ESMX 272320Z 33002KT CAVOK 10/08 Q1010=
201706272250 METAR ESMX 272250Z 27002KT CAVOK 10/09 Q1011=
201706272220 METAR ESMX 272220Z 35002KT CAVOK 10/08 Q1011=
201706272150 METAR ESMX 272150Z 26002KT CAVOK 12/09 Q1010=
201706272120 METAR ESMX 272120Z 26004KT CAVOK 11/09 Q1011=
201706272050 METAR ESMX 272050Z 24003KT CAVOK 12/09 Q1010=
201706272020 METAR ESMX 272020Z 31003KT CAVOK 13/09 Q1010=
201706271950 METAR ESMX 271950Z 30003KT CAVOK 13/09 Q1010=
201706271920 METAR ESMX 271920Z 29003KT CAVOK 15/09 Q1010=
201706271850 METAR ESMX 271850Z 27005KT 240V320 CAVOK 17/09 Q1010=
201706271820 METAR ESMX 271820Z 28005KT CAVOK 17/09 Q1009=
201706271750 METAR ESMX 271750Z 30006KT 260V330 CAVOK 18/09 Q1009=
201706271720 METAR ESMX 271720Z 29007KT 250V320 CAVOK 18/09 Q1009=
201706271650 METAR ESMX 271650Z 26008KT 220V280 9999 FEW042 19/09 Q1009=
201706271620 METAR ESMX 271620Z 26008KT 9999 FEW041 18/09 Q1009=
201706271550 METAR ESMX 271550Z 30005KT 250V340 9999 SCT042 19/08 Q1010=
201706271520 METAR ESMX 271520Z 33006KT 300V360 CAVOK 18/09 Q1010=
201706271450 METAR ESMX 271450Z 35005KT CAVOK 18/08 Q1010=
201706271420 METAR ESMX 271420Z 32004KT 270V360 CAVOK 18/08 Q1010=
201706271350 METAR ESMX 271350Z 27007KT 230V320 CAVOK 19/07 Q1010=
201706271320 METAR ESMX 271320Z 27006KT 200V310 CAVOK 19/06 Q1009=
201706271250 METAR ESMX 271250Z 26007KT 210V320 CAVOK 19/06 Q1009=
201706271220 METAR ESMX 271220Z VRB03KT 9999 SCT040 18/08 Q1009=
201706271150 METAR COR ESMX 271150Z 32004KT 280V010 9999 SCT040 17/08 Q1009=
201706271120 METAR COR ESMX 271120Z 23007KT 190V260 9999 FEW035 SCT045 18/08 Q1009=
201706271050 METAR ESMX 271050Z 28006KT 250V340 9999 FEW041 SCT061 17/08 Q1010=
201706271020 METAR COR ESMX 271020Z 27007KT 230V340 9999 SCT033 17/08 Q1009=
201706270950 METAR ESMX 270950Z 29007KT 250V330 9999 FEW032 17/10 Q1009=
201706270920 METAR ESMX 270920Z 28009KT 250V330 9999 FEW025 SCT040 16/08 Q1009=
201706270850 METAR ESMX 270850Z 27011KT 9999 SCT025 BKN035 15/09 Q1009=
201706270820 METAR ESMX 270820Z 25006KT 220V290 9999 BKN025 14/09 Q1009=
201706270750 METAR ESMX 270750Z AUTO 26007KT 230V300 9999 FEW180/// 14/08 Q1009=
201706270720 METAR ESMX 270720Z 25007KT 9999 FEW016 BKN020 13/09 Q1008=
201706270650 METAR ESMX 270650Z 26008KT 220V290 9999 BKN016 13/08 Q1008=
201706270620 METAR ESMX 270620Z 27008KT 230V300 9999 BKN015 12/08 Q1008=
201706270550 METAR ESMX 270550Z 26008KT 9999 BKN015 12/08 Q1007=
201706270520 METAR ESMX 270520Z 26009KT 9999 SCT015 11/08 Q1007=
201706270450 METAR ESMX 270450Z 24007KT CAVOK 11/08 Q1007=
201706270420 METAR ESMX 270420Z 24007KT CAVOK 09/07 Q1007=
201706270350 METAR ESMX 270350Z 22008KT 9999 FEW042 09/06 Q1007=
201706270320 METAR ESMX 270320Z AUTO 22005KT 9999 NCD 08/06 Q1007=
201706270250 METAR ESMX 270250Z AUTO 23006KT 9999 NCD 08/06 Q1006=
201706270220 METAR ESMX 270220Z AUTO 23006KT 9999 NCD 08/06 Q1006=
201706270150 METAR ESMX 270150Z AUTO 24007KT 9999 NCD 08/05 Q1006=
201706270120 METAR ESMX 270120Z AUTO 23007KT 9999 NCD 08/06 Q1006=
201706270050 METAR ESMX 270050Z AUTO 25007KT 9999 NCD 09/06 Q1006=
201706270020 METAR ESMX 270020Z AUTO 26009KT 9999 NCD 10/06 Q1006=
201706262350 METAR ESMX 262350Z 23004KT CAVOK 08/06 Q1006=
201706262320 METAR ESMX 262320Z 22005KT CAVOK 08/06 Q1006=
201706262250 METAR ESMX 262250Z 22005KT 9999 FEW046 09/06 Q1006=
201706262220 METAR ESMX 262220Z 25006KT CAVOK 10/06 Q1006=
201706262150 METAR ESMX 262150Z 25008KT CAVOK 10/06 Q1005=
201706262120 METAR ESMX 262120Z 25007KT 220V280 9999 FEW040 10/06 Q1005=
201706262050 METAR ESMX 262050Z 24007KT 9999 SCT039 11/06 Q1005=
201706262020 METAR ESMX 262020Z 26012KT 9999 SCT038 12/05 Q1005=
201706261950 METAR ESMX 261950Z 26011KT 9999 SCT040 12/05 Q1005=
201706261920 METAR ESMX 261920Z 26010KT 230V290 9999 SCT037 12/06 Q1005=
201706261850 METAR ESMX 261850Z 25011KT 210V280 9999 SCT036 13/06 Q1004=
201706261820 METAR ESMX 261820Z 26013KT 9999 SCT038 14/06 Q1004=
201706261750 METAR ESMX 261750Z 26014G24KT 230V300 9999 SCT040 14/05 Q1004=
201706261720 METAR ESMX 261720Z 25015G25KT 200V280 9999 SCT042 15/05 Q1004=
201706261650 METAR ESMX 261650Z 25014KT 220V280 9999 SCT040 15/06 Q1004=
201706261620 METAR ESMX 261620Z 26016KT 220V290 9999 FEW035 SCT050 16/06 Q1003=
201706261550 METAR ESMX 261550Z 25013KT 210V280 9999 SCT035 SCT055 16/07 Q1003=
201706261520 METAR ESMX 261520Z 27014G24KT 9999 FEW035 BKN055 17/07 Q1003=
201706261450 METAR ESMX 261450Z 26014KT 230V290 9999 SCT035 BKN060 16/07 Q1003=
201706261420 METAR ESMX 261420Z 25016KT 9999 FEW040TCU BKN060 17/08 Q1002=
201706261350 METAR ESMX 261350Z 25017KT 9999 SCT035 BKN050 16/07 Q1002=
201706261320 METAR ESMX 261320Z 25017KT 9999 SCT035 BKN050 17/08 Q1002=
201706261250 METAR ESMX 261250Z 26016G27KT 220V290 9999 BKN036 17/08 Q1001=
201706261220 METAR ESMX 261220Z 26016KT 220V280 9999 FEW035 17/09 Q1001=
201706261150 METAR ESMX 261150Z 26017G27KT 230V300 9999 SCT035 17/08 Q1000=
201706261120 METAR ESMX 261120Z 26016KT 9999 FEW025 SCT060 BKN075 17/08 Q1000=
201706261050 METAR ESMX 261050Z 26017G28KT 220V290 9999 SCT030CB BKN060 16/10 Q1000=
201706261020 METAR ESMX 261020Z 25014KT 220V300 9999 SCT030TCU BKN050 16/09 Q1000=
201706260950 METAR COR ESMX 260950Z 25012KT 220V290 9999 SCT018 BKN045 14/09 Q1000=
201706260920 METAR ESMX 260920Z 25014KT 220V290 9999 FEW025 BKN035 14/09 Q0999=
201706260850 METAR ESMX 260850Z 25014KT 9999 BKN020 13/09 Q0999=
201706260820 METAR ESMX 260820Z 24016G29KT 210V280 9999 BKN020 13/09 Q0999=
201706260750 METAR ESMX 260750Z 24014KT 200V270 9999 FEW016 BKN021 13/10 Q0998=
201706260720 METAR ESMX 260720Z 24013KT 200V260 9999 VCSH FEW015 BKN025CB 12/10 Q0998 RERA=
201706260650 METAR ESMX 260650Z 23011KT 200V260 9999 FEW015 BKN020 12/10 Q0998=
201706260620 METAR COR ESMX 260620Z 23011KT 9000 SHRA FEW013 BKN020CB 12/10 Q0998=
201706260550 METAR ESMX 260550Z 22011KT 190V250 9999 -SHRA SCT014 BKN031CB 11/09 Q0998=
201706260520 METAR ESMX 260520Z 22010KT 9000 -SHRA FEW013 BKN023CB 11/09 Q0998=
201706260450 METAR ESMX 260450Z 20011KT 9999 FEW009 SCT024 BKN032 10/09 Q0998=
201706260420 METAR ESMX 260420Z 21011KT 9999 -DZ FEW013 SCT026 BKN059 10/08 Q0998=
201706260350 METAR ESMX 260350Z 20010KT 9999 FEW025 SCT035 BKN057 10/08 Q0998=
201706260320 METAR ESMX 260320Z AUTO 21009KT 9999 FEW014/// BKN023/// BKN028/// 10/08 Q0998 REDZ=
201706260250 METAR ESMX 260250Z AUTO 22009KT 9999 DZ FEW015/// SCT028/// BKN043/// 10/08 Q0998=
201706260220 METAR ESMX 260220Z AUTO 22010KT 9999 SCT028/// OVC053/// 10/08 Q0999=
201706260150 METAR ESMX 260150Z AUTO 23008KT 9999 FEW014/// BKN026/// BKN044/// 10/08 Q0999=
201706260120 METAR ESMX 260120Z AUTO 20009KT 9999 -RA FEW016/// SCT029/// BKN039/// 10/08 Q0999=
201706260050 METAR ESMX 260050Z AUTO 21008KT 9999 -RA FEW010/// BKN062/// 10/08 Q0999 RERA=
201706260020 METAR ESMX 260020Z AUTO 18008KT 9999 FEW014/// SCT037/// BKN059/// 10/08 Q0999=
201706252350 METAR ESMX 252350Z 22007KT 9999 -RA SCT014 BKN030 OVC062 10/08 Q1000=
201706252320 METAR ESMX 252320Z 22006KT 9999 FEW030 OVC064 10/08 Q1000=
201706252250 METAR ESMX 252250Z 23008KT 9999 FEW027 BKN057 OVC070 10/08 Q1000=
201706252220 METAR ESMX 252220Z AUTO 22008KT 9999 FEW029/// SCT049/// 10/08 Q1000=
201706252150 METAR ESMX 252150Z 21007KT 9999 SCT030 10/08 Q1000=
201706252120 METAR ESMX 252120Z 23007KT 9999 FEW014 BKN061 OVC210 11/09 Q1000=
201706252050 METAR ESMX 252050Z 21005KT 9999 FEW017 SCT033 BKN048 11/09 Q1000=
201706252020 METAR ESMX 252020Z 25005KT 9999 FEW037 SCT062 11/08 Q1000=
201706251950 METAR COR ESMX 251950Z 24009KT 200V280 9999 FEW013CB SCT018 BKN038 12/09 Q1000=
201706251920 METAR ESMX 251920Z 23008KT CAVOK 12/09 Q1000=
201706251850 METAR ESMX 251850Z 22010KT CAVOK 13/08 Q1000=
201706251820 METAR ESMX 251820Z 24010KT 9999 SCT072CB 13/08 Q1000=
201706251750 METAR ESMX 251750Z 24010KT 9999 VCSH SCT055CB BKN074 13/08 Q1000=
201706251720 METAR COR ESMX 251720Z 24010KT 9999 VCSH FEW042 SCT064CB BKN084 14/08 Q1000 RESHRA=
201706251650 METAR ESMX 251650Z AUTO 25011KT 210V280 9999 SCT064/// 14/09 Q1000=
201706251620 METAR ESMX 251620Z AUTO 27009KT 240V320 9999 FEW032/// SCT051/// BKN068/// 13/09 Q1000=
201706251550 METAR ESMX 251550Z 26009KT 200V300 9999 SCT038 BKN048 15/08 Q1000=
201706251520 METAR ESMX 251520Z 25012KT 220V280 9999 FEW033 BKN064 16/09 Q1000=
201706251450 METAR ESMX 251450Z 24011KT 9999 FEW034 SCT076 15/10 Q1000=
201706251420 METAR ESMX 251420Z 25011KT 9999 FEW025 SCT060 14/10 Q1000=
201706251350 METAR ESMX 251350Z 24010KT 9999 -RA FEW022 BKN055 13/10 Q1000=
201706251320 METAR COR ESMX 251320Z 26016KT 9999 -RA FEW027 SCT053 14/08 Q1000=
201706251250 METAR ESMX 251250Z AUTO 24012KT 200V260 9999 SCT066/// 16/08 Q1000=
201706251220 METAR ESMX 251220Z AUTO 27013G26KT 9999 FEW019/// BKN057/// 13/09 Q1000=
201706251150 METAR ESMX 251150Z AUTO 24014KT 210V270 9999 FEW041/// SCT160/// 16/07 Q0999=
201706251120 METAR ESMX 251120Z AUTO 21012KT 9999 NCD 16/12 Q1000=
201706251050 METAR ESMX 251050Z AUTO 20013KT 9999 FEW053/// SCT064/// 15/12 Q1000=
201706251020 METAR ESMX 251020Z AUTO 20010KT 9999 -DZ OVC059/// 13/10 Q1000 RERA=
201706250950 METAR ESMX 250950Z AUTO 20010KT 9999 OVC062/// 12/11 Q1000 RERA=
201706250920 METAR ESMX 250920Z AUTO 21010KT 9999 OVC057/// 12/10 Q1000=
201706250850 METAR ESMX 250850Z AUTO 20013KT 9999 -RA BKN057/// OVC240/// 12/11 Q1000=
201706250820 METAR ESMX 250820Z AUTO 20010KT 9999 -RA SCT051/// OVC064/// 13/12 Q1000=
201706250750 METAR ESMX 250750Z AUTO 22008KT 9999 -RA FEW012/// OVC057/// 12/11 Q1001 RESHRA=
201706250720 METAR ESMX 250720Z AUTO 25008KT 190V270 6000 -RA FEW003/// BKN016/// BKN037/// 11/10 Q1001 RERA REDZ=
201706250650 METAR ESMX 250650Z AUTO 21013KT 9000 -DZ FEW015/// BKN023/// BKN044/// 13/10 Q1001=
201706250620 METAR ESMX 250620Z AUTO 21015KT 180V250 9999 BKN048/// 14/09 Q1001=
201706250550 METAR ESMX 250550Z AUTO 20014KT 9999 NCD 14/10 Q1001=
201706250520 METAR ESMX 250520Z AUTO 19011KT 9999 BKN057/// 12/09 Q1001=
201706250450 METAR ESMX 250450Z AUTO 19009KT 9999 FEW120/// 12/09 Q1002=
201706250420 METAR ESMX 250420Z AUTO 22008KT 190V250 9999 BKN130/// 12/08 Q1002=
201706250350 METAR ESMX 250350Z AUTO 22008KT 9999 FEW034/// SCT130/// 12/08 Q1002=
201706250320 METAR ESMX 250320Z AUTO 20007KT 9999 NCD 11/08 Q1002=
201706250250 METAR ESMX 250250Z AUTO 22007KT 9999 BKN053/// 11/08 Q1002=
201706250220 METAR ESMX 250220Z AUTO 22007KT 200V260 9999 OVC046/// 12/07 Q1002=
201706250150 METAR ESMX 250150Z AUTO 22008KT 9999 OVC048/// 12/08 Q1002=
201706250120 METAR ESMX 250120Z AUTO 22008KT 9999 OVC049/// 12/08 Q1002=
201706250050 METAR ESMX 250050Z AUTO 22008KT 9999 BKN055/// 11/08 Q1002=
201706250020 METAR ESMX 250020Z AUTO 22007KT 9999 BKN053/// 11/08 Q1003=
201706242350 METAR ESMX 242350Z AUTO 23007KT 9999 OVC055/// 12/08 Q1003=
201706242320 METAR ESMX 242320Z AUTO 22006KT 9999 SCT042/// OVC057/// 11/08 Q1003=
201706242250 METAR ESMX 242250Z AUTO 22004KT 180V260 9999 BKN051/// 12/08 Q1003=
201706242220 METAR ESMX 242220Z AUTO 24006KT 9999 BKN055/// 12/08 Q1003=
201706242150 METAR ESMX 242150Z AUTO 23006KT 9999 FEW057/// 11/09 Q1003=
201706242120 METAR ESMX 242120Z AUTO 23007KT 9999 FEW053/// 12/09 Q1003=
201706242050 METAR ESMX 242050Z AUTO 23009KT 9999 FEW051/// 12/08 Q1002=
201706242020 METAR ESMX 242020Z AUTO 24008KT 9999 NCD 13/07 Q1002=
201706241950 METAR ESMX 241950Z AUTO 26013KT 9999 NCD 14/07 Q1002=
201706241920 METAR ESMX 241920Z AUTO 25011KT 9999 SCT033/// BKN055/// 15/10 Q1002=
201706241850 METAR ESMX 241850Z AUTO 24010KT 200V270 9999 SCT036/// BKN064/// 15/10 Q1001=
201706241820 METAR ESMX 241820Z 25011KT 9999 FEW040 17/08 Q1001=
201706241750 METAR ESMX 241750Z 26016KT 9999 FEW045 17/08 Q1001=
201706241720 METAR ESMX 241720Z 23011KT 9999 SCT043 17/08 Q1001=
201706241650 METAR ESMX 241650Z 26009KT 220V290 9999 SCT042 18/09 Q1001=
201706241620 METAR ESMX 241620Z 25013KT 9999 SCT042 18/09 Q1001=
201706241550 METAR ESMX 241550Z AUTO 25013KT 210V280 9999 FEW046/// 18/08 Q1001=
201706241520 METAR ESMX 241520Z AUTO 25011KT 220V280 9999 SCT042/// 19/10 Q1001=
201706241450 METAR ESMX 241450Z AUTO 26011KT 210V300 9999 SCT041/// 18/09 Q1001=
201706241420 METAR ESMX 241420Z AUTO 24011KT 210V280 9999 FEW037/// SCT051/// BKN098/// 18/10 Q1001=
201706241350 METAR ESMX 241350Z AUTO 25011G23KT 220V290 9999 SCT046/// BKN100/// 18/11 Q1001=
201706241320 METAR ESMX 241320Z AUTO 23010KT 9999 FEW030/// BKN043/// BKN088/// 16/11 Q1002=
201706241250 METAR ESMX 241250Z AUTO 22012KT 9999 SCT046/// BKN100/// 17/12 Q1002=
201706241220 METAR ESMX 241220Z AUTO 22012KT 9999 FEW035/// BKN100/// 17/12 Q1002=
201706241150 METAR ESMX 241150Z AUTO 24013KT 9999 BKN037/// 17/12 Q1002=
201706241120 METAR ESMX 241120Z AUTO 23011KT 190V270 9999 BKN048/// BKN070/// 17/11 Q1002=
201706241050 METAR ESMX 241050Z AUTO 24013KT 9999 BKN074/// 18/11 Q1002=
201706241020 METAR ESMX 241020Z AUTO 25012KT 200V280 9999 BKN074/// 17/11 Q1002=
201706240950 METAR ESMX 240950Z AUTO 25012KT 9999 FEW170/// 17/12 Q1002=
201706240920 METAR ESMX 240920Z AUTO 25010KT 210V280 9999 FEW035/// SCT200/// 16/12 Q1002 RERA=
201706240850 METAR ESMX 240850Z AUTO 24008KT 9999 BKN027/// OVC044/// 15/13 Q1002=
201706240820 METAR ESMX 240820Z AUTO 26011KT 220V310 5000 -RA FEW003/// BKN025/// 14/13 Q1002=
201706240750 METAR ESMX 240750Z AUTO 22009KT 9999 FEW021/// SCT038/// 16/14 Q1002=
201706240720 METAR ESMX 240720Z AUTO 21007KT 170V240 9999 FEW010/// SCT160/// 16/14 Q1003=
201706240650 METAR ESMX 240650Z AUTO 22008KT 180V260 9999 FEW009/// 15/13 Q1003=
201706240620 METAR ESMX 240620Z AUTO 22008KT 9999 SCT009/// 15/13 Q1003=
201706240550 METAR ESMX 240550Z AUTO 23006KT 190V250 9999 SCT008/// OVC062/// 15/13 Q1003=
201706240520 METAR ESMX 240520Z AUTO 22007KT 9999 -RA SCT008/// BKN033/// 14/13 Q1003=
201706240450 METAR ESMX 240450Z AUTO 23007KT 9999 BKN006/// OVC059/// 14/13 Q1003=
201706240420 METAR ESMX 240420Z AUTO 24008KT 9999 FEW003/// BKN005/// 14/13 Q1004 REDZ=
201706240350 METAR ESMX 240350Z AUTO 23007KT 200V260 8000 BR BKN006/// OVC008/// 13/13 Q1004=
201706240320 METAR ESMX 240320Z AUTO 22008KT 9999 OVC006/// 13/12 Q1004=
201706240250 METAR ESMX 240250Z AUTO 23006KT 9999 OVC005/// 13/12 Q1004=
201706240220 METAR ESMX 240220Z AUTO 22007KT 9999 BKN006/// BKN007/// OVC008/// 13/12 Q1004=
201706240150 METAR ESMX 240150Z AUTO 22007KT 9999 BKN008/// 13/12 Q1005=
201706240120 METAR ESMX 240120Z AUTO 23007KT 180V260 9999 SCT007/// BKN024/// 13/12 Q1005=
201706240050 METAR ESMX 240050Z AUTO 24007KT 9999 FEW009/// SCT032/// 13/12 Q1005=
201706240020 METAR ESMX 240020Z AUTO 23007KT 9999 BKN030/// BKN043/// 13/12 Q1005 RERA=
201706232350 METAR ESMX 232350Z AUTO 22008KT 9999 FEW005/// BKN045/// 14/13 Q1006 RERA=
201706232320 METAR ESMX 232320Z AUTO 24006KT 9999 BKN006/// OVC084/// 14/13 Q1006=
201706232250 METAR ESMX 232250Z AUTO 23005KT 9999 -RA FEW005/// SCT066/// OVC088/// 14/13 Q1006=
201706232220 METAR ESMX 232220Z AUTO 24005KT 9999 RA BKN006/// BKN084/// 14/13 Q1006 RERA=
201706232150 METAR ESMX 232150Z AUTO 23006KT 9999 FEW002/// BKN006/// BKN027/// 13/13 Q1006=
201706232120 METAR ESMX 232120Z AUTO 19006KT 160V220 2200 -DZ OVC003/// 13/12 Q1006 REDZ=
201706232050 METAR ESMX 232050Z AUTO 18006KT 3400 DZ OVC003/// 13/12 Q1006=
201706232020 METAR ESMX 232020Z AUTO 17005KT 9999 BKN005/// OVC008/// 12/12 Q1006=
201706231950 METAR ESMX 231950Z AUTO 17006KT 9999 BKN009/// 12/11 Q1006=
201706231920 METAR ESMX 231920Z AUTO 16007KT 9999 NCD 12/11 Q1007 REDZ=
201706231850 METAR ESMX 231850Z AUTO 16006KT 9999 DZ FEW009/// 12/11 Q1007=
201706231820 METAR ESMX 231820Z AUTO 17005KT 9999 -RA SCT014/// 12/11 Q1007=
201706231750 METAR ESMX 231750Z AUTO 18006KT 9999 RA FEW011/// SCT014/// OVC035/// 12/11 Q1007=
201706231720 METAR ESMX 231720Z AUTO 17010KT 9999 -RA BKN013/// OVC040/// 12/11 Q1007=
201706231650 METAR ESMX 231650Z AUTO 18008KT 9999 -RA BKN011/// BKN053/// OVC066/// 14/12 Q1007=
201706231620 METAR ESMX 231620Z AUTO 18007KT 9999 -RA FEW010/// BKN044/// BKN059/// 15/12 Q1007=
201706231550 METAR ESMX 231550Z AUTO 19006KT 9999 -RA FEW010/// OVC040/// 15/11 Q1007 REDZ=
201706231520 METAR ESMX 231520Z 18009KT 9999 DZ FEW015 BKN040 17/10 Q1006=
201706231450 METAR ESMX 231450Z 17009KT 9999 FEW035 BKN040 18/10 Q1006=
201706231420 METAR ESMX 231420Z 17009KT 140V200 9999 SCT015 BKN040 19/12 Q1006=
201706231350 METAR ESMX 231350Z 16005KT 9999 FEW040 BKN050 19/12 Q1006=
201706231320 METAR ESMX 231320Z 18007KT 9999 FEW040 BKN060 19/12 Q1006=
201706231250 METAR ESMX 231250Z AUTO 18006KT 9999 SCT045/// OVC059/// 20/12 Q1006=
201706231220 METAR ESMX 231220Z AUTO 18007KT 140V210 9999 FEW046/// OVC062/// 20/13 Q1006=
201706231150 METAR ESMX 231150Z AUTO 17007KT 110V190 9999 SCT042/// OVC062/// 20/12 Q1006=
201706231120 METAR ESMX 231120Z AUTO 17007KT 120V200 9999 SCT042/// OVC062/// 20/12 Q1006=
201706231050 METAR ESMX 231050Z AUTO 17005KT 100V210 9999 SCT046/// 21/13 Q1006=
201706231020 METAR ESMX 231020Z AUTO 09004KT 010V120 9999 FEW200/// 21/13 Q1006=
201706230950 METAR ESMX 230950Z AUTO 07004KT 360V160 9999 FEW037/// 20/12 Q1006=
201706230920 METAR ESMX 230920Z AUTO 16004KT 120V230 9999 BKN037/// 19/11 Q1006=
201706230850 METAR ESMX 230850Z AUTO 13004KT 060V190 9999 SCT037/// BKN062/// 19/12 Q1006=
201706230820 METAR ESMX 230820Z AUTO 14003KT 060V200 9999 OVC062/// 19/12 Q1006=
201706230750 METAR ESMX 230750Z AUTO VRB03KT 9999 OVC062/// 18/12 Q1006=
201706230720 METAR ESMX 230720Z AUTO VRB03KT 9999 SCT047/// OVC061/// 17/12 Q1006=
201706230650 METAR ESMX 230650Z AUTO 06003KT 020V100 9999 BKN047/// OVC061/// 17/12 Q1006=
201706230620 METAR ESMX 230620Z AUTO 04004KT 9999 OVC059/// 16/12 Q1005=
201706230550 METAR ESMX 230550Z AUTO 05004KT 9999 FEW049/// OVC059/// 16/12 Q1005=
201706230520 METAR ESMX 230520Z AUTO 06004KT 010V100 9999 OVC059/// 16/11 Q1005=
201706230450 METAR ESMX 230450Z AUTO 04003KT 010V070 9999 OVC057/// 15/12 Q1005=
201706230420 METAR ESMX 230420Z AUTO 07003KT 040V100 9999 OVC057/// 15/12 Q1005=
201706230350 METAR ESMX 230350Z AUTO 04006KT 9999 OVC055/// 15/12 Q1004=
201706230320 METAR ESMX 230320Z AUTO 03003KT 360V060 9999 OVC053/// 15/12 Q1004=
201706230250 METAR ESMX 230250Z AUTO VRB03KT 9999 FEW028/// OVC055/// 14/12 Q1004=
201706230220 METAR ESMX 230220Z AUTO 08003KT 050V110 9999 BKN028/// OVC036/// 14/12 Q1005=
201706230150 METAR ESMX 230150Z AUTO 00000KT 9999 FEW029/// BKN036/// 14/12 Q1005=
201706230120 METAR ESMX 230120Z AUTO 03004KT 9999 SCT034/// 14/12 Q1005=
201706230050 METAR ESMX 230050Z AUTO 12002KT 9999 SCT028/// 14/12 Q1005=
201706230020 METAR ESMX 230020Z VRB02KT CAVOK 13/11 Q1005=
201706222350 METAR COR ESMX 222350Z 00000KT CAVOK 12/10 Q1005=
201706222320 METAR ESMX 222320Z VRB01KT CAVOK 11/10 Q1005=
201706222250 METAR ESMX 222250Z 05002KT CAVOK 12/11 Q1005=
201706222220 METAR ESMX 222220Z 00000KT CAVOK 12/10 Q1005=
201706222150 METAR ESMX 222150Z AUTO 00000KT 9999 NCD 12/11 Q1005=
201706222120 METAR ESMX 222120Z AUTO 18002KT 9999 FEW051/// 13/12 Q1006=
201706222050 METAR ESMX 222050Z AUTO 36003KT 9999 BKN051/// 14/11 Q1006=
201706222020 METAR ESMX 222020Z AUTO 00000KT 9999 OVC049/// 15/12 Q1006=
201706221950 METAR ESMX 221950Z AUTO 00000KT 9999 OVC049/// 15/12 Q1007=
201706221920 METAR ESMX 221920Z AUTO 36003KT 9999 BKN051/// 15/12 Q1007=
201706221850 METAR ESMX 221850Z 32003KT 9999 BKN049 16/11 Q1007=
201706221820 METAR ESMX 221820Z 26005KT 230V300 9999 BKN047 17/11 Q1007=
201706221750 METAR ESMX 221750Z 25005KT 9999 SCT042 17/11 Q1007=
201706221720 METAR ESMX 221720Z 26005KT 230V300 9999 FEW030 BKN042 17/11 Q1007=
201706221650 METAR ESMX 221650Z 26006KT 9999 FEW030 BKN042 18/11 Q1007=
201706221620 METAR ESMX 221620Z 26005KT 210V300 9999 BKN042 19/11 Q1008=
201706221550 METAR ESMX 221550Z 27006KT 9999 BKN038 18/11 Q1008=
201706221520 METAR ESMX 221520Z 29006KT 260V330 9999 BKN035 18/11 Q1008=
201706221450 METAR ESMX 221450Z 27006KT 230V300 9999 BKN036 18/10 Q1008=
201706221420 METAR ESMX 221420Z 26008KT 210V280 9999 BKN036 18/10 Q1008=
201706221350 METAR ESMX 221350Z 24007KT 200V280 9999 BKN035 18/10 Q1008=
201706221320 METAR ESMX 221320Z 24004KT 200V310 9999 BKN035 18/09 Q1008=
201706221250 METAR ESMX 221250Z 22006KT 170V280 9999 SCT033 18/09 Q1009=
201706221220 METAR ESMX 221220Z 20009KT 160V230 9999 SCT033 BKN055 17/10 Q1009=
201706221150 METAR ESMX 221150Z 22008KT 190V250 9999 FEW030 17/09 Q1009=
201706221120 METAR ESMX 221120Z 21007KT 170V260 9999 FEW025 17/09 Q1009=
201706221050 METAR ESMX 221050Z 22007KT 160V290 9999 SCT025 16/09 Q1009=
201706221020 METAR ESMX 221020Z 23007KT 200V260 9999 SCT025 15/09 Q1010=
201706220950 METAR ESMX 220950Z 25006KT 200V290 9999 BKN027 15/09 Q1010=
201706220920 METAR ESMX 220920Z 26007KT 210V300 9999 FEW025 BKN030 15/08 Q1011=
201706220850 METAR ESMX 220850Z 23007KT 200V280 9999 BKN028 15/08 Q1011=
201706220820 METAR ESMX 220820Z 23008KT 9999 BKN022 14/08 Q1011=
201706220750 METAR ESMX 220750Z 27007KT 240V310 9999 BKN023 15/08 Q1011=
201706220720 METAR ESMX 220720Z 24007KT 210V270 9999 BKN024 14/08 Q1011=
201706220650 METAR ESMX 220650Z 25006KT 220V300 9999 FEW016 BKN020 13/08 Q1011=
201706220620 METAR ESMX 220620Z 27005KT 230V310 9999 BKN023 13/09 Q1011=
201706220550 METAR ESMX 220550Z VRB03KT 9999 BKN023 13/10 Q1011=
201706220520 METAR ESMX 220520Z 26003KT 210V290 CAVOK 12/09 Q1011=
201706220450 METAR ESMX 220450Z VRB03KT CAVOK 11/10 Q1011=
201706220420 METAR ESMX 220420Z 26003KT 9999 FEW024 10/09 Q1011=
201706220350 METAR ESMX 220350Z AUTO 25003KT 9999 NCD 10/09 Q1012=
201706220320 METAR ESMX 220320Z AUTO 26003KT 9999 NCD 08/08 Q1012=
201706220250 METAR ESMX 220250Z AUTO 26003KT 9999 NCD 08/07 Q1012=
201706220220 METAR ESMX 220220Z AUTO 25004KT 9999 NCD 08/07 Q1012=
201706220150 METAR ESMX 220150Z AUTO 24002KT 9999 BR NCD 08/08 Q1012=
201706220120 METAR ESMX 220120Z AUTO 24003KT 9999 FEW210/// 08/08 Q1012=
201706220050 METAR ESMX 220050Z AUTO 25003KT 9999 NCD 07/06 Q1012=
201706220020 METAR ESMX 220020Z AUTO 26004KT 9999 NCD 09/08 Q1012=
201706212350 METAR ESMX 212350Z 25004KT CAVOK 10/08 Q1012=
201706212320 METAR ESMX 212320Z VRB02KT CAVOK 11/08 Q1012=
201706212250 METAR ESMX 212250Z 25003KT CAVOK 12/08 Q1012=
201706212220 METAR ESMX 212220Z 27006KT CAVOK 12/08 Q1012=
201706212150 METAR ESMX 212150Z 26006KT CAVOK 12/07 Q1013=
201706212120 METAR ESMX 212120Z AUTO 25006KT 9999 NCD 13/07 Q1013=
201706212050 METAR ESMX 212050Z 26006KT CAVOK 13/07 Q1012=
201706212020 METAR ESMX 212020Z 25007KT CAVOK 14/07 Q1012=
201706211950 METAR ESMX 211950Z 24005KT CAVOK 14/08 Q1012=
201706211920 METAR ESMX 211920Z 26006KT CAVOK 16/08 Q1012=
201706211850 METAR ESMX 211850Z 27008KT CAVOK 16/08 Q1012=
201706211820 METAR ESMX 211820Z 27008KT 250V310 CAVOK 18/08 Q1012=
201706211750 METAR ESMX 211750Z 26012KT CAVOK 18/08 Q1012=
201706211720 METAR ESMX 211720Z 26012KT CAVOK 19/07 Q1012=
201706211650 METAR ESMX 211650Z 27010KT 240V300 CAVOK 20/08 Q1012=
201706211620 METAR ESMX 211620Z 26010KT 220V300 CAVOK 20/08 Q1012=
201706211550 METAR ESMX 211550Z 26012KT CAVOK 20/07 Q1012=
201706211520 METAR ESMX 211520Z 28012KT CAVOK 20/07 Q1012=
201706211450 METAR ESMX 211450Z 26010KT 220V300 CAVOK 20/06 Q1012=
201706211420 METAR ESMX 211420Z 28009KT 220V350 CAVOK 21/05 Q1012=
201706211350 METAR ESMX 211350Z 29008KT 250V330 CAVOK 20/05 Q1012=
201706211320 METAR ESMX 211320Z 28009KT 230V320 CAVOK 21/05 Q1013=
201706211250 METAR ESMX 211250Z 30009KT 260V350 CAVOK 20/05 Q1013=
201706211220 METAR ESMX 211220Z 30010KT CAVOK 20/05 Q1013=
201706211150 METAR ESMX 211150Z 32010KT 270V350 CAVOK 19/05 Q1013=
201706211120 METAR ESMX 211120Z 29008KT 260V350 CAVOK 20/07 Q1013=
201706211050 METAR ESMX 211050Z 28009KT CAVOK 20/06 Q1013=
201706211020 METAR ESMX 211020Z 28008KT CAVOK 19/05 Q1013=
201706210920 METAR ESMX 210920Z 29010KT CAVOK 18/05 Q1013=
201706210850 METAR ESMX 210850Z 30010KT 260V330 CAVOK 18/06 Q1013=
201706210820 METAR ESMX 210820Z 28008KT 250V320 CAVOK 17/06 Q1013=
201706210750 METAR ESMX 210750Z 28008KT 230V310 CAVOK 17/07 Q1013=
201706210720 METAR ESMX 210720Z 24008KT 210V270 CAVOK 16/08 Q1013=
201706210650 METAR ESMX 210650Z 29007KT 250V330 CAVOK 15/08 Q1013=
201706210620 METAR ESMX 210620Z 29007KT CAVOK 15/08 Q1013=
201706210550 METAR ESMX 210550Z 28008KT CAVOK 14/07 Q1013=
201706210520 METAR ESMX 210520Z 28009KT CAVOK 13/09 Q1013=
201706210450 METAR ESMX 210450Z 27010KT CAVOK 12/09 Q1013=
201706210420 METAR ESMX 210420Z 26008KT CAVOK 11/09 Q1013=
201706210350 METAR ESMX 210350Z 26007KT CAVOK 11/09 Q1012=
201706210320 METAR ESMX 210320Z AUTO 26007KT 9999 NCD 10/09 Q1012=
201706210250 METAR ESMX 210250Z AUTO 26007KT 9999 NCD 09/08 Q1012=
201706210220 METAR ESMX 210220Z AUTO 26007KT 9999 FEW076/// 09/08 Q1012=
201706210150 METAR ESMX 210150Z AUTO 26006KT 9999 NCD 09/08 Q1012=
201706210120 METAR ESMX 210120Z AUTO 26006KT 9999 NCD 09/08 Q1012=
201706210050 METAR ESMX 210050Z AUTO 23007KT 9999 NCD 09/08 Q1012=
201706210020 METAR ESMX 210020Z AUTO 24006KT 9999 NCD 09/08 Q1012=
201706202350 METAR ESMX 202350Z 24006KT CAVOK 10/07 Q1012=
201706202320 METAR ESMX 202320Z 23006KT CAVOK 10/07 Q1012=
201706202250 METAR ESMX 202250Z 25006KT CAVOK 10/07 Q1012=
201706202220 METAR ESMX 202220Z 26008KT CAVOK 11/07 Q1012=
201706202150 METAR ESMX 202150Z 25006KT CAVOK 11/06 Q1012=
201706202120 METAR ESMX 202120Z 25005KT CAVOK 10/05 Q1013=
201706202050 METAR ESMX 202050Z 26004KT CAVOK 12/05 Q1013=
201706202020 METAR ESMX 202020Z 27007KT CAVOK 13/05 Q1013=
201706201950 METAR ESMX 201950Z 26007KT CAVOK 14/05 Q1013=
201706201920 METAR ESMX 201920Z 27010KT CAVOK 15/05 Q1012=
201706201850 METAR ESMX 201850Z 27010KT 250V320 CAVOK 15/05 Q1012=
201706201820 METAR ESMX 201820Z 28010KT CAVOK 16/05 Q1012=
201706201750 METAR ESMX 201750Z 27013KT 230V300 CAVOK 17/04 Q1012=
201706201720 METAR ESMX 201720Z 28013KT CAVOK 17/04 Q1012=
201706201650 METAR ESMX 201650Z 28011KT 250V320 CAVOK 18/05 Q1012=
201706201620 METAR ESMX 201620Z 28012KT CAVOK 18/06 Q1011=
201706201550 METAR ESMX 201550Z 28012KT 250V320 CAVOK 18/06 Q1011=
201706201520 METAR ESMX 201520Z 28013KT 260V330 CAVOK 19/05 Q1011=
201706201450 METAR ESMX 201450Z 27012KT 230V310 CAVOK 19/06 Q1011=
201706201420 METAR ESMX 201420Z 28012KT 230V320 CAVOK 19/06 Q1011=
201706201350 METAR ESMX 201350Z 29013KT 260V330 CAVOK 19/05 Q1011=
201706201320 METAR ESMX 201320Z 27014KT 230V310 CAVOK 19/05 Q1011=
201706201250 METAR ESMX 201250Z 26015G25KT CAVOK 20/05 Q1011=
201706201220 METAR ESMX 201220Z 30016KT CAVOK 20/05 Q1011=
201706201150 METAR ESMX 201150Z 30013KT 260V330 CAVOK 20/06 Q1011=
201706201120 METAR ESMX 201120Z 28013KT 250V320 CAVOK 20/06 Q1011=
201706201050 METAR ESMX 201050Z 30016KT CAVOK 19/05 Q1011=
201706201020 METAR ESMX 201020Z 28013KT CAVOK 19/06 Q1011=
201706200950 METAR ESMX 200950Z 31011KT 270V340 CAVOK 19/07 Q1011=
201706200920 METAR ESMX 200920Z 28013KT 250V320 9999 SCT040 19/06 Q1010=
201706200850 METAR ESMX 200850Z 30015KT 9999 SCT039 18/07 Q1010=
201706200820 METAR ESMX 200820Z 28013KT 250V320 9999 FEW031 SCT038 18/10 Q1010=
201706200750 METAR ESMX 200750Z 29012KT 260V330 9999 SCT032 18/10 Q1010=
201706200720 METAR ESMX 200720Z 28014KT 9999 SCT033 18/10 Q1010=
201706200650 METAR COR ESMX 200650Z 27012KT 9999 FEW024 SCT031 17/10 Q1010=
201706200620 METAR ESMX 200620Z 27012KT 240V300 9999 FEW029 SCT034 BKN041 16/10 Q1010=
201706200550 METAR ESMX 200550Z 26012KT 230V300 9999 FEW020 SCT029 BKN037 17/10 Q1010=
201706200520 METAR COR ESMX 200520Z 28012KT 240V310 9999 FEW020 SCT026 BKN038 16/10 Q1010=
201706200450 METAR ESMX 200450Z 27012KT 9999 FEW020 SCT027 BKN030 16/11 Q1010=
201706200420 METAR ESMX 200420Z 27014KT 9999 FEW019 SCT023 16/12 Q1010=
201706200350 METAR ESMX 200350Z 27014KT 9999 FEW015 16/12 Q1010=
201706200320 METAR ESMX 200320Z AUTO 26012KT 9999 FEW015/// 17/13 Q1010=
201706200250 METAR ESMX 200250Z AUTO 25008KT 230V300 9999 FEW014/// SCT020/// 17/14 Q1010=
201706200220 METAR ESMX 200220Z AUTO 24008KT 9999 FEW017/// 17/14 Q1010=
201706200150 METAR ESMX 200150Z AUTO 24008KT 9999 FEW015/// SCT023/// 17/15 Q1010=
201706200120 METAR ESMX 200120Z AUTO 24010KT 9999 FEW030/// 17/14 Q1010=
201706200050 METAR ESMX 200050Z AUTO 23010KT 9999 FEW038/// 17/15 Q1010=
201706200020 METAR ESMX 200020Z AUTO 24009KT 9999 FEW100/// 17/14 Q1011=
201706192350 METAR ESMX 192350Z 22009KT CAVOK 17/14 Q1011=
201706192320 METAR ESMX 192320Z 22010KT CAVOK 17/14 Q1012=
201706192250 METAR ESMX 192250Z 21009KT CAVOK 17/13 Q1012=
201706192220 METAR ESMX 192220Z 19007KT CAVOK 16/13 Q1013=
201706192150 METAR ESMX 192150Z 19007KT CAVOK 16/13 Q1013=
201706192120 METAR ESMX 192120Z 22006KT CAVOK 17/13 Q1014=
201706192050 METAR ESMX 192050Z 21007KT CAVOK 17/13 Q1014=
201706192020 METAR ESMX 192020Z 22006KT CAVOK 17/13 Q1015=
201706191950 METAR ESMX 191950Z 22006KT CAVOK 18/13 Q1015=
201706191920 METAR ESMX 191920Z 23007KT 9999 FEW036 19/13 Q1015=
201706191850 METAR ESMX 191850Z 26008KT 230V290 CAVOK 20/13 Q1015=
201706191820 METAR ESMX 191820Z 25009KT 9999 FEW035 21/13 Q1015=
201706191750 METAR ESMX 191750Z 25009KT 9999 FEW038 22/13 Q1015=
201706191720 METAR ESMX 191720Z 26011KT CAVOK 22/13 Q1016=
201706191650 METAR ESMX 191650Z 26011KT 230V300 CAVOK 23/13 Q1016=
201706191620 METAR ESMX 191620Z 25011KT 9999 FEW041 23/13 Q1016=
201706191550 METAR ESMX 191550Z 26011KT 230V300 9999 FEW041 24/13 Q1016=
201706191520 METAR ESMX 191520Z 27010KT 230V300 9999 FEW041 24/13 Q1016=
201706191450 METAR ESMX 191450Z 26011KT 220V280 9999 FEW041 24/13 Q1016=
201706191420 METAR ESMX 191420Z 24012KT 210V280 CAVOK 24/13 Q1017=
201706191350 METAR ESMX 191350Z 25012KT 9999 FEW044 24/14 Q1017=
201706191320 METAR ESMX 191320Z 25011KT 210V280 9999 FEW039 24/14 Q1017=
201706191250 METAR ESMX 191250Z 27012KT 230V300 9999 FEW039 24/14 Q1017=
201706191220 METAR ESMX 191220Z 25011KT 9999 SCT040 24/14 Q1017=
201706191150 METAR ESMX 191150Z 25011KT 210V280 9999 FEW037 24/14 Q1017=
201706191120 METAR ESMX 191120Z 26012KT 220V280 9999 FEW036 24/14 Q1018=
201706191050 METAR ESMX 191050Z 25012KT 210V290 9999 FEW035 23/14 Q1018=
201706191020 METAR ESMX 191020Z 26012KT 220V300 9999 FEW034 23/14 Q1018=
201706190950 METAR ESMX 190950Z 27012KT 230V310 9999 FEW031 23/14 Q1018=
201706190920 METAR ESMX 190920Z 27013KT 240V300 CAVOK 22/13 Q1018=
201706190850 METAR ESMX 190850Z 28010KT 240V310 CAVOK 21/13 Q1018=
201706190820 METAR ESMX 190820Z 26011KT 230V300 CAVOK 21/13 Q1018=
201706190750 METAR ESMX 190750Z 27009KT 230V320 CAVOK 20/13 Q1019=
201706190720 METAR ESMX 190720Z 28010KT 220V320 CAVOK 20/13 Q1019=
201706190650 METAR ESMX 190650Z 24009KT CAVOK 19/13 Q1019=
201706190620 METAR ESMX 190620Z 27010KT 240V300 CAVOK 18/14 Q1019=
201706190550 METAR ESMX 190550Z 26008KT 240V300 9999 FEW011 17/14 Q1019=
201706190520 METAR ESMX 190520Z 26011KT 230V290 9999 FEW010 17/14 Q1019=
201706190450 METAR ESMX 190450Z 27010KT 230V300 9999 SCT010 16/14 Q1019=
201706190420 METAR ESMX 190420Z 27009KT 9999 FEW006 BKN008 16/14 Q1019=
201706190350 METAR ESMX 190350Z 27006KT 250V310 9999 BKN006 16/14 Q1019=
201706190320 METAR ESMX 190320Z AUTO 26006KT 240V300 9999 FEW007/// SCT056/// 15/14 Q1019=
201706190250 METAR ESMX 190250Z AUTO 26006KT 9999 NCD 15/14 Q1018=
201706190220 METAR ESMX 190220Z AUTO 26007KT 9999 NCD 15/14 Q1018=
201706190150 METAR ESMX 190150Z AUTO 27008KT 9999 NCD 16/14 Q1018=
201706190120 METAR ESMX 190120Z AUTO 26008KT 9999 FEW087/// 16/14 Q1018=
201706190050 METAR ESMX 190050Z AUTO 27008KT 9999 NCD 16/14 Q1019=
201706190020 METAR ESMX 190020Z AUTO 26007KT 9999 NCD 16/14 Q1019=
201706182350 METAR ESMX 182350Z 26008KT CAVOK 17/14 Q1019=
201706182320 METAR ESMX 182320Z 26007KT 230V300 CAVOK 17/14 Q1019=
201706182250 METAR ESMX 182250Z 26007KT CAVOK 17/14 Q1019=
201706182220 METAR ESMX 182220Z 26007KT CAVOK 18/14 Q1019=
201706182150 METAR ESMX 182150Z 26008KT CAVOK 18/14 Q1019=
201706182120 METAR ESMX 182120Z 27010KT CAVOK 19/14 Q1019=
201706182050 METAR ESMX 182050Z 27009KT CAVOK 19/15 Q1019=
201706182020 METAR ESMX 182020Z 27009KT CAVOK 19/14 Q1019=
201706181950 METAR ESMX 181950Z 26011KT CAVOK 20/14 Q1019=
201706181920 METAR ESMX 181920Z 26010KT CAVOK 21/15 Q1019=
201706181850 METAR ESMX 181850Z 27010KT 240V300 CAVOK 21/15 Q1018=
201706181820 METAR ESMX 181820Z 27010KT 9999 FEW035 22/15 Q1018=
201706181750 METAR ESMX 181750Z 26011KT 9999 FEW035 23/15 Q1018=
201706181720 METAR ESMX 181720Z 27012KT 230V300 9999 FEW034 23/15 Q1019=
201706181650 METAR ESMX 181650Z 27010KT 230V310 9999 FEW035 23/15 Q1019=
201706181620 METAR ESMX 181620Z 28013KT 9999 FEW029 23/15 Q1019=
201706181550 METAR ESMX 181550Z 27013KT 240V300 9999 FEW036 23/15 Q1019=
201706181520 METAR ESMX 181520Z 27013KT 220V310 9999 FEW030 23/15 Q1019=
201706181450 METAR ESMX 181450Z 26015KT 9999 SCT032 24/15 Q1019=
201706181420 METAR ESMX 181420Z 27011KT 240V310 9999 SCT038 25/15 Q1018=
201706181350 METAR ESMX 181350Z 27013G23KT 240V300 9999 SCT040 25/15 Q1018=
201706181320 METAR ESMX 181320Z 26013KT 230V290 9999 SCT039 25/15 Q1018=
201706181250 METAR ESMX 181250Z 27011KT 230V320 9999 FEW040 BKN046 24/15 Q1018=
201706181220 METAR ESMX 181220Z 26010KT 210V290 9999 SCT031 BKN040 24/16 Q1019=
201706181150 METAR ESMX 181150Z 27012KT 9999 FEW027 BKN033 23/15 Q1019=
201706181120 METAR ESMX 181120Z 28010KT 9999 SCT025 23/16 Q1019=
201706181050 METAR ESMX 181050Z 27011KT 250V310 9999 SCT021 22/15 Q1019=
201706181020 METAR ESMX 181020Z AUTO 28010KT 9999 SCT020/// 21/15 Q1019=
201706180950 METAR ESMX 180950Z AUTO 27011KT 230V310 9999 FEW019/// SCT021/// 20/14 Q1019=
201706180920 METAR ESMX 180920Z AUTO 27010KT 220V310 9999 SCT015/// BKN022/// 20/15 Q1019=
201706180850 METAR ESMX 180850Z AUTO 26010KT 230V300 9999 BKN013/// BKN018/// 19/15 Q1020=
201706180820 METAR ESMX 180820Z AUTO 27009KT 230V300 9999 BKN011/// BKN016/// 18/14 Q1020=
201706180750 METAR ESMX 180750Z AUTO 26009KT 230V290 9999 FEW009/// OVC010/// 17/14 Q1020=
201706180720 METAR ESMX 180720Z AUTO 25008KT 210V290 9999 OVC007/// 16/14 Q1020=
201706180650 METAR ESMX 180650Z AUTO 27007KT 230V300 9999 OVC005/// 16/14 Q1019=
201706180620 METAR ESMX 180620Z AUTO 27006KT 250V310 9999 OVC003/// 15/14 Q1019=
201706180550 METAR ESMX 180550Z AUTO 26006KT 240V300 9999 OVC002/// 15/14 Q1019=
201706180520 METAR ESMX 180520Z AUTO 23005KT 210V270 9000 OVC002/// 14/13 Q1019=
201706180450 METAR ESMX 180450Z AUTO 26007KT 240V310 9000 BR OVC002/// 14/13 Q1019=
201706180420 METAR ESMX 180420Z AUTO 27006KT 9999 OVC002/// 13/13 Q1019=
201706180350 METAR ESMX 180350Z AUTO 26008KT 9999 OVC002/// 13/12 Q1019=
201706180320 METAR ESMX 180320Z AUTO 26008KT 9999 OVC002/// 13/12 Q1019=
201706180250 METAR ESMX 180250Z AUTO 24006KT 9999 SCT004/// OVC006/// 13/12 Q1019=
201706180220 METAR ESMX 180220Z AUTO 23006KT 9999 OVC006/// 12/12 Q1019=
201706180150 METAR ESMX 180150Z AUTO 23005KT 9999 SCT006/// 12/11 Q1019=
201706180120 METAR ESMX 180120Z AUTO 23004KT 9999 NCD 11/10 Q1019=
201706180050 METAR ESMX 180050Z AUTO 25004KT 9999 NCD 12/11 Q1019=
201706180020 METAR ESMX 180020Z AUTO 23006KT 9999 NCD 12/11 Q1019=
201706172350 METAR ESMX 172350Z AUTO 25005KT 9999 NCD 13/11 Q1019=
201706172320 METAR ESMX 172320Z AUTO 26006KT 9999 NCD 14/11 Q1019=
201706172250 METAR ESMX 172250Z AUTO 26006KT 9999 NCD 14/11 Q1019=
201706172220 METAR ESMX 172220Z AUTO 26005KT 9999 NCD 15/10 Q1019=
201706172150 METAR ESMX 172150Z AUTO 26007KT 9999 NCD 16/10 Q1019=
201706172120 METAR ESMX 172120Z AUTO 26008KT 9999 NCD 17/10 Q1018=
201706172050 METAR ESMX 172050Z 26007KT CAVOK 18/12 Q1018=
201706172020 METAR ESMX 172020Z 26006KT CAVOK 18/11 Q1018=
201706171950 METAR ESMX 171950Z AUTO 27007KT 9999 NCD 19/11 Q1018=
201706171920 METAR ESMX 171920Z AUTO 26006KT 9999 NCD 20/13 Q1018=
201706171850 METAR ESMX 171850Z AUTO 27005KT 9999 NCD 21/13 Q1017=
201706171820 METAR ESMX 171820Z 27007KT CAVOK 22/13 Q1017=
201706171750 METAR ESMX 171750Z 29007KT 9999 FEW047 SCT069 23/12 Q1017=
201706171720 METAR ESMX 171720Z 00000KT CAVOK 21/13 Q1017=
201706171650 METAR ESMX 171650Z VRB02KT CAVOK 23/13 Q1017=
201706171620 METAR ESMX 171620Z 00000KT CAVOK 22/12 Q1017=
201706171550 METAR ESMX 171550Z 01005KT 9999 FEW040 SCT100 21/12 Q1017=
201706171520 METAR ESMX 171520Z AUTO 02005KT 9999 FEW041/// SCT099/// 22/12 Q1017=
201706171450 METAR ESMX 171450Z AUTO 35008KT 9999 FEW074/// SCT100/// 22/13 Q1017=
201706171420 METAR ESMX 171420Z AUTO 33006KT 280V360 9999 SCT099/// 22/11 Q1016=
201706171350 METAR ESMX 171350Z AUTO 32005KT 280V350 9999 FEW080/// SCT099/// 22/12 Q1016=
201706171320 METAR ESMX 171320Z AUTO 30005KT 270V350 9999 FEW043/// BKN078/// 21/14 Q1016=
201706171250 METAR ESMX 171250Z AUTO 36005KT 310V040 9999 FEW053/// SCT080/// 22/12 Q1016=
201706171220 METAR ESMX 171220Z AUTO 31007KT 280V340 9999 FEW038/// SCT069/// BKN082/// 21/13 Q1016=
201706171150 METAR ESMX 171150Z AUTO 31006KT 260V350 9999 FEW039/// SCT064/// BKN086/// 21/13 Q1015=
201706171120 METAR ESMX 171120Z AUTO 01005KT 9999 FEW039/// SCT055/// BKN098/// 22/12 Q1015=
201706171050 METAR ESMX 171050Z AUTO 35005KT 260V040 9999 FEW036/// SCT051/// 21/12 Q1015=
201706171020 METAR ESMX 171020Z AUTO VRB04KT 9999 FEW037/// 22/12 Q1015=
201706170950 METAR ESMX 170950Z AUTO 36007KT 320V030 9999 FEW033/// 21/12 Q1015=
201706170920 METAR ESMX 170920Z 34007KT 310V010 9999 SCT026 20/12 Q1014=
201706170850 METAR ESMX 170850Z 34007KT 300V010 9999 SCT026 20/12 Q1014=
201706170820 METAR ESMX 170820Z 33007KT 9999 SCT015 19/13 Q1014=
201706170750 METAR ESMX 170750Z 35008KT 9999 SCT016 19/14 Q1014=
201706170720 METAR ESMX 170720Z 34007KT 280V360 9999 SCT015 18/13 Q1013=
201706170650 METAR ESMX 170650Z 32005KT CAVOK 17/14 Q1013=
201706170620 METAR ESMX 170620Z AUTO 32005KT 9999 NCD 17/13 Q1013=
201706170550 METAR ESMX 170550Z AUTO 35007KT 9999 NCD 17/14 Q1013=
201706170520 METAR ESMX 170520Z AUTO 32003KT 290V360 9999 NCD 16/14 Q1013=
201706170450 METAR ESMX 170450Z AUTO 32004KT 280V350 9999 FEW059/// 14/14 Q1012=
201706170420 METAR ESMX 170420Z AUTO 31005KT 9999 FEW083/// 14/13 Q1012=
201706170350 METAR ESMX 170350Z AUTO VRB01KT 9999 BKN083/// 13/12 Q1012=
201706170320 METAR ESMX 170320Z AUTO 29004KT 9999 BKN083/// 12/12 Q1011=
201706170250 METAR ESMX 170250Z AUTO VRB01KT 9000 BR BKN079/// 12/11 Q1011=
201706170220 METAR ESMX 170220Z AUTO 30002KT 9000 BKN077/// 11/11 Q1011=
201706170150 METAR ESMX 170150Z AUTO 29002KT 2300 BKN075/// 11/11 Q1011=
201706170120 METAR ESMX 170120Z AUTO VRB03KT 1100 R01/P2000N R19/P2000N BCFG FEW100/// 10/09 Q1010=
201706170050 METAR ESMX 170050Z AUTO 31003KT 4600 NCD 10/10 Q1010=
201706170020 METAR ESMX 170020Z AUTO 34004KT 5000 FEW093/// 11/11 Q1010=
201706162350 METAR ESMX 162350Z AUTO 00000KT 0300 R01/1600N R19/1400N FG FEW000/// SCT097/// 11/11 Q1010=
201706162320 METAR ESMX 162320Z AUTO 00000KT 0150 R01/0450N R19/1100D FG BKN000/// 12/11 Q1010=
201706162250 METAR ESMX 162250Z AUTO 27003KT 0150 R01/0550N R19/P2000N FG FEW000/// SCT093/// 11/10 Q1009=
201706162220 METAR ESMX 162220Z AUTO 28002KT 0150 R01/0650N R19/P2000N FG FEW079/// 11/10 Q1009=
201706162150 METAR ESMX 162150Z AUTO 00000KT 0100 R01/0600N R19/0400N FG NCD 12/11 Q1009=
201706162120 METAR ESMX 162120Z AUTO VRB01KT 0200 R01/0600N R19/0800N FG SCT079/// 12/12 Q1009=
201706162050 METAR ESMX 162050Z AUTO 30002KT 2000 BR SCT081/// 13/12 Q1008=
201706162020 METAR ESMX 162020Z AUTO VRB02KT 6000 BR FEW088/// 13/12 Q1008=
201706161950 METAR ESMX 161950Z AUTO 26002KT 9999 FEW089/// 13/13 Q1008=
201706161920 METAR ESMX 161920Z VRB02KT CAVOK 14/13 Q1008=
201706161850 METAR ESMX 161850Z 26003KT 9999 SCT009 14/13 Q1007=
201706161820 METAR ESMX 161820Z 28004KT 9999 FEW004 BKN007 14/13 Q1007=
201706161750 METAR ESMX 161750Z 28005KT 9999 SCT005 BKN009 14/13 Q1007=
201706161720 METAR ESMX 161720Z 26006KT 9999 SCT006 BKN010 15/13 Q1007=
201706161650 METAR ESMX 161650Z 27006KT 9999 FEW006 BKN024 15/13 Q1007=
201706161620 METAR ESMX 161620Z 27006KT 9999 BKN014 14/13 Q1007=
201706161550 METAR ESMX 161550Z 26006KT 9999 FEW008 SCT011 BKN013 14/13 Q1007=
201706161520 METAR ESMX 161520Z 30004KT 9999 -RA FEW005 SCT008 OVC017 14/13 Q1007=
201706161450 METAR ESMX 161450Z 27005KT 9999 -RA FEW007 SCT011 BKN014 14/12 Q1007=
201706161420 METAR ESMX 161420Z 27006KT 240V300 9999 -RA FEW004 SCT006 BKN009 14/13 Q1007=
201706161350 METAR ESMX 161350Z 27009KT 9999 -RA FEW004 SCT007 BKN012 14/13 Q1006=
201706161320 METAR ESMX 161320Z 28008KT 9999 -RA FEW004 SCT006 BKN008 14/13 Q1006=
201706161250 METAR ESMX 161250Z 27008KT 9999 -RA SCT005 BKN012 14/13 Q1006=
201706161220 METAR ESMX 161220Z 29008KT 9000 -RA FEW007 SCT014 BKN018 14/13 Q1006=
201706161150 METAR ESMX 161150Z 20004KT 9999 -RA FEW006 SCT014 BKN020 15/13 Q1006=
201706161120 METAR ESMX 161120Z 16006KT 9999 -RA FEW007 SCT018 BKN031 15/13 Q1006=
201706161050 METAR ESMX 161050Z 15005KT 9999 RA FEW017 BKN054 15/13 Q1006=
201706161020 METAR ESMX 161020Z 14005KT 090V200 9999 -RA FEW013 BKN020 16/13 Q1006=
201706160950 METAR ESMX 160950Z 16006KT 9999 -DZ SCT008 BKN012 16/14 Q1006=
201706160920 METAR ESMX 160920Z 16005KT 120V190 9999 FEW006 SCT012 BKN038 16/14 Q1006=
201706160850 METAR ESMX 160850Z 17005KT 130V190 9999 -DZ FEW004 SCT006 BKN040 16/14 Q1006=
201706160820 METAR COR ESMX 160820Z 14005KT 110V180 9999 -RA SCT004 BKN008 15/14 Q1006=
201706160750 METAR ESMX 160750Z 12004KT 080V150 7000 -RA BKN004 BKN027 14/13 Q1006=
201706160720 METAR ESMX 160720Z 15006KT 9000 -RA BKN006 14/13 Q1006=
201706160650 METAR COR ESMX 160650Z 15006KT 120V190 9999 -RA SCT030 BKN080 14/13 Q1007=
201706160620 METAR ESMX 160620Z 14007KT 9999 -RA SCT065 14/12 Q1007=
201706160550 METAR ESMX 160550Z 14008KT 9999 -RA FEW026 SCT075 15/12 Q1007=
201706160520 METAR ESMX 160520Z 14006KT CAVOK 15/12 Q1007=
201706160450 METAR ESMX 160450Z 13005KT 090V170 CAVOK 15/12 Q1007=
201706160420 METAR ESMX 160420Z 16005KT 130V190 CAVOK 15/12 Q1007=
201706160350 METAR ESMX 160350Z VRB02KT CAVOK 15/12 Q1007=
201706160320 METAR ESMX 160320Z AUTO 11004KT 070V170 9999 NCD 15/13 Q1007=
201706160250 METAR ESMX 160250Z AUTO 13005KT 9999 NCD 15/13 Q1008=
201706160220 METAR ESMX 160220Z AUTO 14005KT 9999 FEW098/// 15/13 Q1008=
201706160150 METAR ESMX 160150Z AUTO 15005KT 9999 FEW091/// 15/13 Q1009=
201706160120 METAR ESMX 160120Z 15004KT CAVOK 15/12 Q1009=
201706160050 METAR ESMX 160050Z 13004KT CAVOK 14/12 Q1009=
201706160020 METAR ESMX 160020Z 19003KT CAVOK 13/11 Q1010=
201706152350 METAR ESMX 152350Z AUTO 19002KT 9999 NCD 13/12 Q1010=
201706152320 METAR ESMX 152320Z 00000KT CAVOK 13/11 Q1010=
201706152250 METAR COR ESMX 152250Z VRB02KT CAVOK 14/11 Q1011=
201706152220 METAR COR ESMX 152220Z 15003KT CAVOK 14/12 Q1011=
201706152150 METAR ESMX 152150Z 21001KT CAVOK 14/11 Q1011=
201706152120 METAR ESMX 152120Z 24002KT CAVOK 15/12 Q1011=
201706152050 METAR ESMX 152050Z 23003KT CAVOK 16/11 Q1012=
201706152020 METAR ESMX 152020Z 23004KT CAVOK 16/12 Q1012=
201706151950 METAR ESMX 151950Z 22004KT CAVOK 16/12 Q1012=
201706151920 METAR ESMX 151920Z 19003KT CAVOK 19/12 Q1012=
201706151850 METAR ESMX 151850Z 23005KT CAVOK 20/12 Q1012=
201706151820 METAR ESMX 151820Z 21004KT CAVOK 21/12 Q1012=
201706151750 METAR ESMX 151750Z 21004KT CAVOK 21/12 Q1013=
201706151720 METAR ESMX 151720Z 24003KT CAVOK 21/12 Q1013=
201706151650 METAR ESMX 151650Z 25003KT CAVOK 22/09 Q1013=
201706151620 METAR ESMX 151620Z 23003KT 170V310 9999 FEW046 23/10 Q1013=
201706151550 METAR ESMX 151550Z VRB02KT 9999 FEW046 22/10 Q1013=
201706151520 METAR ESMX 151520Z 22005KT 9999 FEW047 22/10 Q1014=
201706151450 METAR ESMX 151450Z VRB03KT CAVOK 22/09 Q1014=
201706151420 METAR ESMX 151420Z 30004KT 220V350 CAVOK 22/09 Q1014=
201706151350 METAR ESMX 151350Z 23005KT 190V310 9999 FEW035 21/12 Q1014=
201706151320 METAR ESMX 151320Z 27006KT 240V310 CAVOK 21/12 Q1015=
201706151250 METAR ESMX 151250Z 27007KT 200V340 CAVOK 21/11 Q1015=
201706151220 METAR ESMX 151220Z 30005KT CAVOK 21/12 Q1015=
201706151150 METAR ESMX 151150Z 32005KT 9999 FEW040 19/12 Q1015=
201706151120 METAR ESMX 151120Z 29006KT 260V350 CAVOK 20/11 Q1015=
201706151050 METAR ESMX 151050Z 25006KT 200V300 9999 FEW029 19/11 Q1016=
201706151020 METAR ESMX 151020Z 27004KT 200V350 9999 FEW021 19/13 Q1016=
201706150950 METAR ESMX 150950Z 27004KT 190V330 9999 FEW017 18/12 Q1016=
201706150920 METAR ESMX 150920Z 27005KT 230V330 9999 SCT013 17/12 Q1016=
201706150850 METAR ESMX 150850Z 28005KT 240V350 9999 BKN011 16/11 Q1016=
201706150820 METAR ESMX 150820Z 27006KT 200V320 9999 SCT008 OVC010 14/12 Q1016=
201706150750 METAR ESMX 150750Z 26005KT 220V300 9999 OVC008 14/11 Q1016=
201706150720 METAR ESMX 150720Z 27006KT 9999 OVC007 14/12 Q1016=
201706150650 METAR ESMX 150650Z 28006KT 250V320 9999 OVC006 13/11 Q1016=
201706150620 METAR ESMX 150620Z 26005KT 220V290 9999 OVC004 13/11 Q1016=
201706150550 METAR ESMX 150550Z 26006KT 9999 OVC004 13/11 Q1015=
201706150520 METAR ESMX 150520Z 27007KT 9999 OVC002 12/11 Q1015=
201706150450 METAR ESMX 150450Z 27005KT 240V300 9999 OVC002 12/11 Q1015=
201706150420 METAR ESMX 150420Z 27005KT 230V300 4800 BR VV002 12/11 Q1015=
201706150350 METAR ESMX 150350Z 28003KT 240V300 9999 BKN003 11/11 Q1015=
201706150320 METAR ESMX 150320Z AUTO 20003KT 9999 FEW055/// 11/10 Q1015=
201706150250 METAR ESMX 150250Z AUTO VRB02KT 9999 FEW065/// 10/09 Q1015=
201706150220 METAR ESMX 150220Z AUTO VRB02KT 9999 NCD 11/10 Q1015=
201706150150 METAR ESMX 150150Z AUTO 25005KT 9999 NCD 11/10 Q1015=
201706150120 METAR ESMX 150120Z AUTO 26004KT 9999 NCD 11/10 Q1015=
201706150050 METAR ESMX 150050Z AUTO 26004KT 9999 NCD 11/09 Q1015=
201706150020 METAR ESMX 150020Z AUTO 26004KT 9999 FEW082/// 11/09 Q1015=
201706142350 METAR ESMX 142350Z AUTO 26005KT 9999 FEW049/// 12/09 Q1015=
201706142320 METAR ESMX 142320Z 26005KT CAVOK 12/09 Q1015=
201706142250 METAR ESMX 142250Z 26005KT CAVOK 12/08 Q1015=
201706142220 METAR ESMX 142220Z 26004KT CAVOK 12/08 Q1015=
201706142150 METAR ESMX 142150Z 27003KT CAVOK 13/09 Q1015=
201706142120 METAR ESMX 142120Z 26005KT CAVOK 14/08 Q1015=
201706142050 METAR COR ESMX 142050Z 27004KT CAVOK 14/08 Q1015=
201706142020 METAR ESMX 142020Z 26005KT CAVOK 15/09 Q1015=
201706141950 METAR ESMX 141950Z 27007KT CAVOK 16/08 Q1015=
201706141920 METAR ESMX 141920Z 27009KT CAVOK 17/08 Q1014=
201706141850 METAR ESMX 141850Z 27008KT CAVOK 17/09 Q1014=
201706141820 METAR ESMX 141820Z 27010KT CAVOK 18/09 Q1014=
201706141750 METAR ESMX 141750Z 26009KT 210V290 9999 FEW041 19/09 Q1014=
201706141720 METAR ESMX 141720Z 27008KT 240V310 9999 FEW040 SCT049 20/10 Q1014=
201706141650 METAR ESMX 141650Z VRB03KT 9999 FEW040 19/11 Q1014=
201706141620 METAR ESMX 141620Z VRB03KT 9999 FEW040 18/11 Q1014=
201706141550 METAR COR ESMX 141550Z VRB03KT 9999 FEW043 18/11 Q1014=
201706141520 METAR ESMX 141520Z 06004KT 030V100 9999 TS VCSH FEW035CB SCT047 BKN100 17/11 Q1014=
201706141450 METAR ESMX 141450Z 36010KT 9999 TS VCSH FEW035CB SCT043 BKN082 17/11 Q1015=
201706141420 METAR COR ESMX 141420Z 26014KT 9999 TS VCSH FEW035CB SCT040 22/11 Q1014=
201706141350 METAR COR ESMX 141350Z 26011KT 230V300 9999 VCSH FEW035CB SCT042 22/10 Q1013=
201706141320 METAR ESMX 141320Z 27008KT 230V310 9999 FEW035CB SCT043 22/11 Q1013=
201706141250 METAR ESMX 141250Z 27008KT 230V300 9999 SCT041 22/11 Q1013=
201706141220 METAR ESMX 141220Z 27007KT 210V330 CAVOK 20/11 Q1014=
201706141150 METAR ESMX 141150Z 28007KT 230V350 9999 FEW035 SCT072 21/12 Q1014=
201706141120 METAR ESMX 141120Z 30006KT 260V340 9999 FEW035 SCT050 20/11 Q1014=
201706141050 METAR ESMX 141050Z 27007KT 230V320 9999 FEW031 20/12 Q1014=
201706141020 METAR ESMX 141020Z 30006KT 250V330 9999 FEW029 20/12 Q1014=
201706140950 METAR ESMX 140950Z 28006KT 230V350 9999 SCT020 19/12 Q1014=
201706140920 METAR ESMX 140920Z 28006KT 230V340 9999 SCT016 18/12 Q1014=
201706140850 METAR ESMX 140850Z 27008KT 210V340 9999 FEW014 SCT016 16/12 Q1014=
201706140820 METAR ESMX 140820Z 27007KT 220V320 9999 BKN011 16/12 Q1014=
201706140750 METAR ESMX 140750Z 26006KT 230V300 9999 BKN009 15/12 Q1014=
201706140720 METAR ESMX 140720Z 26008KT 230V300 9999 OVC008 14/12 Q1014=
201706140650 METAR ESMX 140650Z 26007KT 9999 FEW007 OVC008 13/11 Q1014=
201706140620 METAR ESMX 140620Z 27007KT 9999 FEW005 OVC007 13/11 Q1013=
201706140550 METAR ESMX 140550Z 27005KT 9999 FEW005 OVC007 13/12 Q1013=
201706140520 METAR ESMX 140520Z 27006KT 250V330 9999 OVC004 13/11 Q1013=
201706140450 METAR ESMX 140450Z 27008KT 9999 OVC004 12/11 Q1013=
201706140420 METAR ESMX 140420Z 27006KT 9999 OVC004 12/11 Q1013=
201706140350 METAR ESMX 140350Z 26007KT 9999 BKN004 12/11 Q1012=
201706140320 METAR ESMX 140320Z AUTO 27007KT 240V300 9999 OVC004/// 12/11 Q1012=
201706140250 METAR ESMX 140250Z AUTO 26006KT 230V300 9999 FEW003/// BKN004/// 12/11 Q1012=
201706140220 METAR ESMX 140220Z AUTO 25007KT 9999 SCT003/// 12/11 Q1012=
201706140150 METAR ESMX 140150Z AUTO 25006KT 9999 -DZ FEW003/// SCT074/// 12/11 Q1011=
201706140120 METAR ESMX 140120Z AUTO 26005KT 9999 FEW069/// SCT081/// 12/11 Q1011=
201706140050 METAR ESMX 140050Z AUTO 26003KT 9999 BKN072/// 12/11 Q1011=
201706140020 METAR ESMX 140020Z AUTO 26002KT 9999 BKN072/// 12/11 Q1011=
201706132350 METAR ESMX 132350Z VRB02KT 9999 FEW037 BKN075 12/11 Q1011=
201706132320 METAR ESMX 132320Z 28003KT 260V330 9999 SCT036 BKN087 12/11 Q1011 RERA=
201706132250 METAR COR ESMX 132250Z 29003KT 9999 -SHRA SCT037CB 12/11 Q1011=
201706132220 METAR ESMX 132220Z 28006KT 9999 -SHRA SCT027CB 13/12 Q1011=
201706132150 METAR ESMX 132150Z 28007KT 9999 -SHRA SCT030CB BKN049 13/12 Q1010=
201706132120 METAR ESMX 132120Z 27007KT 9999 BKN030 13/12 Q1010=
201706132050 METAR ESMX 132050Z 28006KT 9999 VCSH SCT021CB BKN034 13/11 Q1010=
201706132020 METAR ESMX 132020Z 29007KT 9999 VCSH BKN030CB 14/12 Q1010=
201706131950 METAR ESMX 131950Z 27006KT 9999 -SHRA SCT025CB BKN036 14/12 Q1009=
201706131920 METAR ESMX 131920Z 30005KT 260V330 9999 -SHRA BKN028CB 14/12 Q1009=
201706131850 METAR ESMX 131850Z 32004KT 280V350 9999 BKN044 14/12 Q1008=
201706131820 METAR ESMX 131820Z 29007KT 9999 FEW048 BKN056 15/12 Q1008=
201706131750 METAR ESMX 131750Z 28006KT 9999 VCSH FEW045CB BKN056 15/12 Q1008=
201706131720 METAR ESMX 131720Z 26004KT 230V300 9999 VCSH SCT040CB BKN060 15/13 Q1007=
201706131650 METAR ESMX 131650Z 28009KT 9999 -SHRA FEW030CB SCT042 BKN060 15/12 Q1007=
201706131620 METAR ESMX 131620Z 31006KT 9999 FEW045 BKN060 17/10 Q1006=
201706131550 METAR ESMX 131550Z 31010KT 9999 FEW024 BKN070 17/11 Q1006=
201706131520 METAR ESMX 131520Z 29011KT CAVOK 18/10 Q1006=
201706131450 METAR ESMX 131450Z 29010KT CAVOK 18/09 Q1006=
201706131420 METAR ESMX 131420Z 28010KT 9999 FEW050 BKN062 19/10 Q1005=
201706131350 METAR ESMX 131350Z 28009KT 9999 FEW026 BKN043 17/10 Q1005=
201706131320 METAR ESMX 131320Z 28011KT 9999 FEW020 BKN045 18/09 Q1005=
201706131250 METAR ESMX 131250Z 27014KT 9999 FEW042 BKN053 19/10 Q1004=
201706131220 METAR ESMX 131220Z 27013KT 230V310 9999 FEW037 SCT047 18/10 Q1004=
201706131150 METAR ESMX 131150Z 27017KT 9999 FEW037 SCT061 BKN078 18/09 Q1003=
201706131120 METAR ESMX 131120Z 26013KT 220V300 9999 FEW043 SCT069 18/10 Q1003=
201706131050 METAR ESMX 131050Z 27014KT 250V310 9999 FEW035 SCT055 18/10 Q1003=
201706131020 METAR ESMX 131020Z 26017KT 230V300 9999 FEW032 SCT060 19/11 Q1002=
201706130950 METAR ESMX 130950Z 26016KT 9999 SCT036 18/11 Q1002=
201706130920 METAR ESMX 130920Z 28015KT 250V310 9999 SCT024 18/11 Q1002=
201706130850 METAR ESMX 130850Z 26014KT 230V290 9999 FEW020 SCT024 17/11 Q1002=
201706130820 METAR ESMX 130820Z 27014KT 230V300 9999 SCT020 16/11 Q1002=
201706130750 METAR ESMX 130750Z 26012KT 230V320 9999 FEW017 SCT019 16/11 Q1002=
201706130720 METAR ESMX 130720Z 25012KT 9999 SCT015 15/11 Q1002=
201706130650 METAR ESMX 130650Z 27013KT 230V300 9999 SCT015 BKN019 15/11 Q1001=
201706130620 METAR ESMX 130620Z 26013KT 240V300 9999 BKN014 14/10 Q1001=
201706130550 METAR ESMX 130550Z 27014KT 9999 BKN013 13/10 Q1001=
201706130520 METAR ESMX 130520Z 26014G25KT 9999 BKN012 13/10 Q1001=
201706130450 METAR ESMX 130450Z 26013G26KT 230V300 9999 BKN012 12/10 Q1001=
201706130420 METAR ESMX 130420Z 26011KT 9999 SCT012 BKN016 12/10 Q1000=
201706130350 METAR ESMX 130350Z 26012KT 9999 BKN012 12/10 Q1000=
201706130320 METAR ESMX 130320Z AUTO 26010KT 220V280 9999 FEW010/// SCT012/// BKN017/// 12/10 Q1000=
201706130250 METAR ESMX 130250Z AUTO 26010KT 230V300 9999 OVC010/// 12/10 Q1000=
201706130220 METAR ESMX 130220Z AUTO 26010KT 9999 FEW009/// OVC010/// 12/10 Q1000=
201706130150 METAR ESMX 130150Z AUTO 26010KT 9999 OVC010/// 12/10 Q1000=
201706130120 METAR ESMX 130120Z AUTO 26011KT 9999 FEW012/// SCT014/// BKN042/// 11/10 Q1000=
201706130050 METAR ESMX 130050Z AUTO 24011KT 210V270 9999 FEW011/// SCT015/// BKN022/// 11/10 Q1000=
201706130020 METAR ESMX 130020Z AUTO 26010KT 9999 FEW011/// BKN014/// BKN024/// 11/10 Q1000=
201706122350 METAR ESMX 122350Z 26011KT 7000 -RADZ SCT012 BKN025 12/10 Q1000=
201706122320 METAR ESMX 122320Z 26012KT 9999 -DZ BKN013 12/10 Q1000=
201706122250 METAR ESMX 122250Z 24010KT 8000 -DZ FEW010 BKN015 12/10 Q1000=
201706122220 METAR COR ESMX 122220Z 26012KT 220V290 9999 SCT010 BKN014 12/10 Q1000 REDZ=
201706122150 METAR ESMX 122150Z 24011KT 9999 -DZ SCT012 BKN026 12/10 Q1000=
201706122120 METAR ESMX 122120Z 25010KT 8000 -DZ BR SCT010 BKN025 12/10 Q1000=
201706122050 METAR ESMX 122050Z 24010KT 9999 -DZ BKN019 12/10 Q1000=
201706122020 METAR COR ESMX 122020Z 25010KT 9000 -SHRA FEW010 BKN015CB 12/10 Q1000=
201706121950 METAR COR ESMX 121950Z 25013KT 9999 -SHRA BKN010CB 12/10 Q1000=
201706121920 METAR ESMX 121920Z 25012G24KT 9999 VCSH FEW013 BKN016CB 12/10 Q1000=
201706121850 METAR ESMX 121850Z 25013KT 9999 -SHRA FEW012 BKN015CB 12/11 Q1000=
201706121820 METAR ESMX 121820Z 24010KT 9999 -SHRA SCT009 BKN017CB 13/11 Q1000=
201706121750 METAR ESMX 121750Z 25014KT 220V280 9999 -SHRA BKN017CB 13/11 Q1000=
201706121720 METAR ESMX 121720Z 26012G22KT 9999 VCSH BKN014CB 13/11 Q1000=
201706121650 METAR ESMX 121650Z 25014G24KT 9999 FEW011 SCT016CB BKN020 13/11 Q1000 RERA=
201706121620 METAR ESMX 121620Z 26010KT 9999 -SHRA FEW015 SCT021CB BKN028 13/11 Q1000=
201706121550 METAR ESMX 121550Z 25014G24KT 9999 FEW018CB SCT051 14/12 Q1000=
201706121520 METAR COR ESMX 121520Z 24016G27KT 9999 -SHRA FEW013 SCT027CB BKN061 13/11 Q1001=
201706121450 METAR ESMX 121450Z 24013KT 9999 FEW024 SCT066 15/11 Q1001 RERA=
201706121420 METAR ESMX 121420Z 25014G26KT 9999 FEW019 SCT056CB 16/10 Q1001=
201706121350 METAR ESMX 121350Z 24013G24KT 200V290 9999 FEW024 SCT035CB 15/11 Q1001=
201706121320 METAR ESMX 121320Z 22016KT 9999 FEW024CB SCT038 15/10 Q1001=
201706121250 METAR ESMX 121250Z 25014G24KT 210V280 9999 FEW028CB BKN038 17/10 Q1001=
201706121220 METAR ESMX 121220Z 26016G27KT 9999 FEW028CB SCT031 BKN059 16/09 Q1001=
201706121150 METAR ESMX 121150Z 23017KT 9999 VCSH FEW025 SCT040CB 17/10 Q1001=
201706121120 METAR ESMX 121120Z 23012KT 200V260 9999 SCT025CB BKN055 17/12 Q1001=
201706121050 METAR ESMX 121050Z 25011KT 230V290 9999 SCT022CB BKN055 15/11 Q1001=
201706121020 METAR ESMX 121020Z 23015KT 200V260 9999 -SHRA FEW021CB SCT068 15/11 Q1001=
201706120950 METAR ESMX 120950Z 26015G25KT 9999 FEW022 SCT031CB BKN045 16/11 Q1001=
201706120920 METAR ESMX 120920Z 26014G25KT 230V290 9999 FEW017 SCT020CB BKN027 16/11 Q1001=
201706120850 METAR ESMX 120850Z 25013KT 9999 BKN015CB 16/13 Q1001=
201706120820 METAR ESMX 120820Z 23011KT 200V260 9999 -SHRA SCT015CB BKN017 14/11 Q1001=
201706120750 METAR ESMX 120750Z 24009KT 9999 SCT014 BKN020 15/12 Q1001=
201706120720 METAR ESMX 120720Z 24008KT 200V260 9999 -RA SCT012 BKN020 14/11 Q1001=
201706120650 METAR ESMX 120650Z 24009KT 210V280 9999 FEW010 SCT016 BKN020 14/12 Q1002=
201706120620 METAR ESMX 120620Z 24010KT 210V280 9999 SCT011 BKN016 13/11 Q1002=
201706120550 METAR ESMX 120550Z 25009KT 9999 FEW009 SCT011 BKN015 13/11 Q1002=
201706120520 METAR ESMX 120520Z 25010KT 9999 FEW008 BKN010 13/11 Q1002=
201706120450 METAR ESMX 120450Z 23008KT 190V260 9999 SCT006 SCT045 13/12 Q1002=
201706120420 METAR ESMX 120420Z 22008KT 9999 SCT004 SCT040 13/12 Q1002=
201706120350 METAR ESMX 120350Z 22007KT 9999 FEW002 BKN036 13/12 Q1002=
201706120320 METAR ESMX 120320Z AUTO 21004KT 9999 -RA FEW027/// BKN036/// 13/12 Q1002 RESHRA=
201706120250 METAR ESMX 120250Z AUTO 20004KT 9999 RA FEW024/// SCT037/// 13/12 Q1003=
201706120220 METAR ESMX 120220Z AUTO 25004KT 160V290 9999 RA FEW027/// BKN040/// 13/12 Q1003=
201706120150 METAR ESMX 120150Z AUTO 27004KT 220V310 9999 SCT027/// BKN041/// BKN053/// 13/12 Q1003=
201706120120 METAR ESMX 120120Z AUTO 31012KT 9999 -RA FEW005/// SCT016/// BKN026/// 14/12 Q1003=
201706120050 METAR ESMX 120050Z AUTO 19012KT 6000 -RA FEW007/// SCT012/// BKN015/// 16/15 Q1003 RERA=
201706120020 METAR ESMX 120020Z AUTO 16010KT 9999 BR FEW012/// SCT023/// BKN047/// 16/15 Q1003=
201706112350 METAR ESMX 112350Z 16010KT 9999 -RA FEW025 BKN035 17/15 Q1004=
201706112320 METAR ESMX 112320Z 13003KT 9999 FEW030 SCT048 BKN070 16/14 Q1004=
201706112250 METAR ESMX 112250Z 16002KT 9999 FEW023 BKN070 16/14 Q1005=
201706112220 METAR ESMX 112220Z 16004KT 9999 SCT023 BKN060 17/15 Q1006=
201706112150 METAR ESMX 112150Z 22004KT 9999 FEW022 BKN027 17/14 Q1007=
201706112120 METAR ESMX 112120Z 23006KT 200V260 9999 -RA FEW025 BKN050 18/14 Q1008=
201706112050 METAR COR ESMX 112050Z 21009KT 9999 -RA SCT025 BKN045 18/14 Q1008=
201706112020 METAR ESMX 112020Z 22008KT 9999 FEW032 SCT048 18/14 Q1008=
201706111950 METAR ESMX 111950Z 22009KT 9999 SCT042 BKN100 18/14 Q1008=
201706111920 METAR ESMX 111920Z 22007KT 9999 FEW025 BKN045 18/14 Q1009=
201706111850 METAR ESMX 111850Z 22009KT 9999 FEW026 BKN045 18/15 Q1009=
201706111820 METAR ESMX 111820Z 18003KT 9999 BKN026 18/16 Q1009=
201706111750 METAR ESMX 111750Z 18004KT 9999 SCT028 BKN038 18/16 Q1010=
201706111720 METAR ESMX 111720Z 21003KT 9999 SCT030 BKN041 18/16 Q1010=
201706111650 METAR ESMX 111650Z AUTO VRB02KT 9999 BKN027/// 17/16 Q1011=
201706111620 METAR COR ESMX 111620Z 24005KT 200V260 9000 VCSH BKN028CB 17/16 Q1011=
201706111550 METAR COR ESMX 111550Z 22011KT 8000 -SHRA BKN020CB 19/14 Q1011=
201706111520 METAR ESMX 111520Z 18007KT 9999 VCSH FEW027CB BKN036 20/14 Q1011=
201706111450 METAR ESMX 111450Z 17008KT 9999 BKN038 20/13 Q1011=
201706111420 METAR ESMX 111420Z 18011KT 9999 BKN040 21/13 Q1012=
201706111350 METAR ESMX 111350Z 17012KT 9999 FEW040 BKN045 21/13 Q1012=
201706111320 METAR ESMX 111320Z 17009KT 9999 BKN035 20/13 Q1012=
201706111250 METAR ESMX 111250Z 16011KT 9999 BKN035 19/13 Q1013=
201706111220 METAR ESMX 111220Z 17011KT 140V210 9999 FEW026 BKN032 19/12 Q1013=
201706111150 METAR ESMX 111150Z 17010KT 9999 FEW025 19/13 Q1014=
201706111120 METAR ESMX 111120Z 18010KT 140V210 9999 FEW020 18/13 Q1014=
201706111050 METAR ESMX 111050Z 17009KT 9999 -SHRA FEW020CB 17/13 Q1015=
201706111020 METAR ESMX 111020Z AUTO 19010KT 9999 FEW016/// SCT048/// 17/13 Q1015=
201706110950 METAR ESMX 110950Z AUTO 21010KT 180V260 9999 FEW019/// SCT039/// BKN044/// 17/12 Q1016=
201706110920 METAR ESMX 110920Z AUTO 20011KT 9999 SCT020/// BKN038/// OVC042/// 16/12 Q1016=
201706110850 METAR ESMX 110850Z AUTO 19013KT 9999 FEW037/// BKN047/// 17/12 Q1016=
201706110820 METAR ESMX 110820Z AUTO 21009KT 9999 BKN040/// BKN050/// 16/12 Q1016=
201706110750 METAR ESMX 110750Z AUTO 24008KT 190V270 9999 FEW028/// BKN042/// 16/11 Q1016=
201706110720 METAR ESMX 110720Z AUTO 21009KT 9999 FEW065/// 17/12 Q1016=
201706110650 METAR ESMX 110650Z AUTO 22008KT 9999 -RA FEW051/// 16/12 Q1017=
201706110620 METAR ESMX 110620Z AUTO 21008KT 9999 FEW050/// SCT099/// 16/12 Q1017=
201706110550 METAR ESMX 110550Z AUTO 22006KT 200V260 9999 SCT100/// 16/12 Q1017=
201706110520 METAR ESMX 110520Z AUTO 21005KT 9999 FEW058/// SCT110/// 14/11 Q1017=
201706110450 METAR ESMX 110450Z AUTO 21005KT 9999 FEW076/// SCT110/// 13/11 Q1017=
201706110420 METAR ESMX 110420Z AUTO 19004KT 9999 NCD 12/10 Q1017=
201706110350 METAR ESMX 110350Z AUTO 21005KT 9999 NCD 11/10 Q1017=
201706110320 METAR ESMX 110320Z AUTO 21004KT 9999 NCD 11/10 Q1017=
201706110250 METAR ESMX 110250Z AUTO 22005KT 9999 NCD 11/09 Q1017=
201706110220 METAR ESMX 110220Z AUTO 21006KT 9999 FEW057/// 11/09 Q1017=
201706110150 METAR ESMX 110150Z AUTO 21006KT 9999 NCD 09/08 Q1017=
201706110120 METAR ESMX 110120Z AUTO 20004KT 9999 NCD 10/09 Q1017=
201706110050 METAR ESMX 110050Z AUTO 22003KT 9999 FEW053/// 10/08 Q1018=
201706110020 METAR ESMX 110020Z AUTO 22005KT 9999 FEW075/// 09/08 Q1017=
201706102350 METAR ESMX 102350Z AUTO 23005KT 9999 FEW074/// 10/09 Q1018=
201706102320 METAR ESMX 102320Z AUTO 22005KT 9999 BKN067/// 11/09 Q1018=
201706102250 METAR ESMX 102250Z AUTO 22004KT 9999 FEW069/// 11/09 Q1018=
201706102220 METAR ESMX 102220Z AUTO 20003KT 9999 NCD 11/09 Q1018=
201706102150 METAR ESMX 102150Z AUTO 22004KT 9999 NCD 11/09 Q1018=
201706102120 METAR ESMX 102120Z AUTO 24005KT 9999 NCD 12/09 Q1018=
201706102050 METAR ESMX 102050Z AUTO 25005KT 9999 FEW049/// 12/09 Q1018=
201706102020 METAR ESMX 102020Z AUTO 24005KT 9999 NCD 13/08 Q1018=
201706101950 METAR ESMX 101950Z AUTO 26005KT 9999 FEW042/// 14/08 Q1017=
201706101920 METAR ESMX 101920Z AUTO 26004KT 9999 NCD 15/08 Q1017=
201706101850 METAR ESMX 101850Z AUTO 26005KT 9999 NCD 16/08 Q1017=
201706101820 METAR ESMX 101820Z 27007KT CAVOK 17/08 Q1017=
201706101750 METAR ESMX 101750Z 27008KT 240V300 CAVOK 18/08 Q1017=
201706101720 METAR ESMX 101720Z 25008KT 210V280 CAVOK 19/08 Q1017=
201706101650 METAR ESMX 101650Z 26010KT CAVOK 19/08 Q1016=
201706101620 METAR ESMX 101620Z 26010KT 9999 FEW046 19/08 Q1016=
201706101550 METAR ESMX 101550Z AUTO 28010KT 240V310 9999 FEW045/// BKN054/// 20/09 Q1016=
201706101520 METAR ESMX 101520Z AUTO 27007KT 230V300 9999 FEW047/// BKN059/// 19/09 Q1016=
201706101450 METAR ESMX 101450Z AUTO 25010KT 9999 FEW037/// SCT062/// 19/10 Q1016=
201706101420 METAR ESMX 101420Z AUTO 25007KT 9999 SCT033/// BKN039/// 18/10 Q1016=
201706101350 METAR ESMX 101350Z AUTO 26009KT 220V310 9999 FEW030/// 19/11 Q1016=
201706101320 METAR ESMX 101320Z AUTO 28007KT 240V350 9999 BKN059/// 19/11 Q1016=
201706101250 METAR ESMX 101250Z AUTO 27008KT 9999 FEW026/// SCT045/// BKN054/// 18/11 Q1017=
201706101220 METAR ESMX 101220Z AUTO 28007KT 9999 FEW032/// BKN043/// 18/09 Q1017=
201706101150 METAR ESMX 101150Z AUTO 24008KT 210V280 9999 FEW022/// OVC034/// 17/11 Q1016=
201706101120 METAR ESMX 101120Z AUTO 24007KT 210V280 9999 FEW020/// BKN030/// OVC036/// 16/12 Q1016=
201706101050 METAR ESMX 101050Z AUTO 27007KT 9999 FEW017/// OVC024/// 16/11 Q1016=
201706101020 METAR ESMX 101020Z AUTO 26007KT 9999 FEW018/// OVC025/// 17/11 Q1016=
201706100950 METAR ESMX 100950Z AUTO 27005KT 220V320 9999 FEW020/// SCT030/// BKN080/// 16/12 Q1015 REDZ=
201706100920 METAR ESMX 100920Z AUTO 27005KT 9999 -DZ FEW017/// SCT056/// 15/11 Q1015=
201706100850 METAR ESMX 100850Z 27007KT 230V300 9999 SCT015 BKN031 15/11 Q1015=
201706100820 METAR ESMX 100820Z 26005KT 230V300 9999 BKN015 15/12 Q1015=
201706100750 METAR ESMX 100750Z 29007KT 9999 FEW013 SCT021 BKN031 15/12 Q1014 REDZ=
201706100720 METAR ESMX 100720Z 27008KT 230V300 9999 SCT011 BKN027 15/12 Q1015=
201706100650 METAR ESMX 100650Z 23009KT 9999 BKN011 BKN026 15/12 Q1015=
201706100620 METAR ESMX 100620Z AUTO 25008KT 9999 FEW009/// SCT011/// BKN013/// 15/12 Q1014=
201706100550 METAR ESMX 100550Z AUTO 25008KT 9999 FEW008/// BKN010/// OVC023/// 15/12 Q1013=
201706100520 METAR ESMX 100520Z AUTO 28007KT 250V310 9999 FEW007/// BKN023/// 15/12 Q1013=
201706100450 METAR ESMX 100450Z AUTO 27008KT 9999 FEW006/// SCT007/// BKN008/// 15/13 Q1012=
201706100420 METAR ESMX 100420Z AUTO 23007KT 9999 FEW005/// SCT025/// BKN083/// 15/13 Q1012=
201706100350 METAR ESMX 100350Z AUTO 22006KT 9999 FEW017/// SCT022/// 14/12 Q1013=
201706100320 METAR ESMX 100320Z AUTO 21005KT 9999 FEW013/// BKN016/// 14/12 Q1012=
201706100250 METAR ESMX 100250Z AUTO 18006KT 9999 FEW013/// BKN016/// BKN075/// 14/11 Q1012=
201706100220 METAR ESMX 100220Z AUTO VRB03KT 9999 FEW074/// 14/11 Q1011=
201706100150 METAR ESMX 100150Z AUTO 17006KT 9999 SCT076/// 15/11 Q1011=
201706100120 METAR ESMX 100120Z AUTO 14006KT 100V170 9999 SCT061/// 15/11 Q1011=
201706100050 METAR ESMX 100050Z AUTO 13006KT 080V170 9999 FEW060/// SCT070/// 15/11 Q1010=
201706100020 METAR ESMX 100020Z AUTO 14007KT 090V160 9999 BKN053/// 15/11 Q1011=
201706092350 METAR ESMX 092350Z AUTO 15009KT 9999 FEW077/// 16/10 Q1011=
201706092320 METAR ESMX 092320Z AUTO 15008KT 100V190 9999 FEW066/// SCT080/// 16/10 Q1011=
201706092250 METAR ESMX 092250Z AUTO 13007KT 080V190 9999 SCT064/// 15/10 Q1011=
201706092220 METAR ESMX 092220Z AUTO 13006KT 060V170 9999 NCD 15/10 Q1011=
201706092150 METAR ESMX 092150Z AUTO 12006KT 080V170 9999 NCD 15/11 Q1011=
201706092120 METAR ESMX 092120Z AUTO 11007KT 060V160 9999 NCD 16/11 Q1011=
201706092050 METAR ESMX 092050Z AUTO 13006KT 080V160 9999 NCD 16/11 Q1012=
201706092020 METAR ESMX 092020Z AUTO 13007KT 090V170 9999 NCD 17/11 Q1012=
201706091950 METAR ESMX 091950Z 13005KT 070V170 CAVOK 17/12 Q1012=
201706091920 METAR ESMX 091920Z 12006KT 080V160 CAVOK 18/12 Q1012=
201706091850 METAR ESMX 091850Z 14005KT 070V170 CAVOK 19/11 Q1012=
201706091820 METAR ESMX 091820Z 15006KT 090V180 CAVOK 20/11 Q1012=
201706091750 METAR ESMX 091750Z 14007KT 100V180 CAVOK 20/11 Q1012=
201706091720 METAR ESMX 091720Z 14008KT 090V170 CAVOK 20/12 Q1012=
201706091650 METAR ESMX 091650Z 15009KT 100V170 CAVOK 21/12 Q1012=
201706091620 METAR ESMX 091620Z 16008KT 9999 FEW030 21/12 Q1012=
201706091550 METAR ESMX 091550Z 16007KT 120V190 9999 FEW045 21/12 Q1012=
201706091520 METAR ESMX 091520Z 14007KT 100V170 9999 FEW040 21/13 Q1012=
201706091450 METAR ESMX 091450Z 16009KT 140V200 9999 FEW032 22/13 Q1013=
201706091420 METAR ESMX 091420Z 15007KT 110V200 9999 FEW036 21/13 Q1013=
201706091350 METAR ESMX 091350Z 16006KT 100V190 9999 FEW045 21/14 Q1013=
201706091320 METAR ESMX 091320Z 19004KT 160V220 9999 SCT035 20/14 Q1013=
201706091250 METAR ESMX 091250Z 17005KT 120V190 9999 -DZ FEW025 19/14 Q1013=
201706091220 METAR ESMX 091220Z 16009KT 110V190 9999 FEW015 BKN060 20/14 Q1013=
201706091150 METAR ESMX 091150Z 18008KT 140V210 9999 FEW015 BKN050 20/14 Q1014=
201706091120 METAR ESMX 091120Z 16008KT 130V200 9999 BKN015 19/14 Q1014=
201706091050 METAR ESMX 091050Z 16008KT 110V190 9999 BKN011 17/14 Q1014=
201706091020 METAR ESMX 091020Z 17008KT 9999 FEW008 BKN010 OVC014 16/13 Q1014=
201706090950 METAR ESMX 090950Z 16008KT 120V190 9999 FEW007 SCT008 OVC010 15/13 Q1014=
201706090920 METAR ESMX 090920Z 15006KT 120V190 9999 SCT005 BKN008 15/13 Q1014=
201706090850 METAR ESMX 090850Z 16006KT 130V200 9999 FEW003 SCT005 BKN007 14/13 Q1014=
201706090820 METAR ESMX 090820Z 15006KT 120V180 9999 BKN002 BKN006 14/13 Q1014=
201706090750 METAR ESMX 090750Z 16005KT 130V200 9000 BR BKN002 BKN005 13/12 Q1014 RERA=
201706090720 METAR ESMX 090720Z 16007KT 5000 -RA BKN002 BKN005 13/12 Q1014 REDZ=
201706090650 METAR ESMX 090650Z 17005KT 7000 DZ OVC002 13/12 Q1014=
201706090620 METAR ESMX 090620Z 16005KT 6000 -RA BKN002 12/12 Q1014 RESHRA=
201706090550 METAR ESMX 090550Z 17008KT 5000 -RA OVC002 12/12 Q1014 REDZ=
201706090520 METAR ESMX 090520Z 18008KT 150V210 8000 BR OVC002 12/11 Q1014 RERA=
201706090450 METAR ESMX 090450Z 18007KT 150V210 8000 BR OVC002 12/11 Q1014=
201706090420 METAR ESMX 090420Z 17007KT 8000 BR OVC002 12/11 Q1013=
201706090350 METAR ESMX 090350Z 17007KT 140V200 9000 BR OVC002 12/11 Q1013=
201706090320 METAR ESMX 090320Z AUTO 16007KT 8000 BR OVC002/// 12/11 Q1013=
201706090250 METAR ESMX 090250Z AUTO 17007KT 9999 SCT002/// OVC004/// 12/11 Q1013 REDZ=
201706090220 METAR ESMX 090220Z AUTO 15006KT 8000 DZ BKN003/// OVC006/// 12/11 Q1013=
201706090150 METAR ESMX 090150Z AUTO 15006KT 7000 -RA SCT002/// BKN005/// OVC008/// 12/11 Q1013=
201706090120 METAR ESMX 090120Z AUTO 16006KT 7000 DZ FEW003/// SCT012/// BKN016/// 12/11 Q1013=
201706090050 METAR ESMX 090050Z AUTO 17006KT 8000 -RA SCT007/// BKN027/// 12/11 Q1014=
201706090020 METAR ESMX 090020Z 16005KT 9999 RA FEW019 SCT041 12/11 Q1014=
201706082350 METAR ESMX 082350Z 17005KT 9999 -RA FEW020 SCT030 BKN045 12/10 Q1014=
201706082320 METAR ESMX 082320Z 17006KT 9999 -RA FEW028 BKN032 13/10 Q1014=
201706082250 METAR ESMX 082250Z 17004KT 9999 SCT045 BKN054 13/10 Q1014=
201706082220 METAR ESMX 082220Z 17004KT 9999 SCT040 BKN063 13/10 Q1014=
201706082150 METAR ESMX 082150Z 20004KT 9999 SCT030 BKN042 12/10 Q1014=
201706082120 METAR ESMX 082120Z 20005KT 9999 OVC029 12/09 Q1014=
201706082050 METAR ESMX 082050Z 17004KT 9999 FEW040 BKN060 12/08 Q1014=
201706082020 METAR ESMX 082020Z 20003KT 9999 SCT044 BKN052 10/08 Q1014=
201706081950 METAR ESMX 081950Z 21003KT CAVOK 10/08 Q1014=
201706081920 METAR ESMX 081920Z 23003KT 9999 SCT047 13/07 Q1013=
201706081850 METAR ESMX 081850Z 23004KT 9999 SCT047 14/07 Q1013=
201706081820 METAR ESMX 081820Z 24005KT 9999 FEW045 14/07 Q1013=
201706081750 METAR COR ESMX 081750Z 23006KT 190V260 9999 SCT041 15/06 Q1013=
201706081720 METAR ESMX 081720Z 24008KT 9999 SCT042 15/07 Q1013=
201706081650 METAR ESMX 081650Z 22008KT 190V250 9999 FEW037 SCT045 15/07 Q1013=
201706081620 METAR ESMX 081620Z 23009KT 200V290 9999 FEW041 SCT049 14/07 Q1012=
201706081550 METAR ESMX 081550Z 23009KT 190V260 9999 SCT049 15/07 Q1012=
201706081520 METAR ESMX 081520Z 26009KT 230V310 9999 FEW039 SCT047 15/09 Q1012=
201706081450 METAR ESMX 081450Z 23011KT 9999 BKN037 13/09 Q1013=
201706081420 METAR ESMX 081420Z 23011KT 9999 -RA FEW015 SCT017 BKN020 13/10 Q1013=
201706081350 METAR ESMX 081350Z 22011KT 9999 FEW013 BKN015 BKN022 13/10 Q1012=
201706081320 METAR ESMX 081320Z 22013KT 9999 FEW011 SCT014 BKN018 13/10 Q1012=
201706081250 METAR ESMX 081250Z 22011KT 9999 FEW009 BKN011 13/11 Q1011=
201706081220 METAR ESMX 081220Z 23011KT 190V260 9999 FEW008 BKN010 13/11 Q1011=
201706081150 METAR ESMX 081150Z 22013KT 9999 FEW007 BKN010 13/11 Q1011=
201706081120 METAR ESMX 081120Z 22011KT 9999 FEW004 BKN009 13/12 Q1010=
201706081050 METAR COR ESMX 081050Z 20011KT 3000 DZ FEW004 OVC008 12/11 Q1010=
201706081020 METAR ESMX 081020Z 20012KT 7000 BR FEW005 BKN007 12/11 Q1010=
201706080950 METAR ESMX 080950Z 21014KT 5000 DZ FEW006 BKN009 12/11 Q1009=
201706080920 METAR ESMX 080920Z 20013KT 8000 -DZ FEW006 OVC010 12/11 Q1009=
201706080850 METAR ESMX 080850Z 19015KT 7000 BR SCT007 OVC010 12/10 Q1009=
201706080820 METAR ESMX 080820Z 20013KT 9999 FEW007 OVC010 12/10 Q1008=
201706080750 METAR ESMX 080750Z 20013KT 7000 BR FEW006 BKN008 12/10 Q1008=
201706080720 METAR ESMX 080720Z 20013KT 5000 -DZ FEW006 OVC008 11/10 Q1008=
201706080650 METAR ESMX 080650Z 19014KT 6000 -DZ SCT007 OVC009 11/10 Q1007=
201706080620 METAR ESMX 080620Z 18015KT 9999 FEW006 OVC009 11/10 Q1007=
201706080550 METAR ESMX 080550Z 17014KT 7000 DZ FEW005 OVC007 11/10 Q1007=
201706080520 METAR ESMX 080520Z 17012KT 9999 -DZ FEW005 BKN007 11/09 Q1007=
201706080450 METAR ESMX 080450Z 17012KT 9999 -RA SCT008 BKN011 11/09 Q1007=
201706080420 METAR ESMX 080420Z 17013KT 9999 -RA BKN007 11/09 Q1007=
201706080350 METAR ESMX 080350Z 17010KT 8000 BR OVC009 11/09 Q1007=
201706080320 METAR ESMX 080320Z 16010KT 9999 BKN010 10/09 Q1007=
201706080250 METAR ESMX 080250Z 17012KT 8000 BR BKN007 10/09 Q1007=
201706080220 METAR ESMX 080220Z AUTO 17009KT 140V200 8000 BR ////// 10/09 Q1006 RERA=
201706080150 METAR ESMX 080150Z AUTO 17010KT 9999 ////// 10/09 Q1006 REDZ=
201706080120 METAR ESMX 080120Z AUTO 17010KT 9999 -DZ ////// 10/09 Q1007=
201706080050 METAR ESMX 080050Z AUTO 16010KT 9999 -RA ////// 11/09 Q1006 REDZ=
201706080020 METAR ESMX 080020Z AUTO 16011KT 9999 DZ ////// 10/09 Q1006=
201706072350 METAR ESMX 072350Z 17012KT 9999 -RA BKN010 11/09 Q1006=
201706072320 METAR ESMX 072320Z 16012KT 9999 -RA FEW004 BKN006 11/10 Q1006=
201706072250 METAR ESMX 072250Z 17009KT 9000 RA SCT006 BKN008 11/10 Q1006=
201706072220 METAR ESMX 072220Z 17010KT 9999 -RA OVC006 11/10 Q1006=
201706072150 METAR ESMX 072150Z 16011KT 9999 OVC010 11/10 Q1006=
201706072120 METAR ESMX 072120Z 16011KT 110V180 9999 -RA OVC011 11/09 Q1007=
201706072050 METAR ESMX 072050Z 16012KT 9999 BKN014 11/09 Q1007=
201706072020 METAR ESMX 072020Z 17011KT 140V210 9999 BKN018 12/08 Q1007 RERA=
201706071950 METAR ESMX 071950Z 16012KT 9999 -RA FEW018 SCT045 BKN060 12/08 Q1007=
201706071920 METAR ESMX 071920Z 16012KT 130V190 9999 -RA FEW025 BKN040 12/07 Q1007=
201706071850 METAR ESMX 071850Z 18011KT 9999 FEW025 BKN040 13/07 Q1006=
201706071820 METAR ESMX 071820Z 16014KT 9999 FEW035 SCT045 13/07 Q1006=
201706071750 METAR ESMX 071750Z 16012KT 9999 FEW030CB BKN040 14/08 Q1006=
201706071720 METAR ESMX 071720Z 16014KT 9999 FEW035CB BKN050 14/08 Q1006=
201706071650 METAR ESMX 071650Z 17016KT 9999 BKN035 14/08 Q1006=
201706071620 METAR ESMX 071620Z 17014KT 9999 BKN040 15/08 Q1005=
201706071550 METAR ESMX 071550Z 21012KT 9999 BKN035 14/09 Q1005=
201706071520 METAR ESMX 071520Z 17014KT 9999 VCSH BKN035CB 15/09 Q1005=
201706071450 METAR ESMX 071450Z 18012KT 9999 SCT027 BKN040 15/10 Q1004=
201706071420 METAR ESMX 071420Z 17010KT 9999 VCSH FEW025CB BKN040 15/11 Q1004 RERA=
201706071350 METAR ESMX 071350Z 21010KT 9999 VCSH FEW025CB BKN030 15/11 Q1004 RESHRA=
201706071320 METAR ESMX 071320Z 17014KT 9999 VCSH FEW025CB BKN040 15/10 Q1004 RERA=
201706071250 METAR ESMX 071250Z 18016KT 150V210 9999 SCT028 16/10 Q1003=
201706071220 METAR ESMX 071220Z 18013KT 9999 FEW022 BKN043 15/12 Q1003=
201706071150 METAR ESMX 071150Z 18011KT 9999 FEW018 BKN027 15/10 Q1003=
201706071120 METAR ESMX 071120Z 19012KT 9999 SCT014 BKN020 15/11 Q1002=
201706071050 METAR ESMX 071050Z 20013KT 9999 SCT013 BKN055 12/09 Q1002=
201706071020 METAR ESMX 071020Z 21013KT 9999 -DZ SCT010 BKN015 13/10 Q1002 RERA=
201706070950 METAR ESMX 070950Z 22013KT 190V260 9999 FEW009 BKN013 13/10 Q1001=
201706070920 METAR ESMX 070920Z 23011KT 200V260 9999 FEW008 BKN011 11/10 Q1000=
201706070850 METAR ESMX 070850Z 23012KT 9999 -RA FEW007 BKN009 11/10 Q1000=
201706070820 METAR ESMX 070820Z 23011KT 9999 -RA FEW005 BKN010 11/10 Q0999=
201706070750 METAR ESMX 070750Z 23012KT 9999 +RA SCT004 BKN006 11/09 Q0999=
201706070720 METAR ESMX 070720Z 23013KT 9000 +RA SCT006 OVC010 11/10 Q0998=
201706070650 METAR ESMX 070650Z VRB06KT 7000 +RA FEW003 BKN005 12/12 Q0997=
201706070620 METAR ESMX 070620Z 13005KT 070V170 4400 +RA FEW003 BKN007 13/12 Q0996=
201706070550 METAR ESMX 070550Z 12005KT 080V170 6000 +RA FEW005 OVC006 13/12 Q0997=
201706070520 METAR ESMX 070520Z 10006KT 060V150 6000 +RA SCT005 OVC007 13/12 Q0997=
201706070450 METAR ESMX 070450Z VRB06KT 5000 +RA FEW004 BKN007 13/12 Q0998=
201706070420 METAR ESMX 070420Z 07006KT 360V120 9000 RA FEW003 BKN006 12/12 Q0998=
201706070350 METAR COR ESMX 070350Z 07007KT 030V130 7000 -RA FEW004 BKN007 12/12 Q0998=
201706070320 METAR ESMX 070320Z AUTO 08008KT 020V130 9999 -RA ////// 12/12 Q0999=
201706070250 METAR ESMX 070250Z 08007KT 030V120 6000 RA FEW005 BKN009 12/12 Q1000=
201706070220 METAR ESMX 070220Z AUTO 08008G21KT 010V120 7000 +RA ////// 12/11 Q1000=
201706070150 METAR ESMX 070150Z AUTO 09008KT 050V210 9999 RA ////// 13/11 Q1001=
201706070120 METAR ESMX 070120Z AUTO 09007KT 010V140 9999 -DZ ////// 13/10 Q1001 REDZ=
201706070050 METAR ESMX 070050Z AUTO 09006KT 040V150 9999 -DZ ////// 13/10 Q1002=
201706070020 METAR ESMX 070020Z AUTO 09007KT 030V130 9999 -RA ////// 13/10 Q1003=
201706062350 METAR ESMX 062350Z 09008KT 040V130 9999 -RA FEW025 BKN049 14/09 Q1003=
201706062320 METAR ESMX 062320Z 09008KT 050V140 9999 FEW046 SCT060 15/08 Q1004=
201706062250 METAR ESMX 062250Z 09008KT 030V150 9999 SCT048 15/08 Q1004=
201706062220 METAR ESMX 062220Z 09008KT 060V130 9999 BKN050 15/08 Q1004=
201706062150 METAR ESMX 062150Z 09007KT 030V140 9999 BKN050 15/08 Q1005=
201706062120 METAR ESMX 062120Z 09008KT 050V130 9999 BKN050 15/08 Q1005=
201706062050 METAR ESMX 062050Z 08008KT 050V120 CAVOK 15/09 Q1006=
201706062020 METAR ESMX 062020Z 08008KT 040V120 CAVOK 15/09 Q1006=
201706061950 METAR ESMX 061950Z 09007KT 020V130 CAVOK 16/08 Q1006=
201706061920 METAR ESMX 061920Z 09008G18KT 060V130 CAVOK 16/09 Q1006=
201706061850 METAR ESMX 061850Z 10008KT 040V140 CAVOK 17/09 Q1006=
201706061820 METAR ESMX 061820Z 12010G21KT 080V170 CAVOK 18/09 Q1007=
201706061750 METAR ESMX 061750Z 11012G23KT 080V150 CAVOK 18/09 Q1007=
201706061720 METAR ESMX 061720Z 11009KT 060V160 CAVOK 19/08 Q1007=
201706061650 METAR ESMX 061650Z 11010KT 060V160 CAVOK 20/08 Q1007=
201706061620 METAR ESMX 061620Z 11010KT 070V160 CAVOK 20/08 Q1007=
201706061550 METAR ESMX 061550Z 14010G21KT 090V170 CAVOK 20/08 Q1007=
201706061520 METAR ESMX 061520Z 14010KT 100V180 CAVOK 21/07 Q1007=
201706061450 METAR ESMX 061450Z 12012KT 090V150 CAVOK 21/08 Q1008=
201706061420 METAR ESMX 061420Z 13010KT 060V180 CAVOK 20/08 Q1008=
201706061350 METAR ESMX 061350Z 13010KT 080V200 CAVOK 20/07 Q1008=
201706061320 METAR ESMX 061320Z 11011KT 070V160 CAVOK 20/07 Q1008=
201706061250 METAR ESMX 061250Z VRB09KT 9999 FEW030 BKN060 20/08 Q1008=
201706061220 METAR ESMX 061220Z 14009KT 090V170 9999 FEW030 BKN060 19/07 Q1009=
201706061150 METAR ESMX 061150Z 13011KT 070V170 CAVOK 20/07 Q1009=
201706061120 METAR ESMX 061120Z 13010KT 050V160 CAVOK 20/07 Q1009=
201706061050 METAR ESMX 061050Z 14009KT 090V180 CAVOK 20/07 Q1009=
201706061020 METAR ESMX 061020Z AUTO 13009KT 050V170 9999 ////// 21/07 Q1010=
201706060950 METAR ESMX 060950Z AUTO 11010KT 070V160 9999 ////// 20/07 Q1010=
201706060920 METAR ESMX 060920Z AUTO 14010G22KT 100V180 9999 ////// 19/07 Q1010=
201706060850 METAR ESMX 060850Z AUTO 14010KT 100V170 9999 ////// 19/07 Q1010=
201706060820 METAR ESMX 060820Z AUTO 14008KT 070V190 9999 ////// 19/06 Q1010=
201706060750 METAR ESMX 060750Z 15009KT 100V180 CAVOK 18/07 Q1010=
201706060720 METAR ESMX 060720Z 15009KT 120V190 CAVOK 17/07 Q1011=
201706060650 METAR ESMX 060650Z 14009KT 100V170 CAVOK 16/07 Q1011=
201706060620 METAR ESMX 060620Z 15008KT CAVOK 15/07 Q1011=
201706060550 METAR ESMX 060550Z 15007KT 110V190 CAVOK 14/08 Q1011=
201706060520 METAR ESMX 060520Z AUTO 15008KT 9999 ////// 13/08 Q1011=
201706060450 METAR ESMX 060450Z AUTO 15006KT 9999 ////// 12/08 Q1011=
201706060420 METAR ESMX 060420Z AUTO 15006KT 9999 ////// 11/08 Q1011=
201706060350 METAR ESMX 060350Z AUTO 14006KT 9999 ////// 11/08 Q1011=
201706060320 METAR ESMX 060320Z AUTO 15006KT 9999 ////// 10/08 Q1011=
201706060250 METAR ESMX 060250Z AUTO 15005KT 9999 ////// 10/08 Q1011=
201706060220 METAR ESMX 060220Z AUTO 16005KT 9999 ////// 11/08 Q1011=
201706060150 METAR ESMX 060150Z AUTO 16006KT 9999 ////// 11/08 Q1011=
201706060120 METAR ESMX 060120Z AUTO 17004KT 9999 ////// 11/08 Q1011=
201706060050 METAR ESMX 060050Z AUTO 17005KT 9999 ////// 12/07 Q1011=
201706060020 METAR ESMX 060020Z AUTO 19006KT 9999 ////// 11/08 Q1011=
201706052350 METAR ESMX 052350Z AUTO 18005KT 9999 ////// 12/08 Q1011=
201706052320 METAR ESMX 052320Z AUTO 18007KT 9999 ////// 12/08 Q1011=
201706052250 METAR ESMX 052250Z AUTO 18007KT 9999 ////// 10/08 Q1011=
201706052220 METAR ESMX 052220Z AUTO 18007KT 9999 ////// 11/08 Q1011=
201706052150 METAR ESMX 052150Z AUTO 19008KT 9999 ////// 11/08 Q1011=
201706052120 METAR ESMX 052120Z AUTO 18008KT 9999 ////// 11/08 Q1011=
201706052050 METAR ESMX 052050Z AUTO 18006KT 9999 ////// 11/08 Q1011=
201706052020 METAR ESMX 052020Z AUTO 19006KT 9999 ////// 10/07 Q1011=
201706051950 METAR ESMX 051950Z AUTO 18006KT 9999 ////// 12/07 Q1011=
201706051920 METAR ESMX 051920Z AUTO 19005KT 9999 ////// 13/07 Q1011=
201706051850 METAR ESMX 051850Z AUTO 21005KT 9999 ////// 14/07 Q1011=
201706051820 METAR ESMX 051820Z AUTO 23008KT 9999 ////// 16/07 Q1011=
201706051750 METAR ESMX 051750Z AUTO 24009KT 9999 ////// 17/07 Q1011=
201706051720 METAR ESMX 051720Z AUTO 23009KT 190V250 9999 ////// 16/06 Q1011=
201706051650 METAR ESMX 051650Z AUTO 23011KT 9999 ////// 17/06 Q1010=
201706051620 METAR ESMX 051620Z 23012KT CAVOK 17/05 Q1010=
201706051550 METAR ESMX 051550Z 22013KT CAVOK 18/05 Q1010=
201706051520 METAR ESMX 051520Z 23010KT CAVOK 19/05 Q1010=
201706051450 METAR ESMX 051450Z 25011KT 210V290 CAVOK 18/05 Q1010=
201706051420 METAR ESMX 051420Z 25014KT 230V290 9999 SCT048 19/05 Q1010=
201706051350 METAR ESMX 051350Z 26015G28KT 9999 SCT048 18/05 Q1010=
201706051320 METAR ESMX 051320Z 27015KT 240V300 9999 SCT048 17/04 Q1010=
201706051250 METAR ESMX 051250Z 26012KT 220V290 9999 SCT048 17/04 Q1010=
201706051220 METAR ESMX 051220Z 26015KT 9999 SCT048 17/05 Q1010=
201706051150 METAR ESMX 051150Z 28012KT 250V310 9999 SCT043 16/05 Q1010=
201706051120 METAR ESMX 051120Z 26015G25KT 9999 FEW045 SCT065 16/05 Q1010=
201706051050 METAR ESMX 051050Z 25011KT 9999 FEW040 BKN050 17/07 Q1010=
201706051020 METAR ESMX 051020Z 25012KT 9999 BKN040 16/06 Q1010=
201706050950 METAR ESMX 050950Z 26015KT 9999 SCT042 16/06 Q1010=
201706050920 METAR ESMX 050920Z 25013KT 9999 SCT035 16/07 Q1010=
201706050850 METAR ESMX 050850Z 26013KT 230V290 9999 FEW032 SCT040 15/07 Q1009=
201706050820 METAR ESMX 050820Z 25015KT 210V280 9999 SCT030 14/07 Q1010=
201706050750 METAR ESMX 050750Z 26012KT 230V300 9999 FEW025 SCT030 14/08 Q1009=
201706050720 METAR ESMX 050720Z 25009KT 220V280 9999 FEW018 BKN023 12/08 Q1009=
201706050650 METAR ESMX 050650Z AUTO 27009KT 230V290 9999 ////// 12/08 Q1009=
201706050620 METAR ESMX 050620Z AUTO 26008KT 9999 ////// 12/09 Q1009=
201706050550 METAR ESMX 050550Z AUTO 23007KT 9999 ////// 11/09 Q1009=
201706050520 METAR ESMX 050520Z AUTO 23007KT 9999 ////// 11/08 Q1008=
201706050450 METAR ESMX 050450Z AUTO 23007KT 200V260 9999 ////// 11/08 Q1008=
201706050420 METAR ESMX 050420Z AUTO 23007KT 9999 ////// 10/08 Q1008=
201706050350 METAR ESMX 050350Z AUTO 24006KT 9999 ////// 10/08 Q1008=
201706050320 METAR ESMX 050320Z AUTO 24007KT 200V280 9999 ////// 10/08 Q1008=
201706050250 METAR ESMX 050250Z AUTO 27010KT 230V300 9999 ////// 10/08 Q1008=
201706050220 METAR ESMX 050220Z AUTO 25007KT 9999 ////// 10/08 Q1008=
201706050150 METAR ESMX 050150Z AUTO 26008KT 9999 ////// 10/08 Q1007=
201706050120 METAR ESMX 050120Z AUTO 27009KT 9999 ////// 10/08 Q1007=
201706050050 METAR ESMX 050050Z AUTO 26009KT 9999 ////// 10/09 Q1007=
201706050020 METAR ESMX 050020Z AUTO 27010KT 250V320 9999 ////// 10/08 Q1007=
201706042350 METAR ESMX 042350Z AUTO 27012G24KT 240V320 9999 ////// 11/09 Q1007=
201706042320 METAR ESMX 042320Z 26011KT 9999 BKN007 12/10 Q1007=
201706042250 METAR ESMX 042250Z 26007KT 5000 DZ BKN004 12/11 Q1007 RERA=
201706042220 METAR ESMX 042220Z 23006KT 5000 BR BKN003 12/11 Q1006=
201706042150 METAR ESMX 042150Z 23006KT 6000 -RA SCT003 BKN005 12/11 Q1007=
201706042120 METAR ESMX 042120Z 21005KT 9000 -RA FEW003 BKN010 12/11 Q1007 REDZ=
201706042050 METAR ESMX 042050Z 22004KT 9999 -RA SCT003 BKN012 12/11 Q1007=
201706042020 METAR ESMX 042020Z 21004KT 9999 SCT004 BKN015 12/11 Q1007=
201706041950 METAR ESMX 041950Z 22004KT 9999 SCT015 BKN030 12/11 Q1007=
201706041920 METAR ESMX 041920Z 21004KT 9999 FEW012 BKN030 12/11 Q1007 REDZ=
201706041850 METAR ESMX 041850Z VRB01KT 9999 -DZ FEW005 SCT020 12/11 Q1007=
201706041820 METAR ESMX 041820Z 26003KT 190V290 9999 -RA SCT005 BKN015 12/11 Q1007=
201706041750 METAR ESMX 041750Z 23003KT 9999 -RA BKN006 12/11 Q1007=
201706041720 METAR ESMX 041720Z 26002KT 9999 -RA SCT005 BKN025 12/11 Q1007=
201706041650 METAR ESMX 041650Z AUTO 27003KT 9999 DZ ////// 13/12 Q1007=
201706041620 METAR ESMX 041620Z AUTO 26003KT 9999 -RA ////// 13/12 Q1008=
201706041550 METAR ESMX 041550Z 23004KT 170V260 9999 -RA FEW022 13/12 Q1008=
201706041520 METAR ESMX 041520Z 21006KT 9999 -RA FEW027 13/11 Q1008=
201706041450 METAR ESMX 041450Z 22009KT 9999 -RA SCT010 13/11 Q1008=
201706041420 METAR ESMX 041420Z 20012KT 9999 -RA FEW028 14/10 Q1007=
201706041350 METAR COR ESMX 041350Z 17009KT 9999 -RA 18/06 Q1007=
201706041320 METAR ESMX 041320Z 14007KT 110V180 CAVOK 19/05 Q1007=
201706041250 METAR ESMX 041250Z AUTO 17007KT 9999 ////// 19/06 Q1007=
201706041220 METAR ESMX 041220Z AUTO 17007KT 130V200 9999 ////// 19/06 Q1007=
201706041150 METAR ESMX 041150Z AUTO 17007KT 9999 ////// 19/07 Q1007=
201706041120 METAR ESMX 041120Z AUTO 14005KT 090V190 9999 ////// 20/07 Q1008=
201706041050 METAR ESMX 041050Z AUTO 17008KT 9999 ////// 19/06 Q1008=
201706041020 METAR ESMX 041020Z AUTO 17007KT 130V220 9999 ////// 20/06 Q1008=
201706040950 METAR ESMX 040950Z AUTO 16006KT 080V230 9999 ////// 20/07 Q1008=
201706040920 METAR ESMX 040920Z AUTO 12006KT 070V170 9999 ////// 20/07 Q1009=
201706040850 METAR ESMX 040850Z AUTO 14007KT 060V170 9999 ////// 19/06 Q1009=
201706040820 METAR ESMX 040820Z AUTO 16007KT 120V220 9999 ////// 19/05 Q1009=
201706040750 METAR ESMX 040750Z AUTO 11004KT 060V190 9999 ////// 18/05 Q1009=
201706040720 METAR ESMX 040720Z AUTO VRB02KT 9999 ////// 17/07 Q1010=
201706040650 METAR ESMX 040650Z AUTO VRB03KT 9999 ////// 16/07 Q1010=
201706040620 METAR ESMX 040620Z AUTO 07003KT 020V130 9999 ////// 15/06 Q1010=
201706040550 METAR ESMX 040550Z AUTO VRB03KT 9999 ////// 13/06 Q1010=
201706040520 METAR ESMX 040520Z AUTO 08003KT 020V140 9999 ////// 13/06 Q1010=
201706040450 METAR ESMX 040450Z AUTO 11004KT 070V170 9999 ////// 12/06 Q1011=
201706040420 METAR ESMX 040420Z AUTO VRB03KT 9999 ////// 11/05 Q1011=
201706040350 METAR ESMX 040350Z AUTO VRB02KT 9999 ////// 10/05 Q1011=
201706040320 METAR ESMX 040320Z AUTO VRB01KT 9999 ////// 10/05 Q1011=
201706040250 METAR ESMX 040250Z AUTO VRB02KT 9999 ////// 10/04 Q1011=
201706040220 METAR ESMX 040220Z AUTO 08002KT 9999 ////// 10/04 Q1012=
201706040150 METAR ESMX 040150Z AUTO 10003KT 9999 ////// 09/04 Q1012=
201706040120 METAR ESMX 040120Z AUTO 00000KT 9999 ////// 09/05 Q1012=
201706040050 METAR ESMX 040050Z AUTO VRB02KT 9999 ////// 09/03 Q1012=
201706040020 METAR ESMX 040020Z AUTO 12003KT 090V160 9999 ////// 10/03 Q1013=
201706032350 METAR ESMX 032350Z AUTO VRB02KT 9999 ////// 10/03 Q1013=
201706032320 METAR ESMX 032320Z AUTO 15006KT 9999 ////// 11/04 Q1013=
201706032250 METAR ESMX 032250Z AUTO 15005KT 9999 ////// 11/04 Q1014=
201706032220 METAR ESMX 032220Z AUTO 17005KT 140V200 9999 ////// 11/04 Q1014=
201706032150 METAR ESMX 032150Z AUTO 16005KT 9999 ////// 12/04 Q1014=
201706032120 METAR ESMX 032120Z AUTO 16007KT 9999 ////// 12/04 Q1014=
201706032050 METAR ESMX 032050Z AUTO 17007KT 9999 ////// 12/03 Q1014=
201706032020 METAR ESMX 032020Z AUTO 16006KT 9999 ////// 13/05 Q1014=
201706031950 METAR ESMX 031950Z AUTO 16006KT 9999 ////// 13/05 Q1014=
201706031920 METAR ESMX 031920Z AUTO 16006KT 9999 ////// 13/06 Q1014=
201706031850 METAR ESMX 031850Z 16006KT 130V190 CAVOK 14/07 Q1014=
201706031820 METAR ESMX 031820Z 16005KT CAVOK 14/07 Q1014=
201706031750 METAR ESMX 031750Z 14006KT CAVOK 15/07 Q1014=
201706031720 METAR ESMX 031720Z 15006KT CAVOK 15/07 Q1015=
201706031650 METAR ESMX 031650Z 16006KT CAVOK 15/07 Q1015=
201706031620 METAR ESMX 031620Z 15007KT 110V170 CAVOK 15/07 Q1015=
201706031550 METAR COR ESMX 031550Z 16006KT 120V190 CAVOK 15/07 Q1015=
201706031520 METAR ESMX 031520Z AUTO 16007KT 9999 ////// 15/07 Q1016=
201706031450 METAR ESMX 031450Z AUTO 15007KT 110V180 9999 ////// 15/07 Q1016=
201706031420 METAR ESMX 031420Z AUTO 15006KT 100V190 9999 ////// 15/07 Q1016=
201706031350 METAR ESMX 031350Z AUTO 16010KT 9999 ////// 14/07 Q1017=
201706031320 METAR ESMX 031320Z AUTO 16008KT 9999 ////// 14/07 Q1017=
201706031250 METAR ESMX 031250Z AUTO 17007KT 140V210 9999 ////// 13/07 Q1017 REDZ=
201706031220 METAR ESMX 031220Z AUTO 16006KT 9999 ////// 13/06 Q1017=
201706031150 METAR ESMX 031150Z AUTO 16006KT 120V190 9999 ////// 13/06 Q1017=
201706031120 METAR ESMX 031120Z AUTO 16007KT 9999 ////// 13/06 Q1018=
201706031050 METAR ESMX 031050Z AUTO 16007KT 140V200 9999 ////// 13/05 Q1018=
201706031020 METAR ESMX 031020Z AUTO 16007KT 110V200 9999 ////// 14/05 Q1018=
201706030950 METAR ESMX 030950Z AUTO 16009KT 120V190 9999 ////// 14/05 Q1018=
201706030920 METAR ESMX 030920Z AUTO 16008KT 9999 ////// 13/04 Q1018=
201706030850 METAR ESMX 030850Z AUTO 17008KT 9999 ////// 12/05 Q1018=
201706030820 METAR ESMX 030820Z AUTO 18011KT 9999 ////// 12/04 Q1019=
201706030750 METAR ESMX 030750Z AUTO 17009KT 9999 ////// 11/04 Q1019=
201706030720 METAR ESMX 030720Z AUTO 17008KT 9999 ////// 11/04 Q1019=
201706030650 METAR ESMX 030650Z AUTO 17007KT 9999 ////// 11/05 Q1019=
201706030620 METAR ESMX 030620Z AUTO 16008KT 9999 ////// 10/05 Q1019=
201706030550 METAR ESMX 030550Z AUTO 16006KT 9999 ////// 10/05 Q1019=
201706030520 METAR ESMX 030520Z AUTO 17006KT 9999 ////// 09/06 Q1019=
201706030450 METAR ESMX 030450Z AUTO 16004KT 9999 -RA ////// 09/06 Q1019=
201706030420 METAR ESMX 030420Z AUTO 16004KT 9999 -DZ ////// 09/06 Q1019=
201706030350 METAR ESMX 030350Z AUTO 16003KT 9999 -DZ ////// 09/06 Q1019=
201706030320 METAR ESMX 030320Z AUTO 17004KT 9999 -DZ ////// 08/05 Q1019=
201706030250 METAR ESMX 030250Z AUTO 16004KT 9999 ////// 08/05 Q1019=
201706030220 METAR ESMX 030220Z AUTO 17005KT 9999 -RA ////// 08/05 Q1019 REDZ=
201706030150 METAR ESMX 030150Z AUTO 16005KT 9999 DZ ////// 09/04 Q1019=
201706030120 METAR ESMX 030120Z AUTO 16006KT 9999 -DZ ////// 09/03 Q1019 REUP=
201706030050 METAR ESMX 030050Z AUTO 17006KT 9999 ////// 09/02 Q1020=
201706030020 METAR ESMX 030020Z AUTO 17006KT 9999 ////// 09/02 Q1020=
201706022350 METAR ESMX 022350Z AUTO 17008KT 9999 ////// 09/01 Q1019=
201706022320 METAR ESMX 022320Z AUTO 16007KT 9999 ////// 09/01 Q1019=
201706022250 METAR ESMX 022250Z AUTO 17008KT 9999 ////// 09/02 Q1020=
201706022220 METAR ESMX 022220Z AUTO 17007KT 9999 ////// 09/04 Q1020=
201706022150 METAR ESMX 022150Z AUTO 16007KT 9999 ////// 10/04 Q1020=
201706022120 METAR ESMX 022120Z AUTO 17008KT 9999 ////// 10/04 Q1020=
201706022050 METAR ESMX 022050Z 17008KT CAVOK 10/05 Q1019=
201706022020 METAR ESMX 022020Z 17009KT CAVOK 10/05 Q1019=
201706021950 METAR ESMX 021950Z 17008KT CAVOK 10/06 Q1019=
201706021920 METAR ESMX 021920Z 16008KT CAVOK 11/06 Q1019=
201706021850 METAR COR ESMX 021850Z 16009KT CAVOK 12/06 Q1019=
201706021820 METAR ESMX 021820Z 16010KT CAVOK 12/06 Q1019=
201706021750 METAR ESMX 021750Z 17011KT CAVOK 12/06 Q1019=
201706021720 METAR ESMX 021720Z 16011KT CAVOK 12/07 Q1018=
201706021650 METAR ESMX 021650Z 15010KT 120V190 CAVOK 13/07 Q1018=
201706021620 METAR ESMX 021620Z 15010KT CAVOK 14/07 Q1018=
201706021550 METAR COR ESMX 021550Z 16010KT CAVOK 17/03 Q1018=
201706021520 METAR ESMX 021520Z 01004KT CAVOK 16/03 Q1018=
201706021450 METAR ESMX 021450Z 26004KT 220V290 CAVOK 17/03 Q1018=
201706021420 METAR ESMX 021420Z 25004KT 180V320 CAVOK 16/03 Q1018=
201706021350 METAR ESMX 021350Z 03003KT 350V080 CAVOK 16/03 Q1018=
201706021320 METAR ESMX 021320Z VRB03KT CAVOK 17/03 Q1018=
201706021250 METAR ESMX 021250Z VRB02KT CAVOK 16/03 Q1018=
201706021220 METAR ESMX 021220Z 35005KT 300V060 CAVOK 16/02 Q1018=
201706021150 METAR ESMX 021150Z 02005KT 330V050 CAVOK 17/03 Q1018=
201706021120 METAR ESMX 021120Z 02007KT 320V050 CAVOK 16/03 Q1018=
201706021050 METAR ESMX 021050Z 02006KT 340V050 CAVOK 15/03 Q1018=
201706021020 METAR ESMX 021020Z 01005KT 290V060 CAVOK 14/03 Q1018=
201706020950 METAR ESMX 020950Z 35005KT 310V030 CAVOK 15/03 Q1017=
201706020920 METAR ESMX 020920Z 01005KT 330V060 CAVOK 14/03 Q1017=
201706020850 METAR ESMX 020850Z 01006KT 330V040 CAVOK 14/04 Q1017=
201706020820 METAR ESMX 020820Z 36006KT 340V050 CAVOK 13/04 Q1017=
201706020750 METAR COR ESMX 020750Z 02006KT 330V050 CAVOK 13/05 Q1017=
201706020720 METAR COR ESMX 020720Z 01006KT CAVOK 12/06 Q1016=
201706020650 METAR ESMX 020650Z 36004KT 330V030 CAVOK 11/06 Q1016=
201706020620 METAR ESMX 020620Z 02003KT 340V080 CAVOK 11/06 Q1016=
201706020550 METAR ESMX 020550Z VRB03KT CAVOK 10/07 Q1016=
201706020520 METAR ESMX 020520Z 30003KT 270V350 CAVOK 10/07 Q1016=
201706020450 METAR ESMX 020450Z 27003KT CAVOK 09/07 Q1015=
201706020420 METAR ESMX 020420Z 26002KT 9999 FEW015 BKN100 09/06 Q1015=
201706020350 METAR ESMX 020350Z 30002KT 9999 FEW015 BKN100 09/06 Q1015=
201706020320 METAR ESMX 020320Z AUTO VRB03KT 9999 FEW100/// 08/06 Q1014=
201706020250 METAR ESMX 020250Z AUTO 27003KT 9999 SCT100/// 08/06 Q1015=
201706020220 METAR ESMX 020220Z AUTO 25004KT 9999 BKN100/// 08/06 Q1015=
201706020150 METAR ESMX 020150Z AUTO 26003KT 230V300 9999 BKN100/// 08/06 Q1015=
201706020120 METAR ESMX 020120Z AUTO 26005KT 9999 SCT110/// 08/06 Q1015=
201706020050 METAR ESMX 020050Z AUTO 25004KT 9999 NCD 08/05 Q1015=
201706020020 METAR ESMX 020020Z AUTO 26006KT 9999 NCD 07/05 Q1015=
201706012350 METAR ESMX 012350Z AUTO 26006KT 9999 NCD 07/04 Q1015=
201706012320 METAR ESMX 012320Z 25004KT CAVOK 07/02 Q1015=
201706012250 METAR ESMX 012250Z 25005KT CAVOK 07/02 Q1015=
201706012220 METAR ESMX 012220Z 25004KT CAVOK 08/01 Q1015=
201706012150 METAR ESMX 012150Z 26005KT CAVOK 08/01 Q1015=
201706012120 METAR ESMX 012120Z 26005KT CAVOK 09/01 Q1015=
201706012050 METAR ESMX 012050Z 26005KT CAVOK 10/01 Q1015=
201706012020 METAR ESMX 012020Z 27006KT CAVOK 12/00 Q1015=
201706011950 METAR ESMX 011950Z 27006KT CAVOK 13/00 Q1015=
201706011920 METAR ESMX 011920Z 27007KT CAVOK 14/00 Q1014=
201706011850 METAR ESMX 011850Z 27009KT CAVOK 15/00 Q1014=
201706011820 METAR ESMX 011820Z 27012KT CAVOK 16/01 Q1014=
201706011750 METAR ESMX 011750Z 27009KT 240V300 CAVOK 17/03 Q1013=
201706011720 METAR ESMX 011720Z 27010KT CAVOK 18/02 Q1013=
201706011650 METAR ESMX 011650Z 30009KT CAVOK 18/02 Q1013=
201706011620 METAR ESMX 011620Z 32010KT 260V350 CAVOK 18/02 Q1013=
201706011550 METAR ESMX 011550Z 30011KT CAVOK 18/02 Q1013=
201706011520 METAR ESMX 011520Z 30010KT CAVOK 18/02 Q1013=
201706011450 METAR ESMX 011450Z 33010KT 280V350 CAVOK 18/03 Q1014=
201706011420 METAR ESMX 011420Z 32011KT CAVOK 18/03 Q1014=
201706011350 METAR ESMX 011350Z 30010KT 260V350 CAVOK 17/03 Q1014=
201706011320 METAR ESMX 011320Z 31011KT 290V360 CAVOK 18/03 Q1014=
201706011250 METAR ESMX 011250Z 30012KT CAVOK 18/04 Q1014=
201706011220 METAR ESMX 011220Z 28011KT 250V310 CAVOK 18/03 Q1014=
