##########################################################
# Query made at 04/19/2024 21:58:41 UTC
# Time interval: from 08/01/2017 12:00  to 08/31/2017 12:59  UTC
##########################################################

##########################################################
# ESMX, Vaxjo (Sweden)
# WMO index: 02641. WIGOS ID: 0-20000-0-02648
# Latitude 56-51N. Longitude 014-50E. Altitude 199 m.
##########################################################

201708311250 METAR ESMX 311250Z 23009KT 9999 FEW006 SCT009 BKN015 19/17 Q1006=
201708311220 METAR COR ESMX 311220Z 22009KT 7000 BR FEW005 SCT008 BKN014 19/17 Q1006=
201708311150 METAR ESMX 311150Z 22011KT 3100 DZ SCT003 OVC005 19/17 Q1005=
201708311120 METAR COR ESMX 311120Z 20009KT 5000 BR FEW003 OVC005 19/18 Q1005=
201708311050 METAR COR ESMX 311050Z 21009KT 3900 BR BKN003 18/18 Q1005=
201708311020 METAR ESMX 311020Z 22008KT 6000 BR OVC003 19/18 Q1004=
201708310950 METAR ESMX 310950Z 21008KT 5000 BR OVC003 19/18 Q1004=
201708310920 METAR ESMX 310920Z 19007KT 5000 BR OVC004 19/18 Q1004=
201708310850 METAR ESMX 310850Z 21009KT 5000 BR OVC004 19/18 Q1004=
201708310820 METAR COR ESMX 310820Z 18007KT 6000 BR OVC003 19/18 Q1004=
201708310750 METAR COR ESMX 310750Z 15004KT 110V180 8000 BR SCT002 BKN005 18/17 Q1004=
201708310720 METAR ESMX 310720Z 18005KT 7000 BR SCT002 BKN004 17/17 Q1004=
201708310650 METAR ESMX 310650Z 17005KT 8000 BR OVC002 17/16 Q1004=
201708310620 METAR COR ESMX 310620Z 16003KT 100V230 8000 BR BKN003 17/16 Q1004=
201708310550 METAR COR ESMX 310550Z 12005KT 080V150 7000 -RA BR SCT005 BKN087 17/16 Q1003 RERA=
201708310520 METAR ESMX 310520Z 12005KT 070V170 7000 RA BR FEW015 BKN080 17/16 Q1004=
201708310450 METAR ESMX 310450Z VRB02KT 4000 RA BR FEW003 SCT045 17/16 Q1004=
201708310420 METAR ESMX 310420Z VRB01KT 6000 RA BR SCT015 17/16 Q1004=
201708310350 METAR ESMX 310350Z 07005KT 7000 BR FEW050 17/16 Q1004=
201708310320 METAR ESMX 310320Z AUTO 06004KT 6000 DZ FEW089/// 17/16 Q1004=
201708310250 METAR ESMX 310250Z AUTO 02004KT 4200 -RA FEW027/// 17/16 Q1005=
201708310220 METAR ESMX 310220Z AUTO VRB02KT 8000 -RA NCD 17/16 Q1005=
201708310150 METAR ESMX 310150Z AUTO 04004KT 8000 -DZ NCD 17/16 Q1005=
201708310120 METAR ESMX 310120Z AUTO 04006KT 7000 DZ FEW094/// 17/16 Q1005 REDZ=
201708310050 METAR ESMX 310050Z AUTO 01005KT 6000 BR FEW056/// 17/16 Q1006=
201708310020 METAR ESMX 310020Z AUTO 36004KT 4100 BR FEW100/// 17/16 Q1006=
201708302350 METAR ESMX 302350Z 01005KT 350V050 8000 BR NSC 17/16 Q1006=
201708302320 METAR ESMX 302320Z VRB02KT 9000 BR FEW049 17/16 Q1006=
201708302250 METAR ESMX 302250Z 05004KT 010V080 6000 BR FEW056 17/17 Q1007=
201708302220 METAR ESMX 302220Z 04004KT 5000 BR BKN004 17/17 Q1007=
201708302150 METAR ESMX 302150Z 04005KT 4700 BR OVC003 17/16 Q1008=
201708302120 METAR ESMX 302120Z 02005KT 4400 BR BKN004 17/16 Q1008=
201708302050 METAR ESMX 302050Z 02005KT 4200 BR BKN004 17/16 Q1009=
201708302020 METAR ESMX 302020Z 01005KT 3700 BR BKN003 17/16 Q1009=
201708301950 METAR ESMX 301950Z 01004KT 2800 BR OVC003 17/17 Q1009=
201708301920 METAR ESMX 301920Z 02004KT 3600 -DZ BR SCT004 17/17 Q1009 RERA=
201708301850 METAR ESMX 301850Z 01003KT 340V060 4300 BR BKN003 17/16 Q1009=
201708301820 METAR ESMX 301820Z 04004KT 4000 DZ BR SCT018 BKN046 17/16 Q1009=
201708301750 METAR ESMX 301750Z 03004KT 2600 -DZ BR FEW002 SCT022 17/17 Q1009=
201708301720 METAR ESMX 301720Z 03003KT 2700 DZ BR SCT050 17/17 Q1009=
201708301650 METAR ESMX 301650Z 05002KT 4000 -RA BKN033 17/17 Q1010=
201708301620 METAR ESMX 301620Z VRB02KT 5000 BR BKN031 17/17 Q1010=
201708301550 METAR ESMX 301550Z 00000KT 6000 BR BKN033 17/17 Q1010=
201708301520 METAR ESMX 301520Z 20004KT 5000 RA SCT004 OVC037 17/16 Q1010=
201708301450 METAR ESMX 301450Z 16004KT 6000 RA BKN015 OVC045 18/17 Q1010=
201708301420 METAR ESMX 301420Z 16005KT 7000 RA OVC015 19/17 Q1011=
201708301350 METAR ESMX 301350Z 16003KT 9999 BKN015 BKN045 19/16 Q1011=
201708301320 METAR ESMX 301320Z 16003KT 9999 FEW014 BKN018 19/16 Q1011=
201708301250 METAR ESMX 301250Z 21004KT 9999 -RA BKN015 20/16 Q1011=
201708301220 METAR ESMX 301220Z 19004KT 9999 FEW017 BKN020 20/16 Q1011=
201708301150 METAR ESMX 301150Z 19003KT 150V230 9999 FEW014 BKN017 BKN021 20/16 Q1011=
201708301120 METAR ESMX 301120Z 25004KT 9999 SCT014 BKN018 OVC020 20/16 Q1011=
201708301050 METAR ESMX 301050Z 23004KT 160V260 9999 SCT012 BKN034 BKN043 20/16 Q1011=
201708301020 METAR ESMX 301020Z 20005KT 9999 BKN013 19/16 Q1012=
201708300950 METAR ESMX 300950Z 21004KT 9999 BKN012 19/16 Q1012=
201708300920 METAR ESMX 300920Z 20005KT 9999 FEW010 SCT013 BKN017 19/15 Q1012=
201708300850 METAR ESMX 300850Z 22004KT 170V250 9999 SCT009 BKN037 19/16 Q1011=
201708300820 METAR ESMX 300820Z 22003KT 170V260 9999 FEW011 18/16 Q1011=
201708300750 METAR ESMX 300750Z 19005KT 9000 BR FEW044 18/16 Q1011=
201708300720 METAR ESMX 300720Z 23005KT 7000 BR FEW031 17/15 Q1011=
201708300650 METAR ESMX 300650Z 21004KT 7000 BR FEW014 SCT077 16/15 Q1011=
201708300620 METAR ESMX 300620Z 23003KT 200V260 8000 BR FEW007 OVC008 16/15 Q1011=
201708300550 METAR ESMX 300550Z 21005KT 8000 BR BKN008 16/15 Q1011=
201708300520 METAR ESMX 300520Z 18006KT 8000 BR FEW009 SCT057 16/14 Q1010=
201708300450 METAR ESMX 300450Z 19006KT 8000 BR SCT010 BKN051 15/14 Q1010=
201708300420 METAR ESMX 300420Z 19007KT 8000 BR SCT010 15/14 Q1010=
201708300350 METAR COR ESMX 300350Z 18008KT 9000 BR FEW012 15/14 Q1010=
201708300320 METAR ESMX 300320Z AUTO 18007KT 9000 NCD 15/14 Q1010=
201708300250 METAR ESMX 300250Z AUTO 18007KT 9000 NCD 15/14 Q1010=
201708300220 METAR ESMX 300220Z AUTO 19007KT 9999 FEW069/// 14/13 Q1010=
201708300150 METAR ESMX 300150Z AUTO 19007KT 9999 NCD 14/13 Q1010=
201708300120 METAR ESMX 300120Z AUTO 19007KT 9999 NCD 14/13 Q1010=
201708300050 METAR ESMX 300050Z AUTO 19007KT 9999 FEW081/// 15/13 Q1010=
201708300020 METAR ESMX 300020Z AUTO 18009KT 9999 NCD 15/13 Q1010=
201708292350 METAR ESMX 292350Z 18009KT CAVOK 15/14 Q1010=
201708292320 METAR ESMX 292320Z AUTO 18007KT 9999 NCD 16/14 Q1010=
201708292250 METAR ESMX 292250Z 17008KT 9999 FEW039 15/14 Q1010=
201708292220 METAR ESMX 292220Z 17008KT CAVOK 15/14 Q1011=
201708292150 METAR ESMX 292150Z AUTO 18007KT 9999 FEW089/// 15/13 Q1011=
201708292120 METAR ESMX 292120Z AUTO 16007KT 9999 NCD 15/13 Q1011=
201708292050 METAR ESMX 292050Z 16007KT CAVOK 16/14 Q1011=
201708292020 METAR ESMX 292020Z 16007KT CAVOK 16/14 Q1012=
201708291950 METAR ESMX 291950Z 16007KT CAVOK 16/14 Q1012=
201708291920 METAR ESMX 291920Z AUTO 15008KT 9999 NCD 16/14 Q1012=
201708291850 METAR ESMX 291850Z 15007KT CAVOK 17/14 Q1012=
201708291820 METAR ESMX 291820Z 16008KT CAVOK 17/13 Q1012=
201708291750 METAR ESMX 291750Z 16009KT CAVOK 18/13 Q1012=
201708291720 METAR ESMX 291720Z 16008KT CAVOK 19/13 Q1012=
201708291650 METAR ESMX 291650Z 16009KT CAVOK 19/13 Q1012=
201708291620 METAR ESMX 291620Z 17010KT CAVOK 20/13 Q1013=
201708291550 METAR ESMX 291550Z 17012KT 9999 FEW035 20/13 Q1013=
201708291520 METAR ESMX 291520Z 17010KT 9999 FEW049 20/13 Q1013=
201708291450 METAR ESMX 291450Z 17011KT 9999 FEW031 20/13 Q1013=
201708291420 METAR ESMX 291420Z 16012KT 9999 BKN066 20/13 Q1013=
201708291350 METAR ESMX 291350Z 17011KT 9999 FEW031 SCT075 21/13 Q1014=
201708291320 METAR ESMX 291320Z 18011KT 150V210 9999 FEW031 SCT039 21/13 Q1014=
201708291250 METAR ESMX 291250Z 16011KT 130V190 9999 FEW031 SCT041 BKN057 21/13 Q1014=
201708291220 METAR ESMX 291220Z 17009KT 9999 FEW030 SCT037 BKN047 20/13 Q1014=
201708291150 METAR ESMX 291150Z 17011KT 9999 SCT031 20/13 Q1015=
201708291120 METAR ESMX 291120Z 18009KT 9999 FEW027 SCT033 20/13 Q1015=
201708291050 METAR ESMX 291050Z 20012KT 9999 FEW043 21/13 Q1015=
201708291020 METAR ESMX 291020Z 20011KT 160V230 CAVOK 20/14 Q1016=
201708290950 METAR ESMX 290950Z 19009KT 9999 FEW038 19/13 Q1016=
201708290920 METAR ESMX 290920Z 19010KT 9999 SCT038 BKN046 18/13 Q1016=
201708290850 METAR ESMX 290850Z 18009KT 9999 FEW035 BKN048 18/13 Q1016=
201708290820 METAR ESMX 290820Z 16007KT 9999 SCT035 BKN048 17/13 Q1017=
201708290750 METAR ESMX 290750Z 16006KT 9999 FEW035 BKN042 16/13 Q1017=
201708290720 METAR ESMX 290720Z 17005KT 9999 SCT008 BKN035 15/13 Q1017=
201708290650 METAR ESMX 290650Z 18006KT 9999 BKN005 14/14 Q1017=
201708290620 METAR ESMX 290620Z 18006KT 8000 BR BKN004 13/13 Q1017=
201708290550 METAR ESMX 290550Z 19007KT 5000 BR OVC002 13/12 Q1017=
201708290520 METAR ESMX 290520Z 19007KT 0600 R01/0800N R19/0900U FG VV002 12/12 Q1018=
201708290450 METAR ESMX 290450Z 18006KT 0250 R01/0500N R19/0600N VV002 12/12 Q1017=
201708290420 METAR ESMX 290420Z 19006KT 0300 R01/0650N R19/0800N FG VV002 12/12 Q1018=
201708290350 METAR ESMX 290350Z 19004KT 5000 BR VV003 12/12 Q1018=
201708290320 METAR ESMX 290320Z AUTO 17005KT 4600 BR BKN002/// 12/11 Q1017=
201708290250 METAR ESMX 290250Z AUTO 18003KT 3900 BR FEW087/// 12/11 Q1018=
201708290220 METAR ESMX 290220Z AUTO 21005KT 1800 NCD 11/11 Q1018=
201708290150 METAR ESMX 290150Z AUTO 20006KT 3400 BKN000/// 11/11 Q1018=
201708290120 METAR ESMX 290120Z AUTO 18007KT 0400 R01/1600N R19/1000U FG VV001 12/12 Q1018=
201708290050 METAR ESMX 290050Z AUTO 18007KT 0150 R01/0450N R19/0500N FG VV000 13/12 Q1018=
201708290020 METAR ESMX 290020Z AUTO 18006KT 0900 R01/P2000N R19/P2000N BR VV001 12/12 Q1018=
201708282350 METAR ESMX 282350Z 19005KT 7000 BR NSC 11/11 Q1018=
201708282320 METAR ESMX 282320Z 21005KT 6000 BR NSC 11/10 Q1019=
201708282250 METAR ESMX 282250Z 20005KT 9999 FEW025 11/10 Q1019=
201708282220 METAR ESMX 282220Z 19005KT 9999 FEW018 11/11 Q1019=
201708282150 METAR ESMX 282150Z AUTO 18005KT 9999 NCD 12/11 Q1019=
201708282120 METAR ESMX 282120Z 17005KT CAVOK 13/12 Q1019=
201708282050 METAR ESMX 282050Z 17005KT 9999 FEW025 14/12 Q1019=
201708282020 METAR ESMX 282020Z 18006KT 9999 FEW025 14/12 Q1019=
201708281950 METAR ESMX 281950Z 20005KT 9999 FEW021 SCT027 14/12 Q1019=
201708281920 METAR ESMX 281920Z 19006KT 9999 FEW027 SCT056 15/12 Q1019=
201708281850 METAR ESMX 281850Z 18007KT 9999 FEW027 SCT036 BKN053 16/12 Q1019=
201708281820 METAR ESMX 281820Z 18008KT 9999 FEW030 SCT038 BKN055 16/13 Q1019=
201708281750 METAR ESMX 281750Z 18008KT 9999 FEW025 SCT038 BKN055 17/13 Q1019=
201708281720 METAR ESMX 281720Z 19006KT 9999 SCT027 BKN060 17/13 Q1018=
201708281650 METAR ESMX 281650Z 20006KT 9999 FEW032 BKN060 18/13 Q1018=
201708281620 METAR ESMX 281620Z 20006KT 9999 BKN045 18/12 Q1019=
201708281550 METAR ESMX 281550Z 20006KT 160V230 9999 FEW032 BKN060 18/12 Q1019=
201708281520 METAR ESMX 281520Z 20006KT 170V240 9999 FEW035 BKN060 18/12 Q1019=
201708281450 METAR ESMX 281450Z 22005KT 200V260 9999 FEW028 SCT032 BKN055 18/12 Q1019=
201708281420 METAR ESMX 281420Z 22007KT 160V240 9999 FEW030 BKN055 18/12 Q1019=
201708281350 METAR ESMX 281350Z 20008KT 160V240 9999 FEW030 BKN050 18/11 Q1019=
201708281320 METAR ESMX 281320Z 21008KT 9999 FEW034 BKN050 19/11 Q1019=
201708281250 METAR ESMX 281250Z 19008KT 160V220 9999 SCT035 BKN055 19/11 Q1019=
201708281220 METAR ESMX 281220Z 21007KT 150V260 9999 FEW037 SCT052 19/10 Q1019=
201708281150 METAR ESMX 281150Z 17008KT CAVOK 19/09 Q1020=
201708281120 METAR ESMX 281120Z 22007KT 150V280 9999 FEW037 19/09 Q1020=
201708281050 METAR ESMX 281050Z 21006KT 170V250 9999 FEW037 18/09 Q1020=
201708281020 METAR ESMX 281020Z 21007KT 170V240 9999 FEW035 18/09 Q1020=
201708280950 METAR ESMX 280950Z 17007KT 140V200 CAVOK 17/09 Q1020=
201708280920 METAR ESMX 280920Z 20007KT 150V230 CAVOK 17/09 Q1020=
201708280850 METAR ESMX 280850Z 18006KT CAVOK 16/09 Q1020=
201708280820 METAR ESMX 280820Z 19005KT 140V230 CAVOK 16/09 Q1020=
201708280750 METAR ESMX 280750Z 17005KT 140V210 CAVOK 15/09 Q1020=
201708280720 METAR ESMX 280720Z 17005KT CAVOK 15/10 Q1019=
201708280650 METAR ESMX 280650Z 15003KT 120V200 CAVOK 14/10 Q1019=
201708280620 METAR ESMX 280620Z VRB02KT CAVOK 13/11 Q1019=
201708280550 METAR ESMX 280550Z 00000KT CAVOK 12/11 Q1019=
201708280520 METAR ESMX 280520Z 00000KT CAVOK 11/10 Q1019=
201708280450 METAR ESMX 280450Z 00000KT CAVOK 10/10 Q1019=
201708280420 METAR ESMX 280420Z 00000KT CAVOK 09/09 Q1019=
201708280350 METAR ESMX 280350Z 20002KT CAVOK 09/09 Q1019=
201708280320 METAR ESMX 280320Z AUTO 08001KT 9999 OVC057/// 10/10 Q1019=
201708280250 METAR ESMX 280250Z AUTO 09002KT 9000 BR OVC058/// 09/09 Q1019=
201708280220 METAR ESMX 280220Z AUTO 00000KT 9999 OVC059/// 09/09 Q1018=
201708280150 METAR ESMX 280150Z AUTO 00000KT 9000 BR OVC059/// 10/10 Q1019=
201708280120 METAR ESMX 280120Z AUTO 20001KT 9999 OVC058/// 10/10 Q1018=
201708280050 METAR ESMX 280050Z AUTO VRB01KT 9999 OVC057/// 10/10 Q1018=
201708280020 METAR ESMX 280020Z AUTO 03002KT 9999 OVC058/// 10/10 Q1018=
201708272350 METAR ESMX 272350Z AUTO VRB03KT 9999 OVC056/// 11/10 Q1018=
201708272320 METAR ESMX 272320Z AUTO VRB03KT 9999 OVC057/// 12/12 Q1018=
201708272250 METAR ESMX 272250Z 03004KT CAVOK 11/11 Q1017=
201708272220 METAR ESMX 272220Z 00000KT 9999 FEW048 BKN062 09/09 Q1017=
201708272150 METAR ESMX 272150Z 06003KT 9999 SCT058 10/10 Q1017=
201708272120 METAR ESMX 272120Z 03001KT 9999 BCFG SCT059 11/10 Q1017=
201708272050 METAR ESMX 272050Z AUTO 00000KT 9999 FEW088/// 11/10 Q1017=
201708272020 METAR ESMX 272020Z 04003KT 9999 FEW030 12/11 Q1016=
201708271950 METAR ESMX 271950Z 01004KT 9999 FEW030 SCT078 12/11 Q1016=
201708271920 METAR ESMX 271920Z 06004KT 9999 FEW017 SCT045 14/12 Q1016=
201708271850 METAR ESMX 271850Z 05005KT 9999 SCT017 BKN074 14/12 Q1016=
201708271820 METAR COR ESMX 271820Z 05006KT 9999 FEW010 SCT016 BKN029 14/12 Q1016=
201708271750 METAR ESMX 271750Z 02007KT 360V070 9999 SCT010 BKN014 14/12 Q1015=
201708271720 METAR ESMX 271720Z 03008KT 9999 FEW008 OVC019 15/12 Q1015=
201708271650 METAR ESMX 271650Z AUTO 04009KT 360V080 9999 FEW008/// SCT009/// BKN011/// 15/13 Q1014=
201708271620 METAR ESMX 271620Z AUTO 04011KT 9999 FEW011/// SCT022/// 15/13 Q1014=
201708271550 METAR ESMX 271550Z 36009KT 9999 FEW015 BKN069 17/13 Q1014=
201708271520 METAR ESMX 271520Z 01008KT 9999 VCSH FEW027CB SCT045 16/13 Q1014=
201708271450 METAR ESMX 271450Z 34007KT 310V010 9999 VCSH FEW025CB 17/13 Q1013=
201708271420 METAR ESMX 271420Z 34004KT 260V020 9999 FEW013 17/13 Q1013=
201708271350 METAR ESMX 271350Z AUTO 03005KT 340V060 9999 FEW020/// SCT084/// 17/14 Q1013=
201708271320 METAR ESMX 271320Z 04009KT 9999 SHRA BKN025CB 16/13 Q1013=
201708271250 METAR ESMX 271250Z 03007KT 350V060 9999 VCSH SCT021CB BKN040 17/13 Q1012=
201708271220 METAR ESMX 271220Z VRB05KT 9999 FEW025 SCT045 18/11 Q1012=
201708271150 METAR ESMX 271150Z 34006KT 280V010 9999 VCSH FEW020CB SCT045 17/12 Q1012=
201708271120 METAR ESMX 271120Z 34007KT 320V020 9999 FEW013 BKN055 16/13 Q1012=
201708271050 METAR ESMX 271050Z 02006KT 9999 SCT012 BKN040 17/13 Q1012=
201708271020 METAR ESMX 271020Z 02005KT 9999 SCT018 BKN030 16/14 Q1012=
201708270950 METAR ESMX 270950Z AUTO 02006KT 9999 FEW010/// SCT014/// BKN020/// 16/13 Q1012=
201708270920 METAR ESMX 270920Z AUTO VRB03KT 9999 FEW007/// SCT016/// BKN076/// 16/13 Q1012 RERA=
201708270850 METAR ESMX 270850Z AUTO VRB02KT 9999 -DZ FEW007/// SCT078/// 16/13 Q1012=
201708270820 METAR ESMX 270820Z AUTO VRB01KT 9999 FEW008/// SCT010/// BKN014/// 16/13 Q1012=
201708270750 METAR ESMX 270750Z AUTO 00000KT 9999 FEW003/// SCT006/// BKN008/// 16/13 Q1012=
201708270720 METAR ESMX 270720Z AUTO VRB02KT 9999 FEW001/// SCT003/// BKN004/// 15/14 Q1012=
201708270650 METAR ESMX 270650Z AUTO 00000KT 9999 FEW002/// SCT097/// 14/14 Q1012=
201708270620 METAR ESMX 270620Z AUTO 00000KT 9999 FEW054/// SCT100/// 14/13 Q1012=
201708270550 METAR ESMX 270550Z AUTO 00000KT 9999 SCT061/// BKN094/// 13/13 Q1012=
201708270520 METAR ESMX 270520Z AUTO 12003KT 9999 -RA FEW070/// 13/13 Q1012=
201708270450 METAR ESMX 270450Z AUTO VRB02KT 5000 RA FEW002/// SCT033/// 13/13 Q1012=
201708270420 METAR ESMX 270420Z AUTO VRB03KT 2400 -RA FEW002/// OVC019/// 13/13 Q1012 REDZ=
201708270350 METAR ESMX 270350Z AUTO 33005KT 9999 -DZ FEW001/// SCT005/// OVC020/// 13/13 Q1012=
201708270320 METAR ESMX 270320Z AUTO 32005KT 5000 BR VV001 13/13 Q1012 REDZ=
201708270250 METAR ESMX 270250Z AUTO 00000KT 4100 BR FEW020/// SCT024/// BKN028/// 13/13 Q1012=
201708270220 METAR ESMX 270220Z AUTO 00000KT 7000 -DZ SCT016/// BKN021/// 13/12 Q1012 RERA=
201708270150 METAR ESMX 270150Z AUTO 00000KT 9999 FEW026/// BKN044/// 13/12 Q1013=
201708270120 METAR ESMX 270120Z AUTO VRB02KT 8000 BKN024/// BKN041/// 13/12 Q1013=
201708270050 METAR ESMX 270050Z AUTO VRB02KT 9999 FEW029/// SCT062/// 13/12 Q1013=
201708270020 METAR ESMX 270020Z AUTO 16003KT 9999 FEW030/// SCT051/// 13/12 Q1013=
201708262350 METAR ESMX 262350Z AUTO VRB02KT 9999 BKN047/// 13/13 Q1014=
201708262320 METAR ESMX 262320Z AUTO 16003KT 9999 SCT053/// 13/12 Q1014=
201708262250 METAR ESMX 262250Z AUTO 18002KT 8000 BR FEW089/// 13/12 Q1014 REDZ=
201708262220 METAR ESMX 262220Z AUTO 00000KT 9000 BR NCD 13/12 Q1014=
201708262150 METAR ESMX 262150Z AUTO 17002KT 9999 FEW088/// 13/13 Q1014=
201708262120 METAR ESMX 262120Z AUTO VRB02KT 9999 FEW084/// 14/13 Q1014=
201708262050 METAR ESMX 262050Z AUTO 24003KT 9999 FEW085/// SCT100/// 14/13 Q1014=
201708262020 METAR ESMX 262020Z AUTO 22004KT 9999 FEW100/// 14/13 Q1014=
201708261950 METAR ESMX 261950Z AUTO 24002KT 9999 FEW100/// 14/13 Q1014=
201708261920 METAR ESMX 261920Z AUTO 21005KT 9999 SCT045/// BKN100/// 15/13 Q1015=
201708261850 METAR ESMX 261850Z AUTO 21004KT 9999 BKN041/// 15/13 Q1015=
201708261820 METAR ESMX 261820Z 22003KT 9999 SCT044 15/14 Q1015=
201708261750 METAR ESMX 261750Z 22004KT 200V270 9999 -RA SCT045 16/13 Q1015=
201708261720 METAR ESMX 261720Z 24003KT 9999 BKN042 16/13 Q1015=
201708261650 METAR ESMX 261650Z 22004KT 190V250 9999 BKN043 16/13 Q1015=
201708261620 METAR ESMX 261620Z 26003KT 230V290 9999 BKN044 17/13 Q1015=
201708261550 METAR ESMX 261550Z 25005KT 9999 BKN043 17/13 Q1015=
201708261520 METAR ESMX 261520Z 25006KT 210V280 9999 FEW016 BKN046 17/13 Q1015=
201708261450 METAR ESMX 261450Z 25009KT 9999 FEW015 BKN046 17/13 Q1016=
201708261420 METAR ESMX 261420Z 27007KT 9999 BKN015 OVC046 17/13 Q1016=
201708261350 METAR ESMX 261350Z 25007KT 9999 BKN020 17/13 Q1016=
201708261320 METAR ESMX 261320Z 24009KT 9999 BKN015 17/13 Q1016=
201708261250 METAR ESMX 261250Z 23008KT 190V260 9999 SCT010 BKN030 17/13 Q1016=
201708261220 METAR ESMX 261220Z 27005KT 230V300 9999 SCT015 BKN025 16/14 Q1016=
201708261150 METAR ESMX 261150Z 22006KT 9999 -DZ SCT014 BKN025 16/13 Q1016=
201708261120 METAR ESMX 261120Z 23007KT 200V260 9999 SCT016 BKN025 17/13 Q1016=
201708261050 METAR ESMX 261050Z AUTO 22008KT 190V250 9999 FEW015/// SCT028/// BKN034/// 16/12 Q1016=
201708261020 METAR ESMX 261020Z AUTO 21007KT 170V250 9999 FEW016/// OVC038/// 17/13 Q1016=
201708260950 METAR ESMX 260950Z AUTO 23007KT 9999 FEW010/// SCT013/// BKN019/// 16/13 Q1016=
201708260920 METAR ESMX 260920Z AUTO 23007KT 9999 FEW011/// SCT026/// OVC036/// 16/13 Q1016=
201708260850 METAR ESMX 260850Z 23007KT 9999 FEW011 BKN037 16/13 Q1016=
201708260820 METAR ESMX 260820Z 22006KT 9999 FEW008 BKN036 15/13 Q1016=
201708260750 METAR ESMX 260750Z 23005KT 190V280 9999 SCT008 BKN030 15/13 Q1016=
201708260720 METAR ESMX 260720Z 26005KT 9999 SCT009 BKN030 15/13 Q1016=
201708260650 METAR ESMX 260650Z AUTO 24003KT 9999 FEW003/// BKN030/// 15/13 Q1016=
201708260620 METAR ESMX 260620Z AUTO 23004KT 200V260 9999 FEW002/// OVC032/// 14/13 Q1016=
201708260550 METAR ESMX 260550Z AUTO 24003KT 9999 FEW027/// OVC030/// 14/13 Q1016=
201708260520 METAR ESMX 260520Z AUTO 24003KT 9999 FEW004/// OVC029/// 14/13 Q1016=
201708260450 METAR ESMX 260450Z AUTO 23003KT 9999 FEW003/// SCT006/// BKN014/// 13/13 Q1016=
201708260420 METAR ESMX 260420Z AUTO VRB02KT 9999 FEW002/// SCT004/// BKN006/// 13/13 Q1015=
201708260350 METAR ESMX 260350Z AUTO 23002KT 9999 FEW006/// SCT012/// OVC033/// 12/12 Q1015=
201708260320 METAR ESMX 260320Z AUTO 25002KT 9999 FEW007/// SCT010/// BKN015/// 12/12 Q1015=
201708260250 METAR ESMX 260250Z AUTO 20002KT 2200 BR SCT007/// OVC041/// 12/11 Q1015=
201708260220 METAR ESMX 260220Z AUTO 34001KT 9999 BKN009/// OVC017/// 13/12 Q1015=
201708260150 METAR ESMX 260150Z AUTO 30003KT 9999 FEW007/// BKN011/// OVC018/// 13/12 Q1015=
201708260120 METAR ESMX 260120Z AUTO 30003KT 260V350 9999 FEW009/// BKN010/// OVC033/// 13/12 Q1015=
201708260050 METAR ESMX 260050Z AUTO 26004KT 9999 SCT011/// BKN014/// 13/12 Q1015=
201708260020 METAR ESMX 260020Z AUTO 27004KT 9999 FEW017/// BKN033/// BKN054/// 13/12 Q1015=
201708252350 METAR ESMX 252350Z AUTO 25005KT 9999 FEW028/// SCT032/// OVC055/// 13/12 Q1015=
201708252320 METAR ESMX 252320Z AUTO 28003KT 250V310 9999 FEW010/// SCT032/// BKN055/// 13/13 Q1014=
201708252250 METAR ESMX 252250Z AUTO 26003KT 9999 FEW008/// SCT011/// BKN019/// 13/12 Q1014=
201708252220 METAR ESMX 252220Z AUTO 27006KT 9999 FEW000/// SCT022/// BKN039/// 14/13 Q1014=
201708252150 METAR ESMX 252150Z AUTO 26006KT 230V290 9999 FEW000/// SCT008/// 14/13 Q1014 RERA=
201708252120 METAR ESMX 252120Z AUTO 25006KT 9999 FEW003/// SCT006/// BKN008/// 14/13 Q1014=
201708252050 METAR ESMX 252050Z AUTO 25006KT 9999 FEW004/// BKN005/// OVC010/// 14/13 Q1014=
201708252020 METAR ESMX 252020Z AUTO 23005KT 9999 FEW005/// SCT012/// BKN033/// 14/13 Q1014=
201708251950 METAR ESMX 251950Z AUTO 26006KT 9999 FEW006/// SCT034/// OVC051/// 14/13 Q1014=
201708251920 METAR ESMX 251920Z 25007KT 9999 SCT006 BKN035 14/13 Q1014=
201708251850 METAR ESMX 251850Z 26008KT 230V290 9999 SCT006 BKN030 15/14 Q1013=
201708251820 METAR ESMX 251820Z 26006KT 220V280 9999 FEW009 BKN024 15/14 Q1013=
201708251750 METAR ESMX 251750Z 26006KT 9999 VCSH BKN009 BKN033CB 15/14 Q1013=
201708251720 METAR ESMX 251720Z 25008KT 9999 VCSH BKN010 BKN025CB 15/14 Q1012=
201708251650 METAR ESMX 251650Z 26006KT 9999 VCSH BKN010 BKN030CB 15/14 Q1012=
201708251620 METAR ESMX 251620Z 29004KT 250V340 4000 SHRA FEW004 SCT015 BKN030CB 15/14 Q1012=
201708251550 METAR ESMX 251550Z 28006KT 9000 -SHRA FEW005 BKN014CB 15/14 Q1012=
201708251520 METAR ESMX 251520Z 27007KT 9999 SHRA FEW024 BKN035CB 15/14 Q1012=
201708251450 METAR ESMX 251450Z 29009KT 9999 -SHRA FEW009 SCT025CB BKN056 15/14 Q1011=
201708251420 METAR ESMX 251420Z 27008KT 230V300 9999 4000N SHRA SCT010 BKN020CB 16/15 Q1011=
201708251350 METAR ESMX 251350Z 25009KT 9999 SHRA FEW008 BKN015CB 16/15 Q1011=
201708251320 METAR ESMX 251320Z 23010KT 200V260 9999 SCT006 BKN009 16/14 Q1011=
201708251250 METAR ESMX 251250Z 25008KT 9999 BKN006 OVC009 15/14 Q1011=
201708251220 METAR ESMX 251220Z 23011KT 9999 FEW005 OVC007 15/14 Q1011=
201708251150 METAR ESMX 251150Z 24012KT 210V280 9999 FEW006 OVC008 15/14 Q1010=
201708251120 METAR ESMX 251120Z 25010KT 9999 OVC005 15/14 Q1010=
201708251050 METAR ESMX 251050Z 24011KT 210V280 8000 BR BKN006 OVC010 15/14 Q1010=
201708251020 METAR ESMX 251020Z 25011KT 9000 -DZ BR OVC008 15/14 Q1010=
201708250950 METAR ESMX 250950Z 23010KT 9999 -DZ FEW008 OVC010 15/13 Q1010=
201708250920 METAR ESMX 250920Z 25010G21KT 9999 OVC013 16/13 Q1009=
201708250850 METAR ESMX 250850Z 25011KT 220V280 9999 FEW011 SCT015 BKN018 16/13 Q1009=
201708250820 METAR ESMX 250820Z 23010KT 9999 -RA FEW011 BKN014 OVC020 15/13 Q1009=
201708250750 METAR ESMX 250750Z 24010KT 180V270 9999 FEW012 BKN015 BKN023 16/13 Q1009=
201708250720 METAR ESMX 250720Z 22010KT 9999 SCT010 BKN020 16/13 Q1009=
201708250650 METAR ESMX 250650Z 23011KT 9999 FEW007 SCT013 BKN018 15/13 Q1009=
201708250620 METAR ESMX 250620Z 22011KT 9999 FEW006 SCT007 BKN009 14/13 Q1009=
201708250550 METAR ESMX 250550Z 22011KT 9999 FEW005 BKN007 BKN010 14/13 Q1009=
201708250520 METAR ESMX 250520Z 22010KT 9999 SCT005 BKN007 OVC010 14/13 Q1009=
201708250450 METAR ESMX 250450Z 22010KT 9999 FEW005 SCT009 BKN024 13/12 Q1009=
201708250420 METAR ESMX 250420Z 22007KT 9999 FEW004 SCT008 BKN011 13/12 Q1009=
201708250350 METAR COR ESMX 250350Z 23006KT 9999 FEW005 SCT012 13/12 Q1009=
201708250320 METAR ESMX 250320Z AUTO 22008KT 9999 FEW005/// SCT011/// BKN032/// 13/12 Q1009=
201708250250 METAR ESMX 250250Z AUTO 23008KT 200V260 9999 FEW007/// OVC034/// 14/13 Q1009=
201708250220 METAR ESMX 250220Z AUTO 24007KT 9999 FEW005/// SCT007/// BKN008/// 14/13 Q1009=
201708250150 METAR ESMX 250150Z AUTO 23007KT 180V250 9999 FEW003/// SCT008/// BKN009/// 14/13 Q1009=
201708250120 METAR ESMX 250120Z AUTO 24007KT 9999 -DZ FEW003/// SCT005/// BKN008/// 14/13 Q1009=
201708250050 METAR ESMX 250050Z AUTO 24006KT 9999 FEW005/// SCT007/// BKN013/// 14/13 Q1009=
201708250020 METAR ESMX 250020Z AUTO 24006KT 9999 FEW015/// BKN052/// 14/13 Q1009=
201708242350 METAR ESMX 242350Z 19006KT 7000 -RA FEW006 SCT008 BKN009 14/13 Q1010=
201708242320 METAR ESMX 242320Z 18004KT 9999 FEW006 SCT012 BKN019 14/13 Q1010=
201708242250 METAR ESMX 242250Z 17005KT 9999 FEW013 SCT026 BKN070 14/13 Q1010=
201708242220 METAR ESMX 242220Z 16005KT 9999 FEW014 OVC018 14/13 Q1010=
201708242150 METAR ESMX 242150Z 17004KT 5000 BR BKN015 BKN055 14/13 Q1010=
201708242120 METAR ESMX 242120Z AUTO 18004KT 5000 -DZ BKN017/// 14/13 Q1010 REDZ=
201708242050 METAR ESMX 242050Z 18004KT 9999 FEW006 BKN020 BKN027 14/13 Q1010=
201708242020 METAR ESMX 242020Z 19007KT 9999 FEW006 SCT025 BKN039 14/13 Q1011=
201708241950 METAR ESMX 241950Z 18006KT 9999 FEW013 SCT037 OVC043 15/13 Q1011=
201708241920 METAR ESMX 241920Z 18008KT 9999 OVC045 15/13 Q1011=
201708241850 METAR ESMX 241850Z 17008KT 9999 FEW039 BKN051 16/12 Q1011=
201708241820 METAR ESMX 241820Z 16007KT 9999 FEW035 BKN059 16/12 Q1011=
201708241750 METAR ESMX 241750Z 16007KT CAVOK 17/12 Q1011=
201708241720 METAR ESMX 241720Z 17004KT CAVOK 17/10 Q1011=
201708241650 METAR ESMX 241650Z 17005KT CAVOK 17/10 Q1011=
201708241620 METAR ESMX 241620Z 19006KT CAVOK 17/10 Q1011=
201708241550 METAR ESMX 241550Z 21007KT CAVOK 18/10 Q1011=
201708241520 METAR ESMX 241520Z AUTO 20006KT 9999 FEW071/// 18/09 Q1011=
201708241450 METAR ESMX 241450Z 20007KT CAVOK 19/08 Q1012=
201708241420 METAR ESMX 241420Z 20008KT 9999 FEW043 SCT110 19/09 Q1012=
201708241350 METAR ESMX 241350Z 21005KT CAVOK 19/10 Q1012=
201708241320 METAR ESMX 241320Z 19007KT 160V240 CAVOK 18/08 Q1012=
201708241250 METAR ESMX 241250Z 21008KT CAVOK 19/09 Q1012=
201708241220 METAR ESMX 241220Z 20008KT 9999 SCT044 19/08 Q1013=
201708241150 METAR ESMX 241150Z 21008KT CAVOK 19/08 Q1013=
201708241120 METAR ESMX 241120Z 22007KT CAVOK 19/08 Q1013=
201708241050 METAR ESMX 241050Z 19007KT CAVOK 18/07 Q1013=
201708241020 METAR ESMX 241020Z 17006KT CAVOK 19/07 Q1013=
201708240950 METAR ESMX 240950Z 20006KT 160V250 CAVOK 19/08 Q1014=
201708240920 METAR ESMX 240920Z 24004KT 200V270 CAVOK 18/09 Q1014=
201708240850 METAR ESMX 240850Z 22003KT 160V240 CAVOK 17/08 Q1014=
201708240820 METAR ESMX 240820Z 24003KT 190V290 CAVOK 17/09 Q1014=
201708240750 METAR ESMX 240750Z 23003KT 170V260 CAVOK 16/09 Q1014=
201708240720 METAR ESMX 240720Z 00000KT CAVOK 13/12 Q1014=
201708240650 METAR ESMX 240650Z VRB01KT 9999 FEW002 11/11 Q1014=
201708240620 METAR ESMX 240620Z 00000KT 0300 R01/0600N R19/0450N FG VV002 10/10 Q1014=
201708240550 METAR ESMX 240550Z 00000KT 0050 R01/0125N R19/0175N FG VV001 09/09 Q1014=
201708240520 METAR ESMX 240520Z 19002KT 0050 R01/0125N R19/0200N FG VV001 08/07 Q1014=
201708240450 METAR ESMX 240450Z 00000KT 0050 R01/0200N R19/0275N FG VV000 06/06 Q1014=
201708240420 METAR ESMX 240420Z 19003KT 0050 R01/0100N R19/0200N FG VV000 05/05 Q1015=
201708240350 METAR ESMX 240350Z 00000KT 0150 R01/0225N R19/0200N FG VV000 04/04 Q1015=
201708240320 METAR ESMX 240320Z AUTO 00000KT 0000 R01/P2000D R19/0125N BCFG VV000 04/03 Q1015=
201708240250 METAR ESMX 240250Z AUTO 00000KT 0050 R01/0550U R19/0175N BCFG VV000 05/04 Q1015=
201708240220 METAR ESMX 240220Z AUTO 00000KT 0400 R01/P2000N R19/P2000N FEW088/// 04/03 Q1015=
201708240150 METAR ESMX 240150Z AUTO 00000KT 9999 FEW087/// 04/03 Q1015=
201708240120 METAR ESMX 240120Z AUTO 17001KT 9999 FEW056/// 04/03 Q1016=
201708240050 METAR ESMX 240050Z AUTO 18002KT 9999 FEW066/// 05/04 Q1016=
201708240020 METAR ESMX 240020Z AUTO 00000KT 9999 BR FEW088/// 05/04 Q1016=
201708232350 METAR ESMX 232350Z 18002KT CAVOK 06/05 Q1016=
201708232320 METAR ESMX 232320Z 16001KT CAVOK 07/06 Q1016=
201708232250 METAR ESMX 232250Z 00000KT CAVOK 06/04 Q1016=
201708232220 METAR ESMX 232220Z 17002KT CAVOK 06/05 Q1016=
201708232150 METAR ESMX 232150Z 18001KT CAVOK 07/06 Q1016=
201708232120 METAR ESMX 232120Z 00000KT CAVOK 07/06 Q1016=
201708232050 METAR ESMX 232050Z 18002KT CAVOK 08/06 Q1016=
201708232020 METAR ESMX 232020Z 18002KT CAVOK 08/06 Q1017=
201708231950 METAR ESMX 231950Z 18002KT CAVOK 09/07 Q1017=
201708231920 METAR ESMX 231920Z 00000KT CAVOK 10/08 Q1017=
201708231850 METAR ESMX 231850Z 18002KT CAVOK 11/08 Q1017=
201708231820 METAR ESMX 231820Z VRB01KT CAVOK 13/09 Q1017=
201708231750 METAR ESMX 231750Z 00000KT CAVOK 15/10 Q1017=
201708231720 METAR ESMX 231720Z 35003KT CAVOK 17/10 Q1017=
201708231650 METAR ESMX 231650Z 33004KT 9999 FEW045 18/07 Q1017=
201708231620 METAR ESMX 231620Z 01004KT 330V030 CAVOK 18/07 Q1017=
201708231550 METAR ESMX 231550Z 04005KT CAVOK 18/08 Q1017=
201708231520 METAR ESMX 231520Z 03006KT CAVOK 18/08 Q1017=
201708231450 METAR ESMX 231450Z 01004KT 300V060 CAVOK 19/07 Q1017=
201708231420 METAR ESMX 231420Z 34004KT 290V030 CAVOK 18/06 Q1017=
201708231350 METAR ESMX 231350Z AUTO 34004KT 290V020 9999 FEW068/// 18/06 Q1017=
201708231320 METAR ESMX 231320Z AUTO 36004KT 9999 BKN065/// 17/07 Q1017=
201708231250 METAR ESMX 231250Z AUTO 34005KT 290V040 9999 FEW070/// 18/08 Q1017=
201708231220 METAR ESMX 231220Z AUTO 02005KT 350V080 9999 FEW069/// 18/07 Q1017=
201708231150 METAR ESMX 231150Z AUTO VRB03KT 9999 FEW068/// 17/07 Q1018=
201708231120 METAR ESMX 231120Z AUTO 36005KT 340V040 9999 FEW049/// BKN068/// 17/08 Q1018=
201708231050 METAR ESMX 231050Z AUTO 02007KT 9999 BKN059/// 16/09 Q1018=
201708231020 METAR ESMX 231020Z AUTO 35007KT 320V060 9999 BKN062/// 16/09 Q1018=
201708230950 METAR ESMX 230950Z AUTO 36005KT 320V030 9999 FEW023/// SCT066/// 16/09 Q1018=
201708230920 METAR ESMX 230920Z AUTO 35006KT 9999 NCD 16/09 Q1018=
201708230850 METAR ESMX 230850Z AUTO 34004KT 310V010 9999 FEW096/// 15/10 Q1018=
201708230820 METAR ESMX 230820Z 35006KT CAVOK 14/09 Q1018=
201708230750 METAR ESMX 230750Z 36005KT CAVOK 13/09 Q1018=
201708230720 METAR ESMX 230720Z 03005KT CAVOK 13/09 Q1018=
201708230650 METAR ESMX 230650Z 35004KT CAVOK 12/09 Q1018=
201708230620 METAR ESMX 230620Z 30003KT 260V330 CAVOK 11/08 Q1018=
201708230550 METAR ESMX 230550Z 31004KT CAVOK 10/08 Q1018=
201708230520 METAR ESMX 230520Z 33003KT CAVOK 07/07 Q1018=
201708230450 METAR ESMX 230450Z 31003KT CAVOK 04/03 Q1018=
201708230420 METAR ESMX 230420Z 30003KT CAVOK 05/04 Q1018=
201708230350 METAR ESMX 230350Z 28003KT 9999 BCFG FEW090 04/04 Q1017=
201708230320 METAR ESMX 230320Z AUTO VRB01KT 9999 NCD 05/05 Q1018=
201708230250 METAR ESMX 230250Z AUTO VRB02KT 9999 FEW090/// 06/05 Q1018=
201708230220 METAR ESMX 230220Z AUTO VRB01KT 9999 R01///// R19/P2000N NCD 05/04 Q1018=
201708230150 METAR ESMX 230150Z AUTO VRB02KT 9999 NCD 06/06 Q1018=
201708230120 METAR ESMX 230120Z AUTO 00000KT 9999 FEW055/// SCT077/// 07/05 Q1018=
201708230050 METAR ESMX 230050Z AUTO VRB02KT 9999 BKN053/// 09/08 Q1018=
201708230020 METAR ESMX 230020Z AUTO 00000KT 9999 BKN062/// 08/07 Q1018=
201708222350 METAR ESMX 222350Z VRB01KT CAVOK 07/06 Q1018=
201708222320 METAR ESMX 222320Z 00000KT CAVOK 06/06 Q1018=
201708222250 METAR ESMX 222250Z 26002KT CAVOK 06/06 Q1018=
201708222220 METAR ESMX 222220Z VRB02KT CAVOK 07/07 Q1018=
201708222150 METAR ESMX 222150Z 25002KT CAVOK 07/07 Q1018=
201708222120 METAR ESMX 222120Z 27002KT CAVOK 08/07 Q1018=
201708222050 METAR ESMX 222050Z VRB02KT CAVOK 08/07 Q1018=
201708222020 METAR ESMX 222020Z 01002KT CAVOK 10/08 Q1018=
201708221950 METAR ESMX 221950Z VRB03KT CAVOK 12/09 Q1018=
201708221920 METAR ESMX 221920Z 01004KT CAVOK 12/09 Q1018=
201708221850 METAR ESMX 221850Z 36003KT CAVOK 13/10 Q1018=
201708221820 METAR ESMX 221820Z 34005KT CAVOK 14/09 Q1018=
201708221750 METAR ESMX 221750Z 35007KT CAVOK 16/09 Q1017=
201708221720 METAR ESMX 221720Z 34009KT CAVOK 17/09 Q1017=
201708221650 METAR ESMX 221650Z 35010KT CAVOK 17/09 Q1017=
201708221620 METAR ESMX 221620Z 35010KT CAVOK 18/09 Q1017=
201708221550 METAR ESMX 221550Z 36009KT CAVOK 18/10 Q1017=
201708221520 METAR ESMX 221520Z 36009KT CAVOK 17/09 Q1017=
201708221450 METAR ESMX 221450Z 02006KT CAVOK 18/10 Q1017=
201708221420 METAR ESMX 221420Z 35007KT 330V030 CAVOK 19/11 Q1017=
201708221350 METAR ESMX 221350Z 35004KT 9999 FEW030 BKN050 17/12 Q1017=
201708221320 METAR ESMX 221320Z 04006KT 360V070 9999 FEW038 BKN080 17/11 Q1017=
201708221250 METAR COR ESMX 221250Z 01008KT 340V050 9999 FEW022 SCT030 BKN044 17/11 Q1017=
201708221220 METAR ESMX 221220Z 34007KT 9999 FEW016 SCT036 17/12 Q1017=
201708221150 METAR ESMX 221150Z 35004KT 9999 FEW015 SCT079 16/13 Q1017 RESHRA=
201708221120 METAR ESMX 221120Z 02004KT 9999 FEW027 SCT040 15/13 Q1016=
201708221050 METAR ESMX 221050Z 02011KT 9999 -RA FEW017 SCT053 BKN066 14/12 Q1016=
201708221020 METAR ESMX 221020Z 35008KT 320V020 CAVOK 16/12 Q1016=
201708220950 METAR ESMX 220950Z 36008KT 310V050 9999 FEW023 SCT067 17/11 Q1016=
201708220920 METAR ESMX 220920Z 36008KT 9999 SCT020 16/11 Q1016=
201708220850 METAR ESMX 220850Z 01007KT 9999 SCT017 16/12 Q1016=
201708220820 METAR ESMX 220820Z 33005KT 9999 FEW013 SCT032 15/12 Q1016=
201708220750 METAR ESMX 220750Z 35007KT 9999 FEW012 SCT020 15/11 Q1016=
201708220720 METAR ESMX 220720Z 01006KT 9999 FEW011 SCT015 BKN021 15/11 Q1016=
201708220650 METAR ESMX 220650Z 35006KT 9999 SCT009 BKN027 15/12 Q1016=
201708220620 METAR ESMX 220620Z 32004KT 290V350 CAVOK 14/12 Q1016=
201708220550 METAR ESMX 220550Z 32004KT CAVOK 13/12 Q1015=
201708220520 METAR ESMX 220520Z 28003KT 230V300 CAVOK 12/12 Q1015=
201708220450 METAR ESMX 220450Z 24002KT CAVOK 10/10 Q1015=
201708220420 METAR ESMX 220420Z 25001KT CAVOK 10/10 Q1015=
201708220350 METAR ESMX 220350Z 27002KT CAVOK 11/10 Q1015=
201708220320 METAR ESMX 220320Z AUTO 20001KT 9999 FEW064/// 11/11 Q1015=
201708220250 METAR ESMX 220250Z AUTO 26003KT 9999 SCT066/// 11/10 Q1015=
201708220220 METAR ESMX 220220Z AUTO 27002KT 9999 -DZ FEW063/// SCT074/// 11/11 Q1015=
201708220150 METAR ESMX 220150Z AUTO 26004KT 9999 FEW076/// 11/10 Q1015=
201708220120 METAR ESMX 220120Z AUTO VRB02KT 9999 FEW086/// 11/10 Q1015=
201708220050 METAR ESMX 220050Z AUTO VRB02KT 9999 FEW073/// BKN086/// 10/09 Q1015=
201708220020 METAR ESMX 220020Z AUTO 29002KT 9999 NCD 12/11 Q1015=
201708212350 METAR ESMX 212350Z 26003KT CAVOK 12/11 Q1015=
201708212320 METAR ESMX 212320Z 26004KT CAVOK 11/10 Q1015=
201708212250 METAR ESMX 212250Z 27004KT CAVOK 11/10 Q1015=
201708212220 METAR ESMX 212220Z 19003KT CAVOK 11/10 Q1015=
201708212150 METAR ESMX 212150Z 31003KT CAVOK 11/10 Q1015=
201708212120 METAR ESMX 212120Z 31003KT CAVOK 12/11 Q1015=
201708212050 METAR ESMX 212050Z 31003KT 240V330 CAVOK 13/11 Q1015=
201708212020 METAR ESMX 212020Z 29004KT CAVOK 14/11 Q1015=
201708211950 METAR ESMX 211950Z 26004KT CAVOK 13/11 Q1015=
201708211920 METAR ESMX 211920Z 24003KT 210V270 9999 FEW026 SCT080 14/12 Q1015=
201708211850 METAR ESMX 211850Z 30005KT 270V330 9999 VCSH FEW025CB 15/11 Q1014 RERA=
201708211820 METAR ESMX 211820Z 26003KT CAVOK 14/11 Q1014=
201708211750 METAR ESMX 211750Z 30002KT CAVOK 16/10 Q1014=
201708211720 METAR ESMX 211720Z 30004KT CAVOK 18/09 Q1014=
201708211650 METAR ESMX 211650Z 35005KT CAVOK 19/08 Q1014=
201708211620 METAR ESMX 211620Z 32004KT CAVOK 18/09 Q1014=
201708211550 METAR ESMX 211550Z 28005KT CAVOK 19/08 Q1014=
201708211520 METAR ESMX 211520Z 28005KT 260V320 9999 FEW043 19/10 Q1014=
201708211450 METAR ESMX 211450Z 30006KT 270V350 CAVOK 19/09 Q1013=
201708211420 METAR ESMX 211420Z VRB03KT 9999 FEW038 SCT057 19/09 Q1013=
201708211350 METAR ESMX 211350Z 26003KT 170V330 9999 FEW040 18/10 Q1014=
201708211320 METAR ESMX 211320Z 29005KT 260V330 9999 FEW031 SCT075 18/10 Q1014=
201708211250 METAR ESMX 211250Z 29006KT 250V340 9999 SCT030 17/10 Q1014=
201708211220 METAR ESMX 211220Z VRB03KT CAVOK 17/10 Q1014=
201708211150 METAR ESMX 211150Z 36004KT 320V030 9999 FEW027 BKN065 16/10 Q1014=
201708211120 METAR ESMX 211120Z 35005KT 320V030 9999 FEW025 SCT033 BKN066 16/11 Q1014=
201708211050 METAR ESMX 211050Z 27005KT 220V320 9999 FEW020 BKN066 16/10 Q1014=
201708211020 METAR ESMX 211020Z 33004KT 250V010 CAVOK 17/11 Q1014=
201708210950 METAR ESMX 210950Z 27005KT 230V300 CAVOK 15/12 Q1014=
201708210920 METAR ESMX 210920Z 31005KT 9999 FEW009 SCT013 15/12 Q1014=
201708210850 METAR ESMX 210850Z 32006KT 9999 FEW005 BKN008 BKN012 14/11 Q1013=
201708210820 METAR ESMX 210820Z VRB02KT 9999 SCT005 13/11 Q1013=
201708210750 METAR ESMX 210750Z VRB03KT 9999 FEW003 BKN004 12/12 Q1013=
201708210720 METAR ESMX 210720Z VRB02KT 9999 BKN003 12/12 Q1013=
201708210650 METAR ESMX 210650Z VRB02KT 9999 OVC002 11/11 Q1013=
201708210620 METAR ESMX 210620Z 00000KT 0600 R01/0800N R19/1200U FG VV002 11/11 Q1013=
201708210550 METAR ESMX 210550Z VRB02KT 0650 R01/0900N R19/P2000N FG VV002 10/10 Q1013=
201708210520 METAR ESMX 210520Z VRB01KT 0150 R01/0325N R19/P2000N FG VV002 09/09 Q1013=
201708210450 METAR ESMX 210450Z 15003KT 0300 R01/0500N R19/0900N BCFG NSC 08/08 Q1013=
201708210420 METAR ESMX 210420Z VRB02KT 0300 R01/0650N R19/0500N BCFG NSC 08/08 Q1013=
201708210350 METAR COR ESMX 210350Z 19003KT 0250 R01/0450N R19/0650D FG NSC 09/09 Q1013=
201708210320 METAR ESMX 210320Z AUTO 17003KT 4700 BR BKN060/// 09/08 Q1013=
201708210250 METAR ESMX 210250Z AUTO 16002KT 9999 FEW016/// SCT020/// BKN062/// 09/08 Q1013=
201708210220 METAR ESMX 210220Z AUTO 14002KT 0650 R01/P2000N R19/1700D BCFG FEW015/// BKN069/// 09/09 Q1013=
201708210150 METAR ESMX 210150Z AUTO 22003KT 1800 BKN078/// 08/08 Q1013=
201708210120 METAR ESMX 210120Z AUTO 16003KT 0300 R01/1700U R19/1100N BCFG NCD 09/09 Q1013=
201708210050 METAR ESMX 210050Z AUTO 18003KT 0350 R01/P2000N R19/1100D BR NCD 10/09 Q1013=
201708210020 METAR ESMX 210020Z AUTO 22004KT 0200 R01/P2000N R19/0800N FEW058/// 10/09 Q1013=
201708202350 METAR ESMX 202350Z AUTO 22005KT 0550 R01/P2000N R19/1500D NCD 10/10 Q1013=
201708202320 METAR ESMX 202320Z 21005KT 9999 FEW015 10/09 Q1013=
201708202250 METAR ESMX 202250Z 18004KT 2100 FEW015 11/10 Q1013=
201708202220 METAR ESMX 202220Z 18005KT 9999 FEW014 10/10 Q1013=
201708202150 METAR ESMX 202150Z 19005KT 9999 FEW015 SCT017 11/10 Q1013=
201708202120 METAR ESMX 202120Z 19005KT 9999 FEW018 12/11 Q1013=
201708202050 METAR ESMX 202050Z AUTO 20005KT 9999 FEW020/// 12/11 Q1013=
201708202020 METAR ESMX 202020Z 22004KT 9999 SCT015 12/11 Q1013=
201708201950 METAR COR ESMX 201950Z 21005KT 9999 SCT020 12/11 Q1013=
201708201920 METAR ESMX 201920Z 20007KT CAVOK 13/12 Q1013=
201708201850 METAR ESMX 201850Z 19007KT 9999 FEW030 13/12 Q1013=
201708201820 METAR ESMX 201820Z 17005KT 9999 FEW030 14/12 Q1013=
201708201750 METAR ESMX 201750Z 20006KT 9999 FEW031TCU 14/13 Q1013=
201708201720 METAR ESMX 201720Z 21008KT 9000 RA FEW023 SCT049 14/13 Q1013=
201708201650 METAR COR ESMX 201650Z 20008KT 9999 SHRA TS FEW021CB SCT056 BKN071 15/12 Q1013=
201708201620 METAR ESMX 201620Z 20008KT 9999 FEW019 15/12 Q1013=
201708201550 METAR ESMX 201550Z 20009KT 9999 FEW012 SCT024 16/13 Q1013=
201708201520 METAR ESMX 201520Z 22005KT 9999 FEW009 BKN015 16/14 Q1013=
201708201450 METAR ESMX 201450Z 19007KT 9999 FEW020 SCT039 16/13 Q1013=
201708201420 METAR ESMX 201420Z 21008KT CAVOK 16/12 Q1013=
201708201350 METAR ESMX 201350Z 19008KT 9999 VCSH NSC 15/13 Q1013=
201708201320 METAR ESMX 201320Z 20009KT 9999 SHRA FEW026CB SCT050 BKN064 14/12 Q1013=
201708201250 METAR ESMX 201250Z 24013G26KT 210V280 9999 SHRA FEW027CB SCT043 BKN070 14/12 Q1013=
201708201220 METAR ESMX 201220Z 20015KT 9999 FEW039 SCT073 18/10 Q1013=
201708201150 METAR ESMX 201150Z 20012KT 9999 FEW038 SCT066 19/10 Q1013=
201708201120 METAR ESMX 201120Z 19013KT 170V230 9999 FEW037 SCT063 18/09 Q1013=
201708201050 METAR ESMX 201050Z 19013KT 9999 SCT038 18/10 Q1013=
201708201020 METAR ESMX 201020Z 20012KT 9999 FEW037 SCT059 18/09 Q1013=
201708200950 METAR ESMX 200950Z AUTO 19014KT 9999 NCD 17/10 Q1013=
201708200920 METAR ESMX 200920Z AUTO 20014KT 9999 FEW028/// 17/10 Q1013=
201708200850 METAR ESMX 200850Z AUTO 20010KT 9999 FEW024/// 16/10 Q1013=
201708200820 METAR ESMX 200820Z AUTO 20015KT 9999 FEW019/// SCT024/// 16/10 Q1013=
201708200750 METAR ESMX 200750Z AUTO 22012KT 9999 FEW016/// SCT024/// BKN029/// 14/10 Q1013=
201708200720 METAR ESMX 200720Z AUTO 20012KT 9999 FEW011/// SCT014/// BKN016/// 14/11 Q1013=
201708200650 METAR ESMX 200650Z AUTO 19013KT 9999 BKN008/// 14/12 Q1013=
201708200620 METAR ESMX 200620Z AUTO 19011KT 9999 FEW006/// SCT008/// BKN011/// 14/12 Q1013=
201708200550 METAR ESMX 200550Z AUTO 18008KT 9999 BKN005/// BKN009/// 13/12 Q1013=
201708200520 METAR ESMX 200520Z AUTO 18007KT 9999 FEW005/// 12/11 Q1013=
201708200450 METAR ESMX 200450Z AUTO 18007KT 9999 FEW078/// 11/10 Q1013=
201708200420 METAR ESMX 200420Z AUTO 18007KT 9999 FEW004/// 10/10 Q1013=
201708200350 METAR ESMX 200350Z AUTO 20008KT 9999 FEW005/// SCT057/// 11/10 Q1013=
201708200320 METAR ESMX 200320Z AUTO 21007KT 9999 FEW024/// 10/10 Q1013=
201708200250 METAR ESMX 200250Z AUTO 19008KT 9999 FEW046/// 11/10 Q1013=
201708200220 METAR ESMX 200220Z AUTO 19007KT 9999 FEW004/// SCT007/// 11/10 Q1013=
201708200150 METAR ESMX 200150Z AUTO 18008KT 9999 NCD 11/10 Q1013=
201708200120 METAR ESMX 200120Z AUTO 18008KT 9999 FEW007/// 11/10 Q1013=
201708200050 METAR ESMX 200050Z AUTO 18008KT 9999 NCD 11/10 Q1012=
201708200020 METAR ESMX 200020Z AUTO 19007KT 9999 FEW047/// 11/10 Q1012=
201708192350 METAR ESMX 192350Z AUTO 18008KT 9999 NCD 12/11 Q1012=
201708192320 METAR ESMX 192320Z AUTO 20008KT 9999 NCD 12/10 Q1012=
201708192250 METAR ESMX 192250Z AUTO 18009KT 9999 FEW089/// 12/11 Q1012=
201708192220 METAR ESMX 192220Z AUTO 19009KT 9999 NCD 12/10 Q1012=
201708192150 METAR ESMX 192150Z AUTO 20010KT 9999 NCD 12/11 Q1012=
201708192120 METAR ESMX 192120Z AUTO 19009KT 9999 NCD 12/10 Q1012=
201708192050 METAR ESMX 192050Z AUTO 19009KT 9999 FEW037/// 12/10 Q1012=
201708192020 METAR ESMX 192020Z AUTO 19007KT 9999 NCD 12/10 Q1012=
201708191950 METAR ESMX 191950Z AUTO 18008KT 9999 NCD 12/10 Q1012=
201708191920 METAR ESMX 191920Z 20009KT 9999 FEW027 SCT074 13/10 Q1012=
201708191850 METAR ESMX 191850Z 18009KT CAVOK 14/11 Q1011=
201708191820 METAR ESMX 191820Z 20007KT CAVOK 13/11 Q1011=
201708191750 METAR ESMX 191750Z 20008KT CAVOK 14/10 Q1011=
201708191720 METAR ESMX 191720Z 20008KT 9999 FEW028 15/11 Q1011=
201708191650 METAR ESMX 191650Z 21014KT 9999 -RA FEW042 SCT066 15/10 Q1011=
201708191620 METAR ESMX 191620Z 21010KT CAVOK 18/08 Q1011=
201708191550 METAR ESMX 191550Z 22011KT 9999 FEW040 17/06 Q1010=
201708191520 METAR ESMX 191520Z 23012KT 200V260 9999 FEW046 19/08 Q1010=
201708191450 METAR ESMX 191450Z 24011KT 200V260 9999 FEW048 19/08 Q1010=
201708191420 METAR ESMX 191420Z 23011KT 9999 SCT042 19/09 Q1010=
201708191350 METAR ESMX 191350Z 21015KT 9999 SCT034 19/10 Q1010=
201708191320 METAR ESMX 191320Z 23012KT 200V260 9999 FEW037 SCT060 17/11 Q1009=
201708191250 METAR ESMX 191250Z 24013KT 9999 FEW030 SCT065 18/10 Q1009=
201708191220 METAR ESMX 191220Z 23010KT 200V260 9999 FEW030 SCT042 BKN056 16/10 Q1009=
201708191150 METAR ESMX 191150Z 23013KT 200V260 9999 FEW034 SCT074 18/10 Q1009=
201708191120 METAR ESMX 191120Z 20013KT CAVOK 17/11 Q1009=
201708191050 METAR ESMX 191050Z AUTO 21013KT 9999 BKN062/// 17/12 Q1008=
201708191020 METAR ESMX 191020Z AUTO 22012KT 9999 FEW028/// BKN069/// 17/12 Q1008=
201708190950 METAR ESMX 190950Z AUTO 21010KT 9999 FEW034/// 18/12 Q1007=
201708190920 METAR ESMX 190920Z AUTO 23011KT 200V260 9999 NCD 18/11 Q1007=
201708190850 METAR ESMX 190850Z AUTO 25009KT 9999 FEW017/// SCT020/// BKN024/// 17/12 Q1007=
201708190820 METAR ESMX 190820Z AUTO 24010KT 9999 FEW013/// SCT020/// BKN030/// 17/13 Q1007=
201708190750 METAR ESMX 190750Z AUTO 23010KT 9999 FEW010/// SCT013/// BKN017/// 17/14 Q1006=
201708190720 METAR ESMX 190720Z AUTO 23009KT 9999 FEW008/// SCT012/// BKN015/// 16/14 Q1006=
201708190650 METAR ESMX 190650Z AUTO 22010KT 9999 FEW006/// SCT009/// BKN011/// 16/14 Q1006=
201708190620 METAR ESMX 190620Z AUTO 22009KT 9999 FEW006/// BKN011/// OVC016/// 15/14 Q1005=
201708190550 METAR ESMX 190550Z AUTO 22010KT 9999 FEW005/// SCT011/// BKN013/// 16/14 Q1005=
201708190520 METAR ESMX 190520Z AUTO 22008KT 4700 BR OVC001/// 15/14 Q1005 REDZ=
201708190450 METAR ESMX 190450Z AUTO 22008KT 5000 BR BKN001/// 15/14 Q1005=
201708190420 METAR ESMX 190420Z AUTO 22006KT 5000 SCT001/// BKN005/// OVC008/// 15/14 Q1005=
201708190350 METAR ESMX 190350Z AUTO 24003KT 1400 R01/P2000N R19/1900N FEW010/// SCT014/// 14/13 Q1004 RERA=
201708190320 METAR ESMX 190320Z AUTO 24003KT 5000 BR FEW013/// SCT055/// 15/14 Q1004 REDZ=
201708190250 METAR ESMX 190250Z AUTO 00000KT 6000 BR FEW001/// 15/14 Q1004=
201708190220 METAR ESMX 190220Z AUTO 26004KT 230V290 7000 -RA SCT001/// BKN006/// BKN058/// 15/14 Q1005=
201708190150 METAR ESMX 190150Z AUTO 26004KT 9999 -RA FEW023/// SCT070/// 15/14 Q1005=
201708190120 METAR ESMX 190120Z AUTO 26005KT 240V300 9999 -RA FEW022/// 15/14 Q1005=
201708190050 METAR ESMX 190050Z AUTO 27005KT 5000 +RA FEW007/// 15/14 Q1005=
201708190020 METAR ESMX 190020Z AUTO 27005KT 2600 +RA FEW004/// SCT029/// 15/14 Q1005=
201708182350 METAR ESMX 182350Z AUTO 29003KT 2000 +RA FEW002/// SCT005/// BKN013/// 15/15 Q1005=
201708182320 METAR ESMX 182320Z AUTO 26003KT 3900 +RA FEW003/// SCT009/// BKN018/// 16/15 Q1006 RESHRA=
201708182250 METAR ESMX 182250Z AUTO 16005KT 3000 RA SCT002/// BKN027/// 17/16 Q1007=
201708182220 METAR ESMX 182220Z AUTO 14005KT 4500 -RA BKN003/// 17/16 Q1007 REDZ=
201708182150 METAR ESMX 182150Z AUTO 15005KT 6000 BR BKN003/// BKN075/// 17/16 Q1008=
201708182120 METAR ESMX 182120Z AUTO 15006KT 5000 -RA BKN003/// BKN006/// 17/16 Q1008 RERA=
201708182050 METAR ESMX 182050Z AUTO 14004KT 110V200 5000 BR BKN004/// OVC008/// 17/16 Q1008=
201708182020 METAR ESMX 182020Z AUTO 14006KT 7000 DZ SCT005/// BKN008/// 18/16 Q1009=
201708181950 METAR ESMX 181950Z AUTO 14005KT 9000 BR FEW087/// 18/16 Q1009=
201708181920 METAR ESMX 181920Z 14005KT 9000 BR NSC 18/16 Q1009=
201708181850 METAR ESMX 181850Z 16005KT 130V190 9999 FEW018 18/16 Q1010=
201708181820 METAR ESMX 181820Z 15005KT CAVOK 19/16 Q1010=
201708181750 METAR ESMX 181750Z 16006KT 9999 FEW019 19/16 Q1010=
201708181720 METAR ESMX 181720Z 15007KT 9999 FEW016 SCT020 BKN030 19/16 Q1010=
201708181650 METAR ESMX 181650Z 17007KT 9999 FEW020 SCT034 20/16 Q1010=
201708181620 METAR ESMX 181620Z 19006KT 9999 FEW042 20/15 Q1010=
201708181550 METAR ESMX 181550Z 18009KT 9999 SCT024 21/15 Q1011=
201708181520 METAR ESMX 181520Z 18010KT 9999 FEW023 SCT065 21/15 Q1011=
201708181450 METAR ESMX 181450Z 19008KT 9999 FEW021 SCT068 21/15 Q1011=
201708181420 METAR ESMX 181420Z 22008KT 9999 FEW025 BKN068 21/15 Q1011=
201708181350 METAR ESMX 181350Z 20008KT 9999 FEW022 SCT040 BKN062 20/16 Q1011=
201708181320 METAR ESMX 181320Z 21009KT 9999 FEW022 SCT034 BKN060 21/15 Q1011=
201708181250 METAR ESMX 181250Z 19010KT 9999 FEW022 SCT055 20/16 Q1011=
201708181220 METAR ESMX 181220Z 21012KT 9999 FEW020 SCT058 BKN150 21/15 Q1011=
201708181150 METAR COR ESMX 181150Z 20010KT 9999 FEW016 BKN050 20/16 Q1011=
201708181120 METAR ESMX 181120Z 21008KT 9999 FEW012 BKN045 19/16 Q1011=
201708181050 METAR ESMX 181050Z 21009KT 9999 SCT010 BKN040 19/16 Q1011=
201708181020 METAR ESMX 181020Z 21008KT 9999 FEW010 BKN015 19/16 Q1012=
201708180950 METAR ESMX 180950Z 21009KT 9999 BKN010 19/16 Q1012=
201708180920 METAR ESMX 180920Z 20008KT 9999 FEW007 BKN009 18/16 Q1011=
201708180850 METAR ESMX 180850Z 19008KT 9999 FEW007 BKN008 18/16 Q1011=
201708180820 METAR ESMX 180820Z 21008KT 9999 FEW004 BKN007 18/16 Q1011=
201708180750 METAR COR ESMX 180750Z 21006KT 8000 BR FEW004 BKN005 17/16 Q1011=
201708180720 METAR COR ESMX 180720Z 21007KT 9999 FEW004 BKN006 17/16 Q1011=
201708180650 METAR ESMX 180650Z 20007KT 9999 FEW003 BKN005 17/16 Q1011=
201708180620 METAR ESMX 180620Z 20007KT 9999 BKN005 17/16 Q1011=
201708180550 METAR ESMX 180550Z 21007KT 9999 SCT002 OVC004 16/16 Q1011=
201708180520 METAR ESMX 180520Z 20006KT 7000 DZ BKN003 16/15 Q1011=
201708180450 METAR ESMX 180450Z 19007KT 9999 BKN003 16/15 Q1011=
201708180420 METAR ESMX 180420Z AUTO 19007KT 4700 -RA BKN002/// OVC005/// 16/15 Q1011 RERA=
201708180350 METAR ESMX 180350Z 18007KT 8000 BR FEW002 SCT004 BKN005 16/15 Q1011=
201708180320 METAR ESMX 180320Z AUTO 16007KT 9000 BR BKN002/// OVC005/// 16/15 Q1011=
201708180250 METAR ESMX 180250Z AUTO 15007KT 9000 -RA FEW002/// SCT003/// OVC005/// 16/15 Q1011=
201708180220 METAR ESMX 180220Z AUTO 15008KT 7000 RA FEW002/// SCT005/// OVC007/// 16/15 Q1011=
201708180150 METAR ESMX 180150Z 15006KT 9999 -RA FEW002 SCT003 BKN007 16/15 Q1011=
201708180120 METAR ESMX 180120Z 15006KT 110V180 9999 -RA FEW001 SCT003 BKN004 16/15 Q1012=
201708180050 METAR ESMX 180050Z AUTO 14007KT 9999 -RA OVC001/// 16/15 Q1012=
201708180020 METAR ESMX 180020Z 14007KT 110V170 9999 RA FEW002 BKN005 15/15 Q1012=
201708172350 METAR ESMX 172350Z 15006KT 110V190 9999 RA OVC005 15/14 Q1012=
201708172320 METAR ESMX 172320Z 15007KT 8000 -RA FEW004 BKN006 15/14 Q1013=
201708172250 METAR ESMX 172250Z 14007KT 9000 RA FEW006 BKN042 15/14 Q1013=
201708172220 METAR ESMX 172220Z 14010KT 9999 -RA FEW018 SCT077 15/13 Q1013=
201708172150 METAR ESMX 172150Z 14008KT CAVOK 16/13 Q1014=
201708172120 METAR ESMX 172120Z AUTO 14007KT 100V170 9999 -DZ FEW083/// 16/12 Q1014=
201708172050 METAR ESMX 172050Z 14008KT 9999 FEW025 SCT074 16/11 Q1014=
201708172020 METAR ESMX 172020Z 14009KT 110V170 9999 FEW024 16/11 Q1015=
201708171950 METAR ESMX 171950Z 15007KT CAVOK 16/10 Q1015=
201708171920 METAR ESMX 171920Z 13005KT 100V170 CAVOK 16/10 Q1015=
201708171850 METAR ESMX 171850Z 15005KT CAVOK 17/10 Q1015=
201708171820 METAR ESMX 171820Z 14006KT 110V170 CAVOK 17/10 Q1016=
201708171750 METAR ESMX 171750Z 16008KT CAVOK 18/10 Q1016=
201708171720 METAR ESMX 171720Z 17007KT CAVOK 19/10 Q1016=
201708171650 METAR COR ESMX 171650Z 16008KT CAVOK 19/11 Q1016=
201708171620 METAR ESMX 171620Z 18009KT CAVOK 20/10 Q1016=
201708171550 METAR ESMX 171550Z 16007KT 130V190 CAVOK 21/10 Q1017=
201708171520 METAR ESMX 171520Z 17007KT CAVOK 21/09 Q1017=
201708171450 METAR ESMX 171450Z 15006KT 120V180 CAVOK 21/09 Q1017=
201708171420 METAR ESMX 171420Z 15006KT 120V190 CAVOK 21/08 Q1017=
201708171350 METAR ESMX 171350Z 18006KT 120V230 CAVOK 21/08 Q1017=
201708171320 METAR ESMX 171320Z VRB04KT CAVOK 21/08 Q1018=
201708171250 METAR ESMX 171250Z VRB05KT CAVOK 21/09 Q1018=
201708171220 METAR ESMX 171220Z 16006KT 120V210 CAVOK 21/07 Q1018=
201708171150 METAR ESMX 171150Z 15008KT 110V180 CAVOK 21/08 Q1019=
201708171120 METAR ESMX 171120Z 16006KT 110V190 CAVOK 21/07 Q1019=
201708171050 METAR ESMX 171050Z 15005KT 090V210 CAVOK 20/07 Q1019=
201708171020 METAR ESMX 171020Z 19007KT CAVOK 20/07 Q1019=
201708170950 METAR ESMX 170950Z 16005KT 100V210 CAVOK 19/08 Q1020=
201708170920 METAR ESMX 170920Z VRB04KT CAVOK 19/06 Q1020=
201708170850 METAR ESMX 170850Z VRB03KT CAVOK 19/10 Q1020=
201708170820 METAR ESMX 170820Z VRB03KT CAVOK 18/10 Q1020=
201708170750 METAR ESMX 170750Z 04004KT 010V080 CAVOK 17/10 Q1020=
201708170720 METAR ESMX 170720Z VRB02KT CAVOK 17/11 Q1020=
201708170650 METAR ESMX 170650Z 00000KT CAVOK 15/10 Q1021=
201708170620 METAR ESMX 170620Z 00000KT CAVOK 13/10 Q1021=
201708170550 METAR ESMX 170550Z 00000KT CAVOK 11/11 Q1021=
201708170520 METAR ESMX 170520Z 00000KT CAVOK 09/09 Q1021=
201708170450 METAR ESMX 170450Z 26002KT CAVOK 06/05 Q1021=
201708170420 METAR ESMX 170420Z 00000KT 1300 R01/P2000N R19/P2000N BCFG NSC 05/05 Q1020=
201708170350 METAR ESMX 170350Z 00000KT 0400 R01/1700U R19/0600U MIFG NSC 05/04 Q1020=
201708170320 METAR ESMX 170320Z AUTO 00000KT 1400 R01/1600N R19/P2000N BCFG NCD 05/05 Q1020=
201708170250 METAR ESMX 170250Z AUTO 00000KT 0450 R01/P2000D R19/P2000N BCFG NCD 06/05 Q1020=
201708170220 METAR ESMX 170220Z AUTO 00000KT 9999 NCD 07/06 Q1020=
201708170150 METAR ESMX 170150Z AUTO 00000KT 8000 BCFG NCD 07/06 Q1020=
201708170120 METAR ESMX 170120Z AUTO 00000KT 9999 FEW075/// 06/06 Q1020=
201708170050 METAR ESMX 170050Z AUTO 17002KT 9999 NCD 07/06 Q1020=
201708170020 METAR ESMX 170020Z AUTO 20002KT 9999 FEW076/// 08/07 Q1020=
201708162350 METAR ESMX 162350Z VRB02KT CAVOK 09/08 Q1020=
201708162320 METAR ESMX 162320Z VRB01KT CAVOK 10/09 Q1020=
201708162250 METAR ESMX 162250Z 28002KT CAVOK 10/09 Q1021=
201708162220 METAR ESMX 162220Z 26002KT CAVOK 12/11 Q1020=
201708162150 METAR ESMX 162150Z 29003KT CAVOK 12/10 Q1020=
201708162120 METAR ESMX 162120Z 27003KT CAVOK 13/11 Q1020=
201708162050 METAR ESMX 162050Z 26004KT CAVOK 13/11 Q1020=
201708162020 METAR ESMX 162020Z 26004KT CAVOK 13/11 Q1020=
201708161950 METAR ESMX 161950Z 26004KT CAVOK 15/11 Q1020=
201708161920 METAR ESMX 161920Z 25004KT CAVOK 15/11 Q1020=
201708161850 METAR ESMX 161850Z 25005KT CAVOK 15/11 Q1020=
201708161820 METAR ESMX 161820Z 26003KT CAVOK 18/10 Q1019=
201708161750 METAR ESMX 161750Z 26004KT 9999 FEW042 19/11 Q1019=
201708161720 METAR ESMX 161720Z 30005KT 270V350 9999 FEW040 20/11 Q1019=
201708161650 METAR ESMX 161650Z AUTO 26003KT 9999 NCD 19/12 Q1019=
201708161620 METAR ESMX 161620Z AUTO 30005KT 260V340 9999 FEW037/// 21/11 Q1019=
201708161550 METAR ESMX 161550Z AUTO 27007KT 240V310 9999 NCD 21/11 Q1019=
201708161520 METAR ESMX 161520Z AUTO 27007KT 190V310 9999 FEW058/// 21/13 Q1018=
201708161450 METAR ESMX 161450Z AUTO 29007KT 260V340 9999 NCD 21/12 Q1018=
201708161420 METAR ESMX 161420Z 29008KT 9999 FEW026 SCT043 20/13 Q1018=
201708161350 METAR ESMX 161350Z 32005KT 280V020 9999 BKN022 20/14 Q1018=
201708161320 METAR ESMX 161320Z 30005KT 260V330 9999 FEW022 SCT027 20/14 Q1018=
201708161250 METAR ESMX 161250Z 30005KT 260V330 9999 FEW020 BKN023 19/13 Q1018=
201708161220 METAR ESMX 161220Z 28007KT 9999 FEW018 SCT023 19/14 Q1018=
201708161150 METAR ESMX 161150Z 28008KT 9999 FEW018 BKN025 19/14 Q1018=
201708161120 METAR ESMX 161120Z 31009KT 260V330 9999 FEW014 SCT028 19/15 Q1017=
201708161050 METAR ESMX 161050Z 30007KT 9999 FEW010 BKN023 18/16 Q1017=
201708161020 METAR ESMX 161020Z 29006KT 260V330 9999 FEW010 OVC020 18/16 Q1017=
201708160950 METAR ESMX 160950Z 30006KT 9999 SCT010 BKN020 18/16 Q1017=
201708160920 METAR ESMX 160920Z 28005KT 250V330 9999 FEW010 BKN018 17/15 Q1017=
201708160850 METAR ESMX 160850Z 28007KT 260V330 9999 OVC005 17/15 Q1017=
201708160820 METAR ESMX 160820Z 29007KT 9999 OVC006 17/16 Q1016=
201708160750 METAR ESMX 160750Z 27005KT 240V300 9000 BR BKN005 BKN030 17/16 Q1016=
201708160720 METAR ESMX 160720Z 26006KT 9000 BR BKN003 BKN030 16/16 Q1016=
201708160650 METAR ESMX 160650Z VRB02KT 9000 -DZ FEW027 SCT056 16/15 Q1016=
201708160620 METAR ESMX 160620Z VRB03KT 5000 RADZ SCT027 15/15 Q1016=
201708160550 METAR ESMX 160550Z 17005KT 140V200 6000 RA FEW028 SCT047 15/15 Q1015=
201708160520 METAR ESMX 160520Z VRB02KT 7000 -RA FEW027 SCT062 15/14 Q1015=
201708160450 METAR ESMX 160450Z VRB02KT 9999 RA SCT027 15/14 Q1015=
201708160420 METAR ESMX 160420Z VRB03KT 9999 -RA FEW026 SCT055 15/14 Q1015=
201708160350 METAR COR ESMX 160350Z 00000KT 9999 -RA FEW004 SCT024 BKN032 15/14 Q1015=
201708160320 METAR ESMX 160320Z AUTO VRB02KT 9999 -RA FEW027/// OVC035/// 15/14 Q1015 RERA=
201708160250 METAR ESMX 160250Z AUTO 12003KT 080V170 9999 -RA FEW019/// SCT034/// 15/14 Q1015=
201708160220 METAR ESMX 160220Z AUTO 14004KT 100V170 9999 -RA FEW027/// SCT072/// 15/14 Q1016=
201708160150 METAR ESMX 160150Z AUTO 16005KT 130V190 9999 RA FEW028/// 15/13 Q1016=
201708160120 METAR ESMX 160120Z AUTO 14007KT 9999 -RA BKN062/// 16/13 Q1016=
201708160050 METAR ESMX 160050Z AUTO 14005KT 100V190 9999 FEW082/// 15/12 Q1016=
201708160020 METAR ESMX 160020Z AUTO 13006KT 080V170 9999 FEW100/// 15/12 Q1016=
201708152350 METAR ESMX 152350Z 13006KT 080V190 CAVOK 15/12 Q1016=
201708152320 METAR ESMX 152320Z 13005KT 100V170 CAVOK 15/11 Q1017=
201708152250 METAR ESMX 152250Z 13005KT 070V170 CAVOK 14/11 Q1017=
201708152220 METAR ESMX 152220Z AUTO 12005KT 070V190 9999 NCD 15/10 Q1018=
201708152150 METAR ESMX 152150Z 14005KT 080V170 CAVOK 15/10 Q1018=
201708152120 METAR ESMX 152120Z 12005KT 070V160 CAVOK 15/10 Q1018=
201708152050 METAR ESMX 152050Z 14007KT 110V170 9999 NSC 15/10 Q1019=
201708152020 METAR ESMX 152020Z 13005KT 100V160 CAVOK 16/10 Q1019=
201708151950 METAR ESMX 151950Z 14005KT 090V170 CAVOK 16/10 Q1019=
201708151920 METAR ESMX 151920Z 15005KT 110V180 CAVOK 17/10 Q1019=
201708151850 METAR ESMX 151850Z 14006KT CAVOK 17/10 Q1019=
201708151820 METAR ESMX 151820Z 15007KT CAVOK 18/10 Q1020=
201708151750 METAR ESMX 151750Z 16007KT CAVOK 19/09 Q1020=
201708151720 METAR ESMX 151720Z 15009KT CAVOK 19/10 Q1020=
201708151650 METAR ESMX 151650Z 16009KT 130V190 CAVOK 20/10 Q1020=
201708151620 METAR ESMX 151620Z 15012KT 120V180 CAVOK 20/10 Q1020=
201708151550 METAR ESMX 151550Z 14010KT 110V170 9999 FEW044 21/09 Q1020=
201708151520 METAR ESMX 151520Z 16010KT 130V190 9999 FEW043 21/10 Q1020=
201708151450 METAR ESMX 151450Z 17013KT 9999 FEW045 22/10 Q1021=
201708151420 METAR COR ESMX 151420Z 16013KT 9999 FEW045 21/10 Q1021=
201708151350 METAR ESMX 151350Z 16013KT 9999 FEW040 SCT057 22/11 Q1021=
201708151320 METAR ESMX 151320Z 17010KT 140V210 9999 FEW041 SCT060 22/11 Q1022=
201708151250 METAR ESMX 151250Z 15010KT 120V180 9999 FEW045 SCT060 21/11 Q1022=
201708151220 METAR ESMX 151220Z 16010KT 9999 FEW036 SCT062 21/11 Q1022=
201708151150 METAR ESMX 151150Z 14010KT 9999 FEW035 21/11 Q1022=
201708151120 METAR ESMX 151120Z 15008KT 110V190 CAVOK 20/11 Q1022=
201708151050 METAR ESMX 151050Z 16008KT CAVOK 19/10 Q1022=
201708151020 METAR ESMX 151020Z 14008KT 100V170 9999 FEW045 19/10 Q1023=
201708150950 METAR ESMX 150950Z 12007KT 070V170 CAVOK 19/10 Q1023=
201708150920 METAR ESMX 150920Z 13007KT 080V170 CAVOK 19/09 Q1023=
201708150850 METAR ESMX 150850Z 13006KT 100V170 CAVOK 18/06 Q1023=
201708150820 METAR ESMX 150820Z 12007KT 080V160 CAVOK 18/07 Q1024=
201708150750 METAR ESMX 150750Z 13006KT 080V170 CAVOK 17/08 Q1024=
201708150720 METAR ESMX 150720Z 14007KT 120V180 CAVOK 16/10 Q1024=
201708150650 METAR ESMX 150650Z 14007KT 110V170 CAVOK 15/10 Q1024=
201708150620 METAR ESMX 150620Z 14005KT 110V170 CAVOK 14/10 Q1024=
201708150550 METAR ESMX 150550Z 14004KT 100V180 CAVOK 12/09 Q1024=
201708150520 METAR ESMX 150520Z VRB03KT CAVOK 10/09 Q1024=
201708150450 METAR ESMX 150450Z VRB02KT CAVOK 06/06 Q1024=
201708150420 METAR ESMX 150420Z VRB01KT CAVOK 05/04 Q1024=
201708150350 METAR ESMX 150350Z 00000KT 9999 BCFG NSC 04/04 Q1024=
201708150320 METAR ESMX 150320Z AUTO 00000KT 4100 BCFG FEW059/// 04/04 Q1024=
201708150250 METAR ESMX 150250Z AUTO 18003KT 0250 R01/P2000N R19/P2000N BCFG NCD 05/04 Q1024=
201708150220 METAR ESMX 150220Z AUTO 00000KT 9999 BCFG NCD 05/04 Q1024=
201708150150 METAR ESMX 150150Z AUTO 00000KT 0250 R01/P2000N R19/0650N BCFG FEW060/// 04/03 Q1024=
201708150120 METAR ESMX 150120Z AUTO 00000KT 9999 NCD 05/04 Q1024=
201708150050 METAR ESMX 150050Z AUTO VRB01KT 9000 BR NCD 06/05 Q1024=
201708150020 METAR ESMX 150020Z AUTO 00000KT 9999 NCD 05/04 Q1024=
201708142350 METAR ESMX 142350Z 00000KT CAVOK 06/05 Q1024=
201708142320 METAR ESMX 142320Z 00000KT CAVOK 07/06 Q1025=
201708142250 METAR ESMX 142250Z 19002KT CAVOK 07/06 Q1025=
201708142220 METAR ESMX 142220Z 18002KT CAVOK 07/06 Q1025=
201708142150 METAR ESMX 142150Z VRB03KT CAVOK 10/08 Q1025=
201708142120 METAR ESMX 142120Z 17002KT CAVOK 09/06 Q1024=
201708142050 METAR COR ESMX 142050Z 17002KT CAVOK 09/06 Q1024=
201708142020 METAR ESMX 142020Z 17004KT CAVOK 10/07 Q1024=
201708141950 METAR ESMX 141950Z 16002KT CAVOK 10/07 Q1024=
201708141920 METAR ESMX 141920Z 24003KT CAVOK 12/08 Q1024=
201708141850 METAR ESMX 141850Z 18003KT CAVOK 13/08 Q1024=
201708141820 METAR ESMX 141820Z 21003KT CAVOK 15/08 Q1024=
201708141750 METAR ESMX 141750Z 20002KT CAVOK 15/08 Q1024=
201708141720 METAR ESMX 141720Z VRB02KT CAVOK 17/07 Q1023=
201708141650 METAR ESMX 141650Z 24004KT 210V300 CAVOK 18/06 Q1023=
201708141620 METAR ESMX 141620Z 28005KT 250V320 CAVOK 19/06 Q1023=
201708141550 METAR ESMX 141550Z 26007KT 220V290 CAVOK 19/06 Q1023=
201708141520 METAR ESMX 141520Z 24006KT 190V280 CAVOK 19/06 Q1023=
201708141450 METAR ESMX 141450Z 27007KT 230V030 CAVOK 20/06 Q1023=
201708141420 METAR ESMX 141420Z 24008KT 200V280 CAVOK 20/06 Q1023=
201708141350 METAR ESMX 141350Z 28005KT 240V340 CAVOK 19/06 Q1024=
201708141320 METAR ESMX 141320Z 30005KT 260V330 9999 SCT050 18/05 Q1023=
201708141250 METAR ESMX 141250Z 24006KT 210V290 CAVOK 18/06 Q1023=
201708141220 METAR ESMX 141220Z 28008KT 240V320 9999 FEW049 19/06 Q1023=
201708141150 METAR ESMX 141150Z 31008KT 280V350 9999 SCT043 17/06 Q1023=
201708141120 METAR ESMX 141120Z 26007KT 220V320 9999 SCT040 18/07 Q1023=
201708141050 METAR ESMX 141050Z 28008KT 250V330 9999 SCT040 17/08 Q1023=
201708141020 METAR ESMX 141020Z 26007KT 230V290 9999 SCT035 18/08 Q1023=
201708140950 METAR ESMX 140950Z 28009KT 240V300 9999 SCT035 17/09 Q1023=
201708140920 METAR ESMX 140920Z 26006KT 9999 SCT032 16/09 Q1023=
201708140850 METAR COR ESMX 140850Z 27006KT 9999 SCT030 17/09 Q1023=
201708140820 METAR COR ESMX 140820Z 26006KT 230V300 9999 FEW030 16/10 Q1023=
201708140750 METAR ESMX 140750Z 27007KT 240V320 9999 SCT015 16/11 Q1023=
201708140720 METAR ESMX 140720Z 26006KT 220V300 9999 FEW012 15/11 Q1023=
201708140650 METAR ESMX 140650Z 24005KT 200V260 9999 FEW010 14/11 Q1022=
201708140620 METAR ESMX 140620Z 23004KT 9999 FEW009 12/10 Q1022=
201708140550 METAR ESMX 140550Z 21004KT CAVOK 11/10 Q1022=
201708140520 METAR ESMX 140520Z 21004KT CAVOK 10/09 Q1022=
201708140450 METAR ESMX 140450Z 22004KT CAVOK 09/08 Q1021=
201708140420 METAR ESMX 140420Z 22005KT CAVOK 07/07 Q1021=
201708140350 METAR ESMX 140350Z 22006KT CAVOK 07/06 Q1021=
201708140320 METAR ESMX 140320Z AUTO 22006KT 9999 NCD 06/06 Q1020=
201708140250 METAR ESMX 140250Z AUTO 23004KT 5000 NCD 07/06 Q1020=
201708140220 METAR ESMX 140220Z AUTO 23003KT 9999 NCD 08/07 Q1020=
201708140150 METAR ESMX 140150Z AUTO 21003KT 9999 NCD 09/08 Q1020=
201708140120 METAR ESMX 140120Z AUTO 25003KT 9999 NCD 08/08 Q1020=
201708140050 METAR ESMX 140050Z AUTO 25004KT 9999 NCD 09/08 Q1020=
201708140020 METAR ESMX 140020Z AUTO 24004KT 9999 FEW065/// 09/08 Q1020=
201708132350 METAR ESMX 132350Z AUTO 24004KT 9999 NCD 09/08 Q1019=
201708132320 METAR ESMX 132320Z 24004KT CAVOK 10/08 Q1019=
201708132250 METAR ESMX 132250Z 24005KT CAVOK 10/09 Q1019=
201708132220 METAR ESMX 132220Z 24004KT CAVOK 10/09 Q1019=
201708132150 METAR ESMX 132150Z 24004KT CAVOK 11/09 Q1018=
201708132120 METAR ESMX 132120Z 24005KT CAVOK 11/09 Q1018=
201708132050 METAR ESMX 132050Z 23005KT CAVOK 11/09 Q1018=
201708132020 METAR ESMX 132020Z 24005KT CAVOK 12/09 Q1018=
201708131950 METAR ESMX 131950Z 23005KT CAVOK 12/09 Q1017=
201708131920 METAR ESMX 131920Z 24006KT CAVOK 13/09 Q1017=
201708131850 METAR ESMX 131850Z 24005KT CAVOK 14/09 Q1016=
201708131820 METAR ESMX 131820Z 25008KT CAVOK 15/09 Q1016=
201708131750 METAR ESMX 131750Z 26009KT CAVOK 16/09 Q1015=
201708131720 METAR ESMX 131720Z 27010KT 240V300 9999 FEW036 17/09 Q1015=
201708131650 METAR ESMX 131650Z AUTO 24012KT 9999 FEW070/// 17/10 Q1015=
201708131620 METAR ESMX 131620Z AUTO 26010KT 9999 FEW031/// SCT076/// 18/10 Q1014=
201708131550 METAR COR ESMX 131550Z 25015KT 9999 SCT033 18/10 Q1014=
201708131520 METAR ESMX 131520Z 26014KT 9999 SCT033 18/10 Q1013=
201708131450 METAR ESMX 131450Z 25012KT 210V290 9999 SCT031 18/10 Q1013=
201708131420 METAR ESMX 131420Z 26013KT 9999 SCT029 19/11 Q1013=
201708131350 METAR ESMX 131350Z 25013KT 220V290 9999 FEW028 SCT045 18/11 Q1013=
201708131320 METAR ESMX 131320Z 26012KT 230V290 9999 VCSH SCT027CB BKN032 16/12 Q1012 RERA=
201708131250 METAR ESMX 131250Z 23012KT 9999 SCT027 BKN045 18/11 Q1012=
201708131220 METAR ESMX 131220Z 24012KT 9999 SCT029 BKN053 17/11 Q1012=
201708131150 METAR ESMX 131150Z 24013KT 9999 SCT031 BKN053 17/10 Q1011=
201708131120 METAR ESMX 131120Z 23014KT 200V260 9999 BKN029 17/11 Q1011=
201708131050 METAR ESMX 131050Z 25012KT 9999 BKN029 16/09 Q1011=
201708131020 METAR ESMX 131020Z 25013G24KT 9999 BKN028 17/10 Q1010=
201708130950 METAR ESMX 130950Z AUTO 25012KT 220V290 9999 FEW026/// BKN034/// 16/10 Q1010=
201708130920 METAR ESMX 130920Z AUTO 25013KT 9999 FEW025/// SCT031/// BKN038/// 16/10 Q1010=
201708130850 METAR ESMX 130850Z AUTO 23012KT 200V260 9999 FEW026/// BKN033/// 15/09 Q1010=
201708130820 METAR ESMX 130820Z AUTO 24014KT 200V270 9999 FEW023/// SCT029/// BKN035/// 15/09 Q1009=
201708130750 METAR ESMX 130750Z AUTO 24013KT 9999 FEW022/// SCT026/// BKN032/// 15/10 Q1009=
201708130720 METAR ESMX 130720Z AUTO 23010KT 210V280 9999 FEW021/// SCT026/// BKN029/// 14/09 Q1009=
201708130650 METAR ESMX 130650Z AUTO 25010G22KT 220V280 9999 FEW019/// SCT021/// BKN027/// 14/10 Q1009=
201708130620 METAR ESMX 130620Z AUTO 23010KT 9999 FEW015/// SCT019/// BKN023/// 14/10 Q1008=
201708130550 METAR ESMX 130550Z AUTO 23010KT 200V260 9999 FEW013/// SCT019/// BKN026/// 14/11 Q1008=
201708130520 METAR ESMX 130520Z AUTO 23010KT 190V250 9999 FEW012/// SCT016/// BKN019/// 13/11 Q1008=
201708130450 METAR ESMX 130450Z AUTO 23007KT 190V260 9999 FEW013/// SCT017/// BKN028/// 13/11 Q1007=
201708130420 METAR ESMX 130420Z AUTO 23008KT 9999 FEW012/// SCT020/// 13/11 Q1007=
201708130350 METAR ESMX 130350Z AUTO 23009KT 9999 FEW010/// SCT026/// BKN046/// 14/12 Q1007=
201708130320 METAR ESMX 130320Z AUTO 23009KT 200V260 9999 FEW009/// SCT019/// BKN058/// 14/12 Q1006=
201708130250 METAR ESMX 130250Z AUTO 21008KT 9999 FEW007/// SCT009/// BKN010/// 14/13 Q1006=
201708130220 METAR ESMX 130220Z AUTO 22007KT 9999 FEW009/// SCT010/// BKN013/// 14/13 Q1006=
201708130150 METAR ESMX 130150Z AUTO 21007KT 9999 SCT011/// BKN051/// BKN073/// 14/13 Q1006=
201708130120 METAR ESMX 130120Z AUTO 22011KT 180V250 9999 FEW006/// SCT009/// BKN038/// 15/13 Q1006=
201708130050 METAR ESMX 130050Z AUTO 21008KT 9999 FEW005/// SCT008/// BKN009/// 15/14 Q1006=
201708130020 METAR ESMX 130020Z AUTO 20007KT 9999 FEW011/// SCT022/// BKN074/// 14/13 Q1006=
201708122350 METAR ESMX 122350Z AUTO 21008KT 9999 FEW010/// SCT014/// 15/13 Q1006=
201708122320 METAR ESMX 122320Z AUTO 21009KT 9999 FEW004/// SCT009/// BKN019/// 15/14 Q1006=
201708122250 METAR ESMX 122250Z AUTO 20009KT 9999 FEW004/// SCT007/// BKN009/// 15/14 Q1006=
201708122220 METAR ESMX 122220Z AUTO 19009KT 9999 SCT002/// OVC005/// 15/14 Q1006=
201708122150 METAR ESMX 122150Z AUTO 19010KT 9999 OVC002/// 15/14 Q1006=
201708122120 METAR ESMX 122120Z AUTO 18007KT 150V220 6000 -RA OVC003/// 14/13 Q1006 REDZ=
201708122050 METAR ESMX 122050Z AUTO 18008KT 9999 SCT006/// OVC010/// 14/13 Q1006=
201708122020 METAR ESMX 122020Z AUTO 18009KT 9999 OVC013/// 14/13 Q1006 REDZ=
201708121950 METAR ESMX 121950Z AUTO 19008KT 9999 -RA FEW015/// SCT018/// BKN021/// 14/13 Q1006 REDZ=
201708121920 METAR ESMX 121920Z 18008KT 9999 FEW024 BKN033 BKN046 14/13 Q1007=
201708121850 METAR ESMX 121850Z 19008KT 9999 FEW022 SCT031 BKN041 14/13 Q1006=
201708121820 METAR ESMX 121820Z 20007KT CAVOK 14/13 Q1007=
201708121750 METAR ESMX 121750Z 20005KT CAVOK 14/12 Q1006=
201708121720 METAR ESMX 121720Z 21004KT 9999 BKN043 14/11 Q1006=
201708121650 METAR ESMX 121650Z 23003KT 9999 FEW017 SCT021 OVC035 14/11 Q1007=
201708121620 METAR ESMX 121620Z 25009KT 9999 FEW015 OVC018 14/11 Q1007=
201708121550 METAR ESMX 121550Z 26005KT 9999 FEW012 SCT025 BKN029 16/13 Q1007=
201708121520 METAR ESMX 121520Z 29005KT 250V320 9999 FEW023 BKN036 BKN064 16/13 Q1007=
201708121450 METAR ESMX 121450Z 29005KT 9999 FEW007 SCT016 OVC021 15/13 Q1007=
201708121420 METAR ESMX 121420Z 29005KT 250V320 9000 -RA FEW005 BKN015 15/14 Q1007=
201708121350 METAR ESMX 121350Z 29006KT 9999 -RA FEW008 BKN024 15/13 Q1007=
201708121320 METAR COR ESMX 121320Z 29008KT 9999 FEW008 BKN013 OVC021 16/13 Q1007=
201708121250 METAR ESMX 121250Z 29010KT 9999 OVC013 16/13 Q1007=
201708121220 METAR COR ESMX 121220Z 27009KT 9999 OVC013 17/13 Q1006=
201708121150 METAR ESMX 121150Z AUTO 27008KT 9999 OVC011/// 18/15 Q1006=
201708121120 METAR ESMX 121120Z AUTO 26008KT 9999 SCT016/// BKN019/// OVC022/// 19/15 Q1006=
201708121050 METAR ESMX 121050Z AUTO 23007KT 190V290 9999 SCT019/// BKN037/// 19/14 Q1006=
201708121020 METAR ESMX 121020Z AUTO 22004KT 170V250 9999 FEW015/// BKN019/// BKN080/// 19/14 Q1006=
201708120950 METAR ESMX 120950Z AUTO 26006KT 9999 SCT012/// OVC016/// 18/14 Q1006=
201708120920 METAR ESMX 120920Z AUTO 27005KT 240V310 9999 OVC015/// 18/14 Q1006=
201708120850 METAR ESMX 120850Z AUTO VRB03KT 9999 OVC015/// 19/15 Q1006=
201708120820 METAR ESMX 120820Z AUTO 00000KT 9999 OVC014/// 19/15 Q1006=
201708120750 METAR ESMX 120750Z AUTO VRB03KT 9999 BKN013/// 18/15 Q1006=
201708120720 METAR ESMX 120720Z AUTO 23003KT 9999 SCT013/// OVC018/// 17/14 Q1007=
201708120650 METAR ESMX 120650Z AUTO VRB02KT 9999 OVC016/// 17/14 Q1007=
201708120620 METAR ESMX 120620Z AUTO 27002KT 9999 SCT014/// OVC018/// 17/14 Q1006=
201708120550 METAR ESMX 120550Z AUTO VRB03KT 9999 BKN020/// OVC032/// 17/13 Q1006=
201708120520 METAR ESMX 120520Z AUTO 00000KT 9999 FEW017/// OVC020/// 17/13 Q1006=
201708120450 METAR ESMX 120450Z AUTO 15003KT 9999 OVC017/// 16/14 Q1007=
201708120420 METAR ESMX 120420Z AUTO 00000KT 9999 OVC017/// 16/13 Q1007=
201708120350 METAR ESMX 120350Z AUTO 12003KT 9999 OVC019/// 17/13 Q1007=
201708120320 METAR ESMX 120320Z AUTO VRB03KT 9999 OVC019/// 17/14 Q1007=
201708120250 METAR ESMX 120250Z AUTO VRB02KT 9999 OVC019/// 16/15 Q1007=
201708120220 METAR ESMX 120220Z AUTO 20003KT 9999 OVC018/// 16/15 Q1008=
201708120150 METAR ESMX 120150Z AUTO 00000KT 9999 BKN018/// 15/14 Q1008=
201708120120 METAR ESMX 120120Z AUTO 00000KT 9999 FEW020/// 16/14 Q1008=
201708120050 METAR ESMX 120050Z AUTO 00000KT 9999 FEW060/// 16/15 Q1009=
201708120020 METAR ESMX 120020Z AUTO 12003KT 9999 SCT020/// 17/15 Q1009=
201708112350 METAR ESMX 112350Z AUTO 13003KT 9999 OVC022/// 17/15 Q1010=
201708112320 METAR ESMX 112320Z AUTO 17003KT 9999 OVC026/// 17/15 Q1010=
201708112250 METAR ESMX 112250Z AUTO 13002KT 9999 SCT030/// BKN038/// 17/15 Q1010=
201708112220 METAR ESMX 112220Z AUTO VRB02KT 9999 OVC027/// 17/15 Q1010=
201708112150 METAR ESMX 112150Z AUTO 00000KT 9999 OVC030/// 17/15 Q1011=
201708112120 METAR ESMX 112120Z AUTO 29002KT 9999 OVC031/// 17/15 Q1011=
201708112050 METAR ESMX 112050Z AUTO 21002KT 9999 OVC033/// 17/15 Q1011=
201708112020 METAR ESMX 112020Z AUTO 17004KT 9999 OVC042/// 18/14 Q1012=
201708111950 METAR ESMX 111950Z AUTO 17005KT 9999 SCT042/// 15/14 Q1012=
201708111920 METAR ESMX 111920Z 13003KT CAVOK 16/14 Q1011=
201708111850 METAR ESMX 111850Z 00000KT CAVOK 17/14 Q1011=
201708111820 METAR ESMX 111820Z 00000KT CAVOK 19/14 Q1011=
201708111750 METAR ESMX 111750Z 20003KT CAVOK 20/14 Q1012=
201708111720 METAR ESMX 111720Z 18005KT CAVOK 21/13 Q1012=
201708111650 METAR ESMX 111650Z 18005KT CAVOK 21/13 Q1012=
201708111620 METAR ESMX 111620Z 18005KT 150V210 CAVOK 21/13 Q1013=
201708111550 METAR ESMX 111550Z 19007KT CAVOK 21/13 Q1013=
201708111520 METAR ESMX 111520Z 20007KT CAVOK 22/13 Q1014=
201708111450 METAR ESMX 111450Z 20005KT CAVOK 21/13 Q1014=
201708111420 METAR ESMX 111420Z 19008KT CAVOK 21/12 Q1014=
201708111350 METAR ESMX 111350Z 18006KT CAVOK 20/12 Q1014=
201708111320 METAR ESMX 111320Z 18007KT CAVOK 21/10 Q1015=
201708111250 METAR ESMX 111250Z 16004KT 100V200 CAVOK 21/13 Q1015=
201708111220 METAR ESMX 111220Z VRB03KT CAVOK 21/12 Q1015=
201708111150 METAR ESMX 111150Z 22005KT 150V250 CAVOK 21/12 Q1015=
201708111120 METAR ESMX 111120Z 16004KT 120V210 CAVOK 21/12 Q1015=
201708111050 METAR ESMX 111050Z 10004KT 060V130 CAVOK 20/12 Q1015=
201708111020 METAR COR ESMX 111020Z 23004KT 110V280 CAVOK 20/13 Q1015=
201708110950 METAR COR ESMX 110950Z VRB03KT CAVOK 20/12 Q1016=
201708110920 METAR ESMX 110920Z VRB03KT 9999 FEW022 19/12 Q1016=
201708110850 METAR ESMX 110850Z VRB03KT 9999 FEW018 18/12 Q1017=
201708110820 METAR ESMX 110820Z 20004KT 9999 FEW008 16/13 Q1017=
201708110750 METAR ESMX 110750Z VRB03KT 9999 BKN003 15/14 Q1017=
201708110720 METAR ESMX 110720Z VRB02KT 5000 BR OVC001 14/14 Q1017=
201708110650 METAR ESMX 110650Z VRB02KT 0400 R01/0700N R19/0750N FG VV002 13/13 Q1017=
201708110620 METAR COR ESMX 110620Z 00000KT 0200 R01/0400N R19/0375N FG VV001 13/12 Q1017=
201708110550 METAR ESMX 110550Z VRB02KT 0100 R01/0225N R19/0350N FG VV001 12/12 Q1017=
201708110520 METAR ESMX 110520Z 00000KT 0050 R01/0225N R19/0175N FG VV001 12/11 Q1017=
201708110450 METAR ESMX 110450Z VRB02KT 0100 R01/0250N R19/0200N FG VV001 11/11 Q1017=
201708110420 METAR COR ESMX 110420Z 00000KT 0300 R01/P0450D R19/0325N FG VV001 11/11 Q1017=
201708110350 METAR ESMX 110350Z 00000KT 0250 R01/0400N R19/0600N FG VV001 11/10 Q1017=
201708110220 METAR ESMX 110220Z AUTO VRB01KT 0050 R01/0600N R19/0250N FG VV000 12/11 Q1017=
201708110150 METAR ESMX 110150Z AUTO VRB01KT 0050 R01/0450N R19/0325N FG VV000 12/11 Q1018=
201708110120 METAR ESMX 110120Z AUTO 17004KT 0150 R01/0650U R19/0450N BCFG VV000 12/12 Q1018=
201708110050 METAR ESMX 110050Z AUTO 18003KT 0350 R01/P2000N R19/1100N BCFG NCD 10/09 Q1018=
201708110020 METAR ESMX 110020Z 00000KT 1100 BR NSC 10/09 Q1018=
201708102350 METAR ESMX 102350Z 25002KT 0900 R01/2000N R19/2000N BCFG NSC 11/10 Q1017=
201708102320 METAR ESMX 102320Z 23003KT 2000 BR NSC 12/11 Q1018=
201708102250 METAR ESMX 102250Z 24004KT CAVOK 12/12 Q1018=
201708102220 METAR ESMX 102220Z 23005KT CAVOK 11/10 Q1018=
201708102150 METAR ESMX 102150Z 23004KT CAVOK 12/11 Q1019=
201708102120 METAR ESMX 102120Z 23003KT CAVOK 12/11 Q1019=
201708102050 METAR ESMX 102050Z 18005KT CAVOK 13/11 Q1019=
201708102020 METAR ESMX 102020Z 22003KT CAVOK 13/12 Q1018=
201708101950 METAR ESMX 101950Z 22003KT CAVOK 13/11 Q1018=
201708101920 METAR ESMX 101920Z 23004KT CAVOK 15/12 Q1018=
201708101850 METAR ESMX 101850Z 24004KT CAVOK 16/12 Q1018=
201708101820 METAR ESMX 101820Z 23005KT CAVOK 17/13 Q1018=
201708101750 METAR ESMX 101750Z 25006KT 210V270 CAVOK 18/12 Q1018=
201708101720 METAR ESMX 101720Z 26008KT 9999 FEW030 19/13 Q1018=
201708101650 METAR ESMX 101650Z 28008KT 250V320 9999 FEW029 19/12 Q1017=
201708101620 METAR ESMX 101620Z 26010KT 9999 FEW028 20/12 Q1017=
201708101550 METAR ESMX 101550Z 22005KT 190V250 9999 FEW025 SCT040 20/13 Q1017=
201708101520 METAR ESMX 101520Z 23007KT 200V260 9999 FEW025 SCT045 20/14 Q1017=
201708101450 METAR ESMX 101450Z 24008KT 200V280 9999 SCT025 SCT060 20/13 Q1017=
201708101420 METAR ESMX 101420Z 24007KT 210V270 9999 SCT023 BKN053 20/14 Q1018=
201708101350 METAR ESMX 101350Z 24006KT 210V270 9999 SCT024 BKN052 20/14 Q1018=
201708101320 METAR ESMX 101320Z 23008KT 9999 SCT021 BKN033 19/14 Q1018=
201708101250 METAR ESMX 101250Z 22008KT 9999 FEW021 SCT030 BKN035 19/14 Q1018=
201708101220 METAR ESMX 101220Z 22007KT 9999 FEW026 SCT034 BKN041 19/14 Q1018=
201708101150 METAR ESMX 101150Z 22008KT 190V250 9999 SCT030 BKN051 19/13 Q1018=
201708101120 METAR ESMX 101120Z 21008KT 9999 FEW021 SCT030 BKN036 18/13 Q1018=
201708101050 METAR ESMX 101050Z 21010KT 170V240 9999 FEW021 SCT030 BKN040 18/13 Q1017=
201708101020 METAR ESMX 101020Z 20010KT 160V240 9999 SCT021 BKN043 19/14 Q1017=
201708100950 METAR ESMX 100950Z 19010KT 9999 SCT024 BKN030 18/13 Q1017=
201708100920 METAR ESMX 100920Z 20010KT 9999 BKN017 18/13 Q1017=
201708100850 METAR ESMX 100850Z 22009KT 9999 BKN017 18/13 Q1017=
201708100820 METAR ESMX 100820Z 23008KT 200V260 9999 BKN016 17/13 Q1017=
201708100750 METAR ESMX 100750Z 21010KT 9999 BKN017 17/13 Q1017=
201708100720 METAR ESMX 100720Z 19010KT CAVOK 17/13 Q1016=
201708100650 METAR ESMX 100650Z 20010KT CAVOK 17/13 Q1016=
201708100620 METAR ESMX 100620Z 21010KT CAVOK 16/13 Q1016=
201708100550 METAR ESMX 100550Z 20010KT CAVOK 15/12 Q1017=
201708100520 METAR ESMX 100520Z 21011KT 9999 FEW017 14/12 Q1017=
201708100450 METAR ESMX 100450Z 19010KT 9999 SCT016 14/12 Q1017=
201708100420 METAR ESMX 100420Z 18008KT CAVOK 13/11 Q1017=
201708100350 METAR ESMX 100350Z 18009KT CAVOK 12/11 Q1017=
201708100320 METAR ESMX 100320Z AUTO 21006KT 9999 NCD 12/11 Q1016=
201708100250 METAR ESMX 100250Z AUTO 18008KT 9999 NCD 13/11 Q1016=
201708100220 METAR ESMX 100220Z AUTO 18008KT 9999 FEW084/// 13/11 Q1016=
201708100150 METAR ESMX 100150Z AUTO 18007KT 9999 NCD 14/11 Q1016=
201708100120 METAR ESMX 100120Z AUTO 18007KT 9999 NCD 13/12 Q1016=
201708100050 METAR ESMX 100050Z AUTO 18009KT 9999 NCD 14/12 Q1016=
201708100020 METAR ESMX 100020Z AUTO 19007KT 9999 NCD 14/12 Q1017=
201708092350 METAR ESMX 092350Z 18008KT CAVOK 15/12 Q1017=
201708092320 METAR ESMX 092320Z 20007KT CAVOK 14/12 Q1017=
201708092250 METAR ESMX 092250Z 19008KT CAVOK 15/12 Q1017=
201708092220 METAR ESMX 092220Z 18008KT CAVOK 15/12 Q1017=
201708092150 METAR ESMX 092150Z 19007KT CAVOK 15/12 Q1017=
201708092120 METAR ESMX 092120Z 19007KT CAVOK 15/12 Q1016=
201708092050 METAR ESMX 092050Z 19007KT CAVOK 15/12 Q1016=
201708092020 METAR ESMX 092020Z 18008KT CAVOK 16/13 Q1016=
201708091950 METAR ESMX 091950Z 18008KT CAVOK 16/13 Q1016=
201708091920 METAR ESMX 091920Z 20007KT CAVOK 16/13 Q1016=
201708091850 METAR ESMX 091850Z 20007KT 9999 FEW041 17/13 Q1015=
201708091820 METAR ESMX 091820Z 19005KT CAVOK 18/14 Q1015=
201708091750 METAR ESMX 091750Z 20006KT CAVOK 18/14 Q1015=
201708091720 METAR ESMX 091720Z 20007KT 9999 FEW035 SCT060 20/14 Q1015=
201708091650 METAR ESMX 091650Z 20009KT CAVOK 20/13 Q1014=
201708091620 METAR ESMX 091620Z 22011KT 9999 SCT036 22/13 Q1014=
201708091550 METAR ESMX 091550Z 21011KT 9999 FEW033 21/13 Q1014=
201708091520 METAR ESMX 091520Z 21013KT 9999 FEW040 21/13 Q1013=
201708091450 METAR ESMX 091450Z 21009KT 190V250 9999 FEW024 SCT035 21/15 Q1013=
201708091420 METAR ESMX 091420Z 20010KT 160V230 9999 SCT022 22/15 Q1013=
201708091350 METAR ESMX 091350Z 18008KT 150V230 9999 FEW019 SCT022 22/16 Q1013=
201708091320 METAR COR ESMX 091320Z 17007KT 130V200 9999 SCT018 SCT040 20/16 Q1013=
201708091250 METAR ESMX 091250Z 17010KT 9999 SCT018 BKN032 20/15 Q1013=
201708091220 METAR COR ESMX 091220Z 16009KT 9999 BKN020 20/15 Q1013=
201708091150 METAR ESMX 091150Z 17009KT 9999 SCT019 BKN031 20/15 Q1013=
201708091120 METAR ESMX 091120Z 15005KT 110V190 9999 FEW022 BKN040 19/15 Q1013=
201708091050 METAR ESMX 091050Z 14004KT 100V170 9999 -RA SCT022 BKN050 18/15 Q1013=
201708091020 METAR ESMX 091020Z 15006KT 9999 -RA BKN018 BKN022 19/15 Q1013=
201708090950 METAR COR ESMX 090950Z 15006KT 110V170 9999 SCT019 BKN058 19/15 Q1013=
201708090920 METAR COR ESMX 090920Z 12006KT 080V160 9999 SCT019 SCT058 BKN078 19/15 Q1013=
201708090850 METAR COR ESMX 090850Z 12006KT 060V170 9999 FEW018 BKN080 19/15 Q1013=
201708090820 METAR ESMX 090820Z 13006KT 060V170 9999 FEW018 BKN078 19/14 Q1013=
201708090750 METAR ESMX 090750Z 13006KT 090V160 CAVOK 19/14 Q1013=
201708090720 METAR COR ESMX 090720Z 12006KT 070V170 CAVOK 18/14 Q1013=
201708090650 METAR COR ESMX 090650Z 11005KT 060V200 CAVOK 18/14 Q1013=
201708090620 METAR ESMX 090620Z 10005KT 050V160 CAVOK 18/14 Q1013=
201708090550 METAR COR ESMX 090550Z 10005KT 070V170 CAVOK 17/13 Q1013=
201708090520 METAR COR ESMX 090520Z 10005KT 050V140 CAVOK 17/13 Q1013=
201708090450 METAR ESMX 090450Z 10006KT 030V150 CAVOK 16/13 Q1013=
201708090420 METAR ESMX 090420Z 10005KT 040V140 CAVOK 16/13 Q1014=
201708090350 METAR ESMX 090350Z 11005KT 050V160 CAVOK 16/13 Q1014=
201708090320 METAR ESMX 090320Z AUTO 09005KT 050V130 9999 NCD 16/13 Q1014=
201708090250 METAR ESMX 090250Z AUTO 10005KT 050V140 9999 FEW065/// 16/13 Q1014=
201708090220 METAR ESMX 090220Z AUTO 10005KT 020V150 9999 FEW063/// 16/13 Q1015=
201708090150 METAR ESMX 090150Z AUTO 09005KT 030V140 9999 FEW062/// 16/13 Q1015=
201708090120 METAR ESMX 090120Z AUTO 11005KT 050V170 9999 SCT061/// 16/12 Q1016=
201708090050 METAR ESMX 090050Z AUTO 11006KT 050V180 9999 BKN061/// 16/12 Q1016=
201708090020 METAR ESMX 090020Z AUTO 10005KT 030V170 9999 BKN061/// 16/12 Q1016=
201708082350 METAR ESMX 082350Z 11006KT 060V170 CAVOK 16/12 Q1016=
201708082320 METAR ESMX 082320Z 10006KT 060V150 CAVOK 16/11 Q1016=
201708082250 METAR COR ESMX 082250Z 12005KT 050V170 CAVOK 16/11 Q1017=
201708082220 METAR ESMX 082220Z 10006KT 040V160 CAVOK 16/11 Q1017=
201708082150 METAR ESMX 082150Z 09006KT 050V160 CAVOK 16/11 Q1017=
201708082120 METAR ESMX 082120Z VRB05KT CAVOK 16/10 Q1018=
201708082050 METAR ESMX 082050Z 09006KT 050V130 CAVOK 17/10 Q1018=
201708082020 METAR ESMX 082020Z 10006KT 040V170 CAVOK 17/09 Q1018=
201708081950 METAR ESMX 081950Z 10004KT 050V150 CAVOK 17/09 Q1018=
201708081920 METAR ESMX 081920Z 10005KT 050V140 CAVOK 18/09 Q1018=
201708081850 METAR ESMX 081850Z 11006KT 060V140 CAVOK 19/09 Q1018=
201708081820 METAR ESMX 081820Z 11006KT 060V150 CAVOK 19/09 Q1018=
201708081750 METAR ESMX 081750Z 12007KT 070V150 CAVOK 20/09 Q1018=
201708081720 METAR ESMX 081720Z 11004KT 070V150 CAVOK 20/09 Q1018=
201708081650 METAR ESMX 081650Z 13006KT 080V170 CAVOK 21/08 Q1018=
201708081620 METAR ESMX 081620Z 15010KT CAVOK 22/08 Q1018=
201708081550 METAR ESMX 081550Z 15009KT 120V190 CAVOK 22/08 Q1018=
201708081520 METAR ESMX 081520Z 16007KT 090V210 CAVOK 22/08 Q1018=
201708081450 METAR ESMX 081450Z 15008KT 100V190 CAVOK 22/08 Q1018=
201708081420 METAR ESMX 081420Z 16009KT 110V190 CAVOK 23/08 Q1018=
201708081350 METAR ESMX 081350Z 16010KT 120V180 CAVOK 23/08 Q1018=
201708081320 METAR ESMX 081320Z 15008KT 110V180 CAVOK 22/08 Q1019=
201708081250 METAR ESMX 081250Z 16009KT 9999 SCT059 22/08 Q1019=
201708081220 METAR ESMX 081220Z 15010KT 110V180 9999 FEW040 22/08 Q1019=
201708081150 METAR ESMX 081150Z 16011KT 9999 FEW045 23/08 Q1019=
201708081120 METAR ESMX 081120Z 16009KT 110V180 9999 FEW048 22/10 Q1019=
201708081050 METAR COR ESMX 081050Z 16009KT 9999 FEW046 22/10 Q1019=
201708081020 METAR ESMX 081020Z 18010KT 150V210 CAVOK 22/09 Q1019=
201708080950 METAR ESMX 080950Z 18009KT 140V210 9999 FEW049 22/10 Q1020=
201708080920 METAR COR ESMX 080920Z 15008KT 110V190 9999 FEW040 22/11 Q1020=
201708080850 METAR ESMX 080850Z 15008KT 110V170 CAVOK 21/12 Q1019=
201708080820 METAR ESMX 080820Z 16006KT CAVOK 20/12 Q1019=
201708080750 METAR ESMX 080750Z 16006KT 120V210 CAVOK 19/12 Q1019=
201708080720 METAR ESMX 080720Z 15006KT CAVOK 18/13 Q1019=
201708080650 METAR ESMX 080650Z 15008KT CAVOK 17/13 Q1020=
201708080620 METAR ESMX 080620Z 15008KT 140V200 CAVOK 16/13 Q1020=
201708080550 METAR ESMX 080550Z 16005KT CAVOK 15/13 Q1020=
201708080520 METAR ESMX 080520Z 15006KT CAVOK 14/12 Q1019=
201708080450 METAR ESMX 080450Z 15005KT 110V170 CAVOK 14/12 Q1019=
201708080420 METAR ESMX 080420Z 15006KT CAVOK 13/12 Q1019=
201708080350 METAR ESMX 080350Z 15006KT CAVOK 13/12 Q1020=
201708080320 METAR ESMX 080320Z AUTO 15006KT 9999 FEW061/// 13/12 Q1019=
201708080250 METAR ESMX 080250Z AUTO 15006KT 9999 FEW057/// 13/12 Q1020=
201708080220 METAR ESMX 080220Z AUTO 15005KT 9999 NCD 13/12 Q1020=
201708080150 METAR ESMX 080150Z AUTO 15004KT 9999 NCD 13/12 Q1020=
201708080120 METAR ESMX 080120Z AUTO 16004KT 9999 NCD 13/11 Q1020=
201708080050 METAR ESMX 080050Z AUTO 16005KT 9999 NCD 13/11 Q1020=
201708080020 METAR ESMX 080020Z AUTO 17005KT 9999 NCD 13/11 Q1020=
201708072350 METAR ESMX 072350Z 17006KT CAVOK 14/11 Q1020=
201708072320 METAR COR ESMX 072320Z 17007KT CAVOK 14/11 Q1020=
201708072250 METAR ESMX 072250Z AUTO 17006KT 9999 NCD 14/11 Q1020=
201708072220 METAR ESMX 072220Z 17005KT CAVOK 14/11 Q1020=
201708072150 METAR ESMX 072150Z 19007KT CAVOK 13/11 Q1020=
201708072120 METAR ESMX 072120Z 18007KT CAVOK 14/11 Q1020=
201708072050 METAR ESMX 072050Z 16007KT CAVOK 15/11 Q1019=
201708072020 METAR ESMX 072020Z 16006KT CAVOK 15/11 Q1019=
201708071950 METAR ESMX 071950Z 16005KT CAVOK 16/10 Q1019=
201708071920 METAR ESMX 071920Z 17004KT CAVOK 15/10 Q1019=
201708071850 METAR ESMX 071850Z 18004KT CAVOK 16/10 Q1019=
201708071820 METAR ESMX 071820Z 18006KT CAVOK 17/10 Q1019=
201708071750 METAR ESMX 071750Z 18006KT CAVOK 18/10 Q1019=
201708071720 METAR ESMX 071720Z 19007KT CAVOK 19/09 Q1019=
201708071650 METAR ESMX 071650Z 19008KT CAVOK 19/09 Q1019=
201708071620 METAR ESMX 071620Z 19009KT CAVOK 19/09 Q1019=
201708071550 METAR ESMX 071550Z 20008KT CAVOK 19/09 Q1019=
201708071520 METAR ESMX 071520Z 20009KT 180V240 9999 FEW048 19/09 Q1019=
201708071450 METAR ESMX 071450Z 23009KT 9999 FEW046 SCT084 19/08 Q1019=
201708071420 METAR ESMX 071420Z 21010KT 9999 FEW041 SCT054 19/08 Q1019=
201708071350 METAR ESMX 071350Z 23009KT 200V260 9999 FEW037 SCT056 19/09 Q1019=
201708071320 METAR ESMX 071320Z 26008KT 220V300 9999 SCT040 19/10 Q1019=
201708071250 METAR ESMX 071250Z 21011KT 190V260 9999 SCT040 18/09 Q1019=
201708071220 METAR ESMX 071220Z 23012KT CAVOK 19/09 Q1019=
201708071150 METAR ESMX 071150Z 23011KT 9999 SCT043 19/09 Q1019=
201708071120 METAR ESMX 071120Z 24009KT 200V280 9999 SCT043 18/08 Q1019=
201708071050 METAR ESMX 071050Z 23009KT 200V260 9999 SCT041 18/08 Q1019=
201708071020 METAR ESMX 071020Z AUTO 26009KT 220V280 9999 FEW039/// BKN047/// 18/09 Q1019=
201708070950 METAR ESMX 070950Z 25009KT 9999 FEW031 SCT044 17/08 Q1019=
201708070920 METAR ESMX 070920Z 22010KT 190V260 9999 FEW028 SCT044 BKN050 16/09 Q1019=
201708070850 METAR ESMX 070850Z 24011KT 200V260 9999 FEW035 SCT047 16/09 Q1019=
201708070820 METAR ESMX 070820Z 22010KT 200V270 9999 BKN027 17/09 Q1019=
201708070750 METAR ESMX 070750Z 25010KT 9999 FEW022 BKN030 16/10 Q1019=
201708070720 METAR ESMX 070720Z 26010KT 9999 FEW022 SCT029 15/10 Q1019=
201708070650 METAR ESMX 070650Z 24009KT 210V290 9999 SCT018 15/10 Q1019=
201708070620 METAR ESMX 070620Z 23007KT 210V280 CAVOK 14/10 Q1019=
201708070550 METAR ESMX 070550Z 22007KT CAVOK 13/10 Q1019=
201708070520 METAR ESMX 070520Z AUTO 23006KT 9999 FEW078/// 12/10 Q1019=
201708070450 METAR ESMX 070450Z 23006KT CAVOK 11/09 Q1018=
201708070420 METAR ESMX 070420Z 23006KT CAVOK 10/09 Q1018=
201708070350 METAR ESMX 070350Z AUTO 23007KT 9999 NCD 10/08 Q1018=
201708070320 METAR ESMX 070320Z AUTO 23006KT 9999 FEW100/// 09/08 Q1018=
201708070250 METAR ESMX 070250Z AUTO 23005KT 9999 FEW072/// 09/08 Q1018=
201708070220 METAR ESMX 070220Z AUTO 22006KT 9999 NCD 09/08 Q1018=
201708070150 METAR ESMX 070150Z AUTO 23005KT 9999 NCD 10/08 Q1018=
201708070120 METAR ESMX 070120Z AUTO 23005KT 9999 FEW100/// 10/08 Q1018=
201708070050 METAR ESMX 070050Z AUTO 23006KT 9999 NCD 10/09 Q1018=
201708070020 METAR ESMX 070020Z AUTO 22007KT 9999 FEW056/// 10/09 Q1017=
201708062350 METAR ESMX 062350Z AUTO 23006KT 9999 FEW069/// 11/09 Q1017=
201708062320 METAR ESMX 062320Z 22007KT CAVOK 11/09 Q1017=
201708062250 METAR ESMX 062250Z 23007KT CAVOK 11/09 Q1017=
201708062220 METAR ESMX 062220Z 22007KT CAVOK 11/09 Q1017=
201708062150 METAR ESMX 062150Z AUTO 22007KT 9999 FEW076/// 11/09 Q1017=
201708062120 METAR ESMX 062120Z 22006KT CAVOK 12/09 Q1017=
201708062050 METAR ESMX 062050Z 22007KT CAVOK 12/09 Q1016=
201708062020 METAR COR ESMX 062020Z 23006KT CAVOK 13/09 Q1016=
201708061950 METAR ESMX 061950Z 23008KT CAVOK 13/09 Q1016=
201708061920 METAR ESMX 061920Z 24008KT 9999 FEW025 14/09 Q1016=
201708061850 METAR COR ESMX 061850Z 25010KT 9999 FEW025 15/09 Q1016=
201708061820 METAR ESMX 061820Z 26010KT 9999 FEW036 15/09 Q1015=
201708061750 METAR ESMX 061750Z 25011KT 200V270 9999 FEW034 SCT069 16/09 Q1015=
201708061720 METAR ESMX 061720Z 25013KT 230V290 9999 FEW037 SCT071 16/09 Q1015=
201708061650 METAR ESMX 061650Z AUTO 26015KT 230V290 9999 FEW044/// 17/08 Q1015=
201708061620 METAR ESMX 061620Z AUTO 26013KT 230V290 9999 FEW035/// SCT043/// BKN075/// 17/08 Q1014=
201708061550 METAR ESMX 061550Z 25014KT 9999 FEW037 SCT046 17/09 Q1014=
201708061520 METAR ESMX 061520Z 25017G28KT 220V290 9999 FEW036 18/08 Q1014=
201708061450 METAR ESMX 061450Z 25015G26KT 220V280 9999 FEW036 18/08 Q1013=
201708061420 METAR ESMX 061420Z 24015KT 9999 FEW030 SCT061 18/10 Q1013=
201708061350 METAR ESMX 061350Z 26014KT 240V300 9999 SHRA SCT033 BKN059 15/11 Q1013=
201708061320 METAR ESMX 061320Z 25015KT 9999 VCSH FEW033 SCT053 18/10 Q1013=
201708061250 METAR ESMX 061250Z 25014KT 220V290 9999 VCSH FEW028 SCT034 17/11 Q1013=
201708061220 METAR ESMX 061220Z 23015KT 200V260 9999 FEW029 SCT036 17/10 Q1012=
201708061150 METAR ESMX 061150Z 23015KT 200V260 9999 VCSH SCT031 18/11 Q1012=
201708061120 METAR ESMX 061120Z 24013G24KT 200V260 9999 VCSH SCT030 17/11 Q1012=
201708061050 METAR ESMX 061050Z 23016KT 9999 SCT030 18/10 Q1012=
201708061020 METAR ESMX 061020Z 24013KT 9999 FEW032 SCT044 BKN058 17/10 Q1012=
201708060950 METAR ESMX 060950Z AUTO 24014KT 210V280 9999 FEW042/// 18/10 Q1012=
201708060920 METAR ESMX 060920Z AUTO 25012KT 220V280 9999 FEW033/// SCT060/// 17/09 Q1011=
201708060850 METAR ESMX 060850Z AUTO 24013KT 9999 FEW029/// SCT036/// BKN050/// 16/10 Q1011=
201708060820 METAR ESMX 060820Z AUTO 24013KT 9999 FEW026/// SCT029/// BKN046/// 16/10 Q1011=
201708060750 METAR ESMX 060750Z AUTO 25013G24KT 220V280 9999 FEW021/// SCT035/// 16/10 Q1011=
201708060720 METAR ESMX 060720Z AUTO 25013KT 220V290 9999 FEW016/// SCT021/// BKN025/// 16/10 Q1011=
201708060650 METAR ESMX 060650Z AUTO 23010KT 200V260 9999 FEW011/// SCT016/// BKN022/// 15/12 Q1010=
201708060620 METAR ESMX 060620Z AUTO 24010KT 200V260 9999 FEW009/// SCT011/// BKN014/// 14/11 Q1010=
201708060550 METAR ESMX 060550Z AUTO 22010KT 9999 FEW007/// SCT009/// BKN011/// 13/11 Q1010=
201708060520 METAR ESMX 060520Z AUTO 22009KT 9999 FEW005/// SCT007/// BKN010/// 13/11 Q1010=
201708060450 METAR ESMX 060450Z AUTO 22009KT 9999 FEW005/// BKN007/// OVC012/// 12/11 Q1009=
201708060420 METAR ESMX 060420Z AUTO 22008KT 9999 BKN005/// BKN013/// 12/11 Q1009=
201708060350 METAR ESMX 060350Z AUTO 22008KT 9999 FEW008/// 12/10 Q1009=
201708060320 METAR ESMX 060320Z AUTO 22008KT 9999 FEW015/// 12/10 Q1009=
201708060250 METAR ESMX 060250Z AUTO 22008KT 9999 FEW080/// 12/10 Q1009=
201708060220 METAR ESMX 060220Z AUTO 21008KT 9999 FEW049/// 12/11 Q1009=
201708060150 METAR ESMX 060150Z AUTO 21008KT 9999 SCT045/// 12/11 Q1009=
201708060120 METAR ESMX 060120Z AUTO 22008KT 9999 SCT044/// 12/11 Q1009=
201708060050 METAR ESMX 060050Z AUTO 21007KT 9999 NCD 12/11 Q1009=
201708060020 METAR ESMX 060020Z AUTO 21007KT 9999 FEW083/// 12/11 Q1009=
201708052350 METAR ESMX 052350Z AUTO 22007KT 9999 NCD 12/11 Q1009=
201708052320 METAR ESMX 052320Z AUTO 20007KT 9999 FEW051/// 13/12 Q1009=
201708052250 METAR ESMX 052250Z AUTO 21006KT 9999 OVC045/// 14/12 Q1008=
201708052220 METAR ESMX 052220Z AUTO 22007KT 9999 FEW043/// BKN048/// 14/12 Q1008=
201708052150 METAR ESMX 052150Z AUTO 21007KT 9999 FEW029/// OVC037/// 14/13 Q1008=
201708052120 METAR ESMX 052120Z AUTO 21007KT 9999 BKN050/// 13/12 Q1008=
201708052050 METAR ESMX 052050Z AUTO 20006KT 9999 FEW051/// 13/12 Q1008=
201708052020 METAR ESMX 052020Z AUTO 21006KT 9999 FEW047/// 13/12 Q1008=
201708051950 METAR ESMX 051950Z AUTO 22007KT 9999 NCD 13/12 Q1008=
201708051920 METAR ESMX 051920Z AUTO 21006KT 9999 NCD 13/12 Q1008=
201708051850 METAR ESMX 051850Z 23007KT 9999 FEW020 15/12 Q1008=
201708051820 METAR ESMX 051820Z 23009KT 200V270 9999 FEW021 SCT061 16/12 Q1007=
201708051750 METAR ESMX 051750Z 23007KT 9999 FEW020 SCT026 16/12 Q1007=
201708051720 METAR COR ESMX 051720Z 24010KT 210V280 9999 SCT019 SCT057 17/12 Q1007=
201708051650 METAR ESMX 051650Z 25010KT 210V280 9999 FEW021 SCT030 17/12 Q1007=
201708051620 METAR ESMX 051620Z 25013KT 210V280 9999 FEW021 SCT072 17/12 Q1007=
201708051550 METAR ESMX 051550Z AUTO 24015G25KT 9999 FEW024/// SCT085/// 18/12 Q1007=
201708051520 METAR ESMX 051520Z AUTO 24013KT 210V270 9999 FEW021/// 18/13 Q1007=
201708051450 METAR ESMX 051450Z AUTO 24008KT 210V280 9999 FEW018/// SCT022/// BKN025/// 17/14 Q1006=
201708051420 METAR ESMX 051420Z AUTO 24010KT 210V270 9999 FEW018/// SCT025/// BKN029/// 18/13 Q1006 RERA=
201708051350 METAR ESMX 051350Z AUTO 26010KT 9999 -RA FEW021/// SCT026/// BKN040/// 18/14 Q1006=
201708051320 METAR ESMX 051320Z AUTO 22014KT 9999 FEW023/// SCT032/// BKN051/// 18/13 Q1006=
201708051250 METAR ESMX 051250Z AUTO 24014KT 200V270 9999 FEW024/// BKN050/// 19/13 Q1006=
201708051220 METAR ESMX 051220Z AUTO 22013KT 9999 FEW028/// SCT058/// 19/14 Q1006=
201708051150 METAR ESMX 051150Z AUTO 23014KT 9999 FEW022/// SCT049/// 18/13 Q1005=
201708051120 METAR ESMX 051120Z AUTO 24013KT 9999 FEW020/// SCT048/// BKN054/// 17/13 Q1005=
201708051050 METAR ESMX 051050Z AUTO 23011KT 9999 FEW011/// SCT030/// BKN052/// 17/15 Q1005 RERA=
201708051020 METAR ESMX 051020Z AUTO 24010KT 210V270 9999 FEW013/// SCT022/// 17/15 Q1005=
201708050950 METAR ESMX 050950Z AUTO 25011KT 9999 -RA FEW014/// SCT018/// BKN042/// 17/13 Q1005=
201708050920 METAR ESMX 050920Z AUTO 25011KT 230V300 9999 FEW012/// SCT041/// BKN048/// 17/14 Q1005=
201708050850 METAR ESMX 050850Z AUTO 24012KT 210V290 9999 FEW011/// SCT017/// BKN040/// 16/14 Q1004=
201708050820 METAR ESMX 050820Z AUTO 24008KT 9999 -DZ FEW005/// SCT008/// BKN010/// 15/14 Q1004=
201708050750 METAR ESMX 050750Z AUTO 22009KT 9999 BR FEW010/// SCT012/// BKN016/// 15/14 Q1004=
201708050720 METAR ESMX 050720Z AUTO 23013KT 200V260 9999 FEW009/// SCT012/// BKN015/// 16/14 Q1004=
201708050650 METAR ESMX 050650Z AUTO 23011KT 9999 FEW008/// BKN010/// OVC015/// 15/13 Q1003=
201708050620 METAR ESMX 050620Z AUTO 22010KT 9999 FEW007/// SCT009/// BKN011/// 15/13 Q1003=
201708050550 METAR ESMX 050550Z AUTO 23010KT 9999 FEW006/// OVC009/// 15/13 Q1003=
201708050520 METAR ESMX 050520Z AUTO 22010KT 9999 FEW007/// SCT008/// OVC010/// 14/13 Q1003=
201708050450 METAR ESMX 050450Z AUTO 22010KT 9999 FEW005/// SCT007/// BKN009/// 14/13 Q1002 RERA=
201708050420 METAR ESMX 050420Z AUTO 23011KT 9999 FEW004/// SCT007/// BKN008/// 14/13 Q1002=
201708050350 METAR ESMX 050350Z AUTO 22012KT 5000 -RA FEW004/// BKN005/// OVC010/// 14/13 Q1002 RERA REDZ=
201708050320 METAR ESMX 050320Z AUTO 21010KT 9999 FEW006/// SCT008/// OVC010/// 14/13 Q1002=
201708050250 METAR ESMX 050250Z AUTO 22010KT 9999 FEW006/// SCT007/// BKN010/// 14/13 Q1002=
201708050220 METAR ESMX 050220Z AUTO 20011KT 9999 FEW007/// SCT011/// BKN014/// 14/13 Q1002=
201708050150 METAR ESMX 050150Z AUTO 21011KT 9999 FEW006/// SCT011/// BKN034/// 14/13 Q1002=
201708050120 METAR ESMX 050120Z AUTO 21011KT 9999 FEW006/// SCT010/// BKN014/// 14/13 Q1002=
201708050050 METAR ESMX 050050Z AUTO 22012KT 9999 FEW006/// SCT009/// BKN011/// 14/13 Q1002 REDZ=
201708050020 METAR ESMX 050020Z AUTO 22011KT 9999 FEW006/// SCT008/// BKN010/// 14/13 Q1002 REDZ=
201708042350 METAR ESMX 042350Z AUTO 20011KT 9999 FEW007/// SCT010/// BKN013/// 15/13 Q1002=
201708042320 METAR ESMX 042320Z AUTO 21012KT 9999 FEW007/// SCT009/// BKN013/// 14/13 Q1002 REDZ=
201708042250 METAR ESMX 042250Z AUTO 22011KT 9999 DZ FEW008/// BKN010/// BKN050/// 14/13 Q1002=
201708042220 METAR ESMX 042220Z AUTO 21010KT 9999 FEW009/// SCT012/// BKN016/// 15/13 Q1002=
201708042150 METAR ESMX 042150Z AUTO 21011KT 9999 FEW007/// SCT011/// BKN014/// 14/13 Q1002=
201708042120 METAR ESMX 042120Z AUTO 22010KT 9999 FEW008/// BKN011/// OVC018/// 15/13 Q1002=
201708042050 METAR ESMX 042050Z AUTO 22011KT 9999 FEW009/// SCT013/// BKN087/// 15/13 Q1002=
201708042020 METAR ESMX 042020Z AUTO 22011KT 9999 FEW009/// SCT025/// BKN048/// 15/13 Q1002=
201708041950 METAR ESMX 041950Z AUTO 20010KT 9999 FEW006/// SCT014/// 14/13 Q1002=
201708041920 METAR ESMX 041920Z AUTO 20008KT 9999 FEW013/// SCT027/// 14/13 Q1002=
201708041850 METAR ESMX 041850Z AUTO 21009KT 9999 FEW005/// SCT010/// 14/13 Q1002=
201708041820 METAR ESMX 041820Z AUTO 21009KT 9999 FEW006/// SCT008/// BKN010/// 14/13 Q1002=
201708041750 METAR ESMX 041750Z AUTO 21010KT 9999 FEW008/// 15/13 Q1002=
201708041720 METAR ESMX 041720Z AUTO 21008KT 9999 FEW067/// 15/13 Q1002=
201708041650 METAR ESMX 041650Z AUTO 21009KT 9999 FEW007/// SCT010/// BKN016/// 15/13 Q1002=
201708041620 METAR ESMX 041620Z AUTO 22010KT 190V250 9999 FEW008/// 15/13 Q1002=
201708041550 METAR ESMX 041550Z AUTO 22010KT 9999 FEW014/// 16/14 Q1002=
201708041520 METAR ESMX 041520Z AUTO 22014KT 9999 -RA FEW013/// SCT051/// 15/14 Q1002=
201708041450 METAR ESMX 041450Z 21014KT 9999 -RA FEW017 SCT025CB 17/14 Q1001=
201708041420 METAR ESMX 041420Z 20011KT CAVOK 18/15 Q1001=
201708041350 METAR ESMX 041350Z 20011KT CAVOK 17/14 Q1001=
201708041320 METAR ESMX 041320Z 19013KT 9999 FEW027 SCT046 BKN082 16/14 Q1001=
201708041250 METAR ESMX 041250Z 20013KT 9999 -RA FEW021 BKN035 16/14 Q1001=
201708041220 METAR ESMX 041220Z 22012KT 190V250 9999 FEW027 SCT039 BKN058 18/13 Q1001=
201708041150 METAR ESMX 041150Z AUTO 19014KT 9999 FEW030/// SCT045/// BKN091/// 19/14 Q1001=
201708041120 METAR ESMX 041120Z AUTO 21013KT 180V250 9999 FEW038/// SCT087/// 19/13 Q1001=
201708041050 METAR ESMX 041050Z AUTO 22014KT 9999 FEW024/// SCT030/// BKN045/// 19/13 Q1001=
201708041020 METAR ESMX 041020Z AUTO 22015KT 9999 FEW021/// SCT028/// BKN070/// 19/13 Q1001=
201708040950 METAR ESMX 040950Z 22013G24KT 9999 -RA FEW018 SCT027 17/14 Q1001=
201708040920 METAR ESMX 040920Z 19013G23KT 9999 BKN019 19/15 Q1001=
201708040850 METAR ESMX 040850Z 22015KT 9999 FEW016 SCT028 18/13 Q1001=
201708040820 METAR ESMX 040820Z 21014KT 9999 FEW014 SCT020 18/14 Q1001=
201708040750 METAR COR ESMX 040750Z 22013KT 9999 FEW011 BKN016 17/14 Q1001=
201708040720 METAR ESMX 040720Z 21011KT 9999 FEW011 BKN021 17/14 Q1002=
201708040650 METAR ESMX 040650Z 21010KT 9999 FEW008 BKN011 16/14 Q1002=
201708040620 METAR ESMX 040620Z 22010KT 9999 FEW007 BKN012 16/14 Q1002=
201708040550 METAR ESMX 040550Z AUTO 21009KT 9999 SCT006/// BKN009/// OVC012/// 16/14 Q1002=
201708040520 METAR ESMX 040520Z AUTO 20010KT 9999 FEW004/// BKN005/// OVC007/// 15/14 Q1002=
201708040450 METAR ESMX 040450Z AUTO 20009KT 9999 BKN004/// OVC006/// 15/14 Q1002=
201708040420 METAR ESMX 040420Z AUTO 20008KT 9999 FEW004/// SCT006/// BKN009/// 15/14 Q1002=
201708040350 METAR ESMX 040350Z AUTO 21010KT 9999 FEW005/// BKN006/// OVC010/// 15/13 Q1002=
201708040320 METAR ESMX 040320Z AUTO 20008KT 9999 FEW006/// SCT007/// BKN010/// 15/14 Q1002=
201708040250 METAR ESMX 040250Z AUTO 20010KT 9999 FEW005/// SCT008/// OVC010/// 14/13 Q1002=
201708040220 METAR ESMX 040220Z AUTO 21008KT 9999 FEW006/// SCT010/// BKN014/// 14/13 Q1002=
201708040150 METAR ESMX 040150Z AUTO 21008KT 9999 FEW006/// SCT008/// BKN009/// 15/13 Q1002=
201708040120 METAR ESMX 040120Z AUTO 22008KT 9999 FEW006/// BKN008/// OVC011/// 15/14 Q1002=
201708040050 METAR ESMX 040050Z AUTO 23007KT 9999 FEW007/// BKN010/// OVC014/// 15/14 Q1002=
201708040020 METAR ESMX 040020Z AUTO 21008KT 190V250 9999 FEW007/// BKN010/// OVC018/// 15/14 Q1002=
201708032350 METAR ESMX 032350Z 22008KT 9999 SCT009 BKN015 15/14 Q1002=
201708032320 METAR ESMX 032320Z 23008KT 9999 FEW008 BKN011 16/14 Q1002=
201708032250 METAR ESMX 032250Z 23008KT 9999 FEW009 BKN012 16/14 Q1002=
201708032220 METAR ESMX 032220Z 23009KT 9999 FEW006 BKN010 16/15 Q1002 RERA=
201708032150 METAR ESMX 032150Z 22010KT 9999 -RA FEW004 SCT012 BKN017 16/15 Q1002=
201708032120 METAR ESMX 032120Z 17007KT 9999 RA FEW002 BKN015 16/15 Q1002=
201708032050 METAR ESMX 032050Z 18007KT 9999 FEW003 SCT030 BKN036 16/15 Q1002=
201708032020 METAR ESMX 032020Z 17006KT 9999 SCT024 BKN030 16/15 Q1002=
201708031950 METAR ESMX 031950Z 15005KT 9999 -RA SCT003 BKN035 16/16 Q1002=
201708031920 METAR ESMX 031920Z 15007KT 110V190 9999 SHRA SCT005 BKN042CB 17/16 Q1002=
201708031850 METAR ESMX 031850Z 16006KT 9999 -SHRA BKN004 BKN032CB 17/16 Q1003 RETS=
201708031820 METAR ESMX 031820Z 19007KT 9999 TSRA BKN005 BKN034CB 17/16 Q1003=
201708031750 METAR ESMX 031750Z 19006KT 9999 FEW003 BKN006 17/16 Q1003=
201708031720 METAR ESMX 031720Z 19008KT 9999 -RA FEW003 BKN005 17/16 Q1003=
201708031650 METAR COR ESMX 031650Z 19009KT 9999 -RA FEW005 BKN007 17/16 Q1003=
201708031620 METAR ESMX 031620Z 16008KT 9999 -RA FEW004 BKN005 16/16 Q1004=
201708031550 METAR ESMX 031550Z 16006KT 7000 -RA FEW003 OVC005 16/15 Q1004=
201708031520 METAR ESMX 031520Z 15006KT 4700 DZ OVC004 15/14 Q1004=
201708031450 METAR ESMX 031450Z 13005KT 8000 -RA FEW004 BKN005 15/14 Q1005=
201708031420 METAR ESMX 031420Z 11006KT 9999 -RA FEW005 SCT011 14/13 Q1005=
201708031350 METAR ESMX 031350Z 14005KT 090V170 7000 -RA FEW009 BKN018 15/13 Q1006=
201708031320 METAR ESMX 031320Z 14005KT 110V170 9000 -RA FEW005 BKN024 15/14 Q1007=
201708031250 METAR ESMX 031250Z AUTO 14004KT 110V180 9999 -RA FEW005/// SCT007/// BKN027/// 15/14 Q1007=
201708031220 METAR ESMX 031220Z 15004KT 8000 -RA FEW027 BKN057 15/14 Q1008=
201708031150 METAR ESMX 031150Z 17009KT 9999 -RA FEW010 BKN048 15/13 Q1009=
201708031120 METAR ESMX 031120Z 16003KT 9999 -RA SCT010 BKN023 17/15 Q1009=
201708031050 METAR ESMX 031050Z 15004KT 9999 -RA FEW022 BKN028 17/14 Q1009=
201708031020 METAR ESMX 031020Z 16005KT 9999 -RA FEW022 BKN072 17/14 Q1010=
201708030950 METAR ESMX 030950Z AUTO 17008KT 9999 -RA FEW048/// 18/14 Q1010=
201708030920 METAR ESMX 030920Z AUTO 16006KT 9999 BKN063/// 19/13 Q1010=
201708030850 METAR ESMX 030850Z AUTO 18006KT 9999 SCT064/// 19/12 Q1010=
201708030820 METAR ESMX 030820Z AUTO 17005KT 140V200 9999 NCD 19/13 Q1010=
201708030750 METAR ESMX 030750Z AUTO 14006KT 100V200 9999 FEW016/// SCT044/// 19/14 Q1011=
201708030720 METAR ESMX 030720Z AUTO 17006KT 9999 FEW014/// SCT057/// 18/14 Q1011=
201708030650 METAR ESMX 030650Z AUTO 21007KT 180V240 9999 FEW011/// SCT014/// 18/14 Q1011=
201708030620 METAR ESMX 030620Z AUTO 18006KT 9999 FEW056/// 18/14 Q1011=
201708030550 METAR ESMX 030550Z 16005KT 130V200 CAVOK 17/14 Q1012=
201708030520 METAR ESMX 030520Z 15004KT CAVOK 16/14 Q1012=
201708030450 METAR ESMX 030450Z 16004KT 9999 SCT030 15/14 Q1012=
201708030420 METAR ESMX 030420Z 15003KT 9999 SCT035 15/14 Q1012=
201708030350 METAR ESMX 030350Z 18003KT 9999 FEW038 BKN060 14/13 Q1012=
201708030320 METAR ESMX 030320Z AUTO 17004KT 9999 BKN037/// BKN057/// 15/14 Q1012=
201708030250 METAR ESMX 030250Z AUTO 17004KT 9999 FEW036/// SCT041/// BKN057/// 16/13 Q1013=
201708030220 METAR ESMX 030220Z AUTO 16005KT 9999 BKN032/// BKN048/// 16/13 Q1013=
201708030150 METAR ESMX 030150Z AUTO 17004KT 9999 SCT032/// BKN041/// BKN056/// 15/13 Q1013=
201708030120 METAR ESMX 030120Z AUTO 20003KT 9999 FEW037/// SCT042/// BKN065/// 15/13 Q1013=
201708030050 METAR ESMX 030050Z AUTO 19005KT 9999 FEW064/// SCT077/// 14/13 Q1013=
201708030020 METAR ESMX 030020Z AUTO 18003KT 9999 SCT064/// 14/12 Q1014=
201708022350 METAR ESMX 022350Z 20003KT 9999 FEW035 BKN070 14/13 Q1014=
201708022320 METAR ESMX 022320Z 20004KT 9999 SCT035 BKN080 13/12 Q1014=
201708022250 METAR ESMX 022250Z 19005KT 9999 FEW034 SCT050 14/12 Q1014=
201708022220 METAR ESMX 022220Z 19006KT CAVOK 14/13 Q1014=
201708022150 METAR ESMX 022150Z 19006KT CAVOK 15/13 Q1014=
201708022120 METAR ESMX 022120Z 18006KT CAVOK 14/13 Q1014=
201708022050 METAR ESMX 022050Z 20005KT CAVOK 15/13 Q1014=
201708022020 METAR ESMX 022020Z 21006KT CAVOK 15/13 Q1014=
201708021950 METAR ESMX 021950Z 18006KT 9999 FEW035 BKN080 17/12 Q1014=
201708021920 METAR ESMX 021920Z AUTO 18004KT 9999 FEW038/// BKN081/// 17/11 Q1014=
201708021850 METAR ESMX 021850Z AUTO 20005KT 9999 SCT083/// 17/11 Q1014=
201708021820 METAR ESMX 021820Z AUTO 22005KT 9999 NCD 18/10 Q1014=
201708021750 METAR ESMX 021750Z AUTO 22009KT 200V260 9999 NCD 19/10 Q1014=
201708021720 METAR ESMX 021720Z AUTO 22006KT 9999 NCD 20/10 Q1014=
201708021650 METAR ESMX 021650Z AUTO 23009KT 9999 FEW043/// SCT048/// 21/11 Q1014=
201708021620 METAR ESMX 021620Z AUTO 22009KT 9999 FEW040/// SCT048/// 20/11 Q1014=
201708021550 METAR ESMX 021550Z AUTO 24012KT 9999 FEW093/// 21/10 Q1014=
201708021520 METAR ESMX 021520Z AUTO 24012KT 210V280 9999 FEW044/// SCT093/// 21/10 Q1014=
201708021450 METAR ESMX 021450Z AUTO 25011KT 220V290 9999 FEW094/// 20/09 Q1014=
201708021420 METAR ESMX 021420Z AUTO 24012KT 210V280 9999 FEW077/// 20/10 Q1014=
201708021350 METAR ESMX 021350Z AUTO 24010KT 200V270 9999 FEW052/// 21/11 Q1014=
201708021320 METAR ESMX 021320Z AUTO 23012KT 9999 FEW062/// 21/10 Q1014=
201708021250 METAR ESMX 021250Z AUTO 22012KT 200V260 9999 FEW059/// 21/11 Q1014=
201708021220 METAR ESMX 021220Z AUTO 24012KT 210V280 9999 NCD 21/10 Q1014=
201708021150 METAR ESMX 021150Z AUTO 26011KT 220V320 9999 FEW044/// SCT056/// 21/10 Q1014=
201708021120 METAR ESMX 021120Z AUTO 24010KT 9999 FEW041/// SCT051/// 21/10 Q1014=
201708021050 METAR ESMX 021050Z AUTO 24011KT 210V290 9999 FEW040/// 20/11 Q1014=
201708021020 METAR ESMX 021020Z AUTO 24012KT 210V290 9999 FEW037/// SCT057/// 20/11 Q1014=
201708020950 METAR ESMX 020950Z AUTO 24011KT 210V270 9999 FEW034/// SCT052/// 18/11 Q1014=
201708020920 METAR ESMX 020920Z AUTO 26011KT 230V290 9999 FEW031/// SCT036/// 19/11 Q1013=
201708020850 METAR ESMX 020850Z AUTO 26010KT 230V290 9999 R01///// R19/P2000N FEW029/// SCT046/// 19/12 Q1013=
201708020820 METAR ESMX 020820Z AUTO 24009KT 200V290 9999 R01///// R19///// FEW016/// SCT027/// 18/13 Q1013=
201708020750 METAR ESMX 020750Z AUTO 24009KT 200V280 9999 FEW013/// SCT019/// BKN047/// 17/13 Q1013=
201708020720 METAR ESMX 020720Z AUTO 25009KT 210V300 9999 FEW007/// SCT011/// BKN014/// 17/14 Q1013=
201708020650 METAR ESMX 020650Z AUTO 23007KT 9999 FEW004/// SCT006/// BKN007/// 16/14 Q1013=
201708020620 METAR ESMX 020620Z AUTO 22008KT 9999 FEW006/// SCT035/// BKN050/// 15/14 Q1013=
201708020550 METAR ESMX 020550Z 22007KT 9999 FEW024 BKN067 15/13 Q1013=
201708020520 METAR ESMX 020520Z 22007KT 9999 FEW024 SCT070 BKN100 14/13 Q1013=
201708020450 METAR ESMX 020450Z 21005KT 9999 FEW046 BKN090 13/12 Q1013=
201708020420 METAR ESMX 020420Z 20004KT 9999 SCT043 BKN100 13/12 Q1013=
201708020350 METAR ESMX 020350Z AUTO 19005KT 9999 BKN091/// 12/12 Q1013=
201708020320 METAR ESMX 020320Z AUTO 22004KT 1400 R01/P2000N R19/1700U FEW092/// SCT100/// 12/11 Q1013=
201708020250 METAR ESMX 020250Z AUTO 21005KT 0300 R01/P2000N R19/0900N NCD 11/11 Q1013=
201708020220 METAR ESMX 020220Z AUTO 22004KT 0250 R01/P2000N R19/0800N NCD 11/11 Q1012=
201708020150 METAR ESMX 020150Z AUTO 23005KT 0350 R01/P2000N R19/1000D BCFG FEW056/// 11/10 Q1013=
201708020120 METAR ESMX 020120Z AUTO VRB02KT 0450 R01/1600N R19/1700D FG NCD 11/11 Q1013=
201708020050 METAR ESMX 020050Z AUTO 20001KT 0200 R01/1000N R19/0650N FG NCD 11/11 Q1013=
201708020020 METAR ESMX 020020Z 19003KT 9999 MIFG NSC 13/12 Q1013=
201708012350 METAR COR ESMX 012350Z 20004KT 9999 MIFG NSC 13/12 Q1013=
201708012320 METAR ESMX 012320Z 22004KT 9999 FEW035 13/12 Q1013=
201708012250 METAR ESMX 012250Z AUTO 18003KT 9999 FEW032/// 14/13 Q1013=
201708012220 METAR ESMX 012220Z 21005KT 9999 SCT032 SCT090 BKN150 15/14 Q1014=
201708012150 METAR ESMX 012150Z 24005KT 9999 FEW028 BKN090 15/14 Q1014=
201708012120 METAR ESMX 012120Z 14004KT 100V160 9999 FEW025 BKN086 15/14 Q1013=
201708012050 METAR COR ESMX 012050Z 15003KT 9999 -RA FEW023 BKN080 16/14 Q1014=
201708012020 METAR ESMX 012020Z 17003KT 9999 -RA FEW021 SCT039 BKN080 17/13 Q1014=
201708011950 METAR ESMX 011950Z 21003KT 9999 -RA SCT040 BKN080 18/13 Q1014=
201708011920 METAR ESMX 011920Z 23003KT 9999 -RA SCT042 OVC080 18/14 Q1014=
201708011850 METAR ESMX 011850Z 25002KT 9999 -RA FEW049 OVC080 19/12 Q1014=
201708011820 METAR COR ESMX 011820Z VRB02KT 9999 -RA FEW045 BKN080 19/13 Q1014=
201708011750 METAR ESMX 011750Z 30003KT 9999 FEW043 SCT079 20/13 Q1014=
201708011720 METAR ESMX 011720Z 29003KT 9999 FEW045 20/13 Q1014=
201708011650 METAR ESMX 011650Z 28004KT 9999 FEW045 BKN050 21/13 Q1014=
201708011620 METAR ESMX 011620Z 28004KT 250V320 9999 BKN042 22/13 Q1014=
201708011550 METAR ESMX 011550Z VRB02KT 9999 SCT045 22/12 Q1014=
201708011520 METAR ESMX 011520Z 26004KT 220V310 9999 SCT045 23/13 Q1014=
201708011450 METAR ESMX 011450Z VRB03KT 9999 SCT040 23/13 Q1014=
201708011420 METAR ESMX 011420Z 06005KT 020V150 9999 SCT040 22/14 Q1014=
201708011350 METAR ESMX 011350Z AUTO 01004KT 9999 FEW037/// SCT041/// 22/13 Q1014=
201708011320 METAR ESMX 011320Z AUTO 14003KT 050V190 9999 FEW040/// SCT045/// 22/13 Q1014=
201708011250 METAR ESMX 011250Z AUTO VRB03KT 9999 BKN036/// 22/13 Q1014=
201708011220 METAR ESMX 011220Z AUTO 15003KT 9999 FEW033/// SCT040/// BKN050/// 21/12 Q1014=
