##########################################################
# Query made at 04/19/2024 22:04:53 UTC
# Time interval: from 09/01/2018 12:00  to 09/30/2018 12:59  UTC
##########################################################

##########################################################
# ESMX, Vaxjo (Sweden)
# WMO index: 02641. WIGOS ID: 0-20000-0-02648
# Latitude 56-51N. Longitude 014-50E. Altitude 199 m.
##########################################################

201809301250 METAR ESMX 301250Z 23009KT 9999 SCT035 BKN042 10/08 Q1010=
201809301220 METAR ESMX 301220Z 25010KT 8000 -RA BKN034 10/08 Q1010=
201809301150 METAR ESMX 301150Z 28007KT 240V300 7000 -RA FEW012 SCT020 BKN030 10/09 Q1010=
201809301120 METAR ESMX 301120Z 28006KT 240V330 9999 -RA FEW010 BKN022 10/08 Q1010=
201809301050 METAR ESMX 301050Z 22009KT 200V260 9999 SCT018 BKN025 11/07 Q1010=
201809301020 METAR ESMX 301020Z 22010KT 9999 BKN020 11/08 Q1010=
201809300950 METAR ESMX 300950Z AUTO 22011KT 9999 BKN018/// BKN024/// OVC031/// 11/08 Q1010=
201809300920 METAR ESMX 300920Z AUTO 20014KT 9999 BKN018/// OVC025/// 11/08 Q1010=
201809300850 METAR ESMX 300850Z AUTO 21013KT 9999 BKN018/// BKN033/// OVC044/// 11/07 Q1010=
201809300820 METAR ESMX 300820Z AUTO 21014KT 9999 BKN017/// OVC031/// 11/07 Q1011=
201809300750 METAR ESMX 300750Z AUTO 20013KT 9999 OVC015/// 10/07 Q1011=
201809300720 METAR ESMX 300720Z AUTO 20011KT 9999 BKN014/// OVC048/// 10/07 Q1011=
201809300650 METAR ESMX 300650Z AUTO 20011KT 9999 SCT032/// OVC044/// 10/07 Q1011=
201809300620 METAR ESMX 300620Z AUTO 21011KT 170V240 9999 FEW015/// BKN028/// BKN049/// 10/07 Q1011=
201809300550 METAR ESMX 300550Z AUTO 22010KT 9999 SCT014/// BKN027/// BKN032/// 10/07 Q1011=
201809300520 METAR ESMX 300520Z AUTO 22011KT 9999 OVC045/// 10/07 Q1011=
201809300450 METAR ESMX 300450Z AUTO 22011KT 9999 BKN014/// OVC048/// 10/07 Q1011=
201809300420 METAR ESMX 300420Z AUTO 22013KT 9999 FEW013/// OVC049/// 10/07 Q1011=
201809300350 METAR ESMX 300350Z AUTO 22012KT 190V250 9999 OVC048/// 10/07 Q1012=
201809300320 METAR ESMX 300320Z AUTO 21012KT 9999 FEW015/// OVC047/// 10/07 Q1012=
201809300250 METAR ESMX 300250Z AUTO 22011KT 9999 SCT033/// OVC047/// 10/06 Q1012=
201809300220 METAR ESMX 300220Z AUTO 22011KT 9999 BKN038/// OVC049/// 10/06 Q1013=
201809300150 METAR ESMX 300150Z AUTO 22013KT 9999 OVC044/// 10/05 Q1013=
201809300120 METAR ESMX 300120Z AUTO 22013KT 9999 OVC042/// 10/05 Q1013=
201809300050 METAR ESMX 300050Z AUTO 23014KT 9999 OVC037/// 10/06 Q1013=
201809300020 METAR ESMX 300020Z AUTO 23011KT 9999 FEW021/// OVC041/// 10/06 Q1013=
201809292350 METAR ESMX 292350Z AUTO 22011KT 9999 SCT021/// OVC048/// 10/06 Q1014=
201809292320 METAR ESMX 292320Z AUTO 23010KT 190V250 9999 BKN021/// BKN033/// OVC042/// 10/06 Q1014=
201809292250 METAR ESMX 292250Z AUTO 22013KT 9999 FEW023/// OVC045/// 10/06 Q1014=
201809292220 METAR ESMX 292220Z AUTO 22013KT 9999 FEW021/// OVC041/// 10/06 Q1014=
201809292150 METAR ESMX 292150Z AUTO 21013KT 9999 OVC049/// 10/06 Q1015=
201809292120 METAR ESMX 292120Z AUTO 20014KT 9999 FEW020/// SCT029/// OVC043/// 10/06 Q1015=
201809292050 METAR ESMX 292050Z AUTO 20012KT 9999 SCT024/// BKN032/// OVC046/// 10/06 Q1016=
201809292020 METAR ESMX 292020Z AUTO 20011KT 9999 SCT025/// OVC047/// 10/07 Q1016=
201809291950 METAR ESMX 291950Z AUTO 21011KT 9999 FEW033/// OVC046/// 10/07 Q1016=
201809291920 METAR ESMX 291920Z 21010KT 9999 SCT023 BKN040 09/07 Q1017=
201809291850 METAR ESMX 291850Z 21009KT 9999 BKN045 09/07 Q1017=
201809291820 METAR ESMX 291820Z 20009KT 9999 FEW020 BKN048 09/08 Q1017=
201809291750 METAR ESMX 291750Z 21010KT 9999 FEW013 BKN040 09/08 Q1018 RERA=
201809291720 METAR ESMX 291720Z 22011KT 9999 BKN024 10/07 Q1018=
201809291650 METAR ESMX 291650Z 20012KT 9999 BKN024 10/06 Q1018=
201809291620 METAR ESMX 291620Z 22011KT 9999 SCT027 BKN050 10/06 Q1018=
201809291550 METAR ESMX 291550Z 22011KT 9999 BKN025 11/06 Q1018=
201809291520 METAR ESMX 291520Z 23012KT 9999 SCT027 BKN035 11/05 Q1019=
201809291450 METAR ESMX 291450Z 24013KT 200V280 9999 SCT028 BKN043 11/05 Q1019=
201809291420 METAR ESMX 291420Z 23014KT 9999 BKN032 11/04 Q1020=
201809291350 METAR ESMX 291350Z 24012KT 200V290 9999 SCT028 BKN120 12/04 Q1020=
201809291320 METAR ESMX 291320Z 22011KT 190V260 9999 SCT025 BKN100 12/06 Q1020=
201809291250 METAR ESMX 291250Z 24013KT 9999 FEW023 BKN040 11/05 Q1021=
201809291220 METAR ESMX 291220Z 24013G24KT 9999 BKN022 10/06 Q1021=
201809291150 METAR ESMX 291150Z 23012KT 9999 BKN025 11/05 Q1021=
201809291120 METAR ESMX 291120Z 22011KT 9999 SCT027 BKN038 11/05 Q1022=
201809291050 METAR ESMX 291050Z 23011KT 200V260 9999 BKN030 11/05 Q1022=
201809291020 METAR ESMX 291020Z AUTO 22010KT 190V260 9999 FEW030/// OVC096/// 11/04 Q1022=
201809290950 METAR ESMX 290950Z AUTO 24012KT 9999 FEW029/// BKN100/// 12/04 Q1023=
201809290920 METAR ESMX 290920Z 23008KT 200V260 CAVOK 10/04 Q1023=
201809290850 METAR ESMX 290850Z 24007KT 200V290 CAVOK 10/03 Q1023=
201809290820 METAR ESMX 290820Z 23008KT CAVOK 10/04 Q1023=
201809290750 METAR ESMX 290750Z 21008KT 9999 FEW033 08/03 Q1023=
201809290720 METAR ESMX 290720Z 22007KT CAVOK 06/02 Q1023=
201809290650 METAR ESMX 290650Z 22006KT CAVOK 04/02 Q1023=
201809290620 METAR ESMX 290620Z AUTO 21007KT 9999 NCD 03/02 Q1023=
201809290550 METAR ESMX 290550Z AUTO 19005KT 9999 SCT220/// 02/01 Q1023=
201809290520 METAR ESMX 290520Z AUTO 20003KT 9999 SCT059/// OVC210/// 01/00 Q1023=
201809290450 METAR ESMX 290450Z AUTO 20005KT 9999 SCT061/// OVC220/// 01/00 Q1023=
201809290420 METAR ESMX 290420Z AUTO 21005KT 9999 BKN061/// 00/M00 Q1023=
201809290350 METAR ESMX 290350Z AUTO 19003KT 9999 NCD M02/M03 Q1023=
201809290320 METAR ESMX 290320Z AUTO 15002KT 9999 NCD M02/M03 Q1023=
201809290250 METAR ESMX 290250Z AUTO 16002KT 9999 NCD 00/M00 Q1023=
201809290220 METAR ESMX 290220Z AUTO 23005KT 9999 NCD 01/M00 Q1023=
201809290150 METAR ESMX 290150Z AUTO 17003KT 9999 NCD 00/M01 Q1023=
201809290120 METAR ESMX 290120Z AUTO 22003KT 9999 NCD M01/M02 Q1024=
201809290050 METAR ESMX 290050Z AUTO 16003KT 9999 NCD M01/M02 Q1023=
201809290020 METAR ESMX 290020Z AUTO VRB01KT 9999 NCD M01/M02 Q1023=
201809282350 METAR ESMX 282350Z AUTO 25002KT 9999 NCD M00/M01 Q1023=
201809282320 METAR ESMX 282320Z AUTO 26002KT 9999 NCD M01/M02 Q1023=
201809282250 METAR ESMX 282250Z AUTO VRB01KT 9999 NCD M02/M04 Q1022=
201809282220 METAR ESMX 282220Z AUTO 27003KT 9999 NCD 00/M01 Q1022=
201809282150 METAR ESMX 282150Z AUTO 25004KT 9999 NCD M01/M02 Q1022=
201809282120 METAR ESMX 282120Z AUTO 00000KT 9999 NCD 00/M01 Q1022=
201809282050 METAR ESMX 282050Z AUTO 27002KT 9999 NCD 01/M01 Q1022=
201809282020 METAR ESMX 282020Z AUTO 27003KT 9999 NCD 02/00 Q1022=
201809281950 METAR ESMX 281950Z 29003KT CAVOK 01/M02 Q1021=
201809281920 METAR ESMX 281920Z 30004KT 280V350 CAVOK 04/M00 Q1021=
201809281850 METAR COR ESMX 281850Z 26004KT CAVOK 02/M01 Q1021=
201809281820 METAR COR ESMX 281820Z 27003KT CAVOK 03/M00 Q1020=
201809281750 METAR ESMX 281750Z 31003KT CAVOK 04/M00 Q1020=
201809281720 METAR ESMX 281720Z 31004KT CAVOK 07/M01 Q1020=
201809281650 METAR ESMX 281650Z 32005KT CAVOK 08/M01 Q1019=
201809281620 METAR COR ESMX 281620Z 33007KT CAVOK 09/M01 Q1019=
201809281550 METAR ESMX 281550Z 33007KT CAVOK 10/M02 Q1019=
201809281520 METAR ESMX 281520Z AUTO 32008KT 9999 FEW062/// 11/M01 Q1018=
201809281450 METAR ESMX 281450Z 32011KT CAVOK 12/M02 Q1018=
201809281420 METAR ESMX 281420Z 31010KT 270V340 CAVOK 12/M02 Q1018=
201809281350 METAR COR ESMX 281350Z 29010KT 260V330 CAVOK 12/M01 Q1018=
201809281320 METAR ESMX 281320Z 30011KT 270V330 CAVOK 13/M01 Q1017=
201809281250 METAR ESMX 281250Z 29013KT 260V320 CAVOK 13/M01 Q1017=
201809281220 METAR ESMX 281220Z 31011KT 280V350 CAVOK 13/M01 Q1017=
201809281150 METAR ESMX 281150Z 29013G23KT 250V330 9999 FEW048 13/M00 Q1017=
201809281120 METAR ESMX 281120Z 30011KT 260V330 9999 FEW048 12/01 Q1017=
201809281050 METAR ESMX 281050Z 31010KT 280V350 CAVOK 12/01 Q1016=
201809281020 METAR ESMX 281020Z 31014KT 280V340 CAVOK 12/01 Q1016=
201809280950 METAR ESMX 280950Z 31012KT CAVOK 11/01 Q1016=
201809280920 METAR ESMX 280920Z 31011KT 9999 NSC 11/02 Q1016=
201809280850 METAR ESMX 280850Z 33011KT 9999 FEW030 10/02 Q1015=
201809280820 METAR ESMX 280820Z 32012KT 9999 FEW020 09/02 Q1015=
201809280750 METAR ESMX 280750Z 31010KT 9999 FEW020 09/03 Q1014=
201809280720 METAR ESMX 280720Z 31011KT 9999 FEW020 08/04 Q1014=
201809280650 METAR ESMX 280650Z 30011KT 9999 FEW020 08/04 Q1013=
201809280620 METAR ESMX 280620Z 31011KT 9999 FEW020 08/04 Q1013=
201809280550 METAR ESMX 280550Z 31012KT 280V350 9999 BKN021 08/04 Q1012=
201809280520 METAR ESMX 280520Z 30011KT 9999 FEW022 08/04 Q1011=
201809280450 METAR ESMX 280450Z 29007KT 250V320 9999 FEW026 08/05 Q1011=
201809280420 METAR ESMX 280420Z 27008KT 9999 FEW027 09/05 Q1010=
201809280350 METAR ESMX 280350Z AUTO 28006KT 9999 NCD 09/05 Q1010=
201809280320 METAR ESMX 280320Z AUTO 27008KT 9999 FEW030/// BKN049/// 09/06 Q1009=
201809280250 METAR ESMX 280250Z AUTO 26009KT 9999 OVC048/// 09/06 Q1009=
201809280220 METAR ESMX 280220Z AUTO 25009KT 220V290 9999 OVC044/// 10/06 Q1009=
201809280150 METAR ESMX 280150Z AUTO 27009KT 9999 FEW021/// OVC044/// 09/06 Q1009 REDZ=
201809280120 METAR ESMX 280120Z AUTO 27011KT 9999 FEW015/// SCT032/// OVC043/// 10/06 Q1008=
201809280050 METAR ESMX 280050Z AUTO 25012KT 9999 FEW023/// SCT033/// OVC046/// 10/06 Q1008=
201809280020 METAR ESMX 280020Z 26014KT 9999 FEW025 BKN044 10/06 Q1008=
201809272350 METAR ESMX 272350Z 26014KT 9999 FEW022 SCT028 10/06 Q1008=
201809272320 METAR ESMX 272320Z 24013G24KT 210V280 9999 SCT023 BKN035 10/07 Q1008=
201809272250 METAR ESMX 272250Z 26016KT 210V290 9999 FEW019 SCT040 11/08 Q1008=
201809272220 METAR ESMX 272220Z 26014KT 9999 SCT040 BKN100 11/08 Q1008=
201809272150 METAR ESMX 272150Z 26015KT 230V290 9999 -RA SCT020 BKN035 11/09 Q1007=
201809272120 METAR ESMX 272120Z 26017G28KT 220V290 9999 BKN020 13/10 Q1007=
201809272050 METAR ESMX 272050Z 24014KT 9999 -RA BKN019 13/11 Q1007=
201809272020 METAR ESMX 272020Z 24017G29KT 200V280 9999 -RA BKN022 14/10 Q1007=
201809271950 METAR COR ESMX 271950Z 24020G33KT 210V270 9999 -RA BKN025 15/10 Q1007=
201809271920 METAR ESMX 271920Z 25017G30KT 210V270 9999 BKN023 16/10 Q1007=
201809271850 METAR ESMX 271850Z 23017G36KT 9999 SCT024 BKN044 16/11 Q1007=
201809271820 METAR ESMX 271820Z 23019G29KT 9999 BKN023 16/12 Q1007=
201809271750 METAR ESMX 271750Z 25017G29KT 9999 BKN025 16/11 Q1008=
201809271720 METAR ESMX 271720Z 24019G31KT 9999 BKN022 16/12 Q1008=
201809271650 METAR ESMX 271650Z 24014G26KT 9999 BKN023 16/12 Q1009=
201809271620 METAR ESMX 271620Z 24015G27KT 210V280 9999 BKN023 16/12 Q1009=
201809271550 METAR ESMX 271550Z 24015G26KT 210V290 9999 BKN023 16/12 Q1010=
201809271520 METAR ESMX 271520Z 24014KT 9999 BKN023 16/12 Q1010=
201809271450 METAR ESMX 271450Z 24015KT 9999 BKN021 OVC029 16/12 Q1011=
201809271420 METAR ESMX 271420Z 23016KT 9999 SCT020 BKN026 16/12 Q1011=
201809271350 METAR ESMX 271350Z 24014KT 9999 FEW011 SCT014 BKN017 15/13 Q1012=
201809271320 METAR ESMX 271320Z 24012G22KT 200V260 9999 SCT011 BKN015 15/13 Q1013=
201809271250 METAR ESMX 271250Z 23013KT 9999 SCT007 BKN010 14/13 Q1013=
201809271220 METAR ESMX 271220Z 20012KT 2800 BR DZ VV009 13/13 Q1014=
201809271150 METAR ESMX 271150Z 22010KT 3900 BR SCT002 OVC005 13/12 Q1014=
201809271120 METAR ESMX 271120Z 23012KT 5000 -DZ BKN005 OVC013 13/11 Q1015=
201809271050 METAR ESMX 271050Z 23011KT 210V270 9999 FEW007 OVC016 14/10 Q1016=
201809271020 METAR ESMX 271020Z 23011KT 190V260 9999 OVC018 14/09 Q1016=
201809270950 METAR ESMX 270950Z 25007KT 9999 OVC021 13/09 Q1016=
201809270920 METAR ESMX 270920Z 25011KT 190V280 9999 BKN022 BKN037 13/08 Q1017=
201809270850 METAR ESMX 270850Z 26011KT 9999 FEW030 BKN045 13/07 Q1016=
201809270820 METAR ESMX 270820Z 27011KT 240V300 9999 FEW021 13/07 Q1017=
201809270750 METAR ESMX 270750Z 27011KT 240V300 9999 SCT021 12/07 Q1017=
201809270720 METAR ESMX 270720Z 26011KT 220V280 9999 SCT021 12/08 Q1017=
201809270650 METAR ESMX 270650Z 27010KT 240V300 9999 FEW025 12/07 Q1017=
201809270620 METAR ESMX 270620Z 27010KT 9999 FEW026 11/07 Q1017=
201809270550 METAR ESMX 270550Z 27009KT 9999 SCT026 11/07 Q1017=
201809270520 METAR ESMX 270520Z AUTO 27010KT 9999 FEW027/// 11/07 Q1016=
201809270450 METAR COR ESMX 270450Z 27009KT 9999 BKN027 11/07 Q1016=
201809270420 METAR ESMX 270420Z 27009KT 9999 BKN028 11/08 Q1016=
201809270350 METAR ESMX 270350Z 27009KT 9999 BKN027 12/08 Q1016=
201809270320 METAR ESMX 270320Z AUTO 27008KT 9999 BKN020/// BKN028/// 12/08 Q1016=
201809270250 METAR ESMX 270250Z AUTO 27010KT 9999 SCT018/// BKN026/// OVC190/// 12/08 Q1016=
201809270220 METAR ESMX 270220Z AUTO 26010KT 220V290 9999 BKN021/// BKN025/// OVC190/// 12/08 Q1016=
201809270150 METAR ESMX 270150Z AUTO 27011KT 9999 BKN022/// OVC030/// 12/08 Q1015=
201809270120 METAR ESMX 270120Z AUTO 26011KT 9999 BKN022/// OVC033/// 12/08 Q1015=
201809270050 METAR ESMX 270050Z AUTO 27011KT 230V290 9999 BKN025/// OVC033/// 12/08 Q1015=
201809270020 METAR ESMX 270020Z AUTO 27010KT 9999 BKN022/// OVC028/// 12/08 Q1015=
201809262350 METAR ESMX 262350Z AUTO 26012KT 9999 BKN024/// BKN032/// OVC038/// 12/08 Q1015=
201809262320 METAR ESMX 262320Z AUTO 28012KT 9999 SCT023/// OVC032/// 13/08 Q1015=
201809262250 METAR ESMX 262250Z 27011KT 9999 BKN022 13/09 Q1014=
201809262220 METAR ESMX 262220Z 27013KT 9999 BKN022 13/09 Q1014=
201809262150 METAR ESMX 262150Z 27011KT 9999 BKN020 13/09 Q1014=
201809262120 METAR ESMX 262120Z 27014KT 9999 BKN020 13/10 Q1014=
201809262050 METAR ESMX 262050Z 26012KT 210V300 9999 BKN020 13/10 Q1014=
201809262020 METAR ESMX 262020Z 27013G24KT 9999 BKN022 14/09 Q1014=
201809261950 METAR ESMX 261950Z 27016KT 240V300 9999 BKN020 14/10 Q1013=
201809261920 METAR ESMX 261920Z 26012KT 9999 BKN020 14/10 Q1013=
201809261850 METAR ESMX 261850Z 27015G25KT 230V300 9999 BKN020 14/10 Q1012=
201809261820 METAR ESMX 261820Z 27017G28KT 240V300 9999 BKN017 14/11 Q1012=
201809261750 METAR ESMX 261750Z 26015G27KT 9999 BKN016 14/11 Q1011=
201809261720 METAR ESMX 261720Z 26016G30KT 220V280 9999 BKN014 14/12 Q1011=
201809261650 METAR ESMX 261650Z 26016G27KT 230V300 9999 BKN012 14/12 Q1011=
201809261620 METAR ESMX 261620Z 26018G29KT 9999 BKN011 14/12 Q1011=
201809261550 METAR ESMX 261550Z 26018G30KT 220V280 9999 BKN010 14/12 Q1011=
201809261520 METAR ESMX 261520Z 26017G28KT 9999 BKN009 14/12 Q1011=
201809261450 METAR ESMX 261450Z 25017G28KT 9999 OVC009 14/12 Q1011=
201809261420 METAR ESMX 261420Z 23016G27KT 190V260 9999 BR OVC009 13/12 Q1011=
201809261350 METAR ESMX 261350Z 23016KT 8000 BR BKN008 OVC012 13/12 Q1012=
201809261320 METAR ESMX 261320Z 23016G28KT 4900 BR SCT007 OVC012 13/12 Q1012=
201809261250 METAR ESMX 261250Z 22016G27KT 3400 DZ SCT007 OVC012 13/12 Q1012=
201809261220 METAR ESMX 261220Z 24017KT 2900 DZ BKN006 OVC014 13/11 Q1013=
201809261150 METAR ESMX 261150Z 24017G29KT 3100 DZ FEW002 SCT006 OVC008 12/11 Q1013=
201809261120 METAR ESMX 261120Z 23017G28KT 9999 OVC010 13/10 Q1014=
201809261050 METAR ESMX 261050Z 22018G30KT 6000 BR SCT005 OVC009 12/10 Q1014=
201809261020 METAR ESMX 261020Z 22016G27KT 9999 OVC009 12/10 Q1015=
201809260950 METAR ESMX 260950Z 22020KT 9999 OVC011 12/09 Q1015=
201809260920 METAR ESMX 260920Z 23019G30KT 9999 OVC013 12/08 Q1016=
201809260850 METAR COR ESMX 260850Z 23018G31KT 9999 OVC013 11/08 Q1016=
201809260820 METAR ESMX 260820Z 22019G30KT 9999 FEW009 OVC015 11/08 Q1017=
201809260750 METAR ESMX 260750Z 22018G31KT 9999 OVC017 12/08 Q1017=
201809260720 METAR ESMX 260720Z 22018G30KT 9999 OVC018 11/08 Q1018=
201809260650 METAR ESMX 260650Z 22018G31KT 9999 OVC018 11/08 Q1018=
201809260620 METAR COR ESMX 260620Z 22017G27KT 9999 BKN016 11/08 Q1018=
201809260550 METAR COR ESMX 260550Z 22017G27KT 9999 OVC015 11/08 Q1019=
201809260520 METAR ESMX 260520Z AUTO 21015KT 9999 -RA BKN016/// OVC076/// 10/07 Q1019 REDZ=
201809260450 METAR COR ESMX 260450Z 21015KT 9999 FEW016 BKN032 10/07 Q1020=
201809260420 METAR COR ESMX 260420Z 22015KT 9999 BKN017 10/07 Q1021=
201809260350 METAR ESMX 260350Z 22017KT 9999 BKN015 10/07 Q1022=
201809260320 METAR COR ESMX 260320Z 20016KT 9999 SCT015 BKN027 10/07 Q1022=
201809260250 METAR ESMX 260250Z AUTO 20014KT 9999 BKN014/// BKN035/// OVC046/// 10/07 Q1023=
201809260220 METAR ESMX 260220Z AUTO 22013KT 9999 BKN013/// OVC036/// 10/07 Q1023=
201809260150 METAR ESMX 260150Z AUTO 20012KT 9999 SCT012/// BKN027/// BKN039/// 09/07 Q1024=
201809260120 METAR ESMX 260120Z AUTO 21011KT 9999 FEW012/// SCT053/// 09/07 Q1025=
201809260050 METAR ESMX 260050Z AUTO 21011KT 9999 SCT024/// BKN049/// OVC130/// 09/07 Q1025=
201809260020 METAR ESMX 260020Z AUTO 19011KT 9999 FEW027/// SCT035/// BKN046/// 08/06 Q1026=
201809252350 METAR ESMX 252350Z AUTO 19010KT 9999 SCT048/// 07/06 Q1026=
201809252320 METAR ESMX 252320Z AUTO 19009KT 9999 BKN140/// 07/06 Q1027=
201809252250 METAR ESMX 252250Z AUTO 22009KT 9999 FEW140/// 08/06 Q1027=
201809252220 METAR ESMX 252220Z AUTO 21008KT 9999 FEW036/// BKN047/// 08/06 Q1028=
201809252150 METAR ESMX 252150Z AUTO 21008KT 9999 FEW034/// BKN048/// 08/06 Q1028=
201809252120 METAR ESMX 252120Z AUTO 22007KT 9999 BKN045/// 08/06 Q1029=
201809252050 METAR ESMX 252050Z AUTO 21007KT 9999 NCD 07/05 Q1029=
201809252020 METAR ESMX 252020Z 22008KT CAVOK 07/05 Q1029=
201809251950 METAR ESMX 251950Z 22008KT CAVOK 07/05 Q1029=
201809251920 METAR ESMX 251920Z 22006KT CAVOK 07/05 Q1030=
201809251850 METAR ESMX 251850Z 22006KT CAVOK 07/05 Q1030=
201809251820 METAR ESMX 251820Z 25006KT CAVOK 08/04 Q1030=
201809251750 METAR ESMX 251750Z AUTO 23006KT 9999 NCD 07/03 Q1030=
201809251720 METAR ESMX 251720Z 23005KT CAVOK 08/03 Q1030=
201809251650 METAR ESMX 251650Z 23006KT CAVOK 09/02 Q1030=
201809251620 METAR ESMX 251620Z 25011KT 230V290 CAVOK 11/02 Q1030=
201809251550 METAR ESMX 251550Z 26011KT 210V310 CAVOK 11/01 Q1031=
201809251520 METAR ESMX 251520Z 26011KT CAVOK 12/01 Q1030=
201809251450 METAR ESMX 251450Z 24010KT CAVOK 12/01 Q1030=
201809251420 METAR ESMX 251420Z 27010KT 230V290 CAVOK 12/00 Q1031=
201809251350 METAR ESMX 251350Z 24010KT CAVOK 13/M00 Q1031=
201809251320 METAR ESMX 251320Z 25011KT CAVOK 13/M01 Q1031=
201809251250 METAR ESMX 251250Z 29010KT CAVOK 13/M01 Q1031=
201809251220 METAR ESMX 251220Z 25009KT 210V280 CAVOK 13/M01 Q1031=
201809251150 METAR ESMX 251150Z 28010KT 240V300 CAVOK 12/M02 Q1031=
201809251120 METAR ESMX 251120Z 26009KT 230V310 CAVOK 12/M02 Q1031=
201809251050 METAR ESMX 251050Z 29012KT CAVOK 11/M02 Q1032=
201809251020 METAR ESMX 251020Z 28010KT 250V320 CAVOK 11/M02 Q1031=
201809250950 METAR ESMX 250950Z 28008KT 260V330 CAVOK 10/M03 Q1032=
201809250920 METAR ESMX 250920Z 26005KT 200V310 CAVOK 10/M01 Q1031=
201809250850 METAR ESMX 250850Z 31005KT 280V340 CAVOK 09/00 Q1031=
201809250820 METAR ESMX 250820Z 33005KT 270V360 CAVOK 08/M00 Q1031=
201809250750 METAR ESMX 250750Z 31005KT 280V350 CAVOK 07/M00 Q1030=
201809250720 METAR ESMX 250720Z 31006KT CAVOK 05/01 Q1030=
201809250650 METAR ESMX 250650Z 32003KT 270V350 CAVOK 04/M00 Q1030=
201809250620 METAR ESMX 250620Z 00000KT CAVOK 02/M00 Q1030=
201809250550 METAR ESMX 250550Z VRB02KT CAVOK 00/M01 Q1029=
201809250520 METAR ESMX 250520Z VRB01KT CAVOK M00/M02 Q1029=
201809250450 METAR ESMX 250450Z VRB01KT CAVOK 01/M01 Q1028=
201809250420 METAR ESMX 250420Z 28005KT CAVOK M00/M02 Q1028=
201809250350 METAR ESMX 250350Z 31006KT CAVOK 01/M01 Q1027=
201809250320 METAR ESMX 250320Z AUTO 31005KT 9999 NCD M00/M01 Q1027=
201809250250 METAR ESMX 250250Z AUTO 30003KT 250V340 9999 NCD 00/M01 Q1027=
201809250220 METAR ESMX 250220Z AUTO 28005KT 9999 NCD M00/M02 Q1027=
201809250150 METAR ESMX 250150Z AUTO VRB03KT 9999 NCD 01/M01 Q1026=
201809250120 METAR ESMX 250120Z AUTO VRB01KT 9999 NCD 01/M01 Q1026=
201809250050 METAR ESMX 250050Z AUTO VRB02KT 9999 NCD 01/M01 Q1026=
201809250020 METAR ESMX 250020Z AUTO 29003KT 9999 NCD 02/M00 Q1026=
201809242350 METAR ESMX 242350Z AUTO 30003KT 9999 NCD 02/M01 Q1025=
201809242320 METAR ESMX 242320Z AUTO 29005KT 9999 NCD 02/M01 Q1025=
201809242250 METAR ESMX 242250Z AUTO 29006KT 9999 NCD 02/M01 Q1025=
201809242220 METAR ESMX 242220Z AUTO 28004KT 9999 NCD 03/M01 Q1024=
201809242150 METAR ESMX 242150Z AUTO 27005KT 9999 NCD 03/M01 Q1024=
201809242120 METAR ESMX 242120Z AUTO 28006KT 9999 NCD 03/M01 Q1023=
201809242050 METAR ESMX 242050Z 29006KT CAVOK 04/M01 Q1023=
201809242020 METAR ESMX 242020Z 29006KT CAVOK 04/M01 Q1022=
201809241950 METAR ESMX 241950Z 29005KT CAVOK 05/M01 Q1022=
201809241920 METAR ESMX 241920Z 29005KT CAVOK 05/M01 Q1022=
201809241850 METAR ESMX 241850Z 29006KT CAVOK 05/M01 Q1021=
201809241820 METAR ESMX 241820Z 29005KT CAVOK 06/M01 Q1021=
201809241750 METAR ESMX 241750Z 31006KT CAVOK 07/M01 Q1020=
201809241720 METAR ESMX 241720Z 31007KT CAVOK 08/M01 Q1020=
201809241650 METAR ESMX 241650Z 31007KT CAVOK 09/M01 Q1019=
201809241620 METAR ESMX 241620Z 32010KT CAVOK 10/M02 Q1019=
201809241550 METAR ESMX 241550Z 32010KT CAVOK 10/M01 Q1018=
201809241520 METAR ESMX 241520Z 29012KT CAVOK 12/M03 Q1018=
201809241450 METAR ESMX 241450Z 28011KT CAVOK 12/M02 Q1017=
201809241420 METAR ESMX 241420Z 30012KT 260V330 CAVOK 12/M02 Q1017=
201809241350 METAR ESMX 241350Z 30012KT 250V330 CAVOK 12/M02 Q1017=
201809241320 METAR ESMX 241320Z 30012KT CAVOK 12/M02 Q1017=
201809241250 METAR ESMX 241250Z 30011KT 270V330 CAVOK 11/M02 Q1016=
201809241220 METAR ESMX 241220Z 29012KT CAVOK 13/00 Q1016=
201809241150 METAR ESMX 241150Z 31013G23KT CAVOK 12/M02 Q1016=
201809241120 METAR ESMX 241120Z 31013KT CAVOK 12/M00 Q1016=
201809241050 METAR ESMX 241050Z 31013KT CAVOK 11/M01 Q1015=
201809241020 METAR ESMX 241020Z 30013KT 260V340 CAVOK 11/M01 Q1015=
201809240950 METAR ESMX 240950Z 31012KT 280V340 CAVOK 10/M00 Q1015=
201809240920 METAR ESMX 240920Z 32011KT 290V350 CAVOK 10/01 Q1014=
201809240850 METAR ESMX 240850Z 31009KT CAVOK 09/03 Q1014=
201809240820 METAR ESMX 240820Z 31009KT 280V340 CAVOK 08/04 Q1013=
201809240750 METAR ESMX 240750Z 31010KT CAVOK 08/03 Q1013=
201809240720 METAR ESMX 240720Z 31007KT CAVOK 07/04 Q1012=
201809240650 METAR ESMX 240650Z 31007KT CAVOK 06/04 Q1012=
201809240620 METAR ESMX 240620Z 31006KT CAVOK 05/03 Q1011=
201809240550 METAR COR ESMX 240550Z 32004KT CAVOK 04/03 Q1011=
201809240520 METAR ESMX 240520Z AUTO 30005KT 9999 NCD 04/02 Q1010=
201809240450 METAR ESMX 240450Z 31007KT CAVOK 04/03 Q1010=
201809240420 METAR ESMX 240420Z 31005KT CAVOK 04/03 Q1009=
201809240350 METAR ESMX 240350Z 32007KT CAVOK 04/03 Q1009=
201809240320 METAR ESMX 240320Z AUTO 31006KT 9999 NCD 04/03 Q1008=
201809240250 METAR ESMX 240250Z AUTO 31006KT 9999 SCT098/// 05/03 Q1008=
201809240220 METAR ESMX 240220Z AUTO 31004KT 280V350 9999 OVC082/// 05/04 Q1008=
201809240150 METAR ESMX 240150Z AUTO 29005KT 9999 OVC076/// 04/03 Q1007=
201809240120 METAR ESMX 240120Z AUTO 30004KT 9999 BKN072/// 04/03 Q1007=
201809240050 METAR ESMX 240050Z AUTO 28005KT 9999 NCD 04/03 Q1006=
201809240020 METAR ESMX 240020Z AUTO 28005KT 9999 NCD 04/03 Q1006=
201809232350 METAR ESMX 232350Z AUTO 28004KT 9999 NCD 04/04 Q1006=
201809232320 METAR ESMX 232320Z AUTO 27005KT 9999 NCD 04/04 Q1005=
201809232250 METAR ESMX 232250Z AUTO 27005KT 9999 NCD 04/03 Q1005=
201809232220 METAR ESMX 232220Z AUTO 26004KT 9999 NCD 05/04 Q1005=
201809232150 METAR ESMX 232150Z AUTO 26005KT 9999 NCD 05/05 Q1005=
201809232120 METAR ESMX 232120Z AUTO 26005KT 9999 NCD 05/04 Q1004=
201809232050 METAR ESMX 232050Z AUTO 26005KT 9999 NCD 05/04 Q1004=
201809232020 METAR ESMX 232020Z AUTO 25003KT 9999 NCD 06/05 Q1004=
201809231950 METAR ESMX 231950Z 24004KT CAVOK 06/05 Q1004=
201809231920 METAR ESMX 231920Z VRB03KT CAVOK 07/05 Q1004=
201809231850 METAR COR ESMX 231850Z 25004KT CAVOK 07/05 Q1004=
201809231820 METAR ESMX 231820Z 25005KT CAVOK 08/05 Q1004=
201809231750 METAR ESMX 231750Z 25005KT CAVOK 08/05 Q1004=
201809231720 METAR ESMX 231720Z 22005KT CAVOK 09/06 Q1003=
201809231650 METAR ESMX 231650Z 23005KT CAVOK 09/06 Q1003=
201809231620 METAR ESMX 231620Z 23006KT CAVOK 11/07 Q1003=
201809231550 METAR ESMX 231550Z 24009KT 9999 SCT028 BKN036 12/06 Q1003=
201809231520 METAR ESMX 231520Z 01007KT 340V040 7000 -RA SCT031CB 09/06 Q1004 RESHRA=
201809231450 METAR ESMX 231450Z 25011KT 220V290 9999 FEW033CB 13/06 Q1004=
201809231420 METAR ESMX 231420Z 23010KT 9999 FEW031CB 14/06 Q1004=
201809231350 METAR ESMX 231350Z VRB03KT 9999 VCSH FEW011 12/06 Q1004=
201809231320 METAR ESMX 231320Z 25011KT 210V280 9999 FEW035CB 14/05 Q1004=
201809231250 METAR ESMX 231250Z 25013G23KT 220V280 9999 FEW027 SCT049 14/06 Q1004=
201809231220 METAR ESMX 231220Z 24010KT 190V280 9999 FEW045 13/07 Q1004=
201809231150 METAR ESMX 231150Z 23010KT 200V270 9999 -RA FEW025 13/06 Q1004=
201809231120 METAR ESMX 231120Z 23013KT 200V260 9999 FEW030 11/06 Q1005=
201809231050 METAR ESMX 231050Z 24013G23KT 9999 FEW029 12/06 Q1004=
201809231020 METAR ESMX 231020Z 24013G24KT 210V280 9999 SCT026 13/07 Q1004=
201809230950 METAR ESMX 230950Z 25012KT 220V280 9999 FEW024 12/07 Q1004=
201809230920 METAR ESMX 230920Z AUTO 24013KT 200V270 9999 BKN024/// 12/07 Q1004=
201809230850 METAR ESMX 230850Z AUTO 24015G25KT 9999 SCT023/// BKN032/// 12/07 Q1004=
201809230820 METAR ESMX 230820Z AUTO 25014KT 9999 BKN023/// 11/07 Q1004=
201809230750 METAR ESMX 230750Z AUTO 25013KT 220V280 9999 BKN018/// 11/08 Q1004=
201809230720 METAR ESMX 230720Z AUTO 24012KT 9999 NCD 11/07 Q1004=
201809230650 METAR ESMX 230650Z AUTO 24012KT 9999 NCD 10/07 Q1004=
201809230620 METAR ESMX 230620Z AUTO 24012KT 9999 NCD 09/08 Q1004=
201809230550 METAR ESMX 230550Z AUTO 24011KT 9999 NCD 09/07 Q1003=
201809230520 METAR ESMX 230520Z AUTO 24010KT 9999 FEW022/// 08/07 Q1003=
201809230450 METAR ESMX 230450Z AUTO 23011KT 9999 FEW012/// SCT017/// 08/07 Q1003=
201809230420 METAR ESMX 230420Z AUTO 22012KT 9999 NCD 08/07 Q1003=
201809230350 METAR ESMX 230350Z AUTO 22011KT 9999 FEW014/// SCT023/// BKN048/// 08/07 Q1003 REDZ REUP=
201809230320 METAR ESMX 230320Z AUTO 21010KT 9999 NCD 08/07 Q1004=
201809230250 METAR ESMX 230250Z AUTO 23011KT 9999 NCD 08/07 Q1004=
201809230220 METAR ESMX 230220Z AUTO 23010KT 9999 NCD 08/07 Q1004=
201809230150 METAR ESMX 230150Z AUTO 24010KT 9999 FEW013/// 08/07 Q1004=
201809230120 METAR ESMX 230120Z AUTO 23011KT 9999 NCD 09/07 Q1004=
201809230050 METAR ESMX 230050Z AUTO 23011KT 200V260 9999 SCT014/// 09/08 Q1004=
201809230020 METAR ESMX 230020Z AUTO 23010KT 9999 SCT014/// OVC020/// 09/08 Q1004=
201809222350 METAR ESMX 222350Z AUTO 23009KT 9999 FEW009/// SCT018/// 09/08 Q1004=
201809222320 METAR ESMX 222320Z AUTO 22010KT 9999 BKN009/// BKN012/// OVC019/// 09/08 Q1004=
201809222250 METAR ESMX 222250Z AUTO 21010KT 9999 SCT011/// BKN015/// 08/07 Q1004=
201809222220 METAR ESMX 222220Z AUTO 23013KT 9999 FEW012/// SCT028/// BKN044/// 09/08 Q1003 REDZ=
201809222150 METAR ESMX 222150Z AUTO 21012KT 9999 FEW025/// BKN038/// BKN130/// 08/07 Q1004 RESHUP RERA=
201809222120 METAR ESMX 222120Z AUTO 22011KT 9999 FEW029/// BKN046/// 08/07 Q1004=
201809222050 METAR ESMX 222050Z AUTO 19011KT 9999 -RA FEW007/// SCT024/// BKN034/// 08/07 Q1004 RESHUP RERA=
201809222020 METAR ESMX 222020Z AUTO 20012KT 160V230 9999 -RA FEW021/// SCT031/// BKN041/// 08/07 Q1004 REDZ=
201809221950 METAR ESMX 221950Z AUTO 19011KT 9999 FEW009/// BKN031/// OVC045/// 08/07 Q1004 REDZ REUP=
201809221920 METAR ESMX 221920Z 18009KT 9999 BKN045 08/06 Q1004=
201809221850 METAR ESMX 221850Z 20009KT 9999 BKN049 07/06 Q1005=
201809221820 METAR ESMX 221820Z 22010KT 200V260 9999 BKN048 08/06 Q1005=
201809221750 METAR ESMX 221750Z 24011G24KT 200V280 9999 -RA FEW014 BKN048 09/06 Q1005=
201809221720 METAR ESMX 221720Z 22009KT 180V250 9999 FEW047 08/06 Q1005=
201809221650 METAR ESMX 221650Z 21006KT CAVOK 08/06 Q1004=
201809221620 METAR ESMX 221620Z 23008KT 9999 FEW026 09/06 Q1004=
201809221550 METAR ESMX 221550Z 23007KT 9999 FEW031 SCT057 09/07 Q1005=
201809221520 METAR ESMX 221520Z 23008KT 200V260 9999 FEW040 10/07 Q1005=
201809221450 METAR ESMX 221450Z 25014KT 9999 FEW032 BKN051 11/04 Q1005=
201809221420 METAR ESMX 221420Z 24015KT 9999 FEW029 12/06 Q1005=
201809221350 METAR ESMX 221350Z AUTO 23017KT 210V270 9999 SCT030/// BKN076/// 12/06 Q1005=
201809221320 METAR ESMX 221320Z AUTO 24012KT 210V280 9999 FEW032/// 12/07 Q1005 RERA=
201809221250 METAR ESMX 221250Z 22014KT 9999 FEW043 12/07 Q1005=
201809221220 METAR ESMX 221220Z 22014KT 9999 -RA FEW047 10/07 Q1005=
201809221150 METAR ESMX 221150Z 23014KT 9999 VCSH FEW028 SCT049 10/07 Q1005=
201809221120 METAR ESMX 221120Z 24013G26KT 190V270 9999 -RA SCT027 12/06 Q1005=
201809221050 METAR ESMX 221050Z 25016KT 220V280 7000 VCSH FEW027 BKN045 10/06 Q1005=
201809221020 METAR ESMX 221020Z 24015KT 9999 FEW029 12/07 Q1005=
201809220950 METAR ESMX 220950Z 23018G31KT 210V280 9999 BKN025 12/07 Q1005=
201809220920 METAR ESMX 220920Z 24014G24KT 9999 FEW022 12/08 Q1004=
201809220850 METAR ESMX 220850Z 23014G25KT 200V270 9999 FEW025 SCT043 11/07 Q1004=
201809220820 METAR ESMX 220820Z 23011KT 200V260 9999 FEW034 11/08 Q1003=
201809220750 METAR ESMX 220750Z 23011KT 9999 FEW017 10/08 Q1003=
201809220720 METAR ESMX 220720Z 22014KT 9999 FEW013 SCT059 10/08 Q1003=
201809220650 METAR ESMX 220650Z AUTO 22013KT 9999 FEW015/// SCT035/// 09/07 Q1002 RERA=
201809220620 METAR ESMX 220620Z AUTO 22012KT 9999 FEW030/// BKN059/// 08/06 Q1002=
201809220550 METAR ESMX 220550Z AUTO 22012KT 9999 FEW031/// BKN045/// 08/07 Q1001 RERA=
201809220520 METAR ESMX 220520Z AUTO 23013KT 9999 FEW019/// BKN033/// OVC048/// 08/06 Q1001=
201809220450 METAR ESMX 220450Z AUTO 22012KT 9999 -RA FEW027/// BKN037/// BKN045/// 09/07 Q1000 RESHUP REUP=
201809220420 METAR ESMX 220420Z AUTO 21014KT 9999 SCT038/// BKN053/// 09/06 Q1000=
201809220350 METAR ESMX 220350Z AUTO 23013KT 9999 FEW053/// SCT140/// 09/06 Q0999=
201809220320 METAR ESMX 220320Z AUTO 22015KT 9999 FEW010/// SCT032/// BKN051/// 09/07 Q0999=
201809220250 METAR ESMX 220250Z AUTO 22013KT 9999 SCT010/// BKN030/// 09/07 Q0999=
201809220220 METAR ESMX 220220Z AUTO 20014KT 9999 SCT012/// BKN032/// 08/07 Q0999=
201809220150 METAR ESMX 220150Z AUTO 20015KT 9999 FEW011/// SCT034/// 08/07 Q0999=
201809220120 METAR ESMX 220120Z AUTO 20015KT 9999 NCD 09/06 Q0998=
201809220050 METAR ESMX 220050Z AUTO 21015KT 9999 FEW014/// 09/07 Q0998=
201809220020 METAR ESMX 220020Z AUTO 21013KT 9999 FEW011/// SCT044/// 09/07 Q0998=
201809212350 METAR ESMX 212350Z AUTO 20014KT 9999 SCT012/// 09/08 Q0998=
201809212320 METAR ESMX 212320Z 20017KT 9999 BKN014 OVC022 09/08 Q0998=
201809212250 METAR ESMX 212250Z 20015KT 9999 BKN020 OVC035 10/07 Q0997=
201809212220 METAR ESMX 212220Z 20016KT 9999 SCT020 BKN028 10/07 Q0997=
201809212150 METAR COR ESMX 212150Z 20016KT 9999 FEW025 09/07 Q0997=
201809212120 METAR COR ESMX 212120Z 20016KT 9999 FEW018 SCT045 10/07 Q0997=
201809212050 METAR ESMX 212050Z AUTO 20016KT 9999 NCD 10/08 Q0997=
201809212020 METAR ESMX 212020Z AUTO 19012KT 9999 NCD 10/09 Q0997=
201809211950 METAR ESMX 211950Z 20013KT CAVOK 11/09 Q0997=
201809211920 METAR COR ESMX 211920Z 19012KT 9999 FEW025 11/10 Q0997=
201809211850 METAR ESMX 211850Z 19011KT 9999 FEW014 SCT051 11/10 Q0997=
201809211820 METAR COR ESMX 211820Z 19011KT 9999 FEW014 BKN048 11/10 Q0997=
201809211750 METAR ESMX 211750Z 19011KT CAVOK 11/10 Q0997=
201809211720 METAR COR ESMX 211720Z 20010KT CAVOK 11/10 Q0997=
201809211650 METAR ESMX 211650Z 20009KT 9999 FEW026 BKN076 11/10 Q0997=
201809211620 METAR ESMX 211620Z 23010KT 9999 -RA OVC074 12/10 Q0997=
201809211550 METAR ESMX 211550Z 23017G29KT 9999 -RA FEW035 BKN051 13/11 Q0997=
201809211520 METAR ESMX 211520Z 22017G28KT 200V260 8000 RA BKN048 OVC076 15/13 Q0997=
201809211450 METAR ESMX 211450Z 23016KT 200V260 9999 -RA BKN044 17/14 Q0996=
201809211420 METAR ESMX 211420Z 20014KT 9999 BKN049 21/12 Q0996=
201809211350 METAR ESMX 211350Z 18016KT CAVOK 22/13 Q0996=
201809211320 METAR ESMX 211320Z 17015KT CAVOK 22/14 Q0996=
201809211250 METAR ESMX 211250Z 17014KT CAVOK 22/13 Q0996=
201809211220 METAR ESMX 211220Z 17019KT CAVOK 22/13 Q0997=
201809211150 METAR ESMX 211150Z 17017G27KT CAVOK 23/14 Q0997=
201809211120 METAR ESMX 211120Z 17019G31KT CAVOK 23/13 Q0997=
201809211050 METAR ESMX 211050Z 16015KT 130V190 CAVOK 22/13 Q0998=
201809211020 METAR ESMX 211020Z 17016G26KT CAVOK 21/12 Q0998=
201809210950 METAR ESMX 210950Z 17012KT 140V200 CAVOK 21/13 Q0999=
201809210920 METAR ESMX 210920Z 17010KT 140V200 CAVOK 21/13 Q0999=
201809210850 METAR ESMX 210850Z 17010KT 150V210 CAVOK 20/14 Q1000=
201809210820 METAR ESMX 210820Z 15012KT CAVOK 20/13 Q1001=
201809210750 METAR ESMX 210750Z 15012KT CAVOK 19/13 Q1001=
201809210720 METAR ESMX 210720Z 15011KT CAVOK 18/14 Q1002=
201809210650 METAR ESMX 210650Z 15010KT CAVOK 17/14 Q1003=
201809210620 METAR ESMX 210620Z 14010KT CAVOK 16/14 Q1003=
201809210550 METAR ESMX 210550Z 15009KT CAVOK 15/14 Q1004=
201809210520 METAR ESMX 210520Z 14009KT CAVOK 15/14 Q1004=
201809210450 METAR ESMX 210450Z 15009KT CAVOK 15/14 Q1005=
201809210420 METAR COR ESMX 210420Z 14010KT CAVOK 15/14 Q1005=
201809210350 METAR ESMX 210350Z AUTO 15008KT 9999 NCD 15/14 Q1006=
201809210320 METAR ESMX 210320Z AUTO 15007KT 9999 NCD 15/14 Q1006=
201809210250 METAR ESMX 210250Z AUTO 15009KT 9999 FEW053/// 16/14 Q1006=
201809210220 METAR ESMX 210220Z AUTO 14008KT 9999 OVC051/// 15/14 Q1007=
201809210150 METAR ESMX 210150Z AUTO 16007KT 9999 OVC049/// 15/14 Q1008=
201809210120 METAR ESMX 210120Z AUTO 16005KT 9999 OVC049/// 15/14 Q1008=
201809210050 METAR ESMX 210050Z AUTO 16005KT 9999 OVC051/// 15/14 Q1009=
201809210020 METAR ESMX 210020Z AUTO 16006KT 9999 OVC053/// 15/14 Q1009=
201809202350 METAR ESMX 202350Z AUTO 16006KT 9999 OVC055/// 15/14 Q1009=
201809202320 METAR COR ESMX 202320Z 18008KT CAVOK 15/14 Q1009=
201809202250 METAR ESMX 202250Z 18010KT 9999 SCT043 BKN062 15/14 Q1010=
201809202220 METAR COR ESMX 202220Z 18012KT 9999 BKN005 15/14 Q1010=
201809202150 METAR ESMX 202150Z AUTO 15007KT 9999 -RA SCT003/// BKN006/// OVC049/// 14/14 Q1010 REDZ=
201809202120 METAR ESMX 202120Z AUTO 15005KT 9999 FEW004/// SCT046/// BKN059/// 14/13 Q1010=
201809202050 METAR ESMX 202050Z 16005KT 9999 BKN005 14/13 Q1011=
201809202020 METAR ESMX 202020Z 16005KT 9999 SCT005 BKN015 OVC025 14/13 Q1011=
201809201950 METAR COR ESMX 201950Z 17005KT 140V200 9999 BKN005 14/13 Q1011=
201809201920 METAR COR ESMX 201920Z 17006KT 9999 BKN005 14/13 Q1011=
201809201850 METAR ESMX 201850Z AUTO 18007KT 9999 BKN005/// BKN007/// OVC027/// 14/13 Q1011 REDZ=
201809201820 METAR ESMX 201820Z 20006KT 9000 BR OVC006 14/13 Q1011=
201809201750 METAR COR ESMX 201750Z 20006KT 9999 FEW006 BKN033 14/13 Q1011=
201809201720 METAR ESMX 201720Z 21006KT 7000 -DZ BKN016 14/13 Q1011=
201809201650 METAR ESMX 201650Z 21008KT 5000 -DZ SCT005 BKN007 14/13 Q1011=
201809201620 METAR ESMX 201620Z 22007KT 5000 -DZ SCT009 BKN013 14/13 Q1011=
201809201550 METAR ESMX 201550Z 21007KT 8000 -DZ SCT008 BKN012 14/14 Q1012=
201809201520 METAR ESMX 201520Z 21009KT 9999 BKN036 14/14 Q1011=
201809201450 METAR ESMX 201450Z 24007KT 8000 FEW008 BKN026 14/14 Q1012=
201809201420 METAR ESMX 201420Z 22008KT 190V260 4800 -DZ BKN022 14/14 Q1012=
201809201350 METAR ESMX 201350Z 24009KT 5000 -RA SCT003 BKN035 14/13 Q1012=
201809201320 METAR ESMX 201320Z 24010KT 230V290 6000 -RA BKN010 15/14 Q1011=
201809201250 METAR ESMX 201250Z 23008KT 9000 -RA SCT009 BKN012 15/14 Q1011=
201809201220 METAR ESMX 201220Z 24008KT 210V290 7000 -RA FEW008 SCT013 OVC024 16/15 Q1011=
201809201150 METAR ESMX 201150Z 24007KT 200V260 6000 -RA FEW002 BKN018 BKN022 16/15 Q1011=
201809201120 METAR ESMX 201120Z 25007KT 6000 +DZ FEW002 BKN021 OVC028 16/15 Q1011=
201809201050 METAR ESMX 201050Z 21010KT 8000 -SHRA BKN020 17/15 Q1011=
201809201020 METAR COR ESMX 201020Z 21013KT 9999 -SHRA FEW026CB BKN027 18/13 Q1011=
201809200950 METAR ESMX 200950Z 20012KT 9999 BKN024 OVC033 18/13 Q1011=
201809200920 METAR ESMX 200920Z 21013KT 9999 BKN024 19/13 Q1011=
201809200850 METAR COR ESMX 200850Z 21013KT 9999 BKN025 18/14 Q1011=
201809200820 METAR ESMX 200820Z 21015KT 9999 SCT033 BKN053 18/13 Q1011=
201809200750 METAR ESMX 200750Z 21015G27KT 170V250 9999 FEW018 SCT035 18/13 Q1011=
201809200720 METAR ESMX 200720Z 19013KT 9999 FEW014 17/14 Q1011=
201809200650 METAR ESMX 200650Z 19011KT 9999 FEW012 SCT040 16/14 Q1011=
201809200620 METAR ESMX 200620Z 19009KT 9999 FEW012 SCT052 16/14 Q1011=
201809200550 METAR COR ESMX 200550Z 21010KT 9999 FEW010 SCT017 BKN043 16/14 Q1011=
201809200520 METAR ESMX 200520Z 22012KT 9999 -SHRA SCT010CB BKN014 15/13 Q1011=
201809200450 METAR ESMX 200450Z 20012KT 9999 BKN017 15/13 Q1010=
201809200420 METAR ESMX 200420Z 20011KT 9999 SCT020 15/13 Q1010=
201809200350 METAR ESMX 200350Z 18011KT CAVOK 15/13 Q1010=
201809200320 METAR ESMX 200320Z AUTO 19010KT 9999 NCD 15/13 Q1010=
201809200250 METAR ESMX 200250Z AUTO 19012KT 9999 SCT033/// 15/13 Q1010=
201809200220 METAR ESMX 200220Z AUTO 21012KT 9999 BKN027/// 16/13 Q1010=
201809200150 METAR ESMX 200150Z AUTO 19012KT 9999 NCD 15/12 Q1010=
201809200120 METAR ESMX 200120Z AUTO 19012KT 9999 NCD 16/12 Q1010=
201809200050 METAR ESMX 200050Z AUTO 18011KT 9999 NCD 16/12 Q1010=
201809200020 METAR ESMX 200020Z AUTO 18011KT 9999 NCD 16/12 Q1011=
201809192350 METAR ESMX 192350Z AUTO 18012KT 9999 FEW061/// 17/12 Q1011=
201809192320 METAR ESMX 192320Z AUTO 19012KT 9999 BKN062/// 17/13 Q1011=
201809192250 METAR ESMX 192250Z AUTO 19011KT 9999 OVC057/// 17/13 Q1012=
201809192220 METAR ESMX 192220Z AUTO 21012KT 9999 BKN045/// OVC055/// 17/13 Q1012=
201809192150 METAR ESMX 192150Z AUTO 21012KT 9999 FEW030/// BKN040/// OVC072/// 17/13 Q1012=
201809192120 METAR ESMX 192120Z 18009KT 9999 SCT053 BKN070 16/13 Q1012=
201809192050 METAR ESMX 192050Z 17008KT 9999 FEW048 16/13 Q1012=
201809192020 METAR ESMX 192020Z 16008KT 9999 FEW048 SCT074 17/13 Q1012=
201809191950 METAR ESMX 191950Z 17009KT CAVOK 17/13 Q1012=
201809191920 METAR ESMX 191920Z 17009KT CAVOK 17/13 Q1013=
201809191850 METAR ESMX 191850Z 18009KT 9999 FEW037 17/13 Q1013=
201809191820 METAR ESMX 191820Z 17008KT CAVOK 18/13 Q1013=
201809191750 METAR ESMX 191750Z 18007KT CAVOK 17/13 Q1013=
201809191720 METAR ESMX 191720Z 21007KT CAVOK 18/13 Q1013=
201809191650 METAR ESMX 191650Z 20009KT CAVOK 19/13 Q1013=
201809191620 METAR ESMX 191620Z 22012KT 9999 SCT039 20/13 Q1013=
201809191550 METAR ESMX 191550Z 21010KT 9999 SCT037 21/13 Q1013=
201809191520 METAR ESMX 191520Z 19012KT 9999 FEW035 21/13 Q1012=
201809191450 METAR ESMX 191450Z 21012KT 9999 SCT035 21/13 Q1013=
201809191420 METAR ESMX 191420Z 21014KT 9999 SCT037 21/13 Q1013=
201809191350 METAR ESMX 191350Z AUTO 21011KT 9999 BKN040/// OVC051/// 21/13 Q1013=
201809191320 METAR ESMX 191320Z 21009KT 9999 BKN034 21/13 Q1013=
201809191250 METAR ESMX 191250Z 23010KT 200V260 9999 SCT035 22/13 Q1013=
201809191220 METAR ESMX 191220Z 25010KT 9999 SCT033 20/13 Q1014=
201809191150 METAR ESMX 191150Z 23011KT 9999 SCT030 21/13 Q1014=
201809191120 METAR ESMX 191120Z 23011KT 9999 BKN029 21/14 Q1013=
201809191050 METAR ESMX 191050Z 21011KT 9999 SCT027 21/14 Q1013=
201809191020 METAR ESMX 191020Z 23010KT 200V280 9999 SCT025 BKN180 19/14 Q1013=
201809190950 METAR ESMX 190950Z 23010KT 9999 BKN022 19/14 Q1013=
201809190920 METAR ESMX 190920Z 21011KT 180V250 9999 BKN019 19/13 Q1013=
201809190850 METAR ESMX 190850Z 21012KT 9999 BKN016 18/14 Q1013=
201809190820 METAR ESMX 190820Z 23010KT 200V260 9999 SCT014 BKN020 18/14 Q1013=
201809190750 METAR ESMX 190750Z 24010KT 210V280 9999 BKN011 17/14 Q1013=
201809190720 METAR ESMX 190720Z 22010KT 9999 FEW009 SCT032 17/14 Q1013=
201809190650 METAR ESMX 190650Z 24010KT 9999 SCT008 OVC029 16/14 Q1013=
201809190620 METAR COR ESMX 190620Z 22008KT 200V260 9999 BKN007 16/14 Q1012=
201809190550 METAR ESMX 190550Z AUTO 21008KT 9999 BKN007/// BKN010/// OVC013/// 15/14 Q1012=
201809190520 METAR ESMX 190520Z 22006KT 9999 SCT007 BKN011 15/14 Q1011=
201809190450 METAR ESMX 190450Z 22007KT 9999 BKN007 15/14 Q1011=
201809190420 METAR ESMX 190420Z 21007KT 9999 BKN007 15/14 Q1011=
201809190350 METAR ESMX 190350Z 22010KT 9999 BKN007 15/14 Q1011=
201809190320 METAR ESMX 190320Z 20007KT 160V230 9999 BKN007 15/14 Q1011=
201809190250 METAR ESMX 190250Z AUTO 19006KT 9999 OVC031/// 14/14 Q1011=
201809190220 METAR ESMX 190220Z AUTO 19006KT 9999 OVC031/// 14/13 Q1011=
201809190150 METAR ESMX 190150Z AUTO 19006KT 9999 BKN032/// 13/12 Q1010=
201809190120 METAR ESMX 190120Z AUTO 20006KT 9999 FEW031/// 14/12 Q1010=
201809190050 METAR ESMX 190050Z 19005KT CAVOK 13/12 Q1010=
201809190020 METAR ESMX 190020Z 21005KT CAVOK 13/11 Q1010=
201809182350 METAR ESMX 182350Z 20005KT CAVOK 13/11 Q1010=
201809182320 METAR ESMX 182320Z 17006KT CAVOK 15/11 Q1010=
201809182250 METAR ESMX 182250Z AUTO 21006KT 9999 NCD 15/11 Q1010=
201809182220 METAR ESMX 182220Z AUTO 21007KT 9999 NCD 15/11 Q1010=
201809182150 METAR ESMX 182150Z AUTO 19008KT 9999 NCD 16/11 Q1010=
201809182120 METAR ESMX 182120Z AUTO 17008KT 9999 NCD 17/11 Q1009=
201809182050 METAR ESMX 182050Z 17008KT CAVOK 17/12 Q1010=
201809182020 METAR ESMX 182020Z 16008KT CAVOK 17/12 Q1010=
201809181950 METAR ESMX 181950Z 16007KT CAVOK 18/12 Q1010=
201809181920 METAR ESMX 181920Z 16007KT CAVOK 18/12 Q1010=
201809181850 METAR ESMX 181850Z 16008KT CAVOK 18/12 Q1010=
201809181820 METAR ESMX 181820Z 15009KT CAVOK 19/11 Q1010=
201809181750 METAR ESMX 181750Z 15009KT CAVOK 19/12 Q1010=
201809181720 METAR ESMX 181720Z 16008KT CAVOK 20/12 Q1010=
201809181650 METAR ESMX 181650Z 17009KT CAVOK 21/11 Q1010=
201809181620 METAR ESMX 181620Z 17007KT CAVOK 22/11 Q1010=
201809181550 METAR ESMX 181550Z 17010KT CAVOK 23/09 Q1010=
201809181520 METAR ESMX 181520Z 19010KT 140V210 CAVOK 24/09 Q1011=
201809181450 METAR ESMX 181450Z 17014KT CAVOK 24/10 Q1011=
201809181420 METAR ESMX 181420Z 18014KT CAVOK 25/10 Q1011=
201809181350 METAR ESMX 181350Z 18014KT CAVOK 25/10 Q1011=
201809181320 METAR COR ESMX 181320Z 18016KT CAVOK 25/09 Q1011=
201809181250 METAR ESMX 181250Z 19012KT 150V220 CAVOK 25/10 Q1012=
201809181220 METAR ESMX 181220Z 19012KT 160V230 CAVOK 25/10 Q1012=
201809181150 METAR ESMX 181150Z 20013KT CAVOK 24/10 Q1013=
201809181120 METAR ESMX 181120Z 18016KT CAVOK 24/09 Q1013=
201809181050 METAR ESMX 181050Z 19013KT CAVOK 23/10 Q1013=
201809181020 METAR COR ESMX 181020Z 19010KT 150V210 CAVOK 23/11 Q1013=
201809180950 METAR ESMX 180950Z 18010KT 150V210 CAVOK 22/11 Q1014=
201809180920 METAR ESMX 180920Z 18011KT CAVOK 21/11 Q1014=
201809180850 METAR ESMX 180850Z 17010KT CAVOK 20/11 Q1014=
201809180820 METAR ESMX 180820Z 17009KT CAVOK 19/10 Q1014=
201809180750 METAR ESMX 180750Z 18008KT CAVOK 18/10 Q1014=
201809180720 METAR ESMX 180720Z 17007KT CAVOK 17/11 Q1015=
201809180650 METAR ESMX 180650Z 18006KT CAVOK 16/11 Q1015=
201809180620 METAR ESMX 180620Z 19005KT CAVOK 15/12 Q1015=
201809180550 METAR ESMX 180550Z 18005KT 9999 BKN030 14/12 Q1015=
201809180520 METAR ESMX 180520Z 18007KT 9999 OVC029 14/12 Q1015=
201809180450 METAR ESMX 180450Z 19007KT 9999 OVC028 14/13 Q1015=
201809180420 METAR ESMX 180420Z 21007KT 9999 OVC029 14/13 Q1015=
201809180350 METAR ESMX 180350Z 19007KT 9999 OVC029 14/13 Q1015=
201809180320 METAR ESMX 180320Z AUTO 19007KT 9999 BKN026/// BKN046/// 14/13 Q1015=
201809180250 METAR ESMX 180250Z AUTO 19007KT 9999 OVC048/// 14/13 Q1015=
201809180220 METAR ESMX 180220Z AUTO 19004KT 9000 BR OVC053/// 14/13 Q1015=
201809180150 METAR ESMX 180150Z AUTO 17005KT 9000 FEW019/// 14/13 Q1015=
201809180120 METAR ESMX 180120Z AUTO 20004KT 9999 FEW019/// BKN042/// OVC220/// 14/13 Q1015=
201809180050 METAR ESMX 180050Z AUTO 18006KT 9999 BKN019/// BKN025/// OVC045/// 14/13 Q1015=
201809180020 METAR ESMX 180020Z AUTO 19005KT 9999 FEW018/// SCT039/// BKN180/// 14/13 Q1015=
201809172350 METAR ESMX 172350Z AUTO 19005KT 9999 SCT021/// BKN043/// 14/12 Q1015=
201809172320 METAR ESMX 172320Z AUTO 18006KT 9999 SCT018/// BKN024/// BKN045/// 14/11 Q1015=
201809172250 METAR ESMX 172250Z AUTO 18004KT 9999 FEW016/// SCT019/// 11/10 Q1016=
201809172220 METAR ESMX 172220Z AUTO 18004KT 9999 FEW023/// SCT055/// BKN170/// 13/10 Q1015=
201809172150 METAR ESMX 172150Z AUTO 18005KT 9999 BKN017/// OVC024/// 13/09 Q1016=
201809172120 METAR ESMX 172120Z AUTO 17004KT 9999 BKN019/// OVC027/// 14/09 Q1016=
201809172050 METAR ESMX 172050Z AUTO 20004KT 9999 BKN032/// OVC040/// 13/09 Q1016=
201809172020 METAR ESMX 172020Z 21004KT 9999 SCT034 13/09 Q1016=
201809171950 METAR ESMX 171950Z 22003KT 9999 SCT045 13/08 Q1016=
201809171920 METAR ESMX 171920Z 20005KT CAVOK 12/08 Q1016=
201809171850 METAR ESMX 171850Z 21006KT CAVOK 12/08 Q1016=
201809171820 METAR ESMX 171820Z 19006KT CAVOK 12/09 Q1016=
201809171750 METAR ESMX 171750Z 21005KT CAVOK 13/08 Q1016=
201809171720 METAR ESMX 171720Z 22003KT CAVOK 13/09 Q1016=
201809171650 METAR ESMX 171650Z 23005KT CAVOK 14/08 Q1015=
201809171620 METAR ESMX 171620Z 26007KT 220V280 CAVOK 16/08 Q1015=
201809171550 METAR ESMX 171550Z 26007KT CAVOK 16/08 Q1015=
201809171520 METAR ESMX 171520Z 25008KT 200V270 CAVOK 17/07 Q1015=
201809171450 METAR ESMX 171450Z 26009KT 230V290 CAVOK 17/08 Q1015=
201809171420 METAR COR ESMX 171420Z 25009KT CAVOK 18/08 Q1015=
201809171350 METAR ESMX 171350Z 24010KT 210V280 CAVOK 18/09 Q1015=
201809171320 METAR ESMX 171320Z 27011KT CAVOK 18/08 Q1015=
201809171250 METAR ESMX 171250Z 23011KT CAVOK 18/09 Q1015=
201809171220 METAR ESMX 171220Z 25013KT 230V290 9999 FEW035 BKN160 18/10 Q1015=
201809171150 METAR ESMX 171150Z 25012KT 210V280 9999 SCT031 BKN150 18/09 Q1015=
201809171120 METAR ESMX 171120Z 24012KT 200V290 9999 SCT028 BKN035 18/10 Q1015=
201809171050 METAR ESMX 171050Z 24013KT 210V280 9999 BKN029 17/10 Q1015=
201809171020 METAR COR ESMX 171020Z 26013KT 220V290 9999 SCT026 BKN150 17/10 Q1014=
201809170950 METAR ESMX 170950Z 23013KT 9999 SCT027 BKN120 17/10 Q1014=
201809170920 METAR COR ESMX 170920Z 25012KT 9999 BKN025 16/10 Q1014=
201809170850 METAR ESMX 170850Z 25013KT 9999 SCT019 BKN030 17/11 Q1014=
201809170820 METAR ESMX 170820Z 25014KT 210V280 9999 BKN017 BKN025 16/11 Q1014=
201809170750 METAR ESMX 170750Z 24010KT 9999 SCT016 BKN020 16/13 Q1013=
201809170720 METAR ESMX 170720Z 24010KT 200V280 9999 SCT013 BKN190 15/13 Q1013=
201809170650 METAR ESMX 170650Z 23010KT 9999 BKN010 BKN016 OVC120 15/13 Q1013=
201809170620 METAR ESMX 170620Z 21010KT 9999 SCT010 BKN120 15/13 Q1013=
201809170550 METAR ESMX 170550Z 22009KT 9999 SCT010 BKN140 14/13 Q1013=
201809170520 METAR ESMX 170520Z 22009KT 9999 BKN012 14/13 Q1013=
201809170450 METAR ESMX 170450Z 22009KT 9999 BKN010 OVC014 14/13 Q1013=
201809170420 METAR ESMX 170420Z 22012KT 9999 OVC011 14/12 Q1012=
201809170350 METAR ESMX 170350Z 22011KT 9999 OVC011 14/12 Q1013=
201809170320 METAR ESMX 170320Z AUTO 20012KT 9999 BKN013/// OVC016/// 14/12 Q1013 REDZ=
201809170250 METAR ESMX 170250Z AUTO 20011KT 9999 -RA FEW006/// OVC019/// 13/12 Q1013=
201809170220 METAR ESMX 170220Z AUTO 20011KT 9999 FEW005/// BKN022/// OVC027/// 13/12 Q1013=
201809170150 METAR ESMX 170150Z AUTO 20011KT 9999 BKN032/// OVC045/// 13/12 Q1013 RERA=
201809170120 METAR ESMX 170120Z AUTO 20013KT 8000 -RA FEW034/// OVC046/// 13/12 Q1013 REDZ=
201809170050 METAR ESMX 170050Z AUTO 19012KT 9999 FEW016/// BKN053/// OVC057/// 14/11 Q1013=
201809170020 METAR ESMX 170020Z AUTO 20011KT 9999 BKN053/// OVC072/// 14/11 Q1014=
201809162350 METAR ESMX 162350Z AUTO 19012KT 9999 BKN055/// BKN100/// 14/11 Q1014=
201809162320 METAR ESMX 162320Z AUTO 19012KT 9999 BKN059/// OVC078/// 14/11 Q1015=
201809162250 METAR ESMX 162250Z AUTO 19011KT 9999 BKN062/// OVC086/// 14/11 Q1015=
201809162220 METAR ESMX 162220Z AUTO 19013KT 9999 BKN074/// OVC098/// 14/10 Q1015=
201809162150 METAR ESMX 162150Z AUTO 18011KT 9999 FEW068/// BKN098/// 13/10 Q1015=
201809162120 METAR ESMX 162120Z AUTO 18010KT 9999 SCT031/// BKN062/// 13/10 Q1016=
201809162050 METAR ESMX 162050Z AUTO 17009KT 9999 FEW035/// SCT041/// BKN076/// 13/10 Q1016=
201809162020 METAR ESMX 162020Z AUTO 17010KT 9999 FEW100/// SCT110/// 13/10 Q1016=
201809161950 METAR ESMX 161950Z AUTO 18010KT 9999 DZ FEW051/// BKN086/// 13/10 Q1017=
201809161920 METAR ESMX 161920Z 17008KT 9999 -RA FEW048 BKN086 13/09 Q1017=
201809161850 METAR ESMX 161850Z 17008KT 9999 -RA FEW048 BKN084 12/09 Q1018=
201809161820 METAR ESMX 161820Z 16006KT 9999 -RA FEW043 BKN080 12/09 Q1018=
201809161750 METAR ESMX 161750Z 16007KT 9999 -RA FEW039 OVC060 13/08 Q1018=
201809161720 METAR ESMX 161720Z 16006KT 9999 -RA FEW040 BKN055 13/08 Q1018=
201809161650 METAR ESMX 161650Z 17007KT 9999 FEW030 BKN043 13/07 Q1018=
201809161620 METAR ESMX 161620Z 18007KT 9999 BKN030 14/07 Q1018=
201809161550 METAR ESMX 161550Z 21007KT 9999 BKN040 OVC130 14/07 Q1019=
201809161520 METAR ESMX 161520Z AUTO 20007KT 9999 FEW038/// SCT120/// 14/07 Q1019=
201809161450 METAR ESMX 161450Z 20008KT 160V230 9999 BKN043 15/07 Q1019=
201809161420 METAR ESMX 161420Z 21007KT 190V250 9999 FEW038 BKN048 15/06 Q1019=
201809161350 METAR ESMX 161350Z 19008KT 9999 FEW034 BKN045 15/07 Q1019=
201809161320 METAR ESMX 161320Z 20009KT 9999 SCT035 BKN055 14/07 Q1020=
201809161250 METAR ESMX 161250Z 22008KT 190V250 9999 FEW032 BKN050 15/07 Q1020=
201809161220 METAR ESMX 161220Z 22009KT 190V260 9999 FEW040 BKN050 14/07 Q1020=
201809161150 METAR ESMX 161150Z 24008KT 9999 FEW032 BKN050 14/07 Q1020=
201809161120 METAR ESMX 161120Z 23009KT 9999 BKN048 14/07 Q1020=
201809161050 METAR ESMX 161050Z 24010KT 210V280 9999 FEW042 SCT057 15/06 Q1020=
201809161020 METAR ESMX 161020Z 23012KT 190V260 9999 FEW035 BKN055 14/06 Q1020=
201809160950 METAR ESMX 160950Z 26009KT 210V290 9999 FEW034 SCT044 13/07 Q1020=
201809160920 METAR ESMX 160920Z 25010KT 9999 SCT025 13/07 Q1021=
201809160850 METAR ESMX 160850Z 23010KT 9999 FEW024 SCT040 13/08 Q1021=
201809160820 METAR ESMX 160820Z 24008KT 9999 FEW020 13/08 Q1021=
201809160750 METAR ESMX 160750Z 23007KT CAVOK 12/09 Q1020=
201809160720 METAR ESMX 160720Z 23005KT CAVOK 11/09 Q1020=
201809160650 METAR ESMX 160650Z 22005KT CAVOK 09/08 Q1020=
201809160620 METAR ESMX 160620Z 22006KT CAVOK 08/07 Q1020=
201809160550 METAR ESMX 160550Z AUTO 19004KT 9999 NCD 07/06 Q1020=
201809160520 METAR ESMX 160520Z AUTO 22004KT 8000 NCD 06/05 Q1020=
201809160450 METAR ESMX 160450Z AUTO 22004KT 2900 NCD 05/05 Q1020=
201809160420 METAR ESMX 160420Z AUTO 23005KT 9999 NCD 05/05 Q1020=
201809160350 METAR ESMX 160350Z AUTO 22005KT 7000 NCD 05/05 Q1020=
201809160320 METAR ESMX 160320Z AUTO 21006KT 9999 NCD 06/05 Q1020=
201809160250 METAR ESMX 160250Z AUTO 23004KT 9999 NCD 06/05 Q1019=
201809160220 METAR ESMX 160220Z AUTO 23005KT 9999 NCD 06/05 Q1019=
201809160150 METAR ESMX 160150Z AUTO 22006KT 9999 NCD 06/06 Q1019=
201809160120 METAR ESMX 160120Z AUTO 22006KT 9999 NCD 07/06 Q1019=
201809160050 METAR ESMX 160050Z AUTO 23006KT 9999 NCD 07/06 Q1019=
201809160020 METAR ESMX 160020Z AUTO 23006KT 9999 NCD 07/06 Q1019=
201809152350 METAR ESMX 152350Z AUTO 24006KT 9999 NCD 08/07 Q1019=
201809152320 METAR ESMX 152320Z AUTO 25006KT 9999 NCD 08/07 Q1019=
201809152250 METAR ESMX 152250Z AUTO 24007KT 9999 NCD 08/07 Q1018=
201809152220 METAR ESMX 152220Z AUTO 24006KT 9999 NCD 07/06 Q1019=
201809152150 METAR ESMX 152150Z AUTO 24006KT 9999 NCD 07/07 Q1018=
201809152120 METAR ESMX 152120Z AUTO 23005KT 9999 NCD 07/06 Q1018=
201809152050 METAR ESMX 152050Z AUTO 22006KT 9999 NCD 07/06 Q1018=
201809152020 METAR ESMX 152020Z AUTO 22005KT 9999 NCD 07/06 Q1018=
201809151950 METAR ESMX 151950Z AUTO 20005KT 9999 NCD 08/06 Q1018=
201809151920 METAR ESMX 151920Z 22006KT CAVOK 08/06 Q1017=
201809151850 METAR ESMX 151850Z 24005KT CAVOK 09/06 Q1017=
201809151820 METAR ESMX 151820Z 24005KT CAVOK 09/06 Q1017=
201809151750 METAR ESMX 151750Z 25005KT CAVOK 11/05 Q1017=
201809151720 METAR ESMX 151720Z 26008KT 220V280 CAVOK 12/05 Q1016=
201809151650 METAR ESMX 151650Z 26009KT 9999 FEW035 13/06 Q1016=
201809151620 METAR ESMX 151620Z 26010KT 230V290 9999 FEW035 14/07 Q1015=
201809151550 METAR ESMX 151550Z 27008KT 9999 FEW040 13/07 Q1015=
201809151520 METAR ESMX 151520Z 27008KT CAVOK 14/07 Q1015=
201809151450 METAR ESMX 151450Z 25009KT 210V280 9999 SCT045 15/07 Q1014=
201809151420 METAR ESMX 151420Z 26008KT 9999 FEW036 15/08 Q1014=
201809151350 METAR ESMX 151350Z 26010KT 9999 FEW045 15/09 Q1014=
201809151320 METAR ESMX 151320Z 25007KT 9999 SCT035CB 14/11 Q1014=
201809151250 METAR ESMX 151250Z 30006KT 260V340 9999 -SHRA FEW035CB SCT060 13/10 Q1014=
201809151220 METAR ESMX 151220Z 24008KT 9999 FEW020 SCT038 14/10 Q1014=
201809151150 METAR ESMX 151150Z 24008KT 210V280 9999 FEW020 SCT045 14/11 Q1014=
201809151120 METAR ESMX 151120Z 26009KT 9999 -SHRA SCT016 BKN038 13/10 Q1013=
201809151050 METAR ESMX 151050Z 26006KT 9999 FEW010 BKN035 13/11 Q1013=
201809151020 METAR ESMX 151020Z 24005KT 9999 -SHRA SCT045 BKN060 12/10 Q1013=
201809150950 METAR ESMX 150950Z 24007KT 9999 -SHRA FEW006 SCT020 BKN045 12/11 Q1013=
201809150920 METAR ESMX 150920Z 25007KT 6000 SHRA BKN008 12/10 Q1013=
201809150850 METAR ESMX 150850Z 21007KT 9999 BKN008 13/12 Q1013=
201809150820 METAR ESMX 150820Z 21006KT 9999 BKN006 12/11 Q1013=
201809150750 METAR ESMX 150750Z 21006KT 9999 BKN006 12/11 Q1013=
201809150720 METAR ESMX 150720Z 22007KT 9999 BKN007 12/11 Q1012=
201809150650 METAR ESMX 150650Z AUTO 22007KT 9999 FEW008/// SCT048/// 12/11 Q1012=
201809150620 METAR ESMX 150620Z AUTO 22008KT 9999 -DZ FEW006/// BKN051/// OVC066/// 11/10 Q1012=
201809150550 METAR ESMX 150550Z AUTO 20009KT 9999 DZ SCT009/// BKN022/// BKN036/// 11/10 Q1012=
201809150520 METAR ESMX 150520Z AUTO 19007KT 9999 DZ FEW013/// SCT023/// BKN051/// 11/10 Q1012=
201809150450 METAR ESMX 150450Z AUTO 21006KT 9999 DZ FEW015/// BKN043/// OVC055/// 11/10 Q1012 REDZ=
201809150420 METAR ESMX 150420Z AUTO 20009KT 9999 OVC051/// 11/09 Q1012=
201809150350 METAR ESMX 150350Z AUTO 20009KT 9999 -DZ SCT059/// 11/10 Q1012=
201809150320 METAR ESMX 150320Z AUTO 20009KT 9999 -DZ SCT018/// BKN038/// BKN049/// 12/09 Q1012=
201809150250 METAR ESMX 150250Z AUTO 21010KT 9999 SCT031/// BKN046/// 12/10 Q1012=
201809150220 METAR ESMX 150220Z AUTO 19009KT 9999 FEW035/// OVC053/// 12/10 Q1012 REDZ=
201809150150 METAR ESMX 150150Z AUTO 20010KT 9999 FEW039/// BKN082/// BKN160/// 12/09 Q1012=
201809150120 METAR ESMX 150120Z AUTO 19010KT 9999 OVC086/// 12/09 Q1013=
201809150050 METAR ESMX 150050Z AUTO 19009KT 9999 FEW088/// 12/09 Q1013=
201809150020 METAR ESMX 150020Z AUTO 19009KT 9999 SCT090/// 12/09 Q1013=
201809142350 METAR ESMX 142350Z AUTO 17009KT 9999 OVC086/// 12/09 Q1013=
201809142320 METAR ESMX 142320Z AUTO 18009KT 9999 BKN090/// 12/10 Q1014=
201809142250 METAR ESMX 142250Z AUTO 18009KT 9999 OVC088/// 12/10 Q1014=
201809142220 METAR ESMX 142220Z AUTO 18009KT 9999 SCT080/// BKN096/// 13/10 Q1014=
201809142150 METAR ESMX 142150Z AUTO 20009KT 9999 OVC074/// 13/10 Q1014=
201809142120 METAR ESMX 142120Z AUTO 19009KT 9999 BKN074/// OVC094/// 13/10 Q1014=
201809142050 METAR ESMX 142050Z AUTO 17007KT 9999 BKN068/// 13/10 Q1014 RERA=
201809142020 METAR ESMX 142020Z AUTO 18008KT 9999 BKN059/// OVC074/// 13/10 Q1015=
201809141950 METAR ESMX 141950Z AUTO 20009KT 9999 FEW042/// OVC062/// 13/10 Q1015=
201809141920 METAR ESMX 141920Z 19008KT 9999 BKN038 13/10 Q1015=
201809141850 METAR ESMX 141850Z 20010KT 9999 FEW025 BKN041 14/10 Q1015=
201809141820 METAR ESMX 141820Z 18009KT 9999 FEW038 BKN060 14/10 Q1015=
201809141750 METAR ESMX 141750Z 18007KT 9999 FEW030 BKN052 14/10 Q1015=
201809141720 METAR ESMX 141720Z 21010KT 9999 SCT030 BKN048 14/10 Q1015=
201809141650 METAR ESMX 141650Z 20008KT 9999 SCT032 BKN048 OVC078 14/10 Q1015=
201809141620 METAR ESMX 141620Z 19009KT 9999 FEW033 BKN078 15/10 Q1015=
201809141550 METAR ESMX 141550Z 20008KT 9999 FEW030 BKN076 15/10 Q1016=
201809141520 METAR ESMX 141520Z 20009KT 9999 FEW028 BKN076 15/10 Q1016=
201809141450 METAR ESMX 141450Z 20008KT 170V250 CAVOK 16/10 Q1016=
201809141420 METAR ESMX 141420Z 21009KT 9999 SCT049 BKN072 16/10 Q1016=
201809141350 METAR ESMX 141350Z 22009KT 9999 FEW030 16/09 Q1016=
201809141320 METAR ESMX 141320Z 21010KT 9999 SCT030 16/09 Q1016=
201809141250 METAR ESMX 141250Z 22010KT 190V260 9999 FEW020 16/10 Q1016=
201809141220 METAR ESMX 141220Z 22011KT 9999 FEW019 15/11 Q1017=
201809141150 METAR ESMX 141150Z 21011KT 180V240 9999 SCT021 15/10 Q1017=
201809141120 METAR ESMX 141120Z 21011KT 170V240 9999 FEW018 SCT068 15/11 Q1017=
201809141050 METAR ESMX 141050Z 20012KT 9999 FEW014 SCT035 15/11 Q1017=
201809141020 METAR ESMX 141020Z 21011KT 9999 SCT017 BKN037 14/11 Q1017=
201809140950 METAR ESMX 140950Z 21009KT 9999 BKN016 14/10 Q1017=
201809140920 METAR ESMX 140920Z 21010KT 9999 FEW016 SCT043 BKN055 14/10 Q1017=
201809140850 METAR ESMX 140850Z 21008KT 9999 SCT015 BKN051 13/10 Q1017=
201809140820 METAR ESMX 140820Z 20009KT 9999 SCT013 BKN064 13/10 Q1017=
201809140750 METAR ESMX 140750Z 20008KT 9999 SCT009 13/10 Q1016=
201809140720 METAR ESMX 140720Z 20007KT 9999 FEW010 12/10 Q1016=
201809140650 METAR ESMX 140650Z 19008KT 9999 FEW007 11/10 Q1016=
201809140620 METAR ESMX 140620Z 19007KT 9999 FEW024 10/09 Q1016=
201809140550 METAR ESMX 140550Z AUTO 20007KT 9999 NCD 10/09 Q1016=
201809140520 METAR ESMX 140520Z 20007KT 9999 FEW024 09/09 Q1016=
201809140450 METAR ESMX 140450Z 19007KT 9999 FEW026 09/08 Q1016=
201809140420 METAR ESMX 140420Z 20007KT 9999 FEW020 09/08 Q1016=
201809140350 METAR ESMX 140350Z AUTO 21007KT 9999 SCT062/// 10/08 Q1016=
201809140320 METAR ESMX 140320Z AUTO 21009KT 9999 OVC061/// 10/09 Q1016=
201809140250 METAR ESMX 140250Z AUTO 20007KT 9999 SCT021/// BKN066/// 10/09 Q1016=
201809140220 METAR ESMX 140220Z AUTO 19007KT 9999 SCT023/// BKN072/// 09/08 Q1016=
201809140150 METAR ESMX 140150Z AUTO 19008KT 9999 OVC066/// 10/09 Q1016=
201809140120 METAR ESMX 140120Z AUTO 19008KT 9999 OVC055/// 11/09 Q1016=
201809140050 METAR ESMX 140050Z AUTO 21007KT 9999 OVC049/// 10/09 Q1016=
201809140020 METAR ESMX 140020Z 21006KT CAVOK 10/09 Q1017=
201809132350 METAR ESMX 132350Z 20007KT CAVOK 09/08 Q1017=
201809132320 METAR ESMX 132320Z 19007KT CAVOK 09/08 Q1017=
201809132250 METAR ESMX 132250Z 19006KT CAVOK 09/08 Q1017=
201809132220 METAR ESMX 132220Z 19006KT 9999 SCT034 10/08 Q1017=
201809132150 METAR ESMX 132150Z 20007KT CAVOK 10/08 Q1017=
201809132120 METAR ESMX 132120Z AUTO 20006KT 9999 FEW062/// BKN080/// 10/09 Q1017=
201809132050 METAR ESMX 132050Z 20006KT 9999 -RA FEW045 BKN075 11/09 Q1017=
201809132020 METAR ESMX 132020Z 20007KT CAVOK 11/09 Q1017=
201809131950 METAR ESMX 131950Z 22005KT 9999 -RA FEW040 BKN060 11/09 Q1017=
201809131920 METAR ESMX 131920Z 21006KT 9999 FEW040 BKN053 12/09 Q1017=
201809131850 METAR ESMX 131850Z 22006KT CAVOK 12/09 Q1017=
201809131820 METAR ESMX 131820Z 23005KT CAVOK 12/08 Q1017=
201809131750 METAR ESMX 131750Z 25008KT CAVOK 12/08 Q1017=
201809131720 METAR ESMX 131720Z 23007KT CAVOK 13/07 Q1017=
201809131650 METAR ESMX 131650Z 23007KT CAVOK 14/07 Q1017=
201809131620 METAR ESMX 131620Z 23008KT 200V260 CAVOK 14/07 Q1017=
201809131550 METAR ESMX 131550Z 23010KT 9999 FEW035 BKN070 15/06 Q1017=
201809131520 METAR ESMX 131520Z 25010KT 210V300 9999 SCT037 BKN065 15/07 Q1017=
201809131450 METAR ESMX 131450Z 23010KT 190V270 9999 FEW039TCU SCT072 15/07 Q1017=
201809131420 METAR ESMX 131420Z 25012KT 210V280 9999 FEW039 BKN070 15/07 Q1017=
201809131350 METAR ESMX 131350Z 21011KT 9999 FEW043 BKN066 16/07 Q1017=
201809131320 METAR ESMX 131320Z 22013KT 190V250 9999 BKN043 BKN051 16/06 Q1017=
201809131250 METAR ESMX 131250Z 25012KT 9999 BKN044 16/05 Q1018=
201809131220 METAR ESMX 131220Z 24011KT 9999 SCT051 17/06 Q1018=
201809131150 METAR ESMX 131150Z 22010KT 190V260 9999 FEW040 SCT051 BKN190 16/07 Q1018=
201809131120 METAR ESMX 131120Z 25011KT 220V280 9999 FEW038 SCT066 16/06 Q1018=
201809131050 METAR ESMX 131050Z 26010KT 200V290 9999 SCT036 17/07 Q1018=
201809131020 METAR ESMX 131020Z 24010KT 210V280 9999 FEW036 14/07 Q1018=
201809130950 METAR ESMX 130950Z 24011KT 210V270 9999 FEW040 15/07 Q1018=
201809130920 METAR ESMX 130920Z 24010KT 210V280 9999 BKN028 15/07 Q1018=
201809130850 METAR ESMX 130850Z 23010KT 200V270 9999 SCT023 BKN030 14/07 Q1018=
201809130820 METAR ESMX 130820Z 25011KT 230V290 9999 SCT019 14/09 Q1018=
201809130750 METAR ESMX 130750Z 25010KT 9999 SCT016 13/09 Q1018=
201809130720 METAR ESMX 130720Z 25009KT 210V280 9999 FEW015 13/09 Q1018=
201809130650 METAR ESMX 130650Z 24008KT 200V260 CAVOK 12/10 Q1018=
201809130620 METAR ESMX 130620Z 24007KT CAVOK 11/09 Q1017=
201809130550 METAR COR ESMX 130550Z 23006KT CAVOK 10/09 Q1017=
201809130520 METAR ESMX 130520Z 24005KT CAVOK 09/08 Q1017=
201809130450 METAR ESMX 130450Z 24005KT CAVOK 08/08 Q1017=
201809130420 METAR ESMX 130420Z 23005KT 200V270 CAVOK 08/07 Q1017=
201809130350 METAR COR ESMX 130350Z 24004KT CAVOK 09/08 Q1017=
201809130320 METAR ESMX 130320Z AUTO 23005KT 200V280 9999 NCD 09/08 Q1016=
201809130250 METAR ESMX 130250Z AUTO 23006KT 9999 NCD 09/08 Q1016=
201809130220 METAR ESMX 130220Z AUTO 21007KT 9999 NCD 09/08 Q1016=
201809130150 METAR ESMX 130150Z AUTO 21007KT 9999 NCD 08/07 Q1016=
201809130120 METAR ESMX 130120Z AUTO 22007KT 9999 NCD 09/07 Q1016=
201809130050 METAR ESMX 130050Z AUTO 21007KT 9999 NCD 09/08 Q1016=
201809130020 METAR ESMX 130020Z AUTO 22007KT 9999 NCD 10/08 Q1016=
201809122350 METAR ESMX 122350Z 22009KT CAVOK 10/08 Q1016=
201809122320 METAR ESMX 122320Z 22008KT CAVOK 10/08 Q1016=
201809122250 METAR ESMX 122250Z AUTO 24008KT 9999 NCD 10/08 Q1016=
201809122220 METAR ESMX 122220Z AUTO 24008KT 9999 NCD 10/08 Q1016=
201809122150 METAR ESMX 122150Z AUTO 24008KT 9999 NCD 10/07 Q1016=
201809122120 METAR COR ESMX 122120Z 22006KT CAVOK 10/07 Q1016=
201809122050 METAR ESMX 122050Z 24006KT CAVOK 10/07 Q1015=
201809122020 METAR ESMX 122020Z 23006KT CAVOK 11/07 Q1015=
201809121950 METAR ESMX 121950Z 23008KT CAVOK 11/07 Q1015=
201809121920 METAR ESMX 121920Z 23009KT CAVOK 11/08 Q1015=
201809121850 METAR ESMX 121850Z 23009KT CAVOK 11/08 Q1014=
201809121820 METAR ESMX 121820Z AUTO 22009KT 9999 NCD 12/08 Q1014=
201809121750 METAR ESMX 121750Z AUTO 23009KT 9999 NCD 12/08 Q1014=
201809121720 METAR ESMX 121720Z 24009KT 9999 FEW030 13/08 Q1014=
201809121650 METAR ESMX 121650Z 23011G21KT CAVOK 13/07 Q1013=
201809121620 METAR ESMX 121620Z 24012KT 200V280 CAVOK 14/07 Q1013=
201809121550 METAR ESMX 121550Z 25012KT 9999 FEW043 15/06 Q1013=
201809121520 METAR ESMX 121520Z 24013G25KT 200V280 9999 SCT049 15/07 Q1013=
201809121450 METAR ESMX 121450Z 26014KT 230V290 9999 FEW038 15/07 Q1013=
201809121420 METAR ESMX 121420Z 25014KT 9999 SCT041 15/07 Q1012=
201809121350 METAR ESMX 121350Z 25013KT 9999 SCT037 15/08 Q1012=
201809121320 METAR ESMX 121320Z 25010KT 9999 SCT033 15/08 Q1012=
201809121250 METAR ESMX 121250Z 23013KT 190V260 9999 SCT030 BKN043 15/08 Q1012=
201809121220 METAR ESMX 121220Z 24012KT 9999 BKN027 14/09 Q1012=
201809121150 METAR ESMX 121150Z 25011KT 210V280 9999 FEW018 13/09 Q1012=
201809121120 METAR ESMX 121120Z 26014KT 9999 FEW008 SCT045 13/09 Q1012=
201809121050 METAR ESMX 121050Z 26013KT 9999 FEW015 BKN037 13/08 Q1012=
201809121020 METAR ESMX 121020Z 24014G28KT 9999 SCT031 BKN053 15/08 Q1011=
201809120950 METAR ESMX 120950Z 24015KT 9999 FEW008 BKN031 14/08 Q1011=
201809120920 METAR ESMX 120920Z 24017KT 9999 BKN028 OVC096 15/08 Q1011=
201809120850 METAR ESMX 120850Z 23012KT 9999 BKN021 14/10 Q1011=
201809120820 METAR ESMX 120820Z 22012KT 9999 SCT026 14/11 Q1011=
201809120750 METAR ESMX 120750Z 23012KT 9999 FEW016 SCT150 14/11 Q1011=
201809120720 METAR ESMX 120720Z 23010KT 9999 FEW015 13/11 Q1011=
201809120650 METAR ESMX 120650Z 22011KT CAVOK 13/11 Q1010=
201809120620 METAR ESMX 120620Z 23010KT 9999 SCT011 13/11 Q1011=
201809120550 METAR ESMX 120550Z 22009KT 9999 BKN012 BKN130 13/11 Q1011=
201809120520 METAR ESMX 120520Z 22009KT 9999 FEW010 BKN096 12/11 Q1010=
201809120450 METAR ESMX 120450Z 22008KT 9999 FEW011 SCT015 BKN040 12/11 Q1010=
201809120420 METAR ESMX 120420Z 23009KT 9999 BKN011 12/11 Q1010=
201809120350 METAR ESMX 120350Z 22010KT 9999 BKN012 OVC021 12/11 Q1011=
201809120320 METAR ESMX 120320Z AUTO 22009KT 9999 SCT013/// BKN017/// OVC140/// 12/11 Q1011=
201809120250 METAR ESMX 120250Z AUTO 23008KT 200V260 9999 FEW019/// 12/11 Q1010=
201809120220 METAR ESMX 120220Z AUTO 23009KT 9999 BKN043/// BKN130/// 12/11 Q1011=
201809120150 METAR ESMX 120150Z AUTO 23010KT 9999 SCT044/// OVC140/// 12/11 Q1011=
201809120120 METAR ESMX 120120Z AUTO 21010KT 9999 FEW014/// BKN150/// 12/11 Q1010=
201809120050 METAR ESMX 120050Z AUTO 22010KT 9999 NCD 12/11 Q1010=
201809120020 METAR ESMX 120020Z AUTO 23008KT 9999 NCD 12/11 Q1010=
201809112350 METAR ESMX 112350Z AUTO 24009KT 9999 NCD 12/11 Q1010=
201809112320 METAR ESMX 112320Z AUTO 24009KT 9999 NCD 12/11 Q1010=
201809112250 METAR ESMX 112250Z AUTO 25009KT 9999 NCD 13/11 Q1010=
201809112220 METAR ESMX 112220Z AUTO 23009KT 9999 NCD 13/11 Q1010=
201809112150 METAR ESMX 112150Z AUTO 23010KT 9999 SCT014/// 13/11 Q1010=
201809112120 METAR ESMX 112120Z AUTO 24010KT 9999 BKN014/// OVC021/// 13/12 Q1010=
201809112050 METAR ESMX 112050Z AUTO 24011KT 220V280 9999 BKN016/// OVC041/// 13/11 Q1010=
201809112020 METAR ESMX 112020Z 24010KT 9999 SCT019 13/11 Q1009=
201809111950 METAR ESMX 111950Z 23011G23KT 9999 FEW016 BKN036 13/12 Q1009=
201809111920 METAR ESMX 111920Z AUTO 22010KT 9999 FEW013/// BKN035/// 13/12 Q1009=
201809111850 METAR ESMX 111850Z 23010KT 200V260 9999 SCT029 14/12 Q1008=
201809111820 METAR ESMX 111820Z 26011KT 9999 BKN013 15/13 Q1008=
201809111750 METAR ESMX 111750Z 27013G25KT 230V290 9999 FEW002 BKN016 15/13 Q1007=
201809111720 METAR ESMX 111720Z 22014KT 5000 DZ BKN007 16/15 Q1007=
201809111650 METAR ESMX 111650Z 20014KT 9999 BKN008 16/15 Q1006=
201809111620 METAR ESMX 111620Z 19014KT 8000 -RA FEW002 BKN005 15/14 Q1007=
201809111550 METAR ESMX 111550Z 20013KT 5000 DZ FEW002 BKN005 15/14 Q1007=
201809111520 METAR ESMX 111520Z 18016KT 9999 BKN006 14/13 Q1008=
201809111450 METAR ESMX 111450Z 18014KT 9999 DZ BKN006 14/13 Q1008=
201809111420 METAR ESMX 111420Z 17013KT 8000 -RA BKN006 13/13 Q1009=
201809111350 METAR ESMX 111350Z 17012KT 6000 -RA FEW008 SCT011 BKN018 13/12 Q1009=
201809111320 METAR ESMX 111320Z 18015KT 6000 -RA SCT017 BKN023 14/12 Q1010=
201809111250 METAR ESMX 111250Z 18014KT 9999 SCT018 BKN028 15/10 Q1010=
201809111220 METAR ESMX 111220Z 18015KT 9999 SCT021 BKN066 14/10 Q1011=
201809111150 METAR ESMX 111150Z 18017KT 9999 SCT017 15/11 Q1011=
201809111120 METAR ESMX 111120Z 18014KT 9999 -DZ BKN016 15/11 Q1012=
201809111050 METAR ESMX 111050Z 17012KT 9999 -RA BKN014 15/12 Q1012=
201809111020 METAR ESMX 111020Z 17011KT 9999 -RA SCT017 BKN048 15/12 Q1013=
201809110950 METAR ESMX 110950Z 17009KT 9999 FEW015 SCT036 15/12 Q1013=
201809110920 METAR ESMX 110920Z 18010KT 9999 -RA FEW046 15/11 Q1014=
201809110850 METAR ESMX 110850Z 19009KT 9999 FEW046 14/11 Q1014=
201809110820 METAR ESMX 110820Z 19009KT CAVOK 14/11 Q1014=
201809110750 METAR ESMX 110750Z 20009KT CAVOK 14/11 Q1014=
201809110720 METAR ESMX 110720Z 18007KT 9999 BKN015 13/11 Q1015=
201809110650 METAR ESMX 110650Z 17005KT 9999 BKN018 13/10 Q1015=
201809110620 METAR ESMX 110620Z 17007KT CAVOK 13/11 Q1015=
201809110550 METAR ESMX 110550Z 17006KT CAVOK 12/10 Q1015=
201809110520 METAR ESMX 110520Z 17006KT 9999 BKN047 12/10 Q1015=
201809110450 METAR ESMX 110450Z 17006KT 9999 FEW028 BKN045 12/10 Q1015=
201809110420 METAR ESMX 110420Z 17006KT 9999 BKN045 12/10 Q1015=
201809110350 METAR ESMX 110350Z 17005KT CAVOK 11/10 Q1016=
201809110320 METAR ESMX 110320Z AUTO 17005KT 9999 FEW042/// BKN120/// 12/10 Q1016=
201809110250 METAR ESMX 110250Z AUTO 18006KT 9999 SCT045/// OVC130/// 12/10 Q1016=
201809110220 METAR ESMX 110220Z AUTO 18005KT 9999 OVC130/// 12/10 Q1016=
201809110150 METAR ESMX 110150Z AUTO 19006KT 9999 OVC130/// 12/10 Q1016=
201809110120 METAR ESMX 110120Z AUTO 18006KT 9999 BKN140/// 12/10 Q1016=
201809110050 METAR ESMX 110050Z AUTO 20006KT 9999 OVC140/// 12/10 Q1017=
201809110020 METAR ESMX 110020Z AUTO 18005KT 9999 OVC150/// 12/10 Q1017=
201809102350 METAR ESMX 102350Z AUTO 16004KT 9999 OVC150/// 12/10 Q1017=
201809102320 METAR ESMX 102320Z AUTO 17005KT 9999 OVC160/// 12/10 Q1017=
201809102250 METAR ESMX 102250Z AUTO 18005KT 9999 BKN170/// 12/10 Q1017=
201809102220 METAR ESMX 102220Z AUTO 18006KT 9999 FEW021/// BKN140/// 12/10 Q1017=
201809102150 METAR ESMX 102150Z AUTO 19006KT 9999 FEW150/// 12/10 Q1017=
201809102120 METAR ESMX 102120Z AUTO 19005KT 9999 BKN200/// 13/10 Q1017=
201809102050 METAR ESMX 102050Z AUTO 17005KT 9999 FEW140/// 13/10 Q1017=
201809102020 METAR ESMX 102020Z 20005KT CAVOK 13/10 Q1017=
201809101950 METAR ESMX 101950Z 17004KT CAVOK 13/10 Q1017=
201809101920 METAR ESMX 101920Z 20005KT CAVOK 13/10 Q1017=
201809101850 METAR ESMX 101850Z 22005KT CAVOK 13/10 Q1017=
201809101820 METAR ESMX 101820Z 23004KT CAVOK 13/10 Q1017=
201809101750 METAR ESMX 101750Z 23005KT CAVOK 14/10 Q1017=
201809101720 METAR ESMX 101720Z 23005KT CAVOK 15/09 Q1017=
201809101650 METAR ESMX 101650Z 24006KT 9999 FEW040 17/10 Q1017=
201809101620 METAR ESMX 101620Z 23007KT 9999 FEW040 17/10 Q1017=
201809101550 METAR ESMX 101550Z 24009KT 9999 FEW040 18/10 Q1017=
201809101520 METAR ESMX 101520Z 24010KT 200V280 9999 FEW037 18/10 Q1016=
201809101450 METAR ESMX 101450Z 25008KT 9999 FEW035 19/12 Q1016=
201809101420 METAR ESMX 101420Z 24009KT 9999 SCT028 BKN060 19/12 Q1016=
201809101350 METAR ESMX 101350Z 22009KT 9999 FEW036 BKN060 20/13 Q1016=
201809101320 METAR ESMX 101320Z 22009KT 190V250 9999 SCT030 BKN060 20/12 Q1016=
201809101250 METAR ESMX 101250Z 22011KT 9999 FEW028 BKN043 19/13 Q1016=
201809101220 METAR ESMX 101220Z 19006KT CAVOK 19/13 Q1016=
201809101150 METAR ESMX 101150Z 18007KT 9999 FEW028 BKN060 18/13 Q1016=
201809101120 METAR ESMX 101120Z 17008KT CAVOK 18/13 Q1016=
201809101050 METAR ESMX 101050Z 16008KT CAVOK 18/13 Q1016=
201809101020 METAR ESMX 101020Z 17010KT 9999 -RA NSC 18/12 Q1017=
201809100950 METAR ESMX 100950Z 15009KT 120V180 CAVOK 18/12 Q1016=
201809100920 METAR ESMX 100920Z 16008KT CAVOK 18/11 Q1017=
201809100850 METAR ESMX 100850Z 15010KT CAVOK 17/12 Q1017=
201809100820 METAR ESMX 100820Z 15009KT 9999 -RA FEW045 BKN100 17/13 Q1017=
201809100750 METAR ESMX 100750Z 15009KT CAVOK 16/13 Q1017=
201809100720 METAR ESMX 100720Z 15009KT CAVOK 16/13 Q1018=
201809100650 METAR ESMX 100650Z 14007KT 110V170 CAVOK 15/13 Q1018=
201809100620 METAR COR ESMX 100620Z 14006KT 110V170 CAVOK 15/13 Q1018=
201809100550 METAR ESMX 100550Z AUTO 14007KT 9999 FEW096/// OVC120/// 14/13 Q1018=
201809100520 METAR ESMX 100520Z 14006KT CAVOK 14/13 Q1018=
201809100450 METAR COR ESMX 100450Z 14005KT CAVOK 14/12 Q1018=
201809100420 METAR ESMX 100420Z 14006KT CAVOK 13/12 Q1019=
201809100350 METAR ESMX 100350Z 13005KT CAVOK 13/12 Q1019=
201809100320 METAR COR ESMX 100320Z 15005KT CAVOK 13/11 Q1019=
201809100250 METAR ESMX 100250Z AUTO 14006KT 9999 OVC076/// 14/12 Q1019=
201809100220 METAR ESMX 100220Z AUTO 14005KT 9999 SCT064/// OVC078/// 13/12 Q1020=
201809100150 METAR ESMX 100150Z AUTO 15005KT 9999 BKN084/// OVC100/// 13/12 Q1020 REDZ=
201809100120 METAR ESMX 100120Z AUTO 15004KT 9999 -RA OVC100/// 13/12 Q1020=
201809100050 METAR ESMX 100050Z AUTO 14005KT 9999 FEW094/// BKN110/// OVC160/// 13/12 Q1020=
201809100020 METAR ESMX 100020Z AUTO 14005KT 9999 FEW059/// SCT096/// OVC160/// 13/12 Q1020=
201809092350 METAR ESMX 092350Z AUTO 14005KT 9999 BKN160/// 13/12 Q1020=
201809092320 METAR ESMX 092320Z AUTO 16004KT 9999 FEW088/// 12/11 Q1021=
201809092250 METAR ESMX 092250Z AUTO 15005KT 9999 NCD 13/12 Q1021=
201809092220 METAR ESMX 092220Z AUTO 17004KT 9999 NCD 13/11 Q1021=
201809092150 METAR ESMX 092150Z AUTO 16005KT 9999 BKN088/// 15/12 Q1021=
201809092120 METAR ESMX 092120Z AUTO 15005KT 9999 OVC088/// 15/12 Q1021=
201809092050 METAR ESMX 092050Z AUTO 16005KT 9999 OVC086/// 15/13 Q1021=
201809092020 METAR ESMX 092020Z AUTO 16006KT 9999 OVC084/// 16/13 Q1021=
201809091950 METAR ESMX 091950Z 15006KT CAVOK 16/12 Q1021=
201809091920 METAR ESMX 091920Z 14005KT 110V170 CAVOK 16/11 Q1021=
201809091850 METAR ESMX 091850Z 16006KT CAVOK 17/11 Q1021=
201809091820 METAR ESMX 091820Z 15006KT CAVOK 17/10 Q1021=
201809091750 METAR ESMX 091750Z 16007KT CAVOK 17/09 Q1021=
201809091720 METAR ESMX 091720Z 16007KT CAVOK 17/09 Q1020=
201809091650 METAR ESMX 091650Z 16006KT CAVOK 18/09 Q1020=
201809091620 METAR ESMX 091620Z 16008KT CAVOK 18/09 Q1020=
201809091550 METAR ESMX 091550Z 17009KT CAVOK 19/09 Q1020=
201809091520 METAR ESMX 091520Z 16008KT CAVOK 20/09 Q1020=
201809091450 METAR ESMX 091450Z 17008KT CAVOK 19/09 Q1020=
201809091420 METAR ESMX 091420Z 16008KT 130V200 CAVOK 20/09 Q1020=
201809091350 METAR ESMX 091350Z 18009KT CAVOK 19/08 Q1020=
201809091320 METAR ESMX 091320Z 16009KT 130V190 9999 BKN047 19/08 Q1020=
201809091250 METAR ESMX 091250Z 16008KT 120V190 9999 BKN047 20/08 Q1020=
201809091220 METAR ESMX 091220Z 16010KT 120V200 9999 FEW045 20/08 Q1020=
201809091150 METAR ESMX 091150Z 18012KT 140V200 9999 SCT046 20/09 Q1020=
201809091120 METAR ESMX 091120Z 18012KT CAVOK 20/09 Q1020=
201809091050 METAR ESMX 091050Z 19010KT 150V210 9999 FEW040 20/10 Q1020=
201809091020 METAR ESMX 091020Z 17011KT 9999 SCT038 19/09 Q1020=
201809090950 METAR ESMX 090950Z 17010KT 9999 BKN038 18/10 Q1020=
201809090920 METAR ESMX 090920Z AUTO 17011KT 9999 SCT034/// 18/10 Q1020=
201809090850 METAR ESMX 090850Z 18008KT 140V210 9999 FEW023 18/12 Q1020=
201809090820 METAR ESMX 090820Z 15009KT 120V180 CAVOK 17/12 Q1020=
201809090750 METAR ESMX 090750Z 15007KT CAVOK 16/12 Q1020=
201809090720 METAR ESMX 090720Z 14008KT CAVOK 15/12 Q1020=
201809090650 METAR ESMX 090650Z 14007KT 090V170 CAVOK 14/12 Q1020=
201809090620 METAR ESMX 090620Z 14008KT CAVOK 14/11 Q1020=
201809090550 METAR ESMX 090550Z AUTO 13006KT 9999 NCD 13/11 Q1020=
201809090520 METAR ESMX 090520Z AUTO 13006KT 9999 NCD 12/11 Q1020=
201809090450 METAR ESMX 090450Z AUTO 13005KT 9999 NCD 12/11 Q1020=
201809090420 METAR ESMX 090420Z AUTO 13005KT 9999 SCT017/// BKN059/// 12/11 Q1019=
201809090350 METAR ESMX 090350Z AUTO 15005KT 9999 FEW068/// BKN084/// 13/11 Q1019=
201809090320 METAR ESMX 090320Z AUTO 14006KT 9999 OVC066/// 13/11 Q1019=
201809090250 METAR ESMX 090250Z AUTO 13007KT 9999 OVC055/// 13/12 Q1019=
201809090220 METAR ESMX 090220Z AUTO 15005KT 9999 OVC064/// 13/11 Q1020=
201809090150 METAR ESMX 090150Z AUTO 15004KT 9999 BKN061/// 12/11 Q1020=
201809090120 METAR ESMX 090120Z AUTO 15005KT 9999 FEW078/// 12/11 Q1019=
201809090050 METAR ESMX 090050Z AUTO 16005KT 9999 OVC074/// 13/11 Q1019=
201809090020 METAR ESMX 090020Z AUTO 15005KT 9999 FEW068/// SCT082/// 12/11 Q1019=
201809082350 METAR ESMX 082350Z AUTO 15004KT 9999 FEW068/// 12/11 Q1019=
201809082320 METAR ESMX 082320Z AUTO 15004KT 9999 NCD 12/11 Q1019=
201809082250 METAR ESMX 082250Z AUTO 18004KT 9999 FEW086/// 13/11 Q1019=
201809082220 METAR ESMX 082220Z AUTO 18006KT 9999 SCT084/// 12/10 Q1019=
201809082150 METAR ESMX 082150Z AUTO 18006KT 9999 SCT086/// 12/11 Q1019=
201809082120 METAR ESMX 082120Z AUTO 17007KT 9999 OVC086/// 13/11 Q1019=
201809082050 METAR ESMX 082050Z AUTO 18006KT 9999 FEW047/// BKN082/// OVC170/// 14/11 Q1019=
201809082020 METAR ESMX 082020Z AUTO 15008KT 9999 BKN170/// 14/11 Q1019=
201809081950 METAR ESMX 081950Z AUTO 16006KT 9999 OVC170/// 14/11 Q1018=
201809081920 METAR ESMX 081920Z 15007KT 9999 BKN023 BKN180 15/11 Q1018=
201809081850 METAR ESMX 081850Z 16006KT 9999 BKN025 15/10 Q1018=
201809081820 METAR ESMX 081820Z 15006KT CAVOK 15/10 Q1018=
201809081750 METAR ESMX 081750Z 15007KT CAVOK 15/10 Q1017=
201809081720 METAR ESMX 081720Z 16006KT CAVOK 15/09 Q1017=
201809081650 METAR ESMX 081650Z 17008KT CAVOK 16/09 Q1017=
201809081620 METAR ESMX 081620Z 19009KT 9999 FEW035 16/09 Q1017=
201809081550 METAR ESMX 081550Z 18011KT 9999 SCT039 17/09 Q1017=
201809081520 METAR ESMX 081520Z 19011KT 160V220 CAVOK 17/08 Q1016=
201809081450 METAR ESMX 081450Z 19011KT 9999 BKN051 18/09 Q1016=
201809081420 METAR ESMX 081420Z 20011KT 9999 BKN044 17/08 Q1016=
201809081350 METAR ESMX 081350Z AUTO 19011KT 150V210 9999 SCT041/// 17/08 Q1016=
201809081320 METAR ESMX 081320Z 19016KT 9999 SCT037 18/08 Q1016=
201809081250 METAR ESMX 081250Z 18012KT 150V210 9999 BKN035 17/08 Q1016=
201809081220 METAR ESMX 081220Z 18012KT 9999 BKN039 17/08 Q1016=
201809081150 METAR ESMX 081150Z 17011KT 9999 BKN036 BKN048 16/08 Q1016=
201809081120 METAR ESMX 081120Z 17013KT 9999 BKN037 BKN064 17/08 Q1015=
201809081050 METAR ESMX 081050Z 17011KT 9999 SCT031 16/09 Q1015=
201809081020 METAR ESMX 081020Z 18008KT 150V210 9999 BKN028 15/09 Q1015=
201809080950 METAR ESMX 080950Z 17009KT 9999 BKN038 16/09 Q1015=
201809080920 METAR ESMX 080920Z 19010KT 9999 SCT031 16/08 Q1015=
201809080850 METAR ESMX 080850Z 19007KT 150V230 9999 FEW029 15/08 Q1015=
201809080820 METAR ESMX 080820Z 18005KT 130V230 CAVOK 15/09 Q1015=
201809080750 METAR ESMX 080750Z 20006KT CAVOK 14/09 Q1015=
201809080720 METAR ESMX 080720Z 22007KT CAVOK 13/09 Q1015=
201809080650 METAR ESMX 080650Z AUTO 21007KT 9999 NCD 13/10 Q1015=
201809080620 METAR ESMX 080620Z AUTO 20006KT 9999 NCD 12/11 Q1014=
201809080550 METAR ESMX 080550Z AUTO 22005KT 9999 NCD 12/10 Q1014=
201809080520 METAR ESMX 080520Z AUTO 21006KT 9999 SCT006/// 11/10 Q1014=
201809080450 METAR ESMX 080450Z AUTO 22006KT 9999 BKN006/// 11/11 Q1014=
201809080420 METAR ESMX 080420Z AUTO 24007KT 9999 BKN018/// 12/11 Q1013=
201809080350 METAR ESMX 080350Z AUTO 24006KT 9999 FEW009/// BKN029/// BKN100/// 13/12 Q1013=
201809080320 METAR ESMX 080320Z AUTO 21007KT 9999 FEW013/// BKN019/// OVC027/// 13/12 Q1013=
201809080250 METAR ESMX 080250Z AUTO 20007KT 9999 BKN007/// BKN009/// OVC023/// 14/13 Q1013=
201809080220 METAR ESMX 080220Z AUTO 21006KT 9999 BKN022/// OVC062/// 14/13 Q1013=
201809080150 METAR ESMX 080150Z AUTO 21006KT 9999 OVC066/// 14/13 Q1012=
201809080120 METAR ESMX 080120Z AUTO 20007KT 9000 BKN064/// 15/14 Q1012=
201809080050 METAR ESMX 080050Z AUTO 18005KT 6000 BR FEW008/// SCT100/// BKN120/// 15/15 Q1012 REDZ=
201809080020 METAR ESMX 080020Z AUTO 16005KT 3400 BR FEW006/// BKN096/// 15/15 Q1012=
201809072350 METAR ESMX 072350Z AUTO 14004KT 110V170 4700 BR FEW003/// BKN053/// 15/15 Q1012=
201809072320 METAR ESMX 072320Z AUTO 13003KT 100V160 4700 -RA FEW003/// SCT046/// BKN070/// 15/15 Q1012=
201809072250 METAR ESMX 072250Z 13005KT 100V160 5000 RA SCT040 BKN055 16/15 Q1012=
201809072220 METAR ESMX 072220Z 15004KT 120V190 5000 -RA FEW035 BKN050 16/15 Q1012=
201809072150 METAR ESMX 072150Z 21008KT 170V250 5000 RA BKN008 16/15 Q1012=
201809072120 METAR ESMX 072120Z 14006KT 100V170 9000 RA BKN008 OVC034 17/16 Q1012=
201809072050 METAR ESMX 072050Z 14005KT 090V190 9000 RA BKN008 OVC053 17/16 Q1012=
201809072020 METAR ESMX 072020Z 14007KT 070V170 9999 -RA FEW010 BKN050 18/16 Q1012=
201809071950 METAR ESMX 071950Z 12005KT 060V190 CAVOK 18/16 Q1011=
201809071920 METAR ESMX 071920Z 10004KT 050V150 CAVOK 17/16 Q1011=
201809071850 METAR ESMX 071850Z 10004KT 070V140 CAVOK 17/16 Q1011=
201809071820 METAR ESMX 071820Z VRB02KT CAVOK 17/16 Q1011=
201809071750 METAR ESMX 071750Z VRB02KT 9999 SCT030 BKN130 17/16 Q1011=
201809071720 METAR ESMX 071720Z 14003KT 9999 SCT026 BKN040 17/16 Q1011=
201809071650 METAR ESMX 071650Z 16007KT 9999 VCSH SCT028CB BKN060 17/16 Q1011 RESHRA=
201809071620 METAR ESMX 071620Z VRB02KT 9999 BKN033CB 18/16 Q1011=
201809071550 METAR ESMX 071550Z 17003KT 9999 SCT035 BKN075 18/16 Q1011=
201809071520 METAR ESMX 071520Z 19007KT 9999 -RA SCT044 18/16 Q1011=
201809071450 METAR ESMX 071450Z 15006KT 110V180 9999 -RA FEW032 21/15 Q1011=
201809071420 METAR COR ESMX 071420Z 12006KT 060V160 9999 SCT032 21/14 Q1011=
201809071350 METAR ESMX 071350Z AUTO 11006KT 040V170 9999 NCD 22/14 Q1011=
201809071320 METAR ESMX 071320Z 09006KT 040V130 9999 FEW030 SCT038 21/14 Q1012=
201809071250 METAR ESMX 071250Z 11006KT 060V170 9999 FEW029 22/14 Q1012=
201809071220 METAR ESMX 071220Z 06006KT 010V110 9999 BKN024 21/14 Q1012=
201809071150 METAR ESMX 071150Z 12006KT 080V160 9999 SCT021 21/15 Q1012=
201809071120 METAR ESMX 071120Z 08007KT 050V140 9999 FEW018 BKN029 21/15 Q1012=
201809071050 METAR ESMX 071050Z 08008KT 050V140 9999 SCT034 20/15 Q1013=
201809071020 METAR ESMX 071020Z 06008KT 020V110 9999 SCT019 BKN036 20/15 Q1013=
201809070950 METAR ESMX 070950Z 06008KT 030V100 9999 FEW019 SCT034 19/15 Q1013=
201809070920 METAR ESMX 070920Z 09005KT 040V140 9999 FEW021 BKN030 20/15 Q1013=
201809070850 METAR ESMX 070850Z 09006KT 040V140 9999 BKN019 19/14 Q1013=
201809070820 METAR ESMX 070820Z 07005KT 030V120 9999 BKN019 19/14 Q1013=
201809070750 METAR ESMX 070750Z 09007KT 350V160 9999 BKN016 BKN021 18/14 Q1013=
201809070720 METAR ESMX 070720Z VRB04KT 9999 BKN012 OVC016 17/15 Q1014=
201809070650 METAR ESMX 070650Z 07004KT 030V150 9999 BKN010 17/14 Q1014=
201809070620 METAR ESMX 070620Z 07004KT 360V120 9999 BKN009 16/14 Q1014=
201809070550 METAR ESMX 070550Z 07003KT 360V120 9999 BKN009 16/14 Q1014=
201809070520 METAR ESMX 070520Z 09003KT 050V160 9999 BKN008 16/14 Q1014=
201809070450 METAR COR ESMX 070450Z 07005KT 040V120 9999 BKN008 16/14 Q1014=
201809070420 METAR ESMX 070420Z 05003KT 360V110 9999 BKN009 15/14 Q1014=
201809070350 METAR ESMX 070350Z 06004KT 9999 FEW010 SCT030 15/14 Q1014=
201809070320 METAR ESMX 070320Z AUTO 06005KT 020V090 9999 NCD 16/14 Q1014=
201809070250 METAR ESMX 070250Z AUTO 06006KT 9999 FEW014/// SCT022/// 16/14 Q1014=
201809070220 METAR ESMX 070220Z AUTO 05004KT 350V100 9999 FEW016/// OVC043/// 16/14 Q1014=
201809070150 METAR ESMX 070150Z AUTO 07004KT 040V140 9999 OVC042/// 16/14 Q1014=
201809070120 METAR ESMX 070120Z AUTO 07004KT 040V110 9999 OVC041/// 16/14 Q1015=
201809070050 METAR ESMX 070050Z AUTO 03004KT 350V080 9999 SCT012/// OVC040/// 16/14 Q1015=
201809070020 METAR ESMX 070020Z AUTO 04004KT 010V100 9999 SCT012/// OVC039/// 16/14 Q1015=
201809062350 METAR ESMX 062350Z AUTO 06004KT 030V120 9999 FEW011/// OVC040/// 16/14 Q1015=
201809062320 METAR ESMX 062320Z 04004KT 330V090 9999 SCT015 BKN042 15/14 Q1015=
201809062250 METAR ESMX 062250Z 04005KT 010V080 9999 BKN043 15/14 Q1015=
201809062220 METAR ESMX 062220Z 05005KT 020V100 9999 SCT013 15/14 Q1015=
201809062150 METAR ESMX 062150Z AUTO 06004KT 030V100 9999 NCD 14/13 Q1016=
201809062120 METAR ESMX 062120Z AUTO 07004KT 030V100 9999 NCD 15/13 Q1016=
201809062050 METAR ESMX 062050Z 06005KT 020V110 CAVOK 15/13 Q1016=
201809062020 METAR ESMX 062020Z 08005KT 030V120 9999 FEW011 BKN053 15/13 Q1016=
201809061950 METAR ESMX 061950Z 06004KT 020V110 CAVOK 15/13 Q1016=
201809061920 METAR ESMX 061920Z 08003KT 050V120 CAVOK 15/12 Q1016=
201809061850 METAR ESMX 061850Z VRB03KT CAVOK 16/12 Q1016=
201809061820 METAR ESMX 061820Z 08003KT 040V110 CAVOK 16/12 Q1016=
201809061750 METAR ESMX 061750Z 06004KT 020V120 CAVOK 17/12 Q1016=
201809061720 METAR ESMX 061720Z 08005KT 010V120 CAVOK 18/12 Q1016=
201809061650 METAR ESMX 061650Z 08007KT 030V120 9999 FEW030 19/12 Q1016=
201809061620 METAR ESMX 061620Z 10005KT 060V150 9999 FEW038 20/12 Q1016=
201809061550 METAR ESMX 061550Z VRB05KT 9999 FEW040 21/12 Q1016=
201809061520 METAR ESMX 061520Z 09005KT 020V140 9999 FEW043 21/12 Q1016=
201809061450 METAR ESMX 061450Z 11006KT 050V160 CAVOK 21/11 Q1016=
201809061420 METAR ESMX 061420Z 10007KT 060V150 9999 FEW044 SCT070 21/11 Q1016=
201809061350 METAR ESMX 061350Z 11005KT 070V160 CAVOK 22/11 Q1017=
201809061320 METAR ESMX 061320Z VRB08KT 9999 SCT040 21/11 Q1017=
201809061250 METAR COR ESMX 061250Z 09005KT 030V170 9999 SCT041 21/12 Q1017=
201809061220 METAR ESMX 061220Z 35006KT 9999 SCT033 20/12 Q1017=
201809061150 METAR ESMX 061150Z 06004KT 360V100 9999 SCT032 BKN051 20/12 Q1018=
201809061120 METAR ESMX 061120Z 04005KT 350V100 9999 FEW028 SCT040 20/12 Q1018=
201809061050 METAR ESMX 061050Z 06005KT 010V130 9999 FEW036 19/12 Q1018=
201809061020 METAR ESMX 061020Z 06005KT 360V110 9999 FEW024 SCT029 19/12 Q1019=
201809060950 METAR ESMX 060950Z VRB04KT 9999 BKN023 BKN051 18/12 Q1019=
201809060920 METAR ESMX 060920Z 05005KT 020V100 9999 BKN017 17/13 Q1019=
201809060850 METAR ESMX 060850Z 09005KT 020V160 9999 SCT009 17/13 Q1019=
201809060820 METAR ESMX 060820Z 07005KT 020V120 9999 SCT007 OVC094 16/14 Q1019=
201809060750 METAR ESMX 060750Z 05003KT 020V100 9999 SCT004 15/14 Q1019=
201809060720 METAR ESMX 060720Z 08003KT 030V120 9999 FEW004 BKN092 14/14 Q1019=
201809060650 METAR ESMX 060650Z 04003KT CAVOK 14/13 Q1019=
201809060620 METAR ESMX 060620Z VRB02KT 8000 BR FEW003 13/12 Q1019=
201809060550 METAR ESMX 060550Z AUTO VRB02KT 8000 FEW003/// BKN086/// 13/13 Q1019=
201809060520 METAR ESMX 060520Z VRB03KT 3500 R01/P2000N R19/0600U BCFG BKN086 12/12 Q1019=
201809060450 METAR COR ESMX 060450Z 00000KT 1200 R01/1400N R19/P2000N BCFG BKN088 10/10 Q1019=
201809060420 METAR ESMX 060420Z 15001KT 0600 R01/0150N R19/0375N FG SCT088 10/10 Q1019=
201809060350 METAR ESMX 060350Z 00000KT 0800 R01/0450N R19/P2000N FG BKN088 09/08 Q1019=
201809060320 METAR ESMX 060320Z AUTO 00000KT 0150 R01/0450N R19/P2000N BCFG FEW090/// 09/08 Q1019=
201809060250 METAR ESMX 060250Z AUTO VRB02KT 0250 R01/1900D R19/P2000N BCFG FEW078/// 10/10 Q1019=
201809060220 METAR ESMX 060220Z AUTO 00000KT 9999 BCFG NCD 10/09 Q1019=
201809060150 METAR ESMX 060150Z AUTO 00000KT 0150 R01/0650N R19/0350N BCFG NCD 11/11 Q1019=
201809060120 METAR ESMX 060120Z AUTO 00000KT 0150 R01/0400N R19/0650U BCFG NCD 11/10 Q1019=
201809060050 METAR ESMX 060050Z AUTO 00000KT 1800 NCD 12/11 Q1019=
201809060020 METAR ESMX 060020Z AUTO 00000KT 9999 FEW100/// 12/11 Q1020=
201809052350 METAR ESMX 052350Z AUTO 00000KT 9999 OVC100/// 14/13 Q1020=
201809052320 METAR ESMX 052320Z AUTO VRB02KT 9999 OVC098/// 14/13 Q1020=
201809052250 METAR ESMX 052250Z AUTO VRB03KT 9999 OVC100/// 15/13 Q1020=
201809052220 METAR ESMX 052220Z AUTO 12003KT 9999 SCT090/// OVC100/// 15/14 Q1020=
201809052150 METAR ESMX 052150Z VRB01KT CAVOK 14/13 Q1020=
201809052120 METAR ESMX 052120Z VRB01KT CAVOK 16/14 Q1020=
201809052050 METAR ESMX 052050Z VRB01KT CAVOK 16/14 Q1020=
201809052020 METAR ESMX 052020Z VRB01KT CAVOK 16/14 Q1020=
201809051950 METAR ESMX 051950Z 00000KT CAVOK 16/14 Q1020=
201809051920 METAR ESMX 051920Z VRB02KT CAVOK 16/14 Q1020=
201809051850 METAR ESMX 051850Z 34001KT CAVOK 16/14 Q1020=
201809051820 METAR ESMX 051820Z 04001KT CAVOK 17/14 Q1020=
201809051750 METAR ESMX 051750Z 05002KT CAVOK 18/14 Q1020=
201809051720 METAR COR ESMX 051720Z 06003KT CAVOK 18/14 Q1020=
201809051650 METAR ESMX 051650Z 03003KT CAVOK 19/13 Q1020=
201809051620 METAR ESMX 051620Z 01003KT CAVOK 19/13 Q1020=
201809051550 METAR ESMX 051550Z 36004KT CAVOK 19/12 Q1020=
201809051520 METAR COR ESMX 051520Z 36005KT CAVOK 20/12 Q1021=
201809051450 METAR ESMX 051450Z 01004KT 340V040 9999 OVC049 20/12 Q1021=
201809051420 METAR ESMX 051420Z 36005KT CAVOK 20/12 Q1021=
201809051350 METAR ESMX 051350Z 35005KT CAVOK 20/12 Q1021=
201809051320 METAR ESMX 051320Z 35005KT 320V020 CAVOK 20/12 Q1021=
201809051250 METAR ESMX 051250Z 34006KT 9999 OVC048 20/12 Q1021=
201809051220 METAR ESMX 051220Z 33006KT 9999 OVC048 20/12 Q1021=
201809051150 METAR COR ESMX 051150Z 33005KT CAVOK 20/13 Q1021=
201809051120 METAR ESMX 051120Z 34004KT 300V020 CAVOK 20/12 Q1021=
201809051050 METAR ESMX 051050Z 33004KT 250V010 CAVOK 20/12 Q1021=
201809051020 METAR COR ESMX 051020Z 34003KT 300V020 CAVOK 20/13 Q1021=
201809050950 METAR ESMX 050950Z 33004KT CAVOK 20/11 Q1021=
201809050920 METAR ESMX 050920Z 36004KT 330V040 CAVOK 20/11 Q1021=
201809050850 METAR ESMX 050850Z 35003KT 310V040 CAVOK 20/12 Q1021=
201809050820 METAR ESMX 050820Z 35004KT 300V040 CAVOK 20/12 Q1021=
201809050750 METAR ESMX 050750Z 36004KT 320V060 CAVOK 19/12 Q1021=
201809050720 METAR ESMX 050720Z VRB03KT CAVOK 17/13 Q1021=
201809050650 METAR ESMX 050650Z VRB02KT CAVOK 17/13 Q1021=
201809050620 METAR ESMX 050620Z VRB03KT CAVOK 15/14 Q1021=
201809050550 METAR ESMX 050550Z 00000KT CAVOK 13/12 Q1021=
201809050520 METAR ESMX 050520Z 00000KT CAVOK 11/11 Q1021=
201809050450 METAR ESMX 050450Z 05002KT CAVOK 10/10 Q1021=
201809050420 METAR ESMX 050420Z 00000KT CAVOK 09/09 Q1021=
201809050350 METAR ESMX 050350Z 00000KT CAVOK 10/09 Q1020=
201809050320 METAR ESMX 050320Z AUTO VRB01KT 9999 OVC062/// 08/07 Q1021=
201809050250 METAR ESMX 050250Z AUTO 00000KT 0250 R01/0800N R19/P2000N BCFG SCT062/// 08/07 Q1020=
201809050220 METAR ESMX 050220Z AUTO 17001KT 0800 R01/1800N R19/P2000N BCFG NCD 08/07 Q1020=
201809050150 METAR ESMX 050150Z AUTO 17002KT 9999 BCFG NCD 09/08 Q1020=
201809050120 METAR ESMX 050120Z AUTO 00000KT 0200 R01/0600N R19/P2000N BCFG NCD 09/08 Q1020=
201809050050 METAR ESMX 050050Z 00000KT 9999 BCFG NSC 09/08 Q1020=
201809050020 METAR ESMX 050020Z 00000KT 9999 BCFG NSC 09/08 Q1020=
201809042350 METAR ESMX 042350Z 00000KT 2200 BCFG NSC 09/09 Q1020=
201809042320 METAR ESMX 042320Z 35001KT 9999 R01/P1400N R19/P2000N BCFG NSC 09/08 Q1020=
201809042250 METAR ESMX 042250Z 00000KT 9999 BCFG NSC 10/09 Q1020=
201809042220 METAR ESMX 042220Z 00000KT CAVOK 10/10 Q1020=
201809042150 METAR ESMX 042150Z 00000KT CAVOK 11/11 Q1020=
201809042120 METAR ESMX 042120Z 00000KT CAVOK 12/11 Q1020=
201809042050 METAR ESMX 042050Z 03001KT CAVOK 12/11 Q1020=
201809042020 METAR ESMX 042020Z 35002KT CAVOK 13/12 Q1020=
201809041950 METAR ESMX 041950Z 00000KT CAVOK 12/12 Q1020=
201809041920 METAR ESMX 041920Z 00000KT CAVOK 13/13 Q1020=
201809041850 METAR ESMX 041850Z 00000KT CAVOK 15/13 Q1020=
201809041820 METAR ESMX 041820Z 00000KT CAVOK 16/14 Q1020=
201809041750 METAR ESMX 041750Z VRB02KT CAVOK 18/14 Q1019=
201809041720 METAR ESMX 041720Z 31003KT 9999 FEW030 19/13 Q1019=
201809041650 METAR ESMX 041650Z 30003KT 9999 FEW030 20/13 Q1019=
201809041620 METAR ESMX 041620Z 33003KT 9999 FEW030 20/13 Q1019=
201809041550 METAR ESMX 041550Z 35004KT 9999 FEW030 20/12 Q1019=
201809041520 METAR ESMX 041520Z 34005KT 300V010 9999 FEW035 20/12 Q1019=
201809041450 METAR ESMX 041450Z 04005KT 360V080 9999 FEW035 20/12 Q1019=
201809041420 METAR ESMX 041420Z 04006KT 020V080 9999 FEW040 20/12 Q1019=
201809041350 METAR ESMX 041350Z 04003KT 350V090 9999 SCT033 21/12 Q1019=
201809041320 METAR ESMX 041320Z 05005KT 010V130 9999 SCT039 20/12 Q1019=
201809041250 METAR ESMX 041250Z 04005KT 340V100 9999 FEW033 21/12 Q1019=
201809041220 METAR ESMX 041220Z 03005KT 320V090 9999 FEW030 20/12 Q1020=
201809041150 METAR ESMX 041150Z 35005KT 9999 SCT025 19/12 Q1020=
201809041120 METAR ESMX 041120Z 36005KT 290V040 9999 FEW020 19/12 Q1020=
201809041050 METAR ESMX 041050Z 01007KT 330V040 9999 BKN019 18/13 Q1020=
201809041020 METAR ESMX 041020Z 36005KT 320V030 9999 BKN019 18/13 Q1020=
201809040950 METAR ESMX 040950Z 05006KT 020V090 9999 BKN018 18/12 Q1020=
201809040920 METAR ESMX 040920Z 35008KT 320V030 9999 BKN017 18/12 Q1020=
201809040850 METAR ESMX 040850Z 03007KT 9999 BKN013 17/12 Q1020=
201809040820 METAR ESMX 040820Z 05006KT 9999 BKN012 15/12 Q1020=
201809040750 METAR ESMX 040750Z 05006KT 020V110 9999 SCT012 16/12 Q1020=
201809040720 METAR ESMX 040720Z 02005KT 350V060 9999 FEW010 15/13 Q1021=
201809040650 METAR ESMX 040650Z 36007KT 9999 FEW012 14/13 Q1020=
201809040620 METAR ESMX 040620Z 01006KT 9999 FEW008 SCT200 14/13 Q1021=
201809040550 METAR ESMX 040550Z 34005KT 9999 FEW002 SCT008 13/13 Q1021=
201809040520 METAR ESMX 040520Z 01003KT 9999 R19/P2000N BCFG SCT003 SCT100 11/11 Q1021=
201809040450 METAR ESMX 040450Z 01003KT 9999 0200W R01/0350N R19/0900N BCFG BKN001 10/09 Q1021=
201809040420 METAR COR ESMX 040420Z 06003KT 0200 R01/0250N R19/1500N BCFG BKN002 07/06 Q1021=
201809040350 METAR ESMX 040350Z VRB01KT 0300 R01/0600N R19/0550N FG NSC 06/05 Q1021=
201809040320 METAR ESMX 040320Z AUTO 00000KT 0200 R01/P2000D R19/P2000N BCFG NCD 06/05 Q1021=
201809040250 METAR ESMX 040250Z AUTO 00000KT 0050 R01/0275N R19/0450N BCFG NCD 08/07 Q1021=
201809040220 METAR ESMX 040220Z AUTO 00000KT 0300 R01/P2000N R19/P2000N BCFG FEW003/// 07/06 Q1021=
201809040150 METAR ESMX 040150Z AUTO 00000KT 0100 R01/0400U R19/P2000D BCFG NCD 08/08 Q1021=
201809040120 METAR ESMX 040120Z AUTO 00000KT 1600 BCFG NCD 07/07 Q1021=
201809040050 METAR ESMX 040050Z AUTO 05002KT 3000 BCFG NCD 08/08 Q1021=
201809040020 METAR ESMX 040020Z AUTO VRB01KT 0200 R01/P2000N R19/P2000N FG NCD 09/08 Q1021=
201809032350 METAR ESMX 032350Z AUTO 00000KT 9999 NCD 08/08 Q1022=
201809032320 METAR ESMX 032320Z AUTO 00000KT 9999 NCD 09/08 Q1022=
201809032250 METAR ESMX 032250Z AUTO 00000KT 9999 NCD 10/09 Q1022=
201809032220 METAR ESMX 032220Z AUTO 00000KT 9999 NCD 11/10 Q1022=
201809032150 METAR ESMX 032150Z AUTO 00000KT 9999 NCD 11/10 Q1022=
201809032120 METAR ESMX 032120Z AUTO 00000KT 9999 NCD 12/11 Q1022=
201809032050 METAR ESMX 032050Z AUTO 00000KT 9999 NCD 12/10 Q1022=
201809032020 METAR ESMX 032020Z AUTO 10002KT 9999 NCD 13/12 Q1022=
201809031950 METAR ESMX 031950Z 12003KT CAVOK 13/11 Q1023=
201809031920 METAR ESMX 031920Z VRB02KT CAVOK 14/12 Q1023=
201809031850 METAR ESMX 031850Z VRB02KT CAVOK 15/11 Q1023=
201809031820 METAR ESMX 031820Z VRB03KT CAVOK 17/11 Q1023=
201809031750 METAR ESMX 031750Z VRB03KT CAVOK 18/11 Q1023=
201809031720 METAR ESMX 031720Z VRB03KT CAVOK 19/11 Q1023=
201809031650 METAR ESMX 031650Z VRB03KT CAVOK 20/10 Q1023=
201809031620 METAR ESMX 031620Z 08004KT 030V110 CAVOK 21/10 Q1023=
201809031550 METAR ESMX 031550Z 04005KT 010V070 CAVOK 21/10 Q1023=
201809031520 METAR ESMX 031520Z 06004KT 010V120 CAVOK 21/10 Q1023=
201809031450 METAR COR ESMX 031450Z 05006KT 010V080 CAVOK 21/09 Q1023=
201809031420 METAR ESMX 031420Z 04006KT 010V100 CAVOK 22/11 Q1023=
201809031350 METAR ESMX 031350Z 06005KT 020V090 CAVOK 21/10 Q1024=
201809031320 METAR ESMX 031320Z VRB05KT CAVOK 21/10 Q1024=
201809031250 METAR ESMX 031250Z 05006KT 020V080 CAVOK 21/10 Q1024=
201809031220 METAR ESMX 031220Z VRB05KT CAVOK 21/10 Q1025=
201809031150 METAR ESMX 031150Z 05007KT 020V090 9999 FEW040 21/10 Q1025=
201809031120 METAR ESMX 031120Z 05005KT 010V140 CAVOK 20/10 Q1025=
201809031050 METAR ESMX 031050Z 03007KT 350V060 9999 FEW028 20/12 Q1025=
201809031020 METAR ESMX 031020Z 07006KT 020V130 9999 FEW025 19/11 Q1026=
201809030950 METAR ESMX 030950Z 07005KT 020V120 9999 FEW020 19/12 Q1026=
201809030920 METAR ESMX 030920Z 11004KT 060V190 9999 FEW016 17/12 Q1027=
201809030850 METAR ESMX 030850Z 10005KT 010V160 9999 FEW013 17/13 Q1027=
201809030820 METAR ESMX 030820Z 08006KT 030V120 9999 FEW013 17/12 Q1027=
201809030750 METAR ESMX 030750Z 07004KT 040V100 CAVOK 16/13 Q1027=
201809030720 METAR ESMX 030720Z 05004KT 010V100 CAVOK 15/13 Q1027=
201809030650 METAR ESMX 030650Z 01004KT 9999 FEW002 13/13 Q1027=
201809030620 METAR ESMX 030620Z 01003KT 6000 BCFG OVC001 13/12 Q1027=
201809030550 METAR ESMX 030550Z 36003KT 0200 R01/0450N R19/0400N FG OVC001 12/12 Q1027=
201809030520 METAR ESMX 030520Z 01003KT 0150 R01/0450N R19/0275N FG VV001 12/12 Q1027=
201809030450 METAR ESMX 030450Z 02003KT 0100 R01/0250N R19/0400N FG VV001 12/12 Q1027=
201809030420 METAR ESMX 030420Z 01003KT 0100 R01/0250N R19/0300N FG VV001 12/12 Q1027=
201809030350 METAR ESMX 030350Z 36003KT 0050 R01/0250N R19/0300N FG VV001 12/12 Q1027=
201809030320 METAR ESMX 030320Z AUTO VRB03KT 0050 R01/0200N R19/0300N FG VV001 12/12 Q1027=
201809030250 METAR ESMX 030250Z AUTO 02003KT 0050 R01/0275N R19/0250N BCFG VV000 11/10 Q1027=
201809030220 METAR ESMX 030220Z AUTO 35002KT 0200 R01/1300U R19/0600N BCFG BKN001/// OVC003/// 08/07 Q1027=
201809030150 METAR ESMX 030150Z AUTO 00000KT 0150 R01/0500N R19/P2000N FG SCT003/// 07/07 Q1028=
201809030120 METAR ESMX 030120Z AUTO 00000KT 0100 R01/0600N R19/0350N BCFG NCD 08/07 Q1028=
201809030050 METAR ESMX 030050Z AUTO 00000KT 3000 BCFG NCD 08/08 Q1028=
201809030020 METAR ESMX 030020Z AUTO VRB01KT 0350 R01/P2000N R19/P2000N BCFG NCD 09/08 Q1028=
201809022350 METAR ESMX 022350Z AUTO VRB01KT 9999 NCD 10/09 Q1028=
201809022320 METAR ESMX 022320Z AUTO 00000KT 0100 R01/0400N R19/P2000N BCFG NCD 11/10 Q1028=
201809022250 METAR ESMX 022250Z AUTO 00000KT 0150 R01/0500N R19/P2000N FG NCD 10/10 Q1028=
201809022220 METAR ESMX 022220Z AUTO 00000KT 9999 NCD 11/10 Q1029=
201809022150 METAR ESMX 022150Z AUTO 00000KT 9999 NCD 13/12 Q1028=
201809022120 METAR ESMX 022120Z AUTO 14003KT 9999 NCD 14/13 Q1028=
201809022050 METAR ESMX 022050Z AUTO 15004KT 9999 NCD 15/13 Q1028=
201809022020 METAR ESMX 022020Z AUTO 13004KT 9999 NCD 16/12 Q1028=
201809021950 METAR ESMX 021950Z 13003KT CAVOK 16/12 Q1028=
201809021920 METAR ESMX 021920Z 15004KT 110V170 9999 FEW040 17/12 Q1028=
201809021850 METAR ESMX 021850Z 12004KT 080V160 9999 FEW042 18/12 Q1028=
201809021820 METAR ESMX 021820Z 13003KT 080V170 CAVOK 18/13 Q1028=
201809021750 METAR COR ESMX 021750Z VRB03KT CAVOK 19/13 Q1028=
201809021720 METAR ESMX 021720Z VRB02KT CAVOK 20/13 Q1028=
201809021650 METAR ESMX 021650Z VRB02KT CAVOK 20/13 Q1028=
201809021620 METAR COR ESMX 021620Z VRB02KT CAVOK 20/13 Q1028=
201809021550 METAR COR ESMX 021550Z VRB03KT CAVOK 21/13 Q1028=
201809021520 METAR ESMX 021520Z VRB02KT CAVOK 21/12 Q1028=
201809021450 METAR COR ESMX 021450Z VRB02KT CAVOK 21/11 Q1029=
201809021420 METAR ESMX 021420Z 16004KT 120V200 CAVOK 21/11 Q1029=
201809021350 METAR ESMX 021350Z 18005KT 130V220 CAVOK 23/12 Q1029=
201809021320 METAR ESMX 021320Z VRB03KT 9999 FEW045 21/11 Q1029=
201809021250 METAR ESMX 021250Z 06004KT 020V110 CAVOK 22/11 Q1029=
201809021220 METAR ESMX 021220Z 18004KT 120V210 9999 SCT025 22/11 Q1029=
201809021150 METAR COR ESMX 021150Z VRB02KT CAVOK 22/12 Q1029=
201809021120 METAR ESMX 021120Z 08004KT 350V130 CAVOK 21/11 Q1029=
201809021050 METAR COR ESMX 021050Z 03004KT 310V110 CAVOK 20/12 Q1030=
201809021020 METAR COR ESMX 021020Z 06004KT 350V110 CAVOK 20/13 Q1030=
201809020950 METAR ESMX 020950Z AUTO 05004KT 350V110 9999 NCD 19/14 Q1030=
201809020920 METAR ESMX 020920Z AUTO 04003KT 340V110 9999 NCD 19/13 Q1030=
201809020850 METAR ESMX 020850Z 03004KT CAVOK 19/13 Q1030=
201809020820 METAR ESMX 020820Z 05003KT 350V120 CAVOK 18/14 Q1030=
201809020750 METAR COR ESMX 020750Z VRB02KT CAVOK 17/14 Q1030=
201809020720 METAR ESMX 020720Z VRB02KT CAVOK 15/14 Q1030=
201809020650 METAR ESMX 020650Z VRB02KT 3000 R01/1700N R19/1000N BCFG NSC 13/13 Q1029=
201809020620 METAR ESMX 020620Z 35003KT 0700 R01/0750N R19/1000D FG VV002 12/12 Q1029=
201809020550 METAR ESMX 020550Z 01002KT 0600 R01/0550N R19/0800N FG VV002 11/11 Q1029=
201809020520 METAR ESMX 020520Z AUTO 34002KT 0050 R01/0275N R19/0175N FG VV001 09/09 Q1029=
201809020450 METAR ESMX 020450Z AUTO 00000KT 0050 R01/0375N R19/0150N FG VV001 08/08 Q1029=
201809020420 METAR ESMX 020420Z AUTO 00000KT 0050 R01/0200N R19/0300N FG VV001 08/07 Q1029=
201809020350 METAR ESMX 020350Z AUTO 00000KT 0100 R01/0400U R19/1400N FG SCT002/// 08/08 Q1029=
201809020320 METAR ESMX 020320Z AUTO 00000KT 0100 R01/0300N R19/0700N FG OVC002/// 09/08 Q1029=
201809020250 METAR ESMX 020250Z AUTO VRB01KT 0050 R01/0250N R19/P2000N FG OVC001/// 08/07 Q1029=
201809020220 METAR ESMX 020220Z AUTO 00000KT 0350 R01/1700N R19/1300D BCFG BKN001/// 06/06 Q1028=
201809020150 METAR ESMX 020150Z AUTO 17002KT 0050 R01/0375N R19/0275N FG NCD 08/07 Q1028=
201809020120 METAR ESMX 020120Z AUTO 18002KT 0100 R01/0400N R19/P2000N FG NCD 07/07 Q1028=
201809020050 METAR ESMX 020050Z AUTO 00000KT 0050 R01/0275N R19/0900N FG NCD 08/08 Q1028=
201809020020 METAR ESMX 020020Z AUTO 00000KT 0150 R01/0500U R19/0500N FG NCD 07/07 Q1028=
201809012350 METAR ESMX 012350Z AUTO 15002KT 0100 R01/0450N R19/1100N BCFG NCD 08/08 Q1028=
201809012320 METAR ESMX 012320Z AUTO 18003KT 0100 R01/0800N R19/0350N BCFG NCD 09/09 Q1028=
201809012250 METAR ESMX 012250Z AUTO 17002KT 0250 R01/0450N R19/P2000N FG NCD 09/09 Q1028=
201809012220 METAR ESMX 012220Z AUTO 00000KT 9999 BCFG NCD 09/08 Q1027=
201809012150 METAR ESMX 012150Z AUTO 00000KT 9999 BCFG NCD 09/09 Q1027=
201809012120 METAR ESMX 012120Z AUTO 17002KT 0150 R01/0650N R19/P2000N BCFG NCD 10/10 Q1027=
201809012050 METAR ESMX 012050Z 00000KT CAVOK 10/10 Q1027=
201809012020 METAR COR ESMX 012020Z 00000KT CAVOK 11/11 Q1027=
201809011950 METAR ESMX 011950Z 00000KT CAVOK 12/11 Q1026=
201809011920 METAR ESMX 011920Z 00000KT CAVOK 12/11 Q1026=
201809011850 METAR COR ESMX 011850Z 00000KT CAVOK 13/12 Q1026=
201809011820 METAR ESMX 011820Z AUTO VRB01KT 9999 NCD 15/13 Q1026=
201809011750 METAR ESMX 011750Z 01002KT CAVOK 16/14 Q1025=
201809011720 METAR ESMX 011720Z 02004KT CAVOK 17/13 Q1025=
201809011650 METAR ESMX 011650Z 36006KT 9999 SCT046 17/13 Q1025=
201809011620 METAR ESMX 011620Z 33004KT 9999 FEW026 BKN048 18/13 Q1025=
201809011550 METAR ESMX 011550Z 01004KT 9999 BKN045 18/13 Q1024=
201809011520 METAR ESMX 011520Z 36005KT 9999 BKN042 18/13 Q1024=
201809011450 METAR ESMX 011450Z 36006KT 9999 BKN041 18/13 Q1024=
201809011420 METAR COR ESMX 011420Z 02007KT 9999 BKN041 18/13 Q1024=
201809011350 METAR ESMX 011350Z AUTO 01007KT 9999 SCT026/// OVC041/// 18/13 Q1024=
201809011320 METAR ESMX 011320Z 02005KT 340V060 9999 BKN031 18/13 Q1024=
201809011250 METAR ESMX 011250Z 33006KT 9999 BKN026 18/13 Q1023=
201809011220 METAR ESMX 011220Z 36006KT 320V030 9999 BKN020 18/13 Q1023=
