##########################################################
# Query made at 04/19/2024 22:03:28 UTC
# Time interval: from 06/01/2018 12:00  to 06/30/2018 12:59  UTC
##########################################################

##########################################################
# ESMX, Vaxjo (Sweden)
# WMO index: 02641. WIGOS ID: 0-20000-0-02648
# Latitude 56-51N. Longitude 014-50E. Altitude 199 m.
##########################################################

201806301250 METAR ESMX 301250Z AUTO 07008KT 020V110 9999 BKN074/// 20/03 Q1021=
201806301220 METAR ESMX 301220Z AUTO 08005KT 030V140 9999 SCT072/// 21/02 Q1021=
201806301150 METAR ESMX 301150Z AUTO 04007KT 350V070 9999 BKN072/// 19/02 Q1021=
201806301120 METAR ESMX 301120Z AUTO 05009KT 020V110 9999 BKN068/// 19/02 Q1021=
201806301050 METAR ESMX 301050Z AUTO 02006KT 340V070 9999 BKN066/// 19/02 Q1021=
201806301020 METAR ESMX 301020Z AUTO 05007KT 360V100 9999 BKN068/// 19/03 Q1021=
201806300950 METAR ESMX 300950Z AUTO 01009KT 340V080 9999 SCT068/// 19/03 Q1022=
201806300920 METAR ESMX 300920Z AUTO 04010KT 350V070 9999 FEW066/// 18/03 Q1022=
201806300850 METAR ESMX 300850Z 01007KT 340V080 CAVOK 18/03 Q1021=
201806300820 METAR ESMX 300820Z 02008KT 340V050 CAVOK 18/05 Q1021=
201806300750 METAR ESMX 300750Z 02005KT 310V070 CAVOK 16/06 Q1022=
201806300720 METAR ESMX 300720Z 35005KT 290V070 CAVOK 17/06 Q1022=
201806300650 METAR ESMX 300650Z AUTO 36006KT 320V030 9999 NCD 16/07 Q1022=
201806300620 METAR ESMX 300620Z AUTO 01006KT 340V050 9999 NCD 15/09 Q1022=
201806300550 METAR ESMX 300550Z AUTO 03007KT 360V080 9999 NCD 14/09 Q1021=
201806300520 METAR ESMX 300520Z AUTO 36006KT 9999 NCD 13/10 Q1021=
201806300450 METAR ESMX 300450Z AUTO 35004KT 310V010 9999 NCD 13/09 Q1021=
201806300420 METAR ESMX 300420Z AUTO 28004KT 9999 NCD 11/09 Q1021=
201806300350 METAR ESMX 300350Z AUTO 00000KT 9999 NCD 09/08 Q1021=
201806300320 METAR ESMX 300320Z AUTO VRB02KT 9999 NCD 07/06 Q1021=
201806300250 METAR ESMX 300250Z AUTO 00000KT 9999 NCD 06/05 Q1021=
201806300220 METAR ESMX 300220Z AUTO 18002KT 9999 NCD 07/06 Q1021=
201806300150 METAR ESMX 300150Z AUTO 00000KT 9999 NCD 07/06 Q1021=
201806300120 METAR ESMX 300120Z AUTO VRB02KT 9999 NCD 08/07 Q1021=
201806300050 METAR ESMX 300050Z AUTO 24002KT 9999 NCD 10/08 Q1021=
201806300020 METAR ESMX 300020Z AUTO 22004KT 9999 NCD 10/07 Q1020=
201806292350 METAR ESMX 292350Z AUTO 22004KT 9999 NCD 09/07 Q1020=
201806292320 METAR ESMX 292320Z AUTO 19005KT 9999 NCD 11/08 Q1020=
201806292250 METAR ESMX 292250Z 21004KT CAVOK 11/07 Q1021=
201806292220 METAR ESMX 292220Z 19005KT CAVOK 11/08 Q1020=
201806292150 METAR ESMX 292150Z 18004KT 140V210 CAVOK 13/08 Q1020=
201806292120 METAR ESMX 292120Z 16006KT CAVOK 14/08 Q1020=
201806292050 METAR ESMX 292050Z 16008KT CAVOK 15/08 Q1020=
201806292020 METAR ESMX 292020Z 15008KT CAVOK 16/09 Q1020=
201806291950 METAR ESMX 291950Z 12005KT 050V170 CAVOK 17/08 Q1019=
201806291920 METAR ESMX 291920Z 36009KT CAVOK 18/04 Q1019=
201806291850 METAR ESMX 291850Z 36010KT CAVOK 19/03 Q1019=
201806291820 METAR ESMX 291820Z 34009KT CAVOK 20/02 Q1018=
201806291750 METAR ESMX 291750Z 36009KT CAVOK 20/03 Q1018=
201806291720 METAR ESMX 291720Z 01009KT CAVOK 21/02 Q1018=
201806291650 METAR ESMX 291650Z 35010KT CAVOK 21/03 Q1018=
201806291620 METAR ESMX 291620Z 34010KT 320V020 CAVOK 21/01 Q1018=
201806291550 METAR ESMX 291550Z 35009KT CAVOK 22/02 Q1018=
201806291520 METAR ESMX 291520Z 35010KT 320V020 CAVOK 22/02 Q1018=
201806291450 METAR ESMX 291450Z 36011KT CAVOK 22/03 Q1018=
201806291420 METAR ESMX 291420Z 34011KT 310V010 CAVOK 22/03 Q1018=
201806291350 METAR ESMX 291350Z 35010KT 300V030 CAVOK 22/02 Q1018=
201806291320 METAR ESMX 291320Z 01009KT 330V040 CAVOK 22/03 Q1018=
201806291250 METAR ESMX 291250Z 34009KT 290V040 CAVOK 22/03 Q1018=
201806291220 METAR ESMX 291220Z 36010KT 330V030 CAVOK 21/03 Q1018=
201806291150 METAR ESMX 291150Z 01011KT 330V070 CAVOK 21/03 Q1018=
201806291120 METAR ESMX 291120Z 36010KT CAVOK 21/03 Q1018=
201806291050 METAR ESMX 291050Z 02009KT 340V040 CAVOK 20/04 Q1018=
201806291020 METAR ESMX 291020Z 36010KT 330V030 CAVOK 20/04 Q1018=
201806290950 METAR ESMX 290950Z 36009KT 320V020 CAVOK 19/04 Q1019=
201806290920 METAR ESMX 290920Z 34010KT 300V010 CAVOK 19/05 Q1019=
201806290850 METAR ESMX 290850Z 01011KT 340V050 CAVOK 18/05 Q1019=
201806290820 METAR ESMX 290820Z 01011KT CAVOK 17/05 Q1019=
201806290750 METAR ESMX 290750Z 36012KT CAVOK 17/05 Q1019=
201806290720 METAR ESMX 290720Z 03011KT CAVOK 17/06 Q1018=
201806290650 METAR ESMX 290650Z 01014KT CAVOK 17/06 Q1018=
201806290620 METAR COR ESMX 290620Z 03011KT 350V060 CAVOK 16/06 Q1018=
201806290550 METAR COR ESMX 290550Z 02013KT CAVOK 16/06 Q1018=
201806290520 METAR ESMX 290520Z 36013KT 9999 FEW033 16/07 Q1018=
201806290450 METAR ESMX 290450Z 02015KT CAVOK 16/07 Q1018=
201806290420 METAR ESMX 290420Z 02014KT 350V050 CAVOK 16/07 Q1018=
201806290350 METAR ESMX 290350Z 02016KT CAVOK 16/08 Q1017=
201806290320 METAR ESMX 290320Z AUTO 36013KT 9999 NCD 16/08 Q1017=
201806290250 METAR ESMX 290250Z AUTO 36014KT 9999 NCD 17/08 Q1017=
201806290220 METAR ESMX 290220Z AUTO 02012KT 9999 NCD 17/09 Q1017=
201806290150 METAR ESMX 290150Z AUTO 35010KT 9999 NCD 17/10 Q1017=
201806290120 METAR ESMX 290120Z AUTO 32004KT 9999 NCD 15/10 Q1016=
201806290050 METAR ESMX 290050Z AUTO 30005KT 9999 NCD 16/09 Q1016=
201806290020 METAR ESMX 290020Z AUTO 28005KT 9999 NCD 17/10 Q1016=
201806282350 METAR ESMX 282350Z 27005KT CAVOK 17/10 Q1016=
201806282320 METAR ESMX 282320Z 26004KT CAVOK 17/10 Q1016=
201806282250 METAR ESMX 282250Z 24003KT 210V280 CAVOK 17/10 Q1017=
201806282220 METAR ESMX 282220Z 25003KT CAVOK 18/10 Q1017=
201806282150 METAR ESMX 282150Z 24004KT 210V280 CAVOK 19/10 Q1017=
201806282120 METAR ESMX 282120Z 27005KT 230V310 CAVOK 20/10 Q1017=
201806282050 METAR ESMX 282050Z 28007KT CAVOK 21/10 Q1017=
201806282020 METAR ESMX 282020Z 28007KT CAVOK 22/10 Q1017=
201806281950 METAR ESMX 281950Z 28007KT CAVOK 23/11 Q1017=
201806281920 METAR ESMX 281920Z 29010KT CAVOK 24/10 Q1017=
201806281850 METAR ESMX 281850Z 29011KT CAVOK 25/10 Q1017=
201806281820 METAR ESMX 281820Z 30010KT CAVOK 26/10 Q1017=
201806281750 METAR ESMX 281750Z 30012KT CAVOK 27/10 Q1018=
201806281720 METAR ESMX 281720Z 30010KT CAVOK 27/11 Q1018=
201806281650 METAR ESMX 281650Z 27009KT 240V300 CAVOK 29/10 Q1018=
201806281620 METAR ESMX 281620Z 26010KT 240V300 CAVOK 30/09 Q1018=
201806281550 METAR ESMX 281550Z 25006KT 230V290 CAVOK 29/09 Q1019=
201806281520 METAR ESMX 281520Z 29008KT 240V330 CAVOK 30/08 Q1019=
201806281450 METAR ESMX 281450Z VRB04KT CAVOK 30/08 Q1020=
201806281420 METAR ESMX 281420Z 33004KT 260V040 CAVOK 30/08 Q1020=
201806281350 METAR ESMX 281350Z 36005KT 300V040 CAVOK 30/08 Q1020=
201806281320 METAR ESMX 281320Z 05005KT 330V090 CAVOK 30/08 Q1021=
201806281250 METAR ESMX 281250Z 25005KT 200V320 CAVOK 29/11 Q1021=
201806281220 METAR ESMX 281220Z VRB03KT CAVOK 28/10 Q1022=
201806281150 METAR ESMX 281150Z VRB03KT CAVOK 28/11 Q1022=
201806281120 METAR ESMX 281120Z 04006KT 010V120 CAVOK 27/11 Q1023=
201806281050 METAR ESMX 281050Z 06005KT 350V170 CAVOK 27/12 Q1023=
201806281020 METAR ESMX 281020Z 36005KT 330V040 CAVOK 26/12 Q1024=
201806280950 METAR ESMX 280950Z 35004KT 300V020 CAVOK 26/12 Q1024=
201806280920 METAR ESMX 280920Z 06003KT 350V120 CAVOK 25/11 Q1025=
201806280850 METAR ESMX 280850Z VRB04KT CAVOK 25/14 Q1025=
201806280820 METAR ESMX 280820Z VRB03KT CAVOK 24/14 Q1025=
201806280750 METAR ESMX 280750Z 19003KT 100V240 CAVOK 23/14 Q1025=
201806280720 METAR ESMX 280720Z VRB03KT CAVOK 22/14 Q1026=
201806280650 METAR ESMX 280650Z VRB03KT CAVOK 21/13 Q1026=
201806280620 METAR ESMX 280620Z VRB03KT CAVOK 19/13 Q1026=
201806280550 METAR ESMX 280550Z VRB03KT CAVOK 18/12 Q1026=
201806280520 METAR ESMX 280520Z VRB01KT CAVOK 17/12 Q1026=
201806280450 METAR ESMX 280450Z VRB02KT CAVOK 16/11 Q1026=
201806280420 METAR ESMX 280420Z VRB02KT CAVOK 14/10 Q1026=
201806280350 METAR ESMX 280350Z 18002KT CAVOK 13/09 Q1027=
201806280320 METAR ESMX 280320Z AUTO 21004KT 9999 NCD 12/09 Q1027=
201806280250 METAR ESMX 280250Z AUTO 17003KT 9999 NCD 12/08 Q1027=
201806280220 METAR ESMX 280220Z AUTO 18004KT 9999 NCD 10/08 Q1027=
201806280150 METAR ESMX 280150Z AUTO 18004KT 9999 NCD 10/08 Q1027=
201806280120 METAR ESMX 280120Z AUTO 17004KT 9999 NCD 10/07 Q1027=
201806280050 METAR ESMX 280050Z AUTO 19002KT 9999 NCD 10/07 Q1027=
201806280020 METAR ESMX 280020Z AUTO 18003KT 9999 NCD 11/07 Q1027=
201806272350 METAR ESMX 272350Z AUTO 17003KT 9999 NCD 12/07 Q1027=
201806272320 METAR ESMX 272320Z AUTO 18003KT 9999 NCD 12/08 Q1027=
201806272250 METAR ESMX 272250Z AUTO 17003KT 9999 NCD 13/08 Q1028=
201806272220 METAR ESMX 272220Z AUTO 17003KT 9999 NCD 15/08 Q1028=
201806272150 METAR ESMX 272150Z 17004KT CAVOK 15/08 Q1027=
201806272120 METAR ESMX 272120Z 17004KT CAVOK 14/09 Q1028=
201806272050 METAR ESMX 272050Z 16004KT CAVOK 17/08 Q1027=
201806272020 METAR ESMX 272020Z 16005KT CAVOK 19/09 Q1027=
201806271950 METAR ESMX 271950Z 16006KT CAVOK 20/09 Q1027=
201806271920 METAR ESMX 271920Z 16008KT CAVOK 21/09 Q1027=
201806271850 METAR ESMX 271850Z 16010KT CAVOK 22/09 Q1027=
201806271820 METAR ESMX 271820Z 17012KT CAVOK 23/09 Q1027=
201806271750 METAR ESMX 271750Z 21007KT CAVOK 25/09 Q1026=
201806271720 METAR ESMX 271720Z 19006KT 140V220 CAVOK 26/09 Q1026=
201806271650 METAR ESMX 271650Z 16006KT 130V200 CAVOK 26/09 Q1026=
201806271620 METAR ESMX 271620Z 16008KT CAVOK 26/09 Q1026=
201806271550 METAR ESMX 271550Z 17007KT 130V210 CAVOK 27/09 Q1026=
201806271520 METAR ESMX 271520Z 21003KT 110V260 CAVOK 27/08 Q1027=
201806271450 METAR ESMX 271450Z VRB02KT CAVOK 27/07 Q1027=
201806271420 METAR ESMX 271420Z VRB02KT CAVOK 27/08 Q1027=
201806271350 METAR ESMX 271350Z 17004KT 110V230 CAVOK 26/09 Q1027=
201806271320 METAR ESMX 271320Z VRB05KT CAVOK 25/06 Q1027=
201806271250 METAR ESMX 271250Z 23004KT 120V270 CAVOK 26/08 Q1028=
201806271220 METAR ESMX 271220Z 06005KT 030V120 CAVOK 25/07 Q1028=
201806271150 METAR COR ESMX 271150Z VRB03KT CAVOK 25/08 Q1028=
201806271120 METAR ESMX 271120Z 07004KT 020V140 CAVOK 24/07 Q1028=
201806271050 METAR ESMX 271050Z 33005KT 280V010 CAVOK 25/09 Q1028=
201806271020 METAR ESMX 271020Z 05005KT 020V090 CAVOK 23/08 Q1028=
201806270950 METAR ESMX 270950Z 07005KT 030V110 CAVOK 23/10 Q1028=
201806270920 METAR ESMX 270920Z 13004KT 060V200 CAVOK 22/10 Q1028=
201806270850 METAR ESMX 270850Z 13004KT 090V200 CAVOK 22/10 Q1028=
201806270820 METAR ESMX 270820Z VRB04KT CAVOK 21/10 Q1028=
201806270750 METAR ESMX 270750Z 15005KT 100V190 CAVOK 20/09 Q1028=
201806270720 METAR COR ESMX 270720Z 15004KT 070V190 CAVOK 20/09 Q1028=
201806270650 METAR ESMX 270650Z 15003KT 080V180 CAVOK 19/10 Q1028=
201806270620 METAR ESMX 270620Z VRB02KT CAVOK 18/09 Q1028=
201806270550 METAR COR ESMX 270550Z 22003KT CAVOK 17/10 Q1028=
201806270520 METAR ESMX 270520Z VRB02KT CAVOK 16/11 Q1028=
201806270450 METAR COR ESMX 270450Z VRB02KT CAVOK 15/11 Q1028=
201806270420 METAR ESMX 270420Z 00000KT CAVOK 13/11 Q1028=
201806270350 METAR ESMX 270350Z VRB01KT CAVOK 10/09 Q1027=
201806270320 METAR ESMX 270320Z AUTO 16002KT 9999 NCD 09/08 Q1027=
201806270250 METAR ESMX 270250Z AUTO 19001KT 9999 NCD 07/06 Q1027=
201806270220 METAR ESMX 270220Z AUTO 00000KT 8000 BR NCD 08/07 Q1027=
201806270150 METAR ESMX 270150Z 16002KT CAVOK 08/08 Q1027=
201806270120 METAR ESMX 270120Z 00000KT CAVOK 09/08 Q1027=
201806270050 METAR ESMX 270050Z 20001KT CAVOK 10/09 Q1027=
201806270020 METAR ESMX 270020Z 00000KT CAVOK 10/09 Q1027=
201806262350 METAR ESMX 262350Z 19003KT CAVOK 11/10 Q1026=
201806262320 METAR ESMX 262320Z AUTO 18004KT 9999 NCD 11/09 Q1026=
201806262250 METAR ESMX 262250Z AUTO 18005KT 9999 NCD 14/10 Q1026=
201806262220 METAR ESMX 262220Z AUTO 17004KT 9999 NCD 15/11 Q1026=
201806262150 METAR ESMX 262150Z 18006KT CAVOK 13/11 Q1026=
201806262120 METAR ESMX 262120Z 19006KT CAVOK 14/11 Q1026=
201806262050 METAR ESMX 262050Z 18005KT CAVOK 16/12 Q1026=
201806262020 METAR ESMX 262020Z 17006KT CAVOK 17/12 Q1026=
201806261950 METAR ESMX 261950Z 16007KT CAVOK 18/12 Q1025=
201806261920 METAR ESMX 261920Z 16009KT CAVOK 19/12 Q1025=
201806261850 METAR ESMX 261850Z 17009KT CAVOK 20/12 Q1025=
201806261820 METAR ESMX 261820Z 16008KT CAVOK 21/11 Q1024=
201806261750 METAR ESMX 261750Z 12005KT 070V170 CAVOK 23/10 Q1024=
201806261720 METAR ESMX 261720Z 01005KT 350V060 CAVOK 23/07 Q1024=
201806261650 METAR ESMX 261650Z 35004KT CAVOK 24/07 Q1024=
201806261620 METAR ESMX 261620Z 35004KT 280V030 CAVOK 24/07 Q1024=
201806261550 METAR ESMX 261550Z 02005KT 330V080 CAVOK 25/07 Q1024=
201806261520 METAR ESMX 261520Z 06005KT 020V090 CAVOK 24/08 Q1024=
201806261450 METAR ESMX 261450Z 06006KT 020V110 CAVOK 24/08 Q1024=
201806261420 METAR ESMX 261420Z 36006KT CAVOK 24/08 Q1024=
201806261350 METAR COR ESMX 261350Z 01005KT 330V060 CAVOK 24/09 Q1024=
201806261320 METAR ESMX 261320Z 01006KT 300V090 CAVOK 23/08 Q1024=
201806261250 METAR ESMX 261250Z 03005KT 330V080 CAVOK 24/08 Q1024=
201806261220 METAR ESMX 261220Z 01007KT 330V060 CAVOK 23/09 Q1024=
201806261150 METAR ESMX 261150Z 01008KT 340V060 CAVOK 24/09 Q1024=
201806261120 METAR ESMX 261120Z 06009KT 030V100 CAVOK 23/09 Q1024=
201806261050 METAR ESMX 261050Z 02009KT CAVOK 23/10 Q1024=
201806261020 METAR ESMX 261020Z 01007KT 330V050 CAVOK 22/09 Q1024=
201806260950 METAR ESMX 260950Z 05008KT 010V100 CAVOK 23/09 Q1024=
201806260920 METAR ESMX 260920Z 05009KT 020V080 CAVOK 23/10 Q1024=
201806260850 METAR ESMX 260850Z 02006KT 340V060 9999 BKN049 21/10 Q1023=
201806260820 METAR ESMX 260820Z 05006KT 010V100 9999 FEW042 22/10 Q1023=
201806260750 METAR ESMX 260750Z 04007KT 010V070 CAVOK 21/11 Q1023=
201806260720 METAR ESMX 260720Z 05006KT 010V080 CAVOK 21/11 Q1023=
201806260650 METAR ESMX 260650Z 04004KT 340V070 CAVOK 20/11 Q1023=
201806260620 METAR ESMX 260620Z 35004KT CAVOK 18/12 Q1023=
201806260550 METAR ESMX 260550Z 35005KT CAVOK 18/12 Q1023=
201806260520 METAR ESMX 260520Z 36004KT CAVOK 17/12 Q1022=
201806260450 METAR ESMX 260450Z 36004KT CAVOK 16/12 Q1022=
201806260420 METAR ESMX 260420Z 35002KT CAVOK 15/13 Q1022=
201806260350 METAR ESMX 260350Z VRB03KT CAVOK 15/13 Q1022=
201806260320 METAR ESMX 260320Z AUTO 00000KT 9999 BCFG OVC066/// 14/11 Q1021=
201806260250 METAR ESMX 260250Z AUTO VRB01KT 9999 OVC066/// 13/10 Q1021=
201806260220 METAR ESMX 260220Z AUTO 00000KT 9999 OVC070/// 12/10 Q1021=
201806260150 METAR ESMX 260150Z AUTO VRB01KT 9999 OVC070/// 13/10 Q1021=
201806260120 METAR ESMX 260120Z AUTO 00000KT 9999 OVC070/// 13/10 Q1021=
201806260050 METAR ESMX 260050Z AUTO 11002KT 9999 OVC066/// 14/10 Q1021=
201806260020 METAR ESMX 260020Z AUTO VRB01KT 9999 BKN068/// 12/09 Q1021=
201806252350 METAR ESMX 252350Z AUTO 24003KT 200V260 9999 NCD 12/09 Q1020=
201806252320 METAR ESMX 252320Z AUTO 17002KT 9999 NCD 16/10 Q1020=
201806252250 METAR ESMX 252250Z AUTO 19003KT 9999 NCD 15/10 Q1020=
201806252220 METAR ESMX 252220Z AUTO 18004KT 9999 OVC074/// 17/10 Q1020=
201806252150 METAR ESMX 252150Z AUTO 17004KT 9999 OVC066/// 19/09 Q1020=
201806252120 METAR ESMX 252120Z AUTO 15003KT 9999 BKN070/// OVC088/// 19/09 Q1020=
201806252050 METAR ESMX 252050Z AUTO VRB01KT 9999 FEW070/// OVC088/// 19/09 Q1019=
201806252020 METAR ESMX 252020Z AUTO 06003KT 9999 BKN076/// OVC086/// 20/09 Q1019=
201806251950 METAR ESMX 251950Z AUTO 02004KT 9999 OVC080/// 20/09 Q1019=
201806251920 METAR ESMX 251920Z AUTO 02004KT 9999 OVC076/// 20/09 Q1019=
201806251850 METAR ESMX 251850Z AUTO 03005KT 9999 OVC078/// 21/09 Q1018=
201806251820 METAR ESMX 251820Z AUTO 02005KT 9999 OVC080/// 21/09 Q1018=
201806251750 METAR ESMX 251750Z AUTO 36007KT 9999 BKN076/// OVC090/// 22/09 Q1018=
201806251720 METAR ESMX 251720Z 01008KT CAVOK 22/08 Q1018=
201806251650 METAR ESMX 251650Z 35009KT CAVOK 22/09 Q1018=
201806251620 METAR ESMX 251620Z 33010KT CAVOK 23/08 Q1017=
201806251550 METAR ESMX 251550Z 36010KT CAVOK 23/09 Q1017=
201806251520 METAR ESMX 251520Z 33011KT CAVOK 24/08 Q1017=
201806251450 METAR ESMX 251450Z 35010KT CAVOK 24/09 Q1017=
201806251420 METAR ESMX 251420Z 33010KT 300V360 CAVOK 24/08 Q1017=
201806251350 METAR ESMX 251350Z 33009KT CAVOK 23/08 Q1016=
201806251320 METAR ESMX 251320Z 35012KT 330V030 CAVOK 24/08 Q1016=
201806251250 METAR ESMX 251250Z 33011KT 300V360 CAVOK 24/08 Q1016=
201806251220 METAR ESMX 251220Z 34012KT 300V360 CAVOK 23/08 Q1016=
201806251150 METAR ESMX 251150Z 33014KT CAVOK 23/07 Q1016=
201806251120 METAR ESMX 251120Z 33013KT CAVOK 23/08 Q1016=
201806251050 METAR ESMX 251050Z 33014KT CAVOK 23/08 Q1016=
201806251020 METAR ESMX 251020Z 33011KT CAVOK 22/07 Q1016=
201806250950 METAR ESMX 250950Z 34015KT CAVOK 22/07 Q1016=
201806250920 METAR ESMX 250920Z 33014KT CAVOK 22/07 Q1015=
201806250850 METAR ESMX 250850Z 02008KT CAVOK 22/09 Q1015=
201806250820 METAR ESMX 250820Z 32008KT 280V350 CAVOK 21/08 Q1015=
201806250720 METAR ESMX 250720Z 26003KT 200V340 CAVOK 19/10 Q1016=
201806250650 METAR ESMX 250650Z VRB03KT CAVOK 18/10 Q1015=
201806250620 METAR COR ESMX 250620Z VRB02KT CAVOK 17/11 Q1015=
201806250550 METAR ESMX 250550Z 00000KT CAVOK 17/10 Q1015=
201806250520 METAR ESMX 250520Z VRB02KT CAVOK 14/09 Q1015=
201806250450 METAR ESMX 250450Z 00000KT CAVOK 12/11 Q1015=
201806250420 METAR ESMX 250420Z 28002KT CAVOK 10/10 Q1015=
201806250350 METAR ESMX 250350Z 17002KT CAVOK 08/08 Q1015=
201806250320 METAR ESMX 250320Z AUTO VRB01KT 9999 NCD 06/06 Q1015=
201806250250 METAR ESMX 250250Z AUTO 00000KT 5000 BR NCD 05/05 Q1015=
201806250220 METAR ESMX 250220Z AUTO VRB03KT 9999 NCD 07/06 Q1015=
201806250150 METAR ESMX 250150Z AUTO VRB02KT 9999 NCD 06/05 Q1015=
201806250120 METAR ESMX 250120Z AUTO 00000KT 9999 BCFG NCD 07/07 Q1015=
201806250050 METAR ESMX 250050Z AUTO 00000KT 8000 BCFG NCD 07/06 Q1015=
201806250020 METAR ESMX 250020Z AUTO 19003KT 0400 R01/1300N R19/P2000N BCFG NCD 07/07 Q1015=
201806242350 METAR ESMX 242350Z AUTO 23003KT 9999 NCD 08/08 Q1015=
201806242320 METAR ESMX 242320Z AUTO 29003KT 9999 BCFG NCD 07/07 Q1015=
201806242250 METAR ESMX 242250Z AUTO VRB01KT 0600 R01/P2000N R19/P2000D BCFG NCD 08/08 Q1015=
201806242220 METAR ESMX 242220Z AUTO VRB02KT 0200 R01/P2000N R19/0600N FG NCD 09/09 Q1015=
201806242150 METAR ESMX 242150Z AUTO VRB02KT 8000 BCFG NCD 09/09 Q1015=
201806242120 METAR ESMX 242120Z AUTO 21002KT 9000 FG NCD 10/09 Q1015=
201806242050 METAR ESMX 242050Z AUTO VRB03KT 9999 NCD 11/11 Q1015=
201806242020 METAR ESMX 242020Z AUTO 20003KT 9999 NCD 12/11 Q1015=
201806241950 METAR ESMX 241950Z 16004KT CAVOK 14/11 Q1014=
201806241920 METAR ESMX 241920Z 12004KT 100V160 CAVOK 14/12 Q1014=
201806241850 METAR ESMX 241850Z 15006KT CAVOK 15/11 Q1014=
201806241820 METAR ESMX 241820Z 17005KT 9999 VCSH BKN068CB 14/11 Q1014=
201806241750 METAR COR ESMX 241750Z 17005KT 9999 VCSH FEW066CB SCT098 14/11 Q1014=
201806241720 METAR ESMX 241720Z 15008KT 110V190 9999 VCSH BKN066 BKN084 15/11 Q1014=
201806241650 METAR ESMX 241650Z AUTO 12008KT 070V160 9999 BKN068/// OVC098/// 18/09 Q1014=
201806241620 METAR ESMX 241620Z AUTO 36008KT 320V070 9999 OVC078/// 22/07 Q1014=
201806241550 METAR ESMX 241550Z 33010KT 290V350 CAVOK 23/05 Q1013=
201806241520 METAR ESMX 241520Z 32011KT CAVOK 22/06 Q1014=
201806241450 METAR ESMX 241450Z 32007KT 270V010 CAVOK 23/05 Q1013=
201806241420 METAR ESMX 241420Z 31012KT 250V330 CAVOK 22/06 Q1014=
201806241350 METAR ESMX 241350Z 31010KT 280V340 CAVOK 21/05 Q1014=
201806241320 METAR ESMX 241320Z 31010KT 280V340 CAVOK 22/06 Q1014=
201806241250 METAR ESMX 241250Z 30006KT 270V340 CAVOK 22/06 Q1014=
201806241220 METAR ESMX 241220Z 29006KT 250V320 CAVOK 22/06 Q1014=
201806241150 METAR ESMX 241150Z 28008KT 250V330 CAVOK 22/06 Q1014=
201806241120 METAR ESMX 241120Z 30007KT 230V350 CAVOK 22/05 Q1014=
201806241050 METAR ESMX 241050Z 30006KT 240V350 CAVOK 21/05 Q1014=
201806241020 METAR ESMX 241020Z 36006KT 330V030 CAVOK 21/05 Q1015=
201806240950 METAR ESMX 240950Z AUTO 31005KT 260V010 9999 FEW170/// 19/06 Q1015=
201806240920 METAR ESMX 240920Z AUTO 28005KT 250V330 9999 FEW070/// 19/06 Q1015=
201806240850 METAR ESMX 240850Z 28005KT 250V340 CAVOK 18/07 Q1015=
201806240820 METAR ESMX 240820Z 27004KT 240V320 CAVOK 17/07 Q1015=
201806240750 METAR ESMX 240750Z 28005KT CAVOK 16/07 Q1015=
201806240720 METAR ESMX 240720Z 28006KT CAVOK 16/06 Q1015=
201806240650 METAR ESMX 240650Z 33004KT CAVOK 16/06 Q1015=
201806240620 METAR ESMX 240620Z 33004KT 300V010 CAVOK 17/04 Q1014=
201806240550 METAR ESMX 240550Z AUTO 34003KT 290V010 9999 BKN086/// 15/06 Q1014=
201806240520 METAR ESMX 240520Z AUTO VRB02KT 9999 NCD 14/05 Q1014=
201806240450 METAR ESMX 240450Z AUTO 35004KT 9999 NCD 13/06 Q1014=
201806240420 METAR ESMX 240420Z AUTO VRB02KT 9999 NCD 10/06 Q1014=
201806240350 METAR ESMX 240350Z AUTO VRB02KT 9999 NCD 08/06 Q1014=
201806240320 METAR ESMX 240320Z AUTO 18002KT 9999 NCD 05/03 Q1014=
201806240250 METAR ESMX 240250Z AUTO VRB01KT 9999 NCD 05/03 Q1014=
201806240220 METAR ESMX 240220Z AUTO 31003KT 9999 NCD 05/04 Q1014=
201806240150 METAR ESMX 240150Z AUTO 31002KT 9999 NCD 05/03 Q1014=
201806240120 METAR ESMX 240120Z AUTO 29002KT 9999 NCD 06/04 Q1014=
201806240050 METAR ESMX 240050Z AUTO VRB01KT 9999 NCD 08/04 Q1014=
201806240020 METAR ESMX 240020Z AUTO VRB03KT 9999 NCD 07/03 Q1014=
201806232350 METAR ESMX 232350Z AUTO 29003KT 9999 NCD 09/05 Q1014=
201806232320 METAR ESMX 232320Z AUTO 28004KT 9999 NCD 10/04 Q1014=
201806232250 METAR ESMX 232250Z AUTO 27004KT 9999 NCD 10/04 Q1014=
201806232220 METAR ESMX 232220Z AUTO 28004KT 9999 NCD 10/05 Q1014=
201806232150 METAR ESMX 232150Z AUTO 27004KT 9999 NCD 11/05 Q1013=
201806232120 METAR ESMX 232120Z AUTO VRB02KT 9999 NCD 12/06 Q1013=
201806232050 METAR ESMX 232050Z AUTO 29003KT 250V320 9999 NCD 12/06 Q1013=
201806232020 METAR ESMX 232020Z AUTO 28003KT 9999 NCD 14/06 Q1013=
201806231950 METAR ESMX 231950Z AUTO 32004KT 290V350 9999 FEW068/// 14/06 Q1013=
201806231920 METAR ESMX 231920Z 31005KT CAVOK 17/05 Q1013=
201806231850 METAR ESMX 231850Z 31005KT CAVOK 18/05 Q1012=
201806231820 METAR ESMX 231820Z 30005KT 270V330 CAVOK 18/05 Q1012=
201806231750 METAR ESMX 231750Z 31005KT CAVOK 18/05 Q1012=
201806231720 METAR ESMX 231720Z 30007KT CAVOK 19/04 Q1012=
201806231650 METAR ESMX 231650Z 32009KT 280V360 CAVOK 20/04 Q1012=
201806231620 METAR ESMX 231620Z 31008KT 280V340 CAVOK 19/04 Q1012=
201806231550 METAR ESMX 231550Z 34008KT 300V010 CAVOK 19/03 Q1012=
201806231520 METAR ESMX 231520Z 34008KT 300V020 CAVOK 19/04 Q1012=
201806231450 METAR ESMX 231450Z 32008KT 270V350 CAVOK 19/04 Q1012=
201806231420 METAR COR ESMX 231420Z 31010KT 280V350 CAVOK 20/03 Q1013=
201806231350 METAR ESMX 231350Z AUTO 32011KT 9999 BKN068/// 20/03 Q1013=
201806231320 METAR ESMX 231320Z AUTO 30009KT 9999 SCT062/// 19/03 Q1013=
201806231250 METAR ESMX 231250Z AUTO 33010KT 290V360 9999 FEW064/// 18/03 Q1013=
201806231220 METAR ESMX 231220Z AUTO 33010KT 9999 FEW062/// 17/03 Q1013=
201806231150 METAR ESMX 231150Z AUTO 32009KT 290V360 9999 BKN062/// 18/02 Q1013=
201806231120 METAR ESMX 231120Z AUTO 34011KT 9999 SCT064/// 17/02 Q1013=
201806231050 METAR ESMX 231050Z AUTO 33011KT 9999 BKN064/// 17/01 Q1013=
201806231020 METAR ESMX 231020Z AUTO 34010KT 300V020 9999 FEW059/// 17/02 Q1013=
201806230950 METAR ESMX 230950Z AUTO 34013KT 9999 FEW057/// 17/02 Q1013=
201806230920 METAR ESMX 230920Z AUTO 30011KT 260V350 9999 NCD 16/02 Q1013=
201806230850 METAR ESMX 230850Z AUTO 32011KT 280V010 9999 NCD 16/02 Q1012=
201806230820 METAR ESMX 230820Z AUTO 34011KT 9999 NCD 16/04 Q1013=
201806230750 METAR ESMX 230750Z AUTO 30010KT 250V350 9999 NCD 14/03 Q1012=
201806230720 METAR ESMX 230720Z AUTO 30010KT 260V330 9999 NCD 14/03 Q1012=
201806230650 METAR ESMX 230650Z AUTO 32009KT 270V360 9999 NCD 14/03 Q1012=
201806230620 METAR ESMX 230620Z AUTO 33010KT 9999 NCD 13/03 Q1012=
201806230550 METAR ESMX 230550Z AUTO 34007KT 300V010 9999 NCD 13/04 Q1012=
201806230520 METAR ESMX 230520Z AUTO 34007KT 310V020 9999 NCD 13/05 Q1012=
201806230450 METAR ESMX 230450Z AUTO 31006KT 9999 NCD 12/06 Q1012=
201806230420 METAR ESMX 230420Z AUTO 30005KT 9999 NCD 11/07 Q1011=
201806230350 METAR ESMX 230350Z AUTO VRB01KT 9999 NCD 09/09 Q1011=
201806230320 METAR ESMX 230320Z AUTO 27002KT 9999 NCD 08/07 Q1011=
201806230250 METAR ESMX 230250Z AUTO 18002KT 6000 BR NCD 09/08 Q1011=
201806230220 METAR ESMX 230220Z AUTO 22003KT 9999 SCT086/// 09/08 Q1011=
201806230150 METAR ESMX 230150Z AUTO 25003KT 9999 OVC082/// 09/08 Q1011=
201806230120 METAR ESMX 230120Z AUTO 23004KT 9999 SCT078/// BKN100/// 09/08 Q1010=
201806230050 METAR ESMX 230050Z AUTO 24003KT 9999 BKN110/// 10/08 Q1010=
201806230020 METAR ESMX 230020Z AUTO 27005KT 9999 -RA FEW055/// SCT070/// BKN098/// 10/08 Q1010=
201806222350 METAR ESMX 222350Z AUTO 28004KT 9999 FEW029/// BKN068/// BKN096/// 11/08 Q1010=
201806222320 METAR ESMX 222320Z AUTO 23004KT 9999 FEW061/// BKN088/// BKN140/// 10/08 Q1010=
201806222250 METAR ESMX 222250Z AUTO 24004KT 9999 BKN066/// OVC080/// 11/08 Q1010=
201806222220 METAR ESMX 222220Z AUTO 24003KT 9999 OVC066/// 11/08 Q1010=
201806222150 METAR ESMX 222150Z AUTO 22004KT 9999 OVC074/// 11/07 Q1010=
201806222120 METAR ESMX 222120Z AUTO 23006KT 9999 OVC074/// 11/07 Q1010=
201806222050 METAR ESMX 222050Z AUTO 22005KT 9999 OVC072/// 11/07 Q1010=
201806222020 METAR ESMX 222020Z AUTO 20005KT 9999 OVC076/// 10/07 Q1010=
201806221950 METAR ESMX 221950Z AUTO 21005KT 9999 OVC092/// 10/07 Q1010=
201806221920 METAR ESMX 221920Z AUTO 19006KT 9999 FEW068/// SCT092/// 11/07 Q1010=
201806221850 METAR ESMX 221850Z AUTO 21004KT 9999 -DZ FEW032/// SCT046/// 11/08 Q1010=
201806221820 METAR ESMX 221820Z AUTO 27005KT 9999 FEW037/// OVC055/// 13/07 Q1010 REDZ=
201806221750 METAR ESMX 221750Z AUTO 29003KT 250V330 9999 -RA BKN070/// OVC110/// 13/07 Q1010=
201806221720 METAR ESMX 221720Z AUTO 35008KT 9999 SCT057/// OVC110/// 13/07 Q1010=
201806221650 METAR ESMX 221650Z 27011KT CAVOK 16/03 Q1009=
201806221620 METAR ESMX 221620Z 26009KT 220V290 CAVOK 15/06 Q1009=
201806221550 METAR ESMX 221550Z 26009KT CAVOK 14/05 Q1010=
201806221520 METAR COR ESMX 221520Z 26010KT 230V290 CAVOK 14/06 Q1009=
201806221450 METAR ESMX 221450Z 27012KT 240V300 CAVOK 15/05 Q1009=
201806221420 METAR COR ESMX 221420Z 28011KT 250V320 9999 -RA SCT045 14/05 Q1009=
201806221350 METAR ESMX 221350Z 25011KT CAVOK 16/03 Q1009=
201806221320 METAR ESMX 221320Z 29009KT CAVOK 16/03 Q1008=
201806221250 METAR ESMX 221250Z 28008KT 250V320 CAVOK 16/04 Q1008=
201806221220 METAR ESMX 221220Z 29012KT CAVOK 17/04 Q1008=
201806221150 METAR ESMX 221150Z 31015KT 9999 BKN049 17/04 Q1008=
201806221120 METAR ESMX 221120Z 27014KT 240V300 9999 BKN047 16/04 Q1008=
201806221050 METAR ESMX 221050Z 28014KT 250V320 9999 BKN041 15/06 Q1008=
201806221020 METAR COR ESMX 221020Z 29013KT 9999 SCT034 14/06 Q1008=
201806220950 METAR ESMX 220950Z AUTO 26014KT 230V290 9999 SCT032/// 14/05 Q1008=
201806220920 METAR ESMX 220920Z AUTO 26012KT 230V290 9999 FEW032/// 14/06 Q1007=
201806220850 METAR ESMX 220850Z AUTO 28011KT 240V300 9999 FEW160/// SCT190/// 13/06 Q1007=
201806220820 METAR ESMX 220820Z AUTO 27011KT 220V300 9999 FEW025/// SCT150/// 13/06 Q1007=
201806220750 METAR ESMX 220750Z AUTO 28012KT 250V310 9999 SCT023/// 12/07 Q1006=
201806220720 METAR ESMX 220720Z AUTO 28010KT 250V320 9999 SCT022/// 12/07 Q1006=
201806220650 METAR ESMX 220650Z AUTO 31010KT 290V350 9999 FEW020/// SCT150/// 12/06 Q1006=
201806220620 METAR ESMX 220620Z AUTO 29010KT 250V330 9999 SCT017/// 11/07 Q1005=
201806220550 METAR ESMX 220550Z AUTO 28009KT 9999 FEW013/// 10/08 Q1005=
201806220520 METAR ESMX 220520Z AUTO 28009KT 9999 FEW011/// 09/07 Q1005=
201806220450 METAR ESMX 220450Z AUTO 29010KT 9999 FEW010/// SCT150/// 09/07 Q1005=
201806220420 METAR ESMX 220420Z AUTO 27008KT 9999 NCD 08/07 Q1004=
201806220350 METAR ESMX 220350Z AUTO 26007KT 9999 FEW094/// 08/07 Q1004=
201806220320 METAR ESMX 220320Z AUTO 23005KT 9999 BKN094/// 08/07 Q1004=
201806220250 METAR ESMX 220250Z AUTO 25007KT 9999 SCT076/// 08/07 Q1004=
201806220220 METAR ESMX 220220Z AUTO 26005KT 9999 FEW055/// OVC072/// 08/07 Q1004=
201806220150 METAR ESMX 220150Z AUTO 25006KT 9999 FEW038/// BKN053/// BKN061/// 08/07 Q1003=
201806220120 METAR ESMX 220120Z AUTO 26006KT 9999 BKN051/// OVC068/// 08/07 Q1003=
201806220050 METAR ESMX 220050Z AUTO 25006KT 9999 -DZ SCT051/// BKN061/// BKN082/// 08/07 Q1003 RESHUP REDZ=
201806220020 METAR ESMX 220020Z AUTO 25007KT 9999 OVC049/// 08/07 Q1003=
201806212350 METAR ESMX 212350Z 25005KT 9999 DZ FEW037 08/07 Q1003=
201806212320 METAR ESMX 212320Z 24005KT 210V280 CAVOK 08/06 Q1003=
201806212250 METAR ESMX 212250Z 26005KT 9999 -RA SCT034 08/06 Q1003=
201806212220 METAR ESMX 212220Z 26004KT 220V280 9999 SCT035 08/06 Q1003=
201806212150 METAR ESMX 212150Z 27007KT 9999 BKN033 08/06 Q1003=
201806212120 METAR ESMX 212120Z AUTO 25006KT 9999 BKN035/// 08/06 Q1003=
201806212050 METAR ESMX 212050Z AUTO 25006KT 9999 FEW036/// 07/06 Q1003=
201806212020 METAR ESMX 212020Z AUTO 23005KT 9999 NCD 07/06 Q1003=
201806211950 METAR ESMX 211950Z 26007KT CAVOK 09/06 Q1003=
201806211920 METAR ESMX 211920Z AUTO 27007KT 9999 NCD 09/07 Q1003=
201806211850 METAR ESMX 211850Z AUTO 28009KT 9999 FEW042/// 10/07 Q1002=
201806211820 METAR ESMX 211820Z 29006KT 260V330 9999 FEW038 10/08 Q1002=
201806211750 METAR ESMX 211750Z 32010KT 9999 -RA FEW006 SCT026 BKN040 10/08 Q1002=
201806211720 METAR ESMX 211720Z 31011KT 7000 RA FEW006 BKN042 10/08 Q1002=
201806211650 METAR ESMX 211650Z 26009KT 9000 -RA FEW027 BKN048 10/08 Q1002=
201806211620 METAR ESMX 211620Z 28007KT 240V320 9999 -RA SCT036 BKN047 11/08 Q1002=
201806211550 METAR ESMX 211550Z 25006KT 210V290 9000 RA SCT037 BKN046 10/09 Q1002=
201806211520 METAR ESMX 211520Z 28006KT 240V340 9999 FEW023 SCT062 12/09 Q1002=
201806211450 METAR ESMX 211450Z 32008KT 9999 -RA FEW024 BKN038 11/09 Q1002=
201806211420 METAR ESMX 211420Z 31013KT 7000 -RA BKN040 11/07 Q1002=
201806211350 METAR ESMX 211350Z 24011KT 9999 BKN035 16/07 Q1001=
201806211320 METAR ESMX 211320Z 23009KT 9999 BKN031 15/08 Q1001=
201806211250 METAR ESMX 211250Z 22010KT 9999 SCT027 15/09 Q1002=
201806211220 METAR ESMX 211220Z 23009KT 180V250 9999 SCT022 15/09 Q1002=
201806211150 METAR ESMX 211150Z 24009KT 9999 SCT020 13/08 Q1002=
201806211120 METAR ESMX 211120Z 25009KT 9999 FEW020 BKN046 13/08 Q1003=
201806211050 METAR ESMX 211050Z 25011KT 210V280 9999 SCT020 13/09 Q1003=
201806211020 METAR ESMX 211020Z 25010KT 9999 SCT017 BKN022 14/09 Q1003=
201806210950 METAR ESMX 210950Z 25010KT 9999 BKN017 13/09 Q1003=
201806210920 METAR ESMX 210920Z 24010KT 210V280 9999 BKN016 14/09 Q1004=
201806210850 METAR ESMX 210850Z 24012KT 220V280 9999 BKN014 13/10 Q1003=
201806210820 METAR ESMX 210820Z 23011KT 200V270 9999 BKN015 14/10 Q1003=
201806210750 METAR ESMX 210750Z 23012KT 9999 SCT015 BKN023 13/10 Q1004=
201806210720 METAR ESMX 210720Z 21011KT 9999 SCT015 BKN028 13/10 Q1004=
201806210650 METAR ESMX 210650Z 20014KT 9999 BKN015 13/10 Q1004=
201806210620 METAR ESMX 210620Z 21011KT 9999 SCT014 BKN044 13/10 Q1004=
201806210550 METAR ESMX 210550Z 21010KT 9999 BKN014 OVC040 13/10 Q1005=
201806210520 METAR ESMX 210520Z 22011KT 9999 SCT016 BKN030 13/10 Q1005=
201806210450 METAR ESMX 210450Z 24011KT 9999 BKN030 13/10 Q1005=
201806210420 METAR ESMX 210420Z 24014G25KT 9999 -RA SCT013 BKN020 13/11 Q1005=
201806210350 METAR ESMX 210350Z 24015KT 210V280 9999 FEW011 BKN017 15/12 Q1005=
201806210320 METAR ESMX 210320Z AUTO 21012KT 9999 FEW009/// SCT013/// BKN018/// 15/14 Q1005=
201806210250 METAR ESMX 210250Z AUTO 19010KT 9999 SCT008/// BKN012/// OVC023/// 15/14 Q1005 REDZ=
201806210220 METAR ESMX 210220Z AUTO 20009KT 9999 FEW011/// SCT017/// BKN022/// 15/14 Q1006=
201806210150 METAR ESMX 210150Z AUTO 20011KT 9999 SCT012/// BKN018/// 15/14 Q1006=
201806210120 METAR ESMX 210120Z AUTO 21011KT 9999 FEW008/// SCT012/// 15/14 Q1007=
201806210050 METAR ESMX 210050Z AUTO 22009KT 9999 SCT011/// 15/14 Q1007=
201806210020 METAR ESMX 210020Z AUTO 22009KT 9999 FEW013/// SCT053/// 15/14 Q1007=
201806202350 METAR ESMX 202350Z 23009KT 9000 FEW008 BKN015 15/15 Q1008=
201806202320 METAR ESMX 202320Z 20010KT 8000 -RA FEW002 BKN006 BKN017 15/15 Q1008=
201806202250 METAR ESMX 202250Z 20011KT 6000 DZ FEW007 BKN011 BKN017 15/15 Q1008=
201806202220 METAR COR ESMX 202220Z 22012KT 9000 DZ BKN007 OVC012 16/14 Q1009=
201806202150 METAR ESMX 202150Z AUTO 20010KT 9999 BKN008/// BKN009/// OVC013/// 16/15 Q1009=
201806202120 METAR ESMX 202120Z AUTO 21010KT 9999 -RA BKN008/// OVC012/// 16/14 Q1009=
201806202050 METAR ESMX 202050Z AUTO 22012KT 7000 -RA BKN007/// BKN015/// OVC028/// 16/15 Q1009 REDZ=
201806202020 METAR ESMX 202020Z AUTO 21012KT 7000 DZ SCT009/// BKN040/// OVC061/// 16/15 Q1010=
201806201950 METAR ESMX 201950Z AUTO 23012KT 9999 -RA SCT011/// BKN018/// BKN055/// 16/15 Q1010=
201806201920 METAR ESMX 201920Z 22012KT 9999 -RA BKN015 17/15 Q1010=
201806201850 METAR ESMX 201850Z 23015G26KT 200V260 9999 RA BKN018 OVC024 18/14 Q1010=
201806201820 METAR ESMX 201820Z 23018G31KT 9999 SHRA FEW026CB BKN042 18/14 Q1010=
201806201750 METAR ESMX 201750Z 24014G29KT 200V270 9999 FEW030CB SCT039 BKN062 19/13 Q1010=
201806201720 METAR ESMX 201720Z 24021G36KT 210V270 9999 SCT032CB BKN090 20/13 Q1010=
201806201650 METAR ESMX 201650Z 22017G28KT 9999 SCT034CB BKN045 20/13 Q1010=
201806201620 METAR ESMX 201620Z 23013G26KT 200V260 9999 SCT035CB BKN210 20/14 Q1010=
201806201550 METAR ESMX 201550Z 24011KT 9999 SCT029CB 19/16 Q1011=
201806201520 METAR ESMX 201520Z 21009KT 9999 -RA BKN025 19/14 Q1011=
201806201450 METAR ESMX 201450Z 20012KT 9999 BKN026 19/14 Q1012=
201806201420 METAR ESMX 201420Z 20015KT 9999 BKN030 20/14 Q1012=
201806201350 METAR ESMX 201350Z 20013KT 9999 SCT021 BKN028 19/13 Q1013=
201806201320 METAR ESMX 201320Z 21010KT 9999 BKN016 16/12 Q1013=
201806201250 METAR ESMX 201250Z 19011KT 9999 BKN016 16/11 Q1014=
201806201220 METAR ESMX 201220Z 19011KT 9999 BKN015 15/10 Q1014=
201806201150 METAR ESMX 201150Z 19011KT 9999 BKN016 14/10 Q1015=
201806201120 METAR ESMX 201120Z 20005KT 9999 BKN020 13/10 Q1015=
201806201050 METAR ESMX 201050Z 19006KT 9999 BKN027 13/10 Q1016=
201806201020 METAR ESMX 201020Z 21008KT 8000 BR SCT022 OVC034 13/10 Q1016=
201806200950 METAR ESMX 200950Z 22010KT 190V250 9999 DZ FEW011 SCT028 BKN034 14/07 Q1017=
201806200920 METAR ESMX 200920Z 22010KT 9999 FEW014 BKN031 15/07 Q1016=
201806200850 METAR ESMX 200850Z 21010KT 9999 BKN028 15/08 Q1016=
201806200820 METAR ESMX 200820Z 23008KT 9999 BKN031 14/07 Q1017=
201806200750 METAR ESMX 200750Z 24010KT 9999 BKN035 15/06 Q1017=
201806200720 METAR ESMX 200720Z 24011KT 220V300 9999 BKN035 15/06 Q1017=
201806200650 METAR ESMX 200650Z 26011KT 220V290 9999 SCT035 15/05 Q1017=
201806200620 METAR ESMX 200620Z 25010KT 220V280 9999 SCT030 14/06 Q1017=
201806200550 METAR ESMX 200550Z 25009KT 210V280 9999 FEW030 13/07 Q1017=
201806200520 METAR ESMX 200520Z 26008KT 9999 FEW025 12/06 Q1017=
201806200450 METAR ESMX 200450Z 26008KT 9999 FEW025 12/07 Q1017=
201806200420 METAR ESMX 200420Z 26008KT CAVOK 12/07 Q1017=
201806200350 METAR ESMX 200350Z 26007KT 230V290 CAVOK 12/07 Q1017=
201806200320 METAR ESMX 200320Z AUTO 25006KT 9999 SCT180/// 11/07 Q1017=
201806200250 METAR ESMX 200250Z AUTO 25008KT 210V310 9999 NCD 11/07 Q1017=
201806200220 METAR ESMX 200220Z AUTO 24007KT 9999 FEW200/// 11/06 Q1017=
201806200150 METAR ESMX 200150Z AUTO 25009KT 9999 NCD 11/06 Q1017=
201806200120 METAR ESMX 200120Z AUTO 25008KT 230V290 9999 NCD 11/06 Q1017=
201806200050 METAR ESMX 200050Z AUTO 24009KT 200V260 9999 NCD 11/06 Q1017=
201806200020 METAR ESMX 200020Z AUTO 23007KT 9999 NCD 10/06 Q1017=
201806192350 METAR ESMX 192350Z AUTO 23008KT 9999 NCD 10/06 Q1016=
201806192320 METAR ESMX 192320Z AUTO 23008KT 9999 NCD 10/06 Q1017=
201806192250 METAR ESMX 192250Z AUTO 26007KT 230V290 9999 NCD 11/06 Q1016=
201806192220 METAR ESMX 192220Z AUTO 25008KT 210V280 9999 NCD 11/06 Q1016=
201806192150 METAR ESMX 192150Z AUTO 26010KT 9999 NCD 12/06 Q1016=
201806192120 METAR ESMX 192120Z AUTO 25010KT 9999 NCD 12/05 Q1016=
201806192050 METAR ESMX 192050Z AUTO 26011KT 9999 NCD 13/05 Q1016=
201806192020 METAR ESMX 192020Z AUTO 26010KT 9999 NCD 13/05 Q1016=
201806191950 METAR ESMX 191950Z 26010KT 230V290 CAVOK 14/04 Q1016=
201806191920 METAR COR ESMX 191920Z 26012KT 230V290 9999 FEW045 14/04 Q1016=
201806191850 METAR ESMX 191850Z 26013KT CAVOK 15/04 Q1015=
201806191820 METAR ESMX 191820Z 26012G28KT 220V290 CAVOK 16/04 Q1015=
201806191750 METAR ESMX 191750Z 26015G26KT 220V280 CAVOK 16/03 Q1015=
201806191720 METAR ESMX 191720Z 25015G26KT 220V290 CAVOK 17/03 Q1015=
201806191650 METAR ESMX 191650Z 26016KT 240V300 CAVOK 17/04 Q1014=
201806191620 METAR ESMX 191620Z 26015G25KT 240V300 CAVOK 18/03 Q1014=
201806191550 METAR ESMX 191550Z 27017KT CAVOK 18/03 Q1014=
201806191520 METAR ESMX 191520Z 26016KT 230V290 CAVOK 18/04 Q1014=
201806191450 METAR ESMX 191450Z 26014KT CAVOK 19/04 Q1014=
201806191420 METAR ESMX 191420Z 25016KT CAVOK 18/04 Q1013=
201806191350 METAR ESMX 191350Z 26019KT 220V290 CAVOK 20/05 Q1013=
201806191320 METAR ESMX 191320Z 26016G27KT CAVOK 19/07 Q1013=
201806191250 METAR ESMX 191250Z 27019KT CAVOK 19/06 Q1013=
201806191220 METAR ESMX 191220Z 25015G27KT 220V280 CAVOK 19/06 Q1013=
201806191150 METAR ESMX 191150Z 26016KT 230V290 9999 FEW049 SCT066 19/07 Q1013=
201806191120 METAR ESMX 191120Z 25017KT 9999 BKN039 19/07 Q1012=
201806191050 METAR ESMX 191050Z 25015G31KT 210V280 9999 BKN038 18/08 Q1012=
201806191020 METAR ESMX 191020Z 26014G26KT 220V290 9999 BKN036 17/08 Q1012=
201806190950 METAR ESMX 190950Z 24015G28KT 9999 BKN035 18/09 Q1012=
201806190920 METAR ESMX 190920Z 26014KT 210V280 9999 SCT036 BKN060 17/08 Q1012=
201806190850 METAR ESMX 190850Z 25011KT 210V290 9999 FEW025 BKN030 16/09 Q1012=
201806190820 METAR COR ESMX 190820Z 24011G24KT 210V280 9999 SCT020 BKN035 16/09 Q1012=
201806190750 METAR ESMX 190750Z 24011KT 210V270 9999 BKN020 16/10 Q1012=
201806190720 METAR ESMX 190720Z 23012KT 9999 SCT024 15/10 Q1011=
201806190650 METAR ESMX 190650Z 23012KT 190V260 9999 BKN025 15/09 Q1011=
201806190620 METAR COR ESMX 190620Z 23012KT 200V260 9999 SCT024 BKN031 15/10 Q1011=
201806190550 METAR COR ESMX 190550Z 25012KT 210V280 9999 FEW024 15/10 Q1011=
201806190520 METAR ESMX 190520Z 25011KT 210V280 9999 FEW020 14/10 Q1011=
201806190450 METAR ESMX 190450Z 23009KT 200V260 9999 FEW017 14/11 Q1011=
201806190420 METAR ESMX 190420Z 25008KT 9999 FEW018 SCT031 14/11 Q1011=
201806190350 METAR COR ESMX 190350Z 25009KT 9999 SCT015 14/12 Q1011=
201806190320 METAR ESMX 190320Z AUTO 23011KT 9999 SCT016/// BKN022/// BKN140/// 14/12 Q1011=
201806190250 METAR ESMX 190250Z AUTO 21012KT 9999 FEW013/// OVC086/// 14/12 Q1011=
201806190220 METAR ESMX 190220Z AUTO 22011KT 9999 BKN013/// BKN031/// OVC090/// 14/13 Q1011 REDZ=
201806190150 METAR ESMX 190150Z AUTO 20011KT 9999 -DZ BKN038/// OVC053/// 14/13 Q1011=
201806190120 METAR ESMX 190120Z AUTO 22010KT 9999 FEW011/// OVC051/// 15/13 Q1012=
201806190050 METAR ESMX 190050Z AUTO 22010KT 9999 FEW011/// SCT015/// BKN048/// 15/13 Q1012=
201806190020 METAR ESMX 190020Z AUTO 21008KT 9999 SCT009/// BKN015/// BKN051/// 14/13 Q1012=
201806182350 METAR ESMX 182350Z AUTO 22009KT 9999 BKN009/// 14/13 Q1012=
201806182320 METAR ESMX 182320Z AUTO 21008KT 9000 BR SCT009/// BKN011/// 15/14 Q1012=
201806182250 METAR ESMX 182250Z AUTO 20009KT 9000 BR FEW013/// SCT019/// 15/14 Q1012=
201806182220 METAR ESMX 182220Z AUTO 22009KT 4000 +DZ VV017 15/13 Q1013 REDZ=
201806182150 METAR ESMX 182150Z AUTO 19011KT 9999 BR FEW006/// OVC018/// 15/12 Q1013=
201806182120 METAR ESMX 182120Z AUTO 18010KT 9999 OVC021/// 16/11 Q1013=
201806182050 METAR ESMX 182050Z AUTO 18011KT 9999 OVC025/// 16/11 Q1013=
201806182020 METAR ESMX 182020Z AUTO 20009KT 9999 BKN029/// OVC053/// 16/11 Q1014=
201806181950 METAR ESMX 181950Z AUTO 19009KT 9999 SCT029/// OVC070/// 16/11 Q1014=
201806181920 METAR ESMX 181920Z AUTO 22008KT 9999 BKN028/// OVC038/// 16/11 Q1014=
201806181850 METAR ESMX 181850Z AUTO 21009KT 9999 OVC033/// 17/11 Q1014=
201806181820 METAR ESMX 181820Z AUTO 21012KT 9999 OVC033/// 17/10 Q1014=
201806181750 METAR ESMX 181750Z AUTO 20010KT 180V250 9999 SCT041/// OVC066/// 17/10 Q1014=
201806181720 METAR ESMX 181720Z 21010KT 9999 BKN037 17/10 Q1014=
201806181650 METAR ESMX 181650Z 21010KT 9999 BKN045 17/10 Q1015=
201806181620 METAR ESMX 181620Z 24009KT 9999 BKN044 18/09 Q1014=
201806181550 METAR ESMX 181550Z 22009KT 9999 FEW042 BKN050 18/08 Q1015=
201806181520 METAR ESMX 181520Z 24010KT 9999 FEW042 BKN066 19/08 Q1015=
201806181450 METAR ESMX 181450Z 21011KT 180V250 9999 SCT045 BKN066 20/08 Q1015=
201806181420 METAR ESMX 181420Z 24011KT 210V270 9999 FEW045 BKN065 19/08 Q1015=
201806181350 METAR ESMX 181350Z 23011KT 9999 FEW042 BKN066 20/09 Q1015=
201806181320 METAR ESMX 181320Z 23012KT 9999 FEW045 BKN064 19/08 Q1015=
201806181250 METAR ESMX 181250Z 23013KT 190V280 9999 SCT045 BKN060 20/08 Q1015=
201806181220 METAR ESMX 181220Z 24010KT 200V290 9999 FEW044 BKN061 19/08 Q1015=
201806181150 METAR ESMX 181150Z 26010KT 230V290 CAVOK 19/08 Q1015=
201806181120 METAR ESMX 181120Z 23012KT CAVOK 19/08 Q1015=
201806181050 METAR ESMX 181050Z 23011KT 190V270 9999 BKN037 18/08 Q1015=
201806181020 METAR ESMX 181020Z AUTO 25009KT 220V280 9999 FEW032/// BKN055/// 17/08 Q1015=
201806180950 METAR ESMX 180950Z 22009KT 9999 BKN032 17/09 Q1015=
201806180920 METAR ESMX 180920Z 22010KT 9999 SCT030 BKN052 16/09 Q1016=
201806180850 METAR ESMX 180850Z 21010KT 170V250 9999 BKN031 16/08 Q1016=
201806180820 METAR ESMX 180820Z 22011KT 190V260 9999 SCT033 BKN046 16/08 Q1015=
201806180750 METAR ESMX 180750Z 22009KT 180V260 9999 FEW031 BKN041 16/08 Q1015=
201806180720 METAR ESMX 180720Z 25011KT 210V290 9999 BKN031 15/08 Q1015=
201806180650 METAR ESMX 180650Z 24009KT 200V290 9999 BKN028 15/08 Q1015=
201806180620 METAR ESMX 180620Z 23009KT 190V270 9999 FEW024 BKN036 15/09 Q1015=
201806180550 METAR ESMX 180550Z AUTO 23009KT 9999 OVC036/// 13/09 Q1015=
201806180520 METAR ESMX 180520Z 21008KT 9999 BKN034 13/09 Q1015=
201806180450 METAR ESMX 180450Z 21008KT 9999 BKN035 13/09 Q1015=
201806180420 METAR ESMX 180420Z 21006KT 9999 BKN037 12/09 Q1015=
201806180350 METAR COR ESMX 180350Z 21005KT CAVOK 11/09 Q1015=
201806180320 METAR ESMX 180320Z AUTO 18006KT 9999 NCD 10/08 Q1015=
201806180250 METAR ESMX 180250Z AUTO 19006KT 9999 FEW027/// SCT036/// 10/08 Q1015=
201806180220 METAR ESMX 180220Z AUTO 21005KT 9999 FEW029/// 11/08 Q1015=
201806180150 METAR ESMX 180150Z AUTO 21006KT 9999 SCT040/// BKN180/// 11/08 Q1015=
201806180120 METAR ESMX 180120Z AUTO 19006KT 9999 SCT029/// BKN036/// 11/08 Q1015=
201806180050 METAR ESMX 180050Z AUTO 20007KT 9999 BKN032/// OVC051/// 12/09 Q1014=
201806180020 METAR ESMX 180020Z AUTO 20006KT 9999 BKN034/// OVC047/// 12/08 Q1014=
201806172350 METAR ESMX 172350Z AUTO 18006KT 9999 BKN041/// 13/08 Q1014=
201806172320 METAR ESMX 172320Z AUTO 20005KT 9999 NCD 12/08 Q1014=
201806172250 METAR ESMX 172250Z AUTO 22004KT 9999 FEW057/// 13/08 Q1014=
201806172220 METAR ESMX 172220Z AUTO 23006KT 9999 FEW044/// SCT057/// 13/08 Q1014=
201806172150 METAR ESMX 172150Z AUTO 21007KT 9999 FEW042/// OVC055/// 14/08 Q1014=
201806172120 METAR ESMX 172120Z AUTO 23008KT 9999 SCT057/// 14/08 Q1014=
201806172050 METAR ESMX 172050Z AUTO 22007KT 9999 FEW057/// 14/09 Q1014=
201806172020 METAR ESMX 172020Z AUTO 22007KT 9999 NCD 15/08 Q1013=
201806171950 METAR ESMX 171950Z 22006KT CAVOK 15/09 Q1013=
201806171920 METAR ESMX 171920Z 22007KT 9999 FEW033 16/09 Q1013=
201806171850 METAR ESMX 171850Z 21008KT 9999 SCT033 16/09 Q1013=
201806171820 METAR ESMX 171820Z 22008KT CAVOK 17/09 Q1012=
201806171750 METAR ESMX 171750Z 23010KT CAVOK 17/08 Q1012=
201806171720 METAR ESMX 171720Z 24010KT 200V290 CAVOK 17/08 Q1012=
201806171650 METAR ESMX 171650Z 23011KT 9999 FEW026 18/09 Q1012=
201806171620 METAR ESMX 171620Z 24014KT 9999 FEW029 SCT090 18/13 Q1012=
201806171550 METAR ESMX 171550Z 25006KT 9999 SHRA BKN049CB 18/13 Q1012=
201806171520 METAR ESMX 171520Z 25009KT 210V280 9999 SCT042CB 19/11 Q1011=
201806171450 METAR ESMX 171450Z 24009KT 210V280 9999 SCT035 20/12 Q1011=
201806171420 METAR ESMX 171420Z 24013KT 200V280 9999 FEW030 SCT050 20/12 Q1011=
201806171350 METAR ESMX 171350Z 22012KT 9999 VCSH SCT028 BKN040CB 20/13 Q1010=
201806171320 METAR ESMX 171320Z 19013KT 160V220 9999 SHRA SCT026 BKN040CB 20/14 Q1010=
201806171250 METAR ESMX 171250Z 20011KT 9999 SCT022 BKN050CB 21/15 Q1010=
201806171220 METAR ESMX 171220Z 19011KT 9999 SCT020 BKN030 20/16 Q1011=
201806171150 METAR ESMX 171150Z 18010KT 140V210 9999 SCT008 BKN018 19/15 Q1011=
201806171120 METAR ESMX 171120Z 15006KT 110V180 9999 BKN007 18/16 Q1011=
201806171050 METAR ESMX 171050Z 13004KT 060V170 9999 BKN004 OVC070 16/15 Q1011=
201806171020 METAR ESMX 171020Z 10003KT 060V190 9000 -RA FEW002 BKN055 16/15 Q1011=
201806170950 METAR ESMX 170950Z AUTO 17007KT 6000 RA SCT001/// OVC013/// 16/14 Q1012=
201806170920 METAR ESMX 170920Z AUTO 14005KT 100V160 9999 -DZ OVC014/// 16/13 Q1012=
201806170850 METAR ESMX 170850Z 13007KT 100V160 9999 SCT018 BKN100 17/13 Q1012=
201806170820 METAR ESMX 170820Z 12005KT 050V180 9999 FEW030 BKN160 17/12 Q1012=
201806170750 METAR ESMX 170750Z 13006KT 090V190 9999 -RA SCT013 BKN046 16/13 Q1013=
201806170720 METAR ESMX 170720Z 14005KT 100V190 9999 SCT045 BKN060 16/13 Q1013=
201806170650 METAR ESMX 170650Z 13006KT 080V170 CAVOK 16/12 Q1013=
201806170620 METAR ESMX 170620Z 13005KT 080V170 9999 FEW045 BKN070 15/12 Q1013=
201806170550 METAR ESMX 170550Z AUTO 12005KT 070V160 9999 -RA FEW045/// SCT080/// 15/12 Q1013 REDZ=
201806170520 METAR ESMX 170520Z AUTO 14008KT 9999 -RA OVC084/// 15/11 Q1013=
201806170450 METAR ESMX 170450Z AUTO 14006KT 9999 FEW088/// BKN130/// 16/10 Q1013=
201806170420 METAR ESMX 170420Z AUTO 13007KT 090V160 9999 FEW090/// 15/10 Q1013=
201806170350 METAR ESMX 170350Z AUTO 15006KT 9999 FEW078/// 14/11 Q1014=
201806170320 METAR ESMX 170320Z AUTO 14007KT 9999 BKN100/// 14/10 Q1014=
201806170250 METAR ESMX 170250Z AUTO 14007KT 9999 FEW096/// SCT110/// 14/11 Q1014=
201806170220 METAR ESMX 170220Z AUTO 16003KT 110V210 9999 OVC086/// 14/12 Q1014=
201806170150 METAR ESMX 170150Z AUTO 13005KT 9999 -RA OVC078/// 14/12 Q1014=
201806170120 METAR ESMX 170120Z AUTO 16007KT 9999 -RA OVC082/// 14/11 Q1015=
201806170050 METAR ESMX 170050Z AUTO 14006KT 9999 OVC082/// 15/09 Q1015=
201806170020 METAR ESMX 170020Z AUTO 13005KT 9999 OVC084/// 15/08 Q1015=
201806162350 METAR ESMX 162350Z AUTO 18006KT 9999 OVC086/// 15/08 Q1016=
201806162320 METAR ESMX 162320Z AUTO 17006KT 140V200 9999 OVC084/// 16/07 Q1015=
201806162250 METAR ESMX 162250Z AUTO 14004KT 110V170 9999 OVC092/// 16/07 Q1015=
201806162220 METAR ESMX 162220Z AUTO VRB03KT 9999 SCT098/// 15/08 Q1015=
201806162150 METAR ESMX 162150Z AUTO 16005KT 9999 FEW140/// 16/07 Q1016=
201806162120 METAR ESMX 162120Z AUTO 18004KT 9999 FEW110/// 16/07 Q1016=
201806162050 METAR ESMX 162050Z AUTO 15005KT 9999 SCT110/// 16/08 Q1016=
201806162020 METAR ESMX 162020Z AUTO 16006KT 9999 SCT110/// 17/07 Q1016=
201806161950 METAR ESMX 161950Z AUTO 16007KT 9999 FEW120/// 18/07 Q1016=
201806161920 METAR ESMX 161920Z 17008KT CAVOK 19/09 Q1016=
201806161850 METAR ESMX 161850Z 16006KT CAVOK 20/09 Q1015=
201806161820 METAR ESMX 161820Z 16004KT CAVOK 20/09 Q1015=
201806161750 METAR ESMX 161750Z 17005KT CAVOK 20/08 Q1016=
201806161720 METAR ESMX 161720Z 17006KT CAVOK 20/08 Q1016=
201806161650 METAR ESMX 161650Z 16007KT 120V190 CAVOK 20/08 Q1016=
201806161620 METAR ESMX 161620Z 17007KT CAVOK 21/07 Q1016=
201806161550 METAR ESMX 161550Z 19007KT 150V220 CAVOK 21/06 Q1016=
201806161520 METAR ESMX 161520Z 16006KT CAVOK 21/05 Q1016=
201806161450 METAR ESMX 161450Z 16004KT 110V210 CAVOK 22/06 Q1016=
201806161420 METAR ESMX 161420Z AUTO 15004KT 050V190 9999 SCT062/// BKN076/// 21/06 Q1016=
201806161350 METAR ESMX 161350Z AUTO 16004KT 080V230 9999 BKN064/// 21/05 Q1017=
201806161320 METAR ESMX 161320Z AUTO 18006KT 130V230 9999 OVC064/// 21/05 Q1017=
201806161250 METAR ESMX 161250Z AUTO 19006KT 120V220 9999 BKN070/// BKN160/// 21/05 Q1017=
201806161220 METAR ESMX 161220Z AUTO 26006KT 230V290 9999 FEW059/// BKN074/// BKN200/// 21/05 Q1017=
201806161150 METAR ESMX 161150Z AUTO 17005KT 110V200 9999 FEW005/// SCT057/// BKN150/// 20/05 Q1018=
201806161120 METAR ESMX 161120Z AUTO VRB03KT 9999 FEW160/// 21/06 Q1018=
201806161050 METAR ESMX 161050Z AUTO 28005KT 240V320 9999 FEW062/// SCT190/// 20/06 Q1018=
201806161020 METAR ESMX 161020Z AUTO VRB04KT 9999 FEW070/// 21/06 Q1018=
201806160950 METAR ESMX 160950Z AUTO 26005KT 210V320 9999 FEW066/// SCT190/// 19/06 Q1018=
201806160920 METAR ESMX 160920Z 25007KT 210V300 CAVOK 20/05 Q1018=
201806160850 METAR ESMX 160850Z 23007KT 170V320 CAVOK 20/05 Q1018=
201806160820 METAR ESMX 160820Z 24006KT 150V290 9999 SCT048 19/06 Q1018=
201806160750 METAR ESMX 160750Z 27005KT 240V320 9999 SCT040 18/07 Q1018=
201806160720 METAR ESMX 160720Z 22005KT 160V280 9999 FEW038 SCT055 18/07 Q1018=
201806160650 METAR ESMX 160650Z AUTO 24004KT 180V350 9999 NCD 18/08 Q1018=
201806160620 METAR ESMX 160620Z AUTO VRB03KT 9999 NCD 17/08 Q1018=
201806160550 METAR ESMX 160550Z AUTO VRB03KT 9999 NCD 16/08 Q1018=
201806160520 METAR ESMX 160520Z AUTO VRB02KT 9999 NCD 15/08 Q1018=
201806160450 METAR ESMX 160450Z AUTO VRB02KT 9999 NCD 14/09 Q1018=
201806160420 METAR ESMX 160420Z AUTO VRB02KT 9999 NCD 13/09 Q1018=
201806160350 METAR ESMX 160350Z AUTO 17002KT 9999 NCD 10/08 Q1018=
201806160320 METAR ESMX 160320Z AUTO 00000KT 9999 NCD 09/06 Q1018=
201806160250 METAR ESMX 160250Z AUTO 19003KT 9999 NCD 07/06 Q1018=
201806160220 METAR ESMX 160220Z AUTO 13002KT 9999 NCD 08/06 Q1018=
201806160150 METAR ESMX 160150Z AUTO 17002KT 9999 NCD 07/05 Q1018=
201806160120 METAR ESMX 160120Z AUTO 13001KT 9999 NCD 08/05 Q1017=
201806160050 METAR ESMX 160050Z AUTO VRB01KT 9999 NCD 09/06 Q1017=
201806160020 METAR ESMX 160020Z AUTO 27003KT 9999 NCD 06/04 Q1017=
201806152350 METAR ESMX 152350Z AUTO VRB01KT 9999 NCD 09/05 Q1017=
201806152320 METAR ESMX 152320Z AUTO 26003KT 9999 NCD 10/06 Q1017=
201806152250 METAR ESMX 152250Z 26005KT CAVOK 10/05 Q1017=
201806152220 METAR ESMX 152220Z 25004KT CAVOK 09/04 Q1017=
201806152150 METAR ESMX 152150Z 26004KT CAVOK 09/05 Q1017=
201806152120 METAR COR ESMX 152120Z 24004KT CAVOK 10/04 Q1017=
201806152050 METAR ESMX 152050Z AUTO 24004KT 9999 NCD 12/05 Q1017=
201806152020 METAR COR ESMX 152020Z 25003KT CAVOK 12/04 Q1017=
201806151950 METAR ESMX 151950Z 25005KT CAVOK 14/04 Q1016=
201806151920 METAR ESMX 151920Z 25005KT CAVOK 16/04 Q1016=
201806151850 METAR ESMX 151850Z 26005KT CAVOK 16/04 Q1016=
201806151820 METAR ESMX 151820Z 26007KT CAVOK 18/04 Q1016=
201806151750 METAR ESMX 151750Z 26008KT CAVOK 19/04 Q1016=
201806151720 METAR ESMX 151720Z 26008KT CAVOK 20/05 Q1016=
201806151650 METAR ESMX 151650Z 23008KT 200V270 CAVOK 20/04 Q1015=
201806151620 METAR ESMX 151620Z 24009KT 190V280 CAVOK 20/04 Q1015=
201806151550 METAR ESMX 151550Z 23009KT 210V280 CAVOK 21/04 Q1015=
201806151520 METAR ESMX 151520Z 23009KT CAVOK 21/04 Q1015=
201806151450 METAR ESMX 151450Z 27007KT 220V320 CAVOK 21/04 Q1015=
201806151420 METAR ESMX 151420Z 25010KT 200V280 CAVOK 21/05 Q1015=
201806151350 METAR ESMX 151350Z 24009KT 200V280 CAVOK 21/06 Q1015=
201806151320 METAR ESMX 151320Z 26009KT 240V300 CAVOK 21/06 Q1015=
201806151250 METAR ESMX 151250Z 27008KT 230V320 CAVOK 21/06 Q1014=
201806151220 METAR ESMX 151220Z 28009KT 240V310 CAVOK 21/06 Q1014=
201806151150 METAR ESMX 151150Z 23009KT 210V300 9999 FEW047 21/06 Q1014=
201806151120 METAR ESMX 151120Z 22008KT 170V270 9999 FEW040 20/06 Q1014=
201806151050 METAR ESMX 151050Z 27008KT 240V310 CAVOK 20/07 Q1014=
201806151020 METAR ESMX 151020Z 26008KT 230V290 9999 SCT044 20/06 Q1014=
201806150950 METAR ESMX 150950Z 22008KT 190V260 9999 SCT044 19/07 Q1014=
201806150920 METAR ESMX 150920Z 24007KT 200V290 9999 SCT041 19/08 Q1014=
201806150850 METAR ESMX 150850Z 23007KT 190V290 9999 SCT037 18/09 Q1014=
201806150820 METAR ESMX 150820Z 25006KT 200V270 9999 SCT036 17/09 Q1014=
201806150750 METAR ESMX 150750Z 24005KT 200V290 9999 SCT027 17/09 Q1014=
201806150720 METAR ESMX 150720Z 25006KT 200V330 9999 SCT021 15/09 Q1014=
201806150650 METAR ESMX 150650Z 25006KT 210V280 9999 FEW017 SCT025 15/10 Q1013=
201806150620 METAR ESMX 150620Z 27005KT 240V310 9999 FEW015 BKN022 15/11 Q1013=
201806150550 METAR ESMX 150550Z 26005KT 200V290 9999 FEW012 BKN025 15/11 Q1013=
201806150520 METAR ESMX 150520Z 24006KT 210V280 9999 SCT010 BKN035 14/12 Q1013=
201806150450 METAR ESMX 150450Z 25006KT 9999 FEW012 BKN036 14/12 Q1012=
201806150420 METAR ESMX 150420Z 22006KT 9999 FEW014 BKN025 13/12 Q1012=
201806150350 METAR ESMX 150350Z 21004KT 9999 SCT020 13/12 Q1012=
201806150320 METAR ESMX 150320Z AUTO 22004KT 9999 NCD 13/12 Q1012=
201806150250 METAR ESMX 150250Z AUTO 21005KT 9999 FEW010/// SCT066/// 13/12 Q1011=
201806150220 METAR ESMX 150220Z AUTO 22006KT 9999 SCT033/// BKN049/// OVC068/// 14/12 Q1011 REDZ=
201806150150 METAR ESMX 150150Z AUTO 25006KT 9999 -DZ SCT001/// BKN013/// BKN031/// 14/13 Q1011=
201806150120 METAR ESMX 150120Z AUTO 19008KT 9999 OVC014/// 15/12 Q1011=
201806150050 METAR ESMX 150050Z AUTO 21009KT 9999 OVC016/// 15/12 Q1010=
201806150020 METAR ESMX 150020Z AUTO 19009KT 9999 BKN018/// OVC039/// 15/11 Q1010=
201806142350 METAR ESMX 142350Z AUTO 19008KT 9999 FEW022/// SCT043/// BKN055/// 15/12 Q1010=
201806142320 METAR ESMX 142320Z AUTO 20009KT 9999 FEW051/// SCT062/// OVC090/// 15/12 Q1010=
201806142250 METAR ESMX 142250Z 20009KT 9999 BKN025 15/12 Q1010=
201806142220 METAR COR ESMX 142220Z 23009KT 9999 FEW018 BKN024 16/11 Q1011=
201806142150 METAR ESMX 142150Z 19010KT 9999 FEW030 BKN045 16/11 Q1010=
201806142120 METAR ESMX 142120Z 18010KT CAVOK 16/11 Q1010=
201806142050 METAR ESMX 142050Z 17010KT CAVOK 17/11 Q1010=
201806142020 METAR ESMX 142020Z 18010KT 9999 FEW049 17/10 Q1010=
201806141950 METAR ESMX 141950Z 18009KT 9999 FEW049 17/11 Q1010=
201806141920 METAR ESMX 141920Z 20009KT 9999 FEW043 17/11 Q1010=
201806141850 METAR ESMX 141850Z 20008KT CAVOK 18/11 Q1010=
201806141820 METAR ESMX 141820Z 20010KT 9999 SCT037 18/11 Q1010=
201806141750 METAR ESMX 141750Z 20009KT 9999 SCT039 18/10 Q1010=
201806141720 METAR ESMX 141720Z 19010KT 9999 BKN042 19/10 Q1010=
201806141650 METAR ESMX 141650Z 19009KT 9999 BKN048 19/10 Q1010=
201806141620 METAR ESMX 141620Z 19009KT 9999 FEW044 19/09 Q1010=
201806141550 METAR ESMX 141550Z 20009KT 9999 SCT043 20/09 Q1010=
201806141520 METAR ESMX 141520Z 21010KT 9999 FEW043 20/08 Q1010=
201806141450 METAR ESMX 141450Z 23009KT 9999 BKN045 20/08 Q1010=
201806141420 METAR ESMX 141420Z 20010KT 170V230 9999 BKN048 20/08 Q1011=
201806141350 METAR ESMX 141350Z 20010KT 170V240 9999 BKN045 20/08 Q1011=
201806141320 METAR ESMX 141320Z 21009KT 9999 BKN040 19/08 Q1011=
201806141250 METAR ESMX 141250Z 21008KT 160V250 9999 BKN040 20/08 Q1011=
201806141220 METAR ESMX 141220Z 22009KT 180V270 9999 BKN040 18/07 Q1011=
201806141150 METAR ESMX 141150Z 22008KT 170V250 9999 SCT040 19/08 Q1011=
201806141120 METAR ESMX 141120Z 23009KT 9999 BKN038 18/07 Q1011=
201806141050 METAR ESMX 141050Z 23010KT 200V260 9999 BKN035 17/08 Q1012=
201806141020 METAR ESMX 141020Z 22010KT 9999 BKN034 17/07 Q1012=
201806140950 METAR ESMX 140950Z 19010KT 160V230 9999 BKN034 16/07 Q1012=
201806140920 METAR ESMX 140920Z 22011KT 9999 BKN030 15/07 Q1012=
201806140850 METAR ESMX 140850Z 22007KT 9999 BKN033 15/08 Q1012=
201806140820 METAR ESMX 140820Z 21009KT 9999 BKN030 15/08 Q1012=
201806140750 METAR ESMX 140750Z 23008KT 9999 SCT020 BKN026 15/08 Q1012=
201806140720 METAR ESMX 140720Z 22008KT 9999 BKN022 14/09 Q1012=
201806140650 METAR ESMX 140650Z 22008KT 9999 BKN025 14/09 Q1012=
201806140620 METAR ESMX 140620Z 23006KT 200V270 9999 SCT030 14/08 Q1011=
201806140550 METAR ESMX 140550Z 23005KT CAVOK 14/09 Q1011=
201806140520 METAR ESMX 140520Z 18003KT CAVOK 13/09 Q1011=
201806140450 METAR ESMX 140450Z VRB03KT CAVOK 12/09 Q1011=
201806140420 METAR ESMX 140420Z 15002KT CAVOK 11/10 Q1011=
201806140350 METAR ESMX 140350Z 15002KT CAVOK 10/09 Q1011=
201806140320 METAR ESMX 140320Z AUTO 25002KT 9999 NCD 10/09 Q1011=
201806140250 METAR ESMX 140250Z AUTO 26003KT 9999 NCD 10/09 Q1011=
201806140220 METAR ESMX 140220Z AUTO 25004KT 9999 NCD 10/09 Q1011=
201806140150 METAR ESMX 140150Z AUTO 26003KT 230V330 9999 NCD 10/09 Q1011=
201806140120 METAR ESMX 140120Z AUTO 25003KT 9999 NCD 10/09 Q1011=
201806140050 METAR ESMX 140050Z AUTO 22004KT 9999 NCD 10/09 Q1011=
201806140020 METAR ESMX 140020Z AUTO 24005KT 9999 NCD 10/09 Q1010=
201806132350 METAR ESMX 132350Z AUTO 22004KT 9999 NCD 10/10 Q1010=
201806132320 METAR ESMX 132320Z AUTO 16003KT 9999 NCD 12/10 Q1010=
201806132250 METAR ESMX 132250Z AUTO 24003KT 9999 NCD 12/10 Q1010=
201806132220 METAR ESMX 132220Z AUTO 25004KT 9999 NCD 13/11 Q1010=
201806132150 METAR ESMX 132150Z AUTO 23005KT 9999 FEW019/// SCT032/// 14/12 Q1010=
201806132120 METAR ESMX 132120Z 19004KT 9999 FEW037 13/12 Q1010=
201806132050 METAR ESMX 132050Z 18005KT 9999 SCT038 14/12 Q1010=
201806132020 METAR ESMX 132020Z 21004KT CAVOK 14/13 Q1009=
201806131950 METAR ESMX 131950Z AUTO 18004KT 9999 NCD 13/12 Q1009=
201806131920 METAR ESMX 131920Z 19004KT CAVOK 15/12 Q1009=
201806131850 METAR ESMX 131850Z VRB03KT CAVOK 17/13 Q1008=
201806131820 METAR ESMX 131820Z VRB03KT CAVOK 18/12 Q1009=
201806131750 METAR ESMX 131750Z 23002KT CAVOK 19/11 Q1008=
201806131720 METAR ESMX 131720Z 22003KT 170V240 CAVOK 18/11 Q1008=
201806131650 METAR ESMX 131650Z VRB03KT CAVOK 19/11 Q1008=
201806131620 METAR ESMX 131620Z 15003KT 070V190 CAVOK 17/11 Q1008=
201806131550 METAR ESMX 131550Z VRB03KT CAVOK 17/12 Q1008=
201806131520 METAR ESMX 131520Z VRB02KT 9999 FEW035 16/12 Q1008=
201806131450 METAR ESMX 131450Z 21004KT 150V250 9999 FEW035CB 16/13 Q1008=
201806131420 METAR ESMX 131420Z 23005KT 9999 VCSH FEW035CB 15/13 Q1008=
201806131350 METAR ESMX 131350Z 24006KT 200V260 9999 VCSH TS SCT045CB BKN080 15/13 Q1008=
201806131320 METAR ESMX 131320Z 15007KT 9999 TSRA BKN030CB 17/10 Q1008=
201806131250 METAR ESMX 131250Z 36009KT 9999 VCSH SCT034CB 19/14 Q1007=
201806131220 METAR ESMX 131220Z 01004KT 9999 FEW035CB BKN082 20/14 Q1007=
201806131150 METAR ESMX 131150Z 01003KT 330V050 9999 BKN068CB 19/13 Q1007=
201806131120 METAR ESMX 131120Z 01004KT 9999 -RA SCT035CB BKN061 17/14 Q1007 RESHRA=
201806131050 METAR ESMX 131050Z 36005KT 9999 -SHRA SCT036CB 17/13 Q1008=
201806131020 METAR COR ESMX 131020Z 08008KT 030V140 9999 SHRA FEW035CB 18/12 Q1007=
201806130950 METAR ESMX 130950Z 15007KT 090V180 9999 VCSH TS BKN031CB 20/11 Q1007=
201806130920 METAR ESMX 130920Z 14007KT 080V180 9999 VCSH SCT040CB 21/12 Q1007=
201806130850 METAR ESMX 130850Z 14007KT 9999 SCT027 20/12 Q1007=
201806130820 METAR ESMX 130820Z 15005KT 120V190 9999 SCT023 20/13 Q1007=
201806130750 METAR ESMX 130750Z 18004KT 120V250 CAVOK 20/13 Q1007=
201806130720 METAR ESMX 130720Z VRB03KT CAVOK 19/14 Q1007=
201806130650 METAR ESMX 130650Z 15004KT 100V190 CAVOK 18/14 Q1007=
201806130620 METAR ESMX 130620Z 19004KT CAVOK 18/14 Q1007=
201806130550 METAR ESMX 130550Z VRB03KT CAVOK 18/14 Q1007=
201806130520 METAR ESMX 130520Z VRB02KT CAVOK 17/14 Q1007=
201806130450 METAR ESMX 130450Z VRB01KT CAVOK 17/14 Q1007=
201806130420 METAR ESMX 130420Z 00000KT CAVOK 15/14 Q1007=
201806130350 METAR ESMX 130350Z 00000KT CAVOK 13/12 Q1007=
201806130320 METAR ESMX 130320Z AUTO 00000KT 9999 OVC084/// 13/12 Q1007=
201806130250 METAR ESMX 130250Z AUTO 17002KT 9999 OVC084/// 12/11 Q1007=
201806130220 METAR ESMX 130220Z AUTO 20001KT 9999 OVC084/// 12/11 Q1007=
201806130150 METAR ESMX 130150Z AUTO 00000KT 9999 BKN078/// 13/12 Q1007=
201806130120 METAR ESMX 130120Z AUTO VRB01KT 9999 OVC074/// 13/12 Q1007=
201806130050 METAR ESMX 130050Z AUTO 20003KT 9999 OVC076/// 13/12 Q1007=
201806130020 METAR ESMX 130020Z 16003KT CAVOK 13/12 Q1007=
201806122350 METAR ESMX 122350Z VRB02KT CAVOK 13/12 Q1007=
201806122320 METAR ESMX 122320Z 00000KT CAVOK 13/11 Q1007=
201806122250 METAR ESMX 122250Z VRB03KT CAVOK 14/12 Q1007=
201806122220 METAR ESMX 122220Z AUTO 18003KT 9999 BKN053/// 15/11 Q1007=
201806122150 METAR ESMX 122150Z AUTO 15005KT 9999 BKN057/// 17/12 Q1007=
201806122120 METAR ESMX 122120Z AUTO 15004KT 9999 OVC074/// 16/12 Q1007=
201806122050 METAR ESMX 122050Z AUTO VRB02KT 9999 OVC072/// 16/11 Q1007=
201806122020 METAR ESMX 122020Z 22002KT CAVOK 16/12 Q1007=
201806121950 METAR ESMX 121950Z 21001KT CAVOK 18/12 Q1006=
201806121920 METAR ESMX 121920Z 22003KT CAVOK 18/12 Q1006=
201806121850 METAR ESMX 121850Z 20002KT CAVOK 19/12 Q1006=
201806121820 METAR ESMX 121820Z 00000KT CAVOK 19/12 Q1006=
201806121750 METAR ESMX 121750Z VRB01KT CAVOK 20/11 Q1006=
201806121720 METAR ESMX 121720Z 02003KT 350V090 CAVOK 21/10 Q1006=
201806121650 METAR ESMX 121650Z 03004KT 360V060 CAVOK 20/10 Q1006=
201806121620 METAR ESMX 121620Z 01005KT 330V040 CAVOK 21/10 Q1006=
201806121550 METAR ESMX 121550Z 06004KT 360V100 CAVOK 20/10 Q1006=
201806121520 METAR ESMX 121520Z 01005KT 320V050 CAVOK 20/10 Q1006=
201806121450 METAR ESMX 121450Z VRB02KT CAVOK 20/10 Q1006=
201806121420 METAR ESMX 121420Z 01005KT 330V050 CAVOK 19/11 Q1006=
201806121350 METAR ESMX 121350Z 34004KT 310V020 9999 BKN045 18/11 Q1006=
201806121320 METAR ESMX 121320Z 35006KT 9999 FEW030 BKN040 18/11 Q1006=
201806121250 METAR ESMX 121250Z 30004KT 240V360 9999 FEW025 BKN050 19/11 Q1006=
201806121220 METAR ESMX 121220Z 29005KT 240V320 9999 BKN045 18/11 Q1006=
201806121150 METAR ESMX 121150Z 31007KT 270V330 9999 BKN044 18/11 Q1006=
201806121120 METAR ESMX 121120Z 30005KT 250V330 9999 FEW020 BKN043 18/11 Q1006=
201806121050 METAR ESMX 121050Z 32007KT 290V350 9999 BKN043 18/11 Q1006=
201806121020 METAR ESMX 121020Z 32008KT 9999 FEW024 BKN040 17/11 Q1006=
201806120950 METAR ESMX 120950Z 31006KT 250V350 9999 BKN025 18/11 Q1005=
201806120920 METAR ESMX 120920Z 32006KT 280V010 9999 SCT021 BKN038 18/11 Q1005=
201806120850 METAR ESMX 120850Z 29006KT 250V340 9999 FEW019 BKN035 17/12 Q1005=
201806120820 METAR ESMX 120820Z 29007KT 260V330 9999 FEW016 BKN030 15/11 Q1005=
201806120750 METAR ESMX 120750Z 31007KT 9999 BKN019 15/11 Q1005=
201806120720 METAR ESMX 120720Z 32009KT 9999 BKN017 15/12 Q1005=
201806120650 METAR ESMX 120650Z 30008KT 260V330 9999 BKN014 15/12 Q1004=
201806120620 METAR ESMX 120620Z 30007KT 270V350 9999 FEW012 15/12 Q1004=
201806120550 METAR ESMX 120550Z 29007KT 9999 FEW010 14/12 Q1004=
201806120520 METAR ESMX 120520Z 31007KT 290V350 9999 SCT010 14/12 Q1004=
201806120450 METAR ESMX 120450Z 28007KT CAVOK 14/11 Q1003=
201806120420 METAR ESMX 120420Z 29004KT 260V330 9999 FEW010 13/12 Q1003=
201806120350 METAR COR ESMX 120350Z 31008KT 9999 FEW010 13/11 Q1003=
201806120320 METAR ESMX 120320Z AUTO 32008KT 290V350 9999 FEW011/// OVC023/// 13/12 Q1003=
201806120250 METAR ESMX 120250Z AUTO 30006KT 9999 OVC021/// 13/12 Q1003=
201806120220 METAR ESMX 120220Z AUTO 30008KT 9999 BKN021/// OVC029/// 13/12 Q1003=
201806120150 METAR ESMX 120150Z AUTO 29006KT 5000 BR FEW005/// BKN008/// OVC017/// 13/12 Q1003=
201806120120 METAR ESMX 120120Z AUTO 29008KT 9999 SCT008/// BKN014/// OVC019/// 13/12 Q1002=
201806120050 METAR ESMX 120050Z AUTO 27007KT 240V300 6000 BR FEW001/// SCT009/// BKN013/// 13/12 Q1002 RERA=
201806120020 METAR ESMX 120020Z AUTO 25007KT 9999 FEW006/// SCT016/// BKN026/// 13/12 Q1002=
201806112350 METAR ESMX 112350Z AUTO 24006KT 9999 FEW006/// BKN013/// BKN025/// 13/12 Q1002 REDZ=
201806112320 METAR ESMX 112320Z AUTO 24007KT 9999 SCT007/// BKN037/// 13/12 Q1002=
201806112250 METAR ESMX 112250Z AUTO 22006KT 9000 BR FEW008/// SCT010/// 13/12 Q1002=
201806112220 METAR ESMX 112220Z AUTO 22007KT 3700 +DZ VV013 13/12 Q1002=
201806112150 METAR ESMX 112150Z AUTO 23007KT 9999 DZ OVC009/// 13/12 Q1002 REDZ=
201806112120 METAR ESMX 112120Z AUTO 21007KT 8000 BR FEW002/// OVC009/// 12/11 Q1003=
201806112050 METAR ESMX 112050Z 22008KT 9999 BKN008 OVC011 12/11 Q1003=
201806112020 METAR ESMX 112020Z 22007KT 9999 FEW007 BKN012 13/11 Q1003=
201806111950 METAR ESMX 111950Z 22007KT 6000 BR FEW008 BKN012 13/11 Q1003=
201806111920 METAR ESMX 111920Z 24008KT 3300 RA FEW001 BKN016 OVC025 13/11 Q1003=
201806111850 METAR ESMX 111850Z 22008KT 190V250 9999 SHRA FEW011CB SCT020 BKN042 14/10 Q1003=
201806111820 METAR ESMX 111820Z 24009KT 210V280 9999 VCSH FEW021CB BKN038 14/10 Q1003=
201806111750 METAR ESMX 111750Z 25015KT 220V290 9999 SHRA FEW017CB SCT024 BKN032 14/10 Q1004=
201806111720 METAR ESMX 111720Z 23011G21KT 9999 SCT033 BKN043 16/09 Q1004=
201806111650 METAR ESMX 111650Z 23010KT 210V270 9999 BKN034 BKN040 16/09 Q1004=
201806111620 METAR ESMX 111620Z 24011KT 9999 FEW037 BKN049 17/08 Q1004=
201806111550 METAR ESMX 111550Z 23012G22KT 9999 SCT038 BKN051 17/09 Q1004=
201806111520 METAR ESMX 111520Z 23013KT 9999 SCT041 BKN053 18/08 Q1004=
201806111450 METAR ESMX 111450Z 22015KT 9999 SCT039 BKN051 19/08 Q1004=
201806111420 METAR ESMX 111420Z 23013KT 200V260 9999 FEW042 SCT055 19/09 Q1004=
201806111350 METAR ESMX 111350Z 23013KT 9999 FEW038 SCT048 19/08 Q1005=
201806111320 METAR ESMX 111320Z 21014KT 9999 SCT039 19/09 Q1005=
201806111250 METAR ESMX 111250Z 25010KT 210V290 9999 SCT034 19/10 Q1005=
201806111220 METAR ESMX 111220Z 23013KT 9999 BKN045 19/10 Q1005=
201806111150 METAR ESMX 111150Z 24010KT 210V290 9999 SCT044 19/09 Q1005=
201806111120 METAR ESMX 111120Z 25011KT 210V280 9999 SCT030 BKN042 18/10 Q1006=
201806111050 METAR ESMX 111050Z 25008KT 210V290 9999 SCT031 BKN040 17/10 Q1006=
201806111020 METAR ESMX 111020Z 24009KT 9999 BKN033 17/10 Q1006=
201806110950 METAR ESMX 110950Z 23010KT 9999 BKN036 18/11 Q1006=
201806110920 METAR ESMX 110920Z 23008KT 200V280 9999 BKN035 18/09 Q1006=
201806110850 METAR ESMX 110850Z 26008KT 230V290 9999 BKN034 18/10 Q1006=
201806110820 METAR ESMX 110820Z 25010KT 9999 FEW025 BKN035 17/11 Q1006=
201806110750 METAR ESMX 110750Z 23010KT 9999 FEW017 SCT024 BKN038 16/11 Q1006=
201806110720 METAR ESMX 110720Z 25008KT 210V280 9999 SCT014 BKN037 16/12 Q1006=
201806110650 METAR ESMX 110650Z 23005KT 200V270 9999 SCT014 BKN020 16/13 Q1006=
201806110620 METAR ESMX 110620Z 25006KT 9999 SCT013 BKN040 16/13 Q1006=
201806110550 METAR ESMX 110550Z 27006KT 9999 SCT010 BKN040 16/13 Q1006=
201806110520 METAR ESMX 110520Z 27005KT 240V310 9999 SCT010 BKN040 16/14 Q1006=
201806110450 METAR ESMX 110450Z 27004KT 9999 BKN040 15/14 Q1006=
201806110420 METAR ESMX 110420Z 27006KT 9999 BKN040 15/14 Q1006=
201806110350 METAR ESMX 110350Z VRB03KT 9999 FEW021 BKN030 15/14 Q1006=
201806110320 METAR ESMX 110320Z AUTO 26003KT 200V290 9999 BKN020/// OVC027/// 15/14 Q1006=
201806110250 METAR ESMX 110250Z AUTO 27006KT 9999 FEW007/// OVC016/// 16/14 Q1006=
201806110220 METAR ESMX 110220Z AUTO 25005KT 9999 FEW015/// BKN021/// OVC026/// 16/15 Q1007=
201806110150 METAR ESMX 110150Z AUTO 21003KT 9999 FEW013/// BKN018/// BKN080/// 15/15 Q1007=
201806110120 METAR ESMX 110120Z AUTO 24003KT 9999 BKN084/// 15/14 Q1007 RERA=
201806110050 METAR ESMX 110050Z AUTO VRB03KT 9999 BKN096/// 15/14 Q1007=
201806110020 METAR ESMX 110020Z AUTO VRB03KT 9999 FEW041/// BKN098/// 15/14 Q1007=
201806102350 METAR ESMX 102350Z AUTO 28002KT 9999 -RA FEW001/// SCT080/// OVC094/// 16/14 Q1007 RESHRA=
201806102320 METAR ESMX 102320Z AUTO VRB03KT 9999 RA FEW051/// OVC082/// 16/15 Q1008=
201806102250 METAR ESMX 102250Z AUTO 28006KT 9999 -RA OVC074/// 16/15 Q1008=
201806102220 METAR ESMX 102220Z AUTO 30006KT 9999 OVC072/// 18/13 Q1008=
201806102150 METAR ESMX 102150Z AUTO 29004KT 9999 OVC070/// 19/13 Q1008=
201806102120 METAR ESMX 102120Z AUTO 30003KT 9999 -DZ SCT088/// 19/13 Q1008=
201806102050 METAR ESMX 102050Z AUTO 28004KT 9999 SCT082/// 20/13 Q1008=
201806102020 METAR ESMX 102020Z AUTO 29006KT 9999 FEW082/// SCT150/// 20/12 Q1008=
201806101950 METAR ESMX 101950Z 26004KT CAVOK 21/12 Q1008=
201806101920 METAR ESMX 101920Z 26006KT CAVOK 22/12 Q1008=
201806101850 METAR ESMX 101850Z 21005KT CAVOK 22/11 Q1007=
201806101820 METAR ESMX 101820Z 18006KT CAVOK 24/10 Q1007=
201806101750 METAR ESMX 101750Z 17009KT CAVOK 24/10 Q1008=
201806101720 METAR ESMX 101720Z 18010KT CAVOK 25/10 Q1008=
201806101650 METAR ESMX 101650Z 18012KT CAVOK 26/10 Q1008=
201806101620 METAR ESMX 101620Z 17009KT CAVOK 25/09 Q1008=
201806101550 METAR ESMX 101550Z 17011KT 140V210 CAVOK 26/09 Q1008=
201806101520 METAR ESMX 101520Z 17010KT CAVOK 27/09 Q1008=
201806101450 METAR ESMX 101450Z 18009KT CAVOK 28/09 Q1008=
201806101420 METAR ESMX 101420Z 15009KT 110V170 CAVOK 28/08 Q1009=
201806101350 METAR ESMX 101350Z 16008KT 140V210 CAVOK 29/07 Q1009=
201806101320 METAR ESMX 101320Z 17008KT 140V200 CAVOK 28/08 Q1009=
201806101250 METAR ESMX 101250Z 18008KT 140V220 CAVOK 28/08 Q1009=
201806101220 METAR ESMX 101220Z 18007KT 110V220 CAVOK 28/07 Q1010=
201806101150 METAR ESMX 101150Z 18010KT 150V220 CAVOK 27/07 Q1010=
201806101120 METAR ESMX 101120Z 16009KT 110V200 CAVOK 28/07 Q1010=
201806101050 METAR ESMX 101050Z 14006KT 050V180 CAVOK 27/07 Q1010=
201806101020 METAR ESMX 101020Z 15007KT 120V210 CAVOK 27/05 Q1011=
201806100950 METAR ESMX 100950Z AUTO VRB05KT 9999 NCD 26/06 Q1011=
201806100920 METAR ESMX 100920Z AUTO 17006KT 130V200 9999 FEW100/// 26/06 Q1011=
201806100850 METAR ESMX 100850Z AUTO 17006KT 9999 FEW100/// 24/07 Q1012=
201806100820 METAR ESMX 100820Z 16005KT 130V230 CAVOK 25/06 Q1012=
201806100750 METAR ESMX 100750Z 15004KT 110V240 CAVOK 24/07 Q1012=
201806100720 METAR ESMX 100720Z 14004KT 100V170 CAVOK 23/07 Q1012=
201806100650 METAR ESMX 100650Z 14004KT 100V190 CAVOK 22/05 Q1012=
201806100620 METAR ESMX 100620Z 13003KT 100V190 CAVOK 21/07 Q1013=
201806100550 METAR ESMX 100550Z AUTO VRB03KT 9999 NCD 20/07 Q1013=
201806100520 METAR ESMX 100520Z AUTO VRB03KT 9999 NCD 18/10 Q1013=
201806100450 METAR ESMX 100450Z AUTO 14002KT 9999 NCD 16/11 Q1013=
201806100420 METAR ESMX 100420Z AUTO 11003KT 9999 NCD 14/11 Q1013=
201806100350 METAR ESMX 100350Z AUTO 17001KT 9999 NCD 12/09 Q1013=
201806100320 METAR ESMX 100320Z AUTO 17003KT 9999 NCD 09/07 Q1014=
201806100250 METAR ESMX 100250Z AUTO 00000KT 9999 FEW170/// 09/06 Q1014=
201806100220 METAR ESMX 100220Z AUTO 00000KT 9999 NCD 08/04 Q1014=
201806100150 METAR ESMX 100150Z AUTO 00000KT 9999 NCD 08/05 Q1014=
201806100120 METAR ESMX 100120Z AUTO 17002KT 9999 NCD 09/05 Q1014=
201806100050 METAR ESMX 100050Z AUTO VRB02KT 9999 NCD 09/05 Q1014=
201806100020 METAR ESMX 100020Z AUTO 18003KT 9999 NCD 09/05 Q1014=
201806092350 METAR ESMX 092350Z AUTO 19002KT 9999 NCD 10/05 Q1014=
201806092320 METAR ESMX 092320Z AUTO 16002KT 9999 NCD 11/06 Q1015=
201806092250 METAR ESMX 092250Z AUTO 18003KT 9999 NCD 11/05 Q1015=
201806092220 METAR ESMX 092220Z AUTO 19003KT 9999 NCD 13/06 Q1015=
201806092150 METAR ESMX 092150Z AUTO 19002KT 9999 NCD 13/06 Q1015=
201806092120 METAR ESMX 092120Z AUTO 20003KT 9999 NCD 16/05 Q1015=
201806092050 METAR ESMX 092050Z AUTO 21005KT 9999 NCD 16/06 Q1015=
201806092020 METAR ESMX 092020Z AUTO 17004KT 9999 NCD 19/06 Q1015=
201806091950 METAR ESMX 091950Z 17005KT CAVOK 21/06 Q1015=
201806091920 METAR ESMX 091920Z 17007KT CAVOK 21/06 Q1015=
201806091850 METAR ESMX 091850Z 16007KT CAVOK 22/06 Q1015=
201806091820 METAR ESMX 091820Z 17009KT CAVOK 23/06 Q1015=
201806091750 METAR ESMX 091750Z 16009KT CAVOK 24/06 Q1015=
201806091720 METAR ESMX 091720Z 16009KT CAVOK 25/06 Q1015=
201806091650 METAR ESMX 091650Z AUTO 17010KT 9999 NCD 26/06 Q1014=
201806091620 METAR ESMX 091620Z AUTO 19008KT 150V240 9999 NCD 26/06 Q1014=
201806091550 METAR ESMX 091550Z 19008KT 150V220 CAVOK 27/05 Q1015=
201806091520 METAR ESMX 091520Z 20007KT 170V250 CAVOK 27/06 Q1015=
201806091450 METAR ESMX 091450Z 18007KT 160V220 CAVOK 27/06 Q1015=
201806091420 METAR ESMX 091420Z 17007KT 120V210 CAVOK 27/07 Q1015=
201806091350 METAR ESMX 091350Z VRB04KT CAVOK 28/06 Q1015=
201806091320 METAR ESMX 091320Z VRB06KT CAVOK 27/07 Q1015=
201806091250 METAR ESMX 091250Z 17005KT 110V250 CAVOK 27/07 Q1016=
201806091220 METAR ESMX 091220Z 15007KT 110V190 CAVOK 26/07 Q1016=
201806091150 METAR ESMX 091150Z 11006KT 060V170 CAVOK 26/08 Q1016=
201806091120 METAR ESMX 091120Z 15006KT 120V210 CAVOK 26/08 Q1016=
201806091050 METAR ESMX 091050Z 15006KT 100V230 CAVOK 25/08 Q1016=
201806091020 METAR ESMX 091020Z 14006KT 090V190 CAVOK 25/08 Q1017=
201806090950 METAR ESMX 090950Z 14005KT 090V170 CAVOK 25/08 Q1017=
201806090920 METAR ESMX 090920Z 14005KT 100V200 CAVOK 23/08 Q1017=
201806090850 METAR ESMX 090850Z 14006KT 050V170 CAVOK 23/08 Q1017=
201806090820 METAR ESMX 090820Z 14005KT 110V170 CAVOK 22/09 Q1017=
201806090750 METAR ESMX 090750Z 13005KT 100V170 CAVOK 21/10 Q1017=
201806090720 METAR ESMX 090720Z 16004KT 080V220 CAVOK 20/09 Q1017=
201806090650 METAR ESMX 090650Z 18004KT 140V210 CAVOK 20/09 Q1017=
201806090620 METAR ESMX 090620Z 14006KT 100V170 CAVOK 19/09 Q1017=
201806090550 METAR ESMX 090550Z 16006KT 140V200 CAVOK 18/08 Q1017=
201806090520 METAR ESMX 090520Z 17006KT CAVOK 17/10 Q1017=
201806090450 METAR ESMX 090450Z AUTO 16004KT 9999 NCD 16/11 Q1017=
201806090420 METAR ESMX 090420Z AUTO 16005KT 9999 NCD 16/11 Q1017=
201806090350 METAR ESMX 090350Z AUTO 16004KT 9999 NCD 15/11 Q1017=
201806090320 METAR ESMX 090320Z AUTO 15004KT 110V190 9999 NCD 14/10 Q1017=
201806090250 METAR ESMX 090250Z AUTO 16004KT 9999 NCD 14/10 Q1017=
201806090220 METAR ESMX 090220Z AUTO 15004KT 9999 NCD 14/10 Q1017=
201806090150 METAR ESMX 090150Z AUTO 15005KT 9999 NCD 14/09 Q1016=
201806090120 METAR ESMX 090120Z AUTO VRB05KT 9999 NCD 15/09 Q1016=
201806090050 METAR ESMX 090050Z AUTO 16007KT 9999 NCD 16/09 Q1016=
201806090020 METAR ESMX 090020Z AUTO 15004KT 9999 NCD 14/09 Q1016=
201806082350 METAR ESMX 082350Z AUTO 17003KT 9999 NCD 13/08 Q1016=
201806082320 METAR ESMX 082320Z AUTO 17004KT 9999 NCD 13/08 Q1016=
201806082250 METAR ESMX 082250Z AUTO 17003KT 9999 NCD 16/09 Q1016=
201806082220 METAR ESMX 082220Z AUTO 17005KT 9999 NCD 17/08 Q1016=
201806082150 METAR ESMX 082150Z AUTO 16006KT 9999 NCD 18/07 Q1016=
201806082120 METAR ESMX 082120Z AUTO 19008KT 9999 NCD 17/07 Q1015=
201806082050 METAR ESMX 082050Z AUTO 18008KT 9999 NCD 18/08 Q1015=
201806082020 METAR ESMX 082020Z AUTO 17008KT 9999 NCD 20/09 Q1015=
201806081950 METAR ESMX 081950Z 17007KT CAVOK 22/09 Q1015=
201806081920 METAR ESMX 081920Z 16008KT CAVOK 23/09 Q1015=
201806081850 METAR ESMX 081850Z 16007KT CAVOK 23/09 Q1015=
201806081820 METAR ESMX 081820Z 16007KT CAVOK 24/09 Q1015=
201806081750 METAR ESMX 081750Z 16009KT CAVOK 25/09 Q1014=
201806081720 METAR ESMX 081720Z 17008KT 140V200 CAVOK 26/09 Q1014=
201806081650 METAR ESMX 081650Z 14005G16KT 070V200 CAVOK 26/08 Q1014=
201806081620 METAR ESMX 081620Z 36005KT 320V030 CAVOK 28/05 Q1014=
201806081550 METAR ESMX 081550Z VRB03KT CAVOK 27/04 Q1014=
201806081520 METAR ESMX 081520Z 05004KT 010V110 CAVOK 27/05 Q1014=
201806081450 METAR ESMX 081450Z 01007KT 320V090 CAVOK 27/04 Q1015=
201806081420 METAR ESMX 081420Z VRB03KT CAVOK 28/05 Q1015=
201806081350 METAR ESMX 081350Z 15004KT 100V220 CAVOK 27/03 Q1015=
201806081320 METAR ESMX 081320Z 22005KT 170V290 CAVOK 27/03 Q1015=
201806081250 METAR ESMX 081250Z 17007KT 140V210 CAVOK 27/04 Q1015=
201806081220 METAR ESMX 081220Z 22007KT 160V320 CAVOK 27/04 Q1016=
201806081150 METAR ESMX 081150Z 11005KT 050V180 CAVOK 25/04 Q1016=
201806081120 METAR ESMX 081120Z VRB06G20KT CAVOK 26/06 Q1016=
201806081050 METAR ESMX 081050Z VRB06KT CAVOK 26/05 Q1016=
201806081020 METAR ESMX 081020Z 05006KT 020V110 CAVOK 25/01 Q1016=
201806080950 METAR ESMX 080950Z 07006KT 020V110 CAVOK 24/04 Q1016=
201806080920 METAR ESMX 080920Z 12005KT 070V190 CAVOK 24/06 Q1016=
201806080850 METAR ESMX 080850Z 04005KT 350V080 CAVOK 23/06 Q1017=
201806080820 METAR ESMX 080820Z VRB03KT CAVOK 23/07 Q1017=
201806080750 METAR ESMX 080750Z VRB03KT CAVOK 22/06 Q1017=
201806080720 METAR ESMX 080720Z VRB02KT CAVOK 21/06 Q1017=
201806080650 METAR ESMX 080650Z AUTO 00000KT 9999 NCD 20/05 Q1017=
201806080620 METAR ESMX 080620Z AUTO VRB01KT 9999 NCD 19/06 Q1016=
201806080550 METAR ESMX 080550Z AUTO VRB02KT 9999 NCD 19/06 Q1017=
201806080520 METAR ESMX 080520Z AUTO VRB02KT 9999 NCD 18/07 Q1016=
201806080450 METAR ESMX 080450Z AUTO VRB01KT 9999 NCD 16/07 Q1017=
201806080420 METAR ESMX 080420Z AUTO 00000KT 9999 NCD 14/08 Q1017=
201806080350 METAR ESMX 080350Z AUTO 26001KT 9999 NCD 10/07 Q1017=
201806080320 METAR ESMX 080320Z AUTO 18002KT 9999 NCD 07/05 Q1016=
201806080250 METAR ESMX 080250Z AUTO 18004KT 9999 NCD 06/05 Q1016=
201806080220 METAR ESMX 080220Z AUTO 16002KT 9999 NCD 07/05 Q1016=
201806080150 METAR ESMX 080150Z AUTO VRB02KT 9999 NCD 09/05 Q1017=
201806080120 METAR ESMX 080120Z AUTO 19003KT 9999 NCD 09/05 Q1016=
201806080050 METAR ESMX 080050Z AUTO 22005KT 9999 NCD 11/06 Q1016=
201806080020 METAR ESMX 080020Z AUTO 23004KT 9999 NCD 10/06 Q1017=
201806072350 METAR ESMX 072350Z 21006KT CAVOK 11/06 Q1017=
201806072320 METAR ESMX 072320Z 20006KT CAVOK 10/05 Q1017=
201806072250 METAR ESMX 072250Z 21005KT CAVOK 12/05 Q1017=
201806072220 METAR ESMX 072220Z 21005KT CAVOK 14/05 Q1017=
201806072150 METAR ESMX 072150Z AUTO 21007KT 9999 NCD 14/05 Q1017=
201806072120 METAR ESMX 072120Z 21007KT CAVOK 15/05 Q1017=
201806072050 METAR ESMX 072050Z AUTO 20007KT 9999 NCD 15/06 Q1017=
201806072020 METAR ESMX 072020Z 19008KT CAVOK 16/06 Q1017=
201806071950 METAR ESMX 071950Z 24004KT CAVOK 19/06 Q1016=
201806071920 METAR ESMX 071920Z 25004KT CAVOK 20/06 Q1016=
201806071850 METAR ESMX 071850Z 28005KT 250V320 CAVOK 22/06 Q1016=
201806071820 METAR ESMX 071820Z 26007KT 220V280 CAVOK 22/06 Q1016=
201806071750 METAR ESMX 071750Z 27008KT CAVOK 23/06 Q1016=
201806071720 METAR ESMX 071720Z 27010KT CAVOK 23/06 Q1016=
201806071650 METAR ESMX 071650Z 28011KT 250V310 CAVOK 24/06 Q1016=
201806071620 METAR ESMX 071620Z 28011KT 240V300 CAVOK 25/07 Q1016=
201806071550 METAR ESMX 071550Z 24009KT 210V280 CAVOK 25/06 Q1016=
201806071520 METAR ESMX 071520Z 22010KT 190V250 CAVOK 25/06 Q1017=
201806071450 METAR ESMX 071450Z 22009KT 180V280 CAVOK 25/06 Q1017=
201806071420 METAR ESMX 071420Z 22010KT 150V260 CAVOK 26/06 Q1017=
201806071350 METAR ESMX 071350Z 22009KT 180V260 CAVOK 25/05 Q1017=
201806071320 METAR ESMX 071320Z VRB08KT CAVOK 25/06 Q1018=
201806071250 METAR ESMX 071250Z 22007KT 160V250 CAVOK 25/06 Q1018=
201806071220 METAR ESMX 071220Z 21010G20KT 170V250 CAVOK 25/06 Q1018=
201806071150 METAR ESMX 071150Z 24008KT 200V290 CAVOK 24/06 Q1019=
201806071120 METAR ESMX 071120Z 20010KT 160V240 CAVOK 24/06 Q1019=
201806071050 METAR ESMX 071050Z 20012KT CAVOK 24/05 Q1019=
201806071020 METAR ESMX 071020Z 19008KT 150V230 CAVOK 23/05 Q1019=
201806070950 METAR ESMX 070950Z 20009KT 160V240 CAVOK 22/05 Q1020=
201806070920 METAR ESMX 070920Z 19008KT 150V230 CAVOK 22/05 Q1020=
201806070850 METAR ESMX 070850Z 20008KT 160V240 CAVOK 21/05 Q1020=
201806070820 METAR ESMX 070820Z 20007KT 160V250 CAVOK 21/06 Q1020=
201806070750 METAR ESMX 070750Z 19006KT 160V230 CAVOK 20/06 Q1020=
201806070720 METAR ESMX 070720Z 21005KT 160V240 CAVOK 19/05 Q1020=
201806070650 METAR ESMX 070650Z 22005KT 160V260 CAVOK 18/05 Q1020=
201806070620 METAR ESMX 070620Z 19004KT 160V230 CAVOK 16/06 Q1020=
201806070550 METAR ESMX 070550Z 23004KT 190V250 CAVOK 15/06 Q1020=
201806070520 METAR ESMX 070520Z 22005KT CAVOK 14/05 Q1020=
201806070450 METAR ESMX 070450Z 21005KT CAVOK 13/05 Q1020=
201806070420 METAR ESMX 070420Z 17004KT CAVOK 11/05 Q1020=
201806070350 METAR ESMX 070350Z 18003KT CAVOK 09/05 Q1020=
201806070320 METAR ESMX 070320Z AUTO 15003KT 9999 NCD 08/04 Q1020=
201806070250 METAR ESMX 070250Z AUTO 18004KT 9999 NCD 07/03 Q1020=
201806070220 METAR ESMX 070220Z AUTO 16003KT 9999 NCD 07/04 Q1020=
201806070150 METAR ESMX 070150Z AUTO 20003KT 9999 NCD 08/04 Q1020=
201806070120 METAR ESMX 070120Z AUTO 22003KT 9999 NCD 07/04 Q1020=
201806070050 METAR ESMX 070050Z AUTO 21004KT 9999 NCD 09/04 Q1020=
201806070020 METAR ESMX 070020Z AUTO 21005KT 9999 NCD 09/04 Q1020=
201806062350 METAR ESMX 062350Z 21005KT CAVOK 10/05 Q1020=
201806062320 METAR ESMX 062320Z 21006KT CAVOK 10/05 Q1020=
201806062250 METAR ESMX 062250Z 20007KT CAVOK 10/05 Q1020=
201806062220 METAR ESMX 062220Z 20007KT CAVOK 11/06 Q1020=
201806062150 METAR ESMX 062150Z AUTO 20007KT 9999 NCD 11/06 Q1020=
201806062120 METAR ESMX 062120Z AUTO 19006KT 9999 NCD 09/06 Q1019=
201806062050 METAR ESMX 062050Z AUTO 18004KT 9999 NCD 11/05 Q1019=
201806062020 METAR ESMX 062020Z AUTO 17004KT 9999 NCD 15/06 Q1019=
201806061950 METAR ESMX 061950Z AUTO 17005KT 9999 NCD 16/06 Q1019=
201806061920 METAR ESMX 061920Z AUTO 17006KT 9999 SCT064/// 17/07 Q1019=
201806061850 METAR ESMX 061850Z AUTO 16005KT 9999 FEW057/// OVC066/// 18/07 Q1018=
201806061820 METAR ESMX 061820Z AUTO 16005KT 9999 BKN066/// 19/07 Q1018=
201806061750 METAR ESMX 061750Z AUTO 17004KT 9999 BKN066/// 19/08 Q1018=
201806061720 METAR ESMX 061720Z AUTO 20004KT 9999 FEW074/// 19/07 Q1018=
201806061650 METAR ESMX 061650Z AUTO 20005KT 170V240 9999 FEW074/// 20/07 Q1018=
201806061620 METAR ESMX 061620Z AUTO 20005KT 130V250 9999 BKN074/// 20/07 Q1018=
201806061550 METAR ESMX 061550Z AUTO 23006KT 9999 BKN074/// 19/07 Q1019=
201806061520 METAR ESMX 061520Z 24006KT CAVOK 20/07 Q1019=
201806061450 METAR ESMX 061450Z 24007KT CAVOK 20/07 Q1019=
201806061420 METAR ESMX 061420Z 21012KT CAVOK 20/06 Q1019=
201806061350 METAR ESMX 061350Z 21008KT CAVOK 19/06 Q1020=
201806061320 METAR ESMX 061320Z 22008KT 170V290 9999 FEW045 SCT065 19/06 Q1020=
201806061250 METAR ESMX 061250Z 21010KT 170V250 CAVOK 19/06 Q1020=
201806061220 METAR ESMX 061220Z 21009KT 150V260 CAVOK 18/07 Q1020=
201806061150 METAR ESMX 061150Z 21010KT 170V240 CAVOK 18/06 Q1021=
201806061120 METAR ESMX 061120Z 20009KT CAVOK 17/05 Q1021=
201806061050 METAR ESMX 061050Z 24008KT 160V280 CAVOK 17/05 Q1021=
201806061020 METAR ESMX 061020Z 21007KT 9999 FEW028 BKN075 16/07 Q1021=
201806060950 METAR ESMX 060950Z AUTO 25008KT 210V290 9999 SCT029/// OVC080/// 15/08 Q1021=
201806060920 METAR ESMX 060920Z 20006KT 160V230 9999 SCT037 BKN072 16/07 Q1021=
201806060850 METAR ESMX 060850Z AUTO 21005KT 170V260 9999 FEW034/// OVC070/// 16/07 Q1021=
201806060820 METAR ESMX 060820Z 25004KT 190V280 9999 FEW030 BKN070 16/07 Q1021=
201806060750 METAR ESMX 060750Z 22006KT 190V260 9999 SCT028 BKN070 15/07 Q1021=
201806060720 METAR ESMX 060720Z 23005KT 170V290 CAVOK 15/08 Q1021=
201806060650 METAR ESMX 060650Z 22006KT CAVOK 14/08 Q1021=
201806060620 METAR ESMX 060620Z 21005KT CAVOK 13/07 Q1021=
201806060550 METAR ESMX 060550Z AUTO 21005KT 9999 OVC074/// 12/07 Q1021=
201806060520 METAR ESMX 060520Z AUTO 23003KT 9999 BKN074/// 11/06 Q1021=
201806060450 METAR ESMX 060450Z AUTO VRB02KT 9999 SCT074/// 10/05 Q1020=
201806060420 METAR ESMX 060420Z AUTO 22003KT 9999 FEW076/// 10/06 Q1020=
201806060350 METAR ESMX 060350Z AUTO VRB02KT 9999 BKN076/// 09/06 Q1020=
201806060320 METAR ESMX 060320Z AUTO 19003KT 9999 SCT094/// 04/02 Q1020=
201806060250 METAR ESMX 060250Z AUTO 19002KT 9999 NCD 03/02 Q1020=
201806060220 METAR ESMX 060220Z AUTO 18002KT 9999 NCD 03/02 Q1020=
201806060150 METAR ESMX 060150Z AUTO 00000KT 9999 NCD 04/01 Q1020=
201806060120 METAR ESMX 060120Z AUTO 00000KT 9999 NCD 05/02 Q1020=
201806060050 METAR ESMX 060050Z AUTO VRB03KT 9999 NCD 06/03 Q1019=
201806060020 METAR ESMX 060020Z AUTO 17005KT 9999 NCD 09/03 Q1019=
201806052350 METAR ESMX 052350Z AUTO 19005KT 9999 NCD 09/04 Q1019=
201806052320 METAR ESMX 052320Z AUTO 17005KT 9999 NCD 10/04 Q1019=
201806052250 METAR ESMX 052250Z AUTO 16005KT 9999 NCD 10/04 Q1019=
201806052220 METAR ESMX 052220Z AUTO 17008KT 9999 NCD 10/04 Q1018=
201806052150 METAR ESMX 052150Z AUTO 17006KT 9999 NCD 11/05 Q1018=
201806052120 METAR ESMX 052120Z AUTO 17009KT 9999 NCD 11/05 Q1018=
201806052050 METAR ESMX 052050Z AUTO 15007KT 9999 NCD 12/05 Q1018=
201806052020 METAR ESMX 052020Z AUTO 12005KT 050V160 9999 NCD 13/04 Q1017=
201806051950 METAR ESMX 051950Z 04005KT 010V120 CAVOK 14/M01 Q1017=
201806051920 METAR ESMX 051920Z 03005KT CAVOK 15/M01 Q1016=
201806051850 METAR ESMX 051850Z 01008KT CAVOK 16/M02 Q1016=
201806051820 METAR ESMX 051820Z 02008KT CAVOK 16/M03 Q1016=
201806051750 METAR ESMX 051750Z 02007KT CAVOK 17/M04 Q1015=
201806051720 METAR ESMX 051720Z 01007KT CAVOK 17/M04 Q1015=
201806051650 METAR ESMX 051650Z 35008KT 320V030 CAVOK 18/M03 Q1015=
201806051620 METAR ESMX 051620Z 33010KT CAVOK 18/M04 Q1015=
201806051550 METAR ESMX 051550Z 36009KT 330V030 CAVOK 18/M04 Q1015=
201806051520 METAR ESMX 051520Z 34010KT CAVOK 19/M04 Q1015=
201806051450 METAR ESMX 051450Z 34009KT CAVOK 19/M02 Q1014=
201806051420 METAR ESMX 051420Z 02007KT 340V080 CAVOK 18/M04 Q1015=
201806051350 METAR ESMX 051350Z 01008KT 320V050 CAVOK 18/M04 Q1015=
201806051320 METAR ESMX 051320Z 01005KT 300V120 CAVOK 18/M05 Q1014=
201806051250 METAR ESMX 051250Z 35008KT 270V030 CAVOK 18/M05 Q1015=
201806051220 METAR ESMX 051220Z 01008KT 290V060 CAVOK 17/M05 Q1015=
201806051150 METAR ESMX 051150Z 01009KT 330V040 CAVOK 17/M04 Q1015=
201806051120 METAR ESMX 051120Z 35010KT 310V020 CAVOK 17/M03 Q1015=
201806051050 METAR ESMX 051050Z 36008KT 310V070 CAVOK 16/M02 Q1015=
201806051020 METAR ESMX 051020Z 36010KT 320V040 CAVOK 16/M03 Q1015=
201806050950 METAR ESMX 050950Z 01009KT 330V030 CAVOK 16/M02 Q1015=
201806050920 METAR ESMX 050920Z 36010KT 320V030 CAVOK 15/M02 Q1015=
201806050850 METAR ESMX 050850Z 36010KT 320V040 CAVOK 15/M01 Q1015=
201806050820 METAR ESMX 050820Z 36010KT 330V030 CAVOK 15/M00 Q1014=
201806050750 METAR ESMX 050750Z 36009KT 320V040 CAVOK 14/01 Q1014=
201806050720 METAR ESMX 050720Z 01011KT CAVOK 14/02 Q1014=
201806050650 METAR ESMX 050650Z 01010KT CAVOK 14/02 Q1014=
201806050620 METAR ESMX 050620Z 01011KT CAVOK 13/01 Q1013=
201806050550 METAR ESMX 050550Z 02011KT CAVOK 13/02 Q1013=
201806050520 METAR ESMX 050520Z 01013KT CAVOK 13/02 Q1013=
201806050450 METAR ESMX 050450Z 02012KT CAVOK 12/01 Q1013=
201806050420 METAR ESMX 050420Z 36014KT CAVOK 12/02 Q1012=
201806050350 METAR COR ESMX 050350Z 36013KT CAVOK 12/02 Q1012=
201806050320 METAR ESMX 050320Z AUTO 36013KT 9999 NCD 12/02 Q1012=
201806050250 METAR ESMX 050250Z AUTO 01013KT 9999 NCD 12/02 Q1011=
201806050220 METAR ESMX 050220Z AUTO 36011KT 9999 NCD 12/01 Q1011=
201806050150 METAR ESMX 050150Z AUTO 35010KT 9999 NCD 13/02 Q1011=
201806050120 METAR ESMX 050120Z AUTO 35010KT 9999 NCD 13/02 Q1010=
201806050050 METAR ESMX 050050Z AUTO 35009KT 9999 NCD 13/03 Q1010=
201806050020 METAR ESMX 050020Z AUTO 02009KT 9999 NCD 15/02 Q1010=
201806042350 METAR ESMX 042350Z AUTO 35006KT 9999 NCD 13/05 Q1009=
201806042320 METAR ESMX 042320Z AUTO 35006KT 9999 NCD 13/05 Q1009=
201806042250 METAR ESMX 042250Z AUTO 36006KT 9999 NCD 15/05 Q1009=
201806042220 METAR ESMX 042220Z AUTO 35011KT 9999 NCD 16/04 Q1009=
201806042150 METAR ESMX 042150Z AUTO 34008KT 9999 NCD 15/04 Q1008=
201806042120 METAR ESMX 042120Z AUTO 34007KT 9999 NCD 15/04 Q1008=
201806042050 METAR ESMX 042050Z AUTO 34007KT 9999 NCD 17/04 Q1008=
201806042020 METAR ESMX 042020Z AUTO 34010KT 9999 NCD 18/04 Q1008=
201806041950 METAR ESMX 041950Z AUTO 36008KT 9999 FEW057/// 19/08 Q1007=
201806041920 METAR ESMX 041920Z AUTO 33010KT 9999 OVC059/// 21/09 Q1007=
201806041850 METAR ESMX 041850Z AUTO 31005KT 9999 BKN057/// BKN078/// 21/16 Q1006=
201806041820 METAR ESMX 041820Z AUTO 28003KT 250V320 9999 BKN053/// 21/17 Q1006=
201806041750 METAR ESMX 041750Z AUTO 26004KT 9999 BKN062/// 21/17 Q1006=
201806041720 METAR ESMX 041720Z 28005KT 9999 DZ FEW035 BKN068 21/16 Q1006=
201806041650 METAR ESMX 041650Z 23006KT 200V280 9999 FEW003 BKN036 22/15 Q1006=
201806041620 METAR ESMX 041620Z 24006KT 200V280 9999 FEW043 24/15 Q1006=
201806041550 METAR ESMX 041550Z 25005KT 220V280 9999 FEW033 24/15 Q1006=
201806041520 METAR ESMX 041520Z 27005KT 230V320 9999 SCT033 23/15 Q1006=
201806041450 METAR ESMX 041450Z VRB03KT 9999 SCT034 23/14 Q1006=
201806041420 METAR ESMX 041420Z 28006KT 210V320 9999 SCT033 24/15 Q1007=
201806041350 METAR ESMX 041350Z 28006KT 250V320 9999 SCT027 BKN041 22/15 Q1007=
201806041320 METAR ESMX 041320Z 26006KT 9999 FEW025 SCT039 22/15 Q1007=
201806041250 METAR ESMX 041250Z 28008KT 250V330 9999 SCT022 BKN037 21/15 Q1007=
201806041220 METAR ESMX 041220Z 28008KT 250V320 9999 FEW023 BKN033 21/15 Q1007=
201806041150 METAR ESMX 041150Z 30009KT 9999 BKN026 20/14 Q1008=
201806041120 METAR ESMX 041120Z 30010KT 9999 BKN025 20/14 Q1007=
201806041050 METAR ESMX 041050Z 29011KT 9999 BKN027 21/14 Q1007=
201806041020 METAR ESMX 041020Z 28010KT 9999 BKN025 21/14 Q1007=
201806040950 METAR COR ESMX 040950Z 27009KT 240V300 9999 BKN023 21/14 Q1007=
201806040920 METAR ESMX 040920Z 26009KT 9999 BKN023 21/15 Q1007=
201806040820 METAR ESMX 040820Z 27009KT 9999 OVC020 20/14 Q1007=
201806040750 METAR ESMX 040750Z 25010KT 220V280 9999 BKN017 19/14 Q1007=
201806040720 METAR ESMX 040720Z 25010KT 9999 BKN014 18/14 Q1007=
201806040650 METAR ESMX 040650Z 25009KT 9999 BKN014 18/14 Q1007=
201806040620 METAR COR ESMX 040620Z 25010KT 210V280 9999 BKN012 18/14 Q1007=
201806040550 METAR COR ESMX 040550Z 26009KT 210V290 9999 BKN011 17/14 Q1008=
201806040520 METAR COR ESMX 040520Z 26010KT 210V280 9999 BKN010 17/14 Q1008=
201806040450 METAR ESMX 040450Z 26011KT 9999 BKN009 17/14 Q1008=
201806040420 METAR ESMX 040420Z 25010KT 9999 BKN009 17/15 Q1008=
201806040350 METAR ESMX 040350Z 23010KT 9999 SCT009 16/15 Q1008=
201806040320 METAR COR ESMX 040320Z 23008KT CAVOK 16/15 Q1008=
201806040250 METAR ESMX 040250Z AUTO 23009KT 9999 NCD 16/14 Q1008=
201806040220 METAR ESMX 040220Z AUTO 23008KT 9999 NCD 16/14 Q1009=
201806040150 METAR ESMX 040150Z AUTO 23007KT 9999 NCD 16/14 Q1009=
201806040120 METAR ESMX 040120Z AUTO 22005KT 9999 NCD 15/14 Q1009=
201806040050 METAR ESMX 040050Z AUTO 20005KT 9999 NCD 15/14 Q1010=
201806040020 METAR ESMX 040020Z AUTO 22006KT 9999 NCD 16/14 Q1010=
201806032350 METAR ESMX 032350Z AUTO 22006KT 9999 NCD 17/14 Q1010=
201806032320 METAR ESMX 032320Z AUTO 23006KT 9999 NCD 17/14 Q1010=
201806032250 METAR ESMX 032250Z AUTO 21006KT 9999 NCD 17/14 Q1011=
201806032220 METAR ESMX 032220Z AUTO 22006KT 9999 NCD 17/13 Q1011=
201806032150 METAR ESMX 032150Z AUTO 22006KT 9999 NCD 18/13 Q1011=
201806032120 METAR ESMX 032120Z AUTO 24007KT 9999 NCD 19/13 Q1011=
201806032050 METAR ESMX 032050Z AUTO 23006KT 9999 NCD 20/13 Q1011=
201806032020 METAR ESMX 032020Z AUTO 24007KT 9999 NCD 21/12 Q1011=
201806031950 METAR ESMX 031950Z 25007KT CAVOK 22/13 Q1011=
201806031920 METAR ESMX 031920Z 26008KT CAVOK 23/13 Q1011=
201806031850 METAR ESMX 031850Z 26008KT CAVOK 24/13 Q1011=
201806031820 METAR ESMX 031820Z 26009KT CAVOK 25/12 Q1011=
201806031750 METAR ESMX 031750Z 26010KT CAVOK 26/12 Q1011=
201806031720 METAR ESMX 031720Z 26011KT CAVOK 26/11 Q1012=
201806031650 METAR ESMX 031650Z 24010KT 210V280 CAVOK 27/11 Q1012=
201806031620 METAR ESMX 031620Z 26012KT 240V300 CAVOK 27/11 Q1012=
201806031550 METAR ESMX 031550Z 25010KT 220V290 CAVOK 28/10 Q1012=
201806031520 METAR ESMX 031520Z 25012KT CAVOK 28/10 Q1012=
201806031450 METAR ESMX 031450Z 26012KT 220V290 CAVOK 29/10 Q1012=
201806031420 METAR ESMX 031420Z 26011KT 230V290 CAVOK 29/10 Q1012=
201806031350 METAR ESMX 031350Z 27009KT 210V300 CAVOK 29/09 Q1013=
201806031320 METAR ESMX 031320Z 26010KT 230V300 CAVOK 29/09 Q1013=
201806031250 METAR ESMX 031250Z 28008KT 250V320 CAVOK 29/10 Q1013=
201806031220 METAR ESMX 031220Z 25009KT 220V310 CAVOK 29/10 Q1013=
201806031150 METAR ESMX 031150Z 29008KT 210V330 CAVOK 28/10 Q1014=
201806031120 METAR ESMX 031120Z 28008KT 240V330 CAVOK 28/10 Q1014=
201806031050 METAR ESMX 031050Z 26008KT 210V300 CAVOK 28/10 Q1014=
201806031020 METAR ESMX 031020Z AUTO 27007KT 210V320 9999 NCD 28/09 Q1014=
201806030950 METAR ESMX 030950Z AUTO 29007KT 260V320 9999 NCD 28/09 Q1014=
201806030920 METAR ESMX 030920Z 30008KT 260V330 CAVOK 27/09 Q1014=
201806030850 METAR ESMX 030850Z 28009KT CAVOK 26/10 Q1014=
201806030820 METAR ESMX 030820Z 29007KT 250V340 CAVOK 26/10 Q1014=
201806030750 METAR ESMX 030750Z 31007KT 260V350 CAVOK 25/11 Q1015=
201806030720 METAR ESMX 030720Z 28008KT CAVOK 25/12 Q1015=
201806030650 METAR ESMX 030650Z 28007KT CAVOK 24/12 Q1015=
201806030620 METAR ESMX 030620Z 30006KT CAVOK 22/11 Q1015=
201806030550 METAR ESMX 030550Z AUTO 32005KT 300V010 9999 NCD 21/12 Q1015=
201806030520 METAR ESMX 030520Z AUTO 33004KT 9999 NCD 20/12 Q1014=
201806030450 METAR ESMX 030450Z AUTO 30005KT 9999 NCD 19/12 Q1014=
201806030420 METAR ESMX 030420Z AUTO VRB03KT 9999 NCD 18/13 Q1014=
201806030350 METAR ESMX 030350Z AUTO 28003KT 9999 NCD 16/12 Q1014=
201806030320 METAR ESMX 030320Z AUTO 30004KT 290V350 9999 NCD 15/11 Q1014=
201806030250 METAR ESMX 030250Z AUTO 26004KT 9999 NCD 14/11 Q1014=
201806030220 METAR ESMX 030220Z AUTO VRB02KT 9999 NCD 17/12 Q1014=
201806030150 METAR ESMX 030150Z AUTO 29005KT 9999 NCD 16/11 Q1014=
201806030120 METAR ESMX 030120Z AUTO 27004KT 9999 NCD 16/11 Q1014=
201806030050 METAR ESMX 030050Z AUTO 29004KT 9999 NCD 17/11 Q1014=
201806030020 METAR ESMX 030020Z AUTO 29005KT 9999 NCD 17/11 Q1014=
201806022350 METAR ESMX 022350Z AUTO 28004KT 9999 NCD 18/11 Q1014=
201806022320 METAR ESMX 022320Z AUTO 29004KT 9999 NCD 18/11 Q1014=
201806022250 METAR ESMX 022250Z AUTO 28005KT 9999 NCD 19/11 Q1014=
201806022220 METAR ESMX 022220Z AUTO 29006KT 9999 NCD 20/11 Q1014=
201806022150 METAR ESMX 022150Z AUTO 27007KT 9999 NCD 20/11 Q1014=
201806022120 METAR ESMX 022120Z AUTO 25006KT 9999 NCD 20/11 Q1014=
201806022050 METAR ESMX 022050Z AUTO 26006KT 9999 NCD 22/11 Q1013=
201806022020 METAR ESMX 022020Z AUTO 28006KT 9999 NCD 23/11 Q1013=
201806021950 METAR ESMX 021950Z 27006KT CAVOK 24/11 Q1013=
201806021920 METAR ESMX 021920Z 27007KT CAVOK 24/11 Q1013=
201806021850 METAR ESMX 021850Z 25005KT 210V310 CAVOK 25/11 Q1013=
201806021820 METAR ESMX 021820Z 24004KT 220V290 CAVOK 26/11 Q1013=
201806021750 METAR ESMX 021750Z 24004KT CAVOK 28/09 Q1012=
201806021720 METAR ESMX 021720Z 24005KT 200V280 CAVOK 28/09 Q1013=
201806021650 METAR ESMX 021650Z 25005KT 220V290 CAVOK 29/09 Q1012=
201806021620 METAR ESMX 021620Z 29006KT 240V010 CAVOK 29/08 Q1013=
201806021550 METAR ESMX 021550Z VRB01KT CAVOK 29/07 Q1013=
201806021520 METAR ESMX 021520Z 12003KT 030V170 CAVOK 28/08 Q1013=
201806021450 METAR ESMX 021450Z 35003KT 280V050 CAVOK 29/07 Q1013=
201806021420 METAR ESMX 021420Z AUTO VRB03KT 9999 NCD 29/07 Q1013=
201806021350 METAR ESMX 021350Z AUTO VRB03KT 9999 NCD 29/08 Q1014=
201806021320 METAR ESMX 021320Z AUTO 36006KT 9999 NCD 29/06 Q1014=
201806021250 METAR ESMX 021250Z AUTO 34005KT 290V080 9999 NCD 29/07 Q1014=
201806021220 METAR ESMX 021220Z AUTO 36005KT 280V100 9999 NCD 28/08 Q1014=
201806021150 METAR ESMX 021150Z AUTO 01005KT 300V080 9999 NCD 28/08 Q1014=
201806021120 METAR ESMX 021120Z AUTO VRB03KT 9999 NCD 27/08 Q1015=
201806021050 METAR ESMX 021050Z AUTO 01004KT 330V060 9999 NCD 27/09 Q1015=
201806021020 METAR ESMX 021020Z AUTO VRB03KT 9999 NCD 26/10 Q1015=
201806020950 METAR ESMX 020950Z AUTO VRB04KT 9999 NCD 26/11 Q1015=
201806020920 METAR ESMX 020920Z AUTO 03006KT 340V080 9999 NCD 25/10 Q1015=
201806020850 METAR ESMX 020850Z 07004KT 010V160 CAVOK 25/11 Q1015=
201806020820 METAR ESMX 020820Z 07003KT 340V120 CAVOK 24/10 Q1015=
201806020750 METAR ESMX 020750Z 35004KT 310V040 CAVOK 23/11 Q1015=
201806020720 METAR ESMX 020720Z VRB02KT CAVOK 23/11 Q1015=
201806020650 METAR ESMX 020650Z AUTO VRB03KT 9999 NCD 22/11 Q1015=
201806020620 METAR ESMX 020620Z AUTO 30003KT 250V340 9999 NCD 21/11 Q1015=
201806020550 METAR ESMX 020550Z AUTO VRB03KT 9999 NCD 20/10 Q1015=
201806020520 METAR ESMX 020520Z AUTO VRB02KT 9999 NCD 19/10 Q1015=
201806020450 METAR ESMX 020450Z AUTO VRB02KT 9999 NCD 17/13 Q1015=
201806020420 METAR ESMX 020420Z AUTO 00000KT 9999 NCD 15/13 Q1015=
201806020350 METAR ESMX 020350Z AUTO 00000KT 9999 NCD 12/11 Q1015=
201806020320 METAR ESMX 020320Z AUTO 19001KT 9999 NCD 09/08 Q1015=
201806020250 METAR ESMX 020250Z AUTO 02003KT 9999 NCD 09/08 Q1015=
201806020220 METAR ESMX 020220Z AUTO 21001KT 9999 NCD 08/06 Q1015=
201806020150 METAR ESMX 020150Z AUTO 20003KT 9999 NCD 09/07 Q1015=
201806020120 METAR ESMX 020120Z AUTO 09001KT 9999 NCD 09/07 Q1016=
201806020050 METAR ESMX 020050Z AUTO VRB01KT 9999 NCD 09/08 Q1016=
201806020020 METAR ESMX 020020Z AUTO 18001KT 9999 NCD 09/08 Q1016=
201806012350 METAR ESMX 012350Z AUTO 00000KT 9999 NCD 10/08 Q1016=
201806012320 METAR ESMX 012320Z AUTO 18003KT 9999 NCD 11/08 Q1016=
201806012250 METAR ESMX 012250Z 17002KT CAVOK 12/09 Q1016=
201806012220 METAR ESMX 012220Z VRB02KT CAVOK 14/09 Q1016=
201806012150 METAR ESMX 012150Z 19003KT CAVOK 13/08 Q1017=
201806012120 METAR ESMX 012120Z 20003KT CAVOK 15/09 Q1017=
201806012050 METAR ESMX 012050Z 16005KT CAVOK 19/09 Q1017=
201806012020 METAR ESMX 012020Z AUTO 18007KT 9999 NCD 20/09 Q1016=
201806011950 METAR ESMX 011950Z 17008KT CAVOK 21/10 Q1016=
201806011920 METAR ESMX 011920Z 17009KT CAVOK 22/10 Q1016=
201806011850 METAR ESMX 011850Z 16009KT CAVOK 23/10 Q1016=
201806011820 METAR COR ESMX 011820Z 21002KT CAVOK 25/07 Q1015=
201806011750 METAR ESMX 011750Z 35003KT CAVOK 27/07 Q1015=
201806011720 METAR ESMX 011720Z VRB02KT CAVOK 27/06 Q1016=
201806011650 METAR ESMX 011650Z 36003KT 320V030 CAVOK 27/06 Q1016=
201806011620 METAR ESMX 011620Z 03004KT 320V090 CAVOK 27/06 Q1016=
201806011550 METAR ESMX 011550Z 02003KT 340V080 CAVOK 28/06 Q1016=
201806011520 METAR ESMX 011520Z VRB02KT CAVOK 28/05 Q1016=
201806011450 METAR ESMX 011450Z 27004KT 200V330 CAVOK 28/06 Q1016=
201806011420 METAR ESMX 011420Z 04004KT 320V120 CAVOK 27/06 Q1016=
201806011350 METAR ESMX 011350Z 15005KT 070V200 CAVOK 27/06 Q1017=
201806011320 METAR ESMX 011320Z 20006KT 140V250 CAVOK 27/08 Q1017=
201806011250 METAR ESMX 011250Z 16006KT 100V230 CAVOK 27/07 Q1017=
201806011220 METAR ESMX 011220Z 15009G19KT CAVOK 26/08 Q1018=
