##########################################################
# Query made at 04/19/2024 22:02:04 UTC
# Time interval: from 03/01/2018 12:00  to 03/31/2018 12:59  UTC
##########################################################

##########################################################
# ESMX, Vaxjo (Sweden)
# WMO index: 02641. WIGOS ID: 0-20000-0-02648
# Latitude 56-51N. Longitude 014-50E. Altitude 199 m.
##########################################################

201803311250 METAR ESMX 311250Z AUTO 07007KT 030V120 9999 OVC023/// 02/M04 Q1008=
201803311220 METAR ESMX 311220Z AUTO 07007KT 040V140 9999 OVC024/// 02/M04 Q1008=
201803311150 METAR ESMX 311150Z AUTO 08005KT 040V130 9999 OVC023/// 02/M04 Q1008=
201803311120 METAR ESMX 311120Z AUTO 06009KT 030V110 9999 OVC022/// 01/M04 Q1008=
201803311050 METAR ESMX 311050Z AUTO 06006KT 020V110 9999 OVC023/// 01/M04 Q1009=
201803311020 METAR ESMX 311020Z AUTO 07007KT 030V110 9999 OVC022/// 01/M04 Q1009=
201803310950 METAR ESMX 310950Z AUTO 04007KT 9999 FEW020/// OVC027/// 01/M04 Q1009=
201803310920 METAR ESMX 310920Z AUTO 04007KT 9999 OVC029/// 01/M04 Q1009=
201803310850 METAR ESMX 310850Z AUTO 02007KT 9999 BKN024/// OVC030/// 00/M04 Q1009=
201803310820 METAR ESMX 310820Z AUTO 05007KT 9999 SCT024/// 00/M05 Q1009=
201803310750 METAR ESMX 310750Z AUTO 04007KT 9999 BKN020/// OVC024/// M00/M05 Q1009=
201803310720 METAR ESMX 310720Z AUTO 04007KT 020V080 9999 OVC019/// M01/M05 Q1010=
201803310650 METAR ESMX 310650Z AUTO 03008KT 9999 OVC019/// M01/M05 Q1009=
201803310620 METAR ESMX 310620Z AUTO 03007KT 9999 BKN020/// OVC028/// M02/M05 Q1009=
201803310550 METAR ESMX 310550Z AUTO 03007KT 9999 BKN022/// OVC029/// M02/M05 Q1009=
201803310520 METAR ESMX 310520Z AUTO 36005KT 9999 OVC020/// M02/M05 Q1009=
201803310450 METAR ESMX 310450Z AUTO 02004KT 9999 OVC020/// M02/M06 Q1009=
201803310420 METAR ESMX 310420Z AUTO VRB02KT 9999 OVC018/// M02/M06 Q1009=
201803310350 METAR ESMX 310350Z AUTO 01004KT 9999 OVC018/// M02/M05 Q1009=
201803310320 METAR ESMX 310320Z AUTO VRB03KT 9999 OVC018/// M01/M06 Q1009=
201803310250 METAR ESMX 310250Z AUTO 05004KT 020V110 9999 OVC019/// M01/M06 Q1009=
201803310220 METAR ESMX 310220Z AUTO 06004KT 020V090 9999 OVC018/// M01/M05 Q1009=
201803310150 METAR ESMX 310150Z AUTO VRB03KT 9999 OVC018/// M02/M06 Q1010=
201803310120 METAR ESMX 310120Z AUTO 04004KT 9999 SCT019/// OVC027/// M03/M06 Q1010=
201803310050 METAR ESMX 310050Z AUTO 03004KT 9999 OVC027/// M03/M07 Q1010=
201803310020 METAR ESMX 310020Z AUTO 03004KT 9999 OVC028/// M03/M06 Q1010=
201803302350 METAR ESMX 302350Z AUTO 01004KT 9999 OVC029/// M03/M06 Q1010=
201803302320 METAR ESMX 302320Z AUTO 04002KT 9999 OVC030/// M03/M07 Q1010=
201803302250 METAR ESMX 302250Z AUTO 04003KT 9999 OVC032/// M03/M07 Q1010=
201803302220 METAR ESMX 302220Z AUTO 04003KT 9999 OVC035/// M03/M07 Q1011=
201803302150 METAR ESMX 302150Z AUTO 00000KT 9999 OVC038/// M04/M07 Q1011=
201803302120 METAR ESMX 302120Z AUTO VRB02KT 9999 OVC042/// M03/M08 Q1010=
201803302050 METAR ESMX 302050Z AUTO 05002KT 9999 BKN046/// M04/M08 Q1011=
201803302020 METAR ESMX 302020Z AUTO 04001KT 9999 NCD M04/M08 Q1010=
201803301950 METAR ESMX 301950Z AUTO 05002KT 9999 NCD M04/M08 Q1010=
201803301920 METAR ESMX 301920Z AUTO VRB01KT 9999 NCD M02/M08 Q1010=
201803301850 METAR ESMX 301850Z AUTO 07003KT 9999 NCD M01/M08 Q1010=
201803301820 METAR ESMX 301820Z AUTO 07003KT 030V100 9999 NCD M01/M08 Q1010=
201803301750 METAR ESMX 301750Z AUTO 04003KT 9999 FEW047/// M01/M07 Q1009=
201803301720 METAR ESMX 301720Z AUTO 04002KT 9999 OVC045/// 01/M07 Q1009=
201803301650 METAR ESMX 301650Z AUTO VRB03KT 9999 OVC041/// 01/M07 Q1009=
201803301620 METAR ESMX 301620Z AUTO 06005KT 020V110 9999 OVC039/// 01/M07 Q1009=
201803301550 METAR ESMX 301550Z AUTO 01005KT 9999 OVC037/// 01/M06 Q1009=
201803301520 METAR ESMX 301520Z 01005KT 9999 BKN035 02/M06 Q1009=
201803301450 METAR ESMX 301450Z 02004KT 350V050 9999 BKN036 02/M06 Q1009=
201803301420 METAR ESMX 301420Z 02007KT 9999 BKN033 01/M06 Q1009=
201803301350 METAR ESMX 301350Z 01006KT 330V050 9999 BKN032 02/M06 Q1009=
201803301320 METAR ESMX 301320Z AUTO 05004KT 010V090 9999 OVC035/// 02/M05 Q1010=
201803301250 METAR ESMX 301250Z 02008KT 9999 BKN030 01/M05 Q1010=
201803301220 METAR ESMX 301220Z 03006KT 360V080 9999 BKN030 01/M06 Q1009=
201803301150 METAR ESMX 301150Z 04007KT 9999 BKN032 01/M06 Q1009=
201803301120 METAR ESMX 301120Z 02008KT 350V050 9999 BKN028 01/M05 Q1009=
201803301050 METAR ESMX 301050Z 03008KT 9999 BKN029 01/M05 Q1009=
201803301020 METAR ESMX 301020Z 04007KT 9999 BKN029 01/M06 Q1009=
201803300950 METAR ESMX 300950Z 02007KT 350V060 9999 BKN029 01/M06 Q1009=
201803300920 METAR ESMX 300920Z 03009KT 9999 BKN026 00/M05 Q1009=
201803300850 METAR ESMX 300850Z 02010KT 9999 BKN025 01/M05 Q1009=
201803300820 METAR ESMX 300820Z 36008KT 340V050 9999 SCT020 M00/M04 Q1008=
201803300750 METAR ESMX 300750Z 02007KT 9999 SCT019 M00/M04 Q1008=
201803300720 METAR ESMX 300720Z 02009KT CAVOK M01/M05 Q1008=
201803300650 METAR ESMX 300650Z AUTO 01008KT 9999 NCD M02/M05 Q1008=
201803300620 METAR ESMX 300620Z AUTO 01009KT 9999 SCT022/// M02/M05 Q1008=
201803300550 METAR ESMX 300550Z AUTO 36009KT 9999 OVC028/// M03/M05 Q1008=
201803300520 METAR ESMX 300520Z AUTO 01010KT 9999 BKN025/// OVC066/// M03/M05 Q1007=
201803300450 METAR ESMX 300450Z AUTO 36009KT 9999 FEW026/// OVC064/// M04/M06 Q1007=
201803300420 METAR ESMX 300420Z AUTO 36009KT 9999 SCT028/// BKN068/// M04/M06 Q1007=
201803300350 METAR ESMX 300350Z AUTO 36012KT 9999 BKN027/// OVC064/// M03/M05 Q1007=
201803300320 METAR ESMX 300320Z AUTO 36011KT 9999 OVC020/// M02/M05 Q1007=
201803300250 METAR ESMX 300250Z AUTO 35010KT 9999 BKN015/// OVC064/// M02/M04 Q1007=
201803300220 METAR ESMX 300220Z AUTO 01010KT 9999 -FZDZ OVC015/// M02/M04 Q1007 RESHUP=
201803300150 METAR ESMX 300150Z AUTO 01010KT 9999 -FZDZ OVC015/// M02/M04 Q1007=
201803300120 METAR ESMX 300120Z AUTO 02009KT 9999 -FZDZ OVC017/// M02/M04 Q1007=
201803300050 METAR ESMX 300050Z AUTO 02009KT 9999 -FZDZ BKN017/// OVC022/// M02/M04 Q1007 REFZUP=
201803300020 METAR ESMX 300020Z AUTO 02010KT 9999 FZUP SCT017/// BKN023/// BKN031/// M02/M04 Q1007 REFZUP=
201803292350 METAR ESMX 292350Z AUTO 02010KT 8000 -PL FEW002/// BKN018/// OVC022/// M02/M04 Q1007 REFZUP=
201803292320 METAR ESMX 292320Z AUTO 01010KT 9999 -FZDZ FEW002/// OVC018/// M02/M04 Q1007=
201803292250 METAR ESMX 292250Z AUTO 02011KT 4100 -SN BKN002/// OVC026/// M02/M04 Q1007=
201803292220 METAR ESMX 292220Z AUTO 03011KT 3900 -SN SCT002/// OVC031/// M02/M05 Q1007=
201803292150 METAR ESMX 292150Z AUTO 03012KT 7000 -SN BKN033/// OVC042/// M01/M06 Q1007 RESG REFZUP=
201803292120 METAR ESMX 292120Z AUTO 03011KT 9999 BKN037/// OVC053/// M01/M07 Q1007=
201803292050 METAR ESMX 292050Z AUTO 03011KT 9999 SCT043/// M01/M07 Q1007=
201803292020 METAR ESMX 292020Z AUTO 04010KT 9999 FEW036/// SCT059/// M01/M07 Q1007=
201803291950 METAR ESMX 291950Z AUTO 04011KT 9999 OVC059/// M00/M07 Q1007=
201803291920 METAR ESMX 291920Z AUTO 05011KT 9999 BKN055/// M00/M07 Q1007=
201803291850 METAR ESMX 291850Z AUTO 05011KT 9999 BKN040/// BKN053/// M00/M07 Q1007=
201803291820 METAR ESMX 291820Z 05010KT 020V080 9999 BKN033 M00/M07 Q1007=
201803291750 METAR ESMX 291750Z 05010KT 030V100 9999 -SN BKN036 00/M07 Q1007=
201803291720 METAR ESMX 291720Z 06012KT 030V100 9999 OVC047 00/M07 Q1007=
201803291650 METAR ESMX 291650Z 06011KT 030V090 9999 SCT043 BKN090 00/M07 Q1007=
201803291620 METAR ESMX 291620Z 05011KT 9999 FEW045 BKN065 01/M08 Q1007=
201803291550 METAR ESMX 291550Z 06010KT 030V100 9999 FEW040 OVC080 01/M08 Q1007=
201803291520 METAR ESMX 291520Z 06012KT 9999 FEW045 OVC090 01/M08 Q1007=
201803291450 METAR ESMX 291450Z 06009KT 030V110 9999 FEW045 BKN090 01/M08 Q1007=
201803291420 METAR ESMX 291420Z 06012KT 030V090 9999 FEW045 BKN100 01/M09 Q1007=
201803291350 METAR ESMX 291350Z 06012KT 020V100 CAVOK 01/M09 Q1007=
201803291320 METAR ESMX 291320Z 06013KT 030V110 CAVOK 02/M09 Q1007=
201803291250 METAR ESMX 291250Z 06012KT 010V110 9999 FEW048 02/M09 Q1007=
201803291220 METAR ESMX 291220Z 06014KT 020V100 9999 FEW047 SCT120 02/M09 Q1007=
201803291150 METAR ESMX 291150Z 08011G22KT 020V160 9999 FEW048 SCT120 02/M09 Q1007=
201803291120 METAR ESMX 291120Z 05011KT 010V110 9999 FEW048 01/M09 Q1008=
201803291050 METAR ESMX 291050Z 07011KT 030V110 9999 FEW045 02/M09 Q1008=
201803291020 METAR ESMX 291020Z 08011G22KT 030V140 CAVOK 01/M09 Q1008=
201803290950 METAR ESMX 290950Z 08011G23KT 040V120 CAVOK 02/M09 Q1008=
201803290920 METAR ESMX 290920Z 07012KT 030V120 CAVOK 01/M10 Q1008=
201803290850 METAR ESMX 290850Z 08012G27KT 030V130 CAVOK 00/M10 Q1008=
201803290820 METAR ESMX 290820Z 08013G23KT 040V120 CAVOK M00/M09 Q1008=
201803290750 METAR ESMX 290750Z 07011G24KT 020V120 CAVOK M01/M09 Q1008=
201803290720 METAR ESMX 290720Z 05009KT 010V110 CAVOK M01/M07 Q1008=
201803290650 METAR ESMX 290650Z 06007KT 030V100 CAVOK M02/M07 Q1008=
201803290620 METAR ESMX 290620Z 07008KT 040V100 CAVOK M03/M07 Q1008=
201803290550 METAR ESMX 290550Z 06005KT CAVOK M04/M07 Q1008=
201803290520 METAR ESMX 290520Z 06005KT CAVOK M04/M07 Q1008=
201803290450 METAR ESMX 290450Z 06007KT CAVOK M04/M07 Q1008=
201803290420 METAR ESMX 290420Z 06007KT 030V100 CAVOK M04/M07 Q1008=
201803290350 METAR ESMX 290350Z 06007KT CAVOK M04/M07 Q1008=
201803290320 METAR ESMX 290320Z AUTO 06007KT 030V100 9999 NCD M05/M08 Q1008=
201803290250 METAR ESMX 290250Z AUTO 05006KT 020V090 9999 NCD M05/M08 Q1008=
201803290220 METAR ESMX 290220Z AUTO 07006KT 030V100 9999 NCD M05/M08 Q1009=
201803290150 METAR ESMX 290150Z AUTO 07006KT 030V110 9999 NCD M05/M08 Q1009=
201803290120 METAR ESMX 290120Z AUTO 06006KT 030V110 9999 NCD M05/M09 Q1009=
201803290050 METAR ESMX 290050Z AUTO 06005KT 010V100 9999 NCD M05/M09 Q1009=
201803290020 METAR ESMX 290020Z 07005KT 040V110 CAVOK M05/M09 Q1010=
201803282350 METAR ESMX 282350Z 07005KT 020V100 CAVOK M05/M09 Q1010=
201803282320 METAR ESMX 282320Z 07005KT 020V120 CAVOK M05/M09 Q1010=
201803282250 METAR ESMX 282250Z 07004KT 030V130 CAVOK M05/M09 Q1011=
201803282220 METAR ESMX 282220Z 06004KT 020V100 CAVOK M05/M10 Q1011=
201803282150 METAR ESMX 282150Z 06004KT 020V090 CAVOK M05/M09 Q1011=
201803282120 METAR ESMX 282120Z 07003KT 030V110 CAVOK M05/M10 Q1011=
201803282050 METAR ESMX 282050Z 07004KT 020V110 CAVOK M04/M10 Q1011=
201803282020 METAR ESMX 282020Z 08005KT 030V120 CAVOK M04/M10 Q1011=
201803281950 METAR ESMX 281950Z 09004KT 050V150 CAVOK M04/M10 Q1012=
201803281920 METAR ESMX 281920Z 07005KT 010V120 9999 SCT031 M04/M09 Q1011=
201803281850 METAR ESMX 281850Z 09005KT 060V140 9999 BKN031 M03/M09 Q1012=
201803281820 METAR COR ESMX 281820Z 09003KT 020V140 9999 FEW033 M03/M10 Q1012=
201803281750 METAR ESMX 281750Z 11005KT 060V150 CAVOK M02/M10 Q1012=
201803281720 METAR ESMX 281720Z VRB05KT CAVOK M02/M09 Q1012=
201803281650 METAR ESMX 281650Z VRB07KT 9999 FEW040 M01/M09 Q1012=
201803281620 METAR ESMX 281620Z 12007KT 060V210 9999 FEW040 M01/M09 Q1012=
201803281550 METAR ESMX 281550Z 08006KT 040V130 9999 FEW035 M01/M09 Q1012=
201803281520 METAR ESMX 281520Z 12006KT 060V170 9999 BKN037 M01/M09 Q1013=
201803281450 METAR ESMX 281450Z 12007KT 080V200 9999 BKN037 M00/M09 Q1013=
201803281420 METAR ESMX 281420Z 13008KT 050V170 9999 SCT039 M00/M08 Q1013=
201803281350 METAR ESMX 281350Z 14007KT 090V200 9999 SCT039 00/M09 Q1014=
201803281320 METAR ESMX 281320Z 10007KT 040V160 9999 BKN039 M00/M09 Q1014=
201803281250 METAR ESMX 281250Z 12007KT 070V160 9999 BKN042 M00/M09 Q1014=
201803281220 METAR ESMX 281220Z 11006KT 070V180 9999 SCT040 00/M09 Q1014=
201803281150 METAR ESMX 281150Z 13007KT 080V180 9999 SCT040 00/M09 Q1014=
201803281120 METAR ESMX 281120Z 11008KT 060V160 9999 SCT040 M00/M09 Q1015=
201803281050 METAR ESMX 281050Z 12007KT 080V160 9999 SCT038 M01/M10 Q1015=
201803281020 METAR ESMX 281020Z 12006KT 070V170 9999 SCT035 M01/M10 Q1015=
201803280950 METAR ESMX 280950Z 12008KT 060V170 9999 SCT035 M00/M08 Q1015=
201803280920 METAR ESMX 280920Z 09006KT 010V140 9999 SCT032 M02/M09 Q1015=
201803280850 METAR ESMX 280850Z 09006KT 050V140 9999 FEW035 M02/M09 Q1016=
201803280820 METAR ESMX 280820Z 07005KT 030V100 CAVOK M04/M06 Q1016=
201803280750 METAR ESMX 280750Z 06004KT 020V100 CAVOK M05/M06 Q1016=
201803280720 METAR ESMX 280720Z 05005KT CAVOK M07/M08 Q1016=
201803280650 METAR ESMX 280650Z 05004KT CAVOK M08/M10 Q1016=
201803280620 METAR ESMX 280620Z 05003KT 350V070 CAVOK M11/M12 Q1016=
201803280550 METAR ESMX 280550Z 01003KT CAVOK M13/M15 Q1016=
201803280520 METAR ESMX 280520Z 36004KT CAVOK M14/M16 Q1016=
201803280450 METAR ESMX 280450Z 01003KT CAVOK M13/M15 Q1016=
201803280420 METAR ESMX 280420Z 01003KT CAVOK M14/M16 Q1016=
201803280350 METAR COR ESMX 280350Z 01003KT CAVOK M14/M16 Q1016=
201803280320 METAR ESMX 280320Z AUTO 36003KT 9999 NCD M13/M15 Q1016=
201803280250 METAR ESMX 280250Z AUTO 36003KT 9999 NCD M14/M16 Q1016=
201803280220 METAR ESMX 280220Z AUTO 01003KT 9999 NCD M14/M16 Q1016=
201803280150 METAR ESMX 280150Z AUTO 01003KT 9999 NCD M14/M16 Q1016=
201803280120 METAR ESMX 280120Z AUTO 02002KT 9999 BCFG NCD M14/M15 Q1016=
201803280050 METAR ESMX 280050Z AUTO 02002KT 0400 R01/1200D R19/P2000D FZFG NCD M13/M15 Q1016=
201803280020 METAR ESMX 280020Z AUTO 02002KT 0450 R01/P2000N R19/P2000D NCD M13/M15 Q1016=
201803272350 METAR ESMX 272350Z 01003KT 0250 R01/P2000N R19/1100N BCFG FEW000 M12/M13 Q1017=
201803272320 METAR ESMX 272320Z AUTO 02002KT 0250 R01/0650N R19/1500N FZFG NCD M11/M12 Q1017=
201803272250 METAR ESMX 272250Z 36002KT 0250 R01/0800N R19/0700U BCFG NSC M10/M12 Q1017=
201803272220 METAR ESMX 272220Z AUTO 02002KT 0150 R01/0600N R19/0550N FZFG NCD M10/M11 Q1017=
201803272150 METAR ESMX 272150Z AUTO 02002KT 0150 R01/0550N R19/0650N FZFG FEW059/// M08/M09 Q1017=
201803272120 METAR ESMX 272120Z 36003KT 0450 R01/1500N R19/1100U BCFG SCT061 M08/M09 Q1017=
201803272050 METAR COR ESMX 272050Z 18002KT 2700 BR SCT048 M06/M07 Q1017=
201803272020 METAR ESMX 272020Z 06003KT 9999 SCT049 M05/M06 Q1017=
201803271950 METAR ESMX 271950Z 06003KT 9999 -SN FEW012 SCT053 M05/M06 Q1017=
201803271920 METAR ESMX 271920Z VRB02KT 9999 FEW015 SCT051 M05/M06 Q1017=
201803271850 METAR ESMX 271850Z VRB03KT 9999 -SN FEW013 SCT049 M04/M06 Q1017=
201803271820 METAR ESMX 271820Z VRB03KT 9999 -SN FEW010 SCT023 M03/M05 Q1017=
201803271750 METAR ESMX 271750Z 14004KT 100V160 9999 FEW011 SCT051 M03/M05 Q1017=
201803271720 METAR ESMX 271720Z 15004KT 100V190 9999 BKN021 M03/M05 Q1016=
201803271650 METAR ESMX 271650Z 14005KT 9999 FEW015 BKN035 M03/M05 Q1016=
201803271620 METAR ESMX 271620Z 15006KT 110V170 9000 -SN FEW002 BKN011 M02/M05 Q1016=
201803271550 METAR ESMX 271550Z 15005KT 080V180 4600 -SN BKN003 M02/M04 Q1016=
201803271520 METAR ESMX 271520Z 12004KT 070V190 3500 -SN OVC043 M02/M04 Q1016=
201803271450 METAR ESMX 271450Z 10006KT 070V150 3900 -SN OVC030 M02/M04 Q1017=
201803271420 METAR ESMX 271420Z 11006KT 070V150 2700 -SN VV035 M02/M04 Q1016=
201803271350 METAR ESMX 271350Z 11005KT 060V160 2500 -SN VV030 M02/M04 Q1016=
201803271320 METAR ESMX 271320Z 11006KT 060V170 4000 -SN OVC030 M02/M04 Q1017=
201803271250 METAR ESMX 271250Z 12006KT 080V170 5000 -SN VV025 M01/M04 Q1017=
201803271220 METAR ESMX 271220Z 12006KT 080V160 2600 SN BKN001 OVC019 M02/M04 Q1017=
201803271150 METAR ESMX 271150Z 11006KT 070V160 2300 -SN BKN001 OVC017 M02/M04 Q1017=
201803271120 METAR ESMX 271120Z 08005KT 040V150 2100 -SN VV017 M01/M03 Q1017=
201803271050 METAR ESMX 271050Z 10006KT 050V160 2600 SN VV021 M01/M03 Q1017=
201803271020 METAR ESMX 271020Z 08004KT 040V130 2000 -SN VV021 M02/M03 Q1017=
201803270950 METAR ESMX 270950Z 09004KT 030V130 2000 SN VV016 M02/M04 Q1017=
201803270920 METAR ESMX 270920Z 09005KT 050V150 2000 -SN VV014 M02/M04 Q1017=
201803270850 METAR ESMX 270850Z 07005KT 030V130 1800 -SN VV012 M02/M04 Q1017=
201803270820 METAR ESMX 270820Z 07004KT 030V120 2000 -SN VV011 M03/M04 Q1017=
201803270750 METAR ESMX 270750Z 06004KT 020V110 1800 -SN FEW001 BKN018 OVC022 M03/M04 Q1017=
201803270720 METAR ESMX 270720Z 06004KT 020V100 1800 -SN FEW002 OVC024 M03/M05 Q1017=
201803270650 METAR ESMX 270650Z 08004KT 050V120 3800 -SN OVC033 M04/M05 Q1017=
201803270620 METAR ESMX 270620Z 08004KT 050V120 2700 -SN SCT001 OVC021 M04/M05 Q1016=
201803270550 METAR ESMX 270550Z 05004KT 0400 R01/0750N R19/0600N SN SCT001 BKN004 M04/M05 Q1016=
201803270520 METAR ESMX 270520Z 08003KT 020V120 1800 -SN SCT001 BKN003 M04/M05 Q1016=
201803270450 METAR ESMX 270450Z 08005KT 020V140 0550 R01/1200D R19/1500N SN OVC002 M04/M05 Q1016=
201803270420 METAR ESMX 270420Z 08004KT 040V130 2100 -SN SCT002 BKN025 M04/M06 Q1016=
201803270350 METAR ESMX 270350Z 08005KT 050V130 3800 -SN BKN023 M04/M06 Q1016=
201803270320 METAR ESMX 270320Z AUTO 06005KT 9999 FZUP FEW006/// SCT009/// OVC028/// M04/M06 Q1016=
201803270250 METAR ESMX 270250Z AUTO 07004KT 030V100 9999 FZUP OVC028/// M04/M06 Q1016 REUP=
201803270220 METAR ESMX 270220Z AUTO 08005KT 030V120 9999 OVC028/// M04/M06 Q1016 RESHUP=
201803270150 METAR ESMX 270150Z AUTO 04006KT 010V070 9999 FZUP BKN019/// OVC028/// M03/M06 Q1016=
201803270120 METAR ESMX 270120Z AUTO 06005KT 020V110 5000 -SN FEW007/// SCT013/// BKN021/// M03/M07 Q1016 REFZUP RESHUP REFZRA=
201803270050 METAR ESMX 270050Z AUTO 08006KT 030V110 9999 OVC025/// M03/M07 Q1016=
201803270020 METAR ESMX 270020Z AUTO 08006KT 030V140 9999 -FZDZ OVC024/// M03/M07 Q1016 REFZUP=
201803262350 METAR ESMX 262350Z 07005KT 350V120 9999 BKN020 M03/M07 Q1016=
201803262320 METAR ESMX 262320Z 08006KT 020V140 9999 FEW006 OVC027 M03/M07 Q1016=
201803262250 METAR ESMX 262250Z 06007KT 020V080 9999 FEW006 SCT019 OVC028 M03/M07 Q1016=
201803262220 METAR ESMX 262220Z AUTO 07005KT 030V120 9999 OVC026/// M02/M07 Q1016=
201803262150 METAR ESMX 262150Z AUTO 07005KT 030V110 9999 OVC030/// M02/M07 Q1016=
201803262120 METAR ESMX 262120Z 08005KT 050V140 9999 FEW021 OVC029 M02/M07 Q1016=
201803262050 METAR ESMX 262050Z 09005KT 030V130 9999 FEW018 OVC028 M02/M06 Q1016=
201803262020 METAR ESMX 262020Z 09006KT 050V130 9999 FEW014 OVC028 M02/M05 Q1016=
201803261950 METAR COR ESMX 261950Z 09006KT 040V130 9999 -SN SCT014 BKN019 M02/M05 Q1016=
201803261920 METAR ESMX 261920Z 10007KT 060V150 9999 -SN FEW006 SCT018 OVC027 M02/M05 Q1015=
201803261850 METAR ESMX 261850Z 09008KT 060V120 9999 -SN FEW008 BKN015 M02/M05 Q1015=
201803261820 METAR ESMX 261820Z 08008KT 050V140 9999 -SN FEW014 SCT020 OVC024 M01/M05 Q1015=
201803261750 METAR ESMX 261750Z 08005KT 020V130 9999 -SN BKN016 M01/M04 Q1015=
201803261720 METAR ESMX 261720Z 09006KT 050V130 9999 FEW002 SCT005 BKN011 M01/M03 Q1014=
201803261650 METAR ESMX 261650Z 09005KT 060V130 5000 -SN FEW005 BKN013 OVC020 M01/M03 Q1014=
201803261620 METAR ESMX 261620Z 10005KT 350V150 7000 -RASN OVC012 M01/M03 Q1014=
201803261550 METAR ESMX 261550Z 08005KT 030V130 4800 -SN BKN011 OVC014 M00/M03 Q1014=
201803261520 METAR ESMX 261520Z 09007KT 060V130 5000 -RA OVC011 00/M02 Q1013=
201803261450 METAR ESMX 261450Z 09006KT 050V130 9999 -RA OVC011 01/M02 Q1013=
201803261420 METAR ESMX 261420Z 09005KT 050V120 9999 -DZ OVC011 01/M01 Q1013=
201803261350 METAR ESMX 261350Z 08005KT 050V120 9999 -DZ BKN010 OVC012 01/M01 Q1012=
201803261320 METAR ESMX 261320Z 09005KT 060V120 8000 -RA BKN007 OVC014 01/M00 Q1012=
201803261250 METAR ESMX 261250Z 09005KT 060V140 9999 FEW006 BKN012 02/00 Q1012=
201803261220 METAR ESMX 261220Z 04007KT 020V080 9999 FEW014 OVC022 03/M00 Q1012=
201803261150 METAR ESMX 261150Z 36003KT 320V030 9999 OVC027 04/M00 Q1011=
201803261120 METAR ESMX 261120Z VRB02KT 9999 OVC026 04/00 Q1011=
201803261050 METAR ESMX 261050Z VRB03KT 9999 FEW006 BKN027 03/01 Q1011=
201803261020 METAR ESMX 261020Z VRB02KT 9999 FEW002 OVC024 02/01 Q1011=
201803260950 METAR ESMX 260950Z 28003KT 7000 -SN FEW005 OVC008 02/01 Q1010=
201803260920 METAR ESMX 260920Z 31004KT 7000 -SN OVC007 02/01 Q1010=
201803260850 METAR ESMX 260850Z 31004KT 8000 -SN OVC005 01/00 Q1010=
201803260820 METAR ESMX 260820Z 33005KT 9000 BR OVC004 01/00 Q1010=
201803260750 METAR ESMX 260750Z 31005KT 9000 BR OVC004 01/00 Q1009=
201803260720 METAR ESMX 260720Z 32005KT 290V350 9000 BR OVC004 01/00 Q1009=
201803260650 METAR ESMX 260650Z 31005KT 8000 BR OVC004 01/00 Q1009=
201803260620 METAR ESMX 260620Z 30007KT 270V330 7000 BR OVC003 01/00 Q1009=
201803260550 METAR ESMX 260550Z 29006KT 240V320 8000 BR OVC004 01/00 Q1008=
201803260520 METAR ESMX 260520Z 28004KT 4600 BR OVC004 01/00 Q1008=
201803260450 METAR ESMX 260450Z 29007KT 8000 BR OVC003 01/00 Q1008=
201803260420 METAR ESMX 260420Z 28006KT 6000 BR OVC003 00/00 Q1008=
201803260350 METAR ESMX 260350Z 28005KT 4000 BR OVC002 00/00 Q1007=
201803260320 METAR ESMX 260320Z AUTO 29006KT 2500 BR OVC002/// 00/00 Q1007=
201803260250 METAR ESMX 260250Z AUTO 27005KT 2000 OVC002/// 01/00 Q1007=
201803260220 METAR ESMX 260220Z AUTO 27006KT 1600 OVC001/// 01/00 Q1007=
201803260150 METAR ESMX 260150Z AUTO 28006KT 1000 R01/P2000N R19/P2000N FG OVC001/// 01/00 Q1007=
201803260120 METAR ESMX 260120Z AUTO 27004KT 240V320 0600 R01/1500N R19/P2000N FG OVC001/// 01/00 Q1007=
201803260050 METAR ESMX 260050Z AUTO 27004KT 0400 R01/1100N R19/1700U FG OVC001/// 00/00 Q1007=
201803260020 METAR ESMX 260020Z AUTO 27004KT 240V310 0450 R01/1200N R19/1600D FG OVC001/// 00/M00 Q1007=
201803252350 METAR ESMX 252350Z AUTO 27006KT 0450 R01/1200N R19/1200N FG OVC001/// 00/M00 Q1007=
201803252320 METAR ESMX 252320Z 27005KT 0900 R01/1800N R19/1800N FG OVC002 00/M00 Q1007=
201803252250 METAR ESMX 252250Z 26005KT 240V300 0900 R01/1600N R19/P2000N FG OVC002 00/M00 Q1007=
201803252220 METAR ESMX 252220Z 28004KT 1000 R01/P2000D R19/P2000N FG OVC002 00/M00 Q1007=
201803252150 METAR ESMX 252150Z 24003KT 8000 BR BKN004 00/M00 Q1006=
201803252120 METAR ESMX 252120Z 24004KT 8000 BR BKN004 M00/M01 Q1006=
201803252050 METAR ESMX 252050Z 22004KT 9000 BR NSC 01/00 Q1006=
201803252020 METAR ESMX 252020Z 25004KT 8000 BR NSC 01/00 Q1006=
201803251950 METAR ESMX 251950Z 25004KT 210V280 9000 BR NSC 01/00 Q1006=
201803251920 METAR ESMX 251920Z 25005KT 9000 BR NSC 02/01 Q1006=
201803251850 METAR ESMX 251850Z 24006KT CAVOK 02/01 Q1006=
201803251820 METAR ESMX 251820Z 24006KT CAVOK 03/01 Q1006=
201803251750 METAR ESMX 251750Z 23005KT CAVOK 03/01 Q1006=
201803251720 METAR ESMX 251720Z 23005KT CAVOK 03/01 Q1006=
201803251650 METAR ESMX 251650Z 23006KT CAVOK 04/01 Q1005=
201803251620 METAR ESMX 251620Z 24008KT CAVOK 05/01 Q1005=
201803251550 METAR ESMX 251550Z 23008KT CAVOK 05/01 Q1005=
201803251520 METAR ESMX 251520Z 21008KT 9999 FEW017 05/01 Q1005=
201803251450 METAR ESMX 251450Z 23010KT 9999 SCT015 05/01 Q1006=
201803251420 METAR ESMX 251420Z 24008KT 210V280 9999 BKN015 05/01 Q1006=
201803251350 METAR ESMX 251350Z 28007KT 240V300 9999 BKN014 05/01 Q1006=
201803251320 METAR ESMX 251320Z 26009KT 9999 OVC014 05/01 Q1006=
201803251250 METAR ESMX 251250Z 25008KT 230V290 9999 OVC014 04/02 Q1006=
201803251220 METAR ESMX 251220Z 25007KT 230V290 9999 BKN010 04/03 Q1006=
201803251150 METAR ESMX 251150Z 25006KT 8000 OVC007 04/03 Q1006=
201803251120 METAR ESMX 251120Z 25006KT 3500 BR OVC003 04/03 Q1006=
201803251050 METAR ESMX 251050Z 25006KT 2000 BR OVC002 03/03 Q1006=
201803251020 METAR ESMX 251020Z AUTO 25005KT 210V280 1700 BR OVC002/// 03/03 Q1006=
201803250950 METAR ESMX 250950Z AUTO 25006KT 1600 R01/1400U R19/1900N BR OVC002/// 03/03 Q1006=
201803250920 METAR ESMX 250920Z AUTO 25005KT 200V280 1300 R01/1400N R19/1300N BR OVC001/// 03/03 Q1005=
201803250850 METAR ESMX 250850Z AUTO 24006KT 1300 R01/1500N R19/1300N BR OVC001/// 03/02 Q1005=
201803250820 METAR ESMX 250820Z 23006KT 1400 R01/1400U R19/1400N BR OVC002 02/02 Q1005=
201803250750 METAR ESMX 250750Z 21006KT 1600 BR OVC002 02/02 Q1005=
201803250720 METAR ESMX 250720Z 21005KT 0650 R01/0900N R19/1400N FG OVC002 02/01 Q1005=
201803250650 METAR ESMX 250650Z 20005KT 0500 R01/0750N R19/0900N FG VV002 02/01 Q1005=
201803250620 METAR ESMX 250620Z 21005KT 0400 R01/0700N R19/0800U FG VV002 02/01 Q1005=
201803250550 METAR ESMX 250550Z AUTO 21005KT 0550 R01/0900N R19/1000D FG OVC001/// 02/01 Q1004=
201803250520 METAR ESMX 250520Z AUTO 22005KT 1600 BR OVC001/// 01/01 Q1004=
201803250450 METAR ESMX 250450Z AUTO 19006KT 2400 BR OVC002/// 01/01 Q1004=
201803250420 METAR ESMX 250420Z AUTO 22005KT 3200 BR OVC003/// 01/01 Q1004=
201803250350 METAR ESMX 250350Z AUTO 22004KT 3300 BR OVC003/// 01/01 Q1004=
201803250320 METAR ESMX 250320Z AUTO 20006KT 3100 BR OVC002/// 01/01 Q1004=
201803250250 METAR ESMX 250250Z AUTO 19005KT 2700 BR OVC002/// 01/01 Q1004=
201803250220 METAR ESMX 250220Z AUTO 21006KT 2900 BR OVC002/// 01/01 Q1004=
201803250150 METAR ESMX 250150Z AUTO 20006KT 2800 BR OVC002/// 01/01 Q1004=
201803250120 METAR ESMX 250120Z AUTO 22006KT 2200 BR OVC001/// 01/01 Q1004=
201803250050 METAR ESMX 250050Z AUTO 22006KT 2600 BR OVC002/// 01/01 Q1005=
201803250020 METAR ESMX 250020Z AUTO 21006KT 4000 BR OVC003/// 01/01 Q1004=
201803242350 METAR ESMX 242350Z AUTO 21006KT 3500 BR OVC002/// 01/01 Q1004=
201803242320 METAR ESMX 242320Z AUTO 21007KT 3200 BR OVC002/// 01/01 Q1005=
201803242250 METAR ESMX 242250Z AUTO 21006KT 4800 BR OVC004/// 01/01 Q1005=
201803242220 METAR ESMX 242220Z AUTO 21008KT 6000 BR OVC005/// 02/00 Q1005=
201803242150 METAR ESMX 242150Z 21007KT 9999 OVC006 02/00 Q1005=
201803242120 METAR ESMX 242120Z 21008KT 9999 OVC007 02/00 Q1005=
201803242050 METAR ESMX 242050Z 21007KT 9999 OVC008 02/M00 Q1005=
201803242020 METAR ESMX 242020Z 21006KT 9999 OVC009 02/M00 Q1005=
201803241950 METAR ESMX 241950Z AUTO 19008KT 9999 OVC010/// 02/M00 Q1005=
201803241920 METAR ESMX 241920Z AUTO 19007KT 9999 OVC012/// 02/M00 Q1005=
201803241850 METAR ESMX 241850Z AUTO 19007KT 9999 OVC013/// 02/M00 Q1005=
201803241820 METAR ESMX 241820Z AUTO 18006KT 9999 OVC015/// 02/M00 Q1005=
201803241750 METAR ESMX 241750Z AUTO 17005KT 9999 OVC016/// 03/M01 Q1005=
201803241720 METAR ESMX 241720Z AUTO 18006KT 9999 OVC017/// 03/M01 Q1004=
201803241650 METAR ESMX 241650Z 18007KT 9999 SCT016 OVC040 03/M01 Q1004=
201803241620 METAR ESMX 241620Z 19008KT 9999 BKN017 OVC040 03/M01 Q1004=
201803241550 METAR ESMX 241550Z 20009KT 9999 BKN016 03/M01 Q1004=
201803241520 METAR ESMX 241520Z 19010KT 9999 BKN018 03/M01 Q1004=
201803241450 METAR ESMX 241450Z AUTO 19010KT 9999 OVC016/// 03/M01 Q1005=
201803241420 METAR ESMX 241420Z AUTO 21009KT 9999 OVC015/// 02/M01 Q1005=
201803241350 METAR ESMX 241350Z AUTO 20010KT 9999 OVC015/// 02/M01 Q1005=
201803241320 METAR ESMX 241320Z AUTO 19010KT 9999 OVC015/// 02/M01 Q1005=
201803241250 METAR ESMX 241250Z AUTO 20009KT 9999 OVC015/// 02/M02 Q1005=
201803241220 METAR ESMX 241220Z AUTO 18010KT 9999 OVC015/// 02/M02 Q1005=
201803241150 METAR ESMX 241150Z AUTO 18009KT 9999 OVC015/// 02/M02 Q1005=
201803241120 METAR ESMX 241120Z AUTO 19009KT 9999 OVC015/// 02/M02 Q1005=
201803241050 METAR ESMX 241050Z AUTO 18007KT 9999 OVC015/// 02/M02 Q1005=
201803241020 METAR ESMX 241020Z 19008KT 9999 OVC015 01/M02 Q1005=
201803240950 METAR ESMX 240950Z 18010KT 9999 OVC018 01/M02 Q1005=
201803240920 METAR ESMX 240920Z 19008KT 9999 OVC015 01/M02 Q1005=
201803240850 METAR ESMX 240850Z 18010KT 9999 OVC018 01/M02 Q1005=
201803240820 METAR ESMX 240820Z 18010KT 9999 FEW015 BKN019 01/M02 Q1005=
201803240750 METAR ESMX 240750Z AUTO 16008KT 9999 BKN013/// OVC020/// 00/M03 Q1005=
201803240720 METAR ESMX 240720Z AUTO 17008KT 9999 BKN013/// BKN016/// OVC037/// 00/M03 Q1004=
201803240650 METAR ESMX 240650Z AUTO 19006KT 9999 FEW013/// OVC016/// 00/M03 Q1004=
201803240620 METAR ESMX 240620Z AUTO 19007KT 9999 OVC016/// M00/M03 Q1004=
201803240550 METAR ESMX 240550Z AUTO 19006KT 9999 OVC015/// M00/M03 Q1004=
201803240520 METAR ESMX 240520Z AUTO 18005KT 9999 OVC013/// M00/M03 Q1004=
201803240450 METAR ESMX 240450Z AUTO 18007KT 9999 OVC012/// M00/M03 Q1004=
201803240420 METAR ESMX 240420Z AUTO 20006KT 9999 OVC014/// M00/M03 Q1004=
201803240350 METAR ESMX 240350Z AUTO 20007KT 9999 OVC014/// M01/M02 Q1004=
201803240320 METAR ESMX 240320Z AUTO 19006KT 9999 OVC014/// M01/M02 Q1004=
201803240250 METAR ESMX 240250Z AUTO 18005KT 9999 OVC013/// M01/M02 Q1004=
201803240220 METAR ESMX 240220Z AUTO 18004KT 9999 SCT007/// OVC014/// M01/M02 Q1004=
201803240150 METAR ESMX 240150Z AUTO 17004KT 9999 SCT006/// OVC015/// M01/M02 Q1004=
201803240120 METAR ESMX 240120Z AUTO 17004KT 9999 FEW006/// SCT012/// OVC016/// M01/M02 Q1004=
201803240050 METAR ESMX 240050Z AUTO 15004KT 120V180 9000 BR SCT005/// BKN007/// OVC019/// M01/M02 Q1005=
201803240020 METAR ESMX 240020Z AUTO 18006KT 9000 BR BKN003/// OVC005/// M02/M02 Q1005=
201803232350 METAR ESMX 232350Z AUTO 17007KT 7000 BR OVC003/// M02/M03 Q1005=
201803232320 METAR ESMX 232320Z AUTO 17006KT 9999 SCT005/// M02/M03 Q1005=
201803232250 METAR ESMX 232250Z AUTO 16004KT 9999 NCD M02/M03 Q1005=
201803232220 METAR ESMX 232220Z AUTO 17004KT 9999 NCD M02/M03 Q1005=
201803232150 METAR ESMX 232150Z AUTO 18004KT 9999 NCD M01/M03 Q1005=
201803232120 METAR ESMX 232120Z AUTO 16005KT 9999 NCD M01/M02 Q1005=
201803232050 METAR ESMX 232050Z 18006KT CAVOK M00/M02 Q1005=
201803232020 METAR ESMX 232020Z 17006KT CAVOK M00/M02 Q1005=
201803231950 METAR ESMX 231950Z 17007KT CAVOK 01/M02 Q1005=
201803231920 METAR ESMX 231920Z 17006KT CAVOK 01/M02 Q1005=
201803231850 METAR ESMX 231850Z 18007KT CAVOK 02/M02 Q1005=
201803231820 METAR ESMX 231820Z 16007KT CAVOK 03/M03 Q1005=
201803231750 METAR ESMX 231750Z 20003KT 160V230 CAVOK 01/M02 Q1005=
201803231720 METAR ESMX 231720Z 18004KT CAVOK 04/M02 Q1005=
201803231650 METAR ESMX 231650Z 19005KT CAVOK 04/M02 Q1004=
201803231620 METAR ESMX 231620Z 17005KT CAVOK 05/M02 Q1004=
201803231550 METAR ESMX 231550Z 17006KT 9999 FEW030 05/M02 Q1005=
201803231520 METAR ESMX 231520Z 14006KT 110V170 9999 FEW027 05/M01 Q1005=
201803231450 METAR ESMX 231450Z 15007KT 9999 FEW027 05/M01 Q1005=
201803231420 METAR ESMX 231420Z 14006KT 080V170 CAVOK 05/M01 Q1005=
201803231350 METAR ESMX 231350Z 15007KT CAVOK 05/M01 Q1005=
201803231320 METAR ESMX 231320Z 18006KT 130V230 CAVOK 05/M02 Q1005=
201803231250 METAR ESMX 231250Z 15006KT 110V200 CAVOK 05/M01 Q1005=
201803231220 METAR ESMX 231220Z 14006KT 090V180 CAVOK 05/M01 Q1006=
201803231150 METAR ESMX 231150Z 13004KT 090V170 CAVOK 04/M00 Q1006=
201803231120 METAR ESMX 231120Z 01004KT 330V100 CAVOK 04/M00 Q1006=
201803231050 METAR ESMX 231050Z 01003KT 340V050 9999 FEW005 02/M00 Q1006=
201803231020 METAR ESMX 231020Z VRB02KT 9999 BKN004 00/M00 Q1006=
201803230950 METAR ESMX 230950Z VRB01KT 9999 BKN001 OVC003 M00/M01 Q1006=
201803230920 METAR ESMX 230920Z 00000KT 5000 BR OVC001 M00/M01 Q1006=
201803230850 METAR ESMX 230850Z VRB02KT 1500 OVC001 M01/M01 Q1006=
201803230820 METAR ESMX 230820Z 18004KT 0600 R01/1100N R19/0750N OVC001 M01/M02 Q1006=
201803230750 METAR ESMX 230750Z VRB02KT 0350 R01/0800N R19/0550N FZFG OVC001 M01/M02 Q1007=
201803230720 METAR ESMX 230720Z VRB01KT 0300 R01/0500N R19/0700N FZFG VV002 M02/M02 Q1006=
201803230650 METAR ESMX 230650Z VRB01KT 0250 R01/0450N R19/0450N FZFG OVC001 M02/M02 Q1007=
201803230620 METAR ESMX 230620Z VRB02KT 0300 R01/1200N R19/0600N FZFG BKN001 OVC002 M02/M02 Q1006=
201803230550 METAR ESMX 230550Z 32003KT 0350 R01/0650D R19/0900N FZFG OVC001 M02/M02 Q1006=
201803230520 METAR ESMX 230520Z VRB03KT 0300 R01/0700N R19/0900N FZFG OVC001 M02/M02 Q1006=
201803230450 METAR ESMX 230450Z VRB03KT 0250 R01/0900N R19/0700N FZFG OVC001 M02/M02 Q1006=
201803230420 METAR ESMX 230420Z AUTO 00000KT 0400 R01/1500N R19/1200D FZFG OVC001/// M02/M02 Q1006=
201803230350 METAR ESMX 230350Z AUTO 00000KT 0550 R01/1300U R19/1800D FZFG OVC001/// M02/M02 Q1006=
201803230320 METAR ESMX 230320Z AUTO VRB01KT 0550 R01/1700D R19/P2000N FZFG OVC001/// M02/M02 Q1006=
201803230250 METAR ESMX 230250Z AUTO 33003KT 1000 R01/P2000N R19/P2000N BR OVC001/// M02/M02 Q1006=
201803230220 METAR ESMX 230220Z AUTO 30003KT 1800 BR OVC001/// M01/M02 Q1006=
201803230150 METAR ESMX 230150Z AUTO 31003KT 280V010 5000 BR OVC001/// M01/M02 Q1006=
201803230120 METAR ESMX 230120Z AUTO 32004KT 7000 BR OVC001/// M01/M02 Q1006=
201803230050 METAR ESMX 230050Z AUTO 34006KT 300V360 9999 OVC002/// M01/M02 Q1006=
201803230020 METAR ESMX 230020Z 31006KT 9999 OVC002 M01/M02 Q1006=
201803222350 METAR ESMX 222350Z 31006KT 270V340 9999 OVC002 M01/M01 Q1006=
201803222320 METAR ESMX 222320Z AUTO 31005KT 9999 OVC002/// M01/M02 Q1006=
201803222250 METAR ESMX 222250Z 30007KT 9999 BKN004 M01/M01 Q1006=
201803222220 METAR ESMX 222220Z 28004KT 9999 FEW008 M01/M02 Q1006=
201803222150 METAR ESMX 222150Z 27005KT 9999 FEW015 M01/M02 Q1006=
201803222120 METAR ESMX 222120Z 27005KT 9999 FEW015 M01/M02 Q1006=
201803222050 METAR ESMX 222050Z 27004KT 9999 FEW021 M01/M01 Q1007=
201803222020 METAR ESMX 222020Z 25004KT 9999 FEW021 M01/M02 Q1006=
201803221950 METAR ESMX 221950Z 24004KT 9999 FEW021 M01/M02 Q1006=
201803221920 METAR ESMX 221920Z 23004KT 9999 FEW021 M01/M02 Q1006=
201803221850 METAR ESMX 221850Z 23004KT 9999 FEW024 M01/M02 Q1006=
201803221820 METAR ESMX 221820Z 24005KT 9999 FEW023 00/M02 Q1006=
201803221750 METAR ESMX 221750Z 24004KT 9999 SCT018 01/M01 Q1006=
201803221720 METAR ESMX 221720Z 25004KT 9999 BKN019 02/M01 Q1006=
201803221650 METAR ESMX 221650Z 25005KT 9999 BKN019 02/M01 Q1006=
201803221620 METAR COR ESMX 221620Z 24004KT 9999 BKN018 02/M01 Q1006=
201803221550 METAR ESMX 221550Z 26005KT 9999 BKN015 02/M01 Q1006=
201803221520 METAR ESMX 221520Z 25005KT 210V280 9999 BKN013 02/M01 Q1006=
201803221450 METAR ESMX 221450Z AUTO 24006KT 9999 BKN012/// OVC017/// 02/M01 Q1006=
201803221420 METAR ESMX 221420Z 27005KT 230V290 9999 BKN012 02/M00 Q1006=
201803221350 METAR ESMX 221350Z 26004KT 230V300 9999 BKN009 02/M00 Q1006=
201803221320 METAR ESMX 221320Z 30005KT 250V320 9999 BKN010 02/M00 Q1006=
201803221250 METAR ESMX 221250Z 30005KT 9999 BKN009 02/M01 Q1006=
201803221220 METAR ESMX 221220Z 25005KT 200V290 9999 BKN010 02/M00 Q1006=
201803221150 METAR ESMX 221150Z 23005KT 190V260 9999 OVC010 02/M01 Q1006=
201803221120 METAR ESMX 221120Z 25004KT 210V280 9999 OVC010 02/M01 Q1006=
201803221050 METAR ESMX 221050Z 29003KT 9999 BKN010 02/M01 Q1006=
201803221020 METAR ESMX 221020Z VRB03KT 9999 OVC009 02/M01 Q1006=
201803220950 METAR ESMX 220950Z VRB02KT 9999 BKN009 02/M01 Q1006=
201803220920 METAR ESMX 220920Z VRB03KT 9999 BKN008 01/M00 Q1006=
201803220850 METAR ESMX 220850Z 25003KT 190V280 9999 BKN005 01/M00 Q1005=
201803220820 METAR ESMX 220820Z 23004KT 9999 BKN005 01/M00 Q1005=
201803220750 METAR ESMX 220750Z 23005KT 9999 BKN004 00/M00 Q1005=
201803220720 METAR ESMX 220720Z 22004KT 9999 OVC005 00/M00 Q1006=
201803220650 METAR ESMX 220650Z 20005KT 9999 OVC005 00/M01 Q1006=
201803220620 METAR ESMX 220620Z 21004KT 180V240 9999 OVC005 M00/M01 Q1006=
201803220550 METAR ESMX 220550Z 18005KT 9999 BKN005 M00/M01 Q1006=
201803220520 METAR ESMX 220520Z 18006KT 9999 BKN005 M00/M01 Q1005=
201803220450 METAR ESMX 220450Z 17006KT 9999 -FZDZ BKN005 M00/M01 Q1006=
201803220420 METAR ESMX 220420Z AUTO 17004KT 9999 -FZDZ BKN005/// OVC007/// M00/M01 Q1006=
201803220350 METAR ESMX 220350Z AUTO 17006KT 6000 -RASN OVC005/// M00/M01 Q1006=
201803220320 METAR ESMX 220320Z AUTO 18006KT 6000 -SN OVC004/// M00/M01 Q1006=
201803220250 METAR ESMX 220250Z AUTO 18007KT 3800 -SN BKN005/// BKN015/// OVC029/// M00/M01 Q1007=
201803220220 METAR ESMX 220220Z AUTO 19007KT 3600 -SN SCT004/// BKN032/// OVC049/// M00/M01 Q1007=
201803220150 METAR ESMX 220150Z AUTO 19007KT 5000 -SN SCT006/// OVC066/// M00/M01 Q1008=
201803220120 METAR ESMX 220120Z AUTO 21007KT 6000 -RASN SCT006/// BKN009/// OVC047/// M00/M01 Q1008=
201803220050 METAR ESMX 220050Z 22007KT 5000 -SN FEW007 SCT010 BKN032 M00/M01 Q1009=
201803220020 METAR ESMX 220020Z 23008KT 7000 -SN BKN033 00/M02 Q1009=
201803212350 METAR ESMX 212350Z 24009KT 9999 -SN SCT015 BKN039 01/M02 Q1010=
201803212320 METAR ESMX 212320Z 25009KT 9999 -SN BKN014 01/M02 Q1010=
201803212250 METAR ESMX 212250Z AUTO 24009KT 9999 FEW012/// BKN016/// OVC021/// 02/M01 Q1010=
201803212220 METAR ESMX 212220Z AUTO 24009KT 9999 OVC012/// 02/M00 Q1011=
201803212150 METAR ESMX 212150Z 24009KT 9999 BKN012 02/M00 Q1011=
201803212120 METAR ESMX 212120Z 25009KT 9999 BKN015 02/M00 Q1011=
201803212050 METAR ESMX 212050Z 26009KT 9999 SCT019 02/M00 Q1012=
201803212020 METAR ESMX 212020Z 25008KT 9999 SCT014 02/M00 Q1012=
201803211950 METAR ESMX 211950Z 24008KT 9999 BKN012 02/00 Q1012=
201803211920 METAR ESMX 211920Z 23008KT 9999 BKN027 02/M00 Q1013=
201803211850 METAR ESMX 211850Z 22007KT 9999 BKN021 02/M00 Q1013=
201803211820 METAR ESMX 211820Z 22008KT 9999 BKN024 02/M00 Q1013=
201803211750 METAR ESMX 211750Z 22008KT 9999 FEW017 BKN023 02/M00 Q1013=
201803211720 METAR ESMX 211720Z 21009KT 9999 BKN017 02/M01 Q1014=
201803211650 METAR ESMX 211650Z 22008KT 9999 BKN017 02/M01 Q1014=
201803211620 METAR ESMX 211620Z 22008KT 9999 BKN019 02/M01 Q1014=
201803211550 METAR ESMX 211550Z 23010KT 9999 BKN019 02/M01 Q1014=
201803211520 METAR ESMX 211520Z 23010KT 9999 BKN022 03/M02 Q1015=
201803211450 METAR ESMX 211450Z 23010KT 9999 BKN021 03/M02 Q1016=
201803211420 METAR ESMX 211420Z 23011KT 9999 BKN025 03/M02 Q1016=
201803211350 METAR ESMX 211350Z 24012KT 9999 BKN027 03/M02 Q1016=
201803211320 METAR ESMX 211320Z 22010KT 9999 BKN031 03/M03 Q1016=
201803211250 METAR COR ESMX 211250Z 25009KT 210V280 9999 BKN033 03/M04 Q1016=
201803211220 METAR ESMX 211220Z 23010KT 9999 SCT033 03/M04 Q1017=
201803211150 METAR ESMX 211150Z 22010KT 170V260 9999 SCT030 03/M05 Q1017=
201803211120 METAR ESMX 211120Z 21011KT 9999 FEW030 02/M06 Q1018=
201803211050 METAR ESMX 211050Z 21011KT 180V240 CAVOK 02/M07 Q1018=
201803211020 METAR ESMX 211020Z 20012KT CAVOK 02/M08 Q1018=
201803210950 METAR ESMX 210950Z 21011KT CAVOK 02/M08 Q1018=
201803210920 METAR ESMX 210920Z 23012KT CAVOK 01/M08 Q1019=
201803210850 METAR ESMX 210850Z 21011KT CAVOK 01/M08 Q1019=
201803210820 METAR ESMX 210820Z 23008KT CAVOK 01/M07 Q1020=
201803210750 METAR ESMX 210750Z 20005KT CAVOK M01/M08 Q1020=
201803210720 METAR ESMX 210720Z 21003KT CAVOK M03/M08 Q1020=
201803210650 METAR ESMX 210650Z 16003KT CAVOK M05/M09 Q1020=
201803210620 METAR ESMX 210620Z 22004KT CAVOK M07/M10 Q1020=
201803210550 METAR ESMX 210550Z 21005KT CAVOK M07/M10 Q1020=
201803210520 METAR ESMX 210520Z 20003KT CAVOK M08/M10 Q1020=
201803210450 METAR ESMX 210450Z 17002KT CAVOK M08/M10 Q1021=
201803210420 METAR ESMX 210420Z AUTO 23003KT 9999 NCD M08/M11 Q1021=
201803210350 METAR ESMX 210350Z AUTO 19005KT 9999 NCD M07/M10 Q1021=
201803210320 METAR ESMX 210320Z AUTO 22003KT 9999 NCD M07/M10 Q1021=
201803210250 METAR ESMX 210250Z AUTO 22004KT 9999 NCD M07/M10 Q1021=
201803210220 METAR ESMX 210220Z 22003KT CAVOK M07/M10 Q1021=
201803210150 METAR ESMX 210150Z 24003KT CAVOK M06/M10 Q1021=
201803210120 METAR ESMX 210120Z 24003KT CAVOK M06/M10 Q1022=
201803210050 METAR ESMX 210050Z 24004KT CAVOK M07/M10 Q1022=
201803210020 METAR ESMX 210020Z 24003KT CAVOK M08/M11 Q1022=
201803202350 METAR ESMX 202350Z 18003KT CAVOK M08/M10 Q1022=
201803202320 METAR ESMX 202320Z 19002KT CAVOK M07/M10 Q1022=
201803202250 METAR ESMX 202250Z 22002KT CAVOK M07/M10 Q1022=
201803202220 METAR ESMX 202220Z 17003KT CAVOK M07/M10 Q1022=
201803202150 METAR ESMX 202150Z 18003KT CAVOK M06/M10 Q1022=
201803202120 METAR ESMX 202120Z 27002KT CAVOK M06/M09 Q1022=
201803202050 METAR ESMX 202050Z 00000KT CAVOK M05/M10 Q1022=
201803202020 METAR ESMX 202020Z 31003KT CAVOK M05/M09 Q1022=
201803201950 METAR ESMX 201950Z VRB01KT CAVOK M03/M09 Q1021=
201803201920 METAR ESMX 201920Z 35003KT CAVOK M02/M09 Q1021=
201803201850 METAR ESMX 201850Z VRB02KT CAVOK M02/M10 Q1021=
201803201820 METAR ESMX 201820Z 32005KT CAVOK M01/M10 Q1021=
201803201750 METAR ESMX 201750Z 32005KT CAVOK M01/M09 Q1020=
201803201720 METAR ESMX 201720Z 35007KT CAVOK M01/M09 Q1020=
201803201650 METAR ESMX 201650Z 35008KT CAVOK 01/M09 Q1019=
201803201620 METAR ESMX 201620Z 34010KT CAVOK 02/M09 Q1019=
201803201550 METAR ESMX 201550Z 33008KT CAVOK 02/M09 Q1019=
201803201520 METAR ESMX 201520Z 36009KT CAVOK 03/M09 Q1018=
201803201450 METAR ESMX 201450Z 34009KT CAVOK 03/M09 Q1018=
201803201420 METAR ESMX 201420Z 34010KT CAVOK 03/M09 Q1017=
201803201350 METAR ESMX 201350Z 01012KT CAVOK 03/M10 Q1017=
201803201320 METAR ESMX 201320Z 35013KT CAVOK 02/M10 Q1017=
201803201250 METAR ESMX 201250Z 34012KT CAVOK 02/M08 Q1017=
201803201220 METAR ESMX 201220Z 01013KT CAVOK 03/M10 Q1017=
201803201150 METAR ESMX 201150Z 35012KT CAVOK 02/M09 Q1016=
201803201120 METAR ESMX 201120Z 36014KT CAVOK 02/M09 Q1016=
201803201050 METAR ESMX 201050Z 36012KT CAVOK 02/M08 Q1016=
201803201020 METAR ESMX 201020Z 36012KT 9999 FEW040 01/M08 Q1016=
201803200950 METAR ESMX 200950Z 35012KT 9999 FEW040 01/M07 Q1016=
201803200920 METAR ESMX 200920Z 36012KT CAVOK 01/M07 Q1015=
201803200850 METAR ESMX 200850Z 01011KT CAVOK M00/M07 Q1015=
201803200820 METAR ESMX 200820Z 01011KT CAVOK M00/M07 Q1014=
201803200750 METAR ESMX 200750Z 01010KT CAVOK M01/M07 Q1014=
201803200720 METAR ESMX 200720Z 01012KT CAVOK M02/M07 Q1013=
201803200650 METAR ESMX 200650Z 01010KT CAVOK M03/M07 Q1013=
201803200620 METAR ESMX 200620Z 36009KT CAVOK M04/M07 Q1012=
201803200550 METAR ESMX 200550Z 35004KT CAVOK M05/M07 Q1012=
201803200520 METAR ESMX 200520Z 33004KT CAVOK M05/M07 Q1011=
201803200450 METAR ESMX 200450Z AUTO 31004KT 9999 NCD M05/M07 Q1011=
201803200420 METAR ESMX 200420Z AUTO 33005KT 9999 NCD M05/M07 Q1011=
201803200350 METAR ESMX 200350Z AUTO 34006KT 9999 NCD M05/M08 Q1010=
201803200320 METAR ESMX 200320Z AUTO 34007KT 9999 NCD M05/M07 Q1010=
201803200250 METAR ESMX 200250Z AUTO 34007KT 9999 NCD M04/M07 Q1009=
201803200220 METAR ESMX 200220Z AUTO 34007KT 9999 NCD M04/M06 Q1009=
201803200150 METAR ESMX 200150Z AUTO 34007KT 9999 NCD M03/M05 Q1009=
201803200120 METAR ESMX 200120Z AUTO 32006KT 9999 NCD M03/M04 Q1009=
201803200050 METAR ESMX 200050Z 32005KT CAVOK M03/M04 Q1008=
201803200020 METAR ESMX 200020Z 32005KT CAVOK M03/M04 Q1008=
201803192350 METAR ESMX 192350Z 32005KT CAVOK M02/M04 Q1008=
201803192320 METAR ESMX 192320Z 31006KT CAVOK M02/M03 Q1008=
201803192250 METAR ESMX 192250Z 32005KT CAVOK M02/M03 Q1008=
201803192220 METAR ESMX 192220Z 32005KT 9999 FEW043 SCT053 BKN068 M01/M03 Q1008=
201803192150 METAR ESMX 192150Z 30003KT 260V020 9000 -SN SCT039 BKN051 M01/M04 Q1008=
201803192120 METAR ESMX 192120Z 31005KT 280V350 9999 FEW022 BKN059 M01/M04 Q1008=
201803192050 METAR ESMX 192050Z 30004KT 9999 -SN FEW029 BKN051 M01/M04 Q1008=
201803192020 METAR COR ESMX 192020Z 28005KT 240V300 8000 -SN FEW033 BKN047 M01/M04 Q1008=
201803191950 METAR ESMX 191950Z 27005KT 240V310 9999 -SN BKN034 M01/M05 Q1008=
201803191920 METAR ESMX 191920Z 26005KT 9999 BKN031 M01/M06 Q1008=
201803191850 METAR ESMX 191850Z 26006KT 9999 SCT022 BKN051 M00/M06 Q1008=
201803191820 METAR ESMX 191820Z 25008KT 9999 SCT024 M00/M06 Q1008=
201803191750 METAR ESMX 191750Z 23005KT 9999 BKN025 OVC053 M00/M06 Q1008=
201803191720 METAR ESMX 191720Z 23005KT 200V260 9999 BKN025 M00/M07 Q1008=
201803191650 METAR ESMX 191650Z 25009KT 210V280 CAVOK M00/M08 Q1008=
201803191620 METAR ESMX 191620Z 24011KT CAVOK 00/M10 Q1008=
201803191550 METAR ESMX 191550Z 24010KT CAVOK 01/M10 Q1009=
201803191520 METAR ESMX 191520Z 24010KT CAVOK 01/M09 Q1009=
201803191450 METAR ESMX 191450Z 23014KT CAVOK 02/M10 Q1009=
201803191420 METAR ESMX 191420Z 25012KT CAVOK 02/M10 Q1010=
201803191350 METAR ESMX 191350Z 25012KT CAVOK 03/M09 Q1010=
201803191320 METAR ESMX 191320Z 25011KT 230V290 CAVOK 02/M09 Q1011=
201803191250 METAR ESMX 191250Z 25013KT CAVOK 02/M09 Q1011=
201803191220 METAR ESMX 191220Z 25012KT CAVOK 02/M08 Q1012=
201803191150 METAR ESMX 191150Z 24010KT 210V280 CAVOK 02/M10 Q1012=
201803191120 METAR ESMX 191120Z 25009KT 210V280 CAVOK 02/M09 Q1013=
201803191050 METAR ESMX 191050Z 26011KT CAVOK 01/M09 Q1013=
201803191020 METAR ESMX 191020Z 26011KT CAVOK 01/M10 Q1014=
201803190950 METAR ESMX 190950Z 25011KT CAVOK 00/M10 Q1014=
201803190920 METAR ESMX 190920Z 27010KT 250V310 CAVOK M00/M10 Q1015=
201803190850 METAR ESMX 190850Z 25008KT 230V290 CAVOK M01/M10 Q1015=
201803190820 METAR COR ESMX 190820Z 25005KT 210V280 CAVOK M02/M11 Q1015=
201803190750 METAR ESMX 190750Z 24005KT 210V280 CAVOK M03/M10 Q1015=
201803190720 METAR ESMX 190720Z 23006KT 190V250 CAVOK M05/M10 Q1016=
201803190650 METAR ESMX 190650Z 20005KT CAVOK M06/M12 Q1016=
201803190620 METAR ESMX 190620Z 22003KT CAVOK M07/M13 Q1016=
201803190550 METAR ESMX 190550Z 26003KT CAVOK M10/M13 Q1017=
201803190520 METAR ESMX 190520Z 22002KT CAVOK M10/M13 Q1017=
201803190450 METAR ESMX 190450Z 22005KT CAVOK M09/M13 Q1017=
201803190420 METAR ESMX 190420Z AUTO 20004KT 9999 NCD M08/M13 Q1017=
201803190350 METAR ESMX 190350Z AUTO 22003KT 9999 NCD M09/M12 Q1017=
201803190320 METAR ESMX 190320Z AUTO 20003KT 9999 NCD M08/M13 Q1018=
201803190250 METAR ESMX 190250Z AUTO 22005KT 9999 NCD M08/M13 Q1018=
201803190220 METAR ESMX 190220Z AUTO 24005KT 9999 NCD M08/M12 Q1018=
201803190150 METAR ESMX 190150Z AUTO 23004KT 9999 NCD M08/M13 Q1019=
201803190120 METAR ESMX 190120Z AUTO 23005KT 9999 NCD M07/M12 Q1019=
201803190050 METAR ESMX 190050Z AUTO 22006KT 9999 NCD M07/M12 Q1019=
201803190020 METAR ESMX 190020Z 24004KT CAVOK M08/M12 Q1020=
201803182350 METAR ESMX 182350Z 23004KT CAVOK M08/M12 Q1020=
201803182320 METAR ESMX 182320Z 23003KT CAVOK M07/M12 Q1020=
201803182250 METAR ESMX 182250Z 18003KT CAVOK M07/M12 Q1021=
201803182220 METAR ESMX 182220Z AUTO 25003KT 9999 NCD M06/M12 Q1021=
201803182150 METAR ESMX 182150Z AUTO 23005KT 9999 NCD M05/M12 Q1021=
201803182120 METAR ESMX 182120Z 23005KT CAVOK M05/M12 Q1021=
201803182050 METAR ESMX 182050Z 23005KT CAVOK M05/M12 Q1021=
201803182020 METAR ESMX 182020Z 23005KT CAVOK M04/M12 Q1022=
201803181950 METAR ESMX 181950Z 22004KT CAVOK M03/M12 Q1022=
201803181920 METAR ESMX 181920Z 22005KT CAVOK M04/M12 Q1022=
201803181850 METAR ESMX 181850Z 22005KT CAVOK M04/M11 Q1022=
201803181820 METAR ESMX 181820Z 18003KT CAVOK M04/M12 Q1022=
201803181750 METAR ESMX 181750Z 18004KT CAVOK M03/M11 Q1022=
201803181720 METAR ESMX 181720Z 16003KT CAVOK M01/M11 Q1022=
201803181650 METAR ESMX 181650Z VRB02KT CAVOK 01/M11 Q1022=
201803181620 METAR ESMX 181620Z VRB02KT CAVOK 03/M14 Q1022=
201803181550 METAR ESMX 181550Z 26003KT 210V290 CAVOK 03/M13 Q1023=
201803181520 METAR ESMX 181520Z 00000KT CAVOK 03/M14 Q1023=
201803181450 METAR ESMX 181450Z VRB01KT CAVOK 03/M14 Q1023=
201803181420 METAR ESMX 181420Z VRB01KT CAVOK 03/M14 Q1024=
201803181350 METAR ESMX 181350Z 02002KT CAVOK 03/M14 Q1024=
201803181320 METAR ESMX 181320Z 00000KT CAVOK 03/M12 Q1024=
201803181250 METAR ESMX 181250Z 00000KT CAVOK 03/M12 Q1025=
201803181220 METAR ESMX 181220Z 00000KT CAVOK 01/M11 Q1025=
201803181150 METAR ESMX 181150Z 02003KT CAVOK 00/M13 Q1026=
201803181120 METAR ESMX 181120Z AUTO 01004KT 9999 NCD M01/M13 Q1026=
201803181050 METAR ESMX 181050Z 01002KT CAVOK M01/M13 Q1026=
201803181020 METAR ESMX 181020Z VRB01KT CAVOK M01/M12 Q1027=
201803180950 METAR ESMX 180950Z 35002KT CAVOK M03/M10 Q1027=
201803180920 METAR ESMX 180920Z AUTO 36004KT 9999 NCD M03/M10 Q1027=
201803180850 METAR ESMX 180850Z AUTO 35004KT 9999 NCD M05/M11 Q1027=
201803180820 METAR ESMX 180820Z AUTO 32002KT 9999 NCD M06/M11 Q1027=
201803180750 METAR ESMX 180750Z AUTO 34003KT 9999 NCD M08/M12 Q1027=
201803180720 METAR ESMX 180720Z AUTO 35003KT 9999 NCD M10/M12 Q1027=
201803180650 METAR ESMX 180650Z AUTO 35004KT 9999 NCD M11/M13 Q1027=
201803180620 METAR ESMX 180620Z AUTO 01002KT 9999 NCD M14/M16 Q1027=
201803180550 METAR ESMX 180550Z AUTO 03002KT 9999 NCD M14/M16 Q1027=
201803180520 METAR ESMX 180520Z AUTO 00000KT 9999 NCD M15/M17 Q1027=
201803180450 METAR ESMX 180450Z AUTO 02001KT 9999 NCD M15/M17 Q1027=
201803180420 METAR ESMX 180420Z AUTO 00000KT 9999 NCD M15/M17 Q1027=
201803180350 METAR ESMX 180350Z AUTO 00000KT 9999 NCD M14/M16 Q1027=
201803180320 METAR ESMX 180320Z AUTO 00000KT 9999 NCD M14/M16 Q1027=
201803180250 METAR ESMX 180250Z AUTO 00000KT 9999 NCD M14/M16 Q1027=
201803180220 METAR ESMX 180220Z AUTO 00000KT 9999 NCD M14/M16 Q1027=
201803180150 METAR ESMX 180150Z AUTO 02002KT 9999 NCD M12/M14 Q1028=
201803180120 METAR ESMX 180120Z AUTO 03004KT 9999 NCD M11/M12 Q1028=
201803180050 METAR ESMX 180050Z AUTO 36002KT 9999 NCD M12/M13 Q1028=
201803180020 METAR ESMX 180020Z AUTO 36001KT 9999 NCD M11/M13 Q1028=
201803172350 METAR ESMX 172350Z AUTO 00000KT 9999 NCD M11/M12 Q1028=
201803172320 METAR ESMX 172320Z AUTO 00000KT 9999 NCD M10/M12 Q1028=
201803172250 METAR ESMX 172250Z AUTO 02003KT 9999 NCD M10/M12 Q1028=
201803172220 METAR ESMX 172220Z AUTO 02003KT 9999 NCD M09/M12 Q1028=
201803172150 METAR ESMX 172150Z AUTO 03005KT 9999 NCD M09/M12 Q1028=
201803172120 METAR ESMX 172120Z AUTO 03005KT 9999 FEW032/// M08/M12 Q1028=
201803172050 METAR ESMX 172050Z AUTO 01006KT 9999 NCD M07/M11 Q1028=
201803172020 METAR ESMX 172020Z AUTO 03007KT 9999 FEW030/// M07/M10 Q1028=
201803171950 METAR ESMX 171950Z AUTO 04006KT 9999 NCD M07/M10 Q1028=
201803171920 METAR ESMX 171920Z AUTO 04008KT 9999 NCD M06/M10 Q1028=
201803171850 METAR ESMX 171850Z AUTO 03009KT 9999 NCD M06/M10 Q1027=
201803171820 METAR ESMX 171820Z AUTO 04010KT 010V080 9999 NCD M05/M10 Q1027 RESG=
201803171750 METAR ESMX 171750Z 02009KT 9999 SCT029 M05/M10 Q1027=
201803171720 METAR ESMX 171720Z 05008KT 9999 FEW030 M05/M10 Q1027=
201803171650 METAR ESMX 171650Z 05011KT 030V090 9999 VCSH FEW026CB SCT035 M04/M10 Q1027=
201803171620 METAR ESMX 171620Z 05010KT 030V100 9999 SCT029CB M04/M10 Q1026=
201803171550 METAR ESMX 171550Z 05011KT 030V090 9999 SCT024CB M04/M10 Q1026=
201803171520 METAR ESMX 171520Z 05010KT 9999 -SN SCT024 BKN041 M03/M08 Q1026=
201803171450 METAR ESMX 171450Z AUTO 05011KT 030V090 9999 -SN FEW002/// SCT010/// BKN040/// M04/M08 Q1027 REFZUP=
201803171420 METAR ESMX 171420Z AUTO 05014KT 9999 BKN021/// M03/M10 Q1026=
201803171350 METAR ESMX 171350Z AUTO 05014KT 030V100 9999 SCT031/// M03/M10 Q1026=
201803171320 METAR ESMX 171320Z AUTO 05013KT 020V090 9999 FEW030/// M03/M10 Q1026=
201803171250 METAR ESMX 171250Z AUTO 05015KT 020V080 9999 FEW025/// SCT040/// M03/M10 Q1026=
201803171220 METAR ESMX 171220Z AUTO 05011KT 020V080 9999 -SN SCT001/// BKN024/// BKN038/// M04/M08 Q1027=
201803171150 METAR ESMX 171150Z AUTO 05012KT 2900 -SN FEW002/// SCT016/// BKN021/// M04/M07 Q1027=
201803171120 METAR ESMX 171120Z AUTO 05013KT 9999 SG FEW002/// SCT020/// BKN027/// M04/M08 Q1027 RESN=
201803171050 METAR ESMX 171050Z AUTO 04010KT 9999 -SN FEW005/// SCT015/// BKN020/// M04/M08 Q1027=
201803171020 METAR COR ESMX 171020Z 04013KT 9999 VCSH BKN017 BKN029 M04/M09 Q1027=
201803170950 METAR ESMX 170950Z 04011KT 9999 FEW007CB BKN018 BKN041 M05/M09 Q1027=
201803170920 METAR ESMX 170920Z 04012KT 010V070 9999 SHSN FEW016CB SCT022 BKN035 M05/M09 Q1027=
201803170850 METAR ESMX 170850Z 04014KT 9999 SHSN BKN015CB M05/M09 Q1027=
201803170820 METAR ESMX 170820Z 04014KT 9000 SHSN FEW007CB BKN014 OVC035 M06/M09 Q1027=
201803170750 METAR ESMX 170750Z AUTO 04011KT 010V080 9999 OVC012/// M06/M09 Q1027=
201803170720 METAR ESMX 170720Z AUTO 03012KT 9999 FEW006/// OVC012/// M07/M10 Q1027=
201803170650 METAR ESMX 170650Z AUTO 03010KT 9999 -SN BKN011/// OVC036/// M07/M10 Q1027=
201803170620 METAR ESMX 170620Z AUTO 03010KT 5000 -SN FEW003/// SCT012/// BKN037/// M08/M10 Q1026=
201803170550 METAR ESMX 170550Z AUTO 02010KT 6000 -SN FEW001/// BKN010/// OVC037/// M08/M10 Q1026=
201803170520 METAR ESMX 170520Z AUTO 01010KT 5000 -SN FEW002/// SCT007/// BKN023/// M08/M10 Q1026=
201803170450 METAR ESMX 170450Z AUTO 02009KT 9999 -SN FEW001/// SCT008/// BKN023/// M08/M10 Q1026=
201803170420 METAR ESMX 170420Z AUTO 02009KT 9999 -SN FEW002/// SCT006/// BKN008/// M08/M10 Q1026 RESG=
201803170350 METAR ESMX 170350Z AUTO 01009KT 9999 VV010 M09/M11 Q1026=
201803170320 METAR ESMX 170320Z AUTO 01009KT 9999 NCD M09/M11 Q1026=
201803170250 METAR ESMX 170250Z AUTO 02009KT 9999 NCD M09/M11 Q1026=
201803170220 METAR ESMX 170220Z AUTO 01009KT 9999 NCD M09/M11 Q1026=
201803170150 METAR ESMX 170150Z AUTO 02008KT 9999 NCD M09/M11 Q1025=
201803170120 METAR ESMX 170120Z AUTO 02009KT 9999 FEW006/// M08/M11 Q1025=
201803170050 METAR ESMX 170050Z AUTO 03010KT 9999 FEW015/// M08/M10 Q1025=
201803170020 METAR ESMX 170020Z AUTO 02010KT 5000 -SN SCT009/// BKN018/// BKN027/// M08/M10 Q1025=
201803162350 METAR ESMX 162350Z AUTO 01011KT 9999 -SN SCT014/// BKN022/// OVC035/// M07/M10 Q1025=
201803162320 METAR ESMX 162320Z AUTO 03010KT 9999 -SN SCT005/// BKN010/// BKN017/// M08/M10 Q1025=
201803162250 METAR ESMX 162250Z AUTO 01010KT 2000 -SN FEW005/// SCT012/// BKN021/// M07/M10 Q1025=
201803162220 METAR ESMX 162220Z AUTO 01008KT 9999 SG FEW009/// SCT020/// M08/M10 Q1025=
201803162150 METAR ESMX 162150Z AUTO 03010KT 9999 -SN FEW005/// SCT016/// BKN023/// M07/M10 Q1025=
201803162120 METAR ESMX 162120Z AUTO 03012KT 9999 SG FEW002/// SCT008/// BKN017/// M07/M10 Q1025=
201803162050 METAR ESMX 162050Z 03013KT 010V070 9999 -SN SCT008 M07/M10 Q1024=
201803162020 METAR ESMX 162020Z 03011KT 6000 -SN BKN010 M07/M09 Q1024=
201803161950 METAR ESMX 161950Z 03011KT 9999 -SN FEW004 SCT014 BKN022 M07/M09 Q1024=
201803161920 METAR ESMX 161920Z 03010KT 9999 -SN FEW002 SCT006 BKN016 M07/M09 Q1024=
201803161850 METAR ESMX 161850Z 04012KT 9999 -SN FEW008 SCT018 BKN026 M06/M09 Q1024=
201803161820 METAR ESMX 161820Z 04011KT 9999 SHSN VV017 M06/M09 Q1024=
201803161750 METAR ESMX 161750Z 04012KT 010V070 1800 SHSN FEW002 BKN025CB M06/M09 Q1023=
201803161720 METAR ESMX 161720Z 05013KT 0450 R01/P2000N R19/1000N SHSN SCT030CB M06/M09 Q1023=
201803161650 METAR ESMX 161650Z 05012G23KT 020V090 9999 VCSH FEW007 SCT031CB M06/M09 Q1023=
201803161620 METAR ESMX 161620Z 04014KT 9999 SCT031CB M05/M10 Q1022=
201803161550 METAR ESMX 161550Z 05012KT 020V120 9999 VCSH SCT029CB M05/M10 Q1022=
201803161520 METAR ESMX 161520Z 04015G27KT 010V070 9999 SCT029CB M04/M11 Q1022=
201803161450 METAR ESMX 161450Z 04012KT 9999 SCT028CB M04/M08 Q1022=
201803161420 METAR ESMX 161420Z 04016G26KT 010V070 1400 R01/P2000D R19/P2000D SHSN BKN020CB M05/M07 Q1022=
201803161350 METAR COR ESMX 161350Z 05013KT 020V100 9999 SCT032CB M03/M11 Q1022=
201803161320 METAR ESMX 161320Z 06011KT 030V110 8000 -SN SCT035CB M04/M08 Q1022=
201803161250 METAR ESMX 161250Z 07012KT 030V120 9999 FEW008 SCT033CB M03/M13 Q1022=
201803161220 METAR ESMX 161220Z 05013G24KT 9999 FEW002 SCT044CB M03/M12 Q1022=
201803161150 METAR COR ESMX 161150Z 06012KT 9999 FEW004 SCT036CB M03/M12 Q1022=
201803161120 METAR ESMX 161120Z 06013KT 030V090 9999 FEW012 SCT039 M04/M10 Q1022=
201803161050 METAR ESMX 161050Z 04013KT 9999 FEW033 SCT041 BKN049 M04/M11 Q1022=
201803161020 METAR ESMX 161020Z 08014KT 030V110 9999 FEW028 SCT044 M03/M13 Q1022=
201803160950 METAR ESMX 160950Z 07014G24KT 020V120 9999 SCT043 M03/M11 Q1022=
201803160920 METAR ESMX 160920Z 06013KT 030V130 9999 BKN036 M04/M13 Q1022=
201803160850 METAR ESMX 160850Z 06011KT 020V120 9999 SCT031 M04/M11 Q1022=
201803160820 METAR ESMX 160820Z 05010KT 9999 FEW019 SCT028 M05/M10 Q1022=
201803160750 METAR ESMX 160750Z 05011KT 020V080 9999 FEW011 M05/M09 Q1022=
201803160720 METAR ESMX 160720Z 05009KT 020V090 9999 FEW017 M06/M10 Q1021=
201803160650 METAR ESMX 160650Z 04009KT 9999 SCT033 M06/M09 Q1021=
201803160620 METAR ESMX 160620Z 05010KT 9999 -SN FEW014 BKN029 M06/M09 Q1021=
201803160550 METAR ESMX 160550Z 04009KT 9999 -SN FEW004 SCT017 M06/M08 Q1021=
201803160520 METAR ESMX 160520Z 04009KT 9999 -SN FEW006 SCT011 BKN015 M06/M09 Q1020=
201803160450 METAR ESMX 160450Z 04009KT 9999 -SN FEW011 SCT030 M07/M09 Q1020=
201803160420 METAR ESMX 160420Z AUTO 04008KT 020V080 9999 FEW013/// M07/M09 Q1020=
201803160350 METAR ESMX 160350Z AUTO 04008KT 9999 FEW007/// SCT012/// BKN020/// M07/M09 Q1020=
201803160320 METAR ESMX 160320Z AUTO 04008KT 9999 SG FEW007/// BKN014/// BKN029/// M07/M08 Q1020=
201803160250 METAR ESMX 160250Z AUTO 04008KT 9999 -SN FEW007/// SCT014/// BKN021/// M06/M09 Q1020=
201803160220 METAR ESMX 160220Z AUTO 04010KT 9999 -SN SCT013/// BKN023/// BKN028/// M06/M09 Q1020=
201803160150 METAR ESMX 160150Z AUTO 04009KT 020V080 9000 -SN FEW014/// BKN039/// M06/M09 Q1020 RESN=
201803160120 METAR ESMX 160120Z AUTO 04009KT 9999 FEW015/// M06/M09 Q1020=
201803160050 METAR ESMX 160050Z 04008KT 9999 FEW028 M06/M09 Q1020=
201803160020 METAR ESMX 160020Z 04008KT 9999 FEW015 M06/M08 Q1020=
201803152350 METAR COR ESMX 152350Z 05008KT 9999 BKN019 M05/M08 Q1020=
201803152320 METAR ESMX 152320Z 05007KT 020V100 9999 -SN SCT017 BKN022 M05/M07 Q1020=
201803152250 METAR ESMX 152250Z 06007KT 020V100 9999 -SN BKN019 M05/M08 Q1020=
201803152220 METAR ESMX 152220Z 05008KT 020V090 9999 BKN017 M05/M07 Q1020=
201803152150 METAR ESMX 152150Z 05008KT 020V130 9999 -SN BKN019 M05/M07 Q1020=
201803152120 METAR ESMX 152120Z 06008KT 030V100 9999 -SN SCT020 BKN040 M04/M08 Q1020=
201803152050 METAR ESMX 152050Z 05007KT 020V080 9999 -SN BKN023 OVC035 M04/M08 Q1020=
201803152020 METAR ESMX 152020Z 06008KT 030V100 9999 -SN BKN018 M04/M08 Q1020=
201803151950 METAR ESMX 151950Z 04006KT 350V080 9999 FEW028 M04/M09 Q1020=
201803151920 METAR ESMX 151920Z AUTO 06008KT 020V100 9999 FEW027/// SCT037/// M04/M09 Q1019=
201803151850 METAR ESMX 151850Z 06008KT 030V110 CAVOK M04/M10 Q1019=
201803151820 METAR ESMX 151820Z 07008KT 040V110 9999 FEW034 M04/M09 Q1019=
201803151750 METAR ESMX 151750Z 05009G20KT 010V110 9999 SCT030 M03/M09 Q1019=
201803151720 METAR ESMX 151720Z 07009KT 030V120 9999 BKN028 M03/M09 Q1019=
201803151650 METAR ESMX 151650Z 07010G21KT 030V110 9999 BKN029 M03/M10 Q1018=
201803151620 METAR ESMX 151620Z 06011KT 030V110 9999 FEW022 BKN031 M02/M10 Q1018=
201803151550 METAR ESMX 151550Z 07010KT 050V110 9999 BKN034 M02/M10 Q1018=
201803151520 METAR ESMX 151520Z 05010KT 020V090 9999 BKN031 M02/M08 Q1018=
201803151450 METAR ESMX 151450Z 06010KT 030V120 9999 BKN032 M01/M08 Q1018=
201803151420 METAR ESMX 151420Z 06011KT 030V100 9999 BKN035 M01/M09 Q1018=
201803151350 METAR ESMX 151350Z 05010KT 020V090 9999 BKN034 M01/M08 Q1018=
201803151320 METAR ESMX 151320Z 06010KT 010V120 9999 BKN029 M01/M08 Q1018=
201803151250 METAR ESMX 151250Z 08009KT 040V130 9999 BKN030 M01/M09 Q1018=
201803151220 METAR ESMX 151220Z 07010KT 030V100 9999 FEW018 OVC024 M01/M07 Q1018=
201803151150 METAR ESMX 151150Z 06008KT 030V120 9999 BKN025 M01/M07 Q1018=
201803151120 METAR ESMX 151120Z 07009KT 030V140 9999 BKN025 M01/M07 Q1018=
201803151050 METAR ESMX 151050Z 07007KT 030V110 9999 BKN024 M02/M07 Q1018=
201803151020 METAR ESMX 151020Z 06010KT 020V100 9999 BKN021 M02/M07 Q1018=
201803150950 METAR ESMX 150950Z 05009KT 010V100 9999 BKN021 M01/M07 Q1018=
201803150920 METAR ESMX 150920Z 06008KT 020V110 9999 BKN024 M02/M06 Q1018=
201803150850 METAR COR ESMX 150850Z 06007KT 030V100 9999 BKN022 M02/M07 Q1018=
201803150820 METAR ESMX 150820Z 08007KT 040V120 9999 BKN020 M02/M07 Q1017=
201803150750 METAR ESMX 150750Z 08008KT 050V110 9999 BKN020 M03/M07 Q1018=
201803150720 METAR ESMX 150720Z 07007G17KT 030V120 9999 OVC020 M03/M07 Q1017=
201803150650 METAR ESMX 150650Z 06007KT 010V110 9999 BKN018 OVC022 M03/M07 Q1017=
201803150620 METAR ESMX 150620Z 09006KT 020V140 9999 OVC018 M03/M07 Q1017=
201803150550 METAR ESMX 150550Z 07005KT 030V140 9999 OVC020 M03/M07 Q1017=
201803150520 METAR ESMX 150520Z 07004KT 010V140 9999 OVC021 M03/M07 Q1017=
201803150450 METAR ESMX 150450Z 07003KT 030V130 9999 OVC021 M03/M07 Q1017=
201803150420 METAR ESMX 150420Z AUTO 08004KT 030V110 9999 OVC021/// M03/M07 Q1017=
201803150350 METAR ESMX 150350Z AUTO 07004KT 010V110 9999 OVC022/// M03/M07 Q1017=
201803150320 METAR ESMX 150320Z AUTO 07006KT 030V100 9999 OVC023/// M03/M07 Q1017=
201803150250 METAR ESMX 150250Z AUTO 06006KT 030V110 9999 OVC022/// M03/M07 Q1017=
201803150220 METAR ESMX 150220Z AUTO 07005KT 030V110 9999 OVC022/// M03/M06 Q1017=
201803150150 METAR ESMX 150150Z AUTO 07005KT 9999 OVC021/// M03/M06 Q1017=
201803150120 METAR ESMX 150120Z AUTO 05003KT 020V090 9999 BKN021/// OVC028/// M03/M05 Q1017=
201803150050 METAR ESMX 150050Z AUTO VRB03KT 9999 OVC028/// M03/M05 Q1017=
201803150020 METAR ESMX 150020Z VRB02KT 9999 OVC028 M03/M05 Q1017=
201803142350 METAR ESMX 142350Z VRB03KT 9999 OVC028 M04/M05 Q1017=
201803142320 METAR ESMX 142320Z 09003KT 060V120 9999 OVC028 M04/M05 Q1016=
201803142250 METAR ESMX 142250Z VRB03KT 9999 BKN028 M04/M05 Q1016=
201803142220 METAR ESMX 142220Z 06004KT 9999 FEW030 M05/M06 Q1016=
201803142150 METAR ESMX 142150Z 00000KT CAVOK M06/M07 Q1016=
201803142120 METAR ESMX 142120Z 00000KT CAVOK M06/M07 Q1016=
201803142050 METAR ESMX 142050Z 19002KT CAVOK M06/M07 Q1015=
201803142020 METAR ESMX 142020Z 00000KT CAVOK M05/M06 Q1015=
201803141950 METAR ESMX 141950Z 00000KT CAVOK M05/M06 Q1015=
201803141920 METAR ESMX 141920Z 00000KT CAVOK M04/M06 Q1015=
201803141850 METAR ESMX 141850Z 11001KT CAVOK M03/M05 Q1015=
201803141820 METAR ESMX 141820Z 09002KT 9999 SCT025 M02/M06 Q1015=
201803141750 METAR ESMX 141750Z VRB02KT 9999 BKN024 M01/M06 Q1015=
201803141720 METAR ESMX 141720Z 03005KT 9999 OVC023 M01/M06 Q1015=
201803141650 METAR ESMX 141650Z VRB02KT 9999 OVC023 M01/M06 Q1014=
201803141620 METAR ESMX 141620Z AUTO 01005KT 9999 OVC023/// M01/M05 Q1014=
201803141550 METAR ESMX 141550Z VRB03KT 9999 OVC021 M01/M06 Q1014=
201803141520 METAR ESMX 141520Z 36004KT 320V070 9999 OVC021 M01/M06 Q1013=
201803141450 METAR ESMX 141450Z 34003KT 290V030 9999 OVC021 M01/M06 Q1013=
201803141420 METAR ESMX 141420Z 02005KT 9999 OVC021 M01/M05 Q1013=
201803141350 METAR ESMX 141350Z 01004KT 9999 OVC020 M00/M05 Q1013=
201803141320 METAR ESMX 141320Z 36006KT 9999 OVC019 M01/M05 Q1013=
201803141250 METAR ESMX 141250Z 05005KT 020V080 9999 OVC019 M00/M05 Q1012=
201803141220 METAR COR ESMX 141220Z 01006KT 9999 OVC018 M00/M05 Q1012=
201803141150 METAR ESMX 141150Z 03006KT 9999 OVC017 M00/M04 Q1012=
201803141120 METAR ESMX 141120Z 01004KT 9999 OVC015 M01/M04 Q1012=
201803141050 METAR ESMX 141050Z 05004KT 020V080 9999 OVC014 M00/M04 Q1012=
201803141020 METAR ESMX 141020Z 06005KT 030V110 9999 OVC014 M01/M04 Q1011=
201803140950 METAR ESMX 140950Z 06005KT 9999 OVC013 M01/M04 Q1011=
201803140920 METAR ESMX 140920Z 05007KT 9999 OVC012 M01/M04 Q1011=
201803140850 METAR ESMX 140850Z 01006KT 9999 OVC012 M01/M04 Q1010=
201803140820 METAR ESMX 140820Z 03007KT 350V060 9999 OVC014 M01/M04 Q1010=
201803140750 METAR ESMX 140750Z 02008KT 9999 OVC015 M01/M04 Q1010=
201803140720 METAR ESMX 140720Z 02008KT 340V110 9999 OVC014 M01/M04 Q1009=
201803140650 METAR ESMX 140650Z 01008KT 9999 OVC014 M01/M04 Q1009=
201803140620 METAR ESMX 140620Z 03008KT 9999 OVC013 M01/M03 Q1008=
201803140550 METAR ESMX 140550Z 01008KT 9999 BKN012 OVC016 M01/M03 Q1008=
201803140520 METAR ESMX 140520Z 01007KT 9999 BKN013 M01/M03 Q1007=
201803140450 METAR ESMX 140450Z 02007KT 9999 OVC011 M00/M02 Q1007=
201803140420 METAR ESMX 140420Z AUTO 02008KT 9999 OVC010/// M00/M02 Q1006=
201803140350 METAR ESMX 140350Z AUTO 02008KT 9999 BKN010/// OVC014/// M00/M02 Q1006=
201803140320 METAR ESMX 140320Z AUTO 36009KT 9999 BKN009/// OVC011/// M00/M02 Q1006=
201803140250 METAR ESMX 140250Z AUTO 36008KT 9999 OVC007/// M00/M01 Q1005=
201803140220 METAR ESMX 140220Z AUTO 35008KT 9999 OVC008/// M00/M01 Q1005=
201803140150 METAR ESMX 140150Z AUTO 35007KT 9999 OVC009/// M00/M02 Q1004=
201803140120 METAR ESMX 140120Z AUTO 36008KT 9999 BKN007/// OVC009/// M00/M01 Q1004=
201803140050 METAR ESMX 140050Z 02007KT 9999 -SN OVC007 00/M01 Q1004=
201803140020 METAR ESMX 140020Z 36009KT 9999 BKN009 00/M01 Q1003=
201803132350 METAR ESMX 132350Z 01008KT 9999 OVC009 00/M01 Q1003=
201803132320 METAR ESMX 132320Z 36008KT 9999 OVC008 00/M01 Q1002=
201803132250 METAR ESMX 132250Z 35009KT 9999 OVC008 00/M01 Q1002=
201803132220 METAR COR ESMX 132220Z 35007KT 9999 -SN OVC008 00/M01 Q1001=
201803132150 METAR ESMX 132150Z 36006KT 9999 OVC009 00/M00 Q1001=
201803132120 METAR ESMX 132120Z 35006KT 9999 -SN BKN010 01/M00 Q1001=
201803132050 METAR ESMX 132050Z 35006KT 9999 -SN FEW002 BKN008 01/M00 Q1000=
201803132020 METAR ESMX 132020Z 36006KT 9999 -SN BKN006 OVC008 01/M00 Q1000=
201803131950 METAR ESMX 131950Z 36006KT 9999 -RA BKN008 01/00 Q0999=
201803131920 METAR ESMX 131920Z 34005KT 6000 -DZ BKN005 01/00 Q0999=
201803131850 METAR ESMX 131850Z 36006KT 9999 BKN008 01/00 Q0998=
201803131820 METAR ESMX 131820Z 36008KT 9999 BKN006 01/00 Q0998=
201803131750 METAR ESMX 131750Z 35007KT 9999 BKN005 01/00 Q0998=
201803131720 METAR ESMX 131720Z 36008KT 9999 OVC006 01/00 Q0997=
201803131650 METAR ESMX 131650Z 35008KT 9999 OVC006 01/00 Q0997=
201803131620 METAR ESMX 131620Z 35007KT 9999 OVC007 01/00 Q0996=
201803131520 METAR ESMX 131520Z 35007KT 9999 SCT005 BKN008 02/01 Q0995=
201803131450 METAR ESMX 131450Z 36008KT 9999 BKN005 02/01 Q0995=
201803131420 METAR ESMX 131420Z 35007KT 9999 OVC004 02/01 Q0994=
201803131350 METAR ESMX 131350Z 34007KT 9999 OVC004 02/01 Q0993=
201803131320 METAR ESMX 131320Z 34007KT 9999 OVC004 02/01 Q0993=
201803131250 METAR ESMX 131250Z 35006KT 9999 OVC006 02/01 Q0993=
201803131220 METAR ESMX 131220Z 34008KT 9999 OVC005 02/01 Q0992=
201803131150 METAR ESMX 131150Z 34008KT 9999 OVC005 02/01 Q0992=
201803131120 METAR ESMX 131120Z 32006KT 9999 OVC005 02/01 Q0992=
201803131050 METAR ESMX 131050Z 33006KT 5000 BR OVC005 02/01 Q0992=
201803131020 METAR ESMX 131020Z 33006KT 3200 BR OVC002 02/01 Q0991=
201803130950 METAR ESMX 130950Z 33007KT 3300 BR SCT002 OVC004 02/01 Q0991=
201803130920 METAR ESMX 130920Z 33007KT 3600 -DZ OVC004 02/01 Q0990=
201803130850 METAR ESMX 130850Z 33006KT 2400 -DZ OVC004 02/01 Q0990=
201803130820 METAR ESMX 130820Z 33006KT 6000 -DZ OVC005 02/01 Q0990=
201803130750 METAR ESMX 130750Z 32006KT 5000 -RA OVC005 02/02 Q0990=
201803130720 METAR ESMX 130720Z 33007KT 6000 -RA BKN005 OVC014 02/02 Q0989=
201803130650 METAR ESMX 130650Z 34007KT 5000 -RA OVC005 02/02 Q0989=
201803130620 METAR ESMX 130620Z 34007KT 5000 -RA OVC004 02/02 Q0989=
201803130550 METAR ESMX 130550Z 34007KT 4900 -RA OVC004 02/02 Q0988=
201803130520 METAR ESMX 130520Z 34007KT 4300 -RA OVC004 02/02 Q0988=
201803130450 METAR ESMX 130450Z 34007KT 4500 -RA OVC004 02/02 Q0988=
201803130420 METAR ESMX 130420Z AUTO 34006KT 3500 RA BKN004/// OVC016/// 02/02 Q0988=
201803130350 METAR ESMX 130350Z AUTO 35007KT 3400 -RA BKN002/// OVC005/// 02/02 Q0988=
201803130320 METAR ESMX 130320Z AUTO 35006KT 3200 -RA OVC003/// 02/02 Q0988=
201803130250 METAR ESMX 130250Z AUTO 36004KT 1200 R01/P2000N R19/P2000N -RA OVC002/// 02/01 Q0988=
201803130220 METAR ESMX 130220Z AUTO 36004KT 0600 R01/1700D R19/P2000N -RA BKN003/// BKN007/// OVC038/// 02/01 Q0988=
201803130150 METAR ESMX 130150Z AUTO 36004KT 0600 R01/1600N R19/P2000N -RA ///038 02/01 Q0988=
201803130120 METAR ESMX 130120Z AUTO 36004KT 2000 -RA ///041 02/01 Q0988 REDZ=
201803130050 METAR ESMX 130050Z 36005KT 5000 -RA OVC051 02/01 Q0989=
201803130020 METAR ESMX 130020Z 35006KT 6000 -RA OVC057 02/01 Q0989=
201803122350 METAR ESMX 122350Z 01004KT 5000 BR BKN051 02/01 Q0989=
201803122320 METAR ESMX 122320Z 36006KT 6000 BR OVC053 02/01 Q0989=
201803122250 METAR ESMX 122250Z 36006KT 5000 -DZ BKN053 02/01 Q0989=
201803122220 METAR ESMX 122220Z 36004KT 2000 DZ FEW035 BKN064 02/01 Q0990=
201803122150 METAR ESMX 122150Z 36004KT 4800 BR FEW007 02/01 Q0990=
201803122120 METAR ESMX 122120Z 03003KT 5000 BR FEW008 02/02 Q0990=
201803122050 METAR ESMX 122050Z 03003KT 6000 BR SCT005 02/02 Q0990=
201803122020 METAR ESMX 122020Z 01004KT 5000 BR BKN004 02/02 Q0990=
201803121950 METAR ESMX 121950Z 01005KT 3600 BR BKN004 02/02 Q0990=
201803121920 METAR ESMX 121920Z 02004KT 4400 BR FEW005 OVC062 02/02 Q0990=
201803121850 METAR ESMX 121850Z 36003KT 6000 BR FEW005 OVC059 03/02 Q0991=
201803121820 METAR ESMX 121820Z VRB02KT 7000 BR OVC055 04/03 Q0991=
201803121750 METAR ESMX 121750Z 03003KT 9000 BR OVC055 04/03 Q0991=
201803121720 METAR COR ESMX 121720Z 08003KT 8000 BR OVC053 04/03 Q0991=
201803121650 METAR ESMX 121650Z VRB01KT CAVOK 04/03 Q0991=
201803121620 METAR ESMX 121620Z VRB03KT CAVOK 05/03 Q0991=
201803121550 METAR ESMX 121550Z 06003KT CAVOK 05/03 Q0991=
201803121520 METAR ESMX 121520Z 05003KT 020V090 CAVOK 05/03 Q0991=
201803121450 METAR ESMX 121450Z 06004KT 020V090 CAVOK 06/04 Q0991=
201803121420 METAR ESMX 121420Z VRB02KT CAVOK 06/04 Q0992=
201803121350 METAR COR ESMX 121350Z VRB03KT CAVOK 07/04 Q0992=
201803121320 METAR ESMX 121320Z VRB02KT 9000 BR FEW062 SCT084 06/04 Q0992=
201803121250 METAR ESMX 121250Z 19004KT 8000 BR NSC 06/04 Q0992=
201803121220 METAR ESMX 121220Z VRB03KT 9000 BR NSC 07/04 Q0992=
201803121150 METAR ESMX 121150Z 36003KT 8000 BR NSC 06/04 Q0993=
201803121120 METAR ESMX 121120Z VRB03KT 9999 SCT005 06/04 Q0993=
201803121050 METAR COR ESMX 121050Z 05005KT 6000 BR BKN005 05/04 Q0993=
201803121020 METAR ESMX 121020Z 08003KT 030V130 5000 BR OVC004 04/04 Q0993=
201803120950 METAR ESMX 120950Z 08004KT 030V140 5000 BR OVC003 04/03 Q0994=
201803120920 METAR ESMX 120920Z 05003KT 010V080 3000 BR OVC002 03/03 Q0994=
201803120850 METAR ESMX 120850Z 06003KT 020V110 1300 R01/1700U R19/1800U BR OVC002 03/02 Q0994=
201803120820 METAR ESMX 120820Z VRB03KT 0650 R01/0800N R19/1000N FG OVC002 03/02 Q0994=
201803120750 METAR ESMX 120750Z VRB03KT 1200 R01/1300N R19/1300N BR OVC002 02/02 Q0994=
201803120720 METAR ESMX 120720Z 07003KT 040V100 1100 R01/1200D R19/1200U BR OVC002 02/02 Q0994=
201803120650 METAR ESMX 120650Z 07003KT 1200 R01/1300N R19/1700N BR OVC002 02/02 Q0995=
201803120620 METAR ESMX 120620Z 07003KT 030V120 1500 R01/1300U R19/1800N BR OVC002 02/02 Q0995=
201803120550 METAR ESMX 120550Z 07003KT 030V120 0650 R01/1000U R19/1200N FG OVC001 02/01 Q0995=
201803120520 METAR ESMX 120520Z 08003KT 050V120 0350 R19/0800N FG VV002 02/01 Q0995=
201803120450 METAR ESMX 120450Z 07004KT 0300 R01/0750N R19/0800N FG VV002 02/01 Q0995=
201803120420 METAR ESMX 120420Z AUTO VRB02KT 0200 R01/0650N R19/0650N FG VV002 02/01 Q0996=
201803120350 METAR ESMX 120350Z AUTO 07003KT 020V120 0250 R01/0800N R19/0750N FG VV002 02/01 Q0996=
201803120320 METAR ESMX 120320Z AUTO 11005KT 060V140 0400 R01/1100N R19/1200N FG OVC001/// 02/01 Q0996=
201803120250 METAR ESMX 120250Z AUTO 10006KT 070V130 0300 R01/0900N R19/0900N FG OVC001/// 02/02 Q0996=
201803120220 METAR ESMX 120220Z AUTO VRB01KT 0200 R01/0700N R19/0750N FG VV002 02/02 Q0997=
201803120150 METAR ESMX 120150Z AUTO 10005KT 050V150 0200 R01/0750N R19/0750N FG VV001 02/02 Q0997=
201803120120 METAR ESMX 120120Z AUTO 10005KT 070V160 0300 R01/0900N R19/1000D FG OVC001/// 02/02 Q0997=
201803120050 METAR ESMX 120050Z 09005KT 060V140 0650 R19/P2000N FG OVC001 02/02 Q0997=
201803120020 METAR COR ESMX 120020Z 10006KT 060V140 1200 R19/P2000N BR OVC001 02/02 Q0998=
201803112350 METAR ESMX 112350Z 09006KT 060V120 1200 R19/P2000N BR OVC001 02/02 Q0998=
201803112320 METAR ESMX 112320Z 09006KT 050V120 1200 R19/P2000N BR OVC001 02/02 Q0999=
201803112250 METAR COR ESMX 112250Z 09005KT 050V130 0700 R19/1900N FG VV002 02/01 Q0999=
201803112220 METAR ESMX 112220Z 08005KT 040V110 0700 R19/1500N FG VV002 01/01 Q1000=
201803112150 METAR ESMX 112150Z 09003KT 030V170 0800 R19/1800N FG OVC001 01/01 Q1000=
201803112120 METAR ESMX 112120Z 09005KT 050V120 0700 R19/1900N FG OVC001 01/01 Q1000=
201803112050 METAR ESMX 112050Z 08005KT 050V120 0800 R19/1700N FG OVC001 01/01 Q1001=
201803112020 METAR ESMX 112020Z 08006KT 050V120 0900 R19/1700D FG OVC001 01/01 Q1001=
201803111950 METAR ESMX 111950Z 11004KT 050V140 1800 BR OVC002 01/01 Q1001=
201803111920 METAR COR ESMX 111920Z 10004KT 040V150 2000 BR OVC002 01/01 Q1001=
201803111850 METAR ESMX 111850Z 08005KT 040V120 2500 -DZ OVC002 01/00 Q1001=
201803111820 METAR ESMX 111820Z 09005KT 040V150 2600 BR OVC002 01/00 Q1001=
201803111750 METAR COR ESMX 111750Z 07006KT 040V110 2300 BR OVC002 01/00 Q1001=
201803111720 METAR COR ESMX 111720Z 07006KT 020V120 2600 BR OVC002 01/00 Q1001=
201803111650 METAR ESMX 111650Z 08006KT 030V140 4300 BR OVC003 01/00 Q1002=
201803111620 METAR ESMX 111620Z 09006KT 040V140 5000 BR OVC003 01/00 Q1002=
201803111550 METAR ESMX 111550Z 08006KT 020V130 6000 BR BKN004 OVC006 01/00 Q1002=
201803111520 METAR ESMX 111520Z 08006KT 020V120 9999 OVC006 01/00 Q1002=
201803111450 METAR COR ESMX 111450Z 08006KT 9999 OVC006 01/00 Q1002=
201803111420 METAR ESMX 111420Z 08006KT 060V120 9999 OVC006 01/00 Q1002=
201803111350 METAR ESMX 111350Z 08006KT 030V140 9999 OVC006 01/00 Q1002=
201803111320 METAR COR ESMX 111320Z 08006KT 040V120 9999 OVC006 01/00 Q1002=
201803111250 METAR ESMX 111250Z 08006KT 030V110 8000 -RA OVC006 01/00 Q1003=
201803111220 METAR ESMX 111220Z 09006KT 060V120 9999 OVC008 01/M00 Q1003=
201803111150 METAR ESMX 111150Z 08007KT 030V130 9999 -RA OVC007 01/M00 Q1004=
201803111120 METAR COR ESMX 111120Z 08007KT 040V120 9999 -RA OVC007 01/M00 Q1004=
201803111050 METAR ESMX 111050Z AUTO 08007KT 030V120 5000 -SN OVC007/// 01/M00 Q1004=
201803111020 METAR ESMX 111020Z AUTO 08006KT 050V130 4200 -SN FEW002/// OVC007/// 01/M00 Q1004=
201803110950 METAR ESMX 110950Z AUTO 08007KT 040V140 9999 -DZ OVC008/// 01/M01 Q1005=
201803110920 METAR ESMX 110920Z AUTO 08006KT 050V140 9999 -DZ OVC007/// 01/M01 Q1005=
201803110850 METAR ESMX 110850Z AUTO 08006KT 050V120 7000 -DZ OVC008/// 01/M01 Q1005=
201803110820 METAR ESMX 110820Z AUTO 08006KT 040V120 9999 -DZ OVC008/// 00/M01 Q1005 RESHUP REUP=
201803110750 METAR ESMX 110750Z AUTO 08006KT 050V120 7000 BR BKN008/// BKN009/// OVC030/// 00/M01 Q1005=
201803110720 METAR ESMX 110720Z AUTO 07007KT 040V110 9999 ///031 M00/M02 Q1005=
201803110650 METAR ESMX 110650Z AUTO 08006KT 050V120 3800 -RASN BKN007/// OVC034/// M00/M02 Q1005=
201803110620 METAR ESMX 110620Z AUTO 07005KT 010V110 3300 -SN SCT007/// OVC015/// M01/M02 Q1005=
201803110550 METAR ESMX 110550Z AUTO 07006KT 030V120 2100 -SN SCT002/// BKN008/// OVC014/// M01/M02 Q1005=
201803110520 METAR ESMX 110520Z AUTO 07006KT 020V110 2600 -SN OVC007/// M01/M02 Q1005 REFZUP=
201803110450 METAR ESMX 110450Z AUTO 07005KT 030V110 9999 OVC008/// M01/M02 Q1005=
201803110420 METAR ESMX 110420Z AUTO 07005KT 020V100 9999 OVC007/// M01/M02 Q1005=
201803110350 METAR ESMX 110350Z AUTO 08005KT 050V130 9999 OVC006/// M01/M02 Q1005=
201803110320 METAR ESMX 110320Z AUTO 08005KT 9999 OVC006/// M01/M02 Q1005=
201803110250 METAR ESMX 110250Z AUTO 07004KT 030V120 9999 OVC005/// M02/M03 Q1006=
201803110220 METAR ESMX 110220Z AUTO 08004KT 030V120 9999 OVC005/// M02/M03 Q1006=
201803110150 METAR ESMX 110150Z AUTO 05005KT 020V100 9999 OVC005/// M02/M03 Q1006=
201803110120 METAR ESMX 110120Z AUTO 07004KT 040V110 9999 OVC005/// M02/M03 Q1006=
201803110050 METAR ESMX 110050Z AUTO 06004KT 020V100 9999 OVC006/// M02/M03 Q1006=
201803110020 METAR ESMX 110020Z AUTO 07003KT 030V120 9999 OVC006/// M02/M04 Q1006=
201803102350 METAR ESMX 102350Z AUTO 07004KT 040V110 9999 OVC006/// M02/M04 Q1006=
201803102320 METAR ESMX 102320Z AUTO 06004KT 030V100 9999 OVC006/// M03/M04 Q1007=
201803102250 METAR ESMX 102250Z AUTO 06004KT 020V100 9999 OVC008/// M03/M04 Q1007=
201803102220 METAR ESMX 102220Z AUTO 07004KT 030V110 9999 OVC009/// M03/M04 Q1007=
201803102150 METAR ESMX 102150Z AUTO 07003KT 020V100 9999 BKN009/// OVC011/// M03/M04 Q1007=
201803102120 METAR ESMX 102120Z AUTO 04004KT 010V100 9999 SCT008/// OVC012/// M03/M04 Q1007=
201803102050 METAR ESMX 102050Z AUTO 07003KT 030V110 9999 OVC008/// M03/M05 Q1007=
201803102020 METAR ESMX 102020Z AUTO 06004KT 9999 BKN010/// OVC011/// M03/M05 Q1007=
201803101950 METAR ESMX 101950Z AUTO 05006KT 9999 OVC013/// M03/M05 Q1008=
201803101920 METAR ESMX 101920Z AUTO 05004KT 030V090 9999 OVC015/// M03/M05 Q1008=
201803101850 METAR ESMX 101850Z AUTO 04005KT 9999 OVC013/// M03/M05 Q1008=
201803101820 METAR ESMX 101820Z AUTO 05005KT 9999 OVC010/// M03/M05 Q1008=
201803101750 METAR ESMX 101750Z AUTO 04005KT 9999 OVC010/// M03/M05 Q1008=
201803101720 METAR ESMX 101720Z AUTO 05004KT 020V080 9999 OVC010/// M03/M05 Q1008=
201803101650 METAR ESMX 101650Z 07004KT 030V120 9999 OVC011 M03/M05 Q1008=
201803101620 METAR COR ESMX 101620Z 08004KT 030V140 9999 OVC011 M03/M05 Q1008=
201803101550 METAR ESMX 101550Z 08003KT 030V140 9999 OVC011 M03/M06 Q1008=
201803101520 METAR ESMX 101520Z 04004KT 360V070 9999 OVC011 M02/M05 Q1008=
201803101450 METAR ESMX 101450Z AUTO 36003KT 320V060 9999 OVC011/// M02/M05 Q1007=
201803101420 METAR ESMX 101420Z AUTO 36005KT 330V030 9999 OVC011/// M03/M06 Q1007=
201803101350 METAR ESMX 101350Z AUTO 04004KT 9999 OVC012/// M02/M06 Q1007=
201803101320 METAR ESMX 101320Z AUTO 34004KT 9999 OVC012/// M03/M06 Q1007=
201803101250 METAR ESMX 101250Z AUTO 30004KT 270V360 9999 OVC012/// M03/M06 Q1007=
201803101220 METAR ESMX 101220Z AUTO VRB03KT 9999 OVC012/// M02/M06 Q1008=
201803101150 METAR ESMX 101150Z AUTO 02004KT 350V060 9999 OVC011/// M03/M06 Q1007=
201803101120 METAR ESMX 101120Z AUTO 00000KT 9999 OVC012/// M03/M06 Q1008=
201803101050 METAR ESMX 101050Z AUTO VRB03KT 9999 OVC011/// M03/M06 Q1008=
201803101020 METAR ESMX 101020Z 03004KT 350V080 9999 OVC012 M03/M06 Q1007=
201803100950 METAR ESMX 100950Z 36004KT 280V030 9999 OVC011 M03/M06 Q1007=
201803100920 METAR ESMX 100920Z 36004KT 320V020 9999 OVC012 M03/M06 Q1007=
201803100850 METAR ESMX 100850Z 33003KT 290V010 9999 OVC012 M03/M06 Q1007=
201803100820 METAR COR ESMX 100820Z 01004KT 9999 OVC012 M03/M06 Q1007=
201803100750 METAR ESMX 100750Z AUTO 35004KT 290V030 9999 OVC012/// M03/M06 Q1007=
201803100720 METAR ESMX 100720Z AUTO 02004KT 9999 OVC011/// M03/M06 Q1007=
201803100650 METAR ESMX 100650Z AUTO 01005KT 9999 SCT009/// OVC011/// M04/M06 Q1007=
201803100620 METAR ESMX 100620Z AUTO 31004KT 9999 OVC008/// M04/M05 Q1006=
201803100550 METAR ESMX 100550Z AUTO 31006KT 9999 OVC008/// M04/M05 Q1006=
201803100520 METAR ESMX 100520Z AUTO 29004KT 9999 OVC007/// M03/M05 Q1006=
201803100450 METAR ESMX 100450Z AUTO 30007KT 9999 OVC008/// M03/M05 Q1006=
201803100420 METAR ESMX 100420Z AUTO 34007KT 9999 OVC009/// M03/M05 Q1006=
201803100350 METAR ESMX 100350Z AUTO 33008KT 9999 OVC009/// M03/M05 Q1006=
201803100320 METAR ESMX 100320Z AUTO 32006KT 290V360 9999 OVC009/// M03/M05 Q1005=
201803100250 METAR ESMX 100250Z AUTO 29005KT 250V330 9999 OVC009/// M02/M04 Q1005=
201803100220 METAR ESMX 100220Z AUTO 32006KT 9999 OVC009/// M02/M04 Q1005=
201803100150 METAR ESMX 100150Z AUTO 31005KT 250V350 9999 OVC009/// M02/M04 Q1005=
201803100120 METAR ESMX 100120Z AUTO 31007KT 9999 OVC009/// M02/M04 Q1005=
201803100050 METAR ESMX 100050Z AUTO 27007KT 9999 OVC009/// M02/M04 Q1005=
201803100020 METAR ESMX 100020Z AUTO 31006KT 280V340 9999 OVC010/// M01/M04 Q1005=
201803092350 METAR ESMX 092350Z AUTO 31007KT 280V340 9999 BKN010/// OVC012/// M01/M04 Q1004=
201803092320 METAR ESMX 092320Z AUTO 29006KT 9999 OVC010/// M01/M02 Q1004=
201803092250 METAR ESMX 092250Z AUTO 31006KT 280V340 9999 OVC009/// M01/M02 Q1004=
201803092220 METAR ESMX 092220Z AUTO 30007KT 9999 FEW005/// BKN007/// OVC011/// M01/M02 Q1004=
201803092150 METAR ESMX 092150Z AUTO 31006KT 8000 BR BKN005/// OVC007/// M00/M01 Q1004=
201803092120 METAR ESMX 092120Z AUTO 30006KT 4800 BR BKN003/// OVC005/// M00/M01 Q1004=
201803092050 METAR ESMX 092050Z 30006KT 9000 BR OVC007 M00/M01 Q1003=
201803092020 METAR ESMX 092020Z 31007KT 9000 BR BKN005 OVC007 M00/M01 Q1003=
201803091950 METAR ESMX 091950Z 31008KT 6000 BR OVC002 M00/M01 Q1003=
201803091920 METAR ESMX 091920Z 31008KT 4300 BR OVC002 M00/M01 Q1002=
201803091850 METAR ESMX 091850Z 30007KT 2500 BR OVC002 00/M00 Q1002=
201803091820 METAR ESMX 091820Z 30007KT 3500 BR OVC003 00/M00 Q1002=
201803091750 METAR ESMX 091750Z 31006KT 4900 BR OVC004 01/M00 Q1001=
201803091720 METAR ESMX 091720Z 33007KT 4400 BR OVC003 01/00 Q1001=
201803091650 METAR ESMX 091650Z 32006KT 5000 BR OVC003 01/00 Q1000=
201803091620 METAR ESMX 091620Z 32006KT 4300 BR OVC003 01/00 Q1000=
201803091550 METAR ESMX 091550Z 32008KT 5000 BR BKN003 OVC007 01/00 Q1000=
201803091520 METAR ESMX 091520Z 32006KT 6000 BR OVC006 01/01 Q0999=
201803091450 METAR ESMX 091450Z 34006KT 8000 BR OVC006 02/01 Q0999=
201803091420 METAR ESMX 091420Z 34007KT 9999 BKN005 01/01 Q0998=
201803091350 METAR ESMX 091350Z 34006KT 8000 BR OVC004 01/01 Q0998=
201803091320 METAR ESMX 091320Z 36005KT 5000 -DZ OVC003 01/01 Q0997=
201803091250 METAR ESMX 091250Z 34003KT 2800 BR OVC002 01/01 Q0997=
201803091220 METAR ESMX 091220Z 34003KT 2800 BR OVC002 01/01 Q0997=
201803091150 METAR ESMX 091150Z VRB02KT 2300 BR OVC002 01/01 Q0996=
201803091120 METAR ESMX 091120Z VRB02KT 1500 BR OVC002 02/01 Q0996=
201803091050 METAR ESMX 091050Z VRB03KT 1800 R01/1300N R19/1800D BR OVC002 01/01 Q0996=
201803091020 METAR ESMX 091020Z 05003KT 020V100 3000 BR OVC004 01/01 Q0995=
201803090950 METAR ESMX 090950Z 01003KT 350V050 5000 BR OVC005 01/01 Q0995=
201803090920 METAR ESMX 090920Z 04003KT 4500 BR OVC004 01/00 Q0995=
201803090850 METAR ESMX 090850Z 04004KT 4000 BR OVC005 01/00 Q0995=
201803090820 METAR ESMX 090820Z 04004KT 3000 -SNRA VV006 01/00 Q0995=
201803090750 METAR COR ESMX 090750Z 04004KT 020V080 1300 R01/1600D R19/1900D -SN OVC005 01/00 Q0995=
201803090720 METAR ESMX 090720Z 06004KT 020V090 2000 -SN OVC004 01/00 Q0995=
201803090650 METAR ESMX 090650Z 03004KT 350V070 1800 -SN OVC002 01/00 Q0995=
201803090620 METAR ESMX 090620Z 04003KT 010V080 1200 R01/1600N R19/1900N -SN OVC002 00/00 Q0995=
201803090550 METAR ESMX 090550Z 06003KT 030V100 0800 R01/1400N R19/1800N -RASN OVC001 00/M00 Q0995=
201803090520 METAR ESMX 090520Z 06003KT 030V100 0700 R01/1700N R19/P2000N -SN OVC001 00/M00 Q0995=
201803090450 METAR ESMX 090450Z VRB03KT 0600 R01/1500N R19/P2000N OVC001 00/M00 Q0995=
201803090420 METAR ESMX 090420Z AUTO 08003KT 050V120 0750 R01/1800D R19/P2000N=
201803090350 METAR ESMX 090350Z AUTO 08005KT 050V120 0700 R01/1700U R19/P2000N=
201803090320 METAR ESMX 090320Z AUTO 10004KT 050V140 1100 R01/P2000N R19/P2000N BR OVC002/// M00/M00 Q0996=
201803090250 METAR ESMX 090250Z AUTO 13003KT 060V160 1800 BR OVC003/// M00/M00 Q0996=
201803090220 METAR ESMX 090220Z AUTO VRB03KT 2300 OVC001/// M00/M00 Q0996=
201803090150 METAR ESMX 090150Z AUTO VRB03KT 1200 R01/P2000N R19/P2000N OVC001/// M00/M00 Q0996=
201803090120 METAR ESMX 090120Z AUTO VRB03KT 0500 R01/1300U R19/1700N FZFG OVC001/// M00/M00 Q0996=
201803090050 METAR ESMX 090050Z 15003KT 0650 R01/P2000D R19/P2000N FZFG OVC002 M00/M00 Q0997=
201803090020 METAR ESMX 090020Z 15003KT 2500 BR OVC002 M00/M01 Q0997=
201803082350 METAR ESMX 082350Z 16004KT 2800 BR OVC002 M00/M01 Q0997=
201803082320 METAR ESMX 082320Z 17004KT 4900 BR OVC003 M00/M01 Q0997=
201803082250 METAR ESMX 082250Z 17004KT 6000 BR OVC004 M00/M01 Q0997=
201803082220 METAR ESMX 082220Z 18005KT 7000 BR OVC005 M00/M01 Q0997=
201803082150 METAR ESMX 082150Z 19004KT 8000 BR BKN004 M00/M01 Q0997=
201803082120 METAR ESMX 082120Z 20007KT 7000 BR OVC004 M00/M01 Q0997=
201803082050 METAR ESMX 082050Z 19006KT 4800 -SN OVC004 M00/M01 Q0997=
201803082020 METAR ESMX 082020Z 19006KT 2300 -SN OVC004 M00/M01 Q0997=
201803081950 METAR COR ESMX 081950Z 19005KT 2000 -SN OVC004 M00/M01 Q0997=
201803081920 METAR ESMX 081920Z 20005KT 3800 -SN SCT004 BKN012 M00/M01 Q0997=
201803081850 METAR ESMX 081850Z 21004KT 3300 -SN SCT010 BKN012 M00/M00 Q0997=
201803081820 METAR ESMX 081820Z 20004KT 2100 -SN FEW002 SCT004 BKN008 M00/M00 Q0997=
201803081750 METAR ESMX 081750Z 21004KT 2300 SN SCT004 BKN013 00/M00 Q0997=
201803081720 METAR COR ESMX 081720Z 21004KT 2300 SN SCT004 BKN010 00/M00 Q0997=
201803081650 METAR COR ESMX 081650Z 21004KT 2000 SN VV015 00/M00 Q0996=
201803081620 METAR ESMX 081620Z 19004KT 2500 SN SCT004 BKN010 00/M00 Q0996=
201803081550 METAR ESMX 081550Z 19005KT 2500 SN BKN008 00/M00 Q0996=
201803081520 METAR ESMX 081520Z 19005KT 2600 -SN SCT004 BKN007 00/M00 Q0996=
201803081450 METAR ESMX 081450Z 18004KT 4000 -SN BKN005 01/M00 Q0996=
201803081420 METAR ESMX 081420Z 17003KT 3000 -SNRA OVC005 01/M00 Q0996=
201803081350 METAR ESMX 081350Z VRB02KT 4700 -RASN OVC006 01/M00 Q0996=
201803081320 METAR ESMX 081320Z VRB01KT 4000 -SN OVC007 01/M00 Q0996=
201803081250 METAR ESMX 081250Z VRB02KT 2200 -SN BKN005 00/M01 Q0996=
201803081220 METAR ESMX 081220Z VRB02KT 3500 -SN BKN005 01/M01 Q0996=
201803081150 METAR ESMX 081150Z VRB03KT 4000 -SN BKN005 00/M01 Q0996=
201803081120 METAR ESMX 081120Z 07003KT 020V110 6000 -SN BKN006 00/M01 Q0996=
201803081050 METAR ESMX 081050Z 04004KT 020V080 5000 -SN BKN005 00/M01 Q0996=
201803081020 METAR ESMX 081020Z 05004KT 020V090 4000 -SN BKN004 00/M01 Q0996=
201803080950 METAR ESMX 080950Z 05004KT 020V100 5000 -SN OVC005 M00/M01 Q0996=
201803080920 METAR ESMX 080920Z 05004KT 020V080 4000 -SN OVC006 M00/M01 Q0996=
201803080850 METAR ESMX 080850Z 05004KT 4000 -SN BKN005 M00/M02 Q0996=
201803080820 METAR ESMX 080820Z 04005KT 4000 -SN SCT006 BKN020 M01/M02 Q0996=
201803080750 METAR ESMX 080750Z 03005KT 3500 -SN VV010 M01/M02 Q0996=
201803080720 METAR ESMX 080720Z 03005KT 3000 -SN BKN021 M01/M02 Q0996=
201803080650 METAR ESMX 080650Z 04004KT 3000 -SN BKN014 M01/M02 Q0996=
201803080620 METAR ESMX 080620Z 05004KT 2200 -SN VV017 M01/M02 Q0996=
201803080550 METAR ESMX 080550Z 05005KT 020V110 1700 -SN VV016 M01/M02 Q0996=
201803080520 METAR ESMX 080520Z 04005KT 2500 -SN VV016 M01/M02 Q0996=
201803080450 METAR ESMX 080450Z 04006KT 3900 -SN SCT009 BKN014 M01/M02 Q0996=
201803080420 METAR ESMX 080420Z AUTO 04005KT 7000 -SN FEW006/// BKN009/// BKN011/// M01/M02 Q0996=
201803080350 METAR ESMX 080350Z AUTO 04006KT 7000 -SN BKN008/// OVC040/// M01/M02 Q0996=
201803080320 METAR ESMX 080320Z AUTO 04006KT 7000 -SN ///042 M01/M02 Q0996=
201803080250 METAR ESMX 080250Z AUTO 04007KT 6000 FZUP FEW009/// BKN035/// OVC045/// M01/M02 Q0996=
201803080220 METAR ESMX 080220Z AUTO 03007KT 7000 -RASN FEW004/// SCT009/// BKN016/// M01/M02 Q0996=
201803080150 METAR ESMX 080150Z AUTO 03006KT 4500 -SN FEW002/// SCT009/// OVC014/// M01/M02 Q0997=
201803080120 METAR ESMX 080120Z AUTO 04006KT 8000 -RASN BKN012/// OVC019/// M01/M03 Q0997=
201803080050 METAR ESMX 080050Z 04007KT 8000 -SN FEW002 OVC011 M01/M02 Q0997=
201803080020 METAR ESMX 080020Z 04007KT 010V070 1100 R01/P2000N R19/P2000N -SN SCT002 OVC010 M01/M03 Q0997=
201803072350 METAR ESMX 072350Z AUTO 05007KT 9000 SG OVC011/// M01/M03 Q0997=
201803072320 METAR ESMX 072320Z 04009KT 9000 -SN OVC011 M00/M03 Q0997=
201803072250 METAR ESMX 072250Z AUTO 04008KT 9999 -SN FEW002/// OVC011/// M00/M03 Q0997=
201803072220 METAR ESMX 072220Z AUTO 04010KT 9999 FZUP BKN010/// OVC014/// M00/M03 Q0997=
201803072150 METAR ESMX 072150Z 05010KT 020V080 9999 -SN OVC009 M00/M03 Q0997=
201803072120 METAR ESMX 072120Z 04009KT 020V090 9999 -SN OVC009 M00/M02 Q0997=
201803072050 METAR ESMX 072050Z 05008KT 9999 -SN OVC009 M00/M02 Q0997=
201803072020 METAR ESMX 072020Z 04010KT 9999 -SN OVC010 M00/M02 Q0997=
201803071950 METAR ESMX 071950Z 06009KT 030V110 9999 OVC011 00/M02 Q0998=
201803071920 METAR ESMX 071920Z 06009G20KT 030V100 9999 -SN OVC012 00/M03 Q0998=
201803071850 METAR ESMX 071850Z 06009KT 030V090 7000 -SN OVC014 00/M03 Q0997=
201803071820 METAR ESMX 071820Z 04010KT 360V070 9999 -SN OVC015 00/M03 Q0997=
201803071750 METAR ESMX 071750Z 05009KT 020V080 9999 -SN BKN017 00/M03 Q0997=
201803071720 METAR ESMX 071720Z 06009KT 020V100 9999 -SN BKN018 01/M03 Q0997=
201803071650 METAR ESMX 071650Z 05008KT 9999 SCT040 01/M03 Q0997=
201803071620 METAR COR ESMX 071620Z 04011KT CAVOK 01/M03 Q0997=
201803071550 METAR ESMX 071550Z 03011KT CAVOK 01/M03 Q0997=
201803071520 METAR ESMX 071520Z 04010KT 010V070 CAVOK 02/M03 Q0997=
201803071450 METAR ESMX 071450Z 04010KT CAVOK 02/M03 Q0997=
201803071420 METAR ESMX 071420Z 04011KT CAVOK 02/M04 Q0997=
201803071350 METAR ESMX 071350Z 05008KT 020V090 CAVOK 02/M03 Q0997=
201803071320 METAR ESMX 071320Z 05011KT 9999 FEW024 SCT130 03/M03 Q0997=
201803071250 METAR ESMX 071250Z 05010KT 9999 FEW023 SCT120 03/M03 Q0998=
201803071220 METAR COR ESMX 071220Z 05009KT CAVOK 02/M03 Q0998=
201803071150 METAR ESMX 071150Z 04009KT 010V080 CAVOK 02/M03 Q0998=
201803071120 METAR ESMX 071120Z 05009KT CAVOK 02/M03 Q0998=
201803071050 METAR ESMX 071050Z 05010KT CAVOK 02/M03 Q0998=
201803071020 METAR ESMX 071020Z 04010KT CAVOK 02/M03 Q0998=
201803070950 METAR ESMX 070950Z 04009KT CAVOK 01/M04 Q0998=
201803070920 METAR ESMX 070920Z 05009KT 020V090 CAVOK 01/M04 Q0998=
201803070850 METAR ESMX 070850Z 04009KT CAVOK 00/M03 Q0998=
201803070820 METAR ESMX 070820Z 04010KT CAVOK M00/M04 Q0998=
201803070750 METAR ESMX 070750Z 04012KT 9999 NSC M01/M04 Q0998=
201803070720 METAR ESMX 070720Z 04009KT 9000 BR NSC M01/M04 Q0998=
201803070650 METAR ESMX 070650Z 05007KT 8000 BR NSC M02/M04 Q0998=
201803070620 METAR ESMX 070620Z 04008KT 7000 BR NSC M02/M04 Q0998=
201803070550 METAR ESMX 070550Z 03009KT 7000 BR NSC M02/M04 Q0998=
201803070520 METAR ESMX 070520Z 03009KT 6000 BR FEW006 M02/M03 Q0998=
201803070450 METAR ESMX 070450Z 04008KT 6000 BR BKN005 M02/M03 Q0998=
201803070420 METAR COR ESMX 070420Z 03008KT 5000 BR FEW005 M02/M03 Q0998=
201803070350 METAR ESMX 070350Z AUTO 03007KT 5000 BR BKN005/// M02/M03 Q0998=
201803070320 METAR ESMX 070320Z AUTO 04007KT 4900 BR VV007 M02/M03 Q0998=
201803070250 METAR ESMX 070250Z AUTO 03007KT 4300 BR VV008 M02/M03 Q0998=
201803070220 METAR ESMX 070220Z AUTO 04006KT 3500 BR OVC008/// M02/M03 Q0998=
201803070150 METAR ESMX 070150Z AUTO 04007KT 3500 BR VV006 M02/M03 Q0998=
201803070120 METAR ESMX 070120Z AUTO 04006KT 3400 BR VV006 M02/M03 Q0998=
201803070050 METAR ESMX 070050Z 05004KT 3300 BR FEW007 M02/M03 Q0999=
201803070020 METAR ESMX 070020Z 05005KT 020V080 3300 BR FEW007 M01/M02 Q0999=
201803062350 METAR ESMX 062350Z 05006KT 3100 BR FEW006 M01/M02 Q0999=
201803062320 METAR ESMX 062320Z 04006KT 2700 BR FEW007 M01/M02 Q0999=
201803062250 METAR ESMX 062250Z 05004KT 2400 BR FEW007 M01/M02 Q0999=
201803062220 METAR ESMX 062220Z 05004KT 1800 BR FEW007 M01/M02 Q0999=
201803062150 METAR ESMX 062150Z 06004KT 030V110 1800 BR FEW007 M01/M02 Q0999=
201803062120 METAR ESMX 062120Z 07003KT 030V100 2200 BR FEW005 M01/M02 Q0999=
201803062050 METAR ESMX 062050Z 07003KT 030V100 2600 BR FEW005 M00/M01 Q0999=
201803062020 METAR ESMX 062020Z 06004KT 020V100 2900 BR FEW005 M00/M01 Q0999=
201803061950 METAR ESMX 061950Z 04004KT 3600 BR FEW005 01/M01 Q0999=
201803061920 METAR ESMX 061920Z 09004KT 060V130 4700 BR FEW007 01/M00 Q0999=
201803061850 METAR ESMX 061850Z 09004KT 5000 BR FEW005 02/M00 Q0999=
201803061820 METAR ESMX 061820Z 08004KT 050V110 6000 BR FEW005 02/00 Q0998=
201803061750 METAR ESMX 061750Z 08004KT 050V120 9000 BR NSC 02/00 Q0998=
201803061720 METAR ESMX 061720Z 10003KT 060V140 9999 NSC 03/M00 Q0998=
201803061650 METAR ESMX 061650Z 11002KT 9000 NSC 03/00 Q0998=
201803061620 METAR ESMX 061620Z 10003KT 9000 BR NSC 05/00 Q0998=
201803061550 METAR COR ESMX 061550Z 09003KT 050V150 9000 BR NSC 06/01 Q0997=
201803061520 METAR ESMX 061520Z 14004KT 9000 BR NSC 07/00 Q0997=
201803061450 METAR ESMX 061450Z VRB03KT 8000 BR NSC 07/00 Q0997=
201803061420 METAR ESMX 061420Z 17004KT 7000 BR NSC 07/00 Q0997=
201803061350 METAR ESMX 061350Z 15005KT 110V170 6000 BR NSC 07/00 Q0998=
201803061320 METAR ESMX 061320Z 14005KT 6000 BR NSC 06/00 Q0998=
201803061250 METAR ESMX 061250Z 16005KT 5000 BR FEW007 06/00 Q0998=
201803061220 METAR ESMX 061220Z 15005KT 110V180 4800 BR FEW007 05/00 Q0998=
201803061150 METAR ESMX 061150Z 14003KT 090V180 4200 BR FEW007 04/M00 Q0998=
201803061120 METAR ESMX 061120Z 13004KT 080V170 4100 BR FEW008 OVC055 03/M00 Q0998=
201803061050 METAR ESMX 061050Z 13004KT 080V170 3800 BR FEW007 OVC055 03/M00 Q0998=
201803061020 METAR ESMX 061020Z 14004KT 100V180 3400 BR FEW008 BKN051 02/M01 Q0998=
201803060950 METAR ESMX 060950Z AUTO 15004KT 100V210 3200 BR SCT007/// OVC051/// 02/M01 Q0998=
201803060920 METAR ESMX 060920Z 12003KT 070V160 2700 BR FEW006 01/M01 Q0998=
201803060850 METAR ESMX 060850Z 13003KT 070V190 2600 BR BKN005 00/M01 Q0998=
201803060820 METAR ESMX 060820Z 13003KT 090V170 2300 BR OVC005 M00/M01 Q0998=
201803060750 METAR ESMX 060750Z 14003KT 080V190 2100 BR OVC004 M00/M02 Q0998=
201803060720 METAR ESMX 060720Z 16004KT 2100 BR OVC005 M01/M02 Q0998=
201803060650 METAR ESMX 060650Z 15003KT 2200 BR OVC005 M01/M02 Q0997=
201803060620 METAR ESMX 060620Z 14005KT 100V170 2400 BR BKN006 M01/M02 Q0997=
201803060550 METAR ESMX 060550Z 14004KT 080V170 2500 BR OVC005 M01/M02 Q0997=
201803060520 METAR COR ESMX 060520Z 13004KT 080V170 2400 BR OVC005 M01/M02 Q0997=
201803060450 METAR COR ESMX 060450Z 14005KT 090V170 2500 BR BKN006 M01/M02 Q0997=
201803060420 METAR ESMX 060420Z 13004KT 090V170 2400 BR BKN005 M01/M02 Q0997=
201803060350 METAR ESMX 060350Z AUTO 11003KT 070V170 2300 BR SCT001/// OVC005/// M01/M02 Q0997 REFZUP RESHUP=
201803060320 METAR ESMX 060320Z AUTO 14004KT 070V190 2600 FZUP OVC005/// M01/M02 Q0997 REFZUP RESHUP=
201803060250 METAR ESMX 060250Z AUTO 13004KT 080V170 2200 -FZDZ BKN005/// OVC008/// M01/M02 Q0997 RESHUP=
201803060220 METAR ESMX 060220Z AUTO 13004KT 070V190 2600 -SN OVC006/// M01/M02 Q0997 REUP RESHUP REFZUP=
201803060150 METAR ESMX 060150Z AUTO 13005KT 100V160 3300 BR OVC005/// M01/M02 Q0998=
201803060120 METAR ESMX 060120Z VRB04KT 2500 -SN FEW002 OVC005 M01/M02 Q0998=
201803060050 METAR ESMX 060050Z 14005KT 090V170 3500 -SN FEW002 OVC006 M01/M02 Q0998=
201803060020 METAR ESMX 060020Z VRB03KT 3200 -SN BKN002 OVC005 M01/M02 Q0998=
201803052350 METAR ESMX 052350Z 12005KT 080V200 3900 -SN FEW002 BKN006 BKN010 M01/M02 Q0998=
201803052320 METAR ESMX 052320Z 11004KT 060V160 4500 -SN FEW002 OVC006 M01/M02 Q0998=
201803052250 METAR ESMX 052250Z 11004KT 060V170 3300 -SN FEW002 BKN006 OVC019 M02/M03 Q0998=
201803052220 METAR ESMX 052220Z 11005KT 060V140 3800 -SN BKN006 OVC022 M02/M02 Q0998=
201803052150 METAR ESMX 052150Z 10004KT 060V150 2000 -SN FEW002 SCT011 BKN015 M02/M02 Q0998=
201803052120 METAR ESMX 052120Z 10004KT 060V140 3400 -SN BKN002 OVC025 M02/M02 Q0998=
201803052050 METAR ESMX 052050Z 10005KT 050V150 0650 R01/P2000N R19/P2000N SN SCT002 OVC009 M01/M03 Q0999=
201803052020 METAR ESMX 052020Z 12005KT 080V150 9999 -SN OVC009 M01/M03 Q0998=
201803051950 METAR ESMX 051950Z 11006KT 050V220 9000 -FZRA OVC009 M01/M03 Q0999=
201803051920 METAR ESMX 051920Z 10006KT 050V150 9999 OVC009 M01/M04 Q0999=
201803051850 METAR ESMX 051850Z 11005KT 060V160 9999 OVC009 M01/M04 Q0999=
201803051820 METAR ESMX 051820Z 12004KT 060V180 9999 OVC010 M02/M04 Q0999=
201803051750 METAR ESMX 051750Z 10006KT 050V140 9999 OVC011 M02/M04 Q0999=
201803051720 METAR ESMX 051720Z 10006KT 350V140 9999 OVC012 M02/M04 Q0999=
201803051650 METAR ESMX 051650Z 11006KT 030V150 9999 SG OVC013 M02/M04 Q0999=
201803051620 METAR ESMX 051620Z 10007KT 060V150 9999 OVC015 M02/M05 Q0999=
201803051550 METAR ESMX 051550Z 11007KT 070V150 9999 BKN016 M02/M05 Q0999=
201803051520 METAR ESMX 051520Z 11006KT 030V160 9999 BKN015 M02/M05 Q1000=
201803051450 METAR ESMX 051450Z 10007KT 060V170 5000 -SN FEW002 BKN015 M02/M04 Q0999=
201803051420 METAR ESMX 051420Z 10008G18KT 020V150 1200 R01/1600D R19/1800D -SN VV015 M02/M04 Q0999=
201803051350 METAR ESMX 051350Z 10008KT 060V150 2400 -SN BKN018 M02/M04 Q1000=
201803051320 METAR ESMX 051320Z 10009KT 040V150 9999 -SN OVC016 M01/M05 Q1000=
201803051250 METAR ESMX 051250Z 11009KT 060V170 9999 OVC016 M01/M05 Q1000=
201803051220 METAR ESMX 051220Z 10006KT 040V150 9999 -SN BKN016 M01/M05 Q1001=
201803051150 METAR ESMX 051150Z 11007KT 060V190 7000 -SN FEW002 BKN016 M02/M05 Q1002=
201803051120 METAR ESMX 051120Z 11008KT 070V160 4700 -SN BKN016 M02/M05 Q1002=
201803051050 METAR ESMX 051050Z VRB08KT 9999 OVC017 M01/M05 Q1002=
201803051020 METAR ESMX 051020Z 12010KT 070V160 9999 OVC017 M01/M05 Q1002=
201803050950 METAR ESMX 050950Z 11009KT 070V160 9999 SCT012 OVC017 M01/M05 Q1002=
201803050920 METAR ESMX 050920Z 11010G21KT 060V160 9999 OVC010 M02/M05 Q1002=
201803050850 METAR ESMX 050850Z 11007KT 030V160 9999 OVC012 M02/M05 Q1002=
201803050820 METAR ESMX 050820Z 11007KT 360V150 9999 OVC013 M02/M05 Q1002=
201803050750 METAR ESMX 050750Z 10006KT 020V160 9999 OVC011 M02/M05 Q1002=
201803050720 METAR ESMX 050720Z 11007KT 060V170 9999 BKN011 M02/M05 Q1003=
201803050650 METAR ESMX 050650Z 09005KT 020V150 9999 FEW012 OVC023 M03/M05 Q1003=
201803050620 METAR ESMX 050620Z 08005KT 030V120 9999 FEW011 OVC025 M03/M05 Q1003=
201803050550 METAR ESMX 050550Z 07005KT 030V110 9999 OVC025 M03/M05 Q1003=
201803050520 METAR ESMX 050520Z 08005KT 040V120 9999 OVC025 M03/M05 Q1003=
201803050450 METAR ESMX 050450Z 06006KT 9999 OVC023 M04/M06 Q1003=
201803050420 METAR ESMX 050420Z AUTO 06005KT 010V100 9999 OVC024/// M04/M06 Q1004=
201803050350 METAR ESMX 050350Z AUTO 07005KT 040V100 9999 OVC025/// M04/M06 Q1004=
201803050320 METAR ESMX 050320Z AUTO 07006KT 050V110 9999 OVC026/// M04/M06 Q1004=
201803050250 METAR ESMX 050250Z AUTO 06006KT 030V100 9999 OVC026/// M04/M06 Q1004=
201803050220 METAR ESMX 050220Z AUTO 06004KT 020V100 9999 OVC025/// M04/M06 Q1005=
201803050150 METAR ESMX 050150Z AUTO 05005KT 010V080 9999 SCT010/// OVC024/// M04/M06 Q1005=
201803050120 METAR ESMX 050120Z AUTO 06004KT 030V120 9999 SCT011/// OVC025/// M04/M06 Q1006=
201803050050 METAR ESMX 050050Z AUTO 07003KT 020V140 9999 OVC012/// M04/M06 Q1006=
201803050020 METAR ESMX 050020Z 08004KT 050V140 9999 BKN012 M04/M07 Q1006=
201803042350 METAR ESMX 042350Z 09004KT 040V150 9999 SCT013 BKN025 M04/M07 Q1006=
201803042320 METAR COR ESMX 042320Z 09005KT 040V150 9999 BKN013 OVC025 M04/M07 Q1006=
201803042250 METAR ESMX 042250Z AUTO 09004KT 040V140 9999 BKN013/// OVC024/// M04/M07 Q1006=
201803042220 METAR ESMX 042220Z 08005KT 050V120 9999 BKN015 OVC023 M04/M07 Q1006=
201803042150 METAR ESMX 042150Z AUTO 09004KT 050V140 9999 SCT017/// OVC024/// M04/M07 Q1006=
201803042120 METAR ESMX 042120Z 08004KT 010V140 9999 OVC028 M04/M08 Q1006=
201803042050 METAR ESMX 042050Z 11004KT 070V160 9999 OVC028 M04/M07 Q1006=
201803042020 METAR COR ESMX 042020Z 11006KT 070V160 9999 BKN026 M04/M07 Q1006=
201803041950 METAR ESMX 041950Z 12005KT 070V180 9999 OVC027 M03/M07 Q1006=
201803041920 METAR COR ESMX 041920Z 12004KT 060V190 9999 OVC027 M03/M07 Q1006=
201803041850 METAR ESMX 041850Z 11004KT 070V180 9999 OVC026 M03/M07 Q1006=
201803041820 METAR COR ESMX 041820Z 11005KT 070V140 9999 OVC026 M03/M06 Q1006=
201803041750 METAR ESMX 041750Z AUTO 11005KT 060V150 9999 FEW016/// OVC026/// M03/M07 Q1006=
201803041720 METAR ESMX 041720Z AUTO 10003KT 060V160 9999 OVC025/// M03/M06 Q1006=
201803041650 METAR ESMX 041650Z 09004KT 050V140 9999 FEW015 OVC026 M02/M06 Q1007=
201803041620 METAR ESMX 041620Z 08004KT 030V150 9999 FEW008 OVC023 M02/M06 Q1007=
201803041550 METAR ESMX 041550Z 12004KT 070V230 9999 SCT018 BKN026 M02/M06 Q1007=
201803041520 METAR ESMX 041520Z 09003KT 030V120 9999 OVC027 M02/M06 Q1007=
201803041450 METAR ESMX 041450Z 09004KT 040V140 9999 SCT020 BKN028 M02/M07 Q1007=
201803041420 METAR ESMX 041420Z VRB03KT 9999 FEW016 BKN023 M02/M07 Q1007 RESN=
201803041350 METAR ESMX 041350Z 11003KT 060V160 9999 BKN020 M02/M07 Q1007=
201803041320 METAR ESMX 041320Z 07003KT 010V110 9999 -SN FEW016 BKN028 M01/M07 Q1007=
201803041250 METAR ESMX 041250Z 04004KT 9999 -SN FEW010 BKN022 M02/M07 Q1007=
201803041220 METAR ESMX 041220Z 05003KT 010V120 9000 -SN SCT008 BKN013 M02/M07 Q1007=
201803041150 METAR ESMX 041150Z 02004KT 340V050 9999 FEW019 OVC030 M02/M07 Q1008=
201803041120 METAR ESMX 041120Z AUTO 03005KT 9999 BKN028/// OVC037/// M03/M07 Q1008 RESHUP REFZUP=
201803041050 METAR ESMX 041050Z AUTO 01004KT 9999 OVC027/// M03/M07 Q1008=
201803041020 METAR ESMX 041020Z AUTO 34004KT 9999 BKN029/// OVC039/// M04/M08 Q1008=
201803040950 METAR ESMX 040950Z AUTO 03004KT 9999 BKN030/// OVC042/// M04/M08 Q1008=
201803040920 METAR ESMX 040920Z AUTO 04005KT 9999 BKN028/// OVC039/// M04/M08 Q1008=
201803040850 METAR ESMX 040850Z AUTO 04004KT 9999 OVC029/// M05/M08 Q1008=
201803040820 METAR ESMX 040820Z 05004KT 9999 -SN BKN030 M05/M08 Q1008=
201803040750 METAR ESMX 040750Z 05004KT 020V080 9000 -SN SCT030 OVC040 M05/M08 Q1008=
201803040720 METAR ESMX 040720Z 04003KT 7000 -SN SCT030 OVC040 M06/M08 Q1008=
201803040650 METAR ESMX 040650Z 02004KT 9999 -SN SCT030 OVC040 M06/M08 Q1008=
201803040620 METAR ESMX 040620Z 03003KT 9999 -SN FEW022 BKN030 M06/M08 Q1008=
201803040550 METAR ESMX 040550Z AUTO 02003KT 9999 -SN SCT029/// OVC036/// M06/M08 Q1008=
201803040520 METAR ESMX 040520Z AUTO 04003KT 9999 -SN BKN028/// OVC037/// M06/M08 Q1008=
201803040450 METAR ESMX 040450Z AUTO 04003KT 9999 -SN SCT028/// OVC036/// M06/M07 Q1008=
201803040420 METAR ESMX 040420Z AUTO 02003KT 9999 -SN SCT028/// OVC036/// M06/M07 Q1008=
201803040350 METAR ESMX 040350Z AUTO 03004KT 9999 -SN OVC030/// M06/M07 Q1009=
201803040320 METAR ESMX 040320Z AUTO 02005KT 9999 -SN BKN028/// OVC036/// M05/M07 Q1009=
201803040250 METAR ESMX 040250Z AUTO 02003KT 9000 -SN FEW029/// OVC036/// M05/M07 Q1009=
201803040220 METAR ESMX 040220Z AUTO 03003KT 9999 -SN OVC032/// M05/M07 Q1009=
201803040150 METAR ESMX 040150Z AUTO 02004KT 9999 -SN FEW006/// OVC033/// M05/M07 Q1009=
201803040120 METAR ESMX 040120Z AUTO 02004KT 9999 -SN FEW002/// SCT006/// OVC031/// M05/M07 Q1009=
201803040050 METAR ESMX 040050Z AUTO 02004KT 7000 -SN SCT002/// BKN011/// OVC032/// M05/M06 Q1009=
201803040020 METAR ESMX 040020Z AUTO 04004KT 7000 -SN SCT002/// BKN005/// BKN008/// M05/M07 Q1009=
201803032350 METAR ESMX 032350Z AUTO 03004KT 6000 -SN FEW002/// SCT007/// BKN010/// M05/M06 Q1009=
201803032320 METAR ESMX 032320Z AUTO 01004KT 8000 -SN SCT002/// BKN006/// OVC016/// M05/M06 Q1009=
201803032250 METAR ESMX 032250Z AUTO 04004KT 8000 -SN FEW002/// SCT006/// BKN011/// M04/M06 Q1009=
201803032220 METAR ESMX 032220Z AUTO 04003KT 9000 -SN FEW002/// BKN010/// OVC016/// M04/M06 Q1009=
201803032150 METAR ESMX 032150Z AUTO VRB03KT 8000 -SN SCT011/// BKN017/// OVC031/// M04/M06 Q1009=
201803032120 METAR ESMX 032120Z AUTO 04003KT 340V120 9999 -SN FEW010/// OVC032/// M04/M06 Q1009=
201803032050 METAR ESMX 032050Z AUTO 04004KT 9999 -SN OVC035/// M04/M06 Q1009=
201803032020 METAR ESMX 032020Z AUTO 05004KT 020V080 9999 -SN FEW006/// SCT029/// OVC035/// M04/M06 Q1009=
201803031950 METAR ESMX 031950Z AUTO 05005KT 9000 -SN FEW012/// OVC035/// M04/M06 Q1009=
201803031920 METAR ESMX 031920Z AUTO 05005KT 8000 -SN FEW008/// SCT011/// BKN015/// M04/M06 Q1009=
201803031850 METAR ESMX 031850Z AUTO 04005KT 9999 -SN OVC012/// M03/M06 Q1009=
201803031820 METAR ESMX 031820Z AUTO 04006KT 9999 -SN OVC012/// M03/M06 Q1009=
201803031750 METAR ESMX 031750Z AUTO 04005KT 9999 -SN OVC010/// M03/M05 Q1009=
201803031720 METAR ESMX 031720Z AUTO 03006KT 9999 -SN OVC011/// M03/M05 Q1009=
201803031650 METAR ESMX 031650Z 04005KT 350V100 9999 -SN OVC012 M03/M05 Q1009=
201803031620 METAR ESMX 031620Z 04007KT 9999 -SN OVC012 M03/M05 Q1009=
201803031550 METAR ESMX 031550Z 04007KT 9999 -SN BKN016 OVC040 M02/M05 Q1009=
201803031520 METAR ESMX 031520Z 04006KT 8000 -SN FEW010 BKN015 M02/M05 Q1009=
201803031450 METAR ESMX 031450Z AUTO 01006KT 8000 -SN FEW002/// BKN014/// OVC041/// M02/M05 Q1009=
201803031420 METAR ESMX 031420Z AUTO 05006KT 9999 -SN FEW013/// SCT036/// OVC042/// M02/M05 Q1009=
201803031350 METAR ESMX 031350Z AUTO 05006KT 9999 -SN OVC012/// M02/M05 Q1009=
201803031320 METAR ESMX 031320Z AUTO 04007KT 9999 -SN OVC012/// M02/M05 Q1009=
201803031250 METAR ESMX 031250Z AUTO 04007KT 9999 -SN OVC011/// M02/M05 Q1009=
201803031220 METAR ESMX 031220Z AUTO 03007KT 9000 -SN BKN011/// OVC014/// M03/M05 Q1009=
201803031150 METAR ESMX 031150Z AUTO 03008KT 9999 -SN OVC011/// M03/M05 Q1009=
201803031120 METAR ESMX 031120Z AUTO 03008KT 9999 -SN OVC011/// M03/M05 Q1009=
201803031050 METAR ESMX 031050Z AUTO 01008KT 7000 -SN FEW006/// SCT010/// BKN013/// M03/M05 Q1009=
201803031020 METAR ESMX 031020Z 03007KT 8000 -SN BKN007 OVC030 M03/M05 Q1010=
201803030950 METAR ESMX 030950Z 03008KT 7000 -SN OVC006 M03/M05 Q1010=
201803030920 METAR ESMX 030920Z 02007KT 5000 -SN OVC006 M03/M05 Q1009=
201803030850 METAR ESMX 030850Z 04007KT 8000 -SN OVC006 M03/M05 Q1009=
201803030820 METAR ESMX 030820Z 03007KT 9999 -SN OVC007 M03/M04 Q1009=
201803030750 METAR ESMX 030750Z AUTO 03007KT 9999 -SN OVC007/// M03/M04 Q1009=
201803030720 METAR ESMX 030720Z AUTO 03007KT 6000 -SN FEW002/// OVC006/// M03/M04 Q1009=
201803030650 METAR ESMX 030650Z AUTO 03007KT 7000 -SN FEW002/// OVC006/// M03/M05 Q1009=
201803030620 METAR ESMX 030620Z AUTO 03006KT 9999 -SN OVC006/// M03/M05 Q1009 REFZUP=
201803030550 METAR ESMX 030550Z AUTO 02006KT 9999 FZUP OVC006/// M03/M04 Q1009=
201803030520 METAR ESMX 030520Z AUTO 04006KT 9999 -FZDZ OVC006/// M03/M04 Q1009=
201803030450 METAR ESMX 030450Z AUTO 04005KT 9999 -FZDZ OVC008/// M03/M05 Q1009=
201803030420 METAR ESMX 030420Z AUTO 04006KT 010V090 9999 -FZDZ OVC008/// M03/M04 Q1009=
201803030350 METAR ESMX 030350Z AUTO 05007KT 020V100 9999 -FZDZ OVC008/// M03/M04 Q1009=
201803030320 METAR ESMX 030320Z AUTO 04005KT 9999 -SN OVC006/// M03/M04 Q1010 REFZUP=
201803030250 METAR ESMX 030250Z AUTO 03004KT 340V080 6000 -FZDZ OVC004/// M03/M04 Q1010=
201803030220 METAR ESMX 030220Z AUTO VRB02KT 4300 -FZDZ OVC003/// M04/M04 Q1010=
201803030150 METAR ESMX 030150Z AUTO 34002KT 4900 -FZDZ OVC003/// M04/M05 Q1010=
201803030120 METAR ESMX 030120Z AUTO 36002KT 5000 -FZDZ OVC004/// M04/M05 Q1010=
201803030050 METAR ESMX 030050Z AUTO 27002KT 6000 -FZDZ OVC005/// M04/M05 Q1010=
201803030020 METAR ESMX 030020Z AUTO 34001KT 6000 -FZDZ FEW003/// OVC006/// M04/M05 Q1010=
201803022350 METAR ESMX 022350Z AUTO 00000KT 5000 -FZDZ BKN003/// OVC008/// M04/M05 Q1011=
201803022320 METAR ESMX 022320Z AUTO 00000KT 4900 -FZDZ SCT004/// OVC008/// M04/M05 Q1011=
201803022250 METAR ESMX 022250Z AUTO VRB02KT 5000 -FZRA SCT005/// OVC008/// M04/M05 Q1011=
201803022220 METAR ESMX 022220Z AUTO VRB03KT 4600 -FZDZ OVC004/// M04/M05 Q1011 REFZUP RESHUP REFZRA=
201803022150 METAR ESMX 022150Z AUTO VRB03KT 4900 BR OVC004/// M04/M05 Q1011=
201803022120 METAR ESMX 022120Z AUTO 07003KT 030V110 5000 BR OVC005/// M04/M05 Q1011 REFZUP RESHUP REFZRA=
201803022050 METAR ESMX 022050Z AUTO 06005KT 040V110 5000 BR BKN005/// OVC007/// M04/M05 Q1011=
201803022020 METAR ESMX 022020Z 04005KT 020V080 9999 -SG OVC006 M04/M05 Q1011=
201803021950 METAR ESMX 021950Z 06005KT 030V110 9000 -SG OVC006 M04/M05 Q1011=
201803021920 METAR ESMX 021920Z 07006KT 030V120 6000 -SN OVC006 M04/M06 Q1011=
201803021850 METAR ESMX 021850Z 06005KT 010V110 9999 OVC006 M04/M06 Q1011=
201803021820 METAR ESMX 021820Z 05008KT 020V110 9999 -SN OVC009 M04/M06 Q1011=
201803021750 METAR ESMX 021750Z 05006KT 360V090 9999 -SN OVC012 M04/M06 Q1011=
201803021720 METAR ESMX 021720Z 05006KT 350V080 9999 -SN BKN014 M04/M07 Q1011=
201803021650 METAR ESMX 021650Z 07006KT 040V120 9999 -SN BKN016 M04/M07 Q1011=
201803021620 METAR ESMX 021620Z 07008KT 020V160 9999 BKN018 M03/M07 Q1011=
201803021550 METAR ESMX 021550Z 06009KT 030V100 9999 BKN015 M03/M07 Q1011=
201803021520 METAR ESMX 021520Z 07009KT 030V100 9999 -SN BKN014 M03/M06 Q1011=
201803021450 METAR ESMX 021450Z 06007KT 030V140 9000 -SN OVC012 M03/M06 Q1011=
201803021420 METAR ESMX 021420Z 06010KT 030V110 9999 -SN BKN014 M03/M06 Q1011=
201803021350 METAR ESMX 021350Z 06009G22KT 020V090 9999 -SN BKN016 M03/M07 Q1011=
201803021320 METAR ESMX 021320Z 05010KT 030V120 9999 -SN BKN017 M03/M07 Q1011=
201803021250 METAR ESMX 021250Z 05012KT 9999 -SN BKN016 M03/M07 Q1011=
201803021220 METAR ESMX 021220Z 05011KT 020V080 9999 -SN BKN015 OVC021 M03/M07 Q1012=
201803021150 METAR ESMX 021150Z 05010KT 020V080 9999 -SN BKN015 M03/M07 Q1012=
201803021120 METAR ESMX 021120Z 05011KT 8000 -SN BKN016 M03/M07 Q1012=
201803021050 METAR ESMX 021050Z 04011KT 6000 -SN BKN018 M03/M07 Q1013=
201803021020 METAR ESMX 021020Z 04011KT 9999 -SN FEW006 BKN016 M03/M07 Q1013=
201803020950 METAR ESMX 020950Z 02010KT 360V070 9000 -SN SCT014 BKN020 M04/M07 Q1013=
201803020920 METAR ESMX 020920Z 04011KT 010V070 8000 -SN BKN014 BKN036 M04/M07 Q1013=
201803020850 METAR ESMX 020850Z 02010KT 9999 -SN BKN013 M04/M08 Q1013=
201803020820 METAR ESMX 020820Z 03010KT 350V060 9999 -SN BKN013 M05/M08 Q1014=
201803020750 METAR ESMX 020750Z 03010KT 8000 -SN FEW012 BKN041 M05/M08 Q1014=
201803020720 METAR ESMX 020720Z 04011KT 9999 -SN FEW011 SCT055 M06/M09 Q1014=
201803020650 METAR ESMX 020650Z 03010KT 9999 SCT011 M06/M09 Q1014=
201803020620 METAR ESMX 020620Z 03010KT 9999 SCT011 M07/M09 Q1014=
201803020550 METAR ESMX 020550Z 03010KT 9999 BKN010 M07/M09 Q1015=
201803020520 METAR ESMX 020520Z 03009KT 9999 BKN012 M07/M09 Q1015=
201803020450 METAR ESMX 020450Z 03009KT 9999 -SN BKN012 OVC098 M07/M09 Q1015=
201803020420 METAR ESMX 020420Z AUTO 03010KT 9999 -SN BKN011/// OVC018/// M07/M09 Q1016 RESG=
201803020350 METAR ESMX 020350Z AUTO 02009KT 9999 OVC009/// M07/M09 Q1016 RESG=
201803020320 METAR ESMX 020320Z AUTO 02010KT 9999 SG OVC009/// M06/M09 Q1016=
201803020250 METAR ESMX 020250Z AUTO 01011KT 9999 SG FEW002/// OVC010/// M06/M08 Q1017=
201803020220 METAR ESMX 020220Z AUTO 01009KT 5000 SG OVC002/// M06/M08 Q1017=
201803020150 METAR ESMX 020150Z AUTO 36009KT 5000 -SN BKN002/// OVC006/// M06/M08 Q1017 RESG=
201803020120 METAR ESMX 020120Z AUTO 02007KT 350V060 9999 SG FEW006/// OVC012/// M06/M08 Q1018=
201803020050 METAR ESMX 020050Z AUTO 04008KT 9999 SG OVC012/// M06/M08 Q1018 REDZ=
201803020020 METAR ESMX 020020Z 03008KT 9999 OVC013 M06/M08 Q1018=
201803012350 METAR ESMX 012350Z 03007KT 9999 OVC013 M06/M08 Q1019=
201803012320 METAR ESMX 012320Z 04008KT 9999 -SN OVC014 M06/M09 Q1019=
201803012250 METAR ESMX 012250Z 05007KT 010V070 9999 OVC016 M06/M09 Q1020=
201803012220 METAR ESMX 012220Z 05008KT 9999 FEW017 M06/M09 Q1020=
201803012150 METAR ESMX 012150Z 05009KT 020V080 9999 FEW020 M06/M09 Q1020=
201803012120 METAR ESMX 012120Z 04008KT 010V080 9999 FEW018 M06/M10 Q1020=
201803012050 METAR ESMX 012050Z 04010KT 9999 FEW020 M06/M10 Q1021=
201803012020 METAR ESMX 012020Z 04009KT 9999 -SN FEW018 OVC035 M06/M09 Q1021=
201803011950 METAR ESMX 011950Z 04010KT 9999 SG FEW017 OVC032 M06/M10 Q1021=
201803011920 METAR ESMX 011920Z 05010KT 9999 -SN FEW018 BKN029 OVC036 M06/M09 Q1022=
201803011850 METAR ESMX 011850Z 04009KT 9999 -SN BKN018 OVC026 M06/M09 Q1022=
201803011820 METAR ESMX 011820Z 04009KT 9999 -SN BKN017 OVC031 M06/M09 Q1023=
201803011750 METAR ESMX 011750Z 04009KT 9999 -SN SCT019 OVC032 M06/M09 Q1023=
201803011720 METAR ESMX 011720Z 05010KT 010V080 9999 -SN FEW019 BKN032 M06/M10 Q1023=
201803011650 METAR ESMX 011650Z 03008KT 350V080 9999 -SN FEW002 BKN017 M06/M09 Q1023=
201803011620 METAR ESMX 011620Z 04009KT 9999 -SN FEW004 SCT016 OVC022 M06/M09 Q1023=
201803011550 METAR ESMX 011550Z 04008KT 020V080 6000 -SN FEW007 BKN025 M06/M09 Q1024=
201803011520 METAR ESMX 011520Z 05008KT 010V080 5000 -SN FEW007 SCT014 BKN021 M06/M09 Q1024=
201803011450 METAR ESMX 011450Z 05012KT 020V080 9999 FEW012 SCT022 M06/M11 Q1024=
201803011420 METAR ESMX 011420Z 04010KT 350V070 9999 FEW024 SCT031 M05/M11 Q1024=
201803011350 METAR ESMX 011350Z 04012KT 9999 -SN SCT020 OVC035 M06/M09 Q1025=
201803011320 METAR ESMX 011320Z 04009KT 030V100 7000 -SN FEW017 BKN031 M06/M09 Q1025=
201803011250 METAR ESMX 011250Z 05008G19KT 020V110 4500 -SN BR FEW003 SCT015 BKN020 M06/M10 Q1025=
201803011220 METAR ESMX 011220Z 04011KT 3600 -SN BR FEW004 SCT020 OVC031 M06/M09 Q1026=
