##########################################################
# Query made at 04/19/2024 22:03:02 UTC
# Time interval: from 05/01/2018 12:00  to 05/31/2018 12:59  UTC
##########################################################

##########################################################
# ESMX, Vaxjo (Sweden)
# WMO index: 02641. WIGOS ID: 0-20000-0-02648
# Latitude 56-51N. Longitude 014-50E. Altitude 199 m.
##########################################################

201805311250 METAR COR ESMX 311250Z 07008KT 030V120 CAVOK 25/07 Q1022=
201805311220 METAR ESMX 311220Z 06009KT 020V110 CAVOK 25/05 Q1022=
201805311150 METAR ESMX 311150Z 07008KT 040V120 CAVOK 25/06 Q1022=
201805311120 METAR ESMX 311120Z 06009KT 030V120 CAVOK 24/07 Q1022=
201805311050 METAR ESMX 311050Z 05009KT 020V080 CAVOK 23/06 Q1022=
201805311020 METAR ESMX 311020Z 04009KT CAVOK 23/06 Q1023=
201805310950 METAR ESMX 310950Z 04009KT 010V100 CAVOK 23/06 Q1023=
201805310920 METAR ESMX 310920Z 05008KT 010V080 CAVOK 22/05 Q1023=
201805310850 METAR ESMX 310850Z 05008KT 010V080 CAVOK 21/05 Q1023=
201805310820 METAR ESMX 310820Z 05007KT 010V100 CAVOK 20/06 Q1023=
201805310750 METAR ESMX 310750Z 04009KT 010V070 CAVOK 20/06 Q1023=
201805310720 METAR ESMX 310720Z 03008KT 350V060 CAVOK 19/06 Q1023=
201805310650 METAR ESMX 310650Z 04009KT CAVOK 18/06 Q1023=
201805310620 METAR ESMX 310620Z AUTO 05010KT 020V090 9999 NCD 17/06 Q1023=
201805310550 METAR ESMX 310550Z 06008KT CAVOK 17/06 Q1023=
201805310520 METAR ESMX 310520Z 06008KT 030V100 CAVOK 16/05 Q1023=
201805310450 METAR ESMX 310450Z 06008KT CAVOK 15/05 Q1023=
201805310420 METAR ESMX 310420Z 05007KT CAVOK 14/07 Q1023=
201805310350 METAR ESMX 310350Z 07007KT 040V110 CAVOK 13/08 Q1023=
201805310320 METAR ESMX 310320Z AUTO 07005KT 040V100 9999 NCD 13/09 Q1023=
201805310250 METAR ESMX 310250Z AUTO 07005KT 030V110 9999 NCD 13/09 Q1023=
201805310220 METAR ESMX 310220Z AUTO 07006KT 9999 NCD 13/09 Q1023=
201805310150 METAR ESMX 310150Z AUTO 06007KT 9999 NCD 14/09 Q1023=
201805310120 METAR ESMX 310120Z AUTO 05006KT 020V080 9999 NCD 14/08 Q1023=
201805310050 METAR ESMX 310050Z AUTO 06006KT 030V100 9999 NCD 14/08 Q1023=
201805310020 METAR ESMX 310020Z AUTO 07004KT 9999 NCD 15/07 Q1022=
201805302350 METAR ESMX 302350Z AUTO 08004KT 050V110 9999 NCD 15/07 Q1022=
201805302320 METAR ESMX 302320Z 06003KT 020V080 CAVOK 16/08 Q1022=
201805302250 METAR COR ESMX 302250Z 07004KT 030V130 CAVOK 17/08 Q1022=
201805302220 METAR ESMX 302220Z 08006KT 040V120 CAVOK 18/10 Q1022=
201805302150 METAR ESMX 302150Z 08005KT 030V120 CAVOK 18/10 Q1022=
201805302120 METAR ESMX 302120Z 07004KT 020V120 CAVOK 19/11 Q1022=
201805302050 METAR ESMX 302050Z 08005KT 010V130 CAVOK 20/12 Q1022=
201805302020 METAR ESMX 302020Z 09003KT 030V130 CAVOK 21/11 Q1022=
201805301950 METAR ESMX 301950Z 11005KT 070V170 CAVOK 22/11 Q1021=
201805301920 METAR COR ESMX 301920Z 11004KT 060V150 CAVOK 22/11 Q1021=
201805301850 METAR ESMX 301850Z 12005KT 080V200 CAVOK 24/11 Q1021=
201805301820 METAR ESMX 301820Z 12006KT 050V180 CAVOK 25/11 Q1020=
201805301750 METAR ESMX 301750Z 11005KT 050V200 CAVOK 25/10 Q1020=
201805301720 METAR COR ESMX 301720Z 10005KT 040V160 CAVOK 26/11 Q1020=
201805301650 METAR ESMX 301650Z 12006KT 080V170 CAVOK 27/10 Q1020=
201805301620 METAR ESMX 301620Z 12007KT 070V170 CAVOK 27/10 Q1020=
201805301550 METAR ESMX 301550Z 11007KT 070V160 CAVOK 27/10 Q1021=
201805301520 METAR ESMX 301520Z 13007KT 070V170 CAVOK 28/10 Q1021=
201805301450 METAR ESMX 301450Z 12007KT 070V180 CAVOK 28/10 Q1021=
201805301420 METAR ESMX 301420Z 12006KT 060V170 CAVOK 29/10 Q1021=
201805301350 METAR ESMX 301350Z 14007KT 090V180 CAVOK 28/09 Q1021=
201805301320 METAR ESMX 301320Z 06006KT 010V130 CAVOK 28/09 Q1021=
201805301250 METAR ESMX 301250Z 08007KT 020V140 CAVOK 28/08 Q1021=
201805301220 METAR ESMX 301220Z 06007KT 020V130 CAVOK 28/08 Q1021=
201805301150 METAR ESMX 301150Z 05007KT 020V100 CAVOK 28/08 Q1021=
201805301120 METAR ESMX 301120Z 06007KT 020V110 CAVOK 28/08 Q1022=
201805301050 METAR ESMX 301050Z 10006KT 030V180 CAVOK 27/09 Q1022=
201805301020 METAR ESMX 301020Z 05007KT 360V090 CAVOK 27/09 Q1022=
201805300950 METAR ESMX 300950Z 07007KT 020V140 CAVOK 27/10 Q1022=
201805300920 METAR ESMX 300920Z 07007KT 020V120 CAVOK 26/10 Q1022=
201805300850 METAR ESMX 300850Z 08007KT 010V120 CAVOK 26/10 Q1022=
201805300820 METAR ESMX 300820Z 10007KT 060V160 CAVOK 25/10 Q1022=
201805300750 METAR ESMX 300750Z 06008KT 020V110 CAVOK 25/11 Q1022=
201805300720 METAR ESMX 300720Z 06007KT 030V110 CAVOK 23/12 Q1022=
201805300650 METAR ESMX 300650Z 06005KT 030V110 CAVOK 23/13 Q1022=
201805300620 METAR ESMX 300620Z 06004KT 010V100 CAVOK 21/13 Q1022=
201805300550 METAR ESMX 300550Z 05005KT 350V070 CAVOK 20/13 Q1022=
201805300520 METAR ESMX 300520Z 03006KT 010V070 CAVOK 18/13 Q1021=
201805300450 METAR ESMX 300450Z 05004KT 010V100 CAVOK 18/13 Q1021=
201805300420 METAR ESMX 300420Z 06004KT 030V120 CAVOK 17/12 Q1021=
201805300350 METAR ESMX 300350Z 05004KT 020V080 CAVOK 16/13 Q1021=
201805300320 METAR ESMX 300320Z 02003KT CAVOK 14/12 Q1021=
201805300250 METAR ESMX 300250Z 02004KT CAVOK 14/12 Q1021=
201805300220 METAR ESMX 300220Z 02004KT CAVOK 11/10 Q1021=
201805300150 METAR ESMX 300150Z 02005KT CAVOK 11/10 Q1021=
201805300120 METAR ESMX 300120Z 02004KT CAVOK 12/10 Q1021=
201805300050 METAR ESMX 300050Z 02004KT CAVOK 12/11 Q1022=
201805300020 METAR ESMX 300020Z 03003KT CAVOK 12/11 Q1022=
201805292350 METAR ESMX 292350Z 02002KT CAVOK 12/11 Q1022=
201805292320 METAR ESMX 292320Z 02002KT CAVOK 12/11 Q1022=
201805292250 METAR ESMX 292250Z VRB02KT CAVOK 13/11 Q1022=
201805292220 METAR ESMX 292220Z 00000KT CAVOK 14/11 Q1022=
201805292150 METAR ESMX 292150Z VRB01KT CAVOK 14/10 Q1022=
201805292120 METAR ESMX 292120Z VRB02KT CAVOK 16/12 Q1022=
201805292050 METAR COR ESMX 292050Z VRB02KT CAVOK 18/12 Q1022=
201805292020 METAR ESMX 292020Z VRB02KT CAVOK 20/12 Q1021=
201805291950 METAR ESMX 291950Z VRB03KT CAVOK 21/12 Q1021=
201805291920 METAR ESMX 291920Z 11004KT 070V160 CAVOK 22/12 Q1021=
201805291850 METAR ESMX 291850Z 12005KT 060V200 CAVOK 23/11 Q1021=
201805291820 METAR ESMX 291820Z 10006KT 060V150 CAVOK 24/11 Q1021=
201805291750 METAR ESMX 291750Z 10006KT 050V160 CAVOK 25/11 Q1021=
201805291720 METAR ESMX 291720Z 12006KT 060V230 CAVOK 26/11 Q1021=
201805291650 METAR ESMX 291650Z 13007KT 080V170 CAVOK 26/12 Q1021=
201805291620 METAR ESMX 291620Z 12006KT 080V170 CAVOK 26/11 Q1021=
201805291550 METAR ESMX 291550Z 06007KT 010V110 CAVOK 27/11 Q1021=
201805291520 METAR ESMX 291520Z 13006KT 050V180 CAVOK 28/11 Q1021=
201805291450 METAR ESMX 291450Z 08006KT 020V140 CAVOK 28/11 Q1021=
201805291420 METAR ESMX 291420Z 07006KT 030V120 CAVOK 26/12 Q1021=
201805291350 METAR ESMX 291350Z 07006KT 030V110 CAVOK 26/12 Q1022=
201805291320 METAR ESMX 291320Z 06009KT 020V100 CAVOK 27/12 Q1022=
201805291250 METAR ESMX 291250Z 06006KT 350V120 CAVOK 29/12 Q1022=
201805291220 METAR ESMX 291220Z VRB04KT CAVOK 28/12 Q1022=
201805291150 METAR ESMX 291150Z 16006KT 080V210 CAVOK 27/12 Q1023=
201805291120 METAR ESMX 291120Z 15006KT 090V190 CAVOK 27/12 Q1023=
201805291050 METAR ESMX 291050Z 15008KT 100V190 CAVOK 27/12 Q1023=
201805291020 METAR ESMX 291020Z 17009KT 140V200 CAVOK 26/12 Q1023=
201805290950 METAR ESMX 290950Z 15007KT 090V190 CAVOK 26/12 Q1023=
201805290920 METAR ESMX 290920Z 11008KT 050V160 CAVOK 26/12 Q1023=
201805290850 METAR ESMX 290850Z 12006KT 070V160 CAVOK 25/11 Q1024=
201805290820 METAR ESMX 290820Z VRB06KT CAVOK 24/12 Q1024=
201805290750 METAR ESMX 290750Z 12006KT 060V160 CAVOK 24/12 Q1024=
201805290720 METAR ESMX 290720Z 08004KT 010V120 CAVOK 23/11 Q1024=
201805290650 METAR ESMX 290650Z 06004KT 020V100 CAVOK 21/10 Q1024=
201805290620 METAR ESMX 290620Z 05005KT 020V090 CAVOK 20/10 Q1024=
201805290550 METAR ESMX 290550Z 06005KT 030V110 CAVOK 19/09 Q1024=
201805290520 METAR ESMX 290520Z 06005KT 020V090 CAVOK 18/09 Q1024=
201805290450 METAR ESMX 290450Z 05004KT 020V080 CAVOK 17/09 Q1024=
201805290420 METAR ESMX 290420Z 03004KT CAVOK 16/09 Q1024=
201805290350 METAR ESMX 290350Z 07004KT 030V100 CAVOK 14/09 Q1024=
201805290320 METAR ESMX 290320Z 04004KT CAVOK 13/08 Q1024=
201805290250 METAR ESMX 290250Z 05005KT CAVOK 13/08 Q1024=
201805290220 METAR ESMX 290220Z AUTO 04005KT 9999 NCD 14/08 Q1025=
201805290150 METAR ESMX 290150Z AUTO 05005KT 9999 NCD 14/08 Q1025=
201805290120 METAR ESMX 290120Z AUTO 05004KT 9999 NCD 13/08 Q1025=
201805290050 METAR ESMX 290050Z AUTO 03005KT 9999 NCD 13/09 Q1025=
201805290020 METAR ESMX 290020Z AUTO 04004KT 9999 NCD 14/08 Q1025=
201805282350 METAR ESMX 282350Z AUTO 04005KT 9999 NCD 14/09 Q1026=
201805282320 METAR ESMX 282320Z AUTO 04004KT 9999 NCD 15/09 Q1026=
201805282250 METAR ESMX 282250Z AUTO 04004KT 9999 NCD 15/09 Q1026=
201805282220 METAR ESMX 282220Z AUTO 07004KT 9999 NCD 16/10 Q1026=
201805282150 METAR ESMX 282150Z AUTO 04004KT 9999 NCD 16/11 Q1026=
201805282120 METAR ESMX 282120Z AUTO 08003KT 030V120 9999 NCD 17/11 Q1026=
201805282050 METAR ESMX 282050Z 08004KT 030V120 CAVOK 18/11 Q1026=
201805282020 METAR ESMX 282020Z 09004KT 060V140 CAVOK 19/11 Q1026=
201805281950 METAR ESMX 281950Z VRB04KT CAVOK 20/11 Q1025=
201805281920 METAR ESMX 281920Z 10004KT 060V150 CAVOK 20/12 Q1025=
201805281850 METAR ESMX 281850Z 11005KT 060V160 CAVOK 21/12 Q1025=
201805281820 METAR ESMX 281820Z 11006KT 050V170 CAVOK 22/12 Q1025=
201805281750 METAR ESMX 281750Z 12007KT 060V160 CAVOK 23/12 Q1025=
201805281720 METAR ESMX 281720Z 12007KT 080V150 CAVOK 24/12 Q1025=
201805281650 METAR ESMX 281650Z 12007KT 070V160 CAVOK 24/11 Q1024=
201805281620 METAR ESMX 281620Z 13006KT 100V160 CAVOK 25/11 Q1024=
201805281550 METAR ESMX 281550Z 13006KT 090V160 CAVOK 25/12 Q1025=
201805281520 METAR ESMX 281520Z 14007KT 110V170 CAVOK 25/12 Q1025=
201805281450 METAR ESMX 281450Z 15008KT 090V190 CAVOK 25/12 Q1025=
201805281420 METAR ESMX 281420Z 16008KT 120V190 CAVOK 25/12 Q1025=
201805281350 METAR ESMX 281350Z 14009KT 100V190 CAVOK 26/13 Q1025=
201805281320 METAR ESMX 281320Z 12007KT 050V160 CAVOK 26/13 Q1026=
201805281250 METAR ESMX 281250Z 15008G18KT 110V190 CAVOK 26/13 Q1026=
201805281220 METAR ESMX 281220Z 12007G18KT 060V160 9999 BKN049 25/12 Q1026=
201805281150 METAR ESMX 281150Z 07007KT 020V130 9999 SCT048 BKN170 24/12 Q1026=
201805281120 METAR ESMX 281120Z 08007KT 030V120 9999 FEW047 SCT057 24/12 Q1026=
201805281050 METAR ESMX 281050Z 12007KT 060V170 CAVOK 25/12 Q1027=
201805281020 METAR ESMX 281020Z 08006KT 040V130 9999 FEW040 BKN048 23/10 Q1027=
201805280950 METAR ESMX 280950Z 07007KT 020V110 CAVOK 23/11 Q1027=
201805280920 METAR ESMX 280920Z 09006KT 030V190 CAVOK 22/11 Q1027=
201805280850 METAR ESMX 280850Z VRB04KT CAVOK 21/11 Q1027=
201805280820 METAR ESMX 280820Z 07007KT 020V110 CAVOK 20/10 Q1027=
201805280750 METAR ESMX 280750Z 05007KT 020V090 CAVOK 19/10 Q1027=
201805280720 METAR ESMX 280720Z 07007KT 030V110 CAVOK 18/09 Q1027=
201805280650 METAR ESMX 280650Z 06007KT 030V090 CAVOK 17/08 Q1027=
201805280620 METAR ESMX 280620Z 07008KT 030V100 CAVOK 15/08 Q1027=
201805280550 METAR ESMX 280550Z 06008KT 030V100 CAVOK 15/07 Q1027=
201805280520 METAR ESMX 280520Z 06007KT 030V120 CAVOK 14/07 Q1027=
201805280450 METAR ESMX 280450Z 05006KT 020V080 CAVOK 14/07 Q1027=
201805280420 METAR ESMX 280420Z 05006KT 020V100 CAVOK 12/06 Q1027=
201805280350 METAR ESMX 280350Z 04008KT CAVOK 12/06 Q1027=
201805280320 METAR ESMX 280320Z 05005KT 020V090 CAVOK 11/05 Q1027=
201805280250 METAR ESMX 280250Z 05008KT 020V080 CAVOK 12/04 Q1027=
201805280220 METAR ESMX 280220Z AUTO 06006KT 020V110 9999 NCD 12/04 Q1028=
201805280150 METAR ESMX 280150Z AUTO 05007KT 9999 NCD 12/04 Q1028=
201805280120 METAR ESMX 280120Z AUTO 04008KT 9999 FEW080/// SCT170/// 13/04 Q1028=
201805280050 METAR ESMX 280050Z AUTO 06006KT 010V110 9999 BKN076/// 13/03 Q1028=
201805280020 METAR ESMX 280020Z AUTO 05007KT 020V080 9999 OVC061/// 13/03 Q1028=
201805272350 METAR ESMX 272350Z AUTO 05006KT 320V100 9999 FEW055/// BKN062/// 13/03 Q1028=
201805272320 METAR ESMX 272320Z AUTO 06005KT 020V100 9999 NCD 13/02 Q1028=
201805272250 METAR ESMX 272250Z AUTO 05008KT 030V090 9999 FEW066/// 13/03 Q1028=
201805272220 METAR ESMX 272220Z AUTO 04007KT 010V070 9999 NCD 14/03 Q1028=
201805272150 METAR ESMX 272150Z AUTO 05007KT 020V080 9999 BKN074/// OVC094/// 14/03 Q1028=
201805272120 METAR ESMX 272120Z AUTO 06007KT 020V100 9999 FEW055/// OVC066/// 15/03 Q1028=
201805272050 METAR ESMX 272050Z 06006KT 020V090 CAVOK 15/03 Q1028=
201805272020 METAR ESMX 272020Z 05007KT 020V100 CAVOK 16/03 Q1028=
201805271950 METAR ESMX 271950Z 05008KT 010V080 CAVOK 16/03 Q1028=
201805271920 METAR ESMX 271920Z 05007KT 010V080 CAVOK 17/03 Q1027=
201805271850 METAR ESMX 271850Z 06008KT 020V110 CAVOK 18/03 Q1027=
201805271820 METAR ESMX 271820Z 06008KT 020V100 CAVOK 18/04 Q1027=
201805271750 METAR ESMX 271750Z 06009KT 030V140 CAVOK 19/04 Q1027=
201805271720 METAR ESMX 271720Z 05010KT CAVOK 19/05 Q1027=
201805271650 METAR ESMX 271650Z 06007KT 030V110 CAVOK 19/06 Q1027=
201805271620 METAR ESMX 271620Z 06008KT 030V090 CAVOK 19/07 Q1027=
201805271550 METAR ESMX 271550Z 06006KT CAVOK 19/08 Q1027=
201805271520 METAR ESMX 271520Z 06007KT 030V110 CAVOK 20/08 Q1027=
201805271450 METAR COR ESMX 271450Z 06005KT 030V100 CAVOK 20/07 Q1027=
201805271420 METAR ESMX 271420Z 06006KT 020V100 9999 SCT049 BKN070 19/07 Q1027=
201805271350 METAR ESMX 271350Z 06007KT 030V090 9999 -RA FEW048 BKN070 19/07 Q1027=
201805271320 METAR ESMX 271320Z 07007KT 030V110 9999 -RA SCT050 BKN080 19/07 Q1028=
201805271250 METAR ESMX 271250Z 07005KT 030V110 9999 -RA FEW051 BKN080 18/09 Q1028=
201805271220 METAR ESMX 271220Z 06005KT 030V110 CAVOK 18/09 Q1028=
201805271150 METAR ESMX 271150Z 04007KT 010V070 CAVOK 18/08 Q1028=
201805271120 METAR ESMX 271120Z 05008KT CAVOK 18/09 Q1028=
201805271050 METAR ESMX 271050Z 04006KT 020V090 CAVOK 17/09 Q1028=
201805271020 METAR ESMX 271020Z 05007KT 020V080 9999 -RA FEW047 BKN051 16/06 Q1028=
201805270950 METAR ESMX 270950Z 05008KT 020V090 9999 SCT046 BKN080 17/07 Q1028=
201805270920 METAR ESMX 270920Z 04007KT 020V080 9999 SCT046 BKN090 17/10 Q1028=
201805270850 METAR ESMX 270850Z 05010KT 010V080 9999 SCT045 BKN090 17/11 Q1028=
201805270820 METAR ESMX 270820Z 05009KT CAVOK 17/12 Q1028=
201805270750 METAR ESMX 270750Z 04009KT 010V070 9999 FEW048 SCT064 17/14 Q1027=
201805270720 METAR ESMX 270720Z 04009KT CAVOK 16/13 Q1027=
201805270650 METAR ESMX 270650Z 03009KT 9999 SCT049 BKN062 15/13 Q1027=
201805270620 METAR ESMX 270620Z 03005KT 9999 BKN047 15/13 Q1027=
201805270550 METAR ESMX 270550Z 03006KT 9999 FEW048 BKN072 15/13 Q1027=
201805270520 METAR ESMX 270520Z 05006KT 020V100 9999 FEW002 BKN057 14/13 Q1027=
201805270450 METAR ESMX 270450Z 04007KT 020V080 9999 -RA BKN057 15/13 Q1027=
201805270420 METAR ESMX 270420Z 02007KT 9999 -DZ FEW048 BKN057 15/13 Q1027=
201805270350 METAR ESMX 270350Z 04007KT 9999 -RA FEW047 BKN061 15/13 Q1026=
201805270320 METAR ESMX 270320Z 05005KT 020V100 9999 -RA BKN061 15/13 Q1026=
201805270250 METAR ESMX 270250Z 04006KT 9999 -RA SCT044 BKN064 15/12 Q1026=
201805270220 METAR ESMX 270220Z AUTO 03005KT 350V060 9999 SCT047/// OVC066/// 15/12 Q1026=
201805270150 METAR ESMX 270150Z AUTO 01004KT 9999 BKN045/// OVC086/// 15/12 Q1026=
201805270120 METAR ESMX 270120Z AUTO 02005KT 9999 SCT042/// BKN051/// BKN074/// 15/12 Q1027=
201805270050 METAR ESMX 270050Z AUTO 03004KT 9999 SCT046/// BKN066/// OVC096/// 15/12 Q1027=
201805270020 METAR ESMX 270020Z AUTO 03005KT 9999 FEW046/// OVC070/// 14/11 Q1027=
201805262350 METAR ESMX 262350Z AUTO 03006KT 9999 FEW036/// BKN070/// 14/11 Q1027=
201805262320 METAR ESMX 262320Z AUTO 02006KT 9999 SCT034/// 14/11 Q1027=
201805262250 METAR ESMX 262250Z AUTO 03006KT 9999 BKN035/// 14/11 Q1027=
201805262220 METAR ESMX 262220Z AUTO 03005KT 9999 FEW044/// 14/11 Q1027=
201805262150 METAR ESMX 262150Z AUTO 06004KT 020V100 9999 NCD 15/11 Q1027=
201805262120 METAR ESMX 262120Z VRB03KT 9999 FEW040 16/12 Q1027=
201805262050 METAR ESMX 262050Z 04005KT 9999 BKN038 16/12 Q1027=
201805262020 METAR ESMX 262020Z 02004KT 9999 SCT039 BKN120 16/13 Q1027=
201805261950 METAR ESMX 261950Z 06004KT 030V090 9999 FEW042 BKN110 17/13 Q1026=
201805261920 METAR ESMX 261920Z 03004KT 010V070 9999 FEW040 BKN100 17/13 Q1026=
201805261850 METAR ESMX 261850Z 08004KT 020V120 9999 SCT038 BKN090 17/13 Q1026=
201805261820 METAR ESMX 261820Z 05006KT 020V090 9999 SCT041 BKN080 18/13 Q1026=
201805261750 METAR ESMX 261750Z 07005KT 030V100 9999 FEW032 SCT080 19/13 Q1026=
201805261720 METAR ESMX 261720Z 04004KT 010V100 9999 FEW025 SCT080 19/14 Q1026=
201805261650 METAR ESMX 261650Z 04005KT 010V080 9999 FEW022 BKN086 19/14 Q1026=
201805261620 METAR ESMX 261620Z AUTO 03007KT 9999 BKN068/// 18/14 Q1026=
201805261550 METAR ESMX 261550Z 03005KT 010V100 9999 SCT040 BKN090 18/14 Q1026=
201805261520 METAR ESMX 261520Z 05004KT 010V100 9999 SCT047 17/14 Q1026=
201805261450 METAR ESMX 261450Z 05005KT 020V100 9999 BKN045 17/15 Q1027=
201805261420 METAR ESMX 261420Z 04006KT 350V080 CAVOK 17/15 Q1027=
201805261350 METAR ESMX 261350Z 03005KT CAVOK 16/15 Q1027=
201805261320 METAR ESMX 261320Z 02006KT 9999 -RA FEW046 16/14 Q1027=
201805261250 METAR ESMX 261250Z 03006KT 9999 -RA FEW034 16/14 Q1027=
201805261220 METAR ESMX 261220Z 03006KT 9999 -RA FEW049CB 16/14 Q1027=
201805261150 METAR ESMX 261150Z 03006KT 9999 -RA BKN074CB 16/13 Q1028=
201805261120 METAR ESMX 261120Z 03007KT 9999 RA BKN080CB 16/13 Q1028=
201805261050 METAR ESMX 261050Z 02009KT 9999 -RA VCSH FEW082CB 16/13 Q1027=
201805261020 METAR ESMX 261020Z 01006KT 330V030 9999 VCSH BKN080CB 16/13 Q1027=
201805260950 METAR ESMX 260950Z 02004KT 350V060 9999 -SHRA FEW009 BKN053CB 15/13 Q1028=
201805260920 METAR ESMX 260920Z VRB03KT 6000 RA BKN053CB 14/12 Q1028=
201805260850 METAR ESMX 260850Z 10006KT 020V200 9999 VCSH BKN053CB 17/09 Q1028=
201805260820 METAR ESMX 260820Z 04006KT 010V110 CAVOK 18/08 Q1027=
201805260750 METAR ESMX 260750Z 03007KT CAVOK 18/07 Q1026=
201805260720 METAR ESMX 260720Z 03008KT 360V060 CAVOK 18/06 Q1026=
201805260650 METAR ESMX 260650Z 03010KT CAVOK 19/08 Q1026=
201805260620 METAR ESMX 260620Z 36007KT CAVOK 18/08 Q1026=
201805260550 METAR ESMX 260550Z 01007KT CAVOK 17/08 Q1026=
201805260520 METAR ESMX 260520Z 02004KT 350V070 CAVOK 16/08 Q1026=
201805260450 METAR ESMX 260450Z 02008KT CAVOK 15/08 Q1026=
201805260420 METAR ESMX 260420Z 02006KT CAVOK 14/09 Q1026=
201805260350 METAR ESMX 260350Z 03006KT CAVOK 13/09 Q1026=
201805260320 METAR ESMX 260320Z 01005KT CAVOK 13/08 Q1027=
201805260250 METAR ESMX 260250Z 03005KT CAVOK 12/08 Q1027=
201805260220 METAR ESMX 260220Z AUTO 02005KT 9999 NCD 13/08 Q1027=
201805260150 METAR ESMX 260150Z AUTO 04004KT 010V080 9999 NCD 13/08 Q1027=
201805260120 METAR ESMX 260120Z AUTO 05004KT 9999 NCD 14/08 Q1027=
201805260050 METAR ESMX 260050Z AUTO 06004KT 9999 NCD 14/08 Q1027=
201805260020 METAR ESMX 260020Z AUTO 04004KT 9999 NCD 14/08 Q1027=
201805252350 METAR ESMX 252350Z AUTO 04005KT 9999 NCD 13/08 Q1027=
201805252320 METAR ESMX 252320Z AUTO 03004KT 9999 NCD 12/08 Q1027=
201805252250 METAR ESMX 252250Z AUTO VRB02KT 9999 NCD 11/07 Q1027=
201805252220 METAR ESMX 252220Z AUTO 07004KT 040V110 9999 NCD 14/08 Q1027=
201805252150 METAR ESMX 252150Z AUTO 06003KT 9999 NCD 14/08 Q1027=
201805252120 METAR ESMX 252120Z 08003KT 050V110 CAVOK 16/07 Q1027=
201805252050 METAR ESMX 252050Z 09003KT 050V140 CAVOK 16/08 Q1027=
201805252020 METAR ESMX 252020Z VRB03KT CAVOK 17/08 Q1027=
201805251950 METAR ESMX 251950Z 07003KT 050V130 CAVOK 18/08 Q1027=
201805251920 METAR ESMX 251920Z 08003KT 040V130 CAVOK 19/08 Q1026=
201805251850 METAR ESMX 251850Z 07004KT 020V140 CAVOK 20/08 Q1026=
201805251820 METAR ESMX 251820Z 08004KT 040V120 CAVOK 21/07 Q1026=
201805251750 METAR ESMX 251750Z 07006KT 030V110 CAVOK 22/08 Q1026=
201805251720 METAR ESMX 251720Z 08007KT 030V120 CAVOK 22/07 Q1026=
201805251650 METAR ESMX 251650Z 05006KT 020V100 CAVOK 22/06 Q1026=
201805251620 METAR ESMX 251620Z 07005KT 030V120 CAVOK 23/05 Q1026=
201805251550 METAR ESMX 251550Z 06008KT CAVOK 23/04 Q1026=
201805251520 METAR ESMX 251520Z 08007KT 010V120 CAVOK 23/04 Q1026=
201805251450 METAR ESMX 251450Z 08008KT 020V120 CAVOK 24/05 Q1026=
201805251420 METAR ESMX 251420Z 10007KT 050V150 CAVOK 23/06 Q1026=
201805251350 METAR ESMX 251350Z 06008G19KT 020V100 CAVOK 24/07 Q1026=
201805251320 METAR ESMX 251320Z 06009KT 030V120 CAVOK 24/06 Q1026=
201805251250 METAR ESMX 251250Z 07009KT 030V100 CAVOK 24/06 Q1026=
201805251220 METAR ESMX 251220Z 06007KT 010V110 CAVOK 24/06 Q1026=
201805251150 METAR ESMX 251150Z 06008KT 360V120 CAVOK 23/05 Q1026=
201805251120 METAR ESMX 251120Z 07007KT 020V120 CAVOK 23/05 Q1027=
201805251050 METAR ESMX 251050Z 04009KT 010V070 CAVOK 23/03 Q1027=
201805251020 METAR ESMX 251020Z 05007KT 350V130 CAVOK 22/01 Q1027=
201805250950 METAR ESMX 250950Z 05008KT 010V080 CAVOK 22/M02 Q1027=
201805250920 METAR ESMX 250920Z 05007KT 010V100 CAVOK 21/M02 Q1027=
201805250850 METAR COR ESMX 250850Z 05008KT 360V080 CAVOK 20/M00 Q1028=
201805250820 METAR ESMX 250820Z 04008KT 010V070 CAVOK 19/M02 Q1028=
201805250750 METAR ESMX 250750Z 05008KT 020V080 CAVOK 18/M03 Q1028=
201805250720 METAR ESMX 250720Z 05008KT 020V080 CAVOK 17/M04 Q1028=
201805250650 METAR ESMX 250650Z 04007KT CAVOK 16/M03 Q1028=
201805250620 METAR ESMX 250620Z 05007KT 020V090 CAVOK 16/M05 Q1028=
201805250550 METAR ESMX 250550Z 04006KT 350V080 CAVOK 15/M03 Q1028=
201805250520 METAR ESMX 250520Z 04007KT CAVOK 14/M00 Q1028=
201805250450 METAR ESMX 250450Z 04006KT CAVOK 14/02 Q1028=
201805250420 METAR ESMX 250420Z 02005KT CAVOK 13/06 Q1028=
201805250350 METAR ESMX 250350Z 36004KT CAVOK 10/05 Q1028=
201805250320 METAR ESMX 250320Z AUTO VRB01KT 9999 NCD 06/05 Q1028=
201805250250 METAR ESMX 250250Z AUTO 00000KT 9999 NCD 05/03 Q1028=
201805250220 METAR ESMX 250220Z AUTO 00000KT 9999 NCD 06/03 Q1028=
201805250150 METAR ESMX 250150Z AUTO 16001KT 9999 NCD 06/03 Q1028=
201805250120 METAR ESMX 250120Z AUTO 17001KT 9999 NCD 06/03 Q1028=
201805250050 METAR ESMX 250050Z AUTO VRB01KT 9999 NCD 06/04 Q1028=
201805250020 METAR ESMX 250020Z AUTO 00000KT 9999 NCD 07/03 Q1028=
201805242350 METAR ESMX 242350Z AUTO 18002KT 9999 NCD 08/04 Q1028=
201805242320 METAR ESMX 242320Z AUTO 00000KT 9999 NCD 09/04 Q1028=
201805242250 METAR ESMX 242250Z AUTO VRB01KT 9999 NCD 10/04 Q1028=
201805242220 METAR ESMX 242220Z AUTO 07004KT 9999 NCD 10/04 Q1028=
201805242150 METAR ESMX 242150Z AUTO VRB03KT 9999 NCD 15/04 Q1029=
201805242120 METAR ESMX 242120Z AUTO 08004KT 050V110 9999 NCD 14/04 Q1029=
201805242050 METAR ESMX 242050Z AUTO 08004KT 050V120 9999 NCD 16/05 Q1028=
201805242020 METAR ESMX 242020Z 08003KT CAVOK 16/05 Q1028=
201805241950 METAR ESMX 241950Z 10003KT CAVOK 18/05 Q1028=
201805241920 METAR ESMX 241920Z VRB03KT CAVOK 20/04 Q1028=
201805241850 METAR ESMX 241850Z 09003KT 050V140 CAVOK 21/04 Q1028=
201805241820 METAR ESMX 241820Z 08005KT 030V120 CAVOK 22/03 Q1028=
201805241750 METAR ESMX 241750Z 10005KT 060V140 CAVOK 23/04 Q1027=
201805241720 METAR ESMX 241720Z 07006KT 020V110 CAVOK 24/03 Q1027=
201805241650 METAR ESMX 241650Z 08005KT 020V120 CAVOK 24/04 Q1027=
201805241620 METAR ESMX 241620Z 06006KT 030V110 CAVOK 24/03 Q1027=
201805241550 METAR ESMX 241550Z 06006KT 020V140 CAVOK 24/03 Q1028=
201805241520 METAR ESMX 241520Z 08006KT 010V130 CAVOK 25/02 Q1028=
201805241450 METAR ESMX 241450Z 07008KT 020V120 CAVOK 25/02 Q1028=
201805241420 METAR ESMX 241420Z 10007KT 050V160 CAVOK 25/02 Q1028=
201805241350 METAR ESMX 241350Z 11008KT 050V170 CAVOK 25/02 Q1028=
201805241320 METAR ESMX 241320Z 10007KT 040V160 CAVOK 25/03 Q1028=
201805241250 METAR ESMX 241250Z 11007KT 060V160 CAVOK 25/02 Q1029=
201805241220 METAR ESMX 241220Z 12008KT 050V210 CAVOK 25/03 Q1029=
201805241150 METAR ESMX 241150Z 05010KT 020V080 CAVOK 25/04 Q1029=
201805241120 METAR ESMX 241120Z 06007KT 030V110 CAVOK 24/04 Q1029=
201805241050 METAR ESMX 241050Z 06007KT 010V120 CAVOK 24/04 Q1029=
201805241020 METAR ESMX 241020Z 06007KT 010V120 CAVOK 24/05 Q1030=
201805240950 METAR ESMX 240950Z 05008KT 020V090 CAVOK 23/06 Q1030=
201805240920 METAR ESMX 240920Z 04007KT 010V080 CAVOK 22/08 Q1030=
201805240850 METAR ESMX 240850Z 04007KT 010V090 CAVOK 22/08 Q1030=
201805240820 METAR ESMX 240820Z 34005KT 270V010 CAVOK 20/09 Q1030=
201805240750 METAR ESMX 240750Z 04005KT 010V140 CAVOK 19/08 Q1030=
201805240720 METAR ESMX 240720Z 05004KT 360V100 CAVOK 19/08 Q1030=
201805240650 METAR ESMX 240650Z 05004KT 360V140 CAVOK 18/08 Q1030=
201805240620 METAR ESMX 240620Z 05004KT 010V100 CAVOK 17/08 Q1030=
201805240550 METAR ESMX 240550Z 05003KT 010V100 CAVOK 16/07 Q1030=
201805240520 METAR ESMX 240520Z 08004KT 020V110 CAVOK 15/07 Q1030=
201805240450 METAR ESMX 240450Z 06003KT 010V100 CAVOK 15/07 Q1030=
201805240420 METAR ESMX 240420Z 05004KT 010V070 CAVOK 14/07 Q1030=
201805240350 METAR ESMX 240350Z 03002KT CAVOK 10/07 Q1030=
201805240320 METAR ESMX 240320Z AUTO 03003KT 9999 NCD 09/07 Q1029=
201805240250 METAR ESMX 240250Z AUTO 02002KT 9999 NCD 09/06 Q1029=
201805240220 METAR ESMX 240220Z AUTO VRB03KT 9999 NCD 12/08 Q1029=
201805240150 METAR ESMX 240150Z AUTO VRB03KT 9999 NCD 12/08 Q1029=
201805240120 METAR ESMX 240120Z AUTO 07003KT 020V140 9999 NCD 12/08 Q1029=
201805240050 METAR ESMX 240050Z AUTO 03003KT 350V060 9999 NCD 10/07 Q1029=
201805240020 METAR ESMX 240020Z AUTO 00000KT 9999 NCD 09/07 Q1028=
201805232350 METAR ESMX 232350Z AUTO 18002KT 9999 NCD 08/06 Q1028=
201805232320 METAR ESMX 232320Z AUTO 17002KT 9999 NCD 09/07 Q1028=
201805232250 METAR ESMX 232250Z AUTO 15001KT 9999 NCD 10/07 Q1028=
201805232220 METAR ESMX 232220Z AUTO 00000KT 9999 NCD 11/07 Q1028=
201805232150 METAR ESMX 232150Z 14003KT CAVOK 11/07 Q1027=
201805232120 METAR ESMX 232120Z 15002KT CAVOK 13/07 Q1027=
201805232050 METAR ESMX 232050Z 19004KT CAVOK 14/07 Q1027=
201805232020 METAR ESMX 232020Z 17004KT CAVOK 18/07 Q1027=
201805231950 METAR ESMX 231950Z 17005KT CAVOK 19/07 Q1026=
201805231920 METAR ESMX 231920Z 18006KT CAVOK 18/08 Q1026=
201805231850 METAR ESMX 231850Z 17006KT CAVOK 21/08 Q1026=
201805231820 METAR ESMX 231820Z 15006KT CAVOK 22/08 Q1025=
201805231750 METAR ESMX 231750Z 19007KT CAVOK 22/08 Q1025=
201805231720 METAR ESMX 231720Z 18007KT 140V200 CAVOK 22/08 Q1025=
201805231650 METAR ESMX 231650Z 01005KT CAVOK 25/04 Q1025=
201805231620 METAR ESMX 231620Z VRB02KT CAVOK 24/04 Q1025=
201805231550 METAR ESMX 231550Z 07005KT 360V160 CAVOK 25/03 Q1024=
201805231520 METAR ESMX 231520Z VRB04KT CAVOK 25/03 Q1024=
201805231450 METAR ESMX 231450Z 02004KT 330V130 CAVOK 25/02 Q1024=
201805231420 METAR ESMX 231420Z VRB05KT CAVOK 25/05 Q1024=
201805231350 METAR ESMX 231350Z VRB05KT CAVOK 25/03 Q1024=
201805231320 METAR ESMX 231320Z 36007KT 330V050 CAVOK 25/03 Q1024=
201805231250 METAR ESMX 231250Z 07004KT 360V150 CAVOK 24/03 Q1024=
201805231220 METAR ESMX 231220Z 02006KT 320V090 CAVOK 24/03 Q1024=
201805231150 METAR ESMX 231150Z 01005KT 310V060 CAVOK 24/05 Q1024=
201805231120 METAR ESMX 231120Z 04008KT 010V070 CAVOK 24/04 Q1024=
201805231050 METAR ESMX 231050Z 36007KT CAVOK 23/04 Q1024=
201805231020 METAR ESMX 231020Z 03006KT 350V070 CAVOK 23/03 Q1024=
201805230950 METAR ESMX 230950Z 01006KT 320V080 CAVOK 23/06 Q1024=
201805230920 METAR ESMX 230920Z 01008KT 330V040 CAVOK 23/05 Q1024=
201805230850 METAR ESMX 230850Z 01005KT 310V060 CAVOK 22/08 Q1023=
201805230820 METAR ESMX 230820Z 05004KT 020V080 CAVOK 21/09 Q1023=
201805230750 METAR ESMX 230750Z 04005KT 350V110 CAVOK 20/09 Q1023=
201805230720 METAR ESMX 230720Z 03004KT 350V060 CAVOK 19/09 Q1023=
201805230650 METAR ESMX 230650Z VRB03KT CAVOK 18/10 Q1022=
201805230620 METAR ESMX 230620Z VRB02KT CAVOK 16/10 Q1022=
201805230550 METAR ESMX 230550Z VRB02KT CAVOK 16/10 Q1022=
201805230520 METAR ESMX 230520Z 36003KT CAVOK 14/10 Q1021=
201805230450 METAR ESMX 230450Z VRB01KT CAVOK 13/09 Q1021=
201805230420 METAR ESMX 230420Z 00000KT CAVOK 10/08 Q1021=
201805230350 METAR ESMX 230350Z AUTO 16002KT 9999 NCD 07/06 Q1021=
201805230320 METAR ESMX 230320Z AUTO 19001KT 9999 NCD 05/04 Q1021=
201805230250 METAR ESMX 230250Z AUTO 00000KT 9999 NCD 05/04 Q1020=
201805230220 METAR ESMX 230220Z AUTO 00000KT 9999 NCD 05/04 Q1020=
201805230150 METAR ESMX 230150Z AUTO 23001KT 9999 NCD 05/03 Q1020=
201805230120 METAR ESMX 230120Z AUTO VRB01KT 9999 NCD 06/04 Q1020=
201805230050 METAR ESMX 230050Z AUTO VRB01KT 9999 NCD 09/07 Q1020=
201805230020 METAR ESMX 230020Z AUTO VRB01KT 9999 NCD 09/07 Q1019=
201805222350 METAR ESMX 222350Z AUTO 16004KT 9999 NCD 10/06 Q1020=
201805222320 METAR ESMX 222320Z AUTO 15004KT 9999 NCD 12/07 Q1019=
201805222250 METAR ESMX 222250Z AUTO 17005KT 9999 NCD 13/06 Q1019=
201805222220 METAR ESMX 222220Z AUTO 17005KT 9999 NCD 14/07 Q1019=
201805222150 METAR ESMX 222150Z AUTO 18005KT 9999 NCD 12/06 Q1019=
201805222120 METAR ESMX 222120Z AUTO 17005KT 9999 NCD 15/06 Q1019=
201805222050 METAR ESMX 222050Z AUTO 17004KT 9999 NCD 15/07 Q1019=
201805222020 METAR ESMX 222020Z 18006KT CAVOK 16/06 Q1019=
201805221950 METAR ESMX 221950Z 15004KT CAVOK 16/07 Q1018=
201805221920 METAR ESMX 221920Z 18003KT CAVOK 16/08 Q1018=
201805221850 METAR ESMX 221850Z AUTO 16003KT 9999 BKN086/// 19/06 Q1018=
201805221820 METAR ESMX 221820Z 17004KT 9999 SCT086 20/06 Q1018=
201805221750 METAR ESMX 221750Z 15006KT CAVOK 20/07 Q1018=
201805221720 METAR ESMX 221720Z 15007KT CAVOK 20/07 Q1018=
201805221650 METAR ESMX 221650Z 16006KT CAVOK 21/06 Q1018=
201805221620 METAR ESMX 221620Z 13004KT 100V170 CAVOK 21/05 Q1017=
201805221550 METAR ESMX 221550Z 16004KT 120V190 CAVOK 21/05 Q1017=
201805221520 METAR ESMX 221520Z 17006KT 120V200 CAVOK 22/05 Q1017=
201805221450 METAR ESMX 221450Z VRB03KT CAVOK 23/04 Q1017=
201805221420 METAR ESMX 221420Z 20005KT 140V230 CAVOK 23/05 Q1018=
201805221350 METAR ESMX 221350Z 18004KT 100V210 CAVOK 21/04 Q1018=
201805221320 METAR ESMX 221320Z 13005KT 070V190 CAVOK 22/04 Q1018=
201805221250 METAR ESMX 221250Z 15005KT 120V190 CAVOK 21/04 Q1018=
201805221220 METAR ESMX 221220Z VRB04KT CAVOK 22/04 Q1018=
201805221150 METAR ESMX 221150Z VRB04KT CAVOK 22/04 Q1018=
201805221120 METAR ESMX 221120Z VRB05KT CAVOK 22/04 Q1018=
201805221050 METAR ESMX 221050Z 09004KT 050V130 CAVOK 21/03 Q1019=
201805221020 METAR ESMX 221020Z 06005KT 020V110 CAVOK 22/03 Q1019=
201805220950 METAR ESMX 220950Z 07006KT 020V120 CAVOK 22/03 Q1019=
201805220920 METAR ESMX 220920Z VRB06KT CAVOK 21/04 Q1019=
201805220850 METAR ESMX 220850Z VRB08KT CAVOK 21/04 Q1019=
201805220820 METAR ESMX 220820Z 03008KT CAVOK 21/04 Q1020=
201805220750 METAR ESMX 220750Z 34006KT 300V360 CAVOK 20/07 Q1020=
201805220720 METAR ESMX 220720Z 03005KT 350V060 CAVOK 18/07 Q1020=
201805220650 METAR ESMX 220650Z 04004KT 010V080 CAVOK 18/07 Q1020=
201805220620 METAR ESMX 220620Z 35005KT CAVOK 16/07 Q1020=
201805220550 METAR ESMX 220550Z 35005KT CAVOK 15/07 Q1020=
201805220520 METAR ESMX 220520Z 35005KT CAVOK 14/08 Q1021=
201805220450 METAR ESMX 220450Z 36004KT CAVOK 14/07 Q1021=
201805220420 METAR ESMX 220420Z 02003KT CAVOK 11/07 Q1021=
201805220350 METAR ESMX 220350Z 01003KT CAVOK 07/04 Q1021=
201805220320 METAR ESMX 220320Z AUTO VRB01KT 9999 NCD 05/03 Q1021=
201805220250 METAR ESMX 220250Z AUTO VRB02KT 9999 NCD 04/02 Q1021=
201805220220 METAR ESMX 220220Z AUTO VRB02KT 9999 NCD 05/02 Q1022=
201805220150 METAR ESMX 220150Z AUTO 00000KT 9999 NCD 04/01 Q1022=
201805220120 METAR ESMX 220120Z AUTO 06002KT 9999 NCD 04/02 Q1022=
201805220050 METAR ESMX 220050Z AUTO 16002KT 9999 NCD 06/03 Q1022=
201805220020 METAR ESMX 220020Z AUTO 07001KT 9999 NCD 06/03 Q1022=
201805212350 METAR ESMX 212350Z AUTO VRB02KT 9999 NCD 06/03 Q1022=
201805212320 METAR ESMX 212320Z AUTO 08002KT 9999 NCD 06/03 Q1022=
201805212250 METAR ESMX 212250Z AUTO VRB01KT 9999 NCD 07/03 Q1023=
201805212220 METAR ESMX 212220Z AUTO 06003KT 9999 NCD 08/03 Q1023=
201805212150 METAR ESMX 212150Z AUTO 09002KT 9999 NCD 12/04 Q1023=
201805212120 METAR ESMX 212120Z AUTO VRB02KT 9999 NCD 13/04 Q1023=
201805212050 METAR ESMX 212050Z AUTO VRB02KT 9999 NCD 14/04 Q1023=
201805212020 METAR ESMX 212020Z 12003KT 070V170 CAVOK 16/03 Q1024=
201805211950 METAR ESMX 211950Z 13003KT 080V160 CAVOK 17/04 Q1024=
201805211920 METAR ESMX 211920Z 13004KT 100V160 CAVOK 17/04 Q1024=
201805211850 METAR ESMX 211850Z 14008KT CAVOK 19/03 Q1024=
201805211820 METAR ESMX 211820Z 14009KT CAVOK 19/03 Q1024=
201805211750 METAR COR ESMX 211750Z 14005KT CAVOK 20/04 Q1024=
201805211720 METAR ESMX 211720Z VRB03KT CAVOK 21/05 Q1024=
201805211650 METAR ESMX 211650Z VRB02KT CAVOK 21/03 Q1024=
201805211620 METAR ESMX 211620Z 16004KT 090V200 CAVOK 21/03 Q1024=
201805211550 METAR ESMX 211550Z 34004KT 290V030 CAVOK 22/04 Q1024=
201805211520 METAR COR ESMX 211520Z 34004KT 300V020 CAVOK 22/04 Q1025=
201805211450 METAR ESMX 211450Z 18004KT 120V240 CAVOK 22/04 Q1025=
201805211420 METAR ESMX 211420Z VRB03KT CAVOK 22/03 Q1026=
201805211350 METAR ESMX 211350Z VRB03KT CAVOK 21/03 Q1026=
201805211320 METAR ESMX 211320Z 16005KT 080V210 CAVOK 21/04 Q1026=
201805211250 METAR ESMX 211250Z 18005KT 110V210 CAVOK 21/03 Q1027=
201805211220 METAR ESMX 211220Z 18005KT 120V240 CAVOK 21/05 Q1027=
201805211150 METAR ESMX 211150Z 17005KT 080V210 CAVOK 20/03 Q1027=
201805211120 METAR ESMX 211120Z 14005KT 070V190 CAVOK 20/03 Q1028=
201805211050 METAR ESMX 211050Z 14006KT 100V170 CAVOK 20/03 Q1028=
201805211020 METAR ESMX 211020Z 17005KT 100V230 CAVOK 20/02 Q1028=
201805210950 METAR ESMX 210950Z 16004KT 120V210 CAVOK 20/03 Q1028=
201805210920 METAR ESMX 210920Z 17004KT 120V210 CAVOK 19/04 Q1029=
201805210850 METAR ESMX 210850Z 17004KT 130V190 CAVOK 18/03 Q1029=
201805210820 METAR ESMX 210820Z VRB02KT CAVOK 17/02 Q1029=
201805210750 METAR ESMX 210750Z VRB02KT CAVOK 17/02 Q1029=
201805210720 METAR ESMX 210720Z VRB02KT CAVOK 15/03 Q1029=
201805210650 METAR ESMX 210650Z VRB03KT CAVOK 14/05 Q1029=
201805210620 METAR ESMX 210620Z VRB03KT CAVOK 13/07 Q1029=
201805210550 METAR ESMX 210550Z VRB02KT CAVOK 13/09 Q1029=
201805210520 METAR ESMX 210520Z VRB01KT CAVOK 12/09 Q1029=
201805210450 METAR ESMX 210450Z 00000KT CAVOK 10/09 Q1029=
201805210420 METAR ESMX 210420Z 00000KT CAVOK 05/04 Q1029=
201805210350 METAR ESMX 210350Z 00000KT CAVOK 04/03 Q1029=
201805210320 METAR ESMX 210320Z AUTO 00000KT 9999 NCD 03/02 Q1029=
201805210250 METAR ESMX 210250Z AUTO 00000KT 9999 NCD 02/00 Q1029=
201805210220 METAR ESMX 210220Z AUTO 17002KT 9999 NCD 03/02 Q1029=
201805210150 METAR ESMX 210150Z AUTO VRB01KT 9999 NCD 04/02 Q1029=
201805210120 METAR ESMX 210120Z AUTO 00000KT 9999 NCD 03/00 Q1029=
201805210050 METAR ESMX 210050Z AUTO VRB01KT 9999 NCD 04/01 Q1029=
201805210020 METAR ESMX 210020Z AUTO 16001KT 9999 NCD 04/02 Q1029=
201805202350 METAR ESMX 202350Z AUTO 19002KT 9999 NCD 05/02 Q1029=
201805202320 METAR ESMX 202320Z AUTO 16002KT 9999 NCD 06/02 Q1029=
201805202250 METAR ESMX 202250Z AUTO 17002KT 9999 NCD 07/01 Q1029=
201805202220 METAR ESMX 202220Z AUTO 00000KT 9999 NCD 08/02 Q1029=
201805202150 METAR ESMX 202150Z AUTO 17003KT 9999 NCD 09/02 Q1028=
201805202120 METAR ESMX 202120Z AUTO 16004KT 9999 NCD 09/02 Q1028=
201805202050 METAR ESMX 202050Z AUTO 17004KT 9999 NCD 10/02 Q1028=
201805202020 METAR ESMX 202020Z AUTO 17004KT 9999 NCD 13/02 Q1028=
201805201950 METAR ESMX 201950Z 17004KT CAVOK 13/03 Q1028=
201805201920 METAR COR ESMX 201920Z 18004KT CAVOK 13/03 Q1028=
201805201850 METAR ESMX 201850Z 18006KT CAVOK 17/02 Q1028=
201805201820 METAR ESMX 201820Z 17008KT CAVOK 18/02 Q1028=
201805201750 METAR ESMX 201750Z 16009KT CAVOK 19/01 Q1028=
201805201720 METAR ESMX 201720Z 16009KT CAVOK 19/01 Q1028=
201805201650 METAR ESMX 201650Z 17010KT CAVOK 20/01 Q1028=
201805201620 METAR ESMX 201620Z 17012KT CAVOK 20/01 Q1028=
201805201550 METAR ESMX 201550Z 18010KT CAVOK 21/01 Q1028=
201805201520 METAR ESMX 201520Z 17010KT CAVOK 21/01 Q1028=
201805201450 METAR ESMX 201450Z 18010KT 130V210 CAVOK 21/01 Q1028=
201805201420 METAR ESMX 201420Z 17009KT 140V200 CAVOK 22/02 Q1028=
201805201350 METAR ESMX 201350Z VRB06KT CAVOK 22/02 Q1028=
201805201320 METAR ESMX 201320Z 14007KT 100V190 CAVOK 21/00 Q1028=
201805201250 METAR ESMX 201250Z 14007KT 090V200 CAVOK 22/M01 Q1028=
201805201220 METAR ESMX 201220Z 16007KT 120V210 CAVOK 22/M01 Q1028=
201805201150 METAR ESMX 201150Z 17008KT 120V200 CAVOK 22/M01 Q1028=
201805201120 METAR ESMX 201120Z 17006KT 100V210 CAVOK 21/M01 Q1028=
201805201050 METAR ESMX 201050Z 16006KT 050V200 CAVOK 21/M00 Q1028=
201805201020 METAR ESMX 201020Z 14004KT 070V220 CAVOK 21/M02 Q1028=
201805200950 METAR ESMX 200950Z AUTO 15006KT 110V210 9999 NCD 21/M02 Q1028=
201805200920 METAR ESMX 200920Z AUTO 19005KT 130V230 9999 NCD 20/00 Q1028=
201805200850 METAR ESMX 200850Z AUTO VRB04KT 9999 NCD 19/02 Q1028=
201805200820 METAR ESMX 200820Z 10003KT 060V170 CAVOK 18/04 Q1028=
201805200750 METAR ESMX 200750Z 09003KT 030V170 CAVOK 18/03 Q1028=
201805200720 METAR ESMX 200720Z VRB03KT CAVOK 17/03 Q1028=
201805200650 METAR ESMX 200650Z VRB02KT CAVOK 16/05 Q1028=
201805200620 METAR ESMX 200620Z VRB02KT CAVOK 15/08 Q1028=
201805200550 METAR ESMX 200550Z AUTO VRB02KT 9999 NCD 15/08 Q1028=
201805200520 METAR ESMX 200520Z AUTO 00000KT 9999 NCD 14/06 Q1027=
201805200450 METAR ESMX 200450Z AUTO 00000KT 9999 NCD 12/05 Q1027=
201805200420 METAR ESMX 200420Z AUTO 18001KT 9999 NCD 09/04 Q1027=
201805200350 METAR ESMX 200350Z AUTO 16001KT 9999 NCD 04/02 Q1027=
201805200320 METAR ESMX 200320Z AUTO 16002KT 9999 NCD 04/01 Q1027=
201805200250 METAR ESMX 200250Z AUTO VRB01KT 9999 NCD 03/00 Q1027=
201805200220 METAR ESMX 200220Z AUTO 19001KT 9999 NCD 03/M00 Q1027=
201805200150 METAR ESMX 200150Z AUTO 18001KT 9999 NCD 03/00 Q1026=
201805200120 METAR ESMX 200120Z AUTO 00000KT 9999 NCD 06/01 Q1026=
201805200050 METAR ESMX 200050Z AUTO 17003KT 9999 NCD 08/00 Q1026=
201805200020 METAR ESMX 200020Z AUTO 17003KT 9999 NCD 08/M00 Q1026=
201805192350 METAR ESMX 192350Z AUTO 16004KT 9999 NCD 07/00 Q1026=
201805192320 METAR ESMX 192320Z AUTO 16005KT 9999 NCD 11/01 Q1026=
201805192250 METAR ESMX 192250Z AUTO 16005KT 9999 NCD 12/00 Q1026=
201805192220 METAR ESMX 192220Z AUTO 16007KT 9999 NCD 12/M00 Q1026=
201805192150 METAR ESMX 192150Z 14007KT CAVOK 12/00 Q1025=
201805192120 METAR ESMX 192120Z 15007KT CAVOK 12/02 Q1025=
201805192050 METAR ESMX 192050Z 15007KT 120V190 CAVOK 13/02 Q1025=
201805192020 METAR ESMX 192020Z 15008KT 110V170 CAVOK 13/02 Q1025=
201805191950 METAR ESMX 191950Z 14008KT CAVOK 14/02 Q1024=
201805191920 METAR ESMX 191920Z 14009KT CAVOK 15/02 Q1024=
201805191850 METAR ESMX 191850Z 14008KT 100V170 CAVOK 16/03 Q1023=
201805191820 METAR ESMX 191820Z 13009KT CAVOK 17/03 Q1023=
201805191750 METAR ESMX 191750Z VRB02G13KT CAVOK 19/02 Q1023=
201805191720 METAR ESMX 191720Z 35003KT CAVOK 20/01 Q1023=
201805191650 METAR ESMX 191650Z VRB03KT CAVOK 20/01 Q1023=
201805191620 METAR ESMX 191620Z 07004KT 040V120 CAVOK 20/01 Q1023=
201805191550 METAR ESMX 191550Z 03004KT 320V110 CAVOK 20/01 Q1023=
201805191520 METAR ESMX 191520Z 06004KT 360V110 CAVOK 20/01 Q1023=
201805191450 METAR ESMX 191450Z 29004KT 260V030 CAVOK 20/00 Q1023=
201805191420 METAR ESMX 191420Z AUTO 28004KT 240V330 9999 NCD 20/00 Q1023=
201805191350 METAR ESMX 191350Z AUTO 36004KT 280V070 9999 NCD 20/M00 Q1023=
201805191320 METAR ESMX 191320Z AUTO 30005KT 230V350 9999 NCD 20/M00 Q1023=
201805191250 METAR ESMX 191250Z AUTO 01005KT 330V080 9999 NCD 20/M01 Q1023=
201805191220 METAR ESMX 191220Z AUTO 33007KT 290V010 9999 NCD 19/01 Q1023=
201805191150 METAR ESMX 191150Z AUTO VRB04KT 9999 NCD 19/M00 Q1023=
201805191120 METAR ESMX 191120Z AUTO 35005KT 260V030 9999 NCD 19/02 Q1023=
201805191050 METAR ESMX 191050Z AUTO 04007KT 010V070 9999 NCD 19/01 Q1023=
201805191020 METAR ESMX 191020Z AUTO VRB04KT 9999 NCD 18/02 Q1023=
201805190950 METAR ESMX 190950Z AUTO 05004KT 340V110 9999 NCD 17/02 Q1023=
201805190920 METAR ESMX 190920Z AUTO 08004KT 020V200 9999 NCD 17/03 Q1024=
201805190850 METAR ESMX 190850Z VRB03KT CAVOK 17/05 Q1024=
201805190820 METAR ESMX 190820Z 25003KT 150V320 CAVOK 16/03 Q1024=
201805190750 METAR ESMX 190750Z 23003KT 190V310 CAVOK 16/03 Q1023=
201805190720 METAR ESMX 190720Z 23005KT 190V280 CAVOK 15/01 Q1023=
201805190650 METAR ESMX 190650Z AUTO 19005KT 150V220 9999 NCD 15/03 Q1023=
201805190620 METAR ESMX 190620Z AUTO VRB03KT 9999 NCD 14/03 Q1023=
201805190550 METAR ESMX 190550Z AUTO VRB02KT 9999 NCD 13/03 Q1023=
201805190520 METAR ESMX 190520Z AUTO VRB01KT 9999 NCD 13/04 Q1023=
201805190450 METAR ESMX 190450Z AUTO 00000KT 9999 NCD 11/04 Q1023=
201805190420 METAR ESMX 190420Z AUTO VRB01KT 9999 NCD 08/05 Q1022=
201805190350 METAR ESMX 190350Z AUTO VRB01KT 9999 NCD 05/04 Q1022=
201805190320 METAR ESMX 190320Z AUTO 00000KT 9999 NCD 05/04 Q1022=
201805190250 METAR ESMX 190250Z AUTO VRB01KT 9999 NCD 06/04 Q1022=
201805190220 METAR ESMX 190220Z AUTO 20005KT 9999 NCD 07/04 Q1022=
201805190150 METAR ESMX 190150Z AUTO 22003KT 9999 SCT043/// 06/05 Q1022=
201805190120 METAR ESMX 190120Z AUTO 25002KT 9999 OVC038/// 06/04 Q1022=
201805190050 METAR ESMX 190050Z AUTO VRB01KT 9999 NCD 04/03 Q1022=
201805190020 METAR ESMX 190020Z AUTO 00000KT 9999 NCD 05/03 Q1022=
201805182350 METAR ESMX 182350Z AUTO 00000KT 9999 NCD 07/04 Q1021=
201805182320 METAR ESMX 182320Z AUTO 15003KT 9999 NCD 09/04 Q1021=
201805182250 METAR ESMX 182250Z AUTO 14005KT 9999 NCD 11/04 Q1021=
201805182220 METAR ESMX 182220Z AUTO 16005KT 9999 NCD 11/04 Q1021=
201805182150 METAR ESMX 182150Z AUTO 16006KT 9999 NCD 12/04 Q1021=
201805182120 METAR ESMX 182120Z AUTO 17005KT 9999 NCD 11/05 Q1021=
201805182050 METAR ESMX 182050Z AUTO 18006KT 9999 NCD 12/04 Q1021=
201805182020 METAR ESMX 182020Z AUTO 17007KT 9999 NCD 13/04 Q1020=
201805181950 METAR ESMX 181950Z AUTO 16007KT 120V180 9999 NCD 15/04 Q1020=
201805181920 METAR ESMX 181920Z 14007KT 080V170 CAVOK 16/03 Q1020=
201805181850 METAR ESMX 181850Z 12008KT 080V160 CAVOK 16/02 Q1019=
201805181820 METAR ESMX 181820Z 04006KT 010V080 CAVOK 19/05 Q1019=
201805181750 METAR ESMX 181750Z 03005KT CAVOK 19/05 Q1018=
201805181720 METAR ESMX 181720Z VRB02KT CAVOK 19/05 Q1018=
201805181650 METAR ESMX 181650Z 35004KT CAVOK 19/05 Q1018=
201805181620 METAR ESMX 181620Z 35003KT 280V030 CAVOK 19/05 Q1018=
201805181550 METAR ESMX 181550Z 02005KT 330V060 CAVOK 20/05 Q1018=
201805181520 METAR ESMX 181520Z 36006KT CAVOK 19/04 Q1018=
201805181450 METAR ESMX 181450Z VRB02KT CAVOK 20/05 Q1018=
201805181420 METAR ESMX 181420Z 33005KT 280V020 CAVOK 20/04 Q1018=
201805181350 METAR ESMX 181350Z 36006KT 300V060 CAVOK 20/05 Q1018=
201805181320 METAR ESMX 181320Z 02006KT 300V070 CAVOK 20/06 Q1018=
201805181250 METAR ESMX 181250Z 01005KT 260V080 CAVOK 20/05 Q1018=
201805181220 METAR ESMX 181220Z VRB05KT CAVOK 19/05 Q1018=
201805181150 METAR ESMX 181150Z 03006KT 340V120 CAVOK 19/05 Q1018=
201805181120 METAR ESMX 181120Z 02008KT 350V060 CAVOK 18/04 Q1018=
201805181050 METAR ESMX 181050Z 36008KT CAVOK 18/04 Q1018=
201805181020 METAR ESMX 181020Z 01008KT 350V080 CAVOK 18/04 Q1018=
201805180950 METAR ESMX 180950Z 02009KT 350V060 CAVOK 17/03 Q1018=
201805180920 METAR ESMX 180920Z 36008KT 330V060 CAVOK 17/03 Q1018=
201805180850 METAR ESMX 180850Z 01010KT CAVOK 16/02 Q1018=
201805180820 METAR ESMX 180820Z 03009KT 350V080 CAVOK 16/03 Q1018=
201805180750 METAR ESMX 180750Z 36011KT CAVOK 15/03 Q1018=
201805180720 METAR ESMX 180720Z 02008KT CAVOK 15/02 Q1018=
201805180650 METAR ESMX 180650Z 03010KT CAVOK 14/02 Q1017=
201805180620 METAR ESMX 180620Z 01009KT 340V040 CAVOK 14/02 Q1017=
201805180550 METAR ESMX 180550Z 02010KT CAVOK 12/03 Q1017=
201805180520 METAR ESMX 180520Z 02011KT CAVOK 13/02 Q1017=
201805180450 METAR ESMX 180450Z 01011KT CAVOK 12/02 Q1017=
201805180420 METAR ESMX 180420Z 01010KT CAVOK 12/03 Q1016=
201805180350 METAR ESMX 180350Z 01009KT CAVOK 11/03 Q1016=
201805180320 METAR ESMX 180320Z AUTO 02011KT 9999 OVC098/// 11/04 Q1016=
201805180250 METAR ESMX 180250Z AUTO 01010KT 9999 OVC100/// 12/05 Q1016=
201805180220 METAR ESMX 180220Z AUTO 03009KT 9999 OVC098/// 12/06 Q1016=
201805180150 METAR ESMX 180150Z AUTO 04008KT 9999 BKN098/// 12/06 Q1016=
201805180120 METAR ESMX 180120Z AUTO 04009KT 9999 SCT094/// 13/06 Q1015=
201805180050 METAR ESMX 180050Z AUTO 04007KT 9999 BKN100/// 13/06 Q1015=
201805180020 METAR ESMX 180020Z AUTO 03006KT 9999 OVC110/// 13/06 Q1015=
201805172350 METAR ESMX 172350Z AUTO 04008KT 9999 FEW092/// BKN120/// 13/07 Q1015=
201805172320 METAR ESMX 172320Z AUTO 04005KT 9999 FEW098/// SCT130/// 13/07 Q1015=
201805172250 METAR ESMX 172250Z AUTO 03004KT 9999 FEW100/// OVC130/// 13/07 Q1015=
201805172220 METAR ESMX 172220Z AUTO 08003KT 9999 BKN130/// 14/06 Q1015=
201805172150 METAR ESMX 172150Z AUTO 08005KT 030V110 9999 SCT140/// 14/07 Q1015=
201805172120 METAR ESMX 172120Z AUTO 04005KT 9999 NCD 14/08 Q1015=
201805172050 METAR ESMX 172050Z AUTO 06004KT 010V090 9999 NCD 15/08 Q1015=
201805172020 METAR ESMX 172020Z 09006KT 050V120 CAVOK 15/09 Q1014=
201805171950 METAR ESMX 171950Z VRB02KT CAVOK 15/09 Q1014=
201805171920 METAR ESMX 171920Z 06003KT CAVOK 16/10 Q1014=
201805171850 METAR ESMX 171850Z 07002KT CAVOK 17/10 Q1013=
201805171820 METAR ESMX 171820Z VRB02KT CAVOK 17/10 Q1013=
201805171750 METAR ESMX 171750Z 23006KT CAVOK 17/09 Q1013=
201805171720 METAR ESMX 171720Z 20008KT CAVOK 18/09 Q1014=
201805171650 METAR ESMX 171650Z 23005KT CAVOK 20/09 Q1013=
201805171620 METAR ESMX 171620Z 09004KT 020V140 CAVOK 21/09 Q1013=
201805171550 METAR ESMX 171550Z 04006KT 010V080 CAVOK 22/08 Q1012=
201805171520 METAR ESMX 171520Z 01006KT CAVOK 22/08 Q1012=
201805171450 METAR ESMX 171450Z 03011KT 360V060 CAVOK 24/06 Q1012=
201805171420 METAR ESMX 171420Z 04009KT 010V090 CAVOK 25/07 Q1012=
201805171350 METAR ESMX 171350Z 04010KT 010V080 CAVOK 25/05 Q1012=
201805171320 METAR ESMX 171320Z 04010KT 020V080 CAVOK 25/07 Q1012=
201805171250 METAR ESMX 171250Z 01008KT 340V070 CAVOK 25/07 Q1012=
201805171220 METAR ESMX 171220Z 36009KT CAVOK 24/07 Q1012=
201805171150 METAR ESMX 171150Z 36009KT CAVOK 24/09 Q1012=
201805171120 METAR ESMX 171120Z 36009KT CAVOK 24/08 Q1012=
201805171050 METAR ESMX 171050Z 35009KT CAVOK 23/09 Q1013=
201805171020 METAR ESMX 171020Z 01007KT CAVOK 23/09 Q1013=
201805170950 METAR ESMX 170950Z 36007KT CAVOK 22/09 Q1013=
201805170920 METAR ESMX 170920Z 35007KT 320V030 CAVOK 21/09 Q1013=
201805170850 METAR ESMX 170850Z 35007KT CAVOK 21/08 Q1013=
201805170820 METAR ESMX 170820Z 36007KT 330V050 CAVOK 21/09 Q1013=
201805170750 METAR ESMX 170750Z 01006KT CAVOK 20/09 Q1013=
201805170720 METAR ESMX 170720Z 04006KT CAVOK 19/08 Q1013=
201805170650 METAR ESMX 170650Z 05007KT CAVOK 19/08 Q1013=
201805170620 METAR ESMX 170620Z 04008KT CAVOK 18/07 Q1013=
201805170550 METAR ESMX 170550Z 03008KT CAVOK 18/07 Q1013=
201805170520 METAR ESMX 170520Z 04006KT 010V070 CAVOK 18/06 Q1013=
201805170450 METAR ESMX 170450Z 04008KT 020V090 CAVOK 17/07 Q1013=
201805170420 METAR ESMX 170420Z VRB03KT CAVOK 15/11 Q1012=
201805170350 METAR ESMX 170350Z 34002KT CAVOK 12/11 Q1012=
201805170320 METAR ESMX 170320Z AUTO VRB02KT 9999 BKN094/// 12/11 Q1012=
201805170250 METAR ESMX 170250Z AUTO VRB02KT 9999 -RA OVC088/// 11/09 Q1012=
201805170220 METAR ESMX 170220Z AUTO 00000KT 9999 SCT094/// 10/09 Q1012=
201805170150 METAR ESMX 170150Z AUTO 00000KT 9999 BKN110/// 11/10 Q1012=
201805170120 METAR ESMX 170120Z AUTO 01002KT 9999 OVC094/// 10/08 Q1012=
201805170050 METAR ESMX 170050Z AUTO 00000KT 9999 OVC098/// 10/09 Q1012=
201805170020 METAR ESMX 170020Z AUTO 00000KT 9999 FEW098/// SCT110/// 10/07 Q1013=
201805162350 METAR ESMX 162350Z AUTO VRB01KT 9999 FEW110/// 09/07 Q1013=
201805162320 METAR ESMX 162320Z AUTO 00000KT 9999 NCD 10/07 Q1013=
201805162250 METAR ESMX 162250Z AUTO 17002KT 9999 FEW110/// 11/08 Q1013=
201805162220 METAR ESMX 162220Z AUTO 00000KT 9999 NCD 11/08 Q1013=
201805162150 METAR ESMX 162150Z AUTO 00000KT 9999 NCD 13/09 Q1013=
201805162120 METAR ESMX 162120Z AUTO VRB01KT 9999 NCD 14/09 Q1013=
201805162050 METAR ESMX 162050Z AUTO 18003KT 9999 NCD 15/08 Q1013=
201805162020 METAR ESMX 162020Z 15003KT CAVOK 17/09 Q1013=
201805161950 METAR ESMX 161950Z 19004KT 110V240 CAVOK 18/08 Q1013=
201805161920 METAR ESMX 161920Z 17006KT CAVOK 21/07 Q1013=
201805161850 METAR ESMX 161850Z 16008KT CAVOK 21/08 Q1013=
201805161820 METAR ESMX 161820Z 14005KT 050V180 CAVOK 23/08 Q1012=
201805161750 METAR COR ESMX 161750Z 07003KT CAVOK 24/06 Q1012=
201805161720 METAR ESMX 161720Z 06004KT 360V140 CAVOK 25/05 Q1012=
201805161650 METAR ESMX 161650Z 09005KT 030V140 CAVOK 26/04 Q1012=
201805161620 METAR ESMX 161620Z 06004KT 330V110 CAVOK 26/04 Q1012=
201805161550 METAR ESMX 161550Z 05006KT 020V120 CAVOK 26/04 Q1012=
201805161520 METAR ESMX 161520Z 03007KT 350V080 CAVOK 27/03 Q1012=
201805161450 METAR ESMX 161450Z VRB03KT CAVOK 27/02 Q1013=
201805161420 METAR ESMX 161420Z 35006KT 330V040 CAVOK 27/04 Q1013=
201805161350 METAR ESMX 161350Z 35005KT 310V080 CAVOK 26/03 Q1013=
201805161320 METAR ESMX 161320Z 34004KT 290V030 CAVOK 26/05 Q1013=
201805161250 METAR ESMX 161250Z 34005KT 290V020 CAVOK 26/05 Q1013=
201805161220 METAR ESMX 161220Z 34006KT 300V010 CAVOK 26/05 Q1013=
201805161150 METAR ESMX 161150Z 34007KT 310V020 CAVOK 26/04 Q1014=
201805161120 METAR ESMX 161120Z 35007KT 320V050 CAVOK 26/03 Q1014=
201805161050 METAR COR ESMX 161050Z 01008KT 330V050 CAVOK 26/04 Q1014=
201805161020 METAR ESMX 161020Z 36008KT CAVOK 25/05 Q1014=
201805160950 METAR ESMX 160950Z 36006KT CAVOK 25/06 Q1014=
201805160920 METAR ESMX 160920Z 35008KT CAVOK 25/06 Q1014=
201805160850 METAR ESMX 160850Z 01008KT CAVOK 24/07 Q1015=
201805160820 METAR ESMX 160820Z 01007KT CAVOK 23/07 Q1015=
201805160750 METAR ESMX 160750Z 01007KT CAVOK 23/08 Q1015=
201805160720 METAR ESMX 160720Z 35005KT 330V030 CAVOK 21/07 Q1015=
201805160650 METAR ESMX 160650Z 35004KT CAVOK 20/08 Q1015=
201805160620 METAR ESMX 160620Z 36004KT CAVOK 18/08 Q1015=
201805160550 METAR ESMX 160550Z 36004KT CAVOK 17/08 Q1015=
201805160520 METAR ESMX 160520Z 36003KT CAVOK 14/11 Q1015=
201805160450 METAR COR ESMX 160450Z VRB01KT CAVOK 11/10 Q1015=
201805160420 METAR ESMX 160420Z 00000KT CAVOK 08/07 Q1015=
201805160350 METAR ESMX 160350Z AUTO 18002KT 9999 SCT094/// 07/06 Q1015=
201805160320 METAR ESMX 160320Z AUTO 00000KT 9999 NCD 08/07 Q1015=
201805160250 METAR ESMX 160250Z AUTO 00000KT 9999 NCD 07/06 Q1015=
201805160220 METAR ESMX 160220Z AUTO 36002KT 9999 NCD 07/06 Q1015=
201805160150 METAR ESMX 160150Z AUTO 33002KT 9999 NCD 07/07 Q1016=
201805160120 METAR ESMX 160120Z AUTO 34001KT 9999 NCD 07/06 Q1016=
201805160050 METAR ESMX 160050Z AUTO 00000KT 9999 NCD 09/08 Q1016=
201805160020 METAR ESMX 160020Z AUTO VRB01KT 9999 NCD 09/08 Q1016=
201805152350 METAR ESMX 152350Z AUTO 35002KT 9999 NCD 08/07 Q1016=
201805152320 METAR ESMX 152320Z AUTO 35002KT 9999 NCD 09/07 Q1016=
201805152250 METAR ESMX 152250Z AUTO 02002KT 9999 NCD 09/08 Q1016=
201805152220 METAR ESMX 152220Z AUTO 00000KT 9999 NCD 10/09 Q1016=
201805152150 METAR ESMX 152150Z AUTO 00000KT 9999 NCD 11/09 Q1017=
201805152120 METAR ESMX 152120Z AUTO 00000KT 9999 FEW094/// 12/09 Q1017=
201805152050 METAR ESMX 152050Z AUTO 00000KT 9999 NCD 12/09 Q1017=
201805152020 METAR ESMX 152020Z 00000KT CAVOK 13/08 Q1017=
201805151950 METAR ESMX 151950Z VRB02KT CAVOK 14/09 Q1017=
201805151920 METAR ESMX 151920Z 05002KT CAVOK 18/09 Q1016=
201805151850 METAR ESMX 151850Z VRB03KT CAVOK 21/07 Q1016=
201805151820 METAR ESMX 151820Z 04003KT 020V080 CAVOK 21/08 Q1016=
201805151750 METAR ESMX 151750Z 04003KT CAVOK 23/08 Q1016=
201805151720 METAR ESMX 151720Z 04004KT 350V080 CAVOK 23/09 Q1016=
201805151650 METAR ESMX 151650Z 36004KT CAVOK 23/10 Q1017=
201805151620 METAR ESMX 151620Z 03003KT 350V070 CAVOK 23/10 Q1017=
201805151550 METAR ESMX 151550Z 04004KT CAVOK 23/10 Q1017=
201805151520 METAR ESMX 151520Z 02005KT 350V060 CAVOK 23/09 Q1017=
201805151450 METAR ESMX 151450Z 04008KT 010V070 CAVOK 24/08 Q1017=
201805151420 METAR ESMX 151420Z 06005KT 350V130 CAVOK 25/08 Q1017=
201805151350 METAR ESMX 151350Z 07006KT 020V130 CAVOK 24/07 Q1018=
201805151320 METAR ESMX 151320Z VRB05KT CAVOK 25/07 Q1018=
201805151250 METAR ESMX 151250Z 08005KT 020V160 CAVOK 24/07 Q1018=
201805151220 METAR ESMX 151220Z 05008KT 020V100 CAVOK 24/07 Q1018=
201805151150 METAR ESMX 151150Z 05006KT 010V110 CAVOK 25/07 Q1018=
201805151120 METAR ESMX 151120Z 08006KT 020V120 CAVOK 25/06 Q1018=
201805151050 METAR ESMX 151050Z 07008KT 010V160 CAVOK 25/06 Q1018=
201805151020 METAR ESMX 151020Z 07008KT 030V110 CAVOK 25/07 Q1019=
201805150950 METAR ESMX 150950Z 07008KT 030V120 CAVOK 24/06 Q1019=
201805150920 METAR ESMX 150920Z 04007KT 360V070 CAVOK 24/08 Q1019=
201805150850 METAR ESMX 150850Z 36007KT 330V030 CAVOK 23/07 Q1019=
201805150820 METAR ESMX 150820Z 02008KT 350V070 CAVOK 22/06 Q1019=
201805150750 METAR ESMX 150750Z 36007KT 340V050 CAVOK 20/07 Q1019=
201805150720 METAR ESMX 150720Z 02005KT 330V050 CAVOK 19/07 Q1019=
201805150650 METAR ESMX 150650Z 01004KT 330V050 CAVOK 18/08 Q1019=
201805150620 METAR ESMX 150620Z 35005KT 340V050 CAVOK 17/08 Q1020=
201805150550 METAR ESMX 150550Z 36005KT CAVOK 16/09 Q1020=
201805150520 METAR ESMX 150520Z 01005KT CAVOK 14/08 Q1020=
201805150450 METAR ESMX 150450Z 35005KT CAVOK 13/09 Q1020=
201805150420 METAR ESMX 150420Z 01002KT CAVOK 11/09 Q1020=
201805150350 METAR ESMX 150350Z 00000KT CAVOK 08/07 Q1020=
201805150320 METAR ESMX 150320Z AUTO VRB02KT 9999 NCD 08/07 Q1020=
201805150250 METAR ESMX 150250Z AUTO 00000KT 9999 NCD 08/07 Q1020=
201805150220 METAR ESMX 150220Z AUTO 00000KT 9999 NCD 08/07 Q1020=
201805150150 METAR ESMX 150150Z AUTO 00000KT 9999 NCD 08/07 Q1020=
201805150120 METAR ESMX 150120Z AUTO 00000KT 9999 NCD 08/07 Q1020=
201805150050 METAR ESMX 150050Z AUTO 00000KT 9999 NCD 07/06 Q1021=
201805150020 METAR ESMX 150020Z AUTO 00000KT 9999 NCD 08/06 Q1021=
201805142350 METAR ESMX 142350Z AUTO 00000KT 9999 NCD 09/07 Q1021=
201805142320 METAR ESMX 142320Z AUTO 00000KT 9999 NCD 09/06 Q1021=
201805142250 METAR ESMX 142250Z AUTO 00000KT 9999 NCD 09/06 Q1021=
201805142220 METAR ESMX 142220Z AUTO 12002KT 9999 NCD 11/06 Q1021=
201805142150 METAR ESMX 142150Z AUTO 00000KT 9999 NCD 11/07 Q1021=
201805142120 METAR ESMX 142120Z AUTO 10001KT 9999 FEW004/// 11/06 Q1021=
201805142050 METAR ESMX 142050Z AUTO 00000KT 9999 FEW005/// 13/07 Q1021=
201805142020 METAR ESMX 142020Z 00000KT CAVOK 14/07 Q1021=
201805141950 METAR ESMX 141950Z 05001KT CAVOK 18/07 Q1021=
201805141920 METAR COR ESMX 141920Z VRB03KT CAVOK 20/05 Q1020=
201805141850 METAR ESMX 141850Z 09003KT 050V150 CAVOK 21/05 Q1020=
201805141820 METAR ESMX 141820Z 08003KT 030V120 CAVOK 22/05 Q1020=
201805141750 METAR ESMX 141750Z 07005KT 020V110 CAVOK 23/05 Q1020=
201805141720 METAR ESMX 141720Z 07006KT 020V120 CAVOK 24/05 Q1020=
201805141650 METAR ESMX 141650Z 08006KT 040V120 CAVOK 24/05 Q1020=
201805141620 METAR ESMX 141620Z 07007KT 030V120 CAVOK 25/04 Q1020=
201805141550 METAR ESMX 141550Z 09007KT 060V140 CAVOK 25/04 Q1020=
201805141520 METAR ESMX 141520Z 09007KT 040V160 CAVOK 26/05 Q1020=
201805141450 METAR ESMX 141450Z 07008KT 020V140 CAVOK 26/04 Q1020=
201805141420 METAR ESMX 141420Z 09007KT 030V140 CAVOK 26/04 Q1020=
201805141350 METAR ESMX 141350Z 05009KT CAVOK 25/04 Q1020=
201805141320 METAR ESMX 141320Z 05008KT 010V080 CAVOK 26/04 Q1020=
201805141250 METAR ESMX 141250Z 05008KT 020V090 CAVOK 26/04 Q1020=
201805141220 METAR ESMX 141220Z 07008KT 030V140 CAVOK 26/05 Q1020=
201805141150 METAR ESMX 141150Z 07007KT 020V110 CAVOK 26/05 Q1020=
201805141120 METAR ESMX 141120Z 07009KT 020V120 CAVOK 26/04 Q1020=
201805141050 METAR ESMX 141050Z 06008KT 030V100 CAVOK 26/05 Q1020=
201805141020 METAR ESMX 141020Z 05008KT 020V080 CAVOK 25/05 Q1020=
201805140950 METAR ESMX 140950Z 06009KT 010V090 CAVOK 25/05 Q1020=
201805140920 METAR ESMX 140920Z 04009KT 010V080 CAVOK 25/06 Q1020=
201805140850 METAR ESMX 140850Z 05006KT 010V080 CAVOK 24/07 Q1021=
201805140820 METAR ESMX 140820Z 05007KT 010V080 CAVOK 23/08 Q1021=
201805140750 METAR ESMX 140750Z 04006KT 010V080 CAVOK 21/08 Q1021=
201805140720 METAR ESMX 140720Z 03008KT CAVOK 20/08 Q1021=
201805140650 METAR ESMX 140650Z 03007KT 010V070 CAVOK 19/08 Q1021=
201805140620 METAR ESMX 140620Z 05006KT CAVOK 18/07 Q1021=
201805140550 METAR ESMX 140550Z 03006KT CAVOK 16/07 Q1021=
201805140520 METAR ESMX 140520Z 03006KT CAVOK 15/06 Q1020=
201805140450 METAR ESMX 140450Z 05005KT 020V080 CAVOK 14/06 Q1020=
201805140420 METAR ESMX 140420Z 03005KT CAVOK 13/06 Q1020=
201805140350 METAR ESMX 140350Z 03005KT CAVOK 12/06 Q1020=
201805140320 METAR ESMX 140320Z AUTO 02005KT 9999 NCD 11/05 Q1020=
201805140250 METAR ESMX 140250Z AUTO 02004KT 9999 NCD 11/05 Q1020=
201805140220 METAR ESMX 140220Z AUTO 04004KT 9999 NCD 12/05 Q1020=
201805140150 METAR ESMX 140150Z AUTO 04004KT 9999 NCD 12/06 Q1020=
201805140120 METAR ESMX 140120Z AUTO 04006KT 9999 NCD 12/06 Q1020=
201805140050 METAR ESMX 140050Z AUTO 01004KT 9999 NCD 11/06 Q1020=
201805140020 METAR ESMX 140020Z AUTO 36003KT 9999 NCD 11/06 Q1020=
201805132350 METAR ESMX 132350Z AUTO 34003KT 9999 NCD 12/06 Q1020=
201805132320 METAR ESMX 132320Z AUTO 36003KT 320V050 9999 NCD 12/07 Q1021=
201805132250 METAR ESMX 132250Z AUTO 01003KT 9999 NCD 13/06 Q1021=
201805132220 METAR ESMX 132220Z AUTO 02003KT 9999 NCD 14/06 Q1021=
201805132150 METAR ESMX 132150Z AUTO 36003KT 9999 NCD 13/06 Q1020=
201805132120 METAR ESMX 132120Z AUTO 05003KT 020V080 9999 NCD 15/06 Q1020=
201805132050 METAR ESMX 132050Z AUTO 06004KT 9999 NCD 15/05 Q1020=
201805132020 METAR ESMX 132020Z AUTO 06003KT 9999 NCD 15/06 Q1020=
201805131950 METAR ESMX 131950Z 07003KT CAVOK 16/06 Q1020=
201805131920 METAR ESMX 131920Z VRB02KT CAVOK 18/05 Q1020=
201805131850 METAR ESMX 131850Z 08003KT 030V120 CAVOK 20/05 Q1020=
201805131820 METAR ESMX 131820Z AUTO 09004KT 040V140 9999 NCD 21/04 Q1020=
201805131750 METAR ESMX 131750Z 09006KT 030V130 CAVOK 22/04 Q1019=
201805131720 METAR COR ESMX 131720Z 10006KT 060V150 CAVOK 22/04 Q1019=
201805131650 METAR ESMX 131650Z 09006KT 060V140 CAVOK 23/04 Q1019=
201805131620 METAR ESMX 131620Z 12007KT 080V170 CAVOK 23/03 Q1019=
201805131550 METAR ESMX 131550Z 13006KT 080V190 CAVOK 24/04 Q1019=
201805131520 METAR ESMX 131520Z 14008KT 110V170 CAVOK 24/04 Q1019=
201805131450 METAR ESMX 131450Z 12007KT 030V160 CAVOK 24/03 Q1020=
201805131420 METAR ESMX 131420Z 13007KT 080V160 CAVOK 24/04 Q1020=
201805131350 METAR ESMX 131350Z 10006KT 010V150 CAVOK 24/05 Q1019=
201805131320 METAR ESMX 131320Z 14007KT 050V170 CAVOK 24/04 Q1020=
201805131250 METAR ESMX 131250Z VRB07KT CAVOK 24/04 Q1020=
201805131220 METAR ESMX 131220Z 13007KT 020V170 CAVOK 23/04 Q1020=
201805131150 METAR ESMX 131150Z 14008KT 100V190 CAVOK 24/05 Q1020=
201805131120 METAR ESMX 131120Z 13007KT 090V170 CAVOK 23/04 Q1020=
201805131050 METAR ESMX 131050Z 10007KT 050V160 CAVOK 23/05 Q1020=
201805131020 METAR ESMX 131020Z 12008KT 050V160 CAVOK 23/05 Q1020=
201805130950 METAR ESMX 130950Z 14009KT 100V190 CAVOK 23/04 Q1020=
201805130920 METAR ESMX 130920Z 13009KT 110V170 CAVOK 22/06 Q1020=
201805130850 METAR ESMX 130850Z 14006KT 080V190 CAVOK 22/06 Q1020=
201805130820 METAR ESMX 130820Z 12006KT 060V160 CAVOK 22/07 Q1020=
201805130750 METAR ESMX 130750Z 06004KT 030V160 CAVOK 20/09 Q1021=
201805130720 METAR ESMX 130720Z 08004KT 040V110 CAVOK 19/08 Q1020=
201805130650 METAR ESMX 130650Z 06003KT 030V130 CAVOK 18/08 Q1020=
201805130620 METAR ESMX 130620Z 07003KT 030V110 CAVOK 16/08 Q1020=
201805130550 METAR ESMX 130550Z AUTO 07003KT 020V140 9999 NCD 16/09 Q1020=
201805130520 METAR ESMX 130520Z AUTO VRB02KT 9999 NCD 15/10 Q1020=
201805130450 METAR ESMX 130450Z AUTO 03004KT 9999 NCD 14/10 Q1020=
201805130420 METAR ESMX 130420Z AUTO 05004KT 9999 NCD 12/10 Q1020=
201805130350 METAR ESMX 130350Z AUTO 03004KT 9999 FEW048/// 12/11 Q1020=
201805130320 METAR ESMX 130320Z AUTO 00000KT 9999 NCD 12/11 Q1020=
201805130250 METAR ESMX 130250Z AUTO VRB03KT 9000 NCD 12/11 Q1020=
201805130220 METAR ESMX 130220Z AUTO 07003KT 030V110 9999 NCD 12/12 Q1020=
201805130150 METAR ESMX 130150Z AUTO 07004KT 020V110 8000 BR NCD 13/12 Q1020=
201805130120 METAR ESMX 130120Z AUTO 08003KT 050V120 9999 NCD 13/12 Q1020=
201805130050 METAR ESMX 130050Z AUTO 11003KT 070V160 9999 BKN061/// 13/12 Q1020=
201805130020 METAR ESMX 130020Z AUTO 11003KT 070V170 9999 BKN057/// 13/13 Q1020=
201805122350 METAR ESMX 122350Z AUTO 08004KT 040V110 9000 NCD 13/13 Q1020=
201805122320 METAR ESMX 122320Z AUTO VRB03KT 9000 BCFG NCD 13/12 Q1020=
201805122250 METAR ESMX 122250Z AUTO 00000KT 0300 R01/P2000N R19/P2000D BCFG NCD 11/11 Q1020=
201805122220 METAR ESMX 122220Z AUTO 00000KT 0450 R01/P2000N R19/P2000N BR NCD 12/12 Q1020=
201805122150 METAR ESMX 122150Z AUTO 00000KT 9999 SCT012/// 13/12 Q1020=
201805122120 METAR ESMX 122120Z AUTO 18001KT 9999 BKN016/// 13/12 Q1020=
201805122050 METAR ESMX 122050Z AUTO 16004KT 9999 NCD 15/13 Q1020=
201805122020 METAR ESMX 122020Z AUTO 18003KT 9999 FEW023/// 14/13 Q1020=
201805121950 METAR ESMX 121950Z 15004KT 9999 BKN025 18/13 Q1020=
201805121920 METAR ESMX 121920Z VRB02KT 9999 BKN027 17/15 Q1019=
201805121850 METAR ESMX 121850Z VRB02KT 9999 BKN030 18/15 Q1019=
201805121820 METAR ESMX 121820Z 09004KT 9999 BKN030 18/15 Q1019=
201805121750 METAR ESMX 121750Z VRB02KT 9999 BKN030 19/14 Q1019=
201805121720 METAR ESMX 121720Z AUTO 18003KT 080V220 9999 SCT027/// BKN039/// BKN100/// 20/14 Q1019=
201805121650 METAR ESMX 121650Z AUTO 18005KT 9999 NCD 20/13 Q1019=
201805121620 METAR ESMX 121620Z 18007KT 9999 FEW040 20/13 Q1019=
201805121550 METAR ESMX 121550Z 16005KT 120V200 9999 FEW047 20/13 Q1019=
201805121520 METAR ESMX 121520Z 14005KT 100V160 9999 BKN048 20/13 Q1019=
201805121450 METAR ESMX 121450Z 16004KT 120V200 9999 SCT038 BKN045 21/14 Q1019=
201805121420 METAR ESMX 121420Z AUTO 15004KT 110V170 9999 BKN043/// OVC062/// 20/13 Q1019=
201805121350 METAR ESMX 121350Z AUTO 14003KT 100V180 9999 FEW027/// BKN043/// OVC086/// 20/13 Q1019=
201805121320 METAR ESMX 121320Z AUTO 15005KT 100V200 9999 SCT026/// BKN082/// 20/13 Q1020=
201805121250 METAR ESMX 121250Z AUTO 14004KT 100V210 9999 FEW066/// BKN088/// 19/13 Q1020=
201805121220 METAR ESMX 121220Z AUTO 15003KT 090V190 9999 BKN092/// 19/13 Q1020=
201805121150 METAR ESMX 121150Z 11004KT 070V150 9999 SCT014 BKN040 OVC066 18/13 Q1020=
201805121120 METAR ESMX 121120Z 10004KT 060V150 9999 FEW011 SCT034 BKN092 18/14 Q1020=
201805121050 METAR COR ESMX 121050Z 14004KT 100V170 9999 SCT015 BKN048 OVC094 17/13 Q1020=
201805121020 METAR COR ESMX 121020Z 10004KT 030V160 9999 SCT017 BKN037 18/13 Q1020=
201805120950 METAR ESMX 120950Z 12003KT 050V170 9999 BKN021 OVC038 18/13 Q1020=
201805120920 METAR ESMX 120920Z 13003KT 010V170 9999 SCT015 BKN023 17/13 Q1020=
201805120850 METAR ESMX 120850Z AUTO VRB03KT 9999 SCT012/// BKN021/// 17/14 Q1020=
201805120820 METAR ESMX 120820Z AUTO VRB03KT 9999 FEW011/// SCT100/// 17/14 Q1020=
201805120750 METAR ESMX 120750Z AUTO 08003KT 030V140 9999 BKN004/// BKN006/// OVC009/// 16/14 Q1020=
201805120720 METAR ESMX 120720Z AUTO VRB02KT 8000 OVC001/// 15/14 Q1020=
201805120650 METAR ESMX 120650Z VRB01KT 2000 BR OVC001 14/14 Q1020=
201805120620 METAR ESMX 120620Z VRB02KT 0800 R01/1200D R19/0450D FG VV002 14/13 Q1020=
201805120550 METAR ESMX 120550Z VRB03KT 9999 SCT005 15/13 Q1020=
201805120520 METAR ESMX 120520Z 00000KT CAVOK 14/13 Q1019=
201805120450 METAR ESMX 120450Z 00000KT 8000 BR FEW005 13/13 Q1019=
201805120420 METAR ESMX 120420Z AUTO 00000KT 2800 BR FEW004/// BKN012/// 12/12 Q1019=
201805120350 METAR ESMX 120350Z AUTO 00000KT 0300 R01/P2000N R19/0500N SCT005/// BKN028/// 12/11 Q1019=
201805120320 METAR ESMX 120320Z AUTO 00000KT 0350 R01/P2000N R19/0650N BCFG FEW013/// OVC028/// 11/11 Q1019=
201805120250 METAR ESMX 120250Z AUTO 00000KT 0300 R01/P2000N R19/0500N BCFG BKN029/// 12/12 Q1019=
201805120220 METAR ESMX 120220Z AUTO 00000KT 2300 BR SCT029/// 13/12 Q1019=
201805120150 METAR ESMX 120150Z AUTO 20003KT 8000 BR OVC031/// 13/13 Q1019=
201805120120 METAR ESMX 120120Z AUTO 20002KT 8000 BR OVC031/// 13/13 Q1019=
201805120050 METAR ESMX 120050Z AUTO 22002KT 4400 FEW015/// OVC030/// 13/13 Q1019=
201805120020 METAR ESMX 120020Z AUTO 00000KT 3300 BR OVC029/// 13/13 Q1019=
201805112350 METAR ESMX 112350Z AUTO 00000KT 9000 FEW010/// OVC023/// 14/13 Q1019=
201805112320 METAR ESMX 112320Z AUTO 24003KT 7000 BKN010/// OVC020/// 13/13 Q1019=
201805112250 METAR ESMX 112250Z AUTO 00000KT 2700 SCT009/// BKN013/// OVC021/// 13/13 Q1019=
201805112220 METAR ESMX 112220Z AUTO 00000KT 0100 R01/P2000N R19/0400N BKN013/// 12/12 Q1019=
201805112150 METAR ESMX 112150Z AUTO 00000KT 0100 R01/0700N R19/0400N BCFG BKN012/// 11/11 Q1019=
201805112120 METAR ESMX 112120Z AUTO 00000KT 0050 R01/0550N R19/0200N FG FEW062/// 13/12 Q1019=
201805112050 METAR ESMX 112050Z AUTO 00000KT 0250 R01/1000D R19/P2000N BCFG BKN072/// 14/14 Q1018 REDZ=
201805112020 METAR ESMX 112020Z AUTO 00000KT 4400 BR OVC072/// 15/15 Q1019=
201805111950 METAR ESMX 111950Z AUTO 27002KT 2100 BR OVC062/// 15/15 Q1018 REDZ=
201805111920 METAR ESMX 111920Z AUTO 00000KT 9999 -DZ SCT014/// BKN064/// 16/15 Q1018=
201805111850 METAR ESMX 111850Z AUTO 00000KT 9999 -RA ///035 16/15 Q1018 REDZ=
201805111820 METAR ESMX 111820Z AUTO VRB03KT 9999 -DZ BKN080/// 16/15 Q1018=
201805111750 METAR ESMX 111750Z AUTO 26003KT 9999 SCT034/// BKN080/// 17/15 Q1018=
201805111720 METAR ESMX 111720Z AUTO VRB03KT 9999 SCT016/// BKN028/// 17/15 Q1018=
201805111650 METAR ESMX 111650Z 26005KT 9999 FEW010 SCT098 BKN110 17/15 Q1018=
201805111620 METAR COR ESMX 111620Z 29006KT 9999 FEW011 SCT110 17/15 Q1018=
201805111550 METAR ESMX 111550Z 27006KT 9999 FEW018 BKN086 18/15 Q1018=
201805111520 METAR ESMX 111520Z 26006KT 9999 FEW018 BKN084 18/15 Q1018=
201805111450 METAR ESMX 111450Z 27008KT 9999 SCT012 BKN090 18/15 Q1017=
201805111420 METAR ESMX 111420Z 19003KT 9999 FEW014 BKN078 19/14 Q1018=
201805111350 METAR ESMX 111350Z VRB02KT 9999 FEW020 BKN085 18/16 Q1018=
201805111320 METAR ESMX 111320Z 07004KT 9999 -RA FEW020 BKN090 18/16 Q1018=
201805111250 METAR ESMX 111250Z 10003KT 050V140 9999 -SHRA FEW018 SCT055 OVC076 18/15 Q1018=
201805111220 METAR ESMX 111220Z 13003KT 090V160 9999 FEW020 OVC082 18/15 Q1018=
201805111150 METAR ESMX 111150Z 16004KT 110V210 9999 FEW016 SCT088 BKN120 19/14 Q1018=
201805111120 METAR ESMX 111120Z VRB03KT 9999 BKN015 18/15 Q1017=
201805111050 METAR ESMX 111050Z 00000KT 9999 FEW012 BKN110 18/14 Q1017=
201805111020 METAR ESMX 111020Z VRB02KT 9999 SCT012 BKN096 17/15 Q1017=
201805110950 METAR ESMX 110950Z 00000KT 9999 BKN010 16/15 Q1017=
201805110920 METAR ESMX 110920Z VRB01KT 9999 -RA FEW006 BKN010 16/15 Q1017=
201805110850 METAR ESMX 110850Z 04003KT 340V130 9999 -RA BKN009 15/14 Q1016=
201805110820 METAR ESMX 110820Z 36004KT 330V030 9999 BKN007 16/14 Q1016=
201805110750 METAR ESMX 110750Z 30005KT 270V350 9999 BKN006 16/15 Q1016=
201805110720 METAR ESMX 110720Z 27005KT 230V300 9999 BKN005 BKN012 15/14 Q1016=
201805110650 METAR ESMX 110650Z VRB03KT 8000 -RA FEW009 BKN051 15/14 Q1016=
201805110620 METAR ESMX 110620Z 18007KT 150V220 9999 BKN007 15/14 Q1017=
201805110550 METAR ESMX 110550Z AUTO 18009KT 150V230 9999 BKN006/// OVC059/// 15/14 Q1017=
201805110520 METAR ESMX 110520Z AUTO 23005KT 9999 FEW062/// BKN098/// 15/14 Q1016=
201805110450 METAR ESMX 110450Z AUTO VRB03KT 9999 ////// 15/13 Q1015=
201805110420 METAR ESMX 110420Z AUTO 00000KT 9999 ////// 14/13 Q1014=
201805110350 METAR ESMX 110350Z AUTO 06004KT 020V090 9999 ////// 13/13 Q1014=
201805110320 METAR ESMX 110320Z AUTO 07005KT 030V100 9999 ////// 13/13 Q1014=
201805110250 METAR ESMX 110250Z AUTO 05007KT 9999 ////// 14/13 Q1014=
201805110220 METAR ESMX 110220Z AUTO 02004KT 6000 -RA ////// 13/13 Q1014 RERA=
201805110150 METAR ESMX 110150Z AUTO VRB03KT 9999 ////// 14/13 Q1014 RERA=
201805110120 METAR ESMX 110120Z AUTO 21011KT 9999 ////// 13/13 Q1015=
201805110050 METAR ESMX 110050Z AUTO 00000KT 0250 R01/0650N R19/P2000N BCFG ////// 12/12 Q1014=
201805110020 METAR ESMX 110020Z AUTO 23003KT 210V320 9999 ////// 13/12 Q1013=
201805102350 METAR ESMX 102350Z AUTO VRB02KT 9999 ////// 14/13 Q1013=
201805102320 METAR ESMX 102320Z AUTO VRB03KT 9999 ////// 14/13 Q1013 RERA=
201805102250 METAR ESMX 102250Z AUTO 09003KT 060V140 8000 +RA ////// 14/14 Q1013=
201805102220 METAR ESMX 102220Z AUTO 10004KT 070V130 9999 -RA ////// 15/14 Q1014 RESHRA=
201805102150 METAR ESMX 102150Z AUTO 09003KT 060V130 9999 -RA FEW011/// OVC072/// 15/14 Q1014=
201805102120 METAR ESMX 102120Z AUTO VRB03KT 9999 -RA FEW006/// BKN072/// 15/13 Q1013=
201805102050 METAR ESMX 102050Z AUTO 12005KT 070V160 9999 +RA FEW070/// BKN094/// 17/12 Q1013=
201805102020 METAR ESMX 102020Z AUTO 10003KT 020V150 9999 FEW064/// SCT094/// 18/11 Q1013=
201805101950 METAR ESMX 101950Z AUTO VRB03KT 9999 SCT064/// 19/11 Q1013=
201805101920 METAR ESMX 101920Z AUTO 12005KT 040V160 9999 SCT061/// BKN078/// 20/10 Q1013=
201805101850 METAR ESMX 101850Z AUTO 14006KT 110V170 9999 SCT074/// 21/10 Q1013=
201805101820 METAR ESMX 101820Z 13004KT 080V170 CAVOK 22/09 Q1013=
201805101750 METAR ESMX 101750Z 13007KT CAVOK 22/09 Q1012=
201805101720 METAR ESMX 101720Z 12007KT 080V170 CAVOK 23/09 Q1012=
201805101650 METAR ESMX 101650Z 12007KT 060V160 CAVOK 23/09 Q1012=
201805101620 METAR ESMX 101620Z 12008KT 080V160 CAVOK 24/09 Q1011=
201805101550 METAR ESMX 101550Z 13010KT 090V150 CAVOK 24/10 Q1011=
201805101520 METAR ESMX 101520Z 16012KT 130V190 CAVOK 25/10 Q1011=
201805101450 METAR ESMX 101450Z 15012KT 120V190 CAVOK 25/09 Q1011=
201805101420 METAR ESMX 101420Z 14011KT 090V170 CAVOK 25/09 Q1012=
201805101350 METAR ESMX 101350Z 16012KT 130V190 CAVOK 25/09 Q1012=
201805101320 METAR ESMX 101320Z 15012KT CAVOK 25/10 Q1011=
201805101250 METAR ESMX 101250Z 15013KT CAVOK 24/09 Q1012=
201805101220 METAR ESMX 101220Z AUTO 14012KT 9999 FEW170/// 25/10 Q1011=
201805101150 METAR ESMX 101150Z AUTO 16009KT 120V190 9999 NCD 26/09 Q1011=
201805101120 METAR ESMX 101120Z 14010KT 090V170 CAVOK 25/10 Q1012=
201805101050 METAR ESMX 101050Z 13010KT 080V170 CAVOK 24/10 Q1012=
201805101020 METAR ESMX 101020Z AUTO 14009KT 070V190 9999 FEW086/// 24/10 Q1012=
201805100950 METAR ESMX 100950Z 10008KT 050V160 CAVOK 25/09 Q1012=
201805100920 METAR ESMX 100920Z 11008KT 060V170 CAVOK 24/10 Q1012=
201805100850 METAR ESMX 100850Z 13009KT 100V170 CAVOK 24/10 Q1012=
201805100820 METAR ESMX 100820Z 11007KT 050V160 CAVOK 23/10 Q1012=
201805100750 METAR ESMX 100750Z 05005KT CAVOK 21/10 Q1012=
201805100720 METAR ESMX 100720Z 03004KT CAVOK 19/09 Q1012=
201805100650 METAR ESMX 100650Z 06005KT CAVOK 17/09 Q1012=
201805100620 METAR ESMX 100620Z 06004KT 010V100 CAVOK 16/08 Q1012=
201805100550 METAR ESMX 100550Z AUTO 06005KT 020V110 9999 NCD 14/07 Q1012=
201805100520 METAR ESMX 100520Z AUTO 05005KT 020V100 9999 NCD 13/07 Q1012=
201805100450 METAR ESMX 100450Z AUTO 07004KT 040V120 9999 NCD 12/07 Q1012=
201805100420 METAR ESMX 100420Z AUTO 08004KT 040V140 9999 NCD 11/07 Q1012=
201805100350 METAR ESMX 100350Z AUTO 04005KT 9999 NCD 10/06 Q1012=
201805100320 METAR ESMX 100320Z AUTO 04005KT 9999 NCD 10/06 Q1012=
201805100250 METAR ESMX 100250Z AUTO 05005KT 9999 NCD 10/06 Q1012=
201805100220 METAR ESMX 100220Z AUTO 05005KT 9999 NCD 10/06 Q1012=
201805100150 METAR ESMX 100150Z AUTO 05005KT 9999 NCD 10/06 Q1013=
201805100120 METAR ESMX 100120Z AUTO 05005KT 9999 NCD 10/05 Q1013=
201805100050 METAR ESMX 100050Z AUTO 07005KT 030V110 9999 NCD 10/05 Q1013=
201805100020 METAR ESMX 100020Z AUTO 07005KT 040V100 9999 NCD 10/05 Q1013=
201805092350 METAR ESMX 092350Z AUTO 06004KT 020V100 9999 NCD 11/05 Q1013=
201805092320 METAR ESMX 092320Z AUTO 06006KT 9999 NCD 11/06 Q1014=
201805092250 METAR ESMX 092250Z AUTO 02004KT 9999 NCD 11/05 Q1014=
201805092220 METAR ESMX 092220Z AUTO 05003KT 9999 NCD 11/06 Q1014=
201805092150 METAR ESMX 092150Z AUTO VRB03KT 9999 NCD 12/05 Q1015=
201805092120 METAR ESMX 092120Z AUTO 07004KT 020V110 9999 NCD 13/06 Q1015=
201805092050 METAR ESMX 092050Z AUTO 07004KT 020V100 9999 NCD 14/05 Q1015=
201805092020 METAR ESMX 092020Z 07006KT 050V120 CAVOK 15/04 Q1014=
201805091950 METAR ESMX 091950Z 07005KT 030V110 CAVOK 15/03 Q1014=
201805091920 METAR ESMX 091920Z 07006KT 040V110 CAVOK 17/02 Q1014=
201805091850 METAR ESMX 091850Z 07006KT 040V110 CAVOK 18/02 Q1014=
201805091820 METAR ESMX 091820Z 08006KT 050V140 CAVOK 19/01 Q1014=
201805091750 METAR ESMX 091750Z 08007KT 020V110 CAVOK 20/02 Q1014=
201805091720 METAR ESMX 091720Z 08007KT 020V140 CAVOK 21/04 Q1014=
201805091650 METAR ESMX 091650Z 08006KT 040V170 CAVOK 22/04 Q1015=
201805091620 METAR ESMX 091620Z 08008KT 050V130 CAVOK 22/03 Q1015=
201805091550 METAR ESMX 091550Z 13007KT 060V180 CAVOK 23/03 Q1015=
201805091520 METAR ESMX 091520Z 11007KT 060V170 CAVOK 23/03 Q1015=
201805091450 METAR ESMX 091450Z 11008KT 030V160 CAVOK 23/04 Q1015=
201805091420 METAR ESMX 091420Z 12008KT 070V170 CAVOK 24/04 Q1015=
201805091350 METAR ESMX 091350Z 13007KT 030V190 CAVOK 24/05 Q1015=
201805091320 METAR ESMX 091320Z 14008KT 080V180 CAVOK 24/05 Q1016=
201805091250 METAR ESMX 091250Z 13009KT 090V160 CAVOK 24/04 Q1016=
201805091220 METAR ESMX 091220Z 14012KT 080V160 CAVOK 24/05 Q1016=
201805091150 METAR ESMX 091150Z 12007KT 030V190 CAVOK 24/06 Q1016=
201805091120 METAR ESMX 091120Z 14008KT 080V170 CAVOK 24/07 Q1016=
201805091050 METAR ESMX 091050Z 16009KT 100V190 CAVOK 23/07 Q1017=
201805091020 METAR ESMX 091020Z 16009KT 120V190 CAVOK 23/07 Q1017=
201805090950 METAR ESMX 090950Z 14009KT 090V170 CAVOK 23/08 Q1017=
201805090920 METAR ESMX 090920Z 15010KT CAVOK 22/08 Q1017=
201805090850 METAR ESMX 090850Z 15007KT 100V180 CAVOK 21/08 Q1017=
201805090820 METAR ESMX 090820Z 15008KT 100V170 CAVOK 21/08 Q1017=
201805090750 METAR ESMX 090750Z 15007KT 110V180 CAVOK 20/08 Q1017=
201805090720 METAR ESMX 090720Z 14006KT 100V170 CAVOK 20/08 Q1017=
201805090650 METAR ESMX 090650Z 12005KT 050V190 CAVOK 19/07 Q1017=
201805090620 METAR ESMX 090620Z VRB03KT CAVOK 17/07 Q1017=
201805090550 METAR ESMX 090550Z VRB03KT CAVOK 15/06 Q1017=
201805090520 METAR ESMX 090520Z VRB03KT CAVOK 14/07 Q1017=
201805090450 METAR COR ESMX 090450Z 03003KT CAVOK 11/07 Q1017=
201805090420 METAR ESMX 090420Z 01002KT CAVOK 08/06 Q1017=
201805090350 METAR ESMX 090350Z 00000KT CAVOK 07/05 Q1017=
201805090320 METAR ESMX 090320Z AUTO 00000KT 9999 NCD 06/05 Q1017=
201805090250 METAR ESMX 090250Z AUTO 06003KT 9999 NCD 07/04 Q1017=
201805090220 METAR ESMX 090220Z AUTO VRB03KT 9999 NCD 08/05 Q1017=
201805090150 METAR ESMX 090150Z AUTO VRB03KT 9999 NCD 09/05 Q1017=
201805090120 METAR ESMX 090120Z AUTO VRB03KT 9999 NCD 09/06 Q1017=
201805090050 METAR ESMX 090050Z AUTO 08003KT 9999 NCD 09/06 Q1017=
201805090020 METAR ESMX 090020Z AUTO VRB03KT 9999 NCD 09/06 Q1017=
201805082350 METAR ESMX 082350Z AUTO 08002KT 9999 NCD 07/05 Q1017=
201805082320 METAR ESMX 082320Z AUTO 07002KT 9999 NCD 07/04 Q1017=
201805082250 METAR ESMX 082250Z AUTO 00000KT 9999 NCD 07/04 Q1017=
201805082220 METAR ESMX 082220Z AUTO 00000KT 9999 NCD 08/05 Q1017=
201805082150 METAR ESMX 082150Z AUTO 00000KT 9999 NCD 09/05 Q1017=
201805082120 METAR ESMX 082120Z AUTO 00000KT 9999 NCD 10/05 Q1017=
201805082050 METAR ESMX 082050Z AUTO 07002KT 9999 NCD 11/06 Q1017=
201805082020 METAR ESMX 082020Z 00000KT CAVOK 14/05 Q1017=
201805081950 METAR ESMX 081950Z 15003KT CAVOK 16/05 Q1017=
201805081920 METAR ESMX 081920Z 16004KT CAVOK 18/05 Q1017=
201805081850 METAR ESMX 081850Z 16004KT CAVOK 20/05 Q1017=
201805081820 METAR ESMX 081820Z 16006KT CAVOK 21/05 Q1017=
201805081750 METAR ESMX 081750Z 17008KT 140V200 CAVOK 22/04 Q1017=
201805081720 METAR ESMX 081720Z 16010KT CAVOK 22/05 Q1017=
201805081650 METAR ESMX 081650Z 17012KT CAVOK 23/05 Q1017=
201805081620 METAR ESMX 081620Z 18009KT 160V230 CAVOK 25/05 Q1017=
201805081550 METAR ESMX 081550Z 20009KT 170V240 CAVOK 25/06 Q1017=
201805081520 METAR ESMX 081520Z 18010KT CAVOK 25/05 Q1017=
201805081450 METAR ESMX 081450Z 16008KT 130V220 CAVOK 25/05 Q1018=
201805081420 METAR ESMX 081420Z 18008KT 140V200 CAVOK 25/04 Q1018=
201805081350 METAR ESMX 081350Z 18008KT 140V210 CAVOK 25/04 Q1018=
201805081320 METAR ESMX 081320Z 17007KT 090V210 CAVOK 25/05 Q1018=
201805081250 METAR ESMX 081250Z 17007KT 110V210 CAVOK 25/05 Q1019=
201805081220 METAR ESMX 081220Z 17007KT 120V210 CAVOK 25/06 Q1019=
201805081150 METAR ESMX 081150Z 17007KT 110V230 CAVOK 25/05 Q1019=
201805081120 METAR ESMX 081120Z 17005KT 110V240 CAVOK 24/07 Q1019=
201805081050 METAR ESMX 081050Z 17007KT 140V200 CAVOK 23/05 Q1020=
201805081020 METAR ESMX 081020Z 17008KT 130V200 CAVOK 24/04 Q1020=
201805080950 METAR ESMX 080950Z 16007KT 110V200 CAVOK 23/05 Q1020=
201805080920 METAR ESMX 080920Z 18007KT 140V210 CAVOK 23/06 Q1021=
201805080850 METAR ESMX 080850Z 16005KT 120V210 CAVOK 22/06 Q1021=
201805080820 METAR ESMX 080820Z 12004KT 070V190 CAVOK 22/07 Q1021=
201805080750 METAR ESMX 080750Z 13004KT 100V170 CAVOK 20/08 Q1021=
201805080720 METAR ESMX 080720Z 15005KT 120V200 CAVOK 19/08 Q1021=
201805080650 METAR ESMX 080650Z VRB02KT CAVOK 19/08 Q1021=
201805080620 METAR ESMX 080620Z VRB03KT CAVOK 17/08 Q1021=
201805080550 METAR ESMX 080550Z VRB01KT CAVOK 16/08 Q1021=
201805080520 METAR ESMX 080520Z 03003KT CAVOK 14/08 Q1021=
201805080450 METAR ESMX 080450Z 00000KT CAVOK 11/11 Q1021=
201805080420 METAR ESMX 080420Z 00000KT CAVOK 07/07 Q1021=
201805080350 METAR ESMX 080350Z 00000KT CAVOK 06/06 Q1021=
201805080320 METAR ESMX 080320Z AUTO 00000KT 9999 NCD 04/03 Q1021=
201805080250 METAR ESMX 080250Z AUTO 00000KT 9999 NCD 05/05 Q1021=
201805080220 METAR ESMX 080220Z AUTO 00000KT 9999 NCD 06/05 Q1021=
201805080150 METAR ESMX 080150Z AUTO 00000KT 9999 NCD 05/04 Q1021=
201805080120 METAR ESMX 080120Z AUTO 00000KT 9999 NCD 07/05 Q1021=
201805080050 METAR ESMX 080050Z AUTO 00000KT 9999 NCD 06/05 Q1021=
201805080020 METAR ESMX 080020Z AUTO 00000KT 9999 NCD 07/05 Q1022=
201805072350 METAR ESMX 072350Z AUTO 18003KT 9999 NCD 07/06 Q1022=
201805072320 METAR ESMX 072320Z AUTO 19002KT 9999 NCD 08/06 Q1022=
201805072250 METAR ESMX 072250Z AUTO 00000KT 9999 NCD 09/07 Q1022=
201805072220 METAR ESMX 072220Z AUTO 17003KT 9999 NCD 10/07 Q1022=
201805072150 METAR ESMX 072150Z AUTO 00000KT 9999 NCD 10/07 Q1022=
201805072120 METAR ESMX 072120Z AUTO 22004KT 9999 NCD 13/07 Q1022=
201805072050 METAR ESMX 072050Z AUTO 22006KT 9999 NCD 13/07 Q1022=
201805072020 METAR ESMX 072020Z AUTO 22005KT 9999 NCD 14/07 Q1022=
201805071950 METAR ESMX 071950Z AUTO 21004KT 9999 NCD 13/06 Q1022=
201805071920 METAR ESMX 071920Z AUTO 17002KT 9999 NCD 15/06 Q1022=
201805071850 METAR ESMX 071850Z AUTO 00000KT 9999 NCD 18/07 Q1022=
201805071820 METAR ESMX 071820Z AUTO 31002KT 9999 NCD 21/05 Q1021=
201805071750 METAR ESMX 071750Z AUTO 32004KT 9999 NCD 22/05 Q1021=
201805071720 METAR ESMX 071720Z 25004KT CAVOK 23/05 Q1021=
201805071650 METAR ESMX 071650Z 23004KT 200V280 CAVOK 24/05 Q1021=
201805071620 METAR ESMX 071620Z 22005KT 190V280 CAVOK 24/04 Q1022=
201805071550 METAR ESMX 071550Z 18006KT 110V210 CAVOK 24/05 Q1022=
201805071520 METAR ESMX 071520Z VRB04KT CAVOK 24/04 Q1022=
201805071450 METAR ESMX 071450Z 26006KT 200V300 CAVOK 25/06 Q1022=
201805071420 METAR ESMX 071420Z 20005KT 150V320 CAVOK 24/05 Q1022=
201805071350 METAR ESMX 071350Z 20004KT 130V280 CAVOK 24/06 Q1023=
201805071320 METAR ESMX 071320Z 20005KT 160V260 CAVOK 24/06 Q1023=
201805071250 METAR ESMX 071250Z 24004KT 140V320 CAVOK 24/06 Q1023=
201805071220 METAR ESMX 071220Z VRB06KT CAVOK 24/06 Q1023=
201805071150 METAR ESMX 071150Z 21005KT 150V290 CAVOK 23/06 Q1024=
201805071120 METAR ESMX 071120Z 26006KT 200V290 CAVOK 23/06 Q1024=
201805071050 METAR ESMX 071050Z 26008KT 210V300 CAVOK 23/06 Q1024=
201805071020 METAR ESMX 071020Z VRB07KT CAVOK 22/06 Q1025=
201805070950 METAR ESMX 070950Z 21006KT 160V280 CAVOK 21/05 Q1025=
201805070920 METAR ESMX 070920Z 24007KT 160V280 CAVOK 21/06 Q1025=
201805070850 METAR ESMX 070850Z 23006KT 170V260 CAVOK 20/05 Q1025=
201805070820 METAR ESMX 070820Z 22005KT 150V290 CAVOK 19/06 Q1025=
201805070750 METAR ESMX 070750Z 26004KT 170V310 CAVOK 18/04 Q1025=
201805070720 METAR ESMX 070720Z 24005KT 170V280 CAVOK 17/03 Q1025=
201805070650 METAR ESMX 070650Z 22005KT 200V260 CAVOK 16/05 Q1025=
201805070620 METAR ESMX 070620Z 23003KT 210V270 CAVOK 15/05 Q1025=
201805070550 METAR ESMX 070550Z AUTO 00000KT 9999 NCD 14/06 Q1025=
201805070520 METAR ESMX 070520Z AUTO 00000KT 9999 NCD 11/06 Q1025=
201805070450 METAR ESMX 070450Z 00000KT CAVOK 09/06 Q1025=
201805070420 METAR ESMX 070420Z 26002KT CAVOK 05/04 Q1025=
201805070350 METAR ESMX 070350Z 26001KT CAVOK 03/02 Q1025=
201805070320 METAR ESMX 070320Z AUTO 00000KT 9999 NCD 02/01 Q1025=
201805070250 METAR ESMX 070250Z AUTO 00000KT 9999 NCD 02/01 Q1026=
201805070220 METAR ESMX 070220Z AUTO 26002KT 9999 NCD 03/02 Q1026=
201805070150 METAR ESMX 070150Z AUTO 26002KT 9999 NCD 04/02 Q1026=
201805070120 METAR ESMX 070120Z AUTO 26002KT 9999 NCD 04/02 Q1025=
201805070050 METAR ESMX 070050Z AUTO 00000KT 9999 NCD 04/02 Q1025=
201805070020 METAR ESMX 070020Z AUTO 26003KT 9999 NCD 05/02 Q1025=
201805062350 METAR ESMX 062350Z AUTO 26003KT 9999 NCD 06/02 Q1025=
201805062320 METAR ESMX 062320Z AUTO 00000KT 9999 NCD 05/03 Q1025=
201805062250 METAR ESMX 062250Z AUTO 00000KT 9999 NCD 08/02 Q1025=
201805062220 METAR ESMX 062220Z AUTO 25002KT 9999 NCD 09/02 Q1026=
201805062150 METAR ESMX 062150Z AUTO 26003KT 9999 NCD 08/02 Q1026=
201805062120 METAR ESMX 062120Z AUTO 24004KT 9999 NCD 09/02 Q1026=
201805062050 METAR ESMX 062050Z AUTO 25005KT 9999 NCD 11/02 Q1026=
201805062020 METAR ESMX 062020Z AUTO 23005KT 9999 NCD 12/02 Q1026=
201805061950 METAR ESMX 061950Z 25005KT CAVOK 14/02 Q1026=
201805061920 METAR ESMX 061920Z 25004KT CAVOK 14/03 Q1025=
201805061850 METAR ESMX 061850Z 26005KT CAVOK 16/03 Q1025=
201805061820 METAR ESMX 061820Z 27005KT CAVOK 18/04 Q1025=
201805061750 METAR ESMX 061750Z 27006KT CAVOK 19/05 Q1025=
201805061720 METAR ESMX 061720Z 28007KT CAVOK 20/06 Q1025=
201805061650 METAR ESMX 061650Z 27009KT CAVOK 20/05 Q1025=
201805061620 METAR ESMX 061620Z 29008KT CAVOK 21/05 Q1025=
201805061550 METAR ESMX 061550Z 29007KT 250V330 CAVOK 21/05 Q1025=
201805061520 METAR ESMX 061520Z 28009KT 240V310 CAVOK 22/05 Q1025=
201805061450 METAR ESMX 061450Z 29009KT 260V330 CAVOK 22/06 Q1025=
201805061420 METAR ESMX 061420Z 30009KT 260V330 CAVOK 22/06 Q1025=
201805061350 METAR ESMX 061350Z 28009KT 250V320 CAVOK 22/06 Q1026=
201805061320 METAR ESMX 061320Z 26009KT 230V290 CAVOK 22/06 Q1026=
201805061250 METAR ESMX 061250Z 27008KT 240V300 CAVOK 22/06 Q1026=
201805061220 METAR ESMX 061220Z 26008KT 210V320 CAVOK 21/06 Q1026=
201805061150 METAR ESMX 061150Z 29009KT 260V330 CAVOK 21/05 Q1027=
201805061120 METAR ESMX 061120Z 29008KT 230V340 CAVOK 21/05 Q1027=
201805061050 METAR ESMX 061050Z 24009KT 210V280 CAVOK 21/05 Q1027=
201805061020 METAR ESMX 061020Z 25007KT 200V280 CAVOK 20/06 Q1027=
201805060950 METAR ESMX 060950Z AUTO 29007KT 230V330 9999 NCD 19/05 Q1027=
201805060920 METAR ESMX 060920Z AUTO 30007KT 250V340 9999 NCD 18/04 Q1028=
201805060850 METAR ESMX 060850Z AUTO 30007KT 9999 NCD 18/06 Q1028=
201805060820 METAR ESMX 060820Z 31005KT 280V020 CAVOK 17/06 Q1028=
201805060750 METAR ESMX 060750Z 29005KT 220V340 CAVOK 16/06 Q1028=
201805060720 METAR ESMX 060720Z 24006KT 200V280 CAVOK 15/06 Q1028=
201805060650 METAR ESMX 060650Z 28005KT 230V310 CAVOK 14/07 Q1028=
201805060620 METAR ESMX 060620Z 27004KT 250V320 CAVOK 13/07 Q1028=
201805060550 METAR ESMX 060550Z AUTO VRB02KT 9999 NCD 11/06 Q1028=
201805060520 METAR ESMX 060520Z AUTO 00000KT 9999 NCD 10/06 Q1028=
201805060450 METAR ESMX 060450Z AUTO 00000KT 9999 NCD 08/07 Q1028=
201805060420 METAR ESMX 060420Z AUTO 17002KT 9999 NCD 06/05 Q1027=
201805060350 METAR ESMX 060350Z AUTO 19001KT 9999 NCD 03/02 Q1027=
201805060320 METAR ESMX 060320Z AUTO 17003KT 8000 BR NCD 03/03 Q1028=
201805060250 METAR ESMX 060250Z AUTO 00000KT 9000 BR NCD 04/04 Q1028=
201805060220 METAR ESMX 060220Z AUTO 16002KT 9000 BR NCD 05/04 Q1028=
201805060150 METAR ESMX 060150Z AUTO 19003KT 9999 NCD 05/04 Q1028=
201805060120 METAR ESMX 060120Z AUTO 00000KT 9999 NCD 06/05 Q1027=
201805060050 METAR ESMX 060050Z AUTO 28004KT 9999 NCD 04/03 Q1027=
201805060020 METAR ESMX 060020Z AUTO 17001KT 9999 NCD 06/04 Q1027=
201805052350 METAR ESMX 052350Z AUTO 00000KT 9999 NCD 08/05 Q1027=
201805052320 METAR ESMX 052320Z AUTO 30002KT 9999 NCD 08/06 Q1027=
201805052250 METAR ESMX 052250Z AUTO 28004KT 9999 NCD 08/05 Q1027=
201805052220 METAR ESMX 052220Z AUTO 26003KT 9999 NCD 09/05 Q1027=
201805052150 METAR ESMX 052150Z AUTO 26004KT 9999 NCD 10/05 Q1027=
201805052120 METAR ESMX 052120Z AUTO 26005KT 9999 NCD 10/05 Q1027=
201805052050 METAR ESMX 052050Z AUTO 25004KT 9999 NCD 11/05 Q1027=
201805052020 METAR ESMX 052020Z AUTO 25004KT 9999 NCD 11/04 Q1027=
201805051950 METAR ESMX 051950Z AUTO 25005KT 9999 NCD 12/05 Q1027=
201805051920 METAR ESMX 051920Z 26005KT CAVOK 14/05 Q1027=
201805051850 METAR ESMX 051850Z 26005KT CAVOK 14/06 Q1027=
201805051820 METAR ESMX 051820Z 26007KT CAVOK 16/06 Q1026=
201805051750 METAR ESMX 051750Z 26008KT CAVOK 17/06 Q1026=
201805051720 METAR ESMX 051720Z 27008KT 230V290 CAVOK 18/06 Q1026=
201805051650 METAR ESMX 051650Z AUTO 27009KT 9999 NCD 18/06 Q1026=
201805051620 METAR ESMX 051620Z AUTO 27008KT 240V300 9999 NCD 19/06 Q1026=
201805051550 METAR ESMX 051550Z AUTO 26008KT 230V300 9999 NCD 19/06 Q1026=
201805051520 METAR ESMX 051520Z AUTO 26007KT 200V310 9999 NCD 19/06 Q1026=
201805051450 METAR ESMX 051450Z AUTO 27008KT 230V300 9999 NCD 19/06 Q1026=
201805051420 METAR ESMX 051420Z AUTO 29009KT 250V310 9999 NCD 19/05 Q1027=
201805051350 METAR ESMX 051350Z AUTO 28009KT 250V340 9999 NCD 19/05 Q1027=
201805051320 METAR ESMX 051320Z AUTO 28009KT 230V330 9999 NCD 19/06 Q1027=
201805051250 METAR ESMX 051250Z AUTO 28009KT 9999 NCD 18/04 Q1027=
201805051220 METAR ESMX 051220Z AUTO 26007KT 210V290 9999 NCD 18/04 Q1027=
201805051150 METAR ESMX 051150Z AUTO 26008KT 220V300 9999 FEW190/// 17/04 Q1027=
201805051120 METAR ESMX 051120Z AUTO 28010KT 250V320 9999 FEW200/// 17/04 Q1027=
201805051050 METAR ESMX 051050Z AUTO 28011KT 250V310 9999 NCD 16/02 Q1028=
201805051020 METAR ESMX 051020Z AUTO 25009KT 200V290 9999 NCD 16/03 Q1028=
201805050950 METAR ESMX 050950Z AUTO 27010KT 230V300 9999 NCD 16/02 Q1028=
201805050920 METAR ESMX 050920Z 26006KT 210V300 CAVOK 15/04 Q1028=
201805050850 METAR ESMX 050850Z 28007KT 240V320 CAVOK 15/03 Q1028=
201805050820 METAR ESMX 050820Z 26008KT 190V290 CAVOK 13/03 Q1028=
201805050750 METAR ESMX 050750Z 23006KT 190V280 CAVOK 13/04 Q1028=
201805050720 METAR ESMX 050720Z 25005KT 220V290 CAVOK 12/04 Q1028=
201805050650 METAR ESMX 050650Z AUTO 22005KT 9999 BKN047/// 11/05 Q1028=
201805050620 METAR ESMX 050620Z AUTO 22004KT 9999 OVC047/// 09/04 Q1028=
201805050550 METAR ESMX 050550Z AUTO 26003KT 220V280 9999 OVC049/// 09/03 Q1028=
201805050520 METAR ESMX 050520Z AUTO VRB02KT 9999 SCT051/// 07/03 Q1027=
201805050450 METAR ESMX 050450Z AUTO 19003KT 9999 NCD 05/04 Q1027=
201805050420 METAR ESMX 050420Z AUTO 20003KT 9999 NCD 02/02 Q1027=
201805050350 METAR ESMX 050350Z AUTO 15003KT 9999 NCD 03/02 Q1027=
201805050320 METAR ESMX 050320Z AUTO 11002KT 9000 BR NCD 02/02 Q1027=
201805050250 METAR ESMX 050250Z AUTO 00000KT 9999 NCD 02/02 Q1026=
201805050220 METAR ESMX 050220Z AUTO 21002KT 9999 NCD 02/01 Q1026=
201805050150 METAR ESMX 050150Z AUTO VRB02KT 9999 NCD 01/01 Q1026=
201805050120 METAR ESMX 050120Z AUTO 00000KT 9999 NCD 03/02 Q1026=
201805050050 METAR ESMX 050050Z AUTO 23003KT 9999 NCD 02/01 Q1026=
201805050020 METAR ESMX 050020Z AUTO 00000KT 9999 NCD 04/03 Q1026=
201805042350 METAR ESMX 042350Z AUTO VRB02KT 9999 NCD 05/04 Q1026=
201805042320 METAR ESMX 042320Z AUTO 00000KT 9999 NCD 06/04 Q1026=
201805042250 METAR ESMX 042250Z AUTO VRB02KT 9999 NCD 07/04 Q1026=
201805042220 METAR ESMX 042220Z AUTO VRB03KT 9999 NCD 07/04 Q1026=
201805042150 METAR ESMX 042150Z AUTO 27004KT 9999 NCD 07/04 Q1026=
201805042120 METAR ESMX 042120Z AUTO 26006KT 9999 NCD 08/04 Q1025=
201805042050 METAR ESMX 042050Z AUTO 26006KT 9999 NCD 07/03 Q1025=
201805042020 METAR ESMX 042020Z AUTO 25005KT 9999 NCD 05/02 Q1025=
201805041950 METAR ESMX 041950Z AUTO 29004KT 9999 NCD 07/03 Q1025=
201805041920 METAR ESMX 041920Z AUTO 29003KT 9999 NCD 09/02 Q1024=
201805041850 METAR ESMX 041850Z AUTO 30005KT 9999 NCD 11/02 Q1024=
201805041820 METAR ESMX 041820Z AUTO 30007KT 9999 BKN061/// 12/02 Q1023=
201805041750 METAR ESMX 041750Z AUTO 28004KT 9999 OVC062/// 13/03 Q1023=
201805041720 METAR ESMX 041720Z 29005KT CAVOK 14/02 Q1023=
201805041650 METAR ESMX 041650Z 28008KT 240V330 CAVOK 14/01 Q1023=
201805041620 METAR ESMX 041620Z 32006KT CAVOK 16/02 Q1023=
201805041550 METAR ESMX 041550Z 29008KT 240V350 CAVOK 15/01 Q1023=
201805041520 METAR ESMX 041520Z 29007KT 260V330 CAVOK 15/02 Q1023=
201805041450 METAR ESMX 041450Z 28007KT 240V320 CAVOK 14/01 Q1023=
201805041420 METAR ESMX 041420Z 30008KT 260V330 CAVOK 14/02 Q1022=
201805041350 METAR ESMX 041350Z 27007KT 240V310 9999 FEW049 14/02 Q1022=
201805041320 METAR ESMX 041320Z 30007KT 260V340 9999 FEW049 14/02 Q1023=
201805041250 METAR ESMX 041250Z 27008KT 210V320 CAVOK 14/02 Q1023=
201805041220 METAR ESMX 041220Z 30007KT CAVOK 14/02 Q1023=
201805041150 METAR ESMX 041150Z AUTO 29008KT 230V360 9999 FEW150/// SCT190/// 13/01 Q1022=
201805041120 METAR ESMX 041120Z 30009KT CAVOK 13/01 Q1022=
201805041050 METAR ESMX 041050Z 29008KT 240V330 CAVOK 14/01 Q1022=
201805041020 METAR ESMX 041020Z 32009KT 290V360 CAVOK 13/01 Q1022=
201805040950 METAR ESMX 040950Z 31011KT CAVOK 12/00 Q1022=
201805040920 METAR ESMX 040920Z 29009KT 250V330 CAVOK 12/01 Q1022=
201805040850 METAR ESMX 040850Z 28009KT 240V320 CAVOK 11/01 Q1022=
201805040820 METAR ESMX 040820Z 27011KT 230V320 CAVOK 11/01 Q1022=
201805040750 METAR ESMX 040750Z 26010KT 240V300 CAVOK 10/02 Q1022=
201805040720 METAR ESMX 040720Z 27008KT 230V300 CAVOK 10/03 Q1021=
201805040650 METAR ESMX 040650Z 29009KT CAVOK 08/03 Q1021=
201805040620 METAR ESMX 040620Z 29010KT CAVOK 07/03 Q1021=
201805040550 METAR ESMX 040550Z 28008KT CAVOK 07/03 Q1021=
201805040520 METAR ESMX 040520Z 29009KT CAVOK 05/03 Q1021=
201805040450 METAR ESMX 040450Z 27008KT CAVOK 04/02 Q1021=
201805040420 METAR ESMX 040420Z 24005KT CAVOK 03/01 Q1021=
201805040350 METAR ESMX 040350Z 24005KT CAVOK 02/01 Q1021=
201805040320 METAR ESMX 040320Z AUTO 23006KT 9999 NCD 02/01 Q1021=
201805040250 METAR ESMX 040250Z AUTO 23007KT 9999 NCD 02/01 Q1021=
201805040220 METAR ESMX 040220Z AUTO 23006KT 9999 NCD 02/01 Q1020=
201805040150 METAR ESMX 040150Z AUTO 22007KT 9999 NCD 02/01 Q1020=
201805040120 METAR ESMX 040120Z AUTO 22006KT 9999 NCD 03/01 Q1020=
201805040050 METAR ESMX 040050Z AUTO 22006KT 9999 NCD 03/02 Q1020=
201805040020 METAR ESMX 040020Z AUTO 22005KT 9999 NCD 03/02 Q1020=
201805032350 METAR ESMX 032350Z AUTO 20006KT 9999 NCD 03/02 Q1019=
201805032320 METAR ESMX 032320Z AUTO 21005KT 9999 NCD 03/02 Q1019=
201805032250 METAR ESMX 032250Z AUTO 23005KT 9999 NCD 04/02 Q1018=
201805032220 METAR ESMX 032220Z AUTO 24005KT 9999 NCD 03/02 Q1018=
201805032150 METAR ESMX 032150Z AUTO 21005KT 9999 NCD 03/01 Q1018=
201805032120 METAR ESMX 032120Z AUTO 23005KT 9999 NCD 04/02 Q1018=
201805032050 METAR ESMX 032050Z AUTO 21005KT 9999 NCD 05/01 Q1017=
201805032020 METAR ESMX 032020Z AUTO 22005KT 9999 NCD 05/01 Q1017=
201805031950 METAR ESMX 031950Z AUTO 22005KT 9999 NCD 06/01 Q1017=
201805031920 METAR ESMX 031920Z AUTO 22005KT 9999 NCD 06/01 Q1016=
201805031850 METAR ESMX 031850Z AUTO 25005KT 9999 NCD 08/01 Q1016=
201805031820 METAR ESMX 031820Z 26007KT 220V300 CAVOK 09/01 Q1015=
201805031750 METAR ESMX 031750Z 26009KT 9999 FEW040 10/01 Q1015=
201805031720 METAR ESMX 031720Z 29012G24KT 9999 FEW045 10/00 Q1014=
201805031650 METAR ESMX 031650Z 26013G24KT 230V300 9999 FEW045 11/M00 Q1014=
201805031620 METAR ESMX 031620Z 28012KT 9999 FEW045 12/00 Q1014=
201805031550 METAR ESMX 031550Z 27015KT 240V300 9999 SCT045 12/02 Q1013=
201805031520 METAR ESMX 031520Z 26011KT 9999 SCT040 12/03 Q1013=
201805031450 METAR ESMX 031450Z 26013KT 230V290 9999 BKN035 12/03 Q1013=
201805031420 METAR ESMX 031420Z 25012KT 210V290 9999 FEW025 BKN035 12/05 Q1012=
201805031350 METAR ESMX 031350Z 24013KT 9999 BKN025 11/05 Q1012=
201805031320 METAR ESMX 031320Z 26015KT 9999 BKN023 11/06 Q1011=
201805031250 METAR ESMX 031250Z 23009KT 200V260 9999 BKN021 12/07 Q1011=
201805031220 METAR ESMX 031220Z 25008KT 210V290 9999 FEW011 SCT018 12/08 Q1011=
201805031150 METAR ESMX 031150Z 22008KT 9999 SCT009 BKN013 11/09 Q1011=
201805031120 METAR ESMX 031120Z 18007KT 140V220 9999 SCT003 BKN005 10/08 Q1011=
201805031050 METAR ESMX 031050Z 18009KT 4700 BR OVC002 08/08 Q1011=
201805031020 METAR ESMX 031020Z 15006KT 110V190 3700 BR OVC002 08/08 Q1010=
201805030950 METAR ESMX 030950Z 14007KT 100V170 4500 -DZ OVC003 08/07 Q1010=
201805030920 METAR ESMX 030920Z 12005KT 070V180 7000 DZ FEW002 OVC005 08/07 Q1010=
201805030850 METAR ESMX 030850Z 14004KT 080V190 9999 -DZ OVC005 08/07 Q1010=
201805030820 METAR ESMX 030820Z 12006KT 070V160 9999 OVC006 07/07 Q1011=
201805030750 METAR ESMX 030750Z 12005KT 080V170 9999 -RA BKN006 OVC007 07/06 Q1011=
201805030720 METAR ESMX 030720Z 12005KT 070V160 9999 RA BKN006 OVC008 07/06 Q1011=
201805030650 METAR ESMX 030650Z 12005KT 070V160 9999 -RA BKN007 BKN014 07/06 Q1011=
201805030620 METAR ESMX 030620Z 13005KT 070V200 9999 -DZ FEW009 SCT012 BKN015 07/06 Q1011=
201805030550 METAR ESMX 030550Z 11005KT 080V160 9999 -RA BKN038 07/05 Q1011=
201805030520 METAR ESMX 030520Z 13006KT 100V160 9999 -RA BKN041 07/03 Q1011=
201805030450 METAR ESMX 030450Z 11005KT 070V140 9999 OVC041 07/02 Q1012=
201805030420 METAR ESMX 030420Z 12006KT 080V150 9999 BKN047 07/00 Q1012=
201805030350 METAR ESMX 030350Z 11004KT 070V150 CAVOK 06/M00 Q1012=
201805030320 METAR ESMX 030320Z AUTO 11003KT 060V160 9999 BKN049/// OVC130/// 05/M01 Q1012=
201805030250 METAR ESMX 030250Z AUTO 10003KT 050V160 9999 BKN130/// OVC190/// 04/M00 Q1013=
201805030220 METAR ESMX 030220Z AUTO VRB02KT 9999 SCT190/// 03/01 Q1013=
201805030150 METAR ESMX 030150Z AUTO 06002KT 9999 NCD 02/M00 Q1014=
201805030120 METAR ESMX 030120Z AUTO 00000KT 9999 NCD 02/M01 Q1014=
201805030050 METAR ESMX 030050Z AUTO 13002KT 9999 NCD 04/00 Q1014=
201805030020 METAR ESMX 030020Z AUTO 14003KT 9999 NCD 05/M00 Q1014=
201805022350 METAR ESMX 022350Z AUTO 14002KT 9999 NCD 02/M01 Q1014=
201805022320 METAR ESMX 022320Z AUTO 14003KT 9999 NCD 03/M00 Q1014=
201805022250 METAR ESMX 022250Z AUTO 14001KT 9999 NCD 03/M00 Q1015=
201805022220 METAR ESMX 022220Z AUTO 14002KT 9999 NCD 03/M01 Q1015=
201805022150 METAR ESMX 022150Z AUTO 15003KT 9999 NCD 05/M02 Q1015=
201805022120 METAR ESMX 022120Z AUTO 15004KT 9999 NCD 07/M01 Q1015=
201805022050 METAR ESMX 022050Z AUTO 16005KT 9999 NCD 08/M02 Q1015=
201805022020 METAR ESMX 022020Z AUTO 16007KT 9999 NCD 09/M03 Q1015=
201805021950 METAR ESMX 021950Z AUTO 15007KT 9999 NCD 10/M01 Q1015=
201805021920 METAR ESMX 021920Z AUTO 15006KT 9999 NCD 10/00 Q1014=
201805021850 METAR ESMX 021850Z AUTO 15007KT 9999 NCD 11/01 Q1014=
201805021820 METAR ESMX 021820Z AUTO 16008KT 9999 NCD 12/00 Q1014=
201805021750 METAR ESMX 021750Z AUTO 17009KT 9999 NCD 13/00 Q1014=
201805021720 METAR ESMX 021720Z 17008KT 140V220 CAVOK 14/M00 Q1014=
201805021650 METAR ESMX 021650Z 20008KT 160V250 CAVOK 15/M04 Q1014=
201805021620 METAR ESMX 021620Z 20010KT CAVOK 15/M03 Q1014=
201805021550 METAR ESMX 021550Z 19010KT CAVOK 15/M02 Q1014=
201805021520 METAR ESMX 021520Z 17006KT CAVOK 15/M01 Q1014=
201805021450 METAR ESMX 021450Z 17007KT 140V210 CAVOK 15/M01 Q1014=
201805021420 METAR ESMX 021420Z 19010KT CAVOK 15/M00 Q1014=
201805021350 METAR ESMX 021350Z 17009KT CAVOK 14/M01 Q1014=
201805021320 METAR ESMX 021320Z 21010KT 130V240 CAVOK 15/M00 Q1015=
201805021250 METAR ESMX 021250Z 22009KT 190V290 CAVOK 15/M00 Q1015=
201805021220 METAR ESMX 021220Z 20010KT 150V240 CAVOK 14/00 Q1015=
201805021150 METAR ESMX 021150Z 22007G17KT 140V270 CAVOK 14/02 Q1015=
201805021120 METAR ESMX 021120Z 25009KT 200V290 CAVOK 14/01 Q1015=
201805021050 METAR ESMX 021050Z 22010G21KT 160V280 9999 FEW045 14/01 Q1015=
201805021020 METAR ESMX 021020Z 21010KT 180V260 9999 FEW030 12/02 Q1015=
201805020950 METAR ESMX 020950Z 25007KT 190V290 9999 FEW030 12/03 Q1014=
201805020920 METAR ESMX 020920Z 22009KT 9999 SCT025 11/05 Q1014=
201805020850 METAR ESMX 020850Z 25008KT 210V290 9999 SCT016 BKN025 10/06 Q1014=
201805020820 METAR ESMX 020820Z 25008KT 9999 FEW009 BKN013 08/05 Q1014=
201805020750 METAR ESMX 020750Z 23008KT 9999 BKN009 08/06 Q1013=
201805020720 METAR ESMX 020720Z 26009KT 9999 BKN012 08/06 Q1013=
201805020650 METAR ESMX 020650Z 24006KT 180V270 9999 FEW008 BKN010 09/07 Q1012=
201805020620 METAR ESMX 020620Z 26006KT 210V290 9999 SCT006 BKN008 08/07 Q1012=
201805020550 METAR ESMX 020550Z 21005KT 9999 BKN006 08/07 Q1012=
201805020520 METAR COR ESMX 020520Z 22007KT 9999 BKN005 07/06 Q1011=
201805020450 METAR ESMX 020450Z 21009KT 2700 -DZ FEW002 BKN005 07/06 Q1011=
201805020420 METAR COR ESMX 020420Z 20008KT 4000 BR BKN008 07/06 Q1010=
201805020350 METAR ESMX 020350Z 21008KT 9999 BKN009 07/06 Q1010=
201805020320 METAR COR ESMX 020320Z 23009KT 9999 BKN008 07/06 Q1009=
201805020250 METAR ESMX 020250Z AUTO 22009KT 9999 BKN009/// OVC014/// 07/06 Q1009=
201805020220 METAR ESMX 020220Z AUTO 24009KT 9999 OVC010/// 07/06 Q1009=
201805020150 METAR ESMX 020150Z AUTO 23010KT 9999 BKN009/// OVC013/// 07/06 Q1009=
201805020120 METAR ESMX 020120Z AUTO 23009KT 200V260 9999 FEW002/// BKN006/// OVC009/// 07/06 Q1008 REUP=
201805020050 METAR ESMX 020050Z AUTO 21008KT 9999 BKN008/// OVC010/// 07/06 Q1008=
201805020020 METAR ESMX 020020Z AUTO 22009KT 9999 FEW002/// OVC006/// 07/06 Q1007=
201805012350 METAR ESMX 012350Z AUTO 22010KT 9999 OVC006/// 07/06 Q1007 REDZ=
201805012320 METAR ESMX 012320Z AUTO 20009KT 9999 DZ SCT007/// OVC009/// 06/06 Q1006 REUP REDZ=
201805012250 METAR ESMX 012250Z AUTO 21009KT 9999 BKN010/// OVC024/// 06/05 Q1006=
201805012220 METAR ESMX 012220Z AUTO 20009KT 9999 SCT009/// BKN028/// OVC048/// 06/05 Q1006 REDZ REUP=
201805012150 METAR ESMX 012150Z AUTO 20010KT 9999 BKN010/// OVC013/// 07/05 Q1005=
201805012120 METAR ESMX 012120Z AUTO 20010KT 9999 OVC011/// 07/05 Q1005=
201805012050 METAR ESMX 012050Z AUTO 20011KT 9999 SCT008/// BKN011/// BKN015/// 06/05 Q1005=
201805012020 METAR ESMX 012020Z AUTO 18014KT 9999 DZ FEW006/// BKN008/// OVC010/// 07/05 Q1004=
201805011950 METAR ESMX 011950Z 18013KT 9999 -DZ OVC011 07/05 Q1004=
201805011920 METAR ESMX 011920Z 18015KT 9999 DZ BKN012 07/05 Q1004=
201805011850 METAR ESMX 011850Z 17012KT 9999 -DZ BKN014 07/05 Q1004=
201805011820 METAR ESMX 011820Z 17012KT 9999 -RA BKN015 07/04 Q1004=
201805011750 METAR ESMX 011750Z 18013KT 9999 -RA BKN018 07/04 Q1004=
201805011720 METAR ESMX 011720Z AUTO 18015KT 9999 -DZ OVC019/// 07/04 Q1003=
201805011650 METAR ESMX 011650Z 17014KT 9999 -DZ BKN021 08/04 Q1004=
201805011620 METAR ESMX 011620Z 18012KT 9999 -DZ SCT022 BKN040 08/04 Q1004=
201805011550 METAR ESMX 011550Z 20016KT 9999 DZ BKN039 08/04 Q1004=
201805011520 METAR ESMX 011520Z 18019KT 9999 BKN049 10/02 Q1004=
201805011450 METAR ESMX 011450Z 17013KT 9999 BKN042 11/02 Q1004=
201805011420 METAR ESMX 011420Z 18015KT 9999 BKN042 11/02 Q1003=
201805011350 METAR ESMX 011350Z 19016KT 9999 BKN043 12/02 Q1003=
201805011320 METAR ESMX 011320Z 20013KT 9999 BKN041 12/03 Q1003=
201805011250 METAR ESMX 011250Z 19016KT 9999 BKN044 12/04 Q1003=
201805011220 METAR ESMX 011220Z 17013KT 9999 BKN045 13/03 Q1002=
