##########################################################
# Query made at 04/19/2024 22:04:26 UTC
# Time interval: from 08/01/2018 12:00  to 08/31/2018 12:59  UTC
##########################################################

##########################################################
# ESMX, Vaxjo (Sweden)
# WMO index: 02641. WIGOS ID: 0-20000-0-02648
# Latitude 56-51N. Longitude 014-50E. Altitude 199 m.
##########################################################

201808311250 METAR ESMX 311250Z 36014KT 9999 FEW011 BKN014 15/12 Q1016=
201808311220 METAR ESMX 311220Z 36011KT 9999 BKN010 15/13 Q1016=
201808311150 METAR ESMX 311150Z 02013KT 9999 BKN014 15/12 Q1016=
201808311120 METAR ESMX 311120Z 01012KT 9999 BKN014 15/13 Q1015=
201808311050 METAR ESMX 311050Z 35011KT 9999 -DZ BKN014 OVC034 15/13 Q1015=
201808311020 METAR ESMX 311020Z 34011KT 9999 -RA SCT010 BKN013 15/13 Q1015=
201808310950 METAR COR ESMX 310950Z 34009KT 9999 -RA FEW009 BKN013 15/13 Q1015=
201808310920 METAR ESMX 310920Z 01010KT 9999 -RA FEW009 BKN012 14/13 Q1015=
201808310850 METAR ESMX 310850Z 35010KT 9999 -RA FEW011 BKN047 14/13 Q1015=
201808310820 METAR ESMX 310820Z 35008KT 9999 -RA BKN009 14/13 Q1015=
201808310750 METAR ESMX 310750Z 02009KT 9999 -RA BKN007 14/13 Q1014=
201808310720 METAR ESMX 310720Z 34010KT 9999 BKN007 14/13 Q1014=
201808310650 METAR ESMX 310650Z 35010KT 9999 -RA BKN007 14/13 Q1014=
201808310620 METAR ESMX 310620Z 35010KT 9999 -RA BKN007 14/13 Q1014=
201808310550 METAR COR ESMX 310550Z 34010KT 9999 -RA BKN007 14/13 Q1014=
201808310520 METAR ESMX 310520Z 36010KT 9999 OVC007 14/13 Q1014=
201808310450 METAR ESMX 310450Z 01011KT 9999 -RA BKN007 OVC010 14/13 Q1014=
201808310420 METAR ESMX 310420Z 01012KT 9999 -RA BKN007 OVC040 14/13 Q1014=
201808310350 METAR ESMX 310350Z AUTO 01011KT 9999 -RA BKN007/// BKN034/// OVC041/// 14/13 Q1014=
201808310320 METAR ESMX 310320Z AUTO 35010KT 9999 -DZ BKN006/// OVC007/// 14/13 Q1014=
201808310250 METAR ESMX 310250Z AUTO 35008KT 9999 -DZ OVC006/// 14/13 Q1014 REDZ=
201808310220 METAR ESMX 310220Z AUTO 01007KT 9999 BKN006/// OVC009/// 14/13 Q1014=
201808310150 METAR ESMX 310150Z AUTO 36007KT 9999 -DZ SCT006/// OVC041/// 14/14 Q1014=
201808310120 METAR ESMX 310120Z 34007KT 9999 -RA FEW018 BKN044 14/14 Q1014=
201808310050 METAR ESMX 310050Z 02006KT 9000 -RA BKN045 14/14 Q1015=
201808310020 METAR ESMX 310020Z 03006KT 8000 RA FEW045 BKN055 14/14 Q1015=
201808302350 METAR COR ESMX 302350Z 03005KT 9000 RA FEW045 BKN062 14/14 Q1015=
201808302320 METAR ESMX 302320Z 04004KT 9999 -RA BKN045 14/14 Q1015=
201808302250 METAR COR ESMX 302250Z 03005KT 9999 DZ BKN045 14/14 Q1015=
201808302220 METAR ESMX 302220Z AUTO 03005KT 9999 -RA SCT025/// OVC053/// 14/14 Q1015 REDZ=
201808302150 METAR ESMX 302150Z AUTO 03004KT 9999 OVC062/// 14/14 Q1015=
201808302120 METAR ESMX 302120Z AUTO 02005KT 9999 -RA SCT059/// OVC076/// 14/14 Q1015=
201808302050 METAR ESMX 302050Z AUTO 02005KT 9999 FEW031/// OVC072/// 15/14 Q1015=
201808302020 METAR ESMX 302020Z 01005KT 9999 FEW005 SCT033 BKN074 14/14 Q1016=
201808301950 METAR ESMX 301950Z 01005KT 9999 BKN033 14/13 Q1015=
201808301920 METAR ESMX 301920Z 02006KT 9999 DZ FEW033 SCT044 BKN059 15/14 Q1016=
201808301850 METAR ESMX 301850Z 03005KT 9999 DZ SCT034 BKN074 15/14 Q1016=
201808301820 METAR ESMX 301820Z 01006KT 9999 -RA FEW001 SCT039 BKN072 15/14 Q1016=
201808301750 METAR ESMX 301750Z 36006KT 9999 DZ FEW043 SCT066 15/14 Q1015=
201808301720 METAR ESMX 301720Z 04005KT 9999 -RA FEW045 SCT064 15/14 Q1015=
201808301650 METAR ESMX 301650Z 33005KT 9999 -DZ FEW022 15/14 Q1015=
201808301620 METAR ESMX 301620Z 32005KT 8000 -RA SCT022 BKN074 15/15 Q1015=
201808301550 METAR ESMX 301550Z 02004KT 9000 -RA FEW029 SCT034 BKN072 16/15 Q1015=
201808301520 METAR ESMX 301520Z 36005KT 9999 -RA FEW002 SCT043 BKN070 16/15 Q1015=
201808301450 METAR ESMX 301450Z 34003KT 7000 -RA FEW005 BKN020 16/15 Q1015=
201808301420 METAR ESMX 301420Z 34005KT 9999 -DZ FEW030 BKN040 16/15 Q1014=
201808301350 METAR ESMX 301350Z 34006KT 9999 -RA SCT017 BKN045 17/16 Q1014=
201808301320 METAR ESMX 301320Z VRB03KT 8000 -RA SCT015 BKN026 17/15 Q1014=
201808301250 METAR ESMX 301250Z 19003KT 8000 -RA SCT020 BKN040 17/15 Q1014=
201808301220 METAR ESMX 301220Z VRB02KT 9999 -RA BKN022 OVC060 18/16 Q1014=
201808301150 METAR ESMX 301150Z VRB03KT 9999 -RA FEW025 BKN060 19/15 Q1014=
201808301120 METAR ESMX 301120Z 10005KT 030V140 9999 FEW020 BKN060 19/14 Q1014=
201808301050 METAR ESMX 301050Z 12004KT 060V160 9999 FEW020 BKN059 19/14 Q1014=
201808301020 METAR ESMX 301020Z 13003KT 080V170 9999 FEW017 BKN060 19/14 Q1014=
201808300950 METAR ESMX 300950Z 11005KT 060V160 9999 FEW015 BKN060 19/14 Q1014=
201808300920 METAR ESMX 300920Z 09004KT 040V140 9999 SCT013 BKN075 18/14 Q1014=
201808300850 METAR ESMX 300850Z 10004KT 050V140 9999 BKN011 17/14 Q1015=
201808300820 METAR ESMX 300820Z 10004KT 050V150 9999 BKN009 17/14 Q1015=
201808300750 METAR ESMX 300750Z 11004KT 060V160 9999 BKN009 16/14 Q1014=
201808300720 METAR ESMX 300720Z 11004KT 060V150 9999 OVC008 16/14 Q1015=
201808300650 METAR ESMX 300650Z 10004KT 060V150 9999 OVC006 15/14 Q1015=
201808300620 METAR ESMX 300620Z VRB03KT 9999 OVC005 15/14 Q1015=
201808300550 METAR ESMX 300550Z 08004KT 020V120 9999 OVC004 15/14 Q1015=
201808300520 METAR ESMX 300520Z 07003KT 040V150 9999 OVC003 15/14 Q1015=
201808300450 METAR ESMX 300450Z 08004KT 040V120 8000 BR OVC002 14/14 Q1015=
201808300420 METAR ESMX 300420Z 08004KT 040V120 3000 BR OVC001 14/14 Q1015=
201808300350 METAR ESMX 300350Z 08004KT 020V120 0600 R01/1400N R19/P2000N FG VV002 14/14 Q1015=
201808300320 METAR ESMX 300320Z AUTO 07003KT 010V120 1000 R01/P2000N R19/P2000N BR OVC001/// 14/14 Q1015=
201808300250 METAR ESMX 300250Z AUTO VRB02KT 5000 BR OVC002/// 14/13 Q1015=
201808300220 METAR ESMX 300220Z AUTO VRB02KT 3600 OVC001/// 14/13 Q1015=
201808300150 METAR ESMX 300150Z AUTO 10003KT 060V160 1600 OVC001/// 14/13 Q1016=
201808300120 METAR ESMX 300120Z AUTO 11003KT 060V150 0600 R01/1500U R19/1600U FG OVC001/// 13/13 Q1016=
201808300050 METAR ESMX 300050Z AUTO 12004KT 070V150 0550 R01/P2000D R19/P2000D FG BKN001/// OVC003/// 13/13 Q1016=
201808300020 METAR ESMX 300020Z AUTO 11002KT 9999 SCT003/// BKN010/// 13/12 Q1016=
201808292350 METAR ESMX 292350Z 10003KT 060V150 CAVOK 13/13 Q1016=
201808292320 METAR ESMX 292320Z 13003KT 110V180 CAVOK 14/13 Q1016=
201808292250 METAR ESMX 292250Z 14003KT CAVOK 14/13 Q1017=
201808292220 METAR ESMX 292220Z 15003KT CAVOK 14/13 Q1017=
201808292150 METAR ESMX 292150Z 15004KT CAVOK 14/13 Q1017=
201808292120 METAR ESMX 292120Z 16004KT CAVOK 14/13 Q1017=
201808292050 METAR ESMX 292050Z 16003KT CAVOK 13/12 Q1017=
201808292020 METAR ESMX 292020Z 16003KT CAVOK 13/12 Q1017=
201808291950 METAR ESMX 291950Z 15004KT CAVOK 16/13 Q1017=
201808291920 METAR ESMX 291920Z 16003KT 9999 FEW034 BKN049 15/14 Q1017=
201808291850 METAR ESMX 291850Z 16002KT 9999 FEW030 BKN046 16/14 Q1017=
201808291820 METAR ESMX 291820Z VRB02KT 9999 BKN037 16/14 Q1017=
201808291750 METAR ESMX 291750Z 12002KT 9999 BKN045 17/14 Q1017=
201808291720 METAR ESMX 291720Z VRB02KT CAVOK 17/13 Q1017=
201808291650 METAR ESMX 291650Z VRB02KT CAVOK 18/13 Q1017=
201808291620 METAR ESMX 291620Z VRB03KT CAVOK 18/13 Q1017=
201808291550 METAR ESMX 291550Z 10004KT 070V140 CAVOK 18/12 Q1017=
201808291520 METAR ESMX 291520Z VRB03KT 9999 FEW031 OVC062 19/11 Q1018=
201808291450 METAR ESMX 291450Z 17004KT 9999 SCT030 BKN060 19/12 Q1018=
201808291420 METAR ESMX 291420Z 15003KT 120V190 9999 FEW032 BKN060 19/12 Q1018=
201808291350 METAR ESMX 291350Z 08004KT 040V140 9999 FEW035 BKN060 19/13 Q1018=
201808291320 METAR ESMX 291320Z 04004KT 010V080 9999 FEW025 BKN059 19/12 Q1018=
201808291250 METAR ESMX 291250Z VRB04KT 9999 FEW025 BKN060 19/12 Q1018=
201808291220 METAR ESMX 291220Z VRB03KT 9999 SCT023 BKN061 19/12 Q1019=
201808291150 METAR ESMX 291150Z VRB03KT 9999 SCT016 BKN060 18/14 Q1019=
201808291120 METAR ESMX 291120Z 16005KT 120V190 9999 SCT015 BKN060 18/14 Q1019=
201808291050 METAR ESMX 291050Z 16005KT 120V200 9999 SCT011 BKN061 17/14 Q1019=
201808291020 METAR ESMX 291020Z 15004KT 120V180 9999 SCT009 BKN011 17/14 Q1019=
201808290950 METAR COR ESMX 290950Z 14003KT 120V200 9999 BKN008 17/14 Q1019=
201808290920 METAR ESMX 290920Z 14003KT 100V170 9999 BKN005 16/14 Q1020=
201808290850 METAR ESMX 290850Z 17004KT 9999 BKN005 16/14 Q1020=
201808290820 METAR ESMX 290820Z VRB03KT 9999 OVC004 15/14 Q1020=
201808290750 METAR ESMX 290750Z VRB02KT 9999 OVC002 15/14 Q1020=
201808290720 METAR ESMX 290720Z 17003KT 7000 BR OVC001 15/14 Q1019=
201808290650 METAR ESMX 290650Z 16003KT 5000 BR OVC002 14/14 Q1019=
201808290620 METAR ESMX 290620Z 16003KT 2200 BR OVC002 14/14 Q1019=
201808290550 METAR ESMX 290550Z AUTO VRB03KT 3600 BR OVC002/// 14/14 Q1019=
201808290520 METAR ESMX 290520Z VRB01KT 6000 BCFG BR SCT001 BKN053 14/14 Q1019=
201808290450 METAR ESMX 290450Z 19003KT 8000 VCFG BR SCT001 BKN053 14/13 Q1019=
201808290420 METAR ESMX 290420Z VRB02KT 7000 BCFG BR FEW001 BKN053 13/13 Q1019=
201808290350 METAR ESMX 290350Z 00000KT 8000 BR FEW001 BKN053 13/13 Q1019=
201808290320 METAR ESMX 290320Z AUTO 18001KT 7000 OVC001/// 13/13 Q1019=
201808290250 METAR ESMX 290250Z AUTO 17002KT 0700 R01/1900N R19/P2000D FG OVC001/// 14/13 Q1019=
201808290220 METAR ESMX 290220Z AUTO 19002KT 0400 R01/1400D R19/P2000N FG OVC001/// 13/13 Q1019=
201808290150 METAR ESMX 290150Z AUTO 15002KT 1900 BR OVC001/// 14/13 Q1019=
201808290120 METAR ESMX 290120Z AUTO 14001KT 4600 OVC001/// 13/13 Q1019=
201808290050 METAR ESMX 290050Z AUTO 25001KT 8000 OVC001/// 13/12 Q1019=
201808290020 METAR ESMX 290020Z AUTO 22001KT 1400 R01/P2000N R19/P2000N BCFG OVC001/// 12/12 Q1019=
201808282350 METAR ESMX 282350Z AUTO 26002KT 0550 R01/P2000N R19/P2000N BR OVC002/// 13/13 Q1019=
201808282320 METAR ESMX 282320Z AUTO 22004KT 0400 R01/P2000N R19/1900D BKN003/// BKN061/// 13/12 Q1019=
201808282250 METAR ESMX 282250Z AUTO 22004KT 9999 OVC059/// 14/13 Q1019=
201808282220 METAR ESMX 282220Z AUTO 22004KT 9999 OVC059/// 13/12 Q1019=
201808282150 METAR ESMX 282150Z AUTO 23004KT 6000 FEW033/// BKN059/// 13/12 Q1018=
201808282120 METAR ESMX 282120Z AUTO 23005KT 9999 BKN031/// 13/13 Q1018=
201808282050 METAR ESMX 282050Z AUTO 22005KT 9999 SCT029/// 13/13 Q1018=
201808282020 METAR ESMX 282020Z AUTO 22005KT 9999 FEW029/// 13/13 Q1018=
201808281950 METAR ESMX 281950Z 22005KT CAVOK 14/13 Q1018=
201808281920 METAR ESMX 281920Z 20005KT 9999 BKN062 14/13 Q1018=
201808281850 METAR ESMX 281850Z 21004KT 9999 SCT022 15/13 Q1018=
201808281820 METAR ESMX 281820Z 24004KT 9999 SCT020 14/13 Q1018=
201808281750 METAR ESMX 281750Z 26004KT 9999 SCT020 15/13 Q1017=
201808281720 METAR ESMX 281720Z 24005KT 9999 FEW018 16/13 Q1017=
201808281650 METAR ESMX 281650Z 23004KT 9999 SCT016 16/14 Q1017=
201808281620 METAR ESMX 281620Z 23007KT 9999 SCT017 BKN059 17/14 Q1017=
201808281550 METAR ESMX 281550Z 23006KT 9999 SCT020 BKN036CB 17/15 Q1017=
201808281520 METAR ESMX 281520Z 22006KT 190V260 9999 FEW009 BKN039CB 17/15 Q1016=
201808281450 METAR ESMX 281450Z 25007KT 200V280 9999 SCT015 BKN041CB 17/15 Q1016=
201808281420 METAR ESMX 281420Z 23003KT 9999 VCSH SCT030 BKN041CB 17/15 Q1016=
201808281350 METAR ESMX 281350Z 25006KT 9999 SHRA SCT015 BKN035CB 16/14 Q1016=
201808281320 METAR ESMX 281320Z 27007KT 230V310 9999 VCSH FEW020 BKN040CB 19/14 Q1016=
201808281250 METAR ESMX 281250Z 27006KT 9999 -RADZ FEW020 BKN035CB 16/14 Q1016=
201808281220 METAR ESMX 281220Z 26007KT 220V290 9999 VCSH SCT022 BKN034CB 18/13 Q1015=
201808281150 METAR ESMX 281150Z 29004KT 230V330 9999 FEW020 BKN035 18/13 Q1015=
201808281120 METAR ESMX 281120Z 25007KT 220V280 9999 SCT019 BKN045 18/13 Q1015=
201808281050 METAR ESMX 281050Z 27006KT 230V290 9999 BKN040 17/13 Q1014=
201808281020 METAR ESMX 281020Z 26006KT 230V290 9999 FEW012 BKN035 16/13 Q1014=
201808280950 METAR ESMX 280950Z 24006KT 9999 FEW014 BKN039 16/13 Q1014=
201808280920 METAR ESMX 280920Z 24007KT 210V280 9999 SCT011 BKN035 17/13 Q1014=
201808280850 METAR ESMX 280850Z 27005KT 230V290 9999 SCT010 BKN045 16/14 Q1013 REDZ=
201808280820 METAR ESMX 280820Z 25007KT 220V280 9999 BKN009 16/14 Q1013=
201808280750 METAR ESMX 280750Z 26005KT 210V290 9999 BKN008 15/14 Q1013 REDZ=
201808280720 METAR ESMX 280720Z 25005KT 9999 BKN006 14/13 Q1013=
201808280650 METAR COR ESMX 280650Z 26007KT 230V290 5000 -DZ BKN007 14/13 Q1012=
201808280620 METAR ESMX 280620Z 24006KT 9999 BKN006 14/13 Q1012=
201808280550 METAR COR ESMX 280550Z 24005KT 9999 BKN006 14/13 Q1012=
201808280520 METAR ESMX 280520Z 23005KT 9999 SCT006 BKN009 14/13 Q1011=
201808280450 METAR ESMX 280450Z 22005KT 9999 OVC006 14/13 Q1011=
201808280420 METAR ESMX 280420Z 23004KT 9999 BKN005 OVC007 14/13 Q1011=
201808280350 METAR ESMX 280350Z 24006KT 9999 OVC005 13/13 Q1010=
201808280320 METAR ESMX 280320Z AUTO 24006KT 9999 BKN005/// OVC008/// 13/13 Q1010=
201808280250 METAR ESMX 280250Z AUTO 23005KT 9999 BKN005/// OVC007/// 13/13 Q1010=
201808280220 METAR ESMX 280220Z AUTO 22007KT 9999 BKN005/// OVC007/// 13/13 Q1010=
201808280150 METAR ESMX 280150Z AUTO 23007KT 9999 SCT007/// BKN020/// 13/13 Q1009=
201808280120 METAR ESMX 280120Z AUTO 23008KT 9999 SCT006/// BKN010/// BKN035/// 13/13 Q1009=
201808280050 METAR ESMX 280050Z AUTO 22007KT 9999 OVC006/// 13/12 Q1009=
201808280020 METAR ESMX 280020Z AUTO 22009KT 9999 OVC006/// 14/13 Q1008 REDZ=
201808272350 METAR ESMX 272350Z AUTO 21008KT 9999 BKN007/// BKN009/// OVC014/// 14/13 Q1008=
201808272320 METAR ESMX 272320Z AUTO 21008KT 9999 BKN007/// OVC010/// 14/13 Q1008 RERA=
201808272250 METAR ESMX 272250Z AUTO 20008KT 9999 BKN006/// OVC049/// 14/13 Q1008=
201808272220 METAR ESMX 272220Z AUTO 19008KT 9999 FEW002/// BKN006/// OVC042/// 14/13 Q1007 REDZ=
201808272150 METAR ESMX 272150Z AUTO 18009KT 9999 OVC006/// 14/13 Q1007 REDZ=
201808272120 METAR ESMX 272120Z AUTO 17007KT 9999 SCT006/// BKN009/// OVC012/// 14/13 Q1007=
201808272050 METAR ESMX 272050Z AUTO 17008KT 9999 BKN007/// BKN009/// OVC016/// 14/13 Q1007 RERA=
201808272020 METAR ESMX 272020Z AUTO 17009KT 9999 FEW001/// OVC007/// 14/13 Q1007 REDZ=
201808271950 METAR ESMX 271950Z AUTO 16008KT 9999 OVC006/// 14/13 Q1007=
201808271920 METAR ESMX 271920Z AUTO 15008KT 9999 OVC004/// 14/13 Q1007=
201808271850 METAR ESMX 271850Z AUTO 16007KT 120V200 9999 OVC004/// 13/12 Q1007 RERA=
201808271820 METAR ESMX 271820Z AUTO 14007KT 9999 FEW001/// OVC004/// 13/12 Q1006=
201808271750 METAR ESMX 271750Z AUTO 14007KT 9999 +DZ OVC006/// 13/12 Q1006=
201808271720 METAR ESMX 271720Z AUTO 14008KT 100V160 9999 -DZ BKN006/// OVC012/// 13/12 Q1007=
201808271650 METAR ESMX 271650Z 14009KT 9999 -RA BKN010 OVC037 13/12 Q1007=
201808271620 METAR ESMX 271620Z 14007KT 9999 FEW008 BKN035 13/12 Q1007=
201808271550 METAR ESMX 271550Z 15009KT 9999 -RA SCT008 BKN012 13/12 Q1007=
201808271520 METAR COR ESMX 271520Z 15010KT 9999 -RA BKN020 13/11 Q1007=
201808271450 METAR ESMX 271450Z 15007KT 110V190 9999 -RA SCT037 BKN044 14/11 Q1007=
201808271420 METAR ESMX 271420Z 12004KT 080V170 CAVOK 13/11 Q1008=
201808271350 METAR ESMX 271350Z 11005KT 060V150 9999 FEW035 BKN057 13/10 Q1008=
201808271320 METAR ESMX 271320Z 10006KT 060V150 9999 FEW036 BKN053 12/10 Q1008=
201808271250 METAR ESMX 271250Z 10004KT 340V160 9999 -RA SCT041 BKN055 12/10 Q1009=
201808271220 METAR COR ESMX 271220Z 10004KT 040V190 9999 -RA FEW021 BKN059 12/10 Q1009=
201808271150 METAR ESMX 271150Z AUTO 10005KT 050V160 9999 -RA BKN059/// OVC070/// 12/10 Q1009=
201808271120 METAR COR ESMX 271120Z 14005KT 9999 -RA FEW035 OVC061 13/09 Q1010=
201808271050 METAR ESMX 271050Z 18020KT 9999 -RA SCT030 BKN045 14/09 Q1010=
201808271020 METAR ESMX 271020Z 15007KT 9999 SCT032 BKN053 16/11 Q1010=
201808270950 METAR ESMX 270950Z 15009KT 110V180 9999 FEW035 BKN110 16/10 Q1010=
201808270920 METAR ESMX 270920Z 14007KT 090V200 9999 FEW035 BKN110 16/10 Q1010=
201808270850 METAR ESMX 270850Z 12006KT 080V160 CAVOK 15/09 Q1010=
201808270820 METAR ESMX 270820Z 14005KT 100V170 9999 FEW035 BKN080 15/08 Q1010=
201808270750 METAR ESMX 270750Z 16010G23KT 120V190 9999 FEW031 OVC100 15/10 Q1011=
201808270720 METAR COR ESMX 270720Z 14006KT 100V180 9999 FEW020 BKN110 14/10 Q1011=
201808270650 METAR ESMX 270650Z 14006KT CAVOK 13/09 Q1011=
201808270620 METAR ESMX 270620Z 13006KT CAVOK 12/09 Q1011=
201808270550 METAR COR ESMX 270550Z 13007KT CAVOK 12/09 Q1011=
201808270520 METAR COR ESMX 270520Z 13006KT CAVOK 11/09 Q1011=
201808270450 METAR ESMX 270450Z 14005KT CAVOK 10/09 Q1011=
201808270420 METAR COR ESMX 270420Z 14004KT CAVOK 10/09 Q1011=
201808270350 METAR ESMX 270350Z 14005KT CAVOK 10/09 Q1011=
201808270320 METAR ESMX 270320Z AUTO 12004KT 9999 OVC096/// 09/08 Q1011=
201808270250 METAR ESMX 270250Z AUTO VRB03KT 9999 OVC098/// 10/08 Q1012=
201808270220 METAR ESMX 270220Z AUTO 15003KT 9999 FEW100/// OVC140/// 10/08 Q1012=
201808270150 METAR ESMX 270150Z AUTO 18004KT 9999 BKN130/// 10/08 Q1012=
201808270120 METAR ESMX 270120Z AUTO 19005KT 9999 OVC140/// 10/08 Q1012=
201808270050 METAR ESMX 270050Z AUTO 20004KT 9999 BKN140/// 09/08 Q1012=
201808270020 METAR ESMX 270020Z AUTO 20005KT 9999 SCT140/// 09/07 Q1012=
201808262350 METAR ESMX 262350Z AUTO 18003KT 9999 NCD 08/07 Q1012=
201808262320 METAR ESMX 262320Z AUTO 17004KT 9999 FEW088/// 07/06 Q1012=
201808262250 METAR ESMX 262250Z AUTO 19005KT 9999 SCT066/// 08/07 Q1012=
201808262220 METAR ESMX 262220Z AUTO 22005KT 9999 FEW094/// 08/07 Q1012=
201808262150 METAR ESMX 262150Z AUTO 20005KT 9999 NCD 08/07 Q1012=
201808262120 METAR ESMX 262120Z AUTO 21005KT 9999 NCD 08/07 Q1012=
201808262050 METAR ESMX 262050Z AUTO 21005KT 9999 NCD 09/08 Q1012=
201808262020 METAR ESMX 262020Z AUTO 21005KT 9999 NCD 09/07 Q1012=
201808261950 METAR ESMX 261950Z 20005KT CAVOK 10/08 Q1012=
201808261920 METAR ESMX 261920Z 19006KT CAVOK 11/07 Q1011=
201808261850 METAR ESMX 261850Z 21006KT CAVOK 11/06 Q1011=
201808261820 METAR ESMX 261820Z 22006KT CAVOK 12/06 Q1011=
201808261750 METAR ESMX 261750Z 23006KT CAVOK 14/06 Q1011=
201808261720 METAR ESMX 261720Z 24008KT CAVOK 15/07 Q1010=
201808261650 METAR ESMX 261650Z 22010KT CAVOK 16/07 Q1010=
201808261620 METAR ESMX 261620Z 24010KT CAVOK 16/07 Q1010=
201808261550 METAR ESMX 261550Z 24011KT 9999 FEW041 16/07 Q1010=
201808261520 METAR ESMX 261520Z 25009KT 210V290 9999 FEW040 17/08 Q1010=
201808261450 METAR ESMX 261450Z 26007KT 190V310 9999 FEW036 16/08 Q1009=
201808261420 METAR ESMX 261420Z 21012KT 170V240 9999 FEW030CB 16/10 Q1009=
201808261350 METAR ESMX 261350Z 21012KT 170V240 9999 FEW032CB 17/08 Q1009=
201808261320 METAR ESMX 261320Z 23011KT 190V260 9999 SCT035CB 17/08 Q1009=
201808261250 METAR ESMX 261250Z 20013KT 170V230 9999 SCT034CB 17/07 Q1009=
201808261220 METAR ESMX 261220Z 21013KT 9999 SCT035CB 16/08 Q1009=
201808261150 METAR ESMX 261150Z 21012KT 9999 FEW035 17/08 Q1009=
201808261120 METAR ESMX 261120Z 24013KT 9999 FEW036 15/07 Q1009=
201808261050 METAR ESMX 261050Z 23013KT 9999 -RA FEW037 SCT066 15/08 Q1009=
201808261020 METAR COR ESMX 261020Z 24010KT 210V280 9999 SCT036 16/07 Q1009=
201808260950 METAR ESMX 260950Z AUTO 23011KT 190V260 9999 SCT032/// BKN043/// BKN061/// 17/08 Q1008=
201808260920 METAR ESMX 260920Z AUTO 18010KT 150V210 9999 SCT026/// 16/10 Q1008=
201808260850 METAR ESMX 260850Z 22009KT 9999 -RA FEW025 SCT055 14/09 Q1008=
201808260820 METAR ESMX 260820Z 21008KT 160V250 9999 BKN020 14/09 Q1008=
201808260750 METAR ESMX 260750Z 22007KT 9999 FEW009 14/09 Q1008=
201808260720 METAR ESMX 260720Z 22006KT 190V250 9999 FEW008 13/10 Q1008=
201808260650 METAR ESMX 260650Z 20007KT 9999 FEW004 11/10 Q1008=
201808260620 METAR ESMX 260620Z 21006KT 9999 BKN004 10/09 Q1008=
201808260550 METAR ESMX 260550Z AUTO 20006KT 9999 OVC003/// 10/09 Q1007=
201808260520 METAR ESMX 260520Z AUTO 22005KT 9999 OVC002/// 09/09 Q1007=
201808260450 METAR ESMX 260450Z AUTO 22005KT 4500 BR OVC003/// 09/08 Q1007=
201808260420 METAR ESMX 260420Z AUTO 21005KT 170V250 9999 OVC004/// 09/08 Q1007=
201808260350 METAR ESMX 260350Z AUTO 21005KT 9999 OVC004/// 09/08 Q1007=
201808260320 METAR ESMX 260320Z AUTO 22004KT 9999 OVC006/// 09/08 Q1006=
201808260250 METAR ESMX 260250Z AUTO 21003KT 9999 OVC006/// 10/08 Q1006=
201808260220 METAR ESMX 260220Z AUTO 23005KT 9999 OVC006/// 10/09 Q1006=
201808260150 METAR ESMX 260150Z AUTO 21008KT 9999 BKN006/// OVC009/// 10/09 Q1006=
201808260120 METAR ESMX 260120Z AUTO 20004KT 9999 SCT007/// BKN009/// 10/09 Q1006=
201808260050 METAR ESMX 260050Z AUTO 20004KT 9999 OVC057/// 10/09 Q1006=
201808260020 METAR ESMX 260020Z AUTO 20004KT 9999 OVC055/// 10/09 Q1006=
201808252350 METAR ESMX 252350Z AUTO 17005KT 9999 SCT027/// BKN035/// OVC053/// 10/09 Q1006=
201808252320 METAR ESMX 252320Z AUTO 17004KT 9999 SCT027/// BKN035/// BKN062/// 11/09 Q1006=
201808252250 METAR ESMX 252250Z AUTO 20004KT 9999 SCT033/// BKN062/// 09/08 Q1006=
201808252220 METAR ESMX 252220Z AUTO 16003KT 9999 SCT051/// 11/08 Q1006=
201808252150 METAR ESMX 252150Z AUTO 18004KT 9999 OVC046/// 10/09 Q1006=
201808252120 METAR ESMX 252120Z AUTO 17003KT 9999 BKN051/// 10/08 Q1006=
201808252050 METAR ESMX 252050Z AUTO 16003KT 9999 FEW053/// SCT062/// 10/08 Q1006=
201808252020 METAR ESMX 252020Z 14004KT CAVOK 12/08 Q1006=
201808251950 METAR ESMX 251950Z 16003KT CAVOK 12/08 Q1006=
201808251920 METAR ESMX 251920Z 16004KT CAVOK 11/08 Q1006=
201808251850 METAR ESMX 251850Z 25003KT CAVOK 11/08 Q1006=
201808251820 METAR ESMX 251820Z 25004KT 210V290 9999 FEW035 12/08 Q1006=
201808251750 METAR ESMX 251750Z 25006KT 9999 SCT032 13/09 Q1006=
201808251720 METAR ESMX 251720Z 27007KT 9999 SCT035 14/08 Q1005=
201808251650 METAR ESMX 251650Z AUTO 28004KT 240V330 9999 BKN042/// BKN051/// OVC098/// 15/08 Q1005=
201808251620 METAR ESMX 251620Z AUTO 18006KT 9999 FEW053/// SCT080/// 16/08 Q1005=
201808251550 METAR ESMX 251550Z AUTO 17010KT 9999 SCT036/// 16/08 Q1005=
201808251520 METAR ESMX 251520Z 17009KT 140V210 9999 SCT037 17/09 Q1005=
201808251450 METAR ESMX 251450Z 17011KT 140V200 9999 FEW036 17/08 Q1005=
201808251420 METAR ESMX 251420Z 19011KT CAVOK 17/08 Q1005=
201808251350 METAR ESMX 251350Z AUTO 18013KT 9999 FEW038/// BKN072/// BKN120/// 17/08 Q1005=
201808251320 METAR ESMX 251320Z AUTO 19008KT 160V230 9999 SCT035/// BKN061/// OVC074/// 16/09 Q1005=
201808251250 METAR ESMX 251250Z 17008KT 130V210 9999 SCT061 17/08 Q1005=
201808251220 METAR ESMX 251220Z 21007KT 180V240 9999 FEW042 16/10 Q1005=
201808251150 METAR ESMX 251150Z 20006KT 9999 -RA FEW036 13/10 Q1006=
201808251120 METAR ESMX 251120Z 20006KT 140V260 9999 SCT041 14/10 Q1006=
201808251050 METAR ESMX 251050Z 23005KT 200V260 9999 SCT033 13/11 Q1006=
201808251020 METAR ESMX 251020Z 18011KT 9999 SCT036 BKN047 15/08 Q1006=
201808250950 METAR ESMX 250950Z AUTO 19011KT 9999 FEW036/// SCT190/// 16/08 Q1006=
201808250920 METAR ESMX 250920Z AUTO 22012KT 9999 FEW033/// 15/07 Q1006=
201808250850 METAR ESMX 250850Z AUTO 19012KT 9999 FEW029/// SCT210/// 15/07 Q1005=
201808250820 METAR ESMX 250820Z AUTO 20010KT 9999 FEW022/// SCT028/// 15/08 Q1006=
201808250750 METAR ESMX 250750Z AUTO 20011KT 9999 BKN017/// 15/10 Q1006=
201808250720 METAR ESMX 250720Z AUTO 21009KT 180V240 9999 FEW038/// 14/10 Q1005=
201808250650 METAR ESMX 250650Z AUTO 19008KT 9999 NCD 13/10 Q1005=
201808250620 METAR ESMX 250620Z AUTO 19008KT 9999 NCD 13/10 Q1005=
201808250550 METAR ESMX 250550Z AUTO 19006KT 9999 NCD 11/10 Q1005=
201808250520 METAR ESMX 250520Z AUTO 19006KT 9999 NCD 10/09 Q1005=
201808250450 METAR ESMX 250450Z AUTO 19007KT 9999 NCD 09/08 Q1005=
201808250420 METAR ESMX 250420Z AUTO 19006KT 9999 NCD 09/08 Q1005=
201808250350 METAR ESMX 250350Z AUTO 20006KT 9999 BKN029/// 09/08 Q1005=
201808250320 METAR ESMX 250320Z AUTO 18005KT 9999 FEW030/// 10/09 Q1005=
201808250250 METAR ESMX 250250Z AUTO 18005KT 9999 SCT066/// 10/09 Q1005=
201808250220 METAR ESMX 250220Z AUTO 19006KT 9999 FEW070/// 10/09 Q1005=
201808250150 METAR ESMX 250150Z AUTO 18005KT 9999 NCD 10/09 Q1005=
201808250120 METAR ESMX 250120Z AUTO 21006KT 9999 NCD 10/09 Q1005=
201808250050 METAR ESMX 250050Z AUTO 20006KT 9999 NCD 10/09 Q1005=
201808250020 METAR ESMX 250020Z AUTO 21006KT 9999 NCD 11/09 Q1005=
201808242350 METAR ESMX 242350Z AUTO 20007KT 9999 FEW057/// 11/09 Q1005=
201808242320 METAR ESMX 242320Z 20007KT CAVOK 11/10 Q1005=
201808242250 METAR ESMX 242250Z 19006KT 9999 FEW032 11/10 Q1005=
201808242220 METAR ESMX 242220Z 20007KT CAVOK 11/10 Q1005=
201808242150 METAR ESMX 242150Z 18007KT CAVOK 11/10 Q1005=
201808242120 METAR ESMX 242120Z 19007KT 9999 SCT035 12/11 Q1005=
201808242050 METAR ESMX 242050Z 18006KT 9999 SCT038 BKN053 11/10 Q1005=
201808242020 METAR ESMX 242020Z 18006KT 9999 FEW028 SCT053 12/11 Q1004=
201808241950 METAR ESMX 241950Z 18006KT CAVOK 12/11 Q1004=
201808241920 METAR ESMX 241920Z 19006KT CAVOK 12/11 Q1004=
201808241850 METAR ESMX 241850Z 18005KT 9999 FEW030 SCT042 13/12 Q1004=
201808241820 METAR ESMX 241820Z 19007KT CAVOK 13/12 Q1004=
201808241750 METAR ESMX 241750Z 21007KT 9999 FEW020 13/12 Q1004=
201808241720 METAR ESMX 241720Z 20008KT 9999 FEW014 SCT068 14/12 Q1004=
201808241650 METAR ESMX 241650Z 21008KT CAVOK 15/12 Q1003=
201808241620 METAR ESMX 241620Z 21008KT 9999 FEW014 15/12 Q1003=
201808241550 METAR ESMX 241550Z 21007KT 9999 -DZ FEW023 15/13 Q1003=
201808241520 METAR ESMX 241520Z 23007KT 9999 FEW022 SCT047 15/12 Q1003=
201808241450 METAR ESMX 241450Z 24012KT 9999 DZ FEW023 SCT096 17/12 Q1003=
201808241420 METAR ESMX 241420Z 23012KT 9999 FEW030 17/12 Q1003=
201808241350 METAR ESMX 241350Z AUTO 22012KT 190V250 9999 FEW024/// SCT046/// BKN140/// 18/12 Q1003=
201808241320 METAR ESMX 241320Z AUTO 23009KT 9999 SCT030/// BKN042/// OVC074/// 19/13 Q1002=
201808241250 METAR ESMX 241250Z 22008KT 9999 SCT024 20/14 Q1002=
201808241220 METAR ESMX 241220Z 27006KT 240V300 9999 FEW021 SCT027 19/14 Q1002=
201808241150 METAR ESMX 241150Z 23007KT 9999 SCT018 19/15 Q1002=
201808241120 METAR ESMX 241120Z AUTO 22008KT 9999 FEW017/// SCT033/// BKN130/// 19/14 Q1002=
201808241050 METAR ESMX 241050Z 23008KT 9999 SCT010 BKN032 18/15 Q1002=
201808241020 METAR ESMX 241020Z 23008KT 9999 SCT009 BKN021 18/16 Q1003=
201808240950 METAR ESMX 240950Z 20008KT 9999 BKN006 18/17 Q1002=
201808240920 METAR ESMX 240920Z 16006KT 070V190 9999 -RA FEW006 BKN080 17/16 Q1003=
201808240850 METAR ESMX 240850Z 19005KT 9999 FEW003 17/16 Q1002=
201808240820 METAR ESMX 240820Z 22006KT 9000 -RA FEW002 SCT015 BKN044 17/16 Q1003=
201808240750 METAR ESMX 240750Z 21006KT 160V260 3000 SHRA SCT012 SCT025CB BKN060 18/16 Q1002=
201808240720 METAR ESMX 240720Z 18011KT 9999 FEW022 BKN048 BKN210 19/15 Q1002=
201808240650 METAR ESMX 240650Z 17009KT 9999 FEW022 BKN047 18/15 Q1002=
201808240620 METAR COR ESMX 240620Z 17009KT 9000 BR FEW022 BKN049 17/14 Q1003=
201808240550 METAR COR ESMX 240550Z 18010KT 8000 BR FEW020 SCT051 BKN140 17/15 Q1003=
201808240520 METAR ESMX 240520Z 17008KT 7000 BR NSC 16/14 Q1003=
201808240450 METAR ESMX 240450Z 16007KT 6000 BR NSC 15/14 Q1003=
201808240420 METAR ESMX 240420Z 17007KT 6000 BR NSC 15/14 Q1003=
201808240350 METAR ESMX 240350Z 20007KT 6000 BR NSC 14/13 Q1003=
201808240320 METAR ESMX 240320Z AUTO 19006KT 4000 BR NCD 14/13 Q1003=
201808240250 METAR ESMX 240250Z AUTO 17006KT 4700 BR NCD 14/13 Q1004=
201808240220 METAR ESMX 240220Z AUTO 18005KT 6000 BR NCD 15/13 Q1004=
201808240150 METAR ESMX 240150Z AUTO 18005KT 7000 BR NCD 14/13 Q1004=
201808240120 METAR ESMX 240120Z AUTO 17005KT 9999 NCD 16/14 Q1004=
201808240050 METAR ESMX 240050Z AUTO 17005KT 9999 FEW025/// 16/14 Q1005=
201808240020 METAR ESMX 240020Z AUTO 20006KT 9999 FEW020/// BKN026/// BKN031/// 15/13 Q1005=
201808232350 METAR ESMX 232350Z 18005KT 9999 BKN023 15/13 Q1005=
201808232320 METAR ESMX 232320Z 18004KT 9999 SCT021 14/12 Q1005=
201808232250 METAR ESMX 232250Z 15004KT CAVOK 17/13 Q1006=
201808232220 METAR ESMX 232220Z 17004KT CAVOK 17/13 Q1006=
201808232150 METAR ESMX 232150Z 19005KT CAVOK 16/13 Q1006=
201808232120 METAR ESMX 232120Z 16007KT CAVOK 18/13 Q1006=
201808232050 METAR ESMX 232050Z 16008KT CAVOK 19/12 Q1006=
201808232020 METAR ESMX 232020Z 15007KT CAVOK 20/11 Q1007=
201808231950 METAR ESMX 231950Z 14007KT CAVOK 20/11 Q1007=
201808231920 METAR ESMX 231920Z 16007KT CAVOK 21/10 Q1007=
201808231850 METAR ESMX 231850Z 16006KT CAVOK 21/10 Q1007=
201808231820 METAR ESMX 231820Z 16008KT CAVOK 22/09 Q1007=
201808231750 METAR ESMX 231750Z 16010KT CAVOK 22/09 Q1007=
201808231720 METAR ESMX 231720Z 17010KT CAVOK 23/09 Q1008=
201808231650 METAR ESMX 231650Z 16011KT CAVOK 24/10 Q1008=
201808231620 METAR ESMX 231620Z 15011KT CAVOK 25/10 Q1008=
201808231550 METAR ESMX 231550Z 17010KT CAVOK 25/10 Q1008=
201808231520 METAR ESMX 231520Z 15012KT CAVOK 26/10 Q1008=
201808231450 METAR ESMX 231450Z 17011KT CAVOK 26/11 Q1008=
201808231420 METAR ESMX 231420Z 17010KT CAVOK 26/11 Q1009=
201808231350 METAR ESMX 231350Z 18012KT CAVOK 27/12 Q1009=
201808231320 METAR ESMX 231320Z 17011KT 140V200 CAVOK 28/12 Q1009=
201808231250 METAR ESMX 231250Z 18013KT CAVOK 27/11 Q1009=
201808231220 METAR ESMX 231220Z 20010KT 160V220 CAVOK 27/11 Q1010=
201808231150 METAR ESMX 231150Z 18013KT CAVOK 27/11 Q1010=
201808231120 METAR ESMX 231120Z 17013KT CAVOK 27/10 Q1010=
201808231050 METAR ESMX 231050Z 19014KT 150V220 CAVOK 27/11 Q1010=
201808231020 METAR ESMX 231020Z 18013KT 160V220 CAVOK 26/11 Q1011=
201808230950 METAR ESMX 230950Z 17013KT CAVOK 25/12 Q1011=
201808230920 METAR ESMX 230920Z 19012KT CAVOK 25/12 Q1011=
201808230850 METAR ESMX 230850Z 17010KT CAVOK 24/12 Q1011=
201808230820 METAR ESMX 230820Z 18008KT 140V210 CAVOK 22/13 Q1012=
201808230750 METAR ESMX 230750Z 19009KT CAVOK 21/13 Q1012=
201808230720 METAR ESMX 230720Z 17008KT CAVOK 20/13 Q1012=
201808230650 METAR ESMX 230650Z 21004KT 180V240 CAVOK 19/13 Q1012=
201808230620 METAR ESMX 230620Z 20004KT CAVOK 18/13 Q1012=
201808230550 METAR ESMX 230550Z 18005KT CAVOK 17/13 Q1012=
201808230520 METAR ESMX 230520Z 16005KT CAVOK 16/13 Q1012=
201808230450 METAR ESMX 230450Z 16005KT CAVOK 16/13 Q1012=
201808230420 METAR ESMX 230420Z 17004KT CAVOK 15/13 Q1013=
201808230350 METAR ESMX 230350Z 17005KT CAVOK 15/13 Q1013=
201808230320 METAR ESMX 230320Z AUTO 17005KT 9999 FEW051/// OVC061/// 15/13 Q1013=
201808230250 METAR ESMX 230250Z AUTO 18004KT 9999 OVC053/// 15/13 Q1013=
201808230220 METAR ESMX 230220Z AUTO 18005KT 9999 OVC055/// 15/12 Q1013=
201808230150 METAR ESMX 230150Z AUTO 17006KT 9999 SCT055/// 15/12 Q1014=
201808230120 METAR ESMX 230120Z AUTO 17006KT 9999 NCD 15/12 Q1014=
201808230050 METAR ESMX 230050Z AUTO 17007KT 9999 SCT059/// 15/12 Q1014=
201808230020 METAR ESMX 230020Z AUTO 17007KT 9999 BKN061/// 15/12 Q1014=
201808222350 METAR ESMX 222350Z AUTO 17008KT 9999 OVC061/// 15/13 Q1015=
201808222320 METAR ESMX 222320Z AUTO 17008KT 9999 FEW061/// 15/13 Q1015=
201808222250 METAR ESMX 222250Z AUTO 17008KT 9999 NCD 15/12 Q1015=
201808222220 METAR ESMX 222220Z AUTO 17008KT 9999 NCD 15/12 Q1015=
201808222150 METAR ESMX 222150Z 16009KT CAVOK 16/13 Q1015=
201808222120 METAR ESMX 222120Z 16008KT CAVOK 16/13 Q1015=
201808222050 METAR ESMX 222050Z 16009KT CAVOK 16/12 Q1015=
201808222020 METAR ESMX 222020Z 16010KT CAVOK 16/12 Q1016=
201808221950 METAR ESMX 221950Z 16009KT CAVOK 17/12 Q1016=
201808221920 METAR ESMX 221920Z 17009KT CAVOK 17/12 Q1016=
201808221850 METAR ESMX 221850Z 16009KT CAVOK 18/12 Q1016=
201808221820 METAR ESMX 221820Z 16009KT 130V190 CAVOK 19/12 Q1016=
201808221750 METAR ESMX 221750Z 16009KT CAVOK 20/12 Q1016=
201808221720 METAR ESMX 221720Z 16010KT CAVOK 21/12 Q1016=
201808221650 METAR ESMX 221650Z 17012KT CAVOK 21/12 Q1016=
201808221620 METAR ESMX 221620Z 18010KT 9999 FEW037 SCT053 22/13 Q1016=
201808221550 METAR ESMX 221550Z 18010KT 140V210 9999 FEW039 23/13 Q1016=
201808221520 METAR ESMX 221520Z 16011KT 9999 FEW037 22/13 Q1017=
201808221450 METAR ESMX 221450Z 20011KT 9999 FEW037 23/13 Q1017=
201808221420 METAR ESMX 221420Z 19011KT 9999 FEW040 23/13 Q1017=
201808221350 METAR ESMX 221350Z 19011KT 9999 SCT040 23/12 Q1017=
201808221320 METAR ESMX 221320Z 18011KT 9999 FEW042 22/12 Q1018=
201808221250 METAR ESMX 221250Z 19013KT 150V210 9999 FEW042 23/12 Q1018=
201808221220 METAR ESMX 221220Z 18010KT 160V220 9999 FEW040 22/11 Q1018=
201808221150 METAR ESMX 221150Z 19012KT 9999 FEW044 22/11 Q1018=
201808221120 METAR ESMX 221120Z 17013KT CAVOK 22/11 Q1019=
201808221050 METAR ESMX 221050Z 18013KT CAVOK 21/10 Q1019=
201808221020 METAR ESMX 221020Z 17012KT CAVOK 20/10 Q1019=
201808220950 METAR ESMX 220950Z 19011KT CAVOK 20/10 Q1019=
201808220920 METAR ESMX 220920Z 18011KT CAVOK 19/10 Q1020=
201808220850 METAR ESMX 220850Z 17010KT 9999 SCT040 BKN100 18/10 Q1020=
201808220820 METAR ESMX 220820Z 18008KT 140V210 CAVOK 17/10 Q1020=
201808220750 METAR ESMX 220750Z 17008KT CAVOK 16/09 Q1020=
201808220720 METAR ESMX 220720Z 18008KT CAVOK 15/10 Q1020=
201808220650 METAR ESMX 220650Z 19007KT CAVOK 14/10 Q1020=
201808220620 METAR ESMX 220620Z 19005KT CAVOK 13/11 Q1020=
201808220550 METAR ESMX 220550Z 16003KT CAVOK 13/10 Q1020=
201808220520 METAR ESMX 220520Z 15003KT CAVOK 12/10 Q1020=
201808220450 METAR ESMX 220450Z 19003KT CAVOK 10/09 Q1020=
201808220420 METAR ESMX 220420Z 19004KT CAVOK 09/09 Q1021=
201808220350 METAR ESMX 220350Z 22005KT CAVOK 08/08 Q1021=
201808220320 METAR ESMX 220320Z AUTO 20005KT 9999 NCD 09/08 Q1021=
201808220250 METAR ESMX 220250Z AUTO 22005KT 9999 NCD 08/07 Q1021=
201808220220 METAR ESMX 220220Z AUTO 21004KT 9999 NCD 08/07 Q1021=
201808220150 METAR ESMX 220150Z AUTO 17003KT 9999 NCD 09/08 Q1021=
201808220120 METAR ESMX 220120Z AUTO 22004KT 9999 NCD 09/08 Q1021=
201808220050 METAR ESMX 220050Z 21004KT CAVOK 08/07 Q1021=
201808220020 METAR ESMX 220020Z 19003KT CAVOK 08/07 Q1021=
201808212350 METAR ESMX 212350Z 18004KT CAVOK 09/08 Q1021=
201808212320 METAR ESMX 212320Z 16002KT CAVOK 10/09 Q1021=
201808212250 METAR ESMX 212250Z 23003KT CAVOK 11/09 Q1021=
201808212220 METAR ESMX 212220Z 23004KT CAVOK 11/09 Q1021=
201808212150 METAR ESMX 212150Z 24004KT CAVOK 12/09 Q1021=
201808212120 METAR ESMX 212120Z 23004KT CAVOK 12/09 Q1020=
201808212050 METAR ESMX 212050Z 23005KT CAVOK 12/09 Q1020=
201808212020 METAR ESMX 212020Z VRB04KT CAVOK 12/08 Q1020=
201808211950 METAR ESMX 211950Z 25002KT CAVOK 12/09 Q1020=
201808211920 METAR ESMX 211920Z 25003KT CAVOK 12/08 Q1020=
201808211850 METAR ESMX 211850Z 24004KT CAVOK 14/09 Q1020=
201808211820 METAR ESMX 211820Z 23004KT CAVOK 15/08 Q1020=
201808211750 METAR ESMX 211750Z 25003KT CAVOK 18/08 Q1019=
201808211720 METAR ESMX 211720Z 27003KT CAVOK 19/07 Q1019=
201808211650 METAR ESMX 211650Z 27003KT CAVOK 20/06 Q1019=
201808211620 METAR ESMX 211620Z 27004KT 240V320 CAVOK 21/04 Q1019=
201808211550 METAR ESMX 211550Z 29004KT 240V360 CAVOK 21/04 Q1019=
201808211520 METAR ESMX 211520Z AUTO 31006KT 280V340 9999 NCD 21/04 Q1019=
201808211450 METAR ESMX 211450Z 31005KT 270V350 CAVOK 21/04 Q1019=
201808211420 METAR COR ESMX 211420Z 30006KT 260V340 CAVOK 21/05 Q1019=
201808211350 METAR ESMX 211350Z VRB03KT CAVOK 21/05 Q1019=
201808211320 METAR ESMX 211320Z 32005KT 280V030 CAVOK 20/05 Q1019=
201808211250 METAR COR ESMX 211250Z VRB02KT CAVOK 20/05 Q1019=
201808211220 METAR ESMX 211220Z VRB05KT CAVOK 20/06 Q1020=
201808211150 METAR ESMX 211150Z 31005KT 280V340 CAVOK 19/06 Q1020=
201808211120 METAR ESMX 211120Z VRB02KT CAVOK 19/05 Q1020=
201808211050 METAR ESMX 211050Z VRB02KT CAVOK 19/06 Q1019=
201808211020 METAR ESMX 211020Z 32004KT 260V070 9999 FEW045 19/06 Q1019=
201808201350 METAR ESMX 201350Z 23012KT 9999 SCT033 20/12 Q1009=
201808201250 METAR ESMX 201250Z 28011KT 240V300 9999 SCT033 BKN050 20/14 Q1009=
201808201220 METAR ESMX 201220Z 26012KT 230V300 9999 FEW030 SCT060 21/14 Q1009=
201808201150 METAR ESMX 201150Z 27011KT 240V300 9999 SCT029 BKN040 20/13 Q1009=
201808201120 METAR ESMX 201120Z 26010KT 230V300 9999 SCT023 21/15 Q1009=
201808201050 METAR ESMX 201050Z 28010KT 240V310 9999 FEW010 SCT016 21/16 Q1009=
201808201020 METAR ESMX 201020Z 27011KT 9999 SCT014 20/16 Q1008=
201808200950 METAR ESMX 200950Z 27010KT 240V300 9999 FEW010 SCT012 19/17 Q1008=
201808200920 METAR ESMX 200920Z 26010KT 220V290 9999 SCT011 BKN023 20/17 Q1008=
201808200850 METAR ESMX 200850Z 27009KT 9999 FEW001 SCT010 BKN025 20/17 Q1008=
201808200820 METAR ESMX 200820Z 25009KT 9999 BKN007 18/17 Q1008=
201808200750 METAR ESMX 200750Z 25008KT 9999 BKN007 18/17 Q1008=
201808200720 METAR ESMX 200720Z 24006KT 210V280 9999 FEW006 BKN011 18/17 Q1008=
201808200650 METAR ESMX 200650Z 24006KT 2600 +DZ BR FEW002 SCT009 OVC013 17/16 Q1008=
201808200620 METAR ESMX 200620Z 21007KT 2100 +DZ BR OVC007 17/16 Q1008=
201808200550 METAR ESMX 200550Z AUTO 22008KT 2300 +DZ VV006 17/16 Q1008=
201808200520 METAR ESMX 200520Z 20008KT 2200 +DZ SCT003 OVC006 16/16 Q1008=
201808200450 METAR ESMX 200450Z 20008KT 4700 -RA SCT002 BKN004 16/16 Q1008=
201808200420 METAR ESMX 200420Z 19010KT 3400 -RA BR SCT002 OVC004 16/15 Q1008=
201808200350 METAR ESMX 200350Z 18010KT 3900 -RA FEW001 OVC004 16/15 Q1009=
201808200320 METAR ESMX 200320Z AUTO 18009KT 3600 BR FEW001/// BKN005/// OVC008/// 16/15 Q1009=
201808200250 METAR ESMX 200250Z AUTO 17010KT 3500 DZ BKN004/// BKN006/// OVC007/// 16/15 Q1009=
201808200220 METAR ESMX 200220Z AUTO 17007KT 3300 +DZ BKN005/// BKN007/// OVC009/// 16/15 Q1010=
201808200150 METAR ESMX 200150Z AUTO 17008KT 7000 -DZ BKN004/// OVC019/// 16/15 Q1010=
201808200120 METAR ESMX 200120Z AUTO 19007KT 5000 +DZ SCT001/// BKN015/// OVC029/// 16/15 Q1011 REDZ=
201808200050 METAR ESMX 200050Z AUTO 18007KT 8000 -DZ FEW000/// BKN039/// BKN068/// 16/15 Q1011=
201808200020 METAR ESMX 200020Z AUTO 19006KT 6000 -RA FEW001/// OVC074/// 16/15 Q1011=
201808192350 METAR ESMX 192350Z AUTO 21005KT 8000 RA FEW005/// SCT051/// OVC066/// 16/15 Q1012 REDZ=
201808192320 METAR ESMX 192320Z AUTO 21005KT 8000 BR SCT008/// BKN024/// OVC072/// 16/16 Q1012=
201808192250 METAR ESMX 192250Z AUTO 21006KT 8000 BR FEW007/// BKN023/// BKN039/// 16/16 Q1012 REDZ=
201808192220 METAR ESMX 192220Z AUTO 21005KT 9000 BR FEW017/// BKN068/// 16/15 Q1012=
201808192150 METAR ESMX 192150Z AUTO 21007KT 9999 -DZ FEW007/// BKN029/// OVC068/// 16/15 Q1013=
201808192120 METAR ESMX 192120Z AUTO 21010KT 6000 -RA SCT001/// BKN004/// BKN023/// 17/16 Q1013=
201808192050 METAR ESMX 192050Z AUTO 19007KT 4400 DZ BKN001/// BKN006/// OVC009/// 17/16 Q1013=
201808192020 METAR ESMX 192020Z AUTO 18005KT 8000 RA BKN019/// OVC026/// 17/16 Q1013=
201808191950 METAR ESMX 191950Z AUTO 19006KT 9999 -RA FEW016/// BKN024/// OVC034/// 17/16 Q1013=
201808191920 METAR ESMX 191920Z 19004KT 9000 RA FEW010 BKN045 17/16 Q1014=
201808191850 METAR ESMX 191850Z 17004KT 9999 -RA FEW006 BKN045 17/16 Q1014=
201808191820 METAR ESMX 191820Z 20003KT 9000 -RA FEW006 SCT018 BKN050 17/16 Q1014=
201808191750 METAR ESMX 191750Z VRB03KT 9999 -RA BKN010 17/17 Q1014=
201808191720 METAR ESMX 191720Z 22003KT 9999 -RA SCT012 BKN040 18/17 Q1015=
201808191650 METAR ESMX 191650Z 21003KT 9999 -RA FEW025 BKN033 18/17 Q1015=
201808191620 METAR ESMX 191620Z 24004KT 9999 -RA FEW017 BKN025 18/16 Q1015=
201808191550 METAR ESMX 191550Z 23004KT 160V260 9999 BKN015 18/16 Q1015=
201808191520 METAR ESMX 191520Z 23006KT 9000 -RA SCT015 BKN024 18/16 Q1015=
201808191450 METAR ESMX 191450Z 24007KT 9999 FEW015 BKN022 19/16 Q1016=
201808191420 METAR ESMX 191420Z 25009KT 210V290 9999 FEW010 SCT013 BKN016 19/16 Q1016=
201808191350 METAR ESMX 191350Z 27008KT 9999 BKN014 19/16 Q1016=
201808191320 METAR ESMX 191320Z 24008KT 200V260 9999 BKN016 19/17 Q1016=
201808191250 METAR ESMX 191250Z 25008KT 210V280 9999 BKN013 20/18 Q1016=
201808191220 METAR ESMX 191220Z 27008KT 230V300 9999 -RA FEW012 SCT016 18/16 Q1016=
201808191150 METAR ESMX 191150Z 25009KT 220V290 9999 FEW009 SCT014 20/17 Q1016=
201808191120 METAR ESMX 191120Z 26008KT 9999 FEW004 SCT010 18/17 Q1016=
201808191050 METAR ESMX 191050Z 26007KT 9999 RA SCT006 BKN018 17/16 Q1016=
201808191020 METAR ESMX 191020Z 26007KT 230V290 6000 -RA FEW002 BKN011 18/16 Q1016=
201808190950 METAR ESMX 190950Z AUTO 25006KT 9999 OVC023/// 19/16 Q1016 REDZ=
201808190920 METAR ESMX 190920Z AUTO 23008KT 210V270 9999 FEW009/// SCT013/// OVC022/// 18/16 Q1016=
201808190850 METAR ESMX 190850Z AUTO 24007KT 9000 -DZ FEW000/// SCT009/// BKN017/// 17/16 Q1016 REDZ=
201808190820 METAR ESMX 190820Z 23006KT 200V260 9999 SCT008 BKN013 17/16 Q1016 REDZ=
201808190750 METAR ESMX 190750Z 24006KT 9000 BR BKN009 17/16 Q1016=
201808190720 METAR ESMX 190720Z 25008KT 210V280 9000 BR SCT010 BKN014 17/16 Q1016=
201808190650 METAR ESMX 190650Z 23008KT 4800 BR FEW002 SCT005 OVC012 17/15 Q1016=
201808190620 METAR COR ESMX 190620Z 22008KT 9999 BKN012 17/15 Q1016=
201808190550 METAR ESMX 190550Z AUTO 22009KT 9999 OVC011/// 17/15 Q1015=
201808190520 METAR ESMX 190520Z AUTO 22008KT 9999 BKN013/// OVC018/// 17/15 Q1015=
201808190450 METAR ESMX 190450Z AUTO 23009KT 9999 OVC016/// 17/15 Q1015=
201808190420 METAR ESMX 190420Z AUTO 23009KT 9999 BKN011/// OVC021/// 17/15 Q1015=
201808190350 METAR ESMX 190350Z AUTO 22008KT 200V260 9999 BKN013/// BKN016/// OVC019/// 17/14 Q1015=
201808190320 METAR ESMX 190320Z AUTO 22008KT 9999 SCT013/// BKN040/// BKN190/// 17/15 Q1015=
201808190250 METAR ESMX 190250Z AUTO 22008KT 9999 OVC014/// 17/14 Q1015=
201808190220 METAR ESMX 190220Z AUTO 23008KT 9999 SCT017/// BKN027/// BKN039/// 17/14 Q1015=
201808190150 METAR ESMX 190150Z AUTO 22009KT 9999 BKN017/// OVC027/// 17/14 Q1015=
201808190120 METAR ESMX 190120Z AUTO 21009KT 9999 SCT021/// BKN035/// 17/14 Q1015=
201808190050 METAR ESMX 190050Z AUTO 23009KT 9999 SCT018/// BKN025/// OVC034/// 17/14 Q1015=
201808190020 METAR ESMX 190020Z AUTO 23010KT 9999 FEW002/// SCT022/// BKN038/// 17/14 Q1015=
201808182350 METAR ESMX 182350Z AUTO 22010KT 9999 FEW005/// SCT011/// BKN018/// 17/15 Q1015=
201808182320 METAR ESMX 182320Z AUTO 21010KT 9999 FEW015/// BKN023/// OVC038/// 17/14 Q1015=
201808182250 METAR ESMX 182250Z AUTO 21011KT 9999 BR FEW025/// OVC039/// 17/14 Q1015=
201808182220 METAR ESMX 182220Z AUTO 20012KT 9999 FEW025/// OVC038/// 18/13 Q1015=
201808182150 METAR ESMX 182150Z AUTO 20012KT 9999 BKN024/// OVC039/// 18/13 Q1016=
201808182120 METAR ESMX 182120Z AUTO 19010KT 9999 OVC026/// 17/12 Q1015=
201808182050 METAR ESMX 182050Z AUTO 19008KT 9999 OVC033/// 17/12 Q1016=
201808182020 METAR ESMX 182020Z 20010KT 9999 FEW029 SCT038 BKN051 17/12 Q1016=
201808181950 METAR ESMX 181950Z 20008KT 9999 BKN029 17/12 Q1016=
201808181920 METAR ESMX 181920Z 20009KT 9999 BKN030 18/12 Q1016=
201808181850 METAR ESMX 181850Z 20009KT 9999 BKN032 18/12 Q1016=
201808181820 METAR ESMX 181820Z AUTO 19008KT 9999 OVC030/// 18/12 Q1016=
201808181750 METAR ESMX 181750Z 20008KT 9999 BKN031 18/12 Q1016=
201808181720 METAR ESMX 181720Z 22010KT 9999 BKN030 18/12 Q1016=
201808181650 METAR ESMX 181650Z AUTO 22012KT 9999 OVC031/// 18/11 Q1016=
201808181620 METAR ESMX 181620Z AUTO 20008KT 9999 BKN035/// OVC046/// 18/12 Q1016=
201808181550 METAR ESMX 181550Z AUTO 20010KT 9999 OVC034/// 18/11 Q1016=
201808181520 METAR ESMX 181520Z 20009KT 9999 BKN049 19/11 Q1016=
201808181450 METAR ESMX 181450Z 20010KT 9999 SCT038 BKN049 19/11 Q1017=
201808181420 METAR ESMX 181420Z 23010KT 9999 BKN042 19/10 Q1017=
201808181350 METAR ESMX 181350Z 23012KT 200V260 9999 BKN044 19/10 Q1017=
201808181320 METAR ESMX 181320Z 21012KT 9999 BKN047 19/09 Q1017=
201808181250 METAR ESMX 181250Z 22012KT 9999 BKN045 20/09 Q1017=
201808181220 METAR ESMX 181220Z 22012KT 190V250 9999 BKN048 20/09 Q1017=
201808181150 METAR ESMX 181150Z 21010KT 170V250 9999 SCT046 21/09 Q1017=
201808181120 METAR ESMX 181120Z 23009KT 9999 SCT037 BKN049 19/10 Q1017=
201808181050 METAR ESMX 181050Z 22010KT 160V260 9999 BKN041 19/10 Q1017=
201808181020 METAR COR ESMX 181020Z 22010KT 9999 SCT039 BKN051 20/11 Q1018=
201808180950 METAR ESMX 180950Z AUTO 22011KT 9999 BKN035/// OVC049/// 19/10 Q1018=
201808180920 METAR ESMX 180920Z AUTO 23009KT 190V250 9999 SCT034/// BKN049/// 19/11 Q1018=
201808180850 METAR ESMX 180850Z AUTO 22010KT 190V260 9999 SCT043/// 18/10 Q1018=
201808180820 METAR ESMX 180820Z AUTO 23009KT 190V260 9999 FEW020/// 18/12 Q1018=
201808180750 METAR ESMX 180750Z AUTO 24009KT 200V270 9999 FEW015/// 17/13 Q1018=
201808180720 METAR ESMX 180720Z AUTO 21005KT 9999 NCD 17/12 Q1018=
201808180650 METAR ESMX 180650Z AUTO 23004KT 9999 NCD 15/14 Q1018=
201808180620 METAR ESMX 180620Z AUTO 26003KT 9999 OVC002/// 14/13 Q1018=
201808180550 METAR ESMX 180550Z AUTO VRB02KT 0900 R01/P2000N R19/1100U OVC001/// 13/12 Q1018=
201808180520 METAR ESMX 180520Z AUTO 25003KT 1200 R01/P2000N R19/P2000N BKN001/// 12/11 Q1018=
201808180450 METAR ESMX 180450Z AUTO 24002KT 0250 R01/1300U R19/0650N FG FEW000/// 10/10 Q1018=
201808180420 METAR ESMX 180420Z AUTO 17003KT 0200 R01/0450N R19/0400N BCFG VV000 10/09 Q1018=
201808180350 METAR ESMX 180350Z AUTO 18003KT 0150 R01/0800N R19/0350N BCFG NCD 11/10 Q1017=
201808180320 METAR ESMX 180320Z AUTO 20003KT 0350 R01/1000N R19/0900N FG FEW000/// 11/10 Q1017=
201808180250 METAR ESMX 180250Z AUTO 22003KT 0250 R01/P2000N R19/0650N BCFG NCD 09/08 Q1017=
201808180220 METAR ESMX 180220Z AUTO 21003KT 0200 R01/1000N R19/0650U BCFG FEW020/// 09/08 Q1017=
201808180150 METAR ESMX 180150Z AUTO 18002KT 0300 R01/P2000N R19/0750N NCD 08/07 Q1017=
201808180120 METAR ESMX 180120Z AUTO 15002KT 0250 R01/0800N R19/1600D FG NCD 09/08 Q1017=
201808180050 METAR ESMX 180050Z AUTO 18002KT 0250 R01/0800N R19/1100U FG NCD 09/09 Q1017=
201808180020 METAR ESMX 180020Z AUTO 20002KT 0250 R01/0750N R19/1000N FG NCD 09/09 Q1017=
201808172350 METAR ESMX 172350Z AUTO 21002KT 0350 R01/P2000N R19/1200N BR NCD 11/10 Q1017=
201808172320 METAR ESMX 172320Z AUTO 24003KT 0300 R01/P2000N R19/0900D NCD 12/11 Q1017=
201808172250 METAR ESMX 172250Z AUTO 25002KT 6000 BR NCD 12/11 Q1017=
201808172220 METAR ESMX 172220Z AUTO 26004KT 9999 NCD 12/11 Q1017=
201808172150 METAR ESMX 172150Z AUTO 24005KT 9999 NCD 12/11 Q1017=
201808172120 METAR ESMX 172120Z AUTO 25005KT 9999 NCD 12/12 Q1017=
201808172050 METAR ESMX 172050Z AUTO 25005KT 9999 NCD 13/12 Q1017=
201808172020 METAR ESMX 172020Z AUTO 26004KT 9999 NCD 13/13 Q1016=
201808171950 METAR ESMX 171950Z AUTO 25003KT 9999 NCD 14/13 Q1016=
201808171920 METAR ESMX 171920Z AUTO 27003KT 9999 SCT160/// 15/14 Q1016=
201808171850 METAR ESMX 171850Z AUTO 26003KT 9999 FEW140/// 15/14 Q1016=
201808171820 METAR ESMX 171820Z AUTO 26003KT 9999 FEW038/// BKN098/// 15/14 Q1016=
201808171750 METAR ESMX 171750Z AUTO 25002KT 9999 DZ FEW053/// BKN100/// 15/14 Q1016 RERA=
201808171720 METAR ESMX 171720Z 31004KT 9999 FEW007 15/14 Q1016=
201808171650 METAR ESMX 171650Z VRB03KT 9999 -RA FEW004 16/14 Q1016=
201808171620 METAR ESMX 171620Z 27006KT 240V320 9999 -RA FEW017 BKN074 16/14 Q1016=
201808171550 METAR ESMX 171550Z 27009KT 9999 FEW045 BKN064 18/13 Q1015 REDZ=
201808171520 METAR ESMX 171520Z 28013KT 240V300 9999 FEW044 BKN055 20/12 Q1015=
201808171450 METAR ESMX 171450Z AUTO 26012KT 9999 OVC098/// 22/13 Q1014=
201808171420 METAR ESMX 171420Z 28009KT 9999 FEW046 SCT057 24/13 Q1014=
201808171350 METAR ESMX 171350Z 26008KT 9999 FEW045 24/13 Q1014=
201808171320 METAR ESMX 171320Z AUTO 26010KT 230V290 9999 FEW040/// 25/14 Q1014=
201808171250 METAR ESMX 171250Z 21008KT 190V260 9999 FEW040 26/15 Q1014=
201808171220 METAR ESMX 171220Z 23008KT 9999 FEW036 25/15 Q1014=
201808171150 METAR ESMX 171150Z 25008KT 200V280 9999 SCT042 25/16 Q1014=
201808171120 METAR ESMX 171120Z 24009KT 200V260 9999 SCT035 25/15 Q1015=
201808171050 METAR ESMX 171050Z 20007KT 170V250 9999 SCT031 24/16 Q1015=
201808171020 METAR ESMX 171020Z 19009KT 150V210 9999 SCT032 BKN065 24/16 Q1015=
201808170950 METAR ESMX 170950Z 20007KT 9999 FEW020 24/17 Q1015=
201808170920 METAR ESMX 170920Z 20006KT 160V230 9999 FEW020 SCT070 23/17 Q1015=
201808170850 METAR ESMX 170850Z 20007KT 150V230 9999 FEW020 SCT070 23/17 Q1015=
201808170820 METAR ESMX 170820Z 17007KT CAVOK 21/17 Q1015=
201808170750 METAR ESMX 170750Z 14006KT 080V180 CAVOK 21/17 Q1015=
201808170720 METAR ESMX 170720Z 15005KT 120V190 CAVOK 20/17 Q1015=
201808170650 METAR ESMX 170650Z 14006KT CAVOK 19/17 Q1015=
201808170620 METAR ESMX 170620Z 18005KT CAVOK 19/17 Q1015=
201808170550 METAR ESMX 170550Z 16006KT CAVOK 19/17 Q1015=
201808170520 METAR ESMX 170520Z 15005KT CAVOK 18/16 Q1015=
201808170450 METAR ESMX 170450Z 15004KT CAVOK 17/16 Q1014=
201808170420 METAR ESMX 170420Z 15005KT CAVOK 17/16 Q1014=
201808170350 METAR ESMX 170350Z 14005KT 8000 BR NSC 17/16 Q1014=
201808170320 METAR ESMX 170320Z AUTO 16004KT 7000 BR NCD 17/16 Q1014=
201808170250 METAR ESMX 170250Z AUTO 16005KT 8000 BR NCD 17/16 Q1014=
201808170220 METAR ESMX 170220Z AUTO 16005KT 9000 BR NCD 17/16 Q1015=
201808170150 METAR ESMX 170150Z AUTO 16006KT 9999 BKN057/// 17/16 Q1015=
201808170120 METAR ESMX 170120Z AUTO 16007KT 9000 BR BKN057/// 17/16 Q1015=
201808170050 METAR ESMX 170050Z AUTO 16007KT 8000 BR SCT057/// 17/16 Q1015=
201808170020 METAR ESMX 170020Z 15007KT CAVOK 17/16 Q1015=
201808162350 METAR ESMX 162350Z 17006KT CAVOK 17/15 Q1015=
201808162320 METAR ESMX 162320Z 16007KT CAVOK 17/15 Q1015=
201808162250 METAR COR ESMX 162250Z 16007KT CAVOK 18/15 Q1015=
201808162220 METAR ESMX 162220Z 16008KT CAVOK 18/15 Q1015=
201808162150 METAR ESMX 162150Z AUTO 17007KT 9999 BKN055/// 18/15 Q1015=
201808162120 METAR ESMX 162120Z AUTO 15007KT 9999 OVC053/// 18/15 Q1015=
201808162050 METAR ESMX 162050Z AUTO 15007KT 9999 SCT053/// 19/14 Q1015=
201808162020 METAR ESMX 162020Z AUTO 16007KT 9999 SCT053/// 19/14 Q1015=
201808161950 METAR ESMX 161950Z 16008KT CAVOK 20/14 Q1015=
201808161920 METAR ESMX 161920Z 15008KT CAVOK 20/14 Q1015=
201808161850 METAR ESMX 161850Z 15007KT CAVOK 21/14 Q1015=
201808161820 METAR ESMX 161820Z 16007KT CAVOK 21/15 Q1015=
201808161750 METAR ESMX 161750Z 16007KT 9999 FEW045 22/15 Q1015=
201808161720 METAR ESMX 161720Z 15010KT 9999 FEW043 SCT055 23/15 Q1015=
201808161650 METAR COR ESMX 161650Z 15009KT 120V200 9999 FEW040 SCT060 23/15 Q1015=
201808161620 METAR COR ESMX 161620Z 16010KT 9999 FEW032 SCT070 23/15 Q1015=
201808161550 METAR ESMX 161550Z 16010KT 140V200 9999 FEW032 SCT068 23/15 Q1015=
201808161520 METAR ESMX 161520Z 16009KT 9999 FEW032 SCT043 23/15 Q1015=
201808161450 METAR ESMX 161450Z 17009KT 9999 FEW029 SCT057 23/16 Q1015=
201808161420 METAR ESMX 161420Z 16009KT 140V200 9999 FEW046 BKN059 22/15 Q1015=
201808161350 METAR ESMX 161350Z 17006KT 9999 SCT036 BKN048 22/16 Q1016=
201808161320 METAR ESMX 161320Z 17009KT 9999 BKN040 22/15 Q1016=
201808161250 METAR ESMX 161250Z 18008KT 150V210 9999 FEW031 22/15 Q1016=
201808161220 METAR ESMX 161220Z 15006KT 9999 FEW030 BKN053 22/15 Q1016=
201808161150 METAR ESMX 161150Z 16007KT 140V200 9999 SCT026 BKN036 22/15 Q1016=
201808161120 METAR ESMX 161120Z 14009KT 9999 SCT025 BKN034 22/16 Q1016=
201808161050 METAR ESMX 161050Z 14009KT 9999 SCT024 BKN066 21/15 Q1017=
201808161020 METAR ESMX 161020Z 19006KT 150V210 9999 SCT025 OVC070 21/15 Q1017=
201808160950 METAR ESMX 160950Z 19009KT 9999 FEW022 SCT045 OVC070 21/15 Q1017=
201808160920 METAR ESMX 160920Z 17008KT 9999 FEW018 BKN048 21/15 Q1017=
201808160850 METAR ESMX 160850Z 18009KT 9999 BKN016 OVC070 20/15 Q1017=
201808160820 METAR ESMX 160820Z 19009KT 150V220 9999 FEW008 BKN011 OVC075 20/16 Q1017=
201808160750 METAR ESMX 160750Z 19008KT 9999 BKN009 OVC035 19/16 Q1017=
201808160720 METAR ESMX 160720Z 19006KT 9999 BKN005 17/16 Q1017=
201808160650 METAR ESMX 160650Z 16005KT 5000 BR OVC002 16/16 Q1017=
201808160620 METAR ESMX 160620Z 15004KT 3500 BR OVC002 15/15 Q1017=
201808160550 METAR ESMX 160550Z 16006KT 100V190 1200 R01/1300U R19/P2000N BR OVC002 15/15 Q1017=
201808160520 METAR ESMX 160520Z 16005KT 130V200 0700 R01/0800N R19/P1200D FG OVC002 15/14 Q1017=
201808160450 METAR ESMX 160450Z 16004KT 5000 BR OVC003 15/14 Q1017=
201808160420 METAR ESMX 160420Z 15004KT 7000 BR NSC 14/13 Q1017=
201808160350 METAR ESMX 160350Z 18004KT 8000 BR NSC 14/13 Q1017=
201808160320 METAR ESMX 160320Z AUTO 19005KT 9999 NCD 13/12 Q1017=
201808160250 METAR ESMX 160250Z AUTO 17004KT 9999 NCD 14/13 Q1017=
201808160220 METAR ESMX 160220Z AUTO 16004KT 9999 NCD 13/13 Q1017=
201808160150 METAR ESMX 160150Z AUTO 15004KT 9999 NCD 13/13 Q1016=
201808160120 METAR ESMX 160120Z AUTO 16003KT 9999 NCD 13/13 Q1016=
201808160050 METAR ESMX 160050Z AUTO 15004KT 9999 NCD 13/13 Q1017=
201808160020 METAR ESMX 160020Z AUTO 15004KT 9999 NCD 12/12 Q1017=
201808152350 METAR ESMX 152350Z VRB03KT CAVOK 12/12 Q1017=
201808152320 METAR ESMX 152320Z VRB02KT CAVOK 13/12 Q1017=
201808152250 METAR ESMX 152250Z 20004KT CAVOK 13/12 Q1017=
201808152220 METAR ESMX 152220Z AUTO 17003KT 9999 NCD 13/12 Q1016=
201808152150 METAR ESMX 152150Z AUTO 22004KT 9999 NCD 15/13 Q1016=
201808152120 METAR ESMX 152120Z AUTO 22004KT 9999 NCD 14/12 Q1016=
201808152050 METAR ESMX 152050Z AUTO 21004KT 9999 SCT080/// 15/13 Q1016=
201808152020 METAR ESMX 152020Z AUTO 20004KT 9999 OVC070/// 17/13 Q1016=
201808151950 METAR ESMX 151950Z AUTO 18002KT 9999 OVC068/// 17/13 Q1016=
201808151920 METAR ESMX 151920Z AUTO 25003KT 9999 BKN066/// 17/13 Q1016=
201808151850 METAR ESMX 151850Z AUTO 23004KT 9999 NCD 17/12 Q1016=
201808151820 METAR ESMX 151820Z AUTO 23004KT 9999 NCD 18/12 Q1015=
201808151750 METAR ESMX 151750Z AUTO 26006KT 9999 NCD 19/12 Q1015=
201808151720 METAR ESMX 151720Z 24007KT 210V280 9999 FEW037 21/12 Q1015=
201808151650 METAR ESMX 151650Z 25008KT CAVOK 21/12 Q1015=
201808151620 METAR ESMX 151620Z 26010KT CAVOK 21/12 Q1015=
201808151550 METAR ESMX 151550Z 25010KT 220V280 CAVOK 21/11 Q1014=
201808151520 METAR ESMX 151520Z 28005KT 240V320 9999 FEW046 BKN068 21/12 Q1014=
201808151450 METAR ESMX 151450Z 30005KT 260V340 9999 FEW045 BKN068 22/12 Q1014=
201808151420 METAR ESMX 151420Z 27005KT 240V300 9999 FEW042 BKN066 21/12 Q1014=
201808151350 METAR COR ESMX 151350Z 24005KT 9999 SCT045 BKN068 21/12 Q1014=
201808151320 METAR ESMX 151320Z 29006KT 250V330 9999 SCT042 BKN070 21/11 Q1014=
201808151250 METAR ESMX 151250Z 29007KT 250V320 9999 SCT041 21/12 Q1014=
201808151220 METAR ESMX 151220Z 28009KT 250V320 9999 SCT042 22/11 Q1014=
201808151150 METAR ESMX 151150Z 26009KT 210V310 9999 FEW040 22/12 Q1013=
201808151120 METAR ESMX 151120Z 28010KT 240V310 9999 SCT034 21/12 Q1013=
201808151050 METAR ESMX 151050Z 26007KT 210V300 9999 SCT030 20/13 Q1013=
201808151020 METAR ESMX 151020Z 29008KT 9999 SCT022 BKN033 19/12 Q1013=
201808150950 METAR ESMX 150950Z 26008KT 220V280 9999 SCT020 19/14 Q1013=
201808150920 METAR ESMX 150920Z 29006KT 250V320 9999 FEW010 SCT023 BKN030 18/15 Q1013=
201808150850 METAR ESMX 150850Z 29006KT 9999 BKN009 17/15 Q1012=
201808150820 METAR ESMX 150820Z 27005KT 230V300 9999 FEW005 BKN008 17/15 Q1012=
201808150750 METAR ESMX 150750Z 27005KT 9999 SCT007 BKN010 17/15 Q1012=
201808150720 METAR ESMX 150720Z 27003KT 240V300 9999 BKN006 OVC013 16/15 Q1012=
201808150650 METAR ESMX 150650Z 27004KT 9999 -RA BKN004 16/15 Q1011=
201808150620 METAR ESMX 150620Z 27004KT 9999 BKN006 16/15 Q1011=
201808150550 METAR ESMX 150550Z 26004KT 9999 SCT004 BKN006 16/15 Q1011=
201808150520 METAR ESMX 150520Z 28004KT 9999 SCT009 BKN012 16/15 Q1010=
201808150450 METAR ESMX 150450Z 28004KT 9999 SCT009 BKN013 15/15 Q1010=
201808150420 METAR ESMX 150420Z 26003KT 9999 SCT007 BKN009 15/15 Q1010=
201808150350 METAR ESMX 150350Z 25003KT 230V300 9999 OVC004 15/14 Q1010=
201808150320 METAR ESMX 150320Z AUTO 25002KT 9999 OVC006/// 15/14 Q1009=
201808150250 METAR ESMX 150250Z AUTO VRB02KT 9999 OVC005/// 15/14 Q1009=
201808150220 METAR ESMX 150220Z AUTO 28004KT 9999 BKN005/// OVC057/// 15/14 Q1009=
201808150150 METAR ESMX 150150Z AUTO 26004KT 9000 BR BKN005/// OVC012/// 15/14 Q1009=
201808150120 METAR ESMX 150120Z AUTO 27003KT 9999 FEW009/// OVC013/// 15/14 Q1009=
201808150050 METAR ESMX 150050Z AUTO 28004KT 9999 OVC011/// 15/14 Q1009=
201808150020 METAR ESMX 150020Z AUTO 29004KT 9999 OVC007/// 14/14 Q1009=
201808142350 METAR ESMX 142350Z AUTO 32006KT 9999 OVC007/// 14/13 Q1008=
201808142320 METAR ESMX 142320Z AUTO 31005KT 9999 BKN007/// BKN008/// 14/14 Q1008=
201808142250 METAR ESMX 142250Z AUTO 31005KT 9999 BKN010/// 14/14 Q1008=
201808142220 METAR ESMX 142220Z AUTO 32006KT 9999 FEW011/// 15/14 Q1008=
201808142150 METAR ESMX 142150Z AUTO 33006KT 9999 FEW008/// BKN013/// 15/14 Q1008=
201808142120 METAR ESMX 142120Z AUTO 32006KT 9999 OVC010/// 15/15 Q1007=
201808142050 METAR ESMX 142050Z AUTO 31005KT 9999 FEW008/// BKN011/// 15/14 Q1007=
201808142020 METAR ESMX 142020Z AUTO 34003KT 300V020 9999 FEW016/// 16/15 Q1007=
201808141950 METAR ESMX 141950Z AUTO 34006KT 9999 BKN011/// 16/15 Q1007=
201808141920 METAR ESMX 141920Z 33005KT 9999 FEW029 16/15 Q1006=
201808141850 METAR ESMX 141850Z 36006KT 9999 FEW012 SCT086 17/16 Q1006=
201808141820 METAR ESMX 141820Z 35007KT 9999 FEW012 SCT085 18/16 Q1006=
201808141750 METAR ESMX 141750Z 34005KT 9999 FEW010 SCT024 BKN086 18/17 Q1006 RERA=
201808141720 METAR ESMX 141720Z 28003KT 9000 SHRA FEW015CB SCT028 BKN080 18/17 Q1006=
201808141650 METAR COR ESMX 141650Z VRB03KT 8000 SHRA FEW020CB BKN074 18/17 Q1006 RETS=
201808141620 METAR COR ESMX 141620Z 28004KT 6000 TSRA SCT018CB BKN080 18/17 Q1005=
201808141550 METAR COR ESMX 141550Z 33005KT 9999 TSRA SCT019CB BKN078 19/17 Q1005=
201808141520 METAR ESMX 141520Z 30003KT 9999 VCTS FEW025CB SCT080 20/16 Q1005=
201808141450 METAR ESMX 141450Z 03004KT 9999 FEW020 SCT050CB 20/17 Q1005=
201808141420 METAR ESMX 141420Z 36005KT 9999 -SHRA FEW015 BKN035CB 20/17 Q1005=
201808141350 METAR ESMX 141350Z 03004KT 9999 SCT013 BKN025CB 20/16 Q1005=
201808141320 METAR ESMX 141320Z 05004KT 010V110 9999 BKN013 19/16 Q1005=
201808141250 METAR ESMX 141250Z 03004KT 360V070 9999 BKN011 19/16 Q1005=
201808141220 METAR ESMX 141220Z VRB04KT 9999 BKN010 OVC050 19/16 Q1005=
201808141150 METAR ESMX 141150Z 05005KT 020V090 9999 BKN012 19/16 Q1005=
201808141120 METAR ESMX 141120Z VRB03KT 9999 FEW012 BKN016 18/16 Q1005=
201808141050 METAR ESMX 141050Z 09005KT 050V140 9999 BKN013 18/16 Q1005=
201808141020 METAR ESMX 141020Z 08005KT 050V120 9999 BKN018 19/15 Q1006=
201808140950 METAR ESMX 140950Z 07005KT 030V120 9999 BKN018 19/15 Q1006=
201808140920 METAR ESMX 140920Z 07005KT 010V120 9999 SCT014 BKN020 19/16 Q1006=
201808140850 METAR ESMX 140850Z 09006KT 050V120 9999 BKN012 19/16 Q1006=
201808140820 METAR ESMX 140820Z 08006KT 010V140 9999 BKN010 18/15 Q1006=
201808140750 METAR ESMX 140750Z 07007KT 020V140 9999 BKN009 18/16 Q1006=
201808140720 METAR ESMX 140720Z 08007KT 050V130 9999 BKN009 17/16 Q1006=
201808140650 METAR ESMX 140650Z VRB05KT 9999 BKN007 17/16 Q1006=
201808140620 METAR ESMX 140620Z 08005KT 020V140 9999 BKN007 17/15 Q1007=
201808140550 METAR ESMX 140550Z 09005KT 040V140 9999 -DZ BKN006 17/16 Q1007=
201808140520 METAR ESMX 140520Z 08005KT 020V120 9999 OVC005 16/15 Q1007=
201808140450 METAR ESMX 140450Z 07005KT 340V100 9999 OVC005 16/15 Q1007=
201808140420 METAR ESMX 140420Z 07006KT 040V130 9999 OVC004 16/15 Q1007=
201808140350 METAR ESMX 140350Z 09004KT 050V140 9999 OVC004 16/15 Q1007=
201808140320 METAR ESMX 140320Z AUTO 08003KT 340V140 9999 OVC005/// 16/15 Q1007=
201808140250 METAR ESMX 140250Z AUTO 07003KT 030V110 9999 OVC005/// 15/15 Q1008=
201808140220 METAR ESMX 140220Z AUTO VRB03KT 9999 OVC005/// 15/15 Q1008=
201808140150 METAR ESMX 140150Z AUTO 08003KT 020V160 9999 OVC005/// 15/15 Q1008=
201808140120 METAR ESMX 140120Z AUTO 08004KT 050V120 9999 OVC004/// 15/14 Q1008=
201808140050 METAR ESMX 140050Z AUTO VRB03KT 9999 OVC005/// 15/14 Q1008 REDZ=
201808140020 METAR ESMX 140020Z AUTO 09003KT 040V150 9999 DZ BKN004/// OVC015/// 15/14 Q1009=
201808132350 METAR ESMX 132350Z AUTO 12003KT 060V160 9999 DZ OVC004/// 15/14 Q1009=
201808132320 METAR ESMX 132320Z AUTO 14003KT 100V180 9999 -RA SCT005/// BKN033/// BKN043/// 15/14 Q1009 REDZ=
201808132250 METAR ESMX 132250Z AUTO 12003KT 070V170 9999 DZ BKN005/// OVC066/// 15/14 Q1009=
201808132220 METAR ESMX 132220Z AUTO 16004KT 100V180 9999 DZ BKN005/// BKN047/// OVC062/// 15/14 Q1009=
201808132150 METAR ESMX 132150Z AUTO 15005KT 120V180 9999 DZ OVC007/// 15/14 Q1009 REDZ=
201808132120 METAR ESMX 132120Z AUTO 16004KT 120V190 9999 DZ BKN006/// OVC057/// 15/14 Q1009=
201808132050 METAR ESMX 132050Z AUTO 14004KT 100V170 9999 -DZ SCT007/// BKN059/// 15/14 Q1009=
201808132020 METAR ESMX 132020Z AUTO 14004KT 100V180 9999 BKN098/// 15/14 Q1009=
201808131950 METAR ESMX 131950Z AUTO VRB03KT 9999 BKN062/// OVC098/// 15/14 Q1009=
201808131920 METAR ESMX 131920Z AUTO 14003KT 9999 -DZ OVC059/// 15/14 Q1009=
201808131850 METAR ESMX 131850Z AUTO VRB03KT 9999 BKN051/// OVC062/// 15/14 Q1009=
201808131820 METAR ESMX 131820Z AUTO VRB02KT 9999 SCT009/// BKN057/// OVC084/// 15/13 Q1009=
201808131750 METAR ESMX 131750Z AUTO 14003KT 080V190 9999 SCT008/// BKN028/// OVC059/// 16/13 Q1009=
201808131720 METAR ESMX 131720Z 15005KT 120V190 9999 BKN008 OVC033 16/13 Q1009=
201808131650 METAR ESMX 131650Z 14003KT 100V190 9999 BKN008 OVC033 15/13 Q1009=
201808131620 METAR ESMX 131620Z 15005KT 9999 BKN010 BKN040 15/13 Q1010=
201808131550 METAR ESMX 131550Z 16004KT 9000 BR FEW005 OVC007 15/13 Q1010=
201808131520 METAR ESMX 131520Z 14003KT 050V170 9000 BR BKN008 15/13 Q1010=
201808131450 METAR ESMX 131450Z VRB03KT 9999 FEW006 BKN022 15/13 Q1010=
201808131420 METAR ESMX 131420Z 14003KT 080V170 6000 BR FEW006 SCT009 BKN022 15/13 Q1010=
201808131350 METAR ESMX 131350Z 15004KT 100V170 6000 BR FEW011 BKN018 15/13 Q1010=
201808131320 METAR ESMX 131320Z 15006KT 9000 BR FEW007 BKN025 16/11 Q1010=
201808131250 METAR ESMX 131250Z 16008KT 9999 FEW009 BKN022 15/12 Q1010=
201808131220 METAR ESMX 131220Z 17008KT 9999 BKN030 16/12 Q1010=
201808131150 METAR ESMX 131150Z 18009KT 140V210 9999 BKN035 16/11 Q1010=
201808131120 METAR ESMX 131120Z 19006KT 9999 SCT035 BKN049 17/09 Q1010=
201808131050 METAR ESMX 131050Z 16005KT 130V210 9999 SCT049 18/08 Q1010=
201808131020 METAR ESMX 131020Z 15004KT 120V200 9999 FEW030 SCT046 18/09 Q1010=
201808130950 METAR ESMX 130950Z 15004KT 080V200 9999 FEW045 BKN066 17/08 Q1010=
201808130920 METAR ESMX 130920Z VRB03KT 9999 FEW027 BKN059 17/09 Q1010=
201808130850 METAR ESMX 130850Z 08004KT 030V170 9999 FEW040 BKN061 16/09 Q1011=
201808130820 METAR ESMX 130820Z 06003KT 020V140 9999 FEW015 BKN062 15/09 Q1010=
201808130750 METAR ESMX 130750Z 04004KT 010V080 9999 FEW015 BKN061 15/10 Q1011=
201808130720 METAR ESMX 130720Z 04004KT 360V080 9999 FEW015 14/10 Q1010=
201808130650 METAR ESMX 130650Z 03004KT 360V060 9999 FEW010 14/10 Q1010=
201808130620 METAR ESMX 130620Z VRB03KT 9999 FEW007 13/10 Q1010=
201808130550 METAR ESMX 130550Z VRB03KT 9999 SCT006 12/12 Q1010=
201808130520 METAR ESMX 130520Z AUTO VRB01KT 8000 BKN003/// OVC006/// 11/11 Q1010=
201808130450 METAR COR ESMX 130450Z VRB01KT 5000 BR FEW001 BKN003 OVC005 11/11 Q1010=
201808130420 METAR ESMX 130420Z VRB01KT 0250 R01/0600N R19/0500N FG BKN001 OVC003 11/10 Q1010=
201808130350 METAR ESMX 130350Z 00000KT 0100 R01/0400N R19/0375N FG OVC001 11/10 Q1010=
201808130320 METAR ESMX 130320Z AUTO 15001KT 0100 R01/0375N R19/0375N FG VV002 11/10 Q1010=
201808130250 METAR ESMX 130250Z AUTO VRB02KT 0050 R01/0400N R19/0275N FG SCT001/// OVC002/// 11/10 Q1011=
201808130220 METAR ESMX 130220Z AUTO 22003KT 0150 R01/0450N R19/0450N FG SCT001/// 11/10 Q1010=
201808130150 METAR ESMX 130150Z AUTO 23004KT 8000 BR BKN002/// 10/10 Q1010=
201808130120 METAR ESMX 130120Z AUTO 20004KT 8000 FEW005/// 11/10 Q1011=
201808130050 METAR ESMX 130050Z AUTO 15003KT 9999 NCD 11/10 Q1011=
201808130020 METAR ESMX 130020Z AUTO 22004KT 9999 NCD 11/10 Q1011=
201808122350 METAR ESMX 122350Z AUTO 24004KT 9999 SCT066/// 12/11 Q1011=
201808122320 METAR ESMX 122320Z AUTO 26003KT 220V300 9999 SCT007/// BKN068/// 12/11 Q1011=
201808122250 METAR ESMX 122250Z AUTO 23004KT 200V260 9999 BKN055/// OVC064/// 13/11 Q1011=
201808122220 METAR ESMX 122220Z AUTO 24004KT 210V280 9999 FEW009/// OVC055/// 13/11 Q1011=
201808122150 METAR ESMX 122150Z AUTO 23007KT 9999 OVC064/// 13/11 Q1011=
201808122120 METAR ESMX 122120Z AUTO 22008KT 9999 BKN066/// 13/11 Q1011=
201808122050 METAR ESMX 122050Z AUTO 21008KT 9999 BKN062/// OVC160/// 13/11 Q1011=
201808122020 METAR ESMX 122020Z AUTO 23008KT 9999 SCT057/// BKN140/// 14/11 Q1011=
201808121950 METAR ESMX 121950Z 22006KT 9999 BKN048 14/10 Q1011=
201808121920 METAR ESMX 121920Z 21007KT CAVOK 14/10 Q1011=
201808121850 METAR ESMX 121850Z 22007KT CAVOK 14/10 Q1011=
201808121820 METAR ESMX 121820Z 23007KT 190V260 CAVOK 15/09 Q1011=
201808121750 METAR ESMX 121750Z 24008KT CAVOK 15/08 Q1011=
201808121720 METAR ESMX 121720Z 24008KT CAVOK 16/08 Q1011=
201808121650 METAR ESMX 121650Z 25011KT CAVOK 16/07 Q1011=
201808121620 METAR ESMX 121620Z 25009KT 220V290 CAVOK 16/06 Q1011=
201808121550 METAR ESMX 121550Z 25013KT CAVOK 17/06 Q1011=
201808121520 METAR ESMX 121520Z 26013KT 210V280 9999 SCT045 17/06 Q1011=
201808121450 METAR ESMX 121450Z 26014KT 9999 FEW040 SCT200 18/07 Q1011=
201808121420 METAR ESMX 121420Z 25014KT 210V290 9999 SCT040 18/07 Q1011=
201808121350 METAR COR ESMX 121350Z 24013KT 210V280 9999 FEW035 SCT070 17/08 Q1011=
201808121320 METAR ESMX 121320Z 29012KT 250V320 9999 FEW040 SCT070 18/09 Q1011=
201808121250 METAR ESMX 121250Z 26017KT 230V290 9999 FEW037 BKN076 18/08 Q1011=
201808121220 METAR ESMX 121220Z 23015KT 9999 FEW047 SCT080 18/08 Q1011=
201808121150 METAR ESMX 121150Z 25015G26KT 230V290 9999 SCT045 18/06 Q1011=
201808121120 METAR ESMX 121120Z 26017G28KT 230V300 9999 SCT043 19/06 Q1010=
201808121050 METAR ESMX 121050Z 25016KT 210V280 9999 SCT040 18/07 Q1010=
201808121020 METAR ESMX 121020Z 25011KT 210V320 9999 SCT040 17/08 Q1010=
201808120950 METAR ESMX 120950Z AUTO 27013G24KT 240V300 9999 SCT040/// 17/07 Q1010=
201808120920 METAR ESMX 120920Z AUTO 27015KT 240V300 9999 FEW036/// SCT048/// 17/08 Q1010=
201808120850 METAR COR ESMX 120850Z 27016KT 230V300 9999 SCT031 16/08 Q1010=
201808120820 METAR ESMX 120820Z 25013KT 9999 SCT025 BKN038 16/10 Q1010=
201808120750 METAR ESMX 120750Z 24010KT 210V270 9999 SCT023 BKN037 15/11 Q1010=
201808120720 METAR ESMX 120720Z 24010KT 210V280 9999 BKN015 14/11 Q1010=
201808120650 METAR ESMX 120650Z 25009KT 210V280 9999 BKN012 14/11 Q1010=
201808120620 METAR ESMX 120620Z 25009KT 9999 BKN010 13/12 Q1010=
201808120550 METAR ESMX 120550Z AUTO 25009KT 9999 BKN007/// OVC009/// 13/12 Q1010=
201808120520 METAR ESMX 120520Z AUTO 23006KT 200V260 9999 SCT006/// OVC008/// 12/11 Q1009=
201808120450 METAR ESMX 120450Z AUTO 24007KT 200V280 9999 BKN010/// BKN017/// 12/11 Q1009=
201808120420 METAR ESMX 120420Z AUTO 24008KT 9999 NCD 11/10 Q1009=
201808120350 METAR ESMX 120350Z AUTO 25007KT 9999 NCD 11/10 Q1009=
201808120320 METAR ESMX 120320Z AUTO 26007KT 9999 FEW005/// 11/10 Q1009=
201808120250 METAR ESMX 120250Z AUTO 25008KT 220V280 9999 SCT005/// 11/10 Q1009=
201808120220 METAR ESMX 120220Z AUTO 24007KT 200V270 9999 FEW006/// BKN014/// 11/11 Q1009=
201808120150 METAR ESMX 120150Z AUTO 25007KT 9999 SCT006/// OVC057/// 12/11 Q1009 REDZ=
201808120120 METAR ESMX 120120Z AUTO 25007KT 210V280 9999 OVC005/// 11/11 Q1009 REDZ=
201808120050 METAR ESMX 120050Z AUTO 23007KT 9999 -RA BKN006/// OVC062/// 11/10 Q1009=
201808120020 METAR ESMX 120020Z AUTO 22007KT 9999 BKN005/// OVC009/// 11/10 Q1009=
201808112350 METAR ESMX 112350Z AUTO 22007KT 9999 BKN005/// BKN007/// OVC010/// 10/10 Q1009=
201808112320 METAR ESMX 112320Z AUTO 22005KT 9999 BKN008/// 09/09 Q1009=
201808112250 METAR ESMX 112250Z AUTO 19002KT 7000 BR FEW068/// 09/09 Q1008=
201808112220 METAR ESMX 112220Z AUTO VRB02KT 9999 -DZ FEW026/// SCT039/// OVC062/// 10/09 Q1009=
201808112150 METAR ESMX 112150Z AUTO 17003KT 9999 SCT034/// BKN051/// BKN062/// 09/09 Q1009=
201808112120 METAR ESMX 112120Z AUTO 20003KT 0500 R01/P2000N R19/1700D NCD 08/08 Q1009=
201808112050 METAR ESMX 112050Z AUTO 16002KT 0300 R01/P2000N R19/1200N BCFG NCD 09/08 Q1009=
201808112020 METAR ESMX 112020Z AUTO VRB01KT 5000 BR NCD 10/09 Q1010 RERA=
201808111920 METAR ESMX 111920Z VRB03KT 9999 VCTS FEW020CB SCT032 BKN075 11/10 Q1010 RERA=
201808111850 METAR ESMX 111850Z 32004KT 9999 TSRA FEW010 SCT021CB BKN057 11/10 Q1011=
201808111820 METAR ESMX 111820Z 11004KT 060V160 9999 VCTS FEW015 FEW028CB BKN035 13/12 Q1010=
201808111750 METAR ESMX 111750Z 11003KT 060V180 9999 FEW015 BKN030 13/12 Q1010=
201808111720 METAR ESMX 111720Z 08005KT 050V110 9999 SCT032 BKN070 14/12 Q1010=
201808111650 METAR ESMX 111650Z AUTO 09006KT 050V120 9999 BKN033/// BKN072/// 14/12 Q1010=
201808111620 METAR ESMX 111620Z AUTO 07005KT 030V140 9999 SCT004/// BKN038/// OVC068/// 14/13 Q1011=
201808111550 METAR ESMX 111550Z AUTO 07003KT 030V110 9999 SCT057/// BKN082/// BKN100/// 14/12 Q1011=
201808111520 METAR ESMX 111520Z 07003KT 020V140 9999 FEW010 BKN070 14/13 Q1011=
201808111450 METAR ESMX 111450Z VRB03KT 9999 VCTS FEW040CB BKN080 13/11 Q1012 RERA=
201808111420 METAR ESMX 111420Z 07005KT 050V110 9999 TSRA BKN040CB BKN080 13/12 Q1012=
201808111350 METAR COR ESMX 111350Z 24009KT 200V260 9999 TSRA BKN033CB BKN080 16/11 Q1012=
201808111320 METAR ESMX 111320Z AUTO 09006KT 050V130 9999 SCT094/// BKN140/// 16/12 Q1012=
201808111250 METAR ESMX 111250Z 14004KT 080V160 9999 VCTS SCT035CB BKN070 14/12 Q1013 RERA=
201808111220 METAR COR ESMX 111220Z 17007KT 9999 TSRA BKN035CB BKN072 14/10 Q1014=
201808111150 METAR ESMX 111150Z AUTO 21016KT 9999 -RA FEW049/// BKN078/// OVC098/// 17/11 Q1014=
201808111120 METAR ESMX 111120Z 10004KT 020V150 9999 VCTS FEW030CB SCT055 BKN100 17/14 Q1014=
201808111050 METAR ESMX 111050Z 11003KT 080V160 9999 FEW030 SCT045 BKN085 15/13 Q1014 RERA=
201808111020 METAR ESMX 111020Z 14007KT 9999 -SHRA SCT032CB BKN086 17/11 Q1015=
201808110950 METAR ESMX 110950Z AUTO 16012KT 120V200 9999 -RA BKN038/// OVC094/// 18/09 Q1015=
201808110920 METAR ESMX 110920Z AUTO 18011KT 120V210 9999 FEW038/// SCT090/// 22/09 Q1015=
201808110850 METAR ESMX 110850Z AUTO 18011KT 9999 SCT036/// BKN043/// 21/11 Q1016=
201808110820 METAR ESMX 110820Z AUTO 15009KT 9999 FEW037/// 21/11 Q1016=
201808110750 METAR ESMX 110750Z AUTO 17010KT 100V210 9999 NCD 20/10 Q1016=
201808110720 METAR ESMX 110720Z AUTO 16008KT 9999 FEW200/// 18/11 Q1017=
201808110650 METAR ESMX 110650Z AUTO 18008KT 120V210 9999 NCD 18/10 Q1017=
201808110620 METAR ESMX 110620Z AUTO 17007KT 130V190 9999 NCD 17/11 Q1017=
201808110550 METAR ESMX 110550Z AUTO 19004KT 9999 NCD 15/11 Q1017=
201808110520 METAR ESMX 110520Z AUTO 20004KT 9999 NCD 14/11 Q1017=
201808110450 METAR ESMX 110450Z AUTO 18006KT 9999 FEW220/// 13/11 Q1017=
201808110420 METAR ESMX 110420Z AUTO 18006KT 9999 NCD 13/10 Q1018=
201808110350 METAR ESMX 110350Z AUTO 18005KT 9999 NCD 11/09 Q1018=
201808110320 METAR ESMX 110320Z AUTO 18007KT 9999 NCD 11/09 Q1018=
201808110250 METAR ESMX 110250Z AUTO 19006KT 9999 NCD 11/09 Q1018=
201808110220 METAR ESMX 110220Z AUTO 21006KT 9999 NCD 11/08 Q1018=
201808110150 METAR ESMX 110150Z AUTO 19006KT 9999 NCD 11/09 Q1018=
201808110120 METAR ESMX 110120Z AUTO 20006KT 9999 NCD 11/09 Q1018=
201808110050 METAR ESMX 110050Z AUTO 20006KT 9999 NCD 12/09 Q1018=
201808110020 METAR ESMX 110020Z AUTO 21007KT 9999 NCD 12/09 Q1018=
201808102350 METAR ESMX 102350Z AUTO 20008KT 9999 NCD 13/09 Q1018=
201808102320 METAR ESMX 102320Z AUTO 20007KT 9999 NCD 13/09 Q1018=
201808102250 METAR ESMX 102250Z 18006KT 150V210 CAVOK 13/09 Q1018=
201808102220 METAR ESMX 102220Z 19008KT CAVOK 13/09 Q1018=
201808102150 METAR ESMX 102150Z 20008KT CAVOK 13/10 Q1018=
201808102120 METAR ESMX 102120Z 20007KT CAVOK 14/10 Q1018=
201808102050 METAR ESMX 102050Z 19007KT CAVOK 14/09 Q1018=
201808102020 METAR ESMX 102020Z 20006KT CAVOK 14/09 Q1018=
201808101950 METAR ESMX 101950Z 20006KT CAVOK 16/09 Q1018=
201808101920 METAR ESMX 101920Z 23008KT CAVOK 16/08 Q1017=
201808101850 METAR ESMX 101850Z 23010KT CAVOK 17/08 Q1017=
201808101820 METAR ESMX 101820Z 24011KT CAVOK 18/08 Q1017=
201808101750 METAR ESMX 101750Z 23012KT CAVOK 18/08 Q1016=
201808101720 METAR ESMX 101720Z 24011KT 210V270 9999 SCT048 19/08 Q1016=
201808101650 METAR ESMX 101650Z 24014KT 9999 SCT045 20/08 Q1016=
201808101620 METAR ESMX 101620Z 25015KT 9999 FEW046 SCT062 19/08 Q1016=
201808101550 METAR ESMX 101550Z 24013KT 9999 FEW040 SCT050 19/09 Q1016=
201808101520 METAR ESMX 101520Z 22015KT 9999 FEW042 BKN060 21/10 Q1015=
201808101450 METAR ESMX 101450Z 23018KT 200V260 9999 SCT046 21/09 Q1015=
201808101420 METAR ESMX 101420Z 23016KT 200V270 9999 FEW045 21/10 Q1015=
201808101350 METAR ESMX 101350Z 25016G29KT 9999 FEW043 21/09 Q1014=
201808101320 METAR ESMX 101320Z 23018G29KT 200V260 9999 FEW043 22/11 Q1014=
201808101250 METAR ESMX 101250Z 24017G29KT 9999 SCT047 23/11 Q1013=
201808101220 METAR ESMX 101220Z 25016KT 210V280 9999 FEW043 21/11 Q1013=
201808101150 METAR ESMX 101150Z 23014KT 200V260 9999 FEW041 SCT053 22/12 Q1012=
201808101120 METAR ESMX 101120Z 21018G28KT 9999 FEW040 BKN061 21/11 Q1012=
201808101050 METAR ESMX 101050Z 22015KT 190V260 9999 FEW032 SCT042 23/12 Q1012=
201808101020 METAR ESMX 101020Z 21017KT 180V240 9999 BKN033 BKN051 22/14 Q1011=
201808100950 METAR ESMX 100950Z 20019KT 9999 BKN035 22/14 Q1011=
201808100920 METAR ESMX 100920Z 22015KT 9999 BKN033 21/14 Q1010=
201808100850 METAR ESMX 100850Z 22016KT 200V260 9999 BKN026 OVC034 20/14 Q1010=
201808100820 METAR ESMX 100820Z 20016KT 170V240 9999 BKN021 21/15 Q1010=
201808100750 METAR ESMX 100750Z 20016KT 9999 BKN023 20/15 Q1009=
201808100720 METAR ESMX 100720Z 20020KT 9999 SCT014 BKN024 19/15 Q1009=
201808100650 METAR ESMX 100650Z 18015KT 140V200 9999 BKN016 BKN024 20/18 Q1008=
201808100620 METAR ESMX 100620Z 18014KT 9999 SCT009 BKN013 20/18 Q1008=
201808100550 METAR ESMX 100550Z 16010KT 9999 FEW010 SCT013 BKN027 20/19 Q1008=
201808100520 METAR ESMX 100520Z 16009KT 9999 BKN024 19/18 Q1008=
201808100450 METAR ESMX 100450Z 15008KT 9999 FEW025 19/18 Q1008=
201808100420 METAR ESMX 100420Z 15004KT 130V200 CAVOK 19/18 Q1007=
201808100350 METAR ESMX 100350Z AUTO 13004KT 100V160 9999 FEW160/// 18/18 Q1007=
201808100320 METAR ESMX 100320Z AUTO 11004KT 060V150 9999 SCT180/// 18/17 Q1008=
201808100250 METAR ESMX 100250Z AUTO 11003KT 070V160 9000 FEW094/// SCT120/// 18/17 Q1008 RERA=
201808100220 METAR ESMX 100220Z AUTO 08003KT 050V140 9999 SCT094/// 18/18 Q1008=
201808100150 METAR ESMX 100150Z AUTO 05005KT 8000 BR FEW001/// SCT016/// BKN078/// 18/17 Q1008 RERA=
201808100120 METAR ESMX 100120Z AUTO 16007KT 130V190 5000 RA BKN001/// BKN057/// OVC100/// 19/17 Q1010 REDZ=
201808100050 METAR ESMX 100050Z AUTO 13007KT 070V200 9999 SCT110/// 22/15 Q1008=
201808100020 METAR ESMX 100020Z AUTO 11006KT 060V160 9999 NCD 22/14 Q1009=
201808092350 METAR ESMX 092350Z AUTO 11004KT 040V170 9999 FEW053/// 22/13 Q1009=
201808092320 METAR ESMX 092320Z VRB03KT CAVOK 21/14 Q1010=
201808092250 METAR ESMX 092250Z 11004KT 050V150 CAVOK 20/14 Q1011=
201808092220 METAR ESMX 092220Z VRB03KT CAVOK 20/15 Q1011=
201808092150 METAR ESMX 092150Z 10003KT 030V140 CAVOK 21/15 Q1012=
201808092120 METAR ESMX 092120Z 13004KT 070V170 CAVOK 21/15 Q1012=
201808092050 METAR ESMX 092050Z 13003KT 080V160 CAVOK 21/15 Q1013=
201808092020 METAR ESMX 092020Z 15003KT CAVOK 21/15 Q1013=
201808091950 METAR ESMX 091950Z 14005KT CAVOK 21/14 Q1013=
201808091920 METAR ESMX 091920Z 12003KT CAVOK 22/14 Q1013=
201808091850 METAR ESMX 091850Z 14002KT CAVOK 23/13 Q1013=
201808091820 METAR ESMX 091820Z 16003KT CAVOK 25/13 Q1013=
201808091750 METAR ESMX 091750Z 15004KT 110V180 CAVOK 26/11 Q1014=
201808091720 METAR ESMX 091720Z 19004KT CAVOK 26/12 Q1014=
201808091650 METAR ESMX 091650Z 21004KT 150V300 CAVOK 26/13 Q1014=
201808091620 METAR ESMX 091620Z 20007KT 160V240 CAVOK 27/13 Q1014=
201808091550 METAR ESMX 091550Z 20006KT 160V230 CAVOK 27/13 Q1015=
201808091520 METAR ESMX 091520Z 23005KT 180V260 CAVOK 26/13 Q1015=
201808091450 METAR ESMX 091450Z 21007KT 180V310 CAVOK 26/14 Q1015=
201808091420 METAR ESMX 091420Z 22007KT 190V250 CAVOK 27/13 Q1015=
201808091350 METAR ESMX 091350Z 22008KT 170V260 9999 FEW048 26/14 Q1015=
201808091320 METAR ESMX 091320Z 22008KT 170V250 CAVOK 26/13 Q1015=
201808091250 METAR ESMX 091250Z 22008KT 190V260 CAVOK 26/13 Q1016=
201808091220 METAR ESMX 091220Z 20008KT 160V280 9999 FEW039 25/14 Q1016=
201808091150 METAR ESMX 091150Z 22006KT 170V290 9999 SCT041 24/14 Q1016=
201808091120 METAR ESMX 091120Z 23009KT 180V270 9999 BKN037 24/14 Q1016=
201808091050 METAR ESMX 091050Z 21006KT 160V260 9999 FEW030 23/14 Q1016=
201808091020 METAR ESMX 091020Z 26008KT 9999 FEW030 23/15 Q1016=
201808090950 METAR ESMX 090950Z 23007KT 9999 FEW021 SCT028 22/16 Q1016=
201808090920 METAR ESMX 090920Z 25006KT 220V280 9999 FEW021 22/16 Q1016=
201808090850 METAR ESMX 090850Z 24005KT 9999 FEW013 SCT018 22/16 Q1016=
201808090820 METAR COR ESMX 090820Z 20008KT 170V250 9999 FEW010 SCT028 22/18 Q1016=
201808090750 METAR ESMX 090750Z 22006KT 9999 FEW009 SCT015 20/18 Q1016=
201808090720 METAR ESMX 090720Z 23005KT 9999 SCT006 BKN018 20/18 Q1015=
201808090650 METAR ESMX 090650Z 22004KT 180V250 9999 FEW005 BKN008 20/18 Q1015=
201808090620 METAR ESMX 090620Z 18003KT 120V210 7000 BR BKN006 19/18 Q1015=
201808090550 METAR ESMX 090550Z 23004KT 200V260 4300 BR SCT012 19/18 Q1015=
201808090520 METAR ESMX 090520Z 24004KT 200V270 3600 BR NSC 18/18 Q1014=
201808090450 METAR ESMX 090450Z 21004KT 1800 BR NSC 18/17 Q1014=
201808090420 METAR ESMX 090420Z 20003KT 0350 R01/P2000N R19/0650N MIFG NSC 18/17 Q1014=
201808090350 METAR ESMX 090350Z AUTO 21004KT 0350 R01/P2000N R19/0650U BR ////// 17/16 Q1014=
201808090320 METAR ESMX 090320Z AUTO 19003KT 2700 BR ////// 18/17 Q1013=
201808090250 METAR ESMX 090250Z AUTO 25004KT 8000 BR ////// 18/17 Q1013=
201808090220 METAR ESMX 090220Z AUTO VRB03KT 9999 ////// 18/17 Q1013=
201808090150 METAR ESMX 090150Z AUTO 21003KT 9999 ////// 19/18 Q1013 REDZ=
201808090120 METAR ESMX 090120Z AUTO VRB02KT 8000 BR ////// 18/18 Q1013=
201808090050 METAR ESMX 090050Z AUTO 22003KT 170V240 7000 ////// 18/18 Q1013 RERA=
201808090020 METAR ESMX 090020Z AUTO 00000KT 9999 ////// 19/18 Q1013=
201808082350 METAR ESMX 082350Z AUTO 19010KT 5000 RA ////// 19/18 Q1013=
201808082320 METAR ESMX 082320Z AUTO VRB02KT 9999 ////// 19/18 Q1012=
201808082250 METAR ESMX 082250Z AUTO 15004KT 9999 BR ////// 19/19 Q1012 RERA=
201808082220 METAR ESMX 082220Z AUTO 16002KT 9000 ////// 19/18 Q1012=
201808082150 METAR ESMX 082150Z VRB02KT 9999 SHRA SCT060CB BKN090 19/18 Q1011=
201808082120 METAR ESMX 082120Z 05003KT 360V090 CAVOK 19/18 Q1011=
201808082050 METAR ESMX 082050Z 04003KT 330V080 9999 VCTS SCT020CB BKN100 19/17 Q1012=
201808082020 METAR ESMX 082020Z 31010KT 9999 TS SHRA SCT018 BKN037CB 19/18 Q1012=
201808081950 METAR COR ESMX 081950Z 13004KT 060V150 9999 +TS SHRA FEW040 BKN060CB 26/17 Q1011=
201808081920 METAR ESMX 081920Z 15004KT 9999 VCTS BKN080CB 26/17 Q1011=
201808081850 METAR ESMX 081850Z 16006KT CAVOK 27/17 Q1011=
201808081820 METAR ESMX 081820Z 16008KT CAVOK 27/16 Q1010=
201808081750 METAR ESMX 081750Z 17008KT CAVOK 28/16 Q1010=
201808081720 METAR ESMX 081720Z 17008KT CAVOK 28/16 Q1010=
201808081650 METAR ESMX 081650Z 15009KT 120V190 CAVOK 28/15 Q1010=
201808081620 METAR ESMX 081620Z 15010KT CAVOK 29/14 Q1010=
201808081550 METAR ESMX 081550Z 15010KT CAVOK 29/12 Q1010=
201808081520 METAR ESMX 081520Z 15011KT 110V190 CAVOK 29/12 Q1010=
201808081450 METAR ESMX 081450Z AUTO 15013KT 9999 SCT130/// 30/12 Q1010=
201808081420 METAR ESMX 081420Z AUTO 15013KT 9999 NCD 31/13 Q1010=
201808081350 METAR ESMX 081350Z AUTO 16012KT 9999 NCD 31/12 Q1010=
201808081320 METAR ESMX 081320Z 16013KT 120V200 CAVOK 31/12 Q1010=
201808081250 METAR ESMX 081250Z 16014KT CAVOK 32/12 Q1010=
201808081220 METAR ESMX 081220Z 16012KT CAVOK 32/11 Q1010=
201808081150 METAR ESMX 081150Z 15013KT CAVOK 32/10 Q1010=
201808081120 METAR ESMX 081120Z 15014KT CAVOK 32/10 Q1010=
201808081050 METAR ESMX 081050Z 16014KT CAVOK 32/11 Q1011=
201808081020 METAR ESMX 081020Z AUTO 15013KT 9999 NCD 31/12 Q1011=
201808080950 METAR ESMX 080950Z AUTO 14012KT 100V170 9999 NCD 31/12 Q1011=
201808080920 METAR ESMX 080920Z 14012KT 100V170 CAVOK 30/13 Q1011=
201808080850 METAR ESMX 080850Z 13008KT 100V170 CAVOK 29/14 Q1011=
201808080820 METAR ESMX 080820Z 13007KT CAVOK 28/14 Q1011=
201808080750 METAR ESMX 080750Z 14007KT 080V170 CAVOK 26/14 Q1011=
201808080720 METAR ESMX 080720Z 14008KT 110V170 CAVOK 25/14 Q1011=
201808080650 METAR ESMX 080650Z 14008KT 110V170 CAVOK 24/15 Q1011=
201808080620 METAR ESMX 080620Z 14008KT CAVOK 22/15 Q1011=
201808080550 METAR ESMX 080550Z 14005KT 090V170 CAVOK 21/16 Q1011=
201808080520 METAR ESMX 080520Z 13006KT 080V180 CAVOK 20/15 Q1012=
201808080450 METAR ESMX 080450Z 14006KT 100V170 CAVOK 20/15 Q1012=
201808080420 METAR ESMX 080420Z 14005KT 090V170 CAVOK 19/15 Q1012=
201808080350 METAR ESMX 080350Z AUTO 14006KT 110V170 9999 NCD 19/15 Q1012=
201808080320 METAR ESMX 080320Z AUTO 14005KT 9999 NCD 19/15 Q1012=
201808080250 METAR ESMX 080250Z AUTO 14005KT 110V170 9999 NCD 18/14 Q1012=
201808080220 METAR ESMX 080220Z AUTO 14006KT 9999 NCD 19/14 Q1012=
201808080150 METAR ESMX 080150Z 14005KT 100V160 CAVOK 18/13 Q1012=
201808080120 METAR ESMX 080120Z 13005KT 100V170 CAVOK 18/13 Q1012=
201808080050 METAR ESMX 080050Z 13004KT 090V160 CAVOK 17/13 Q1013=
201808080020 METAR ESMX 080020Z 13003KT 100V160 CAVOK 18/13 Q1013=
201808072350 METAR ESMX 072350Z 13004KT 100V160 CAVOK 19/12 Q1013=
201808072320 METAR ESMX 072320Z AUTO 13006KT 100V160 9999 BKN170/// 20/12 Q1013=
201808072250 METAR ESMX 072250Z 14007KT CAVOK 20/12 Q1014=
201808072220 METAR ESMX 072220Z 14006KT CAVOK 20/13 Q1014=
201808072150 METAR ESMX 072150Z AUTO 15007KT 9999 NCD 21/12 Q1014=
201808072120 METAR ESMX 072120Z AUTO 14006KT 9999 NCD 21/12 Q1014=
201808072050 METAR ESMX 072050Z AUTO 14006KT 9999 NCD 22/12 Q1014=
201808072020 METAR ESMX 072020Z AUTO 15006KT 9999 NCD 23/12 Q1014=
201808071950 METAR ESMX 071950Z 15007KT CAVOK 23/11 Q1014=
201808071920 METAR ESMX 071920Z 16008KT CAVOK 24/11 Q1014=
201808071850 METAR ESMX 071850Z 16007KT CAVOK 25/10 Q1013=
201808071820 METAR ESMX 071820Z 16006KT CAVOK 26/11 Q1013=
201808071750 METAR ESMX 071750Z 17007KT CAVOK 26/12 Q1013=
201808071720 METAR ESMX 071720Z 15007KT CAVOK 27/13 Q1013=
201808071650 METAR ESMX 071650Z 20006KT CAVOK 28/12 Q1013=
201808071620 METAR ESMX 071620Z 19005KT 140V230 CAVOK 28/11 Q1013=
201808071550 METAR ESMX 071550Z 18006KT 140V230 CAVOK 28/11 Q1013=
201808071520 METAR ESMX 071520Z 18006KT 120V230 CAVOK 28/10 Q1013=
201808071450 METAR ESMX 071450Z 22009KT CAVOK 28/10 Q1013=
201808071420 METAR ESMX 071420Z 21011KT CAVOK 28/09 Q1014=
201808071350 METAR ESMX 071350Z 21009KT 170V240 CAVOK 29/10 Q1013=
201808071320 METAR ESMX 071320Z 21009KT 170V240 CAVOK 28/10 Q1014=
201808071250 METAR ESMX 071250Z 20008KT 160V260 CAVOK 27/11 Q1014=
201808071220 METAR ESMX 071220Z 20006KT 140V240 CAVOK 27/11 Q1014=
201808071150 METAR ESMX 071150Z 21009KT 180V260 CAVOK 28/11 Q1014=
201808071120 METAR ESMX 071120Z 19008KT CAVOK 27/11 Q1014=
201808071050 METAR ESMX 071050Z 21008KT 180V250 CAVOK 26/11 Q1014=
201808071020 METAR ESMX 071020Z AUTO 02004KT 300V090 9999 NCD 24/14 Q1015=
201808070950 METAR ESMX 070950Z AUTO 35006KT 320V020 9999 FEW038/// 23/15 Q1015=
201808070920 METAR ESMX 070920Z 36005KT 330V050 9999 FEW032 23/15 Q1015=
201808070850 METAR ESMX 070850Z 36005KT 9999 FEW027 21/15 Q1015=
201808070820 METAR ESMX 070820Z 01004KT 330V050 9999 FEW025 20/15 Q1015=
201808070750 METAR ESMX 070750Z 01006KT 9999 FEW004 19/15 Q1015=
201808070720 METAR ESMX 070720Z 01004KT 350V060 9999 FEW003 19/15 Q1015=
201808070650 METAR ESMX 070650Z VRB02KT 9999 FEW004 18/15 Q1015=
201808070620 METAR ESMX 070620Z VRB03KT 9999 FEW004 17/15 Q1015=
201808070550 METAR ESMX 070550Z 23004KT 9999 FEW003 16/15 Q1015=
201808070520 METAR ESMX 070520Z AUTO 21003KT 9999 OVC004/// 16/15 Q1015=
201808070450 METAR ESMX 070450Z AUTO 20003KT 9999 BKN005/// OVC100/// 16/14 Q1015=
201808070420 METAR ESMX 070420Z AUTO 22002KT 9999 BKN100/// 14/13 Q1014=
201808070350 METAR ESMX 070350Z AUTO 20004KT 9999 FEW110/// 12/11 Q1014=
201808070320 METAR ESMX 070320Z AUTO 16002KT 9999 FEW110/// 13/12 Q1014=
201808070250 METAR ESMX 070250Z AUTO 00000KT 9999 FEW013/// 13/12 Q1014=
201808070220 METAR ESMX 070220Z AUTO 18003KT 7000 NCD 15/13 Q1014=
201808070150 METAR ESMX 070150Z AUTO 18004KT 9999 NCD 14/13 Q1014=
201808070120 METAR ESMX 070120Z AUTO 20006KT 9999 NCD 14/12 Q1014=
201808070050 METAR ESMX 070050Z AUTO 21006KT 9999 NCD 14/12 Q1014=
201808070020 METAR ESMX 070020Z AUTO 21006KT 9999 NCD 14/12 Q1014=
201808062350 METAR ESMX 062350Z AUTO 20005KT 9999 NCD 14/12 Q1014=
201808062320 METAR ESMX 062320Z AUTO 18005KT 9999 NCD 14/12 Q1014=
201808062250 METAR ESMX 062250Z AUTO 18003KT 9999 FEW028/// SCT046/// 15/13 Q1014=
201808062220 METAR ESMX 062220Z AUTO 19003KT 9999 BKN030/// 15/12 Q1014=
201808062150 METAR ESMX 062150Z AUTO 00000KT 9999 FEW001/// BKN032/// OVC040/// 16/13 Q1014=
201808062120 METAR ESMX 062120Z AUTO 20003KT 9999 SCT039/// BKN061/// 16/13 Q1014=
201808062050 METAR ESMX 062050Z AUTO 18004KT 9999 SCT039/// BKN051/// BKN064/// 17/13 Q1014=
201808062020 METAR ESMX 062020Z AUTO 22003KT 9999 FEW038/// SCT045/// BKN061/// 16/13 Q1014=
201808061950 METAR ESMX 061950Z AUTO 22004KT 9999 BKN068/// BKN110/// 17/13 Q1014=
201808061920 METAR ESMX 061920Z AUTO 23003KT 9999 SCT064/// BKN084/// 17/12 Q1015=
201808061850 METAR ESMX 061850Z AUTO 25005KT 9999 FEW027/// BKN064/// OVC078/// 18/12 Q1015=
201808061820 METAR ESMX 061820Z AUTO 25008KT 9999 OVC094/// 18/12 Q1015=
201808061750 METAR ESMX 061750Z AUTO 26006KT 240V300 9999 FEW028/// SCT037/// OVC094/// 18/12 Q1015=
201808061720 METAR ESMX 061720Z AUTO 26008KT 240V300 9999 BKN037/// OVC074/// 19/12 Q1015=
201808061650 METAR ESMX 061650Z AUTO 26009KT 230V290 9999 BKN034/// BKN062/// 19/11 Q1015=
201808061620 METAR ESMX 061620Z 27009KT 230V310 9999 FEW036 SCT045 19/10 Q1015=
201808061550 METAR ESMX 061550Z 27010KT CAVOK 20/09 Q1015=
201808061520 METAR ESMX 061520Z 27010KT CAVOK 20/09 Q1014=
201808061450 METAR ESMX 061450Z 26011KT 240V300 CAVOK 21/09 Q1014=
201808061420 METAR ESMX 061420Z 25011KT 210V280 CAVOK 22/08 Q1014=
201808061350 METAR ESMX 061350Z 26013KT 220V290 CAVOK 23/09 Q1014=
201808061320 METAR ESMX 061320Z 26012KT 220V290 CAVOK 23/08 Q1014=
201808061250 METAR ESMX 061250Z 24012KT 210V280 CAVOK 24/08 Q1014=
201808061220 METAR ESMX 061220Z 26012KT 210V300 CAVOK 24/08 Q1014=
201808061150 METAR ESMX 061150Z 26009KT 220V330 CAVOK 23/08 Q1014=
201808061120 METAR ESMX 061120Z 23009KT 200V310 CAVOK 23/09 Q1014=
201808061050 METAR ESMX 061050Z 25010KT 220V280 CAVOK 22/09 Q1014=
201808061020 METAR ESMX 061020Z AUTO 26010KT 190V280 9999 FEW042/// 21/09 Q1014=
201808060950 METAR ESMX 060950Z AUTO 27010KT 240V320 9999 FEW210/// 21/09 Q1014=
201808060920 METAR ESMX 060920Z 27011KT 9999 FEW038 20/09 Q1014=
201808060850 METAR ESMX 060850Z 27011KT 240V300 9999 FEW035 20/09 Q1014=
201808060820 METAR ESMX 060820Z 27010KT 220V300 9999 SCT031 20/10 Q1014=
201808060750 METAR ESMX 060750Z 27010KT 9999 SCT028 19/10 Q1014=
201808060720 METAR ESMX 060720Z 27008KT 240V300 9999 SCT023 18/11 Q1014=
201808060650 METAR ESMX 060650Z 26009KT 210V310 9999 BKN018 17/12 Q1014=
201808060620 METAR ESMX 060620Z 26009KT 240V300 9999 SCT015 17/12 Q1014=
201808060550 METAR ESMX 060550Z 27008KT CAVOK 16/12 Q1014=
201808060520 METAR ESMX 060520Z AUTO 26008KT 230V300 9999 NCD 15/12 Q1014=
201808060450 METAR ESMX 060450Z AUTO 26006KT 9999 NCD 13/12 Q1014=
201808060420 METAR ESMX 060420Z AUTO 26006KT 9999 NCD 13/11 Q1014=
201808060350 METAR ESMX 060350Z AUTO 23005KT 9999 FEW120/// 12/11 Q1014=
201808060320 METAR ESMX 060320Z AUTO 24005KT 9999 FEW120/// 12/11 Q1014=
201808060250 METAR ESMX 060250Z AUTO 24006KT 9999 NCD 12/11 Q1014=
201808060220 METAR ESMX 060220Z AUTO 23006KT 9999 NCD 12/10 Q1014=
201808060150 METAR ESMX 060150Z AUTO 24006KT 9999 NCD 13/11 Q1014=
201808060120 METAR ESMX 060120Z AUTO 24006KT 9999 NCD 13/11 Q1014=
201808060050 METAR ESMX 060050Z AUTO 25006KT 9999 FEW150/// 13/11 Q1014=
201808060020 METAR ESMX 060020Z AUTO 25006KT 9999 OVC150/// 14/11 Q1014=
201808052350 METAR ESMX 052350Z AUTO 26006KT 9999 OVC150/// 14/10 Q1014=
201808052320 METAR ESMX 052320Z AUTO 25006KT 9999 SCT160/// 14/10 Q1014=
201808052250 METAR ESMX 052250Z AUTO 25008KT 9999 NCD 14/10 Q1014=
201808052220 METAR ESMX 052220Z AUTO 26008KT 9999 NCD 15/09 Q1014=
201808052150 METAR ESMX 052150Z AUTO 25007KT 220V280 9999 NCD 15/09 Q1014=
201808052120 METAR ESMX 052120Z AUTO 25006KT 9999 FEW200/// 15/09 Q1014=
201808052050 METAR ESMX 052050Z AUTO 26007KT 9999 NCD 16/09 Q1014=
201808052020 METAR ESMX 052020Z AUTO 25004KT 9999 NCD 16/09 Q1014=
201808051950 METAR ESMX 051950Z 27007KT CAVOK 17/09 Q1014=
201808051920 METAR ESMX 051920Z 28008KT CAVOK 17/08 Q1014=
201808051850 METAR ESMX 051850Z 28011KT 240V320 CAVOK 18/08 Q1013=
201808051820 METAR COR ESMX 051820Z 26010KT 240V300 CAVOK 19/08 Q1013=
201808051750 METAR ESMX 051750Z 26010KT CAVOK 20/08 Q1013=
201808051720 METAR ESMX 051720Z 28012KT 240V300 CAVOK 20/08 Q1013=
201808051650 METAR ESMX 051650Z 27011KT 230V320 CAVOK 21/08 Q1013=
201808051620 METAR ESMX 051620Z 28015KT CAVOK 22/08 Q1013=
201808051550 METAR ESMX 051550Z 29014KT CAVOK 22/07 Q1013=
201808051520 METAR ESMX 051520Z 28014G25KT 250V320 CAVOK 23/07 Q1013=
201808051450 METAR ESMX 051450Z 26016KT CAVOK 23/08 Q1013=
201808051420 METAR ESMX 051420Z 26016KT 250V310 CAVOK 23/09 Q1013=
201808051350 METAR ESMX 051350Z 27014KT CAVOK 23/09 Q1013=
201808051320 METAR ESMX 051320Z 29014KT 9999 FEW047 22/09 Q1013=
201808051250 METAR ESMX 051250Z AUTO 26012KT 230V290 9999 FEW048/// 23/09 Q1013=
201808051220 METAR ESMX 051220Z 26015KT 240V300 9999 FEW047 22/09 Q1013=
201808051150 METAR ESMX 051150Z 26013G24KT 220V290 9999 FEW045 23/09 Q1012=
201808051120 METAR ESMX 051120Z 23012G22KT 190V280 9999 FEW043 22/10 Q1013=
201808051050 METAR ESMX 051050Z 26012KT 230V300 9999 FEW037 22/10 Q1013=
201808051020 METAR ESMX 051020Z 29012KT 9999 SCT034 20/11 Q1013=
201808050950 METAR ESMX 050950Z 25010KT 210V300 9999 BKN030 20/11 Q1013=
201808050920 METAR ESMX 050920Z 26010KT 230V300 9999 BKN031 20/12 Q1013=
201808050850 METAR ESMX 050850Z 26011KT 9999 BKN029 20/12 Q1013=
201808050820 METAR ESMX 050820Z 25011KT 210V280 9999 BKN025 19/12 Q1013=
201808050750 METAR ESMX 050750Z 26009KT 200V290 9999 BKN022 18/12 Q1013=
201808050720 METAR ESMX 050720Z 25010KT 9999 BKN021 18/12 Q1013=
201808050650 METAR ESMX 050650Z 24010KT 210V280 9999 BKN023 18/13 Q1013=
201808050620 METAR ESMX 050620Z 27011KT 9999 BKN025 18/13 Q1013=
201808050550 METAR ESMX 050550Z 27010KT 9999 FEW029 17/14 Q1013=
201808050520 METAR ESMX 050520Z AUTO 26009KT 9999 FEW012/// 16/14 Q1013=
201808050450 METAR ESMX 050450Z AUTO 26006KT 9999 FEW011/// 16/14 Q1013=
201808050420 METAR ESMX 050420Z AUTO 25005KT 220V280 9999 NCD 15/14 Q1013=
201808050350 METAR ESMX 050350Z AUTO 24004KT 210V270 9999 NCD 15/14 Q1013=
201808050320 METAR ESMX 050320Z AUTO 24005KT 9999 FEW012/// 15/13 Q1013=
201808050250 METAR ESMX 050250Z AUTO 24005KT 9999 NCD 14/13 Q1013=
201808050220 METAR ESMX 050220Z AUTO 25004KT 9999 NCD 14/13 Q1013=
201808050150 METAR ESMX 050150Z AUTO 24004KT 190V290 9999 NCD 15/14 Q1013=
201808050120 METAR ESMX 050120Z AUTO 24004KT 210V280 9999 NCD 14/13 Q1013=
201808050050 METAR ESMX 050050Z AUTO 25004KT 9999 NCD 15/13 Q1013=
201808050020 METAR ESMX 050020Z AUTO 21003KT 9999 NCD 15/13 Q1013=
201808042350 METAR ESMX 042350Z AUTO 26004KT 9999 NCD 15/13 Q1013=
201808042320 METAR ESMX 042320Z AUTO 26004KT 9999 NCD 16/13 Q1014=
201808042250 METAR ESMX 042250Z AUTO 25004KT 9999 NCD 16/13 Q1014=
201808042220 METAR ESMX 042220Z AUTO 25004KT 9999 NCD 16/13 Q1014=
201808042150 METAR ESMX 042150Z AUTO 25004KT 210V290 9999 NCD 17/13 Q1014=
201808042120 METAR ESMX 042120Z AUTO 24004KT 9999 NCD 17/13 Q1014=
201808042050 METAR ESMX 042050Z AUTO 25003KT 9999 NCD 18/13 Q1014=
201808042020 METAR ESMX 042020Z 24005KT CAVOK 19/13 Q1014=
201808041950 METAR ESMX 041950Z 26005KT CAVOK 20/13 Q1014=
201808041920 METAR ESMX 041920Z 26007KT CAVOK 21/13 Q1014=
201808041850 METAR ESMX 041850Z 26008KT CAVOK 22/13 Q1014=
201808041820 METAR COR ESMX 041820Z 25009KT CAVOK 22/13 Q1014=
201808041750 METAR ESMX 041750Z 26009KT 210V300 CAVOK 23/13 Q1014=
201808041720 METAR COR ESMX 041720Z 24011KT CAVOK 24/13 Q1013=
201808041650 METAR ESMX 041650Z AUTO 27011KT 9999 FEW049/// 25/13 Q1013=
201808041620 METAR ESMX 041620Z AUTO 25009KT 210V280 9999 FEW049/// 25/13 Q1014=
201808041550 METAR ESMX 041550Z AUTO 25011KT 210V290 9999 SCT051/// 25/12 Q1014=
201808041520 METAR ESMX 041520Z AUTO 27011KT 210V310 9999 NCD 26/12 Q1014=
201808041450 METAR ESMX 041450Z AUTO 26012KT 230V300 9999 SCT055/// 26/13 Q1014=
201808041420 METAR ESMX 041420Z AUTO 26013KT 9999 SCT051/// 27/12 Q1014=
201808041350 METAR ESMX 041350Z AUTO 27011KT 240V300 9999 SCT047/// BKN055/// 25/12 Q1014=
201808041320 METAR ESMX 041320Z AUTO 26012KT 9999 SCT047/// 25/13 Q1014=
201808041250 METAR ESMX 041250Z AUTO 24011KT 9999 FEW045/// SCT190/// 25/13 Q1014=
201808041220 METAR ESMX 041220Z 28010KT 230V320 9999 FEW042 25/13 Q1015=
201808041150 METAR ESMX 041150Z 28012KT 240V320 9999 FEW040 25/13 Q1015=
201808041120 METAR ESMX 041120Z 26011KT 240V300 9999 SCT038 25/13 Q1015=
201808041050 METAR ESMX 041050Z 26011KT 210V290 9999 SCT035 25/14 Q1015=
201808041020 METAR ESMX 041020Z 25011KT 220V280 9999 SCT033 25/14 Q1015=
201808040950 METAR ESMX 040950Z AUTO 25010KT 210V290 9999 SCT032/// 24/14 Q1015=
201808040920 METAR ESMX 040920Z AUTO 26013KT 210V290 9999 OVC027/// 23/14 Q1016=
201808040850 METAR ESMX 040850Z AUTO 26011KT 230V300 9999 BKN026/// 22/15 Q1016=
201808040820 METAR ESMX 040820Z 26009KT 210V290 9999 SCT023 21/15 Q1015=
201808040750 METAR ESMX 040750Z 26010KT 240V300 9999 SCT018 22/15 Q1015=
201808040720 METAR ESMX 040720Z AUTO 26010KT 9999 SCT012/// BKN021/// 21/16 Q1016=
201808040650 METAR ESMX 040650Z 24007KT 210V270 9999 SCT010 SCT028 20/17 Q1016=
201808040620 METAR COR ESMX 040620Z 28010KT 9999 BKN009 20/16 Q1016=
201808040550 METAR ESMX 040550Z AUTO 24007KT 200V260 9999 NCD 20/16 Q1016=
201808040520 METAR ESMX 040520Z AUTO 23005KT 9999 FEW098/// 18/16 Q1016=
201808040450 METAR ESMX 040450Z AUTO 22005KT 9999 -DZ FEW009/// SCT044/// BKN082/// 17/15 Q1016=
201808040420 METAR ESMX 040420Z AUTO 22006KT 9999 FEW035/// SCT048/// BKN068/// 17/14 Q1016 REDZ=
201808040350 METAR ESMX 040350Z AUTO 22006KT 9999 OVC068/// 17/14 Q1016=
201808040320 METAR ESMX 040320Z AUTO 21005KT 9999 OVC068/// 17/14 Q1016=
201808040250 METAR ESMX 040250Z AUTO 20004KT 9999 OVC066/// 17/14 Q1016=
201808040220 METAR ESMX 040220Z AUTO 22004KT 9999 SCT062/// BKN210/// 16/13 Q1017=
201808040150 METAR ESMX 040150Z AUTO 22004KT 9999 BKN210/// 15/13 Q1017=
201808040120 METAR ESMX 040120Z AUTO 18004KT 9999 FEW210/// 16/13 Q1017=
201808040050 METAR ESMX 040050Z AUTO 22004KT 9999 FEW210/// 16/13 Q1017=
201808040020 METAR ESMX 040020Z AUTO 22003KT 9999 NCD 16/12 Q1017=
201808032350 METAR ESMX 032350Z AUTO VRB03KT 9999 NCD 17/12 Q1017=
201808032320 METAR ESMX 032320Z AUTO 26003KT 9999 FEW210/// 17/12 Q1017=
201808032250 METAR ESMX 032250Z AUTO 25003KT 9999 FEW210/// 17/12 Q1018=
201808032220 METAR ESMX 032220Z AUTO 26004KT 9999 NCD 18/11 Q1018=
201808032150 METAR ESMX 032150Z AUTO 25004KT 9999 NCD 17/11 Q1018=
201808032120 METAR ESMX 032120Z AUTO 26004KT 9999 NCD 19/10 Q1018=
201808032050 METAR ESMX 032050Z AUTO 25004KT 9999 NCD 19/10 Q1018=
201808032020 METAR ESMX 032020Z AUTO 25003KT 9999 NCD 20/10 Q1018=
201808031950 METAR ESMX 031950Z AUTO 26004KT 9999 NCD 21/10 Q1018=
201808031920 METAR ESMX 031920Z AUTO 25005KT 9999 NCD 22/10 Q1018=
201808031850 METAR ESMX 031850Z AUTO 25005KT 9999 NCD 23/10 Q1018=
201808031820 METAR ESMX 031820Z AUTO 25006KT 9999 NCD 24/10 Q1018=
201808031750 METAR ESMX 031750Z AUTO 25007KT 220V280 9999 NCD 25/11 Q1018=
201808031720 METAR ESMX 031720Z 26008KT CAVOK 26/10 Q1018=
201808031650 METAR ESMX 031650Z 25008KT CAVOK 27/11 Q1018=
201808031620 METAR ESMX 031620Z 25007KT 220V280 CAVOK 27/11 Q1018=
201808031550 METAR ESMX 031550Z 27009KT 230V300 CAVOK 27/12 Q1019=
201808031520 METAR ESMX 031520Z 27007KT 140V320 CAVOK 28/12 Q1019=
201808031450 METAR ESMX 031450Z 26007KT 220V310 CAVOK 28/13 Q1019=
201808031420 METAR ESMX 031420Z 24008KT 200V300 CAVOK 27/13 Q1019=
201808031350 METAR ESMX 031350Z 25008KT 200V290 CAVOK 27/14 Q1020=
201808031320 METAR ESMX 031320Z 27008KT 230V290 CAVOK 27/14 Q1020=
201808031250 METAR ESMX 031250Z 25009KT 200V280 CAVOK 27/14 Q1020=
201808031220 METAR ESMX 031220Z 27009KT 220V310 9999 BKN048 26/14 Q1020=
201808031150 METAR ESMX 031150Z 26009KT 220V290 9999 BKN048 28/14 Q1020=
201808031120 METAR ESMX 031120Z 26007KT 220V300 CAVOK 27/14 Q1020=
201808031050 METAR ESMX 031050Z VRB06KT CAVOK 26/14 Q1021=
201808031020 METAR COR ESMX 031020Z 26006KT 150V330 CAVOK 27/14 Q1021=
201808030950 METAR ESMX 030950Z AUTO 24006KT 180V290 9999 NCD 25/13 Q1021=
201808030920 METAR ESMX 030920Z 23007KT 170V320 CAVOK 25/12 Q1021=
201808030850 METAR ESMX 030850Z 27009KT 240V300 CAVOK 24/12 Q1022=
201808030820 METAR ESMX 030820Z 26007KT 230V310 CAVOK 24/13 Q1022=
201808030750 METAR ESMX 030750Z 26009KT 210V290 CAVOK 23/13 Q1022=
201808030720 METAR ESMX 030720Z 26007KT 210V290 CAVOK 22/13 Q1022=
201808030650 METAR COR ESMX 030650Z 27008KT 230V310 CAVOK 21/13 Q1022=
201808030620 METAR ESMX 030620Z AUTO 27006KT 250V320 9999 NCD 20/12 Q1022=
201808030550 METAR ESMX 030550Z AUTO 29005KT 9999 NCD 19/11 Q1022=
201808030520 METAR ESMX 030520Z AUTO VRB02KT 9999 NCD 18/11 Q1022=
201808030450 METAR ESMX 030450Z AUTO VRB02KT 9999 NCD 17/12 Q1022=
201808030420 METAR ESMX 030420Z AUTO 28004KT 9999 NCD 13/11 Q1022=
201808030350 METAR ESMX 030350Z AUTO 28003KT 9999 NCD 13/10 Q1022=
201808030320 METAR ESMX 030320Z AUTO 28004KT 9999 NCD 12/09 Q1022=
201808030250 METAR ESMX 030250Z AUTO 29005KT 9999 NCD 12/09 Q1022=
201808030220 METAR ESMX 030220Z AUTO 30004KT 9999 NCD 13/10 Q1022=
201808030150 METAR ESMX 030150Z AUTO 29004KT 9999 NCD 12/10 Q1022=
201808030120 METAR ESMX 030120Z AUTO 28003KT 9999 NCD 14/11 Q1022=
201808030050 METAR ESMX 030050Z AUTO 27004KT 9999 NCD 12/10 Q1022=
201808030020 METAR ESMX 030020Z 29004KT CAVOK 12/10 Q1022=
201808022350 METAR ESMX 022350Z 29004KT CAVOK 13/09 Q1022=
201808022320 METAR ESMX 022320Z 29004KT CAVOK 14/11 Q1022=
201808022250 METAR ESMX 022250Z 28003KT CAVOK 15/11 Q1022=
201808022220 METAR ESMX 022220Z 27003KT CAVOK 17/11 Q1022=
201808022150 METAR ESMX 022150Z AUTO 28004KT 9999 FEW220/// 19/11 Q1022=
201808022120 METAR ESMX 022120Z AUTO 26004KT 9999 SCT220/// 20/11 Q1022=
201808022050 METAR ESMX 022050Z AUTO 26005KT 9999 NCD 20/10 Q1022=
201808022020 METAR ESMX 022020Z AUTO 25005KT 9999 NCD 21/11 Q1022=
201808021950 METAR ESMX 021950Z 25006KT CAVOK 21/11 Q1022=
201808021920 METAR COR ESMX 021920Z 26004KT CAVOK 23/11 Q1021=
201808021850 METAR COR ESMX 021850Z 26005KT CAVOK 24/11 Q1021=
201808021820 METAR COR ESMX 021820Z 27006KT CAVOK 25/11 Q1021=
201808021750 METAR ESMX 021750Z 26006KT CAVOK 25/10 Q1021=
201808021720 METAR ESMX 021720Z 27007KT 240V300 CAVOK 26/10 Q1021=
201808021650 METAR ESMX 021650Z 26008KT 220V300 CAVOK 27/09 Q1021=
201808021620 METAR ESMX 021620Z 28008KT 230V310 CAVOK 28/09 Q1021=
201808021550 METAR ESMX 021550Z 31008KT 280V350 CAVOK 28/10 Q1021=
201808021520 METAR ESMX 021520Z 29008KT 260V330 CAVOK 28/08 Q1021=
201808021450 METAR ESMX 021450Z 25008KT 180V290 CAVOK 28/09 Q1021=
201808021420 METAR ESMX 021420Z 29008KT 260V320 CAVOK 28/08 Q1021=
201808021350 METAR ESMX 021350Z 27008KT 230V300 CAVOK 28/09 Q1021=
201808021320 METAR ESMX 021320Z 28009KT 250V320 CAVOK 28/09 Q1021=
201808021250 METAR ESMX 021250Z 29007KT 250V340 CAVOK 28/08 Q1021=
201808021220 METAR ESMX 021220Z 30009KT 270V330 CAVOK 28/09 Q1021=
201808021150 METAR ESMX 021150Z 30008KT 260V350 CAVOK 28/09 Q1022=
201808021120 METAR ESMX 021120Z 32007KT 260V010 CAVOK 28/08 Q1022=
201808021050 METAR ESMX 021050Z 30007KT 210V350 CAVOK 27/08 Q1022=
201808021020 METAR ESMX 021020Z 29008KT 230V350 CAVOK 26/08 Q1022=
201808020950 METAR ESMX 020950Z 29008KT 260V330 CAVOK 27/09 Q1022=
201808020920 METAR ESMX 020920Z 28008KT 230V330 CAVOK 26/10 Q1022=
201808020850 METAR ESMX 020850Z 30007KT 250V020 CAVOK 26/10 Q1022=
201808020820 METAR ESMX 020820Z 35008KT 320V020 CAVOK 25/11 Q1022=
201808020750 METAR ESMX 020750Z 33007KT 290V360 CAVOK 24/11 Q1022=
201808020720 METAR ESMX 020720Z AUTO 33008KT 290V350 9999 FEW024/// 23/11 Q1022=
201808020650 METAR ESMX 020650Z 30007KT 260V330 9999 FEW022 22/12 Q1022=
201808020620 METAR ESMX 020620Z 31008KT 9999 FEW020 21/13 Q1022=
201808020550 METAR ESMX 020550Z 31007KT CAVOK 20/14 Q1022=
201808020520 METAR ESMX 020520Z 31004KT 250V330 CAVOK 19/15 Q1022=
201808020450 METAR ESMX 020450Z 31004KT CAVOK 19/16 Q1022=
201808020420 METAR COR ESMX 020420Z 29004KT CAVOK 18/18 Q1021=
201808020350 METAR ESMX 020350Z AUTO 28003KT 9000 BR NCD 18/17 Q1021=
201808020320 METAR ESMX 020320Z AUTO 26003KT 8000 BR NCD 17/17 Q1021=
201808020250 METAR ESMX 020250Z AUTO 25002KT 9000 BR FEW100/// 18/17 Q1020=
201808020220 METAR ESMX 020220Z AUTO 29002KT 8000 BR SCT100/// 19/18 Q1020=
201808020150 METAR ESMX 020150Z AUTO VRB03KT 9000 BR FEW002/// 19/18 Q1020=
201808020120 METAR ESMX 020120Z AUTO 26003KT 3000 BR FEW100/// 19/19 Q1020=
201808020050 METAR ESMX 020050Z AUTO 25003KT 7000 BR NCD 19/19 Q1020=
201808020020 METAR ESMX 020020Z AUTO 24002KT 9999 NCD 19/18 Q1020=
201808012350 METAR ESMX 012350Z 26002KT CAVOK 20/19 Q1020=
201808012320 METAR ESMX 012320Z VRB02KT CAVOK 21/19 Q1020=
201808012250 METAR ESMX 012250Z VRB03KT CAVOK 20/18 Q1021=
201808012220 METAR ESMX 012220Z AUTO 24003KT 9999 NCD 19/17 Q1020=
201808012150 METAR ESMX 012150Z AUTO 00000KT 9999 NCD 21/18 Q1021=
201808012120 METAR ESMX 012120Z AUTO VRB03KT 9999 FEW120/// 22/18 Q1021=
201808012050 METAR ESMX 012050Z AUTO 35002KT 9999 BKN120/// 22/18 Q1021=
201808012020 METAR ESMX 012020Z AUTO 29004KT 9999 FEW110/// 23/18 Q1021=
201808011950 METAR ESMX 011950Z AUTO 29004KT 9999 NCD 23/18 Q1021=
201808011920 METAR ESMX 011920Z AUTO 30003KT 9999 NCD 24/18 Q1021=
201808011850 METAR ESMX 011850Z AUTO 33005KT 300V020 9999 BKN074/// 26/18 Q1021=
201808011820 METAR ESMX 011820Z AUTO 31004KT 9999 FEW074/// 27/17 Q1020=
201808011750 METAR ESMX 011750Z AUTO 30006KT 9999 FEW130/// 27/16 Q1020=
201808011720 METAR ESMX 011720Z AUTO 30006KT 9999 NCD 29/15 Q1020=
201808011650 METAR ESMX 011650Z 32005KT 290V350 CAVOK 30/13 Q1019=
201808011620 METAR ESMX 011620Z 31006KT 270V340 CAVOK 30/13 Q1020=
201808011550 METAR ESMX 011550Z 32005KT CAVOK 29/14 Q1020=
201808011520 METAR COR ESMX 011520Z 33005KT CAVOK 28/13 Q1020=
201808011450 METAR ESMX 011450Z 01006KT CAVOK 29/13 Q1020=
201808011420 METAR COR ESMX 011420Z 36006KT CAVOK 29/14 Q1020=
201808011350 METAR ESMX 011350Z 36006KT CAVOK 29/14 Q1020=
201808011320 METAR ESMX 011320Z 34008KT CAVOK 29/14 Q1020=
201808011250 METAR ESMX 011250Z 32006KT 280V010 CAVOK 30/14 Q1021=
201808011220 METAR ESMX 011220Z 31005KT 260V350 CAVOK 29/12 Q1021=
