##########################################################
# Query made at 04/19/2024 22:06:17 UTC
# Time interval: from 12/01/2018 12:00  to 12/31/2018 12:59  UTC
##########################################################

##########################################################
# ESMX, Vaxjo (Sweden)
# WMO index: 02641. WIGOS ID: 0-20000-0-02648
# Latitude 56-51N. Longitude 014-50E. Altitude 199 m.
##########################################################

201812311250 METAR ESMX 311250Z 17010KT 2800 BR OVC002 00/00 Q1022=
201812311220 METAR ESMX 311220Z 18009KT 3900 BR OVC002 00/00 Q1023=
201812311150 METAR ESMX 311150Z 17009KT 9999 OVC005 M00/M00 Q1024=
201812311120 METAR ESMX 311120Z AUTO 17008KT 9999 BKN005/// OVC028/// M00/M00 Q1024=
201812311050 METAR ESMX 311050Z AUTO 16007KT 9999 BKN005/// OVC028/// M00/M00 Q1025=
201812311020 METAR ESMX 311020Z AUTO 18008KT 9999 BKN005/// OVC047/// M00/M00 Q1025=
201812310950 METAR ESMX 310950Z AUTO 16006KT 9999 OVC003/// M01/M01 Q1025=
201812310920 METAR ESMX 310920Z AUTO 18007KT 8000 OVC002/// M01/M01 Q1026=
201812310850 METAR COR ESMX 310850Z 17005KT 6000 BR OVC002 M01/M01 Q1026=
201812310820 METAR ESMX 310820Z AUTO 16006KT 0600 R01/1100N R19/1100D FZFG OVC001/// M01/M01 Q1026=
201812310750 METAR ESMX 310750Z 19004KT 0350 R01/0700N R19/0900N FZFG VV002 M01/M01 Q1026=
201812310720 METAR ESMX 310720Z 19003KT 150V210 0350 R01/0900N R19/0700N FZFG VV002 M01/M01 Q1026=
201812310650 METAR ESMX 310650Z VRB02KT 0400 R01/0650N R19/0650N FZFG VV002 M01/M01 Q1026=
201812310620 METAR COR ESMX 310620Z VRB02KT 0400 R01/0900N R19/0650N FZFG VV002 M01/M01 Q1026=
201812310550 METAR ESMX 310550Z 27002KT 0450 R01/1000N R19/0800N FZFG VV002 M01/M01 Q1026=
201812310520 METAR ESMX 310520Z 27002KT 0500 R01/0900N R19/1200D FZFG VV002 M01/M01 Q1026=
201812310450 METAR ESMX 310450Z VRB02KT 0600 R01/0900D R19/1500D FZFG VV002 M01/M01 Q1026=
201812310420 METAR COR ESMX 310420Z 27003KT 240V300 0600 R01/0900U R19/1700D FZFG VV002 M01/M01 Q1026=
201812310350 METAR ESMX 310350Z 29003KT 0900 R01/1500N R19/P2000N FZFG VV002 M01/M01 Q1026=
201812310320 METAR ESMX 310320Z 29003KT 7000 BR OVC002 M01/M01 Q1026=
201812310250 METAR ESMX 310250Z VRB03KT 9999 BKN003 M01/M01 Q1026=
201812310220 METAR COR ESMX 310220Z 32003KT 9999 BKN003 M01/M01 Q1026=
201812310150 METAR ESMX 310150Z AUTO 30003KT 9999 OVC170/// M01/M01 Q1026=
201812310120 METAR ESMX 310120Z AUTO 31003KT 9999 BKN170/// M01/M01 Q1026=
201812310050 METAR ESMX 310050Z AUTO 31003KT 9999 FEW007/// M00/M00 Q1026=
201812310020 METAR ESMX 310020Z AUTO 34004KT 9999 OVC006/// 00/00 Q1025=
201812302350 METAR ESMX 302350Z AUTO 33005KT 9999 OVC006/// 00/00 Q1025=
201812302320 METAR ESMX 302320Z AUTO 34005KT 310V010 9999 OVC006/// 00/00 Q1025=
201812302250 METAR ESMX 302250Z AUTO 35006KT 9999 OVC006/// 00/00 Q1024=
201812302220 METAR ESMX 302220Z AUTO 33007KT 9999 OVC006/// 00/00 Q1024=
201812302150 METAR ESMX 302150Z 34007KT 9999 OVC005 00/00 Q1024=
201812302120 METAR ESMX 302120Z 35007KT 9999 OVC004 00/00 Q1024=
201812302050 METAR ESMX 302050Z 35008KT 9999 OVC004 00/00 Q1024=
201812302020 METAR ESMX 302020Z 35008KT 9999 OVC004 00/00 Q1024=
201812301950 METAR ESMX 301950Z 31005KT 9999 BKN005 M00/M00 Q1023=
201812301920 METAR ESMX 301920Z AUTO 30005KT 9999 NCD M01/M01 Q1023=
201812301850 METAR ESMX 301850Z AUTO VRB02KT 9999 NCD 00/00 Q1023=
201812301820 METAR COR ESMX 301820Z 28005KT CAVOK 00/00 Q1023=
201812301750 METAR ESMX 301750Z 30006KT CAVOK M00/M00 Q1022=
201812301720 METAR ESMX 301720Z 31003KT CAVOK M00/M00 Q1022=
201812301650 METAR ESMX 301650Z 33005KT CAVOK 00/00 Q1022=
201812301620 METAR COR ESMX 301620Z 29004KT 260V330 CAVOK 01/01 Q1021=
201812301550 METAR ESMX 301550Z 26005KT CAVOK 00/00 Q1021=
201812301520 METAR ESMX 301520Z 26005KT CAVOK M00/M00 Q1021=
201812301450 METAR ESMX 301450Z AUTO 28004KT 9999 NCD 00/00 Q1020=
201812301420 METAR ESMX 301420Z 27003KT CAVOK 02/02 Q1020=
201812301350 METAR ESMX 301350Z 31004KT CAVOK 02/02 Q1020=
201812301320 METAR ESMX 301320Z 31004KT CAVOK 03/02 Q1019=
201812301250 METAR ESMX 301250Z 31006KT CAVOK 03/03 Q1019=
201812301220 METAR ESMX 301220Z 35005KT 310V010 CAVOK 03/02 Q1019=
201812301150 METAR COR ESMX 301150Z 34006KT CAVOK 03/03 Q1018=
201812301120 METAR ESMX 301120Z 34007KT CAVOK 03/03 Q1018=
201812301050 METAR COR ESMX 301050Z 33007KT 9999 FEW007 02/02 Q1018=
201812301020 METAR ESMX 301020Z 35008KT 9999 BKN007 03/03 Q1017=
201812300950 METAR ESMX 300950Z 36006KT 9999 BKN007 03/03 Q1017=
201812300920 METAR ESMX 300920Z AUTO 34008KT 9999 BKN007/// BKN047/// OVC061/// 03/03 Q1017=
201812300850 METAR ESMX 300850Z AUTO 35009KT 9999 BKN008/// OVC068/// 02/02 Q1016=
201812300820 METAR ESMX 300820Z AUTO 34009KT 9999 -DZ OVC007/// 02/02 Q1016=
201812300750 METAR ESMX 300750Z AUTO 35009KT 9999 DZ OVC007/// 02/02 Q1015=
201812300720 METAR ESMX 300720Z AUTO 35009KT 9999 DZ SCT006/// BKN010/// OVC015/// 03/03 Q1015=
201812300650 METAR ESMX 300650Z AUTO 35009KT 9999 -RA SCT006/// BKN013/// OVC030/// 03/03 Q1014=
201812300620 METAR ESMX 300620Z AUTO 35006KT 9999 -RA FEW005/// BKN009/// OVC012/// 03/03 Q1014=
201812300550 METAR ESMX 300550Z AUTO 34007KT 9999 -RA SCT005/// BKN013/// OVC030/// 03/03 Q1013=
201812300520 METAR ESMX 300520Z AUTO 36006KT 9999 -RA SCT006/// BKN008/// OVC014/// 03/03 Q1013 REUP=
201812300450 METAR ESMX 300450Z AUTO 33005KT 9999 FEW005/// SCT009/// OVC013/// 04/04 Q1013=
201812300420 METAR ESMX 300420Z AUTO 33004KT 9999 FEW004/// BKN007/// BKN011/// 04/04 Q1013=
201812300350 METAR ESMX 300350Z AUTO 33004KT 9999 FEW007/// OVC015/// 03/03 Q1012=
201812300320 METAR ESMX 300320Z AUTO 36004KT 9999 SCT002/// OVC006/// 04/04 Q1012=
201812300250 METAR ESMX 300250Z AUTO 36004KT 9999 -DZ SCT002/// BKN008/// BKN012/// 04/04 Q1012=
201812300220 METAR ESMX 300220Z AUTO 34005KT 9999 -RA SCT002/// BKN010/// OVC013/// 04/04 Q1012=
201812300150 METAR ESMX 300150Z AUTO 34004KT 6000 -RA OVC001/// 04/04 Q1012 REUP=
201812300120 METAR ESMX 300120Z AUTO 35004KT 0600 R01/1500U R19/P2000N FG BKN001/// OVC012/// 04/04 Q1011=
201812300050 METAR ESMX 300050Z AUTO 36004KT 0500 R01/1600D R19/1300U FG OVC001/// 03/03 Q1011=
201812300020 METAR ESMX 300020Z AUTO 02003KT 0600 R01/P2000N R19/P2000N BKN001/// OVC013/// 04/04 Q1011=
201812292350 METAR ESMX 292350Z AUTO 05002KT 0350 R01/0900U R19/1800N FG OVC001/// 04/04 Q1011=
201812292320 METAR ESMX 292320Z AUTO 06003KT 0400 R01/1500N R19/1200N FG OVC001/// 04/04 Q1011 RERA=
201812292250 METAR ESMX 292250Z AUTO 00000KT 5000 BR OVC001/// 04/04 Q1011=
201812292220 METAR ESMX 292220Z AUTO VRB02KT 6000 DZ BKN001/// OVC022/// 04/04 Q1011=
201812292150 METAR ESMX 292150Z AUTO VRB01KT 9000 -RA BKN001/// OVC023/// 04/04 Q1012=
201812292120 METAR ESMX 292120Z AUTO 13003KT 8000 -DZ OVC002/// 04/04 Q1012=
201812292050 METAR ESMX 292050Z AUTO 15004KT 5000 DZ OVC001/// 04/04 Q1012=
201812292020 METAR ESMX 292020Z AUTO 14003KT 5000 -DZ OVC002/// 04/04 Q1012=
201812291950 METAR ESMX 291950Z AUTO 14004KT 6000 -RA BKN003/// OVC005/// 04/04 Q1012=
201812291920 METAR ESMX 291920Z AUTO 15003KT 8000 DZ BKN002/// OVC013/// 05/05 Q1012=
201812291850 METAR ESMX 291850Z AUTO VRB03KT 2100 -RA OVC001/// 05/05 Q1012=
201812291820 METAR ESMX 291820Z AUTO 18004KT 4600 BR OVC002/// 05/05 Q1013 REUP=
201812291750 METAR ESMX 291750Z AUTO 22005KT 9000 BR OVC003/// 05/05 Q1013=
201812291720 METAR ESMX 291720Z AUTO 20006KT 9999 OVC003/// 05/05 Q1013=
201812291650 METAR ESMX 291650Z AUTO 21006KT 9999 OVC002/// 05/05 Q1013=
201812291620 METAR ESMX 291620Z AUTO 22005KT 4500 BR OVC002/// 05/05 Q1014=
201812291550 METAR ESMX 291550Z AUTO 23004KT 200V260 2700 BR FEW002/// SCT004/// OVC008/// 05/05 Q1014=
201812291520 METAR ESMX 291520Z AUTO 23005KT 9999 SCT004/// BKN006/// OVC007/// 05/05 Q1014=
201812291450 METAR ESMX 291450Z AUTO 21004KT 9999 FEW005/// BKN110/// 05/05 Q1014=
201812291420 METAR ESMX 291420Z AUTO 24004KT 9999 BR FEW002/// BKN006/// OVC014/// 05/05 Q1015=
201812291350 METAR ESMX 291350Z AUTO 24006KT 220V280 2300 BKN002/// BKN005/// OVC007/// 05/05 Q1015=
201812291320 METAR ESMX 291320Z AUTO 26006KT 220V290 6000 BR FEW002/// SCT005/// BKN007/// 05/05 Q1015 RESHUP REUP=
201812291250 METAR ESMX 291250Z AUTO 25008KT 210V280 3000 BR FEW002/// OVC005/// 05/05 Q1015=
201812291220 METAR ESMX 291220Z AUTO 26006KT 230V300 9999 OVC006/// 06/06 Q1015=
201812291150 METAR ESMX 291150Z AUTO 25006KT 9000 OVC005/// 06/06 Q1016=
201812291120 METAR ESMX 291120Z AUTO 26007KT 8000 BR FEW005/// OVC007/// 06/06 Q1016=
201812291050 METAR ESMX 291050Z AUTO 27006KT 9999 OVC008/// 06/06 Q1016=
201812291020 METAR ESMX 291020Z AUTO 27008KT 9999 OVC005/// 06/05 Q1017=
201812290950 METAR ESMX 290950Z AUTO 26005KT 9999 FEW007/// BKN010/// OVC012/// 06/06 Q1017=
201812290920 METAR ESMX 290920Z AUTO 25005KT 9999 OVC012/// 05/05 Q1017=
201812290850 METAR ESMX 290850Z AUTO 25005KT 9999 FEW005/// OVC015/// 05/05 Q1017=
201812290820 METAR ESMX 290820Z AUTO 23004KT 9999 BKN006/// BKN007/// OVC016/// 05/05 Q1017=
201812290750 METAR ESMX 290750Z AUTO 20003KT 9999 BKN006/// BKN011/// OVC018/// 05/05 Q1017=
201812290720 METAR ESMX 290720Z AUTO 24003KT 9999 FEW007/// OVC016/// 05/05 Q1017=
201812290650 METAR ESMX 290650Z AUTO 25005KT 8000 BR SCT006/// OVC019/// 05/05 Q1018=
201812290620 METAR ESMX 290620Z AUTO 25005KT 9999 BKN005/// BKN008/// OVC020/// 05/05 Q1018=
201812290550 METAR ESMX 290550Z AUTO 23005KT 9999 BKN002/// OVC004/// 05/05 Q1018=
201812290520 METAR ESMX 290520Z AUTO 25005KT 9999 OVC003/// 04/04 Q1018=
201812290450 METAR ESMX 290450Z AUTO 24004KT 9999 OVC004/// 04/04 Q1018=
201812290420 METAR ESMX 290420Z AUTO 25005KT 230V300 9999 OVC005/// 04/04 Q1018=
201812290350 METAR ESMX 290350Z AUTO 25004KT 9999 BKN006/// OVC009/// 04/04 Q1018=
201812290320 METAR ESMX 290320Z AUTO 25005KT 9999 BKN006/// OVC009/// 04/04 Q1018=
201812290250 METAR ESMX 290250Z AUTO 25006KT 9999 BKN005/// BKN007/// OVC010/// 04/04 Q1018=
201812290220 METAR ESMX 290220Z AUTO 24006KT 9999 BKN002/// OVC004/// 03/03 Q1019=
201812290150 METAR ESMX 290150Z AUTO 21005KT 9999 BKN002/// OVC003/// 03/03 Q1019=
201812290120 METAR ESMX 290120Z AUTO 21005KT 9999 SCT005/// BKN007/// OVC010/// 03/03 Q1019=
201812290050 METAR ESMX 290050Z AUTO 18004KT 9999 FEW001/// OVC016/// 02/02 Q1019=
201812290020 METAR ESMX 290020Z AUTO 18004KT 7000 BR OVC001/// 02/02 Q1020=
201812282350 METAR ESMX 282350Z AUTO 16003KT 5000 BR OVC001/// 02/02 Q1020=
201812282320 METAR ESMX 282320Z AUTO 20002KT 2500 BR OVC002/// 02/02 Q1020=
201812282250 METAR ESMX 282250Z AUTO 26006KT 3600 BR OVC001/// 02/02 Q1020=
201812282220 METAR ESMX 282220Z AUTO 24007KT 2300 BR OVC001/// 02/02 Q1020=
201812282150 METAR ESMX 282150Z 26006KT 240V300 1400 R01/P2000N R19/P2000N BR OVC002 02/02 Q1020=
201812282120 METAR ESMX 282120Z 27005KT 240V310 2000 BR OVC002 02/02 Q1020=
201812282050 METAR ESMX 282050Z 26006KT 220V280 6000 BR OVC002 01/01 Q1021=
201812282020 METAR ESMX 282020Z 26005KT 4300 BR OVC002 01/01 Q1021=
201812281950 METAR ESMX 281950Z 25006KT 210V280 4300 BR OVC002 01/01 Q1020=
201812281920 METAR COR ESMX 281920Z 25003KT 190V280 1200 R01/P2000N R19/P2000N BR OVC002 01/01 Q1020=
201812281850 METAR ESMX 281850Z 28005KT 230V310 2000 R01/P2000N R19/P2000N BR OVC002 01/01 Q1020=
201812281820 METAR ESMX 281820Z 24004KT 1800 BR OVC002 01/01 Q1020=
201812281750 METAR ESMX 281750Z 25005KT 210V280 1200 R01/P2000N R19/P2000N BR OVC002 02/02 Q1020=
201812281720 METAR ESMX 281720Z 27005KT 1500 R01/P2000N R19/P2000N BR OVC002 01/01 Q1020=
201812281650 METAR ESMX 281650Z 26004KT 0800 R01/1900D R19/P2000N FG OVC002 02/02 Q1020=
201812281620 METAR ESMX 281620Z 26006KT 0650 R01/1600U R19/P2000N FG OVC002 02/02 Q1020=
201812281550 METAR ESMX 281550Z 26005KT 1500 R01/P2000N R19/P2000N BR OVC002 02/02 Q1019=
201812281520 METAR ESMX 281520Z 25006KT 1200 R01/P2000N R19/P2000N BR OVC002 02/02 Q1019=
201812281450 METAR ESMX 281450Z 30004KT 250V350 3700 BR OVC002 02/02 Q1019=
201812281420 METAR COR ESMX 281420Z 28005KT 3500 BR OVC002 02/02 Q1019=
201812281350 METAR ESMX 281350Z 28006KT 9999 OVC002 03/03 Q1019=
201812281320 METAR ESMX 281320Z 29004KT 240V320 8000 OVC002 03/03 Q1019=
201812281250 METAR ESMX 281250Z 29006KT 9999 OVC002 03/03 Q1019=
201812281220 METAR ESMX 281220Z 31005KT 9000 OVC002 03/03 Q1018=
201812281150 METAR ESMX 281150Z 28006KT 8000 BR OVC002 03/03 Q1018=
201812281120 METAR ESMX 281120Z 32005KT 290V350 9999 BKN002 03/03 Q1018=
201812281050 METAR ESMX 281050Z 30007KT 9999 BKN003 03/03 Q1018=
201812281020 METAR COR ESMX 281020Z 29006KT 9999 BKN004 03/03 Q1018=
201812280950 METAR COR ESMX 280950Z 26006KT 240V300 9999 BKN004 03/03 Q1018=
201812280920 METAR ESMX 280920Z 28007KT 240V310 9999 BKN004 03/03 Q1018=
201812280850 METAR ESMX 280850Z 30004KT 260V330 9999 BKN004 03/03 Q1017=
201812280820 METAR ESMX 280820Z 28008KT 9999 BKN004 03/03 Q1017=
201812280750 METAR ESMX 280750Z AUTO 28006KT 250V320 9999 OVC004/// 03/03 Q1017=
201812280720 METAR ESMX 280720Z 29007KT 9999 BKN005 04/04 Q1017=
201812280650 METAR ESMX 280650Z 30006KT 9999 BKN006 04/04 Q1016=
201812280620 METAR ESMX 280620Z 31006KT 9999 BKN006 04/04 Q1016=
201812280550 METAR ESMX 280550Z 29006KT 9999 BKN006 04/04 Q1016=
201812280520 METAR ESMX 280520Z AUTO 29006KT 260V340 9999 OVC006/// 04/04 Q1015=
201812280450 METAR ESMX 280450Z AUTO 30007KT 9999 OVC006/// 04/04 Q1015=
201812280420 METAR ESMX 280420Z AUTO 29005KT 9999 OVC007/// 04/04 Q1015=
201812280350 METAR ESMX 280350Z AUTO 30004KT 260V340 9999 OVC007/// 05/04 Q1014=
201812280320 METAR ESMX 280320Z AUTO 28006KT 9999 OVC008/// 05/04 Q1014=
201812280250 METAR ESMX 280250Z AUTO 27006KT 240V310 9999 OVC008/// 05/04 Q1014=
201812280220 METAR ESMX 280220Z AUTO 28005KT 9999 BKN009/// 05/04 Q1014=
201812280150 METAR ESMX 280150Z AUTO 30005KT 260V330 9999 OVC009/// 05/04 Q1014=
201812280120 METAR ESMX 280120Z AUTO 29005KT 250V320 9999 OVC009/// 05/05 Q1014=
201812280050 METAR ESMX 280050Z AUTO 30005KT 260V340 9999 OVC006/// 05/04 Q1014=
201812280020 METAR ESMX 280020Z AUTO 30007KT 270V340 9999 OVC006/// 04/04 Q1014=
201812272350 METAR ESMX 272350Z AUTO 30009KT 270V340 9999 OVC007/// 04/04 Q1014=
201812272320 METAR ESMX 272320Z AUTO 30008KT 9999 OVC007/// 04/04 Q1013=
201812272250 METAR ESMX 272250Z AUTO 30011KT 9999 OVC008/// 04/04 Q1013=
201812272220 METAR ESMX 272220Z AUTO 29008KT 9999 BKN009/// OVC012/// 05/04 Q1013=
201812272150 METAR ESMX 272150Z AUTO 30009KT 9999 OVC013/// 05/04 Q1013=
201812272120 METAR ESMX 272120Z AUTO 30011KT 9999 OVC012/// 05/04 Q1013=
201812272050 METAR ESMX 272050Z AUTO 30009KT 270V340 9999 OVC012/// 05/04 Q1013=
201812272020 METAR ESMX 272020Z AUTO 30009KT 270V330 9999 OVC011/// 06/04 Q1013=
201812271950 METAR ESMX 271950Z AUTO 30011KT 9999 OVC010/// 06/05 Q1012=
201812271920 METAR ESMX 271920Z AUTO 29011KT 9999 OVC010/// 06/05 Q1012=
201812271850 METAR ESMX 271850Z AUTO 28010KT 9999 OVC011/// 06/05 Q1011=
201812271820 METAR ESMX 271820Z AUTO 28010KT 240V310 9999 BKN012/// OVC015/// 06/05 Q1011=
201812271750 METAR ESMX 271750Z 27011KT 9999 BKN012 06/05 Q1011=
201812271720 METAR ESMX 271720Z 26011KT 9999 SCT012 BKN018 06/05 Q1011=
201812271650 METAR ESMX 271650Z 27010KT 230V300 9999 BKN013 06/05 Q1011=
201812271620 METAR ESMX 271620Z 27010KT 250V310 9999 BKN012 06/06 Q1011=
201812271550 METAR ESMX 271550Z 27009KT 9999 BKN013 06/06 Q1011=
201812271520 METAR ESMX 271520Z AUTO 26009KT 9999 BKN012/// OVC019/// 06/06 Q1011=
201812271450 METAR ESMX 271450Z 27009KT 9999 BKN011 06/06 Q1012=
201812271420 METAR ESMX 271420Z 26009KT 9999 FEW009 BKN011 06/06 Q1012=
201812271350 METAR ESMX 271350Z 26009KT 9999 FEW006 BKN012 07/06 Q1012=
201812271320 METAR ESMX 271320Z AUTO 25010KT 220V280 9999 OVC005/// 07/07 Q1012=
201812271250 METAR ESMX 271250Z 26010KT 230V290 5000 BR OVC003 07/07 Q1012=
201812271220 METAR ESMX 271220Z 26009KT 5000 BR OVC003 07/07 Q1012=
201812271150 METAR ESMX 271150Z 26010KT 6000 BR OVC003 07/07 Q1012=
201812271120 METAR ESMX 271120Z 26010KT 4800 BR OVC002 07/07 Q1012=
201812271050 METAR ESMX 271050Z 25009KT 1700 BR OVC002 07/07 Q1012=
201812271020 METAR ESMX 271020Z 25008KT 210V280 2100 BR OVC002 07/07 Q1013=
201812270950 METAR ESMX 270950Z 27009KT 3100 BR OVC002 07/07 Q1013=
201812270920 METAR ESMX 270920Z 25009KT 210V280 4100 BR OVC002 07/07 Q1013=
201812270850 METAR ESMX 270850Z 27009KT 2900 BR OVC002 07/07 Q1013=
201812270820 METAR ESMX 270820Z 26007KT 1800 BR OVC001 06/06 Q1013=
201812270750 METAR ESMX 270750Z 25007KT 2400 BR OVC002 06/06 Q1014=
201812270720 METAR ESMX 270720Z 25006KT 210V280 5000 BR OVC002 06/06 Q1014=
201812270650 METAR ESMX 270650Z 26005KT 230V300 2400 BR OVC001 06/06 Q1014=
201812270620 METAR ESMX 270620Z 26006KT 3100 BR OVC001 06/06 Q1014=
201812270550 METAR ESMX 270550Z 26007KT 2000 BR OVC001 06/06 Q1014=
201812270520 METAR ESMX 270520Z 27007KT 250V320 1800 BR OVC001 06/06 Q1014=
201812270450 METAR ESMX 270450Z 27009KT 2000 BR OVC001 06/06 Q1014=
201812270420 METAR ESMX 270420Z AUTO 26008KT 2000 BR OVC001/// 06/06 Q1014=
201812270350 METAR ESMX 270350Z AUTO 27010KT 2300 BR OVC001/// 06/06 Q1015=
201812270320 METAR ESMX 270320Z AUTO 26010KT 2700 BR OVC001/// 06/06 Q1015=
201812270250 METAR ESMX 270250Z AUTO 26007KT 1800 BR OVC001/// 06/06 Q1015=
201812270220 METAR ESMX 270220Z AUTO 26005KT 1900 BR OVC001/// 06/06 Q1015=
201812270150 METAR ESMX 270150Z AUTO 27005KT 3600 BR OVC002/// 06/06 Q1015=
201812270120 METAR ESMX 270120Z AUTO 27005KT 230V310 2700 BR OVC001/// 06/06 Q1015=
201812270050 METAR ESMX 270050Z AUTO 27007KT 240V300 2200 BR OVC001/// 06/06 Q1015=
201812270020 METAR ESMX 270020Z AUTO 26008KT 2200 OVC001/// 06/06 Q1015=
201812262350 METAR ESMX 262350Z AUTO 25008KT 1500 OVC001/// 06/06 Q1015=
201812262320 METAR ESMX 262320Z AUTO 25008KT 0700 R01/1700N R19/1900N FG OVC001/// 06/06 Q1016=
201812262250 METAR ESMX 262250Z AUTO 24008KT 0600 R01/1500N R19/1700N FG OVC001/// 05/05 Q1016=
201812262220 METAR ESMX 262220Z AUTO 23007KT 0550 R01/1400N R19/1700U -DZ OVC001/// 05/05 Q1016 RESHUP=
201812262150 METAR ESMX 262150Z AUTO 22006KT 0350 R01/1000N R19/1100N FG OVC001/// 04/04 Q1016=
201812262120 METAR ESMX 262120Z AUTO 24008KT 0500 R01/1300D R19/1500D FG OVC001/// 04/04 Q1016=
201812262050 METAR ESMX 262050Z AUTO 24008KT 0650 R01/1600D R19/1800N -DZ OVC001/// 04/04 Q1017 REUP=
201812262020 METAR ESMX 262020Z AUTO 24007KT 0500 R01/1300U R19/1400U FG OVC001/// 04/04 Q1017=
201812261950 METAR ESMX 261950Z 22006KT 0550 R01/1400D R19/1500D FG OVC001 03/03 Q1017=
201812261920 METAR ESMX 261920Z 21006KT 2200 FG OVC001 02/02 Q1018=
201812261850 METAR ESMX 261850Z 22005KT 1300 R01/P2000N R19/P2000N FG OVC001 01/01 Q1018=
201812261820 METAR ESMX 261820Z 24004KT 200V270 0350 R01/1000U R19/1400U FG OVC001 01/01 Q1018=
201812261750 METAR ESMX 261750Z 21004KT 0400 R01/1100D R19/1300D FG OVC001 01/01 Q1018=
201812261720 METAR COR ESMX 261720Z 25006KT 1100 R01/P2000N R19/P2000N FG OVC001 00/00 Q1019=
201812261650 METAR ESMX 261650Z 26006KT 7000 BR OVC002 00/00 Q1019=
201812261620 METAR ESMX 261620Z 25006KT 1000 R01/1800N R19/P2000N FZFG OVC001 M00/M00 Q1019=
201812261550 METAR ESMX 261550Z 24006KT 3700 BR BKN002 00/00 Q1019=
201812261520 METAR ESMX 261520Z 23004KT CAVOK M00/M00 Q1019=
201812261450 METAR ESMX 261450Z 21003KT CAVOK 00/00 Q1019=
201812261420 METAR ESMX 261420Z 23004KT CAVOK 01/01 Q1019=
201812261350 METAR ESMX 261350Z 25005KT CAVOK 02/01 Q1019=
201812261320 METAR ESMX 261320Z 25005KT CAVOK 03/01 Q1019=
201812261250 METAR ESMX 261250Z 27007KT CAVOK 03/02 Q1019=
201812261220 METAR ESMX 261220Z 27004KT 230V300 CAVOK 03/01 Q1019=
201812261150 METAR ESMX 261150Z 26004KT CAVOK 03/01 Q1019=
201812261120 METAR ESMX 261120Z 27005KT CAVOK 03/01 Q1019=
201812261050 METAR ESMX 261050Z 27006KT CAVOK 02/01 Q1019=
201812261020 METAR ESMX 261020Z 27004KT CAVOK 02/01 Q1019=
201812260950 METAR ESMX 260950Z 27003KT 210V330 CAVOK 01/01 Q1019=
201812260920 METAR COR ESMX 260920Z 26004KT 230V300 CAVOK 01/01 Q1019=
201812260850 METAR ESMX 260850Z 27004KT 9999 SCT002 00/00 Q1019=
201812260820 METAR ESMX 260820Z 26002KT 1100 R01/1200N R19/P2000N BR SCT002 M01/M01 Q1018=
201812260750 METAR ESMX 260750Z AUTO VRB03KT 1000 R01/P2000D R19/P2000N BR OVC001/// M00/M00 Q1018=
201812260720 METAR ESMX 260720Z VRB02KT 9999 BKN002 00/00 Q1018=
201812260650 METAR ESMX 260650Z 23004KT 190V270 9999 BKN002 01/01 Q1018=
201812260620 METAR ESMX 260620Z 28005KT 9999 BKN002 01/01 Q1017=
201812260550 METAR ESMX 260550Z AUTO 27009KT 9999 OVC002/// 01/01 Q1017=
201812260520 METAR ESMX 260520Z AUTO 29006KT 9999 OVC003/// 01/01 Q1017=
201812260450 METAR ESMX 260450Z AUTO 29007KT 9999 OVC002/// 01/01 Q1017=
201812260420 METAR ESMX 260420Z AUTO 27007KT 9999 OVC002/// 01/01 Q1016=
201812260350 METAR ESMX 260350Z AUTO 27007KT 9999 OVC002/// 01/01 Q1016=
201812260320 METAR ESMX 260320Z AUTO 27007KT 9999 BKN002/// OVC003/// 01/01 Q1016=
201812260250 METAR ESMX 260250Z AUTO 27005KT 9999 BKN004/// 01/01 Q1016=
201812260220 METAR ESMX 260220Z AUTO 28005KT 9999 SCT005/// 02/02 Q1016=
201812260150 METAR ESMX 260150Z AUTO 27005KT 9999 OVC005/// 02/02 Q1016=
201812260120 METAR ESMX 260120Z AUTO 27006KT 240V300 9999 OVC005/// 02/02 Q1016=
201812260050 METAR ESMX 260050Z AUTO 29005KT 250V320 9999 BKN004/// OVC006/// 03/03 Q1015=
201812260020 METAR ESMX 260020Z AUTO 27003KT 200V330 9999 FEW006/// 03/02 Q1015=
201812252350 METAR ESMX 252350Z AUTO 26008KT 230V290 9999 BKN005/// 02/02 Q1015=
201812252320 METAR ESMX 252320Z AUTO 27008KT 240V300 9999 OVC006/// 03/03 Q1015=
201812252250 METAR ESMX 252250Z AUTO 28006KT 250V320 9999 BKN007/// 03/03 Q1015=
201812252220 METAR ESMX 252220Z AUTO 29006KT 260V340 9999 BKN007/// 03/03 Q1015=
201812252150 METAR ESMX 252150Z AUTO 26007KT 9999 OVC005/// 02/02 Q1015=
201812252120 METAR ESMX 252120Z AUTO 26004KT 210V290 9999 OVC006/// 02/02 Q1015=
201812252050 METAR ESMX 252050Z AUTO 26005KT 9999 OVC006/// 02/02 Q1015=
201812252020 METAR ESMX 252020Z AUTO 27005KT 9999 OVC006/// 02/02 Q1015=
201812251950 METAR ESMX 251950Z 28005KT 240V310 9999 OVC006 03/03 Q1016=
201812251920 METAR ESMX 251920Z 26007KT 230V290 9999 OVC006 03/03 Q1016=
201812251850 METAR ESMX 251850Z 27009KT 9999 OVC005 03/03 Q1016=
201812251820 METAR ESMX 251820Z 26009KT 230V290 9999 OVC005 03/03 Q1016=
201812251750 METAR ESMX 251750Z AUTO 27010KT 9999 OVC004/// 03/03 Q1016=
201812251720 METAR ESMX 251720Z AUTO 26009KT 9999 OVC004/// 03/03 Q1015=
201812251650 METAR ESMX 251650Z AUTO 26007KT 9999 BKN004/// OVC006/// 03/03 Q1016=
201812251620 METAR ESMX 251620Z AUTO 24005KT 9999 OVC007/// 02/02 Q1016=
201812251550 METAR ESMX 251550Z AUTO 24004KT 9999 SCT006/// 02/02 Q1016=
201812251520 METAR ESMX 251520Z AUTO 25004KT 210V290 9999 NCD 03/03 Q1016=
201812251450 METAR ESMX 251450Z AUTO 24003KT 9999 NCD 03/03 Q1016=
201812251420 METAR ESMX 251420Z AUTO 25005KT 9999 NCD 04/03 Q1016=
201812251350 METAR ESMX 251350Z AUTO 25006KT 9999 NCD 04/03 Q1016=
201812251320 METAR ESMX 251320Z AUTO 26006KT 9999 NCD 05/03 Q1016=
201812251250 METAR ESMX 251250Z AUTO 26006KT 9999 NCD 05/03 Q1016=
201812251220 METAR ESMX 251220Z AUTO 26006KT 9999 NCD 05/03 Q1016=
201812251150 METAR ESMX 251150Z AUTO 28007KT 9999 NCD 05/03 Q1016=
201812251120 METAR ESMX 251120Z AUTO 28006KT 9999 NCD 05/03 Q1015=
201812251050 METAR ESMX 251050Z AUTO 27007KT 9999 NCD 04/03 Q1016=
201812251020 METAR ESMX 251020Z AUTO 27007KT 230V310 9999 NCD 04/03 Q1016=
201812250950 METAR ESMX 250950Z AUTO 26007KT 230V300 9999 NCD 04/03 Q1016=
201812250920 METAR ESMX 250920Z AUTO 26007KT 9999 FEW012/// 04/03 Q1016=
201812250850 METAR ESMX 250850Z AUTO 28006KT 230V300 9999 SCT013/// 04/03 Q1016=
201812250820 METAR ESMX 250820Z AUTO 28006KT 9999 BKN013/// 04/03 Q1015=
201812250750 METAR ESMX 250750Z AUTO 28008KT 9999 OVC014/// 04/03 Q1015=
201812250720 METAR ESMX 250720Z 28007KT 9999 BKN014 04/03 Q1015=
201812250650 METAR ESMX 250650Z 27007KT 9999 BKN014 04/03 Q1015=
201812250620 METAR ESMX 250620Z 27007KT 9999 BKN011 04/03 Q1016=
201812250550 METAR ESMX 250550Z AUTO 28008KT 9999 OVC010/// 04/03 Q1016=
201812250520 METAR ESMX 250520Z AUTO 27008KT 9999 OVC009/// 04/03 Q1015 REUP=
201812250450 METAR ESMX 250450Z AUTO 27008KT 9999 OVC009/// 04/03 Q1015=
201812250420 METAR ESMX 250420Z AUTO 27009KT 9999 OVC008/// 03/03 Q1015=
201812250350 METAR ESMX 250350Z AUTO 27009KT 240V300 9999 OVC006/// 03/03 Q1016=
201812250320 METAR ESMX 250320Z AUTO 26009KT 9999 OVC004/// 03/03 Q1016=
201812250250 METAR ESMX 250250Z AUTO 24008KT 210V270 9000 BR OVC002/// 02/02 Q1016=
201812250220 METAR ESMX 250220Z AUTO 26009KT 4700 BR OVC001/// 02/02 Q1017=
201812250150 METAR ESMX 250150Z AUTO 25008KT 210V280 2800 BR OVC001/// 01/01 Q1017=
201812250120 METAR ESMX 250120Z AUTO 25008KT 1700 BR OVC001/// 01/01 Q1018=
201812250050 METAR ESMX 250050Z AUTO 25006KT 1700 BR OVC001/// 01/01 Q1018=
201812250020 METAR ESMX 250020Z AUTO 25007KT 1000 R01/P2000N R19/P2000N BR OVC001/// 00/00 Q1018=
201812242350 METAR ESMX 242350Z AUTO 24006KT 1300 R01/P2000N R19/P2000N BR OVC001/// M00/M00 Q1018=
201812242320 METAR ESMX 242320Z AUTO 23005KT 210V280 2300 BR OVC002/// M01/M01 Q1019=
201812242250 METAR ESMX 242250Z AUTO 22005KT 190V250 8000 BR OVC003/// M01/M01 Q1019=
201812242220 METAR ESMX 242220Z AUTO 24005KT 210V280 9000 BR OVC002/// M01/M01 Q1019=
201812242150 METAR ESMX 242150Z AUTO 24005KT 9999 OVC002/// M02/M02 Q1020=
201812242120 METAR ESMX 242120Z AUTO 23003KT 9999 OVC002/// M02/M02 Q1020=
201812242050 METAR ESMX 242050Z AUTO 27006KT 9999 OVC004/// M02/M02 Q1020=
201812242020 METAR ESMX 242020Z AUTO 26004KT 230V290 9999 OVC005/// M02/M02 Q1021=
201812241950 METAR ESMX 241950Z 27004KT 200V300 9999 BKN006 M02/M03 Q1021=
201812241920 METAR ESMX 241920Z 25003KT 190V290 9999 BKN007 M02/M03 Q1021=
201812241850 METAR ESMX 241850Z 25004KT 200V280 9999 BKN008 M02/M04 Q1021=
201812241820 METAR ESMX 241820Z 26004KT 230V300 9999 SCT008 BKN010 M03/M04 Q1021=
201812241750 METAR ESMX 241750Z AUTO 25003KT 9999 OVC010/// M03/M04 Q1021=
201812241720 METAR ESMX 241720Z AUTO 27004KT 9999 OVC012/// M03/M04 Q1021=
201812241650 METAR ESMX 241650Z AUTO 27004KT 9999 OVC013/// M03/M04 Q1021=
201812241620 METAR ESMX 241620Z AUTO 25004KT 220V290 9999 OVC013/// M03/M04 Q1021=
201812241550 METAR ESMX 241550Z AUTO 27004KT 240V300 9999 OVC013/// M03/M04 Q1021=
201812241520 METAR ESMX 241520Z AUTO 29006KT 9999 OVC012/// M03/M04 Q1021=
201812241450 METAR ESMX 241450Z AUTO 29007KT 9999 OVC010/// M03/M04 Q1021=
201812241420 METAR ESMX 241420Z AUTO 30006KT 9999 OVC009/// M03/M05 Q1021=
201812241350 METAR ESMX 241350Z 29006KT 9999 BKN011 M04/M06 Q1021=
201812241320 METAR ESMX 241320Z 29007KT 250V320 9999 BKN012 M04/M05 Q1020=
201812241250 METAR ESMX 241250Z 31008KT 9999 BKN011 M04/M06 Q1020=
201812241220 METAR ESMX 241220Z 31006KT 260V350 9999 BKN011 M04/M06 Q1020=
201812241150 METAR ESMX 241150Z 31007KT 9999 BKN011 M04/M06 Q1020=
201812241120 METAR ESMX 241120Z 29004KT 9999 BKN013 M04/M07 Q1020=
201812241050 METAR ESMX 241050Z AUTO 28005KT 9999 OVC015/// M05/M07 Q1020=
201812241020 METAR ESMX 241020Z AUTO 29005KT 9999 OVC015/// M05/M08 Q1020=
201812240950 METAR ESMX 240950Z AUTO 31005KT 9999 OVC015/// M05/M08 Q1020=
201812240920 METAR ESMX 240920Z AUTO 32006KT 9999 OVC015/// M05/M08 Q1021=
201812240850 METAR ESMX 240850Z AUTO 32007KT 290V350 9999 OVC015/// M05/M08 Q1020=
201812240820 METAR ESMX 240820Z AUTO 31007KT 280V350 9999 OVC015/// M05/M07 Q1020=
201812240750 METAR ESMX 240750Z 32008KT 280V360 9999 OVC014 M05/M07 Q1019=
201812240720 METAR ESMX 240720Z 32005KT 290V350 9999 OVC014 M05/M07 Q1019=
201812240650 METAR ESMX 240650Z 36007KT 9999 OVC015 M05/M07 Q1018=
201812240620 METAR ESMX 240620Z 01008KT 9999 OVC015 M05/M07 Q1018=
201812240550 METAR ESMX 240550Z AUTO 36009KT 9999 OVC014/// M05/M07 Q1018=
201812240520 METAR ESMX 240520Z AUTO 34009KT 9999 OVC016/// M05/M07 Q1017=
201812240450 METAR ESMX 240450Z AUTO 35011KT 9999 OVC017/// M05/M07 Q1017=
201812240420 METAR ESMX 240420Z AUTO 32009KT 9999 OVC022/// M05/M07 Q1016=
201812240350 METAR ESMX 240350Z AUTO 32009KT 9999 OVC025/// M05/M07 Q1016=
201812240320 METAR ESMX 240320Z AUTO 31007KT 280V340 9999 FEW027/// M06/M08 Q1016=
201812240250 METAR ESMX 240250Z AUTO 32005KT 9999 FEW029/// M07/M09 Q1016=
201812240220 METAR ESMX 240220Z AUTO 32007KT 9999 OVC028/// M06/M08 Q1015=
201812240150 METAR ESMX 240150Z AUTO 31008KT 9999 BKN028/// M06/M08 Q1015=
201812240120 METAR ESMX 240120Z AUTO 32007KT 9999 SCT028/// M06/M08 Q1015=
201812240050 METAR ESMX 240050Z AUTO 32009KT 9999 OVC027/// M05/M08 Q1015=
201812240020 METAR ESMX 240020Z AUTO 32009KT 9999 FEW015/// OVC024/// M05/M07 Q1014=
201812232350 METAR ESMX 232350Z AUTO 34012KT 9999 OVC014/// M05/M07 Q1014=
201812232320 METAR ESMX 232320Z AUTO 36011KT 9999 OVC014/// M05/M08 Q1014=
201812232250 METAR ESMX 232250Z AUTO 01011KT 9999 OVC013/// M05/M07 Q1014=
201812232220 METAR ESMX 232220Z AUTO 34010KT 300V010 9999 OVC013/// M04/M06 Q1014=
201812232150 METAR ESMX 232150Z 36011KT 9999 OVC013 M04/M06 Q1014=
201812232120 METAR ESMX 232120Z 01012KT 9999 OVC014 M04/M06 Q1013=
201812232050 METAR ESMX 232050Z 36010KT 9999 OVC014 M03/M05 Q1013=
201812232020 METAR ESMX 232020Z 36010KT 9999 OVC013 M03/M05 Q1013=
201812231950 METAR COR ESMX 231950Z 36008KT 9999 OVC012 M03/M04 Q1013=
201812231920 METAR ESMX 231920Z AUTO 35008KT 9999 OVC013/// M02/M05 Q1013=
201812231850 METAR ESMX 231850Z AUTO 36009KT 9999 BKN012/// OVC015/// M02/M04 Q1012=
201812231820 METAR ESMX 231820Z 31006KT 9999 BKN010 OVC014 M02/M04 Q1012=
201812231750 METAR ESMX 231750Z 33006KT 9999 BKN010 OVC013 M02/M04 Q1012=
201812231720 METAR ESMX 231720Z 30006KT 9999 OVC009 M03/M04 Q1012=
201812231650 METAR ESMX 231650Z 31006KT 9999 OVC009 M03/M04 Q1012=
201812231620 METAR ESMX 231620Z AUTO 33005KT 9999 OVC010/// M02/M04 Q1012=
201812231550 METAR ESMX 231550Z 33004KT 9999 OVC011 M02/M04 Q1012=
201812231520 METAR ESMX 231520Z 33006KT 9999 OVC012 M02/M04 Q1012=
201812231450 METAR ESMX 231450Z 33005KT 300V360 9999 OVC013 M02/M04 Q1012=
201812231420 METAR ESMX 231420Z 34005KT 9999 OVC012 M02/M04 Q1012=
201812231350 METAR ESMX 231350Z 35006KT 9999 OVC012 M02/M04 Q1012=
201812231320 METAR ESMX 231320Z 02008KT 9999 OVC013 M02/M05 Q1012=
201812231250 METAR ESMX 231250Z 34008KT 9999 OVC012 M03/M05 Q1012=
201812231220 METAR ESMX 231220Z 01008KT 9999 OVC012 M03/M05 Q1012=
201812231150 METAR ESMX 231150Z 35006KT 9999 OVC013 M02/M05 Q1012=
201812231120 METAR ESMX 231120Z 01005KT 320V050 9999 OVC012 M02/M04 Q1013=
201812231050 METAR ESMX 231050Z 01007KT 340V050 9999 OVC012 M03/M05 Q1013=
201812231020 METAR ESMX 231020Z 34006KT 9999 BKN013 M03/M05 Q1013=
201812230950 METAR ESMX 230950Z AUTO 33004KT 9999 OVC013/// M03/M05 Q1013=
201812230920 METAR ESMX 230920Z AUTO 34005KT 290V360 9999 OVC013/// M03/M05 Q1013=
201812230850 METAR ESMX 230850Z AUTO 34005KT 9999 OVC013/// M03/M05 Q1013=
201812230820 METAR ESMX 230820Z AUTO 30003KT 9999 OVC014/// M03/M05 Q1013=
201812230750 METAR ESMX 230750Z AUTO 29003KT 9999 OVC014/// M03/M05 Q1013=
201812230720 METAR ESMX 230720Z AUTO 32002KT 9999 OVC014/// M03/M04 Q1013=
201812230650 METAR ESMX 230650Z AUTO VRB02KT 9999 OVC014/// M03/M05 Q1013=
201812230620 METAR ESMX 230620Z AUTO 00000KT 9999 OVC015/// M03/M05 Q1013=
201812230550 METAR ESMX 230550Z AUTO 30004KT 9999 OVC016/// M03/M05 Q1013=
201812230520 METAR ESMX 230520Z AUTO 34005KT 9999 OVC014/// M03/M05 Q1012=
201812230450 METAR ESMX 230450Z AUTO 34005KT 9999 OVC015/// M03/M05 Q1012=
201812230420 METAR ESMX 230420Z AUTO 34005KT 9999 OVC016/// M03/M05 Q1012=
201812230350 METAR ESMX 230350Z AUTO 34005KT 9999 OVC016/// M03/M05 Q1012=
201812230320 METAR ESMX 230320Z AUTO 33004KT 9999 OVC016/// M03/M05 Q1012=
201812230250 METAR ESMX 230250Z AUTO 31004KT 9999 OVC016/// M02/M05 Q1013=
201812230220 METAR ESMX 230220Z AUTO 30004KT 9999 OVC017/// M02/M05 Q1013=
201812230150 METAR ESMX 230150Z AUTO 30004KT 260V360 9999 OVC017/// M02/M05 Q1013=
201812230120 METAR ESMX 230120Z AUTO 31004KT 9999 OVC019/// M02/M05 Q1013=
201812230050 METAR ESMX 230050Z AUTO 34005KT 9999 OVC019/// M02/M05 Q1013=
201812230020 METAR ESMX 230020Z AUTO 31005KT 9999 OVC016/// M02/M04 Q1012=
201812222350 METAR ESMX 222350Z AUTO 29005KT 260V330 9999 OVC016/// M02/M04 Q1012=
201812222320 METAR ESMX 222320Z AUTO 29005KT 250V320 9999 OVC015/// M02/M03 Q1012=
201812222250 METAR ESMX 222250Z AUTO 29003KT 260V330 9999 OVC015/// M02/M03 Q1012=
201812222220 METAR ESMX 222220Z AUTO 30003KT 9999 OVC014/// M02/M03 Q1012=
201812222150 METAR ESMX 222150Z AUTO 31004KT 9999 OVC017/// M02/M03 Q1012=
201812222120 METAR ESMX 222120Z AUTO 31005KT 9999 OVC019/// M02/M03 Q1012=
201812222050 METAR ESMX 222050Z AUTO 30004KT 9999 OVC021/// M02/M02 Q1012=
201812222020 METAR ESMX 222020Z AUTO 31003KT 9999 OVC024/// M02/M02 Q1011=
201812221950 METAR ESMX 221950Z AUTO 30003KT 9999 FEW009/// OVC026/// M02/M02 Q1011=
201812221920 METAR ESMX 221920Z AUTO 30004KT 9999 FEW008/// OVC028/// M02/M03 Q1011=
201812221850 METAR ESMX 221850Z AUTO 29002KT 9999 FEW008/// OVC028/// M02/M02 Q1011=
201812221820 METAR ESMX 221820Z AUTO 33005KT 9999 BKN008/// OVC028/// M02/M02 Q1010=
201812221750 METAR ESMX 221750Z AUTO 33006KT 9999 OVC008/// M01/M02 Q1010=
201812221720 METAR ESMX 221720Z AUTO 35006KT 9999 OVC008/// M01/M02 Q1010=
201812221650 METAR ESMX 221650Z AUTO 35006KT 9999 OVC009/// M01/M02 Q1010=
201812221620 METAR ESMX 221620Z AUTO 35006KT 9999 OVC009/// M01/M02 Q1009=
201812221550 METAR ESMX 221550Z AUTO 36006KT 9999 OVC008/// M01/M02 Q1009=
201812221520 METAR ESMX 221520Z AUTO 36006KT 9999 BKN009/// OVC010/// M01/M02 Q1009=
201812221450 METAR ESMX 221450Z AUTO 01008KT 9999 OVC009/// M01/M02 Q1009=
201812221420 METAR ESMX 221420Z AUTO 34007KT 9999 OVC008/// M01/M02 Q1008=
201812221350 METAR ESMX 221350Z AUTO 35008KT 9999 OVC009/// M01/M02 Q1008=
201812221320 METAR ESMX 221320Z AUTO 35008KT 9999 OVC008/// M01/M02 Q1007=
201812221250 METAR ESMX 221250Z AUTO 34009KT 9999 OVC008/// M01/M02 Q1007=
201812221220 METAR ESMX 221220Z AUTO 33009KT 9999 OVC008/// M01/M02 Q1007=
201812221150 METAR ESMX 221150Z AUTO 34008KT 9999 OVC008/// M01/M02 Q1006=
201812221120 METAR ESMX 221120Z AUTO 35008KT 9999 OVC007/// M01/M02 Q1006=
201812221050 METAR ESMX 221050Z AUTO 35009KT 9999 OVC006/// M01/M02 Q1005=
201812221020 METAR ESMX 221020Z AUTO 01010KT 9999 OVC006/// M01/M02 Q1005=
201812220950 METAR ESMX 220950Z AUTO 36009KT 9999 OVC007/// M01/M02 Q1005=
201812220920 METAR ESMX 220920Z AUTO 01010KT 9999 OVC007/// M01/M02 Q1005=
201812220850 METAR ESMX 220850Z AUTO 02010KT 9999 OVC007/// M01/M02 Q1004=
201812220820 METAR ESMX 220820Z AUTO 01009KT 9999 OVC009/// M01/M02 Q1004=
201812220750 METAR ESMX 220750Z AUTO 02008KT 9999 OVC009/// M01/M02 Q1004=
201812220720 METAR ESMX 220720Z AUTO 03009KT 9999 OVC009/// M01/M02 Q1004=
201812220650 METAR ESMX 220650Z AUTO 03009KT 9999 OVC009/// M01/M02 Q1003=
201812220620 METAR ESMX 220620Z AUTO 03010KT 9999 OVC009/// M01/M02 Q1003=
201812220550 METAR ESMX 220550Z AUTO 04011KT 010V070 9999 SG OVC008/// M01/M02 Q1003=
201812220520 METAR ESMX 220520Z AUTO 03011KT 360V070 9999 -SN OVC008/// M02/M02 Q1002 RESG=
201812220450 METAR ESMX 220450Z AUTO 03012KT 6000 SG FEW002/// BKN008/// OVC011/// M02/M02 Q1002 RESG=
201812220420 METAR ESMX 220420Z AUTO 03011KT 5000 -SN BKN002/// BKN014/// OVC026/// M02/M02 Q1002=
201812220350 METAR ESMX 220350Z AUTO 03011KT 4500 SG BKN002/// OVC006/// M02/M02 Q1002=
201812220320 METAR ESMX 220320Z AUTO 03011KT 3600 -SN BKN002/// OVC008/// M02/M02 Q1002 RESG=
201812220250 METAR ESMX 220250Z AUTO 03013KT 9000 SG OVC009/// M02/M03 Q1002 RESG=
201812220220 METAR ESMX 220220Z AUTO 03012KT 9999 SG OVC009/// M02/M03 Q1002 RESG=
201812220150 METAR ESMX 220150Z AUTO 04012KT 9000 SG OVC008/// M02/M03 Q1001=
201812220120 METAR ESMX 220120Z AUTO 04012KT 5000 -SN OVC008/// M02/M03 Q1001 RESG=
201812220050 METAR ESMX 220050Z AUTO 05011KT 9999 -SN OVC008/// M02/M03 Q1001=
201812220020 METAR ESMX 220020Z AUTO 05012KT 9000 SG OVC008/// M02/M02 Q1002 RESN=
201812212350 METAR ESMX 212350Z AUTO 04011KT 9999 -SN OVC007/// M01/M02 Q1002 RESG REFZUP=
201812212320 METAR ESMX 212320Z AUTO 04011KT 9999 OVC006/// M01/M02 Q1002=
201812212250 METAR ESMX 212250Z AUTO 06008KT 030V090 9999 OVC005/// M01/M02 Q1002=
201812212220 METAR ESMX 212220Z AUTO 06009KT 030V110 9999 OVC005/// M01/M02 Q1002=
201812212150 METAR ESMX 212150Z AUTO 06009KT 030V110 9999 OVC005/// M01/M01 Q1002=
201812212120 METAR ESMX 212120Z 05009KT 030V100 8000 BR OVC004 M01/M01 Q1003=
201812212050 METAR ESMX 212050Z 06009KT 030V100 7000 BR OVC004 M01/M01 Q1003=
201812212020 METAR ESMX 212020Z 04009KT 010V120 6000 BR OVC003 M01/M01 Q1003=
201812211950 METAR ESMX 211950Z 06010KT 030V110 4700 BR OVC003 M01/M01 Q1004=
201812211920 METAR ESMX 211920Z AUTO 06009KT 030V100 5000 BR OVC003/// M01/M01 Q1004=
201812211850 METAR ESMX 211850Z AUTO 06008KT 020V090 6000 BR OVC003/// M01/M01 Q1004=
201812211820 METAR ESMX 211820Z 07009KT 020V110 7000 BR OVC003 M01/M01 Q1005=
201812211750 METAR ESMX 211750Z 07008KT 040V110 6000 BR OVC003 M01/M01 Q1005=
201812211720 METAR ESMX 211720Z 07010KT 030V100 9000 BR OVC004 M01/M01 Q1005=
201812211650 METAR ESMX 211650Z 07010KT 030V110 9999 OVC004 M01/M01 Q1005=
201812211620 METAR ESMX 211620Z 08007KT 040V150 9999 OVC005 M01/M01 Q1006=
201812211550 METAR COR ESMX 211550Z 07008KT 030V140 9999 OVC006 M01/M01 Q1006=
201812211520 METAR ESMX 211520Z 08007KT 020V130 9999 OVC005 M00/M01 Q1006=
201812211450 METAR ESMX 211450Z 08007KT 030V120 9999 OVC004 M00/M00 Q1007=
201812211420 METAR ESMX 211420Z 08008KT 040V120 6000 BR OVC004 M00/M00 Q1007=
201812211350 METAR ESMX 211350Z 08007KT 030V130 5000 -RASN OVC003 M00/M00 Q1007=
201812211320 METAR ESMX 211320Z 08008KT 030V140 4600 SG OVC003 M00/M00 Q1007=
201812211250 METAR ESMX 211250Z 09006KT 030V130 4600 BR OVC003 M00/M00 Q1008=
201812211220 METAR ESMX 211220Z 09006KT 360V140 5000 BR OVC003 M00/M00 Q1008=
201812211150 METAR ESMX 211150Z 09007KT 040V140 7000 BR OVC004 00/M00 Q1008=
201812211120 METAR ESMX 211120Z 08006KT 020V130 9999 OVC005 00/M00 Q1008=
201812211050 METAR ESMX 211050Z 08006KT 030V130 9999 OVC005 00/00 Q1009=
201812211020 METAR ESMX 211020Z 08006KT 030V130 9999 OVC005 00/00 Q1009=
201812210950 METAR ESMX 210950Z AUTO 08006KT 030V120 9999 OVC005/// 00/00 Q1009=
201812210920 METAR ESMX 210920Z AUTO 10004KT 020V150 9999 OVC006/// 00/00 Q1010=
201812210850 METAR ESMX 210850Z AUTO 08005KT 030V150 9999 OVC007/// 00/M00 Q1010=
201812210820 METAR ESMX 210820Z AUTO 08004KT 030V160 9999 OVC007/// 00/00 Q1010=
201812210750 METAR ESMX 210750Z AUTO 08006KT 020V120 9999 OVC007/// 00/00 Q1010 RESHUP=
201812210720 METAR ESMX 210720Z AUTO 09005KT 020V170 9999 OVC006/// 00/00 Q1010 RESG=
201812210650 METAR ESMX 210650Z AUTO 08005KT 010V140 9000 SG OVC006/// 00/00 Q1011 REUP=
201812210620 METAR ESMX 210620Z AUTO 08005KT 040V140 9999 OVC007/// 00/00 Q1011=
201812210550 METAR ESMX 210550Z AUTO 08004KT 050V160 9999 OVC007/// 00/00 Q1011=
201812210520 METAR ESMX 210520Z AUTO 08005KT 040V110 9999 OVC007/// 00/00 Q1011=
201812210450 METAR ESMX 210450Z AUTO 09004KT 030V140 9999 -SN OVC007/// 00/00 Q1011 RESHUP REDZ=
201812210420 METAR ESMX 210420Z AUTO 08004KT 040V130 9999 OVC007/// 00/00 Q1011=
201812210350 METAR ESMX 210350Z 07004KT 350V120 9999 SG BKN007 00/00 Q1012=
201812210320 METAR ESMX 210320Z AUTO 07005KT 040V110 9999 -SN OVC007/// 00/00 Q1012 RESG=
201812210250 METAR ESMX 210250Z AUTO 07004KT 040V110 7000 SG OVC007/// 00/00 Q1012=
201812210220 METAR ESMX 210220Z AUTO 07004KT 040V120 7000 SG OVC006/// 00/00 Q1012=
201812210150 METAR ESMX 210150Z 08003KT 040V130 5000 -SN BKN005 00/00 Q1013=
201812210120 METAR ESMX 210120Z 07004KT 020V130 4800 -SN BKN005 00/00 Q1013=
201812210050 METAR ESMX 210050Z AUTO 08004KT 030V120 4800 SG OVC006/// 01/01 Q1013=
201812210020 METAR ESMX 210020Z AUTO 08003KT 050V140 6000 -SN OVC005/// 01/01 Q1013=
201812202350 METAR ESMX 202350Z AUTO 07004KT 030V110 3500 -SN BKN004/// OVC009/// 00/00 Q1013=
201812202320 METAR ESMX 202320Z AUTO 06004KT 020V100 2200 -SN BKN004/// OVC009/// 00/00 Q1013=
201812202250 METAR ESMX 202250Z AUTO 06004KT 030V100 2100 -SN SCT004/// OVC010/// 00/00 Q1013=
201812202220 METAR ESMX 202220Z AUTO 06003KT 030V090 1800 -PL VV009 00/00 Q1013=
201812202150 METAR ESMX 202150Z VRB03KT 2000 -RASN BKN009 00/00 Q1014=
201812202120 METAR ESMX 202120Z 06003KT 030V100 1500 -SN FEW002 BKN004 01/01 Q1014=
201812202050 METAR ESMX 202050Z 07003KT 020V140 2300 -RA SCT002 OVC005 01/01 Q1014=
201812202020 METAR ESMX 202020Z VRB03KT 5000 -RASN OVC006 01/01 Q1014=
201812201950 METAR ESMX 201950Z AUTO VRB03KT 6000 BR OVC007/// 01/01 Q1014=
201812201920 METAR ESMX 201920Z 07003KT 020V130 5000 BR OVC007 01/01 Q1014=
201812201850 METAR ESMX 201850Z 07004KT 030V110 4800 BR OVC006 01/01 Q1014=
201812201820 METAR ESMX 201820Z 07004KT 020V140 3400 BR OVC005 01/01 Q1014=
201812201750 METAR ESMX 201750Z 07004KT 030V120 2500 -RASN FEW002 OVC005 01/01 Q1014=
201812201720 METAR ESMX 201720Z 07003KT 030V100 1900 -RASN BKN005 01/01 Q1014=
201812201650 METAR ESMX 201650Z AUTO 07003KT 030V110 2300 SG FEW002/// BKN005/// OVC008/// 01/01 Q1015=
201812201620 METAR ESMX 201620Z 08004KT 020V120 2500 SG FEW002 OVC004 01/01 Q1015=
201812201550 METAR ESMX 201550Z 08003KT 030V130 3400 BR OVC004 01/01 Q1015=
201812201520 METAR ESMX 201520Z VRB03KT 4500 BR BKN005 01/01 Q1015=
201812201450 METAR ESMX 201450Z VRB03KT 3900 BR BKN005 01/01 Q1015=
201812201420 METAR ESMX 201420Z 07003KT 020V110 3300 BR OVC005 01/01 Q1015=
201812201350 METAR ESMX 201350Z 06004KT 030V100 3300 BR OVC006 01/01 Q1015=
201812201320 METAR ESMX 201320Z 07003KT 010V110 3200 BR OVC005 01/01 Q1015=
201812201250 METAR ESMX 201250Z 08004KT 010V120 2600 BR OVC004 01/01 Q1015=
201812201220 METAR ESMX 201220Z 09004KT 050V120 3100 BR OVC004 01/01 Q1015=
201812201150 METAR ESMX 201150Z 08004KT 020V150 3400 BR OVC004 01/01 Q1015=
201812201120 METAR ESMX 201120Z 10004KT 060V170 4200 BR OVC005 01/01 Q1016=
201812201050 METAR ESMX 201050Z VRB04KT 5000 BR OVC006 01/01 Q1016=
201812201020 METAR ESMX 201020Z 09003KT 040V190 5000 BR OVC005 01/01 Q1016=
201812200950 METAR ESMX 200950Z 08004KT 040V120 3700 BR OVC003 00/00 Q1016=
201812200920 METAR ESMX 200920Z 08003KT 030V140 2800 OVC004 00/00 Q1016=
201812200850 METAR ESMX 200850Z 09004KT 040V130 4400 OVC005 01/01 Q1016=
201812200820 METAR ESMX 200820Z VRB03KT 5000 BR OVC005 01/01 Q1016=
201812200750 METAR ESMX 200750Z 10004KT 050V160 6000 BR OVC005 01/01 Q1016=
201812200720 METAR ESMX 200720Z 10003KT 040V160 6000 OVC005 01/01 Q1016=
201812200650 METAR ESMX 200650Z 10004KT 020V150 5000 BR OVC005 01/01 Q1016=
201812200620 METAR ESMX 200620Z 10005KT 040V180 4300 BR BKN004 01/01 Q1015=
201812200550 METAR ESMX 200550Z 10005KT 050V150 5000 BR OVC005 01/01 Q1015=
201812200520 METAR ESMX 200520Z 10004KT 020V170 6000 BR BKN006 01/01 Q1016=
201812200450 METAR ESMX 200450Z 09004KT 040V160 5000 BR OVC005 01/01 Q1016=
201812200420 METAR ESMX 200420Z AUTO 09004KT 040V160 3400 -SN FEW002/// OVC005/// 00/00 Q1016 RESG=
201812200350 METAR ESMX 200350Z AUTO VRB03KT 2200 -RASN OVC002/// 00/00 Q1016=
201812200320 METAR ESMX 200320Z AUTO 09004KT 020V130 2200 -PL OVC002/// 00/00 Q1016=
201812200250 METAR ESMX 200250Z AUTO 09003KT 030V140 2200 -SN OVC002/// 00/00 Q1016=
201812200220 METAR ESMX 200220Z AUTO 09003KT 010V150 1600 -SN OVC001/// 00/00 Q1016=
201812200150 METAR ESMX 200150Z AUTO 10004KT 360V170 2200 -SN OVC002/// 01/01 Q1016=
201812200120 METAR ESMX 200120Z AUTO 10004KT 050V140 2200 -SN BKN001/// OVC006/// 01/01 Q1016=
201812200050 METAR ESMX 200050Z AUTO 10004KT 050V140 2500 -SN BKN001/// BKN006/// OVC009/// 01/01 Q1016=
201812200020 METAR ESMX 200020Z AUTO 12005KT 070V160 1900 -SN BKN002/// OVC007/// 01/01 Q1016=
201812192350 METAR ESMX 192350Z AUTO 11006KT 070V160 5000 -SN OVC006/// 01/00 Q1016 REUP=
201812192320 METAR ESMX 192320Z AUTO 11006KT 070V160 7000 UP OVC007/// 01/00 Q1016=
201812192250 METAR ESMX 192250Z AUTO 12007KT 060V170 8000 BR OVC007/// 01/00 Q1016=
201812192220 METAR ESMX 192220Z AUTO 11007KT 060V150 9000 BR OVC008/// 01/00 Q1016 REUP=
201812192150 METAR ESMX 192150Z AUTO 12006KT 080V170 9000 BR OVC007/// 01/01 Q1016 RESHUP=
201812192120 METAR ESMX 192120Z AUTO 13008KT 080V190 9999 OVC009/// 01/00 Q1016=
201812192050 METAR ESMX 192050Z AUTO 12007KT 060V160 7000 -RA OVC010/// 01/00 Q1016 REUP=
201812192020 METAR ESMX 192020Z AUTO 13007KT 080V180 9999 OVC009/// 02/01 Q1016=
201812191950 METAR ESMX 191950Z AUTO 13008KT 080V170 9999 BKN010/// OVC015/// 02/00 Q1016=
201812191920 METAR ESMX 191920Z 11007KT 050V150 9999 BKN009 02/00 Q1016=
201812191850 METAR ESMX 191850Z 12008KT 070V170 9999 BKN009 02/01 Q1016=
201812191820 METAR ESMX 191820Z 12008KT 080V160 9999 BKN009 02/01 Q1017=
201812191750 METAR ESMX 191750Z 12007KT 070V160 9999 BKN009 02/01 Q1017=
201812191720 METAR ESMX 191720Z AUTO 11008KT 060V160 9000 BR OVC009/// 02/01 Q1017=
201812191650 METAR ESMX 191650Z 12007KT 080V160 9000 BR BKN009 02/01 Q1017=
201812191620 METAR ESMX 191620Z 13007KT 100V170 8000 BR BKN009 02/01 Q1017=
201812191550 METAR ESMX 191550Z 12006KT 070V160 8000 BR BKN010 02/01 Q1017=
201812191520 METAR ESMX 191520Z 13006KT 080V170 8000 BR BKN010 03/02 Q1017=
201812191450 METAR ESMX 191450Z 12008KT 090V160 8000 BR BKN009 03/02 Q1017=
201812191420 METAR ESMX 191420Z 13008KT 080V170 8000 BR BKN008 03/02 Q1017=
201812191350 METAR ESMX 191350Z 13007KT 080V190 8000 BR OVC007 03/02 Q1017=
201812191320 METAR ESMX 191320Z 13007KT 080V170 8000 BR OVC007 02/02 Q1017=
201812191250 METAR ESMX 191250Z 11007KT 030V170 9000 BR BKN007 02/02 Q1017=
201812191220 METAR ESMX 191220Z 12007KT 050V180 9999 BKN008 02/02 Q1018=
201812191150 METAR ESMX 191150Z 12007KT 030V160 9999 SCT009 BKN018 02/02 Q1018=
201812191120 METAR ESMX 191120Z 11006KT 060V150 9999 FEW006 SCT009 OVC019 02/02 Q1019=
201812191050 METAR ESMX 191050Z 11005KT 070V150 5000 BR BKN005 02/02 Q1019=
201812191020 METAR ESMX 191020Z 13005KT 080V170 4100 BR OVC004 02/02 Q1020=
201812190950 METAR ESMX 190950Z 12006KT 080V160 4200 BR OVC004 02/02 Q1020=
201812190920 METAR ESMX 190920Z 13005KT 060V170 3400 BR OVC003 02/02 Q1020=
201812190850 METAR ESMX 190850Z 11004KT 060V180 3600 BR OVC003 01/01 Q1020=
201812190820 METAR ESMX 190820Z 11005KT 070V140 3100 BR OVC003 01/01 Q1020=
201812190750 METAR ESMX 190750Z 11005KT 060V190 3600 BR OVC003 01/01 Q1020=
201812190720 METAR ESMX 190720Z 12004KT 040V170 5000 BR OVC004 01/01 Q1020=
201812190650 METAR ESMX 190650Z 12005KT 4500 -SN OVC004 01/01 Q1020=
201812190620 METAR ESMX 190620Z 12005KT 060V190 4600 -SN OVC004 01/01 Q1020=
201812190550 METAR ESMX 190550Z 12006KT 070V160 4200 -SN FEW002 OVC004 01/01 Q1021=
201812190520 METAR COR ESMX 190520Z 13007KT 080V170 6000 -RASN OVC005 01/01 Q1021=
201812190450 METAR ESMX 190450Z 13007KT 080V190 7000 OVC006 01/01 Q1021=
201812190420 METAR ESMX 190420Z AUTO 12007KT 040V160 8000 BR OVC008/// 01/00 Q1022=
201812190350 METAR ESMX 190350Z AUTO 13007KT 090V160 9000 BR SCT008/// OVC009/// 01/00 Q1022=
201812190320 METAR ESMX 190320Z AUTO 13005KT 080V160 9000 BR BKN007/// OVC010/// 01/00 Q1022=
201812190250 METAR ESMX 190250Z AUTO 13007KT 090V160 9999 BKN008/// OVC011/// 01/00 Q1022=
201812190220 METAR ESMX 190220Z AUTO 13007KT 080V180 9999 BKN008/// OVC012/// 01/00 Q1022=
201812190150 METAR ESMX 190150Z AUTO 14006KT 100V180 9000 BR OVC007/// 01/00 Q1023=
201812190120 METAR ESMX 190120Z AUTO 13007KT 100V160 8000 BR OVC006/// 01/00 Q1023 REUP=
201812190050 METAR ESMX 190050Z AUTO 14007KT 080V200 8000 BR OVC005/// 01/00 Q1023 RESHUP=
201812190020 METAR ESMX 190020Z AUTO 13007KT 080V160 9999 OVC007/// 01/00 Q1023 REUP=
201812182350 METAR ESMX 182350Z AUTO 13006KT 080V170 9999 SCT008/// BKN017/// OVC038/// 01/M00 Q1023=
201812182320 METAR ESMX 182320Z AUTO 13006KT 080V170 9999 FEW008/// OVC038/// 00/M00 Q1023=
201812182250 METAR ESMX 182250Z AUTO 13005KT 100V160 9000 FEW023/// BKN027/// OVC038/// 00/M00 Q1024 REUP=
201812182220 METAR ESMX 182220Z AUTO 13005KT 100V160 9000 -SN OVC027/// 00/M01 Q1024=
201812182150 METAR ESMX 182150Z AUTO 13005KT 080V160 7000 -SN OVC031/// 00/M01 Q1024 RESG REUP=
201812182120 METAR ESMX 182120Z AUTO 14004KT 100V180 9999 BKN030/// OVC039/// 00/M01 Q1024=
201812182050 METAR ESMX 182050Z AUTO 14005KT 9999 OVC037/// 00/M01 Q1024=
201812182020 METAR ESMX 182020Z AUTO 15004KT 120V180 9999 FEW025/// OVC036/// 00/M01 Q1024=
201812181950 METAR ESMX 181950Z AUTO 15005KT 110V190 9999 OVC036/// 00/M01 Q1024=
201812181920 METAR ESMX 181920Z 14005KT 110V170 9999 OVC033 00/M00 Q1024=
201812181850 METAR ESMX 181850Z 14005KT 9000 BR FEW027 OVC032 00/M00 Q1024=
201812181820 METAR ESMX 181820Z 15006KT 6000 -SN FEW022 SCT028 OVC034 00/M00 Q1024=
201812181750 METAR ESMX 181750Z 13005KT 080V160 9999 OVC027 00/M01 Q1024=
201812181720 METAR ESMX 181720Z 14004KT 9999 OVC028 00/M01 Q1024=
201812181650 METAR ESMX 181650Z AUTO 13004KT 100V160 9999 OVC028/// 00/M01 Q1025=
201812181620 METAR ESMX 181620Z 13004KT 100V160 9999 OVC027 M00/M00 Q1024=
201812181550 METAR COR ESMX 181550Z 12003KT 7000 BR OVC025 M00/M00 Q1024=
201812181520 METAR ESMX 181520Z 12004KT 080V150 5000 BR BKN003 OVC026 M00/M00 Q1024=
201812181450 METAR ESMX 181450Z 11003KT 4900 BR BKN003 OVC029 M00/M00 Q1024=
201812181420 METAR ESMX 181420Z 13004KT 090V150 5000 BR SCT003 BKN032 M00/M00 Q1024=
201812181350 METAR ESMX 181350Z 13003KT 100V160 7000 BR FEW003 BKN038 M00/M00 Q1024=
201812181320 METAR ESMX 181320Z 13003KT 090V170 7000 BR FEW004 OVC035 M00/M00 Q1025=
201812181250 METAR ESMX 181250Z 14003KT 100V180 7000 BKN004 OVC035 M00/M00 Q1025=
201812181220 METAR ESMX 181220Z 16004KT 8000 BKN004 M00/M00 Q1025=
201812181150 METAR ESMX 181150Z 15004KT 110V190 9999 BKN006 OVC035 M00/M00 Q1025=
201812181120 METAR ESMX 181120Z VRB03KT 9000 FEW007 BKN037 M00/M01 Q1025=
201812181050 METAR ESMX 181050Z VRB02KT 9999 FEW025 BKN034 M00/M01 Q1025=
201812181020 METAR ESMX 181020Z 15003KT 100V200 9999 BKN029 M01/M01 Q1025=
201812180950 METAR ESMX 180950Z VRB01KT 9999 BKN035 M01/M01 Q1025=
201812180920 METAR ESMX 180920Z 07002KT 9000 BKN037 M01/M01 Q1025=
201812180850 METAR ESMX 180850Z VRB01KT 7000 BKN037 M01/M01 Q1025=
201812180820 METAR ESMX 180820Z 00000KT 8000 BKN037 M02/M02 Q1025=
201812180750 METAR ESMX 180750Z 00000KT 8000 BKN038 M01/M01 Q1025=
201812180720 METAR ESMX 180720Z VRB02KT 8000 BKN037 M02/M02 Q1025=
201812180650 METAR ESMX 180650Z 11002KT 9000 BKN036 M02/M02 Q1025=
201812180620 METAR ESMX 180620Z 00000KT 9000 BKN034 M02/M02 Q1025=
201812180550 METAR ESMX 180550Z VRB01KT 8000 BKN025 M02/M02 Q1025=
201812180520 METAR ESMX 180520Z VRB02KT 8000 BR BKN035 M02/M02 Q1024=
201812180450 METAR ESMX 180450Z 00000KT 9000 BR OVC037 M02/M02 Q1024=
201812180420 METAR ESMX 180420Z AUTO VRB02KT 8000 BR FEW003/// OVC038/// M01/M01 Q1024=
201812180350 METAR ESMX 180350Z AUTO VRB03KT 8000 BR BKN003/// OVC038/// M01/M01 Q1024=
201812180320 METAR ESMX 180320Z AUTO 18003KT 140V210 9000 BR BKN003/// OVC038/// M02/M02 Q1024=
201812180250 METAR ESMX 180250Z AUTO 02003KT 9999 OVC038/// M01/M01 Q1024=
201812180220 METAR ESMX 180220Z AUTO VRB01KT 9000 BR FEW002/// OVC039/// M02/M02 Q1024=
201812180150 METAR ESMX 180150Z AUTO 00000KT 8000 BR FEW003/// OVC039/// M02/M02 Q1024=
201812180120 METAR ESMX 180120Z AUTO VRB01KT 8000 BR FEW004/// OVC040/// M02/M02 Q1024=
201812180050 METAR ESMX 180050Z AUTO VRB02KT 7000 BR FEW003/// OVC042/// M02/M02 Q1024=
201812180020 METAR ESMX 180020Z AUTO VRB02KT 4100 BR FEW003/// OVC043/// M02/M02 Q1024=
201812172350 METAR ESMX 172350Z AUTO 00000KT 5000 BR FEW002/// OVC042/// M02/M02 Q1024=
201812172320 METAR ESMX 172320Z AUTO 00000KT 6000 BR BKN003/// OVC043/// M02/M02 Q1024=
201812172250 METAR ESMX 172250Z AUTO 00000KT 6000 BR FEW004/// OVC043/// M02/M02 Q1024=
201812172220 METAR ESMX 172220Z AUTO 00000KT 7000 BR BKN004/// OVC044/// M02/M02 Q1024=
201812172150 METAR ESMX 172150Z AUTO 00000KT 6000 BR SCT004/// OVC042/// M02/M02 Q1024=
201812172120 METAR ESMX 172120Z AUTO 00000KT 5000 BR FEW004/// OVC042/// M02/M02 Q1024=
201812172050 METAR ESMX 172050Z AUTO 36002KT 5000 BR OVC042/// M02/M02 Q1024=
201812172020 METAR ESMX 172020Z AUTO 00000KT 7000 BR OVC042/// M02/M02 Q1023=
201812171950 METAR ESMX 171950Z VRB03KT 7000 BR OVC042 M01/M01 Q1023=
201812171920 METAR ESMX 171920Z 16003KT 7000 BR OVC042 M01/M01 Q1023=
201812171850 METAR COR ESMX 171850Z 16002KT 6000 BR OVC041 M02/M02 Q1023=
201812171820 METAR ESMX 171820Z 13003KT 7000 BR OVC042 M02/M02 Q1022=
201812171750 METAR ESMX 171750Z 00000KT 7000 BR OVC044 M02/M02 Q1022=
201812171720 METAR ESMX 171720Z 00000KT 6000 BR OVC046 M02/M02 Q1022=
201812171650 METAR ESMX 171650Z VRB02KT 7000 BR OVC048 M02/M02 Q1022=
201812171620 METAR ESMX 171620Z 19002KT 7000 BR BKN048 M02/M02 Q1022=
201812171550 METAR ESMX 171550Z 14003KT 8000 BR FEW003 BKN045 M01/M01 Q1021=
201812171520 METAR ESMX 171520Z 00000KT 6000 -SN BKN004 OVC043 M01/M01 Q1021=
201812171450 METAR ESMX 171450Z VRB02KT 8000 BR BKN042 M01/M01 Q1021=
201812171420 METAR ESMX 171420Z 15003KT 8000 BR BKN042 M01/M01 Q1021=
201812171350 METAR ESMX 171350Z 16002KT 8000 BR BKN042 M01/M01 Q1020=
201812171320 METAR ESMX 171320Z 00000KT 9000 BR OVC042 M01/M01 Q1020=
201812171250 METAR ESMX 171250Z VRB01KT 9000 -SN BKN043 M01/M01 Q1020=
201812171220 METAR ESMX 171220Z 00000KT 8000 -SN OVC045 M01/M01 Q1020=
201812171150 METAR ESMX 171150Z 00000KT 8000 -SN FEW005 BKN043 M01/M01 Q1019=
201812171120 METAR ESMX 171120Z 00000KT 6000 -SN FEW006 BKN043 M01/M01 Q1019=
201812171050 METAR ESMX 171050Z 00000KT 9000 -SN SCT030 BKN042 M02/M02 Q1019=
201812171020 METAR ESMX 171020Z 00000KT 9999 -SN FEW032 BKN042 M02/M02 Q1019=
201812170950 METAR ESMX 170950Z 00000KT 9999 BKN042 M02/M02 Q1019=
201812170920 METAR ESMX 170920Z 00000KT 9999 SCT011 BKN041 M02/M02 Q1019=
201812170850 METAR ESMX 170850Z VRB03KT 9999 FEW010 BKN040 M02/M02 Q1019=
201812170820 METAR ESMX 170820Z 17002KT 9999 FEW009 BKN042 M02/M02 Q1019=
201812170750 METAR ESMX 170750Z 17002KT 9999 BKN044 M03/M03 Q1018=
201812170720 METAR ESMX 170720Z 00000KT 9999 BKN047 M02/M02 Q1018=
201812170650 METAR ESMX 170650Z 21002KT 9999 BKN047 M03/M03 Q1017=
201812170620 METAR ESMX 170620Z 19001KT 9999 OVC048 M03/M03 Q1017=
201812170550 METAR ESMX 170550Z 00000KT 9999 BKN049 M03/M03 Q1017=
201812170520 METAR ESMX 170520Z 00000KT 9999 BKN049 M03/M03 Q1016=
201812170450 METAR ESMX 170450Z 15002KT 9999 BKN049 M04/M04 Q1016=
201812170420 METAR ESMX 170420Z AUTO 16001KT 9999 OVC053/// M04/M04 Q1016=
201812170350 METAR ESMX 170350Z AUTO 00000KT 7000 FEW051/// M05/M05 Q1016=
201812170320 METAR ESMX 170320Z AUTO 00000KT 6000 BR NCD M04/M04 Q1016=
201812170250 METAR ESMX 170250Z AUTO 00000KT 0900 R01/P2000N R19/P2000D BR SCT051/// M04/M04 Q1016=
201812170220 METAR ESMX 170220Z AUTO 06002KT 9999 SCT013/// M02/M02 Q1015=
201812170150 METAR ESMX 170150Z AUTO 00000KT 9999 FEW008/// OVC012/// M02/M02 Q1016=
201812170120 METAR ESMX 170120Z AUTO VRB03KT 9999 OVC007/// M02/M02 Q1016=
201812170050 METAR ESMX 170050Z AUTO 22004KT 9999 SCT002/// OVC008/// M02/M02 Q1015 RESHUP RESG=
201812170020 METAR ESMX 170020Z AUTO 21004KT 8000 FZUP BKN001/// BKN008/// OVC011/// M02/M02 Q1015 REFZUP=
201812162350 METAR ESMX 162350Z AUTO 19003KT 0150 R01/1200N R19/0375N FZFG VV000 M03/M03 Q1015=
201812162320 METAR ESMX 162320Z AUTO 00000KT 0300 R01/1100U R19/1000N FZFG NCD M03/M03 Q1015=
201812162250 METAR ESMX 162250Z AUTO 00000KT 0150 R01/0550N R19/0375N -SN FEW000/// SCT015/// BKN066/// M02/M02 Q1015=
201812162220 METAR ESMX 162220Z AUTO 19002KT 2100 -SN FEW055/// BKN070/// OVC088/// M02/M02 Q1015=
201812162150 METAR ESMX 162150Z AUTO 00000KT 1700 -SN BKN051/// OVC068/// M01/M01 Q1015=
201812162120 METAR ESMX 162120Z AUTO 00000KT 5000 -RASN SCT007/// OVC064/// M01/M01 Q1015=
201812162050 METAR ESMX 162050Z 00000KT 5000 -SN SCT002 BKN004 M01/M01 Q1015=
201812162020 METAR COR ESMX 162020Z 00000KT 5000 -SN FEW002 BKN005 M01/M01 Q1015=
201812161950 METAR ESMX 161950Z 00000KT 2400 -SN FEW003 BKN005 M01/M01 Q1015=
201812161920 METAR COR ESMX 161920Z VRB01KT 7000 -SN FEW005 BKN011 M01/M01 Q1015=
201812161850 METAR ESMX 161850Z VRB02KT 6000 -SN FEW006 BKN012 M01/M01 Q1015=
201812161820 METAR ESMX 161820Z AUTO VRB02KT 9000 -RASN SCT012/// BKN014/// BKN024/// M00/M01 Q1015=
201812161750 METAR ESMX 161750Z VRB03KT 8000 -SN FEW007 BKN070 M00/M00 Q1015=
201812161720 METAR ESMX 161720Z VRB03KT 9000 -SN SCT007 BKN070 M00/M00 Q1015=
201812161650 METAR ESMX 161650Z VRB03KT 8000 -SN FEW005 SCT035 BKN082 M00/M00 Q1016=
201812161620 METAR ESMX 161620Z 09003KT 050V160 4000 -SN BKN006 OVC010 M00/M00 Q1016=
201812161550 METAR ESMX 161550Z 09003KT 050V150 7000 -SN FEW005 BKN008 00/00 Q1016=
201812161520 METAR ESMX 161520Z 10004KT 050V150 8000 -SN BKN005 00/00 Q1016=
201812161450 METAR ESMX 161450Z 07003KT 020V130 4000 -SN FEW002 OVC004 00/00 Q1016 RESN=
201812161420 METAR ESMX 161420Z 06004KT 030V110 3000 SN FEW002 OVC005 00/00 Q1016=
201812161350 METAR ESMX 161350Z 07004KT 040V110 5000 -SN BKN006 00/00 Q1017=
201812161320 METAR ESMX 161320Z 06004KT 020V110 8000 -SN BKN007 00/00 Q1017=
201812161250 METAR COR ESMX 161250Z 08004KT 030V140 5000 -SN SCT006 BKN009 00/00 Q1017=
201812161220 METAR ESMX 161220Z 07003KT 340V140 4500 -SN FEW002 BKN007 01/01 Q1018=
201812161150 METAR ESMX 161150Z 08004KT 050V120 4500 -SN SCT002 BKN009 01/00 Q1018=
201812161120 METAR ESMX 161120Z AUTO 08004KT 020V120 4900 -SN SCT002/// BKN009/// OVC036/// 01/00 Q1019 RESG=
201812161050 METAR ESMX 161050Z AUTO 08004KT 350V140 7000 SG FEW002/// BKN010/// OVC020/// 01/00 Q1019 RESG REUP=
201812161020 METAR ESMX 161020Z AUTO 08004KT 030V110 9999 UP OVC009/// 01/00 Q1020 REUP=
201812160950 METAR ESMX 160950Z AUTO 08004KT 040V140 9999 OVC009/// 01/00 Q1020=
201812160920 METAR ESMX 160920Z AUTO 08004KT 030V150 9999 OVC010/// 01/00 Q1020=
201812160850 METAR ESMX 160850Z AUTO 09004KT 050V130 9999 BKN009/// OVC012/// 01/00 Q1021=
201812160820 METAR ESMX 160820Z AUTO 09004KT 030V140 9999 BKN010/// OVC034/// 01/00 Q1021=
201812160750 METAR ESMX 160750Z AUTO 10004KT 050V160 9999 OVC008/// 01/00 Q1021=
201812160720 METAR ESMX 160720Z AUTO VRB05KT 9999 OVC008/// 01/00 Q1021=
201812160650 METAR ESMX 160650Z AUTO 09005KT 010V140 9999 OVC007/// 01/01 Q1021=
201812160620 METAR ESMX 160620Z AUTO 10005KT 050V160 9999 OVC007/// 01/01 Q1021=
201812160550 METAR ESMX 160550Z AUTO 10005KT 060V140 9999 OVC006/// 01/01 Q1022 REUP=
201812160520 METAR ESMX 160520Z AUTO 10005KT 040V130 9999 -DZ OVC006/// 01/01 Q1022 RESHUP=
201812160450 METAR ESMX 160450Z AUTO 09004KT 050V160 9999 UP OVC006/// 01/01 Q1022=
201812160420 METAR ESMX 160420Z AUTO 08004KT 360V150 9999 UP FEW002/// OVC006/// 01/01 Q1023 RESG=
201812160350 METAR ESMX 160350Z AUTO 08005KT 030V120 9999 SG OVC006/// 01/01 Q1023 RESG=
201812160320 METAR ESMX 160320Z AUTO 07004KT 010V130 9999 SG OVC006/// 01/01 Q1023 REUP RESG=
201812160250 METAR ESMX 160250Z AUTO 07004KT 030V120 9999 UP OVC007/// 01/00 Q1024=
201812160220 METAR ESMX 160220Z AUTO 07005KT 030V110 9999 SG OVC007/// 01/00 Q1024 RESHUP=
201812160150 METAR ESMX 160150Z AUTO 07005KT 020V120 9999 UP OVC006/// 01/01 Q1025=
201812160120 METAR ESMX 160120Z AUTO 07005KT 360V120 9999 -SN OVC006/// 01/01 Q1025=
201812160050 METAR ESMX 160050Z AUTO 09006KT 050V140 9999 SG OVC006/// 01/01 Q1025=
201812160020 METAR ESMX 160020Z AUTO 09004KT 030V140 9999 SG OVC006/// 01/00 Q1026=
201812152350 METAR ESMX 152350Z AUTO 09005KT 040V180 9999 -SN OVC007/// 01/00 Q1026=
201812152320 METAR ESMX 152320Z AUTO VRB04KT 9999 UP OVC008/// 01/00 Q1026=
201812152250 METAR ESMX 152250Z AUTO 09005KT 040V180 9999 -SN OVC008/// 01/00 Q1027 REUP=
201812152220 METAR ESMX 152220Z AUTO 08004KT 030V140 9999 OVC008/// 01/00 Q1027 RESHUP REUP=
201812152150 METAR ESMX 152150Z AUTO 09003KT 020V140 9999 BKN008/// OVC035/// 01/M00 Q1028 REUP=
201812152120 METAR ESMX 152120Z AUTO 08004KT 010V130 9999 BKN009/// BKN036/// OVC053/// 01/M00 Q1028=
201812152050 METAR ESMX 152050Z AUTO 08004KT 030V120 9999 OVC008/// 01/M00 Q1028 RESHUP=
201812152020 METAR ESMX 152020Z AUTO 08005KT 030V160 9999 OVC009/// 01/M00 Q1028 RESHUP RESN=
201812151950 METAR ESMX 151950Z AUTO 07004KT 020V110 9999 BKN008/// OVC027/// 00/M00 Q1029 RESHUP=
201812151920 METAR ESMX 151920Z AUTO 07005KT 030V120 9999 -SN OVC008/// 00/M00 Q1029 RESHUP=
201812151850 METAR ESMX 151850Z AUTO 07004KT 030V110 9999 -SN OVC007/// 00/M00 Q1029=
201812151820 METAR ESMX 151820Z AUTO 06004KT 9999 -SN FEW002/// OVC007/// 00/M00 Q1029=
201812151750 METAR ESMX 151750Z AUTO 06004KT 030V090 6000 -SN OVC007/// 00/M00 Q1030=
201812151720 METAR ESMX 151720Z AUTO 05004KT 010V110 9999 -SN OVC009/// 00/M01 Q1030=
201812151650 METAR ESMX 151650Z AUTO 06005KT 9999 -SN OVC010/// 00/M01 Q1030 RESHUP REUP=
201812151620 METAR ESMX 151620Z AUTO 05006KT 020V090 9999 OVC011/// 00/M01 Q1030=
201812151550 METAR ESMX 151550Z AUTO 06006KT 9999 BKN013/// OVC018/// 00/M01 Q1030=
201812151520 METAR ESMX 151520Z AUTO 06005KT 020V110 9999 SCT015/// BKN017/// OVC031/// 00/M01 Q1031=
201812151450 METAR ESMX 151450Z AUTO 07005KT 030V100 9999 SCT010/// BKN017/// BKN029/// 00/M01 Q1031=
201812151420 METAR ESMX 151420Z AUTO 06005KT 020V100 9999 OVC011/// 00/M01 Q1031=
201812151350 METAR ESMX 151350Z AUTO 05006KT 9999 OVC011/// 00/M01 Q1031=
201812151320 METAR ESMX 151320Z AUTO 04005KT 010V080 9999 OVC013/// 00/M02 Q1032=
201812151250 METAR ESMX 151250Z AUTO 05005KT 020V090 9999 OVC014/// 00/M02 Q1031=
201812151220 METAR ESMX 151220Z AUTO 06005KT 020V100 9999 BKN016/// OVC078/// 00/M02 Q1031=
201812151150 METAR ESMX 151150Z AUTO 06005KT 9999 OVC080/// 00/M02 Q1032=
201812151120 METAR ESMX 151120Z AUTO 06004KT 020V100 9999 OVC082/// 00/M02 Q1032=
201812151050 METAR ESMX 151050Z AUTO 07004KT 030V110 9999 OVC082/// 00/M02 Q1032=
201812151020 METAR ESMX 151020Z AUTO 05004KT 020V090 9999 OVC082/// M00/M02 Q1033=
201812150950 METAR ESMX 150950Z 03004KT 360V070 CAVOK M00/M02 Q1033=
201812150920 METAR ESMX 150920Z 05005KT 030V090 CAVOK M00/M02 Q1033=
201812150850 METAR ESMX 150850Z 03003KT 340V060 CAVOK M00/M02 Q1033=
201812150820 METAR ESMX 150820Z 05005KT 030V100 CAVOK M01/M02 Q1033=
201812150750 METAR ESMX 150750Z AUTO 05005KT 030V100 9999 OVC082/// M01/M02 Q1033=
201812150720 METAR ESMX 150720Z AUTO 05004KT 010V080 9999 FEW053/// OVC082/// M01/M02 Q1032=
201812150650 METAR ESMX 150650Z AUTO 06004KT 030V100 9999 BKN053/// OVC082/// M01/M02 Q1032=
201812150620 METAR ESMX 150620Z AUTO 06004KT 020V100 9999 FEW053/// OVC082/// M01/M02 Q1032=
201812150550 METAR ESMX 150550Z AUTO 06005KT 020V100 9999 BKN049/// OVC082/// M01/M02 Q1032=
201812150520 METAR ESMX 150520Z AUTO 06005KT 020V100 9999 BKN049/// OVC082/// M01/M02 Q1032=
201812150450 METAR ESMX 150450Z AUTO 06004KT 020V110 9999 OVC049/// M00/M02 Q1032=
201812150420 METAR ESMX 150420Z AUTO 07005KT 020V110 9999 OVC049/// M01/M02 Q1032=
201812150350 METAR ESMX 150350Z AUTO 06005KT 9999 OVC051/// M00/M02 Q1032=
201812150320 METAR ESMX 150320Z AUTO 06005KT 030V130 9999 OVC051/// M00/M02 Q1032=
201812150250 METAR ESMX 150250Z AUTO 07004KT 040V120 9999 OVC048/// M00/M02 Q1032=
201812150220 METAR ESMX 150220Z AUTO 07004KT 040V110 9999 FEW030/// OVC047/// M00/M02 Q1032=
201812150150 METAR ESMX 150150Z AUTO 07004KT 030V120 9999 FEW027/// OVC046/// M00/M02 Q1032=
201812150120 METAR ESMX 150120Z AUTO 05005KT 010V100 9999 SCT028/// OVC049/// M00/M02 Q1032=
201812150050 METAR ESMX 150050Z AUTO 07004KT 030V110 9999 OVC048/// M00/M02 Q1032=
201812150020 METAR ESMX 150020Z AUTO 05005KT 030V090 9999 FEW030/// OVC045/// M00/M01 Q1032=
201812142350 METAR ESMX 142350Z AUTO 05005KT 360V100 9999 FEW026/// OVC046/// M00/M01 Q1032=
201812142320 METAR ESMX 142320Z AUTO 05006KT 9999 OVC025/// 00/M01 Q1032=
201812142250 METAR ESMX 142250Z AUTO 05006KT 020V090 9999 FEW025/// SCT029/// OVC041/// 00/M01 Q1032=
201812142220 METAR ESMX 142220Z AUTO 05007KT 9999 FEW010/// OVC043/// 00/M01 Q1032=
201812142150 METAR ESMX 142150Z AUTO 05008KT 9999 FEW009/// OVC040/// 00/M01 Q1032 RESHUP=
201812142120 METAR ESMX 142120Z AUTO 05007KT 020V100 9999 -SN BKN010/// BKN032/// OVC041/// 00/M01 Q1032 REUP=
201812142050 METAR ESMX 142050Z 04008KT 9999 -SN BKN009 00/M01 Q1032=
201812142020 METAR ESMX 142020Z 04008KT 9999 -SN BKN009 00/M01 Q1032=
201812141950 METAR COR ESMX 141950Z 04008KT 9999 BKN009 00/M01 Q1032=
201812141920 METAR ESMX 141920Z 04007KT 020V080 9999 SCT010 BKN041 00/M01 Q1032=
201812141850 METAR COR ESMX 141850Z 03009KT 9999 BKN042 00/M01 Q1031=
201812141820 METAR ESMX 141820Z 04008KT 9999 FEW009 BKN044 00/M01 Q1031=
201812141750 METAR ESMX 141750Z 02007KT 9999 BKN045 00/M01 Q1031=
201812141720 METAR ESMX 141720Z 04008KT 9999 BKN038 01/M01 Q1031=
201812141650 METAR ESMX 141650Z 04006KT 9999 BKN039 00/M01 Q1031=
201812141620 METAR ESMX 141620Z 04007KT 9999 BKN039 00/M01 Q1031=
201812141550 METAR ESMX 141550Z 04007KT 9999 FEW012 BKN041 01/M01 Q1031=
201812141520 METAR ESMX 141520Z 05007KT 9999 BKN041 01/M01 Q1031=
201812141450 METAR ESMX 141450Z 03008KT 9999 BKN041 01/M01 Q1031=
201812141420 METAR ESMX 141420Z 04008KT 9999 BKN037 01/M01 Q1031=
201812141350 METAR ESMX 141350Z 03006KT 9999 BKN037 01/M01 Q1030=
201812141320 METAR ESMX 141320Z 04006KT 360V070 9999 BKN035 01/M01 Q1030=
201812141250 METAR ESMX 141250Z 04005KT 9999 BKN034 01/M01 Q1030=
201812141220 METAR ESMX 141220Z 04005KT 360V080 9999 BKN036 01/M01 Q1030=
201812141150 METAR ESMX 141150Z 03008KT 9999 BKN036 01/M00 Q1030=
201812141120 METAR ESMX 141120Z 03007KT 9999 BKN036 01/M00 Q1030=
201812141050 METAR ESMX 141050Z 03007KT 9999 BKN036 01/M00 Q1030=
201812141020 METAR ESMX 141020Z 04006KT 9999 SCT009 BKN036 01/M00 Q1030=
201812140950 METAR ESMX 140950Z 04006KT 9999 BKN036 01/M00 Q1030=
201812140920 METAR ESMX 140920Z 03007KT 9999 FEW009 BKN034 01/M00 Q1030=
201812140850 METAR ESMX 140850Z 04008KT 9999 BKN034 01/M00 Q1030=
201812140820 METAR ESMX 140820Z 02007KT 9999 FEW016 BKN032 01/M00 Q1030=
201812140750 METAR ESMX 140750Z 04004KT 9999 FEW008 BKN034 00/00 Q1030=
201812140720 METAR ESMX 140720Z 03006KT 6000 -SN BKN008 01/00 Q1030=
201812140650 METAR ESMX 140650Z 03006KT 9999 BKN009 01/M00 Q1029=
201812140620 METAR ESMX 140620Z 04006KT 9999 FEW009 BKN035 01/M00 Q1029=
201812140550 METAR ESMX 140550Z 04006KT 9999 FEW024 BKN035 01/M00 Q1029=
201812140520 METAR ESMX 140520Z 04006KT 9999 FEW012 OVC033 01/M00 Q1029=
201812140450 METAR ESMX 140450Z AUTO 05004KT 020V080 9999 OVC036/// 01/00 Q1029=
201812140420 METAR ESMX 140420Z AUTO 04006KT 9999 SCT008/// BKN011/// BKN014/// 01/00 Q1029=
201812140350 METAR ESMX 140350Z AUTO 04007KT 9999 OVC007/// 01/00 Q1029=
201812140320 METAR ESMX 140320Z AUTO 04007KT 9999 OVC006/// 00/00 Q1029 RESHUP=
201812140250 METAR ESMX 140250Z AUTO 03007KT 9999 BKN006/// OVC010/// 00/00 Q1029 REUP=
201812140220 METAR ESMX 140220Z AUTO 04006KT 020V080 9999 FEW002/// OVC006/// 00/00 Q1029=
201812140150 METAR ESMX 140150Z AUTO 04007KT 9999 OVC006/// 00/00 Q1029=
201812140120 METAR ESMX 140120Z AUTO 01009KT 9999 OVC006/// 00/M00 Q1029=
201812140050 METAR ESMX 140050Z AUTO 01010KT 9999 OVC007/// 00/M00 Q1029=
201812140020 METAR ESMX 140020Z AUTO 03008KT 9999 OVC007/// 00/M00 Q1029 RESG=
201812132350 METAR ESMX 132350Z AUTO 03007KT 9999 SG OVC007/// 00/M00 Q1029=
201812132320 METAR ESMX 132320Z AUTO 03007KT 9999 -SN OVC007/// 00/00 Q1029=
201812132250 METAR ESMX 132250Z AUTO 03007KT 9000 -SN BKN007/// OVC024/// 00/00 Q1029 RESG=
201812132220 METAR ESMX 132220Z AUTO 03007KT 6000 -SN OVC007/// 00/00 Q1029=
201812132150 METAR ESMX 132150Z AUTO 04008KT 9999 -SN OVC006/// 00/00 Q1029=
201812132120 METAR ESMX 132120Z AUTO 04007KT 9999 -SN OVC006/// 00/00 Q1028=
201812132050 METAR ESMX 132050Z AUTO 01008KT 5000 -SN FEW002/// OVC006/// M00/M00 Q1028=
201812132020 METAR ESMX 132020Z AUTO 01009KT 9000 -SN FEW002/// OVC007/// M00/M00 Q1028=
201812131950 METAR ESMX 131950Z AUTO 01009KT 9999 -SN BKN007/// OVC014/// M00/M01 Q1028 RESN=
201812131920 METAR ESMX 131920Z AUTO 01009KT 9999 BKN008/// OVC011/// M00/M01 Q1028=
201812131850 METAR ESMX 131850Z AUTO 01008KT 7000 SG FEW001/// BKN006/// BKN009/// M01/M01 Q1028=
201812131820 METAR ESMX 131820Z 01010KT 5000 -SN SCT009 BKN021 M01/M01 Q1028=
201812131750 METAR ESMX 131750Z 01010KT 9999 -SN FEW006 BKN023 M00/M01 Q1028=
201812131720 METAR ESMX 131720Z 01010KT 9999 -SN SCT011 BKN021 M00/M01 Q1028=
201812131650 METAR ESMX 131650Z 01010KT 9000 -SN BKN011 M00/M01 Q1028=
201812131620 METAR COR ESMX 131620Z 02011KT 9999 -SN BKN011 M00/M02 Q1028=
201812131550 METAR ESMX 131550Z 02010KT 9999 -SN FEW013 BKN023 M00/M02 Q1028=
201812131520 METAR ESMX 131520Z 01011KT 9999 -SN FEW002 SCT011 BKN015 M00/M01 Q1028=
201812131450 METAR ESMX 131450Z 35010KT 9999 -SN SCT020 BKN032 00/M01 Q1028=
201812131420 METAR ESMX 131420Z 01010KT 9999 -SN SCT013 BKN018 00/M01 Q1028=
201812131350 METAR ESMX 131350Z 01009KT 9999 FEW003 BKN013 00/M01 Q1028=
201812131320 METAR ESMX 131320Z 01009KT 9999 BKN013 01/M01 Q1028=
201812131250 METAR ESMX 131250Z 02010KT 9999 BKN012 01/M01 Q1028=
201812131220 METAR ESMX 131220Z 01009KT 9999 BKN011 01/M01 Q1029=
201812131150 METAR ESMX 131150Z 03009KT 9999 FEW006 BKN010 01/M01 Q1029=
201812131120 METAR ESMX 131120Z 01008KT 9999 OVC011 01/M01 Q1029=
201812131050 METAR ESMX 131050Z 02008KT 9999 BKN010 01/M00 Q1029=
201812131020 METAR ESMX 131020Z 36009KT 9999 BKN009 01/M00 Q1029=
201812130950 METAR ESMX 130950Z 02008KT 9999 BKN008 00/M00 Q1029=
201812130920 METAR ESMX 130920Z 02008KT 8000 -SN BKN008 00/M00 Q1029=
201812130850 METAR ESMX 130850Z 01007KT 9999 FEW007 BKN010 00/M00 Q1029=
201812130820 METAR ESMX 130820Z 01008KT 9999 -SN FEW001 BKN009 00/M00 Q1029=
201812130750 METAR ESMX 130750Z 01008KT 9999 BKN009 00/M00 Q1029=
201812130720 METAR ESMX 130720Z 01007KT 9999 BKN010 00/M00 Q1029=
201812130650 METAR ESMX 130650Z 01007KT 9999 OVC010 00/M00 Q1029=
201812130620 METAR ESMX 130620Z 02007KT 9999 BKN006 00/M00 Q1029=
201812130550 METAR ESMX 130550Z 01007KT 4800 SN SCT002 OVC005 M00/M00 Q1029=
201812130520 METAR ESMX 130520Z 01007KT 9999 -SN OVC006 00/M00 Q1029=
201812130450 METAR ESMX 130450Z 01007KT 9999 -SN OVC007 00/M00 Q1029=
201812130420 METAR ESMX 130420Z AUTO 01007KT 9999 OVC007/// 00/M00 Q1029=
201812130350 METAR ESMX 130350Z AUTO 03007KT 9999 OVC007/// 00/M00 Q1029=
201812130320 METAR ESMX 130320Z AUTO 01008KT 9999 OVC007/// 00/M00 Q1030=
201812130250 METAR ESMX 130250Z AUTO 03008KT 9999 OVC007/// 00/M00 Q1030=
201812130220 METAR ESMX 130220Z AUTO 01006KT 9999 SG OVC007/// 00/M00 Q1030=
201812130150 METAR ESMX 130150Z AUTO 03006KT 9999 -SN SCT007/// BKN009/// BKN013/// 00/M00 Q1030 RESHUP REDZ=
201812130120 METAR ESMX 130120Z AUTO 03007KT 9999 SCT008/// BKN014/// OVC017/// 00/M00 Q1030 RESHUP RESN=
201812130050 METAR ESMX 130050Z AUTO 01007KT 9999 OVC008/// 00/M00 Q1030 RESG=
201812130020 METAR ESMX 130020Z AUTO 02007KT 9999 SG OVC009/// M00/M00 Q1030 RESG REFZUP=
201812122350 METAR ESMX 122350Z AUTO 36006KT 9999 -SN FEW002/// OVC008/// M00/M01 Q1030=
201812122320 METAR ESMX 122320Z AUTO 02007KT 9999 OVC009/// M00/M01 Q1030=
201812122250 METAR ESMX 122250Z AUTO 02007KT 9999 BKN010/// BKN013/// OVC041/// M00/M01 Q1030=
201812122220 METAR ESMX 122220Z AUTO 02007KT 9999 SCT011/// BKN021/// OVC037/// M00/M01 Q1030=
201812122150 METAR ESMX 122150Z AUTO 01008KT 9999 BKN011/// OVC035/// M00/M01 Q1030=
201812122120 METAR ESMX 122120Z 01008KT 9999 -SN SCT012 BKN017 M00/M01 Q1030=
201812122050 METAR ESMX 122050Z 01008KT 9999 -SN SCT010 BKN020 M00/M01 Q1030=
201812122020 METAR ESMX 122020Z 01009KT 9999 BKN014 M00/M02 Q1030=
201812121950 METAR ESMX 121950Z 01009KT 9999 -SN BKN017 M00/M02 Q1030=
201812121920 METAR ESMX 121920Z 01009KT 9999 BKN025 M00/M02 Q1030=
201812121850 METAR ESMX 121850Z 36009KT 9999 BKN023 M00/M02 Q1030=
201812121820 METAR ESMX 121820Z 01009KT 9999 BKN020 M00/M02 Q1030=
201812121750 METAR ESMX 121750Z 02008KT 9999 BKN018 M00/M02 Q1030=
201812121720 METAR ESMX 121720Z 01007KT 9999 BKN017 M00/M02 Q1030=
201812121650 METAR ESMX 121650Z 04007KT 010V080 9999 -SN BKN016 M00/M02 Q1030=
201812121620 METAR ESMX 121620Z 03008KT 9999 -SN BKN016 M00/M02 Q1030=
201812121550 METAR ESMX 121550Z 03009KT 9999 -SN FEW002 BKN014 M00/M02 Q1030=
201812121520 METAR ESMX 121520Z 01010KT 9999 -SN BKN011 M00/M02 Q1030=
201812121450 METAR ESMX 121450Z 03009KT 9999 -SN BKN016 M00/M02 Q1029=
201812121420 METAR ESMX 121420Z 02010KT 9999 BKN013 M00/M02 Q1029=
201812121320 METAR ESMX 121320Z 03008KT 9999 -SN BKN010 00/M01 Q1029=
201812121250 METAR ESMX 121250Z 35012KT 9999 BKN010 00/M01 Q1029=
201812121220 METAR ESMX 121220Z 36007KT 9999 BKN010 01/M00 Q1029=
201812121150 METAR ESMX 121150Z 01009KT 9999 BKN010 01/M00 Q1029=
201812121120 METAR ESMX 121120Z 36010KT 9999 BKN010 01/M01 Q1029=
201812121050 METAR ESMX 121050Z 36009KT 9999 BKN010 01/M00 Q1028=
201812121020 METAR ESMX 121020Z 03011KT 9999 BKN012 01/M01 Q1028=
201812120950 METAR ESMX 120950Z 02010KT 9999 BKN009 01/M00 Q1028=
201812120920 METAR ESMX 120920Z 36009KT 9999 BKN009 02/01 Q1028=
201812120850 METAR ESMX 120850Z 02008KT 9999 FEW010 SCT021 02/00 Q1028=
201812120820 METAR ESMX 120820Z 01008KT 9999 FEW010 SCT016 02/01 Q1028=
201812120750 METAR ESMX 120750Z 02008KT 9999 BKN011 02/01 Q1027=
201812120720 METAR ESMX 120720Z 01008KT 9999 BKN013 02/01 Q1027=
201812120650 METAR ESMX 120650Z 01008KT 9999 BKN011 02/01 Q1027=
201812120620 METAR ESMX 120620Z 01008KT 9999 BKN012 02/01 Q1027=
201812120550 METAR ESMX 120550Z 01007KT 9999 BKN011 02/02 Q1026=
201812120520 METAR ESMX 120520Z 01008KT 9999 BKN010 02/02 Q1026=
201812120450 METAR ESMX 120450Z 01008KT 9999 FEW008 BKN016 02/02 Q1026=
201812120420 METAR ESMX 120420Z AUTO 01008KT 9999 SCT007/// BKN018/// 02/02 Q1025=
201812120350 METAR ESMX 120350Z AUTO 02009KT 9999 -DZ SCT007/// BKN010/// OVC015/// 02/02 Q1025 RESHUP RERA=
201812120320 METAR ESMX 120320Z AUTO 01008KT 9999 BKN009/// OVC011/// 02/02 Q1025 RESHUP=
201812120250 METAR ESMX 120250Z AUTO 35009KT 9999 BKN010/// BKN043/// OVC068/// 02/01 Q1025 REUP=
201812120220 METAR ESMX 120220Z AUTO 35008KT 9999 BKN009/// OVC013/// 02/01 Q1024=
201812120150 METAR ESMX 120150Z AUTO 36008KT 9999 BKN009/// OVC024/// 02/01 Q1024=
201812120120 METAR ESMX 120120Z AUTO 35009KT 9999 BKN009/// OVC022/// 02/01 Q1024=
201812120050 METAR ESMX 120050Z AUTO 01010KT 9999 BKN009/// OVC011/// 02/01 Q1024=
201812120020 METAR ESMX 120020Z AUTO 01009KT 9999 BKN007/// OVC009/// 02/02 Q1024=
201812112350 METAR ESMX 112350Z AUTO 35008KT 9999 BKN007/// OVC012/// 02/02 Q1023=
201812112320 METAR ESMX 112320Z AUTO 36008KT 9999 OVC007/// 02/02 Q1023=
201812112250 METAR ESMX 112250Z AUTO 35009KT 9999 BKN008/// OVC017/// 02/01 Q1023=
201812112220 METAR ESMX 112220Z AUTO 01007KT 9999 SCT017/// 01/01 Q1022=
201812112150 METAR ESMX 112150Z 01007KT 9999 FEW012 OVC025 02/01 Q1022=
201812112120 METAR ESMX 112120Z 01008KT 9999 BKN017 02/01 Q1022=
201812112050 METAR ESMX 112050Z 01008KT 9999 BKN014 02/01 Q1022=
201812112020 METAR ESMX 112020Z 01010KT 9999 BKN016 02/01 Q1022=
201812111950 METAR ESMX 111950Z 02010KT 9999 OVC015 02/01 Q1021=
201812111920 METAR ESMX 111920Z 02010KT 9999 OVC014 02/01 Q1021=
201812111850 METAR ESMX 111850Z 02010KT 9999 BKN009 02/02 Q1020=
201812111820 METAR ESMX 111820Z 02010KT 9999 -RA OVC010 03/02 Q1020=
201812111750 METAR ESMX 111750Z 02010KT 9999 OVC009 02/02 Q1019=
201812111720 METAR ESMX 111720Z 02010KT 9999 OVC009 02/02 Q1019=
201812111650 METAR ESMX 111650Z 02010KT 9999 BKN008 02/02 Q1019=
201812111620 METAR ESMX 111620Z 01011KT 9999 -RA OVC007 02/02 Q1018=
201812111550 METAR ESMX 111550Z 36010KT 9999 -RASN BKN006 02/02 Q1018=
201812111520 METAR ESMX 111520Z 36011KT 7000 -SNRA BKN006 02/02 Q1017=
201812111450 METAR ESMX 111450Z 35011KT 9999 BKN007 02/02 Q1017=
201812111420 METAR ESMX 111420Z 36011KT 9999 -DZ BKN008 02/02 Q1017=
201812111350 METAR ESMX 111350Z 35012KT 9999 BKN010 03/02 Q1016=
201812111320 METAR ESMX 111320Z 35011KT 9999 BKN010 03/02 Q1016=
201812111250 METAR ESMX 111250Z 35011KT 9999 BKN010 03/02 Q1015=
201812111220 METAR ESMX 111220Z 01011KT 9999 BKN010 03/02 Q1015=
201812111150 METAR ESMX 111150Z 02013KT 9999 BKN011 03/02 Q1014=
201812111120 METAR ESMX 111120Z 36011KT 9999 BKN010 03/02 Q1014=
201812111050 METAR ESMX 111050Z 36012KT 9999 BKN009 03/02 Q1013=
201812111020 METAR ESMX 111020Z 35012KT 9999 BKN011 03/02 Q1013=
201812110950 METAR ESMX 110950Z 35013KT 9999 BKN011 03/02 Q1013=
201812110920 METAR ESMX 110920Z 35012KT 9999 BKN010 02/02 Q1012=
201812110850 METAR ESMX 110850Z 35012KT 9999 BKN009 02/02 Q1012=
201812110820 METAR ESMX 110820Z 34011KT 9999 BKN009 02/02 Q1011=
201812110750 METAR ESMX 110750Z 35011KT 9999 BKN010 02/01 Q1011=
201812110720 METAR ESMX 110720Z 34012KT 9999 BKN010 02/01 Q1010=
201812110650 METAR COR ESMX 110650Z 35013KT 9999 BKN011 02/01 Q1010=
201812110620 METAR ESMX 110620Z 34013KT 9999 -RA OVC010 02/01 Q1009=
201812110550 METAR ESMX 110550Z 35012KT 9999 -RASN BKN008 02/02 Q1009=
201812110520 METAR ESMX 110520Z 35011KT 9999 -RASN OVC007 02/02 Q1008=
201812110450 METAR ESMX 110450Z 35012KT 9999 OVC006 02/02 Q1008=
201812110420 METAR ESMX 110420Z AUTO 35012KT 9999 -DZ OVC006/// 02/01 Q1008 RERA=
201812110350 METAR ESMX 110350Z AUTO 35011KT 9999 -RA OVC007/// 01/01 Q1007 RESN=
201812110320 METAR ESMX 110320Z AUTO 34009KT 9999 OVC007/// 01/01 Q1007 RESG=
201812110250 METAR ESMX 110250Z AUTO 33008KT 7000 SG BKN007/// OVC009/// 01/01 Q1006=
201812110220 METAR ESMX 110220Z AUTO 31006KT 9999 -SN OVC009/// 00/00 Q1006=
201812110150 METAR ESMX 110150Z AUTO 32006KT 9999 -SN BKN013/// BKN035/// OVC041/// M00/M00 Q1006 REFZUP=
201812110120 METAR ESMX 110120Z AUTO 34007KT 9999 SCT011/// BKN021/// OVC043/// M00/M01 Q1005=
201812110050 METAR ESMX 110050Z AUTO 35009KT 9999 SCT016/// BKN031/// BKN094/// M00/M01 Q1005=
201812110020 METAR ESMX 110020Z AUTO 01011KT 9999 BKN031/// M00/M02 Q1005=
201812102350 METAR ESMX 102350Z AUTO 02011KT 9999 FEW011/// M00/M01 Q1004=
201812102320 METAR ESMX 102320Z 36012KT 9999 -SN SCT010 01/00 Q1003=
201812102250 METAR ESMX 102250Z 35009KT 4600 -SN SCT002 BKN006 01/01 Q1002=
201812102220 METAR ESMX 102220Z 33008KT 9999 BKN007 01/01 Q1002=
201812102150 METAR ESMX 102150Z 33006KT 9999 SCT004 BKN007 01/01 Q1001=
201812102120 METAR ESMX 102120Z 33006KT 4800 BR FEW003 BKN006 01/01 Q1001=
201812102050 METAR ESMX 102050Z 30005KT 7000 -SN FEW002 SCT007 BKN013 01/01 Q1000=
201812102020 METAR ESMX 102020Z 32006KT 6000 -SN FEW009 SCT016 01/01 Q1000=
201812101950 METAR ESMX 101950Z 31006KT 9999 BKN008 01/01 Q1000=
201812101920 METAR ESMX 101920Z 30007KT 8000 -SN SCT005 BKN013 01/01 Q0999=
201812101850 METAR ESMX 101850Z 29007KT 5000 -SN FEW009 SCT021 01/01 Q0999=
201812101820 METAR ESMX 101820Z 27007KT 6000 -SN FEW007 SCT015 01/01 Q0998=
201812101750 METAR ESMX 101750Z 29007KT 9999 SG SCT053 01/00 Q0998=
201812101720 METAR ESMX 101720Z 29008KT 9999 FEW018 SCT039 01/M00 Q0998=
201812101650 METAR ESMX 101650Z 29009KT 9999 FEW021 BKN042 02/M00 Q0998=
201812101620 METAR ESMX 101620Z 29009KT 9999 BKN049 02/M00 Q0997=
201812101550 METAR ESMX 101550Z 28007KT 9999 BKN033 02/00 Q0997=
201812101520 METAR ESMX 101520Z 28007KT 9999 FEW028 BKN038 02/00 Q0997=
201812101450 METAR ESMX 101450Z 28007KT 9999 SCT040 02/00 Q0997=
201812101420 METAR ESMX 101420Z 28007KT 9999 SCT041 02/00 Q0997=
201812101350 METAR ESMX 101350Z 28007KT 9999 BKN038 02/00 Q0997=
201812101320 METAR ESMX 101320Z 26006KT 230V290 9999 BKN036 02/00 Q0996=
201812101250 METAR ESMX 101250Z 28006KT 9999 SCT036 02/00 Q0996=
201812101220 METAR ESMX 101220Z 27005KT CAVOK 02/00 Q0996=
201812101150 METAR ESMX 101150Z 25007KT CAVOK 01/00 Q0996=
201812101120 METAR ESMX 101120Z 25005KT CAVOK 01/00 Q0996=
201812101050 METAR ESMX 101050Z 25006KT CAVOK 01/00 Q0996=
201812101020 METAR ESMX 101020Z 24006KT CAVOK 01/00 Q0996=
201812100950 METAR ESMX 100950Z 24007KT CAVOK 01/M00 Q0996=
201812100920 METAR ESMX 100920Z 25007KT CAVOK 00/M00 Q0996=
201812100850 METAR ESMX 100850Z 25006KT CAVOK M00/M01 Q0995=
201812100820 METAR ESMX 100820Z 25006KT CAVOK M01/M01 Q0995=
201812100750 METAR ESMX 100750Z 25007KT CAVOK M01/M01 Q0995=
201812100720 METAR ESMX 100720Z 25006KT CAVOK M01/M01 Q0995=
201812100650 METAR ESMX 100650Z 25006KT CAVOK M01/M01 Q0995=
201812100620 METAR ESMX 100620Z 25008KT CAVOK M01/M01 Q0994=
201812100550 METAR ESMX 100550Z 25006KT CAVOK M01/M01 Q0994=
201812100520 METAR ESMX 100520Z 25006KT CAVOK M01/M01 Q0994=
201812100450 METAR ESMX 100450Z 25007KT CAVOK M01/M01 Q0993=
201812100420 METAR ESMX 100420Z AUTO 25006KT 9999 NCD M01/M01 Q0993=
201812100350 METAR ESMX 100350Z AUTO 26004KT 9999 NCD M01/M01 Q0993=
201812100320 METAR ESMX 100320Z AUTO 27005KT 9999 NCD M01/M01 Q0993=
201812100250 METAR ESMX 100250Z AUTO 25004KT 9999 NCD M02/M02 Q0993=
201812100220 METAR ESMX 100220Z AUTO 25004KT 9999 NCD M01/M01 Q0993=
201812100150 METAR ESMX 100150Z AUTO 25005KT 9999 NCD M01/M01 Q0992=
201812100120 METAR ESMX 100120Z AUTO 26004KT 9999 NCD M01/M01 Q0992=
201812100050 METAR ESMX 100050Z AUTO 26006KT 9999 NCD M01/M01 Q0992=
201812100020 METAR ESMX 100020Z AUTO 25006KT 9999 NCD M01/M01 Q0992=
201812092350 METAR ESMX 092350Z AUTO 25006KT 9999 NCD M01/M01 Q0991=
201812092320 METAR ESMX 092320Z AUTO 26006KT 9999 NCD M01/M01 Q0991=
201812092250 METAR ESMX 092250Z AUTO 25005KT 9999 NCD M01/M01 Q0991=
201812092220 METAR ESMX 092220Z AUTO 27006KT 9999 NCD M01/M01 Q0991=
201812092150 METAR ESMX 092150Z AUTO 27006KT 9999 FEW130/// M00/M01 Q0990=
201812092120 METAR ESMX 092120Z AUTO 29005KT 250V320 9999 NCD M00/M01 Q0990=
201812092050 METAR ESMX 092050Z AUTO 31008KT 9999 FEW013/// BKN130/// 00/M00 Q0990=
201812092020 METAR ESMX 092020Z AUTO 31011KT 9999 FEW110/// BKN130/// 01/00 Q0989=
201812091950 METAR ESMX 091950Z AUTO 31012KT 9999 FEW006/// BKN011/// OVC014/// 02/01 Q0988 RESHUP REDZ=
201812091920 METAR ESMX 091920Z AUTO 30008KT 9999 FEW006/// SCT010/// BKN019/// 03/02 Q0987=
201812091850 METAR ESMX 091850Z AUTO 30007KT 9999 BKN012/// BKN019/// OVC026/// 03/03 Q0987=
201812091820 METAR ESMX 091820Z 29005KT 9999 -DZ BKN008 04/04 Q0986=
201812091750 METAR ESMX 091750Z 26004KT 9999 SCT010 BKN023 04/04 Q0986=
201812091720 METAR ESMX 091720Z 26004KT 9999 FEW006 BKN013 04/04 Q0985=
201812091650 METAR ESMX 091650Z 23004KT 200V260 9999 BKN006 04/04 Q0985=
201812091620 METAR ESMX 091620Z 23004KT 9999 BKN011 04/04 Q0985=
201812091550 METAR ESMX 091550Z 22004KT 9999 BKN025 04/04 Q0984=
201812091520 METAR ESMX 091520Z 22005KT 9999 BKN028 04/04 Q0984=
201812091450 METAR ESMX 091450Z 22006KT 9999 BKN028 04/04 Q0984=
201812091420 METAR ESMX 091420Z 22005KT 9999 BKN028 04/04 Q0983=
201812091350 METAR ESMX 091350Z 23006KT 9999 BKN027 05/04 Q0983=
201812091320 METAR ESMX 091320Z 23005KT 9999 BKN027 05/04 Q0982=
201812091250 METAR ESMX 091250Z 24007KT 9999 BKN024 05/04 Q0982=
201812091220 METAR ESMX 091220Z 24006KT 9999 BKN022 05/04 Q0982=
201812091150 METAR ESMX 091150Z 22006KT 9999 FEW011 BKN023 05/05 Q0982=
201812091120 METAR ESMX 091120Z 21006KT 9999 FEW006 BKN022 05/05 Q0982=
201812091050 METAR ESMX 091050Z 21005KT 9999 FEW005 BKN027 05/05 Q0981=
201812091020 METAR ESMX 091020Z 19005KT 9999 BKN035 04/04 Q0981=
201812090950 METAR ESMX 090950Z AUTO 19005KT 9999 SCT036/// 04/04 Q0981=
201812090920 METAR ESMX 090920Z AUTO 21005KT 9999 FEW032/// SCT040/// 04/04 Q0981=
201812090850 METAR ESMX 090850Z AUTO 17006KT 9999 FEW016/// BKN024/// OVC034/// 04/04 Q0981=
201812090820 METAR ESMX 090820Z AUTO 19004KT 9999 BKN006/// OVC022/// 04/04 Q0980=
201812090750 METAR ESMX 090750Z AUTO 19004KT 9999 SCT009/// BKN013/// BKN020/// 04/04 Q0980=
201812090720 METAR ESMX 090720Z AUTO 22004KT 170V250 4900 DZ SCT006/// BKN011/// OVC036/// 04/04 Q0980=
201812090650 METAR ESMX 090650Z AUTO 20005KT 9999 -RA FEW004/// SCT007/// BKN011/// 04/04 Q0979 REDZ=
201812090620 METAR ESMX 090620Z AUTO 22006KT 9999 DZ BKN005/// OVC007/// 05/05 Q0979=
201812090550 METAR ESMX 090550Z AUTO 23007KT 9999 DZ BKN009/// BKN021/// OVC036/// 05/05 Q0979=
201812090520 METAR ESMX 090520Z AUTO 22009KT 9000 -RA FEW010/// SCT016/// BKN028/// 05/05 Q0978=
201812090450 METAR ESMX 090450Z AUTO 22009KT 2000 RA FEW002/// BKN006/// BKN019/// 05/05 Q0978=
201812090420 METAR ESMX 090420Z AUTO 21011KT 4300 -RA BKN006/// BKN011/// OVC024/// 06/06 Q0978=
201812090350 METAR ESMX 090350Z AUTO 20013KT 3200 RA BKN007/// BKN009/// OVC019/// 06/06 Q0978 REDZ=
201812090320 METAR ESMX 090320Z AUTO 20013KT 6000 DZ SCT008/// BKN011/// OVC025/// 06/05 Q0977 REDZ=
201812090250 METAR ESMX 090250Z AUTO 20014KT 9999 -RA FEW006/// SCT008/// BKN010/// 06/05 Q0977=
201812090220 METAR ESMX 090220Z AUTO 20015KT 4700 DZ BKN007/// BKN011/// OVC020/// 06/06 Q0977=
201812090150 METAR ESMX 090150Z AUTO 20016KT 8000 -RA BKN007/// BKN011/// OVC020/// 06/06 Q0977 REDZ=
201812090120 METAR ESMX 090120Z AUTO 19017KT 6000 DZ FEW002/// BKN006/// BKN009/// 06/06 Q0977=
201812090050 METAR ESMX 090050Z AUTO 19017KT 4900 RA BKN007/// BKN013/// OVC019/// 06/06 Q0977 RESHRA=
201812090020 METAR ESMX 090020Z AUTO 19017KT 4100 RA FEW002/// BKN006/// BKN008/// 06/06 Q0978=
201812082350 METAR ESMX 082350Z AUTO 18016KT 7000 DZ FEW007/// BKN010/// OVC015/// 06/05 Q0978=
201812082320 METAR ESMX 082320Z AUTO 19016KT 9999 -RA FEW005/// OVC009/// 06/06 Q0978=
201812082250 METAR ESMX 082250Z AUTO 19016KT 9999 -RA BKN009/// BKN013/// OVC021/// 06/06 Q0978=
201812082220 METAR ESMX 082220Z AUTO 19013KT 9999 -RA FEW009/// BKN018/// BKN024/// 05/05 Q0979=
201812082150 METAR ESMX 082150Z AUTO 21015KT 9999 -RA FEW005/// BKN009/// BKN020/// 06/06 Q0979 RESHRA=
201812082120 METAR ESMX 082120Z AUTO 19014KT 9999 DZ BKN006/// OVC010/// 06/06 Q0979=
201812082050 METAR ESMX 082050Z AUTO 19016KT 8000 -RA BKN006/// OVC008/// 06/06 Q0979=
201812082020 METAR ESMX 082020Z AUTO 19013KT 5000 DZ BKN005/// BKN009/// OVC022/// 06/06 Q0979=
201812081950 METAR ESMX 081950Z AUTO 18012KT 7000 BR FEW002/// SCT006/// BKN008/// 06/06 Q0980=
201812081920 METAR ESMX 081920Z AUTO 19014KT 8000 -RA SCT005/// OVC008/// 06/06 Q0980 REDZ=
201812081850 METAR ESMX 081850Z AUTO 18011KT 5000 -RA FEW002/// SCT006/// BKN008/// 06/06 Q0980=
201812081820 METAR ESMX 081820Z AUTO 19013KT 9999 DZ FEW007/// SCT011/// BKN019/// 06/05 Q0981=
201812081750 METAR ESMX 081750Z AUTO 18014KT 9999 -RA BKN006/// OVC009/// 06/06 Q0981=
201812081720 METAR ESMX 081720Z AUTO 19012KT 9999 FEW002/// OVC005/// 06/06 Q0981=
201812081650 METAR ESMX 081650Z AUTO 18013KT 9999 -DZ OVC005/// 06/05 Q0982 RERA=
201812081620 METAR ESMX 081620Z AUTO 19011KT 9999 -RA OVC004/// 05/05 Q0982 RERA=
201812081550 METAR ESMX 081550Z AUTO 16011KT 6000 BR FEW002/// BKN004/// OVC006/// 05/05 Q0982=
201812081520 METAR ESMX 081520Z AUTO 16010KT 9999 -DZ BKN004/// OVC009/// 04/04 Q0983=
201812081450 METAR ESMX 081450Z AUTO 15010KT 9999 DZ OVC003/// 03/03 Q0983=
201812081420 METAR ESMX 081420Z AUTO 15010KT 9999 DZ BKN004/// OVC006/// 03/03 Q0984=
201812081350 METAR ESMX 081350Z AUTO 15009KT 8000 -RA OVC007/// 03/03 Q0984=
201812081320 METAR ESMX 081320Z AUTO 17013KT 9999 -DZ OVC007/// 04/03 Q0985=
201812081250 METAR ESMX 081250Z AUTO 17013KT 9999 FEW002/// OVC007/// 04/03 Q0985 REDZ=
201812081220 METAR ESMX 081220Z AUTO 18012KT 9999 OVC008/// 04/03 Q0986 RESHUP REDZ=
201812081150 METAR ESMX 081150Z AUTO 19016KT 9999 FEW002/// OVC007/// 04/04 Q0986=
201812081120 METAR ESMX 081120Z AUTO 19011KT 7000 DZ FEW002/// BKN005/// BKN007/// 05/04 Q0986=
201812081050 METAR ESMX 081050Z AUTO 19013KT 6000 DZ FEW007/// OVC010/// 05/04 Q0987 REDZ=
201812081020 METAR ESMX 081020Z AUTO 19013KT 9999 OVC010/// 05/04 Q0987 RESHUP=
201812080950 METAR ESMX 080950Z 21011KT 9999 BKN009 05/04 Q0987=
201812080920 METAR ESMX 080920Z 20012KT 9999 BKN012 05/05 Q0988=
201812080850 METAR ESMX 080850Z 21011KT 9999 BKN008 05/05 Q0988=
201812080820 METAR ESMX 080820Z 22011KT 9999 BKN008 05/05 Q0988=
201812080750 METAR ESMX 080750Z AUTO 22011KT 8000 -DZ BKN008/// OVC012/// 05/05 Q0988 REDZ REUP=
201812080720 METAR ESMX 080720Z AUTO 21011KT 9999 OVC009/// 05/05 Q0987=
201812080650 METAR ESMX 080650Z AUTO 21010KT 9999 BKN009/// OVC011/// 05/05 Q0987=
201812080620 METAR ESMX 080620Z AUTO 22009KT 9999 BKN010/// OVC013/// 05/05 Q0987=
201812080550 METAR ESMX 080550Z AUTO 23009KT 9999 -DZ SCT008/// BKN010/// OVC013/// 05/05 Q0987=
201812080520 METAR ESMX 080520Z AUTO 23008KT 9999 -DZ FEW005/// OVC007/// 05/05 Q0987 REUP RESHUP=
201812080450 METAR ESMX 080450Z AUTO 25009KT 220V280 9999 OVC009/// 05/05 Q0986=
201812080420 METAR ESMX 080420Z AUTO 25012KT 9999 OVC009/// 06/05 Q0986=
201812080350 METAR ESMX 080350Z AUTO 26009G19KT 9000 -DZ BKN008/// BKN036/// OVC098/// 06/06 Q0986 RESHUP REDZ=
201812080320 METAR ESMX 080320Z AUTO 25013KT 9999 BKN009/// OVC015/// 06/06 Q0985 REDZ=
201812080250 METAR ESMX 080250Z AUTO 25015KT 9999 FEW002/// SCT005/// OVC008/// 07/07 Q0985=
201812080220 METAR ESMX 080220Z AUTO 18010KT 8000 DZ OVC005/// 09/09 Q0985=
201812080150 METAR ESMX 080150Z AUTO 17010KT 9999 DZ BKN005/// OVC010/// 09/09 Q0985 REDZ=
201812080120 METAR ESMX 080120Z AUTO 17010KT 9999 DZ OVC004/// 09/09 Q0985 RESHUP REDZ=
201812080050 METAR ESMX 080050Z AUTO 18011KT 9999 OVC004/// 09/09 Q0985=
201812080020 METAR ESMX 080020Z AUTO 17010KT 4000 -RA OVC002/// 09/09 Q0986 REDZ=
201812072350 METAR ESMX 072350Z AUTO 17010KT 4800 -DZ OVC002/// 09/09 Q0986 REDZ=
201812072320 METAR ESMX 072320Z AUTO 17008KT 8000 BR OVC002/// 08/08 Q0986 RESHUP RERA=
201812072250 METAR ESMX 072250Z AUTO 16008KT 7000 BR OVC003/// 08/08 Q0987=
201812072220 METAR ESMX 072220Z AUTO 16008KT 9999 -RA OVC003/// 08/08 Q0987=
201812072150 METAR ESMX 072150Z AUTO 17008KT 9999 -RA OVC003/// 07/07 Q0988 REDZ=
201812072120 METAR ESMX 072120Z AUTO 17008KT 6000 DZ OVC002/// 07/07 Q0988=
201812072050 METAR ESMX 072050Z 15008KT 100V160 6000 DZ OVC002 07/07 Q0989=
201812072020 METAR ESMX 072020Z 15009KT 5000 DZ OVC002 06/06 Q0989=
201812071950 METAR ESMX 071950Z 14010KT 3500 BR OVC002 06/06 Q0990=
201812071920 METAR ESMX 071920Z 14009KT 3000 -DZ OVC002 06/06 Q0990=
201812071850 METAR ESMX 071850Z 15008KT 110V190 4200 -DZ OVC002 06/06 Q0991=
201812071820 METAR ESMX 071820Z 13008KT 100V160 3500 -RA OVC005 06/06 Q0992=
201812071750 METAR ESMX 071750Z 15006KT 110V180 9999 -RA OVC003 06/06 Q0992=
201812071720 METAR ESMX 071720Z 15005KT 110V190 7000 -RA OVC003 06/06 Q0993=
201812071650 METAR ESMX 071650Z 13004KT 9999 -DZ BKN009 06/06 Q0994=
201812071620 METAR ESMX 071620Z 13004KT 9999 -DZ BKN009 06/06 Q0994=
201812071550 METAR ESMX 071550Z 14005KT 9999 BKN010 06/06 Q0995=
201812071520 METAR ESMX 071520Z 16004KT 9999 BKN013 06/06 Q0996=
201812071450 METAR ESMX 071450Z 11003KT 080V140 9999 FEW006 BKN011 06/06 Q0996=
201812071420 METAR ESMX 071420Z 22003KT 9999 BKN006 06/06 Q0996=
201812071350 METAR ESMX 071350Z 24004KT 9999 BKN006 06/06 Q0997=
201812071320 METAR ESMX 071320Z 24005KT 9999 BKN006 06/06 Q0997=
201812071250 METAR ESMX 071250Z 24006KT 9999 BKN006 06/06 Q0998=
201812071220 METAR ESMX 071220Z 26005KT 9999 BKN005 06/06 Q0998=
201812071150 METAR ESMX 071150Z 25005KT 9999 BKN005 06/06 Q0998=
201812071120 METAR ESMX 071120Z 26007KT 240V300 9999 BKN005 06/06 Q0998=
201812071050 METAR ESMX 071050Z 25008KT 9999 BKN006 06/06 Q0998=
201812071020 METAR ESMX 071020Z 23007KT 9999 BKN012 07/06 Q0999=
201812070950 METAR ESMX 070950Z 25007KT 9999 FEW005 BKN013 07/07 Q0999=
201812070920 METAR ESMX 070920Z 24008KT 7000 BR FEW008 BKN017 07/07 Q0999=
201812070850 METAR ESMX 070850Z 24006KT 200V280 9999 BKN007 07/07 Q0999=
201812070820 METAR ESMX 070820Z 24006KT 9999 FEW002 BKN006 07/07 Q0999=
201812070750 METAR ESMX 070750Z 24006KT 4000 BR BKN002 07/07 Q0999=
201812070720 METAR ESMX 070720Z 24007KT 3800 BR BKN002 07/07 Q0999=
201812070650 METAR ESMX 070650Z 22005KT 2800 BR OVC002 07/07 Q0999=
201812070620 METAR ESMX 070620Z 22006KT 4700 BR OVC002 07/07 Q0999=
201812070550 METAR ESMX 070550Z 22007KT 180V250 7000 BR OVC002 07/07 Q0998=
201812070520 METAR ESMX 070520Z 22007KT 6000 BR OVC002 07/07 Q0999=
201812070450 METAR ESMX 070450Z AUTO 22008KT 8000 BR OVC002/// 07/07 Q0999=
201812070420 METAR ESMX 070420Z AUTO 21008KT 2800 BR OVC001/// 07/07 Q0999 REDZ=
201812070350 METAR ESMX 070350Z AUTO 19007KT 2400 BR OVC001/// 06/06 Q0999 REDZ=
201812070320 METAR ESMX 070320Z AUTO 19006KT 1600 DZ OVC001/// 05/05 Q0999 RESHUP REDZ=
201812070250 METAR ESMX 070250Z AUTO 17006KT 1900 OVC001/// 05/05 Q0999=
201812070220 METAR ESMX 070220Z AUTO 17006KT 1900 -DZ OVC001/// 05/05 Q1000=
201812070150 METAR ESMX 070150Z AUTO 16006KT 0800 R01/P2000D R19/P2000N FG OVC001/// 04/04 Q1000 REUP RESHUP=
201812070120 METAR ESMX 070120Z AUTO 16006KT 0700 R01/1700N R19/1700N FG OVC001/// 04/04 Q1001 RERA=
201812070050 METAR ESMX 070050Z AUTO 17007KT 1700 UP OVC001/// 04/04 Q1001=
201812070020 METAR ESMX 070020Z AUTO 17007KT 1900 DZ OVC001/// 04/04 Q1002=
201812062350 METAR ESMX 062350Z AUTO 17008KT 120V200 2100 -RA OVC002/// 04/04 Q1002=
201812062320 METAR ESMX 062320Z AUTO 17008KT 4900 -RA OVC002/// 04/04 Q1003=
201812062250 METAR ESMX 062250Z AUTO 15007KT 4600 -RA OVC002/// 03/03 Q1003=
201812062220 METAR ESMX 062220Z AUTO 17006KT 7000 -RA OVC002/// 03/03 Q1004=
201812062150 METAR ESMX 062150Z 13006KT 2500 RA BR OVC002 03/03 Q1004=
201812062120 METAR ESMX 062120Z 15006KT 120V190 3500 -RA BR OVC002 03/03 Q1005=
201812062050 METAR ESMX 062050Z 14006KT 2500 -RA BR OVC002 03/03 Q1006=
201812062020 METAR ESMX 062020Z 14006KT 2000 -RA BR OVC002 02/02 Q1006=
201812061950 METAR ESMX 061950Z 14007KT 110V170 2000 -RA BR OVC002 02/02 Q1007=
201812061920 METAR ESMX 061920Z 15006KT 120V200 5000 BR OVC002 02/02 Q1007=
201812061850 METAR COR ESMX 061850Z 15008KT 5000 BR OVC003 02/02 Q1007=
201812061820 METAR ESMX 061820Z 14007KT 110V170 9999 OVC004 02/02 Q1008=
201812061750 METAR ESMX 061750Z 15006KT 9999 OVC005 03/02 Q1009=
201812061720 METAR ESMX 061720Z 14006KT 110V170 9999 BKN005 03/02 Q1009=
201812061650 METAR ESMX 061650Z 15007KT 9999 OVC007 03/03 Q1010=
201812061620 METAR ESMX 061620Z 15008KT 9999 OVC005 03/03 Q1010=
201812061550 METAR ESMX 061550Z 17007KT 9999 OVC005 03/03 Q1010=
201812061520 METAR ESMX 061520Z 15007KT 9999 DZ BKN006 03/03 Q1011=
201812061450 METAR ESMX 061450Z 14006KT 110V170 9999 -DZ BKN007 03/03 Q1011=
201812061420 METAR ESMX 061420Z 13006KT 100V160 9999 -DZ BKN008 03/02 Q1011=
201812061350 METAR ESMX 061350Z 14005KT 100V220 9999 BKN009 03/02 Q1011=
201812061320 METAR COR ESMX 061320Z 13005KT 100V160 9999 BKN009 03/02 Q1012=
201812061250 METAR ESMX 061250Z 14006KT 9999 BKN010 03/02 Q1012=
201812061220 METAR ESMX 061220Z 14007KT 100V170 9999 SCT012 BKN020 03/02 Q1012=
201812061150 METAR ESMX 061150Z 14007KT 9999 FEW021 BKN053 03/02 Q1013=
201812061120 METAR ESMX 061120Z 14006KT CAVOK 03/02 Q1013=
201812061050 METAR ESMX 061050Z 15006KT CAVOK 03/02 Q1014=
201812061020 METAR ESMX 061020Z 14007KT CAVOK 03/02 Q1014=
201812060950 METAR ESMX 060950Z 14005KT 9999 BKN064 02/02 Q1014=
201812060920 METAR ESMX 060920Z 15005KT 110V180 9999 BKN068 02/02 Q1015=
201812060850 METAR ESMX 060850Z 14004KT 110V180 CAVOK 02/02 Q1015=
201812060820 METAR ESMX 060820Z 14007KT CAVOK 02/02 Q1015=
201812060750 METAR COR ESMX 060750Z 13006KT CAVOK 02/02 Q1015=
201812060720 METAR ESMX 060720Z 13006KT 9999 FEW003 BKN078 02/02 Q1015=
201812060650 METAR ESMX 060650Z 14006KT 9000 BR BKN004 02/02 Q1016=
201812060620 METAR ESMX 060620Z 15005KT 8000 BR BKN002 01/01 Q1016=
201812060550 METAR ESMX 060550Z 13004KT 1500 R01/P2000N R19/P2000N BR OVC002 01/01 Q1016=
201812060520 METAR ESMX 060520Z 13004KT 090V160 1200 R01/1900N R19/P2000N BR OVC002 01/01 Q1017=
201812060450 METAR ESMX 060450Z VRB02KT 1300 R01/P2000N R19/P2000N BR OVC002 01/01 Q1017=
201812060420 METAR ESMX 060420Z AUTO VRB02KT 0800 R01/1800U R19/P2000N FG OVC001/// 01/01 Q1017=
201812060350 METAR ESMX 060350Z AUTO 15004KT 0550 R01/1400D R19/P2000N FG OVC001/// 01/01 Q1017=
201812060320 METAR ESMX 060320Z AUTO 17003KT 140V200 1000 R01/P2000N R19/P2000N OVC001/// 01/01 Q1017=
201812060250 METAR ESMX 060250Z AUTO 17005KT 0600 R01/1900D R19/P2000N FG OVC001/// 00/00 Q1017=
201812060220 METAR ESMX 060220Z AUTO 17005KT 4300 BR OVC002/// 00/00 Q1018=
201812060150 METAR ESMX 060150Z AUTO 17007KT 4400 BR OVC002/// 00/00 Q1018=
201812060120 METAR ESMX 060120Z AUTO 17006KT 3900 BR OVC001/// 01/01 Q1018=
201812060050 METAR ESMX 060050Z AUTO 17005KT 1900 BR OVC001/// 01/01 Q1019=
201812060020 METAR ESMX 060020Z AUTO 18005KT 130V200 3300 BR OVC001/// 01/01 Q1019=
201812052350 METAR ESMX 052350Z AUTO 19005KT 4600 BR OVC002/// 01/01 Q1019=
201812052320 METAR ESMX 052320Z AUTO 21008KT 3700 OVC001/// 01/01 Q1019=
201812052250 METAR ESMX 052250Z AUTO 21009KT 1100 R01/P2000N R19/P2000N OVC001/// 01/01 Q1019=
201812052220 METAR ESMX 052220Z AUTO 21008KT 0750 R01/P2000D R19/P2000N FG OVC001/// 01/01 Q1019=
201812052150 METAR ESMX 052150Z 20007KT 6000 BR BKN003 01/01 Q1020=
201812052120 METAR ESMX 052120Z 19008KT 7000 BR BKN002 02/02 Q1020=
201812052050 METAR ESMX 052050Z 19007KT 5000 BR OVC002 01/01 Q1020=
201812052020 METAR ESMX 052020Z 20007KT 6000 BR OVC002 01/01 Q1020=
201812051950 METAR ESMX 051950Z 20005KT 8000 BR SCT003 BKN005 01/01 Q1020=
201812051920 METAR ESMX 051920Z 19006KT 9000 BR FEW004 BKN013 01/01 Q1020=
201812051850 METAR ESMX 051850Z 19005KT 9000 -RA OVC004 01/01 Q1020=
201812051820 METAR ESMX 051820Z 18006KT 9999 BKN004 01/01 Q1020=
201812051750 METAR ESMX 051750Z 20007KT 9999 FEW007 BKN021 00/M00 Q1020=
201812051720 METAR ESMX 051720Z 17005KT 9999 FEW010 BKN022 M00/M01 Q1020=
201812051650 METAR ESMX 051650Z 18004KT 9999 SCT023 M00/M00 Q1020=
201812051620 METAR ESMX 051620Z 19006KT CAVOK M02/M02 Q1020=
201812051550 METAR ESMX 051550Z 21005KT CAVOK M02/M02 Q1021=
201812051520 METAR ESMX 051520Z 21005KT CAVOK M02/M03 Q1021=
201812051450 METAR ESMX 051450Z 21005KT CAVOK M01/M03 Q1021=
201812051420 METAR ESMX 051420Z 22005KT CAVOK M00/M03 Q1021=
201812051350 METAR ESMX 051350Z 21004KT CAVOK 01/M03 Q1021=
201812051320 METAR ESMX 051320Z 22004KT CAVOK 01/M03 Q1021=
201812051250 METAR ESMX 051250Z 21004KT CAVOK 02/M03 Q1021=
201812051220 METAR ESMX 051220Z 22005KT CAVOK 02/M03 Q1021=
201812051150 METAR ESMX 051150Z 22006KT CAVOK 02/M03 Q1021=
201812051120 METAR ESMX 051120Z 21005KT CAVOK 01/M03 Q1021=
201812051050 METAR COR ESMX 051050Z 22003KT 140V290 CAVOK 01/M04 Q1021=
201812051020 METAR ESMX 051020Z 23004KT CAVOK 00/M03 Q1021=
201812050950 METAR ESMX 050950Z 23005KT CAVOK M00/M03 Q1021=
201812050920 METAR ESMX 050920Z 24004KT CAVOK M01/M03 Q1021=
201812050850 METAR ESMX 050850Z 24005KT CAVOK M02/M04 Q1020=
201812050820 METAR ESMX 050820Z 24006KT CAVOK M03/M04 Q1020=
201812050750 METAR ESMX 050750Z 24005KT CAVOK M04/M05 Q1020=
201812050720 METAR ESMX 050720Z 26003KT CAVOK M03/M04 Q1020=
201812050650 METAR ESMX 050650Z 25004KT CAVOK M03/M05 Q1019=
201812050620 METAR ESMX 050620Z 25006KT CAVOK M03/M05 Q1019=
201812050550 METAR ESMX 050550Z 26005KT CAVOK M02/M05 Q1018=
201812050520 METAR ESMX 050520Z 26006KT CAVOK M02/M05 Q1018=
201812050450 METAR ESMX 050450Z 27006KT CAVOK M02/M05 Q1017=
201812050350 METAR ESMX 050350Z AUTO 27006KT 9999 NCD M01/M04 Q1017=
201812050320 METAR ESMX 050320Z AUTO 26006KT 9999 NCD M01/M04 Q1016=
201812050250 METAR ESMX 050250Z AUTO 27006KT 9999 NCD M01/M04 Q1016=
201812050220 METAR ESMX 050220Z AUTO 29004KT 9999 NCD M01/M04 Q1016=
201812050150 METAR ESMX 050150Z AUTO 26006KT 9999 NCD M01/M04 Q1015=
201812050120 METAR ESMX 050120Z AUTO 27009KT 9999 NCD M00/M04 Q1015=
201812050050 METAR ESMX 050050Z AUTO 28008KT 9999 NCD 00/M04 Q1014=
201812050020 METAR ESMX 050020Z AUTO 28010KT 9999 NCD 00/M04 Q1014=
201812042350 METAR ESMX 042350Z AUTO 27008KT 9999 NCD 00/M04 Q1014=
201812042320 METAR ESMX 042320Z AUTO 28009KT 9999 NCD 00/M04 Q1013=
201812042250 METAR ESMX 042250Z AUTO 28010KT 9999 NCD 00/M04 Q1012=
201812042220 METAR ESMX 042220Z AUTO 26010KT 9999 NCD 00/M04 Q1012=
201812042150 METAR ESMX 042150Z 28010KT CAVOK 01/M03 Q1011=
201812042120 METAR ESMX 042120Z 26009KT CAVOK 01/M03 Q1011=
201812042050 METAR ESMX 042050Z 26010KT CAVOK 01/M03 Q1010=
201812042020 METAR ESMX 042020Z 27008KT CAVOK 01/M03 Q1010=
201812041950 METAR ESMX 041950Z 28009KT CAVOK 01/M02 Q1009=
201812041920 METAR ESMX 041920Z 27007KT CAVOK 01/M02 Q1008=
201812041850 METAR ESMX 041850Z 26007KT CAVOK 01/M01 Q1008=
201812041820 METAR ESMX 041820Z 27008KT CAVOK 01/M01 Q1007=
201812041750 METAR ESMX 041750Z 27010KT CAVOK 02/M01 Q1007=
201812041720 METAR ESMX 041720Z 27010KT CAVOK 02/00 Q1006=
201812041650 METAR ESMX 041650Z AUTO 27010KT 9999 NCD 02/01 Q1006=
201812041620 METAR ESMX 041620Z 27008KT CAVOK 02/02 Q1006=
201812041550 METAR ESMX 041550Z 28010KT 9999 -RA FEW021 BKN051 03/02 Q1005=
201812041520 METAR ESMX 041520Z 28011KT 250V330 9999 -RA SCT013 OVC051 03/02 Q1004=
201812041450 METAR ESMX 041450Z 29012KT 9999 SCT015 BKN042 03/02 Q1004=
201812041420 METAR ESMX 041420Z 29013KT 9999 SCT013 BKN036 BKN049 03/03 Q1003=
201812041350 METAR ESMX 041350Z 31016KT 280V350 5000 RASN BKN016 02/01 Q1002=
201812041320 METAR ESMX 041320Z 26009KT 220V280 9999 -RA FEW007 BKN017 05/03 Q1001=
201812041250 METAR ESMX 041250Z 28011KT 9999 BKN020 05/02 Q1001=
201812041220 METAR ESMX 041220Z 27012KT 240V300 9999 SCT021 05/02 Q1000=
201812041150 METAR ESMX 041150Z 27012KT 9999 BKN020 06/03 Q0999=
201812041120 METAR ESMX 041120Z 26013KT 9999 BKN020 05/03 Q0999=
201812041050 METAR ESMX 041050Z 25010KT 9999 SCT017 05/03 Q0998=
201812041020 METAR ESMX 041020Z 26012KT 230V300 9999 BKN016 05/03 Q0998=
201812040950 METAR ESMX 040950Z 26011KT 220V280 9999 BKN016 05/03 Q0998=
201812040920 METAR ESMX 040920Z 25010KT 9999 OVC017 05/03 Q0997=
201812040850 METAR ESMX 040850Z 25011KT 220V280 9999 OVC018 05/02 Q0997=
201812040820 METAR ESMX 040820Z 26009KT 230V290 9999 OVC021 05/03 Q0996=
201812040750 METAR ESMX 040750Z 25010KT 200V280 9999 SCT016 BKN020 05/03 Q0996=
201812040720 METAR ESMX 040720Z 25010KT 210V290 9999 SCT017 OVC023 05/03 Q0995=
201812040650 METAR ESMX 040650Z 25010KT 210V270 9999 OVC021 05/04 Q0995=
201812040620 METAR ESMX 040620Z 25010KT 220V280 9999 BKN018 05/04 Q0994=
201812040550 METAR ESMX 040550Z 25011KT 9999 FEW011 BKN014 05/04 Q0994=
201812040520 METAR ESMX 040520Z 24010KT 9999 SCT008 BKN021 05/05 Q0993=
201812040450 METAR ESMX 040450Z 23010KT 200V260 5000 BR FEW002 BKN010 05/05 Q0993=
201812040420 METAR ESMX 040420Z AUTO 22009KT 4900 BR SCT002/// OVC004/// 05/05 Q0993 REDZ RESHUP=
201812040350 METAR ESMX 040350Z AUTO 20010KT 8000 BR OVC004/// 05/05 Q0993=
201812040320 METAR ESMX 040320Z AUTO 20010KT 9999 OVC005/// 05/05 Q0992=
201812040250 METAR ESMX 040250Z AUTO 20010KT 7000 BR FEW002/// BKN006/// OVC008/// 05/05 Q0992 RERA=
201812040220 METAR ESMX 040220Z AUTO 21009KT 8000 BR FEW005/// BKN010/// OVC014/// 05/05 Q0992 REUP=
201812040150 METAR ESMX 040150Z AUTO 21008KT 9999 FEW007/// OVC023/// 06/04 Q0992=
201812040120 METAR ESMX 040120Z AUTO 22010KT 9999 FEW018/// BKN026/// OVC033/// 06/04 Q0992=
201812040050 METAR ESMX 040050Z AUTO 23009KT 200V260 9999 FEW018/// BKN029/// OVC037/// 06/05 Q0992=
201812040020 METAR ESMX 040020Z AUTO 21012KT 9999 SCT012/// OVC035/// 07/05 Q0992=
201812032350 METAR ESMX 032350Z AUTO 20010KT 9999 FEW008/// SCT011/// BKN016/// 07/06 Q0991=
201812032320 METAR ESMX 032320Z AUTO 19010KT 9999 -DZ BKN009/// BKN018/// OVC040/// 07/07 Q0991 REUP RESHUP=
201812032250 METAR ESMX 032250Z AUTO 20009KT 9999 BKN009/// BKN011/// OVC016/// 07/07 Q0991=
201812032220 METAR ESMX 032220Z AUTO 20009KT 9999 FEW008/// BKN011/// BKN018/// 07/07 Q0991=
201812032150 METAR ESMX 032150Z 20011KT 9999 BKN008 OVC018 07/07 Q0991=
201812032120 METAR ESMX 032120Z 21011KT 9999 -RA BKN007 OVC011 08/08 Q0991=
201812032050 METAR ESMX 032050Z 19012KT 9999 OVC007 08/08 Q0991=
201812032020 METAR ESMX 032020Z 19010KT 9999 FEW002 BKN006 08/08 Q0991=
201812031950 METAR ESMX 031950Z 20010KT 9999 BKN006 08/08 Q0991=
201812031920 METAR ESMX 031920Z 19012KT 9999 BKN007 OVC009 08/08 Q0991=
201812031850 METAR ESMX 031850Z 19012KT 7000 BR FEW002 BKN005 08/08 Q0991=
201812031820 METAR ESMX 031820Z 19011KT 6000 -DZ FEW002 BKN008 OVC016 08/08 Q0991=
201812031750 METAR ESMX 031750Z 18011KT 9999 SCT007 BKN009 09/09 Q0991=
201812031720 METAR ESMX 031720Z 18010KT 9999 SCT007 BKN010 OVC015 09/09 Q0991=
201812031650 METAR ESMX 031650Z 18009KT 9999 OVC007 09/09 Q0991=
201812031620 METAR ESMX 031620Z 18009KT 9999 BKN005 OVC011 09/09 Q0991=
201812031550 METAR ESMX 031550Z 18008KT 9999 BKN005 09/09 Q0991=
201812031520 METAR ESMX 031520Z 18009KT 9999 OVC006 09/09 Q0991=
201812031450 METAR ESMX 031450Z 18009KT 9999 BKN005 09/09 Q0990=
201812031420 METAR ESMX 031420Z 18009KT 9000 DZ FEW002 BKN005 09/09 Q0990=
201812031350 METAR ESMX 031350Z 19009KT 9999 RA OVC005 09/09 Q0990=
201812031320 METAR ESMX 031320Z 18009KT 6000 -DZ OVC003 09/09 Q0990=
201812031250 METAR ESMX 031250Z 17008KT 7000 DZ OVC003 09/09 Q0991=
201812031220 METAR ESMX 031220Z 16007KT 6000 OVC002 08/08 Q0991=
201812031150 METAR ESMX 031150Z 17007KT 1200 R01/1600N R19/1700N BR OVC001 08/08 Q0991=
201812031120 METAR ESMX 031120Z 18007KT 1000 R01/1300N R19/1400N OVC001 08/08 Q0991=
201812031050 METAR ESMX 031050Z 16007KT 1800 OVC001 07/07 Q0991=
201812031020 METAR ESMX 031020Z 17008KT 0550 R01/0900N R19/1000U FG OVC001 07/07 Q0991=
201812030950 METAR ESMX 030950Z 15007KT 0450 R01/0700N R19/0800N FG OVC001 07/07 Q0991=
201812030920 METAR ESMX 030920Z 14006KT 0900 R01/1200N R19/1500U FG OVC001 06/06 Q0992 REDZ=
201812030850 METAR ESMX 030850Z 15006KT 2200 BR OVC001 06/06 Q0992=
201812030820 METAR ESMX 030820Z 17006KT 1700 BR OVC001 06/06 Q0992=
201812030750 METAR ESMX 030750Z 16006KT 2500 BR OVC001 06/06 Q0992=
201812030720 METAR ESMX 030720Z 17006KT 2200 BR OVC001 06/06 Q0992=
201812030650 METAR ESMX 030650Z 17005KT 2600 BR OVC001 06/06 Q0992=
201812030620 METAR ESMX 030620Z 17006KT 9999 OVC002 06/06 Q0992=
201812030550 METAR ESMX 030550Z 18006KT 4700 BR OVC001 06/06 Q0992=
201812030520 METAR ESMX 030520Z 16005KT 3300 BR OVC001 05/05 Q0992=
201812030450 METAR ESMX 030450Z 16006KT 2300 BR OVC002 05/05 Q0992=
201812030420 METAR ESMX 030420Z 15005KT 2500 -DZ OVC002 05/05 Q0992=
201812030350 METAR ESMX 030350Z 15006KT 4000 -DZ OVC002 05/05 Q0992=
201812030320 METAR ESMX 030320Z 14005KT 2400 DZ OVC002 05/05 Q0992=
201812030250 METAR ESMX 030250Z 16005KT 5000 -DZ OVC002 05/05 Q0992=
201812030220 METAR ESMX 030220Z AUTO 15006KT 4200 -RA OVC002/// 05/05 Q0992 REDZ=
201812030150 METAR ESMX 030150Z AUTO 14005KT 3000 -DZ OVC002/// 05/05 Q0992 REDZ=
201812030120 METAR ESMX 030120Z AUTO 14006KT 3500 -RA OVC002/// 05/05 Q0993=
201812030050 METAR ESMX 030050Z AUTO 14006KT 2200 DZ OVC001/// 05/05 Q0993 REUP=
201812030020 METAR ESMX 030020Z AUTO 14006KT 1800 -RA OVC001/// 05/05 Q0993 REUP=
201812022350 METAR ESMX 022350Z AUTO 14006KT 1100 R01/P2000N R19/P2000N BR OVC001/// 05/05 Q0993=
201812022320 METAR ESMX 022320Z 14006KT 1700 BR OVC002 05/05 Q0993=
201812022250 METAR ESMX 022250Z AUTO 15005KT 110V170 1900 BR OVC001/// 05/05 Q0993 REDZ=
201812022220 METAR ESMX 022220Z AUTO 14006KT 2300 BR OVC002/// 05/05 Q0994=
201812022150 METAR ESMX 022150Z 14006KT 2700 -DZ OVC002 04/04 Q0994=
201812022120 METAR ESMX 022120Z 16006KT 2500 -DZ OVC002 04/04 Q0994=
201812022050 METAR ESMX 022050Z 13007KT 2700 -DZ BKN002 OVC004 04/04 Q0994=
201812022020 METAR COR ESMX 022020Z 14006KT 100V170 5000 -DZ OVC004 04/04 Q0995=
201812021950 METAR COR ESMX 021950Z 13007KT 9000 -RA OVC004 04/04 Q0995=
201812021920 METAR ESMX 021920Z AUTO 12005KT 070V160 9000 DZ OVC004/// 04/04 Q0995=
201812021850 METAR ESMX 021850Z 13006KT 100V160 5000 RA OVC004 04/04 Q0995=
201812021820 METAR ESMX 021820Z 14006KT 110V170 5000 -RA OVC004 04/04 Q0996=
201812021750 METAR ESMX 021750Z 14008KT 110V180 4000 -RA BKN003 04/04 Q0996=
201812021720 METAR ESMX 021720Z 14008KT 3500 -RA OVC002 04/04 Q0996=
201812021650 METAR ESMX 021650Z 14009KT 100V170 3200 -RA OVC002 04/04 Q0996=
201812021620 METAR ESMX 021620Z 15008KT 110V170 4500 -RA OVC003 05/05 Q0997=
201812021550 METAR ESMX 021550Z 13007KT 080V170 4500 -RA OVC002 05/05 Q0997=
201812021520 METAR ESMX 021520Z 13007KT 090V160 4100 -RA OVC002 04/04 Q0997=
201812021450 METAR ESMX 021450Z 13007KT 080V160 2700 -RA OVC002 04/04 Q0997=
201812021420 METAR ESMX 021420Z 13007KT 090V160 2300 BR OVC002 04/04 Q0998=
201812021350 METAR ESMX 021350Z 13007KT 090V160 3600 BR OVC002 04/04 Q0998=
201812021320 METAR ESMX 021320Z 14006KT 100V190 1200 R01/1700U R19/1900N OVC001 04/04 Q0998=
201812021250 METAR ESMX 021250Z 13006KT 070V160 0750 R01/1100N R19/1400N FG OVC001 04/04 Q0999=
201812021220 METAR ESMX 021220Z 15007KT 100V190 0600 R01/1000N R19/1300N FG OVC001 04/04 Q0999=
201812021150 METAR ESMX 021150Z 14008KT 1100 R01/1700D R19/P2000N BR OVC002 04/04 Q1000=
201812021120 METAR ESMX 021120Z 13007KT 110V170 1800 BR OVC002 05/05 Q1000=
201812021050 METAR ESMX 021050Z 14008KT 2700 BR OVC003 05/05 Q1001=
201812021020 METAR ESMX 021020Z 14008KT 100V170 4900 BR OVC004 05/05 Q1001=
201812020950 METAR ESMX 020950Z AUTO 14008KT 4600 BR BKN003/// OVC005/// 05/05 Q1001=
201812020920 METAR ESMX 020920Z AUTO 15007KT 5000 BR SCT003/// OVC005/// 05/05 Q1002=
201812020850 METAR ESMX 020850Z AUTO 14009KT 110V170 5000 BR SCT003/// OVC005/// 05/05 Q1002=
201812020820 METAR ESMX 020820Z AUTO 14009KT 3600 BR OVC002/// 05/05 Q1002=
201812020750 METAR ESMX 020750Z AUTO 14008KT 1000 R01/1700U R19/P2000N OVC001/// 05/05 Q1002=
201812020720 METAR ESMX 020720Z AUTO 15010KT 2300 OVC001/// 05/05 Q1003=
201812020650 METAR ESMX 020650Z AUTO 15010KT 0750 R01/1500U R19/1700N FG OVC001/// 05/05 Q1003=
201812020620 METAR ESMX 020620Z AUTO 15007KT 0300 R01/0900N R19/1100N FG OVC001/// 05/05 Q1003=
201812020550 METAR ESMX 020550Z AUTO 14007KT 0350 R01/0900N R19/1200U FG OVC001/// 05/05 Q1003=
201812020520 METAR ESMX 020520Z AUTO 15005KT 0750 R01/1800N R19/P2000N FG OVC001/// 04/04 Q1004=
201812020450 METAR ESMX 020450Z AUTO 14005KT 1200 R01/P2000N R19/P2000N BR OVC001/// 04/04 Q1004=
201812020420 METAR ESMX 020420Z AUTO 14005KT 2500 BR OVC002/// 04/04 Q1004=
201812020350 METAR ESMX 020350Z AUTO 16006KT 130V190 2600 OVC001/// 04/04 Q1004=
201812020320 METAR ESMX 020320Z AUTO 16005KT 120V190 1100 R01/P2000N R19/P2000N OVC001/// 04/04 Q1005=
201812020250 METAR ESMX 020250Z AUTO 14005KT 110V170 0300 R01/0900N R19/1100N FG OVC001/// 04/04 Q1005=
201812020220 METAR ESMX 020220Z AUTO 14006KT 0400 R01/1200D R19/1300N FG OVC001/// 04/04 Q1005 REDZ=
201812020150 METAR ESMX 020150Z AUTO 15005KT 1500 BR OVC001/// 04/04 Q1005=
201812020120 METAR ESMX 020120Z AUTO 16005KT 2400 -DZ OVC002/// 04/04 Q1006 REUP=
201812020050 METAR ESMX 020050Z AUTO 16005KT 3500 BR OVC003/// 04/04 Q1006=
201812020020 METAR ESMX 020020Z AUTO 18005KT 3900 BR BKN004/// OVC006/// 05/05 Q1006=
201812012350 METAR ESMX 012350Z AUTO 18007KT 5000 BR BKN004/// OVC007/// 05/05 Q1006 REDZ=
201812012320 METAR ESMX 012320Z AUTO 18006KT 3400 BR OVC002/// 05/05 Q1006=
201812012250 METAR ESMX 012250Z AUTO 17006KT 3400 -DZ OVC002/// 04/04 Q1007 RERA=
201812012220 METAR ESMX 012220Z AUTO 18007KT 3800 BR OVC002/// 04/04 Q1007=
201812012150 METAR ESMX 012150Z AUTO 19006KT 3400 BR OVC001/// 04/04 Q1007 RESHUP RERA=
201812012120 METAR ESMX 012120Z AUTO 16006KT 2200 BR OVC002/// 04/04 Q1007=
201812012050 METAR ESMX 012050Z AUTO 17006KT 3900 -RA OVC003/// 04/04 Q1007 REDZ=
201812012020 METAR ESMX 012020Z AUTO 17007KT 3700 -RA OVC003/// 04/04 Q1007 REDZ=
201812011950 METAR ESMX 011950Z AUTO 16006KT 2500 DZ OVC003/// 04/04 Q1007 REUP REDZ=
201812011920 METAR ESMX 011920Z AUTO 17006KT 140V200 4200 BR OVC003/// 04/04 Q1008=
201812011850 METAR ESMX 011850Z AUTO 15006KT 4500 BR OVC003/// 04/04 Q1008=
201812011820 METAR ESMX 011820Z AUTO 15007KT 3500 BR OVC002/// 04/04 Q1008=
201812011750 METAR ESMX 011750Z AUTO 15006KT 3000 BR OVC002/// 04/04 Q1008=
201812011720 METAR ESMX 011720Z AUTO 14007KT 3800 BR BKN003/// OVC005/// 04/04 Q1008=
201812011650 METAR ESMX 011650Z AUTO 15008KT 4300 BR BKN003/// OVC021/// 04/04 Q1008=
201812011620 METAR ESMX 011620Z AUTO 15007KT 3800 BR OVC003/// 04/04 Q1008=
201812011550 METAR ESMX 011550Z AUTO 15007KT 4700 BR OVC003/// 04/04 Q1009=
201812011520 METAR ESMX 011520Z AUTO 15007KT 4500 BR OVC002/// 04/04 Q1009=
201812011450 METAR ESMX 011450Z AUTO 16006KT 3100 BR OVC001/// 04/04 Q1009=
201812011420 METAR ESMX 011420Z AUTO 16006KT 2300 BR OVC001/// 04/04 Q1009=
201812011350 METAR ESMX 011350Z AUTO 15006KT 1900 OVC001/// 03/03 Q1009=
201812011320 METAR ESMX 011320Z AUTO 15007KT 1100 R01/1600U R19/1500N OVC001/// 03/03 Q1009=
201812011250 METAR ESMX 011250Z AUTO 15007KT 1600 BR OVC001/// 03/03 Q1009=
201812011220 METAR ESMX 011220Z AUTO 15007KT 2500 BR OVC002/// 03/03 Q1009=
