##########################################################
# Query made at 04/19/2024 22:02:33 UTC
# Time interval: from 04/01/2018 12:00  to 04/30/2018 12:59  UTC
##########################################################

##########################################################
# ESMX, Vaxjo (Sweden)
# WMO index: 02641. WIGOS ID: 0-20000-0-02648
# Latitude 56-51N. Longitude 014-50E. Altitude 199 m.
##########################################################

201804301250 METAR ESMX 301250Z 08011G22KT 050V110 9999 SCT055CB 11/08 Q1005=
201804301220 METAR ESMX 301220Z 07010G21KT 030V120 9999 -RA SCT061CB 14/06 Q1005=
201804301150 METAR ESMX 301150Z 07015G27KT 030V110 CAVOK 15/05 Q1005=
201804301120 METAR ESMX 301120Z 07011G22KT 030V110 CAVOK 16/05 Q1006=
201804301050 METAR ESMX 301050Z 07012KT 030V120 CAVOK 16/06 Q1006=
201804301020 METAR ESMX 301020Z 07011KT 040V120 9999 FEW027 15/06 Q1007=
201804300950 METAR ESMX 300950Z 08011KT 030V120 9999 FEW026 14/06 Q1007=
201804300920 METAR ESMX 300920Z 07010KT 030V120 9999 FEW026 14/06 Q1008=
201804300850 METAR COR ESMX 300850Z 06011KT CAVOK 13/06 Q1008=
201804300820 METAR ESMX 300820Z 05008KT 020V090 CAVOK 12/06 Q1008=
201804300750 METAR ESMX 300750Z 05009KT 020V090 CAVOK 11/06 Q1009=
201804300720 METAR COR ESMX 300720Z 06009KT 020V090 CAVOK 10/05 Q1009=
201804300650 METAR COR ESMX 300650Z 04010KT CAVOK 10/05 Q1009=
201804300620 METAR ESMX 300620Z 05009KT 020V080 CAVOK 08/05 Q1009=
201804300550 METAR ESMX 300550Z 04010KT CAVOK 08/05 Q1009=
201804300520 METAR ESMX 300520Z 05009KT 9999 FEW007 BKN100 07/05 Q1010=
201804300450 METAR COR ESMX 300450Z 06009KT 9999 FEW007 BKN062 06/05 Q1010=
201804300420 METAR ESMX 300420Z AUTO 04009KT 9999 FEW008/// BKN062/// OVC100/// 07/05 Q1010=
201804300350 METAR ESMX 300350Z AUTO 05007KT 020V080 9999 OVC055/// 06/05 Q1010=
201804300320 METAR ESMX 300320Z AUTO 02004KT 9999 BKN055/// 06/04 Q1011=
201804300250 METAR ESMX 300250Z AUTO 06004KT 020V080 9999 NCD 06/05 Q1011=
201804300220 METAR ESMX 300220Z AUTO 06007KT 030V090 9999 NCD 07/05 Q1011=
201804300150 METAR ESMX 300150Z AUTO 07007KT 040V100 9999 FEW064/// 07/05 Q1011=
201804300120 METAR ESMX 300120Z AUTO 05005KT 020V100 9999 FEW064/// 07/05 Q1011=
201804300050 METAR ESMX 300050Z AUTO 04007KT 9999 NCD 06/05 Q1011=
201804300020 METAR ESMX 300020Z AUTO 06004KT 020V100 9999 FEW110/// 07/05 Q1011=
201804292350 METAR ESMX 292350Z AUTO 07006KT 040V100 9999 FEW086/// BKN100/// 07/05 Q1012=
201804292320 METAR ESMX 292320Z AUTO 07005KT 030V120 9999 SCT094/// 08/06 Q1012=
201804292250 METAR ESMX 292250Z AUTO 08004KT 050V110 9999 BKN110/// 08/06 Q1012=
201804292220 METAR ESMX 292220Z AUTO VRB02KT 9999 FEW027/// BKN120/// 08/06 Q1012=
201804292150 METAR ESMX 292150Z AUTO 08004KT 040V110 9999 BKN025/// OVC110/// 09/06 Q1012=
201804292120 METAR ESMX 292120Z AUTO VRB02KT 9999 BKN023/// 09/06 Q1012=
201804292050 METAR ESMX 292050Z AUTO 07003KT 030V120 9999 OVC100/// 10/06 Q1012=
201804292020 METAR ESMX 292020Z AUTO VRB03KT 9999 OVC098/// 10/06 Q1012=
201804291950 METAR ESMX 291950Z 05004KT 020V090 CAVOK 11/06 Q1012=
201804291920 METAR ESMX 291920Z 05006KT 020V080 CAVOK 11/06 Q1012=
201804291850 METAR ESMX 291850Z AUTO 04005KT 9999 FEW037/// OVC100/// 11/07 Q1012=
201804291820 METAR ESMX 291820Z AUTO 03005KT 9999 FEW040/// OVC110/// 11/07 Q1012=
201804291750 METAR ESMX 291750Z 36002KT 9999 FEW042 12/07 Q1012=
201804291720 METAR ESMX 291720Z 02002KT 9999 FEW044 13/06 Q1011=
201804291650 METAR ESMX 291650Z 04002KT 9999 FEW040 13/05 Q1011=
201804291620 METAR ESMX 291620Z 02005KT 9999 SCT040 13/06 Q1011=
201804291550 METAR ESMX 291550Z 36006KT 9999 SCT038 14/05 Q1011=
201804291520 METAR ESMX 291520Z VRB02KT 9999 FEW030 14/05 Q1011=
201804291450 METAR ESMX 291450Z 03003KT 320V060 9999 FEW020 13/06 Q1012=
201804291420 METAR ESMX 291420Z 28003KT 200V350 9999 FEW018 13/07 Q1012=
201804291350 METAR ESMX 291350Z 29006KT 250V330 9999 SCT019 12/07 Q1012=
201804291320 METAR ESMX 291320Z 28009KT 9999 BKN017 12/07 Q1012=
201804291250 METAR ESMX 291250Z 27007KT 240V300 9999 BKN016 12/06 Q1012=
201804291220 METAR ESMX 291220Z 27007KT 240V300 9999 BKN018 11/07 Q1012=
201804291150 METAR ESMX 291150Z 28008KT 9999 BKN015 11/07 Q1012=
201804291120 METAR ESMX 291120Z 28007KT 230V320 9999 BKN015 12/07 Q1012=
201804291050 METAR ESMX 291050Z 26008KT 9999 BKN020 12/07 Q1011=
201804291020 METAR ESMX 291020Z 28008KT 240V310 9999 BKN020 12/07 Q1011=
201804290950 METAR ESMX 290950Z AUTO 27007KT 220V300 9999 OVC025/// 13/07 Q1011=
201804290920 METAR ESMX 290920Z AUTO 23007KT 200V270 9999 OVC024/// 13/07 Q1011=
201804290850 METAR ESMX 290850Z AUTO 23007KT 190V280 9999 SCT022/// OVC029/// 13/07 Q1011=
201804290820 METAR ESMX 290820Z 23005KT 9999 BKN026 12/07 Q1010=
201804290750 METAR ESMX 290750Z 24004KT 190V280 9999 BKN022 11/07 Q1010=
201804290720 METAR ESMX 290720Z 25004KT 210V280 9999 SCT020 11/07 Q1010=
201804290650 METAR ESMX 290650Z 27004KT CAVOK 10/07 Q1010=
201804290620 METAR ESMX 290620Z 20004KT 170V240 CAVOK 09/06 Q1010=
201804290550 METAR ESMX 290550Z AUTO VRB02KT 9999 OVC100/// 08/06 Q1010=
201804290520 METAR ESMX 290520Z AUTO 00000KT 9999 OVC100/// 08/06 Q1010=
201804290450 METAR ESMX 290450Z AUTO 00000KT 9999 OVC100/// 07/05 Q1010=
201804290420 METAR ESMX 290420Z AUTO 19002KT 9999 OVC110/// 06/05 Q1010=
201804290350 METAR ESMX 290350Z AUTO 20003KT 9999 FEW084/// OVC110/// 06/05 Q1009=
201804290320 METAR ESMX 290320Z AUTO 17004KT 9999 SCT082/// BKN110/// OVC160/// 07/05 Q1009=
201804290250 METAR ESMX 290250Z AUTO 17004KT 9999 FEW084/// BKN170/// 07/05 Q1009=
201804290220 METAR ESMX 290220Z AUTO 15005KT 9999 BKN074/// OVC110/// 08/05 Q1009=
201804290150 METAR ESMX 290150Z AUTO 15004KT 9999 SCT078/// BKN092/// OVC110/// 08/05 Q1010=
201804290120 METAR ESMX 290120Z AUTO 14004KT 9999 SCT086/// OVC110/// 08/05 Q1010=
201804290050 METAR ESMX 290050Z AUTO VRB02KT 9999 FEW051/// BKN084/// OVC110/// 08/05 Q1010=
201804290020 METAR ESMX 290020Z AUTO VRB03KT 9999 BKN055/// OVC094/// 08/05 Q1010=
201804282350 METAR ESMX 282350Z AUTO VRB01KT 9999 OVC055/// 08/05 Q1010=
201804282320 METAR ESMX 282320Z AUTO VRB02KT 9999 OVC057/// 09/05 Q1010=
201804282250 METAR ESMX 282250Z AUTO 00000KT 9999 OVC055/// 09/05 Q1011 REUP=
201804282220 METAR ESMX 282220Z AUTO 00000KT 9999 OVC053/// 09/05 Q1011=
201804282150 METAR ESMX 282150Z AUTO VRB03KT 9999 BKN057/// OVC070/// 09/05 Q1011=
201804282120 METAR ESMX 282120Z AUTO 14003KT 9999 OVC064/// 10/05 Q1011=
201804282050 METAR ESMX 282050Z AUTO 13003KT 9999 -RA OVC053/// 09/05 Q1011=
201804282020 METAR ESMX 282020Z AUTO 00000KT 9999 OVC059/// 10/06 Q1011=
201804281950 METAR ESMX 281950Z AUTO 00000KT 9999 OVC061/// 11/04 Q1011=
201804281920 METAR ESMX 281920Z 19005KT 9999 -SHRA BKN044 10/05 Q1011=
201804281850 METAR ESMX 281850Z 17008KT CAVOK 12/04 Q1011=
201804281820 METAR ESMX 281820Z 18010KT CAVOK 12/04 Q1011=
201804281750 METAR ESMX 281750Z 17009KT CAVOK 13/04 Q1011=
201804281720 METAR ESMX 281720Z 17008KT CAVOK 13/04 Q1011=
201804281650 METAR ESMX 281650Z AUTO 17009KT 120V190 9999 BKN047/// BKN160/// 14/04 Q1011=
201804281620 METAR ESMX 281620Z AUTO VRB02KT 9999 BKN064/// 14/04 Q1011=
201804281550 METAR ESMX 281550Z AUTO 01005KT 9999 FEW047/// OVC066/// 14/04 Q1011=
201804281520 METAR ESMX 281520Z AUTO 36004KT 9999 BKN051/// OVC068/// 14/05 Q1011=
201804281450 METAR ESMX 281450Z AUTO 01004KT 320V060 9999 BKN044/// 14/04 Q1011=
201804281420 METAR ESMX 281420Z AUTO 12003KT 030V190 9999 NCD 15/05 Q1011=
201804281350 METAR ESMX 281350Z AUTO 03004KT 350V110 9999 SCT066/// 14/05 Q1011=
201804281320 METAR ESMX 281320Z AUTO 32007KT 270V350 9999 FEW039/// OVC057/// 13/05 Q1011=
201804281250 METAR ESMX 281250Z AUTO 20005KT 100V250 9999 SCT036/// BKN049/// OVC061/// 14/04 Q1011=
201804281220 METAR ESMX 281220Z AUTO 14005KT 080V180 9999 SCT034/// BKN057/// 14/05 Q1011=
201804281150 METAR ESMX 281150Z AUTO 16005KT 130V200 9999 FEW030/// SCT042/// 14/06 Q1012=
201804281120 METAR ESMX 281120Z AUTO 16005KT 100V210 9999 SCT031/// BKN040/// 13/05 Q1012=
201804281050 METAR ESMX 281050Z 14005KT 100V200 9999 BKN026 12/05 Q1012=
201804281020 METAR ESMX 281020Z 17003KT 110V220 9999 SCT021 BKN043 11/05 Q1012=
201804280950 METAR ESMX 280950Z 15005KT 110V200 9999 SCT020 BKN051 10/05 Q1012=
201804280920 METAR ESMX 280920Z 13003KT 080V200 9999 FEW015 BKN045 11/07 Q1012=
201804280850 METAR ESMX 280850Z 12003KT 090V160 9999 BKN040 09/06 Q1012=
201804280820 METAR ESMX 280820Z 12004KT 080V170 9999 BKN040 08/06 Q1012=
201804280750 METAR COR ESMX 280750Z VRB03KT 9999 -RA BKN030 07/06 Q1012=
201804280720 METAR ESMX 280720Z 16003KT 8000 -RA OVC031 07/06 Q1012=
201804280650 METAR ESMX 280650Z AUTO 15003KT 9999 -RA OVC039/// 07/06 Q1012 RERA REDZ=
201804280620 METAR ESMX 280620Z AUTO 14003KT 9999 -DZ SCT038/// OVC051/// 06/06 Q1011=
201804280550 METAR ESMX 280550Z AUTO 16004KT 9000 RA OVC030/// 07/05 Q1011=
201804280520 METAR ESMX 280520Z AUTO 15002KT 9999 -DZ SCT032/// OVC044/// 07/05 Q1011=
201804280450 METAR ESMX 280450Z AUTO 17002KT 9999 -RA FEW024/// SCT040/// BKN049/// 07/05 Q1011 REDZ=
201804280420 METAR ESMX 280420Z AUTO 18003KT 9999 -DZ BKN053/// BKN068/// OVC086/// 06/05 Q1011 REDZ=
201804280350 METAR ESMX 280350Z AUTO 17003KT 9999 FEW062/// 06/05 Q1011 REUP=
201804280320 METAR ESMX 280320Z AUTO 17005KT 9999 NCD 06/05 Q1011=
201804280250 METAR ESMX 280250Z AUTO 18004KT 9999 NCD 06/05 Q1011=
201804280220 METAR ESMX 280220Z AUTO 16007KT 9999 BKN044/// 07/05 Q1011 REDZ=
201804280150 METAR ESMX 280150Z AUTO 19006KT 9999 DZ BKN028/// BKN037/// OVC078/// 07/05 Q1011 REUP=
201804280120 METAR ESMX 280120Z AUTO 16004KT 9999 SCT038/// 07/04 Q1011=
201804280050 METAR ESMX 280050Z AUTO 14003KT 9999 NCD 06/04 Q1011=
201804280020 METAR ESMX 280020Z AUTO 18003KT 9999 FEW031/// 07/04 Q1011=
201804272350 METAR ESMX 272350Z AUTO 18003KT 9999 BKN031/// OVC088/// 07/04 Q1011=
201804272320 METAR ESMX 272320Z AUTO 19005KT 9999 SCT032/// BKN055/// 06/04 Q1011=
201804272250 METAR ESMX 272250Z AUTO 19006KT 9999 FEW032/// 06/04 Q1012=
201804272220 METAR ESMX 272220Z AUTO 20006KT 9999 FEW038/// 05/03 Q1011=
201804272150 METAR ESMX 272150Z AUTO 20004KT 9999 FEW084/// 05/03 Q1011=
201804272120 METAR ESMX 272120Z AUTO 20006KT 9999 FEW110/// 05/03 Q1011=
201804272050 METAR ESMX 272050Z AUTO 20007KT 9999 NCD 05/03 Q1011=
201804272020 METAR ESMX 272020Z AUTO 19006KT 9999 FEW074/// 05/02 Q1011=
201804271950 METAR ESMX 271950Z 19005KT CAVOK 07/03 Q1011=
201804271920 METAR ESMX 271920Z 21005KT CAVOK 06/02 Q1011=
201804271850 METAR ESMX 271850Z 20005KT CAVOK 08/03 Q1011=
201804271820 METAR ESMX 271820Z 23005KT CAVOK 09/03 Q1011=
201804271750 METAR ESMX 271750Z 23008KT 9999 FEW039 10/03 Q1010=
201804271720 METAR ESMX 271720Z 24010KT CAVOK 11/02 Q1010=
201804271650 METAR ESMX 271650Z 24011KT 210V280 9999 FEW042 11/02 Q1010=
201804271620 METAR ESMX 271620Z 24008KT 200V290 CAVOK 11/03 Q1010=
201804271550 METAR ESMX 271550Z 22010KT 9999 FEW038CB SCT051 12/02 Q1010=
201804271520 METAR ESMX 271520Z 23014KT 200V260 9999 BKN044CB 10/02 Q1010=
201804271450 METAR ESMX 271450Z 23012KT 200V260 9999 SCT043CB 13/02 Q1009=
201804271420 METAR ESMX 271420Z 24012KT 200V280 9999 SCT043 12/02 Q1009=
201804271350 METAR ESMX 271350Z 26010KT 220V280 9999 SCT038 10/04 Q1009=
201804271320 METAR ESMX 271320Z 25013KT 9999 FEW035 11/03 Q1009=
201804271250 METAR ESMX 271250Z 27012KT 230V330 9999 FEW041 SCT059 11/02 Q1009=
201804271220 METAR ESMX 271220Z 25013KT 190V270 9999 FEW034 13/04 Q1009=
201804271150 METAR ESMX 271150Z 24012KT 200V280 9999 FEW028 11/04 Q1009=
201804271120 METAR ESMX 271120Z 24013KT 9999 SCT024 BKN053 11/04 Q1009=
201804271050 METAR ESMX 271050Z 22012KT 180V260 9999 BKN018 10/06 Q1009=
201804271020 METAR ESMX 271020Z 21013KT 9999 BKN019 10/07 Q1009=
201804270950 METAR ESMX 270950Z 22010KT 180V250 9999 FEW015 BKN022 10/06 Q1009=
201804270920 METAR ESMX 270920Z 23009KT 190V260 9999 BKN014 09/06 Q1009=
201804270850 METAR ESMX 270850Z 21010KT 9999 SCT015 BKN021 08/06 Q1009=
201804270820 METAR ESMX 270820Z 21010KT 9999 SCT014 BKN023 08/06 Q1009=
201804270750 METAR ESMX 270750Z 23010KT 9999 SCT013 BKN020 09/06 Q1009=
201804270720 METAR ESMX 270720Z 22010KT 9999 BKN012 07/04 Q1009=
201804270650 METAR ESMX 270650Z 21011KT 9999 BKN010 08/06 Q1008=
201804270620 METAR ESMX 270620Z 22010KT 200V260 9999 BKN012 07/05 Q1008=
201804270550 METAR ESMX 270550Z 21012KT 9999 BKN010 07/05 Q1008=
201804270520 METAR ESMX 270520Z 21009KT 9999 BKN010 06/05 Q1008=
201804270450 METAR ESMX 270450Z 20009KT 9999 SCT008 BKN015 06/05 Q1008=
201804270420 METAR ESMX 270420Z 20007KT 9999 FEW015 BKN055 05/04 Q1008=
201804270350 METAR ESMX 270350Z 21008KT 9999 FEW016 BKN055 05/04 Q1008=
201804270320 METAR ESMX 270320Z AUTO 20008KT 9999 FEW009/// SCT024/// OVC055/// 05/04 Q1008=
201804270250 METAR ESMX 270250Z AUTO 22006KT 9999 SCT016/// BKN026/// BKN051/// 05/04 Q1008=
201804270220 METAR ESMX 270220Z AUTO 22006KT 9999 SCT012/// BKN020/// OVC026/// 05/04 Q1008=
201804270150 METAR ESMX 270150Z AUTO 21004KT 9999 FEW019/// BKN053/// 05/04 Q1008 REUP=
201804270120 METAR ESMX 270120Z AUTO 22005KT 190V250 9999 -DZ FEW003/// SCT017/// BKN026/// 05/04 Q1008 REUP=
201804270050 METAR ESMX 270050Z AUTO 23005KT 200V260 9999 OVC017/// 05/04 Q1008=
201804270020 METAR ESMX 270020Z AUTO 23006KT 190V260 9999 BKN020/// OVC034/// 05/04 Q1008=
201804262350 METAR ESMX 262350Z AUTO 25007KT 210V280 9999 RA SCT014/// OVC030/// 05/04 Q1008 REUP RERA=
201804262320 METAR ESMX 262320Z AUTO 20005KT 9999 SCT036/// BKN053/// 05/04 Q1007=
201804262250 METAR ESMX 262250Z AUTO 22006KT 9999 BKN068/// 05/03 Q1007=
201804262220 METAR ESMX 262220Z AUTO 22006KT 9999 FEW035/// BKN070/// 05/03 Q1007=
201804262150 METAR ESMX 262150Z AUTO 23006KT 9999 NCD 04/03 Q1007=
201804262120 METAR ESMX 262120Z AUTO 21006KT 9999 SCT034/// 04/03 Q1007=
201804262050 METAR ESMX 262050Z AUTO 23005KT 9999 NCD 04/03 Q1007=
201804262020 METAR ESMX 262020Z AUTO 22006KT 9999 FEW064/// 04/02 Q1007=
201804261950 METAR ESMX 261950Z 23005KT 9999 FEW045 05/03 Q1007=
201804261920 METAR ESMX 261920Z 20005KT CAVOK 04/02 Q1006=
201804261850 METAR ESMX 261850Z 23006KT CAVOK 06/02 Q1006=
201804261820 METAR ESMX 261820Z 24010KT CAVOK 07/02 Q1006=
201804261750 METAR ESMX 261750Z 25009KT 9999 FEW026 08/03 Q1005=
201804261720 METAR ESMX 261720Z 25009KT 210V280 9999 FEW030 09/03 Q1005=
201804261650 METAR ESMX 261650Z 25010KT 230V290 9999 FEW030 09/03 Q1005=
201804261620 METAR ESMX 261620Z 24012KT 9999 FEW041 SCT062 11/03 Q1005=
201804261550 METAR ESMX 261550Z 25013KT 9999 SCT040 12/02 Q1005=
201804261520 METAR ESMX 261520Z 24011KT 200V270 9999 SCT037 11/02 Q1005=
201804261450 METAR ESMX 261450Z 26012KT 9999 SCT039 11/02 Q1005=
201804261420 METAR ESMX 261420Z 25012KT 9999 SCT040 BKN053 12/02 Q1004=
201804261350 METAR ESMX 261350Z 28006KT 250V330 9999 FEW036 BKN053 11/02 Q1004=
201804261320 METAR ESMX 261320Z 25009KT 210V290 9999 -SHRA SCT040CB BKN055 10/02 Q1004=
201804261250 METAR ESMX 261250Z 23011KT 9999 VCSH SCT038 BKN050 11/02 Q1004=
201804261220 METAR ESMX 261220Z 28010KT 260V330 9999 SCT032 BKN060 10/01 Q1004=
201804261150 METAR ESMX 261150Z 25012KT 210V270 9999 SCT028 BKN055 11/02 Q1004=
201804261120 METAR ESMX 261120Z 24011KT 9999 SCT025 BKN060 10/04 Q1004=
201804261050 METAR ESMX 261050Z 24012KT 210V280 9999 BKN037 09/02 Q1004=
201804261020 METAR COR ESMX 261020Z 26012KT 9999 SCT040 BKN055 09/01 Q1004=
201804260950 METAR ESMX 260950Z 26010KT 9999 FEW035 BKN050 09/01 Q1004=
201804260920 METAR ESMX 260920Z 26011KT 220V290 9999 SCT033 BKN053 10/02 Q1004=
201804260850 METAR ESMX 260850Z 26009KT 210V290 9999 SCT034 BKN055 10/02 Q1003=
201804260820 METAR ESMX 260820Z 26011KT 230V290 9999 FEW029 BKN057 09/02 Q1003=
201804260750 METAR ESMX 260750Z 25011KT 220V290 9999 BKN026 08/02 Q1003=
201804260720 METAR ESMX 260720Z 25010KT 200V280 9999 SCT022 08/02 Q1003=
201804260650 METAR ESMX 260650Z 27009KT 230V310 9999 BKN020 07/02 Q1003=
201804260620 METAR ESMX 260620Z 27011KT 9999 BKN018 07/02 Q1003=
201804260550 METAR ESMX 260550Z 25010KT 9999 FEW016 07/03 Q1003=
201804260520 METAR ESMX 260520Z 25008KT 9999 FEW020 06/02 Q1003=
201804260450 METAR ESMX 260450Z 26009KT 9999 BKN021 06/02 Q1002=
201804260420 METAR ESMX 260420Z 24007KT 210V280 9999 SCT022 05/02 Q1002=
201804260350 METAR ESMX 260350Z 25007KT 9999 BKN024 05/02 Q1002=
201804260320 METAR ESMX 260320Z AUTO 25007KT 9999 OVC024/// 05/02 Q1002=
201804260250 METAR ESMX 260250Z AUTO 24008KT 200V260 9999 OVC028/// 06/02 Q1002=
201804260220 METAR ESMX 260220Z AUTO 26008KT 9999 OVC029/// 06/02 Q1002=
201804260150 METAR ESMX 260150Z AUTO 22006KT 9999 OVC032/// 06/04 Q1002=
201804260120 METAR ESMX 260120Z AUTO 23004KT 9999 OVC034/// 06/04 Q1002=
201804260050 METAR ESMX 260050Z AUTO 23007KT 200V280 9999 OVC032/// 07/03 Q1002=
201804260020 METAR ESMX 260020Z AUTO 24010KT 210V280 9999 OVC037/// 07/03 Q1002=
201804252350 METAR ESMX 252350Z AUTO 25009KT 9999 BKN039/// 07/04 Q1002=
201804252320 METAR ESMX 252320Z AUTO 23007KT 9999 OVC040/// 06/04 Q1002=
201804252250 METAR ESMX 252250Z AUTO 22006KT 9999 BKN039/// 06/05 Q1002=
201804252220 METAR ESMX 252220Z AUTO 23006KT 9999 BKN042/// 05/04 Q1002=
201804252150 METAR ESMX 252150Z AUTO 23005KT 9999 SCT015/// OVC041/// 06/04 Q1002=
201804252120 METAR ESMX 252120Z AUTO 22005KT 9999 SCT028/// 05/03 Q1002=
201804252050 METAR ESMX 252050Z AUTO 23005KT 200V260 9999 SCT029/// 06/03 Q1002=
201804252020 METAR ESMX 252020Z AUTO 22006KT 9999 SCT034/// 06/03 Q1002=
201804251950 METAR ESMX 251950Z 25006KT CAVOK 06/02 Q1001=
201804251920 METAR ESMX 251920Z 25006KT CAVOK 06/02 Q1001=
201804251850 METAR ESMX 251850Z 24005KT 9999 FEW038 07/02 Q1001=
201804251820 METAR ESMX 251820Z 26008KT 9999 FEW037 08/02 Q1001=
201804251750 METAR ESMX 251750Z 27010KT 9999 FEW035 09/02 Q1000=
201804251720 METAR ESMX 251720Z 27011KT 9999 SCT035 09/03 Q1000=
201804251650 METAR ESMX 251650Z 27013KT 230V290 9999 SCT034 10/02 Q1000=
201804251620 METAR ESMX 251620Z 27015KT 240V300 9999 SCT040 11/02 Q0999=
201804251550 METAR ESMX 251550Z 28011KT 240V320 9999 BKN034 11/03 Q0999=
201804251520 METAR ESMX 251520Z 26013KT 230V300 9999 BKN033 11/03 Q0999=
201804251450 METAR ESMX 251450Z 25011KT 9999 BKN034 11/03 Q0999=
201804251420 METAR ESMX 251420Z 28010KT 240V310 9999 FEW032 BKN042 11/03 Q0999=
201804251350 METAR ESMX 251350Z 27008KT 230V300 9999 FEW027 BKN044 09/04 Q0999=
201804251320 METAR ESMX 251320Z 27008KT 240V300 9999 BKN024 10/04 Q0999=
201804251250 METAR ESMX 251250Z 23008KT 9999 BKN022 09/04 Q0999=
201804251220 METAR ESMX 251220Z 23008KT 200V280 9999 -RA BKN022 09/05 Q0999=
201804251150 METAR ESMX 251150Z 21008KT 9999 -DZ BKN020 08/05 Q0999=
201804251120 METAR ESMX 251120Z 24005KT 200V280 9999 FEW013 BKN018 09/04 Q0999=
201804251050 METAR ESMX 251050Z 23006KT 9999 -DZ FEW015 BKN039 08/05 Q0999=
201804251020 METAR ESMX 251020Z 22003KT 190V260 9999 -DZ BKN023 07/05 Q0999=
201804250950 METAR ESMX 250950Z 21006KT 9999 -RA BKN013 07/05 Q0999=
201804250920 METAR ESMX 250920Z 21006KT 180V240 9999 -RA FEW013 BKN017 08/05 Q1000=
201804250850 METAR ESMX 250850Z 21005KT 9999 FEW013 BKN028 07/05 Q1000=
201804250820 METAR ESMX 250820Z 21005KT 9999 DZ SCT015 BKN024 07/05 Q1000=
201804250750 METAR ESMX 250750Z 21006KT 9999 BKN015 07/04 Q1000=
201804250720 METAR ESMX 250720Z 22006KT 9999 BKN016 07/03 Q1000=
201804250650 METAR ESMX 250650Z 23008KT 9999 BKN014 07/04 Q1000=
201804250620 METAR ESMX 250620Z 23010KT 9999 BKN014 07/03 Q1001=
201804250550 METAR ESMX 250550Z 23008KT 9999 FEW012 SCT016 07/04 Q1001=
201804250520 METAR ESMX 250520Z 22007KT 9999 FEW012 SCT033 06/04 Q1001=
201804250450 METAR ESMX 250450Z 22008KT 9999 BKN035 06/04 Q1001=
201804250420 METAR ESMX 250420Z 22007KT 9999 FEW022 BKN033 06/03 Q1001=
201804250350 METAR COR ESMX 250350Z 21006KT 9999 FEW014 SCT021 06/04 Q1001=
201804250320 METAR ESMX 250320Z AUTO 23006KT 9999 OVC029/// 06/03 Q1001=
201804250250 METAR ESMX 250250Z AUTO 24007KT 9999 FEW016/// OVC031/// 06/03 Q1002=
201804250220 METAR ESMX 250220Z AUTO 24007KT 9999 FEW016/// SCT021/// OVC031/// 06/04 Q1002=
201804250150 METAR ESMX 250150Z AUTO 23008KT 9999 FEW017/// OVC033/// 06/04 Q1002=
201804250120 METAR ESMX 250120Z AUTO 25009KT 210V280 9999 FEW018/// OVC029/// 06/03 Q1002=
201804250050 METAR ESMX 250050Z AUTO 25009KT 9999 BKN021/// OVC027/// 06/04 Q1002=
201804250020 METAR ESMX 250020Z AUTO 25009KT 9999 FEW018/// OVC025/// 07/03 Q1002=
201804242350 METAR ESMX 242350Z AUTO 25010KT 220V290 9999 OVC024/// 07/03 Q1003=
201804242320 METAR ESMX 242320Z AUTO 24010KT 9999 SCT018/// OVC027/// 07/04 Q1003=
201804242250 METAR ESMX 242250Z AUTO 25012KT 9999 BKN019/// OVC025/// 07/04 Q1003=
201804242220 METAR ESMX 242220Z AUTO 25012KT 210V280 9999 BKN019/// OVC028/// 07/04 Q1003=
201804242150 METAR ESMX 242150Z AUTO 25012KT 9999 BKN018/// OVC025/// 07/04 Q1003=
201804242120 METAR ESMX 242120Z AUTO 25010KT 200V280 9999 OVC020/// 07/04 Q1003=
201804242050 METAR ESMX 242050Z AUTO 26014KT 220V280 9999 FEW010/// SCT013/// BKN017/// 07/04 Q1003=
201804242020 METAR ESMX 242020Z 25012KT 9999 BKN011 OVC014 07/05 Q1002=
201804241950 METAR ESMX 241950Z 23012KT 9999 BKN010 07/05 Q1002=
201804241920 METAR ESMX 241920Z 24014KT 9999 BKN010 07/06 Q1002=
201804241850 METAR ESMX 241850Z 23014KT 8000 -DZ FEW006 BKN012 07/06 Q1002=
201804241820 METAR ESMX 241820Z 25013KT 9999 BKN013 07/06 Q1002=
201804241750 METAR ESMX 241750Z 25012KT 6000 -RA FEW002 SCT006 BKN016 07/06 Q1002=
201804241720 METAR ESMX 241720Z 24013G24KT 9999 BKN017 08/05 Q1002=
201804241650 METAR ESMX 241650Z 25014KT 9999 -RA BKN016 08/06 Q1002=
201804241620 METAR ESMX 241620Z 25014G26KT 210V280 9999 -RA BKN018 09/06 Q1001=
201804241550 METAR ESMX 241550Z 24015G26KT 9999 BKN018 09/06 Q1001=
201804241520 METAR ESMX 241520Z 24014G25KT 9999 BKN020 09/06 Q1001=
201804241450 METAR ESMX 241450Z 25015KT 220V280 9999 BKN020 10/07 Q1001=
201804241420 METAR ESMX 241420Z 24013G24KT 210V280 9999 BKN020 11/06 Q1001=
201804241350 METAR ESMX 241350Z 23012KT 9999 BKN016 11/08 Q1001=
201804241320 METAR ESMX 241320Z 24011G23KT 9999 BKN013 10/08 Q1002=
201804241250 METAR ESMX 241250Z 24012KT 200V260 9999 FEW007 BKN012 10/08 Q1002=
201804241220 METAR ESMX 241220Z 22010KT 6000 -RA FEW001 BKN007 09/08 Q1002=
201804241150 METAR ESMX 241150Z 19014KT 6000 -DZ FEW002 BKN005 09/08 Q1002=
201804241120 METAR ESMX 241120Z 18012KT 5000 DZ BKN006 09/08 Q1002=
201804241050 METAR ESMX 241050Z 19011KT 5000 DZ SCT002 BKN006 OVC009 08/07 Q1003=
201804241020 METAR ESMX 241020Z 19012KT 8000 -RA OVC010 08/07 Q1003=
201804240950 METAR ESMX 240950Z 19010KT 9999 BKN011 08/06 Q1003=
201804240920 METAR ESMX 240920Z 20011KT 9999 BKN013 08/06 Q1004=
201804240850 METAR ESMX 240850Z 21010KT 190V250 9999 FEW013 SCT016 OVC022 08/06 Q1004=
201804240820 METAR ESMX 240820Z 22010KT 9999 BKN011 OVC026 08/06 Q1004=
201804240750 METAR ESMX 240750Z 22009KT 9999 BKN010 08/06 Q1005=
201804240720 METAR ESMX 240720Z 22009KT 190V250 9999 -DZ OVC009 08/07 Q1005=
201804240650 METAR ESMX 240650Z 20010KT 9999 -DZ BKN007 07/06 Q1005=
201804240620 METAR ESMX 240620Z 21009KT 7000 -RA BKN007 07/06 Q1005=
201804240550 METAR ESMX 240550Z 21007KT 4400 DZ SCT002 BKN005 OVC013 07/06 Q1005=
201804240520 METAR ESMX 240520Z 22009KT 9999 FEW015 OVC024 07/05 Q1005=
201804240450 METAR ESMX 240450Z 22009KT 9999 SCT015 OVC020 07/05 Q1006=
201804240420 METAR ESMX 240420Z 21007KT 9999 BKN019 OVC026 07/05 Q1005=
201804240350 METAR ESMX 240350Z 22007KT 9999 FEW014 OVC027 07/05 Q1006=
201804240320 METAR ESMX 240320Z AUTO 22008KT 9999 BKN014/// OVC029/// 07/05 Q1006 REUP=
201804240250 METAR ESMX 240250Z AUTO 22008KT 9999 BKN017/// OVC028/// 08/05 Q1006=
201804240220 METAR ESMX 240220Z AUTO 23008KT 9999 OVC030/// 08/04 Q1006=
201804240150 METAR ESMX 240150Z AUTO 24008KT 9999 FEW018/// OVC030/// 08/05 Q1006=
201804240120 METAR ESMX 240120Z AUTO 24010KT 9999 FEW017/// BKN034/// OVC041/// 08/05 Q1006=
201804240050 METAR ESMX 240050Z AUTO 23011KT 9999 FEW017/// BKN026/// OVC040/// 08/05 Q1006=
201804240020 METAR ESMX 240020Z AUTO 23009KT 9999 SCT018/// OVC038/// 08/05 Q1006=
201804232350 METAR ESMX 232350Z AUTO 23010KT 9999 FEW018/// SCT027/// OVC040/// 08/05 Q1006=
201804232320 METAR ESMX 232320Z AUTO 24010KT 9999 FEW019/// SCT026/// OVC041/// 08/05 Q1006=
201804232250 METAR ESMX 232250Z AUTO 23009KT 9999 FEW020/// OVC041/// 08/05 Q1006=
201804232220 METAR ESMX 232220Z AUTO 23009KT 200V260 9999 FEW021/// OVC043/// 09/05 Q1006=
201804232150 METAR ESMX 232150Z AUTO 22009KT 9999 SCT022/// OVC051/// 09/05 Q1006=
201804232120 METAR ESMX 232120Z AUTO 24009KT 9999 FEW025/// OVC051/// 09/05 Q1006=
201804232050 METAR ESMX 232050Z AUTO 24008KT 9999 FEW033/// OVC053/// 09/05 Q1006=
201804232020 METAR ESMX 232020Z AUTO 24010KT 9999 FEW019/// OVC051/// 09/05 Q1006=
201804231950 METAR ESMX 231950Z 23010KT 9999 FEW038 BKN055 10/06 Q1006=
201804231920 METAR ESMX 231920Z 25012KT 230V290 9999 FEW023 SCT040 BKN060 10/05 Q1006=
201804231850 METAR ESMX 231850Z 24010KT 9999 -RA SCT030 BKN060 11/05 Q1006=
201804231820 METAR ESMX 231820Z 22010KT 200V260 9999 BKN048 11/05 Q1005=
201804231750 METAR ESMX 231750Z 23010KT 200V260 9999 FEW037 SCT060 11/04 Q1005=
201804231720 METAR ESMX 231720Z 24009KT 210V280 9999 FEW035 BKN060 12/05 Q1005=
201804231650 METAR ESMX 231650Z 24009KT 9999 SCT040 BKN060 12/04 Q1005=
201804231620 METAR ESMX 231620Z 25010KT 9999 SCT045 BKN060 13/04 Q1005=
201804231550 METAR ESMX 231550Z 25010KT 220V290 9999 FEW043 BKN060 13/04 Q1005=
201804231520 METAR ESMX 231520Z 25013KT 9999 SCT043 BKN060 14/04 Q1005=
201804231450 METAR ESMX 231450Z 25013KT 9999 SCT033 14/05 Q1005=
201804231420 METAR COR ESMX 231420Z 26014KT 230V290 9999 FEW034 BKN046 14/05 Q1005=
201804231350 METAR ESMX 231350Z 26011KT 9999 FEW037 SCT051 14/08 Q1005=
201804231320 METAR ESMX 231320Z 26010KT 230V300 9999 SCT011 BKN016 BKN029 12/08 Q1005=
201804231250 METAR ESMX 231250Z 24009KT 210V280 9999 BKN009 12/10 Q1005=
201804231220 METAR COR ESMX 231220Z 22006KT 9999 BKN005 11/09 Q1005=
201804231150 METAR ESMX 231150Z 19006KT 9999 BKN005 09/08 Q1005=
201804231120 METAR ESMX 231120Z 20006KT 9999 -DZ BKN005 09/08 Q1005=
201804231050 METAR COR ESMX 231050Z 19008KT 9999 BKN005 09/07 Q1005=
201804231020 METAR ESMX 231020Z 17007KT 130V200 9999 OVC005 08/07 Q1005=
201804230950 METAR ESMX 230950Z 15007KT 110V180 9999 BKN006 08/06 Q1005=
201804230920 METAR ESMX 230920Z 15007KT 110V190 9999 BKN007 07/06 Q1005=
201804230850 METAR ESMX 230850Z 14005KT 080V190 9999 FEW013 SCT025 07/05 Q1005=
201804230820 METAR ESMX 230820Z 13009KT 100V160 9999 BKN045 06/04 Q1005=
201804230750 METAR ESMX 230750Z 13007KT 080V170 9999 FEW039 BKN049 06/05 Q1006=
201804230720 METAR ESMX 230720Z 12006KT 070V170 9999 -RA FEW045 BKN059 OVC070 06/04 Q1007=
201804230650 METAR ESMX 230650Z 15007KT 090V180 9999 RA OVC057 06/04 Q1007=
201804230620 METAR ESMX 230620Z 13003KT 060V180 9999 -DZ FEW050 BKN072 07/02 Q1007=
201804230550 METAR ESMX 230550Z 12008KT 080V170 CAVOK 07/01 Q1007=
201804230520 METAR ESMX 230520Z 12005KT 080V160 CAVOK 06/01 Q1008=
201804230450 METAR ESMX 230450Z 14005KT 100V180 CAVOK 06/01 Q1009=
201804230420 METAR ESMX 230420Z 13007KT 090V170 CAVOK 05/01 Q1009=
201804230350 METAR ESMX 230350Z 11007KT 080V160 CAVOK 04/01 Q1009=
201804230320 METAR ESMX 230320Z AUTO 13005KT 080V170 9999 NCD 04/01 Q1010=
201804230250 METAR ESMX 230250Z AUTO 11005KT 010V140 9999 NCD 05/01 Q1010=
201804230220 METAR ESMX 230220Z AUTO 13005KT 090V170 9999 NCD 05/01 Q1011=
201804230150 METAR ESMX 230150Z AUTO 14006KT 100V170 9999 SCT120/// 05/01 Q1011=
201804230120 METAR ESMX 230120Z AUTO 14008KT 9999 OVC110/// 06/01 Q1012=
201804230050 METAR ESMX 230050Z AUTO 14006KT 9999 OVC120/// 06/01 Q1012=
201804230020 METAR ESMX 230020Z AUTO 13008KT 9999 OVC120/// 06/02 Q1012=
201804222350 METAR ESMX 222350Z AUTO 12005KT 080V160 9999 BKN120/// 06/02 Q1013=
201804222320 METAR ESMX 222320Z AUTO 14006KT 110V180 9999 SCT120/// 06/02 Q1013=
201804222250 METAR ESMX 222250Z AUTO 14008KT 9999 FEW130/// 07/02 Q1013=
201804222220 METAR ESMX 222220Z AUTO 14007KT 9999 NCD 07/02 Q1013=
201804222150 METAR ESMX 222150Z AUTO 15005KT 9999 NCD 07/02 Q1013=
201804222120 METAR ESMX 222120Z 15006KT CAVOK 08/02 Q1014=
201804222050 METAR ESMX 222050Z 14006KT 110V170 CAVOK 09/02 Q1014=
201804222020 METAR ESMX 222020Z 15007KT CAVOK 10/02 Q1014=
201804221950 METAR ESMX 221950Z 15007KT CAVOK 10/01 Q1014=
201804221920 METAR ESMX 221920Z 15007KT CAVOK 11/01 Q1014=
201804221850 METAR ESMX 221850Z 15010KT CAVOK 12/01 Q1014=
201804221820 METAR ESMX 221820Z 16009KT CAVOK 13/02 Q1013=
201804221750 METAR ESMX 221750Z 15010KT CAVOK 14/02 Q1013=
201804221720 METAR ESMX 221720Z 17002KT CAVOK 16/M01 Q1013=
201804221650 METAR ESMX 221650Z 16005KT 130V190 CAVOK 16/M01 Q1013=
201804221620 METAR ESMX 221620Z 16007KT CAVOK 16/M04 Q1013=
201804221550 METAR ESMX 221550Z 18008KT CAVOK 16/M03 Q1014=
201804221520 METAR ESMX 221520Z 14005KT 090V190 CAVOK 17/00 Q1014=
201804221450 METAR ESMX 221450Z 22005KT 180V260 CAVOK 17/02 Q1014=
201804221420 METAR ESMX 221420Z 15004KT 100V210 CAVOK 16/01 Q1014=
201804221350 METAR ESMX 221350Z 15004KT 070V190 CAVOK 16/00 Q1014=
201804221320 METAR ESMX 221320Z VRB03KT CAVOK 17/00 Q1015=
201804221250 METAR ESMX 221250Z VRB03KT CAVOK 15/00 Q1015=
201804221220 METAR ESMX 221220Z VRB04KT CAVOK 15/00 Q1015=
201804221150 METAR ESMX 221150Z 06006KT 010V110 CAVOK 15/M00 Q1016=
201804221120 METAR ESMX 221120Z AUTO 35007KT 9999 NCD 14/M01 Q1016=
201804221050 METAR ESMX 221050Z 01004KT 340V080 CAVOK 14/01 Q1016=
201804221020 METAR ESMX 221020Z 34003KT 250V030 CAVOK 13/03 Q1016=
201804220950 METAR ESMX 220950Z 07003KT 350V150 CAVOK 12/03 Q1016=
201804220920 METAR ESMX 220920Z 06004KT 010V180 CAVOK 11/03 Q1016=
201804220850 METAR ESMX 220850Z VRB03KT CAVOK 10/04 Q1016=
201804220820 METAR ESMX 220820Z VRB03KT CAVOK 09/04 Q1016=
201804220750 METAR ESMX 220750Z VRB03KT 9999 FEW006 07/03 Q1016=
201804220720 METAR ESMX 220720Z 28005KT 240V320 9999 BKN004 OVC005 05/04 Q1016=
201804220650 METAR ESMX 220650Z 30005KT 9000 BR OVC003 04/04 Q1016=
201804220620 METAR ESMX 220620Z 28005KT 5000 BR OVC002 04/03 Q1016=
201804220550 METAR ESMX 220550Z AUTO 26005KT 2200 OVC001/// 04/03 Q1016=
201804220520 METAR ESMX 220520Z AUTO 29005KT 1300 R01/P2000N R19/1500N OVC001/// 04/03 Q1016=
201804220450 METAR ESMX 220450Z AUTO 30006KT 0400 R01/0900N R19/P2000N FG OVC001/// 03/03 Q1016=
201804220420 METAR ESMX 220420Z AUTO 29005KT 2300 OVC001/// 03/03 Q1016=
201804220350 METAR ESMX 220350Z AUTO 30005KT 260V320 2000 OVC001/// 04/03 Q1015=
201804220320 METAR ESMX 220320Z AUTO 28005KT 240V320 1100 R01/P2000N R19/P2000N FG OVC002/// 04/03 Q1015=
201804220250 METAR ESMX 220250Z AUTO 29005KT 250V320 1000 R01/P2000N R19/P2000N BR OVC001/// 04/03 Q1015=
201804220220 METAR ESMX 220220Z AUTO 27006KT 240V310 3400 BR BKN002/// BKN004/// 04/03 Q1015=
201804220150 METAR ESMX 220150Z AUTO 27005KT 9999 NCD 03/03 Q1015=
201804220120 METAR ESMX 220120Z AUTO 26006KT 9999 NCD 03/03 Q1015=
201804220050 METAR ESMX 220050Z AUTO 27003KT 250V310 9999 NCD 04/03 Q1015=
201804220020 METAR ESMX 220020Z AUTO 26005KT 9999 NCD 03/02 Q1016=
201804212350 METAR ESMX 212350Z AUTO 25005KT 9999 NCD 03/02 Q1016=
201804212320 METAR ESMX 212320Z AUTO 27003KT 240V330 9999 NCD 05/03 Q1016=
201804212250 METAR ESMX 212250Z AUTO 26004KT 9999 NCD 05/03 Q1016=
201804212220 METAR ESMX 212220Z AUTO 25004KT 9999 NCD 05/03 Q1016=
201804212150 METAR ESMX 212150Z AUTO 26003KT 230V320 9999 NCD 06/03 Q1016=
201804212120 METAR ESMX 212120Z AUTO 24003KT 170V300 9999 NCD 07/03 Q1016=
201804212050 METAR ESMX 212050Z AUTO 26007KT 9999 NCD 08/03 Q1016=
201804212020 METAR ESMX 212020Z AUTO 26008KT 9999 NCD 08/03 Q1016=
201804211950 METAR ESMX 211950Z AUTO 26008KT 9999 NCD 09/03 Q1015=
201804211920 METAR ESMX 211920Z 26008KT CAVOK 10/02 Q1015=
201804211850 METAR ESMX 211850Z 25009KT CAVOK 11/02 Q1015=
201804211820 METAR COR ESMX 211820Z 26008KT CAVOK 11/02 Q1015=
201804211750 METAR ESMX 211750Z 26008KT 230V290 CAVOK 13/01 Q1015=
201804211720 METAR ESMX 211720Z 27011KT CAVOK 14/01 Q1015=
201804211650 METAR ESMX 211650Z 28011G22KT 250V310 CAVOK 14/00 Q1015=
201804211620 METAR ESMX 211620Z AUTO 25013KT 9999 NCD 15/M00 Q1015=
201804211550 METAR ESMX 211550Z AUTO 29011KT 250V320 9999 NCD 15/01 Q1015=
201804211520 METAR ESMX 211520Z AUTO 28012KT 250V310 9999 NCD 16/01 Q1015=
201804211450 METAR ESMX 211450Z AUTO 27012KT 9999 NCD 16/01 Q1015=
201804211420 METAR ESMX 211420Z AUTO 29013KT 270V330 9999 NCD 17/01 Q1015=
201804211350 METAR ESMX 211350Z AUTO 27015KT 9999 NCD 17/00 Q1014=
201804211320 METAR ESMX 211320Z AUTO 27012KT 240V330 9999 NCD 17/01 Q1015=
201804211250 METAR ESMX 211250Z AUTO 28014KT 250V320 9999 NCD 18/01 Q1015=
201804211220 METAR ESMX 211220Z AUTO 28014KT 9999 NCD 17/00 Q1015=
201804211150 METAR ESMX 211150Z AUTO 28012KT 230V320 9999 NCD 17/00 Q1014=
201804211120 METAR ESMX 211120Z AUTO 28014G24KT 9999 NCD 16/01 Q1014=
201804211050 METAR ESMX 211050Z AUTO 31014KT 9999 NCD 16/01 Q1014=
201804211020 METAR COR ESMX 211020Z 30012KT CAVOK 16/01 Q1014=
201804210950 METAR ESMX 210950Z 28011KT 240V320 CAVOK 15/02 Q1014=
201804210920 METAR ESMX 210920Z 27012KT CAVOK 14/02 Q1014=
201804210850 METAR ESMX 210850Z 30012KT 9999 NSC 14/02 Q1014=
201804210820 METAR ESMX 210820Z 29010KT CAVOK 13/02 Q1014=
201804210750 METAR ESMX 210750Z 30010KT CAVOK 12/03 Q1014=
201804210720 METAR ESMX 210720Z 31014KT CAVOK 11/02 Q1014=
201804210650 METAR ESMX 210650Z AUTO 29011KT 9999 NCD 11/03 Q1013=
201804210620 METAR ESMX 210620Z AUTO 28011KT 9999 NCD 10/03 Q1013=
201804210550 METAR ESMX 210550Z AUTO 28011KT 9999 NCD 09/03 Q1013=
201804210520 METAR ESMX 210520Z AUTO 27010KT 9999 NCD 09/03 Q1013=
201804210450 METAR ESMX 210450Z AUTO 27009KT 9999 NCD 08/04 Q1012=
201804210420 METAR ESMX 210420Z AUTO 27008KT 9999 NCD 07/04 Q1012=
201804210350 METAR ESMX 210350Z AUTO 26008KT 9999 NCD 07/04 Q1012=
201804210320 METAR ESMX 210320Z AUTO 27008KT 9999 NCD 08/04 Q1012=
201804210250 METAR ESMX 210250Z AUTO 27008KT 9999 NCD 08/04 Q1012=
201804210220 METAR ESMX 210220Z AUTO 26008KT 9999 NCD 09/05 Q1012=
201804210150 METAR ESMX 210150Z AUTO 27009KT 9999 NCD 09/06 Q1012=
201804210120 METAR ESMX 210120Z AUTO 28008KT 9999 NCD 10/06 Q1012=
201804210050 METAR ESMX 210050Z AUTO 26008KT 9999 NCD 11/06 Q1012=
201804210020 METAR ESMX 210020Z AUTO 27009KT 9999 NCD 11/07 Q1012=
201804202350 METAR ESMX 202350Z AUTO 26010KT 9999 NCD 12/07 Q1012=
201804202320 METAR ESMX 202320Z AUTO 26009KT 9999 NCD 13/07 Q1012=
201804202250 METAR ESMX 202250Z AUTO 26010KT 220V290 9999 NCD 14/08 Q1011=
201804202220 METAR ESMX 202220Z AUTO 27010KT 230V300 9999 NCD 14/09 Q1011=
201804202150 METAR ESMX 202150Z AUTO 26008KT 9999 NCD 15/09 Q1011=
201804202120 METAR ESMX 202120Z AUTO 27007KT 9999 NCD 16/10 Q1011=
201804202050 METAR ESMX 202050Z AUTO 26009KT 9999 NCD 17/10 Q1012=
201804202020 METAR ESMX 202020Z AUTO 25007KT 9999 NCD 18/10 Q1012=
201804201950 METAR ESMX 201950Z AUTO 24007KT 9999 NCD 18/10 Q1012=
201804201920 METAR ESMX 201920Z 23007KT CAVOK 17/09 Q1012=
201804201850 METAR ESMX 201850Z 21006KT CAVOK 17/09 Q1012=
201804201820 METAR ESMX 201820Z 22006KT CAVOK 18/08 Q1012=
201804201750 METAR ESMX 201750Z 22007KT CAVOK 20/08 Q1013=
201804201720 METAR ESMX 201720Z 22008KT CAVOK 21/08 Q1013=
201804201650 METAR ESMX 201650Z 21011KT CAVOK 22/08 Q1014=
201804201620 METAR ESMX 201620Z 22011KT CAVOK 23/08 Q1014=
201804201550 METAR ESMX 201550Z 21015KT CAVOK 23/08 Q1014=
201804201520 METAR ESMX 201520Z 21014KT 170V250 CAVOK 24/08 Q1015=
201804201450 METAR ESMX 201450Z 21015KT 170V240 CAVOK 23/09 Q1016=
201804201420 METAR ESMX 201420Z 20014KT CAVOK 24/09 Q1016=
201804201350 METAR ESMX 201350Z 20015KT CAVOK 24/09 Q1017=
201804201320 METAR ESMX 201320Z 19013KT 160V230 CAVOK 24/09 Q1017=
201804201250 METAR ESMX 201250Z 18015KT CAVOK 24/08 Q1018=
201804201220 METAR ESMX 201220Z 19012KT CAVOK 24/09 Q1019=
201804201150 METAR ESMX 201150Z 20011KT CAVOK 23/09 Q1019=
201804201120 METAR ESMX 201120Z 21011KT 170V250 CAVOK 23/09 Q1020=
201804201050 METAR ESMX 201050Z 19012KT 150V210 CAVOK 23/10 Q1020=
201804201020 METAR ESMX 201020Z 20010KT 160V240 CAVOK 22/12 Q1021=
201804200950 METAR ESMX 200950Z 19010KT 160V230 CAVOK 21/11 Q1021=
201804200920 METAR ESMX 200920Z 21009KT 180V250 CAVOK 20/11 Q1022=
201804200850 METAR ESMX 200850Z 22009KT 190V250 CAVOK 19/11 Q1022=
201804200820 METAR ESMX 200820Z 21009KT CAVOK 18/11 Q1023=
201804200750 METAR ESMX 200750Z 21009KT CAVOK 17/11 Q1023=
201804200720 METAR ESMX 200720Z 21009KT CAVOK 16/10 Q1024=
201804200650 METAR ESMX 200650Z 21008KT CAVOK 15/10 Q1024=
201804200620 METAR ESMX 200620Z 21007KT CAVOK 14/10 Q1024=
201804200550 METAR ESMX 200550Z 22006KT CAVOK 12/10 Q1024=
201804200520 METAR ESMX 200520Z 22004KT CAVOK 10/10 Q1025=
201804200450 METAR ESMX 200450Z 21004KT CAVOK 08/07 Q1025=
201804200420 METAR ESMX 200420Z 20003KT 9999 BCFG NSC 05/05 Q1025=
201804200350 METAR ESMX 200350Z 19003KT 9999 BCFG NSC 06/05 Q1025=
201804200320 METAR ESMX 200320Z AUTO 19001KT 0200 R01/0600N R19/1600N FG NCD 06/05 Q1026=
201804200250 METAR ESMX 200250Z AUTO 00000KT 0150 R01/P2000D R19/0650D BCFG SCT000/// 05/05 Q1026=
201804200220 METAR ESMX 200220Z AUTO 23003KT 0150 R01/P2000N R19/0550N BR NCD 06/06 Q1026=
201804200150 METAR ESMX 200150Z AUTO 22003KT 0100 R01/P2000N R19/0400N NCD 08/07 Q1026=
201804200120 METAR ESMX 200120Z AUTO 22003KT 0200 R01/P2000N R19/0450N NCD 09/08 Q1026=
201804200050 METAR ESMX 200050Z AUTO 22005KT 6000 NCD 08/07 Q1027=
201804200020 METAR ESMX 200020Z 22004KT CAVOK 09/08 Q1027=
201804192350 METAR ESMX 192350Z AUTO 22005KT 2700 NCD 09/08 Q1027=
201804192320 METAR ESMX 192320Z AUTO 23005KT 9999 NCD 09/08 Q1027=
201804192250 METAR ESMX 192250Z AUTO 24005KT 9999 NCD 09/08 Q1027=
201804192220 METAR ESMX 192220Z AUTO 24004KT 9999 NCD 11/09 Q1027=
201804192150 METAR ESMX 192150Z AUTO 22004KT 9999 NCD 12/10 Q1028=
201804192120 METAR ESMX 192120Z AUTO 23004KT 9999 NCD 11/10 Q1028=
201804192050 METAR ESMX 192050Z AUTO VRB02KT 9999 NCD 13/11 Q1028=
201804192020 METAR ESMX 192020Z AUTO 25003KT 9999 NCD 12/11 Q1028=
201804191950 METAR ESMX 191950Z 25003KT CAVOK 12/10 Q1028=
201804191920 METAR ESMX 191920Z 24003KT CAVOK 12/10 Q1028=
201804191850 METAR ESMX 191850Z AUTO 18003KT 9999 NCD 12/10 Q1028=
201804191820 METAR ESMX 191820Z 00000KT CAVOK 15/11 Q1028=
201804191750 METAR ESMX 191750Z 00000KT CAVOK 17/11 Q1028=
201804191720 METAR ESMX 191720Z 33004KT CAVOK 19/11 Q1028=
201804191650 METAR ESMX 191650Z 30005KT 270V340 CAVOK 19/11 Q1029=
201804191620 METAR ESMX 191620Z 31007KT 270V340 CAVOK 19/10 Q1029=
201804191550 METAR ESMX 191550Z 30006KT 260V330 CAVOK 19/10 Q1029=
201804191520 METAR ESMX 191520Z 28007KT 220V320 CAVOK 19/10 Q1029=
201804191450 METAR ESMX 191450Z 26009KT CAVOK 19/10 Q1029=
201804191420 METAR ESMX 191420Z 27006KT 230V320 CAVOK 19/11 Q1030=
201804191350 METAR ESMX 191350Z 29007KT 240V320 CAVOK 19/10 Q1030=
201804191320 METAR ESMX 191320Z 23006KT 170V270 CAVOK 18/10 Q1030=
201804191250 METAR ESMX 191250Z 23004KT 170V340 CAVOK 18/10 Q1030=
201804191220 METAR ESMX 191220Z 25006KT 210V320 CAVOK 17/10 Q1030=
201804191150 METAR ESMX 191150Z 22004KT 130V290 CAVOK 17/10 Q1031=
201804191120 METAR ESMX 191120Z 29007KT 250V320 CAVOK 16/10 Q1031=
201804191050 METAR ESMX 191050Z 28007KT 230V320 9999 FEW018 16/10 Q1031=
201804191020 METAR ESMX 191020Z 26008KT 210V300 9999 FEW020 16/10 Q1031=
201804190950 METAR ESMX 190950Z 28008KT 240V320 9999 FEW020 16/10 Q1031=
201804190920 METAR ESMX 190920Z 27007KT 240V310 9999 SCT019 15/10 Q1031=
201804190850 METAR ESMX 190850Z 29007KT 250V340 9999 SCT018 15/09 Q1031=
201804190820 METAR ESMX 190820Z 29007KT 9999 SCT015 14/09 Q1031=
201804190750 METAR ESMX 190750Z 30006KT 260V340 9999 SCT013 14/09 Q1031=
201804190720 METAR ESMX 190720Z 31008KT 270V340 9999 BKN011 13/09 Q1031=
201804190650 METAR ESMX 190650Z 29007KT 9999 OVC011 12/09 Q1030=
201804190620 METAR ESMX 190620Z 31006KT 9999 BKN009 12/10 Q1030=
201804190550 METAR ESMX 190550Z 32005KT 9999 BKN009 11/09 Q1030=
201804190520 METAR ESMX 190520Z 32006KT 9999 OVC008 11/09 Q1030=
201804190450 METAR ESMX 190450Z 30006KT 9999 OVC009 11/09 Q1030=
201804190420 METAR ESMX 190420Z 30005KT 9999 OVC009 10/09 Q1030=
201804190350 METAR ESMX 190350Z 28004KT 250V310 9999 OVC008 10/09 Q1030=
201804190320 METAR ESMX 190320Z AUTO 29004KT 9999 OVC009/// 10/09 Q1030=
201804190250 METAR ESMX 190250Z AUTO 30004KT 9999 OVC009/// 09/08 Q1030=
201804190220 METAR ESMX 190220Z AUTO 27003KT 9999 BKN010/// 09/08 Q1030=
201804190150 METAR ESMX 190150Z AUTO 30004KT 9999 OVC010/// 10/08 Q1030=
201804190120 METAR ESMX 190120Z AUTO VRB03KT 9999 BKN011/// 10/09 Q1030=
201804190050 METAR ESMX 190050Z AUTO 29004KT 240V340 9999 FEW010/// 10/08 Q1030=
201804190020 METAR ESMX 190020Z 34005KT 300V010 9999 FEW010 09/08 Q1030=
201804182350 METAR ESMX 182350Z AUTO 31008KT 280V340 9999 NCD 10/08 Q1030=
201804182320 METAR ESMX 182320Z 27008KT CAVOK 10/08 Q1030=
201804182250 METAR ESMX 182250Z 26007KT CAVOK 09/08 Q1029=
201804182220 METAR ESMX 182220Z AUTO 26006KT 9999 NCD 09/08 Q1029=
201804182150 METAR ESMX 182150Z AUTO 25004KT 9999 NCD 09/07 Q1029=
201804182120 METAR ESMX 182120Z AUTO 27005KT 9999 NCD 11/07 Q1029=
201804182050 METAR ESMX 182050Z AUTO 27006KT 9999 NCD 11/07 Q1029=
201804182020 METAR ESMX 182020Z AUTO 28004KT 9999 NCD 11/07 Q1029=
201804181950 METAR ESMX 181950Z 27005KT CAVOK 12/07 Q1029=
201804181920 METAR ESMX 181920Z 28005KT CAVOK 12/07 Q1029=
201804181850 METAR ESMX 181850Z 28004KT CAVOK 13/07 Q1028=
201804181820 METAR ESMX 181820Z 28006KT CAVOK 14/08 Q1028=
201804181750 METAR ESMX 181750Z 28007KT CAVOK 15/07 Q1028=
201804181720 METAR ESMX 181720Z 27009KT 230V300 9999 FEW042 16/07 Q1028=
201804181650 METAR ESMX 181650Z 27011KT 9999 FEW041 16/07 Q1028=
201804181620 METAR ESMX 181620Z 27011KT 240V300 9999 FEW041 16/07 Q1028=
201804181550 METAR ESMX 181550Z 27010KT 230V300 9999 FEW041 17/07 Q1027=
201804181520 METAR ESMX 181520Z 28013KT 9999 FEW039 18/07 Q1027=
201804181450 METAR ESMX 181450Z 29013KT 9999 FEW040 18/08 Q1027=
201804181420 METAR ESMX 181420Z 26013KT 9999 FEW036 17/08 Q1027=
201804181350 METAR ESMX 181350Z 28013KT 240V300 9999 FEW034 17/08 Q1027=
201804181320 METAR ESMX 181320Z 27011KT 9999 SCT030 16/08 Q1027=
201804181250 METAR ESMX 181250Z 27015KT 9999 BKN032 17/09 Q1027=
201804181220 METAR ESMX 181220Z 26014KT 240V300 9999 BKN032 17/09 Q1027=
201804181150 METAR ESMX 181150Z 27015KT 240V300 9999 FEW030 17/09 Q1027=
201804181120 METAR ESMX 181120Z 28013KT 240V320 9999 BKN031 16/09 Q1027=
201804181050 METAR ESMX 181050Z 25013G23KT 9999 BKN029 17/09 Q1027=
201804181020 METAR ESMX 181020Z 24011KT 9999 FEW027 SCT045 16/08 Q1027=
201804180950 METAR ESMX 180950Z 24012KT 9999 BKN027 OVC042 17/09 Q1027=
201804180920 METAR ESMX 180920Z 24014KT 9999 OVC027 15/08 Q1027=
201804180850 METAR ESMX 180850Z 24011KT 190V260 9999 SCT029 16/08 Q1027=
201804180820 METAR ESMX 180820Z 24013KT 210V290 CAVOK 15/07 Q1027=
201804180750 METAR ESMX 180750Z 23011KT CAVOK 13/06 Q1027=
201804180720 METAR ESMX 180720Z 22008KT 190V250 CAVOK 12/07 Q1027=
201804180650 METAR ESMX 180650Z 21008KT CAVOK 11/07 Q1027=
201804180620 METAR ESMX 180620Z 21007KT CAVOK 09/07 Q1027=
201804180550 METAR COR ESMX 180550Z 21006KT CAVOK 08/06 Q1026=
201804180520 METAR COR ESMX 180520Z 20005KT CAVOK 08/06 Q1027=
201804180450 METAR ESMX 180450Z 19004KT 9999 FEW041 SCT051 OVC090 07/06 Q1027=
201804180420 METAR COR ESMX 180420Z 17004KT 9000 SCT041 BKN051 07/06 Q1027=
201804180350 METAR ESMX 180350Z 21003KT 9000 -DZ FEW062 BKN078 OVC094 07/05 Q1027=
201804180320 METAR ESMX 180320Z 23003KT 9000 BR OVC086 06/05 Q1027=
201804180250 METAR ESMX 180250Z 21005KT 9000 BR OVC098 06/05 Q1026=
201804180220 METAR COR ESMX 180220Z 22005KT 8000 BR OVC100 06/05 Q1026=
201804180150 METAR ESMX 180150Z AUTO 22005KT 6000 BR OVC110/// 06/05 Q1026=
201804180120 METAR ESMX 180120Z AUTO 22004KT 3500 BR SCT110/// 05/05 Q1026=
201804180050 METAR ESMX 180050Z AUTO 21003KT 4300 BR FEW070/// SCT120/// 06/05 Q1026=
201804180020 METAR ESMX 180020Z AUTO 21004KT 4500 BR SCT066/// BKN080/// 06/05 Q1026=
201804172350 METAR ESMX 172350Z AUTO 19004KT 7000 BR SCT072/// BKN130/// 06/05 Q1026=
201804172320 METAR ESMX 172320Z AUTO 18004KT 8000 BR FEW070/// SCT150/// 06/05 Q1026=
201804172250 METAR ESMX 172250Z AUTO 23003KT 9000 BKN072/// OVC150/// 05/05 Q1026=
201804172220 METAR ESMX 172220Z AUTO 24002KT 9999 FEW078/// SCT098/// OVC160/// 06/05 Q1026=
201804172150 METAR ESMX 172150Z 23005KT CAVOK 07/06 Q1026=
201804172120 METAR ESMX 172120Z 24005KT CAVOK 06/05 Q1026=
201804172050 METAR ESMX 172050Z 23004KT CAVOK 05/04 Q1025=
201804172020 METAR ESMX 172020Z 22004KT CAVOK 05/04 Q1025=
201804171950 METAR ESMX 171950Z 23003KT CAVOK 05/04 Q1025=
201804171920 METAR ESMX 171920Z 24003KT 190V300 CAVOK 06/05 Q1025=
201804171850 METAR ESMX 171850Z 25004KT CAVOK 07/05 Q1025=
201804171820 METAR ESMX 171820Z 26004KT 9999 FEW020 08/05 Q1024=
201804171750 METAR ESMX 171750Z 28004KT 9999 BKN020 09/05 Q1024=
201804171720 METAR ESMX 171720Z 28007KT 9999 BKN020 09/05 Q1024=
201804171650 METAR ESMX 171650Z 28009KT 9999 BKN016 09/05 Q1024=
201804171620 METAR ESMX 171620Z 27009KT 9999 BKN016 09/06 Q1024=
201804171550 METAR ESMX 171550Z 26009KT 9999 BKN018 10/06 Q1023=
201804171520 METAR ESMX 171520Z 27008KT 230V300 9999 BKN020 10/06 Q1023=
201804171450 METAR ESMX 171450Z 26009KT 9999 BKN020 10/06 Q1023=
201804171420 METAR ESMX 171420Z 27009KT 9999 BKN020 11/06 Q1023=
201804171350 METAR ESMX 171350Z 27008KT 9999 BKN017 11/07 Q1023=
201804171320 METAR ESMX 171320Z 26008KT 230V290 9999 SCT010 BKN014 10/07 Q1023=
201804171250 METAR ESMX 171250Z 26007KT 210V300 9999 BKN009 10/08 Q1022=
201804171220 METAR ESMX 171220Z 26006KT 230V290 8000 BR BKN007 10/08 Q1022=
201804171150 METAR ESMX 171150Z 26008KT 6000 BR BKN006 10/08 Q1022=
201804171120 METAR ESMX 171120Z 25007KT 5000 BR BKN005 10/09 Q1022=
201804171050 METAR ESMX 171050Z 26008KT 3600 BR BKN005 10/09 Q1022=
201804171020 METAR ESMX 171020Z 22007KT 190V250 5000 BR BKN006 11/09 Q1021=
201804170950 METAR ESMX 170950Z 24005KT 210V270 8000 BR BKN006 OVC011 11/09 Q1021=
201804170920 METAR ESMX 170920Z 26004KT 220V290 8000 BR BKN011 10/09 Q1021=
201804170850 METAR ESMX 170850Z 24004KT 190V280 8000 BR FEW004 BKN016 09/08 Q1021=
201804170820 METAR ESMX 170820Z VRB02KT 7000 BR BKN021 09/08 Q1021=
201804170750 METAR ESMX 170750Z VRB03KT 7000 BR FEW020 BKN028 OVC043 08/07 Q1020=
201804170720 METAR ESMX 170720Z 24006KT 5000 RA BKN025 07/06 Q1020=
201804170650 METAR ESMX 170650Z 21005KT 150V240 9999 OVC028 07/07 Q1020=
201804170620 METAR ESMX 170620Z 21003KT 9999 OVC029 06/06 Q1020=
201804170550 METAR ESMX 170550Z 00000KT 9999 BKN035 BKN110 06/05 Q1019=
201804170520 METAR ESMX 170520Z 00000KT 8000 BCFG FEW001 BKN037 03/02 Q1019=
201804170450 METAR ESMX 170450Z 00000KT 4000 BCFG FEW038 01/01 Q1019=
201804170420 METAR ESMX 170420Z 00000KT 0150 R01/1400N R19/0375N BCFG FEW016 01/00 Q1019=
201804170350 METAR ESMX 170350Z 00000KT 0200 R01/0450N R19/1400N FG NSC 02/01 Q1018=
201804170320 METAR ESMX 170320Z AUTO 00000KT 0400 R01/P2000N R19/P2000D BCFG NCD 01/00 Q1018=
201804170250 METAR ESMX 170250Z AUTO 00000KT 0250 R01/P2000N R19/P2000D BCFG NCD 01/01 Q1018=
201804170220 METAR ESMX 170220Z AUTO 00000KT 5000 BCFG NCD 02/01 Q1018=
201804170150 METAR ESMX 170150Z AUTO 00000KT 0250 R01/P2000D R19/P2000N FG FEW021/// 03/02 Q1018=
201804170120 METAR ESMX 170120Z AUTO 00000KT 0450 R01/P2000N R19/P2000N NCD 01/01 Q1018=
201804170050 METAR ESMX 170050Z AUTO VRB02KT 7000 BR NCD 03/02 Q1018=
201804170020 METAR ESMX 170020Z AUTO VRB01KT 9999 BR NCD 02/01 Q1018=
201804162350 METAR ESMX 162350Z AUTO 00000KT 9000 BR NCD 04/03 Q1018=
201804162320 METAR ESMX 162320Z AUTO 00000KT 1000 R01/P2000N R19/P2000N BR SCT026/// 03/03 Q1018=
201804162250 METAR ESMX 162250Z AUTO 27003KT 9999 NCD 03/03 Q1017=
201804162220 METAR ESMX 162220Z AUTO 27002KT 9999 NCD 03/02 Q1017=
201804162150 METAR ESMX 162150Z AUTO 27003KT 9999 NCD 03/02 Q1017=
201804162120 METAR ESMX 162120Z AUTO 27003KT 9999 NCD 04/03 Q1016=
201804162050 METAR ESMX 162050Z AUTO 00000KT 9999 NCD 04/03 Q1016=
201804162020 METAR ESMX 162020Z 00000KT CAVOK 06/05 Q1016=
201804161950 METAR ESMX 161950Z 01003KT CAVOK 07/05 Q1016=
201804161920 METAR ESMX 161920Z 34003KT 9999 FEW020 08/06 Q1016=
201804161850 METAR ESMX 161850Z 35003KT 9999 FEW020 08/05 Q1016=
201804161820 METAR ESMX 161820Z AUTO 33005KT 9999 BKN019/// 09/06 Q1016=
201804161750 METAR ESMX 161750Z 32006KT 280V360 9999 SCT019 10/06 Q1016=
201804161720 METAR ESMX 161720Z 32007KT 9999 BKN020 11/06 Q1015=
201804161650 METAR ESMX 161650Z 31007KT 290V350 9999 FEW022 11/06 Q1015=
201804161620 METAR ESMX 161620Z 31008KT 280V340 9999 FEW022 12/07 Q1015=
201804161550 METAR ESMX 161550Z 28006KT 9999 FEW022 12/07 Q1014=
201804161520 METAR ESMX 161520Z 30007KT 9999 FEW028 13/07 Q1014=
201804161450 METAR ESMX 161450Z 29007KT 250V320 9999 SCT028 BKN210 13/06 Q1014=
201804161420 METAR ESMX 161420Z 30007KT 260V320 9999 SCT027 BKN200 14/07 Q1014=
201804161350 METAR ESMX 161350Z 26005KT 200V300 9999 FEW025 SCT130 BKN180 14/07 Q1014=
201804161320 METAR ESMX 161320Z VRB03KT 9999 FEW026 SCT130 13/07 Q1014=
201804161250 METAR ESMX 161250Z 01005KT 330V040 9999 FEW025 SCT160 14/07 Q1014=
201804161220 METAR ESMX 161220Z VRB03KT CAVOK 13/07 Q1014=
201804161150 METAR ESMX 161150Z VRB03KT CAVOK 13/07 Q1014=
201804161120 METAR ESMX 161120Z 32003KT 210V020 CAVOK 12/07 Q1014=
201804161050 METAR ESMX 161050Z 35004KT 290V050 9999 FEW010 11/06 Q1014=
201804161020 METAR ESMX 161020Z 34004KT 310V020 9999 OVC010 11/06 Q1014=
201804160950 METAR ESMX 160950Z 35004KT 320V030 9999 OVC008 10/06 Q1014=
201804160920 METAR ESMX 160920Z 34003KT 290V050 9999 OVC007 09/06 Q1014=
201804160850 METAR ESMX 160850Z VRB03KT 9999 OVC007 08/06 Q1014=
201804160820 METAR ESMX 160820Z 06005KT 030V110 9999 OVC005 08/06 Q1014=
201804160750 METAR ESMX 160750Z 36004KT 320V050 9999 OVC005 08/06 Q1014=
201804160720 METAR ESMX 160720Z 06004KT 010V090 8000 BR OVC003 07/06 Q1014=
201804160650 METAR ESMX 160650Z 03004KT 6000 BR OVC003 07/06 Q1014=
201804160620 METAR ESMX 160620Z 04005KT 010V080 6000 BR OVC003 07/06 Q1013=
201804160550 METAR ESMX 160550Z 01006KT 6000 BR OVC003 07/06 Q1013=
201804160520 METAR ESMX 160520Z 02004KT 5000 BR OVC003 07/06 Q1013=
201804160450 METAR ESMX 160450Z 36005KT 5000 BR OVC003 07/06 Q1013=
201804160420 METAR ESMX 160420Z 35004KT 5000 BR OVC004 07/06 Q1013=
201804160350 METAR ESMX 160350Z 34004KT 6000 BR OVC005 07/06 Q1013=
201804160320 METAR ESMX 160320Z AUTO 02004KT 6000 BR OVC005/// 07/06 Q1013=
201804160250 METAR ESMX 160250Z AUTO 34004KT 6000 BR OVC005/// 07/06 Q1013=
201804160220 METAR ESMX 160220Z AUTO 34004KT 5000 BR OVC005/// 07/07 Q1013=
201804160150 METAR ESMX 160150Z AUTO 35003KT 6000 BR OVC004/// 08/07 Q1013=
201804160120 METAR ESMX 160120Z AUTO 00000KT 6000 BR OVC005/// 07/07 Q1014=
201804160050 METAR ESMX 160050Z AUTO 00000KT 6000 BR OVC005/// 07/07 Q1013=
201804160020 METAR ESMX 160020Z AUTO 00000KT 6000 BR OVC006/// 08/07 Q1013=
201804152350 METAR ESMX 152350Z AUTO 00000KT 6000 BR OVC007/// 07/07 Q1013=
201804152320 METAR ESMX 152320Z AUTO 33002KT 7000 BR OVC008/// 07/07 Q1014=
201804152250 METAR ESMX 152250Z AUTO 00000KT 7000 BR OVC007/// 08/07 Q1014 REUP=
201804152220 METAR ESMX 152220Z AUTO 00000KT 8000 BR OVC007/// 08/07 Q1014=
201804152150 METAR ESMX 152150Z AUTO 00000KT 8000 BR OVC007/// 08/07 Q1014 RESHUP REDZ=
201804152120 METAR ESMX 152120Z AUTO VRB01KT 7000 BR OVC007/// 08/07 Q1014 REUP=
201804152050 METAR ESMX 152050Z AUTO VRB02KT 7000 -DZ OVC007/// 08/07 Q1014 REUP=
201804152020 METAR ESMX 152020Z AUTO 10002KT 7000 BR OVC007/// 08/07 Q1014=
201804151950 METAR ESMX 151950Z 05003KT 7000 BR OVC007 08/07 Q1014=
201804151920 METAR ESMX 151920Z 10002KT 7000 BR OVC007 08/07 Q1014=
201804151850 METAR ESMX 151850Z 12003KT 8000 BR OVC006 08/07 Q1014=
201804151820 METAR ESMX 151820Z 14003KT 8000 BR OVC007 08/07 Q1014=
201804151750 METAR ESMX 151750Z 16004KT 9000 BR OVC008 09/07 Q1014=
201804151720 METAR ESMX 151720Z 16004KT 120V190 9000 BR BKN009 OVC011 09/07 Q1014=
201804151650 METAR ESMX 151650Z 18005KT 9999 SCT009 OVC014 09/07 Q1014=
201804151620 METAR ESMX 151620Z 18005KT 9999 BKN009 OVC013 09/07 Q1014=
201804151550 METAR ESMX 151550Z 16006KT 9999 OVC009 09/07 Q1014=
201804151520 METAR ESMX 151520Z 18006KT 9999 OVC009 09/07 Q1014=
201804151450 METAR ESMX 151450Z 19006KT 9999 BKN010 09/07 Q1014=
201804151420 METAR ESMX 151420Z 18006KT 140V200 9999 OVC008 09/07 Q1015=
201804151350 METAR ESMX 151350Z 14005KT 9999 OVC008 08/06 Q1015=
201804151320 METAR ESMX 151320Z 18005KT 140V200 9999 OVC007 09/06 Q1015=
201804151250 METAR ESMX 151250Z 16005KT 110V180 9999 OVC006 08/06 Q1015=
201804151220 METAR ESMX 151220Z 15006KT 9999 OVC006 08/06 Q1015=
201804151150 METAR ESMX 151150Z 15005KT 9999 OVC006 08/06 Q1015=
201804151120 METAR COR ESMX 151120Z 14004KT 100V190 9999 OVC005 08/06 Q1015=
201804151050 METAR ESMX 151050Z 15004KT 120V180 9999 OVC005 08/06 Q1015=
201804151020 METAR COR ESMX 151020Z 17006KT 140V210 9999 OVC005 08/06 Q1015=
201804150950 METAR ESMX 150950Z AUTO 16005KT 140V200 6000 BR OVC003/// 07/06 Q1015=
201804150920 METAR ESMX 150920Z AUTO 17005KT 140V200 5000 BR OVC003/// 07/06 Q1015=
201804150850 METAR ESMX 150850Z 17006KT 5000 BR OVC003 07/06 Q1015=
201804150820 METAR ESMX 150820Z 16006KT 6000 BR OVC004 07/06 Q1015=
201804150750 METAR ESMX 150750Z 17005KT 5000 -DZ OVC003 06/06 Q1015=
201804150720 METAR ESMX 150720Z 16006KT 4200 BR OVC002 06/06 Q1015=
201804150650 METAR ESMX 150650Z 16007KT 1100 R01/1100D R19/1700U BR VV002 06/06 Q1015=
201804150620 METAR COR ESMX 150620Z 15006KT 1100 R01/1100D R19/1000U BR VV002 06/06 Q1015=
201804150550 METAR COR ESMX 150550Z 15005KT 0650 R01/1000N R19/1300N FG VV002 06/06 Q1015=
201804150520 METAR ESMX 150520Z AUTO 15003KT 120V190 0600 R01/1000U R19/1300N FG OVC001/// 06/06 Q1015=
201804150450 METAR ESMX 150450Z AUTO 17004KT 130V190 0550 R01/1000N R19/1600N FG OVC001/// 06/06 Q1015=
201804150420 METAR ESMX 150420Z AUTO 17005KT 140V200 0600 R01/1400D R19/P2000N FG OVC001/// 06/06 Q1015=
201804150350 METAR ESMX 150350Z AUTO 15006KT 110V170 1100 R01/P2000N R19/P2000N BR OVC002/// 06/06 Q1015=
201804150320 METAR ESMX 150320Z AUTO 16005KT 2600 BR OVC002/// 06/06 Q1015=
201804150250 METAR ESMX 150250Z AUTO 15006KT 3700 BR OVC004/// 06/06 Q1015=
201804150220 METAR ESMX 150220Z AUTO 17004KT 4600 BR OVC004/// 07/06 Q1015 REDZ=
201804150150 METAR ESMX 150150Z AUTO 15005KT 4900 OVC004/// 07/06 Q1015=
201804150120 METAR ESMX 150120Z AUTO 15006KT 3700 OVC002/// 07/06 Q1015 REUP=
201804150050 METAR ESMX 150050Z AUTO 15007KT 0900 R01/P2000D R19/P2000N FG BKN002/// OVC004/// 07/07 Q1016=
201804150020 METAR ESMX 150020Z AUTO 15006KT 120V190 4900 BR OVC005/// 08/07 Q1016=
201804142350 METAR ESMX 142350Z AUTO 15004KT 100V200 9000 BR OVC007/// 09/08 Q1016=
201804142320 METAR ESMX 142320Z AUTO 12005KT 070V170 6000 BR SCT004/// OVC006/// 09/08 Q1016=
201804142250 METAR ESMX 142250Z AUTO 12004KT 080V160 5000 BR OVC005/// 09/08 Q1016=
201804142220 METAR ESMX 142220Z AUTO 15005KT 8000 BR OVC006/// 10/08 Q1016=
201804142150 METAR ESMX 142150Z AUTO 14004KT 110V170 9999 BKN007/// OVC034/// 10/08 Q1016=
201804142120 METAR ESMX 142120Z AUTO 08004KT 050V120 9999 FEW008/// BKN034/// OVC068/// 10/08 Q1016=
201804142050 METAR ESMX 142050Z AUTO VRB03KT 9999 FEW015/// OVC070/// 10/08 Q1016=
201804142020 METAR ESMX 142020Z AUTO 06003KT 9999 OVC070/// 10/09 Q1016=
201804141950 METAR ESMX 141950Z AUTO VRB02KT 9999 BKN068/// 11/09 Q1016=
201804141920 METAR ESMX 141920Z 15003KT 110V180 CAVOK 11/09 Q1016=
201804141850 METAR ESMX 141850Z 14004KT 9999 FEW032 SCT061 11/09 Q1016=
201804141820 METAR ESMX 141820Z VRB02KT 9999 SCT033 11/09 Q1016=
201804141750 METAR ESMX 141750Z VRB02KT CAVOK 13/08 Q1016=
201804141720 METAR ESMX 141720Z VRB03KT CAVOK 14/09 Q1016=
201804141650 METAR ESMX 141650Z 12003KT 030V170 CAVOK 14/09 Q1016=
201804141620 METAR ESMX 141620Z AUTO 14006KT 110V170 9999 NCD 15/09 Q1016=
201804141550 METAR ESMX 141550Z AUTO 14007KT 100V160 9999 FEW024/// 15/09 Q1016=
201804141520 METAR ESMX 141520Z AUTO 15007KT 100V190 9999 NCD 16/10 Q1016=
201804141450 METAR ESMX 141450Z AUTO 10007KT 070V150 9999 FEW021/// 16/10 Q1016=
201804141420 METAR ESMX 141420Z AUTO 12006KT 030V170 9999 FEW018/// SCT025/// BKN033/// 16/11 Q1016=
201804141350 METAR ESMX 141350Z AUTO 15007KT 120V190 9999 BKN026/// OVC031/// 15/11 Q1016=
201804141320 METAR ESMX 141320Z AUTO 13005KT 080V170 9999 BKN016/// OVC027/// 15/11 Q1016=
201804141250 METAR ESMX 141250Z AUTO 09006KT 050V140 9999 OVC014/// 14/11 Q1016=
201804141220 METAR ESMX 141220Z AUTO 07004KT 020V120 9999 BKN014/// OVC038/// 13/10 Q1016=
201804141150 METAR ESMX 141150Z AUTO 07005KT 020V110 9999 SCT015/// OVC043/// 12/10 Q1016=
201804141120 METAR ESMX 141120Z AUTO 07004KT 020V150 9999 BKN041/// OVC062/// 10/09 Q1017=
201804141050 METAR ESMX 141050Z AUTO 03005KT 9999 -RA BKN055/// 09/08 Q1017 RERA RESHRA=
201804141020 METAR ESMX 141020Z AUTO 05004KT 020V080 7000 RA OVC066/// 08/07 Q1017=
201804140950 METAR ESMX 140950Z AUTO 04006KT 9999 -RA SCT038/// OVC061/// 09/07 Q1017 RERA=
201804140920 METAR ESMX 140920Z AUTO 02005KT 9999 BKN064/// OVC086/// 09/07 Q1017=
201804140850 METAR ESMX 140850Z 03005KT 360V060 9999 -RA FEW046 OVC064 10/05 Q1017=
201804140820 METAR ESMX 140820Z 04006KT CAVOK 11/04 Q1016=
201804140750 METAR ESMX 140750Z 05006KT CAVOK 10/03 Q1017=
201804140720 METAR ESMX 140720Z 04006KT CAVOK 09/02 Q1017=
201804140650 METAR COR ESMX 140650Z 04007KT 010V080 CAVOK 08/02 Q1016=
201804140620 METAR ESMX 140620Z AUTO 05007KT 020V080 9999 NCD 07/01 Q1016=
201804140550 METAR ESMX 140550Z AUTO 05008KT 020V080 9999 NCD 06/01 Q1016=
201804140520 METAR ESMX 140520Z AUTO 04007KT 9999 NCD 06/00 Q1016=
201804140450 METAR ESMX 140450Z AUTO 04007KT 9999 NCD 05/00 Q1016=
201804140420 METAR ESMX 140420Z AUTO 05007KT 9999 NCD 05/00 Q1016=
201804140350 METAR ESMX 140350Z AUTO 07007KT 9999 NCD 06/M00 Q1016=
201804140320 METAR ESMX 140320Z AUTO 06008KT 9999 NCD 06/M00 Q1016=
201804140250 METAR ESMX 140250Z AUTO 05008KT 9999 NCD 06/M00 Q1016=
201804140220 METAR ESMX 140220Z AUTO 06007KT 9999 NCD 06/M00 Q1016=
201804140150 METAR ESMX 140150Z AUTO 07006KT 9999 NCD 07/M00 Q1016=
201804140120 METAR ESMX 140120Z AUTO 05006KT 030V110 9999 NCD 07/M00 Q1016=
201804140050 METAR ESMX 140050Z AUTO 04008KT 020V080 9999 NCD 07/M00 Q1016=
201804140020 METAR ESMX 140020Z AUTO 05008KT 9999 NCD 07/M00 Q1017=
201804132350 METAR ESMX 132350Z AUTO 05007KT 9999 NCD 07/M01 Q1017=
201804132320 METAR ESMX 132320Z AUTO 05008KT 030V100 9999 NCD 07/M01 Q1017=
201804132250 METAR ESMX 132250Z AUTO 06009KT 9999 NCD 07/M01 Q1017=
201804132220 METAR ESMX 132220Z AUTO 04008KT 360V080 9999 NCD 07/M01 Q1018=
201804132150 METAR ESMX 132150Z AUTO 05007KT 010V080 9999 NCD 07/M01 Q1018=
201804132120 METAR ESMX 132120Z AUTO 06008KT 030V090 9999 NCD 08/M02 Q1018=
201804132050 METAR ESMX 132050Z AUTO 06010KT 9999 NCD 08/M02 Q1018=
201804132020 METAR ESMX 132020Z AUTO 04008KT 010V100 9999 NCD 09/M02 Q1018=
201804131950 METAR ESMX 131950Z AUTO 06007KT 020V100 9999 NCD 09/M02 Q1018=
201804131920 METAR ESMX 131920Z 05009KT 020V080 CAVOK 09/M02 Q1018=
201804131850 METAR ESMX 131850Z 06010KT CAVOK 10/M02 Q1018=
201804131820 METAR ESMX 131820Z 06011KT CAVOK 10/M02 Q1017=
201804131750 METAR ESMX 131750Z 06011KT CAVOK 11/M01 Q1017=
201804131720 METAR ESMX 131720Z 07010KT 030V120 CAVOK 12/M00 Q1018=
201804131650 METAR ESMX 131650Z 07011G21KT 040V110 CAVOK 12/01 Q1017=
201804131620 METAR ESMX 131620Z 06010KT 020V100 CAVOK 12/01 Q1018=
201804131550 METAR ESMX 131550Z 08012KT 050V110 CAVOK 13/02 Q1018=
201804131520 METAR ESMX 131520Z 06012KT 030V100 CAVOK 13/03 Q1018=
201804131450 METAR ESMX 131450Z 07012KT 030V130 CAVOK 14/03 Q1018=
201804131420 METAR ESMX 131420Z 07013KT 030V110 CAVOK 14/04 Q1018=
201804131350 METAR ESMX 131350Z 06013KT 030V100 CAVOK 15/04 Q1017=
201804131320 METAR ESMX 131320Z 06013KT 030V110 CAVOK 15/04 Q1018=
201804131250 METAR ESMX 131250Z 06011KT 020V090 CAVOK 15/04 Q1018=
201804131220 METAR ESMX 131220Z 06010KT 030V110 CAVOK 15/03 Q1018=
201804131150 METAR ESMX 131150Z 06009G21KT 020V130 CAVOK 15/04 Q1018=
201804131120 METAR ESMX 131120Z 06011KT 030V130 CAVOK 15/04 Q1018=
201804131050 METAR ESMX 131050Z 07010KT 020V120 CAVOK 15/04 Q1018=
201804131020 METAR ESMX 131020Z 07009KT 030V160 CAVOK 15/04 Q1018=
201804130950 METAR ESMX 130950Z 07011KT 030V120 CAVOK 14/03 Q1018=
201804130920 METAR ESMX 130920Z 08010KT 030V130 CAVOK 14/02 Q1018=
201804130850 METAR ESMX 130850Z 07009KT 030V120 CAVOK 13/02 Q1018=
201804130820 METAR ESMX 130820Z 07009G20KT 360V110 CAVOK 12/02 Q1018=
201804130750 METAR ESMX 130750Z 06010KT 030V100 CAVOK 10/01 Q1018=
201804130720 METAR ESMX 130720Z 06009KT 030V100 CAVOK 09/01 Q1018=
201804130650 METAR ESMX 130650Z 06009KT CAVOK 07/M00 Q1018=
201804130620 METAR ESMX 130620Z 05009KT 020V100 CAVOK 07/M01 Q1018=
201804130550 METAR ESMX 130550Z 06008KT 030V100 CAVOK 06/M02 Q1018=
201804130520 METAR ESMX 130520Z 05006KT 030V100 CAVOK 05/M02 Q1018=
201804130450 METAR ESMX 130450Z 06008KT 030V090 CAVOK 05/M02 Q1018=
201804130420 METAR ESMX 130420Z 05007KT 020V100 CAVOK 04/M02 Q1018=
201804130350 METAR ESMX 130350Z 05008KT CAVOK 04/M02 Q1018=
201804130320 METAR ESMX 130320Z AUTO 05008KT 020V100 9999 NCD 05/M02 Q1018=
201804130250 METAR ESMX 130250Z AUTO 05008KT 9999 NCD 05/M02 Q1018=
201804130220 METAR ESMX 130220Z AUTO 05009KT 9999 NCD 05/M02 Q1018=
201804130150 METAR ESMX 130150Z AUTO 05009KT 9999 NCD 05/M02 Q1018=
201804130120 METAR ESMX 130120Z AUTO 05008KT 010V090 9999 NCD 05/M02 Q1019=
201804130050 METAR ESMX 130050Z AUTO 05009KT 9999 NCD 05/M02 Q1019=
201804130020 METAR ESMX 130020Z AUTO 06008KT 9999 NCD 05/M02 Q1019=
201804122350 METAR ESMX 122350Z AUTO 05009KT 020V090 9999 NCD 05/M02 Q1019=
201804122320 METAR ESMX 122320Z AUTO 06007KT 030V100 9999 NCD 05/M02 Q1019=
201804122250 METAR ESMX 122250Z AUTO 06008KT 020V100 9999 NCD 05/M03 Q1019=
201804122220 METAR ESMX 122220Z AUTO 06008KT 020V110 9999 NCD 05/M03 Q1019=
201804122150 METAR ESMX 122150Z AUTO 05008G19KT 020V110 9999 NCD 05/M03 Q1019=
201804122120 METAR ESMX 122120Z AUTO 05008KT 010V100 9999 NCD 05/M03 Q1019=
201804122050 METAR ESMX 122050Z AUTO 05010KT 020V100 9999 NCD 05/M03 Q1019=
201804122020 METAR ESMX 122020Z AUTO 05008KT 9999 NCD 05/M03 Q1020=
201804121950 METAR ESMX 121950Z 04008KT 350V080 CAVOK 06/M03 Q1020=
201804121920 METAR ESMX 121920Z 05009KT 030V100 CAVOK 06/M03 Q1020=
201804121850 METAR ESMX 121850Z 06010KT 030V120 CAVOK 07/M03 Q1020=
201804121820 METAR ESMX 121820Z 07010KT 040V100 CAVOK 08/M03 Q1019=
201804121750 METAR ESMX 121750Z 07010KT 030V100 CAVOK 08/M02 Q1019=
201804121720 METAR ESMX 121720Z 07010KT 030V130 CAVOK 09/M02 Q1019=
201804121650 METAR ESMX 121650Z 05011KT 010V090 CAVOK 10/M02 Q1019=
201804121620 METAR ESMX 121620Z 07011KT 050V110 CAVOK 10/M02 Q1019=
201804121550 METAR ESMX 121550Z 07010KT 030V110 CAVOK 11/M02 Q1019=
201804121520 METAR ESMX 121520Z 06012KT 030V110 CAVOK 11/M02 Q1019=
201804121450 METAR ESMX 121450Z 06013KT CAVOK 12/M01 Q1019=
201804121420 METAR ESMX 121420Z 06011KT 030V100 CAVOK 12/M01 Q1019=
201804121350 METAR ESMX 121350Z 06012KT 030V110 CAVOK 12/M01 Q1019=
201804121320 METAR ESMX 121320Z 06013KT 030V110 CAVOK 12/M01 Q1019=
201804121250 METAR ESMX 121250Z 06013KT 030V100 CAVOK 12/M01 Q1019=
201804121220 METAR ESMX 121220Z 05010KT 010V070 CAVOK 12/M01 Q1019=
201804121150 METAR ESMX 121150Z 06012KT 030V100 CAVOK 13/M01 Q1019=
201804121120 METAR ESMX 121120Z 06013KT 030V100 CAVOK 12/M01 Q1019=
201804121050 METAR ESMX 121050Z 07010G20KT 040V120 CAVOK 12/M01 Q1020=
201804121020 METAR ESMX 121020Z 07011KT 040V120 CAVOK 11/M02 Q1020=
201804120950 METAR ESMX 120950Z 06012G23KT 030V110 CAVOK 11/M02 Q1020=
201804120920 METAR ESMX 120920Z 07011KT 030V120 CAVOK 11/M02 Q1020=
201804120850 METAR ESMX 120850Z 07012G24KT 040V120 CAVOK 09/M02 Q1020=
201804120820 METAR ESMX 120820Z 06012KT 030V100 CAVOK 08/M02 Q1020=
201804120750 METAR ESMX 120750Z 05010KT CAVOK 07/M02 Q1020=
201804120720 METAR ESMX 120720Z 04010KT 010V070 CAVOK 05/M01 Q1020=
201804120650 METAR ESMX 120650Z 04010KT CAVOK 04/M01 Q1020=
201804120620 METAR ESMX 120620Z 04008KT 020V080 CAVOK 03/M02 Q1020=
201804120550 METAR ESMX 120550Z 04010KT CAVOK 02/M01 Q1020=
201804120520 METAR ESMX 120520Z 04009KT CAVOK 01/M02 Q1020=
201804120450 METAR ESMX 120450Z 04009KT CAVOK 00/M02 Q1020=
201804120420 METAR ESMX 120420Z 03009KT CAVOK 00/M02 Q1020=
201804120350 METAR ESMX 120350Z 04009KT CAVOK M00/M02 Q1020=
201804120320 METAR ESMX 120320Z AUTO 03009KT 9999 NCD M00/M02 Q1020=
201804120250 METAR ESMX 120250Z AUTO 03008KT 9999 NCD 00/M02 Q1020=
201804120220 METAR ESMX 120220Z AUTO 03008KT 9999 NCD 00/M03 Q1020=
201804120150 METAR ESMX 120150Z AUTO 04008KT 9999 NCD M00/M03 Q1020=
201804120120 METAR ESMX 120120Z AUTO 04008KT 9999 NCD 00/M03 Q1020=
201804120050 METAR ESMX 120050Z AUTO 04008KT 9999 NCD 00/M03 Q1021=
201804120020 METAR ESMX 120020Z AUTO 03008KT 9999 NCD 00/M03 Q1021=
201804112350 METAR ESMX 112350Z AUTO 04008KT 9999 NCD 00/M03 Q1021=
201804112320 METAR ESMX 112320Z AUTO 04006KT 9999 NCD 01/M03 Q1021=
201804112250 METAR ESMX 112250Z AUTO 04007KT 9999 NCD 01/M03 Q1021=
201804112220 METAR ESMX 112220Z AUTO 04007KT 9999 NCD 01/M03 Q1021=
201804112150 METAR ESMX 112150Z AUTO 04009KT 9999 NCD 01/M03 Q1021=
201804112120 METAR ESMX 112120Z AUTO 04009KT 9999 NCD 01/M03 Q1021=
201804112050 METAR ESMX 112050Z AUTO 04010KT 9999 NCD 02/M03 Q1021=
201804112020 METAR ESMX 112020Z 04010KT CAVOK 02/M03 Q1022=
201804111950 METAR ESMX 111950Z 05008KT CAVOK 03/M03 Q1022=
201804111920 METAR ESMX 111920Z 05009KT 350V080 CAVOK 04/M03 Q1022=
201804111850 METAR ESMX 111850Z 06010KT CAVOK 04/M03 Q1022=
201804111820 METAR ESMX 111820Z 06008KT CAVOK 05/M04 Q1021=
201804111750 METAR ESMX 111750Z 05011KT 020V080 CAVOK 06/M05 Q1021=
201804111720 METAR ESMX 111720Z 07009KT 040V100 CAVOK 07/M05 Q1021=
201804111650 METAR ESMX 111650Z 06011KT CAVOK 08/M06 Q1021=
201804111620 METAR ESMX 111620Z 06010KT 030V100 CAVOK 08/M06 Q1021=
201804111550 METAR ESMX 111550Z 05011KT CAVOK 09/M07 Q1021=
201804111520 METAR ESMX 111520Z 05012KT 020V080 CAVOK 10/M07 Q1021=
201804111450 METAR ESMX 111450Z 04012KT CAVOK 10/M07 Q1021=
201804111420 METAR ESMX 111420Z 05009KT 030V100 CAVOK 11/M08 Q1021=
201804111350 METAR ESMX 111350Z 05011KT 030V090 CAVOK 11/M08 Q1021=
201804111320 METAR ESMX 111320Z 05011KT 020V090 CAVOK 10/M07 Q1021=
201804111250 METAR ESMX 111250Z 05013KT CAVOK 10/M07 Q1022=
201804111220 METAR ESMX 111220Z 05012KT CAVOK 10/M07 Q1022=
201804111150 METAR ESMX 111150Z 06011KT 020V110 CAVOK 10/M07 Q1022=
201804111120 METAR ESMX 111120Z 07011KT 030V110 CAVOK 10/M08 Q1022=
201804111050 METAR ESMX 111050Z 07012KT 040V120 CAVOK 09/M07 Q1023=
201804111020 METAR ESMX 111020Z 05010KT 020V100 CAVOK 10/M06 Q1023=
201804110950 METAR ESMX 110950Z 07011G23KT 030V120 CAVOK 09/M06 Q1023=
201804110920 METAR ESMX 110920Z 06011KT 030V100 CAVOK 08/M05 Q1023=
201804110850 METAR ESMX 110850Z 07011KT 040V110 CAVOK 07/M04 Q1023=
201804110820 METAR ESMX 110820Z 06010KT 030V120 CAVOK 06/M04 Q1023=
201804110750 METAR ESMX 110750Z 06010KT 030V100 CAVOK 06/M03 Q1023=
201804110720 METAR ESMX 110720Z 05011KT CAVOK 04/M02 Q1022=
201804110650 METAR ESMX 110650Z 05010KT CAVOK 03/M02 Q1022=
201804110620 METAR ESMX 110620Z 05009KT CAVOK 02/M02 Q1022=
201804110550 METAR ESMX 110550Z 05009KT CAVOK 01/M02 Q1022=
201804110520 METAR ESMX 110520Z 05008KT 030V090 CAVOK 01/M02 Q1022=
201804110450 METAR ESMX 110450Z 05009KT 020V080 CAVOK 00/M03 Q1022=
201804110420 METAR ESMX 110420Z 05008KT 030V090 CAVOK 00/M02 Q1022=
201804110350 METAR ESMX 110350Z 05007KT CAVOK M00/M03 Q1022=
201804110320 METAR ESMX 110320Z AUTO 03007KT 9999 NCD M00/M03 Q1022=
201804110250 METAR ESMX 110250Z AUTO 04008KT 9999 NCD M00/M03 Q1022=
201804110220 METAR ESMX 110220Z AUTO 04008KT 9999 NCD M00/M03 Q1022=
201804110150 METAR ESMX 110150Z AUTO 04008KT 9999 NCD M00/M03 Q1022=
201804110120 METAR ESMX 110120Z AUTO 04007KT 9999 NCD M00/M03 Q1022=
201804110050 METAR ESMX 110050Z AUTO 05006KT 9999 NCD M00/M03 Q1022=
201804110020 METAR ESMX 110020Z AUTO 06007KT 030V100 9999 NCD 00/M03 Q1023=
201804102350 METAR ESMX 102350Z AUTO 06007KT 030V100 9999 NCD 00/M03 Q1022=
201804102320 METAR ESMX 102320Z AUTO 06007KT 030V100 9999 NCD 00/M04 Q1022=
201804102250 METAR ESMX 102250Z AUTO 06008KT 020V080 9999 NCD 00/M04 Q1022=
201804102220 METAR ESMX 102220Z AUTO 05009KT 9999 NCD 01/M05 Q1022=
201804102150 METAR ESMX 102150Z AUTO 06009KT 020V090 9999 NCD 01/M06 Q1022=
201804102120 METAR ESMX 102120Z AUTO 05010KT 9999 NCD 01/M06 Q1022=
201804102050 METAR ESMX 102050Z AUTO 05011KT 9999 NCD 01/M06 Q1022=
201804102020 METAR ESMX 102020Z AUTO 04011KT 9999 NCD 01/M07 Q1022=
201804101950 METAR ESMX 101950Z 05010KT CAVOK 02/M07 Q1022=
201804101920 METAR ESMX 101920Z 05010KT CAVOK 02/M08 Q1022=
201804101850 METAR ESMX 101850Z 05011KT 020V090 CAVOK 03/M09 Q1021=
201804101820 METAR ESMX 101820Z 06010KT CAVOK 03/M10 Q1021=
201804101750 METAR ESMX 101750Z 04011KT 360V080 CAVOK 04/M11 Q1021=
201804101720 METAR ESMX 101720Z 04011KT CAVOK 05/M11 Q1020=
201804101650 METAR ESMX 101650Z 05011KT 020V090 CAVOK 06/M10 Q1020=
201804101620 METAR ESMX 101620Z 05014KT CAVOK 07/M10 Q1020=
201804101550 METAR ESMX 101550Z 06010KT 030V100 CAVOK 07/M10 Q1020=
201804101520 METAR ESMX 101520Z 05013KT 020V090 CAVOK 08/M07 Q1020=
201804101450 METAR ESMX 101450Z 04012KT 020V100 CAVOK 08/M03 Q1020=
201804101420 METAR ESMX 101420Z 05011KT 030V110 CAVOK 08/M02 Q1020=
201804101350 METAR ESMX 101350Z 05014KT CAVOK 08/M01 Q1020=
201804101320 METAR ESMX 101320Z 05013KT 020V090 CAVOK 08/M00 Q1020=
201804101250 METAR ESMX 101250Z 05012KT 020V080 9999 FEW028 07/M00 Q1020=
201804101220 METAR ESMX 101220Z 05012KT 9999 BKN023 06/M00 Q1020=
201804101150 METAR ESMX 101150Z 05012KT 9999 OVC017 05/M00 Q1020=
201804101120 METAR COR ESMX 101120Z 05011KT 9999 BKN014 04/00 Q1020=
201804101050 METAR ESMX 101050Z 05012KT 9999 BKN012 04/00 Q1019=
201804101020 METAR ESMX 101020Z 04012KT 9999 OVC012 04/00 Q1019=
201804100950 METAR ESMX 100950Z 05011KT 9999 OVC011 04/01 Q1019=
201804100920 METAR ESMX 100920Z 05012KT 9999 OVC009 04/01 Q1018=
201804100850 METAR ESMX 100850Z 05012KT 020V080 9999 BKN008 03/01 Q1018=
201804100820 METAR ESMX 100820Z 05010KT 9999 OVC007 03/01 Q1017=
201804100750 METAR ESMX 100750Z 05011KT 020V090 9999 OVC007 03/01 Q1017=
201804100720 METAR ESMX 100720Z 04011KT 9999 OVC006 03/01 Q1016=
201804100650 METAR ESMX 100650Z 04010KT 9999 OVC006 03/01 Q1016=
201804100620 METAR ESMX 100620Z 04012KT 9999 OVC006 02/01 Q1016=
201804100550 METAR ESMX 100550Z 04010KT 9999 OVC006 03/01 Q1016=
201804100520 METAR ESMX 100520Z 04012KT 9999 OVC006 02/01 Q1015=
201804100450 METAR ESMX 100450Z 05010KT 9999 OVC007 03/01 Q1015=
201804100420 METAR ESMX 100420Z 05010KT 9999 OVC008 03/01 Q1014=
201804100350 METAR ESMX 100350Z 03011KT 9999 OVC008 03/01 Q1014=
201804100320 METAR ESMX 100320Z AUTO 04010KT 9999 OVC008/// 04/01 Q1014=
201804100250 METAR ESMX 100250Z AUTO 05009KT 9999 OVC009/// 04/01 Q1013=
201804100220 METAR ESMX 100220Z AUTO 04010KT 9999 OVC009/// 04/01 Q1013=
201804100150 METAR ESMX 100150Z AUTO 03011KT 010V070 9999 OVC009/// 04/02 Q1013=
201804100120 METAR ESMX 100120Z AUTO 04012KT 9999 OVC009/// 04/02 Q1012=
201804100050 METAR ESMX 100050Z AUTO 04012KT 9999 BKN010/// 04/02 Q1011=
201804100020 METAR ESMX 100020Z AUTO 03013KT 9999 FEW012/// OVC070/// 05/02 Q1011=
201804092350 METAR ESMX 092350Z AUTO 04010KT 9999 OVC070/// 05/02 Q1011=
201804092320 METAR ESMX 092320Z AUTO 03008KT 9999 OVC072/// 06/03 Q1010=
201804092250 METAR ESMX 092250Z AUTO 02009KT 9999 OVC074/// 08/04 Q1010=
201804092220 METAR ESMX 092220Z AUTO 04009KT 9999 BKN076/// 09/05 Q1009=
201804092150 METAR ESMX 092150Z AUTO 35007KT 9999 BKN084/// 10/07 Q1009=
201804092120 METAR ESMX 092120Z AUTO 34009KT 9999 OVC084/// 11/07 Q1008=
201804092050 METAR ESMX 092050Z AUTO 34008KT 9999 OVC086/// 12/08 Q1008=
201804092020 METAR ESMX 092020Z 31008KT CAVOK 13/08 Q1008=
201804091950 METAR ESMX 091950Z 29004KT CAVOK 13/08 Q1007=
201804091920 METAR ESMX 091920Z 28004KT CAVOK 13/08 Q1007=
201804091850 METAR ESMX 091850Z VRB03KT CAVOK 12/07 Q1007=
201804091820 METAR ESMX 091820Z 25003KT CAVOK 12/08 Q1006=
201804091750 METAR ESMX 091750Z 24003KT CAVOK 15/08 Q1006=
201804091720 METAR ESMX 091720Z 25003KT CAVOK 17/08 Q1006=
201804091650 METAR ESMX 091650Z 27006KT CAVOK 18/08 Q1006=
201804091620 METAR ESMX 091620Z 28007KT CAVOK 19/08 Q1006=
201804091550 METAR ESMX 091550Z 27008KT CAVOK 20/08 Q1006=
201804091520 METAR ESMX 091520Z 25007KT 210V280 CAVOK 19/08 Q1006=
201804091450 METAR ESMX 091450Z 25008KT CAVOK 20/07 Q1005=
201804091420 METAR ESMX 091420Z 23006KT 200V290 CAVOK 20/07 Q1005=
201804091350 METAR ESMX 091350Z 25009KT 220V290 CAVOK 20/07 Q1005=
201804091320 METAR ESMX 091320Z 23006KT 170V300 CAVOK 20/07 Q1005=
201804091250 METAR ESMX 091250Z 26007KT 220V290 CAVOK 20/07 Q1006=
201804091220 METAR ESMX 091220Z 23007KT 170V280 CAVOK 20/06 Q1006=
201804091150 METAR ESMX 091150Z 20007KT CAVOK 20/06 Q1006=
201804091120 METAR ESMX 091120Z 21007KT 160V240 CAVOK 20/07 Q1006=
201804091050 METAR ESMX 091050Z 20007KT 160V240 CAVOK 19/07 Q1006=
201804091020 METAR ESMX 091020Z 21008KT 170V240 CAVOK 19/06 Q1006=
201804090950 METAR ESMX 090950Z 20007KT 160V240 CAVOK 17/06 Q1006=
201804090920 METAR ESMX 090920Z 20006KT 190V250 CAVOK 17/06 Q1006=
201804090850 METAR ESMX 090850Z VRB03KT CAVOK 16/06 Q1006=
201804090820 METAR ESMX 090820Z VRB03KT CAVOK 15/05 Q1006=
201804090750 METAR ESMX 090750Z 34004KT CAVOK 12/04 Q1007=
201804090720 METAR ESMX 090720Z VRB02KT CAVOK 11/04 Q1007=
201804090650 METAR ESMX 090650Z VRB02KT CAVOK 08/04 Q1007=
201804090620 METAR ESMX 090620Z VRB02KT CAVOK 05/03 Q1007=
201804090550 METAR ESMX 090550Z 00000KT CAVOK 03/02 Q1007=
201804090520 METAR ESMX 090520Z 01003KT CAVOK 00/M00 Q1007=
201804090450 METAR ESMX 090450Z 34002KT CAVOK M01/M01 Q1007=
201804090420 METAR ESMX 090420Z VRB01KT 8000 R01/P2000N R19/0800N BR BCFG NSC M00/M01 Q1007=
201804090350 METAR ESMX 090350Z 36002KT 8000 BR NSC M00/M01 Q1007=
201804090320 METAR ESMX 090320Z AUTO 00000KT 9999 NCD M00/M01 Q1007=
201804090250 METAR ESMX 090250Z AUTO VRB01KT 8000 BR NCD M00/M01 Q1008=
201804090220 METAR ESMX 090220Z AUTO VRB02KT 9000 BR NCD 01/M00 Q1008=
201804090150 METAR ESMX 090150Z AUTO 19002KT 9999 NCD 01/M00 Q1008=
201804090120 METAR ESMX 090120Z AUTO 15003KT 9999 NCD 02/01 Q1008=
201804090050 METAR ESMX 090050Z AUTO 34002KT 9999 NCD 01/00 Q1008=
201804090020 METAR ESMX 090020Z AUTO 15003KT 9999 NCD 05/03 Q1009=
201804082350 METAR ESMX 082350Z AUTO 16004KT 9999 NCD 06/03 Q1009=
201804082320 METAR ESMX 082320Z AUTO 15004KT 9999 NCD 06/03 Q1009=
201804082250 METAR ESMX 082250Z AUTO 18003KT 9999 NCD 05/03 Q1009=
201804082220 METAR ESMX 082220Z AUTO 16005KT 9999 NCD 07/03 Q1010=
201804082150 METAR ESMX 082150Z AUTO 15005KT 9999 NCD 08/04 Q1010=
201804082120 METAR ESMX 082120Z AUTO 15004KT 9999 NCD 08/03 Q1010=
201804082050 METAR ESMX 082050Z AUTO 16005KT 9999 NCD 09/04 Q1010=
201804082020 METAR ESMX 082020Z AUTO 16007KT 9999 NCD 10/04 Q1010=
201804081950 METAR ESMX 081950Z 15007KT CAVOK 10/04 Q1010=
201804081920 METAR ESMX 081920Z 15008KT CAVOK 10/04 Q1010=
201804081850 METAR ESMX 081850Z 15007KT CAVOK 11/04 Q1010=
201804081820 METAR ESMX 081820Z 16008KT CAVOK 12/04 Q1010=
201804081750 METAR ESMX 081750Z 16008KT CAVOK 13/03 Q1010=
201804081720 METAR ESMX 081720Z 15008KT CAVOK 14/04 Q1010=
201804081650 METAR ESMX 081650Z 15009KT CAVOK 14/03 Q1010=
201804081620 METAR ESMX 081620Z 15009KT CAVOK 15/03 Q1010=
201804081550 METAR ESMX 081550Z 15011KT CAVOK 15/03 Q1010=
201804081520 METAR ESMX 081520Z 15011KT CAVOK 16/04 Q1010=
201804081450 METAR ESMX 081450Z 16011KT CAVOK 17/04 Q1010=
201804081420 METAR ESMX 081420Z 16010KT CAVOK 18/04 Q1010=
201804081350 METAR ESMX 081350Z 16011KT CAVOK 19/05 Q1010=
201804081320 METAR ESMX 081320Z 15010KT 110V190 CAVOK 18/05 Q1010=
201804081250 METAR ESMX 081250Z 16012KT CAVOK 18/05 Q1011=
201804081220 METAR ESMX 081220Z 17011KT 140V200 CAVOK 18/05 Q1011=
201804081150 METAR ESMX 081150Z 17013KT CAVOK 18/05 Q1011=
201804081120 METAR ESMX 081120Z 17010KT 120V200 CAVOK 18/05 Q1011=
201804081050 METAR ESMX 081050Z 16009KT 130V190 CAVOK 17/05 Q1011=
201804081020 METAR ESMX 081020Z 17009KT CAVOK 16/04 Q1012=
201804080950 METAR ESMX 080950Z AUTO 15007KT 9999 NCD 15/03 Q1012=
201804080920 METAR ESMX 080920Z AUTO 15007KT 110V180 9999 NCD 14/03 Q1012=
201804080850 METAR ESMX 080850Z AUTO 15005KT 080V170 9999 NCD 13/03 Q1012=
201804080820 METAR ESMX 080820Z 14005KT 110V170 CAVOK 11/02 Q1012=
201804080750 METAR ESMX 080750Z VRB03KT CAVOK 10/01 Q1012=
201804080720 METAR ESMX 080720Z 01003KT CAVOK 08/01 Q1012=
201804080650 METAR ESMX 080650Z 36003KT CAVOK 05/00 Q1012=
201804080620 METAR ESMX 080620Z 36002KT CAVOK 01/M00 Q1012=
201804080550 METAR ESMX 080550Z AUTO 35003KT 9999 NCD M00/M02 Q1012=
201804080520 METAR ESMX 080520Z AUTO 00000KT 9999 NCD M01/M03 Q1012=
201804080450 METAR ESMX 080450Z AUTO 00000KT 9999 NCD M02/M03 Q1012=
201804080420 METAR ESMX 080420Z AUTO 01002KT 9999 NCD M03/M04 Q1013=
201804080350 METAR ESMX 080350Z AUTO 00000KT 9999 NCD M03/M03 Q1012=
201804080320 METAR ESMX 080320Z AUTO 00000KT 9999 NCD M02/M03 Q1012=
201804080250 METAR ESMX 080250Z AUTO 00000KT 9999 NCD M02/M03 Q1013=
201804080220 METAR ESMX 080220Z AUTO 01003KT 9999 NCD M02/M03 Q1013=
201804080150 METAR ESMX 080150Z AUTO 35002KT 9999 NCD M02/M03 Q1013=
201804080120 METAR ESMX 080120Z AUTO 00000KT 9999 NCD M01/M03 Q1013=
201804080050 METAR ESMX 080050Z AUTO 00000KT 9999 NCD M01/M03 Q1013=
201804080020 METAR ESMX 080020Z AUTO 00000KT 9999 NCD M00/M03 Q1014=
201804072350 METAR ESMX 072350Z AUTO 00000KT 9999 NCD 00/M03 Q1014=
201804072320 METAR ESMX 072320Z AUTO VRB01KT 9999 NCD 02/M03 Q1014=
201804072250 METAR ESMX 072250Z AUTO 15003KT 9999 NCD 02/M03 Q1014=
201804072220 METAR ESMX 072220Z AUTO 15005KT 9999 NCD 04/M03 Q1014=
201804072150 METAR ESMX 072150Z AUTO 15005KT 9999 NCD 04/M04 Q1014=
201804072120 METAR ESMX 072120Z AUTO 15005KT 9999 NCD 04/M04 Q1014=
201804072050 METAR ESMX 072050Z AUTO 14005KT 100V160 9999 NCD 05/M04 Q1015=
201804072020 METAR ESMX 072020Z AUTO 13004KT 100V170 9999 NCD 02/M03 Q1015=
201804071950 METAR ESMX 071950Z AUTO VRB02KT 9999 NCD 01/M04 Q1015=
201804071920 METAR ESMX 071920Z VRB01KT CAVOK 03/M03 Q1015=
201804071850 METAR ESMX 071850Z 15004KT CAVOK 05/M03 Q1016=
201804071820 METAR ESMX 071820Z VRB02KT CAVOK 06/M04 Q1016=
201804071750 METAR ESMX 071750Z 16005KT 120V200 CAVOK 08/M04 Q1016=
201804071720 METAR ESMX 071720Z 15006KT CAVOK 09/M04 Q1016=
201804071650 METAR ESMX 071650Z AUTO 15009KT 9999 NCD 10/M04 Q1016=
201804071620 METAR ESMX 071620Z AUTO 16009KT 9999 NCD 10/M05 Q1017=
201804071550 METAR ESMX 071550Z AUTO 16012KT 9999 NCD 10/M05 Q1017=
201804071520 METAR ESMX 071520Z AUTO 18014KT 9999 NCD 11/M05 Q1017=
201804071450 METAR ESMX 071450Z AUTO 18011KT 9999 NCD 12/M05 Q1017=
201804071420 METAR ESMX 071420Z AUTO 16011KT 9999 NCD 12/M06 Q1018=
201804071350 METAR ESMX 071350Z AUTO 16010KT 120V190 9999 NCD 12/M05 Q1018=
201804071320 METAR ESMX 071320Z AUTO 15013KT 9999 NCD 11/M06 Q1018=
201804071250 METAR ESMX 071250Z AUTO 16012KT 9999 NCD 11/M06 Q1019=
201804071220 METAR ESMX 071220Z AUTO 16016KT 130V190 9999 NCD 11/M06 Q1020=
201804071150 METAR ESMX 071150Z AUTO 15015KT 9999 NCD 10/M06 Q1020=
201804071120 METAR ESMX 071120Z AUTO 16014KT 9999 NCD 10/M05 Q1021=
201804071050 METAR ESMX 071050Z AUTO 16013KT 9999 NCD 10/M06 Q1021=
201804071020 METAR ESMX 071020Z AUTO 17014G24KT 9999 NCD 10/M04 Q1021=
201804070950 METAR ESMX 070950Z AUTO 18013KT 9999 NCD 09/M03 Q1021=
201804070920 METAR ESMX 070920Z AUTO 16012KT 9999 NCD 07/M03 Q1022=
201804070850 METAR ESMX 070850Z 15011KT CAVOK 06/M03 Q1022=
201804070820 METAR ESMX 070820Z 15008KT 110V170 CAVOK 05/M03 Q1022=
201804070750 METAR ESMX 070750Z 16009KT CAVOK 04/M03 Q1023=
201804070720 METAR ESMX 070720Z 15007KT CAVOK 03/M03 Q1023=
201804070650 METAR ESMX 070650Z AUTO 14007KT 9999 FEW130/// 02/M03 Q1023=
201804070620 METAR ESMX 070620Z AUTO 14007KT 9999 NCD 02/M03 Q1023=
201804070550 METAR ESMX 070550Z AUTO 14004KT 100V170 9999 NCD 00/M02 Q1023=
201804070520 METAR ESMX 070520Z AUTO VRB03KT 9999 BKN140/// M02/M03 Q1023=
201804070450 METAR ESMX 070450Z AUTO VRB03KT 9999 FEW140/// M02/M03 Q1023=
201804070420 METAR ESMX 070420Z AUTO 13003KT 9999 FEW130/// M02/M04 Q1023=
201804070350 METAR ESMX 070350Z AUTO 11003KT 9999 SCT130/// M02/M03 Q1023=
201804070320 METAR ESMX 070320Z AUTO 00000KT 9999 SCT130/// M03/M04 Q1023=
201804070250 METAR ESMX 070250Z AUTO 00000KT 9999 SCT120/// M03/M04 Q1023=
201804070220 METAR ESMX 070220Z AUTO 00000KT 9999 BKN120/// M02/M03 Q1023=
201804070150 METAR ESMX 070150Z AUTO VRB02KT 9999 BKN120/// M02/M03 Q1023=
201804070120 METAR ESMX 070120Z AUTO 00000KT 9999 BKN120/// M02/M04 Q1023=
201804070050 METAR ESMX 070050Z AUTO 00000KT 9999 FEW130/// M02/M04 Q1023=
201804070020 METAR ESMX 070020Z AUTO 00000KT 9999 BKN100/// OVC130/// M02/M04 Q1023=
201804062350 METAR ESMX 062350Z AUTO 04002KT 9999 SCT100/// OVC150/// M01/M03 Q1023=
201804062320 METAR ESMX 062320Z AUTO 19001KT 9999 FEW110/// BKN150/// M02/M03 Q1023=
201804062250 METAR ESMX 062250Z AUTO 00000KT 9999 SCT110/// BKN160/// M02/M04 Q1023=
201804062220 METAR ESMX 062220Z AUTO 05001KT 9999 BKN160/// M01/M04 Q1023=
201804062150 METAR ESMX 062150Z AUTO 19002KT 9999 BKN160/// M01/M05 Q1023=
201804062120 METAR ESMX 062120Z AUTO 25003KT 9999 NCD M01/M05 Q1022=
201804062050 METAR ESMX 062050Z AUTO 12001KT 9999 NCD 00/M05 Q1022=
201804062020 METAR ESMX 062020Z 24004KT CAVOK 02/M05 Q1022=
201804061950 METAR ESMX 061950Z 25006KT CAVOK 03/M06 Q1022=
201804061920 METAR ESMX 061920Z 23005KT CAVOK 03/M06 Q1022=
201804061850 METAR ESMX 061850Z 25005KT CAVOK 03/M06 Q1021=
201804061820 METAR ESMX 061820Z 24005KT CAVOK 04/M06 Q1021=
201804061750 METAR ESMX 061750Z 26007KT CAVOK 06/M06 Q1020=
201804061720 METAR ESMX 061720Z 26008KT CAVOK 06/M06 Q1019=
201804061650 METAR ESMX 061650Z 26011KT CAVOK 07/M05 Q1019=
201804061620 METAR ESMX 061620Z 26012KT CAVOK 08/M06 Q1018=
201804061550 METAR ESMX 061550Z 27013KT CAVOK 09/M07 Q1018=
201804061520 METAR ESMX 061520Z 28014G25KT 250V320 CAVOK 09/M06 Q1018=
201804061450 METAR ESMX 061450Z 26014KT CAVOK 09/M07 Q1017=
201804061420 METAR ESMX 061420Z 27014KT 240V320 CAVOK 09/M07 Q1017=
201804061350 METAR ESMX 061350Z 27017KT CAVOK 10/M06 Q1016=
201804061320 METAR ESMX 061320Z 26016KT 230V300 CAVOK 09/M06 Q1016=
201804061250 METAR ESMX 061250Z 26015G25KT CAVOK 09/M05 Q1015=
201804061220 METAR ESMX 061220Z 28019KT CAVOK 09/M05 Q1015=
201804061150 METAR ESMX 061150Z 30015KT 260V330 CAVOK 08/M04 Q1014=
201804061120 METAR ESMX 061120Z 28017KT CAVOK 08/M04 Q1014=
201804061050 METAR ESMX 061050Z 28016G28KT 240V320 CAVOK 08/M03 Q1013=
201804061020 METAR ESMX 061020Z 27017G30KT 240V300 9999 FEW042 07/M04 Q1013=
201804060950 METAR ESMX 060950Z 27019G30KT 9999 FEW040 07/M03 Q1012=
201804060920 METAR ESMX 060920Z 26017KT 230V290 9999 FEW040 06/M02 Q1011=
201804060850 METAR ESMX 060850Z 27019G31KT 9999 FEW040 06/M03 Q1011=
201804060820 METAR ESMX 060820Z 27020G33KT 9999 FEW035 05/M02 Q1010=
201804060750 METAR ESMX 060750Z 27020G33KT 9999 FEW030 04/M02 Q1010=
201804060720 METAR ESMX 060720Z 26019G30KT 9999 FEW027 04/M02 Q1009=
201804060650 METAR ESMX 060650Z 26017G30KT 9999 FEW027 03/M02 Q1009=
201804060620 METAR ESMX 060620Z 26017G28KT 9999 SCT027 03/M02 Q1009=
201804060550 METAR COR ESMX 060550Z 27016G28KT 9999 BKN027 02/M03 Q1008=
201804060520 METAR ESMX 060520Z 26016G28KT 230V300 9999 BKN027 02/M02 Q1008=
201804060450 METAR ESMX 060450Z 25016G31KT 220V280 9999 BKN026 02/M02 Q1007=
201804060420 METAR ESMX 060420Z 26017KT 9999 BKN025 02/M02 Q1007=
201804060350 METAR ESMX 060350Z 25017G32KT 230V290 9999 SCT025 BKN033 02/M02 Q1006=
201804060320 METAR ESMX 060320Z AUTO 25017G28KT 9999 BKN024/// OVC034/// 02/M02 Q1006=
201804060250 METAR ESMX 060250Z AUTO 26017G27KT 220V290 9999 BKN026/// OVC036/// 02/M02 Q1006=
201804060220 METAR ESMX 060220Z AUTO 25016KT 220V280 9999 SCT023/// 02/M02 Q1006=
201804060150 METAR ESMX 060150Z AUTO 24014G26KT 9999 BKN020/// 02/M01 Q1005=
201804060120 METAR ESMX 060120Z AUTO 26015G27KT 9999 OVC020/// 02/M01 Q1005=
201804060050 METAR ESMX 060050Z AUTO 24013KT 9999 FEW019/// BKN028/// BKN034/// 02/M01 Q1005=
201804060020 METAR ESMX 060020Z AUTO 25013KT 9999 FEW015/// 01/M01 Q1005=
201804052350 METAR ESMX 052350Z AUTO 25012KT 9999 BKN016/// BKN022/// 01/M01 Q1005=
201804052320 METAR ESMX 052320Z AUTO 25011KT 9999 SCT015/// 01/M01 Q1005=
201804052250 METAR ESMX 052250Z AUTO 26012KT 210V290 9999 FEW015/// 02/M00 Q1005=
201804052220 METAR ESMX 052220Z AUTO 25012G23KT 210V280 9999 BKN011/// OVC015/// 02/00 Q1004=
201804052150 METAR ESMX 052150Z AUTO 25011G22KT 9999 SCT010/// BKN012/// OVC061/// 02/01 Q1004=
201804052120 METAR ESMX 052120Z AUTO 26010KT 9999 -RA FEW012/// SCT022/// BKN030/// 02/01 Q1003 RERA=
201804052050 METAR ESMX 052050Z AUTO 27017G29KT 240V320 6000 BR FEW002/// BKN005/// OVC008/// 03/01 Q1003 REDZ REUP=
201804052020 METAR ESMX 052020Z 22011KT 5000 BR OVC006 06/05 Q1001=
201804051950 METAR ESMX 051950Z 22010KT 9999 OVC008 06/05 Q1001=
201804051920 METAR ESMX 051920Z 22010KT 8000 -RA BKN006 OVC011 06/05 Q1001=
201804051850 METAR ESMX 051850Z 24009KT 5000 -RA BKN005 07/06 Q1001=
201804051820 METAR ESMX 051820Z 20009KT 9999 FEW002 BKN013 07/06 Q1001=
201804051750 METAR ESMX 051750Z 21006KT 9999 -RA FEW012 BKN017 07/07 Q1001=
201804051720 METAR ESMX 051720Z 21008KT 9999 -DZ FEW003 SCT019 BKN033 08/06 Q1000=
201804051650 METAR ESMX 051650Z 19011KT 9999 BKN031 08/06 Q1000=
201804051620 METAR ESMX 051620Z 20010KT 9999 FEW032 BKN043 09/04 Q1000=
201804051550 METAR ESMX 051550Z 19012KT 9999 FEW031 BKN042 10/04 Q1000=
201804051520 METAR ESMX 051520Z 20010KT 9999 SCT030 BKN047 10/05 Q1000=
201804051450 METAR ESMX 051450Z 20011KT 9999 FEW026 SCT062 10/05 Q1000=
201804051420 METAR ESMX 051420Z 19011KT 9999 FEW025 10/05 Q1000=
201804051350 METAR ESMX 051350Z 21010KT 9999 SCT022 BKN028 10/05 Q1000=
201804051320 METAR ESMX 051320Z 21010KT 170V240 9999 SCT020 10/05 Q1000=
201804051250 METAR ESMX 051250Z 21009KT 9999 SCT018 10/06 Q1000=
201804051220 METAR ESMX 051220Z 22010KT 9999 BKN014 09/06 Q1000=
201804051150 METAR ESMX 051150Z 23008KT 9999 FEW007 BKN009 09/06 Q1000=
201804051120 METAR ESMX 051120Z 23009KT 200V260 9999 SCT003 BKN006 08/07 Q1000=
201804051050 METAR ESMX 051050Z 23010KT 4700 BR OVC003 07/06 Q0999=
201804051020 METAR ESMX 051020Z 23010KT 6000 BR BKN005 07/06 Q0999=
201804050950 METAR ESMX 050950Z 21010KT 180V240 6000 BR BKN005 07/06 Q0999=
201804050920 METAR ESMX 050920Z 22008KT 5000 BR FEW003 OVC005 07/06 Q0998=
201804050850 METAR ESMX 050850Z 20010KT 3200 BR SCT002 OVC004 07/06 Q0998=
201804050820 METAR COR ESMX 050820Z 21009KT 2100 BR OVC001 07/06 Q0998=
201804050750 METAR ESMX 050750Z 19010KT 0900 R01/1000N R19/1100N FG OVC001 06/06 Q0997=
201804050720 METAR ESMX 050720Z 19009KT 0450 R01/0750N R19/0800N FG OVC001 06/06 Q0997=
201804050650 METAR ESMX 050650Z 16006KT 0550 R01/0800N R19/0900D FG OVC001 06/06 Q0997=
201804050620 METAR ESMX 050620Z 16007KT 0600 R01/0900N R19/1100U -DZ OVC001 06/05 Q0997=
201804050550 METAR ESMX 050550Z 15007KT 0250 R01/0550N R19/0600N FG BKN001 OVC002 06/05 Q0997=
201804050520 METAR ESMX 050520Z 14004KT 0400 R01/0650N R19/1300D FG OVC001 06/05 Q0997=
201804050450 METAR ESMX 050450Z 15003KT 120V190 2100 BR OVC002 06/05 Q0997=
201804050420 METAR ESMX 050420Z VRB02KT 0500 R01/P2000N R19/1400U -DZ OVC004 06/05 Q0997=
201804050350 METAR ESMX 050350Z 00000KT 2100 -DZ OVC004 06/05 Q0997=
201804050320 METAR ESMX 050320Z AUTO 18003KT 110V230 7000 BR OVC005/// 06/05 Q0998=
201804050250 METAR ESMX 050250Z AUTO VRB03KT 5000 -RA BKN004/// OVC046/// 06/05 Q0998=
201804050220 METAR ESMX 050220Z AUTO 09004KT 030V170 6000 RA BKN004/// OVC047/// 06/05 Q0998=
201804050150 METAR ESMX 050150Z AUTO 11004KT 060V190 8000 -RA BKN006/// OVC033/// 06/05 Q0999=
201804050120 METAR ESMX 050120Z AUTO 17007KT 140V200 9999 -RA FEW009/// OVC053/// 06/05 Q1001=
201804050050 METAR ESMX 050050Z AUTO VRB03KT 9999 -DZ FEW051/// BKN062/// BKN110/// 04/04 Q0999 REUP=
201804050020 METAR ESMX 050020Z AUTO 08004KT 050V120 9999 BKN068/// 03/03 Q1000=
201804042350 METAR ESMX 042350Z AUTO 03005KT 4600 BR BKN068/// OVC130/// 02/02 Q1000 REUP=
201804042320 METAR ESMX 042320Z AUTO 03003KT 5000 BR OVC068/// 02/01 Q1001=
201804042250 METAR ESMX 042250Z AUTO VRB03KT 8000 OVC070/// 02/01 Q1001=
201804042220 METAR ESMX 042220Z AUTO 06004KT 7000 OVC088/// 02/01 Q1001=
201804042150 METAR ESMX 042150Z AUTO 36003KT 0400 R01/P2000N R19/P2000N BCFG BKN100/// M00/M00 Q1002=
201804042120 METAR ESMX 042120Z AUTO 01002KT 0200 R01/1900D R19/0500N BCFG FEW100/// M00/M00 Q1002=
201804042050 METAR ESMX 042050Z AUTO VRB02KT 0600 R01/P2000N R19/P2000D BCFG NCD 01/00 Q1002=
201804042020 METAR ESMX 042020Z AUTO 00000KT 0200 R01/P2000N R19/0400N BCFG NCD 00/M00 Q1002=
201804041950 METAR ESMX 041950Z AUTO 00000KT 0150 R01/P2000D R19/0450N BCFG NCD 02/02 Q1003=
201804041920 METAR ESMX 041920Z AUTO 15002KT 6000 FG NCD 03/02 Q1003=
201804041850 METAR ESMX 041850Z AUTO 00000KT 9999 FEW011/// 05/04 Q1003=
201804041820 METAR ESMX 041820Z VRB03KT 9999 OVC012 07/04 Q1003=
201804041750 METAR ESMX 041750Z 24004KT 190V260 9999 OVC012 07/05 Q1003=
201804041720 METAR ESMX 041720Z 26005KT 9999 BKN012 OVC016 08/05 Q1003=
201804041650 METAR ESMX 041650Z 23006KT 9999 BKN015 08/06 Q1003=
201804041620 METAR ESMX 041620Z 25005KT 9999 OVC014 09/06 Q1002=
201804041550 METAR ESMX 041550Z 26005KT 9999 OVC014 09/06 Q1002=
201804041520 METAR COR ESMX 041520Z 27007KT 9999 OVC015 10/06 Q1002=
201804041450 METAR ESMX 041450Z 25007KT 230V290 9999 BKN016 10/06 Q1001=
201804041420 METAR COR ESMX 041420Z 27008KT 250V310 9999 BKN015 10/07 Q1001=
201804041350 METAR ESMX 041350Z 27008KT 250V310 9999 OVC015 10/07 Q1001=
201804041320 METAR ESMX 041320Z 27010KT 240V310 9999 BKN010 OVC013 10/06 Q1001=
201804041250 METAR ESMX 041250Z 25007KT 210V290 9999 BKN010 10/07 Q1001=
201804041220 METAR ESMX 041220Z 23009KT 190V250 9999 OVC008 09/08 Q1001=
201804041150 METAR ESMX 041150Z 22007KT 9999 OVC009 09/07 Q1000=
201804041120 METAR ESMX 041120Z 21007KT 9999 OVC008 09/07 Q1000=
201804041050 METAR ESMX 041050Z 20008KT 9999 OVC006 08/07 Q1000=
201804041020 METAR ESMX 041020Z 17009KT 9999 OVC007 08/08 Q0999=
201804040950 METAR ESMX 040950Z 16008KT 5000 BR OVC004 07/07 Q0999=
201804040920 METAR ESMX 040920Z 15008KT 2200 OVC002 06/06 Q0999=
201804040850 METAR ESMX 040850Z 17007KT 1000 R01/1000N R19/1400U BKN001 06/05 Q1000=
201804040820 METAR ESMX 040820Z 14007KT 0500 R01/0750N R19/1000N FG OVC002 05/04 Q0999=
201804040750 METAR ESMX 040750Z 17007KT 140V200 0300 R01/0550N R19/0550N FG VV002 04/04 Q1000=
201804040720 METAR ESMX 040720Z 14008KT 100V170 0300 R01/0500N R19/0550N FG VV002 04/03 Q0999=
201804040650 METAR ESMX 040650Z 14009KT 110V170 0400 R01/0650N R19/0750N FG OVC002 03/03 Q1000=
201804040620 METAR ESMX 040620Z 14009KT 0500 R01/0750N R19/1000N FG OVC002 04/03 Q1000=
201804040550 METAR ESMX 040550Z 14009KT 100V170 0550 R01/0900D R19/1100D FG OVC002 03/03 Q1000=
201804040520 METAR ESMX 040520Z 13008KT 0800 R01/1400D R19/P2000N FG OVC002 03/03 Q1000=
201804040450 METAR ESMX 040450Z 13007KT 100V180 1200 R01/1800N R19/P2000N BR OVC002 03/02 Q1000=
201804040420 METAR ESMX 040420Z 14005KT 080V200 0650 R01/1500N R19/1900N FG OVC002 02/02 Q1001=
201804040350 METAR ESMX 040350Z 16004KT 100V210 0250 R01/0800N R19/0800N FG VV002 02/02 Q1002=
201804040320 METAR COR ESMX 040320Z 15005KT 100V190 0200 R01/0650N R19/0800D FG OVC002 02/02 Q1002=
201804040250 METAR ESMX 040250Z AUTO VRB03KT 0500 R01/1300N R19/1600D FG OVC001/// 02/01 Q1002=
201804040220 METAR ESMX 040220Z AUTO VRB04KT 0600 R01/1500U R19/1800U -DZ OVC001/// 02/01 Q1002 REUP=
201804040150 METAR ESMX 040150Z AUTO 14005KT 110V180 0700 R01/1900N R19/P2000N FG OVC001/// 01/01 Q1002=
201804040120 METAR ESMX 040120Z 13004KT 090V170 3000 BR OVC002 01/01 Q1003=
201804040050 METAR ESMX 040050Z 14005KT 060V190 6000 BR OVC003 01/01 Q1003=
201804040020 METAR ESMX 040020Z 14007KT 9999 OVC004 01/01 Q1003=
201804032350 METAR ESMX 032350Z 14005KT 080V170 9999 OVC004 01/00 Q1003=
201804032320 METAR ESMX 032320Z 13005KT 080V170 9999 OVC004 01/00 Q1003=
201804032250 METAR ESMX 032250Z 14004KT 080V200 9999 OVC004 01/00 Q1004=
201804032220 METAR ESMX 032220Z 12005KT 070V160 9999 OVC004 01/00 Q1004=
201804032150 METAR ESMX 032150Z 14005KT 100V180 9999 OVC004 01/00 Q1004=
201804032120 METAR ESMX 032120Z AUTO 12004KT 060V200 9999 OVC003/// 01/00 Q1004=
201804032050 METAR ESMX 032050Z 13006KT 090V160 9999 OVC003 01/00 Q1004=
201804032020 METAR ESMX 032020Z 13005KT 080V170 9999 OVC003 01/00 Q1004=
201804031950 METAR ESMX 031950Z 12005KT 080V160 9999 OVC003 01/00 Q1004=
201804031920 METAR ESMX 031920Z 12005KT 070V200 9999 OVC003 01/00 Q1004=
201804031850 METAR ESMX 031850Z 14005KT 080V190 9999 OVC004 01/00 Q1004=
201804031820 METAR ESMX 031820Z 12005KT 070V160 9999 OVC004 01/00 Q1004=
201804031750 METAR ESMX 031750Z 12006KT 080V170 9999 OVC004 01/00 Q1004=
201804031720 METAR ESMX 031720Z 11006KT 070V150 9999 BKN005 OVC007 01/00 Q1003=
201804031650 METAR ESMX 031650Z 12004KT 050V170 9999 OVC007 02/00 Q1004=
201804031620 METAR ESMX 031620Z 11006KT 050V150 9999 OVC008 02/M00 Q1003=
201804031550 METAR ESMX 031550Z 13005KT 080V190 9999 OVC009 02/M00 Q1004=
201804031520 METAR ESMX 031520Z 12006KT 070V200 9999 BKN011 02/M00 Q1003=
201804031450 METAR ESMX 031450Z 13005KT 080V170 9999 BKN012 02/M00 Q1003=
201804031420 METAR ESMX 031420Z 08005KT 030V120 9999 OVC011 02/M00 Q1003=
201804031350 METAR ESMX 031350Z 09005KT 050V140 9999 SCT010 OVC014 02/M00 Q1003=
201804031320 METAR ESMX 031320Z 08003KT 040V140 9999 -RA SCT009 OVC012 02/M00 Q1004=
201804031250 METAR ESMX 031250Z 10004KT 050V190 9999 -RASN BKN009 OVC012 02/00 Q1004=
201804031220 METAR ESMX 031220Z 12005KT 070V160 9999 -RA SCT007 BKN009 01/00 Q1003=
201804031150 METAR ESMX 031150Z 08005KT 040V150 9999 -RASN SCT007 BKN010 02/00 Q1003=
201804031120 METAR ESMX 031120Z 10005KT 060V140 8000 -RASN FEW005 BKN011 01/00 Q1003=
201804031050 METAR ESMX 031050Z 10005KT 050V140 2300 -SN SCT005 BKN009 01/M00 Q1003=
201804031020 METAR ESMX 031020Z 11006KT 070V160 3000 -SN FEW002 BKN007 01/M01 Q1004=
201804030950 METAR ESMX 030950Z 11005KT 060V180 2800 -SN FEW008 SCT024 OVC028 00/M01 Q1004=
201804030920 METAR ESMX 030920Z 13005KT 030V160 3300 -SN BKN030 M00/M02 Q1004=
201804030850 METAR ESMX 030850Z 16008KT 7000 -SN SCT030 OVC053 00/M03 Q1004=
201804030820 METAR ESMX 030820Z 16010KT 9999 FEW034 01/M07 Q1004=
201804030750 METAR ESMX 030750Z 16004KT 130V200 9999 FEW042 BKN076 01/M09 Q1004=
201804030720 METAR ESMX 030720Z VRB03KT CAVOK 00/M08 Q1004=
201804030650 METAR ESMX 030650Z VRB03KT CAVOK M01/M08 Q1004=
201804030620 METAR ESMX 030620Z VRB03KT CAVOK M02/M08 Q1004=
201804030550 METAR ESMX 030550Z VRB02KT CAVOK M02/M07 Q1004=
201804030520 METAR ESMX 030520Z VRB02KT 9999 BKN048 M03/M07 Q1004=
201804030450 METAR ESMX 030450Z 04003KT CAVOK M03/M07 Q1004=
201804030420 METAR ESMX 030420Z 36002KT CAVOK M04/M06 Q1004=
201804030350 METAR ESMX 030350Z 00000KT CAVOK M04/M07 Q1005=
201804030320 METAR ESMX 030320Z AUTO 00000KT 9999 NCD M04/M06 Q1005=
201804030250 METAR ESMX 030250Z AUTO 00000KT 9999 FEW082/// M04/M07 Q1005=
201804030220 METAR ESMX 030220Z AUTO 00000KT 9999 SCT086/// M04/M07 Q1005=
201804030150 METAR ESMX 030150Z AUTO 00000KT 9999 FEW094/// SCT110/// M05/M08 Q1005=
201804030120 METAR ESMX 030120Z AUTO 00000KT 9999 NCD M06/M09 Q1005=
201804030050 METAR ESMX 030050Z AUTO 19002KT 9999 NCD M05/M09 Q1005=
201804030020 METAR ESMX 030020Z AUTO 00000KT 9999 NCD M06/M09 Q1005=
201804022350 METAR ESMX 022350Z AUTO 15001KT 9999 NCD M04/M08 Q1005=
201804022320 METAR ESMX 022320Z AUTO 00000KT 9999 NCD M04/M09 Q1005=
201804022250 METAR ESMX 022250Z AUTO 26003KT 9999 NCD M05/M09 Q1006=
201804022220 METAR ESMX 022220Z AUTO 27003KT 9999 NCD M05/M09 Q1005=
201804022150 METAR ESMX 022150Z AUTO 27002KT 9999 NCD M04/M09 Q1005=
201804022120 METAR ESMX 022120Z AUTO VRB01KT 9999 NCD M01/M10 Q1005=
201804022050 METAR ESMX 022050Z AUTO 25004KT 9999 NCD M01/M10 Q1005=
201804022020 METAR ESMX 022020Z 26005KT CAVOK M00/M10 Q1005=
201804021950 METAR ESMX 021950Z 26005KT CAVOK M00/M09 Q1005=
201804021920 METAR ESMX 021920Z 26005KT CAVOK 01/M09 Q1005=
201804021850 METAR ESMX 021850Z 26005KT CAVOK 01/M09 Q1004=
201804021820 METAR ESMX 021820Z 24006KT CAVOK 02/M08 Q1004=
201804021750 METAR ESMX 021750Z 25006KT CAVOK 03/M08 Q1004=
201804021720 METAR ESMX 021720Z 25006KT 220V290 CAVOK 05/M08 Q1003=
201804021650 METAR ESMX 021650Z 27006KT 240V300 CAVOK 06/M09 Q1003=
201804021620 METAR ESMX 021620Z 28008KT CAVOK 06/M10 Q1003=
201804021550 METAR ESMX 021550Z 26009KT CAVOK 07/M10 Q1003=
201804021520 METAR ESMX 021520Z 29008KT 260V330 CAVOK 07/M08 Q1003=
201804021450 METAR ESMX 021450Z 30009KT 260V340 CAVOK 07/M10 Q1003=
201804021420 METAR ESMX 021420Z 29010KT CAVOK 07/M10 Q1003=
201804021350 METAR ESMX 021350Z 29009KT 260V330 CAVOK 06/M09 Q1003=
201804021320 METAR ESMX 021320Z 29010KT 240V330 CAVOK 06/M09 Q1003=
201804021250 METAR ESMX 021250Z 30010KT 260V320 CAVOK 06/M09 Q1003=
201804021220 METAR ESMX 021220Z 28010G25KT 250V320 CAVOK 06/M10 Q1003=
201804021150 METAR ESMX 021150Z 33011KT 300V360 CAVOK 06/M09 Q1003=
201804021120 METAR ESMX 021120Z 32011KT CAVOK 06/M08 Q1003=
201804021050 METAR ESMX 021050Z 31010KT 280V340 CAVOK 05/M10 Q1003=
201804021020 METAR ESMX 021020Z 33010KT 300V360 CAVOK 04/M08 Q1003=
201804020950 METAR ESMX 020950Z 31010KT CAVOK 04/M06 Q1003=
201804020920 METAR ESMX 020920Z 32010KT CAVOK 03/M07 Q1003=
201804020850 METAR ESMX 020850Z 32009KT CAVOK 02/M05 Q1003=
201804020820 METAR ESMX 020820Z 31010KT CAVOK 01/M05 Q1003=
201804020750 METAR ESMX 020750Z 33009KT CAVOK 01/M05 Q1003=
201804020720 METAR ESMX 020720Z 31009KT CAVOK M00/M05 Q1003=
201804020650 METAR ESMX 020650Z AUTO 31009KT 9999 NCD M01/M05 Q1003=
201804020620 METAR ESMX 020620Z 31008KT CAVOK M02/M05 Q1003=
201804020550 METAR ESMX 020550Z 31007KT CAVOK M03/M05 Q1003=
201804020520 METAR ESMX 020520Z 31008KT CAVOK M03/M06 Q1002=
201804020450 METAR ESMX 020450Z AUTO 31007KT 9999 NCD M03/M06 Q1002=
201804020420 METAR ESMX 020420Z AUTO 30009KT 9999 NCD M03/M05 Q1002=
201804020350 METAR ESMX 020350Z AUTO 30007KT 9999 NCD M03/M05 Q1002=
201804020320 METAR ESMX 020320Z AUTO 30008KT 9999 FEW170/// M03/M05 Q1002=
201804020250 METAR ESMX 020250Z AUTO 30008KT 9999 NCD M02/M04 Q1002=
201804020220 METAR ESMX 020220Z AUTO 31007KT 9999 FEW170/// M02/M04 Q1002=
201804020150 METAR ESMX 020150Z AUTO 31009KT 9999 BKN110/// M02/M04 Q1002=
201804020120 METAR ESMX 020120Z AUTO 31008KT 9999 FEW078/// SCT110/// M02/M04 Q1002=
201804020050 METAR ESMX 020050Z AUTO 31007KT 9999 SCT078/// BKN110/// M02/M04 Q1002=
201804020020 METAR ESMX 020020Z AUTO 31008KT 9999 FEW100/// M01/M04 Q1002=
201804012350 METAR ESMX 012350Z AUTO 32008KT 9999 SCT066/// OVC090/// M01/M04 Q1002=
201804012320 METAR ESMX 012320Z AUTO 32009KT 9999 SCT049/// OVC068/// M01/M04 Q1002=
201804012250 METAR ESMX 012250Z AUTO 33009KT 9999 OVC053/// M01/M03 Q1002=
201804012220 METAR ESMX 012220Z AUTO 33008KT 6000 -SN FEW024/// BKN029/// OVC053/// M01/M03 Q1002=
201804012150 METAR ESMX 012150Z AUTO 34009KT 9000 -SN BKN014/// OVC035/// M01/M03 Q1002 REFZUP=
201804012120 METAR ESMX 012120Z AUTO 33009KT 9999 OVC013/// M01/M03 Q1003=
201804012050 METAR ESMX 012050Z AUTO 34009KT 9999 OVC013/// M01/M03 Q1002 RESHUP RESN=
201804012020 METAR ESMX 012020Z 34010KT 9999 OVC013 M01/M03 Q1002=
201804011950 METAR ESMX 011950Z 34010KT 6000 -SN BKN013 M01/M02 Q1002=
201804011920 METAR ESMX 011920Z 34010KT 6000 -SN SCT013 BKN018 M01/M02 Q1002=
201804011850 METAR ESMX 011850Z 35010KT 8000 -SN BKN013 M01/M02 Q1002=
201804011820 METAR ESMX 011820Z 36010KT 9000 -RASN BKN015 M00/M02 Q1002=
201804011750 METAR ESMX 011750Z AUTO 34011KT 7000 -SN ///021 M00/M02 Q1002=
201804011720 METAR ESMX 011720Z AUTO 34012KT 5000 -SN ///020 M00/M02 Q1002=
201804011650 METAR ESMX 011650Z AUTO 36013KT 4900 -SN FEW002/// BKN015/// OVC020/// M00/M02 Q1002=
201804011620 METAR ESMX 011620Z 36014KT 8000 -SN BKN014 00/M03 Q1002=
201804011550 METAR ESMX 011550Z 36012KT 9999 BKN014 00/M03 Q1002=
201804011520 METAR ESMX 011520Z 01015KT 9999 BKN013 00/M03 Q1002=
201804011450 METAR ESMX 011450Z AUTO 02014KT 9999 OVC012/// 00/M02 Q1002=
201804011420 METAR ESMX 011420Z 01014KT 9999 OVC009 00/M02 Q1002=
201804011350 METAR ESMX 011350Z 01016KT 9999 OVC009 M00/M02 Q1002=
201804011320 METAR ESMX 011320Z 02015KT 9999 OVC008 00/M02 Q1002=
201804011250 METAR ESMX 011250Z 01014KT 9999 OVC008 00/M02 Q1002=
201804011220 METAR ESMX 011220Z 01013KT 9999 OVC008 00/M02 Q1002=
