##########################################################
# Query made at 04/19/2024 22:03:59 UTC
# Time interval: from 07/01/2018 12:00  to 07/31/2018 12:59  UTC
##########################################################

##########################################################
# ESMX, Vaxjo (Sweden)
# WMO index: 02641. WIGOS ID: 0-20000-0-02648
# Latitude 56-51N. Longitude 014-50E. Altitude 199 m.
##########################################################

201807311250 METAR ESMX 311250Z VRB05KT CAVOK 31/14 Q1018=
201807311220 METAR ESMX 311220Z VRB07KT CAVOK 32/13 Q1018=
201807311150 METAR COR ESMX 311150Z 16006KT 100V190 CAVOK 31/12 Q1019=
201807311120 METAR ESMX 311120Z 18007KT 150V210 CAVOK 31/12 Q1019=
201807311050 METAR ESMX 311050Z VRB05KT CAVOK 30/12 Q1019=
201807311020 METAR COR ESMX 311020Z VRB04KT CAVOK 29/13 Q1019=
201807310950 METAR ESMX 310950Z 17005KT 120V240 CAVOK 29/12 Q1019=
201807310920 METAR COR ESMX 310920Z 17006KT 120V200 CAVOK 28/14 Q1019=
201807310850 METAR ESMX 310850Z 12005KT 060V190 CAVOK 27/15 Q1019=
201807310820 METAR ESMX 310820Z 16006KT CAVOK 26/16 Q1020=
201807310750 METAR ESMX 310750Z 17006KT CAVOK 25/16 Q1020=
201807310720 METAR ESMX 310720Z 17004KT 080V240 CAVOK 24/17 Q1020=
201807310650 METAR ESMX 310650Z 14004KT 100V170 CAVOK 23/17 Q1020=
201807310620 METAR ESMX 310620Z 13004KT 050V200 CAVOK 22/16 Q1020=
201807310550 METAR COR ESMX 310550Z 12005KT 080V160 CAVOK 22/17 Q1019=
201807310520 METAR ESMX 310520Z AUTO 16003KT 130V200 9999 OVC110/// 21/16 Q1019=
201807310450 METAR ESMX 310450Z AUTO VRB03KT 9999 OVC110/// 21/16 Q1019=
201807310420 METAR ESMX 310420Z AUTO VRB02KT 9999 OVC110/// 19/15 Q1019=
201807310350 METAR ESMX 310350Z AUTO VRB02KT 9999 BKN120/// 17/14 Q1019=
201807310320 METAR ESMX 310320Z AUTO VRB01KT 9999 NCD 14/12 Q1019=
201807310250 METAR ESMX 310250Z AUTO VRB02KT 9999 NCD 14/12 Q1019=
201807310220 METAR ESMX 310220Z AUTO 11002KT 9999 FEW200/// 16/13 Q1019=
201807310150 METAR ESMX 310150Z AUTO VRB02KT 9999 SCT200/// 14/11 Q1019=
201807310120 METAR ESMX 310120Z AUTO 00000KT 9999 BKN200/// 16/12 Q1019=
201807310050 METAR ESMX 310050Z AUTO 00000KT 9999 FEW200/// 16/11 Q1019=
201807310020 METAR ESMX 310020Z AUTO VRB01KT 9999 SCT190/// 16/11 Q1019=
201807302350 METAR ESMX 302350Z AUTO 00000KT 9999 NCD 15/11 Q1019=
201807302320 METAR ESMX 302320Z AUTO VRB01KT 9999 SCT190/// 17/11 Q1019=
201807302250 METAR ESMX 302250Z AUTO 17002KT 9999 OVC180/// 17/11 Q1019=
201807302220 METAR ESMX 302220Z AUTO 10002KT 9999 BKN180/// 17/11 Q1019=
201807302150 METAR ESMX 302150Z AUTO 17003KT 9999 BKN180/// 17/11 Q1019=
201807302120 METAR ESMX 302120Z AUTO 20002KT 9999 NCD 18/11 Q1019=
201807302050 METAR ESMX 302050Z AUTO 18002KT 9999 NCD 19/11 Q1019=
201807302020 METAR ESMX 302020Z AUTO 19001KT 9999 NCD 20/11 Q1019=
201807301950 METAR ESMX 301950Z AUTO 00000KT 9999 NCD 21/11 Q1019=
201807301920 METAR ESMX 301920Z AUTO 31002KT 9999 NCD 25/11 Q1019=
201807301850 METAR ESMX 301850Z AUTO 30005KT 9999 NCD 26/10 Q1018=
201807301820 METAR ESMX 301820Z AUTO 29006KT 9999 NCD 28/09 Q1018=
201807301750 METAR ESMX 301750Z AUTO 28008KT 9999 NCD 29/09 Q1017=
201807301720 METAR ESMX 301720Z AUTO 30007KT 9999 NCD 30/08 Q1017=
201807301650 METAR ESMX 301650Z 25007KT 210V290 CAVOK 31/07 Q1017=
201807301620 METAR ESMX 301620Z 27004KT 200V340 CAVOK 32/M05 Q1017=
201807301550 METAR ESMX 301550Z 22004KT 170V270 CAVOK 32/M04 Q1017=
201807301520 METAR ESMX 301520Z 19004KT 130V250 CAVOK 32/M03 Q1017=
201807301450 METAR ESMX 301450Z 24006KT 180V310 CAVOK 32/M03 Q1017=
201807301420 METAR ESMX 301420Z 27006KT 240V300 CAVOK 31/M02 Q1017=
201807301350 METAR ESMX 301350Z 23005KT 150V280 CAVOK 31/01 Q1017=
201807301320 METAR ESMX 301320Z 18005KT 100V240 CAVOK 31/04 Q1017=
201807301250 METAR ESMX 301250Z 26008KT 220V300 CAVOK 31/05 Q1018=
201807301220 METAR ESMX 301220Z 18007KT 150V220 CAVOK 32/07 Q1018=
201807301150 METAR ESMX 301150Z VRB03KT CAVOK 30/10 Q1018=
201807301120 METAR ESMX 301120Z 22005KT 150V290 CAVOK 30/11 Q1018=
201807301050 METAR ESMX 301050Z 17004KT 090V250 CAVOK 30/12 Q1018=
201807301020 METAR ESMX 301020Z 13006KT 080V160 CAVOK 29/12 Q1018=
201807300950 METAR ESMX 300950Z AUTO 15005KT 080V210 9999 NCD 29/12 Q1018=
201807300920 METAR ESMX 300920Z VRB03KT CAVOK 28/11 Q1018=
201807300850 METAR ESMX 300850Z VRB03KT CAVOK 29/12 Q1018=
201807300820 METAR ESMX 300820Z 03005KT 360V110 CAVOK 27/12 Q1018=
201807300750 METAR ESMX 300750Z VRB03KT CAVOK 26/11 Q1018=
201807300720 METAR ESMX 300720Z VRB02KT CAVOK 26/09 Q1018=
201807300650 METAR ESMX 300650Z 04004KT 020V080 CAVOK 25/12 Q1018=
201807300620 METAR ESMX 300620Z VRB02KT CAVOK 24/16 Q1018=
201807300550 METAR COR ESMX 300550Z 04003KT CAVOK 23/16 Q1017=
201807300520 METAR ESMX 300520Z AUTO VRB02KT 9999 NCD 21/15 Q1017=
201807300450 METAR ESMX 300450Z AUTO 18002KT 9999 NCD 19/15 Q1017=
201807300420 METAR ESMX 300420Z AUTO 00000KT 9999 NCD 15/13 Q1017=
201807300350 METAR ESMX 300350Z AUTO 18002KT 9999 NCD 13/12 Q1017=
201807300320 METAR ESMX 300320Z AUTO VRB02KT 9999 NCD 12/11 Q1017=
201807300250 METAR ESMX 300250Z AUTO 00000KT 9999 NCD 14/12 Q1017=
201807300220 METAR ESMX 300220Z AUTO 18002KT 9999 NCD 14/12 Q1017=
201807300150 METAR ESMX 300150Z AUTO VRB01KT 9999 NCD 16/13 Q1017=
201807300120 METAR ESMX 300120Z AUTO 00000KT 9999 NCD 15/13 Q1016=
201807300050 METAR ESMX 300050Z AUTO 00000KT 9999 NCD 16/13 Q1016=
201807300020 METAR ESMX 300020Z AUTO 26002KT 9999 NCD 17/13 Q1016=
201807292350 METAR ESMX 292350Z AUTO VRB02KT 9999 FEW041/// 18/13 Q1017=
201807292320 METAR ESMX 292320Z AUTO VRB03KT 9999 NCD 19/13 Q1016=
201807292250 METAR ESMX 292250Z AUTO 27004KT 9999 NCD 19/14 Q1016=
201807292220 METAR ESMX 292220Z AUTO 26003KT 9999 NCD 20/14 Q1016=
201807292150 METAR ESMX 292150Z AUTO 25004KT 9999 FEW064/// 21/14 Q1016=
201807292120 METAR ESMX 292120Z AUTO 26004KT 9999 SCT053/// OVC064/// 21/14 Q1016=
201807292050 METAR ESMX 292050Z AUTO 24004KT 9999 FEW068/// 19/14 Q1016=
201807292020 METAR ESMX 292020Z AUTO 23002KT 9999 NCD 23/14 Q1016=
201807291950 METAR ESMX 291950Z 26004KT CAVOK 23/14 Q1016=
201807291920 METAR ESMX 291920Z 17004KT 140V200 CAVOK 25/17 Q1015=
201807291850 METAR ESMX 291850Z 13004KT 090V160 CAVOK 26/15 Q1014=
201807291820 METAR ESMX 291820Z 20004KT CAVOK 27/14 Q1014=
201807291750 METAR ESMX 291750Z 10004KT 070V150 CAVOK 27/16 Q1014=
201807291720 METAR ESMX 291720Z 09005KT 050V120 9999 FEW110 27/15 Q1014=
201807291650 METAR ESMX 291650Z 13006KT 080V170 CAVOK 27/17 Q1014=
201807291620 METAR ESMX 291620Z 10006KT 050V140 CAVOK 28/17 Q1014=
201807291550 METAR ESMX 291550Z AUTO 18005KT 130V240 9999 SCT064/// OVC096/// 28/15 Q1014=
201807291520 METAR ESMX 291520Z 24004KT 200V300 CAVOK 29/13 Q1014=
201807291450 METAR ESMX 291450Z 26005KT 200V310 CAVOK 29/14 Q1014=
201807291420 METAR ESMX 291420Z 21007KT 170V260 CAVOK 29/15 Q1014=
201807291350 METAR ESMX 291350Z 24006KT 120V290 9999 FEW047 29/15 Q1014=
201807291320 METAR ESMX 291320Z 20007KT 150V260 9999 FEW047 28/15 Q1014=
201807291250 METAR ESMX 291250Z 26006KT 190V340 9999 SCT048 28/15 Q1014=
201807291220 METAR ESMX 291220Z 21006KT 150V300 9999 SCT050 30/16 Q1014=
201807291150 METAR ESMX 291150Z 32007KT 290V350 9999 SCT045 28/16 Q1014=
201807291120 METAR ESMX 291120Z 30006KT 280V030 9999 FEW037 27/16 Q1014=
201807291050 METAR ESMX 291050Z 26006KT 210V300 9999 FEW031 26/16 Q1014=
201807291020 METAR COR ESMX 291020Z 24005KT 200V320 9999 SCT031 26/17 Q1014=
201807290950 METAR ESMX 290950Z AUTO 22006KT 190V260 9999 SCT032/// BKN046/// 26/17 Q1014=
201807290920 METAR ESMX 290920Z AUTO 27005KT 200V320 9999 SCT025/// BKN043/// 25/18 Q1014=
201807290850 METAR ESMX 290850Z 22006KT 190V260 9999 FEW016 SCT038 24/19 Q1014=
201807290820 METAR ESMX 290820Z 20007KT 9999 SCT017 24/19 Q1014=
201807290750 METAR ESMX 290750Z 22006KT 190V250 9999 SCT015 BKN028 24/19 Q1013=
201807290720 METAR ESMX 290720Z VRB02KT 9999 FEW015 SCT024 24/19 Q1013=
201807290650 METAR ESMX 290650Z 24006KT 9999 SCT009 22/19 Q1013=
201807290620 METAR ESMX 290620Z 21003KT 9999 SCT011 BKN016 22/19 Q1013=
201807290550 METAR ESMX 290550Z AUTO VRB02KT 9999 SCT009/// BKN012/// BKN027/// 22/19 Q1013=
201807290520 METAR ESMX 290520Z AUTO VRB02KT 9999 BKN008/// BKN055/// 22/19 Q1012=
201807290450 METAR ESMX 290450Z AUTO VRB02KT 9999 FEW006/// BKN009/// OVC011/// 21/19 Q1012=
201807290420 METAR ESMX 290420Z AUTO VRB03KT 9000 BR OVC006/// 20/19 Q1012=
201807290350 METAR ESMX 290350Z AUTO 19005KT 140V210 7000 BR OVC004/// 20/20 Q1012=
201807290320 METAR ESMX 290320Z AUTO VRB02KT 8000 BR OVC004/// 20/19 Q1011=
201807290250 METAR ESMX 290250Z AUTO VRB02KT 5000 BR BKN005/// BKN006/// 20/19 Q1011=
201807290220 METAR ESMX 290220Z AUTO VRB02KT 9999 FEW005/// SCT029/// 20/19 Q1011=
201807290150 METAR ESMX 290150Z AUTO VRB02KT 9999 OVC027/// 21/19 Q1011=
201807290120 METAR ESMX 290120Z AUTO VRB02KT 9999 OVC022/// 21/19 Q1011=
201807290050 METAR ESMX 290050Z AUTO 15002KT 9999 FEW009/// SCT012/// BKN016/// 20/19 Q1011=
201807290020 METAR ESMX 290020Z AUTO VRB02KT 9999 FEW012/// BKN092/// 20/19 Q1011=
201807282350 METAR ESMX 282350Z AUTO 09004KT 060V140 9999 FEW011/// SCT110/// 21/19 Q1011=
201807282320 METAR ESMX 282320Z AUTO VRB03KT 9999 SCT070/// BKN100/// 21/19 Q1011=
201807282250 METAR ESMX 282250Z AUTO VRB02KT 9999 BKN074/// 21/19 Q1011=
201807282220 METAR ESMX 282220Z AUTO VRB03KT 9999 FEW082/// 21/18 Q1011=
201807282150 METAR ESMX 282150Z AUTO 12003KT 080V160 9999 FEW110/// 22/18 Q1011=
201807282120 METAR ESMX 282120Z AUTO VRB03KT 9999 BKN100/// 22/18 Q1011=
201807282050 METAR ESMX 282050Z AUTO VRB03KT 9999 BKN130/// 23/18 Q1011=
201807282020 METAR ESMX 282020Z AUTO VRB03KT 9999 BKN098/// 23/18 Q1012=
201807281950 METAR ESMX 281950Z VRB03KT CAVOK 24/18 Q1012=
201807281920 METAR ESMX 281920Z 11005KT 070V150 CAVOK 24/18 Q1011=
201807281850 METAR ESMX 281850Z 10006KT 060V140 CAVOK 24/18 Q1011=
201807281820 METAR ESMX 281820Z 09005KT 030V130 CAVOK 25/18 Q1011=
201807281750 METAR ESMX 281750Z 08005KT 020V120 CAVOK 25/18 Q1011=
201807281720 METAR ESMX 281720Z 08006KT 050V150 CAVOK 25/18 Q1011=
201807281650 METAR ESMX 281650Z AUTO 07004KT 020V140 9999 BKN094/// 24/20 Q1011=
201807281620 METAR ESMX 281620Z AUTO 09005KT 360V140 9999 FEW038/// BKN078/// OVC098/// 24/20 Q1011=
201807281550 METAR ESMX 281550Z AUTO 08007KT 030V140 9999 SCT020/// BKN066/// 25/19 Q1011=
201807281520 METAR ESMX 281520Z AUTO 06005KT 010V130 9999 SCT017/// 25/20 Q1011=
201807281450 METAR ESMX 281450Z AUTO 06005KT 360V120 9999 SCT013/// BKN016/// 24/20 Q1012=
201807281420 METAR ESMX 281420Z AUTO 06008KT 030V090 9999 SCT130/// 24/20 Q1012=
201807281350 METAR ESMX 281350Z AUTO 06008KT 030V100 9999 FEW059/// BKN130/// 23/19 Q1013=
201807281320 METAR ESMX 281320Z AUTO 06009KT 030V110 9999 FEW035/// BKN047/// BKN170/// 25/19 Q1013=
201807281250 METAR ESMX 281250Z AUTO 07009KT 030V110 9999 FEW012/// BKN033/// BKN180/// 23/19 Q1013=
201807281220 METAR ESMX 281220Z 07008KT 030V110 9999 FEW015 24/19 Q1013=
201807281150 METAR ESMX 281150Z 06007KT 020V080 9999 FEW002 SCT061 22/20 Q1013=
201807281120 METAR ESMX 281120Z 06009KT 030V110 9999 DZ FEW013 SCT025 BKN043 21/19 Q1014=
201807281050 METAR ESMX 281050Z 07009G20KT 030V150 9999 BKN044 26/16 Q1013=
201807281020 METAR ESMX 281020Z 05010KT 9999 FEW040 SCT051 28/16 Q1013=
201807280950 METAR ESMX 280950Z 06008KT 330V110 9999 SCT047 BKN064 27/16 Q1013=
201807280920 METAR ESMX 280920Z AUTO 08006KT 030V140 9999 SCT048/// BKN082/// 27/16 Q1014=
201807280850 METAR ESMX 280850Z AUTO 07007KT 020V170 9999 BKN040/// 27/16 Q1014=
201807280820 METAR ESMX 280820Z AUTO 05009KT 350V090 9999 FEW037/// 27/16 Q1014=
201807280750 METAR ESMX 280750Z AUTO 04008KT 360V080 9999 FEW033/// 26/17 Q1014=
201807280720 METAR ESMX 280720Z AUTO 04009KT 9999 NCD 25/17 Q1015=
201807280650 METAR ESMX 280650Z AUTO 05008KT 020V080 9999 NCD 25/18 Q1015=
201807280620 METAR ESMX 280620Z AUTO 04010KT 9999 FEW018/// 24/18 Q1015=
201807280550 METAR ESMX 280550Z AUTO 05008KT 020V100 9999 NCD 23/18 Q1015=
201807280520 METAR ESMX 280520Z AUTO 05009KT 9999 NCD 22/18 Q1015=
201807280450 METAR ESMX 280450Z AUTO 05009KT 9999 NCD 22/18 Q1016=
201807280420 METAR ESMX 280420Z AUTO 04009KT 020V080 9999 NCD 21/18 Q1016=
201807280350 METAR ESMX 280350Z AUTO 04007KT 9999 NCD 21/18 Q1016=
201807280320 METAR ESMX 280320Z AUTO 04008KT 020V080 9999 NCD 21/18 Q1016=
201807280250 METAR ESMX 280250Z AUTO 04007KT 9999 NCD 21/18 Q1017=
201807280220 METAR ESMX 280220Z AUTO 04008KT 9999 NCD 20/18 Q1017=
201807280150 METAR ESMX 280150Z AUTO 04008KT 9999 NCD 20/18 Q1017=
201807280120 METAR ESMX 280120Z AUTO 04007KT 9999 FEW120/// 20/18 Q1017=
201807280050 METAR ESMX 280050Z AUTO 04009KT 9999 NCD 21/18 Q1018=
201807280020 METAR ESMX 280020Z AUTO 05007KT 030V090 9999 NCD 21/17 Q1018=
201807272350 METAR ESMX 272350Z AUTO 04007KT 9999 NCD 21/16 Q1018=
201807272320 METAR ESMX 272320Z AUTO 04007KT 9999 NCD 22/15 Q1019=
201807272250 METAR ESMX 272250Z 05007KT 360V100 CAVOK 22/15 Q1019=
201807272220 METAR ESMX 272220Z 04007KT CAVOK 23/14 Q1019=
201807272150 METAR ESMX 272150Z 05007KT 020V080 CAVOK 23/13 Q1019=
201807272120 METAR ESMX 272120Z 04009KT CAVOK 24/12 Q1019=
201807272050 METAR ESMX 272050Z AUTO 05008KT 010V080 9999 NCD 24/13 Q1020=
201807272020 METAR ESMX 272020Z 05005KT 020V080 CAVOK 25/14 Q1019=
201807271950 METAR ESMX 271950Z 03003KT 360V060 CAVOK 25/15 Q1020=
201807271920 METAR ESMX 271920Z 04004KT 010V100 CAVOK 26/14 Q1020=
201807271850 METAR ESMX 271850Z 08006KT 040V130 CAVOK 26/14 Q1020=
201807271820 METAR ESMX 271820Z 08006KT 030V140 CAVOK 27/14 Q1020=
201807271750 METAR ESMX 271750Z 06009KT 030V110 CAVOK 28/14 Q1020=
201807271720 METAR ESMX 271720Z 06007KT 020V100 CAVOK 28/14 Q1020=
201807271650 METAR ESMX 271650Z 07009KT 030V120 CAVOK 28/14 Q1020=
201807271620 METAR ESMX 271620Z 08007G18KT 020V160 CAVOK 29/14 Q1020=
201807271550 METAR ESMX 271550Z 08009KT 040V110 CAVOK 28/14 Q1020=
201807271520 METAR ESMX 271520Z 08007KT 030V140 CAVOK 30/13 Q1020=
201807271450 METAR ESMX 271450Z 07008KT 030V110 CAVOK 30/13 Q1020=
201807271420 METAR ESMX 271420Z 09009KT 040V150 CAVOK 30/13 Q1020=
201807271350 METAR ESMX 271350Z 07009KT 020V130 CAVOK 30/13 Q1020=
201807271320 METAR ESMX 271320Z 08009KT 030V140 CAVOK 30/11 Q1020=
201807271250 METAR ESMX 271250Z 10007KT 040V170 CAVOK 31/11 Q1021=
201807271220 METAR COR ESMX 271220Z 06011KT 030V100 CAVOK 30/12 Q1021=
201807271150 METAR ESMX 271150Z 10009KT 050V160 CAVOK 31/14 Q1021=
201807271120 METAR ESMX 271120Z 09008KT 050V150 CAVOK 30/14 Q1021=
201807271050 METAR ESMX 271050Z 07008KT 020V160 CAVOK 30/14 Q1021=
201807271020 METAR ESMX 271020Z 05010KT 020V100 CAVOK 29/14 Q1022=
201807270950 METAR ESMX 270950Z 04008G19KT 330V080 CAVOK 28/13 Q1022=
201807270920 METAR ESMX 270920Z 05009KT 020V100 CAVOK 29/12 Q1022=
201807270850 METAR COR ESMX 270850Z 06008KT 020V140 CAVOK 28/11 Q1022=
201807270820 METAR ESMX 270820Z 05009KT 020V090 CAVOK 28/12 Q1022=
201807270750 METAR ESMX 270750Z 06007KT 020V170 CAVOK 27/13 Q1022=
201807270720 METAR ESMX 270720Z 07006KT 030V140 CAVOK 26/13 Q1022=
201807270650 METAR ESMX 270650Z 06006KT 020V100 CAVOK 25/15 Q1022=
201807270620 METAR ESMX 270620Z 05007KT 020V080 CAVOK 24/15 Q1022=
201807270550 METAR ESMX 270550Z 06004KT 020V120 CAVOK 23/16 Q1022=
201807270520 METAR ESMX 270520Z 06004KT 020V130 CAVOK 22/16 Q1022=
201807270450 METAR ESMX 270450Z 07004KT 030V110 CAVOK 21/17 Q1022=
201807270420 METAR ESMX 270420Z 04003KT CAVOK 17/16 Q1022=
201807270350 METAR ESMX 270350Z AUTO 05003KT 9999 NCD 15/14 Q1022=
201807270320 METAR ESMX 270320Z AUTO 00000KT 9999 NCD 15/14 Q1022=
201807270250 METAR ESMX 270250Z AUTO 06003KT 9999 NCD 15/14 Q1022=
201807270220 METAR ESMX 270220Z AUTO 10002KT 9999 NCD 15/14 Q1022=
201807270150 METAR ESMX 270150Z AUTO 08003KT 9999 NCD 17/15 Q1022=
201807270120 METAR ESMX 270120Z AUTO 00000KT 9999 NCD 17/15 Q1022=
201807270050 METAR ESMX 270050Z AUTO VRB01KT 9999 NCD 17/14 Q1022=
201807270020 METAR ESMX 270020Z AUTO 00000KT 9999 NCD 17/14 Q1022=
201807262350 METAR ESMX 262350Z 14002KT CAVOK 18/14 Q1022=
201807262320 METAR ESMX 262320Z 19003KT CAVOK 18/14 Q1022=
201807262250 METAR ESMX 262250Z 13003KT CAVOK 19/14 Q1021=
201807262220 METAR ESMX 262220Z 15002KT CAVOK 20/14 Q1021=
201807262150 METAR ESMX 262150Z AUTO 19002KT 9999 FEW080/// 21/14 Q1021=
201807262120 METAR ESMX 262120Z AUTO 18004KT 9999 SCT110/// 23/14 Q1021=
201807262050 METAR ESMX 262050Z AUTO 20004KT 9999 NCD 20/14 Q1020=
201807262020 METAR ESMX 262020Z 16004KT CAVOK 25/14 Q1020=
201807261950 METAR ESMX 261950Z 16006KT CAVOK 26/14 Q1020=
201807261920 METAR ESMX 261920Z 16008KT CAVOK 27/14 Q1020=
201807261850 METAR ESMX 261850Z 17008KT CAVOK 28/14 Q1019=
201807261820 METAR ESMX 261820Z 17009KT CAVOK 29/14 Q1019=
201807261750 METAR ESMX 261750Z 15009KT CAVOK 29/15 Q1018=
201807261720 METAR ESMX 261720Z 18010KT CAVOK 31/14 Q1018=
201807261650 METAR ESMX 261650Z 20004KT 150V240 CAVOK 32/09 Q1018=
201807261620 METAR ESMX 261620Z 22004KT 180V330 CAVOK 32/09 Q1018=
201807261550 METAR ESMX 261550Z 24004KT 170V300 CAVOK 32/09 Q1018=
201807261520 METAR ESMX 261520Z 06004KT 020V110 CAVOK 33/10 Q1018=
201807261450 METAR ESMX 261450Z 04004KT 330V110 CAVOK 32/10 Q1018=
201807261420 METAR ESMX 261420Z 35005KT CAVOK 32/10 Q1018=
201807261350 METAR ESMX 261350Z 12005KT 070V180 CAVOK 32/10 Q1018=
201807261320 METAR ESMX 261320Z 02004KT CAVOK 32/10 Q1018=
201807261250 METAR ESMX 261250Z 36006KT 320V030 CAVOK 32/10 Q1018=
201807261220 METAR ESMX 261220Z 33005KT 260V030 CAVOK 31/10 Q1019=
201807261150 METAR ESMX 261150Z 30004KT 240V010 CAVOK 31/10 Q1019=
201807261120 METAR ESMX 261120Z 01004KT 310V060 CAVOK 30/09 Q1019=
201807261050 METAR ESMX 261050Z 36004KT 300V030 CAVOK 29/09 Q1019=
201807261020 METAR ESMX 261020Z 03005KT 330V080 CAVOK 29/09 Q1019=
201807260950 METAR ESMX 260950Z 02006KT CAVOK 29/09 Q1019=
201807260920 METAR ESMX 260920Z 03006KT 350V060 CAVOK 28/09 Q1019=
201807260850 METAR ESMX 260850Z 02006KT 320V070 CAVOK 27/09 Q1019=
201807260820 METAR ESMX 260820Z 36007KT 330V030 CAVOK 27/09 Q1019=
201807260750 METAR COR ESMX 260750Z 36007KT CAVOK 27/09 Q1019=
201807260720 METAR ESMX 260720Z 35007KT 320V020 CAVOK 26/09 Q1019=
201807260650 METAR ESMX 260650Z 35007KT 310V010 CAVOK 25/10 Q1019=
201807260620 METAR ESMX 260620Z 35006KT CAVOK 24/10 Q1019=
201807260550 METAR ESMX 260550Z 32005KT CAVOK 22/11 Q1019=
201807260520 METAR ESMX 260520Z 36004KT CAVOK 21/12 Q1019=
201807260450 METAR ESMX 260450Z 35003KT CAVOK 20/13 Q1018=
201807260420 METAR ESMX 260420Z 32005KT CAVOK 19/13 Q1018=
201807260350 METAR ESMX 260350Z AUTO 32003KT 9999 NCD 16/13 Q1018=
201807260320 METAR ESMX 260320Z AUTO 32002KT 9999 NCD 17/13 Q1018=
201807260250 METAR ESMX 260250Z AUTO 32003KT 9999 NCD 17/13 Q1018=
201807260220 METAR ESMX 260220Z AUTO 32003KT 280V350 9999 NCD 18/14 Q1018=
201807260150 METAR ESMX 260150Z AUTO 31004KT 9999 NCD 17/13 Q1018=
201807260120 METAR ESMX 260120Z AUTO 33002KT 9999 NCD 19/13 Q1018=
201807260050 METAR ESMX 260050Z AUTO 32004KT 9999 NCD 20/13 Q1018=
201807260020 METAR ESMX 260020Z AUTO 29005KT 9999 FEW120/// 19/13 Q1018=
201807252350 METAR ESMX 252350Z AUTO 30005KT 9999 OVC120/// 21/13 Q1017=
201807252320 METAR ESMX 252320Z AUTO 29005KT 9999 OVC120/// 21/13 Q1017=
201807252250 METAR ESMX 252250Z AUTO 29005KT 9999 SCT120/// 20/13 Q1017=
201807252220 METAR ESMX 252220Z AUTO 28003KT 9999 NCD 20/13 Q1017=
201807252150 METAR ESMX 252150Z VRB03KT CAVOK 21/13 Q1017=
201807252120 METAR ESMX 252120Z VRB03KT CAVOK 22/14 Q1017=
201807252050 METAR ESMX 252050Z 32004KT CAVOK 24/14 Q1017=
201807252020 METAR COR ESMX 252020Z 32006KT CAVOK 25/13 Q1017=
201807251950 METAR ESMX 251950Z 30007KT CAVOK 27/14 Q1016=
201807251920 METAR ESMX 251920Z 32008KT CAVOK 27/14 Q1016=
201807251850 METAR ESMX 251850Z 31006KT 260V350 CAVOK 29/14 Q1015=
201807251820 METAR ESMX 251820Z 22004KT 160V270 CAVOK 30/15 Q1015=
201807251750 METAR ESMX 251750Z 22010KT CAVOK 29/16 Q1015=
201807251720 METAR ESMX 251720Z 21009KT CAVOK 29/15 Q1015=
201807251650 METAR ESMX 251650Z 01003KT CAVOK 30/15 Q1015=
201807251620 METAR ESMX 251620Z AUTO VRB02KT 9999 NCD 30/13 Q1015=
201807251550 METAR COR ESMX 251550Z VRB02KT CAVOK 30/14 Q1015=
201807251520 METAR ESMX 251520Z AUTO VRB02KT 9999 FEW120/// 30/14 Q1015=
201807251450 METAR ESMX 251450Z 05005KT 010V080 CAVOK 31/13 Q1015=
201807251420 METAR ESMX 251420Z 05004KT 020V090 CAVOK 31/13 Q1015=
201807251350 METAR ESMX 251350Z 14004KT 080V230 CAVOK 32/13 Q1015=
201807251320 METAR ESMX 251320Z 07006KT 020V170 CAVOK 32/13 Q1015=
201807251250 METAR ESMX 251250Z 10004KT 030V170 CAVOK 30/13 Q1016=
201807251220 METAR ESMX 251220Z 07005KT 010V110 CAVOK 31/13 Q1016=
201807251150 METAR ESMX 251150Z 02005KT 330V080 CAVOK 30/13 Q1016=
201807251120 METAR ESMX 251120Z VRB04KT CAVOK 30/13 Q1016=
201807251050 METAR ESMX 251050Z 06004KT 360V130 CAVOK 30/14 Q1016=
201807251020 METAR ESMX 251020Z 07005KT 350V100 CAVOK 29/14 Q1016=
201807250950 METAR ESMX 250950Z 09004KT 060V160 CAVOK 29/16 Q1016=
201807250920 METAR ESMX 250920Z VRB03KT CAVOK 28/16 Q1016=
201807250850 METAR ESMX 250850Z 18004KT 130V240 CAVOK 27/17 Q1016=
201807250820 METAR ESMX 250820Z 14003KT 060V200 CAVOK 26/17 Q1016=
201807250750 METAR ESMX 250750Z 15004KT 110V210 CAVOK 26/17 Q1016=
201807250720 METAR COR ESMX 250720Z VRB03KT CAVOK 26/17 Q1016=
201807250650 METAR ESMX 250650Z VRB03KT CAVOK 24/17 Q1016=
201807250620 METAR COR ESMX 250620Z VRB02KT CAVOK 23/17 Q1016=
201807250550 METAR COR ESMX 250550Z 04003KT 340V080 CAVOK 22/17 Q1016=
201807250520 METAR ESMX 250520Z 04004KT CAVOK 21/17 Q1016=
201807250450 METAR ESMX 250450Z VRB03KT CAVOK 21/17 Q1016=
201807250420 METAR ESMX 250420Z 01004KT CAVOK 19/17 Q1016=
201807250350 METAR ESMX 250350Z AUTO 35003KT 9999 NCD 18/16 Q1015=
201807250320 METAR ESMX 250320Z AUTO 02004KT 9999 NCD 17/16 Q1015=
201807250250 METAR ESMX 250250Z AUTO 03004KT 9999 NCD 18/16 Q1015=
201807250220 METAR ESMX 250220Z AUTO 03004KT 9999 NCD 19/16 Q1015=
201807250150 METAR ESMX 250150Z AUTO 01006KT 9999 NCD 20/15 Q1015=
201807250120 METAR ESMX 250120Z AUTO 01003KT 9999 NCD 16/14 Q1015=
201807250050 METAR ESMX 250050Z AUTO 36003KT 9999 NCD 16/14 Q1015=
201807250020 METAR ESMX 250020Z VRB02KT CAVOK 18/14 Q1015=
201807242350 METAR ESMX 242350Z 32005KT CAVOK 18/13 Q1015=
201807242320 METAR ESMX 242320Z VRB02KT CAVOK 20/14 Q1015=
201807242250 METAR ESMX 242250Z 30005KT CAVOK 19/14 Q1015=
201807242220 METAR ESMX 242220Z VRB03KT CAVOK 20/14 Q1015=
201807242150 METAR ESMX 242150Z AUTO 27003KT 9999 NCD 20/14 Q1014=
201807242120 METAR ESMX 242120Z AUTO 28003KT 9999 NCD 22/14 Q1014=
201807242050 METAR ESMX 242050Z AUTO 27004KT 9999 NCD 22/14 Q1014=
201807242020 METAR ESMX 242020Z AUTO 26004KT 9999 NCD 22/14 Q1014=
201807241950 METAR ESMX 241950Z AUTO 26003KT 9999 NCD 23/13 Q1014=
201807241920 METAR ESMX 241920Z 28004KT CAVOK 26/13 Q1014=
201807241850 METAR ESMX 241850Z 28005KT CAVOK 27/13 Q1014=
201807241820 METAR ESMX 241820Z 27006KT CAVOK 28/14 Q1013=
201807241750 METAR ESMX 241750Z 27007KT 240V300 CAVOK 28/13 Q1013=
201807241720 METAR ESMX 241720Z 29006KT 230V330 CAVOK 29/13 Q1013=
201807241650 METAR ESMX 241650Z 26005KT 220V290 CAVOK 29/13 Q1013=
201807241620 METAR ESMX 241620Z 26005KT CAVOK 29/13 Q1013=
201807241550 METAR ESMX 241550Z 27005KT 210V010 CAVOK 28/13 Q1013=
201807241520 METAR COR ESMX 241520Z 27007KT CAVOK 30/13 Q1013=
201807241450 METAR ESMX 241450Z 29005KT 240V360 CAVOK 30/13 Q1013=
201807241420 METAR ESMX 241420Z 33005KT 270V010 CAVOK 29/13 Q1014=
201807241350 METAR ESMX 241350Z 31005KT 280V340 CAVOK 28/14 Q1014=
201807241320 METAR ESMX 241320Z 27005KT 240V320 CAVOK 28/14 Q1014=
201807241250 METAR ESMX 241250Z 28007KT 240V330 CAVOK 28/14 Q1014=
201807241220 METAR ESMX 241220Z VRB06KT 9999 SCT049 28/14 Q1014=
201807241150 METAR COR ESMX 241150Z 30007KT 250V350 9999 SCT049 28/15 Q1014=
201807241120 METAR ESMX 241120Z 31006KT 250V020 9999 BKN043 27/15 Q1014=
201807241050 METAR ESMX 241050Z 30007KT 260V360 9999 SCT039 26/15 Q1014=
201807241020 METAR COR ESMX 241020Z 30008KT 260V330 9999 SCT036 24/15 Q1015=
201807240950 METAR ESMX 240950Z AUTO 27006KT 210V350 9999 SCT032/// 25/15 Q1015=
201807240920 METAR ESMX 240920Z 28008KT 220V310 9999 SCT026 24/16 Q1015=
201807240850 METAR ESMX 240850Z 28007KT 250V330 9999 BKN023 23/15 Q1015=
201807240820 METAR ESMX 240820Z 29009KT 9999 BKN021 23/16 Q1015=
201807240750 METAR ESMX 240750Z 27010KT 240V320 9999 SCT019 22/16 Q1015=
201807240720 METAR ESMX 240720Z 28007KT 240V330 9999 SCT016 21/16 Q1015=
201807240650 METAR COR ESMX 240650Z 30006KT 260V330 9999 SCT013 20/16 Q1015=
201807240620 METAR ESMX 240620Z 28007KT 250V330 9999 BKN010 19/16 Q1015=
201807240550 METAR COR ESMX 240550Z 30006KT 9999 BKN010 19/16 Q1015=
201807240520 METAR ESMX 240520Z AUTO 27004KT 230V320 9999 OVC010/// 18/16 Q1015=
201807240450 METAR ESMX 240450Z AUTO 26003KT 9999 OVC012/// 17/15 Q1015=
201807240420 METAR ESMX 240420Z AUTO 27003KT 9999 BKN015/// BKN019/// 16/15 Q1015=
201807240350 METAR ESMX 240350Z AUTO 27002KT 9999 SCT100/// 14/13 Q1015=
201807240320 METAR ESMX 240320Z AUTO 25002KT 9999 NCD 14/14 Q1014=
201807240250 METAR ESMX 240250Z AUTO 25003KT 9999 NCD 14/14 Q1014=
201807240220 METAR ESMX 240220Z AUTO 25004KT 9999 NCD 14/14 Q1014=
201807240150 METAR ESMX 240150Z AUTO 25003KT 9999 NCD 15/14 Q1014=
201807240120 METAR ESMX 240120Z AUTO 25003KT 9999 NCD 15/14 Q1014=
201807240050 METAR ESMX 240050Z AUTO 26003KT 9999 NCD 15/14 Q1014=
201807240020 METAR ESMX 240020Z AUTO 25005KT 9999 NCD 15/13 Q1014=
201807232350 METAR ESMX 232350Z AUTO 26005KT 9999 NCD 16/14 Q1014=
201807232320 METAR ESMX 232320Z AUTO 26005KT 9999 NCD 15/13 Q1014=
201807232250 METAR ESMX 232250Z AUTO 25004KT 9999 NCD 15/12 Q1014=
201807232220 METAR ESMX 232220Z AUTO 25003KT 9999 NCD 15/12 Q1014=
201807232150 METAR ESMX 232150Z AUTO 25003KT 9999 NCD 15/12 Q1014=
201807232120 METAR ESMX 232120Z AUTO 26004KT 9999 NCD 17/13 Q1014=
201807232050 METAR ESMX 232050Z AUTO 26004KT 9999 NCD 17/13 Q1014=
201807232020 METAR ESMX 232020Z AUTO 23003KT 9999 NCD 16/13 Q1014=
201807231950 METAR ESMX 231950Z AUTO 20002KT 9999 NCD 18/13 Q1014=
201807231920 METAR ESMX 231920Z AUTO 25002KT 9999 NCD 20/13 Q1014=
201807231850 METAR ESMX 231850Z AUTO 29004KT 250V320 9999 NCD 22/13 Q1014=
201807231820 METAR ESMX 231820Z AUTO 28004KT 240V310 9999 FEW038/// 23/13 Q1013=
201807231750 METAR ESMX 231750Z AUTO 27007KT 250V320 9999 SCT038/// 22/13 Q1013=
201807231720 METAR ESMX 231720Z AUTO 29008KT 250V330 9999 SCT039/// 23/13 Q1013=
201807231650 METAR ESMX 231650Z AUTO 28009KT 9999 BKN040/// 23/13 Q1013=
201807231620 METAR COR ESMX 231620Z 27008KT 9999 BKN043 23/13 Q1013=
201807231550 METAR ESMX 231550Z 26008KT 220V290 9999 BKN043 23/13 Q1013=
201807231520 METAR ESMX 231520Z 23009KT 190V260 9999 BKN044 24/13 Q1013=
201807231450 METAR ESMX 231450Z 24008KT 210V270 9999 BKN043 24/12 Q1013=
201807231420 METAR ESMX 231420Z 25007KT 210V290 9999 BKN042 25/13 Q1013=
201807231350 METAR ESMX 231350Z 24008KT 210V280 9999 BKN040 23/13 Q1013=
201807231320 METAR ESMX 231320Z 25010KT 9999 BKN037 23/13 Q1013=
201807231250 METAR ESMX 231250Z 26009KT 220V300 9999 BKN040 23/13 Q1013=
201807231220 METAR ESMX 231220Z 22007KT 190V260 9999 BKN040 22/13 Q1013=
201807231150 METAR ESMX 231150Z 23008KT 180V290 9999 FEW025 BKN040 22/13 Q1013=
201807231120 METAR ESMX 231120Z 22007KT 190V250 9999 SCT025 SCT039 21/15 Q1014=
201807231050 METAR ESMX 231050Z 26009KT 200V280 9999 SCT021 BKN035 20/14 Q1014=
201807231020 METAR ESMX 231020Z AUTO 26006KT 240V300 9999 SCT017/// BKN028/// OVC034/// 20/15 Q1014=
201807230950 METAR ESMX 230950Z 25008KT 9999 BKN018 20/15 Q1014=
201807230920 METAR ESMX 230920Z 25005KT 210V300 9999 BKN018 19/15 Q1014=
201807230850 METAR COR ESMX 230850Z 24008KT 210V280 9999 -RA SCT018 BKN040 20/14 Q1013=
201807230820 METAR ESMX 230820Z 21010KT 9999 SCT025 BKN040 21/14 Q1013=
201807230750 METAR ESMX 230750Z 23010KT 200V260 9999 SCT024 OVC042 21/13 Q1013=
201807230720 METAR COR ESMX 230720Z 22010KT 190V250 9999 SCT022 BKN042 20/14 Q1013=
201807230650 METAR ESMX 230650Z 24008KT 9999 SCT014 BKN043 20/14 Q1013=
201807230620 METAR COR ESMX 230620Z 22007KT 190V260 9999 BKN013 19/14 Q1013=
201807230550 METAR ESMX 230550Z 21005KT 9999 SCT015 18/14 Q1013=
201807230520 METAR ESMX 230520Z AUTO 23005KT 9999 FEW016/// 17/13 Q1013=
201807230450 METAR ESMX 230450Z AUTO 21005KT 9999 NCD 16/13 Q1013=
201807230420 METAR ESMX 230420Z AUTO 20004KT 9999 NCD 15/12 Q1013=
201807230350 METAR ESMX 230350Z AUTO 20004KT 9999 NCD 13/11 Q1013=
201807230320 METAR ESMX 230320Z AUTO 22004KT 9999 NCD 11/09 Q1013=
201807230250 METAR ESMX 230250Z AUTO 23003KT 9999 NCD 11/10 Q1013=
201807230220 METAR ESMX 230220Z AUTO 22004KT 9999 NCD 12/10 Q1013=
201807230150 METAR ESMX 230150Z AUTO 22004KT 9999 NCD 12/10 Q1013=
201807230120 METAR ESMX 230120Z AUTO 22003KT 9999 NCD 12/10 Q1013=
201807230050 METAR ESMX 230050Z AUTO 22003KT 9999 NCD 13/10 Q1013=
201807230020 METAR ESMX 230020Z AUTO 22004KT 9999 NCD 13/10 Q1012=
201807222350 METAR ESMX 222350Z AUTO 22004KT 9999 NCD 13/10 Q1012=
201807222320 METAR ESMX 222320Z AUTO 24004KT 9999 NCD 14/10 Q1013=
201807222250 METAR ESMX 222250Z AUTO 24004KT 9999 NCD 14/10 Q1013=
201807222220 METAR ESMX 222220Z AUTO 24004KT 9999 NCD 15/10 Q1013=
201807222150 METAR ESMX 222150Z AUTO 23004KT 9999 NCD 16/10 Q1013=
201807222120 METAR ESMX 222120Z AUTO 23004KT 9999 NCD 16/10 Q1012=
201807222050 METAR ESMX 222050Z AUTO 24004KT 9999 NCD 17/10 Q1012=
201807222020 METAR ESMX 222020Z AUTO 23004KT 200V260 9999 NCD 18/10 Q1012=
201807221950 METAR ESMX 221950Z 26005KT CAVOK 19/10 Q1012=
201807221920 METAR ESMX 221920Z 24005KT CAVOK 20/10 Q1011=
201807221850 METAR ESMX 221850Z 24007KT CAVOK 21/10 Q1011=
201807221820 METAR ESMX 221820Z 25008KT 220V290 CAVOK 22/10 Q1011=
201807221750 METAR COR ESMX 221750Z 27008KT CAVOK 22/11 Q1011=
201807221720 METAR ESMX 221720Z 24011KT CAVOK 23/10 Q1011=
201807221650 METAR ESMX 221650Z 28011KT 240V300 CAVOK 24/10 Q1011=
201807221620 METAR COR ESMX 221620Z 24009KT 200V280 CAVOK 24/10 Q1011=
201807221550 METAR COR ESMX 221550Z 24011KT CAVOK 26/10 Q1011=
201807221520 METAR ESMX 221520Z 27012KT CAVOK 25/10 Q1011=
201807221450 METAR ESMX 221450Z 24012KT CAVOK 25/10 Q1011=
201807221420 METAR ESMX 221420Z 25014KT CAVOK 26/10 Q1010=
201807221350 METAR ESMX 221350Z 26013G23KT 230V290 CAVOK 26/10 Q1011=
201807221320 METAR ESMX 221320Z 22013KT CAVOK 27/09 Q1011=
201807221250 METAR ESMX 221250Z 24013KT 200V280 CAVOK 27/09 Q1011=
201807221220 METAR ESMX 221220Z 25013KT CAVOK 26/09 Q1011=
201807221150 METAR ESMX 221150Z 22013KT CAVOK 26/10 Q1011=
201807221120 METAR ESMX 221120Z 23014KT 190V260 CAVOK 26/09 Q1011=
201807221050 METAR ESMX 221050Z 24011KT 190V280 CAVOK 25/10 Q1011=
201807221020 METAR ESMX 221020Z 21014KT 190V250 CAVOK 25/10 Q1011=
201807220950 METAR ESMX 220950Z AUTO 23012KT 160V280 9999 NCD 24/10 Q1011=
201807220920 METAR ESMX 220920Z AUTO 23010KT 190V280 9999 FEW047/// 25/11 Q1011=
201807220850 METAR ESMX 220850Z 24010KT 200V280 CAVOK 24/12 Q1011=
201807220820 METAR ESMX 220820Z AUTO 22011KT 190V260 9999 NCD 23/12 Q1011=
201807220750 METAR ESMX 220750Z 22010KT 190V250 CAVOK 22/12 Q1011=
201807220720 METAR ESMX 220720Z 23008KT 200V260 CAVOK 22/12 Q1011=
201807220650 METAR ESMX 220650Z 21009KT CAVOK 20/13 Q1011=
201807220620 METAR COR ESMX 220620Z 23008KT 180V260 CAVOK 20/13 Q1011=
201807220550 METAR ESMX 220550Z AUTO 23006KT 9999 NCD 19/13 Q1011=
201807220520 METAR ESMX 220520Z AUTO 23006KT 9999 NCD 17/13 Q1011=
201807220450 METAR ESMX 220450Z AUTO 22004KT 9999 NCD 16/14 Q1011=
201807220420 METAR ESMX 220420Z AUTO 20004KT 9999 NCD 15/13 Q1011=
201807220350 METAR ESMX 220350Z AUTO 20003KT 9999 SCT180/// 13/12 Q1011=
201807220320 METAR ESMX 220320Z AUTO 20004KT 9999 BKN180/// 12/11 Q1011=
201807220250 METAR ESMX 220250Z AUTO 21004KT 9999 NCD 12/11 Q1011=
201807220220 METAR ESMX 220220Z AUTO 20004KT 9999 NCD 11/10 Q1011=
201807220150 METAR ESMX 220150Z AUTO 21004KT 9999 NCD 12/10 Q1011=
201807220120 METAR ESMX 220120Z AUTO 22003KT 9999 NCD 12/10 Q1011=
201807220050 METAR ESMX 220050Z AUTO 23004KT 9999 NCD 12/10 Q1011=
201807220020 METAR ESMX 220020Z AUTO 22004KT 9999 NCD 12/10 Q1011=
201807212350 METAR ESMX 212350Z AUTO 22005KT 9999 NCD 13/10 Q1011=
201807212320 METAR ESMX 212320Z AUTO 22005KT 9999 NCD 13/10 Q1011=
201807212250 METAR ESMX 212250Z AUTO 24004KT 9999 NCD 13/10 Q1011=
201807212220 METAR ESMX 212220Z AUTO 24004KT 9999 NCD 13/10 Q1011=
201807212150 METAR ESMX 212150Z AUTO 24003KT 9999 NCD 15/11 Q1011=
201807212120 METAR ESMX 212120Z AUTO 25004KT 9999 NCD 15/11 Q1011=
201807212050 METAR ESMX 212050Z AUTO 23004KT 9999 NCD 16/11 Q1011=
201807212020 METAR ESMX 212020Z AUTO 23004KT 9999 NCD 17/11 Q1011=
201807211950 METAR ESMX 211950Z 25005KT CAVOK 18/11 Q1010=
201807211920 METAR ESMX 211920Z 27006KT CAVOK 20/11 Q1010=
201807211850 METAR COR ESMX 211850Z 27007KT CAVOK 21/11 Q1010=
201807211820 METAR COR ESMX 211820Z 26010KT CAVOK 22/11 Q1010=
201807211750 METAR COR ESMX 211750Z 26009KT 230V290 CAVOK 22/11 Q1010=
201807211720 METAR ESMX 211720Z 25010KT 210V280 CAVOK 23/10 Q1010=
201807211650 METAR COR ESMX 211650Z 25010KT 210V280 CAVOK 24/10 Q1010=
201807211620 METAR ESMX 211620Z AUTO 27010KT 230V290 9999 NCD 24/10 Q1010=
201807211550 METAR ESMX 211550Z AUTO 26009KT 210V290 9999 NCD 25/10 Q1010=
201807211520 METAR ESMX 211520Z AUTO 27008KT 220V320 9999 SCT057/// 25/10 Q1010=
201807211450 METAR ESMX 211450Z AUTO 25011KT 210V300 9999 NCD 26/10 Q1010=
201807211420 METAR ESMX 211420Z AUTO 27009KT 230V330 9999 NCD 26/10 Q1010=
201807211350 METAR ESMX 211350Z AUTO 27011KT 240V300 9999 NCD 26/10 Q1010=
201807211320 METAR ESMX 211320Z AUTO 24010KT 200V290 9999 NCD 26/10 Q1010=
201807211250 METAR ESMX 211250Z 24010KT 200V280 CAVOK 27/09 Q1010=
201807211220 METAR ESMX 211220Z 29010KT 250V320 CAVOK 26/10 Q1010=
201807211150 METAR ESMX 211150Z 28011KT 230V300 CAVOK 24/10 Q1010=
201807211120 METAR ESMX 211120Z 26009KT 220V310 CAVOK 25/11 Q1010=
201807211050 METAR ESMX 211050Z 29011KT CAVOK 25/10 Q1011=
201807211020 METAR ESMX 211020Z 28010KT 250V320 CAVOK 25/10 Q1011=
201807210950 METAR ESMX 210950Z AUTO 27009KT 240V340 9999 NCD 24/10 Q1011=
201807210920 METAR ESMX 210920Z AUTO 30009KT 250V340 9999 NCD 24/10 Q1011=
201807210850 METAR ESMX 210850Z AUTO 30008KT 260V360 9999 NCD 23/10 Q1011=
201807210820 METAR ESMX 210820Z AUTO 28008KT 250V330 9999 NCD 22/11 Q1011=
201807210750 METAR ESMX 210750Z AUTO 30008KT 250V340 9999 NCD 22/12 Q1011=
201807210720 METAR ESMX 210720Z AUTO 30008KT 260V340 9999 NCD 21/12 Q1011=
201807210650 METAR ESMX 210650Z AUTO 30008KT 9999 NCD 19/12 Q1011=
201807210620 METAR ESMX 210620Z AUTO 31009KT 9999 NCD 19/13 Q1011=
201807210550 METAR ESMX 210550Z AUTO 32007KT 9999 NCD 17/13 Q1011=
201807210520 METAR ESMX 210520Z AUTO 30007KT 9999 NCD 16/13 Q1011=
201807210450 METAR ESMX 210450Z AUTO 29006KT 260V320 9999 NCD 16/12 Q1011=
201807210420 METAR ESMX 210420Z AUTO 28004KT 9999 NCD 15/12 Q1011=
201807210350 METAR ESMX 210350Z AUTO 28003KT 9999 NCD 14/12 Q1011=
201807210320 METAR ESMX 210320Z AUTO 27004KT 9999 NCD 14/11 Q1011=
201807210250 METAR ESMX 210250Z AUTO 27005KT 9999 NCD 14/12 Q1011=
201807210220 METAR ESMX 210220Z AUTO 28006KT 9999 NCD 14/11 Q1011=
201807210150 METAR ESMX 210150Z AUTO 29006KT 9999 NCD 15/12 Q1011=
201807210120 METAR ESMX 210120Z AUTO 28006KT 9999 NCD 15/12 Q1011=
201807210050 METAR ESMX 210050Z AUTO 29004KT 9999 NCD 15/12 Q1011=
201807210020 METAR ESMX 210020Z AUTO 29005KT 9999 NCD 16/12 Q1011=
201807202350 METAR ESMX 202350Z AUTO 29006KT 9999 NCD 16/12 Q1010=
201807202320 METAR ESMX 202320Z AUTO 30005KT 9999 NCD 17/12 Q1011=
201807202250 METAR ESMX 202250Z AUTO 30007KT 260V330 9999 NCD 17/12 Q1011=
201807202220 METAR ESMX 202220Z AUTO 29006KT 9999 NCD 18/12 Q1011=
201807202150 METAR ESMX 202150Z AUTO 28007KT 9999 NCD 19/11 Q1011=
201807202120 METAR ESMX 202120Z AUTO 27004KT 9999 NCD 19/09 Q1011=
201807202050 METAR ESMX 202050Z AUTO 26005KT 9999 NCD 19/09 Q1011=
201807202020 METAR ESMX 202020Z AUTO 26005KT 9999 NCD 20/09 Q1010=
201807201950 METAR ESMX 201950Z AUTO 25005KT 9999 NCD 22/10 Q1010=
201807201920 METAR ESMX 201920Z AUTO 25006KT 9999 FEW110/// 23/10 Q1010=
201807201850 METAR ESMX 201850Z AUTO 25007KT 9999 BKN100/// 24/11 Q1010=
201807201820 METAR ESMX 201820Z AUTO 27008KT 9999 SCT100/// 25/12 Q1010=
201807201750 METAR ESMX 201750Z AUTO 27009KT 9999 NCD 26/12 Q1010=
201807201720 METAR ESMX 201720Z AUTO 26009KT 9999 NCD 27/12 Q1010=
201807201650 METAR ESMX 201650Z 26009KT CAVOK 27/12 Q1010=
201807201620 METAR ESMX 201620Z 27009KT 240V310 CAVOK 28/12 Q1010=
201807201550 METAR ESMX 201550Z 28009KT 240V330 CAVOK 28/12 Q1010=
201807201520 METAR ESMX 201520Z 29008KT 280V340 CAVOK 28/12 Q1010=
201807201450 METAR ESMX 201450Z 29006KT 260V320 CAVOK 27/12 Q1010=
201807201420 METAR ESMX 201420Z 26008KT CAVOK 29/12 Q1010=
201807201350 METAR ESMX 201350Z 26009KT 220V280 CAVOK 29/12 Q1010=
201807201320 METAR ESMX 201320Z 27007KT 220V320 CAVOK 28/12 Q1010=
201807201250 METAR ESMX 201250Z 26007KT 210V310 CAVOK 28/12 Q1010=
201807201220 METAR ESMX 201220Z 27008KT 240V300 CAVOK 28/13 Q1011=
201807201150 METAR ESMX 201150Z 27008KT 220V300 CAVOK 27/13 Q1011=
201807201120 METAR ESMX 201120Z 30006KT 250V360 CAVOK 27/13 Q1011=
201807201050 METAR ESMX 201050Z 30006KT 270V360 CAVOK 26/13 Q1011=
201807201020 METAR ESMX 201020Z AUTO VRB05KT 9999 NCD 26/13 Q1011=
201807200950 METAR ESMX 200950Z AUTO 25007KT 210V280 9999 NCD 25/13 Q1012=
201807200920 METAR ESMX 200920Z 27006KT 230V320 CAVOK 24/13 Q1012=
201807200850 METAR ESMX 200850Z 29006KT 230V340 CAVOK 24/13 Q1012=
201807200820 METAR COR ESMX 200820Z 26006KT 210V300 CAVOK 23/12 Q1012=
201807200750 METAR ESMX 200750Z 28006KT 240V320 CAVOK 22/12 Q1012=
201807200720 METAR ESMX 200720Z 28007KT CAVOK 21/12 Q1012=
201807200650 METAR ESMX 200650Z AUTO 28008KT 9999 NCD 20/12 Q1012=
201807200620 METAR ESMX 200620Z AUTO 30007KT 9999 NCD 19/11 Q1012=
201807200550 METAR ESMX 200550Z AUTO 32008KT 9999 NCD 19/11 Q1013=
201807200520 METAR ESMX 200520Z AUTO 31008KT 9999 NCD 18/12 Q1012=
201807200450 METAR ESMX 200450Z AUTO 29006KT 260V340 9999 NCD 17/12 Q1013=
201807200420 METAR ESMX 200420Z AUTO 30005KT 260V330 9999 NCD 17/12 Q1013=
201807200350 METAR ESMX 200350Z AUTO 30005KT 9999 FEW078/// 16/12 Q1013=
201807200320 METAR ESMX 200320Z AUTO 30004KT 9999 OVC076/// 15/11 Q1013=
201807200250 METAR ESMX 200250Z AUTO 29003KT 9999 OVC074/// 15/11 Q1013=
201807200220 METAR ESMX 200220Z AUTO 30004KT 9999 FEW072/// 15/11 Q1013=
201807200150 METAR ESMX 200150Z AUTO 30003KT 9999 NCD 16/11 Q1013=
201807200120 METAR ESMX 200120Z AUTO 31004KT 9999 NCD 16/11 Q1013=
201807200050 METAR ESMX 200050Z AUTO 29004KT 9999 FEW110/// 17/11 Q1013=
201807200020 METAR ESMX 200020Z 28004KT CAVOK 18/12 Q1013=
201807192350 METAR ESMX 192350Z 28005KT CAVOK 18/12 Q1013=
201807192320 METAR ESMX 192320Z 29004KT 260V330 CAVOK 19/12 Q1013=
201807192250 METAR ESMX 192250Z 30005KT CAVOK 19/12 Q1013=
201807192220 METAR COR ESMX 192220Z 30005KT 260V330 CAVOK 19/12 Q1013=
201807192150 METAR ESMX 192150Z AUTO 30006KT 9999 NCD 20/12 Q1013=
201807192120 METAR ESMX 192120Z AUTO 28006KT 9999 NCD 20/12 Q1013=
201807192050 METAR ESMX 192050Z AUTO 28007KT 9999 FEW110/// 21/13 Q1013=
201807192020 METAR ESMX 192020Z AUTO 27006KT 9999 NCD 22/13 Q1013=
201807191950 METAR ESMX 191950Z 26006KT CAVOK 23/14 Q1013=
201807191920 METAR ESMX 191920Z 27006KT CAVOK 24/14 Q1013=
201807191850 METAR ESMX 191850Z AUTO 28005KT 9999 OVC110/// 25/14 Q1013=
201807191820 METAR ESMX 191820Z 30007KT CAVOK 26/14 Q1013=
201807191750 METAR ESMX 191750Z 31009KT CAVOK 26/14 Q1013=
201807191720 METAR ESMX 191720Z 30008KT 260V340 CAVOK 27/15 Q1012=
201807191650 METAR ESMX 191650Z 30006KT CAVOK 26/15 Q1013=
201807191620 METAR ESMX 191620Z 33010KT 290V350 CAVOK 28/14 Q1013=
201807191550 METAR ESMX 191550Z 34010KT CAVOK 29/13 Q1013=
201807191520 METAR ESMX 191520Z 35008KT CAVOK 28/13 Q1013=
201807191450 METAR ESMX 191450Z 33009KT 280V340 CAVOK 27/14 Q1013=
201807191420 METAR ESMX 191420Z 28008KT 250V340 CAVOK 29/14 Q1013=
201807191350 METAR ESMX 191350Z 33007KT CAVOK 28/13 Q1013=
201807191320 METAR ESMX 191320Z 34007G19KT 250V030 CAVOK 27/13 Q1013=
201807191250 METAR ESMX 191250Z 32007KT 270V010 9999 FEW045 27/15 Q1013=
201807191220 METAR ESMX 191220Z 31006KT 270V360 9999 FEW046 27/15 Q1013=
201807191150 METAR ESMX 191150Z 34007KT 290V030 9999 FEW044 27/15 Q1014=
201807191120 METAR ESMX 191120Z 35009KT 9999 SCT044 27/15 Q1014=
201807191050 METAR ESMX 191050Z 35009KT 9999 FEW041 26/15 Q1014=
201807191020 METAR ESMX 191020Z 32010KT 280V360 9999 FEW035 26/15 Q1014=
201807190950 METAR ESMX 190950Z 32009KT 9999 FEW034 25/15 Q1014=
201807190920 METAR ESMX 190920Z 32010KT 280V350 CAVOK 25/15 Q1014=
201807190850 METAR ESMX 190850Z 27008KT 240V320 CAVOK 24/17 Q1014=
201807190820 METAR ESMX 190820Z 32007KT 280V010 CAVOK 24/16 Q1014=
201807190750 METAR ESMX 190750Z 33006KT 290V010 CAVOK 22/16 Q1014=
201807190720 METAR ESMX 190720Z 32008KT CAVOK 21/16 Q1014=
201807190650 METAR ESMX 190650Z 33009KT CAVOK 21/16 Q1014=
201807190620 METAR ESMX 190620Z 31008KT CAVOK 21/17 Q1014=
201807190550 METAR ESMX 190550Z 31006KT CAVOK 19/17 Q1014=
201807190520 METAR ESMX 190520Z 31007KT CAVOK 19/17 Q1014=
201807190450 METAR COR ESMX 190450Z 31005KT CAVOK 17/16 Q1014=
201807190420 METAR ESMX 190420Z AUTO 31005KT 9999 BKN110/// 17/16 Q1014=
201807190350 METAR ESMX 190350Z AUTO 30005KT 9999 BKN100/// 17/16 Q1014=
201807190320 METAR ESMX 190320Z AUTO 29004KT 9999 BKN100/// 17/16 Q1014=
201807190250 METAR ESMX 190250Z AUTO 31003KT 280V360 9999 BKN110/// 17/16 Q1014=
201807190220 METAR ESMX 190220Z AUTO 29004KT 240V320 9999 FEW110/// 17/16 Q1014=
201807190150 METAR ESMX 190150Z AUTO 31004KT 9999 SCT100/// 17/16 Q1014=
201807190120 METAR ESMX 190120Z AUTO 29003KT 9999 -DZ NCD 17/16 Q1014=
201807190050 METAR ESMX 190050Z AUTO 30004KT 9999 -RA FEW078/// 17/16 Q1014=
201807190020 METAR ESMX 190020Z AUTO 30005KT 9999 -RA NCD 17/16 Q1014 REDZ=
201807182350 METAR ESMX 182350Z AUTO 31004KT 9999 FEW080/// 17/16 Q1014=
201807182320 METAR ESMX 182320Z AUTO 31004KT 9999 -DZ FEW084/// OVC100/// 17/16 Q1014=
201807182250 METAR ESMX 182250Z 32005KT 9999 -RA FEW064 OVC100 18/16 Q1014=
201807182220 METAR COR ESMX 182220Z 34008KT 9999 -RA SCT064 BKN084 18/16 Q1014=
201807182150 METAR ESMX 182150Z AUTO 34008KT 9999 -DZ FEW046/// SCT061/// OVC098/// 18/16 Q1014=
201807182120 METAR ESMX 182120Z 34007KT 9999 DZ FEW059 SCT098 18/16 Q1014=
201807182050 METAR ESMX 182050Z AUTO 34007KT 9999 DZ FEW057/// BKN094/// 18/16 Q1014=
201807182020 METAR ESMX 182020Z AUTO 35009KT 9999 -RA FEW000/// OVC092/// 18/16 Q1014=
201807181950 METAR ESMX 181950Z 34009KT 9999 -DZ BKN076 19/17 Q1014=
201807181920 METAR ESMX 181920Z AUTO 36011KT 9999 DZ FEW035/// BKN094/// 19/17 Q1014=
201807181850 METAR ESMX 181850Z AUTO 35010KT 9999 -RA BKN092/// 19/17 Q1014=
201807181820 METAR ESMX 181820Z AUTO 35011KT 9999 -RA SCT072/// OVC094/// 20/17 Q1014=
201807181750 METAR ESMX 181750Z AUTO 33008KT 9999 -RA OVC070/// 20/17 Q1014=
201807181720 METAR ESMX 181720Z AUTO 33008KT 9999 -DZ FEW025/// BKN090/// 20/18 Q1013=
201807181650 METAR ESMX 181650Z 34008KT 9999 -DZ FEW028 BKN082 BKN096 21/18 Q1013=
201807181620 METAR ESMX 181620Z 33008KT 9999 -DZ BKN074 21/18 Q1013=
201807181550 METAR ESMX 181550Z 32007KT 9999 -RA BKN072 21/17 Q1013=
201807181520 METAR ESMX 181520Z 33007KT 9999 -RA SCT072 BKN092 21/18 Q1013=
201807181450 METAR ESMX 181450Z 31006KT 9999 -RA FEW055 SCT082 BKN100 21/18 Q1013=
201807181420 METAR ESMX 181420Z 28006KT 9999 -RA FEW059 BKN082 21/19 Q1013=
201807181350 METAR ESMX 181350Z 01004KT 330V090 9999 -RA SCT059 BKN074 22/17 Q1013=
201807181320 METAR ESMX 181320Z 34010KT CAVOK 23/16 Q1013=
201807181250 METAR ESMX 181250Z 32011KT 9999 DZ FEW045 BKN100 23/15 Q1013=
201807181220 METAR ESMX 181220Z 32011KT 290V350 CAVOK 23/16 Q1013=
201807181150 METAR ESMX 181150Z 32010KT CAVOK 23/16 Q1012=
201807181120 METAR ESMX 181120Z 31010KT CAVOK 23/16 Q1012=
201807181050 METAR ESMX 181050Z 31009KT CAVOK 22/17 Q1012=
201807181020 METAR ESMX 181020Z AUTO 32009KT 9999 FEW078/// SCT180/// 22/17 Q1012=
201807180950 METAR ESMX 180950Z AUTO 30007KT 270V340 9999 FEW011/// BKN064/// 20/17 Q1012=
201807180920 METAR ESMX 180920Z 28007KT 9999 DZ SCT084 BKN200 21/17 Q1012=
201807180850 METAR ESMX 180850Z 29006KT CAVOK 21/17 Q1012=
201807180820 METAR ESMX 180820Z 26004KT 230V300 9999 DZ FEW033 SCT070 BKN098 20/17 Q1012=
201807180750 METAR ESMX 180750Z 30003KT 270V350 9999 DZ FEW053 SCT068 BKN090 20/17 Q1012=
201807180720 METAR ESMX 180720Z VRB02KT 9999 DZ SCT066 BKN084 BKN100 21/15 Q1012=
201807180650 METAR ESMX 180650Z 02005KT CAVOK 21/15 Q1012=
201807180620 METAR ESMX 180620Z 02005KT CAVOK 21/14 Q1012=
201807180550 METAR ESMX 180550Z AUTO 01006KT 9999 BKN066/// 21/14 Q1012=
201807180520 METAR ESMX 180520Z AUTO 36005KT 9999 SCT066/// 20/14 Q1012=
201807180450 METAR ESMX 180450Z AUTO 01006KT 9999 FEW120/// 20/14 Q1012=
201807180420 METAR ESMX 180420Z AUTO 35006KT 9999 FEW150/// 20/14 Q1012=
201807180350 METAR ESMX 180350Z AUTO 01005KT 9999 OVC140/// 19/14 Q1012=
201807180320 METAR ESMX 180320Z AUTO 01004KT 9999 OVC140/// 19/14 Q1012=
201807180250 METAR ESMX 180250Z AUTO 02006KT 9999 BKN130/// 20/14 Q1012=
201807180220 METAR ESMX 180220Z AUTO 01006KT 9999 SCT100/// BKN150/// 20/14 Q1012=
201807180150 METAR ESMX 180150Z AUTO 36005KT 9999 NCD 20/14 Q1012=
201807180120 METAR ESMX 180120Z AUTO 35005KT 9999 FEW120/// 19/15 Q1012=
201807180050 METAR ESMX 180050Z AUTO 36004KT 9999 NCD 19/15 Q1012=
201807180020 METAR ESMX 180020Z AUTO 33004KT 9999 NCD 19/15 Q1012=
201807172350 METAR ESMX 172350Z AUTO 34003KT 9999 NCD 19/16 Q1012=
201807172320 METAR ESMX 172320Z AUTO 36004KT 9999 NCD 19/16 Q1012=
201807172250 METAR ESMX 172250Z AUTO 34003KT 9999 NCD 18/16 Q1013=
201807172220 METAR ESMX 172220Z AUTO 33003KT 9999 NCD 18/16 Q1013=
201807172150 METAR ESMX 172150Z AUTO 33004KT 9999 NCD 18/16 Q1012=
201807172120 METAR ESMX 172120Z AUTO VRB03KT 9999 NCD 19/16 Q1013=
201807172050 METAR ESMX 172050Z AUTO 33005KT 9999 NCD 20/16 Q1013=
201807172020 METAR ESMX 172020Z AUTO 32006KT 9999 NCD 21/16 Q1013=
201807171950 METAR ESMX 171950Z AUTO 33006KT 9999 NCD 21/17 Q1013=
201807171920 METAR ESMX 171920Z 30007KT CAVOK 22/17 Q1013=
201807171850 METAR ESMX 171850Z 28006KT CAVOK 22/17 Q1013=
201807171820 METAR ESMX 171820Z 28007KT CAVOK 22/17 Q1013=
201807171750 METAR ESMX 171750Z 28007KT CAVOK 23/17 Q1013=
201807171720 METAR ESMX 171720Z 25006KT CAVOK 23/17 Q1013=
201807171650 METAR ESMX 171650Z 22008KT 190V250 CAVOK 24/16 Q1012=
201807171620 METAR ESMX 171620Z 28008KT CAVOK 27/15 Q1012=
201807171550 METAR ESMX 171550Z 27007KT 230V310 CAVOK 26/15 Q1012=
201807171520 METAR ESMX 171520Z 31008KT CAVOK 27/16 Q1012=
201807171450 METAR ESMX 171450Z 29008KT CAVOK 26/14 Q1012=
201807171420 METAR ESMX 171420Z 29007KT 260V330 CAVOK 25/14 Q1012=
201807171350 METAR ESMX 171350Z 23008KT 210V270 9999 BKN070CB 25/15 Q1012=
201807171320 METAR ESMX 171320Z 22008KT 9999 BKN060CB 23/16 Q1012=
201807171250 METAR ESMX 171250Z 20008KT 170V240 CAVOK 23/16 Q1012=
201807171220 METAR ESMX 171220Z 23005KT 200V260 9999 VCSH TS BKN062 BKN190 27/15 Q1012=
201807171150 METAR ESMX 171150Z 01005KT 330V050 9999 -RA BKN062 28/14 Q1012=
201807171120 METAR ESMX 171120Z 01008KT 340V050 CAVOK 29/13 Q1012=
201807171050 METAR ESMX 171050Z 04007KT 360V080 CAVOK 29/13 Q1012=
201807171020 METAR ESMX 171020Z AUTO 07007KT 030V120 9999 FEW066/// SCT190/// 29/12 Q1013=
201807170950 METAR ESMX 170950Z AUTO 05007KT 010V100 9999 FEW068/// SCT210/// 29/11 Q1013=
201807170920 METAR ESMX 170920Z 36008KT 330V040 CAVOK 29/10 Q1013=
201807170850 METAR ESMX 170850Z 02007KT 340V060 CAVOK 27/11 Q1013=
201807170820 METAR ESMX 170820Z 02008KT 350V070 CAVOK 26/13 Q1013=
201807170750 METAR ESMX 170750Z 02007KT 340V060 CAVOK 26/13 Q1013=
201807170720 METAR ESMX 170720Z 02007KT CAVOK 25/13 Q1013=
201807170650 METAR ESMX 170650Z 01006KT 340V050 CAVOK 24/14 Q1013=
201807170620 METAR ESMX 170620Z 03006KT CAVOK 24/14 Q1014=
201807170550 METAR ESMX 170550Z AUTO 36005KT 9999 NCD 22/14 Q1014=
201807170520 METAR ESMX 170520Z AUTO 03004KT 340V060 9999 NCD 21/14 Q1014=
201807170450 METAR ESMX 170450Z AUTO 03006KT 9999 NCD 21/14 Q1014=
201807170420 METAR ESMX 170420Z AUTO 02005KT 9999 FEW190/// 20/14 Q1014=
201807170350 METAR ESMX 170350Z AUTO 03006KT 9999 SCT210/// 20/13 Q1014=
201807170320 METAR ESMX 170320Z AUTO 03007KT 9999 BKN200/// 20/13 Q1014=
201807170250 METAR ESMX 170250Z AUTO 03006KT 9999 OVC210/// 20/13 Q1014=
201807170220 METAR ESMX 170220Z AUTO 03005KT 9999 SCT220/// 20/12 Q1014=
201807170150 METAR ESMX 170150Z AUTO 02003KT 9999 FEW170/// 20/12 Q1014=
201807170120 METAR ESMX 170120Z AUTO 02004KT 9999 SCT170/// 16/11 Q1014=
201807170050 METAR ESMX 170050Z AUTO 00000KT 9999 OVC200/// 16/11 Q1014=
201807170020 METAR ESMX 170020Z AUTO 36001KT 9999 OVC190/// 16/11 Q1014=
201807162350 METAR ESMX 162350Z AUTO 00000KT 9999 OVC190/// 16/10 Q1014=
201807162320 METAR ESMX 162320Z AUTO 00000KT 9999 OVC180/// 16/10 Q1014=
201807162250 METAR ESMX 162250Z AUTO VRB02KT 9999 FEW190/// 16/11 Q1014=
201807162220 METAR ESMX 162220Z AUTO 03001KT 9999 NCD 17/10 Q1014=
201807162150 METAR ESMX 162150Z AUTO 00000KT 9999 NCD 18/11 Q1015=
201807162120 METAR ESMX 162120Z AUTO 15004KT 9999 NCD 21/11 Q1014=
201807162050 METAR ESMX 162050Z AUTO 14004KT 9999 FEW200/// 22/10 Q1014=
201807162020 METAR ESMX 162020Z AUTO 15004KT 9999 SCT200/// 23/09 Q1014=
201807161950 METAR ESMX 161950Z AUTO VRB02KT 9999 NCD 23/09 Q1014=
201807161920 METAR ESMX 161920Z AUTO VRB03KT 9999 NCD 25/08 Q1014=
201807161850 METAR ESMX 161850Z AUTO 07004KT 030V110 9999 NCD 27/08 Q1014=
201807161820 METAR ESMX 161820Z AUTO 08004KT 050V120 9999 NCD 28/07 Q1013=
201807161750 METAR ESMX 161750Z AUTO 06006KT 020V110 9999 NCD 29/08 Q1013=
201807161720 METAR ESMX 161720Z AUTO 10005KT 060V150 9999 NCD 30/08 Q1013=
201807161650 METAR ESMX 161650Z AUTO 13004KT 090V160 9999 NCD 29/08 Q1013=
201807161620 METAR ESMX 161620Z 08005KT 020V120 CAVOK 30/08 Q1013=
201807161550 METAR ESMX 161550Z 12004KT CAVOK 31/08 Q1013=
201807161520 METAR ESMX 161520Z 16006KT 110V200 CAVOK 30/08 Q1013=
201807161450 METAR ESMX 161450Z 11007KT 070V160 CAVOK 30/08 Q1013=
201807161420 METAR ESMX 161420Z 08004KT 050V160 CAVOK 29/08 Q1014=
201807161350 METAR ESMX 161350Z VRB02KT CAVOK 31/07 Q1014=
201807161320 METAR ESMX 161320Z 03005KT 350V110 CAVOK 31/08 Q1014=
201807161250 METAR ESMX 161250Z 05004KT 320V110 CAVOK 30/07 Q1014=
201807161220 METAR ESMX 161220Z 05006KT 340V110 CAVOK 30/08 Q1014=
201807161150 METAR ESMX 161150Z 06006KT 020V100 CAVOK 29/08 Q1015=
201807161120 METAR ESMX 161120Z 05006KT 010V120 CAVOK 31/08 Q1015=
201807161050 METAR ESMX 161050Z 04007KT 340V130 CAVOK 29/08 Q1015=
201807161020 METAR ESMX 161020Z VRB06KT CAVOK 29/08 Q1015=
201807160950 METAR ESMX 160950Z AUTO 05007KT 010V120 9999 NCD 29/09 Q1015=
201807160920 METAR ESMX 160920Z 35006KT 300V080 CAVOK 28/10 Q1015=
201807160850 METAR ESMX 160850Z 36005KT 290V040 CAVOK 27/11 Q1015=
201807160820 METAR ESMX 160820Z 03005KT 340V060 CAVOK 26/11 Q1016=
201807160750 METAR ESMX 160750Z 05006KT 020V120 CAVOK 26/12 Q1016=
201807160720 METAR ESMX 160720Z 06004KT 010V120 CAVOK 25/13 Q1016=
201807160650 METAR ESMX 160650Z 04004KT 010V080 CAVOK 24/14 Q1016=
201807160620 METAR ESMX 160620Z 05004KT 010V070 CAVOK 22/14 Q1016=
201807160550 METAR ESMX 160550Z 04004KT 010V070 CAVOK 21/14 Q1016=
201807160520 METAR ESMX 160520Z AUTO 02004KT 9999 NCD 20/15 Q1016=
201807160450 METAR ESMX 160450Z AUTO 02004KT 9999 NCD 20/15 Q1016=
201807160420 METAR ESMX 160420Z AUTO 02005KT 9999 NCD 19/15 Q1016=
201807160350 METAR ESMX 160350Z AUTO 36003KT 9999 NCD 15/14 Q1016=
201807160320 METAR ESMX 160320Z AUTO 03002KT 9999 NCD 13/12 Q1016=
201807160250 METAR ESMX 160250Z AUTO VRB02KT 9999 NCD 13/12 Q1016=
201807160220 METAR ESMX 160220Z AUTO 36002KT 9999 NCD 12/11 Q1016=
201807160150 METAR ESMX 160150Z AUTO 00000KT 9999 NCD 13/12 Q1016=
201807160120 METAR ESMX 160120Z AUTO 35002KT 9999 NCD 13/11 Q1016=
201807160050 METAR ESMX 160050Z AUTO 36002KT 9999 NCD 15/12 Q1016=
201807160020 METAR ESMX 160020Z AUTO 35002KT 9999 NCD 16/13 Q1016=
201807152350 METAR ESMX 152350Z AUTO 34002KT 9999 NCD 17/12 Q1016=
201807152320 METAR ESMX 152320Z AUTO VRB02KT 9999 NCD 18/13 Q1016=
201807152250 METAR ESMX 152250Z AUTO 29004KT 9999 NCD 17/12 Q1016=
201807152220 METAR ESMX 152220Z AUTO 29002KT 9999 NCD 17/11 Q1016=
201807152150 METAR ESMX 152150Z AUTO 27002KT 9999 NCD 18/11 Q1016=
201807152120 METAR ESMX 152120Z AUTO 28002KT 9999 NCD 20/12 Q1016=
201807152050 METAR ESMX 152050Z AUTO 28002KT 9999 NCD 18/13 Q1015=
201807152020 METAR ESMX 152020Z AUTO VRB02KT 9999 NCD 21/13 Q1015=
201807151950 METAR ESMX 151950Z 23001KT CAVOK 22/13 Q1015=
201807151920 METAR ESMX 151920Z VRB02KT CAVOK 25/13 Q1015=
201807151850 METAR ESMX 151850Z 06003KT CAVOK 26/12 Q1015=
201807151820 METAR ESMX 151820Z 04006KT 020V080 CAVOK 26/13 Q1015=
201807151750 METAR ESMX 151750Z 05008KT 010V080 CAVOK 26/13 Q1015=
201807151720 METAR COR ESMX 151720Z 29007KT CAVOK 28/09 Q1015=
201807151650 METAR ESMX 151650Z 30007KT 270V340 CAVOK 28/10 Q1014=
201807151620 METAR ESMX 151620Z 30006KT 260V010 CAVOK 28/10 Q1014=
201807151550 METAR ESMX 151550Z 28007KT 250V320 CAVOK 29/10 Q1014=
201807151520 METAR ESMX 151520Z 26006KT 210V320 CAVOK 29/10 Q1014=
201807151450 METAR ESMX 151450Z 27007KT 230V320 CAVOK 29/11 Q1014=
201807151420 METAR ESMX 151420Z 22006KT 170V260 CAVOK 28/10 Q1015=
201807151350 METAR ESMX 151350Z VRB05KT CAVOK 29/10 Q1015=
201807151320 METAR ESMX 151320Z VRB05KT CAVOK 28/10 Q1015=
201807151250 METAR ESMX 151250Z VRB05KT CAVOK 28/10 Q1015=
201807151220 METAR ESMX 151220Z 25005KT 200V340 CAVOK 27/10 Q1015=
201807151150 METAR ESMX 151150Z VRB05KT CAVOK 27/10 Q1015=
201807151120 METAR ESMX 151120Z VRB04KT CAVOK 27/10 Q1015=
201807151050 METAR ESMX 151050Z 32005KT 250V030 CAVOK 26/11 Q1015=
201807151020 METAR ESMX 151020Z 30005KT 250V340 CAVOK 25/11 Q1016=
201807150950 METAR ESMX 150950Z 29006KT 250V010 CAVOK 25/12 Q1016=
201807150920 METAR ESMX 150920Z 31004KT 260V030 CAVOK 23/12 Q1016=
201807150850 METAR ESMX 150850Z 29004KT 230V340 CAVOK 23/12 Q1016=
201807150820 METAR ESMX 150820Z 26004KT 190V340 CAVOK 21/12 Q1016=
201807150750 METAR ESMX 150750Z 28004KT 230V330 CAVOK 21/11 Q1016=
201807150720 METAR ESMX 150720Z 27004KT 230V350 CAVOK 20/12 Q1016=
201807150650 METAR ESMX 150650Z 27005KT 240V300 CAVOK 18/12 Q1016=
201807150620 METAR ESMX 150620Z 32004KT 260V010 CAVOK 17/12 Q1016=
201807150550 METAR ESMX 150550Z AUTO 31005KT 280V350 9999 NCD 17/12 Q1016=
201807150520 METAR ESMX 150520Z AUTO 31007KT 290V350 9999 NCD 16/12 Q1016=
201807150450 METAR ESMX 150450Z AUTO 32006KT 290V350 9999 NCD 15/12 Q1016=
201807150420 METAR ESMX 150420Z AUTO 31004KT 9999 NCD 13/12 Q1016=
201807150350 METAR ESMX 150350Z AUTO 29003KT 9999 NCD 11/10 Q1016=
201807150320 METAR ESMX 150320Z AUTO 30003KT 9999 NCD 09/09 Q1015=
201807150250 METAR ESMX 150250Z AUTO 27002KT 9999 NCD 10/09 Q1015=
201807150220 METAR ESMX 150220Z AUTO 29002KT 9999 NCD 10/09 Q1015=
201807150150 METAR ESMX 150150Z AUTO 26003KT 9999 NCD 10/09 Q1015=
201807150120 METAR ESMX 150120Z AUTO 30002KT 9999 NCD 11/10 Q1015=
201807150050 METAR ESMX 150050Z AUTO 29003KT 9999 NCD 12/10 Q1015=
201807150020 METAR ESMX 150020Z AUTO 30003KT 9999 NCD 13/11 Q1015=
201807142350 METAR ESMX 142350Z AUTO 29004KT 9999 NCD 13/11 Q1016=
201807142320 METAR ESMX 142320Z AUTO 27004KT 9999 NCD 14/11 Q1015=
201807142250 METAR ESMX 142250Z AUTO 28004KT 9999 NCD 14/11 Q1016=
201807142220 METAR ESMX 142220Z AUTO 26005KT 9999 NCD 15/11 Q1016=
201807142150 METAR ESMX 142150Z AUTO 27006KT 9999 NCD 16/11 Q1015=
201807142120 METAR ESMX 142120Z AUTO 27006KT 9999 NCD 16/11 Q1015=
201807142050 METAR ESMX 142050Z AUTO 26007KT 9999 NCD 17/11 Q1015=
201807142020 METAR ESMX 142020Z AUTO 25005KT 220V280 9999 NCD 18/11 Q1015=
201807141950 METAR ESMX 141950Z 27007KT CAVOK 19/11 Q1015=
201807141920 METAR ESMX 141920Z 26007KT CAVOK 20/11 Q1015=
201807141850 METAR ESMX 141850Z 25009KT CAVOK 21/11 Q1014=
201807141820 METAR ESMX 141820Z 26008KT CAVOK 22/12 Q1014=
201807141750 METAR ESMX 141750Z 26008KT 230V290 CAVOK 23/12 Q1014=
201807141720 METAR ESMX 141720Z 27007KT CAVOK 24/12 Q1014=
201807141650 METAR ESMX 141650Z AUTO 27006KT 240V300 9999 FEW200/// 25/11 Q1014=
201807141620 METAR ESMX 141620Z AUTO 27007KT 240V320 9999 FEW170/// 25/11 Q1014=
201807141550 METAR ESMX 141550Z AUTO 26007KT 230V290 9999 NCD 26/11 Q1014=
201807141520 METAR ESMX 141520Z AUTO 26010KT 230V290 9999 FEW210/// 27/11 Q1014=
201807141450 METAR ESMX 141450Z AUTO 32006KT 270V010 9999 NCD 27/10 Q1014=
201807141420 METAR ESMX 141420Z AUTO 31007KT 270V020 9999 NCD 27/10 Q1014=
201807141350 METAR ESMX 141350Z AUTO 31007KT 260V340 9999 NCD 27/11 Q1014=
201807141320 METAR ESMX 141320Z AUTO 30008KT 250V330 9999 NCD 28/10 Q1014=
201807141250 METAR ESMX 141250Z 30009KT 250V320 CAVOK 27/10 Q1014=
201807141220 METAR ESMX 141220Z 23009KT 200V270 CAVOK 27/10 Q1014=
201807141150 METAR ESMX 141150Z 26009KT 220V290 CAVOK 26/11 Q1014=
201807141120 METAR ESMX 141120Z 29008KT 250V320 CAVOK 26/11 Q1015=
201807141050 METAR ESMX 141050Z 29008KT CAVOK 26/11 Q1015=
201807141020 METAR ESMX 141020Z 30006KT 250V330 CAVOK 25/11 Q1015=
201807140950 METAR ESMX 140950Z AUTO 27006KT 210V320 9999 FEW200/// 24/11 Q1015=
201807140920 METAR ESMX 140920Z AUTO 28004KT 200V350 9999 NCD 23/12 Q1015=
201807140850 METAR ESMX 140850Z AUTO 31006KT 270V330 9999 NCD 21/12 Q1016=
201807140820 METAR ESMX 140820Z AUTO 27009KT 9999 FEW110/// SCT160/// 21/13 Q1016=
201807140750 METAR ESMX 140750Z AUTO 28006KT 230V330 9999 OVC110/// 20/13 Q1016=
201807140720 METAR ESMX 140720Z AUTO 28005KT 9999 OVC110/// 19/13 Q1016=
201807140650 METAR ESMX 140650Z AUTO 29005KT 260V320 9999 BKN110/// 19/12 Q1016=
201807140620 METAR ESMX 140620Z AUTO 27007KT 9999 FEW100/// 19/12 Q1015=
201807140550 METAR ESMX 140550Z AUTO 28007KT 9999 FEW190/// 18/12 Q1015=
201807140520 METAR ESMX 140520Z AUTO 29006KT 9999 FEW094/// 17/12 Q1015=
201807140450 METAR ESMX 140450Z AUTO 29005KT 9999 NCD 16/12 Q1015=
201807140420 METAR ESMX 140420Z AUTO 30005KT 9999 BKN094/// 16/12 Q1015=
201807140350 METAR ESMX 140350Z AUTO 30004KT 9999 BKN094/// 16/12 Q1015=
201807140320 METAR ESMX 140320Z AUTO 29005KT 9999 NCD 16/12 Q1015=
201807140250 METAR ESMX 140250Z AUTO 29004KT 9999 NCD 16/13 Q1015=
201807140220 METAR ESMX 140220Z AUTO 29004KT 260V340 9999 FEW100/// 16/13 Q1015=
201807140150 METAR ESMX 140150Z AUTO 28005KT 9999 FEW100/// 17/14 Q1015=
201807140120 METAR ESMX 140120Z AUTO 28004KT 250V320 9999 BKN110/// 17/14 Q1015=
201807140050 METAR ESMX 140050Z AUTO 27004KT 9999 BKN100/// 17/13 Q1015=
201807140020 METAR ESMX 140020Z AUTO 28005KT 9999 SCT130/// 17/13 Q1015=
201807132350 METAR ESMX 132350Z AUTO 26004KT 9999 OVC120/// 17/13 Q1015=
201807132320 METAR ESMX 132320Z AUTO VRB02KT 9999 BKN120/// 16/12 Q1015=
201807132250 METAR ESMX 132250Z VRB01KT CAVOK 16/12 Q1015=
201807132220 METAR ESMX 132220Z VRB02KT CAVOK 14/12 Q1015=
201807132150 METAR ESMX 132150Z VRB01KT CAVOK 15/11 Q1015=
201807132120 METAR COR ESMX 132120Z 21002KT CAVOK 15/11 Q1015=
201807132050 METAR ESMX 132050Z AUTO 00000KT 9999 SCT100/// 17/12 Q1015=
201807132020 METAR ESMX 132020Z AUTO 20003KT 9999 SCT100/// 17/11 Q1015=
201807131950 METAR ESMX 131950Z 18003KT CAVOK 19/12 Q1015=
201807131920 METAR ESMX 131920Z AUTO 19003KT 9999 NCD 20/12 Q1015=
201807131850 METAR ESMX 131850Z 33005KT CAVOK 23/11 Q1014=
201807131820 METAR ESMX 131820Z 34006KT CAVOK 23/11 Q1014=
201807131750 METAR ESMX 131750Z 31006KT 240V360 CAVOK 24/11 Q1014=
201807131720 METAR ESMX 131720Z 30005KT 250V340 CAVOK 24/11 Q1014=
201807131650 METAR ESMX 131650Z 30011KT CAVOK 24/12 Q1014=
201807131620 METAR ESMX 131620Z 27009KT 9999 FEW015 25/13 Q1014=
201807131550 METAR ESMX 131550Z 30011KT CAVOK 24/11 Q1014=
201807131520 METAR ESMX 131520Z 29009KT CAVOK 25/11 Q1014=
201807131450 METAR ESMX 131450Z 01003KT 300V080 CAVOK 27/08 Q1014=
201807131420 METAR ESMX 131420Z 04004KT 350V130 CAVOK 27/08 Q1014=
201807131350 METAR ESMX 131350Z 10006KT 040V140 CAVOK 27/10 Q1014=
201807131320 METAR ESMX 131320Z VRB04KT CAVOK 27/10 Q1014=
201807131250 METAR ESMX 131250Z 07006KT 010V120 CAVOK 27/10 Q1014=
201807131220 METAR ESMX 131220Z 04005KT 350V120 CAVOK 27/10 Q1014=
201807131150 METAR ESMX 131150Z 01007KT 290V060 CAVOK 27/10 Q1015=
201807131120 METAR ESMX 131120Z 35005KT 280V030 CAVOK 26/11 Q1015=
201807131050 METAR ESMX 131050Z 05006KT CAVOK 26/11 Q1015=
201807131020 METAR ESMX 131020Z 04005KT CAVOK 26/12 Q1015=
201807130950 METAR ESMX 130950Z 03005KT CAVOK 25/12 Q1015=
201807130920 METAR ESMX 130920Z 35005KT CAVOK 24/13 Q1015=
201807130850 METAR ESMX 130850Z 35005KT CAVOK 23/13 Q1015=
201807130820 METAR ESMX 130820Z 34006KT 280V010 CAVOK 22/14 Q1015=
201807130750 METAR ESMX 130750Z 35005KT CAVOK 22/14 Q1015=
201807130720 METAR ESMX 130720Z 36005KT 320V070 CAVOK 22/14 Q1015=
201807130650 METAR ESMX 130650Z 32004KT CAVOK 21/14 Q1015=
201807130620 METAR ESMX 130620Z 34004KT CAVOK 20/14 Q1015=
201807130550 METAR ESMX 130550Z 04004KT CAVOK 19/14 Q1015=
201807130520 METAR ESMX 130520Z 04005KT CAVOK 19/14 Q1015=
201807130450 METAR ESMX 130450Z 02004KT 350V050 CAVOK 18/14 Q1015=
201807130420 METAR ESMX 130420Z 01004KT CAVOK 17/15 Q1015=
201807130350 METAR ESMX 130350Z AUTO 02004KT 9999 NCD 16/14 Q1015=
201807130320 METAR ESMX 130320Z AUTO 03004KT 9999 NCD 16/14 Q1015=
201807130250 METAR ESMX 130250Z AUTO 03004KT 9999 NCD 15/14 Q1015=
201807130220 METAR ESMX 130220Z AUTO 04004KT 9999 NCD 16/14 Q1015=
201807130150 METAR ESMX 130150Z AUTO 04004KT 9999 NCD 15/14 Q1015=
201807130120 METAR ESMX 130120Z AUTO 02004KT 9999 NCD 15/13 Q1015=
201807130050 METAR ESMX 130050Z AUTO 02003KT 9999 NCD 16/13 Q1015=
201807130020 METAR ESMX 130020Z AUTO 08004KT 9999 NCD 17/14 Q1015=
201807122350 METAR ESMX 122350Z AUTO 04002KT 9999 NCD 14/11 Q1015=
201807122320 METAR ESMX 122320Z 00000KT CAVOK 15/12 Q1015=
201807122250 METAR ESMX 122250Z 16001KT CAVOK 16/13 Q1015=
201807122220 METAR ESMX 122220Z 00000KT CAVOK 18/13 Q1015=
201807122150 METAR ESMX 122150Z VRB02KT CAVOK 20/13 Q1015=
201807122120 METAR ESMX 122120Z AUTO VRB03KT 9999 SCT059/// BKN080/// 20/13 Q1015=
201807122050 METAR ESMX 122050Z AUTO VRB02KT 9999 SCT074/// 21/13 Q1015=
201807122020 METAR COR ESMX 122020Z 10003KT 050V150 CAVOK 22/13 Q1015=
201807121950 METAR ESMX 121950Z VRB03KT CAVOK 23/13 Q1015=
201807121920 METAR ESMX 121920Z 11004KT 070V210 CAVOK 23/13 Q1014=
201807121850 METAR ESMX 121850Z 13003KT 090V170 CAVOK 23/13 Q1014=
201807121820 METAR ESMX 121820Z AUTO 09004KT 050V160 9999 NCD 24/13 Q1014=
201807121750 METAR ESMX 121750Z 10004KT 050V150 CAVOK 25/12 Q1013=
201807121720 METAR ESMX 121720Z 04007KT 020V080 CAVOK 26/09 Q1013=
201807121650 METAR ESMX 121650Z 04007KT CAVOK 26/10 Q1013=
201807121620 METAR ESMX 121620Z 02007KT 340V060 CAVOK 26/09 Q1013=
201807121550 METAR ESMX 121550Z 36007KT CAVOK 27/09 Q1013=
201807121520 METAR ESMX 121520Z 01009KT CAVOK 27/09 Q1013=
201807121450 METAR ESMX 121450Z 01008KT CAVOK 26/09 Q1014=
201807121420 METAR ESMX 121420Z 03007KT 350V080 CAVOK 27/09 Q1014=
201807121350 METAR ESMX 121350Z 36006KT 330V050 CAVOK 27/09 Q1014=
201807121320 METAR ESMX 121320Z 35008KT 320V030 CAVOK 27/09 Q1014=
201807121250 METAR ESMX 121250Z AUTO 03008KT 340V070 9999 NCD 27/10 Q1014=
201807121220 METAR ESMX 121220Z 01006KT 320V040 CAVOK 27/10 Q1014=
201807121150 METAR ESMX 121150Z 01008KT 340V100 CAVOK 26/10 Q1015=
201807121120 METAR ESMX 121120Z 02008KT 340V050 CAVOK 26/11 Q1015=
201807121050 METAR ESMX 121050Z 03008KT 340V070 CAVOK 25/11 Q1015=
201807121020 METAR ESMX 121020Z 03008KT 340V070 CAVOK 24/11 Q1015=
201807120950 METAR ESMX 120950Z 04008KT 330V080 9999 FEW040 24/12 Q1015=
201807120920 METAR ESMX 120920Z 04009KT 010V100 9999 FEW038 23/12 Q1015=
201807120850 METAR ESMX 120850Z 04009KT CAVOK 23/12 Q1015=
201807120820 METAR ESMX 120820Z 36009KT CAVOK 22/12 Q1016=
201807120750 METAR ESMX 120750Z 03007KT 350V070 CAVOK 21/13 Q1016=
201807120720 METAR ESMX 120720Z 36009KT CAVOK 20/12 Q1016=
201807120650 METAR ESMX 120650Z 01007KT CAVOK 19/13 Q1016=
201807120620 METAR ESMX 120620Z 01007KT 9999 FEW010 18/14 Q1016=
201807120550 METAR ESMX 120550Z 02006KT 9999 SCT009 17/14 Q1016=
201807120520 METAR ESMX 120520Z 03007KT 9999 BKN007 16/13 Q1016=
201807120450 METAR ESMX 120450Z 05007KT 020V090 9999 BKN006 15/13 Q1016=
201807120420 METAR ESMX 120420Z 02006KT 9999 BKN005 15/13 Q1016=
201807120350 METAR ESMX 120350Z AUTO 02007KT 9999 OVC004/// 14/13 Q1016=
201807120320 METAR ESMX 120320Z AUTO 02006KT 9999 OVC004/// 14/13 Q1016=
201807120250 METAR ESMX 120250Z AUTO 05006KT 9999 BKN004/// 14/12 Q1016=
201807120220 METAR ESMX 120220Z AUTO 03005KT 9999 NCD 14/12 Q1016=
201807120150 METAR ESMX 120150Z AUTO 05005KT 020V080 9999 NCD 15/12 Q1017=
201807120120 METAR ESMX 120120Z AUTO 05006KT 9999 NCD 15/11 Q1017=
201807120050 METAR ESMX 120050Z AUTO 04004KT 9999 NCD 12/10 Q1017=
201807120020 METAR ESMX 120020Z AUTO VRB02KT 9999 NCD 11/09 Q1017=
201807112350 METAR ESMX 112350Z AUTO VRB02KT 9999 NCD 13/09 Q1017=
201807112320 METAR ESMX 112320Z AUTO 08003KT 030V120 9999 NCD 16/11 Q1017=
201807112250 METAR ESMX 112250Z AUTO 06004KT 030V100 9999 NCD 16/10 Q1017=
201807112220 METAR ESMX 112220Z AUTO 10002KT 9999 NCD 13/09 Q1017=
201807112150 METAR ESMX 112150Z 11002KT CAVOK 14/09 Q1017=
201807112120 METAR ESMX 112120Z 17001KT CAVOK 15/09 Q1017=
201807112050 METAR ESMX 112050Z 00000KT CAVOK 16/09 Q1017=
201807112020 METAR ESMX 112020Z 00000KT CAVOK 18/09 Q1017=
201807111950 METAR ESMX 111950Z 06002KT CAVOK 21/09 Q1017=
201807111920 METAR ESMX 111920Z VRB02KT CAVOK 22/09 Q1017=
201807111850 METAR ESMX 111850Z 08003KT 040V130 CAVOK 23/08 Q1017=
201807111820 METAR ESMX 111820Z 04006KT CAVOK 23/09 Q1017=
201807111750 METAR ESMX 111750Z 07004KT 030V110 CAVOK 24/09 Q1016=
201807111720 METAR ESMX 111720Z 08006KT 050V140 CAVOK 24/08 Q1016=
201807111650 METAR ESMX 111650Z 02007KT CAVOK 25/09 Q1016=
201807111620 METAR ESMX 111620Z 04006KT 010V090 CAVOK 25/08 Q1016=
201807111550 METAR ESMX 111550Z 06006KT 360V100 CAVOK 26/07 Q1016=
201807111520 METAR ESMX 111520Z 05008KT 020V120 CAVOK 26/07 Q1016=
201807111450 METAR ESMX 111450Z AUTO 06008KT 030V120 9999 BKN078/// 25/08 Q1017=
201807111420 METAR ESMX 111420Z AUTO 06005KT 010V150 9999 FEW070/// 26/08 Q1017=
201807111350 METAR ESMX 111350Z AUTO 07007KT 020V150 9999 NCD 26/08 Q1017=
201807111320 METAR ESMX 111320Z AUTO 07006KT 030V110 9999 FEW078/// 24/08 Q1017=
201807111250 METAR ESMX 111250Z 06008KT 360V120 CAVOK 26/09 Q1017=
201807111220 METAR ESMX 111220Z 03008KT 350V060 CAVOK 24/09 Q1017=
201807111150 METAR ESMX 111150Z 06007KT 010V140 CAVOK 25/09 Q1017=
201807111120 METAR ESMX 111120Z 06008KT 030V100 CAVOK 24/10 Q1018=
201807111050 METAR ESMX 111050Z 05009KT 020V080 CAVOK 23/10 Q1018=
201807111020 METAR ESMX 111020Z AUTO 08006KT 020V130 9999 BKN053/// 23/10 Q1018=
201807110950 METAR ESMX 110950Z AUTO 05006KT 350V120 9999 BKN053/// 25/10 Q1018=
201807110920 METAR ESMX 110920Z 04008KT 010V100 CAVOK 23/11 Q1018=
201807110850 METAR ESMX 110850Z 08008KT 020V120 CAVOK 23/11 Q1018=
201807110820 METAR ESMX 110820Z 06009KT 350V110 CAVOK 23/10 Q1018=
201807110750 METAR ESMX 110750Z 05009KT CAVOK 22/10 Q1019=
201807110720 METAR ESMX 110720Z 05009KT 010V070 CAVOK 21/10 Q1019=
201807110650 METAR ESMX 110650Z 02008KT 350V070 CAVOK 20/11 Q1019=
201807110620 METAR ESMX 110620Z 03009KT CAVOK 19/11 Q1019=
201807110550 METAR ESMX 110550Z 04007KT CAVOK 18/11 Q1019=
201807110520 METAR ESMX 110520Z 03007KT CAVOK 17/12 Q1019=
201807110450 METAR ESMX 110450Z 04007KT CAVOK 17/12 Q1019=
201807110420 METAR ESMX 110420Z 36005KT CAVOK 16/12 Q1019=
201807110350 METAR ESMX 110350Z AUTO 36006KT 9999 NCD 15/12 Q1019=
201807110320 METAR ESMX 110320Z AUTO 36006KT 9999 NCD 14/12 Q1019=
201807110250 METAR ESMX 110250Z AUTO 36006KT 9999 NCD 14/12 Q1019=
201807110220 METAR ESMX 110220Z AUTO 01005KT 9999 NCD 14/12 Q1019=
201807110150 METAR ESMX 110150Z AUTO 01005KT 9999 NCD 14/12 Q1019=
201807110120 METAR ESMX 110120Z AUTO 01005KT 9999 SCT200/// 14/12 Q1019=
201807110050 METAR ESMX 110050Z AUTO 01004KT 9999 NCD 15/12 Q1020=
201807110020 METAR ESMX 110020Z 02005KT CAVOK 15/12 Q1020=
201807102350 METAR ESMX 102350Z 05004KT 020V080 CAVOK 16/12 Q1020=
201807102320 METAR ESMX 102320Z 05004KT 020V100 CAVOK 17/12 Q1020=
201807102250 METAR ESMX 102250Z 04003KT 010V070 CAVOK 17/12 Q1020=
201807102220 METAR ESMX 102220Z 05004KT 020V100 CAVOK 18/12 Q1020=
201807102150 METAR ESMX 102150Z AUTO 06004KT 030V100 9999 FEW190/// 18/12 Q1020=
201807102120 METAR ESMX 102120Z AUTO 07003KT 040V100 9999 NCD 18/12 Q1020=
201807102050 METAR ESMX 102050Z AUTO 06003KT 9999 NCD 18/12 Q1020=
201807102020 METAR ESMX 102020Z AUTO 07004KT 9999 NCD 19/12 Q1020=
201807101950 METAR ESMX 101950Z AUTO 06005KT 010V090 9999 SCT150/// BKN180/// 20/11 Q1020=
201807101920 METAR ESMX 101920Z 07005KT 030V110 CAVOK 20/11 Q1020=
201807101850 METAR ESMX 101850Z 06005KT 010V100 CAVOK 20/11 Q1020=
201807101820 METAR ESMX 101820Z 08006KT 040V110 CAVOK 21/11 Q1020=
201807101750 METAR ESMX 101750Z 07006KT 030V120 CAVOK 21/11 Q1020=
201807101720 METAR ESMX 101720Z 08005KT 010V140 CAVOK 21/11 Q1019=
201807101650 METAR ESMX 101650Z 07006KT 020V100 CAVOK 21/12 Q1020=
201807101620 METAR COR ESMX 101620Z 08006KT 030V110 9999 FEW041 BKN120 21/11 Q1019=
201807101550 METAR ESMX 101550Z 06005KT 350V110 CAVOK 22/12 Q1019=
201807101520 METAR ESMX 101520Z 06007KT 030V140 CAVOK 22/11 Q1020=
201807101450 METAR ESMX 101450Z 04007KT 360V090 CAVOK 22/11 Q1020=
201807101420 METAR ESMX 101420Z 07006KT 030V130 CAVOK 22/10 Q1020=
201807101350 METAR ESMX 101350Z 03009KT CAVOK 22/10 Q1020=
201807101320 METAR ESMX 101320Z 06009KT 030V100 CAVOK 22/11 Q1019=
201807101250 METAR ESMX 101250Z 06010KT 020V120 CAVOK 22/11 Q1019=
201807101220 METAR ESMX 101220Z 05011KT 030V100 CAVOK 22/10 Q1019=
201807101150 METAR ESMX 101150Z 04011KT CAVOK 23/12 Q1019=
201807101120 METAR ESMX 101120Z 03013KT CAVOK 22/12 Q1019=
201807101050 METAR ESMX 101050Z 03010KT 010V070 CAVOK 23/10 Q1019=
201807101020 METAR ESMX 101020Z AUTO 05007KT 360V120 9999 SCT061/// BKN130/// 24/10 Q1019=
201807100950 METAR ESMX 100950Z AUTO 05007KT 010V080 9999 BKN051/// BKN160/// 22/10 Q1019=
201807100920 METAR ESMX 100920Z 05008KT 010V110 CAVOK 22/10 Q1018=
201807100850 METAR COR ESMX 100850Z 04005KT 350V150 9999 FEW039 21/11 Q1018=
201807100820 METAR ESMX 100820Z VRB03KT 9999 SCT037 22/11 Q1018=
201807100750 METAR ESMX 100750Z 10006KT 040V130 9999 FEW034 20/11 Q1018=
201807100720 METAR ESMX 100720Z 08007KT 030V140 CAVOK 20/11 Q1018=
201807100650 METAR ESMX 100650Z 10006KT 050V160 CAVOK 19/12 Q1018=
201807100620 METAR ESMX 100620Z 08006KT 030V120 9999 BKN023 18/12 Q1018=
201807100550 METAR COR ESMX 100550Z 09004KT 030V160 9999 SCT020 18/12 Q1018=
201807100520 METAR ESMX 100520Z AUTO 07004KT 020V110 9999 NCD 17/12 Q1018=
201807100450 METAR ESMX 100450Z AUTO 08004KT 020V140 9999 NCD 16/13 Q1018=
201807100420 METAR ESMX 100420Z AUTO 09005KT 060V150 9999 BKN038/// 16/13 Q1018=
201807100350 METAR ESMX 100350Z AUTO 09005KT 050V140 9999 FEW009/// 15/13 Q1017=
201807100320 METAR ESMX 100320Z AUTO 07005KT 010V120 9999 FEW010/// 15/13 Q1017=
201807100250 METAR ESMX 100250Z AUTO 07005KT 030V110 9999 SCT011/// 15/13 Q1017=
201807100220 METAR ESMX 100220Z AUTO 07004KT 030V120 9999 FEW013/// BKN036/// 15/13 Q1016=
201807100150 METAR ESMX 100150Z AUTO 07005KT 020V120 9999 BKN011/// OVC035/// 16/13 Q1016=
201807100120 METAR ESMX 100120Z AUTO 08005KT 040V120 9999 BKN012/// OVC033/// 16/13 Q1016=
201807100050 METAR ESMX 100050Z AUTO 07005KT 040V120 9999 OVC030/// 16/14 Q1016=
201807100020 METAR ESMX 100020Z AUTO 07006KT 030V110 9999 SCT012/// BKN020/// BKN030/// 16/13 Q1016=
201807092350 METAR ESMX 092350Z AUTO 08007KT 020V120 9999 SCT013/// 16/13 Q1015=
201807092320 METAR ESMX 092320Z AUTO 06008KT 010V130 9999 NCD 16/13 Q1015=
201807092250 METAR ESMX 092250Z AUTO 06007KT 010V100 9999 BKN014/// 17/14 Q1015=
201807092220 METAR ESMX 092220Z AUTO 07008KT 040V110 9999 SCT014/// 17/14 Q1015=
201807092150 METAR ESMX 092150Z AUTO 06009KT 030V100 9999 NCD 17/14 Q1014=
201807092120 METAR ESMX 092120Z AUTO 06007KT 030V110 9999 NCD 17/14 Q1014=
201807092050 METAR ESMX 092050Z AUTO 06010KT 020V100 9999 NCD 17/14 Q1014=
201807092020 METAR ESMX 092020Z AUTO 06008KT 010V120 9999 NCD 18/14 Q1013=
201807091950 METAR ESMX 091950Z AUTO 04009KT 010V090 9999 FEW019/// 18/14 Q1013=
201807091920 METAR ESMX 091920Z AUTO 02011KT 9999 FEW018/// BKN044/// 18/14 Q1013=
201807091850 METAR ESMX 091850Z AUTO 01007KT 9999 SCT051/// 18/14 Q1013=
201807091820 METAR ESMX 091820Z AUTO 32005G17KT 250V030 9999 FEW007/// BKN039/// BKN051/// 20/12 Q1013=
201807091750 METAR ESMX 091750Z AUTO 26008KT 220V300 9999 OVC048/// 21/12 Q1012=
201807091720 METAR ESMX 091720Z AUTO 26008KT 9999 SCT047/// BKN064/// 22/12 Q1012=
201807091650 METAR ESMX 091650Z 26009KT 210V300 CAVOK 22/11 Q1011=
201807091620 METAR ESMX 091620Z 21010KT CAVOK 24/11 Q1011=
201807091550 METAR ESMX 091550Z 25008KT 210V290 CAVOK 24/11 Q1011=
201807091520 METAR ESMX 091520Z 26008KT 230V300 CAVOK 24/12 Q1011=
201807091450 METAR ESMX 091450Z 24007KT 200V280 CAVOK 25/11 Q1011=
201807091420 METAR ESMX 091420Z 23007KT 160V280 CAVOK 25/11 Q1011=
201807091350 METAR ESMX 091350Z 18009KT 150V230 CAVOK 25/08 Q1011=
201807091320 METAR ESMX 091320Z 15008KT 100V190 CAVOK 25/08 Q1011=
201807091250 METAR ESMX 091250Z 18006KT 100V230 CAVOK 24/08 Q1012=
201807091220 METAR ESMX 091220Z 19007KT 140V240 CAVOK 25/09 Q1012=
201807091150 METAR ESMX 091150Z 12005KT 060V190 CAVOK 23/08 Q1012=
201807091120 METAR ESMX 091120Z 21005G21KT 170V290 CAVOK 23/09 Q1012=
201807091050 METAR ESMX 091050Z 16004KT 100V260 CAVOK 22/09 Q1012=
201807091020 METAR COR ESMX 091020Z VRB03KT CAVOK 22/09 Q1012=
201807090950 METAR ESMX 090950Z AUTO VRB04KT 9999 NCD 22/09 Q1013=
201807090920 METAR ESMX 090920Z VRB04KT CAVOK 21/10 Q1013=
201807090850 METAR ESMX 090850Z 26004KT 180V320 CAVOK 20/10 Q1013=
201807090820 METAR ESMX 090820Z 23006KT 180V260 CAVOK 19/10 Q1013=
201807090750 METAR COR ESMX 090750Z 19005KT 120V230 CAVOK 20/11 Q1013=
201807090720 METAR ESMX 090720Z 22006KT 160V270 CAVOK 17/12 Q1013=
201807090650 METAR ESMX 090650Z 24005KT 200V270 CAVOK 16/12 Q1013=
201807090620 METAR ESMX 090620Z 23007KT 9999 FEW013 16/12 Q1014=
201807090550 METAR COR ESMX 090550Z 24006KT 210V280 CAVOK 16/13 Q1014=
201807090520 METAR ESMX 090520Z AUTO 25006KT 200V280 9999 BKN170/// 16/12 Q1014=
201807090450 METAR ESMX 090450Z AUTO 25006KT 9999 SCT170/// BKN200/// 16/13 Q1014=
201807090420 METAR ESMX 090420Z AUTO 25006KT 9999 BKN003/// 15/13 Q1014=
201807090350 METAR ESMX 090350Z AUTO 25006KT 9999 BKN003/// 15/13 Q1014=
201807090320 METAR ESMX 090320Z AUTO 25004KT 9999 NCD 13/11 Q1014=
201807090250 METAR ESMX 090250Z AUTO 24004KT 9999 NCD 12/10 Q1015=
201807090220 METAR ESMX 090220Z AUTO 22003KT 9999 NCD 13/10 Q1015=
201807090150 METAR ESMX 090150Z AUTO 25003KT 9999 NCD 13/09 Q1015=
201807090120 METAR ESMX 090120Z AUTO 23005KT 9999 NCD 13/09 Q1015=
201807090050 METAR ESMX 090050Z AUTO 26004KT 9999 NCD 15/09 Q1015=
201807090020 METAR ESMX 090020Z AUTO 28004KT 9999 NCD 16/09 Q1015=
201807082350 METAR ESMX 082350Z AUTO 29006KT 9999 NCD 16/09 Q1015=
201807082320 METAR ESMX 082320Z AUTO 26005KT 9999 NCD 17/09 Q1016=
201807082250 METAR ESMX 082250Z AUTO 25005KT 9999 NCD 17/09 Q1016=
201807082220 METAR ESMX 082220Z AUTO 26005KT 9999 NCD 18/09 Q1016=
201807082150 METAR ESMX 082150Z AUTO 26005KT 9999 NCD 19/09 Q1016=
201807082120 METAR ESMX 082120Z AUTO 27006KT 9999 NCD 20/09 Q1016=
201807082050 METAR ESMX 082050Z AUTO 27006KT 9999 NCD 20/10 Q1016=
201807082020 METAR ESMX 082020Z AUTO 27005KT 9999 NCD 21/10 Q1016=
201807081950 METAR ESMX 081950Z AUTO 27006KT 9999 NCD 22/10 Q1016=
201807081920 METAR ESMX 081920Z 26010KT 230V290 CAVOK 24/10 Q1016=
201807081850 METAR ESMX 081850Z 26006KT CAVOK 25/09 Q1016=
201807081820 METAR ESMX 081820Z 29005KT CAVOK 26/07 Q1016=
201807081750 METAR ESMX 081750Z 28006KT CAVOK 27/07 Q1016=
201807081720 METAR ESMX 081720Z 27006KT 240V320 CAVOK 27/07 Q1016=
201807081650 METAR ESMX 081650Z VRB04KT CAVOK 27/07 Q1016=
201807081620 METAR ESMX 081620Z VRB02KT CAVOK 25/08 Q1017=
201807081550 METAR ESMX 081550Z 23005KT CAVOK 25/08 Q1017=
201807081520 METAR ESMX 081520Z 26007KT 240V300 CAVOK 27/07 Q1017=
201807081450 METAR ESMX 081450Z 28006KT 200V350 CAVOK 27/07 Q1017=
201807081420 METAR ESMX 081420Z VRB03KT CAVOK 26/07 Q1018=
201807081350 METAR ESMX 081350Z 35004KT 290V060 CAVOK 26/07 Q1018=
201807081320 METAR ESMX 081320Z 01005KT CAVOK 26/07 Q1018=
201807081250 METAR ESMX 081250Z 36006KT 340V040 CAVOK 26/08 Q1018=
201807081220 METAR ESMX 081220Z 36006KT 330V030 CAVOK 25/07 Q1018=
201807081150 METAR ESMX 081150Z 01006KT 320V040 CAVOK 24/07 Q1019=
201807081120 METAR ESMX 081120Z 01006KT 320V050 CAVOK 25/08 Q1019=
201807081050 METAR ESMX 081050Z 01008KT 340V040 CAVOK 24/08 Q1019=
201807081020 METAR ESMX 081020Z 02005KT 310V090 CAVOK 25/08 Q1019=
201807080950 METAR ESMX 080950Z AUTO 01007KT 300V050 9999 FEW064/// 24/08 Q1019=
201807080920 METAR ESMX 080920Z 02007KT 350V050 CAVOK 24/09 Q1019=
201807080850 METAR ESMX 080850Z 03006KT 330V070 9999 SCT045 23/10 Q1019=
201807080820 METAR ESMX 080820Z 36004KT 270V060 9999 SCT030 22/11 Q1020=
201807080750 METAR ESMX 080750Z 34004KT 290V040 9999 SCT030 22/13 Q1020=
201807080720 METAR ESMX 080720Z 01005KT 340V060 9999 SCT025 21/13 Q1020=
201807080650 METAR ESMX 080650Z 03005KT 350V070 9999 SCT020 21/13 Q1020=
201807080620 METAR ESMX 080620Z 03005KT 330V070 9999 SCT018 20/14 Q1020=
201807080550 METAR ESMX 080550Z 36005KT 300V070 9999 SCT018 19/14 Q1020=
201807080520 METAR ESMX 080520Z AUTO 33005KT 9999 FEW024/// 19/14 Q1020=
201807080450 METAR ESMX 080450Z AUTO 32004KT 290V360 9999 SCT023/// 18/14 Q1020=
201807080420 METAR ESMX 080420Z AUTO 31003KT 270V330 9999 SCT023/// 17/14 Q1019=
201807080350 METAR ESMX 080350Z AUTO VRB02KT 9999 FEW041/// 16/13 Q1019=
201807080320 METAR ESMX 080320Z AUTO VRB01KT 9999 SCT029/// BKN072/// 15/13 Q1019=
201807080250 METAR ESMX 080250Z AUTO 00000KT 9999 OVC031/// 14/13 Q1019=
201807080220 METAR ESMX 080220Z AUTO 20001KT 9999 SCT036/// BKN046/// BKN082/// 14/12 Q1019=
201807080150 METAR ESMX 080150Z AUTO VRB02KT 9999 BKN038/// OVC082/// 15/13 Q1019=
201807080120 METAR ESMX 080120Z AUTO 21002KT 9999 OVC036/// 15/13 Q1019=
201807080050 METAR ESMX 080050Z AUTO 26003KT 9999 BKN038/// OVC078/// 14/12 Q1019=
201807080020 METAR ESMX 080020Z AUTO VRB02KT 9999 FEW062/// BKN082/// 15/12 Q1019=
201807072350 METAR ESMX 072350Z AUTO VRB01KT 9999 FEW053/// BKN080/// 16/13 Q1019=
201807072320 METAR ESMX 072320Z AUTO VRB03KT 9999 OVC080/// 17/13 Q1018=
201807072250 METAR ESMX 072250Z AUTO 16004KT 9999 OVC074/// 17/13 Q1018=
201807072220 METAR ESMX 072220Z AUTO 14004KT 9999 OVC078/// 17/13 Q1018=
201807072150 METAR ESMX 072150Z AUTO VRB03KT 9999 SCT076/// 17/12 Q1018=
201807072120 METAR ESMX 072120Z AUTO 13003KT 060V170 9999 FEW066/// SCT082/// 18/12 Q1018=
201807072050 METAR ESMX 072050Z AUTO 12003KT 070V160 9999 FEW082/// 18/12 Q1018=
201807072020 METAR ESMX 072020Z AUTO 10003KT 060V140 9999 SCT086/// 19/12 Q1018=
201807071950 METAR ESMX 071950Z 10004KT 070V150 CAVOK 20/12 Q1017=
201807071920 METAR ESMX 071920Z 08005KT 030V120 CAVOK 20/13 Q1017=
201807071850 METAR ESMX 071850Z 10004KT 060V170 CAVOK 21/13 Q1017=
201807071820 METAR ESMX 071820Z 07006KT 020V120 CAVOK 22/13 Q1017=
201807071750 METAR ESMX 071750Z 06007KT 030V110 CAVOK 22/13 Q1016=
201807071720 METAR ESMX 071720Z 07007KT 020V120 9999 FEW045 23/13 Q1016=
201807071650 METAR ESMX 071650Z AUTO 05007KT 010V090 9999 FEW051/// 23/13 Q1016=
201807071620 METAR ESMX 071620Z AUTO 07007KT 030V120 9999 FEW053/// 23/13 Q1016=
201807071550 METAR ESMX 071550Z AUTO 06004KT 340V110 9999 BKN045/// 24/13 Q1016=
201807071520 METAR ESMX 071520Z AUTO 09005KT 360V170 9999 SCT047/// 25/12 Q1016=
201807071450 METAR ESMX 071450Z AUTO 07006KT 030V130 9999 SCT048/// 25/13 Q1016=
201807071420 METAR ESMX 071420Z AUTO 06006KT 010V110 9999 NCD 25/12 Q1015=
201807071350 METAR ESMX 071350Z AUTO 08006KT 030V140 9999 NCD 24/13 Q1015=
201807071320 METAR ESMX 071320Z AUTO 07006KT 020V140 9999 NCD 25/13 Q1015=
201807071250 METAR ESMX 071250Z AUTO 06008KT 020V100 9999 FEW048/// 23/12 Q1015=
201807071220 METAR ESMX 071220Z 07008KT 030V150 9999 SCT040 23/13 Q1015=
201807071150 METAR ESMX 071150Z 06009KT 020V110 9999 SCT035 23/14 Q1015=
201807071120 METAR ESMX 071120Z 05008KT 020V100 9999 SCT026 23/15 Q1015=
201807071050 METAR ESMX 071050Z 05007KT 010V100 9999 BKN024 22/15 Q1014=
201807071020 METAR ESMX 071020Z 05006KT 350V110 9999 BKN022 22/15 Q1014=
201807070950 METAR ESMX 070950Z 01004KT 300V050 9999 BKN023 22/15 Q1014=
201807070920 METAR ESMX 070920Z 34005KT 300V010 9999 SCT018 BKN025 20/15 Q1014=
201807070850 METAR ESMX 070850Z 34006KT 9999 BKN015 19/15 Q1014=
201807070820 METAR ESMX 070820Z 29005KT 260V330 9999 BKN013 19/15 Q1014=
201807070750 METAR ESMX 070750Z 30006KT 9999 BKN012 19/15 Q1014=
201807070720 METAR ESMX 070720Z 28006KT 9999 BKN010 18/15 Q1014=
201807070650 METAR ESMX 070650Z AUTO 27005KT 240V320 9999 BKN009/// 18/15 Q1013=
201807070620 METAR ESMX 070620Z AUTO 29003KT 9999 FEW100/// BKN150/// 18/15 Q1013=
201807070550 METAR ESMX 070550Z AUTO 26006KT 9999 FEW005/// BKN100/// 17/15 Q1013=
201807070520 METAR ESMX 070520Z AUTO 25005KT 9999 BKN100/// 17/15 Q1013=
201807070450 METAR ESMX 070450Z AUTO 26004KT 230V290 9999 SCT100/// BKN200/// 16/14 Q1013=
201807070420 METAR ESMX 070420Z AUTO 26004KT 9999 SCT100/// BKN190/// 15/14 Q1013=
201807070350 METAR ESMX 070350Z AUTO 26005KT 9999 BKN150/// OVC190/// 15/14 Q1013=
201807070320 METAR ESMX 070320Z AUTO 24005KT 9999 SCT150/// BKN190/// 14/13 Q1013=
201807070250 METAR ESMX 070250Z AUTO 26003KT 9999 BKN190/// 14/13 Q1013=
201807070220 METAR ESMX 070220Z AUTO 25003KT 9999 SCT100/// BKN190/// 14/13 Q1012=
201807070150 METAR ESMX 070150Z AUTO 26003KT 9999 NCD 14/13 Q1012=
201807070120 METAR ESMX 070120Z AUTO 25003KT 9999 NCD 14/13 Q1013=
201807070050 METAR ESMX 070050Z AUTO VRB02KT 9999 NCD 15/13 Q1012=
201807070020 METAR ESMX 070020Z AUTO 25003KT 9999 NCD 14/13 Q1012=
201807062350 METAR ESMX 062350Z AUTO 25004KT 9999 NCD 15/13 Q1012=
201807062320 METAR ESMX 062320Z AUTO 26004KT 9999 NCD 15/13 Q1012=
201807062250 METAR ESMX 062250Z AUTO 26004KT 9999 NCD 16/13 Q1013=
201807062220 METAR ESMX 062220Z AUTO 25004KT 210V280 9999 NCD 16/13 Q1012=
201807062150 METAR ESMX 062150Z AUTO 25004KT 9999 NCD 16/13 Q1012=
201807062120 METAR ESMX 062120Z AUTO 26005KT 9999 NCD 17/13 Q1012=
201807062050 METAR ESMX 062050Z AUTO 26005KT 9999 NCD 17/13 Q1012=
201807062020 METAR ESMX 062020Z AUTO 26003KT 9999 NCD 18/13 Q1012=
201807061950 METAR ESMX 061950Z AUTO 25007KT 9999 NCD 19/13 Q1012=
201807061920 METAR ESMX 061920Z AUTO 26008KT 9999 NCD 20/13 Q1011=
201807061850 METAR ESMX 061850Z AUTO 27009KT 9999 NCD 21/13 Q1011=
201807061820 METAR ESMX 061820Z AUTO 24009KT 210V280 9999 NCD 23/13 Q1011=
201807061750 METAR ESMX 061750Z AUTO 27011KT 9999 NCD 24/13 Q1010=
201807061720 METAR ESMX 061720Z AUTO 26010KT 9999 FEW120/// 25/13 Q1010=
201807061650 METAR ESMX 061650Z 24008KT 190V270 CAVOK 27/11 Q1010=
201807061620 METAR ESMX 061620Z 27006KT 220V310 CAVOK 27/10 Q1010=
201807061550 METAR ESMX 061550Z 29005KT 230V330 CAVOK 27/10 Q1010=
201807061520 METAR ESMX 061520Z 28006KT 240V320 CAVOK 27/10 Q1010=
201807061450 METAR ESMX 061450Z 25007KT 210V300 CAVOK 27/10 Q1010=
201807061420 METAR ESMX 061420Z 23006KT 170V270 CAVOK 27/10 Q1010=
201807061350 METAR ESMX 061350Z 23008KT 190V260 CAVOK 27/11 Q1010=
201807061320 METAR ESMX 061320Z VRB06KT CAVOK 27/11 Q1009=
201807061250 METAR ESMX 061250Z 28006KT 250V340 CAVOK 26/11 Q1009=
201807061220 METAR ESMX 061220Z 21006KT 150V320 CAVOK 25/11 Q1009=
201807061150 METAR ESMX 061150Z VRB04KT CAVOK 26/11 Q1009=
201807061120 METAR ESMX 061120Z VRB05KT CAVOK 25/12 Q1009=
201807061050 METAR ESMX 061050Z VRB04KT CAVOK 24/12 Q1010=
201807061020 METAR ESMX 061020Z 21006KT 170V270 CAVOK 24/12 Q1010=
201807060950 METAR ESMX 060950Z 24005KT 160V290 CAVOK 23/12 Q1010=
201807060920 METAR ESMX 060920Z 29006KT 260V350 CAVOK 22/12 Q1010=
201807060850 METAR ESMX 060850Z 23005KT 150V260 CAVOK 21/12 Q1009=
201807060820 METAR ESMX 060820Z 26006KT 210V320 CAVOK 20/12 Q1009=
201807060750 METAR ESMX 060750Z 24006KT 210V280 CAVOK 20/13 Q1009=
201807060720 METAR ESMX 060720Z 23006KT 200V270 CAVOK 19/13 Q1009=
201807060650 METAR ESMX 060650Z 27006KT 240V310 CAVOK 18/12 Q1009=
201807060620 METAR COR ESMX 060620Z 26006KT 240V320 CAVOK 16/12 Q1009=
201807060550 METAR ESMX 060550Z AUTO 28006KT 9999 NCD 15/12 Q1009=
201807060520 METAR ESMX 060520Z 28004KT CAVOK 14/12 Q1009=
201807060450 METAR ESMX 060450Z 28005KT CAVOK 15/12 Q1009=
201807060420 METAR ESMX 060420Z 25003KT CAVOK 13/11 Q1009=
201807060350 METAR COR ESMX 060350Z 26003KT CAVOK 12/11 Q1009=
201807060320 METAR ESMX 060320Z AUTO 26003KT 9999 NCD 12/10 Q1009=
201807060250 METAR ESMX 060250Z AUTO 26004KT 9999 NCD 12/10 Q1009=
201807060220 METAR ESMX 060220Z AUTO 28002KT 9999 NCD 12/11 Q1008=
201807060150 METAR ESMX 060150Z AUTO 26004KT 9999 NCD 12/10 Q1008=
201807060120 METAR ESMX 060120Z AUTO 26003KT 9999 NCD 13/11 Q1008=
201807060050 METAR ESMX 060050Z AUTO 27004KT 9999 NCD 13/10 Q1008=
201807060020 METAR ESMX 060020Z 26003KT CAVOK 13/10 Q1008=
201807052350 METAR ESMX 052350Z 26004KT CAVOK 14/10 Q1008=
201807052320 METAR ESMX 052320Z 27004KT 250V310 CAVOK 14/10 Q1009=
201807052250 METAR ESMX 052250Z 25004KT 220V290 CAVOK 14/11 Q1008=
201807052220 METAR ESMX 052220Z 26004KT CAVOK 15/11 Q1008=
201807052150 METAR ESMX 052150Z 25006KT 230V290 CAVOK 16/11 Q1008=
201807052120 METAR ESMX 052120Z 26007KT CAVOK 16/11 Q1008=
201807052050 METAR ESMX 052050Z 24005KT 210V270 CAVOK 17/11 Q1008=
201807052020 METAR ESMX 052020Z 26008KT CAVOK 18/11 Q1007=
201807051950 METAR ESMX 051950Z 26010KT CAVOK 19/12 Q1007=
201807051920 METAR ESMX 051920Z 25008KT 220V280 CAVOK 20/12 Q1007=
201807051850 METAR ESMX 051850Z 26008KT CAVOK 21/12 Q1007=
201807051820 METAR ESMX 051820Z 26008KT CAVOK 22/12 Q1007=
201807051750 METAR ESMX 051750Z 26010KT CAVOK 23/13 Q1006=
201807051720 METAR ESMX 051720Z 28010KT CAVOK 24/13 Q1006=
201807051650 METAR ESMX 051650Z 26011KT CAVOK 24/12 Q1006=
201807051620 METAR ESMX 051620Z 26011KT CAVOK 25/12 Q1006=
201807051550 METAR ESMX 051550Z 27012KT 230V290 CAVOK 25/12 Q1006=
201807051520 METAR ESMX 051520Z 27006KT 210V320 CAVOK 27/10 Q1006=
201807051450 METAR ESMX 051450Z 25008KT 210V290 CAVOK 28/11 Q1006=
201807051420 METAR ESMX 051420Z 23006KT 190V290 CAVOK 27/10 Q1006=
201807051350 METAR ESMX 051350Z 31008KT 260V340 CAVOK 27/10 Q1006=
201807051320 METAR ESMX 051320Z 22006KT 160V280 CAVOK 27/11 Q1006=
201807051250 METAR ESMX 051250Z 25005KT 170V340 CAVOK 27/11 Q1007=
201807051220 METAR ESMX 051220Z 32006KT 260V020 CAVOK 26/11 Q1007=
201807051150 METAR ESMX 051150Z 26006KT 190V350 CAVOK 27/12 Q1007=
201807051120 METAR ESMX 051120Z VRB03KT CAVOK 25/12 Q1007=
201807051050 METAR ESMX 051050Z 24004KT 170V340 CAVOK 25/12 Q1007=
201807051020 METAR ESMX 051020Z 31005KT 260V070 CAVOK 24/11 Q1007=
201807050950 METAR ESMX 050950Z 35003KT 260V060 CAVOK 24/12 Q1007=
201807050920 METAR ESMX 050920Z 25005KT 180V290 CAVOK 23/10 Q1008=
201807050850 METAR ESMX 050850Z 29006KT 250V340 CAVOK 22/12 Q1008=
201807050820 METAR ESMX 050820Z 29005KT 220V340 CAVOK 21/13 Q1008=
201807050750 METAR ESMX 050750Z 22005KT 180V290 CAVOK 21/13 Q1008=
201807050720 METAR ESMX 050720Z 23005KT 190V290 CAVOK 19/13 Q1008=
201807050650 METAR ESMX 050650Z 26004KT 210V310 9999 FEW014 18/13 Q1008=
201807050620 METAR ESMX 050620Z VRB02KT 9999 SCT010 17/14 Q1008=
201807050550 METAR ESMX 050550Z 30004KT 260V350 9999 BKN009 16/13 Q1008=
201807050520 METAR ESMX 050520Z 28006KT 5000 BKN004 15/14 Q1009=
201807050450 METAR ESMX 050450Z 28006KT 240V330 0650 R01/1000D R19/P2000N FG OVC002 15/14 Q1008=
201807050420 METAR ESMX 050420Z 25006KT 9999 BKN002 15/13 Q1008=
201807050350 METAR ESMX 050350Z 24004KT 210V270 9999 SCT004 14/13 Q1008=
201807050320 METAR ESMX 050320Z AUTO 26003KT 9999 NCD 14/12 Q1009=
201807050250 METAR ESMX 050250Z AUTO 26004KT 9999 NCD 13/11 Q1008=
201807050220 METAR ESMX 050220Z AUTO 26005KT 9999 NCD 14/11 Q1009=
201807050150 METAR ESMX 050150Z AUTO 27005KT 9999 NCD 14/10 Q1009=
201807050120 METAR ESMX 050120Z AUTO 27005KT 9999 NCD 13/09 Q1009=
201807050050 METAR ESMX 050050Z AUTO 26004KT 9999 NCD 13/09 Q1009=
201807050020 METAR ESMX 050020Z AUTO 25005KT 9999 NCD 14/09 Q1009=
201807042350 METAR ESMX 042350Z 27004KT CAVOK 15/09 Q1009=
201807042320 METAR ESMX 042320Z 27004KT CAVOK 17/09 Q1009=
201807042250 METAR ESMX 042250Z 28005KT CAVOK 17/09 Q1009=
201807042220 METAR ESMX 042220Z 26005KT CAVOK 18/09 Q1009=
201807042150 METAR ESMX 042150Z AUTO 26006KT 9999 NCD 18/09 Q1009=
201807042120 METAR ESMX 042120Z AUTO 27005KT 9999 NCD 20/09 Q1009=
201807042050 METAR ESMX 042050Z AUTO 26007KT 9999 NCD 20/09 Q1009=
201807042020 METAR ESMX 042020Z AUTO 25006KT 220V290 9999 NCD 21/09 Q1009=
201807041950 METAR ESMX 041950Z AUTO 26007KT 9999 NCD 22/10 Q1009=
201807041920 METAR ESMX 041920Z AUTO 27009KT 9999 NCD 23/10 Q1009=
201807041850 METAR ESMX 041850Z AUTO 25010KT 9999 NCD 24/10 Q1009=
201807041820 METAR ESMX 041820Z 26011KT CAVOK 26/10 Q1009=
201807041750 METAR ESMX 041750Z AUTO 26011KT 9999 SCT094/// 27/09 Q1009=
201807041720 METAR ESMX 041720Z 27012KT CAVOK 27/09 Q1009=
201807041650 METAR ESMX 041650Z 26012KT CAVOK 28/09 Q1009=
201807041620 METAR ESMX 041620Z 27009KT 240V300 CAVOK 28/09 Q1009=
201807041550 METAR ESMX 041550Z 29008KT 260V330 CAVOK 29/08 Q1009=
201807041520 METAR ESMX 041520Z 25008KT 210V280 CAVOK 29/07 Q1009=
201807041450 METAR ESMX 041450Z 28009KT 240V300 CAVOK 30/06 Q1010=
201807041420 METAR ESMX 041420Z 26008KT 220V290 CAVOK 29/06 Q1010=
201807041350 METAR ESMX 041350Z 29007G18KT 230V350 CAVOK 29/05 Q1010=
201807041320 METAR ESMX 041320Z 29008KT 240V330 CAVOK 30/06 Q1010=
201807041250 METAR ESMX 041250Z 27009G20KT 210V310 CAVOK 30/06 Q1010=
201807041220 METAR ESMX 041220Z 28010KT 230V330 CAVOK 30/07 Q1010=
201807041150 METAR ESMX 041150Z 26011KT 230V320 CAVOK 30/06 Q1011=
201807041120 METAR ESMX 041120Z 30009KT 270V340 CAVOK 29/06 Q1011=
201807041050 METAR ESMX 041050Z 27008KT 230V330 CAVOK 29/05 Q1011=
201807041020 METAR ESMX 041020Z 28009KT 250V330 CAVOK 28/04 Q1011=
201807040950 METAR ESMX 040950Z VRB09KT CAVOK 28/06 Q1011=
201807040920 METAR ESMX 040920Z 31010KT 260V340 CAVOK 27/04 Q1011=
201807040850 METAR ESMX 040850Z 27009KT CAVOK 27/05 Q1011=
201807040820 METAR ESMX 040820Z 29008KT 240V330 CAVOK 26/06 Q1011=
201807040750 METAR ESMX 040750Z 29007KT 260V330 CAVOK 25/06 Q1012=
201807040720 METAR ESMX 040720Z 29007KT 260V330 CAVOK 24/06 Q1011=
201807040650 METAR ESMX 040650Z 28006KT 240V310 CAVOK 23/06 Q1012=
201807040620 METAR ESMX 040620Z 30006KT 260V340 CAVOK 22/05 Q1012=
201807040550 METAR ESMX 040550Z 29005KT CAVOK 20/06 Q1012=
201807040520 METAR ESMX 040520Z 28005KT 250V320 CAVOK 19/07 Q1012=
201807040450 METAR ESMX 040450Z 27003KT CAVOK 17/06 Q1012=
201807040420 METAR ESMX 040420Z 27003KT 240V300 CAVOK 15/06 Q1012=
201807040350 METAR ESMX 040350Z 27003KT CAVOK 15/07 Q1012=
201807040320 METAR ESMX 040320Z AUTO 26004KT 9999 NCD 12/06 Q1012=
201807040250 METAR ESMX 040250Z AUTO 26004KT 9999 NCD 11/06 Q1012=
201807040220 METAR ESMX 040220Z AUTO 26004KT 9999 NCD 11/06 Q1012=
201807040150 METAR ESMX 040150Z AUTO 26005KT 9999 NCD 12/06 Q1012=
201807040120 METAR ESMX 040120Z AUTO 25002KT 9999 NCD 11/06 Q1012=
201807040050 METAR ESMX 040050Z AUTO 26003KT 9999 NCD 11/06 Q1012=
201807040020 METAR ESMX 040020Z AUTO 25002KT 9999 NCD 11/06 Q1012=
201807032350 METAR ESMX 032350Z AUTO 28003KT 9999 NCD 13/06 Q1012=
201807032320 METAR ESMX 032320Z AUTO 27003KT 9999 NCD 11/06 Q1012=
201807032250 METAR ESMX 032250Z AUTO 27003KT 9999 NCD 12/06 Q1012=
201807032220 METAR ESMX 032220Z AUTO 00000KT 9999 NCD 13/06 Q1012=
201807032150 METAR ESMX 032150Z AUTO 00000KT 9999 NCD 13/06 Q1012=
201807032120 METAR ESMX 032120Z AUTO VRB02KT 9999 FEW090/// 15/06 Q1012=
201807032050 METAR ESMX 032050Z AUTO VRB02KT 9999 NCD 16/06 Q1012=
201807032020 METAR ESMX 032020Z AUTO VRB01KT 9999 NCD 18/06 Q1012=
201807031950 METAR ESMX 031950Z AUTO 13004KT 9999 NCD 20/06 Q1012=
201807031920 METAR ESMX 031920Z 10003KT CAVOK 23/05 Q1012=
201807031850 METAR ESMX 031850Z VRB03KT CAVOK 24/06 Q1012=
201807031820 METAR ESMX 031820Z VRB03KT CAVOK 25/05 Q1011=
201807031750 METAR COR ESMX 031750Z 06004KT 020V100 CAVOK 25/04 Q1011=
201807031720 METAR ESMX 031720Z 12005KT 080V160 CAVOK 25/04 Q1012=
201807031650 METAR ESMX 031650Z 06005KT 010V160 CAVOK 26/04 Q1012=
201807031620 METAR ESMX 031620Z 06005KT 010V140 CAVOK 26/05 Q1012=
201807031550 METAR ESMX 031550Z 06007KT 030V120 CAVOK 25/05 Q1012=
201807031520 METAR COR ESMX 031520Z 02008KT CAVOK 26/03 Q1012=
201807031450 METAR ESMX 031450Z 35010KT CAVOK 26/04 Q1012=
201807031420 METAR ESMX 031420Z 35009KT 320V030 CAVOK 26/03 Q1012=
201807031350 METAR ESMX 031350Z 32012KT 290V350 CAVOK 27/03 Q1012=
201807031320 METAR ESMX 031320Z 32012KT 290V020 CAVOK 27/03 Q1012=
201807031250 METAR ESMX 031250Z 34012KT 310V020 CAVOK 27/03 Q1012=
201807031220 METAR ESMX 031220Z 33011KT 290V020 CAVOK 26/02 Q1012=
201807031150 METAR ESMX 031150Z 36009KT 320V050 CAVOK 26/02 Q1012=
201807031120 METAR ESMX 031120Z 35010KT 320V020 CAVOK 26/02 Q1012=
201807031050 METAR ESMX 031050Z 35009KT 320V020 CAVOK 25/03 Q1012=
201807031020 METAR ESMX 031020Z 35009KT 310V050 CAVOK 25/03 Q1013=
201807030950 METAR ESMX 030950Z 34011KT 310V030 CAVOK 24/02 Q1013=
201807030920 METAR ESMX 030920Z 35010KT 320V040 CAVOK 24/03 Q1013=
201807030850 METAR ESMX 030850Z 02008KT 350V050 CAVOK 23/05 Q1013=
201807030820 METAR ESMX 030820Z 02006KT CAVOK 21/06 Q1013=
201807030750 METAR ESMX 030750Z 02006KT CAVOK 21/05 Q1013=
201807030720 METAR ESMX 030720Z 35003KT 270V020 CAVOK 20/07 Q1013=
201807030650 METAR ESMX 030650Z 31004KT CAVOK 18/08 Q1013=
201807030620 METAR ESMX 030620Z VRB03KT CAVOK 18/08 Q1014=
201807030550 METAR ESMX 030550Z VRB03KT CAVOK 18/08 Q1014=
201807030520 METAR ESMX 030520Z 24003KT CAVOK 15/09 Q1014=
201807030450 METAR ESMX 030450Z VRB02KT CAVOK 15/09 Q1014=
201807030420 METAR ESMX 030420Z VRB02KT CAVOK 14/09 Q1014=
201807030350 METAR ESMX 030350Z 21002KT CAVOK 14/08 Q1014=
201807030320 METAR ESMX 030320Z AUTO 20002KT 9999 BKN086/// OVC100/// 13/09 Q1014=
201807030250 METAR ESMX 030250Z AUTO 20003KT 9999 OVC084/// 13/08 Q1014=
201807030220 METAR ESMX 030220Z AUTO 23002KT 9999 OVC086/// 13/08 Q1014=
201807030150 METAR ESMX 030150Z AUTO 21002KT 9999 BKN082/// OVC110/// 13/08 Q1014=
201807030120 METAR ESMX 030120Z AUTO 00000KT 9999 BKN090/// OVC110/// 12/08 Q1014=
201807030050 METAR ESMX 030050Z AUTO 00000KT 9999 OVC100/// 13/08 Q1014=
201807030020 METAR ESMX 030020Z AUTO VRB01KT 9999 OVC098/// 13/07 Q1014=
201807021820 METAR ESMX 021820Z AUTO 33008KT 9999 NCD 22/04 Q1014=
201807021750 METAR ESMX 021750Z AUTO 33009KT 9999 NCD 22/03 Q1014=
201807021720 METAR ESMX 021720Z 36008KT CAVOK 23/03 Q1014=
201807021650 METAR ESMX 021650Z 34010KT 320V030 CAVOK 23/03 Q1014=
201807021620 METAR ESMX 021620Z 36011KT CAVOK 23/02 Q1014=
201807021550 METAR ESMX 021550Z 34010KT 300V020 CAVOK 24/04 Q1014=
201807021520 METAR ESMX 021520Z 34011KT 300V010 CAVOK 24/03 Q1014=
201807021450 METAR ESMX 021450Z 34007KT 290V010 CAVOK 24/04 Q1014=
201807021420 METAR ESMX 021420Z 01010KT CAVOK 24/03 Q1014=
201807021350 METAR ESMX 021350Z 36009KT 330V050 CAVOK 24/03 Q1014=
201807021320 METAR ESMX 021320Z 02011KT 340V050 CAVOK 23/04 Q1015=
201807021250 METAR ESMX 021250Z 36012KT CAVOK 23/02 Q1015=
201807021220 METAR ESMX 021220Z 34012KT CAVOK 23/03 Q1015=
201807021150 METAR ESMX 021150Z 34008KT 300V020 CAVOK 22/04 Q1015=
201807021120 METAR ESMX 021120Z 34008KT 270V040 CAVOK 23/04 Q1015=
201807021050 METAR ESMX 021050Z 02009KT 340V070 CAVOK 22/04 Q1016=
201807021020 METAR ESMX 021020Z 36011KT CAVOK 22/03 Q1016=
201807020950 METAR ESMX 020950Z 35011KT 320V020 CAVOK 21/03 Q1016=
201807020920 METAR COR ESMX 020920Z 01012KT CAVOK 21/04 Q1016=
201807020850 METAR ESMX 020850Z 02010KT 340V070 CAVOK 20/05 Q1017=
201807020820 METAR ESMX 020820Z 35010KT CAVOK 19/05 Q1017=
201807020750 METAR ESMX 020750Z 35007KT 320V030 CAVOK 18/05 Q1017=
201807020720 METAR ESMX 020720Z 01008KT CAVOK 17/05 Q1018=
201807020650 METAR ESMX 020650Z 36008KT CAVOK 16/06 Q1018=
201807020620 METAR ESMX 020620Z 36009KT CAVOK 15/06 Q1018=
201807020550 METAR ESMX 020550Z 31003KT CAVOK 13/08 Q1018=
201807020520 METAR ESMX 020520Z 31003KT CAVOK 12/08 Q1018=
201807020450 METAR ESMX 020450Z 34004KT CAVOK 11/08 Q1019=
201807020420 METAR ESMX 020420Z VRB01KT CAVOK 09/07 Q1019=
201807020350 METAR ESMX 020350Z 31002KT CAVOK 06/04 Q1019=
201807020320 METAR ESMX 020320Z AUTO 18001KT 9999 NCD 04/02 Q1019=
201807020250 METAR ESMX 020250Z AUTO 00000KT 9999 NCD 05/03 Q1019=
201807020220 METAR ESMX 020220Z AUTO 17002KT 9999 NCD 05/04 Q1019=
201807020150 METAR ESMX 020150Z AUTO 18002KT 9999 NCD 05/03 Q1020=
201807020120 METAR ESMX 020120Z AUTO 00000KT 9999 NCD 06/04 Q1020=
201807020050 METAR ESMX 020050Z AUTO 00000KT 9999 NCD 07/05 Q1020=
201807020020 METAR ESMX 020020Z AUTO VRB01KT 9999 NCD 07/05 Q1020=
201807012350 METAR ESMX 012350Z AUTO VRB02KT 9999 NCD 10/06 Q1020=
201807012320 METAR ESMX 012320Z AUTO 11003KT 9999 NCD 11/06 Q1021=
201807012250 METAR ESMX 012250Z AUTO 16003KT 9999 NCD 11/05 Q1021=
201807012220 METAR ESMX 012220Z AUTO 16004KT 9999 NCD 14/06 Q1021=
201807012150 METAR ESMX 012150Z AUTO 14003KT 110V170 9999 FEW068/// 14/06 Q1021=
201807012120 METAR ESMX 012120Z AUTO 10003KT 060V140 9999 BKN070/// 15/06 Q1021=
201807012050 METAR ESMX 012050Z AUTO 12003KT 070V190 9999 NCD 15/05 Q1021=
201807012020 METAR ESMX 012020Z 11004KT 070V150 CAVOK 17/04 Q1021=
201807011950 METAR ESMX 011950Z 04006KT 020V100 CAVOK 18/03 Q1021=
201807011920 METAR ESMX 011920Z 01006KT CAVOK 19/03 Q1021=
201807011850 METAR ESMX 011850Z 03009KT CAVOK 19/03 Q1021=
201807011820 METAR COR ESMX 011820Z 33003KT CAVOK 19/04 Q1021=
201807011750 METAR ESMX 011750Z 03006KT CAVOK 19/02 Q1021=
201807011720 METAR COR ESMX 011720Z 02007KT 350V050 CAVOK 21/02 Q1021=
201807011650 METAR ESMX 011650Z 04006KT 010V070 CAVOK 20/02 Q1021=
201807011620 METAR ESMX 011620Z 03006KT 340V100 CAVOK 20/02 Q1021=
201807011550 METAR ESMX 011550Z 06008KT 020V110 CAVOK 21/02 Q1021=
201807011520 METAR ESMX 011520Z 36008KT CAVOK 21/02 Q1022=
201807011450 METAR ESMX 011450Z 04007KT 340V070 CAVOK 21/02 Q1022=
201807011420 METAR ESMX 011420Z 01009KT 330V050 CAVOK 21/02 Q1022=
201807011350 METAR ESMX 011350Z 01008KT 340V060 CAVOK 20/02 Q1022=
201807011320 METAR ESMX 011320Z 03008KT 350V060 CAVOK 21/02 Q1023=
201807011250 METAR ESMX 011250Z 04009KT 350V080 CAVOK 20/03 Q1023=
201807011220 METAR ESMX 011220Z 04008KT 350V110 CAVOK 20/03 Q1023=
