##########################################################
# Query made at 04/19/2024 22:09:28 UTC
# Time interval: from 07/01/2019 12:00  to 07/31/2019 12:59  UTC
##########################################################

##########################################################
# ESMX, Vaxjo (Sweden)
# WMO index: 02641. WIGOS ID: 0-20000-0-02648
# Latitude 56-51N. Longitude 014-50E. Altitude 199 m.
##########################################################

201907311250 METAR ESMX 311250Z VRB03KT 9999 SCT043 19/08 Q1018=
201907311220 METAR ESMX 311220Z 03004KT 340V090 9999 FEW043 19/07 Q1018=
201907311150 METAR ESMX 311150Z VRB04KT 9999 FEW040 18/08 Q1018=
201907311120 METAR ESMX 311120Z VRB03KT 9999 SCT043 18/08 Q1018=
201907311050 METAR ESMX 311050Z 07004KT 360V140 9999 SCT038 17/08 Q1018=
201907311020 METAR ESMX 311020Z AUTO 03006KT 350V060 9999 SCT037/// 17/08 Q1018=
201907310950 METAR ESMX 310950Z AUTO 08005KT 020V120 9999 SCT035/// 17/07 Q1018=
201907310920 METAR ESMX 310920Z 05006KT 010V100 9999 SCT033 16/08 Q1018=
201907310850 METAR ESMX 310850Z 05006KT 020V100 9999 BKN031 17/09 Q1018=
201907310820 METAR ESMX 310820Z 05005KT 330V110 9999 FEW026 16/09 Q1018=
201907310750 METAR ESMX 310750Z 04007KT 010V090 9999 FEW026 16/09 Q1018=
201907310720 METAR ESMX 310720Z 06006KT 010V110 CAVOK 15/09 Q1018=
201907310650 METAR ESMX 310650Z 05007KT 020V100 CAVOK 14/09 Q1018=
201907310620 METAR ESMX 310620Z 06007KT 040V100 CAVOK 13/10 Q1018=
201907310550 METAR ESMX 310550Z 05007KT CAVOK 13/11 Q1018=
201907310520 METAR ESMX 310520Z 05007KT 020V080 CAVOK 12/12 Q1018=
201907310450 METAR ESMX 310450Z AUTO 06007KT 020V080 9999 NCD 12/11 Q1018=
201907310420 METAR ESMX 310420Z AUTO 05006KT 9999 NCD 11/11 Q1018=
201907310350 METAR ESMX 310350Z AUTO 04005KT 010V070 9999 NCD 11/11 Q1018=
201907310320 METAR ESMX 310320Z AUTO 04007KT 9999 SCT059/// 11/11 Q1018=
201907310250 METAR ESMX 310250Z AUTO 05007KT 9999 BKN061/// 12/11 Q1018=
201907310220 METAR ESMX 310220Z AUTO 07005KT 9999 OVC061/// 12/11 Q1018=
201907310150 METAR ESMX 310150Z AUTO 07003KT 020V150 9999 OVC061/// 12/11 Q1017=
201907310120 METAR ESMX 310120Z AUTO 07004KT 040V120 9999 OVC062/// 12/11 Q1017=
201907310050 METAR ESMX 310050Z AUTO 07004KT 030V110 9999 OVC062/// 12/11 Q1017=
201907310020 METAR ESMX 310020Z AUTO 04005KT 010V070 9999 OVC062/// 12/09 Q1017=
201907302350 METAR ESMX 302350Z AUTO 06005KT 030V110 9999 OVC062/// 13/09 Q1017=
201907302320 METAR ESMX 302320Z AUTO 07006KT 030V110 9999 OVC062/// 13/10 Q1017=
201907302250 METAR ESMX 302250Z AUTO 06006KT 020V090 9999 OVC061/// 13/10 Q1017=
201907302220 METAR ESMX 302220Z AUTO 06005KT 020V100 9999 OVC066/// 13/09 Q1017=
201907302150 METAR ESMX 302150Z AUTO 06005KT 030V100 9999 OVC066/// 13/09 Q1017=
201907302120 METAR ESMX 302120Z AUTO 06007KT 9999 BKN160/// 13/09 Q1017=
201907302050 METAR ESMX 302050Z AUTO 06007KT 020V100 9999 BKN040/// OVC066/// 13/08 Q1017=
201907302020 METAR ESMX 302020Z AUTO 06008KT 030V110 9999 OVC039/// 14/09 Q1017=
201907301950 METAR ESMX 301950Z AUTO 06007KT 020V110 9999 OVC038/// 14/11 Q1016=
201907301920 METAR ESMX 301920Z AUTO 06007KT 9999 OVC037/// 14/12 Q1016=
201907301850 METAR ESMX 301850Z AUTO 04008KT 010V080 9999 OVC038/// 14/14 Q1016=
201907301820 METAR ESMX 301820Z AUTO 05007KT 030V090 9999 FEW017/// SCT025/// OVC039/// 14/14 Q1016=
201907301750 METAR ESMX 301750Z AUTO 03006KT 350V070 9999 FEW016/// OVC032/// 14/14 Q1016=
201907301720 METAR ESMX 301720Z AUTO 06007KT 020V110 9999 FEW014/// OVC030/// 14/14 Q1016=
201907301650 METAR ESMX 301650Z AUTO 06007KT 9999 FEW016/// OVC026/// 14/14 Q1015=
201907301620 METAR ESMX 301620Z 07006KT 030V110 9999 SCT011 BKN015 14/14 Q1016=
201907301550 METAR ESMX 301550Z 04009KT 020V080 9999 BKN011 14/14 Q1015=
201907301520 METAR ESMX 301520Z 04009KT 020V080 9999 FEW007 BKN010 14/14 Q1015=
201907301450 METAR ESMX 301450Z 04010KT 010V070 9999 BKN008 14/14 Q1015=
201907301420 METAR ESMX 301420Z 05008KT 010V070 9999 BKN009 14/14 Q1015=
201907301350 METAR ESMX 301350Z 04007KT 020V110 9999 BKN008 14/14 Q1015=
201907301320 METAR ESMX 301320Z 05008KT 020V100 9999 BKN009 14/14 Q1015=
201907301250 METAR ESMX 301250Z 04009KT 010V070 9999 FEW007 BKN009 14/14 Q1015=
201907301220 METAR ESMX 301220Z 06009KT 030V100 9999 BKN009 14/14 Q1015=
201907301150 METAR COR ESMX 301150Z 04010KT 010V070 9999 BKN008 15/15 Q1015=
201907301120 METAR ESMX 301120Z 06006KT 030V100 9999 SCT011 BKN015 15/15 Q1015=
201907301050 METAR ESMX 301050Z 05008KT 020V100 9999 SCT007 BKN011 15/15 Q1014=
201907301020 METAR ESMX 301020Z AUTO 05006KT 010V100 9999 -RA FEW001/// BKN006/// BKN008/// 15/15 Q1014=
201907300950 METAR ESMX 300950Z AUTO 07007KT 030V140 3300 +RA OVC001/// 15/15 Q1014 REDZ=
201907300920 METAR ESMX 300920Z 08006KT 040V140 9000 BR SCT007 BKN009 16/16 Q1013=
201907300850 METAR COR ESMX 300850Z 07007KT 030V130 9999 BKN010 16/16 Q1013=
201907300820 METAR COR ESMX 300820Z 05008KT 020V080 9999 BKN008 17/17 Q1013=
201907300750 METAR ESMX 300750Z 07004KT 020V120 9999 FEW014 BKN029 17/17 Q1012=
201907300720 METAR ESMX 300720Z 07004KT 040V110 9999 BKN026 17/17 Q1012=
201907300650 METAR ESMX 300650Z 08006KT 020V140 9999 BKN022 16/16 Q1012=
201907300620 METAR ESMX 300620Z 07005KT 030V110 9999 -RA FEW002 BKN019 16/16 Q1012=
201907300550 METAR ESMX 300550Z 08004KT 050V120 6000 RA BKN016 16/16 Q1012=
201907300520 METAR COR ESMX 300520Z 04005KT 010V070 5000 RA BKN015 16/16 Q1012=
201907300450 METAR ESMX 300450Z AUTO 06006KT 020V080 9999 SCT007/// OVC012/// 16/16 Q1012=
201907300420 METAR ESMX 300420Z AUTO 08006KT 050V130 9999 -RA BKN005/// OVC007/// 17/17 Q1011 RERA=
201907300350 METAR ESMX 300350Z AUTO 05005KT 020V090 9999 FEW002/// SCT004/// BKN082/// 18/18 Q1011=
201907300320 METAR ESMX 300320Z AUTO 03003KT 350V060 2300 +RA BKN001/// BKN042/// OVC074/// 18/18 Q1011=
201907300250 METAR ESMX 300250Z AUTO 02003KT 340V050 9000 -RA SCT001/// OVC051/// 18/18 Q1012 REDZ=
201907300220 METAR ESMX 300220Z AUTO 07003KT 020V110 6000 +DZ FEW008/// SCT016/// BKN026/// 19/19 Q1012=
201907300150 METAR ESMX 300150Z AUTO 03006KT 9999 OVC009/// 19/19 Q1012=
201907300120 METAR ESMX 300120Z AUTO 02004KT 340V050 9999 OVC009/// 20/20 Q1011=
201907300050 METAR ESMX 300050Z AUTO VRB02KT 9999 OVC010/// 20/20 Q1011=
201907300020 METAR ESMX 300020Z AUTO VRB03KT 9999 BKN010/// OVC092/// 20/20 Q1011=
201907292350 METAR ESMX 292350Z AUTO 06004KT 010V120 9999 FEW012/// SCT092/// OVC120/// 20/20 Q1011=
201907292320 METAR ESMX 292320Z AUTO 07004KT 030V110 9999 SCT086/// BKN130/// 20/20 Q1011=
201907292250 METAR ESMX 292250Z AUTO 07004KT 030V100 9999 BKN074/// BKN130/// 21/21 Q1011=
201907292220 METAR ESMX 292220Z AUTO 05005KT 020V100 9999 FEW074/// OVC130/// 21/21 Q1012=
201907292150 METAR ESMX 292150Z AUTO 05004KT 020V110 9999 OVC130/// 21/20 Q1011=
201907292120 METAR ESMX 292120Z AUTO 08005KT 050V120 9999 BKN120/// 22/19 Q1011=
201907292050 METAR ESMX 292050Z AUTO 07004KT 030V120 9999 SCT076/// BKN110/// 22/19 Q1011 RERA=
201907292020 METAR ESMX 292020Z AUTO VRB03KT 9999 FEW080/// BKN110/// 22/20 Q1011=
201907291950 METAR ESMX 291950Z AUTO VRB03KT 9999 -RA FEW066/// SCT120/// 22/20 Q1011=
201907291920 METAR ESMX 291920Z AUTO 07003KT 9999 -RA FEW068/// 23/19 Q1011=
201907291850 METAR ESMX 291850Z AUTO VRB02KT 9999 SCT066/// BKN110/// 24/18 Q1011=
201907291820 METAR ESMX 291820Z AUTO VRB02KT 9999 -RA BKN059/// OVC120/// 24/18 Q1011 RERA=
201907291750 METAR ESMX 291750Z AUTO 18006KT 9999 BKN059/// 25/18 Q1010=
201907291720 METAR ESMX 291720Z AUTO 14006KT 110V170 9999 ////// 25/18 Q1010=
201907291650 METAR ESMX 291650Z AUTO 16004KT 120V200 9999 SCT070/// 26/17 Q1010=
201907291620 METAR ESMX 291620Z 03004KT 350V060 CAVOK 27/17 Q1010=
201907291550 METAR ESMX 291550Z 26004KT 240V300 CAVOK 27/17 Q1010=
201907291520 METAR ESMX 291520Z 25005KT CAVOK 28/17 Q1010=
201907291450 METAR ESMX 291450Z 23004KT 190V260 CAVOK 28/18 Q1010=
201907291420 METAR ESMX 291420Z 15005KT CAVOK 28/15 Q1010=
201907291350 METAR ESMX 291350Z 18005KT 120V200 CAVOK 28/17 Q1010=
201907291320 METAR ESMX 291320Z 15006KT 110V200 CAVOK 27/16 Q1011=
201907291250 METAR ESMX 291250Z VRB03KT CAVOK 28/15 Q1011=
201907291220 METAR ESMX 291220Z 06004KT 010V170 CAVOK 29/15 Q1011=
201907291150 METAR ESMX 291150Z 02004KT 320V060 CAVOK 28/16 Q1011=
201907291120 METAR ESMX 291120Z 04004KT 340V110 CAVOK 28/17 Q1011=
201907291050 METAR ESMX 291050Z 06005KT 010V110 CAVOK 28/16 Q1011=
201907291020 METAR ESMX 291020Z AUTO 06006KT 010V100 9999 FEW190/// 28/16 Q1011=
201907290950 METAR ESMX 290950Z AUTO 04007KT 010V090 9999 NCD 28/17 Q1011=
201907290920 METAR ESMX 290920Z 07006KT 020V100 CAVOK 28/17 Q1011=
201907290850 METAR ESMX 290850Z 04006KT 020V110 CAVOK 27/17 Q1011=
201907290820 METAR ESMX 290820Z 04007KT 010V080 CAVOK 26/18 Q1011=
201907290750 METAR ESMX 290750Z 04007KT 020V080 CAVOK 25/18 Q1011=
201907290720 METAR COR ESMX 290720Z 05007KT 020V080 CAVOK 24/18 Q1011=
201907290650 METAR ESMX 290650Z 04008KT 020V100 CAVOK 23/18 Q1011=
201907290620 METAR ESMX 290620Z 04008KT CAVOK 22/18 Q1011=
201907290550 METAR COR ESMX 290550Z 04007KT CAVOK 21/18 Q1011=
201907290520 METAR ESMX 290520Z AUTO 04007KT 020V080 9999 SCT070/// BKN098/// 21/18 Q1011=
201907290450 METAR ESMX 290450Z AUTO 04007KT 9999 SCT070/// BKN098/// 20/18 Q1011=
201907290420 METAR ESMX 290420Z AUTO 03007KT 9999 BKN094/// 20/18 Q1011=
201907290350 METAR ESMX 290350Z AUTO 03007KT 9999 BKN090/// 19/19 Q1011=
201907290320 METAR ESMX 290320Z AUTO 03005KT 9999 SCT092/// BKN100/// 19/19 Q1011=
201907290250 METAR ESMX 290250Z AUTO 04005KT 9999 SCT100/// BKN120/// 19/18 Q1011=
201907290220 METAR ESMX 290220Z AUTO 04004KT 9999 SCT110/// 19/18 Q1011=
201907290150 METAR ESMX 290150Z AUTO 05004KT 020V080 9999 NCD 19/19 Q1011=
201907290120 METAR ESMX 290120Z AUTO 05004KT 020V090 9999 NCD 19/17 Q1011=
201907290050 METAR ESMX 290050Z AUTO 04005KT 9999 FEW053/// 19/17 Q1011=
201907290020 METAR ESMX 290020Z AUTO 03005KT 9999 SCT055/// 19/16 Q1011=
201907282350 METAR ESMX 282350Z AUTO 04007KT 9999 NCD 20/16 Q1011=
201907282320 METAR ESMX 282320Z AUTO 04006KT 9999 FEW057/// 19/16 Q1011=
201907282250 METAR ESMX 282250Z AUTO 01004KT 340V050 9999 NCD 19/15 Q1011=
201907282220 METAR ESMX 282220Z AUTO 06004KT 9999 NCD 20/15 Q1011=
201907282150 METAR ESMX 282150Z AUTO 03003KT 350V070 9999 NCD 20/14 Q1011=
201907282120 METAR ESMX 282120Z AUTO 06004KT 020V090 9999 NCD 20/14 Q1011=
201907282050 METAR ESMX 282050Z AUTO 06004KT 030V100 9999 NCD 21/14 Q1011=
201907282020 METAR ESMX 282020Z AUTO 07005KT 020V110 9999 FEW078/// 21/14 Q1010=
201907281950 METAR ESMX 281950Z 04004KT 010V090 CAVOK 22/14 Q1011=
201907281920 METAR ESMX 281920Z 06005KT CAVOK 23/14 Q1010=
201907281850 METAR ESMX 281850Z 07005KT 030V110 CAVOK 24/14 Q1010=
201907281820 METAR COR ESMX 281820Z 07006KT 030V110 CAVOK 24/13 Q1010=
201907281750 METAR ESMX 281750Z 05006KT 360V080 CAVOK 25/14 Q1010=
201907281720 METAR ESMX 281720Z 08007KT 040V120 CAVOK 26/14 Q1010=
201907281650 METAR ESMX 281650Z AUTO 11007KT 050V160 9999 NCD 26/13 Q1009=
201907281620 METAR ESMX 281620Z 08007KT 030V130 CAVOK 26/13 Q1009=
201907281550 METAR ESMX 281550Z 09008KT 020V140 CAVOK 27/13 Q1009=
201907281520 METAR ESMX 281520Z 09008G19KT 040V140 CAVOK 27/13 Q1009=
201907281450 METAR ESMX 281450Z 07009KT 030V120 CAVOK 27/13 Q1009=
201907281420 METAR ESMX 281420Z 08010KT 040V120 CAVOK 26/13 Q1009=
201907281350 METAR ESMX 281350Z 09008KT 050V150 9999 FEW052 27/14 Q1009=
201907281320 METAR ESMX 281320Z 07009KT 030V100 9999 FEW050 27/14 Q1010=
201907281250 METAR ESMX 281250Z 11008KT 060V150 9999 SCT045 27/15 Q1010=
201907281220 METAR ESMX 281220Z 07010KT 030V110 9999 SCT042 26/15 Q1010=
201907281150 METAR ESMX 281150Z 09008KT 020V130 9999 FEW038 25/15 Q1010=
201907281120 METAR ESMX 281120Z 08008KT 020V120 9999 SCT038 24/16 Q1010=
201907281050 METAR ESMX 281050Z 10008KT 050V160 9999 BKN035 24/16 Q1010=
201907281020 METAR ESMX 281020Z AUTO VRB09KT 9999 SCT034/// 24/16 Q1010=
201907280950 METAR ESMX 280950Z AUTO 07009KT 020V110 9999 FEW033/// 24/17 Q1010=
201907280920 METAR ESMX 280920Z AUTO 05009KT 010V100 9999 SCT028/// BKN037/// BKN150/// 24/17 Q1010=
201907280850 METAR ESMX 280850Z 07007KT 360V120 9999 BKN026 23/17 Q1010=
201907280820 METAR ESMX 280820Z 06008KT 020V110 9999 BKN022 23/19 Q1011=
201907280750 METAR ESMX 280750Z 06009KT 010V100 9999 BKN020 23/20 Q1011=
201907280720 METAR ESMX 280720Z 06009KT 030V110 9999 SCT017 22/21 Q1011=
201907280650 METAR ESMX 280650Z 05008KT 020V100 9999 FEW010 SCT059 21/21 Q1011=
201907280620 METAR COR ESMX 280620Z 06008KT 030V100 9999 FEW010 BKN059 20/19 Q1011=
201907280550 METAR ESMX 280550Z 05008KT 9999 FEW067 SCT085 20/20 Q1011=
201907280520 METAR COR ESMX 280520Z 06006KT 030V100 9999 FEW009 SCT068 19/19 Q1011=
201907280450 METAR ESMX 280450Z AUTO 05007KT 9999 SCT061/// 19/19 Q1011=
201907280420 METAR ESMX 280420Z AUTO 04006KT 020V080 9999 FEW031/// SCT072/// 19/19 Q1011=
201907280350 METAR ESMX 280350Z AUTO 04007KT 020V080 9999 RA FEW000/// BKN090/// 19/19 Q1011 RERA=
201907280320 METAR ESMX 280320Z AUTO 04008KT 9999 BKN066/// 19/19 Q1011=
201907280250 METAR ESMX 280250Z AUTO 05008KT 020V080 9999 RA FEW055/// OVC078/// 19/19 Q1012=
201907280220 METAR ESMX 280220Z AUTO 05006KT 020V080 9999 BKN088/// 19/19 Q1012=
201907280150 METAR ESMX 280150Z AUTO 05007KT 9999 BKN096/// OVC110/// 19/19 Q1012=
201907280120 METAR ESMX 280120Z AUTO 05007KT 9999 BKN098/// BKN120/// 19/19 Q1012=
201907280050 METAR ESMX 280050Z AUTO 05005KT 020V080 9999 FEW098/// SCT120/// 19/19 Q1012=
201907280020 METAR ESMX 280020Z AUTO 04005KT 010V070 9999 FEW100/// 19/19 Q1012=
201907272350 METAR ESMX 272350Z AUTO 05006KT 030V100 9999 SCT130/// 20/20 Q1012=
201907272320 METAR ESMX 272320Z AUTO 05005KT 020V090 9999 BKN038/// OVC130/// 20/20 Q1013=
201907272250 METAR ESMX 272250Z AUTO 05007KT 020V080 9999 SCT044/// BKN130/// 20/20 Q1013=
201907272220 METAR ESMX 272220Z AUTO 06009KT 030V100 9999 SCT038/// BKN051/// BKN110/// 21/18 Q1013=
201907272150 METAR ESMX 272150Z AUTO 05008KT 020V090 9999 SCT045/// BKN078/// OVC120/// 22/18 Q1013=
201907272120 METAR ESMX 272120Z AUTO 05007KT 020V100 9999 -DZ OVC082/// 22/17 Q1013=
201907272050 METAR ESMX 272050Z AUTO 06008KT 030V100 9999 OVC098/// 23/17 Q1013=
201907272020 METAR ESMX 272020Z AUTO 05009KT 9999 BKN094/// 23/17 Q1013=
201907271950 METAR ESMX 271950Z AUTO 03008KT 9999 SCT092/// 23/17 Q1013=
201907271920 METAR ESMX 271920Z AUTO 05009KT 020V100 9999 FEW086/// 23/17 Q1013=
201907271850 METAR ESMX 271850Z AUTO 06008KT 030V100 9999 OVC092/// 24/17 Q1013=
201907271820 METAR ESMX 271820Z AUTO 06010KT 030V100 9999 SCT094/// 24/17 Q1013=
201907271750 METAR ESMX 271750Z AUTO 08007KT 030V120 9999 FEW040/// 25/17 Q1013=
201907271720 METAR ESMX 271720Z AUTO 08009KT 040V140 9999 SCT088/// 25/17 Q1013=
201907271650 METAR ESMX 271650Z AUTO 07009KT 020V120 9999 FEW042/// 26/16 Q1013=
201907271620 METAR ESMX 271620Z AUTO 07009G20KT 040V110 9999 FEW041/// SCT062/// 26/17 Q1013=
201907271550 METAR ESMX 271550Z AUTO 09008KT 020V140 9999 SCT043/// 25/17 Q1013=
201907271520 METAR ESMX 271520Z AUTO 08009KT 020V120 9999 FEW049/// SCT068/// BKN090/// 25/17 Q1014=
201907271450 METAR ESMX 271450Z AUTO 05011KT 020V110 9999 RA SCT049/// BKN094/// 26/16 Q1014=
201907271420 METAR ESMX 271420Z AUTO 06011KT 010V100 9999 FEW044/// SCT098/// 27/16 Q1014=
201907271350 METAR ESMX 271350Z AUTO 05014G26KT 9999 -RA SCT090/// 26/16 Q1015=
201907271320 METAR ESMX 271320Z AUTO 05013KT 030V090 9999 SCT051/// 26/16 Q1015=
201907271250 METAR ESMX 271250Z AUTO 05012KT 020V100 9999 FEW062/// 27/16 Q1015=
201907271220 METAR ESMX 271220Z 05013KT 020V090 9999 SCT045 26/15 Q1015=
201907271150 METAR ESMX 271150Z 07010KT 030V110 9999 SCT048 27/15 Q1016=
201907271120 METAR ESMX 271120Z 06010KT 030V120 9999 SCT045 26/15 Q1016=
201907271050 METAR ESMX 271050Z 06010KT 010V090 9999 SCT045 27/15 Q1016=
201907271020 METAR ESMX 271020Z AUTO 06009KT 030V110 9999 BKN044/// 26/15 Q1016=
201907270950 METAR ESMX 270950Z AUTO 06012KT 020V100 9999 BKN040/// 25/15 Q1017=
201907270920 METAR ESMX 270920Z AUTO 04008KT 360V100 9999 BKN039/// 25/15 Q1017=
201907270850 METAR ESMX 270850Z AUTO 06010KT 030V100 9999 BKN037/// 24/15 Q1017=
201907270820 METAR ESMX 270820Z AUTO 05010KT 9999 FEW026/// BKN035/// 23/16 Q1017=
201907270750 METAR ESMX 270750Z AUTO 04011KT 020V100 9999 FEW022/// 22/17 Q1017=
201907270720 METAR ESMX 270720Z AUTO 04010KT 9999 FEW019/// SCT025/// 22/18 Q1017=
201907270650 METAR ESMX 270650Z AUTO 04010KT 010V070 9999 OVC016/// 21/19 Q1018=
201907270620 METAR ESMX 270620Z AUTO 04009KT 9999 BKN015/// 20/20 Q1018=
201907270550 METAR ESMX 270550Z AUTO 05009KT 020V090 9999 SCT012/// 20/20 Q1017=
201907270520 METAR ESMX 270520Z AUTO 04009KT 020V090 9999 BKN011/// 20/20 Q1017=
201907270450 METAR ESMX 270450Z AUTO 05007KT 030V110 9999 SCT011/// 19/19 Q1017=
201907270420 METAR ESMX 270420Z AUTO 06008KT 030V090 9999 BKN011/// BKN013/// 19/19 Q1017=
201907270350 METAR ESMX 270350Z AUTO 05008KT 030V100 9999 OVC009/// 18/18 Q1017=
201907270320 METAR ESMX 270320Z AUTO 05008KT 9999 BKN008/// OVC010/// 18/18 Q1017=
201907270250 METAR ESMX 270250Z AUTO 04007KT 020V080 9999 OVC007/// 18/18 Q1017=
201907270220 METAR ESMX 270220Z AUTO 05008KT 9999 BKN006/// 17/17 Q1017=
201907270150 METAR ESMX 270150Z AUTO 04007KT 9999 NCD 17/17 Q1017=
201907270120 METAR ESMX 270120Z AUTO 04006KT 010V080 9999 NCD 17/17 Q1017=
201907270050 METAR ESMX 270050Z AUTO 04007KT 9999 NCD 17/17 Q1018=
201907270020 METAR ESMX 270020Z AUTO 04006KT 9999 NCD 17/17 Q1018=
201907262350 METAR ESMX 262350Z AUTO 06005KT 020V080 9999 NCD 18/15 Q1018=
201907262320 METAR ESMX 262320Z AUTO 06005KT 020V090 9999 NCD 18/14 Q1018=
201907262250 METAR ESMX 262250Z 06005KT 030V100 CAVOK 19/14 Q1018=
201907262220 METAR ESMX 262220Z 03005KT 340V060 CAVOK 20/14 Q1018=
201907262150 METAR ESMX 262150Z 05006KT 010V080 CAVOK 20/14 Q1018=
201907262120 METAR ESMX 262120Z 04004KT 360V130 CAVOK 20/14 Q1018=
201907262050 METAR ESMX 262050Z 07004KT 030V100 CAVOK 21/14 Q1018=
201907262020 METAR ESMX 262020Z 07004KT 030V130 CAVOK 21/14 Q1018=
201907261950 METAR ESMX 261950Z AUTO 07003KT 020V120 9999 NCD 22/14 Q1018=
201907261920 METAR ESMX 261920Z AUTO 07005KT 030V120 9999 NCD 22/13 Q1018=
201907261850 METAR ESMX 261850Z AUTO 07005KT 040V120 9999 NCD 23/13 Q1018=
201907261820 METAR ESMX 261820Z AUTO 06005KT 020V100 9999 NCD 24/13 Q1018=
201907261750 METAR ESMX 261750Z AUTO 06006KT 030V110 9999 NCD 25/13 Q1018=
201907261720 METAR ESMX 261720Z AUTO 07008KT 030V110 9999 FEW061/// 25/12 Q1018=
201907261650 METAR ESMX 261650Z AUTO 06007KT 020V100 9999 NCD 26/12 Q1018=
201907261620 METAR ESMX 261620Z 08008KT 040V130 CAVOK 26/12 Q1018=
201907261550 METAR ESMX 261550Z 07009KT 040V120 CAVOK 27/13 Q1018=
201907261520 METAR ESMX 261520Z 06008KT 010V110 CAVOK 27/12 Q1018=
201907261450 METAR ESMX 261450Z 07008KT 040V110 CAVOK 27/11 Q1018=
201907261420 METAR ESMX 261420Z 07009KT 030V130 CAVOK 27/11 Q1018=
201907261350 METAR ESMX 261350Z 07008KT 030V130 CAVOK 28/13 Q1019=
201907261320 METAR ESMX 261320Z 06008KT 030V120 CAVOK 27/13 Q1019=
201907261250 METAR ESMX 261250Z 06007KT 020V140 CAVOK 28/13 Q1019=
201907261220 METAR ESMX 261220Z 07008KT 020V110 CAVOK 28/12 Q1019=
201907261150 METAR ESMX 261150Z 05009KT 030V100 CAVOK 29/11 Q1019=
201907261120 METAR ESMX 261120Z 06009KT 020V110 CAVOK 29/12 Q1019=
201907261050 METAR ESMX 261050Z 03009KT 360V070 CAVOK 28/12 Q1019=
201907261020 METAR ESMX 261020Z 04009KT 010V080 9999 SCT053TCU 27/15 Q1019=
201907260950 METAR ESMX 260950Z 04008KT 020V080 CAVOK 27/15 Q1019=
201907260920 METAR ESMX 260920Z 03007KT 010V070 CAVOK 27/15 Q1020=
201907260850 METAR ESMX 260850Z 04005KT 350V100 CAVOK 27/16 Q1020=
201907260820 METAR ESMX 260820Z 03005KT 350V100 CAVOK 26/16 Q1020=
201907260750 METAR ESMX 260750Z 06005KT 030V100 CAVOK 25/16 Q1020=
201907260720 METAR ESMX 260720Z 07003KT 010V120 CAVOK 25/17 Q1020=
201907260650 METAR ESMX 260650Z VRB03KT CAVOK 24/18 Q1020=
201907260620 METAR COR ESMX 260620Z VRB03KT CAVOK 23/17 Q1020=
201907260550 METAR ESMX 260550Z AUTO 05003KT 9999 NCD 22/19 Q1020=
201907260520 METAR ESMX 260520Z VRB03KT CAVOK 21/21 Q1020=
201907260450 METAR ESMX 260450Z VRB03KT CAVOK 20/20 Q1020=
201907260420 METAR ESMX 260420Z 35002KT CAVOK 17/17 Q1020=
201907260350 METAR COR ESMX 260350Z VRB01KT CAVOK 16/16 Q1020=
201907260320 METAR ESMX 260320Z AUTO 01002KT 9999 NCD 14/14 Q1020=
201907260250 METAR ESMX 260250Z AUTO VRB02KT 9999 BCFG NCD 15/15 Q1020=
201907260220 METAR ESMX 260220Z AUTO 00000KT 9999 NCD 14/14 Q1020=
201907260150 METAR ESMX 260150Z AUTO 00000KT 9999 NCD 15/15 Q1020=
201907260120 METAR ESMX 260120Z AUTO 00000KT 9999 NCD 15/15 Q1020=
201907260050 METAR ESMX 260050Z AUTO 00000KT 9999 NCD 15/15 Q1020=
201907260020 METAR ESMX 260020Z AUTO 06002KT 9999 NCD 16/16 Q1020=
201907252350 METAR ESMX 252350Z AUTO 00000KT 9999 NCD 16/16 Q1020=
201907252320 METAR ESMX 252320Z 20003KT CAVOK 17/17 Q1020=
201907252250 METAR ESMX 252250Z 15003KT CAVOK 19/19 Q1020=
201907252220 METAR ESMX 252220Z 16004KT CAVOK 21/17 Q1020=
201907252150 METAR ESMX 252150Z 16004KT CAVOK 22/18 Q1020=
201907252120 METAR ESMX 252120Z AUTO 16005KT 9999 NCD 22/18 Q1020=
201907252050 METAR ESMX 252050Z AUTO 15004KT 9999 NCD 22/17 Q1020=
201907252020 METAR ESMX 252020Z AUTO 11003KT 070V140 9999 NCD 24/16 Q1020=
201907251950 METAR ESMX 251950Z AUTO 00000KT 9999 NCD 21/18 Q1020=
201907251920 METAR ESMX 251920Z AUTO 00000KT 9999 NCD 24/17 Q1020=
201907251850 METAR ESMX 251850Z AUTO 31002KT 9999 NCD 26/16 Q1020=
201907251820 METAR ESMX 251820Z 32003KT CAVOK 28/15 Q1020=
201907251750 METAR ESMX 251750Z 32003KT CAVOK 28/15 Q1020=
201907251720 METAR ESMX 251720Z 28004KT 250V320 CAVOK 29/14 Q1020=
201907251650 METAR ESMX 251650Z 34004KT CAVOK 29/13 Q1020=
201907251620 METAR ESMX 251620Z 34004KT 310V040 CAVOK 29/14 Q1020=
201907251550 METAR ESMX 251550Z 33004KT 300V030 CAVOK 29/12 Q1020=
201907251520 METAR ESMX 251520Z 01003KT 340V080 CAVOK 29/12 Q1020=
201907251450 METAR ESMX 251450Z 02004KT 340V100 CAVOK 29/13 Q1020=
201907251420 METAR ESMX 251420Z 02004KT 350V090 CAVOK 29/13 Q1020=
201907251350 METAR ESMX 251350Z 35006KT 320V050 CAVOK 28/13 Q1021=
201907251320 METAR ESMX 251320Z VRB03KT CAVOK 28/12 Q1021=
201907251250 METAR ESMX 251250Z 02004KT 350V110 CAVOK 28/12 Q1021=
201907251220 METAR ESMX 251220Z 09005KT 040V140 CAVOK 28/12 Q1021=
201907251150 METAR ESMX 251150Z 05006KT 020V110 CAVOK 27/12 Q1021=
201907251120 METAR ESMX 251120Z 36004KT 310V080 CAVOK 27/08 Q1021=
201907251050 METAR ESMX 251050Z 04005KT 360V130 CAVOK 27/09 Q1021=
201907251020 METAR ESMX 251020Z AUTO VRB04KT 9999 NCD 26/09 Q1021=
201907250950 METAR ESMX 250950Z AUTO 34005KT 320V030 9999 NCD 26/10 Q1021=
201907250920 METAR ESMX 250920Z 36004KT 330V060 CAVOK 25/14 Q1021=
201907250850 METAR ESMX 250850Z 01004KT 340V050 CAVOK 25/15 Q1021=
201907250820 METAR ESMX 250820Z 02004KT 340V060 CAVOK 24/17 Q1021=
201907250750 METAR ESMX 250750Z 02004KT 340V060 CAVOK 23/17 Q1022=
201907250720 METAR ESMX 250720Z VRB01KT CAVOK 23/17 Q1022=
201907250650 METAR ESMX 250650Z VRB02KT CAVOK 22/18 Q1021=
201907250620 METAR ESMX 250620Z 26003KT CAVOK 21/19 Q1022=
201907250550 METAR ESMX 250550Z VRB03KT CAVOK 20/20 Q1021=
201907250520 METAR ESMX 250520Z 00000KT CAVOK 19/19 Q1021=
201907250450 METAR ESMX 250450Z 00000KT CAVOK 18/18 Q1021=
201907250420 METAR ESMX 250420Z 00000KT 1400 R01/1200N R19/1400N BCFG NSC 15/15 Q1021=
201907250350 METAR ESMX 250350Z AUTO 00000KT 9999 BCFG NCD 13/13 Q1021=
201907250320 METAR ESMX 250320Z AUTO 19001KT 9000 BCFG NCD 13/13 Q1021=
201907250250 METAR ESMX 250250Z AUTO 00000KT 0200 R01/P2000N R19/P2000N BCFG NCD 14/14 Q1021=
201907250220 METAR ESMX 250220Z AUTO 00000KT 9999 BR SCT037/// 15/15 Q1021=
201907250150 METAR ESMX 250150Z AUTO 17002KT 9999 BR BKN033/// 15/15 Q1021=
201907250120 METAR ESMX 250120Z AUTO 00000KT 6000 BR SCT032/// 15/15 Q1021=
201907250050 METAR ESMX 250050Z AUTO VRB01KT 9999 NCD 16/16 Q1021=
201907250020 METAR ESMX 250020Z AUTO VRB01KT 9999 SCT051/// 17/17 Q1021=
201907242350 METAR ESMX 242350Z AUTO 00000KT 9999 OVC051/// 17/17 Q1021=
201907242320 METAR ESMX 242320Z 18003KT CAVOK 18/18 Q1021=
201907242250 METAR ESMX 242250Z AUTO 18005KT 9999 OVC049/// 18/18 Q1021=
201907242220 METAR ESMX 242220Z AUTO 17004KT 9999 BKN051/// 18/18 Q1021=
201907242150 METAR ESMX 242150Z AUTO 18004KT 9999 NCD 17/17 Q1021=
201907242120 METAR ESMX 242120Z AUTO 16004KT 9999 NCD 20/20 Q1021=
201907242050 METAR ESMX 242050Z AUTO 15004KT 9999 FEW048/// 20/20 Q1020=
201907242020 METAR ESMX 242020Z AUTO 16004KT 9999 NCD 20/20 Q1021=
201907241950 METAR ESMX 241950Z AUTO 18004KT 9999 NCD 19/19 Q1020=
201907241920 METAR ESMX 241920Z AUTO 15005KT 120V180 9999 NCD 22/18 Q1020=
201907241850 METAR ESMX 241850Z AUTO 15003KT 9999 NCD 22/16 Q1020=
201907241820 METAR ESMX 241820Z AUTO VRB03KT 9999 NCD 24/15 Q1019=
201907241750 METAR ESMX 241750Z 16004KT CAVOK 24/14 Q1019=
201907241720 METAR ESMX 241720Z 12003KT 060V170 CAVOK 25/14 Q1019=
201907241650 METAR ESMX 241650Z AUTO 05006KT 020V100 9999 NCD 25/14 Q1019=
201907241620 METAR ESMX 241620Z VRB03KT 9999 FEW048 24/13 Q1019=
201907241550 METAR ESMX 241550Z 03004KT 350V120 CAVOK 25/13 Q1019=
201907241520 METAR ESMX 241520Z 04004KT 330V110 CAVOK 25/13 Q1019=
201907241450 METAR ESMX 241450Z AUTO 05005KT 360V100 9999 SCT051/// 25/13 Q1019=
201907241420 METAR ESMX 241420Z AUTO 06005KT 030V110 9999 FEW051/// 25/13 Q1019=
201907241350 METAR ESMX 241350Z AUTO 02005KT 320V130 9999 FEW051/// 25/14 Q1019=
201907241320 METAR ESMX 241320Z AUTO VRB04KT 9999 FEW051/// 25/14 Q1020=
201907241250 METAR ESMX 241250Z 06006KT 360V110 9999 BKN049 24/14 Q1020=
201907241220 METAR ESMX 241220Z 04005KT 340V110 9999 BKN048 25/14 Q1020=
201907241150 METAR ESMX 241150Z 03006KT 350V110 9999 BKN048 24/14 Q1020=
201907241120 METAR ESMX 241120Z 08004KT 020V160 9999 BKN046 24/15 Q1020=
201907241050 METAR ESMX 241050Z 36004KT 340V060 9999 BKN045 23/14 Q1020=
201907241020 METAR ESMX 241020Z AUTO 04004KT 340V130 9999 OVC044/// 23/14 Q1020=
201907240950 METAR ESMX 240950Z 01004KT 310V060 9999 BKN042 23/14 Q1020=
201907240920 METAR ESMX 240920Z 03005KT 350V090 9999 BKN040 23/15 Q1020=
201907240850 METAR ESMX 240850Z 03004KT 340V110 9999 SCT042 23/14 Q1020=
201907240820 METAR ESMX 240820Z 05004KT 360V120 9999 SCT043 22/14 Q1020=
201907240750 METAR ESMX 240750Z 04005KT 340V080 CAVOK 22/14 Q1020=
201907240720 METAR ESMX 240720Z 05005KT CAVOK 21/16 Q1019=
201907240650 METAR ESMX 240650Z 06005KT CAVOK 21/17 Q1019=
201907240620 METAR ESMX 240620Z 04005KT 020V080 CAVOK 21/19 Q1019=
201907240550 METAR COR ESMX 240550Z 06004KT CAVOK 20/20 Q1019=
201907240520 METAR ESMX 240520Z VRB01KT 9999 FEW045 18/18 Q1019=
201907240450 METAR ESMX 240450Z 00000KT CAVOK 16/16 Q1019=
201907240420 METAR ESMX 240420Z 30001KT 9999 3500N R01/P2000N R19/0650U BCFG NSC 14/14 Q1019=
201907240350 METAR COR ESMX 240350Z 26001KT 9999 3500N BCFG NSC 13/13 Q1019=
201907240320 METAR ESMX 240320Z AUTO 00000KT 4300 BCFG NCD 13/13 Q1019=
201907240250 METAR ESMX 240250Z AUTO 24002KT 9999 BCFG NCD 13/13 Q1019=
201907240220 METAR ESMX 240220Z AUTO 00000KT 0400 R01/P2000D R19/P2000N BCFG NCD 13/13 Q1019=
201907240150 METAR ESMX 240150Z AUTO 00000KT 9999 BR NCD 14/14 Q1019=
201907240120 METAR ESMX 240120Z AUTO 30002KT 9999 NCD 14/14 Q1019=
201907240050 METAR ESMX 240050Z AUTO 01003KT 9999 NCD 15/15 Q1019=
201907240020 METAR ESMX 240020Z 35003KT CAVOK 15/15 Q1019=
201907232350 METAR ESMX 232350Z 30003KT CAVOK 16/16 Q1019=
201907232320 METAR ESMX 232320Z 29004KT CAVOK 17/17 Q1019=
201907232250 METAR ESMX 232250Z AUTO 29004KT 9999 NCD 17/17 Q1019=
201907232220 METAR ESMX 232220Z AUTO 29003KT 9999 NCD 17/17 Q1019=
201907232150 METAR ESMX 232150Z AUTO 28003KT 9999 NCD 17/17 Q1019=
201907232120 METAR ESMX 232120Z 26004KT CAVOK 17/17 Q1019=
201907232050 METAR ESMX 232050Z 24004KT CAVOK 17/17 Q1019=
201907232020 METAR COR ESMX 232020Z 25004KT CAVOK 17/17 Q1018=
201907231950 METAR ESMX 231950Z 26003KT CAVOK 19/19 Q1018=
201907231920 METAR ESMX 231920Z 27003KT CAVOK 20/20 Q1018=
201907231850 METAR ESMX 231850Z 27005KT CAVOK 21/19 Q1018=
201907231820 METAR ESMX 231820Z 27006KT 250V320 CAVOK 22/18 Q1018=
201907231750 METAR ESMX 231750Z 27007KT 9999 FEW045 22/18 Q1018=
201907231720 METAR ESMX 231720Z 26007KT 9999 FEW045 22/18 Q1018=
201907231650 METAR ESMX 231650Z 27007KT 240V300 9999 BKN046 22/18 Q1018=
201907231620 METAR ESMX 231620Z 27008KT 9999 FEW021 BKN045 22/19 Q1018=
201907231550 METAR ESMX 231550Z 25006KT 210V280 9999 FEW030 BKN044 22/18 Q1018=
201907231520 METAR ESMX 231520Z 27009KT 9999 FEW030 BKN045 22/19 Q1018=
201907231450 METAR ESMX 231450Z 27007KT 240V300 9999 SCT026 BKN042 22/18 Q1018=
201907231420 METAR ESMX 231420Z 29007KT 250V310 9999 SCT024 BKN040 22/18 Q1018=
201907231350 METAR ESMX 231350Z 28007KT 250V310 9999 SCT020 BKN040 22/19 Q1018=
201907231320 METAR ESMX 231320Z 26007KT 9999 BKN035 21/21 Q1018=
201907231250 METAR ESMX 231250Z 27006KT 9999 BKN040 21/21 Q1018=
201907231220 METAR ESMX 231220Z 26008KT 9999 FEW017 BKN040 21/21 Q1018=
201907231150 METAR ESMX 231150Z 28011KT 9999 SCT016 BKN031 21/20 Q1018=
201907231120 METAR ESMX 231120Z 26008KT 9999 SCT015 BKN027 20/20 Q1018=
201907231050 METAR ESMX 231050Z 26003KT 200V300 9999 FEW011 SCT014 BKN020 20/20 Q1018=
201907231020 METAR ESMX 231020Z 26005KT 9999 SCT011 BKN021 19/19 Q1018=
201907230950 METAR ESMX 230950Z 29004KT 250V330 9999 FEW010 BKN016 20/20 Q1018=
201907230920 METAR ESMX 230920Z 28006KT 250V310 9999 BKN008 19/19 Q1018=
201907230850 METAR ESMX 230850Z 27005KT 250V320 9999 BKN008 19/19 Q1018=
201907230820 METAR ESMX 230820Z AUTO 23005KT 210V270 6000 BR FEW005/// SCT007/// OVC011/// 18/18 Q1018=
201907230750 METAR ESMX 230750Z 26005KT 5000 -DZ BKN005 18/18 Q1018=
201907230720 METAR ESMX 230720Z 24005KT 210V280 5000 -DZ BKN004 OVC007 17/17 Q1017=
201907230650 METAR ESMX 230650Z 22006KT 3500 -DZ VV004 17/17 Q1017=
201907230620 METAR ESMX 230620Z 22005KT 2500 DZ VV003 16/16 Q1017=
201907230550 METAR COR ESMX 230550Z 20005KT 2500 -DZ VV002 16/16 Q1017=
201907230520 METAR COR ESMX 230520Z 20005KT 5000 -DZ OVC004 15/15 Q1017=
201907230450 METAR COR ESMX 230450Z 19005KT 3000 DZ BKN002 OVC004 15/15 Q1017=
201907230420 METAR ESMX 230420Z AUTO 18005KT 5000 -DZ VV004 15/15 Q1017=
201907230350 METAR ESMX 230350Z AUTO 18006KT 1700 DZ VV002 15/15 Q1017 REDZ=
201907230320 METAR ESMX 230320Z AUTO 18005KT 4000 BR VV003 14/14 Q1017 REDZ=
201907230250 METAR ESMX 230250Z AUTO 19006KT 2100 BR VV002 14/14 Q1017=
201907230220 METAR ESMX 230220Z AUTO 17006KT 6000 BR VV003 14/14 Q1017 REDZ=
201907230150 METAR ESMX 230150Z AUTO 18006KT 7000 BR VV005 14/14 Q1017 REDZ=
201907230120 METAR ESMX 230120Z AUTO 18006KT 4500 BR VV004 14/14 Q1017 REDZ=
201907230050 METAR ESMX 230050Z AUTO 18005KT 5000 BR VV006 14/14 Q1017=
201907230020 METAR ESMX 230020Z AUTO 19005KT 3900 -DZ BKN008/// OVC011/// 14/14 Q1018=
201907222350 METAR ESMX 222350Z AUTO 20004KT 9999 -DZ BKN010/// OVC013/// 14/14 Q1018 RERA=
201907222320 METAR ESMX 222320Z AUTO 18003KT 9999 BKN009/// BKN015/// OVC049/// 15/15 Q1018=
201907222250 METAR ESMX 222250Z AUTO 20004KT 9999 -DZ SCT009/// BKN012/// OVC051/// 15/15 Q1018=
201907222220 METAR ESMX 222220Z AUTO 23004KT 9999 -DZ SCT010/// BKN013/// OVC064/// 15/15 Q1018=
201907222150 METAR ESMX 222150Z AUTO 18003KT 9999 OVC070/// 15/15 Q1018=
201907222120 METAR ESMX 222120Z AUTO VRB02KT 9999 OVC080/// 15/14 Q1018=
201907222050 METAR ESMX 222050Z AUTO 23003KT 9999 OVC078/// 15/15 Q1018=
201907222020 METAR ESMX 222020Z AUTO VRB03KT 9999 OVC086/// 15/13 Q1018=
201907221950 METAR ESMX 221950Z AUTO VRB03KT 9999 BKN096/// BKN150/// 15/12 Q1018=
201907221920 METAR ESMX 221920Z AUTO 23003KT 200V270 9999 FEW160/// 15/11 Q1018=
201907221850 METAR ESMX 221850Z AUTO 26004KT 9999 NCD 16/11 Q1018=
201907221820 METAR ESMX 221820Z AUTO 23005KT 9999 NCD 17/11 Q1018=
201907221750 METAR ESMX 221750Z AUTO 23007KT 210V270 9999 FEW032/// 17/10 Q1018=
201907221720 METAR ESMX 221720Z AUTO 25006KT 210V280 9999 FEW096/// 17/10 Q1018=
201907221650 METAR ESMX 221650Z AUTO 24009KT 9999 NCD 18/10 Q1018=
201907221620 METAR COR ESMX 221620Z 25010KT 9999 FEW038 19/10 Q1018=
201907221550 METAR ESMX 221550Z 25010KT 9999 FEW096 19/10 Q1018=
201907221520 METAR ESMX 221520Z 26009KT 230V290 9999 FEW040 BKN090 19/10 Q1018=
201907221450 METAR ESMX 221450Z 27010KT 240V300 9999 FEW041 BKN094 19/11 Q1018=
201907221420 METAR ESMX 221420Z 25010KT 210V280 9999 FEW050 SCT090 19/11 Q1018=
201907221350 METAR ESMX 221350Z 25012KT 9999 SCT040 20/11 Q1018=
201907221320 METAR ESMX 221320Z 28010KT 9999 SCT042 19/11 Q1018=
201907221250 METAR ESMX 221250Z 26011KT 230V300 9999 FEW043 20/10 Q1018=
201907221220 METAR ESMX 221220Z 26010KT 9999 SCT043 19/10 Q1018=
201907221150 METAR ESMX 221150Z 27012KT 230V300 9999 BKN043 20/11 Q1018=
201907221120 METAR ESMX 221120Z 27011KT 240V300 9999 BKN040 20/11 Q1019=
201907221050 METAR ESMX 221050Z 24011KT 9999 SCT043 20/11 Q1018=
201907221020 METAR ESMX 221020Z AUTO 26010KT 240V300 9999 BKN040/// 21/12 Q1018=
201907220950 METAR ESMX 220950Z AUTO 28010KT 240V310 9999 FEW038/// 19/10 Q1018=
201907220920 METAR ESMX 220920Z 26011KT 9999 SCT032 19/12 Q1018=
201907220850 METAR ESMX 220850Z 26010KT 230V290 9999 SCT029 19/12 Q1018=
201907220820 METAR ESMX 220820Z 25010KT 220V280 9999 FEW028 18/12 Q1018=
201907220750 METAR ESMX 220750Z 25012KT 210V280 9999 FEW025 18/11 Q1018=
201907220720 METAR ESMX 220720Z 27010KT 240V300 9999 FEW020 17/12 Q1018=
201907220650 METAR ESMX 220650Z 26009KT 220V300 9999 FEW019 16/13 Q1018=
201907220620 METAR ESMX 220620Z 27010KT 250V310 9999 FEW017 16/13 Q1018=
201907220550 METAR ESMX 220550Z 27010KT 250V310 9999 SCT015 16/15 Q1017=
201907220520 METAR ESMX 220520Z AUTO 27008KT 230V290 9999 BKN016/// OVC026/// 15/15 Q1017=
201907220450 METAR ESMX 220450Z AUTO 26007KT 9999 BKN016/// 14/14 Q1017=
201907220420 METAR ESMX 220420Z AUTO 27006KT 9999 BKN015/// OVC021/// 14/14 Q1017=
201907220350 METAR ESMX 220350Z AUTO 26007KT 9999 OVC018/// 14/14 Q1017=
201907220320 METAR ESMX 220320Z AUTO 26008KT 210V290 9999 OVC015/// 14/14 Q1017=
201907220250 METAR ESMX 220250Z AUTO 26007KT 9999 OVC014/// 13/13 Q1017=
201907220220 METAR ESMX 220220Z AUTO 26007KT 9999 OVC013/// 13/13 Q1017=
201907220150 METAR ESMX 220150Z AUTO 26007KT 9999 OVC014/// 14/14 Q1017=
201907220120 METAR ESMX 220120Z AUTO 26007KT 230V290 9999 BKN015/// OVC021/// 14/14 Q1017=
201907220050 METAR ESMX 220050Z AUTO 26006KT 220V290 9999 BKN015/// OVC020/// 14/14 Q1017=
201907220020 METAR ESMX 220020Z AUTO 25005KT 9999 SCT016/// OVC024/// 14/14 Q1017=
201907212350 METAR ESMX 212350Z AUTO 25007KT 210V280 9999 OVC020/// 14/14 Q1017=
201907212320 METAR ESMX 212320Z AUTO 26007KT 230V300 9999 BKN019/// OVC025/// 15/15 Q1017=
201907212250 METAR ESMX 212250Z AUTO 25008KT 9999 SCT010/// OVC023/// 15/15 Q1017=
201907212220 METAR ESMX 212220Z AUTO 25010KT 9999 BKN009/// OVC035/// 16/16 Q1016=
201907212150 METAR ESMX 212150Z AUTO 26009KT 9999 SCT009/// BKN034/// 16/16 Q1016=
201907212120 METAR ESMX 212120Z AUTO 26011KT 9000 BR SCT009/// BKN019/// BKN096/// 16/16 Q1016=
201907212050 METAR ESMX 212050Z AUTO 25006KT 9999 FEW041/// BKN098/// 17/17 Q1015=
201907212020 METAR ESMX 212020Z AUTO 22006KT 9999 FEW018/// BKN096/// 17/17 Q1015=
201907211950 METAR ESMX 211950Z 23005KT 9999 FEW033 17/16 Q1015=
201907211920 METAR ESMX 211920Z 21005KT 170V240 9999 FEW016 SCT024 18/18 Q1015=
201907211850 METAR ESMX 211850Z 24006KT 9999 FEW020 SCT059 18/18 Q1014=
201907211820 METAR ESMX 211820Z 23007KT 9999 SCT057 18/18 Q1014=
201907211750 METAR ESMX 211750Z 24009KT 9999 FEW050 SCT091 18/18 Q1014=
201907211720 METAR ESMX 211720Z 22007KT 9999 SCT026 19/19 Q1014=
201907211650 METAR ESMX 211650Z 24009KT 9999 FEW036 20/18 Q1013=
201907211620 METAR ESMX 211620Z 22009KT 9999 FEW030 20/20 Q1013=
201907211550 METAR ESMX 211550Z 19007KT 9999 SCT082TCU 20/20 Q1013=
201907211520 METAR ESMX 211520Z 16004KT 140V210 9999 SCT075TCU 18/18 Q1013=
201907211450 METAR ESMX 211450Z 19007KT 3000 SHRA FEW004 SCT025 BKN094 19/19 Q1013=
201907211420 METAR ESMX 211420Z 17007KT 130V210 9999 FEW005 BKN090 19/19 Q1013=
201907211350 METAR ESMX 211350Z 19010KT 9999 VCTS FEW025CB BKN086 18/18 Q1013=
201907211320 METAR ESMX 211320Z 27009G27KT 210V320 9999 1500E TSRA SCT027CB BKN053 16/16 Q1013 RERA=
201907211250 METAR ESMX 211250Z 18009KT 9999 VCSH FEW025CB SCT046 23/16 Q1012=
201907211220 METAR COR ESMX 211220Z 19006KT 9999 BKN025 23/17 Q1013=
201907211150 METAR COR ESMX 211150Z 20007KT 160V240 9999 SCT023 22/17 Q1013=
201907211120 METAR ESMX 211120Z 17006KT 130V250 9999 SCT020 BKN063 21/17 Q1013=
201907211050 METAR ESMX 211050Z 17007KT 140V200 9999 FEW016 BKN055 20/19 Q1013=
201907211020 METAR ESMX 211020Z AUTO 18007KT 160V240 9999 SCT027/// 20/19 Q1013=
201907210950 METAR ESMX 210950Z AUTO 20007KT 9999 FEW009/// OVC020/// 18/18 Q1013=
201907210920 METAR ESMX 210920Z AUTO 17006KT 9999 FEW009/// OVC015/// 18/18 Q1013=
201907210850 METAR COR ESMX 210850Z 17004KT 9999 BKN010 17/17 Q1013=
201907210820 METAR COR ESMX 210820Z 17004KT 140V210 9999 BKN007 17/17 Q1012=
201907210750 METAR ESMX 210750Z 14003KT 080V180 9999 SCT007 BKN150 17/17 Q1012=
201907210720 METAR ESMX 210720Z 16004KT 9999 BKN005 BKN110 16/16 Q1012=
201907210650 METAR ESMX 210650Z 19003KT 9999 SCT006 BKN080 16/16 Q1012 RERA=
201907210620 METAR ESMX 210620Z VRB03KT 7000 -RA SCT003 OVC080 16/16 Q1012=
201907210550 METAR COR ESMX 210550Z 16003KT 8000 RA SCT004 OVC082 16/16 Q1012=
201907210520 METAR ESMX 210520Z 14003KT 9999 -RA SCT004 OVC088 16/16 Q1012=
201907210450 METAR ESMX 210450Z AUTO 20003KT 170V250 9999 DZ FEW057/// OVC084/// 15/15 Q1012=
201907210420 METAR ESMX 210420Z AUTO 16005KT 9999 -RA OVC072/// 15/15 Q1012 RESHRA=
201907210350 METAR ESMX 210350Z AUTO 17005KT 9999 RA OVC076/// 16/16 Q1012=
201907210320 METAR ESMX 210320Z AUTO 16006KT 9999 DZ OVC080/// 16/16 Q1012 RERA=
201907210250 METAR ESMX 210250Z AUTO 15005KT 9999 OVC080/// 16/16 Q1012=
201907210220 METAR ESMX 210220Z AUTO 17005KT 9999 -DZ OVC088/// 16/16 Q1012 REDZ=
201907210150 METAR ESMX 210150Z AUTO 15005KT 080V190 9999 BKN086/// 16/16 Q1012=
201907210120 METAR ESMX 210120Z AUTO 15006KT 100V220 9999 -DZ OVC080/// 17/14 Q1012=
201907210050 METAR ESMX 210050Z AUTO 13006KT 100V170 9999 BKN072/// OVC086/// 17/13 Q1012=
201907210020 METAR ESMX 210020Z AUTO 13005KT 090V170 9999 OVC070/// 17/13 Q1013=
201907202350 METAR ESMX 202350Z AUTO 12006KT 080V160 9999 BKN066/// BKN150/// 16/13 Q1013=
201907202320 METAR ESMX 202320Z AUTO 13006KT 070V170 9999 BKN064/// BKN150/// 16/12 Q1013=
201907202250 METAR ESMX 202250Z AUTO 11006KT 080V140 9999 BKN140/// 16/12 Q1013=
201907202220 METAR ESMX 202220Z AUTO 12006KT 070V160 9999 FEW140/// 16/11 Q1013=
201907202150 METAR ESMX 202150Z AUTO 14006KT 100V170 9999 NCD 17/11 Q1014=
201907202120 METAR ESMX 202120Z AUTO 15007KT 110V190 9999 FEW160/// 17/11 Q1014=
201907202050 METAR ESMX 202050Z AUTO 13007KT 110V190 9999 FEW150/// 18/09 Q1014=
201907202020 METAR ESMX 202020Z AUTO 14006KT 9999 NCD 18/09 Q1014=
201907201950 METAR ESMX 201950Z AUTO 14006KT 9999 FEW170/// 19/09 Q1014=
201907201920 METAR ESMX 201920Z AUTO 15006KT 9999 NCD 19/09 Q1014=
201907201850 METAR ESMX 201850Z AUTO 16006KT 9999 FEW130/// 20/10 Q1014=
201907201820 METAR ESMX 201820Z AUTO 16006KT 9999 NCD 21/10 Q1014=
201907201750 METAR ESMX 201750Z AUTO 16008KT 9999 NCD 21/10 Q1014=
201907201720 METAR ESMX 201720Z AUTO 15008KT 9999 FEW230/// 22/08 Q1014=
201907201650 METAR ESMX 201650Z AUTO 16008KT 9999 FEW180/// 22/09 Q1014=
201907201620 METAR ESMX 201620Z AUTO 17009KT 9999 NCD 22/10 Q1014=
201907201550 METAR ESMX 201550Z AUTO 18010KT 9999 NCD 23/11 Q1014=
201907201520 METAR ESMX 201520Z AUTO 16010KT 9999 NCD 22/10 Q1015=
201907201450 METAR ESMX 201450Z AUTO 17013KT 9999 NCD 24/11 Q1015=
201907201420 METAR ESMX 201420Z AUTO 17012KT 9999 NCD 24/10 Q1015=
201907201350 METAR ESMX 201350Z AUTO 17011KT 130V200 9999 FEW057/// 24/10 Q1015=
201907201320 METAR ESMX 201320Z AUTO 17012KT 130V210 9999 FEW057/// 25/10 Q1015=
201907201250 METAR ESMX 201250Z AUTO 18011KT 140V210 9999 NCD 25/10 Q1015=
201907201220 METAR ESMX 201220Z 17011KT 110V200 CAVOK 25/09 Q1015=
201907201150 METAR COR ESMX 201150Z 19012KT CAVOK 25/09 Q1015=
201907201120 METAR ESMX 201120Z 17009KT 110V200 9999 FEW040 25/10 Q1015=
201907201050 METAR ESMX 201050Z 16010KT 120V200 9999 SCT039 23/14 Q1015=
201907201020 METAR ESMX 201020Z AUTO 15008KT 100V190 9999 FEW038/// 23/14 Q1015=
201907200950 METAR ESMX 200950Z AUTO 15007KT 100V190 9999 SCT039/// 22/14 Q1015=
201907200920 METAR ESMX 200920Z AUTO 15008KT 120V190 9999 NCD 22/14 Q1015=
201907200850 METAR ESMX 200850Z AUTO 15007KT 9999 BKN064/// 21/15 Q1015=
201907200820 METAR ESMX 200820Z AUTO 15008KT 9999 SCT062/// 21/15 Q1015=
201907200750 METAR ESMX 200750Z AUTO 14008KT 110V170 9999 OVC062/// 20/14 Q1015=
201907200720 METAR ESMX 200720Z AUTO 14006KT 100V200 9999 FEW062/// 19/15 Q1015=
201907200650 METAR ESMX 200650Z AUTO 15006KT 9999 SCT062/// 18/18 Q1015=
201907200620 METAR ESMX 200620Z AUTO 14005KT 100V170 9999 NCD 18/18 Q1015=
201907200550 METAR ESMX 200550Z AUTO 15004KT 100V190 9999 NCD 17/17 Q1015=
201907200520 METAR ESMX 200520Z AUTO 16003KT 120V190 9999 SCT078/// 16/16 Q1015=
201907200450 METAR ESMX 200450Z AUTO 14003KT 110V170 9999 FEW061/// OVC078/// 15/15 Q1015=
201907200420 METAR ESMX 200420Z AUTO 16003KT 9999 OVC080/// 14/14 Q1015=
201907200350 METAR ESMX 200350Z AUTO 00000KT 9999 OVC080/// 13/13 Q1015=
201907200320 METAR ESMX 200320Z AUTO 19002KT 9999 SCT066/// OVC078/// 12/12 Q1015=
201907200250 METAR ESMX 200250Z AUTO 16002KT 9999 FEW066/// 11/11 Q1014=
201907200220 METAR ESMX 200220Z AUTO 00000KT 9999 NCD 12/12 Q1014=
201907200150 METAR ESMX 200150Z AUTO VRB02KT 9999 FEW100/// 11/11 Q1014=
201907200120 METAR ESMX 200120Z AUTO 00000KT 9999 OVC100/// 12/12 Q1014=
201907200050 METAR ESMX 200050Z AUTO 00000KT 9999 OVC100/// 13/13 Q1014=
201907200020 METAR ESMX 200020Z AUTO VRB02KT 9999 OVC100/// 14/14 Q1014=
201907192350 METAR ESMX 192350Z AUTO 14003KT 9999 BKN100/// 13/13 Q1014=
201907192320 METAR ESMX 192320Z AUTO 15002KT 9999 OVC100/// 13/13 Q1014=
201907192250 METAR ESMX 192250Z AUTO 15003KT 9999 BR BKN100/// 15/13 Q1014=
201907192220 METAR ESMX 192220Z AUTO 17004KT 9999 NCD 13/11 Q1014=
201907192150 METAR ESMX 192150Z AUTO 17004KT 9999 NCD 17/10 Q1014=
201907192120 METAR ESMX 192120Z AUTO 17004KT 9999 NCD 15/10 Q1014=
201907192050 METAR ESMX 192050Z AUTO 16003KT 9999 FEW110/// 17/11 Q1014=
201907192020 METAR ESMX 192020Z AUTO 17005KT 9999 NCD 18/10 Q1013=
201907191950 METAR ESMX 191950Z AUTO 18005KT 9999 NCD 19/10 Q1013=
201907191920 METAR ESMX 191920Z AUTO 20006KT 9999 FEW100/// 19/11 Q1013=
201907191850 METAR ESMX 191850Z AUTO 22006KT 9999 FEW098/// 20/10 Q1013=
201907191820 METAR ESMX 191820Z AUTO 22006KT 9999 FEW098/// 21/10 Q1013=
201907191750 METAR ESMX 191750Z AUTO 23006KT 9999 FEW120/// 22/12 Q1012=
201907191720 METAR ESMX 191720Z AUTO 22005KT 9999 SCT100/// 23/11 Q1012=
201907191650 METAR ESMX 191650Z AUTO 20008KT 9999 SCT098/// BKN120/// 24/11 Q1012=
201907191620 METAR ESMX 191620Z 20007KT 170V240 CAVOK 24/12 Q1012=
201907191550 METAR COR ESMX 191550Z 20007KT CAVOK 23/11 Q1013=
201907191520 METAR ESMX 191520Z 21007KT CAVOK 23/12 Q1013=
201907191450 METAR ESMX 191450Z 20007KT CAVOK 23/10 Q1013=
201907191420 METAR ESMX 191420Z 22007KT CAVOK 23/10 Q1013=
201907191350 METAR ESMX 191350Z 20005KT 150V250 CAVOK 23/09 Q1013=
201907191320 METAR ESMX 191320Z 20006KT 150V260 CAVOK 25/09 Q1013=
201907191250 METAR ESMX 191250Z 19005KT 090V240 CAVOK 24/08 Q1013=
201907191220 METAR ESMX 191220Z 14006KT 070V190 CAVOK 24/09 Q1013=
201907191150 METAR ESMX 191150Z 13005KT 060V230 CAVOK 24/09 Q1013=
201907191120 METAR ESMX 191120Z 11006KT 020V160 CAVOK 23/09 Q1013=
201907191050 METAR COR ESMX 191050Z 14005KT 090V190 CAVOK 23/10 Q1013=
201907191020 METAR ESMX 191020Z 18005KT 130V220 CAVOK 23/10 Q1013=
201907190950 METAR ESMX 190950Z VRB04KT CAVOK 22/09 Q1013=
201907190920 METAR ESMX 190920Z 25004KT 190V310 CAVOK 22/08 Q1013=
201907190850 METAR ESMX 190850Z 18003KT 110V260 CAVOK 22/10 Q1013=
201907190820 METAR ESMX 190820Z 20004KT 140V250 CAVOK 21/11 Q1013=
201907190750 METAR ESMX 190750Z VRB02KT CAVOK 21/10 Q1013=
201907190720 METAR ESMX 190720Z VRB02KT CAVOK 20/10 Q1013=
201907190650 METAR ESMX 190650Z AUTO 27003KT 9999 FEW210/// 20/11 Q1013=
201907190620 METAR ESMX 190620Z AUTO VRB02KT 9999 FEW200/// 19/12 Q1013=
201907190550 METAR ESMX 190550Z AUTO VRB02KT 9999 NCD 17/13 Q1013=
201907190520 METAR ESMX 190520Z AUTO VRB01KT 9999 NCD 17/13 Q1013=
201907190450 METAR ESMX 190450Z AUTO 00000KT 9999 NCD 15/15 Q1013=
201907190420 METAR ESMX 190420Z AUTO 00000KT 9999 NCD 13/13 Q1013=
201907190350 METAR ESMX 190350Z AUTO 00000KT 9999 NCD 10/10 Q1013=
201907190320 METAR ESMX 190320Z AUTO 15002KT 0550 R01/0750N R19/P2000N BCFG NCD 09/09 Q1013=
201907190250 METAR ESMX 190250Z AUTO 00000KT 9999 NCD 08/08 Q1013=
201907190220 METAR ESMX 190220Z AUTO 00000KT 9999 NCD 08/08 Q1013=
201907190150 METAR ESMX 190150Z AUTO 00000KT 9999 NCD 09/09 Q1013=
201907190120 METAR ESMX 190120Z AUTO 18002KT 9999 BR NCD 09/09 Q1013=
201907190050 METAR ESMX 190050Z AUTO 19002KT 9999 NCD 10/10 Q1013=
201907190020 METAR ESMX 190020Z VRB01KT CAVOK 11/11 Q1013=
201907182350 METAR ESMX 182350Z 00000KT CAVOK 12/12 Q1013=
201907182320 METAR ESMX 182320Z 18004KT CAVOK 13/13 Q1013=
201907182250 METAR ESMX 182250Z 18005KT CAVOK 14/14 Q1013=
201907182220 METAR ESMX 182220Z 16004KT CAVOK 16/12 Q1013=
201907182150 METAR ESMX 182150Z 16005KT CAVOK 17/12 Q1013=
201907182120 METAR COR ESMX 182120Z 15005KT CAVOK 17/12 Q1013=
201907182050 METAR ESMX 182050Z AUTO 15007KT 9999 SCT057/// BKN072/// 18/12 Q1013=
201907182020 METAR ESMX 182020Z AUTO 15007KT 9999 NCD 18/12 Q1013=
201907181950 METAR ESMX 181950Z AUTO 15007KT 9999 NCD 19/12 Q1013=
201907181920 METAR ESMX 181920Z AUTO 16007KT 9999 NCD 20/13 Q1012=
201907181850 METAR ESMX 181850Z 19007KT CAVOK 20/11 Q1012=
201907181820 METAR ESMX 181820Z 21006KT CAVOK 21/10 Q1012=
201907181750 METAR ESMX 181750Z 23004KT CAVOK 23/10 Q1012=
201907181720 METAR ESMX 181720Z 22005KT CAVOK 23/10 Q1012=
201907181650 METAR ESMX 181650Z VRB02KT CAVOK 23/09 Q1012=
201907181620 METAR ESMX 181620Z 08004KT 020V120 CAVOK 23/09 Q1012=
201907181550 METAR ESMX 181550Z 10005KT 080V150 CAVOK 23/09 Q1012=
201907181520 METAR ESMX 181520Z 13005KT 070V160 CAVOK 23/08 Q1012=
201907181450 METAR ESMX 181450Z VRB04KT CAVOK 24/08 Q1012=
201907181420 METAR ESMX 181420Z 12004KT 070V220 CAVOK 24/08 Q1012=
201907181350 METAR ESMX 181350Z VRB03KT CAVOK 23/08 Q1012=
201907181320 METAR ESMX 181320Z VRB02KT CAVOK 23/08 Q1012=
201907181250 METAR ESMX 181250Z VRB03KT CAVOK 23/07 Q1012=
201907181220 METAR ESMX 181220Z 09004KT 010V130 CAVOK 23/08 Q1012=
201907181150 METAR ESMX 181150Z VRB03KT CAVOK 23/08 Q1012=
201907181120 METAR ESMX 181120Z VRB03KT CAVOK 23/08 Q1012=
201907181050 METAR ESMX 181050Z 02005KT 320V070 9999 NSC 23/08 Q1013=
201907181020 METAR ESMX 181020Z AUTO VRB03KT 9999 NCD 23/09 Q1013=
201907180950 METAR ESMX 180950Z AUTO 03005KT 300V100 9999 NCD 22/09 Q1013=
201907180920 METAR ESMX 180920Z 02005KT 330V030 9999 SCT044 22/10 Q1013=
201907180850 METAR ESMX 180850Z VRB03KT 9999 FEW042 21/10 Q1013=
201907180820 METAR ESMX 180820Z 03003KT 330V110 9999 FEW048 21/09 Q1013=
201907180750 METAR ESMX 180750Z 03004KT 340V050 CAVOK 20/11 Q1013=
201907180720 METAR ESMX 180720Z 04004KT 020V100 CAVOK 19/12 Q1013=
201907180650 METAR ESMX 180650Z 04004KT 010V100 CAVOK 19/13 Q1013=
201907180620 METAR ESMX 180620Z VRB03KT CAVOK 18/13 Q1013=
201907180550 METAR ESMX 180550Z 00000KT CAVOK 18/15 Q1013=
201907180520 METAR ESMX 180520Z 00000KT CAVOK 16/16 Q1013=
201907180450 METAR ESMX 180450Z VRB02KT CAVOK 14/13 Q1013=
201907180420 METAR ESMX 180420Z 36002KT CAVOK 10/10 Q1013=
201907180350 METAR COR ESMX 180350Z 00000KT 5000 R01/2000N R19/P2000N PRFG NSC 07/07 Q1013=
201907180320 METAR ESMX 180320Z AUTO 00000KT 0150 R01/0375N R19/0450U FG NCD 08/08 Q1013=
201907180250 METAR ESMX 180250Z AUTO 00000KT 0100 R01/0300N R19/0350N BCFG NCD 07/07 Q1013=
201907180220 METAR ESMX 180220Z AUTO 00000KT 9999 BCFG NCD 07/07 Q1013=
201907180150 METAR ESMX 180150Z AUTO 00000KT 0350 R01/P2000N R19/P2000N FG NCD 07/07 Q1013=
201907180120 METAR ESMX 180120Z AUTO 00000KT 9999 NCD 07/07 Q1013=
201907180050 METAR ESMX 180050Z AUTO 00000KT 9999 NCD 08/08 Q1013=
201907180020 METAR ESMX 180020Z 00000KT CAVOK 09/09 Q1013=
201907172350 METAR ESMX 172350Z AUTO 00000KT 9999 NCD 09/09 Q1013=
201907172320 METAR ESMX 172320Z AUTO 00000KT 9999 NCD 09/09 Q1013=
201907172250 METAR ESMX 172250Z AUTO 17002KT 9999 NCD 10/10 Q1013=
201907172220 METAR ESMX 172220Z AUTO 00000KT 9999 NCD 10/10 Q1013=
201907172150 METAR ESMX 172150Z AUTO 00000KT 9999 NCD 11/11 Q1013=
201907172120 METAR ESMX 172120Z AUTO 00000KT 9999 NCD 11/11 Q1012=
201907172050 METAR ESMX 172050Z AUTO 18002KT 9999 NCD 12/12 Q1012=
201907172020 METAR ESMX 172020Z AUTO VRB02KT 9999 RA NCD 13/13 Q1012=
201907171950 METAR ESMX 171950Z AUTO 10002KT 9999 NCD 15/12 Q1012=
201907171920 METAR ESMX 171920Z AUTO 07002KT 9999 NCD 17/12 Q1012=
201907171850 METAR ESMX 171850Z AUTO 11002KT 9999 NCD 18/11 Q1012=
201907171820 METAR ESMX 171820Z AUTO VRB02KT 9999 NCD 20/11 Q1012=
201907171750 METAR ESMX 171750Z AUTO 07004KT 020V100 9999 NCD 20/10 Q1012=
201907171720 METAR ESMX 171720Z AUTO VRB02KT 9999 NCD 21/10 Q1012=
201907171650 METAR ESMX 171650Z AUTO 07005KT 030V110 9999 SCT049/// 21/11 Q1012=
201907171620 METAR ESMX 171620Z 36005KT 330V030 9999 FEW049 21/10 Q1012=
201907171550 METAR ESMX 171550Z 05004KT 350V120 CAVOK 20/10 Q1012=
201907171520 METAR ESMX 171520Z 04005KT 350V070 CAVOK 20/10 Q1012=
201907171450 METAR ESMX 171450Z 34004KT 260V040 9999 FEW045 21/10 Q1012=
201907171420 METAR ESMX 171420Z 02004KT 320V060 9999 FEW040 20/10 Q1012=
201907171350 METAR ESMX 171350Z 02006KT 340V060 9999 SCT045 20/10 Q1013=
201907171320 METAR ESMX 171320Z 01004KT 320V050 9999 FEW049 20/10 Q1013=
201907171250 METAR ESMX 171250Z 01006KT 330V080 9999 FEW040 BKN064 20/09 Q1013=
201907171220 METAR ESMX 171220Z VRB05KT 9999 FEW035 SCT050 20/11 Q1013=
201907171150 METAR ESMX 171150Z 36006KT 320V100 9999 BKN035 20/11 Q1013=
201907171120 METAR ESMX 171120Z 01005KT 320V040 9999 BKN030 19/11 Q1013=
201907171050 METAR ESMX 171050Z 01006KT 330V060 9999 BKN039 18/11 Q1013=
201907171020 METAR ESMX 171020Z 36006KT 320V050 9999 FEW022 BKN037 17/11 Q1013=
201907170950 METAR ESMX 170950Z AUTO 35005KT 320V020 9999 BKN028/// OVC037/// 16/11 Q1013=
201907170920 METAR ESMX 170920Z VRB03KT 9999 FEW023 BKN031 16/11 Q1013=
201907170850 METAR COR ESMX 170850Z 34005KT 300V020 9999 BKN024 16/11 Q1013=
201907170820 METAR ESMX 170820Z 35005KT 320V020 9999 BKN023 15/12 Q1013=
201907170750 METAR ESMX 170750Z 36007KT 9999 BKN020 15/12 Q1013=
201907170720 METAR ESMX 170720Z 34008KT 9999 BKN018 15/12 Q1013=
201907170650 METAR ESMX 170650Z 01008KT 9999 FEW015 BKN021 14/12 Q1012=
201907170620 METAR COR ESMX 170620Z 35007KT 9999 BKN023 14/13 Q1012=
201907170550 METAR ESMX 170550Z 34005KT 9999 BKN022 13/13 Q1012=
201907170520 METAR ESMX 170520Z 31007KT 9999 FEW010 BKN023 13/13 Q1012=
201907170450 METAR ESMX 170450Z AUTO 33006KT 9999 OVC022/// 13/13 Q1012=
201907170420 METAR ESMX 170420Z AUTO 32006KT 9999 OVC020/// 13/13 Q1012=
201907170350 METAR ESMX 170350Z AUTO 31006KT 9999 OVC021/// 13/13 Q1012=
201907170320 METAR ESMX 170320Z AUTO 30006KT 9999 OVC021/// 12/12 Q1012=
201907170250 METAR ESMX 170250Z AUTO 31008KT 9999 BKN025/// OVC030/// 12/12 Q1012=
201907170220 METAR ESMX 170220Z AUTO 29004KT 9999 OVC029/// 11/11 Q1012=
201907170150 METAR ESMX 170150Z AUTO 31005KT 9999 BKN027/// 11/11 Q1012=
201907170120 METAR ESMX 170120Z AUTO 32006KT 9999 NCD 11/11 Q1012=
201907170050 METAR ESMX 170050Z AUTO 32007KT 9999 FEW043/// 11/11 Q1012=
201907170020 METAR ESMX 170020Z AUTO 31006KT 9999 BKN018/// BKN064/// 12/12 Q1012=
201907162350 METAR ESMX 162350Z AUTO 31006KT 9999 FEW016/// SCT066/// 11/11 Q1012=
201907162320 METAR ESMX 162320Z AUTO 31005KT 9999 FEW016/// OVC066/// 12/12 Q1011=
201907162250 METAR ESMX 162250Z AUTO 32006KT 9999 BKN016/// 12/12 Q1011=
201907162220 METAR ESMX 162220Z AUTO 31005KT 280V340 9999 BKN061/// 13/13 Q1011=
201907162150 METAR ESMX 162150Z AUTO 33010KT 9999 OVC062/// 13/12 Q1011=
201907162120 METAR ESMX 162120Z AUTO 34009KT 9999 BKN066/// 14/12 Q1011=
201907162050 METAR ESMX 162050Z AUTO 34012KT 9999 FEW020/// SCT025/// OVC068/// 14/12 Q1011=
201907162020 METAR ESMX 162020Z AUTO 34010KT 9999 SCT023/// BKN035/// OVC044/// 14/13 Q1011=
201907161950 METAR ESMX 161950Z AUTO 34012KT 9999 FEW011/// SCT037/// OVC059/// 14/14 Q1011 RERA=
201907161920 METAR ESMX 161920Z AUTO 32012KT 280V340 9999 DZ FEW001/// SCT029/// OVC042/// 14/12 Q1010=
201907161850 METAR ESMX 161850Z AUTO 32009KT 9999 SCT032/// BKN042/// OVC068/// 16/10 Q1010=
201907161820 METAR ESMX 161820Z AUTO 32009KT 9999 BKN033/// OVC062/// 16/10 Q1010=
201907161750 METAR ESMX 161750Z AUTO 31010KT 290V350 9999 BKN036/// OVC061/// 16/09 Q1009=
201907161720 METAR ESMX 161720Z AUTO 31009KT 9999 FEW035/// OVC062/// 16/09 Q1009=
201907161650 METAR ESMX 161650Z AUTO 31010KT 290V350 9999 FEW035/// OVC066/// 16/09 Q1009=
201907161620 METAR ESMX 161620Z 30013KT 280V340 9999 SCT040 BKN070 16/09 Q1009=
201907161550 METAR ESMX 161550Z 32013KT 290V350 9999 FEW038 BKN068 16/08 Q1009=
201907161520 METAR COR ESMX 161520Z 32012KT 9999 BKN040 17/08 Q1009=
201907161450 METAR ESMX 161450Z AUTO 32012KT 9999 BKN040/// OVC057/// 17/08 Q1009=
201907161420 METAR COR ESMX 161420Z 33012KT CAVOK 17/08 Q1009=
201907161350 METAR ESMX 161350Z 33013KT CAVOK 17/07 Q1008=
201907161320 METAR ESMX 161320Z 33015KT CAVOK 18/07 Q1008=
201907161250 METAR ESMX 161250Z 32013KT CAVOK 19/06 Q1008=
201907161220 METAR ESMX 161220Z 31016KT CAVOK 19/07 Q1008=
201907161150 METAR ESMX 161150Z 31014KT 9999 SCT048 19/06 Q1007=
201907161120 METAR ESMX 161120Z 29014KT 240V320 9999 SCT043 20/07 Q1007=
201907161050 METAR ESMX 161050Z 28014KT 250V320 9999 SCT041 18/08 Q1007=
201907161020 METAR ESMX 161020Z AUTO 28013KT 9999 FEW036/// BKN068/// 18/09 Q1008=
201907160950 METAR ESMX 160950Z AUTO 28012KT 250V320 9999 FEW031/// SCT039/// BKN078/// 18/11 Q1008=
201907160920 METAR COR ESMX 160920Z 27009KT 230V310 9999 SCT024 SCT080 17/11 Q1008=
201907160850 METAR ESMX 160850Z 28009KT 250V310 9999 SCT019 SCT061 16/12 Q1009=
201907160820 METAR COR ESMX 160820Z 28009KT 9999 FEW020 BKN062 15/12 Q1009=
201907160750 METAR COR ESMX 160750Z 29009KT 9999 SCT021 BKN060 16/14 Q1009=
201907160720 METAR ESMX 160720Z 29007KT 260V330 9999 SCT018 BKN059 15/14 Q1009=
201907160650 METAR ESMX 160650Z 29007KT 240V310 9999 FEW018 BKN060 14/14 Q1009=
201907160620 METAR ESMX 160620Z 29007KT 260V320 9999 FEW012 BKN060 14/14 Q1009=
201907160550 METAR ESMX 160550Z 28006KT 9999 FEW025 SCT055 13/12 Q1009=
201907160520 METAR ESMX 160520Z AUTO 28006KT 9999 FEW059/// BKN076/// 13/13 Q1009=
201907160450 METAR ESMX 160450Z AUTO 24004KT 9999 FEW022/// 12/12 Q1009=
201907160420 METAR ESMX 160420Z AUTO 30003KT 250V330 9999 SCT088/// BKN120/// 12/12 Q1009=
201907160350 METAR ESMX 160350Z AUTO 32005KT 9999 FEW090/// BKN130/// 11/11 Q1009=
201907160320 METAR ESMX 160320Z AUTO VRB03KT 9999 BKN130/// 10/10 Q1009=
201907160250 METAR ESMX 160250Z AUTO VRB02KT 9999 BKN100/// 10/10 Q1009=
201907160220 METAR ESMX 160220Z AUTO VRB02KT 9999 SCT098/// 11/11 Q1010=
201907160150 METAR ESMX 160150Z AUTO 32004KT 9999 BKN100/// 11/11 Q1010=
201907160120 METAR ESMX 160120Z AUTO 33004KT 9999 BKN120/// 11/11 Q1010=
201907160050 METAR ESMX 160050Z AUTO 30005KT 9999 FEW130/// BKN160/// 10/10 Q1010=
201907160020 METAR ESMX 160020Z AUTO 31004KT 9999 BKN150/// 10/10 Q1010=
201907152350 METAR ESMX 152350Z AUTO 30004KT 9999 OVC150/// 08/08 Q1010=
201907152320 METAR ESMX 152320Z AUTO 32005KT 9999 SCT140/// 10/10 Q1010=
201907152250 METAR ESMX 152250Z AUTO 30004KT 9999 NCD 10/10 Q1010=
201907152220 METAR ESMX 152220Z AUTO 35005KT 320V020 9999 FEW011/// SCT031/// 12/12 Q1010=
201907152150 METAR ESMX 152150Z AUTO 35007KT 9999 OVC030/// 12/12 Q1010=
201907152120 METAR ESMX 152120Z AUTO 35005KT 9999 FEW010/// BKN025/// OVC031/// 13/13 Q1010=
201907152050 METAR ESMX 152050Z AUTO 35004KT 9999 FEW006/// OVC024/// 13/13 Q1010 REDZ=
201907152020 METAR ESMX 152020Z AUTO 31006KT 290V350 3500 DZ FEW002/// BKN006/// OVC008/// 13/13 Q1010=
201907151950 METAR ESMX 151950Z AUTO 30008KT 9999 FEW008/// BKN028/// OVC041/// 14/13 Q1010=
201907151920 METAR ESMX 151920Z AUTO 26005KT 9999 OVC026/// 14/13 Q1009=
201907151850 METAR ESMX 151850Z AUTO 26005KT 9999 BKN031/// OVC220/// 14/12 Q1010=
201907151820 METAR ESMX 151820Z AUTO 26005KT 9999 BKN037/// BKN220/// 14/11 Q1009=
201907151750 METAR ESMX 151750Z AUTO 27008KT 9999 SCT043/// 15/11 Q1010=
201907151720 METAR ESMX 151720Z AUTO 26009KT 9999 FEW039/// 15/10 Q1010=
201907151650 METAR ESMX 151650Z AUTO 28010KT 9999 SCT028/// OVC036/// 16/10 Q1010=
201907151620 METAR ESMX 151620Z 25011KT 9999 BKN026 16/10 Q1010=
201907151550 METAR ESMX 151550Z 26008KT 9999 FEW015 BKN032 15/14 Q1010=
201907151520 METAR ESMX 151520Z 25009KT 210V280 9999 BKN014 16/15 Q1010=
201907151450 METAR ESMX 151450Z 26008KT 240V300 9999 BKN012 15/15 Q1010=
201907151420 METAR ESMX 151420Z 27009KT 250V310 9999 SCT013 BKN018 16/15 Q1010=
201907151350 METAR ESMX 151350Z 23008KT 9999 SCT015 BKN022 16/15 Q1010=
201907151320 METAR ESMX 151320Z 24008KT 200V270 9999 SCT015 BKN025 17/16 Q1010=
201907151250 METAR ESMX 151250Z 24009KT 9999 SCT015 BKN022 17/15 Q1010=
201907151220 METAR ESMX 151220Z 22009KT 9999 SCT016 BKN026 17/16 Q1011=
201907151150 METAR ESMX 151150Z 25008KT 210V280 9999 BKN021 18/14 Q1011=
201907151120 METAR ESMX 151120Z 21008KT 9999 BKN027 18/13 Q1011=
201907151050 METAR ESMX 151050Z 20010KT 9999 BKN026 18/13 Q1011=
201907151020 METAR ESMX 151020Z 21010KT 190V250 9999 BKN024 18/13 Q1011=
201907150950 METAR ESMX 150950Z 17009KT 140V210 9999 FEW022 BKN029 19/12 Q1011=
201907150920 METAR ESMX 150920Z 19010KT 9999 BKN022 18/13 Q1012=
201907150850 METAR ESMX 150850Z 22008KT 180V240 9999 BKN018 17/14 Q1012=
201907150820 METAR COR ESMX 150820Z 20009KT 9999 BKN015 16/14 Q1012=
201907150750 METAR ESMX 150750Z 23007KT 9999 BKN016 16/15 Q1012=
201907150720 METAR ESMX 150720Z 22008KT 9999 BKN013 16/16 Q1012=
201907150650 METAR COR ESMX 150650Z 23005KT 190V260 9999 BKN011 16/15 Q1012=
201907150620 METAR ESMX 150620Z 24004KT 200V290 9999 SCT009 OVC021 15/14 Q1012=
201907150550 METAR COR ESMX 150550Z 24003KT 9999 BKN022 14/13 Q1013=
201907150520 METAR ESMX 150520Z AUTO 20003KT 9999 OVC022/// 14/14 Q1013=
201907150450 METAR ESMX 150450Z AUTO 18004KT 9999 BKN024/// 13/13 Q1013=
201907150420 METAR ESMX 150420Z AUTO VRB02KT 9999 OVC021/// 13/13 Q1013=
201907150350 METAR ESMX 150350Z AUTO 00000KT 9999 OVC018/// 12/12 Q1013=
201907150320 METAR ESMX 150320Z AUTO 00000KT 5000 BCFG BKN018/// 11/11 Q1014=
201907150250 METAR ESMX 150250Z AUTO 00000KT 1300 R01/P2000N R19/1800N BCFG NCD 11/11 Q1014=
201907150220 METAR ESMX 150220Z AUTO VRB02KT 7000 BR FEW017/// 12/12 Q1014=
201907150150 METAR ESMX 150150Z AUTO 27004KT 9000 BR FEW002/// 12/12 Q1014=
201907150120 METAR ESMX 150120Z AUTO 26006KT 6000 BKN001/// 12/12 Q1014=
201907150050 METAR ESMX 150050Z AUTO 23005KT 9999 BCFG NCD 11/11 Q1014=
201907150020 METAR ESMX 150020Z AUTO 20003KT 5000 BR NCD 12/12 Q1014=
201907142350 METAR ESMX 142350Z AUTO 23004KT 2100 NCD 12/12 Q1014=
201907142320 METAR ESMX 142320Z AUTO 22004KT 9999 NCD 13/13 Q1014=
201907142250 METAR ESMX 142250Z AUTO 23006KT 9999 NCD 12/12 Q1014=
201907142220 METAR ESMX 142220Z AUTO 22005KT 9999 FEW120/// 13/13 Q1014=
201907142150 METAR ESMX 142150Z AUTO 21004KT 9999 FEW120/// 13/13 Q1014=
201907142120 METAR ESMX 142120Z AUTO 22004KT 9999 NCD 13/13 Q1015=
201907142050 METAR ESMX 142050Z AUTO VRB01KT 9999 NCD 14/14 Q1015=
201907142020 METAR ESMX 142020Z AUTO 18003KT 9999 SCT120/// 14/14 Q1015=
201907141950 METAR ESMX 141950Z 21003KT CAVOK 16/16 Q1015=
201907141920 METAR ESMX 141920Z 21002KT CAVOK 17/14 Q1015=
201907141850 METAR ESMX 141850Z 23004KT CAVOK 18/13 Q1014=
201907141820 METAR ESMX 141820Z 25005KT 210V280 CAVOK 18/13 Q1014=
201907141750 METAR ESMX 141750Z 26008KT CAVOK 19/12 Q1014=
201907141720 METAR ESMX 141720Z 27008KT CAVOK 20/12 Q1014=
201907141650 METAR ESMX 141650Z 26008KT CAVOK 21/12 Q1014=
201907141620 METAR ESMX 141620Z 28007KT CAVOK 21/13 Q1014=
201907141550 METAR ESMX 141550Z 21005KT 180V240 CAVOK 22/10 Q1014=
201907141520 METAR ESMX 141520Z 25006KT 210V300 CAVOK 22/10 Q1014=
201907141450 METAR ESMX 141450Z 28005KT 230V330 CAVOK 22/10 Q1014=
201907141420 METAR ESMX 141420Z 27010KT 240V300 CAVOK 22/12 Q1014=
201907141350 METAR ESMX 141350Z 24005KT 210V320 CAVOK 23/08 Q1014=
201907141320 METAR ESMX 141320Z 35005KT 320V020 CAVOK 23/09 Q1014=
201907141250 METAR ESMX 141250Z 01005KT 330V050 9999 FEW060TCU 22/07 Q1015=
201907141220 METAR ESMX 141220Z VRB04KT 9999 FEW057TCU 23/08 Q1015=
201907141150 METAR ESMX 141150Z 04004KT 330V100 9999 FEW055TCU 23/08 Q1015=
201907141120 METAR ESMX 141120Z 04005KT 360V080 9999 FEW045TCU 22/08 Q1015=
201907141050 METAR ESMX 141050Z 05005KT 010V080 9999 FEW050TCU 21/09 Q1015=
201907141020 METAR ESMX 141020Z AUTO 12003KT 020V190 9999 NCD 21/10 Q1015=
201907140950 METAR ESMX 140950Z AUTO VRB03KT 9999 NCD 21/10 Q1015=
201907140920 METAR ESMX 140920Z 01004KT 9999 FEW023 20/16 Q1015=
201907140850 METAR ESMX 140850Z 01003KT 330V040 9999 FEW017 19/17 Q1015=
201907140820 METAR ESMX 140820Z VRB03KT 9999 FEW014 18/18 Q1015=
201907140750 METAR ESMX 140750Z VRB03KT 9999 SCT011 19/17 Q1015=
201907140720 METAR ESMX 140720Z VRB02KT 9999 FEW001 BKN007 17/17 Q1015=
201907140650 METAR ESMX 140650Z 00000KT 9999 FEW002 BKN006 15/15 Q1015=
201907140620 METAR ESMX 140620Z VRB01KT 5000 BR BKN002 15/15 Q1015=
201907140550 METAR ESMX 140550Z 00000KT 0250 R01/0450N R19/0750N FG VV002 14/14 Q1014=
201907140520 METAR ESMX 140520Z AUTO 30002KT 0150 R01/0400N R19/0350N FG OVC001/// 13/13 Q1014=
201907140450 METAR ESMX 140450Z AUTO 29001KT 0100 R01/0125N R19/0250N FG VV001 13/13 Q1014=
201907140420 METAR ESMX 140420Z AUTO 00000KT 0150 R01/0400N R19/0375N FG VV001 11/11 Q1014=
201907140350 METAR ESMX 140350Z AUTO 00000KT 0150 R01/0350N R19/0300N FG VV001 09/09 Q1014=
201907140320 METAR ESMX 140320Z AUTO 00000KT 0100 R01/0325N R19/0225N FG VV000 09/09 Q1014=
201907140250 METAR ESMX 140250Z AUTO 20001KT 0150 R01/0375N R19/0400U FG VV000 09/09 Q1014=
201907140220 METAR ESMX 140220Z AUTO 18002KT 0050 R01/0200N R19/0150N FG NCD 11/11 Q1014=
201907140150 METAR ESMX 140150Z AUTO 19002KT 0200 R01/0450N R19/0600N FG NCD 10/10 Q1014=
201907140120 METAR ESMX 140120Z AUTO 00000KT 0100 R01/0400N R19/0250N FG FEW150/// 12/12 Q1014=
201907140050 METAR ESMX 140050Z AUTO 00000KT 0200 R01/0400N R19/0650N FG FEW007/// SCT150/// 13/13 Q1014=
201907140020 METAR ESMX 140020Z AUTO VRB02KT 1500 BCFG SCT006/// OVC150/// 13/13 Q1014=
201907132350 METAR ESMX 132350Z AUTO 17002KT 3600 SCT005/// BKN007/// OVC150/// 14/14 Q1014=
201907132320 METAR ESMX 132320Z AUTO VRB02KT 0650 R01/P2000N R19/P2000N FG BKN006/// OVC049/// 13/13 Q1014=
201907132250 METAR ESMX 132250Z AUTO VRB02KT 0500 R01/1300U R19/P2000N FG BKN001/// OVC005/// 13/13 Q1014=
201907132220 METAR ESMX 132220Z AUTO 00000KT 0250 R01/0800N R19/0900D FG BKN001/// OVC006/// 13/13 Q1013=
201907132150 METAR ESMX 132150Z AUTO VRB02KT 0100 R01/0400N R19/0450N FG BKN000/// 13/13 Q1013=
201907132120 METAR ESMX 132120Z AUTO VRB01KT 0100 R01/0700N R19/0400N FG SCT001/// 13/13 Q1013=
201907132050 METAR ESMX 132050Z AUTO 26003KT 0450 R01/1600D R19/P2000N BCFG FEW007/// 14/14 Q1013 RERA=
201907132020 METAR ESMX 132020Z AUTO 00000KT 4100 BR FEW040/// 15/15 Q1013=
201907131950 METAR ESMX 131950Z AUTO 00000KT 8000 RA FEW049/// OVC070/// 16/16 Q1013=
201907131920 METAR ESMX 131920Z 11002KT 9999 -RA SCT008 BKN053 16/16 Q1013=
201907131850 METAR ESMX 131850Z VRB03KT 9999 SCT020 16/16 Q1013=
201907131820 METAR ESMX 131820Z AUTO 28005KT 240V320 9999 ////// 16/16 Q1013=
201907131750 METAR ESMX 131750Z AUTO 25005KT 9999 ////// 16/16 Q1012=
201907131720 METAR ESMX 131720Z AUTO 25004KT 230V290 9999 -RA ////// 16/16 Q1012 RERA=
201907131650 METAR ESMX 131650Z AUTO 25006KT 9999 -DZ ////// 17/17 Q1012=
201907131620 METAR ESMX 131620Z AUTO 25002KT 9999 ////// 17/17 Q1012=
201907131550 METAR ESMX 131550Z AUTO 00000KT 9999 ////// 17/17 Q1012=
201907131520 METAR ESMX 131520Z AUTO VRB02KT 9999 ////// 17/17 Q1011=
201907131450 METAR ESMX 131450Z AUTO VRB03KT 9999 ////// 16/16 Q1012 RERA=
201907131420 METAR ESMX 131420Z AUTO 09003KT 350V120 9999 ////// 17/17 Q1012=
201907131350 METAR ESMX 131350Z AUTO VRB03KT 9999 ////// 17/13 Q1011 RERA=
201907131320 METAR ESMX 131320Z AUTO 34007KT 300V010 9999 -RA ////// 16/16 Q1012=
201907131250 METAR ESMX 131250Z 33006KT 9999 -RA BKN040CB 17/17 Q1012=
201907131220 METAR ESMX 131220Z 34008KT 9999 VCSH SCT035CB 20/13 Q1011=
201907131150 METAR ESMX 131150Z 31006KT 270V340 9999 FEW013CB SCT049 20/14 Q1011=
201907131120 METAR ESMX 131120Z 29009KT 260V320 9999 FEW033TCU 21/11 Q1011=
201907131050 METAR ESMX 131050Z 32007KT 270V350 9999 SCT032TCU 20/13 Q1012=
201907131020 METAR ESMX 131020Z AUTO 27008KT 250V320 9999 FEW030/// SCT084/// 21/13 Q1012=
201907130950 METAR ESMX 130950Z AUTO 28008KT 250V320 9999 SCT028/// BKN090/// 20/14 Q1012=
201907130920 METAR ESMX 130920Z AUTO 28008KT 9999 FEW024/// SCT160/// 20/16 Q1012=
201907130850 METAR ESMX 130850Z AUTO 29004KT 250V320 9999 FEW016/// SCT084/// 19/18 Q1012=
201907130820 METAR ESMX 130820Z AUTO 28004KT 240V350 9999 BKN080/// 18/17 Q1012=
201907130750 METAR ESMX 130750Z AUTO 34004KT 300V010 9999 BKN094/// 18/15 Q1012=
201907130720 METAR ESMX 130720Z AUTO 31006KT 280V340 9999 BKN076/// BKN090/// 17/16 Q1012=
201907130650 METAR ESMX 130650Z AUTO 33003KT 280V010 9999 FEW076/// BKN100/// 16/16 Q1012=
201907130620 METAR ESMX 130620Z AUTO VRB02KT 9999 FEW080/// BKN100/// 15/15 Q1011=
201907130550 METAR ESMX 130550Z AUTO 24004KT 9999 FEW064/// SCT080/// 15/15 Q1011=
201907130520 METAR ESMX 130520Z AUTO 31004KT 280V340 9999 -RA OVC068/// 15/15 Q1012=
201907130450 METAR ESMX 130450Z AUTO 31003KT 9999 -RA OVC076/// 15/15 Q1012=
201907130420 METAR ESMX 130420Z AUTO 31003KT 280V360 9999 FEW003/// SCT055/// BKN080/// 14/14 Q1011=
201907130350 METAR ESMX 130350Z AUTO 00000KT 9999 BKN086/// 14/14 Q1011=
201907130320 METAR ESMX 130320Z AUTO 26004KT 9999 BKN088/// 14/14 Q1011=
201907130250 METAR ESMX 130250Z AUTO 22003KT 9000 BKN070/// BKN098/// OVC130/// 14/14 Q1011 RERA=
201907130220 METAR ESMX 130220Z AUTO 00000KT 5000 RA FEW001/// OVC072/// 14/14 Q1011=
201907130150 METAR ESMX 130150Z AUTO VRB01KT 9999 -RA FEW019/// OVC078/// 14/14 Q1011=
201907130120 METAR ESMX 130120Z AUTO 28003KT 9999 SCT022/// BKN098/// OVC120/// 14/14 Q1011=
201907130050 METAR ESMX 130050Z AUTO VRB03KT 9999 SCT034/// BKN082/// OVC140/// 14/14 Q1011=
201907130020 METAR ESMX 130020Z AUTO 30003KT 260V330 9999 FEW005/// BKN080/// BKN098/// 14/14 Q1011=
201907122350 METAR ESMX 122350Z AUTO 25003KT 9999 BKN080/// OVC098/// 14/14 Q1011 REDZ=
201907122320 METAR ESMX 122320Z AUTO 22004KT 9999 -RA BKN082/// OVC098/// 14/14 Q1011=
201907122250 METAR ESMX 122250Z AUTO 21004KT 9999 BKN082/// OVC098/// 14/14 Q1011=
201907122220 METAR ESMX 122220Z 21004KT CAVOK 14/14 Q1011=
201907122150 METAR ESMX 122150Z 16006KT CAVOK 15/15 Q1011=
201907122120 METAR ESMX 122120Z 19002KT CAVOK 14/14 Q1011=
201907122050 METAR ESMX 122050Z VRB02KT 9999 FEW009 15/15 Q1011=
201907122020 METAR ESMX 122020Z 16005KT 130V200 9999 FEW008 16/16 Q1011=
201907121950 METAR ESMX 121950Z AUTO 20005KT 9999 OVC100/// 15/15 Q1011=
201907121920 METAR ESMX 121920Z AUTO 20007KT 9999 FEW084/// SCT130/// 15/15 Q1011=
201907121850 METAR ESMX 121850Z AUTO 04001KT 9999 BKN084/// 17/14 Q1011=
201907121820 METAR ESMX 121820Z AUTO VRB02KT 9999 SCT088/// 18/14 Q1011=
201907121750 METAR ESMX 121750Z AUTO VRB03KT 9999 SCT090/// 18/13 Q1011=
201907121720 METAR ESMX 121720Z AUTO VRB03KT 9999 ////// 18/12 Q1010=
201907121650 METAR ESMX 121650Z AUTO 28003KT 250V310 9999 NCD 19/12 Q1010=
201907121620 METAR ESMX 121620Z AUTO 27005KT 250V310 9999 -RA ////// 18/13 Q1010=
201907121550 METAR ESMX 121550Z 29011KT 9999 -SHRA SCT036CB BKN083 18/13 Q1011=
201907121520 METAR ESMX 121520Z 01002KT 9999 VCSH SCT039CB SCT092 21/12 Q1010=
201907121450 METAR ESMX 121450Z 08003KT 040V160 9999 VCSH FEW039CB 21/12 Q1010=
201907121420 METAR ESMX 121420Z VRB04KT 9999 FEW039TCU 21/12 Q1010=
201907121350 METAR COR ESMX 121350Z 17006KT 100V200 9999 FEW040 21/11 Q1010=
201907121320 METAR ESMX 121320Z 13005KT 060V170 9999 FEW032 21/12 Q1011=
201907121250 METAR ESMX 121250Z 13005KT 100V170 9999 FEW028 20/13 Q1011=
201907121220 METAR ESMX 121220Z 13007KT 090V170 CAVOK 19/11 Q1011=
201907121150 METAR ESMX 121150Z 14006KT 110V180 CAVOK 18/12 Q1011=
201907121120 METAR ESMX 121120Z 13006KT 100V170 CAVOK 17/13 Q1011=
201907121050 METAR ESMX 121050Z 10004KT 030V160 9999 VCSH FEW050CB SCT090 17/13 Q1011=
201907121020 METAR ESMX 121020Z AUTO 09003KT 040V140 9999 BKN084/// 16/15 Q1011=
201907120950 METAR COR ESMX 120950Z 11004KT 070V160 9999 -SHRA FEW050CB BKN072 15/14 Q1011=
201907120920 METAR ESMX 120920Z 06004KT 020V100 9999 VCSH FEW050CB BKN076 15/13 Q1011=
201907120850 METAR ESMX 120850Z 05006KT 020V100 9999 VCSH FEW050CB BKN070 14/14 Q1011 RERA=
201907120820 METAR ESMX 120820Z 05007KT 9999 VCSH FEW050CB BKN063 15/11 Q1011=
201907120750 METAR COR ESMX 120750Z 06005KT 020V100 9999 VCSH FEW020 FEW050CB BKN070 16/09 Q1011=
201907120720 METAR ESMX 120720Z 04007KT CAVOK 17/09 Q1011=
201907120650 METAR ESMX 120650Z VRB03KT CAVOK 17/09 Q1011=
201907120620 METAR ESMX 120620Z 17005KT 120V200 CAVOK 17/08 Q1010=
201907120550 METAR ESMX 120550Z 14004KT 110V190 CAVOK 16/08 Q1010=
201907120520 METAR ESMX 120520Z 11003KT 040V170 CAVOK 15/08 Q1010=
201907120450 METAR ESMX 120450Z AUTO VRB03KT 9999 BKN110/// OVC150/// 15/10 Q1010=
201907120420 METAR ESMX 120420Z VRB03KT CAVOK 15/13 Q1010=
201907120350 METAR ESMX 120350Z AUTO 07003KT 040V120 9999 FEW080/// BKN098/// OVC110/// 15/15 Q1010=
201907120320 METAR ESMX 120320Z AUTO 00000KT 9999 OVC100/// 13/13 Q1010=
201907120250 METAR ESMX 120250Z AUTO 00000KT 9999 OVC098/// 13/13 Q1010=
201907120220 METAR ESMX 120220Z AUTO 00000KT 9999 OVC100/// 13/13 Q1010=
201907120150 METAR ESMX 120150Z AUTO 00000KT 9999 OVC100/// 14/14 Q1010=
201907120120 METAR ESMX 120120Z AUTO 00000KT 9999 OVC098/// 14/12 Q1010=
201907120050 METAR ESMX 120050Z AUTO 00000KT 9999 OVC098/// 14/12 Q1010=
201907120020 METAR ESMX 120020Z AUTO 29003KT 9999 BKN096/// OVC110/// 15/11 Q1010=
201907112350 METAR ESMX 112350Z AUTO VRB02KT 9999 BKN082/// OVC110/// 15/11 Q1010=
201907112320 METAR ESMX 112320Z 26004KT CAVOK 15/11 Q1011=
201907112250 METAR ESMX 112250Z 26003KT CAVOK 16/11 Q1011=
201907112220 METAR ESMX 112220Z 29004KT CAVOK 16/11 Q1011=
201907112150 METAR ESMX 112150Z 27004KT CAVOK 16/11 Q1011=
201907112120 METAR ESMX 112120Z AUTO 28004KT 9999 FEW090/// BKN110/// OVC130/// 17/12 Q1011=
201907112050 METAR ESMX 112050Z AUTO 26005KT 9999 OVC072/// 18/12 Q1010=
201907112020 METAR ESMX 112020Z AUTO 24005KT 9999 OVC072/// 17/13 Q1010=
201907111950 METAR ESMX 111950Z AUTO 24006KT 9999 -RA OVC080/// 17/13 Q1010=
201907111920 METAR ESMX 111920Z AUTO VRB01KT 9999 OVC080/// 18/12 Q1010 REDZ=
201907111850 METAR ESMX 111850Z AUTO 18002KT 9999 OVC078/// 19/13 Q1010=
201907111820 METAR ESMX 111820Z VRB01KT 9999 BKN076CB 20/11 Q1010=
201907111750 METAR ESMX 111750Z 05003KT 9999 SCT070CB 20/11 Q1010=
201907111720 METAR ESMX 111720Z 03003KT 350V060 CAVOK 20/11 Q1010=
201907111650 METAR ESMX 111650Z 26005KT 9999 VCSH SCT074CB 20/11 Q1010=
201907111620 METAR ESMX 111620Z 27006KT 9999 SCT085CB 20/11 Q1010=
201907111550 METAR ESMX 111550Z 30006KT 9999 VCSH SCT086CB 21/11 Q1011=
201907111520 METAR ESMX 111520Z VRB03KT 9999 FEW040CB SCT084 22/11 Q1010=
201907111450 METAR ESMX 111450Z 26004KT 9999 VCSH FEW040CB BKN082 21/11 Q1011=
201907111420 METAR ESMX 111420Z 21004KT 160V230 9999 VCSH FEW040CB BKN078 21/10 Q1011=
201907111350 METAR ESMX 111350Z 23007KT 9999 FEW059TCU BKN098 21/11 Q1011=
201907111320 METAR ESMX 111320Z 04004KT 010V080 9999 FEW059TCU BKN084 22/10 Q1011=
201907111250 METAR ESMX 111250Z 04007KT 350V070 9999 FEW062TCU BKN086 22/10 Q1011=
201907111220 METAR ESMX 111220Z VRB04KT 9999 FEW062TCU BKN085 23/08 Q1011=
201907111150 METAR ESMX 111150Z 31006KT 9999 FEW062TCU BKN090 23/08 Q1011=
201907111120 METAR ESMX 111120Z 22004KT 170V250 9999 SCT059TCU SCT083 23/08 Q1011=
201907111050 METAR ESMX 111050Z 30007KT 260V330 9999 SCT059TCU 22/08 Q1011=
201907111020 METAR ESMX 111020Z AUTO 03006KT 9999 SCT084/// 23/07 Q1011=
201907110950 METAR ESMX 110950Z AUTO 05005KT 310V080 9999 SCT082/// 23/09 Q1011=
201907110920 METAR ESMX 110920Z 32004KT 240V010 CAVOK 22/10 Q1012=
201907110850 METAR ESMX 110850Z 30004KT 230V340 CAVOK 22/09 Q1012=
201907110820 METAR ESMX 110820Z VRB02KT CAVOK 21/09 Q1012=
201907110750 METAR ESMX 110750Z 26004KT 220V330 CAVOK 20/09 Q1012=
201907110720 METAR ESMX 110720Z VRB02KT CAVOK 20/11 Q1012=
201907110650 METAR ESMX 110650Z VRB01KT CAVOK 18/11 Q1012=
201907110620 METAR ESMX 110620Z VRB02KT CAVOK 17/11 Q1012=
201907110550 METAR ESMX 110550Z VRB02KT CAVOK 15/10 Q1012=
201907110520 METAR ESMX 110520Z VRB03KT CAVOK 14/09 Q1012=
201907110450 METAR ESMX 110450Z 00000KT CAVOK 13/12 Q1012=
201907110420 METAR ESMX 110420Z 26001KT CAVOK 09/08 Q1012=
201907110350 METAR ESMX 110350Z AUTO 00000KT 9999 NCD 06/06 Q1012=
201907110320 METAR ESMX 110320Z AUTO 00000KT 9999 NCD 04/04 Q1012=
201907110250 METAR ESMX 110250Z AUTO 00000KT 9999 NCD 05/05 Q1012=
201907110220 METAR ESMX 110220Z AUTO 17003KT 9999 NCD 04/04 Q1012=
201907110150 METAR ESMX 110150Z AUTO 00000KT 9999 NCD 04/04 Q1012=
201907110120 METAR ESMX 110120Z AUTO 00000KT 9999 NCD 04/04 Q1012=
201907110050 METAR ESMX 110050Z AUTO 20001KT 9999 NCD 06/06 Q1012=
201907110020 METAR ESMX 110020Z AUTO 20002KT 9999 NCD 06/06 Q1012=
201907102350 METAR ESMX 102350Z AUTO 18002KT 9999 NCD 06/06 Q1012=
201907102320 METAR ESMX 102320Z AUTO 00000KT 9999 NCD 07/07 Q1013=
201907102250 METAR ESMX 102250Z 18002KT CAVOK 08/08 Q1013=
201907102220 METAR ESMX 102220Z 00000KT CAVOK 08/08 Q1013=
201907102150 METAR ESMX 102150Z 19003KT CAVOK 08/08 Q1013=
201907102120 METAR COR ESMX 102120Z 16003KT CAVOK 09/05 Q1013=
201907102050 METAR COR ESMX 102050Z 18003KT CAVOK 10/06 Q1013=
201907102020 METAR ESMX 102020Z AUTO 19002KT 9999 NCD 11/06 Q1012=
201907101950 METAR ESMX 101950Z AUTO 00000KT 9999 NCD 12/08 Q1012=
201907101920 METAR ESMX 101920Z AUTO 00000KT 9999 NCD 16/06 Q1012=
201907101850 METAR ESMX 101850Z AUTO 34004KT 9999 NCD 17/06 Q1012=
201907101820 METAR ESMX 101820Z 01006KT CAVOK 19/05 Q1012=
201907101750 METAR ESMX 101750Z 02006KT CAVOK 19/04 Q1012=
201907101720 METAR ESMX 101720Z 01007KT CAVOK 20/05 Q1012=
201907101650 METAR ESMX 101650Z 34007KT CAVOK 20/04 Q1012=
201907101620 METAR ESMX 101620Z 34009KT CAVOK 21/06 Q1012=
201907101550 METAR ESMX 101550Z 35007KT CAVOK 21/06 Q1012=
201907101520 METAR ESMX 101520Z 36008KT 330V030 CAVOK 21/07 Q1012=
201907101450 METAR ESMX 101450Z AUTO 33007KT 9999 SCT120/// BKN150/// 21/08 Q1012=
201907101420 METAR ESMX 101420Z AUTO 01008KT 9999 OVC110/// 20/07 Q1012=
201907101350 METAR ESMX 101350Z AUTO 36009KT 340V040 9999 BKN110/// BKN150/// 20/08 Q1012=
201907101320 METAR ESMX 101320Z AUTO 01009KT 9999 SCT120/// BKN150/// 20/10 Q1012=
201907101250 METAR ESMX 101250Z AUTO 36008KT 9999 FEW046/// OVC120/// 20/10 Q1012=
201907101220 METAR ESMX 101220Z 01009KT 330V050 9999 FEW047 20/10 Q1012=
201907101150 METAR ESMX 101150Z 35010KT 310V020 9999 FEW047 20/09 Q1012=
201907101120 METAR ESMX 101120Z 34012KT 310V010 9999 FEW076TCU 21/09 Q1012=
201907101050 METAR COR ESMX 101050Z 35012KT 9999 FEW074TCU 21/08 Q1012=
201907101020 METAR ESMX 101020Z AUTO 33011KT 9999 FEW059/// SCT080/// BKN140/// 21/08 Q1012=
201907100950 METAR ESMX 100950Z AUTO 34011KT 9999 FEW055/// BKN078/// BKN140/// 21/08 Q1012=
201907100920 METAR COR ESMX 100920Z 29008KT 250V340 9999 FEW046 SCT074 21/09 Q1012=
201907100850 METAR ESMX 100850Z 30011KT CAVOK 20/11 Q1012=
201907100820 METAR ESMX 100820Z 31010KT CAVOK 19/09 Q1012=
201907100750 METAR ESMX 100750Z 30009KT CAVOK 19/10 Q1012=
201907100720 METAR ESMX 100720Z 30008KT 260V330 CAVOK 18/10 Q1012=
201907100650 METAR ESMX 100650Z 29008KT CAVOK 16/10 Q1012=
201907100620 METAR ESMX 100620Z 30008KT CAVOK 16/10 Q1012=
201907100550 METAR ESMX 100550Z 29008KT CAVOK 15/11 Q1012=
201907100520 METAR ESMX 100520Z 30006KT 270V330 CAVOK 13/13 Q1012=
201907100450 METAR ESMX 100450Z 29007KT CAVOK 12/11 Q1012=
201907100420 METAR COR ESMX 100420Z 29006KT CAVOK 11/10 Q1012=
201907100350 METAR ESMX 100350Z 29005KT CAVOK 11/11 Q1013=
201907100320 METAR ESMX 100320Z AUTO 29006KT 9999 NCD 10/10 Q1013=
201907100250 METAR ESMX 100250Z AUTO 29004KT 9999 NCD 10/10 Q1013=
201907100220 METAR ESMX 100220Z AUTO 30006KT 9999 NCD 10/10 Q1013=
201907100150 METAR ESMX 100150Z AUTO 29006KT 9999 NCD 10/10 Q1013=
201907100120 METAR ESMX 100120Z AUTO 30006KT 9999 NCD 10/10 Q1013=
201907100050 METAR ESMX 100050Z 30004KT CAVOK 10/10 Q1013=
201907100020 METAR ESMX 100020Z 30005KT CAVOK 10/10 Q1013=
201907092350 METAR COR ESMX 092350Z 29004KT CAVOK 10/10 Q1013=
201907092320 METAR ESMX 092320Z AUTO 28006KT 9999 FEW096/// 10/10 Q1013=
201907092250 METAR ESMX 092250Z AUTO 27006KT 9999 SCT078/// 09/09 Q1013=
201907092220 METAR ESMX 092220Z AUTO 27006KT 9999 FEW080/// 10/10 Q1014=
201907092150 METAR ESMX 092150Z AUTO 28005KT 9999 SCT072/// 10/10 Q1014=
201907092120 METAR ESMX 092120Z AUTO 29004KT 9999 FEW070/// 11/11 Q1014=
201907092050 METAR ESMX 092050Z AUTO 31004KT 9999 BKN070/// 11/11 Q1014=
201907092020 METAR ESMX 092020Z AUTO 29003KT 9999 BKN061/// 12/12 Q1014=
201907091950 METAR ESMX 091950Z AUTO 31003KT 9999 FEW064/// 13/11 Q1013=
201907091920 METAR ESMX 091920Z AUTO 28004KT 9999 BKN062/// 14/10 Q1013=
201907091850 METAR ESMX 091850Z AUTO 01003KT 9999 OVC059/// 16/09 Q1013=
201907091820 METAR ESMX 091820Z AUTO 01003KT 9999 OVC055/// 16/09 Q1013=
201907091750 METAR ESMX 091750Z AUTO 02005KT 340V050 9999 OVC051/// 16/08 Q1013=
201907091720 METAR ESMX 091720Z AUTO 02008KT 9999 OVC043/// 16/08 Q1013=
201907091650 METAR ESMX 091650Z AUTO 36009KT 9999 OVC041/// 17/09 Q1013=
201907091620 METAR ESMX 091620Z 35010KT 9999 BKN038 17/09 Q1013=
201907091550 METAR ESMX 091550Z 36009KT 9999 BKN038 17/09 Q1013=
201907091520 METAR ESMX 091520Z 02007KT 350V080 9999 BKN039 17/09 Q1012=
201907091450 METAR ESMX 091450Z 01007KT 330V050 9999 BKN032 17/09 Q1012=
201907091420 METAR ESMX 091420Z 02009KT 350V050 9999 SCT032 16/10 Q1012=
201907091350 METAR ESMX 091350Z 01011KT 9999 SCT025 16/10 Q1012=
201907091320 METAR ESMX 091320Z 01014KT 9999 BKN027 17/10 Q1012=
201907091250 METAR ESMX 091250Z 01011KT 9999 BKN028 17/10 Q1012=
201907091220 METAR ESMX 091220Z 35011KT 9999 BKN028 17/11 Q1012=
201907091150 METAR ESMX 091150Z 35010KT 9999 BKN031 18/11 Q1011=
201907091120 METAR ESMX 091120Z 34011KT 300V010 9999 BKN030 18/11 Q1011=
201907091050 METAR ESMX 091050Z 32009KT 290V020 9999 BKN026 17/10 Q1011=
201907091020 METAR ESMX 091020Z 35010KT 9999 BKN025 17/11 Q1011=
201907090950 METAR ESMX 090950Z 34010KT 300V360 9999 BKN023 17/11 Q1011=
201907090920 METAR ESMX 090920Z 31011KT 9999 BKN024 17/11 Q1011=
201907090850 METAR ESMX 090850Z 31012KT 9999 BKN022 17/11 Q1011=
201907090820 METAR ESMX 090820Z 31009KT 9999 BKN020 17/13 Q1011=
201907090750 METAR ESMX 090750Z 32008KT 280V350 9999 BKN020 16/14 Q1011=
201907090720 METAR COR ESMX 090720Z 32007KT 270V340 9999 SCT019 BKN084 16/14 Q1011=
201907090650 METAR ESMX 090650Z 30006KT 260V330 CAVOK 16/15 Q1010=
201907090620 METAR ESMX 090620Z 30006KT 260V330 CAVOK 15/14 Q1010=
201907090550 METAR ESMX 090550Z 31005KT CAVOK 14/14 Q1010=
201907090520 METAR ESMX 090520Z 30005KT CAVOK 13/13 Q1010=
201907090450 METAR ESMX 090450Z AUTO 30004KT 9999 OVC082/// 12/12 Q1010=
201907090420 METAR ESMX 090420Z AUTO 28006KT 9999 FEW066/// OVC082/// 12/12 Q1010=
201907090350 METAR ESMX 090350Z AUTO 28005KT 9999 SCT068/// OVC082/// 12/12 Q1010=
201907090320 METAR ESMX 090320Z AUTO 26005KT 9999 BKN066/// OVC084/// 11/11 Q1010=
201907090250 METAR ESMX 090250Z AUTO 26006KT 9999 -RA SCT040/// OVC057/// 11/11 Q1010=
201907090220 METAR ESMX 090220Z AUTO 28006KT 9999 FEW051/// OVC064/// 12/10 Q1010=
201907090150 METAR ESMX 090150Z AUTO 29006KT 9999 BKN049/// OVC074/// 12/08 Q1010=
201907090120 METAR ESMX 090120Z AUTO 29006KT 9999 FEW042/// SCT062/// OVC082/// 12/08 Q1010=
201907090050 METAR ESMX 090050Z AUTO 28005KT 9999 SCT080/// 11/08 Q1010=
201907090020 METAR ESMX 090020Z AUTO 29006KT 9999 SCT042/// BKN049/// BKN080/// 12/08 Q1010=
201907082350 METAR ESMX 082350Z AUTO 29006KT 9999 OVC080/// 11/08 Q1010=
201907082320 METAR ESMX 082320Z AUTO 28005KT 9999 BKN080/// 10/07 Q1010=
201907082250 METAR ESMX 082250Z AUTO 29005KT 9999 NCD 10/09 Q1010=
201907082220 METAR ESMX 082220Z AUTO 28005KT 9999 NCD 09/09 Q1010=
201907082150 METAR ESMX 082150Z AUTO 29004KT 9999 NCD 09/09 Q1010=
201907082120 METAR ESMX 082120Z AUTO 30003KT 260V340 9999 NCD 10/07 Q1010=
201907082050 METAR ESMX 082050Z AUTO 32005KT 9999 NCD 12/08 Q1009=
201907082020 METAR ESMX 082020Z AUTO 31004KT 9999 NCD 12/09 Q1009=
201907081950 METAR ESMX 081950Z AUTO 31005KT 9999 FEW072/// 15/07 Q1009=
201907081920 METAR ESMX 081920Z AUTO 31004KT 9999 NCD 16/08 Q1009=
201907081850 METAR ESMX 081850Z AUTO 31006KT 9999 FEW074/// 18/07 Q1009=
201907081820 METAR ESMX 081820Z AUTO 32008KT 9999 BKN066/// 18/07 Q1009=
201907081750 METAR ESMX 081750Z AUTO 28005KT 9999 OVC064/// 18/11 Q1008=
201907081720 METAR ESMX 081720Z AUTO 27005KT 9999 OVC066/// 18/10 Q1008=
201907081650 METAR ESMX 081650Z AUTO 34005KT 310V010 9999 BKN066/// 19/08 Q1008=
201907081620 METAR ESMX 081620Z 31005KT 260V350 9999 VCSH SCT070CB 19/07 Q1008=
201907081550 METAR ESMX 081550Z 36009KT 9999 SCT068CB 19/07 Q1008=
201907081520 METAR ESMX 081520Z 31009KT 9999 FEW064TCU 20/07 Q1008=
201907081450 METAR ESMX 081450Z 33011KT 290V360 9999 VCSH SCT066TCU 21/06 Q1007=
201907081420 METAR ESMX 081420Z 33011KT 9999 SCT074TCU 21/07 Q1008=
201907081350 METAR ESMX 081350Z 33011KT 290V350 9999 SCT061TCU 22/08 Q1007=
201907081320 METAR ESMX 081320Z 35011KT 9999 VCSH FEW057CB 21/08 Q1007=
201907081250 METAR ESMX 081250Z 32011KT 9999 VCSH FEW055CB 21/08 Q1007=
201907081220 METAR ESMX 081220Z 30008KT 9999 VCSH SCT046CB 19/08 Q1007=
201907081150 METAR ESMX 081150Z 31009KT 260V350 9999 SCT046TCU 21/09 Q1007=
201907081120 METAR ESMX 081120Z 34011KT 9999 SCT043TCU 20/08 Q1007=
201907081050 METAR ESMX 081050Z 32010KT 290V350 9999 SCT041TCU 20/10 Q1007=
201907081020 METAR ESMX 081020Z AUTO 29009KT 9999 -RA BKN038/// BKN072/// 18/10 Q1008=
201907080950 METAR ESMX 080950Z 27009KT 9999 SCT033CB 19/11 Q1008=
201907080920 METAR ESMX 080920Z 28009KT 220V320 9999 FEW025TCU 19/11 Q1008=
201907080850 METAR ESMX 080850Z 31006KT 260V350 9999 FEW026 18/11 Q1008=
201907080820 METAR ESMX 080820Z 27006KT 240V300 CAVOK 17/10 Q1008=
201907080750 METAR ESMX 080750Z 27006KT 250V330 CAVOK 16/13 Q1008=
201907080720 METAR ESMX 080720Z 32005KT CAVOK 16/13 Q1008=
201907080650 METAR ESMX 080650Z 33003KT 290V010 CAVOK 15/14 Q1007=
201907080620 METAR ESMX 080620Z 32003KT 290V350 CAVOK 14/14 Q1007=
201907080550 METAR ESMX 080550Z 33005KT CAVOK 13/13 Q1007=
201907080520 METAR ESMX 080520Z AUTO 31004KT 280V340 9999 OVC084/// 13/13 Q1007=
201907080450 METAR ESMX 080450Z AUTO 35006KT 9999 OVC084/// 12/12 Q1007=
201907080420 METAR ESMX 080420Z AUTO 35006KT 9999 OVC090/// 12/12 Q1007=
201907080350 METAR ESMX 080350Z AUTO 35004KT 9999 OVC088/// 11/11 Q1007=
201907080320 METAR ESMX 080320Z AUTO 35005KT 9999 OVC088/// 11/11 Q1007=
201907080250 METAR ESMX 080250Z AUTO 34003KT 9999 OVC086/// 10/10 Q1007=
201907080220 METAR ESMX 080220Z AUTO VRB02KT 9999 OVC084/// 10/10 Q1007=
201907080150 METAR ESMX 080150Z AUTO VRB02KT 9999 OVC086/// 09/09 Q1007=
201907080120 METAR ESMX 080120Z AUTO VRB02KT 9999 BKN086/// 09/09 Q1007=
201907080050 METAR ESMX 080050Z AUTO 29004KT 9999 SCT082/// 08/08 Q1007=
201907080020 METAR ESMX 080020Z AUTO VRB02KT 9999 BKN082/// 10/10 Q1007=
201907072350 METAR ESMX 072350Z AUTO VRB01KT 9999 OVC082/// 10/10 Q1007=
201907072320 METAR ESMX 072320Z AUTO 23003KT 190V260 9999 SCT082/// 09/09 Q1007=
201907072250 METAR ESMX 072250Z AUTO VRB02KT 9999 BKN084/// 09/09 Q1006=
201907072220 METAR ESMX 072220Z AUTO 29002KT 9999 SCT066/// BKN088/// 10/10 Q1007=
201907072150 METAR ESMX 072150Z AUTO VRB01KT 9999 FEW039/// BKN068/// 10/10 Q1007 REDZ=
201907072120 METAR ESMX 072120Z AUTO 27004KT 9999 DZ FEW036/// BKN078/// 09/09 Q1006=
201907072050 METAR ESMX 072050Z AUTO 25003KT 9999 BKN074/// 08/08 Q1006=
201907072020 METAR ESMX 072020Z AUTO 22003KT 9999 FEW086/// 09/09 Q1006=
201907071950 METAR ESMX 071950Z 00000KT 9999 FEW037CB 11/11 Q1006=
201907071920 METAR ESMX 071920Z 32002KT 9999 -DZ FEW041CB 13/13 Q1006=
201907071850 METAR ESMX 071850Z 26003KT 9999 FEW044CB 13/13 Q1006=
201907071820 METAR ESMX 071820Z 25004KT 9999 SCT043CB 13/12 Q1006=
201907071750 METAR ESMX 071750Z 22004KT 9999 SCT040CB 14/11 Q1006=
201907071720 METAR ESMX 071720Z VRB02KT 9999 VCSH SCT035CB 14/10 Q1005=
201907071650 METAR ESMX 071650Z 08004KT 050V130 9999 SCT033CB 15/09 Q1005=
201907071620 METAR ESMX 071620Z 28005KT 230V320 9999 FEW035CB 17/10 Q1005=
201907071550 METAR ESMX 071550Z 26006KT 9999 VCSH FEW039CB 17/11 Q1005=
201907071520 METAR ESMX 071520Z 25009KT 220V280 9999 VCSH FEW038CB SCT078 17/11 Q1005=
201907071450 METAR ESMX 071450Z 27004KT 9999 VCSH FEW020CB SCT080 17/09 Q1005=
201907071420 METAR ESMX 071420Z 34006KT 290V020 9999 FEW025CB BKN076 18/10 Q1004=
201907071350 METAR ESMX 071350Z AUTO 35007KT 320V020 9999 BKN078/// 17/10 Q1004=
201907071320 METAR ESMX 071320Z 35008KT 9999 VCSH SCT025CB SCT065 17/12 Q1004=
201907071250 METAR ESMX 071250Z 01009KT 9999 VCSH SCT025CB SCT073 16/11 Q1004=
201907071220 METAR ESMX 071220Z 34004KT 9999 VCSH FEW025CB SCT072 15/11 Q1004=
201907071150 METAR ESMX 071150Z 02008KT 9999 VCSH FEW025CB SCT078 16/12 Q1004=
201907071120 METAR ESMX 071120Z 33007KT 9999 VCSH SCT025CB BKN078 17/13 Q1003=
201907071050 METAR COR ESMX 071050Z 34010KT 9999 VCSH SCT022CB BKN067 15/14 Q1003=
201907071020 METAR ESMX 071020Z 34010KT 9999 SHRA SCT020CB BKN057 14/14 Q1003=
201907070950 METAR ESMX 070950Z AUTO 32008KT 280V350 9999 FEW018/// SCT068/// BKN180/// 16/11 Q1002=
201907070920 METAR ESMX 070920Z AUTO 34010KT 310V030 9999 FEW023/// BKN049/// BKN064/// 15/14 Q1002=
201907070850 METAR COR ESMX 070850Z 33011KT 9999 VCSH FEW020CB SCT035 BKN080 13/12 Q1002=
201907070820 METAR ESMX 070820Z 32008KT 9999 SCT017 BKN040 14/14 Q1001=
201907070750 METAR ESMX 070750Z AUTO 32008KT 9999 BKN018/// OVC043/// 13/13 Q1001=
201907070720 METAR ESMX 070720Z 31007KT 280V340 9999 SCT017 BKN032 12/12 Q1001=
201907070650 METAR COR ESMX 070650Z 31006KT 260V330 9999 SCT015 BKN033 11/11 Q1000=
201907070620 METAR ESMX 070620Z 31009KT 9999 FEW010 BKN018 11/11 Q1000=
201907070550 METAR COR ESMX 070550Z 31009KT 280V340 9999 SCT011 BKN015 11/11 Q0999=
201907070520 METAR COR ESMX 070520Z 30008KT 9999 FEW010 BKN025 10/10 Q0999=
201907070450 METAR ESMX 070450Z AUTO 30008KT 9999 BKN014/// BKN020/// OVC027/// 10/10 Q0999=
201907070420 METAR ESMX 070420Z AUTO 29007KT 9999 SCT012/// OVC028/// 10/10 Q0999=
201907070350 METAR ESMX 070350Z AUTO 28009KT 9999 FEW006/// BKN011/// OVC021/// 09/09 Q0998=
201907070320 METAR ESMX 070320Z AUTO 29008KT 9999 FEW006/// BKN022/// OVC038/// 09/09 Q0998 REDZ=
201907070250 METAR ESMX 070250Z AUTO 29009KT 260V320 9999 SCT007/// BKN010/// OVC037/// 09/09 Q0998=
201907070220 METAR ESMX 070220Z AUTO 27008KT 9999 FEW009/// OVC017/// 09/09 Q0997=
201907070150 METAR ESMX 070150Z AUTO 27007KT 9999 BKN019/// BKN035/// OVC059/// 08/08 Q0998=
201907070120 METAR ESMX 070120Z AUTO 25007KT 9999 -RA FEW032/// SCT041/// OVC055/// 08/08 Q0998 REUP=
201907070050 METAR ESMX 070050Z AUTO 26006KT 9999 OVC064/// 08/08 Q0998=
201907070020 METAR ESMX 070020Z AUTO 25007KT 9999 SCT005/// OVC064/// 08/08 Q0998=
201907062350 METAR ESMX 062350Z AUTO 25007KT 9999 FEW005/// OVC064/// 08/08 Q0998=
201907062320 METAR ESMX 062320Z AUTO 23006KT 9999 FEW043/// OVC070/// 08/08 Q0998 RERA=
201907062250 METAR ESMX 062250Z AUTO 25006KT 9999 SCT039/// OVC062/// 08/08 Q0998 REUP=
201907062220 METAR ESMX 062220Z AUTO 24006KT 9999 BKN061/// 08/08 Q0997=
201907062150 METAR ESMX 062150Z AUTO 24006KT 9999 FEW028/// SCT066/// 08/08 Q0998=
201907062120 METAR ESMX 062120Z AUTO 24006KT 9999 FEW021/// 08/08 Q0998=
201907062050 METAR ESMX 062050Z AUTO 23007KT 9999 SCT008/// BKN015/// BKN038/// 10/10 Q0998=
201907062020 METAR ESMX 062020Z AUTO 18004KT 9999 SCT055/// BKN140/// 10/10 Q0998=
201907061950 METAR ESMX 061950Z AUTO 21005KT 9999 SCT076/// 09/09 Q0998=
201907061920 METAR ESMX 061920Z AUTO 30007KT 270V330 9999 FEW001/// BKN043/// BKN055/// 11/11 Q0998=
201907061850 METAR ESMX 061850Z AUTO 22007KT 9999 FEW035/// SCT045/// BKN080/// 12/12 Q0998=
201907061820 METAR ESMX 061820Z AUTO 25005KT 9999 FEW057/// 12/12 Q0998=
201907061750 METAR ESMX 061750Z AUTO 24006KT 210V270 9999 FEW013/// SCT072/// 13/13 Q0998=
201907061720 METAR ESMX 061720Z AUTO 25007KT 210V280 9999 BKN014/// OVC061/// 13/13 Q0998=
201907061650 METAR ESMX 061650Z AUTO 26008KT 9999 FEW022/// SCT042/// BKN057/// 13/13 Q0998=
201907061620 METAR ESMX 061620Z AUTO 27007KT 240V300 9999 -RA FEW001/// BKN006/// BKN020/// 13/13 Q0998=
201907061550 METAR ESMX 061550Z AUTO 16006KT 140V200 7000 -RA BKN001/// BKN007/// OVC032/// 13/13 Q0998 RESHRA=
201907061520 METAR ESMX 061520Z AUTO 16009KT 6000 +RA SCT001/// BKN007/// OVC037/// 13/13 Q0998=
201907061450 METAR ESMX 061450Z AUTO 16009KT 9000 -DZ SCT009/// BKN013/// OVC020/// 13/13 Q0999=
201907061420 METAR ESMX 061420Z AUTO 16007KT 9999 -RA SCT007/// BKN016/// OVC021/// 13/13 Q0999 REDZ=
201907061350 METAR ESMX 061350Z AUTO 17010KT 5000 -DZ FEW008/// SCT015/// BKN023/// 13/13 Q1000=
201907061320 METAR ESMX 061320Z AUTO 18009KT 8000 BR FEW002/// SCT013/// BKN019/// 14/14 Q1000=
201907061250 METAR ESMX 061250Z AUTO 18008KT 9999 BKN014/// BKN030/// OVC053/// 14/14 Q1001 RERA=
201907061220 METAR ESMX 061220Z 19010KT 9999 VCSH FEW011CB BKN025 14/14 Q1001 RERA=
201907061150 METAR ESMX 061150Z 19009KT 8000 SHRA SCT011CB BKN020 13/13 Q1002=
201907061120 METAR ESMX 061120Z 21010KT 180V250 9999 SCT010 BKN017 14/12 Q1002=
201907061050 METAR ESMX 061050Z 21011KT 9999 OVC017 13/11 Q1002=
201907061020 METAR ESMX 061020Z AUTO 20010KT 170V240 9999 BKN017/// OVC024/// 14/10 Q1002=
201907060950 METAR ESMX 060950Z AUTO 20010KT 9999 OVC023/// 13/10 Q1003=
201907060920 METAR ESMX 060920Z AUTO 22010KT 180V250 9999 FEW018/// OVC026/// 14/09 Q1003 REDZ=
201907060850 METAR ESMX 060850Z AUTO 23007KT 9999 SCT018/// BKN024/// BKN042/// 14/08 Q1003=
201907060820 METAR ESMX 060820Z AUTO 25004KT 190V310 9999 FEW005/// BKN014/// OVC018/// 14/11 Q1004=
201907060750 METAR ESMX 060750Z AUTO 23007KT 190V260 9999 FEW010/// BKN015/// OVC023/// 12/09 Q1004=
201907060720 METAR ESMX 060720Z AUTO 21008KT 9999 OVC027/// 13/10 Q1004=
201907060650 METAR ESMX 060650Z AUTO 22006KT 190V260 9999 BKN033/// OVC100/// 13/08 Q1004=
201907060620 METAR ESMX 060620Z AUTO 25006KT 200V290 9999 FEW078/// BKN100/// 13/08 Q1004=
201907060550 METAR ESMX 060550Z AUTO 22007KT 9999 BKN014/// OVC110/// 12/11 Q1004=
201907060520 METAR ESMX 060520Z AUTO 23006KT 170V270 9999 SCT078/// OVC110/// 12/11 Q1005=
201907060450 METAR ESMX 060450Z AUTO 26005KT 9999 FEW082/// SCT100/// BKN130/// 12/11 Q1005=
201907060420 METAR ESMX 060420Z AUTO 22004KT 190V260 9999 BKN017/// BKN082/// 10/10 Q1005=
201907060350 METAR ESMX 060350Z AUTO 22004KT 9999 SCT078/// BKN110/// 09/09 Q1005=
201907060320 METAR ESMX 060320Z AUTO 21005KT 9999 NCD 07/07 Q1005=
201907060250 METAR ESMX 060250Z AUTO 22004KT 9999 NCD 06/06 Q1006=
201907060220 METAR ESMX 060220Z AUTO 25003KT 9999 SCT140/// 06/06 Q1006=
201907060150 METAR ESMX 060150Z AUTO 26003KT 9999 FEW150/// 06/06 Q1006=
201907060120 METAR ESMX 060120Z AUTO VRB03KT 9999 SCT140/// BKN160/// 08/08 Q1006=
201907060050 METAR ESMX 060050Z AUTO VRB01KT 9999 OVC140/// 09/09 Q1007=
201907060020 METAR ESMX 060020Z AUTO 24004KT 9999 SCT140/// BKN190/// 08/08 Q1007=
201907052350 METAR ESMX 052350Z AUTO 22005KT 9999 SCT160/// 08/08 Q1007=
201907052320 METAR ESMX 052320Z AUTO 22005KT 9999 BKN160/// 08/08 Q1007=
201907052250 METAR ESMX 052250Z AUTO 23005KT 9999 SCT180/// 09/06 Q1007=
201907052220 METAR ESMX 052220Z AUTO 23004KT 9999 NCD 09/05 Q1007=
201907052150 METAR ESMX 052150Z AUTO 24005KT 9999 NCD 10/04 Q1007=
201907052120 METAR ESMX 052120Z AUTO 25006KT 9999 NCD 10/04 Q1007=
201907052050 METAR ESMX 052050Z AUTO 25006KT 9999 NCD 11/03 Q1007=
201907052020 METAR ESMX 052020Z AUTO 25005KT 9999 NCD 11/02 Q1007=
201907051950 METAR ESMX 051950Z AUTO 26005KT 9999 NCD 12/01 Q1007=
201907051920 METAR ESMX 051920Z AUTO 26006KT 9999 NCD 14/01 Q1007=
201907051850 METAR ESMX 051850Z AUTO 27008KT 230V290 9999 NCD 15/01 Q1007=
201907051820 METAR ESMX 051820Z AUTO 27010KT 9999 NCD 16/02 Q1007=
201907051750 METAR ESMX 051750Z AUTO 25010KT 9999 NCD 17/02 Q1007=
201907051720 METAR ESMX 051720Z 26014KT CAVOK 17/03 Q1007=
201907051650 METAR ESMX 051650Z 26013KT 230V300 CAVOK 18/04 Q1007=
201907051620 METAR ESMX 051620Z 29013KT CAVOK 19/03 Q1007=
201907051550 METAR ESMX 051550Z 29012KT 240V320 CAVOK 19/03 Q1007=
201907051520 METAR ESMX 051520Z 30010KT 260V340 CAVOK 19/01 Q1007=
201907051450 METAR ESMX 051450Z 31012KT 270V330 CAVOK 19/02 Q1007=
201907051420 METAR ESMX 051420Z 29012KT 240V320 CAVOK 19/03 Q1007=
201907051350 METAR ESMX 051350Z 30013KT 250V330 CAVOK 19/03 Q1007=
201907051320 METAR ESMX 051320Z 33014KT CAVOK 18/03 Q1007=
201907051250 METAR ESMX 051250Z 30012KT 270V330 CAVOK 19/04 Q1007=
201907051220 METAR ESMX 051220Z 30013KT 260V330 CAVOK 18/04 Q1007=
201907051150 METAR ESMX 051150Z 31014KT CAVOK 17/04 Q1007=
201907051120 METAR ESMX 051120Z 30014G25KT 270V340 CAVOK 17/04 Q1007=
201907051050 METAR ESMX 051050Z 31015KT 280V340 9999 FEW049 17/04 Q1007=
201907051020 METAR ESMX 051020Z 29013G26KT 250V330 9999 SCT047 16/04 Q1007=
201907050950 METAR ESMX 050950Z 31016KT 9999 SCT045 16/05 Q1006=
201907050920 METAR ESMX 050920Z 29014KT 9999 FEW040 15/05 Q1006=
201907050850 METAR ESMX 050850Z 28014KT 9999 FEW037 14/05 Q1006=
201907050820 METAR ESMX 050820Z 30014KT 9999 FEW033 14/06 Q1006=
201907050750 METAR ESMX 050750Z 29013KT 260V330 CAVOK 13/06 Q1006=
201907050720 METAR ESMX 050720Z 29012KT 260V330 CAVOK 12/06 Q1006=
201907050650 METAR ESMX 050650Z 29012KT CAVOK 12/06 Q1006=
201907050620 METAR ESMX 050620Z 30012KT CAVOK 11/07 Q1006=
201907050550 METAR ESMX 050550Z 30009KT CAVOK 11/07 Q1006=
201907050520 METAR ESMX 050520Z 29009KT CAVOK 10/10 Q1006=
201907050450 METAR ESMX 050450Z 29007KT 250V320 CAVOK 10/09 Q1005=
201907050420 METAR ESMX 050420Z 29008KT CAVOK 10/10 Q1005=
201907050350 METAR COR ESMX 050350Z 28007KT CAVOK 10/10 Q1005=
201907050320 METAR ESMX 050320Z AUTO 28006KT 250V310 9999 NCD 09/09 Q1005=
201907050250 METAR ESMX 050250Z AUTO 28007KT 9999 NCD 09/09 Q1005=
201907050220 METAR ESMX 050220Z AUTO 28006KT 9999 FEW008/// 09/09 Q1005=
201907050150 METAR ESMX 050150Z AUTO 27006KT 9999 FEW009/// 10/10 Q1005=
201907050120 METAR ESMX 050120Z AUTO 28006KT 9999 SCT009/// BKN016/// 10/10 Q1005=
201907050050 METAR ESMX 050050Z AUTO 27005KT 9999 OVC010/// 09/09 Q1005=
201907050020 METAR ESMX 050020Z 22004KT 9999 BKN013 08/08 Q1005=
201907042350 METAR ESMX 042350Z 23005KT 9999 BKN014 08/08 Q1005=
201907042320 METAR COR ESMX 042320Z 21005KT 9999 BKN019 07/07 Q1005=
201907042250 METAR ESMX 042250Z VRB02KT 9999 FEW020 SCT049 07/07 Q1005=
201907042220 METAR ESMX 042220Z VRB03KT 9999 FEW033 SCT210 07/07 Q1005=
201907042150 METAR ESMX 042150Z VRB03KT 9999 FEW007 SCT049 08/08 Q1005=
201907042120 METAR ESMX 042120Z AUTO 33004KT 9999 -DZ FEW007/// BKN023/// OVC049/// 09/09 Q1005=
201907042050 METAR COR ESMX 042050Z 34011KT 300V010 9999 -RA SCT009 OVC019 09/09 Q1005=
201907042020 METAR ESMX 042020Z 24012KT 9000 -RA FEW004 BKN010 12/12 Q1005=
201907041950 METAR ESMX 041950Z 25012KT 9999 FEW004 BKN014 12/12 Q1005=
201907041920 METAR ESMX 041920Z 25011KT 9999 BKN015 12/12 Q1005=
201907041850 METAR ESMX 041850Z AUTO 24011KT 220V280 9999 FEW006/// BKN014/// OVC021/// 12/12 Q1005=
201907041820 METAR ESMX 041820Z 25011KT 9999 -SHRA BKN014CB 12/12 Q1006=
201907041750 METAR COR ESMX 041750Z 25011KT 9999 -SHRA BKN013CB 12/12 Q1006=
201907041720 METAR ESMX 041720Z 24011KT 8000 -RA BKN013CB 12/12 Q1006=
201907041650 METAR ESMX 041650Z 25012KT 9999 -RA BKN013CB 13/13 Q1006=
201907041620 METAR COR ESMX 041620Z 25011KT 9999 VCSH SCT012CB 13/13 Q1007=
201907041550 METAR ESMX 041550Z 24013KT 9999 VCSH BKN011CB 13/13 Q1007=
201907041520 METAR ESMX 041520Z 24013KT 9999 VCSH SCT024CB 13/13 Q1008=
201907041450 METAR ESMX 041450Z 26010KT 230V290 9999 -RA SCT012CB 13/13 Q1008=
201907041420 METAR ESMX 041420Z 26009KT 230V290 9999 FEW015CB 13/13 Q1008=
201907041350 METAR ESMX 041350Z 25016KT 210V280 7000 -RA SCT012CB 13/13 Q1009=
201907041320 METAR ESMX 041320Z 25012KT 9999 FEW002 BKN014 14/14 Q1009=
201907041250 METAR ESMX 041250Z 24007KT 200V290 9999 FEW005 SCT010 BKN015 13/13 Q1009=
201907041220 METAR ESMX 041220Z 23011KT 9000 DZ FEW005 SCT011 BKN020 13/13 Q1010=
201907041150 METAR ESMX 041150Z 22013KT 9999 VCSH BKN015 FEW016CB 13/13 Q1010=
201907041120 METAR ESMX 041120Z 23013KT 200V260 9999 VCSH BKN017 FEW020CB 15/11 Q1011=
201907041050 METAR ESMX 041050Z 25014KT 210V280 9999 VCSH FEW020CB BKN030 14/10 Q1011=
201907041020 METAR ESMX 041020Z 25014KT 9999 SCT034 BKN043 15/08 Q1011=
201907040950 METAR ESMX 040950Z 27015KT 230V300 9999 BKN039 16/07 Q1011=
201907040920 METAR ESMX 040920Z 27013G23KT 9999 BKN044 16/05 Q1012=
201907040850 METAR ESMX 040850Z 26014KT 230V300 9999 SCT041 15/05 Q1012=
201907040820 METAR ESMX 040820Z 25014G25KT 230V290 9999 SCT040 15/06 Q1012=
201907040750 METAR ESMX 040750Z 26010KT 220V300 9999 BKN032 14/07 Q1013=
201907040720 METAR ESMX 040720Z 25011KT 210V270 9999 BKN029 13/06 Q1013=
201907040650 METAR ESMX 040650Z 27011KT 230V300 9999 BKN030 13/06 Q1013=
201907040620 METAR COR ESMX 040620Z 26011KT 230V290 9999 SCT025 13/06 Q1013=
201907040550 METAR ESMX 040550Z 26012KT 9999 SCT021 12/07 Q1013=
201907040520 METAR ESMX 040520Z 26010KT CAVOK 11/08 Q1013=
201907040450 METAR ESMX 040450Z 24009KT CAVOK 11/10 Q1014=
201907040420 METAR ESMX 040420Z 23007KT CAVOK 10/10 Q1014=
201907040350 METAR ESMX 040350Z 24007KT CAVOK 09/09 Q1014=
201907040320 METAR ESMX 040320Z AUTO 24007KT 9999 NCD 08/08 Q1014=
201907040250 METAR ESMX 040250Z AUTO 24005KT 9999 NCD 08/08 Q1014=
201907040220 METAR ESMX 040220Z AUTO 25007KT 9999 NCD 08/08 Q1014=
201907040150 METAR ESMX 040150Z AUTO 25007KT 9999 NCD 08/08 Q1014=
201907040120 METAR ESMX 040120Z AUTO 24007KT 9999 NCD 08/08 Q1014=
201907040050 METAR ESMX 040050Z 24006KT CAVOK 08/08 Q1014=
201907040020 METAR ESMX 040020Z 22006KT CAVOK 08/08 Q1014=
201907032350 METAR ESMX 032350Z 24007KT CAVOK 08/08 Q1015=
201907032320 METAR ESMX 032320Z AUTO 25007KT 9999 NCD 08/08 Q1015=
201907032250 METAR ESMX 032250Z AUTO 23006KT 9999 NCD 08/08 Q1015=
201907032220 METAR ESMX 032220Z AUTO 24006KT 9999 NCD 08/08 Q1015=
201907032150 METAR ESMX 032150Z AUTO 23006KT 9999 NCD 08/06 Q1015=
201907032120 METAR ESMX 032120Z AUTO 24006KT 9999 NCD 08/04 Q1015=
201907032050 METAR ESMX 032050Z AUTO 25006KT 9999 NCD 09/03 Q1015=
201907032020 METAR ESMX 032020Z AUTO 25005KT 9999 NCD 09/03 Q1015=
201907031950 METAR ESMX 031950Z AUTO 27006KT 9999 NCD 11/03 Q1015=
201907031920 METAR ESMX 031920Z AUTO 26007KT 9999 NCD 11/02 Q1015=
201907031850 METAR ESMX 031850Z AUTO 26009KT 9999 NCD 12/03 Q1015=
201907031820 METAR ESMX 031820Z AUTO 25009KT 9999 NCD 13/03 Q1014=
201907031750 METAR ESMX 031750Z 26012KT CAVOK 14/03 Q1015=
201907031720 METAR ESMX 031720Z 27014KT CAVOK 14/03 Q1015=
201907031650 METAR ESMX 031650Z 28013G24KT 250V320 9999 SCT045 15/03 Q1015=
201907031620 METAR ESMX 031620Z 27013KT 240V300 9999 SCT045 15/03 Q1014=
201907031550 METAR ESMX 031550Z 27013G23KT 240V300 9999 SCT048 15/03 Q1014=
201907031520 METAR ESMX 031520Z 23011KT 200V260 CAVOK 15/05 Q1015=
201907031450 METAR ESMX 031450Z 25012G24KT 220V280 9999 SCT048CB 14/06 Q1015 REDZ=
201907031420 METAR ESMX 031420Z 25010KT 200V290 9999 VCSH SCT074CB 15/06 Q1014=
201907031350 METAR ESMX 031350Z 28017G28KT 9999 -SHRA BKN053CB 12/05 Q1015=
201907031320 METAR ESMX 031320Z 24015KT 210V280 9999 SCT055TCU 17/04 Q1014=
201907031250 METAR ESMX 031250Z 28015KT 240V300 CAVOK 17/02 Q1014=
201907031220 METAR ESMX 031220Z 26015G25KT 220V290 CAVOK 17/04 Q1014=
201907031150 METAR ESMX 031150Z 26014G25KT 220V300 9999 VCSH SCT046CB 16/04 Q1014=
201907031120 METAR ESMX 031120Z 26017G28KT 220V290 9999 -SHRA SCT044CB 15/05 Q1014=
201907031050 METAR ESMX 031050Z 25013KT 230V290 9999 SCT048 BKN096 15/05 Q1014=
201907031020 METAR ESMX 031020Z 26015KT 230V310 9999 SCT049 16/05 Q1013=
201907030950 METAR ESMX 030950Z 27014KT 230V320 9999 SCT046 15/05 Q1013=
201907030920 METAR ESMX 030920Z 27013KT 240V320 9999 SCT047 16/05 Q1013=
201907030850 METAR ESMX 030850Z 26011KT 230V290 9999 FEW040 SCT059 16/06 Q1013=
201907030820 METAR ESMX 030820Z 27013KT 240V310 9999 FEW035 15/07 Q1013=
201907030750 METAR ESMX 030750Z AUTO 26014KT 230V290 9999 SCT037/// 14/05 Q1013=
201907030720 METAR ESMX 030720Z 26011KT 9999 SCT033 14/06 Q1013=
201907030650 METAR ESMX 030650Z 28011KT 9999 SCT030 13/07 Q1013=
201907030620 METAR ESMX 030620Z 27009KT 230V290 CAVOK 13/08 Q1013=
201907030550 METAR ESMX 030550Z 26007KT CAVOK 13/08 Q1013=
201907030520 METAR ESMX 030520Z 26008KT CAVOK 12/10 Q1013=
201907030450 METAR ESMX 030450Z 25009KT CAVOK 11/11 Q1013=
201907030420 METAR ESMX 030420Z 25008KT CAVOK 10/10 Q1013=
201907030350 METAR ESMX 030350Z AUTO 23007KT 9999 NCD 09/09 Q1013=
201907030320 METAR ESMX 030320Z AUTO 23007KT 9999 NCD 09/09 Q1012=
201907030250 METAR ESMX 030250Z AUTO 25006KT 9999 NCD 08/08 Q1012=
201907030220 METAR ESMX 030220Z AUTO 25007KT 9999 NCD 08/08 Q1012=
201907030150 METAR ESMX 030150Z AUTO 25007KT 9999 NCD 09/09 Q1012=
201907030120 METAR ESMX 030120Z AUTO 25008KT 9999 NCD 09/09 Q1012=
201907030050 METAR ESMX 030050Z AUTO 25008KT 9999 NCD 09/09 Q1012=
201907030020 METAR ESMX 030020Z AUTO 23008KT 9999 NCD 09/09 Q1012=
201907022350 METAR ESMX 022350Z AUTO 25008KT 9999 NCD 09/09 Q1012=
201907022320 METAR ESMX 022320Z AUTO 25007KT 9999 NCD 09/09 Q1012=
201907022250 METAR ESMX 022250Z AUTO 23007KT 9999 NCD 09/09 Q1012=
201907022220 METAR ESMX 022220Z AUTO 24006KT 9999 NCD 09/09 Q1012=
201907022150 METAR ESMX 022150Z AUTO 25006KT 9999 NCD 09/08 Q1012=
201907022120 METAR ESMX 022120Z AUTO 25006KT 9999 NCD 10/08 Q1012=
201907022050 METAR ESMX 022050Z AUTO 24006KT 9999 NCD 10/08 Q1012=
201907022020 METAR ESMX 022020Z AUTO 24005KT 9999 NCD 10/07 Q1012=
201907021950 METAR ESMX 021950Z AUTO 24005KT 9999 SCT044/// 11/07 Q1012=
201907021920 METAR ESMX 021920Z AUTO 33005KT 290V350 9999 FEW001/// BKN030/// OVC042/// 11/09 Q1012=
201907021850 METAR ESMX 021850Z AUTO 26007KT 230V290 9999 -RA FEW002/// SCT028/// BKN036/// 13/08 Q1012=
201907021820 METAR ESMX 021820Z AUTO 25008KT 9999 OVC070/// 13/07 Q1012=
201907021750 METAR ESMX 021750Z 25009KT 9999 FEW048CB BKN070 13/09 Q1012=
201907021720 METAR ESMX 021720Z 25008KT 9999 FEW022CB BKN053 14/09 Q1011=
201907021650 METAR ESMX 021650Z 27010KT 240V300 9999 BKN047CB 15/05 Q1011=
201907021620 METAR ESMX 021620Z 30012KT 270V330 9999 SCT055CB 16/04 Q1011=
201907021550 METAR ESMX 021550Z 28013KT 9999 SCT045CB 16/05 Q1011=
201907021520 METAR ESMX 021520Z 29015KT 260V320 9999 BKN041TCU 17/06 Q1010=
201907021450 METAR ESMX 021450Z 31014KT 280V340 9999 BKN036 17/07 Q1010=
201907021420 METAR ESMX 021420Z 29012KT 250V320 9999 BKN032 15/08 Q1010=
201907021350 METAR ESMX 021350Z 29016KT 9999 BKN035 14/08 Q1010=
201907021320 METAR ESMX 021320Z 29016KT 9999 BKN031 15/08 Q1009=
201907021250 METAR ESMX 021250Z 31013KT 290V350 9999 BKN031 15/09 Q1008=
201907021220 METAR ESMX 021220Z 29018KT 260V340 9999 BKN023 15/08 Q1008=
201907021150 METAR ESMX 021150Z 24015KT 210V280 9999 BKN022 15/10 Q1007=
201907021120 METAR ESMX 021120Z 25016G30KT 9999 BKN031 14/08 Q1007=
201907021050 METAR ESMX 021050Z 25014KT 210V280 9999 BKN033 15/07 Q1007=
201907021020 METAR ESMX 021020Z 25013KT 210V280 9999 BKN028 15/09 Q1007=
201907020950 METAR ESMX 020950Z 26015KT 9999 BKN027 14/08 Q1006=
201907020920 METAR ESMX 020920Z 25015G25KT 9999 BKN024 15/09 Q1006=
201907020850 METAR ESMX 020850Z 26015KT 9999 BKN020 13/09 Q1006=
201907020820 METAR ESMX 020820Z 25013G23KT 220V280 9999 BKN020 12/09 Q1006=
201907020750 METAR ESMX 020750Z 25013KT 210V280 9999 BKN024 13/08 Q1006=
201907020720 METAR ESMX 020720Z 24013KT 9999 BKN024 13/08 Q1006=
201907020650 METAR ESMX 020650Z 26012KT 9999 BKN023 13/08 Q1006=
201907020620 METAR ESMX 020620Z 25013G24KT 9999 OVC022 12/08 Q1006=
201907020550 METAR ESMX 020550Z 26012KT 230V290 9999 BKN021 13/11 Q1005=
201907020520 METAR ESMX 020520Z 26013KT 230V290 9999 BKN021 13/11 Q1006=
201907020450 METAR ESMX 020450Z 26012KT 220V290 9999 SCT018 13/11 Q1005=
201907020420 METAR ESMX 020420Z 25012KT 9999 BKN017 13/12 Q1005=
201907020350 METAR ESMX 020350Z 26014KT 9999 BKN018 13/12 Q1005=
201907020320 METAR ESMX 020320Z AUTO 25010KT 230V290 9999 FEW017/// BKN028/// 13/13 Q1006=
201907020250 METAR ESMX 020250Z AUTO 26013KT 9999 FEW013/// SCT018/// BKN027/// 13/13 Q1005=
201907020220 METAR ESMX 020220Z AUTO 23011KT 9999 FEW009/// BKN026/// OVC034/// 13/13 Q1005=
201907020150 METAR ESMX 020150Z AUTO 24009KT 190V280 9999 SCT012/// BKN016/// BKN022/// 13/13 Q1005=
201907020120 METAR ESMX 020120Z AUTO 25009KT 9999 BKN012/// BKN014/// OVC022/// 13/13 Q1006 REDZ=
201907020050 METAR ESMX 020050Z AUTO 24009KT 9999 BKN016/// BKN022/// OVC048/// 13/13 Q1006=
201907020020 METAR ESMX 020020Z AUTO 24009KT 9000 SCT016/// BKN024/// OVC034/// 13/13 Q1006=
201907012350 METAR ESMX 012350Z AUTO 25010KT 9999 FEW014/// SCT017/// OVC047/// 13/13 Q1006=
201907012320 METAR ESMX 012320Z AUTO 23009KT 190V280 9999 BKN013/// OVC024/// 14/14 Q1005=
201907012250 METAR ESMX 012250Z AUTO 23010KT 9999 FEW011/// BKN019/// BKN030/// 13/13 Q1005=
201907012220 METAR ESMX 012220Z AUTO 24007KT 9999 BKN013/// BKN025/// 14/14 Q1006=
201907012150 METAR ESMX 012150Z AUTO 24010KT 9999 FEW001/// BKN021/// BKN043/// 13/13 Q1005=
201907012120 METAR ESMX 012120Z AUTO 23009KT 200V260 9999 -RA SCT020/// BKN037/// OVC062/// 13/13 Q1006 RERA=
201907012050 METAR ESMX 012050Z AUTO 22008KT 200V260 9999 FEW017/// SCT027/// BKN049/// 13/13 Q1006=
201907012020 METAR ESMX 012020Z AUTO 24008KT 9999 FEW001/// SCT014/// BKN021/// 14/14 Q1006=
201907011950 METAR ESMX 011950Z AUTO 22007KT 8000 RA SCT023/// BKN049/// OVC070/// 14/14 Q1006=
201907011920 METAR ESMX 011920Z AUTO 23010KT 200V260 9999 FEW049/// SCT064/// BKN090/// 14/12 Q1005=
201907011850 METAR ESMX 011850Z AUTO 23011KT 200V270 9999 FEW180/// 15/11 Q1005=
201907011820 METAR ESMX 011820Z AUTO 25013KT 9999 FEW028/// BKN068/// 16/11 Q1005=
201907011750 METAR ESMX 011750Z 26011G21KT 9999 FEW030 BKN057 16/10 Q1005=
201907011720 METAR ESMX 011720Z 24010KT 200V270 9999 FEW035 BKN066 16/11 Q1005=
201907011650 METAR ESMX 011650Z 24012KT 200V260 9999 FEW037 BKN062 17/11 Q1005=
201907011620 METAR ESMX 011620Z 23011KT 180V260 9999 FEW021 17/16 Q1005=
201907011550 METAR ESMX 011550Z 23010KT 9999 FEW025 17/16 Q1005=
201907011520 METAR ESMX 011520Z 22011KT 9999 VCSH SCT017CB 16/16 Q1005=
201907011450 METAR ESMX 011450Z 20012KT CAVOK 15/15 Q1005=
201907011420 METAR ESMX 011420Z 21010KT 9999 FEW045 SCT068 14/14 Q1006=
201907011350 METAR ESMX 011350Z 23011KT 9999 RA FEW042 BKN061 13/13 Q1006=
201907011320 METAR ESMX 011320Z 26011G21KT 9999 -RA BKN041 14/14 Q1006=
201907011250 METAR ESMX 011250Z 25009KT 9999 -RA FEW020 BKN059 13/13 Q1007=
201907011220 METAR ESMX 011220Z 28013KT 9999 -RA BKN057 13/12 Q1007=
