##########################################################
# Query made at 04/19/2024 22:11:47 UTC
# Time interval: from 12/01/2019 12:00  to 12/31/2019 12:59  UTC
##########################################################

##########################################################
# ESMX, Vaxjo (Sweden)
# WMO index: 02641. WIGOS ID: 0-20000-0-02648
# Latitude 56-51N. Longitude 014-50E. Altitude 199 m.
##########################################################

201912311250 METAR ESMX 311250Z AUTO 30011KT 9999 NCD 05/M02 Q1020=
201912311220 METAR ESMX 311220Z AUTO 30011KT 9999 NCD 05/M02 Q1020=
201912311150 METAR ESMX 311150Z AUTO 31012KT 9999 NCD 06/M01 Q1019=
201912311120 METAR ESMX 311120Z AUTO 30011KT 9999 NCD 05/M00 Q1018=
201912311050 METAR ESMX 311050Z AUTO 30010KT 9999 NCD 05/00 Q1018=
201912311020 METAR ESMX 311020Z AUTO 30010KT 260V330 9999 NCD 05/01 Q1018=
201912310950 METAR ESMX 310950Z AUTO 29011KT 9999 NCD 05/01 Q1017=
201912310920 METAR ESMX 310920Z AUTO 29013KT 9999 NCD 05/01 Q1016=
201912310850 METAR ESMX 310850Z AUTO 28009KT 9999 NCD 04/02 Q1015=
201912310820 METAR ESMX 310820Z AUTO 29010KT 9999 NCD 04/02 Q1014=
201912310750 METAR ESMX 310750Z AUTO 30009KT 250V320 9999 NCD 04/02 Q1014=
201912310720 METAR ESMX 310720Z 30010KT CAVOK 04/02 Q1012=
201912310650 METAR ESMX 310650Z 29012KT CAVOK 05/03 Q1011=
201912310620 METAR ESMX 310620Z AUTO 29011KT 9999 NCD 05/03 Q1010=
201912310550 METAR ESMX 310550Z AUTO 29012KT 9999 NCD 05/03 Q1010=
201912310520 METAR ESMX 310520Z AUTO 28012KT 9999 FEW020/// 05/03 Q1009=
201912310450 METAR ESMX 310450Z AUTO 29012KT 250V320 9999 SCT018/// BKN021/// BKN140/// 06/03 Q1009=
201912310420 METAR ESMX 310420Z AUTO 28015G26KT 9999 OVC017/// 06/04 Q1009=
201912310350 METAR ESMX 310350Z AUTO 27012KT 9999 BKN017/// 06/03 Q1009=
201912310320 METAR ESMX 310320Z AUTO 27015G25KT 240V300 9999 OVC018/// 06/03 Q1008=
201912310250 METAR ESMX 310250Z AUTO 27014KT 9999 OVC017/// 05/03 Q1008=
201912310220 METAR ESMX 310220Z AUTO 28013KT 9999 OVC017/// 06/03 Q1008=
201912310150 METAR ESMX 310150Z AUTO 27014KT 230V310 9999 OVC017/// 05/03 Q1008=
201912310120 METAR ESMX 310120Z AUTO 26016G30KT 9999 OVC015/// 06/04 Q1008=
201912310050 METAR ESMX 310050Z AUTO 27015G25KT 9999 OVC015/// 06/04 Q1008=
201912310020 METAR ESMX 310020Z AUTO 27015KT 9999 OVC015/// 06/04 Q1008=
201912302350 METAR ESMX 302350Z AUTO 26015KT 9999 OVC016/// 06/04 Q1008=
201912302320 METAR ESMX 302320Z AUTO 26016KT 9999 BKN016/// OVC021/// 06/04 Q1008=
201912302250 METAR ESMX 302250Z AUTO 27016KT 9999 BKN015/// OVC022/// 06/05 Q1008=
201912302220 METAR ESMX 302220Z AUTO 27014KT 240V300 9999 BKN013/// BKN017/// OVC021/// 07/06 Q1008=
201912302150 METAR ESMX 302150Z AUTO 27012KT 9999 BKN010/// OVC015/// 07/06 Q1008=
201912302120 METAR ESMX 302120Z AUTO 25010KT 220V280 9999 -DZ SCT006/// BKN009/// OVC011/// 07/07 Q1008=
201912302050 METAR ESMX 302050Z AUTO 26014KT 9999 -DZ OVC006/// 07/07 Q1008=
201912302020 METAR ESMX 302020Z AUTO 25012KT 9999 -DZ OVC005/// 07/07 Q1008 REDZ=
201912301950 METAR ESMX 301950Z 25011KT 230V290 4300 DZ BKN003 07/07 Q1008 REDZ=
201912301920 METAR ESMX 301920Z 23012KT 200V260 2600 -DZ OVC002 07/07 Q1008 REDZ=
201912301850 METAR ESMX 301850Z 23010KT 2300 BR BKN002 06/06 Q1008=
201912301820 METAR ESMX 301820Z 24012KT 2400 BR BKN002 06/06 Q1009=
201912301750 METAR ESMX 301750Z 23012KT 2500 BR OVC002 06/06 Q1009 REDZ=
201912301720 METAR ESMX 301720Z 23014KT 2800 BR OVC002 06/06 Q1010=
201912301650 METAR ESMX 301650Z 22011KT 2400 -DZ OVC002 06/06 Q1010=
201912301620 METAR ESMX 301620Z 24012KT 2300 -DZ BKN002 06/06 Q1011 RERA=
201912301550 METAR ESMX 301550Z 23013KT 2100 BR BKN002 07/07 Q1011=
201912301520 METAR ESMX 301520Z 23014KT 2400 BR BKN002 07/07 Q1011=
201912301450 METAR ESMX 301450Z 24015KT 3500 BR BKN002 07/07 Q1011=
201912301420 METAR ESMX 301420Z 23013KT 2900 BR BKN002 07/07 Q1011=
201912301350 METAR ESMX 301350Z 24013KT 3000 BR BKN002 07/07 Q1011=
201912301320 METAR ESMX 301320Z 23014G25KT 4200 BR BKN002 07/07 Q1011=
201912301250 METAR ESMX 301250Z AUTO 24014KT 210V270 5000 BR OVC002/// 06/06 Q1011=
201912301220 METAR ESMX 301220Z 24013KT 6000 BR BKN002 06/06 Q1012=
201912301150 METAR ESMX 301150Z 24012KT 3800 BR BKN002 06/06 Q1013=
201912301120 METAR ESMX 301120Z 25013KT 4600 BR OVC002 06/06 Q1013=
201912301050 METAR ESMX 301050Z 24012G24KT 4800 BR OVC002 06/06 Q1013=
201912301020 METAR ESMX 301020Z 24014KT 5000 BR OVC002 06/06 Q1014=
201912300950 METAR ESMX 300950Z 24013KT 6000 BR OVC002 06/06 Q1014=
201912300920 METAR ESMX 300920Z 24015KT 200V280 6000 BR OVC003 06/06 Q1014=
201912300850 METAR ESMX 300850Z 24014KT 8000 BR OVC004 06/05 Q1014=
201912300820 METAR ESMX 300820Z 24013KT 9000 BR OVC005 05/05 Q1014=
201912300750 METAR ESMX 300750Z 23013KT 9999 OVC005 05/05 Q1014=
201912300720 METAR ESMX 300720Z 24013KT 9999 OVC006 05/04 Q1014=
201912300650 METAR ESMX 300650Z 24013KT 9999 OVC007 05/04 Q1015=
201912300620 METAR ESMX 300620Z 24011KT 9999 OVC008 05/04 Q1015=
201912300550 METAR ESMX 300550Z AUTO 23011KT 200V270 9999 OVC008/// 05/03 Q1015=
201912300520 METAR ESMX 300520Z AUTO 24012KT 200V260 9999 OVC009/// 05/03 Q1016=
201912300450 METAR ESMX 300450Z AUTO 25012KT 220V290 9999 OVC009/// 05/03 Q1016=
201912300420 METAR ESMX 300420Z AUTO 25012KT 9999 OVC010/// 05/03 Q1016=
201912300350 METAR ESMX 300350Z AUTO 24013KT 9999 OVC012/// 04/02 Q1016=
201912300320 METAR ESMX 300320Z AUTO 23011KT 9999 OVC012/// 04/02 Q1017=
201912300250 METAR ESMX 300250Z AUTO 24011KT 9999 OVC014/// 04/01 Q1017=
201912300220 METAR ESMX 300220Z AUTO 23010KT 9999 BKN016/// BKN210/// 03/01 Q1018=
201912300150 METAR ESMX 300150Z AUTO 22010KT 9999 NCD 03/00 Q1018=
201912300120 METAR ESMX 300120Z AUTO 22012KT 9999 NCD 03/00 Q1018=
201912300050 METAR ESMX 300050Z AUTO 22013KT 9999 NCD 03/00 Q1019=
201912300020 METAR ESMX 300020Z AUTO 23012KT 9999 FEW200/// 03/01 Q1019=
201912292350 METAR ESMX 292350Z AUTO 22010KT 9999 FEW160/// BKN210/// 03/01 Q1020=
201912292320 METAR ESMX 292320Z AUTO 22009KT 9999 NCD 03/01 Q1020=
201912292250 METAR ESMX 292250Z AUTO 22010KT 9999 NCD 02/01 Q1021=
201912292220 METAR ESMX 292220Z AUTO 22011KT 9999 NCD 02/01 Q1021=
201912292150 METAR ESMX 292150Z AUTO 23011KT 9999 FEW012/// 02/01 Q1021=
201912292120 METAR ESMX 292120Z AUTO 22011KT 9999 FEW011/// SCT150/// 02/01 Q1022=
201912292050 METAR ESMX 292050Z AUTO 22010KT 9999 SCT011/// BKN140/// 02/01 Q1022=
201912292020 METAR ESMX 292020Z AUTO 22009KT 9999 BKN010/// 02/01 Q1023=
201912291950 METAR ESMX 291950Z AUTO 19012KT 9999 BKN010/// 02/01 Q1023=
201912291920 METAR ESMX 291920Z AUTO 21009KT 9999 BKN009/// BKN010/// 02/01 Q1024=
201912291850 METAR ESMX 291850Z AUTO 22010KT 9000 BR OVC008/// 02/01 Q1024 REUP=
201912291820 METAR ESMX 291820Z AUTO 22010KT 8000 BR OVC006/// 02/01 Q1024=
201912291750 METAR ESMX 291750Z 21009KT 7000 BR OVC005 02/01 Q1025=
201912291720 METAR ESMX 291720Z 20011KT 7000 BR OVC005 01/01 Q1025=
201912291650 METAR ESMX 291650Z 22010KT 7000 BR OVC005 01/01 Q1026=
201912291620 METAR ESMX 291620Z 22010KT 7000 BR OVC005 01/01 Q1026=
201912291550 METAR ESMX 291550Z 22009KT 6000 BR OVC004 01/01 Q1026=
201912291520 METAR ESMX 291520Z 21009KT 6000 BR OVC004 01/01 Q1027=
201912291450 METAR ESMX 291450Z 22008KT 170V260 6000 BR OVC004 01/01 Q1027=
201912291420 METAR ESMX 291420Z 22010KT 6000 BR OVC004 01/01 Q1027=
201912291350 METAR ESMX 291350Z 23012KT 6000 BR BKN004 01/01 Q1028=
201912291320 METAR ESMX 291320Z 22012KT 6000 BR OVC003 01/01 Q1028=
201912291250 METAR ESMX 291250Z 21011KT 5000 BR OVC002 01/01 Q1028=
201912291220 METAR ESMX 291220Z 22009KT 3300 BR VV002 01/01 Q1029=
201912291150 METAR ESMX 291150Z 20011KT 2100 BR OVC002 01/01 Q1029=
201912291120 METAR COR ESMX 291120Z 21011KT 2300 BR OVC002 01/01 Q1029=
201912291050 METAR ESMX 291050Z AUTO 20010KT 4900 -RA OVC003/// 01/01 Q1030 REUP=
201912291020 METAR ESMX 291020Z AUTO 20010KT 8000 BR OVC004/// 01/00 Q1030=
201912290950 METAR ESMX 290950Z 20010KT 9999 BKN005 01/00 Q1031=
201912290920 METAR ESMX 290920Z 21010KT 9999 BKN006 01/M00 Q1031=
201912290850 METAR ESMX 290850Z 19009KT 9999 BKN007 00/M00 Q1031=
201912290820 METAR ESMX 290820Z 23008KT 9999 BKN009 00/M01 Q1032=
201912290750 METAR ESMX 290750Z 22008KT 9999 BKN010 00/M01 Q1032=
201912290720 METAR ESMX 290720Z 19008KT 9999 FEW010 M00/M01 Q1031=
201912290650 METAR ESMX 290650Z 20008KT CAVOK M00/M01 Q1032=
201912290620 METAR COR ESMX 290620Z 19007KT CAVOK M00/M01 Q1032=
201912290550 METAR ESMX 290550Z AUTO 19008KT 9999 OVC100/// M01/M01 Q1032=
201912290520 METAR ESMX 290520Z AUTO 21006KT 170V240 9999 OVC098/// M00/M01 Q1033=
201912290450 METAR ESMX 290450Z AUTO 20008KT 9999 OVC098/// M01/M01 Q1033=
201912290420 METAR ESMX 290420Z AUTO 21007KT 9999 SCT009/// OVC110/// M01/M01 Q1033=
201912290350 METAR ESMX 290350Z AUTO 19008KT 9999 BKN008/// OVC120/// M01/M01 Q1033=
201912290320 METAR ESMX 290320Z AUTO 21007KT 9999 OVC007/// M01/M02 Q1034=
201912290250 METAR ESMX 290250Z AUTO 22008KT 9999 OVC006/// M01/M02 Q1035=
201912290220 METAR ESMX 290220Z AUTO 19010KT 9999 OVC006/// M01/M02 Q1034=
201912290150 METAR ESMX 290150Z AUTO 19009KT 9999 BKN008/// OVC160/// M02/M02 Q1035=
201912290120 METAR ESMX 290120Z AUTO 20006KT 9999 SCT008/// OVC062/// M02/M02 Q1035=
201912290050 METAR ESMX 290050Z AUTO 20006KT 9999 BKN007/// BKN057/// OVC066/// M02/M03 Q1036=
201912290020 METAR ESMX 290020Z AUTO 19007KT 9999 FEW008/// BKN057/// OVC066/// M02/M03 Q1036=
201912282350 METAR ESMX 282350Z AUTO 20005KT 9999 FEW008/// OVC064/// M02/M03 Q1037=
201912282320 METAR ESMX 282320Z AUTO 19006KT 9999 BKN008/// BKN061/// OVC076/// M02/M03 Q1037=
201912282250 METAR ESMX 282250Z AUTO 18005KT 9999 OVC009/// M02/M03 Q1037 RESHUP=
201912282220 METAR ESMX 282220Z AUTO 21004KT 9999 FEW012/// BKN051/// M03/M03 Q1038 REFZUP=
201912282150 METAR ESMX 282150Z AUTO 21005KT 9999 OVC040/// M02/M04 Q1038=
201912282120 METAR ESMX 282120Z AUTO 19006KT 9999 OVC042/// M03/M04 Q1038=
201912282050 METAR ESMX 282050Z AUTO 21004KT 9999 OVC047/// M03/M04 Q1039=
201912282020 METAR ESMX 282020Z AUTO 21004KT 9999 BKN059/// OVC080/// M03/M04 Q1039=
201912281950 METAR ESMX 281950Z AUTO 21004KT 9999 BKN074/// OVC088/// M03/M04 Q1039=
201912281920 METAR ESMX 281920Z AUTO 22005KT 9999 OVC094/// M03/M04 Q1039=
201912281850 METAR ESMX 281850Z AUTO 19004KT 9999 FEW100/// M03/M04 Q1039=
201912281820 METAR ESMX 281820Z AUTO 19003KT 9999 BKN094/// M03/M04 Q1039=
201912281750 METAR ESMX 281750Z AUTO 21003KT 9999 FEW090/// M03/M04 Q1040=
201912281720 METAR ESMX 281720Z AUTO 20002KT 9999 SCT094/// M03/M04 Q1040=
201912281650 METAR ESMX 281650Z AUTO 19003KT 9999 BKN098/// M04/M05 Q1040=
201912281620 METAR ESMX 281620Z AUTO 20003KT 9999 FEW100/// M04/M05 Q1040=
201912281550 METAR ESMX 281550Z AUTO 18002KT 9999 NCD M03/M05 Q1040=
201912281520 METAR ESMX 281520Z AUTO 21002KT 9999 NCD M04/M05 Q1040=
201912281450 METAR ESMX 281450Z AUTO 18004KT 9999 NCD M04/M05 Q1040=
201912281420 METAR ESMX 281420Z AUTO 23002KT 9999 NCD M03/M05 Q1040=
201912281350 METAR ESMX 281350Z AUTO 19002KT 9999 NCD M03/M05 Q1040=
201912281320 METAR ESMX 281320Z AUTO 21003KT 9999 NCD M03/M05 Q1040=
201912281250 METAR ESMX 281250Z AUTO 00000KT 9999 NCD M02/M05 Q1040=
201912281220 METAR ESMX 281220Z AUTO 00000KT 9999 NCD M02/M05 Q1040=
201912281150 METAR ESMX 281150Z AUTO VRB02KT 9999 NCD M02/M05 Q1041=
201912281120 METAR ESMX 281120Z AUTO 27001KT 9999 NCD M03/M04 Q1041=
201912281050 METAR ESMX 281050Z AUTO 00000KT 9999 NCD M02/M04 Q1041=
201912281020 METAR ESMX 281020Z AUTO 00000KT 9999 NCD M03/M05 Q1041=
201912280950 METAR ESMX 280950Z AUTO 00000KT 9999 NCD M04/M05 Q1041=
201912280920 METAR ESMX 280920Z AUTO 27002KT 9999 NCD M05/M05 Q1041=
201912280850 METAR ESMX 280850Z AUTO 27002KT 9999 NCD M06/M06 Q1041=
201912280820 METAR ESMX 280820Z AUTO 28004KT 9999 NCD M08/M08 Q1041=
201912280750 METAR ESMX 280750Z AUTO 00000KT 9999 NCD M06/M07 Q1041=
201912280720 METAR ESMX 280720Z AUTO 00000KT 9999 NCD M06/M07 Q1040=
201912280650 METAR ESMX 280650Z AUTO 00000KT 9999 NCD M06/M07 Q1040=
201912280620 METAR ESMX 280620Z AUTO 28006KT 9999 SCT023/// M06/M07 Q1041=
201912280550 METAR ESMX 280550Z AUTO 00000KT 9999 NCD M06/M07 Q1040=
201912280520 METAR ESMX 280520Z AUTO 16002KT 9999 NCD M05/M07 Q1040=
201912280450 METAR ESMX 280450Z AUTO 00000KT 9999 SCT020/// M05/M06 Q1040=
201912280420 METAR ESMX 280420Z AUTO 00000KT 9999 OVC020/// M04/M06 Q1040=
201912280350 METAR ESMX 280350Z AUTO 27003KT 9999 OVC020/// M04/M06 Q1040=
201912280320 METAR ESMX 280320Z AUTO VRB03KT 9999 SCT020/// M04/M07 Q1040=
201912280250 METAR ESMX 280250Z AUTO 02003KT 9999 BKN019/// M03/M06 Q1040=
201912280220 METAR ESMX 280220Z AUTO 02006KT 350V060 9999 BKN019/// M03/M06 Q1040=
201912280150 METAR ESMX 280150Z AUTO 01005KT 340V050 9999 OVC019/// M02/M06 Q1040=
201912280120 METAR ESMX 280120Z AUTO 02007KT 360V060 9999 OVC020/// M02/M06 Q1040=
201912280050 METAR ESMX 280050Z AUTO 01008KT 9999 OVC020/// M02/M06 Q1039=
201912280020 METAR ESMX 280020Z AUTO 01008KT 9999 OVC020/// M02/M06 Q1039=
201912272350 METAR ESMX 272350Z AUTO 02007KT 9999 OVC020/// M02/M06 Q1038=
201912272320 METAR ESMX 272320Z AUTO 02007KT 9999 OVC019/// M02/M06 Q1038=
201912272250 METAR ESMX 272250Z AUTO 01007KT 330V030 9999 OVC020/// M02/M06 Q1038=
201912272220 METAR ESMX 272220Z AUTO 04009KT 010V080 9999 OVC019/// M02/M06 Q1038=
201912272150 METAR ESMX 272150Z AUTO 02009KT 9999 OVC020/// M02/M06 Q1038=
201912272120 METAR ESMX 272120Z AUTO 02010KT 9999 OVC020/// M02/M06 Q1038=
201912272050 METAR ESMX 272050Z AUTO 35010KT 9999 OVC020/// M02/M06 Q1037=
201912272020 METAR ESMX 272020Z AUTO 36010KT 9999 OVC020/// M02/M06 Q1037=
201912271950 METAR ESMX 271950Z AUTO 35011KT 9999 OVC020/// M02/M06 Q1037=
201912271920 METAR ESMX 271920Z AUTO 03008KT 9999 BKN020/// M02/M06 Q1036=
201912271850 METAR ESMX 271850Z AUTO 35009KT 9999 OVC020/// M02/M05 Q1036=
201912271820 METAR ESMX 271820Z 03008KT 9999 OVC019 M02/M06 Q1036=
201912271750 METAR ESMX 271750Z 36009KT 9999 OVC020 M02/M05 Q1035=
201912271720 METAR ESMX 271720Z 01010KT 9999 OVC020 M02/M05 Q1035=
201912271650 METAR ESMX 271650Z 03011KT 360V060 9999 OVC019 M02/M06 Q1034=
201912271620 METAR ESMX 271620Z 01010KT 9999 OVC018 M01/M05 Q1034=
201912271550 METAR ESMX 271550Z 35013KT 9999 OVC016 M01/M04 Q1034=
201912271520 METAR ESMX 271520Z 01012KT 9999 OVC018 M01/M04 Q1034=
201912271450 METAR ESMX 271450Z 35013KT 9999 BKN018 M01/M04 Q1033=
201912271420 METAR ESMX 271420Z 35012KT 9999 OVC021 M01/M04 Q1033=
201912271350 METAR ESMX 271350Z 36010KT 9999 BKN020 M01/M05 Q1032=
201912271320 METAR ESMX 271320Z 01013KT 9999 BKN019 M01/M04 Q1032=
201912271250 METAR ESMX 271250Z 34012KT 9999 BKN018 M00/M04 Q1031=
201912271220 METAR ESMX 271220Z 36010KT 9999 BKN021 M00/M03 Q1031=
201912271150 METAR ESMX 271150Z 01009KT 320V020 9999 BKN024 M00/M04 Q1031=
201912271120 METAR ESMX 271120Z 02013KT 9999 OVC026 M00/M05 Q1031=
201912271050 METAR COR ESMX 271050Z 02012KT 9999 OVC024 M00/M04 Q1030=
201912271020 METAR COR ESMX 271020Z 01012KT 9999 OVC026 M00/M04 Q1030=
201912270950 METAR ESMX 270950Z 02010KT 350V060 9999 FEW017 BKN027 M00/M03 Q1030=
201912270920 METAR ESMX 270920Z 01010KT 9999 FEW013 BKN033 M00/M02 Q1030=
201912270850 METAR ESMX 270850Z 35010KT 9999 BKN034 M00/M02 Q1029=
201912270820 METAR ESMX 270820Z 01010KT 9999 SCT013 BKN037 M00/M02 Q1029=
201912270750 METAR ESMX 270750Z 35010KT 9999 SCT015 BKN041 M00/M02 Q1028=
201912270720 METAR COR ESMX 270720Z 35009KT 9999 FEW013 BKN043 M00/M02 Q1028=
201912270650 METAR ESMX 270650Z AUTO 01009KT 9999 FEW010/// OVC020/// M00/M01 Q1027 REFZUP=
201912270620 METAR ESMX 270620Z AUTO 01011KT 9999 FZUP BKN013/// OVC016/// M00/M02 Q1027=
201912270550 METAR ESMX 270550Z AUTO 35011KT 9999 BKN013/// BKN016/// M00/M01 Q1027=
201912270520 METAR ESMX 270520Z AUTO 33008KT 9999 SCT029/// M01/M02 Q1026=
201912270450 METAR ESMX 270450Z AUTO 01006KT 9999 FEW017/// SCT027/// M00/M02 Q1026=
201912270420 METAR ESMX 270420Z AUTO 02006KT 9999 FEW016/// OVC025/// 01/M01 Q1026=
201912270350 METAR ESMX 270350Z AUTO 02007KT 350V060 9999 FEW012/// OVC026/// 01/M01 Q1025=
201912270320 METAR ESMX 270320Z AUTO 01008KT 9999 FEW012/// SCT015/// OVC027/// 01/M00 Q1025=
201912270250 METAR ESMX 270250Z AUTO 35009KT 9999 FEW012/// SCT016/// OVC026/// 01/M00 Q1024=
201912270220 METAR ESMX 270220Z AUTO 35007KT 9999 OVC027/// 01/M00 Q1024=
201912270150 METAR ESMX 270150Z AUTO 35006KT 9999 OVC027/// 01/00 Q1024=
201912270120 METAR ESMX 270120Z AUTO 35006KT 9999 OVC027/// 01/00 Q1024=
201912270050 METAR ESMX 270050Z AUTO 35006KT 9999 OVC030/// 01/00 Q1023=
201912270020 METAR ESMX 270020Z AUTO 33005KT 9999 OVC031/// 01/00 Q1023=
201912262350 METAR ESMX 262350Z AUTO 31005KT 9999 FEW008/// OVC032/// 01/00 Q1023=
201912262320 METAR ESMX 262320Z AUTO 32003KT 260V360 9999 OVC034/// 01/00 Q1023=
201912262250 METAR ESMX 262250Z AUTO 36004KT 9999 OVC035/// 01/00 Q1023=
201912262220 METAR ESMX 262220Z AUTO 01004KT 9999 OVC037/// 01/01 Q1023=
201912262150 METAR ESMX 262150Z AUTO 36007KT 9999 SCT009/// OVC037/// 01/01 Q1022=
201912262120 METAR ESMX 262120Z 35007KT 9999 OVC008 01/01 Q1022=
201912262050 METAR ESMX 262050Z 36006KT 9999 BKN009 01/01 Q1022=
201912262020 METAR ESMX 262020Z 35007KT 9999 BKN007 01/01 Q1022=
201912261950 METAR ESMX 261950Z 35006KT 9999 BKN008 01/01 Q1021=
201912261920 METAR ESMX 261920Z 34007KT 9999 BKN010 01/00 Q1021=
201912261850 METAR ESMX 261850Z 36008KT 9999 BKN009 OVC012 01/00 Q1021=
201912261820 METAR ESMX 261820Z 35007KT 9999 BKN009 OVC012 01/00 Q1021=
201912261750 METAR ESMX 261750Z AUTO 01008KT 9999 OVC008/// 01/00 Q1020=
201912261720 METAR ESMX 261720Z 35009KT 9999 BKN009 OVC010 01/00 Q1020=
201912261650 METAR ESMX 261650Z 01010KT 9999 OVC009 01/00 Q1020=
201912261620 METAR ESMX 261620Z 36010KT 9999 OVC009 02/01 Q1020=
201912261550 METAR ESMX 261550Z 34009KT 9999 OVC010 02/01 Q1019=
201912261520 METAR ESMX 261520Z 35009KT 9999 OVC012 02/01 Q1019=
201912261450 METAR ESMX 261450Z 35009KT 9999 BKN010 02/01 Q1019=
201912261420 METAR ESMX 261420Z 33007KT 9999 BKN010 02/01 Q1019=
201912261350 METAR ESMX 261350Z 32007KT 9999 OVC008 02/01 Q1019=
201912261320 METAR ESMX 261320Z 32007KT 9999 BKN008 02/01 Q1018=
201912261250 METAR ESMX 261250Z 32006KT 9999 BKN008 02/01 Q1018=
201912261220 METAR ESMX 261220Z 31006KT 9999 BKN007 02/01 Q1018=
201912261150 METAR ESMX 261150Z 32007KT 9999 BKN007 02/01 Q1018=
201912261120 METAR ESMX 261120Z AUTO 31006KT 9999 OVC008/// 02/01 Q1018=
201912261050 METAR ESMX 261050Z AUTO 31006KT 9999 BKN007/// OVC010/// 02/01 Q1018=
201912261020 METAR ESMX 261020Z AUTO 32004KT 290V350 9999 OVC005/// 02/01 Q1018=
201912260950 METAR ESMX 260950Z AUTO 30004KT 9999 OVC004/// 01/01 Q1018=
201912260920 METAR ESMX 260920Z AUTO 29005KT 9999 OVC005/// 01/01 Q1018=
201912260850 METAR ESMX 260850Z AUTO 29004KT 9999 OVC006/// 01/01 Q1017=
201912260820 METAR ESMX 260820Z AUTO 28004KT 260V320 9999 BKN005/// OVC007/// 01/01 Q1017=
201912260750 METAR ESMX 260750Z AUTO 29004KT 9999 OVC005/// 01/01 Q1017=
201912260720 METAR ESMX 260720Z AUTO 30005KT 9999 OVC006/// 01/01 Q1017=
201912260650 METAR ESMX 260650Z 29005KT 9999 BKN003 01/01 Q1017=
201912260620 METAR ESMX 260620Z 30005KT 7000 BR OVC002 01/01 Q1017=
201912260550 METAR ESMX 260550Z 29005KT 8000 BR OVC003 01/01 Q1016=
201912260520 METAR ESMX 260520Z 27004KT 9999 BKN004 00/00 Q1016=
201912260450 METAR ESMX 260450Z AUTO 28003KT 250V330 9999 OVC005/// 00/00 Q1016=
201912260420 METAR ESMX 260420Z AUTO 27003KT 9999 OVC005/// 00/00 Q1016=
201912260350 METAR ESMX 260350Z AUTO 32004KT 290V350 9999 OVC005/// 00/00 Q1016=
201912260320 METAR ESMX 260320Z AUTO 34006KT 290V360 9999 OVC005/// 00/00 Q1016=
201912260250 METAR ESMX 260250Z AUTO 31007KT 9999 OVC005/// 00/00 Q1016=
201912260220 METAR ESMX 260220Z AUTO 35006KT 9999 OVC005/// 01/00 Q1016=
201912260150 METAR ESMX 260150Z AUTO 31005KT 9999 OVC004/// 01/01 Q1016=
201912260120 METAR ESMX 260120Z AUTO 33006KT 9999 OVC004/// 01/01 Q1016=
201912260050 METAR ESMX 260050Z AUTO 30006KT 280V340 9999 OVC003/// 01/01 Q1015=
201912260020 METAR ESMX 260020Z AUTO 32006KT 9999 OVC003/// 01/01 Q1015=
201912252350 METAR ESMX 252350Z AUTO 31005KT 280V340 9999 OVC003/// 01/01 Q1015=
201912252320 METAR ESMX 252320Z AUTO 30008KT 270V330 9999 OVC004/// 01/01 Q1015=
201912252250 METAR ESMX 252250Z AUTO 33007KT 9999 OVC003/// 01/01 Q1015=
201912252220 METAR ESMX 252220Z AUTO 28007KT 240V310 9999 OVC003/// 01/01 Q1015=
201912252150 METAR ESMX 252150Z AUTO 26007KT 9999 OVC002/// 02/02 Q1014=
201912252120 METAR ESMX 252120Z AUTO 27007KT 240V300 9999 OVC003/// 02/02 Q1014=
201912252050 METAR ESMX 252050Z AUTO 26008KT 9999 OVC005/// 02/02 Q1014=
201912252020 METAR ESMX 252020Z AUTO 27007KT 9999 OVC006/// 03/03 Q1014=
201912251950 METAR ESMX 251950Z AUTO 27006KT 9999 BKN004/// OVC006/// 04/04 Q1013=
201912251920 METAR ESMX 251920Z 26007KT 9999 OVC003 04/04 Q1013=
201912251850 METAR ESMX 251850Z 26006KT 210V300 9999 OVC004 04/04 Q1013=
201912251820 METAR ESMX 251820Z 26006KT 9999 SCT004 BKN006 04/04 Q1013=
201912251750 METAR ESMX 251750Z 27006KT 8000 BR SCT002 BKN004 04/04 Q1013=
201912251720 METAR ESMX 251720Z 26005KT 220V280 4600 BR OVC003 04/04 Q1013=
201912251650 METAR ESMX 251650Z 26005KT 7000 BR SCT003 OVC016 04/04 Q1013=
201912251620 METAR ESMX 251620Z 25004KT 9999 FEW008 SCT017 BKN031 04/04 Q1012=
201912251550 METAR ESMX 251550Z 22003KT 9999 SCT010 BKN017 04/04 Q1012=
201912251520 METAR ESMX 251520Z AUTO 21003KT 9999 FEW010/// OVC016/// 04/04 Q1012=
201912251450 METAR ESMX 251450Z AUTO 24002KT 8000 BR FEW002/// OVC016/// 05/05 Q1012 REDZ=
201912251420 METAR ESMX 251420Z AUTO 22002KT 2300 +DZ FEW002/// SCT004/// BKN007/// 05/05 Q1012 REUP=
201912251350 METAR ESMX 251350Z AUTO 21003KT 9999 OVC013/// 05/05 Q1011=
201912251320 METAR ESMX 251320Z AUTO 26003KT 8000 BR SCT001/// BKN003/// OVC009/// 05/05 Q1011=
201912251250 METAR ESMX 251250Z AUTO 25003KT 200V280 2400 BR OVC001/// 05/05 Q1011=
201912251220 METAR ESMX 251220Z AUTO 22004KT 2200 BR OVC001/// 04/04 Q1011 REUP=
201912251150 METAR ESMX 251150Z AUTO 21003KT 3200 BR OVC001/// 04/04 Q1010=
201912251120 METAR ESMX 251120Z AUTO 22004KT 6000 BR OVC001/// 04/04 Q1010 REDZ REUP=
201912251050 METAR ESMX 251050Z AUTO 20004KT 7000 BR OVC001/// 04/04 Q1010=
201912251020 METAR ESMX 251020Z AUTO 20003KT 5000 BR OVC001/// 04/04 Q1010=
201912250950 METAR ESMX 250950Z AUTO 21004KT 2300 BR OVC001/// 04/04 Q1010=
201912250920 METAR ESMX 250920Z AUTO 20004KT 2300 BR OVC001/// 03/03 Q1010=
201912250850 METAR ESMX 250850Z 23003KT 5000 BR OVC002 03/03 Q1009=
201912250820 METAR ESMX 250820Z 22003KT 5000 BR OVC002 03/03 Q1009=
201912250750 METAR ESMX 250750Z VRB01KT 6000 BR BKN003 03/03 Q1009=
201912250720 METAR ESMX 250720Z 22002KT 7000 BR OVC003 03/03 Q1008=
201912250650 METAR ESMX 250650Z 28002KT 9000 BR BKN002 03/03 Q1008=
201912250620 METAR ESMX 250620Z VRB01KT 1800 BR OVC002 04/04 Q1008=
201912250550 METAR ESMX 250550Z AUTO VRB02KT 1400 R01/P2000N R19/P2000N BR OVC001/// 04/04 Q1008=
201912250520 METAR ESMX 250520Z AUTO 24003KT 2100 BR OVC001/// 03/03 Q1007=
201912250450 METAR ESMX 250450Z AUTO 25003KT 1900 BR OVC001/// 03/03 Q1007=
201912250420 METAR ESMX 250420Z AUTO 24003KT 1700 BKN001/// OVC004/// 03/03 Q1007=
201912250350 METAR ESMX 250350Z AUTO 00000KT 0250 R01/P2000N R19/0800N VV004 03/03 Q1007=
201912250320 METAR ESMX 250320Z AUTO 20004KT 0250 R01/0750N R19/0900N FG BKN001/// OVC059/// 03/03 Q1007=
201912250250 METAR ESMX 250250Z AUTO 20002KT 0500 R01/P2000N R19/P2000N BR FEW001/// OVC059/// 03/03 Q1006=
201912250220 METAR ESMX 250220Z AUTO 22002KT 2500 BR BKN002/// BKN059/// 04/04 Q1006=
201912250150 METAR ESMX 250150Z AUTO 22003KT 5000 BR OVC002/// 04/04 Q1006=
201912250120 METAR ESMX 250120Z AUTO 22004KT 8000 BR OVC003/// 04/04 Q1006=
201912250050 METAR ESMX 250050Z AUTO 22004KT 9999 SCT004/// OVC007/// 04/04 Q1006=
201912250020 METAR ESMX 250020Z AUTO 21003KT 170V240 9999 OVC006/// 04/04 Q1006=
201912242350 METAR ESMX 242350Z AUTO VRB03KT 7000 BR BKN003/// OVC007/// 04/04 Q1006=
201912242320 METAR ESMX 242320Z AUTO 20003KT 4900 BR FEW004/// BKN025/// 04/04 Q1005=
201912242250 METAR ESMX 242250Z AUTO 22003KT 9999 FEW010/// SCT016/// BKN021/// 04/04 Q1005=
201912242220 METAR ESMX 242220Z AUTO 22004KT 9999 BKN010/// OVC028/// 04/04 Q1005=
201912242150 METAR ESMX 242150Z AUTO 20004KT 9999 FEW005/// BKN008/// BKN019/// 05/05 Q1005=
201912242120 METAR ESMX 242120Z AUTO 20005KT 9999 BKN005/// OVC027/// 05/05 Q1005=
201912242050 METAR ESMX 242050Z AUTO 19004KT 9999 BKN005/// BKN007/// OVC009/// 05/05 Q1005 REDZ=
201912242020 METAR ESMX 242020Z AUTO 19005KT 6000 DZ BKN005/// OVC022/// 05/05 Q1004=
201912241950 METAR ESMX 241950Z 19005KT 5000 RA SCT002 BKN005 05/05 Q1004=
201912241920 METAR ESMX 241920Z 18005KT 7000 BR OVC002 05/05 Q1004=
201912241850 METAR ESMX 241850Z 18005KT 4800 BR BKN002 OVC007 05/05 Q1004=
201912241820 METAR COR ESMX 241820Z 19005KT 4000 BR OVC002 05/05 Q1004=
201912241750 METAR ESMX 241750Z AUTO 19005KT 9999 BR OVC003/// 05/05 Q1004=
201912241720 METAR ESMX 241720Z AUTO 19005KT 9999 BKN003/// BKN005/// OVC007/// 05/05 Q1004=
201912241650 METAR ESMX 241650Z AUTO 17005KT 9000 BKN002/// OVC005/// 05/05 Q1004=
201912241620 METAR ESMX 241620Z AUTO 17005KT 5000 BR OVC002/// 05/05 Q1003 REDZ=
201912241550 METAR ESMX 241550Z AUTO 15004KT 5000 BR OVC002/// 05/05 Q1004=
201912241520 METAR ESMX 241520Z AUTO 16005KT 3900 BR OVC002/// 05/05 Q1004 RESHUP REDZ=
201912241450 METAR ESMX 241450Z AUTO 15005KT 3900 BR OVC002/// 05/05 Q1004=
201912241420 METAR ESMX 241420Z AUTO 15004KT 4200 BR OVC002/// 05/05 Q1004 REDZ REUP=
201912241350 METAR ESMX 241350Z AUTO 16004KT 8000 DZ OVC004/// 05/05 Q1004 REUP=
201912241320 METAR ESMX 241320Z AUTO 15004KT 110V190 9999 OVC004/// 05/05 Q1004=
201912241250 METAR ESMX 241250Z AUTO 15003KT 110V170 9999 OVC004/// 05/05 Q1004=
201912241220 METAR ESMX 241220Z AUTO 16003KT 9999 SCT004/// BKN009/// BKN020/// 05/05 Q1004 REDZ RESHUP=
201912241150 METAR ESMX 241150Z AUTO 20006KT 9999 SCT005/// BKN030/// OVC040/// 05/05 Q1004=
201912241120 METAR ESMX 241120Z AUTO 20005KT 9999 OVC005/// 05/05 Q1004 RESHUP=
201912241050 METAR ESMX 241050Z AUTO 21006KT 9999 OVC005/// 05/05 Q1005 REUP=
201912241020 METAR ESMX 241020Z AUTO 20006KT 9999 BKN004/// OVC033/// 05/05 Q1005=
201912240950 METAR ESMX 240950Z AUTO 19006KT 9999 BKN004/// OVC034/// 05/05 Q1005=
201912240920 METAR ESMX 240920Z AUTO 22007KT 9999 OVC003/// 05/05 Q1005=
201912240850 METAR ESMX 240850Z AUTO 22004KT 190V260 9999 OVC005/// 05/05 Q1005=
201912240820 METAR ESMX 240820Z AUTO 23004KT 9999 BKN007/// BKN010/// OVC044/// 05/05 Q1005=
201912240750 METAR ESMX 240750Z AUTO 22004KT 9999 SCT005/// BKN007/// BKN008/// 05/05 Q1005=
201912240720 METAR ESMX 240720Z 21004KT 9999 BKN003 05/05 Q1005=
201912240650 METAR ESMX 240650Z 20004KT 7000 BR BKN003 04/04 Q1004=
201912240620 METAR ESMX 240620Z 22003KT 5000 BR BKN003 04/04 Q1004=
201912240550 METAR ESMX 240550Z AUTO 22004KT 4700 UP OVC002/// 04/04 Q1004=
201912240520 METAR ESMX 240520Z AUTO 21004KT 4200 BR OVC001/// 04/04 Q1004=
201912240450 METAR ESMX 240450Z AUTO 17005KT 3700 BR OVC001/// 04/04 Q1004=
201912240420 METAR ESMX 240420Z AUTO 15006KT 2500 BR OVC001/// 03/03 Q1004=
201912240350 METAR ESMX 240350Z AUTO 16006KT 1900 BR OVC002/// 03/03 Q1004 REDZ=
201912240320 METAR ESMX 240320Z AUTO 14005KT 2700 BR OVC002/// 03/03 Q1004=
201912240250 METAR ESMX 240250Z AUTO 14004KT 100V180 5000 BR OVC002/// 03/03 Q1004=
201912240220 METAR ESMX 240220Z AUTO VRB03KT 2400 -DZ OVC003/// 03/03 Q1004 RESHUP REUP=
201912240150 METAR ESMX 240150Z AUTO VRB02KT 9999 OVC003/// 03/03 Q1004=
201912240120 METAR ESMX 240120Z AUTO VRB01KT 9999 BKN004/// OVC017/// 03/03 Q1004=
201912240050 METAR ESMX 240050Z AUTO VRB01KT 9999 BKN004/// OVC019/// 03/03 Q1004 REUP=
201912240020 METAR ESMX 240020Z AUTO VRB01KT 9999 SCT004/// OVC022/// 03/03 Q1004=
201912232350 METAR ESMX 232350Z AUTO VRB02KT 9999 BKN004/// OVC024/// 03/03 Q1003=
201912232320 METAR ESMX 232320Z AUTO VRB03KT 9999 OVC026/// 03/02 Q1003=
201912232250 METAR ESMX 232250Z AUTO VRB03KT 9999 OVC023/// 03/03 Q1003=
201912232220 METAR ESMX 232220Z AUTO VRB03KT 9999 FEW006/// OVC023/// 03/03 Q1003 RERA=
201912232150 METAR ESMX 232150Z AUTO 08003KT 050V110 9999 FEW007/// OVC026/// 03/03 Q1003 REDZ=
201912232120 METAR ESMX 232120Z AUTO VRB03KT 9999 +DZ SCT008/// BKN022/// OVC028/// 03/03 Q1003 REUP RESHUP=
201912232050 METAR ESMX 232050Z AUTO VRB03KT 9999 OVC025/// 03/03 Q1003=
201912232020 METAR ESMX 232020Z AUTO 07003KT 030V100 9999 OVC025/// 03/03 Q1002=
201912231950 METAR ESMX 231950Z VRB02KT 9999 BKN026 03/03 Q1002=
201912231920 METAR ESMX 231920Z VRB02KT 9999 BKN026 03/03 Q1002=
201912231850 METAR ESMX 231850Z VRB02KT 9999 BKN027 03/03 Q1002=
201912231820 METAR ESMX 231820Z 14002KT 9999 BKN032 03/03 Q1002=
201912231750 METAR ESMX 231750Z VRB02KT 9999 BKN038 03/02 Q1001=
201912231720 METAR ESMX 231720Z VRB02KT 9999 BKN037 03/03 Q1001=
201912231650 METAR ESMX 231650Z VRB03KT 9999 BKN036 03/03 Q1001=
201912231620 METAR ESMX 231620Z VRB02KT 9999 SCT038 02/02 Q1001=
201912231550 METAR ESMX 231550Z VRB03KT 9999 FEW031 03/03 Q1001=
201912231520 METAR ESMX 231520Z 04005KT 020V080 9999 SCT030 04/03 Q1000=
201912231450 METAR ESMX 231450Z 05003KT 9999 BKN030 04/03 Q1000=
201912231420 METAR ESMX 231420Z VRB02KT 9999 BKN031 04/03 Q1000=
201912231350 METAR ESMX 231350Z VRB03KT 9999 BKN030 04/03 Q0999=
201912231320 METAR ESMX 231320Z 04004KT 9999 BKN029 04/03 Q0999=
201912231250 METAR COR ESMX 231250Z VRB03KT 9999 SCT029 04/03 Q0999=
201912231220 METAR COR ESMX 231220Z 04002KT 9999 SCT035 04/02 Q0999=
201912231150 METAR ESMX 231150Z VRB03KT 9999 SCT035 04/02 Q0999=
201912231120 METAR ESMX 231120Z 06003KT 030V100 9999 FEW033 05/02 Q0998=
201912231050 METAR ESMX 231050Z VRB03KT 9999 BKN033 04/02 Q0998=
201912231020 METAR ESMX 231020Z VRB03KT 9999 BKN033 04/02 Q0998=
201912230950 METAR COR ESMX 230950Z VRB02KT 9999 OVC033 04/02 Q0998=
201912230920 METAR ESMX 230920Z AUTO VRB02KT 9999 OVC033/// 04/02 Q0998=
201912230850 METAR ESMX 230850Z AUTO VRB02KT 9999 OVC033/// 03/02 Q0998=
201912230820 METAR ESMX 230820Z AUTO VRB02KT 9999 OVC034/// 03/02 Q0997=
201912230750 METAR ESMX 230750Z AUTO VRB02KT 9999 OVC034/// 03/02 Q0997=
201912230720 METAR ESMX 230720Z VRB02KT 9999 OVC033 03/02 Q0997=
201912230650 METAR ESMX 230650Z 07003KT 9999 OVC033 03/02 Q0997=
201912230620 METAR COR ESMX 230620Z VRB02KT 9999 OVC032 03/03 Q0996=
201912230550 METAR ESMX 230550Z AUTO VRB01KT 9999 OVC032/// 03/03 Q0996=
201912230520 METAR ESMX 230520Z AUTO VRB02KT 9999 OVC032/// 03/03 Q0996=
201912230450 METAR ESMX 230450Z AUTO VRB02KT 9999 OVC032/// 03/03 Q0996=
201912230420 METAR ESMX 230420Z AUTO VRB02KT 9999 OVC031/// 04/02 Q0995=
201912230350 METAR ESMX 230350Z AUTO 00000KT 9999 OVC031/// 04/03 Q0995=
201912230320 METAR ESMX 230320Z AUTO 00000KT 9999 OVC031/// 04/03 Q0995=
201912230250 METAR ESMX 230250Z AUTO VRB01KT 9999 OVC030/// 04/03 Q0995=
201912230220 METAR ESMX 230220Z AUTO VRB03KT 9999 OVC030/// 04/03 Q0994=
201912230150 METAR ESMX 230150Z AUTO VRB02KT 9999 OVC030/// 04/03 Q0994=
201912230120 METAR ESMX 230120Z AUTO VRB03KT 9999 BKN031/// 04/03 Q0994=
201912230050 METAR ESMX 230050Z AUTO VRB03KT 9999 OVC029/// 04/03 Q0994=
201912230020 METAR ESMX 230020Z AUTO VRB02KT 9999 OVC030/// 04/03 Q0994=
201912222350 METAR ESMX 222350Z AUTO VRB03KT 9999 OVC031/// 04/03 Q0994=
201912222320 METAR ESMX 222320Z AUTO 06003KT 020V100 9999 OVC030/// 04/03 Q0994=
201912222250 METAR ESMX 222250Z AUTO VRB02KT 9999 OVC029/// 04/03 Q0994=
201912222220 METAR ESMX 222220Z AUTO VRB02KT 9999 OVC029/// 04/03 Q0994=
201912222150 METAR ESMX 222150Z AUTO VRB02KT 9999 OVC029/// 04/04 Q0994=
201912222120 METAR ESMX 222120Z AUTO 09003KT 030V140 9999 OVC029/// 04/04 Q0994=
201912222050 METAR ESMX 222050Z VRB03KT 9999 OVC030 04/04 Q0994=
201912222020 METAR ESMX 222020Z 11003KT 070V160 9999 BKN005 04/04 Q0993=
201912221950 METAR ESMX 221950Z VRB03KT 9999 OVC006 05/04 Q0993=
201912221920 METAR COR ESMX 221920Z 13004KT 090V170 9999 BKN006 05/04 Q0993=
201912221850 METAR ESMX 221850Z 13004KT 080V160 9999 BKN006 05/04 Q0993=
201912221820 METAR ESMX 221820Z 12004KT 070V170 9999 BKN006 05/05 Q0992=
201912221750 METAR ESMX 221750Z VRB03KT 9999 SCT010 BKN032 05/04 Q0992=
201912221720 METAR ESMX 221720Z 11003KT 070V150 9999 BKN007 05/04 Q0992=
201912221650 METAR ESMX 221650Z 11003KT 030V190 9999 BKN007 05/04 Q0992=
201912221620 METAR ESMX 221620Z VRB03KT 9999 FEW008 OVC031 05/04 Q0992=
201912221550 METAR ESMX 221550Z VRB02KT 9999 BKN030 05/04 Q0992=
201912221520 METAR ESMX 221520Z 12003KT 080V150 9999 BKN033 04/04 Q0992=
201912221450 METAR ESMX 221450Z 18003KT 9999 BKN033 04/04 Q0991=
201912221420 METAR ESMX 221420Z VRB03KT 9999 BKN032 05/04 Q0991=
201912221350 METAR ESMX 221350Z 10003KT 060V140 9999 BKN033 05/04 Q0991=
201912221320 METAR COR ESMX 221320Z VRB03KT 9999 BKN033 05/04 Q0991=
201912221250 METAR ESMX 221250Z 15004KT 120V180 9999 BKN033 05/04 Q0992=
201912221220 METAR ESMX 221220Z VRB02KT 9999 BKN034 05/05 Q0991=
201912221150 METAR ESMX 221150Z VRB02KT 9999 BKN035 05/05 Q0991=
201912221120 METAR COR ESMX 221120Z VRB03KT 9999 BKN034 05/05 Q0991=
201912221050 METAR ESMX 221050Z AUTO 12003KT 090V160 9999 OVC032/// 05/05 Q0991=
201912221020 METAR ESMX 221020Z AUTO 14004KT 9999 OVC030/// 05/05 Q0991=
201912220950 METAR ESMX 220950Z AUTO VRB02KT 9999 OVC031/// 04/04 Q0991=
201912220920 METAR ESMX 220920Z AUTO VRB01KT 6000 BR OVC031/// 04/04 Q0991=
201912220850 METAR ESMX 220850Z AUTO 00000KT 7000 BR OVC031/// 04/04 Q0991=
201912220820 METAR ESMX 220820Z AUTO 00000KT 5000 BR BKN002/// OVC033/// 04/04 Q0990=
201912220750 METAR ESMX 220750Z VRB02KT 4100 BR OVC002 04/04 Q0991=
201912220720 METAR ESMX 220720Z VRB02KT 3100 BR OVC002 04/04 Q0991=
201912220650 METAR ESMX 220650Z 00000KT 2800 BR OVC002 04/04 Q0991=
201912220620 METAR COR ESMX 220620Z VRB02KT 3500 BR OVC002 04/04 Q0991=
201912220550 METAR ESMX 220550Z AUTO 15003KT 1900 BR OVC001/// 04/04 Q0990=
201912220520 METAR ESMX 220520Z AUTO 16003KT 130V200 2200 OVC001/// 04/04 Q0990=
201912220450 METAR ESMX 220450Z AUTO VRB03KT 1100 R01/P2000N R19/P2000N OVC001/// 04/04 Q0990=
201912220420 METAR ESMX 220420Z AUTO 16003KT 120V190 1100 R01/P2000N R19/P2000N FG OVC001/// 04/04 Q0990=
201912220350 METAR ESMX 220350Z AUTO 08004KT 040V140 0500 R01/1300D R19/1900N FG OVC001/// 04/04 Q0990=
201912220320 METAR ESMX 220320Z AUTO VRB02KT 2000 OVC001/// 04/04 Q0990=
201912220250 METAR ESMX 220250Z AUTO VRB02KT 2600 OVC001/// 04/04 Q0990=
201912220220 METAR ESMX 220220Z AUTO 14004KT 0900 R01/P2000N R19/P2000N FG OVC001/// 04/04 Q0990=
201912220150 METAR ESMX 220150Z AUTO 15004KT 1300 R01/P2000N R19/P2000N BR OVC002/// 05/05 Q0990=
201912220120 METAR ESMX 220120Z AUTO 15003KT 4600 BR OVC004/// 04/04 Q0990=
201912220050 METAR ESMX 220050Z AUTO 17003KT 4200 BR OVC005/// 04/04 Q0990=
201912220020 METAR ESMX 220020Z AUTO VRB01KT 4800 BCFG OVC006/// 04/04 Q0990=
201912212350 METAR ESMX 212350Z AUTO 22004KT 0400 R01/P2000N R19/1100U FEW006/// SCT008/// 03/03 Q0990=
201912212320 METAR ESMX 212320Z AUTO 16002KT 0350 R01/P2000N R19/1000N BR BKN010/// 04/04 Q0990=
201912212250 METAR ESMX 212250Z AUTO 22002KT 2400 BR SCT011/// BKN040/// 04/04 Q0990=
201912212220 METAR ESMX 212220Z AUTO 22003KT 5000 BR FEW006/// OVC012/// 05/05 Q0990=
201912212150 METAR ESMX 212150Z AUTO 25003KT 6000 BR BKN003/// BKN006/// OVC007/// 05/05 Q0990=
201912212120 METAR ESMX 212120Z AUTO 22005KT 5000 BR OVC003/// 05/05 Q0990=
201912212050 METAR ESMX 212050Z AUTO 22005KT 5000 BR OVC003/// 05/05 Q0990=
201912212020 METAR ESMX 212020Z AUTO 20006KT 5000 BR OVC003/// 05/05 Q0990=
201912211950 METAR ESMX 211950Z AUTO 21005KT 6000 BR BKN004/// OVC005/// 05/05 Q0990=
201912211920 METAR ESMX 211920Z AUTO 19005KT 6000 BR FEW003/// BKN006/// BKN009/// 06/06 Q0990=
201912211850 METAR ESMX 211850Z AUTO 21004KT 5000 BR SCT006/// OVC031/// 05/05 Q0990=
201912211820 METAR ESMX 211820Z AUTO 19004KT 6000 BR SCT006/// BKN008/// OVC030/// 06/06 Q0989=
201912211750 METAR ESMX 211750Z AUTO 23003KT 6000 BR BKN006/// OVC027/// 06/06 Q0989 REDZ=
201912211720 METAR ESMX 211720Z AUTO 22004KT 190V270 6000 BR SCT005/// BKN007/// BKN024/// 06/06 Q0989=
201912211650 METAR ESMX 211650Z AUTO 23004KT 6000 BR FEW004/// SCT007/// BKN013/// 06/06 Q0989 REDZ REUP=
201912211620 METAR ESMX 211620Z AUTO 21005KT 5000 BR FEW005/// OVC031/// 06/06 Q0989=
201912211550 METAR ESMX 211550Z AUTO 20005KT 5000 BR FEW007/// OVC032/// 06/06 Q0990=
201912211520 METAR ESMX 211520Z 21004KT 7000 BR SCT008 BKN012 OVC030 06/06 Q0989=
201912211450 METAR ESMX 211450Z 22004KT 8000 BR SCT014 BKN019 OVC031 06/06 Q0989=
201912211420 METAR ESMX 211420Z 23003KT 7000 BR BKN007 OVC022 06/06 Q0989=
201912211350 METAR COR ESMX 211350Z 22005KT 8000 BR FEW007 OVC022 06/06 Q0989=
201912211320 METAR ESMX 211320Z 21004KT 9000 BR OVC018 06/06 Q0989=
201912211250 METAR ESMX 211250Z 24004KT 9999 FEW008 SCT010 BKN016 06/06 Q0989=
201912211220 METAR ESMX 211220Z 24004KT 9000 BR FEW005 BKN008 OVC012 07/07 Q0989=
201912211150 METAR ESMX 211150Z 25006KT 210V280 7000 BR OVC003 07/07 Q0988=
201912211120 METAR ESMX 211120Z 25005KT 5000 BR OVC002 06/06 Q0988=
201912211050 METAR COR ESMX 211050Z 23005KT 6000 BR OVC002 06/06 Q0988=
201912211020 METAR ESMX 211020Z AUTO 23004KT 6000 DZ OVC002/// 06/06 Q0988=
201912210950 METAR ESMX 210950Z AUTO 21004KT 7000 DZ BKN002/// OVC030/// 06/06 Q0988=
201912210920 METAR ESMX 210920Z AUTO 21003KT 7000 -RA BKN002/// OVC030/// 06/06 Q0988 REDZ=
201912210850 METAR ESMX 210850Z AUTO 19004KT 7000 -RA OVC002/// 05/05 Q0988=
201912210820 METAR ESMX 210820Z AUTO 20004KT 8000 -RA OVC002/// 05/05 Q0988=
201912210750 METAR ESMX 210750Z AUTO 23003KT 190V250 4700 -RA OVC001/// 05/05 Q0988=
201912210720 METAR ESMX 210720Z AUTO 18003KT 0400 R01/1400U R19/1000N RA BKN001/// OVC002/// 05/05 Q0988 REUP RESHUP=
201912210650 METAR ESMX 210650Z AUTO 18003KT 0150 R01/0800N R19/0600N FG VV002 05/05 Q0987=
201912210620 METAR ESMX 210620Z AUTO VRB02KT 0200 R01/0650N R19/0700N FG VV002 05/05 Q0987=
201912210550 METAR ESMX 210550Z AUTO VRB02KT 0250 R01/0750N R19/0800N FG VV002 05/05 Q0987=
201912210520 METAR ESMX 210520Z AUTO 14003KT 110V170 0300 R01/0900N R19/1000N FG OVC001/// 05/05 Q0987=
201912210450 METAR ESMX 210450Z AUTO 13004KT 100V160 0250 R01/0750N R19/0800N FG VV002 05/05 Q0988=
201912210420 METAR ESMX 210420Z AUTO 14005KT 100V160 0200 R01/0750N R19/0900N FG OVC001/// 05/05 Q0988=
201912210350 METAR ESMX 210350Z AUTO 15006KT 0250 R01/0800N R19/1000D FG OVC001/// 05/05 Q0988=
201912210320 METAR ESMX 210320Z AUTO 14006KT 0300 R01/0900N R19/1100N FG OVC001/// 05/05 Q0988=
201912210250 METAR ESMX 210250Z AUTO 14004KT 100V190 0300 R01/0900N R19/1200N FG OVC001/// 05/05 Q0988=
201912210220 METAR ESMX 210220Z AUTO VRB04KT 0350 R01/1000N R19/1300N FG OVC001/// 05/05 Q0988=
201912210150 METAR ESMX 210150Z AUTO 12004KT 070V160 0400 R01/1100U R19/1400N FG OVC001/// 05/05 Q0988=
201912210120 METAR ESMX 210120Z AUTO 12003KT 040V170 0300 R01/0900N R19/1200D FG OVC001/// 05/05 Q0988=
201912210050 METAR ESMX 210050Z AUTO 15004KT 070V200 0500 R01/1300N R19/1400U FG OVC001/// 05/05 Q0989=
201912210020 METAR ESMX 210020Z AUTO 08005KT 350V150 0500 R01/1300D R19/1400N FG OVC001/// 05/05 Q0988=
201912202350 METAR ESMX 202350Z AUTO 09003KT 030V160 1000 R01/P2000N R19/P2000N OVC001/// 05/05 Q0989=
201912202320 METAR ESMX 202320Z AUTO VRB03KT 0900 R01/P2000N R19/P2000N FG OVC001/// 05/05 Q0990=
201912202250 METAR ESMX 202250Z AUTO 12003KT 070V170 0900 R01/P2000N R19/P2000N FG OVC001/// 05/05 Q0990=
201912202220 METAR ESMX 202220Z AUTO 13003KT 070V240 1700 BR OVC002/// 05/05 Q0990=
201912202150 METAR ESMX 202150Z AUTO 12004KT 070V170 2800 BR OVC003/// 06/06 Q0990=
201912202120 METAR ESMX 202120Z AUTO VRB02KT 4300 BR OVC004/// 06/06 Q0990=
201912202050 METAR ESMX 202050Z AUTO 13004KT 070V190 3500 OVC003/// 06/06 Q0991=
201912202020 METAR ESMX 202020Z AUTO 13004KT 080V170 1700 OVC001/// 06/06 Q0991=
201912201950 METAR ESMX 201950Z AUTO 13005KT 070V180 0900 R01/P2000N R19/P2000N FG OVC001/// 06/06 Q0991=
201912201920 METAR ESMX 201920Z AUTO 14005KT 100V180 0800 R01/P2000N R19/P2000N FG OVC001/// 06/06 Q0992=
201912201850 METAR ESMX 201850Z AUTO 13005KT 040V170 1100 R01/P2000N R19/P2000N BR OVC002/// 06/06 Q0992=
201912201820 METAR ESMX 201820Z 11004KT 060V170 2100 BR OVC002 06/06 Q0992=
201912201750 METAR ESMX 201750Z 12005KT 060V170 3900 BR OVC003 06/06 Q0993=
201912201720 METAR ESMX 201720Z 13006KT 080V170 3900 BR OVC003 06/06 Q0993=
201912201650 METAR ESMX 201650Z 12005KT 030V160 3600 BR OVC004 06/06 Q0993=
201912201620 METAR ESMX 201620Z 14006KT 100V170 2700 BR OVC003 06/06 Q0994=
201912201550 METAR ESMX 201550Z 12006KT 060V160 2000 BR OVC002 06/06 Q0994=
201912201520 METAR ESMX 201520Z 13005KT 070V180 2100 BR OVC002 06/06 Q0994=
201912201450 METAR ESMX 201450Z 13005KT 080V160 2100 BR OVC002 06/06 Q0995=
201912201420 METAR ESMX 201420Z 13007KT 090V170 2600 BR OVC003 05/05 Q0995=
201912201350 METAR ESMX 201350Z 13007KT 090V160 4300 BR OVC003 05/05 Q0995=
201912201320 METAR ESMX 201320Z 13005KT 080V170 4600 BR OVC003 06/06 Q0996=
201912201250 METAR ESMX 201250Z 11005KT 060V150 5000 BR OVC003 05/05 Q0996=
201912201220 METAR ESMX 201220Z 11004KT 040V170 2500 BR VV002 05/05 Q0997=
201912201150 METAR ESMX 201150Z 11003KT 040V170 1800 VV002 05/05 Q0997=
201912201120 METAR ESMX 201120Z 12005KT 060V170 1400 R01/1600U R19/1800U BR VV001 05/05 Q0998=
201912201050 METAR ESMX 201050Z 11004KT 340V160 0550 R01/1000N R19/1300N FG VV001 05/05 Q0998=
201912201020 METAR ESMX 201020Z 12004KT 070V160 0800 R01/1200N R19/1500N FG OVC002 05/05 Q0998=
201912200950 METAR ESMX 200950Z 11005KT 050V160 0700 R01/1200N R19/1500U FG VV002 05/05 Q0999=
201912200920 METAR ESMX 200920Z 10005KT 060V180 0500 R01/1100N R19/1200N FG VV002 05/05 Q0999=
201912200850 METAR ESMX 200850Z 10004KT 040V150 0500 R01/1100N R19/1200N FG VV002 05/05 Q1000=
201912200820 METAR ESMX 200820Z 09003KT 020V180 0400 R01/0900N R19/1000N FG VV002 05/05 Q1000=
201912200750 METAR ESMX 200750Z 10004KT 040V150 0300 R01/0900N R19/1000N FG VV002 05/05 Q1001=
201912200720 METAR ESMX 200720Z 11005KT 060V150 0350 R01/0900N R19/1100N FG VV002 05/05 Q1001=
201912200650 METAR ESMX 200650Z 10005KT 060V170 0300 R01/0900N R19/1200N FG VV002 05/05 Q1001=
201912200620 METAR ESMX 200620Z VRB03KT 0300 R01/0900N R19/1000N FG VV002 05/05 Q1002=
201912200550 METAR ESMX 200550Z 10005KT 050V170 0300 R01/1000N R19/1300N FG VV002 05/05 Q1002=
201912200520 METAR ESMX 200520Z 10005KT 050V140 0300 R01/0900N R19/1100N FG VV002 05/05 Q1003=
201912200450 METAR ESMX 200450Z 10004KT 050V140 0300 R01/0900N R19/1100N FG VV002 05/05 Q1003=
201912200420 METAR ESMX 200420Z AUTO 13004KT 070V160 0400 R01/1100N R19/1400D FG OVC001/// 05/05 Q1004=
201912200350 METAR ESMX 200350Z AUTO 13005KT 080V180 0300 R01/0900N R19/1400N FG OVC001/// 05/05 Q1005=
201912200320 METAR ESMX 200320Z AUTO 14006KT 100V170 0650 R01/1800D R19/P2000N FG OVC001/// 05/05 Q1005=
201912200250 METAR ESMX 200250Z AUTO 13006KT 090V160 2500 BR OVC002/// 05/05 Q1005=
201912200220 METAR ESMX 200220Z AUTO 13006KT 070V160 3900 BR OVC002/// 05/05 Q1006=
201912200150 METAR ESMX 200150Z AUTO 11004KT 050V200 2700 BR OVC001/// 05/05 Q1006=
201912200120 METAR ESMX 200120Z AUTO 13004KT 060V190 2800 BR OVC001/// 05/05 Q1007=
201912200050 METAR ESMX 200050Z AUTO 13003KT 070V170 2700 BR OVC001/// 05/05 Q1008=
201912200020 METAR ESMX 200020Z AUTO 12003KT 060V170 3400 BR OVC002/// 06/06 Q1008=
201912192350 METAR ESMX 192350Z AUTO 13006KT 3800 BR OVC002/// 05/05 Q1009=
201912192320 METAR ESMX 192320Z AUTO 13005KT 090V170 3400 BR OVC001/// 05/05 Q1009=
201912192250 METAR ESMX 192250Z AUTO 14006KT 100V180 3500 BR OVC001/// 05/05 Q1010=
201912192220 METAR ESMX 192220Z AUTO 15007KT 120V180 3100 BR OVC002/// 05/05 Q1010=
201912192150 METAR ESMX 192150Z AUTO 14007KT 100V160 5000 BR OVC002/// 05/05 Q1010=
201912192120 METAR ESMX 192120Z 15009KT 7000 BR OVC003 05/05 Q1011=
201912192050 METAR ESMX 192050Z 14009KT 110V170 9000 BR OVC003 05/05 Q1012=
201912192020 METAR ESMX 192020Z 16007KT 120V200 9999 OVC004 05/05 Q1012=
201912191950 METAR ESMX 191950Z 15008KT 9999 OVC004 05/05 Q1012=
201912191920 METAR ESMX 191920Z 14009KT 100V170 9999 OVC004 05/05 Q1013=
201912191850 METAR ESMX 191850Z 16008KT 9999 OVC005 05/05 Q1013=
201912191820 METAR ESMX 191820Z 16008KT 120V190 9999 OVC005 05/05 Q1013=
201912191750 METAR ESMX 191750Z 15010KT 9999 BKN005 05/05 Q1014=
201912191720 METAR ESMX 191720Z 15009KT 9999 BKN005 05/05 Q1014=
201912191650 METAR ESMX 191650Z 14009KT 9999 BKN006 05/04 Q1014=
201912191620 METAR ESMX 191620Z 14009KT 9999 OVC008 05/04 Q1015=
201912191550 METAR ESMX 191550Z 14008KT 100V160 9999 OVC008 05/04 Q1015=
201912191520 METAR ESMX 191520Z 15010KT 120V190 9999 BKN009 05/04 Q1015=
201912191450 METAR ESMX 191450Z 14010KT 9999 BKN009 05/04 Q1016=
201912191420 METAR ESMX 191420Z 14011KT 9999 OVC009 05/04 Q1016=
201912191350 METAR ESMX 191350Z 14009KT 9999 OVC009 05/04 Q1016=
201912191320 METAR ESMX 191320Z 15009KT 9999 OVC007 05/05 Q1017=
201912191250 METAR ESMX 191250Z 15009KT 8000 BR OVC005 05/05 Q1017=
201912191220 METAR ESMX 191220Z 14007KT 090V170 8000 BR OVC004 04/04 Q1017=
201912191150 METAR ESMX 191150Z 14007KT 5000 BR OVC002 04/04 Q1018=
201912191120 METAR ESMX 191120Z 15009KT 5000 BR OVC002 03/03 Q1018=
201912191050 METAR ESMX 191050Z 15008KT 110V180 2400 BR OVC002 03/03 Q1019=
201912191020 METAR ESMX 191020Z 15007KT 8000 BR OVC004 03/03 Q1019=
201912190950 METAR ESMX 190950Z 15005KT 110V170 9999 BKN005 03/02 Q1019=
201912190920 METAR ESMX 190920Z 14003KT 110V190 9999 BKN003 02/02 Q1020=
201912190850 METAR ESMX 190850Z 15004KT 9000 BR BKN003 02/02 Q1019=
201912190820 METAR ESMX 190820Z 18004KT 8000 BR OVC002 02/02 Q1020=
201912190750 METAR ESMX 190750Z VRB03KT 8000 BR OVC002 02/02 Q1019=
201912190720 METAR ESMX 190720Z 15005KT 7000 BR OVC002 02/02 Q1019=
201912190650 METAR ESMX 190650Z AUTO 16004KT 120V190 5000 BR OVC001/// 02/02 Q1019=
201912190620 METAR ESMX 190620Z 19005KT 2300 BR OVC002 03/03 Q1020=
201912190550 METAR ESMX 190550Z 20006KT 4600 BR OVC002 03/03 Q1019=
201912190520 METAR ESMX 190520Z 19007KT 5000 BR OVC002 03/03 Q1019=
201912190450 METAR ESMX 190450Z 19007KT 8000 BR BKN003 03/03 Q1019=
201912190420 METAR ESMX 190420Z AUTO 22005KT 9999 OVC006/// 04/04 Q1019=
201912190350 METAR ESMX 190350Z AUTO 22004KT 9999 OVC007/// 04/04 Q1018=
201912190320 METAR ESMX 190320Z AUTO 24005KT 9999 OVC007/// 04/04 Q1018=
201912190250 METAR ESMX 190250Z AUTO 23006KT 9999 OVC006/// 04/04 Q1018=
201912190220 METAR ESMX 190220Z AUTO 23004KT 170V270 9999 OVC006/// 04/04 Q1018=
201912190150 METAR ESMX 190150Z AUTO 24008KT 9999 OVC006/// 04/04 Q1018=
201912190120 METAR ESMX 190120Z AUTO 23007KT 9999 OVC005/// 04/04 Q1018=
201912190050 METAR ESMX 190050Z AUTO 23006KT 9999 OVC006/// 04/04 Q1018=
201912190020 METAR ESMX 190020Z AUTO 23006KT 9999 BKN007/// BKN011/// 03/03 Q1017=
201912182350 METAR ESMX 182350Z AUTO 21005KT 9999 FEW005/// 03/03 Q1017=
201912182320 METAR ESMX 182320Z AUTO 23006KT 9999 BKN006/// 03/03 Q1016=
201912182250 METAR ESMX 182250Z AUTO 24006KT 210V270 9999 NCD 03/03 Q1016=
201912182220 METAR ESMX 182220Z AUTO 25007KT 9999 FEW026/// 04/04 Q1016=
201912182150 METAR ESMX 182150Z AUTO 23007KT 9999 FEW007/// SCT034/// 04/04 Q1015=
201912182120 METAR ESMX 182120Z AUTO 23007KT 9999 BKN009/// BKN037/// 04/04 Q1015 RESHUP=
201912182050 METAR ESMX 182050Z AUTO 23009KT 9999 BKN009/// 04/04 Q1015 RESHUP REUP=
201912182020 METAR ESMX 182020Z AUTO 24009KT 9999 FEW009/// SCT013/// BKN029/// 05/04 Q1014 REUP=
201912181950 METAR ESMX 181950Z AUTO 24010KT 9999 SCT011/// BKN038/// 05/04 Q1014=
201912181920 METAR ESMX 181920Z 24010KT 9999 SCT010 BKN040 05/04 Q1013=
201912181850 METAR ESMX 181850Z 24009KT 9999 FEW013 BKN019 05/04 Q1013=
201912181820 METAR ESMX 181820Z 24008KT 9999 SCT027 04/04 Q1012=
201912181750 METAR ESMX 181750Z 25010KT 6000 -RA SCT012 BKN028 05/04 Q1011=
201912181720 METAR ESMX 181720Z 25010KT 9999 SCT011 05/04 Q1011=
201912181650 METAR ESMX 181650Z 25011KT 9999 BKN011 05/04 Q1011=
201912181620 METAR ESMX 181620Z 24010KT 9999 -RA BKN012 05/04 Q1010=
201912181550 METAR ESMX 181550Z 24011KT 9999 BKN014 06/04 Q1010=
201912181520 METAR ESMX 181520Z 23009KT 190V270 9999 BKN013 05/04 Q1009=
201912181450 METAR ESMX 181450Z 24010KT 200V270 9000 -DZ BKN015 05/04 Q1009=
201912181420 METAR ESMX 181420Z 24009KT 9999 BKN014 05/04 Q1008=
201912181350 METAR ESMX 181350Z 23008KT 9999 BKN015 05/04 Q1008=
201912181320 METAR ESMX 181320Z 22009KT 9999 BKN016 05/04 Q1008=
201912181250 METAR ESMX 181250Z 24009KT 9999 BKN013 05/04 Q1007=
201912181220 METAR ESMX 181220Z 24009KT 9999 BKN011 05/04 Q1007=
201912181150 METAR ESMX 181150Z 23010KT 9999 SCT009 04/03 Q1006=
201912181120 METAR ESMX 181120Z 24009KT 9999 BKN009 04/03 Q1006=
201912181050 METAR ESMX 181050Z 25007KT 9999 BKN010 04/03 Q1006=
201912181020 METAR ESMX 181020Z 24010KT 9999 BKN010 03/02 Q1005=
201912180950 METAR ESMX 180950Z 28011KT 9999 BKN011 03/02 Q1004=
201912180920 METAR ESMX 180920Z 29014KT 9999 BKN010 03/02 Q1004=
201912180850 METAR ESMX 180850Z 28014G25KT 9999 BKN010 03/02 Q1003=
201912180820 METAR ESMX 180820Z 28015KT 9999 BKN010 03/02 Q1002=
201912180750 METAR ESMX 180750Z 28017KT 240V300 9999 SCT008 BKN012 03/02 Q1000=
201912180720 METAR ESMX 180720Z 27018G29KT 9999 SCT007 BKN009 04/04 Q0998=
201912180650 METAR ESMX 180650Z 25020G30KT 5000 -RA FEW006 BKN011 OVC013 05/04 Q0997=
201912180620 METAR ESMX 180620Z 23018G32KT 9999 -DZ OVC011 06/05 Q0995=
201912180550 METAR ESMX 180550Z 23018KT 9999 -DZ BKN011 BKN020 OVC025 07/06 Q0994=
201912180520 METAR ESMX 180520Z 21016KT 6000 RA SCT006 BKN009 OVC014 08/08 Q0993=
201912180450 METAR ESMX 180450Z 21015KT 6000 -RA BKN005 OVC007 08/08 Q0993=
201912180420 METAR ESMX 180420Z 18013KT 5000 -RA OVC005 08/08 Q0993=
201912180350 METAR ESMX 180350Z AUTO 17012KT 9000 DZ OVC005/// 08/08 Q0994 REDZ=
201912180320 METAR ESMX 180320Z AUTO 18011KT 9999 DZ BKN006/// OVC009/// 08/07 Q0995=
201912180250 METAR ESMX 180250Z AUTO 18010KT 8000 -RA FEW005/// BKN013/// BKN041/// 07/07 Q0995 RESHRA=
201912180220 METAR ESMX 180220Z AUTO 16008KT 2500 RA FEW003/// BKN025/// OVC047/// 07/07 Q0996=
201912180150 METAR ESMX 180150Z AUTO 15007KT 7000 -RA BKN006/// OVC045/// 07/07 Q0996=
201912180120 METAR ESMX 180120Z AUTO 16006KT 9000 BR BKN045/// BKN072/// 07/07 Q0997 REUP=
201912180050 METAR ESMX 180050Z AUTO 17006KT 8000 BR BKN072/// 06/06 Q0997 RESHUP REUP=
201912180020 METAR ESMX 180020Z AUTO 17008KT 8000 BR FEW007/// 06/06 Q0997=
201912172350 METAR ESMX 172350Z AUTO 18008KT 8000 BR FEW008/// 07/07 Q0998=
201912172320 METAR ESMX 172320Z AUTO 18009KT 9000 BR SCT042/// 07/07 Q0998=
201912172250 METAR ESMX 172250Z AUTO 18010KT 9999 FEW022/// OVC035/// 07/07 Q0998=
201912172220 METAR ESMX 172220Z AUTO 18010KT 8000 BR BKN026/// OVC036/// 07/07 Q0999=
201912172150 METAR ESMX 172150Z AUTO 18008KT 6000 BR SCT005/// BKN029/// OVC044/// 06/06 Q0999 REDZ=
201912172120 METAR ESMX 172120Z AUTO 17009KT 4800 BR BKN004/// OVC030/// 06/06 Q0999=
201912172050 METAR ESMX 172050Z AUTO 16007KT 4400 BR OVC004/// 06/06 Q0999=
201912172020 METAR ESMX 172020Z AUTO 17009KT 4200 -RA FEW002/// OVC004/// 06/06 Q0999 RESHUP RERA=
201912171950 METAR ESMX 171950Z 17009KT 5000 BR OVC004 06/06 Q0999=
201912171920 METAR ESMX 171920Z 17008KT 140V200 4000 -DZ OVC003 06/06 Q0999=
201912171850 METAR ESMX 171850Z 17008KT 150V210 5000 RA BR OVC002 06/06 Q0999=
201912171820 METAR ESMX 171820Z 15008KT 130V190 1500 R01/P2000N R19/P2000N BR VV002 06/06 Q0999=
201912171750 METAR ESMX 171750Z 15008KT 0550 R01/1400N R19/1600U FG VV002 06/06 Q1000=
201912171720 METAR ESMX 171720Z 14008KT 110V170 0350 R01/1000N R19/1100N RA FG VV002 06/06 Q0999=
201912171650 METAR ESMX 171650Z 14006KT 090V170 0300 R01/0800N R19/1000N FG VV002 05/05 Q1000=
201912171620 METAR ESMX 171620Z 14006KT 090V180 0350 R01/1100N R19/1600D FG VV002 05/05 Q1000=
201912171550 METAR COR ESMX 171550Z 14006KT 100V170 0500 R01/1300D R19/P2000N -DZ FG VV002 05/05 Q1001=
201912171520 METAR COR ESMX 171520Z 12005KT 060V180 1100 R19/P2000N -DZ BR VV002 05/05 Q1001=
201912171450 METAR ESMX 171450Z 11005KT 050V150 7000 -DZ BR OVC003 05/05 Q1001=
201912171420 METAR ESMX 171420Z 07003KT 030V130 8000 -RA SCT004 OVC007 05/05 Q1002=
201912171350 METAR ESMX 171350Z 05004KT 020V080 5000 -RA OVC002 05/05 Q1002=
201912171320 METAR ESMX 171320Z VRB03KT 5000 -RA BR OVC002 05/05 Q1002=
201912171250 METAR ESMX 171250Z VRB03KT 4500 -DZ OVC002 05/05 Q1002=
201912171220 METAR ESMX 171220Z 06003KT 030V100 4000 -RA BR OVC002 05/05 Q1002=
201912171150 METAR ESMX 171150Z VRB02KT 4000 -RA BR OVC002 05/05 Q1003=
201912171120 METAR COR ESMX 171120Z 13003KT 080V210 5000 -RADZ BR OVC002 05/05 Q1003=
201912171050 METAR ESMX 171050Z 12003KT 070V150 4000 -RA OVC002 04/04 Q1004=
201912171020 METAR ESMX 171020Z VRB02KT 4000 BR VV002 04/04 Q1004=
201912170950 METAR COR ESMX 170950Z 14003KT 5000 BR VV002 04/04 Q1004=
201912170920 METAR ESMX 170920Z 15004KT 3600 BR VV002 04/04 Q1005=
201912170850 METAR ESMX 170850Z 15005KT 1500 BR VV002 04/04 Q1004=
201912170820 METAR ESMX 170820Z 16005KT 0700 R01/1300N R19/P2000D FG VV002 04/04 Q1004=
201912170750 METAR ESMX 170750Z 17006KT 1100 R01/P2000N R19/P2000N BR OVC002 04/04 Q1004=
201912170720 METAR COR ESMX 170720Z 15004KT 1100 R01/P2000N R19/P2000N BR OVC002 04/04 Q1004=
201912170650 METAR ESMX 170650Z AUTO 17005KT 2400 BR OVC001/// 04/04 Q1004=
201912170620 METAR ESMX 170620Z 17005KT 2600 BR OVC002 04/04 Q1004=
201912170550 METAR ESMX 170550Z 18005KT 6000 BR OVC004 04/04 Q1004=
201912170520 METAR ESMX 170520Z 20005KT 170V230 9000 BR OVC005 04/04 Q1004=
201912170450 METAR ESMX 170450Z 23006KT 9999 OVC006 04/04 Q1004=
201912170420 METAR COR ESMX 170420Z 21006KT 9999 OVC006 04/04 Q1003=
201912170350 METAR ESMX 170350Z AUTO 21005KT 9999 OVC007/// 05/04 Q1003=
201912170320 METAR ESMX 170320Z AUTO 21006KT 9999 OVC007/// 05/04 Q1003=
201912170250 METAR ESMX 170250Z AUTO 20006KT 9999 BKN007/// OVC030/// 04/04 Q1004=
201912170220 METAR ESMX 170220Z AUTO 19007KT 9999 BKN007/// OVC027/// 05/04 Q1003=
201912170150 METAR ESMX 170150Z AUTO 20007KT 9999 FEW007/// SCT010/// OVC024/// 05/05 Q1004=
201912170120 METAR ESMX 170120Z AUTO 20009KT 9999 FEW007/// BKN009/// OVC028/// 05/05 Q1004=
201912170050 METAR ESMX 170050Z AUTO 19010KT 9999 FEW007/// OVC030/// 05/04 Q1003=
201912170020 METAR ESMX 170020Z AUTO 20010KT 9999 BKN006/// BKN008/// OVC029/// 05/05 Q1003=
201912162350 METAR ESMX 162350Z AUTO 20010KT 9999 BKN007/// OVC009/// 05/05 Q1003=
201912162320 METAR ESMX 162320Z AUTO 20009KT 9999 OVC008/// 05/05 Q1003=
201912162250 METAR ESMX 162250Z AUTO 20010KT 9999 SCT009/// OVC012/// 05/05 Q1003=
201912162220 METAR ESMX 162220Z AUTO 22009KT 9999 BKN010/// OVC015/// 05/05 Q1003=
201912162150 METAR ESMX 162150Z AUTO 21009KT 9999 BKN009/// OVC013/// 05/05 Q1003=
201912162120 METAR ESMX 162120Z AUTO 22009KT 9999 BKN007/// OVC009/// 05/05 Q1002=
201912162050 METAR ESMX 162050Z AUTO 21010KT 9999 BKN007/// OVC009/// 05/05 Q1002=
201912162020 METAR ESMX 162020Z AUTO 20010KT 9999 OVC006/// 05/05 Q1002=
201912161950 METAR ESMX 161950Z 21010KT 9999 OVC005 05/05 Q1002=
201912161920 METAR ESMX 161920Z 20009KT 9999 OVC006 05/04 Q1002=
201912161850 METAR ESMX 161850Z 20011KT 9999 OVC005 05/04 Q1002=
201912161820 METAR ESMX 161820Z 19011KT 9000 BR BKN005 OVC007 04/04 Q1002=
201912161750 METAR COR ESMX 161750Z 19010KT 9999 BKN007 04/04 Q1002=
201912161720 METAR ESMX 161720Z 19010KT 9999 BKN008 04/04 Q1001=
201912161650 METAR ESMX 161650Z 19011KT 9000 -RA FEW008 BKN011 04/04 Q1001=
201912161620 METAR ESMX 161620Z 19010KT 8000 -RA BKN010 BKN033 OVC043 05/04 Q1001=
201912161550 METAR ESMX 161550Z 20011KT 9999 BKN009 05/04 Q1001=
201912161520 METAR ESMX 161520Z 18012KT 9999 BKN010 BKN013 05/04 Q1001=
201912161450 METAR ESMX 161450Z 19014KT 9999 BKN011 BKN082 05/04 Q1001=
201912161420 METAR ESMX 161420Z 18013KT 9999 BKN010 05/04 Q1001=
201912161350 METAR ESMX 161350Z 19013KT 9999 SCT011 BKN015 05/04 Q1002=
201912161320 METAR ESMX 161320Z 18014KT 9999 BKN009 BKN011 05/04 Q1002=
201912161250 METAR ESMX 161250Z 18013KT 9999 BKN008 BKN010 05/04 Q1002=
201912161220 METAR ESMX 161220Z 18013KT 9999 BKN007 05/04 Q1002=
201912161150 METAR ESMX 161150Z 18013KT 9999 BKN008 05/04 Q1002=
201912161120 METAR ESMX 161120Z 18014KT 9999 BKN007 04/04 Q1003=
201912161050 METAR ESMX 161050Z 19014KT 9999 BKN006 04/04 Q1003=
201912161020 METAR ESMX 161020Z 19013KT 9999 BKN005 04/04 Q1003=
201912160950 METAR ESMX 160950Z 20013KT 9000 BR OVC005 04/04 Q1003=
201912160920 METAR ESMX 160920Z 19011KT 8000 BR OVC004 04/04 Q1003=
201912160850 METAR ESMX 160850Z 20009KT 6000 BR OVC002 04/03 Q1003=
201912160820 METAR ESMX 160820Z 20010KT 8000 BR OVC005 03/03 Q1003=
201912160750 METAR ESMX 160750Z 20010KT 9999 BKN006 03/03 Q1002=
201912160720 METAR ESMX 160720Z 22010KT 9999 OVC007 03/03 Q1002=
201912160650 METAR ESMX 160650Z 21010KT 9999 OVC009 03/03 Q1002=
201912160620 METAR ESMX 160620Z 23010KT 9999 BKN009 04/03 Q1002=
201912160550 METAR ESMX 160550Z 22011KT 9999 OVC009 04/03 Q1001=
201912160520 METAR ESMX 160520Z 23009KT 9999 BKN012 OVC016 04/03 Q1001=
201912160450 METAR ESMX 160450Z 24008KT 9999 BKN011 04/03 Q1001=
201912160420 METAR ESMX 160420Z AUTO 23008KT 9999 BKN010/// OVC015/// 04/04 Q1000=
201912160350 METAR ESMX 160350Z AUTO 22009KT 9999 BKN009/// OVC017/// 04/04 Q1000=
201912160320 METAR ESMX 160320Z AUTO 21008KT 9999 SCT009/// BKN011/// BKN022/// 04/03 Q1000=
201912160250 METAR ESMX 160250Z AUTO 22009KT 9999 -RA OVC009/// 04/03 Q0999 REUP=
201912160220 METAR ESMX 160220Z AUTO 22007KT 9999 BKN010/// BKN015/// OVC020/// 04/03 Q0999=
201912160150 METAR ESMX 160150Z AUTO 25009KT 9999 BKN009/// OVC013/// 04/03 Q0998=
201912160120 METAR ESMX 160120Z AUTO 25007KT 9999 OVC010/// 04/03 Q0998=
201912160050 METAR ESMX 160050Z AUTO 26008KT 9999 FEW009/// BKN012/// OVC028/// 03/03 Q0997=
201912160020 METAR ESMX 160020Z AUTO 27012KT 9999 BKN012/// OVC028/// 04/03 Q0996=
201912152350 METAR ESMX 152350Z AUTO 27015G25KT 9999 OVC011/// 04/03 Q0995=
201912152320 METAR ESMX 152320Z AUTO 27015G27KT 9999 BKN013/// OVC017/// 04/02 Q0994=
201912152250 METAR ESMX 152250Z AUTO 27017G28KT 9999 OVC014/// 04/02 Q0993=
201912152220 METAR ESMX 152220Z AUTO 27018KT 240V320 9999 BKN011/// OVC015/// 03/02 Q0991=
201912152150 METAR ESMX 152150Z AUTO 27019G31KT 9999 -DZ BKN010/// BKN016/// OVC021/// 03/02 Q0990 REDZ=
201912152120 METAR ESMX 152120Z AUTO 24018G36KT 210V290 7000 -RA BKN010/// OVC017/// 03/02 Q0988=
201912152050 METAR ESMX 152050Z 25015G27KT 8000 -RA BKN008 04/03 Q0986=
201912152020 METAR ESMX 152020Z 23014KT 6000 -RA FEW006 BKN008 BKN010 03/03 Q0985 REDZ=
201912151950 METAR ESMX 151950Z 20015KT 5000 -RA BKN006 BKN018 03/03 Q0985=
201912151920 METAR ESMX 151920Z 22015KT 9999 -RA SCT008 BKN011 OVC027 03/03 Q0985=
201912151850 METAR ESMX 151850Z 18012KT 5000 -RA SCT006 BKN009 OVC014 04/03 Q0984=
201912151820 METAR ESMX 151820Z AUTO 17010KT 7000 -RA BKN007/// BKN009/// OVC014/// 04/03 Q0984 REDZ=
201912151750 METAR ESMX 151750Z 17011KT 9999 -DZ BKN007 OVC010 04/03 Q0984=
201912151720 METAR ESMX 151720Z 17010KT 8000 -RA BKN007 OVC010 03/03 Q0984 REDZ=
201912151650 METAR ESMX 151650Z 19011KT 9999 -DZ BKN011 OVC015 03/03 Q0985=
201912151620 METAR ESMX 151620Z 19013KT 9999 -DZ BKN009 OVC012 03/03 Q0985=
201912151550 METAR ESMX 151550Z 19013KT 9999 DZ BKN008 03/03 Q0985=
201912151520 METAR ESMX 151520Z 18010KT 9999 -RA BKN007 OVC009 03/03 Q0985=
201912151450 METAR ESMX 151450Z 15010KT 8000 DZ BKN005 BKN008 02/02 Q0985 REDZ=
201912151420 METAR ESMX 151420Z 14012KT 100V170 8000 DZ BKN005 BKN009 02/02 Q0985=
201912151350 METAR ESMX 151350Z 15012KT 5000 -RA BKN006 03/02 Q0985 RERA=
201912151320 METAR ESMX 151320Z 17014G27KT 5000 RA SCT009 BKN012 BKN016 03/02 Q0986 REDZ=
201912151250 METAR ESMX 151250Z 14009KT 9999 -DZ BKN013 OVC020 04/03 Q0987 RERA=
201912151220 METAR ESMX 151220Z 14010KT 9999 BKN010 BKN018 04/03 Q0988=
201912151150 METAR ESMX 151150Z 14008KT 9999 BKN008 OVC082 03/03 Q0988=
201912151120 METAR ESMX 151120Z 15007KT 9999 BKN007 03/03 Q0989=
201912151050 METAR ESMX 151050Z 15008KT 9999 OVC007 03/03 Q0989=
201912151020 METAR ESMX 151020Z AUTO 17011KT 9999 OVC007/// 03/03 Q0990=
201912150950 METAR COR ESMX 150950Z 18012KT 9999 OVC006 03/03 Q0990=
201912150920 METAR ESMX 150920Z AUTO 18013KT 9999 OVC005/// 03/03 Q0990=
201912150850 METAR ESMX 150850Z AUTO 17010KT 9999 BKN007/// OVC019/// 03/03 Q0990=
201912150820 METAR ESMX 150820Z 18009KT 9999 SCT006 BKN010 03/02 Q0989=
201912150750 METAR ESMX 150750Z 19008KT 9999 BKN009 02/02 Q0989=
201912150720 METAR ESMX 150720Z 22011KT 9999 BKN008 03/03 Q0989=
201912150650 METAR ESMX 150650Z 21011KT 8000 -DZ OVC007 03/03 Q0989=
201912150620 METAR COR ESMX 150620Z 20011KT 9999 FEW002 BKN007 04/03 Q0989=
201912150550 METAR ESMX 150550Z AUTO 20010KT 8000 -DZ SCT006/// BKN011/// OVC016/// 04/04 Q0988=
201912150520 METAR ESMX 150520Z AUTO 20009KT 9000 DZ BKN007/// OVC012/// 04/04 Q0988 RERA=
201912150450 METAR ESMX 150450Z AUTO 20008KT 9999 BKN005/// BKN008/// OVC010/// 03/03 Q0987=
201912150420 METAR ESMX 150420Z AUTO 21009KT 9999 DZ OVC004/// 03/03 Q0987 RESHUP RERA=
201912150350 METAR ESMX 150350Z AUTO 21009KT 8000 -RA OVC004/// 02/02 Q0987 RESN=
201912150320 METAR ESMX 150320Z AUTO 19009KT 7000 -RA BKN004/// OVC008/// 02/02 Q0987 RERA=
201912150250 METAR ESMX 150250Z AUTO 20011KT 4900 -SN BKN005/// OVC016/// 02/01 Q0987=
201912150220 METAR ESMX 150220Z AUTO 22011KT 9999 DZ OVC006/// 02/02 Q0986=
201912150150 METAR ESMX 150150Z AUTO 20010KT 7000 -RA BKN005/// OVC007/// 03/02 Q0986=
201912150120 METAR ESMX 150120Z AUTO 19012KT 7000 -RA BKN003/// OVC006/// 03/03 Q0985=
201912150050 METAR ESMX 150050Z AUTO 18009KT 4500 -RA BKN005/// OVC018/// 03/03 Q0985 RESHUP=
201912150020 METAR ESMX 150020Z AUTO 18009KT 9999 BKN006/// BKN007/// OVC010/// 03/03 Q0985 REUP=
201912142350 METAR ESMX 142350Z AUTO 18007KT 9999 OVC005/// 03/03 Q0984=
201912142320 METAR ESMX 142320Z AUTO 17009KT 9999 FEW002/// OVC005/// 03/03 Q0984 REDZ REUP RESHUP=
201912142250 METAR ESMX 142250Z AUTO 16007KT 120V190 9999 OVC005/// 03/03 Q0984=
201912142220 METAR ESMX 142220Z AUTO 15007KT 9999 OVC004/// 03/03 Q0984=
201912142150 METAR ESMX 142150Z AUTO 14006KT 9999 FEW002/// OVC005/// 03/03 Q0984=
201912142120 METAR ESMX 142120Z AUTO 14006KT 9999 OVC005/// 03/03 Q0984 REDZ=
201912142050 METAR ESMX 142050Z AUTO 15007KT 9999 BKN006/// OVC007/// 03/03 Q0984 RESHUP REDZ=
201912142020 METAR ESMX 142020Z AUTO 15008KT 9999 OVC006/// 03/03 Q0984=
201912141950 METAR ESMX 141950Z AUTO 17009KT 9999 -DZ OVC007/// 03/03 Q0984 REUP=
201912141920 METAR ESMX 141920Z AUTO 15008KT 9999 BKN007/// OVC010/// 03/03 Q0983 RESHUP REDZ=
201912141850 METAR ESMX 141850Z AUTO 16008KT 9999 SCT003/// BKN006/// OVC008/// 03/03 Q0983 REDZ=
201912141820 METAR ESMX 141820Z AUTO 15006KT 5000 DZ OVC003/// 03/03 Q0983 REUP REDZ=
201912141750 METAR ESMX 141750Z AUTO 14006KT 100V160 2200 BR OVC001/// 03/03 Q0983=
201912141720 METAR ESMX 141720Z AUTO 15008KT 1900 BR OVC001/// 03/03 Q0983 REDZ=
201912141650 METAR ESMX 141650Z AUTO 15007KT 110V170 5000 BR OVC002/// 03/03 Q0983=
201912141620 METAR ESMX 141620Z AUTO 14007KT 110V170 5000 BR OVC003/// 02/02 Q0983 RESHUP REDZ=
201912141550 METAR ESMX 141550Z AUTO 16006KT 9000 BR OVC003/// 02/02 Q0983=
201912141520 METAR ESMX 141520Z AUTO 14005KT 110V170 4300 BR OVC003/// 02/02 Q0983 REDZ=
201912141450 METAR ESMX 141450Z AUTO 14006KT 9000 DZ BKN005/// BKN006/// OVC008/// 02/02 Q0982=
201912141420 METAR ESMX 141420Z AUTO 15007KT 5000 DZ OVC004/// 02/02 Q0982 REDZ=
201912141350 METAR ESMX 141350Z AUTO 14006KT 5000 DZ OVC004/// 02/02 Q0982=
201912141320 METAR ESMX 141320Z AUTO 15005KT 110V180 5000 DZ OVC005/// 03/02 Q0982=
201912141250 METAR ESMX 141250Z AUTO 13006KT 080V160 5000 -RA BKN005/// OVC007/// 03/03 Q0982=
201912141220 METAR ESMX 141220Z AUTO 15005KT 110V190 4700 -RA OVC005/// 03/03 Q0982 REDZ=
201912141150 METAR ESMX 141150Z AUTO 12005KT 080V160 7000 BR OVC006/// 03/03 Q0982 RESHUP=
201912141120 METAR ESMX 141120Z AUTO 11004KT 060V190 6000 BR OVC006/// 03/03 Q0982 REUP=
201912141050 METAR ESMX 141050Z AUTO 13005KT 070V160 6000 BR OVC007/// 03/03 Q0982=
201912141020 METAR ESMX 141020Z AUTO 13005KT 090V170 8000 BR OVC007/// 03/02 Q0982=
201912140950 METAR ESMX 140950Z AUTO 13005KT 070V160 9000 BR BKN008/// OVC033/// 03/02 Q0982=
201912140920 METAR ESMX 140920Z AUTO 12004KT 080V160 8000 BR BKN007/// BKN010/// OVC033/// 03/02 Q0982=
201912140850 METAR ESMX 140850Z AUTO 12006KT 080V150 7000 BR BKN007/// OVC010/// 03/03 Q0982 REDZ=
201912140820 METAR ESMX 140820Z AUTO 13005KT 080V170 6000 BR OVC006/// 03/03 Q0982=
201912140750 METAR ESMX 140750Z AUTO 14004KT 100V170 6000 BR FEW002/// BKN007/// BKN023/// 03/03 Q0982 REDZ REUP=
201912140720 METAR ESMX 140720Z AUTO 14006KT 7000 UP BKN006/// OVC012/// 03/03 Q0982=
201912140650 METAR ESMX 140650Z AUTO 14004KT 110V170 7000 BR OVC006/// 03/03 Q0982=
201912140620 METAR ESMX 140620Z AUTO 12004KT 070V160 6000 BR OVC005/// 03/03 Q0982 REDZ=
201912140550 METAR ESMX 140550Z AUTO 12004KT 080V170 7000 BR OVC005/// 03/03 Q0982=
201912140520 METAR ESMX 140520Z AUTO 13005KT 080V190 7000 BR OVC004/// 02/02 Q0982 REDZ=
201912140450 METAR ESMX 140450Z AUTO 15003KT 110V180 5000 DZ OVC004/// 02/02 Q0982=
201912140420 METAR ESMX 140420Z AUTO 13004KT 060V170 8000 -DZ OVC005/// 02/02 Q0983 RESHUP REDZ=
201912140350 METAR ESMX 140350Z AUTO 11004KT 050V150 9999 SCT003/// OVC004/// 02/02 Q0983 REDZ=
201912140320 METAR ESMX 140320Z AUTO 09003KT 030V160 6000 DZ OVC003/// 02/02 Q0983 RESHUP=
201912140250 METAR ESMX 140250Z AUTO 13004KT 070V170 9999 -DZ OVC003/// 02/02 Q0983 RESHUP REUP=
201912140220 METAR ESMX 140220Z AUTO 12005KT 070V160 9999 OVC004/// 01/01 Q0983=
201912140150 METAR ESMX 140150Z AUTO 13005KT 080V170 9999 -RA OVC005/// 01/01 Q0983=
201912140120 METAR ESMX 140120Z AUTO 14005KT 070V170 9999 -RA OVC005/// 02/02 Q0984=
201912140050 METAR ESMX 140050Z AUTO 12004KT 040V150 9000 -RA OVC005/// 02/02 Q0984=
201912140020 METAR ESMX 140020Z AUTO 12004KT 030V170 9999 -RA OVC005/// 02/02 Q0984=
201912132350 METAR ESMX 132350Z AUTO 10003KT 060V150 9999 -RA OVC006/// 02/02 Q0984=
201912132320 METAR ESMX 132320Z AUTO 09004KT 050V140 9999 -RA BKN006/// OVC007/// 02/02 Q0984=
201912132250 METAR ESMX 132250Z AUTO 09004KT 030V130 9999 -RA BKN006/// OVC016/// 02/02 Q0984=
201912132220 METAR ESMX 132220Z AUTO 09003KT 020V160 9999 -DZ BKN005/// OVC007/// 03/03 Q0984=
201912132150 METAR ESMX 132150Z AUTO VRB03KT 9999 DZ OVC007/// 03/03 Q0985=
201912132120 METAR ESMX 132120Z AUTO 10005KT 020V150 9999 -DZ OVC007/// 03/03 Q0985=
201912132050 METAR ESMX 132050Z AUTO 08004KT 020V120 7000 -DZ OVC005/// 03/03 Q0985 REDZ=
201912132020 METAR ESMX 132020Z AUTO 07004KT 020V120 5000 BR OVC005/// 03/03 Q0985=
201912131950 METAR ESMX 131950Z AUTO 08003KT 020V140 2800 -DZ OVC002/// 03/03 Q0985 REDZ=
201912131920 METAR ESMX 131920Z AUTO VRB03KT 5000 BR FEW003/// BKN005/// OVC008/// 03/03 Q0986 REDZ=
201912131850 METAR ESMX 131850Z AUTO 13004KT 080V180 2600 DZ BKN002/// OVC004/// 03/03 Q0986 REUP REDZ=
201912131820 METAR ESMX 131820Z 11005KT 080V190 1800 BR OVC002 03/03 Q0986=
201912131750 METAR ESMX 131750Z 10005KT 020V150 3100 BR OVC002 03/03 Q0987=
201912131720 METAR ESMX 131720Z 10005KT 020V150 8000 -DZ BKN004 OVC006 03/03 Q0987=
201912131650 METAR ESMX 131650Z 10006KT 010V180 9999 -DZ OVC007 03/03 Q0987=
201912131620 METAR ESMX 131620Z 08005KT 020V150 9999 -DZ OVC006 03/03 Q0987=
201912131550 METAR ESMX 131550Z 08003KT 010V160 9999 -DZ OVC006 03/03 Q0987=
201912131520 METAR ESMX 131520Z 08004KT 030V140 9999 -DZ OVC006 03/03 Q0987=
201912131450 METAR ESMX 131450Z VRB04KT 7000 -DZ OVC006 03/03 Q0988=
201912131420 METAR ESMX 131420Z VRB05KT 7000 -DZ OVC005 03/03 Q0988=
201912131350 METAR ESMX 131350Z 09005KT 030V120 6000 -DZ OVC006 03/02 Q0988=
201912131320 METAR ESMX 131320Z 08005KT 030V140 9000 DZ OVC007 03/02 Q0988=
201912131250 METAR ESMX 131250Z 09004KT 030V150 9999 -RA BKN009 03/02 Q0988=
201912131220 METAR ESMX 131220Z 10007KT 060V140 9999 -RA BKN009 03/02 Q0989=
201912131150 METAR ESMX 131150Z 09005KT 020V150 9999 -RA OVC008 03/03 Q0989=
201912131120 METAR ESMX 131120Z 08005KT 330V140 9999 BKN008 03/02 Q0989=
201912131050 METAR ESMX 131050Z 10005KT 030V150 9999 -RA BKN009 OVC017 03/02 Q0989=
201912131020 METAR ESMX 131020Z 11006KT 060V190 9999 BKN010 03/02 Q0990=
201912130950 METAR ESMX 130950Z 11007KT 070V160 9999 BKN010 03/02 Q0990=
201912130920 METAR ESMX 130920Z 12006KT 050V170 9999 BKN009 03/02 Q0991=
201912130850 METAR ESMX 130850Z 11005KT 030V160 9999 BKN008 03/02 Q0991=
201912130820 METAR ESMX 130820Z 13007KT 080V170 9999 BKN009 03/02 Q0991=
201912130750 METAR ESMX 130750Z 11005KT 060V150 9999 BKN007 03/03 Q0991=
201912130720 METAR ESMX 130720Z 12005KT 070V170 9999 BKN008 03/02 Q0991=
201912130650 METAR ESMX 130650Z 12006KT 070V170 9999 BKN010 03/02 Q0991=
201912130620 METAR ESMX 130620Z 14007KT 080V190 9000 -RA BKN006 03/03 Q0992=
201912130550 METAR ESMX 130550Z 14006KT 100V170 7000 BR BKN005 03/03 Q0992=
201912130520 METAR ESMX 130520Z 13006KT 8000 BR BKN005 03/03 Q0992=
201912130450 METAR ESMX 130450Z 11004KT 070V150 9999 BKN005 02/02 Q0992=
201912130420 METAR ESMX 130420Z AUTO 13004KT 090V160 9999 FEW023/// SCT031/// OVC042/// 02/02 Q0992=
201912130350 METAR ESMX 130350Z AUTO 13007KT 090V170 9999 -RA SCT006/// BKN021/// OVC026/// 02/02 Q0992 REDZ REUP=
201912130320 METAR ESMX 130320Z AUTO 13006KT 110V180 9999 BKN006/// BKN021/// OVC039/// 02/02 Q0993=
201912130250 METAR ESMX 130250Z AUTO 13005KT 080V170 9999 BKN006/// OVC044/// 03/02 Q0993=
201912130220 METAR ESMX 130220Z AUTO 14006KT 9999 BKN006/// OVC007/// 03/03 Q0993=
201912130150 METAR ESMX 130150Z AUTO 14005KT 110V170 9000 BR BKN005/// BKN011/// OVC018/// 03/03 Q0994=
201912130120 METAR ESMX 130120Z AUTO 14006KT 9999 BKN005/// OVC016/// 02/02 Q0994=
201912130050 METAR ESMX 130050Z AUTO 14005KT 9999 BKN006/// OVC013/// 03/02 Q0994 RESHUP=
201912130020 METAR ESMX 130020Z AUTO 15005KT 9999 OVC006/// 03/02 Q0994 REUP=
201912122350 METAR ESMX 122350Z AUTO 17007KT 9999 OVC006/// 03/03 Q0994=
201912122320 METAR ESMX 122320Z AUTO 16007KT 9999 OVC005/// 03/03 Q0994=
201912122250 METAR ESMX 122250Z AUTO 16007KT 8000 BR OVC004/// 03/03 Q0994=
201912122220 METAR ESMX 122220Z AUTO 16007KT 7000 BR OVC004/// 03/03 Q0995=
201912122150 METAR ESMX 122150Z AUTO 16007KT 7000 BR OVC005/// 03/03 Q0995=
201912122120 METAR ESMX 122120Z 17007KT 7000 BR OVC005 03/03 Q0995=
201912122050 METAR ESMX 122050Z 16007KT 7000 BR OVC004 03/03 Q0995=
201912122020 METAR ESMX 122020Z 15007KT 7000 BR OVC004 02/02 Q0995=
201912121950 METAR ESMX 121950Z 16006KT 6000 BR BKN004 02/02 Q0995=
201912121920 METAR ESMX 121920Z 16006KT 130V190 7000 BR OVC004 02/02 Q0995=
201912121850 METAR ESMX 121850Z 16006KT 8000 BR OVC003 02/02 Q0995=
201912121820 METAR ESMX 121820Z 18006KT 7000 BR OVC002 02/02 Q0995=
201912121750 METAR ESMX 121750Z 17005KT 4500 BR VV002 02/02 Q0995=
201912121720 METAR ESMX 121720Z 18007KT 4000 BR OVC002 02/02 Q0995=
201912121650 METAR ESMX 121650Z 18008KT 3600 BR OVC001 02/02 Q0995=
201912121620 METAR ESMX 121620Z 18006KT 1700 BR OVC002 02/02 Q0995=
201912121550 METAR ESMX 121550Z 19006KT 3000 BR OVC002 02/02 Q0996=
201912121520 METAR ESMX 121520Z 18006KT 2700 BR OVC002 02/02 Q0996=
201912121450 METAR ESMX 121450Z 17006KT 9000 BR OVC003 01/01 Q0996=
201912121420 METAR ESMX 121420Z 19006KT 8000 BR OVC004 01/01 Q0996=
201912121350 METAR ESMX 121350Z 18005KT 9999 OVC004 01/01 Q0996=
201912121320 METAR ESMX 121320Z 17005KT 8000 -RA OVC003 01/01 Q0996=
201912121250 METAR ESMX 121250Z 18005KT 5000 -SN OVC003 01/01 Q0996=
201912121220 METAR ESMX 121220Z 18006KT 6000 -RASN BKN003 02/02 Q0996=
201912121150 METAR ESMX 121150Z 17005KT 7000 BKN003 02/02 Q0996=
201912121120 METAR ESMX 121120Z 16005KT 9999 -RA BKN004 01/01 Q0996=
201912121050 METAR ESMX 121050Z 15005KT 110V170 9999 -RA BKN004 01/01 Q0997=
201912121020 METAR ESMX 121020Z 16004KT 8000 BKN003 01/01 Q0997=
201912120950 METAR ESMX 120950Z AUTO 15004KT 6000 -RASN FEW003/// BKN006/// OVC008/// 01/01 Q0997=
201912120920 METAR ESMX 120920Z 18004KT 1700 -RASN BKN004 01/01 Q0998=
201912120850 METAR ESMX 120850Z 22002KT 4100 -SN OVC002 01/01 Q0998=
201912120820 METAR ESMX 120820Z 00000KT 3000 -RASN VV002 01/01 Q0998=
201912120750 METAR ESMX 120750Z 00000KT 3800 -RASN VV007 00/00 Q0998=
201912120720 METAR COR ESMX 120720Z VRB02KT 3200 -SN BKN007 01/01 Q0998=
201912120650 METAR ESMX 120650Z VRB02KT 3700 -RASN OVC002 01/01 Q0999=
201912120620 METAR ESMX 120620Z VRB02KT 3500 -RASN BR OVC002 01/01 Q0999=
201912120550 METAR ESMX 120550Z VRB01KT 3500 -SN BR OVC002 01/01 Q0999=
201912120520 METAR ESMX 120520Z 13003KT 100V160 3500 RASN OVC002 01/01 Q0999=
201912120450 METAR ESMX 120450Z VRB03KT 3900 -SN OVC002 01/01 Q0999=
201912120420 METAR ESMX 120420Z AUTO VRB03KT 9000 -PL OVC003/// 01/01 Q0999=
201912120350 METAR ESMX 120350Z AUTO VRB03KT 9999 -RA BKN003/// OVC005/// 01/01 Q1000=
201912120320 METAR ESMX 120320Z AUTO 14005KT 8000 -RA OVC004/// 02/02 Q1000=
201912120250 METAR ESMX 120250Z AUTO 14005KT 070V160 9999 -RA BKN005/// OVC021/// 02/02 Q1000=
201912120220 METAR ESMX 120220Z AUTO 14005KT 100V170 7000 -RA BKN003/// BKN006/// OVC017/// 02/02 Q1001=
201912120150 METAR ESMX 120150Z AUTO 15006KT 6000 -RA BKN004/// OVC011/// 02/02 Q1001=
201912120120 METAR ESMX 120120Z AUTO 14005KT 7000 -RA BKN005/// OVC007/// 03/03 Q1001 REDZ=
201912120050 METAR ESMX 120050Z AUTO 15005KT 7000 DZ BKN004/// BKN009/// OVC013/// 03/03 Q1001=
201912120020 METAR ESMX 120020Z AUTO 14004KT 5000 +DZ FEW003/// BKN010/// BKN021/// 03/03 Q1002=
201912112350 METAR ESMX 112350Z AUTO 14004KT 5000 -RA ///027 03/03 Q1002 REDZ=
201912112320 METAR ESMX 112320Z AUTO 15005KT 7000 -RA ///027 03/03 Q1002 REDZ=
201912112250 METAR ESMX 112250Z AUTO 14005KT 9000 DZ BKN013/// OVC019/// 04/04 Q1002=
201912112220 METAR ESMX 112220Z AUTO 14005KT 110V190 9999 -RA BKN012/// OVC017/// 04/04 Q1002=
201912112150 METAR ESMX 112150Z AUTO 15005KT 9999 -RA FEW004/// BKN012/// OVC015/// 04/04 Q1003 REDZ=
201912112120 METAR ESMX 112120Z 15006KT 9000 DZ BR BKN003 04/04 Q1003=
201912112050 METAR ESMX 112050Z 15006KT 5000 DZ BR BKN003 04/04 Q1003=
201912112020 METAR ESMX 112020Z 14005KT 6000 DZ BR SCT003 BKN012 04/04 Q1003=
201912111950 METAR ESMX 111950Z 16005KT 6000 DZ BR OVC003 04/04 Q1003=
201912111920 METAR ESMX 111920Z 16005KT 8000 DZ BR OVC003 04/04 Q1003=
201912111850 METAR ESMX 111850Z 16006KT 7000 DZ OVC003 04/04 Q1004=
201912111820 METAR ESMX 111820Z 16005KT 7000 -DZ BR OVC002 04/04 Q1004=
201912111750 METAR ESMX 111750Z 17006KT 9999 DZ OVC003 04/04 Q1004=
201912111720 METAR ESMX 111720Z 16006KT 9000 -DZ OVC002 04/04 Q1004=
201912111650 METAR ESMX 111650Z 16006KT 9999 -DZ OVC002 04/04 Q1004=
201912111620 METAR ESMX 111620Z 18006KT 8000 -DZ OVC003 04/04 Q1004=
201912111550 METAR ESMX 111550Z 16006KT 9000 -DZ OVC003 04/04 Q1004=
201912111520 METAR ESMX 111520Z 16007KT 8000 -DZ OVC003 04/04 Q1004=
201912111450 METAR ESMX 111450Z 16006KT 8000 -DZ OVC003 04/04 Q1004=
201912111420 METAR ESMX 111420Z 17006KT 8000 -DZ OVC003 04/04 Q1004=
201912111350 METAR ESMX 111350Z 17007KT 9000 -DZ OVC003 04/04 Q1004=
201912111320 METAR ESMX 111320Z 17008KT 9000 -DZ OVC004 04/04 Q1004=
201912111250 METAR ESMX 111250Z 18008KT 9999 DZ OVC003 04/04 Q1004=
201912111220 METAR ESMX 111220Z 17009KT 9999 -DZ OVC004 04/04 Q1004=
201912111150 METAR ESMX 111150Z 18009KT 9000 -DZ OVC004 03/03 Q1005=
201912111120 METAR ESMX 111120Z 18010KT 9999 -DZ OVC004 03/03 Q1005=
201912111050 METAR ESMX 111050Z 18010KT 9999 -DZ OVC005 03/03 Q1005=
201912111020 METAR ESMX 111020Z 18011KT 9999 DZ OVC004 03/03 Q1005=
201912110950 METAR ESMX 110950Z 18011KT 9999 DZ OVC005 03/02 Q1005=
201912110920 METAR ESMX 110920Z 17011KT 9999 -RA OVC005 02/02 Q1005=
201912110850 METAR ESMX 110850Z 17012KT 8000 -RA OVC005 02/02 Q1005=
201912110820 METAR ESMX 110820Z 18011KT 6000 -RA OVC006 02/02 Q1005=
201912110750 METAR ESMX 110750Z 17013KT 3800 -RA OVC005 02/02 Q1004=
201912110720 METAR ESMX 110720Z 17014KT 4400 -DZ BR BKN005 02/02 Q1004=
201912110650 METAR ESMX 110650Z 17014KT 4200 -DZ BR BKN005 02/02 Q1004=
201912110620 METAR COR ESMX 110620Z 17015KT 4900 BR BKN005 03/02 Q1004=
201912110550 METAR ESMX 110550Z 18017KT 9999 BKN006 03/01 Q1004=
201912110520 METAR ESMX 110520Z 18015KT 9999 BKN020 03/01 Q1004=
201912110450 METAR ESMX 110450Z 16016KT 9999 BKN030 04/01 Q1004=
201912110420 METAR ESMX 110420Z AUTO 16015KT 9999 OVC040/// 04/01 Q1005=
201912110350 METAR ESMX 110350Z AUTO 17015KT 9999 -RA OVC044/// 04/00 Q1005=
201912110320 METAR ESMX 110320Z AUTO 16016KT 9999 FEW028/// OVC042/// 04/M00 Q1006=
201912110250 METAR ESMX 110250Z AUTO 16015KT 9999 -DZ FEW028/// OVC042/// 04/M00 Q1006 RESHUP REUP=
201912110220 METAR ESMX 110220Z AUTO 16016KT 9999 OVC048/// 04/M00 Q1007=
201912110150 METAR ESMX 110150Z AUTO 16015KT 9999 SCT035/// OVC053/// 03/M00 Q1007=
201912110120 METAR ESMX 110120Z AUTO 17017KT 9999 SCT062/// BKN100/// 03/M00 Q1008=
201912110050 METAR ESMX 110050Z AUTO 17016G27KT 9999 BKN100/// 03/00 Q1009=
201912110020 METAR ESMX 110020Z AUTO 17016KT 9999 OVC110/// 03/00 Q1009=
201912102350 METAR ESMX 102350Z AUTO 16013KT 9999 BKN120/// 02/01 Q1010=
201912102320 METAR ESMX 102320Z AUTO 16012KT 9999 FEW110/// 02/01 Q1010=
201912102250 METAR ESMX 102250Z AUTO 16012KT 9999 SCT009/// OVC110/// 02/01 Q1011=
201912102220 METAR ESMX 102220Z AUTO 17010KT 140V200 9999 SCT010/// BKN120/// BKN150/// 02/01 Q1012=
201912102150 METAR ESMX 102150Z AUTO 15009KT 9999 BKN140/// 01/M00 Q1012=
201912102120 METAR ESMX 102120Z 14009KT 9999 FEW015 M00/M01 Q1013=
201912102050 METAR ESMX 102050Z 15009KT 9999 FEW014 M01/M02 Q1014=
201912102020 METAR ESMX 102020Z AUTO 14009KT 9999 FEW040/// M01/M02 Q1014=
201912101950 METAR ESMX 101950Z 15008KT CAVOK M01/M03 Q1015=
201912101920 METAR ESMX 101920Z 15008KT CAVOK M01/M03 Q1015=
201912101850 METAR ESMX 101850Z 14008KT CAVOK M01/M03 Q1015=
201912101820 METAR ESMX 101820Z 16008KT CAVOK M02/M03 Q1016=
201912101750 METAR ESMX 101750Z 16006KT CAVOK M02/M03 Q1016=
201912101720 METAR ESMX 101720Z 16006KT CAVOK M02/M03 Q1016=
201912101650 METAR ESMX 101650Z 16006KT CAVOK M02/M03 Q1017=
201912101620 METAR ESMX 101620Z 15007KT CAVOK M01/M03 Q1017=
201912101550 METAR ESMX 101550Z 15005KT CAVOK M01/M03 Q1017=
201912101520 METAR ESMX 101520Z 15005KT CAVOK M02/M03 Q1017=
201912101450 METAR ESMX 101450Z 15004KT CAVOK M02/M03 Q1017=
201912101420 METAR ESMX 101420Z 17004KT CAVOK M01/M03 Q1018=
201912101350 METAR ESMX 101350Z 18005KT CAVOK M01/M03 Q1017=
201912101320 METAR ESMX 101320Z 19003KT CAVOK M00/M03 Q1017=
201912101250 METAR ESMX 101250Z 23003KT CAVOK 00/M03 Q1017=
201912101220 METAR ESMX 101220Z 25005KT CAVOK M00/M03 Q1017=
201912101150 METAR ESMX 101150Z 23004KT CAVOK M00/M03 Q1017=
201912101120 METAR ESMX 101120Z VRB03KT CAVOK M00/M03 Q1017=
201912101050 METAR ESMX 101050Z 25005KT CAVOK M01/M03 Q1017=
201912101020 METAR ESMX 101020Z 27005KT 240V300 CAVOK M01/M03 Q1016=
201912100950 METAR ESMX 100950Z 27005KT CAVOK M02/M03 Q1016=
201912100920 METAR ESMX 100920Z 27006KT CAVOK M02/M03 Q1015=
201912100850 METAR ESMX 100850Z 28006KT CAVOK M02/M04 Q1015=
201912100820 METAR ESMX 100820Z 29006KT CAVOK M03/M04 Q1015=
201912100750 METAR ESMX 100750Z 30006KT CAVOK M03/M04 Q1014=
201912100720 METAR COR ESMX 100720Z 30007KT CAVOK M03/M04 Q1013=
201912100650 METAR ESMX 100650Z 30005KT CAVOK M03/M04 Q1012=
201912100620 METAR ESMX 100620Z 30008KT CAVOK M02/M04 Q1011=
201912100550 METAR ESMX 100550Z 31009KT CAVOK M02/M03 Q1011=
201912100520 METAR ESMX 100520Z 31010KT CAVOK M01/M04 Q1010=
201912100450 METAR ESMX 100450Z 32010KT CAVOK M01/M03 Q1009=
201912100420 METAR ESMX 100420Z AUTO 32010KT 9999 NCD M01/M03 Q1008=
201912100350 METAR ESMX 100350Z AUTO 33012KT 9999 NCD M01/M03 Q1007=
201912100320 METAR ESMX 100320Z AUTO 32013KT 9999 FEW019/// M01/M03 Q1007=
201912100250 METAR ESMX 100250Z AUTO 32014KT 9999 BKN019/// M00/M02 Q1006=
201912100220 METAR ESMX 100220Z AUTO 32013KT 9999 BKN020/// M00/M02 Q1005=
201912100150 METAR ESMX 100150Z AUTO 32016KT 9999 BKN014/// OVC018/// 00/M01 Q1004=
201912100120 METAR ESMX 100120Z AUTO 32014KT 9999 -SN BKN011/// OVC022/// 00/M01 Q1002 RESG=
201912100050 METAR ESMX 100050Z AUTO 32015KT 6000 -SN FEW011/// SCT017/// OVC029/// 01/M00 Q1001=
201912100020 METAR ESMX 100020Z AUTO 32015KT 9999 -SN SCT018/// OVC029/// 01/M00 Q1000=
201912092350 METAR ESMX 092350Z AUTO 33017KT 9999 -SN FEW011/// SCT018/// BKN029/// 01/M00 Q0998=
201912092320 METAR ESMX 092320Z AUTO 33011KT 300V360 5000 -SN FEW002/// SCT005/// BKN012/// 01/01 Q0997=
201912092250 METAR ESMX 092250Z AUTO 31013KT 6000 -SN FEW009/// BKN011/// BKN020/// 01/01 Q0996 REDZ=
201912092220 METAR ESMX 092220Z AUTO 32014KT 9999 -DZ FEW007/// BKN012/// OVC017/// 02/01 Q0994=
201912092150 METAR ESMX 092150Z AUTO 31017KT 280V340 4600 -RA FEW002/// SCT004/// BKN007/// 03/02 Q0993=
201912092120 METAR ESMX 092120Z AUTO 24006KT 8000 -RA BKN005/// BKN008/// OVC009/// 04/04 Q0992=
201912092050 METAR ESMX 092050Z AUTO 21009KT 4800 -DZ FEW003/// BKN005/// BKN009/// 04/04 Q0991=
201912092020 METAR ESMX 092020Z AUTO 22009KT 4100 -RA SCT002/// BKN005/// OVC007/// 04/04 Q0991=
201912091950 METAR ESMX 091950Z 19012KT 6000 -DZ BKN011 04/03 Q0990=
201912091920 METAR ESMX 091920Z 20012KT 9999 -DZ BKN017 04/03 Q0990=
201912091850 METAR ESMX 091850Z 20013KT 9999 SCT018 BKN040 04/03 Q0990=
201912091820 METAR ESMX 091820Z 19012KT 9999 BKN037 04/03 Q0989=
201912091750 METAR ESMX 091750Z 19011KT 9999 FEW046 04/03 Q0989=
201912091720 METAR ESMX 091720Z 20011KT 9999 FEW014 BKN044 04/04 Q0989=
201912091650 METAR ESMX 091650Z 20011KT 9999 BKN011 05/04 Q0989=
201912091620 METAR ESMX 091620Z 20011KT 9999 BKN014 05/04 Q0989=
201912091550 METAR ESMX 091550Z 23011KT 9999 FEW009 BKN015 05/04 Q0988=
201912091520 METAR ESMX 091520Z 23012G22KT 4200 -RA BKN010 05/04 Q0988=
201912091450 METAR ESMX 091450Z 21013KT 9999 BKN010 05/04 Q0987=
201912091420 METAR ESMX 091420Z 20015KT 9999 -DZ SCT009 BKN011 05/04 Q0987=
201912091350 METAR ESMX 091350Z 20013KT 9999 SCT007 BKN011 05/04 Q0987=
201912091320 METAR ESMX 091320Z 21014KT 5000 -DZ FEW005 BKN008 05/04 Q0987=
201912091250 METAR ESMX 091250Z 20014KT 8000 -DZ FEW002 SCT007 BKN009 05/04 Q0987=
201912091220 METAR ESMX 091220Z 20014KT 8000 -RA FEW007 BKN011 05/04 Q0987=
201912091150 METAR ESMX 091150Z 19013KT 9999 -RA FEW011 BKN015 05/04 Q0986=
201912091120 METAR ESMX 091120Z 20013KT 7000 -RA FEW006 BKN013 05/04 Q0986=
201912091050 METAR ESMX 091050Z 19013KT 9999 -RA FEW006 BKN014 05/04 Q0987=
201912091020 METAR ESMX 091020Z 20013KT 9999 BKN016 05/04 Q0987=
201912090950 METAR ESMX 090950Z 20013KT 9999 BKN015 05/04 Q0987=
201912090920 METAR ESMX 090920Z 21012KT 9999 BKN016 05/04 Q0987=
201912090850 METAR ESMX 090850Z 20011KT 9999 BKN014 05/04 Q0986=
201912090820 METAR ESMX 090820Z 20012KT 9999 BKN013 BKN028 05/04 Q0986=
201912090750 METAR ESMX 090750Z 22013KT 9999 BKN012 OVC019 05/04 Q0986=
201912090720 METAR COR ESMX 090720Z 22014KT 9999 -RA BKN012 05/04 Q0986=
201912090650 METAR ESMX 090650Z 22015KT 9999 OVC013 05/04 Q0985=
201912090620 METAR ESMX 090620Z 21017KT 9999 BR OVC012 05/04 Q0985=
201912090550 METAR ESMX 090550Z 20016KT 9999 OVC012 05/04 Q0985=
201912090520 METAR ESMX 090520Z 20016KT 9999 -RA BKN013 OVC018 05/04 Q0985=
201912090450 METAR ESMX 090450Z 20017KT 9999 BKN013 OVC022 05/04 Q0985=
201912090420 METAR ESMX 090420Z AUTO 21014KT 9999 BKN011/// OVC015/// 05/04 Q0984=
201912090350 METAR ESMX 090350Z AUTO 20015KT 9999 FEW012/// BKN016/// OVC031/// 05/04 Q0984=
201912090320 METAR ESMX 090320Z AUTO 21014KT 9999 OVC011/// 05/04 Q0984=
201912090250 METAR ESMX 090250Z AUTO 22013G26KT 9999 OVC011/// 05/04 Q0984 RESHUP=
201912090220 METAR ESMX 090220Z AUTO 22014KT 9999 BKN010/// OVC014/// 05/04 Q0984 REDZ RESHUP RERA=
201912090150 METAR ESMX 090150Z AUTO 20014KT 9999 BKN010/// OVC049/// 05/04 Q0984=
201912090120 METAR ESMX 090120Z AUTO 22014KT 9999 BKN009/// OVC012/// 05/04 Q0984 RESHUP RERA=
201912090050 METAR ESMX 090050Z AUTO 21014KT 9999 BKN010/// OVC013/// 05/04 Q0984=
201912090020 METAR ESMX 090020Z AUTO 21017KT 9999 BKN011/// OVC016/// 05/04 Q0984 RERA=
201912082350 METAR ESMX 082350Z AUTO 20014KT 9999 OVC012/// 05/04 Q0983=
201912082320 METAR ESMX 082320Z AUTO 21013KT 9999 SCT010/// BKN016/// BKN021/// 05/04 Q0983 RESHUP REDZ=
201912082250 METAR ESMX 082250Z AUTO 21013KT 9999 BKN010/// OVC014/// 05/04 Q0983=
201912082220 METAR ESMX 082220Z AUTO 21011KT 9999 -DZ SCT012/// BKN015/// OVC021/// 05/04 Q0983 RESHUP REUP=
201912082150 METAR ESMX 082150Z AUTO 23013KT 9999 BKN013/// OVC046/// 05/04 Q0983 REUP RESHUP=
201912082120 METAR ESMX 082120Z 22014KT 9999 BKN011 06/05 Q0983=
201912082050 METAR ESMX 082050Z 21012KT 9999 FEW011 BKN015 05/04 Q0983=
201912082020 METAR ESMX 082020Z 23008KT 9999 -RA SCT011 BKN015 BKN025 06/05 Q0983=
201912081950 METAR ESMX 081950Z AUTO 23012KT 9999 FEW016/// SCT021/// BKN036/// 06/05 Q0983=
201912081920 METAR ESMX 081920Z 23013KT 9999 SCT015 BKN020 06/05 Q0983=
201912081850 METAR COR ESMX 081850Z 22010KT 9999 BKN018 06/05 Q0983=
201912081820 METAR ESMX 081820Z 23013G24KT 9999 SCT018 BKN037 07/05 Q0982=
201912081750 METAR ESMX 081750Z 24014G27KT 9999 SCT014 BKN021 07/06 Q0982=
201912081720 METAR ESMX 081720Z 22012KT 190V250 9999 SCT015 BKN022 07/06 Q0982=
201912081650 METAR ESMX 081650Z 23011KT 9999 SCT013 BKN017 07/06 Q0982=
201912081620 METAR ESMX 081620Z 23011KT 9999 SCT014 BKN017 07/07 Q0981=
201912081550 METAR ESMX 081550Z 22015KT 190V250 9999 -RA BR SCT007 BKN015 08/07 Q0981=
201912081520 METAR ESMX 081520Z 20015KT 6000 -RA BR FEW002 BKN006 07/07 Q0981=
201912081450 METAR ESMX 081450Z 21016KT 9000 BR BKN007 07/07 Q0981=
201912081420 METAR ESMX 081420Z 20017KT 9999 BKN007 07/07 Q0981=
201912081350 METAR ESMX 081350Z 20016KT 8000 -DZ BR BKN006 07/07 Q0982=
201912081320 METAR ESMX 081320Z 20017KT 9000 BR BKN006 07/07 Q0982=
201912081250 METAR ESMX 081250Z 19019KT 6000 BR OVC005 07/07 Q0982=
201912081220 METAR ESMX 081220Z 19018KT 5000 BR OVC005 07/06 Q0983=
201912081150 METAR ESMX 081150Z 19019KT 4600 -RA BKN006 07/06 Q0983=
201912081120 METAR COR ESMX 081120Z 19018KT 8000 -RA BKN006 07/06 Q0984=
201912081050 METAR ESMX 081050Z 19018KT 9999 -RA BKN008 06/06 Q0985=
201912081020 METAR ESMX 081020Z 19017KT 9999 -RA BKN007 OVC009 06/06 Q0986=
201912080950 METAR ESMX 080950Z 19017KT 9999 -RA OVC006 06/06 Q0987=
201912080920 METAR ESMX 080920Z AUTO 19016KT 8000 -RA FEW002/// OVC005/// 06/06 Q0987 REDZ=
201912080850 METAR ESMX 080850Z 18016KT 9999 -RA OVC006 06/06 Q0988=
201912080820 METAR ESMX 080820Z 18015KT 9999 -RA OVC006 06/05 Q0989=
201912080750 METAR ESMX 080750Z 19013KT 9999 -RA OVC006 05/05 Q0990=
201912080720 METAR ESMX 080720Z 17011KT 9999 -RA SCT004 BKN007 05/05 Q0990=
201912080650 METAR ESMX 080650Z 17011KT 9999 -RA OVC004 05/05 Q0991=
201912080620 METAR ESMX 080620Z AUTO 17010KT 9999 DZ OVC004/// 05/05 Q0992=
201912080550 METAR ESMX 080550Z AUTO 17010KT 9999 DZ OVC003/// 04/04 Q0993=
201912080520 METAR ESMX 080520Z AUTO 18008KT 4000 -RA OVC002/// 04/04 Q0994=
201912080450 METAR ESMX 080450Z AUTO 16008KT 7000 -RA OVC002/// 03/03 Q0994=
201912080420 METAR ESMX 080420Z AUTO 17009KT 9999 -RA OVC003/// 03/03 Q0995 RESHUP REDZ REUP=
201912080350 METAR ESMX 080350Z AUTO 19009KT 9999 UP OVC003/// 03/03 Q0996=
201912080320 METAR ESMX 080320Z AUTO 18009KT 9999 BKN003/// OVC005/// 02/02 Q0996=
201912080250 METAR ESMX 080250Z AUTO 19007KT 9999 OVC006/// 02/02 Q0997=
201912080220 METAR ESMX 080220Z AUTO 18007KT 9999 BKN008/// 02/02 Q0998=
201912080150 METAR ESMX 080150Z AUTO 20007KT 9999 SCT012/// 01/01 Q0998=
201912080120 METAR ESMX 080120Z AUTO 21007KT 9999 BKN016/// 01/01 Q0998=
201912080050 METAR ESMX 080050Z AUTO 22008KT 9999 NCD 01/01 Q0999=
201912080020 METAR ESMX 080020Z AUTO 19006KT 9999 SCT022/// 01/01 Q0999=
201912072350 METAR ESMX 072350Z AUTO 19007KT 9999 SCT027/// 01/00 Q0999=
201912072320 METAR ESMX 072320Z AUTO 19007KT 9999 FEW024/// 01/01 Q0999=
201912072250 METAR ESMX 072250Z AUTO 21006KT 9999 NCD 01/01 Q0999=
201912072220 METAR ESMX 072220Z AUTO 24007KT 9999 NCD 02/01 Q0999=
201912072150 METAR ESMX 072150Z AUTO 25006KT 9999 NCD 02/01 Q0999=
201912072120 METAR ESMX 072120Z AUTO 25006KT 9999 NCD 02/01 Q0999=
201912072050 METAR ESMX 072050Z AUTO 24007KT 9999 NCD 02/01 Q0999=
201912072020 METAR ESMX 072020Z AUTO 26007KT 9999 NCD 02/01 Q0998=
201912071950 METAR ESMX 071950Z AUTO 26007KT 9999 NCD 02/01 Q0998=
201912071920 METAR ESMX 071920Z AUTO 27008KT 9999 NCD 03/01 Q0998=
201912071850 METAR ESMX 071850Z AUTO 26009KT 9999 NCD 03/02 Q0997=
201912071820 METAR ESMX 071820Z AUTO 26009KT 9999 NCD 03/01 Q0997=
201912071750 METAR ESMX 071750Z AUTO 26009KT 9999 NCD 03/02 Q0997=
201912071720 METAR ESMX 071720Z AUTO 26010KT 240V310 9999 NCD 03/02 Q0996=
201912071650 METAR ESMX 071650Z AUTO 26010KT 9999 NCD 03/02 Q0996=
201912071620 METAR ESMX 071620Z AUTO 26011KT 9999 FEW021/// 03/02 Q0995=
201912071550 METAR ESMX 071550Z AUTO 25011KT 9999 SCT021/// 04/02 Q0994=
201912071520 METAR ESMX 071520Z AUTO 26009KT 9999 BKN024/// 04/02 Q0994=
201912071450 METAR ESMX 071450Z AUTO 26011KT 9999 NCD 04/02 Q0994=
201912071420 METAR ESMX 071420Z AUTO 26011KT 9999 FEW016/// SCT080/// 04/02 Q0993=
201912071350 METAR ESMX 071350Z AUTO 25010KT 9999 FEW023/// 05/02 Q0992=
201912071320 METAR ESMX 071320Z AUTO 26012KT 9999 NCD 05/02 Q0992=
201912071250 METAR ESMX 071250Z AUTO 26014G24KT 210V300 9999 BKN022/// 06/03 Q0992=
201912071220 METAR ESMX 071220Z AUTO 27013KT 9999 BKN018/// OVC024/// 06/03 Q0991=
201912071150 METAR ESMX 071150Z AUTO 27012KT 240V300 9999 BKN020/// OVC026/// 06/04 Q0991=
201912071120 METAR ESMX 071120Z AUTO 27015KT 9999 BKN017/// OVC024/// 06/04 Q0990=
201912071050 METAR ESMX 071050Z AUTO 27012KT 9999 BKN015/// BKN024/// OVC030/// 06/05 Q0990=
201912071020 METAR ESMX 071020Z AUTO 27012G23KT 9999 FEW018/// OVC026/// 07/05 Q0990=
201912070950 METAR ESMX 070950Z AUTO 26011G22KT 220V280 8000 DZ SCT008/// BKN020/// OVC025/// 07/07 Q0990 REUP RERA=
201912070920 METAR ESMX 070920Z AUTO 25010KT 7000 BR FEW002/// BKN006/// OVC009/// 07/07 Q0989 RESHUP RERA=
201912070850 METAR ESMX 070850Z AUTO 24010KT 210V270 4700 BR SCT002/// OVC004/// 07/07 Q0989=
201912070820 METAR ESMX 070820Z AUTO 22010KT 8000 -RA BKN005/// OVC008/// 07/07 Q0989 RERA=
201912070750 METAR ESMX 070750Z AUTO 21010KT 9999 OVC006/// 07/07 Q0989 REDZ REUP=
201912070720 METAR ESMX 070720Z AUTO 23009KT 5000 BR OVC005/// 07/07 Q0988 REDZ=
201912070650 METAR ESMX 070650Z AUTO 21009KT 9999 OVC007/// 07/07 Q0988=
201912070620 METAR ESMX 070620Z AUTO 22010KT 9999 BKN005/// OVC009/// 07/07 Q0988 RERA=
201912070550 METAR ESMX 070550Z AUTO 20010KT 2700 -RA BKN003/// OVC005/// 07/07 Q0989=
201912070520 METAR ESMX 070520Z AUTO 21010KT 6000 -DZ OVC004/// 07/07 Q0989 REUP=
201912070450 METAR ESMX 070450Z AUTO 20010KT 9000 BR OVC003/// 07/07 Q0989 RESHUP=
201912070420 METAR ESMX 070420Z AUTO 20011KT 8000 BR OVC003/// 07/07 Q0989 REUP=
201912070350 METAR ESMX 070350Z AUTO 20012KT 9999 OVC003/// 07/07 Q0989=
201912070320 METAR ESMX 070320Z AUTO 19011KT 6000 BR OVC003/// 07/07 Q0989 REDZ=
201912070250 METAR ESMX 070250Z AUTO 19013KT 6000 BR OVC003/// 06/06 Q0989=
201912070220 METAR ESMX 070220Z AUTO 19013KT 2300 -DZ OVC002/// 06/06 Q0990 RESHUP RERA=
201912070150 METAR ESMX 070150Z AUTO 19012KT 3400 BR OVC002/// 06/06 Q0990=
201912070120 METAR ESMX 070120Z AUTO 19012KT 4000 -RA OVC002/// 06/06 Q0990 REDZ=
201912070050 METAR ESMX 070050Z AUTO 18012KT 2800 DZ BKN003/// OVC004/// 06/06 Q0991=
201912070020 METAR ESMX 070020Z AUTO 19012KT 4200 -RA BKN002/// OVC004/// 06/06 Q0991=
201912062350 METAR ESMX 062350Z AUTO 19012KT 2100 -DZ OVC002/// 06/06 Q0991=
201912062320 METAR ESMX 062320Z AUTO 18012KT 4100 -RA OVC002/// 06/06 Q0992 REDZ=
201912062250 METAR ESMX 062250Z AUTO 19012KT 5000 DZ BKN002/// OVC004/// 06/06 Q0992 REDZ=
201912062220 METAR ESMX 062220Z AUTO 19012KT 3900 BR OVC002/// 06/06 Q0992=
201912062150 METAR ESMX 062150Z AUTO 19012KT 3600 DZ OVC003/// 06/06 Q0993 REDZ=
201912062120 METAR ESMX 062120Z 19012KT 9999 OVC004 06/06 Q0993=
201912062050 METAR ESMX 062050Z 19013KT 9999 OVC004 06/06 Q0993=
201912062020 METAR ESMX 062020Z 19012KT 9999 OVC006 06/06 Q0993=
201912061950 METAR ESMX 061950Z 19011KT 9999 OVC005 07/06 Q0993=
201912061920 METAR ESMX 061920Z 19012KT 9999 FEW002 OVC005 07/07 Q0994=
201912061850 METAR ESMX 061850Z 19013KT 9999 -RA BR FEW002 OVC005 07/07 Q0994=
201912061820 METAR ESMX 061820Z 20012KT 3000 DZ BR OVC002 07/07 Q0994=
201912061750 METAR ESMX 061750Z 20016KT 6000 -RA BR OVC002 08/08 Q0994=
201912061720 METAR ESMX 061720Z 21012KT 3600 BR OVC002 08/08 Q0994=
201912061650 METAR ESMX 061650Z 19011KT 3200 BR OVC002 08/08 Q0994=
201912061620 METAR ESMX 061620Z 20010KT 4100 BR BKN002 08/08 Q0995=
201912061550 METAR ESMX 061550Z 19008KT 2600 -RA BR BKN002 08/08 Q0994=
201912061520 METAR ESMX 061520Z 22007KT 2200 -RA BR SCT002 BKN005 08/08 Q0995=
201912061450 METAR ESMX 061450Z 23008KT 5000 BR FEW002 BKN005 09/08 Q0995=
201912061420 METAR ESMX 061420Z 24007KT 9999 BKN011 09/08 Q0995=
201912061350 METAR ESMX 061350Z 22009KT 190V250 9999 BKN012 08/08 Q0995=
201912061320 METAR ESMX 061320Z 23010KT 200V270 9999 BKN014 09/08 Q0994=
201912061250 METAR ESMX 061250Z 24012G24KT 9999 BKN010 OVC015 09/08 Q0994=
201912061220 METAR ESMX 061220Z 26013KT 9999 BKN008 OVC011 09/08 Q0994=
201912061150 METAR ESMX 061150Z 24013KT 7000 BR BKN011 09/08 Q0994=
201912061120 METAR ESMX 061120Z 24012KT 6000 DZ FEW006 BKN012 OVC020 09/08 Q0994=
201912061050 METAR ESMX 061050Z 24015KT 9999 BKN009 OVC014 09/08 Q0993=
201912061020 METAR ESMX 061020Z 24013KT 5000 -DZ FEW002 SCT005 BKN010 09/09 Q0993=
201912060950 METAR ESMX 060950Z 24013KT 9999 SCT008 OVC011 09/09 Q0993=
201912060920 METAR ESMX 060920Z 22013KT 3600 DZ SCT002 OVC006 09/09 Q0993=
201912060850 METAR ESMX 060850Z 22013KT 3700 DZ FEW002 OVC005 08/08 Q0993=
201912060820 METAR ESMX 060820Z 21014KT 3900 BR FEW002 OVC004 08/08 Q0993=
201912060750 METAR ESMX 060750Z 21015KT 4800 -DZ FEW002 OVC005 08/07 Q0992=
201912060720 METAR ESMX 060720Z 21015KT 8000 BR OVC005 07/07 Q0992=
201912060650 METAR ESMX 060650Z 21017KT 7000 -DZ OVC004 07/07 Q0992=
201912060620 METAR ESMX 060620Z 20018KT 4500 -DZ FEW002 OVC004 06/06 Q0992=
201912060550 METAR ESMX 060550Z 20017KT 6000 DZ OVC004 06/06 Q0992=
201912060520 METAR ESMX 060520Z 20018KT 4900 -DZ OVC005 05/05 Q0992=
201912060450 METAR ESMX 060450Z 20018KT 7000 -DZ BKN005 05/05 Q0993=
201912060420 METAR ESMX 060420Z AUTO 20017KT 9999 DZ OVC006/// 05/05 Q0993 REDZ=
201912060350 METAR ESMX 060350Z AUTO 21017KT 9999 DZ BKN007/// OVC009/// 05/04 Q0994=
201912060320 METAR ESMX 060320Z AUTO 20017KT 8000 DZ BKN007/// OVC010/// 05/04 Q0994 REDZ=
201912060250 METAR ESMX 060250Z AUTO 19018KT 7000 -RA BKN007/// OVC010/// 05/04 Q0995=
201912060220 METAR ESMX 060220Z AUTO 19018KT 6000 -RA BKN006/// OVC008/// 05/04 Q0995 REDZ=
201912060150 METAR ESMX 060150Z AUTO 19017KT 6000 DZ OVC007/// 04/04 Q0996 REDZ=
201912060120 METAR ESMX 060120Z AUTO 20015KT 8000 DZ OVC008/// 04/04 Q0997=
201912060050 METAR ESMX 060050Z AUTO 20016KT 7000 DZ OVC009/// 05/04 Q0997=
201912060020 METAR ESMX 060020Z AUTO 20016KT 9999 -DZ OVC010/// 05/04 Q0998=
201912052350 METAR ESMX 052350Z AUTO 21017KT 9999 -RA OVC011/// 05/04 Q0999 RESHUP RERA=
201912052320 METAR ESMX 052320Z AUTO 20017KT 9999 OVC014/// 05/04 Q1000 REUP=
201912052250 METAR ESMX 052250Z AUTO 21016KT 9999 OVC016/// 06/04 Q1000=
201912052220 METAR ESMX 052220Z AUTO 20014KT 9999 OVC016/// 06/04 Q1001=
201912052150 METAR ESMX 052150Z AUTO 19015KT 9999 OVC015/// 06/04 Q1001=
201912052120 METAR ESMX 052120Z 20014KT 9999 BKN015 06/04 Q1002=
201912052050 METAR ESMX 052050Z 20013KT 9999 BKN015 06/04 Q1003=
201912052020 METAR ESMX 052020Z 19012KT 9999 OVC015 06/04 Q1003=
201912051950 METAR ESMX 051950Z 20013KT 9999 OVC017 06/04 Q1003=
201912051920 METAR ESMX 051920Z 21012KT 9999 BKN017 06/04 Q1004=
201912051850 METAR ESMX 051850Z 20013KT 9999 BKN016 06/04 Q1004=
201912051820 METAR ESMX 051820Z 22012KT 9999 BKN016 06/04 Q1005=
201912051750 METAR ESMX 051750Z 20013KT 9999 BKN014 06/05 Q1004=
201912051720 METAR ESMX 051720Z 20012KT 9999 BKN016 06/04 Q1005=
201912051650 METAR ESMX 051650Z 22012KT 9999 FEW011 BKN016 06/05 Q1005=
201912051620 METAR ESMX 051620Z 19010KT 9999 FEW010 BKN014 06/05 Q1005=
201912051550 METAR ESMX 051550Z 20010KT 9999 BKN015 06/05 Q1006=
201912051520 METAR ESMX 051520Z 21010KT 9999 BKN013 06/05 Q1006=
201912051450 METAR ESMX 051450Z 22010KT 9999 BKN013 06/05 Q1006=
201912051420 METAR ESMX 051420Z 23011KT 200V260 9999 BKN010 06/05 Q1006=
201912051350 METAR COR ESMX 051350Z 21011KT 9000 -RA FEW004 BKN012 06/05 Q1007=
201912051320 METAR ESMX 051320Z 22011KT 9999 FEW010 BKN014 06/05 Q1007=
201912051250 METAR ESMX 051250Z 22010KT 190V250 9999 OVC009 06/05 Q1008=
201912051220 METAR ESMX 051220Z 22011KT 9999 OVC009 06/05 Q1008=
201912051150 METAR ESMX 051150Z 23012G23KT 9999 OVC011 06/05 Q1008=
201912051120 METAR ESMX 051120Z 22012KT 9999 BKN011 06/05 Q1008=
201912051050 METAR ESMX 051050Z 21013KT 9999 BKN011 06/04 Q1009=
201912051020 METAR ESMX 051020Z 22013KT 9999 BKN010 06/04 Q1009=
201912050950 METAR ESMX 050950Z 22013KT 9999 OVC010 05/04 Q1010=
201912050920 METAR ESMX 050920Z 23013G24KT 9999 OVC010 05/04 Q1010=
201912050850 METAR ESMX 050850Z 22012KT 9999 OVC009 05/04 Q1010=
201912050820 METAR ESMX 050820Z 20014KT 9999 OVC009 05/04 Q1010=
201912050750 METAR ESMX 050750Z 20012KT 9999 BKN010 05/04 Q1010=
201912050720 METAR ESMX 050720Z 20011KT 9999 BKN011 05/04 Q1010=
201912050650 METAR ESMX 050650Z 22010KT 9999 OVC012 05/04 Q1011=
201912050620 METAR ESMX 050620Z 22009KT 9999 OVC015 05/04 Q1011=
201912050550 METAR ESMX 050550Z 22007KT 9999 SCT016 OVC021 05/04 Q1011=
201912050520 METAR ESMX 050520Z 20008KT 9999 SCT013 OVC020 05/04 Q1011=
201912050450 METAR ESMX 050450Z 20010KT 9999 OVC022 05/04 Q1011=
201912050420 METAR ESMX 050420Z AUTO 21010KT 9999 OVC023/// 05/04 Q1011=
201912050350 METAR ESMX 050350Z AUTO 22008KT 9999 OVC023/// 05/04 Q1011=
201912050320 METAR ESMX 050320Z AUTO 23008KT 9999 OVC023/// 05/04 Q1012=
201912050250 METAR ESMX 050250Z AUTO 23009KT 9999 OVC021/// 06/04 Q1012=
201912050220 METAR ESMX 050220Z AUTO 21009KT 9999 BKN014/// OVC019/// 05/04 Q1012=
201912050150 METAR ESMX 050150Z AUTO 22009KT 9999 BKN012/// OVC016/// 05/04 Q1012=
201912050120 METAR ESMX 050120Z AUTO 22010KT 9999 BKN013/// OVC017/// 05/04 Q1012=
201912050050 METAR ESMX 050050Z AUTO 22010KT 9999 OVC013/// 05/04 Q1012=
201912050020 METAR ESMX 050020Z AUTO 22009KT 9999 OVC012/// 05/04 Q1012=
201912042350 METAR ESMX 042350Z AUTO 22007KT 9999 OVC012/// 05/04 Q1013=
201912042320 METAR ESMX 042320Z AUTO 23009KT 9999 OVC011/// 05/04 Q1013=
201912042250 METAR ESMX 042250Z AUTO 23008KT 9999 OVC010/// 05/04 Q1013=
201912042220 METAR ESMX 042220Z AUTO 23010KT 9999 OVC010/// 05/04 Q1013=
201912042150 METAR ESMX 042150Z AUTO 22009KT 9999 OVC011/// 05/04 Q1013=
201912042120 METAR ESMX 042120Z AUTO 21007KT 9999 OVC013/// 05/04 Q1014=
201912042050 METAR COR ESMX 042050Z 24006KT 210V280 9999 OVC013 05/04 Q1014=
201912042020 METAR ESMX 042020Z 25008KT 210V280 9999 OVC012 05/04 Q1014=
201912041950 METAR ESMX 041950Z 25008KT 220V280 9999 OVC012 05/04 Q1014=
201912041920 METAR ESMX 041920Z 24009KT 9999 OVC010 05/04 Q1014=
201912041850 METAR ESMX 041850Z 25008KT 210V280 9999 OVC008 05/04 Q1014=
201912041820 METAR ESMX 041820Z 25011KT 9999 OVC007 05/04 Q1014=
201912041750 METAR ESMX 041750Z 24008KT 9999 OVC007 05/04 Q1014=
201912041720 METAR ESMX 041720Z 25010KT 230V290 9999 OVC007 05/04 Q1014=
201912041650 METAR ESMX 041650Z 24008KT 220V280 9999 OVC007 05/04 Q1014=
201912041620 METAR ESMX 041620Z 26010KT 9999 OVC007 05/04 Q1014=
201912041550 METAR ESMX 041550Z 25008KT 210V280 9999 OVC007 05/04 Q1014=
201912041520 METAR ESMX 041520Z 25008KT 9999 OVC008 05/04 Q1014=
201912041450 METAR ESMX 041450Z 25009KT 9999 OVC008 05/05 Q1014=
201912041420 METAR ESMX 041420Z 25009KT 9999 OVC008 05/05 Q1014=
201912041350 METAR ESMX 041350Z 26008KT 210V290 9999 OVC007 06/05 Q1014=
201912041320 METAR ESMX 041320Z 26009KT 9999 OVC008 06/05 Q1013=
201912041250 METAR ESMX 041250Z 26010KT 9999 OVC008 06/05 Q1013=
201912041220 METAR ESMX 041220Z 26008KT 230V290 9999 OVC008 06/05 Q1013=
201912041150 METAR ESMX 041150Z 25008KT 9999 OVC008 06/05 Q1014=
201912041120 METAR COR ESMX 041120Z 26009KT 9999 OVC009 06/05 Q1014=
201912041050 METAR ESMX 041050Z 25010KT 210V280 9999 OVC009 06/05 Q1014=
201912041020 METAR ESMX 041020Z 27010KT 9999 OVC009 06/05 Q1014=
201912040950 METAR ESMX 040950Z 27010G23KT 9999 OVC008 06/05 Q1014=
201912040920 METAR COR ESMX 040920Z 25008KT 210V290 9999 OVC007 06/05 Q1014=
201912040850 METAR ESMX 040850Z 27011KT 9999 OVC006 06/05 Q1014=
201912040820 METAR ESMX 040820Z 26010KT 9999 OVC007 06/05 Q1014=
201912040750 METAR ESMX 040750Z 27010KT 230V290 9999 OVC006 06/05 Q1013=
201912040720 METAR ESMX 040720Z 27010KT 9999 OVC005 05/05 Q1013=
201912040650 METAR ESMX 040650Z 27008KT 9999 OVC006 05/05 Q1013=
201912040620 METAR ESMX 040620Z 26009KT 220V290 9999 OVC005 05/05 Q1013=
201912040550 METAR ESMX 040550Z 26009KT 6000 BR BKN004 05/05 Q1012=
201912040520 METAR ESMX 040520Z 27008KT 6000 BR OVC003 05/05 Q1012=
201912040450 METAR ESMX 040450Z 26007KT 5000 BR OVC003 05/05 Q1012=
201912040420 METAR ESMX 040420Z AUTO 25008KT 210V280 5000 BR OVC003/// 05/05 Q1012=
201912040350 METAR ESMX 040350Z AUTO 26008KT 6000 BR OVC002/// 05/05 Q1012=
201912040320 METAR ESMX 040320Z AUTO 25007KT 6000 BR OVC002/// 05/05 Q1012=
201912040250 METAR ESMX 040250Z AUTO 27007KT 220V290 4700 BR OVC002/// 05/05 Q1012=
201912040220 METAR ESMX 040220Z AUTO 25006KT 210V280 3900 BR OVC002/// 05/05 Q1012=
201912040150 METAR ESMX 040150Z AUTO 26007KT 4100 BR OVC002/// 05/05 Q1012=
201912040120 METAR ESMX 040120Z AUTO 27007KT 3600 BR OVC002/// 05/05 Q1012=
201912040050 METAR ESMX 040050Z AUTO 23006KT 200V260 2200 BR OVC001/// 05/05 Q1012=
201912040020 METAR ESMX 040020Z AUTO 26006KT 6000 BR OVC002/// 05/05 Q1012=
201912032350 METAR ESMX 032350Z AUTO 25007KT 220V290 7000 BR OVC002/// 05/05 Q1012=
201912032320 METAR ESMX 032320Z AUTO 27008KT 7000 BR OVC003/// 05/05 Q1012=
201912032250 METAR ESMX 032250Z AUTO 27008KT 5000 BR OVC002/// 05/05 Q1012=
201912032220 METAR ESMX 032220Z AUTO 26008KT 4700 BR OVC002/// 05/05 Q1011=
201912032150 METAR ESMX 032150Z AUTO 27007KT 220V300 3900 BR OVC002/// 05/05 Q1011=
201912032120 METAR ESMX 032120Z AUTO 26008KT 4300 BR OVC002/// 05/05 Q1011=
201912032050 METAR ESMX 032050Z 26009KT 4600 -DZ OVC002 05/05 Q1011=
201912032020 METAR ESMX 032020Z 26008KT 3800 -DZ OVC002 05/05 Q1011=
201912031950 METAR ESMX 031950Z 22008KT 3500 BR OVC002 04/04 Q1011=
201912031920 METAR ESMX 031920Z 23006KT 4900 -DZ OVC002 04/04 Q1011=
201912031850 METAR ESMX 031850Z 21008KT 5000 BR OVC002 04/04 Q1011=
201912031820 METAR ESMX 031820Z 21008KT 4500 BR OVC002 03/03 Q1011=
201912031750 METAR ESMX 031750Z 22010KT 5000 BR OVC002 03/03 Q1011=
201912031720 METAR ESMX 031720Z 20013KT 2800 BR OVC002 03/03 Q1011=
201912031650 METAR ESMX 031650Z 22014KT 2700 BR OVC002 03/03 Q1011=
201912031620 METAR COR ESMX 031620Z 19012KT 4100 DZ BR OVC002 02/02 Q1012=
201912031550 METAR ESMX 031550Z 21012KT 5000 BR OVC002 02/02 Q1012=
201912031520 METAR ESMX 031520Z 20010KT 2300 DZRA VV002 01/01 Q1013=
201912031450 METAR ESMX 031450Z 19010KT 2500 RA OVC002 01/01 Q1014=
201912031420 METAR ESMX 031420Z 20011KT 6000 -RA OVC002 01/01 Q1014=
201912031350 METAR ESMX 031350Z 21010KT 9999 -RA OVC003 01/01 Q1015=
201912031320 METAR ESMX 031320Z 21010KT 6000 -RA OVC003 01/01 Q1015=
201912031250 METAR ESMX 031250Z 20009KT 6000 -RA OVC004 01/01 Q1016=
201912031220 METAR COR ESMX 031220Z 21009KT 7000 -RA OVC005 00/00 Q1016=
201912031150 METAR ESMX 031150Z 21008KT 9999 SCT024 M00/M01 Q1017=
201912031120 METAR ESMX 031120Z 21008KT CAVOK M01/M01 Q1017=
201912031050 METAR ESMX 031050Z 21007KT CAVOK M02/M02 Q1018=
201912031020 METAR ESMX 031020Z 21007KT CAVOK M02/M03 Q1018=
201912030950 METAR ESMX 030950Z 20006KT CAVOK M03/M03 Q1019=
201912030920 METAR ESMX 030920Z 20006KT CAVOK M03/M04 Q1019=
201912030850 METAR ESMX 030850Z 21006KT CAVOK M04/M05 Q1019=
201912030820 METAR ESMX 030820Z 21006KT CAVOK M04/M06 Q1019=
201912030750 METAR ESMX 030750Z 21007KT CAVOK M05/M06 Q1019=
201912030720 METAR ESMX 030720Z 21006KT CAVOK M06/M06 Q1019=
201912030650 METAR ESMX 030650Z 15003KT CAVOK M06/M07 Q1020=
201912030620 METAR ESMX 030620Z 21003KT CAVOK M06/M07 Q1020=
201912030550 METAR ESMX 030550Z 23004KT CAVOK M08/M08 Q1020=
201912030520 METAR ESMX 030520Z 17003KT CAVOK M07/M08 Q1020=
201912030450 METAR ESMX 030450Z 17002KT CAVOK M07/M08 Q1020=
201912030420 METAR ESMX 030420Z AUTO 17003KT 9999 NCD M06/M07 Q1020=
201912030350 METAR ESMX 030350Z AUTO VRB03KT 9999 NCD M07/M08 Q1020=
201912030320 METAR ESMX 030320Z AUTO VRB03KT 9999 NCD M07/M08 Q1020=
201912030250 METAR ESMX 030250Z AUTO 22004KT 9999 NCD M08/M09 Q1020=
201912030220 METAR ESMX 030220Z AUTO 24004KT 9999 NCD M08/M08 Q1020=
201912030150 METAR ESMX 030150Z AUTO VRB02KT 9999 NCD M07/M08 Q1020=
201912030120 METAR ESMX 030120Z AUTO 21003KT 9999 NCD M07/M07 Q1020=
201912030050 METAR ESMX 030050Z AUTO 24003KT 9999 NCD M07/M07 Q1020=
201912030020 METAR ESMX 030020Z AUTO 26004KT 9999 NCD M07/M07 Q1020=
201912022350 METAR ESMX 022350Z AUTO 26004KT 9999 NCD M06/M07 Q1020=
201912022320 METAR ESMX 022320Z AUTO 27005KT 9999 NCD M06/M06 Q1019=
201912022250 METAR ESMX 022250Z AUTO 28006KT 9999 NCD M06/M07 Q1019=
201912022220 METAR ESMX 022220Z AUTO 27004KT 9999 NCD M06/M06 Q1019=
201912022150 METAR ESMX 022150Z AUTO 28004KT 9999 NCD M05/M05 Q1019=
201912022120 METAR ESMX 022120Z AUTO 29005KT 9999 NCD M05/M06 Q1019=
201912022050 METAR ESMX 022050Z AUTO 29005KT 9999 NCD M05/M05 Q1018=
201912022020 METAR ESMX 022020Z AUTO 28005KT 9999 NCD M06/M06 Q1017=
201912021950 METAR ESMX 021950Z 29003KT 260V330 CAVOK M04/M04 Q1017=
201912021920 METAR ESMX 021920Z 30004KT CAVOK M04/M04 Q1017=
201912021850 METAR ESMX 021850Z 30006KT CAVOK M03/M04 Q1017=
201912021820 METAR ESMX 021820Z 28005KT CAVOK M04/M04 Q1016=
201912021750 METAR ESMX 021750Z 26004KT CAVOK M04/M04 Q1016=
201912021720 METAR ESMX 021720Z VRB03KT CAVOK M03/M03 Q1016=
201912021650 METAR ESMX 021650Z 28004KT CAVOK M03/M04 Q1015=
201912021620 METAR ESMX 021620Z 29006KT CAVOK M03/M03 Q1015=
201912021550 METAR ESMX 021550Z 28004KT CAVOK M03/M03 Q1015=
201912021520 METAR ESMX 021520Z 31004KT CAVOK M02/M03 Q1014=
201912021450 METAR ESMX 021450Z 31005KT CAVOK M02/M03 Q1014=
201912021420 METAR ESMX 021420Z 30005KT 9999 BKN084 M02/M02 Q1014=
201912021350 METAR ESMX 021350Z 32003KT 290V360 CAVOK M03/M03 Q1014=
201912021320 METAR ESMX 021320Z 30004KT CAVOK M02/M03 Q1013=
201912021250 METAR ESMX 021250Z 28004KT CAVOK M02/M02 Q1013=
201912021220 METAR ESMX 021220Z 28004KT CAVOK M01/M02 Q1013=
201912021150 METAR ESMX 021150Z 29003KT CAVOK M01/M01 Q1013=
201912021120 METAR ESMX 021120Z 29004KT CAVOK M01/M01 Q1013=
201912021050 METAR ESMX 021050Z 32007KT 9999 SCT007 OVC076 M01/M01 Q1013=
201912021020 METAR ESMX 021020Z 29006KT 9999 SCT006 BKN078 M01/M01 Q1013=
201912020950 METAR ESMX 020950Z 30005KT 9999 SCT006 M01/M02 Q1013=
201912020920 METAR ESMX 020920Z 31005KT 9999 BKN006 M01/M02 Q1012=
201912020850 METAR ESMX 020850Z 35005KT 9999 BKN006 M01/M02 Q1012=
201912020820 METAR ESMX 020820Z 36008KT 9999 BKN006 M01/M01 Q1012=
201912020750 METAR ESMX 020750Z 34006KT 310V020 9999 OVC007 M01/M01 Q1011=
201912020720 METAR ESMX 020720Z 34006KT 9999 BKN007 OVC008 M00/M01 Q1011=
201912020650 METAR ESMX 020650Z 34006KT 9999 OVC007 M00/M00 Q1011=
201912020620 METAR ESMX 020620Z 35007KT 9999 OVC007 M00/M00 Q1011=
201912020550 METAR ESMX 020550Z 33006KT 9999 BKN005 OVC007 M00/M00 Q1011=
201912020520 METAR ESMX 020520Z 33007KT 320V020 9999 SCT002 OVC004 M00/M00 Q1010=
201912020450 METAR ESMX 020450Z 31005KT 9999 OVC002 00/00 Q1010=
201912020420 METAR COR ESMX 020420Z 26006KT 9999 OVC002 00/00 Q1010=
201912020350 METAR ESMX 020350Z AUTO 31005KT 9000 BR OVC003/// 01/01 Q1010=
201912020320 METAR ESMX 020320Z AUTO 34003KT 4600 BKN002/// OVC005/// 01/01 Q1010=
201912020250 METAR ESMX 020250Z AUTO 26003KT 210V310 1300 R01/P2000N R19/P2000N OVC001/// 01/01 Q1011=
201912020220 METAR ESMX 020220Z AUTO 26003KT 0250 R01/0750N R19/0900N FG OVC001/// 01/01 Q1011=
201912020150 METAR ESMX 020150Z AUTO 26004KT 0400 R01/1200U R19/1100D FG OVC001/// 01/01 Q1011=
201912020120 METAR ESMX 020120Z AUTO VRB03KT 0300 R01/1000N R19/0900N FG OVC001/// 01/01 Q1011=
201912020050 METAR ESMX 020050Z AUTO VRB02KT 0300 R01/0900N R19/1200D FG OVC001/// 01/01 Q1011=
201912020020 METAR ESMX 020020Z AUTO 26005KT 210V290 0550 R01/1400N R19/1500N FG OVC001/// 01/01 Q1011=
201912012350 METAR ESMX 012350Z AUTO 23005KT 0650 R01/1600U R19/1700N FG OVC001/// 01/01 Q1011=
201912012320 METAR ESMX 012320Z AUTO 21004KT 0650 R01/1600N R19/P2000D FG OVC001/// 01/01 Q1011=
201912012250 METAR ESMX 012250Z AUTO 23006KT 2200 BR OVC001/// 01/01 Q1011=
201912012220 METAR ESMX 012220Z AUTO 23006KT 7000 BR OVC002/// 01/01 Q1011=
201912012150 METAR ESMX 012150Z AUTO 23006KT 9999 OVC003/// 01/01 Q1012=
201912012120 METAR ESMX 012120Z AUTO 23005KT 9999 OVC003/// 01/01 Q1012 RESHUP REUP=
201912012050 METAR ESMX 012050Z AUTO 22007KT 9999 UP BKN003/// BKN006/// OVC010/// 01/01 Q1012 REFZRA=
201912012020 METAR ESMX 012020Z AUTO 22008KT 9000 BR FEW005/// SCT014/// BKN026/// 01/01 Q1012=
201912011950 METAR ESMX 011950Z 22007KT 9999 -DZ SCT005 BKN012 00/00 Q1013=
201912011920 METAR ESMX 011920Z 22008KT 9999 FEW015 BKN026 M00/M00 Q1013=
201912011850 METAR ESMX 011850Z 22008KT 9999 SCT012 BKN027 M01/M01 Q1013=
201912011820 METAR ESMX 011820Z 21008KT 9999 SCT021 BKN028 M01/M01 Q1013=
201912011750 METAR ESMX 011750Z 21006KT 9999 SCT021 M01/M02 Q1013=
201912011720 METAR ESMX 011720Z 21006KT CAVOK M02/M02 Q1014=
201912011650 METAR ESMX 011650Z 20005KT CAVOK M02/M02 Q1014=
201912011620 METAR ESMX 011620Z 22003KT CAVOK M02/M02 Q1014=
201912011550 METAR ESMX 011550Z 22004KT CAVOK M02/M02 Q1014=
201912011520 METAR ESMX 011520Z 22004KT CAVOK M02/M02 Q1014=
201912011450 METAR ESMX 011450Z 23004KT CAVOK M02/M02 Q1014=
201912011420 METAR ESMX 011420Z 23004KT 9999 FEW028 M02/M02 Q1014=
201912011350 METAR ESMX 011350Z 22004KT 9999 SCT030 M02/M02 Q1014=
201912011320 METAR ESMX 011320Z 22005KT CAVOK M02/M02 Q1015=
201912011250 METAR ESMX 011250Z 22005KT CAVOK M02/M02 Q1015=
201912011220 METAR ESMX 011220Z 21005KT CAVOK M02/M02 Q1015=
