##########################################################
# Query made at 04/19/2024 22:08:36 UTC
# Time interval: from 05/01/2019 12:00  to 05/31/2019 12:59  UTC
##########################################################

##########################################################
# ESMX, Vaxjo (Sweden)
# WMO index: 02641. WIGOS ID: 0-20000-0-02648
# Latitude 56-51N. Longitude 014-50E. Altitude 199 m.
##########################################################

201905311250 METAR ESMX 311250Z 27012KT 240V300 CAVOK 18/M00 Q1018=
201905311220 METAR ESMX 311220Z 25010KT 210V290 CAVOK 17/01 Q1017=
201905311150 METAR ESMX 311150Z 26012KT CAVOK 18/01 Q1017=
201905311120 METAR ESMX 311120Z 27010KT 240V310 CAVOK 17/00 Q1017=
201905311050 METAR ESMX 311050Z 28010KT 250V320 CAVOK 17/M00 Q1017=
201905311020 METAR ESMX 311020Z 24009KT CAVOK 17/01 Q1017=
201905310950 METAR ESMX 310950Z 24010KT CAVOK 16/01 Q1017=
201905310920 METAR ESMX 310920Z 24008KT 220V290 CAVOK 15/04 Q1017=
201905310850 METAR ESMX 310850Z 26009KT 220V300 9999 FEW026 15/03 Q1017=
201905310820 METAR ESMX 310820Z 26007KT 220V300 9999 FEW024 14/06 Q1016=
201905310750 METAR ESMX 310750Z 26006KT 210V330 9999 FEW020 14/07 Q1017=
201905310720 METAR COR ESMX 310720Z 27008KT 240V300 9999 FEW020 SCT050 13/08 Q1016=
201905310650 METAR ESMX 310650Z 28007KT 9999 SCT014 BKN051 12/11 Q1016=
201905310620 METAR ESMX 310620Z 28006KT 240V320 9999 SCT011 BKN088 11/11 Q1016=
201905310550 METAR ESMX 310550Z 28007KT 9999 FEW012 BKN086 11/11 Q1016=
201905310520 METAR ESMX 310520Z 26008KT 9999 FEW011 BKN098 11/11 Q1016=
201905310450 METAR ESMX 310450Z 27007KT 230V300 CAVOK 11/11 Q1016=
201905310420 METAR ESMX 310420Z 26006KT 230V310 CAVOK 11/11 Q1016=
201905310350 METAR COR ESMX 310350Z 27005KT 240V300 9999 FEW010 BKN070 11/11 Q1016=
201905310320 METAR ESMX 310320Z AUTO 26007KT 9999 SCT010/// BKN013/// OVC020/// 11/11 Q1015=
201905310250 METAR ESMX 310250Z AUTO 27006KT 230V310 9999 -DZ FEW012/// OVC017/// 11/11 Q1015=
201905310220 METAR ESMX 310220Z AUTO 25007KT 9999 -DZ FEW006/// OVC013/// 11/11 Q1015=
201905310150 METAR ESMX 310150Z AUTO 25009KT 210V280 9999 BKN007/// OVC009/// 11/11 Q1015=
201905310120 METAR ESMX 310120Z AUTO 26009KT 9999 FEW008/// BKN010/// OVC032/// 12/12 Q1015=
201905310050 METAR ESMX 310050Z AUTO 26011KT 9000 -DZ SCT007/// BKN013/// OVC018/// 12/12 Q1014 RERA=
201905310020 METAR ESMX 310020Z AUTO 25011KT 230V300 9999 BKN008/// BKN025/// 13/13 Q1014 RERA RESHRA=
201905302350 METAR ESMX 302350Z AUTO 24009KT 3300 +DZ FEW007/// SCT009/// BKN013/// 13/13 Q1014 REDZ=
201905302320 METAR ESMX 302320Z 22010KT 5000 DZ SCT006 BKN012 OVC015 13/13 Q1014=
201905302250 METAR ESMX 302250Z 22011KT 3900 DZ OVC005 13/13 Q1014=
201905302220 METAR ESMX 302220Z 22011KT 5000 -DZ BKN006 13/13 Q1014=
201905302150 METAR ESMX 302150Z 22012KT 7000 -RA BKN006 OVC009 13/13 Q1014=
201905302120 METAR ESMX 302120Z 22011KT 9999 OVC007 13/13 Q1014=
201905302050 METAR ESMX 302050Z 21011KT 9000 BR OVC005 13/13 Q1014=
201905302020 METAR ESMX 302020Z 22011KT 190V250 8000 BR OVC005 13/13 Q1014=
201905301950 METAR ESMX 301950Z 20011KT 6000 -DZ BKN004 13/13 Q1014=
201905301920 METAR ESMX 301920Z 19013KT 4500 DZ OVC004 13/13 Q1014=
201905301850 METAR ESMX 301850Z AUTO 19013KT 4200 -DZ OVC004/// 13/13 Q1014 REDZ=
201905301820 METAR ESMX 301820Z 18013KT 4200 -RADZ OVC005 12/12 Q1014=
201905301750 METAR ESMX 301750Z 17012KT 5000 -RADZ BKN006 12/12 Q1014=
201905301720 METAR ESMX 301720Z 17012KT 9999 -RA BKN010 OVC020 12/12 Q1014 RERA=
201905301650 METAR ESMX 301650Z 18015KT 6000 RA SCT005 BKN015 12/12 Q1015=
201905301620 METAR ESMX 301620Z 19016KT 9999 -RA FEW012 OVC026 13/09 Q1015=
201905301550 METAR ESMX 301550Z 18018KT 9999 SCT012 OVC025 14/07 Q1015=
201905301520 METAR ESMX 301520Z 17015KT 9999 FEW024 OVC033 14/06 Q1016=
201905301450 METAR ESMX 301450Z 18019G30KT 9999 OVC038 15/05 Q1016=
201905301420 METAR ESMX 301420Z 18018KT 9999 OVC043 15/04 Q1016=
201905301350 METAR ESMX 301350Z 17019G31KT CAVOK 15/03 Q1016=
201905301320 METAR ESMX 301320Z 17020KT CAVOK 15/03 Q1017=
201905301250 METAR ESMX 301250Z 17015KT CAVOK 15/05 Q1017=
201905301220 METAR ESMX 301220Z 16015KT CAVOK 14/04 Q1018=
201905301150 METAR COR ESMX 301150Z 17014KT 140V210 9999 FEW043 BKN060 16/05 Q1018=
201905301120 METAR ESMX 301120Z 16012KT CAVOK 15/04 Q1018=
201905301050 METAR COR ESMX 301050Z 16014KT CAVOK 14/04 Q1019=
201905301020 METAR ESMX 301020Z 16013KT CAVOK 15/04 Q1019=
201905300950 METAR ESMX 300950Z 17016KT CAVOK 14/03 Q1019=
201905300920 METAR ESMX 300920Z 19014KT CAVOK 14/02 Q1020=
201905300850 METAR ESMX 300850Z 18014KT CAVOK 15/02 Q1020=
201905300820 METAR ESMX 300820Z 18014KT CAVOK 14/01 Q1020=
201905300750 METAR ESMX 300750Z 18014KT CAVOK 14/02 Q1020=
201905300720 METAR ESMX 300720Z 18014KT CAVOK 13/02 Q1020=
201905300650 METAR ESMX 300650Z 18015KT CAVOK 12/01 Q1021=
201905300620 METAR ESMX 300620Z 19013KT CAVOK 11/02 Q1021=
201905300550 METAR ESMX 300550Z 17010KT CAVOK 11/03 Q1021=
201905300520 METAR ESMX 300520Z 17009KT CAVOK 09/04 Q1021=
201905300450 METAR ESMX 300450Z 17008KT CAVOK 08/04 Q1021=
201905300420 METAR ESMX 300420Z 16007KT CAVOK 07/05 Q1021=
201905300350 METAR ESMX 300350Z 16006KT CAVOK 06/05 Q1021=
201905300320 METAR ESMX 300320Z AUTO 16005KT 9999 NCD 06/04 Q1021=
201905300250 METAR ESMX 300250Z AUTO 17004KT 9999 NCD 03/03 Q1021=
201905300220 METAR ESMX 300220Z AUTO 18006KT 9999 NCD 04/04 Q1021=
201905300150 METAR ESMX 300150Z AUTO 18006KT 9999 NCD 03/03 Q1021=
201905300120 METAR ESMX 300120Z AUTO 19006KT 9999 NCD 04/04 Q1021=
201905300050 METAR ESMX 300050Z AUTO 19005KT 9999 NCD 02/02 Q1022=
201905300020 METAR ESMX 300020Z AUTO 20005KT 9999 NCD 02/02 Q1022=
201905292350 METAR ESMX 292350Z AUTO 19005KT 9999 NCD 02/01 Q1022=
201905292320 METAR ESMX 292320Z AUTO 21005KT 9999 NCD 04/01 Q1022=
201905292250 METAR ESMX 292250Z AUTO 21004KT 9999 NCD 05/01 Q1022=
201905292220 METAR ESMX 292220Z AUTO 21004KT 9999 NCD 05/01 Q1022=
201905292150 METAR ESMX 292150Z AUTO 22004KT 9999 NCD 05/00 Q1022=
201905292120 METAR ESMX 292120Z AUTO 22004KT 9999 NCD 06/M00 Q1021=
201905292050 METAR ESMX 292050Z 23004KT CAVOK 07/M00 Q1021=
201905292020 METAR ESMX 292020Z 25004KT CAVOK 08/M01 Q1021=
201905291950 METAR ESMX 291950Z 23004KT CAVOK 08/M01 Q1021=
201905291920 METAR ESMX 291920Z 25005KT CAVOK 09/M01 Q1020=
201905291850 METAR ESMX 291850Z 26008KT CAVOK 10/M01 Q1020=
201905291820 METAR ESMX 291820Z 27007KT CAVOK 11/M01 Q1020=
201905291750 METAR ESMX 291750Z 27008KT CAVOK 12/M01 Q1020=
201905291720 METAR ESMX 291720Z 27009KT CAVOK 13/M01 Q1019=
201905291650 METAR ESMX 291650Z 29010KT CAVOK 13/M02 Q1019=
201905291620 METAR ESMX 291620Z 26011KT 240V320 CAVOK 13/M03 Q1019=
201905291550 METAR ESMX 291550Z 27011KT CAVOK 13/M02 Q1019=
201905291520 METAR ESMX 291520Z 28011KT 250V330 CAVOK 14/M02 Q1018=
201905291450 METAR ESMX 291450Z 27011KT 250V330 CAVOK 14/M03 Q1018=
201905291420 METAR ESMX 291420Z 27010KT 240V300 CAVOK 14/M03 Q1018=
201905291350 METAR ESMX 291350Z 26011KT 230V300 CAVOK 14/M02 Q1017=
201905291320 METAR ESMX 291320Z 29012KT 250V320 CAVOK 14/M03 Q1017=
201905291250 METAR ESMX 291250Z 29010KT 250V320 CAVOK 14/M02 Q1017=
201905291220 METAR ESMX 291220Z 28012KT 240V320 CAVOK 14/M03 Q1017=
201905291150 METAR ESMX 291150Z 26012KT 220V320 CAVOK 14/M03 Q1017=
201905291120 METAR ESMX 291120Z 26012KT 200V300 CAVOK 13/M03 Q1016=
201905291050 METAR ESMX 291050Z 25014KT CAVOK 14/M03 Q1016=
201905291020 METAR ESMX 291020Z 28011G24KT 230V320 CAVOK 13/M02 Q1015=
201905290950 METAR ESMX 290950Z 28010KT 230V300 9999 NSC 13/M01 Q1015=
201905290920 METAR ESMX 290920Z 26012KT 210V300 9999 FEW049 12/M01 Q1015=
201905290850 METAR ESMX 290850Z 24012KT 9999 FEW047 12/M01 Q1014=
201905290820 METAR ESMX 290820Z 27011KT 220V330 9999 FEW043 11/M01 Q1014=
201905290750 METAR ESMX 290750Z 25011KT 230V290 CAVOK 10/M00 Q1014=
201905290720 METAR ESMX 290720Z 27012KT 240V310 CAVOK 10/M01 Q1014=
201905290650 METAR ESMX 290650Z 26012KT CAVOK 10/01 Q1013=
201905290620 METAR ESMX 290620Z 29012KT CAVOK 09/00 Q1013=
201905290550 METAR ESMX 290550Z 28011KT CAVOK 09/01 Q1012=
201905290520 METAR ESMX 290520Z 29012KT 250V320 CAVOK 08/02 Q1012=
201905290450 METAR ESMX 290450Z 27008KT 240V310 CAVOK 07/04 Q1011=
201905290420 METAR ESMX 290420Z 26007KT 230V290 CAVOK 06/04 Q1011=
201905290350 METAR ESMX 290350Z 26008KT CAVOK 05/04 Q1011=
201905290320 METAR ESMX 290320Z AUTO 25007KT 9999 NCD 05/04 Q1010=
201905290250 METAR ESMX 290250Z AUTO 26007KT 9999 NCD 05/03 Q1010=
201905290220 METAR ESMX 290220Z AUTO 26006KT 9999 NCD 05/02 Q1010=
201905290150 METAR ESMX 290150Z AUTO 26007KT 220V290 9999 NCD 04/02 Q1009=
201905290120 METAR ESMX 290120Z AUTO 27006KT 9999 NCD 04/02 Q1009=
201905290050 METAR ESMX 290050Z AUTO 25005KT 9999 NCD 04/04 Q1009=
201905290020 METAR ESMX 290020Z AUTO 24005KT 9999 NCD 04/03 Q1009=
201905282350 METAR ESMX 282350Z AUTO 26005KT 9999 NCD 05/02 Q1009=
201905282320 METAR ESMX 282320Z AUTO 25006KT 9999 NCD 05/02 Q1008=
201905282250 METAR ESMX 282250Z 25004KT CAVOK 05/02 Q1008=
201905282220 METAR ESMX 282220Z 25004KT CAVOK 06/01 Q1008=
201905282150 METAR ESMX 282150Z 25004KT CAVOK 05/01 Q1008=
201905282120 METAR ESMX 282120Z 22004KT 170V250 CAVOK 06/01 Q1008=
201905282050 METAR ESMX 282050Z 24005KT CAVOK 07/01 Q1007=
201905282020 METAR ESMX 282020Z 23006KT 200V260 CAVOK 07/01 Q1007=
201905281950 METAR ESMX 281950Z 25004KT CAVOK 08/02 Q1007=
201905281920 METAR ESMX 281920Z 25007KT 220V300 CAVOK 09/02 Q1006=
201905281850 METAR ESMX 281850Z 26009KT CAVOK 10/02 Q1006=
201905281820 METAR ESMX 281820Z 25009KT 200V280 CAVOK 11/01 Q1006=
201905281750 METAR ESMX 281750Z 26010KT CAVOK 12/01 Q1006=
201905281720 METAR ESMX 281720Z 25010KT CAVOK 13/01 Q1006=
201905281650 METAR ESMX 281650Z 26011KT CAVOK 13/01 Q1005=
201905281620 METAR ESMX 281620Z 27010KT CAVOK 13/01 Q1005=
201905281550 METAR ESMX 281550Z 24012KT 9999 FEW045 14/02 Q1005=
201905281520 METAR ESMX 281520Z 24010KT 210V280 9999 FEW049 15/02 Q1005=
201905281450 METAR ESMX 281450Z 25010KT 200V280 9999 FEW049 15/02 Q1005=
201905281420 METAR ESMX 281420Z 23011KT 190V260 9999 SCT049 15/02 Q1004=
201905281350 METAR ESMX 281350Z 25011KT 210V280 9999 SCT047 15/02 Q1004=
201905281320 METAR ESMX 281320Z 25009KT 210V320 9999 SCT043 15/04 Q1004=
201905281250 METAR ESMX 281250Z 25010KT 9999 SCT039 14/05 Q1004=
201905281220 METAR ESMX 281220Z 22009KT 9999 BKN036 14/05 Q1004=
201905281150 METAR ESMX 281150Z 23010KT 9999 FEW035 SCT053 14/06 Q1004=
201905281120 METAR ESMX 281120Z 23009KT 180V290 9999 FEW032 SCT055 14/06 Q1004=
201905281050 METAR ESMX 281050Z 23010KT 200V260 9999 SCT028 BKN055 14/07 Q1004=
201905281020 METAR ESMX 281020Z 22010KT 190V260 9999 SCT027 BKN061 13/07 Q1004=
201905280950 METAR ESMX 280950Z 21008KT 9999 SCT021 BKN046 13/08 Q1003=
201905280920 METAR ESMX 280920Z 20008KT 9999 FEW017 OVC045 12/11 Q1004=
201905280850 METAR ESMX 280850Z 22007KT 9999 FEW020 BKN035 11/11 Q1003=
201905280820 METAR ESMX 280820Z 20008KT 9999 FEW020 BKN047 12/09 Q1003=
201905280750 METAR ESMX 280750Z 20010KT 9999 SCT023 BKN041 12/09 Q1003=
201905280720 METAR ESMX 280720Z 20010KT 9999 SCT019 BKN025 12/08 Q1003=
201905280650 METAR ESMX 280650Z 20010KT 9999 BKN020 12/10 Q1003=
201905280620 METAR ESMX 280620Z 19009KT 9999 FEW016 BKN022 11/10 Q1003=
201905280550 METAR ESMX 280550Z 21008KT 9999 BKN014 11/10 Q1003=
201905280520 METAR ESMX 280520Z 20008KT 9999 SCT010 BKN016 10/10 Q1003=
201905280450 METAR ESMX 280450Z 19009KT 9999 SCT009 10/10 Q1003=
201905280420 METAR ESMX 280420Z 19008KT 9999 FEW009 09/09 Q1002=
201905280350 METAR COR ESMX 280350Z 20008KT 9999 FEW010 SCT033 09/09 Q1002=
201905280320 METAR ESMX 280320Z AUTO 20008KT 9999 FEW010/// 09/09 Q1002=
201905280250 METAR ESMX 280250Z AUTO 19009KT 9999 BKN026/// 09/09 Q1002=
201905280220 METAR ESMX 280220Z AUTO 19010KT 9999 BKN024/// 09/09 Q1002=
201905280150 METAR ESMX 280150Z AUTO 18009KT 9999 FEW059/// 08/08 Q1002=
201905280120 METAR ESMX 280120Z AUTO 17008KT 9999 BKN020/// 09/09 Q1002=
201905280050 METAR ESMX 280050Z AUTO 18009KT 9999 OVC020/// 09/09 Q1002=
201905280020 METAR ESMX 280020Z AUTO 17007KT 9999 BKN039/// 09/09 Q1002=
201905272350 METAR ESMX 272350Z AUTO 19005KT 9999 NCD 08/08 Q1002=
201905272320 METAR ESMX 272320Z AUTO 17007KT 9999 OVC057/// 10/07 Q1003=
201905272250 METAR ESMX 272250Z AUTO 18008KT 9999 SCT043/// BKN061/// 10/08 Q1003=
201905272220 METAR ESMX 272220Z AUTO 18006KT 9999 BKN064/// 10/08 Q1003=
201905272150 METAR ESMX 272150Z AUTO 17007KT 9999 OVC064/// 10/08 Q1003=
201905272120 METAR ESMX 272120Z AUTO 17007KT 9999 OVC064/// 10/08 Q1003=
201905272050 METAR ESMX 272050Z AUTO 17007KT 9999 FEW030/// BKN070/// 09/09 Q1003=
201905272020 METAR ESMX 272020Z AUTO 18006KT 9999 NCD 10/09 Q1003=
201905271950 METAR ESMX 271950Z AUTO 19007KT 9999 SCT070/// 10/08 Q1002=
201905271920 METAR ESMX 271920Z AUTO 21008KT 9999 FEW046/// OVC070/// 11/08 Q1002=
201905271850 METAR ESMX 271850Z AUTO 23008KT 9999 SCT048/// BKN072/// 12/06 Q1002=
201905271820 METAR ESMX 271820Z AUTO 22007KT 9999 NCD 12/06 Q1002=
201905271750 METAR ESMX 271750Z 22011KT 200V260 9999 FEW034 13/06 Q1002=
201905271720 METAR ESMX 271720Z 22013KT 200V260 9999 FEW033 13/07 Q1002=
201905271650 METAR ESMX 271650Z 23011KT 9999 FEW035 14/07 Q1002=
201905271620 METAR ESMX 271620Z 23016KT 9999 SCT032 13/07 Q1002=
201905271550 METAR ESMX 271550Z 26008KT 220V290 9999 SCT028 14/08 Q1002=
201905271520 METAR ESMX 271520Z 22012KT 9999 FEW033 SCT044 BKN057 14/08 Q1002=
201905271450 METAR ESMX 271450Z 22014KT 9999 FEW029 BKN061 14/08 Q1001=
201905271420 METAR ESMX 271420Z 24011KT 220V290 9999 FEW019 BKN025 14/08 Q1002=
201905271350 METAR ESMX 271350Z 25010KT 210V290 9999 FEW016 SCT027 13/09 Q1002 REDZ=
201905271320 METAR ESMX 271320Z 25011KT 210V270 9999 FEW015 BKN021 12/10 Q1001=
201905271250 METAR ESMX 271250Z 24012KT 9999 SCT017 BKN023 12/12 Q1001=
201905271220 METAR ESMX 271220Z 25010G20KT 220V310 9999 FEW015 BKN021 12/12 Q1001=
201905271150 METAR ESMX 271150Z 26010KT 230V290 9999 FEW003 SCT017 BKN028 11/11 Q1001=
201905271120 METAR ESMX 271120Z 25012KT 9999 BKN017 13/11 Q1000=
201905271050 METAR ESMX 271050Z 26012KT 210V290 9999 SCT018 BKN027 13/12 Q1000=
201905271020 METAR ESMX 271020Z 24013KT 210V280 9999 FEW014 SCT018 BKN025 13/12 Q0999=
201905270950 METAR ESMX 270950Z 24009KT 200V260 9999 SCT014 BKN033 13/13 Q0999=
201905270920 METAR ESMX 270920Z 22011KT 190V250 9999 BKN011 13/13 Q0998=
201905270850 METAR ESMX 270850Z 23012KT 9999 SCT010 OVC029 12/12 Q0998=
201905270820 METAR ESMX 270820Z 22009KT 9999 -RA BKN009 12/12 Q0998=
201905270750 METAR ESMX 270750Z 21011KT 9999 SCT007 BKN015 12/12 Q0998=
201905270720 METAR ESMX 270720Z 21010KT 190V260 9999 DZ BKN007 12/12 Q0998=
201905270650 METAR ESMX 270650Z 15007KT 5000 DZ SCT002 OVC005 11/11 Q0998=
201905270620 METAR ESMX 270620Z 15006KT 2800 DZ OVC002 10/10 Q0998=
201905270550 METAR ESMX 270550Z 14006KT 100V160 3500 DZ OVC003 10/10 Q0998=
201905270520 METAR ESMX 270520Z 14005KT 100V180 4100 DZ OVC003 09/09 Q0998=
201905270450 METAR ESMX 270450Z 12006KT 080V160 7000 DZ OVC004 09/09 Q0998=
201905270420 METAR ESMX 270420Z 13005KT 070V160 4600 -RA OVC002 09/09 Q0998=
201905270350 METAR ESMX 270350Z 11004KT 050V140 5000 -RA OVC002 09/09 Q0998=
201905270320 METAR ESMX 270320Z AUTO 11004KT 070V160 3200 DZ OVC002/// 09/09 Q0999=
201905270250 METAR ESMX 270250Z AUTO 13004KT 100V170 3200 RA BKN002/// OVC004/// 09/09 Q0999 REDZ=
201905270220 METAR ESMX 270220Z AUTO 15005KT 9000 DZ FEW002/// SCT005/// OVC027/// 09/09 Q0999=
201905270150 METAR ESMX 270150Z AUTO 17003KT 140V200 9999 -RA FEW002/// OVC028/// 09/09 Q1000 REDZ=
201905270120 METAR ESMX 270120Z AUTO 16004KT 9999 SCT019/// BKN031/// OVC038/// 10/10 Q1000=
201905270050 METAR ESMX 270050Z AUTO 16004KT 9999 OVC041/// 09/09 Q1000=
201905270020 METAR ESMX 270020Z AUTO 16004KT 9999 -DZ OVC053/// 09/09 Q1001 REUP=
201905262350 METAR ESMX 262350Z AUTO 15004KT 120V190 9999 OVC061/// 09/09 Q1001=
201905262320 METAR ESMX 262320Z AUTO 18004KT 9999 BKN068/// OVC088/// 08/08 Q1001=
201905262250 METAR ESMX 262250Z AUTO 20005KT 9999 BKN074/// OVC210/// 08/08 Q1002=
201905262220 METAR ESMX 262220Z AUTO 20004KT 9999 SCT120/// 07/06 Q1002=
201905262150 METAR ESMX 262150Z AUTO 21006KT 9999 OVC120/// 07/07 Q1002=
201905262120 METAR ESMX 262120Z AUTO 21005KT 9999 BKN120/// 08/05 Q1002=
201905262050 METAR ESMX 262050Z AUTO 23004KT 9999 BKN100/// 08/05 Q1002=
201905262020 METAR ESMX 262020Z AUTO 22006KT 9999 NCD 09/04 Q1002=
201905261950 METAR ESMX 261950Z 23005KT 200V260 CAVOK 09/04 Q1002=
201905261920 METAR COR ESMX 261920Z 22007KT CAVOK 10/04 Q1002=
201905261850 METAR ESMX 261850Z 25009KT CAVOK 11/04 Q1002=
201905261820 METAR ESMX 261820Z 25008KT CAVOK 11/04 Q1002=
201905261750 METAR ESMX 261750Z 26008KT 9999 FEW041 12/03 Q1002=
201905261720 METAR ESMX 261720Z 26010KT 9999 FEW040 12/03 Q1002=
201905261650 METAR ESMX 261650Z 27011KT 230V290 9999 FEW041 13/03 Q1002=
201905261620 METAR ESMX 261620Z 25013KT 9999 SCT043 13/03 Q1001=
201905261550 METAR ESMX 261550Z 25013KT 210V290 9999 SCT045 14/04 Q1001=
201905261520 METAR ESMX 261520Z 24014KT 9999 FEW046 14/03 Q1001=
201905261450 METAR ESMX 261450Z 24014G25KT 210V280 9999 FEW047 14/03 Q1001=
201905261420 METAR ESMX 261420Z 27013KT 230V300 9999 SCT045 13/03 Q1001=
201905261350 METAR ESMX 261350Z 26012G24KT 9999 SCT042 13/04 Q1001=
201905261320 METAR ESMX 261320Z 25015KT 9999 SCT043 14/04 Q1001=
201905261250 METAR ESMX 261250Z 27014KT 9999 SCT035 13/05 Q1001=
201905261220 METAR ESMX 261220Z 26016G27KT 220V290 9999 SCT032 13/05 Q1000=
201905261150 METAR ESMX 261150Z 24014KT 200V270 9999 BKN028 13/08 Q1000=
201905261120 METAR ESMX 261120Z 25013G24KT 210V290 9999 BKN024 13/12 Q1000=
201905261050 METAR ESMX 261050Z 25012KT 210V300 9999 BKN014 11/11 Q1000=
201905261020 METAR ESMX 261020Z 23011KT 170V260 9999 SCT011 BKN021 11/11 Q1000=
201905260950 METAR ESMX 260950Z 23010KT 7000 -RA FEW009 BKN039 10/10 Q1001=
201905260920 METAR ESMX 260920Z 26010G23KT 220V310 7000 -RA SCT007 BKN011 10/10 Q1001=
201905260850 METAR ESMX 260850Z 23010KT 200V260 6000 -RA SCT002 BKN007 09/09 Q1001=
201905260820 METAR ESMX 260820Z 22010KT 200V260 6000 -RA BKN006 10/10 Q1001=
201905260750 METAR ESMX 260750Z 24010KT 210V270 8000 -RA FEW006 BKN012 09/09 Q1001=
201905260720 METAR ESMX 260720Z 23011KT 9999 -RA FEW005 BKN009 09/09 Q1002=
201905260650 METAR ESMX 260650Z 24011KT 200V260 6000 -RA SCT009 BKN022 09/09 Q1002=
201905260620 METAR ESMX 260620Z 23010KT 200V280 9999 -RA SCT013 BKN020 09/09 Q1002=
201905260550 METAR ESMX 260550Z 21011KT 9999 -RA BKN009 09/09 Q1003=
201905260520 METAR COR ESMX 260520Z 23011KT 9999 -RA BKN009 08/08 Q1003=
201905260450 METAR ESMX 260450Z AUTO 23010KT 9999 -RA BKN011/// BKN017/// OVC030/// 08/08 Q1003 REDZ=
201905260420 METAR ESMX 260420Z AUTO 23009KT 9999 -RA SCT013/// BKN018/// OVC033/// 08/08 Q1003 REDZ=
201905260350 METAR ESMX 260350Z AUTO 22012KT 9999 DZ BKN013/// OVC020/// 09/09 Q1004 REUP=
201905260320 METAR ESMX 260320Z AUTO 22012KT 9999 OVC015/// 09/09 Q1004=
201905260250 METAR ESMX 260250Z AUTO 21010KT 9999 SCT017/// BKN025/// OVC038/// 09/09 Q1004 REDZ=
201905260220 METAR ESMX 260220Z AUTO 22010KT 9999 DZ OVC033/// 09/09 Q1005 REUP=
201905260150 METAR ESMX 260150Z AUTO 22009KT 9999 BKN013/// OVC100/// 09/09 Q1005=
201905260120 METAR ESMX 260120Z AUTO 24010KT 220V280 9999 FEW008/// BKN012/// OVC110/// 09/09 Q1005=
201905260050 METAR ESMX 260050Z AUTO 23010KT 9999 BR BKN009/// OVC019/// 09/09 Q1005=
201905260020 METAR ESMX 260020Z AUTO 23010KT 200V260 5000 DZ SCT004/// BKN011/// BKN018/// 09/09 Q1006=
201905252350 METAR ESMX 252350Z AUTO 22009KT 9999 SCT017/// OVC022/// 10/07 Q1006=
201905252320 METAR ESMX 252320Z AUTO 21008KT 9999 -RA FEW005/// BKN021/// OVC034/// 10/07 Q1006 REDZ=
201905252250 METAR ESMX 252250Z AUTO 23008KT 9999 OVC025/// 10/06 Q1007=
201905252220 METAR ESMX 252220Z AUTO 22008KT 9999 BKN037/// 10/06 Q1007=
201905252150 METAR ESMX 252150Z AUTO 23009KT 9999 SCT041/// 10/05 Q1007=
201905252120 METAR ESMX 252120Z AUTO 25012KT 210V280 9999 BKN025/// OVC035/// 11/05 Q1007=
201905252050 METAR ESMX 252050Z AUTO 26012KT 9999 OVC035/// 11/07 Q1007=
201905252020 METAR ESMX 252020Z AUTO 25008KT 9999 OVC037/// 12/07 Q1008=
201905251950 METAR ESMX 251950Z AUTO 23008KT 9999 NCD 11/07 Q1008=
201905251920 METAR ESMX 251920Z AUTO 25010KT 9999 FEW038/// 12/07 Q1008=
201905251850 METAR ESMX 251850Z AUTO 24009KT 9999 SCT037/// 13/07 Q1008=
201905251820 METAR ESMX 251820Z AUTO 23009KT 9999 SCT033/// 13/07 Q1008=
201905251750 METAR ESMX 251750Z AUTO 24009KT 9999 FEW030/// 14/07 Q1008=
201905251720 METAR ESMX 251720Z AUTO 25009KT 200V270 9999 SCT029/// 14/07 Q1008=
201905251650 METAR ESMX 251650Z 25012KT 9999 BKN027 14/07 Q1008=
201905251620 METAR ESMX 251620Z 25013KT 230V290 9999 SCT027 15/08 Q1009=
201905251550 METAR ESMX 251550Z 25013KT CAVOK 16/08 Q1008=
201905251520 METAR ESMX 251520Z 25014KT 220V280 CAVOK 17/07 Q1008=
201905251450 METAR ESMX 251450Z 25013KT CAVOK 18/08 Q1008=
201905251420 METAR ESMX 251420Z AUTO 26012KT 9999 FEW042/// 18/07 Q1008=
201905251350 METAR ESMX 251350Z AUTO 24011KT 200V280 9999 FEW042/// 18/08 Q1008=
201905251320 METAR ESMX 251320Z AUTO 25010KT 200V280 9999 SCT044/// BKN068/// 19/07 Q1008=
201905251250 METAR ESMX 251250Z AUTO 26009KT 9999 BKN048/// OVC070/// 17/07 Q1008=
201905251220 METAR ESMX 251220Z AUTO 27010KT 220V310 9999 SCT047/// BKN068/// 19/06 Q1008=
201905251150 METAR ESMX 251150Z AUTO 26010KT 220V300 9999 FEW041/// BKN064/// 17/07 Q1008=
201905251120 METAR ESMX 251120Z AUTO 29009KT 240V330 9999 OVC053/// 17/07 Q1008=
201905251050 METAR ESMX 251050Z AUTO 27010KT 230V290 9999 SCT040/// BKN057/// 17/07 Q1008=
201905251020 METAR ESMX 251020Z AUTO 30008KT 250V340 9999 FEW036/// SCT051/// 16/07 Q1008=
201905250950 METAR ESMX 250950Z AUTO 27009KT 240V310 9999 OVC041/// 16/07 Q1008=
201905250920 METAR ESMX 250920Z AUTO 29009KT 250V340 9999 BKN036/// BKN049/// 15/07 Q1008=
201905250850 METAR ESMX 250850Z AUTO 29009KT 250V320 9999 BKN033/// 15/07 Q1008=
201905250820 METAR ESMX 250820Z AUTO 29011KT 9999 BKN031/// 14/07 Q1008=
201905250750 METAR ESMX 250750Z AUTO 29010KT 9999 BKN026/// BKN034/// 14/08 Q1008=
201905250720 METAR ESMX 250720Z AUTO 29008KT 250V340 9999 BKN026/// 13/07 Q1008=
201905250650 METAR ESMX 250650Z AUTO 29009KT 250V320 9999 BKN022/// OVC031/// 12/10 Q1008=
201905250620 METAR ESMX 250620Z AUTO 26009KT 9999 FEW015/// BKN034/// 12/11 Q1007=
201905250550 METAR ESMX 250550Z AUTO 27007KT 240V300 9999 SCT013/// BKN016/// BKN034/// 11/11 Q1007=
201905250520 METAR ESMX 250520Z AUTO 25007KT 9999 FEW013/// OVC033/// 10/10 Q1007=
201905250450 METAR ESMX 250450Z AUTO 23005KT 9999 FEW022/// OVC029/// 10/10 Q1007=
201905250420 METAR ESMX 250420Z AUTO 26005KT 230V290 9999 SCT013/// OVC029/// 10/10 Q1007=
201905250350 METAR ESMX 250350Z AUTO 22004KT 9999 SCT015/// OVC027/// 09/09 Q1007=
201905250320 METAR ESMX 250320Z AUTO 22005KT 9999 SCT017/// OVC028/// 09/09 Q1007=
201905250250 METAR ESMX 250250Z AUTO 22005KT 9999 OVC028/// 09/09 Q1007=
201905250220 METAR ESMX 250220Z AUTO 24005KT 9999 OVC028/// 09/09 Q1006=
201905250150 METAR ESMX 250150Z AUTO 23006KT 9999 OVC030/// 09/09 Q1006=
201905250120 METAR ESMX 250120Z AUTO 23007KT 9999 FEW027/// OVC034/// 09/09 Q1006=
201905250050 METAR ESMX 250050Z AUTO 24007KT 9999 SCT008/// OVC030/// 09/09 Q1006=
201905250020 METAR ESMX 250020Z AUTO 22007KT 9999 BKN008/// OVC038/// 09/09 Q1006=
201905242350 METAR ESMX 242350Z AUTO 22007KT 190V250 9999 SCT007/// OVC039/// 09/09 Q1006=
201905242320 METAR ESMX 242320Z AUTO 23007KT 9999 OVC046/// 09/09 Q1006=
201905242250 METAR ESMX 242250Z AUTO 22006KT 9999 FEW008/// OVC051/// 09/09 Q1006=
201905242220 METAR ESMX 242220Z AUTO 23007KT 9999 FEW008/// OVC055/// 09/09 Q1006=
201905242150 METAR ESMX 242150Z AUTO 22007KT 9999 OVC057/// 09/09 Q1006=
201905242120 METAR ESMX 242120Z AUTO 23006KT 9999 OVC055/// 09/09 Q1006=
201905242050 METAR ESMX 242050Z AUTO 22006KT 9999 BKN059/// 08/08 Q1006=
201905242020 METAR ESMX 242020Z AUTO 22007KT 9999 FEW014/// SCT022/// 09/09 Q1006=
201905241950 METAR ESMX 241950Z AUTO 22005KT 9999 FEW015/// 09/09 Q1006=
201905241920 METAR ESMX 241920Z 21006KT CAVOK 10/10 Q1006=
201905241850 METAR ESMX 241850Z 23006KT 9999 FEW012 BKN051 10/10 Q1006=
201905241820 METAR ESMX 241820Z AUTO 22008KT 9999 FEW012/// 10/10 Q1006=
201905241750 METAR ESMX 241750Z 24008KT 200V260 9999 FEW043 11/11 Q1006=
201905241720 METAR ESMX 241720Z 24011KT 9999 -RA FEW020 BKN033 10/10 Q1006=
201905241650 METAR ESMX 241650Z 22008KT 200V260 9999 SCT017 BKN032 12/12 Q1006=
201905241620 METAR ESMX 241620Z 22009KT 9999 FEW015 BKN042 12/12 Q1006=
201905241550 METAR ESMX 241550Z 21009KT 9999 FEW013 SCT045 BKN059 12/12 Q1006=
201905241520 METAR ESMX 241520Z 22012KT 8000 DZ SCT013 BKN030 11/11 Q1007=
201905241450 METAR ESMX 241450Z 20012KT 9999 FEW016 SCT034 BKN049 12/12 Q1007=
201905241420 METAR ESMX 241420Z 22009KT 180V250 9999 -DZ FEW016 BKN045 12/12 Q1007=
201905241350 METAR ESMX 241350Z 24007KT 9999 FEW033 BKN049 12/12 Q1007=
201905241320 METAR ESMX 241320Z 24010KT 9999 -RA FEW030 BKN053 12/10 Q1007=
201905241250 METAR ESMX 241250Z 24011KT 200V270 9999 -RA SCT047 BKN066 14/07 Q1007=
201905241220 METAR ESMX 241220Z 24011KT 210V270 CAVOK 17/05 Q1007=
201905241150 METAR ESMX 241150Z 25010KT 210V290 CAVOK 17/04 Q1007=
201905241120 METAR ESMX 241120Z 22013G24KT CAVOK 18/03 Q1007=
201905241050 METAR ESMX 241050Z 21014KT 170V240 CAVOK 18/01 Q1007=
201905241020 METAR ESMX 241020Z 21014KT 180V240 9999 BKN130 19/M01 Q1008=
201905240950 METAR ESMX 240950Z 21017KT CAVOK 18/M01 Q1008=
201905240920 METAR ESMX 240920Z 20014KT 160V230 CAVOK 18/01 Q1008=
201905240850 METAR ESMX 240850Z 21014KT 180V240 CAVOK 17/02 Q1009=
201905240820 METAR ESMX 240820Z 19015KT CAVOK 16/03 Q1009=
201905240750 METAR ESMX 240750Z 21014KT CAVOK 16/04 Q1009=
201905240720 METAR ESMX 240720Z 21013KT 170V240 CAVOK 16/05 Q1009=
201905240650 METAR ESMX 240650Z 18013KT CAVOK 15/07 Q1009=
201905240620 METAR ESMX 240620Z 20011KT CAVOK 14/07 Q1010=
201905240550 METAR ESMX 240550Z 18010KT CAVOK 14/08 Q1010=
201905240520 METAR ESMX 240520Z 19010KT CAVOK 13/08 Q1010=
201905240450 METAR ESMX 240450Z 19009KT CAVOK 12/08 Q1010=
201905240420 METAR ESMX 240420Z 19008KT CAVOK 11/08 Q1010=
201905240350 METAR ESMX 240350Z AUTO 18009KT 9999 SCT044/// OVC055/// 12/08 Q1010=
201905240320 METAR ESMX 240320Z AUTO 17008KT 9999 BKN055/// 11/08 Q1011=
201905240250 METAR ESMX 240250Z AUTO 18007KT 9999 OVC055/// 11/08 Q1011=
201905240220 METAR ESMX 240220Z AUTO 19008KT 9999 OVC057/// 11/09 Q1011=
201905240150 METAR ESMX 240150Z AUTO 19008KT 9999 FEW064/// 10/10 Q1011=
201905240120 METAR ESMX 240120Z AUTO 19008KT 9999 FEW062/// 09/09 Q1012=
201905240050 METAR ESMX 240050Z AUTO 20007KT 9999 FEW130/// 09/09 Q1012=
201905240020 METAR ESMX 240020Z AUTO 19006KT 9999 OVC130/// 10/08 Q1012=
201905232350 METAR ESMX 232350Z AUTO 17005KT 9999 NCD 11/08 Q1012=
201905232320 METAR ESMX 232320Z AUTO 18006KT 9999 NCD 10/07 Q1012=
201905232250 METAR ESMX 232250Z AUTO 19006KT 9999 FEW150/// 11/08 Q1013=
201905232220 METAR ESMX 232220Z AUTO 19006KT 9999 NCD 10/08 Q1013=
201905232150 METAR ESMX 232150Z AUTO 18006KT 9999 NCD 11/07 Q1013=
201905232120 METAR ESMX 232120Z AUTO 17005KT 9999 NCD 10/07 Q1013=
201905232050 METAR ESMX 232050Z 21004KT CAVOK 11/07 Q1014=
201905232020 METAR ESMX 232020Z 22005KT CAVOK 11/06 Q1014=
201905231950 METAR ESMX 231950Z 23004KT CAVOK 12/06 Q1014=
201905231920 METAR ESMX 231920Z 22004KT CAVOK 13/05 Q1014=
201905231850 METAR ESMX 231850Z AUTO 24004KT 9999 NCD 14/05 Q1014=
201905231820 METAR ESMX 231820Z 25006KT CAVOK 15/04 Q1013=
201905231750 METAR ESMX 231750Z 26006KT CAVOK 16/03 Q1013=
201905231720 METAR ESMX 231720Z 26007KT 220V290 CAVOK 17/03 Q1013=
201905231650 METAR ESMX 231650Z 24010KT CAVOK 18/02 Q1013=
201905231620 METAR ESMX 231620Z 26009KT 230V300 CAVOK 18/03 Q1013=
201905231550 METAR ESMX 231550Z 26009KT 240V300 CAVOK 18/04 Q1013=
201905231520 METAR ESMX 231520Z 27010KT 210V300 CAVOK 19/04 Q1013=
201905231450 METAR ESMX 231450Z 27010KT 240V310 CAVOK 18/05 Q1013=
201905231420 METAR ESMX 231420Z 26009KT 220V310 CAVOK 19/05 Q1013=
201905231350 METAR ESMX 231350Z 29008KT 230V340 9999 FEW049 19/05 Q1014=
201905231320 METAR ESMX 231320Z 26010KT 230V300 9999 FEW047 18/06 Q1014=
201905231250 METAR ESMX 231250Z 29007KT 220V350 CAVOK 18/06 Q1014=
201905231220 METAR ESMX 231220Z 29009KT 240V330 CAVOK 17/06 Q1014=
201905231150 METAR ESMX 231150Z 26011KT 230V300 CAVOK 18/06 Q1014=
201905231120 METAR ESMX 231120Z 30008KT 250V340 CAVOK 16/05 Q1014=
201905231050 METAR ESMX 231050Z AUTO 29009KT 250V330 9999 FEW140/// SCT190/// 16/05 Q1014=
201905231020 METAR ESMX 231020Z 31010KT 260V330 CAVOK 15/06 Q1014=
201905230950 METAR ESMX 230950Z 28010KT 250V330 CAVOK 15/05 Q1014=
201905230920 METAR ESMX 230920Z 30009KT CAVOK 15/05 Q1014=
201905230850 METAR ESMX 230850Z 29009KT 250V310 CAVOK 14/05 Q1014=
201905230820 METAR ESMX 230820Z 29010KT 250V330 CAVOK 13/05 Q1014=
201905230750 METAR ESMX 230750Z 31009KT 270V350 CAVOK 13/05 Q1014=
201905230720 METAR ESMX 230720Z 29011KT CAVOK 12/04 Q1014=
201905230650 METAR ESMX 230650Z 31009KT 280V350 CAVOK 12/05 Q1014=
201905230620 METAR ESMX 230620Z 31009KT 280V340 CAVOK 10/05 Q1014=
201905230550 METAR ESMX 230550Z 31009KT CAVOK 10/07 Q1013=
201905230520 METAR ESMX 230520Z 31010KT 260V330 9999 BKN047 10/08 Q1013=
201905230450 METAR ESMX 230450Z 31011KT 9999 BKN045 10/09 Q1013=
201905230420 METAR ESMX 230420Z 30008KT 9999 BKN043 10/10 Q1013=
201905230350 METAR COR ESMX 230350Z 30006KT 260V330 9999 SCT045 10/10 Q1013=
201905230320 METAR ESMX 230320Z AUTO 30007KT 9999 SCT033/// OVC057/// 10/10 Q1013=
201905230250 METAR ESMX 230250Z AUTO 30009KT 9999 OVC030/// 10/10 Q1013=
201905230220 METAR ESMX 230220Z AUTO 29008KT 9999 OVC027/// 10/10 Q1013=
201905230150 METAR ESMX 230150Z AUTO 29009KT 9999 OVC026/// 11/10 Q1013=
201905230120 METAR ESMX 230120Z AUTO 30009KT 9999 FEW013/// OVC023/// 11/10 Q1012=
201905230050 METAR ESMX 230050Z AUTO 30010KT 9999 BKN011/// OVC022/// 11/11 Q1012=
201905230020 METAR ESMX 230020Z AUTO 30012KT 9999 OVC009/// 11/11 Q1012=
201905222350 METAR ESMX 222350Z AUTO 28010KT 240V310 9999 OVC008/// 11/11 Q1012=
201905222320 METAR ESMX 222320Z AUTO 28009KT 250V320 9999 OVC007/// 12/12 Q1012=
201905222250 METAR ESMX 222250Z AUTO 30009KT 9999 OVC007/// 12/12 Q1012=
201905222220 METAR ESMX 222220Z AUTO 29011KT 9999 OVC007/// 12/12 Q1012=
201905222150 METAR ESMX 222150Z AUTO 28010KT 9999 OVC006/// 12/12 Q1012=
201905222120 METAR ESMX 222120Z AUTO 29011KT 9999 OVC007/// 13/13 Q1012=
201905222050 METAR ESMX 222050Z AUTO 28008KT 9999 OVC009/// 14/14 Q1011=
201905222020 METAR ESMX 222020Z 26009KT 9999 BKN009 OVC015 14/14 Q1011=
201905221950 METAR ESMX 221950Z 27008KT 9999 SCT017 BKN055 15/15 Q1011=
201905221920 METAR ESMX 221920Z 27008KT CAVOK 15/15 Q1011=
201905221850 METAR ESMX 221850Z 27007KT CAVOK 16/14 Q1011=
201905221820 METAR COR ESMX 221820Z 27008KT CAVOK 16/15 Q1010=
201905221750 METAR ESMX 221750Z 26009KT 230V290 CAVOK 17/15 Q1010=
201905221720 METAR ESMX 221720Z 27010KT CAVOK 19/15 Q1010=
201905221650 METAR ESMX 221650Z 28009KT 250V310 CAVOK 19/16 Q1009=
201905221620 METAR ESMX 221620Z AUTO 28010KT 9999 FEW200/// 20/16 Q1009=
201905221550 METAR ESMX 221550Z 26006KT 230V300 CAVOK 21/16 Q1009=
201905221520 METAR COR ESMX 221520Z 26005KT 210V290 9999 BKN076CB 21/16 Q1009=
201905221450 METAR ESMX 221450Z 24008KT 9999 BKN062CB 21/16 Q1008=
201905221420 METAR ESMX 221420Z 21011KT 150V240 9999 SCT070CB 22/16 Q1008 RETS=
201905221350 METAR ESMX 221350Z 25003KT 170V290 9999 SHRA SCT055CB 25/13 Q1008=
201905221320 METAR ESMX 221320Z 27005KT 210V300 9999 FEW070CB 25/13 Q1008=
201905221250 METAR ESMX 221250Z 21004KT 150V250 9999 FEW085CB 23/15 Q1008=
201905221220 METAR ESMX 221220Z 06003KT 030V100 9999 FEW066TCU SCT092 24/14 Q1008=
201905221150 METAR ESMX 221150Z 05007KT 020V110 9999 FEW060TCU 26/12 Q1008=
201905221120 METAR ESMX 221120Z 05006KT 020V100 CAVOK 25/13 Q1008=
201905221050 METAR ESMX 221050Z VRB03KT CAVOK 25/14 Q1009=
201905221020 METAR ESMX 221020Z 28004KT 190V330 CAVOK 24/14 Q1009=
201905220950 METAR ESMX 220950Z 32004KT 240V010 CAVOK 24/14 Q1009=
201905220920 METAR ESMX 220920Z 05004KT 020V120 CAVOK 23/14 Q1009=
201905220850 METAR ESMX 220850Z 34003KT 280V050 CAVOK 23/14 Q1009=
201905220820 METAR ESMX 220820Z 03005KT CAVOK 22/14 Q1009=
201905220750 METAR ESMX 220750Z 35003KT 280V060 CAVOK 21/15 Q1009=
201905220720 METAR ESMX 220720Z 01004KT 340V040 CAVOK 20/16 Q1009=
201905220650 METAR ESMX 220650Z 01003KT 320V050 CAVOK 18/17 Q1009=
201905220620 METAR ESMX 220620Z 01004KT 330V030 CAVOK 17/16 Q1009=
201905220550 METAR ESMX 220550Z 35003KT 9999 FEW039 16/16 Q1009=
201905220520 METAR ESMX 220520Z 02003KT 330V040 CAVOK 14/14 Q1009=
201905220450 METAR ESMX 220450Z VRB03KT CAVOK 13/13 Q1009=
201905220420 METAR ESMX 220420Z 35002KT 3800 BCFG NSC 10/10 Q1009=
201905220350 METAR ESMX 220350Z 00000KT 0200 R01/0225N R19/P2000N BCFG NSC 10/10 Q1009=
201905220320 METAR ESMX 220320Z AUTO 00000KT 0150 R01/0350N R19/0250N BCFG NCD 09/09 Q1009=
201905220250 METAR ESMX 220250Z AUTO 00000KT 0150 R01/0450N R19/0300N BCFG NCD 09/09 Q1009=
201905220220 METAR ESMX 220220Z AUTO 00000KT 0300 R01/P2000N R19/P2000N BCFG NCD 10/10 Q1009=
201905220150 METAR ESMX 220150Z AUTO 00000KT 9000 BCFG NCD 09/09 Q1009=
201905220120 METAR ESMX 220120Z AUTO 01001KT 0200 R01/1900D R19/P2000N BCFG NCD 10/10 Q1009=
201905220050 METAR ESMX 220050Z AUTO 00000KT 0200 R01/P2000N R19/P2000N BCFG NCD 09/09 Q1009=
201905220020 METAR ESMX 220020Z AUTO 00000KT 0150 R01/0650N R19/0600N BCFG NCD 10/10 Q1009=
201905212350 METAR ESMX 212350Z AUTO 00000KT 0150 R01/0375N R19/P2000N BCFG NCD 11/11 Q1009=
201905212320 METAR ESMX 212320Z AUTO 00000KT 0100 R01/0350N R19/0500N BCFG NCD 11/11 Q1009=
201905212250 METAR ESMX 212250Z AUTO 00000KT 0600 R01/P2000D R19/P2000N FG NCD 11/11 Q1009=
201905212220 METAR ESMX 212220Z AUTO 00000KT 8000 NCD 12/12 Q1009=
201905212150 METAR ESMX 212150Z AUTO 00000KT 5000 NCD 12/12 Q1009=
201905212120 METAR ESMX 212120Z AUTO 00000KT 3300 BR NCD 14/14 Q1009=
201905212050 METAR ESMX 212050Z 00000KT 9000 BR NSC 15/15 Q1009=
201905212020 METAR ESMX 212020Z 16003KT CAVOK 16/16 Q1009=
201905211950 METAR ESMX 211950Z 16004KT CAVOK 17/17 Q1009=
201905211920 METAR ESMX 211920Z 17005KT CAVOK 18/15 Q1008=
201905211850 METAR ESMX 211850Z 16006KT CAVOK 19/15 Q1008=
201905211820 METAR ESMX 211820Z 17007KT CAVOK 20/15 Q1008=
201905211750 METAR ESMX 211750Z 15007KT 9999 FEW031 21/15 Q1008=
201905211720 METAR ESMX 211720Z 14007KT 9999 FEW035 21/15 Q1007=
201905211650 METAR ESMX 211650Z 14008KT 080V170 9999 FEW036 22/13 Q1007=
201905211620 METAR ESMX 211620Z 13008KT 090V160 9999 FEW035 23/13 Q1007=
201905211550 METAR ESMX 211550Z 12008KT 080V160 9999 FEW041 23/13 Q1007=
201905211520 METAR ESMX 211520Z 12007KT 050V160 9999 FEW045 24/13 Q1007=
201905211450 METAR ESMX 211450Z 11007KT 060V150 9999 FEW049 24/13 Q1007=
201905211420 METAR ESMX 211420Z 11008KT 050V150 9999 FEW046 24/13 Q1007=
201905211350 METAR ESMX 211350Z 07007KT 010V150 9999 SCT045 24/13 Q1007=
201905211320 METAR ESMX 211320Z 09007KT 040V150 9999 FEW045 SCT055 24/13 Q1007=
201905211250 METAR ESMX 211250Z VRB08KT 9999 SCT048 23/13 Q1007=
201905211220 METAR ESMX 211220Z 08010KT 040V140 9999 SCT042 23/13 Q1007=
201905211150 METAR ESMX 211150Z 06009KT 020V100 9999 SCT037 23/14 Q1007=
201905211120 METAR ESMX 211120Z 09008KT 020V140 CAVOK 22/14 Q1007=
201905211050 METAR ESMX 211050Z 07008KT 030V120 CAVOK 22/14 Q1007=
201905211020 METAR ESMX 211020Z 08008KT 030V120 CAVOK 22/14 Q1007=
201905210950 METAR ESMX 210950Z 07006KT 360V150 CAVOK 21/14 Q1007=
201905210920 METAR ESMX 210920Z 07007KT 010V130 CAVOK 20/14 Q1007=
201905210850 METAR ESMX 210850Z 06006KT 020V110 CAVOK 20/14 Q1007=
201905210820 METAR ESMX 210820Z 06007KT 030V120 CAVOK 20/15 Q1007=
201905210750 METAR ESMX 210750Z 04007KT CAVOK 19/14 Q1007=
201905210720 METAR ESMX 210720Z 04008KT CAVOK 17/16 Q1007=
201905210650 METAR ESMX 210650Z 06006KT 030V100 CAVOK 16/16 Q1007=
201905210620 METAR ESMX 210620Z 04007KT CAVOK 16/16 Q1007=
201905210550 METAR ESMX 210550Z 04007KT CAVOK 16/16 Q1007=
201905210520 METAR ESMX 210520Z 01007KT CAVOK 16/16 Q1006=
201905210450 METAR ESMX 210450Z 04006KT 010V080 CAVOK 15/15 Q1007=
201905210420 METAR ESMX 210420Z 04007KT CAVOK 15/15 Q1007=
201905210350 METAR ESMX 210350Z 05008KT 020V080 CAVOK 15/15 Q1007=
201905210320 METAR ESMX 210320Z AUTO 04008KT 020V080 9999 FEW100/// BKN150/// 15/15 Q1006=
201905210250 METAR ESMX 210250Z AUTO 03008KT 9999 FEW100/// BKN150/// 15/15 Q1006=
201905210220 METAR ESMX 210220Z AUTO 04007KT 9999 FEW150/// SCT170/// 15/15 Q1006=
201905210150 METAR ESMX 210150Z AUTO 04007KT 9999 FEW100/// BKN170/// 15/15 Q1006=
201905210120 METAR ESMX 210120Z AUTO 03007KT 9999 NCD 15/15 Q1006=
201905210050 METAR ESMX 210050Z 03007KT CAVOK 16/16 Q1007=
201905210020 METAR ESMX 210020Z 03008KT CAVOK 16/16 Q1006=
201905202350 METAR ESMX 202350Z 03008KT CAVOK 15/15 Q1007=
201905202320 METAR ESMX 202320Z 02006KT CAVOK 15/15 Q1007=
201905202250 METAR ESMX 202250Z AUTO 02006KT 9999 NCD 16/16 Q1007=
201905202220 METAR ESMX 202220Z AUTO 03005KT 9999 NCD 16/16 Q1007=
201905202150 METAR ESMX 202150Z AUTO 35003KT 9999 NCD 16/16 Q1008=
201905202120 METAR ESMX 202120Z AUTO 05003KT 020V080 9999 NCD 17/17 Q1008=
201905202050 METAR ESMX 202050Z AUTO 06004KT 020V090 9999 NCD 18/16 Q1008=
201905202020 METAR ESMX 202020Z AUTO 05004KT 010V080 9999 NCD 18/16 Q1008=
201905201950 METAR ESMX 201950Z AUTO 06004KT 020V110 9999 NCD 19/15 Q1008=
201905201920 METAR ESMX 201920Z AUTO 06004KT 020V090 9999 NCD 19/15 Q1007=
201905201850 METAR ESMX 201850Z AUTO 07006KT 030V130 9999 NCD 20/15 Q1007=
201905201820 METAR ESMX 201820Z AUTO 08008KT 040V110 9999 NCD 21/15 Q1007=
201905201750 METAR ESMX 201750Z 08004KT 040V130 9999 FEW047 23/13 Q1007=
201905201720 METAR ESMX 201720Z 06004KT 010V100 CAVOK 23/13 Q1007=
201905201650 METAR ESMX 201650Z 10003KT 060V150 9999 FEW046 23/13 Q1007=
201905201620 METAR ESMX 201620Z 05004KT 030V100 CAVOK 24/13 Q1007=
201905201550 METAR ESMX 201550Z 03005KT 010V070 CAVOK 23/13 Q1007=
201905201520 METAR ESMX 201520Z 06004KT 030V100 9999 FEW043 23/13 Q1007=
201905201450 METAR ESMX 201450Z 01004KT 270V080 CAVOK 24/14 Q1007=
201905201420 METAR ESMX 201420Z 18005KT 130V230 9999 FEW043 24/13 Q1008=
201905201350 METAR ESMX 201350Z 15007KT 120V190 9999 FEW037 23/13 Q1008=
201905201320 METAR ESMX 201320Z 17005G16KT 100V220 9999 FEW034 22/13 Q1008=
201905201250 METAR ESMX 201250Z 14005KT 070V190 9999 FEW025 22/14 Q1008=
201905201220 METAR ESMX 201220Z 15007KT 090V190 9999 FEW024 22/15 Q1008=
201905201150 METAR ESMX 201150Z 13006KT 060V160 9999 BKN021 21/16 Q1008=
201905201120 METAR COR ESMX 201120Z 15006KT 100V210 9999 FEW016 BKN021 20/17 Q1008=
201905201050 METAR ESMX 201050Z 16003KT 100V230 9999 FEW013 BKN019 19/19 Q1008=
201905201020 METAR ESMX 201020Z 13004KT 080V170 9999 BKN014 18/18 Q1008=
201905200950 METAR ESMX 200950Z 15004KT 100V200 9999 SCT009 BKN014 18/18 Q1008=
201905200920 METAR ESMX 200920Z 12004KT 060V160 9999 BKN007 17/17 Q1008=
201905200850 METAR ESMX 200850Z 09004KT 030V130 9000 BR OVC006 16/16 Q1008=
201905200820 METAR ESMX 200820Z 11004KT 050V160 9000 BR OVC005 16/16 Q1008=
201905200750 METAR ESMX 200750Z 10003KT 030V160 9999 OVC005 15/15 Q1008=
201905200720 METAR ESMX 200720Z 07003KT 010V130 9000 BR OVC005 15/15 Q1008=
201905200650 METAR ESMX 200650Z 06004KT 030V110 9999 OVC004 15/15 Q1008=
201905200620 METAR ESMX 200620Z 06004KT 030V100 9999 OVC004 14/14 Q1008=
201905200550 METAR ESMX 200550Z AUTO 07004KT 030V100 7000 BR OVC004/// 14/14 Q1008=
201905200520 METAR COR ESMX 200520Z 06003KT 020V100 6000 BR OVC003 14/14 Q1008=
201905200450 METAR ESMX 200450Z 07004KT 030V100 7000 BR OVC005 14/14 Q1008=
201905200420 METAR ESMX 200420Z 07004KT 040V100 6000 BR OVC005 14/14 Q1008=
201905200350 METAR COR ESMX 200350Z 07004KT 9000 BR OVC006 14/14 Q1008=
201905200320 METAR ESMX 200320Z AUTO 06004KT 030V100 9000 BR OVC007/// 14/14 Q1008=
201905200250 METAR ESMX 200250Z AUTO 07003KT 030V100 9999 OVC008/// 14/14 Q1008=
201905200220 METAR ESMX 200220Z AUTO VRB03KT 9999 OVC008/// 14/14 Q1008=
201905200150 METAR ESMX 200150Z AUTO 04004KT 010V070 9999 OVC007/// 14/14 Q1008=
201905200120 METAR ESMX 200120Z AUTO 07004KT 020V100 9999 OVC007/// 14/14 Q1008=
201905200050 METAR ESMX 200050Z AUTO 04004KT 360V080 9999 -DZ OVC006/// 14/14 Q1008=
201905200020 METAR ESMX 200020Z AUTO 02004KT 340V050 8000 DZ SCT001/// BKN006/// BKN033/// 14/14 Q1008=
201905192350 METAR ESMX 192350Z AUTO 04005KT 9999 -RA BKN001/// OVC033/// 14/14 Q1009=
201905192320 METAR ESMX 192320Z AUTO 04005KT 4200 RA BKN001/// OVC006/// 15/15 Q1009 RESHRA=
201905192250 METAR ESMX 192250Z AUTO 03004KT 350V060 7000 -RA SCT001/// OVC005/// 15/15 Q1009=
201905192220 METAR ESMX 192220Z AUTO 04005KT 010V070 9999 -RA FEW001/// OVC005/// 15/15 Q1010 RERA REDZ=
201905192150 METAR ESMX 192150Z AUTO 04007KT 9999 DZ FEW001/// OVC005/// 15/15 Q1010=
201905192120 METAR ESMX 192120Z AUTO 04007KT 9999 -DZ OVC005/// 15/15 Q1010=
201905192050 METAR ESMX 192050Z AUTO 04007KT 020V080 9999 DZ OVC006/// 15/15 Q1010=
201905192020 METAR ESMX 192020Z AUTO 04006KT 9999 OVC006/// 15/15 Q1010=
201905191950 METAR ESMX 191950Z 03006KT 9999 BKN007 15/15 Q1010=
201905191920 METAR ESMX 191920Z 03006KT 9999 SCT008 BKN046 15/15 Q1011=
201905191850 METAR ESMX 191850Z 03004KT 360V070 9999 DZ FEW007 SCT055 15/15 Q1011=
201905191820 METAR ESMX 191820Z 06006KT 030V110 9999 -RA FEW042 16/16 Q1011 REDZ=
201905191750 METAR ESMX 191750Z 07006KT 030V110 9999 -RA FEW015 SCT028 17/17 Q1011 REDZ=
201905191720 METAR ESMX 191720Z 07004KT 020V110 9999 SCT014 BKN017 17/17 Q1011=
201905191650 METAR ESMX 191650Z 06007KT 020V090 9999 SCT015 BKN021 17/17 Q1011=
201905191620 METAR ESMX 191620Z 04008KT 9999 BKN017 18/17 Q1011=
201905191550 METAR ESMX 191550Z 04007KT 9999 BKN018 18/17 Q1011=
201905191520 METAR ESMX 191520Z 04007KT 010V080 9999 FEW016 SCT021 18/17 Q1011=
201905191450 METAR ESMX 191450Z 04010KT 9999 FEW016 BKN021 19/16 Q1012=
201905191420 METAR ESMX 191420Z 04010KT 9999 SCT036 19/16 Q1011=
201905191350 METAR ESMX 191350Z 05009KT 020V100 9999 FEW025 SCT033 20/15 Q1011=
201905191320 METAR ESMX 191320Z 04010KT 9999 FEW025 20/15 Q1011=
201905191250 METAR ESMX 191250Z 04008KT 360V100 9999 SCT024 21/14 Q1011=
201905191220 METAR ESMX 191220Z 04007KT 020V080 9999 FEW023 BKN036 20/14 Q1011=
201905191150 METAR ESMX 191150Z 03006KT 010V070 9999 SCT021 BKN031 20/14 Q1012=
201905191120 METAR ESMX 191120Z 35007KT 9999 FEW019 BKN029 19/14 Q1012=
201905191050 METAR ESMX 191050Z 35007KT 9999 FEW015 BKN021 18/16 Q1012=
201905191020 METAR COR ESMX 191020Z 02005KT 320V070 9999 BKN014 17/16 Q1012=
201905190950 METAR ESMX 190950Z 04007KT 9999 BKN012 16/16 Q1012=
201905190920 METAR ESMX 190920Z 04006KT 010V070 9999 BKN011 16/16 Q1012=
201905190850 METAR ESMX 190850Z 05005KT 020V100 9999 BKN009 16/16 Q1012=
201905190820 METAR COR ESMX 190820Z 05005KT 010V110 9999 BKN008 15/15 Q1012=
201905190750 METAR ESMX 190750Z 35005KT 9999 BKN005 15/15 Q1012=
201905190720 METAR COR ESMX 190720Z 03005KT 9999 OVC004 14/14 Q1012=
201905190650 METAR ESMX 190650Z 05004KT 020V080 6000 BR OVC002 13/13 Q1012=
201905190620 METAR COR ESMX 190620Z 04004KT 010V100 2600 BR VV002 13/13 Q1012=
201905190550 METAR ESMX 190550Z 03004KT 350V070 1100 R01/P2000N R19/1400U FG VV002 13/13 Q1012=
201905190520 METAR ESMX 190520Z 35004KT 320V030 0500 R01/0800N R19/0650N FG VV002 13/13 Q1011=
201905190450 METAR ESMX 190450Z AUTO 06004KT 020V100 0500 R01/0750N R19/0700N FG OVC001/// 12/12 Q1012=
201905190420 METAR ESMX 190420Z AUTO VRB03KT 0300 R01/1300D R19/0600N FG BKN001/// OVC002/// 12/12 Q1012=
201905190350 METAR ESMX 190350Z AUTO VRB03KT 0400 R01/1000D R19/0600D FG OVC001/// 13/13 Q1012=
201905190320 METAR ESMX 190320Z AUTO 06004KT 020V080 5000 BR BKN001/// OVC005/// 13/13 Q1012=
201905190250 METAR ESMX 190250Z AUTO VRB02KT 9999 OVC006/// 13/13 Q1012=
201905190220 METAR ESMX 190220Z AUTO 00000KT 9999 OVC006/// 13/13 Q1012=
201905190150 METAR ESMX 190150Z AUTO VRB03KT 9999 OVC006/// 13/13 Q1012=
201905190120 METAR ESMX 190120Z AUTO VRB02KT 9999 OVC007/// 13/13 Q1012=
201905190050 METAR ESMX 190050Z AUTO VRB03KT 9999 BKN005/// OVC006/// 13/13 Q1012=
201905190020 METAR ESMX 190020Z AUTO VRB02KT 9999 OVC004/// 13/13 Q1012=
201905182350 METAR ESMX 182350Z AUTO 13004KT 060V170 9000 BR OVC003/// 13/13 Q1012=
201905182320 METAR ESMX 182320Z AUTO 12004KT 070V160 9999 OVC004/// 13/13 Q1012=
201905182250 METAR ESMX 182250Z AUTO 10003KT 070V140 9999 OVC005/// 14/14 Q1012=
201905182220 METAR ESMX 182220Z AUTO VRB03KT 9999 BKN005/// OVC080/// 14/14 Q1012=
201905182150 METAR ESMX 182150Z AUTO 11003KT 060V180 9999 BKN005/// OVC080/// 14/14 Q1012=
201905182120 METAR ESMX 182120Z AUTO 08005KT 050V120 9999 OVC076/// 14/14 Q1012=
201905182050 METAR ESMX 182050Z AUTO 05006KT 9999 SCT006/// BKN008/// OVC078/// 14/14 Q1012 RERA=
201905182020 METAR ESMX 182020Z AUTO 07005KT 020V110 9999 FEW008/// SCT080/// 14/14 Q1012=
201905181950 METAR ESMX 181950Z AUTO 06004KT 9999 FEW084/// SCT098/// 14/14 Q1012=
201905181920 METAR ESMX 181920Z AUTO 07004KT 020V110 9999 FEW027/// 15/15 Q1013=
201905181850 METAR ESMX 181850Z AUTO 04003KT 010V090 9999 NCD 15/15 Q1012=
201905181820 METAR ESMX 181820Z AUTO 05004KT 020V080 9999 FEW028/// 15/15 Q1012=
201905181750 METAR ESMX 181750Z AUTO 06006KT 9999 BKN025/// 16/16 Q1013=
201905181720 METAR ESMX 181720Z AUTO 04006KT 9999 FEW026/// BKN076/// 16/16 Q1012=
201905181650 METAR ESMX 181650Z 04004KT 020V080 9999 FEW017 SCT078 17/16 Q1012=
201905181620 METAR ESMX 181620Z 06004KT 030V110 9999 FEW031 17/16 Q1012=
201905181550 METAR ESMX 181550Z 08005KT 340V150 9999 FEW018 BKN034 17/16 Q1013=
201905181520 METAR ESMX 181520Z 08005KT 020V130 9999 BKN021 17/15 Q1013=
201905181450 METAR ESMX 181450Z 09005KT 050V130 9999 FEW026 18/13 Q1013=
201905181420 METAR COR ESMX 181420Z VRB05KT 9999 FEW025 18/14 Q1013=
201905181350 METAR ESMX 181350Z AUTO VRB04KT 9999 FEW020/// SCT130/// 17/16 Q1013=
201905181320 METAR ESMX 181320Z AUTO 10004KT 060V150 9999 SCT020/// BKN030/// BKN140/// 18/14 Q1013=
201905181250 METAR ESMX 181250Z AUTO 12003KT 060V160 9999 FEW018/// BKN025/// OVC033/// 18/16 Q1013=
201905181220 METAR ESMX 181220Z AUTO 15005KT 100V190 9999 SCT017/// OVC025/// 17/16 Q1014=
201905181150 METAR ESMX 181150Z AUTO 11005KT 060V150 9999 SCT017/// OVC025/// 17/16 Q1014=
201905181120 METAR ESMX 181120Z AUTO 10005KT 040V140 9999 BKN013/// OVC020/// 17/16 Q1014=
201905181050 METAR ESMX 181050Z AUTO 06005KT 030V110 9999 SCT012/// OVC016/// 16/16 Q1014=
201905181020 METAR ESMX 181020Z AUTO 12005KT 050V170 9999 BKN012/// OVC017/// 16/16 Q1014=
201905180950 METAR ESMX 180950Z AUTO 08004KT 030V140 9999 FEW005/// SCT007/// OVC010/// 15/15 Q1014=
201905180920 METAR ESMX 180920Z AUTO 04005KT 9999 OVC004/// 14/14 Q1014=
201905180850 METAR ESMX 180850Z AUTO 04004KT 010V080 6000 OVC001/// 13/13 Q1014=
201905180820 METAR ESMX 180820Z AUTO 05004KT 2100 OVC001/// 13/13 Q1014=
201905180750 METAR ESMX 180750Z AUTO 05005KT 020V080 0800 R01/1000N R19/0900U FG OVC001/// 12/12 Q1014=
201905180720 METAR ESMX 180720Z AUTO 05004KT 0900 R01/1100D R19/1100N FG OVC001/// 12/12 Q1014=
201905180650 METAR ESMX 180650Z AUTO 04004KT 010V120 1700 BR OVC001/// 12/12 Q1014=
201905180620 METAR ESMX 180620Z AUTO 05004KT 5000 BR OVC002/// 11/11 Q1014=
201905180550 METAR ESMX 180550Z AUTO 05004KT 010V080 2500 BR OVC001/// 11/11 Q1014=
201905180520 METAR ESMX 180520Z AUTO 04004KT 010V070 2300 BR OVC001/// 10/10 Q1014=
201905180450 METAR ESMX 180450Z AUTO 05006KT 020V080 1900 BR OVC001/// 10/10 Q1014=
201905180420 METAR ESMX 180420Z AUTO 04005KT 2400 BR OVC001/// 10/10 Q1014=
201905180350 METAR ESMX 180350Z AUTO 04005KT 020V080 2300 BR OVC001/// 10/10 Q1014=
201905180320 METAR ESMX 180320Z AUTO 05004KT 020V090 4300 BR OVC002/// 10/10 Q1014=
201905180250 METAR ESMX 180250Z AUTO 05005KT 020V100 3300 BR OVC001/// 10/10 Q1014=
201905180220 METAR ESMX 180220Z AUTO 06005KT 010V100 3800 BR OVC002/// 10/10 Q1014=
201905180150 METAR ESMX 180150Z AUTO 04005KT 7000 BR OVC002/// 10/10 Q1014=
201905180120 METAR ESMX 180120Z AUTO 06005KT 020V090 8000 BR OVC003/// 10/10 Q1014=
201905180050 METAR ESMX 180050Z AUTO 06006KT 020V080 8000 BR OVC003/// 10/10 Q1014=
201905180020 METAR ESMX 180020Z AUTO 05006KT 020V080 9999 BKN004/// OVC006/// 10/10 Q1014=
201905172350 METAR ESMX 172350Z AUTO 05006KT 020V100 9999 OVC004/// 09/09 Q1014=
201905172320 METAR ESMX 172320Z AUTO 04008KT 7000 -RA BKN001/// OVC057/// 09/09 Q1014=
201905172250 METAR ESMX 172250Z AUTO 04006KT 020V080 6000 RA SCT001/// OVC005/// 09/09 Q1014=
201905172220 METAR ESMX 172220Z AUTO 04008KT 9999 -RA OVC004/// 09/09 Q1014 REUP=
201905172150 METAR ESMX 172150Z AUTO 04008KT 010V070 9999 FEW002/// OVC004/// 09/09 Q1014=
201905172120 METAR ESMX 172120Z AUTO 04009KT 9000 BR OVC005/// 09/09 Q1014=
201905172050 METAR ESMX 172050Z AUTO 04008KT 9999 FEW002/// OVC007/// 09/09 Q1014 REUP REDZ=
201905172020 METAR ESMX 172020Z AUTO 05007KT 010V080 9999 FEW006/// OVC008/// 09/09 Q1015=
201905171950 METAR ESMX 171950Z 05008KT 020V100 9999 OVC009 09/09 Q1015=
201905171920 METAR ESMX 171920Z 05008KT 9999 OVC008 09/09 Q1015=
201905171850 METAR ESMX 171850Z 05011KT 020V090 9999 OVC007 09/09 Q1015=
201905171820 METAR COR ESMX 171820Z 04010KT 010V080 9999 OVC006 09/09 Q1015=
201905171750 METAR ESMX 171750Z 04011KT 7000 -DZ FEW002 BKN005 09/09 Q1015=
201905171720 METAR ESMX 171720Z 04010KT 9999 FEW009 BKN011 09/09 Q1015=
201905171650 METAR ESMX 171650Z 04013KT 020V080 9999 SCT026 BKN034 09/09 Q1016=
201905171620 METAR ESMX 171620Z 04010KT CAVOK 09/09 Q1016=
201905171550 METAR COR ESMX 171550Z 05010KT 020V080 9999 -RA BKN036 09/09 Q1016=
201905171520 METAR ESMX 171520Z 05011KT 9999 -RA BKN035 10/10 Q1016=
201905171450 METAR ESMX 171450Z 05011KT 030V100 9999 -RA BKN037 10/10 Q1017=
201905171420 METAR ESMX 171420Z 05011G22KT 020V080 9000 -RA BKN037 10/10 Q1017=
201905171350 METAR ESMX 171350Z 06010KT 030V100 8000 -RA BKN039 10/10 Q1017=
201905171320 METAR ESMX 171320Z 05012KT 020V090 9000 -RA BKN040 10/10 Q1017=
201905171250 METAR ESMX 171250Z 04013KT 9999 -RA BKN044 10/10 Q1017=
201905171220 METAR ESMX 171220Z 05011KT 9999 -RA BKN047 11/11 Q1017=
201905171150 METAR ESMX 171150Z 06011KT 020V100 9999 -RA BKN045 11/10 Q1018=
201905171120 METAR ESMX 171120Z 06012G23KT 9999 -RA BKN055 12/07 Q1018=
201905171050 METAR ESMX 171050Z 05011G21KT 020V110 9999 -RA BKN055 13/07 Q1017=
201905171020 METAR ESMX 171020Z 06011KT 010V100 9999 -RA BKN064 14/05 Q1017=
201905170950 METAR ESMX 170950Z 05012KT 020V080 9999 -RA FEW045 BKN070 14/05 Q1018=
201905170920 METAR ESMX 170920Z 05012KT 020V090 9999 -DZ SCT041 BKN070 14/05 Q1018=
201905170850 METAR ESMX 170850Z AUTO 05010KT 020V080 9999 -DZ BKN047/// OVC066/// 14/04 Q1018=
201905170820 METAR ESMX 170820Z 05011KT 9999 -RA SCT046 BKN059 14/04 Q1018=
201905170750 METAR ESMX 170750Z 04011KT CAVOK 13/04 Q1018=
201905170720 METAR ESMX 170720Z 04011KT 9999 BKN045 12/04 Q1019=
201905170650 METAR ESMX 170650Z 04009KT 9999 BKN045 11/04 Q1019=
201905170620 METAR ESMX 170620Z AUTO 04010KT 9999 OVC048/// 11/04 Q1019=
201905170550 METAR ESMX 170550Z 04012KT CAVOK 10/03 Q1019=
201905170520 METAR ESMX 170520Z 04010KT CAVOK 10/03 Q1019=
201905170450 METAR ESMX 170450Z 04009KT CAVOK 10/03 Q1019=
201905170420 METAR ESMX 170420Z 04009KT CAVOK 10/02 Q1019=
201905170350 METAR ESMX 170350Z AUTO 04010KT 9999 BKN051/// OVC088/// 09/02 Q1019=
201905170320 METAR ESMX 170320Z AUTO 04011KT 9999 SCT053/// BKN088/// 09/02 Q1020=
201905170250 METAR ESMX 170250Z AUTO 05011KT 010V070 9999 OVC088/// 09/01 Q1020=
201905170220 METAR ESMX 170220Z AUTO 04011KT 9999 BKN088/// 09/01 Q1020=
201905170150 METAR ESMX 170150Z AUTO 04012KT 020V080 9999 FEW086/// 09/01 Q1020=
201905170120 METAR ESMX 170120Z AUTO 04011KT 9999 SCT090/// 09/01 Q1020=
201905170050 METAR ESMX 170050Z AUTO 04010KT 9999 SCT170/// 09/00 Q1021=
201905170020 METAR ESMX 170020Z AUTO 04009KT 9999 SCT170/// 09/M00 Q1021=
201905162350 METAR ESMX 162350Z AUTO 04010KT 9999 SCT170/// 09/M00 Q1021=
201905162320 METAR ESMX 162320Z AUTO 04010KT 9999 SCT100/// 09/M00 Q1021=
201905162250 METAR ESMX 162250Z AUTO 04009KT 9999 BKN110/// 10/M01 Q1022=
201905162220 METAR ESMX 162220Z AUTO 04011KT 020V080 9999 SCT110/// 10/M01 Q1022=
201905162150 METAR ESMX 162150Z AUTO 04010KT 9999 OVC140/// 10/M01 Q1022=
201905162120 METAR ESMX 162120Z AUTO 04010KT 020V080 9999 SCT160/// 10/M00 Q1023=
201905162050 METAR ESMX 162050Z AUTO 05009KT 020V080 9999 FEW160/// 11/00 Q1023=
201905162020 METAR ESMX 162020Z 04010KT CAVOK 11/M00 Q1023=
201905161950 METAR ESMX 161950Z 04010KT CAVOK 12/M01 Q1023=
201905161920 METAR ESMX 161920Z 05009KT 010V090 CAVOK 12/M00 Q1023=
201905161850 METAR ESMX 161850Z 05011KT CAVOK 13/M00 Q1023=
201905161820 METAR ESMX 161820Z 05010KT 020V080 CAVOK 14/M00 Q1023=
201905161750 METAR ESMX 161750Z 06012KT 030V090 CAVOK 15/M02 Q1023=
201905161720 METAR ESMX 161720Z 05011KT 010V100 CAVOK 15/M04 Q1023=
201905161650 METAR ESMX 161650Z 05013KT 020V090 CAVOK 16/M04 Q1023=
201905161620 METAR ESMX 161620Z 06011KT 020V100 CAVOK 17/M03 Q1023=
201905161550 METAR ESMX 161550Z AUTO 05013KT 030V090 9999 NCD 17/M04 Q1023=
201905161520 METAR ESMX 161520Z 05014G25KT 010V080 CAVOK 17/M02 Q1023=
201905161450 METAR ESMX 161450Z 05013KT 020V080 CAVOK 17/M03 Q1023=
201905161420 METAR ESMX 161420Z 05013KT CAVOK 18/M02 Q1024=
201905161350 METAR ESMX 161350Z 04015KT 020V080 CAVOK 18/M02 Q1024=
201905161320 METAR ESMX 161320Z 04013KT 020V100 CAVOK 18/M02 Q1024=
201905161250 METAR ESMX 161250Z 04014KT 020V080 CAVOK 18/M03 Q1024=
201905161220 METAR ESMX 161220Z 02012G23KT 350V080 CAVOK 18/M02 Q1024=
201905161150 METAR ESMX 161150Z 05013KT 020V090 CAVOK 17/M02 Q1024=
201905161120 METAR ESMX 161120Z 05015KT 020V080 CAVOK 17/M02 Q1025=
201905161050 METAR ESMX 161050Z 05014G25KT CAVOK 17/M01 Q1025=
201905161020 METAR ESMX 161020Z 05013KT 020V090 CAVOK 17/M01 Q1025=
201905160950 METAR ESMX 160950Z 04013KT 010V110 CAVOK 17/M00 Q1025=
201905160920 METAR ESMX 160920Z 06013KT 030V110 CAVOK 16/00 Q1025=
201905160850 METAR ESMX 160850Z 05012KT 020V080 CAVOK 15/00 Q1026=
201905160820 METAR ESMX 160820Z 04013KT CAVOK 15/M00 Q1026=
201905160750 METAR ESMX 160750Z 03012KT 010V070 CAVOK 14/M00 Q1026=
201905160720 METAR ESMX 160720Z 04012KT CAVOK 13/M01 Q1026=
201905160650 METAR ESMX 160650Z 03011KT CAVOK 12/M01 Q1026=
201905160620 METAR ESMX 160620Z 04010KT CAVOK 11/M02 Q1026=
201905160550 METAR ESMX 160550Z 04011KT 010V070 CAVOK 10/M02 Q1026=
201905160520 METAR ESMX 160520Z 04009KT CAVOK 09/M02 Q1026=
201905160450 METAR ESMX 160450Z 03010KT CAVOK 08/M03 Q1026=
201905160420 METAR ESMX 160420Z 03009KT CAVOK 07/M03 Q1026=
201905160350 METAR ESMX 160350Z 01007KT CAVOK 06/M03 Q1026=
201905160320 METAR ESMX 160320Z AUTO 01008KT 9999 NCD 06/M03 Q1026=
201905160250 METAR ESMX 160250Z AUTO 03010KT 9999 NCD 06/M03 Q1027=
201905160220 METAR ESMX 160220Z AUTO 02008KT 9999 NCD 06/M02 Q1027=
201905160150 METAR ESMX 160150Z AUTO 02007KT 9999 NCD 06/M02 Q1027=
201905160120 METAR ESMX 160120Z AUTO 03007KT 9999 NCD 06/M02 Q1027=
201905160050 METAR ESMX 160050Z AUTO 03006KT 9999 NCD 07/M02 Q1027=
201905160020 METAR ESMX 160020Z AUTO 04006KT 010V080 9999 NCD 07/M02 Q1028=
201905152350 METAR ESMX 152350Z AUTO 04007KT 9999 NCD 07/M02 Q1028=
201905152320 METAR ESMX 152320Z AUTO 02008KT 9999 NCD 08/M02 Q1028=
201905152250 METAR ESMX 152250Z AUTO 03006KT 9999 NCD 08/M01 Q1028=
201905152220 METAR ESMX 152220Z AUTO 03006KT 9999 BKN066/// 08/M01 Q1028=
201905152150 METAR ESMX 152150Z AUTO 03006KT 9999 BKN068/// 08/M02 Q1028=
201905152120 METAR ESMX 152120Z AUTO 03005KT 9999 FEW068/// 07/M01 Q1028=
201905152050 METAR ESMX 152050Z 05004KT 020V090 CAVOK 09/M02 Q1028=
201905152020 METAR ESMX 152020Z 05004KT 020V080 CAVOK 10/M01 Q1028=
201905151950 METAR ESMX 151950Z 06005KT 030V100 CAVOK 11/M01 Q1028=
201905151920 METAR ESMX 151920Z 05006KT 020V090 CAVOK 11/M01 Q1028=
201905151850 METAR ESMX 151850Z 06006KT CAVOK 12/M02 Q1028=
201905151820 METAR ESMX 151820Z 06006KT 020V110 CAVOK 13/M02 Q1028=
201905151750 METAR ESMX 151750Z 06008KT 030V090 CAVOK 14/M01 Q1028=
201905151720 METAR ESMX 151720Z 07008KT 020V120 CAVOK 14/M02 Q1028=
201905151650 METAR ESMX 151650Z 04007KT 020V080 CAVOK 15/M02 Q1028=
201905151620 METAR ESMX 151620Z 05008KT 010V080 CAVOK 15/M02 Q1028=
201905151550 METAR ESMX 151550Z 04008KT CAVOK 15/M02 Q1028=
201905151520 METAR ESMX 151520Z 04009KT 010V070 CAVOK 15/M02 Q1028=
201905151450 METAR ESMX 151450Z AUTO 05008KT 360V080 9999 OVC074/// 15/M01 Q1028=
201905151420 METAR ESMX 151420Z 04011KT CAVOK 15/M03 Q1028=
201905151350 METAR ESMX 151350Z 05009KT 010V100 CAVOK 15/M03 Q1028=
201905151320 METAR ESMX 151320Z 08009KT 020V100 CAVOK 16/M03 Q1028=
201905151250 METAR ESMX 151250Z 05012KT CAVOK 15/M03 Q1028=
201905151220 METAR ESMX 151220Z 05009KT 020V080 CAVOK 16/M03 Q1028=
201905151150 METAR ESMX 151150Z 04009KT CAVOK 16/M03 Q1029=
201905151120 METAR ESMX 151120Z 03010KT 350V070 CAVOK 15/M03 Q1029=
201905151050 METAR ESMX 151050Z 05008KT 360V080 CAVOK 15/M03 Q1029=
201905151020 METAR ESMX 151020Z 04010KT 010V080 CAVOK 15/M02 Q1029=
201905150950 METAR ESMX 150950Z 04009KT 360V080 CAVOK 15/M03 Q1030=
201905150920 METAR ESMX 150920Z 03009KT 340V100 CAVOK 15/M02 Q1030=
201905150850 METAR COR ESMX 150850Z 02011KT 350V050 CAVOK 14/M03 Q1030=
201905150820 METAR ESMX 150820Z 02007KT 330V060 CAVOK 14/M02 Q1030=
201905150750 METAR ESMX 150750Z 35006KT 320V020 CAVOK 13/M01 Q1030=
201905150720 METAR ESMX 150720Z 01006KT 340V040 CAVOK 11/M01 Q1030=
201905150650 METAR ESMX 150650Z 02005KT 350V050 CAVOK 11/00 Q1030=
201905150620 METAR ESMX 150620Z 36005KT CAVOK 09/00 Q1030=
201905150550 METAR ESMX 150550Z 01005KT CAVOK 08/M00 Q1030=
201905150520 METAR ESMX 150520Z 01004KT CAVOK 06/02 Q1030=
201905150450 METAR ESMX 150450Z 33003KT CAVOK 05/05 Q1030=
201905150420 METAR ESMX 150420Z 32003KT CAVOK 01/01 Q1030=
201905150350 METAR ESMX 150350Z 35001KT CAVOK M01/M01 Q1030=
201905150320 METAR ESMX 150320Z AUTO 00000KT 9999 NCD M01/M01 Q1030=
201905150250 METAR ESMX 150250Z AUTO 00000KT 9999 NCD M02/M02 Q1030=
201905150220 METAR ESMX 150220Z AUTO 00000KT 9999 NCD M02/M02 Q1030=
201905150150 METAR ESMX 150150Z AUTO 00000KT 9999 NCD M02/M02 Q1030=
201905150120 METAR ESMX 150120Z AUTO 00000KT 9999 NCD M01/M01 Q1030=
201905150050 METAR ESMX 150050Z AUTO 00000KT 9999 NCD M02/M03 Q1031=
201905150020 METAR ESMX 150020Z AUTO 00000KT 9999 NCD M00/M02 Q1031=
201905142350 METAR ESMX 142350Z AUTO 00000KT 9999 NCD 00/00 Q1031=
201905142320 METAR ESMX 142320Z AUTO 19002KT 9999 NCD 01/M02 Q1031=
201905142250 METAR ESMX 142250Z AUTO 15003KT 9999 NCD 02/M02 Q1031=
201905142220 METAR ESMX 142220Z AUTO 15003KT 9999 NCD 05/M02 Q1031=
201905142150 METAR ESMX 142150Z AUTO 17004KT 9999 NCD 07/M03 Q1031=
201905142120 METAR ESMX 142120Z AUTO 17005KT 9999 NCD 07/M02 Q1031=
201905142050 METAR ESMX 142050Z 17006KT CAVOK 08/M02 Q1031=
201905142020 METAR ESMX 142020Z 16006KT 120V190 CAVOK 09/M01 Q1031=
201905141950 METAR ESMX 141950Z 16008KT CAVOK 09/M01 Q1031=
201905141920 METAR ESMX 141920Z 17006KT CAVOK 10/M01 Q1031=
201905141850 METAR ESMX 141850Z 00000KT CAVOK 10/M01 Q1030=
201905141820 METAR ESMX 141820Z AUTO 30002KT 9999 NCD 11/M00 Q1030=
201905141750 METAR ESMX 141750Z 31003KT CAVOK 13/M02 Q1031=
201905141720 METAR ESMX 141720Z 36004KT CAVOK 13/M03 Q1031=
201905141650 METAR ESMX 141650Z 36004KT CAVOK 14/M04 Q1031=
201905141620 METAR ESMX 141620Z 35003KT 300V070 CAVOK 13/M04 Q1031=
201905141550 METAR ESMX 141550Z VRB02KT CAVOK 14/M04 Q1031=
201905141520 METAR ESMX 141520Z 04003KT 350V070 CAVOK 14/M04 Q1031=
201905141450 METAR ESMX 141450Z 36005KT 290V040 CAVOK 14/M04 Q1032=
201905141420 METAR ESMX 141420Z 01004KT 300V080 CAVOK 14/M05 Q1032=
201905141350 METAR ESMX 141350Z 36004KT 320V110 CAVOK 13/M05 Q1032=
201905141320 METAR ESMX 141320Z VRB05KT CAVOK 14/M05 Q1033=
201905141250 METAR ESMX 141250Z 05005KT 320V100 CAVOK 14/M05 Q1033=
201905141220 METAR ESMX 141220Z VRB04KT CAVOK 13/M06 Q1033=
201905141150 METAR ESMX 141150Z VRB05KT CAVOK 14/M04 Q1033=
201905141120 METAR ESMX 141120Z VRB05KT CAVOK 13/M05 Q1034=
201905141050 METAR ESMX 141050Z 32006KT 280V360 CAVOK 13/M04 Q1034=
201905141020 METAR ESMX 141020Z 34005KT 250V040 CAVOK 12/M05 Q1034=
201905140950 METAR ESMX 140950Z 33008KT 300V030 CAVOK 13/M05 Q1035=
201905140920 METAR ESMX 140920Z 36007KT 320V060 CAVOK 12/M05 Q1035=
201905140850 METAR ESMX 140850Z 04010KT 010V080 CAVOK 12/M05 Q1035=
201905140820 METAR ESMX 140820Z 35007KT 310V020 CAVOK 12/M04 Q1036=
201905140750 METAR ESMX 140750Z 35006KT 310V060 CAVOK 11/M04 Q1036=
201905140720 METAR ESMX 140720Z 01006KT 330V050 CAVOK 10/M03 Q1036=
201905140650 METAR COR ESMX 140650Z 01007KT CAVOK 09/M01 Q1036=
201905140620 METAR COR ESMX 140620Z 01006KT CAVOK 09/M01 Q1036=
201905140550 METAR ESMX 140550Z AUTO 02005KT 9999 NCD 07/M01 Q1036=
201905140520 METAR ESMX 140520Z 35003KT 320V020 CAVOK 06/00 Q1036=
201905140450 METAR ESMX 140450Z 00000KT CAVOK 03/03 Q1036=
201905140420 METAR ESMX 140420Z 29002KT CAVOK M01/M01 Q1036=
201905140350 METAR COR ESMX 140350Z 00000KT CAVOK M02/M02 Q1036=
201905140320 METAR ESMX 140320Z AUTO 00000KT 9000 BR NCD M02/M02 Q1036=
201905140250 METAR ESMX 140250Z AUTO 28002KT 9999 NCD M03/M03 Q1036=
201905140220 METAR ESMX 140220Z AUTO VRB02KT 9999 NCD M02/M02 Q1036=
201905140150 METAR ESMX 140150Z AUTO VRB02KT 9999 NCD M02/M02 Q1036=
201905140120 METAR ESMX 140120Z AUTO 00000KT 9999 NCD M02/M02 Q1036=
201905140050 METAR ESMX 140050Z AUTO 17002KT 9999 NCD M01/M01 Q1036=
201905140020 METAR ESMX 140020Z AUTO 17003KT 9999 NCD M01/M01 Q1036=
201905132350 METAR ESMX 132350Z AUTO 00000KT 9999 NCD M01/M01 Q1036=
201905132320 METAR ESMX 132320Z AUTO 00000KT 9999 NCD M01/M01 Q1036=
201905132250 METAR ESMX 132250Z AUTO 00000KT 9999 NCD 00/00 Q1036=
201905132220 METAR ESMX 132220Z AUTO 18003KT 9999 NCD M00/M00 Q1036=
201905132150 METAR ESMX 132150Z AUTO 00000KT 9999 NCD M00/M00 Q1036=
201905132120 METAR ESMX 132120Z AUTO VRB01KT 9999 NCD 01/01 Q1036=
201905132050 METAR ESMX 132050Z AUTO 17002KT 9999 NCD 02/02 Q1035=
201905132020 METAR ESMX 132020Z AUTO 11002KT 9999 NCD 03/03 Q1035=
201905131950 METAR ESMX 131950Z AUTO 00000KT 9999 NCD 05/02 Q1035=
201905131920 METAR ESMX 131920Z AUTO 06003KT 9999 BKN072/// 06/01 Q1035=
201905131850 METAR ESMX 131850Z AUTO 07002KT 9999 NCD 08/01 Q1035=
201905131820 METAR ESMX 131820Z AUTO 07004KT 010V110 9999 NCD 09/01 Q1034=
201905131750 METAR ESMX 131750Z 06008KT 020V100 CAVOK 10/01 Q1034=
201905131720 METAR ESMX 131720Z 05005KT 010V100 CAVOK 10/00 Q1034=
201905131650 METAR ESMX 131650Z 06006KT 020V100 CAVOK 10/M01 Q1033=
201905131620 METAR ESMX 131620Z 06009KT 030V120 CAVOK 10/01 Q1033=
201905131550 METAR ESMX 131550Z 36009KT 330V050 CAVOK 12/M01 Q1033=
201905131520 METAR ESMX 131520Z 03012KT CAVOK 12/M04 Q1033=
201905131450 METAR ESMX 131450Z 02011KT 350V060 CAVOK 12/M02 Q1033=
201905131420 METAR ESMX 131420Z 36010KT CAVOK 12/M04 Q1032=
201905131350 METAR ESMX 131350Z 01012KT CAVOK 11/M05 Q1033=
201905131320 METAR ESMX 131320Z 33010KT CAVOK 12/M05 Q1032=
201905131250 METAR ESMX 131250Z 35010KT CAVOK 12/M05 Q1032=
201905131220 METAR ESMX 131220Z 35010KT CAVOK 12/M06 Q1032=
201905131150 METAR ESMX 131150Z 36012KT 330V030 CAVOK 12/M06 Q1032=
201905131120 METAR ESMX 131120Z 33012KT 300V360 CAVOK 13/M06 Q1032=
201905131050 METAR ESMX 131050Z 35013KT CAVOK 13/M06 Q1032=
201905131020 METAR ESMX 131020Z 34012KT CAVOK 13/M07 Q1032=
201905130950 METAR ESMX 130950Z 34012KT CAVOK 12/M06 Q1032=
201905130920 METAR ESMX 130920Z 35014KT CAVOK 12/M07 Q1032=
201905130850 METAR ESMX 130850Z 34013KT 310V010 CAVOK 11/M04 Q1032=
201905130820 METAR ESMX 130820Z 33014KT 300V010 CAVOK 11/M05 Q1032=
201905130750 METAR ESMX 130750Z 34016KT CAVOK 10/M05 Q1032=
201905130720 METAR ESMX 130720Z 35013KT CAVOK 10/M05 Q1032=
201905130650 METAR ESMX 130650Z 34013KT CAVOK 10/M03 Q1032=
201905130620 METAR ESMX 130620Z 34010KT CAVOK 08/M01 Q1032=
201905130550 METAR ESMX 130550Z 33008KT CAVOK 07/M01 Q1032=
201905130520 METAR ESMX 130520Z 31007KT CAVOK 06/M00 Q1031=
201905130450 METAR ESMX 130450Z 32006KT 290V350 CAVOK 05/01 Q1031=
201905130420 METAR ESMX 130420Z 30006KT CAVOK 04/01 Q1031=
201905130350 METAR COR ESMX 130350Z 30005KT CAVOK 03/01 Q1031=
201905130320 METAR ESMX 130320Z AUTO 30006KT 9999 NCD 02/02 Q1031=
201905130250 METAR ESMX 130250Z AUTO 29006KT 9999 NCD 03/02 Q1031=
201905130220 METAR ESMX 130220Z AUTO 29005KT 9999 FEW078/// 03/01 Q1031=
201905130150 METAR ESMX 130150Z AUTO 28004KT 9999 OVC070/// 03/02 Q1031=
201905130120 METAR ESMX 130120Z AUTO 27004KT 9999 BKN076/// 03/02 Q1030=
201905130050 METAR ESMX 130050Z AUTO 29003KT 260V340 9999 NCD 03/02 Q1030=
201905130020 METAR ESMX 130020Z AUTO 29003KT 9999 SCT072/// 04/02 Q1030=
201905122350 METAR ESMX 122350Z AUTO 28004KT 9999 FEW055/// BKN070/// 05/01 Q1030=
201905122320 METAR ESMX 122320Z AUTO 28003KT 9999 BKN053/// BKN068/// 05/02 Q1030=
201905122250 METAR ESMX 122250Z AUTO 29004KT 9999 BKN048/// OVC066/// 05/02 Q1030=
201905122220 METAR ESMX 122220Z AUTO 29005KT 9999 OVC042/// 05/02 Q1030=
201905122150 METAR ESMX 122150Z AUTO 30005KT 9999 OVC042/// 06/02 Q1030=
201905122120 METAR ESMX 122120Z AUTO 30006KT 9999 BKN030/// OVC038/// 06/01 Q1030=
201905122050 METAR ESMX 122050Z AUTO 32007KT 9999 FEW026/// BKN037/// OVC055/// 06/01 Q1029=
201905122020 METAR ESMX 122020Z 31007KT 9999 FEW026 SCT051 06/01 Q1029=
201905121950 METAR ESMX 121950Z 30008KT 9999 SCT028 06/01 Q1029=
201905121920 METAR ESMX 121920Z 30006KT 9999 SCT032 06/01 Q1029=
201905121850 METAR ESMX 121850Z 30009KT CAVOK 06/00 Q1028=
201905121820 METAR ESMX 121820Z 30011KT 260V330 9999 FEW032 SCT039 07/M00 Q1028=
201905121750 METAR ESMX 121750Z 30009KT 9999 SCT034 08/01 Q1028=
201905121720 METAR ESMX 121720Z 30013KT 260V330 9999 SCT030 08/02 Q1027=
201905121650 METAR ESMX 121650Z 31013KT 260V330 9999 SCT033 10/01 Q1027=
201905121620 METAR ESMX 121620Z 32011KT 9999 SCT036 10/02 Q1026=
201905121550 METAR ESMX 121550Z 29012KT 9999 SCT040 10/01 Q1026=
201905121520 METAR ESMX 121520Z 29013KT CAVOK 13/M00 Q1025=
201905121450 METAR ESMX 121450Z 27011KT 230V300 9999 -RA FEW078 11/M01 Q1025=
201905121420 METAR ESMX 121420Z 26014KT 230V320 9999 SCT048 13/M01 Q1024=
201905121350 METAR ESMX 121350Z 25015KT 9999 SCT048 13/M01 Q1024=
201905121320 METAR ESMX 121320Z 28012KT 250V320 9999 SCT048 13/01 Q1024=
201905121250 METAR ESMX 121250Z 26012KT 230V310 9999 SCT038 14/01 Q1024=
201905121220 METAR ESMX 121220Z 26012KT 230V300 9999 SCT040 13/01 Q1023=
201905121150 METAR ESMX 121150Z 27010KT 240V310 9999 SCT041 12/01 Q1023=
201905121120 METAR ESMX 121120Z 26010KT 210V300 9999 SCT042 13/00 Q1023=
201905121050 METAR ESMX 121050Z 28011KT 240V300 9999 SCT045 11/00 Q1023=
201905121020 METAR ESMX 121020Z 26008KT 230V300 9999 SCT044 12/M00 Q1022=
201905120950 METAR ESMX 120950Z 25009KT 210V300 9999 SCT040 13/02 Q1022=
201905120920 METAR ESMX 120920Z 29011KT 240V320 9999 FEW030 12/02 Q1022=
201905120850 METAR ESMX 120850Z 28011KT 250V310 9999 SCT030 12/04 Q1021=
201905120820 METAR ESMX 120820Z 29012KT 250V320 9999 SCT028 10/03 Q1021=
201905120750 METAR ESMX 120750Z 28009KT 250V310 CAVOK 11/04 Q1021=
201905120720 METAR ESMX 120720Z 24006KT 190V290 CAVOK 09/07 Q1021=
201905120650 METAR ESMX 120650Z 23005KT 180V270 9999 FEW006 07/07 Q1020=
201905120620 METAR ESMX 120620Z 26005KT 9999 BKN003 06/06 Q1020=
201905120550 METAR ESMX 120550Z 24005KT 220V280 6000 BR OVC002 05/05 Q1020=
201905120520 METAR ESMX 120520Z 27007KT 0700 R01/0900U R19/1200N FG VV002 05/05 Q1020=
201905120450 METAR ESMX 120450Z AUTO 25005KT 220V280 0650 R01/0900N R19/1100N FG OVC001/// 05/05 Q1020=
201905120420 METAR ESMX 120420Z AUTO 26005KT 230V290 0650 R01/1000D R19/1700D FG ////// 04/04 Q1019=
201905120350 METAR ESMX 120350Z AUTO 24004KT 220V280 6000 BR OVC002/// 04/04 Q1019=
201905120320 METAR ESMX 120320Z AUTO 24005KT 9999 BKN003/// OVC005/// 03/03 Q1018=
201905120250 METAR ESMX 120250Z AUTO 23006KT 9999 VV005 02/02 Q1018=
201905120220 METAR ESMX 120220Z AUTO 23005KT 9999 VV004 03/03 Q1018=
201905120150 METAR ESMX 120150Z AUTO 22005KT 9999 VV005 03/03 Q1017=
201905120120 METAR ESMX 120120Z AUTO 24004KT 9999 NCD 03/03 Q1017=
201905120050 METAR ESMX 120050Z AUTO 23005KT 9999 NCD 03/03 Q1017=
201905120020 METAR ESMX 120020Z AUTO 25005KT 9999 NCD 03/03 Q1016=
201905112350 METAR ESMX 112350Z AUTO 24005KT 9999 NCD 03/03 Q1017=
201905112320 METAR ESMX 112320Z AUTO 26005KT 9999 NCD 04/01 Q1016=
201905112250 METAR ESMX 112250Z AUTO 26006KT 9999 NCD 04/01 Q1016=
201905112220 METAR ESMX 112220Z AUTO 26005KT 9999 NCD 05/00 Q1016=
201905112150 METAR ESMX 112150Z AUTO 27005KT 9999 NCD 05/00 Q1016=
201905112120 METAR ESMX 112120Z AUTO 27004KT 9999 NCD 06/M00 Q1015=
201905112050 METAR ESMX 112050Z AUTO 26005KT 9999 NCD 06/M00 Q1015=
201905112020 METAR ESMX 112020Z AUTO 27005KT 9999 NCD 07/M00 Q1015=
201905111950 METAR ESMX 111950Z AUTO 27006KT 9999 NCD 08/M00 Q1015=
201905111920 METAR ESMX 111920Z AUTO 27005KT 9999 NCD 09/M01 Q1014=
201905111850 METAR ESMX 111850Z AUTO 27007KT 9999 NCD 10/M02 Q1014=
201905111820 METAR ESMX 111820Z AUTO 27008KT 9999 NCD 11/M01 Q1014=
201905111750 METAR ESMX 111750Z AUTO 26009KT 9999 NCD 13/M00 Q1013=
201905111720 METAR ESMX 111720Z 27010KT 240V300 CAVOK 13/M00 Q1013=
201905111650 METAR ESMX 111650Z 26009KT CAVOK 14/00 Q1012=
201905111620 METAR ESMX 111620Z 26010KT 240V300 CAVOK 15/01 Q1012=
201905111550 METAR ESMX 111550Z 27010KT 240V320 CAVOK 15/M00 Q1012=
201905111520 METAR ESMX 111520Z 28010KT 240V320 CAVOK 15/00 Q1012=
201905111450 METAR ESMX 111450Z 28010KT 250V320 CAVOK 15/01 Q1011=
201905111420 METAR ESMX 111420Z AUTO 28009KT 240V330 9999 NCD 16/M00 Q1011=
201905111350 METAR ESMX 111350Z AUTO 31010KT 270V340 9999 NCD 15/01 Q1011=
201905111320 METAR ESMX 111320Z AUTO 25008KT 210V310 9999 NCD 15/01 Q1011=
201905111250 METAR ESMX 111250Z AUTO 26007KT 210V360 9999 NCD 15/01 Q1011=
201905111220 METAR ESMX 111220Z AUTO 28007KT 240V320 9999 NCD 15/02 Q1011=
201905111150 METAR ESMX 111150Z AUTO VRB05KT 9999 NCD 13/02 Q1011=
201905111120 METAR ESMX 111120Z AUTO 28008KT 230V330 9999 NCD 13/02 Q1011=
201905111050 METAR ESMX 111050Z AUTO 28005KT 240V350 9999 NCD 12/01 Q1011=
201905111020 METAR ESMX 111020Z AUTO 27006KT 220V320 9999 FEW028/// 12/03 Q1011=
201905110950 METAR ESMX 110950Z AUTO 26006KT 230V320 9999 SCT025/// 10/03 Q1011=
201905110920 METAR ESMX 110920Z AUTO 26008KT 220V310 9999 SCT024/// 09/03 Q1011=
201905110850 METAR ESMX 110850Z AUTO 27007KT 230V320 9999 BKN022/// 09/04 Q1011=
201905110820 METAR ESMX 110820Z AUTO 25006KT 200V300 9999 BKN022/// 08/02 Q1011=
201905110750 METAR ESMX 110750Z AUTO 28005KT 240V310 9999 BKN021/// 08/02 Q1011=
201905110720 METAR ESMX 110720Z AUTO 29008KT 9999 BKN021/// 07/04 Q1011=
201905110650 METAR ESMX 110650Z AUTO 26008KT 9999 BKN018/// 06/03 Q1011=
201905110620 METAR ESMX 110620Z AUTO 28007KT 9999 SCT013/// 07/05 Q1011=
201905110550 METAR ESMX 110550Z AUTO 26007KT 230V290 9999 SCT010/// BKN026/// 06/06 Q1011=
201905110520 METAR ESMX 110520Z AUTO 24005KT 9999 FEW026/// 07/07 Q1010=
201905110450 METAR ESMX 110450Z AUTO 22004KT 9999 NCD 06/06 Q1010=
201905110420 METAR ESMX 110420Z AUTO 19004KT 9999 NCD 05/05 Q1010=
201905110350 METAR ESMX 110350Z AUTO 21004KT 1400 R01/P2000N R19/1500D BR NCD 05/05 Q1010=
201905110320 METAR ESMX 110320Z AUTO 22003KT 8000 NCD 04/04 Q1009=
201905110250 METAR ESMX 110250Z AUTO 25004KT 9999 SCT034/// 05/05 Q1009=
201905110220 METAR ESMX 110220Z AUTO 25005KT 230V290 9999 BKN026/// 07/07 Q1009=
201905110150 METAR ESMX 110150Z AUTO 25005KT 9999 FEW007/// SCT009/// OVC021/// 07/07 Q1009=
201905110120 METAR ESMX 110120Z AUTO 22003KT 9999 SCT015/// OVC027/// 07/07 Q1009=
201905110050 METAR ESMX 110050Z AUTO 23003KT 200V260 9000 FEW004/// OVC032/// 07/07 Q1009=
201905110020 METAR ESMX 110020Z AUTO 22004KT 9999 SCT032/// OVC046/// 08/08 Q1009=
201905102350 METAR ESMX 102350Z AUTO 21004KT 9999 SCT004/// OVC045/// 08/08 Q1008=
201905102320 METAR ESMX 102320Z AUTO 19004KT 9999 FEW003/// SCT005/// OVC044/// 08/08 Q1008=
201905102250 METAR ESMX 102250Z AUTO 21005KT 9999 SCT006/// OVC044/// 08/08 Q1008=
201905102220 METAR ESMX 102220Z AUTO 23004KT 9999 FEW005/// BKN044/// OVC059/// 08/08 Q1008=
201905102150 METAR ESMX 102150Z AUTO 24005KT 9999 BKN043/// OVC053/// 08/08 Q1008=
201905102120 METAR ESMX 102120Z AUTO 20004KT 9999 OVC039/// 09/09 Q1008=
201905102050 METAR ESMX 102050Z AUTO 21004KT 9999 OVC029/// 09/09 Q1008=
201905102020 METAR ESMX 102020Z AUTO 20004KT 9999 BKN032/// BKN039/// OVC046/// 09/09 Q1007=
201905101950 METAR ESMX 101950Z 22005KT 9999 FEW005 BKN050 09/09 Q1007=
201905101920 METAR ESMX 101920Z 25004KT 220V280 7000 -RA SCT007 BKN035 09/09 Q1007=
201905101850 METAR ESMX 101850Z 25005KT 210V290 9999 FEW010 BKN020 10/10 Q1006=
201905101820 METAR ESMX 101820Z 18003KT 9999 VCSH SCT020 BKN040 10/10 Q1006=
201905101750 METAR ESMX 101750Z 25003KT 9999 VCSH BKN040 10/10 Q1006=
201905101720 METAR ESMX 101720Z VRB02KT 9999 VCSH SCT035 BKN045 10/10 Q1006=
201905101650 METAR ESMX 101650Z 22004KT 9999 -SHRA BKN032CB 10/10 Q1006=
201905101620 METAR ESMX 101620Z 26003KT 230V290 9999 VCSH BKN030CB 10/10 Q1006=
201905101550 METAR ESMX 101550Z 27004KT 230V300 9999 VCSH BKN030CB 10/10 Q1006=
201905101520 METAR ESMX 101520Z 26006KT 230V290 8000 RA BKN032 09/09 Q1005=
201905101450 METAR ESMX 101450Z 25012KT 210V290 9999 -SHRA BKN030 12/06 Q1005=
201905101420 METAR ESMX 101420Z 16008KT 120V190 9999 VCSH FEW030 SCT050 15/08 Q1004=
201905101350 METAR ESMX 101350Z 15007KT 110V200 9999 SCT030 15/08 Q1004=
201905101320 METAR ESMX 101320Z 13005KT 060V180 9999 SCT023 15/08 Q1004=
201905101250 METAR ESMX 101250Z 12007KT 080V160 9999 SCT020 14/09 Q1004=
201905101220 METAR ESMX 101220Z 14005KT 090V190 9999 SCT015 13/09 Q1004=
201905101150 METAR ESMX 101150Z 18006KT 110V210 9999 BKN014 13/12 Q1004=
201905101120 METAR ESMX 101120Z 17004KT 130V210 9999 BKN013 12/11 Q1004=
201905101050 METAR ESMX 101050Z 17005KT 150V210 9999 BKN011 11/11 Q1004=
201905101020 METAR ESMX 101020Z 19004KT 140V230 9999 BKN010 11/11 Q1004=
201905100950 METAR ESMX 100950Z 17004KT 120V210 9999 BKN010 11/11 Q1004=
201905100920 METAR COR ESMX 100920Z 13004KT 090V160 9999 BKN008 10/10 Q1004=
201905100850 METAR ESMX 100850Z 18004KT 150V210 9999 OVC006 10/10 Q1004=
201905100820 METAR ESMX 100820Z 13003KT 090V190 9999 OVC005 09/09 Q1004=
201905100750 METAR ESMX 100750Z 18003KT 130V240 9999 OVC004 09/09 Q1003=
201905100720 METAR ESMX 100720Z 15004KT 120V190 9999 OVC004 09/09 Q1003=
201905100650 METAR ESMX 100650Z 19005KT 9999 BKN003 09/09 Q1003=
201905100620 METAR ESMX 100620Z 15004KT 110V190 9999 OVC003 09/09 Q1003=
201905100550 METAR ESMX 100550Z VRB03KT 9999 OVC002 08/08 Q1003=
201905100520 METAR ESMX 100520Z VRB03KT 9999 OVC002 08/08 Q1003=
201905100450 METAR ESMX 100450Z VRB02KT 9999 OVC003 08/08 Q1003=
201905100420 METAR ESMX 100420Z VRB02KT 9999 OVC004 08/08 Q1003=
201905100350 METAR COR ESMX 100350Z VRB03KT 9999 OVC004 08/08 Q1003=
201905100320 METAR ESMX 100320Z AUTO VRB02KT 9999 OVC005/// 08/08 Q1003=
201905100250 METAR ESMX 100250Z AUTO VRB03KT 9999 OVC004/// 08/08 Q1003 RESHUP=
201905100220 METAR ESMX 100220Z AUTO VRB03KT 9999 -DZ OVC004/// 08/08 Q1003=
201905100150 METAR ESMX 100150Z AUTO VRB03KT 9999 -DZ OVC004/// 08/08 Q1003=
201905100120 METAR ESMX 100120Z AUTO VRB02KT 9000 -RA OVC004/// 08/08 Q1003 REDZ=
201905100050 METAR ESMX 100050Z AUTO 11003KT 080V140 9999 DZ OVC003/// 08/08 Q1003=
201905100020 METAR ESMX 100020Z AUTO VRB03KT 9999 -RA OVC003/// 08/08 Q1003=
201905092350 METAR ESMX 092350Z AUTO 12003KT 050V160 9999 -RA OVC004/// 08/08 Q1003 REDZ=
201905092320 METAR ESMX 092320Z AUTO 12003KT 070V160 9999 -RA OVC004/// 08/08 Q1003 REDZ=
201905092250 METAR ESMX 092250Z AUTO 12004KT 080V160 9999 DZ OVC003/// 08/08 Q1003=
201905092220 METAR ESMX 092220Z AUTO 13004KT 080V170 5000 -RA OVC002/// 08/08 Q1003 REDZ=
201905092150 METAR ESMX 092150Z AUTO 13005KT 070V160 4200 -RA OVC003/// 08/08 Q1003=
201905092120 METAR ESMX 092120Z AUTO 14005KT 9999 -RA OVC005/// 08/08 Q1003 REDZ=
201905092050 METAR ESMX 092050Z 13005KT 080V160 9999 DZ BKN005 08/08 Q1003=
201905092020 METAR ESMX 092020Z 13005KT 080V180 9999 DZ BKN005 08/08 Q1002=
201905091950 METAR ESMX 091950Z 12007KT 080V160 9999 -RA BKN005 08/08 Q1002=
201905091920 METAR ESMX 091920Z 12005KT 090V160 9999 DZ BKN005 08/08 Q1002=
201905091850 METAR ESMX 091850Z 13006KT 100V160 9999 -RA BKN004 08/08 Q1002=
201905091820 METAR ESMX 091820Z 11006KT 070V160 9999 DZ BKN004 08/08 Q1002=
201905091750 METAR ESMX 091750Z 12006KT 080V160 9999 -RA BKN005 08/08 Q1002=
201905091720 METAR ESMX 091720Z 13005KT 060V180 9999 -RA BKN005 08/08 Q1002=
201905091650 METAR ESMX 091650Z 12006KT 050V170 9000 -RA BKN005 08/08 Q1002=
201905091620 METAR ESMX 091620Z 11005KT 080V150 8000 -RA BKN006 08/08 Q1002=
201905091550 METAR ESMX 091550Z 12006KT 080V160 9999 -RA BKN006 08/08 Q1002=
201905091520 METAR ESMX 091520Z 12006KT 080V170 9999 -RA BKN006 08/08 Q1002=
201905091450 METAR ESMX 091450Z 12006KT 070V160 9999 DZ BKN007 08/08 Q1002=
201905091420 METAR ESMX 091420Z 12006KT 080V160 8000 -RA FEW002 BKN010 08/08 Q1002=
201905091350 METAR ESMX 091350Z VRB06KT 9999 DZ BKN013 08/08 Q1002=
201905091320 METAR ESMX 091320Z 12007KT 080V160 9999 -RA BKN015 08/08 Q1002=
201905091250 METAR ESMX 091250Z VRB08KT 9999 -RA BKN014 08/08 Q1002=
201905091220 METAR ESMX 091220Z 13009KT 070V170 9999 -DZ BKN013 09/08 Q1002=
201905091150 METAR ESMX 091150Z 12009G20KT 080V160 9999 -RA BKN014 09/09 Q1001=
201905091120 METAR ESMX 091120Z 12008KT 070V160 9999 BKN016 10/06 Q1001=
201905091050 METAR ESMX 091050Z 12011KT 070V160 9999 BKN020 10/06 Q1001=
201905091020 METAR ESMX 091020Z 12009KT 080V190 9999 BKN021 10/05 Q1001=
201905090950 METAR ESMX 090950Z 12011KT 070V150 9999 BKN023 09/05 Q1001=
201905090920 METAR ESMX 090920Z 11009KT 060V150 9999 -RA BKN029 09/04 Q1001=
201905090850 METAR ESMX 090850Z 13010KT 090V170 9999 BKN030 10/03 Q1001=
201905090820 METAR ESMX 090820Z 12010G20KT 080V160 9999 SCT029 BKN080 10/03 Q1001=
201905090750 METAR ESMX 090750Z 13011G22KT 070V240 CAVOK 10/03 Q1001=
201905090720 METAR ESMX 090720Z 12010KT 060V150 CAVOK 10/03 Q1001=
201905090650 METAR ESMX 090650Z 11008KT 050V160 CAVOK 10/03 Q1001=
201905090620 METAR ESMX 090620Z 11008KT 070V160 CAVOK 09/02 Q1001=
201905090550 METAR COR ESMX 090550Z 11008KT 070V150 CAVOK 09/02 Q1001=
201905090520 METAR ESMX 090520Z VRB08KT CAVOK 09/02 Q1001=
201905090450 METAR ESMX 090450Z 11008KT 030V170 CAVOK 09/02 Q1002=
201905090420 METAR ESMX 090420Z 10007KT 060V150 CAVOK 09/02 Q1002=
201905090350 METAR ESMX 090350Z 10006KT 040V150 CAVOK 09/02 Q1002=
201905090320 METAR ESMX 090320Z AUTO VRB06KT 9999 BKN057/// BKN082/// 09/02 Q1002=
201905090250 METAR ESMX 090250Z AUTO 11007G17KT 050V190 9999 SCT059/// 09/02 Q1002=
201905090220 METAR ESMX 090220Z AUTO 10005KT 030V190 9999 FEW037/// BKN053/// 09/02 Q1003 RERA=
201905090150 METAR ESMX 090150Z AUTO 09006KT 350V160 9999 -RA BKN049/// 09/02 Q1003 REDZ=
201905090120 METAR ESMX 090120Z AUTO 11006KT 030V150 9999 BKN057/// 09/02 Q1004 RESHUP REDZ=
201905090050 METAR ESMX 090050Z AUTO 11006KT 060V150 9999 BKN055/// 08/01 Q1004 REUP=
201905090020 METAR ESMX 090020Z AUTO 11006KT 050V150 9999 BKN057/// BKN098/// 08/01 Q1004=
201905082350 METAR ESMX 082350Z AUTO 10006KT 050V140 9999 SCT062/// OVC080/// 08/01 Q1005=
201905082320 METAR ESMX 082320Z AUTO 12006KT 070V190 9999 BKN066/// 08/01 Q1005=
201905082250 METAR ESMX 082250Z AUTO 11007KT 070V150 9999 SCT055/// 08/00 Q1005=
201905082220 METAR ESMX 082220Z AUTO 12006KT 050V170 9999 FEW062/// BKN100/// 08/00 Q1005=
201905082150 METAR ESMX 082150Z AUTO 11007KT 060V160 9999 SCT066/// 08/00 Q1006=
201905082120 METAR ESMX 082120Z AUTO 11006KT 060V170 9999 BKN064/// 08/00 Q1006=
201905082050 METAR ESMX 082050Z 10005KT 030V190 CAVOK 08/00 Q1007=
201905082020 METAR ESMX 082020Z VRB05KT CAVOK 08/M01 Q1007=
201905081950 METAR ESMX 081950Z 12005KT 070V150 CAVOK 09/M02 Q1007=
201905081920 METAR ESMX 081920Z AUTO 11005KT 040V160 9999 FEW098/// 09/M02 Q1007=
201905081850 METAR ESMX 081850Z 12008KT 080V200 CAVOK 09/M03 Q1007=
201905081820 METAR ESMX 081820Z 14009KT CAVOK 10/M03 Q1007=
201905081750 METAR ESMX 081750Z 15008KT 110V190 CAVOK 10/M03 Q1007=
201905081720 METAR ESMX 081720Z 14010KT 090V170 CAVOK 11/M05 Q1007=
201905081650 METAR ESMX 081650Z 14010KT 110V180 CAVOK 11/M07 Q1007=
201905081620 METAR ESMX 081620Z 15010KT CAVOK 11/M04 Q1007=
201905081550 METAR ESMX 081550Z 16012KT CAVOK 12/M03 Q1008=
201905081520 METAR ESMX 081520Z 15012KT 110V180 CAVOK 12/M03 Q1008=
201905081450 METAR ESMX 081450Z 15014KT CAVOK 12/M04 Q1008=
201905081420 METAR ESMX 081420Z 15013KT 110V190 CAVOK 13/M03 Q1008=
201905081350 METAR ESMX 081350Z 16014KT CAVOK 12/M02 Q1008=
201905081320 METAR ESMX 081320Z 18013KT 9999 SCT049 12/00 Q1008=
201905081250 METAR ESMX 081250Z 15009KT 9999 BKN047 12/01 Q1009=
201905081220 METAR ESMX 081220Z 17009KT 130V190 9999 SCT038 BKN051 10/03 Q1009=
201905081150 METAR ESMX 081150Z 15008KT 120V180 9999 SCT027 BKN078 09/03 Q1010=
201905081120 METAR ESMX 081120Z 17005KT 120V210 9999 FEW018 BKN050 08/06 Q1010=
201905081050 METAR ESMX 081050Z 15004KT 120V190 9999 SCT013 BKN017 07/06 Q1010=
201905081020 METAR ESMX 081020Z 16004KT 110V210 9999 SCT011 OVC051 06/06 Q1011=
201905080950 METAR ESMX 080950Z 14004KT 100V180 9999 -DZ FEW010 BKN029 05/05 Q1011=
201905080920 METAR ESMX 080920Z 14006KT 100V160 9999 -RA SCT008 BKN025 05/05 Q1011=
201905080850 METAR ESMX 080850Z 16007KT 9999 -RA BKN008 04/04 Q1011=
201905080820 METAR ESMX 080820Z 17006KT 9999 -RA BKN007 04/04 Q1012=
201905080750 METAR COR ESMX 080750Z 18007KT 9999 -RA BKN007 04/04 Q1012=
201905080720 METAR ESMX 080720Z 21009KT 8000 -RA BKN010 04/04 Q1012=
201905080650 METAR ESMX 080650Z 20011KT 9999 -RA BKN011 04/04 Q1012=
201905080620 METAR ESMX 080620Z 19008KT 9999 FEW030 BKN040 05/05 Q1012=
201905080550 METAR ESMX 080550Z 19008KT 9999 FEW030 BKN050 04/04 Q1011=
201905080520 METAR ESMX 080520Z 18007KT CAVOK 03/03 Q1011=
201905080450 METAR ESMX 080450Z 19007KT CAVOK 03/03 Q1012=
201905080420 METAR ESMX 080420Z 18007KT CAVOK 02/02 Q1011=
201905080350 METAR ESMX 080350Z 18006KT CAVOK 01/01 Q1011=
201905080320 METAR ESMX 080320Z AUTO 18006KT 9999 FEW027/// 01/01 Q1011=
201905080250 METAR ESMX 080250Z AUTO 19006KT 9999 BKN034/// 01/01 Q1011=
201905080220 METAR ESMX 080220Z AUTO 19006KT 9999 SCT034/// 01/01 Q1011=
201905080150 METAR ESMX 080150Z AUTO 17006KT 9999 NCD 01/01 Q1011=
201905080120 METAR ESMX 080120Z AUTO 20005KT 9999 FEW027/// BKN088/// 01/01 Q1011=
201905080050 METAR ESMX 080050Z AUTO 18005KT 9999 FEW086/// 02/02 Q1011=
201905080020 METAR ESMX 080020Z AUTO 19006KT 9999 FEW032/// BKN074/// 02/02 Q1011=
201905072350 METAR ESMX 072350Z AUTO 20007KT 9999 SCT029/// BKN039/// 02/02 Q1012=
201905072320 METAR ESMX 072320Z AUTO 19007KT 9999 BKN044/// 02/02 Q1011 RESHUP=
201905072250 METAR ESMX 072250Z AUTO 21009KT 9999 FEW033/// SCT062/// BKN088/// 02/02 Q1012 REUP=
201905072220 METAR ESMX 072220Z AUTO 17004KT 9999 FEW090/// 01/01 Q1012=
201905072150 METAR ESMX 072150Z AUTO VRB02KT 9999 SCT022/// BKN035/// 02/02 Q1012=
201905072120 METAR ESMX 072120Z AUTO 23005KT 9999 SCT023/// BKN041/// 02/02 Q1012=
201905072050 METAR ESMX 072050Z 21004KT 9999 FEW005 BKN020 02/02 Q1011=
201905072020 METAR ESMX 072020Z 19005KT 9999 SCT029 BKN045 02/02 Q1011=
201905071950 METAR ESMX 071950Z 20005KT 9999 VCSH FEW015CB BKN051 02/02 Q1011=
201905071920 METAR ESMX 071920Z 24013G23KT 200V270 9999 VCSH FEW008 SCT016 BKN070 03/03 Q1011=
201905071850 METAR ESMX 071850Z 19006KT 9999 VCSH FEW017 SCT053 03/03 Q1011=
201905071820 METAR ESMX 071820Z 24012G23KT 9999 SHRA FEW012CB BKN066 05/01 Q1011=
201905071750 METAR ESMX 071750Z 22010KT 190V250 9999 VCSH NSC 05/M01 Q1010=
201905071720 METAR ESMX 071720Z 23013KT 9999 VCSH SCT075CB 06/M01 Q1010=
201905071650 METAR ESMX 071650Z 23012KT 9999 VCSH FEW060CB 07/M01 Q1010=
201905071620 METAR ESMX 071620Z 23015KT 9999 VCSH SCT045 07/M02 Q1010=
201905071550 METAR ESMX 071550Z 24013G26KT 210V280 9999 VCSH SCT048 09/M04 Q1010=
201905071520 METAR ESMX 071520Z 25013KT 9999 VCSH NSC 09/M04 Q1009=
201905071450 METAR ESMX 071450Z 25013KT 210V290 9999 VCSH NSC 09/M04 Q1009=
201905071420 METAR ESMX 071420Z 26014G26KT 210V280 9999 VCSH NSC 09/M04 Q1009=
201905071350 METAR ESMX 071350Z 25017KT 210V280 9999 VCSH SCT045 10/M04 Q1009=
201905071320 METAR ESMX 071320Z 25014G27KT 9999 SCT040 11/M02 Q1009=
201905071250 METAR ESMX 071250Z 23012KT 200V260 9999 SCT031 08/00 Q1009=
201905071220 METAR ESMX 071220Z 28013KT 240V320 9999 BKN015 05/01 Q1009=
201905071150 METAR ESMX 071150Z 26011KT 9999 SHRA SCT042CB 08/M03 Q1009=
201905071120 METAR ESMX 071120Z 28010KT 240V320 9999 BKN028 08/02 Q1009=
201905071050 METAR ESMX 071050Z 27010KT 230V310 9999 VCSH FEW022 BKN040 07/02 Q1009=
201905071020 METAR ESMX 071020Z 22014KT 9999 -SHRA FEW010 BKN030 05/01 Q1009=
201905070950 METAR ESMX 070950Z 24011KT 9999 VCSH SCT033CB BKN048 08/M00 Q1008=
201905070920 METAR ESMX 070920Z 25010KT 210V290 9999 SCT029 07/M01 Q1008=
201905070850 METAR ESMX 070850Z 22010KT 190V260 9999 BKN023 07/01 Q1008=
201905070820 METAR ESMX 070820Z 23012KT 9999 BKN014 06/03 Q1008=
201905070750 METAR ESMX 070750Z 22011KT 9999 BKN016 05/05 Q1008=
201905070720 METAR ESMX 070720Z 23009KT 190V260 9999 SCT011 05/05 Q1008=
201905070650 METAR ESMX 070650Z 22010KT 9999 SCT010 BKN031 04/04 Q1008=
201905070620 METAR ESMX 070620Z 22010KT 9999 SCT008 BKN020 04/04 Q1008=
201905070550 METAR ESMX 070550Z 23009KT 9999 SCT007 BKN022 03/03 Q1008=
201905070520 METAR ESMX 070520Z 22007KT 180V250 9999 SCT006 02/02 Q1008=
201905070450 METAR COR ESMX 070450Z 22008KT 9999 -RA SCT006 BKN028 02/02 Q1008=
201905070420 METAR ESMX 070420Z 21008KT 9999 FEW021 SCT032 02/02 Q1008=
201905070350 METAR ESMX 070350Z 21006KT CAVOK 01/01 Q1008=
201905070320 METAR ESMX 070320Z AUTO 20006KT 9999 FEW053/// SCT070/// 01/01 Q1008=
201905070250 METAR ESMX 070250Z AUTO 22006KT 9999 SCT006/// OVC041/// 01/01 Q1008=
201905070220 METAR ESMX 070220Z AUTO 23008KT 9999 OVC004/// 02/02 Q1008=
201905070150 METAR ESMX 070150Z AUTO 23008KT 9999 OVC004/// 02/02 Q1008=
201905070120 METAR ESMX 070120Z AUTO 23008KT 9999 OVC005/// 02/02 Q1008=
201905070050 METAR ESMX 070050Z AUTO 22009KT 9999 OVC005/// 02/02 Q1008=
201905070020 METAR ESMX 070020Z AUTO 22008KT 9999 -DZ OVC006/// 02/02 Q1008=
201905062350 METAR ESMX 062350Z AUTO 22011KT 7000 -RA BKN006/// BKN010/// OVC017/// 02/02 Q1008 REDZ REUP=
201905062320 METAR ESMX 062320Z AUTO 20008KT 9999 FEW020/// SCT027/// BKN062/// 02/02 Q1008=
201905062250 METAR ESMX 062250Z AUTO 20008KT 9999 FEW011/// SCT022/// BKN040/// 02/02 Q1008=
201905062220 METAR ESMX 062220Z AUTO 20006KT 9999 FEW018/// SCT038/// BKN070/// 01/01 Q1008=
201905062150 METAR ESMX 062150Z AUTO 23008KT 9999 BKN051/// BKN078/// 02/02 Q1008 REUP=
201905062120 METAR ESMX 062120Z AUTO 22012KT 9999 FEW023/// SCT043/// 02/02 Q1008=
201905062050 METAR ESMX 062050Z AUTO 22010KT 9999 NCD 02/02 Q1008=
201905062020 METAR ESMX 062020Z AUTO 20007KT 9999 NCD 01/01 Q1008=
201905061950 METAR ESMX 061950Z AUTO 19006KT 9999 FEW027/// 01/01 Q1008=
201905061920 METAR ESMX 061920Z AUTO 22005KT 9999 NCD 02/02 Q1008=
201905061850 METAR ESMX 061850Z AUTO 24009G19KT 200V280 9999 FEW005/// SCT014/// BKN025/// 02/02 Q1009 RESHUP REUP=
201905061820 METAR ESMX 061820Z AUTO 26006KT 9999 SCT038/// BKN049/// 04/00 Q1008=
201905061750 METAR ESMX 061750Z 27014KT 9999 FEW032 BKN043CB 05/M01 Q1008=
201905061720 METAR ESMX 061720Z 22010KT 9999 FEW037 BKN051 07/M01 Q1007=
201905061650 METAR ESMX 061650Z 23012KT 9999 SCT044 08/M02 Q1007=
201905061620 METAR ESMX 061620Z 23014G24KT 200V260 9999 FEW034 SCT044 09/M02 Q1007=
201905061550 METAR ESMX 061550Z 25012KT 9999 SCT033 08/M01 Q1008=
201905061520 METAR ESMX 061520Z 24010KT 210V280 CAVOK 07/M00 Q1008=
201905061450 METAR ESMX 061450Z 26016KT 9999 VCSH SCT044 BKN066 08/02 Q1008=
201905061420 METAR ESMX 061420Z 23013KT 9999 VCSH SCT047 BKN060 08/M03 Q1007=
201905061350 METAR ESMX 061350Z 23015KT 9999 FEW076 10/M01 Q1007=
201905061320 METAR ESMX 061320Z 23013KT 9999 FEW022 SCT044 08/00 Q1008=
201905061250 METAR ESMX 061250Z 23012KT 200V280 9999 VCSH SCT042CB 09/M01 Q1007=
201905061220 METAR ESMX 061220Z 23013KT 200V280 9999 FEW041 SCT078 09/M00 Q1007=
201905061150 METAR ESMX 061150Z 20012KT 9999 SCT047 BKN076 09/01 Q1007=
201905061120 METAR ESMX 061120Z 22013KT 190V260 9999 SHRA FEW015 SCT030 BKN042 06/01 Q1008=
201905061050 METAR ESMX 061050Z 19012KT 9999 VCSH FEW014 SCT050CB 08/02 Q1007=
201905061020 METAR ESMX 061020Z 22013KT 190V250 9999 FEW030 BKN055 07/02 Q1008=
201905060950 METAR ESMX 060950Z 22010KT 9999 FEW017 06/05 Q1008=
201905060920 METAR ESMX 060920Z 20011KT 9999 BKN013 07/07 Q1008=
201905060850 METAR ESMX 060850Z 19012KT 9999 FEW012 SCT020 05/05 Q1008=
201905060820 METAR ESMX 060820Z 23007KT 190V280 9999 -DZ BKN014 04/04 Q1008=
201905060750 METAR ESMX 060750Z 19012KT 9999 RA SCT016 BKN021 06/05 Q1008=
201905060720 METAR ESMX 060720Z 19012KT 9999 SCT010 BKN017 06/06 Q1008=
201905060650 METAR ESMX 060650Z 20011KT 170V230 9999 SCT009 BKN012 05/05 Q1008=
201905060620 METAR ESMX 060620Z 19012KT 9999 BKN007 05/05 Q1008=
201905060550 METAR ESMX 060550Z 19012KT 9999 BKN007 04/04 Q1008=
201905060520 METAR ESMX 060520Z 19010KT 9999 BKN008 04/04 Q1008=
201905060450 METAR ESMX 060450Z 18010KT 9999 BKN009 04/04 Q1008=
201905060420 METAR ESMX 060420Z 19010KT 9999 FEW025 SCT037 04/04 Q1008=
201905060350 METAR ESMX 060350Z AUTO 19009KT 9999 SCT013/// BKN042/// OVC086/// 03/03 Q1008=
201905060320 METAR ESMX 060320Z AUTO 18010KT 9999 FEW028/// SCT043/// BKN062/// 03/03 Q1008=
201905060250 METAR ESMX 060250Z AUTO 18010KT 9999 NCD 02/02 Q1008=
201905060220 METAR ESMX 060220Z AUTO 18008KT 9999 NCD 03/03 Q1009=
201905060150 METAR ESMX 060150Z AUTO 18008KT 9999 FEW059/// BKN100/// 02/02 Q1009=
201905060120 METAR ESMX 060120Z AUTO 18008KT 9999 FEW032/// BKN100/// OVC130/// 02/02 Q1009=
201905060050 METAR ESMX 060050Z AUTO 18008KT 9999 SCT025/// BKN120/// 02/02 Q1009=
201905060020 METAR ESMX 060020Z AUTO 18007KT 9999 BKN110/// 02/02 Q1009=
201905052350 METAR ESMX 052350Z AUTO 19005KT 9999 NCD 02/02 Q1009=
201905052320 METAR ESMX 052320Z AUTO 20006KT 9999 NCD 01/01 Q1009=
201905052250 METAR ESMX 052250Z AUTO 20006KT 9999 SCT086/// 02/02 Q1010=
201905052220 METAR ESMX 052220Z AUTO 19008KT 9999 FEW088/// 03/02 Q1010=
201905052150 METAR ESMX 052150Z AUTO 19007KT 9999 FEW030/// 03/01 Q1010=
201905052120 METAR ESMX 052120Z AUTO 21007KT 9999 SCT031/// BKN041/// 04/01 Q1010=
201905052050 METAR ESMX 052050Z AUTO 22007KT 9999 NCD 03/00 Q1010=
201905052020 METAR ESMX 052020Z AUTO 22007KT 9999 NCD 04/01 Q1010=
201905051950 METAR ESMX 051950Z AUTO 20007KT 9999 NCD 04/02 Q1010=
201905051920 METAR ESMX 051920Z 19007KT 9999 FEW072CB 04/02 Q1010=
201905051850 METAR ESMX 051850Z 21006KT 9999 -RA FEW032CB SCT061 06/02 Q1010=
201905051820 METAR ESMX 051820Z 22010KT 9999 VCSH FEW031CB BKN074 06/01 Q1010=
201905051750 METAR COR ESMX 051750Z 19009KT 9999 BKN074CB 07/00 Q1010=
201905051720 METAR ESMX 051720Z 21014KT 9999 FEW010CB BKN080 07/01 Q1010=
201905051650 METAR ESMX 051650Z 22009KT 9999 FEW066CB SCT094 10/M04 Q1009=
201905051620 METAR ESMX 051620Z 21012KT 9999 FEW045 SCT062CB 12/M04 Q1009=
201905051550 METAR ESMX 051550Z 19008KT 160V230 9999 FEW055CB SCT070 10/M01 Q1009=
201905051520 METAR ESMX 051520Z 18008KT 150V220 9999 VCSH SCT045CB 10/M01 Q1010=
201905051450 METAR ESMX 051450Z 17007KT 110V200 9999 VCSH FEW066 10/M01 Q1010=
201905051420 METAR ESMX 051420Z 25009G22KT 180V290 9999 VCSH SCT038CB 10/M04 Q1010=
201905051350 METAR ESMX 051350Z 21007KT 9999 FEW047 BKN080 10/M01 Q1010=
201905051320 METAR ESMX 051320Z 23009KT 9999 FEW046 BKN078 10/M01 Q1011=
201905051250 METAR ESMX 051250Z 23013KT 9999 FEW004 BKN076 09/M02 Q1011=
201905051220 METAR ESMX 051220Z 24010KT 210V290 CAVOK 12/M06 Q1010=
201905051150 METAR ESMX 051150Z 31005KT 240V360 CAVOK 11/M06 Q1010=
201905051120 METAR ESMX 051120Z 30008KT 260V330 CAVOK 10/M05 Q1010=
201905051050 METAR ESMX 051050Z 33007KT 280V020 CAVOK 10/M07 Q1011=
201905051020 METAR ESMX 051020Z AUTO 32008KT 270V010 9999 NCD 10/M08 Q1011=
201905050950 METAR ESMX 050950Z AUTO 27007KT 210V320 9999 NCD 10/M06 Q1011=
201905050920 METAR ESMX 050920Z 31008KT 270V330 CAVOK 10/M05 Q1011=
201905050850 METAR ESMX 050850Z 28009KT 230V330 9999 FEW045 09/M03 Q1011=
201905050820 METAR ESMX 050820Z 30008KT 250V330 9999 FEW040 09/M01 Q1011=
201905050750 METAR COR ESMX 050750Z 28007KT 250V320 9999 FEW040 08/00 Q1010=
201905050720 METAR ESMX 050720Z 29006KT 260V340 CAVOK 07/02 Q1010=
201905050650 METAR ESMX 050650Z 24004KT 200V280 CAVOK 06/02 Q1010=
201905050620 METAR ESMX 050620Z 28005KT CAVOK 05/01 Q1010=
201905050550 METAR ESMX 050550Z 27005KT CAVOK 04/03 Q1010=
201905050520 METAR ESMX 050520Z 27005KT CAVOK 03/03 Q1010=
201905050450 METAR ESMX 050450Z AUTO 26004KT 9999 NCD 02/02 Q1010=
201905050420 METAR ESMX 050420Z AUTO 26003KT 9999 NCD M00/M00 Q1010=
201905050350 METAR ESMX 050350Z AUTO 27004KT 9999 NCD M02/M02 Q1009=
201905050320 METAR ESMX 050320Z AUTO 24003KT 9999 NCD M02/M02 Q1009=
201905050250 METAR ESMX 050250Z AUTO 25003KT 9999 NCD M03/M03 Q1009=
201905050220 METAR ESMX 050220Z AUTO 24004KT 9999 NCD M03/M03 Q1009=
201905050150 METAR ESMX 050150Z AUTO 24003KT 9999 NCD M03/M03 Q1009=
201905050120 METAR ESMX 050120Z AUTO 25003KT 9999 NCD M03/M03 Q1009=
201905050050 METAR ESMX 050050Z AUTO 25004KT 9999 NCD M02/M03 Q1008=
201905050020 METAR ESMX 050020Z AUTO 25003KT 9999 NCD M02/M03 Q1008=
201905042350 METAR ESMX 042350Z AUTO 26004KT 9999 NCD M03/M03 Q1008=
201905042320 METAR ESMX 042320Z AUTO 25003KT 9999 NCD M01/M02 Q1008=
201905042250 METAR ESMX 042250Z AUTO 25003KT 9999 NCD M03/M03 Q1008=
201905042220 METAR ESMX 042220Z AUTO VRB02KT 9999 BKN062/// BKN074/// M02/M02 Q1008=
201905042150 METAR ESMX 042150Z AUTO VRB02KT 9999 NCD M03/M03 Q1007=
201905042120 METAR ESMX 042120Z AUTO 25002KT 9999 NCD M02/M04 Q1007=
201905042050 METAR ESMX 042050Z AUTO 27003KT 9999 NCD M02/M02 Q1007=
201905042020 METAR ESMX 042020Z AUTO 24003KT 9999 NCD M02/M03 Q1007=
201905041950 METAR ESMX 041950Z AUTO 17002KT 9999 NCD M00/M03 Q1007=
201905041920 METAR ESMX 041920Z AUTO 17002KT 9999 NCD 01/M02 Q1006=
201905041850 METAR ESMX 041850Z AUTO VRB02KT 9999 NCD 02/M04 Q1006=
201905041820 METAR ESMX 041820Z AUTO 31003KT 9999 NCD 05/M05 Q1006=
201905041750 METAR ESMX 041750Z AUTO 32006KT 9999 SCT070/// 06/M05 Q1005=
201905041720 METAR ESMX 041720Z AUTO 31008KT 9999 FEW086/// 07/M06 Q1005=
201905041650 METAR ESMX 041650Z VRB03KT CAVOK 07/M04 Q1005=
201905041620 METAR ESMX 041620Z VRB02KT 9999 VCSH SCT070CB 06/M00 Q1004=
201905041550 METAR ESMX 041550Z VRB02KT 9999 VCSH SCT072CB 06/M00 Q1004=
201905041520 METAR COR ESMX 041520Z 10003KT 050V120 CAVOK 05/M00 Q1004=
201905041450 METAR ESMX 041450Z 10006KT 060V140 CAVOK 05/M01 Q1003=
201905041420 METAR ESMX 041420Z 14004KT 100V200 9999 FEW047 SCT061 06/01 Q1003=
201905041350 METAR ESMX 041350Z AUTO 09003KT 020V150 9999 -RA FEW005/// SCT034/// BKN055/// 05/02 Q1003 RERA=
201905041320 METAR ESMX 041320Z AUTO 04003KT 350V110 9999 FEW044/// SCT062/// OVC082/// 05/00 Q1003=
201905041250 METAR ESMX 041250Z AUTO 01010KT 9999 -RA FEW015/// BKN027/// OVC042/// 04/04 Q1003 RESHUP RERA=
201905041220 METAR ESMX 041220Z AUTO 34008KT 310V010 9999 FEW032/// SCT055/// BKN068/// 06/01 Q1002=
201905041150 METAR ESMX 041150Z AUTO 36011KT 9999 SCT041/// BKN053/// 05/02 Q1002 RERA RESHUP=
201905041120 METAR ESMX 041120Z AUTO 01013KT 9999 -DZ FEW005/// SCT033/// BKN048/// 03/03 Q1002 RESHUP RERA=
201905041050 METAR ESMX 041050Z AUTO 34012KT 9999 UP FEW001/// BKN017/// BKN057/// 04/04 Q1001 REUP=
201905041020 METAR ESMX 041020Z AUTO 35011KT 9999 FEW009/// SCT013/// OVC053/// 03/03 Q1001 RESHUP RERA=
201905040950 METAR ESMX 040950Z AUTO 35015KT 9999 BKN009/// BKN012/// OVC016/// 03/03 Q1000=
201905040920 METAR ESMX 040920Z AUTO 35011KT 9999 -RA SCT004/// BKN009/// BKN016/// 03/03 Q1000=
201905040850 METAR ESMX 040850Z 35016KT 9999 -RA FEW007 SCT011 BKN016 03/03 Q0999=
201905040820 METAR ESMX 040820Z 32006KT 280V350 9999 -SN BKN006 02/02 Q0999=
201905040750 METAR ESMX 040750Z 31003KT 6000 -SN FEW002 SCT005 BKN007 01/01 Q0999=
201905040720 METAR ESMX 040720Z 31006KT 0800 R01/1300D R19/1200D SN FEW002 BKN006 01/01 Q0998=
201905040650 METAR ESMX 040650Z AUTO 30006KT 9999 FEW005/// SCT011/// OVC015/// 03/03 Q0998=
201905040620 METAR ESMX 040620Z AUTO 28004KT 9999 SCT007/// BKN011/// OVC013/// 02/02 Q0998=
201905040550 METAR ESMX 040550Z AUTO VRB02KT 9999 BKN008/// OVC010/// 02/02 Q0997=
201905040520 METAR ESMX 040520Z AUTO VRB01KT 9999 OVC007/// 01/01 Q0997=
201905040450 METAR ESMX 040450Z AUTO VRB02KT 9999 BKN007/// OVC032/// 01/01 Q0997=
201905040420 METAR ESMX 040420Z AUTO VRB02KT 9999 OVC006/// 01/01 Q0997=
201905040350 METAR ESMX 040350Z AUTO 20004KT 9999 FEW003/// OVC006/// 01/01 Q0997=
201905040320 METAR ESMX 040320Z AUTO 20004KT 9999 BKN002/// OVC005/// 00/00 Q0997=
201905040250 METAR ESMX 040250Z AUTO 17004KT 9999 OVC002/// 00/00 Q0996=
201905040220 METAR ESMX 040220Z AUTO 18004KT 9999 OVC002/// 00/00 Q0996=
201905040150 METAR ESMX 040150Z AUTO 19005KT 9999 OVC001/// 01/01 Q0997 RESHUP=
201905040120 METAR ESMX 040120Z AUTO 18006KT 8000 UP OVC002/// 01/01 Q0997=
201905040050 METAR ESMX 040050Z AUTO 20004KT 2000 -RASN BKN002/// OVC005/// 01/01 Q0997 RESHUP RESN=
201905040020 METAR ESMX 040020Z AUTO 19003KT 8000 SCT001/// BKN003/// BKN009/// 01/01 Q0997=
201905032350 METAR ESMX 032350Z AUTO 19006KT 140V230 2200 -SN BKN004/// BKN006/// OVC008/// 01/01 Q0997 RERA=
201905032320 METAR ESMX 032320Z AUTO VRB01KT 2100 -RA SCT002/// BKN009/// OVC025/// 01/01 Q0997 RESHRA=
201905032250 METAR ESMX 032250Z AUTO 17004KT 9999 -RA SCT011/// BKN019/// OVC088/// 02/02 Q0997 REUP RESHUP=
201905032220 METAR ESMX 032220Z AUTO 17004KT 9999 FEW020/// SCT031/// BKN082/// 02/02 Q0998=
201905032150 METAR ESMX 032150Z AUTO 19004KT 9999 SCT046/// BKN100/// 01/01 Q0998=
201905032120 METAR ESMX 032120Z AUTO 00000KT 9999 FEW029/// SCT041/// 01/01 Q0998=
201905032050 METAR ESMX 032050Z AUTO VRB02KT 9999 BKN026/// OVC031/// 02/02 Q0998=
201905032020 METAR ESMX 032020Z AUTO 19006KT 9999 SCT025/// BKN035/// OVC061/// 02/02 Q0998 RERA=
201905031950 METAR ESMX 031950Z AUTO 21006KT 9999 ///027 02/02 Q0999 RESHUP=
201905031920 METAR ESMX 031920Z AUTO 19009KT 9999 -RA FEW007/// BKN019/// BKN028/// 02/02 Q0999 RESHUP RERA=
201905031850 METAR ESMX 031850Z AUTO 16008KT 9999 -DZ SCT018/// BKN055/// OVC064/// 02/02 Q0999 REDZ REUP=
201905031820 METAR ESMX 031820Z AUTO 18008KT 9999 FEW010/// BKN068/// 03/03 Q0999=
201905031750 METAR ESMX 031750Z AUTO 17007KT 9999 FEW049/// 03/03 Q0999=
201905031720 METAR ESMX 031720Z AUTO 17007KT 9999 SCT057/// 04/04 Q0999=
201905031650 METAR ESMX 031650Z AUTO 17007KT 9999 SCT070/// 03/03 Q0999=
201905031620 METAR ESMX 031620Z 19004KT 160V230 CAVOK 04/04 Q0999=
201905031550 METAR ESMX 031550Z 16005KT 9999 FEW049 03/03 Q0999=
201905031520 METAR ESMX 031520Z 19007KT 5000 -SN FEW009 SCT015 01/01 Q1000=
201905031450 METAR ESMX 031450Z 24005KT 200V270 9999 RASN FEW009 SCT015 03/01 Q1000=
201905031420 METAR ESMX 031420Z 31008KT 280V350 9999 FEW025 05/M01 Q1000=
201905031350 METAR ESMX 031350Z 25008KT 9999 FEW025 BKN076 07/M01 Q0999=
201905031320 METAR ESMX 031320Z 23010G20KT 180V290 9999 -DZ FEW026 SCT064 06/M01 Q1000=
201905031250 METAR ESMX 031250Z 21007KT 9999 SCT048 06/01 Q1000=
201905031220 METAR ESMX 031220Z 30010KT 9999 SCT013 BKN061 04/04 Q1001=
201905031150 METAR ESMX 031150Z 30009KT 260V340 9999 -SHRASN SCT007 BKN022 03/03 Q1001=
201905031120 METAR ESMX 031120Z 26008KT 220V290 9999 -SHRAGS BKN010 05/M01 Q1001=
201905031050 METAR ESMX 031050Z 21018KT 9999 BKN025CB 06/M07 Q1000=
201905031020 METAR COR ESMX 031020Z 28009KT 9999 BKN050CB 08/M06 Q0999=
201905030950 METAR ESMX 030950Z 30010KT 250V350 CAVOK 08/M07 Q1000=
201905030920 METAR ESMX 030920Z 27011KT 240V310 CAVOK 08/M07 Q1000=
201905030850 METAR ESMX 030850Z 29009KT 240V330 9999 SCT047 08/M05 Q1000=
201905030820 METAR ESMX 030820Z 26009KT 220V290 9999 SCT042 07/M05 Q1000=
201905030750 METAR ESMX 030750Z 27010KT 230V300 9999 FEW035 07/M03 Q1000=
201905030720 METAR ESMX 030720Z 27010KT 9999 FEW029 06/M02 Q1000=
201905030650 METAR ESMX 030650Z AUTO 26006KT 220V320 9999 NCD 05/M01 Q1000=
201905030620 METAR ESMX 030620Z AUTO 25005KT 230V290 9999 NCD 04/M01 Q1000=
201905030550 METAR ESMX 030550Z AUTO 24004KT 210V280 9999 NCD 03/01 Q1000=
201905030520 METAR ESMX 030520Z AUTO 27005KT 9999 NCD 02/01 Q1000=
201905030450 METAR ESMX 030450Z AUTO 25005KT 9999 NCD 01/01 Q1000=
201905030420 METAR ESMX 030420Z AUTO 25005KT 9999 NCD M01/M01 Q0999=
201905030350 METAR ESMX 030350Z AUTO 25005KT 9999 NCD M03/M03 Q0999=
201905030320 METAR ESMX 030320Z AUTO 25003KT 9999 NCD M02/M02 Q0999=
201905030250 METAR ESMX 030250Z AUTO 17003KT 160V240 9999 NCD M02/M02 Q0998=
201905030220 METAR ESMX 030220Z AUTO 24002KT 9999 NCD M02/M02 Q0998=
201905030150 METAR ESMX 030150Z AUTO 28004KT 9999 NCD M02/M02 Q0998=
201905030120 METAR ESMX 030120Z AUTO 29003KT 9999 NCD M01/M01 Q0998=
201905030050 METAR ESMX 030050Z AUTO 29004KT 9999 NCD M01/M01 Q0998=
201905030020 METAR ESMX 030020Z AUTO 30005KT 9999 NCD M00/M00 Q0997=
201905022350 METAR ESMX 022350Z AUTO 32005KT 9999 NCD 00/M01 Q0997=
201905022320 METAR ESMX 022320Z AUTO 31006KT 9999 NCD 01/M02 Q0997=
201905022250 METAR ESMX 022250Z AUTO 31007KT 9999 NCD 02/M02 Q0997=
201905022220 METAR ESMX 022220Z AUTO 30007KT 9999 NCD 02/M02 Q0996=
201905022150 METAR ESMX 022150Z AUTO 32008KT 9999 FEW072/// 03/M02 Q0996=
201905022120 METAR ESMX 022120Z AUTO 29004KT 9999 FEW082/// 02/M01 Q0996=
201905022050 METAR ESMX 022050Z AUTO 30003KT 9999 BKN086/// 03/M01 Q0995=
201905022020 METAR ESMX 022020Z AUTO 27005KT 9999 FEW098/// SCT110/// 03/M01 Q0995=
201905021950 METAR ESMX 021950Z AUTO 27006KT 9999 SCT100/// 04/M01 Q0995=
201905021920 METAR ESMX 021920Z AUTO 26007KT 9999 NCD 04/M01 Q0995=
201905021850 METAR ESMX 021850Z AUTO 26005KT 9999 NCD 04/M01 Q0994=
201905021820 METAR ESMX 021820Z AUTO 24006KT 9999 FEW080/// 05/M02 Q0994=
201905021750 METAR ESMX 021750Z 27010KT 9999 FEW045 06/M03 Q0994=
201905021720 METAR ESMX 021720Z 26008KT 230V290 9999 FEW020 SCT058 07/M02 Q0994=
201905021650 METAR ESMX 021650Z 27008KT 250V320 9999 FEW020 SCT035 07/M02 Q0993=
201905021620 METAR COR ESMX 021620Z 28011KT 9999 FEW010 SCT035 BKN055 08/M03 Q0993=
201905021550 METAR ESMX 021550Z 31013KT 280V340 9999 VCSH FEW034CB BKN057 08/M04 Q0993=
201905021520 METAR COR ESMX 021520Z 32011KT 290V350 9999 VCSH FEW040CB BKN075 09/M04 Q0992=
201905021450 METAR ESMX 021450Z 34012KT 300V010 CAVOK 11/M03 Q0992=
201905021420 METAR ESMX 021420Z 28013KT CAVOK 11/M03 Q0992=
201905021350 METAR ESMX 021350Z 30013KT 260V350 9999 SCT038 10/M01 Q0992=
201905021320 METAR ESMX 021320Z 29013KT 260V320 9999 SCT032 10/01 Q0992=
201905021250 METAR ESMX 021250Z 31014KT 9999 -RA SCT022CB 08/03 Q0992=
201905021220 METAR ESMX 021220Z 28010KT 250V320 9999 VCSH BKN018CB 08/07 Q0991=
201905021150 METAR ESMX 021150Z 29009KT 250V330 9999 BKN014 07/06 Q0991=
201905021120 METAR ESMX 021120Z 29008KT 260V320 9999 VCSH SCT010 BKN030 06/06 Q0991=
201905021050 METAR ESMX 021050Z 33010KT 9999 -RA VCSH BKN009 05/05 Q0991 RESHRA=
201905021020 METAR ESMX 021020Z 34017G31KT 270V010 3500 SHRA BKN018CB 04/04 Q0991=
201905020950 METAR ESMX 020950Z 24016KT 200V270 9999 BKN025 11/05 Q0989=
201905020920 METAR COR ESMX 020920Z 26015G26KT 220V300 9999 BKN024 10/04 Q0989=
201905020850 METAR ESMX 020850Z 23016KT 200V270 9999 BKN026 11/04 Q0989=
201905020820 METAR ESMX 020820Z 25015G26KT 9999 BKN029 10/04 Q0990=
201905020750 METAR ESMX 020750Z 26014KT 230V300 9999 BKN028 10/04 Q0990=
201905020720 METAR ESMX 020720Z 26013KT 230V290 9999 BKN027 10/04 Q0990=
201905020650 METAR ESMX 020650Z 26013KT 220V290 9999 BKN022 09/05 Q0990=
201905020620 METAR ESMX 020620Z 26013KT 230V290 9999 BKN020 09/07 Q0990=
201905020550 METAR ESMX 020550Z AUTO 26013KT 9999 BKN018/// OVC023/// 09/07 Q0990=
201905020520 METAR ESMX 020520Z 26012KT 9999 BKN016 09/08 Q0991=
201905020450 METAR ESMX 020450Z 25010KT 9999 BKN015 09/08 Q0991=
201905020420 METAR ESMX 020420Z 25010KT 9999 BKN011 09/09 Q0991=
201905020350 METAR ESMX 020350Z 25010KT 210V280 9999 BKN007 08/08 Q0991=
201905020320 METAR ESMX 020320Z AUTO 25012KT 9999 OVC005/// 08/08 Q0992=
201905020250 METAR ESMX 020250Z AUTO 24010KT 210V270 7000 BR OVC004/// 08/08 Q0992=
201905020220 METAR ESMX 020220Z AUTO 25010KT 210V280 8000 BR OVC004/// 08/08 Q0992=
201905020150 METAR ESMX 020150Z AUTO 25011KT 5000 BR OVC005/// 08/08 Q0993=
201905020120 METAR ESMX 020120Z AUTO 24011KT 6000 BR OVC006/// 08/08 Q0994=
201905020050 METAR ESMX 020050Z AUTO 26011KT 210V300 9000 OVC006/// 08/08 Q0995=
201905020020 METAR ESMX 020020Z AUTO 24011KT 210V270 9999 OVC007/// 08/08 Q0995=
201905012350 METAR ESMX 012350Z AUTO 25013KT 220V280 9999 OVC007/// 08/08 Q0996=
201905012320 METAR ESMX 012320Z AUTO 25011KT 220V280 9999 OVC008/// 09/09 Q0996=
201905012250 METAR ESMX 012250Z AUTO 25010KT 9999 SCT007/// OVC013/// 09/09 Q0997=
201905012220 METAR ESMX 012220Z AUTO 26010KT 230V290 9999 OVC013/// 10/07 Q0997=
201905012150 METAR ESMX 012150Z AUTO 25008KT 220V280 9999 OVC013/// 10/08 Q0998=
201905012120 METAR ESMX 012120Z AUTO 24011KT 200V280 9999 OVC014/// 10/07 Q0998=
201905012050 METAR ESMX 012050Z AUTO 26010KT 230V290 9999 FEW017/// BKN023/// OVC028/// 10/07 Q0998=
201905012020 METAR ESMX 012020Z AUTO 25012KT 210V280 9999 OVC029/// 11/08 Q0999=
201905011950 METAR ESMX 011950Z AUTO 26010KT 220V290 9999 SCT017/// OVC027/// 11/07 Q0999=
201905011920 METAR ESMX 011920Z AUTO 26011KT 9999 FEW014/// OVC023/// 11/08 Q0999=
201905011850 METAR ESMX 011850Z AUTO 25010KT 220V280 9999 BKN014/// OVC074/// 11/11 Q1000=
201905011820 METAR ESMX 011820Z AUTO 25010KT 9999 BKN015/// OVC028/// 11/11 Q1000=
201905011750 METAR ESMX 011750Z AUTO 25009KT 220V280 9999 OVC014/// 11/11 Q1000=
201905011720 METAR ESMX 011720Z AUTO 25007KT 210V280 9999 BKN013/// OVC016/// 11/11 Q1001=
201905011650 METAR ESMX 011650Z AUTO 26007KT 9999 OVC013/// 11/11 Q1001=
201905011620 METAR ESMX 011620Z AUTO 26006KT 9999 OVC013/// 11/11 Q1002=
201905011550 METAR ESMX 011550Z AUTO 26008KT 220V300 9999 OVC011/// 11/11 Q1002=
201905011520 METAR ESMX 011520Z AUTO 27009KT 9999 OVC009/// 11/11 Q1002=
201905011450 METAR ESMX 011450Z AUTO 26010KT 230V290 9999 OVC008/// 10/10 Q1003=
201905011420 METAR ESMX 011420Z AUTO 26010KT 9999 OVC007/// 10/10 Q1003=
201905011350 METAR ESMX 011350Z AUTO 26009KT 220V290 9000 BR OVC007/// 10/10 Q1004=
201905011320 METAR ESMX 011320Z 26010KT 9999 OVC006 10/10 Q1004=
201905011250 METAR ESMX 011250Z 24010KT 9999 OVC006 10/10 Q1004=
201905011220 METAR ESMX 011220Z 24008KT 170V280 9999 OVC007 10/10 Q1005=
