##########################################################
# Query made at 04/19/2024 22:07:41 UTC
# Time interval: from 03/01/2019 12:00  to 03/31/2019 12:59  UTC
##########################################################

##########################################################
# ESMX, Vaxjo (Sweden)
# WMO index: 02641. WIGOS ID: 0-20000-0-02648
# Latitude 56-51N. Longitude 014-50E. Altitude 199 m.
##########################################################

201903311250 METAR ESMX 311250Z 31013KT 270V340 CAVOK 09/M10 Q1018=
201903311220 METAR ESMX 311220Z 31013KT 270V350 CAVOK 08/M08 Q1018=
201903311150 METAR ESMX 311150Z 33014KT CAVOK 06/M08 Q1018=
201903311120 METAR ESMX 311120Z 33014KT 9999 SCT038 06/M05 Q1018=
201903311050 METAR ESMX 311050Z 32015G25KT 280V350 9999 SCT036 06/M04 Q1017=
201903311020 METAR COR ESMX 311020Z 33014KT 9999 BKN036 05/M03 Q1017=
201903310950 METAR ESMX 310950Z AUTO 32017KT 9999 OVC038/// 05/M04 Q1016=
201903310920 METAR ESMX 310920Z AUTO 30017KT 9999 OVC039/// 05/M04 Q1015=
201903310850 METAR ESMX 310850Z 31015KT 260V340 9999 BKN038 05/M04 Q1015=
201903310820 METAR ESMX 310820Z 30017KT 9999 BKN038 05/M04 Q1014=
201903310750 METAR ESMX 310750Z 30015KT 260V330 9999 FEW035 05/M04 Q1013=
201903310720 METAR ESMX 310720Z 29016KT 9999 FEW033 05/M03 Q1012=
201903310650 METAR COR ESMX 310650Z 28013KT 240V320 9999 FEW030 05/M03 Q1012=
201903310620 METAR ESMX 310620Z 27014G24KT 240V320 9999 BKN030 04/M02 Q1012=
201903310550 METAR ESMX 310550Z 27012KT 9999 BKN033 04/M01 Q1011=
201903310520 METAR COR ESMX 310520Z 28011KT 250V320 9999 BKN027 04/M01 Q1011=
201903310450 METAR ESMX 310450Z AUTO 28013KT 250V310 9999 OVC029/// 04/M02 Q1011=
201903310420 METAR ESMX 310420Z AUTO 27011KT 240V300 9999 OVC031/// 04/M01 Q1010=
201903310350 METAR ESMX 310350Z AUTO 27013KT 9999 BKN033/// 04/M01 Q1010=
201903310320 METAR ESMX 310320Z AUTO 26010KT 9999 BKN034/// 04/M00 Q1010=
201903310250 METAR ESMX 310250Z AUTO 27011KT 9999 SCT025/// BKN032/// 04/00 Q1010=
201903310220 METAR ESMX 310220Z AUTO 26011KT 230V290 9999 BKN021/// OVC028/// 04/01 Q1010=
201903310150 METAR ESMX 310150Z AUTO 26010KT 9999 BKN020/// 04/01 Q1010=
201903310120 METAR ESMX 310120Z AUTO 26009KT 9999 BKN024/// 04/00 Q1010=
201903310050 METAR ESMX 310050Z AUTO 25010KT 210V280 9999 SCT026/// 05/00 Q1011=
201903310020 METAR ESMX 310020Z AUTO 27011KT 9999 SCT023/// BKN030/// 05/01 Q1010=
201903302350 METAR ESMX 302350Z AUTO 26014KT 9999 FEW025/// SCT033/// 06/01 Q1010=
201903302320 METAR ESMX 302320Z AUTO 26013KT 9999 SCT020/// BKN029/// 07/03 Q1010=
201903302250 METAR ESMX 302250Z 26013KT 9999 BKN024 07/03 Q1010=
201903302220 METAR ESMX 302220Z 26014KT 9999 BKN018 07/04 Q1010=
201903302150 METAR ESMX 302150Z 25013KT 220V280 9999 BKN015 07/04 Q1010=
201903302120 METAR ESMX 302120Z AUTO 24011KT 200V270 9999 FEW018/// 07/04 Q1010=
201903302050 METAR ESMX 302050Z AUTO 25010KT 210V270 9999 NCD 07/04 Q1010=
201903302020 METAR ESMX 302020Z AUTO 25011G22KT 220V280 9999 FEW024/// SCT051/// 08/04 Q1011=
201903301950 METAR ESMX 301950Z AUTO 26012KT 230V290 9999 BKN034/// OVC051/// 09/03 Q1011=
201903301920 METAR ESMX 301920Z AUTO 25014KT 210V280 9000 BKN025/// OVC030/// 10/05 Q1011=
201903301850 METAR ESMX 301850Z AUTO 24012KT 9999 BKN029/// OVC038/// 10/05 Q1011=
201903301820 METAR ESMX 301820Z AUTO 21011KT 9999 FEW031/// BKN045/// 10/05 Q1011=
201903301750 METAR ESMX 301750Z AUTO 22010KT 9999 SCT030/// BKN043/// 10/05 Q1011=
201903301720 METAR ESMX 301720Z AUTO 22010KT 9999 FEW028/// SCT044/// 10/05 Q1011=
201903301650 METAR ESMX 301650Z AUTO 22009KT 190V260 9999 OVC037/// 10/04 Q1012=
201903301620 METAR ESMX 301620Z AUTO 24010KT 9999 BKN036/// 11/04 Q1012=
201903301550 METAR ESMX 301550Z AUTO 23013KT 9999 NCD 11/03 Q1013=
201903301520 METAR ESMX 301520Z AUTO 24012KT 210V270 9999 NCD 12/03 Q1013=
201903301450 METAR ESMX 301450Z AUTO 24010KT 200V270 9999 NCD 12/03 Q1013=
201903301420 METAR ESMX 301420Z AUTO 23012G22KT 200V280 9999 NCD 11/03 Q1014=
201903301350 METAR ESMX 301350Z AUTO 22016G27KT 9999 NCD 12/01 Q1014=
201903301320 METAR ESMX 301320Z AUTO 24013KT 9999 NCD 12/00 Q1014=
201903301250 METAR ESMX 301250Z 25015KT CAVOK 12/M00 Q1015=
201903301220 METAR ESMX 301220Z 23012KT CAVOK 13/02 Q1015=
201903301150 METAR ESMX 301150Z 23013KT 200V270 9999 FEW025 11/02 Q1016=
201903301120 METAR ESMX 301120Z 24011KT 210V280 9999 FEW025 11/04 Q1016=
201903301050 METAR ESMX 301050Z 22012KT 9999 SCT022 09/04 Q1017=
201903301020 METAR COR ESMX 301020Z 23013KT 9999 SCT019 10/04 Q1017=
201903300950 METAR ESMX 300950Z 26010KT 210V290 9999 SCT015 08/04 Q1017=
201903300920 METAR ESMX 300920Z 23013KT 9999 BKN014 08/06 Q1017=
201903300850 METAR ESMX 300850Z 23010KT 9999 BKN013 07/06 Q1017=
201903300820 METAR COR ESMX 300820Z 22011KT 9999 BKN012 07/06 Q1018=
201903300750 METAR ESMX 300750Z AUTO 24010KT 210V280 9999 OVC011/// 06/06 Q1018=
201903300720 METAR ESMX 300720Z AUTO 24010KT 210V270 9999 OVC011/// 06/06 Q1018=
201903300650 METAR ESMX 300650Z AUTO 25009KT 220V280 9999 OVC011/// 05/05 Q1018=
201903300620 METAR ESMX 300620Z AUTO 25010KT 9999 OVC010/// 05/05 Q1018=
201903300550 METAR ESMX 300550Z AUTO 26007KT 9999 OVC010/// 05/05 Q1018=
201903300520 METAR ESMX 300520Z AUTO 27009KT 240V300 9999 OVC010/// 05/05 Q1018=
201903300450 METAR ESMX 300450Z AUTO 23008KT 9000 BR OVC010/// 05/05 Q1018=
201903300420 METAR ESMX 300420Z AUTO 26010KT 210V280 8000 BR OVC010/// 05/05 Q1018=
201903300350 METAR ESMX 300350Z AUTO 26008KT 8000 BR OVC010/// 05/05 Q1018=
201903300320 METAR ESMX 300320Z AUTO 25008KT 210V290 8000 BR OVC010/// 05/05 Q1018=
201903300250 METAR ESMX 300250Z AUTO 25010KT 230V290 7000 BR OVC009/// 05/05 Q1019=
201903300220 METAR ESMX 300220Z AUTO 24009KT 200V280 6000 BR OVC008/// 05/05 Q1019=
201903300150 METAR ESMX 300150Z AUTO 23007KT 6000 BR OVC008/// 05/05 Q1019=
201903300120 METAR ESMX 300120Z AUTO 22006KT 7000 BR VV009 04/04 Q1019=
201903300050 METAR ESMX 300050Z AUTO 22007KT 9000 BR NCD 04/04 Q1019=
201903300020 METAR ESMX 300020Z AUTO 24007KT 9999 NCD 05/05 Q1019=
201903292350 METAR ESMX 292350Z AUTO 23008KT 9999 NCD 05/03 Q1020=
201903292320 METAR ESMX 292320Z AUTO 24009KT 9999 NCD 05/03 Q1020=
201903292250 METAR ESMX 292250Z AUTO 23007KT 9999 NCD 05/04 Q1020=
201903292220 METAR ESMX 292220Z AUTO 22007KT 9999 NCD 06/04 Q1020=
201903292150 METAR ESMX 292150Z AUTO 22008KT 9999 NCD 06/04 Q1020=
201903292120 METAR ESMX 292120Z AUTO 23009KT 9999 NCD 06/04 Q1020=
201903292050 METAR ESMX 292050Z AUTO 23009KT 9999 NCD 06/04 Q1020=
201903292020 METAR ESMX 292020Z 24009KT CAVOK 07/05 Q1020=
201903291950 METAR ESMX 291950Z 23009KT CAVOK 07/05 Q1020=
201903291920 METAR ESMX 291920Z AUTO 23008KT 9999 NCD 08/05 Q1020=
201903291850 METAR ESMX 291850Z 23009KT CAVOK 08/05 Q1020=
201903291820 METAR ESMX 291820Z 22008KT CAVOK 08/04 Q1021=
201903291750 METAR ESMX 291750Z 24010KT CAVOK 09/04 Q1020=
201903291720 METAR ESMX 291720Z 23010KT 200V270 CAVOK 10/04 Q1020=
201903291650 METAR ESMX 291650Z 25013KT CAVOK 10/03 Q1020=
201903291620 METAR ESMX 291620Z 25013KT 210V280 CAVOK 11/04 Q1020=
201903291550 METAR ESMX 291550Z 25014KT CAVOK 11/04 Q1020=
201903291520 METAR ESMX 291520Z 25015KT 210V280 9999 FEW030 11/04 Q1021=
201903291450 METAR ESMX 291450Z 26015KT 220V280 9999 FEW030 11/04 Q1021=
201903291420 METAR ESMX 291420Z 23016G26KT 9999 FEW029 11/04 Q1021=
201903291350 METAR ESMX 291350Z 23016KT 9999 FEW030 11/04 Q1022=
201903291320 METAR ESMX 291320Z 25017G29KT 9999 FEW027 11/04 Q1022=
201903291250 METAR ESMX 291250Z 26017KT 9999 FEW026 11/04 Q1022=
201903291220 METAR ESMX 291220Z 24017KT 9999 SCT027 10/04 Q1023=
201903291150 METAR ESMX 291150Z 26019KT 9999 SCT024 11/04 Q1023=
201903291120 METAR ESMX 291120Z 24017KT 210V280 9999 BKN024 10/04 Q1023=
201903291050 METAR ESMX 291050Z 25019KT 9999 BKN023 11/05 Q1023=
201903291020 METAR ESMX 291020Z 26019KT 9999 BKN023 10/04 Q1023=
201903290950 METAR ESMX 290950Z 25017KT 9999 BKN022 10/05 Q1023=
201903290920 METAR ESMX 290920Z 25016G26KT 9999 BKN021 10/05 Q1023=
201903290850 METAR ESMX 290850Z 25016G27KT 9999 BKN022 09/05 Q1023=
201903290820 METAR COR ESMX 290820Z 26016KT 9999 BKN024 09/05 Q1023=
201903290750 METAR ESMX 290750Z 25014KT 220V280 9999 FEW027 08/05 Q1024=
201903290720 METAR ESMX 290720Z 25013KT 9999 FEW018 BKN026 07/07 Q1024=
201903290650 METAR ESMX 290650Z 26012KT 9999 FEW017 OVC024 07/07 Q1024=
201903290620 METAR ESMX 290620Z 25011KT 9999 FEW014 OVC024 06/06 Q1024=
201903290550 METAR ESMX 290550Z 23010KT 9999 SCT012 OVC024 06/06 Q1024=
201903290520 METAR ESMX 290520Z 23009KT 200V270 9999 SCT011 OVC024 05/05 Q1025=
201903290450 METAR ESMX 290450Z AUTO 24010KT 210V290 9999 BKN013/// 05/05 Q1025=
201903290420 METAR ESMX 290420Z AUTO 24009KT 9999 NCD 05/05 Q1025=
201903290350 METAR ESMX 290350Z AUTO 25010KT 9999 NCD 06/06 Q1025=
201903290320 METAR ESMX 290320Z AUTO 25012KT 9999 NCD 06/06 Q1025=
201903290250 METAR ESMX 290250Z AUTO 26010KT 9999 NCD 06/06 Q1025=
201903290220 METAR ESMX 290220Z AUTO 26010KT 9999 NCD 06/06 Q1025=
201903290150 METAR ESMX 290150Z AUTO 26011KT 9999 NCD 06/06 Q1025=
201903290120 METAR ESMX 290120Z AUTO 26010KT 9999 NCD 06/06 Q1025=
201903290050 METAR ESMX 290050Z AUTO 26009KT 9999 NCD 07/07 Q1025=
201903290020 METAR ESMX 290020Z AUTO 25009KT 9999 NCD 07/07 Q1025=
201903282350 METAR ESMX 282350Z AUTO 25009KT 210V280 9999 NCD 07/07 Q1026=
201903282320 METAR ESMX 282320Z AUTO 26010KT 230V290 9999 NCD 07/07 Q1026=
201903282250 METAR ESMX 282250Z AUTO 26009KT 9999 NCD 07/07 Q1026=
201903282220 METAR ESMX 282220Z AUTO 26010KT 9999 NCD 07/07 Q1026=
201903282150 METAR ESMX 282150Z 26010KT CAVOK 07/07 Q1026=
201903282120 METAR ESMX 282120Z 26009KT CAVOK 07/07 Q1026=
201903282050 METAR ESMX 282050Z 25009KT CAVOK 07/07 Q1026=
201903282020 METAR ESMX 282020Z 25006KT 9999 FEW010 06/06 Q1026=
201903281950 METAR ESMX 281950Z 25007KT 210V290 9999 FEW010 07/07 Q1027=
201903281920 METAR ESMX 281920Z 23005KT 190V270 9999 FEW010 07/07 Q1027=
201903281850 METAR ESMX 281850Z 25008KT 220V290 9999 FEW012 08/08 Q1027=
201903281820 METAR ESMX 281820Z 25008KT 9999 FEW024 08/08 Q1026=
201903281750 METAR ESMX 281750Z 24008KT 9999 FEW027 08/06 Q1027=
201903281720 METAR ESMX 281720Z 25008KT 9999 FEW026 10/06 Q1027=
201903281650 METAR ESMX 281650Z 25009KT 9999 BKN026 10/06 Q1027=
201903281620 METAR ESMX 281620Z 25010KT 210V280 9999 SCT022 10/05 Q1027=
201903281550 METAR ESMX 281550Z 27012KT CAVOK 11/05 Q1027=
201903281520 METAR ESMX 281520Z 25010KT CAVOK 12/05 Q1026=
201903281450 METAR ESMX 281450Z 26011KT 230V310 CAVOK 13/05 Q1026=
201903281420 METAR ESMX 281420Z 25009KT 210V290 CAVOK 13/05 Q1026=
201903281350 METAR ESMX 281350Z 23008KT 210V270 CAVOK 13/05 Q1026=
201903281320 METAR ESMX 281320Z 24009KT 200V270 CAVOK 12/05 Q1027=
201903281250 METAR ESMX 281250Z 23007KT 190V280 CAVOK 11/05 Q1027=
201903281220 METAR ESMX 281220Z 22008KT 170V270 9999 FEW013 10/07 Q1027=
201903281150 METAR ESMX 281150Z 22008KT 180V250 9999 BKN012 09/08 Q1028=
201903281120 METAR ESMX 281120Z 22008KT 9999 BKN010 07/07 Q1028=
201903281050 METAR ESMX 281050Z 25006KT 220V290 9999 OVC006 07/07 Q1028=
201903281020 METAR ESMX 281020Z 24006KT 200V270 9999 OVC004 06/06 Q1028=
201903280950 METAR ESMX 280950Z 22007KT 9999 OVC003 05/05 Q1028=
201903280920 METAR ESMX 280920Z 25006KT 210V280 6000 OVC002 04/04 Q1028=
201903280850 METAR ESMX 280850Z 25005KT 210V280 0800 R01/1000N R19/1000N FG OVC001 03/03 Q1028=
201903280820 METAR ESMX 280820Z 24006KT 0550 R01/0750N R19/1000U FG OVC001 02/02 Q1028=
201903280750 METAR ESMX 280750Z 24005KT 0300 R01/0500N R19/0500N FG OVC001 01/01 Q1027=
201903280720 METAR ESMX 280720Z 24005KT 0200 R01/0400N R19/0450N FG OVC001 01/01 Q1027=
201903280650 METAR ESMX 280650Z 23004KT 0200 R01/0400N R19/0450N FG OVC001 01/01 Q1027=
201903280620 METAR ESMX 280620Z 26005KT 0200 R01/0450N R19/0550N FG OVC001 00/00 Q1027=
201903280550 METAR ESMX 280550Z 26004KT 220V280 0350 R01/0600N R19/P2000N FZFG SCT001 BKN003 M00/M00 Q1027=
201903280520 METAR ESMX 280520Z 25002KT CAVOK M02/M02 Q1027=
201903280450 METAR ESMX 280450Z 26004KT CAVOK M02/M02 Q1026=
201903280420 METAR ESMX 280420Z AUTO VRB02KT 4000 NCD M01/M01 Q1026=
201903280350 METAR ESMX 280350Z AUTO VRB03KT 9999 NCD M02/M02 Q1026=
201903280320 METAR ESMX 280320Z AUTO 20002KT 0300 R01/1800N R19/1000U FZFG NCD M02/M02 Q1026=
201903280250 METAR ESMX 280250Z AUTO 00000KT 0150 R01/P2000N R19/0450N FZFG NCD M01/M01 Q1026=
201903280220 METAR ESMX 280220Z AUTO VRB01KT 0400 R01/P2000N R19/P2000N NCD 00/00 Q1026=
201903280150 METAR ESMX 280150Z AUTO 23003KT 5000 BR NCD M02/M02 Q1025=
201903280120 METAR ESMX 280120Z AUTO 24004KT 9999 NCD M01/M01 Q1025=
201903280050 METAR ESMX 280050Z AUTO 21003KT 0300 R01/P2000N R19/0900U NCD M00/M00 Q1025=
201903280020 METAR ESMX 280020Z AUTO 20003KT 0700 R01/P2000N R19/1600U NCD 00/00 Q1025=
201903272350 METAR ESMX 272350Z AUTO 00000KT 0200 R01/P2000N R19/0600U BR NCD 01/01 Q1025=
201903272320 METAR ESMX 272320Z AUTO VRB03KT 1200 R01/P2000N R19/P2000N NCD 02/02 Q1025=
201903272250 METAR ESMX 272250Z AUTO 23003KT 9999 FEW180/// 03/03 Q1025=
201903272220 METAR ESMX 272220Z AUTO 18003KT 9999 FEW180/// 02/02 Q1024=
201903272150 METAR ESMX 272150Z 25003KT CAVOK 03/03 Q1024=
201903272120 METAR ESMX 272120Z 22003KT CAVOK 02/02 Q1024=
201903272050 METAR ESMX 272050Z 21002KT CAVOK 03/03 Q1024=
201903272020 METAR ESMX 272020Z 23004KT CAVOK 03/03 Q1023=
201903271950 METAR ESMX 271950Z AUTO 23004KT 9999 NCD 03/03 Q1023=
201903271920 METAR ESMX 271920Z 25003KT CAVOK 04/04 Q1023=
201903271850 METAR ESMX 271850Z 24003KT CAVOK 04/04 Q1023=
201903271820 METAR ESMX 271820Z 25003KT CAVOK 04/04 Q1023=
201903271750 METAR ESMX 271750Z 25004KT 230V290 CAVOK 07/07 Q1022=
201903271720 METAR ESMX 271720Z 27004KT CAVOK 08/07 Q1022=
201903271650 METAR ESMX 271650Z 26006KT CAVOK 08/06 Q1022=
201903271620 METAR ESMX 271620Z 25008KT 9999 SCT040 08/07 Q1021=
201903271550 METAR ESMX 271550Z 27008KT 9999 FEW023 BKN039 09/06 Q1021=
201903271520 METAR ESMX 271520Z 26008KT 9999 FEW020 BKN038 10/06 Q1021=
201903271450 METAR ESMX 271450Z 27008KT 230V300 9999 FEW023 BKN038 10/06 Q1021=
201903271420 METAR ESMX 271420Z 26006KT 220V280 9999 FEW022 BKN035 10/06 Q1021=
201903271350 METAR ESMX 271350Z 28006KT 9999 FEW019 BKN027 09/05 Q1021=
201903271320 METAR ESMX 271320Z 26008KT 9999 BKN023 09/08 Q1021=
201903271250 METAR ESMX 271250Z 27008KT 9999 FEW017 BKN021 09/06 Q1020=
201903271220 METAR ESMX 271220Z 27008KT 230V290 9999 BKN014 09/08 Q1021=
201903271150 METAR ESMX 271150Z 27008KT 9999 SCT012 BKN018 09/09 Q1020=
201903271120 METAR ESMX 271120Z 26008KT 9999 BKN012 08/08 Q1020=
201903271050 METAR ESMX 271050Z 26008KT 220V290 9999 SCT011 BKN014 08/08 Q1020=
201903271020 METAR ESMX 271020Z 29009KT 260V330 9999 SCT008 OVC011 08/08 Q1020=
201903270950 METAR ESMX 270950Z 29008KT 240V320 9999 FEW005 SCT008 BKN009 07/07 Q1020=
201903270920 METAR ESMX 270920Z 27008KT 9999 FEW005 BKN008 07/07 Q1020=
201903270850 METAR ESMX 270850Z 26008KT 6000 BR FEW002 BKN005 07/07 Q1020=
201903270820 METAR ESMX 270820Z 27007KT 240V300 6000 BR FEW002 BKN004 06/06 Q1020=
201903270750 METAR ESMX 270750Z 23006KT 200V260 3800 BR OVC002 05/05 Q1020=
201903270720 METAR ESMX 270720Z 21006KT 3500 BR OVC002 05/05 Q1019=
201903270650 METAR COR ESMX 270650Z 20006KT 4000 BR OVC002 04/04 Q1020=
201903270620 METAR ESMX 270620Z 20006KT 160V230 2000 -DZ OVC002 04/04 Q1020=
201903270550 METAR ESMX 270550Z 21006KT 3800 BR OVC002 03/03 Q1020=
201903270520 METAR COR ESMX 270520Z 21007KT 3200 BR OVC002 03/03 Q1020=
201903270450 METAR ESMX 270450Z 20006KT 3500 -DZ OVC002 03/03 Q1020=
201903270420 METAR ESMX 270420Z AUTO 18006KT 3100 BR OVC002/// 02/02 Q1020 REUP=
201903270350 METAR ESMX 270350Z AUTO 18006KT 2500 BR OVC002/// 02/02 Q1020=
201903270320 METAR ESMX 270320Z AUTO 19005KT 2600 BR OVC002/// 02/02 Q1020=
201903270250 METAR ESMX 270250Z AUTO 21006KT 9000 FEW002/// OVC004/// 02/02 Q1020=
201903270220 METAR ESMX 270220Z AUTO 23006KT 9999 OVC006/// 02/02 Q1020=
201903270150 METAR ESMX 270150Z AUTO 23007KT 9999 SCT006/// BKN009/// OVC030/// 01/M01 Q1020=
201903270120 METAR ESMX 270120Z AUTO 22006KT 9999 SCT010/// OVC040/// 00/M03 Q1020=
201903270050 METAR ESMX 270050Z AUTO 22005KT 9999 BKN046/// OVC066/// M00/M03 Q1021=
201903270020 METAR ESMX 270020Z 21005KT CAVOK M00/M04 Q1021=
201903262350 METAR ESMX 262350Z 22004KT CAVOK M02/M04 Q1021=
201903262320 METAR ESMX 262320Z 23005KT CAVOK M01/M05 Q1021=
201903262250 METAR ESMX 262250Z AUTO 23005KT 9999 NCD M02/M05 Q1021=
201903262220 METAR ESMX 262220Z AUTO 22004KT 9999 NCD M02/M06 Q1021=
201903262150 METAR ESMX 262150Z 23004KT CAVOK M01/M06 Q1021=
201903262120 METAR ESMX 262120Z 23005KT CAVOK M01/M06 Q1021=
201903262050 METAR ESMX 262050Z 21003KT CAVOK M02/M05 Q1020=
201903262020 METAR ESMX 262020Z 25003KT CAVOK M01/M06 Q1020=
201903261950 METAR ESMX 261950Z 25004KT CAVOK 00/M06 Q1020=
201903261920 METAR ESMX 261920Z 25004KT CAVOK 00/M05 Q1020=
201903261850 METAR ESMX 261850Z 26003KT CAVOK 00/M05 Q1020=
201903261820 METAR ESMX 261820Z 26003KT CAVOK 01/M05 Q1020=
201903261750 METAR ESMX 261750Z 25004KT CAVOK 02/M06 Q1020=
201903261720 METAR ESMX 261720Z 27004KT CAVOK 02/M07 Q1019=
201903261650 METAR ESMX 261650Z 30003KT CAVOK 04/M08 Q1019=
201903261620 METAR ESMX 261620Z 30006KT CAVOK 05/M08 Q1019=
201903261550 METAR ESMX 261550Z 31008KT 290V350 CAVOK 06/M08 Q1018=
201903261520 METAR ESMX 261520Z 36009KT CAVOK 06/M09 Q1018=
201903261450 METAR ESMX 261450Z 34010KT CAVOK 06/M10 Q1018=
201903261420 METAR ESMX 261420Z 34010KT 300V020 CAVOK 07/M09 Q1018=
201903261350 METAR ESMX 261350Z 33013KT 300V010 CAVOK 07/M09 Q1017=
201903261320 METAR ESMX 261320Z 33013KT CAVOK 06/M09 Q1017=
201903261250 METAR ESMX 261250Z 34013KT CAVOK 07/M09 Q1017=
201903261220 METAR ESMX 261220Z 36015KT CAVOK 07/M08 Q1016=
201903261150 METAR ESMX 261150Z 35016KT CAVOK 06/M08 Q1016=
201903261120 METAR ESMX 261120Z 34017KT CAVOK 06/M09 Q1016=
201903261050 METAR ESMX 261050Z 34017KT CAVOK 06/M07 Q1015=
201903261020 METAR ESMX 261020Z 34019G29KT CAVOK 06/M08 Q1015=
201903260950 METAR ESMX 260950Z 33017G28KT CAVOK 05/M08 Q1015=
201903260920 METAR ESMX 260920Z 34023KT CAVOK 05/M07 Q1014=
201903260850 METAR ESMX 260850Z 32017G28KT 290V350 9999 FEW049 05/M07 Q1014=
201903260820 METAR ESMX 260820Z 32016G27KT 290V350 CAVOK 04/M06 Q1013=
201903260750 METAR ESMX 260750Z 32015KT CAVOK 03/M05 Q1013=
201903260720 METAR ESMX 260720Z 31011KT CAVOK 03/M04 Q1013=
201903260650 METAR ESMX 260650Z AUTO 31013G23KT 9999 NCD 02/M03 Q1013=
201903260620 METAR COR ESMX 260620Z 30010KT CAVOK 01/M01 Q1013=
201903260550 METAR ESMX 260550Z 29009KT CAVOK 01/01 Q1013=
201903260520 METAR ESMX 260520Z AUTO 29009KT 9999 NCD 00/00 Q1013=
201903260450 METAR ESMX 260450Z 30007KT CAVOK 01/01 Q1012=
201903260420 METAR ESMX 260420Z AUTO 30008KT 9999 NCD 01/01 Q1012=
201903260350 METAR ESMX 260350Z AUTO 30008KT 9999 OVC011/// 01/01 Q1012=
201903260320 METAR ESMX 260320Z AUTO 28007KT 9999 OVC011/// 02/02 Q1012=
201903260250 METAR ESMX 260250Z AUTO 26007KT 9999 OVC013/// 02/02 Q1013=
201903260220 METAR ESMX 260220Z AUTO 26008KT 9999 OVC012/// 02/02 Q1013=
201903260150 METAR ESMX 260150Z AUTO 25008KT 9999 OVC012/// 01/01 Q1013=
201903260120 METAR ESMX 260120Z AUTO 25007KT 9999 BKN010/// 00/00 Q1013=
201903260050 METAR ESMX 260050Z AUTO 23006KT 9999 NCD M01/M01 Q1014=
201903260020 METAR ESMX 260020Z AUTO 22006KT 9999 NCD M01/M01 Q1014=
201903252350 METAR ESMX 252350Z AUTO 23005KT 9999 NCD M01/M01 Q1015=
201903252320 METAR ESMX 252320Z 22005KT CAVOK M01/M03 Q1015=
201903252250 METAR ESMX 252250Z 23006KT CAVOK M01/M04 Q1016=
201903252220 METAR ESMX 252220Z 22005KT CAVOK M02/M04 Q1016=
201903252150 METAR ESMX 252150Z 23005KT CAVOK M02/M05 Q1016=
201903252120 METAR ESMX 252120Z 24005KT CAVOK M02/M04 Q1016=
201903252050 METAR ESMX 252050Z 26004KT CAVOK M01/M04 Q1016=
201903252020 METAR ESMX 252020Z 27004KT CAVOK 01/M03 Q1017=
201903251950 METAR ESMX 251950Z 29006KT CAVOK M01/M01 Q1016=
201903251920 METAR ESMX 251920Z 25003KT CAVOK M02/M04 Q1016=
201903251850 METAR ESMX 251850Z 27003KT CAVOK M00/M04 Q1016=
201903251820 METAR ESMX 251820Z 31004KT CAVOK 01/M04 Q1016=
201903251750 METAR ESMX 251750Z 32005KT CAVOK 03/M05 Q1016=
201903251720 METAR ESMX 251720Z 32010KT CAVOK 05/M05 Q1015=
201903251650 METAR ESMX 251650Z 31012KT 9999 FEW047 06/M04 Q1015=
201903251620 METAR ESMX 251620Z AUTO 32009KT 9999 FEW038/// 07/M02 Q1015=
201903251550 METAR ESMX 251550Z 35011KT 9999 BKN038 07/M01 Q1014=
201903251520 METAR ESMX 251520Z 36012KT 9999 BKN037 08/M01 Q1014=
201903251450 METAR ESMX 251450Z 36012KT 9999 BKN040 07/M01 Q1014=
201903251420 METAR ESMX 251420Z 34013KT 9999 FEW025CB BKN037 08/M01 Q1013=
201903251350 METAR ESMX 251350Z 34015KT 9999 FEW031CB SCT053 07/01 Q1013=
201903251320 METAR ESMX 251320Z 36007KT 9999 FEW019CB SCT047 07/02 Q1012=
201903251250 METAR ESMX 251250Z 36012KT 9999 -SHRA SCT024CB BKN036 07/01 Q1012=
201903251220 METAR ESMX 251220Z 36008KT 9999 VCSH FEW032CB SCT035 08/M00 Q1011=
201903251150 METAR ESMX 251150Z 34012KT 9999 -SHRA SCT026CB 06/02 Q1011=
201903251120 METAR ESMX 251120Z 02009KT 9999 SCT028CB BKN034 07/00 Q1011=
201903251050 METAR ESMX 251050Z 36011KT 9999 SCT026CB BKN033 06/00 Q1011 RESHRA=
201903251020 METAR ESMX 251020Z 02009KT 9999 -SHRA FEW013 SCT022CB BKN035 05/02 Q1010=
201903250950 METAR ESMX 250950Z 35007KT 9999 FEW020 BKN030 05/01 Q1010=
201903250920 METAR ESMX 250920Z 01008KT 330V030 9999 BKN029 05/03 Q1009=
201903250850 METAR ESMX 250850Z 36004KT 340V070 9999 SCT015 BKN038 05/04 Q1009=
201903250820 METAR ESMX 250820Z VRB03KT 9999 FEW007 SCT023 BKN075 04/04 Q1008=
201903250750 METAR ESMX 250750Z 04003KT 010V100 9999 SCT007 BKN021 03/03 Q1008=
201903250720 METAR ESMX 250720Z VRB03KT 9999 -DZ BKN008 03/03 Q1008=
201903250650 METAR ESMX 250650Z VRB03KT 9999 -DZ BKN007 02/02 Q1007=
201903250620 METAR ESMX 250620Z VRB03KT 9999 BKN007 02/02 Q1007=
201903250550 METAR ESMX 250550Z VRB02KT 9999 -DZ BKN007 02/02 Q1007=
201903250520 METAR ESMX 250520Z 18004KT 9999 -DZ FEW005 BKN041 02/02 Q1006=
201903250450 METAR ESMX 250450Z 18005KT 9999 -DZ SCT008 02/02 Q1006=
201903250420 METAR ESMX 250420Z AUTO 20005KT 9999 -DZ SCT008/// BKN031/// OVC041/// 02/02 Q1006 REUP RESHUP=
201903250350 METAR ESMX 250350Z AUTO 17005KT 9999 FEW055/// BKN084/// OVC100/// 02/02 Q1006=
201903250320 METAR ESMX 250320Z AUTO 18008KT 9999 FEW013/// SCT080/// OVC100/// 02/02 Q1006=
201903250250 METAR ESMX 250250Z AUTO 16005KT 9999 FEW013/// SCT017/// OVC021/// 02/02 Q1007=
201903250220 METAR ESMX 250220Z AUTO 20007KT 9999 SCT023/// 02/02 Q1007=
201903250150 METAR ESMX 250150Z AUTO 20005KT 9999 FEW016/// SCT030/// BKN078/// 02/02 Q1007=
201903250120 METAR ESMX 250120Z AUTO 20008KT 9999 DZ FEW013/// SCT022/// BKN028/// 02/02 Q1008 REDZ=
201903250050 METAR ESMX 250050Z AUTO 23005KT 200V260 8000 VV015 02/02 Q1008 REDZ REUP=
201903250020 METAR ESMX 250020Z AUTO 22008KT 9999 SCT027/// 02/02 Q1008=
201903242350 METAR ESMX 242350Z AUTO 22008KT 9999 FEW074/// 02/02 Q1009=
201903242320 METAR ESMX 242320Z AUTO 21007KT 9999 FEW026/// SCT040/// OVC068/// 02/01 Q1009=
201903242250 METAR ESMX 242250Z AUTO 19005KT 9999 FEW034/// BKN044/// OVC062/// 02/01 Q1010=
201903242220 METAR ESMX 242220Z AUTO 21006KT 9999 FEW009/// BKN042/// OVC057/// 03/01 Q1010=
201903242150 METAR ESMX 242150Z 20007KT 9999 FEW009 BKN035 03/01 Q1011=
201903242120 METAR ESMX 242120Z 21007KT 9999 SCT035 BKN066 03/00 Q1011=
201903242050 METAR ESMX 242050Z 21006KT CAVOK 02/01 Q1012=
201903242020 METAR ESMX 242020Z AUTO 22006KT 9999 NCD 03/01 Q1012=
201903241950 METAR ESMX 241950Z AUTO 21006KT 9999 SCT068/// 03/00 Q1013=
201903241920 METAR ESMX 241920Z AUTO 23008KT 9999 BKN076/// 04/00 Q1013=
201903241850 METAR ESMX 241850Z 23010KT 9999 FEW026 SCT046 BKN080 05/M00 Q1013=
201903241820 METAR ESMX 241820Z 22010KT 9999 -DZ FEW029 BKN049 05/M00 Q1014=
201903241750 METAR ESMX 241750Z 23009KT 9999 FEW038 BKN070 05/M01 Q1014=
201903241720 METAR ESMX 241720Z 24009KT 210V290 9999 FEW035 SCT051 BKN074 05/M01 Q1014=
201903241650 METAR ESMX 241650Z 23007KT 9999 FEW040 SCT074 06/M01 Q1015=
201903241620 METAR ESMX 241620Z 24010KT CAVOK 06/M02 Q1015=
201903241550 METAR ESMX 241550Z 25012KT 9999 VCSH NSC 07/M02 Q1016=
201903241520 METAR ESMX 241520Z 26014KT 230V300 9999 VCSH FEW047CB 06/M02 Q1016=
201903241450 METAR ESMX 241450Z 26011KT 9999 -SHRA SCT043CB 07/M02 Q1016=
201903241420 METAR ESMX 241420Z 24014KT 9999 SCT047 08/M03 Q1017=
201903241350 METAR COR ESMX 241350Z 25012KT 210V280 9999 BKN045 09/M02 Q1017=
201903241320 METAR ESMX 241320Z 26010KT 230V300 CAVOK 08/M02 Q1018=
201903241250 METAR ESMX 241250Z 26013KT 9999 BKN043 08/M01 Q1018=
201903241220 METAR ESMX 241220Z 27011KT 220V300 9999 SCT038 08/M02 Q1019=
201903241150 METAR ESMX 241150Z 27012KT 230V300 9999 SCT033 08/M00 Q1019=
201903241120 METAR ESMX 241120Z 27010KT 9999 SCT031 08/M00 Q1020=
201903241050 METAR ESMX 241050Z 26011KT 230V290 9999 FEW015 08/00 Q1020=
201903241020 METAR ESMX 241020Z 26010KT 240V300 9999 FEW015 07/01 Q1021=
201903240950 METAR ESMX 240950Z AUTO 28008KT 240V320 9999 FEW120/// SCT200/// 06/01 Q1021=
201903240920 METAR ESMX 240920Z AUTO 25010KT 210V280 9999 SCT018/// BKN210/// 05/01 Q1021=
201903240850 METAR ESMX 240850Z AUTO 27009KT 9999 SCT016/// 05/01 Q1022=
201903240820 METAR ESMX 240820Z AUTO 25008KT 9999 SCT014/// BKN180/// 04/01 Q1022=
201903240750 METAR ESMX 240750Z AUTO 25007KT 9999 FEW013/// SCT140/// 04/02 Q1022=
201903240720 METAR ESMX 240720Z AUTO 25004KT 210V320 9999 FEW013/// 03/02 Q1022=
201903240650 METAR ESMX 240650Z AUTO 23005KT 200V290 9999 FEW180/// 03/03 Q1022=
201903240620 METAR ESMX 240620Z AUTO 27007KT 240V310 9999 NCD 03/03 Q1022=
201903240550 METAR ESMX 240550Z AUTO 27006KT 9999 SCT014/// 02/02 Q1022=
201903240520 METAR ESMX 240520Z AUTO 26006KT 9999 SCT014/// 02/02 Q1022=
201903240450 METAR ESMX 240450Z AUTO 26008KT 9999 FEW015/// 02/02 Q1022=
201903240420 METAR ESMX 240420Z AUTO 27007KT 9999 FEW016/// 02/02 Q1022=
201903240350 METAR ESMX 240350Z AUTO 26008KT 9999 SCT015/// 03/02 Q1022=
201903240320 METAR ESMX 240320Z AUTO 26009KT 9999 NCD 03/03 Q1022=
201903240250 METAR ESMX 240250Z AUTO 26012KT 9999 NCD 03/01 Q1022=
201903240220 METAR ESMX 240220Z AUTO 27012KT 9999 NCD 03/03 Q1022=
201903240150 METAR ESMX 240150Z AUTO 26011KT 9999 NCD 03/03 Q1022=
201903240120 METAR ESMX 240120Z AUTO 27010KT 9999 NCD 03/01 Q1022=
201903240050 METAR ESMX 240050Z AUTO 27012KT 9999 SCT020/// 04/00 Q1022=
201903240020 METAR ESMX 240020Z AUTO 27013G23KT 9999 OVC021/// 04/00 Q1022=
201903232350 METAR ESMX 232350Z AUTO 27011KT 230V290 9999 BKN023/// 04/00 Q1022=
201903232320 METAR ESMX 232320Z AUTO 27012KT 240V300 9999 OVC023/// 04/00 Q1022=
201903232250 METAR ESMX 232250Z AUTO 26012KT 9999 OVC023/// 04/00 Q1022=
201903232220 METAR ESMX 232220Z AUTO 27012KT 230V300 9999 OVC021/// 04/00 Q1023=
201903232150 METAR ESMX 232150Z AUTO 26011KT 230V290 9999 BKN020/// 04/01 Q1022=
201903232120 METAR ESMX 232120Z AUTO 26011KT 9999 SCT021/// 03/00 Q1022=
201903232050 METAR ESMX 232050Z AUTO 26010KT 9999 FEW023/// 04/00 Q1022=
201903232020 METAR ESMX 232020Z AUTO 26010KT 230V290 9999 FEW025/// 04/00 Q1022=
201903231950 METAR ESMX 231950Z AUTO 26010KT 9999 NCD 04/M00 Q1022=
201903231920 METAR ESMX 231920Z AUTO 25010KT 9999 NCD 04/M01 Q1022=
201903231850 METAR ESMX 231850Z AUTO 27010KT 9999 FEW035/// 05/M01 Q1022=
201903231820 METAR ESMX 231820Z AUTO 26011KT 9999 NCD 05/M01 Q1022=
201903231750 METAR ESMX 231750Z AUTO 26011KT 220V280 9999 NCD 05/M02 Q1021=
201903231720 METAR ESMX 231720Z AUTO 26013KT 9999 NCD 06/M03 Q1021=
201903231650 METAR ESMX 231650Z AUTO 28015KT 9999 NCD 07/M03 Q1021=
201903231620 METAR ESMX 231620Z AUTO 27014G29KT 220V300 9999 NCD 07/M04 Q1021=
201903231550 METAR ESMX 231550Z AUTO 28015G26KT 240V320 9999 NCD 08/M03 Q1021=
201903231520 METAR ESMX 231520Z AUTO 26015KT 9999 NCD 08/M03 Q1020=
201903231450 METAR ESMX 231450Z AUTO 27017KT 250V310 9999 NCD 09/M03 Q1020=
201903231420 METAR ESMX 231420Z AUTO 27016G28KT 9999 NCD 09/M04 Q1020=
201903231350 METAR ESMX 231350Z AUTO 27017KT 9999 NCD 10/M04 Q1020=
201903231320 METAR ESMX 231320Z AUTO 28016KT 9999 NCD 10/M04 Q1020=
201903231250 METAR ESMX 231250Z AUTO 28018G28KT 9999 NCD 10/M03 Q1020=
201903231220 METAR ESMX 231220Z AUTO 27017KT 240V300 9999 FEW038/// 10/M01 Q1020=
201903231150 METAR ESMX 231150Z AUTO 27013KT 250V320 9999 SCT034/// BKN044/// 10/M00 Q1020=
201903231120 METAR ESMX 231120Z AUTO 27015KT 240V300 9999 BKN026/// OVC035/// 10/02 Q1020=
201903231050 METAR ESMX 231050Z AUTO 27014KT 9999 BKN022/// 09/05 Q1019=
201903231020 METAR ESMX 231020Z AUTO 26011KT 210V300 9999 SCT012/// BKN016/// OVC024/// 08/07 Q1020=
201903230950 METAR ESMX 230950Z 26009KT 230V290 9999 SCT008 BKN011 OVC015 07/07 Q1020=
201903230920 METAR ESMX 230920Z 27011KT 8000 BR OVC005 07/07 Q1020=
201903230850 METAR ESMX 230850Z 24010KT 2200 BR FEW002 BKN005 OVC008 07/07 Q1019=
201903230820 METAR ESMX 230820Z 25010KT 210V280 7000 BR OVC008 08/08 Q1019=
201903230750 METAR ESMX 230750Z AUTO 24011KT 210V280 5000 BR BKN008/// OVC009/// 08/08 Q1019=
201903230720 METAR ESMX 230720Z AUTO 22009KT 4200 BR BKN008/// BKN010/// OVC013/// 08/08 Q1019=
201903230650 METAR ESMX 230650Z AUTO 23009KT 4000 BR SCT009/// OVC036/// 08/08 Q1019=
201903230620 METAR ESMX 230620Z AUTO 24009KT 210V270 3400 BKN006/// OVC008/// 08/08 Q1020=
201903230550 METAR ESMX 230550Z AUTO 22010KT 3600 FEW001/// SCT003/// BKN007/// 07/07 Q1019 REDZ REUP=
201903230520 METAR ESMX 230520Z AUTO 20010KT 0500 R01/1100U R19/1200U FG OVC001/// 07/07 Q1019=
201903230450 METAR ESMX 230450Z AUTO 19010KT 0400 R01/1100N R19/1100N FG OVC001/// 07/07 Q1019=
201903230420 METAR ESMX 230420Z AUTO 18011KT 0450 R01/1200N R19/1200U FG OVC001/// 07/07 Q1019=
201903230350 METAR ESMX 230350Z AUTO 19010KT 0350 R01/1000N R19/1100N FG OVC001/// 07/07 Q1020=
201903230320 METAR ESMX 230320Z AUTO 19008KT 0450 R01/1200N R19/1200N FG OVC001/// 06/06 Q1021=
201903230250 METAR ESMX 230250Z AUTO 18009KT 0550 R01/1400N R19/1600D FG OVC001/// 06/06 Q1021=
201903230220 METAR ESMX 230220Z AUTO 17010KT 0700 R01/P2000D R19/P2000N FG OVC001/// 06/06 Q1021=
201903230150 METAR ESMX 230150Z AUTO 18009KT 1700 BR OVC001/// 06/06 Q1022=
201903230120 METAR ESMX 230120Z AUTO 19008KT 3100 BR OVC002/// 06/06 Q1022=
201903230050 METAR ESMX 230050Z AUTO 21008KT 2600 BR OVC002/// 06/06 Q1023=
201903230020 METAR ESMX 230020Z AUTO 21008KT 2700 BR OVC002/// 05/05 Q1023=
201903222350 METAR ESMX 222350Z AUTO 21011KT 3500 BR OVC002/// 05/05 Q1024=
201903222320 METAR ESMX 222320Z 19012KT 3000 BR OVC002 05/05 Q1024=
201903222250 METAR ESMX 222250Z AUTO 19012KT 2800 BR OVC002/// 05/05 Q1024=
201903222220 METAR ESMX 222220Z AUTO 18012KT 5000 BR BKN002/// OVC004/// 05/05 Q1025=
201903222150 METAR ESMX 222150Z AUTO 20010KT 9999 OVC005/// 05/05 Q1025=
201903222120 METAR ESMX 222120Z AUTO 18012KT 9999 OVC006/// 05/05 Q1025=
201903222050 METAR ESMX 222050Z 18012KT 9999 OVC008 05/05 Q1026=
201903222020 METAR ESMX 222020Z 19014KT 9999 OVC010 05/05 Q1027=
201903221950 METAR ESMX 221950Z 17013KT 9999 OVC010 06/05 Q1027=
201903221920 METAR ESMX 221920Z 17014KT 9999 OVC010 06/06 Q1027=
201903221850 METAR ESMX 221850Z 18013KT 9999 OVC010 06/06 Q1028=
201903221820 METAR ESMX 221820Z 18011KT 9999 OVC011 06/06 Q1027=
201903221750 METAR ESMX 221750Z 16008KT 9999 BKN013 OVC015 06/06 Q1028=
201903221720 METAR ESMX 221720Z 16010KT 9999 BKN016 07/05 Q1028=
201903221650 METAR ESMX 221650Z 17011KT 9999 BKN017 07/04 Q1028=
201903221620 METAR ESMX 221620Z 16012KT 9999 BKN019 08/04 Q1028=
201903221550 METAR ESMX 221550Z 17013KT 9999 FEW020 09/04 Q1029=
201903221520 METAR ESMX 221520Z 16013KT 9999 FEW031 10/03 Q1029=
201903221450 METAR ESMX 221450Z 18012KT CAVOK 11/02 Q1030=
201903221420 METAR ESMX 221420Z 17012KT CAVOK 12/01 Q1030=
201903221350 METAR ESMX 221350Z 17011KT CAVOK 12/02 Q1030=
201903221320 METAR ESMX 221320Z 17010KT 140V200 CAVOK 12/02 Q1030=
201903221250 METAR ESMX 221250Z 14009KT 9999 FEW035 12/03 Q1031=
201903221220 METAR ESMX 221220Z 15010KT 9999 FEW033 12/02 Q1031=
201903221150 METAR ESMX 221150Z 16009KT 110V180 9999 FEW032 12/04 Q1032=
201903221120 METAR ESMX 221120Z 15008KT 110V170 9999 SCT031 12/04 Q1032=
201903221050 METAR ESMX 221050Z 15007KT 110V200 9999 FEW023 11/03 Q1032=
201903221020 METAR ESMX 221020Z 15008KT 9999 FEW023 11/04 Q1032=
201903220950 METAR ESMX 220950Z 14007KT 100V170 9999 FEW021 09/04 Q1032=
201903220920 METAR ESMX 220920Z AUTO 16008KT 120V190 9999 FEW021/// 09/04 Q1033=
201903220850 METAR ESMX 220850Z 13005KT 100V180 9999 FEW019 08/05 Q1033=
201903220820 METAR ESMX 220820Z VRB03KT 9999 BKN019 06/06 Q1033=
201903220750 METAR ESMX 220750Z VRB02KT 9999 FEW020 05/05 Q1033=
201903220720 METAR ESMX 220720Z VRB02KT 7000 BR BKN008 03/03 Q1033=
201903220650 METAR ESMX 220650Z 35002KT 0650 R01/0900U R19/1600U MIFG BKN011 01/01 Q1032=
201903220620 METAR ESMX 220620Z 35002KT 0250 R01/0650N R19/0650D MIFG NSC 00/00 Q1032=
201903220550 METAR ESMX 220550Z 00000KT 0100 R01/0200N R19/0150N FG VV001 00/00 Q1031=
201903220520 METAR ESMX 220520Z 16001KT 0200 R01/0600N R19/0250N FG VV002 01/01 Q1030=
201903220450 METAR ESMX 220450Z AUTO 21002KT 0100 R01/0400N R19/0400D FG FEW001/// 01/01 Q1030=
201903220420 METAR ESMX 220420Z AUTO 23004KT 0200 R01/P2000N R19/0650N BR NCD 02/02 Q1030=
201903220350 METAR ESMX 220350Z AUTO 25003KT 0400 R01/P2000N R19/1200D BR NCD 02/02 Q1030=
201903220320 METAR ESMX 220320Z AUTO VRB02KT 9999 NCD 03/03 Q1030=
201903220250 METAR ESMX 220250Z AUTO 01004KT 9999 OVC015/// 05/05 Q1030=
201903220220 METAR ESMX 220220Z AUTO 34004KT 290V010 9999 BKN014/// OVC017/// 04/04 Q1030=
201903220150 METAR ESMX 220150Z AUTO 28004KT 9999 FEW007/// 04/04 Q1029=
201903220120 METAR ESMX 220120Z AUTO 29004KT 9999 FEW006/// 05/05 Q1029=
201903220050 METAR ESMX 220050Z AUTO 29006KT 9999 NCD 06/06 Q1028=
201903220020 METAR ESMX 220020Z AUTO 27006KT 220V300 9999 NCD 06/06 Q1027=
201903212350 METAR ESMX 212350Z AUTO 28008KT 9999 NCD 07/07 Q1027=
201903212320 METAR ESMX 212320Z AUTO 27008KT 9999 FEW011/// 07/07 Q1027=
201903212250 METAR ESMX 212250Z AUTO 27007KT 9999 FEW010/// SCT013/// 07/07 Q1026=
201903212220 METAR ESMX 212220Z AUTO 26007KT 9999 BKN010/// 08/08 Q1026=
201903212150 METAR ESMX 212150Z 26007KT 9999 BKN008 08/08 Q1026=
201903212120 METAR ESMX 212120Z 26007KT 9999 OVC006 08/08 Q1026=
201903212050 METAR ESMX 212050Z 28009KT 5000 -RA OVC005 08/08 Q1025=
201903212020 METAR ESMX 212020Z 28010KT 3600 RA BKN002 OVC004 08/08 Q1025=
201903211950 METAR ESMX 211950Z 27012KT 230V290 6000 BR OVC003 08/08 Q1025=
201903211920 METAR ESMX 211920Z 26013KT 8000 BR OVC005 09/09 Q1024=
201903211850 METAR ESMX 211850Z 26012KT 8000 BR OVC005 09/09 Q1023=
201903211820 METAR ESMX 211820Z 26013KT 7000 BR OVC005 09/09 Q1024=
201903211750 METAR ESMX 211750Z 26013KT 230V290 9999 OVC005 09/09 Q1023=
201903211720 METAR ESMX 211720Z 26012KT 9999 BKN006 09/09 Q1023=
201903211650 METAR ESMX 211650Z 25013KT 9999 BKN006 09/09 Q1023=
201903211620 METAR ESMX 211620Z 25013KT 210V280 9000 BR BKN006 09/09 Q1023=
201903211550 METAR ESMX 211550Z 24013KT 8000 BR BKN006 09/09 Q1022=
201903211520 METAR ESMX 211520Z 25011KT 200V270 9999 OVC007 09/09 Q1023=
201903211450 METAR ESMX 211450Z 25011KT 210V280 9999 OVC008 09/09 Q1023=
201903211420 METAR ESMX 211420Z 25011KT 9999 OVC008 09/09 Q1023=
201903211350 METAR ESMX 211350Z 25014KT 210V280 9999 OVC006 09/09 Q1023=
201903211320 METAR ESMX 211320Z 25014KT 6000 BR OVC004 09/09 Q1023=
201903211250 METAR ESMX 211250Z 23014KT 5000 BR OVC005 08/08 Q1023=
201903211220 METAR ESMX 211220Z 24013KT 7000 BR OVC005 09/09 Q1023=
201903211150 METAR ESMX 211150Z 24012KT 6000 BR OVC004 08/08 Q1023=
201903211120 METAR ESMX 211120Z 25011G23KT 4100 BR OVC004 08/08 Q1023=
201903211050 METAR ESMX 211050Z 23012KT 5000 BR OVC004 08/08 Q1023=
201903211020 METAR ESMX 211020Z 24013KT 5000 BR OVC004 08/08 Q1023=
201903210950 METAR ESMX 210950Z 22011KT 5000 BR OVC003 08/08 Q1023=
201903210920 METAR ESMX 210920Z 22011KT 7000 BR OVC003 07/07 Q1023=
201903210850 METAR ESMX 210850Z 21010KT 3500 BR OVC002 07/07 Q1023=
201903210820 METAR ESMX 210820Z 22010KT 2200 BR OVC002 07/07 Q1023=
201903210750 METAR ESMX 210750Z 20009KT 2100 BR OVC002 06/06 Q1023=
201903210720 METAR ESMX 210720Z 19010KT 3900 BR OVC002 06/06 Q1023=
201903210650 METAR ESMX 210650Z 19009KT 4000 BR OVC002 06/06 Q1024=
201903210620 METAR ESMX 210620Z 19009KT 1800 -DZ OVC001 05/05 Q1024=
201903210550 METAR ESMX 210550Z 21008KT 4500 BR OVC002 05/05 Q1024=
201903210520 METAR ESMX 210520Z 23008KT 5000 BR OVC003 05/05 Q1024=
201903210450 METAR ESMX 210450Z 22009KT 4000 BR OVC003 04/04 Q1024=
201903210420 METAR ESMX 210420Z AUTO 22009KT 4100 BR SCT002/// BKN005/// OVC007/// 04/04 Q1024=
201903210350 METAR ESMX 210350Z AUTO 22007KT 9999 SCT010/// BKN014/// OVC120/// 04/04 Q1024=
201903210320 METAR ESMX 210320Z AUTO 23006KT 9000 BR SCT004/// BKN036/// OVC170/// 03/03 Q1024=
201903210250 METAR ESMX 210250Z AUTO 21007KT 8000 BR BKN035/// OVC110/// 03/03 Q1024=
201903210220 METAR ESMX 210220Z AUTO 21006KT 7000 BR SCT005/// OVC040/// 02/02 Q1025=
201903210150 METAR ESMX 210150Z AUTO 21006KT 8000 BR SCT003/// BKN006/// OVC100/// 02/02 Q1025=
201903210120 METAR ESMX 210120Z AUTO 23005KT 9000 BR VV004 03/03 Q1025=
201903210050 METAR ESMX 210050Z AUTO 23004KT 9999 FEW000/// 03/03 Q1025=
201903210020 METAR ESMX 210020Z AUTO 23004KT 200V260 9999 NCD 03/03 Q1025=
201903202350 METAR ESMX 202350Z AUTO 25005KT 9999 NCD 03/03 Q1025=
201903202320 METAR ESMX 202320Z AUTO 24006KT 9999 NCD 04/04 Q1026=
201903202250 METAR ESMX 202250Z AUTO 26007KT 9999 NCD 04/04 Q1026=
201903202220 METAR ESMX 202220Z AUTO 26006KT 9999 NCD 04/04 Q1025=
201903202150 METAR ESMX 202150Z AUTO 26007KT 9999 NCD 04/04 Q1025=
201903202120 METAR ESMX 202120Z 26004KT CAVOK 04/04 Q1025=
201903202050 METAR ESMX 202050Z 26006KT CAVOK 04/04 Q1025=
201903202020 METAR ESMX 202020Z 25006KT CAVOK 04/04 Q1025=
201903201950 METAR ESMX 201950Z 25007KT CAVOK 05/05 Q1025=
201903201920 METAR ESMX 201920Z 25006KT CAVOK 05/04 Q1025=
201903201850 METAR ESMX 201850Z 25006KT CAVOK 05/02 Q1024=
201903201820 METAR ESMX 201820Z 26007KT CAVOK 06/02 Q1024=
201903201750 METAR ESMX 201750Z 26006KT CAVOK 06/01 Q1023=
201903201720 METAR ESMX 201720Z 26010KT CAVOK 06/02 Q1022=
201903201650 METAR ESMX 201650Z 26009KT 9999 FEW030 07/02 Q1022=
201903201620 METAR ESMX 201620Z 27011KT 9999 FEW030 08/02 Q1022=
201903201550 METAR ESMX 201550Z 26010KT 9999 SCT028 08/03 Q1022=
201903201520 METAR ESMX 201520Z 28012KT 9999 BKN030 08/03 Q1022=
201903201450 METAR ESMX 201450Z 26009KT 230V300 9999 FEW018 BKN034 08/06 Q1021=
201903201420 METAR ESMX 201420Z 25012KT 230V300 9999 BKN018 08/07 Q1021=
201903201350 METAR ESMX 201350Z 26011KT 9999 BKN019 08/07 Q1021=
201903201320 METAR ESMX 201320Z 26011KT 220V290 9999 BKN011 07/07 Q1021=
201903201250 METAR ESMX 201250Z 25012KT 9999 BKN009 07/07 Q1021=
201903201220 METAR ESMX 201220Z 22012KT 9999 OVC005 06/06 Q1021=
201903201150 METAR ESMX 201150Z 23010KT 9999 OVC005 06/06 Q1021=
201903201120 METAR ESMX 201120Z 23013KT 7000 BR OVC004 05/05 Q1021=
201903201050 METAR COR ESMX 201050Z 22011KT 6000 BR OVC004 04/04 Q1021=
201903201020 METAR ESMX 201020Z 22011KT 6000 -DZ OVC007 04/04 Q1021=
201903200950 METAR ESMX 200950Z 22012KT 9999 OVC007 04/04 Q1021=
201903200920 METAR ESMX 200920Z 21010KT 9999 OVC008 03/03 Q1022=
201903200850 METAR ESMX 200850Z 21010KT 9999 FEW005 BKN009 03/03 Q1022=
201903200820 METAR COR ESMX 200820Z 20011KT 9999 -RA OVC010 03/03 Q1022=
201903200750 METAR ESMX 200750Z 19009KT 9999 SCT011 BKN050 02/02 Q1022=
201903200720 METAR ESMX 200720Z 19010KT 9999 -RA FEW030 SCT055 OVC088 02/02 Q1022=
201903200650 METAR ESMX 200650Z 19010KT 9999 FEW025 OVC080 01/01 Q1022=
201903200620 METAR ESMX 200620Z 20010KT 9999 -RASN FEW018 SCT028 OVC070 01/01 Q1022=
201903200550 METAR ESMX 200550Z 19009KT 9999 -SN SCT026 OVC078 01/01 Q1023=
201903200520 METAR ESMX 200520Z 20008KT CAVOK 00/00 Q1023=
201903200450 METAR COR ESMX 200450Z 21007KT CAVOK 00/00 Q1023=
201903200420 METAR ESMX 200420Z AUTO 19007KT 9999 OVC092/// M00/M00 Q1023=
201903200350 METAR ESMX 200350Z AUTO 18007KT 9999 BKN098/// M01/M01 Q1023=
201903200320 METAR ESMX 200320Z AUTO 20006KT 9999 FEW098/// SCT130/// M01/M01 Q1023=
201903200250 METAR ESMX 200250Z AUTO 19006KT 9999 BKN130/// M01/M01 Q1024=
201903200220 METAR ESMX 200220Z AUTO 19007KT 9999 FEW130/// SCT160/// M01/M01 Q1024=
201903200150 METAR ESMX 200150Z AUTO 18007KT 9999 BKN150/// M01/M03 Q1024=
201903200120 METAR ESMX 200120Z AUTO 18007KT 9999 NCD M01/M04 Q1024=
201903200050 METAR ESMX 200050Z AUTO 19006KT 9999 NCD M02/M03 Q1024=
201903200020 METAR ESMX 200020Z AUTO 21006KT 9999 NCD M02/M03 Q1024=
201903192350 METAR ESMX 192350Z AUTO 20005KT 9999 NCD M02/M04 Q1024=
201903192320 METAR ESMX 192320Z AUTO 22005KT 9999 NCD M02/M04 Q1025=
201903192250 METAR ESMX 192250Z AUTO 21005KT 9999 NCD M02/M05 Q1024=
201903192220 METAR ESMX 192220Z AUTO 23005KT 9999 NCD M02/M05 Q1024=
201903192150 METAR ESMX 192150Z 23004KT CAVOK M02/M05 Q1024=
201903192120 METAR ESMX 192120Z 26005KT CAVOK M01/M05 Q1024=
201903192050 METAR ESMX 192050Z 26005KT CAVOK M01/M05 Q1024=
201903192020 METAR ESMX 192020Z 26006KT CAVOK 00/M05 Q1024=
201903191950 METAR ESMX 191950Z 23005KT CAVOK M02/M05 Q1024=
201903191920 METAR ESMX 191920Z 23003KT CAVOK M02/M04 Q1023=
201903191850 METAR ESMX 191850Z 26003KT CAVOK M01/M04 Q1023=
201903191820 METAR ESMX 191820Z 25003KT CAVOK M00/M04 Q1023=
201903191750 METAR ESMX 191750Z 27004KT CAVOK 01/M04 Q1022=
201903191720 METAR ESMX 191720Z 29004KT CAVOK 03/M06 Q1022=
201903191650 METAR ESMX 191650Z 30005KT 9999 FEW047 05/M06 Q1022=
201903191620 METAR ESMX 191620Z 28007KT 9999 FEW047 05/M05 Q1022=
201903191550 METAR ESMX 191550Z 32008KT 9999 FEW046 06/M05 Q1021=
201903191520 METAR ESMX 191520Z 30007KT 250V340 9999 SCT044 06/M05 Q1021=
201903191450 METAR ESMX 191450Z 29007KT 260V320 9999 SCT044 05/M05 Q1021=
201903191420 METAR ESMX 191420Z 30009KT 9999 SCT045 06/M04 Q1021=
201903191350 METAR ESMX 191350Z 29009KT 260V330 9999 SCT043 06/M03 Q1020=
201903191320 METAR ESMX 191320Z 31008KT 280V360 9999 FEW042 05/M05 Q1020=
201903191250 METAR ESMX 191250Z 32010KT 280V350 9999 FEW041 06/M04 Q1020=
201903191220 METAR ESMX 191220Z 31008KT 250V340 9999 FEW037 05/M04 Q1020=
201903191150 METAR ESMX 191150Z 32011KT 9999 FEW039 06/M03 Q1019=
201903191120 METAR ESMX 191120Z 30009KT 9999 FEW037 05/M03 Q1019=
201903191050 METAR ESMX 191050Z 32010KT 9999 FEW036 04/M04 Q1019=
201903191020 METAR ESMX 191020Z 32009KT 280V350 9999 FEW034 04/M04 Q1019=
201903190950 METAR ESMX 190950Z 31009KT 280V340 9999 SCT032 04/M04 Q1018=
201903190920 METAR ESMX 190920Z 29009KT 250V330 CAVOK 03/M04 Q1018=
201903190850 METAR ESMX 190850Z 28009KT CAVOK 02/M03 Q1018=
201903190820 METAR ESMX 190820Z 30009KT CAVOK 02/M04 Q1017=
201903190750 METAR ESMX 190750Z 31008KT CAVOK 01/M04 Q1017=
201903190720 METAR ESMX 190720Z 30009KT CAVOK 00/M04 Q1016=
201903190650 METAR ESMX 190650Z 31007KT 280V340 CAVOK M00/M03 Q1016=
201903190620 METAR ESMX 190620Z 30007KT 280V340 CAVOK M01/M02 Q1015=
201903190550 METAR ESMX 190550Z 29006KT 260V330 CAVOK M02/M02 Q1015=
201903190520 METAR ESMX 190520Z 29006KT CAVOK M02/M02 Q1015=
201903190450 METAR ESMX 190450Z 29006KT CAVOK M02/M02 Q1014=
201903190420 METAR ESMX 190420Z AUTO 29008KT 9999 NCD M02/M02 Q1014=
201903190350 METAR ESMX 190350Z AUTO 29007KT 9999 NCD M01/M02 Q1013=
201903190320 METAR ESMX 190320Z AUTO 28007KT 9999 NCD M01/M02 Q1013=
201903190250 METAR ESMX 190250Z AUTO 26006KT 9999 NCD M01/M02 Q1012=
201903190220 METAR ESMX 190220Z AUTO 28007KT 9999 NCD M01/M02 Q1012=
201903190150 METAR ESMX 190150Z AUTO 30007KT 9999 FEW080/// M00/M01 Q1011=
201903190120 METAR ESMX 190120Z AUTO 30006KT 9999 NCD M00/M01 Q1011=
201903190050 METAR ESMX 190050Z AUTO 30007KT 9999 NCD 00/M01 Q1011=
201903190020 METAR ESMX 190020Z AUTO 31008KT 9999 SCT046/// 00/M00 Q1010=
201903182350 METAR ESMX 182350Z AUTO 30008KT 9999 NCD 01/00 Q1010=
201903182320 METAR ESMX 182320Z AUTO 29008KT 9999 FEW051/// 01/01 Q1009=
201903182250 METAR ESMX 182250Z 28007KT CAVOK 01/01 Q1008=
201903182220 METAR ESMX 182220Z 28006KT 9999 FEW036 BKN047 02/01 Q1008=
201903182150 METAR ESMX 182150Z 28008KT 9999 BKN033 OVC043 02/01 Q1008=
201903182120 METAR ESMX 182120Z 28008KT 9999 FEW037 OVC055 02/01 Q1007=
201903182050 METAR ESMX 182050Z 27007KT 9999 BKN047 01/01 Q1007=
201903182020 METAR ESMX 182020Z 28006KT 9999 FEW034 OVC047 01/01 Q1006=
201903181950 METAR ESMX 181950Z 28007KT CAVOK 01/01 Q1006=
201903181920 METAR ESMX 181920Z 28005KT 250V310 9999 BKN035 OVC045 02/01 Q1005=
201903181850 METAR ESMX 181850Z 28007KT 9999 FEW035 OVC044 02/01 Q1004=
201903181820 METAR ESMX 181820Z 30008KT 9999 FEW029 OVC039 02/01 Q1004=
201903181750 METAR ESMX 181750Z 31009KT 9999 -SN BKN025 02/01 Q1003=
201903181720 METAR ESMX 181720Z 30012KT 9999 BKN034 02/01 Q1002=
201903181650 METAR ESMX 181650Z 31016KT 9999 SCT021 BKN049 02/01 Q1002=
201903181620 METAR ESMX 181620Z 31010KT 9999 SCT019 BKN040 02/02 Q1001=
201903181550 METAR ESMX 181550Z 31009KT 9999 BKN017 03/03 Q1000=
201903181520 METAR ESMX 181520Z 28011KT 9999 BKN016 03/03 Q0999=
201903181450 METAR ESMX 181450Z 27010KT 240V300 9999 -SHRA BKN009 04/04 Q0998=
201903181420 METAR ESMX 181420Z 27011KT 9999 BKN014 04/04 Q0997=
201903181350 METAR ESMX 181350Z 26011KT 9999 SCT015 05/05 Q0996=
201903181320 METAR ESMX 181320Z 26010KT 9999 SCT014 04/04 Q0996=
201903181250 METAR ESMX 181250Z 27013KT 220V290 9999 SCT011 BKN020 04/04 Q0995=
201903181220 METAR ESMX 181220Z 26013KT 9999 SCT013 BKN020 05/05 Q0995=
201903181150 METAR ESMX 181150Z 26012KT 9999 SCT010 BKN014 05/05 Q0994=
201903181120 METAR ESMX 181120Z 24012KT 200V280 9999 SCT009 BKN016 05/05 Q0993=
201903181050 METAR ESMX 181050Z 24014KT 9999 SCT012 BKN022 05/05 Q0993=
201903181020 METAR ESMX 181020Z 26011KT 9999 SCT007 BKN011 04/04 Q0992=
201903180950 METAR COR ESMX 180950Z 23012KT 200V260 8000 -SHRA BKN007 SCT015CB 04/04 Q0992=
201903180920 METAR ESMX 180920Z 23013KT 9999 BKN008 04/04 Q0991=
201903180850 METAR ESMX 180850Z 23012KT 9999 BKN008 03/03 Q0991=
201903180820 METAR COR ESMX 180820Z 22012KT 9999 BKN008 03/03 Q0990=
201903180750 METAR ESMX 180750Z 22012KT 9999 -SHRA BKN007 SCT020CB 03/03 Q0990=
201903180720 METAR ESMX 180720Z 20010KT 9999 -SHRA SCT007 SCT022CB OVC096 02/02 Q0990=
201903180650 METAR ESMX 180650Z 20011KT 9999 FEW009 SCT022 BKN055 02/02 Q0989=
201903180620 METAR COR ESMX 180620Z 22012KT 9999 SCT006 BKN064 01/01 Q0989 RESHSNRA=
201903180550 METAR ESMX 180550Z 21014G28KT 2500 -SHSNRA BKN005 BKN015CB 01/01 Q0989 RESHRA=
201903180520 METAR COR ESMX 180520Z 19017KT 9999 -RA BKN009 02/02 Q0989=
201903180450 METAR ESMX 180450Z 20017KT 9000 BKN008 03/03 Q0988=
201903180420 METAR ESMX 180420Z 21015KT 8000 -DZ SCT009 BKN012 03/03 Q0988=
201903180350 METAR ESMX 180350Z 19018KT 9999 FEW007 BKN010 03/03 Q0988=
201903180320 METAR ESMX 180320Z 21017KT 6000 -RA FEW005 SCT008 BKN012 03/03 Q0988=
201903180250 METAR COR ESMX 180250Z 19016KT 5000 -RA SCT009 BKN013 03/03 Q0988=
201903180220 METAR ESMX 180220Z 19017G28KT 8000 DZ BKN016 03/03 Q0988=
201903180150 METAR ESMX 180150Z AUTO 20015KT 9999 SCT009/// BKN017/// OVC025/// 03/03 Q0988=
201903180120 METAR ESMX 180120Z AUTO 20016KT 3900 -RA FEW002/// SCT008/// BKN018/// 03/03 Q0988=
201903180050 METAR ESMX 180050Z AUTO 19018KT 9999 DZ FEW009/// BKN020/// OVC028/// 04/04 Q0988 RESHUP=
201903180020 METAR ESMX 180020Z AUTO 19017KT 9999 BKN018/// OVC024/// 04/04 Q0988 RESHUP REDZ=
201903172350 METAR ESMX 172350Z AUTO 19017KT 9999 -DZ OVC018/// 03/03 Q0988 RESHUP RERA=
201903172320 METAR ESMX 172320Z AUTO 18016KT 9999 FEW012/// BKN015/// BKN019/// 03/03 Q0988=
201903172250 METAR ESMX 172250Z AUTO 19017KT 9999 -RA FEW011/// BKN014/// BKN020/// 03/03 Q0988 REDZ=
201903172220 METAR ESMX 172220Z 19016KT 8000 -DZ FEW002 BKN009 BKN012 03/03 Q0988=
201903172150 METAR ESMX 172150Z 19018KT 7000 -RA BKN010 03/03 Q0988=
201903172120 METAR ESMX 172120Z 19020KT 9999 DZ BKN011 03/03 Q0988=
201903172050 METAR ESMX 172050Z 20019KT 6000 -RA SCT011 BKN014 03/03 Q0989=
201903172020 METAR ESMX 172020Z 21017KT 8000 DZ BKN016 04/04 Q0989=
201903171950 METAR ESMX 171950Z 19018G28KT 9999 -DZ BKN018 04/04 Q0989=
201903171920 METAR ESMX 171920Z AUTO 19018G29KT 9999 -RA SCT017/// BKN022/// OVC031/// 04/04 Q0989 REDZ REUP=
201903171850 METAR ESMX 171850Z AUTO 19019KT 9999 FEW022/// SCT032/// BKN040/// 04/04 Q0989=
201903171820 METAR ESMX 171820Z 19019KT 9999 VCSH SCT021CB BKN040 04/04 Q0989=
201903171750 METAR ESMX 171750Z 18015KT 9999 VCSH FEW010 BKN034 04/04 Q0989=
201903171720 METAR ESMX 171720Z AUTO 19014G26KT 9999 FEW033/// BKN051/// 05/04 Q0989=
201903171650 METAR ESMX 171650Z 19015KT 9999 SCT030 04/04 Q0988=
201903171620 METAR COR ESMX 171620Z 20018KT 9999 FEW033 05/04 Q0988=
201903171550 METAR ESMX 171550Z 20015KT 9999 VCSH FEW019 SCT030CB 05/04 Q0988=
201903171520 METAR ESMX 171520Z 22011KT 9999 BKN030 05/05 Q0988=
201903171450 METAR ESMX 171450Z 21016G29KT 190V250 9999 -SHRA SCT032CB SCT048 06/01 Q0988=
201903171420 METAR ESMX 171420Z 23015KT 9999 SCT030 07/00 Q0988=
201903171350 METAR ESMX 171350Z 21014KT 9999 SCT030 07/01 Q0988=
201903171320 METAR COR ESMX 171320Z 21014G24KT 9999 SCT028 07/01 Q0987=
201903171250 METAR ESMX 171250Z 22015KT 9999 SCT025 07/02 Q0988=
201903171220 METAR ESMX 171220Z 22014G27KT 190V250 9999 SCT024 06/05 Q0987=
201903171150 METAR COR ESMX 171150Z 21017KT 9999 BKN018 07/06 Q0987=
201903171120 METAR ESMX 171120Z 23013KT 180V260 9999 BKN015 06/06 Q0987=
201903171050 METAR COR ESMX 171050Z 22011KT 9999 BKN012 06/06 Q0986=
201903171020 METAR ESMX 171020Z 22012KT 190V250 9999 -RA FEW007 BKN014 05/05 Q0987=
201903170950 METAR ESMX 170950Z AUTO 23014G24KT 5000 -RA SCT008/// BKN022/// OVC028/// 05/05 Q0986 REDZ=
201903170920 METAR ESMX 170920Z AUTO 20013KT 4800 RA FEW002/// BKN005/// OVC018/// 07/07 Q0986=
201903170850 METAR ESMX 170850Z AUTO 18015KT 7000 -DZ FEW002/// OVC005/// 07/07 Q0985=
201903170820 METAR ESMX 170820Z AUTO 19015KT 3800 DZ BKN002/// OVC005/// 07/07 Q0986=
201903170750 METAR ESMX 170750Z AUTO 19016KT 4500 -RA FEW002/// OVC005/// 07/07 Q0986 RERA REDZ=
201903170720 METAR ESMX 170720Z AUTO 18013KT 8000 DZ OVC005/// 07/07 Q0986 REDZ=
201903170650 METAR ESMX 170650Z AUTO 19015KT 6000 -RA OVC006/// 07/07 Q0986=
201903170620 METAR ESMX 170620Z AUTO 18014KT 9999 -RA OVC006/// 07/07 Q0986=
201903170550 METAR ESMX 170550Z AUTO 18014KT 9999 -RA OVC005/// 06/06 Q0986=
201903170520 METAR ESMX 170520Z AUTO 16011KT 9999 DZ OVC004/// 06/06 Q0986=
201903170450 METAR ESMX 170450Z AUTO 16009KT 9999 -RA OVC004/// 06/06 Q0986=
201903170420 METAR ESMX 170420Z AUTO 16010KT 9999 -RA OVC004/// 05/05 Q0987=
201903170350 METAR ESMX 170350Z AUTO 16010KT 9000 -RA OVC003/// 05/05 Q0987 REDZ=
201903170320 METAR ESMX 170320Z AUTO 15008KT 9999 -RA OVC003/// 04/04 Q0987 REDZ=
201903170250 METAR ESMX 170250Z AUTO 14008KT 6000 DZ OVC002/// 04/04 Q0988 REDZ=
201903170220 METAR ESMX 170220Z AUTO 14008KT 6000 DZ OVC002/// 03/03 Q0988=
201903170150 METAR ESMX 170150Z AUTO 14009KT 7000 DZ OVC003/// 02/02 Q0989=
201903170120 METAR ESMX 170120Z AUTO 14010KT 7000 -RA OVC004/// 02/02 Q0990=
201903170050 METAR ESMX 170050Z AUTO 14010KT 100V170 9000 -RA OVC005/// 02/02 Q0990 RERA=
201903170020 METAR ESMX 170020Z AUTO 13009KT 9000 -RA OVC005/// 02/02 Q0991=
201903162350 METAR ESMX 162350Z AUTO 14009KT 100V160 8000 -RA OVC005/// 02/02 Q0992=
201903162320 METAR ESMX 162320Z AUTO 14009KT 8000 -RA OVC006/// 02/02 Q0992=
201903162250 METAR ESMX 162250Z AUTO 14009KT 110V170 5000 -RA OVC007/// 02/02 Q0993 REDZ=
201903162220 METAR ESMX 162220Z AUTO 15009KT 9999 -RA BKN006/// BKN008/// OVC028/// 03/03 Q0994 REDZ=
201903162150 METAR ESMX 162150Z AUTO 16008KT 7000 DZ BKN006/// BKN008/// OVC012/// 03/03 Q0995=
201903162120 METAR ESMX 162120Z AUTO 16008KT 9999 DZ SCT009/// OVC048/// 03/03 Q0995=
201903162050 METAR ESMX 162050Z AUTO 17009KT 9999 -DZ SCT009/// BKN014/// OVC049/// 04/04 Q0995 REUP=
201903162020 METAR ESMX 162020Z AUTO 15006KT 9999 BKN015/// BKN036/// OVC076/// 04/04 Q0996=
201903161950 METAR ESMX 161950Z AUTO 16005KT 9999 BKN082/// 04/04 Q0996=
201903161920 METAR ESMX 161920Z AUTO 16005KT 9999 SCT037/// 04/04 Q0996=
201903161850 METAR ESMX 161850Z AUTO 18005KT 9999 FEW035/// SCT043/// 04/04 Q0996=
201903161820 METAR ESMX 161820Z AUTO 17005KT 9999 FEW013/// 04/04 Q0997=
201903161750 METAR ESMX 161750Z AUTO 20005KT 9999 SCT038/// 04/04 Q0997=
201903161720 METAR ESMX 161720Z AUTO 20006KT 9999 SCT038/// 04/04 Q0997=
201903161650 METAR ESMX 161650Z AUTO 21006KT 9999 BKN035/// 04/04 Q0997=
201903161620 METAR ESMX 161620Z AUTO 19005KT 9999 BKN036/// 05/05 Q0996=
201903161550 METAR ESMX 161550Z AUTO 21006KT 9999 ///033 05/05 Q0996=
201903161520 METAR ESMX 161520Z AUTO 24006KT 9999 SCT034/// 05/05 Q0996 RERA=
201903161450 METAR ESMX 161450Z AUTO 23007KT 9999 FEW009/// SCT014/// BKN033/// 05/05 Q0996=
201903161420 METAR ESMX 161420Z AUTO 26006KT 230V300 9999 -RA SCT013/// BKN038/// 06/06 Q0996 RERA=
201903161350 METAR ESMX 161350Z AUTO 28008KT 250V320 8000 -RA FEW015/// BKN026/// 05/05 Q0996 RESHUP RERA=
201903161320 METAR ESMX 161320Z AUTO 25008KT 9999 FEW015/// SCT024/// OVC033/// 06/06 Q0996=
201903161250 METAR ESMX 161250Z AUTO 27008KT 240V320 9999 -RA FEW004/// BKN017/// OVC034/// 05/05 Q0996 REUP=
201903161220 METAR ESMX 161220Z AUTO 27010KT 9999 SCT016/// BKN025/// OVC035/// 06/05 Q0996=
201903161150 METAR ESMX 161150Z AUTO 26008KT 230V290 9999 BKN016/// OVC026/// 05/05 Q0996=
201903161120 METAR ESMX 161120Z AUTO 26012KT 9999 FEW011/// BKN018/// OVC026/// 05/04 Q0996 RESHUP=
201903161050 METAR ESMX 161050Z AUTO 25010KT 230V290 9999 BKN014/// OVC019/// 05/05 Q0996 REUP REDZ=
201903161020 METAR ESMX 161020Z 26008KT 210V300 9999 BKN015 05/05 Q0995=
201903160950 METAR ESMX 160950Z 29010G20KT 8000 BR FEW005 BKN013 04/04 Q0995=
201903160920 METAR ESMX 160920Z 27013KT 9999 FEW013 BKN019 04/04 Q0995=
201903160850 METAR ESMX 160850Z 27010KT 9999 FEW006 BKN013 05/05 Q0994=
201903160820 METAR ESMX 160820Z 26007KT 230V300 3900 DZ FEW005 BKN007 03/03 Q0994=
201903160750 METAR ESMX 160750Z AUTO 27006KT 230V300 8000 DZ FEW002/// SCT005/// BKN013/// 03/03 Q0994=
201903160720 METAR ESMX 160720Z AUTO 27006KT 2500 DZ FEW002/// BKN005/// OVC011/// 03/03 Q0993 REUP=
201903160650 METAR ESMX 160650Z AUTO 27007KT 8000 DZ OVC006/// 03/03 Q0993 REUP=
201903160620 METAR ESMX 160620Z AUTO 26006KT 240V310 9999 BKN005/// OVC007/// 03/03 Q0992=
201903160550 METAR ESMX 160550Z AUTO 26006KT 8000 BR SCT002/// OVC004/// 03/03 Q0992=
201903160520 METAR ESMX 160520Z AUTO 25006KT 2100 DZ SCT002/// OVC005/// 02/02 Q0992 REDZ REUP=
201903160450 METAR ESMX 160450Z AUTO 25006KT 9999 OVC005/// 02/02 Q0991=
201903160420 METAR ESMX 160420Z AUTO 27006KT 9999 OVC006/// 02/02 Q0991=
201903160350 METAR ESMX 160350Z AUTO 27007KT 9999 OVC007/// 02/02 Q0991=
201903160320 METAR ESMX 160320Z AUTO 28007KT 9999 OVC006/// 02/02 Q0990=
201903160250 METAR ESMX 160250Z AUTO 27007KT 9999 SCT005/// OVC022/// 02/02 Q0990=
201903160220 METAR ESMX 160220Z AUTO 27007KT 9999 BKN005/// OVC022/// 02/02 Q0990=
201903160150 METAR ESMX 160150Z AUTO 28006KT 9999 BKN005/// OVC025/// 01/01 Q0989=
201903160120 METAR ESMX 160120Z AUTO 27006KT 9999 SCT005/// OVC026/// 01/01 Q0989=
201903160050 METAR ESMX 160050Z AUTO 27006KT 9999 SCT005/// OVC027/// 02/02 Q0988=
201903160020 METAR ESMX 160020Z AUTO 28006KT 9999 OVC006/// 02/02 Q0988=
201903152350 METAR ESMX 152350Z AUTO 32010KT 9999 OVC007/// 02/02 Q0987=
201903152320 METAR ESMX 152320Z AUTO 32009KT 9999 OVC008/// 02/02 Q0986=
201903152250 METAR ESMX 152250Z AUTO 32007KT 9999 BKN007/// BKN009/// OVC022/// 02/02 Q0986=
201903152220 METAR ESMX 152220Z AUTO 32006KT 9999 FEW008/// OVC022/// 03/03 Q0985=
201903152150 METAR ESMX 152150Z AUTO 33007KT 9999 OVC018/// 03/03 Q0984=
201903152120 METAR ESMX 152120Z AUTO 33007KT 9999 FEW013/// OVC021/// 03/03 Q0984=
201903152050 METAR ESMX 152050Z AUTO 35006KT 9999 FEW009/// OVC019/// 03/03 Q0983=
201903152020 METAR ESMX 152020Z 36006KT 9999 FEW007 SCT009 03/03 Q0983=
201903151950 METAR ESMX 151950Z 03005KT 360V070 9999 FEW003 BKN008 02/02 Q0982=
201903151920 METAR ESMX 151920Z 03005KT 9999 DZ FEW006 SCT015 03/03 Q0982=
201903151850 METAR ESMX 151850Z VRB03KT 9999 -DZ FEW007 SCT028 03/03 Q0982=
201903151820 METAR ESMX 151820Z VRB03KT 9999 -RA FEW007 BKN033 03/03 Q0982=
201903151750 METAR ESMX 151750Z 13004KT 8000 DZ SCT006 BKN008 03/03 Q0983=
201903151720 METAR ESMX 151720Z 14003KT 090V170 9999 -RA BKN009 03/03 Q0983=
201903151650 METAR ESMX 151650Z 13003KT 090V160 9999 DZ FEW010 SCT021 BKN049 04/04 Q0984=
201903151620 METAR ESMX 151620Z 16003KT 9999 SCT026 BKN055 04/04 Q0985=
201903151550 METAR ESMX 151550Z 19004KT 9999 FEW011 SCT017 BKN025 04/04 Q0985=
201903151520 METAR ESMX 151520Z 19005KT 9999 FEW009 BKN024 04/04 Q0986=
201903151450 METAR ESMX 151450Z AUTO 19006KT 9999 SCT009/// BKN012/// BKN017/// 04/04 Q0986 RESHUP REUP=
201903151420 METAR ESMX 151420Z 20004KT 9999 BKN011 04/04 Q0987=
201903151350 METAR ESMX 151350Z 24008KT 9999 BKN010 04/04 Q0988=
201903151320 METAR ESMX 151320Z 23007KT 200V260 9999 SCT011 BKN016 04/04 Q0988=
201903151250 METAR ESMX 151250Z 23008KT 9999 BKN017 05/05 Q0988=
201903151220 METAR ESMX 151220Z 23009KT 9999 FEW009 BKN012 05/05 Q0988=
201903151150 METAR ESMX 151150Z 26007KT 230V300 9999 -RA SCT008 BKN032 05/05 Q0989=
201903151120 METAR ESMX 151120Z 25007KT 9999 SCT008 BKN017 05/05 Q0989=
201903151050 METAR ESMX 151050Z 24007KT 210V280 9999 -RA SCT010 BKN021 05/05 Q0989=
201903151020 METAR ESMX 151020Z 24005KT 9999 FEW009 BKN016 05/05 Q0989=
201903150950 METAR ESMX 150950Z 24005KT 200V270 9999 BKN010 04/04 Q0989=
201903150920 METAR ESMX 150920Z 24006KT 210V280 9999 BR BKN003 04/04 Q0989=
201903150850 METAR ESMX 150850Z 21006KT 4300 BR OVC001 04/04 Q0990=
201903150820 METAR ESMX 150820Z 20007KT 4500 BR OVC002 03/03 Q0990=
201903150750 METAR ESMX 150750Z 21006KT 1100 R01/1400U R19/1300N OVC001 03/03 Q0990=
201903150720 METAR ESMX 150720Z 19006KT 1300 R01/1700N R19/P2000D BR OVC001 03/03 Q0990=
201903150650 METAR ESMX 150650Z 22005KT 190V330 3500 BR OVC002 03/03 Q0990=
201903150620 METAR ESMX 150620Z 21005KT 1900 BR SCT002 BKN004 03/03 Q0990=
201903150550 METAR ESMX 150550Z 20005KT 9999 DZ BKN007 BKN018 03/03 Q0990=
201903150520 METAR ESMX 150520Z 21005KT 8000 DZ SCT005 BKN010 03/03 Q0989=
201903150450 METAR ESMX 150450Z AUTO 22005KT 9000 DZ SCT007/// BKN010/// OVC012/// 03/03 Q0989 REDZ=
201903150420 METAR ESMX 150420Z AUTO 19007KT 9000 DZ SCT005/// BKN007/// BKN009/// 03/03 Q0989=
201903150350 METAR ESMX 150350Z AUTO 18006KT 6000 DZ BKN004/// OVC007/// 03/03 Q0989 REDZ=
201903150320 METAR ESMX 150320Z AUTO 15004KT 8000 DZ SCT004/// BKN006/// OVC009/// 03/03 Q0989=
201903150250 METAR ESMX 150250Z AUTO 17004KT 7000 -RA BKN005/// OVC009/// 03/03 Q0989 REDZ=
201903150220 METAR ESMX 150220Z AUTO 15004KT 8000 DZ SCT005/// BKN007/// BKN010/// 03/03 Q0989=
201903150150 METAR ESMX 150150Z AUTO 15004KT 8000 -RA SCT005/// BKN008/// BKN010/// 03/03 Q0989=
201903150120 METAR ESMX 150120Z AUTO 15004KT 9999 OVC007/// 03/03 Q0989=
201903150050 METAR ESMX 150050Z 15004KT 9999 -RA BKN006 03/03 Q0989=
201903150020 METAR ESMX 150020Z 15005KT 8000 -RA FEW005 BKN007 03/03 Q0989=
201903142350 METAR ESMX 142350Z 16005KT 9000 -RA BKN004 OVC008 04/04 Q0989=
201903142320 METAR COR ESMX 142320Z 16004KT 9999 -RA OVC004 04/04 Q0989=
201903142250 METAR ESMX 142250Z AUTO 17005KT 9999 DZ OVC005/// 04/04 Q0989=
201903142220 METAR ESMX 142220Z AUTO 15005KT 9999 -DZ BKN004/// OVC013/// 04/04 Q0988 REDZ=
201903142150 METAR ESMX 142150Z 14004KT 9999 -RA BKN005 OVC014 04/04 Q0988=
201903142120 METAR ESMX 142120Z 15005KT 9999 -RA BKN006 OVC012 04/04 Q0988=
201903142050 METAR ESMX 142050Z 15005KT 110V170 9999 -RA BKN006 OVC014 04/04 Q0988=
201903142020 METAR ESMX 142020Z 14005KT 9999 -RA SCT007 BKN012 04/04 Q0988=
201903141950 METAR ESMX 141950Z 16006KT 9999 -RA FEW007 BKN016 04/04 Q0988=
201903141920 METAR ESMX 141920Z 15006KT 8000 -RA SCT012 BKN022 04/04 Q0988=
201903141850 METAR ESMX 141850Z 15006KT 7000 -RA FEW008 BKN015 04/04 Q0988=
201903141820 METAR COR ESMX 141820Z 14004KT 6000 -RA FEW010 BKN026 04/04 Q0988=
201903141750 METAR ESMX 141750Z 16005KT 9000 -RA SCT010 BKN018 04/04 Q0988=
201903141720 METAR COR ESMX 141720Z 16007KT 9999 -RA SCT009 BKN018 04/04 Q0988=
201903141650 METAR ESMX 141650Z 15005KT 9999 -RA SCT010 BKN020 04/04 Q0988=
201903141620 METAR ESMX 141620Z 16005KT 120V190 9999 -DZ FEW006 BKN016 05/05 Q0988=
201903141550 METAR ESMX 141550Z 15005KT 9999 FEW012 BKN020 05/05 Q0988=
201903141520 METAR ESMX 141520Z 15006KT 9999 FEW026 SCT046 BKN086 05/05 Q0988=
201903141450 METAR ESMX 141450Z 14007KT 9999 FEW011 BKN024 05/05 Q0988=
201903141420 METAR ESMX 141420Z 13004KT 070V180 9999 -DZ FEW007 BKN015 05/05 Q0988=
201903141350 METAR ESMX 141350Z VRB03KT 9000 -RA FEW015 BKN022 05/05 Q0988=
201903141320 METAR ESMX 141320Z 21006KT 180V250 9999 -RA BKN015 05/05 Q0989=
201903141250 METAR ESMX 141250Z 22005KT 180V250 9999 SCT013 BKN020 05/04 Q0989=
201903141220 METAR ESMX 141220Z 23008KT 9999 BKN020 05/04 Q0989=
201903141150 METAR ESMX 141150Z 26006KT 9999 BKN023 05/01 Q0989=
201903141120 METAR ESMX 141120Z 25009KT 200V280 9999 SCT018 OVC025 05/02 Q0990=
201903141050 METAR ESMX 141050Z 24010KT 9999 BKN014 04/01 Q0990=
201903141020 METAR ESMX 141020Z 26008KT 230V300 9999 BKN019 04/04 Q0990=
201903140950 METAR ESMX 140950Z 24010KT 9999 FEW010 BKN021 04/03 Q0990=
201903140920 METAR ESMX 140920Z 26009KT 9999 SCT009 BKN012 04/04 Q0990=
201903140850 METAR ESMX 140850Z 26007KT 7000 -DZ FEW002 BKN009 04/04 Q0990=
201903140820 METAR ESMX 140820Z 26006KT 9999 BKN006 04/04 Q0990=
201903140750 METAR ESMX 140750Z 24005KT 210V270 9999 FEW005 BKN007 04/04 Q0990=
201903140720 METAR ESMX 140720Z 23005KT 190V260 6000 -RA BKN004 04/04 Q0989=
201903140650 METAR ESMX 140650Z 21005KT 5000 BR BKN006 03/03 Q0989=
201903140620 METAR ESMX 140620Z AUTO 19004KT 5000 -RA OVC002/// 03/03 Q0989 REDZ REUP=
201903140550 METAR ESMX 140550Z 17005KT 7000 BR OVC003 03/03 Q0989=
201903140520 METAR ESMX 140520Z 17004KT 7000 BR BKN003 03/03 Q0989=
201903140450 METAR ESMX 140450Z 15005KT 8000 BR BKN004 03/03 Q0989=
201903140420 METAR ESMX 140420Z AUTO 15005KT 9999 SCT004/// OVC007/// 03/03 Q0989=
201903140350 METAR ESMX 140350Z AUTO 15005KT 9999 BKN004/// OVC019/// 03/03 Q0989=
201903140320 METAR ESMX 140320Z AUTO 14004KT 9000 BR FEW006/// SCT008/// BKN017/// 03/03 Q0989=
201903140250 METAR ESMX 140250Z AUTO 14006KT 9999 BKN007/// OVC022/// 03/03 Q0989=
201903140220 METAR ESMX 140220Z AUTO 16005KT 9999 BKN005/// BKN009/// OVC023/// 03/03 Q0989=
201903140150 METAR ESMX 140150Z AUTO 15006KT 9999 OVC005/// 04/04 Q0989=
201903140120 METAR ESMX 140120Z AUTO 15005KT 8000 DZ FEW002/// BKN006/// OVC009/// 04/04 Q0989 RESHUP REUP=
201903140050 METAR ESMX 140050Z AUTO 16005KT 9999 BKN007/// OVC021/// 04/04 Q0990=
201903140020 METAR ESMX 140020Z AUTO 16006KT 9999 SCT006/// BKN008/// BKN020/// 04/04 Q0990=
201903132350 METAR ESMX 132350Z AUTO 16008KT 9999 BKN005/// OVC051/// 04/04 Q0990 REUP REDZ=
201903132320 METAR ESMX 132320Z AUTO 18006KT 9999 BKN005/// BKN010/// OVC013/// 04/04 Q0990=
201903132250 METAR ESMX 132250Z AUTO 17008KT 9999 SCT005/// BKN012/// BKN021/// 04/04 Q0990=
201903132220 METAR ESMX 132220Z AUTO 17009KT 6000 -RA BKN006/// OVC009/// 04/04 Q0990 REDZ=
201903132150 METAR ESMX 132150Z 16008KT 9999 BKN006 OVC008 04/04 Q0990=
201903132120 METAR ESMX 132120Z 16010KT 9999 BKN007 OVC011 04/04 Q0990=
201903132050 METAR ESMX 132050Z 16010KT 9000 BR BKN006 OVC013 04/04 Q0990=
201903132020 METAR ESMX 132020Z 15010KT 9000 BR BKN006 OVC008 04/04 Q0990=
201903131950 METAR ESMX 131950Z 16009KT 9999 DZ FEW002 BKN005 OVC008 03/03 Q0990=
201903131920 METAR ESMX 131920Z 17010KT 9999 -RA BKN006 OVC008 03/03 Q0990=
201903131850 METAR ESMX 131850Z 16011KT 9999 DZ OVC006 03/03 Q0990=
201903131820 METAR ESMX 131820Z 17012KT 9000 DZ BKN007 OVC028 03/03 Q0990=
201903131750 METAR ESMX 131750Z 15010KT 9000 DZ OVC007 04/04 Q0990=
201903131720 METAR ESMX 131720Z 15010KT 8000 -RA FEW002 BKN008 04/04 Q0990=
201903131650 METAR ESMX 131650Z 15010KT 9999 BKN007 04/04 Q0991=
201903131620 METAR ESMX 131620Z 17010KT 140V200 9999 -DZ BKN008 OVC010 04/04 Q0991=
201903131550 METAR ESMX 131550Z 15009KT 9999 FEW008 OVC010 04/04 Q0991=
201903131520 METAR ESMX 131520Z 15009KT 9999 FEW002 OVC008 04/04 Q0991=
201903131450 METAR ESMX 131450Z 17010KT 5000 -RA FEW002 OVC008 04/04 Q0991=
201903131420 METAR ESMX 131420Z 16010KT 9999 RA OVC010 05/05 Q0991=
201903131350 METAR ESMX 131350Z 16011KT 9999 BKN011 05/05 Q0991=
201903131320 METAR ESMX 131320Z 18011KT 9999 OVC010 04/04 Q0992=
201903131250 METAR ESMX 131250Z 18012KT 9999 BKN009 04/04 Q0992=
201903131220 METAR ESMX 131220Z 18013KT 9999 -RA BKN010 05/05 Q0992=
201903131150 METAR ESMX 131150Z 18014KT 9999 BKN008 04/04 Q0992=
201903131120 METAR ESMX 131120Z 17012KT 9999 -RA BKN008 04/04 Q0992=
201903131050 METAR ESMX 131050Z 18014KT 9000 -RA FEW003 SCT006 BKN010 04/04 Q0992=
201903131020 METAR ESMX 131020Z 18012KT 9999 -RA BKN010 OVC014 05/05 Q0991=
201903130950 METAR ESMX 130950Z 18012KT 9999 -RA BKN011 BKN014 04/04 Q0991=
201903130920 METAR ESMX 130920Z 19011KT 9999 FEW008 SCT011 BKN015 04/04 Q0991=
201903130850 METAR ESMX 130850Z 21011KT 9999 BKN007 BKN016 OVC026 04/04 Q0991=
201903130820 METAR ESMX 130820Z 20011KT 9999 BKN005 OVC007 03/03 Q0991=
201903130750 METAR ESMX 130750Z 19010KT 8000 -RA BKN005 02/02 Q0991=
201903130720 METAR ESMX 130720Z 19011KT 7000 -RA BKN005 02/02 Q0991=
201903130650 METAR ESMX 130650Z 18013KT 9999 -RA BKN006 02/02 Q0990=
201903130620 METAR ESMX 130620Z 16012KT 8000 -RA BKN004 02/02 Q0990=
201903130550 METAR ESMX 130550Z 15012KT 8000 -RASN OVC004 02/02 Q0990=
201903130520 METAR ESMX 130520Z 15011KT 7000 -SNRA OVC004 01/01 Q0990=
201903130450 METAR ESMX 130450Z 14012KT 9999 -RA BKN003 01/01 Q0990=
201903130420 METAR ESMX 130420Z AUTO 14010KT 6000 -SN OVC002/// 01/01 Q0990=
201903130350 METAR ESMX 130350Z AUTO 14010KT 3400 -SN BKN002/// OVC004/// 01/01 Q0991 RERA=
201903130320 METAR ESMX 130320Z AUTO 14009KT 5000 -RA OVC004/// 01/01 Q0991=
201903130250 METAR ESMX 130250Z AUTO 17011KT 130V200 5000 -RA OVC005/// 02/02 Q0992=
201903130220 METAR ESMX 130220Z AUTO 15011KT 8000 -RA OVC005/// 02/02 Q0992 REDZ=
201903130150 METAR ESMX 130150Z AUTO 15012KT 9999 DZ OVC006/// 02/02 Q0993=
201903130120 METAR ESMX 130120Z AUTO 14012KT 110V170 9000 DZ OVC006/// 02/02 Q0993 REDZ=
201903130050 METAR ESMX 130050Z AUTO 14011KT 8000 -RA OVC006/// 02/02 Q0994 REDZ=
201903130020 METAR ESMX 130020Z AUTO 15011KT 120V190 8000 -RA OVC006/// 02/02 Q0995 REDZ=
201903122350 METAR ESMX 122350Z AUTO 15012KT 110V170 9000 DZ OVC007/// 02/02 Q0996=
201903122320 METAR ESMX 122320Z AUTO 14013KT 9999 -DZ BKN007/// OVC010/// 02/02 Q0997=
201903122250 METAR ESMX 122250Z AUTO 14012KT 9999 -DZ OVC006/// 02/02 Q0997=
201903122220 METAR ESMX 122220Z AUTO 15011KT 5000 -RA FEW002/// OVC005/// 02/02 Q0998=
201903122150 METAR ESMX 122150Z AUTO 15011KT 8000 DZ OVC005/// 02/02 Q0999 REDZ=
201903122120 METAR ESMX 122120Z 15011KT 9999 DZ OVC005 02/02 Q1000=
201903122050 METAR ESMX 122050Z 16009G20KT 8000 DZ OVC004 02/02 Q1000=
201903122020 METAR ESMX 122020Z 15011KT 8000 DZ BKN004 02/02 Q1001=
201903121950 METAR ESMX 121950Z 14011KT 8000 -DZ BKN004 02/02 Q1002=
201903121920 METAR ESMX 121920Z 15011KT 7000 -RA BKN005 02/02 Q1003=
201903121850 METAR ESMX 121850Z 15010KT 6000 -RA BKN006 02/02 Q1003=
201903121820 METAR ESMX 121820Z 15010KT 8000 DZ BKN008 02/02 Q1004=
201903121750 METAR ESMX 121750Z 15010KT 9999 -DZ BKN009 03/03 Q1004=
201903121720 METAR ESMX 121720Z 14009KT 9999 BKN007 03/03 Q1005=
201903121650 METAR ESMX 121650Z 14008KT 9999 BKN007 02/02 Q1005=
201903121620 METAR ESMX 121620Z 15007KT 9999 BKN008 02/02 Q1006=
201903121550 METAR ESMX 121550Z 14007KT 9999 FEW009 SCT023 03/03 Q1007=
201903121520 METAR ESMX 121520Z 15007KT 9999 FEW009 03/03 Q1007=
201903121450 METAR ESMX 121450Z 14006KT 110V170 9999 SCT007 BKN034 02/02 Q1008=
201903121420 METAR ESMX 121420Z 16008KT 9999 -RA BKN007 BKN010 02/02 Q1009=
201903121350 METAR ESMX 121350Z 17008KT 8000 -RASN FEW004 BKN012 OVC032 03/03 Q1009=
201903121320 METAR ESMX 121320Z 19009KT 9999 -RA SCT016 BKN027 04/M00 Q1009=
201903121250 METAR ESMX 121250Z 15008KT 9999 SCT022 BKN027 03/M01 Q1010=
201903121220 METAR ESMX 121220Z 15007KT 9999 SCT022 BKN027 04/M02 Q1010=
201903121150 METAR ESMX 121150Z 17005KT 110V210 9999 SCT023 BKN035 03/M02 Q1011=
201903121120 METAR ESMX 121120Z 19005KT 130V240 9999 SCT020 BKN028 03/M02 Q1011=
201903121050 METAR ESMX 121050Z 16004KT 120V210 9999 BKN020 02/M03 Q1011=
201903121020 METAR ESMX 121020Z VRB02KT 9999 FEW025 02/M03 Q1011=
201903120950 METAR ESMX 120950Z 12003KT 060V160 9999 FEW025 02/M03 Q1012=
201903120920 METAR ESMX 120920Z VRB02KT CAVOK 01/M03 Q1012=
201903120850 METAR ESMX 120850Z 26003KT 190V290 9999 FEW006 00/M02 Q1012=
201903120820 METAR ESMX 120820Z VRB01KT 9999 SCT009 M01/M04 Q1012=
201903120750 METAR ESMX 120750Z VRB02KT 9999 BKN008 M02/M03 Q1013=
201903120720 METAR ESMX 120720Z 00000KT 9999 BKN011 M03/M03 Q1013=
201903120650 METAR ESMX 120650Z VRB02KT 9999 SCT010 M05/M05 Q1012=
201903120620 METAR ESMX 120620Z 13002KT 9999 SCT010 M07/M07 Q1012=
201903120550 METAR ESMX 120550Z 00000KT CAVOK M08/M08 Q1012=
201903120520 METAR ESMX 120520Z 17003KT CAVOK M08/M08 Q1012=
201903120450 METAR ESMX 120450Z VRB01KT CAVOK M08/M08 Q1012=
201903120420 METAR ESMX 120420Z AUTO 00000KT 9999 NCD M08/M08 Q1012=
201903120350 METAR ESMX 120350Z AUTO 05002KT 9999 NCD M07/M07 Q1012=
201903120320 METAR ESMX 120320Z AUTO VRB02KT 9999 NCD M06/M07 Q1012=
201903120250 METAR ESMX 120250Z AUTO 23003KT 9999 NCD M06/M08 Q1012=
201903120220 METAR ESMX 120220Z AUTO 24005KT 9999 NCD M06/M08 Q1012=
201903120150 METAR ESMX 120150Z AUTO 24004KT 9999 NCD M05/M08 Q1012=
201903120120 METAR ESMX 120120Z AUTO 26004KT 9999 NCD M05/M09 Q1012=
201903120050 METAR ESMX 120050Z AUTO 25005KT 9999 NCD M04/M08 Q1012=
201903120020 METAR ESMX 120020Z AUTO 25006KT 9999 NCD M04/M08 Q1011=
201903112350 METAR ESMX 112350Z AUTO 26006KT 9999 NCD M03/M09 Q1011=
201903112320 METAR ESMX 112320Z AUTO 27006KT 9999 NCD M03/M09 Q1011=
201903112250 METAR ESMX 112250Z AUTO 28007KT 9999 FEW062/// M03/M09 Q1011=
201903112220 METAR ESMX 112220Z AUTO 27007KT 9999 OVC064/// M02/M09 Q1010=
201903112150 METAR ESMX 112150Z AUTO 26007KT 9999 OVC062/// M02/M09 Q1010=
201903112120 METAR ESMX 112120Z 28005KT CAVOK M03/M10 Q1010=
201903112050 METAR ESMX 112050Z 27005KT CAVOK M02/M11 Q1010=
201903112020 METAR ESMX 112020Z AUTO 30006KT 9999 NCD M02/M11 Q1009=
201903111950 METAR ESMX 111950Z 30008KT CAVOK M02/M11 Q1009=
201903111920 METAR ESMX 111920Z AUTO 29005KT 9999 FEW064/// M02/M10 Q1009=
201903111850 METAR ESMX 111850Z 29004KT CAVOK M02/M11 Q1008=
201903111820 METAR ESMX 111820Z 30005KT CAVOK M02/M11 Q1008=
201903111750 METAR ESMX 111750Z 30006KT CAVOK M01/M11 Q1008=
201903111720 METAR ESMX 111720Z 31007KT CAVOK M00/M12 Q1007=
201903111650 METAR ESMX 111650Z 31009KT CAVOK 00/M12 Q1007=
201903111620 METAR ESMX 111620Z 31011KT CAVOK 01/M11 Q1006=
201903111550 METAR ESMX 111550Z 30012KT 260V320 CAVOK 01/M11 Q1006=
201903111520 METAR ESMX 111520Z 32013KT CAVOK 02/M11 Q1006=
201903111450 METAR ESMX 111450Z 30011KT 9999 FEW045 02/M10 Q1005=
201903111420 METAR ESMX 111420Z 32012KT 280V340 9999 FEW045 02/M10 Q1005=
201903111350 METAR ESMX 111350Z 30012KT CAVOK 02/M10 Q1005=
201903111320 METAR ESMX 111320Z 32012KT 9999 FEW045 02/M09 Q1004=
201903111250 METAR ESMX 111250Z 31012KT 280V340 9999 FEW047 03/M09 Q1004=
201903111220 METAR ESMX 111220Z 29013KT 9999 FEW047 03/M07 Q1004=
201903111150 METAR ESMX 111150Z 30013KT 9999 FEW047 03/M08 Q1003=
201903111120 METAR ESMX 111120Z 30011KT 260V340 CAVOK 03/M08 Q1003=
201903111050 METAR ESMX 111050Z 32011KT 280V350 CAVOK 02/M08 Q1003=
201903111020 METAR ESMX 111020Z 29011KT 260V340 CAVOK 02/M09 Q1003=
201903110950 METAR ESMX 110950Z 31007KT 290V350 CAVOK 01/M07 Q1003=
201903110920 METAR ESMX 110920Z 31008KT 270V340 CAVOK 01/M06 Q1002=
201903110850 METAR ESMX 110850Z 30009KT CAVOK M00/M07 Q1002=
201903110820 METAR ESMX 110820Z 29008KT CAVOK M01/M05 Q1002=
201903110750 METAR ESMX 110750Z 28007KT CAVOK M02/M05 Q1002=
201903110720 METAR ESMX 110720Z 26005KT CAVOK M03/M03 Q1001=
201903110650 METAR ESMX 110650Z 26004KT CAVOK M03/M03 Q1001=
201903110620 METAR ESMX 110620Z 26004KT CAVOK M05/M05 Q1001=
201903110550 METAR ESMX 110550Z 27004KT CAVOK M05/M05 Q1001=
201903110520 METAR ESMX 110520Z 25005KT CAVOK M05/M05 Q1000=
201903110450 METAR ESMX 110450Z 26005KT CAVOK M05/M05 Q1000=
201903110420 METAR ESMX 110420Z AUTO 26005KT 9999 NCD M05/M05 Q1000=
201903110350 METAR ESMX 110350Z AUTO 26005KT 9999 NCD M05/M05 Q0999=
201903110320 METAR ESMX 110320Z AUTO 26005KT 9999 NCD M05/M05 Q0999=
201903110250 METAR ESMX 110250Z AUTO 25006KT 9999 NCD M05/M05 Q0999=
201903110220 METAR ESMX 110220Z AUTO 25006KT 9999 NCD M04/M04 Q0999=
201903110150 METAR ESMX 110150Z AUTO 25007KT 9999 NCD M04/M05 Q0998=
201903110120 METAR ESMX 110120Z AUTO 27005KT 9999 NCD M04/M06 Q0998=
201903110050 METAR ESMX 110050Z AUTO 26006KT 9999 NCD M04/M06 Q0998=
201903110020 METAR ESMX 110020Z AUTO 28005KT 9999 NCD M04/M07 Q0998=
201903102350 METAR ESMX 102350Z AUTO 27006KT 9999 NCD M04/M07 Q0998=
201903102320 METAR ESMX 102320Z AUTO 27005KT 9999 NCD M04/M07 Q0997=
201903102250 METAR ESMX 102250Z AUTO 28006KT 9999 NCD M03/M07 Q0997=
201903102220 METAR ESMX 102220Z AUTO 28005KT 9999 NCD M04/M06 Q0997=
201903102150 METAR ESMX 102150Z 28004KT CAVOK M03/M07 Q0997=
201903102120 METAR ESMX 102120Z 29005KT CAVOK M03/M06 Q0997=
201903102050 METAR ESMX 102050Z 29006KT CAVOK M03/M06 Q0996=
201903102020 METAR ESMX 102020Z 28005KT CAVOK M03/M06 Q0996=
201903101950 METAR ESMX 101950Z 29004KT CAVOK M03/M06 Q0996=
201903101920 METAR ESMX 101920Z 30004KT CAVOK M02/M06 Q0996=
201903101850 METAR ESMX 101850Z 30003KT CAVOK M02/M07 Q0995=
201903101820 METAR ESMX 101820Z 30004KT CAVOK M02/M06 Q0995=
201903101750 METAR ESMX 101750Z 31004KT CAVOK M02/M07 Q0995=
201903101720 METAR ESMX 101720Z 32005KT CAVOK M01/M07 Q0994=
201903101650 METAR ESMX 101650Z 30004KT CAVOK M00/M07 Q0994=
201903101620 METAR ESMX 101620Z 32004KT CAVOK 00/M07 Q0994=
201903101550 METAR ESMX 101550Z 32005KT 280V350 9999 FEW033 BKN060 01/M07 Q0994=
201903101520 METAR ESMX 101520Z 35007KT 9999 FEW036 BKN060 01/M05 Q0994=
201903101450 METAR ESMX 101450Z 34007KT 9999 BKN048 02/M06 Q0994=
201903101420 METAR ESMX 101420Z 34008KT 9999 SCT035 BKN050 01/M05 Q0994=
201903101350 METAR ESMX 101350Z 36008KT 9999 BKN040 01/M06 Q0994=
201903101320 METAR ESMX 101320Z 33006KT 9999 BKN030 02/M04 Q0994=
201903101250 METAR ESMX 101250Z 31007KT 9999 SCT020 BKN032 02/M04 Q0994=
201903101220 METAR ESMX 101220Z 30008KT 9999 -RASN SCT020 BKN035 02/M01 Q0994=
201903101150 METAR ESMX 101150Z 34007KT 9999 BKN020 02/M02 Q0994=
201903101120 METAR ESMX 101120Z 33006KT 280V010 9999 BKN020 02/M01 Q0994=
201903101050 METAR ESMX 101050Z 31009KT 280V340 9999 FEW020 BKN030 01/M00 Q0994=
201903101020 METAR ESMX 101020Z 30009KT 260V330 9999 SCT013 BKN025 01/M00 Q0994=
201903100950 METAR ESMX 100950Z AUTO 29007KT 260V320 9999 BKN021/// OVC029/// 01/00 Q0994=
201903100920 METAR ESMX 100920Z AUTO 28007KT 250V320 9999 FEW020/// OVC028/// 01/01 Q0994=
201903100850 METAR ESMX 100850Z AUTO 31008KT 9999 -SN FEW006/// SCT011/// OVC030/// 00/00 Q0994=
201903100820 METAR ESMX 100820Z AUTO 30006KT 1200 R01/P2000N R19/1200D -SN BKN001/// BKN013/// OVC016/// 00/00 Q0993=
201903100750 METAR ESMX 100750Z AUTO 30011KT 2200 -SN BKN013/// OVC019/// 01/01 Q0993 REUP=
201903100720 METAR ESMX 100720Z AUTO 30009KT 9999 FEW013/// BKN024/// 01/01 Q0993=
201903100650 METAR ESMX 100650Z AUTO 29009KT 9999 SCT006/// BKN008/// OVC023/// 01/01 Q0992=
201903100620 METAR ESMX 100620Z AUTO 29009KT 9999 SCT009/// BKN032/// OVC074/// 01/01 Q0992 RESHUP=
201903100550 METAR ESMX 100550Z AUTO 30010KT 270V330 9999 SCT006/// BKN017/// OVC074/// 01/01 Q0991 RERA REDZ=
201903100520 METAR ESMX 100520Z AUTO 27009KT 5000 DZ BKN005/// OVC007/// 02/02 Q0991 REUP RESHUP=
201903100450 METAR ESMX 100450Z AUTO 27007KT 9999 OVC009/// 02/02 Q0990=
201903100420 METAR ESMX 100420Z AUTO 27008KT 9999 BKN009/// OVC011/// 02/02 Q0990=
201903100350 METAR ESMX 100350Z AUTO 27007KT 230V290 9999 FEW007/// OVC010/// 02/02 Q0990=
201903100320 METAR ESMX 100320Z AUTO 25006KT 210V280 9999 BKN007/// OVC010/// 02/02 Q0989=
201903100250 METAR ESMX 100250Z AUTO 24006KT 210V270 9999 OVC007/// 02/02 Q0989 REUP=
201903100220 METAR ESMX 100220Z AUTO 25006KT 9999 OVC008/// 02/02 Q0989=
201903100150 METAR ESMX 100150Z AUTO 24007KT 9999 OVC008/// 02/02 Q0989=
201903100120 METAR ESMX 100120Z AUTO 25010KT 9999 OVC008/// 02/02 Q0989=
201903100050 METAR ESMX 100050Z AUTO 25010KT 9999 OVC007/// 02/02 Q0989=
201903100020 METAR ESMX 100020Z AUTO 24010KT 9000 BR OVC006/// 02/02 Q0989=
201903092350 METAR ESMX 092350Z AUTO 25012KT 8000 -RA BKN007/// OVC009/// 02/02 Q0989=
201903092320 METAR ESMX 092320Z AUTO 25011KT 9000 -RA BKN007/// OVC013/// 02/02 Q0989 REDZ=
201903092250 METAR ESMX 092250Z AUTO 25012KT 9999 DZ BKN007/// OVC017/// 02/02 Q0988=
201903092220 METAR ESMX 092220Z AUTO 24013KT 9000 -RA SCT007/// BKN011/// OVC020/// 02/02 Q0988=
201903092150 METAR ESMX 092150Z AUTO 25014KT 9999 -DZ BKN014/// BKN016/// OVC025/// 03/03 Q0988=
201903092120 METAR ESMX 092120Z AUTO 25012KT 9999 -DZ SCT017/// BKN021/// OVC027/// 03/03 Q0988=
201903092050 METAR ESMX 092050Z AUTO 24013G24KT 9999 -DZ SCT020/// OVC029/// 03/02 Q0988 REUP=
201903092020 METAR ESMX 092020Z AUTO 25014KT 9999 OVC023/// 03/02 Q0988=
201903091950 METAR ESMX 091950Z AUTO 24015KT 9999 BKN023/// BKN047/// OVC070/// 03/02 Q0988=
201903091920 METAR ESMX 091920Z AUTO 24012KT 9999 BKN023/// BKN034/// OVC053/// 03/03 Q0988=
201903091850 METAR ESMX 091850Z AUTO 24014KT 9999 OVC022/// 03/03 Q0988=
201903091820 METAR ESMX 091820Z AUTO 24017KT 200V260 9999 BKN021/// OVC038/// 04/03 Q0988=
201903091750 METAR ESMX 091750Z AUTO 24014KT 9999 FEW011/// BKN027/// BKN057/// 04/04 Q0988=
201903091720 METAR ESMX 091720Z AUTO 24014G24KT 9999 DZ FEW015/// BKN021/// OVC028/// 04/04 Q0988=
201903091650 METAR ESMX 091650Z AUTO 24014KT 9999 BKN015/// BKN029/// OVC035/// 04/04 Q0988=
201903091620 METAR ESMX 091620Z AUTO 23013KT 9999 DZ ///031 04/04 Q0988 RERA=
201903091550 METAR ESMX 091550Z AUTO 23012KT 9999 DZ SCT014/// BKN023/// BKN029/// 04/04 Q0988 REDZ=
201903091520 METAR ESMX 091520Z AUTO 25012KT 9999 FEW012/// SCT016/// BKN020/// 04/04 Q0988=
201903091450 METAR ESMX 091450Z AUTO 24012KT 9000 DZ BKN013/// OVC024/// 04/04 Q0988 RERA=
201903091420 METAR ESMX 091420Z AUTO 24014KT 9999 SCT010/// BKN012/// BKN018/// 04/04 Q0988 REDZ=
201903091350 METAR ESMX 091350Z AUTO 24015KT 9999 DZ BKN009/// OVC020/// 04/04 Q0988=
201903091320 METAR ESMX 091320Z AUTO 23012G23KT 200V260 9000 -RA BKN007/// BKN010/// OVC023/// 03/03 Q0988=
201903091250 METAR ESMX 091250Z AUTO 22012KT 7000 -RA BKN007/// OVC009/// 03/03 Q0988=
201903091220 METAR ESMX 091220Z AUTO 21011KT 8000 -RA BKN005/// OVC008/// 03/03 Q0988=
201903091150 METAR ESMX 091150Z AUTO 19010KT 8000 -RA OVC005/// 03/03 Q0988 RERA=
201903091120 METAR ESMX 091120Z AUTO 18010KT 6000 -RA FEW002/// OVC005/// 03/03 Q0988 RESHUP=
201903091050 METAR ESMX 091050Z AUTO 17011KT 7000 -DZ FEW002/// OVC006/// 03/03 Q0989=
201903091020 METAR ESMX 091020Z AUTO 16008KT 120V190 9999 -RA OVC006/// 03/03 Q0989 REDZ=
201903090950 METAR ESMX 090950Z 16008KT 120V190 8000 -DZ BKN006 03/03 Q0990=
201903090920 METAR ESMX 090920Z 17008KT 8000 -DZ BKN006 02/02 Q0991=
201903090850 METAR ESMX 090850Z 17009KT 8000 -DZ BKN006 02/02 Q0992=
201903090820 METAR ESMX 090820Z 17009KT 8000 -DZ BKN006 02/02 Q0992=
201903090750 METAR ESMX 090750Z AUTO 17008KT 9999 OVC006/// 02/02 Q0993=
201903090720 METAR ESMX 090720Z AUTO 17008KT 9999 OVC006/// 02/02 Q0994=
201903090650 METAR ESMX 090650Z AUTO 18010KT 9999 OVC008/// 02/02 Q0994=
201903090620 METAR ESMX 090620Z AUTO 18009KT 9999 OVC007/// 01/01 Q0995=
201903090550 METAR ESMX 090550Z AUTO 18010KT 9999 OVC007/// 01/01 Q0996=
201903090520 METAR ESMX 090520Z AUTO 18008KT 9999 SCT009/// BKN017/// 01/01 Q0996=
201903090450 METAR ESMX 090450Z AUTO 19011KT 9999 BKN009/// OVC011/// 01/01 Q0997=
201903090420 METAR ESMX 090420Z AUTO 18008KT 9999 OVC010/// 02/02 Q0997=
201903090350 METAR ESMX 090350Z AUTO 19007KT 9999 BKN011/// OVC014/// 02/02 Q0998=
201903090320 METAR ESMX 090320Z AUTO 19007KT 9999 BKN013/// OVC042/// 02/02 Q0998=
201903090250 METAR ESMX 090250Z AUTO 19008KT 9999 SCT019/// OVC044/// 02/02 Q0999=
201903090220 METAR ESMX 090220Z AUTO 20008KT 9999 SCT013/// OVC045/// 02/02 Q0999=
201903090150 METAR ESMX 090150Z AUTO 21009KT 9999 SCT013/// BKN047/// 01/01 Q1000=
201903090120 METAR ESMX 090120Z AUTO 21008KT 9999 SCT013/// OVC036/// 01/01 Q1000=
201903090050 METAR ESMX 090050Z AUTO 21009KT 9999 FEW008/// SCT019/// BKN036/// 01/01 Q1000=
201903090020 METAR ESMX 090020Z AUTO 23009KT 9999 SCT022/// 01/01 Q1000=
201903082350 METAR ESMX 082350Z AUTO 24010KT 9999 BKN026/// 02/01 Q1001=
201903082320 METAR ESMX 082320Z AUTO 23009KT 9999 BKN024/// 01/01 Q1000=
201903082250 METAR ESMX 082250Z AUTO 24009KT 9999 OVC025/// 02/01 Q1000=
201903082220 METAR ESMX 082220Z AUTO 25010KT 9999 FEW025/// 01/01 Q1000=
201903082150 METAR ESMX 082150Z AUTO 25010KT 9999 NCD 01/01 Q1000=
201903082120 METAR ESMX 082120Z 25011KT CAVOK 01/01 Q1000=
201903082050 METAR ESMX 082050Z 25010KT 210V280 9999 BKN022 01/01 Q0999=
201903082020 METAR ESMX 082020Z 25009KT 210V280 9999 BKN027 01/01 Q0999=
201903081950 METAR ESMX 081950Z 26009KT 230V300 9999 SCT015 BKN023 01/01 Q0999=
201903081920 METAR ESMX 081920Z 25007KT 6000 -SN BKN028 01/00 Q0998=
201903081850 METAR ESMX 081850Z 28009KT 240V310 9999 -SN SCT030 BKN045 01/00 Q0998=
201903081820 METAR ESMX 081820Z 30011G22KT 270V330 9999 BKN028 01/01 Q0997=
201903081750 METAR ESMX 081750Z 27013KT 9999 SCT028 01/01 Q0996=
201903081720 METAR ESMX 081720Z 26019G31KT 230V290 9999 -SHRASN SCT020 BKN030 01/01 Q0995=
201903081650 METAR ESMX 081650Z 28015G28KT 240V310 9999 -SHRASN SCT011 BKN030 01/01 Q0994=
201903081620 METAR ESMX 081620Z 26016G30KT 9999 -SHRA BKN030 03/00 Q0993=
201903081550 METAR ESMX 081550Z 26015G27KT 9999 SCT020 02/01 Q0992=
201903081520 METAR ESMX 081520Z 27017G30KT 9999 SCT015 BKN020 02/02 Q0992 RESHRASN=
201903081450 METAR ESMX 081450Z 26016G27KT 230V300 9999 SCT012 BKN022 03/03 Q0990=
201903081420 METAR ESMX 081420Z 26014G25KT 230V290 9999 -DZ FEW005 BKN020 03/03 Q0989=
201903081350 METAR ESMX 081350Z 26016G31KT 9999 SCT017 BKN025 04/03 Q0988=
201903081320 METAR ESMX 081320Z 27018G28KT 9999 -RA SCT013 BKN017 04/04 Q0987=
201903081250 METAR ESMX 081250Z 27018KT 9999 -RA BKN009 04/04 Q0986=
201903081220 METAR ESMX 081220Z 28022KT 9000 -RA BKN010 05/05 Q0985=
201903081150 METAR ESMX 081150Z 24014KT 9999 -DZ BKN008 05/05 Q0984=
201903081120 METAR ESMX 081120Z 23014KT 210V270 9999 DZ OVC010 05/05 Q0983=
201903081050 METAR COR ESMX 081050Z 23014KT 9999 -DZ BKN008 05/05 Q0983=
201903081020 METAR ESMX 081020Z 21013KT 9999 -DZ BKN008 05/05 Q0983=
201903080950 METAR ESMX 080950Z 21013KT 9999 -RA BKN009 05/05 Q0982=
201903080920 METAR ESMX 080920Z 22013KT 9999 -RA BKN008 05/05 Q0982=
201903080850 METAR ESMX 080850Z 21012KT 8000 BR BKN005 05/05 Q0982=
201903080820 METAR ESMX 080820Z 19012KT 8000 BR BKN004 05/05 Q0982=
201903080750 METAR ESMX 080750Z 19013KT 4000 -RA BKN002 OVC004 04/04 Q0982=
201903080720 METAR ESMX 080720Z 18013KT 5000 -RA OVC005 04/04 Q0982=
201903080650 METAR ESMX 080650Z 18013KT 9999 OVC005 04/04 Q0983=
201903080620 METAR ESMX 080620Z 18013KT 6000 -DZ BKN005 04/04 Q0983=
201903080550 METAR ESMX 080550Z 17014KT 9999 -DZ OVC007 04/04 Q0983=
201903080520 METAR ESMX 080520Z 17014KT 9999 BKN007 04/04 Q0984=
201903080450 METAR ESMX 080450Z AUTO 17013KT 9999 DZ BKN008/// OVC012/// 04/04 Q0984=
201903080420 METAR ESMX 080420Z AUTO 18015KT 6000 DZ FEW007/// BKN010/// OVC013/// 04/04 Q0985=
201903080350 METAR ESMX 080350Z AUTO 17015KT 9999 -RA OVC014/// 05/05 Q0985 REDZ REUP=
201903080320 METAR ESMX 080320Z AUTO 17015KT 9999 OVC014/// 05/05 Q0985=
201903080250 METAR ESMX 080250Z AUTO 17016KT 9999 OVC014/// 05/05 Q0986=
201903080220 METAR ESMX 080220Z AUTO 17013KT 9999 OVC014/// 05/05 Q0986=
201903080150 METAR ESMX 080150Z AUTO 17012KT 9999 OVC013/// 05/05 Q0987=
201903080120 METAR ESMX 080120Z AUTO 17012KT 9999 OVC011/// 05/05 Q0987=
201903080050 METAR ESMX 080050Z AUTO 18012KT 9999 BKN012/// OVC018/// 05/05 Q0988=
201903080020 METAR ESMX 080020Z 18012KT 9999 BKN015 04/04 Q0988=
201903072350 METAR ESMX 072350Z 18012KT 9999 FEW030 BKN047 04/04 Q0988=
201903072320 METAR ESMX 072320Z 18012KT 9999 BKN048 04/04 Q0988=
201903072250 METAR ESMX 072250Z 18013KT CAVOK 04/04 Q0989=
201903072220 METAR ESMX 072220Z 18013KT 9999 FEW025 04/04 Q0989=
201903072150 METAR ESMX 072150Z 19012KT 9999 BKN026 04/04 Q0989=
201903072120 METAR ESMX 072120Z 20011KT 9999 SCT030 04/04 Q0989=
201903072050 METAR ESMX 072050Z 19012KT 9999 BKN030 04/04 Q0989=
201903072020 METAR ESMX 072020Z 19013KT 9999 FEW028 BKN040 05/05 Q0989=
201903071950 METAR ESMX 071950Z 20012KT 9999 BKN040 05/05 Q0989=
201903071920 METAR ESMX 071920Z 22010KT 9999 SCT018 BKN025 05/05 Q0989=
201903071850 METAR ESMX 071850Z 21012KT 9999 BKN023 06/06 Q0989=
201903071820 METAR ESMX 071820Z 22012KT 9999 BKN020 06/06 Q0989=
201903071750 METAR ESMX 071750Z 23012KT 9999 SCT025 BKN035 06/06 Q0988=
201903071720 METAR ESMX 071720Z 22018G31KT 9999 -RA BKN012 07/07 Q0988=
201903071650 METAR ESMX 071650Z 20017G28KT 9999 BKN011 07/07 Q0987=
201903071620 METAR ESMX 071620Z 17012KT 9999 BKN007 07/07 Q0986=
201903071550 METAR ESMX 071550Z 17010KT 6000 BR OVC003 07/07 Q0986=
201903071520 METAR ESMX 071520Z 17009KT 7000 BR OVC002 07/07 Q0986=
201903071450 METAR ESMX 071450Z 14010KT 2500 BR OVC002 06/06 Q0987=
201903071420 METAR ESMX 071420Z 14009KT 8000 BR OVC003 06/06 Q0987=
201903071350 METAR ESMX 071350Z 16005KT 110V180 7000 -RA OVC002 06/06 Q0987=
201903071320 METAR ESMX 071320Z 13005KT 110V170 6000 -RA OVC002 06/06 Q0987=
201903071250 METAR ESMX 071250Z 14007KT 110V170 3400 -RA VV002 06/06 Q0988=
201903071220 METAR ESMX 071220Z 15008KT 0450 R01/0700U R19/0800N FG VV002 06/06 Q0988=
201903071150 METAR ESMX 071150Z 15007KT 0300 R01/0550N R19/0550N FG VV002 06/06 Q0989=
201903071120 METAR ESMX 071120Z 17007KT 0350 R01/0600N R19/0650N FG VV002 06/06 Q0989=
201903071050 METAR ESMX 071050Z 17007KT 0400 R01/0650N R19/0650N FG OVC002 06/06 Q0989=
201903071020 METAR ESMX 071020Z 16005KT 130V190 0700 R01/1100D R19/1200D OVC002 06/06 Q0989=
201903070950 METAR ESMX 070950Z 17007KT 1100 R01/1300N R19/1500N BR OVC002 06/06 Q0989=
201903070920 METAR ESMX 070920Z 16006KT 0800 R01/1100N R19/1400D FG OVC002 06/06 Q0989=
201903070850 METAR ESMX 070850Z AUTO 16007KT 1100 R01/1300D R19/1800D BR OVC001/// 05/05 Q0989 REUP=
201903070820 METAR ESMX 070820Z 16007KT 4000 BR OVC002 05/05 Q0990=
201903070750 METAR ESMX 070750Z 16007KT 6000 BR OVC003 05/05 Q0990=
201903070720 METAR ESMX 070720Z 16006KT 6000 -DZ OVC002 05/05 Q0990=
201903070650 METAR ESMX 070650Z AUTO 17007KT 4300 DZ OVC002/// 05/05 Q0990 REDZ=
201903070620 METAR ESMX 070620Z 17007KT 5000 -DZ OVC003 05/05 Q0990=
201903070550 METAR ESMX 070550Z 17008KT 9000 -RA OVC003 05/05 Q0990=
201903070520 METAR ESMX 070520Z 17008KT 6000 -RADZ OVC003 05/05 Q0991=
201903070450 METAR COR ESMX 070450Z 15009KT 7000 -RADZ OVC003 05/05 Q0991=
201903070420 METAR ESMX 070420Z AUTO 15009KT 5000 DZ OVC003/// 04/04 Q0991=
201903070350 METAR ESMX 070350Z AUTO 16008KT 5000 -RA OVC002/// 04/04 Q0991=
201903070320 METAR ESMX 070320Z AUTO 15009KT 8000 -DZ OVC004/// 04/04 Q0992=
201903070250 METAR ESMX 070250Z AUTO 15010KT 4500 -RA OVC003/// 04/04 Q0992=
201903070220 METAR ESMX 070220Z AUTO 15011KT 5000 -RA OVC003/// 04/04 Q0993=
201903070150 METAR ESMX 070150Z AUTO 15010KT 5000 -RA OVC004/// 04/04 Q0993 REDZ=
201903070120 METAR ESMX 070120Z AUTO 15011KT 4500 -RA OVC004/// 04/04 Q0994=
201903070050 METAR ESMX 070050Z AUTO 15011KT 4100 -RA FEW002/// OVC005/// 04/04 Q0994=
201903070020 METAR ESMX 070020Z AUTO 15012KT 4900 -RA FEW002/// OVC005/// 04/04 Q0995=
201903062350 METAR ESMX 062350Z AUTO 14010KT 4200 -RA BKN006/// OVC011/// 04/04 Q0996=
201903062320 METAR ESMX 062320Z AUTO 14010KT 4300 -RA FEW002/// BKN006/// BKN009/// 04/04 Q0997=
201903062250 METAR ESMX 062250Z AUTO 14011KT 5000 -RA BKN007/// OVC009/// 04/04 Q0997=
201903062220 METAR ESMX 062220Z AUTO 14011KT 6000 -RA BKN008/// OVC012/// 04/04 Q0998=
201903062150 METAR ESMX 062150Z 14010KT 090V170 6000 -RA OVC005 03/03 Q0998=
201903062120 METAR ESMX 062120Z 13009KT 090V160 6000 -RA FEW002 BKN006 OVC008 03/03 Q0999=
201903062050 METAR ESMX 062050Z 14010KT 5000 -RA FEW002 OVC006 03/03 Q1000=
201903062020 METAR ESMX 062020Z 14009KT 5000 DZ BKN002 OVC005 03/03 Q1001=
201903061950 METAR ESMX 061950Z 14009KT 5000 DZ SCT002 OVC006 03/03 Q1001=
201903061920 METAR ESMX 061920Z 14009KT 6000 RA FEW002 BKN006 OVC008 03/03 Q1002=
201903061850 METAR ESMX 061850Z 13007KT 100V170 4500 -RA FEW002 OVC004 03/03 Q1002=
201903061820 METAR ESMX 061820Z 14009KT 110V170 4500 DZ FEW002 OVC005 03/03 Q1003=
201903061750 METAR ESMX 061750Z 14009KT 6000 DZ OVC005 03/03 Q1003=
201903061720 METAR ESMX 061720Z 13008KT 9000 BR OVC005 03/03 Q1003=
201903061650 METAR ESMX 061650Z 14010KT 110V170 9999 OVC006 03/03 Q1004=
201903061620 METAR ESMX 061620Z 14009KT 9999 OVC007 03/03 Q1004=
201903061550 METAR ESMX 061550Z 15009KT 9999 OVC007 04/04 Q1004=
201903061520 METAR ESMX 061520Z 15008KT 9999 OVC007 04/04 Q1004=
201903061450 METAR COR ESMX 061450Z 17010KT 9999 OVC006 04/04 Q1005=
201903061420 METAR ESMX 061420Z 17007KT 140V200 9999 OVC006 04/04 Q1005=
201903061350 METAR ESMX 061350Z 15008KT 9999 OVC005 03/03 Q1005=
201903061320 METAR ESMX 061320Z 15008KT 7000 -DZ FEW002 BKN006 03/03 Q1005=
201903061250 METAR ESMX 061250Z 16009KT 6000 -DZ OVC007 03/03 Q1006=
201903061220 METAR ESMX 061220Z 16009KT 9999 BKN007 03/03 Q1006=
201903061150 METAR ESMX 061150Z 15009KT 9999 OVC005 03/03 Q1007=
201903061120 METAR ESMX 061120Z 17007KT 9999 OVC005 03/03 Q1007=
201903061050 METAR ESMX 061050Z 18007KT 9999 OVC004 02/02 Q1007=
201903061020 METAR ESMX 061020Z 16007KT 120V190 9999 OVC004 02/02 Q1007=
201903060950 METAR ESMX 060950Z 15007KT 9999 OVC003 01/01 Q1007=
201903060920 METAR ESMX 060920Z 16007KT 9999 OVC002 01/01 Q1008=
201903060850 METAR ESMX 060850Z 17004KT 9000 BR OVC002 01/01 Q1007=
201903060820 METAR ESMX 060820Z 16006KT 3900 BR OVC002 00/00 Q1008=
201903060750 METAR ESMX 060750Z 16007KT 4000 BR OVC002 M01/M01 Q1007=
201903060720 METAR ESMX 060720Z 17007KT 7000 BR OVC004 M01/M01 Q1007=
201903060650 METAR ESMX 060650Z AUTO 15008KT 9999 OVC004/// M01/M01 Q1007=
201903060620 METAR ESMX 060620Z 16007KT 120V190 9999 BKN005 M01/M01 Q1007=
201903060550 METAR ESMX 060550Z 15007KT 9000 -SN BKN006 M02/M02 Q1007=
201903060520 METAR ESMX 060520Z 15007KT 3700 -SN BKN006 M02/M02 Q1007=
201903060450 METAR COR ESMX 060450Z 14006KT 110V170 2300 -SN BKN002 M02/M02 Q1007=
201903060420 METAR ESMX 060420Z AUTO 14008KT 2400 -SN SCT002/// BKN007/// BKN012/// M02/M02 Q1007=
201903060350 METAR ESMX 060350Z AUTO 16007KT 120V190 9999 -SN BKN006/// OVC008/// M02/M02 Q1007 RESG=
201903060320 METAR ESMX 060320Z AUTO 14006KT 100V160 9999 -SN BKN009/// OVC010/// M02/M02 Q1007 REFZUP RESG=
201903060250 METAR ESMX 060250Z AUTO 14006KT 100V170 9999 FZUP OVC009/// M02/M02 Q1006 REFZUP=
201903060220 METAR ESMX 060220Z AUTO 14005KT 100V170 7000 FZUP BKN007/// OVC022/// M02/M02 Q1006 RESG=
201903060150 METAR ESMX 060150Z AUTO 13006KT 2900 -SN BKN001/// OVC017/// M02/M02 Q1006 RESG=
201903060120 METAR ESMX 060120Z AUTO 15006KT 120V190 3700 -SN BKN002/// OVC005/// M02/M02 Q1006 RESG=
201903060050 METAR ESMX 060050Z AUTO 15004KT 080V200 4400 SG SCT002/// BKN005/// OVC008/// M02/M02 Q1006=
201903060020 METAR ESMX 060020Z AUTO VRB03KT 2700 -SN BKN002/// OVC008/// M02/M02 Q1006=
201903052350 METAR ESMX 052350Z AUTO 11004KT 070V160 9999 -SN BKN009/// BKN012/// OVC016/// M02/M02 Q1006=
201903052320 METAR ESMX 052320Z AUTO 11004KT 060V170 9999 -SN BKN009/// OVC024/// M02/M02 Q1006 REFZUP=
201903052250 METAR ESMX 052250Z AUTO 11004KT 060V150 9999 OVC023/// M02/M02 Q1005=
201903052220 METAR ESMX 052220Z AUTO 11004KT 070V170 9999 BKN010/// BKN013/// OVC024/// M02/M02 Q1005 RESHUP=
201903052150 METAR ESMX 052150Z AUTO 10004KT 070V150 9999 BKN011/// BKN014/// OVC022/// M02/M02 Q1004 RESHUP RESN=
201903052120 METAR ESMX 052120Z AUTO 12004KT 070V160 9999 SCT008/// BKN011/// OVC015/// M02/M02 Q1004=
201903052050 METAR ESMX 052050Z AUTO 11004KT 070V160 9999 BKN007/// BKN011/// OVC026/// M02/M02 Q1003=
201903052020 METAR ESMX 052020Z AUTO VRB03KT 9999 -SN SCT009/// OVC025/// M02/M02 Q1003=
201903051950 METAR ESMX 051950Z 10003KT 040V150 9999 -SN FEW008 SCT016 BKN027 M02/M02 Q1002=
201903051920 METAR ESMX 051920Z 09004KT 040V140 9999 -SN FEW002 SCT011 OVC016 M01/M01 Q1002=
201903051850 METAR ESMX 051850Z 07004KT 020V100 6000 -SN FEW002 BKN031 M01/M01 Q1001=
201903051820 METAR ESMX 051820Z 06005KT 030V110 3700 -SN OVC030 M01/M01 Q1001=
201903051750 METAR ESMX 051750Z 08004KT 040V120 4000 -SN SCT009 OVC035 M01/M01 Q1000=
201903051720 METAR ESMX 051720Z 07006KT 020V120 5000 -SN FEW006 BKN047 M01/M01 Q0999=
201903051650 METAR ESMX 051650Z 05005KT 020V080 2600 -SN FEW002 BKN021 M01/M01 Q0998=
201903051620 METAR ESMX 051620Z 06004KT 030V100 3000 -SN OVC029 M01/M01 Q0998=
201903051550 METAR ESMX 051550Z 05006KT 3400 -SN BKN002 OVC035 M00/M00 Q0997=
201903051520 METAR ESMX 051520Z 04008KT 3900 -SN BKN010 OVC021 M00/M00 Q0996=
201903051450 METAR COR ESMX 051450Z 03007KT 2200 -SN OVC002 00/00 Q0996=
201903051420 METAR ESMX 051420Z 04007KT 5000 -SNRA BKN002 OVC009 00/00 Q0995=
201903051350 METAR ESMX 051350Z 01007KT 8000 -SN SCT002 BKN015 01/01 Q0994=
201903051320 METAR ESMX 051320Z 04005KT 010V070 9999 -RA FEW008 BKN019 01/01 Q0994=
201903051250 METAR ESMX 051250Z 04007KT 2400 -SN SCT005 BKN018 00/00 Q0993=
201903051220 METAR ESMX 051220Z 05005KT 020V090 4200 -SN FEW002 BKN006 01/01 Q0992=
201903051150 METAR ESMX 051150Z 06005KT 030V100 4300 -SN SCT002 BKN007 01/01 Q0992=
201903051120 METAR ESMX 051120Z 05005KT 020V090 5000 -SNRA FEW012 BKN033 01/01 Q0991=
201903051050 METAR ESMX 051050Z 04007KT 010V080 2800 -SN SCT009 OVC028 01/01 Q0990=
201903051020 METAR ESMX 051020Z 04008KT 9999 -SN SCT008 BKN028 01/01 Q0989=
201903050950 METAR ESMX 050950Z 03008KT 9000 -RA FEW009 BKN024 01/01 Q0989=
201903050920 METAR ESMX 050920Z 04009KT 020V080 8000 -RA SCT006 BKN010 01/01 Q0988=
201903050850 METAR ESMX 050850Z 05006KT 010V080 9999 -SN FEW002 BKN007 01/01 Q0987=
201903050820 METAR ESMX 050820Z 04006KT 9999 -RA BKN004 01/01 Q0986=
201903050750 METAR ESMX 050750Z 04008KT 4600 -SN BKN004 01/01 Q0985=
201903050720 METAR ESMX 050720Z 04008KT 020V080 2700 -SN SCT002 BKN004 01/01 Q0984=
201903050650 METAR ESMX 050650Z 03010KT 4800 -SN SCT004 BKN007 01/01 Q0983=
201903050620 METAR ESMX 050620Z 02010KT 4500 -SNRA FEW002 SCT005 BKN011 01/01 Q0982=
201903050550 METAR ESMX 050550Z 36007KT 7000 -RA BKN005 02/02 Q0981=
201903050520 METAR ESMX 050520Z 33006KT 6000 -RA SCT007 BKN015 03/03 Q0980=
201903050450 METAR ESMX 050450Z 28006KT 250V310 6000 -RA SCT005 BKN011 03/03 Q0980=
201903050420 METAR ESMX 050420Z AUTO 27006KT 4500 -RA SCT005/// BKN008/// BKN010/// 03/03 Q0979=
201903050350 METAR ESMX 050350Z AUTO 25005KT 210V280 7000 -RA FEW005/// SCT009/// BKN011/// 03/03 Q0979 REDZ=
201903050320 METAR ESMX 050320Z AUTO 24005KT 9999 DZ OVC004/// 03/03 Q0978 REUP=
201903050250 METAR ESMX 050250Z AUTO 24005KT 200V260 9999 BKN005/// BKN013/// OVC051/// 03/03 Q0978=
201903050220 METAR ESMX 050220Z AUTO 23005KT 9999 FEW007/// OVC013/// 03/03 Q0978=
201903050150 METAR ESMX 050150Z AUTO 22005KT 9999 FEW009/// BKN015/// OVC064/// 03/03 Q0977=
201903050120 METAR ESMX 050120Z AUTO 21004KT 190V250 9999 FEW004/// OVC016/// 03/03 Q0977=
201903050050 METAR ESMX 050050Z AUTO 26004KT 9999 BKN003/// OVC006/// 04/04 Q0977 REDZ REUP=
201903050020 METAR ESMX 050020Z AUTO 25005KT 9000 BR SCT005/// OVC016/// 04/04 Q0976=
201903042350 METAR ESMX 042350Z AUTO 23004KT 200V260 9999 FEW004/// SCT011/// OVC016/// 04/04 Q0976=
201903042320 METAR ESMX 042320Z AUTO VRB03KT 9000 BR SCT006/// OVC015/// 04/04 Q0976=
201903042250 METAR ESMX 042250Z AUTO 21005KT 9000 FEW002/// SCT005/// BKN009/// 04/04 Q0976 RESHUP=
201903042220 METAR ESMX 042220Z AUTO 19006KT 9999 OVC005/// 04/04 Q0975 RESHUP=
201903042150 METAR ESMX 042150Z AUTO 20005KT 9999 OVC006/// 04/04 Q0975 REUP=
201903042120 METAR ESMX 042120Z AUTO 20006KT 9999 BKN006/// BKN009/// OVC011/// 04/04 Q0975 RESHUP REUP=
201903042050 METAR ESMX 042050Z AUTO 19007KT 8000 BR BKN007/// OVC011/// 04/04 Q0975=
201903042020 METAR ESMX 042020Z AUTO 19008KT 9999 BKN008/// OVC011/// 04/04 Q0975=
201903041950 METAR ESMX 041950Z 21007KT 9999 BKN008 04/04 Q0976=
201903041920 METAR ESMX 041920Z 22008KT 9999 SCT008 BKN010 04/04 Q0976=
201903041850 METAR ESMX 041850Z 22010KT 9999 SCT008 BKN012 04/04 Q0976=
201903041820 METAR ESMX 041820Z 24010KT 9999 SCT012 BKN016 05/05 Q0976=
201903041750 METAR ESMX 041750Z 23011KT 200V260 9999 -RA SCT009 BKN015 05/05 Q0976=
201903041720 METAR ESMX 041720Z 24010G20KT 7000 DZ FEW008 SCT011 BKN021 05/05 Q0975=
201903041650 METAR ESMX 041650Z 20011KT 9999 BKN006 06/06 Q0975=
201903041620 METAR ESMX 041620Z 21010KT 4800 DZ FEW002 BKN005 06/06 Q0975=
201903041550 METAR ESMX 041550Z 22009KT 9999 SCT012 BKN019 06/06 Q0976=
201903041520 METAR ESMX 041520Z 22014KT 9999 -RA FEW005 BKN009 07/07 Q0975=
201903041450 METAR ESMX 041450Z 15010KT 9000 DZ BKN005 07/07 Q0975=
201903041420 METAR ESMX 041420Z 14007KT 9999 BKN005 07/07 Q0976=
201903041350 METAR ESMX 041350Z 15008KT 9999 BKN005 07/07 Q0976=
201903041320 METAR ESMX 041320Z 15010KT 8000 BR BKN004 07/07 Q0977=
201903041250 METAR ESMX 041250Z 15008KT 120V190 8000 -RA BKN003 07/07 Q0978=
201903041220 METAR COR ESMX 041220Z 15008KT 5000 -DZ FEW002 OVC005 07/07 Q0978=
201903041150 METAR ESMX 041150Z 15007KT 7000 -RADZ OVC005 07/07 Q0979=
201903041120 METAR ESMX 041120Z 17007KT 9999 -RA BKN004 07/07 Q0980=
201903041050 METAR ESMX 041050Z 14007KT 4900 -DZ OVC002 07/07 Q0981=
201903041020 METAR ESMX 041020Z 17009KT 1300 R01/1800D R19/P2000N BR OVC002 06/06 Q0982=
201903040950 METAR ESMX 040950Z 17008KT 5000 BR OVC003 07/07 Q0982=
201903040920 METAR ESMX 040920Z 16007KT 5000 BR OVC002 06/06 Q0983=
201903040850 METAR ESMX 040850Z 16008KT 5000 BR OVC002 06/06 Q0983=
201903040820 METAR ESMX 040820Z 16007KT 4700 BR BKN002 05/05 Q0984=
201903040750 METAR ESMX 040750Z 16008KT 9999 BKN003 05/05 Q0984=
201903040720 METAR ESMX 040720Z 16008KT 9999 OVC003 04/04 Q0984=
201903040650 METAR ESMX 040650Z AUTO 14008KT 9999 OVC002/// 03/03 Q0984=
201903040620 METAR COR ESMX 040620Z 15007KT 120V190 5000 -DZ OVC002 03/03 Q0985=
201903040550 METAR ESMX 040550Z 13007KT 2700 DZ SCT002 OVC004 03/03 Q0985=
201903040520 METAR ESMX 040520Z 14005KT 090V180 9999 OVC005 03/03 Q0986=
201903040450 METAR COR ESMX 040450Z 13005KT 100V160 9000 -RA OVC005 03/03 Q0986=
201903040420 METAR ESMX 040420Z AUTO 15006KT 7000 -RA BKN005/// BKN008/// OVC023/// 03/03 Q0988=
201903040350 METAR ESMX 040350Z AUTO 16006KT 8000 -RA SCT005/// BKN008/// OVC027/// 03/03 Q0988=
201903040320 METAR ESMX 040320Z AUTO 16007KT 6000 -RA BKN005/// OVC013/// 03/03 Q0989=
201903040250 METAR ESMX 040250Z AUTO 16006KT 120V190 4300 -RA FEW002/// SCT006/// BKN008/// 03/03 Q0989=
201903040220 METAR ESMX 040220Z AUTO 15004KT 4600 -RA SCT006/// OVC024/// 03/03 Q0990 REDZ=
201903040150 METAR ESMX 040150Z AUTO 16004KT 4000 DZ ///025 03/03 Q0990=
201903040120 METAR ESMX 040120Z AUTO 19007KT 5000 -RA ///027 03/03 Q0990 REDZ REUP RESHUP=
201903040050 METAR ESMX 040050Z AUTO 19006KT 9999 BKN044/// OVC074/// 03/03 Q0991=
201903040020 METAR ESMX 040020Z AUTO 18005KT 9999 SCT074/// BKN098/// 03/03 Q0991=
201903032350 METAR ESMX 032350Z AUTO 16004KT 9999 FEW013/// BKN072/// 03/03 Q0991=
201903032320 METAR ESMX 032320Z AUTO 16004KT 9999 BKN078/// BKN098/// 03/03 Q0992=
201903032250 METAR ESMX 032250Z AUTO 19005KT 9999 SCT012/// OVC100/// 03/03 Q0992=
201903032220 METAR ESMX 032220Z AUTO 19006KT 9999 BKN110/// 03/03 Q0992=
201903032150 METAR ESMX 032150Z 20005KT CAVOK 03/03 Q0992=
201903032120 METAR ESMX 032120Z AUTO 20006KT 9999 NCD 03/03 Q0992=
201903032050 METAR ESMX 032050Z 19006KT CAVOK 03/03 Q0993=
201903032020 METAR ESMX 032020Z 21007KT 9999 FEW035 03/03 Q0993=
201903031950 METAR ESMX 031950Z 22007KT 9999 FEW033 03/03 Q0993=
201903031920 METAR ESMX 031920Z 21006KT CAVOK 03/03 Q0993=
201903031850 METAR ESMX 031850Z 20006KT CAVOK 04/04 Q0993=
201903031820 METAR ESMX 031820Z 20006KT CAVOK 03/03 Q0993=
201903031750 METAR ESMX 031750Z 22007KT CAVOK 04/04 Q0993=
201903031720 METAR ESMX 031720Z 23008KT 9999 SCT037 05/04 Q0993=
201903031650 METAR ESMX 031650Z 23009KT 9999 BKN037 06/04 Q0993=
201903031620 METAR ESMX 031620Z 25009KT 210V290 9999 SCT022 BKN033 06/03 Q0994=
201903031550 METAR ESMX 031550Z 24010KT 9999 BKN039 07/03 Q0993=
201903031520 METAR ESMX 031520Z 26012KT 9999 BKN033 07/01 Q0993=
201903031450 METAR ESMX 031450Z 26012KT 230V290 9999 BKN030 07/02 Q0993=
201903031420 METAR ESMX 031420Z 26013KT 9999 BKN030 07/02 Q0993=
201903031350 METAR ESMX 031350Z 27016KT 9999 SCT026 BKN038 07/02 Q0993=
201903031320 METAR ESMX 031320Z 26012G23KT 9999 FEW026 BKN040 08/03 Q0993=
201903031250 METAR ESMX 031250Z 26015KT 230V290 9999 SCT024 08/02 Q0993=
201903031220 METAR ESMX 031220Z 25016G29KT 210V280 9999 BKN026 08/03 Q0993=
201903031150 METAR ESMX 031150Z 26013KT 9999 SCT022 BKN040 09/05 Q0993=
201903031120 METAR ESMX 031120Z 25011KT 9999 BKN022 07/06 Q0993=
201903031050 METAR ESMX 031050Z 24014KT 9999 FEW016 BKN026 08/07 Q0992=
201903031020 METAR ESMX 031020Z 24012KT 9999 FEW009 BKN014 08/08 Q0992=
201903030950 METAR ESMX 030950Z AUTO 23011KT 9999 BKN007/// BKN009/// OVC013/// 07/07 Q0992 REDZ=
201903030920 METAR ESMX 030920Z 20013KT 9999 OVC004 06/06 Q0992=
201903030850 METAR ESMX 030850Z 19013KT 2500 -DZ BKN002 OVC005 05/05 Q0993=
201903030820 METAR ESMX 030820Z 19013KT 7000 -RA OVC004 05/05 Q0993=
201903030750 METAR ESMX 030750Z 19015KT 3400 DZ OVC003 04/04 Q0993=
201903030720 METAR ESMX 030720Z 17011KT 5000 -RA OVC004 04/04 Q0994=
201903030650 METAR ESMX 030650Z AUTO 17012KT 6000 UP OVC004/// 04/04 Q0994=
201903030620 METAR ESMX 030620Z AUTO 17012KT 4500 DZ OVC003/// 04/04 Q0995 REDZ=
201903030550 METAR ESMX 030550Z AUTO 17010KT 3700 DZ OVC003/// 04/04 Q0996=
201903030520 METAR ESMX 030520Z AUTO 18010KT 2000 -RA OVC002/// 03/03 Q0996 REDZ=
201903030450 METAR ESMX 030450Z AUTO 17010KT 2000 DZ OVC002/// 03/03 Q0997 RERA=
201903030420 METAR ESMX 030420Z AUTO 17009KT 3400 BR OVC003/// 03/03 Q0997=
201903030350 METAR ESMX 030350Z AUTO 17010KT 3500 -RA OVC002/// 03/03 Q0998=
201903030320 METAR ESMX 030320Z AUTO 17011KT 2500 DZ BKN002/// OVC005/// 02/02 Q0999 REDZ=
201903030250 METAR ESMX 030250Z AUTO 17010KT 6000 BR FEW002/// OVC004/// 02/02 Q0999 REDZ=
201903030220 METAR ESMX 030220Z AUTO 18010KT 5000 DZ OVC006/// 02/02 Q1000 RESHUP REDZ=
201903030150 METAR ESMX 030150Z AUTO 18009KT 9000 BR OVC006/// 02/02 Q1000=
201903030120 METAR ESMX 030120Z AUTO 18010KT 4500 BR FEW002/// BKN006/// OVC009/// 02/02 Q1001 REDZ REUP=
201903030050 METAR ESMX 030050Z AUTO 18010KT 9999 BKN008/// OVC014/// 02/02 Q1001=
201903030020 METAR ESMX 030020Z AUTO 18008KT 9999 FEW009/// BKN019/// BKN027/// 02/02 Q1002=
201903022350 METAR ESMX 022350Z AUTO 18009KT 9999 FEW010/// OVC023/// 02/02 Q1002=
201903022320 METAR ESMX 022320Z AUTO 21007KT 9999 SCT011/// OVC022/// 02/02 Q1003=
201903022250 METAR ESMX 022250Z AUTO 22007KT 9999 BKN011/// BKN031/// OVC045/// 02/02 Q1003=
201903022220 METAR ESMX 022220Z AUTO 22008KT 9999 SCT011/// BKN022/// OVC047/// 02/02 Q1003=
201903022150 METAR ESMX 022150Z AUTO 22008KT 9999 FEW010/// BKN046/// OVC110/// 02/02 Q1004=
201903022120 METAR ESMX 022120Z AUTO 22009KT 9999 BKN009/// BKN033/// OVC100/// 01/01 Q1004=
201903022050 METAR ESMX 022050Z AUTO 21008KT 9999 BKN010/// OVC015/// 02/02 Q1005=
201903022020 METAR ESMX 022020Z AUTO 21007KT 9999 FEW013/// BKN017/// OVC023/// 01/01 Q1005=
201903021950 METAR ESMX 021950Z AUTO 20008KT 9999 FEW010/// BKN024/// OVC029/// 01/01 Q1005=
201903021920 METAR ESMX 021920Z AUTO 22008KT 9999 OVC020/// 01/01 Q1005=
201903021850 METAR ESMX 021850Z AUTO 22009KT 9999 FEW010/// OVC022/// 01/01 Q1005=
201903021820 METAR ESMX 021820Z AUTO 22008KT 9999 SCT009/// OVC020/// 01/01 Q1006=
201903021750 METAR ESMX 021750Z AUTO 22007KT 9999 OVC009/// 01/01 Q1006=
201903021720 METAR ESMX 021720Z AUTO 23009KT 9999 OVC006/// 01/01 Q1006=
201903021650 METAR ESMX 021650Z AUTO 21010KT 6000 BR OVC005/// 01/01 Q1006=
201903021620 METAR ESMX 021620Z AUTO 22008KT 9999 OVC006/// 01/01 Q1006=
201903021550 METAR ESMX 021550Z AUTO 22009KT 9999 BKN008/// OVC012/// 00/00 Q1007=
201903021520 METAR ESMX 021520Z AUTO 24010KT 9999 OVC008/// 00/00 Q1007=
201903021450 METAR ESMX 021450Z AUTO 24008KT 9999 OVC009/// 01/01 Q1007=
201903021420 METAR ESMX 021420Z AUTO 24010KT 210V270 9999 OVC010/// 01/01 Q1008=
201903021350 METAR ESMX 021350Z AUTO 24009KT 9999 OVC012/// 01/01 Q1008=
201903021320 METAR ESMX 021320Z AUTO 23009KT 9999 OVC012/// 01/00 Q1008=
201903021250 METAR ESMX 021250Z AUTO 24011KT 9999 OVC012/// 01/00 Q1009=
201903021220 METAR ESMX 021220Z AUTO 24010KT 210V280 9999 OVC010/// 01/00 Q1009=
201903021150 METAR ESMX 021150Z AUTO 23011KT 200V260 9999 OVC009/// 01/01 Q1009=
201903021120 METAR ESMX 021120Z AUTO 24010KT 9999 OVC009/// 01/01 Q1009=
201903021050 METAR ESMX 021050Z AUTO 23008KT 9999 OVC008/// 01/01 Q1010=
201903021020 METAR ESMX 021020Z AUTO 23010KT 9999 OVC007/// 01/01 Q1009=
201903020950 METAR ESMX 020950Z 23010KT 190V260 9999 OVC007 00/00 Q1009=
201903020920 METAR ESMX 020920Z 22010KT 9000 BR OVC006 00/00 Q1010=
201903020850 METAR ESMX 020850Z 23009KT 190V260 9000 BR OVC005 00/00 Q1010=
201903020820 METAR ESMX 020820Z 23008KT 9000 BR OVC006 00/00 Q1010=
201903020750 METAR ESMX 020750Z AUTO 22008KT 9000 BR OVC006/// M00/M00 Q1010=
201903020720 METAR ESMX 020720Z AUTO 23007KT 200V280 9000 BR OVC006/// M00/M00 Q1010=
201903020650 METAR ESMX 020650Z AUTO 24009KT 9999 OVC005/// M00/M00 Q1010=
201903020620 METAR ESMX 020620Z AUTO 23009KT 8000 BR OVC005/// M00/M00 Q1011=
201903020550 METAR ESMX 020550Z AUTO 25008KT 6000 BR OVC003/// M00/M00 Q1011=
201903020520 METAR ESMX 020520Z AUTO 25007KT 5000 BR OVC003/// M00/M00 Q1011=
201903020450 METAR ESMX 020450Z AUTO 24008KT 7000 BR OVC004/// M01/M01 Q1011=
201903020420 METAR ESMX 020420Z AUTO 23008KT 8000 BR OVC004/// M01/M01 Q1011=
201903020350 METAR ESMX 020350Z AUTO 23006KT 7000 BR OVC003/// M01/M01 Q1011=
201903020320 METAR ESMX 020320Z AUTO 24006KT 7000 BR OVC003/// M01/M01 Q1011=
201903020250 METAR ESMX 020250Z AUTO 23006KT 9000 BR OVC003/// M01/M01 Q1012=
201903020220 METAR ESMX 020220Z AUTO 23006KT 9999 OVC004/// M01/M01 Q1012=
201903020150 METAR ESMX 020150Z AUTO 23006KT 9999 BKN006/// OVC048/// M02/M02 Q1012=
201903020120 METAR ESMX 020120Z AUTO 22006KT 9999 BKN048/// M01/M01 Q1012=
201903020050 METAR ESMX 020050Z AUTO 22006KT 9999 OVC049/// M02/M02 Q1012=
201903020020 METAR ESMX 020020Z AUTO 22005KT 9999 FEW049/// M03/M03 Q1013=
201903012350 METAR ESMX 012350Z AUTO 21006KT 9999 NCD M03/M03 Q1013=
201903012320 METAR ESMX 012320Z AUTO 20007KT 9999 NCD M02/M02 Q1013=
201903012250 METAR ESMX 012250Z AUTO 17006KT 9999 NCD M02/M02 Q1013=
201903012220 METAR ESMX 012220Z AUTO 18006KT 9999 FEW047/// M01/M01 Q1013=
201903012150 METAR ESMX 012150Z AUTO 18005KT 9999 NCD M01/M01 Q1013=
201903012120 METAR ESMX 012120Z AUTO 17006KT 9999 FEW048/// M02/M02 Q1013=
201903012050 METAR ESMX 012050Z 19006KT 9999 BKN048 M01/M01 Q1013=
201903012020 METAR ESMX 012020Z 20007KT 9999 SCT049 M01/M01 Q1013=
201903011950 METAR ESMX 011950Z 17007KT 9999 FEW049 M02/M03 Q1013=
201903011920 METAR ESMX 011920Z 19006KT CAVOK M02/M04 Q1013=
201903011850 METAR ESMX 011850Z VRB02KT CAVOK M03/M05 Q1013=
201903011820 METAR ESMX 011820Z 17002KT CAVOK M03/M04 Q1013=
201903011750 METAR ESMX 011750Z 21002KT CAVOK M02/M05 Q1013=
201903011720 METAR ESMX 011720Z 00000KT CAVOK M01/M05 Q1013=
201903011650 METAR ESMX 011650Z 00000KT CAVOK M00/M04 Q1012=
201903011620 METAR ESMX 011620Z 12002KT CAVOK 03/M05 Q1012=
201903011550 METAR ESMX 011550Z VRB02KT CAVOK 04/M05 Q1012=
201903011520 METAR ESMX 011520Z VRB02KT CAVOK 04/M05 Q1012=
201903011450 METAR ESMX 011450Z 01003KT 350V050 CAVOK 05/M04 Q1012=
201903011420 METAR ESMX 011420Z 05003KT 010V100 9999 FEW050 04/M05 Q1012=
201903011350 METAR ESMX 011350Z 07004KT 030V120 9999 FEW045 04/M04 Q1012=
201903011320 METAR ESMX 011320Z 35003KT 300V100 9999 BKN040 04/M04 Q1012=
201903011250 METAR ESMX 011250Z 02005KT 340V080 9999 BKN042 04/M04 Q1012=
201903011220 METAR ESMX 011220Z 02003KT 330V100 9999 BKN041 04/M05 Q1011=
