##########################################################
# Query made at 04/19/2024 22:10:22 UTC
# Time interval: from 09/01/2019 12:00  to 09/30/2019 12:59  UTC
##########################################################

##########################################################
# ESMX, Vaxjo (Sweden)
# WMO index: 02641. WIGOS ID: 0-20000-0-02648
# Latitude 56-51N. Longitude 014-50E. Altitude 199 m.
##########################################################

201909301250 METAR ESMX 301250Z 28009KT 9999 FEW025 BKN029 14/09 Q0990=
201909301220 METAR ESMX 301220Z 28011KT 240V310 9999 FEW040 14/10 Q0989=
201909301150 METAR ESMX 301150Z 31008KT 280V340 9999 SCT022 13/10 Q0989=
201909301120 METAR ESMX 301120Z 28009KT 9999 SCT045 13/09 Q0989=
201909301050 METAR COR ESMX 301050Z 29010KT 250V320 9999 BKN042 13/10 Q0989=
201909301020 METAR COR ESMX 301020Z 28008KT 9999 FEW013 SCT017 BKN023 13/10 Q0988=
201909300950 METAR ESMX 300950Z 26007KT 230V290 9999 FEW007 14/11 Q0988=
201909300920 METAR ESMX 300920Z 28004KT 9999 BKN006 BKN010 13/13 Q0988=
201909300850 METAR ESMX 300850Z 28003KT 9999 FEW004 BKN006 12/12 Q0987=
201909300820 METAR ESMX 300820Z 31003KT 9000 BR BKN004 12/12 Q0987=
201909300750 METAR ESMX 300750Z VRB03KT 5000 BR VV003 12/12 Q0987=
201909300720 METAR ESMX 300720Z 27003KT 9999 SCT009 BKN015 12/12 Q0987=
201909300650 METAR ESMX 300650Z VRB02KT 9000 BR FEW013 BKN028 11/11 Q0987=
201909300620 METAR ESMX 300620Z 00000KT 9999 OVC014 11/11 Q0987=
201909300550 METAR ESMX 300550Z 00000KT 5000 BR OVC010 11/11 Q0987=
201909300520 METAR ESMX 300520Z AUTO 00000KT 6000 BR OVC001/// 11/11 Q0986=
201909300450 METAR ESMX 300450Z 00000KT 3500 -DZ VV002 11/11 Q0987=
201909300420 METAR ESMX 300420Z 00000KT 4000 -DZ VV004 11/11 Q0987=
201909300350 METAR ESMX 300350Z 00000KT 2500 -DZ SCT004 11/11 Q0987=
201909300320 METAR ESMX 300320Z AUTO 00000KT 2500 BR VV000 11/11 Q0987 REDZ=
201909300250 METAR ESMX 300250Z AUTO 00000KT 2400 DZ FEW001/// BKN006/// OVC009/// 11/11 Q0987=
201909300220 METAR ESMX 300220Z AUTO VRB02KT 2600 BR VV004 11/11 Q0988=
201909300150 METAR ESMX 300150Z AUTO 00000KT 5000 BR OVC002/// 11/11 Q0988=
201909300120 METAR ESMX 300120Z AUTO 00000KT 9999 OVC003/// 11/11 Q0988=
201909300050 METAR ESMX 300050Z AUTO 17004KT 9999 OVC003/// 11/11 Q0988=
201909300020 METAR ESMX 300020Z AUTO 16003KT 9999 FEW003/// BKN006/// OVC007/// 11/11 Q0989=
201909292350 METAR ESMX 292350Z AUTO 16003KT 9999 FEW006/// SCT008/// OVC033/// 11/11 Q0989=
201909292320 METAR ESMX 292320Z AUTO 17003KT 9999 FEW006/// OVC036/// 11/11 Q0989=
201909292250 METAR ESMX 292250Z AUTO 16003KT 9999 SCT004/// BKN006/// OVC037/// 11/11 Q0989=
201909292220 METAR ESMX 292220Z AUTO 15003KT 9999 OVC004/// 11/11 Q0990=
201909292150 METAR ESMX 292150Z AUTO 16004KT 9999 OVC006/// 11/11 Q0990=
201909292120 METAR ESMX 292120Z AUTO 16002KT 8000 FEW003/// OVC007/// 11/11 Q0990=
201909292050 METAR ESMX 292050Z AUTO VRB02KT 9999 SCT007/// BKN009/// OVC049/// 11/11 Q0991=
201909292020 METAR ESMX 292020Z AUTO 19002KT 9999 BKN006/// OVC008/// 11/11 Q0991=
201909291950 METAR ESMX 291950Z 20004KT 9999 SCT004 BKN008 11/11 Q0991=
201909291920 METAR ESMX 291920Z 19005KT 0150 R01/P2000N R19/0500N BR SCT004 09/09 Q0992=
201909291850 METAR ESMX 291850Z 16004KT 7000 BR NSC 11/11 Q0992=
201909291820 METAR ESMX 291820Z 19004KT 1500 R01/P2000N R19/P2000N FEW018 11/11 Q0992=
201909291750 METAR ESMX 291750Z 17003KT 9999 FEW019 SCT051 11/11 Q0992=
201909291720 METAR ESMX 291720Z 17004KT CAVOK 12/12 Q0993=
201909291650 METAR ESMX 291650Z 19004KT 9999 FEW034 BKN053 12/12 Q0993=
201909291620 METAR ESMX 291620Z 21007KT 9999 SCT010 BKN016 13/12 Q0993=
201909291550 METAR ESMX 291550Z 21006KT 9999 FEW019 BKN059 13/12 Q0994=
201909291520 METAR ESMX 291520Z 22008KT 9999 FEW015 BKN038 13/12 Q0994=
201909291450 METAR ESMX 291450Z 22010KT 9999 SCT017 BKN031 14/12 Q0994=
201909291420 METAR ESMX 291420Z 23008KT 9999 FEW016 14/12 Q0995=
201909291350 METAR ESMX 291350Z 24009KT 9999 FEW030 14/12 Q0995=
201909291320 METAR ESMX 291320Z 22010KT 200V260 9999 DZ FEW011 SCT035 13/12 Q0995=
201909291250 METAR ESMX 291250Z 22007KT 9999 FEW007 SCT013 BKN019 14/13 Q0995 RERA=
201909291220 METAR ESMX 291220Z AUTO 25004KT 210V280 9999 DZ FEW009/// BKN033/// 13/12 Q0996 RERA REDZ=
201909291150 METAR ESMX 291150Z 23005KT 190V280 9999 BKN009 13/12 Q0996=
201909291120 METAR ESMX 291120Z 19009KT 4200 DZ BKN010 13/13 Q0996=
201909291050 METAR ESMX 291050Z 21008KT 170V240 9999 BKN013 14/12 Q0996=
201909291020 METAR ESMX 291020Z 21009KT 9999 SCT012 13/12 Q0996=
201909290950 METAR ESMX 290950Z 20008KT 9999 FEW006 BKN009 13/12 Q0997 REDZ=
201909290920 METAR ESMX 290920Z AUTO 19009KT 5000 -DZ BKN008/// BKN016/// 12/12 Q0997 REDZ=
201909290850 METAR ESMX 290850Z 18008KT 9999 SCT007 BKN009 13/12 Q0997=
201909290820 METAR ESMX 290820Z 21007KT 9999 FEW007 BKN008 12/12 Q0997=
201909290750 METAR ESMX 290750Z 20008KT 9999 -DZ SCT007 BKN009 12/11 Q0998=
201909290720 METAR ESMX 290720Z 21007KT 9999 BKN005 11/11 Q0998=
201909290650 METAR ESMX 290650Z 21006KT 9999 BKN006 11/11 Q0998=
201909290620 METAR ESMX 290620Z 22007KT 9999 SCT007 11/11 Q0998=
201909290550 METAR ESMX 290550Z 22008KT 9999 BKN009 11/11 Q0998=
201909290520 METAR COR ESMX 290520Z 21010KT 9999 BKN007 11/11 Q0997=
201909290450 METAR ESMX 290450Z AUTO 23010KT 9999 DZ BKN007/// BKN014/// OVC028/// 11/11 Q0997=
201909290420 METAR ESMX 290420Z AUTO 21011KT 9999 -DZ FEW002/// BKN006/// OVC008/// 12/11 Q0997=
201909290350 METAR ESMX 290350Z AUTO 18008KT 9999 BKN006/// OVC008/// 11/11 Q0997 RERA=
201909290320 METAR ESMX 290320Z AUTO 17007KT 9999 BKN006/// OVC009/// 11/11 Q0998 RERA=
201909290250 METAR ESMX 290250Z AUTO 16006KT 6000 -RA FEW001/// SCT010/// BKN014/// 11/11 Q0998 RERA=
201909290220 METAR ESMX 290220Z AUTO 16007KT 9999 FEW007/// BKN015/// OVC053/// 11/11 Q0998=
201909290150 METAR ESMX 290150Z AUTO 16007KT 9999 -DZ SCT005/// BKN009/// OVC013/// 12/11 Q0999 REDZ=
201909290120 METAR ESMX 290120Z AUTO 15007KT 9000 BR SCT005/// BKN009/// BKN012/// 11/11 Q0999=
201909290050 METAR ESMX 290050Z AUTO 14006KT 8000 BR BKN004/// BKN053/// OVC066/// 11/11 Q1000=
201909290020 METAR ESMX 290020Z AUTO 16006KT 9999 BKN005/// OVC059/// 11/11 Q1000 REDZ=
201909282350 METAR ESMX 282350Z AUTO 15006KT 9999 FEW012/// BKN029/// OVC044/// 11/11 Q1001=
201909282320 METAR ESMX 282320Z AUTO 15007KT 9999 FEW030/// OVC049/// 11/11 Q1001=
201909282250 METAR ESMX 282250Z AUTO 14005KT 100V170 9999 SCT030/// BKN038/// BKN051/// 11/11 Q1001=
201909282220 METAR ESMX 282220Z AUTO 15004KT 9999 FEW031/// BKN037/// 11/11 Q1002=
201909282150 METAR ESMX 282150Z AUTO 16006KT 9999 NCD 10/10 Q1002=
201909282120 METAR ESMX 282120Z AUTO 16004KT 9999 FEW072/// 11/11 Q1002=
201909282050 METAR ESMX 282050Z AUTO 18005KT 9999 OVC070/// 11/11 Q1003=
201909282020 METAR ESMX 282020Z AUTO 19005KT 9999 BKN066/// 11/11 Q1003=
201909281950 METAR ESMX 281950Z AUTO 20006KT 9999 SCT057/// OVC078/// 10/10 Q1003=
201909281920 METAR ESMX 281920Z AUTO 19005KT 9999 BKN078/// 11/11 Q1003=
201909281850 METAR ESMX 281850Z AUTO 18004KT 9999 OVC055/// 12/12 Q1003 REDZ=
201909281820 METAR ESMX 281820Z AUTO 19004KT 9999 -RA OVC064/// 12/12 Q1004=
201909281750 METAR ESMX 281750Z AUTO 20006KT 0600 R01/P2000N R19/1700D NCD 11/11 Q1004=
201909281720 METAR ESMX 281720Z AUTO 19005KT 0350 R01/P2000N R19/0900N NCD 11/11 Q1004=
201909281650 METAR ESMX 281650Z 18003KT CAVOK 13/12 Q1004=
201909281620 METAR ESMX 281620Z 21004KT CAVOK 12/12 Q1004=
201909281550 METAR ESMX 281550Z 20006KT 9999 FEW025 13/12 Q1004=
201909281520 METAR ESMX 281520Z 22005KT 9999 FEW011 13/12 Q1004=
201909281450 METAR ESMX 281450Z 26004KT 9000 RA FEW037CB 13/13 Q1004=
201909281420 METAR ESMX 281420Z 24006KT 210V290 9999 SCT023 15/12 Q1004=
201909281350 METAR ESMX 281350Z 22008KT 9999 FEW033 SCT068 16/12 Q1004=
201909281320 METAR ESMX 281320Z 20008KT 9999 FEW020 16/12 Q1004=
201909281250 METAR ESMX 281250Z 21008KT 9999 FEW016 SCT022 16/13 Q1005=
201909281220 METAR ESMX 281220Z 23007KT 9999 FEW017 SCT020 16/13 Q1005=
201909281150 METAR ESMX 281150Z 21007KT 9999 FEW009 SCT012 15/14 Q1005=
201909281120 METAR ESMX 281120Z 22005KT 190V250 9999 FEW009 SCT013 14/14 Q1005=
201909281050 METAR ESMX 281050Z AUTO 22005KT 5000 +RA FEW010/// SCT014/// BKN019/// 13/13 Q1005 RERA=
201909281020 METAR ESMX 281020Z AUTO 20009KT 9999 SCT009/// BKN041/// 14/12 Q1005 RERA=
201909280950 METAR ESMX 280950Z AUTO 18008KT 9999 SCT006/// BKN009/// BKN015/// 13/13 Q1005=
201909280920 METAR ESMX 280920Z AUTO 16007KT 130V200 9999 RA OVC006/// 13/13 Q1005=
201909280850 METAR ESMX 280850Z AUTO 15006KT 9000 BR OVC005/// 13/12 Q1005=
201909280820 METAR ESMX 280820Z AUTO 15004KT 120V200 9000 BR OVC004/// 13/12 Q1005=
201909280750 METAR ESMX 280750Z AUTO 13004KT 090V170 6000 BR OVC002/// 12/12 Q1005=
201909280720 METAR ESMX 280720Z AUTO 14004KT 100V180 4100 BR OVC001/// 12/12 Q1005=
201909280650 METAR ESMX 280650Z AUTO 15005KT 130V190 3800 BR OVC001/// 12/12 Q1005=
201909280620 METAR ESMX 280620Z AUTO 15005KT 2100 BR OVC002/// 12/12 Q1005=
201909280550 METAR ESMX 280550Z AUTO 18004KT 4800 BR OVC004/// 12/12 Q1005=
201909280520 METAR ESMX 280520Z AUTO 19003KT 7000 BR OVC005/// 12/12 Q1005=
201909280450 METAR ESMX 280450Z AUTO VRB02KT 7000 BR OVC006/// 12/12 Q1005=
201909280420 METAR ESMX 280420Z AUTO VRB02KT 8000 FEW004/// OVC007/// 12/12 Q1006=
201909280350 METAR ESMX 280350Z AUTO 17003KT 7000 BR FEW005/// OVC007/// 12/12 Q1006=
201909280320 METAR ESMX 280320Z AUTO 18004KT 9000 BR OVC005/// 12/12 Q1006=
201909280250 METAR ESMX 280250Z AUTO 00000KT 7000 BKN005/// OVC007/// 12/12 Q1006=
201909280220 METAR ESMX 280220Z AUTO 00000KT 8000 BR BKN006/// OVC008/// 12/12 Q1006=
201909280150 METAR ESMX 280150Z AUTO 24002KT 8000 BR OVC007/// 13/12 Q1006=
201909280120 METAR ESMX 280120Z AUTO 21004KT 9999 OVC010/// 13/12 Q1006=
201909280050 METAR ESMX 280050Z AUTO 21003KT 9999 FEW007/// OVC010/// 13/13 Q1006=
201909280020 METAR ESMX 280020Z AUTO 19004KT 9000 BR FEW007/// OVC011/// 13/13 Q1006=
201909272350 METAR ESMX 272350Z AUTO 20005KT 9999 OVC012/// 13/13 Q1006 REDZ=
201909272320 METAR ESMX 272320Z AUTO 18005KT 5000 BR BKN003/// OVC010/// 13/13 Q1006=
201909272250 METAR ESMX 272250Z AUTO 16005KT 5000 BR OVC003/// 13/13 Q1006=
201909272220 METAR ESMX 272220Z AUTO 15005KT 5000 -RA SCT001/// BKN003/// OVC006/// 13/13 Q1006=
201909272150 METAR ESMX 272150Z AUTO 15005KT 6000 BR OVC003/// 13/13 Q1006=
201909272120 METAR ESMX 272120Z AUTO 16003KT 120V190 6000 BR BKN004/// OVC006/// 13/13 Q1006=
201909272050 METAR ESMX 272050Z AUTO 17005KT 6000 BR OVC002/// 13/13 Q1006=
201909272020 METAR ESMX 272020Z AUTO 17005KT 5000 BR OVC003/// 13/13 Q1006=
201909271950 METAR ESMX 271950Z AUTO 17005KT 7000 BR OVC003/// 13/13 Q1006=
201909271920 METAR ESMX 271920Z AUTO 18005KT 7000 BR BKN004/// OVC006/// 13/13 Q1006=
201909271850 METAR ESMX 271850Z 16006KT 9999 BKN004 14/14 Q1006=
201909271820 METAR ESMX 271820Z 16005KT 9999 BKN004 14/14 Q1006=
201909271750 METAR ESMX 271750Z 15005KT 9999 FEW006 SCT013 BKN037 14/14 Q1006=
201909271720 METAR ESMX 271720Z 17007KT 7000 DZ SCT002 BKN004 14/14 Q1006=
201909271650 METAR ESMX 271650Z 15008KT 110V170 8000 RA BKN003 14/14 Q1006=
201909271620 METAR ESMX 271620Z 15007KT 7000 -RA BKN003 14/14 Q1005=
201909271550 METAR ESMX 271550Z 16007KT 120V210 9999 BKN003 14/14 Q1005=
201909271520 METAR ESMX 271520Z 14008KT 4800 -DZ BKN004 14/14 Q1005=
201909271450 METAR ESMX 271450Z 15009KT 110V180 7000 -DZ FEW002 BKN006 14/14 Q1005=
201909271420 METAR ESMX 271420Z 13008KT 080V170 5000 -RA FEW002 BKN006 14/14 Q1005=
201909271350 METAR ESMX 271350Z 13008KT 070V190 5000 -RA BKN006 14/14 Q1006=
201909271320 METAR ESMX 271320Z 12007KT 070V200 5000 -RA BKN009 14/14 Q1006=
201909271250 METAR ESMX 271250Z 11007KT 030V150 9999 BKN008 14/14 Q1006=
201909271220 METAR ESMX 271220Z 12006KT 070V160 6000 RA FEW002 BKN007 14/14 Q1006=
201909271150 METAR ESMX 271150Z 11006KT 050V160 9000 BR SCT009 BKN015 14/14 Q1007=
201909271120 METAR ESMX 271120Z 11006KT 070V170 7000 -RA BKN008 14/14 Q1007=
201909271050 METAR ESMX 271050Z 11005KT 070V190 7000 -RA BKN014 14/14 Q1008=
201909271020 METAR ESMX 271020Z 11007KT 060V150 8000 -RA BKN012 14/13 Q1008=
201909270950 METAR ESMX 270950Z 10007KT 030V150 9999 BKN011 15/13 Q1008=
201909270920 METAR ESMX 270920Z 12006KT 070V170 9999 BKN009 15/13 Q1009=
201909270850 METAR ESMX 270850Z 11007KT 060V170 8000 BR BKN008 14/13 Q1009=
201909270820 METAR ESMX 270820Z VRB07KT 5000 BR OVC003 13/13 Q1009=
201909270750 METAR ESMX 270750Z 13007KT 080V160 4100 BR OVC002 13/13 Q1009=
201909270720 METAR ESMX 270720Z 13005KT 100V160 3300 BR OVC002 12/12 Q1010=
201909270650 METAR ESMX 270650Z 12006KT 070V160 3000 BR BKN002 12/12 Q1010=
201909270620 METAR ESMX 270620Z 12006KT 050V170 1200 R01/1600N R19/P2000N BR OVC002 12/12 Q1010=
201909270550 METAR ESMX 270550Z 12007KT 080V150 1000 R01/1500U R19/1900N BR OVC002 11/11 Q1010=
201909270520 METAR ESMX 270520Z 12006KT 080V160 1000 R01/1900D R19/P2000N BR OVC002 11/11 Q1010=
201909270450 METAR ESMX 270450Z 11006KT 070V150 1100 R01/P2000N R19/P2000N BR OVC002 11/11 Q1010=
201909270420 METAR ESMX 270420Z 11006KT 060V160 4700 BR BKN003 11/11 Q1011=
201909270350 METAR ESMX 270350Z AUTO 11006KT 070V160 7000 BR OVC004/// 11/11 Q1011=
201909270320 METAR ESMX 270320Z AUTO 13005KT 070V170 9000 BR OVC005/// 11/11 Q1011=
201909270250 METAR ESMX 270250Z AUTO 12005KT 060V160 9999 OVC006/// 11/11 Q1011=
201909270220 METAR ESMX 270220Z AUTO 12004KT 060V160 9999 OVC006/// 11/10 Q1011=
201909270150 METAR ESMX 270150Z AUTO 10005KT 070V140 9999 SCT007/// BKN009/// OVC032/// 11/10 Q1012=
201909270120 METAR ESMX 270120Z AUTO 10005KT 050V150 9999 SCT010/// OVC031/// 11/10 Q1012=
201909270050 METAR ESMX 270050Z AUTO 10005KT 060V140 9999 FEW012/// SCT017/// OVC032/// 11/10 Q1012=
201909270020 METAR ESMX 270020Z 11005KT 070V160 9999 FEW007 BKN015 11/10 Q1012=
201909262350 METAR ESMX 262350Z 10005KT 050V150 9999 BKN007 10/10 Q1013=
201909262320 METAR ESMX 262320Z 10005KT 070V130 9999 BKN007 OVC022 10/10 Q1013=
201909262250 METAR ESMX 262250Z 09004KT 060V140 8000 BR OVC006 10/09 Q1013=
201909262220 METAR ESMX 262220Z 09003KT 030V140 9000 BR OVC006 10/09 Q1013=
201909262150 METAR ESMX 262150Z 10003KT 030V140 9999 OVC007 10/09 Q1014=
201909262120 METAR ESMX 262120Z 13004KT 080V180 9999 BKN008 10/09 Q1014=
201909262050 METAR ESMX 262050Z 13003KT 080V170 9999 FEW028 09/08 Q1014=
201909262020 METAR ESMX 262020Z 11004KT 060V160 CAVOK 09/08 Q1014=
201909261950 METAR ESMX 261950Z 10003KT 060V150 CAVOK 10/08 Q1013=
201909261920 METAR ESMX 261920Z 10004KT 050V150 CAVOK 10/08 Q1013=
201909261850 METAR ESMX 261850Z 09004KT 020V140 CAVOK 11/08 Q1013=
201909261820 METAR ESMX 261820Z 10004KT 060V160 CAVOK 11/08 Q1013=
201909261750 METAR ESMX 261750Z 10003KT 060V160 CAVOK 12/08 Q1013=
201909261720 METAR ESMX 261720Z 10003KT 050V150 CAVOK 12/08 Q1013=
201909261650 METAR ESMX 261650Z 12003KT 070V170 CAVOK 13/08 Q1013=
201909261620 METAR ESMX 261620Z 12004KT 070V160 CAVOK 15/07 Q1013=
201909261550 METAR ESMX 261550Z 12005KT 080V180 CAVOK 16/08 Q1013=
201909261520 METAR ESMX 261520Z 12005KT 070V160 CAVOK 16/08 Q1013=
201909261450 METAR ESMX 261450Z 13006KT 100V190 CAVOK 16/08 Q1012=
201909261420 METAR ESMX 261420Z 13005KT 070V170 CAVOK 17/08 Q1012=
201909261350 METAR ESMX 261350Z 11005KT 060V160 CAVOK 17/08 Q1012=
201909261320 METAR ESMX 261320Z 09006KT 050V170 CAVOK 17/09 Q1012=
201909261250 METAR ESMX 261250Z 09006KT 030V150 CAVOK 17/08 Q1013=
201909261220 METAR ESMX 261220Z 08006KT 030V130 CAVOK 16/08 Q1012=
201909261150 METAR ESMX 261150Z 10005KT 030V170 9999 BKN043 16/08 Q1013=
201909261120 METAR ESMX 261120Z 09005KT 040V140 9999 BKN045 15/08 Q1013=
201909261050 METAR ESMX 261050Z 07006KT 020V120 9999 BKN048 14/08 Q1013=
201909261020 METAR ESMX 261020Z 09006KT 040V160 9999 SCT044 14/08 Q1013=
201909260950 METAR ESMX 260950Z 07006KT 020V130 9999 FEW047 14/08 Q1013=
201909260920 METAR ESMX 260920Z 08006KT 050V140 9999 FEW022 14/08 Q1013=
201909260850 METAR ESMX 260850Z 07007KT 050V110 CAVOK 13/08 Q1013=
201909260820 METAR COR ESMX 260820Z 09006KT 060V130 9999 FEW013 13/08 Q1013=
201909260750 METAR COR ESMX 260750Z 07007KT 020V120 9999 SCT013 12/08 Q1012=
201909260720 METAR ESMX 260720Z 07007KT 020V120 9999 BKN011 11/09 Q1012=
201909260650 METAR ESMX 260650Z 07007KT 030V110 9999 BKN011 11/09 Q1012=
201909260620 METAR ESMX 260620Z 07006KT 030V100 9999 BKN011 OVC013 10/09 Q1012=
201909260550 METAR COR ESMX 260550Z 07006KT 030V100 9999 OVC009 10/09 Q1012=
201909260520 METAR ESMX 260520Z 05005KT 360V100 9999 BKN010 OVC015 10/09 Q1012=
201909260450 METAR ESMX 260450Z 05004KT 9999 FEW011 OVC015 10/09 Q1011=
201909260420 METAR ESMX 260420Z 05005KT 9999 OVC015 10/09 Q1011=
201909260350 METAR COR ESMX 260350Z 05005KT 9999 OVC016 10/09 Q1011=
201909260320 METAR ESMX 260320Z AUTO 04005KT 9999 OVC017/// 10/09 Q1011=
201909260250 METAR ESMX 260250Z AUTO 05005KT 020V080 9999 BKN016/// 09/09 Q1011=
201909260220 METAR ESMX 260220Z AUTO 05005KT 020V080 9999 BKN015/// 09/09 Q1011=
201909260150 METAR ESMX 260150Z AUTO 04007KT 9999 OVC013/// 10/09 Q1011=
201909260120 METAR ESMX 260120Z AUTO 04007KT 9999 OVC012/// 10/09 Q1011=
201909260050 METAR ESMX 260050Z 04007KT 9999 BKN009 10/09 Q1011=
201909260020 METAR ESMX 260020Z 05007KT 9999 BKN010 10/09 Q1011=
201909252350 METAR ESMX 252350Z 06005KT 030V110 9999 BKN010 10/09 Q1011=
201909252320 METAR COR ESMX 252320Z 03005KT 350V070 9999 FEW012 BKN072 10/09 Q1011=
201909252250 METAR ESMX 252250Z AUTO 06005KT 9999 BKN014/// OVC028/// 10/09 Q1011=
201909252220 METAR ESMX 252220Z AUTO 04005KT 010V070 9999 FEW074/// 10/09 Q1011=
201909252150 METAR ESMX 252150Z AUTO 06005KT 030V100 9999 SCT014/// BKN098/// 10/09 Q1011=
201909252120 METAR ESMX 252120Z AUTO 05006KT 9999 SCT098/// 10/09 Q1011=
201909252050 METAR ESMX 252050Z 06005KT 020V080 CAVOK 10/09 Q1011=
201909252020 METAR ESMX 252020Z 07006KT 020V100 CAVOK 10/09 Q1011=
201909251950 METAR ESMX 251950Z 06006KT 030V100 CAVOK 11/09 Q1011=
201909251920 METAR ESMX 251920Z 06006KT 030V110 CAVOK 11/09 Q1010=
201909251850 METAR ESMX 251850Z 06005KT 020V080 CAVOK 11/09 Q1010=
201909251820 METAR ESMX 251820Z 06006KT 030V100 CAVOK 11/09 Q1010=
201909251750 METAR ESMX 251750Z 06006KT CAVOK 12/09 Q1010=
201909251720 METAR ESMX 251720Z 06005KT 020V100 9999 FEW021 12/09 Q1010=
201909251650 METAR ESMX 251650Z 06006KT 020V100 9999 FEW021 13/09 Q1010=
201909251620 METAR ESMX 251620Z 06006KT 020V080 9999 SCT018 13/10 Q1010=
201909251550 METAR ESMX 251550Z 06006KT 030V100 9999 BKN020 13/10 Q1010=
201909251520 METAR ESMX 251520Z 05007KT 010V090 9999 SCT018 OVC031 13/10 Q1010=
201909251450 METAR ESMX 251450Z 07007KT 030V110 9999 BKN016 13/10 Q1010=
201909251420 METAR ESMX 251420Z 06007KT 020V100 9999 OVC016 13/10 Q1010=
201909251350 METAR COR ESMX 251350Z 03007KT 360V070 9999 BKN016 13/10 Q1010=
201909251320 METAR ESMX 251320Z 05007KT 010V090 9999 OVC015 13/10 Q1010=
201909251250 METAR ESMX 251250Z 06006KT 030V130 9999 BKN015 14/11 Q1010=
201909251220 METAR ESMX 251220Z 05007KT 020V090 9999 BKN015 14/11 Q1010=
201909251150 METAR ESMX 251150Z 08005KT 020V110 9999 BKN013 13/11 Q1010=
201909251120 METAR ESMX 251120Z 06006KT 030V100 9999 BKN013 13/11 Q1010=
201909251050 METAR ESMX 251050Z 06005KT 020V110 9999 BKN013 13/11 Q1010=
201909251020 METAR COR ESMX 251020Z 06007KT 020V080 9999 BKN013 13/11 Q1010=
201909250950 METAR ESMX 250950Z 05005KT 020V100 9999 BKN013 13/11 Q1010=
201909250920 METAR ESMX 250920Z 06005KT 030V120 9999 BKN013 12/11 Q1010=
201909250850 METAR ESMX 250850Z 05004KT 020V080 9999 BKN012 12/10 Q1010=
201909250820 METAR ESMX 250820Z 06005KT 030V100 9999 BKN011 12/10 Q1010=
201909250750 METAR ESMX 250750Z 06005KT 030V100 9999 BKN009 12/10 Q1010=
201909250720 METAR ESMX 250720Z 06006KT 020V090 9999 BKN009 11/10 Q1010=
201909250650 METAR ESMX 250650Z 05005KT 9999 BKN009 11/10 Q1010=
201909250620 METAR ESMX 250620Z 06006KT 030V100 9999 BKN009 11/10 Q1010=
201909250550 METAR ESMX 250550Z 04006KT 9999 SCT009 BKN026 11/10 Q1010=
201909250520 METAR ESMX 250520Z 05006KT 020V090 9999 BKN009 OVC026 11/09 Q1010=
201909250450 METAR ESMX 250450Z 05005KT 030V110 9999 FEW010 BKN025 11/09 Q1010=
201909250420 METAR ESMX 250420Z 05006KT 9999 FEW014 OVC026 10/09 Q1010=
201909250350 METAR COR ESMX 250350Z 05006KT 9999 BKN013 10/09 Q1010=
201909250320 METAR ESMX 250320Z AUTO 04007KT 9999 FEW008/// OVC013/// 11/09 Q1010=
201909250250 METAR ESMX 250250Z AUTO 05005KT 020V080 9999 FEW014/// BKN028/// 10/10 Q1010=
201909250220 METAR ESMX 250220Z AUTO 05005KT 9999 FEW008/// BKN013/// OVC100/// 10/09 Q1010=
201909250150 METAR ESMX 250150Z AUTO 05005KT 020V080 9999 SCT008/// BKN027/// OVC100/// 10/09 Q1010=
201909250120 METAR ESMX 250120Z AUTO 04004KT 9999 FEW008/// SCT012/// OVC100/// 10/10 Q1011=
201909250050 METAR ESMX 250050Z AUTO 06004KT 030V100 9999 FEW009/// OVC100/// 10/10 Q1011=
201909250020 METAR ESMX 250020Z AUTO 04005KT 010V080 9999 BKN010/// OVC100/// 11/09 Q1011=
201909242350 METAR ESMX 242350Z AUTO 06004KT 030V100 9999 BKN010/// BKN031/// OVC100/// 11/09 Q1011=
201909242320 METAR ESMX 242320Z AUTO 06004KT 040V110 9999 SCT010/// OVC100/// 11/09 Q1011=
201909242250 METAR ESMX 242250Z AUTO 07004KT 040V100 9999 OVC010/// 11/09 Q1012=
201909242220 METAR ESMX 242220Z AUTO 07004KT 030V110 9999 BKN011/// OVC100/// 11/09 Q1012=
201909242150 METAR ESMX 242150Z AUTO VRB03KT 9999 OVC100/// 11/09 Q1012=
201909242120 METAR ESMX 242120Z AUTO VRB03KT 9999 OVC100/// 11/09 Q1012=
201909242050 METAR ESMX 242050Z AUTO 10004KT 050V140 9999 SCT028/// OVC100/// 11/09 Q1012=
201909242020 METAR COR ESMX 242020Z 10004KT 050V150 9999 BKN025 11/09 Q1012=
201909241950 METAR ESMX 241950Z 12003KT 080V170 9999 BKN024 11/10 Q1013=
201909241920 METAR ESMX 241920Z 12003KT 070V160 9999 BKN022 11/10 Q1013=
201909241850 METAR COR ESMX 241850Z 11004KT 070V160 9999 FEW013 BKN018 12/09 Q1013=
201909241820 METAR ESMX 241820Z VRB03KT 9999 BKN015 12/09 Q1013=
201909241750 METAR ESMX 241750Z AUTO 11003KT 050V180 9999 BKN017/// OVC020/// 12/09 Q1013=
201909241720 METAR ESMX 241720Z 12004KT 080V170 9999 BKN023 12/08 Q1013=
201909241650 METAR ESMX 241650Z VRB03KT 9999 BKN027 12/08 Q1013=
201909241620 METAR ESMX 241620Z 13003KT 060V160 9999 FEW031 BKN098 13/08 Q1013=
201909241550 METAR ESMX 241550Z 13005KT 090V170 9999 FEW032 BKN098 13/08 Q1013=
201909241520 METAR ESMX 241520Z 13005KT 080V160 9999 BKN031 13/08 Q1013=
201909241450 METAR ESMX 241450Z 12004KT 060V170 9999 BKN031 14/08 Q1013=
201909241420 METAR ESMX 241420Z 16003KT 120V190 9999 BKN030 14/08 Q1014=
201909241350 METAR ESMX 241350Z 15006KT 110V180 9999 BKN027 14/08 Q1014=
201909241320 METAR ESMX 241320Z 14005KT 080V190 9999 BKN026 14/08 Q1014=
201909241250 METAR ESMX 241250Z 12005KT 060V170 9999 BKN024 13/08 Q1014=
201909241220 METAR ESMX 241220Z 13004KT 080V170 9999 BKN023 13/08 Q1015=
201909241150 METAR ESMX 241150Z 14006KT 080V180 9999 BKN022 13/08 Q1015=
201909241120 METAR ESMX 241120Z 12005KT 070V170 9999 BKN020 13/09 Q1015=
201909241050 METAR ESMX 241050Z 13006KT 080V160 9999 BKN020 12/09 Q1015=
201909241020 METAR ESMX 241020Z 12005KT 070V170 9999 BKN019 12/09 Q1015=
201909240950 METAR ESMX 240950Z 11004KT 080V170 9999 BKN017 12/09 Q1015=
201909240920 METAR ESMX 240920Z VRB03KT 9999 BKN017 11/08 Q1016=
201909240850 METAR ESMX 240850Z VRB03KT 9999 BKN018 11/08 Q1016=
201909240820 METAR ESMX 240820Z 08003KT 030V140 9999 BKN017 10/08 Q1016=
201909240750 METAR ESMX 240750Z 08003KT 030V120 9999 BKN020 10/08 Q1016=
201909240720 METAR ESMX 240720Z 07005KT 030V100 9999 BKN019 09/08 Q1016=
201909240650 METAR ESMX 240650Z 08004KT 030V140 9999 BKN017 09/08 Q1016=
201909240620 METAR ESMX 240620Z 08004KT 050V120 9999 BKN018 08/07 Q1016=
201909240550 METAR ESMX 240550Z 06004KT 9999 BKN019 07/07 Q1016=
201909240520 METAR ESMX 240520Z VRB03KT 9999 BKN019 07/07 Q1016=
201909240450 METAR ESMX 240450Z 06003KT 020V090 9999 BKN020 07/06 Q1016=
201909240420 METAR ESMX 240420Z 06003KT 9999 BKN019 06/06 Q1017=
201909240350 METAR ESMX 240350Z 07002KT 9999 BKN020 06/06 Q1017=
201909240320 METAR ESMX 240320Z AUTO 00000KT 9999 OVC020/// 04/04 Q1017=
201909240250 METAR ESMX 240250Z AUTO 00000KT 9999 BKN020/// 04/04 Q1017=
201909240220 METAR ESMX 240220Z AUTO VRB02KT 9999 BKN020/// 03/03 Q1017=
201909240150 METAR ESMX 240150Z AUTO 00000KT 9999 OVC019/// 04/03 Q1017=
201909240120 METAR ESMX 240120Z AUTO 00000KT 9999 OVC018/// 04/04 Q1018=
201909240050 METAR ESMX 240050Z AUTO VRB02KT 9999 SCT018/// 02/01 Q1018=
201909240020 METAR ESMX 240020Z AUTO 01003KT 9999 NCD 03/03 Q1018=
201909232350 METAR ESMX 232350Z AUTO VRB02KT 9999 NCD 06/05 Q1019=
201909232320 METAR ESMX 232320Z AUTO 07003KT 020V110 9999 NCD 06/05 Q1018=
201909232250 METAR ESMX 232250Z AUTO 07003KT 030V100 9999 NCD 06/04 Q1019=
201909232220 METAR ESMX 232220Z AUTO VRB03KT 9999 NCD 06/04 Q1019=
201909232150 METAR ESMX 232150Z AUTO VRB02KT 9999 NCD 06/04 Q1019=
201909232120 METAR ESMX 232120Z AUTO 09003KT 050V130 9999 NCD 06/04 Q1019=
201909232050 METAR ESMX 232050Z AUTO 09003KT 060V120 9999 NCD 06/04 Q1019=
201909232020 METAR ESMX 232020Z AUTO VRB03KT 9999 NCD 06/04 Q1019=
201909231950 METAR ESMX 231950Z AUTO VRB03KT 9999 NCD 07/04 Q1020=
201909231920 METAR ESMX 231920Z AUTO 09003KT 020V140 9999 NCD 07/04 Q1020=
201909231850 METAR ESMX 231850Z AUTO VRB03KT 9999 NCD 07/04 Q1020=
201909231820 METAR ESMX 231820Z AUTO 11003KT 050V160 9999 NCD 08/04 Q1020=
201909231750 METAR ESMX 231750Z 11004KT 060V150 CAVOK 09/04 Q1020=
201909231720 METAR ESMX 231720Z 11006KT 060V150 CAVOK 10/04 Q1019=
201909231650 METAR ESMX 231650Z 11006KT 070V160 CAVOK 11/04 Q1020=
201909231620 METAR ESMX 231620Z 13006KT 060V160 CAVOK 12/04 Q1020=
201909231550 METAR ESMX 231550Z 12007KT 080V160 CAVOK 12/04 Q1019=
201909231520 METAR COR ESMX 231520Z 13008KT 080V170 CAVOK 13/04 Q1019=
201909231450 METAR ESMX 231450Z 12006KT 050V170 CAVOK 13/04 Q1019=
201909231420 METAR ESMX 231420Z 13008KT 070V170 CAVOK 13/04 Q1019=
201909231350 METAR ESMX 231350Z 11008KT 060V160 CAVOK 14/03 Q1020=
201909231320 METAR ESMX 231320Z 10008KT 050V150 CAVOK 14/04 Q1020=
201909231250 METAR ESMX 231250Z 09007KT 050V150 CAVOK 14/04 Q1020=
201909231220 METAR ESMX 231220Z 13007KT 040V170 CAVOK 14/04 Q1020=
201909231150 METAR ESMX 231150Z 11007KT 030V160 CAVOK 14/05 Q1020=
201909231120 METAR ESMX 231120Z 12007KT 050V170 CAVOK 14/04 Q1021=
201909231050 METAR ESMX 231050Z 11008KT 050V150 CAVOK 13/04 Q1021=
201909231020 METAR ESMX 231020Z 09008KT 050V150 CAVOK 13/04 Q1021=
201909230950 METAR ESMX 230950Z 11009KT 060V160 CAVOK 13/05 Q1021=
201909230920 METAR ESMX 230920Z 11008KT 040V150 CAVOK 13/05 Q1021=
201909230850 METAR ESMX 230850Z 10009G19KT 010V160 CAVOK 12/05 Q1021=
201909230820 METAR ESMX 230820Z 10008KT 030V200 CAVOK 11/05 Q1021=
201909230750 METAR ESMX 230750Z 08006KT 040V130 CAVOK 11/06 Q1021=
201909230720 METAR ESMX 230720Z 08006KT 040V120 CAVOK 09/06 Q1021=
201909230650 METAR ESMX 230650Z 07006KT 040V120 CAVOK 08/05 Q1021=
201909230620 METAR ESMX 230620Z 07005KT 040V110 CAVOK 08/05 Q1021=
201909230550 METAR ESMX 230550Z 07006KT 030V110 CAVOK 07/05 Q1021=
201909230520 METAR ESMX 230520Z 07006KT 040V100 CAVOK 07/05 Q1020=
201909230450 METAR ESMX 230450Z 07005KT 030V110 CAVOK 07/05 Q1020=
201909230420 METAR ESMX 230420Z 07005KT 030V100 CAVOK 07/05 Q1020=
201909230350 METAR COR ESMX 230350Z 06005KT 020V090 CAVOK 07/06 Q1020=
201909230320 METAR ESMX 230320Z AUTO 07005KT 9999 NCD 07/06 Q1020=
201909230250 METAR ESMX 230250Z AUTO 06005KT 9999 NCD 07/06 Q1020=
201909230220 METAR ESMX 230220Z AUTO 06004KT 030V100 9999 NCD 07/06 Q1020=
201909230150 METAR ESMX 230150Z AUTO 06004KT 040V110 9999 NCD 07/06 Q1020=
201909230120 METAR ESMX 230120Z AUTO 07004KT 030V100 9999 NCD 08/06 Q1020=
201909230050 METAR ESMX 230050Z AUTO 07003KT 030V110 9999 NCD 08/07 Q1020=
201909230020 METAR ESMX 230020Z AUTO 09005KT 040V130 9999 NCD 09/07 Q1020=
201909222350 METAR ESMX 222350Z AUTO 09004KT 030V150 9999 FEW021/// 09/06 Q1020=
201909222320 METAR ESMX 222320Z AUTO 10006KT 030V140 9999 BKN017/// BKN022/// 10/07 Q1020=
201909222250 METAR ESMX 222250Z AUTO 09008KT 050V150 9999 OVC017/// 10/07 Q1020=
201909222220 METAR ESMX 222220Z AUTO 09007KT 040V140 9999 OVC014/// 10/07 Q1020=
201909222150 METAR ESMX 222150Z AUTO 08008KT 020V120 9999 SCT012/// OVC016/// 10/08 Q1020=
201909222120 METAR ESMX 222120Z AUTO 08008KT 030V140 9999 FEW005/// BKN011/// BKN013/// 10/09 Q1020=
201909222050 METAR ESMX 222050Z AUTO 09006KT 020V140 7000 BKN006/// OVC008/// 10/10 Q1019=
201909222020 METAR ESMX 222020Z AUTO 05007KT 350V110 7000 BR SCT005/// OVC007/// 11/10 Q1019=
201909221950 METAR ESMX 221950Z AUTO 06008KT 030V100 9999 OVC008/// 11/10 Q1019=
201909221920 METAR ESMX 221920Z 07009KT 030V110 9999 BKN010 12/10 Q1018=
201909221850 METAR ESMX 221850Z 07009G21KT 020V150 9999 BKN015 12/09 Q1018=
201909221820 METAR ESMX 221820Z 06007KT 030V110 9999 BKN016 13/09 Q1018=
201909221750 METAR ESMX 221750Z 08006KT 030V110 9999 BKN017 13/10 Q1018=
201909221720 METAR ESMX 221720Z 07007KT 030V120 9999 BKN017 13/09 Q1018=
201909221650 METAR ESMX 221650Z 05009KT 020V110 9999 BKN020 13/09 Q1018=
201909221620 METAR ESMX 221620Z 06011KT 040V100 CAVOK 14/09 Q1017=
201909221550 METAR ESMX 221550Z 06010KT 040V110 CAVOK 16/10 Q1016=
201909221520 METAR ESMX 221520Z 07009KT 030V120 CAVOK 18/11 Q1016=
201909221450 METAR ESMX 221450Z 06008KT 020V100 CAVOK 20/10 Q1015=
201909221420 METAR COR ESMX 221420Z 05009KT 030V100 CAVOK 21/10 Q1015=
201909221350 METAR ESMX 221350Z 04008KT CAVOK 21/11 Q1015=
201909221320 METAR ESMX 221320Z 01006KT 320V050 CAVOK 21/11 Q1015=
201909221250 METAR ESMX 221250Z 03005KT 350V080 CAVOK 21/12 Q1015=
201909221220 METAR ESMX 221220Z 35004KT CAVOK 20/11 Q1015=
201909221150 METAR ESMX 221150Z 33004KT CAVOK 19/10 Q1015=
201909221120 METAR ESMX 221120Z 01004KT CAVOK 18/10 Q1015=
201909221050 METAR ESMX 221050Z 02004KT CAVOK 17/10 Q1015=
201909221020 METAR ESMX 221020Z 01004KT CAVOK 17/11 Q1015=
201909220950 METAR ESMX 220950Z AUTO 01004KT 9999 NCD 16/11 Q1015=
201909220920 METAR ESMX 220920Z AUTO 36004KT 310V060 9999 NCD 15/11 Q1015=
201909220850 METAR ESMX 220850Z VRB03KT CAVOK 13/11 Q1015=
201909220820 METAR ESMX 220820Z VRB02KT CAVOK 12/11 Q1016=
201909220750 METAR ESMX 220750Z 36005KT 320V030 9999 0800N R01/P2000N R19/0800D BCFG FEW002 09/09 Q1016=
201909220720 METAR COR ESMX 220720Z 34004KT 290V020 9999 1000N BCFG FEW002 10/10 Q1016=
201909220650 METAR ESMX 220650Z 23003KT CAVOK 08/08 Q1016=
201909220620 METAR ESMX 220620Z 23003KT CAVOK 07/07 Q1015=
201909220550 METAR ESMX 220550Z 17003KT CAVOK 05/05 Q1016=
201909220520 METAR COR ESMX 220520Z 18003KT 6000 R01/1500U R19/0350N BCFG NSC 03/03 Q1016=
201909220450 METAR ESMX 220450Z AUTO 00000KT 0200 R01/0600D R19/0600N FG NCD 03/03 Q1016=
201909220420 METAR ESMX 220420Z AUTO VRB01KT 0300 R01/P2000D R19/0450N FG NCD 05/05 Q1016=
201909220350 METAR ESMX 220350Z AUTO 21003KT 9999 BCFG NCD 04/04 Q1016=
201909220320 METAR ESMX 220320Z AUTO 18003KT 0100 R01/0700N R19/0350D FG NCD 04/04 Q1016=
201909220250 METAR ESMX 220250Z AUTO 16002KT 0250 R01/0700N R19/1000U BCFG NCD 04/04 Q1016=
201909220220 METAR ESMX 220220Z AUTO 00000KT 0150 R01/0375N R19/0500N FG NCD 05/05 Q1016=
201909220150 METAR ESMX 220150Z AUTO 00000KT 0100 R01/0450N R19/0400N FG NCD 05/05 Q1017=
201909220120 METAR ESMX 220120Z AUTO 00000KT 0050 R01/0275N R19/0275N FG SCT001/// 06/06 Q1017=
201909220050 METAR ESMX 220050Z AUTO 16002KT 0100 R01/1600D R19/0450N FG BKN001/// 08/08 Q1017=
201909220020 METAR ESMX 220020Z AUTO 17002KT 0150 R01/0450N R19/0400N FG NCD 06/06 Q1017=
201909212350 METAR ESMX 212350Z AUTO 16002KT 0150 R01/0450N R19/0600N BCFG NCD 06/06 Q1017=
201909212320 METAR ESMX 212320Z AUTO 21001KT 0150 R01/P2000N R19/P2000N BCFG NCD 06/06 Q1017=
201909212250 METAR ESMX 212250Z AUTO 19003KT 0150 R01/0400N R19/P2000N BCFG NCD 07/07 Q1017=
201909212220 METAR ESMX 212220Z AUTO 00000KT 0200 R01/1100N R19/1300D FG NCD 07/07 Q1017=
201909212150 METAR ESMX 212150Z AUTO VRB02KT 0450 R01/P2000N R19/P2000N BCFG NCD 08/08 Q1017=
201909212120 METAR ESMX 212120Z AUTO 19003KT 8000 BR NCD 10/10 Q1018=
201909212050 METAR ESMX 212050Z AUTO VRB03KT 9999 NCD 12/11 Q1018=
201909212020 METAR ESMX 212020Z AUTO 24003KT 9999 NCD 12/12 Q1018=
201909211950 METAR ESMX 211950Z AUTO 23005KT 9999 NCD 13/12 Q1018=
201909211920 METAR ESMX 211920Z AUTO 24006KT 9999 NCD 14/12 Q1018=
201909211850 METAR ESMX 211850Z AUTO 25007KT 9999 NCD 14/12 Q1018=
201909211820 METAR ESMX 211820Z AUTO 25007KT 9999 NCD 14/12 Q1018=
201909211750 METAR ESMX 211750Z AUTO 23003KT 9999 NCD 12/11 Q1018=
201909211720 METAR ESMX 211720Z AUTO 23003KT 9999 NCD 15/12 Q1017=
201909211650 METAR ESMX 211650Z 24003KT CAVOK 18/12 Q1017=
201909211620 METAR ESMX 211620Z 26004KT CAVOK 19/12 Q1018=
201909211550 METAR ESMX 211550Z 26006KT CAVOK 20/12 Q1018=
201909211520 METAR ESMX 211520Z AUTO 27007KT 9999 NCD 20/12 Q1018=
201909211450 METAR ESMX 211450Z 26007KT CAVOK 21/12 Q1018=
201909211420 METAR ESMX 211420Z 27007KT 240V310 CAVOK 21/12 Q1018=
201909211350 METAR ESMX 211350Z 26007KT 220V300 CAVOK 20/11 Q1018=
201909211320 METAR ESMX 211320Z AUTO 27008KT 9999 NCD 21/12 Q1018=
201909211250 METAR ESMX 211250Z 28007KT 240V310 CAVOK 20/12 Q1018=
201909211220 METAR ESMX 211220Z 28008KT CAVOK 20/11 Q1018=
201909211150 METAR ESMX 211150Z 28007KT 240V300 CAVOK 20/12 Q1018=
201909211120 METAR ESMX 211120Z 28008KT 250V320 CAVOK 19/11 Q1019=
201909211050 METAR COR ESMX 211050Z 29007KT 260V330 CAVOK 19/11 Q1019=
201909211020 METAR ESMX 211020Z AUTO 29008KT 250V320 9999 NCD 18/10 Q1019=
201909210950 METAR ESMX 210950Z AUTO 28007KT 230V310 9999 NCD 18/11 Q1019=
201909210920 METAR ESMX 210920Z AUTO 26008KT 210V300 9999 NCD 17/11 Q1019=
201909210850 METAR ESMX 210850Z AUTO 29006KT 250V320 9999 NCD 16/10 Q1018=
201909210820 METAR ESMX 210820Z AUTO 26006KT 230V300 9999 NCD 15/11 Q1018=
201909210750 METAR ESMX 210750Z AUTO 28006KT 9999 NCD 14/11 Q1018=
201909210720 METAR ESMX 210720Z AUTO 30007KT 9999 SCT010/// 13/11 Q1018=
201909210650 METAR ESMX 210650Z AUTO 28007KT 9999 OVC009/// 13/11 Q1018=
201909210620 METAR ESMX 210620Z AUTO 28006KT 250V310 9999 OVC009/// 12/11 Q1018=
201909210550 METAR ESMX 210550Z AUTO 28007KT 250V320 9999 OVC007/// 12/11 Q1018=
201909210520 METAR ESMX 210520Z AUTO 28008KT 230V300 9999 OVC005/// 12/11 Q1018=
201909210450 METAR ESMX 210450Z AUTO 27008KT 240V300 9999 OVC005/// 12/11 Q1018=
201909210420 METAR ESMX 210420Z AUTO 27008KT 230V300 9999 BR OVC005/// 12/11 Q1018=
201909210350 METAR ESMX 210350Z AUTO 27006KT 200V300 9999 OVC005/// 12/11 Q1018=
201909210320 METAR ESMX 210320Z AUTO 26007KT 8000 BR OVC004/// 12/11 Q1018=
201909210250 METAR ESMX 210250Z AUTO 26007KT 230V290 9999 OVC005/// 12/11 Q1018=
201909210220 METAR ESMX 210220Z AUTO 26006KT 230V290 9000 BR OVC004/// 12/11 Q1018=
201909210150 METAR ESMX 210150Z AUTO 28007KT 240V320 9999 OVC005/// 12/11 Q1018=
201909210120 METAR ESMX 210120Z AUTO 28006KT 9999 OVC006/// 12/11 Q1018=
201909210050 METAR ESMX 210050Z AUTO 26008KT 9999 OVC007/// 12/11 Q1018=
201909210020 METAR ESMX 210020Z AUTO 26007KT 220V300 9999 OVC009/// 12/11 Q1018=
201909202350 METAR ESMX 202350Z AUTO 26007KT 230V310 9999 OVC009/// 12/11 Q1018=
201909202320 METAR ESMX 202320Z AUTO 26007KT 230V290 9999 OVC010/// 12/11 Q1018=
201909202250 METAR ESMX 202250Z AUTO 26007KT 9999 OVC011/// 12/11 Q1019=
201909202220 METAR ESMX 202220Z 26008KT 230V290 9999 BKN011 12/11 Q1019=
201909202150 METAR ESMX 202150Z 26006KT 220V280 9999 BKN012 12/11 Q1019=
201909202120 METAR ESMX 202120Z 25007KT 9999 BKN013 12/11 Q1019=
201909202050 METAR ESMX 202050Z 26007KT 9999 BKN014 12/10 Q1019=
201909202020 METAR ESMX 202020Z 25008KT 9999 BKN014 12/11 Q1019=
201909201950 METAR ESMX 201950Z 25006KT 9999 BKN015 11/11 Q1019=
201909201920 METAR ESMX 201920Z 25007KT CAVOK 11/11 Q1019=
201909201850 METAR ESMX 201850Z AUTO 25006KT 9999 NCD 11/10 Q1019=
201909201820 METAR ESMX 201820Z 25006KT CAVOK 12/10 Q1019=
201909201750 METAR ESMX 201750Z 27006KT 9999 FEW030 13/10 Q1019=
201909201720 METAR ESMX 201720Z AUTO 26006KT 9999 SCT021/// OVC030/// 13/11 Q1019=
201909201650 METAR ESMX 201650Z 23005KT 9999 SCT021 BKN029 14/11 Q1019=
201909201620 METAR ESMX 201620Z 25006KT 9999 SCT021 BKN033 14/11 Q1019=
201909201550 METAR ESMX 201550Z 24005KT 9999 SCT022 BKN030 14/12 Q1019=
201909201520 METAR ESMX 201520Z 21006KT 9999 FEW012 SCT016 BKN022 14/12 Q1019=
201909201450 METAR ESMX 201450Z 22006KT 9999 FEW010 SCT034 14/12 Q1019=
201909201420 METAR ESMX 201420Z 20006KT 180V240 9999 FEW006 BKN008 BKN036 13/12 Q1019=
201909201350 METAR ESMX 201350Z 22005KT 6000 BR FEW002 SCT007 BKN009 12/11 Q1020=
201909201320 METAR ESMX 201320Z 26007KT 200V290 9999 BKN013 13/11 Q1020=
201909201250 METAR ESMX 201250Z 24005KT 210V280 9999 FEW006 SCT009 BKN013 13/10 Q1020=
201909201220 METAR ESMX 201220Z 24006KT 9999 FEW006 BKN014 12/10 Q1021=
201909201150 METAR ESMX 201150Z 23006KT 200V260 9999 FEW006 BKN021 12/09 Q1021=
201909201120 METAR ESMX 201120Z 23007KT 200V280 9999 BKN020 12/08 Q1021=
201909201050 METAR ESMX 201050Z 20006KT 9999 BKN023 12/08 Q1021=
201909201020 METAR ESMX 201020Z 27004KT 220V300 9999 BKN023 12/07 Q1022=
201909200950 METAR COR ESMX 200950Z 26005KT 210V300 CAVOK 12/08 Q1021=
201909200920 METAR ESMX 200920Z 24006KT 210V300 9999 FEW017 BKN059 11/08 Q1022=
201909200850 METAR ESMX 200850Z 24005KT 200V260 CAVOK 11/08 Q1022=
201909200820 METAR ESMX 200820Z 21005KT 180V250 CAVOK 11/08 Q1022=
201909200750 METAR ESMX 200750Z 23006KT 200V260 CAVOK 10/08 Q1022=
201909200720 METAR ESMX 200720Z 19007KT 9999 SCT016 BKN062 08/06 Q1022=
201909200650 METAR ESMX 200650Z 15004KT 9999 SCT019 BKN064 07/05 Q1022=
201909200620 METAR ESMX 200620Z 18004KT 9999 FEW027 BKN068 06/05 Q1022=
201909200550 METAR ESMX 200550Z 16004KT CAVOK 06/04 Q1022=
201909200520 METAR ESMX 200520Z 18004KT 9999 FEW032 SCT074 05/04 Q1022=
201909200450 METAR ESMX 200450Z 20005KT 9999 SCT038 BKN200 04/04 Q1022=
201909200420 METAR ESMX 200420Z 19004KT 9999 FEW046 BKN200 03/03 Q1023=
201909200350 METAR COR ESMX 200350Z 15002KT 9999 FEW039 BKN057 04/04 Q1023=
201909200320 METAR ESMX 200320Z AUTO 18003KT 9999 BKN170/// 04/03 Q1023=
201909200250 METAR ESMX 200250Z AUTO 16003KT 9999 BKN170/// 04/03 Q1023=
201909200220 METAR ESMX 200220Z AUTO 15002KT 9999 FEW130/// BKN180/// 03/03 Q1024=
201909200150 METAR ESMX 200150Z AUTO 16002KT 9999 FEW130/// BKN190/// 03/03 Q1024=
201909200120 METAR ESMX 200120Z AUTO 25003KT 9999 FEW200/// 03/03 Q1024=
201909200050 METAR ESMX 200050Z AUTO 25003KT 9999 OVC180/// 04/03 Q1024=
201909200020 METAR ESMX 200020Z AUTO 25003KT 9999 OVC180/// 04/03 Q1025=
201909192350 METAR ESMX 192350Z 26003KT CAVOK 03/02 Q1025=
201909192320 METAR ESMX 192320Z 26002KT CAVOK 03/01 Q1025=
201909192250 METAR ESMX 192250Z AUTO 24003KT 9999 NCD 02/02 Q1025=
201909192220 METAR ESMX 192220Z AUTO 26002KT 9999 NCD 02/01 Q1025=
201909192150 METAR ESMX 192150Z AUTO 27003KT 9999 NCD 04/02 Q1025=
201909192120 METAR ESMX 192120Z AUTO 27004KT 9999 NCD 03/02 Q1025=
201909192050 METAR ESMX 192050Z 27003KT CAVOK 03/02 Q1025=
201909192020 METAR ESMX 192020Z 25004KT CAVOK 03/01 Q1025=
201909191950 METAR ESMX 191950Z 26004KT CAVOK 04/02 Q1025=
201909191920 METAR ESMX 191920Z 27003KT CAVOK 03/02 Q1024=
201909191850 METAR ESMX 191850Z 26002KT CAVOK 05/03 Q1025=
201909191820 METAR ESMX 191820Z 29004KT CAVOK 06/02 Q1024=
201909191750 METAR ESMX 191750Z 30003KT CAVOK 08/02 Q1024=
201909191720 METAR ESMX 191720Z 32005KT CAVOK 09/02 Q1024=
201909191650 METAR ESMX 191650Z 31007KT CAVOK 10/03 Q1024=
201909191620 METAR ESMX 191620Z 30007KT CAVOK 11/03 Q1024=
201909191550 METAR ESMX 191550Z 30008KT CAVOK 11/02 Q1024=
201909191520 METAR ESMX 191520Z 30009KT 270V330 CAVOK 11/02 Q1024=
201909191450 METAR ESMX 191450Z 30010KT CAVOK 12/02 Q1024=
201909191420 METAR ESMX 191420Z 30011KT CAVOK 12/01 Q1023=
201909191350 METAR ESMX 191350Z 31011KT 270V330 CAVOK 13/01 Q1023=
201909191320 METAR ESMX 191320Z 29010KT 250V320 CAVOK 14/02 Q1023=
201909191250 METAR ESMX 191250Z 31012KT 280V340 CAVOK 13/01 Q1023=
201909191220 METAR ESMX 191220Z 30012KT 260V320 CAVOK 12/01 Q1023=
201909191150 METAR ESMX 191150Z 30012KT CAVOK 13/02 Q1023=
201909191120 METAR ESMX 191120Z 29012KT CAVOK 13/02 Q1023=
201909191050 METAR ESMX 191050Z 30011KT 270V340 CAVOK 13/01 Q1023=
201909191020 METAR ESMX 191020Z 31011KT CAVOK 12/03 Q1023=
201909190950 METAR ESMX 190950Z 32011KT CAVOK 12/04 Q1023=
201909190920 METAR ESMX 190920Z 34010KT CAVOK 11/04 Q1023=
201909190850 METAR ESMX 190850Z 31011KT CAVOK 10/04 Q1023=
201909190820 METAR ESMX 190820Z 32012KT CAVOK 10/05 Q1023=
201909190750 METAR ESMX 190750Z 34010KT CAVOK 09/05 Q1022=
201909190720 METAR ESMX 190720Z 32008KT CAVOK 08/05 Q1022=
201909190650 METAR ESMX 190650Z 31007KT CAVOK 06/05 Q1022=
201909190620 METAR ESMX 190620Z 29005KT CAVOK 05/04 Q1021=
201909190550 METAR COR ESMX 190550Z 32004KT CAVOK 04/03 Q1021=
201909190520 METAR ESMX 190520Z 29005KT CAVOK 03/02 Q1021=
201909190450 METAR ESMX 190450Z 29003KT CAVOK 03/02 Q1021=
201909190420 METAR ESMX 190420Z VRB02KT CAVOK 03/02 Q1020=
201909190350 METAR COR ESMX 190350Z 30003KT CAVOK 03/03 Q1020=
201909190320 METAR ESMX 190320Z AUTO 29004KT 9999 NCD 04/03 Q1020=
201909190250 METAR ESMX 190250Z AUTO 29006KT 9999 NCD 04/03 Q1020=
201909190220 METAR ESMX 190220Z AUTO 29006KT 9999 NCD 04/03 Q1020=
201909190150 METAR ESMX 190150Z AUTO 29007KT 9999 NCD 04/03 Q1019=
201909190120 METAR ESMX 190120Z AUTO 28004KT 9999 NCD 04/03 Q1019=
201909190050 METAR ESMX 190050Z AUTO 26003KT 9999 NCD 03/03 Q1019=
201909190020 METAR ESMX 190020Z AUTO 26004KT 9999 NCD 03/03 Q1019=
201909182350 METAR ESMX 182350Z AUTO 26004KT 9999 NCD 04/03 Q1019=
201909182320 METAR ESMX 182320Z 26003KT CAVOK 04/03 Q1019=
201909182250 METAR ESMX 182250Z 28004KT CAVOK 03/02 Q1019=
201909182220 METAR ESMX 182220Z 28004KT CAVOK 02/02 Q1019=
201909182150 METAR COR ESMX 182150Z VRB02KT CAVOK 04/03 Q1018=
201909182120 METAR ESMX 182120Z 28003KT CAVOK 02/02 Q1018=
201909182050 METAR ESMX 182050Z VRB02KT CAVOK 04/03 Q1018=
201909182020 METAR ESMX 182020Z VRB02KT CAVOK 05/04 Q1018=
201909181950 METAR ESMX 181950Z 31003KT CAVOK 05/04 Q1018=
201909181920 METAR ESMX 181920Z 31005KT CAVOK 05/03 Q1018=
201909181850 METAR ESMX 181850Z 32004KT CAVOK 07/04 Q1017=
201909181820 METAR ESMX 181820Z 32006KT CAVOK 08/04 Q1017=
201909181750 METAR ESMX 181750Z 31006KT CAVOK 09/04 Q1017=
201909181720 METAR ESMX 181720Z 33005KT CAVOK 09/05 Q1016=
201909181650 METAR ESMX 181650Z 30005KT CAVOK 11/05 Q1016=
201909181620 METAR ESMX 181620Z 32006KT CAVOK 12/05 Q1016=
201909181550 METAR ESMX 181550Z 33008KT CAVOK 12/04 Q1015=
201909181520 METAR ESMX 181520Z 33008KT CAVOK 13/04 Q1015=
201909181450 METAR COR ESMX 181450Z 31008KT CAVOK 14/03 Q1015=
201909181420 METAR ESMX 181420Z 30009KT 9999 SCT049 13/05 Q1015=
201909181350 METAR ESMX 181350Z 31009KT 9999 FEW045 SCT055 13/04 Q1015=
201909181320 METAR ESMX 181320Z 31010KT 280V340 9999 SCT045 14/04 Q1015=
201909181250 METAR ESMX 181250Z 30011KT 9999 SCT045 13/04 Q1015=
201909181220 METAR ESMX 181220Z 29011KT 9999 BKN040 14/05 Q1014=
201909181150 METAR ESMX 181150Z 32010KT 280V350 9999 BKN036 12/05 Q1014=
201909181120 METAR ESMX 181120Z 32010KT 9999 BKN034 12/05 Q1014=
201909181050 METAR ESMX 181050Z 33010KT 290V360 9999 BKN031 12/06 Q1014=
201909181020 METAR ESMX 181020Z 31010KT 280V340 9999 BKN027 11/06 Q1014=
201909180950 METAR ESMX 180950Z 32011KT 9999 BKN025 12/06 Q1014=
201909180920 METAR ESMX 180920Z 32010KT 9999 SCT022 11/06 Q1013=
201909180850 METAR ESMX 180850Z 31010KT CAVOK 10/06 Q1013=
201909180820 METAR ESMX 180820Z 31009KT CAVOK 09/07 Q1013=
201909180750 METAR ESMX 180750Z 30008KT 270V330 CAVOK 08/06 Q1013=
201909180720 METAR ESMX 180720Z 29008KT CAVOK 07/05 Q1013=
201909180650 METAR ESMX 180650Z 29006KT CAVOK 07/05 Q1012=
201909180620 METAR ESMX 180620Z 31005KT CAVOK 06/04 Q1012=
201909180550 METAR ESMX 180550Z 31007KT CAVOK 04/04 Q1012=
201909180520 METAR ESMX 180520Z 31006KT 280V340 CAVOK 04/03 Q1011=
201909180450 METAR ESMX 180450Z 29005KT CAVOK 03/03 Q1011=
201909180420 METAR ESMX 180420Z 27005KT CAVOK 03/03 Q1011=
201909180350 METAR ESMX 180350Z AUTO 28005KT 9999 NCD 04/03 Q1010=
201909180320 METAR ESMX 180320Z AUTO 28005KT 9999 NCD 04/03 Q1010=
201909180250 METAR ESMX 180250Z AUTO 28006KT 9999 NCD 04/03 Q1010=
201909180220 METAR ESMX 180220Z AUTO 27005KT 9999 NCD 04/03 Q1010=
201909180150 METAR ESMX 180150Z 26004KT CAVOK 04/03 Q1009=
201909180120 METAR ESMX 180120Z 27005KT CAVOK 04/04 Q1009=
201909180050 METAR ESMX 180050Z 29007KT CAVOK 05/04 Q1009=
201909180020 METAR ESMX 180020Z 30006KT 270V330 CAVOK 05/04 Q1009=
201909172350 METAR COR ESMX 172350Z 30007KT CAVOK 05/04 Q1009=
201909172320 METAR ESMX 172320Z AUTO 30008KT 9999 NCD 05/04 Q1009=
201909172250 METAR ESMX 172250Z AUTO 29008KT 9999 NCD 05/05 Q1008=
201909172220 METAR ESMX 172220Z AUTO 30008KT 9999 NCD 06/05 Q1008=
201909172150 METAR ESMX 172150Z AUTO 29008KT 9999 NCD 06/05 Q1008=
201909172120 METAR ESMX 172120Z AUTO 28008KT 9999 NCD 06/06 Q1007=
201909172050 METAR ESMX 172050Z 29007KT 9999 FEW032 06/06 Q1007=
201909172020 METAR ESMX 172020Z 31010KT 9999 SCT041 07/06 Q1006=
201909171950 METAR ESMX 171950Z 31011KT 9999 -RA BKN031 07/06 Q1006=
201909171920 METAR ESMX 171920Z 31010KT 9999 FEW033 SCT059 06/05 Q1005=
201909171850 METAR ESMX 171850Z 30010KT 9999 FEW043 BKN070 06/05 Q1004=
201909171820 METAR ESMX 171820Z 31011KT CAVOK 06/05 Q1004=
201909171750 METAR ESMX 171750Z 31010KT 9999 FEW011 BKN040 06/05 Q1003=
201909171720 METAR ESMX 171720Z 32013KT 9999 -RA FEW010 BKN033 06/05 Q1002=
201909171650 METAR ESMX 171650Z 32013G27KT 9999 -RA SCT008 BKN017 07/05 Q1002=
201909171620 METAR ESMX 171620Z 32013KT 9999 -RA SCT029 OVC041 07/05 Q1001=
201909171550 METAR ESMX 171550Z 29010G20KT 250V330 9999 -SHRA SCT021CB BKN035 08/06 Q1001=
201909171520 METAR ESMX 171520Z 26006KT 9999 FEW035CB 07/06 Q1000=
201909171450 METAR ESMX 171450Z 29010KT 9999 FEW033CB SCT082 07/05 Q1000=
201909171420 METAR ESMX 171420Z 28010KT 9999 -SHRA FEW014CB BKN038 09/06 Q1000=
201909171350 METAR ESMX 171350Z 27011KT 9999 -SHRA SCT040CB 10/04 Q1000=
201909171320 METAR ESMX 171320Z 29013KT 9999 FEW030CB 11/03 Q0999=
201909171250 METAR ESMX 171250Z 29015KT 9999 FEW036CB 11/02 Q0999=
201909171220 METAR ESMX 171220Z 26013KT 240V300 9999 FEW030CB 11/05 Q0999=
201909171150 METAR ESMX 171150Z 26014KT 9999 FEW027CB 09/04 Q1000=
201909171120 METAR ESMX 171120Z 25012KT 220V280 9999 FEW027CB 10/03 Q1000=
201909171050 METAR ESMX 171050Z 25013KT 210V280 9999 FEW020CB 11/05 Q1000=
201909171020 METAR ESMX 171020Z 25013KT 210V280 9999 SCT036 10/05 Q1000=
201909170950 METAR ESMX 170950Z 26014KT 9999 SCT037 11/04 Q1000=
201909170920 METAR ESMX 170920Z AUTO 27015KT 9999 FEW028/// SCT039/// 11/04 Q1000=
201909170850 METAR ESMX 170850Z 26012KT 210V280 9999 FEW023 10/06 Q1001=
201909170820 METAR ESMX 170820Z 26010KT 210V280 9999 FEW010 09/06 Q1001=
201909170750 METAR ESMX 170750Z 27011KT 9999 FEW022 08/05 Q1001=
201909170720 METAR ESMX 170720Z 28010KT 9999 FEW016 SCT025 BKN041 08/06 Q1002=
201909170650 METAR ESMX 170650Z 23008KT 200V270 9999 FEW019 BKN026 08/07 Q1001=
201909170620 METAR ESMX 170620Z 23009KT 9999 FEW025 08/07 Q1002=
201909170550 METAR ESMX 170550Z 23009KT 9999 FEW037 08/07 Q1002=
201909170520 METAR ESMX 170520Z 22009KT 9999 FEW037 SCT048 08/07 Q1002=
201909170450 METAR ESMX 170450Z 22009KT CAVOK 08/07 Q1003=
201909170420 METAR ESMX 170420Z 23007KT CAVOK 08/07 Q1003=
201909170350 METAR COR ESMX 170350Z 22007KT 9999 FEW020 SCT049 08/08 Q1003=
201909170320 METAR ESMX 170320Z AUTO 23007G17KT 9999 FEW004/// SCT031/// BKN043/// 08/08 Q1004 RERA REUP=
201909170250 METAR ESMX 170250Z AUTO 22008KT 9999 FEW036/// 07/07 Q1004=
201909170220 METAR ESMX 170220Z AUTO 22007KT 9999 FEW130/// 07/07 Q1005=
201909170150 METAR ESMX 170150Z AUTO 23008KT 9999 NCD 07/07 Q1005=
201909170120 METAR ESMX 170120Z AUTO 23007KT 9999 FEW015/// SCT120/// 07/07 Q1005=
201909170050 METAR ESMX 170050Z AUTO 22005KT 9999 SCT018/// BKN100/// BKN130/// 07/07 Q1006=
201909170020 METAR ESMX 170020Z AUTO 19006KT 9999 SCT130/// 06/06 Q1006=
201909162350 METAR ESMX 162350Z AUTO 17005KT 9999 BKN017/// 07/06 Q1006=
201909162320 METAR ESMX 162320Z AUTO 18005KT 9999 FEW015/// SCT020/// 07/06 Q1007=
201909162250 METAR ESMX 162250Z AUTO 21004KT 9999 BKN023/// BKN036/// 07/07 Q1007=
201909162220 METAR ESMX 162220Z AUTO 23005KT 9999 NCD 07/07 Q1007=
201909162150 METAR ESMX 162150Z AUTO 23005KT 9999 NCD 08/07 Q1007=
201909162120 METAR ESMX 162120Z AUTO 25007KT 9999 NCD 08/07 Q1008=
201909162050 METAR ESMX 162050Z AUTO 25008KT 9999 NCD 08/06 Q1008=
201909162020 METAR ESMX 162020Z AUTO 25007KT 9999 NCD 08/06 Q1008=
201909161950 METAR ESMX 161950Z AUTO 25005KT 9999 NCD 08/06 Q1008=
201909161920 METAR ESMX 161920Z AUTO 25006KT 9999 NCD 08/05 Q1008=
201909161850 METAR ESMX 161850Z AUTO 24005KT 9999 NCD 08/05 Q1008=
201909161820 METAR ESMX 161820Z AUTO 27007KT 250V310 9999 NCD 10/05 Q1008=
201909161750 METAR ESMX 161750Z 25008KT 220V280 CAVOK 10/04 Q1008=
201909161720 METAR ESMX 161720Z 27009KT CAVOK 11/04 Q1008=
201909161650 METAR ESMX 161650Z 25010KT 9999 FEW042 12/04 Q1008=
201909161620 METAR ESMX 161620Z 27010KT 9999 FEW048 13/04 Q1008=
201909161550 METAR ESMX 161550Z 28014KT CAVOK 13/03 Q1008=
201909161520 METAR ESMX 161520Z AUTO 26015KT 230V290 9999 NCD 13/04 Q1008=
201909161450 METAR ESMX 161450Z 27014KT CAVOK 14/03 Q1008=
201909161420 METAR ESMX 161420Z 29015G25KT 250V330 CAVOK 14/02 Q1007=
201909161350 METAR ESMX 161350Z 28016G26KT CAVOK 15/02 Q1007=
201909161320 METAR ESMX 161320Z 28015KT 240V320 CAVOK 15/03 Q1007=
201909161250 METAR ESMX 161250Z 29016G27KT 250V330 CAVOK 14/03 Q1007=
201909161220 METAR ESMX 161220Z 26016KT 230V290 9999 FEW049 15/03 Q1007=
201909161150 METAR ESMX 161150Z 26015KT 9999 FEW047 15/04 Q1007=
201909161120 METAR ESMX 161120Z 28016KT 9999 FEW047 14/04 Q1007=
201909161050 METAR ESMX 161050Z 27014KT 9999 SCT045 13/03 Q1007=
201909161020 METAR ESMX 161020Z 28015KT 230V300 9999 FEW044 14/05 Q1007=
201909160950 METAR ESMX 160950Z 27014KT 9999 FEW041 13/04 Q1007=
201909160920 METAR ESMX 160920Z 27012KT 240V310 9999 SCT043 14/06 Q1007=
201909160850 METAR ESMX 160850Z 28017KT 9999 SCT032 13/05 Q1007=
201909160820 METAR ESMX 160820Z 28015G25KT 9999 SCT031 13/06 Q1007=
201909160750 METAR ESMX 160750Z 27014KT 250V320 9999 FEW026 12/06 Q1007=
201909160720 METAR ESMX 160720Z 29014G24KT 250V320 9999 FEW026 12/07 Q1007=
201909160650 METAR ESMX 160650Z 28014KT 250V320 9999 FEW025 11/07 Q1007=
201909160620 METAR ESMX 160620Z 27012KT 9999 FEW022 11/07 Q1007=
201909160550 METAR ESMX 160550Z 26010KT 230V300 9999 FEW021 10/07 Q1007=
201909160520 METAR ESMX 160520Z 27010KT 230V310 9999 SCT022 10/07 Q1006=
201909160450 METAR ESMX 160450Z 27011KT 240V300 9999 FEW026 10/07 Q1006=
201909160420 METAR ESMX 160420Z 27013KT 230V300 9999 SCT026 11/07 Q1006=
201909160350 METAR ESMX 160350Z 27014KT 230V300 9999 BKN026 11/07 Q1006=
201909160320 METAR ESMX 160320Z AUTO 27014KT 9999 OVC025/// 11/07 Q1006=
201909160250 METAR ESMX 160250Z AUTO 27011G22KT 240V300 9999 BKN025/// 11/07 Q1006=
201909160220 METAR ESMX 160220Z AUTO 27012KT 9999 SCT025/// 11/07 Q1006=
201909160150 METAR ESMX 160150Z AUTO 26013KT 9999 BKN025/// 11/07 Q1006=
201909160120 METAR ESMX 160120Z AUTO 27013KT 9999 BKN025/// 11/07 Q1006=
201909160050 METAR ESMX 160050Z AUTO 26013G25KT 9999 BKN025/// 12/07 Q1005=
201909160020 METAR ESMX 160020Z AUTO 27016G29KT 9999 BKN026/// 12/07 Q1005=
201909152350 METAR ESMX 152350Z AUTO 27017G30KT 230V290 9999 BKN027/// 12/07 Q1005=
201909152320 METAR ESMX 152320Z AUTO 26016G30KT 9999 BKN029/// 12/08 Q1005=
201909152250 METAR ESMX 152250Z AUTO 26017G30KT 9999 BKN030/// 12/08 Q1005=
201909152220 METAR ESMX 152220Z AUTO 26016KT 9999 FEW027/// SCT035/// 12/08 Q1005=
201909152150 METAR ESMX 152150Z AUTO 25019KT 9999 FEW027/// BKN036/// 12/08 Q1005=
201909152120 METAR ESMX 152120Z AUTO 26016KT 9999 FEW027/// BKN038/// 12/08 Q1005=
201909152050 METAR ESMX 152050Z AUTO 24016G27KT 9999 FEW025/// SCT041/// 12/08 Q1005=
201909152020 METAR ESMX 152020Z AUTO 25016G30KT 9999 SCT044/// 12/08 Q1005=
201909151950 METAR ESMX 151950Z AUTO 24018G30KT 9999 -RA FEW027/// BKN041/// 12/07 Q1005=
201909151920 METAR ESMX 151920Z 24015G26KT 9999 SCT026 BKN051 12/07 Q1005=
201909151850 METAR ESMX 151850Z 25014KT 9999 BKN024 11/08 Q1005=
201909151820 METAR ESMX 151820Z 25015KT 9999 SCT025 12/07 Q1006=
201909151750 METAR ESMX 151750Z AUTO 25014KT 220V280 9999 BKN028/// BKN035/// OVC055/// 12/07 Q1005=
201909151720 METAR ESMX 151720Z 24015G25KT 220V280 9999 BKN029 12/07 Q1006=
201909151650 METAR ESMX 151650Z 25014KT 9999 SCT028 12/07 Q1006=
201909151620 METAR ESMX 151620Z 26015G28KT 230V300 9999 SCT033 12/07 Q1006=
201909151550 METAR ESMX 151550Z 25016G28KT 210V280 9999 FEW039 13/06 Q1006=
201909151520 METAR ESMX 151520Z 26015G26KT 9999 FEW035 13/06 Q1006=
201909151450 METAR ESMX 151450Z 26017G30KT 230V290 9999 FEW035 13/06 Q1006=
201909151420 METAR ESMX 151420Z 25015G29KT 200V270 9999 FEW035 14/07 Q1006=
201909151350 METAR ESMX 151350Z 27018G28KT 9999 SCT036 BKN061 14/07 Q1006=
201909151320 METAR ESMX 151320Z 26019KT 230V290 9999 FEW038 BKN180 14/07 Q1006=
201909151250 METAR ESMX 151250Z 25016G33KT 210V280 9999 BKN044 15/06 Q1006=
201909151220 METAR ESMX 151220Z 26019G30KT 240V300 9999 SCT038 15/06 Q1006=
201909151150 METAR ESMX 151150Z 27020G31KT 240V300 9999 BKN034 14/07 Q1006=
201909151120 METAR ESMX 151120Z 26016G28KT 220V280 9999 BKN034 15/08 Q1006=
201909151050 METAR ESMX 151050Z 25015G25KT 200V290 9999 SCT029 15/09 Q1006=
201909151020 METAR ESMX 151020Z 26017KT 9999 SCT026 15/10 Q1006=
201909150950 METAR ESMX 150950Z AUTO 27015G30KT 240V300 9999 FEW068/// 14/11 Q1006=
201909150920 METAR ESMX 150920Z 27016G29KT 240V300 9999 -RA BKN009 14/13 Q1005=
201909150850 METAR ESMX 150850Z 23015KT 190V260 9999 BKN009 14/13 Q1005=
201909150820 METAR ESMX 150820Z 24015KT 9999 -RA BKN008 14/13 Q1005=
201909150750 METAR ESMX 150750Z 23014KT 8000 -RA BKN007 13/13 Q1005=
201909150720 METAR ESMX 150720Z 22013KT 190V250 9999 RA BKN008 13/13 Q1006=
201909150650 METAR ESMX 150650Z 22013KT 9999 -RA BKN008 13/12 Q1006=
201909150620 METAR ESMX 150620Z 21013KT 9999 RA BKN008 12/12 Q1007=
201909150550 METAR ESMX 150550Z 22012KT 5000 RA FEW008 SCT012 BKN017 12/11 Q1007=
201909150520 METAR COR ESMX 150520Z 22014KT 9999 -RA FEW006 OVC014 12/11 Q1008=
201909150450 METAR ESMX 150450Z AUTO 20016KT 9999 OVC017/// 13/10 Q1008=
201909150420 METAR ESMX 150420Z AUTO 20016KT 9999 OVC018/// 13/10 Q1009=
201909150350 METAR ESMX 150350Z AUTO 21017G28KT 9999 OVC018/// 13/10 Q1010=
201909150320 METAR ESMX 150320Z AUTO 21017KT 180V240 9999 OVC017/// 12/10 Q1011=
201909150250 METAR ESMX 150250Z AUTO 21018KT 9999 BKN019/// OVC098/// 12/09 Q1012=
201909150220 METAR ESMX 150220Z AUTO 21018KT 9999 SCT019/// BKN098/// BKN120/// 12/09 Q1012=
201909150150 METAR ESMX 150150Z AUTO 21016KT 9999 FEW019/// 12/09 Q1013=
201909150120 METAR ESMX 150120Z AUTO 21014KT 9999 FEW053/// BKN100/// 12/09 Q1015=
201909150050 METAR ESMX 150050Z AUTO 23016G26KT 9999 OVC062/// 12/09 Q1016=
201909150020 METAR ESMX 150020Z AUTO 22014G25KT 9999 FEW021/// BKN066/// OVC092/// 12/09 Q1016=
201909142350 METAR ESMX 142350Z AUTO 21014G26KT 9999 FEW022/// BKN066/// OVC080/// 12/09 Q1017=
201909142320 METAR ESMX 142320Z AUTO 21013KT 9999 OVC088/// 12/08 Q1018=
201909142250 METAR ESMX 142250Z AUTO 21014KT 9999 FEW084/// BKN120/// 12/08 Q1018=
201909142220 METAR ESMX 142220Z 21012KT 170V240 CAVOK 12/09 Q1019=
201909142150 METAR ESMX 142150Z 21011KT CAVOK 12/09 Q1020=
201909142120 METAR ESMX 142120Z 21011KT CAVOK 12/09 Q1020=
201909142050 METAR ESMX 142050Z 21011KT CAVOK 12/09 Q1021=
201909142020 METAR ESMX 142020Z 21010KT 9999 FEW030 12/09 Q1021=
201909141920 METAR ESMX 141920Z AUTO 21010KT 9999 OVC090/// 12/10 Q1023=
201909141850 METAR ESMX 141850Z AUTO 21010KT 9999 FEW049/// OVC096/// 12/10 Q1023=
201909141820 METAR ESMX 141820Z AUTO 20009KT 9999 BKN098/// 11/09 Q1024=
201909141750 METAR ESMX 141750Z AUTO 22007KT 9999 FEW074/// 11/10 Q1024=
201909141720 METAR ESMX 141720Z AUTO 24006KT 9999 NCD 11/10 Q1024=
201909141650 METAR ESMX 141650Z 24005KT 9999 VCSH FEW026 SCT036 12/10 Q1024=
201909141620 METAR ESMX 141620Z 24011KT 210V280 9999 -RA BKN029 14/09 Q1024=
201909141550 METAR ESMX 141550Z 25012KT 220V280 9999 FEW032 SCT062 15/09 Q1025=
201909141520 METAR ESMX 141520Z 25010KT 9999 SCT035 15/09 Q1025=
201909141450 METAR ESMX 141450Z 26010KT 9999 FEW041 SCT062 15/09 Q1025=
201909141420 METAR ESMX 141420Z 26013KT 230V290 CAVOK 15/08 Q1025=
201909141350 METAR COR ESMX 141350Z 27014KT CAVOK 17/08 Q1025=
201909141320 METAR ESMX 141320Z 27012KT 230V300 9999 SCT039 16/07 Q1025=
201909141250 METAR ESMX 141250Z 26013KT 230V290 9999 SCT038 15/08 Q1026=
201909141220 METAR ESMX 141220Z 25012G24KT 210V280 9999 SCT049 16/08 Q1026=
201909141150 METAR ESMX 141150Z 28010G22KT 250V320 9999 FEW034 SCT053 16/08 Q1026=
201909141120 METAR ESMX 141120Z 23013KT 9999 FEW033 15/08 Q1026=
201909141050 METAR ESMX 141050Z 26010KT 220V300 9999 FEW034 SCT051 15/09 Q1026=
201909141020 METAR ESMX 141020Z 26011KT 9999 FEW034 BKN042 14/08 Q1026=
201909140950 METAR ESMX 140950Z 28012KT 230V300 9999 FEW034 SCT042 14/07 Q1027=
201909140920 METAR ESMX 140920Z AUTO 28012KT 250V320 9999 FEW033/// 14/08 Q1027=
201909140850 METAR ESMX 140850Z AUTO 28010KT 250V310 9999 SCT029/// 14/07 Q1027=
201909140820 METAR ESMX 140820Z AUTO 29010KT 250V320 9999 BKN025/// 14/08 Q1027=
201909140750 METAR ESMX 140750Z AUTO 26010KT 210V280 9999 FEW024/// 13/09 Q1027=
201909140720 METAR ESMX 140720Z AUTO 25008KT 210V280 9999 NCD 12/09 Q1027=
201909140650 METAR ESMX 140650Z AUTO 23007KT 190V270 9999 NCD 10/09 Q1027=
201909140620 METAR ESMX 140620Z AUTO 23007KT 9999 NCD 09/09 Q1027=
201909140550 METAR ESMX 140550Z AUTO 21005KT 9999 NCD 08/08 Q1027=
201909140520 METAR ESMX 140520Z AUTO 21004KT 9999 NCD 08/08 Q1027=
201909140450 METAR ESMX 140450Z AUTO 23002KT 9999 NCD 08/07 Q1027=
201909140420 METAR ESMX 140420Z AUTO 27003KT 240V320 9999 NCD 08/07 Q1026=
201909140350 METAR ESMX 140350Z AUTO 24005KT 9999 NCD 08/07 Q1026=
201909140320 METAR ESMX 140320Z AUTO VRB03KT 9999 NCD 08/08 Q1026=
201909140250 METAR ESMX 140250Z AUTO VRB01KT 9999 FEW033/// 08/08 Q1026=
201909140220 METAR ESMX 140220Z AUTO 22003KT 190V250 9999 BKN032/// 09/08 Q1026=
201909140150 METAR ESMX 140150Z AUTO 26004KT 220V290 9999 NCD 09/08 Q1026=
201909140120 METAR ESMX 140120Z AUTO 27006KT 9999 BKN029/// 10/08 Q1026=
201909140050 METAR ESMX 140050Z AUTO 25007KT 9999 FEW033/// 10/08 Q1026=
201909140020 METAR ESMX 140020Z AUTO 25007KT 9999 FEW033/// 10/08 Q1026=
201909132350 METAR ESMX 132350Z AUTO 24007KT 9999 NCD 10/08 Q1026=
201909132320 METAR ESMX 132320Z AUTO 23007KT 9999 NCD 10/08 Q1026=
201909132250 METAR ESMX 132250Z AUTO 25007KT 9999 NCD 09/08 Q1025=
201909132220 METAR ESMX 132220Z AUTO 24007KT 9999 NCD 10/08 Q1026=
201909132150 METAR ESMX 132150Z AUTO 25007KT 9999 NCD 10/08 Q1026=
201909132120 METAR ESMX 132120Z AUTO 26007KT 9999 NCD 10/08 Q1025=
201909132050 METAR ESMX 132050Z AUTO 25008KT 9999 NCD 11/08 Q1025=
201909132020 METAR ESMX 132020Z AUTO 26009KT 9999 NCD 11/08 Q1025=
201909131950 METAR ESMX 131950Z 26007KT 230V290 CAVOK 11/08 Q1025=
201909131920 METAR ESMX 131920Z 25008KT CAVOK 11/08 Q1025=
201909131850 METAR ESMX 131850Z 24005KT 210V280 CAVOK 11/07 Q1024=
201909131820 METAR ESMX 131820Z 24006KT CAVOK 11/07 Q1024=
201909131750 METAR ESMX 131750Z 26009KT CAVOK 12/07 Q1024=
201909131720 METAR ESMX 131720Z 27009KT CAVOK 13/06 Q1023=
201909131650 METAR ESMX 131650Z 27012KT 9999 FEW047 14/06 Q1023=
201909131620 METAR ESMX 131620Z 27012KT 230V290 9999 FEW047 14/06 Q1023=
201909131550 METAR ESMX 131550Z 27012G23KT 240V310 9999 FEW047 15/06 Q1022=
201909131520 METAR ESMX 131520Z 28013KT 9999 FEW047 16/06 Q1022=
201909131450 METAR ESMX 131450Z 30015KT 250V320 9999 FEW047 16/05 Q1022=
201909131420 METAR ESMX 131420Z 28014KT 9999 FEW047 16/06 Q1022=
201909131350 METAR ESMX 131350Z 27016G28KT 9999 SCT048 17/05 Q1022=
201909131320 METAR ESMX 131320Z 28015G27KT 250V310 9999 SCT045 17/06 Q1021=
201909131250 METAR ESMX 131250Z 27015G27KT 240V300 9999 SCT049 17/06 Q1021=
201909131220 METAR ESMX 131220Z 27015G27KT 9999 SCT045 17/08 Q1020=
201909131150 METAR ESMX 131150Z 27013KT 240V320 9999 SCT044 17/08 Q1020=
201909131120 METAR ESMX 131120Z 26017KT 240V300 9999 SCT041 16/07 Q1020=
201909131050 METAR ESMX 131050Z 28012KT 9999 SCT039 16/08 Q1019=
201909131020 METAR ESMX 131020Z 29013KT 9999 SCT042 15/08 Q1019=
201909130950 METAR ESMX 130950Z 30013KT 9999 SCT033 15/08 Q1019=
201909130920 METAR ESMX 130920Z 27013KT 240V300 9999 BKN027 14/09 Q1019=
201909130850 METAR ESMX 130850Z 27013KT 240V300 9999 BKN023 15/10 Q1018=
201909130820 METAR ESMX 130820Z 28013KT 9999 SCT020 14/11 Q1018=
201909130750 METAR ESMX 130750Z 27012KT 230V310 9999 SCT012 13/11 Q1018=
201909130720 METAR ESMX 130720Z 28009KT 250V310 9999 BKN013 13/12 Q1017=
201909130650 METAR ESMX 130650Z 25008KT 9999 SCT013 BKN025 13/12 Q1017=
201909130620 METAR ESMX 130620Z 26007KT 9999 BKN009 12/11 Q1017=
201909130550 METAR ESMX 130550Z 25006KT 9999 SCT009 BKN051 12/12 Q1017=
201909130520 METAR ESMX 130520Z 26007KT 220V290 9999 -RA FEW033 BKN080 12/11 Q1017=
201909130450 METAR ESMX 130450Z 26008KT 9999 -RA SCT007 BKN044 12/12 Q1017=
201909130420 METAR ESMX 130420Z 23006KT 9999 -RA BKN008 12/11 Q1017=
201909130350 METAR ESMX 130350Z 23006KT 9999 -RA FEW010 SCT035 BKN080 12/11 Q1017=
201909130320 METAR ESMX 130320Z AUTO 24007KT 9999 SCT046/// BKN068/// 12/12 Q1016=
201909130250 METAR ESMX 130250Z AUTO 24006KT 9999 FEW023/// OVC043/// 13/12 Q1017=
201909130220 METAR ESMX 130220Z AUTO 26008KT 9999 FEW010/// SCT021/// BKN029/// 13/12 Q1017=
201909130150 METAR ESMX 130150Z AUTO 26008KT 9999 SCT007/// BKN009/// OVC016/// 13/13 Q1017=
201909130120 METAR ESMX 130120Z AUTO 24008KT 200V260 9000 BR BKN006/// OVC010/// 13/13 Q1017=
201909130050 METAR ESMX 130050Z AUTO 23009KT 9999 FEW007/// BKN009/// BKN011/// 13/13 Q1018 REDZ=
201909130020 METAR ESMX 130020Z AUTO 22010KT 8000 DZ OVC010/// 13/13 Q1018=
201909122350 METAR ESMX 122350Z 20010KT 9999 FEW013 SCT018 BKN027 14/12 Q1018=
201909122320 METAR ESMX 122320Z 20009KT 9999 SCT027 BKN046 14/12 Q1018=
201909122250 METAR ESMX 122250Z 22009KT 9999 FEW027 BKN059 14/11 Q1018=
201909122220 METAR ESMX 122220Z 20010KT 9999 FEW041 BKN061 14/12 Q1019=
201909122150 METAR ESMX 122150Z AUTO 20009KT 9999 SCT039/// OVC100/// 14/12 Q1019=
201909122120 METAR ESMX 122120Z AUTO 20009KT 9999 SCT019/// BKN043/// OVC080/// 14/12 Q1019=
201909122050 METAR COR ESMX 122050Z 21009KT 9999 FEW022 SCT042 14/12 Q1019=
201909122020 METAR ESMX 122020Z 22009KT 9999 FEW035 BKN051 14/12 Q1019=
201909121950 METAR ESMX 121950Z 22008KT 9999 FEW020 SCT055 14/12 Q1020=
201909121920 METAR ESMX 121920Z 21008KT 180V250 9999 FEW013 SCT051 14/12 Q1020=
201909121850 METAR ESMX 121850Z 21006KT 9999 BKN016 14/12 Q1020=
201909121820 METAR ESMX 121820Z 22007KT 9999 FEW018 SCT028 BKN053 14/12 Q1020=
201909121750 METAR ESMX 121750Z 21009KT 170V240 9999 VCSH FEW035CB 15/12 Q1020=
201909121720 METAR ESMX 121720Z 22009KT 9999 FEW022 SCT059 14/11 Q1020=
201909121650 METAR ESMX 121650Z 23013KT 190V260 9999 FEW024 BKN042 15/11 Q1020=
201909121620 METAR ESMX 121620Z 22010KT 9999 FEW029 BKN059 16/11 Q1019=
201909121550 METAR ESMX 121550Z 23009KT 200V260 9999 FEW028 SCT062 16/11 Q1019=
201909121520 METAR ESMX 121520Z 23014KT 9999 FEW032 SCT042 17/10 Q1020=
201909121450 METAR ESMX 121450Z 26011KT 9999 FEW038 BKN059 17/11 Q1019=
201909121420 METAR ESMX 121420Z 23008KT 9999 FEW035 BKN061 16/11 Q1020=
201909121350 METAR ESMX 121350Z 24011KT 210V280 9999 FEW030 BKN061 18/11 Q1020=
201909121320 METAR ESMX 121320Z 22014KT 190V260 9999 SCT031 BKN061 17/11 Q1019=
201909121250 METAR ESMX 121250Z 22010KT 190V250 9999 FEW027 BKN062 17/11 Q1019=
201909121220 METAR COR ESMX 121220Z 22014KT 9999 FEW029 BKN062 17/11 Q1020=
201909121150 METAR ESMX 121150Z 22011KT 180V260 9999 SCT030 BKN061 17/11 Q1019=
201909121120 METAR ESMX 121120Z 23011KT 9999 FEW032 BKN062 17/12 Q1020=
201909121050 METAR ESMX 121050Z 23013KT 9999 SCT031 BKN059 17/11 Q1019=
201909121020 METAR ESMX 121020Z 23013KT 9999 SCT030 BKN052 17/11 Q1019=
201909120950 METAR ESMX 120950Z 22012KT 200V260 9999 BKN026 17/11 Q1019=
201909120920 METAR ESMX 120920Z 23010KT 190V260 9999 SCT022 BKN035 15/12 Q1019=
201909120850 METAR COR ESMX 120850Z 22011KT 9999 SCT019 BKN026 15/12 Q1019=
201909120820 METAR ESMX 120820Z AUTO 22009KT 9999 SCT014/// BKN024/// 15/12 Q1019=
201909120750 METAR ESMX 120750Z 24010KT 170V280 9999 BKN012 14/12 Q1018=
201909120720 METAR ESMX 120720Z 22010KT 9999 SCT012 BKN051 14/12 Q1018=
201909120650 METAR ESMX 120650Z 23010KT 9999 FEW010 SCT064 14/13 Q1018=
201909120620 METAR ESMX 120620Z 22009KT CAVOK 13/12 Q1017=
201909120550 METAR COR ESMX 120550Z 23009KT 9999 FEW006 12/12 Q1017=
201909120520 METAR ESMX 120520Z 22007KT 9999 FEW007 12/12 Q1016=
201909120450 METAR ESMX 120450Z 22007KT 9999 SCT008 12/12 Q1016=
201909120420 METAR ESMX 120420Z 22008KT 9999 BKN009 13/12 Q1016=
201909120350 METAR ESMX 120350Z 24007KT 9999 BKN010 13/12 Q1015=
201909120320 METAR ESMX 120320Z AUTO 24008KT 9999 SCT010/// OVC015/// 13/12 Q1015=
201909120250 METAR ESMX 120250Z AUTO 23008KT 9999 FEW012/// BKN018/// 13/12 Q1015=
201909120220 METAR ESMX 120220Z AUTO 23007KT 9999 FEW012/// SCT015/// BKN025/// 13/13 Q1015=
201909120150 METAR ESMX 120150Z AUTO 22006KT 9999 FEW008/// 13/13 Q1014=
201909120120 METAR ESMX 120120Z AUTO 22007KT 9999 FEW010/// 13/13 Q1014=
201909120050 METAR ESMX 120050Z 21007KT 9999 SCT010 14/13 Q1014=
201909120020 METAR ESMX 120020Z 22008KT 9999 FEW008 SCT010 14/13 Q1014=
201909112350 METAR ESMX 112350Z 21010KT 9999 FEW005 BKN007 13/13 Q1013=
201909112320 METAR ESMX 112320Z AUTO 19012KT 4400 BR BKN005/// OVC008/// 13/13 Q1013=
201909112250 METAR ESMX 112250Z AUTO 19014KT 2500 -DZ OVC005/// 13/13 Q1013=
201909112220 METAR ESMX 112220Z AUTO 18014KT 9999 DZ OVC006/// 13/13 Q1013 REDZ=
201909112150 METAR ESMX 112150Z AUTO 19016KT 6000 -DZ FEW001/// BKN006/// OVC008/// 13/13 Q1013 REDZ=
201909112120 METAR ESMX 112120Z AUTO 18013KT 6000 -DZ BKN007/// OVC013/// 13/13 Q1013=
201909112050 METAR ESMX 112050Z AUTO 18015KT 5000 -DZ FEW006/// BKN011/// OVC017/// 13/13 Q1013=
201909112020 METAR ESMX 112020Z 18015KT 9999 -DZ BKN015 13/12 Q1014=
201909111950 METAR ESMX 111950Z 17013KT 9999 -RA BKN025 14/12 Q1014=
201909111920 METAR ESMX 111920Z AUTO 17013KT 9999 OVC032/// 14/12 Q1014=
201909111850 METAR ESMX 111850Z 17012KT 9999 SCT037 14/12 Q1014=
201909111820 METAR ESMX 111820Z 17011KT 9999 -RA BKN040 14/12 Q1014=
201909111750 METAR ESMX 111750Z 17012KT 9999 DZ BKN043 14/12 Q1014=
201909111720 METAR ESMX 111720Z 18013KT 9999 DZ FEW025 BKN051 15/12 Q1014=
201909111650 METAR COR ESMX 111650Z 18014KT 9999 BKN049 15/11 Q1014=
201909111620 METAR ESMX 111620Z 18013KT 9999 FEW035 BKN055 16/11 Q1014=
201909111550 METAR ESMX 111550Z 19012KT 9999 FEW033 SCT061 16/11 Q1014=
201909111520 METAR ESMX 111520Z 20016KT 9999 SCT033 BKN062 16/11 Q1015=
201909111450 METAR ESMX 111450Z 19016KT 9999 FEW033 BKN060 16/10 Q1015=
201909111420 METAR ESMX 111420Z 20013KT 9999 SCT035 17/10 Q1015=
201909111350 METAR ESMX 111350Z 19014KT 9999 SCT046 17/10 Q1015=
201909111320 METAR ESMX 111320Z 21014KT 9999 BKN039 18/09 Q1015=
201909111250 METAR ESMX 111250Z 21017KT 9999 SCT036 BKN049 18/10 Q1015=
201909111220 METAR ESMX 111220Z 19015KT 9999 SCT048 17/11 Q1015=
201909111150 METAR ESMX 111150Z 21015KT 9999 FEW028 SCT047 18/11 Q1015=
201909111120 METAR ESMX 111120Z 21014KT 9999 SCT028 BKN038 16/11 Q1015=
201909111050 METAR ESMX 111050Z 22013KT 9999 SCT029 17/11 Q1015=
201909111020 METAR ESMX 111020Z AUTO 22012KT 200V260 9999 FEW024/// SCT032/// 16/10 Q1015=
201909110950 METAR ESMX 110950Z 24012KT 210V280 9999 FEW017 BKN030 17/13 Q1015=
201909110920 METAR ESMX 110920Z 25013KT 9999 BKN014 15/12 Q1015=
201909110850 METAR COR ESMX 110850Z 23012KT 9999 SCT014 BKN022 14/13 Q1015=
201909110820 METAR ESMX 110820Z 24010KT 9999 FEW010 SCT014 BKN019 14/13 Q1014=
201909110750 METAR ESMX 110750Z 24011KT 200V270 9999 FEW007 BKN009 14/13 Q1014=
201909110720 METAR ESMX 110720Z 25013KT 210V280 4200 -DZ BKN006 14/14 Q1013 REDZ=
201909110650 METAR ESMX 110650Z 23008KT 3000 DZ FEW003 OVC006 15/15 Q1012 REDZ=
201909110620 METAR ESMX 110620Z 22007KT 6000 BR BKN007 OVC009 15/15 Q1012=
201909110550 METAR ESMX 110550Z 23008KT 9999 BKN007 OVC039 15/15 Q1012=
201909110520 METAR ESMX 110520Z AUTO 22009KT 9000 BR BKN008/// OVC011/// 15/15 Q1012=
201909110450 METAR ESMX 110450Z 24008KT 9999 FEW007 BKN009 15/15 Q1011=
201909110420 METAR ESMX 110420Z 24008KT 210V280 8000 -RA BKN005 15/15 Q1011=
201909110350 METAR COR ESMX 110350Z 22009KT 3100 RA OVC002 15/15 Q1010=
201909110320 METAR ESMX 110320Z AUTO 22006KT 2200 +RA OVC001/// 14/14 Q1010=
201909110250 METAR ESMX 110250Z AUTO 20003KT 0900 R01/P2000N R19/1400U -RA FEW001/// BKN002/// OVC008/// 13/13 Q1010=
201909110220 METAR ESMX 110220Z AUTO 17003KT 0250 R01/1200U R19/0900N -RA VV002 13/13 Q1010=
201909110150 METAR ESMX 110150Z AUTO 20003KT 0200 R01/0700N R19/0700N FG OVC001/// 13/13 Q1010=
201909110120 METAR ESMX 110120Z AUTO 18003KT 0150 R01/1000N R19/0650N FG VV001 13/13 Q1010=
201909110050 METAR ESMX 110050Z AUTO 00000KT 0050 R01/0450N R19/0275N FG FEW001/// OVC002/// 12/12 Q1010=
201909110020 METAR ESMX 110020Z AUTO 00000KT 0050 R01/0375N R19/0275N FG VV001 12/12 Q1010=
201909102350 METAR ESMX 102350Z AUTO 22003KT 0100 R01/0450N R19/0450N FG OVC001/// 12/12 Q1010=
201909102320 METAR ESMX 102320Z AUTO 21006KT 9999 FEW046/// 10/10 Q1010=
201909102250 METAR ESMX 102250Z AUTO 18002KT 9999 FEW041/// 08/08 Q1009=
201909102220 METAR ESMX 102220Z AUTO 18004KT 9999 FEW049/// 09/09 Q1009=
201909102150 METAR ESMX 102150Z AUTO 19003KT 9999 SCT033/// BKN041/// BKN051/// 10/10 Q1009=
201909102120 METAR ESMX 102120Z AUTO 00000KT 9999 SCT035/// 09/09 Q1009=
201909102050 METAR ESMX 102050Z AUTO 00000KT 9999 FEW040/// 10/10 Q1009=
201909102020 METAR ESMX 102020Z AUTO 00000KT 9999 SCT037/// 10/10 Q1009=
201909101950 METAR ESMX 101950Z 23002KT CAVOK 10/10 Q1009=
201909101920 METAR ESMX 101920Z 00000KT CAVOK 11/11 Q1009=
201909101850 METAR ESMX 101850Z AUTO 00000KT 9999 FEW038/// BKN059/// 13/13 Q1009=
201909101820 METAR ESMX 101820Z 00000KT 9999 FEW036 13/12 Q1008=
201909101750 METAR ESMX 101750Z 08003KT 9999 FEW035 15/12 Q1008=
201909101720 METAR COR ESMX 101720Z VRB02KT 9999 FEW035 16/12 Q1008=
201909101650 METAR ESMX 101650Z VRB03KT 9999 FEW033 17/12 Q1008=
201909101620 METAR ESMX 101620Z VRB01KT CAVOK 17/12 Q1008=
201909101550 METAR ESMX 101550Z VRB02KT 9999 FEW035 17/12 Q1007=
201909101520 METAR ESMX 101520Z VRB02KT 9999 FEW032 BKN045 18/12 Q1007=
201909101450 METAR ESMX 101450Z VRB04KT 9999 FEW032 SCT049 18/12 Q1007=
201909101420 METAR ESMX 101420Z VRB03KT 9999 FEW035 SCT048 18/13 Q1007=
201909101350 METAR ESMX 101350Z VRB02KT 9999 SCT030 18/14 Q1007=
201909101320 METAR ESMX 101320Z VRB02KT 9999 FEW024 SCT040 18/15 Q1007=
201909101250 METAR ESMX 101250Z VRB03KT 9999 BKN042CB 17/15 Q1007=
201909101220 METAR ESMX 101220Z 08005KT 030V140 9999 FEW040 19/15 Q1007=
201909101150 METAR ESMX 101150Z 08005KT 030V140 9999 FEW026 SCT037 19/14 Q1007=
201909101120 METAR ESMX 101120Z 07007KT 030V130 9999 SCT023 20/15 Q1007=
201909101050 METAR ESMX 101050Z 06008KT 030V100 9999 SCT026 19/15 Q1007=
201909101020 METAR ESMX 101020Z 07007KT 030V120 9999 FEW018 20/15 Q1007=
201909100950 METAR ESMX 100950Z 06008KT 020V110 9999 FEW017 19/16 Q1007=
201909100920 METAR ESMX 100920Z 07009KT 020V120 9999 BKN016 19/16 Q1007=
201909100850 METAR COR ESMX 100850Z 05007KT 020V090 9999 FEW014 18/16 Q1007=
201909100820 METAR ESMX 100820Z 04008KT CAVOK 17/16 Q1007=
201909100750 METAR ESMX 100750Z 04007KT 010V080 9999 SCT009 17/16 Q1007=
201909100720 METAR COR ESMX 100720Z 04007KT 010V070 9999 SCT008 17/16 Q1008=
201909100650 METAR ESMX 100650Z 05009KT 010V090 9999 OVC007 17/16 Q1008=
201909100620 METAR ESMX 100620Z 04009KT 010V080 9999 OVC007 16/16 Q1008=
201909100550 METAR ESMX 100550Z AUTO 04009KT 9999 OVC007/// 16/16 Q1008=
201909100520 METAR ESMX 100520Z 03008KT 360V060 9000 BR OVC007 16/16 Q1008=
201909100450 METAR ESMX 100450Z 03008KT 8000 BR OVC004 16/16 Q1008=
201909100420 METAR ESMX 100420Z 03008KT 010V070 4000 BR OVC002 16/16 Q1008=
201909100350 METAR COR ESMX 100350Z 02007KT 350V050 2700 BR OVC002 16/16 Q1008=
201909100320 METAR ESMX 100320Z AUTO 01007KT 350V050 9999 BKN003/// OVC005/// 15/15 Q1008=
201909100250 METAR ESMX 100250Z AUTO 04008KT 9999 FEW005/// BKN048/// OVC130/// 15/15 Q1009=
201909100220 METAR ESMX 100220Z AUTO 36003KT 9999 ////// 15/15 Q1009 RERA=
201909100150 METAR ESMX 100150Z AUTO 03006KT 9999 -RA ////// 15/15 Q1009=
201909100120 METAR ESMX 100120Z AUTO 02003KT 360V060 8000 RA ////// 15/15 Q1010 RERA=
201909100050 METAR ESMX 100050Z AUTO 03007KT 9999 RA SCT002/// BKN006/// OVC072/// 15/15 Q1010=
201909100020 METAR ESMX 100020Z AUTO 03003KT 5000 RA SCT001/// BKN005/// OVC007/// 15/15 Q1011=
201909092350 METAR ESMX 092350Z AUTO 01005KT 340V050 9999 RA FEW001/// OVC005/// 15/15 Q1011 RESHRA REDZ=
201909092320 METAR ESMX 092320Z AUTO 04004KT 010V070 9999 OVC005/// 15/15 Q1011=
201909092250 METAR ESMX 092250Z AUTO 04007KT 9999 OVC005/// 15/15 Q1011=
201909092220 METAR ESMX 092220Z AUTO 06005KT 360V100 9999 OVC005/// 15/15 Q1011=
201909092150 METAR ESMX 092150Z AUTO 05006KT 9999 OVC005/// 15/15 Q1012=
201909092120 METAR ESMX 092120Z AUTO 06005KT 030V090 9999 OVC005/// 15/15 Q1012=
201909092050 METAR ESMX 092050Z AUTO 06005KT 030V110 9999 -DZ OVC006/// 15/15 Q1012=
201909092020 METAR ESMX 092020Z AUTO 07005KT 030V100 9999 OVC007/// 15/15 Q1012=
201909091950 METAR ESMX 091950Z AUTO 06004KT 030V100 9999 BKN007/// OVC009/// 15/15 Q1013=
201909091920 METAR ESMX 091920Z AUTO 07005KT 020V100 9999 OVC008/// 15/14 Q1013=
201909091850 METAR ESMX 091850Z AUTO 07005KT 040V120 9999 OVC009/// 15/14 Q1013=
201909091820 METAR ESMX 091820Z AUTO 07005KT 020V110 9999 BKN011/// OVC027/// 15/14 Q1013=
201909091750 METAR ESMX 091750Z 08005KT 040V140 9999 SCT009 BKN027 15/15 Q1013=
201909091720 METAR ESMX 091720Z 07005KT 360V130 9999 -DZ BKN008 15/15 Q1013=
201909091650 METAR ESMX 091650Z 07005KT 030V110 9999 -RA BKN008 15/15 Q1013=
201909091620 METAR ESMX 091620Z 05004KT 360V110 9999 -RA BKN008 16/15 Q1013=
201909091550 METAR ESMX 091550Z 03004KT 350V070 9999 -RA FEW017 BKN078 16/15 Q1013=
201909091520 METAR ESMX 091520Z 03004KT 360V070 9999 RA BKN025 16/15 Q1013=
201909091450 METAR ESMX 091450Z 03004KT 350V060 9999 -DZ FEW031 SCT088 17/15 Q1013=
201909091420 METAR ESMX 091420Z 03003KT 340V060 9999 FEW020 17/15 Q1013=
201909091350 METAR ESMX 091350Z 04004KT 020V080 9999 FEW026 SCT035 17/14 Q1014=
201909091320 METAR ESMX 091320Z VRB02KT 9999 FEW014 BKN030 16/14 Q1014=
201909091250 METAR ESMX 091250Z 03003KT 340V070 9999 FEW009 BKN044 16/15 Q1014=
201909091220 METAR ESMX 091220Z 06004KT 030V110 9999 FEW008 SCT190 16/15 Q1014=
201909091150 METAR ESMX 091150Z VRB02KT 9999 FEW005 SCT014 BKN024 15/15 Q1015=
201909091120 METAR ESMX 091120Z 04003KT 350V100 9999 FEW004 BKN006 15/15 Q1015=
201909091050 METAR ESMX 091050Z 06003KT 020V120 2500 -DZ VV009 15/14 Q1015=
201909091020 METAR ESMX 091020Z 03004KT 360V060 6000 BR FEW002 BKN006 15/14 Q1015=
201909090950 METAR ESMX 090950Z 04004KT 340V090 9999 BKN008 OVC034 15/14 Q1015=
201909090920 METAR ESMX 090920Z 03005KT 350V070 9999 OVC007 15/14 Q1015=
201909090850 METAR ESMX 090850Z VRB03KT 9999 OVC006 15/13 Q1015=
201909090820 METAR ESMX 090820Z 05005KT 010V110 9999 OVC006 15/13 Q1015=
201909090750 METAR ESMX 090750Z 02005KT 360V060 9999 OVC006 14/13 Q1015=
201909090720 METAR ESMX 090720Z 03004KT 350V070 9999 OVC006 14/13 Q1015=
201909090650 METAR ESMX 090650Z 01005KT 340V050 9999 OVC006 14/13 Q1016=
201909090620 METAR ESMX 090620Z 02004KT 9999 BKN007 14/13 Q1016=
201909090550 METAR ESMX 090550Z AUTO 01003KT 9999 SCT007/// BKN009/// OVC014/// 14/13 Q1016=
201909090520 METAR ESMX 090520Z AUTO 02003KT 340V070 9999 OVC007/// 14/13 Q1016=
201909090450 METAR ESMX 090450Z 02005KT 340V060 9999 BKN007 14/13 Q1016=
201909090420 METAR ESMX 090420Z 01006KT 9999 BKN008 14/13 Q1016=
201909090350 METAR COR ESMX 090350Z 01007KT 9999 BKN008 14/13 Q1016=
201909090320 METAR ESMX 090320Z AUTO 01005KT 350V050 9999 OVC008/// 14/13 Q1016=
201909090250 METAR ESMX 090250Z AUTO 35005KT 9999 OVC009/// 14/13 Q1016=
201909090220 METAR ESMX 090220Z AUTO 36007KT 9999 OVC009/// 14/13 Q1016=
201909090150 METAR ESMX 090150Z AUTO 01007KT 9999 OVC008/// 14/12 Q1017=
201909090120 METAR ESMX 090120Z AUTO 36006KT 9999 OVC009/// 14/12 Q1017=
201909090050 METAR ESMX 090050Z AUTO 35007KT 9999 OVC010/// 14/13 Q1017=
201909090020 METAR ESMX 090020Z AUTO 36004KT 9999 OVC010/// 14/12 Q1017=
201909082350 METAR ESMX 082350Z AUTO 34005KT 300V010 9999 OVC010/// 14/12 Q1017=
201909082320 METAR ESMX 082320Z AUTO 35007KT 9999 OVC012/// 14/12 Q1017=
201909082250 METAR ESMX 082250Z AUTO 35007KT 9999 OVC013/// 14/12 Q1018=
201909082220 METAR ESMX 082220Z AUTO 34006KT 9999 OVC015/// 14/12 Q1018=
201909082150 METAR ESMX 082150Z AUTO 01008KT 9999 OVC015/// 14/12 Q1018=
201909082120 METAR ESMX 082120Z AUTO 01008KT 9999 OVC013/// 14/12 Q1018=
201909082050 METAR ESMX 082050Z AUTO 36006KT 9999 SCT015/// OVC064/// 14/12 Q1018=
201909082020 METAR ESMX 082020Z AUTO 35008KT 9999 BKN015/// BKN019/// OVC043/// 14/12 Q1018=
201909081950 METAR ESMX 081950Z 01005KT 9999 OVC039 14/12 Q1018=
201909081920 METAR ESMX 081920Z 02004KT 9999 BKN030 14/12 Q1019=
201909081850 METAR ESMX 081850Z 03006KT 9999 FEW013 BKN040 14/12 Q1019=
201909081820 METAR ESMX 081820Z 03007KT 9999 SCT032 BKN057 14/12 Q1019=
201909081750 METAR ESMX 081750Z 02007KT 9999 FEW016 SCT028 BKN062 15/12 Q1019=
201909081720 METAR ESMX 081720Z 03009KT 9999 FEW033 BKN051 15/11 Q1019=
201909081650 METAR ESMX 081650Z 03007KT 9999 FEW025 BKN074 15/10 Q1019=
201909081620 METAR ESMX 081620Z 03006KT 350V060 9999 BKN025 15/10 Q1019=
201909081550 METAR ESMX 081550Z 01006KT 9999 BKN025 15/11 Q1019=
201909081520 METAR ESMX 081520Z 35006KT 9999 BKN042 15/11 Q1019=
201909081450 METAR ESMX 081450Z 36005KT 9999 BKN039 15/12 Q1019=
201909081420 METAR ESMX 081420Z 05006KT 020V100 9999 BKN026 15/11 Q1019=
201909081350 METAR ESMX 081350Z 04004KT 010V080 9999 BKN030 16/10 Q1019=
201909081320 METAR COR ESMX 081320Z 03005KT 350V060 9999 BKN034 16/10 Q1019=
201909081250 METAR ESMX 081250Z 03007KT 340V060 9999 FEW031 BKN053 17/11 Q1019=
201909081220 METAR ESMX 081220Z 05008KT 020V080 9999 FEW030 17/10 Q1019=
201909081150 METAR ESMX 081150Z 02008KT 9999 FEW029 SCT048 18/11 Q1019=
201909081120 METAR ESMX 081120Z 02007KT 350V070 CAVOK 17/11 Q1019=
201909081050 METAR ESMX 081050Z 03005KT 350V080 9999 FEW040 BKN062 17/11 Q1019=
201909081020 METAR ESMX 081020Z 04004KT 360V120 9999 SCT024 BKN076 17/12 Q1020=
201909080950 METAR ESMX 080950Z AUTO 04007KT 360V070 9999 FEW023/// OVC120/// 17/12 Q1020=
201909080920 METAR ESMX 080920Z 01005KT 330V030 CAVOK 16/13 Q1020=
201909080850 METAR ESMX 080850Z 36006KT 9999 FEW009 15/13 Q1020=
201909080820 METAR COR ESMX 080820Z 04006KT 9999 FEW006 SCT009 15/13 Q1020=
201909080750 METAR ESMX 080750Z 02006KT 9999 SCT005 13/13 Q1019=
201909080720 METAR ESMX 080720Z 03005KT 9999 SCT004 13/13 Q1019=
201909080650 METAR COR ESMX 080650Z 03005KT 9999 BKN004 13/12 Q1019=
201909080620 METAR ESMX 080620Z 02003KT 9999 SCT004 13/12 Q1019=
201909080550 METAR ESMX 080550Z 03003KT 9999 FEW004 SCT096 12/12 Q1019=
201909080520 METAR COR ESMX 080520Z 02003KT CAVOK 12/12 Q1019=
201909080450 METAR ESMX 080450Z AUTO 03003KT 9999 FEW003/// SCT092/// OVC110/// 12/12 Q1019=
201909080420 METAR ESMX 080420Z AUTO 03004KT 9999 BR SCT004/// OVC100/// 11/11 Q1019=
201909080350 METAR ESMX 080350Z AUTO 06002KT 9000 BKN100/// 10/10 Q1019=
201909080320 METAR ESMX 080320Z AUTO 03003KT 2100 BKN120/// 11/11 Q1019=
201909080250 METAR ESMX 080250Z AUTO 04003KT 8000 FEW002/// BKN120/// 10/10 Q1019=
201909080220 METAR ESMX 080220Z AUTO 02002KT 0800 R01/P2000D R19/P2000N BCFG BKN003/// OVC078/// 10/10 Q1019=
201909080150 METAR ESMX 080150Z AUTO 00000KT 4400 BR BKN002/// BKN074/// 11/11 Q1019=
201909080120 METAR ESMX 080120Z AUTO 00000KT 9999 OVC070/// 10/10 Q1019=
201909080050 METAR ESMX 080050Z AUTO 00000KT 9999 BKN035/// OVC064/// 10/10 Q1019=
201909080020 METAR ESMX 080020Z AUTO 00000KT 1200 R01/1800N R19/P2000N BCFG OVC068/// 09/09 Q1019=
201909072350 METAR ESMX 072350Z AUTO 00000KT 9999 BR OVC078/// 08/08 Q1019=
201909072320 METAR ESMX 072320Z AUTO 00000KT 9999 BKN092/// 09/09 Q1019=
201909072250 METAR ESMX 072250Z AUTO 00000KT 8000 BCFG FEW098/// BKN130/// 08/08 Q1019=
201909072220 METAR ESMX 072220Z AUTO 00000KT 9999 BCFG FEW140/// 08/08 Q1019=
201909072150 METAR ESMX 072150Z AUTO 00000KT 0400 R01/P2000N R19/P2000N BR FEW170/// 09/09 Q1019=
201909072120 METAR ESMX 072120Z AUTO 00000KT 8000 FEW140/// 10/10 Q1019=
201909072050 METAR ESMX 072050Z AUTO 17003KT 9999 FEW180/// 10/10 Q1019=
201909072020 METAR ESMX 072020Z AUTO 17002KT 9999 FEW150/// SCT180/// 11/10 Q1019=
201909071950 METAR ESMX 071950Z AUTO 16004KT 9999 BKN190/// 13/12 Q1019=
201909071920 METAR ESMX 071920Z AUTO 15003KT 9999 SCT042/// 13/12 Q1018=
201909071850 METAR ESMX 071850Z AUTO 16005KT 9999 FEW043/// 14/12 Q1018=
201909071820 METAR ESMX 071820Z AUTO 15005KT 9999 NCD 14/11 Q1018=
201909071750 METAR ESMX 071750Z AUTO 19001KT 9999 NCD 12/10 Q1018=
201909071720 METAR ESMX 071720Z AUTO 21002KT 9999 NCD 15/09 Q1017=
201909071650 METAR ESMX 071650Z 21003KT CAVOK 17/09 Q1017=
201909071620 METAR ESMX 071620Z 22005KT CAVOK 17/09 Q1017=
201909071550 METAR ESMX 071550Z 18008KT CAVOK 17/09 Q1017=
201909071520 METAR ESMX 071520Z 19007KT CAVOK 18/08 Q1017=
201909071450 METAR ESMX 071450Z 19008KT 170V230 9999 FEW044 18/08 Q1016=
201909071420 METAR ESMX 071420Z 20010KT CAVOK 18/08 Q1016=
201909071350 METAR ESMX 071350Z 21009KT 9999 SCT045 BKN066 19/09 Q1016=
201909071320 METAR ESMX 071320Z 19009KT 9999 SCT044 BKN055 18/08 Q1016=
201909071250 METAR ESMX 071250Z 19011KT 9999 SCT043 18/08 Q1016=
201909071220 METAR ESMX 071220Z 19011KT 160V230 9999 SCT040 18/09 Q1016=
201909071150 METAR ESMX 071150Z 20012KT 9999 BKN036 18/09 Q1016=
201909071120 METAR ESMX 071120Z 20011KT 170V230 9999 FEW032 17/09 Q1016=
201909071050 METAR ESMX 071050Z AUTO 19012KT 150V220 9999 SCT032/// 17/10 Q1016=
201909071020 METAR ESMX 071020Z AUTO 20012KT 9999 BKN064/// 16/10 Q1016=
201909070950 METAR ESMX 070950Z AUTO 20011KT 9999 FEW023/// SCT062/// 16/11 Q1016=
201909070920 METAR ESMX 070920Z AUTO 20012KT 9999 FEW025/// SCT062/// 15/11 Q1015=
201909070850 METAR ESMX 070850Z AUTO 20013KT 9999 FEW018/// BKN028/// OVC034/// 16/12 Q1015=
201909070820 METAR ESMX 070820Z AUTO 19011KT 9999 BKN016/// BKN029/// 14/11 Q1015=
201909070750 METAR ESMX 070750Z AUTO 17010KT 9999 BKN012/// 14/12 Q1015=
201909070720 METAR ESMX 070720Z AUTO 17010KT 9999 FEW013/// SCT033/// 14/12 Q1015=
201909070650 METAR ESMX 070650Z AUTO 17009KT 9999 FEW048/// 12/11 Q1015=
201909070620 METAR ESMX 070620Z AUTO 17009KT 9999 NCD 12/11 Q1015=
201909070550 METAR ESMX 070550Z AUTO 16007KT 9999 FEW025/// SCT035/// BKN051/// 12/11 Q1014=
201909070520 METAR ESMX 070520Z AUTO 17008KT 9999 SCT032/// OVC053/// 11/11 Q1014 REDZ=
201909070450 METAR ESMX 070450Z AUTO 16008KT 9999 FEW045/// OVC062/// 11/10 Q1014 RESHUP REDZ=
201909070420 METAR ESMX 070420Z AUTO 16008KT 9999 OVC059/// 11/10 Q1014=
201909070350 METAR ESMX 070350Z AUTO 16008KT 9999 FEW045/// BKN061/// OVC086/// 11/10 Q1015 RERA=
201909070320 METAR ESMX 070320Z AUTO 15008KT 9999 BKN059/// 11/10 Q1015=
201909070250 METAR ESMX 070250Z AUTO 16008KT 9999 DZ OVC057/// 11/10 Q1015 REDZ=
201909070220 METAR ESMX 070220Z AUTO 16008KT 9999 -RA FEW035/// OVC053/// 11/10 Q1015=
201909070150 METAR ESMX 070150Z AUTO 16006KT 9999 -RA BKN039/// OVC059/// 11/10 Q1015=
201909070120 METAR ESMX 070120Z AUTO 14008KT 100V170 9999 FEW034/// OVC057/// 11/10 Q1015=
201909070050 METAR ESMX 070050Z AUTO 15007KT 9999 FEW037/// OVC057/// 11/09 Q1015=
201909070020 METAR ESMX 070020Z AUTO 17005KT 9999 BKN057/// OVC068/// 11/09 Q1016=
201909062350 METAR ESMX 062350Z AUTO 18007KT 150V210 9999 -DZ BKN051/// OVC068/// 11/10 Q1016 REDZ=
201909062320 METAR ESMX 062320Z AUTO 18009KT 9999 FEW031/// BKN051/// OVC062/// 11/10 Q1016=
201909062250 METAR ESMX 062250Z 19010KT 9999 DZ FEW018 BKN051 11/10 Q1016=
201909062220 METAR ESMX 062220Z 18008KT 9999 DZ FEW028 BKN049 11/09 Q1016=
201909062150 METAR ESMX 062150Z 18007KT 9999 -DZ NSC 12/09 Q1016=
201909062120 METAR ESMX 062120Z 19008KT 9999 SCT044 SCT072 12/09 Q1016=
201909062050 METAR ESMX 062050Z 18010KT 9999 SCT045 BKN062 12/10 Q1017=
201909062020 METAR ESMX 062020Z AUTO 19012KT 9999 SCT048/// BKN070/// 12/10 Q1017=
201909061950 METAR ESMX 061950Z 20009KT 9999 SCT012 BKN061 12/10 Q1017=
201909061920 METAR ESMX 061920Z 22011KT 9999 FEW017 BKN045 12/10 Q1017=
201909061850 METAR ESMX 061850Z 18010KT CAVOK 13/10 Q1016=
201909061820 METAR ESMX 061820Z 18010KT CAVOK 13/10 Q1016=
201909061750 METAR ESMX 061750Z 17009KT CAVOK 14/10 Q1016=
201909061720 METAR ESMX 061720Z 17008KT CAVOK 14/10 Q1016=
201909061650 METAR ESMX 061650Z 17008KT CAVOK 14/10 Q1016=
201909061620 METAR ESMX 061620Z 19008KT 9999 FEW003 BKN027 14/11 Q1016=
201909061550 METAR ESMX 061550Z 18010KT 9999 -RA SCT026 15/10 Q1016=
201909061520 METAR ESMX 061520Z AUTO 20009KT 9999 FEW027/// SCT035/// BKN051/// 16/10 Q1016 REDZ=
201909061450 METAR ESMX 061450Z 19010KT 9999 SCT031 BKN048 15/09 Q1016=
201909061420 METAR ESMX 061420Z 18012KT 9999 FEW033 15/09 Q1017=
201909061350 METAR ESMX 061350Z 19011KT CAVOK 15/09 Q1017=
201909061320 METAR ESMX 061320Z 19011KT CAVOK 15/09 Q1017=
201909061250 METAR ESMX 061250Z 20010KT CAVOK 15/10 Q1017=
201909061220 METAR ESMX 061220Z 20007KT 9999 SCT043 14/10 Q1017=
201909061150 METAR ESMX 061150Z 21010G21KT 9999 SCT035 12/10 Q1017=
201909061120 METAR ESMX 061120Z 22011KT 9999 FEW045 SCT075 15/08 Q1017=
201909061050 METAR ESMX 061050Z 23010KT 9999 SCT038 15/08 Q1017=
201909061020 METAR ESMX 061020Z 21011KT 9999 SCT028 14/08 Q1017=
201909060950 METAR COR ESMX 060950Z 22011KT 190V250 9999 SCT025 15/09 Q1017=
201909060920 METAR ESMX 060920Z 22010KT 190V250 9999 FEW024 SCT032 13/09 Q1017=
201909060850 METAR ESMX 060850Z 24011KT 9999 SCT023 BKN030 13/09 Q1017=
201909060820 METAR ESMX 060820Z 21010KT 180V240 9999 SCT025 13/09 Q1017=
201909060750 METAR ESMX 060750Z 22012KT 9999 FEW026 12/08 Q1016=
201909060720 METAR ESMX 060720Z 23008KT CAVOK 12/09 Q1016=
201909060650 METAR ESMX 060650Z 23008KT CAVOK 11/09 Q1016=
201909060620 METAR ESMX 060620Z 23007KT CAVOK 11/09 Q1015=
201909060550 METAR ESMX 060550Z AUTO 23006KT 200V260 9999 NCD 10/09 Q1015=
201909060520 METAR ESMX 060520Z 21007KT CAVOK 09/08 Q1015=
201909060450 METAR ESMX 060450Z 23007KT 9999 FEW044 09/09 Q1014=
201909060420 METAR ESMX 060420Z 23008KT 9999 SCT043 10/09 Q1014=
201909060350 METAR ESMX 060350Z 22007KT 9999 BKN046 10/09 Q1014=
201909060320 METAR ESMX 060320Z AUTO 22008KT 9999 OVC046/// 10/09 Q1013=
201909060250 METAR ESMX 060250Z AUTO 22007KT 9999 FEW024/// SCT039/// BKN045/// 10/10 Q1013=
201909060220 METAR ESMX 060220Z AUTO 22006KT 190V250 9999 BKN051/// BKN062/// 10/10 Q1013 REDZ=
201909060150 METAR ESMX 060150Z AUTO 24007KT 9999 FEW055/// 10/10 Q1012=
201909060120 METAR ESMX 060120Z AUTO 23008KT 9999 FEW011/// SCT042/// 10/10 Q1012=
201909060050 METAR ESMX 060050Z AUTO 22008KT 9999 BKN009/// BKN068/// 10/10 Q1012=
201909060020 METAR ESMX 060020Z AUTO 21010KT 9999 OVC015/// 10/10 Q1011=
201909052350 METAR ESMX 052350Z AUTO 19008KT 9999 BKN018/// BKN021/// 10/09 Q1011=
201909052320 METAR ESMX 052320Z 21009KT 9999 SCT022 09/09 Q1010=
201909052250 METAR ESMX 052250Z 22008KT 9999 FEW023 SCT040 10/09 Q1010=
201909052220 METAR ESMX 052220Z 22010KT 9999 -RA FEW026 BKN040 10/09 Q1010=
201909052150 METAR ESMX 052150Z 21008KT 9999 SCT030 10/10 Q1010=
201909052120 METAR ESMX 052120Z 21010KT 9999 FEW005 SCT025 10/10 Q1010=
201909052050 METAR ESMX 052050Z 21008KT 9999 FEW024 10/09 Q1009=
201909052020 METAR ESMX 052020Z 19008KT CAVOK 10/10 Q1009=
201909051950 METAR ESMX 051950Z 20008KT 9999 FEW020 10/10 Q1009=
201909051920 METAR ESMX 051920Z 19008KT 9999 FEW020 SCT053 11/10 Q1009=
201909051850 METAR ESMX 051850Z 20008KT 9999 FEW024 SCT041 11/10 Q1009=
201909051820 METAR ESMX 051820Z 19009KT 9999 SCT045 11/11 Q1008=
201909051750 METAR ESMX 051750Z 20006KT 9999 VCSH FEW030 11/11 Q1008=
201909051720 METAR ESMX 051720Z 21008KT 9999 VCSH FEW020 12/11 Q1008=
201909051650 METAR ESMX 051650Z 21010KT 9999 VCSH FEW020 SCT045 13/12 Q1007=
201909051620 METAR ESMX 051620Z 20008KT 9999 VCSH SCT020 BKN030 13/12 Q1007=
201909051550 METAR ESMX 051550Z 20009KT 9999 FEW019 14/12 Q1007=
201909051520 METAR ESMX 051520Z 21008KT 9999 FEW018 14/13 Q1007=
201909051450 METAR ESMX 051450Z 19009KT 9999 FEW013 SCT018 13/12 Q1007=
201909051420 METAR ESMX 051420Z 17006KT 9999 SCT010 13/12 Q1007=
201909051350 METAR ESMX 051350Z 17003KT 130V200 9999 -RA FEW039 SCT064 11/11 Q1007=
201909051320 METAR ESMX 051320Z 24018G30KT 9999 +TSRA SCT027CB 11/09 Q1007=
201909051250 METAR ESMX 051250Z 21015KT 9999 SCT035 BKN051 16/10 Q1006=
201909051220 METAR ESMX 051220Z 20012KT 9999 FEW033 SCT051 BKN070 16/10 Q1006=
201909051150 METAR ESMX 051150Z 19014KT 9999 SCT040 BKN068 16/09 Q1006=
201909051120 METAR ESMX 051120Z 19014KT 9999 FEW035 BKN061 16/09 Q1006=
201909051050 METAR ESMX 051050Z 20010KT 9999 SCT046 17/11 Q1006=
201909051020 METAR ESMX 051020Z 23011KT 200V260 9999 FEW003 BKN042 13/10 Q1006=
201909050950 METAR ESMX 050950Z 21014KT 9999 FEW033 BKN055 16/09 Q1006=
201909050920 METAR ESMX 050920Z 21012KT 9999 FEW030 16/09 Q1006=
201909050850 METAR ESMX 050850Z 23011KT 9999 FEW031 15/10 Q1006=
201909050820 METAR ESMX 050820Z 21010KT 9999 FEW019 SCT026 15/11 Q1006=
201909050750 METAR ESMX 050750Z 24010KT 9999 SCT014 15/12 Q1006=
201909050720 METAR ESMX 050720Z 24011KT 9999 FEW011 SCT031 14/12 Q1006=
201909050650 METAR ESMX 050650Z 23009KT 9999 FEW011 SCT019 14/13 Q1006=
201909050620 METAR COR ESMX 050620Z 21008KT 9999 SCT011 BKN034 14/14 Q1005=
201909050550 METAR ESMX 050550Z 22007KT 9999 FEW039 SCT070 13/13 Q1005=
201909050520 METAR ESMX 050520Z 23007KT 200V270 8000 -RA FEW002 BKN009 13/13 Q1005=
201909050450 METAR COR ESMX 050450Z 22007KT 6000 -RADZ SCT010 BKN014 14/13 Q1005=
201909050420 METAR ESMX 050420Z 22009KT 200V260 9999 SCT009 BKN012 14/13 Q1005=
201909050350 METAR COR ESMX 050350Z 20010KT 9999 FEW008 BKN010 14/14 Q1004=
201909050320 METAR ESMX 050320Z AUTO 19011KT 9999 BKN007/// OVC030/// 14/14 Q1004=
201909050250 METAR ESMX 050250Z AUTO 18010KT 9999 OVC007/// 14/14 Q1004=
201909050220 METAR ESMX 050220Z AUTO 18009KT 9999 BKN006/// BKN008/// OVC024/// 14/14 Q1004=
201909050150 METAR ESMX 050150Z AUTO 18010KT 9999 BKN006/// OVC008/// 14/14 Q1005=
201909050120 METAR ESMX 050120Z AUTO 19009KT 9999 BKN007/// OVC010/// 14/14 Q1005=
201909050050 METAR ESMX 050050Z AUTO 19010KT 9999 BKN006/// OVC008/// 14/14 Q1005 RESHUP RERA=
201909050020 METAR ESMX 050020Z AUTO 19010KT 9999 BKN006/// OVC014/// 14/14 Q1005 REDZ=
201909042350 METAR ESMX 042350Z AUTO 16007KT 120V190 9000 -DZ BKN006/// OVC020/// 14/14 Q1005 REDZ=
201909042320 METAR ESMX 042320Z 19010KT 4800 DZ FEW006 BKN029 14/14 Q1006=
201909042250 METAR ESMX 042250Z AUTO 20008KT 4200 DZ ///030 14/13 Q1006=
201909042220 METAR ESMX 042220Z 18008KT 9999 -RA FEW016 SCT023 BKN032 15/13 Q1006=
201909042150 METAR ESMX 042150Z AUTO 17009KT 9999 OVC035/// 16/12 Q1007=
201909042120 METAR ESMX 042120Z AUTO 16009KT 9999 OVC039/// 15/12 Q1007=
201909042050 METAR ESMX 042050Z AUTO 17010KT 9999 SCT043/// OVC053/// 15/12 Q1008=
201909042020 METAR ESMX 042020Z 16008KT CAVOK 15/12 Q1008=
201909041950 METAR ESMX 041950Z 17010KT 9999 BKN049 15/12 Q1008=
201909041920 METAR ESMX 041920Z AUTO 17009KT 9999 OVC055/// 15/13 Q1008=
201909041850 METAR ESMX 041850Z 17009KT 9999 BKN048 16/13 Q1009=
201909041820 METAR ESMX 041820Z 17009KT 9999 FEW017 SCT034 BKN045 16/13 Q1009=
201909041750 METAR ESMX 041750Z 16009KT 9999 FEW017 SCT026 BKN034 16/14 Q1009=
201909041720 METAR ESMX 041720Z 16005KT 9999 BKN044 16/14 Q1009=
201909041650 METAR ESMX 041650Z 18006KT 9999 FEW029 BKN042 16/13 Q1010=
201909041620 METAR ESMX 041620Z 18008KT 9999 BKN042 16/13 Q1010=
201909041550 METAR ESMX 041550Z 19009KT 9999 SCT024 BKN036 17/14 Q1010=
201909041520 METAR ESMX 041520Z 16007KT 9999 BKN017 17/14 Q1010=
201909041450 METAR ESMX 041450Z 15008KT 110V170 9999 SCT014 BKN021 17/14 Q1011=
201909041420 METAR ESMX 041420Z 15007KT 9999 FEW014 BKN045 17/15 Q1011=
201909041350 METAR ESMX 041350Z 17008KT 9999 FEW008 SCT011 BKN048 17/15 Q1011=
201909041320 METAR ESMX 041320Z 16007KT 110V190 9999 SCT005 BKN021 16/15 Q1012=
201909041250 METAR ESMX 041250Z 18008KT 6000 DZ SCT006 BKN016 16/14 Q1012=
201909041220 METAR ESMX 041220Z 15007KT 100V180 9999 FEW009 BKN018 17/13 Q1012=
201909041150 METAR ESMX 041150Z 15007KT 120V190 9999 BKN018 17/13 Q1013=
201909041120 METAR ESMX 041120Z 14008KT 110V190 9999 FEW015 BKN050 16/13 Q1013=
201909041050 METAR ESMX 041050Z 17007KT 9999 FEW006 BKN016 16/13 Q1013=
201909041020 METAR ESMX 041020Z 18006KT 140V200 9999 BKN016 16/12 Q1014=
201909040950 METAR ESMX 040950Z 19007KT 9999 BKN015 15/12 Q1014=
201909040920 METAR ESMX 040920Z 19006KT 130V210 9999 SCT016 BKN024 15/11 Q1014=
201909040850 METAR ESMX 040850Z 19007KT 9999 FEW016 BKN022 15/12 Q1014=
201909040820 METAR ESMX 040820Z 22006KT 190V250 9999 FEW016 14/11 Q1014=
201909040750 METAR ESMX 040750Z 20006KT CAVOK 14/11 Q1014=
201909040720 METAR ESMX 040720Z 22006KT 200V260 CAVOK 14/11 Q1014=
201909040650 METAR ESMX 040650Z 19005KT CAVOK 12/11 Q1014=
201909040620 METAR ESMX 040620Z 20004KT 160V220 CAVOK 11/10 Q1014=
201909040550 METAR ESMX 040550Z 19005KT CAVOK 10/10 Q1014=
201909040520 METAR ESMX 040520Z 20004KT CAVOK 08/08 Q1014=
201909040450 METAR ESMX 040450Z 21004KT CAVOK 07/07 Q1014=
201909040420 METAR COR ESMX 040420Z 18003KT 9999 BCFG NSC 08/08 Q1014=
201909040350 METAR COR ESMX 040350Z 18004KT CAVOK 09/08 Q1014=
201909040320 METAR ESMX 040320Z AUTO 19004KT 9999 NCD 08/08 Q1014=
201909040250 METAR ESMX 040250Z AUTO 22006KT 9999 NCD 08/08 Q1014=
201909040220 METAR ESMX 040220Z AUTO 22008KT 9999 FEW026/// 09/08 Q1014=
201909040150 METAR ESMX 040150Z AUTO 20007KT 9999 NCD 08/08 Q1014=
201909040120 METAR ESMX 040120Z AUTO 20006KT 9999 NCD 08/08 Q1014=
201909040050 METAR ESMX 040050Z AUTO 21005KT 9999 NCD 08/08 Q1014=
201909040020 METAR ESMX 040020Z 21006KT CAVOK 09/09 Q1014=
201909032350 METAR COR ESMX 032350Z 21006KT 9999 FEW031 09/09 Q1014=
201909032320 METAR ESMX 032320Z AUTO 22006KT 9999 NCD 10/09 Q1014=
201909032250 METAR ESMX 032250Z AUTO 20005KT 9999 NCD 09/09 Q1014=
201909032220 METAR ESMX 032220Z AUTO 21004KT 9999 NCD 10/10 Q1014=
201909032150 METAR ESMX 032150Z AUTO 20004KT 9999 FEW030/// 10/10 Q1014=
201909032120 METAR ESMX 032120Z 21004KT 9999 FEW027 11/11 Q1014=
201909032050 METAR ESMX 032050Z 23005KT CAVOK 12/11 Q1014=
201909032020 METAR ESMX 032020Z 23006KT CAVOK 13/12 Q1014=
201909031950 METAR ESMX 031950Z 25006KT 9999 FEW021 BKN040 13/12 Q1014=
201909031920 METAR ESMX 031920Z 23007KT CAVOK 13/12 Q1014=
201909031850 METAR ESMX 031850Z 24007KT 9999 FEW016 14/13 Q1014=
201909031820 METAR COR ESMX 031820Z 24007KT 200V280 9999 -RA FEW001 SCT016 15/13 Q1013=
201909031750 METAR ESMX 031750Z AUTO 18008KT 9999 SCT015/// BKN027/// BKN047/// 15/14 Q1013=
201909031720 METAR ESMX 031720Z 18008KT 9999 BKN020 15/13 Q1013=
201909031650 METAR COR ESMX 031650Z 19008KT 9999 BKN020 16/13 Q1013=
201909031620 METAR ESMX 031620Z 19009KT 9999 BKN018 16/13 Q1013=
201909031550 METAR ESMX 031550Z 19009KT 9999 BKN021 16/13 Q1013=
201909031520 METAR ESMX 031520Z 20010KT 9999 -RA BKN020 16/12 Q1013=
201909031450 METAR ESMX 031450Z 20012KT 9999 BKN017 16/13 Q1013=
201909031420 METAR ESMX 031420Z 19010KT 9999 SCT014 BKN038 16/12 Q1014=
201909031350 METAR ESMX 031350Z 19010KT 9999 FEW007 BKN018 15/12 Q1014=
201909031320 METAR ESMX 031320Z 19011KT 9999 BKN020 15/12 Q1014=
201909031250 METAR ESMX 031250Z 20013KT 9999 BKN023 16/11 Q1014=
201909031220 METAR ESMX 031220Z 19012KT 9999 BKN025 16/11 Q1014=
201909031150 METAR ESMX 031150Z 19012KT 160V230 9999 SCT023 BKN035 16/11 Q1014=
201909031120 METAR ESMX 031120Z 19016KT 9999 BKN023 16/11 Q1014=
201909031050 METAR ESMX 031050Z 18014KT 9999 BKN023 16/11 Q1014=
201909031020 METAR ESMX 031020Z 19013KT 9999 BKN018 16/12 Q1015=
201909030950 METAR ESMX 030950Z 19012KT 9999 BKN018 16/12 Q1015=
201909030920 METAR ESMX 030920Z 20012KT 9999 BKN018 15/11 Q1015=
201909030850 METAR ESMX 030850Z 19016KT 9999 SCT018 15/11 Q1015=
201909030820 METAR ESMX 030820Z 19011KT 150V210 9999 SCT013 15/12 Q1016=
201909030750 METAR ESMX 030750Z 17010KT 9999 BKN012 14/12 Q1016=
201909030720 METAR ESMX 030720Z 17010KT 9999 FEW014 13/11 Q1016=
201909030650 METAR ESMX 030650Z 16008KT 9999 FEW018 12/10 Q1016=
201909030620 METAR ESMX 030620Z 17008KT 9999 FEW030 12/10 Q1016=
201909030550 METAR ESMX 030550Z 17007KT 9999 SCT030 BKN082 11/09 Q1016=
201909030520 METAR ESMX 030520Z AUTO 17005KT 9999 OVC078/// 10/08 Q1016=
201909030450 METAR ESMX 030450Z 18006KT CAVOK 10/09 Q1016=
201909030420 METAR ESMX 030420Z 18008KT CAVOK 09/08 Q1017=
201909030350 METAR ESMX 030350Z 19006KT 9999 FEW036 08/08 Q1017=
201909030320 METAR ESMX 030320Z AUTO 19007KT 9999 BKN036/// BKN042/// 09/08 Q1017=
201909030250 METAR ESMX 030250Z AUTO 19007KT 9999 NCD 08/07 Q1017=
201909030220 METAR ESMX 030220Z AUTO 19007KT 9999 NCD 08/07 Q1017=
201909030150 METAR ESMX 030150Z AUTO 18005KT 9999 NCD 07/07 Q1018=
201909030120 METAR ESMX 030120Z AUTO 18006KT 9999 NCD 07/07 Q1018=
201909030050 METAR ESMX 030050Z AUTO 18007KT 9999 NCD 08/08 Q1018=
201909030020 METAR ESMX 030020Z AUTO 19006KT 9999 NCD 08/07 Q1018=
201909022350 METAR ESMX 022350Z AUTO 20006KT 9999 NCD 07/07 Q1018=
201909022320 METAR ESMX 022320Z AUTO 19006KT 9999 NCD 08/07 Q1018=
201909022250 METAR ESMX 022250Z AUTO 19006KT 9999 NCD 08/08 Q1018=
201909022220 METAR ESMX 022220Z AUTO 18006KT 9999 NCD 09/08 Q1018=
201909022150 METAR ESMX 022150Z AUTO 20006KT 9999 NCD 09/08 Q1018=
201909022120 METAR ESMX 022120Z AUTO 23006KT 9999 NCD 10/09 Q1018=
201909022050 METAR ESMX 022050Z AUTO 24005KT 9999 NCD 09/09 Q1018=
201909022020 METAR ESMX 022020Z AUTO 22006KT 9999 NCD 10/09 Q1018=
201909021950 METAR ESMX 021950Z AUTO 19005KT 9999 NCD 10/09 Q1018=
201909021920 METAR ESMX 021920Z AUTO 20005KT 9999 NCD 11/09 Q1017=
201909021850 METAR ESMX 021850Z AUTO 20006KT 9999 NCD 11/09 Q1017=
201909021820 METAR ESMX 021820Z AUTO 21006KT 9999 NCD 11/09 Q1017=
201909021750 METAR ESMX 021750Z 22005KT CAVOK 12/09 Q1017=
201909021720 METAR ESMX 021720Z 21007KT CAVOK 13/09 Q1017=
201909021650 METAR ESMX 021650Z 22008KT 9999 FEW040 14/09 Q1016=
201909021620 METAR ESMX 021620Z 22011KT CAVOK 15/09 Q1016=
201909021550 METAR ESMX 021550Z 23011KT 9999 VCSH FEW045CB 15/08 Q1016=
201909021520 METAR ESMX 021520Z 26011KT 9999 FEW045CB 16/08 Q1016=
201909021450 METAR ESMX 021450Z 24012KT 200V280 9999 FEW040 17/08 Q1015=
201909021420 METAR ESMX 021420Z 26011KT 230V290 9999 FEW035TCU 16/08 Q1015=
201909021350 METAR ESMX 021350Z 24011KT 210V280 9999 FEW040TCU 18/09 Q1015=
201909021320 METAR ESMX 021320Z 26013KT 230V300 9999 FEW036 18/09 Q1015=
201909021250 METAR ESMX 021250Z 24011KT 200V260 9999 SCT034 18/10 Q1014=
201909021220 METAR ESMX 021220Z 24014KT 9999 FEW037CB 17/09 Q1014=
201909021150 METAR ESMX 021150Z 22012KT 9999 FEW031TCU 17/11 Q1014=
201909021120 METAR ESMX 021120Z 21014KT 9999 FEW025CB 17/11 Q1014=
201909021050 METAR ESMX 021050Z 22011KT 9999 VCSH FEW030CB 15/10 Q1014=
201909021020 METAR ESMX 021020Z 22011KT 9999 VCSH SCT032CB 17/11 Q1014=
201909020950 METAR ESMX 020950Z 21010KT 9999 FEW035 15/11 Q1014=
201909020920 METAR ESMX 020920Z 22009KT 9999 VCSH FEW029CB 14/11 Q1014=
201909020850 METAR ESMX 020850Z 23010KT 200V260 9999 SCT030 16/10 Q1014=
201909020820 METAR ESMX 020820Z 24010KT 9999 SCT027 15/10 Q1013=
201909020750 METAR ESMX 020750Z 22008KT 190V250 9999 SCT022 BKN055 15/11 Q1013=
201909020720 METAR ESMX 020720Z 22009KT CAVOK 15/11 Q1013=
201909020650 METAR ESMX 020650Z 23009KT 180V250 CAVOK 14/11 Q1013=
201909020620 METAR ESMX 020620Z 20006KT CAVOK 13/12 Q1013=
201909020550 METAR ESMX 020550Z 20004KT CAVOK 12/12 Q1013=
201909020520 METAR ESMX 020520Z 19005KT CAVOK 11/11 Q1013=
201909020450 METAR ESMX 020450Z 18005KT CAVOK 10/10 Q1013=
201909020420 METAR ESMX 020420Z 19005KT CAVOK 10/10 Q1012=
201909020350 METAR ESMX 020350Z 19004KT CAVOK 11/10 Q1012=
201909020320 METAR ESMX 020320Z AUTO 19004KT 9999 FEW030/// 11/11 Q1012=
201909020250 METAR ESMX 020250Z AUTO 20005KT 9999 BKN070/// 12/11 Q1012=
201909020220 METAR ESMX 020220Z AUTO 20004KT 9999 FEW037/// OVC057/// 12/12 Q1012=
201909020150 METAR ESMX 020150Z AUTO 21004KT 9999 FEW039/// SCT062/// OVC120/// 12/12 Q1012=
201909020120 METAR ESMX 020120Z AUTO 20004KT 9999 SCT064/// 12/12 Q1012=
201909020050 METAR ESMX 020050Z AUTO 20003KT 9999 SCT120/// 12/12 Q1012=
201909020020 METAR ESMX 020020Z AUTO 23004KT 9999 NCD 11/11 Q1012=
201909012350 METAR ESMX 012350Z AUTO 00000KT 9999 FEW140/// 12/11 Q1012=
201909012320 METAR ESMX 012320Z AUTO 23001KT 9999 FEW120/// OVC150/// 12/11 Q1012=
201909012250 METAR ESMX 012250Z AUTO 21003KT 9999 OVC110/// 12/11 Q1012=
201909012220 METAR ESMX 012220Z AUTO 19003KT 9999 SCT061/// OVC110/// 13/12 Q1012=
201909012150 METAR ESMX 012150Z AUTO 20002KT 9999 BKN057/// OVC130/// 12/12 Q1012=
201909012120 METAR ESMX 012120Z AUTO 00000KT 9999 SCT055/// OVC140/// 13/12 Q1011=
201909012050 METAR ESMX 012050Z AUTO VRB03KT 9999 BKN140/// 13/12 Q1011=
201909012020 METAR ESMX 012020Z AUTO 28003KT 230V330 9999 NCD 14/12 Q1011=
201909011950 METAR ESMX 011950Z 27007KT CAVOK 15/13 Q1011=
201909011920 METAR ESMX 011920Z 27005KT 9999 FEW018 15/14 Q1011=
201909011850 METAR ESMX 011850Z 26006KT 9999 FEW019 15/14 Q1010=
201909011820 METAR ESMX 011820Z 27006KT 9999 FEW015 16/14 Q1010=
201909011750 METAR ESMX 011750Z 28007KT 9999 FEW017 17/14 Q1009=
201909011720 METAR ESMX 011720Z AUTO 26007KT 230V290 9999 SCT023/// BKN210/// 18/15 Q1009=
201909011650 METAR ESMX 011650Z 27007KT 9999 FEW025 19/15 Q1009=
201909011620 METAR ESMX 011620Z 28006KT 9999 FEW041 19/16 Q1009=
201909011550 METAR ESMX 011550Z 27005KT 240V300 9999 FEW015 SCT027 19/16 Q1009=
201909011520 METAR ESMX 011520Z 26007KT 9999 FEW015 SCT031 19/17 Q1009=
201909011450 METAR ESMX 011450Z 26007KT 9999 SCT022 BKN028 19/17 Q1008=
201909011420 METAR ESMX 011420Z 28008KT 9999 -SHRA SCT016 BKN023CB 19/17 Q1008=
201909011350 METAR ESMX 011350Z 27007KT 9999 BKN018 20/18 Q1008=
201909011320 METAR ESMX 011320Z 26010KT 9999 VCSH SCT010 BKN020CB 21/18 Q1007=
201909011250 METAR ESMX 011250Z 23004KT 190V260 9999 VCSH SCT020 BKN066CB 22/20 Q1007 RESHRA=
201909011220 METAR ESMX 011220Z 22005KT 180V240 9999 TS -SHRA BKN038CB 21/18 Q1007=
