##########################################################
# Query made at 04/19/2024 22:11:20 UTC
# Time interval: from 11/01/2019 12:00  to 11/30/2019 12:59  UTC
##########################################################

##########################################################
# ESMX, Vaxjo (Sweden)
# WMO index: 02641. WIGOS ID: 0-20000-0-02648
# Latitude 56-51N. Longitude 014-50E. Altitude 199 m.
##########################################################

201911301250 METAR ESMX 301250Z AUTO 26005KT 9999 NCD M00/M03 Q1015=
201911301220 METAR ESMX 301220Z AUTO 26005KT 9999 NCD M00/M03 Q1015=
201911301150 METAR ESMX 301150Z AUTO 26005KT 9999 NCD M00/M03 Q1014=
201911301120 METAR ESMX 301120Z AUTO 25005KT 9999 NCD M00/M04 Q1014=
201911301050 METAR ESMX 301050Z AUTO 23003KT 9999 NCD M01/M04 Q1014=
201911301020 METAR ESMX 301020Z AUTO 22003KT 9999 NCD M02/M04 Q1014=
201911300950 METAR ESMX 300950Z AUTO 19003KT 9999 NCD M03/M04 Q1014=
201911300920 METAR ESMX 300920Z AUTO 25003KT 9999 NCD M03/M05 Q1014=
201911300850 METAR ESMX 300850Z AUTO 19003KT 9999 NCD M04/M05 Q1013=
201911300820 METAR ESMX 300820Z AUTO 24002KT 9999 NCD M05/M05 Q1013=
201911300750 METAR ESMX 300750Z AUTO 15002KT 9999 NCD M05/M06 Q1013=
201911300720 METAR ESMX 300720Z AUTO 24003KT 9999 NCD M06/M07 Q1012=
201911300650 METAR ESMX 300650Z AUTO 25003KT 9999 NCD M05/M05 Q1012=
201911300620 METAR ESMX 300620Z AUTO 25005KT 9999 FEW082/// M06/M06 Q1012=
201911300550 METAR ESMX 300550Z AUTO 26004KT 9999 FEW082/// M05/M05 Q1012=
201911300520 METAR ESMX 300520Z AUTO 27004KT 9999 FEW082/// M05/M05 Q1011=
201911300450 METAR ESMX 300450Z AUTO 30003KT 270V340 9999 NCD M04/M05 Q1011=
201911300420 METAR ESMX 300420Z AUTO 30003KT 260V330 9999 NCD M04/M05 Q1011=
201911300350 METAR ESMX 300350Z AUTO 27003KT 9999 NCD M04/M05 Q1011=
201911300320 METAR ESMX 300320Z AUTO 26003KT 9999 NCD M04/M04 Q1010=
201911300250 METAR ESMX 300250Z AUTO 26004KT 9999 NCD M04/M05 Q1010=
201911300220 METAR ESMX 300220Z AUTO 27004KT 9999 NCD M04/M04 Q1010=
201911300150 METAR ESMX 300150Z AUTO 26005KT 9999 NCD M04/M05 Q1009=
201911300120 METAR ESMX 300120Z AUTO 27005KT 9999 NCD M04/M05 Q1009=
201911300050 METAR ESMX 300050Z AUTO 29007KT 9999 NCD M03/M04 Q1009=
201911300020 METAR ESMX 300020Z AUTO 29006KT 9999 NCD M03/M04 Q1008=
201911292350 METAR ESMX 292350Z AUTO 28006KT 9999 NCD M03/M04 Q1008=
201911292320 METAR ESMX 292320Z AUTO 29007KT 9999 NCD M03/M04 Q1007=
201911292250 METAR ESMX 292250Z AUTO 28007KT 9999 NCD M03/M04 Q1007=
201911292220 METAR ESMX 292220Z AUTO 29005KT 9999 NCD M03/M04 Q1006=
201911292150 METAR ESMX 292150Z AUTO 30004KT 9999 NCD M03/M04 Q1006=
201911292120 METAR ESMX 292120Z 30007KT CAVOK M03/M04 Q1005=
201911292050 METAR ESMX 292050Z 30007KT CAVOK M03/M04 Q1005=
201911292020 METAR ESMX 292020Z 29009KT CAVOK M02/M03 Q1004=
201911291950 METAR ESMX 291950Z 28008KT CAVOK M02/M03 Q1004=
201911291920 METAR ESMX 291920Z 29009KT CAVOK M02/M03 Q1003=
201911291850 METAR ESMX 291850Z 30008KT CAVOK M02/M03 Q1003=
201911291820 METAR ESMX 291820Z 29008KT CAVOK M02/M03 Q1002=
201911291750 METAR ESMX 291750Z 30009KT CAVOK M02/M03 Q1002=
201911291720 METAR ESMX 291720Z 29009KT CAVOK M02/M02 Q1001=
201911291650 METAR ESMX 291650Z 30010KT CAVOK M02/M02 Q1001=
201911291620 METAR ESMX 291620Z 30010KT CAVOK M02/M02 Q1000=
201911291550 METAR ESMX 291550Z 30009KT CAVOK M02/M03 Q0999=
201911291520 METAR ESMX 291520Z 30008KT CAVOK M02/M03 Q0998=
201911291450 METAR ESMX 291450Z 32011KT CAVOK M01/M03 Q0998=
201911291420 METAR ESMX 291420Z 33011KT 9999 FEW016 M01/M03 Q0997=
201911291350 METAR ESMX 291350Z 31013KT 9999 FEW015 M01/M02 Q0996=
201911291320 METAR ESMX 291320Z 32012KT CAVOK M01/M02 Q0995=
201911291250 METAR ESMX 291250Z 33013KT CAVOK M01/M02 Q0994=
201911291220 METAR ESMX 291220Z 32012KT 300V360 9999 SCT030 BKN066 M01/M02 Q0994=
201911291150 METAR ESMX 291150Z 34015KT 9999 5000SE BKN018 M01/M02 Q0993=
201911291120 METAR ESMX 291120Z 34014KT 2500 SN OVC008 M01/M01 Q0992=
201911291050 METAR ESMX 291050Z 34013KT 2500 SN VV018 M00/M01 Q0991=
201911291020 METAR COR ESMX 291020Z 35013KT 4600 -SN BR SCT002 BKN018 M00/M01 Q0990=
201911290950 METAR ESMX 290950Z 35015KT 2700 -SN BR SCT002 BKN018 M01/M01 Q0990=
201911290920 METAR ESMX 290920Z 35014KT 1100 R01/1700D R19/1400D -SN BR BKN002 M00/M00 Q0989=
201911290850 METAR ESMX 290850Z 34014KT 0900 R01/1600N R19/1900D -SN FG OVC002 M00/M00 Q0988=
201911290820 METAR ESMX 290820Z 01017KT 1000 R01/1400N R19/1700N -SN BR SCT002 OVC013 M00/M00 Q0987=
201911290750 METAR ESMX 290750Z 36013KT 1200 R01/P2000N R19/P2000D +SN BKN002 00/00 Q0986=
201911290720 METAR ESMX 290720Z 35011KT 2000 SN VV005 00/00 Q0986=
201911290650 METAR ESMX 290650Z 35010KT 3500 -RA VV009 01/01 Q0985=
201911290620 METAR ESMX 290620Z AUTO 35011KT 6000 -SN VV010 01/01 Q0984 RERA=
201911290550 METAR ESMX 290550Z 34009KT 7000 RA SCT005 BKN008 03/03 Q0984=
201911290520 METAR ESMX 290520Z 29007KT 250V320 7000 RA OVC005 04/04 Q0983=
201911290450 METAR ESMX 290450Z 25007KT 9999 -RA SCT004 BKN009 05/05 Q0983=
201911290420 METAR ESMX 290420Z AUTO 24009KT 9999 DZ FEW002/// BKN006/// OVC013/// 06/06 Q0982=
201911290350 METAR ESMX 290350Z AUTO 24007KT 6000 -RA OVC003/// 07/07 Q0982 REDZ=
201911290320 METAR ESMX 290320Z AUTO 23003KT 9999 -RA BKN005/// OVC009/// 07/07 Q0982 REDZ=
201911290250 METAR ESMX 290250Z AUTO 24005KT 210V280 9999 -RA SCT005/// OVC008/// 07/07 Q0982 REUP=
201911290220 METAR ESMX 290220Z AUTO 23004KT 190V260 9999 SCT007/// OVC010/// 07/07 Q0982=
201911290150 METAR ESMX 290150Z AUTO 23006KT 9999 SCT007/// BKN009/// BKN012/// 07/07 Q0982=
201911290120 METAR ESMX 290120Z AUTO 23006KT 9999 BKN005/// BKN009/// OVC011/// 07/07 Q0982=
201911290050 METAR ESMX 290050Z AUTO 22006KT 9999 FEW002/// OVC006/// 07/07 Q0981 REDZ REUP=
201911290020 METAR ESMX 290020Z AUTO 22006KT 9999 BKN007/// OVC011/// 07/07 Q0981=
201911282350 METAR ESMX 282350Z AUTO 20008KT 6000 BR BKN004/// BKN005/// OVC008/// 08/08 Q0981=
201911282320 METAR ESMX 282320Z AUTO 19007KT 2400 DZ FEW002/// OVC004/// 08/08 Q0981 REDZ=
201911282250 METAR ESMX 282250Z AUTO 18008KT 2300 BR FEW002/// BKN005/// BKN009/// 08/08 Q0981=
201911282220 METAR ESMX 282220Z AUTO 17007KT 3800 +DZ FEW002/// BKN004/// OVC008/// 08/08 Q0981=
201911282150 METAR ESMX 282150Z AUTO 17008KT 4800 DZ OVC002/// 08/08 Q0981 REDZ=
201911282120 METAR ESMX 282120Z 16008KT 9999 OVC005 08/08 Q0981=
201911282050 METAR ESMX 282050Z 16008KT 7000 -DZ OVC003 08/08 Q0981=
201911282020 METAR COR ESMX 282020Z 16008KT 9999 -RA OVC004 08/08 Q0981=
201911281950 METAR ESMX 281950Z 16008KT 6000 -DZ OVC003 08/08 Q0981=
201911281920 METAR ESMX 281920Z 16008KT 6000 -DZ OVC003 08/08 Q0981=
201911281850 METAR ESMX 281850Z 16008KT 5000 -DZ OVC004 08/08 Q0981=
201911281820 METAR ESMX 281820Z 16009KT 9999 OVC005 08/08 Q0982=
201911281750 METAR ESMX 281750Z 16008KT 9999 OVC005 08/08 Q0982=
201911281720 METAR ESMX 281720Z 16009KT 9000 -RADZ BKN002 OVC004 08/08 Q0982=
201911281650 METAR ESMX 281650Z 17009KT 5000 -DZ FEW002 OVC004 08/08 Q0982=
201911281620 METAR ESMX 281620Z 17008KT 6000 -DZ SCT002 OVC004 08/08 Q0982=
201911281550 METAR ESMX 281550Z 16007KT 9999 DZ BKN006 OVC017 08/08 Q0982=
201911281520 METAR ESMX 281520Z 16008KT 9999 -RA SCT005 BKN015 08/08 Q0982=
201911281450 METAR ESMX 281450Z 16009KT 8000 -RA BKN005 08/08 Q0982=
201911281420 METAR ESMX 281420Z 17008KT 140V210 7000 -RA OVC004 08/08 Q0982=
201911281350 METAR ESMX 281350Z 17008KT 140V200 9000 -RA OVC004 08/08 Q0983=
201911281320 METAR ESMX 281320Z 15008KT 9000 BR FEW002 OVC004 08/08 Q0983=
201911281250 METAR ESMX 281250Z 15009KT 5000 -RA OVC003 08/08 Q0983=
201911281220 METAR ESMX 281220Z 15008KT 9000 -RA OVC003 08/08 Q0983=
201911281150 METAR ESMX 281150Z 15007KT 5000 -RA OVC002 07/07 Q0983=
201911281120 METAR ESMX 281120Z 15006KT 5000 BR OVC003 07/07 Q0984=
201911281050 METAR ESMX 281050Z 14007KT 110V170 8000 BR OVC003 07/07 Q0984=
201911281020 METAR ESMX 281020Z 14007KT 100V160 8000 -DZ OVC004 07/07 Q0985=
201911280950 METAR ESMX 280950Z 15007KT 9000 BR OVC004 07/07 Q0985=
201911280920 METAR ESMX 280920Z 14007KT 5000 BR OVC002 07/07 Q0985=
201911280850 METAR ESMX 280850Z 14007KT 110V170 2100 BR OVC001 07/07 Q0985=
201911280820 METAR ESMX 280820Z 13006KT 090V160 1300 R01/1900N R19/P2000N BR OVC001 07/07 Q0986=
201911280750 METAR ESMX 280750Z 14008KT 100V160 1300 R01/P2000N R19/P2000N OVC001 07/07 Q0986=
201911280720 METAR ESMX 280720Z 14007KT 1900 RA OVC001 07/07 Q0986=
201911280650 METAR ESMX 280650Z 14007KT 0450 R01/1200N R19/1500D FG OVC001 07/07 Q0986=
201911280620 METAR ESMX 280620Z 16006KT 110V180 0750 R01/P2000D R19/P2000N FG OVC001 07/07 Q0986=
201911280550 METAR ESMX 280550Z 15008KT 0500 R01/1300N R19/1700D FG OVC001 07/07 Q0987=
201911280520 METAR ESMX 280520Z 15006KT 0300 R01/0900N R19/1100N FG OVC001 07/07 Q0987=
201911280450 METAR ESMX 280450Z 15006KT 100V170 0300 R01/0900N R19/1000N FG OVC001 07/07 Q0987=
201911280420 METAR ESMX 280420Z AUTO 14006KT 100V160 0350 R01/1000N R19/1300N FG OVC001/// 07/07 Q0987 RESHUP REUP=
201911280350 METAR ESMX 280350Z AUTO 14008KT 110V170 0550 R01/1400D R19/P2000N FG OVC001/// 07/07 Q0988=
201911280320 METAR ESMX 280320Z AUTO 14007KT 110V170 0900 R01/P2000N R19/P2000N FG OVC001/// 06/06 Q0988=
201911280250 METAR ESMX 280250Z AUTO 15008KT 0700 R01/1900D R19/P2000N FG OVC001/// 06/06 Q0988 REDZ=
201911280220 METAR ESMX 280220Z AUTO 14007KT 110V170 1200 R01/P2000N R19/P2000N BR OVC001/// 06/06 Q0989=
201911280150 METAR ESMX 280150Z AUTO 14006KT 100V170 4200 BR OVC002/// 06/06 Q0989 REDZ=
201911280120 METAR ESMX 280120Z AUTO 14006KT 8000 BR OVC003/// 06/06 Q0989=
201911280050 METAR ESMX 280050Z AUTO 14006KT 100V170 4600 -DZ BKN002/// OVC004/// 06/06 Q0990=
201911280020 METAR ESMX 280020Z AUTO 13005KT 090V170 9999 OVC005/// 06/06 Q0990=
201911272350 METAR ESMX 272350Z AUTO 12006KT 080V160 9999 DZ OVC005/// 06/06 Q0990=
201911272320 METAR ESMX 272320Z AUTO 13006KT 080V170 9999 DZ OVC006/// 06/06 Q0991=
201911272250 METAR ESMX 272250Z AUTO 14007KT 100V160 8000 -RA SCT006/// BKN008/// OVC017/// 06/06 Q0991=
201911272220 METAR ESMX 272220Z AUTO 14008KT 110V170 9999 -RA BKN005/// BKN008/// OVC014/// 06/06 Q0992 REDZ=
201911272150 METAR ESMX 272150Z AUTO 13006KT 100V160 8000 DZ OVC005/// 06/06 Q0992=
201911272120 METAR ESMX 272120Z AUTO 14005KT 080V200 7000 DZ OVC005/// 06/06 Q0992=
201911272050 METAR ESMX 272050Z 12005KT 070V160 5000 -RA OVC004 07/07 Q0992=
201911272020 METAR ESMX 272020Z 11005KT 060V150 3100 -RA OVC002 07/07 Q0993=
201911271950 METAR ESMX 271950Z 13004KT 070V190 2400 -DZ OVC002 07/07 Q0993=
201911271920 METAR ESMX 271920Z 12004KT 060V170 2400 -DZ OVC002 06/06 Q0994=
201911271850 METAR ESMX 271850Z 12004KT 080V190 5000 -RA BR OVC003 06/06 Q0994=
201911271820 METAR ESMX 271820Z 11004KT 070V170 5000 BR OVC002 06/06 Q0994=
201911271750 METAR ESMX 271750Z 11004KT 080V160 3700 BR OVC002 06/06 Q0995=
201911271720 METAR ESMX 271720Z 12004KT 070V160 3100 BR OVC002 06/06 Q0995=
201911271650 METAR ESMX 271650Z 11003KT 070V150 2700 BR OVC002 06/06 Q0995=
201911271620 METAR ESMX 271620Z 12003KT 040V160 3100 -DZ BR OVC002 06/06 Q0996=
201911271550 METAR ESMX 271550Z VRB03KT 3700 BR OVC002 06/06 Q0996=
201911271520 METAR ESMX 271520Z VRB02KT 4100 BR OVC002 06/06 Q0996=
201911271450 METAR ESMX 271450Z 10003KT 060V150 4300 BR OVC002 06/06 Q0996=
201911271420 METAR ESMX 271420Z VRB03KT 3100 BR OVC002 06/06 Q0997=
201911271350 METAR ESMX 271350Z VRB02KT 2400 BR OVC002 06/06 Q0997=
201911271320 METAR ESMX 271320Z VRB02KT 2400 BR OVC002 06/06 Q0997=
201911271250 METAR ESMX 271250Z VRB03KT 4000 BR OVC002 06/06 Q0998=
201911271220 METAR ESMX 271220Z 11003KT 060V170 4500 BR OVC002 06/06 Q0998=
201911271150 METAR ESMX 271150Z 13004KT 090V160 2100 BR OVC002 06/06 Q0998=
201911271120 METAR ESMX 271120Z 12004KT 070V170 2800 BR OVC002 06/06 Q0998=
201911271050 METAR ESMX 271050Z VRB03KT 2700 BR OVC003 06/06 Q0998=
201911271020 METAR ESMX 271020Z 13003KT 100V180 5000 BR OVC002 05/05 Q0998=
201911270950 METAR ESMX 270950Z VRB03KT 4500 BR OVC005 05/05 Q0999=
201911270920 METAR ESMX 270920Z VRB03KT 3000 BR FEW006 BKN009 OVC011 05/05 Q0999=
201911270850 METAR ESMX 270850Z VRB02KT 7000 BR OVC011 05/05 Q0999=
201911270820 METAR ESMX 270820Z 15005KT 7000 BR OVC012 05/05 Q0999=
201911270750 METAR ESMX 270750Z 14004KT 5000 BR OVC003 05/05 Q0999=
201911270720 METAR ESMX 270720Z 16004KT 4200 BR OVC002 05/05 Q0999=
201911270650 METAR COR ESMX 270650Z 15005KT 2800 BR OVC002 05/05 Q0999=
201911270620 METAR COR ESMX 270620Z 15004KT 1800 BR OVC002 05/05 Q0999=
201911270550 METAR ESMX 270550Z 15004KT 2200 BR OVC002 05/05 Q0999=
201911270520 METAR ESMX 270520Z 14004KT 110V170 3500 BR OVC002 05/05 Q0999=
201911270450 METAR ESMX 270450Z 13004KT 110V180 2200 BR OVC002 05/05 Q0999=
201911270420 METAR ESMX 270420Z AUTO 14003KT 2300 BR BKN002/// OVC004/// 05/05 Q1000=
201911270350 METAR ESMX 270350Z AUTO 17004KT 5000 BR BKN004/// OVC010/// 05/05 Q1000=
201911270320 METAR ESMX 270320Z AUTO 17004KT 7000 BR OVC011/// 05/05 Q1000=
201911270250 METAR ESMX 270250Z AUTO 17004KT 6000 BR OVC014/// 05/05 Q1000=
201911270220 METAR ESMX 270220Z AUTO 14003KT 7000 BR OVC014/// 05/05 Q1000=
201911270150 METAR ESMX 270150Z AUTO 15003KT 7000 BR FEW004/// SCT009/// OVC013/// 05/05 Q1001=
201911270120 METAR ESMX 270120Z AUTO 19006KT 5000 BR BKN004/// OVC006/// 05/05 Q1001=
201911270050 METAR ESMX 270050Z AUTO 20004KT 2800 BR OVC004/// 05/05 Q1001 REDZ=
201911270020 METAR ESMX 270020Z AUTO 18006KT 3700 BR BKN003/// OVC005/// 05/05 Q1001=
201911262350 METAR ESMX 262350Z AUTO 16004KT 3200 -DZ OVC002/// 05/05 Q1001 REUP=
201911262320 METAR ESMX 262320Z AUTO 15004KT 2400 BR OVC002/// 05/05 Q1002=
201911262250 METAR ESMX 262250Z AUTO 15004KT 2000 BR BKN002/// OVC004/// 05/05 Q1002 REDZ=
201911262220 METAR ESMX 262220Z AUTO 15004KT 2600 BR BKN003/// BKN009/// OVC012/// 05/05 Q1002=
201911262150 METAR ESMX 262150Z AUTO 17006KT 140V210 3200 BR OVC002/// 05/05 Q1002 RESHUP REDZ=
201911262120 METAR ESMX 262120Z 15005KT 120V180 2400 BR BKN004 05/05 Q1003=
201911262050 METAR ESMX 262050Z AUTO 15006KT 120V190 3300 BR OVC005/// 06/06 Q1003 REDZ=
201911262020 METAR ESMX 262020Z 17007KT 130V190 2800 BR OVC002 06/06 Q1003=
201911261950 METAR ESMX 261950Z 15005KT 110V170 1700 BR OVC002 06/06 Q1003=
201911261920 METAR ESMX 261920Z 14005KT 100V160 2800 BR OVC004 06/06 Q1003=
201911261850 METAR ESMX 261850Z 14005KT 100V160 3300 BR OVC004 06/06 Q1003=
201911261820 METAR ESMX 261820Z 15005KT 4500 BR DZ OVC003 06/06 Q1003=
201911261750 METAR ESMX 261750Z 13006KT 2900 BR OVC002 06/06 Q1004=
201911261720 METAR ESMX 261720Z 14006KT 2100 DZ BR OVC002 05/05 Q1004=
201911261650 METAR ESMX 261650Z 14005KT 100V170 2700 DZ OVC002 05/05 Q1004=
201911261620 METAR ESMX 261620Z 14004KT 100V170 3500 BR OVC002 05/05 Q1004=
201911261550 METAR ESMX 261550Z 11004KT 060V170 6000 BR OVC003 05/05 Q1005=
201911261520 METAR ESMX 261520Z 12003KT 050V160 9999 BR OVC003 05/05 Q1005=
201911261450 METAR ESMX 261450Z 11004KT 070V150 8000 BR OVC002 05/05 Q1005=
201911261420 METAR ESMX 261420Z 12004KT 090V160 2900 BR OVC002 05/05 Q1005=
201911261350 METAR ESMX 261350Z 13003KT 100V190 4600 BR OVC002 05/05 Q1005=
201911261320 METAR ESMX 261320Z 13004KT 100V160 4900 BR OVC003 05/05 Q1006=
201911261250 METAR ESMX 261250Z 14004KT 110V190 2800 BR OVC002 05/05 Q1006=
201911261220 METAR ESMX 261220Z 15005KT 4200 BR OVC002 05/05 Q1006=
201911261150 METAR ESMX 261150Z 13004KT 090V180 4400 BR OVC002 05/05 Q1007=
201911261120 METAR ESMX 261120Z 14004KT 090V160 3600 BR OVC002 05/05 Q1007=
201911261050 METAR ESMX 261050Z 13004KT 080V160 3400 BR OVC002 05/05 Q1007=
201911261020 METAR ESMX 261020Z 13004KT 070V170 2600 BR OVC002 05/05 Q1007=
201911260950 METAR ESMX 260950Z 12004KT 070V160 3000 BR OVC002 04/04 Q1008=
201911260920 METAR ESMX 260920Z 14004KT 080V170 3500 BR OVC002 04/04 Q1008=
201911260850 METAR ESMX 260850Z 13004KT 080V170 2000 BR OVC002 04/04 Q1008=
201911260820 METAR ESMX 260820Z 13004KT 070V200 1200 R01/1800N R19/P2000N BR VV002 04/04 Q1009=
201911260750 METAR ESMX 260750Z 13004KT 080V180 1100 R01/1900D R19/P2000N BR VV002 04/04 Q1009=
201911260720 METAR COR ESMX 260720Z VRB03KT 1100 R01/P2000N R19/P2000N BR OVC002 04/04 Q1009=
201911260650 METAR ESMX 260650Z 09004KT 050V150 0900 R01/P2000N R19/P2000N FG VV002 04/04 Q1009=
201911260620 METAR ESMX 260620Z AUTO 10003KT 050V150 0900 R01/P2000N R19/P2000N FG OVC001/// 04/04 Q1009=
201911260550 METAR ESMX 260550Z VRB03KT 1100 R01/P2000N R19/P2000N BR OVC002 04/04 Q1009=
201911260520 METAR ESMX 260520Z 11003KT 060V170 1800 BR OVC002 04/04 Q1010=
201911260450 METAR ESMX 260450Z 14007KT 1800 BR OVC002 04/04 Q1010=
201911260420 METAR ESMX 260420Z AUTO 17005KT 2600 BR OVC002/// 04/04 Q1010=
201911260350 METAR ESMX 260350Z AUTO 13005KT 090V160 2300 BR OVC002/// 04/04 Q1010=
201911260320 METAR ESMX 260320Z AUTO 15006KT 110V200 3300 BR OVC002/// 04/04 Q1010=
201911260250 METAR ESMX 260250Z AUTO 14007KT 080V180 5000 BR OVC001/// 04/04 Q1011=
201911260220 METAR ESMX 260220Z AUTO 16006KT 110V190 2600 BR OVC001/// 04/04 Q1011=
201911260150 METAR ESMX 260150Z AUTO 14005KT 090V170 4700 BR OVC002/// 04/04 Q1011=
201911260120 METAR ESMX 260120Z AUTO 14006KT 3900 BR OVC002/// 04/04 Q1011=
201911260050 METAR ESMX 260050Z AUTO 12005KT 080V160 3700 BR OVC002/// 04/04 Q1011=
201911260020 METAR ESMX 260020Z AUTO 13004KT 060V190 4300 BR OVC002/// 04/04 Q1012=
201911252350 METAR ESMX 252350Z AUTO 14005KT 100V160 4900 BR OVC002/// 04/04 Q1012=
201911252320 METAR ESMX 252320Z AUTO 11003KT 020V170 3400 BR OVC002/// 04/04 Q1012=
201911252250 METAR ESMX 252250Z AUTO VRB03KT 3300 BR OVC002/// 04/04 Q1013=
201911252220 METAR ESMX 252220Z AUTO VRB02KT 2400 BR OVC002/// 03/03 Q1013=
201911252150 METAR ESMX 252150Z AUTO VRB02KT 3500 BR OVC002/// 03/03 Q1013=
201911252120 METAR ESMX 252120Z AUTO 13005KT 070V170 3200 BR OVC002/// 03/03 Q1013=
201911252050 METAR ESMX 252050Z AUTO 13004KT 070V160 1500 BR OVC001/// 03/03 Q1013=
201911252020 METAR ESMX 252020Z AUTO 12003KT 080V160 2100 BR OVC002/// 03/03 Q1014=
201911251950 METAR ESMX 251950Z 11004KT 060V160 3000 BR BKN002 03/03 Q1014=
201911251920 METAR ESMX 251920Z VRB03KT 2300 BR BKN002 03/03 Q1014=
201911251850 METAR ESMX 251850Z 10006KT 050V150 3000 BR BKN002 03/03 Q1014=
201911251820 METAR ESMX 251820Z 11004KT 060V230 4600 BR BKN002 03/03 Q1014=
201911251750 METAR ESMX 251750Z 11005KT 010V150 4000 BR BKN003 03/03 Q1014=
201911251720 METAR ESMX 251720Z 10004KT 040V160 3800 BR BKN003 03/03 Q1014=
201911251650 METAR ESMX 251650Z 10004KT 030V140 2800 BR BKN002 03/03 Q1014=
201911251620 METAR ESMX 251620Z 13004KT 080V160 4200 BR BKN002 03/03 Q1015=
201911251550 METAR ESMX 251550Z 13003KT 070V170 4600 BR OVC003 03/03 Q1015=
201911251520 METAR ESMX 251520Z 14003KT 090V190 4100 BR OVC003 03/03 Q1015=
201911251450 METAR ESMX 251450Z 12004KT 070V170 4900 BR OVC003 03/03 Q1015=
201911251420 METAR ESMX 251420Z 12005KT 070V160 4500 BR BKN002 03/03 Q1015=
201911251350 METAR ESMX 251350Z 10005KT 040V140 5000 BR BKN002 03/03 Q1015=
201911251320 METAR ESMX 251320Z 10006KT 040V140 5000 BR BKN002 04/04 Q1015=
201911251250 METAR ESMX 251250Z 09006KT 040V140 4000 BR BKN003 04/04 Q1015=
201911251220 METAR ESMX 251220Z 12004KT 060V170 3400 BR OVC003 04/04 Q1015=
201911251150 METAR ESMX 251150Z 11004KT 060V140 5000 BR OVC002 04/04 Q1015=
201911251120 METAR ESMX 251120Z 11005KT 060V160 3900 BR BKN002 03/03 Q1016=
201911251050 METAR ESMX 251050Z 12004KT 080V160 3800 BR BKN002 03/03 Q1016=
201911251020 METAR ESMX 251020Z VRB03KT 3000 BR BKN002 03/03 Q1016=
201911250950 METAR ESMX 250950Z 11004KT 050V160 2500 BR OVC001 03/03 Q1016=
201911250920 METAR ESMX 250920Z 10005KT 050V140 2500 BR OVC002 03/03 Q1016=
201911250850 METAR ESMX 250850Z 11006KT 060V160 2100 BR OVC002 03/03 Q1016=
201911250820 METAR ESMX 250820Z 10005KT 070V190 3100 BR OVC002 03/03 Q1016=
201911250750 METAR ESMX 250750Z 10004KT 020V150 2000 BR OVC002 03/03 Q1016=
201911250720 METAR ESMX 250720Z 11006KT 050V150 3500 BR OVC002 03/03 Q1016=
201911250650 METAR ESMX 250650Z 12005KT 080V170 3700 BR OVC002 03/03 Q1016=
201911250620 METAR ESMX 250620Z 12005KT 080V150 3900 BR OVC002 03/03 Q1016=
201911250550 METAR ESMX 250550Z 12005KT 070V170 2700 BR OVC002 03/03 Q1016=
201911250520 METAR ESMX 250520Z 10005KT 050V140 3700 BR OVC003 04/04 Q1016=
201911250450 METAR ESMX 250450Z 10005KT 060V160 2800 BR OVC002 04/04 Q1016=
201911250420 METAR ESMX 250420Z AUTO 09004KT 010V170 4500 BR OVC002/// 04/04 Q1016=
201911250350 METAR ESMX 250350Z AUTO 09004KT 030V160 4800 BR OVC002/// 04/04 Q1016=
201911250320 METAR ESMX 250320Z AUTO 09005KT 030V190 3800 BR OVC002/// 04/04 Q1016=
201911250250 METAR ESMX 250250Z AUTO 09007KT 050V140 2900 BR OVC002/// 04/04 Q1016=
201911250220 METAR ESMX 250220Z AUTO 11006KT 050V170 3800 BR OVC002/// 04/04 Q1016=
201911250150 METAR ESMX 250150Z AUTO 08006KT 020V130 2400 BR OVC002/// 04/04 Q1016=
201911250120 METAR ESMX 250120Z AUTO 08006KT 040V150 4300 BR OVC003/// 04/04 Q1016=
201911250050 METAR ESMX 250050Z AUTO 08004KT 020V190 3900 BR OVC003/// 04/04 Q1017=
201911250020 METAR ESMX 250020Z AUTO VRB05KT 4000 BR OVC003/// 04/04 Q1017=
201911242350 METAR ESMX 242350Z AUTO 09005KT 010V150 6000 BR OVC003/// 04/04 Q1017=
201911242320 METAR ESMX 242320Z AUTO 07006KT 020V120 4400 BR OVC004/// 04/04 Q1017=
201911242250 METAR ESMX 242250Z AUTO 11005KT 050V160 7000 BR OVC004/// 04/04 Q1017=
201911242220 METAR ESMX 242220Z AUTO 09006KT 040V140 7000 BR OVC003/// 04/04 Q1017=
201911242150 METAR ESMX 242150Z AUTO VRB04KT 4900 BR OVC003/// 04/04 Q1017=
201911242120 METAR ESMX 242120Z AUTO 09005KT 030V150 5000 BR OVC003/// 04/04 Q1017=
201911242050 METAR ESMX 242050Z 09006KT 050V130 4600 BR OVC003 04/04 Q1017=
201911242020 METAR ESMX 242020Z 09007KT 350V150 4700 BR OVC003 04/04 Q1017=
201911241950 METAR ESMX 241950Z AUTO 09006KT 050V130 4600 BR OVC003/// 04/04 Q1017=
201911241920 METAR ESMX 241920Z 09007KT 020V130 4800 BR OVC003 04/04 Q1017=
201911241850 METAR ESMX 241850Z 08007KT 030V130 4700 BR OVC003 04/04 Q1017=
201911241820 METAR ESMX 241820Z 08007KT 040V120 4100 BR BKN003 04/04 Q1017=
201911241750 METAR ESMX 241750Z 08006KT 050V140 4100 BR BKN003 04/04 Q1018=
201911241720 METAR ESMX 241720Z AUTO 08006KT 030V130 3100 BR OVC002/// 04/04 Q1018=
201911241650 METAR ESMX 241650Z 08006KT 030V140 3700 BR OVC002 04/04 Q1018=
201911241620 METAR ESMX 241620Z 08007KT 030V150 2600 BR OVC002 04/04 Q1018=
201911241550 METAR ESMX 241550Z 09006KT 030V140 3800 BR BKN002 04/04 Q1018=
201911241520 METAR ESMX 241520Z 08006KT 020V120 2900 BR OVC002 04/04 Q1017=
201911241450 METAR ESMX 241450Z 07006KT 360V110 2400 BR BKN002 04/04 Q1017=
201911241420 METAR ESMX 241420Z 09005KT 040V140 2500 BR BKN002 04/04 Q1017=
201911241350 METAR ESMX 241350Z 08006KT 020V130 3600 BR BKN002 04/04 Q1017=
201911241320 METAR ESMX 241320Z 08006KT 040V140 4100 BR BKN002 04/04 Q1017=
201911241250 METAR ESMX 241250Z 07007KT 040V110 4100 BR BKN002 04/04 Q1017=
201911241220 METAR ESMX 241220Z 08006KT 020V140 4000 BR BKN002 04/04 Q1018=
201911241150 METAR ESMX 241150Z 07006KT 020V120 4000 BR BKN002 04/04 Q1018=
201911241120 METAR ESMX 241120Z 07006KT 030V120 3100 BR OVC002 04/04 Q1018=
201911241050 METAR ESMX 241050Z 05005KT 310V100 3100 BR OVC002 04/04 Q1018=
201911241020 METAR ESMX 241020Z 07006KT 050V110 3300 BR OVC002 04/04 Q1018=
201911240950 METAR ESMX 240950Z 06006KT 020V100 2500 BR OVC002 04/04 Q1018=
201911240920 METAR ESMX 240920Z 07006KT 040V120 3100 BR OVC002 04/04 Q1018=
201911240850 METAR ESMX 240850Z 06006KT 020V110 3300 BR OVC002 04/04 Q1018=
201911240820 METAR ESMX 240820Z 07007KT 040V120 3400 BR OVC002 04/04 Q1018=
201911240750 METAR ESMX 240750Z 07005KT 030V120 4200 BR OVC002 04/04 Q1018=
201911240720 METAR ESMX 240720Z 07006KT 030V100 5000 BR OVC003 04/04 Q1018=
201911240650 METAR ESMX 240650Z 07005KT 040V120 5000 BR OVC003 04/04 Q1018=
201911240620 METAR COR ESMX 240620Z 08006KT 030V140 5000 BR OVC003 04/04 Q1018=
201911240550 METAR ESMX 240550Z AUTO 07006KT 030V120 5000 BR OVC003/// 04/04 Q1018=
201911240520 METAR ESMX 240520Z AUTO 08006KT 040V120 4300 BR OVC002/// 04/04 Q1018=
201911240450 METAR ESMX 240450Z AUTO 08006KT 040V120 3500 BR OVC002/// 03/03 Q1018=
201911240420 METAR ESMX 240420Z AUTO 07006KT 030V110 3600 BR OVC002/// 03/03 Q1018=
201911240350 METAR ESMX 240350Z AUTO 08005KT 030V120 4300 BR OVC002/// 03/03 Q1018=
201911240320 METAR ESMX 240320Z AUTO 08007KT 050V110 3600 BR OVC002/// 03/03 Q1018=
201911240250 METAR ESMX 240250Z AUTO 08005KT 040V140 3000 BR OVC002/// 03/03 Q1018=
201911240220 METAR ESMX 240220Z AUTO 08008KT 030V120 2600 BR OVC002/// 03/03 Q1018=
201911240150 METAR ESMX 240150Z AUTO 08008KT 050V140 2900 BR OVC002/// 03/03 Q1018=
201911240120 METAR ESMX 240120Z AUTO 08008KT 050V120 3700 BR OVC002/// 03/03 Q1018=
201911240050 METAR ESMX 240050Z AUTO 08008KT 030V120 4500 BR OVC001/// 03/03 Q1018=
201911240020 METAR ESMX 240020Z AUTO 08006KT 050V140 2600 BR OVC002/// 04/04 Q1018=
201911232350 METAR ESMX 232350Z AUTO 09008KT 040V140 3200 BR OVC002/// 04/04 Q1018=
201911232320 METAR ESMX 232320Z AUTO 08007KT 050V120 2500 BR OVC002/// 04/04 Q1018=
201911232250 METAR ESMX 232250Z AUTO 08006KT 030V120 1700 BR OVC001/// 04/04 Q1018=
201911232220 METAR ESMX 232220Z AUTO 07008KT 030V110 2800 BR OVC002/// 04/04 Q1018=
201911232150 METAR ESMX 232150Z AUTO 08006KT 040V120 3800 BR OVC002/// 04/04 Q1018=
201911232120 METAR ESMX 232120Z AUTO 07006KT 040V120 4000 BR OVC002/// 04/04 Q1018=
201911232050 METAR ESMX 232050Z AUTO 08007KT 050V120 4100 BR OVC003/// 04/04 Q1018=
201911232020 METAR ESMX 232020Z AUTO 07005KT 040V110 2600 BR OVC002/// 04/04 Q1018=
201911231950 METAR ESMX 231950Z AUTO 06007KT 010V130 2700 BR OVC002/// 04/04 Q1018=
201911231920 METAR ESMX 231920Z AUTO 07006KT 040V110 3100 BR OVC002/// 04/04 Q1018=
201911231850 METAR ESMX 231850Z AUTO 07007KT 010V110 2400 BR OVC002/// 04/04 Q1018=
201911231820 METAR ESMX 231820Z AUTO 08008KT 050V120 2800 BR OVC002/// 04/04 Q1018=
201911231750 METAR ESMX 231750Z AUTO 08008KT 050V140 3100 BR OVC002/// 04/04 Q1017=
201911231720 METAR ESMX 231720Z AUTO 09005KT 030V180 3300 BR OVC001/// 04/04 Q1017=
201911231650 METAR ESMX 231650Z AUTO VRB06KT 1600 BR OVC002/// 04/04 Q1017=
201911231620 METAR ESMX 231620Z AUTO 08008KT 040V120 1900 BR OVC001/// 04/04 Q1017=
201911231550 METAR ESMX 231550Z AUTO 08007KT 050V110 2200 BR OVC002/// 04/04 Q1017=
201911231520 METAR ESMX 231520Z AUTO 07008KT 020V110 2000 BR OVC002/// 04/04 Q1017=
201911231450 METAR ESMX 231450Z AUTO 08007KT 040V130 2400 BR OVC002/// 04/04 Q1017=
201911231420 METAR ESMX 231420Z AUTO 09008KT 010V130 3600 BR OVC002/// 04/04 Q1017=
201911231350 METAR ESMX 231350Z AUTO 08008KT 050V130 2400 BR OVC002/// 04/04 Q1016=
201911231320 METAR ESMX 231320Z AUTO 09008KT 030V140 2300 BR OVC002/// 05/05 Q1016=
201911231250 METAR ESMX 231250Z 09007KT 030V140 2200 BR OVC002 05/05 Q1016=
201911231220 METAR ESMX 231220Z 09009KT 050V140 3200 BR OVC002 05/05 Q1016=
201911231150 METAR ESMX 231150Z 10006KT 050V140 2800 -DZ BR OVC002 05/05 Q1016=
201911231120 METAR ESMX 231120Z 07006G16KT 010V150 2700 BR OVC002 05/05 Q1017=
201911231050 METAR ESMX 231050Z AUTO 08006KT 020V140 2700 BR OVC002/// 05/05 Q1017=
201911231020 METAR ESMX 231020Z 08005KT 020V170 3300 BR OVC002 05/05 Q1017=
201911230950 METAR ESMX 230950Z 09005KT 050V140 2400 BR OVC002 05/05 Q1017=
201911230920 METAR ESMX 230920Z 09006KT 050V160 2500 BR OVC002 05/05 Q1017=
201911230850 METAR ESMX 230850Z 08006KT 030V130 2500 BR OVC002 05/05 Q1017=
201911230820 METAR ESMX 230820Z 10005KT 060V170 1600 BR OVC001 05/05 Q1017=
201911230750 METAR ESMX 230750Z AUTO 09005KT 050V140 1200 R01/P2000N R19/P2000N OVC001/// 05/05 Q1017=
201911230720 METAR ESMX 230720Z AUTO 09007KT 030V140 1000 R01/1700U R19/P2000N FG OVC001/// 05/05 Q1017=
201911230650 METAR ESMX 230650Z AUTO 10006KT 070V140 0900 R01/1900U R19/P2000N FG OVC001/// 05/05 Q1017=
201911230620 METAR ESMX 230620Z AUTO 09005KT 050V160 0750 R01/1900N R19/P2000N FG OVC001/// 05/05 Q1017=
201911230550 METAR ESMX 230550Z AUTO 11006KT 010V150 0600 R01/1500N R19/P2000N FG OVC001/// 05/05 Q1016=
201911230520 METAR ESMX 230520Z AUTO 10005KT 040V150 0800 R01/P2000N R19/P2000N FG OVC001/// 05/05 Q1016=
201911230450 METAR ESMX 230450Z AUTO 10006KT 070V160 1300 R01/P2000N R19/P2000N BR OVC001/// 05/05 Q1016=
201911230420 METAR ESMX 230420Z AUTO 11005KT 070V180 1300 R01/P2000N R19/P2000N BR OVC001/// 05/05 Q1016=
201911230350 METAR ESMX 230350Z AUTO 10006KT 030V160 1600 BR OVC002/// 05/05 Q1016=
201911230320 METAR ESMX 230320Z AUTO 10006KT 030V130 1700 BR OVC002/// 05/05 Q1016=
201911230250 METAR ESMX 230250Z AUTO 10006KT 050V150 2000 BR OVC001/// 06/06 Q1016=
201911230220 METAR ESMX 230220Z AUTO 11005KT 050V150 1100 R01/P2000N R19/P2000N OVC001/// 06/06 Q1016=
201911230150 METAR ESMX 230150Z AUTO 12006KT 030V160 1300 R01/P2000N R19/P2000N OVC001/// 06/06 Q1016=
201911230120 METAR ESMX 230120Z AUTO 10007KT 060V140 1000 R01/P2000N R19/P2000N BR OVC001/// 06/06 Q1016=
201911230050 METAR ESMX 230050Z AUTO 11005KT 030V170 2300 BR OVC002/// 06/06 Q1016=
201911230020 METAR ESMX 230020Z AUTO 10004KT 050V210 1300 R01/P2000N R19/P2000N BR OVC002/// 06/06 Q1016=
201911222350 METAR ESMX 222350Z AUTO 12005KT 070V200 1600 BR OVC001/// 06/06 Q1016 REDZ=
201911222320 METAR ESMX 222320Z AUTO 12004KT 070V160 1100 R01/P2000N R19/P2000N BR OVC001/// 06/06 Q1016=
201911222250 METAR ESMX 222250Z AUTO 11004KT 060V150 1300 R01/P2000N R19/P2000N BR OVC001/// 06/06 Q1016 REUP=
201911222220 METAR ESMX 222220Z AUTO 12004KT 060V200 1000 R01/P2000N R19/P2000N BR OVC001/// 06/06 Q1016=
201911222150 METAR ESMX 222150Z AUTO 14005KT 100V170 1200 R01/P2000N R19/P2000N OVC001/// 06/06 Q1016=
201911222120 METAR ESMX 222120Z 13004KT 070V190 1200 BR OVC001 06/06 Q1016=
201911222050 METAR ESMX 222050Z 11005KT 060V160 0800 R19/P2000N FG OVC001 06/06 Q1016=
201911222020 METAR ESMX 222020Z AUTO 10004KT 350V160 2000 BR OVC002/// 06/06 Q1016 REDZ=
201911221950 METAR ESMX 221950Z 12005KT 080V160 2600 BR OVC002 06/06 Q1016=
201911221920 METAR ESMX 221920Z 13006KT 070V170 2300 DZ BR OVC002 06/06 Q1016=
201911221850 METAR ESMX 221850Z 12006KT 080V150 2100 DZ BR OVC002 06/06 Q1016=
201911221820 METAR ESMX 221820Z 13006KT 070V200 2300 -DZ BR OVC002 06/06 Q1015=
201911221750 METAR ESMX 221750Z 12006KT 070V170 3300 DZ BR OVC003 06/06 Q1015=
201911221720 METAR COR ESMX 221720Z 12007KT 080V170 3300 DZ BKN003 OVC005 06/06 Q1015=
201911221650 METAR COR ESMX 221650Z VRB06KT 9999 -RA OVC005 06/06 Q1015=
201911221620 METAR COR ESMX 221620Z 11006KT 060V150 4100 -RA BR BKN002 OVC004 06/06 Q1015=
201911221550 METAR COR ESMX 221550Z 11006KT 080V150 3600 -RA BR OVC004 06/06 Q1015=
201911221520 METAR ESMX 221520Z 13006KT 080V160 4400 -RA BR OVC003 06/06 Q1014=
201911221450 METAR ESMX 221450Z 12006KT 030V160 3200 BR BKN002 OVC005 06/06 Q1014=
201911221420 METAR ESMX 221420Z 12006KT 080V160 9999 OVC006 07/06 Q1014=
201911221350 METAR ESMX 221350Z 11005KT 080V160 9999 SCT002 OVC005 06/06 Q1014=
201911221320 METAR ESMX 221320Z 12005KT 070V170 4500 BR SCT002 OVC004 06/06 Q1014=
201911221250 METAR ESMX 221250Z 11005KT 060V150 5000 -DZ OVC004 06/06 Q1014=
201911221220 METAR ESMX 221220Z 10005KT 060V160 3400 -RA OVC002 06/06 Q1014=
201911221150 METAR COR ESMX 221150Z 10005KT 060V160 3900 -RA BR SCT002 OVC005 06/06 Q1014=
201911221120 METAR ESMX 221120Z 11006KT 050V150 9999 OVC004 06/06 Q1014=
201911221050 METAR ESMX 221050Z 10005KT 050V150 4200 BR OVC003 06/06 Q1014=
201911221020 METAR ESMX 221020Z 10006KT 040V150 3500 BR OVC003 06/06 Q1014=
201911220950 METAR ESMX 220950Z 10006KT 050V140 6000 BR OVC004 06/06 Q1014=
201911220920 METAR ESMX 220920Z 11005G16KT 050V150 7000 BR OVC004 06/06 Q1014=
201911220850 METAR ESMX 220850Z 10005KT 050V170 5000 BR SCT002 OVC004 06/06 Q1014=
201911220820 METAR ESMX 220820Z 10005KT 050V160 4700 BR BKN002 06/06 Q1014=
201911220750 METAR ESMX 220750Z 11006KT 050V140 9999 OVC006 06/06 Q1014=
201911220720 METAR ESMX 220720Z 10006KT 330V140 9000 BR OVC006 06/06 Q1014=
201911220650 METAR ESMX 220650Z VRB05KT 9999 OVC006 06/06 Q1014=
201911220620 METAR ESMX 220620Z 11007KT 060V160 9000 BR OVC005 06/06 Q1014=
201911220550 METAR ESMX 220550Z 11006KT 050V160 7000 BR OVC005 06/06 Q1014=
201911220520 METAR ESMX 220520Z VRB06KT 7000 BR OVC005 06/06 Q1014=
201911220450 METAR ESMX 220450Z 10006KT 040V170 8000 -DZ BKN006 06/06 Q1014=
201911220420 METAR ESMX 220420Z AUTO 10007KT 030V170 7000 -DZ OVC007/// 06/05 Q1014 REDZ=
201911220350 METAR ESMX 220350Z AUTO 10006KT 060V150 9999 -DZ OVC009/// 06/05 Q1014=
201911220320 METAR ESMX 220320Z AUTO 10006KT 010V160 9999 -DZ OVC008/// 06/06 Q1014=
201911220250 METAR ESMX 220250Z AUTO 10005KT 340V150 9999 -RA FEW002/// BKN005/// OVC007/// 06/06 Q1014 REUP=
201911220220 METAR ESMX 220220Z AUTO 10007KT 030V150 5000 BR OVC005/// 06/06 Q1014=
201911220150 METAR ESMX 220150Z AUTO 09006KT 330V140 6000 BR OVC004/// 06/06 Q1014=
201911220120 METAR ESMX 220120Z AUTO 08005KT 030V170 8000 BR OVC005/// 06/06 Q1014=
201911220050 METAR ESMX 220050Z AUTO 08006KT 050V130 7000 BR OVC004/// 06/06 Q1015=
201911220020 METAR ESMX 220020Z AUTO 09005KT 030V140 9999 BR OVC007/// 06/06 Q1015=
201911212350 METAR ESMX 212350Z AUTO VRB05KT 8000 BR OVC006/// 06/06 Q1015=
201911212320 METAR ESMX 212320Z AUTO 08005KT 350V140 9999 OVC006/// 06/06 Q1015=
201911212250 METAR ESMX 212250Z AUTO VRB05KT 5000 BR OVC004/// 06/06 Q1015=
201911212220 METAR ESMX 212220Z AUTO 09006KT 030V160 5000 BR OVC005/// 06/06 Q1016=
201911212150 METAR ESMX 212150Z AUTO 09006KT 030V140 9000 BR OVC006/// 06/06 Q1016=
201911212120 METAR ESMX 212120Z AUTO 08005KT 040V150 8000 BR OVC005/// 06/06 Q1016=
201911212050 METAR ESMX 212050Z 07004KT 040V140 6000 BR BKN004 06/06 Q1016=
201911212020 METAR ESMX 212020Z 08004KT 030V140 3800 BR BKN002 BKN004 06/06 Q1016=
201911211950 METAR ESMX 211950Z 09006KT 030V140 4200 BR FEW002 BKN004 06/06 Q1016=
201911211920 METAR ESMX 211920Z 08006KT 020V150 5000 BR BKN005 07/06 Q1016 REDZ=
201911211850 METAR ESMX 211850Z 10006KT 350V150 5000 BR BKN005 07/07 Q1017 RERA=
201911211820 METAR ESMX 211820Z 10007KT 020V160 5000 BR BKN004 07/07 Q1017=
201911211750 METAR ESMX 211750Z 10007KT 050V160 6000 -RA SCT002 BKN005 07/07 Q1017=
201911211720 METAR ESMX 211720Z 10006KT 010V140 4700 DZ SCT002 BKN004 07/07 Q1017 REDZ=
201911211650 METAR ESMX 211650Z 09006KT 030V140 3400 BR SCT002 BKN005 07/07 Q1017=
201911211620 METAR ESMX 211620Z 09005KT 020V140 3500 BR BKN003 07/07 Q1017=
201911211550 METAR ESMX 211550Z VRB06KT 2700 -DZ BKN002 OVC004 07/07 Q1017 REDZ=
201911211520 METAR ESMX 211520Z 11006KT 340V160 5000 BR OVC004 07/07 Q1017=
201911211450 METAR ESMX 211450Z 10006KT 060V150 5000 BR BKN004 08/08 Q1017=
201911211420 METAR ESMX 211420Z 08005KT 030V150 4200 BR OVC003 08/08 Q1017=
201911211350 METAR ESMX 211350Z 10003KT 030V160 3700 -DZ OVC002 08/08 Q1017=
201911211320 METAR ESMX 211320Z 09005KT 050V130 3300 -DZ OVC002 08/08 Q1017=
201911211250 METAR ESMX 211250Z 10005KT 060V160 4300 BR OVC002 08/08 Q1017=
201911211220 METAR ESMX 211220Z 09005KT 050V150 3300 -DZ BR OVC002 08/08 Q1018=
201911211150 METAR ESMX 211150Z 10004KT 050V200 4100 BR OVC002 08/08 Q1018=
201911211120 METAR ESMX 211120Z 09004KT 030V120 3300 BR OVC002 08/08 Q1018=
201911211050 METAR ESMX 211050Z 08004KT 030V190 3300 BR OVC002 08/08 Q1018=
201911211020 METAR ESMX 211020Z 08004KT 330V130 2800 BR OVC002 08/08 Q1018=
201911210950 METAR ESMX 210950Z 09005KT 020V150 2900 BR OVC002 08/08 Q1019=
201911210920 METAR ESMX 210920Z 10005KT 050V130 4600 BR BKN002 08/08 Q1019=
201911210850 METAR ESMX 210850Z 10005KT 030V160 4600 BR OVC002 08/08 Q1019=
201911210820 METAR ESMX 210820Z 11006KT 030V170 4700 BR OVC004 08/08 Q1019=
201911210750 METAR ESMX 210750Z 10006KT 020V140 4400 BR FEW002 OVC004 08/08 Q1019=
201911210720 METAR ESMX 210720Z 11006KT 060V160 3800 DZ BKN002 OVC004 08/08 Q1019=
201911210650 METAR ESMX 210650Z VRB06KT 5000 DZ SCT002 OVC004 08/08 Q1019=
201911210620 METAR ESMX 210620Z 11005KT 050V150 6000 BR FEW002 OVC005 08/08 Q1019=
201911210550 METAR ESMX 210550Z 10007KT 060V140 8000 BR OVC005 08/08 Q1019=
201911210520 METAR ESMX 210520Z 10006KT 050V140 9000 BR OVC005 08/08 Q1019=
201911210450 METAR ESMX 210450Z 10005KT 030V180 9999 OVC004 08/08 Q1018=
201911210420 METAR ESMX 210420Z AUTO 10006KT 040V160 5000 BR OVC003/// 08/08 Q1019=
201911210350 METAR ESMX 210350Z AUTO 08005KT 360V140 6000 BR OVC003/// 07/07 Q1019=
201911210320 METAR ESMX 210320Z AUTO 09004KT 010V140 2900 BR OVC002/// 07/07 Q1019=
201911210250 METAR ESMX 210250Z AUTO 11005KT 060V160 2800 BR BKN002/// OVC004/// 07/07 Q1019 REUP=
201911210220 METAR ESMX 210220Z AUTO 09006KT 050V140 4100 BR OVC003/// 07/07 Q1019=
201911210150 METAR ESMX 210150Z AUTO 10006KT 040V150 4200 BR SCT002/// OVC004/// 07/07 Q1020 REUP=
201911210120 METAR ESMX 210120Z AUTO 09005KT 050V150 4000 BR OVC004/// 07/07 Q1020=
201911210050 METAR ESMX 210050Z AUTO 10004KT 350V160 5000 BR OVC005/// 07/07 Q1020=
201911210020 METAR ESMX 210020Z AUTO VRB04KT 5000 BR OVC005/// 07/07 Q1020=
201911202350 METAR ESMX 202350Z AUTO 08005KT 350V150 8000 BR OVC006/// 07/07 Q1020=
201911202320 METAR ESMX 202320Z AUTO 10005KT 040V160 9999 OVC007/// 07/07 Q1020=
201911202250 METAR ESMX 202250Z AUTO 10005KT 050V170 9999 OVC007/// 07/07 Q1020=
201911202220 METAR ESMX 202220Z AUTO VRB05KT 9999 OVC007/// 07/07 Q1020=
201911202150 METAR ESMX 202150Z AUTO 09005G16KT 360V150 9999 OVC005/// 07/07 Q1020=
201911202120 METAR ESMX 202120Z AUTO 09006KT 030V160 5000 BR OVC004/// 07/07 Q1021=
201911202050 METAR ESMX 202050Z 09006KT 040V180 9000 BR BKN006 07/06 Q1021=
201911202020 METAR ESMX 202020Z VRB06KT 7000 BR BKN005 07/06 Q1021=
201911201950 METAR ESMX 201950Z 09006KT 030V160 9999 BKN005 07/06 Q1021=
201911201920 METAR ESMX 201920Z 09007KT 050V150 6000 BR BKN004 07/07 Q1021=
201911201850 METAR ESMX 201850Z 08005KT 010V170 5000 BR BKN004 07/07 Q1021=
201911201820 METAR ESMX 201820Z 09004KT 050V150 7000 BR BKN005 07/07 Q1021=
201911201750 METAR ESMX 201750Z 09005KT 340V140 9999 BKN007 07/07 Q1021=
201911201720 METAR ESMX 201720Z 08005KT 030V140 7000 BR BKN006 07/07 Q1021=
201911201650 METAR ESMX 201650Z 09006KT 060V140 9999 BKN007 07/07 Q1021=
201911201620 METAR ESMX 201620Z 09005KT 050V140 9999 BKN008 07/06 Q1021=
201911201550 METAR ESMX 201550Z 09006G18KT 040V150 9999 BKN007 08/06 Q1021=
201911201520 METAR ESMX 201520Z 09006KT 020V140 9999 BKN009 08/06 Q1021=
201911201450 METAR ESMX 201450Z 09006KT 040V160 9999 BKN009 08/06 Q1021=
201911201420 METAR ESMX 201420Z 08006KT 040V120 9999 BKN009 08/07 Q1021=
201911201350 METAR ESMX 201350Z 07005KT 030V110 9999 BKN009 08/06 Q1021=
201911201320 METAR ESMX 201320Z 07007KT 030V150 9999 OVC010 08/06 Q1021=
201911201250 METAR ESMX 201250Z 07006KT 020V120 9999 OVC012 08/06 Q1021=
201911201220 METAR ESMX 201220Z 08006KT 040V200 9999 BKN014 08/06 Q1021=
201911201150 METAR ESMX 201150Z 04006KT CAVOK 08/06 Q1021=
201911201120 METAR ESMX 201120Z 05006KT 020V080 9999 FEW011 SCT160 07/06 Q1022=
201911201050 METAR ESMX 201050Z 06004KT 350V100 9999 BKN011 07/05 Q1022=
201911201020 METAR ESMX 201020Z 10004KT 050V150 9999 BKN010 07/06 Q1022=
201911200950 METAR ESMX 200950Z 09004KT 050V160 9999 FEW007 BKN009 BKN011 07/06 Q1022=
201911200920 METAR ESMX 200920Z 11003KT 070V160 9999 BKN007 BKN068 06/06 Q1023=
201911200850 METAR ESMX 200850Z VRB03KT 9999 FEW015 SCT045 BKN065 06/06 Q1022=
201911200820 METAR ESMX 200820Z VRB02KT 9999 FEW015 SCT045 BKN065 06/06 Q1022=
201911200750 METAR ESMX 200750Z VRB02KT 9999 FEW015 BKN047 06/06 Q1022=
201911200720 METAR ESMX 200720Z VRB02KT 9999 SCT013 BKN049 06/05 Q1022=
201911200650 METAR ESMX 200650Z VRB03KT 9999 SCT018 BKN064 06/05 Q1021=
201911200620 METAR ESMX 200620Z VRB03KT 9999 FEW015 SCT053 BKN064 06/05 Q1021=
201911200550 METAR ESMX 200550Z VRB03KT 9999 BKN016 06/05 Q1021=
201911200520 METAR ESMX 200520Z 13004KT 9999 BKN017 06/05 Q1021=
201911200450 METAR ESMX 200450Z 13004KT 9999 BKN016 06/05 Q1020=
201911200420 METAR ESMX 200420Z 16004KT 9999 BKN017 06/05 Q1020=
201911200350 METAR ESMX 200350Z AUTO 15006KT 9999 OVC018/// 07/06 Q1020=
201911200320 METAR ESMX 200320Z AUTO 15004KT 9999 OVC019/// 07/06 Q1020=
201911200250 METAR ESMX 200250Z AUTO 16004KT 9999 FEW008/// SCT012/// BKN014/// 07/06 Q1020=
201911200220 METAR ESMX 200220Z AUTO 16005KT 9999 FEW011/// OVC017/// 07/06 Q1019=
201911200150 METAR ESMX 200150Z AUTO 16006KT 9999 FEW006/// OVC018/// 07/06 Q1019=
201911200120 METAR ESMX 200120Z AUTO 17007KT 9999 BKN006/// BKN008/// OVC016/// 07/07 Q1019=
201911200050 METAR ESMX 200050Z AUTO 16008KT 9999 SCT007/// OVC020/// 07/07 Q1018=
201911200020 METAR ESMX 200020Z AUTO 17009KT 9999 BKN006/// OVC022/// 07/06 Q1018 REDZ=
201911192350 METAR ESMX 192350Z AUTO 16009KT 9000 DZ BKN006/// OVC009/// 07/07 Q1018 REUP REDZ=
201911192320 METAR ESMX 192320Z AUTO 16008KT 9999 OVC007/// 07/07 Q1017=
201911192250 METAR ESMX 192250Z AUTO 17009KT 9999 BKN006/// OVC010/// 07/07 Q1017=
201911192220 METAR ESMX 192220Z AUTO 18010KT 9999 OVC006/// 07/07 Q1017=
201911192150 METAR ESMX 192150Z AUTO 17011KT 9999 OVC008/// 07/07 Q1016=
201911192120 METAR ESMX 192120Z 17010KT 9999 OVC006 07/07 Q1016=
201911192050 METAR ESMX 192050Z 17011KT 9999 OVC006 07/07 Q1015=
201911192020 METAR ESMX 192020Z 17010KT 9999 OVC005 07/07 Q1015=
201911191950 METAR ESMX 191950Z 17010KT 8000 BR OVC004 07/07 Q1014=
201911191920 METAR ESMX 191920Z 17010KT 5000 BR BKN002 07/07 Q1014 REDZ=
201911191850 METAR ESMX 191850Z 16008KT 7000 BR BKN002 06/06 Q1013=
201911191820 METAR ESMX 191820Z 16005KT 4300 BR BKN002 BKN004 06/06 Q1013 REDZ=
201911191750 METAR ESMX 191750Z 17006KT 4800 -DZ SCT002 BKN005 06/06 Q1013 REDZ=
201911191720 METAR ESMX 191720Z 17009KT 9999 FEW010 BKN033 06/06 Q1012=
201911191650 METAR ESMX 191650Z 17008KT 9999 SCT006 BKN009 06/06 Q1012=
201911191620 METAR ESMX 191620Z 17008KT 9999 BKN004 06/06 Q1011=
201911191550 METAR ESMX 191550Z 16007KT 9999 BKN003 BKN006 06/06 Q1011=
201911191520 METAR ESMX 191520Z 15005KT 120V190 9999 -RA BKN005 06/06 Q1010 RESHRA=
201911191450 METAR ESMX 191450Z 14004KT 100V170 9999 BR BKN003 05/05 Q1010 REDZ=
201911191420 METAR ESMX 191420Z 13004KT 5000 BR BKN003 05/05 Q1009=
201911191350 METAR ESMX 191350Z 13005KT 9999 BKN007 05/05 Q1009=
201911191320 METAR ESMX 191320Z 14005KT 9999 -RA FEW006 BKN008 05/05 Q1009=
201911191250 METAR ESMX 191250Z 15006KT 120V180 9999 -RA BKN007 05/05 Q1009=
201911191220 METAR ESMX 191220Z 14006KT 100V160 9999 BKN006 05/05 Q1009=
201911191150 METAR ESMX 191150Z 15006KT 100V170 9999 BKN009 05/04 Q1009=
201911191120 METAR ESMX 191120Z 14007KT 100V170 9999 -RA BKN010 05/04 Q1009 RERA=
201911191050 METAR ESMX 191050Z 15008KT 9999 -DZ BKN006 05/04 Q1009=
201911191020 METAR ESMX 191020Z 14007KT 110V170 9999 -RA BKN008 05/04 Q1009=
201911190950 METAR ESMX 190950Z 14008KT 120V190 9999 -RA BKN011 05/04 Q1009=
201911190850 METAR ESMX 190850Z 13006KT 100V160 9999 FEW017 BKN032 05/04 Q1009=
201911190820 METAR ESMX 190820Z 14009KT 100V170 9999 BKN029 05/03 Q1009=
201911190750 METAR ESMX 190750Z 15009KT 9999 FEW014 BKN033 05/04 Q1009=
201911190720 METAR ESMX 190720Z 14008KT 9999 BKN012 05/04 Q1008=
201911190650 METAR ESMX 190650Z 14008KT 9999 FEW019 BKN030 05/04 Q1008=
201911190620 METAR ESMX 190620Z AUTO 15010KT 9999 SCT015/// OVC027/// 06/04 Q1008=
201911190550 METAR ESMX 190550Z 14007KT 9999 SCT016 BKN027 06/04 Q1008=
201911190520 METAR ESMX 190520Z 16011KT 9999 SCT010 BKN030 06/04 Q1008=
201911190450 METAR ESMX 190450Z 15010KT 9999 BKN011 07/06 Q1007=
201911190420 METAR ESMX 190420Z AUTO 13005KT 100V160 9999 -DZ SCT008/// BKN012/// BKN023/// 06/06 Q1008 REUP=
201911190350 METAR ESMX 190350Z AUTO 16007KT 9999 FEW018/// OVC034/// 06/06 Q1008=
201911190320 METAR ESMX 190320Z AUTO 17009KT 9999 SCT010/// OVC032/// 07/06 Q1007=
201911190250 METAR ESMX 190250Z AUTO 16013KT 9999 BKN007/// OVC011/// 07/06 Q1007=
201911190220 METAR ESMX 190220Z AUTO 17013KT 9999 OVC005/// 08/07 Q1007 REDZ=
201911190150 METAR ESMX 190150Z AUTO 14008KT 8000 -RA OVC004/// 09/09 Q1007=
201911190120 METAR ESMX 190120Z AUTO 13006KT 100V160 5000 DZ OVC002/// 09/09 Q1006=
201911190050 METAR ESMX 190050Z AUTO 13007KT 100V160 4300 DZ OVC003/// 08/08 Q1006 REDZ RESHUP=
201911190020 METAR ESMX 190020Z AUTO 12005KT 070V160 5000 UP OVC004/// 08/08 Q1006=
201911182350 METAR ESMX 182350Z AUTO 13005KT 070V160 6000 -DZ OVC004/// 08/08 Q1006 RERA=
201911182320 METAR ESMX 182320Z AUTO 11004KT 070V140 5000 BR OVC005/// 08/08 Q1006=
201911182250 METAR ESMX 182250Z AUTO 10004KT 050V140 3600 -RA OVC004/// 08/08 Q1007 REDZ=
201911182220 METAR ESMX 182220Z AUTO 11004KT 070V150 2900 -RA OVC003/// 08/08 Q1007=
201911182150 METAR ESMX 182150Z AUTO 10004KT 040V150 2200 -RA OVC002/// 08/08 Q1007 REUP=
201911182120 METAR ESMX 182120Z AUTO 12005KT 060V230 1600 BR OVC001/// 08/08 Q1007=
201911182050 METAR ESMX 182050Z AUTO 11006KT 060V170 1300 R01/P2000N R19/P2000N BR OVC001/// 08/08 Q1007=
201911182020 METAR ESMX 182020Z AUTO 11005KT 070V160 1700 BR OVC002/// 08/08 Q1007 REUP=
201911181950 METAR ESMX 181950Z 10005KT 060V170 2400 BR OVC002 08/08 Q1007=
201911181920 METAR ESMX 181920Z 11006KT 070V150 2500 BR OVC002 08/08 Q1007=
201911181850 METAR COR ESMX 181850Z 11006KT 050V170 3500 BR OVC002 08/08 Q1007=
201911181820 METAR ESMX 181820Z 11006KT 070V150 5000 BR OVC004 08/08 Q1007=
201911181750 METAR ESMX 181750Z 12007KT 080V160 8000 BR OVC005 08/08 Q1008=
201911181720 METAR ESMX 181720Z 10007KT 030V140 9000 BR BKN005 08/08 Q1007=
201911181650 METAR ESMX 181650Z 10006KT 060V160 9999 BKN006 08/08 Q1008=
201911181620 METAR ESMX 181620Z 10005KT 050V150 9999 BKN007 09/08 Q1008=
201911181550 METAR ESMX 181550Z 10008KT 050V130 9999 BKN007 09/08 Q1008=
201911181520 METAR ESMX 181520Z 09007KT 060V140 9999 BKN007 09/08 Q1008=
201911181450 METAR ESMX 181450Z 10007KT 060V160 9999 BKN007 09/08 Q1008=
201911181420 METAR ESMX 181420Z 09007KT 040V140 9999 BKN007 09/08 Q1008=
201911181350 METAR ESMX 181350Z 08006KT 030V140 9999 BKN007 09/08 Q1008=
201911181320 METAR ESMX 181320Z VRB06KT 9999 BKN007 09/08 Q1009=
201911181250 METAR ESMX 181250Z AUTO 08007KT 020V120 9999 OVC006/// 09/08 Q1009=
201911181220 METAR ESMX 181220Z 09006KT 050V150 9000 BR BKN004 09/08 Q1009=
201911181150 METAR ESMX 181150Z 10007KT 060V160 9000 BR BKN004 08/08 Q1010=
201911181120 METAR ESMX 181120Z 10007KT 030V150 9000 BR BKN004 08/08 Q1010=
201911181050 METAR ESMX 181050Z 09006KT 030V130 9999 BKN005 08/08 Q1010=
201911181020 METAR ESMX 181020Z 08007KT 050V140 9999 BKN005 08/08 Q1010=
201911180950 METAR ESMX 180950Z 08007KT 040V120 9000 BR BKN005 08/08 Q1011=
201911180920 METAR ESMX 180920Z 09009KT 030V140 9999 BKN006 08/07 Q1011=
201911180850 METAR ESMX 180850Z 08007KT 020V140 9999 BKN007 08/07 Q1011=
201911180820 METAR ESMX 180820Z 08009KT 030V120 9999 BKN006 08/07 Q1011=
201911180750 METAR ESMX 180750Z 08006KT 030V120 9000 BR BKN004 08/08 Q1012=
201911180720 METAR ESMX 180720Z 07007KT 010V140 9999 BKN004 08/08 Q1012=
201911180650 METAR ESMX 180650Z 07007KT 030V120 9999 BKN004 08/07 Q1012=
201911180620 METAR ESMX 180620Z AUTO 08007KT 050V120 9999 OVC004/// 07/07 Q1012=
201911180550 METAR ESMX 180550Z 07006KT 030V100 9999 BKN003 07/07 Q1012=
201911180520 METAR ESMX 180520Z 07009KT 040V110 6000 BR BKN002 07/07 Q1012=
201911180450 METAR ESMX 180450Z 07008KT 040V110 5000 BR BKN002 07/07 Q1012=
201911180420 METAR ESMX 180420Z AUTO 07007KT 030V120 4400 BR OVC002/// 07/07 Q1012=
201911180350 METAR ESMX 180350Z AUTO 07008KT 030V100 4300 BR OVC002/// 07/07 Q1013=
201911180320 METAR ESMX 180320Z AUTO 06007KT 030V120 4700 BR BKN003/// OVC005/// 07/06 Q1013=
201911180250 METAR ESMX 180250Z AUTO 07008KT 030V120 9999 BKN007/// OVC009/// 06/06 Q1013=
201911180220 METAR ESMX 180220Z AUTO 07006KT 020V110 9999 BKN010/// 06/05 Q1014=
201911180150 METAR ESMX 180150Z AUTO 04007KT 010V100 9999 SCT160/// 06/04 Q1014=
201911180120 METAR ESMX 180120Z AUTO 04006KT 360V090 9999 OVC150/// 06/04 Q1014=
201911180050 METAR ESMX 180050Z AUTO 05006KT 9999 SCT140/// BKN160/// 06/04 Q1014 RESHUP REUP=
201911180020 METAR ESMX 180020Z AUTO 04007KT 9999 UP SCT120/// 06/04 Q1015=
201911172350 METAR ESMX 172350Z AUTO 03007KT 9999 FEW045/// SCT090/// BKN120/// 05/04 Q1015=
201911172320 METAR ESMX 172320Z AUTO 03006KT 9999 BKN043/// OVC090/// 05/04 Q1015=
201911172250 METAR ESMX 172250Z AUTO 04004KT 9999 OVC046/// 05/05 Q1016=
201911172220 METAR ESMX 172220Z AUTO 01006KT 9999 BKN051/// OVC082/// 05/05 Q1016=
201911172150 METAR ESMX 172150Z AUTO 04005KT 9999 BKN070/// OVC092/// 05/05 Q1016=
201911172120 METAR ESMX 172120Z 02004KT 9999 BKN059 05/05 Q1017=
201911172050 METAR ESMX 172050Z VRB03KT 9999 BKN059 05/05 Q1017=
201911172020 METAR ESMX 172020Z 06003KT 9999 BKN061 05/05 Q1017=
201911171950 METAR ESMX 171950Z 03003KT 9999 BKN066 05/05 Q1017=
201911171920 METAR ESMX 171920Z 01002KT 7000 BR BKN086 04/04 Q1017=
201911171850 METAR ESMX 171850Z VRB02KT 9999 BKN090 05/05 Q1017=
201911171820 METAR ESMX 171820Z AUTO VRB01KT 7000 BR OVC088/// 04/04 Q1017=
201911171750 METAR ESMX 171750Z 00000KT 8000 BR OVC096 04/04 Q1017=
201911171720 METAR ESMX 171720Z 35001KT 5000 BR BKN100 04/04 Q1017=
201911171650 METAR ESMX 171650Z VRB01KT 8000 BR BKN100 04/04 Q1017=
201911171620 METAR ESMX 171620Z 00000KT 5000 BR BKN120 03/03 Q1017=
201911171550 METAR ESMX 171550Z 00000KT 5000 BR NSC 04/04 Q1017=
201911171520 METAR ESMX 171520Z 00000KT 8000 BR NSC 04/04 Q1017=
201911171450 METAR ESMX 171450Z 16002KT CAVOK 05/04 Q1017=
201911171420 METAR ESMX 171420Z VRB03KT CAVOK 06/04 Q1017=
201911171350 METAR ESMX 171350Z 17004KT CAVOK 06/04 Q1017=
201911171320 METAR COR ESMX 171320Z 17004KT CAVOK 06/04 Q1017=
201911171250 METAR ESMX 171250Z 18006KT 9999 FEW012 06/04 Q1017=
201911171220 METAR ESMX 171220Z 18008KT 9999 FEW012 06/04 Q1016=
201911171150 METAR ESMX 171150Z 18009KT 9999 SCT011 06/04 Q1016=
201911171120 METAR ESMX 171120Z 17007KT 9999 BKN011 05/04 Q1016=
201911171050 METAR ESMX 171050Z 19008KT 9999 BKN010 05/04 Q1016=
201911171020 METAR ESMX 171020Z AUTO 19011KT 9999 OVC008/// 05/04 Q1016=
201911170950 METAR ESMX 170950Z 19012KT 9999 BKN007 05/04 Q1016=
201911170920 METAR ESMX 170920Z 20012KT 170V230 9999 BKN007 05/04 Q1015=
201911170850 METAR ESMX 170850Z 19013KT 9999 BKN007 05/04 Q1015=
201911170820 METAR ESMX 170820Z 18017KT 9999 BKN008 05/04 Q1014=
201911170750 METAR ESMX 170750Z 18014KT 9999 BKN008 05/04 Q1014=
201911170720 METAR ESMX 170720Z 18013KT 9999 BKN008 05/04 Q1013=
201911170650 METAR ESMX 170650Z 18014KT 9999 BKN009 05/04 Q1013=
201911170620 METAR ESMX 170620Z 19015KT 9999 BKN010 05/05 Q1012=
201911170550 METAR ESMX 170550Z AUTO 19017KT 9999 OVC010/// 06/05 Q1012=
201911170520 METAR ESMX 170520Z AUTO 19015KT 9999 OVC009/// 06/05 Q1011=
201911170450 METAR ESMX 170450Z AUTO 18016KT 9999 OVC009/// 06/05 Q1010=
201911170420 METAR ESMX 170420Z AUTO 18016KT 9999 OVC009/// 06/05 Q1010=
201911170350 METAR ESMX 170350Z AUTO 18017KT 9999 OVC008/// 06/06 Q1009=
201911170320 METAR ESMX 170320Z AUTO 18014KT 9999 OVC008/// 06/06 Q1009=
201911170250 METAR ESMX 170250Z AUTO 18014KT 9999 OVC009/// 07/06 Q1008=
201911170220 METAR ESMX 170220Z AUTO 19015KT 9999 BKN009/// OVC011/// 07/06 Q1007=
201911170150 METAR ESMX 170150Z AUTO 19014KT 9999 OVC008/// 07/06 Q1007=
201911170120 METAR ESMX 170120Z AUTO 18015KT 9999 OVC007/// 06/06 Q1007=
201911170050 METAR ESMX 170050Z AUTO 18016KT 9999 DZ BKN008/// OVC014/// 06/06 Q1006=
201911170020 METAR ESMX 170020Z AUTO 18015KT 9999 -RA OVC007/// 06/06 Q1006 REDZ=
201911162350 METAR ESMX 162350Z AUTO 17014KT 9999 DZ OVC008/// 06/06 Q1005 REDZ=
201911162320 METAR ESMX 162320Z AUTO 17013KT 9999 -DZ BKN007/// OVC010/// 06/06 Q1005=
201911162250 METAR ESMX 162250Z AUTO 16013KT 9999 DZ OVC007/// 06/06 Q1005=
201911162220 METAR ESMX 162220Z AUTO 15012KT 9999 DZ BKN008/// BKN010/// OVC018/// 06/05 Q1005=
201911162150 METAR ESMX 162150Z AUTO 16012KT 9999 -RA SCT008/// BKN010/// OVC023/// 06/05 Q1005=
201911162120 METAR ESMX 162120Z AUTO 17015KT 9999 -DZ BKN009/// BKN012/// OVC018/// 07/06 Q1004=
201911162050 METAR ESMX 162050Z AUTO 17013KT 9999 -RA BKN007/// OVC009/// 07/07 Q1004 REDZ=
201911162020 METAR ESMX 162020Z AUTO 17014KT 9999 DZ SCT005/// OVC007/// 07/07 Q1004 RESHUP REUP=
201911161950 METAR ESMX 161950Z AUTO 16012KT 9000 BR OVC005/// 08/08 Q1003 RESHUP RERA=
201911161920 METAR ESMX 161920Z AUTO 15011KT 7000 BR FEW003/// BKN007/// BKN009/// 09/08 Q1003=
201911161850 METAR ESMX 161850Z AUTO 15009KT 4300 -RA FEW002/// OVC006/// 09/09 Q1003 REDZ=
201911161820 METAR ESMX 161820Z AUTO 15008KT 2600 DZ SCT002/// OVC004/// 09/09 Q1003=
201911161750 METAR ESMX 161750Z AUTO 14007KT 110V170 3900 -RA OVC003/// 09/09 Q1003 REDZ=
201911161720 METAR ESMX 161720Z AUTO 13006KT 080V160 4400 -RA BKN003/// OVC005/// 09/09 Q1003 RERA=
201911161650 METAR ESMX 161650Z AUTO 12005KT 030V200 9000 BR OVC005/// 09/09 Q1003=
201911161620 METAR ESMX 161620Z AUTO 11006KT 070V160 4700 -RA BKN002/// OVC004/// 08/08 Q1003=
201911161550 METAR ESMX 161550Z AUTO 13006KT 080V190 5000 RA FEW002/// OVC004/// 08/08 Q1003=
201911161520 METAR ESMX 161520Z AUTO 11005KT 050V170 9999 -RA OVC006/// 08/08 Q1003 RERA=
201911161450 METAR ESMX 161450Z AUTO 11005KT 030V170 6000 DZ OVC005/// 08/08 Q1003 REDZ=
201911161420 METAR ESMX 161420Z AUTO 11006KT 060V170 8000 DZ OVC006/// 08/08 Q1003=
201911161350 METAR ESMX 161350Z AUTO 10005KT 030V150 9000 -RA FEW002/// BKN006/// OVC007/// 08/08 Q1004=
201911161320 METAR ESMX 161320Z AUTO 09005KT 050V150 9999 -DZ OVC007/// 08/08 Q1004=
201911161250 METAR ESMX 161250Z AUTO 09006KT 010V150 9999 DZ OVC006/// 08/08 Q1004 REDZ=
201911161220 METAR ESMX 161220Z AUTO 08006KT 030V140 6000 DZ BKN002/// OVC005/// 08/08 Q1005 REDZ=
201911161150 METAR ESMX 161150Z AUTO 11006KT 330V150 4700 DZ SCT002/// OVC004/// 08/08 Q1006 REUP REDZ=
201911161120 METAR ESMX 161120Z AUTO 09006KT 340V150 9999 OVC005/// 08/08 Q1006=
201911161050 METAR ESMX 161050Z AUTO 07007KT 030V150 6000 BR FEW002/// OVC004/// 08/08 Q1006=
201911161020 METAR ESMX 161020Z AUTO 09006KT 030V160 4100 BR SCT002/// OVC005/// 08/07 Q1007=
201911160950 METAR ESMX 160950Z AUTO 07006KT 330V130 9999 OVC006/// 08/07 Q1007=
201911160920 METAR ESMX 160920Z AUTO 08006KT 030V140 9999 OVC006/// 08/07 Q1007=
201911160850 METAR ESMX 160850Z AUTO 08006KT 020V140 8000 BR OVC006/// 08/07 Q1007=
201911160820 METAR ESMX 160820Z AUTO 08007KT 030V130 9999 OVC008/// 07/07 Q1008=
201911160750 METAR ESMX 160750Z AUTO 07006KT 020V110 9999 OVC007/// 07/07 Q1008=
201911160720 METAR ESMX 160720Z AUTO 07006KT 040V120 6000 BR OVC004/// 07/07 Q1008=
201911160650 METAR ESMX 160650Z AUTO 07007KT 040V110 4800 BR OVC004/// 07/07 Q1009=
201911160620 METAR ESMX 160620Z AUTO 08008KT 030V150 5000 BR OVC004/// 07/07 Q1009=
201911160550 METAR ESMX 160550Z AUTO 08006KT 040V150 4800 BR OVC004/// 07/07 Q1009=
201911160520 METAR ESMX 160520Z 07007KT 020V120 3500 BR OVC003 07/07 Q1009=
201911160450 METAR ESMX 160450Z 08007KT 030V120 4500 BR OVC003 07/07 Q1009=
201911160420 METAR ESMX 160420Z 09006KT 030V130 5000 BR OVC004 07/07 Q1010=
201911160350 METAR ESMX 160350Z 08007KT 020V130 6000 BR OVC004 07/07 Q1010=
201911160320 METAR COR ESMX 160320Z 08007KT 030V210 6000 BR OVC004 07/07 Q1010=
201911160250 METAR ESMX 160250Z AUTO 07007KT 030V140 9999 OVC005/// 07/07 Q1010=
201911160220 METAR ESMX 160220Z AUTO 08008KT 010V130 9999 OVC006/// 07/07 Q1010=
201911160150 METAR ESMX 160150Z AUTO 07007KT 020V120 9999 OVC006/// 07/07 Q1011=
201911160120 METAR ESMX 160120Z AUTO 07008KT 040V120 9999 OVC006/// 07/07 Q1011=
201911160050 METAR ESMX 160050Z AUTO 07008KT 040V110 9999 -RA FEW002/// OVC005/// 07/07 Q1012 REUP=
201911160020 METAR ESMX 160020Z AUTO 07006KT 010V150 9999 OVC003/// 07/07 Q1012=
201911152350 METAR ESMX 152350Z AUTO 07007KT 020V120 4300 BR OVC002/// 07/07 Q1012=
201911152320 METAR ESMX 152320Z AUTO 07007KT 030V120 5000 BR OVC002/// 07/07 Q1013=
201911152250 METAR ESMX 152250Z AUTO 07007KT 030V110 7000 BR OVC003/// 07/07 Q1013=
201911152220 METAR ESMX 152220Z AUTO 06009KT 030V100 5000 BR OVC003/// 06/06 Q1013 REDZ=
201911152150 METAR ESMX 152150Z AUTO 07008KT 030V120 6000 BR OVC003/// 06/06 Q1014=
201911152120 METAR ESMX 152120Z 04009KT 010V090 9999 OVC005 06/06 Q1014=
201911152050 METAR ESMX 152050Z 06009KT 030V100 9999 -RA OVC004 06/06 Q1014=
201911152020 METAR ESMX 152020Z 06010G21KT 040V100 9999 DZ OVC005 06/05 Q1015=
201911151950 METAR ESMX 151950Z AUTO 06010KT 350V110 9999 OVC007/// 06/05 Q1015=
201911151920 METAR ESMX 151920Z 05011KT 020V090 9999 OVC007 06/05 Q1015=
201911151850 METAR ESMX 151850Z 06010KT 020V100 9999 OVC007 06/05 Q1015=
201911151820 METAR ESMX 151820Z 05009KT 010V100 9999 OVC009 06/05 Q1016=
201911151750 METAR ESMX 151750Z 07009KT 030V110 9999 OVC009 06/05 Q1016=
201911151720 METAR ESMX 151720Z 06009KT 030V150 9999 BKN011 06/04 Q1016=
201911151650 METAR ESMX 151650Z 06009KT 030V110 9999 BKN011 06/04 Q1016=
201911151620 METAR ESMX 151620Z 06009KT 030V100 9999 BKN011 06/04 Q1017=
201911151550 METAR ESMX 151550Z 05008KT 020V100 9999 BKN013 06/04 Q1017=
201911151520 METAR ESMX 151520Z 05008KT 020V140 9999 BKN018 06/04 Q1017=
201911151450 METAR ESMX 151450Z 07008KT 040V120 9999 BKN017 06/04 Q1017=
201911151420 METAR ESMX 151420Z 05009KT 020V100 9999 BKN015 06/04 Q1017=
201911151350 METAR ESMX 151350Z 07008KT 030V110 9999 OVC015 06/04 Q1017=
201911151320 METAR ESMX 151320Z 05007KT 010V100 9999 BKN014 06/04 Q1018=
201911151250 METAR ESMX 151250Z 08007KT 020V120 9999 BKN017 06/04 Q1018=
201911151220 METAR ESMX 151220Z 07007KT 030V120 9999 SCT021 07/04 Q1018=
201911151150 METAR ESMX 151150Z 07007KT 020V130 9999 BKN021 06/03 Q1018=
201911151120 METAR ESMX 151120Z 08008KT 030V140 9999 BKN021 06/04 Q1018=
201911151050 METAR ESMX 151050Z 06006KT 010V120 9999 BKN018 06/04 Q1018=
201911151020 METAR ESMX 151020Z 07007KT 030V130 9999 BKN015 06/04 Q1019=
201911150950 METAR ESMX 150950Z 07007KT 030V120 9999 BKN015 BKN019 06/04 Q1019=
201911150920 METAR ESMX 150920Z 08007KT 040V130 9999 SCT010 BKN012 06/05 Q1019=
201911150850 METAR ESMX 150850Z 07007KT 040V130 9999 BKN010 06/05 Q1019=
201911150820 METAR ESMX 150820Z 07007KT 040V110 9999 BKN009 05/05 Q1019=
201911150750 METAR ESMX 150750Z 07006KT 330V110 9999 BKN007 05/05 Q1019=
201911150720 METAR ESMX 150720Z 06005KT 020V100 9999 BKN007 05/05 Q1019=
201911150650 METAR ESMX 150650Z 04005KT 360V070 9999 SCT007 BKN031 05/05 Q1019=
201911150620 METAR ESMX 150620Z 07005KT 030V100 9999 BKN030 04/04 Q1019=
201911150550 METAR ESMX 150550Z 06005KT 340V090 9999 BKN031 04/04 Q1019=
201911150520 METAR ESMX 150520Z 06004KT 9999 FEW006 BKN029 04/04 Q1019=
201911150450 METAR ESMX 150450Z 07005KT 040V100 9000 BR OVC004 04/04 Q1019=
201911150420 METAR COR ESMX 150420Z 08004KT 030V120 5000 BR OVC003 04/04 Q1019=
201911150350 METAR ESMX 150350Z AUTO 08005KT 050V120 4200 BR OVC001/// 04/04 Q1019=
201911150320 METAR ESMX 150320Z AUTO 05005KT 030V100 2100 BR OVC001/// 04/04 Q1018=
201911150250 METAR ESMX 150250Z AUTO 05005KT 020V100 4000 BR OVC002/// 04/04 Q1019=
201911150220 METAR ESMX 150220Z AUTO 03006KT 4300 BR BKN002/// OVC005/// 03/03 Q1018=
201911150150 METAR ESMX 150150Z AUTO 02003KT 3800 BR SCT009/// 03/03 Q1018=
201911150120 METAR ESMX 150120Z VRB02KT 6000 BR BKN009 04/04 Q1018=
201911150050 METAR ESMX 150050Z 05004KT 020V080 7000 BR BKN008 04/04 Q1018=
201911150020 METAR ESMX 150020Z 05003KT 4700 BR FEW002 BKN008 03/03 Q1018=
201911142350 METAR COR ESMX 142350Z 04003KT 3500 SCT002 BKN005 03/03 Q1018=
201911142320 METAR ESMX 142320Z 00000KT 0250 R01/0800N R19/0900U FG VV002 02/02 Q1018=
201911142250 METAR ESMX 142250Z AUTO 00000KT 0150 R01/0550N R19/0600N FG VV002 02/02 Q1018=
201911142220 METAR ESMX 142220Z AUTO VRB02KT 0200 R01/0600N R19/0650U FG VV001 02/02 Q1017=
201911142150 METAR ESMX 142150Z AUTO VRB02KT 0100 R01/0550N R19/0600N FG VV001 02/02 Q1017=
201911142120 METAR ESMX 142120Z 00000KT 0050 R01/0300N R19/0325N FG VV002 01/01 Q1017=
201911142050 METAR ESMX 142050Z VRB02KT 0100 R01/0325N R19/0700N FG VV002 01/01 Q1016=
201911142020 METAR ESMX 142020Z 14003KT 0250 R01/1100N R19/0700N FG NSC 00/00 Q1016=
201911141950 METAR ESMX 141950Z 11001KT 0200 R01/0800N R19/0650N FG NSC 01/01 Q1016=
201911141920 METAR ESMX 141920Z VRB01KT 0400 R01/0750N R19/0450N FG NSC 01/01 Q1015=
201911141850 METAR ESMX 141850Z 15003KT 3000 BR NSC 02/02 Q1015=
201911141820 METAR ESMX 141820Z 13003KT 5000 BR NSC 03/03 Q1014=
201911141750 METAR ESMX 141750Z VRB02KT 0500 R01/1000U R19/0750N FG NSC 03/03 Q1014=
201911141720 METAR ESMX 141720Z 11002KT 2500 BR BKN033 04/04 Q1014=
201911141650 METAR ESMX 141650Z 11002KT 3700 BR FEW016 BKN035 05/05 Q1013=
201911141620 METAR ESMX 141620Z 00000KT 8000 DZ SCT010 BKN025 05/05 Q1013=
201911141550 METAR ESMX 141550Z 18002KT 9999 BKN016 BKN022 06/05 Q1013=
201911141520 METAR ESMX 141520Z 15003KT 9999 BKN013 06/05 Q1012=
201911141450 METAR ESMX 141450Z 14003KT 9999 SCT010 BKN014 06/05 Q1011=
201911141420 METAR ESMX 141420Z 13004KT 9999 BKN009 06/05 Q1011=
201911141350 METAR ESMX 141350Z 14004KT 100V160 9999 FEW007 BKN009 06/05 Q1010=
201911141320 METAR ESMX 141320Z 14005KT 9999 SCT008 BKN010 06/05 Q1010=
201911141250 METAR ESMX 141250Z 14004KT 9999 SCT009 BKN053 06/05 Q1010=
201911141220 METAR ESMX 141220Z 18004KT 150V210 9999 FEW008 SCT011 BKN051 06/05 Q1009=
201911141150 METAR ESMX 141150Z 14004KT 9999 BKN047 06/05 Q1009=
201911141120 METAR ESMX 141120Z 16004KT 120V190 9999 BKN048 06/05 Q1008=
201911141050 METAR ESMX 141050Z 18006KT 9999 BKN048 06/05 Q1008=
201911141020 METAR ESMX 141020Z 17004KT 9999 BKN047 05/04 Q1008=
201911140950 METAR ESMX 140950Z 18004KT 9999 FEW032 BKN053 05/04 Q1007=
201911140920 METAR ESMX 140920Z VRB03KT 9999 FEW002 SCT012 BKN053 04/04 Q1007=
201911140850 METAR COR ESMX 140850Z 15003KT 8000 BR SCT002 BKN049 04/04 Q1006=
201911140820 METAR ESMX 140820Z 15003KT 2500 BR OVC002 03/03 Q1006=
201911140750 METAR ESMX 140750Z VRB02KT 0600 R01/0750U R19/0700U FG VV002 03/03 Q1005=
201911140720 METAR COR ESMX 140720Z 15002KT 0600 R01/1100N R19/0900U FG OVC002 03/03 Q1005=
201911140650 METAR ESMX 140650Z AUTO 18003KT 140V200 0200 R01/0650N R19/0550N FG VV002 03/03 Q1005=
201911140620 METAR ESMX 140620Z 19003KT 150V210 0500 R01/1000U R19/1100N FG VV002 04/04 Q1004=
201911140550 METAR ESMX 140550Z 17002KT 0700 R01/1000N R19/P2000N FG OVC002 04/04 Q1004=
201911140520 METAR ESMX 140520Z VRB02KT 0600 R01/1300N R19/1500D FG OVC002 04/04 Q1003=
201911140450 METAR ESMX 140450Z 00000KT 1100 R01/1900N R19/P2000N BR OVC002 04/04 Q1003=
201911140420 METAR ESMX 140420Z VRB01KT 0800 R01/1500U R19/P2000N FG OVC002 04/04 Q1003=
201911140350 METAR ESMX 140350Z AUTO VRB02KT 0300 R01/0800N R19/P2000N FG OVC001/// 04/04 Q1003=
201911140320 METAR ESMX 140320Z AUTO 00000KT 0300 R01/0900N R19/P2000N FG OVC001/// 04/04 Q1003=
201911140250 METAR ESMX 140250Z AUTO VRB02KT 0350 R01/1000N R19/P2000N FG OVC001/// 04/04 Q1002=
201911140220 METAR ESMX 140220Z AUTO VRB01KT 0400 R01/1100U R19/P2000D FG OVC001/// 04/04 Q1002=
201911140150 METAR ESMX 140150Z AUTO VRB02KT 0600 R01/1400U R19/P2000N FG OVC001/// 04/04 Q1002=
201911140120 METAR ESMX 140120Z AUTO VRB02KT 1700 OVC001/// 04/04 Q1002=
201911140050 METAR ESMX 140050Z AUTO 00000KT 1700 BR SCT002/// OVC017/// 04/04 Q1002=
201911140020 METAR ESMX 140020Z AUTO VRB02KT 2600 BR FEW002/// BKN005/// OVC017/// 04/04 Q1002=
201911132350 METAR ESMX 132350Z AUTO 00000KT 3600 BR BKN002/// OVC005/// 04/04 Q1002=
201911132320 METAR ESMX 132320Z AUTO 00000KT 3900 BR OVC002/// 04/04 Q1002=
201911132250 METAR ESMX 132250Z AUTO 00000KT 3500 BR OVC002/// 04/04 Q1002=
201911132220 METAR ESMX 132220Z AUTO VRB03KT 4200 BR OVC002/// 04/04 Q1002=
201911132150 METAR ESMX 132150Z AUTO VRB03KT 4700 BR BKN003/// OVC005/// 04/04 Q1002=
201911132120 METAR ESMX 132120Z 13004KT 100V160 5000 BR BKN004 04/04 Q1002=
201911132050 METAR ESMX 132050Z 13004KT 6000 BR FEW004 BKN006 05/05 Q1002=
201911132020 METAR ESMX 132020Z 14005KT 100V160 6000 BR OVC004 05/05 Q1001=
201911131950 METAR ESMX 131950Z 15004KT 120V190 8000 BR OVC004 05/05 Q1002=
201911131920 METAR ESMX 131920Z 13004KT 9000 BR BKN005 05/05 Q1001=
201911131850 METAR ESMX 131850Z VRB02KT 9000 BR BKN005 05/05 Q1001=
201911131820 METAR ESMX 131820Z VRB02KT 9000 BR BKN005 04/04 Q1001=
201911131750 METAR ESMX 131750Z 10003KT 060V140 9999 BKN007 05/05 Q1001=
201911131720 METAR ESMX 131720Z 09003KT 030V140 9999 SCT007 BKN012 05/05 Q1001=
201911131650 METAR ESMX 131650Z 11004KT 070V150 9999 BKN016 05/05 Q1001=
201911131620 METAR ESMX 131620Z 12003KT 9999 SCT014 BKN026 05/05 Q1001=
201911131550 METAR ESMX 131550Z 11003KT 060V140 9999 FEW013 BKN025 05/05 Q1001=
201911131520 METAR ESMX 131520Z 10003KT 060V130 9999 FEW007 BKN025 05/05 Q1001=
201911131450 METAR ESMX 131450Z VRB03KT 9999 FEW010 SCT013 05/05 Q1001=
201911131420 METAR ESMX 131420Z VRB03KT 9999 FEW012 SCT021 BKN047 06/05 Q1001=
201911131350 METAR ESMX 131350Z 13004KT 090V160 9000 BR FEW009 BKN012 06/05 Q1001=
201911131320 METAR ESMX 131320Z 13004KT 100V170 9999 SCT013 BKN019 06/05 Q1001=
201911131250 METAR ESMX 131250Z 14005KT 100V160 9999 BKN013 06/05 Q1001=
201911131220 METAR ESMX 131220Z 15005KT 9999 SCT009 06/05 Q1001=
201911131150 METAR ESMX 131150Z 15005KT 9999 SCT009 06/05 Q1001=
201911131120 METAR ESMX 131120Z 15006KT 9999 FEW008 06/05 Q1001=
201911131050 METAR ESMX 131050Z 13003KT 100V210 9999 FEW015 06/05 Q1001=
201911131020 METAR ESMX 131020Z 11004KT 9000 BR FEW045 05/05 Q1001=
201911130950 METAR ESMX 130950Z 12003KT 080V150 7000 BR NSC 05/05 Q1002=
201911130920 METAR ESMX 130920Z 11003KT 7000 BR FEW012 04/04 Q1002=
201911130850 METAR ESMX 130850Z 13004KT 100V170 7000 BR FEW012 SCT043 04/04 Q1002=
201911130820 METAR ESMX 130820Z 13005KT 9999 BKN044 04/04 Q1002=
201911130750 METAR ESMX 130750Z 14006KT 9999 FEW020 BKN045 04/04 Q1002=
201911130720 METAR ESMX 130720Z 14005KT 8000 BR SCT017 BKN043 04/04 Q1002=
201911130650 METAR ESMX 130650Z 12003KT 070V160 7000 BR BKN043 03/03 Q1002=
201911130620 METAR ESMX 130620Z 13004KT 6000 BR SCT041 03/03 Q1002=
201911130550 METAR ESMX 130550Z 14004KT 100V170 6000 BR FEW012 SCT046 03/03 Q1002=
201911130520 METAR ESMX 130520Z 13004KT 7000 BR FEW017 SCT046 03/03 Q1002=
201911130450 METAR ESMX 130450Z 12003KT 5000 BR FEW046 03/03 Q1002=
201911130420 METAR ESMX 130420Z AUTO VRB03KT 6000 BR FEW031/// BKN046/// 02/02 Q1002=
201911130350 METAR ESMX 130350Z AUTO VRB02KT 6000 BR BKN041/// 02/02 Q1002=
201911130320 METAR ESMX 130320Z AUTO 00000KT 3700 BR SCT041/// 02/02 Q1002=
201911130250 METAR ESMX 130250Z AUTO VRB02KT 4900 BR NCD 02/02 Q1002=
201911130220 METAR ESMX 130220Z AUTO VRB03KT 5000 BR FEW048/// 03/03 Q1002=
201911130150 METAR ESMX 130150Z AUTO VRB03KT 3900 BR FEW044/// 03/03 Q1002=
201911130120 METAR ESMX 130120Z AUTO VRB02KT 5000 BR FEW005/// OVC043/// 03/03 Q1003=
201911130050 METAR ESMX 130050Z AUTO 14003KT 6000 BR BKN005/// BKN010/// OVC015/// 03/03 Q1003 REUP=
201911130020 METAR ESMX 130020Z AUTO VRB03KT 8000 BR SCT006/// OVC045/// 03/03 Q1003=
201911122350 METAR ESMX 122350Z AUTO VRB03KT 7000 BR BKN006/// OVC037/// 03/03 Q1003 RESHUP REUP=
201911122320 METAR ESMX 122320Z AUTO VRB01KT 5000 BR BKN006/// OVC035/// 03/03 Q1004 RESHUP=
201911122250 METAR ESMX 122250Z AUTO 19003KT 9000 UP BKN025/// BKN035/// OVC044/// 04/03 Q1004 REDZ=
201911122220 METAR ESMX 122220Z AUTO 13004KT 070V160 9999 FEW014/// BKN020/// BKN033/// 04/03 Q1004 REDZ REUP=
201911122150 METAR ESMX 122150Z AUTO 13004KT 100V170 9999 FEW018/// BKN047/// 03/03 Q1004=
201911122120 METAR ESMX 122120Z AUTO 13005KT 9999 NCD 03/03 Q1004=
201911122050 METAR ESMX 122050Z 15005KT 9999 FEW047 03/02 Q1004=
201911122020 METAR ESMX 122020Z 14004KT 9999 BKN047 03/02 Q1004=
201911121950 METAR ESMX 121950Z 14005KT 110V170 9999 BKN046 03/02 Q1004=
201911121920 METAR ESMX 121920Z 15006KT 9999 BKN044 03/02 Q1004=
201911121850 METAR ESMX 121850Z 15008KT 9999 BKN041 04/03 Q1004=
201911121820 METAR ESMX 121820Z 15008KT 9999 BKN041 04/03 Q1004=
201911121750 METAR ESMX 121750Z 16006KT 9999 BKN035 04/03 Q1004=
201911121720 METAR ESMX 121720Z 15006KT 9999 BKN035 04/03 Q1003=
201911121650 METAR ESMX 121650Z 15007KT 9999 FEW018 BKN032 04/04 Q1004=
201911121620 METAR ESMX 121620Z 16007KT 9999 FEW024 BKN034 04/04 Q1004=
201911121550 METAR ESMX 121550Z 16008KT 9999 FEW024 BKN036 04/04 Q1004=
201911121520 METAR ESMX 121520Z 16009KT 9999 FEW010 BKN038 04/04 Q1003=
201911121450 METAR ESMX 121450Z 15007KT 9999 SCT029 BKN037 05/04 Q1002=
201911121420 METAR ESMX 121420Z 16008KT 9999 BKN031 05/04 Q1002=
201911121350 METAR ESMX 121350Z 16009KT 9999 FEW009 SCT024 BKN029 05/04 Q1002=
201911121320 METAR ESMX 121320Z 17011KT 9999 BKN010 BKN014 05/04 Q1002=
201911121250 METAR ESMX 121250Z 17010KT 9999 BKN007 05/04 Q1002=
201911121220 METAR ESMX 121220Z 16010KT 6000 -RA BKN008 05/05 Q1002=
201911121150 METAR ESMX 121150Z 15009KT 5000 -RA BKN010 BKN016 05/04 Q1002=
201911121120 METAR ESMX 121120Z 14009KT 8000 BR FEW003 SCT012 BKN018 05/04 Q1002 REDZ=
201911121050 METAR ESMX 121050Z 15009KT 110V170 9000 BR SCT013 BKN027 05/04 Q1002=
201911121020 METAR ESMX 121020Z 15008KT 8000 -RA FEW002 BKN009 05/04 Q1003=
201911120950 METAR ESMX 120950Z 15010KT 6000 -RA FEW002 BKN009 05/05 Q1003=
201911120920 METAR ESMX 120920Z 14008KT 5000 DZ BKN008 05/05 Q1003=
201911120850 METAR ESMX 120850Z 14008KT 100V160 5000 DZ BKN008 05/05 Q1003=
201911120820 METAR ESMX 120820Z 13009KT 090V160 6000 DZ BKN008 05/04 Q1003=
201911120750 METAR ESMX 120750Z 13009KT 090V160 8000 BR BKN008 05/04 Q1003=
201911120720 METAR ESMX 120720Z 13007KT 080V170 7000 BR BKN008 05/04 Q1003=
201911120650 METAR COR ESMX 120650Z 13007KT 060V210 8000 BR OVC008 05/04 Q1003=
201911120620 METAR ESMX 120620Z 13007KT 080V170 9000 BR BKN009 04/03 Q1003=
201911120550 METAR ESMX 120550Z 13006KT 070V160 9999 SCT009 BKN015 04/03 Q1003=
201911120520 METAR ESMX 120520Z 14007KT 100V180 9999 FEW020 SCT039 04/03 Q1004=
201911120450 METAR ESMX 120450Z 14006KT 090V200 9999 SCT020 04/03 Q1004=
201911120420 METAR ESMX 120420Z AUTO 12005KT 070V160 9999 FEW022/// 04/02 Q1004=
201911120350 METAR ESMX 120350Z AUTO 12006KT 070V160 9999 FEW120/// 04/02 Q1004=
201911120320 METAR ESMX 120320Z AUTO 12005KT 080V180 9999 FEW120/// 04/03 Q1005=
201911120250 METAR ESMX 120250Z AUTO 11004KT 020V180 9999 FEW007/// SCT031/// 04/03 Q1005=
201911120220 METAR ESMX 120220Z AUTO 11006KT 050V150 9999 BKN007/// BKN009/// 04/04 Q1005=
201911120150 METAR ESMX 120150Z AUTO 12006KT 060V160 9999 FEW008/// 04/03 Q1006=
201911120120 METAR ESMX 120120Z AUTO 13006KT 100V170 9999 BKN007/// BKN160/// 04/04 Q1006=
201911120050 METAR ESMX 120050Z AUTO 12006KT 090V160 9999 OVC006/// 04/04 Q1006=
201911120020 METAR ESMX 120020Z AUTO 13006KT 060V170 9999 BKN007/// OVC013/// 04/04 Q1006=
201911112350 METAR ESMX 112350Z AUTO 14008KT 9999 OVC007/// 04/04 Q1007=
201911112320 METAR ESMX 112320Z AUTO 13008KT 100V160 9999 BKN008/// OVC013/// 04/04 Q1007=
201911112250 METAR ESMX 112250Z AUTO 13008KT 100V170 9999 FEW007/// SCT017/// BKN190/// 04/04 Q1007=
201911112220 METAR ESMX 112220Z AUTO 14009KT 9999 FEW008/// 04/03 Q1007=
201911112150 METAR ESMX 112150Z AUTO 14008KT 110V170 9999 FEW009/// 04/03 Q1007=
201911112120 METAR ESMX 112120Z AUTO 14008KT 9999 SCT009/// 04/03 Q1007=
201911112050 METAR ESMX 112050Z AUTO 14008KT 110V170 9999 BKN008/// OVC047/// 04/03 Q1007=
201911112020 METAR ESMX 112020Z AUTO 13007KT 070V160 9999 SCT007/// BKN009/// OVC051/// 04/03 Q1007=
201911111950 METAR ESMX 111950Z 14005KT 100V180 9999 -RA BKN007 BKN011 04/03 Q1008=
201911111920 METAR ESMX 111920Z 13005KT 100V170 9999 FEW007 SCT014 BKN021 03/03 Q1008=
201911111850 METAR ESMX 111850Z 13005KT 110V170 9999 FEW020 SCT044 03/03 Q1008=
201911111820 METAR ESMX 111820Z 14007KT 100V170 9999 FEW020 SCT044 03/03 Q1008=
201911111750 METAR ESMX 111750Z 13005KT 9999 BKN013 04/03 Q1008=
201911111720 METAR ESMX 111720Z 14006KT 9999 SCT017 BKN036 03/03 Q1008=
201911111650 METAR ESMX 111650Z 14005KT CAVOK 03/03 Q1008=
201911111620 METAR ESMX 111620Z 15007KT CAVOK 04/03 Q1008=
201911111550 METAR ESMX 111550Z 16007KT 9999 FEW015 04/03 Q1008=
201911111520 METAR ESMX 111520Z 15008KT 9999 FEW015 05/04 Q1008=
201911111450 METAR ESMX 111450Z 15009KT 9999 FEW019 SCT025 05/04 Q1008=
201911111420 METAR ESMX 111420Z 14008KT 9999 FEW009 SCT019 BKN025 06/05 Q1008=
201911111350 METAR ESMX 111350Z 15009KT 9999 BKN021 06/05 Q1008=
201911111320 METAR ESMX 111320Z 15010KT 9999 SCT009 BKN053 06/05 Q1008=
201911111250 METAR ESMX 111250Z 15009KT 9999 BKN009 06/05 Q1008=
201911111220 METAR ESMX 111220Z 17007KT 9999 BKN008 06/05 Q1009=
201911111150 METAR ESMX 111150Z 17008KT 140V210 9999 BKN008 06/05 Q1009=
201911111120 METAR ESMX 111120Z 16008KT 9999 SCT008 BKN010 05/05 Q1009=
201911111050 METAR ESMX 111050Z 15009KT 9999 BKN006 BKN008 05/05 Q1009=
201911111020 METAR ESMX 111020Z 15008KT 6000 BR BKN004 05/05 Q1009=
201911110950 METAR ESMX 110950Z 15009KT 6000 BR OVC003 04/04 Q1009=
201911110920 METAR ESMX 110920Z 15008KT 8000 BR OVC004 04/04 Q1009=
201911110850 METAR ESMX 110850Z 15008KT 9000 BR OVC004 04/04 Q1009=
201911110820 METAR ESMX 110820Z 15009KT 9999 BKN003 03/03 Q1009=
201911110750 METAR ESMX 110750Z 14009KT 5000 BR OVC002 03/03 Q1009=
201911110725 METAR ESMX 110725Z 14009KT 4400 BR OVC002 02/02 Q1009=
201911110620 METAR ESMX 110620Z AUTO 13008KT 1600 OVC001/// 02/02 Q1009 REDZ=
201911110550 METAR ESMX 110550Z 13009KT 100V160 1400 R01/P2000N R19/P2000N -RA OVC002 02/02 Q1010=
201911110520 METAR ESMX 110520Z 13007KT 090V160 0650 R01/1700D R19/P2000N FG OVC002 01/01 Q1010=
201911110450 METAR ESMX 110450Z 13005KT 080V170 1000 R01/P2000N R19/P2000N BKN001 01/01 Q1010=
201911110420 METAR ESMX 110420Z AUTO 12005KT 070V160 1800 OVC001/// 01/01 Q1010=
201911110350 METAR ESMX 110350Z AUTO 15005KT 1100 R01/P2000N R19/P2000N OVC001/// 01/01 Q1011=
201911110320 METAR ESMX 110320Z AUTO 14005KT 110V180 0650 R01/1600N R19/P2000N FG OVC001/// 01/01 Q1011 REUP=
201911110250 METAR ESMX 110250Z AUTO 12004KT 070V160 1000 R01/P2000N R19/P2000N FG OVC001/// 01/01 Q1011=
201911110220 METAR ESMX 110220Z AUTO 13005KT 090V170 0350 R01/1300U R19/1000U FG SCT001/// OVC002/// 01/01 Q1012 REUP=
201911110150 METAR ESMX 110150Z AUTO 14003KT 080V200 0250 R01/0750N R19/0900D FG VV002 01/01 Q1012=
201911110120 METAR ESMX 110120Z AUTO VRB03KT 0500 R01/1600D R19/P2000N FG OVC001/// 00/00 Q1012=
201911110050 METAR ESMX 110050Z AUTO 14005KT 100V170 1600 BR OVC002/// 00/00 Q1012=
201911110020 METAR ESMX 110020Z AUTO 14005KT 100V170 9999 OVC002/// 00/00 Q1012=
201911102350 METAR ESMX 102350Z AUTO VRB02KT 9999 OVC003/// 01/00 Q1012=
201911102320 METAR ESMX 102320Z AUTO 10003KT 070V140 9999 OVC004/// 01/01 Q1012=
201911102250 METAR ESMX 102250Z AUTO VRB03KT 9999 OVC004/// 01/01 Q1012=
201911102220 METAR ESMX 102220Z AUTO 20004KT 9999 OVC005/// 01/01 Q1013=
201911102150 METAR ESMX 102150Z VRB02KT 9999 OVC005 01/01 Q1013=
201911102120 METAR COR ESMX 102120Z 00000KT 9999 OVC005 01/01 Q1013=
201911102050 METAR ESMX 102050Z 02002KT 9999 OVC006 01/01 Q1013=
201911102020 METAR ESMX 102020Z 28002KT 9999 OVC006 01/01 Q1013=
201911101950 METAR ESMX 101950Z VRB02KT 9999 OVC006 01/01 Q1013=
201911101920 METAR COR ESMX 101920Z VRB02KT 9999 OVC006 01/01 Q1013=
201911101850 METAR COR ESMX 101850Z VRB03KT 9999 OVC006 01/01 Q1013=
201911101820 METAR COR ESMX 101820Z 34005KT 9999 OVC006 01/01 Q1013=
201911101750 METAR ESMX 101750Z 36004KT 9999 BKN006 01/01 Q1013=
201911101720 METAR ESMX 101720Z 01005KT 340V050 9999 BKN007 01/01 Q1013=
201911101650 METAR ESMX 101650Z 32003KT 9999 BKN007 01/01 Q1013=
201911101620 METAR ESMX 101620Z 34004KT 9999 BKN008 01/01 Q1013=
201911101550 METAR ESMX 101550Z 35005KT 9999 SCT007 BKN009 BKN026 01/01 Q1012=
201911101520 METAR ESMX 101520Z 35005KT 9999 BKN007 01/01 Q1012=
201911101450 METAR ESMX 101450Z 34007KT 9999 BKN007 BKN009 01/01 Q1012=
201911101420 METAR ESMX 101420Z 33006KT 9999 BKN008 01/01 Q1012=
201911101350 METAR ESMX 101350Z 34008KT 9999 BKN008 01/01 Q1012=
201911101320 METAR ESMX 101320Z 34008KT 9999 FEW006 BKN008 02/01 Q1012=
201911101250 METAR ESMX 101250Z 32008KT 9999 -DZ BKN006 01/01 Q1011 RESN=
201911101220 METAR ESMX 101220Z 36007KT 8000 BR BKN006 BKN010 01/01 Q1011=
201911101150 METAR ESMX 101150Z 35007KT 5000 -RASN BKN007 BKN010 02/01 Q1011=
201911101120 METAR ESMX 101120Z 33007KT 8000 -RASN SCT002 BKN005 BKN011 01/01 Q1011=
201911101050 METAR ESMX 101050Z AUTO 32008KT 9000 -RA BKN005/// BKN013/// OVC017/// 01/01 Q1011=
201911101020 METAR ESMX 101020Z AUTO 33006KT 9999 -SN OVC006/// 02/01 Q1010=
201911100950 METAR ESMX 100950Z 34006KT 9999 -SN BKN006 OVC015 02/01 Q1010=
201911100920 METAR ESMX 100920Z 34006KT 9999 -SN BKN007 02/01 Q1010=
201911100850 METAR ESMX 100850Z 33007KT 9999 -SN BKN007 OVC015 01/01 Q1010=
201911100820 METAR COR ESMX 100820Z 33009KT 9999 -SN BKN007 01/01 Q1009=
201911100750 METAR COR ESMX 100750Z 31006KT 8000 -SN OVC006 01/01 Q1009=
201911100720 METAR ESMX 100720Z 31005KT 9000 -RA OVC005 01/01 Q1009=
201911100650 METAR ESMX 100650Z 30004KT 280V360 7000 -RADZ OVC005 01/01 Q1008=
201911100620 METAR COR ESMX 100620Z 31006KT 8000 -RADZ OVC006 01/01 Q1008=
201911100550 METAR ESMX 100550Z AUTO 33008KT 9999 OVC006/// 01/01 Q1008=
201911100520 METAR ESMX 100520Z AUTO 33008KT 9999 -DZ OVC005/// 01/01 Q1007=
201911100450 METAR ESMX 100450Z AUTO 33007KT 9000 -DZ OVC005/// 02/01 Q1007=
201911100420 METAR ESMX 100420Z AUTO 34008KT 9999 -RA OVC005/// 02/01 Q1007 REDZ=
201911100350 METAR ESMX 100350Z AUTO 35008KT 9999 -DZ OVC006/// 02/02 Q1007=
201911100320 METAR ESMX 100320Z AUTO 36008KT 9999 -DZ OVC006/// 02/02 Q1006=
201911100250 METAR ESMX 100250Z AUTO 35009KT 9999 -DZ OVC006/// 02/02 Q1006=
201911100220 METAR ESMX 100220Z AUTO 35009KT 9999 -DZ OVC006/// 02/02 Q1006=
201911100150 METAR ESMX 100150Z AUTO 35009KT 9999 DZ OVC006/// 02/02 Q1006 REDZ=
201911100120 METAR ESMX 100120Z AUTO 34008KT 9999 DZ OVC005/// 03/02 Q1005=
201911100050 METAR ESMX 100050Z AUTO 34008KT 9999 DZ OVC005/// 03/03 Q1005=
201911100020 METAR ESMX 100020Z AUTO 36007KT 9999 -RA OVC005/// 03/03 Q1005 REDZ=
201911092350 METAR ESMX 092350Z AUTO 34008KT 9999 DZ OVC005/// 03/03 Q1005=
201911092320 METAR ESMX 092320Z AUTO 01008KT 9999 DZ OVC005/// 03/03 Q1005 REDZ=
201911092250 METAR ESMX 092250Z AUTO 35008KT 9999 DZ OVC005/// 03/03 Q1005 REDZ=
201911092220 METAR ESMX 092220Z AUTO 36008KT 9999 DZ OVC005/// 03/03 Q1005=
201911092150 METAR ESMX 092150Z AUTO 35008KT 9999 DZ OVC005/// 04/03 Q1005=
201911092120 METAR ESMX 092120Z AUTO 35008KT 9999 -RA OVC005/// 04/04 Q1005=
201911092050 METAR ESMX 092050Z AUTO 01008KT 9999 -RA OVC005/// 04/04 Q1005=
201911092020 METAR ESMX 092020Z AUTO 36008KT 9999 -RA OVC006/// 04/04 Q1005=
201911091950 METAR ESMX 091950Z AUTO 35009KT 9999 DZ OVC005/// 04/04 Q1005=
201911091920 METAR ESMX 091920Z AUTO 35009KT 9999 -RA OVC004/// 04/04 Q1005=
201911091850 METAR ESMX 091850Z AUTO 01008KT 7000 RA BKN004/// OVC011/// 04/04 Q1005=
201911091820 METAR ESMX 091820Z AUTO 02008KT 5000 -RA OVC004/// 05/05 Q1005=
201911091750 METAR ESMX 091750Z AUTO 01008KT 9000 RA BKN005/// OVC008/// 05/05 Q1005=
201911091720 METAR ESMX 091720Z AUTO 01007KT 7000 RA OVC004/// 05/05 Q1005=
201911091650 METAR ESMX 091650Z AUTO 36006KT 5000 -RA OVC003/// 05/05 Q1005=
201911091620 METAR ESMX 091620Z AUTO 01007KT 9999 -RA OVC004/// 05/05 Q1004=
201911091550 METAR ESMX 091550Z AUTO 01007KT 9999 -RA OVC003/// 06/06 Q1004=
201911091520 METAR ESMX 091520Z AUTO 01006KT 9999 -RA OVC003/// 06/06 Q1004 REDZ=
201911091450 METAR ESMX 091450Z AUTO 01005KT 9999 -DZ OVC003/// 06/06 Q1004=
201911091420 METAR ESMX 091420Z AUTO 36005KT 9999 -DZ OVC002/// 06/06 Q1004 REDZ=
201911091350 METAR ESMX 091350Z AUTO 02004KT 9000 DZ OVC002/// 06/06 Q1004=
201911091320 METAR ESMX 091320Z AUTO 36005KT 5000 -RA OVC002/// 06/06 Q1004 REDZ=
201911091250 METAR ESMX 091250Z AUTO 35005KT 5000 DZ OVC001/// 06/06 Q1004=
201911091220 METAR ESMX 091220Z AUTO 03004KT 5000 -RA OVC001/// 06/06 Q1004=
201911091150 METAR ESMX 091150Z AUTO 36005KT 6000 -RA OVC002/// 06/06 Q1005 REDZ=
201911091120 METAR ESMX 091120Z AUTO 35004KT 7000 -DZ OVC002/// 06/06 Q1005=
201911091050 METAR ESMX 091050Z AUTO 03004KT 9999 -RA OVC002/// 06/06 Q1005 REDZ=
201911091020 METAR ESMX 091020Z AUTO 36004KT 8000 -RA BKN003/// OVC008/// 06/06 Q1006=
201911090950 METAR ESMX 090950Z AUTO 03004KT 9999 -RA BKN003/// OVC005/// 06/06 Q1006=
201911090920 METAR ESMX 090920Z AUTO VRB03KT 9999 -DZ FEW003/// SCT005/// OVC022/// 06/06 Q1006=
201911090850 METAR ESMX 090850Z AUTO 07004KT 6000 -DZ FEW003/// BKN023/// OVC034/// 05/05 Q1006=
201911090820 METAR ESMX 090820Z AUTO 07004KT 3700 -RA BKN002/// OVC035/// 05/05 Q1006 REUP RERA=
201911090750 METAR ESMX 090750Z AUTO 02003KT 3600 UP OVC003/// 05/05 Q1006=
201911090720 METAR ESMX 090720Z AUTO 03004KT 4400 -DZ OVC003/// 05/05 Q1006=
201911090650 METAR ESMX 090650Z AUTO 03005KT 5000 -RA BKN003/// OVC011/// 05/05 Q1006 REDZ=
201911090620 METAR ESMX 090620Z AUTO 03006KT 6000 -RA FEW004/// OVC011/// 04/04 Q1006 REDZ=
201911090550 METAR ESMX 090550Z AUTO 04004KT 8000 -DZ BKN014/// OVC016/// 04/04 Q1007 REUP=
201911090520 METAR ESMX 090520Z AUTO 36004KT 8000 BR FEW004/// OVC015/// 04/04 Q1007=
201911090450 METAR ESMX 090450Z AUTO 35004KT 6000 BR FEW009/// OVC015/// 04/04 Q1007=
201911090420 METAR ESMX 090420Z AUTO 01005KT 7000 BR FEW003/// BKN098/// 04/04 Q1007=
201911090350 METAR ESMX 090350Z AUTO 01004KT 6000 BR SCT003/// BKN009/// OVC090/// 04/04 Q1007=
201911090320 METAR ESMX 090320Z AUTO 35005KT 3100 OVC002/// 04/04 Q1007=
201911090250 METAR ESMX 090250Z AUTO 35005KT 1100 R01/P2000N R19/P2000N OVC001/// 04/04 Q1007=
201911090220 METAR ESMX 090220Z AUTO 01004KT 0450 R01/1100U R19/P2000N FG OVC001/// 04/04 Q1007=
201911090150 METAR ESMX 090150Z AUTO 01003KT 0250 R01/0800N R19/1100U FG OVC001/// 04/04 Q1008=
201911090120 METAR ESMX 090120Z AUTO 02004KT 0200 R01/0700N R19/0900N FG OVC001/// 04/04 Q1008=
201911090050 METAR ESMX 090050Z AUTO 02003KT 0150 R01/0600N R19/0900U FG OVC001/// 04/04 Q1008=
201911090020 METAR ESMX 090020Z AUTO 04003KT 0150 R01/0500N R19/0700N FG SCT001/// OVC002/// 04/04 Q1008=
201911082350 METAR ESMX 082350Z AUTO 02003KT 0100 R01/0450N R19/0650N FG OVC001/// 04/04 Q1009=
201911082320 METAR ESMX 082320Z AUTO 01003KT 0150 R01/0500N R19/0650N FG VV002 03/03 Q1009=
201911082250 METAR ESMX 082250Z AUTO VRB01KT 0150 R01/0600N R19/0700N FG VV002 01/01 Q1009=
201911082220 METAR ESMX 082220Z AUTO 00000KT 0050 R01/0275N R19/0350N FG OVC001/// 02/02 Q1009=
201911082150 METAR ESMX 082150Z AUTO 00000KT 0150 R01/0450N R19/0500N FG VV002 01/01 Q1009=
201911082120 METAR COR ESMX 082120Z 00000KT 0100 R01/0550N R19/0550N FG VV002 01/01 Q1009=
201911082050 METAR ESMX 082050Z 00000KT 0100 R01/0400N R19/0450N FG VV002 01/01 Q1009=
201911082020 METAR ESMX 082020Z 00000KT 0300 R01/0450N R19/0650N FG VV003 00/00 Q1009=
201911081950 METAR COR ESMX 081950Z 00000KT 0150 R01/1200U R19/0600N FG VV003 01/01 Q1009=
201911081920 METAR ESMX 081920Z 00000KT 0250 R01/0225N R19/0400N FG VV002 01/01 Q1009=
201911081850 METAR ESMX 081850Z 12001KT 0400 R01/1300U R19/0650N FG VV002 02/02 Q1009=
201911081820 METAR ESMX 081820Z 15001KT 0100 R01/0450N R19/0450N FG VV002 02/02 Q1009=
201911081750 METAR ESMX 081750Z 18002KT 0150 R01/0450N R19/0550N FG FEW014 OVC170 04/04 Q1009=
201911081720 METAR ESMX 081720Z 17003KT 0800 R01/P2000N R19/0600N PRFG SCT014 BKN180 04/04 Q1009=
201911081650 METAR ESMX 081650Z 16003KT 0900 R01/P2000N R19/1200D PRFG SCT029 05/05 Q1008=
201911081620 METAR ESMX 081620Z 15003KT 1200 R01/P2000N R19/1100U BCFG FEW029 04/04 Q1008=
201911081550 METAR ESMX 081550Z 18002KT 1700 PRFG NSC 05/05 Q1008=
201911081520 METAR ESMX 081520Z 15005KT 6000 BR FEW010 06/06 Q1008=
201911081450 METAR ESMX 081450Z 17004KT 7000 BR FEW008 07/07 Q1008=
201911081420 METAR ESMX 081420Z 17005KT 8000 BR FEW008 07/07 Q1008=
201911081350 METAR COR ESMX 081350Z 16005KT 9999 FEW015 08/07 Q1008=
201911081320 METAR ESMX 081320Z 17005KT 9999 FEW014 SCT030 08/07 Q1007=
201911081250 METAR ESMX 081250Z 17005KT 9000 BR SCT030 08/07 Q1007=
201911081220 METAR ESMX 081220Z 17006KT 9999 FEW007 BKN031 08/08 Q1007=
201911081150 METAR ESMX 081150Z 18008KT 9000 BR SCT007 BKN030 08/08 Q1007=
201911081120 METAR ESMX 081120Z 17007KT 6000 BR BKN006 08/08 Q1007=
201911081050 METAR ESMX 081050Z 15006KT 4100 BR BKN005 08/08 Q1007=
201911081020 METAR ESMX 081020Z 15005KT 3300 BR BKN003 07/07 Q1007=
201911080950 METAR ESMX 080950Z 14006KT 3200 BR OVC002 07/07 Q1007=
201911080920 METAR ESMX 080920Z 13005KT 100V160 3200 -RA OVC002 07/07 Q1007=
201911080850 METAR ESMX 080850Z VRB03KT 2700 DZ OVC002 06/06 Q1007=
201911080820 METAR ESMX 080820Z 08003KT 040V130 1800 BR OVC002 05/05 Q1007=
201911080750 METAR ESMX 080750Z 09004KT 040V140 6000 BR OVC002 05/05 Q1006=
201911080720 METAR ESMX 080720Z VRB04KT 9999 OVC003 05/05 Q1006=
201911080650 METAR ESMX 080650Z 08005KT 030V130 9999 BKN003 04/04 Q1006=
201911080620 METAR ESMX 080620Z 08004KT 020V150 9999 BKN003 04/04 Q1006=
201911080550 METAR ESMX 080550Z 06006KT 010V100 9999 DZ BKN005 04/04 Q1006=
201911080520 METAR ESMX 080520Z 07005KT 010V130 9999 BKN006 04/04 Q1006=
201911080450 METAR ESMX 080450Z 08004KT 010V150 9999 DZ BKN005 04/04 Q1006=
201911080420 METAR ESMX 080420Z AUTO 07004KT 020V120 9999 OVC005/// 04/04 Q1007=
201911080350 METAR ESMX 080350Z AUTO 08005KT 030V120 9999 -DZ OVC005/// 04/04 Q1007=
201911080320 METAR ESMX 080320Z AUTO 08004KT 030V130 9999 -DZ OVC005/// 04/04 Q1007 RESHUP REUP=
201911080250 METAR ESMX 080250Z AUTO 07004KT 020V140 9999 OVC005/// 04/03 Q1007=
201911080220 METAR ESMX 080220Z AUTO 06005KT 020V100 9999 OVC005/// 03/03 Q1007=
201911080150 METAR ESMX 080150Z AUTO 06005KT 020V090 9999 BKN005/// BKN011/// OVC094/// 03/03 Q1007=
201911080120 METAR ESMX 080120Z AUTO 06005KT 030V090 9999 OVC004/// 03/03 Q1007=
201911080050 METAR ESMX 080050Z AUTO 07004KT 010V110 9999 OVC004/// 03/03 Q1007=
201911080020 METAR ESMX 080020Z AUTO 07004KT 020V100 9999 OVC005/// 03/03 Q1007=
201911072350 METAR ESMX 072350Z AUTO 08004KT 040V140 9999 SCT005/// BKN025/// OVC042/// 03/03 Q1007=
201911072320 METAR ESMX 072320Z AUTO 06004KT 010V110 9999 BKN005/// OVC042/// 03/03 Q1007=
201911072250 METAR ESMX 072250Z AUTO 08004KT 040V110 9999 OVC006/// 03/03 Q1007=
201911072220 METAR ESMX 072220Z AUTO 06004KT 030V110 9999 OVC006/// 03/03 Q1007=
201911072150 METAR ESMX 072150Z AUTO VRB03KT 9999 BKN006/// BKN030/// OVC046/// 03/03 Q1007 REUP=
201911072120 METAR ESMX 072120Z AUTO 07004KT 020V120 9999 FEW007/// SCT036/// OVC049/// 03/03 Q1007=
201911072050 METAR ESMX 072050Z 06003KT 010V090 9999 FEW028 BKN049 03/03 Q1007=
201911072020 METAR ESMX 072020Z 05003KT 9999 BKN029 03/03 Q1007=
201911071950 METAR ESMX 071950Z VRB02KT 9999 BKN029 03/03 Q1007=
201911071920 METAR ESMX 071920Z VRB03KT 9999 FEW009 BKN027 03/03 Q1006=
201911071850 METAR ESMX 071850Z AUTO 08004KT 050V150 9999 SCT009/// OVC027/// 03/03 Q1006=
201911071820 METAR ESMX 071820Z 09003KT 050V120 9999 SCT008 BKN023 03/03 Q1006=
201911071750 METAR ESMX 071750Z 10004KT 060V140 9999 BKN007 03/03 Q1006=
201911071720 METAR ESMX 071720Z 10005KT 040V150 9999 BKN008 03/03 Q1006=
201911071650 METAR ESMX 071650Z 09004KT 050V140 9999 FEW007 BKN029 03/03 Q1006=
201911071620 METAR ESMX 071620Z 07004KT 020V110 9999 FEW008 BKN029 03/03 Q1005=
201911071550 METAR ESMX 071550Z 07003KT 9999 FEW007 BKN026 03/03 Q1005=
201911071520 METAR ESMX 071520Z VRB03KT 9999 FEW006 SCT014 BKN022 03/03 Q1005=
201911071450 METAR ESMX 071450Z VRB02KT 9999 BKN019 03/03 Q1005=
201911071420 METAR ESMX 071420Z VRB02KT 9999 FEW012 BKN022 03/03 Q1005=
201911071350 METAR ESMX 071350Z VRB03KT 9999 FEW006 SCT012 BKN022 04/03 Q1005=
201911071320 METAR ESMX 071320Z VRB03KT 9999 BKN007 04/03 Q1005=
201911071250 METAR ESMX 071250Z 12003KT 090V170 9999 BKN010 04/03 Q1005=
201911071220 METAR ESMX 071220Z VRB03KT 9999 BKN008 04/03 Q1004=
201911071150 METAR ESMX 071150Z 12003KT 080V200 9999 BKN007 03/03 Q1004=
201911071120 METAR ESMX 071120Z 12003KT 060V210 9999 BKN006 03/03 Q1004=
201911071050 METAR ESMX 071050Z VRB03KT 9999 BKN005 03/02 Q1004=
201911071020 METAR ESMX 071020Z VRB03KT 9999 BKN005 02/02 Q1004=
201911070950 METAR ESMX 070950Z 04004KT 9999 BKN006 02/02 Q1004=
201911070920 METAR ESMX 070920Z VRB03KT 9999 BKN005 01/01 Q1004=
201911070850 METAR ESMX 070850Z 02003KT 5000 BR BKN002 01/01 Q1004=
201911070820 METAR COR ESMX 070820Z 03002KT 5000 BR BKN006 01/01 Q1004=
201911070750 METAR ESMX 070750Z 04003KT 5000 -SN BKN008 01/00 Q1004=
201911070720 METAR ESMX 070720Z 03003KT 3700 -SN BKN009 01/00 Q1004=
201911070650 METAR ESMX 070650Z 00000KT 9999 -SN FEW010 BKN020 01/00 Q1003=
201911070620 METAR ESMX 070620Z 01003KT 5000 BR BKN014 01/00 Q1003=
201911070550 METAR COR ESMX 070550Z 00000KT 6000 -SN BKN017 01/00 Q1003=
201911070520 METAR ESMX 070520Z 01002KT 7000 -RASN BKN014 00/00 Q1003=
201911070450 METAR ESMX 070450Z 35003KT 3800 -RASN BKN013 BKN031 01/M00 Q1003=
201911070420 METAR ESMX 070420Z AUTO 06003KT 020V120 3800 -RASN FEW009/// SCT015/// OVC033/// 01/M00 Q1003 RESHUP RESN=
201911070350 METAR ESMX 070350Z AUTO 01004KT 9999 FEW024/// BKN034/// OVC049/// 01/M01 Q1002=
201911070320 METAR ESMX 070320Z AUTO VRB02KT 9999 -RA FEW021/// OVC032/// 01/M01 Q1002=
201911070250 METAR ESMX 070250Z AUTO 02003KT 8000 -SN FEW022/// BKN030/// OVC043/// 01/M01 Q1002=
201911070220 METAR ESMX 070220Z AUTO 04003KT 9999 OVC032/// 01/M01 Q1002=
201911070150 METAR ESMX 070150Z AUTO 04005KT 9999 -SN OVC022/// 01/M01 Q1002 REUP=
201911070120 METAR ESMX 070120Z AUTO 04006KT 9999 SCT023/// OVC045/// 01/M02 Q1002=
201911070050 METAR ESMX 070050Z AUTO 04005KT 350V080 9999 OVC045/// 01/M02 Q1002=
201911070020 METAR ESMX 070020Z AUTO 04004KT 9999 OVC044/// 01/M02 Q1002=
201911062350 METAR ESMX 062350Z AUTO 04006KT 9999 OVC043/// 01/M02 Q1002=
201911062320 METAR ESMX 062320Z AUTO 04006KT 010V080 9999 OVC042/// 01/M02 Q1002=
201911062250 METAR ESMX 062250Z AUTO 03005KT 9999 FEW018/// OVC043/// 01/M01 Q1002=
201911062220 METAR ESMX 062220Z AUTO 01006KT 9999 OVC041/// 01/M01 Q1002=
201911062150 METAR ESMX 062150Z AUTO 01005KT 9999 OVC042/// 01/M01 Q1002=
201911062120 METAR ESMX 062120Z AUTO 01007KT 9999 OVC046/// 01/M01 Q1002=
201911062050 METAR ESMX 062050Z 01007KT 9999 FEW034 BKN046 01/M01 Q1001=
201911062020 METAR COR ESMX 062020Z 02007KT 9999 BKN045 01/M01 Q1001=
201911061950 METAR ESMX 061950Z 01007KT 9999 BKN044 01/M01 Q1001=
201911061920 METAR ESMX 061920Z AUTO 36007KT 9999 SCT036/// OVC043/// 01/M00 Q1001=
201911061850 METAR ESMX 061850Z 01007KT 9999 FEW012 BKN025 01/M00 Q1001=
201911061820 METAR ESMX 061820Z 01007KT 9999 BKN024 01/M00 Q1001=
201911061750 METAR ESMX 061750Z 01007KT 9999 BKN026 01/M00 Q1001=
201911061720 METAR ESMX 061720Z 35007KT 9999 -SN BKN040 01/M00 Q1001=
201911061650 METAR ESMX 061650Z 35007KT 9999 FEW029 BKN041 01/M00 Q1000=
201911061620 METAR ESMX 061620Z 01006KT 9999 FEW013 BKN042 02/M00 Q1000=
201911061550 METAR ESMX 061550Z 02006KT 9999 -SN FEW012 BKN025 02/M00 Q1000=
201911061520 METAR ESMX 061520Z 01006KT 350V050 9999 FEW012 BKN025 02/M00 Q1000=
201911061450 METAR ESMX 061450Z 02008KT 9999 BKN014 BKN038 02/M00 Q1000=
201911061420 METAR ESMX 061420Z 01007KT 9999 BKN014 BKN038 02/00 Q1000=
201911061350 METAR ESMX 061350Z 02007KT 9999 FEW012 SCT031 BKN039 02/00 Q0999=
201911061320 METAR ESMX 061320Z 03007KT 9999 FEW014 BKN035 03/00 Q0999=
201911061250 METAR ESMX 061250Z 02009KT 350V060 9999 FEW025 BKN040 03/M00 Q0999=
201911061220 METAR ESMX 061220Z 36009KT 9999 BKN038 02/M00 Q0999=
201911061150 METAR ESMX 061150Z 01009KT 9999 BKN038 02/M00 Q0999=
201911061120 METAR ESMX 061120Z 34008KT 9999 FEW014 BKN036 02/M01 Q0999=
201911061050 METAR ESMX 061050Z 35008KT 9999 BKN035 02/M01 Q0999=
201911061020 METAR ESMX 061020Z 34009KT 9999 BKN034 01/M01 Q0999=
201911060950 METAR ESMX 060950Z 33006KT 290V360 9999 BKN032 01/M01 Q0999=
201911060920 METAR ESMX 060920Z 34008KT 9999 BKN030 01/M01 Q0999=
201911060850 METAR ESMX 060850Z 35009KT 9999 BKN029 00/M01 Q0999=
201911060820 METAR ESMX 060820Z 35010KT 9999 BKN023 00/M02 Q0999=
201911060750 METAR ESMX 060750Z 36009KT 9999 BKN027 00/M02 Q0999=
201911060720 METAR ESMX 060720Z 35009KT 9999 BKN027 M00/M02 Q0999=
201911060650 METAR ESMX 060650Z 35009KT 9999 BKN027 M00/M02 Q0999=
201911060620 METAR ESMX 060620Z 34009KT 9999 BKN026 M00/M02 Q0999=
201911060550 METAR ESMX 060550Z 35009KT 9999 BKN026 M00/M02 Q0998=
201911060520 METAR ESMX 060520Z 35009KT 9999 BKN026 M00/M02 Q0999=
201911060450 METAR ESMX 060450Z 35010KT 9999 BKN025 M00/M02 Q0998=
201911060420 METAR ESMX 060420Z AUTO 35009KT 9999 OVC025/// M00/M02 Q0999=
201911060350 METAR ESMX 060350Z AUTO 35010KT 9999 OVC026/// M01/M02 Q0999=
201911060320 METAR ESMX 060320Z AUTO 35011KT 9999 OVC026/// M01/M02 Q0999=
201911060250 METAR ESMX 060250Z AUTO 35010KT 9999 OVC025/// M01/M02 Q0999=
201911060220 METAR ESMX 060220Z AUTO 36010KT 9999 OVC025/// M01/M02 Q0999=
201911060150 METAR ESMX 060150Z AUTO 36011KT 9999 OVC025/// M01/M02 Q0999=
201911060120 METAR ESMX 060120Z AUTO 36010KT 9999 OVC025/// M01/M02 Q0999=
201911060050 METAR ESMX 060050Z AUTO 34010KT 9999 OVC025/// M01/M02 Q0999=
201911060020 METAR ESMX 060020Z AUTO 35010KT 9999 OVC025/// M01/M02 Q0999=
201911052350 METAR ESMX 052350Z AUTO 35011KT 9999 OVC024/// M00/M02 Q0999=
201911052320 METAR ESMX 052320Z AUTO 35010KT 9999 OVC023/// M00/M02 Q0999=
201911052250 METAR ESMX 052250Z AUTO 35010KT 9999 OVC022/// M00/M02 Q0999=
201911052220 METAR ESMX 052220Z AUTO 35010KT 9999 OVC022/// M00/M02 Q0999=
201911052150 METAR ESMX 052150Z AUTO 35010KT 9999 OVC022/// M00/M02 Q0999=
201911052120 METAR ESMX 052120Z 36010KT 9999 OVC023 M00/M02 Q0999=
201911052050 METAR ESMX 052050Z 36009KT 9999 BKN025 M01/M02 Q0999=
201911052020 METAR ESMX 052020Z 01009KT CAVOK M01/M03 Q0999=
201911051950 METAR ESMX 051950Z 01011KT CAVOK M00/M03 Q0999=
201911051920 METAR ESMX 051920Z 02011KT CAVOK 00/M03 Q0999=
201911051850 METAR ESMX 051850Z 01011KT CAVOK 00/M02 Q0999=
201911051820 METAR ESMX 051820Z 35010KT CAVOK 01/M02 Q0999=
201911051750 METAR ESMX 051750Z 02010KT CAVOK 01/M02 Q0999=
201911051720 METAR ESMX 051720Z 01010KT CAVOK 01/M02 Q0999=
201911051650 METAR ESMX 051650Z 02009KT 9999 FEW020 SCT050 01/M02 Q0999=
201911051620 METAR COR ESMX 051620Z 01011KT 9999 SCT020 BKN050 01/M02 Q0999=
201911051550 METAR ESMX 051550Z 36012KT 9999 SCT021 BKN051 01/M02 Q0999=
201911051520 METAR ESMX 051520Z 36010KT 9999 BKN018 01/M01 Q0999=
201911051450 METAR ESMX 051450Z 02010KT 9999 -SN BKN017 01/M01 Q0999 RERA=
201911051420 METAR ESMX 051420Z 01011KT 9999 -SN BKN013 BKN016 01/M01 Q0998=
201911051350 METAR ESMX 051350Z 01011KT 9999 BKN010 01/M00 Q0998=
201911051320 METAR ESMX 051320Z 36012KT 9999 BKN008 01/00 Q0998=
201911051250 METAR ESMX 051250Z 36011KT 9999 BKN007 01/00 Q0998=
201911051220 METAR ESMX 051220Z 01012KT 9999 -SN BKN006 01/00 Q0998=
201911051150 METAR ESMX 051150Z 01010KT 9999 -SN BKN006 01/01 Q0998=
201911051120 METAR ESMX 051120Z 36012KT 9999 -SN BKN007 01/00 Q0997=
201911051050 METAR ESMX 051050Z 02011KT 9999 BKN005 01/01 Q0997=
201911051020 METAR ESMX 051020Z 01012KT 9999 BKN005 01/01 Q0997=
201911050950 METAR ESMX 050950Z 01012KT 9999 BKN006 01/01 Q0997=
201911050920 METAR ESMX 050920Z 02011KT 9999 BKN005 01/01 Q0997=
201911050850 METAR ESMX 050850Z 02012KT 9999 BKN005 01/01 Q0997=
201911050820 METAR ESMX 050820Z 02013KT 9999 BR BKN004 01/01 Q0997=
201911050750 METAR ESMX 050750Z 01013KT 9999 BKN005 01/01 Q0997=
201911050720 METAR ESMX 050720Z 36013KT 9999 BKN005 02/01 Q0996=
201911050650 METAR ESMX 050650Z AUTO 02012KT 7000 BR OVC004/// 02/01 Q0996=
201911050620 METAR COR ESMX 050620Z 01013KT 9999 BKN005 02/01 Q0996=
201911050550 METAR ESMX 050550Z 01011KT 9999 BKN007 02/01 Q0995=
201911050520 METAR ESMX 050520Z 36013KT 9999 BKN006 02/01 Q0995=
201911050450 METAR ESMX 050450Z 02012KT 9999 BKN006 02/01 Q0995=
201911050420 METAR ESMX 050420Z AUTO 02012KT 9999 OVC006/// 02/01 Q0995=
201911050350 METAR ESMX 050350Z AUTO 02013KT 9999 OVC005/// 02/02 Q0995=
201911050320 METAR ESMX 050320Z AUTO 01014KT 8000 BR OVC005/// 02/02 Q0995=
201911050250 METAR ESMX 050250Z AUTO 01012KT 8000 BR OVC006/// 02/02 Q0995=
201911050220 METAR ESMX 050220Z AUTO 02013KT 9999 OVC007/// 02/02 Q0995=
201911050150 METAR ESMX 050150Z AUTO 01011KT 9999 OVC008/// 03/02 Q0995=
201911050120 METAR ESMX 050120Z AUTO 02011KT 9999 OVC009/// 03/02 Q0995=
201911050050 METAR ESMX 050050Z AUTO 02013KT 9999 OVC009/// 03/02 Q0995=
201911050020 METAR ESMX 050020Z AUTO 03012G24KT 9999 OVC008/// 03/02 Q0995=
201911042350 METAR ESMX 042350Z AUTO 03013KT 9999 OVC008/// 03/02 Q0995=
201911042320 METAR ESMX 042320Z AUTO 03013G23KT 350V060 9999 OVC008/// 03/02 Q0995=
201911042250 METAR ESMX 042250Z AUTO 03013KT 9999 OVC009/// 03/02 Q0995=
201911042220 METAR ESMX 042220Z AUTO 02014KT 9999 OVC009/// 03/02 Q0995=
201911042150 METAR ESMX 042150Z AUTO 03013KT 360V060 9999 OVC009/// 03/02 Q0995=
201911042120 METAR ESMX 042120Z AUTO 02012KT 9999 OVC008/// 04/03 Q0995=
201911042050 METAR ESMX 042050Z AUTO 03013KT 9999 OVC006/// 04/03 Q0995=
201911042020 METAR ESMX 042020Z AUTO 01012KT 9999 OVC006/// 04/03 Q0995=
201911041950 METAR ESMX 041950Z 01012KT 9999 OVC006 04/04 Q0995=
201911041920 METAR ESMX 041920Z 03011KT 9999 BKN006 04/04 Q0995=
201911041850 METAR ESMX 041850Z 03012KT 9999 BKN005 04/04 Q0995=
201911041820 METAR ESMX 041820Z 03014KT 8000 BR BKN006 04/04 Q0995=
201911041750 METAR ESMX 041750Z 03013KT 9999 BKN006 04/04 Q0995=
201911041720 METAR ESMX 041720Z 03012KT 8000 BR BKN006 05/04 Q0994=
201911041650 METAR ESMX 041650Z 04014KT 8000 BR BKN006 05/04 Q0994=
201911041620 METAR ESMX 041620Z 03013KT 6000 BR BKN005 05/05 Q0994=
201911041550 METAR ESMX 041550Z 03013KT 6000 BR BKN005 05/05 Q0994=
201911041520 METAR ESMX 041520Z 03013KT 6000 BR FEW002 BKN005 05/05 Q0994=
201911041450 METAR ESMX 041450Z 03010KT 8000 BR BKN005 05/05 Q0994=
201911041420 METAR ESMX 041420Z 03011KT 6000 BR BKN002 BKN004 05/05 Q0994=
201911041350 METAR ESMX 041350Z 03011KT 6000 BR BKN002 BKN005 05/05 Q0993=
201911041320 METAR ESMX 041320Z 03012KT 6000 BR BKN002 05/05 Q0993=
201911041250 METAR ESMX 041250Z 03012KT 7000 BR SCT002 OVC005 05/05 Q0993=
201911041220 METAR ESMX 041220Z 03011KT 9000 BR FEW002 OVC006 05/05 Q0994=
201911041150 METAR ESMX 041150Z 03012KT 9999 BKN006 05/05 Q0993=
201911041120 METAR ESMX 041120Z 03012KT 9999 BKN006 05/04 Q0993=
201911041050 METAR ESMX 041050Z 04013KT 9999 BR BKN006 05/04 Q0994=
201911041020 METAR ESMX 041020Z 03014KT 9999 OVC007 05/04 Q0994=
201911040950 METAR ESMX 040950Z 03013KT 9999 BKN007 05/04 Q0994=
201911040920 METAR ESMX 040920Z 03013KT 9999 OVC006 05/04 Q0994=
201911040850 METAR ESMX 040850Z 03012KT 9999 BKN006 05/04 Q0994=
201911040820 METAR ESMX 040820Z 03012KT 9999 OVC006 05/04 Q0994=
201911040750 METAR ESMX 040750Z 03011KT 9999 OVC006 05/05 Q0994=
201911040720 METAR ESMX 040720Z 03011KT 9999 OVC006 05/05 Q0994=
201911040650 METAR ESMX 040650Z 04012KT 9999 OVC007 06/05 Q0994=
201911040620 METAR ESMX 040620Z 03011KT 9999 OVC006 06/05 Q0994=
201911040550 METAR ESMX 040550Z 03010KT 9999 OVC006 05/05 Q0993=
201911040520 METAR ESMX 040520Z 03011KT 9999 OVC006 05/05 Q0993=
201911040450 METAR ESMX 040450Z 03011KT 9999 OVC006 06/05 Q0993=
201911040420 METAR ESMX 040420Z AUTO 03011KT 360V080 9999 OVC006/// 06/05 Q0993=
201911040350 METAR ESMX 040350Z AUTO 04012KT 9999 OVC005/// 06/06 Q0993=
201911040320 METAR ESMX 040320Z AUTO 04010KT 9999 OVC005/// 06/06 Q0993=
201911040250 METAR ESMX 040250Z AUTO 04009KT 010V080 9999 OVC005/// 06/06 Q0993=
201911040220 METAR ESMX 040220Z AUTO 04010KT 9999 OVC004/// 06/06 Q0993=
201911040150 METAR ESMX 040150Z AUTO 04010KT 9999 OVC004/// 06/06 Q0993=
201911040120 METAR ESMX 040120Z AUTO 05010KT 020V090 9999 OVC005/// 06/06 Q0993=
201911040050 METAR ESMX 040050Z AUTO 05008KT 9999 OVC005/// 06/06 Q0993=
201911040020 METAR ESMX 040020Z AUTO 04009KT 9999 OVC005/// 06/06 Q0993=
201911032350 METAR ESMX 032350Z AUTO 04009KT 020V080 9999 OVC005/// 07/06 Q0993=
201911032320 METAR ESMX 032320Z AUTO 03008KT 9999 OVC005/// 07/07 Q0992=
201911032250 METAR ESMX 032250Z AUTO 02007KT 350V070 9999 OVC005/// 07/07 Q0992=
201911032220 METAR ESMX 032220Z AUTO 03006KT 350V090 9999 OVC006/// 07/07 Q0992=
201911032150 METAR ESMX 032150Z AUTO 04007KT 9999 OVC005/// 07/07 Q0992=
201911032120 METAR ESMX 032120Z AUTO 04008KT 9999 OVC006/// 07/07 Q0992=
201911032050 METAR ESMX 032050Z AUTO 03008KT 9999 OVC005/// 07/07 Q0992=
201911032020 METAR ESMX 032020Z AUTO 03007KT 9999 -DZ FEW002/// OVC005/// 07/07 Q0992=
201911031950 METAR ESMX 031950Z AUTO 02007KT 9999 DZ BKN005/// OVC008/// 07/07 Q0992 REDZ=
201911031920 METAR ESMX 031920Z AUTO 01004KT 340V050 8000 BR BKN007/// OVC009/// 07/07 Q0992=
201911031850 METAR COR ESMX 031850Z 03004KT 8000 -RA BKN006 07/07 Q0992=
201911031820 METAR ESMX 031820Z VRB03KT 7000 -RA BKN006 07/07 Q0992=
201911031750 METAR ESMX 031750Z 04004KT 350V080 7000 -RA BKN006 07/07 Q0991=
201911031720 METAR ESMX 031720Z 03003KT 330V150 7000 RA OVC006 07/07 Q0991=
201911031650 METAR ESMX 031650Z VRB03KT 7000 -RA BKN007 07/07 Q0991=
201911031620 METAR COR ESMX 031620Z 04005KT 010V090 9999 -RA BKN007 07/07 Q0991=
201911031550 METAR COR ESMX 031550Z 04005KT 350V070 9999 -RA OVC006 07/07 Q0991=
201911031520 METAR ESMX 031520Z 05006KT 020V090 7000 -RA OVC006 07/07 Q0990=
201911031450 METAR ESMX 031450Z 05009KT 020V080 9000 -RA OVC006 07/07 Q0990=
201911031420 METAR ESMX 031420Z 04007KT 9999 -RA OVC006 07/07 Q0990=
201911031350 METAR ESMX 031350Z 04005KT 350V090 9999 -RA BKN006 07/07 Q0990=
201911031320 METAR ESMX 031320Z 02007KT 9999 -RA OVC006 07/07 Q0991=
201911031250 METAR ESMX 031250Z 03005KT 340V060 9999 -RA OVC005 07/07 Q0991=
201911031220 METAR ESMX 031220Z 04005KT 9999 RA OVC005 07/07 Q0991=
201911031150 METAR ESMX 031150Z 05004KT 9999 -RA OVC003 07/07 Q0991=
201911031120 METAR ESMX 031120Z 03005KT 350V070 9999 -RA OVC003 07/07 Q0991=
201911031050 METAR ESMX 031050Z AUTO 05005KT 8000 -RA OVC004/// 07/07 Q0991 REUP=
201911031020 METAR ESMX 031020Z 05005KT 360V120 9999 OVC003 07/07 Q0991=
201911030950 METAR ESMX 030950Z 04005KT 010V070 9999 OVC003 07/07 Q0991=
201911030920 METAR ESMX 030920Z 06005KT 020V110 9999 OVC003 07/07 Q0991=
201911030850 METAR ESMX 030850Z 04004KT 350V080 9999 OVC002 07/07 Q0990=
201911030820 METAR ESMX 030820Z 05004KT 020V080 5000 BR OVC001 07/07 Q0991=
201911030750 METAR ESMX 030750Z 06004KT 030V100 1700 FG OVC001 07/07 Q0991=
201911030720 METAR ESMX 030720Z 08003KT 010V120 0900 R01/1300N R19/1800D FG OVC001 07/07 Q0991=
201911030650 METAR ESMX 030650Z 07004KT 030V100 0900 R01/1500N R19/1800N FG OVC001 07/07 Q0990=
201911030620 METAR ESMX 030620Z 10004KT 060V140 0800 R01/1800D R19/P2000N FG OVC001 07/07 Q0990=
201911030550 METAR ESMX 030550Z AUTO VRB03KT 1000 R01/P2000N R19/P2000N BR OVC001/// 07/07 Q0990=
201911030520 METAR ESMX 030520Z AUTO 11003KT 070V150 1100 R01/P2000N R19/P2000N BR OVC001/// 07/07 Q0990=
201911030450 METAR ESMX 030450Z AUTO VRB02KT 1900 BR OVC001/// 07/07 Q0990=
201911030420 METAR ESMX 030420Z AUTO VRB03KT 1500 BR OVC001/// 07/07 Q0990=
201911030350 METAR ESMX 030350Z AUTO VRB03KT 1200 R01/P2000N R19/P2000N BR OVC001/// 07/07 Q0990=
201911030320 METAR ESMX 030320Z AUTO VRB02KT 1700 BR OVC002/// 07/07 Q0989 REDZ=
201911030250 METAR ESMX 030250Z AUTO VRB03KT 3300 BR OVC002/// 06/06 Q0989=
201911030220 METAR ESMX 030220Z AUTO 08003KT 020V120 4600 BR OVC002/// 06/06 Q0989=
201911030150 METAR ESMX 030150Z AUTO VRB02KT 9999 -DZ OVC003/// 06/06 Q0989 RERA=
201911030120 METAR ESMX 030120Z AUTO 02003KT 350V060 9000 -RA OVC003/// 06/06 Q0989 REUP=
201911030050 METAR ESMX 030050Z AUTO 07003KT 030V120 9000 BR OVC003/// 06/06 Q0989=
201911030020 METAR ESMX 030020Z AUTO VRB02KT 9999 OVC004/// 06/06 Q0989=
201911022350 METAR ESMX 022350Z AUTO VRB03KT 9000 BR BKN005/// OVC015/// 06/06 Q0989 REDZ=
201911022320 METAR ESMX 022320Z AUTO VRB02KT 3800 DZ BKN002/// BKN004/// OVC007/// 06/06 Q0989=
201911022250 METAR ESMX 022250Z AUTO 08003KT 040V130 3100 DZ OVC003/// 06/06 Q0989=
201911022220 METAR ESMX 022220Z AUTO 06004KT 020V100 5000 DZ OVC004/// 06/06 Q0989=
201911022150 METAR ESMX 022150Z AUTO 06003KT 020V110 4400 -RA BKN004/// BKN007/// OVC010/// 06/06 Q0989 REDZ=
201911022120 METAR ESMX 022120Z AUTO VRB03KT 4700 DZ BKN005/// OVC008/// 06/06 Q0989=
201911022050 METAR ESMX 022050Z AUTO 07003KT 030V110 4500 +DZ BKN003/// OVC005/// 06/06 Q0989=
201911022020 METAR ESMX 022020Z AUTO 04004KT 010V080 7000 DZ BKN004/// BKN006/// OVC008/// 06/06 Q0989=
201911021950 METAR ESMX 021950Z AUTO 02004KT 5000 DZ BKN004/// BKN007/// OVC009/// 06/06 Q0989=
201911021920 METAR ESMX 021920Z AUTO 03003KT 340V080 9999 DZ OVC004/// 06/06 Q0989=
201911021850 METAR ESMX 021850Z AUTO 02004KT 9999 -RA OVC003/// 06/06 Q0989=
201911021820 METAR ESMX 021820Z AUTO 03004KT 350V060 9999 -RA OVC003/// 06/06 Q0989=
201911021750 METAR ESMX 021750Z AUTO 04004KT 010V070 6000 RA OVC003/// 06/06 Q0989=
201911021720 METAR ESMX 021720Z AUTO VRB03KT 7000 -RA OVC002/// 06/06 Q0989=
201911021650 METAR ESMX 021650Z AUTO 06004KT 010V110 3300 -RA OVC002/// 06/06 Q0989 REDZ=
201911021620 METAR ESMX 021620Z AUTO 06003KT 010V110 1900 DZ OVC001/// 06/06 Q0989 REDZ=
201911021550 METAR ESMX 021550Z AUTO 04004KT 010V080 1900 -DZ OVC002/// 06/06 Q0989 REUP=
201911021520 METAR ESMX 021520Z AUTO VRB02KT 4500 BR OVC002/// 06/06 Q0989=
201911021450 METAR ESMX 021450Z AUTO 04004KT 010V070 6000 BR OVC004/// 06/06 Q0989=
201911021420 METAR ESMX 021420Z 04003KT 9999 BKN003 07/07 Q0990=
201911021350 METAR ESMX 021350Z VRB01KT 9999 BKN003 06/06 Q0990=
201911021320 METAR COR ESMX 021320Z VRB02KT 9999 SCT004 OVC007 07/07 Q0990=
201911021250 METAR ESMX 021250Z AUTO VRB02KT 9000 BR FEW004/// BKN006/// OVC009/// 07/07 Q0990=
201911021220 METAR ESMX 021220Z AUTO VRB02KT 9000 BR BKN003/// OVC005/// 06/06 Q0990=
201911021150 METAR ESMX 021150Z AUTO 07003KT 030V100 5000 BR OVC003/// 06/06 Q0990=
201911021120 METAR ESMX 021120Z AUTO VRB02KT 4900 BR OVC003/// 06/06 Q0991=
201911021050 METAR ESMX 021050Z AUTO VRB03KT 5000 BR OVC003/// 06/06 Q0991=
201911021020 METAR ESMX 021020Z AUTO VRB03KT 4700 BR OVC002/// 06/06 Q0991=
201911020950 METAR ESMX 020950Z AUTO VRB02KT 2400 BR OVC002/// 06/06 Q0991=
201911020920 METAR ESMX 020920Z AUTO VRB03KT 4400 BR OVC003/// 05/05 Q0991=
201911020850 METAR ESMX 020850Z AUTO 10004KT 030V150 3900 BR OVC002/// 05/05 Q0992=
201911020820 METAR ESMX 020820Z AUTO VRB03KT 4100 BR OVC002/// 05/05 Q0992=
201911020750 METAR ESMX 020750Z AUTO 09003KT 010V170 3200 BR OVC002/// 05/05 Q0992=
201911020720 METAR ESMX 020720Z AUTO VRB02KT 2000 BR OVC002/// 05/05 Q0992=
201911020650 METAR ESMX 020650Z AUTO VRB03KT 1600 BR OVC002/// 05/05 Q0993 REDZ=
201911020620 METAR ESMX 020620Z AUTO VRB02KT 1700 BR OVC002/// 05/05 Q0993=
201911020550 METAR ESMX 020550Z AUTO VRB03KT 1400 R01/P2000N R19/P2000N BR OVC002/// 04/04 Q0993=
201911020520 METAR ESMX 020520Z AUTO VRB03KT 1800 DZ OVC002/// 04/04 Q0993 REDZ=
201911020450 METAR ESMX 020450Z AUTO VRB03KT 1700 DZ BKN003/// OVC005/// 04/04 Q0994=
201911020420 METAR ESMX 020420Z AUTO 09004KT 050V130 2200 -RA BKN005/// OVC011/// 04/04 Q0994 REDZ=
201911020350 METAR ESMX 020350Z AUTO 08004KT 010V130 2600 DZ BKN006/// OVC009/// 04/04 Q0995=
201911020320 METAR ESMX 020320Z AUTO 08003KT 040V140 3400 -RA SCT007/// BKN010/// OVC013/// 04/04 Q0995=
201911020250 METAR ESMX 020250Z AUTO 07003KT 020V110 4000 -RA BKN011/// OVC014/// 04/04 Q0996=
201911020220 METAR ESMX 020220Z AUTO 11004KT 020V160 4800 -RA OVC013/// 04/04 Q0997=
201911020150 METAR ESMX 020150Z AUTO 14004KT 090V190 5000 -RA OVC015/// 04/04 Q0997=
201911020120 METAR ESMX 020120Z AUTO 13004KT 080V160 7000 -RA OVC016/// 04/03 Q0997 REUP=
201911020050 METAR ESMX 020050Z AUTO VRB04KT 9999 UP OVC016/// 05/03 Q0998=
201911020020 METAR ESMX 020020Z AUTO 11004KT 080V160 9999 OVC019/// 04/03 Q0999=
201911012350 METAR ESMX 012350Z AUTO 13004KT 060V170 9999 FEW018/// OVC024/// 04/03 Q0999=
201911012320 METAR ESMX 012320Z AUTO 14004KT 100V200 9999 OVC021/// 04/02 Q1000=
201911012250 METAR ESMX 012250Z AUTO 12005KT 090V170 9999 OVC024/// 05/02 Q1000=
201911012220 METAR ESMX 012220Z AUTO 12005KT 070V160 9999 OVC025/// 05/02 Q1001=
201911012150 METAR ESMX 012150Z AUTO 14005KT 050V190 9999 BKN025/// 04/02 Q1002=
201911012120 METAR ESMX 012120Z AUTO 13005KT 070V170 9999 BKN026/// 04/02 Q1002=
201911012050 METAR ESMX 012050Z AUTO 13006KT 070V170 9999 NCD 04/02 Q1003=
201911012020 METAR ESMX 012020Z AUTO 12005KT 080V160 9999 NCD 03/02 Q1004=
201911011950 METAR ESMX 011950Z AUTO 10004KT 020V150 9999 NCD 03/02 Q1004=
201911011920 METAR ESMX 011920Z AUTO 09004KT 050V200 9999 NCD 03/02 Q1005=
201911011850 METAR ESMX 011850Z AUTO 10004KT 050V150 9999 NCD 04/02 Q1006=
201911011820 METAR ESMX 011820Z 14005KT 110V180 CAVOK 04/02 Q1007=
201911011750 METAR ESMX 011750Z 13006KT 080V160 CAVOK 04/02 Q1007=
201911011720 METAR ESMX 011720Z 12006KT 060V170 9999 FEW016 04/02 Q1008=
201911011650 METAR ESMX 011650Z 14005KT 110V170 9999 FEW015 05/02 Q1008=
201911011620 METAR ESMX 011620Z 14005KT 080V170 CAVOK 05/02 Q1008=
201911011550 METAR ESMX 011550Z 14006KT 110V170 9999 FEW020 05/02 Q1009=
201911011520 METAR ESMX 011520Z 14006KT 9999 FEW020 06/03 Q1009=
201911011450 METAR ESMX 011450Z 14005KT 110V170 9999 SCT021 06/03 Q1010=
201911011420 METAR ESMX 011420Z 17005KT 130V210 9999 BKN021 07/03 Q1011=
201911011350 METAR ESMX 011350Z 15006KT 120V190 9999 BKN022 07/03 Q1011=
201911011320 METAR ESMX 011320Z 15006KT 120V190 9999 OVC030 07/03 Q1012=
201911011250 METAR ESMX 011250Z AUTO 15007KT 9999 OVC028/// 07/02 Q1012=
201911011220 METAR ESMX 011220Z 19006KT 9999 OVC031 07/02 Q1013=
