##########################################################
# Query made at 04/19/2024 22:09:56 UTC
# Time interval: from 08/01/2019 12:00  to 08/31/2019 12:59  UTC
##########################################################

##########################################################
# ESMX, Vaxjo (Sweden)
# WMO index: 02641. WIGOS ID: 0-20000-0-02648
# Latitude 56-51N. Longitude 014-50E. Altitude 199 m.
##########################################################

201908311250 METAR ESMX 311250Z 15007KT 100V170 9999 BKN035 25/17 Q1018=
201908311220 METAR ESMX 311220Z 15010KT 120V190 9999 BKN035 25/17 Q1018=
201908311150 METAR ESMX 311150Z 18010KT 140V210 9999 SCT035 25/17 Q1018=
201908311120 METAR ESMX 311120Z 17010KT 140V210 9999 FEW032 24/16 Q1019=
201908311050 METAR ESMX 311050Z 17010KT 9999 FEW030 SCT050 24/17 Q1019=
201908311020 METAR ESMX 311020Z 16010KT 9999 SCT025 23/16 Q1019=
201908310950 METAR ESMX 310950Z 15007KT 100V170 9999 FEW023 22/17 Q1020=
201908310920 METAR ESMX 310920Z AUTO 15007KT 110V190 9999 NCD 21/17 Q1020=
201908310850 METAR ESMX 310850Z AUTO 14007KT 100V160 9999 NCD 20/17 Q1020=
201908310820 METAR ESMX 310820Z AUTO 14005KT 100V170 9999 SCT006/// 19/17 Q1020=
201908310750 METAR ESMX 310750Z AUTO 15004KT 120V190 9000 OVC004/// 17/17 Q1020=
201908310720 METAR ESMX 310720Z AUTO 18004KT 130V210 5000 OVC002/// 16/16 Q1021=
201908310650 METAR ESMX 310650Z AUTO 16005KT 120V190 1000 R01/1000N R19/P2000N FG OVC001/// 15/15 Q1021=
201908310620 METAR ESMX 310620Z AUTO 16004KT 130V200 0350 R01/0600N R19/0800N FG OVC001/// 15/15 Q1021=
201908310550 METAR ESMX 310550Z AUTO VRB03KT 0200 R01/0400N R19/0450N FG OVC001/// 15/15 Q1021=
201908310520 METAR ESMX 310520Z AUTO 17003KT 0100 R01/0275N R19/0300N FG VV001 15/15 Q1021=
201908310450 METAR ESMX 310450Z AUTO 16005KT 0300 R01/0400N R19/0600U FG BKN001/// BKN005/// 14/14 Q1020=
201908310420 METAR ESMX 310420Z AUTO 16003KT 0350 R01/P2000N R19/1100D BR FEW005/// 14/14 Q1020=
201908310350 METAR ESMX 310350Z AUTO 17003KT 2700 BR NCD 13/13 Q1020=
201908310320 METAR ESMX 310320Z AUTO 14004KT 1000 R01/P2000N R19/1900N BR NCD 13/13 Q1020=
201908310250 METAR ESMX 310250Z AUTO 18004KT 0200 R01/P2000N R19/0650N BR NCD 14/14 Q1021=
201908310220 METAR ESMX 310220Z AUTO 18005KT 4400 BR NCD 13/13 Q1021=
201908310150 METAR ESMX 310150Z AUTO 17005KT 6000 BR NCD 14/14 Q1021=
201908310120 METAR ESMX 310120Z AUTO 17004KT 9999 FEW026/// 14/14 Q1021=
201908310050 METAR ESMX 310050Z AUTO 17003KT 9999 NCD 14/14 Q1021=
201908310020 METAR ESMX 310020Z AUTO 18005KT 9999 NCD 13/13 Q1021=
201908302350 METAR ESMX 302350Z AUTO 15004KT 9999 NCD 12/12 Q1021=
201908302320 METAR ESMX 302320Z AUTO 14003KT 9999 FEW033/// 12/12 Q1022=
201908302250 METAR ESMX 302250Z AUTO 16003KT 9999 NCD 12/11 Q1022=
201908302220 METAR ESMX 302220Z AUTO 15003KT 9999 NCD 12/12 Q1022=
201908302150 METAR ESMX 302150Z AUTO 15002KT 9999 NCD 11/11 Q1022=
201908302120 METAR ESMX 302120Z AUTO 20003KT 9999 NCD 11/11 Q1022=
201908302050 METAR ESMX 302050Z AUTO 18003KT 9999 NCD 12/11 Q1022=
201908302020 METAR ESMX 302020Z AUTO 19003KT 9999 NCD 12/12 Q1022=
201908301950 METAR ESMX 301950Z AUTO 21004KT 9999 NCD 12/12 Q1022=
201908301920 METAR ESMX 301920Z 18004KT CAVOK 12/11 Q1022=
201908301850 METAR ESMX 301850Z 19003KT CAVOK 15/13 Q1022=
201908301820 METAR ESMX 301820Z 21003KT CAVOK 17/12 Q1021=
201908301750 METAR ESMX 301750Z 24003KT CAVOK 17/12 Q1021=
201908301720 METAR ESMX 301720Z VRB03KT CAVOK 18/12 Q1021=
201908301650 METAR ESMX 301650Z VRB03KT CAVOK 18/12 Q1021=
201908301620 METAR ESMX 301620Z 25005KT CAVOK 19/12 Q1021=
201908301550 METAR ESMX 301550Z 23007KT CAVOK 20/12 Q1021=
201908301520 METAR ESMX 301520Z 22006KT 9999 FEW043 20/12 Q1021=
201908301450 METAR ESMX 301450Z 24006KT 200V290 9999 FEW043 20/12 Q1021=
201908301420 METAR ESMX 301420Z 23008KT 9999 SCT044 21/12 Q1021=
201908301350 METAR ESMX 301350Z 21009KT 9999 SCT042 20/12 Q1022=
201908301320 METAR ESMX 301320Z 21010KT 9999 SCT042 20/11 Q1022=
201908301250 METAR ESMX 301250Z 22008KT 9999 FEW042 20/12 Q1022=
201908301220 METAR ESMX 301220Z 23009KT 190V260 9999 FEW039 21/11 Q1022=
201908301150 METAR ESMX 301150Z 23009KT 190V270 9999 FEW038 21/12 Q1022=
201908301120 METAR ESMX 301120Z 23008KT 190V260 9999 FEW033 20/11 Q1022=
201908301050 METAR ESMX 301050Z 22009KT 170V250 9999 FEW032 20/12 Q1022=
201908301020 METAR ESMX 301020Z 22006KT 170V270 9999 FEW030 20/12 Q1022=
201908300950 METAR ESMX 300950Z 21008KT 9999 FEW026 19/12 Q1022=
201908300920 METAR ESMX 300920Z AUTO 21007KT 170V250 9999 FEW023/// 18/12 Q1022=
201908300850 METAR ESMX 300850Z 21007KT 9999 SCT022 17/12 Q1022=
201908300820 METAR ESMX 300820Z 22006KT 180V250 9999 FEW021 17/13 Q1022=
201908300750 METAR ESMX 300750Z 22005KT 180V260 9999 SCT015 16/13 Q1021=
201908300720 METAR ESMX 300720Z 22005KT 180V290 9999 FEW009 SCT013 16/14 Q1021=
201908300650 METAR ESMX 300650Z 22005KT 190V250 9999 SCT007 15/14 Q1021=
201908300620 METAR ESMX 300620Z 21004KT 9999 FEW006 15/15 Q1021=
201908300550 METAR ESMX 300550Z 20003KT 8000 BR BCFG NSC 14/14 Q1021=
201908300520 METAR ESMX 300520Z 21003KT CAVOK 13/13 Q1021=
201908300450 METAR ESMX 300450Z 20003KT CAVOK 13/13 Q1020=
201908300420 METAR ESMX 300420Z 22003KT 9999 FEW004 12/12 Q1020=
201908300350 METAR ESMX 300350Z AUTO 22003KT 0450 R01/P2000N R19/1100N BR BKN004/// 13/13 Q1020=
201908300320 METAR ESMX 300320Z AUTO 20003KT 5000 FEW003/// BKN032/// 14/14 Q1019=
201908300250 METAR ESMX 300250Z AUTO 20002KT 7000 BCFG BKN004/// OVC009/// 13/13 Q1019=
201908300220 METAR ESMX 300220Z AUTO 18003KT 6000 SCT005/// BKN019/// 14/14 Q1019=
201908300150 METAR ESMX 300150Z AUTO VRB02KT 1800 BCFG FEW007/// OVC011/// 14/14 Q1019=
201908300120 METAR ESMX 300120Z AUTO 00000KT 1800 BR OVC003/// 14/14 Q1019=
201908300050 METAR ESMX 300050Z AUTO VRB02KT 5000 BR OVC003/// 14/14 Q1019=
201908300020 METAR ESMX 300020Z 23003KT 200V260 5000 BR SCT004 14/14 Q1019=
201908292350 METAR ESMX 292350Z VRB01KT 6000 BR FEW010 15/15 Q1018=
201908292320 METAR ESMX 292320Z 23003KT 8000 BR SCT025 15/15 Q1018=
201908292250 METAR ESMX 292250Z 21004KT 9999 BKN030 16/16 Q1018=
201908292220 METAR ESMX 292220Z 18002KT 8000 BR BKN030 15/15 Q1018=
201908292150 METAR ESMX 292150Z 21002KT 8000 BR NSC 14/14 Q1018=
201908292120 METAR ESMX 292120Z 21003KT CAVOK 16/15 Q1017=
201908292050 METAR ESMX 292050Z 21003KT CAVOK 16/15 Q1017=
201908292020 METAR ESMX 292020Z 22004KT CAVOK 16/15 Q1017=
201908291950 METAR ESMX 291950Z 25004KT CAVOK 17/16 Q1017=
201908291920 METAR ESMX 291920Z 24004KT CAVOK 18/16 Q1016=
201908291850 METAR ESMX 291850Z 24004KT 9999 FEW026 18/16 Q1016=
201908291820 METAR ESMX 291820Z 24004KT 200V260 9999 FEW025 19/17 Q1016=
201908291750 METAR ESMX 291750Z 25005KT 9999 SCT023 20/17 Q1016=
201908291720 METAR ESMX 291720Z 25007KT 9999 SCT025 21/17 Q1015=
201908291650 METAR ESMX 291650Z 24006KT 9999 SCT026 21/18 Q1015=
201908291620 METAR ESMX 291620Z 24005KT 9999 SCT023 22/18 Q1015=
201908291550 METAR ESMX 291550Z 27007KT 9999 FEW023 22/18 Q1015=
201908291520 METAR ESMX 291520Z 26009KT 9999 FEW025 22/17 Q1015=
201908291450 METAR ESMX 291450Z 27009KT 9999 FEW025 23/18 Q1015=
201908291420 METAR ESMX 291420Z 24008KT 9999 FEW023 23/18 Q1015=
201908291350 METAR ESMX 291350Z 24009KT 9999 FEW024 23/18 Q1014=
201908291320 METAR ESMX 291320Z 25007KT 220V280 9999 FEW025 24/18 Q1014=
201908291250 METAR ESMX 291250Z 23007KT 210V280 9999 FEW022 24/19 Q1014=
201908291220 METAR ESMX 291220Z VRB03KT 9999 FEW014 23/19 Q1014=
201908291150 METAR ESMX 291150Z 20004KT 160V270 9999 SCT013 BKN018 22/19 Q1014=
201908291120 METAR ESMX 291120Z 22006KT 9999 FEW013 BKN016 21/19 Q1014=
201908291050 METAR ESMX 291050Z 21009KT 9999 BKN016 21/19 Q1014=
201908291020 METAR ESMX 291020Z 22007KT 200V260 9999 SCT015 22/19 Q1014=
201908290950 METAR ESMX 290950Z 25004KT 200V300 CAVOK 22/19 Q1013=
201908290920 METAR ESMX 290920Z 22008KT 9999 FEW017 22/19 Q1014=
201908290850 METAR ESMX 290850Z 20008KT 150V230 CAVOK 22/19 Q1013=
201908290820 METAR COR ESMX 290820Z 17007KT CAVOK 22/19 Q1013=
201908290750 METAR ESMX 290750Z 17009KT CAVOK 21/19 Q1013=
201908290720 METAR ESMX 290720Z 17008KT CAVOK 21/18 Q1013=
201908290650 METAR ESMX 290650Z 16006KT 120V200 CAVOK 20/18 Q1013=
201908290620 METAR ESMX 290620Z 15004KT 110V190 CAVOK 19/18 Q1013=
201908290550 METAR COR ESMX 290550Z 15003KT 090V190 CAVOK 19/18 Q1013=
201908290520 METAR ESMX 290520Z AUTO VRB01KT 6000 NCD 17/17 Q1013=
201908290450 METAR ESMX 290450Z 00000KT 0800 R01/0375N R19/0275N BCFG NSC 14/14 Q1013=
201908290420 METAR ESMX 290420Z 00000KT 0350 R01/0375N R19/0200N FG NSC 14/14 Q1013=
201908290350 METAR COR ESMX 290350Z 00000KT 0150 R01/0250N R19/0325N FG NSC 13/13 Q1013=
201908290320 METAR ESMX 290320Z AUTO 00000KT 0100 R01/0375N R19/0450N BCFG NCD 13/13 Q1013=
201908290250 METAR ESMX 290250Z AUTO 00000KT 0200 R01/P2000N R19/1600D BCFG NCD 14/14 Q1013=
201908290220 METAR ESMX 290220Z AUTO 00000KT 0100 R01/0300N R19/P2000N BCFG NCD 16/16 Q1013=
201908290150 METAR ESMX 290150Z AUTO 00000KT 2700 BR NCD 17/17 Q1014=
201908290120 METAR ESMX 290120Z AUTO 00000KT 6000 BR NCD 18/18 Q1014=
201908290050 METAR ESMX 290050Z VRB02KT 9000 BR NSC 17/17 Q1014=
201908290020 METAR ESMX 290020Z 15004KT 8000 BR NSC 17/17 Q1014=
201908282350 METAR ESMX 282350Z VRB02KT 6000 BR NSC 14/14 Q1014=
201908282320 METAR ESMX 282320Z VRB02KT 4000 BR NSC 17/17 Q1014=
201908282250 METAR ESMX 282250Z AUTO 00000KT 0200 R01/P2000D R19/P2000N BCFG NCD 16/16 Q1014=
201908282220 METAR ESMX 282220Z AUTO 00000KT 0150 R01/P2000N R19/0550D BCFG NCD 17/17 Q1014=
201908282150 METAR ESMX 282150Z AUTO VRB01KT 8000 BCFG NCD 17/17 Q1014=
201908282120 METAR ESMX 282120Z VRB01KT 7000 BR NSC 18/18 Q1014=
201908282050 METAR ESMX 282050Z VRB02KT 8000 BR NSC 18/18 Q1015=
201908282020 METAR ESMX 282020Z 00000KT 9000 BR NSC 18/18 Q1015=
201908281950 METAR ESMX 281950Z 00000KT CAVOK 19/18 Q1015=
201908281920 METAR ESMX 281920Z VRB02KT CAVOK 20/19 Q1015=
201908281850 METAR ESMX 281850Z VRB03KT CAVOK 21/19 Q1015=
201908281820 METAR ESMX 281820Z 15005KT CAVOK 23/19 Q1015=
201908281750 METAR ESMX 281750Z 16004KT CAVOK 24/19 Q1015=
201908281720 METAR ESMX 281720Z VRB02KT CAVOK 24/21 Q1015=
201908281650 METAR ESMX 281650Z 13004KT 090V160 CAVOK 24/21 Q1015=
201908281620 METAR ESMX 281620Z 14005KT 110V170 CAVOK 25/20 Q1015=
201908281550 METAR ESMX 281550Z 14004KT 100V180 CAVOK 25/21 Q1015=
201908281520 METAR ESMX 281520Z 14004KT 080V190 CAVOK 24/20 Q1015=
201908281450 METAR ESMX 281450Z 15005KT CAVOK 24/21 Q1015=
201908281420 METAR ESMX 281420Z VRB03KT CAVOK 23/20 Q1015 RETS=
201908281350 METAR ESMX 281350Z 16006KT 9999 -SHRA TS FEW047CB SCT110 23/19 Q1016=
201908281320 METAR ESMX 281320Z 16006KT 9999 TS VCSH FEW045CB 24/18 Q1016=
201908281250 METAR ESMX 281250Z 15009KT 120V200 CAVOK 25/18 Q1016=
201908281220 METAR ESMX 281220Z 12006KT 070V160 CAVOK 25/18 Q1016=
201908281150 METAR ESMX 281150Z 09004KT 050V160 CAVOK 24/18 Q1016=
201908281120 METAR ESMX 281120Z VRB04KT 9999 FEW040CB SCT080 22/20 Q1016 RETS=
201908281050 METAR COR ESMX 281050Z 11004KT 060V160 9999 TS FEW040CB BKN080 20/19 Q1017=
201908281020 METAR ESMX 281020Z VRB03KT 9999 -RA BKN080 20/19 Q1017=
201908280950 METAR ESMX 280950Z AUTO VRB02KT 9999 -RA FEW057/// OVC080/// 20/20 Q1017=
201908280920 METAR ESMX 280920Z 13005KT 090V170 9999 -RA FEW068 SCT140 21/19 Q1017=
201908280850 METAR ESMX 280850Z 09003KT 020V140 9999 -SHRA FEW028 SCT070 20/19 Q1018=
201908280820 METAR ESMX 280820Z 06004KT 010V090 CAVOK 22/18 Q1017=
201908280750 METAR ESMX 280750Z VRB03KT CAVOK 21/18 Q1017=
201908280720 METAR ESMX 280720Z 15003KT 080V190 CAVOK 21/18 Q1018=
201908280650 METAR ESMX 280650Z VRB03KT CAVOK 21/17 Q1018=
201908280620 METAR ESMX 280620Z 11004KT 080V160 CAVOK 20/17 Q1018=
201908280550 METAR ESMX 280550Z 12005KT 070V170 CAVOK 20/17 Q1018=
201908280520 METAR COR ESMX 280520Z 12004KT 080V160 CAVOK 20/17 Q1018=
201908280450 METAR ESMX 280450Z 11005KT 080V150 CAVOK 19/16 Q1018=
201908280420 METAR ESMX 280420Z 10004KT 060V140 CAVOK 18/16 Q1018=
201908280350 METAR COR ESMX 280350Z 10004KT CAVOK 18/16 Q1018=
201908280320 METAR ESMX 280320Z AUTO 10004KT 070V140 9999 FEW120/// 18/15 Q1019=
201908280250 METAR ESMX 280250Z AUTO VRB03KT 9999 FEW150/// 18/15 Q1019=
201908280220 METAR ESMX 280220Z AUTO 05003KT 020V100 9999 NCD 18/15 Q1019=
201908280150 METAR ESMX 280150Z AUTO VRB03KT 9999 SCT070/// BKN150/// 18/15 Q1019=
201908280120 METAR ESMX 280120Z AUTO 01003KT 9999 SCT150/// 18/15 Q1020=
201908280050 METAR ESMX 280050Z AUTO 06003KT 9999 NCD 19/15 Q1020=
201908280020 METAR ESMX 280020Z AUTO 07003KT 030V100 9999 NCD 19/15 Q1020=
201908272350 METAR ESMX 272350Z AUTO VRB03KT 9999 NCD 19/15 Q1020=
201908272320 METAR ESMX 272320Z AUTO VRB03KT 9999 NCD 19/15 Q1021=
201908272250 METAR ESMX 272250Z AUTO 10004KT 060V140 9999 NCD 19/15 Q1021=
201908272220 METAR ESMX 272220Z AUTO 11003KT 020V150 9999 NCD 19/14 Q1021=
201908272150 METAR ESMX 272150Z AUTO 11004KT 060V160 9999 NCD 20/14 Q1022=
201908272120 METAR ESMX 272120Z AUTO 12005KT 080V160 9999 NCD 20/14 Q1022=
201908272050 METAR ESMX 272050Z AUTO VRB03KT 9999 SCT220/// 21/14 Q1022=
201908272020 METAR ESMX 272020Z AUTO 12004KT 050V160 9999 BKN220/// 21/14 Q1022=
201908271950 METAR ESMX 271950Z AUTO 11003KT 070V170 9999 NCD 21/14 Q1022=
201908271920 METAR ESMX 271920Z AUTO 11004KT 080V160 9999 NCD 22/14 Q1022=
201908271850 METAR ESMX 271850Z AUTO 12004KT 070V170 9999 NCD 23/15 Q1022=
201908271820 METAR ESMX 271820Z AUTO 12003KT 070V160 9999 NCD 24/15 Q1021=
201908271750 METAR ESMX 271750Z AUTO 13004KT 060V170 9999 NCD 25/15 Q1021=
201908271720 METAR ESMX 271720Z 12003KT 070V170 CAVOK 26/16 Q1021=
201908271650 METAR ESMX 271650Z 14003KT 110V170 CAVOK 27/15 Q1021=
201908271620 METAR ESMX 271620Z 14006KT 100V180 CAVOK 28/15 Q1021=
201908271550 METAR ESMX 271550Z 15007KT 130V190 CAVOK 28/15 Q1021=
201908271520 METAR ESMX 271520Z 15005KT 100V200 CAVOK 29/16 Q1022=
201908271450 METAR ESMX 271450Z 15007KT 100V190 CAVOK 28/15 Q1022=
201908271420 METAR ESMX 271420Z 15005KT 110V200 CAVOK 29/15 Q1022=
201908271350 METAR ESMX 271350Z 14006KT 090V190 CAVOK 29/15 Q1022=
201908271320 METAR ESMX 271320Z 14007KT 100V170 CAVOK 29/15 Q1022=
201908271250 METAR ESMX 271250Z 14007KT 110V180 CAVOK 29/16 Q1022=
201908271220 METAR ESMX 271220Z 14007KT 100V160 CAVOK 28/17 Q1023=
201908271150 METAR ESMX 271150Z 12007KT 060V170 CAVOK 28/17 Q1023=
201908271120 METAR ESMX 271120Z 14009KT 090V180 CAVOK 27/17 Q1023=
201908271050 METAR ESMX 271050Z 14008KT 100V160 CAVOK 27/17 Q1023=
201908271020 METAR ESMX 271020Z 14008KT CAVOK 26/16 Q1023=
201908270950 METAR ESMX 270950Z 15008KT 110V200 CAVOK 26/16 Q1023=
201908270920 METAR ESMX 270920Z 12006KT 080V160 CAVOK 26/16 Q1023=
201908270850 METAR ESMX 270850Z 11007KT 060V150 CAVOK 25/16 Q1023=
201908270820 METAR ESMX 270820Z 11005KT 060V180 CAVOK 24/15 Q1023=
201908270750 METAR ESMX 270750Z 09003KT 010V140 CAVOK 23/16 Q1023=
201908270720 METAR ESMX 270720Z 05004KT CAVOK 22/15 Q1023=
201908270650 METAR ESMX 270650Z 07004KT 030V120 CAVOK 20/15 Q1023=
201908270620 METAR ESMX 270620Z 04004KT 010V090 CAVOK 19/15 Q1023=
201908270550 METAR ESMX 270550Z AUTO 04003KT 350V160 9999 NCD 18/14 Q1023=
201908270520 METAR ESMX 270520Z 04005KT CAVOK 17/14 Q1023=
201908270450 METAR ESMX 270450Z 04004KT CAVOK 15/14 Q1023=
201908270420 METAR ESMX 270420Z 03004KT CAVOK 15/13 Q1023=
201908270350 METAR COR ESMX 270350Z 04004KT CAVOK 15/14 Q1023=
201908270320 METAR ESMX 270320Z AUTO 02004KT 9999 NCD 14/13 Q1023=
201908270250 METAR ESMX 270250Z AUTO 02004KT 9999 NCD 14/14 Q1023=
201908270220 METAR ESMX 270220Z AUTO 02003KT 9999 NCD 14/14 Q1024=
201908270150 METAR ESMX 270150Z AUTO 03004KT 9999 NCD 13/13 Q1024=
201908270120 METAR ESMX 270120Z AUTO 02004KT 9999 NCD 13/13 Q1024=
201908270050 METAR ESMX 270050Z AUTO 02002KT 0150 R01/P2000N R19/0600N NCD 12/12 Q1024=
201908270020 METAR ESMX 270020Z AUTO 35002KT 9999 NCD 12/12 Q1024=
201908262350 METAR ESMX 262350Z AUTO 00000KT 9999 NCD 12/12 Q1024=
201908262320 METAR ESMX 262320Z AUTO 00000KT 9999 NCD 12/12 Q1024=
201908262250 METAR ESMX 262250Z AUTO 00000KT 9999 NCD 13/13 Q1024=
201908262220 METAR ESMX 262220Z AUTO 00000KT 9999 NCD 13/12 Q1024=
201908262150 METAR ESMX 262150Z AUTO 00000KT 9999 NCD 15/13 Q1024=
201908262120 METAR ESMX 262120Z AUTO 00000KT 9999 NCD 17/14 Q1024=
201908262050 METAR ESMX 262050Z AUTO 15004KT 9999 NCD 18/14 Q1024=
201908262020 METAR ESMX 262020Z AUTO 13005KT 9999 NCD 20/14 Q1024=
201908261950 METAR ESMX 261950Z AUTO 14005KT 110V170 9999 NCD 21/14 Q1024=
201908261920 METAR ESMX 261920Z AUTO 16005KT 9999 NCD 21/14 Q1023=
201908261850 METAR ESMX 261850Z AUTO 14006KT 9999 NCD 22/14 Q1023=
201908261820 METAR ESMX 261820Z AUTO 14005KT 110V170 9999 NCD 23/14 Q1023=
201908261750 METAR COR ESMX 261750Z VRB01KT CAVOK 22/15 Q1023=
201908261720 METAR ESMX 261720Z VRB02KT CAVOK 25/15 Q1023=
201908261650 METAR ESMX 261650Z VRB03KT CAVOK 26/13 Q1023=
201908261620 METAR ESMX 261620Z 23004KT 200V260 CAVOK 26/14 Q1023=
201908261550 METAR ESMX 261550Z 17004KT CAVOK 27/13 Q1023=
201908261520 METAR ESMX 261520Z 18005KT CAVOK 27/13 Q1023=
201908261450 METAR ESMX 261450Z 18004KT 140V210 CAVOK 27/13 Q1023=
201908261420 METAR ESMX 261420Z 14005KT CAVOK 27/13 Q1024=
201908261350 METAR ESMX 261350Z 15007KT CAVOK 27/13 Q1024=
201908261320 METAR ESMX 261320Z 12004KT 080V210 CAVOK 28/14 Q1024=
201908261250 METAR ESMX 261250Z 16005KT 120V200 CAVOK 27/13 Q1024=
201908261220 METAR ESMX 261220Z 16006KT 100V230 CAVOK 27/12 Q1024=
201908261150 METAR ESMX 261150Z 14005KT 100V200 CAVOK 27/13 Q1025=
201908261120 METAR ESMX 261120Z 16005KT 130V200 CAVOK 26/11 Q1025=
201908261050 METAR ESMX 261050Z 17005KT 120V200 CAVOK 26/11 Q1025=
201908261020 METAR ESMX 261020Z 12006KT 080V160 CAVOK 25/11 Q1025=
201908260950 METAR ESMX 260950Z 14006KT 110V180 CAVOK 25/12 Q1025=
201908260920 METAR ESMX 260920Z 14004KT 100V180 CAVOK 24/13 Q1025=
201908260850 METAR ESMX 260850Z 14004KT 110V170 CAVOK 23/10 Q1025=
201908260820 METAR ESMX 260820Z 15005KT 090V180 CAVOK 22/11 Q1025=
201908260750 METAR ESMX 260750Z 15004KT 110V200 CAVOK 21/12 Q1025=
201908260720 METAR ESMX 260720Z VRB01KT CAVOK 20/12 Q1025=
201908260650 METAR ESMX 260650Z 00000KT CAVOK 18/11 Q1025=
201908260620 METAR ESMX 260620Z 00000KT CAVOK 17/12 Q1025=
201908260550 METAR ESMX 260550Z 00000KT CAVOK 15/11 Q1025=
201908260520 METAR ESMX 260520Z 02002KT CAVOK 13/08 Q1025=
201908260450 METAR ESMX 260450Z 00000KT CAVOK 10/07 Q1025=
201908260420 METAR ESMX 260420Z 02003KT 0150 R01/0275N R19/0600N BCFG NSC 10/08 Q1025=
201908260350 METAR ESMX 260350Z 00000KT 0200 R01/P2000N R19/0250N BCFG NSC 11/09 Q1025=
201908260320 METAR ESMX 260320Z AUTO VRB01KT 9999 BCFG NCD ///// Q1025=
201908260250 METAR ESMX 260250Z AUTO VRB02KT 0250 R01/P2000N R19/P2000D BCFG NCD ///// Q1025=
201908260220 METAR ESMX 260220Z AUTO 02002KT 0100 R01/0250N R19/0400N BCFG NCD ///// Q1026=
201908260150 METAR ESMX 260150Z AUTO 02003KT 0150 R01/0600N R19/1900N BCFG NCD ///// Q1026=
201908260120 METAR ESMX 260120Z AUTO 36001KT 0100 R01/0450N R19/0250N BCFG NCD ///// Q1025=
201908260050 METAR ESMX 260050Z AUTO 00000KT 0100 R01/P2000N R19/0275N BCFG NCD ///// Q1025=
201908260020 METAR ESMX 260020Z AUTO 00000KT 0050 R01/0250U R19/P2000N FG NCD ///// Q1025=
201908252350 METAR ESMX 252350Z AUTO 00000KT 9999 BR NCD ///// Q1026=
201908252320 METAR ESMX 252320Z AUTO 00000KT 6000 NCD ///// Q1026=
201908252250 METAR ESMX 252250Z AUTO 14004KT 9999 NCD ///// Q1026=
201908252220 METAR ESMX 252220Z AUTO 15005KT 9999 NCD ///// Q1026=
201908252150 METAR ESMX 252150Z AUTO 15005KT 9999 NCD ///// Q1026=
201908252120 METAR ESMX 252120Z AUTO 16005KT 9999 NCD ///// Q1026=
201908252050 METAR ESMX 252050Z AUTO 16005KT 9999 NCD ///// Q1026=
201908252020 METAR ESMX 252020Z AUTO 15004KT 9999 NCD ///// Q1025=
201908251950 METAR ESMX 251950Z AUTO 14005KT 9999 NCD ///// Q1025=
201908251920 METAR ESMX 251920Z 15004KT CAVOK 17/10 Q1025=
201908251850 METAR ESMX 251850Z 00000KT CAVOK 17/10 Q1025=
201908251820 METAR ESMX 251820Z 00000KT CAVOK 19/11 Q1025=
201908251750 METAR ESMX 251750Z 19002KT CAVOK 22/14 Q1025=
201908251720 METAR ESMX 251720Z 20004KT CAVOK 23/14 Q1025=
201908251650 METAR ESMX 251650Z 19004KT CAVOK 24/13 Q1025=
201908251620 METAR ESMX 251620Z 18004KT 140V220 CAVOK 25/13 Q1025=
201908251550 METAR ESMX 251550Z 20004KT CAVOK 25/14 Q1025=
201908251520 METAR ESMX 251520Z 19003KT 140V230 CAVOK 25/14 Q1025=
201908251450 METAR ESMX 251450Z 17005KT 130V220 CAVOK 25/14 Q1025=
201908251420 METAR ESMX 251420Z 14004KT 070V190 CAVOK 25/14 Q1025=
201908251350 METAR ESMX 251350Z 14005KT 100V170 CAVOK 25/14 Q1025=
201908251320 METAR ESMX 251320Z 13005KT 090V200 CAVOK 25/14 Q1025=
201908251250 METAR ESMX 251250Z 16005KT 120V200 CAVOK 24/13 Q1026=
201908251220 METAR ESMX 251220Z 17005KT 140V200 CAVOK 24/13 Q1026=
201908251150 METAR ESMX 251150Z 16005KT 110V200 CAVOK 24/16 Q1026=
201908251120 METAR ESMX 251120Z 17007KT 110V210 CAVOK 23/14 Q1026=
201908251050 METAR ESMX 251050Z 17006KT 130V200 CAVOK 22/13 Q1026=
201908251020 METAR ESMX 251020Z 17006KT 140V200 CAVOK 21/13 Q1026=
201908250950 METAR ESMX 250950Z 18006KT CAVOK 21/13 Q1027=
201908250920 METAR ESMX 250920Z 17005KT 130V210 CAVOK 20/14 Q1027=
201908250850 METAR ESMX 250850Z 15004KT 110V200 CAVOK 19/13 Q1027=
201908250820 METAR ESMX 250820Z 13005KT 100V200 CAVOK 18/11 Q1027=
201908250750 METAR ESMX 250750Z 15005KT 100V170 CAVOK 17/12 Q1027=
201908250720 METAR ESMX 250720Z 15005KT 110V180 9999 FEW003 17/14 Q1027=
201908250650 METAR ESMX 250650Z 00000KT 9999 FEW002 16/14 Q1026=
201908250620 METAR ESMX 250620Z 00000KT 9999 FEW002 15/13 Q1026=
201908250550 METAR ESMX 250550Z VRB02KT 1100 R01/1100U R19/P2000N MIFG BKN002 14/14 Q1026=
201908250520 METAR ESMX 250520Z AUTO VRB01KT 0150 R01/0325N R19/0450U FG VV001 ///// Q1026=
201908250450 METAR ESMX 250450Z AUTO 03001KT 0100 R01/0375N R19/0225N FG VV001 ///// Q1026=
201908250420 METAR ESMX 250420Z AUTO 00000KT 0050 R01/0350N R19/0125N FG VV001 ///// Q1026=
201908250350 METAR ESMX 250350Z AUTO 00000KT 0100 R01/0400N R19/0375N FG VV000 ///// Q1026=
201908250320 METAR ESMX 250320Z AUTO 00000KT 0050 R01/0375N R19/0225N FG VV000 ///// Q1026=
201908250250 METAR ESMX 250250Z AUTO 00000KT 0050 R01/0275N R19/0300N FG VV001 ///// Q1027=
201908250220 METAR ESMX 250220Z AUTO 00000KT 0100 R01/0300N R19/0350N FG OVC001/// ///// Q1027=
201908250150 METAR ESMX 250150Z AUTO 00000KT 0350 R01/1500U R19/1300N BCFG FEW002/// ///// Q1027=
201908250120 METAR ESMX 250120Z AUTO 00000KT 3700 BCFG NCD ///// Q1027=
201908250050 METAR ESMX 250050Z AUTO 00000KT 7000 BCFG NCD ///// Q1027=
201908250020 METAR ESMX 250020Z AUTO 00000KT 3900 BCFG NCD ///// Q1027=
201908242350 METAR ESMX 242350Z AUTO 00000KT 0250 R01/P2000N R19/P2000D BCFG NCD ///// Q1026=
201908242320 METAR ESMX 242320Z AUTO 00000KT 0300 R01/0900N R19/P2000N BCFG NCD ///// Q1026=
201908242250 METAR ESMX 242250Z AUTO 00000KT 0300 R01/1200N R19/P2000N BCFG NCD ///// Q1026=
201908242220 METAR ESMX 242220Z AUTO 00000KT 0100 R01/0350N R19/P2000N BCFG NCD ///// Q1026=
201908242150 METAR ESMX 242150Z AUTO 00000KT 0150 R01/P2000N R19/P2000N BCFG NCD ///// Q1026=
201908242120 METAR ESMX 242120Z AUTO 00000KT 9999 BCFG NCD ///// Q1026=
201908242050 METAR ESMX 242050Z AUTO 00000KT 9999 NCD ///// Q1026=
201908242020 METAR ESMX 242020Z AUTO 00000KT 9999 NCD ///// Q1026=
201908241950 METAR ESMX 241950Z AUTO 00000KT 9999 NCD ///// Q1026=
201908241920 METAR ESMX 241920Z AUTO 00000KT 9999 NCD ///// Q1026=
201908241850 METAR ESMX 241850Z AUTO 17002KT 9999 NCD ///// Q1026 RERA=
201908241820 METAR ESMX 241820Z AUTO 00000KT 9999 NCD ///// Q1026=
201908241750 METAR ESMX 241750Z AUTO 00000KT 9999 NCD ///// Q1026=
201908241720 METAR ESMX 241720Z AUTO 07003KT 9999 NCD ///// Q1026 RERA=
201908241650 METAR ESMX 241650Z AUTO 01003KT 9999 NCD ///// Q1026=
201908241620 METAR ESMX 241620Z AUTO 01004KT 9999 NCD ///// Q1026=
201908241550 METAR ESMX 241550Z AUTO 36004KT 9999 NCD ///// Q1026=
201908241520 METAR ESMX 241520Z 07003KT 360V120 CAVOK 22/11 Q1026=
201908241450 METAR ESMX 241450Z 05004KT 350V140 CAVOK 22/11 Q1026=
201908241420 METAR ESMX 241420Z 07005KT 030V100 CAVOK 22/11 Q1026=
201908241350 METAR ESMX 241350Z 05004KT 010V120 CAVOK 22/11 Q1026=
201908241320 METAR ESMX 241320Z VRB03KT CAVOK 22/11 Q1026=
201908241250 METAR ESMX 241250Z VRB02KT CAVOK 22/11 Q1027=
201908241220 METAR ESMX 241220Z 03004KT 270V080 CAVOK 21/14 Q1027=
201908241150 METAR ESMX 241150Z 21004KT 170V290 CAVOK 22/13 Q1027=
201908241120 METAR COR ESMX 241120Z 36004KT 290V030 CAVOK 20/13 Q1027=
201908241050 METAR ESMX 241050Z VRB03KT 9999 FEW026 20/13 Q1027=
201908241020 METAR ESMX 241020Z 29005KT 240V010 9999 FEW022 20/12 Q1027=
201908240950 METAR ESMX 240950Z 32005KT 260V360 9999 FEW023 18/13 Q1027=
201908240920 METAR ESMX 240920Z 33005KT 300V020 9999 SCT023 18/15 Q1027=
201908240850 METAR ESMX 240850Z 26005KT 220V300 9999 SCT021 18/15 Q1027=
201908240820 METAR ESMX 240820Z 30006KT 270V330 9999 SCT020 18/13 Q1027=
201908240750 METAR ESMX 240750Z 27006KT 230V310 9999 FEW017 17/14 Q1027=
201908240720 METAR ESMX 240720Z AUTO 26005KT 210V300 9999 FEW012/// SCT021/// ///// Q1026=
201908240650 METAR ESMX 240650Z AUTO 27004KT 230V310 9999 SCT021/// ///// Q1026=
201908240620 METAR ESMX 240620Z AUTO VRB03KT 9999 OVC020/// ///// Q1026=
201908240550 METAR ESMX 240550Z AUTO VRB03KT 9999 OVC018/// ///// Q1026=
201908240520 METAR ESMX 240520Z AUTO VRB01KT 9999 OVC015/// ///// Q1026=
201908240450 METAR ESMX 240450Z AUTO 26003KT 9999 SCT001/// BKN010/// OVC013/// ///// Q1026=
201908240420 METAR ESMX 240420Z AUTO 20003KT 3800 BCFG SCT001/// OVC011/// ///// Q1026=
201908240350 METAR ESMX 240350Z AUTO 22002KT 0150 R01/0600N R19/0400N FG BKN001/// OVC008/// ///// Q1026=
201908240320 METAR ESMX 240320Z AUTO 23003KT 0200 R01/P2000D R19/0450N BCFG FEW000/// ///// Q1026=
201908240250 METAR ESMX 240250Z AUTO 21004KT 0200 R01/1100U R19/0800N FG SCT180/// ///// Q1025=
201908240220 METAR ESMX 240220Z AUTO 22003KT 0100 R01/P2000N R19/0350N BR NCD ///// Q1025=
201908240150 METAR ESMX 240150Z AUTO 21005KT 0200 R01/P2000N R19/0500N BR NCD ///// Q1025=
201908240120 METAR ESMX 240120Z AUTO 22004KT 0100 R01/P2000N R19/0400N BR NCD ///// Q1025=
201908240050 METAR ESMX 240050Z AUTO 22004KT 0400 R01/P2000N R19/P2000D BR NCD ///// Q1025=
201908240020 METAR ESMX 240020Z AUTO 23003KT 0200 R01/P2000N R19/0600N NCD ///// Q1025=
201908232350 METAR ESMX 232350Z AUTO 19003KT 0700 R01/P2000N R19/P2000D BR NCD ///// Q1025=
201908232320 METAR ESMX 232320Z AUTO 18005KT 8000 BR NCD ///// Q1025=
201908232250 METAR ESMX 232250Z AUTO 22004KT 9999 NCD ///// Q1025=
201908232220 METAR ESMX 232220Z 22004KT CAVOK 15/13 Q1025=
201908232150 METAR ESMX 232150Z 23005KT CAVOK 15/13 Q1024=
201908232120 METAR ESMX 232120Z 22006KT CAVOK 15/13 Q1024=
201908232050 METAR COR ESMX 232050Z 21006KT CAVOK 15/13 Q1024=
201908232020 METAR ESMX 232020Z AUTO 22006KT 9999 NCD ///// Q1024=
201908231950 METAR COR ESMX 231950Z 22006KT CAVOK 16/15 Q1024=
201908231920 METAR ESMX 231920Z 22006KT CAVOK 16/13 Q1024=
201908231850 METAR ESMX 231850Z 20006KT 9999 FEW039 17/16 Q1024=
201908231820 METAR ESMX 231820Z 22006KT 9999 SCT040 18/17 Q1024=
201908231750 METAR COR ESMX 231750Z 23008KT 9999 SCT021 19/16 Q1024=
201908231720 METAR ESMX 231720Z 24007KT 200V260 9999 SCT022 BKN027 19/14 Q1024=
201908231650 METAR ESMX 231650Z 24009KT 200V270 9999 FEW022 BKN048 19/14 Q1023=
201908231620 METAR ESMX 231620Z 24011KT 9999 SCT025 BKN045 19/14 Q1023=
201908231550 METAR ESMX 231550Z 23010KT 200V260 9999 FEW027 OVC044 19/14 Q1023=
201908231520 METAR COR ESMX 231520Z 24010KT 210V280 9999 FEW030 OVC045 20/14 Q1023=
201908231450 METAR ESMX 231450Z 24008KT 210V280 9999 FEW030 OVC046 20/12 Q1023=
201908231420 METAR ESMX 231420Z 23012G23KT 9999 SCT031 OVC046 20/12 Q1023=
201908231350 METAR ESMX 231350Z 24014KT 210V280 9999 SCT031 OVC047 21/12 Q1023=
201908231320 METAR ESMX 231320Z AUTO 25012G23KT 9999 BKN032/// OVC043/// ///// Q1023=
201908231250 METAR ESMX 231250Z 23011KT 9999 BKN033 OVC064 20/12 Q1023=
201908231220 METAR COR ESMX 231220Z 23014KT 9999 BKN035 OVC066 21/12 Q1023=
201908231150 METAR ESMX 231150Z 21017KT 9999 BKN036 21/14 Q1023=
201908231120 METAR ESMX 231120Z 21013KT 9999 SCT033 BKN068 21/13 Q1023=
201908231050 METAR COR ESMX 231050Z 20013KT 9999 SCT030 SCT090 20/12 Q1023=
201908231020 METAR ESMX 231020Z 20014KT 9999 FEW030 SCT096 20/14 Q1023=
201908230950 METAR ESMX 230950Z 21012KT CAVOK 19/11 Q1023=
201908230920 METAR ESMX 230920Z 21013KT CAVOK 19/12 Q1023=
201908230850 METAR ESMX 230850Z 20011KT CAVOK 18/10 Q1023=
201908230820 METAR ESMX 230820Z 20011KT CAVOK 18/13 Q1023=
201908230750 METAR ESMX 230750Z 19011KT CAVOK 17/10 Q1023=
201908230720 METAR ESMX 230720Z 19011KT CAVOK 16/09 Q1023=
201908230650 METAR ESMX 230650Z 21009KT CAVOK 16/09 Q1023=
201908230620 METAR ESMX 230620Z 19009KT CAVOK 16/09 Q1023=
201908230550 METAR ESMX 230550Z 19007KT CAVOK 15/12 Q1023=
201908230520 METAR ESMX 230520Z 19006KT CAVOK 15/12 Q1023=
201908230450 METAR ESMX 230450Z 18007KT CAVOK 15/11 Q1023=
201908230420 METAR ESMX 230420Z 18006KT CAVOK 15/13 Q1023=
201908230350 METAR ESMX 230350Z 17006KT CAVOK 14/12 Q1023=
201908230320 METAR ESMX 230320Z AUTO 18006KT 9999 BKN100/// ///// Q1023=
201908230250 METAR ESMX 230250Z AUTO 17007KT 9999 BKN080/// ///// Q1023=
201908230220 METAR ESMX 230220Z AUTO 17005KT 9999 BKN080/// ///// Q1023=
201908230150 METAR ESMX 230150Z AUTO 18005KT 9999 FEW045/// SCT072/// OVC086/// ///// Q1023=
201908230120 METAR ESMX 230120Z AUTO 18006KT 9999 -DZ FEW049/// BKN086/// ///// Q1024=
201908230050 METAR ESMX 230050Z AUTO 20005KT 9999 BKN049/// BKN084/// ///// Q1024=
201908230020 METAR ESMX 230020Z AUTO 18006KT 9999 BKN051/// BKN086/// ///// Q1024=
201908222350 METAR ESMX 222350Z AUTO 18007KT 9999 BKN053/// BKN096/// ///// Q1024=
201908222320 METAR ESMX 222320Z 18007KT CAVOK 15/10 Q1024=
201908222250 METAR COR ESMX 222250Z 17007KT CAVOK 15/10 Q1024=
201908222220 METAR COR ESMX 222220Z 18008KT CAVOK 15/10 Q1024=
201908222150 METAR ESMX 222150Z AUTO 17008KT 9999 FEW096/// BKN120/// OVC150/// ///// Q1024=
201908222120 METAR ESMX 222120Z AUTO 17010KT 9999 OVC098/// ///// Q1024=
201908222050 METAR ESMX 222050Z 17009KT CAVOK 16/11 Q1024=
201908222020 METAR ESMX 222020Z 16009KT CAVOK 16/11 Q1024=
201908221950 METAR ESMX 221950Z 16008KT CAVOK 16/11 Q1024=
201908221920 METAR ESMX 221920Z 16009KT CAVOK 16/09 Q1024=
201908221850 METAR ESMX 221850Z 15008KT CAVOK 17/09 Q1024=
201908221820 METAR ESMX 221820Z 16007KT CAVOK 17/10 Q1024=
201908221750 METAR ESMX 221750Z 16009KT CAVOK 17/12 Q1024=
201908221720 METAR ESMX 221720Z 17009KT 120V190 CAVOK 18/09 Q1024=
201908221650 METAR ESMX 221650Z 16009KT CAVOK 19/10 Q1024=
201908221620 METAR ESMX 221620Z 16009KT CAVOK 19/08 Q1024=
201908221550 METAR ESMX 221550Z 17008KT 9999 FEW043 SCT210 19/08 Q1024=
201908221520 METAR ESMX 221520Z 17010KT 9999 SCT042 BKN150 19/10 Q1025=
201908221450 METAR ESMX 221450Z 18008KT 9999 BKN048 19/10 Q1025=
201908221420 METAR ESMX 221420Z 19012KT 9999 SCT045 BKN068 19/08 Q1025=
201908221350 METAR ESMX 221350Z 18008KT 9999 SCT044 BKN060 19/10 Q1025=
201908221320 METAR ESMX 221320Z 19010KT 9999 BKN043 18/07 Q1026=
201908221250 METAR ESMX 221250Z 20012KT 9999 SCT042 19/08 Q1026=
201908221220 METAR ESMX 221220Z 19013KT 9999 FEW047 SCT064 20/09 Q1026=
201908221150 METAR ESMX 221150Z 19012KT 9999 FEW037 SCT070 19/08 Q1026=
201908221120 METAR COR ESMX 221120Z 20012KT 9999 SCT039 SCT170 20/08 Q1027=
201908221050 METAR ESMX 221050Z 19011KT 9999 FEW040 19/08 Q1027=
201908221020 METAR ESMX 221020Z 21012KT 9999 FEW037 19/07 Q1027=
201908220950 METAR COR ESMX 220950Z 20013KT 9999 FEW035 19/10 Q1027=
201908220920 METAR ESMX 220920Z 19012KT 9999 FEW035 SCT043 18/07 Q1027=
201908220850 METAR ESMX 220850Z 19013KT 9999 SCT027 BKN035 17/09 Q1027=
201908220820 METAR COR ESMX 220820Z 21011KT 9999 FEW024 17/08 Q1027=
201908220750 METAR ESMX 220750Z 19010KT CAVOK 16/09 Q1027=
201908220720 METAR ESMX 220720Z 19008KT CAVOK 16/12 Q1027=
201908220650 METAR ESMX 220650Z 18008KT CAVOK 14/08 Q1027=
201908220620 METAR ESMX 220620Z 17006KT CAVOK 13/08 Q1027=
201908220550 METAR COR ESMX 220550Z 17006KT CAVOK 12/07 Q1027=
201908220520 METAR COR ESMX 220520Z 17006KT CAVOK 11/08 Q1027=
201908220450 METAR COR ESMX 220450Z 18004KT CAVOK 09/06 Q1027=
201908220420 METAR ESMX 220420Z 14003KT 9999 MIFG NSC 07/05 Q1027=
201908220350 METAR COR ESMX 220350Z 18003KT 9999 MIFG NSC 06/05 Q1027=
201908220320 METAR ESMX 220320Z AUTO 19004KT 9999 NCD ///// Q1027=
201908220250 METAR ESMX 220250Z AUTO 19004KT 9000 NCD ///// Q1027=
201908220220 METAR ESMX 220220Z AUTO 19005KT 9999 NCD ///// Q1027=
201908220150 METAR ESMX 220150Z AUTO 19006KT 9999 NCD ///// Q1027=
201908220120 METAR ESMX 220120Z AUTO 20004KT 9999 NCD ///// Q1027=
201908220050 METAR ESMX 220050Z AUTO 21005KT 9999 NCD ///// Q1027=
201908220020 METAR ESMX 220020Z AUTO 19006KT 9999 NCD ///// Q1027=
201908212350 METAR ESMX 212350Z AUTO 20005KT 9999 NCD ///// Q1027=
201908212320 METAR ESMX 212320Z 21005KT CAVOK 09/05 Q1027=
201908212250 METAR ESMX 212250Z 22005KT CAVOK 09/05 Q1026=
201908212220 METAR ESMX 212220Z AUTO 22006KT 9999 NCD ///// Q1026=
201908212150 METAR ESMX 212150Z 19005KT CAVOK 10/05 Q1026=
201908212120 METAR ESMX 212120Z AUTO 21005KT 9999 NCD ///// Q1026=
201908212050 METAR ESMX 212050Z 22005KT CAVOK 10/07 Q1026=
201908212020 METAR ESMX 212020Z 22005KT CAVOK 10/07 Q1026=
201908211950 METAR ESMX 211950Z 21004KT CAVOK 11/09 Q1025=
201908211920 METAR ESMX 211920Z 22005KT CAVOK 11/07 Q1025=
201908211850 METAR ESMX 211850Z AUTO 22005KT 9999 NCD ///// Q1025=
201908211820 METAR ESMX 211820Z AUTO 23005KT 9999 NCD ///// Q1025=
201908211750 METAR ESMX 211750Z AUTO 25004KT 210V280 9999 NCD ///// Q1025=
201908211720 METAR ESMX 211720Z AUTO 25006KT 210V280 9999 NCD ///// Q1025=
201908211650 METAR ESMX 211650Z AUTO 24006KT 200V270 9999 BKN055/// ///// Q1025=
201908211620 METAR ESMX 211620Z AUTO 26009KT 9999 FEW053/// ///// Q1025=
201908211550 METAR ESMX 211550Z AUTO 24008KT 9999 OVC053/// ///// Q1024=
201908211520 METAR ESMX 211520Z AUTO 26011KT 240V300 9999 OVC053/// ///// Q1024=
201908211450 METAR ESMX 211450Z 25010KT 9999 BKN031 16/07 Q1024=
201908211420 METAR ESMX 211420Z 24011KT 210V270 9999 BKN033 17/08 Q1024=
201908211350 METAR ESMX 211350Z 25011KT 9999 SCT034 BKN061 18/07 Q1024=
201908211320 METAR ESMX 211320Z 27011KT 240V310 9999 FEW034 SCT051 17/09 Q1024=
201908211250 METAR ESMX 211250Z 23010KT 190V260 9999 FEW025 SCT061 18/07 Q1023=
201908211220 METAR ESMX 211220Z 23010KT 9999 BKN022 17/10 Q1023=
201908211150 METAR ESMX 211150Z 24007KT 210V280 9999 FEW020CB SCT060 16/09 Q1023=
201908211120 METAR ESMX 211120Z 21006KT 9999 FEW025CB SCT040 14/09 Q1024=
201908211050 METAR COR ESMX 211050Z 25011KT 9999 SHRA FEW026CB SCT040 14/06 Q1023=
201908211020 METAR ESMX 211020Z 21007KT 170V240 9999 SCT025CB 17/12 Q1023=
201908210950 METAR ESMX 210950Z 21011KT 9999 -SHRA FEW025CB BKN033 14/09 Q1023=
201908210920 METAR ESMX 210920Z 22010KT 190V250 9999 FEW026 SCT061 17/09 Q1023=
201908210850 METAR ESMX 210850Z 22008KT 9999 FEW024 SCT038 16/08 Q1023=
201908210820 METAR ESMX 210820Z 21007KT 190V250 9999 SCT017 BKN023 16/09 Q1023=
201908210750 METAR ESMX 210750Z 19008KT 9999 SCT015 16/09 Q1023=
201908210720 METAR ESMX 210720Z 22005KT CAVOK 15/10 Q1023=
201908210650 METAR ESMX 210650Z 20005KT CAVOK 14/09 Q1023=
201908210620 METAR ESMX 210620Z 21006KT 9999 FEW021 13/08 Q1023=
201908210550 METAR ESMX 210550Z 21006KT 9999 FEW022 12/10 Q1023=
201908210520 METAR ESMX 210520Z 19005KT 9999 FEW025 12/09 Q1023=
201908210450 METAR ESMX 210450Z 19004KT CAVOK 10/08 Q1023=
201908210420 METAR ESMX 210420Z 21004KT 1200 R01/P2000N R19/1200 MIFG FEW030 09/07 Q1023=
201908210350 METAR COR ESMX 210350Z 21005KT 1500 MIFG NSC 09/07 Q1022=
201908210320 METAR ESMX 210320Z AUTO 21005KT 9999 FEW032/// ///// Q1022=
201908210250 METAR ESMX 210250Z AUTO 19005KT 6000 NCD ///// Q1022=
201908210220 METAR ESMX 210220Z AUTO 19005KT 7000 NCD ///// Q1022=
201908210150 METAR ESMX 210150Z AUTO 19005KT 9000 FEW051/// ///// Q1022=
201908210120 METAR ESMX 210120Z AUTO 18005KT 9999 NCD ///// Q1022=
201908210050 METAR ESMX 210050Z AUTO 17005KT 9999 NCD ///// Q1022=
201908210020 METAR ESMX 210020Z AUTO 17005KT 9999 NCD ///// Q1021=
201908202350 METAR ESMX 202350Z 18005KT CAVOK 11/05 Q1021=
201908202320 METAR ESMX 202320Z AUTO 18006KT 9999 NCD ///// Q1021=
201908202250 METAR ESMX 202250Z AUTO 18005KT 9999 NCD ///// Q1021=
201908202220 METAR ESMX 202220Z AUTO 19005KT 9999 NCD ///// Q1021=
201908202150 METAR ESMX 202150Z AUTO 22004KT 9999 NCD ///// Q1021=
201908202120 METAR ESMX 202120Z AUTO 19005KT 9999 NCD ///// Q1021=
201908202050 METAR ESMX 202050Z 19005KT CAVOK 12/09 Q1021=
201908202020 METAR ESMX 202020Z 20005KT CAVOK 13/10 Q1021=
201908201950 METAR ESMX 201950Z 17006KT CAVOK 14/10 Q1021=
201908201920 METAR ESMX 201920Z 17005KT CAVOK 14/11 Q1021=
201908201850 METAR ESMX 201850Z 17006KT 9999 FEW025 14/10 Q1020=
201908201820 METAR ESMX 201820Z 17008KT 9999 FEW035 15/10 Q1020=
201908201750 METAR ESMX 201750Z 19008KT 9999 FEW035 15/10 Q1020=
201908201720 METAR ESMX 201720Z 19009KT CAVOK 16/11 Q1020=
201908201650 METAR ESMX 201650Z 20007KT CAVOK 17/10 Q1020=
201908201620 METAR ESMX 201620Z 20008KT CAVOK 17/08 Q1020=
201908201550 METAR ESMX 201550Z 18008KT 150V210 CAVOK 17/08 Q1019=
201908201520 METAR ESMX 201520Z 20008KT 150V230 9999 FEW021 17/10 Q1019=
201908201450 METAR ESMX 201450Z 17005KT 9999 FEW034 OVC070 17/10 Q1019=
201908201420 METAR ESMX 201420Z 20006KT 9999 VCSH FEW023CB BKN060 17/09 Q1019=
201908201350 METAR COR ESMX 201350Z 19006KT 160V250 9999 VCSH FEW025CB SCT040 18/07 Q1019=
201908201320 METAR ESMX 201320Z 23005KT 190V360 9999 FEW020 18/08 Q1019=
201908201250 METAR COR ESMX 201250Z 24003KT 200V280 9999 VCSH FEW024CB SCT057 17/08 Q1019=
201908201220 METAR COR ESMX 201220Z 25006KT 220V280 9999 VCSH FEW023CB SCT055 17/08 Q1019=
201908201150 METAR ESMX 201150Z 16004KT 130V220 9999 SCT035CB 16/11 Q1019=
201908201120 METAR ESMX 201120Z 20005KT 160V250 9999 FEW035CB BKN050 15/10 Q1019=
201908201050 METAR ESMX 201050Z 20012KT 7000 SHRA SCT020CB BKN028 18/08 Q1018=
201908201020 METAR ESMX 201020Z 19011KT 150V230 9999 BKN028 19/10 Q1018=
201908200950 METAR ESMX 200950Z 20012KT 9999 BKN023 17/09 Q1018=
201908200920 METAR ESMX 200920Z 20008KT 9999 SCT016 17/10 Q1019=
201908200850 METAR ESMX 200850Z 20010KT 9999 BKN015 16/11 Q1018=
201908200820 METAR ESMX 200820Z 19010KT 9999 BKN010 15/10 Q1018=
201908200750 METAR ESMX 200750Z 21009KT 9999 BKN008 15/09 Q1018=
201908200720 METAR ESMX 200720Z 22009KT 9999 BKN007 14/10 Q1018=
201908200650 METAR ESMX 200650Z 19009KT 9999 OVC006 14/12 Q1018=
201908200620 METAR ESMX 200620Z 20009KT 9999 OVC005 14/10 Q1018=
201908200550 METAR ESMX 200550Z 20008KT 9999 OVC004 13/10 Q1017=
201908200520 METAR ESMX 200520Z 21008KT 7000 BR OVC002 13/09 Q1017=
201908200450 METAR ESMX 200450Z 22009KT 3900 BR OVC001 12/09 Q1017=
201908200420 METAR ESMX 200420Z 22009KT 2400 BR OVC001 12/09 Q1017=
201908200350 METAR COR ESMX 200350Z 20008KT 9000 BR OVC002 12/10 Q1016=
201908200320 METAR ESMX 200320Z AUTO 21007KT 9999 VV006 ///// Q1016=
201908200250 METAR ESMX 200250Z AUTO 21007KT 9999 NCD ///// Q1016=
201908200220 METAR ESMX 200220Z AUTO 20007KT 9999 NCD ///// Q1016=
201908200150 METAR ESMX 200150Z AUTO 20007KT 9999 NCD ///// Q1016=
201908200120 METAR ESMX 200120Z AUTO 18007KT 9999 NCD ///// Q1016=
201908200050 METAR ESMX 200050Z AUTO 19007KT 9999 NCD ///// Q1016=
201908200020 METAR ESMX 200020Z AUTO 20006KT 9999 NCD ///// Q1015=
201908192350 METAR ESMX 192350Z AUTO 20007KT 9999 NCD ///// Q1015=
201908192320 METAR ESMX 192320Z AUTO 19006KT 9999 NCD ///// Q1015=
201908192250 METAR ESMX 192250Z AUTO 19006KT 9999 NCD ///// Q1015=
201908192220 METAR ESMX 192220Z AUTO 19007KT 9999 NCD ///// Q1015=
201908192150 METAR ESMX 192150Z AUTO 20006KT 9999 NCD ///// Q1015=
201908192120 METAR ESMX 192120Z AUTO 18007KT 9999 NCD ///// Q1015=
201908192050 METAR ESMX 192050Z AUTO 19006KT 9999 NCD ///// Q1014=
201908192020 METAR ESMX 192020Z AUTO 19006KT 9999 NCD ///// Q1014=
201908191950 METAR ESMX 191950Z 20006KT CAVOK 12/08 Q1014=
201908191920 METAR ESMX 191920Z 19007KT CAVOK 13/08 Q1014=
201908191850 METAR ESMX 191850Z 19009KT CAVOK 14/09 Q1013=
201908191820 METAR ESMX 191820Z 18007KT CAVOK 14/11 Q1013=
201908191750 METAR ESMX 191750Z 21008KT CAVOK 14/11 Q1013=
201908191720 METAR ESMX 191720Z 21012KT 9999 -RA SCT066CB 15/11 Q1013=
201908191650 METAR ESMX 191650Z 23009KT 200V260 9999 DZ FEW038CB 17/12 Q1012=
201908191620 METAR ESMX 191620Z 19005KT 160V230 9999 VCSH FEW040CB 18/14 Q1012=
201908191550 METAR ESMX 191550Z 20005KT 170V240 9999 FEW042 17/10 Q1012=
201908191520 METAR ESMX 191520Z 27009KT 230V300 9999 FEW033CB 16/09 Q1012=
201908191450 METAR COR ESMX 191450Z 21011KT 9999 FEW035CB 19/11 Q1011=
201908191420 METAR ESMX 191420Z 19011KT 9999 SCT035 19/13 Q1011=
201908191350 METAR ESMX 191350Z 20010KT 9999 FEW030 SCT064 19/13 Q1011=
201908191320 METAR ESMX 191320Z 21011KT 9999 FEW035 BKN082 17/15 Q1011=
201908191250 METAR ESMX 191250Z 20010KT 9999 SCT040 BKN094 18/14 Q1011=
201908191220 METAR ESMX 191220Z 19008KT 170V250 9999 SCT041 BKN094 18/14 Q1011=
201908191150 METAR ESMX 191150Z 19013KT 9999 SCT030 BKN094 18/14 Q1010=
201908191120 METAR ESMX 191120Z 18011KT 9999 SCT027 18/13 Q1010=
201908191050 METAR ESMX 191050Z 18012KT 9999 FEW026 18/13 Q1010=
201908191020 METAR ESMX 191020Z 20009KT 9999 SCT029 BKN080 18/13 Q1010=
201908190950 METAR ESMX 190950Z 20012KT 170V250 9999 BKN026 18/13 Q1010=
201908190920 METAR ESMX 190920Z 21011KT 9999 SCT020 BKN033 17/15 Q1010=
201908190850 METAR ESMX 190850Z 20010KT 9999 SCT018 BKN029 17/16 Q1010=
201908190820 METAR ESMX 190820Z 21010KT 180V240 9999 SCT013 16/15 Q1010=
201908190750 METAR ESMX 190750Z 20010KT 9999 FEW008 BKN011 15/13 Q1010=
201908190720 METAR ESMX 190720Z 21009KT 9999 BKN006 14/13 Q1009=
201908190650 METAR ESMX 190650Z 20008KT 9999 BKN004 OVC007 14/13 Q1009=
201908190620 METAR ESMX 190620Z 21008KT 9999 OVC003 14/12 Q1009=
201908190550 METAR ESMX 190550Z AUTO 19009KT 9000 BR OVC002/// ///// Q1009=
201908190520 METAR ESMX 190520Z 21009KT 7000 BR OVC002 13/11 Q1008=
201908190450 METAR ESMX 190450Z 19007KT 4000 BR BKN002 12/11 Q1008=
201908190420 METAR COR ESMX 190420Z 20006KT 9000 2000S BR BKN003 12/11 Q1007=
201908190350 METAR COR ESMX 190350Z 20006KT 9999 BKN006 12/11 Q1007=
201908190320 METAR ESMX 190320Z AUTO 17005KT 9999 SCT006/// BKN008/// ///// Q1007=
201908190250 METAR ESMX 190250Z AUTO 25005KT 230V290 9999 OVC006/// ///// Q1006=
201908190220 METAR ESMX 190220Z AUTO 23005KT 200V260 9999 OVC006/// ///// Q1006=
201908190150 METAR ESMX 190150Z AUTO 25006KT 9999 SCT006/// BKN008/// ///// Q1006=
201908190120 METAR ESMX 190120Z AUTO 24008KT 210V280 9999 SCT007/// BKN010/// ///// Q1005=
201908190050 METAR ESMX 190050Z AUTO 23007KT 200V280 9999 BKN006/// BKN008/// OVC011/// ///// Q1005=
201908190020 METAR ESMX 190020Z AUTO 22005KT 9999 SCT007/// BKN009/// BKN015/// ///// Q1005=
201908182350 METAR ESMX 182350Z AUTO 24005KT 9999 BKN008/// ///// Q1005=
201908182320 METAR ESMX 182320Z AUTO 26006KT 9999 SCT008/// ///// Q1005=
201908182250 METAR ESMX 182250Z AUTO 26007KT 230V290 9999 NCD ///// Q1004=
201908182220 METAR ESMX 182220Z AUTO 27007KT 9999 SCT006/// ///// Q1004=
201908182150 METAR ESMX 182150Z AUTO 22006KT 2000 DZ VV006 ///// Q1003 REDZ=
201908182120 METAR ESMX 182120Z AUTO 16003KT 9999 VV002 ///// Q1003=
201908182050 METAR ESMX 182050Z AUTO 26003KT 4000 -DZ VV008 ///// Q1003=
201908182020 METAR ESMX 182020Z AUTO VRB02KT 9999 SCT008/// BKN010/// OVC014/// ///// Q1003=
201908181950 METAR ESMX 181950Z VRB02KT 9999 OVC016 13/12 Q1002=
201908181920 METAR ESMX 181920Z VRB02KT 9999 -RA SCT006 BKN014 13/12 Q1003=
201908181850 METAR ESMX 181850Z VRB01KT 9999 -RA SCT012 BKN017 13/12 Q1003=
201908181820 METAR ESMX 181820Z VRB02KT 8000 RA BKN021 13/12 Q1003=
201908181750 METAR ESMX 181750Z VRB03KT 9999 -RA FEW003 BKN027 14/13 Q1003=
201908181720 METAR ESMX 181720Z VRB03KT 8000 RA FEW006 BKN036 14/13 Q1004=
201908181650 METAR ESMX 181650Z 21003KT 8000 RA FEW005 BKN038 15/14 Q1004=
201908181620 METAR ESMX 181620Z 24005KT 9999 -RA FEW008 OVC046 16/15 Q1004=
201908181550 METAR ESMX 181550Z 30002KT 9999 -RA FEW033 BKN049 17/16 Q1004=
201908181520 METAR COR ESMX 181520Z 25003KT 9999 -RA FEW035 OVC066 17/16 Q1004=
201908181450 METAR ESMX 181450Z 25003KT 200V280 9999 FEW010 BKN078 18/17 Q1004=
201908181420 METAR ESMX 181420Z 22005KT 190V250 9999 FEW010 BKN083 18/17 Q1005=
201908181350 METAR ESMX 181350Z 21003KT 9999 -RA FEW002 BKN082 18/17 Q1005=
201908181320 METAR ESMX 181320Z 19007KT 9999 RA FEW020 BKN082 18/17 Q1005=
201908181250 METAR ESMX 181250Z 22007KT 9999 -RA FEW022 SCT080 BKN190 19/17 Q1005=
201908181220 METAR ESMX 181220Z 20008KT 9999 FEW022 SCT086 BKN170 19/18 Q1005=
201908181150 METAR ESMX 181150Z 20006KT 9999 FEW022 BKN100 19/17 Q1005=
201908181120 METAR ESMX 181120Z 20010KT 9999 SCT020 BKN110 19/16 Q1005=
201908181050 METAR ESMX 181050Z 20010KT 9999 SCT021 BKN140 20/17 Q1005=
201908181020 METAR ESMX 181020Z 20009KT 9999 SCT019 BKN160 19/17 Q1005=
201908180950 METAR ESMX 180950Z 19009KT 9999 SCT016 BKN023 19/18 Q1005=
201908180920 METAR ESMX 180920Z 18009KT 9999 SCT013 BKN019 19/18 Q1005=
201908180850 METAR ESMX 180850Z 18010KT 9999 BKN012 19/16 Q1005=
201908180820 METAR ESMX 180820Z 17010KT 9999 FEW007 BKN009 18/16 Q1005=
201908180750 METAR ESMX 180750Z 16008KT 9999 OVC007 17/15 Q1005=
201908180720 METAR ESMX 180720Z 15007KT 9999 OVC006 17/14 Q1005=
201908180650 METAR ESMX 180650Z 17008KT 6000 BR OVC005 16/15 Q1005=
201908180620 METAR ESMX 180620Z 15004KT 120V180 9000 BR OVC005 16/14 Q1005=
201908180550 METAR ESMX 180550Z 16003KT 120V200 8000 BR BKN005 16/15 Q1005=
201908180520 METAR COR ESMX 180520Z 14004KT 9000 BR SCT004 BKN010 16/15 Q1005=
201908180450 METAR ESMX 180450Z AUTO 16004KT 8000 BR SCT004/// BKN006/// BKN010/// ///// Q1005=
201908180420 METAR ESMX 180420Z AUTO 18003KT 8000 -DZ FEW005/// OVC010/// ///// Q1006=
201908180350 METAR ESMX 180350Z AUTO 11003KT 070V160 9999 FEW006/// SCT013/// BKN090/// ///// Q1005=
201908180320 METAR ESMX 180320Z AUTO 14003KT 9999 OVC013/// ///// Q1006=
201908180250 METAR ESMX 180250Z AUTO 18005KT 9000 BR SCT005/// BKN010/// OVC016/// ///// Q1006=
201908180220 METAR ESMX 180220Z AUTO 19004KT 9999 BKN005/// OVC014/// ///// Q1006=
201908180150 METAR ESMX 180150Z AUTO 16005KT 9999 FEW007/// OVC015/// ///// Q1006=
201908180120 METAR ESMX 180120Z AUTO 18007KT 9999 SCT006/// BKN008/// OVC011/// ///// Q1006=
201908180050 METAR ESMX 180050Z AUTO 19006KT 9999 OVC005/// ///// Q1006=
201908180020 METAR ESMX 180020Z AUTO 17007KT 9999 OVC004/// ///// Q1006=
201908172350 METAR ESMX 172350Z AUTO 17005KT 9999 OVC005/// ///// Q1006=
201908172320 METAR ESMX 172320Z AUTO 15005KT 7000 -RA BKN006/// OVC042/// ///// Q1006=
201908172250 METAR ESMX 172250Z AUTO 17006KT 140V200 9999 BKN007/// BKN009/// OVC047/// ///// Q1006 RERA=
201908172220 METAR ESMX 172220Z AUTO 16005KT 9000 BR BKN008/// BKN019/// OVC047/// ///// Q1007=
201908172150 METAR ESMX 172150Z AUTO 16006KT 9999 FEW009/// SCT022/// BKN031/// ///// Q1007=
201908172120 METAR ESMX 172120Z AUTO 17006KT 9999 FEW008/// SCT023/// BKN043/// ///// Q1007=
201908172050 METAR ESMX 172050Z AUTO 15006KT 9999 BKN018/// BKN024/// OVC031/// ///// Q1007=
201908172020 METAR ESMX 172020Z AUTO 14006KT 9999 FEW012/// OVC016/// ///// Q1007 REDZ=
201908171950 METAR ESMX 171950Z AUTO 16007KT 9999 -DZ SCT012/// BKN015/// OVC021/// ///// Q1007=
201908171920 METAR ESMX 171920Z AUTO 15007KT 9999 FEW013/// BKN021/// BKN027/// ///// Q1007=
201908171850 METAR ESMX 171850Z AUTO 16007KT 9999 SCT022/// OVC033/// ///// Q1007=
201908171820 METAR ESMX 171820Z AUTO 17008KT 9999 FEW014/// BKN026/// OVC035/// ///// Q1007=
201908171750 METAR ESMX 171750Z AUTO 17007KT 9999 BKN015/// OVC024/// ///// Q1007=
201908171720 METAR ESMX 171720Z AUTO 15007KT 120V190 9999 SCT017/// OVC028/// ///// Q1007=
201908171650 METAR ESMX 171650Z AUTO 17007KT 9999 OVC029/// ///// Q1007=
201908171620 METAR ESMX 171620Z AUTO 16008KT 130V190 9999 FEW006/// SCT030/// ///// Q1007=
201908171550 METAR ESMX 171550Z 14008KT 8000 BR FEW008 BKN032 16/15 Q1007=
201908171520 METAR ESMX 171520Z 16008KT 4500 DZ FEW007 BKN014 16/15 Q1007=
201908171450 METAR ESMX 171450Z 17010KT 6000 BR FEW012 BKN018 16/14 Q1007=
201908171420 METAR ESMX 171420Z 17011KT 8000 DZ BKN032 16/15 Q1008=
201908171350 METAR ESMX 171350Z 17009KT 6000 DZ FEW009 SCT017 BKN021 16/12 Q1008=
201908171320 METAR ESMX 171320Z 15010KT 9999 FEW015 BKN023 17/14 Q1008=
201908171250 METAR ESMX 171250Z 14010KT 9999 SCT011 BKN019 17/13 Q1008=
201908171220 METAR ESMX 171220Z 16009KT 120V190 9999 -RA SCT011 BKN051 16/14 Q1008=
201908171150 METAR ESMX 171150Z 15008KT 9999 -DZ FEW015 SCT110 16/13 Q1009=
201908171120 METAR ESMX 171120Z 16008KT 130V200 9999 -RA SCT072 16/14 Q1009=
201908171050 METAR ESMX 171050Z 17009KT 9999 -RA NSC 16/14 Q1009=
201908171020 METAR ESMX 171020Z 16010KT 9999 -RA FEW010 BKN043 OVC070 16/14 Q1009=
201908170950 METAR ESMX 170950Z 16007KT 120V190 9999 -RA SCT014 BKN029 16/15 Q1009=
201908170920 METAR ESMX 170920Z 14008KT 9999 -RA SCT017 OVC068 16/15 Q1009=
201908170850 METAR ESMX 170850Z 15007KT 9999 -RA SCT016 BKN057 16/14 Q1010=
201908170820 METAR ESMX 170820Z 17009KT 9999 BKN018 16/13 Q1010=
201908170750 METAR ESMX 170750Z AUTO 15008KT 120V180 9999 FEW017/// SCT048/// ///// Q1010=
201908170720 METAR ESMX 170720Z 15009KT 9999 FEW016 BKN065 16/14 Q1010=
201908170650 METAR ESMX 170650Z 15009KT CAVOK 16/13 Q1010=
201908170620 METAR ESMX 170620Z 13007KT 9999 FEW022 BKN068 14/11 Q1011=
201908170550 METAR ESMX 170550Z 15005KT 9999 BKN027 OVC064 14/13 Q1011=
201908170520 METAR ESMX 170520Z 14005KT 110V170 9999 SCT026 BKN045 13/11 Q1011=
201908170450 METAR ESMX 170450Z AUTO 15005KT 9999 FEW032/// SCT041/// BKN061/// ///// Q1011=
201908170420 METAR ESMX 170420Z AUTO 15005KT 9999 FEW059/// SCT170/// ///// Q1011=
201908170350 METAR ESMX 170350Z AUTO 16005KT 9999 SCT041/// BKN180/// ///// Q1011=
201908170320 METAR ESMX 170320Z AUTO 17004KT 9999 NCD ///// Q1011=
201908170250 METAR ESMX 170250Z AUTO 16004KT 9999 NCD ///// Q1011=
201908170220 METAR ESMX 170220Z AUTO 16005KT 9999 NCD ///// Q1011=
201908170150 METAR ESMX 170150Z AUTO 17004KT 9999 NCD ///// Q1011=
201908170120 METAR ESMX 170120Z AUTO 17004KT 9999 FEW027/// SCT038/// ///// Q1012=
201908170050 METAR ESMX 170050Z AUTO 16004KT 0550 R01/P2000N R19/P2000D FEW036/// ///// Q1012=
201908170020 METAR ESMX 170020Z AUTO 15004KT 9999 FEW030/// ///// Q1012=
201908162350 METAR ESMX 162350Z AUTO 16004KT 9999 SCT038/// BKN051/// ///// Q1012=
201908162320 METAR ESMX 162320Z AUTO 18004KT 9999 OVC051/// ///// Q1012=
201908162250 METAR ESMX 162250Z AUTO 19004KT 9999 OVC048/// ///// Q1012=
201908162220 METAR ESMX 162220Z AUTO 17004KT 9999 BKN044/// ///// Q1012=
201908162150 METAR ESMX 162150Z AUTO 17005KT 9999 NCD ///// Q1012=
201908162120 METAR ESMX 162120Z AUTO 18004KT 9999 NCD ///// Q1012=
201908162050 METAR ESMX 162050Z AUTO 17005KT 9999 NCD ///// Q1012=
201908162020 METAR ESMX 162020Z AUTO 21004KT 9999 NCD ///// Q1012=
201908161950 METAR ESMX 161950Z AUTO 21005KT 9999 FEW042/// ///// Q1012=
201908161920 METAR ESMX 161920Z AUTO 21005KT 9999 NCD ///// Q1012=
201908161850 METAR ESMX 161850Z AUTO 22007KT 9999 FEW020/// SCT025/// BKN033/// ///// Q1012=
201908161820 METAR ESMX 161820Z AUTO 21004KT 9999 NCD ///// Q1012=
201908161750 METAR ESMX 161750Z AUTO 23005KT 9999 SCT026/// ///// Q1011=
201908161720 METAR ESMX 161720Z 22004KT 9999 FEW035 SCT076 17/16 Q1011=
201908161650 METAR ESMX 161650Z 21003KT 170V240 9999 FEW019 SCT037 18/16 Q1011=
201908161620 METAR ESMX 161620Z 17003KT 9999 SCT020CB 18/17 Q1011=
201908161550 METAR ESMX 161550Z VRB03KT 9999 FEW020CB BKN062 18/16 Q1011=
201908161520 METAR ESMX 161520Z 23004KT 9999 FEW024CB BKN057 18/17 Q1011 REDZ=
201908161450 METAR ESMX 161450Z 22006KT 9999 SCT017CB BKN062 18/16 Q1011=
201908161420 METAR ESMX 161420Z 22004KT 190V260 9999 SCT018CB BKN043 18/16 Q1011=
201908161350 METAR ESMX 161350Z 21006KT 9000 FEW014 BKN055 17/15 Q1011=
201908161320 METAR COR ESMX 161320Z 24007KT 9999 VCSH SCT042CB 18/15 Q1011=
201908161250 METAR ESMX 161250Z 25012KT 9999 -RA BKN016 17/14 Q1011=
201908161220 METAR ESMX 161220Z 24009KT 9999 FEW017 BKN082 18/14 Q1010=
201908161150 METAR ESMX 161150Z 20009KT 160V240 9999 -RA SCT016 BKN029 17/14 Q1010=
201908161120 METAR ESMX 161120Z 17006KT 9999 SCT024 BKN062 19/13 Q1010=
201908161050 METAR ESMX 161050Z 21007KT 9999 SCT022 19/13 Q1010=
201908161020 METAR ESMX 161020Z 17007KT 150V210 9999 BKN021 19/13 Q1010=
201908160950 METAR ESMX 160950Z 17006KT 100V210 9999 SCT018 BKN055 20/14 Q1010=
201908160920 METAR ESMX 160920Z 17007KT 120V200 9999 SCT015 BKN050 19/17 Q1010=
201908160850 METAR ESMX 160850Z 18005KT 130V200 9999 SCT010 BKN016 19/15 Q1010=
201908160820 METAR ESMX 160820Z 17004KT 130V200 9999 SCT009 BKN012 17/13 Q1010=
201908160750 METAR ESMX 160750Z 20006KT 9999 BKN009 17/15 Q1010=
201908160720 METAR ESMX 160720Z 16004KT 130V190 9999 BKN006 16/15 Q1010=
201908160650 METAR ESMX 160650Z 15004KT 110V170 9999 OVC005 16/15 Q1009=
201908160620 METAR ESMX 160620Z AUTO 16004KT 110V180 9999 OVC005/// ///// Q1009=
201908160550 METAR COR ESMX 160550Z 15003KT 110V190 9999 OVC005 15/14 Q1009=
201908160520 METAR ESMX 160520Z 15004KT 100V200 9999 OVC006 15/14 Q1009=
201908160450 METAR ESMX 160450Z 14004KT 110V180 9999 BKN006 15/15 Q1009=
201908160420 METAR ESMX 160420Z 15004KT 100V180 9999 BKN007 15/15 Q1009=
201908160350 METAR ESMX 160350Z 15003KT 110V190 9999 BKN006 15/15 Q1009=
201908160320 METAR ESMX 160320Z 15005KT 9999 BKN005 15/15 Q1009=
201908160250 METAR COR ESMX 160250Z 15004KT 110V170 9999 BKN005 15/15 Q1009=
201908160220 METAR ESMX 160220Z AUTO 16004KT 120V200 9999 OVC004/// ///// Q1009=
201908160150 METAR ESMX 160150Z AUTO 16005KT 9999 OVC005/// ///// Q1009=
201908160120 METAR ESMX 160120Z AUTO 16006KT 110V180 9999 BKN007/// BKN032/// OVC045/// ///// Q1009=
201908160050 METAR ESMX 160050Z AUTO 13005KT 100V160 9999 SCT023/// BKN043/// ///// Q1009=
201908160020 METAR ESMX 160020Z 14005KT 100V170 9999 BKN017 14/14 Q1009=
201908152350 METAR ESMX 152350Z 14006KT 9999 BKN012 14/14 Q1009=
201908152320 METAR ESMX 152320Z 14006KT 7000 RA BKN009 14/14 Q1009=
201908152250 METAR ESMX 152250Z AUTO 13007KT 100V170 9999 FEW009/// BKN013/// OVC030/// ///// Q1009=
201908152220 METAR ESMX 152220Z AUTO 14005KT 120V180 9999 FEW021/// OVC030/// ///// Q1010=
201908152150 METAR ESMX 152150Z AUTO 15004KT 110V170 9999 OVC034/// ///// Q1010=
201908152120 METAR ESMX 152120Z AUTO 09003KT 050V140 9999 OVC038/// ///// Q1010=
201908152050 METAR ESMX 152050Z AUTO 12003KT 060V160 9999 -DZ OVC040/// ///// Q1010 RERA=
201908152020 METAR ESMX 152020Z AUTO 15004KT 100V190 9999 OVC039/// ///// Q1010 REDZ=
201908151950 METAR ESMX 151950Z AUTO 15006KT 9999 FEW030/// OVC040/// ///// Q1010=
201908151920 METAR ESMX 151920Z AUTO 14009KT 9999 OVC034/// ///// Q1010=
201908151850 METAR ESMX 151850Z AUTO 15006KT 100V180 9999 SCT029/// OVC036/// ///// Q1010=
201908151820 METAR ESMX 151820Z 13005KT 080V160 9999 BKN040 ///// Q1010=
201908151750 METAR ESMX 151750Z 14005KT 110V180 9999 BKN042 15/10 Q1010=
201908151720 METAR ESMX 151720Z 14007KT 100V160 9999 BKN045 15/09 Q1010=
201908151650 METAR COR ESMX 151650Z 17012KT 9999 -RA FEW045 BKN060 15/09 Q1011=
201908151620 METAR ESMX 151620Z 17013KT 140V200 9999 -RA FEW045 BKN065 17/08 Q1010=
201908151550 METAR COR ESMX 151550Z 17011KT CAVOK 18/07 Q1010=
201908151520 METAR ESMX 151520Z 16013KT CAVOK 18/13 Q1010=
201908151450 METAR ESMX 151450Z 15008KT CAVOK 18/13 Q1010=
201908151420 METAR ESMX 151420Z 15008KT 9999 SCT050 BKN062 17/13 Q1010=
201908151350 METAR ESMX 151350Z 16008KT CAVOK 18/13 Q1010=
201908151320 METAR ESMX 151320Z 15009KT 9999 FEW034 BKN080 19/13 Q1010=
201908151250 METAR ESMX 151250Z 16009KT 9999 FEW030 19/13 Q1010=
201908151220 METAR ESMX 151220Z 16010KT 9999 SCT029 19/13 Q1011=
201908151150 METAR ESMX 151150Z 16007KT 100V210 9999 FEW025 18/13 Q1011=
201908151120 METAR ESMX 151120Z 15008KT 090V180 9999 FEW022 17/13 Q1011=
201908151050 METAR ESMX 151050Z 12005KT 080V160 CAVOK 16/14 Q1011=
201908151020 METAR ESMX 151020Z 13004KT 090V170 CAVOK 15/13 Q1011=
201908150950 METAR ESMX 150950Z 12003KT 090V160 CAVOK 13/12 Q1012=
201908150920 METAR ESMX 150920Z 13004KT 100V170 CAVOK 13/12 Q1012=
201908150850 METAR ESMX 150850Z 15007KT CAVOK 13/11 Q1012=
201908150820 METAR ESMX 150820Z 15005KT 120V180 9999 BKN048 13/11 Q1012=
201908150750 METAR ESMX 150750Z 15004KT 110V180 9999 SCT046 13/12 Q1012=
201908150720 METAR ESMX 150720Z 18005KT 9999 FEW033 BKN064 12/11 Q1012=
201908150650 METAR ESMX 150650Z 18005KT 9999 -RA BKN062 12/10 Q1012=
201908150620 METAR ESMX 150620Z 18004KT 9999 FEW035 12/11 Q1012=
201908150550 METAR ESMX 150550Z 17003KT 130V200 9999 SCT036 12/11 Q1012=
201908150520 METAR ESMX 150520Z VRB03KT 9999 FEW043 11/10 Q1012=
201908150450 METAR ESMX 150450Z 18002KT CAVOK 10/09 Q1012=
201908150420 METAR ESMX 150420Z 16003KT CAVOK 09/08 Q1012=
201908150350 METAR ESMX 150350Z 17003KT CAVOK 08/07 Q1012=
201908150320 METAR ESMX 150320Z AUTO 17003KT 9999 SCT120/// ///// Q1012=
201908150250 METAR ESMX 150250Z AUTO 15004KT 9999 SCT170/// ///// Q1012=
201908150220 METAR ESMX 150220Z AUTO 20003KT 9999 OVC180/// ///// Q1012=
201908150150 METAR ESMX 150150Z AUTO 19003KT 9999 SCT180/// ///// Q1012=
201908150120 METAR ESMX 150120Z AUTO 21005KT 9999 FEW088/// ///// Q1012=
201908150050 METAR ESMX 150050Z AUTO 21005KT 9999 SCT110/// ///// Q1012=
201908150020 METAR ESMX 150020Z AUTO 21006KT 9999 NCD ///// Q1012=
201908142350 METAR ESMX 142350Z AUTO 20006KT 9999 FEW049/// ///// Q1012=
201908142320 METAR ESMX 142320Z AUTO 21005KT 9999 NCD ///// Q1012=
201908142250 METAR ESMX 142250Z AUTO 21006KT 9999 SCT070/// ///// Q1012=
201908142220 METAR ESMX 142220Z AUTO 21005KT 9999 NCD ///// Q1012=
201908142150 METAR ESMX 142150Z AUTO 18005KT 9999 NCD ///// Q1012=
201908142120 METAR ESMX 142120Z AUTO 17004KT 9999 NCD ///// Q1012=
201908142050 METAR ESMX 142050Z AUTO 20005KT 9999 NCD ///// Q1012=
201908142020 METAR ESMX 142020Z 20006KT CAVOK 10/09 Q1012=
201908141950 METAR ESMX 141950Z 21006KT CAVOK 10/08 Q1012=
201908141920 METAR ESMX 141920Z 22004KT CAVOK 11/09 Q1012=
201908141850 METAR ESMX 141850Z 22005KT CAVOK 12/09 Q1012=
201908141820 METAR ESMX 141820Z 25006KT CAVOK 13/09 Q1012=
201908141750 METAR ESMX 141750Z 25008KT CAVOK 15/10 Q1012=
201908141720 METAR ESMX 141720Z 23009KT 9999 FEW045 16/11 Q1011=
201908141650 METAR ESMX 141650Z 24010KT 210V280 9999 FEW044 16/09 Q1011=
201908141620 METAR ESMX 141620Z 25011KT 210V290 9999 SCT044 17/09 Q1011=
201908141550 METAR ESMX 141550Z 23010KT 9999 SCT040 17/10 Q1011=
201908141520 METAR ESMX 141520Z 28007KT 220V340 9999 SCT034 BKN059 16/09 Q1011=
201908141450 METAR ESMX 141450Z 22011KT CAVOK 16/11 Q1011=
201908141420 METAR ESMX 141420Z 22011KT CAVOK 17/10 Q1011=
201908141350 METAR ESMX 141350Z 21011KT 9999 FEW035 17/13 Q1011=
201908141320 METAR ESMX 141320Z 24009KT 210V270 9999 SCT033 16/12 Q1011=
201908141250 METAR ESMX 141250Z 22010KT 180V260 9999 FEW034 16/10 Q1011=
201908141220 METAR ESMX 141220Z 22011KT CAVOK 16/12 Q1011=
201908141150 METAR ESMX 141150Z 21010KT 9999 FEW040 14/12 Q1012=
201908141120 METAR ESMX 141120Z 23011KT 9999 SCT018CB 14/12 Q1012=
201908141050 METAR ESMX 141050Z 22009KT 9999 FEW018 SCT036CB 14/12 Q1011=
201908141020 METAR ESMX 141020Z 22006KT 9999 SCT043 14/13 Q1011=
201908140950 METAR COR ESMX 140950Z 20010KT 9999 SCT038 12/09 Q1011 RERA=
201908140920 METAR ESMX 140920Z 26009KT 230V290 9999 6000S RA SCT029 14/09 Q1011=
201908140850 METAR ESMX 140850Z 24009KT 200V280 9999 SCT028 BKN038 17/09 Q1011=
201908140820 METAR ESMX 140820Z 25011KT 210V280 9999 SCT028 16/08 Q1011=
201908140750 METAR ESMX 140750Z 24011KT 210V280 9999 FEW022 17/09 Q1011=
201908140720 METAR ESMX 140720Z 22010KT CAVOK 16/11 Q1011=
201908140650 METAR ESMX 140650Z 20009KT CAVOK 13/11 Q1011=
201908140620 METAR ESMX 140620Z 21008KT 180V240 CAVOK 12/12 Q1011=
201908140550 METAR ESMX 140550Z 21008KT CAVOK 11/11 Q1011=
201908140520 METAR ESMX 140520Z 21008KT CAVOK 10/10 Q1011=
201908140450 METAR ESMX 140450Z 19007KT CAVOK 09/09 Q1011=
201908140420 METAR ESMX 140420Z 21006KT CAVOK 09/09 Q1011=
201908140350 METAR COR ESMX 140350Z 19007KT CAVOK 09/09 Q1011=
201908140320 METAR ESMX 140320Z AUTO 19007KT 9999 NCD 09/09 Q1011=
201908140250 METAR ESMX 140250Z AUTO 20006KT 9999 FEW031/// 08/08 Q1011=
201908140220 METAR ESMX 140220Z AUTO 20006KT 9999 NCD 09/09 Q1011=
201908140150 METAR ESMX 140150Z AUTO 19005KT 9999 NCD 09/09 Q1011=
201908140120 METAR ESMX 140120Z AUTO 20006KT 9999 NCD 09/09 Q1011=
201908140050 METAR ESMX 140050Z AUTO 20007KT 9999 SCT033/// 10/10 Q1011=
201908140020 METAR ESMX 140020Z AUTO 20007KT 9999 FEW034/// 10/10 Q1010=
201908132350 METAR ESMX 132350Z AUTO 21007KT 9999 NCD 10/10 Q1010=
201908132320 METAR ESMX 132320Z AUTO 20006KT 9999 SCT072/// 11/11 Q1010=
201908132250 METAR ESMX 132250Z AUTO 20008KT 9999 -DZ BKN045/// OVC059/// 11/11 Q1010 REDZ=
201908132220 METAR ESMX 132220Z AUTO 21008KT 9999 FEW033/// SCT076/// 11/11 Q1010=
201908132150 METAR ESMX 132150Z AUTO 21007KT 9999 FEW022/// SCT039/// BKN055/// 12/12 Q1010=
201908132120 METAR ESMX 132120Z AUTO 20007KT 9999 FEW032/// SCT045/// BKN064/// 12/12 Q1010=
201908132050 METAR ESMX 132050Z AUTO 21008KT 9999 FEW027/// BKN092/// 12/12 Q1010 REDZ=
201908132020 METAR ESMX 132020Z AUTO 22006KT 9999 OVC066/// 12/12 Q1010=
201908131950 METAR ESMX 131950Z AUTO 23008KT 9999 FEW053/// BKN074/// 12/12 Q1010=
201908131920 METAR ESMX 131920Z AUTO 22008KT 9999 BKN084/// 12/12 Q1010=
201908131850 METAR ESMX 131850Z AUTO 20008KT 9999 BKN064/// 13/13 Q1009 REDZ=
201908131820 METAR ESMX 131820Z AUTO 22008KT 9999 OVC066/// 13/13 Q1009 REDZ=
201908131750 METAR ESMX 131750Z AUTO 23010KT 9999 OVC074/// 14/14 Q1009=
201908131720 METAR ESMX 131720Z 19008KT 9999 FEW037 14/14 Q1009=
201908131650 METAR ESMX 131650Z 19008KT CAVOK 15/15 Q1009=
201908131620 METAR ESMX 131620Z 20010KT 9999 -RA SCT036CB BKN070 14/14 Q1009=
201908131550 METAR ESMX 131550Z 21008KT CAVOK 15/15 Q1009=
201908131520 METAR COR ESMX 131520Z 20006KT CAVOK 15/15 Q1009=
201908131450 METAR ESMX 131450Z 22007KT 9999 FEW045 BKN057 14/14 Q1009=
201908131420 METAR ESMX 131420Z 21006KT 9999 VCSH FEW025 BKN059 14/13 Q1009=
201908131350 METAR ESMX 131350Z 22004KT 6000 VCSH FEW012CB BKN057 14/14 Q1009=
201908131320 METAR ESMX 131320Z 21008KT 9999 -RA SCT012CB BKN055 14/13 Q1009=
201908131250 METAR ESMX 131250Z 21006KT 9999 -RA FEW015CB BKN070 15/14 Q1009=
201908131220 METAR ESMX 131220Z 23006KT 9999 FEW015 BKN066 15/14 Q1009=
201908131150 METAR ESMX 131150Z 26006KT 9999 -SHRA SCT018CB BKN060 14/14 Q1009=
201908131120 METAR ESMX 131120Z 20009KT 9999 VCSH SCT017CB BKN060 17/17 Q1008=
201908131050 METAR ESMX 131050Z 24008KT 9999 SCT016 BKN060 16/16 Q1008=
201908131020 METAR ESMX 131020Z 24008KT 9999 SCT016 OVC066 17/15 Q1008=
201908130950 METAR ESMX 130950Z 22009KT 180V240 9999 FEW014 BKN072 17/16 Q1008=
201908130920 METAR ESMX 130920Z 20008KT 9999 FEW012 BKN072 16/16 Q1009=
201908130850 METAR ESMX 130850Z 21007KT CAVOK 15/15 Q1009=
201908130820 METAR ESMX 130820Z 20006KT 9999 SCT023 15/15 Q1009=
201908130750 METAR ESMX 130750Z 21007KT 9999 SCT028 14/14 Q1009=
201908130720 METAR ESMX 130720Z 18008KT 9999 FEW010 BKN022 14/14 Q1009=
201908130650 METAR ESMX 130650Z 19007KT 9999 SCT020 BKN130 14/14 Q1009=
201908130620 METAR ESMX 130620Z 19005KT 9999 SCT020 13/13 Q1009=
201908130550 METAR ESMX 130550Z 18004KT 9999 SCT022 13/13 Q1009=
201908130520 METAR ESMX 130520Z 19004KT 9999 SCT020 12/12 Q1009=
201908130450 METAR ESMX 130450Z 19004KT CAVOK 11/11 Q1009=
201908130420 METAR ESMX 130420Z 18005KT CAVOK 11/11 Q1009=
201908130350 METAR ESMX 130350Z 18005KT CAVOK 11/11 Q1009=
201908130320 METAR ESMX 130320Z AUTO 17004KT 9000 NCD 11/11 Q1009=
201908130250 METAR ESMX 130250Z AUTO 18004KT 9999 NCD 11/11 Q1009=
201908130220 METAR ESMX 130220Z AUTO 19004KT 9999 NCD 11/11 Q1009=
201908130150 METAR ESMX 130150Z AUTO 21005KT 9999 NCD 11/11 Q1009=
201908130120 METAR ESMX 130120Z AUTO 22006KT 9999 NCD 11/11 Q1009=
201908130050 METAR ESMX 130050Z AUTO 22007KT 9999 NCD 11/11 Q1009=
201908130020 METAR ESMX 130020Z AUTO 21006KT 9999 NCD 12/12 Q1009=
201908122350 METAR ESMX 122350Z AUTO 20007KT 9999 NCD 12/12 Q1010=
201908122320 METAR ESMX 122320Z AUTO 21006KT 9999 NCD 12/12 Q1010=
201908122250 METAR ESMX 122250Z AUTO 21006KT 9999 NCD 13/13 Q1010=
201908122220 METAR ESMX 122220Z AUTO 22006KT 9999 NCD 13/13 Q1010=
201908122150 METAR ESMX 122150Z AUTO 21005KT 9999 NCD 14/14 Q1010=
201908122120 METAR ESMX 122120Z AUTO 20005KT 9000 NCD 14/14 Q1010=
201908122050 METAR ESMX 122050Z AUTO 20005KT 9999 SCT037/// 15/15 Q1010 RERA=
201908122020 METAR ESMX 122020Z AUTO 20008KT 9999 -RA FEW002/// SCT030/// BKN043/// 15/15 Q1010 REDZ=
201908121950 METAR ESMX 121950Z AUTO 21007KT 9999 FEW080/// 15/15 Q1010=
201908121920 METAR ESMX 121920Z AUTO 19007KT 9999 NCD 15/15 Q1010=
201908121850 METAR ESMX 121850Z AUTO 19007KT 9999 NCD 15/15 Q1009=
201908121820 METAR ESMX 121820Z AUTO 17006KT 9999 NCD 16/16 Q1009=
201908121750 METAR ESMX 121750Z AUTO 19008KT 9999 NCD 17/17 Q1009=
201908121720 METAR ESMX 121720Z 21007KT CAVOK 17/17 Q1009=
201908121650 METAR ESMX 121650Z 20007KT 170V240 9999 -SHRA FEW025CB SCT040 17/17 Q1009=
201908121620 METAR ESMX 121620Z 22008KT 9999 -SHRA FEW025CB SCT070 19/16 Q1010=
201908121550 METAR ESMX 121550Z 23009KT 9999 VCSH FEW025CB SCT070 19/14 Q1009=
201908121520 METAR ESMX 121520Z 22011KT 9999 FEW053CB SCT070 20/13 Q1009=
201908121450 METAR ESMX 121450Z 23011KT 9999 SCT040CB 21/13 Q1009=
201908121420 METAR ESMX 121420Z 21009KT 190V250 9999 VCSH FEW028CB SCT060 20/14 Q1009=
201908121350 METAR ESMX 121350Z 24010KT 210V280 9999 -SHRA SCT060CB 20/13 Q1009=
201908121320 METAR ESMX 121320Z 25010KT 220V280 9999 VCSH SCT060CB 22/14 Q1009=
201908121250 METAR ESMX 121250Z 25009KT CAVOK 22/11 Q1009=
201908121220 METAR ESMX 121220Z 24013KT 200V260 9999 SCT047 23/10 Q1009=
201908121150 METAR ESMX 121150Z 21015KT 9999 SCT047 24/11 Q1009=
201908121120 METAR ESMX 121120Z 21015KT 9999 SCT045 23/12 Q1009=
201908121050 METAR ESMX 121050Z 19013KT 9999 SCT041 22/13 Q1009=
201908121020 METAR ESMX 121020Z 22012KT 190V260 9999 SCT038 21/13 Q1009=
201908120950 METAR ESMX 120950Z 19010KT 9999 SCT034 20/14 Q1009=
201908120920 METAR ESMX 120920Z 19010KT 9999 FEW031 20/14 Q1010=
201908120850 METAR ESMX 120850Z 21012KT 9999 SCT033 20/13 Q1010=
201908120820 METAR ESMX 120820Z 19013KT 9999 SCT026 21/13 Q1010=
201908120750 METAR ESMX 120750Z 19012KT 9999 FEW024 20/14 Q1010=
201908120720 METAR ESMX 120720Z 19011KT 9999 FEW045 19/14 Q1010=
201908120650 METAR ESMX 120650Z 19008KT 9999 FEW041 18/17 Q1010=
201908120620 METAR ESMX 120620Z 18008KT 9999 FEW042 17/16 Q1010=
201908120550 METAR ESMX 120550Z 19008KT 9999 FEW037 SCT078 16/16 Q1010=
201908120520 METAR ESMX 120520Z 18006KT 9999 SCT035 16/15 Q1010=
201908120450 METAR ESMX 120450Z 18007KT 9999 SCT038 15/14 Q1010=
201908120420 METAR ESMX 120420Z 18006KT 9999 SCT048 15/14 Q1010=
201908120350 METAR ESMX 120350Z 17005KT CAVOK 14/13 Q1010=
201908120320 METAR ESMX 120320Z AUTO 18006KT 9999 SCT150/// 14/14 Q1010=
201908120250 METAR ESMX 120250Z AUTO 18007KT 9999 SCT150/// 14/14 Q1011=
201908120220 METAR ESMX 120220Z AUTO 18007KT 9999 BKN070/// 14/14 Q1011=
201908120150 METAR ESMX 120150Z AUTO 17007KT 9999 SCT150/// 14/14 Q1011=
201908120120 METAR ESMX 120120Z AUTO 19007KT 9999 OVC170/// 14/14 Q1011=
201908120050 METAR ESMX 120050Z AUTO 18007KT 9999 BKN072/// OVC170/// 14/14 Q1011=
201908120020 METAR ESMX 120020Z AUTO 20007KT 9999 SCT180/// 14/14 Q1011=
201908112350 METAR ESMX 112350Z AUTO 19007KT 9999 BKN190/// 15/15 Q1011=
201908112320 METAR ESMX 112320Z AUTO 19007KT 9999 BKN190/// 15/15 Q1011=
201908112250 METAR ESMX 112250Z AUTO 19007KT 9999 OVC200/// 14/14 Q1011=
201908112220 METAR ESMX 112220Z AUTO 19006KT 9999 OVC200/// 14/14 Q1011=
201908112150 METAR ESMX 112150Z AUTO 18007KT 9999 FEW066/// OVC200/// 15/15 Q1011=
201908112120 METAR ESMX 112120Z AUTO 19006KT 9999 FEW062/// 15/15 Q1011=
201908112050 METAR ESMX 112050Z AUTO 18007KT 9999 FEW045/// SCT064/// 16/14 Q1011=
201908112020 METAR ESMX 112020Z AUTO 17006KT 9999 SCT068/// 16/14 Q1011=
201908111950 METAR ESMX 111950Z 18006KT CAVOK 16/13 Q1011=
201908111920 METAR ESMX 111920Z 20006KT CAVOK 17/12 Q1011=
201908111850 METAR ESMX 111850Z 22007KT CAVOK 17/12 Q1011=
201908111820 METAR ESMX 111820Z 23007KT CAVOK 18/12 Q1011=
201908111750 METAR ESMX 111750Z 24010KT 200V260 9999 FEW042 SCT061 19/11 Q1010=
201908111720 METAR ESMX 111720Z 23009KT 9999 SCT042 20/12 Q1010=
201908111650 METAR ESMX 111650Z 22012KT 9999 SCT042 20/11 Q1010=
201908111620 METAR ESMX 111620Z 25012KT 9999 BKN045 20/11 Q1010=
201908111550 METAR ESMX 111550Z 22013KT 190V260 9999 BKN047 21/12 Q1010=
201908111520 METAR ESMX 111520Z 25012G25KT 210V280 9999 BKN044 20/12 Q1010=
201908111450 METAR ESMX 111450Z 22013KT 9999 SCT040 BKN047 21/13 Q1009=
201908111420 METAR ESMX 111420Z 22016KT 9999 FEW044 SCT082 22/13 Q1009=
201908111350 METAR ESMX 111350Z 23012KT 200V260 CAVOK 21/12 Q1009=
201908111320 METAR ESMX 111320Z 23014KT 190V260 9999 FEW049 SCT068 21/11 Q1009=
201908111250 METAR ESMX 111250Z 22014KT 180V260 9999 FEW068CB 21/13 Q1009=
201908111220 METAR ESMX 111220Z 24011KT 9999 -RA FEW004 SCT029 BKN042 18/15 Q1009=
201908111150 METAR ESMX 111150Z 22014KT 9999 -RA FEW028 BKN041 19/14 Q1009=
201908111120 METAR ESMX 111120Z 20015KT 9999 SCT032 BKN040 20/13 Q1009=
201908111050 METAR ESMX 111050Z 22015KT 9999 BKN032 20/13 Q1009=
201908111020 METAR ESMX 111020Z 20015KT 9999 BKN035 21/13 Q1009=
201908110950 METAR ESMX 110950Z AUTO 22016KT 9999 SCT034/// BKN068/// 20/13 Q1008=
201908110920 METAR ESMX 110920Z AUTO 21017G28KT 9999 SCT030/// 20/13 Q1008=
201908110850 METAR COR ESMX 110850Z 20018G28KT 9999 BKN029 19/13 Q1008=
201908110820 METAR COR ESMX 110820Z 20016KT 9999 FEW020 BKN028 19/16 Q1008=
201908110750 METAR ESMX 110750Z AUTO 21015KT 9999 BKN021/// BKN029/// 19/17 Q1008=
201908110720 METAR ESMX 110720Z 20014KT 9999 SCT019 BKN086 18/18 Q1008=
201908110650 METAR ESMX 110650Z 21011KT 9999 BKN016 17/17 Q1008=
201908110620 METAR ESMX 110620Z 19013KT 9999 FEW014 17/17 Q1008=
201908110550 METAR ESMX 110550Z 19011KT 9999 FEW022 17/17 Q1007=
201908110520 METAR ESMX 110520Z 18011KT 9999 FEW020 16/16 Q1007=
201908110450 METAR ESMX 110450Z 19011KT 9999 FEW041 16/16 Q1007=
201908110420 METAR ESMX 110420Z AUTO 19012KT 9999 FEW023/// SCT094/// 16/16 Q1007=
201908110350 METAR ESMX 110350Z AUTO 19011KT 9999 -RA FEW001/// SCT039/// OVC078/// 16/16 Q1007=
201908110320 METAR ESMX 110320Z AUTO 18011KT 9999 BKN076/// BKN096/// 16/16 Q1006=
201908110250 METAR ESMX 110250Z AUTO 19009KT 9999 FEW031/// SCT082/// BKN100/// 15/15 Q1006=
201908110220 METAR ESMX 110220Z AUTO 19010KT 9999 FEW017/// SCT026/// 15/15 Q1007=
201908110150 METAR ESMX 110150Z AUTO 20010KT 9999 FEW029/// BKN049/// BKN092/// 16/16 Q1007=
201908110120 METAR ESMX 110120Z AUTO 19010KT 9999 FEW041/// BKN084/// 15/15 Q1007=
201908110050 METAR ESMX 110050Z AUTO 18010KT 9999 FEW042/// 15/15 Q1007=
201908110020 METAR ESMX 110020Z AUTO 18009KT 9999 OVC040/// 15/15 Q1007=
201908102350 METAR ESMX 102350Z AUTO 17008KT 9999 SCT040/// 15/15 Q1007=
201908102320 METAR ESMX 102320Z AUTO 18009KT 9999 NCD 15/15 Q1007=
201908102250 METAR ESMX 102250Z AUTO 18008KT 9999 NCD 15/15 Q1007=
201908102220 METAR ESMX 102220Z AUTO 18009KT 9999 NCD 15/15 Q1008=
201908102150 METAR ESMX 102150Z AUTO 19008KT 9999 NCD 15/15 Q1008=
201908102120 METAR ESMX 102120Z AUTO 20008KT 9999 NCD 15/15 Q1008=
201908102050 METAR ESMX 102050Z AUTO 19008KT 9999 BKN070/// 16/16 Q1008=
201908102020 METAR ESMX 102020Z AUTO 19009KT 9999 BKN072/// 16/16 Q1007=
201908101950 METAR ESMX 101950Z 22010KT CAVOK 16/16 Q1007=
201908101920 METAR ESMX 101920Z 20009KT CAVOK 16/16 Q1007=
201908101850 METAR ESMX 101850Z 19009KT 9999 -RA FEW045 BKN076 17/17 Q1007=
201908101820 METAR ESMX 101820Z 22008KT 9999 -RA FEW013 BKN084 17/17 Q1007=
201908101750 METAR ESMX 101750Z 21008KT 9999 -RA FEW044 BKN090 17/17 Q1006=
201908101720 METAR ESMX 101720Z 22007KT 9999 FEW014 BKN088 17/17 Q1006=
201908101650 METAR ESMX 101650Z 22007KT 9999 SCT007 BKN010 19/19 Q1006=
201908101620 METAR ESMX 101620Z VRB02KT 9999 BKN011 18/18 Q1006=
201908101550 METAR ESMX 101550Z AUTO 14005KT 110V170 4300 RA BKN001/// BKN030/// OVC044/// 18/18 Q1006 RESHRA=
201908101520 METAR ESMX 101520Z 14006KT 120V180 9999 FEW017 BKN032 19/19 Q1006=
201908101450 METAR ESMX 101450Z 14007KT 110V170 9999 BKN022 19/19 Q1006=
201908101420 METAR ESMX 101420Z 14006KT 070V170 9999 BKN013 19/19 Q1006=
201908101350 METAR ESMX 101350Z AUTO 13007KT 080V160 9999 BKN013/// OVC021/// 19/19 Q1006=
201908101320 METAR COR ESMX 101320Z 15008KT 100V170 9999 BKN014 19/19 Q1006=
201908101250 METAR ESMX 101250Z 14007KT 090V180 9999 BKN013 18/18 Q1006=
201908101220 METAR ESMX 101220Z 14007KT 090V170 9999 BKN012 18/18 Q1006=
201908101150 METAR ESMX 101150Z 13008KT 080V170 9999 BKN010 17/17 Q1006=
201908101120 METAR ESMX 101120Z 11006KT 060V180 9999 BKN009 16/16 Q1007=
201908101050 METAR ESMX 101050Z 11005KT 070V150 9999 BKN009 16/16 Q1007=
201908101020 METAR ESMX 101020Z AUTO 12006KT 080V160 9999 BKN010/// OVC013/// 16/16 Q1007=
201908100950 METAR ESMX 100950Z AUTO 08005KT 360V140 9999 BKN013/// OVC039/// 15/15 Q1008=
201908100920 METAR ESMX 100920Z AUTO 13008G18KT 090V170 9999 OVC040/// 15/15 Q1008=
201908100850 METAR ESMX 100850Z AUTO 12008KT 070V180 9999 -DZ FEW021/// OVC042/// 15/15 Q1007 RERA=
201908100820 METAR ESMX 100820Z AUTO 13010KT 100V160 9999 OVC039/// 15/15 Q1008=
201908100750 METAR ESMX 100750Z AUTO 13009KT 090V170 6000 -RA BKN001/// OVC049/// 15/15 Q1008=
201908100720 METAR ESMX 100720Z AUTO 16008KT 130V190 5000 +RA BKN001/// OVC044/// 15/15 Q1009=
201908100650 METAR ESMX 100650Z AUTO 14006KT 050V170 5000 +RA OVC001/// 16/16 Q1009=
201908100620 METAR ESMX 100620Z AUTO 14006KT 100V170 8000 RA BKN002/// BKN009/// OVC048/// 16/16 Q1008=
201908100550 METAR ESMX 100550Z AUTO 15008KT 120V190 9999 RA FEW001/// BKN008/// OVC048/// 16/16 Q1008=
201908100520 METAR ESMX 100520Z AUTO 14008KT 110V170 9999 -RA BKN008/// OVC078/// 17/17 Q1008=
201908100450 METAR ESMX 100450Z AUTO 14009KT 9999 BKN009/// OVC100/// 17/17 Q1008 RERA=
201908100420 METAR ESMX 100420Z AUTO 16008KT 9999 BKN007/// BKN009/// 17/17 Q1009=
201908100350 METAR ESMX 100350Z AUTO 13006KT 090V170 9999 SCT007/// BKN010/// 16/16 Q1009=
201908100320 METAR ESMX 100320Z AUTO 14006KT 110V170 9999 NCD 16/16 Q1009=
201908100250 METAR ESMX 100250Z AUTO 13005KT 070V160 9999 FEW130/// 16/16 Q1009=
201908100220 METAR ESMX 100220Z AUTO 13005KT 9999 BKN140/// 16/16 Q1010=
201908100150 METAR ESMX 100150Z AUTO 13005KT 9999 NCD 16/16 Q1010=
201908100120 METAR ESMX 100120Z AUTO 14005KT 9999 NCD 16/16 Q1010=
201908100050 METAR ESMX 100050Z AUTO 13004KT 9999 NCD 15/15 Q1010=
201908100020 METAR ESMX 100020Z AUTO 15004KT 9999 NCD 16/16 Q1011=
201908092350 METAR ESMX 092350Z AUTO 14004KT 9999 NCD 15/15 Q1011=
201908092320 METAR ESMX 092320Z AUTO 14004KT 9999 NCD 13/13 Q1011=
201908092250 METAR ESMX 092250Z AUTO VRB02KT 9999 NCD 13/13 Q1011=
201908092220 METAR ESMX 092220Z AUTO 15002KT 9999 NCD 14/14 Q1011=
201908092150 METAR ESMX 092150Z 20005KT CAVOK 16/14 Q1011=
201908092120 METAR ESMX 092120Z 17004KT CAVOK 17/13 Q1011=
201908092050 METAR ESMX 092050Z 16004KT CAVOK 13/13 Q1011=
201908092020 METAR ESMX 092020Z 17002KT CAVOK 15/13 Q1011=
201908091950 METAR COR ESMX 091950Z 14002KT CAVOK 15/14 Q1011=
201908091920 METAR ESMX 091920Z AUTO 19003KT 9999 NCD 15/13 Q1011=
201908091850 METAR ESMX 091850Z AUTO 16002KT 9999 NCD 17/14 Q1011=
201908091820 METAR ESMX 091820Z AUTO 18003KT 9999 NCD 19/14 Q1011=
201908091750 METAR ESMX 091750Z AUTO 19003KT 9999 NCD 20/13 Q1011=
201908091720 METAR ESMX 091720Z AUTO 19003KT 9999 FEW055/// 22/11 Q1011=
201908091650 METAR ESMX 091650Z AUTO 18004KT 9999 SCT053/// 23/11 Q1010=
201908091620 METAR ESMX 091620Z 30002KT CAVOK 22/11 Q1010=
201908091550 METAR ESMX 091550Z 31003KT 270V350 CAVOK 23/11 Q1010=
201908091520 METAR ESMX 091520Z 32003KT 260V010 CAVOK 23/11 Q1010=
201908091450 METAR ESMX 091450Z 31004KT 270V340 9999 FEW046 23/11 Q1010=
201908091420 METAR ESMX 091420Z AUTO 23005KT 180V290 9999 FEW046/// 23/12 Q1011=
201908091350 METAR ESMX 091350Z 26007KT 210V290 9999 SCT044 22/11 Q1011=
201908091320 METAR ESMX 091320Z 28004KT 240V300 9999 SCT045 22/11 Q1010=
201908091250 METAR COR ESMX 091250Z 23004KT 170V300 9999 SCT046 22/13 Q1010=
201908091220 METAR ESMX 091220Z 28006KT 250V320 9999 SCT038 21/12 Q1010=
201908091150 METAR ESMX 091150Z 28004KT 9999 SCT035 21/13 Q1010=
201908091120 METAR ESMX 091120Z VRB03KT 9999 BKN035 21/12 Q1010=
201908091050 METAR ESMX 091050Z 31005KT 290V010 9999 SCT033 20/12 Q1010=
201908091020 METAR ESMX 091020Z 36003KT 300V080 9999 SCT030 21/13 Q1010=
201908090950 METAR ESMX 090950Z VRB04KT 9999 SCT025 20/13 Q1009=
201908090920 METAR ESMX 090920Z 02004KT 340V060 9999 FEW022 20/14 Q1009=
201908090850 METAR ESMX 090850Z 29004KT 240V010 9999 FEW015 18/14 Q1009=
201908090820 METAR ESMX 090820Z VRB03KT 9999 SCT012 17/16 Q1009=
201908090750 METAR ESMX 090750Z 26004KT 210V320 9999 BKN007 16/15 Q1009=
201908090720 METAR ESMX 090720Z 26005KT 210V300 9999 BKN006 15/14 Q1009=
201908090650 METAR ESMX 090650Z 26005KT 220V290 9999 BKN005 15/15 Q1008=
201908090620 METAR ESMX 090620Z 27003KT 240V300 9999 BKN004 14/14 Q1008=
201908090550 METAR ESMX 090550Z 31004KT 250V340 9999 OVC005 14/14 Q1008=
201908090520 METAR ESMX 090520Z 31004KT 280V340 6000 BKN004 14/14 Q1008=
201908090450 METAR ESMX 090450Z 32003KT 300V360 0450 R01/0800N R19/P2000N FG VV002 13/13 Q1007=
201908090420 METAR ESMX 090420Z VRB02KT 0250 R01/0550N R19/0500N FG VV002 13/13 Q1007=
201908090350 METAR COR ESMX 090350Z 28002KT 0200 R01/0450N R19/0650N FG OVC002 13/13 Q1007=
201908090320 METAR ESMX 090320Z AUTO 30005KT 0400 R01/1000U R19/1500D FG OVC001/// 13/13 Q1007=
201908090250 METAR ESMX 090250Z AUTO VRB03KT 0250 R01/0650N R19/1800N FG OVC001/// 12/12 Q1007=
201908090220 METAR ESMX 090220Z AUTO 26003KT 220V310 8000 BCFG OVC002/// 12/12 Q1006=
201908090150 METAR ESMX 090150Z AUTO VRB02KT 6000 BR OVC003/// 12/12 Q1006=
201908090120 METAR ESMX 090120Z AUTO VRB01KT 9999 BKN004/// OVC078/// 13/13 Q1006=
201908090050 METAR ESMX 090050Z AUTO 23003KT 9999 FEW005/// BKN082/// OVC098/// 13/13 Q1006=
201908090020 METAR ESMX 090020Z AUTO 22003KT 9999 OVC098/// 13/13 Q1006=
201908082350 METAR ESMX 082350Z 19005KT 9999 FEW009 OVC088 13/13 Q1006=
201908082320 METAR ESMX 082320Z 20005KT 9999 FEW009 13/13 Q1006=
201908082250 METAR ESMX 082250Z 18004KT 9999 FEW140 13/13 Q1006=
201908082220 METAR ESMX 082220Z 21003KT 9999 FEW014 SCT140 13/13 Q1006=
201908082150 METAR ESMX 082150Z 22004KT 9999 FEW013 BKN092 13/13 Q1005=
201908082120 METAR ESMX 082120Z 20005KT CAVOK 14/14 Q1005=
201908082050 METAR ESMX 082050Z 21005KT CAVOK 13/13 Q1005=
201908082020 METAR ESMX 082020Z AUTO 19004KT 9999 FEW100/// 13/13 Q1005=
201908081950 METAR ESMX 081950Z AUTO 18004KT 9999 FEW086/// BKN100/// 15/15 Q1005=
201908081920 METAR ESMX 081920Z 18005KT CAVOK 15/15 Q1005=
201908081850 METAR ESMX 081850Z AUTO 19005KT 9999 SCT090/// 16/15 Q1005=
201908081820 METAR ESMX 081820Z 19006KT CAVOK 16/14 Q1005=
201908081750 METAR ESMX 081750Z 19007KT CAVOK 17/14 Q1005=
201908081720 METAR ESMX 081720Z 18007KT CAVOK 18/14 Q1005=
201908081650 METAR ESMX 081650Z 19007KT CAVOK 18/14 Q1005=
201908081620 METAR ESMX 081620Z 19010KT 9999 FEW022 19/14 Q1005=
201908081550 METAR ESMX 081550Z 18006KT 9999 FEW064CB 19/16 Q1005=
201908081520 METAR ESMX 081520Z 23004KT 200V260 9999 -SHRA FEW055CB BKN076 17/17 Q1005=
201908081450 METAR ESMX 081450Z 19013KT 9999 SHRA SCT036CB BKN051 18/14 Q1005=
201908081420 METAR ESMX 081420Z 20011KT 9999 BKN037 21/12 Q1004=
201908081350 METAR ESMX 081350Z 18010KT 140V210 9999 SCT036 20/13 Q1005=
201908081320 METAR ESMX 081320Z 22010KT 9999 SCT039 20/12 Q1005=
201908081250 METAR ESMX 081250Z 26010KT 230V290 9999 SCT036 21/12 Q1004=
201908081220 METAR ESMX 081220Z 25008KT 210V280 9999 SCT030 21/13 Q1005=
201908081150 METAR ESMX 081150Z 25008KT 210V290 9999 FEW030 SCT090 20/14 Q1005=
201908081120 METAR ESMX 081120Z 22009KT 200V290 9999 VCSH FEW022 SCT064 18/14 Q1005=
201908081050 METAR ESMX 081050Z 22005KT 9999 SCT027 17/16 Q1005=
201908081020 METAR ESMX 081020Z AUTO 22004KT 180V260 9999 BKN062/// 17/17 Q1005=
201908080950 METAR ESMX 080950Z AUTO 22009KT 9999 FEW001/// SCT021/// BKN029/// 18/12 Q1005=
201908080920 METAR ESMX 080920Z 23009KT 200V260 9999 BKN026 19/13 Q1004=
201908080850 METAR ESMX 080850Z 21009KT 170V250 9999 BKN029 20/13 Q1004=
201908080820 METAR ESMX 080820Z 23006KT 190V290 9999 SCT021 19/13 Q1004=
201908080750 METAR ESMX 080750Z 26008KT 230V290 9999 SCT018 18/14 Q1004=
201908080720 METAR ESMX 080720Z 24007KT 9999 BKN012 17/15 Q1004=
201908080650 METAR ESMX 080650Z 24006KT 210V280 9999 BKN009 17/16 Q1004=
201908080620 METAR ESMX 080620Z 26006KT 9999 BKN008 16/16 Q1004=
201908080550 METAR ESMX 080550Z 25006KT 9999 BKN006 16/15 Q1004=
201908080520 METAR ESMX 080520Z 22005KT 9999 BKN005 15/15 Q1004=
201908080450 METAR ESMX 080450Z 23005KT 9999 BKN004 15/15 Q1004=
201908080420 METAR ESMX 080420Z 23004KT 8000 BR BKN004 15/15 Q1004=
201908080350 METAR COR ESMX 080350Z 22005KT 6000 BR BKN003 15/15 Q1004=
201908080320 METAR ESMX 080320Z AUTO 24006KT 3800 BR OVC002/// 14/14 Q1004=
201908080250 METAR ESMX 080250Z AUTO 22007KT 1600 BR OVC001/// 14/14 Q1004=
201908080220 METAR ESMX 080220Z AUTO 20007KT 2300 BR OVC002/// 14/14 Q1004=
201908080150 METAR ESMX 080150Z AUTO 21007KT 7000 BR BKN004/// OVC006/// 14/14 Q1004=
201908080120 METAR ESMX 080120Z AUTO 19004KT 9999 OVC007/// 14/14 Q1004=
201908080050 METAR ESMX 080050Z AUTO 20005KT 9999 BKN009/// 13/13 Q1004=
201908080020 METAR ESMX 080020Z AUTO 18004KT 9999 FEW016/// 14/14 Q1004=
201908072350 METAR ESMX 072350Z AUTO 17005KT 9999 FEW014/// 15/15 Q1004=
201908072320 METAR ESMX 072320Z 17003KT 9999 FEW028 BKN094 13/13 Q1004=
201908072250 METAR ESMX 072250Z 15004KT CAVOK 14/14 Q1004=
201908072220 METAR ESMX 072220Z 16003KT CAVOK 13/13 Q1004=
201908072150 METAR ESMX 072150Z 15003KT CAVOK 12/12 Q1004=
201908072120 METAR ESMX 072120Z 00000KT 0900 R01/0600N R19/0375N PRFG SCT100 12/12 Q1004=
201908072050 METAR COR ESMX 072050Z 00000KT 0300 R01/0900N R19/0800N FG NSC 13/13 Q1004=
201908072020 METAR ESMX 072020Z AUTO 00000KT 0250 R01/0450N R19/P2000N FG SCT086/// 13/13 Q1004=
201908071950 METAR ESMX 071950Z AUTO 14002KT 6000 BR NCD 13/13 Q1004=
201908071920 METAR ESMX 071920Z AUTO 19002KT 9999 SCT094/// 15/15 Q1004=
201908071850 METAR ESMX 071850Z AUTO 20003KT 9999 FEW068/// BKN098/// 15/15 Q1004=
201908071820 METAR ESMX 071820Z 25005KT 9999 -RA BKN037 15/15 Q1004=
201908071750 METAR ESMX 071750Z 26009KT 220V290 9999 -RA SCT029CB BKN041 18/13 Q1004=
201908071720 METAR COR ESMX 071720Z 18009KT 9999 BKN060CB 20/13 Q1003=
201908071650 METAR ESMX 071650Z 21007KT CAVOK 21/12 Q1003=
201908071620 METAR ESMX 071620Z 20007KT CAVOK 21/12 Q1003=
201908071550 METAR ESMX 071550Z 18007KT CAVOK 21/11 Q1003=
201908071520 METAR COR ESMX 071520Z 19009KT 9999 FEW048 BKN098 22/11 Q1003=
201908071450 METAR ESMX 071450Z AUTO 19006KT 9999 SCT078/// BKN100/// 22/11 Q1004=
201908071420 METAR ESMX 071420Z AUTO 21008KT 9999 SCT051/// OVC094/// 22/11 Q1004=
201908071350 METAR ESMX 071350Z AUTO VRB04KT 9999 FEW049/// SCT062/// BKN088/// 22/11 Q1004=
201908071320 METAR ESMX 071320Z 19009KT 150V220 CAVOK 22/11 Q1004=
201908071250 METAR ESMX 071250Z AUTO 20008KT 9999 SCT048/// BKN066/// OVC082/// 22/11 Q1004=
201908071220 METAR ESMX 071220Z 19008KT 150V230 9999 SCT043 22/11 Q1004=
201908071150 METAR ESMX 071150Z 25004KT 200V290 9999 SCT042 21/13 Q1005=
201908071120 METAR ESMX 071120Z 23006KT 9999 SCT042 21/11 Q1005=
201908071050 METAR ESMX 071050Z 20009KT 170V230 9999 BKN040 21/12 Q1005=
201908071020 METAR ESMX 071020Z AUTO 22009KT 9999 FEW038/// 22/12 Q1005=
201908070950 METAR ESMX 070950Z AUTO 25007KT 9999 FEW038/// SCT051/// OVC070/// 21/12 Q1005=
201908070920 METAR ESMX 070920Z 21010KT 9999 SCT030 20/11 Q1005=
201908070850 METAR ESMX 070850Z 23007KT 9999 SCT028 20/12 Q1005=
201908070820 METAR ESMX 070820Z 20008KT 9999 FEW028 20/12 Q1005=
201908070750 METAR ESMX 070750Z 24007KT 9999 SCT019 19/14 Q1005=
201908070720 METAR COR ESMX 070720Z 22007KT 190V280 9999 SCT018 19/16 Q1005=
201908070650 METAR ESMX 070650Z 20006KT CAVOK 17/16 Q1005=
201908070620 METAR ESMX 070620Z 23006KT 180V240 CAVOK 16/16 Q1005=
201908070550 METAR ESMX 070550Z 21005KT CAVOK 15/15 Q1005=
201908070520 METAR ESMX 070520Z 20004KT CAVOK 14/14 Q1005=
201908070450 METAR ESMX 070450Z 19004KT 9999 FEW040 SCT070 14/14 Q1005=
201908070420 METAR ESMX 070420Z AUTO 18004KT 9999 SCT040/// BKN068/// OVC092/// 13/13 Q1005=
201908070350 METAR COR ESMX 070350Z 16004KT CAVOK 14/14 Q1005=
201908070320 METAR ESMX 070320Z AUTO 17004KT 9999 SCT053/// OVC088/// 14/14 Q1005=
201908070250 METAR ESMX 070250Z AUTO 17004KT 9999 SCT092/// 12/12 Q1005=
201908070220 METAR ESMX 070220Z AUTO 19003KT 9000 BR NCD 13/13 Q1005=
201908070150 METAR ESMX 070150Z AUTO 17004KT 9999 SCT094/// 13/13 Q1005=
201908070120 METAR ESMX 070120Z 21003KT CAVOK 13/13 Q1005=
201908070050 METAR COR ESMX 070050Z 20005KT CAVOK 14/14 Q1005=
201908070020 METAR ESMX 070020Z AUTO 21006KT 9999 BKN098/// 14/14 Q1005=
201908062350 METAR COR ESMX 062350Z 21006KT CAVOK 13/13 Q1005=
201908061750 METAR ESMX 061750Z AUTO 26007KT 210V300 9999 FEW036/// OVC084/// 19/13 Q1005=
201908061720 METAR ESMX 061720Z AUTO 25008KT 9999 BKN076/// 19/13 Q1004=
201908061650 METAR ESMX 061650Z AUTO 26007KT 230V290 9999 FEW064/// 20/14 Q1004=
201908061620 METAR ESMX 061620Z 27010KT CAVOK 20/13 Q1004=
201908061550 METAR ESMX 061550Z 27011KT 9999 FEW022CB BKN064 20/15 Q1004=
201908061450 METAR ESMX 061450Z 26010KT 210V300 9999 FEW020CB BKN084 21/15 Q1004=
201908061420 METAR ESMX 061420Z 25010KT 9999 FEW020CB BKN090 19/15 Q1004 RETS=
201908061350 METAR ESMX 061350Z 24011KT 200V270 9999 BKN023CB 20/16 Q1005=
201908061320 METAR ESMX 061320Z 19011KT 9999 BKN033 20/15 Q1004=
201908061250 METAR ESMX 061250Z 20009KT 9999 FEW032 BKN100 21/15 Q1004=
201908061220 METAR ESMX 061220Z 19009KT 9999 BKN026 20/16 Q1005=
201908061150 METAR ESMX 061150Z 17007KT 110V200 9999 FEW024 SCT046 BKN084 21/15 Q1005=
201908061120 METAR ESMX 061120Z 18009KT 9999 SCT022 BKN084 20/16 Q1005=
201908061050 METAR ESMX 061050Z 19008KT 160V230 9999 FEW016 SCT023 BKN034 20/19 Q1005=
201908061020 METAR ESMX 061020Z AUTO 16004KT 120V200 9999 SCT014/// BKN018/// OVC024/// 19/19 Q1005=
201908060950 METAR ESMX 060950Z AUTO 15004KT 050V190 9999 SCT011/// BKN015/// OVC049/// 19/19 Q1005=
201908060920 METAR ESMX 060920Z 15004KT 120V190 9999 SCT009 BKN047 18/18 Q1006=
201908060850 METAR ESMX 060850Z 17005KT 9999 FEW006 BKN010 17/17 Q1006=
201908060820 METAR ESMX 060820Z 17005KT 9999 SCT010 BKN078 17/17 Q1006=
201908060750 METAR COR ESMX 060750Z 19005KT 9999 SCT010 BKN011 17/17 Q1006=
201908060720 METAR ESMX 060720Z 16005KT 120V210 9999 -RA BKN015 17/17 Q1006=
201908060650 METAR ESMX 060650Z 16005KT 9999 -DZ FEW016 BKN022 17/17 Q1006=
201908060620 METAR ESMX 060620Z 16004KT 140V200 9999 BKN021 BKN039 17/17 Q1006=
201908060550 METAR ESMX 060550Z 17003KT 9999 SCT023 BKN043 16/16 Q1006=
201908060520 METAR ESMX 060520Z 17003KT 9999 FEW022 BKN048 15/15 Q1006=
201908060450 METAR ESMX 060450Z AUTO VRB01KT 9999 SCT025/// BKN053/// 15/15 Q1007=
201908060420 METAR ESMX 060420Z AUTO VRB02KT 8000 OVC068/// 14/14 Q1007=
201908060350 METAR ESMX 060350Z AUTO 15002KT 8000 BR FEW070/// BKN086/// 13/13 Q1007=
201908060320 METAR ESMX 060320Z AUTO 15002KT 7000 BR BKN068/// OVC082/// 13/13 Q1007=
201908060250 METAR ESMX 060250Z AUTO 00000KT 8000 BR BKN076/// 13/13 Q1007 REDZ=
201908060220 METAR ESMX 060220Z AUTO 23001KT 9999 BKN082/// 13/13 Q1007=
201908060150 METAR ESMX 060150Z AUTO 23003KT 9999 -RA BKN082/// 13/13 Q1008 RERA=
201908060120 METAR ESMX 060120Z AUTO 22005KT 9999 BKN088/// 13/13 Q1008=
201908060050 METAR ESMX 060050Z AUTO 22003KT 9999 -DZ FEW000/// BKN078/// 13/13 Q1008=
201908060020 METAR ESMX 060020Z AUTO 22004KT 9999 FEW064/// 13/13 Q1008=
201908052350 METAR ESMX 052350Z AUTO 18003KT 9999 NCD 13/13 Q1008=
201908052320 METAR ESMX 052320Z AUTO 22003KT 9999 NCD 13/13 Q1008=
201908052250 METAR ESMX 052250Z AUTO 21005KT 9999 SCT210/// 12/12 Q1008=
201908052220 METAR ESMX 052220Z AUTO 24002KT 9999 SCT210/// 13/13 Q1008=
201908052150 METAR ESMX 052150Z AUTO 23003KT 9999 NCD 14/14 Q1008=
201908052120 METAR ESMX 052120Z AUTO 23004KT 9999 NCD 13/13 Q1008=
201908052050 METAR ESMX 052050Z AUTO 22005KT 9999 NCD 13/13 Q1008=
201908052020 METAR ESMX 052020Z AUTO 23004KT 9999 NCD 14/14 Q1008=
201908051950 METAR ESMX 051950Z AUTO 22003KT 9999 NCD 14/14 Q1008 RERA=
201908051920 METAR ESMX 051920Z AUTO 22003KT 9999 FEW180/// 16/13 Q1008=
201908051850 METAR ESMX 051850Z AUTO 23004KT 9999 FEW190/// 17/13 Q1008=
201908051820 METAR ESMX 051820Z AUTO 22003KT 9999 FEW041/// 18/13 Q1008=
201908051750 METAR ESMX 051750Z AUTO 20005KT 150V240 9999 SCT039/// BKN047/// BKN066/// 19/13 Q1008=
201908051720 METAR ESMX 051720Z AUTO 20004KT 9999 BKN045/// OVC068/// 20/13 Q1008=
201908051650 METAR ESMX 051650Z AUTO 20006KT 170V240 9999 FEW042/// BKN066/// 20/12 Q1008=
201908051620 METAR COR ESMX 051620Z 18005KT 9999 FEW042 BKN070 20/13 Q1009=
201908051550 METAR ESMX 051550Z 20004KT 9999 FEW042 BKN068 20/13 Q1009=
201908051520 METAR ESMX 051520Z 18007KT 9999 SCT042 BKN066 20/12 Q1009=
201908051450 METAR ESMX 051450Z 19007KT 110V230 9999 SCT042 BKN059 22/12 Q1009=
201908051420 METAR ESMX 051420Z 16006KT 130V200 9999 SCT042 BKN061 21/12 Q1009=
201908051350 METAR ESMX 051350Z 23004KT 9999 SCT039 BKN059 21/11 Q1009=
201908051320 METAR ESMX 051320Z 19007KT 160V240 9999 SCT039 BKN055 21/12 Q1010=
201908051250 METAR ESMX 051250Z 15005KT 120V200 9999 SCT039 BKN051 21/13 Q1010=
201908051220 METAR ESMX 051220Z 19004KT 150V230 9999 SCT028 BKN048 21/13 Q1010=
201908051150 METAR ESMX 051150Z VRB03KT 9999 SCT024 BKN047 20/14 Q1010=
201908051120 METAR ESMX 051120Z 18006KT 140V200 9999 SCT023 BKN042 19/15 Q1010=
201908051050 METAR ESMX 051050Z 20005KT 150V240 9999 SCT024 BKN043 20/13 Q1010=
201908051020 METAR ESMX 051020Z AUTO 20005KT 150V240 9999 FEW027/// OVC042/// 19/14 Q1010=
201908050950 METAR ESMX 050950Z AUTO 21006KT 160V250 9999 SCT024/// OVC038/// 19/15 Q1011=
201908050920 METAR ESMX 050920Z 19005KT 160V230 9999 FEW020 BKN033 19/17 Q1011=
201908050850 METAR ESMX 050850Z 17003KT 140V220 9999 BKN017 19/15 Q1011=
201908050820 METAR ESMX 050820Z 21006KT 9999 SCT015 18/17 Q1011=
201908050750 METAR ESMX 050750Z 21004KT 170V250 9999 BKN013 18/16 Q1011=
201908050720 METAR ESMX 050720Z VRB03KT 9999 SCT008 17/17 Q1011=
201908050650 METAR ESMX 050650Z VRB02KT 9999 FEW005 16/16 Q1011=
201908050620 METAR ESMX 050620Z 24003KT 9999 FEW003 15/15 Q1011=
201908050550 METAR ESMX 050550Z VRB03KT 9999 FEW025 14/14 Q1011=
201908050520 METAR ESMX 050520Z AUTO VRB01KT 9999 OVC024/// 13/13 Q1011=
201908050450 METAR ESMX 050450Z AUTO 22003KT 8000 BKN024/// 13/13 Q1011=
201908050420 METAR ESMX 050420Z AUTO 22002KT 3500 NCD 12/12 Q1012=
201908050350 METAR ESMX 050350Z AUTO 24001KT 0150 R01/0800U R19/0350N BCFG NCD 12/12 Q1012=
201908050320 METAR ESMX 050320Z AUTO 22003KT 0200 R01/1500N R19/0450N BCFG NCD 12/12 Q1012=
201908050250 METAR ESMX 050250Z AUTO 22003KT 0150 R01/P2000N R19/0600N BCFG NCD 12/12 Q1012=
201908050220 METAR ESMX 050220Z AUTO 23004KT 0100 R01/P2000N R19/0375N BCFG NCD 12/12 Q1012=
201908050150 METAR ESMX 050150Z AUTO 18003KT 0400 R01/1600D R19/1200D BCFG NCD 12/12 Q1012=
201908050120 METAR ESMX 050120Z AUTO 23003KT 0350 R01/P2000N R19/0650N BR NCD 13/13 Q1012=
201908050050 METAR ESMX 050050Z AUTO 22003KT 0500 R01/P2000N R19/P2000N NCD 13/13 Q1012=
201908050020 METAR ESMX 050020Z AUTO 24004KT 8000 NCD 13/13 Q1012=
201908042350 METAR ESMX 042350Z AUTO 22004KT 7000 NCD 13/13 Q1012=
201908042320 METAR ESMX 042320Z AUTO 24005KT 6000 NCD 13/13 Q1012=
201908042250 METAR ESMX 042250Z AUTO 22004KT 9999 NCD 14/14 Q1012=
201908042220 METAR ESMX 042220Z AUTO 21005KT 2700 BR NCD 14/14 Q1012 REDZ=
201908042150 METAR ESMX 042150Z AUTO 20004KT 9999 NCD 15/15 Q1012=
201908042120 METAR ESMX 042120Z AUTO 21003KT 9000 BR FEW048/// BKN080/// 16/16 Q1012=
201908042050 METAR ESMX 042050Z AUTO 24001KT 6000 -RA FEW049/// OVC078/// 16/16 Q1012 RERA=
201908042020 METAR ESMX 042020Z AUTO VRB03KT 9999 FEW005/// SCT009/// OVC076/// 16/16 Q1012 RESHRA=
201908041950 METAR COR ESMX 041950Z VRB02KT 2500 RA OVC006 16/16 Q1013=
201908041920 METAR ESMX 041920Z 23004KT 6000 RA BKN026 17/17 Q1012 RERA=
201908041850 METAR ESMX 041850Z 21007KT 9000 -RA BKN041 17/17 Q1012=
201908041820 METAR ESMX 041820Z 19006KT 9999 FEW032 BKN044 17/17 Q1012=
201908041750 METAR ESMX 041750Z 18005KT 9999 FEW047 BKN057 17/17 Q1012=
201908041720 METAR ESMX 041720Z 18007KT CAVOK 17/17 Q1012=
201908041650 METAR ESMX 041650Z VRB03KT 9999 FEW034 BKN064 18/18 Q1012=
201908041620 METAR ESMX 041620Z 17004KT 140V200 9999 BKN046CB 18/18 Q1012 RERA=
201908041550 METAR ESMX 041550Z 21007KT 9000 RA FEW005 SCT029CB 17/17 Q1012=
201908041520 METAR COR ESMX 041520Z 19010KT 9999 VCSH BKN030CB 19/14 Q1012=
201908041450 METAR ESMX 041450Z VRB03KT 9999 FEW039 21/15 Q1012=
201908041420 METAR ESMX 041420Z 36004KT 320V100 9999 SCT047 21/14 Q1012=
201908041350 METAR ESMX 041350Z 03006KT 340V070 9999 SCT025 20/15 Q1012=
201908041320 METAR ESMX 041320Z 04005KT 330V130 9999 SCT021 22/16 Q1013=
201908041250 METAR ESMX 041250Z 04006KT 360V070 9999 SCT030 BKN100 20/15 Q1013=
201908041220 METAR ESMX 041220Z 05005KT 360V120 9999 SCT025 BKN098 21/16 Q1013=
201908041150 METAR ESMX 041150Z 02007KT 9999 BKN025 20/16 Q1013=
201908041120 METAR ESMX 041120Z 01005KT 330V060 9999 BKN021 20/15 Q1013=
201908041050 METAR ESMX 041050Z 34004KT 280V030 9999 BKN019 19/16 Q1014=
201908041020 METAR ESMX 041020Z AUTO 31004KT 240V060 9999 BKN018/// 19/16 Q1014=
201908040950 METAR ESMX 040950Z AUTO 31004KT 260V340 9999 FEW016/// SCT110/// 18/17 Q1014=
201908040920 METAR ESMX 040920Z 32003KT 260V010 9999 FEW026 18/17 Q1014=
201908040850 METAR ESMX 040850Z VRB02KT 9999 SCT028 17/17 Q1014=
201908040820 METAR ESMX 040820Z 30006KT 9999 FEW010 BKN019 16/16 Q1014=
201908040750 METAR ESMX 040750Z 31005KT 9999 FEW008 BKN017 16/16 Q1014=
201908040720 METAR ESMX 040720Z 31004KT 280V340 9999 SCT005 BKN012 15/15 Q1014=
201908040650 METAR ESMX 040650Z 33004KT 9999 BKN004 15/15 Q1014=
201908040620 METAR ESMX 040620Z 28002KT 9999 BKN002 14/14 Q1014=
201908040550 METAR COR ESMX 040550Z VRB02KT 9999 BKN002 14/14 Q1014=
201908040520 METAR ESMX 040520Z 19002KT 9999 FEW001 BKN016 14/14 Q1014=
201908040450 METAR ESMX 040450Z AUTO 19002KT 9999 FEW001/// SCT098/// 12/12 Q1014=
201908040420 METAR ESMX 040420Z AUTO 20002KT 0200 R01/P2000N R19/0450U OVC001/// 12/12 Q1014=
201908040350 METAR ESMX 040350Z AUTO 21003KT 0100 R01/0275N R19/0225N FG VV001 12/12 Q1014=
201908040320 METAR ESMX 040320Z AUTO 20003KT 0100 R01/0350N R19/0350N FG VV001 13/13 Q1014=
201908040250 METAR ESMX 040250Z AUTO VRB02KT 0200 R01/0900N R19/0700U FG VV001 13/13 Q1014=
201908040220 METAR ESMX 040220Z AUTO 17003KT 0250 R01/0750N R19/P2000N FG SCT002/// BKN098/// 14/14 Q1014=
201908040150 METAR ESMX 040150Z AUTO 16003KT 5000 BR SCT002/// OVC098/// 13/13 Q1014=
201908040120 METAR ESMX 040120Z AUTO 16004KT 9999 SCT003/// BKN098/// 14/14 Q1014=
201908040050 METAR ESMX 040050Z AUTO 16004KT 9999 FEW009/// 14/14 Q1014=
201908040020 METAR ESMX 040020Z AUTO 16005KT 9999 NCD 15/15 Q1014=
201908032350 METAR ESMX 032350Z AUTO 17005KT 9999 FEW100/// 15/15 Q1014=
201908032320 METAR ESMX 032320Z AUTO 19004KT 9999 FEW082/// 14/14 Q1014=
201908032250 METAR ESMX 032250Z AUTO 15004KT 9999 FEW041/// BKN082/// OVC098/// 14/14 Q1014 REDZ=
201908032220 METAR ESMX 032220Z AUTO 19004KT 9999 OVC086/// 14/14 Q1014=
201908032150 METAR ESMX 032150Z AUTO 00000KT 9999 FEW061/// BKN092/// BKN110/// 13/13 Q1014=
201908032120 METAR ESMX 032120Z AUTO 00000KT 9999 SCT098/// 14/14 Q1014=
201908032050 METAR ESMX 032050Z AUTO 21003KT 9999 FEW120/// 14/14 Q1014=
201908032020 METAR ESMX 032020Z AUTO 17001KT 9999 FEW088/// SCT120/// 15/15 Q1014=
201908031950 METAR ESMX 031950Z AUTO 22004KT 9999 FEW098/// 15/15 Q1014=
201908031920 METAR ESMX 031920Z AUTO 25005KT 9999 FEW070/// 16/16 Q1014=
201908031850 METAR ESMX 031850Z AUTO 18005KT 150V220 9999 BKN072/// 17/17 Q1014=
201908031820 METAR ESMX 031820Z AUTO 18004KT 9999 SCT076/// 18/18 Q1014=
201908031750 METAR ESMX 031750Z AUTO 20004KT 9999 -DZ SCT088/// BKN100/// 18/17 Q1013=
201908031720 METAR ESMX 031720Z AUTO 17004KT 9999 -RA FEW098/// SCT200/// 19/13 Q1013=
201908031650 METAR ESMX 031650Z AUTO 29005KT 9999 FEW100/// SCT200/// 19/13 Q1014=
201908031620 METAR ESMX 031620Z AUTO 15004KT 110V170 9999 SCT100/// BKN210/// 19/17 Q1013=
201908031550 METAR ESMX 031550Z AUTO 23005KT 210V270 9999 FEW098/// BKN130/// 20/16 Q1014=
201908031520 METAR ESMX 031520Z AUTO 24004KT 200V270 9999 SCT120/// 19/15 Q1014=
201908031450 METAR ESMX 031450Z AUTO VRB02KT 9999 BKN100/// 19/15 Q1014=
201908031420 METAR ESMX 031420Z AUTO VRB02KT 9999 FEW068/// SCT098/// 18/16 Q1014=
201908031350 METAR ESMX 031350Z AUTO 18003KT 9999 -RA SCT068/// BKN086/// 17/17 Q1014=
201908031320 METAR ESMX 031320Z AUTO 35003KT 250V060 9999 -RA FEW040/// BKN076/// BKN110/// 16/16 Q1014=
201908031250 METAR ESMX 031250Z AUTO 02007KT 340V070 9999 RA FEW005/// SCT055/// OVC072/// 16/16 Q1014 RERA=
201908031220 METAR COR ESMX 031220Z VRB07KT 9999 VCSH SCT044CB 24/13 Q1013=
201908031150 METAR ESMX 031150Z 33005KT 270V020 CAVOK 23/13 Q1013=
201908031120 METAR ESMX 031120Z 28006KT 240V320 CAVOK 23/14 Q1013=
201908031050 METAR ESMX 031050Z VRB03KT CAVOK 21/14 Q1014=
201908031020 METAR ESMX 031020Z AUTO 28005KT 240V340 9999 NCD 21/15 Q1014=
201908030950 METAR ESMX 030950Z AUTO 28004KT 230V020 9999 SCT074/// 20/16 Q1014=
201908030920 METAR ESMX 030920Z AUTO VRB03KT 9999 FEW072/// 19/18 Q1014=
201908030850 METAR ESMX 030850Z AUTO VRB02KT 9999 FEW040/// BKN090/// 18/18 Q1014=
201908030820 METAR ESMX 030820Z AUTO 34003KT 300V020 9999 -DZ FEW066/// OVC084/// 17/17 Q1014 RERA=
201908030750 METAR ESMX 030750Z AUTO 30005KT 9999 -RA BKN084/// 16/16 Q1014=
201908030720 METAR ESMX 030720Z AUTO 34003KT 310V030 9999 -RA FEW057/// SCT072/// OVC094/// 16/16 Q1014=
201908030650 METAR ESMX 030650Z AUTO 02007KT 9999 -RA SCT072/// OVC090/// 16/16 Q1014=
201908030620 METAR ESMX 030620Z AUTO 01009KT 9999 BKN098/// BKN130/// 16/16 Q1014=
201908030550 METAR ESMX 030550Z AUTO 35007KT 9999 SCT074/// 17/16 Q1014=
201908030520 METAR ESMX 030520Z AUTO 33005KT 9999 SCT074/// BKN140/// 15/15 Q1013=
201908030450 METAR ESMX 030450Z AUTO 30003KT 260V350 9999 OVC070/// 13/13 Q1014=
201908030420 METAR ESMX 030420Z AUTO 21003KT 9999 SCT066/// 11/11 Q1013=
201908030350 METAR ESMX 030350Z AUTO 22003KT 9999 NCD 10/10 Q1013=
201908030320 METAR ESMX 030320Z AUTO 19003KT 9999 NCD 10/10 Q1013=
201908030250 METAR ESMX 030250Z AUTO 20002KT 9999 BCFG NCD 10/10 Q1013=
201908030220 METAR ESMX 030220Z AUTO 18003KT 8000 BR NCD 11/11 Q1013=
201908030150 METAR ESMX 030150Z AUTO 00000KT 9999 NCD 11/11 Q1013=
201908030120 METAR ESMX 030120Z AUTO 00000KT 9999 BR NCD 11/11 Q1014=
201908030050 METAR ESMX 030050Z AUTO 20002KT 9999 BR NCD 11/11 Q1013=
201908030020 METAR ESMX 030020Z AUTO 00000KT 9999 SCT098/// 13/13 Q1013=
201908022350 METAR ESMX 022350Z AUTO 00000KT 9999 OVC096/// 13/13 Q1014=
201908022320 METAR ESMX 022320Z AUTO 00000KT 0300 R01/0600N R19/1300D BCFG SCT096/// 13/13 Q1014=
201908022250 METAR ESMX 022250Z AUTO 00000KT 9999 BKN064/// 14/14 Q1014=
201908022220 METAR ESMX 022220Z AUTO VRB02KT 9999 BKN064/// OVC096/// 14/14 Q1014=
201908022150 METAR ESMX 022150Z AUTO VRB02KT 9999 BKN094/// 15/15 Q1014=
201908022120 METAR ESMX 022120Z AUTO VRB02KT 9999 OVC096/// 15/15 Q1013=
201908022050 METAR ESMX 022050Z AUTO VRB02KT 9999 OVC096/// 15/15 Q1014=
201908022020 METAR ESMX 022020Z AUTO 19002KT 9999 OVC110/// 15/15 Q1014=
201908021950 METAR ESMX 021950Z AUTO 31003KT 280V340 9999 SCT094/// OVC120/// 15/15 Q1014=
201908021920 METAR ESMX 021920Z AUTO 18005KT 140V220 9999 FEW094/// BKN120/// 17/17 Q1014=
201908021850 METAR ESMX 021850Z AUTO 13008KT 9999 -RA OVC074/// 17/17 Q1013=
201908021820 METAR ESMX 021820Z AUTO VRB03KT 6000 RA BKN001/// BKN041/// OVC070/// 16/16 Q1014=
201908021750 METAR ESMX 021750Z AUTO 16005KT 100V200 9999 +RA FEW001/// BKN057/// OVC082/// 20/13 Q1014=
201908021720 METAR ESMX 021720Z AUTO 15008KT 9999 BKN076/// 22/10 Q1013=
201908021650 METAR ESMX 021650Z AUTO 08003KT 040V140 9999 NCD 24/08 Q1013=
201908021620 METAR ESMX 021620Z VRB03KT CAVOK 24/08 Q1013=
201908021550 METAR ESMX 021550Z 06004KT 350V160 CAVOK 24/08 Q1013=
201908021520 METAR ESMX 021520Z VRB04KT CAVOK 24/07 Q1013=
201908021450 METAR ESMX 021450Z VRB03KT CAVOK 24/07 Q1013=
201908021420 METAR COR ESMX 021420Z 02004KT 320V070 CAVOK 24/08 Q1013=
201908021350 METAR ESMX 021350Z 35005KT 310V020 CAVOK 24/08 Q1014=
201908021320 METAR ESMX 021320Z 05006KT 350V080 CAVOK 24/09 Q1014=
201908021250 METAR ESMX 021250Z 01005KT 340V060 CAVOK 25/08 Q1014=
201908021220 METAR ESMX 021220Z 33005KT 290V050 CAVOK 23/09 Q1014=
201908021150 METAR ESMX 021150Z 33005KT 270V020 CAVOK 24/09 Q1014=
201908021120 METAR COR ESMX 021120Z 36006KT 320V030 CAVOK 23/09 Q1014=
201908021050 METAR ESMX 021050Z VRB05KT CAVOK 23/09 Q1014=
201908021020 METAR ESMX 021020Z VRB04KT CAVOK 23/08 Q1014=
201908020950 METAR ESMX 020950Z 02005KT 330V070 CAVOK 23/10 Q1014=
201908020920 METAR ESMX 020920Z 31005KT 240V030 CAVOK 22/10 Q1015=
201908020850 METAR COR ESMX 020850Z 31007KT CAVOK 21/11 Q1015=
201908020820 METAR ESMX 020820Z 29005KT 240V360 CAVOK 20/12 Q1015=
201908020750 METAR ESMX 020750Z 32005KT CAVOK 19/12 Q1015=
201908020720 METAR ESMX 020720Z 34004KT 300V010 CAVOK 18/13 Q1015=
201908020650 METAR ESMX 020650Z AUTO 28004KT 260V320 9999 NCD 18/12 Q1015=
201908020620 METAR ESMX 020620Z AUTO 30004KT 260V340 9999 NCD 16/12 Q1015=
201908020550 METAR ESMX 020550Z AUTO VRB03KT 9999 NCD 15/15 Q1015=
201908020520 METAR ESMX 020520Z AUTO 27002KT 9999 NCD 13/13 Q1015=
201908020450 METAR ESMX 020450Z AUTO 28002KT 9999 NCD 11/11 Q1015=
201908020420 METAR ESMX 020420Z AUTO 26003KT 9999 NCD 08/08 Q1015=
201908020350 METAR ESMX 020350Z AUTO 27003KT 9999 NCD 06/06 Q1015=
201908020320 METAR ESMX 020320Z AUTO 27002KT 9999 NCD 07/07 Q1015=
201908020250 METAR ESMX 020250Z AUTO 28002KT 9999 BCFG NCD 07/07 Q1015=
201908020220 METAR ESMX 020220Z AUTO VRB02KT 7000 BCFG NCD 08/08 Q1015=
201908020150 METAR ESMX 020150Z AUTO 00000KT 0250 R01/0650N R19/P2000N BCFG NCD 07/07 Q1016=
201908020120 METAR ESMX 020120Z AUTO 00000KT 9999 BCFG NCD 08/08 Q1016=
201908020050 METAR ESMX 020050Z AUTO 00000KT 9999 NCD 07/07 Q1016=
201908020020 METAR ESMX 020020Z VRB01KT CAVOK 09/09 Q1016=
201908012350 METAR ESMX 012350Z 26002KT CAVOK 08/08 Q1016=
201908012320 METAR ESMX 012320Z 28001KT CAVOK 09/09 Q1016=
201908012250 METAR ESMX 012250Z 28001KT CAVOK 10/10 Q1016=
201908012220 METAR ESMX 012220Z 26002KT CAVOK 09/09 Q1016=
201908012150 METAR ESMX 012150Z 26003KT CAVOK 10/10 Q1016=
201908012120 METAR ESMX 012120Z 24004KT CAVOK 11/11 Q1016=
201908012050 METAR ESMX 012050Z 25004KT CAVOK 11/11 Q1016=
201908012020 METAR ESMX 012020Z 24004KT CAVOK 11/11 Q1016=
201908011950 METAR ESMX 011950Z 21003KT CAVOK 12/12 Q1016=
201908011920 METAR COR ESMX 011920Z 22004KT CAVOK 13/11 Q1017=
201908011850 METAR ESMX 011850Z 23005KT CAVOK 14/12 Q1017=
201908011820 METAR COR ESMX 011820Z 22003KT CAVOK 15/12 Q1016=
201908011750 METAR ESMX 011750Z 19004KT 9999 BKN049 15/12 Q1017=
201908011720 METAR ESMX 011720Z 14003KT 080V170 CAVOK 15/11 Q1017=
201908011650 METAR ESMX 011650Z 15002KT CAVOK 16/10 Q1017=
201908011620 METAR ESMX 011620Z 10002KT CAVOK 16/08 Q1017=
201908011550 METAR ESMX 011550Z VRB02KT 9999 SCT059 16/08 Q1017=
201908011520 METAR ESMX 011520Z VRB03KT 9999 SCT064 16/08 Q1017=
201908011450 METAR ESMX 011450Z 10003KT 050V150 9999 SCT070 BKN086 16/08 Q1017=
201908011420 METAR ESMX 011420Z 10005KT 060V150 9999 SCT068 BKN096 16/09 Q1017=
201908011350 METAR ESMX 011350Z 06004KT 030V100 9999 SCT042 BKN094 17/09 Q1017=
201908011320 METAR ESMX 011320Z 05006KT 9999 BKN041 18/08 Q1017=
201908011250 METAR ESMX 011250Z 06007KT 030V100 9999 BKN044 18/08 Q1017=
201908011220 METAR ESMX 011220Z 02007KT 350V070 9999 BKN038 18/09 Q1017=
