##########################################################
# Query made at 04/19/2024 22:17:02 UTC
# Time interval: from 11/01/2020 12:00  to 11/30/2020 12:59  UTC
##########################################################

##########################################################
# ESMX, Vaxjo (Sweden)
# WMO index: 02641. WIGOS ID: 0-20000-0-02648
# Latitude 56-51N. Longitude 014-50E. Altitude 199 m.
##########################################################

202011301250 METAR ESMX 301250Z 22004KT 9999 SCT006 BKN018 M00/M01 Q1018=
202011301220 METAR ESMX 301220Z 23004KT 9999 SCT006 BKN017 M01/M01 Q1018=
202011301150 METAR ESMX 301150Z 22004KT 9999 BKN016 M01/M01 Q1018=
202011301120 METAR ESMX 301120Z 24004KT 9999 BKN017 M01/M01 Q1019=
202011301050 METAR ESMX 301050Z 23003KT 9999 BKN016 M01/M01 Q1019=
202011301020 METAR ESMX 301020Z AUTO 26003KT 9999 OVC019/// M01/M01 Q1019=
202011300950 METAR ESMX 300950Z 23004KT 9999 BKN021 M01/M01 Q1020=
202011300920 METAR ESMX 300920Z 24005KT 9999 BKN022 M01/M02 Q1020=
202011300850 METAR ESMX 300850Z 23005KT 9999 SCT014 BKN024 M01/M02 Q1020=
202011300820 METAR ESMX 300820Z 23005KT 9999 SCT011 BKN023 M02/M02 Q1020=
202011300750 METAR ESMX 300750Z 21004KT 9999 BKN011 BKN024 M02/M02 Q1021=
202011300720 METAR ESMX 300720Z 21003KT 9999 BKN011 M02/M02 Q1021=
202011300650 METAR ESMX 300650Z AUTO 21003KT 9999 OVC011/// M02/M02 Q1021=
202011300620 METAR ESMX 300620Z AUTO 21003KT 9999 OVC011/// M02/M02 Q1021=
202011300550 METAR ESMX 300550Z AUTO 21003KT 9999 OVC010/// M02/M02 Q1021=
202011300520 METAR ESMX 300520Z AUTO VRB03KT 9999 BKN011/// OVC018/// M02/M02 Q1021=
202011300450 METAR ESMX 300450Z AUTO 21002KT 9999 OVC017/// M02/M02 Q1021=
202011300420 METAR ESMX 300420Z AUTO 00000KT 9999 OVC011/// M02/M03 Q1022=
202011300350 METAR ESMX 300350Z AUTO 29003KT 9999 OVC012/// M02/M03 Q1022=
202011300320 METAR ESMX 300320Z AUTO 26003KT 9999 OVC013/// M02/M03 Q1022=
202011300250 METAR ESMX 300250Z AUTO 23003KT 9999 OVC013/// M03/M03 Q1023=
202011300220 METAR ESMX 300220Z AUTO 23002KT 9999 OVC014/// M03/M03 Q1023=
202011300150 METAR ESMX 300150Z AUTO 00000KT 9999 OVC015/// M04/M04 Q1023=
202011300120 METAR ESMX 300120Z AUTO 17002KT 9999 BKN015/// BKN019/// M04/M04 Q1023=
202011300050 METAR ESMX 300050Z AUTO 23002KT 9999 BKN019/// M04/M05 Q1023=
202011300020 METAR ESMX 300020Z AUTO 20003KT 9999 NCD M06/M06 Q1023=
202011292350 METAR ESMX 292350Z AUTO 00000KT 9999 NCD M04/M04 Q1024=
202011292320 METAR ESMX 292320Z AUTO 33002KT 9999 NCD M04/M04 Q1024=
202011292250 METAR ESMX 292250Z AUTO 30004KT 9999 NCD M04/M04 Q1024=
202011292220 METAR ESMX 292220Z AUTO 32002KT 9999 NCD M03/M03 Q1024=
202011292150 METAR ESMX 292150Z AUTO 34003KT 9999 FEW013/// M03/M03 Q1024=
202011292120 METAR ESMX 292120Z AUTO 32004KT 9999 NCD M04/M05 Q1024=
202011292050 METAR ESMX 292050Z AUTO 33004KT 9999 NCD M03/M04 Q1025=
202011292020 METAR ESMX 292020Z AUTO 33005KT 9999 FEW037/// M03/M03 Q1025=
202011291950 METAR ESMX 291950Z AUTO 34005KT 9999 FEW008/// SCT037/// M02/M03 Q1025=
202011291920 METAR ESMX 291920Z AUTO 35005KT 9999 SCT007/// BKN022/// M02/M02 Q1025=
202011291850 METAR ESMX 291850Z AUTO 35005KT 9999 FEW007/// BKN022/// M02/M02 Q1025=
202011291820 METAR ESMX 291820Z AUTO 34006KT 9999 FEW017/// BKN023/// OVC036/// M01/M02 Q1025=
202011291750 METAR ESMX 291750Z AUTO 36008KT 9999 SCT008/// OVC017/// M01/M02 Q1025=
202011291720 METAR ESMX 291720Z AUTO 36007KT 9999 BKN007/// OVC017/// M01/M01 Q1025=
202011291650 METAR ESMX 291650Z AUTO 34008KT 9999 OVC007/// M01/M01 Q1025=
202011291620 METAR ESMX 291620Z AUTO 35007KT 9999 OVC006/// M01/M01 Q1025=
202011291550 METAR ESMX 291550Z AUTO 33007KT 9999 -SN OVC006/// M00/M01 Q1025 RESG REFZUP=
202011291520 METAR ESMX 291520Z AUTO 33006KT 7000 FZUP OVC005/// M00/M01 Q1025=
202011291450 METAR ESMX 291450Z AUTO 34007KT 9999 BKN006/// OVC019/// M00/M01 Q1026=
202011291420 METAR ESMX 291420Z AUTO 34006KT 9999 SCT009/// OVC019/// 00/M01 Q1026=
202011291350 METAR ESMX 291350Z AUTO 34007KT 9999 SCT010/// OVC019/// 00/M01 Q1026=
202011291320 METAR ESMX 291320Z AUTO 33005KT 9999 BKN011/// OVC020/// 00/M01 Q1026=
202011291250 METAR ESMX 291250Z AUTO 32006KT 9999 BKN010/// OVC018/// 00/M01 Q1026=
202011291220 METAR ESMX 291220Z AUTO 33005KT 9999 OVC018/// 00/M01 Q1026=
202011291150 METAR ESMX 291150Z AUTO 36005KT 9999 SCT020/// M00/M01 Q1026=
202011291120 METAR ESMX 291120Z AUTO 01005KT 9999 SG FEW007/// SCT024/// M00/M01 Q1027=
202011291050 METAR ESMX 291050Z AUTO 34006KT 7000 -SN FEW007/// SCT009/// OVC026/// M00/M01 Q1027 RESHUP REFZUP=
202011291020 METAR ESMX 291020Z AUTO 36005KT 9999 FZUP FEW008/// SCT009/// BKN017/// M00/M02 Q1027=
202011290950 METAR ESMX 290950Z AUTO 01006KT 9999 OVC018/// M00/M02 Q1027=
202011290920 METAR ESMX 290920Z AUTO 35008KT 9999 OVC018/// M01/M02 Q1027=
202011290850 METAR ESMX 290850Z AUTO 34008KT 9999 FEW009/// OVC017/// M01/M02 Q1027=
202011290820 METAR ESMX 290820Z AUTO 36009KT 9999 BKN009/// OVC017/// M01/M02 Q1027=
202011290750 METAR ESMX 290750Z AUTO 35008KT 9999 BKN010/// OVC018/// M01/M02 Q1027=
202011290720 METAR ESMX 290720Z AUTO 01008KT 9999 BKN011/// BKN016/// OVC020/// M01/M02 Q1027=
202011290650 METAR ESMX 290650Z AUTO 34008KT 9999 SG FEW006/// BKN009/// BKN015/// M01/M02 Q1027 RESN=
202011290620 METAR ESMX 290620Z AUTO 01007KT 9999 FEW006/// OVC010/// M01/M02 Q1027=
202011290550 METAR ESMX 290550Z AUTO 01008KT 8000 SG SCT009/// OVC014/// M01/M02 Q1027 RESG=
202011290520 METAR ESMX 290520Z AUTO 02008KT 9999 -SN SCT008/// OVC015/// M01/M02 Q1027=
202011290450 METAR ESMX 290450Z AUTO 02008KT 4000 -SN BKN008/// OVC017/// M01/M02 Q1027 REFZUP=
202011290420 METAR ESMX 290420Z AUTO 01008KT 9999 OVC009/// M01/M02 Q1027=
202011290350 METAR ESMX 290350Z AUTO 35009KT 9999 OVC011/// M01/M02 Q1028=
202011290320 METAR ESMX 290320Z AUTO 35008KT 9999 OVC010/// M01/M02 Q1028=
202011290250 METAR ESMX 290250Z AUTO 35009KT 9999 OVC010/// M01/M02 Q1028=
202011290220 METAR ESMX 290220Z AUTO 35010KT 9999 OVC011/// M01/M02 Q1028=
202011290150 METAR ESMX 290150Z AUTO 01009KT 9999 OVC012/// M00/M02 Q1028=
202011290120 METAR ESMX 290120Z AUTO 35009KT 9999 FEW005/// OVC013/// M01/M02 Q1028=
202011290050 METAR ESMX 290050Z AUTO 01007KT 9999 -SN BKN007/// BKN011/// OVC014/// M01/M01 Q1028=
202011290020 METAR ESMX 290020Z AUTO 35008KT 6000 -SN SCT007/// BKN011/// OVC016/// M01/M01 Q1028=
202011282350 METAR ESMX 282350Z AUTO 36007KT 6000 SG FEW002/// BKN007/// OVC014/// M01/M01 Q1028=
202011282320 METAR ESMX 282320Z AUTO 03008KT 9999 -SN FEW009/// OVC014/// M00/M02 Q1028 RESG REFZUP=
202011282250 METAR ESMX 282250Z AUTO 02008KT 9999 BKN010/// OVC013/// M00/M01 Q1028=
202011282220 METAR ESMX 282220Z AUTO 01007KT 9999 BKN007/// OVC014/// M00/M01 Q1029=
202011282150 METAR ESMX 282150Z AUTO 02006KT 9999 SCT005/// M01/M01 Q1029=
202011282120 METAR ESMX 282120Z AUTO 02005KT 9999 BKN005/// M00/M00 Q1029=
202011282050 METAR ESMX 282050Z AUTO 01003KT 9999 SCT007/// M00/M01 Q1028=
202011282020 METAR ESMX 282020Z AUTO 02003KT 9999 FEW007/// 00/M00 Q1028=
202011281950 METAR ESMX 281950Z AUTO 36006KT 9999 OVC007/// 00/00 Q1028=
202011281920 METAR ESMX 281920Z AUTO 03004KT 9999 BKN007/// 00/M00 Q1028=
202011281850 METAR ESMX 281850Z AUTO 02006KT 7000 -SN FEW007/// SCT011/// BKN018/// 01/00 Q1028 REUP=
202011281820 METAR ESMX 281820Z AUTO 36006KT 9999 FEW009/// OVC015/// 01/M00 Q1028=
202011281750 METAR ESMX 281750Z AUTO 33005KT 9999 FEW012/// OVC016/// 01/M00 Q1028=
202011281720 METAR ESMX 281720Z AUTO 34005KT 9999 SCT011/// OVC016/// 01/M00 Q1028=
202011281650 METAR ESMX 281650Z AUTO 36004KT 9999 OVC011/// 01/M00 Q1028=
202011281620 METAR ESMX 281620Z AUTO 01005KT 9999 OVC011/// 01/M00 Q1028=
202011281550 METAR ESMX 281550Z AUTO 04005KT 9999 OVC011/// 02/M00 Q1028=
202011281520 METAR ESMX 281520Z AUTO 07003KT 9999 OVC011/// 02/00 Q1028=
202011281450 METAR ESMX 281450Z AUTO 02004KT 340V060 9999 OVC011/// 02/00 Q1027=
202011281420 METAR ESMX 281420Z AUTO 04006KT 020V080 9999 OVC011/// 02/00 Q1027=
202011281350 METAR ESMX 281350Z AUTO 04004KT 9999 OVC010/// 02/00 Q1027=
202011281320 METAR ESMX 281320Z AUTO 01006KT 9999 OVC009/// 02/00 Q1027=
202011281250 METAR ESMX 281250Z AUTO 36005KT 9999 BKN010/// 02/00 Q1027=
202011281220 METAR ESMX 281220Z AUTO 36005KT 9999 SCT009/// BKN012/// 02/00 Q1027=
202011281150 METAR ESMX 281150Z AUTO 02006KT 9999 OVC009/// 02/00 Q1027=
202011281120 METAR ESMX 281120Z AUTO 01006KT 9999 OVC009/// 02/00 Q1027=
202011281050 METAR ESMX 281050Z AUTO 02005KT 9999 BKN008/// OVC014/// 01/00 Q1027=
202011281020 METAR ESMX 281020Z AUTO 03006KT 9999 BKN006/// 01/M00 Q1027=
202011280950 METAR ESMX 280950Z AUTO 02005KT 9999 BKN005/// OVC020/// 01/00 Q1027=
202011280920 METAR ESMX 280920Z AUTO 02006KT 9999 OVC005/// 00/00 Q1027=
202011280850 METAR ESMX 280850Z AUTO 02006KT 9999 OVC005/// 00/M00 Q1027=
202011280820 METAR ESMX 280820Z AUTO 02007KT 9999 BKN006/// OVC021/// 00/M00 Q1027=
202011280750 METAR ESMX 280750Z AUTO 36007KT 9999 BKN007/// OVC021/// 00/M00 Q1026=
202011280720 METAR ESMX 280720Z AUTO 02007KT 9999 BKN007/// OVC023/// M00/M01 Q1026=
202011280650 METAR ESMX 280650Z AUTO 03007KT 9999 OVC007/// M00/M01 Q1026=
202011280620 METAR ESMX 280620Z AUTO 03007KT 9999 OVC007/// M00/M01 Q1026=
202011280550 METAR ESMX 280550Z AUTO 02007KT 9999 BKN008/// BKN010/// M00/M01 Q1025=
202011280520 METAR ESMX 280520Z AUTO 01006KT 9999 OVC009/// M00/M01 Q1025=
202011280450 METAR ESMX 280450Z AUTO 02007KT 9999 OVC009/// M00/M01 Q1025=
202011280420 METAR ESMX 280420Z AUTO 05007KT 020V100 9999 OVC008/// 00/M01 Q1025=
202011280350 METAR ESMX 280350Z AUTO 04008KT 9999 OVC008/// 00/M01 Q1025=
202011280320 METAR ESMX 280320Z AUTO 05007KT 020V080 9999 OVC007/// M00/M01 Q1025=
202011280250 METAR ESMX 280250Z AUTO 03006KT 340V050 9999 OVC006/// M00/M01 Q1024=
202011280220 METAR ESMX 280220Z AUTO 01005KT 9999 BKN007/// M00/M01 Q1024=
202011280150 METAR ESMX 280150Z AUTO 02004KT 9999 BKN007/// M00/M01 Q1024=
202011280120 METAR ESMX 280120Z AUTO 03007KT 9999 OVC007/// 00/M00 Q1024=
202011280050 METAR ESMX 280050Z AUTO 01006KT 9999 SCT007/// BKN010/// 01/00 Q1024=
202011280020 METAR ESMX 280020Z AUTO 02005KT 9999 BKN007/// 01/00 Q1024=
202011272350 METAR ESMX 272350Z AUTO 03007KT 9999 BKN007/// 01/00 Q1024=
202011272320 METAR ESMX 272320Z AUTO 01007KT 9999 OVC007/// 01/01 Q1024=
202011272250 METAR ESMX 272250Z AUTO 02007KT 9999 OVC006/// 01/01 Q1024=
202011272220 METAR ESMX 272220Z AUTO 02007KT 9999 OVC005/// 01/01 Q1023=
202011272150 METAR ESMX 272150Z AUTO 36009KT 9999 OVC004/// 01/01 Q1023=
202011272120 METAR ESMX 272120Z AUTO 35008KT 9999 OVC004/// 01/01 Q1023=
202011272050 METAR ESMX 272050Z AUTO 35007KT 9999 OVC004/// 01/01 Q1023=
202011272020 METAR ESMX 272020Z AUTO 35006KT 9999 OVC003/// 01/01 Q1023=
202011271950 METAR ESMX 271950Z AUTO 36007KT 9999 OVC003/// 01/01 Q1022=
202011271920 METAR ESMX 271920Z AUTO 34007KT 9999 OVC003/// 00/00 Q1023=
202011271850 METAR ESMX 271850Z AUTO 33006KT 4600 OVC001/// 00/00 Q1023=
202011271820 METAR ESMX 271820Z AUTO 34005KT 320V020 7000 OVC001/// 00/00 Q1022=
202011271750 METAR ESMX 271750Z AUTO 33006KT 300V010 0450 R01/1200U R19/P2000N FG OVC001/// 00/00 Q1022=
202011271720 METAR ESMX 271720Z AUTO 31005KT 0350 R01/1000N R19/1400N FG OVC001/// 00/00 Q1022=
202011271650 METAR ESMX 271650Z AUTO 32005KT 0400 R01/1100U R19/P2000N FG OVC001/// 00/00 Q1022=
202011271620 METAR ESMX 271620Z AUTO 32005KT 1500 BR OVC001/// 01/01 Q1022=
202011271550 METAR ESMX 271550Z AUTO 31004KT 9999 BR OVC002/// 01/01 Q1021=
202011271520 METAR ESMX 271520Z 29004KT 9999 OVC004 01/01 Q1021=
202011271450 METAR ESMX 271450Z 33004KT 9999 OVC004 01/01 Q1021=
202011271420 METAR ESMX 271420Z 28004KT 9999 BKN005 01/01 Q1021=
202011271350 METAR ESMX 271350Z 33005KT 300V360 9999 BKN004 01/01 Q1021=
202011271320 METAR ESMX 271320Z 30004KT 250V350 9999 OVC004 01/01 Q1021=
202011271250 METAR ESMX 271250Z AUTO 29006KT 9999 OVC004/// 02/01 Q1021=
202011271220 METAR COR ESMX 271220Z 30004KT 9999 OVC005 01/01 Q1021=
202011271150 METAR ESMX 271150Z AUTO 32003KT 9999 OVC004/// 01/01 Q1021=
202011271120 METAR ESMX 271120Z AUTO 36005KT 9999 OVC002/// 01/01 Q1021=
202011271050 METAR ESMX 271050Z VRB03KT 9000 BR OVC002 01/01 Q1021=
202011271020 METAR ESMX 271020Z 29005KT 3000 BR OVC002 01/01 Q1020=
202011270950 METAR COR ESMX 270950Z 29004KT 2000 BR OVC002 01/01 Q1020=
202011270920 METAR ESMX 270920Z 29005KT 260V320 9999 BKN002 01/01 Q1020=
202011270850 METAR ESMX 270850Z 31005KT 9999 OVC003 01/01 Q1020=
202011270820 METAR ESMX 270820Z 31004KT 9999 OVC003 01/01 Q1020=
202011270750 METAR ESMX 270750Z 30004KT 9999 OVC003 01/01 Q1020=
202011270720 METAR ESMX 270720Z 32004KT 9999 OVC004 01/01 Q1019=
202011270650 METAR ESMX 270650Z AUTO 32005KT 9999 OVC004/// 01/01 Q1019=
202011270620 METAR ESMX 270620Z AUTO 32005KT 9999 OVC004/// 01/01 Q1019=
202011270550 METAR ESMX 270550Z AUTO 32006KT 9999 OVC004/// 01/01 Q1019=
202011270520 METAR ESMX 270520Z AUTO 32006KT 9999 OVC004/// 01/01 Q1018=
202011270450 METAR ESMX 270450Z AUTO 32006KT 9999 OVC004/// 01/01 Q1018=
202011270420 METAR ESMX 270420Z AUTO 33007KT 9999 OVC005/// 01/01 Q1018=
202011270350 METAR ESMX 270350Z AUTO 31005KT 9999 FEW008/// BKN011/// M00/M00 Q1018=
202011270320 METAR ESMX 270320Z AUTO 30004KT 9999 NCD M00/M00 Q1017=
202011270250 METAR ESMX 270250Z AUTO 28005KT 9999 NCD M01/M01 Q1017=
202011270220 METAR ESMX 270220Z AUTO 29004KT 9999 NCD M00/M00 Q1017=
202011270150 METAR ESMX 270150Z AUTO 33003KT 9999 NCD 01/01 Q1017=
202011270120 METAR ESMX 270120Z AUTO 31003KT 280V340 9999 BKN012/// 02/01 Q1017=
202011270050 METAR ESMX 270050Z AUTO 34006KT 290V020 9999 OVC009/// 03/02 Q1016=
202011270020 METAR ESMX 270020Z AUTO 34006KT 9999 OVC010/// 03/02 Q1016=
202011262350 METAR ESMX 262350Z AUTO 34005KT 9999 OVC009/// 03/02 Q1016=
202011262320 METAR ESMX 262320Z AUTO 33007KT 9999 OVC007/// 03/02 Q1016=
202011262250 METAR ESMX 262250Z AUTO 30007KT 9999 OVC007/// 03/03 Q1016=
202011262220 METAR ESMX 262220Z AUTO 33007KT 9999 OVC007/// 03/02 Q1015=
202011262150 METAR ESMX 262150Z AUTO 33007KT 9999 OVC008/// 03/03 Q1015=
202011262120 METAR ESMX 262120Z AUTO 31007KT 9999 OVC007/// 03/03 Q1015=
202011262050 METAR ESMX 262050Z AUTO 33005KT 9999 BKN006/// OVC009/// 03/03 Q1015=
202011262020 METAR ESMX 262020Z AUTO 30007KT 260V320 9999 OVC006/// 03/03 Q1015=
202011261950 METAR ESMX 261950Z AUTO 31006KT 9999 OVC007/// 04/03 Q1014=
202011261920 METAR ESMX 261920Z AUTO 31008KT 280V340 9999 OVC007/// 04/04 Q1014=
202011261850 METAR ESMX 261850Z AUTO 33009KT 9999 OVC007/// 04/04 Q1014=
202011261820 METAR ESMX 261820Z AUTO 32007KT 290V360 9999 BKN008/// 05/04 Q1013=
202011261750 METAR ESMX 261750Z AUTO 29006KT 9999 BKN007/// 05/04 Q1013=
202011261720 METAR ESMX 261720Z AUTO 30006KT 9999 OVC006/// 05/05 Q1013=
202011261650 METAR ESMX 261650Z AUTO 28005KT 9999 BKN006/// OVC008/// 05/05 Q1012=
202011261620 METAR ESMX 261620Z AUTO 27007KT 9999 OVC007/// 06/06 Q1012=
202011261550 METAR ESMX 261550Z AUTO 30008KT 9999 OVC007/// 06/06 Q1012=
202011261520 METAR ESMX 261520Z 28005KT 250V320 9999 OVC008 06/06 Q1012=
202011261450 METAR ESMX 261450Z 28007KT 9999 BKN010 06/06 Q1011=
202011261420 METAR ESMX 261420Z 27008KT 9999 BKN040 07/06 Q1011=
202011261350 METAR ESMX 261350Z AUTO 27006KT 9999 BKN037/// 07/06 Q1011=
202011261320 METAR ESMX 261320Z 28006KT 9999 FEW006 BKN020 07/06 Q1010=
202011261250 METAR ESMX 261250Z 30008KT 9999 -RA FEW005 BKN009 07/07 Q1010=
202011261220 METAR ESMX 261220Z 26008KT 9999 FEW007 BKN010 08/07 Q1010=
202011261150 METAR ESMX 261150Z 25007KT 9999 BKN005 08/08 Q1010=
202011261120 METAR ESMX 261120Z 24008KT 9000 BR BKN002 07/07 Q1010=
202011261050 METAR ESMX 261050Z 21008KT 3700 BR OVC002 07/07 Q1010=
202011261020 METAR ESMX 261020Z AUTO 22009KT 4300 BR OVC002/// 07/07 Q1010=
202011260950 METAR ESMX 260950Z 22009KT 3400 BR OVC002 06/06 Q1011=
202011260920 METAR COR ESMX 260920Z 21009KT 2200 BR OVC002 06/06 Q1011=
202011260850 METAR ESMX 260850Z 22008KT 2400 BR OVC002 05/05 Q1011=
202011260820 METAR COR ESMX 260820Z 21008KT 2900 -DZ OVC002 05/05 Q1011=
202011260750 METAR ESMX 260750Z 19007KT 1800 DZ OVC001 05/05 Q1011=
202011260720 METAR ESMX 260720Z 21008KT 1400 R01/P2000N R19/P2000N -RA OVC001 05/05 Q1011=
202011260650 METAR ESMX 260650Z AUTO 19009KT 1500 BR OVC001/// 04/04 Q1011=
202011260620 METAR ESMX 260620Z AUTO 21008KT 1400 R01/P2000N R19/P2000N BR OVC001/// 04/04 Q1011=
202011260550 METAR ESMX 260550Z AUTO 21009KT 1300 R01/P2000N R19/P2000N BR OVC002/// 04/04 Q1011 REDZ=
202011260520 METAR ESMX 260520Z AUTO 21009KT 2700 BR OVC002/// 04/04 Q1012=
202011260450 METAR ESMX 260450Z AUTO 20010KT 3600 BR OVC002/// 04/04 Q1012 RESHUP REUP=
202011260420 METAR ESMX 260420Z AUTO 22009KT 2600 BR OVC002/// 05/04 Q1012 RESHUP REUP=
202011260350 METAR ESMX 260350Z AUTO 22010KT 3500 UP OVC003/// 05/05 Q1012=
202011260320 METAR ESMX 260320Z AUTO 20009KT 3600 BR OVC002/// 05/05 Q1012=
202011260250 METAR ESMX 260250Z AUTO 20008KT 2500 BR OVC002/// 05/05 Q1012=
202011260220 METAR ESMX 260220Z AUTO 21008KT 2200 BR OVC002/// 05/05 Q1013=
202011260150 METAR ESMX 260150Z AUTO 22008KT 2100 BR OVC002/// 05/05 Q1013=
202011260120 METAR ESMX 260120Z AUTO 22007KT 2000 BR OVC002/// 05/05 Q1013=
202011260050 METAR ESMX 260050Z AUTO 21007KT 2700 BR BKN002/// OVC004/// 05/05 Q1013=
202011260020 METAR ESMX 260020Z AUTO 22009KT 5000 BR FEW003/// OVC005/// 05/05 Q1013=
202011252350 METAR ESMX 252350Z AUTO 22008KT 5000 BR OVC005/// 05/05 Q1013=
202011252320 METAR ESMX 252320Z AUTO 23007KT 7000 BR OVC005/// 05/05 Q1013=
202011252250 METAR ESMX 252250Z AUTO 24008KT 9000 BR OVC005/// 05/05 Q1013=
202011252220 METAR ESMX 252220Z AUTO 22008KT 9999 OVC005/// 05/05 Q1013=
202011252150 METAR ESMX 252150Z AUTO 24008KT 9999 OVC005/// 05/05 Q1013=
202011252120 METAR ESMX 252120Z AUTO 21008KT 9999 OVC006/// 05/05 Q1013=
202011252050 METAR ESMX 252050Z AUTO 22008KT 9999 OVC006/// 05/05 Q1013=
202011252020 METAR ESMX 252020Z AUTO 22007KT 9999 OVC006/// 06/05 Q1014=
202011251950 METAR ESMX 251950Z AUTO 22008KT 9999 OVC006/// 06/05 Q1014=
202011251920 METAR ESMX 251920Z AUTO 23009KT 200V260 9999 OVC006/// 06/05 Q1014=
202011251850 METAR ESMX 251850Z AUTO 22008KT 9999 OVC007/// 05/05 Q1014=
202011251820 METAR ESMX 251820Z AUTO 22007KT 9999 OVC007/// 05/05 Q1014=
202011251750 METAR ESMX 251750Z AUTO 21010KT 9999 OVC007/// 06/05 Q1014=
202011251720 METAR ESMX 251720Z AUTO 22009KT 9999 OVC008/// 06/05 Q1014=
202011251650 METAR ESMX 251650Z AUTO 19009KT 9999 OVC009/// 06/05 Q1014=
202011251620 METAR ESMX 251620Z AUTO 18007KT 9999 BKN010/// 05/05 Q1014=
202011251550 METAR ESMX 251550Z AUTO 18006KT 9999 BKN010/// 06/05 Q1014=
202011251520 METAR ESMX 251520Z 19009KT 9999 BKN014 06/05 Q1014=
202011251450 METAR ESMX 251450Z 21010KT 9999 BKN013 07/05 Q1014=
202011251420 METAR ESMX 251420Z 20014KT 9999 BKN011 07/05 Q1014=
202011251350 METAR ESMX 251350Z 19012KT 9999 BKN011 07/06 Q1014=
202011251320 METAR ESMX 251320Z 19011KT 9999 BKN010 07/06 Q1014=
202011251250 METAR ESMX 251250Z 20010KT 9999 BKN010 07/06 Q1015=
202011251220 METAR ESMX 251220Z 19010KT 9999 BKN010 07/06 Q1014=
202011251150 METAR ESMX 251150Z 19012KT 9999 SCT009 07/06 Q1014=
202011251120 METAR ESMX 251120Z 20011KT 9999 BKN009 07/06 Q1015=
202011251050 METAR ESMX 251050Z 20009KT 9999 BKN009 07/06 Q1015=
202011251020 METAR ESMX 251020Z 20010KT 9999 BKN009 07/06 Q1015=
202011250950 METAR ESMX 250950Z 19010KT 9999 BKN008 07/06 Q1015=
202011250920 METAR ESMX 250920Z 20009KT 9999 BKN008 07/06 Q1015=
202011250850 METAR ESMX 250850Z 22009KT 9999 BKN009 07/06 Q1015=
202011250820 METAR ESMX 250820Z 21007KT 9999 BKN009 07/06 Q1015=
202011250750 METAR ESMX 250750Z 22006KT 9999 SCT009 BKN013 07/06 Q1015=
202011250720 METAR ESMX 250720Z 19008KT 9999 SCT008 BKN014 07/06 Q1015=
202011250650 METAR ESMX 250650Z AUTO 22008KT 9999 BKN008/// OVC013/// 07/07 Q1015=
202011250620 METAR ESMX 250620Z AUTO 22007KT 9999 SCT009/// OVC016/// 07/07 Q1015=
202011250550 METAR ESMX 250550Z AUTO 23006KT 9999 BKN009/// OVC011/// 07/07 Q1015=
202011250520 METAR ESMX 250520Z AUTO 23008KT 9999 SCT007/// BKN010/// OVC013/// 08/07 Q1015=
202011250450 METAR ESMX 250450Z AUTO 23009KT 9999 BKN008/// OVC011/// 08/07 Q1015=
202011250420 METAR ESMX 250420Z AUTO 23008KT 200V260 9999 BKN008/// OVC010/// 08/07 Q1015=
202011250350 METAR ESMX 250350Z AUTO 23007KT 9999 OVC008/// 08/08 Q1015=
202011250320 METAR ESMX 250320Z AUTO 24006KT 9999 BKN008/// OVC010/// 08/08 Q1015=
202011250250 METAR ESMX 250250Z AUTO 20005KT 9999 SCT009/// BKN015/// OVC018/// 08/08 Q1015=
202011250220 METAR ESMX 250220Z AUTO 22007KT 9999 SCT009/// BKN010/// OVC019/// 08/08 Q1015=
202011250150 METAR ESMX 250150Z AUTO 23007KT 9999 BKN008/// OVC010/// 09/08 Q1015=
202011250120 METAR ESMX 250120Z AUTO 23008KT 9999 OVC007/// 09/08 Q1015=
202011250050 METAR ESMX 250050Z AUTO 23008KT 8000 BR OVC005/// 09/08 Q1015=
202011250020 METAR ESMX 250020Z AUTO 24008KT 8000 BR BKN007/// BKN010/// OVC014/// 09/09 Q1015=
202011242350 METAR ESMX 242350Z AUTO 24009KT 9999 OVC006/// 09/09 Q1015=
202011242320 METAR ESMX 242320Z AUTO 23009KT 5000 BR OVC004/// 09/09 Q1015=
202011242250 METAR ESMX 242250Z AUTO 23009KT 7000 BR OVC005/// 09/09 Q1015=
202011242220 METAR ESMX 242220Z AUTO 25008KT 9999 OVC005/// 09/09 Q1015=
202011242150 METAR ESMX 242150Z AUTO 24008KT 7000 BR OVC004/// 09/09 Q1015=
202011242120 METAR ESMX 242120Z AUTO 23010KT 210V270 9999 OVC004/// 09/09 Q1015=
202011242050 METAR ESMX 242050Z AUTO 24010KT 6000 BR OVC003/// 09/09 Q1014=
202011242020 METAR ESMX 242020Z AUTO 23010KT 200V260 7000 BR OVC004/// 09/09 Q1014=
202011241950 METAR ESMX 241950Z AUTO 23009KT 6000 BR OVC004/// 09/09 Q1014=
202011241920 METAR ESMX 241920Z AUTO 24009KT 9000 OVC003/// 09/09 Q1014=
202011241850 METAR ESMX 241850Z AUTO 24009KT 4600 BR OVC002/// 09/09 Q1014=
202011241820 METAR ESMX 241820Z AUTO 22009KT 6000 BR OVC004/// 09/09 Q1014=
202011241750 METAR ESMX 241750Z AUTO 23010KT 8000 OVC004/// 09/09 Q1014=
202011241720 METAR ESMX 241720Z AUTO 23010KT 5000 BR OVC002/// 09/09 Q1014=
202011241650 METAR ESMX 241650Z AUTO 23010KT 3400 BR OVC002/// 09/09 Q1014=
202011241620 METAR ESMX 241620Z AUTO 22010KT 4300 BR OVC002/// 09/09 Q1013 REUP=
202011241550 METAR ESMX 241550Z AUTO 23010KT 3300 BR OVC002/// 09/09 Q1013=
202011241520 METAR ESMX 241520Z 23010KT 3600 BR BKN002 09/09 Q1013 REDZ=
202011241450 METAR ESMX 241450Z 22011KT 2800 -RA BKN002 08/08 Q1013=
202011241420 METAR ESMX 241420Z 22010KT 3700 BR BKN002 08/08 Q1013=
202011241350 METAR ESMX 241350Z 23010KT 2100 BR BKN002 08/08 Q1013=
202011241320 METAR ESMX 241320Z 22011KT 2300 BR BKN002 BKN004 08/08 Q1013=
202011241250 METAR ESMX 241250Z 22011KT 3600 BR BKN002 BKN004 08/08 Q1013=
202011241220 METAR ESMX 241220Z 22010KT 3800 BR BKN002 BKN004 07/07 Q1013=
202011241150 METAR ESMX 241150Z 21011KT 3300 BR BKN003 07/07 Q1013=
202011241120 METAR ESMX 241120Z 21011KT 9999 BKN005 07/07 Q1013=
202011241050 METAR ESMX 241050Z 22011KT 9999 BKN005 07/07 Q1013=
202011241020 METAR ESMX 241020Z 22013KT 9999 BKN006 07/07 Q1014=
202011240950 METAR ESMX 240950Z 20012KT 9999 -DZ BKN006 07/06 Q1014=
202011240920 METAR ESMX 240920Z 20013KT 9999 DZ BKN006 06/06 Q1014 RESHRA=
202011240850 METAR ESMX 240850Z 20012KT 9999 -DZ BKN006 06/06 Q1014=
202011240820 METAR ESMX 240820Z 20011KT 9999 DZ BKN006 06/06 Q1014 REDZ=
202011240750 METAR ESMX 240750Z 21008KT 9999 DZ BKN006 BKN017 06/06 Q1014=
202011240720 METAR ESMX 240720Z 22008KT 9999 DZ BKN006 BKN017 06/06 Q1015=
202011240650 METAR ESMX 240650Z 22008KT 9999 -RA FEW007 SCT011 BKN018 06/06 Q1015 REDZ=
202011240620 METAR ESMX 240620Z AUTO 20009KT 8000 DZ FEW006/// BKN010/// BKN022/// 06/06 Q1015=
202011240550 METAR ESMX 240550Z AUTO 20009KT 9999 -RA BKN008/// OVC020/// 06/06 Q1015=
202011240520 METAR ESMX 240520Z AUTO 21010KT 9999 -RA BKN007/// OVC009/// 06/06 Q1015 RESHUP REUP=
202011240450 METAR ESMX 240450Z AUTO 21010KT 9999 SCT008/// BKN009/// BKN021/// 06/06 Q1015=
202011240420 METAR ESMX 240420Z AUTO 20011KT 9999 BKN008/// OVC034/// 06/06 Q1016=
202011240350 METAR ESMX 240350Z AUTO 21009KT 9999 -RA SCT008/// BKN010/// BKN013/// 06/06 Q1016 REUP=
202011240320 METAR ESMX 240320Z AUTO 20007KT 9999 SCT009/// BKN012/// OVC045/// 06/06 Q1016=
202011240250 METAR ESMX 240250Z AUTO 22007KT 9999 FEW012/// SCT020/// OVC046/// 07/06 Q1016=
202011240220 METAR ESMX 240220Z AUTO 22008KT 9999 OVC011/// 06/06 Q1016=
202011240150 METAR ESMX 240150Z AUTO 22009KT 9999 BKN012/// BKN017/// OVC038/// 07/06 Q1017=
202011240120 METAR ESMX 240120Z AUTO 21008KT 9999 BKN014/// BKN019/// OVC039/// 06/06 Q1017=
202011240050 METAR ESMX 240050Z AUTO 22008KT 9999 FEW018/// BKN026/// OVC035/// 06/06 Q1017=
202011240020 METAR ESMX 240020Z AUTO 22008KT 9999 OVC034/// 06/05 Q1017=
202011232350 METAR ESMX 232350Z AUTO 22008KT 9999 BKN010/// OVC037/// 06/05 Q1017=
202011232320 METAR ESMX 232320Z AUTO 21007KT 9999 FEW019/// BKN034/// OVC047/// 06/05 Q1017=
202011232250 METAR ESMX 232250Z AUTO 23006KT 9999 OVC036/// 06/05 Q1017=
202011232220 METAR ESMX 232220Z AUTO 23006KT 9999 SCT009/// BKN026/// OVC037/// 06/05 Q1017=
202011232150 METAR ESMX 232150Z AUTO 25006KT 220V290 9999 FEW024/// BKN034/// 05/05 Q1017 REUP REDZ=
202011232120 METAR ESMX 232120Z AUTO 25006KT 9999 FEW011/// SCT021/// BKN034/// 05/05 Q1017=
202011232050 METAR ESMX 232050Z AUTO 25007KT 9999 FEW018/// 05/04 Q1017=
202011232020 METAR ESMX 232020Z AUTO 25006KT 220V290 9999 FEW059/// 05/03 Q1017=
202011231950 METAR ESMX 231950Z AUTO 26007KT 9999 NCD 04/03 Q1017=
202011231920 METAR ESMX 231920Z AUTO 27007KT 220V290 9999 NCD 05/04 Q1016=
202011231850 METAR ESMX 231850Z AUTO 26007KT 230V300 9999 NCD 05/04 Q1016=
202011231820 METAR ESMX 231820Z AUTO 26007KT 9999 NCD 05/03 Q1016=
202011231750 METAR ESMX 231750Z AUTO 26007KT 9999 FEW022/// 05/03 Q1016=
202011231720 METAR ESMX 231720Z AUTO 25008KT 9999 NCD 05/03 Q1015=
202011231650 METAR ESMX 231650Z AUTO 25008KT 9999 NCD 05/03 Q1015=
202011231620 METAR ESMX 231620Z AUTO 25007KT 9999 NCD 05/03 Q1015=
202011231550 METAR ESMX 231550Z AUTO 27010KT 9999 FEW032/// 06/03 Q1014=
202011231520 METAR ESMX 231520Z 27009KT 210V300 9999 SCT023 06/04 Q1014=
202011231450 METAR ESMX 231450Z 26009KT 9999 SCT023 06/04 Q1014=
202011231420 METAR ESMX 231420Z 26010KT 9999 SCT042 06/04 Q1013=
202011231350 METAR ESMX 231350Z 27013KT 9999 SCT020 BKN040 07/04 Q1013=
202011231320 METAR ESMX 231320Z 28012KT 9999 -SHRA FEW021 SCT042 07/04 Q1012=
202011231250 METAR ESMX 231250Z 26013KT 9999 FEW020 SCT033 BKN040 08/04 Q1012=
202011231220 METAR ESMX 231220Z 26011G22KT 9999 SCT019 BKN028 BKN040 07/04 Q1012=
202011231150 METAR ESMX 231150Z 25010KT 210V280 9999 BKN019 BKN026 07/05 Q1011=
202011231120 METAR ESMX 231120Z 26012KT 230V290 9999 BKN018 BKN024 OVC036 07/05 Q1011=
202011231050 METAR ESMX 231050Z 26012KT 230V290 9999 BKN014 BKN018 07/05 Q1011=
202011231020 METAR ESMX 231020Z 26010KT 220V290 9999 BKN013 BKN022 07/05 Q1011=
202011230950 METAR ESMX 230950Z 26010KT 9999 BKN011 06/05 Q1011=
202011230920 METAR ESMX 230920Z 26010KT 9999 BKN009 06/05 Q1011=
202011230850 METAR ESMX 230850Z 26012KT 9999 BKN008 05/04 Q1010=
202011230820 METAR ESMX 230820Z 26010KT 9999 BKN009 05/04 Q1010=
202011230750 METAR ESMX 230750Z 25011KT 9999 BKN009 04/04 Q1010=
202011230720 METAR ESMX 230720Z 25009KT 9999 SCT028 BKN057 04/03 Q1010=
202011230650 METAR ESMX 230650Z AUTO 25008KT 9999 FEW031/// 04/03 Q1010=
202011230620 METAR ESMX 230620Z AUTO 25012KT 9999 -RA SCT032/// 05/03 Q1009 REDZ REUP RESHUP=
202011230550 METAR ESMX 230550Z AUTO 25009KT 9999 FEW090/// 05/03 Q1009=
202011230520 METAR ESMX 230520Z AUTO 25010KT 9999 BKN025/// 05/03 Q1009=
202011230450 METAR ESMX 230450Z AUTO 25010KT 9999 FEW064/// 06/03 Q1009 RESHUP REUP=
202011230420 METAR ESMX 230420Z AUTO 25011KT 230V290 9999 FEW016/// SCT019/// 06/04 Q1009=
202011230350 METAR ESMX 230350Z AUTO 25010KT 9999 BKN021/// 06/04 Q1009=
202011230320 METAR ESMX 230320Z AUTO 24012KT 200V260 9999 FEW021/// 06/04 Q1009=
202011230250 METAR ESMX 230250Z AUTO 25013KT 230V290 9999 BKN020/// 07/04 Q1009=
202011230220 METAR ESMX 230220Z AUTO 26014G25KT 9999 OVC021/// 07/04 Q1009=
202011230150 METAR ESMX 230150Z AUTO 26013KT 9999 OVC021/// 07/04 Q1009=
202011230120 METAR ESMX 230120Z AUTO 26013G25KT 9999 BKN022/// OVC028/// 07/04 Q1009=
202011230050 METAR ESMX 230050Z AUTO 26015KT 9999 OVC025/// 07/04 Q1009=
202011230020 METAR ESMX 230020Z AUTO 26013KT 230V290 9999 OVC028/// 08/04 Q1009=
202011222350 METAR ESMX 222350Z AUTO 26012KT 220V290 9999 BKN025/// OVC032/// 08/04 Q1009=
202011222320 METAR ESMX 222320Z AUTO 26013KT 9999 BKN026/// 08/04 Q1009=
202011222250 METAR ESMX 222250Z AUTO 25014G25KT 220V290 9999 BKN025/// 07/04 Q1008=
202011222220 METAR ESMX 222220Z AUTO 25015G25KT 9999 OVC023/// 08/04 Q1008=
202011222150 METAR ESMX 222150Z AUTO 25011KT 190V280 9999 OVC023/// 08/04 Q1008=
202011222120 METAR ESMX 222120Z AUTO 26014G25KT 9999 OVC025/// 08/04 Q1008=
202011222050 METAR ESMX 222050Z AUTO 25014KT 9999 SCT025/// BKN034/// 08/04 Q1008=
202011222020 METAR ESMX 222020Z AUTO 25014KT 220V280 9999 SCT023/// BKN034/// OVC042/// 08/05 Q1008=
202011221950 METAR ESMX 221950Z AUTO 25013KT 9999 FEW022/// OVC038/// 08/05 Q1008=
202011221920 METAR ESMX 221920Z AUTO 26014KT 9999 OVC034/// 08/05 Q1008=
202011221850 METAR ESMX 221850Z AUTO 26013KT 240V300 9999 FEW022/// SCT035/// OVC045/// 07/05 Q1008=
202011221820 METAR ESMX 221820Z AUTO 25013KT 9999 BKN043/// 07/05 Q1008=
202011221750 METAR ESMX 221750Z AUTO 24013KT 9999 FEW021/// BKN035/// BKN044/// 07/05 Q1008=
202011221720 METAR ESMX 221720Z AUTO 25012G23KT 220V280 9999 FEW023/// BKN042/// 07/05 Q1008=
202011221650 METAR ESMX 221650Z AUTO 24012KT 8000 DZ ///029 07/05 Q1007=
202011221620 METAR ESMX 221620Z AUTO 24012KT 220V280 9999 -DZ FEW019/// SCT029/// BKN042/// 07/05 Q1007=
202011221550 METAR ESMX 221550Z AUTO 24015KT 9999 -RA SCT018/// BKN026/// OVC047/// 07/05 Q1007 REUP REDZ=
202011221520 METAR ESMX 221520Z AUTO 25017G28KT 9999 FEW011/// BKN025/// BKN030/// 07/04 Q1007=
202011221450 METAR ESMX 221450Z AUTO 23012KT 9999 BKN021/// BKN027/// OVC039/// 07/04 Q1007=
202011221420 METAR ESMX 221420Z AUTO 25012KT 9999 FEW024/// OVC042/// 07/04 Q1007=
202011221350 METAR ESMX 221350Z AUTO 26014KT 9999 SCT025/// OVC041/// 07/04 Q1007 RESHUP REDZ=
202011221320 METAR ESMX 221320Z AUTO 26015G28KT 9999 SCT025/// BKN034/// 07/03 Q1007 REDZ REUP=
202011221250 METAR ESMX 221250Z AUTO 23014KT 200V260 9999 OVC025/// 07/04 Q1006=
202011221220 METAR ESMX 221220Z AUTO 25013KT 200V270 9999 BKN026/// 07/04 Q1007=
202011221150 METAR ESMX 221150Z AUTO 24014G25KT 9999 BKN022/// BKN030/// 07/04 Q1007=
202011221120 METAR ESMX 221120Z AUTO 25011KT 9999 BKN022/// 07/04 Q1007 RESHUP=
202011221050 METAR ESMX 221050Z AUTO 26012KT 220V280 9999 UP BKN027/// 07/04 Q1007 RESHUP=
202011221020 METAR ESMX 221020Z AUTO 29013KT 260V320 9999 BKN016/// OVC022/// 06/04 Q1007 RESHUP REUP=
202011220950 METAR ESMX 220950Z AUTO 26010KT 230V290 9999 SCT018/// BKN029/// OVC038/// 07/05 Q1007 RESHUP REDZ=
202011220920 METAR ESMX 220920Z AUTO 26012KT 9999 FEW013/// SCT019/// BKN025/// 07/05 Q1007 RESHUP REUP=
202011220850 METAR ESMX 220850Z AUTO 24010KT 9999 UP BKN015/// OVC021/// 07/05 Q1007=
202011220820 METAR ESMX 220820Z AUTO 23011KT 210V270 9999 SCT014/// BKN018/// OVC023/// 06/05 Q1007=
202011220750 METAR ESMX 220750Z AUTO 24011KT 9999 SCT019/// BKN026/// 06/05 Q1007=
202011220720 METAR ESMX 220720Z AUTO 23010KT 9999 BKN027/// 05/05 Q1007=
202011220650 METAR ESMX 220650Z AUTO 22011KT 9999 FEW014/// 05/04 Q1007=
202011220620 METAR ESMX 220620Z AUTO 22012KT 9999 FEW020/// SCT078/// 06/04 Q1007 RESHUP REUP REDZ=
202011220550 METAR ESMX 220550Z AUTO 22010KT 9999 FEW015/// 06/05 Q1007=
202011220520 METAR ESMX 220520Z AUTO 20010KT 9999 FEW009/// SCT012/// BKN019/// 06/05 Q1007=
202011220450 METAR ESMX 220450Z AUTO 22010KT 9999 FEW010/// 06/05 Q1008=
202011220420 METAR ESMX 220420Z AUTO 23010KT 9999 SCT011/// 06/05 Q1008=
202011220350 METAR ESMX 220350Z AUTO 23011KT 9999 FEW010/// 06/05 Q1008=
202011220320 METAR ESMX 220320Z AUTO 22010KT 9999 FEW006/// SCT009/// BKN014/// 06/06 Q1008=
202011220250 METAR ESMX 220250Z AUTO 21010KT 9999 FEW008/// BKN014/// BKN040/// 06/06 Q1008=
202011220220 METAR ESMX 220220Z AUTO 22008KT 9999 SCT013/// BKN043/// 06/05 Q1009=
202011220150 METAR ESMX 220150Z AUTO 21010KT 9999 FEW011/// SCT023/// 06/06 Q1009=
202011220120 METAR ESMX 220120Z AUTO 22008KT 9999 FEW009/// SCT019/// BKN035/// 06/06 Q1009 RESHUP REUP=
202011220050 METAR ESMX 220050Z AUTO 21009KT 9999 UP FEW011/// SCT014/// 06/06 Q1009=
202011220020 METAR ESMX 220020Z AUTO 21009KT 9999 BKN011/// BKN020/// 06/06 Q1009=
202011212350 METAR ESMX 212350Z AUTO 23008KT 9999 FEW012/// SCT016/// 06/06 Q1009=
202011212320 METAR ESMX 212320Z AUTO 21008KT 9999 SCT038/// 06/06 Q1009=
202011212250 METAR ESMX 212250Z AUTO 22009KT 9999 NCD 06/06 Q1009=
202011212220 METAR ESMX 212220Z AUTO 24007KT 9999 NCD 07/06 Q1009=
202011212150 METAR ESMX 212150Z AUTO 25008KT 9999 FEW019/// 07/06 Q1009=
202011212120 METAR ESMX 212120Z AUTO 25010KT 9999 FEW015/// SCT030/// 08/07 Q1009=
202011212050 METAR ESMX 212050Z AUTO 26012KT 9999 BKN017/// OVC026/// 08/07 Q1009=
202011212020 METAR ESMX 212020Z AUTO 25010G22KT 9999 BKN014/// BKN020/// OVC029/// 08/08 Q1009=
202011211950 METAR ESMX 211950Z AUTO 23009KT 9999 BKN047/// 08/08 Q1009=
202011211920 METAR ESMX 211920Z AUTO 24012KT 9999 -RA FEW007/// SCT020/// BKN029/// 08/08 Q1009=
202011211850 METAR ESMX 211850Z AUTO 21014KT 5000 -RA BKN005/// OVC020/// 08/08 Q1008 REDZ=
202011211820 METAR ESMX 211820Z AUTO 22015G25KT 7000 BR OVC004/// 07/07 Q1008=
202011211750 METAR ESMX 211750Z AUTO 21015KT 8000 -RA OVC004/// 07/07 Q1008 REDZ=
202011211720 METAR ESMX 211720Z AUTO 20016KT 7000 BR OVC004/// 06/06 Q1009=
202011211650 METAR ESMX 211650Z AUTO 20017KT 8000 DZ OVC004/// 06/06 Q1009 REDZ=
202011211620 METAR ESMX 211620Z AUTO 20016KT 7000 -RA OVC004/// 06/06 Q1010=
202011211550 METAR ESMX 211550Z AUTO 20016KT 3800 -DZ FEW002/// OVC004/// 06/06 Q1010 RESHUP REDZ=
202011211520 METAR ESMX 211520Z AUTO 19017KT 6000 BR OVC004/// 06/06 Q1011=
202011211450 METAR ESMX 211450Z AUTO 19017KT 6000 DZ OVC005/// 06/06 Q1011=
202011211420 METAR ESMX 211420Z AUTO 20016KT 2200 -RA OVC003/// 05/05 Q1012 RERA=
202011211350 METAR ESMX 211350Z AUTO 19018KT 3600 BR OVC002/// 05/05 Q1012=
202011211320 METAR ESMX 211320Z AUTO 19017KT 3600 -DZ OVC002/// 05/05 Q1013 REUP=
202011211250 METAR ESMX 211250Z AUTO 19017KT 5000 DZ OVC002/// 05/05 Q1013 REDZ REUP=
202011211220 METAR ESMX 211220Z AUTO 19017KT 9999 OVC004/// 05/05 Q1014 REDZ=
202011211150 METAR ESMX 211150Z AUTO 19016KT 4600 BR BKN002/// OVC004/// 04/04 Q1015 REDZ=
202011211120 METAR ESMX 211120Z AUTO 18017KT 2200 DZ OVC002/// 04/04 Q1015=
202011211050 METAR ESMX 211050Z AUTO 19016KT 1600 +DZ BKN002/// OVC004/// 04/04 Q1016=
202011211020 METAR ESMX 211020Z AUTO 18015KT 2900 -DZ BKN002/// OVC004/// 04/03 Q1017 REDZ=
202011210950 METAR ESMX 210950Z AUTO 19017KT 4000 BR FEW002/// OVC005/// 04/03 Q1017 REUP=
202011210920 METAR ESMX 210920Z AUTO 18017KT 9999 FEW009/// BKN015/// OVC020/// 04/02 Q1018=
202011210850 METAR ESMX 210850Z AUTO 17016KT 9999 OVC021/// 04/02 Q1018=
202011210820 METAR ESMX 210820Z AUTO 18016KT 9999 BKN026/// OVC039/// 04/02 Q1019=
202011210750 METAR ESMX 210750Z AUTO 17014KT 9999 -RA FEW023/// BKN049/// 03/03 Q1020 REDZ REUP=
202011210720 METAR ESMX 210720Z AUTO 18014KT 9999 BKN010/// BKN036/// OVC055/// 04/03 Q1020=
202011210650 METAR ESMX 210650Z AUTO 17011KT 9999 FEW008/// OVC046/// 03/03 Q1021=
202011210620 METAR ESMX 210620Z AUTO 18012KT 9999 BKN008/// BKN031/// OVC057/// 03/03 Q1021=
202011210550 METAR ESMX 210550Z AUTO 18012KT 8000 -RA BKN008/// OVC046/// 03/03 Q1022=
202011210520 METAR ESMX 210520Z AUTO 18012KT 9999 -DZ SCT030/// BKN040/// OVC051/// 03/02 Q1022 RERA=
202011210450 METAR ESMX 210450Z AUTO 18012KT 9999 FEW022/// BKN033/// OVC041/// 02/01 Q1023 RERA=
202011210420 METAR ESMX 210420Z AUTO 19010KT 9999 BKN026/// OVC039/// 02/01 Q1023 RESHUP=
202011210350 METAR ESMX 210350Z AUTO 20010KT 9999 SCT031/// BKN042/// 01/00 Q1023 REUP=
202011210320 METAR ESMX 210320Z AUTO 19010KT 9999 BKN036/// OVC130/// 01/00 Q1024=
202011210250 METAR ESMX 210250Z AUTO 18008KT 9999 OVC036/// 01/00 Q1024=
202011210220 METAR ESMX 210220Z AUTO 18008KT 9999 BKN040/// 00/M00 Q1024=
202011210150 METAR ESMX 210150Z AUTO 18009KT 9999 FEW040/// 00/M00 Q1025=
202011210120 METAR ESMX 210120Z AUTO 19009KT 9999 OVC040/// 01/M00 Q1025=
202011210050 METAR ESMX 210050Z AUTO 21008KT 9999 FEW031/// OVC042/// 00/M00 Q1026=
202011210020 METAR ESMX 210020Z AUTO 20006KT 9999 BKN031/// OVC043/// M01/M01 Q1026=
202011202350 METAR ESMX 202350Z AUTO 21005KT 9999 BKN043/// M01/M02 Q1026=
202011202320 METAR ESMX 202320Z AUTO 18004KT 9999 BKN042/// M02/M03 Q1026=
202011202250 METAR ESMX 202250Z AUTO 21005KT 9999 NCD M03/M03 Q1027=
202011202220 METAR ESMX 202220Z AUTO 23005KT 9999 NCD M03/M04 Q1027=
202011202150 METAR ESMX 202150Z AUTO 23006KT 9999 NCD M03/M04 Q1027=
202011202120 METAR ESMX 202120Z AUTO 23005KT 9999 NCD M03/M03 Q1027=
202011202050 METAR ESMX 202050Z AUTO 23002KT 9999 NCD M03/M03 Q1027=
202011202020 METAR ESMX 202020Z AUTO 23005KT 9999 NCD M03/M04 Q1027=
202011201950 METAR ESMX 201950Z AUTO 23006KT 9999 NCD M03/M04 Q1027=
202011201920 METAR ESMX 201920Z AUTO 23004KT 9999 NCD M04/M06 Q1027=
202011201850 METAR ESMX 201850Z AUTO 23003KT 9999 NCD M02/M04 Q1026=
202011201820 METAR ESMX 201820Z AUTO 23003KT 9999 NCD M02/M04 Q1026=
202011201750 METAR ESMX 201750Z AUTO 24004KT 9999 NCD M02/M04 Q1026=
202011201720 METAR ESMX 201720Z AUTO 23004KT 9999 NCD M01/M04 Q1026=
202011201650 METAR ESMX 201650Z AUTO 26005KT 230V290 9999 NCD M01/M04 Q1026=
202011201620 METAR ESMX 201620Z AUTO 25004KT 9999 NCD M02/M04 Q1026=
202011201550 METAR ESMX 201550Z AUTO 24004KT 9999 NCD M01/M05 Q1026=
202011201520 METAR ESMX 201520Z 26005KT CAVOK 01/M04 Q1025=
202011201450 METAR ESMX 201450Z 29005KT CAVOK 02/M04 Q1025=
202011201420 METAR ESMX 201420Z 29006KT CAVOK 03/M04 Q1024=
202011201350 METAR COR ESMX 201350Z 29006KT CAVOK 03/M04 Q1023=
202011201320 METAR ESMX 201320Z 27007KT CAVOK 04/M04 Q1023=
202011201250 METAR ESMX 201250Z 28008KT 260V330 CAVOK 04/M04 Q1022=
202011201220 METAR ESMX 201220Z 29009KT CAVOK 04/M04 Q1022=
202011201150 METAR COR ESMX 201150Z 29009KT CAVOK 04/M04 Q1022=
202011201120 METAR ESMX 201120Z 29009KT CAVOK 04/M03 Q1022=
202011201050 METAR ESMX 201050Z 29007KT CAVOK 04/M03 Q1021=
202011201020 METAR ESMX 201020Z 30008KT CAVOK 03/M02 Q1021=
202011200950 METAR ESMX 200950Z 29010KT CAVOK 03/M02 Q1021=
202011200920 METAR ESMX 200920Z 28007KT CAVOK 02/M01 Q1020=
202011200850 METAR ESMX 200850Z 26007KT 9999 FEW042 02/M01 Q1020=
202011200820 METAR ESMX 200820Z 26007KT 9999 FEW042 01/M01 Q1020=
202011200750 METAR ESMX 200750Z 27007KT 9999 FEW042 00/M02 Q1019=
202011200720 METAR ESMX 200720Z 26007KT 9999 FEW042 00/M02 Q1019=
202011200650 METAR ESMX 200650Z AUTO 27007KT 9999 SCT042/// M00/M03 Q1019=
202011200620 METAR ESMX 200620Z AUTO 25006KT 9999 SCT049/// M01/M03 Q1018=
202011200550 METAR ESMX 200550Z AUTO 26006KT 9999 FEW049/// M01/M04 Q1018=
202011200520 METAR ESMX 200520Z AUTO 24004KT 9999 NCD M01/M04 Q1017=
202011200450 METAR ESMX 200450Z AUTO 25006KT 9999 FEW098/// M01/M04 Q1017=
202011200420 METAR ESMX 200420Z AUTO 26008KT 9999 NCD M01/M04 Q1017=
202011200350 METAR ESMX 200350Z AUTO 26007KT 9999 NCD M01/M04 Q1016=
202011200320 METAR ESMX 200320Z AUTO 26008KT 9999 NCD M01/M04 Q1016=
202011200250 METAR ESMX 200250Z AUTO 28009KT 9999 NCD M01/M04 Q1016=
202011200220 METAR ESMX 200220Z AUTO 28007KT 9999 NCD M00/M04 Q1015=
202011200150 METAR ESMX 200150Z AUTO 29008KT 9999 NCD M00/M04 Q1015=
202011200120 METAR ESMX 200120Z AUTO 27006KT 230V300 9999 NCD M00/M04 Q1014=
202011200050 METAR ESMX 200050Z AUTO 28007KT 9999 NCD M00/M04 Q1014=
202011200020 METAR ESMX 200020Z AUTO 30009KT 9999 NCD 00/M04 Q1013=
202011192350 METAR ESMX 192350Z AUTO 29007KT 9999 NCD 00/M04 Q1012=
202011192320 METAR ESMX 192320Z AUTO 29008KT 9999 NCD 01/M03 Q1012=
202011192250 METAR ESMX 192250Z AUTO 26005KT 9999 NCD 01/M01 Q1011=
202011192220 METAR ESMX 192220Z AUTO 26007KT 9999 BKN098/// 01/M00 Q1010 RESHUP=
202011192150 METAR ESMX 192150Z AUTO 24007KT 9999 SCT140/// 01/M01 Q1009 REUP=
202011192120 METAR ESMX 192120Z AUTO 26009KT 9999 FEW072/// SCT098/// 01/M01 Q1009=
202011192050 METAR ESMX 192050Z AUTO 24009KT 9999 BKN066/// 01/M01 Q1008=
202011192020 METAR ESMX 192020Z AUTO 25009KT 9999 NCD 01/M01 Q1008=
202011191950 METAR ESMX 191950Z AUTO 25007KT 9999 NCD 00/M01 Q1007=
202011191920 METAR ESMX 191920Z AUTO 25008KT 9999 NCD 00/M01 Q1007=
202011191850 METAR ESMX 191850Z AUTO 24008KT 9999 NCD 00/M01 Q1006=
202011191820 METAR ESMX 191820Z AUTO 23008KT 9999 NCD 00/M01 Q1006=
202011191750 METAR ESMX 191750Z AUTO 25009KT 9999 NCD 01/M01 Q1005=
202011191720 METAR ESMX 191720Z AUTO 26010KT 9999 FEW094/// 01/M01 Q1005=
202011191650 METAR ESMX 191650Z AUTO 27008KT 9999 FEW082/// 01/M00 Q1004 REUP=
202011191620 METAR ESMX 191620Z AUTO 27007G17KT 240V300 9999 UP SCT042/// BKN057/// OVC072/// 02/M01 Q1004=
202011191550 METAR ESMX 191550Z AUTO 29009KT 9999 FEW020/// BKN057/// 01/00 Q1003=
202011191520 METAR ESMX 191520Z 30013KT 9999 SCT014 02/01 Q1002=
202011191450 METAR ESMX 191450Z 30009KT 9999 FEW017 03/02 Q1001=
202011191420 METAR ESMX 191420Z AUTO 31012KT 9999 FEW012/// BKN019/// BKN028/// 04/03 Q1000 RESHUP RERA=
202011191350 METAR ESMX 191350Z 28012KT 9999 FEW014 SCT021 BKN033 05/04 Q0998 RESHRA RERA=
202011191320 METAR ESMX 191320Z 24012KT 9999 FEW016 SCT032 06/05 Q0998=
202011191250 METAR ESMX 191250Z 25011KT 220V280 9999 SCT013 BKN040 06/05 Q0997=
202011191220 METAR ESMX 191220Z 23014G26KT 200V270 6000 -RA SCT019 BKN029 07/06 Q0997 RESHRA=
202011191150 METAR ESMX 191150Z 21015KT 9999 DZ FEW011 BKN014 BKN027 07/07 Q0996=
202011191120 METAR ESMX 191120Z 20018KT 9999 -RA BKN015 BKN026 BKN036 07/06 Q0996=
202011191050 METAR ESMX 191050Z 21016KT 8000 DZ SCT014 BKN021 BKN034 07/06 Q0997=
202011191020 METAR ESMX 191020Z 20019G29KT 8000 -RA BKN023 07/06 Q0997=
202011190950 METAR ESMX 190950Z 20017KT 9999 -DZ BKN021 BKN033 08/06 Q0997 REDZ=
202011190920 METAR ESMX 190920Z 21017G28KT 9999 SCT023 BKN032 BKN044 08/06 Q0998=
202011190850 METAR ESMX 190850Z 21017G27KT 9999 SCT023 BKN038 07/05 Q0998=
202011190820 METAR ESMX 190820Z 22016G27KT 9999 SCT023 BKN034 08/05 Q0998=
202011190750 METAR ESMX 190750Z 21016KT 9999 FEW022 SCT027 BKN043 07/06 Q0998=
202011190720 METAR ESMX 190720Z AUTO 22013KT 9999 FEW018/// SCT023/// 07/06 Q0998=
202011190650 METAR ESMX 190650Z 21014KT 9999 FEW014 SCT023 BKN041 07/06 Q0998=
202011190620 METAR ESMX 190620Z 22011KT 9999 SCT016 BKN026 07/06 Q0998=
202011190550 METAR ESMX 190550Z AUTO 21014KT 190V250 9999 OVC014/// 08/07 Q0998=
202011190520 METAR ESMX 190520Z AUTO 21012KT 9999 FEW016/// SCT048/// OVC070/// 08/07 Q0998=
202011190450 METAR ESMX 190450Z AUTO 23015KT 9999 FEW022/// OVC046/// 08/07 Q0998 REDZ=
202011190420 METAR ESMX 190420Z AUTO 21017G27KT 4200 RA SCT002/// OVC004/// 10/10 Q0998 REDZ=
202011190350 METAR ESMX 190350Z AUTO 19016KT 4200 DZ FEW002/// OVC004/// 10/10 Q0998=
202011190320 METAR ESMX 190320Z AUTO 19018KT 2600 -DZ BKN002/// OVC004/// 10/10 Q0998 RERA=
202011190250 METAR ESMX 190250Z AUTO 19017KT 4100 BR FEW002/// OVC004/// 09/09 Q0999=
202011190220 METAR ESMX 190220Z AUTO 18016KT 3800 -DZ OVC005/// 09/09 Q0999=
202011190150 METAR ESMX 190150Z AUTO 18015KT 6000 -RA BKN006/// OVC009/// 09/09 Q1000=
202011190120 METAR ESMX 190120Z AUTO 18015KT 9000 -RA BKN009/// OVC010/// 09/09 Q1001=
202011190050 METAR ESMX 190050Z AUTO 19015KT 9999 -RA OVC009/// 09/09 Q1002=
202011190020 METAR ESMX 190020Z AUTO 19016KT 9999 -DZ OVC010/// 09/08 Q1002=
202011182350 METAR ESMX 182350Z AUTO 18015KT 9999 BKN010/// OVC016/// 09/08 Q1003=
202011182320 METAR ESMX 182320Z AUTO 19017KT 9999 OVC010/// 09/08 Q1004=
202011182250 METAR ESMX 182250Z AUTO 19017KT 9999 BKN010/// OVC013/// 09/08 Q1005=
202011182220 METAR ESMX 182220Z AUTO 18016KT 9999 OVC011/// 09/08 Q1005=
202011182150 METAR ESMX 182150Z AUTO 19018KT 9999 OVC012/// 09/08 Q1006=
202011182120 METAR ESMX 182120Z AUTO 19020KT 9999 OVC013/// 09/08 Q1007=
202011182050 METAR ESMX 182050Z AUTO 19018KT 9999 OVC012/// 09/08 Q1007=
202011182020 METAR ESMX 182020Z AUTO 20016KT 9999 OVC011/// 09/08 Q1008=
202011181950 METAR ESMX 181950Z AUTO 19018KT 9999 BKN014/// OVC017/// 09/08 Q1009=
202011181920 METAR ESMX 181920Z AUTO 19016KT 9999 BKN011/// BKN014/// OVC023/// 10/08 Q1009=
202011181850 METAR ESMX 181850Z AUTO 20015KT 9999 BKN012/// OVC018/// 10/09 Q1010=
202011181820 METAR ESMX 181820Z AUTO 19015KT 9999 BKN010/// BKN013/// OVC025/// 10/09 Q1011=
202011181750 METAR ESMX 181750Z AUTO 19014KT 9999 SCT011/// BKN014/// OVC023/// 10/10 Q1011=
202011181720 METAR ESMX 181720Z AUTO 22013KT 9999 FEW005/// SCT008/// BKN011/// 10/10 Q1011 REDZ=
202011181650 METAR ESMX 181650Z AUTO 20013KT 9999 SCT006/// BKN009/// OVC013/// 10/10 Q1012 REDZ=
202011181620 METAR ESMX 181620Z AUTO 22013KT 8000 BR FEW005/// BKN007/// OVC013/// 11/10 Q1012=
202011181550 METAR ESMX 181550Z AUTO 21012KT 3800 DZ SCT005/// BKN006/// BKN008/// 11/11 Q1012 REDZ=
202011181520 METAR ESMX 181520Z 21014KT 7000 -DZ BKN006 11/11 Q1012=
202011181450 METAR ESMX 181450Z 20014KT 9000 BKN006 11/11 Q1013=
202011181420 METAR ESMX 181420Z 20013KT 6000 -RA BKN006 11/11 Q1013=
202011181350 METAR ESMX 181350Z 20014KT 4500 -DZ BKN006 12/12 Q1013=
202011181320 METAR ESMX 181320Z 20012KT 4000 DZ BKN005 12/12 Q1014=
202011181250 METAR ESMX 181250Z 22011KT 5000 -DZ BKN004 12/12 Q1014=
202011181220 METAR ESMX 181220Z 20012KT 4000 -DZ BKN004 12/12 Q1014=
202011181150 METAR ESMX 181150Z 21010KT 5000 DZ BKN005 12/12 Q1015=
202011181120 METAR ESMX 181120Z 21011KT 7000 -RA BKN005 12/12 Q1015=
202011181050 METAR ESMX 181050Z 23011KT 9000 BKN005 12/12 Q1015=
202011181020 METAR ESMX 181020Z 21012KT 7000 -DZ BKN006 12/12 Q1015=
202011180950 METAR COR ESMX 180950Z 21011KT 9999 BKN005 12/12 Q1015=
202011180920 METAR ESMX 180920Z 22010KT 9999 BKN006 12/12 Q1015=
202011180850 METAR ESMX 180850Z AUTO 23010KT 9999 BKN007/// OVC009/// 12/12 Q1015=
202011180820 METAR ESMX 180820Z 23011KT 6000 -DZ BKN004 12/12 Q1015=
202011180750 METAR ESMX 180750Z 22011KT 6000 -DZ BR BKN006 12/12 Q1015=
202011180720 METAR ESMX 180720Z 23010KT 6000 -DZ BKN005 12/12 Q1014=
202011180650 METAR ESMX 180650Z AUTO 22011KT 4900 -DZ FEW002/// OVC004/// 12/12 Q1014 REDZ=
202011180620 METAR ESMX 180620Z AUTO 22010KT 3400 BR OVC004/// 11/11 Q1014=
202011180550 METAR ESMX 180550Z AUTO 22010KT 5000 BR OVC003/// 11/11 Q1014=
202011180520 METAR ESMX 180520Z AUTO 23011KT 6000 BR OVC003/// 11/11 Q1014 REUP=
202011180450 METAR ESMX 180450Z AUTO 23010KT 2800 BR SCT002/// OVC004/// 11/11 Q1014 RESHUP=
202011180420 METAR ESMX 180420Z AUTO 23010KT 3500 BR BKN002/// OVC004/// 11/11 Q1014 REDZ=
202011180350 METAR ESMX 180350Z AUTO 23011KT 3200 BR BKN002/// OVC004/// 11/11 Q1014=
202011180320 METAR ESMX 180320Z AUTO 23010KT 4600 BR FEW002/// OVC004/// 11/11 Q1014=
202011180250 METAR ESMX 180250Z AUTO 23010KT 3000 -DZ VV010 11/11 Q1014=
202011180220 METAR ESMX 180220Z AUTO 22013KT 3500 DZ OVC004/// 11/11 Q1013=
202011180150 METAR ESMX 180150Z AUTO 23012KT 3700 -DZ OVC005/// 11/11 Q1013 REDZ=
202011180120 METAR ESMX 180120Z AUTO 22012KT 5000 BR OVC005/// 11/11 Q1013=
202011180050 METAR ESMX 180050Z AUTO 23010KT 3400 -DZ BKN005/// BKN007/// OVC009/// 11/11 Q1013=
202011180020 METAR ESMX 180020Z AUTO 22012KT 3400 DZ OVC004/// 11/11 Q1013 REDZ=
202011172350 METAR ESMX 172350Z AUTO 22014KT 5000 BR OVC005/// 11/11 Q1013=
202011172320 METAR ESMX 172320Z AUTO 21013KT 4100 -DZ OVC005/// 11/11 Q1013=
202011172250 METAR ESMX 172250Z AUTO 21014KT 3500 -DZ FEW002/// OVC004/// 11/11 Q1012=
202011172220 METAR ESMX 172220Z AUTO 22013KT 3600 -DZ OVC005/// 11/11 Q1013 RERA=
202011172150 METAR ESMX 172150Z AUTO 21012KT 7000 BR OVC005/// 11/11 Q1012=
202011172120 METAR ESMX 172120Z AUTO 22012KT 4200 -DZ OVC005/// 11/11 Q1012=
202011172050 METAR ESMX 172050Z AUTO 22013KT 8000 BR FEW002/// OVC005/// 11/11 Q1012=
202011172020 METAR ESMX 172020Z AUTO 23013KT 200V260 3600 BR BKN002/// OVC004/// 11/11 Q1012=
202011171950 METAR ESMX 171950Z AUTO 21012KT 9999 OVC003/// 11/11 Q1012=
202011171920 METAR ESMX 171920Z AUTO 22011KT 9000 BR OVC003/// 11/11 Q1011=
202011171850 METAR ESMX 171850Z AUTO 20012KT 5000 BR OVC002/// 10/10 Q1011=
202011171820 METAR ESMX 171820Z AUTO 22012KT 9999 BR OVC003/// 10/10 Q1012=
202011171750 METAR ESMX 171750Z AUTO 20013KT 7000 BR OVC003/// 10/10 Q1011 REDZ=
202011171720 METAR ESMX 171720Z AUTO 20012KT 6000 BR OVC004/// 10/10 Q1012=
202011171650 METAR ESMX 171650Z AUTO 19012KT 9999 -DZ BKN005/// OVC009/// 09/09 Q1012=
202011171620 METAR ESMX 171620Z AUTO 19012KT 9999 DZ OVC005/// 09/09 Q1012 REDZ=
202011171550 METAR ESMX 171550Z AUTO 18012KT 9999 OVC005/// 09/09 Q1012=
202011171520 METAR ESMX 171520Z 18011KT 6000 RA BKN005 09/09 Q1012=
202011171450 METAR ESMX 171450Z 17010KT 5000 RA BKN005 09/09 Q1012=
202011171420 METAR COR ESMX 171420Z 18010KT 8000 -RA BKN005 09/09 Q1013=
202011171350 METAR ESMX 171350Z 17011KT 6000 -RA BKN006 09/08 Q1013=
202011171320 METAR ESMX 171320Z 18010KT 9999 BKN010 09/08 Q1013=
202011171250 METAR ESMX 171250Z 18009KT 9999 -RA BKN011 09/08 Q1013=
202011171220 METAR ESMX 171220Z 18010KT 9999 -DZ BKN011 09/08 Q1014=
202011171150 METAR ESMX 171150Z 18010KT 9999 BKN010 09/08 Q1014=
202011171120 METAR ESMX 171120Z 18010KT 9999 BKN009 09/08 Q1014=
202011171050 METAR ESMX 171050Z 19009KT 9999 BKN009 09/08 Q1014=
202011171020 METAR ESMX 171020Z 20009KT 9999 BKN009 09/08 Q1014=
202011170950 METAR ESMX 170950Z 22009KT 9999 BKN008 09/08 Q1014=
202011170920 METAR ESMX 170920Z 20009KT 9999 BKN008 08/08 Q1014=
202011170850 METAR ESMX 170850Z 20008KT 170V240 9999 BKN007 08/08 Q1014=
202011170820 METAR ESMX 170820Z 20009KT 9999 BKN007 08/08 Q1014=
202011170750 METAR ESMX 170750Z 22009KT 9999 BKN007 08/08 Q1014=
202011170720 METAR ESMX 170720Z 22006KT 9999 BKN010 08/08 Q1013=
202011170650 METAR ESMX 170650Z AUTO 22007KT 9999 FEW008/// SCT012/// BKN120/// 08/08 Q1013=
202011170620 METAR ESMX 170620Z AUTO 22007KT 9999 BKN010/// BKN029/// OVC041/// 08/08 Q1013 RESHUP REDZ=
202011170550 METAR ESMX 170550Z AUTO 22008KT 9000 BR SCT010/// BKN031/// 08/08 Q1013=
202011170520 METAR ESMX 170520Z AUTO 24008KT 9999 FEW007/// SCT018/// BKN029/// 08/08 Q1013=
202011170450 METAR ESMX 170450Z AUTO 23010KT 3300 DZ FEW002/// SCT005/// BKN007/// 09/09 Q1012 REDZ=
202011170420 METAR ESMX 170420Z AUTO 22008KT 9999 BKN005/// BKN013/// OVC024/// 09/09 Q1012 RESHUP REDZ=
202011170350 METAR ESMX 170350Z AUTO 20007KT 9999 OVC006/// 09/09 Q1012=
202011170320 METAR ESMX 170320Z AUTO 21007KT 9999 OVC005/// 09/09 Q1012 REDZ=
202011170250 METAR ESMX 170250Z AUTO 22006KT 9999 BKN006/// OVC009/// 09/09 Q1012=
202011170220 METAR ESMX 170220Z AUTO 22007KT 9999 BKN006/// BKN009/// OVC011/// 09/09 Q1012=
202011170150 METAR ESMX 170150Z AUTO 19006KT 9999 BKN006/// OVC012/// 09/09 Q1012=
202011170120 METAR ESMX 170120Z AUTO 19006KT 5000 BR FEW002/// BKN005/// OVC014/// 09/09 Q1012 REDZ=
202011170050 METAR ESMX 170050Z AUTO 22006KT 9000 BR BKN005/// OVC007/// 09/09 Q1011=
202011170020 METAR ESMX 170020Z AUTO 21009KT 9999 OVC004/// 09/09 Q1011=
202011162350 METAR ESMX 162350Z AUTO 19009KT 4000 DZ OVC004/// 09/09 Q1011=
202011162320 METAR ESMX 162320Z AUTO 18009KT 3200 +DZ FEW002/// BKN005/// OVC009/// 09/09 Q1011 REDZ=
202011162250 METAR ESMX 162250Z AUTO 19009KT 8000 DZ FEW001/// OVC005/// 09/09 Q1011 REUP REDZ=
202011162220 METAR ESMX 162220Z AUTO 18008KT 9999 OVC006/// 09/09 Q1010=
202011162150 METAR ESMX 162150Z AUTO 18009KT 9999 OVC006/// 09/09 Q1010=
202011162120 METAR ESMX 162120Z AUTO 19010KT 9999 BKN006/// OVC008/// 09/09 Q1010=
202011162050 METAR ESMX 162050Z AUTO 19010KT 6000 BR FEW002/// BKN006/// OVC013/// 09/09 Q1010 REDZ=
202011162020 METAR ESMX 162020Z AUTO 19010KT 9999 SCT005/// BKN009/// BKN025/// 09/09 Q1010 RESHUP=
202011161950 METAR ESMX 161950Z AUTO 18009KT 9999 OVC006/// 09/09 Q1009 REUP RESHUP=
202011161920 METAR ESMX 161920Z AUTO 18009KT 7000 BR FEW002/// OVC006/// 09/09 Q1009 RESHUP REDZ=
202011161850 METAR ESMX 161850Z AUTO 18010KT 9999 BKN008/// OVC009/// 09/09 Q1009=
202011161820 METAR ESMX 161820Z AUTO 18010KT 8000 -RA BKN007/// OVC010/// 09/08 Q1009 REUP=
202011161750 METAR ESMX 161750Z AUTO 19010KT 9999 OVC007/// 09/08 Q1009=
202011161720 METAR ESMX 161720Z AUTO 18010KT 9999 BKN007/// OVC016/// 09/08 Q1008=
202011161650 METAR ESMX 161650Z AUTO 19011KT 9999 BKN006/// OVC033/// 09/08 Q1008=
202011161620 METAR ESMX 161620Z AUTO 17009KT 5000 -DZ SCT002/// BKN005/// OVC008/// 09/08 Q1008 REDZ=
202011161550 METAR ESMX 161550Z AUTO 16010KT 9999 FEW005/// BKN009/// OVC010/// 09/08 Q1007=
202011161520 METAR ESMX 161520Z AUTO 17010KT 9999 BKN012/// OVC018/// 09/08 Q1007=
202011161450 METAR ESMX 161450Z 18009KT 9999 BKN014 BKN027 09/07 Q1007=
202011161420 METAR ESMX 161420Z 17010KT 9999 FEW005 BKN014 BKN021 09/08 Q1007=
202011161350 METAR ESMX 161350Z 18010KT 9999 FEW006 BKN017 09/07 Q1006=
202011161320 METAR ESMX 161320Z 18012KT 9999 BKN018 09/07 Q1006=
202011161250 METAR ESMX 161250Z 17011KT 9999 BKN021 BKN042 10/07 Q1006=
202011161220 METAR ESMX 161220Z 18011KT 9999 SCT016 10/07 Q1005=
202011161150 METAR ESMX 161150Z 18012KT 9999 BKN015 OVC160 09/08 Q1005=
202011161120 METAR ESMX 161120Z 17012KT 9999 BKN013 BKN017 09/08 Q1005=
202011161050 METAR ESMX 161050Z 16009KT 9999 BKN013 BKN018 09/08 Q1005=
202011161020 METAR ESMX 161020Z 17009KT 9999 BKN011 BKN026 09/08 Q1005=
202011160950 METAR ESMX 160950Z 18010KT 9999 BKN010 BKN027 09/08 Q1005=
202011160920 METAR ESMX 160920Z 17010KT 9999 SCT011 BKN021 09/08 Q1005=
202011160850 METAR ESMX 160850Z 17009KT 9999 BKN008 BKN028 09/09 Q1005=
202011160820 METAR ESMX 160820Z 16008KT 9999 BKN009 BKN016 09/09 Q1005=
202011160750 METAR ESMX 160750Z 16010KT 9999 FEW008 BKN024 09/09 Q1004=
202011160720 METAR ESMX 160720Z 18009KT 9999 BKN007 09/09 Q1004 REDZ=
202011160650 METAR ESMX 160650Z AUTO 15008KT 9999 BKN006/// BKN022/// 09/09 Q1004=
202011160620 METAR ESMX 160620Z AUTO 15009KT 9999 FEW028/// SCT062/// 09/09 Q1003 REDZ=
202011160550 METAR ESMX 160550Z AUTO 14007KT 100V170 9999 -DZ FEW009/// BKN047/// OVC059/// 09/09 Q1003=
202011160520 METAR ESMX 160520Z AUTO 15009KT 9999 BKN009/// OVC044/// 09/08 Q1003=
202011160450 METAR ESMX 160450Z AUTO 16010KT 120V190 9999 OVC010/// 09/08 Q1003=
202011160420 METAR ESMX 160420Z AUTO 16010KT 130V190 9999 BKN010/// OVC013/// 09/08 Q1003=
202011160350 METAR ESMX 160350Z AUTO 16010KT 9999 BKN009/// OVC019/// 09/08 Q1003=
202011160320 METAR ESMX 160320Z AUTO 17011KT 9999 OVC009/// 09/08 Q1003=
202011160250 METAR ESMX 160250Z AUTO 15010KT 9999 OVC008/// 09/09 Q1003=
202011160220 METAR ESMX 160220Z AUTO 15010KT 9999 BKN009/// OVC012/// 09/09 Q1003=
202011160150 METAR ESMX 160150Z AUTO 14011KT 9999 BKN008/// OVC010/// 09/09 Q1003=
202011160120 METAR ESMX 160120Z AUTO 14010KT 100V160 9999 BKN008/// BKN009/// 09/09 Q1003=
202011160050 METAR ESMX 160050Z AUTO 14010KT 9999 FEW007/// 09/09 Q1004=
202011160020 METAR ESMX 160020Z AUTO 14010KT 110V180 9999 FEW008/// 09/09 Q1004=
202011152350 METAR ESMX 152350Z AUTO 14010KT 110V170 9999 BKN007/// 10/09 Q1004=
202011152320 METAR ESMX 152320Z AUTO 14009KT 9999 OVC007/// 10/09 Q1004=
202011152250 METAR ESMX 152250Z AUTO 14008KT 7000 BR BKN007/// BKN008/// 10/09 Q1005=
202011152220 METAR ESMX 152220Z AUTO 14007KT 7000 BR OVC006/// 09/09 Q1005=
202011152150 METAR ESMX 152150Z AUTO 13008KT 090V170 7000 BR OVC006/// 10/09 Q1006=
202011152120 METAR ESMX 152120Z AUTO 13007KT 080V160 7000 BR OVC006/// 09/09 Q1006=
202011152050 METAR ESMX 152050Z AUTO 13006KT 080V160 8000 BR OVC006/// 10/09 Q1006=
202011152020 METAR ESMX 152020Z AUTO 15008KT 120V190 8000 BR OVC006/// 10/09 Q1007=
202011151950 METAR ESMX 151950Z AUTO 14007KT 100V170 7000 BR OVC005/// 10/09 Q1007=
202011151920 METAR ESMX 151920Z AUTO 14007KT 100V170 6000 BR OVC005/// 10/10 Q1007=
202011151850 METAR ESMX 151850Z AUTO 15008KT 100V200 5000 BR OVC004/// 10/09 Q1007=
202011151820 METAR ESMX 151820Z AUTO 13008KT 080V160 6000 BR OVC004/// 10/10 Q1007=
202011151750 METAR ESMX 151750Z AUTO 13009KT 100V170 5000 BR OVC004/// 10/10 Q1007 REDZ=
202011151720 METAR ESMX 151720Z AUTO 13008KT 100V170 4900 BR OVC004/// 10/10 Q1008=
202011151650 METAR ESMX 151650Z AUTO 13006KT 080V170 5000 BR OVC005/// 10/10 Q1008 RERA=
202011151620 METAR ESMX 151620Z AUTO 14006KT 6000 BR OVC006/// 10/10 Q1009 REDZ=
202011151550 METAR ESMX 151550Z AUTO 15006KT 8000 -RA OVC006/// 10/10 Q1009=
202011151520 METAR ESMX 151520Z AUTO 15006KT 100V170 8000 BR OVC006/// 10/10 Q1009=
202011151450 METAR ESMX 151450Z AUTO 16007KT 9000 BR OVC006/// 10/10 Q1009=
202011151420 METAR ESMX 151420Z AUTO 16007KT 8000 BR OVC006/// 10/10 Q1009=
202011151350 METAR ESMX 151350Z AUTO 15007KT 8000 BR OVC007/// 11/10 Q1009=
202011151320 METAR ESMX 151320Z AUTO 15008KT 110V190 8000 BR OVC006/// 11/10 Q1009=
202011151250 METAR ESMX 151250Z AUTO 14008KT 6000 BR OVC006/// 11/10 Q1009=
202011151220 METAR ESMX 151220Z AUTO 14007KT 080V170 6000 BR BKN006/// OVC008/// 11/10 Q1009=
202011151150 METAR ESMX 151150Z AUTO 16006KT 5000 BR OVC005/// 11/10 Q1010=
202011151120 METAR ESMX 151120Z AUTO 15007KT 110V170 5000 BR OVC005/// 11/10 Q1010=
202011151050 METAR ESMX 151050Z AUTO 15007KT 120V190 4500 BR OVC005/// 11/10 Q1010=
202011151020 METAR ESMX 151020Z AUTO 15007KT 4100 BR OVC004/// 11/10 Q1011=
202011150950 METAR ESMX 150950Z AUTO 17007KT 3600 BR OVC004/// 10/10 Q1011=
202011150920 METAR ESMX 150920Z AUTO 15009KT 3300 BR OVC004/// 10/10 Q1011=
202011150850 METAR ESMX 150850Z AUTO 16008KT 3400 OVC003/// 10/10 Q1011=
202011150820 METAR ESMX 150820Z AUTO 17009KT 2700 OVC002/// 10/10 Q1011=
202011150750 METAR ESMX 150750Z AUTO 17009KT 140V200 0900 R01/1500N R19/1500U FG OVC001/// 10/10 Q1011=
202011150720 METAR ESMX 150720Z AUTO 17008KT 0400 R01/0900N R19/1100U FG OVC001/// 10/10 Q1011=
202011150650 METAR ESMX 150650Z AUTO 16007KT 120V190 0250 R01/0700N R19/0800N FG OVC001/// 10/10 Q1011=
202011150620 METAR ESMX 150620Z AUTO 13006KT 100V160 0300 R01/0800N R19/1000N FG OVC001/// 09/09 Q1011=
202011150550 METAR ESMX 150550Z AUTO 15006KT 0550 R01/1500D R19/P2000D FG OVC001/// 09/09 Q1011 REUP=
202011150520 METAR ESMX 150520Z AUTO 15007KT 0900 R01/P2000N R19/P2000N FG OVC001/// 09/09 Q1011=
202011150450 METAR ESMX 150450Z AUTO 13006KT 100V160 0550 R01/1400N R19/1600N FG OVC001/// 08/08 Q1012=
202011150420 METAR ESMX 150420Z AUTO 14006KT 1200 R01/P2000N R19/P2000N BR OVC001/// 08/08 Q1012=
202011150350 METAR ESMX 150350Z AUTO 13005KT 100V160 1100 R01/P2000N R19/P2000N OVC001/// 07/07 Q1012 RESHUP=
202011150320 METAR ESMX 150320Z AUTO 14006KT 1300 R01/P2000N R19/P2000N OVC001/// 07/07 Q1012 REUP=
202011150250 METAR ESMX 150250Z AUTO 14006KT 100V160 0800 R01/P2000N R19/P2000N FG OVC001/// 06/06 Q1012=
202011150220 METAR ESMX 150220Z AUTO 14004KT 120V190 0550 R01/1400U R19/1700U FG OVC001/// 06/06 Q1013=
202011150150 METAR ESMX 150150Z AUTO 13004KT 0900 R01/P2000N R19/P2000N FG OVC001/// 06/06 Q1013=
202011150120 METAR ESMX 150120Z AUTO 13004KT 090V160 0750 R01/1800U R19/P2000N FG OVC001/// 05/05 Q1013=
202011150050 METAR ESMX 150050Z AUTO 15003KT 0650 R01/1600N R19/P2000N FG OVC001/// 05/05 Q1014=
202011150020 METAR ESMX 150020Z AUTO 14004KT 0400 R01/1100D R19/1500N FG BKN001/// OVC002/// 05/05 Q1014=
202011142350 METAR ESMX 142350Z AUTO 14003KT 0250 R01/0800N R19/0800N FG OVC001/// 04/04 Q1014=
202011142320 METAR ESMX 142320Z AUTO VRB02KT 0150 R01/0600N R19/0600N FG VV002 04/04 Q1014=
202011142250 METAR ESMX 142250Z AUTO 13003KT 0150 R01/0600N R19/0600N FG VV001 04/04 Q1014=
202011142220 METAR ESMX 142220Z AUTO 21003KT 0100 R01/0500N R19/0450N FG VV001 04/04 Q1015=
202011142150 METAR ESMX 142150Z AUTO 21001KT 0250 R01/0750N R19/0800D FG OVC001/// 04/04 Q1015=
202011142120 METAR ESMX 142120Z AUTO 00000KT 0200 R01/0650N R19/0700U FG VV002 04/04 Q1015=
202011142050 METAR ESMX 142050Z AUTO 00000KT 0150 R01/0600N R19/0600N FG VV001 03/03 Q1015=
202011142020 METAR ESMX 142020Z AUTO 00000KT 0100 R01/0450N R19/0450N FG VV001 03/03 Q1015=
202011141950 METAR ESMX 141950Z AUTO 21002KT 0100 R01/0600N R19/0400N FG VV002 02/02 Q1015=
202011141920 METAR ESMX 141920Z AUTO 21002KT 0100 R01/0500N R19/0450N FG VV002 02/02 Q1015=
202011141850 METAR ESMX 141850Z AUTO 21002KT 0150 R01/0700N R19/0650N FG VV001 02/02 Q1015=
202011141820 METAR ESMX 141820Z AUTO 19002KT 0150 R01/0500N R19/0600N FG VV000 02/02 Q1015=
202011141750 METAR ESMX 141750Z AUTO 15002KT 0200 R01/0650U R19/0800N FG NCD 03/03 Q1015=
202011141720 METAR ESMX 141720Z AUTO 00000KT 0250 R01/1000U R19/0650N FG NCD 02/02 Q1015=
202011141650 METAR ESMX 141650Z AUTO 21002KT 0250 R01/0750N R19/0750N FG NCD 03/03 Q1015=
202011141620 METAR ESMX 141620Z AUTO 21002KT 0150 R01/0650N R19/0600N FG NCD 04/04 Q1015=
202011141550 METAR ESMX 141550Z AUTO 21003KT 0200 R01/P2000N R19/0700N BCFG NCD 05/05 Q1015=
202011141520 METAR ESMX 141520Z AUTO 21003KT 0250 R01/P2000N R19/0700U BR NCD 06/06 Q1015=
202011141450 METAR ESMX 141450Z AUTO 21003KT 9000 FEW011/// SCT015/// 06/06 Q1015=
202011141420 METAR ESMX 141420Z AUTO 18002KT 1900 BR BKN014/// 07/06 Q1015=
202011141350 METAR ESMX 141350Z AUTO 21003KT 9999 SCT019/// 08/08 Q1015=
202011141320 METAR ESMX 141320Z 21003KT 9999 FEW011 SCT020 09/08 Q1015=
202011141250 METAR ESMX 141250Z VRB02KT 9999 FEW011 SCT020 09/07 Q1014=
202011141220 METAR ESMX 141220Z 22004KT 9999 SCT020 09/08 Q1014=
202011141150 METAR ESMX 141150Z 22004KT 9999 BKN022 09/08 Q1015=
202011141120 METAR ESMX 141120Z 23005KT 9999 BKN016 08/07 Q1015=
202011141050 METAR ESMX 141050Z AUTO 22006KT 9999 SCT010/// OVC015/// 09/08 Q1014=
202011141020 METAR ESMX 141020Z AUTO 20004KT 9999 FEW005/// BKN016/// OVC019/// 09/08 Q1014=
202011140950 METAR ESMX 140950Z AUTO 22006KT 9999 FEW005/// OVC015/// 09/09 Q1014=
202011140920 METAR ESMX 140920Z AUTO 22006KT 9000 OVC003/// 08/08 Q1014=
202011140850 METAR ESMX 140850Z AUTO 19007KT 8000 BR OVC002/// 08/08 Q1014=
202011140820 METAR ESMX 140820Z AUTO 19006KT 7000 BR OVC002/// 08/08 Q1014=
202011140750 METAR ESMX 140750Z AUTO 16006KT 3400 BR OVC002/// 08/08 Q1014 REDZ=
202011140720 METAR ESMX 140720Z AUTO 16006KT 6000 BR BKN003/// OVC007/// 08/08 Q1014=
202011140650 METAR ESMX 140650Z AUTO 16004KT 5000 -RA SCT004/// BKN012/// BKN016/// 07/07 Q1014 REDZ=
202011140620 METAR ESMX 140620Z AUTO 14005KT 4200 DZ VV011 07/07 Q1014 RESHRA=
202011140550 METAR ESMX 140550Z AUTO 19005KT 3100 RA OVC002/// 07/07 Q1014=
202011140520 METAR ESMX 140520Z AUTO 15006KT 3700 -DZ OVC003/// 07/07 Q1013=
202011140450 METAR ESMX 140450Z AUTO 16006KT 120V180 5000 -RA OVC003/// 07/07 Q1014 REDZ REUP=
202011140420 METAR ESMX 140420Z AUTO 15007KT 5000 BR OVC003/// 07/07 Q1014=
202011140350 METAR ESMX 140350Z AUTO 14006KT 5000 BR OVC003/// 07/07 Q1014=
202011140320 METAR ESMX 140320Z AUTO 16005KT 6000 BR OVC003/// 07/07 Q1014=
202011140250 METAR ESMX 140250Z AUTO 17006KT 5000 BR OVC003/// 07/07 Q1014=
202011140220 METAR ESMX 140220Z AUTO 14006KT 5000 BR BKN004/// OVC032/// 07/07 Q1014=
202011140150 METAR ESMX 140150Z AUTO 15006KT 5000 BR BKN004/// OVC032/// 07/07 Q1014=
202011140120 METAR ESMX 140120Z AUTO 17005KT 6000 BR BKN004/// OVC012/// 07/07 Q1014=
202011140050 METAR ESMX 140050Z AUTO 17006KT 150V210 5000 BR OVC003/// 07/07 Q1015=
202011140020 METAR ESMX 140020Z AUTO 18005KT 4200 BR SCT004/// BKN039/// OVC086/// 07/07 Q1015=
202011132350 METAR ESMX 132350Z AUTO 16004KT 120V180 6000 BR FEW007/// BKN092/// BKN140/// 07/07 Q1015=
202011132320 METAR ESMX 132320Z AUTO 16005KT 8000 BR SCT004/// OVC011/// 07/07 Q1015=
202011132250 METAR ESMX 132250Z AUTO 16006KT 5000 BR OVC003/// 07/07 Q1015=
202011132220 METAR ESMX 132220Z AUTO 16005KT 2700 BR OVC002/// 07/07 Q1015=
202011132150 METAR ESMX 132150Z AUTO 15005KT 4300 BR OVC003/// 07/07 Q1015=
202011132120 METAR ESMX 132120Z AUTO 14005KT 4400 BR OVC004/// 06/06 Q1015=
202011132050 METAR ESMX 132050Z AUTO 15006KT 5000 BR OVC004/// 06/06 Q1015 REDZ=
202011132020 METAR ESMX 132020Z AUTO 15005KT 7000 BR OVC005/// 06/06 Q1015=
202011131950 METAR ESMX 131950Z AUTO 15005KT 5000 BR FEW002/// BKN006/// OVC009/// 06/06 Q1015 REDZ REUP=
202011131920 METAR ESMX 131920Z AUTO 14005KT 9000 BR SCT010/// BKN017/// BKN040/// 06/06 Q1015=
202011131850 METAR ESMX 131850Z AUTO 14006KT 9999 BKN017/// OVC041/// 06/06 Q1015=
202011131820 METAR ESMX 131820Z AUTO 17003KT 9999 SCT019/// BKN044/// 06/06 Q1015=
202011131750 METAR ESMX 131750Z AUTO 08003KT 4300 BR SCT017/// 06/05 Q1015=
202011131720 METAR ESMX 131720Z AUTO 16003KT 110V220 9999 BKN008/// OVC010/// 06/05 Q1015=
202011131650 METAR ESMX 131650Z AUTO 19005KT 9999 FEW006/// OVC011/// 07/06 Q1016=
202011131620 METAR ESMX 131620Z AUTO 18006KT 9000 BR SCT006/// BKN011/// OVC016/// 07/07 Q1016=
202011131550 METAR ESMX 131550Z AUTO 19006KT 8000 BR BKN005/// BKN012/// OVC015/// 07/07 Q1016=
202011131520 METAR ESMX 131520Z 19005KT 9000 FEW007 BKN016 08/07 Q1015=
202011131450 METAR ESMX 131450Z 19003KT 9999 BKN015 07/07 Q1015=
202011131420 METAR ESMX 131420Z AUTO 17002KT 9999 FEW006/// BKN012/// OVC015/// 08/08 Q1015=
202011131350 METAR ESMX 131350Z 19004KT 9999 BKN005 07/07 Q1015=
202011131320 METAR ESMX 131320Z VRB03KT 9999 BKN005 08/08 Q1015=
202011131250 METAR ESMX 131250Z 19004KT 9999 BKN005 08/08 Q1016=
202011131220 METAR ESMX 131220Z 18004KT 9999 BKN005 08/08 Q1016=
202011131150 METAR ESMX 131150Z 16004KT 9000 BKN005 08/08 Q1016=
202011131120 METAR ESMX 131120Z 18004KT 6000 BKN002 08/08 Q1016=
202011131050 METAR ESMX 131050Z 15003KT 5000 BR OVC002 08/08 Q1016=
202011131020 METAR ESMX 131020Z 14003KT 080V170 5000 BR OVC002 07/07 Q1016=
202011130950 METAR ESMX 130950Z VRB03KT 4000 BR OVC002 07/07 Q1016=
202011130920 METAR COR ESMX 130920Z 09003KT 030V160 1600 BR OVC002 07/07 Q1016=
202011130850 METAR COR ESMX 130850Z 09002KT 1500 BR OVC002 07/07 Q1016=
202011130820 METAR ESMX 130820Z VRB02KT 3000 BR OVC002 07/07 Q1016=
202011130750 METAR ESMX 130750Z VRB02KT 5000 BR OVC002 07/07 Q1016=
202011130720 METAR ESMX 130720Z 09002KT 6000 OVC002 07/07 Q1016=
202011130650 METAR ESMX 130650Z AUTO VRB02KT 6000 BR OVC002/// 07/07 Q1016=
202011130620 METAR ESMX 130620Z AUTO 09001KT 5000 BR OVC002/// 06/06 Q1016=
202011130550 METAR ESMX 130550Z AUTO 11002KT 5000 BR OVC002/// 06/06 Q1016 RERA=
202011130520 METAR ESMX 130520Z AUTO 09002KT 3500 BR OVC003/// 06/06 Q1016=
202011130450 METAR ESMX 130450Z AUTO VRB03KT 4800 BR OVC002/// 06/06 Q1016=
202011130420 METAR ESMX 130420Z AUTO 11003KT 070V140 4900 BR OVC003/// 06/06 Q1016=
202011130350 METAR ESMX 130350Z AUTO 08004KT 030V110 5000 BR OVC003/// 06/06 Q1016=
202011130320 METAR ESMX 130320Z AUTO 08003KT 030V120 6000 BR OVC004/// 06/06 Q1016 REDZ REUP=
202011130250 METAR ESMX 130250Z AUTO 07003KT 040V110 7000 BR OVC005/// 06/06 Q1016=
202011130220 METAR ESMX 130220Z AUTO 07003KT 030V130 8000 BR OVC006/// 06/06 Q1017=
202011130150 METAR ESMX 130150Z AUTO 08003KT 040V130 8000 BR OVC007/// 06/05 Q1017=
202011130120 METAR ESMX 130120Z AUTO 07004KT 040V120 8000 BR FEW006/// OVC010/// 06/06 Q1017=
202011130050 METAR ESMX 130050Z AUTO VRB03KT 7000 BR FEW005/// OVC011/// 06/05 Q1017 REDZ=
202011130020 METAR ESMX 130020Z AUTO 10003KT 4400 BR BKN005/// BKN010/// OVC013/// 05/05 Q1017=
202011122350 METAR ESMX 122350Z AUTO 08003KT 050V170 5000 BR SCT006/// OVC014/// 05/05 Q1018 REUP REDZ=
202011122320 METAR ESMX 122320Z AUTO 08004KT 050V120 8000 BR SCT006/// BKN009/// OVC015/// 05/05 Q1018=
202011122250 METAR ESMX 122250Z 11003KT 050V140 6000 BR FEW007 SCT009 BKN020 05/05 Q1018=
202011122220 METAR ESMX 122220Z 10004KT 030V160 9000 BR SCT007 BKN012 BKN016 05/05 Q1018=
202011122150 METAR ESMX 122150Z 11004KT 9999 BR FEW008 BKN017 BKN028 05/05 Q1018=
202011122120 METAR ESMX 122120Z AUTO 12003KT 020V140 9999 BKN019/// OVC023/// 05/05 Q1018=
202011122050 METAR ESMX 122050Z AUTO 08003KT 030V130 9999 OVC017/// 05/05 Q1018=
202011122020 METAR ESMX 122020Z AUTO VRB03KT 9999 OVC017/// 05/05 Q1018=
202011121950 METAR ESMX 121950Z AUTO 09004KT 030V140 9999 OVC019/// 05/05 Q1019=
202011121920 METAR ESMX 121920Z AUTO 10003KT 050V150 9999 OVC017/// 05/05 Q1019=
202011121850 METAR ESMX 121850Z AUTO 10003KT 9999 OVC016/// 05/05 Q1019=
202011121820 METAR ESMX 121820Z AUTO 11003KT 070V170 9999 OVC016/// 05/05 Q1019=
202011121750 METAR ESMX 121750Z AUTO 13004KT 100V160 9999 SCT006/// OVC015/// 05/05 Q1019 REUP=
202011121720 METAR ESMX 121720Z AUTO 12005KT 050V160 7000 BR BKN007/// OVC021/// 05/05 Q1019=
202011121650 METAR ESMX 121650Z AUTO 14004KT 080V160 9999 FEW005/// SCT008/// OVC021/// 05/05 Q1019=
202011121620 METAR ESMX 121620Z 14005KT 110V170 9999 FEW008 OVC023 05/05 Q1019=
202011121550 METAR ESMX 121550Z 12004KT 070V160 9999 FEW006 BKN009 05/05 Q1019=
202011121520 METAR ESMX 121520Z 12004KT 050V170 8000 -DZ FEW009 OVC020 05/05 Q1019=
202011121450 METAR ESMX 121450Z 13005KT 080V160 6000 -DZ FEW002 OVC005 05/05 Q1019=
202011121420 METAR ESMX 121420Z 14004KT 6000 -DZ OVC005 06/05 Q1019=
202011121350 METAR ESMX 121350Z 14005KT 090V170 6000 -DZ OVC006 06/05 Q1019=
202011121320 METAR ESMX 121320Z 13005KT 090V160 7000 -DZ BKN006 06/05 Q1019=
202011121250 METAR ESMX 121250Z 13005KT 080V160 6000 -DZ BKN005 06/05 Q1020=
202011121220 METAR ESMX 121220Z 14005KT 100V170 5000 -DZ OVC005 06/05 Q1020=
202011121150 METAR ESMX 121150Z 12004KT 070V170 4000 -DZ OVC004 06/06 Q1020=
202011121120 METAR ESMX 121120Z 13004KT 080V150 3600 -DZ OVC005 06/06 Q1020=
202011121050 METAR ESMX 121050Z 13003KT 070V170 3200 BR OVC004 06/06 Q1020=
202011121020 METAR COR ESMX 121020Z 13004KT 080V160 3500 -DZ OVC004 06/06 Q1021=
202011120950 METAR ESMX 120950Z 11003KT 030V170 2700 BR OVC004 06/06 Q1021=
202011120920 METAR ESMX 120920Z 11003KT 060V160 3500 -DZ OVC005 05/05 Q1021=
202011120850 METAR ESMX 120850Z 11004KT 070V160 4000 -DZ OVC004 05/05 Q1021=
202011120820 METAR ESMX 120820Z 11003KT 060V190 4000 -DZ BKN005 05/05 Q1021=
202011120750 METAR ESMX 120750Z 11003KT 060V140 4500 -DZ BKN005 05/05 Q1021=
202011120720 METAR ESMX 120720Z 11003KT 070V180 5000 -DZ BKN005 05/05 Q1022=
202011120650 METAR COR ESMX 120650Z 11003KT 060V160 5000 -DZ BKN005 05/05 Q1022=
202011120620 METAR ESMX 120620Z AUTO 11004KT 070V160 3300 BR BKN005/// OVC012/// 05/05 Q1021 RESHUP RERA=
202011120550 METAR ESMX 120550Z AUTO 11003KT 050V150 3300 BR BKN004/// OVC006/// 05/05 Q1021=
202011120520 METAR ESMX 120520Z AUTO 11004KT 050V160 3200 BR BKN004/// OVC011/// 05/05 Q1021=
202011120450 METAR ESMX 120450Z AUTO 12004KT 080V150 2700 DZ OVC004/// 05/05 Q1022=
202011120420 METAR ESMX 120420Z AUTO 14004KT 3300 -DZ OVC004/// 05/05 Q1022=
202011120350 METAR ESMX 120350Z AUTO 14004KT 3000 -DZ OVC003/// 06/06 Q1022 RERA=
202011120320 METAR ESMX 120320Z AUTO 14004KT 2900 BR OVC003/// 06/06 Q1022=
202011120250 METAR ESMX 120250Z AUTO 15003KT 3100 -DZ OVC003/// 06/06 Q1022=
202011120220 METAR ESMX 120220Z AUTO 15003KT 2700 -RA BKN004/// OVC009/// 06/06 Q1023=
202011120150 METAR ESMX 120150Z AUTO 14003KT 3700 BR OVC004/// 06/06 Q1023 REUP=
202011120120 METAR ESMX 120120Z AUTO 15003KT 3400 BR BKN004/// OVC015/// 06/06 Q1023=
202011120050 METAR ESMX 120050Z AUTO 16003KT 3800 BR BKN004/// BKN006/// OVC015/// 06/06 Q1023 REUP=
202011120020 METAR ESMX 120020Z AUTO 13003KT 3500 BR OVC004/// 06/06 Q1023=
202011112350 METAR ESMX 112350Z AUTO 14003KT 3400 BR BKN003/// OVC005/// 06/06 Q1023 REUP=
202011112320 METAR ESMX 112320Z AUTO 14004KT 100V170 2900 BR BKN005/// BKN007/// OVC017/// 06/06 Q1024=
202011112250 METAR ESMX 112250Z AUTO 15003KT 3800 BR OVC004/// 06/06 Q1024 RESHUP REUP=
202011112220 METAR ESMX 112220Z AUTO 15004KT 3700 -DZ OVC004/// 06/06 Q1024 REUP=
202011112150 METAR ESMX 112150Z AUTO 15004KT 3800 BR OVC003/// 06/06 Q1024=
202011112120 METAR ESMX 112120Z AUTO 15004KT 3900 BR OVC003/// 06/06 Q1024=
202011112050 METAR ESMX 112050Z AUTO VRB03KT 3900 BR OVC003/// 06/06 Q1024 REDZ=
202011112020 METAR ESMX 112020Z AUTO 14004KT 4400 BR OVC004/// 06/06 Q1025=
202011111950 METAR ESMX 111950Z AUTO 12003KT 3600 BR OVC004/// 06/06 Q1025=
202011111920 METAR ESMX 111920Z AUTO 14004KT 110V170 2800 DZ BKN004/// OVC016/// 06/06 Q1025=
202011111850 METAR ESMX 111850Z AUTO 15004KT 110V170 3300 BR BKN004/// OVC007/// 06/06 Q1025 REDZ RESHUP=
202011111820 METAR ESMX 111820Z AUTO 14004KT 100V160 3900 BR OVC004/// 06/06 Q1026 REUP RESHUP=
202011111750 METAR ESMX 111750Z AUTO 15003KT 3400 BR OVC003/// 06/06 Q1026 RESHUP=
202011111720 METAR ESMX 111720Z AUTO 14003KT 4000 BR OVC004/// 06/06 Q1026 RESHUP=
202011111650 METAR ESMX 111650Z AUTO VRB03KT 3300 UP OVC004/// 06/06 Q1026 REDZ=
202011111620 METAR ESMX 111620Z AUTO VRB03KT 3700 BR OVC004/// 06/06 Q1026 REUP=
202011111550 METAR ESMX 111550Z AUTO VRB03KT 3600 BR OVC004/// 06/06 Q1025=
202011111520 METAR ESMX 111520Z VRB03KT 4500 BR OVC004 06/06 Q1026=
202011111450 METAR ESMX 111450Z VRB03KT 4500 BR OVC004 06/06 Q1026=
202011111420 METAR ESMX 111420Z 14003KT 5000 BR OVC005 06/06 Q1026=
202011111350 METAR ESMX 111350Z VRB02KT 4200 BR BKN006 06/06 Q1026=
202011111320 METAR ESMX 111320Z 15003KT 5000 BR OVC006 06/06 Q1026=
202011111250 METAR ESMX 111250Z 14004KT 5000 BR BKN008 06/05 Q1026=
202011111220 METAR ESMX 111220Z 15004KT 6000 BR SCT009 OVC015 06/05 Q1027=
202011111150 METAR ESMX 111150Z 13003KT 5000 BR OVC016 06/05 Q1027=
202011111120 METAR ESMX 111120Z 18004KT 7000 BR OVC014 07/05 Q1027=
202011111050 METAR ESMX 111050Z 13003KT 100V160 7000 BR OVC012 07/05 Q1027=
202011111020 METAR ESMX 111020Z 18003KT 9000 BR OVC013 07/05 Q1027=
202011110950 METAR ESMX 110950Z 14003KT 9999 OVC013 07/05 Q1028=
202011110920 METAR ESMX 110920Z 18003KT 9999 OVC013 07/04 Q1028=
202011110850 METAR ESMX 110850Z 18003KT 9999 OVC012 06/04 Q1028=
202011110820 METAR ESMX 110820Z 14005KT 110V180 9999 OVC012 06/04 Q1028=
202011110750 METAR ESMX 110750Z 17003KT 9999 BKN013 06/04 Q1028=
202011110720 METAR ESMX 110720Z 14004KT 100V180 9999 BKN012 06/04 Q1028=
202011110650 METAR ESMX 110650Z AUTO 16005KT 9999 OVC011/// 06/04 Q1028=
202011110620 METAR ESMX 110620Z AUTO 14005KT 110V170 9999 OVC013/// 06/04 Q1028=
202011110550 METAR ESMX 110550Z AUTO 15004KT 9999 OVC013/// 06/04 Q1028=
202011110520 METAR ESMX 110520Z AUTO 16004KT 9999 OVC013/// 06/04 Q1028=
202011110450 METAR ESMX 110450Z AUTO 14004KT 110V170 9999 OVC013/// 06/04 Q1029=
202011110420 METAR ESMX 110420Z AUTO 15004KT 120V190 9999 OVC013/// 07/04 Q1029=
202011110350 METAR ESMX 110350Z AUTO 14005KT 9999 OVC013/// 07/04 Q1029=
202011110320 METAR ESMX 110320Z AUTO 14004KT 9999 OVC013/// 07/04 Q1029=
202011110250 METAR ESMX 110250Z AUTO 14004KT 360V170 9999 OVC013/// 07/04 Q1029=
202011110220 METAR ESMX 110220Z AUTO 14004KT 110V170 9999 OVC013/// 07/04 Q1029=
202011110150 METAR ESMX 110150Z AUTO 17004KT 9999 OVC013/// 07/04 Q1029=
202011110120 METAR ESMX 110120Z AUTO 15004KT 080V220 9999 OVC013/// 07/04 Q1030=
202011110050 METAR ESMX 110050Z AUTO 17006KT 9999 OVC013/// 07/04 Q1030=
202011110020 METAR ESMX 110020Z AUTO 17005KT 9999 OVC014/// 07/04 Q1030=
202011102350 METAR ESMX 102350Z AUTO 16003KT 9999 OVC014/// 07/04 Q1030=
202011102320 METAR ESMX 102320Z AUTO 14005KT 110V180 9999 OVC015/// 07/04 Q1030=
202011102250 METAR ESMX 102250Z AUTO 15005KT 110V170 9999 OVC016/// 07/04 Q1030=
202011102220 METAR ESMX 102220Z AUTO 15005KT 110V190 9999 OVC016/// 07/04 Q1030=
202011102150 METAR ESMX 102150Z AUTO 17008KT 9999 OVC016/// 07/04 Q1030=
202011102120 METAR ESMX 102120Z AUTO 15007KT 120V180 9999 OVC017/// 07/04 Q1030=
202011102050 METAR ESMX 102050Z AUTO 16008KT 9999 OVC017/// 07/04 Q1030=
202011102020 METAR ESMX 102020Z AUTO 14009KT 080V190 9999 OVC018/// 07/04 Q1030=
202011101950 METAR ESMX 101950Z AUTO 15006KT 120V180 9999 OVC019/// 08/04 Q1030=
202011101920 METAR ESMX 101920Z AUTO 14006KT 110V170 9999 OVC019/// 08/04 Q1031=
202011101850 METAR ESMX 101850Z AUTO 13006KT 080V170 9999 OVC018/// 08/04 Q1031=
202011101820 METAR ESMX 101820Z AUTO 15006KT 100V170 9999 OVC019/// 08/05 Q1031=
202011101750 METAR ESMX 101750Z AUTO 12006KT 080V210 9999 OVC020/// 08/04 Q1031=
202011101720 METAR ESMX 101720Z AUTO 13006KT 100V170 9999 OVC020/// 08/05 Q1031=
202011101650 METAR ESMX 101650Z AUTO 14004KT 100V170 9999 OVC022/// 08/05 Q1031=
202011101620 METAR ESMX 101620Z AUTO 13005KT 070V160 9999 OVC022/// 08/05 Q1031=
202011101550 METAR ESMX 101550Z AUTO 13003KT 090V150 9999 OVC021/// 08/05 Q1031=
202011101520 METAR ESMX 101520Z 13004KT 080V150 9999 BKN021 08/05 Q1031=
202011101450 METAR ESMX 101450Z 14005KT 100V170 9999 BKN020 08/05 Q1031=
202011101420 METAR ESMX 101420Z 15006KT 110V180 9999 BKN020 08/05 Q1031=
202011101350 METAR ESMX 101350Z 15007KT 9999 BKN019 08/05 Q1031=
202011101320 METAR ESMX 101320Z 15007KT 120V180 9999 BKN018 08/05 Q1031=
202011101250 METAR ESMX 101250Z 14005KT 100V200 9999 BKN016 08/05 Q1031=
202011101220 METAR ESMX 101220Z 15006KT 9999 BKN016 08/06 Q1031=
202011101150 METAR ESMX 101150Z 13004KT 060V170 9999 BKN018 08/05 Q1031=
202011101120 METAR ESMX 101120Z VRB04KT 9999 FEW015 BKN020 09/06 Q1031=
202011101050 METAR ESMX 101050Z 12004KT 070V150 9999 BKN020 08/06 Q1032=
202011101020 METAR ESMX 101020Z 12004KT 080V150 9999 FEW011 BKN019 08/06 Q1032=
202011100950 METAR ESMX 100950Z 13003KT 100V160 9999 BKN018 07/06 Q1032=
202011100920 METAR ESMX 100920Z 11005KT 080V150 9999 BKN018 07/06 Q1031=
202011100850 METAR ESMX 100850Z 11003KT 050V160 9999 BKN017 07/05 Q1031=
202011100820 METAR ESMX 100820Z 10003KT 030V160 9999 BKN016 07/05 Q1031=
202011100750 METAR ESMX 100750Z VRB03KT 9999 BKN016 07/05 Q1031=
202011100720 METAR ESMX 100720Z 11002KT 9999 BKN016 06/05 Q1031=
202011100650 METAR ESMX 100650Z AUTO 11002KT 9999 OVC015/// 06/05 Q1031=
202011100620 METAR ESMX 100620Z AUTO VRB02KT 9999 OVC015/// 06/05 Q1031=
202011100550 METAR ESMX 100550Z AUTO VRB03KT 9999 OVC014/// 06/05 Q1031=
202011100520 METAR ESMX 100520Z AUTO VRB02KT 9999 OVC013/// 06/05 Q1031=
202011100450 METAR ESMX 100450Z AUTO 13002KT 9999 OVC015/// 06/05 Q1031=
202011100420 METAR ESMX 100420Z AUTO VRB02KT 9999 OVC016/// 06/05 Q1031=
202011100350 METAR ESMX 100350Z AUTO VRB02KT 9999 OVC016/// 06/05 Q1031=
202011100320 METAR ESMX 100320Z AUTO 11003KT 9999 OVC016/// 06/05 Q1031=
202011100250 METAR ESMX 100250Z AUTO 12003KT 9999 OVC017/// 06/05 Q1031=
202011100220 METAR ESMX 100220Z AUTO 10002KT 9999 OVC018/// 06/05 Q1031=
202011100150 METAR ESMX 100150Z AUTO 07001KT 9999 OVC017/// 06/06 Q1031=
202011100120 METAR ESMX 100120Z AUTO 07003KT 9999 OVC017/// 06/06 Q1031=
202011100050 METAR ESMX 100050Z AUTO 10002KT 9999 OVC016/// 06/05 Q1031=
202011100020 METAR ESMX 100020Z AUTO 10003KT 9999 OVC016/// 06/05 Q1031=
202011092350 METAR ESMX 092350Z AUTO 08003KT 9999 OVC017/// 06/05 Q1031=
202011092320 METAR ESMX 092320Z AUTO 08003KT 9999 FEW007/// OVC017/// 06/06 Q1031=
202011092250 METAR ESMX 092250Z AUTO 10001KT 9999 SCT006/// OVC018/// 06/06 Q1031=
202011092220 METAR ESMX 092220Z AUTO VRB03KT 9999 FEW007/// OVC019/// 06/06 Q1031=
202011092150 METAR ESMX 092150Z AUTO 10002KT 9999 OVC019/// 06/06 Q1031=
202011092120 METAR ESMX 092120Z AUTO 08003KT 9999 OVC019/// 06/06 Q1031=
202011092050 METAR ESMX 092050Z AUTO 07003KT 9999 OVC018/// 06/06 Q1031=
202011092020 METAR ESMX 092020Z AUTO 08003KT 9999 OVC017/// 06/06 Q1031=
202011091950 METAR ESMX 091950Z AUTO 03003KT 350V070 9999 FEW009/// OVC016/// 06/06 Q1031=
202011091920 METAR ESMX 091920Z AUTO 06004KT 9999 FEW009/// OVC016/// 06/06 Q1031=
202011091850 METAR ESMX 091850Z AUTO 05003KT 020V080 9999 BKN007/// OVC009/// 06/06 Q1031=
202011091820 METAR ESMX 091820Z AUTO 03004KT 9999 OVC007/// 06/06 Q1031=
202011091750 METAR ESMX 091750Z AUTO VRB03KT 9999 OVC007/// 06/06 Q1031=
202011091720 METAR ESMX 091720Z AUTO 16003KT 9999 OVC006/// 06/06 Q1031=
202011091650 METAR ESMX 091650Z AUTO 16003KT 9999 OVC006/// 06/06 Q1030=
202011091620 METAR ESMX 091620Z AUTO VRB01KT 9999 OVC005/// 06/06 Q1030=
202011091550 METAR ESMX 091550Z AUTO 00000KT 8000 BR OVC005/// 06/06 Q1030=
202011091520 METAR ESMX 091520Z VRB02KT 9999 OVC005 06/06 Q1030=
202011091450 METAR ESMX 091450Z 16002KT 9999 OVC006 06/06 Q1030=
202011091420 METAR ESMX 091420Z 00000KT 9999 OVC006 06/06 Q1030=
202011091350 METAR ESMX 091350Z 00000KT 9999 OVC006 06/06 Q1030=
202011091320 METAR ESMX 091320Z 16002KT 9999 BKN007 06/06 Q1030=
202011091250 METAR ESMX 091250Z 17004KT 9999 BKN007 06/06 Q1030=
202011091220 METAR ESMX 091220Z 21004KT 9999 BKN006 06/06 Q1030=
202011091150 METAR ESMX 091150Z 20003KT 9999 BKN006 06/05 Q1030=
202011091120 METAR ESMX 091120Z 20003KT 9999 BKN007 06/06 Q1030=
202011091050 METAR ESMX 091050Z 21003KT 170V240 9999 BKN006 06/06 Q1030=
202011091020 METAR ESMX 091020Z 18003KT 9999 BKN006 07/06 Q1030=
202011090950 METAR COR ESMX 090950Z 17003KT 140V200 9999 OVC005 07/06 Q1030=
202011090920 METAR ESMX 090920Z 18003KT 9999 OVC006 06/06 Q1030=
202011090850 METAR ESMX 090850Z VRB03KT 9999 OVC006 06/06 Q1030=
202011090820 METAR ESMX 090820Z VRB03KT 9000 BKN006 07/06 Q1030=
202011090750 METAR ESMX 090750Z 22003KT 9999 BKN007 07/06 Q1029=
202011090720 METAR ESMX 090720Z 22003KT 9999 BKN007 06/06 Q1029=
202011090650 METAR ESMX 090650Z AUTO VRB03KT 9999 OVC007/// 07/06 Q1029=
202011090620 METAR ESMX 090620Z AUTO 22003KT 9999 OVC007/// 06/06 Q1029=
202011090550 METAR ESMX 090550Z AUTO 19004KT 9999 OVC007/// 07/06 Q1028=
202011090520 METAR ESMX 090520Z AUTO 23004KT 9999 OVC009/// 07/06 Q1028=
202011090450 METAR ESMX 090450Z AUTO 24005KT 9999 OVC009/// 07/06 Q1028=
202011090420 METAR ESMX 090420Z AUTO 22004KT 9999 OVC009/// 07/06 Q1028=
202011090350 METAR ESMX 090350Z AUTO VRB02KT 9999 OVC009/// 07/06 Q1028=
202011090320 METAR ESMX 090320Z AUTO 23003KT 9999 OVC009/// 07/06 Q1028=
202011090250 METAR ESMX 090250Z AUTO 25004KT 9999 OVC009/// 07/06 Q1028=
202011090220 METAR ESMX 090220Z AUTO 23004KT 9999 OVC009/// 07/06 Q1028=
202011090150 METAR ESMX 090150Z AUTO 23003KT 200V270 9999 OVC009/// 07/06 Q1028=
202011090120 METAR ESMX 090120Z AUTO 21003KT 160V230 9999 OVC009/// 07/06 Q1028=
202011090050 METAR ESMX 090050Z AUTO 22005KT 170V240 9999 OVC010/// 07/06 Q1028=
202011090020 METAR ESMX 090020Z AUTO 23003KT 200V280 9999 OVC010/// 07/06 Q1028=
202011082350 METAR ESMX 082350Z AUTO 22004KT 9999 OVC010/// 08/06 Q1028=
202011082320 METAR ESMX 082320Z AUTO 22007KT 9999 OVC011/// 08/06 Q1028=
202011082250 METAR ESMX 082250Z AUTO 22005KT 9999 FEW008/// OVC011/// 08/06 Q1028=
202011082220 METAR ESMX 082220Z AUTO 18005KT 9999 OVC008/// 08/07 Q1028=
202011082150 METAR ESMX 082150Z AUTO 20005KT 9999 OVC009/// 08/07 Q1028=
202011082120 METAR ESMX 082120Z AUTO 19005KT 9999 OVC010/// 08/07 Q1028=
202011082050 METAR ESMX 082050Z AUTO 22005KT 9999 OVC010/// 08/07 Q1028=
202011082020 METAR ESMX 082020Z AUTO 23006KT 9999 OVC011/// 08/07 Q1027=
202011081950 METAR ESMX 081950Z AUTO 23004KT 9999 OVC011/// 08/07 Q1028=
202011081920 METAR ESMX 081920Z AUTO 19003KT 9999 OVC011/// 08/07 Q1027=
202011081850 METAR ESMX 081850Z AUTO 18004KT 9999 OVC011/// 08/07 Q1027=
202011081820 METAR ESMX 081820Z AUTO 18004KT 9999 OVC011/// 08/07 Q1027=
202011081750 METAR ESMX 081750Z AUTO 18003KT 9999 OVC012/// 08/07 Q1027=
202011081720 METAR ESMX 081720Z AUTO 18001KT 9999 OVC013/// 09/07 Q1027=
202011081650 METAR ESMX 081650Z AUTO 18004KT 9999 OVC013/// 08/07 Q1026=
202011081620 METAR ESMX 081620Z AUTO 17005KT 9999 OVC013/// 08/07 Q1026=
202011081550 METAR ESMX 081550Z AUTO 20003KT 9999 OVC013/// 09/07 Q1026=
202011081520 METAR ESMX 081520Z AUTO 22003KT 9999 OVC013/// 09/07 Q1026=
202011081450 METAR ESMX 081450Z AUTO 12003KT 9999 OVC012/// 09/07 Q1026=
202011081420 METAR ESMX 081420Z AUTO 12003KT 9999 OVC013/// 09/07 Q1026=
202011081350 METAR ESMX 081350Z AUTO 12002KT 9999 OVC013/// 09/07 Q1025=
202011081320 METAR ESMX 081320Z AUTO 00000KT 9999 OVC013/// 09/07 Q1025=
202011081250 METAR ESMX 081250Z AUTO 00000KT 9999 OVC014/// 10/07 Q1025=
202011081220 METAR ESMX 081220Z AUTO 02004KT 330V040 9999 OVC015/// 10/07 Q1025=
202011081150 METAR ESMX 081150Z AUTO VRB02KT 9999 OVC016/// 10/07 Q1025=
202011081120 METAR ESMX 081120Z AUTO VRB02KT 9999 OVC015/// 09/07 Q1025=
202011081050 METAR ESMX 081050Z AUTO 27003KT 9999 OVC016/// 09/07 Q1025=
202011081020 METAR ESMX 081020Z AUTO 26003KT 9999 OVC017/// 09/07 Q1025=
202011080950 METAR ESMX 080950Z AUTO 27004KT 9999 OVC015/// 09/07 Q1025=
202011080920 METAR ESMX 080920Z AUTO 28004KT 9999 OVC015/// 09/07 Q1025=
202011080850 METAR ESMX 080850Z AUTO 29004KT 260V330 9999 OVC014/// 09/07 Q1025=
202011080820 METAR ESMX 080820Z AUTO 27005KT 240V310 9999 OVC014/// 09/07 Q1025=
202011080750 METAR ESMX 080750Z AUTO 29004KT 9999 OVC012/// 09/08 Q1024=
202011080720 METAR ESMX 080720Z AUTO 30005KT 9999 OVC012/// 09/08 Q1024=
202011080650 METAR ESMX 080650Z AUTO 28004KT 9999 OVC012/// 09/08 Q1023=
202011080620 METAR ESMX 080620Z AUTO 30005KT 280V350 9999 OVC012/// 09/08 Q1023=
202011080550 METAR ESMX 080550Z AUTO 28003KT 9999 OVC014/// 08/08 Q1022=
202011080520 METAR ESMX 080520Z AUTO 30004KT 9999 OVC013/// 08/08 Q1022=
202011080450 METAR ESMX 080450Z AUTO 25003KT 220V280 9999 OVC012/// 08/08 Q1022=
202011080420 METAR ESMX 080420Z AUTO 27003KT 9999 OVC013/// 08/08 Q1022=
202011080350 METAR ESMX 080350Z AUTO 27002KT 9999 OVC014/// 08/08 Q1022=
202011080320 METAR ESMX 080320Z AUTO 24005KT 9999 OVC017/// 08/08 Q1022=
202011080250 METAR ESMX 080250Z AUTO 25004KT 9999 OVC020/// 08/07 Q1022=
202011080220 METAR ESMX 080220Z AUTO 25006KT 230V290 9999 OVC021/// 08/07 Q1022=
202011080150 METAR ESMX 080150Z AUTO 24004KT 9999 OVC022/// 08/07 Q1022=
202011080120 METAR ESMX 080120Z AUTO 24005KT 9999 SCT006/// BKN017/// OVC022/// 08/07 Q1022=
202011080050 METAR ESMX 080050Z AUTO 24006KT 9999 OVC006/// 08/07 Q1022=
202011080020 METAR ESMX 080020Z AUTO 25006KT 9999 OVC006/// 08/07 Q1022=
202011072350 METAR ESMX 072350Z AUTO 24007KT 9999 BKN007/// OVC022/// 08/07 Q1022=
202011072320 METAR ESMX 072320Z AUTO 25007KT 9999 BKN007/// OVC009/// 08/07 Q1021=
202011072250 METAR ESMX 072250Z AUTO 24006KT 220V280 9999 OVC008/// 08/07 Q1021=
202011072220 METAR ESMX 072220Z AUTO 24006KT 9999 BKN009/// OVC012/// 08/07 Q1021=
202011072150 METAR ESMX 072150Z AUTO 23006KT 9999 FEW012/// BKN018/// 07/07 Q1021=
202011072120 METAR ESMX 072120Z AUTO 23006KT 9999 BKN017/// OVC021/// 08/07 Q1021=
202011072050 METAR ESMX 072050Z AUTO 25004KT 9999 SCT015/// BKN023/// 08/07 Q1022=
202011072020 METAR ESMX 072020Z AUTO 21005KT 9999 BKN028/// 08/08 Q1021=
202011071950 METAR ESMX 071950Z AUTO 22007KT 9999 OVC031/// 09/08 Q1021=
202011071920 METAR ESMX 071920Z AUTO 22007KT 9999 OVC030/// 09/08 Q1021=
202011071850 METAR ESMX 071850Z AUTO 23005KT 9999 FEW007/// OVC027/// 09/08 Q1021=
202011071820 METAR ESMX 071820Z AUTO 23007KT 9999 BKN007/// OVC010/// 09/09 Q1022=
202011071750 METAR ESMX 071750Z AUTO 22006KT 9999 SCT007/// OVC026/// 09/09 Q1022=
202011071720 METAR ESMX 071720Z AUTO 22005KT 9999 FEW007/// SCT018/// OVC025/// 09/09 Q1022=
202011071650 METAR ESMX 071650Z AUTO 23006KT 9999 FEW006/// OVC021/// 09/09 Q1022=
202011071620 METAR ESMX 071620Z AUTO 22007KT 9999 SCT007/// BKN014/// OVC019/// 09/09 Q1022=
202011071550 METAR ESMX 071550Z AUTO 23007KT 9999 FEW006/// BKN020/// OVC025/// 09/09 Q1022=
202011071520 METAR ESMX 071520Z AUTO 21007KT 9999 OVC006/// 10/09 Q1022=
202011071450 METAR ESMX 071450Z AUTO 20007KT 7000 OVC005/// 10/10 Q1022=
202011071420 METAR ESMX 071420Z AUTO 22007KT 9999 OVC005/// 10/10 Q1023=
202011071350 METAR ESMX 071350Z AUTO 20006KT 6000 BR OVC004/// 10/10 Q1023=
202011071320 METAR ESMX 071320Z AUTO 21008KT 3400 BR OVC004/// 10/10 Q1023=
202011071250 METAR ESMX 071250Z AUTO 20008KT 6000 BR FEW002/// OVC004/// 10/10 Q1023=
202011071220 METAR ESMX 071220Z AUTO 20007KT 7000 BR OVC005/// 10/10 Q1024=
202011071150 METAR ESMX 071150Z AUTO 20006KT 3800 BR OVC003/// 10/10 Q1024=
202011071120 METAR ESMX 071120Z AUTO 20007KT 4300 BR OVC003/// 10/10 Q1024=
202011071050 METAR ESMX 071050Z AUTO 20008KT 4500 BR OVC002/// 09/09 Q1024=
202011071020 METAR ESMX 071020Z AUTO 21007KT 2200 BR OVC002/// 09/09 Q1025=
202011070950 METAR ESMX 070950Z AUTO 22006KT 3400 BR BKN002/// OVC004/// 10/10 Q1025=
202011070920 METAR ESMX 070920Z AUTO 20006KT 8000 BR OVC003/// 09/09 Q1025=
202011070850 METAR ESMX 070850Z AUTO 22005KT 3400 BR OVC002/// 09/09 Q1026=
202011070820 METAR ESMX 070820Z AUTO 22005KT 2200 BR OVC002/// 09/09 Q1026=
202011070750 METAR ESMX 070750Z AUTO 25005KT 6000 BR OVC003/// 09/09 Q1026=
202011070720 METAR ESMX 070720Z AUTO 23004KT 200V260 9999 OVC004/// 09/09 Q1026=
202011070650 METAR ESMX 070650Z AUTO 23004KT 9999 OVC003/// 09/09 Q1026=
202011070620 METAR ESMX 070620Z AUTO 22005KT 9000 OVC003/// 09/09 Q1026=
202011070550 METAR ESMX 070550Z AUTO 26005KT 8000 OVC002/// 09/09 Q1026=
202011070520 METAR ESMX 070520Z AUTO 26006KT 8000 OVC003/// 09/09 Q1026=
202011070450 METAR ESMX 070450Z AUTO 24006KT 8000 BR OVC003/// 09/09 Q1026=
202011070420 METAR ESMX 070420Z AUTO 24006KT 210V280 9999 OVC003/// 09/09 Q1027=
202011070350 METAR ESMX 070350Z AUTO 23005KT 9999 OVC004/// 09/09 Q1026=
202011070320 METAR ESMX 070320Z AUTO 26006KT 9999 OVC004/// 09/08 Q1027=
202011070250 METAR ESMX 070250Z AUTO 26005KT 9999 OVC004/// 09/08 Q1027=
202011070220 METAR ESMX 070220Z AUTO 25006KT 9999 OVC005/// 09/08 Q1027=
202011070150 METAR ESMX 070150Z AUTO 24005KT 9999 OVC005/// 09/08 Q1027=
202011070120 METAR ESMX 070120Z AUTO 26005KT 9999 OVC006/// 08/08 Q1027=
202011070050 METAR ESMX 070050Z AUTO 25007KT 9999 OVC006/// 08/08 Q1027=
202011070020 METAR ESMX 070020Z AUTO 25006KT 9999 OVC006/// 09/08 Q1028=
202011062350 METAR ESMX 062350Z AUTO 25005KT 9999 OVC006/// 09/08 Q1027=
202011062320 METAR ESMX 062320Z AUTO 25005KT 9999 OVC007/// 09/08 Q1028=
202011062250 METAR ESMX 062250Z AUTO 24006KT 230V300 9999 OVC008/// 09/09 Q1028=
202011062220 METAR ESMX 062220Z AUTO 25006KT 9999 OVC007/// 09/08 Q1028=
202011062150 METAR ESMX 062150Z AUTO 25007KT 9999 OVC008/// 09/09 Q1028=
202011062120 METAR ESMX 062120Z AUTO 25005KT 9999 OVC007/// 09/09 Q1028=
202011062050 METAR ESMX 062050Z AUTO 27004KT 9999 BKN008/// 09/08 Q1028=
202011062020 METAR ESMX 062020Z AUTO 26003KT 9999 BKN008/// OVC010/// 09/09 Q1028=
202011061950 METAR ESMX 061950Z AUTO 26005KT 230V290 9999 OVC008/// 10/09 Q1028=
202011061920 METAR ESMX 061920Z AUTO 26007KT 9999 OVC007/// 10/09 Q1028=
202011061850 METAR ESMX 061850Z AUTO 25006KT 9999 BKN008/// 10/10 Q1028=
202011061820 METAR ESMX 061820Z AUTO 23008KT 200V270 9999 OVC008/// 10/10 Q1028=
202011061750 METAR ESMX 061750Z AUTO 24007KT 9999 OVC007/// 10/10 Q1028=
202011061720 METAR ESMX 061720Z AUTO 23009KT 9999 OVC007/// 11/10 Q1028=
202011061650 METAR ESMX 061650Z AUTO 24007KT 210V280 9999 OVC007/// 11/10 Q1028=
202011061620 METAR ESMX 061620Z AUTO 25008KT 9999 BKN006/// 11/11 Q1027=
202011061550 METAR ESMX 061550Z AUTO 24009KT 9999 SCT008/// 11/11 Q1027=
202011061520 METAR ESMX 061520Z 24008KT 9999 FEW008 12/11 Q1027=
202011061450 METAR ESMX 061450Z 24006KT 9999 FEW008 13/11 Q1027=
202011061420 METAR ESMX 061420Z 23007KT CAVOK 14/11 Q1027=
202011061350 METAR ESMX 061350Z 25006KT CAVOK 15/12 Q1027=
202011061320 METAR ESMX 061320Z 26007KT CAVOK 15/12 Q1027=
202011061250 METAR ESMX 061250Z 26007KT 230V290 CAVOK 15/11 Q1027=
202011061220 METAR ESMX 061220Z 25008KT 230V290 CAVOK 15/11 Q1027=
202011061150 METAR ESMX 061150Z 24006KT 210V290 CAVOK 15/11 Q1027=
202011061120 METAR ESMX 061120Z 27007KT CAVOK 14/11 Q1027=
202011061050 METAR ESMX 061050Z 28008KT CAVOK 14/11 Q1027=
202011061020 METAR ESMX 061020Z 27009KT 9999 SCT011 13/11 Q1027=
202011060950 METAR ESMX 060950Z 27008KT 9999 SCT009 13/11 Q1027=
202011060920 METAR ESMX 060920Z 27008KT 9999 SCT009 12/11 Q1027=
202011060850 METAR ESMX 060850Z 27007KT 9999 BKN009 12/10 Q1027=
202011060820 METAR ESMX 060820Z 27007KT 9999 SCT008 11/10 Q1026=
202011060750 METAR ESMX 060750Z 27008KT 9999 BKN008 11/10 Q1026=
202011060720 METAR ESMX 060720Z 27009KT 9999 BKN008 10/10 Q1026=
202011060650 METAR ESMX 060650Z AUTO 26007KT 9999 BKN008/// 10/10 Q1026=
202011060620 METAR ESMX 060620Z AUTO 26008KT 9999 BKN009/// 10/10 Q1025=
202011060550 METAR ESMX 060550Z AUTO 26008KT 9999 OVC008/// 10/10 Q1025=
202011060520 METAR ESMX 060520Z AUTO 25007KT 9999 OVC009/// 10/10 Q1025=
202011060450 METAR ESMX 060450Z AUTO 25006KT 9999 OVC010/// 10/10 Q1024=
202011060420 METAR ESMX 060420Z AUTO 26008KT 9999 BKN010/// 10/10 Q1024=
202011060350 METAR ESMX 060350Z AUTO 26008KT 9999 OVC011/// 10/09 Q1024=
202011060320 METAR ESMX 060320Z AUTO 26007KT 9999 OVC012/// 11/10 Q1024=
202011060250 METAR ESMX 060250Z AUTO 27008KT 9999 BKN012/// 11/09 Q1023=
202011060220 METAR ESMX 060220Z AUTO 26010KT 9999 OVC012/// 11/10 Q1023=
202011060150 METAR ESMX 060150Z AUTO 27009KT 250V310 9999 OVC011/// 11/10 Q1023=
202011060120 METAR ESMX 060120Z AUTO 28010KT 9999 OVC011/// 11/10 Q1023=
202011060050 METAR ESMX 060050Z AUTO 28010KT 9999 OVC010/// 11/10 Q1023=
202011060020 METAR ESMX 060020Z AUTO 28013KT 9999 OVC010/// 11/10 Q1022=
202011052350 METAR ESMX 052350Z AUTO 27012KT 9999 OVC009/// 11/10 Q1022=
202011052320 METAR ESMX 052320Z AUTO 28012KT 9999 OVC009/// 11/10 Q1022=
202011052250 METAR ESMX 052250Z AUTO 27011KT 9999 OVC009/// 12/10 Q1022=
202011052220 METAR ESMX 052220Z AUTO 27010KT 9999 OVC010/// 12/10 Q1022=
202011052150 METAR ESMX 052150Z AUTO 26014KT 9999 OVC009/// 11/10 Q1022=
202011052120 METAR ESMX 052120Z AUTO 27013KT 9999 OVC009/// 11/10 Q1022=
202011052050 METAR ESMX 052050Z AUTO 27014KT 9999 OVC009/// 11/10 Q1022=
202011052020 METAR ESMX 052020Z AUTO 27011KT 9999 OVC009/// 11/10 Q1022=
202011051950 METAR ESMX 051950Z AUTO 27014KT 9999 OVC008/// 11/10 Q1021=
202011051920 METAR ESMX 051920Z AUTO 27013KT 220V290 9999 OVC007/// 11/10 Q1021=
202011051850 METAR ESMX 051850Z AUTO 27012KT 9999 OVC006/// 11/11 Q1022=
202011051820 METAR ESMX 051820Z AUTO 27015KT 7000 BR OVC006/// 11/11 Q1021=
202011051750 METAR ESMX 051750Z AUTO 27012KT 6000 BR OVC005/// 11/11 Q1021=
202011051720 METAR ESMX 051720Z AUTO 27012KT 4800 BR BKN005/// OVC008/// 11/11 Q1021=
202011051650 METAR ESMX 051650Z AUTO 26013KT 6000 BR OVC006/// 11/11 Q1021=
202011051620 METAR ESMX 051620Z AUTO 26012KT 6000 BR OVC006/// 11/10 Q1021=
202011051550 METAR ESMX 051550Z AUTO 26010KT 4900 BR BKN006/// OVC007/// 11/10 Q1021=
202011051520 METAR ESMX 051520Z AUTO 27010KT 4800 BR OVC005/// 11/10 Q1021=
202011051450 METAR ESMX 051450Z 26012KT 230V290 5000 -DZ BKN008 11/10 Q1020=
202011051420 METAR COR ESMX 051420Z 25011KT 5000 -DZ BKN008 11/10 Q1021=
202011051350 METAR ESMX 051350Z AUTO 26012G23KT 230V290 6000 BR OVC006/// 10/10 Q1021=
202011051320 METAR ESMX 051320Z AUTO 27014KT 4500 BR FEW005/// OVC008/// 10/09 Q1021 REDZ=
202011051250 METAR ESMX 051250Z 26014G25KT 8000 -RA BKN009 10/09 Q1021=
202011051220 METAR ESMX 051220Z 26013G23KT 210V290 8000 -RA BKN009 09/09 Q1021=
202011051150 METAR COR ESMX 051150Z 25012KT 6000 -DZ BKN008 09/09 Q1021=
202011051120 METAR ESMX 051120Z 26015KT 5000 -DZ BKN008 BKN010 09/09 Q1021=
202011051050 METAR ESMX 051050Z 26015KT 220V280 5000 -DZ BKN005 BKN008 09/08 Q1021=
202011051020 METAR ESMX 051020Z 26015KT 6000 -DZ FEW006 BKN010 09/08 Q1021=
202011050950 METAR ESMX 050950Z 26016G26KT 9000 -RA OVC012 09/08 Q1021=
202011050920 METAR ESMX 050920Z 25015KT 9999 BKN014 09/07 Q1021=
202011050850 METAR ESMX 050850Z 25015KT 9999 BKN016 09/07 Q1021=
202011050820 METAR ESMX 050820Z 25014KT 9999 BKN017 09/07 Q1022=
202011050750 METAR COR ESMX 050750Z 23013KT 9999 BKN018 09/07 Q1022=
202011050720 METAR ESMX 050720Z 25014KT 9999 BKN016 08/07 Q1022=
202011050650 METAR ESMX 050650Z 24012KT 9999 BKN017 08/06 Q1022=
202011050620 METAR COR ESMX 050620Z 23010KT 170V270 9999 BKN017 08/06 Q1022=
202011050550 METAR ESMX 050550Z 23010KT 9999 BKN018 08/06 Q1023=
202011050520 METAR ESMX 050520Z 24010KT 9999 BKN020 07/06 Q1023=
202011050450 METAR ESMX 050450Z 25009KT 9999 BKN022 07/05 Q1023=
202011050420 METAR ESMX 050420Z AUTO 24009KT 220V280 9999 SCT020/// 07/05 Q1023=
202011050350 METAR ESMX 050350Z AUTO 24010KT 9999 BKN024/// 07/06 Q1023=
202011050320 METAR ESMX 050320Z AUTO 23010KT 9999 BKN029/// 07/06 Q1023=
202011050250 METAR ESMX 050250Z AUTO 22008KT 9999 FEW018/// SCT035/// 07/06 Q1023=
202011050220 METAR ESMX 050220Z AUTO 24009KT 9999 SCT013/// BKN016/// OVC040/// 07/06 Q1023=
202011050150 METAR ESMX 050150Z AUTO 24010KT 9999 FEW015/// SCT022/// OVC037/// 07/06 Q1023=
202011050120 METAR ESMX 050120Z AUTO 24009KT 9999 SCT035/// 07/06 Q1023=
202011050050 METAR ESMX 050050Z AUTO 24010KT 9999 FEW011/// BKN034/// 07/06 Q1023=
202011050020 METAR ESMX 050020Z AUTO 22008KT 9999 FEW007/// SCT011/// BKN028/// 07/06 Q1023=
202011042350 METAR ESMX 042350Z AUTO 22009KT 9999 SCT034/// 07/06 Q1023=
202011042320 METAR ESMX 042320Z AUTO 23010KT 9999 FEW016/// SCT043/// 07/06 Q1023 REUP=
202011042250 METAR ESMX 042250Z AUTO 24010KT 9999 FEW009/// SCT011/// OVC041/// 07/06 Q1023=
202011042220 METAR ESMX 042220Z AUTO 24009KT 9999 FEW013/// SCT016/// BKN038/// 07/06 Q1023=
202011042150 METAR ESMX 042150Z AUTO 24009KT 9999 SCT032/// 07/06 Q1023=
202011042120 METAR ESMX 042120Z AUTO 22009KT 9999 FEW012/// 07/06 Q1023=
202011042050 METAR ESMX 042050Z AUTO 22008KT 9999 NCD 07/06 Q1023=
202011042020 METAR ESMX 042020Z AUTO 24009KT 9999 FEW011/// SCT021/// 07/06 Q1023=
202011041950 METAR ESMX 041950Z AUTO 23010KT 9999 OVC010/// 08/06 Q1023 REDZ REUP RESHUP=
202011041920 METAR ESMX 041920Z AUTO 24011KT 9999 BKN012/// OVC016/// 08/07 Q1023=
202011041850 METAR ESMX 041850Z AUTO 24010KT 210V280 9999 BKN012/// OVC016/// 08/06 Q1022=
202011041820 METAR ESMX 041820Z AUTO 22011KT 9999 BKN014/// OVC032/// 07/06 Q1022=
202011041750 METAR ESMX 041750Z AUTO 22010KT 9999 SCT020/// BKN030/// BKN036/// 07/06 Q1022=
202011041720 METAR ESMX 041720Z AUTO 22009KT 9999 SCT022/// BKN043/// 07/06 Q1022=
202011041650 METAR ESMX 041650Z AUTO 22009KT 9999 FEW027/// SCT034/// 07/06 Q1021=
202011041620 METAR ESMX 041620Z AUTO 22008KT 9999 NCD 07/06 Q1021=
202011041550 METAR ESMX 041550Z AUTO 22008KT 9999 FEW022/// 07/06 Q1021=
202011041520 METAR ESMX 041520Z 22007KT 9999 SCT025 08/06 Q1021=
202011041450 METAR ESMX 041450Z 26009KT 9999 SCT025 08/05 Q1021=
202011041420 METAR ESMX 041420Z 26012KT 9999 SCT023 09/06 Q1020=
202011041350 METAR ESMX 041350Z 26013KT 9999 BKN019 09/06 Q1020=
202011041320 METAR ESMX 041320Z 25010KT 220V280 9999 VCSH SCT019 10/07 Q1019=
202011041250 METAR ESMX 041250Z 27011KT 240V300 9999 SCT019 10/06 Q1019=
202011041220 METAR ESMX 041220Z 27012KT 9999 BKN018 09/06 Q1018=
202011041150 METAR ESMX 041150Z 26016KT 9999 BKN015 09/07 Q1018=
202011041120 METAR ESMX 041120Z 24011KT 9999 BKN013 08/07 Q1017=
202011041050 METAR ESMX 041050Z 23010KT 200V260 9999 BKN011 08/07 Q1017=
202011041020 METAR ESMX 041020Z 24010KT 200V280 9999 BKN009 08/07 Q1016=
202011040950 METAR ESMX 040950Z 21012KT 9999 -RA BKN007 07/07 Q1016=
202011040920 METAR ESMX 040920Z 19013KT 9000 BKN007 07/06 Q1016=
202011040850 METAR ESMX 040850Z 18011KT 9000 -DZ BKN009 07/06 Q1015=
202011040820 METAR ESMX 040820Z 18010KT 9999 BKN009 06/06 Q1015=
202011040750 METAR ESMX 040750Z 17010KT 9999 BKN012 06/05 Q1015=
202011040720 METAR ESMX 040720Z 17010KT 9999 FEW014 BKN022 06/05 Q1015=
202011040650 METAR ESMX 040650Z AUTO 18009KT 9999 OVC030/// 06/05 Q1015=
202011040620 METAR ESMX 040620Z AUTO 17009KT 9999 OVC037/// 06/05 Q1015=
202011040550 METAR ESMX 040550Z AUTO 18009KT 9999 FEW038/// SCT044/// 06/05 Q1015=
202011040520 METAR ESMX 040520Z AUTO 18008KT 9999 FEW032/// 06/05 Q1015=
202011040450 METAR ESMX 040450Z AUTO 17008KT 9999 BKN032/// 06/06 Q1016=
202011040420 METAR ESMX 040420Z AUTO 18008KT 9999 FEW026/// SCT034/// BKN062/// 06/05 Q1016=
202011040350 METAR ESMX 040350Z AUTO 16008KT 9999 FEW021/// SCT034/// BKN045/// 06/05 Q1016=
202011040320 METAR ESMX 040320Z AUTO 17008KT 9999 FEW011/// SCT023/// BKN031/// 06/06 Q1016 REDZ=
202011040250 METAR ESMX 040250Z AUTO 17009KT 9999 DZ FEW008/// SCT035/// BKN057/// 06/05 Q1016 REUP REDZ=
202011040220 METAR ESMX 040220Z AUTO 17007KT 9999 NCD 06/05 Q1016=
202011040150 METAR ESMX 040150Z AUTO 15005KT 9999 FEW062/// 05/05 Q1016=
202011040120 METAR ESMX 040120Z AUTO 15005KT 9999 FEW027/// 05/05 Q1017=
202011040050 METAR ESMX 040050Z AUTO 18004KT 9999 SCT045/// 05/05 Q1017=
202011040020 METAR ESMX 040020Z AUTO 19006KT 9999 BKN043/// 06/06 Q1017=
202011032350 METAR ESMX 032350Z AUTO 18005KT 9999 BKN040/// 06/05 Q1018=
202011032320 METAR ESMX 032320Z AUTO 20006KT 9999 BKN037/// 05/05 Q1018=
202011032250 METAR ESMX 032250Z AUTO 18006KT 9999 NCD 05/05 Q1018=
202011032220 METAR ESMX 032220Z AUTO 18006KT 9999 NCD 05/05 Q1018=
202011032150 METAR ESMX 032150Z AUTO 18006KT 9999 NCD 05/05 Q1018=
202011032120 METAR ESMX 032120Z AUTO 18006KT 9999 NCD 05/05 Q1018=
202011032050 METAR ESMX 032050Z AUTO 18007KT 9999 NCD 06/06 Q1018=
202011032020 METAR ESMX 032020Z AUTO 20006KT 9999 NCD 06/06 Q1018=
202011031950 METAR ESMX 031950Z AUTO 21006KT 9999 NCD 06/06 Q1018=
202011031920 METAR ESMX 031920Z AUTO 20006KT 9999 NCD 06/06 Q1018=
202011031850 METAR ESMX 031850Z AUTO 19006KT 9999 NCD 06/06 Q1018=
202011031820 METAR ESMX 031820Z AUTO 20006KT 9999 NCD 06/06 Q1018=
202011031750 METAR ESMX 031750Z AUTO 20006KT 9999 FEW027/// SCT033/// 07/07 Q1017=
202011031720 METAR ESMX 031720Z AUTO 20008KT 9999 SCT033/// 08/07 Q1017=
202011031650 METAR ESMX 031650Z AUTO 19006KT 9999 SCT034/// 08/07 Q1017=
202011031620 METAR ESMX 031620Z AUTO 21007KT 9999 FEW020/// SCT030/// 08/08 Q1017=
202011031550 METAR ESMX 031550Z AUTO 21007KT 9999 SCT018/// 09/08 Q1016=
202011031520 METAR ESMX 031520Z 23006KT 9999 SCT019 09/08 Q1016=
202011031450 METAR ESMX 031450Z 24007KT 9999 FEW015 09/08 Q1015=
202011031420 METAR ESMX 031420Z 24008KT 210V280 9999 SCT011 09/09 Q1015 RERA=
202011031350 METAR ESMX 031350Z 23010KT 9999 FEW010 BKN012 09/08 Q1014=
202011031320 METAR ESMX 031320Z 23013KT 6000 -RA SCT012 BKN018 10/09 Q1014=
202011031250 METAR ESMX 031250Z 22010KT 8000 -RA SCT010 BKN018 10/09 Q1014=
202011031220 METAR ESMX 031220Z 22011KT 170V250 9999 BKN020 11/08 Q1013=
202011031150 METAR ESMX 031150Z 23013KT 190V250 9999 BKN020 11/09 Q1013=
202011031120 METAR ESMX 031120Z 22012KT 9999 SCT016 BKN022 11/09 Q1013=
202011031050 METAR ESMX 031050Z 22012KT 9999 FEW017 BKN021 10/08 Q1012=
202011031020 METAR ESMX 031020Z 21012KT 9999 BKN022 09/08 Q1012=
202011030950 METAR ESMX 030950Z 22010KT 9999 FEW022 09/08 Q1012=
202011030920 METAR COR ESMX 030920Z 22011KT 9999 -RA BKN040 08/07 Q1012=
202011030850 METAR ESMX 030850Z 23012KT 9999 -RA FEW021 SCT040 08/07 Q1011=
202011030820 METAR ESMX 030820Z 26011KT 8000 SHRA FEW009 BKN015CB 09/07 Q1011=
202011030750 METAR ESMX 030750Z 20012KT 9999 BKN015 09/08 Q1010=
202011030720 METAR ESMX 030720Z 22007KT 9999 BKN018 08/07 Q1010=
202011030650 METAR ESMX 030650Z AUTO 23009KT 9999 FEW028/// SCT047/// BKN059/// 08/07 Q1010=
202011030620 METAR ESMX 030620Z AUTO 24008KT 210V290 9999 RA FEW008/// BKN037/// BKN051/// 09/08 Q1009=
202011030550 METAR ESMX 030550Z AUTO 22012KT 9999 FEW014/// BKN027/// OVC047/// 09/08 Q1009 REDZ=
202011030520 METAR ESMX 030520Z AUTO 20013KT 9999 -DZ SCT012/// BKN016/// OVC042/// 09/08 Q1008=
202011030450 METAR ESMX 030450Z AUTO 21012KT 9999 FEW011/// SCT029/// 09/08 Q1008=
202011030420 METAR ESMX 030420Z AUTO 21012KT 9999 SCT012/// BKN032/// BKN045/// 09/08 Q1008=
202011030350 METAR ESMX 030350Z AUTO 22009KT 9999 FEW019/// SCT031/// BKN047/// 09/08 Q1007=
202011030320 METAR ESMX 030320Z AUTO 22010KT 9999 FEW014/// SCT049/// 09/08 Q1007=
202011030250 METAR ESMX 030250Z AUTO 22010KT 9999 FEW024/// BKN046/// 09/09 Q1007=
202011030220 METAR ESMX 030220Z AUTO 23010KT 9999 FEW005/// SCT017/// OVC042/// 10/09 Q1006=
202011030150 METAR ESMX 030150Z AUTO 22010KT 9999 FEW019/// OVC041/// 10/09 Q1006=
202011030120 METAR ESMX 030120Z AUTO 22009KT 9999 FEW024/// SCT033/// 09/08 Q1006=
202011030050 METAR ESMX 030050Z AUTO 23010KT 9999 FEW024/// BKN034/// 09/08 Q1005 REDZ=
202011030020 METAR ESMX 030020Z AUTO 23010KT 9999 OVC032/// 10/08 Q1005=
202011022350 METAR ESMX 022350Z AUTO 24010KT 9999 FEW018/// SCT024/// 09/08 Q1005=
202011022320 METAR ESMX 022320Z AUTO 23014G25KT 9999 SCT019/// 10/08 Q1004=
202011022250 METAR ESMX 022250Z AUTO 24012KT 210V280 9999 -RA FEW017/// BKN043/// 11/10 Q1003 RERA=
202011022220 METAR ESMX 022220Z AUTO 22016KT 9999 BKN017/// OVC043/// 12/11 Q1002 REDZ=
202011022150 METAR ESMX 022150Z AUTO 23015G27KT 9999 BKN015/// BKN019/// OVC029/// 13/11 Q1002 REDZ=
202011022120 METAR ESMX 022120Z AUTO 22015KT 9999 SCT015/// BKN022/// BKN046/// 13/12 Q1001=
202011022050 METAR ESMX 022050Z AUTO 20013KT 9999 FEW020/// 14/13 Q1000=
202011022020 METAR ESMX 022020Z AUTO 23011KT 200V270 8000 BR FEW001/// SCT010/// BKN017/// 14/14 Q1000 REDZ=
202011021950 METAR ESMX 021950Z AUTO 21012KT 9999 FEW010/// BKN014/// 14/14 Q1000=
202011021920 METAR ESMX 021920Z AUTO 23014KT 9999 FEW016/// SCT021/// 14/14 Q1000=
202011021850 METAR ESMX 021850Z AUTO 21015KT 6000 +DZ FEW008/// BKN021/// 14/14 Q0999 REDZ=
202011021820 METAR ESMX 021820Z AUTO 20013KT 5000 DZ FEW000/// SCT016/// BKN022/// 14/14 Q0999 REDZ=
202011021750 METAR ESMX 021750Z AUTO 20013KT 9999 NCD 15/14 Q0999=
202011021720 METAR ESMX 021720Z AUTO 20013KT 9999 -DZ FEW013/// 15/15 Q0999 RERA=
202011021650 METAR ESMX 021650Z AUTO 21012KT 9999 +DZ FEW007/// SCT016/// BKN034/// 15/15 Q0999 REDZ RERA RESHRA=
202011021620 METAR ESMX 021620Z AUTO 20014KT 5000 RA VV014 15/15 Q0999=
202011021550 METAR ESMX 021550Z AUTO 20016KT 9999 -RA NCD 15/15 Q0998 RERA=
202011021520 METAR ESMX 021520Z 21013KT 9000 -DZ BKN011 16/15 Q0998=
202011021450 METAR ESMX 021450Z 19016KT 8000 -RA SCT008 BKN013 16/15 Q0998=
202011021420 METAR ESMX 021420Z 19015KT 5000 RADZ BKN013 16/15 Q0998=
202011021350 METAR ESMX 021350Z 19017KT 9999 SCT010 BKN016 16/15 Q0998=
202011021320 METAR ESMX 021320Z 19016KT 6000 -RA BKN011 16/16 Q0998=
202011021250 METAR ESMX 021250Z 19016KT 9999 FEW008 BKN012 16/16 Q0998=
202011021220 METAR ESMX 021220Z 19015KT 9000 FEW007 BKN012 16/16 Q0998=
202011021150 METAR ESMX 021150Z 20015KT 8000 -RA BKN012 16/15 Q0998=
202011021120 METAR ESMX 021120Z 20015KT 5000 -DZ SCT007 BKN013 16/15 Q0998=
202011021050 METAR ESMX 021050Z 19016KT 6000 -DZ BKN012 16/15 Q0998=
202011021020 METAR ESMX 021020Z 21016KT 9999 -RA SCT010 BKN013 16/15 Q0998=
202011020950 METAR ESMX 020950Z 19017KT 6000 -RA BKN005 16/15 Q0998=
202011020920 METAR ESMX 020920Z 18016KT 9000 -RA OVC007 15/15 Q0998=
202011020850 METAR ESMX 020850Z 18014KT 9999 BKN006 15/15 Q0998=
202011020820 METAR ESMX 020820Z 18015KT 9999 -RA OVC005 15/15 Q0999=
202011020750 METAR ESMX 020750Z 18015KT 9000 -RA OVC004 15/15 Q0998=
202011020720 METAR ESMX 020720Z 17013KT 8000 -RA OVC003 14/14 Q0999=
202011020650 METAR ESMX 020650Z AUTO 17013KT 6000 -RA OVC003/// 14/14 Q0999 REDZ=
202011020620 METAR ESMX 020620Z AUTO 17013KT 130V190 4600 BR FEW002/// OVC004/// 14/14 Q0999 REDZ=
202011020550 METAR ESMX 020550Z AUTO 17014KT 6000 BR OVC004/// 14/14 Q0999=
202011020520 METAR ESMX 020520Z AUTO 17012G22KT 8000 BR OVC004/// 13/13 Q0999=
202011020450 METAR ESMX 020450Z AUTO 16012KT 6000 -DZ OVC004/// 13/13 Q1000=
202011020420 METAR ESMX 020420Z AUTO 16010KT 9999 -RA FEW003/// OVC005/// 13/13 Q1000=
202011020350 METAR ESMX 020350Z AUTO 16009KT 9999 -RA OVC004/// 13/13 Q1000 REDZ=
202011020320 METAR ESMX 020320Z AUTO 16010KT 140V200 8000 DZ FEW002/// OVC004/// 13/13 Q1000 REDZ=
202011020250 METAR ESMX 020250Z AUTO 16009KT 7000 -DZ OVC004/// 13/13 Q1001 RERA RESHRA=
202011020220 METAR ESMX 020220Z AUTO 17011KT 5000 +DZ BKN002/// OVC008/// 12/12 Q1001 RERA=
202011020150 METAR ESMX 020150Z AUTO 18011KT 4400 BR OVC002/// 12/12 Q1001=
202011020120 METAR ESMX 020120Z AUTO 16011KT 4600 -RA OVC002/// 12/12 Q1001 REDZ=
202011020050 METAR ESMX 020050Z AUTO 17014KT 5000 DZ OVC002/// 12/12 Q1002 RERA=
202011020020 METAR ESMX 020020Z AUTO 17012KT 6000 BR OVC003/// 12/12 Q1002=
202011012350 METAR ESMX 012350Z AUTO 16012KT 9999 -RA OVC004/// 12/12 Q1002 REDZ=
202011012320 METAR ESMX 012320Z AUTO 16011KT 4800 BR OVC002/// 12/12 Q1002=
202011012250 METAR ESMX 012250Z AUTO 15011KT 120V180 8000 -DZ FEW002/// OVC006/// 12/11 Q1003 REDZ=
202011012220 METAR ESMX 012220Z AUTO 17011KT 9999 SCT004/// OVC006/// 11/11 Q1004 REDZ=
202011012150 METAR ESMX 012150Z AUTO 17010KT 4500 -DZ BKN002/// OVC005/// 11/11 Q1004=
202011012120 METAR ESMX 012120Z AUTO 15009KT 9999 FEW005/// BKN007/// OVC009/// 11/11 Q1005=
202011012050 METAR ESMX 012050Z AUTO 15010KT 9999 BKN008/// OVC010/// 11/10 Q1005=
202011012020 METAR ESMX 012020Z AUTO 17009KT 120V190 9999 BKN009/// OVC014/// 11/10 Q1006=
202011011950 METAR ESMX 011950Z AUTO 17009KT 130V190 9999 SCT008/// BKN025/// OVC062/// 10/10 Q1006=
202011011920 METAR ESMX 011920Z AUTO 16010KT 9999 BKN007/// BKN066/// OVC082/// 10/10 Q1006=
202011011850 METAR ESMX 011850Z AUTO 15007KT 9999 FEW009/// SCT018/// BKN026/// 10/09 Q1006=
202011011820 METAR ESMX 011820Z AUTO 17008KT 9999 SCT008/// OVC078/// 10/10 Q1007=
202011011750 METAR ESMX 011750Z AUTO 17008KT 9999 -DZ OVC008/// 10/10 Q1007=
202011011720 METAR ESMX 011720Z AUTO 16008KT 9999 BKN007/// OVC140/// 10/10 Q1007=
202011011650 METAR ESMX 011650Z AUTO 15009KT 9999 SCT007/// BKN009/// OVC034/// 10/10 Q1007=
202011011620 METAR ESMX 011620Z AUTO 16009KT 9999 SCT010/// OVC170/// 10/10 Q1007=
202011011550 METAR ESMX 011550Z AUTO 16009KT 9999 SCT009/// OVC033/// 10/10 Q1008=
202011011520 METAR ESMX 011520Z AUTO 16006KT 9999 FEW008/// BKN040/// 11/10 Q1008=
202011011450 METAR ESMX 011450Z AUTO 16006KT 9999 FEW044/// 11/10 Q1008=
202011011420 METAR ESMX 011420Z AUTO 17008KT 9999 SCT009/// BKN046/// BKN150/// 12/11 Q1008=
202011011350 METAR ESMX 011350Z AUTO 17009KT 9999 FEW011/// SCT022/// OVC150/// 12/11 Q1008=
202011011320 METAR ESMX 011320Z AUTO 18009KT 9999 SCT008/// BKN010/// OVC013/// 12/11 Q1008=
202011011250 METAR ESMX 011250Z AUTO 18009KT 9999 BKN007/// BKN009/// OVC043/// 12/11 Q1009 REDZ=
202011011220 METAR ESMX 011220Z AUTO 18012KT 9999 SCT005/// BKN009/// BKN015/// 11/11 Q1009 REDZ=
