##########################################################
# Query made at 04/19/2024 22:15:40 UTC
# Time interval: from 08/01/2020 12:00  to 08/31/2020 12:59  UTC
##########################################################

##########################################################
# ESMX, Vaxjo (Sweden)
# WMO index: 02641. WIGOS ID: 0-20000-0-02648
# Latitude 56-51N. Longitude 014-50E. Altitude 199 m.
##########################################################

202008311250 METAR ESMX 311250Z 34009KT 9999 FEW045 16/06 Q1016=
202008311220 METAR ESMX 311220Z 36009KT 9999 FEW035 17/07 Q1015=
202008311150 METAR ESMX 311150Z AUTO 36009KT 330V040 9999 NCD 17/06 Q1015=
202008311120 METAR ESMX 311120Z 01010KT 340V040 9999 FEW035 16/07 Q1015=
202008311050 METAR ESMX 311050Z 01010KT 330V040 9999 FEW038 16/07 Q1015=
202008311020 METAR ESMX 311020Z 35012KT CAVOK 15/06 Q1015=
202008310950 METAR ESMX 310950Z 34010KT 320V030 9999 FEW025 15/09 Q1015=
202008310920 METAR ESMX 310920Z 36010KT 9999 SCT024 15/09 Q1014=
202008310850 METAR ESMX 310850Z 34011KT 9999 SCT020 BKN027 13/09 Q1014=
202008310820 METAR ESMX 310820Z 36010KT 9999 BKN018 12/09 Q1014=
202008310750 METAR ESMX 310750Z 36010KT 9999 BKN017 11/09 Q1014=
202008310720 METAR ESMX 310720Z 36010KT 9999 BKN016 11/08 Q1014=
202008310650 METAR ESMX 310650Z 35009KT 9999 BKN015 11/09 Q1013=
202008310620 METAR ESMX 310620Z 01011KT 9999 BKN016 11/09 Q1013=
202008310550 METAR ESMX 310550Z AUTO 02010KT 9999 OVC017/// 11/08 Q1013=
202008310520 METAR ESMX 310520Z AUTO 01009KT 340V050 9999 BKN014/// OVC018/// 11/09 Q1013=
202008310450 METAR ESMX 310450Z AUTO 35010KT 9999 OVC014/// 10/09 Q1013=
202008310420 METAR ESMX 310420Z AUTO 35009KT 9999 OVC015/// 10/09 Q1013=
202008310350 METAR ESMX 310350Z AUTO 02010KT 9999 BKN009/// OVC012/// 11/10 Q1013=
202008310320 METAR ESMX 310320Z AUTO 02008KT 9999 BKN008/// OVC010/// 10/10 Q1012=
202008310250 METAR ESMX 310250Z AUTO 01008KT 9999 BKN006/// OVC010/// 10/10 Q1012=
202008310220 METAR ESMX 310220Z AUTO 01011KT 9999 BKN005/// OVC007/// 10/10 Q1012=
202008310150 METAR ESMX 310150Z AUTO 01009KT 9999 OVC005/// 11/10 Q1012=
202008310120 METAR ESMX 310120Z AUTO 35009KT 9999 BKN006/// 11/11 Q1011=
202008310050 METAR ESMX 310050Z AUTO 34011KT 9999 FEW007/// 11/11 Q1011=
202008310020 METAR ESMX 310020Z AUTO 34008KT 9999 NCD 12/11 Q1011=
202008302350 METAR ESMX 302350Z AUTO 34007KT 9999 NCD 12/12 Q1011=
202008302320 METAR ESMX 302320Z AUTO 34007KT 9999 NCD 12/12 Q1011=
202008302250 METAR ESMX 302250Z AUTO 34006KT 9999 NCD 11/11 Q1011=
202008302220 METAR ESMX 302220Z AUTO 33004KT 9999 BR NCD 11/11 Q1011=
202008302150 METAR ESMX 302150Z AUTO 33004KT 9999 NCD 11/11 Q1011=
202008302120 METAR ESMX 302120Z AUTO 01003KT 9999 BKN086/// OVC098/// 13/13 Q1011=
202008302050 METAR ESMX 302050Z AUTO 04003KT 9999 -RA FEW059/// BKN072/// 13/13 Q1011=
202008302020 METAR ESMX 302020Z AUTO 36006KT 9999 RA FEW030/// SCT036/// OVC066/// 13/13 Q1011=
202008301950 METAR ESMX 301950Z AUTO 29005KT 240V330 9999 FEW010/// SCT045/// BKN084/// 12/12 Q1011=
202008301920 METAR ESMX 301920Z AUTO 01001KT 9999 NCD 11/11 Q1011=
202008301850 METAR ESMX 301850Z AUTO 01001KT 9999 BR FEW084/// 12/12 Q1011=
202008301820 METAR ESMX 301820Z AUTO 00000KT 9999 SCT084/// 13/12 Q1010=
202008301750 METAR ESMX 301750Z AUTO 01003KT 9999 NCD 15/12 Q1010=
202008301720 METAR ESMX 301720Z AUTO 01005KT 9999 FEW076/// 16/12 Q1010=
202008301650 METAR ESMX 301650Z AUTO 34006KT 9999 SCT030/// OVC064/// 17/12 Q1010=
202008301620 METAR ESMX 301620Z AUTO 30005KT 9999 SCT033/// BKN051/// 18/12 Q1009=
202008301550 METAR ESMX 301550Z AUTO 32004KT 290V360 9999 NCD 18/11 Q1010=
202008301520 METAR ESMX 301520Z AUTO 25003KT 180V290 9999 NCD 18/11 Q1010=
202008301450 METAR ESMX 301450Z AUTO 01003KT 290V050 9999 NCD 18/11 Q1010=
202008301420 METAR ESMX 301420Z AUTO 34003KT 300V050 9999 NCD 18/11 Q1010=
202008301350 METAR ESMX 301350Z AUTO 01005KT 9999 NCD 18/11 Q1010=
202008301320 METAR ESMX 301320Z AUTO VRB03KT 9999 NCD 17/11 Q1010=
202008301250 METAR ESMX 301250Z AUTO 02006KT 9999 NCD 17/12 Q1009=
202008301220 METAR ESMX 301220Z AUTO VRB05KT 9999 NCD 17/12 Q1009=
202008301150 METAR ESMX 301150Z AUTO 02006KT 9999 NCD 16/12 Q1010=
202008301120 METAR ESMX 301120Z AUTO 36007KT 320V030 9999 NCD 15/12 Q1009=
202008301050 METAR ESMX 301050Z AUTO 01008KT 9999 BKN014/// 15/13 Q1009=
202008301020 METAR ESMX 301020Z AUTO 01005KT 330V050 9999 BKN014/// OVC017/// 14/12 Q1009=
202008300950 METAR ESMX 300950Z AUTO 35006KT 9999 BKN008/// OVC009/// 14/12 Q1009=
202008300920 METAR ESMX 300920Z AUTO 35005KT 9999 OVC009/// 13/12 Q1009=
202008300850 METAR ESMX 300850Z AUTO 35005KT 320V020 9999 BKN007/// OVC010/// 13/12 Q1009=
202008300820 METAR ESMX 300820Z AUTO 01005KT 9999 FEW008/// OVC011/// 13/12 Q1008=
202008300750 METAR ESMX 300750Z AUTO 01005KT 9999 SCT007/// BKN009/// OVC013/// 13/12 Q1008=
202008300720 METAR ESMX 300720Z AUTO 34005KT 9999 BKN007/// OVC012/// 13/13 Q1009=
202008300650 METAR ESMX 300650Z AUTO 35005KT 9999 BKN006/// BKN008/// OVC014/// 13/13 Q1008=
202008300620 METAR ESMX 300620Z AUTO 34005KT 9999 BKN006/// OVC014/// 13/13 Q1008=
202008300550 METAR ESMX 300550Z AUTO 33005KT 9999 BKN006/// OVC013/// 12/12 Q1008=
202008300520 METAR ESMX 300520Z AUTO VRB01KT 5000 OVC005/// 12/12 Q1008=
202008300450 METAR ESMX 300450Z AUTO 00000KT 0300 R01/0600N R19/1000U FG OVC004/// 12/12 Q1008=
202008300420 METAR ESMX 300420Z AUTO 23002KT 0250 R01/0600N R19/0800N FG FEW001/// OVC004/// 12/12 Q1007=
202008300350 METAR ESMX 300350Z AUTO 23002KT 0250 R01/0900N R19/1300D FG OVC001/// 12/12 Q1007=
202008300320 METAR ESMX 300320Z AUTO 00000KT 0100 R01/0450N R19/0800N FG BKN001/// OVC003/// 12/12 Q1007=
202008300250 METAR ESMX 300250Z AUTO 23002KT 0150 R01/0650U R19/0600N FG VV002 12/12 Q1007=
202008300220 METAR ESMX 300220Z AUTO 19004KT 0150 R01/0450N R19/0600N FG VV001 12/12 Q1006=
202008300150 METAR ESMX 300150Z AUTO 23004KT 0100 R01/0400N R19/0400N FG BKN001/// OVC004/// 12/12 Q1006=
202008300120 METAR ESMX 300120Z AUTO 00000KT 0100 R01/0350N R19/0350N FG OVC002/// 12/12 Q1006=
202008300050 METAR ESMX 300050Z AUTO 23002KT 0150 R01/0500N R19/0500N FG VV002 12/12 Q1006=
202008300020 METAR ESMX 300020Z AUTO 26003KT 0200 R01/0650N R19/0700D FG OVC001/// 12/12 Q1006=
202008292350 METAR ESMX 292350Z AUTO 23003KT 7000 BR OVC001/// 12/12 Q1006=
202008292320 METAR ESMX 292320Z AUTO 23003KT 5000 BR OVC001/// 11/11 Q1006=
202008292250 METAR ESMX 292250Z AUTO 23003KT 2300 BR OVC001/// 11/11 Q1006=
202008292220 METAR ESMX 292220Z AUTO 23004KT 0550 R01/P2000N R19/P2000D FEW025/// BKN035/// 11/11 Q1006=
202008292150 METAR ESMX 292150Z AUTO 23003KT 0800 R01/P2000N R19/1800N BR BKN001/// OVC035/// 12/12 Q1005=
202008292120 METAR ESMX 292120Z AUTO 23003KT 0250 R01/P2000N R19/0750U BR SCT022/// 11/11 Q1005=
202008292050 METAR ESMX 292050Z AUTO 23004KT 9999 BKN025/// BKN045/// 12/12 Q1005=
202008292020 METAR ESMX 292020Z AUTO 23004KT 9999 SCT029/// 12/12 Q1005=
202008291950 METAR ESMX 291950Z AUTO 24005KT 9999 NCD 12/12 Q1005=
202008291920 METAR ESMX 291920Z AUTO 24004KT 9999 NCD 12/12 Q1004=
202008291850 METAR ESMX 291850Z AUTO 25005KT 9999 NCD 12/12 Q1004=
202008291820 METAR ESMX 291820Z AUTO 23004KT 9999 NCD 13/13 Q1003=
202008291750 METAR ESMX 291750Z AUTO 21004KT 9999 NCD 14/13 Q1003=
202008291720 METAR ESMX 291720Z AUTO 22005KT 9999 SCT070/// BKN160/// 15/14 Q1003 RERA=
202008291650 METAR ESMX 291650Z AUTO 23005KT 9999 BKN066/// BKN180/// 15/14 Q1003=
202008291620 METAR ESMX 291620Z AUTO 23006KT 9999 FEW008/// SCT062/// 15/15 Q1002=
202008291550 METAR ESMX 291550Z AUTO 21006KT 9999 -RA FEW001/// BKN057/// 15/15 Q1002 RERA=
202008291520 METAR ESMX 291520Z AUTO 25006KT 9999 SCT013/// BKN061/// 16/15 Q1002=
202008291450 METAR ESMX 291450Z AUTO 29004KT 9999 -RA FEW043/// OVC074/// 16/15 Q1002=
202008291420 METAR ESMX 291420Z AUTO 21005KT 9999 -DZ FEW049/// BKN072/// 16/14 Q1001 RERA=
202008291350 METAR ESMX 291350Z AUTO 17006KT 9999 -DZ FEW001/// BKN019/// OVC044/// 14/13 Q1001=
202008291320 METAR ESMX 291320Z AUTO 34003KT 9999 -DZ SCT035/// BKN061/// OVC084/// 17/14 Q1001=
202008291250 METAR ESMX 291250Z AUTO 34007KT 9999 FEW061/// SCT074/// BKN094/// 17/13 Q1001=
202008291220 METAR ESMX 291220Z AUTO 35003KT 9999 FEW037/// SCT180/// 18/13 Q1001=
202008291150 METAR ESMX 291150Z AUTO 36005KT 330V040 9999 FEW036/// 18/13 Q1001=
202008291120 METAR ESMX 291120Z AUTO 03006KT 350V060 9999 SCT027/// 18/13 Q1001=
202008291050 METAR ESMX 291050Z AUTO 34003KT 310V050 9999 FEW013/// SCT015/// OVC025/// 17/14 Q1001=
202008291020 METAR ESMX 291020Z AUTO 02005KT 340V040 9999 SCT012/// OVC018/// 17/14 Q1001=
202008290950 METAR ESMX 290950Z AUTO 35005KT 9999 BKN011/// OVC016/// 16/14 Q1001=
202008290920 METAR ESMX 290920Z AUTO 01005KT 340V070 9999 OVC013/// 16/13 Q1001=
202008290850 METAR ESMX 290850Z AUTO 03006KT 9999 BKN010/// OVC013/// 16/14 Q1001=
202008290820 METAR ESMX 290820Z AUTO 04006KT 020V080 9999 BKN009/// OVC013/// 15/13 Q1001=
202008290750 METAR ESMX 290750Z AUTO 04007KT 010V070 9999 OVC009/// 15/14 Q1001=
202008290720 METAR ESMX 290720Z AUTO 04006KT 020V080 9999 OVC008/// 15/14 Q1001=
202008290650 METAR ESMX 290650Z AUTO 04006KT 010V070 9999 OVC008/// 14/13 Q1001=
202008290620 METAR ESMX 290620Z AUTO 04007KT 010V070 9999 OVC008/// 14/14 Q1001=
202008290550 METAR ESMX 290550Z AUTO 06006KT 030V100 9999 OVC007/// 14/13 Q1001=
202008290520 METAR ESMX 290520Z AUTO 03005KT 350V080 9999 OVC007/// 14/13 Q1001=
202008290450 METAR ESMX 290450Z AUTO 05006KT 360V080 9999 OVC007/// 13/13 Q1001=
202008290420 METAR ESMX 290420Z AUTO 05007KT 020V090 9999 OVC008/// 13/13 Q1002=
202008290350 METAR ESMX 290350Z AUTO 05006KT 020V090 9999 OVC008/// 13/13 Q1002=
202008290320 METAR ESMX 290320Z AUTO 06006KT 030V110 9999 BKN008/// OVC053/// 13/13 Q1002=
202008290250 METAR ESMX 290250Z AUTO 07006KT 020V110 9999 FEW008/// SCT030/// OVC049/// 13/13 Q1002=
202008290220 METAR ESMX 290220Z AUTO 07007KT 030V100 9999 FEW002/// SCT007/// BKN032/// 13/13 Q1003 RERA=
202008290150 METAR ESMX 290150Z AUTO 06006KT 030V100 9999 DZ OVC008/// 13/13 Q1003=
202008290120 METAR ESMX 290120Z AUTO 07005KT 9999 BKN008/// BKN009/// OVC053/// 13/13 Q1003=
202008290050 METAR ESMX 290050Z AUTO 06006KT 030V110 9999 FEW008/// BKN051/// OVC070/// 13/13 Q1004=
202008290020 METAR ESMX 290020Z AUTO 05007KT 030V090 9999 FEW008/// SCT012/// BKN041/// 13/13 Q1004=
202008282350 METAR ESMX 282350Z AUTO 05006KT 020V100 9999 SCT016/// BKN045/// OVC074/// 13/13 Q1004=
202008282320 METAR ESMX 282320Z AUTO 08004KT 050V140 9999 DZ SCT008/// BKN037/// OVC066/// 13/12 Q1004=
202008282250 METAR ESMX 282250Z AUTO 08006KT 040V120 9999 -RA SCT008/// OVC070/// 13/13 Q1005 REDZ=
202008282220 METAR ESMX 282220Z AUTO 06006KT 030V110 9999 SCT047/// OVC066/// 13/12 Q1005=
202008282150 METAR ESMX 282150Z AUTO 07006KT 030V120 9999 OVC053/// 13/12 Q1005=
202008282120 METAR ESMX 282120Z AUTO 07005KT 040V110 9999 FEW045/// BKN076/// 13/12 Q1005=
202008282050 METAR ESMX 282050Z AUTO 07006KT 040V110 9999 OVC061/// 13/12 Q1005=
202008282020 METAR ESMX 282020Z AUTO 08005KT 040V120 9999 BKN059/// OVC072/// 13/12 Q1005=
202008281950 METAR ESMX 281950Z AUTO 08005KT 030V140 9999 FEW040/// OVC051/// 14/12 Q1005=
202008281920 METAR ESMX 281920Z AUTO 08005KT 020V110 9999 FEW037/// BKN053/// BKN110/// 13/11 Q1006=
202008281850 METAR ESMX 281850Z AUTO 07004KT 360V110 9999 FEW036/// SCT110/// 13/11 Q1006=
202008281820 METAR ESMX 281820Z AUTO 08004KT 350V140 9999 FEW074/// OVC110/// 13/11 Q1006=
202008281750 METAR ESMX 281750Z AUTO VRB04KT 9999 FEW029/// BKN068/// OVC100/// 14/12 Q1006=
202008281720 METAR ESMX 281720Z AUTO 08005KT 040V120 9999 FEW014/// SCT061/// OVC100/// 14/12 Q1006=
202008281650 METAR ESMX 281650Z AUTO 10005KT 060V220 9999 BKN017/// OVC029/// 14/12 Q1006=
202008281620 METAR ESMX 281620Z AUTO 09005KT 010V170 9999 BKN017/// OVC022/// 14/12 Q1006=
202008281550 METAR ESMX 281550Z AUTO 11006KT 060V140 9999 SCT017/// BKN027/// OVC120/// 14/12 Q1006 RERA=
202008281520 METAR ESMX 281520Z AUTO 09005KT 030V140 9999 SCT016/// BKN027/// BKN051/// 14/12 Q1006=
202008281450 METAR ESMX 281450Z AUTO 09006KT 050V140 9999 SCT014/// OVC032/// 14/12 Q1006=
202008281420 METAR ESMX 281420Z 08006KT 030V120 9999 SCT014 BKN024 13/12 Q1007=
202008281350 METAR ESMX 281350Z 11005KT 030V160 9999 -RA SCT014 BKN021 14/13 Q1007=
202008281320 METAR ESMX 281320Z 11005KT 060V150 9999 -RA SCT015 BKN044 14/12 Q1007=
202008281250 METAR ESMX 281250Z 10006KT 060V150 9999 -RA FEW025 BKN055 14/12 Q1007=
202008281220 METAR ESMX 281220Z 11007KT 060V150 9999 -RA FEW016 BKN049 14/12 Q1008=
202008281150 METAR ESMX 281150Z 11007KT 050V160 9999 -DZ FEW014 SCT028 BKN070 14/12 Q1008=
202008281120 METAR ESMX 281120Z 13006KT 070V160 9999 -RA FEW015 OVC059 14/12 Q1008=
202008281050 METAR ESMX 281050Z 11006KT 070V170 9999 -RA SCT015 BKN053 15/13 Q1008=
202008281020 METAR ESMX 281020Z 14005KT 080V170 9000 -RA SCT021 BKN053 15/12 Q1008=
202008280950 METAR ESMX 280950Z AUTO 12007KT 090V170 9999 -RA SCT034/// BKN082/// 16/11 Q1008=
202008280920 METAR ESMX 280920Z 12006KT 060V160 9999 FEW030 17/10 Q1008=
202008280850 METAR ESMX 280850Z 13006KT 080V170 CAVOK 16/10 Q1008=
202008280820 METAR ESMX 280820Z 11005KT 040V140 CAVOK 16/10 Q1008=
202008280750 METAR ESMX 280750Z 08003KT 040V110 CAVOK 15/12 Q1008=
202008280720 METAR ESMX 280720Z 08004KT 030V100 CAVOK 15/12 Q1008=
202008280650 METAR COR ESMX 280650Z 06004KT 020V090 CAVOK 15/12 Q1008=
202008280620 METAR ESMX 280620Z 05003KT 010V140 CAVOK 14/12 Q1008=
202008280550 METAR ESMX 280550Z AUTO 05003KT 020V090 9999 FEW059/// OVC082/// 14/12 Q1008 REDZ=
202008280520 METAR ESMX 280520Z AUTO 04003KT 9999 DZ OVC078/// 13/12 Q1008=
202008280450 METAR ESMX 280450Z AUTO 19002KT 9999 OVC078/// 12/12 Q1008=
202008280420 METAR ESMX 280420Z AUTO VRB02KT 9999 SCT061/// OVC074/// 12/12 Q1009=
202008280350 METAR ESMX 280350Z AUTO 17003KT 9999 -DZ OVC074/// 12/12 Q1009=
202008280320 METAR ESMX 280320Z AUTO 19003KT 9999 OVC080/// 12/11 Q1009=
202008280250 METAR ESMX 280250Z AUTO 19005KT 9999 BKN090/// 13/12 Q1009=
202008280220 METAR ESMX 280220Z AUTO 18006KT 9999 BKN084/// 13/12 Q1009=
202008280150 METAR ESMX 280150Z AUTO 18005KT 9999 OVC082/// 13/12 Q1010=
202008280120 METAR ESMX 280120Z AUTO 22004KT 9999 SCT082/// BKN098/// OVC130/// 12/12 Q1010=
202008280050 METAR ESMX 280050Z AUTO 24003KT 9999 OVC090/// 12/12 Q1010=
202008280020 METAR ESMX 280020Z AUTO 24003KT 9999 BKN062/// OVC070/// 12/12 Q1010=
202008272350 METAR ESMX 272350Z AUTO 20003KT 9999 FEW066/// OVC090/// 12/11 Q1010=
202008272320 METAR ESMX 272320Z AUTO 24003KT 9999 OVC080/// 12/11 Q1010=
202008272250 METAR ESMX 272250Z AUTO 00000KT 9999 BKN076/// OVC100/// 12/11 Q1010=
202008272220 METAR ESMX 272220Z AUTO 24002KT 9999 OVC076/// 13/11 Q1010=
202008272150 METAR ESMX 272150Z AUTO 25002KT 9999 OVC072/// 13/12 Q1010=
202008272120 METAR ESMX 272120Z AUTO VRB02KT 9999 OVC070/// 14/12 Q1010=
202008272050 METAR ESMX 272050Z AUTO 30004KT 9999 OVC070/// 14/12 Q1010=
202008272020 METAR ESMX 272020Z AUTO 26003KT 9999 OVC074/// 14/12 Q1010=
202008271950 METAR ESMX 271950Z AUTO 29003KT 250V320 9999 OVC068/// 14/12 Q1010=
202008271920 METAR ESMX 271920Z AUTO 28004KT 9999 BKN061/// OVC080/// 15/12 Q1010=
202008271850 METAR ESMX 271850Z AUTO 28004KT 9999 SCT076/// OVC100/// 15/12 Q1010=
202008271820 METAR ESMX 271820Z 27004KT CAVOK 15/12 Q1010=
202008271750 METAR ESMX 271750Z 26004KT CAVOK 16/11 Q1010=
202008271720 METAR ESMX 271720Z 28005KT CAVOK 16/11 Q1010=
202008271650 METAR ESMX 271650Z 28002KT CAVOK 17/12 Q1010=
202008271620 METAR ESMX 271620Z VRB02KT CAVOK 17/11 Q1010=
202008271550 METAR ESMX 271550Z 28003KT CAVOK 17/10 Q1010=
202008271520 METAR ESMX 271520Z 29003KT CAVOK 18/09 Q1010=
202008271450 METAR ESMX 271450Z 34006KT CAVOK 19/06 Q1010=
202008271420 METAR ESMX 271420Z 32004KT 270V010 CAVOK 19/07 Q1010=
202008271350 METAR ESMX 271350Z 35005KT 320V030 CAVOK 20/07 Q1009=
202008271320 METAR ESMX 271320Z 34007KT 280V010 CAVOK 20/07 Q1009=
202008271250 METAR ESMX 271250Z AUTO 36006KT 310V040 9999 NCD 19/06 Q1009=
202008271220 METAR ESMX 271220Z AUTO 36006KT 300V040 9999 NCD 19/05 Q1009=
202008271150 METAR ESMX 271150Z AUTO 33006KT 290V010 9999 NCD 19/08 Q1009=
202008271120 METAR ESMX 271120Z AUTO 01006KT 320V030 9999 NCD 19/07 Q1009=
202008271050 METAR ESMX 271050Z AUTO 35006KT 320V030 9999 NCD 19/08 Q1009=
202008271020 METAR ESMX 271020Z AUTO 01008KT 320V030 9999 NCD 18/08 Q1009=
202008270950 METAR ESMX 270950Z AUTO 36007KT 320V030 9999 NCD 18/09 Q1008=
202008270920 METAR ESMX 270920Z AUTO 36006KT 330V030 9999 NCD 17/09 Q1008=
202008270850 METAR ESMX 270850Z AUTO 01008KT 9999 SCT094/// 16/10 Q1008=
202008270820 METAR ESMX 270820Z AUTO 03008KT 9999 BKN094/// 16/10 Q1008=
202008270750 METAR ESMX 270750Z AUTO 02007KT 340V050 9999 BKN096/// 15/10 Q1007=
202008270720 METAR ESMX 270720Z AUTO 01007KT 9999 OVC098/// 15/10 Q1007=
202008270650 METAR ESMX 270650Z AUTO 01007KT 9999 SCT098/// 15/10 Q1007=
202008270620 METAR ESMX 270620Z AUTO 01007KT 9999 BKN098/// 14/10 Q1006=
202008270550 METAR ESMX 270550Z AUTO 01008KT 9999 FEW084/// SCT140/// 14/10 Q1006=
202008270520 METAR ESMX 270520Z AUTO 35009KT 9999 BKN074/// 14/11 Q1006=
202008270450 METAR ESMX 270450Z AUTO 36007KT 9999 BKN078/// 13/11 Q1005=
202008270420 METAR ESMX 270420Z AUTO 36008KT 9999 BKN062/// 13/11 Q1005=
202008270350 METAR ESMX 270350Z AUTO 35008KT 9999 BKN062/// OVC084/// 13/11 Q1005=
202008270320 METAR ESMX 270320Z AUTO 02008KT 9999 SCT059/// OVC084/// 13/11 Q1004=
202008270250 METAR ESMX 270250Z AUTO 36007KT 9999 BKN057/// OVC082/// 13/12 Q1004=
202008270220 METAR ESMX 270220Z AUTO 35008KT 9999 OVC053/// 13/12 Q1004=
202008270150 METAR ESMX 270150Z AUTO 34008KT 9999 OVC051/// 13/12 Q1004=
202008270120 METAR ESMX 270120Z AUTO 35008KT 9999 SCT051/// OVC084/// 13/12 Q1004=
202008270050 METAR ESMX 270050Z AUTO 02008KT 9999 BKN049/// OVC084/// 14/11 Q1004=
202008270020 METAR ESMX 270020Z AUTO 01007KT 9999 OVC045/// 13/12 Q1003=
202008262350 METAR ESMX 262350Z AUTO 35008KT 9999 OVC041/// 13/12 Q1003=
202008262320 METAR ESMX 262320Z AUTO 35006KT 9999 OVC039/// 13/12 Q1003=
202008262250 METAR ESMX 262250Z AUTO 35006KT 9999 BKN036/// 13/12 Q1003=
202008262220 METAR ESMX 262220Z AUTO 35006KT 9999 NCD 12/12 Q1003=
202008262150 METAR ESMX 262150Z AUTO 36007KT 9999 NCD 12/12 Q1002=
202008262120 METAR ESMX 262120Z AUTO 01006KT 9999 NCD 13/12 Q1002=
202008262050 METAR ESMX 262050Z AUTO 34006KT 9999 NCD 13/12 Q1002=
202008262020 METAR ESMX 262020Z AUTO 35007KT 9999 SCT010/// BKN049/// 14/13 Q1001=
202008261950 METAR ESMX 261950Z AUTO 02006KT 9999 FEW010/// OVC048/// 14/13 Q1001=
202008261920 METAR ESMX 261920Z AUTO 03009KT 9999 BKN010/// BKN014/// OVC025/// 14/13 Q1001=
202008261850 METAR ESMX 261850Z AUTO 03010KT 9999 OVC010/// 14/13 Q1001=
202008261820 METAR ESMX 261820Z AUTO 03008KT 350V060 9999 BKN008/// OVC012/// 15/14 Q1000=
202008261750 METAR ESMX 261750Z AUTO 04006KT 010V070 9999 SCT008/// OVC036/// 15/14 Q1000=
202008261720 METAR ESMX 261720Z AUTO 04009KT 020V080 9999 SCT008/// OVC014/// 15/14 Q0999=
202008261650 METAR ESMX 261650Z AUTO 04006KT 020V090 9999 BKN008/// OVC010/// 15/14 Q0999=
202008261620 METAR ESMX 261620Z AUTO 05007KT 020V080 9999 BKN007/// OVC010/// 16/14 Q0999=
202008261550 METAR ESMX 261550Z AUTO 03007KT 9999 SCT009/// BKN013/// OVC029/// 16/14 Q0999=
202008261520 METAR ESMX 261520Z AUTO 03007KT 360V060 9999 BKN013/// OVC020/// 16/14 Q0999=
202008261450 METAR ESMX 261450Z AUTO 04009KT 010V070 9999 SCT011/// BKN013/// OVC017/// 16/14 Q0998=
202008261420 METAR ESMX 261420Z AUTO 07006KT 010V120 9999 BKN011/// OVC013/// 16/14 Q0998=
202008261350 METAR ESMX 261350Z 06007KT 030V090 9999 BKN009 15/14 Q0998=
202008261320 METAR ESMX 261320Z 06008KT 9999 BKN008 16/14 Q0998=
202008261250 METAR ESMX 261250Z 06007KT 020V100 9999 BKN008 15/14 Q0998=
202008261220 METAR ESMX 261220Z 05006KT 360V100 9999 BKN007 15/14 Q0998=
202008261150 METAR ESMX 261150Z 08005KT 040V120 9999 BKN007 15/14 Q0997=
202008261120 METAR ESMX 261120Z 07005KT 020V110 9999 BKN007 15/15 Q0997=
202008261050 METAR ESMX 261050Z 07007KT 020V110 9999 BKN006 15/14 Q0997=
202008261020 METAR ESMX 261020Z 08007KT 030V110 9999 BKN005 14/14 Q0997=
202008260950 METAR ESMX 260950Z AUTO 09005KT 030V120 9999 OVC004/// 14/14 Q0997=
202008260920 METAR ESMX 260920Z 08004KT 040V140 9999 BKN004 14/13 Q0998=
202008260850 METAR ESMX 260850Z 10004KT 030V140 9999 BKN005 13/13 Q0998=
202008260820 METAR ESMX 260820Z 10004KT 030V170 9999 BKN004 13/13 Q0998=
202008260750 METAR ESMX 260750Z 10005KT 010V160 9000 RA BKN004 13/13 Q0998=
202008260720 METAR ESMX 260720Z 09006KT 050V130 7000 RA BKN004 12/12 Q0998=
202008260650 METAR ESMX 260650Z 08005KT 030V160 8000 -DZ BKN004 12/12 Q0999=
202008260620 METAR ESMX 260620Z AUTO 09006KT 030V150 9999 DZ SCT001/// BKN005/// OVC009/// 12/12 Q0999=
202008260550 METAR ESMX 260550Z AUTO 09005KT 010V140 6000 -RA OVC001/// 12/12 Q0999=
202008260520 METAR ESMX 260520Z AUTO 09004KT 010V130 9999 RA FEW020/// BKN031/// BKN047/// 12/11 Q1000=
202008260450 METAR ESMX 260450Z AUTO 09004KT 020V150 9999 -RA OVC040/// 11/11 Q1000 REDZ=
202008260420 METAR ESMX 260420Z AUTO 08004KT 030V150 9999 -RA BKN043/// OVC053/// 11/10 Q1000 REDZ=
202008260350 METAR ESMX 260350Z AUTO 10003KT 060V130 9999 DZ OVC059/// 10/10 Q1001=
202008260320 METAR ESMX 260320Z AUTO VRB04KT 9999 DZ OVC068/// 10/09 Q1001 REDZ=
202008260250 METAR ESMX 260250Z AUTO 10004KT 030V150 9999 DZ FEW039/// SCT055/// OVC076/// 10/09 Q1002=
202008260220 METAR ESMX 260220Z AUTO 14004KT 100V160 9999 -RA FEW000/// BKN062/// 11/09 Q1002=
202008260150 METAR ESMX 260150Z AUTO 13004KT 9999 RA FEW044/// OVC072/// 11/09 Q1003=
202008260120 METAR ESMX 260120Z AUTO 13004KT 9999 -DZ SCT037/// BKN066/// 12/08 Q1003=
202008260050 METAR ESMX 260050Z AUTO 14004KT 9999 FEW038/// BKN110/// 11/08 Q1004=
202008260020 METAR ESMX 260020Z AUTO 20003KT 9999 SCT041/// BKN110/// 10/08 Q1004=
202008252350 METAR ESMX 252350Z AUTO 20003KT 9999 FEW120/// 10/08 Q1005=
202008252320 METAR ESMX 252320Z AUTO 23003KT 9999 NCD 10/09 Q1005=
202008252250 METAR ESMX 252250Z AUTO 23003KT 9999 OVC130/// 09/08 Q1005=
202008252220 METAR ESMX 252220Z AUTO 23003KT 9999 OVC140/// 09/08 Q1006=
202008252150 METAR ESMX 252150Z AUTO 17003KT 9999 FEW140/// 09/08 Q1006=
202008252120 METAR ESMX 252120Z AUTO 23003KT 9999 NCD 09/07 Q1007=
202008252050 METAR ESMX 252050Z AUTO 23004KT 9999 NCD 09/07 Q1007=
202008252020 METAR ESMX 252020Z AUTO 23003KT 9999 NCD 11/07 Q1007=
202008251950 METAR ESMX 251950Z AUTO 23004KT 9999 NCD 11/08 Q1007=
202008251920 METAR ESMX 251920Z AUTO 23004KT 9999 NCD 11/08 Q1007=
202008251850 METAR ESMX 251850Z AUTO 23004KT 9999 NCD 11/08 Q1007=
202008251820 METAR ESMX 251820Z AUTO 23005KT 9999 NCD 12/07 Q1007=
202008251750 METAR ESMX 251750Z AUTO 24004KT 9999 FEW210/// 12/08 Q1007=
202008251720 METAR ESMX 251720Z AUTO 24004KT 9999 BKN210/// 13/07 Q1007=
202008251650 METAR ESMX 251650Z AUTO 26006KT 9999 NCD 14/06 Q1007=
202008251620 METAR ESMX 251620Z AUTO 25006KT 9999 NCD 16/06 Q1008=
202008251550 METAR ESMX 251550Z AUTO 26009KT 9999 NCD 16/05 Q1008=
202008251520 METAR ESMX 251520Z AUTO 27010KT 230V290 9999 NCD 17/06 Q1008=
202008251450 METAR ESMX 251450Z AUTO 25010KT 220V280 9999 SCT051/// 18/07 Q1008=
202008251420 METAR ESMX 251420Z AUTO 25010KT 220V280 9999 FEW048/// SCT059/// 18/08 Q1008=
202008251350 METAR ESMX 251350Z 26010KT 230V290 CAVOK 18/07 Q1008=
202008251320 METAR ESMX 251320Z 27009KT 240V300 CAVOK 17/07 Q1008=
202008251220 METAR ESMX 251220Z 24012KT 9999 FEW046 SCT061 18/07 Q1008=
202008251050 METAR ESMX 201050Z 25008KT 210V300 CAVOK 17/08 Q1009=
202008251020 METAR ESMX 251020Z 27009KT 210V310 9999 FEW041 BKN057 16/07 Q1009=
202008250920 METAR ESMX 250920Z 24007KT 210V320 9999 FEW039 BKN055 16/07 Q1009=
202008250850 METAR ESMX 250850Z 22008KT 180V310 9999 SCT030 BKN051 15/08 Q1009=
202008250820 METAR ESMX 250820Z 25008KT 9999 SCT026 BKN061 15/09 Q1009=
202008242150 METAR ESMX 242150Z AUTO 22004KT 9999 NCD 08/08 Q1009=
202008242120 METAR ESMX 242120Z AUTO 22004KT 9999 NCD 08/08 Q1009=
202008242050 METAR ESMX 242050Z AUTO 22004KT 9999 NCD 09/08 Q1009=
202008242020 METAR ESMX 242020Z AUTO 22005KT 9999 BKN061/// 10/09 Q1009=
202008241950 METAR ESMX 241950Z AUTO 23004KT 9999 FEW059/// 10/08 Q1009=
202008241920 METAR ESMX 241920Z AUTO 22006KT 9999 FEW220/// 11/08 Q1009=
202008241850 METAR ESMX 241850Z AUTO 22005KT 9999 SCT220/// 11/08 Q1009=
202008241820 METAR ESMX 241820Z 22005KT CAVOK 12/09 Q1009=
202008241750 METAR ESMX 241750Z 22005KT CAVOK 13/09 Q1009=
202008241720 METAR ESMX 241720Z 25006KT CAVOK 14/08 Q1009=
202008241650 METAR ESMX 241650Z AUTO 23007KT 200V260 9999 SCT064/// 15/09 Q1008=
202008241620 METAR ESMX 241620Z AUTO 22010KT 190V250 9999 FEW068/// 15/09 Q1009=
202008241550 METAR ESMX 241550Z AUTO 23010KT 9999 SCT059/// 16/08 Q1009=
202008241520 METAR ESMX 241520Z 26010KT 230V290 CAVOK 17/07 Q1008=
202008241450 METAR ESMX 241450Z 26010KT 9999 SCT045 17/07 Q1008=
202008241420 METAR ESMX 241420Z 23010KT 200V290 9999 SCT044 17/07 Q1008=
202008241350 METAR ESMX 241350Z 24012KT 210V280 9999 BKN045 17/07 Q1008=
202008241320 METAR ESMX 241320Z 25012KT 210V290 9999 SCT046 18/08 Q1008=
202008241250 METAR ESMX 241250Z 26011KT 9999 BKN043 17/07 Q1008=
202008241220 METAR ESMX 241220Z 26010KT 220V290 9999 FEW032 SCT050 18/09 Q1008=
202008241150 METAR ESMX 241150Z 24009KT 210V280 9999 SCT034 BKN055 16/10 Q1008=
202008241120 METAR ESMX 241120Z 23011KT CAVOK 17/10 Q1008=
202008241050 METAR COR ESMX 241050Z 24009KT 210V270 9999 FEW032 BKN049 15/09 Q1008=
202008241020 METAR COR ESMX 241020Z 25010KT 9999 SCT030 BKN045 15/09 Q1008=
202008240950 METAR ESMX 240950Z 26010KT 230V290 9999 SCT032 15/10 Q1008=
202008240920 METAR ESMX 240920Z 25011KT 220V290 9999 SCT035 15/09 Q1008=
202008240850 METAR ESMX 240850Z 27009KT 9999 FEW035 15/09 Q1008=
202008240820 METAR ESMX 240820Z 26010KT 230V290 CAVOK 15/09 Q1008=
202008240750 METAR ESMX 240750Z 25011KT CAVOK 15/09 Q1008=
202008240720 METAR ESMX 240720Z 26010KT 240V300 CAVOK 15/09 Q1008=
202008240650 METAR ESMX 240650Z 25009KT 220V280 CAVOK 14/10 Q1007=
202008240620 METAR ESMX 240620Z 24007KT CAVOK 13/11 Q1007=
202008240550 METAR ESMX 240550Z AUTO 24007KT 9999 NCD 13/11 Q1007=
202008240520 METAR ESMX 240520Z AUTO 23006KT 9999 FEW130/// 12/12 Q1007=
202008240450 METAR ESMX 240450Z AUTO 23007KT 9999 NCD 12/11 Q1007=
202008240420 METAR ESMX 240420Z AUTO 22008KT 9999 NCD 12/11 Q1006=
202008240350 METAR ESMX 240350Z AUTO 22008KT 9999 NCD 12/11 Q1006=
202008240320 METAR ESMX 240320Z AUTO 22007KT 9999 NCD 12/11 Q1006=
202008240250 METAR ESMX 240250Z AUTO 22007KT 9999 NCD 12/11 Q1006=
202008240220 METAR ESMX 240220Z AUTO 20007KT 9999 NCD 12/12 Q1007=
202008240150 METAR ESMX 240150Z AUTO 20006KT 9999 NCD 12/12 Q1007=
202008240120 METAR ESMX 240120Z AUTO 23006KT 9999 FEW021/// 12/12 Q1007=
202008240050 METAR ESMX 240050Z AUTO 21007KT 9999 FEW014/// BKN024/// OVC036/// 13/12 Q1007=
202008240020 METAR ESMX 240020Z AUTO 22007KT 9999 FEW029/// 12/12 Q1006=
202008232350 METAR ESMX 232350Z AUTO 22007KT 9999 NCD 13/12 Q1007=
202008232320 METAR ESMX 232320Z AUTO 22007KT 9999 NCD 13/13 Q1006=
202008232250 METAR ESMX 232250Z AUTO 23007KT 9999 FEW024/// 13/13 Q1006 REDZ=
202008232220 METAR ESMX 232220Z AUTO 22007KT 9999 FEW027/// SCT038/// BKN049/// 13/13 Q1006=
202008232150 METAR ESMX 232150Z AUTO 22006KT 9999 FEW025/// 13/13 Q1006=
202008232120 METAR ESMX 232120Z AUTO 20007KT 9999 NCD 13/13 Q1006=
202008232050 METAR ESMX 232050Z AUTO 22006KT 9999 NCD 13/13 Q1006=
202008232020 METAR ESMX 232020Z AUTO 21007KT 9999 NCD 14/14 Q1006=
202008231950 METAR ESMX 231950Z AUTO 20007KT 9999 NCD 14/14 Q1007=
202008231920 METAR ESMX 231920Z AUTO 22007KT 9999 NCD 14/13 Q1006=
202008231850 METAR ESMX 231850Z AUTO 21007KT 9999 FEW088/// 14/14 Q1006=
202008231820 METAR ESMX 231820Z AUTO 22007KT 9999 NCD 15/14 Q1006=
202008231750 METAR ESMX 231750Z AUTO 22007KT 9999 NCD 15/14 Q1006=
202008231720 METAR ESMX 231720Z AUTO 21008KT 9999 SCT025/// 16/14 Q1006=
202008231650 METAR ESMX 231650Z AUTO 22008KT 9999 FEW029/// 16/14 Q1006=
202008231620 METAR ESMX 231620Z AUTO 28005KT 240V320 9999 FEW014/// SCT039/// BKN070/// 16/14 Q1006=
202008231550 METAR ESMX 231550Z AUTO 22009KT 9999 FEW017/// SCT027/// BKN061/// 17/15 Q1006=
202008231520 METAR ESMX 231520Z AUTO 23009KT 9999 NCD 17/15 Q1006=
202008231450 METAR ESMX 231450Z AUTO 21009KT 190V250 9999 FEW066/// 17/14 Q1006=
202008231420 METAR ESMX 231420Z AUTO 24010KT 9999 -RA SCT020/// BKN062/// BKN180/// 16/14 Q1006=
202008231350 METAR ESMX 231350Z AUTO 21010KT 9999 FEW080/// SCT190/// 18/15 Q1006=
202008231320 METAR ESMX 231320Z AUTO 20008KT 9999 FEW110/// 16/14 Q1006=
202008231250 METAR ESMX 231250Z AUTO 22011KT 9999 -RA SCT020/// BKN084/// 17/14 Q1006 RERA=
202008231220 METAR ESMX 231220Z AUTO 22009KT 190V250 9999 FEW200/// 18/15 Q1006=
202008231150 METAR ESMX 231150Z AUTO 21006KT 9999 -RA BKN070/// 15/14 Q1006=
202008231120 METAR ESMX 231120Z AUTO 24008KT 200V280 9999 RA FEW001/// SCT014/// OVC066/// 15/14 Q1006 RERA=
202008231050 METAR ESMX 231050Z AUTO 29008KT 260V330 5000 +RA SCT001/// BKN020/// OVC047/// 15/14 Q1006=
202008231020 METAR ESMX 231020Z AUTO 27004KT 240V320 9999 FEW023/// SCT080/// 18/15 Q1006=
202008230950 METAR ESMX 230950Z AUTO 23009KT 9999 SCT001/// BKN025/// BKN048/// 18/15 Q1006=
202008230920 METAR ESMX 230920Z AUTO 20009KT 9999 FEW021/// 17/15 Q1006 RERA=
202008230850 METAR ESMX 230850Z AUTO 19011KT 9999 FEW074/// 18/15 Q1006=
202008230820 METAR ESMX 230820Z AUTO 21012KT 9999 RA FEW019/// SCT029/// BKN035/// 18/14 Q1006=
202008230750 METAR ESMX 230750Z AUTO 21012KT 180V250 9999 SCT019/// BKN094/// 18/14 Q1006=
202008230720 METAR ESMX 230720Z AUTO 20011KT 170V240 9999 FEW014/// SCT020/// OVC088/// 18/14 Q1006=
202008230650 METAR ESMX 230650Z AUTO 20009KT 9999 BKN012/// 17/15 Q1006=
202008230620 METAR ESMX 230620Z AUTO 22010KT 9999 BKN010/// BKN013/// 16/15 Q1006=
202008230550 METAR ESMX 230550Z AUTO 21008KT 9999 BKN009/// 15/15 Q1006=
202008230520 METAR ESMX 230520Z AUTO 21008KT 9999 BKN007/// OVC009/// 15/14 Q1007=
202008230450 METAR ESMX 230450Z AUTO 19008KT 9999 BKN007/// 14/14 Q1007=
202008230420 METAR ESMX 230420Z AUTO 20008KT 9999 SCT007/// BKN150/// 13/13 Q1007=
202008230350 METAR ESMX 230350Z AUTO 20007KT 9999 FEW010/// SCT150/// 13/13 Q1007=
202008230320 METAR ESMX 230320Z AUTO 19008KT 9999 FEW028/// SCT040/// 13/13 Q1007=
202008230250 METAR ESMX 230250Z AUTO 18008KT 9999 FEW034/// BKN043/// 14/14 Q1007=
202008230220 METAR ESMX 230220Z AUTO 17007KT 9999 FEW022/// 14/13 Q1007=
202008230150 METAR ESMX 230150Z AUTO 19006KT 9999 NCD 14/14 Q1007=
202008230120 METAR ESMX 230120Z AUTO 17006KT 9999 NCD 14/14 Q1007=
202008230050 METAR ESMX 230050Z AUTO 19005KT 9999 FEW036/// 14/13 Q1008=
202008230020 METAR ESMX 230020Z AUTO 19006KT 9999 FEW030/// SCT040/// 15/14 Q1008=
202008222350 METAR ESMX 222350Z AUTO 18007KT 9999 FEW086/// 14/14 Q1008=
202008222320 METAR ESMX 222320Z AUTO 17007KT 9999 NCD 15/14 Q1008=
202008222250 METAR ESMX 222250Z AUTO 19006KT 9999 FEW051/// 15/14 Q1008=
202008222220 METAR ESMX 222220Z AUTO 19005KT 9999 FEW023/// SCT039/// 15/14 Q1008=
202008222150 METAR ESMX 222150Z AUTO 19008KT 9999 NCD 15/14 Q1008=
202008222120 METAR ESMX 222120Z AUTO 19007KT 9999 NCD 16/14 Q1008=
202008222050 METAR ESMX 222050Z AUTO 19008KT 9999 NCD 16/14 Q1008=
202008222020 METAR ESMX 222020Z AUTO 21007KT 9999 NCD 16/14 Q1008=
202008221950 METAR ESMX 221950Z AUTO 18006KT 9999 NCD 16/15 Q1008=
202008221920 METAR ESMX 221920Z AUTO 21006KT 9999 NCD 16/15 Q1008=
202008221850 METAR ESMX 221850Z AUTO 20008KT 9999 NCD 17/15 Q1008=
202008221820 METAR ESMX 221820Z AUTO 19008KT 9999 SCT035/// 18/15 Q1008=
202008221750 METAR ESMX 221750Z AUTO 19010KT 9999 BKN036/// BKN120/// 19/15 Q1008=
202008221720 METAR ESMX 221720Z AUTO 22008KT 9999 SCT110/// 21/14 Q1007=
202008221650 METAR ESMX 221650Z AUTO 23011KT 200V270 9999 NCD 21/13 Q1007=
202008221620 METAR ESMX 221620Z AUTO 22009KT 180V280 9999 NCD 22/15 Q1007=
202008221550 METAR ESMX 221550Z AUTO 21012KT 9999 NCD 21/15 Q1008=
202008221520 METAR ESMX 221520Z AUTO 21010KT 9999 FEW086/// 21/15 Q1008=
202008221450 METAR ESMX 221450Z AUTO 22012KT 9999 -RA SCT047/// BKN096/// BKN150/// 21/15 Q1008=
202008221420 METAR ESMX 221420Z AUTO 22012KT 9999 SCT055/// 23/14 Q1008=
202008221350 METAR ESMX 221350Z AUTO 21013KT 170V250 9999 FEW049/// SCT062/// 23/14 Q1008=
202008221320 METAR ESMX 221320Z AUTO 23014KT 9999 FEW045/// 23/14 Q1008=
202008221250 METAR ESMX 221250Z AUTO 24012KT 200V260 9999 FEW043/// 23/15 Q1008=
202008221220 METAR ESMX 221220Z AUTO 21012KT 180V240 9999 FEW190/// 23/15 Q1008=
202008221150 METAR ESMX 221150Z AUTO 22012KT 9999 FEW041/// 24/15 Q1008=
202008221120 METAR ESMX 221120Z AUTO 22010KT 9999 FEW035/// 23/16 Q1008=
202008221050 METAR ESMX 221050Z AUTO 22011KT 9999 NCD 23/15 Q1009=
202008221020 METAR ESMX 221020Z AUTO 23010KT 200V260 9999 FEW150/// 23/15 Q1009=
202008220950 METAR ESMX 220950Z AUTO 21012KT 9999 FEW090/// 22/16 Q1009=
202008220920 METAR ESMX 220920Z AUTO 21009KT 180V250 9999 NCD 22/16 Q1009=
202008220850 METAR ESMX 220850Z AUTO 21010KT 9999 FEW190/// 21/17 Q1009=
202008220820 METAR ESMX 220820Z AUTO 20009KT 9999 FEW160/// 20/17 Q1009=
202008220750 METAR ESMX 220750Z AUTO 19008KT 9999 FEW094/// 20/18 Q1009=
202008220720 METAR ESMX 220720Z AUTO 19007KT 9999 FEW062/// BKN088/// 19/18 Q1009=
202008220650 METAR ESMX 220650Z AUTO 18005KT 9999 FEW061/// BKN090/// 19/17 Q1009=
202008220620 METAR ESMX 220620Z AUTO 18005KT 9999 BKN059/// BKN100/// 19/17 Q1009=
202008220550 METAR ESMX 220550Z AUTO 15005KT 9999 SCT055/// BKN068/// 18/17 Q1009=
202008220520 METAR ESMX 220520Z AUTO 17004KT 9999 SCT049/// BKN076/// 18/18 Q1009=
202008220450 METAR ESMX 220450Z AUTO 15005KT 110V170 7000 -RA BKN059/// 18/18 Q1009 RERA=
202008220420 METAR ESMX 220420Z AUTO 16004KT 6000 -RA SCT051/// BKN068/// OVC094/// 18/18 Q1010=
202008220350 METAR ESMX 220350Z AUTO 15005KT 6000 BR BKN048/// 18/18 Q1009=
202008220320 METAR ESMX 220320Z AUTO 16004KT 4900 BR NCD 17/17 Q1009=
202008220250 METAR ESMX 220250Z AUTO 15004KT 5000 BR FEW100/// SCT120/// 18/18 Q1009=
202008220220 METAR ESMX 220220Z AUTO 16003KT 2600 BR FEW100/// SCT170/// 18/18 Q1010=
202008220150 METAR ESMX 220150Z AUTO 16003KT 4200 BR FEW170/// 18/18 Q1010=
202008220120 METAR ESMX 220120Z AUTO 14004KT 4600 BR SCT098/// BKN130/// 18/18 Q1010=
202008220050 METAR ESMX 220050Z AUTO 17003KT 5000 BR BKN170/// 17/17 Q1010=
202008220020 METAR ESMX 220020Z AUTO 17004KT 9000 BR SCT190/// 18/18 Q1010=
202008212350 METAR ESMX 212350Z AUTO 16004KT 9999 BKN066/// BKN084/// 18/18 Q1011=
202008212320 METAR ESMX 212320Z AUTO 15005KT 9999 FEW076/// 18/18 Q1011=
202008212250 METAR ESMX 212250Z AUTO 13003KT 090V170 9999 BKN110/// 18/18 Q1011=
202008212220 METAR ESMX 212220Z AUTO 18003KT 110V190 9999 OVC064/// 19/18 Q1011=
202008212150 METAR ESMX 212150Z AUTO 15004KT 9999 BKN061/// OVC076/// 19/17 Q1011=
202008212120 METAR ESMX 212120Z AUTO 18004KT 9999 BKN061/// OVC120/// 18/18 Q1011=
202008212050 METAR ESMX 212050Z AUTO 16006KT 9999 SCT110/// 19/17 Q1011=
202008212020 METAR ESMX 212020Z AUTO 15005KT 9999 SCT070/// 19/17 Q1011=
202008211950 METAR ESMX 211950Z AUTO 14007KT 9999 SCT076/// 19/17 Q1010=
202008211920 METAR ESMX 211920Z AUTO 15006KT 9999 FEW098/// 19/18 Q1011=
202008211850 METAR ESMX 211850Z AUTO 14007KT 9999 FEW076/// 20/18 Q1011=
202008211820 METAR ESMX 211820Z AUTO 15006KT 9999 NCD 20/18 Q1011=
202008211750 METAR ESMX 211750Z AUTO 15007KT 9999 NCD 21/18 Q1011=
202008211720 METAR ESMX 211720Z AUTO 15008KT 9999 NCD 21/18 Q1011=
202008211650 METAR ESMX 211650Z AUTO 14006KT 100V180 9999 SCT100/// BKN210/// 22/19 Q1011=
202008211620 METAR ESMX 211620Z AUTO 15005KT 110V170 9999 BKN100/// 21/19 Q1011=
202008211550 METAR ESMX 211550Z AUTO 14003KT 9999 -RA FEW000/// BKN098/// 21/19 Q1011 REDZ=
202008211520 METAR ESMX 211520Z AUTO 15004KT 110V170 9999 -RA FEW000/// SCT076/// 21/19 Q1011=
202008211450 METAR ESMX 211450Z AUTO 16005KT 9999 -RA BKN080/// OVC094/// 21/18 Q1012=
202008211420 METAR ESMX 211420Z 14007KT 110V180 CAVOK 22/17 Q1011=
202008211350 METAR ESMX 211350Z 13007KT 080V160 CAVOK 22/17 Q1011=
202008211320 METAR ESMX 211320Z 13007KT 100V160 CAVOK 22/16 Q1012=
202008211250 METAR ESMX 211250Z 16006KT CAVOK 22/16 Q1012=
202008211220 METAR ESMX 211220Z 15007KT 110V190 CAVOK 22/16 Q1012=
202008211150 METAR ESMX 211150Z 16007KT CAVOK 22/16 Q1012=
202008211120 METAR ESMX 211120Z 16009KT 140V200 CAVOK 22/16 Q1013=
202008211050 METAR ESMX 211050Z 15009KT 110V170 CAVOK 23/16 Q1012=
202008211020 METAR ESMX 211020Z 15005KT 100V170 CAVOK 23/17 Q1012=
202008210950 METAR ESMX 210950Z AUTO 14007KT 080V170 9999 BKN150/// 22/16 Q1012=
202008210920 METAR ESMX 210920Z 15008KT 110V190 CAVOK 23/16 Q1012=
202008210850 METAR ESMX 210850Z 14007KT 080V170 CAVOK 21/16 Q1012=
202008210820 METAR ESMX 210820Z 13007KT 080V180 CAVOK 21/16 Q1012=
202008210750 METAR ESMX 210750Z 14006KT 100V170 CAVOK 20/17 Q1012=
202008210720 METAR ESMX 210720Z 11005KT 050V150 CAVOK 20/17 Q1013=
202008210650 METAR ESMX 210650Z 13006KT 080V160 CAVOK 19/17 Q1013=
202008210620 METAR ESMX 210620Z 13005KT 070V170 9999 FEW035 18/17 Q1013=
202008210550 METAR ESMX 210550Z AUTO 13004KT 090V210 9999 OVC034/// 18/17 Q1013=
202008210520 METAR ESMX 210520Z AUTO 12005KT 070V170 9999 OVC031/// 17/16 Q1013=
202008210450 METAR ESMX 210450Z AUTO 13004KT 9999 OVC031/// 17/16 Q1013=
202008210420 METAR ESMX 210420Z AUTO 12004KT 080V140 9999 OVC029/// 16/16 Q1013=
202008210350 METAR ESMX 210350Z AUTO 13003KT 9999 FEW013/// OVC029/// 16/16 Q1013=
202008210320 METAR ESMX 210320Z AUTO VRB02KT 9999 -RA FEW007/// SCT016/// BKN029/// 16/16 Q1013 REDZ=
202008210250 METAR ESMX 210250Z AUTO 14002KT 9999 OVC028/// 16/16 Q1013=
202008210220 METAR ESMX 210220Z AUTO VRB03KT 9999 OVC028/// 16/16 Q1013=
202008210150 METAR ESMX 210150Z AUTO VRB03KT 9999 FEW009/// OVC026/// 16/16 Q1013 REDZ=
202008210120 METAR ESMX 210120Z AUTO VRB02KT 9999 OVC027/// 16/16 Q1013=
202008210050 METAR ESMX 210050Z AUTO 10003KT 070V160 9999 OVC027/// 16/16 Q1013=
202008210020 METAR ESMX 210020Z AUTO 13003KT 9999 OVC030/// 16/16 Q1013=
202008202350 METAR ESMX 202350Z AUTO VRB03KT 9999 OVC034/// 16/16 Q1013=
202008202320 METAR ESMX 202320Z AUTO 12003KT 080V170 9999 -RA FEW026/// BKN043/// OVC051/// 16/16 Q1014 RERA REDZ=
202008202250 METAR ESMX 202250Z AUTO 16005KT 7000 +DZ FEW034/// OVC055/// 16/16 Q1013=
202008202220 METAR ESMX 202220Z AUTO 16005KT 7000 -RA FEW049/// OVC062/// 16/16 Q1013 REDZ=
202008202150 METAR ESMX 202150Z AUTO 21004KT 8000 -RA BKN051/// OVC074/// 16/16 Q1013 REDZ=
202008202120 METAR ESMX 202120Z AUTO 18005KT 9999 DZ FEW061/// OVC080/// 17/16 Q1013=
202008202050 METAR ESMX 202050Z AUTO 17004KT 9999 OVC088/// 17/15 Q1013=
202008202020 METAR ESMX 202020Z AUTO 20004KT 9999 SCT098/// 17/16 Q1013 REDZ=
202008201950 METAR ESMX 201950Z AUTO 00000KT 9999 -DZ FEW000/// SCT078/// 17/17 Q1013=
202008201920 METAR ESMX 201920Z AUTO 19003KT 9999 -RA FEW000/// SCT084/// 18/17 Q1013=
202008201850 METAR ESMX 201850Z AUTO 17004KT 9999 -RA FEW000/// 19/17 Q1013=
202008201820 METAR ESMX 201820Z AUTO 18005KT 9999 -RA FEW078/// 19/16 Q1013=
202008201750 METAR ESMX 201750Z 16006KT 9999 -DZ SCT080 20/17 Q1012=
202008201720 METAR ESMX 201720Z 17006KT 9999 DZ FEW080 SCT100 20/17 Q1012=
202008201650 METAR ESMX 201650Z 18008KT 9999 -DZ FEW060 BKN080 21/17 Q1012=
202008201620 METAR ESMX 201620Z 16005KT 130V200 9999 FEW048 BKN080 22/16 Q1012=
202008201550 METAR ESMX 201550Z 17004KT 9999 SCT041 BKN140 22/15 Q1012=
202008201520 METAR ESMX 201520Z 18004KT CAVOK 23/15 Q1012=
202008201450 METAR ESMX 201450Z 17005KT 9999 FEW038 OVC170 23/15 Q1012=
202008201420 METAR ESMX 201420Z 17007KT CAVOK 23/15 Q1012=
202008201350 METAR ESMX 201350Z 18005KT 9999 FEW030 BKN180 23/15 Q1012=
202008201320 METAR COR ESMX 201320Z 19005KT 9999 FEW031 BKN180 23/16 Q1012=
202008201250 METAR ESMX 201250Z AUTO 18005KT 9999 SCT032/// OVC180/// 23/16 Q1012=
202008201220 METAR ESMX 201220Z AUTO 18007KT 150V230 9999 FEW033/// SCT120/// OVC180/// 22/16 Q1012=
202008201150 METAR ESMX 201150Z AUTO 19009KT 9999 FEW032/// BKN130/// 22/15 Q1012=
202008201120 METAR ESMX 201120Z AUTO 17004KT 110V230 9999 OVC120/// 22/15 Q1012=
202008201050 METAR ESMX 201050Z AUTO 17004KT 9999 BKN120/// 22/15 Q1012=
202008201020 METAR ESMX 201020Z AUTO 17005KT 9999 BKN130/// 22/15 Q1012=
202008200950 METAR ESMX 200950Z AUTO 15004KT 110V180 9999 FEW020/// BKN190/// 21/16 Q1012=
202008200920 METAR ESMX 200920Z AUTO VRB03KT 9999 FEW150/// SCT200/// 21/17 Q1012=
202008200850 METAR ESMX 200850Z AUTO 19003KT 9999 FEW170/// 20/17 Q1011=
202008200820 METAR ESMX 200820Z AUTO 19002KT 9999 FEW150/// 20/17 Q1011=
202008200750 METAR ESMX 200750Z AUTO VRB02KT 9999 FEW160/// 19/17 Q1011=
202008200720 METAR ESMX 200720Z AUTO 20002KT 9999 FEW170/// SCT200/// 18/17 Q1011=
202008200650 METAR ESMX 200650Z AUTO 20002KT 9999 BKN160/// 18/17 Q1011=
202008200620 METAR ESMX 200620Z AUTO 00000KT 9999 FEW160/// 17/17 Q1011=
202008200550 METAR ESMX 200550Z AUTO 00000KT 9999 FEW190/// 16/16 Q1010=
202008200520 METAR ESMX 200520Z AUTO 00000KT 9999 FEW170/// 14/14 Q1011=
202008200450 METAR ESMX 200450Z AUTO 00000KT 9999 FEW180/// 13/13 Q1010=
202008200420 METAR ESMX 200420Z AUTO 00000KT 1300 R01/P2000N R19/1400N BCFG NCD 10/10 Q1011=
202008200350 METAR ESMX 200350Z AUTO 18001KT 0350 R01/P2000N R19/0450N BCFG NCD 11/11 Q1010=
202008200320 METAR ESMX 200320Z AUTO 00000KT 0200 R01/P2000D R19/P2000N BCFG NCD 09/09 Q1010=
202008200250 METAR ESMX 200250Z AUTO 00000KT 9999 BCFG NCD 10/10 Q1010=
202008200220 METAR ESMX 200220Z AUTO 16002KT 9999 BCFG NCD 10/10 Q1010=
202008200150 METAR ESMX 200150Z AUTO 00000KT 9999 BCFG NCD 10/10 Q1011=
202008200120 METAR ESMX 200120Z AUTO 17001KT 9999 NCD 11/11 Q1010=
202008200050 METAR ESMX 200050Z AUTO 23002KT 0450 R01/P2000N R19/P2000N BCFG NCD 11/11 Q1010=
202008200020 METAR ESMX 200020Z AUTO 19002KT 9999 NCD 10/10 Q1010=
202008192350 METAR ESMX 192350Z AUTO 00000KT 9999 NCD 11/11 Q1010=
202008192320 METAR ESMX 192320Z AUTO 19002KT 9999 NCD 11/11 Q1010=
202008192250 METAR ESMX 192250Z AUTO 17003KT 9999 NCD 12/12 Q1010=
202008192220 METAR ESMX 192220Z AUTO 18002KT 9999 NCD 12/12 Q1010=
202008192150 METAR ESMX 192150Z AUTO 00000KT 9999 NCD 12/11 Q1010=
202008192120 METAR ESMX 192120Z AUTO 00000KT 9999 NCD 12/12 Q1010=
202008192050 METAR ESMX 192050Z AUTO 00000KT 9999 NCD 13/13 Q1010=
202008192020 METAR ESMX 192020Z AUTO 00000KT 9999 NCD 13/12 Q1010=
202008191950 METAR ESMX 191950Z AUTO 00000KT 9999 NCD 15/14 Q1010=
202008191920 METAR ESMX 191920Z AUTO 20002KT 9999 -RA FEW098/// 16/14 Q1010=
202008191850 METAR ESMX 191850Z AUTO 23001KT 9999 -RA NCD 17/15 Q1010=
202008191820 METAR ESMX 191820Z AUTO 23003KT 9999 NCD 17/15 Q1010=
202008191750 METAR ESMX 191750Z AUTO 26002KT 9999 NCD 19/15 Q1010=
202008191720 METAR ESMX 191720Z AUTO VRB02KT 9999 FEW160/// 20/14 Q1010=
202008191650 METAR ESMX 191650Z AUTO 28006KT 9999 FEW150/// 20/15 Q1010=
202008191620 METAR ESMX 191620Z AUTO 26008KT 9999 FEW150/// 21/14 Q1010=
202008191550 METAR ESMX 191550Z AUTO 25009KT 230V290 9999 FEW170/// 22/16 Q1010=
202008191520 METAR ESMX 191520Z AUTO 24013KT 9999 SCT190/// 23/16 Q1010=
202008191450 METAR ESMX 191450Z AUTO 24010KT 200V280 9999 FEW047/// SCT066/// 24/14 Q1010=
202008191420 METAR ESMX 191420Z AUTO 22010KT 200V260 9999 SCT053/// BKN068/// 24/15 Q1009=
202008191350 METAR ESMX 191350Z 21009KT CAVOK 26/13 Q1009=
202008191320 METAR ESMX 191320Z 20008KT 170V230 CAVOK 25/14 Q1009=
202008191250 METAR ESMX 191250Z 23008KT 190V260 CAVOK 25/14 Q1009=
202008191220 METAR ESMX 191220Z 20007KT CAVOK 26/15 Q1009=
202008191150 METAR ESMX 191150Z 16006KT 120V210 CAVOK 26/13 Q1010=
202008191120 METAR ESMX 191120Z 16007KT 120V190 CAVOK 26/14 Q1010=
202008191050 METAR ESMX 191050Z 17005KT 120V200 CAVOK 25/14 Q1010=
202008191020 METAR ESMX 191020Z 15006KT 120V190 CAVOK 25/14 Q1010=
202008190950 METAR ESMX 190950Z AUTO 13005KT 080V190 9999 R01///// R19///// NCD 24/16 Q1010=
202008190920 METAR ESMX 190920Z 14007KT CAVOK 23/16 Q1010=
202008190850 METAR ESMX 190850Z 16005KT 110V200 CAVOK 23/17 Q1010=
202008190820 METAR ESMX 190820Z 22005KT 190V260 CAVOK 23/16 Q1010=
202008190750 METAR ESMX 190750Z 21005KT CAVOK 21/17 Q1010=
202008190720 METAR ESMX 190720Z 19004KT CAVOK 19/18 Q1010=
202008190650 METAR ESMX 190650Z 19004KT 9999 FEW005 19/18 Q1010=
202008190620 METAR ESMX 190620Z AUTO 18003KT 9999 NCD 19/18 Q1010=
202008190550 METAR ESMX 190550Z AUTO 16003KT 9999 NCD 18/18 Q1010=
202008190520 METAR ESMX 190520Z AUTO 00000KT 8000 FEW100/// 16/16 Q1010=
202008190450 METAR ESMX 190450Z AUTO 00000KT 5000 BKN100/// 14/14 Q1010=
202008190420 METAR ESMX 190420Z AUTO 00000KT 1000 R01/0900U R19/P2000N BCFG BKN003/// 13/13 Q1010=
202008190350 METAR ESMX 190350Z AUTO 00000KT 9999 BCFG FEW002/// 13/13 Q1009=
202008190320 METAR ESMX 190320Z AUTO 00000KT 1200 R01/P2000N R19/P2000N BCFG SCT120/// 13/13 Q1009=
202008190250 METAR ESMX 190250Z AUTO 16003KT 0350 R01/P2000D R19/P2000N BCFG BKN120/// 14/14 Q1010=
202008190220 METAR ESMX 190220Z AUTO 16002KT 0400 R01/P2000N R19/P2000D BKN120/// 14/14 Q1010=
202008190150 METAR ESMX 190150Z AUTO 16002KT 0300 R01/P2000D R19/P2000N BCFG FEW003/// 12/12 Q1010=
202008190120 METAR ESMX 190120Z AUTO 16003KT 0450 R01/P2000N R19/P2000N BCFG BKN120/// 15/15 Q1010=
202008190050 METAR ESMX 190050Z AUTO 16002KT 9999 BCFG FEW120/// 12/12 Q1010=
202008190020 METAR ESMX 190020Z AUTO 00000KT 0200 R01/P2000N R19/P2000N FG NCD 12/12 Q1010=
202008182350 METAR ESMX 182350Z AUTO 16002KT 9999 NCD 13/13 Q1010=
202008182320 METAR ESMX 182320Z AUTO 16003KT 9999 NCD 14/14 Q1010=
202008182250 METAR ESMX 182250Z AUTO 16003KT 9999 NCD 15/14 Q1010=
202008182220 METAR ESMX 182220Z AUTO 16003KT 9999 NCD 15/14 Q1010=
202008182150 METAR ESMX 182150Z AUTO 18004KT 9999 NCD 18/15 Q1010=
202008182120 METAR ESMX 182120Z AUTO 20003KT 9999 BKN120/// 16/15 Q1010=
202008182050 METAR ESMX 182050Z AUTO 19004KT 9999 FEW120/// 18/15 Q1010=
202008182020 METAR ESMX 182020Z AUTO 19003KT 9999 FEW120/// 17/15 Q1009=
202008181950 METAR ESMX 181950Z AUTO 19003KT 9999 FEW100/// 19/16 Q1009=
202008181920 METAR ESMX 181920Z AUTO 18003KT 9999 OVC100/// 20/15 Q1009=
202008181850 METAR ESMX 181850Z AUTO 19006KT 9999 BKN094/// BKN120/// 20/15 Q1009=
202008181820 METAR ESMX 181820Z AUTO 16006KT 9999 OVC088/// 22/15 Q1009=
202008181750 METAR ESMX 181750Z AUTO 16005KT 9999 FEW086/// SCT098/// 23/14 Q1009=
202008181720 METAR ESMX 181720Z AUTO 15006KT 9999 FEW098/// SCT130/// 23/14 Q1009=
202008181650 METAR ESMX 181650Z AUTO 15004KT 9999 SCT086/// BKN130/// 23/14 Q1008=
202008181620 METAR ESMX 181620Z AUTO 15004KT 9999 SCT084/// 23/14 Q1009=
202008181550 METAR ESMX 181550Z AUTO 15005KT 9999 FEW130/// 24/13 Q1009=
202008181520 METAR ESMX 181520Z AUTO 16007KT 9999 BKN130/// 24/13 Q1009=
202008181450 METAR ESMX 181450Z AUTO 16005KT 9999 FEW090/// SCT130/// 23/13 Q1009=
202008181420 METAR ESMX 181420Z AUTO 17010KT 9999 NCD 23/13 Q1009=
202008181350 METAR ESMX 181350Z 17006KT CAVOK 27/14 Q1009=
202008181320 METAR ESMX 181320Z VRB03KT CAVOK 26/11 Q1009=
202008181250 METAR ESMX 181250Z 19003KT CAVOK 27/11 Q1009=
202008181220 METAR ESMX 181220Z 18004KT 140V210 CAVOK 27/12 Q1009=
202008181150 METAR ESMX 181150Z 20004KT 160V250 CAVOK 27/13 Q1010=
202008181120 METAR ESMX 181120Z 19005KT CAVOK 26/13 Q1010=
202008181050 METAR ESMX 181050Z 17004KT CAVOK 26/13 Q1010=
202008181020 METAR ESMX 181020Z AUTO 14004KT 090V180 9999 NCD 26/14 Q1010=
202008180950 METAR ESMX 180950Z 08004KT 030V140 CAVOK 25/13 Q1010=
202008180920 METAR ESMX 180920Z 16005KT CAVOK 25/14 Q1010=
202008180850 METAR ESMX 180850Z 14004KT 090V200 CAVOK 24/14 Q1010=
202008180820 METAR ESMX 180820Z 15004KT 110V190 CAVOK 23/15 Q1010=
202008180750 METAR ESMX 180750Z VRB02KT CAVOK 22/17 Q1010=
202008180720 METAR ESMX 180720Z 06003KT CAVOK 21/17 Q1010=
202008180650 METAR ESMX 180650Z 11002KT CAVOK 22/16 Q1010=
202008180620 METAR ESMX 180620Z AUTO VRB02KT 9999 NCD 20/16 Q1010=
202008180550 METAR ESMX 180550Z AUTO 11004KT 070V140 9999 NCD 18/17 Q1010=
202008180520 METAR ESMX 180520Z AUTO VRB03KT 9999 NCD 17/17 Q1011=
202008180450 METAR ESMX 180450Z AUTO 11003KT 9999 NCD 15/15 Q1011=
202008180420 METAR ESMX 180420Z AUTO VRB01KT 7000 BCFG NCD 12/12 Q1011=
202008180350 METAR ESMX 180350Z AUTO 15002KT 9999 NCD 15/15 Q1011=
202008180320 METAR ESMX 180320Z AUTO 15002KT 9000 BCFG NCD 15/15 Q1011=
202008180250 METAR ESMX 180250Z AUTO 00000KT 9999 NCD 14/14 Q1011=
202008180220 METAR ESMX 180220Z AUTO VRB02KT 9999 NCD 16/16 Q1011=
202008180150 METAR ESMX 180150Z AUTO 09003KT 060V140 9999 NCD 17/16 Q1012=
202008180120 METAR ESMX 180120Z AUTO VRB02KT 9999 FEW120/// 16/16 Q1012=
202008180050 METAR ESMX 180050Z AUTO 14002KT 9999 FEW098/// BKN110/// 16/15 Q1012=
202008180020 METAR ESMX 180020Z AUTO 14002KT 9999 SCT098/// BKN120/// 17/16 Q1012=
202008172350 METAR ESMX 172350Z AUTO VRB01KT 9999 FEW098/// OVC110/// 17/15 Q1012=
202008172320 METAR ESMX 172320Z AUTO VRB03KT 9999 FEW100/// BKN110/// 18/15 Q1012=
202008172250 METAR ESMX 172250Z AUTO 11003KT 070V140 9999 FEW098/// BKN110/// 18/15 Q1012=
202008172220 METAR ESMX 172220Z AUTO VRB03KT 9999 FEW098/// SCT110/// 17/15 Q1012=
202008172150 METAR ESMX 172150Z AUTO 17003KT 9999 SCT096/// BKN120/// 18/16 Q1012=
202008172120 METAR ESMX 172120Z AUTO 00000KT 9999 FEW100/// BKN120/// 18/16 Q1012=
202008172050 METAR ESMX 172050Z AUTO 00000KT 9999 BKN070/// OVC120/// 20/16 Q1012=
202008172020 METAR ESMX 172020Z AUTO 17003KT 9999 BKN070/// OVC110/// 21/16 Q1012=
202008171950 METAR ESMX 171950Z AUTO 16004KT 9999 SCT066/// OVC078/// 23/16 Q1012=
202008171920 METAR ESMX 171920Z AUTO 14004KT 9999 SCT066/// OVC090/// 22/17 Q1012=
202008171850 METAR ESMX 171850Z AUTO 15004KT 9999 BKN084/// OVC098/// 21/16 Q1012=
202008171820 METAR ESMX 171820Z AUTO 14004KT 9999 BKN088/// 22/16 Q1012=
202008171750 METAR ESMX 171750Z AUTO 14004KT 9999 BKN090/// 22/16 Q1012=
202008171720 METAR ESMX 171720Z AUTO 14004KT 9999 BKN086/// 23/15 Q1012=
202008171650 METAR ESMX 171650Z AUTO 14004KT 110V170 9999 BKN090/// OVC100/// 23/15 Q1012=
202008171620 METAR ESMX 171620Z AUTO 15007KT 9999 FEW070/// BKN084/// OVC098/// 24/15 Q1012=
202008171550 METAR ESMX 171550Z AUTO 13007KT 100V170 9999 SCT074/// BKN098/// 24/14 Q1012=
202008171520 METAR ESMX 171520Z AUTO 10002KT 9999 BKN072/// 26/15 Q1012=
202008171450 METAR ESMX 171450Z AUTO 07003KT 030V110 9999 OVC110/// 25/14 Q1012=
202008171420 METAR ESMX 171420Z 03004KT 350V080 CAVOK 26/13 Q1012=
202008171350 METAR ESMX 171350Z 07006KT 030V110 CAVOK 27/14 Q1013=
202008171320 METAR ESMX 171320Z 35004KT 330V030 CAVOK 28/14 Q1013=
202008171250 METAR ESMX 171250Z VRB02KT CAVOK 28/14 Q1013=
202008171220 METAR ESMX 171220Z 02004KT 330V050 CAVOK 27/14 Q1013=
202008171150 METAR ESMX 171150Z 35006KT 320V040 CAVOK 27/15 Q1013=
202008171120 METAR ESMX 171120Z 18004KT CAVOK 27/16 Q1013=
202008171050 METAR ESMX 171050Z 36003KT 300V060 CAVOK 27/17 Q1014=
202008171020 METAR COR ESMX 171020Z 36004KT 320V060 CAVOK 27/17 Q1014=
202008170950 METAR ESMX 170950Z VRB03KT CAVOK 26/16 Q1014=
202008170920 METAR ESMX 170920Z VRB03KT CAVOK 25/17 Q1014=
202008170850 METAR ESMX 170850Z 01004KT 350V080 CAVOK 26/16 Q1014=
202008170820 METAR ESMX 170820Z 17003KT CAVOK 25/14 Q1014=
202008170750 METAR ESMX 170750Z 17002KT CAVOK 25/17 Q1014=
202008170720 METAR ESMX 170720Z 00000KT CAVOK 24/16 Q1014=
202008170650 METAR ESMX 170650Z 17002KT CAVOK 22/17 Q1014=
202008170620 METAR ESMX 170620Z 00000KT CAVOK 22/17 Q1014=
202008170550 METAR ESMX 170550Z 00000KT CAVOK 20/18 Q1014=
202008170520 METAR ESMX 170520Z AUTO 00000KT 9999 NCD 18/18 Q1014=
202008170450 METAR ESMX 170450Z AUTO 19003KT 8000 BR NCD 17/17 Q1014=
202008170420 METAR ESMX 170420Z AUTO VRB02KT 8000 BR NCD 16/16 Q1014=
202008170350 METAR ESMX 170350Z AUTO 00000KT 9999 SCT094/// 14/14 Q1014=
202008170320 METAR ESMX 170320Z AUTO 04002KT 9999 BKN094/// 14/13 Q1014=
202008170250 METAR ESMX 170250Z AUTO 00000KT 9999 BKN092/// 14/13 Q1015=
202008170220 METAR ESMX 170220Z AUTO 00000KT 9999 OVC092/// 13/12 Q1015=
202008170150 METAR ESMX 170150Z AUTO 00000KT 9999 SCT092/// 13/13 Q1015=
202008170120 METAR ESMX 170120Z AUTO 00000KT 9999 SCT090/// 13/13 Q1015=
202008170050 METAR ESMX 170050Z AUTO 18002KT 9999 FEW090/// 14/13 Q1015=
202008170020 METAR ESMX 170020Z AUTO 00000KT 9999 NCD 14/13 Q1015=
202008162350 METAR ESMX 162350Z AUTO 00000KT 9999 NCD 14/13 Q1015=
202008162320 METAR ESMX 162320Z AUTO 23002KT 9999 NCD 15/14 Q1015=
202008162250 METAR ESMX 162250Z AUTO 00000KT 9999 NCD 15/14 Q1015=
202008162220 METAR ESMX 162220Z AUTO 23005KT 9999 NCD 18/14 Q1015=
202008162150 METAR ESMX 162150Z AUTO 22004KT 9999 NCD 18/14 Q1015=
202008162120 METAR ESMX 162120Z AUTO 22005KT 9999 NCD 19/15 Q1015=
202008162050 METAR ESMX 162050Z AUTO 21005KT 9999 NCD 19/15 Q1015=
202008162020 METAR ESMX 162020Z AUTO 21006KT 9999 NCD 19/15 Q1015=
202008161950 METAR ESMX 161950Z AUTO 20004KT 9999 NCD 17/14 Q1015=
202008161920 METAR ESMX 161920Z AUTO 18002KT 9999 -RA NCD 19/15 Q1015=
202008161850 METAR ESMX 161850Z AUTO 18002KT 9999 NCD 19/16 Q1015=
202008161820 METAR ESMX 161820Z AUTO 00000KT 9999 NCD 22/17 Q1015=
202008161750 METAR ESMX 161750Z AUTO 00000KT 9999 NCD 24/17 Q1015=
202008161720 METAR ESMX 161720Z AUTO 29002KT 9999 NCD 27/15 Q1015=
202008161650 METAR ESMX 161650Z AUTO 30004KT 270V340 9999 NCD 27/14 Q1015=
202008161620 METAR ESMX 161620Z AUTO 31005KT 9999 NCD 28/14 Q1015=
202008161550 METAR ESMX 161550Z AUTO 33005KT 290V010 9999 NCD 28/13 Q1015=
202008161520 METAR ESMX 161520Z AUTO 30006KT 260V330 9999 FEW066/// 28/14 Q1016=
202008161450 METAR ESMX 161450Z AUTO 33004KT 280V040 9999 FEW066/// 29/14 Q1016=
202008161420 METAR ESMX 161420Z AUTO 28005KT 240V330 9999 FEW066/// 28/14 Q1016=
202008161350 METAR ESMX 161350Z AUTO 26006KT 9999 BKN064/// 27/14 Q1016=
202008161320 METAR ESMX 161320Z AUTO 26004KT 210V300 9999 FEW064/// 27/15 Q1016=
202008161250 METAR ESMX 161250Z AUTO 26007KT 230V290 9999 SCT064/// 28/14 Q1016=
202008161220 METAR ESMX 161220Z AUTO 26007KT 9999 BKN059/// 28/14 Q1016=
202008161150 METAR ESMX 161150Z AUTO 24005KT 210V290 9999 NCD 27/14 Q1017=
202008161120 METAR ESMX 161120Z AUTO 22006KT 9999 FEW055/// 27/14 Q1017=
202008161050 METAR ESMX 161050Z AUTO 24005KT 200V320 9999 NCD 27/15 Q1017=
202008161020 METAR ESMX 161020Z AUTO 23005KT 190V280 9999 NCD 27/16 Q1017=
202008160950 METAR ESMX 160950Z AUTO 30004KT 250V010 9999 NCD 27/15 Q1017=
202008160920 METAR ESMX 160920Z AUTO 28003KT 230V010 9999 NCD 26/15 Q1017=
202008160850 METAR ESMX 160850Z AUTO 29004KT 260V340 9999 NCD 26/17 Q1018=
202008160820 METAR ESMX 160820Z AUTO VRB02KT 9999 NCD 25/16 Q1017=
202008160750 METAR ESMX 160750Z AUTO 21002KT 9999 NCD 24/17 Q1017=
202008160720 METAR ESMX 160720Z AUTO 21002KT 9999 NCD 23/17 Q1017=
202008160650 METAR ESMX 160650Z AUTO 21002KT 9999 NCD 22/16 Q1017=
202008160620 METAR ESMX 160620Z AUTO 21002KT 9999 NCD 20/16 Q1017=
202008160550 METAR ESMX 160550Z AUTO 00000KT 9999 NCD 19/16 Q1017=
202008160520 METAR ESMX 160520Z AUTO 21002KT 9999 NCD 15/15 Q1017=
202008160450 METAR ESMX 160450Z AUTO 21001KT 9999 NCD 12/12 Q1017=
202008160420 METAR ESMX 160420Z AUTO 18002KT 9999 NCD 11/11 Q1017=
202008160350 METAR ESMX 160350Z AUTO 18003KT 9999 NCD 11/10 Q1017=
202008160320 METAR ESMX 160320Z AUTO 18001KT 9999 NCD 11/10 Q1017=
202008160250 METAR ESMX 160250Z AUTO 00000KT 9999 NCD 11/11 Q1017=
202008160220 METAR ESMX 160220Z AUTO 17002KT 9999 NCD 12/12 Q1017=
202008160150 METAR ESMX 160150Z AUTO 18002KT 9999 NCD 12/12 Q1017=
202008160120 METAR ESMX 160120Z AUTO 00000KT 9999 NCD 12/11 Q1017=
202008160050 METAR ESMX 160050Z AUTO 16001KT 9999 NCD 14/13 Q1017=
202008160020 METAR ESMX 160020Z AUTO 21003KT 9999 NCD 14/13 Q1017=
202008152350 METAR ESMX 152350Z AUTO 21004KT 9999 NCD 17/12 Q1017=
202008152320 METAR ESMX 152320Z AUTO 21005KT 9999 NCD 16/12 Q1017=
202008152250 METAR ESMX 152250Z AUTO 21006KT 9999 NCD 17/13 Q1017=
202008152220 METAR ESMX 152220Z AUTO 20005KT 9999 NCD 17/13 Q1017=
202008152150 METAR ESMX 152150Z AUTO 20005KT 9999 NCD 18/13 Q1017=
202008152120 METAR ESMX 152120Z AUTO 20004KT 9999 NCD 18/13 Q1017=
202008152050 METAR ESMX 152050Z AUTO 20006KT 9999 NCD 18/14 Q1017=
202008152020 METAR ESMX 152020Z AUTO 19006KT 9999 NCD 19/14 Q1017=
202008151950 METAR ESMX 151950Z AUTO 19006KT 9999 NCD 19/14 Q1017=
202008151920 METAR ESMX 151920Z AUTO 19004KT 9999 -RA NCD 21/15 Q1017=
202008151850 METAR ESMX 151850Z AUTO 19003KT 9999 NCD 20/15 Q1016=
202008151820 METAR ESMX 151820Z AUTO 18004KT 9999 NCD 24/14 Q1016=
202008151750 METAR ESMX 151750Z AUTO 19004KT 9999 NCD 25/15 Q1016=
202008151720 METAR ESMX 151720Z AUTO 20005KT 9999 NCD 26/15 Q1016=
202008151650 METAR ESMX 151650Z AUTO 20004KT 9999 NCD 27/15 Q1016=
202008151620 METAR ESMX 151620Z AUTO 22004KT 9999 NCD 27/14 Q1016=
202008151550 METAR ESMX 151550Z AUTO 21003KT 9999 FEW062/// 28/14 Q1016=
202008151520 METAR ESMX 151520Z AUTO 22004KT 200V280 9999 NCD 28/14 Q1016=
202008151450 METAR ESMX 151450Z AUTO 24003KT 220V340 9999 NCD 28/14 Q1016=
202008151420 METAR ESMX 151420Z AUTO 23006KT 200V270 9999 NCD 28/14 Q1016=
202008151350 METAR ESMX 151350Z AUTO 23007KT 9999 NCD 28/14 Q1017=
202008151320 METAR ESMX 151320Z AUTO 20006KT 160V240 9999 NCD 28/15 Q1017=
202008151250 METAR ESMX 151250Z AUTO 21007KT 160V230 9999 NCD 27/14 Q1017=
202008151220 METAR ESMX 151220Z AUTO 23008KT 170V260 9999 NCD 27/14 Q1017=
202008151150 METAR ESMX 151150Z AUTO 19006KT 150V250 9999 NCD 27/12 Q1017=
202008151120 METAR ESMX 151120Z AUTO 16007KT 130V220 9999 NCD 27/14 Q1017=
202008151050 METAR ESMX 151050Z AUTO 16007KT 120V200 9999 NCD 26/13 Q1017=
202008151020 METAR ESMX 151020Z AUTO VRB04KT 9999 NCD 26/13 Q1017=
202008150950 METAR ESMX 150950Z AUTO 17004KT 130V210 9999 NCD 26/14 Q1017=
202008150920 METAR ESMX 150920Z AUTO 14003KT 9999 NCD 25/13 Q1017=
202008150850 METAR ESMX 150850Z AUTO 14002KT 9999 NCD 24/13 Q1017=
202008150820 METAR ESMX 150820Z AUTO VRB03KT 9999 NCD 24/14 Q1017=
202008150750 METAR ESMX 150750Z AUTO 35003KT 320V030 9999 NCD 22/17 Q1017=
202008150720 METAR ESMX 150720Z AUTO 36003KT 330V040 9999 NCD 21/16 Q1017=
202008150650 METAR ESMX 150650Z AUTO VRB03KT 9999 NCD 20/16 Q1017=
202008150620 METAR ESMX 150620Z AUTO 35003KT 9999 NCD 19/17 Q1016=
202008150550 METAR ESMX 150550Z AUTO 36003KT 9999 NCD 18/17 Q1016=
202008150520 METAR ESMX 150520Z AUTO 36003KT 9999 NCD 15/15 Q1016=
202008150450 METAR ESMX 150450Z AUTO 00000KT 5000 FEW003/// 11/11 Q1016=
202008150420 METAR ESMX 150420Z AUTO 18002KT 9999 NCD 10/10 Q1016=
202008150350 METAR ESMX 150350Z AUTO 00000KT 9999 NCD 10/10 Q1016=
202008150320 METAR ESMX 150320Z AUTO 19001KT 9999 NCD 09/09 Q1016=
202008150250 METAR ESMX 150250Z AUTO 18002KT 9999 NCD 11/11 Q1016=
202008150220 METAR ESMX 150220Z AUTO 17002KT 9999 NCD 11/11 Q1016=
202008150150 METAR ESMX 150150Z AUTO 17002KT 9999 NCD 11/11 Q1016=
202008150120 METAR ESMX 150120Z AUTO 17002KT 9999 NCD 12/11 Q1016=
202008150050 METAR ESMX 150050Z AUTO 20002KT 9999 NCD 11/11 Q1016=
202008150020 METAR ESMX 150020Z AUTO 20002KT 9999 NCD 12/11 Q1016=
202008142350 METAR ESMX 142350Z AUTO 16002KT 9999 NCD 13/12 Q1016=
202008142320 METAR ESMX 142320Z AUTO 18002KT 9999 NCD 12/12 Q1016=
202008142250 METAR ESMX 142250Z AUTO 00000KT 9999 NCD 13/11 Q1016=
202008142220 METAR ESMX 142220Z AUTO 00000KT 9999 NCD 13/12 Q1016=
202008142150 METAR ESMX 142150Z AUTO 17002KT 9999 NCD 14/12 Q1016=
202008142120 METAR ESMX 142120Z AUTO 18004KT 9999 NCD 15/13 Q1016=
202008142050 METAR ESMX 142050Z AUTO 18004KT 9999 NCD 18/13 Q1016=
202008142020 METAR ESMX 142020Z AUTO 18005KT 9999 NCD 17/12 Q1015=
202008141950 METAR ESMX 141950Z AUTO 18005KT 9999 NCD 21/12 Q1015=
202008141920 METAR ESMX 141920Z AUTO 18006KT 9999 NCD 21/12 Q1015=
202008141850 METAR ESMX 141850Z AUTO 19006KT 9999 NCD 19/12 Q1015=
202008141820 METAR ESMX 141820Z AUTO 17005KT 9999 NCD 23/11 Q1014=
202008141750 METAR ESMX 141750Z AUTO 19004KT 9999 NCD 24/11 Q1014=
202008141720 METAR ESMX 141720Z AUTO 18007KT 9999 NCD 25/12 Q1014=
202008141650 METAR ESMX 141650Z AUTO 20007KT 9999 NCD 25/13 Q1014=
202008141620 METAR ESMX 141620Z AUTO 22005KT 9999 NCD 26/13 Q1014=
202008141550 METAR ESMX 141550Z AUTO 21003KT 9999 NCD 27/13 Q1014=
202008141520 METAR ESMX 141520Z AUTO 18004KT 9999 NCD 27/14 Q1014=
202008141450 METAR ESMX 141450Z AUTO 21005KT 190V260 9999 NCD 27/15 Q1014=
202008141420 METAR ESMX 141420Z AUTO 19003KT 9999 NCD 27/14 Q1014=
202008141350 METAR ESMX 141350Z 18005KT CAVOK 26/15 Q1014=
202008141320 METAR ESMX 141320Z 18005KT 140V210 CAVOK 26/14 Q1015=
202008141250 METAR ESMX 141250Z 23004KT 190V250 CAVOK 26/14 Q1015=
202008141220 METAR ESMX 141220Z 16005KT 120V210 CAVOK 27/15 Q1015=
202008141150 METAR ESMX 141150Z 15005KT 110V200 CAVOK 26/14 Q1015=
202008141120 METAR ESMX 141120Z 16004KT 100V220 CAVOK 27/15 Q1015=
202008141050 METAR ESMX 141050Z 14003KT 100V170 CAVOK 27/15 Q1015=
202008141020 METAR ESMX 141020Z AUTO 14004KT 110V170 9999 NCD 26/15 Q1015=
202008140950 METAR ESMX 140950Z AUTO 15003KT 9999 SCT150/// 25/15 Q1015=
202008140920 METAR ESMX 140920Z 15003KT 110V210 CAVOK 24/15 Q1016=
202008140850 METAR ESMX 140850Z 14003KT 080V190 CAVOK 25/16 Q1016=
202008140820 METAR ESMX 140820Z 21003KT CAVOK 24/16 Q1016=
202008140750 METAR ESMX 140750Z VRB02KT CAVOK 23/16 Q1016=
202008140720 METAR ESMX 140720Z 21003KT CAVOK 21/16 Q1016=
202008140650 METAR ESMX 140650Z 21002KT CAVOK 20/15 Q1016=
202008140620 METAR ESMX 140620Z 21001KT CAVOK 20/16 Q1016=
202008140550 METAR ESMX 140550Z AUTO 00000KT 9999 NCD 20/16 Q1016=
202008140520 METAR ESMX 140520Z AUTO 00000KT 9999 NCD 15/14 Q1016=
202008140450 METAR ESMX 140450Z AUTO 19002KT 9999 NCD 12/12 Q1016=
202008140420 METAR ESMX 140420Z AUTO 00000KT 9999 NCD 11/11 Q1016=
202008140350 METAR ESMX 140350Z AUTO 00000KT 9999 FEW160/// 11/11 Q1016=
202008140320 METAR ESMX 140320Z AUTO 00000KT 9999 FEW170/// 11/11 Q1016=
202008140250 METAR ESMX 140250Z AUTO 00000KT 9999 FEW170/// 12/11 Q1016=
202008140220 METAR ESMX 140220Z AUTO 21002KT 9999 FEW180/// 12/12 Q1016=
202008140150 METAR ESMX 140150Z AUTO 18001KT 9999 NCD 13/13 Q1016=
202008140120 METAR ESMX 140120Z AUTO 21003KT 9999 NCD 14/12 Q1016=
202008140050 METAR ESMX 140050Z AUTO 21004KT 9999 FEW160/// 13/13 Q1016=
202008140020 METAR ESMX 140020Z AUTO 17003KT 9999 NCD 14/13 Q1017=
202008132350 METAR ESMX 132350Z AUTO 21002KT 9999 NCD 13/13 Q1017=
202008132320 METAR ESMX 132320Z AUTO 21002KT 9999 NCD 15/14 Q1017=
202008132250 METAR ESMX 132250Z AUTO 21002KT 9999 NCD 15/14 Q1017=
202008132220 METAR ESMX 132220Z AUTO 21003KT 9999 NCD 17/15 Q1017=
202008132150 METAR ESMX 132150Z AUTO 21004KT 9999 NCD 17/15 Q1017=
202008132120 METAR ESMX 132120Z AUTO 21005KT 9999 NCD 17/15 Q1017=
202008132050 METAR ESMX 132050Z AUTO 21006KT 9999 NCD 18/15 Q1016=
202008132020 METAR ESMX 132020Z AUTO 24003KT 9999 NCD 17/16 Q1016=
202008131950 METAR ESMX 131950Z AUTO 24002KT 9999 NCD 17/16 Q1016 RERA=
202008131920 METAR ESMX 131920Z AUTO 24002KT 9999 RA NCD 19/16 Q1016=
202008131850 METAR ESMX 131850Z AUTO 24003KT 9999 NCD 20/16 Q1016=
202008131820 METAR ESMX 131820Z 23003KT CAVOK 22/17 Q1016=
202008131750 METAR ESMX 131750Z 27003KT CAVOK 24/16 Q1016=
202008131720 METAR ESMX 131720Z 28003KT CAVOK 25/14 Q1016=
202008131650 METAR ESMX 131650Z VRB03KT CAVOK 26/15 Q1016=
202008131620 METAR ESMX 131620Z 33004KT 290V360 CAVOK 26/14 Q1016=
202008131550 METAR ESMX 131550Z 33004KT 290V010 CAVOK 26/15 Q1017=
202008131520 METAR ESMX 131520Z 31004KT 280V360 CAVOK 26/14 Q1017=
202008131450 METAR ESMX 131450Z 26004KT 230V300 CAVOK 26/15 Q1017=
202008131420 METAR ESMX 131420Z VRB02KT CAVOK 26/15 Q1017=
202008131350 METAR COR ESMX 131350Z 26004KT 210V350 9999 FEW045 26/15 Q1017=
202008131320 METAR COR ESMX 131320Z VRB03KT 9999 FEW045 25/14 Q1018=
202008131250 METAR ESMX 131250Z AUTO VRB02KT 9999 NCD 25/14 Q1018=
202008131220 METAR ESMX 131220Z AUTO VRB03KT 9999 NCD 25/15 Q1018=
202008131150 METAR ESMX 131150Z AUTO 23003KT 9999 NCD 26/15 Q1018=
202008131120 METAR ESMX 131120Z AUTO VRB03KT 9999 NCD 25/15 Q1018=
202008131050 METAR ESMX 131050Z AUTO VRB03KT 9999 NCD 25/14 Q1018=
202008131020 METAR ESMX 131020Z AUTO 02004KT 9999 NCD 23/16 Q1019=
202008130950 METAR ESMX 130950Z AUTO 36003KT 300V060 9999 NCD 23/15 Q1019=
202008130920 METAR ESMX 130920Z AUTO 34003KT 230V030 9999 NCD 22/16 Q1019=
202008130850 METAR ESMX 130850Z AUTO 20002KT 9999 NCD 22/15 Q1019=
202008130820 METAR ESMX 130820Z AUTO 20002KT 9999 NCD 21/16 Q1019=
202008130750 METAR ESMX 130750Z AUTO 20003KT 9999 NCD 20/15 Q1019=
202008130720 METAR ESMX 130720Z AUTO 20003KT 9999 NCD 19/15 Q1019=
202008130650 METAR ESMX 130650Z AUTO 20003KT 9999 NCD 18/14 Q1019=
202008130620 METAR ESMX 130620Z AUTO 23003KT 9999 NCD 16/14 Q1019=
202008130550 METAR ESMX 130550Z AUTO 20002KT 9999 NCD 15/15 Q1019=
202008130520 METAR ESMX 130520Z AUTO 19002KT 9999 NCD 14/14 Q1019=
202008130450 METAR ESMX 130450Z AUTO 19002KT 1300 R01/P2000D R19/P2000N BCFG NCD 11/11 Q1020=
202008130420 METAR ESMX 130420Z AUTO 00000KT 0150 R01/P2000N R19/0750N FG NCD 09/09 Q1020=
202008130350 METAR ESMX 130350Z AUTO 00000KT 9999 NCD 09/09 Q1020=
202008130320 METAR ESMX 130320Z AUTO 19003KT 9999 BCFG NCD 09/09 Q1020=
202008130250 METAR ESMX 130250Z AUTO 00000KT 9999 BCFG NCD 10/10 Q1020=
202008130220 METAR ESMX 130220Z AUTO 00000KT 9000 BCFG NCD 10/10 Q1021=
202008130150 METAR ESMX 130150Z AUTO 00000KT 4500 BCFG NCD 10/10 Q1021=
202008130120 METAR ESMX 130120Z AUTO 19002KT 9999 BCFG NCD 09/09 Q1021=
202008130050 METAR ESMX 130050Z AUTO 20001KT 0250 R01/1400U R19/P2000N BCFG NCD 11/11 Q1021=
202008130020 METAR ESMX 130020Z AUTO 19002KT 9999 BR NCD 11/11 Q1021=
202008122350 METAR ESMX 122350Z AUTO 19002KT 9999 NCD 12/12 Q1021=
202008122320 METAR ESMX 122320Z AUTO 19003KT 9999 NCD 13/12 Q1021=
202008122250 METAR ESMX 122250Z AUTO 19004KT 9999 NCD 13/13 Q1021=
202008122220 METAR ESMX 122220Z AUTO 18005KT 9999 NCD 15/13 Q1021=
202008122150 METAR ESMX 122150Z AUTO 16005KT 9999 NCD 15/14 Q1021=
202008122120 METAR ESMX 122120Z AUTO 18006KT 9999 NCD 16/15 Q1021=
202008122050 METAR ESMX 122050Z AUTO 16005KT 9999 NCD 17/16 Q1021=
202008122020 METAR ESMX 122020Z AUTO 15006KT 9999 NCD 18/15 Q1021=
202008121950 METAR ESMX 121950Z AUTO 15006KT 9999 NCD 18/15 Q1021 RESHRA RERA=
202008121920 METAR ESMX 121920Z AUTO 18002KT 9999 RA NCD 15/13 Q1021 RESHRA=
202008121850 METAR ESMX 121850Z AUTO 24001KT 9999 NCD 17/14 Q1021=
202008121820 METAR ESMX 121820Z AUTO 24001KT 9999 NCD 19/14 Q1021=
202008121750 METAR ESMX 121750Z AUTO 00000KT 9999 NCD 21/14 Q1021=
202008121720 METAR ESMX 121720Z AUTO 32003KT 9999 NCD 23/11 Q1021=
202008121650 METAR ESMX 121650Z AUTO 34003KT 9999 NCD 23/11 Q1021=
202008121620 METAR ESMX 121620Z AUTO VRB03KT 9999 NCD 23/11 Q1022=
202008121550 METAR ESMX 121550Z AUTO VRB03KT 9999 NCD 24/11 Q1022=
202008121520 METAR ESMX 121520Z AUTO VRB02KT 9999 NCD 24/12 Q1022=
202008121450 METAR ESMX 121450Z AUTO VRB03KT 9999 NCD 23/11 Q1022=
202008121420 METAR ESMX 121420Z AUTO VRB02KT 9999 NCD 24/10 Q1023=
202008121350 METAR ESMX 121350Z VRB03KT 9999 FEW039 23/12 Q1023=
202008121320 METAR ESMX 121320Z VRB01KT 9999 SCT039 23/12 Q1023=
202008121250 METAR ESMX 121250Z 36003KT 310V040 9999 FEW036 23/14 Q1023=
202008121220 METAR ESMX 121220Z 31004KT 230V360 9999 FEW036 23/14 Q1024=
202008121150 METAR ESMX 121150Z VRB03KT 9999 FEW037 21/13 Q1024=
202008121120 METAR ESMX 121120Z VRB01KT CAVOK 22/13 Q1024=
202008121050 METAR ESMX 121050Z 02005KT CAVOK 21/13 Q1024=
202008121020 METAR ESMX 121020Z AUTO VRB03KT 9999 SCT088/// 21/13 Q1024=
202008120950 METAR ESMX 120950Z VRB02KT CAVOK 21/14 Q1024=
202008120920 METAR ESMX 120920Z 19003KT CAVOK 20/13 Q1025=
202008120850 METAR ESMX 120850Z 11004KT 060V150 CAVOK 19/12 Q1025=
202008120820 METAR ESMX 120820Z 18004KT CAVOK 19/12 Q1025=
202008120750 METAR ESMX 120750Z 18004KT CAVOK 18/14 Q1025=
202008120720 METAR ESMX 120720Z VRB03KT CAVOK 18/14 Q1025=
202008120650 METAR ESMX 120650Z AUTO VRB02KT 9999 NCD 16/14 Q1025=
202008120620 METAR ESMX 120620Z AUTO 00000KT 9999 FEW003/// SCT004/// BKN006/// 15/14 Q1025=
202008120550 METAR ESMX 120550Z AUTO VRB03KT 9999 OVC002/// 14/14 Q1025=
202008120520 METAR ESMX 120520Z AUTO 19003KT 2400 OVC001/// 14/14 Q1025=
202008120450 METAR ESMX 120450Z AUTO 10004KT 070V150 0600 R01/1500D R19/P2000N FG OVC001/// 13/13 Q1025=
202008120420 METAR ESMX 120420Z AUTO VRB03KT 9999 OVC001/// 13/13 Q1025=
202008120350 METAR ESMX 120350Z AUTO VRB03KT 9999 BKN002/// OVC005/// 13/13 Q1025=
202008120320 METAR ESMX 120320Z AUTO 18003KT 120V290 9999 FEW006/// BKN098/// 12/12 Q1025=
202008120250 METAR ESMX 120250Z AUTO 18003KT 9999 BKN098/// 09/09 Q1025=
202008120220 METAR ESMX 120220Z AUTO 00000KT 9999 FEW094/// 09/09 Q1025=
202008120150 METAR ESMX 120150Z AUTO 19001KT 9999 FEW094/// 09/08 Q1025=
202008120120 METAR ESMX 120120Z AUTO 00000KT 9999 NCD 09/08 Q1026=
202008120050 METAR ESMX 120050Z AUTO 00000KT 9999 NCD 10/09 Q1025=
202008120020 METAR ESMX 120020Z AUTO 00000KT 9999 NCD 09/08 Q1025=
202008112350 METAR ESMX 112350Z AUTO 00000KT 9999 NCD 10/09 Q1025=
202008112320 METAR ESMX 112320Z AUTO 19002KT 9999 NCD 10/09 Q1025=
202008112250 METAR ESMX 112250Z AUTO 20001KT 9999 NCD 11/10 Q1025=
202008112220 METAR ESMX 112220Z AUTO 00000KT 9999 NCD 12/10 Q1026=
202008112150 METAR ESMX 112150Z AUTO 00000KT 9999 NCD 13/10 Q1025=
202008112120 METAR ESMX 112120Z AUTO VRB03KT 9999 NCD 15/09 Q1025=
202008112050 METAR ESMX 112050Z AUTO 13003KT 080V160 9999 NCD 16/09 Q1025=
202008112020 METAR ESMX 112020Z AUTO 18003KT 120V190 9999 NCD 17/09 Q1025=
202008111950 METAR ESMX 111950Z AUTO 15004KT 110V170 9999 NCD 19/10 Q1025=
202008111920 METAR ESMX 111920Z AUTO 17005KT 9999 NCD 19/09 Q1025=
202008111850 METAR ESMX 111850Z AUTO VRB05KT 9999 NCD 20/12 Q1024=
202008111820 METAR ESMX 111820Z AUTO 00000KT 9999 NCD 20/15 Q1024=
202008111750 METAR ESMX 111750Z AUTO 19002KT 9999 NCD 22/14 Q1024=
202008111720 METAR ESMX 111720Z AUTO 36004KT 9999 NCD 23/13 Q1024=
202008111650 METAR ESMX 111650Z AUTO 01004KT 9999 NCD 24/13 Q1024=
202008111620 METAR ESMX 111620Z AUTO 35003KT 9999 NCD 24/13 Q1024=
202008111550 METAR ESMX 111550Z AUTO 36004KT 320V030 9999 NCD 24/12 Q1025=
202008111520 METAR ESMX 111520Z AUTO 03003KT 320V100 9999 NCD 24/13 Q1025=
202008111450 METAR ESMX 111450Z AUTO 03004KT 340V070 9999 NCD 24/12 Q1025=
202008111420 METAR ESMX 111420Z AUTO VRB02KT 9999 NCD 24/12 Q1025=
202008111350 METAR ESMX 111350Z 05004KT 360V090 CAVOK 24/12 Q1025=
202008111320 METAR ESMX 111320Z 03004KT 320V080 CAVOK 24/12 Q1025=
202008111250 METAR ESMX 111250Z 05005KT 350V100 CAVOK 24/13 Q1025=
202008111220 METAR ESMX 111220Z 03005KT 350V100 CAVOK 23/11 Q1025=
202008111150 METAR ESMX 111150Z 03006KT 010V080 CAVOK 23/12 Q1026=
202008111120 METAR ESMX 111120Z 06005KT 340V100 CAVOK 22/12 Q1026=
202008111050 METAR ESMX 111050Z 04007KT 020V080 CAVOK 22/12 Q1026=
202008111020 METAR ESMX 111020Z 08004KT 010V150 9999 NSC 21/13 Q1026=
202008110950 METAR ESMX 110950Z 07004KT 010V150 CAVOK 21/11 Q1026=
202008110920 METAR ESMX 110920Z 05006KT 010V120 CAVOK 21/13 Q1026=
202008110850 METAR ESMX 110850Z 05007KT 020V100 9999 NSC 20/12 Q1026=
202008110820 METAR ESMX 110820Z 08005KT 020V160 CAVOK 19/12 Q1026=
202008110750 METAR ESMX 110750Z 06006KT 010V120 9999 NSC 19/13 Q1026=
202008110720 METAR ESMX 110720Z 06005KT 020V110 CAVOK 18/13 Q1026=
202008110650 METAR ESMX 110650Z VRB04KT CAVOK 17/13 Q1026=
202008110620 METAR ESMX 110620Z AUTO VRB04KT 9999 NCD 17/14 Q1026=
202008110550 METAR ESMX 110550Z AUTO 08004KT 040V140 9999 NCD 16/14 Q1025=
202008110520 METAR ESMX 110520Z AUTO VRB03KT 9999 NCD 15/14 Q1025=
202008110450 METAR ESMX 110450Z AUTO VRB02KT 9999 NCD 15/13 Q1025=
202008110420 METAR ESMX 110420Z AUTO 06003KT 9999 NCD 14/13 Q1025=
202008110350 METAR ESMX 110350Z AUTO 06004KT 9999 NCD 14/13 Q1025=
202008110320 METAR ESMX 110320Z AUTO VRB03KT 9999 NCD 14/13 Q1025=
202008110250 METAR ESMX 110250Z AUTO VRB02KT 9999 NCD 14/14 Q1025=
202008110220 METAR ESMX 110220Z AUTO VRB03KT 9999 NCD 14/14 Q1025=
202008110150 METAR ESMX 110150Z AUTO 17003KT 120V250 9999 NCD 14/13 Q1025=
202008110120 METAR ESMX 110120Z AUTO 07003KT 9999 NCD 14/13 Q1025=
202008110050 METAR ESMX 110050Z AUTO 07004KT 030V100 9999 SCT082/// 15/13 Q1025=
202008110020 METAR ESMX 110020Z AUTO 07005KT 030V100 9999 FEW078/// SCT100/// 15/13 Q1025=
202008102350 METAR ESMX 102350Z AUTO 06003KT 9999 SCT080/// 14/13 Q1025=
202008102320 METAR ESMX 102320Z AUTO 07003KT 040V110 9999 BKN074/// 15/13 Q1025=
202008102250 METAR ESMX 102250Z AUTO 06004KT 9999 NCD 15/13 Q1025=
202008102220 METAR ESMX 102220Z AUTO 07004KT 9999 BKN072/// 15/13 Q1025=
202008102150 METAR ESMX 102150Z AUTO 09003KT 9999 BKN072/// 14/14 Q1025=
202008102120 METAR ESMX 102120Z AUTO 19002KT 9999 NCD 14/14 Q1025=
202008102050 METAR ESMX 102050Z AUTO 12003KT 070V160 9999 NCD 14/14 Q1025=
202008102020 METAR ESMX 102020Z AUTO 12003KT 070V160 9999 NCD 15/14 Q1024=
202008101950 METAR ESMX 101950Z AUTO 10003KT 060V150 9999 NCD 16/15 Q1024=
202008101920 METAR ESMX 101920Z AUTO 11003KT 070V160 9999 NCD 17/16 Q1023=
202008101850 METAR ESMX 101850Z AUTO 18003KT 9999 NCD 18/17 Q1023=
202008101820 METAR ESMX 101820Z AUTO 00000KT 9999 NCD 19/18 Q1023=
202008101750 METAR ESMX 101750Z AUTO 18002KT 9999 FEW180/// 20/18 Q1022=
202008101720 METAR ESMX 101720Z AUTO 02005KT 350V070 9999 FEW170/// 19/19 Q1022=
202008101650 METAR ESMX 101650Z AUTO 06004KT 9999 SCT170/// 18/18 Q1022=
202008101620 METAR ESMX 101620Z AUTO VRB02KT 9999 FEW200/// 18/18 Q1022 RERA=
202008101550 METAR ESMX 101550Z AUTO 18002KT 9999 -DZ FEW100/// 18/18 Q1023=
202008101520 METAR ESMX 101520Z AUTO VRB02KT 9999 -RA FEW001/// SCT041/// BKN059/// 18/17 Q1023=
202008101450 METAR ESMX 101450Z AUTO 16004KT 080V190 9999 -RA ////// 19/18 Q1024=
202008101420 METAR ESMX 101420Z 23005KT 210V270 9999 VCSH SCT013 BKN029CB 20/18 Q1024=
202008101350 METAR ESMX 101350Z 04005KT 020V080 9999 VCSH FEW029 20/18 Q1023=
202008101320 METAR ESMX 101320Z 06006KT 030V100 9999 FEW021 21/18 Q1023=
202008101250 METAR ESMX 101250Z 06005KT 020V090 9999 FEW019 22/18 Q1023=
202008101220 METAR ESMX 101220Z VRB04KT 9999 FEW016 21/17 Q1023=
202008101150 METAR ESMX 101150Z 12005KT 010V170 9999 SCT016 22/18 Q1023=
202008101120 METAR ESMX 101120Z 08006KT 040V120 9999 SCT017 BKN021 22/17 Q1023=
202008101050 METAR ESMX 101050Z 07006KT 030V120 9999 BKN018 21/17 Q1023=
202008101020 METAR ESMX 101020Z VRB04KT 9999 BKN016 21/17 Q1023=
202008100950 METAR ESMX 100950Z AUTO 08005KT 020V150 9999 OVC018/// 21/17 Q1023=
202008100920 METAR ESMX 100920Z 06005KT 020V120 9999 BKN018 22/18 Q1023=
202008100850 METAR ESMX 100850Z 07006KT 360V120 9999 BKN018 21/18 Q1023=
202008100820 METAR ESMX 100820Z 06008KT 030V120 9999 BKN015 21/18 Q1023=
202008100750 METAR ESMX 100750Z 08005KT 030V120 9999 BKN015 21/18 Q1023=
202008100720 METAR ESMX 100720Z 07004KT 030V130 9999 BKN012 20/18 Q1023=
202008100650 METAR ESMX 100650Z 17004KT 130V200 9999 BKN011 20/18 Q1022=
202008100620 METAR ESMX 100620Z 16004KT 110V210 9999 BKN009 19/18 Q1022=
202008100550 METAR ESMX 100550Z 09005KT 030V150 9999 BKN007 19/17 Q1022=
202008100520 METAR ESMX 100520Z AUTO VRB03KT 9999 OVC008/// 18/17 Q1022=
202008100450 METAR ESMX 100450Z AUTO 17003KT 120V210 9999 BKN008/// 18/17 Q1022=
202008100420 METAR ESMX 100420Z AUTO 07004KT 050V120 9999 OVC006/// 18/17 Q1022=
202008100350 METAR ESMX 100350Z AUTO VRB04KT 9999 OVC006/// 18/17 Q1022=
202008100320 METAR ESMX 100320Z AUTO 08005KT 030V120 9999 OVC006/// 18/17 Q1022=
202008100250 METAR ESMX 100250Z AUTO 07006KT 030V110 9999 OVC005/// 18/17 Q1022=
202008100220 METAR ESMX 100220Z AUTO 08005KT 020V120 9999 OVC005/// 18/18 Q1022=
202008100150 METAR ESMX 100150Z AUTO 08006KT 050V120 9999 BKN005/// BKN100/// 18/17 Q1022=
202008100120 METAR ESMX 100120Z AUTO 06005KT 030V100 9999 FEW110/// 18/17 Q1022=
202008100050 METAR ESMX 100050Z AUTO 08004KT 050V110 9999 FEW100/// 18/17 Q1021=
202008100020 METAR ESMX 100020Z AUTO VRB03KT 9999 NCD 19/17 Q1021=
202008092350 METAR ESMX 092350Z AUTO 16004KT 100V190 9999 NCD 19/18 Q1021=
202008092320 METAR ESMX 092320Z AUTO 17003KT 140V200 9999 NCD 19/18 Q1021=
202008092250 METAR ESMX 092250Z AUTO 18003KT 9999 NCD 20/18 Q1021=
202008092220 METAR ESMX 092220Z AUTO VRB03KT 9999 NCD 21/19 Q1021=
202008092150 METAR ESMX 092150Z AUTO 12004KT 090V150 9999 NCD 21/19 Q1021=
202008092120 METAR ESMX 092120Z AUTO 14004KT 100V160 9999 NCD 22/18 Q1021=
202008092050 METAR ESMX 092050Z AUTO 15005KT 9999 NCD 23/18 Q1020=
202008092020 METAR ESMX 092020Z AUTO 17004KT 9999 NCD 23/17 Q1021=
202008091950 METAR ESMX 091950Z AUTO 15004KT 9999 NCD 24/18 Q1021=
202008091920 METAR ESMX 091920Z AUTO 15004KT 9999 NCD 23/18 Q1020=
202008091850 METAR ESMX 091850Z AUTO 15004KT 110V170 9999 NCD 25/18 Q1020=
202008091820 METAR ESMX 091820Z AUTO 14004KT 110V170 9999 FEW082/// 25/18 Q1020=
202008091750 METAR ESMX 091750Z AUTO 13003KT 9999 FEW066/// 26/18 Q1020=
202008091720 METAR ESMX 091720Z AUTO 35004KT 9999 NCD 28/17 Q1019=
202008091650 METAR ESMX 091650Z AUTO 34006KT 9999 NCD 29/16 Q1019=
202008091620 METAR ESMX 091620Z AUTO 33004KT 9999 NCD 29/16 Q1019=
202008091550 METAR ESMX 091550Z AUTO 32005KT 290V350 9999 NCD 29/17 Q1019=
202008091520 METAR ESMX 091520Z AUTO 35004KT 9999 NCD 29/19 Q1020=
202008091450 METAR ESMX 091450Z AUTO 34004KT 9999 NCD 29/18 Q1020=
202008091420 METAR ESMX 091420Z AUTO 01005KT 340V040 9999 NCD 29/17 Q1020=
202008091350 METAR ESMX 091350Z AUTO 34004KT 290V030 9999 NCD 29/17 Q1020=
202008091320 METAR ESMX 091320Z AUTO 21003KT 9999 NCD 29/16 Q1020=
202008091250 METAR ESMX 091250Z AUTO 32005KT 290V350 9999 NCD 29/16 Q1020=
202008091220 METAR ESMX 091220Z AUTO 35004KT 260V030 9999 NCD 28/17 Q1021=
202008091150 METAR ESMX 091150Z AUTO 36005KT 310V020 9999 NCD 28/18 Q1021=
202008091120 METAR ESMX 091120Z AUTO 35005KT 320V040 9999 NCD 28/19 Q1021=
202008091050 METAR ESMX 091050Z AUTO 36003KT 280V050 9999 NCD 28/18 Q1021=
202008091020 METAR ESMX 091020Z AUTO VRB03KT 9999 NCD 27/19 Q1021=
202008090950 METAR ESMX 090950Z AUTO 36004KT 300V070 9999 NCD 27/19 Q1021=
202008090920 METAR ESMX 090920Z AUTO 01005KT 330V040 9999 NCD 26/19 Q1021=
202008090850 METAR ESMX 090850Z AUTO 01003KT 320V060 9999 NCD 26/19 Q1021=
202008090820 METAR ESMX 090820Z AUTO 03004KT 340V080 9999 NCD 25/20 Q1021=
202008090750 METAR ESMX 090750Z AUTO 35005KT 9999 NCD 24/20 Q1021=
202008090720 METAR ESMX 090720Z AUTO 36003KT 320V030 9999 NCD 23/20 Q1021=
202008090650 METAR ESMX 090650Z AUTO 36004KT 330V030 9999 NCD 22/20 Q1021=
202008090620 METAR ESMX 090620Z AUTO 35004KT 9999 NCD 21/19 Q1021=
202008090550 METAR ESMX 090550Z AUTO 36004KT 9999 NCD 20/19 Q1021=
202008090520 METAR ESMX 090520Z AUTO VRB02KT 8000 NCD 19/19 Q1021=
202008090450 METAR ESMX 090450Z AUTO 00000KT 3900 NCD 16/16 Q1021=
202008090420 METAR ESMX 090420Z AUTO 00000KT 9000 BCFG NCD 15/15 Q1021=
202008090350 METAR ESMX 090350Z AUTO 00000KT 0150 R01/0150N R19/P2000N BCFG SCT140/// 15/15 Q1021=
202008090320 METAR ESMX 090320Z AUTO 00000KT 0150 R01/0350N R19/P2000N FG NCD 15/15 Q1021=
202008090250 METAR ESMX 090250Z AUTO 00000KT 8000 FEW150/// 14/14 Q1021=
202008090220 METAR ESMX 090220Z AUTO 00000KT 0200 R01/0600N R19/P2000N BCFG NCD 15/15 Q1021=
202008090150 METAR ESMX 090150Z AUTO 19001KT 0150 R01/0400U R19/P2000N BCFG NCD 16/16 Q1021=
202008090120 METAR ESMX 090120Z AUTO 00000KT 7000 NCD 15/15 Q1021=
202008090050 METAR ESMX 090050Z AUTO 00000KT 8000 BCFG NCD 16/16 Q1021=
202008090020 METAR ESMX 090020Z AUTO 00000KT 9999 BR NCD 17/16 Q1021=
202008082350 METAR ESMX 082350Z AUTO 18003KT 9999 FEW170/// 18/17 Q1021=
202008082320 METAR ESMX 082320Z AUTO 00000KT 9999 SCT170/// 19/18 Q1021=
202008082250 METAR ESMX 082250Z AUTO 19003KT 9999 BKN170/// 19/18 Q1021=
202008082220 METAR ESMX 082220Z AUTO 22003KT 9999 NCD 18/17 Q1021=
202008082150 METAR ESMX 082150Z AUTO 19004KT 9999 FEW170/// 19/18 Q1021=
202008082120 METAR ESMX 082120Z AUTO 19004KT 9999 NCD 19/18 Q1021=
202008082050 METAR ESMX 082050Z AUTO 16004KT 9999 SCT190/// 21/19 Q1021=
202008082020 METAR ESMX 082020Z AUTO 17004KT 9999 NCD 22/19 Q1021 RERA=
202008081950 METAR ESMX 081950Z AUTO 16003KT 9999 -RA NCD 20/18 Q1021 RESHRA=
202008081920 METAR ESMX 081920Z AUTO 15003KT 9999 NCD 21/19 Q1021=
202008081850 METAR ESMX 081850Z AUTO 16004KT 9999 NCD 24/19 Q1021=
202008081820 METAR ESMX 081820Z AUTO 18004KT 9999 NCD 24/19 Q1021=
202008081750 METAR ESMX 081750Z AUTO 18006KT 9999 NCD 25/19 Q1021=
202008081720 METAR ESMX 081720Z AUTO 18005KT 9999 FEW074/// 26/19 Q1021=
202008081650 METAR ESMX 081650Z AUTO 18006KT 9999 NCD 26/19 Q1021=
202008081620 METAR ESMX 081620Z AUTO 18007KT 9999 FEW068/// 27/18 Q1021=
202008081550 METAR ESMX 081550Z AUTO 18008KT 9999 NCD 27/20 Q1021=
202008081520 METAR ESMX 081520Z AUTO 18006KT 9999 FEW070/// 28/20 Q1021=
202008081450 METAR ESMX 081450Z AUTO 17006KT 130V200 9999 NCD 28/19 Q1021=
202008081420 METAR ESMX 081420Z AUTO 17006KT 9999 FEW068/// 28/18 Q1021=
202008081350 METAR ESMX 081350Z AUTO 17007KT 9999 SCT070/// 28/19 Q1021=
202008081320 METAR ESMX 081320Z AUTO 18005KT 9999 FEW070/// 28/19 Q1022=
202008081250 METAR ESMX 081250Z AUTO 18005KT 9999 FEW076/// 29/19 Q1022=
202008081220 METAR ESMX 081220Z AUTO 17006KT 9999 FEW076/// 28/19 Q1022=
202008081150 METAR ESMX 081150Z AUTO 18006KT 9999 FEW070/// 27/18 Q1022=
202008081120 METAR ESMX 081120Z AUTO 17006KT 140V200 9999 FEW074/// 27/19 Q1022=
202008081050 METAR ESMX 081050Z AUTO 18005KT 9999 NCD 27/18 Q1022=
202008081020 METAR ESMX 081020Z AUTO 16005KT 110V190 9999 FEW086/// 26/18 Q1023=
202008080950 METAR ESMX 080950Z AUTO 13003KT 050V230 9999 FEW190/// 26/17 Q1023=
202008080920 METAR ESMX 080920Z AUTO VRB03KT 9999 SCT074/// 25/18 Q1023=
202008080850 METAR ESMX 080850Z AUTO 04004KT 010V100 9999 FEW074/// 23/17 Q1023=
202008080820 METAR ESMX 080820Z AUTO 05003KT 010V110 9999 BKN082/// 22/17 Q1023=
202008080750 METAR ESMX 080750Z AUTO 06003KT 030V100 9999 BKN080/// 20/16 Q1024=
202008080720 METAR ESMX 080720Z AUTO 05004KT 9999 BKN072/// 20/15 Q1024=
202008080650 METAR ESMX 080650Z AUTO 06004KT 020V120 9999 SCT070/// 20/14 Q1024=
202008080620 METAR ESMX 080620Z AUTO 03004KT 9999 SCT068/// 17/15 Q1024=
202008080550 METAR ESMX 080550Z AUTO 03004KT 9999 SCT070/// BKN190/// 17/14 Q1024=
202008080520 METAR ESMX 080520Z AUTO 03005KT 9999 SCT064/// BKN190/// 16/14 Q1024=
202008080450 METAR ESMX 080450Z AUTO 03004KT 9999 FEW066/// SCT190/// 16/14 Q1024=
202008080420 METAR ESMX 080420Z AUTO 03003KT 9999 FEW064/// SCT220/// 15/14 Q1024=
202008080350 METAR ESMX 080350Z AUTO 00000KT 9999 BKN200/// 13/13 Q1024=
202008080320 METAR ESMX 080320Z AUTO 00000KT 9999 BKN200/// 12/12 Q1024=
202008080250 METAR ESMX 080250Z AUTO VRB02KT 9999 FEW200/// 12/12 Q1024=
202008080220 METAR ESMX 080220Z AUTO 20002KT 9999 FEW190/// 12/12 Q1025=
202008080150 METAR ESMX 080150Z AUTO 00000KT 9999 FEW200/// 11/11 Q1025=
202008080120 METAR ESMX 080120Z AUTO 00000KT 9999 FEW200/// 12/12 Q1025=
202008080050 METAR ESMX 080050Z AUTO 00000KT 9999 NCD 11/11 Q1025=
202008080020 METAR ESMX 080020Z AUTO 00000KT 9999 NCD 11/11 Q1025=
202008072350 METAR ESMX 072350Z AUTO 00000KT 9999 NCD 12/11 Q1025=
202008072320 METAR ESMX 072320Z AUTO 00000KT 9999 NCD 12/12 Q1025=
202008072250 METAR ESMX 072250Z AUTO 00000KT 9999 NCD 13/12 Q1025=
202008072220 METAR ESMX 072220Z AUTO 15003KT 9999 NCD 14/13 Q1025=
202008072150 METAR ESMX 072150Z AUTO 14004KT 9999 NCD 14/13 Q1025=
202008072120 METAR ESMX 072120Z AUTO 15003KT 9999 NCD 16/13 Q1025=
202008072050 METAR ESMX 072050Z AUTO 13002KT 9999 NCD 17/14 Q1025=
202008072020 METAR ESMX 072020Z AUTO 14004KT 9999 NCD 18/14 Q1025=
202008071950 METAR ESMX 071950Z AUTO 15004KT 9999 -RA NCD 19/15 Q1025 RERA=
202008071920 METAR ESMX 071920Z AUTO 16003KT 9999 -RA NCD 19/14 Q1025=
202008071850 METAR ESMX 071850Z AUTO 17005KT 9999 NCD 23/12 Q1025=
202008071820 METAR ESMX 071820Z AUTO 16004KT 9999 NCD 24/13 Q1025=
202008071750 METAR ESMX 071750Z AUTO 19004KT 9999 NCD 25/14 Q1025=
202008071720 METAR ESMX 071720Z AUTO 19006KT 9999 NCD 26/13 Q1025=
202008071650 METAR ESMX 071650Z AUTO 17006KT 9999 NCD 27/12 Q1025=
202008071620 METAR ESMX 071620Z AUTO 18006KT 9999 NCD 27/13 Q1025=
202008071550 METAR ESMX 071550Z AUTO 18007KT 140V220 9999 NCD 28/13 Q1025=
202008071520 METAR ESMX 071520Z AUTO 19007KT 9999 NCD 28/14 Q1025=
202008071450 METAR ESMX 071450Z AUTO 20005KT 150V220 9999 NCD 28/14 Q1025=
202008071420 METAR ESMX 071420Z 17006KT CAVOK 28/14 Q1025=
202008071350 METAR ESMX 071350Z 18006KT 130V230 CAVOK 28/15 Q1025=
202008071320 METAR ESMX 071320Z 17005KT CAVOK 28/14 Q1026=
202008071250 METAR ESMX 071250Z VRB04KT CAVOK 27/14 Q1026=
202008071220 METAR ESMX 071220Z 17005KT 120V210 CAVOK 27/15 Q1026=
202008071150 METAR ESMX 071150Z 18005KT 120V200 CAVOK 27/14 Q1026=
202008071120 METAR ESMX 071120Z AUTO 13006KT 090V160 9999 FEW200/// 26/14 Q1026=
202008071050 METAR ESMX 071050Z 17006KT CAVOK 25/14 Q1026=
202008071020 METAR ESMX 071020Z AUTO 16006KT 9999 NCD 25/14 Q1026=
202008070950 METAR ESMX 070950Z AUTO 17007KT 9999 FEW150/// 25/13 Q1026=
202008070920 METAR ESMX 070920Z 16004KT 070V210 CAVOK 25/14 Q1027=
202008070850 METAR ESMX 070850Z 15004KT 070V190 CAVOK 24/14 Q1027=
202008070820 METAR ESMX 070820Z 12003KT 070V170 CAVOK 23/15 Q1027=
202008070750 METAR ESMX 070750Z 11003KT 050V180 CAVOK 22/14 Q1027=
202008070720 METAR ESMX 070720Z VRB03KT CAVOK 21/14 Q1027=
202008070650 METAR ESMX 070650Z 00000KT CAVOK 18/14 Q1027=
202008070620 METAR ESMX 070620Z AUTO 00000KT 9999 BKN140/// 18/14 Q1027=
202008070550 METAR ESMX 070550Z AUTO VRB01KT 9999 OVC140/// 17/14 Q1026=
202008070520 METAR ESMX 070520Z AUTO VRB01KT 9999 OVC140/// 16/15 Q1026=
202008070450 METAR ESMX 070450Z AUTO VRB02KT 9999 BKN140/// 15/14 Q1026=
202008070420 METAR ESMX 070420Z AUTO 00000KT 9999 OVC140/// 13/13 Q1026=
202008070350 METAR ESMX 070350Z AUTO VRB01KT 9999 SCT130/// BKN150/// BKN170/// 12/12 Q1026=
202008070320 METAR ESMX 070320Z AUTO 00000KT 9999 FEW130/// BKN170/// 11/11 Q1026=
202008070250 METAR ESMX 070250Z AUTO 00000KT 9999 SCT130/// BKN170/// 11/11 Q1026=
202008070220 METAR ESMX 070220Z AUTO 00000KT 9999 SCT130/// 12/11 Q1026=
202008070150 METAR ESMX 070150Z AUTO 00000KT 9999 BKN130/// OVC180/// 12/11 Q1026=
202008070120 METAR ESMX 070120Z AUTO VRB02KT 9999 BKN130/// 12/12 Q1026=
202008070050 METAR ESMX 070050Z AUTO 00000KT 9999 SCT130/// 13/13 Q1026=
202008070020 METAR ESMX 070020Z AUTO VRB01KT 9999 NCD 13/12 Q1026=
202008062350 METAR ESMX 062350Z AUTO 00000KT 9999 NCD 13/13 Q1026=
202008062320 METAR ESMX 062320Z AUTO 00000KT 9999 NCD 13/12 Q1026=
202008062250 METAR ESMX 062250Z AUTO 14002KT 9999 SCT190/// 14/12 Q1026=
202008062220 METAR ESMX 062220Z AUTO 17002KT 9999 FEW190/// 15/13 Q1026=
202008062150 METAR ESMX 062150Z AUTO 16004KT 9999 NCD 15/12 Q1025=
202008062120 METAR ESMX 062120Z AUTO 16004KT 9999 NCD 18/13 Q1025=
202008062050 METAR ESMX 062050Z AUTO 15004KT 9999 NCD 18/13 Q1025=
202008062020 METAR ESMX 062020Z AUTO 16005KT 9999 FEW170/// 20/12 Q1025=
202008061950 METAR ESMX 061950Z AUTO 17006KT 9999 NCD 21/12 Q1025=
202008061920 METAR ESMX 061920Z AUTO 17006KT 9999 FEW190/// 22/13 Q1024=
202008061850 METAR ESMX 061850Z AUTO 17006KT 9999 BKN170/// 22/12 Q1024=
202008061820 METAR ESMX 061820Z 18005KT CAVOK 23/12 Q1024=
202008061750 METAR ESMX 061750Z 17007KT CAVOK 24/12 Q1024=
202008061720 METAR ESMX 061720Z 17007KT CAVOK 24/12 Q1024=
202008061650 METAR ESMX 061650Z 17008KT CAVOK 26/12 Q1023=
202008061620 METAR ESMX 061620Z 17008KT CAVOK 27/13 Q1023=
202008061550 METAR ESMX 061550Z 17006KT CAVOK 26/13 Q1023=
202008061520 METAR ESMX 061520Z 16008KT CAVOK 28/13 Q1023=
202008061450 METAR ESMX 061450Z 17007KT CAVOK 28/13 Q1023=
202008061420 METAR ESMX 061420Z 17007KT 130V210 CAVOK 28/14 Q1023=
202008061350 METAR ESMX 061350Z AUTO 17008KT 150V210 9999 NCD 28/13 Q1023=
202008061320 METAR ESMX 061320Z AUTO 20009KT 9999 NCD 28/12 Q1023=
202008061250 METAR ESMX 061250Z AUTO 18007KT 150V240 9999 NCD 27/12 Q1023=
202008061220 METAR ESMX 061220Z AUTO 19008KT 9999 NCD 28/12 Q1023=
202008061150 METAR ESMX 061150Z AUTO 18008KT 9999 NCD 27/12 Q1023=
202008061120 METAR ESMX 061120Z AUTO 20007KT 160V240 9999 NCD 27/14 Q1023=
202008061050 METAR ESMX 061050Z AUTO 18007KT 9999 NCD 26/15 Q1023=
202008061020 METAR ESMX 061020Z AUTO 19006KT 9999 NCD 26/14 Q1023=
202008060950 METAR ESMX 060950Z AUTO 19006KT 130V250 9999 NCD 25/15 Q1023=
202008060920 METAR ESMX 060920Z AUTO 19005KT 160V220 9999 BKN084/// 24/15 Q1023=
202008060850 METAR ESMX 060850Z AUTO 20006KT 170V230 9999 NCD 24/15 Q1023=
202008060820 METAR ESMX 060820Z AUTO 22007KT 190V260 9999 NCD 23/16 Q1022=
202008060750 METAR ESMX 060750Z AUTO 19007KT 9999 NCD 22/16 Q1022=
202008060720 METAR ESMX 060720Z AUTO 21005KT 9999 FEW130/// 22/16 Q1022=
202008060650 METAR ESMX 060650Z AUTO 18005KT 160V240 9999 SCT130/// 21/15 Q1022=
202008060620 METAR ESMX 060620Z AUTO 20005KT 9999 NCD 19/15 Q1021=
202008060550 METAR ESMX 060550Z AUTO 19005KT 9999 NCD 18/14 Q1021=
202008060520 METAR ESMX 060520Z AUTO 18005KT 9999 FEW100/// 17/13 Q1021=
202008060450 METAR ESMX 060450Z AUTO 21004KT 9999 BKN098/// 17/13 Q1020=
202008060420 METAR ESMX 060420Z AUTO 19005KT 9999 NCD 14/12 Q1020=
202008060350 METAR ESMX 060350Z AUTO 19005KT 9999 NCD 14/12 Q1020=
202008060320 METAR ESMX 060320Z AUTO 18005KT 9999 NCD 14/12 Q1020=
202008060250 METAR ESMX 060250Z AUTO 19006KT 9999 FEW059/// 14/12 Q1020=
202008060220 METAR ESMX 060220Z AUTO 19006KT 9999 SCT059/// 15/12 Q1019=
202008060150 METAR ESMX 060150Z AUTO 19006KT 9999 BKN059/// 15/12 Q1019=
202008060120 METAR ESMX 060120Z AUTO 17006KT 9999 FEW049/// OVC059/// 16/12 Q1019=
202008060050 METAR ESMX 060050Z AUTO 18005KT 9999 SCT053/// BKN080/// 16/13 Q1019=
202008060020 METAR ESMX 060020Z AUTO 18005KT 9999 FEW053/// BKN082/// 16/13 Q1019=
202008052350 METAR ESMX 052350Z AUTO 20006KT 9999 BKN053/// 16/13 Q1019=
202008052320 METAR ESMX 052320Z AUTO 19007KT 9999 FEW080/// SCT098/// 15/13 Q1019=
202008052250 METAR ESMX 052250Z AUTO 18007KT 9999 FEW049/// 16/13 Q1018=
202008052220 METAR ESMX 052220Z AUTO 18007KT 9999 SCT044/// BKN082/// 17/13 Q1018=
202008052150 METAR ESMX 052150Z AUTO 20005KT 9999 BKN039/// BKN051/// OVC170/// 17/14 Q1018=
202008052120 METAR ESMX 052120Z AUTO 19005KT 9999 BKN042/// OVC055/// 17/14 Q1018=
202008052050 METAR ESMX 052050Z AUTO 20005KT 9999 BKN044/// OVC057/// 17/14 Q1018=
202008052020 METAR ESMX 052020Z AUTO 18006KT 9999 BKN046/// OVC070/// 17/13 Q1018=
202008051950 METAR ESMX 051950Z AUTO 18005KT 9999 BKN048/// OVC066/// 17/14 Q1017 RERA REUP RESHUP=
202008051920 METAR ESMX 051920Z AUTO 17006KT 9999 OVC049/// 18/14 Q1017=
202008051850 METAR ESMX 051850Z AUTO 16006KT 9999 OVC047/// 18/14 Q1017=
202008051820 METAR ESMX 051820Z AUTO 16005KT 9999 OVC046/// 18/14 Q1017=
202008051750 METAR ESMX 051750Z AUTO 17005KT 9999 FEW047/// SCT061/// OVC082/// 18/13 Q1016=
202008051720 METAR ESMX 051720Z AUTO 18004KT 9999 BKN049/// OVC062/// 18/13 Q1016=
202008051650 METAR ESMX 051650Z AUTO 18006KT 9999 -DZ OVC049/// 18/13 Q1017=
202008051620 METAR ESMX 051620Z AUTO 18007KT 9999 BKN051/// BKN064/// OVC080/// 19/12 Q1016=
202008051550 METAR ESMX 051550Z AUTO 19009KT 9999 BKN061/// OVC110/// 19/13 Q1016=
202008051520 METAR ESMX 051520Z AUTO 20008KT 9999 SCT047/// BKN076/// BKN110/// 19/12 Q1016=
202008051450 METAR ESMX 051450Z AUTO 17008KT 9999 SCT048/// OVC110/// 19/13 Q1016=
202008051420 METAR ESMX 051420Z AUTO 17010KT 9999 BKN120/// 19/13 Q1016=
202008051350 METAR ESMX 051350Z AUTO 17009KT 9999 FEW059/// BKN100/// 18/13 Q1016=
202008051320 METAR ESMX 051320Z AUTO 17007KT 9999 BKN064/// OVC078/// 18/12 Q1016 RERA=
202008051250 METAR ESMX 051250Z AUTO 18008KT 9999 BKN057/// BKN078/// 18/12 Q1016=
202008051220 METAR ESMX 051220Z AUTO 20010KT 9999 FEW025/// BKN055/// BKN098/// 17/12 Q1016=
202008051150 METAR ESMX 051150Z AUTO 19011KT 9999 OVC062/// 18/11 Q1016=
202008051120 METAR ESMX 051120Z AUTO 19011KT 9999 BKN072/// BKN140/// 18/10 Q1016=
202008051050 METAR ESMX 051050Z AUTO 18009KT 9999 BKN076/// BKN140/// 18/10 Q1016=
202008051020 METAR ESMX 051020Z AUTO 20008KT 170V230 9999 OVC084/// 18/10 Q1016=
202008050950 METAR ESMX 050950Z AUTO 18010KT 9999 BKN086/// BKN100/// 17/09 Q1017=
202008050920 METAR ESMX 050920Z AUTO 20010KT 9999 OVC090/// 16/08 Q1017=
202008050850 METAR ESMX 050850Z AUTO 20010KT 170V240 9999 SCT062/// BKN100/// 16/09 Q1016=
202008050820 METAR ESMX 050820Z AUTO 18010KT 160V220 9999 BKN070/// BKN130/// 16/09 Q1016=
202008050750 METAR ESMX 050750Z AUTO 18010KT 160V290 9999 FEW018/// BKN140/// 16/11 Q1016=
202008050720 METAR ESMX 050720Z AUTO 19009KT 9999 FEW100/// SCT150/// 15/12 Q1016=
202008050650 METAR ESMX 050650Z AUTO 20006KT 9999 -RA BKN074/// 14/12 Q1016=
202008050620 METAR ESMX 050620Z AUTO 22006KT 9999 OVC080/// 13/11 Q1016=
202008050550 METAR ESMX 050550Z AUTO 19005KT 9999 FEW092/// 12/11 Q1016=
202008050520 METAR ESMX 050520Z AUTO 20006KT 9999 SCT100/// 12/10 Q1015=
202008050450 METAR ESMX 050450Z AUTO 19006KT 9999 FEW120/// 12/10 Q1015=
202008050420 METAR ESMX 050420Z AUTO 18005KT 150V210 9999 NCD 11/10 Q1015=
202008050350 METAR ESMX 050350Z AUTO 17004KT 9999 NCD 10/09 Q1015=
202008050320 METAR ESMX 050320Z AUTO 18003KT 9999 NCD 08/08 Q1015=
202008050250 METAR ESMX 050250Z AUTO 19002KT 9999 NCD 07/07 Q1014=
202008050220 METAR ESMX 050220Z AUTO 18002KT 9999 NCD 07/07 Q1014=
202008050150 METAR ESMX 050150Z AUTO 18004KT 9999 NCD 08/07 Q1014=
202008050120 METAR ESMX 050120Z AUTO 20005KT 9999 NCD 08/08 Q1015=
202008050050 METAR ESMX 050050Z AUTO 21002KT 9999 NCD 06/06 Q1015=
202008050020 METAR ESMX 050020Z AUTO 20002KT 9999 NCD 08/08 Q1014=
202008042350 METAR ESMX 042350Z AUTO 22004KT 9999 NCD 08/07 Q1014=
202008042320 METAR ESMX 042320Z AUTO 20005KT 9999 NCD 08/08 Q1014=
202008042250 METAR ESMX 042250Z AUTO 22004KT 9999 NCD 09/08 Q1014=
202008042220 METAR ESMX 042220Z AUTO 21005KT 9999 NCD 09/08 Q1014=
202008042150 METAR ESMX 042150Z AUTO 23004KT 9999 NCD 10/08 Q1014=
202008042120 METAR ESMX 042120Z AUTO 23005KT 9999 NCD 10/07 Q1014=
202008042050 METAR ESMX 042050Z AUTO 22004KT 9999 NCD 10/07 Q1014=
202008042020 METAR ESMX 042020Z AUTO 23005KT 9999 NCD 11/07 Q1014=
202008041950 METAR ESMX 041950Z AUTO 24005KT 9999 NCD 12/07 Q1014=
202008041920 METAR ESMX 041920Z AUTO 23004KT 9999 NCD 13/07 Q1013=
202008041850 METAR ESMX 041850Z AUTO 25004KT 9999 NCD 14/07 Q1013=
202008041820 METAR ESMX 041820Z AUTO 26006KT 9999 NCD 16/07 Q1013=
202008041750 METAR ESMX 041750Z AUTO 26006KT 9999 NCD 17/06 Q1013=
202008041720 METAR ESMX 041720Z AUTO 23007KT 9999 NCD 18/07 Q1012=
202008041650 METAR ESMX 041650Z AUTO 25008KT 220V280 9999 NCD 18/06 Q1012=
202008041620 METAR ESMX 041620Z AUTO 27008KT 9999 NCD 18/06 Q1012=
202008041550 METAR ESMX 041550Z AUTO 26010KT 9999 NCD 19/07 Q1012=
202008041520 METAR ESMX 041520Z AUTO 26010KT 9999 NCD 18/07 Q1012=
202008041450 METAR ESMX 041450Z AUTO 27010KT 240V310 9999 FEW057/// 18/07 Q1012=
202008041420 METAR ESMX 041420Z AUTO 26008KT 230V300 9999 BKN057/// 20/08 Q1012=
202008041350 METAR ESMX 041350Z AUTO 28009KT 250V310 9999 BKN057/// 20/07 Q1012=
202008041320 METAR ESMX 041320Z AUTO 26010KT 230V290 9999 BKN059/// 18/07 Q1011=
202008041250 METAR ESMX 041250Z AUTO 28009KT 220V320 9999 FEW051/// SCT064/// 20/08 Q1011=
202008041220 METAR ESMX 041220Z AUTO 28009KT 9999 FEW051/// 19/08 Q1011=
202008041150 METAR ESMX 041150Z AUTO 28010KT 250V320 9999 FEW049/// 19/08 Q1011=
202008041120 METAR ESMX 041120Z AUTO 27008KT 220V300 9999 FEW048/// 20/08 Q1011=
202008041050 METAR ESMX 041050Z AUTO 28010KT 240V300 9999 FEW044/// 19/08 Q1011=
202008041020 METAR ESMX 041020Z AUTO 30008KT 270V340 9999 SCT042/// 18/08 Q1011=
202008040950 METAR ESMX 040950Z AUTO 26011KT 230V290 9999 FEW035/// 19/10 Q1011=
202008040920 METAR ESMX 040920Z AUTO 26009KT 220V280 9999 FEW026/// 18/11 Q1011=
202008040850 METAR ESMX 040850Z AUTO 27007KT 230V330 9999 NCD 18/12 Q1011=
202008040820 METAR ESMX 040820Z AUTO 29009KT 250V320 9999 BKN020/// 17/11 Q1011=
202008040750 METAR ESMX 040750Z AUTO 29008KT 260V330 9999 FEW012/// BKN016/// 16/12 Q1011=
202008040720 METAR ESMX 040720Z AUTO 25006KT 220V300 9999 FEW009/// OVC012/// 15/12 Q1011=
202008040650 METAR ESMX 040650Z AUTO 28005KT 250V320 9999 OVC008/// 14/12 Q1011=
202008040620 METAR ESMX 040620Z AUTO 29008KT 9999 BKN007/// 13/12 Q1011=
202008040550 METAR ESMX 040550Z AUTO 28005KT 9999 SCT006/// 12/12 Q1011=
202008040520 METAR ESMX 040520Z AUTO 28005KT 9999 BKN002/// 11/11 Q1011=
202008040450 METAR ESMX 040450Z AUTO 26003KT 9999 OVC001/// 10/10 Q1011=
202008040420 METAR ESMX 040420Z AUTO 25003KT 9999 OVC001/// 09/09 Q1011=
202008040350 METAR ESMX 040350Z AUTO 24004KT 9999 SCT200/// 08/08 Q1010=
202008040320 METAR ESMX 040320Z AUTO 22003KT 9999 NCD 08/08 Q1010=
202008040250 METAR ESMX 040250Z AUTO 24002KT 9999 NCD 08/08 Q1010=
202008040220 METAR ESMX 040220Z AUTO 24003KT 9999 NCD 07/07 Q1010=
202008040150 METAR ESMX 040150Z AUTO 20002KT 9999 NCD 08/08 Q1010=
202008040120 METAR ESMX 040120Z AUTO 20002KT 9999 NCD 08/08 Q1010=
202008040050 METAR ESMX 040050Z AUTO 26003KT 9999 NCD 09/09 Q1011=
202008040020 METAR ESMX 040020Z AUTO 26003KT 9999 NCD 09/09 Q1011=
202008032350 METAR ESMX 032350Z AUTO VRB02KT 9999 NCD 10/10 Q1011=
202008032320 METAR ESMX 032320Z AUTO 25004KT 9999 NCD 10/10 Q1011=
202008032250 METAR ESMX 032250Z AUTO 26004KT 9999 NCD 11/10 Q1010=
202008032220 METAR ESMX 032220Z AUTO 26005KT 9999 NCD 11/11 Q1011=
202008032150 METAR ESMX 032150Z AUTO 26004KT 9999 NCD 12/11 Q1010=
202008032120 METAR ESMX 032120Z AUTO 26004KT 9999 NCD 12/11 Q1010=
202008032050 METAR ESMX 032050Z AUTO 27004KT 9999 NCD 13/11 Q1010=
202008032020 METAR ESMX 032020Z AUTO 26004KT 9999 NCD 12/11 Q1010=
202008031950 METAR ESMX 031950Z AUTO 26004KT 9999 NCD 13/11 Q1010=
202008031920 METAR ESMX 031920Z AUTO 26004KT 9999 NCD 14/11 Q1010=
202008031850 METAR ESMX 031850Z AUTO 25004KT 9999 NCD 14/11 Q1010=
202008031820 METAR ESMX 031820Z AUTO 26004KT 9999 FEW062/// 16/11 Q1010=
202008031750 METAR ESMX 031750Z 27007KT CAVOK 17/11 Q1009=
202008031720 METAR ESMX 031720Z 26005KT CAVOK 17/11 Q1009=
202008031650 METAR ESMX 031650Z AUTO 28007KT 9999 BKN059/// 18/10 Q1009=
202008031620 METAR ESMX 031620Z AUTO 28007KT 250V320 9999 BKN059/// 19/10 Q1009=
202008031550 METAR ESMX 031550Z AUTO 24006KT 200V300 9999 BKN057/// 19/11 Q1009=
202008031520 METAR ESMX 031520Z AUTO 27007KT 230V320 9999 BKN057/// 20/10 Q1009=
202008031450 METAR ESMX 031450Z AUTO 22007KT 9999 OVC057/// 19/10 Q1009=
202008031420 METAR ESMX 031420Z 26009KT 210V300 9999 BKN046 18/10 Q1009=
202008031350 METAR ESMX 031350Z 26011KT 9999 BKN046 20/10 Q1009=
202008031320 METAR ESMX 031320Z 22008KT 9999 BKN045 19/10 Q1009=
202008031250 METAR ESMX 031250Z 26009KT 230V310 9999 BKN045 19/11 Q1010=
202008031220 METAR ESMX 031220Z 27009KT 230V300 9999 BKN049 18/10 Q1010=
202008031150 METAR ESMX 031150Z 26007KT 210V300 9999 BKN044 18/10 Q1010=
202008031120 METAR ESMX 031120Z 27008KT 230V320 9999 BKN045 18/10 Q1010=
202008031050 METAR ESMX 031050Z 28008KT 9999 BKN038 17/10 Q1010=
202008031020 METAR ESMX 031020Z 28007KT 210V310 9999 BKN034 18/10 Q1010=
202008030950 METAR ESMX 030950Z 26009KT 230V300 9999 BKN034 17/11 Q1010=
202008030920 METAR ESMX 030920Z 26011KT 9999 BKN029 18/11 Q1010=
202008030850 METAR ESMX 030850Z 26008KT 220V290 9999 BKN028 17/11 Q1010=
202008030820 METAR ESMX 030820Z 26008KT 9999 BKN024 16/11 Q1010=
202008030750 METAR ESMX 030750Z 26009KT 9999 BKN021 16/11 Q1010=
202008030720 METAR ESMX 030720Z 26008KT 230V290 9999 SCT017 15/11 Q1010=
202008030650 METAR ESMX 030650Z 27007KT 9999 BKN015 15/12 Q1010=
202008030620 METAR ESMX 030620Z AUTO 27009KT 9999 OVC013/// 14/11 Q1010=
202008030550 METAR ESMX 030550Z AUTO 28007KT 240V310 9999 OVC012/// 13/11 Q1010=
202008030520 METAR ESMX 030520Z AUTO 26006KT 9999 FEW008/// SCT013/// 13/12 Q1010=
202008030450 METAR ESMX 030450Z AUTO 26008KT 9999 NCD 13/12 Q1010=
202008030420 METAR ESMX 030420Z AUTO 23005KT 9999 FEW016/// 13/13 Q1010=
202008030350 METAR ESMX 030350Z AUTO 22004KT 9999 BKN016/// 13/13 Q1010=
202008030320 METAR ESMX 030320Z AUTO 24004KT 9999 FEW007/// BKN011/// OVC120/// 13/13 Q1009=
202008030250 METAR ESMX 030250Z AUTO 19004KT 9999 BKN110/// 12/12 Q1009=
202008030220 METAR ESMX 030220Z AUTO 23004KT 9999 OVC110/// 13/13 Q1009=
202008030150 METAR ESMX 030150Z AUTO 23004KT 9999 FEW014/// OVC110/// 13/13 Q1009=
202008030120 METAR ESMX 030120Z AUTO 24004KT 9999 FEW018/// BKN110/// 12/12 Q1009=
202008030050 METAR ESMX 030050Z AUTO 19003KT 9999 OVC020/// 12/12 Q1009=
202008030020 METAR ESMX 030020Z AUTO 18003KT 9999 FEW110/// 12/12 Q1010=
202008022350 METAR ESMX 022350Z AUTO 19004KT 9999 NCD 13/13 Q1010=
202008022320 METAR ESMX 022320Z AUTO 19004KT 9999 NCD 12/12 Q1010=
202008022250 METAR ESMX 022250Z AUTO 22003KT 9999 NCD 12/12 Q1010=
202008022220 METAR ESMX 022220Z AUTO 19004KT 9999 NCD 13/12 Q1010=
202008022150 METAR ESMX 022150Z AUTO 19004KT 9999 BKN019/// 12/12 Q1010=
202008022120 METAR ESMX 022120Z AUTO 19003KT 9999 FEW021/// 13/12 Q1010=
202008022050 METAR ESMX 022050Z AUTO 20003KT 9999 NCD 14/13 Q1010=
202008022020 METAR ESMX 022020Z AUTO 22003KT 9999 NCD 14/13 Q1010 REUP=
202008021950 METAR ESMX 021950Z AUTO 19003KT 9999 NCD 15/13 Q1010=
202008021920 METAR ESMX 021920Z AUTO 19005KT 9999 BKN026/// 16/13 Q1010=
202008021850 METAR ESMX 021850Z AUTO 27007KT 9999 FEW021/// BKN030/// 17/13 Q1010=
202008021820 METAR ESMX 021820Z AUTO 26007KT 9999 OVC028/// 17/14 Q1009=
202008021750 METAR ESMX 021750Z AUTO 26008KT 230V300 9999 BKN029/// 17/14 Q1009=
202008021720 METAR ESMX 021720Z AUTO 26007KT 220V290 9999 FEW021/// 18/14 Q1009=
202008021650 METAR ESMX 021650Z AUTO 26009KT 230V290 9999 BKN036/// 18/14 Q1009=
202008021620 METAR ESMX 021620Z AUTO 26009KT 9999 FEW025/// SCT035/// 19/14 Q1009=
202008021550 METAR ESMX 021550Z AUTO 25008KT 9999 FEW031/// 19/14 Q1009=
202008021520 METAR ESMX 021520Z AUTO 25009KT 220V280 9999 BKN037/// 20/14 Q1009=
202008021450 METAR ESMX 021450Z AUTO VRB08KT 9999 BKN034/// OVC045/// 20/14 Q1009=
202008021420 METAR ESMX 021420Z AUTO 24009KT 9999 FEW024/// SCT032/// OVC046/// 21/15 Q1009=
202008021350 METAR ESMX 021350Z AUTO 18008KT 9999 FEW017/// OVC035/// 20/16 Q1009=
202008021320 METAR ESMX 021320Z AUTO 23007KT 200V260 9999 OVC026/// 20/17 Q1010 REDZ=
202008021250 METAR ESMX 021250Z AUTO 18008KT 9999 SCT018/// BKN023/// OVC032/// 19/17 Q1010=
202008021220 METAR ESMX 021220Z AUTO 21008KT 170V250 9999 SCT016/// BKN029/// OVC036/// 20/17 Q1010=
202008021150 METAR ESMX 021150Z AUTO 18008KT 140V200 9999 OVC015/// 20/17 Q1010=
202008021120 METAR ESMX 021120Z AUTO 19006KT 9999 BKN011/// OVC029/// 20/17 Q1010=
202008021050 METAR ESMX 021050Z AUTO 19009KT 9999 OVC010/// 19/17 Q1010=
202008021020 METAR ESMX 021020Z AUTO 18008KT 150V210 9999 SCT009/// BKN009/// BKN012/// 19/17 Q1010=
202008020950 METAR ESMX 020950Z AUTO 19007KT 9999 OVC009/// 19/17 Q1010=
202008020920 METAR ESMX 020920Z AUTO 17007KT 120V200 9999 OVC009/// 18/17 Q1010=
202008020850 METAR ESMX 020850Z AUTO 16006KT 130V200 9999 OVC009/// 18/16 Q1010=
202008020820 METAR ESMX 020820Z AUTO 15007KT 9999 OVC008/// 18/16 Q1010=
202008020750 METAR ESMX 020750Z AUTO 16005KT 110V190 9999 BKN009/// OVC100/// 17/16 Q1011=
202008020720 METAR ESMX 020720Z AUTO 19006KT 9999 -DZ FEW009/// OVC098/// 16/15 Q1011 RERA=
202008020650 METAR ESMX 020650Z AUTO 14005KT 090V180 9999 BKN120/// 16/15 Q1011=
202008020620 METAR ESMX 020620Z AUTO 20006KT 170V240 9999 -DZ FEW130/// SCT180/// 16/15 Q1011=
202008020550 METAR ESMX 020550Z AUTO 17006KT 9999 -DZ FEW033/// SCT130/// 16/14 Q1011=
202008020520 METAR ESMX 020520Z AUTO 14008KT 110V170 9999 BKN130/// 16/14 Q1011=
202008020450 METAR ESMX 020450Z AUTO 16006KT 120V200 9999 BKN062/// OVC130/// 15/14 Q1012=
202008020420 METAR ESMX 020420Z AUTO 15006KT 9999 SCT061/// 14/13 Q1012=
202008020350 METAR ESMX 020350Z AUTO 15006KT 120V180 9999 NCD 14/13 Q1013=
202008020320 METAR ESMX 020320Z AUTO 16006KT 9999 BKN180/// 14/13 Q1013=
202008020250 METAR ESMX 020250Z AUTO 15006KT 120V180 9999 OVC170/// 15/13 Q1013=
202008020220 METAR ESMX 020220Z AUTO 15005KT 9999 BKN170/// 14/13 Q1013=
202008020150 METAR ESMX 020150Z AUTO 19005KT 9999 FEW180/// SCT200/// 14/13 Q1013=
202008020120 METAR ESMX 020120Z AUTO 19005KT 9999 SCT200/// 15/13 Q1014=
202008020050 METAR ESMX 020050Z AUTO 15004KT 9999 FEW170/// 15/13 Q1014=
202008020020 METAR ESMX 020020Z AUTO 15005KT 9999 NCD 15/13 Q1014=
202008012350 METAR ESMX 012350Z AUTO 15005KT 9999 NCD 15/13 Q1014=
202008012320 METAR ESMX 012320Z AUTO 15004KT 110V180 9999 NCD 15/13 Q1015=
202008012250 METAR ESMX 012250Z AUTO 14005KT 9999 NCD 15/13 Q1015=
202008012220 METAR ESMX 012220Z AUTO 19006KT 9999 NCD 16/13 Q1015=
202008012150 METAR ESMX 012150Z AUTO 15005KT 9999 NCD 16/13 Q1015=
202008012120 METAR ESMX 012120Z AUTO 15005KT 120V180 9999 FEW150/// 17/13 Q1015=
202008012050 METAR ESMX 012050Z AUTO 15005KT 9999 NCD 17/14 Q1015=
202008012020 METAR ESMX 012020Z AUTO 16006KT 9999 NCD 18/13 Q1016=
202008011950 METAR ESMX 011950Z AUTO 19006KT 9999 FEW160/// 18/13 Q1016=
202008011920 METAR ESMX 011920Z AUTO 19006KT 9999 SCT160/// 19/13 Q1016=
202008011850 METAR ESMX 011850Z AUTO 19007KT 150V280 9999 NCD 20/13 Q1016=
202008011820 METAR ESMX 011820Z AUTO 20007KT 110V270 9999 FEW160/// 20/13 Q1016=
202008011750 METAR ESMX 011750Z AUTO 17008KT 9999 FEW070/// SCT210/// 21/13 Q1016=
202008011720 METAR ESMX 011720Z AUTO 17008KT 9999 FEW051/// SCT070/// 22/14 Q1016=
202008011650 METAR ESMX 011650Z AUTO 16009KT 9999 FEW051/// SCT068/// BKN190/// 23/14 Q1016 RERA=
202008011620 METAR ESMX 011620Z AUTO VRB03KT 9999 BKN190/// 23/14 Q1016=
202008011550 METAR ESMX 011550Z AUTO 14003KT 9999 NCD 22/14 Q1016=
202008011520 METAR ESMX 011520Z AUTO 20004KT 9999 NCD 23/13 Q1016=
202008011450 METAR ESMX 011450Z AUTO 15005KT 120V210 9999 BKN051/// 25/13 Q1017=
202008011420 METAR ESMX 011420Z AUTO 20005KT 150V270 9999 BKN051/// 26/14 Q1017=
202008011350 METAR ESMX 011350Z AUTO 21007KT 9999 BKN051/// 25/14 Q1017=
202008011320 METAR ESMX 011320Z AUTO 18006KT 110V210 9999 SCT049/// 25/14 Q1017=
202008011250 METAR ESMX 011250Z AUTO 19004KT 9999 BKN048/// 23/14 Q1017=
202008011220 METAR ESMX 011220Z AUTO 24005KT 210V290 9999 FEW048/// 24/13 Q1017=
