##########################################################
# Query made at 04/19/2024 22:17:32 UTC
# Time interval: from 12/01/2020 12:00  to 12/31/2020 12:59  UTC
##########################################################

##########################################################
# ESMX, Vaxjo (Sweden)
# WMO index: 02641. WIGOS ID: 0-20000-0-02648
# Latitude 56-51N. Longitude 014-50E. Altitude 199 m.
##########################################################

202012311250 METAR ESMX 311250Z AUTO 18010KT 9999 SCT012/// BKN016/// OVC032/// 04/02 Q1001 REUP=
202012311220 METAR ESMX 311220Z AUTO 17012KT 9999 -DZ FEW010/// BKN014/// OVC032/// 04/03 Q1000 REUP=
202012311150 METAR ESMX 311150Z AUTO 17010KT 9999 SCT012/// OVC034/// 04/03 Q1000=
202012311120 METAR ESMX 311120Z AUTO 18010KT 9999 FEW015/// OVC031/// 04/03 Q1000=
202012311050 METAR ESMX 311050Z AUTO 16009KT 9999 SCT011/// BKN034/// 04/03 Q1000=
202012311020 METAR ESMX 311020Z AUTO 17011KT 9999 BKN010/// 04/03 Q1000=
202012310950 METAR ESMX 310950Z AUTO 16011KT 9999 BKN007/// OVC009/// 04/04 Q1000=
202012310920 METAR ESMX 310920Z AUTO 16009KT 9999 OVC008/// 04/03 Q1000=
202012310850 METAR ESMX 310850Z AUTO 17010KT 9000 -RA BKN007/// BKN010/// OVC013/// 04/03 Q0999=
202012310820 METAR ESMX 310820Z AUTO 17010KT 6000 -RA BKN006/// OVC009/// 03/03 Q0999=
202012310750 METAR ESMX 310750Z AUTO 15009KT 8000 -RA BKN006/// OVC008/// 03/03 Q0999=
202012310720 METAR ESMX 310720Z AUTO 16007KT 120V190 9999 RA BKN007/// OVC009/// 03/03 Q0999=
202012310650 METAR ESMX 310650Z AUTO 15008KT 9000 -RA FEW002/// OVC005/// 03/03 Q0999=
202012310620 METAR ESMX 310620Z AUTO 16009KT 9999 -DZ OVC005/// 03/03 Q0998 RESHUP RERA=
202012310550 METAR ESMX 310550Z AUTO 15009KT 9999 OVC005/// 03/03 Q0998 RERA REDZ=
202012310520 METAR ESMX 310520Z AUTO 15009KT 9999 -DZ BKN005/// OVC008/// 03/03 Q0998=
202012310450 METAR ESMX 310450Z AUTO 15008KT 5000 -RA OVC005/// 03/03 Q0998=
202012310420 METAR ESMX 310420Z AUTO 14008KT 110V180 7000 -RA OVC005/// 03/03 Q0998=
202012310350 METAR ESMX 310350Z AUTO 14008KT 8000 -DZ OVC005/// 03/03 Q0998=
202012310320 METAR ESMX 310320Z AUTO 14008KT 6000 -DZ OVC006/// 03/03 Q0998 REDZ=
202012310250 METAR ESMX 310250Z AUTO 15009KT 110V170 9000 -DZ OVC007/// 03/03 Q0998 REUP=
202012310220 METAR ESMX 310220Z AUTO 15009KT 9999 OVC008/// 03/03 Q0998=
202012310150 METAR ESMX 310150Z AUTO 15008KT 9999 BKN007/// OVC009/// 03/03 Q0998 REUP REDZ=
202012310120 METAR ESMX 310120Z AUTO 14009KT 9999 BKN007/// OVC010/// 03/03 Q0998=
202012310050 METAR ESMX 310050Z AUTO 15009KT 9999 OVC008/// 03/03 Q0998=
202012310020 METAR ESMX 310020Z AUTO 15008KT 9999 -RA BKN007/// OVC009/// 03/03 Q0998 REUP=
202012302350 METAR ESMX 302350Z AUTO 15007KT 9999 OVC006/// 03/03 Q0998=
202012302320 METAR ESMX 302320Z AUTO 15008KT 9999 OVC006/// 03/03 Q0998=
202012302250 METAR ESMX 302250Z AUTO 15008KT 6000 -DZ OVC005/// 03/03 Q0998 RERA=
202012302220 METAR ESMX 302220Z AUTO 15009KT 6000 -RA OVC005/// 03/03 Q0998 REDZ=
202012302150 METAR ESMX 302150Z AUTO 15008KT 110V180 9999 -DZ OVC007/// 03/03 Q0998 REUP=
202012302120 METAR ESMX 302120Z AUTO 14007KT 110V170 9999 OVC008/// 03/03 Q0998=
202012302050 METAR ESMX 302050Z AUTO 15007KT 9999 OVC007/// 03/03 Q0997=
202012302020 METAR ESMX 302020Z AUTO 15007KT 120V190 9999 BKN007/// OVC009/// 03/03 Q0997=
202012301950 METAR ESMX 301950Z AUTO 16007KT 120V190 9999 BKN007/// OVC010/// 03/03 Q0997 RESHUP REUP=
202012301920 METAR ESMX 301920Z AUTO 14006KT 9999 -DZ FEW008/// SCT014/// OVC019/// 03/03 Q0997 REUP=
202012301850 METAR ESMX 301850Z AUTO 15007KT 120V200 9999 FEW005/// SCT007/// BKN009/// 03/03 Q0997 REDZ=
202012301820 METAR ESMX 301820Z AUTO 17007KT 9000 OVC005/// 03/03 Q0997=
202012301750 METAR ESMX 301750Z AUTO 15006KT 110V170 5000 DZ OVC005/// 03/03 Q0997=
202012301720 METAR ESMX 301720Z AUTO 16007KT 9000 DZ OVC005/// 03/02 Q0997=
202012301650 METAR ESMX 301650Z AUTO 13005KT 100V160 7000 RA BKN006/// BKN017/// OVC028/// 03/02 Q0997 REDZ=
202012301620 METAR ESMX 301620Z AUTO 15006KT 9999 DZ SCT006/// BKN009/// BKN018/// 03/02 Q0997 REDZ=
202012301550 METAR ESMX 301550Z AUTO 14005KT 110V170 7000 DZ BKN006/// BKN010/// OVC013/// 03/02 Q0997 REUP=
202012301520 METAR ESMX 301520Z AUTO 14005KT 9999 OVC030/// 03/02 Q0997=
202012301450 METAR ESMX 301450Z AUTO 15005KT 9999 OVC030/// 03/02 Q0997=
202012301420 METAR ESMX 301420Z 15004KT 9999 BKN027 03/02 Q0996=
202012301350 METAR ESMX 301350Z 17006KT 9999 BKN028 03/02 Q0996=
202012301320 METAR ESMX 301320Z 16008KT 9999 BKN021 03/02 Q0996=
202012301250 METAR ESMX 301250Z 18008KT 9999 BKN011 03/02 Q0996=
202012301220 METAR ESMX 301220Z 17008KT 9999 FEW007 BKN009 03/03 Q0996=
202012301150 METAR ESMX 301150Z 17007KT 9999 BKN007 03/03 Q0996=
202012301120 METAR ESMX 301120Z 17006KT 9000 BKN006 03/03 Q0996=
202012301050 METAR ESMX 301050Z 17007KT 9999 BKN007 03/03 Q0996=
202012301020 METAR COR ESMX 301020Z 17005KT 9999 SCT008 BKN010 03/03 Q0996=
202012300950 METAR ESMX 300950Z 18006KT 9999 FEW007 BKN021 03/03 Q0996=
202012300920 METAR COR ESMX 300920Z 17007KT 9999 BKN006 03/03 Q0995=
202012300850 METAR ESMX 300850Z AUTO 18008KT 9999 -DZ OVC005/// 03/03 Q0995 REUP=
202012300820 METAR ESMX 300820Z 16007KT 5000 BR OVC005 03/03 Q0995=
202012300750 METAR ESMX 300750Z 18006KT 6000 BR OVC006 03/03 Q0994=
202012300720 METAR ESMX 300720Z 16006KT 6000 BR OVC005 03/03 Q0994=
202012300650 METAR ESMX 300650Z AUTO 17006KT 6000 BR BKN006/// OVC008/// 03/02 Q0994=
202012300620 METAR ESMX 300620Z AUTO 16006KT 7000 BR OVC006/// 03/02 Q0993=
202012300550 METAR ESMX 300550Z AUTO 17006KT 9000 BR OVC007/// 03/02 Q0993=
202012300520 METAR ESMX 300520Z AUTO 18005KT 8000 BR BKN008/// OVC012/// 03/02 Q0993=
202012300450 METAR ESMX 300450Z AUTO 18006KT 7000 BR BKN006/// OVC008/// 03/02 Q0992=
202012300420 METAR ESMX 300420Z AUTO 17005KT 7000 BR OVC005/// 03/03 Q0992=
202012300350 METAR ESMX 300350Z AUTO 17006KT 6000 BR OVC005/// 03/03 Q0992=
202012300320 METAR ESMX 300320Z AUTO 18006KT 5000 BR OVC005/// 03/02 Q0992=
202012300250 METAR ESMX 300250Z AUTO 18005KT 5000 BR BKN005/// OVC007/// 02/02 Q0992=
202012300220 METAR ESMX 300220Z AUTO 19006KT 6000 BR BKN004/// OVC007/// 02/02 Q0991=
202012300150 METAR ESMX 300150Z AUTO 18007KT 6000 BR OVC005/// 02/02 Q0991=
202012300120 METAR ESMX 300120Z AUTO 18006KT 6000 BR OVC005/// 02/02 Q0991=
202012300050 METAR ESMX 300050Z AUTO 19006KT 7000 BR OVC005/// 02/02 Q0991=
202012300020 METAR ESMX 300020Z AUTO 21007KT 7000 BR OVC005/// 02/02 Q0990 REDZ=
202012292350 METAR ESMX 292350Z AUTO 21006KT 7000 BR FEW003/// SCT005/// BKN006/// 02/02 Q0990 REDZ=
202012292320 METAR ESMX 292320Z AUTO 20005KT 2700 -DZ OVC004/// 02/02 Q0990=
202012292250 METAR ESMX 292250Z AUTO 19005KT 5000 DZ BKN005/// OVC008/// 02/02 Q0990=
202012292220 METAR ESMX 292220Z AUTO 20005KT 7000 -RA BKN005/// OVC012/// 02/02 Q0989=
202012292150 METAR ESMX 292150Z AUTO 22006KT 8000 RA BKN006/// OVC013/// 02/02 Q0989=
202012292120 METAR ESMX 292120Z AUTO 22006KT 9000 -RA OVC005/// 02/02 Q0989=
202012292050 METAR ESMX 292050Z AUTO 22007KT 9999 -RA BKN006/// OVC008/// 02/02 Q0988 REDZ=
202012292020 METAR ESMX 292020Z AUTO 22008KT 9999 -DZ OVC006/// 02/02 Q0988=
202012291950 METAR ESMX 291950Z AUTO 21008KT 190V250 9999 -RA SCT007/// OVC009/// 03/03 Q0988 REDZ=
202012291920 METAR ESMX 291920Z AUTO 19004KT 9999 -DZ BKN010/// OVC022/// 03/03 Q0987=
202012291850 METAR ESMX 291850Z AUTO 17004KT 9999 DZ SCT007/// BKN015/// BKN019/// 03/03 Q0987=
202012291820 METAR ESMX 291820Z AUTO 17006KT 9999 -RA SCT006/// BKN008/// BKN010/// 04/03 Q0987=
202012291750 METAR ESMX 291750Z AUTO 15003KT 6000 -RA FEW007/// SCT015/// OVC024/// 04/04 Q0986 REDZ=
202012291720 METAR ESMX 291720Z AUTO VRB03KT 6000 DZ OVC020/// 04/04 Q0986=
202012291650 METAR ESMX 291650Z AUTO 14003KT 9000 -RA OVC014/// 04/04 Q0986=
202012291620 METAR ESMX 291620Z AUTO 15003KT 6000 -RA ///025 04/04 Q0986=
202012291550 METAR ESMX 291550Z AUTO VRB03KT 7000 -RA FEW006/// OVC013/// 04/04 Q0986=
202012291520 METAR ESMX 291520Z AUTO VRB03KT 9000 -RA BKN009/// BKN018/// OVC026/// 05/05 Q0985=
202012291450 METAR ESMX 291450Z 11004KT 050V160 9999 -RA FEW005 BKN021 05/05 Q0985=
202012291420 METAR ESMX 291420Z VRB02KT 8000 -RA SCT005 BKN008 BKN011 05/05 Q0985=
202012291350 METAR ESMX 291350Z VRB02KT 9999 -RA FEW011 BKN019 BKN025 05/05 Q0985=
202012291320 METAR ESMX 291320Z 08003KT 020V130 9999 -RA SCT007 BKN010 BKN014 05/05 Q0985=
202012291250 METAR ESMX 291250Z VRB03KT 9999 -RA BKN008 BKN010 05/05 Q0985=
202012291220 METAR ESMX 291220Z 08003KT 020V130 9999 -RA BKN008 05/05 Q0985=
202012291150 METAR ESMX 291150Z 06004KT 020V120 9999 -RA BKN008 BKN011 04/04 Q0985=
202012291120 METAR ESMX 291120Z 08003KT 030V140 9999 -RA BKN007 BKN009 04/04 Q0985=
202012291050 METAR ESMX 291050Z 08004KT 010V140 9000 -RA BKN007 BKN009 04/04 Q0985=
202012291020 METAR ESMX 291020Z 06005KT 010V120 9999 BKN007 BKN009 04/04 Q0985=
202012290950 METAR ESMX 290950Z 07005KT 020V130 8000 -RA BKN008 BKN010 04/04 Q0986=
202012290920 METAR ESMX 290920Z 06005KT 020V110 9999 -DZ BKN009 03/03 Q0986=
202012290850 METAR ESMX 290850Z 05004KT 020V080 9000 -RA BKN008 BKN010 03/03 Q0986=
202012290820 METAR ESMX 290820Z 05005KT 9999 -DZ BKN011 OVC013 03/03 Q0986 REDZ=
202012290750 METAR ESMX 290750Z 06005KT 030V130 9999 BKN013 BKN020 03/02 Q0986=
202012290720 METAR ESMX 290720Z 06004KT 030V110 9999 BKN014 03/03 Q0986=
202012290650 METAR ESMX 290650Z 07005KT 030V130 9999 BKN014 03/03 Q0986=
202012290620 METAR ESMX 290620Z AUTO 08005KT 030V120 9999 FEW010/// SCT016/// BKN019/// 03/03 Q0986=
202012290550 METAR ESMX 290550Z AUTO 07004KT 030V100 7000 BR FEW006/// OVC018/// 04/04 Q0986=
202012290520 METAR ESMX 290520Z AUTO 08004KT 040V120 5000 BR FEW008/// BKN020/// 04/04 Q0986=
202012290450 METAR ESMX 290450Z AUTO 06005KT 020V100 6000 BR FEW007/// SCT011/// BKN024/// 04/04 Q0986=
202012290420 METAR ESMX 290420Z AUTO 06004KT 020V100 5000 BR OVC022/// 04/04 Q0986=
202012290350 METAR ESMX 290350Z AUTO VRB03KT 6000 BR SCT007/// OVC023/// 04/04 Q0986=
202012290320 METAR ESMX 290320Z AUTO 08003KT 030V120 7000 BR BKN009/// OVC025/// 04/04 Q0986=
202012290250 METAR ESMX 290250Z AUTO 05004KT 020V080 5000 BR FEW009/// OVC027/// 03/03 Q0986=
202012290220 METAR ESMX 290220Z AUTO VRB02KT 7000 BR FEW007/// BKN018/// BKN024/// 03/03 Q0987=
202012290150 METAR ESMX 290150Z AUTO VRB02KT 5000 BR FEW007/// BKN021/// OVC027/// 03/03 Q0987 RESHUP REUP REDZ=
202012290120 METAR ESMX 290120Z AUTO VRB03KT 6000 BR FEW014/// OVC030/// 03/03 Q0987=
202012290050 METAR ESMX 290050Z AUTO VRB02KT 7000 BR FEW011/// OVC027/// 03/03 Q0987=
202012290020 METAR ESMX 290020Z AUTO VRB03KT 7000 BR FEW007/// BKN015/// BKN018/// 03/03 Q0986 REUP=
202012282350 METAR ESMX 282350Z AUTO VRB02KT 8000 BR BKN007/// OVC009/// 03/03 Q0987 RESHUP=
202012282320 METAR ESMX 282320Z AUTO 15003KT 7000 BR BKN007/// OVC009/// 03/03 Q0987=
202012282250 METAR ESMX 282250Z AUTO VRB02KT 7000 BR BKN007/// OVC009/// 03/03 Q0987 REDZ=
202012282220 METAR ESMX 282220Z 13003KT 080V150 8000 -DZ BKN007 BKN012 03/03 Q0987=
202012282150 METAR ESMX 282150Z 13004KT 060V160 7000 DZ BKN006 BKN009 BKN013 03/03 Q0987 REDZ=
202012282120 METAR ESMX 282120Z 10003KT 040V150 6000 DZ FEW007 BKN010 BKN014 03/03 Q0987=
202012282050 METAR ESMX 282050Z AUTO 10003KT 030V140 5000 DZ SCT008/// BKN010/// OVC016/// 03/03 Q0987=
202012282020 METAR ESMX 282020Z AUTO 12005KT 060V150 4000 -RA ///021 03/03 Q0987=
202012281950 METAR ESMX 281950Z AUTO 11004KT 030V150 5000 DZ FEW002/// SCT007/// BKN012/// 03/03 Q0987=
202012281920 METAR ESMX 281920Z AUTO 11005KT 070V200 8000 DZ SCT007/// BKN009/// OVC019/// 03/03 Q0987 RERA REDZ=
202012281850 METAR ESMX 281850Z AUTO 10004KT 050V140 9999 BKN009/// OVC023/// 03/03 Q0987=
202012281820 METAR ESMX 281820Z AUTO 11004KT 030V170 9000 -DZ BKN008/// OVC011/// 03/03 Q0987=
202012281750 METAR ESMX 281750Z AUTO 11005KT 050V220 9999 -DZ BKN007/// OVC010/// 03/03 Q0986 RESHUP REDZ=
202012281720 METAR ESMX 281720Z AUTO 11005KT 060V160 9999 OVC007/// 03/03 Q0987=
202012281650 METAR ESMX 281650Z AUTO 11005KT 070V140 9000 -DZ OVC006/// 03/03 Q0987=
202012281620 METAR ESMX 281620Z AUTO 13007KT 070V170 7000 BKN008/// OVC010/// 03/03 Q0986 RESHUP REDZ=
202012281550 METAR ESMX 281550Z AUTO 11007KT 080V150 9999 OVC006/// 03/03 Q0987=
202012281520 METAR ESMX 281520Z 12006KT 080V160 6000 -DZ BKN005 03/03 Q0987=
202012281450 METAR ESMX 281450Z 13006G17KT 070V160 8000 -DZ BKN006 03/03 Q0986 RERA=
202012281420 METAR ESMX 281420Z 11006KT 020V150 9999 BKN008 03/03 Q0986=
202012281350 METAR ESMX 281350Z 11005KT 030V160 9999 FEW002 BKN006 03/02 Q0986 REDZ=
202012281320 METAR ESMX 281320Z 12005KT 010V160 3100 DZ FEW002 BKN006 03/02 Q0986=
202012281250 METAR ESMX 281250Z 11006KT 060V220 7000 -DZ BKN006 03/02 Q0986=
202012281220 METAR ESMX 281220Z 10006KT 050V140 6000 -RA BKN006 03/02 Q0986 REDZ=
202012281150 METAR ESMX 281150Z 09005KT 030V140 7000 DZ SCT007 BKN009 03/02 Q0986 REDZ=
202012281120 METAR ESMX 281120Z 11006KT 040V160 9999 BKN010 03/02 Q0987=
202012281050 METAR ESMX 281050Z 13007KT 070V170 9999 BKN012 03/01 Q0987=
202012281020 METAR ESMX 281020Z 13006KT 080V170 9999 BKN011 03/01 Q0987=
202012280950 METAR ESMX 280950Z 11009KT 070V150 9999 BKN011 03/01 Q0987=
202012280920 METAR ESMX 280920Z 12007KT 080V160 9999 BKN011 03/01 Q0988=
202012280850 METAR ESMX 280850Z AUTO 11008KT 060V150 9999 OVC011/// 03/01 Q0987=
202012280820 METAR ESMX 280820Z 14007KT 090V170 9999 BKN011 03/01 Q0987=
202012280750 METAR ESMX 280750Z 13008KT 050V180 9999 BKN012 03/01 Q0987=
202012280720 METAR ESMX 280720Z AUTO 13009KT 040V170 9999 OVC011/// 03/01 Q0988=
202012280650 METAR ESMX 280650Z 12008KT 070V160 9999 BKN010 03/01 Q0987=
202012280620 METAR ESMX 280620Z AUTO 12007KT 070V170 7000 BR FEW006/// OVC010/// 03/01 Q0987=
202012280550 METAR ESMX 280550Z AUTO 13007KT 080V170 9999 OVC012/// 03/01 Q0987=
202012280520 METAR ESMX 280520Z AUTO 13007KT 100V170 9999 OVC014/// 03/01 Q0987=
202012280450 METAR ESMX 280450Z AUTO 14007KT 100V170 9999 OVC016/// 03/00 Q0986=
202012280420 METAR ESMX 280420Z AUTO 13009KT 100V170 9999 OVC017/// 03/00 Q0986=
202012280350 METAR ESMX 280350Z AUTO 14009KT 100V160 9999 OVC017/// 03/00 Q0987=
202012280320 METAR ESMX 280320Z AUTO 13009KT 100V160 9999 OVC016/// 03/00 Q0987=
202012280250 METAR ESMX 280250Z AUTO 13009KT 090V170 9999 OVC018/// 03/M00 Q0986=
202012280220 METAR ESMX 280220Z AUTO 14010KT 100V170 9999 OVC019/// 03/M00 Q0986=
202012280150 METAR ESMX 280150Z AUTO 12010G20KT 080V160 9999 OVC019/// 03/M00 Q0986=
202012280120 METAR ESMX 280120Z AUTO 13010KT 090V160 9999 OVC020/// 03/M01 Q0986=
202012280050 METAR ESMX 280050Z AUTO 14013G24KT 080V170 9999 OVC022/// 03/M01 Q0987=
202012280020 METAR ESMX 280020Z AUTO 13011KT 100V160 9999 BKN023/// BKN034/// 03/M01 Q0987=
202012272350 METAR ESMX 272350Z AUTO 13011G22KT 100V190 9999 SCT024/// BKN030/// 03/M01 Q0987=
202012272320 METAR ESMX 272320Z AUTO 14012KT 9999 OVC024/// 03/M01 Q0987=
202012272250 METAR ESMX 272250Z AUTO 14011KT 080V170 9999 OVC024/// 03/M01 Q0987=
202012272220 METAR ESMX 272220Z AUTO 14012KT 100V180 9999 OVC024/// 03/M01 Q0987=
202012272150 METAR ESMX 272150Z AUTO 14012KT 100V170 9999 BKN025/// 03/M01 Q0987=
202012272120 METAR ESMX 272120Z AUTO 14014KT 110V170 9999 BKN026/// 03/M01 Q0987=
202012272050 METAR ESMX 272050Z AUTO 14014KT 110V170 9999 BKN027/// 03/M01 Q0987=
202012272020 METAR ESMX 272020Z AUTO 15015KT 9999 BKN026/// BKN053/// 03/M01 Q0987=
202012271950 METAR ESMX 271950Z AUTO 14013KT 110V170 9999 BKN025/// OVC047/// 03/M01 Q0987=
202012271920 METAR ESMX 271920Z AUTO 15014KT 120V180 9999 BKN024/// OVC038/// 03/M01 Q0987=
202012271850 METAR ESMX 271850Z AUTO 15017KT 9999 OVC022/// 03/M00 Q0987=
202012271820 METAR ESMX 271820Z AUTO 15012G23KT 120V180 9999 OVC022/// 03/M00 Q0987=
202012271750 METAR ESMX 271750Z AUTO 15012KT 9999 OVC022/// 03/M00 Q0987=
202012271720 METAR ESMX 271720Z AUTO 15013G25KT 120V190 9999 OVC021/// 03/M00 Q0987=
202012271650 METAR ESMX 271650Z AUTO 15013KT 9999 OVC019/// 03/M00 Q0987=
202012271620 METAR ESMX 271620Z AUTO 16014KT 130V200 9999 OVC018/// 03/M00 Q0988=
202012271550 METAR ESMX 271550Z AUTO 15016G26KT 9999 OVC016/// 02/M00 Q0988=
202012271520 METAR ESMX 271520Z AUTO 15016G26KT 9999 OVC014/// 02/M00 Q0988=
202012271450 METAR ESMX 271450Z AUTO 15016G28KT 120V190 9999 OVC012/// 02/00 Q0989=
202012271420 METAR ESMX 271420Z AUTO 17016G28KT 9999 OVC012/// 02/00 Q0989=
202012271350 METAR ESMX 271350Z AUTO 17015G27KT 9999 OVC011/// 02/00 Q0989=
202012271320 METAR ESMX 271320Z AUTO 17016KT 140V200 9999 OVC011/// 02/00 Q0989=
202012271250 METAR ESMX 271250Z AUTO 15019G34KT 9999 OVC011/// 02/00 Q0989=
202012271220 METAR ESMX 271220Z AUTO 16017G28KT 130V190 9999 BKN007/// OVC009/// 02/01 Q0990=
202012271150 METAR ESMX 271150Z AUTO 16016G28KT 140V200 9999 OVC007/// 02/01 Q0990=
202012271120 METAR ESMX 271120Z AUTO 15016KT 9999 OVC006/// 03/02 Q0990=
202012271050 METAR ESMX 271050Z AUTO 15015G26KT 9999 OVC006/// 03/03 Q0991=
202012271020 METAR ESMX 271020Z AUTO 17014KT 9999 OVC006/// 03/03 Q0991=
202012270950 METAR ESMX 270950Z AUTO 15015KT 110V170 9999 FEW002/// OVC005/// 03/03 Q0991=
202012270920 METAR ESMX 270920Z AUTO 16014KT 6000 -RA OVC004/// 03/03 Q0992=
202012270850 METAR ESMX 270850Z AUTO 17013KT 140V200 9999 -RA OVC005/// 03/02 Q0992=
202012270820 METAR ESMX 270820Z AUTO 17012KT 130V200 7000 -RA OVC004/// 03/02 Q0993 REDZ=
202012270750 METAR ESMX 270750Z AUTO 17013KT 9999 OVC005/// 03/02 Q0993 RESHUP RERA=
202012270720 METAR ESMX 270720Z AUTO 16014G24KT 9999 OVC006/// 03/02 Q0993=
202012270650 METAR ESMX 270650Z AUTO 16014G24KT 140V200 9999 OVC006/// 03/02 Q0994 RERA=
202012270620 METAR ESMX 270620Z AUTO 16013KT 140V200 9999 OVC006/// 03/02 Q0994=
202012270550 METAR ESMX 270550Z AUTO 17013G24KT 8000 DZ OVC005/// 03/02 Q0994=
202012270520 METAR ESMX 270520Z AUTO 16014KT 9999 OVC004/// 03/02 Q0995 REUP=
202012270450 METAR ESMX 270450Z AUTO 16013KT 9000 BR OVC003/// 03/03 Q0995=
202012270420 METAR ESMX 270420Z AUTO 17014KT 9999 OVC003/// 03/02 Q0995=
202012270350 METAR ESMX 270350Z AUTO 17014KT 9999 OVC004/// 03/02 Q0996=
202012270320 METAR ESMX 270320Z AUTO 17014KT 9999 OVC006/// 03/02 Q0996=
202012270250 METAR ESMX 270250Z AUTO 16012KT 8000 BR OVC005/// 03/02 Q0997 RESHUP REDZ=
202012270220 METAR ESMX 270220Z AUTO 17014KT 9999 OVC006/// 03/02 Q0997=
202012270150 METAR ESMX 270150Z AUTO 17013KT 9999 OVC006/// 02/02 Q0998 RESHUP REDZ=
202012270120 METAR ESMX 270120Z AUTO 17014KT 9999 OVC006/// 02/02 Q0998=
202012270050 METAR ESMX 270050Z AUTO 17013KT 9999 DZ OVC005/// 02/02 Q0999=
202012270020 METAR ESMX 270020Z AUTO 17014KT 9999 -RA OVC007/// 03/02 Q0999=
202012262350 METAR ESMX 262350Z AUTO 17015KT 9999 -DZ OVC006/// 02/02 Q1000 RESHUP RERA=
202012262320 METAR ESMX 262320Z AUTO 17014KT 9999 OVC006/// 02/02 Q1000=
202012262250 METAR ESMX 262250Z AUTO 17012KT 9999 -DZ OVC006/// 02/02 Q1001 RERA=
202012262220 METAR ESMX 262220Z AUTO 17013KT 9999 OVC006/// 02/02 Q1001=
202012262150 METAR ESMX 262150Z AUTO 17013KT 7000 -RA OVC005/// 02/02 Q1002=
202012262120 METAR ESMX 262120Z AUTO 18012KT 9999 -DZ OVC006/// 02/02 Q1002=
202012262050 METAR ESMX 262050Z AUTO 17012KT 9000 -RA OVC005/// 02/02 Q1003=
202012262020 METAR ESMX 262020Z AUTO 17012KT 9000 -RA OVC006/// 02/02 Q1003=
202012261950 METAR ESMX 261950Z AUTO 17011KT 5000 -RASN BKN005/// OVC010/// 02/01 Q1004 RERA=
202012261920 METAR ESMX 261920Z AUTO 18010KT 6000 -RA OVC005/// 02/02 Q1004 RERA=
202012261850 METAR ESMX 261850Z AUTO 17010KT 6000 RA OVC005/// 01/01 Q1005 RERA=
202012261820 METAR ESMX 261820Z AUTO 18010KT 8000 RA OVC004/// 01/01 Q1005=
202012261750 METAR ESMX 261750Z AUTO 18010KT 8000 -RA OVC003/// 01/01 Q1005=
202012261720 METAR ESMX 261720Z AUTO 17010KT 9999 -RA OVC003/// 01/01 Q1006 RESHUP REDZ=
202012261650 METAR ESMX 261650Z AUTO 16010KT 9999 OVC003/// 01/01 Q1007=
202012261620 METAR ESMX 261620Z AUTO 17008KT 8000 BR OVC003/// 01/01 Q1007=
202012261550 METAR ESMX 261550Z AUTO 16008KT 5000 -SN FEW002/// OVC004/// 01/01 Q1008=
202012261520 METAR ESMX 261520Z AUTO 17007KT 9999 -RA OVC004/// 01/01 Q1008=
202012261450 METAR ESMX 261450Z AUTO 17008KT 9999 -SN OVC005/// 01/00 Q1009 RESHUP REUP=
202012261420 METAR ESMX 261420Z AUTO 18008KT 9999 UP OVC005/// 00/00 Q1009 REUP RESHUP=
202012261350 METAR ESMX 261350Z AUTO 18007KT 9999 UP OVC005/// 00/M00 Q1010=
202012261320 METAR ESMX 261320Z AUTO 18009KT 9999 OVC004/// 00/M00 Q1010=
202012261250 METAR ESMX 261250Z AUTO 18008KT 9999 OVC005/// 00/M00 Q1010=
202012261220 METAR ESMX 261220Z AUTO 17007KT 9999 BKN006/// OVC008/// 00/M00 Q1010=
202012261150 METAR ESMX 261150Z AUTO 19008KT 9999 FEW014/// SCT022/// OVC030/// M00/M01 Q1011=
202012261120 METAR ESMX 261120Z AUTO 17007KT 9999 BKN010/// BKN013/// OVC035/// M00/M01 Q1011=
202012261050 METAR ESMX 261050Z AUTO 19006KT 9999 BKN018/// OVC030/// M01/M01 Q1012=
202012261020 METAR ESMX 261020Z AUTO 20006KT 9999 OVC018/// M02/M02 Q1012 REFZUP=
202012260950 METAR ESMX 260950Z AUTO 18007KT 9999 FZUP BKN025/// OVC032/// M02/M03 Q1012=
202012260920 METAR ESMX 260920Z AUTO 22005KT 9999 FEW020/// BKN038/// M02/M04 Q1013=
202012260850 METAR ESMX 260850Z AUTO 22004KT 9999 FEW044/// M03/M04 Q1013=
202012260820 METAR ESMX 260820Z AUTO 23003KT 9999 FEW020/// M04/M04 Q1013=
202012260750 METAR ESMX 260750Z AUTO 18003KT 9999 NCD M04/M05 Q1013=
202012260720 METAR ESMX 260720Z AUTO 23003KT 9999 NCD M05/M05 Q1013=
202012260650 METAR ESMX 260650Z AUTO 23003KT 9999 NCD M05/M05 Q1014=
202012260620 METAR ESMX 260620Z AUTO 23003KT 9999 NCD M05/M05 Q1014=
202012260550 METAR ESMX 260550Z AUTO 23003KT 9999 NCD M05/M05 Q1014=
202012260520 METAR ESMX 260520Z AUTO 24002KT 9999 NCD M05/M05 Q1014=
202012260450 METAR ESMX 260450Z AUTO 23001KT 9999 BKN170/// M04/M05 Q1014=
202012260420 METAR ESMX 260420Z AUTO 26003KT 9999 OVC180/// M05/M05 Q1014=
202012260350 METAR ESMX 260350Z AUTO 25003KT 9999 SCT180/// M05/M05 Q1014=
202012260320 METAR ESMX 260320Z AUTO 26003KT 9999 NCD M05/M05 Q1014=
202012260250 METAR ESMX 260250Z AUTO VRB03KT 9999 NCD M05/M05 Q1014=
202012260220 METAR ESMX 260220Z AUTO 29004KT 9999 NCD M05/M05 Q1014=
202012260150 METAR ESMX 260150Z AUTO 27003KT 9999 NCD M05/M06 Q1014=
202012260120 METAR ESMX 260120Z AUTO 30003KT 9999 NCD M05/M05 Q1014=
202012260050 METAR ESMX 260050Z AUTO 31003KT 9999 NCD M04/M05 Q1014=
202012260020 METAR ESMX 260020Z AUTO 30004KT 9999 NCD M04/M05 Q1014=
202012252350 METAR ESMX 252350Z AUTO 31005KT 9999 NCD M04/M05 Q1014=
202012252320 METAR ESMX 252320Z AUTO 32006KT 280V360 9999 NCD M04/M05 Q1014=
202012252250 METAR ESMX 252250Z AUTO 31007KT 9999 NCD M03/M04 Q1015=
202012252220 METAR ESMX 252220Z AUTO 34007KT 9999 NCD M03/M04 Q1015=
202012252150 METAR ESMX 252150Z AUTO 29007KT 9999 NCD M03/M04 Q1014=
202012252120 METAR ESMX 252120Z AUTO 30007KT 9999 NCD M03/M04 Q1015=
202012252050 METAR ESMX 252050Z AUTO 30007KT 9999 NCD M03/M04 Q1015=
202012252020 METAR ESMX 252020Z AUTO 31005KT 9999 NCD M03/M04 Q1015=
202012251950 METAR ESMX 251950Z AUTO 32007KT 9999 NCD M02/M04 Q1015=
202012251920 METAR ESMX 251920Z AUTO 31006KT 9999 NCD M02/M04 Q1015=
202012251850 METAR ESMX 251850Z AUTO 31007KT 9999 NCD M02/M03 Q1014=
202012251820 METAR ESMX 251820Z AUTO 31007KT 9999 NCD M01/M03 Q1014=
202012251750 METAR ESMX 251750Z AUTO 32007KT 9999 NCD M01/M04 Q1014=
202012251720 METAR ESMX 251720Z AUTO 32008KT 9999 NCD M00/M03 Q1014=
202012251650 METAR ESMX 251650Z AUTO 33009KT 9999 BKN043/// 00/M03 Q1014=
202012251620 METAR ESMX 251620Z AUTO 33009KT 9999 OVC040/// 01/M03 Q1014=
202012251550 METAR ESMX 251550Z AUTO 31008KT 9999 OVC043/// 00/M02 Q1014=
202012251520 METAR ESMX 251520Z AUTO 31007KT 9999 FEW021/// OVC044/// 00/M02 Q1014=
202012251450 METAR ESMX 251450Z AUTO 30007KT 9999 OVC028/// 00/M01 Q1014=
202012251420 METAR ESMX 251420Z AUTO 30006KT 9999 SCT025/// BKN098/// OVC110/// 00/M02 Q1014=
202012251350 METAR ESMX 251350Z AUTO 31007KT 280V340 9999 BKN098/// BKN110/// 00/M02 Q1014=
202012251320 METAR ESMX 251320Z AUTO 30007KT 9999 FEW019/// SCT037/// OVC100/// 00/M02 Q1014=
202012251250 METAR ESMX 251250Z AUTO 30008KT 9999 BKN019/// BKN027/// OVC036/// 01/M02 Q1014=
202012251220 METAR ESMX 251220Z AUTO 31007KT 9999 NCD 01/M02 Q1014=
202012251150 METAR ESMX 251150Z AUTO 30006KT 9999 SCT035/// 00/M02 Q1014=
202012251120 METAR ESMX 251120Z AUTO 32008KT 9999 FEW037/// SCT150/// M00/M02 Q1014=
202012251050 METAR ESMX 251050Z AUTO 31007KT 9999 FEW150/// M00/M02 Q1014=
202012251020 METAR ESMX 251020Z AUTO 31006KT 9999 NCD M01/M02 Q1014=
202012250950 METAR ESMX 250950Z AUTO 30006KT 9999 NCD M01/M02 Q1014=
202012250920 METAR ESMX 250920Z AUTO 30006KT 9999 FEW110/// SCT170/// M01/M02 Q1014=
202012250850 METAR ESMX 250850Z AUTO 30007KT 9999 SCT180/// M01/M02 Q1014=
202012250820 METAR ESMX 250820Z AUTO 30007KT 9999 NCD M01/M02 Q1013=
202012250750 METAR ESMX 250750Z AUTO 30007KT 9999 BKN022/// OVC029/// M01/M02 Q1013=
202012250720 METAR ESMX 250720Z AUTO 30006KT 9999 SCT025/// M01/M03 Q1013=
202012250650 METAR ESMX 250650Z AUTO 31006KT 9999 BKN024/// M01/M02 Q1013=
202012250620 METAR ESMX 250620Z AUTO 30006KT 9999 NCD M01/M02 Q1012=
202012250550 METAR ESMX 250550Z AUTO 31007KT 9999 FEW021/// M00/M02 Q1012=
202012250520 METAR ESMX 250520Z AUTO 30006KT 9999 OVC021/// 00/M02 Q1012=
202012250450 METAR ESMX 250450Z AUTO 31006KT 9999 OVC023/// 01/M02 Q1012=
202012250420 METAR ESMX 250420Z AUTO 32008KT 9999 OVC023/// 01/M02 Q1012=
202012250350 METAR ESMX 250350Z AUTO 33011KT 290V350 9999 OVC023/// 01/M02 Q1011=
202012250320 METAR ESMX 250320Z AUTO 33010KT 9999 OVC023/// 01/M02 Q1011=
202012250250 METAR ESMX 250250Z AUTO 33011KT 9999 OVC023/// 01/M03 Q1011=
202012250220 METAR ESMX 250220Z AUTO 35012KT 320V020 9999 OVC022/// 01/M02 Q1011=
202012250150 METAR ESMX 250150Z AUTO 34011KT 300V010 9999 OVC022/// 01/M02 Q1011=
202012250120 METAR ESMX 250120Z AUTO 33010KT 300V010 9999 OVC021/// 01/M02 Q1011=
202012250050 METAR ESMX 250050Z AUTO 34010KT 9999 OVC021/// 01/M02 Q1010=
202012250020 METAR ESMX 250020Z AUTO 33009KT 9999 OVC022/// 01/M02 Q1010=
202012242350 METAR ESMX 242350Z AUTO 34012KT 9999 OVC021/// 01/M02 Q1010=
202012242320 METAR ESMX 242320Z AUTO 35013KT 9999 OVC019/// 01/M02 Q1010=
202012242250 METAR ESMX 242250Z AUTO 34010KT 9999 OVC021/// 01/M02 Q1010=
202012242220 METAR ESMX 242220Z AUTO 35012KT 9999 OVC019/// 01/M02 Q1009=
202012242150 METAR ESMX 242150Z AUTO 35012KT 9999 OVC018/// 01/M02 Q1009=
202012242120 METAR ESMX 242120Z AUTO 35012KT 9999 OVC017/// 01/M01 Q1009=
202012242050 METAR ESMX 242050Z AUTO 35012KT 9999 OVC017/// 01/M01 Q1009=
202012242020 METAR ESMX 242020Z AUTO 34011KT 9999 OVC019/// 01/M01 Q1009 RESG REUP=
202012241950 METAR ESMX 241950Z AUTO 34013KT 9999 UP OVC017/// 01/M01 Q1009=
202012241920 METAR ESMX 241920Z AUTO 35011KT 9999 OVC017/// 01/M01 Q1008=
202012241850 METAR ESMX 241850Z AUTO 34010KT 9999 OVC017/// 00/M01 Q1008=
202012241820 METAR ESMX 241820Z AUTO 33008KT 9999 SCT020/// M00/M01 Q1008=
202012241750 METAR ESMX 241750Z AUTO 34008KT 9999 NCD M00/M01 Q1007=
202012241720 METAR ESMX 241720Z AUTO 34008KT 9999 NCD M00/M01 Q1007=
202012241650 METAR ESMX 241650Z AUTO 35009KT 9999 NCD M00/M01 Q1007=
202012241620 METAR ESMX 241620Z AUTO 35009KT 9999 NCD M00/M01 Q1006=
202012241550 METAR ESMX 241550Z AUTO 34009KT 9999 NCD M00/M01 Q1006=
202012241520 METAR ESMX 241520Z AUTO 34009KT 9999 NCD M00/M02 Q1006=
202012241450 METAR ESMX 241450Z AUTO 35010KT 9999 NCD 01/M02 Q1006=
202012241420 METAR ESMX 241420Z AUTO 34009KT 9999 NCD 01/M01 Q1005=
202012241350 METAR ESMX 241350Z AUTO 35009KT 9999 NCD 01/M01 Q1005=
202012241320 METAR ESMX 241320Z AUTO 35010KT 9999 NCD 01/M01 Q1005=
202012241250 METAR ESMX 241250Z AUTO 35007KT 9999 NCD 01/M00 Q1005=
202012241220 METAR ESMX 241220Z AUTO 35008KT 9999 NCD 01/M01 Q1005=
202012241150 METAR ESMX 241150Z AUTO 35009KT 9999 FEW014/// 01/M00 Q1005=
202012241120 METAR ESMX 241120Z AUTO 35010KT 9999 NCD 02/M00 Q1005=
202012241050 METAR ESMX 241050Z AUTO 35009KT 9999 NCD 02/00 Q1004=
202012241020 METAR ESMX 241020Z AUTO 36008KT 9999 SCT009/// 02/00 Q1004=
202012240950 METAR ESMX 240950Z AUTO 35008KT 9999 BKN009/// 02/01 Q1004=
202012240920 METAR ESMX 240920Z AUTO 35009KT 9999 BKN009/// 01/00 Q1004=
202012240850 METAR ESMX 240850Z AUTO 35008KT 9999 BKN009/// 01/00 Q1004=
202012240820 METAR ESMX 240820Z AUTO 35009KT 9999 OVC009/// 02/01 Q1004=
202012240750 METAR ESMX 240750Z AUTO 01009KT 9999 OVC009/// 02/01 Q1004=
202012240720 METAR ESMX 240720Z AUTO 02008KT 9999 OVC010/// 02/01 Q1003=
202012240650 METAR ESMX 240650Z AUTO 01008KT 9999 OVC011/// 03/02 Q1003=
202012240620 METAR ESMX 240620Z AUTO 02006KT 9999 OVC012/// 03/02 Q1003=
202012240550 METAR ESMX 240550Z AUTO 02006KT 9999 OVC012/// 03/02 Q1003=
202012240520 METAR ESMX 240520Z AUTO 03005KT 9999 OVC010/// 03/02 Q1003=
202012240450 METAR ESMX 240450Z AUTO 01005KT 9999 OVC008/// 03/02 Q1003=
202012240420 METAR ESMX 240420Z AUTO 03006KT 9999 BKN008/// OVC010/// 03/02 Q1003=
202012240350 METAR ESMX 240350Z AUTO 03008KT 9999 BKN009/// OVC015/// 03/03 Q1004=
202012240320 METAR ESMX 240320Z AUTO 03005KT 9999 FEW008/// BKN015/// OVC018/// 03/03 Q1003=
202012240250 METAR ESMX 240250Z AUTO 23003KT 9000 BR OVC018/// 03/03 Q1004=
202012240220 METAR ESMX 240220Z AUTO 00000KT 9999 OVC016/// 03/03 Q1004=
202012240150 METAR ESMX 240150Z AUTO 35002KT 9999 OVC016/// 03/03 Q1004=
202012240120 METAR ESMX 240120Z AUTO 00000KT 9999 OVC015/// 03/03 Q1005=
202012240050 METAR ESMX 240050Z AUTO 23003KT 9999 OVC014/// 04/04 Q1005=
202012240020 METAR ESMX 240020Z AUTO 17001KT 9999 FEW012/// OVC016/// 04/04 Q1005=
202012232350 METAR ESMX 232350Z AUTO VRB02KT 9999 FEW004/// OVC010/// 04/04 Q1005=
202012232320 METAR ESMX 232320Z AUTO 00000KT 9999 SCT004/// OVC013/// 04/04 Q1005=
202012232250 METAR ESMX 232250Z AUTO 23002KT 9999 OVC005/// 04/04 Q1006=
202012232220 METAR ESMX 232220Z AUTO 23003KT 9999 OVC005/// 04/04 Q1006=
202012232150 METAR ESMX 232150Z AUTO 23003KT 9999 OVC005/// 04/04 Q1006=
202012232120 METAR ESMX 232120Z AUTO 26003KT 9999 OVC004/// 04/04 Q1006=
202012232050 METAR ESMX 232050Z AUTO 24004KT 9999 OVC005/// 04/04 Q1006=
202012232020 METAR ESMX 232020Z AUTO 24004KT 9999 OVC005/// 04/04 Q1007=
202012231950 METAR ESMX 231950Z AUTO 22005KT 9999 OVC006/// 04/04 Q1007=
202012231920 METAR ESMX 231920Z AUTO 23004KT 200V260 9999 OVC006/// 04/04 Q1007=
202012231850 METAR ESMX 231850Z AUTO 22005KT 9999 OVC006/// 04/04 Q1007=
202012231820 METAR ESMX 231820Z AUTO 22005KT 9999 SCT007/// 03/03 Q1007=
202012231750 METAR ESMX 231750Z AUTO 18005KT 9999 FEW007/// 03/03 Q1007=
202012231720 METAR ESMX 231720Z AUTO 19004KT 9999 NCD 04/03 Q1007=
202012231650 METAR ESMX 231650Z AUTO 22007KT 9999 SCT120/// 04/04 Q1007=
202012231620 METAR ESMX 231620Z AUTO 21008KT 9999 BKN027/// 05/04 Q1007=
202012231550 METAR ESMX 231550Z AUTO 20008KT 9999 OVC026/// 05/04 Q1008=
202012231520 METAR ESMX 231520Z AUTO 20007KT 9999 OVC025/// 05/03 Q1008=
202012231450 METAR ESMX 231450Z AUTO 20008KT 9999 OVC026/// 05/03 Q1008=
202012231420 METAR ESMX 231420Z AUTO 23007KT 9999 OVC025/// 05/03 Q1008=
202012231350 METAR ESMX 231350Z AUTO 22005KT 9999 OVC024/// 05/03 Q1008=
202012231320 METAR ESMX 231320Z 24005KT 9999 BKN023 05/03 Q1008=
202012231250 METAR ESMX 231250Z 25007KT 220V290 9999 BKN020 05/03 Q1008=
202012231220 METAR COR ESMX 231220Z 25007KT 9999 BKN021 05/03 Q1008=
202012231150 METAR ESMX 231150Z 25007KT 210V280 9999 BKN020 05/03 Q1008=
202012231120 METAR ESMX 231120Z 26009KT 220V280 9999 BKN020 05/03 Q1008=
202012231050 METAR ESMX 231050Z 25008KT 230V290 9999 BKN019 05/03 Q1008=
202012231020 METAR ESMX 231020Z 25009KT 9999 BKN019 05/03 Q1008=
202012230950 METAR ESMX 230950Z 25009KT 9999 BKN021 05/03 Q1008=
202012230920 METAR ESMX 230920Z 23010KT 9999 FEW013 BKN022 05/04 Q1008=
202012230850 METAR ESMX 230850Z 23010KT 9999 FEW014 BKN024 05/04 Q1007=
202012230820 METAR ESMX 230820Z 23009KT 9999 SCT013 BKN021 05/04 Q1007=
202012230750 METAR ESMX 230750Z AUTO 23009KT 9999 FEW011/// SCT017/// OVC023/// 05/04 Q1007=
202012230720 METAR ESMX 230720Z AUTO 23010KT 9999 BKN010/// OVC022/// 05/04 Q1007=
202012230650 METAR ESMX 230650Z AUTO 23010KT 9999 FEW010/// OVC022/// 05/04 Q1007=
202012230620 METAR ESMX 230620Z AUTO 23009KT 200V260 9999 SCT009/// BKN012/// OVC021/// 05/04 Q1007=
202012230550 METAR ESMX 230550Z AUTO 25008KT 9999 FEW010/// OVC023/// 05/04 Q1007=
202012230520 METAR ESMX 230520Z AUTO 24009KT 220V280 9999 SCT010/// OVC024/// 05/04 Q1006=
202012230450 METAR ESMX 230450Z AUTO 23010KT 9999 FEW017/// OVC025/// 05/04 Q1007=
202012230420 METAR ESMX 230420Z AUTO 24009KT 9999 OVC026/// 05/04 Q1006=
202012230350 METAR ESMX 230350Z AUTO 25010KT 9999 FEW015/// OVC024/// 05/04 Q1006=
202012230320 METAR ESMX 230320Z AUTO 25009KT 9999 BKN018/// OVC023/// 06/04 Q1006=
202012230250 METAR ESMX 230250Z AUTO 26011KT 9999 OVC020/// 06/04 Q1006=
202012230220 METAR ESMX 230220Z AUTO 26008KT 9999 SCT018/// OVC023/// 05/04 Q1006=
202012230150 METAR ESMX 230150Z AUTO 24009KT 9999 SCT012/// OVC023/// 05/05 Q1006=
202012230120 METAR ESMX 230120Z AUTO 23008KT 9999 FEW012/// OVC022/// 05/05 Q1006=
202012230050 METAR ESMX 230050Z AUTO 25009KT 9999 FEW011/// OVC020/// 05/05 Q1006=
202012230020 METAR ESMX 230020Z AUTO 25007KT 9999 BKN012/// BKN018/// OVC021/// 05/04 Q1006=
202012222350 METAR ESMX 222350Z AUTO 24009KT 9999 BKN015/// OVC020/// 05/04 Q1006=
202012222320 METAR ESMX 222320Z AUTO 25008KT 9999 OVC021/// 05/04 Q1006=
202012222250 METAR ESMX 222250Z AUTO 26008KT 9999 FEW014/// OVC020/// 05/04 Q1006=
202012222220 METAR ESMX 222220Z AUTO 26010KT 9999 OVC020/// 05/04 Q1006=
202012222150 METAR ESMX 222150Z AUTO 27008KT 9999 OVC021/// 05/04 Q1005=
202012222120 METAR ESMX 222120Z AUTO 27010KT 230V310 9999 OVC022/// 06/04 Q1005=
202012222050 METAR ESMX 222050Z AUTO 26008KT 230V290 9999 FEW014/// BKN026/// 05/05 Q1005=
202012222020 METAR ESMX 222020Z AUTO 27009KT 240V300 9999 SCT013/// BKN022/// OVC028/// 06/05 Q1004=
202012221950 METAR ESMX 221950Z AUTO 28009KT 9999 OVC028/// 06/05 Q1004=
202012221920 METAR ESMX 221920Z AUTO 28012KT 9999 FEW011/// OVC023/// 06/05 Q1003=
202012221850 METAR ESMX 221850Z AUTO 29014G24KT 9999 BKN008/// OVC011/// 06/05 Q1003 RESHUP=
202012221820 METAR ESMX 221820Z AUTO 28013KT 9999 BKN007/// OVC010/// 06/06 Q1002 RESHUP=
202012221750 METAR ESMX 221750Z AUTO 27011G21KT 9999 BKN004/// OVC009/// 07/06 Q1002 RESHUP REDZ=
202012221720 METAR ESMX 221720Z AUTO 26008KT 4100 BR OVC002/// 07/07 Q1001=
202012221650 METAR ESMX 221650Z AUTO 24007KT 2200 -DZ OVC002/// 06/06 Q1001 REUP=
202012221620 METAR ESMX 221620Z AUTO 22007KT 2400 BR OVC002/// 06/06 Q1000=
202012221550 METAR ESMX 221550Z AUTO 19007KT 2800 BR OVC002/// 06/06 Q1000 REDZ=
202012221520 METAR ESMX 221520Z AUTO 18007KT 2000 BR OVC002/// 06/06 Q1000 REDZ=
202012221450 METAR ESMX 221450Z AUTO 19006KT 2700 BR BKN002/// OVC004/// 05/05 Q1000=
202012221420 METAR ESMX 221420Z 18007KT 6000 DZ BKN003 05/05 Q1000=
202012221350 METAR ESMX 221350Z AUTO 16008KT 5000 -RA OVC003/// 05/05 Q1000 REDZ=
202012221320 METAR ESMX 221320Z 16007KT 5000 DZ BKN002 05/05 Q1000 REDZ=
202012221250 METAR ESMX 221250Z 17008KT 4400 DZ BKN002 05/05 Q1000=
202012221220 METAR ESMX 221220Z 15009KT 4600 -DZ BKN002 05/05 Q1000=
202012221150 METAR ESMX 221150Z 15010KT 4400 -DZ BKN002 05/05 Q1000=
202012221120 METAR ESMX 221120Z 15009KT 6000 -RA BKN004 05/05 Q1000 REDZ=
202012221050 METAR ESMX 221050Z 17010KT 7000 -DZ BKN004 05/05 Q1001=
202012221020 METAR ESMX 221020Z 15009KT 7000 -DZ FEW002 BKN004 05/05 Q1001=
202012220950 METAR ESMX 220950Z 15011KT 5000 -RA BR FEW002 BKN005 05/05 Q1001 REDZ=
202012220920 METAR ESMX 220920Z 14011KT 9000 DZ BKN005 05/05 Q1001=
202012220850 METAR ESMX 220850Z 14010KT 7000 DZ BKN005 05/05 Q1002 REDZ=
202012220820 METAR ESMX 220820Z 14008KT 090V170 9999 DZ BKN006 05/05 Q1002=
202012220750 METAR ESMX 220750Z 13008KT 100V170 9999 -RA BKN006 05/05 Q1003=
202012220720 METAR ESMX 220720Z 14008KT 090V170 7000 -RA BKN006 05/05 Q1003=
202012220650 METAR ESMX 220650Z 14008KT 100V170 6000 RA BKN004 05/05 Q1004=
202012220620 METAR ESMX 220620Z AUTO 13008KT 050V160 7000 DZ OVC003/// 05/05 Q1004=
202012220550 METAR ESMX 220550Z AUTO 12009KT 070V170 6000 -RA OVC004/// 05/05 Q1005 REDZ=
202012220520 METAR ESMX 220520Z AUTO 14009KT 110V190 9999 OVC004/// 05/05 Q1006=
202012220450 METAR ESMX 220450Z AUTO 14010KT 110V170 9000 -RA OVC004/// 05/05 Q1006=
202012220420 METAR ESMX 220420Z AUTO 14009KT 060V180 8000 DZ OVC004/// 05/05 Q1007 REUP=
202012220350 METAR ESMX 220350Z AUTO 13010KT 090V160 5000 BR OVC004/// 05/04 Q1007 REUP=
202012220320 METAR ESMX 220320Z AUTO 14009KT 090V180 9000 BR OVC007/// 05/04 Q1008=
202012220250 METAR ESMX 220250Z AUTO 13008KT 100V190 9999 BKN009/// OVC011/// 05/04 Q1009=
202012220220 METAR ESMX 220220Z AUTO 14008KT 090V180 9999 BKN010/// OVC020/// 05/04 Q1009=
202012220150 METAR ESMX 220150Z AUTO 14007KT 100V170 9999 BKN011/// BKN017/// OVC024/// 05/04 Q1010=
202012220120 METAR ESMX 220120Z AUTO 15007KT 9999 FEW010/// SCT013/// BKN017/// 05/04 Q1011=
202012220050 METAR ESMX 220050Z AUTO 16008KT 120V190 9999 SCT007/// BKN008/// OVC018/// 05/04 Q1012=
202012220020 METAR ESMX 220020Z AUTO 14007KT 9999 BKN008/// OVC023/// 05/04 Q1012=
202012212350 METAR ESMX 212350Z AUTO 14006KT 9999 FEW010/// OVC025/// 05/04 Q1012=
202012212320 METAR ESMX 212320Z AUTO 14006KT 9999 FEW006/// OVC020/// 05/04 Q1013=
202012212250 METAR ESMX 212250Z AUTO 15006KT 110V180 9999 BKN006/// BKN012/// OVC015/// 04/04 Q1013 REUP=
202012212220 METAR ESMX 212220Z AUTO 16005KT 9999 FEW008/// OVC023/// 04/04 Q1014=
202012212150 METAR ESMX 212150Z AUTO 17006KT 9999 SCT009/// OVC022/// 04/04 Q1014=
202012212120 METAR ESMX 212120Z AUTO 15006KT 9999 OVC023/// 04/04 Q1014=
202012212050 METAR ESMX 212050Z AUTO 16006KT 9999 OVC023/// 04/04 Q1015=
202012212020 METAR ESMX 212020Z AUTO 16006KT 9999 OVC025/// 04/04 Q1015=
202012211950 METAR ESMX 211950Z AUTO 16006KT 9999 OVC026/// 04/04 Q1015=
202012211920 METAR ESMX 211920Z AUTO 18005KT 9999 BKN028/// BKN034/// 04/04 Q1015=
202012211850 METAR ESMX 211850Z AUTO 17005KT 9999 SCT006/// 04/04 Q1015=
202012211820 METAR ESMX 211820Z AUTO 21008KT 9999 SCT007/// OVC011/// 05/04 Q1015=
202012211750 METAR ESMX 211750Z AUTO 21010KT 9999 FEW006/// BKN013/// OVC037/// 05/04 Q1015=
202012211720 METAR ESMX 211720Z AUTO 20008KT 9999 OVC006/// 05/05 Q1016 RESHUP=
202012211650 METAR ESMX 211650Z AUTO 19008KT 9000 -DZ OVC006/// 05/05 Q1016 RESHUP RERA=
202012211620 METAR ESMX 211620Z AUTO 19007KT 9000 BR BKN007/// OVC031/// 05/05 Q1016=
202012211550 METAR ESMX 211550Z AUTO 19007KT 4000 DZ BKN006/// OVC008/// 05/05 Q1016 RESHUP RERA=
202012211520 METAR ESMX 211520Z AUTO 19007KT 9999 SCT006/// BKN008/// OVC011/// 05/05 Q1015=
202012211450 METAR ESMX 211450Z AUTO 19008KT 7000 BR BKN006/// BKN011/// OVC016/// 05/05 Q1016 RESHUP RERA=
202012211420 METAR ESMX 211420Z 19007KT 7000 BR BKN005 BKN017 06/06 Q1016 RESHRA=
202012211350 METAR ESMX 211350Z 19009KT 8000 BR BKN005 06/06 Q1015 REDZ=
202012211320 METAR ESMX 211320Z 19008KT 7000 BR BKN006 BKN023 06/06 Q1015 RERA=
202012211250 METAR ESMX 211250Z AUTO 19009KT 8000 BR BKN006/// OVC011/// 06/06 Q1015 RERA=
202012211220 METAR ESMX 211220Z 21009KT 8000 -DZ BKN007 BKN013 OVC020 06/06 Q1015 RERA=
202012211150 METAR ESMX 211150Z 20010KT 7000 BR BKN007 OVC009 06/06 Q1016=
202012211120 METAR ESMX 211120Z 20009KT 9000 -RA BKN007 BKN012 06/06 Q1016 RERA=
202012211050 METAR ESMX 211050Z 19009KT 5000 DZ BKN006 BKN009 06/06 Q1016=
202012211020 METAR ESMX 211020Z 18008KT 6000 BR BKN005 06/06 Q1016 REDZ=
202012210950 METAR ESMX 210950Z 18009KT 6000 BR BKN004 06/06 Q1016=
202012210920 METAR ESMX 210920Z 18009KT 4200 DZ BKN003 06/06 Q1016 REDZ=
202012210850 METAR ESMX 210850Z 18008KT 4800 -DZ BKN003 05/05 Q1016 REDZ=
202012210820 METAR ESMX 210820Z 18010KT 6000 BR BKN003 05/05 Q1016=
202012210750 METAR ESMX 210750Z 18008KT 6000 BR BKN003 05/05 Q1016=
202012210720 METAR ESMX 210720Z 18008KT 6000 BR BKN003 05/05 Q1015=
202012210650 METAR ESMX 210650Z 19008KT 5000 BR BKN002 05/05 Q1016=
202012210620 METAR ESMX 210620Z AUTO 19009KT 4200 BR OVC001/// 05/05 Q1016=
202012210550 METAR ESMX 210550Z AUTO 18008KT 1900 OVC001/// 05/05 Q1016=
202012210520 METAR ESMX 210520Z AUTO 18008KT 2000 OVC001/// 05/05 Q1016 RESHUP=
202012210450 METAR ESMX 210450Z AUTO 17007KT 1200 R01/P2000N R19/P2000N BR OVC001/// 05/05 Q1016 REUP REDZ=
202012210420 METAR ESMX 210420Z AUTO 18006KT 7000 BR OVC002/// 05/05 Q1016 REDZ=
202012210350 METAR ESMX 210350Z AUTO 16007KT 9000 BR OVC002/// 05/05 Q1016=
202012210320 METAR ESMX 210320Z AUTO 17006KT 8000 BR OVC002/// 05/05 Q1016=
202012210250 METAR ESMX 210250Z AUTO 16007KT 3900 RA OVC002/// 05/05 Q1016=
202012210220 METAR ESMX 210220Z AUTO 16006KT 9000 DZ OVC002/// 05/05 Q1016=
202012210150 METAR ESMX 210150Z AUTO 16006KT 9000 DZ OVC002/// 05/05 Q1016 REDZ=
202012210120 METAR ESMX 210120Z AUTO 16006KT 8000 BR OVC002/// 05/05 Q1016=
202012210050 METAR ESMX 210050Z AUTO 18008KT 8000 -DZ OVC002/// 05/05 Q1017=
202012210020 METAR ESMX 210020Z AUTO 19007KT 8000 DZ OVC002/// 05/05 Q1017=
202012202350 METAR ESMX 202350Z AUTO 17006KT 9999 -DZ OVC002/// 05/05 Q1017=
202012202320 METAR ESMX 202320Z AUTO 15008KT 9999 -DZ OVC002/// 05/05 Q1017=
202012202250 METAR ESMX 202250Z AUTO 15008KT 9999 DZ OVC002/// 05/05 Q1017=
202012202220 METAR ESMX 202220Z AUTO 14007KT 9000 DZ OVC002/// 05/05 Q1017=
202012202150 METAR ESMX 202150Z AUTO 14006KT 7000 DZ OVC003/// 05/05 Q1017=
202012202120 METAR ESMX 202120Z AUTO 16006KT 8000 -RA OVC003/// 05/05 Q1017=
202012202050 METAR ESMX 202050Z AUTO 15007KT 8000 -RA OVC003/// 05/05 Q1017=
202012202020 METAR ESMX 202020Z AUTO 16005KT 6000 -RA OVC003/// 05/05 Q1017=
202012201950 METAR ESMX 201950Z AUTO 15005KT 6000 -RA OVC003/// 05/05 Q1017=
202012201920 METAR ESMX 201920Z AUTO 15007KT 8000 -RA OVC003/// 05/05 Q1017=
202012201850 METAR ESMX 201850Z AUTO 17007KT 5000 -RA OVC003/// 05/05 Q1017=
202012201820 METAR ESMX 201820Z AUTO 15006KT 5000 RA OVC003/// 05/05 Q1017=
202012201750 METAR ESMX 201750Z AUTO 17006KT 7000 -RA OVC004/// 05/05 Q1017=
202012201720 METAR ESMX 201720Z AUTO 17006KT 7000 -RA OVC004/// 06/06 Q1017 REDZ=
202012201650 METAR ESMX 201650Z AUTO 17007KT 9000 DZ OVC004/// 06/06 Q1017=
202012201620 METAR ESMX 201620Z AUTO 17008KT 7000 -RA OVC003/// 06/06 Q1017=
202012201550 METAR ESMX 201550Z AUTO 17006KT 7000 -RA OVC003/// 06/06 Q1017=
202012201520 METAR ESMX 201520Z AUTO 17007KT 2400 RA OVC003/// 06/06 Q1017 RESHRA=
202012201450 METAR ESMX 201450Z AUTO 17007KT 6000 -RA OVC003/// 06/06 Q1017=
202012201420 METAR ESMX 201420Z AUTO 15007KT 3300 UP OVC001/// 06/06 Q1017 REUP REDZ=
202012201350 METAR ESMX 201350Z AUTO 16006KT 2000 OVC001/// 06/06 Q1017=
202012201320 METAR ESMX 201320Z AUTO 15005KT 0900 R01/1300U R19/1800N FG OVC001/// 06/06 Q1017=
202012201250 METAR ESMX 201250Z AUTO 15006KT 1100 R01/1500D R19/1600D OVC001/// 06/06 Q1018=
202012201220 METAR ESMX 201220Z AUTO 15006KT 120V190 0800 R01/1200U R19/1400U FG OVC001/// 06/06 Q1018=
202012201150 METAR ESMX 201150Z AUTO 15008KT 0350 R01/0700N R19/0750N FG OVC001/// 06/06 Q1018=
202012201120 METAR ESMX 201120Z AUTO 15007KT 130V190 0600 R01/1100D R19/1400D FG OVC001/// 06/06 Q1018=
202012201050 METAR ESMX 201050Z AUTO 17006KT 2200 BR OVC001/// 06/06 Q1018=
202012201020 METAR ESMX 201020Z AUTO 17005KT 3800 BR OVC002/// 06/06 Q1018=
202012200950 METAR ESMX 200950Z AUTO 16005KT 3300 BR OVC002/// 06/06 Q1018=
202012200920 METAR ESMX 200920Z AUTO 15006KT 3100 BR OVC002/// 06/06 Q1018=
202012200850 METAR ESMX 200850Z AUTO 17006KT 2600 BR OVC002/// 05/05 Q1018=
202012200820 METAR ESMX 200820Z AUTO 16006KT 2300 BR OVC002/// 05/05 Q1018=
202012200750 METAR ESMX 200750Z AUTO 17006KT 3200 BR OVC002/// 05/05 Q1017=
202012200720 METAR ESMX 200720Z AUTO 17006KT 3700 BR OVC002/// 05/05 Q1017=
202012200650 METAR ESMX 200650Z AUTO 17007KT 3400 BR OVC002/// 05/05 Q1017 REDZ=
202012200620 METAR ESMX 200620Z AUTO 16006KT 3900 BR OVC002/// 05/05 Q1017=
202012200550 METAR ESMX 200550Z AUTO 17006KT 2900 BR OVC002/// 05/05 Q1017=
202012200520 METAR ESMX 200520Z AUTO 17007KT 2400 DZ OVC002/// 05/05 Q1017 REDZ=
202012200450 METAR ESMX 200450Z AUTO 17008KT 3400 DZ OVC002/// 05/05 Q1017=
202012200420 METAR ESMX 200420Z AUTO 18007KT 2400 -DZ OVC002/// 05/05 Q1016=
202012200350 METAR ESMX 200350Z AUTO 17008KT 1600 -DZ OVC001/// 05/05 Q1016 REUP REDZ=
202012200320 METAR ESMX 200320Z AUTO 17008KT 0900 R01/P2000N R19/P2000N FG OVC001/// 05/05 Q1016=
202012200250 METAR ESMX 200250Z AUTO 17009KT 0750 R01/1900N R19/P2000N FG OVC001/// 05/05 Q1016=
202012200220 METAR ESMX 200220Z AUTO 17009KT 0650 R01/1600N R19/P2000N FG OVC001/// 05/05 Q1016=
202012200150 METAR ESMX 200150Z AUTO 16008KT 140V200 0650 R01/1600N R19/1900D FG OVC001/// 05/05 Q1016=
202012200120 METAR ESMX 200120Z AUTO 17008KT 0800 R01/1800U R19/P2000N FG OVC001/// 05/05 Q1016=
202012200050 METAR ESMX 200050Z AUTO 17008KT 130V200 0900 R01/P2000N R19/P2000N FG OVC001/// 05/05 Q1016=
202012200020 METAR ESMX 200020Z AUTO 16007KT 130V190 0550 R01/1400N R19/1600N FG OVC001/// 05/05 Q1016=
202012192350 METAR ESMX 192350Z AUTO 18009KT 0500 R01/1300N R19/1400N FG OVC001/// 05/05 Q1016=
202012192320 METAR ESMX 192320Z AUTO 18009KT 1200 R01/P2000N R19/P2000N BR OVC002/// 05/05 Q1016=
202012192250 METAR ESMX 192250Z AUTO 17008KT 1000 R01/P2000N R19/P2000N BR OVC001/// 05/05 Q1016=
202012192220 METAR ESMX 192220Z AUTO 18011KT 1900 BR OVC001/// 05/05 Q1016=
202012192150 METAR ESMX 192150Z AUTO 17009KT 2300 BR OVC002/// 05/05 Q1016=
202012192120 METAR ESMX 192120Z AUTO 17009KT 2400 BR OVC001/// 05/05 Q1016=
202012192050 METAR ESMX 192050Z AUTO 17010KT 1800 OVC001/// 05/05 Q1016=
202012192020 METAR ESMX 192020Z AUTO 17007KT 1000 R01/P2000N R19/P2000N OVC001/// 05/05 Q1015=
202012191950 METAR ESMX 191950Z AUTO 17008KT 0900 R01/P2000N R19/P2000N FG OVC001/// 05/05 Q1016=
202012191920 METAR ESMX 191920Z AUTO 17008KT 2000 BR OVC001/// 05/05 Q1016=
202012191850 METAR ESMX 191850Z AUTO 16008KT 130V190 1700 BR OVC001/// 05/05 Q1016=
202012191820 METAR ESMX 191820Z AUTO 16008KT 1400 R01/P2000N R19/P2000N BR OVC002/// 05/05 Q1016=
202012191750 METAR ESMX 191750Z AUTO 14006KT 110V210 2400 BR OVC002/// 05/05 Q1016=
202012191720 METAR ESMX 191720Z AUTO 14007KT 100V160 3100 BR OVC003/// 05/05 Q1016=
202012191650 METAR ESMX 191650Z AUTO 15007KT 120V190 4400 BR OVC003/// 05/05 Q1016=
202012191620 METAR ESMX 191620Z AUTO 15007KT 4900 BR OVC003/// 05/05 Q1016=
202012191550 METAR ESMX 191550Z AUTO 17008KT 7000 BR OVC004/// 05/05 Q1016=
202012191520 METAR ESMX 191520Z AUTO 17007KT 8000 BR OVC005/// 05/04 Q1016=
202012191450 METAR ESMX 191450Z AUTO 17007KT 9999 OVC006/// 05/04 Q1016=
202012191420 METAR ESMX 191420Z AUTO 17009KT 9999 OVC007/// 05/04 Q1016=
202012191350 METAR ESMX 191350Z AUTO 17008KT 9999 OVC007/// 05/04 Q1016=
202012191320 METAR ESMX 191320Z AUTO 17010KT 9999 BKN007/// OVC009/// 05/05 Q1017=
202012191250 METAR ESMX 191250Z AUTO 17009KT 9999 OVC007/// 06/05 Q1017=
202012191220 METAR ESMX 191220Z AUTO 16008KT 9999 OVC006/// 06/05 Q1017=
202012191150 METAR ESMX 191150Z AUTO 16007KT 130V200 9999 OVC004/// 05/05 Q1017=
202012191120 METAR ESMX 191120Z AUTO 16007KT 9999 OVC004/// 05/05 Q1017=
202012191050 METAR ESMX 191050Z AUTO 15007KT 130V190 9999 OVC004/// 05/05 Q1017=
202012191020 METAR ESMX 191020Z AUTO 17007KT 9000 BR OVC002/// 05/05 Q1017=
202012190950 METAR ESMX 190950Z AUTO 17006KT 6000 BR OVC002/// 05/05 Q1018=
202012190920 METAR ESMX 190920Z AUTO 16007KT 4700 BR OVC002/// 05/05 Q1018=
202012190850 METAR ESMX 190850Z AUTO 16006KT 5000 BR OVC002/// 05/05 Q1018=
202012190820 METAR ESMX 190820Z AUTO 17006KT 5000 BR OVC003/// 05/05 Q1018=
202012190750 METAR ESMX 190750Z AUTO 17007KT 7000 BR OVC004/// 05/05 Q1018=
202012190720 METAR ESMX 190720Z AUTO 17007KT 9999 OVC004/// 05/05 Q1017=
202012190650 METAR ESMX 190650Z AUTO 18008KT 9000 BR OVC004/// 05/05 Q1017=
202012190620 METAR ESMX 190620Z AUTO 18008KT 9000 BR OVC005/// 05/05 Q1017=
202012190550 METAR ESMX 190550Z AUTO 20008KT 9000 OVC005/// 06/05 Q1017=
202012190520 METAR ESMX 190520Z AUTO 19008KT 8000 BR OVC004/// 06/06 Q1017=
202012190450 METAR ESMX 190450Z AUTO 20008KT 8000 BR OVC004/// 06/06 Q1017=
202012190420 METAR ESMX 190420Z AUTO 19008KT 7000 BR OVC005/// 06/06 Q1017=
202012190350 METAR ESMX 190350Z AUTO 20009KT 8000 BR OVC004/// 06/06 Q1017=
202012190320 METAR ESMX 190320Z AUTO 21009KT 7000 BR OVC004/// 06/06 Q1017=
202012190250 METAR ESMX 190250Z AUTO 19010KT 7000 BR OVC004/// 06/06 Q1017=
202012190220 METAR ESMX 190220Z AUTO 19009KT 9000 BR OVC005/// 06/06 Q1017=
202012190150 METAR ESMX 190150Z AUTO 20009KT 9999 OVC006/// 06/06 Q1017=
202012190120 METAR ESMX 190120Z AUTO 19008KT 9999 OVC007/// 06/06 Q1017=
202012190050 METAR ESMX 190050Z AUTO 19007KT 9999 OVC006/// 06/06 Q1017=
202012190020 METAR ESMX 190020Z AUTO 19007KT 9999 OVC006/// 06/06 Q1017=
202012182350 METAR ESMX 182350Z AUTO 19009KT 9999 OVC007/// 06/06 Q1017=
202012182320 METAR ESMX 182320Z AUTO 18009KT 9999 OVC007/// 06/06 Q1017=
202012182250 METAR ESMX 182250Z AUTO 21009KT 9999 OVC006/// 06/06 Q1018=
202012182220 METAR ESMX 182220Z AUTO 21010KT 9999 OVC006/// 06/06 Q1018=
202012182150 METAR ESMX 182150Z AUTO 19010KT 9999 OVC005/// 06/06 Q1018=
202012182120 METAR ESMX 182120Z AUTO 18011KT 9999 OVC005/// 06/06 Q1018=
202012182050 METAR ESMX 182050Z 21010KT 9999 OVC005 06/06 Q1018=
202012182020 METAR ESMX 182020Z 18011KT 9999 OVC006 06/06 Q1017=
202012181950 METAR ESMX 181950Z 18009KT 9999 OVC006 06/06 Q1017=
202012181920 METAR ESMX 181920Z 17009KT 9999 OVC006 06/06 Q1017=
202012181850 METAR ESMX 181850Z 17009KT 9999 OVC006 06/06 Q1017=
202012181820 METAR ESMX 181820Z 20009KT 9999 OVC006 06/06 Q1018=
202012181750 METAR ESMX 181750Z 19009KT 9999 OVC006 06/06 Q1018=
202012181720 METAR ESMX 181720Z 19009KT 9999 OVC006 06/06 Q1017=
202012181650 METAR ESMX 181650Z AUTO 19009KT 9999 OVC007/// 06/06 Q1017=
202012181620 METAR ESMX 181620Z AUTO 19008KT 9999 BKN008/// OVC009/// 06/06 Q1018=
202012181550 METAR ESMX 181550Z AUTO 21007KT 9999 OVC010/// 06/06 Q1018=
202012181520 METAR ESMX 181520Z AUTO 21009KT 9999 OVC009/// 06/06 Q1018=
202012181450 METAR ESMX 181450Z AUTO 22010KT 9999 OVC008/// 07/06 Q1018=
202012181420 METAR ESMX 181420Z 22011KT 9999 BKN008 07/06 Q1018=
202012181350 METAR ESMX 181350Z 21009KT 9999 BKN007 07/06 Q1018=
202012181320 METAR ESMX 181320Z 20010KT 9999 BKN006 07/06 Q1018=
202012181250 METAR ESMX 181250Z 20010KT 9999 BKN008 07/06 Q1018=
202012181220 METAR ESMX 181220Z 20009KT 9999 BKN008 07/06 Q1018=
202012181150 METAR ESMX 181150Z 20009KT 9999 BKN006 07/06 Q1018=
202012181120 METAR ESMX 181120Z 20009KT 9999 BKN007 06/06 Q1018=
202012181050 METAR ESMX 181050Z 21010KT 9999 BKN007 06/06 Q1017=
202012181020 METAR ESMX 181020Z AUTO 20008KT 9999 BKN008/// OVC010/// 06/06 Q1017=
202012180950 METAR ESMX 180950Z 20007KT 9999 BKN008 06/06 Q1017=
202012180920 METAR ESMX 180920Z 20007KT 9999 BKN007 06/06 Q1017=
202012180850 METAR ESMX 180850Z 20006KT 9999 BKN008 06/06 Q1017=
202012180820 METAR ESMX 180820Z 22005KT 9999 BKN007 06/06 Q1017=
202012180750 METAR ESMX 180750Z 22006KT 9999 BKN008 06/06 Q1017=
202012180720 METAR ESMX 180720Z 22007KT 8000 BR BKN008 06/06 Q1017=
202012180650 METAR COR ESMX 180650Z 23006KT 9999 BKN008 06/06 Q1016=
202012180620 METAR ESMX 180620Z AUTO 22007KT 9999 SCT006/// BKN009/// BKN011/// 06/06 Q1016=
202012180550 METAR ESMX 180550Z AUTO 23006KT 9999 SCT007/// BKN009/// OVC039/// 06/06 Q1016=
202012180520 METAR ESMX 180520Z AUTO 23006KT 9999 SCT008/// BKN012/// OVC040/// 06/06 Q1016=
202012180450 METAR ESMX 180450Z AUTO 23008KT 9999 BKN009/// BKN022/// OVC038/// 06/06 Q1016=
202012180420 METAR ESMX 180420Z AUTO 23007KT 9999 BKN007/// BKN015/// OVC042/// 06/06 Q1015=
202012180350 METAR ESMX 180350Z AUTO 23007KT 6000 DZ FEW006/// SCT010/// BKN015/// 06/06 Q1015=
202012180320 METAR ESMX 180320Z AUTO 22007KT 7000 DZ BKN005/// BKN007/// OVC012/// 06/06 Q1015=
202012180250 METAR ESMX 180250Z AUTO 23006KT 8000 DZ BKN005/// BKN007/// OVC009/// 06/06 Q1015 REDZ REUP=
202012180220 METAR ESMX 180220Z AUTO 21007KT 9999 BKN008/// OVC011/// 06/06 Q1015=
202012180150 METAR ESMX 180150Z AUTO 22006KT 9999 BKN008/// BKN010/// OVC029/// 06/06 Q1014 RESHUP RERA=
202012180120 METAR ESMX 180120Z AUTO 21006KT 9999 FEW007/// SCT009/// BKN011/// 06/06 Q1014=
202012180050 METAR ESMX 180050Z AUTO 22007KT 9999 FEW007/// BKN010/// OVC044/// 06/06 Q1014=
202012180020 METAR ESMX 180020Z AUTO 20008KT 9000 -RA OVC005/// 06/06 Q1014 RERA=
202012172350 METAR ESMX 172350Z AUTO 22008KT 9000 BR OVC005/// 06/06 Q1014=
202012172320 METAR ESMX 172320Z AUTO 22006KT 9999 -DZ OVC006/// 06/06 Q1014 REDZ=
202012172250 METAR ESMX 172250Z AUTO 21007KT 9999 OVC006/// 06/06 Q1014=
202012172220 METAR ESMX 172220Z AUTO 21007KT 9999 OVC005/// 06/06 Q1013 RERA=
202012172150 METAR ESMX 172150Z AUTO 22008KT 9999 OVC004/// 06/06 Q1013=
202012172120 METAR ESMX 172120Z AUTO 22009KT 7000 DZ OVC004/// 06/06 Q1013 RESHUP REDZ=
202012172050 METAR ESMX 172050Z AUTO 22009KT 9999 OVC004/// 06/06 Q1013=
202012172020 METAR ESMX 172020Z AUTO 21008KT 6000 -DZ SCT005/// OVC007/// 06/06 Q1013 REUP=
202012171950 METAR ESMX 171950Z AUTO 21007KT 9999 BKN008/// OVC040/// 06/06 Q1013=
202012171920 METAR ESMX 171920Z AUTO 22009KT 9999 BKN006/// BKN008/// OVC010/// 06/06 Q1013 RESHUP=
202012171850 METAR ESMX 171850Z AUTO 19010KT 7000 -DZ OVC005/// 06/06 Q1012=
202012171820 METAR ESMX 171820Z AUTO 19010KT 7000 BR OVC005/// 06/06 Q1012 REDZ=
202012171750 METAR ESMX 171750Z AUTO 18011KT 5000 DZ OVC004/// 06/06 Q1012=
202012171720 METAR ESMX 171720Z AUTO 18011KT 5000 DZ OVC004/// 06/06 Q1012=
202012171650 METAR ESMX 171650Z AUTO 17009KT 5000 -RA OVC003/// 06/06 Q1012=
202012171620 METAR ESMX 171620Z AUTO 17009KT 5000 -RA OVC004/// 06/06 Q1012=
202012171550 METAR ESMX 171550Z AUTO 15008KT 4400 -RA OVC003/// 06/06 Q1012 REDZ=
202012171520 METAR ESMX 171520Z AUTO 16009KT 4400 DZ OVC003/// 06/06 Q1013=
202012171450 METAR ESMX 171450Z AUTO 15008KT 110V170 5000 DZ OVC003/// 06/06 Q1013=
202012171420 METAR ESMX 171420Z 15010KT 5000 -DZ OVC003 06/06 Q1013=
202012171350 METAR ESMX 171350Z 16009KT 6000 -DZ OVC004 06/06 Q1013=
202012171320 METAR ESMX 171320Z 17009KT 5000 -DZ OVC004 06/06 Q1014=
202012171250 METAR ESMX 171250Z 15009KT 6000 BR OVC005 06/06 Q1014=
202012171220 METAR ESMX 171220Z 16009KT 6000 BR OVC004 06/06 Q1014=
202012171150 METAR ESMX 171150Z 15010KT 5000 BR OVC002 06/06 Q1015=
202012171120 METAR ESMX 171120Z 15011KT 110V180 6000 BR OVC002 06/06 Q1015=
202012171050 METAR ESMX 171050Z 15011KT 6000 BR OVC003 06/06 Q1015=
202012171020 METAR ESMX 171020Z 15010KT 120V180 7000 BR OVC003 06/06 Q1016=
202012170950 METAR ESMX 170950Z 15010KT 7000 BR OVC004 06/05 Q1016=
202012170920 METAR ESMX 170920Z 15010KT 7000 OVC004 05/05 Q1016=
202012170850 METAR ESMX 170850Z 15010KT 7000 OVC003 05/05 Q1016=
202012170820 METAR ESMX 170820Z 16009KT 7000 BR OVC002 05/05 Q1017=
202012170750 METAR COR ESMX 170750Z 15009KT 6000 BR OVC002 05/05 Q1017=
202012170720 METAR ESMX 170720Z 15008KT 110V170 5000 BR OVC002 05/05 Q1017=
202012170650 METAR COR ESMX 170650Z 14008KT 100V180 3100 BR OVC002 05/05 Q1017=
202012170620 METAR ESMX 170620Z AUTO 16008KT 140V200 2400 BR OVC002/// 05/05 Q1017=
202012170550 METAR ESMX 170550Z AUTO 15008KT 2700 BR OVC002/// 05/05 Q1017=
202012170520 METAR ESMX 170520Z AUTO 17009KT 6000 BR OVC004/// 05/05 Q1018=
202012170450 METAR ESMX 170450Z AUTO 16010KT 140V200 9999 OVC006/// 05/05 Q1018=
202012170420 METAR ESMX 170420Z AUTO 17007KT 9999 OVC007/// 05/05 Q1018=
202012170350 METAR ESMX 170350Z AUTO 18008KT 9999 OVC008/// 06/05 Q1019=
202012170320 METAR ESMX 170320Z AUTO 16007KT 9999 OVC007/// 06/05 Q1019=
202012170250 METAR ESMX 170250Z AUTO 16008KT 130V190 9999 OVC009/// 06/05 Q1019=
202012170220 METAR ESMX 170220Z AUTO 17008KT 9999 OVC011/// 06/05 Q1019=
202012170150 METAR ESMX 170150Z AUTO 17006KT 9999 BKN013/// OVC016/// 06/04 Q1019=
202012170120 METAR ESMX 170120Z AUTO 16005KT 9999 OVC018/// 06/04 Q1019=
202012170050 METAR ESMX 170050Z AUTO 18006KT 9999 OVC019/// 06/04 Q1020=
202012170020 METAR ESMX 170020Z AUTO 18006KT 9999 OVC020/// 06/05 Q1020=
202012162350 METAR ESMX 162350Z AUTO 19006KT 9999 OVC022/// 06/05 Q1020=
202012162320 METAR ESMX 162320Z AUTO 18005KT 9999 OVC023/// 06/05 Q1020=
202012162250 METAR ESMX 162250Z AUTO 18006KT 9999 OVC023/// 06/05 Q1020=
202012162220 METAR ESMX 162220Z AUTO 19005KT 9999 OVC023/// 06/05 Q1020=
202012162150 METAR ESMX 162150Z AUTO 18005KT 9999 OVC022/// 05/05 Q1020=
202012162120 METAR ESMX 162120Z AUTO 20005KT 7000 BKN023/// 05/05 Q1020=
202012162050 METAR ESMX 162050Z AUTO 20006KT 9000 BR FEW024/// 05/05 Q1020=
202012162020 METAR ESMX 162020Z AUTO 20008KT 9999 NCD 05/05 Q1019=
202012161950 METAR ESMX 161950Z AUTO 20008KT 9999 BKN028/// 06/06 Q1019=
202012161920 METAR ESMX 161920Z AUTO 21007KT 9999 OVC028/// 06/06 Q1019=
202012161850 METAR ESMX 161850Z AUTO 19007KT 9999 OVC029/// 06/06 Q1019=
202012161820 METAR ESMX 161820Z AUTO 22006KT 9999 OVC029/// 06/06 Q1019=
202012161750 METAR ESMX 161750Z AUTO 22006KT 9999 FEW007/// OVC029/// 06/06 Q1019=
202012161720 METAR ESMX 161720Z AUTO 22005KT 9999 FEW007/// OVC032/// 06/06 Q1019=
202012161650 METAR ESMX 161650Z AUTO 22006KT 9999 FEW007/// SCT010/// OVC034/// 06/06 Q1019=
202012161620 METAR ESMX 161620Z AUTO 23005KT 9999 BKN014/// BKN019/// OVC031/// 06/06 Q1019=
202012161550 METAR ESMX 161550Z AUTO 21006KT 9999 BKN015/// OVC034/// 07/06 Q1019=
202012161520 METAR ESMX 161520Z AUTO 23006KT 9999 FEW010/// OVC032/// 07/06 Q1018=
202012161450 METAR ESMX 161450Z AUTO 22007KT 9999 FEW010/// OVC031/// 07/06 Q1018=
202012161420 METAR ESMX 161420Z 22008KT 9999 FEW010 BKN033 07/06 Q1018=
202012161350 METAR ESMX 161350Z 24006KT 9999 BKN009 07/07 Q1018=
202012161320 METAR ESMX 161320Z 24005KT 9000 SCT008 BKN011 07/07 Q1017=
202012161250 METAR ESMX 161250Z 23007KT 9999 FEW009 BKN031 07/07 Q1017=
202012161220 METAR ESMX 161220Z 23006KT 9999 BKN030 07/06 Q1017=
202012161150 METAR ESMX 161150Z 23007KT 9999 BKN007 07/07 Q1017=
202012161120 METAR ESMX 161120Z 24006KT 9999 BKN007 07/07 Q1016=
202012161050 METAR ESMX 161050Z 23006KT 9999 SCT009 BKN031 07/06 Q1016=
202012161020 METAR ESMX 161020Z 25008KT 200V270 9999 BKN007 07/06 Q1016=
202012160950 METAR ESMX 160950Z 23007KT 9999 BKN006 07/06 Q1015=
202012160920 METAR ESMX 160920Z 22006KT 9999 SCT008 BKN034 07/06 Q1015=
202012160850 METAR ESMX 160850Z 25006KT 9999 FEW008 SCT017 06/06 Q1015=
202012160820 METAR ESMX 160820Z 24005KT 9000 BR BKN006 07/07 Q1015=
202012160750 METAR ESMX 160750Z 25005KT 9000 BR BKN005 07/06 Q1015=
202012160720 METAR ESMX 160720Z 23005KT 8000 BR BKN006 06/06 Q1014=
202012160650 METAR COR ESMX 160650Z 24004KT 8000 BR BKN005 06/06 Q1014=
202012160620 METAR ESMX 160620Z AUTO 25005KT 9999 OVC005/// 06/06 Q1014=
202012160550 METAR ESMX 160550Z AUTO 25004KT 9999 BKN005/// OVC008/// 06/06 Q1013=
202012160520 METAR ESMX 160520Z AUTO 27007KT 9999 BKN005/// OVC007/// 06/06 Q1013=
202012160450 METAR ESMX 160450Z AUTO 26006KT 220V290 9999 BKN006/// BKN009/// OVC010/// 06/06 Q1012=
202012160420 METAR ESMX 160420Z AUTO 26006KT 9999 BKN011/// 06/06 Q1012=
202012160350 METAR ESMX 160350Z AUTO 25005KT 9999 FEW004/// SCT009/// OVC013/// 06/06 Q1012=
202012160320 METAR ESMX 160320Z AUTO 27007KT 8000 BR OVC003/// 06/06 Q1011=
202012160250 METAR ESMX 160250Z AUTO 26007KT 8000 BR OVC002/// 06/06 Q1011 REDZ=
202012160220 METAR ESMX 160220Z AUTO 27007KT 9999 BKN004/// OVC008/// 06/06 Q1011=
202012160150 METAR ESMX 160150Z AUTO 26006KT 9999 BKN055/// 06/06 Q1010=
202012160120 METAR ESMX 160120Z AUTO 25004KT 9999 -DZ FEW003/// BKN043/// 06/06 Q1010=
202012160050 METAR ESMX 160050Z AUTO 25004KT 9999 -RA VV019 06/06 Q1010=
202012160020 METAR ESMX 160020Z AUTO 22005KT 9999 DZ OVC003/// 05/05 Q1009 REDZ=
202012152350 METAR ESMX 152350Z AUTO 21004KT 9000 -RA OVC004/// 05/05 Q1009=
202012152320 METAR ESMX 152320Z AUTO 23004KT 7000 -RA OVC003/// 05/05 Q1009=
202012152250 METAR ESMX 152250Z AUTO 22004KT 6000 -RA OVC003/// 05/05 Q1009=
202012152220 METAR ESMX 152220Z AUTO 22004KT 3500 -RA OVC002/// 05/05 Q1009=
202012152150 METAR ESMX 152150Z AUTO 21007KT 0500 R01/1300U R19/1500N DZ OVC001/// 05/05 Q1009=
202012152120 METAR ESMX 152120Z AUTO 20005KT 1100 R01/P2000N R19/P2000N OVC001/// 05/05 Q1009 REUP=
202012152050 METAR ESMX 152050Z AUTO 18007KT 0800 R01/P2000D R19/P2000N FG OVC001/// 05/05 Q1009=
202012152020 METAR ESMX 152020Z AUTO 17006KT 2100 BR OVC002/// 05/05 Q1008=
202012151950 METAR ESMX 151950Z AUTO 18006KT 3500 BR OVC003/// 05/05 Q1009=
202012151920 METAR ESMX 151920Z AUTO 19007KT 4800 BR OVC003/// 06/06 Q1008=
202012151850 METAR ESMX 151850Z AUTO 17006KT 4300 BR OVC003/// 06/06 Q1008 REDZ=
202012151820 METAR ESMX 151820Z AUTO 18007KT 3900 BR OVC003/// 06/06 Q1008 REDZ=
202012151750 METAR ESMX 151750Z AUTO 18006KT 4200 BR OVC004/// 06/06 Q1008=
202012151720 METAR ESMX 151720Z AUTO 18006KT 2700 -RA OVC002/// 06/06 Q1009=
202012151650 METAR ESMX 151650Z AUTO 17008KT 2200 -RA OVC002/// 06/06 Q1008 RESHUP=
202012151620 METAR ESMX 151620Z AUTO 16007KT 4100 -DZ OVC003/// 06/06 Q1008 RESHUP RERA=
202012151550 METAR ESMX 151550Z AUTO 17008KT 9999 OVC004/// 06/06 Q1008=
202012151520 METAR ESMX 151520Z AUTO 15007KT 6000 -RA OVC003/// 06/06 Q1009 REDZ=
202012151450 METAR ESMX 151450Z AUTO 15007KT 110V190 9999 -RA OVC004/// 06/06 Q1009=
202012151420 METAR ESMX 151420Z 16006KT 9999 -RA BKN004 06/06 Q1009=
202012151350 METAR ESMX 151350Z 15008KT 110V170 9999 RA BKN004 07/07 Q1009=
202012151320 METAR ESMX 151320Z AUTO 16008KT 8000 RA OVC004/// 07/07 Q1009=
202012151250 METAR ESMX 151250Z 15007KT 9999 RA BKN004 07/07 Q1009=
202012151220 METAR ESMX 151220Z 17005KT 9999 -RA BKN004 07/07 Q1009=
202012151150 METAR ESMX 151150Z 15006KT 120V180 9999 -RA BKN004 07/07 Q1010=
202012151120 METAR ESMX 151120Z 15006KT 9999 -RA BKN003 07/07 Q1010=
202012151050 METAR ESMX 151050Z 15007KT 9999 RA BKN004 07/07 Q1010=
202012151020 METAR ESMX 151020Z 15007KT 7000 -RA BKN002 BKN004 07/07 Q1010=
202012150950 METAR ESMX 150950Z 14006KT 110V170 0650 R01/1300U R19/1800N FG VV002 06/06 Q1010 REDZ=
202012150920 METAR ESMX 150920Z 15006KT 0650 R01/1600D R19/P2000N FG VV002 06/06 Q1010=
202012150850 METAR ESMX 150850Z 15006KT 0650 R01/1100N R19/1600D FG VV002 06/06 Q1010=
202012150820 METAR ESMX 150820Z 15008KT 0550 R01/1000N R19/1200U FG VV002 06/06 Q1010=
202012150750 METAR ESMX 150750Z 14007KT 1100 R01/1300D R19/P2000D VV002 06/06 Q1010=
202012150720 METAR ESMX 150720Z 15006KT 1100 R01/P2000N R19/P2000N VV002 06/06 Q1010=
202012150650 METAR ESMX 150650Z 14005KT 110V170 0800 R01/1600U R19/P2000N FG VV002 06/06 Q1010=
202012150620 METAR ESMX 150620Z 14006KT 0750 R01/1800N R19/P2000N FG VV002 06/06 Q1010=
202012150550 METAR ESMX 150550Z AUTO 15006KT 110V180 1200 R01/P2000N R19/P2000N OVC001/// 06/06 Q1010=
202012150520 METAR ESMX 150520Z AUTO 15005KT 1800 OVC001/// 06/06 Q1010=
202012150450 METAR ESMX 150450Z AUTO 16004KT 1000 R01/P2000N R19/P2000N OVC001/// 06/06 Q1010=
202012150420 METAR ESMX 150420Z AUTO 18005KT 0600 R01/P2000N R19/1500U FG OVC001/// 06/06 Q1010=
202012150350 METAR ESMX 150350Z AUTO 15006KT 0400 R01/1100N R19/1100N FG OVC001/// 05/05 Q1010=
202012150320 METAR ESMX 150320Z AUTO 16005KT 0350 R01/1000N R19/1200N FG OVC001/// 06/06 Q1010=
202012150250 METAR ESMX 150250Z AUTO 17006KT 0550 R01/1400N R19/1700N FG OVC001/// 05/05 Q1010=
202012150220 METAR ESMX 150220Z AUTO 17007KT 1000 R01/P2000N R19/P2000N BR OVC001/// 05/05 Q1010=
202012150150 METAR ESMX 150150Z AUTO 17007KT 2400 BR OVC001/// 05/05 Q1010 REDZ=
202012150120 METAR ESMX 150120Z AUTO 16007KT 120V190 2600 BR OVC001/// 05/05 Q1010=
202012150050 METAR ESMX 150050Z AUTO 16005KT 5000 BR OVC003/// 05/05 Q1010=
202012150020 METAR ESMX 150020Z AUTO 17007KT 5000 -DZ OVC003/// 05/05 Q1010 REUP=
202012142350 METAR ESMX 142350Z AUTO 18007KT 6000 BR OVC003/// 05/05 Q1010=
202012142320 METAR ESMX 142320Z AUTO 16007KT 8000 BR OVC004/// 05/05 Q1010=
202012142250 METAR ESMX 142250Z AUTO 17007KT 9999 OVC003/// 05/05 Q1010=
202012142220 METAR ESMX 142220Z AUTO 17007KT 7000 BR OVC003/// 05/05 Q1010 RERA=
202012142150 METAR ESMX 142150Z AUTO 14007KT 5000 BR OVC003/// 05/05 Q1010=
202012142120 METAR ESMX 142120Z AUTO 14006KT 110V180 3900 BR OVC003/// 05/05 Q1010 REDZ=
202012142050 METAR ESMX 142050Z AUTO 14005KT 3400 -DZ OVC002/// 04/04 Q1010=
202012142020 METAR ESMX 142020Z AUTO 15006KT 110V190 5000 -DZ OVC002/// 04/04 Q1010 REDZ=
202012141950 METAR ESMX 141950Z AUTO 15007KT 5000 DZ OVC002/// 04/04 Q1010=
202012141920 METAR ESMX 141920Z AUTO 14008KT 110V170 3100 RA OVC002/// 04/04 Q1010=
202012141850 METAR ESMX 141850Z AUTO 14008KT 080V160 2900 -RA OVC002/// 04/04 Q1010=
202012141820 METAR ESMX 141820Z AUTO 13008KT 090V160 3400 -RA OVC002/// 03/03 Q1010 REDZ REUP=
202012141750 METAR ESMX 141750Z AUTO 14006KT 090V190 4700 BR OVC003/// 03/03 Q1010=
202012141720 METAR ESMX 141720Z AUTO 14009KT 100V160 8000 BR BKN005/// OVC007/// 03/03 Q1011=
202012141650 METAR ESMX 141650Z AUTO 15009KT 110V180 9999 OVC008/// 03/03 Q1011=
202012141620 METAR ESMX 141620Z AUTO 14010KT 090V170 9999 OVC008/// 03/03 Q1011=
202012141550 METAR ESMX 141550Z AUTO 14009KT 110V170 9999 OVC008/// 04/02 Q1011=
202012141520 METAR ESMX 141520Z AUTO 14007KT 9999 BKN008/// OVC009/// 04/03 Q1011=
202012141450 METAR ESMX 141450Z AUTO 13007KT 090V170 9999 OVC008/// 04/03 Q1011=
202012141420 METAR ESMX 141420Z 14008KT 9999 BKN005 04/03 Q1012=
202012141350 METAR ESMX 141350Z 13005KT 100V160 9999 OVC004 03/03 Q1012=
202012141320 METAR ESMX 141320Z 13006KT 080V170 9999 OVC005 03/03 Q1012=
202012141250 METAR ESMX 141250Z 13006KT 100V160 9999 OVC005 03/03 Q1012=
202012141220 METAR ESMX 141220Z 12005KT 070V160 6000 BR FEW005 OVC008 03/02 Q1013=
202012141150 METAR ESMX 141150Z 14006KT 100V160 9999 SCT006 OVC009 03/02 Q1013=
202012141120 METAR ESMX 141120Z 13006KT 9999 FEW007 OVC015 03/02 Q1013=
202012141050 METAR COR ESMX 141050Z 12004KT 9999 BKN015 03/02 Q1013=
202012141020 METAR ESMX 141020Z 11005KT 070V160 9999 OVC024 03/01 Q1013=
202012140950 METAR ESMX 140950Z 12004KT 9999 OVC027 02/01 Q1013=
202012140920 METAR ESMX 140920Z 12004KT 070V150 9999 OVC028 02/01 Q1014=
202012140850 METAR ESMX 140850Z 14005KT 9999 OVC029 02/01 Q1014=
202012140820 METAR ESMX 140820Z 14004KT 9999 OVC030 02/01 Q1013=
202012140750 METAR ESMX 140750Z 14003KT 110V170 9999 OVC031 02/01 Q1013=
202012140720 METAR ESMX 140720Z 13004KT 9999 OVC031 02/01 Q1013=
202012140650 METAR ESMX 140650Z AUTO VRB03KT 9999 OVC030/// 02/01 Q1013=
202012140620 METAR ESMX 140620Z AUTO 13003KT 070V170 9999 OVC027/// 02/02 Q1013=
202012140550 METAR ESMX 140550Z AUTO 11003KT 050V120 9999 SCT005/// OVC024/// 02/02 Q1013=
202012140520 METAR ESMX 140520Z AUTO VRB03KT 9999 FEW006/// OVC023/// 02/02 Q1013=
202012140450 METAR ESMX 140450Z AUTO 15003KT 9999 OVC023/// 02/02 Q1013=
202012140420 METAR ESMX 140420Z AUTO VRB02KT 9999 OVC024/// 02/02 Q1013=
202012140350 METAR ESMX 140350Z AUTO 08004KT 050V120 9999 OVC023/// 02/02 Q1013=
202012140320 METAR ESMX 140320Z AUTO 15003KT 9999 OVC020/// 02/02 Q1014=
202012140250 METAR ESMX 140250Z AUTO 15002KT 9999 FEW005/// OVC023/// 02/02 Q1014=
202012140220 METAR ESMX 140220Z AUTO 15003KT 9999 BKN005/// OVC024/// 02/02 Q1013=
202012140150 METAR ESMX 140150Z AUTO VRB03KT 9999 BKN006/// BKN008/// OVC022/// 02/02 Q1014=
202012140120 METAR ESMX 140120Z AUTO 15003KT 9999 OVC006/// 02/02 Q1014=
202012140050 METAR ESMX 140050Z AUTO 15003KT 9999 OVC006/// 02/02 Q1014=
202012140020 METAR ESMX 140020Z AUTO 15004KT 9999 OVC006/// 03/02 Q1014=
202012132350 METAR ESMX 132350Z AUTO 00000KT 9999 BKN007/// OVC009/// 02/02 Q1013=
202012132320 METAR ESMX 132320Z AUTO 08001KT 9999 BKN006/// OVC009/// 02/02 Q1013=
202012132250 METAR ESMX 132250Z AUTO 07003KT 9999 BKN007/// BKN010/// OVC044/// 02/02 Q1013=
202012132220 METAR ESMX 132220Z AUTO 08002KT 9999 OVC008/// 02/02 Q1013=
202012132150 METAR ESMX 132150Z AUTO 00000KT 9999 FEW007/// OVC010/// 02/02 Q1013=
202012132120 METAR ESMX 132120Z AUTO 08001KT 9999 OVC006/// 03/02 Q1013=
202012132050 METAR ESMX 132050Z AUTO VRB02KT 9999 OVC006/// 03/02 Q1013=
202012132020 METAR ESMX 132020Z AUTO VRB02KT 9999 OVC005/// 03/02 Q1013=
202012131950 METAR ESMX 131950Z AUTO VRB02KT 9999 BKN005/// OVC009/// 03/03 Q1013=
202012131920 METAR ESMX 131920Z AUTO 09001KT 9999 SCT005/// OVC009/// 03/03 Q1013=
202012131850 METAR ESMX 131850Z AUTO 00000KT 9999 BKN006/// OVC008/// 03/03 Q1013=
202012131820 METAR ESMX 131820Z AUTO 14002KT 9999 OVC007/// 03/03 Q1012=
202012131750 METAR ESMX 131750Z AUTO VRB03KT 9999 OVC005/// 03/03 Q1012=
202012131720 METAR ESMX 131720Z AUTO VRB03KT 9999 OVC004/// 03/03 Q1012=
202012131650 METAR ESMX 131650Z AUTO VRB03KT 9999 OVC005/// 03/03 Q1012=
202012131620 METAR ESMX 131620Z AUTO 05001KT 9999 OVC005/// 03/03 Q1012=
202012131550 METAR ESMX 131550Z AUTO 06003KT 9999 OVC004/// 03/03 Q1012=
202012131520 METAR ESMX 131520Z AUTO 08003KT 9999 OVC004/// 03/03 Q1012=
202012131450 METAR ESMX 131450Z AUTO 08002KT 9999 OVC006/// 03/03 Q1012 REDZ=
202012131420 METAR ESMX 131420Z AUTO 08002KT 9999 OVC006/// 03/03 Q1012 REDZ=
202012131350 METAR ESMX 131350Z AUTO 08004KT 9999 OVC010/// 03/03 Q1011=
202012131320 METAR ESMX 131320Z AUTO 08004KT 030V100 9999 DZ SCT005/// OVC009/// 03/03 Q1011 REDZ=
202012131250 METAR ESMX 131250Z AUTO 07003KT 9999 DZ OVC006/// 03/03 Q1011=
202012131220 METAR ESMX 131220Z AUTO 07003KT 9999 -RA OVC006/// 03/03 Q1011 REDZ=
202012131150 METAR ESMX 131150Z AUTO 11003KT 9999 OVC006/// 03/03 Q1011=
202012131120 METAR ESMX 131120Z AUTO 06003KT 9999 -DZ OVC006/// 03/03 Q1011 REDZ=
202012131050 METAR ESMX 131050Z AUTO 07003KT 020V080 9999 -DZ OVC005/// 03/03 Q1011=
202012131020 METAR ESMX 131020Z AUTO 06004KT 9999 -DZ OVC005/// 03/03 Q1011 REUP=
202012130950 METAR ESMX 130950Z AUTO 08004KT 9999 BKN003/// OVC005/// 03/03 Q1011=
202012130920 METAR ESMX 130920Z AUTO 07004KT 9999 OVC004/// 03/03 Q1011=
202012130850 METAR ESMX 130850Z AUTO 06004KT 9999 OVC004/// 03/03 Q1011=
202012130820 METAR ESMX 130820Z AUTO 03004KT 010V080 9999 OVC006/// 03/03 Q1011=
202012130750 METAR ESMX 130750Z AUTO 07003KT 9999 OVC005/// 03/03 Q1010=
202012130720 METAR ESMX 130720Z AUTO 07003KT 9999 OVC006/// 03/03 Q1010=
202012130650 METAR ESMX 130650Z AUTO 04003KT 350V080 9999 OVC006/// 03/03 Q1010 REDZ=
202012130620 METAR ESMX 130620Z AUTO 04003KT 010V070 9999 OVC005/// 03/03 Q1010 RESHUP REDZ=
202012130550 METAR ESMX 130550Z AUTO 04003KT 9999 OVC004/// 03/03 Q1010=
202012130520 METAR ESMX 130520Z AUTO 05004KT 9999 OVC004/// 03/03 Q1009=
202012130450 METAR ESMX 130450Z AUTO 04004KT 9999 -DZ OVC005/// 03/03 Q1010 RESHUP=
202012130420 METAR ESMX 130420Z AUTO 02003KT 9999 UP BKN006/// BKN009/// OVC027/// 03/03 Q1009 RERA=
202012130350 METAR ESMX 130350Z AUTO 06003KT 9999 BKN005/// OVC007/// 03/03 Q1009 REDZ=
202012130320 METAR ESMX 130320Z AUTO 06003KT 7000 DZ OVC004/// 03/03 Q1009 REUP REDZ=
202012130250 METAR ESMX 130250Z AUTO 06004KT 7000 BR OVC003/// 03/03 Q1009=
202012130220 METAR ESMX 130220Z AUTO 06004KT 4400 BR OVC002/// 03/03 Q1009=
202012130150 METAR ESMX 130150Z AUTO 06003KT 6000 BR OVC002/// 04/04 Q1009=
202012130120 METAR ESMX 130120Z AUTO 06003KT 2500 BR OVC002/// 04/04 Q1009=
202012130050 METAR ESMX 130050Z AUTO 07004KT 040V110 3200 BR OVC002/// 04/04 Q1009=
202012130020 METAR ESMX 130020Z AUTO 07003KT 3100 BR OVC002/// 04/04 Q1009=
202012122350 METAR ESMX 122350Z AUTO 08003KT 8000 BR OVC004/// 04/04 Q1009=
202012122320 METAR ESMX 122320Z AUTO 08003KT 9999 OVC005/// 04/04 Q1009=
202012122250 METAR ESMX 122250Z AUTO 07003KT 9999 BKN007/// OVC011/// 04/04 Q1008=
202012122220 METAR ESMX 122220Z AUTO 08003KT 9999 SCT013/// OVC019/// 04/04 Q1008=
202012122150 METAR ESMX 122150Z AUTO 12003KT 9999 -DZ SCT012/// BKN021/// OVC028/// 04/04 Q1008=
202012122120 METAR ESMX 122120Z AUTO VRB02KT 9999 -RA BKN012/// OVC035/// 04/04 Q1008 REDZ=
202012122050 METAR ESMX 122050Z AUTO 11003KT 9999 DZ ///023 04/04 Q1008=
202012122020 METAR ESMX 122020Z AUTO 11005KT 070V150 9999 -RA BKN006/// OVC012/// 04/04 Q1008=
202012121950 METAR ESMX 121950Z AUTO 07004KT 9999 -RA SCT007/// BKN009/// BKN013/// 04/04 Q1008 RESHUP RERA=
202012121920 METAR ESMX 121920Z AUTO 07003KT 9999 FEW003/// OVC005/// 05/05 Q1007=
202012121850 METAR ESMX 121850Z AUTO 07003KT 2800 BR OVC002/// 05/05 Q1007 REUP=
202012121820 METAR ESMX 121820Z AUTO 06003KT 2700 BR OVC002/// 05/05 Q1007=
202012121750 METAR ESMX 121750Z AUTO 06003KT 2300 BR OVC002/// 04/04 Q1007=
202012121720 METAR ESMX 121720Z AUTO 06003KT 4000 BR OVC002/// 04/04 Q1007=
202012121650 METAR ESMX 121650Z AUTO 06003KT 3600 BR OVC003/// 04/04 Q1007=
202012121620 METAR ESMX 121620Z AUTO 06002KT 3600 BR OVC002/// 04/04 Q1007 RESHUP=
202012121550 METAR ESMX 121550Z AUTO 06003KT 2800 BR BKN002/// OVC004/// 04/04 Q1007 REUP RESHUP=
202012121520 METAR ESMX 121520Z AUTO 11002KT 4700 BR OVC005/// 04/04 Q1007=
202012121450 METAR ESMX 121450Z AUTO 11004KT 060V150 9999 OVC006/// 05/04 Q1006=
202012121420 METAR ESMX 121420Z AUTO 08004KT 020V190 9999 OVC004/// 04/04 Q1006=
202012121350 METAR ESMX 121350Z AUTO 08003KT 040V110 6000 BR OVC006/// 05/04 Q1006=
202012121320 METAR ESMX 121320Z AUTO 07004KT 030V100 9999 OVC007/// 05/04 Q1006=
202012121250 METAR ESMX 121250Z AUTO 08004KT 050V110 9999 OVC007/// 05/04 Q1006=
202012121220 METAR ESMX 121220Z AUTO 06005KT 030V100 9999 BKN008/// OVC011/// 04/04 Q1006=
202012121150 METAR ESMX 121150Z 06005KT 9999 BKN006 04/04 Q1006=
202012121120 METAR ESMX 121120Z 06005KT 030V100 9999 BKN006 04/04 Q1005=
202012121050 METAR ESMX 121050Z 06006KT 9999 BKN006 04/04 Q1005=
202012121020 METAR ESMX 121020Z 06006KT 030V090 9999 OVC008 04/03 Q1005=
202012120950 METAR ESMX 120950Z 07006KT 030V110 9999 BKN009 03/03 Q1006=
202012120920 METAR ESMX 120920Z AUTO 07006KT 020V100 9999 FEW008/// BKN012/// OVC022/// 03/03 Q1005=
202012120850 METAR ESMX 120850Z AUTO 07006KT 040V110 9999 OVC022/// 03/03 Q1005=
202012120820 METAR ESMX 120820Z AUTO 06006KT 020V110 9999 OVC022/// 03/03 Q1005=
202012120750 METAR ESMX 120750Z AUTO 07007KT 030V110 9999 OVC022/// 03/03 Q1005=
202012120720 METAR ESMX 120720Z AUTO 06006KT 030V100 9999 OVC021/// 03/03 Q1005=
202012120650 METAR ESMX 120650Z AUTO 06006KT 030V100 9999 SCT007/// OVC023/// 03/03 Q1005=
202012120620 METAR ESMX 120620Z AUTO 06005KT 030V110 6000 BR BKN006/// OVC023/// 03/03 Q1005=
202012120550 METAR ESMX 120550Z AUTO 07005KT 030V100 9999 BKN009/// OVC020/// 03/02 Q1005=
202012120520 METAR ESMX 120520Z AUTO 08004KT 9999 OVC021/// 03/02 Q1005=
202012120450 METAR ESMX 120450Z AUTO 08004KT 030V130 9999 OVC019/// 03/02 Q1005=
202012120420 METAR ESMX 120420Z AUTO 07004KT 030V100 9999 OVC021/// 03/02 Q1005=
202012120350 METAR ESMX 120350Z AUTO 08004KT 030V110 9999 OVC021/// 03/02 Q1005=
202012120320 METAR ESMX 120320Z AUTO 08003KT 020V130 8000 BR FEW008/// OVC019/// 03/02 Q1005=
202012120250 METAR ESMX 120250Z AUTO 07004KT 7000 BR FEW008/// OVC019/// 02/02 Q1005=
202012120220 METAR ESMX 120220Z AUTO VRB03KT 5000 BR OVC018/// 02/02 Q1005 REDZ=
202012120150 METAR ESMX 120150Z AUTO 07004KT 030V110 5000 BR BKN005/// OVC007/// 02/02 Q1005=
202012120120 METAR ESMX 120120Z AUTO 07003KT 030V110 4800 BR OVC005/// 02/02 Q1005=
202012120050 METAR ESMX 120050Z AUTO 11003KT 060V150 3400 DZ BKN005/// OVC010/// 02/02 Q1005=
202012120020 METAR ESMX 120020Z AUTO 11006KT 070V150 4800 -DZ SCT003/// OVC005/// 02/02 Q1005=
202012112350 METAR ESMX 112350Z AUTO 07004KT 3000 BR OVC003/// 02/02 Q1005 REUP=
202012112320 METAR ESMX 112320Z AUTO 06004KT 030V100 3800 UP OVC004/// 02/02 Q1005=
202012112250 METAR ESMX 112250Z AUTO 06005KT 4100 BR OVC003/// 01/01 Q1005=
202012112220 METAR ESMX 112220Z AUTO 06004KT 020V080 4200 BR OVC004/// 01/01 Q1005=
202012112150 METAR ESMX 112150Z AUTO 07003KT 5000 BR BKN005/// OVC006/// 01/01 Q1005=
202012112120 METAR ESMX 112120Z AUTO 08003KT 030V110 9999 BKN008/// OVC009/// 01/01 Q1005=
202012112050 METAR ESMX 112050Z AUTO 10004KT 050V130 9000 BR SCT006/// BKN008/// OVC010/// 01/01 Q1005=
202012112020 METAR ESMX 112020Z AUTO 10003KT 6000 BR BKN006/// OVC009/// 01/01 Q1005=
202012111950 METAR ESMX 111950Z AUTO 11004KT 070V140 4200 BR OVC004/// 01/01 Q1005=
202012111920 METAR ESMX 111920Z AUTO 11004KT 050V120 3400 BR BKN004/// OVC006/// 01/01 Q1005=
202012111850 METAR ESMX 111850Z AUTO 11004KT 070V130 3700 BR OVC004/// 01/01 Q1005 RESHUP=
202012111820 METAR ESMX 111820Z AUTO 10003KT 030V130 2600 BR OVC004/// 01/01 Q1005 RESHUP REDZ=
202012111750 METAR ESMX 111750Z AUTO 12003KT 6000 BR BKN005/// OVC008/// 01/01 Q1005=
202012111720 METAR ESMX 111720Z AUTO 09003KT 3600 BR BKN004/// OVC006/// 01/01 Q1005=
202012111650 METAR ESMX 111650Z AUTO 08003KT 4000 -RA BKN005/// OVC006/// 01/01 Q1006 REUP=
202012111620 METAR ESMX 111620Z AUTO VRB03KT 6000 BR OVC005/// 01/01 Q1005=
202012111550 METAR ESMX 111550Z AUTO 11003KT 060V130 6000 BR OVC006/// 01/01 Q1006=
202012111520 METAR ESMX 111520Z AUTO 10003KT 9999 OVC007/// 01/01 Q1006=
202012111450 METAR ESMX 111450Z AUTO VRB03KT 9999 SCT008/// BKN010/// OVC014/// 01/01 Q1005=
202012111420 METAR ESMX 111420Z VRB02KT 9999 SCT007 OVC016 01/01 Q1005=
202012111350 METAR ESMX 111350Z 08003KT 9999 SCT007 OVC024 01/01 Q1005=
202012111320 METAR ESMX 111320Z 10003KT 9999 FEW007 BKN028 01/01 Q1005=
202012111250 METAR ESMX 111250Z AUTO 10002KT 9999 FEW008/// BKN023/// OVC036/// 01/01 Q1005 REDZ=
202012111220 METAR ESMX 111220Z 09003KT 6000 BR SCT004 OVC020 01/01 Q1005=
202012111150 METAR ESMX 111150Z 13004KT 3700 BR OVC005 01/01 Q1006=
202012111120 METAR ESMX 111120Z 13003KT 9000 BR BKN005 01/01 Q1006=
202012111050 METAR ESMX 111050Z 13003KT 5000 BR OVC004 01/01 Q1006=
202012111020 METAR ESMX 111020Z VRB03KT 6000 -DZ OVC004 01/01 Q1006=
202012110950 METAR ESMX 110950Z VRB02KT 6000 -DZ OVC003 01/01 Q1006=
202012110920 METAR ESMX 110920Z 12003KT 5000 -DZ OVC002 01/01 Q1006=
202012110850 METAR ESMX 110850Z VRB02KT 3900 OVC001 01/01 Q1006=
202012110820 METAR ESMX 110820Z AUTO 11001KT 2700 -RA OVC002/// 01/01 Q1006=
202012110750 METAR ESMX 110750Z VRB02KT 2600 -RASN OVC002 01/01 Q1006=
202012110720 METAR ESMX 110720Z 09002KT 2300 -RA OVC002 01/01 Q1006=
202012110650 METAR ESMX 110650Z AUTO 09002KT 4700 BR OVC002/// 01/01 Q1006=
202012110620 METAR ESMX 110620Z AUTO VRB03KT 2600 -RA OVC002/// 01/01 Q1006=
202012110550 METAR ESMX 110550Z AUTO 08003KT 2900 DZ OVC003/// 01/01 Q1006=
202012110520 METAR ESMX 110520Z AUTO 09003KT 8000 -DZ OVC004/// 01/01 Q1007 RESHUP=
202012110450 METAR ESMX 110450Z AUTO 07004KT 7000 -RA BKN005/// OVC008/// 01/01 Q1007=
202012110420 METAR ESMX 110420Z AUTO 06004KT 6000 -RA BKN005/// OVC007/// 01/01 Q1007=
202012110350 METAR ESMX 110350Z AUTO 06004KT 4200 -SN SCT006/// OVC009/// 01/01 Q1007=
202012110320 METAR ESMX 110320Z AUTO 05004KT 2600 -PL OVC006/// 01/01 Q1007=
202012110250 METAR ESMX 110250Z AUTO 06004KT 7000 -RA FEW005/// BKN009/// OVC014/// 01/01 Q1008 REUP=
202012110220 METAR ESMX 110220Z AUTO 06004KT 3800 BR BKN002/// OVC005/// 01/01 Q1008 REFZRA=
202012110150 METAR ESMX 110150Z AUTO 08004KT 040V100 2300 BR SCT002/// BKN004/// OVC019/// 01/01 Q1008=
202012110120 METAR ESMX 110120Z AUTO 08003KT 5000 BR FEW005/// OVC011/// 01/01 Q1008=
202012110050 METAR ESMX 110050Z AUTO 12003KT 4200 -DZ FEW002/// BKN005/// OVC007/// 01/01 Q1009=
202012110020 METAR ESMX 110020Z AUTO 13004KT 080V180 4600 UP BKN002/// OVC011/// 01/01 Q1009=
202012102350 METAR ESMX 102350Z AUTO 12004KT 060V150 2400 -RASN BKN001/// OVC004/// 01/01 Q1009=
202012102320 METAR ESMX 102320Z AUTO 12003KT 2600 UP BKN002/// OVC005/// 01/01 Q1009=
202012102250 METAR ESMX 102250Z AUTO VRB03KT 3400 -RASN FEW002/// BKN008/// OVC010/// 01/01 Q1009=
202012102220 METAR ESMX 102220Z AUTO 11003KT 060V200 5000 -RA FEW002/// BKN006/// BKN012/// 01/01 Q1009=
202012102150 METAR ESMX 102150Z AUTO 09003KT 030V160 5000 -RA FEW002/// BKN005/// OVC007/// 01/01 Q1010=
202012102120 METAR ESMX 102120Z AUTO 09004KT 050V110 9999 -DZ BKN008/// OVC011/// 01/01 Q1010=
202012102050 METAR ESMX 102050Z AUTO 08003KT 9999 -RA SCT009/// OVC012/// 01/01 Q1010 REUP=
202012102020 METAR ESMX 102020Z AUTO 07005KT 030V090 9999 BKN008/// BKN012/// OVC029/// 01/01 Q1010=
202012101950 METAR ESMX 101950Z AUTO 06005KT 020V100 9999 FEW002/// SCT006/// BKN008/// 01/01 Q1010 RESHUP RERA=
202012101920 METAR ESMX 101920Z AUTO 07004KT 9999 FEW002/// BKN005/// BKN007/// 01/01 Q1010=
202012101850 METAR ESMX 101850Z AUTO 06006KT 030V090 6000 -DZ OVC005/// 01/01 Q1010=
202012101820 METAR ESMX 101820Z AUTO 05006KT 020V100 7000 -RA OVC005/// 01/01 Q1010 RERA=
202012101750 METAR ESMX 101750Z AUTO 05007KT 010V070 7000 -RA BKN004/// OVC006/// 01/01 Q1011=
202012101720 METAR ESMX 101720Z AUTO 05007KT 020V080 4900 -DZ OVC004/// 01/01 Q1011 REDZ=
202012101650 METAR ESMX 101650Z AUTO 04007KT 020V080 5000 -DZ OVC004/// 01/01 Q1011=
202012101620 METAR ESMX 101620Z AUTO 04008KT 6000 -DZ OVC004/// 01/01 Q1011=
202012101550 METAR ESMX 101550Z AUTO 04006KT 4100 DZ BKN005/// OVC012/// 01/01 Q1012=
202012101520 METAR ESMX 101520Z AUTO 06006KT 020V080 4000 DZ VV011 01/01 Q1012=
202012101450 METAR ESMX 101450Z AUTO 06006KT 3600 -RA SCT005/// OVC010/// 01/01 Q1012=
202012101420 METAR ESMX 101420Z 06006KT 4000 BR OVC004 01/01 Q1012=
202012101350 METAR ESMX 101350Z 05006KT 020V080 5000 BR OVC004 01/01 Q1012=
202012101320 METAR ESMX 101320Z 06007KT 5000 BR OVC004 02/02 Q1012=
202012101250 METAR ESMX 101250Z 06005KT 5000 BR OVC004 02/02 Q1012=
202012101220 METAR ESMX 101220Z 07006KT 040V120 5000 BR OVC003 02/02 Q1013=
202012101150 METAR ESMX 101150Z 09006KT 040V110 5000 BR OVC003 02/02 Q1013=
202012101120 METAR ESMX 101120Z 08006KT 040V130 5000 BR OVC003 02/02 Q1013=
202012101050 METAR ESMX 101050Z AUTO 09005KT 020V130 4000 BR OVC003/// 02/02 Q1013=
202012101020 METAR ESMX 101020Z 09005KT 040V150 5000 BR OVC003 02/02 Q1014=
202012100950 METAR ESMX 100950Z 09006KT 010V140 5000 BR OVC003 02/02 Q1014=
202012100920 METAR COR ESMX 100920Z 08006KT 050V110 5000 BR OVC003 02/02 Q1014=
202012100850 METAR ESMX 100850Z 10006KT 030V150 4800 BR OVC002 02/02 Q1014=
202012100820 METAR ESMX 100820Z 10006KT 350V160 5000 BR OVC004 02/02 Q1014=
202012100750 METAR ESMX 100750Z 09005KT 040V120 5000 BR OVC003 02/02 Q1014=
202012100720 METAR ESMX 100720Z 09007KT 020V130 5000 BR OVC005 02/02 Q1014=
202012100650 METAR COR ESMX 100650Z 09008KT 050V130 5000 BR OVC007 02/02 Q1014=
202012100620 METAR ESMX 100620Z AUTO 09007KT 030V160 7000 BR OVC006/// 02/02 Q1014=
202012100550 METAR ESMX 100550Z AUTO 09006KT 030V160 6000 BR OVC005/// 02/02 Q1014=
202012100520 METAR ESMX 100520Z AUTO 09006KT 040V140 9999 OVC006/// 02/02 Q1014=
202012100450 METAR ESMX 100450Z AUTO 09006KT 040V140 9999 OVC006/// 02/02 Q1014=
202012100420 METAR ESMX 100420Z AUTO 09007G18KT 030V130 9000 BR OVC006/// 02/02 Q1014=
202012100350 METAR ESMX 100350Z AUTO 10007KT 050V150 9000 BR OVC006/// 02/02 Q1014=
202012100320 METAR ESMX 100320Z AUTO 12007KT 070V160 9999 OVC006/// 03/02 Q1014=
202012100250 METAR ESMX 100250Z AUTO 12006KT 080V170 9999 OVC006/// 03/02 Q1015=
202012100220 METAR ESMX 100220Z AUTO 11008KT 070V140 9000 BR OVC005/// 03/02 Q1015=
202012100150 METAR ESMX 100150Z AUTO 11005KT 060V160 9000 BR OVC005/// 03/02 Q1015=
202012100120 METAR ESMX 100120Z AUTO 11007KT 060V160 9000 BR OVC005/// 03/02 Q1015=
202012100050 METAR ESMX 100050Z AUTO 11006KT 060V140 8000 BR OVC005/// 03/02 Q1015=
202012100020 METAR ESMX 100020Z AUTO 10005KT 050V140 9000 BR OVC006/// 03/02 Q1015=
202012092350 METAR ESMX 092350Z AUTO 11007KT 060V150 8000 BR OVC006/// 03/02 Q1015=
202012092320 METAR ESMX 092320Z AUTO 11006KT 070V140 8000 BR OVC006/// 03/02 Q1015=
202012092250 METAR ESMX 092250Z AUTO 11006KT 030V150 9999 OVC007/// 03/02 Q1015=
202012092220 METAR ESMX 092220Z AUTO 09007KT 050V140 9999 OVC008/// 03/02 Q1015=
202012092150 METAR ESMX 092150Z AUTO 11006KT 060V140 9999 OVC008/// 03/02 Q1015=
202012092120 METAR ESMX 092120Z AUTO 10006KT 050V140 9000 BR OVC008/// 03/02 Q1015=
202012092050 METAR ESMX 092050Z AUTO 10007KT 050V190 8000 BR OVC007/// 03/02 Q1016=
202012092020 METAR ESMX 092020Z AUTO 11008KT 030V140 7000 BR OVC005/// 02/02 Q1016=
202012091950 METAR ESMX 091950Z AUTO 11007KT 050V150 4700 BR OVC003/// 02/02 Q1015=
202012091920 METAR ESMX 091920Z AUTO 10006KT 050V140 3800 BR OVC003/// 02/02 Q1015=
202012091850 METAR ESMX 091850Z AUTO 09007KT 050V140 4400 BR OVC003/// 02/02 Q1015=
202012091820 METAR ESMX 091820Z AUTO 10007KT 060V140 4100 BR OVC003/// 02/02 Q1015=
202012091750 METAR ESMX 091750Z AUTO 11009KT 070V170 5000 BR OVC003/// 03/03 Q1015=
202012091720 METAR ESMX 091720Z AUTO 12007KT 060V150 6000 BR FEW002/// OVC005/// 03/03 Q1015=
202012091650 METAR ESMX 091650Z AUTO 11008KT 070V160 7000 BR OVC003/// 03/03 Q1015=
202012091620 METAR ESMX 091620Z AUTO 10008G20KT 050V140 7000 BR OVC003/// 03/03 Q1015=
202012091550 METAR ESMX 091550Z AUTO 11007KT 060V150 6000 BR OVC003/// 03/03 Q1015=
202012091520 METAR ESMX 091520Z AUTO 09007KT 340V140 3700 BR OVC002/// 03/03 Q1015=
202012091450 METAR ESMX 091450Z AUTO 10007KT 060V140 4900 BR OVC003/// 03/03 Q1015=
202012091420 METAR ESMX 091420Z 10007KT 050V140 3300 BR OVC002 03/03 Q1015=
202012091350 METAR ESMX 091350Z 10006KT 050V180 3900 BR OVC003 03/03 Q1015=
202012091320 METAR ESMX 091320Z 10008KT 020V140 4300 BR OVC003 03/03 Q1015=
202012091250 METAR ESMX 091250Z 11007KT 020V170 4200 BR OVC002 03/03 Q1015=
202012091220 METAR ESMX 091220Z 11006KT 060V140 3400 BR OVC003 03/03 Q1015=
202012091150 METAR ESMX 091150Z 11007KT 050V140 5000 BR OVC004 03/03 Q1015=
202012091120 METAR ESMX 091120Z 11007KT 070V160 7000 BR OVC006 04/03 Q1015=
202012091050 METAR ESMX 091050Z 11007KT 060V160 8000 BR OVC007 04/03 Q1015=
202012091020 METAR ESMX 091020Z 11006KT 050V160 7000 BR OVC006 04/03 Q1016=
202012090950 METAR ESMX 090950Z 10005KT 060V130 7000 BR OVC007 04/03 Q1016=
202012090920 METAR ESMX 090920Z 09004KT 040V120 6000 BR OVC006 03/03 Q1016=
202012090850 METAR ESMX 090850Z 09004KT 050V120 7000 BR OVC008 03/03 Q1016=
202012090820 METAR ESMX 090820Z 11004KT 050V140 7000 BR OVC008 03/03 Q1016=
202012090750 METAR ESMX 090750Z 11005KT 070V140 5000 BR BKN005 OVC009 03/03 Q1015=
202012090720 METAR ESMX 090720Z 11003KT 4200 BR OVC004 03/03 Q1015=
202012090650 METAR ESMX 090650Z AUTO 09003KT 3400 BR OVC003/// 03/03 Q1015=
202012090620 METAR ESMX 090620Z AUTO 09004KT 050V160 3500 BR BKN004/// BKN006/// OVC007/// 03/03 Q1015 REDZ=
202012090550 METAR ESMX 090550Z AUTO 07003KT 7000 BR OVC006/// 03/03 Q1015 RERA REDZ=
202012090520 METAR ESMX 090520Z AUTO VRB03KT 6000 BR BKN005/// BKN006/// OVC008/// 03/03 Q1015=
202012090450 METAR ESMX 090450Z AUTO VRB03KT 4700 DZ SCT006/// BKN008/// BKN011/// 03/03 Q1015 REDZ=
202012090420 METAR ESMX 090420Z AUTO 09003KT 4400 DZ BKN005/// OVC012/// 03/03 Q1015=
202012090350 METAR ESMX 090350Z AUTO 12004KT 5000 -DZ OVC005/// 03/03 Q1015 REDZ=
202012090320 METAR ESMX 090320Z AUTO 13005KT 100V160 3800 DZ OVC004/// 03/03 Q1015 REUP=
202012090250 METAR ESMX 090250Z AUTO 13005KT 3400 BR OVC004/// 03/03 Q1014=
202012090220 METAR ESMX 090220Z AUTO 12004KT 080V140 3700 BR OVC003/// 03/03 Q1014=
202012090150 METAR ESMX 090150Z AUTO 13004KT 1800 BR OVC002/// 03/03 Q1014=
202012090120 METAR ESMX 090120Z AUTO 12004KT 1400 R01/P2000N R19/P2000N BR OVC002/// 03/03 Q1014=
202012090050 METAR ESMX 090050Z AUTO 11004KT 070V140 2000 BR OVC002/// 03/03 Q1014=
202012090020 METAR ESMX 090020Z AUTO 12005KT 090V160 2000 BR OVC002/// 03/03 Q1014=
202012082350 METAR ESMX 082350Z AUTO 13005KT 080V150 2100 BR OVC001/// 03/03 Q1014=
202012082320 METAR ESMX 082320Z AUTO 13005KT 070V140 1700 BR OVC001/// 03/03 Q1014=
202012082250 METAR ESMX 082250Z AUTO 14005KT 080V170 1100 R01/P2000N R19/P2000N BR OVC002/// 03/03 Q1014=
202012082220 METAR ESMX 082220Z AUTO 13004KT 070V170 5000 BR OVC003/// 03/03 Q1014=
202012082150 METAR ESMX 082150Z AUTO 11005KT 080V140 4500 BR OVC003/// 02/02 Q1013 RESHUP=
202012082120 METAR ESMX 082120Z AUTO 12004KT 4300 BR OVC003/// 02/02 Q1013 REUP=
202012082050 METAR ESMX 082050Z AUTO 12005KT 070V150 3600 BR OVC002/// 02/02 Q1013=
202012082020 METAR ESMX 082020Z AUTO 10004KT 060V160 2500 BR OVC002/// 02/02 Q1013 REDZ=
202012081950 METAR ESMX 081950Z AUTO 12004KT 090V150 1700 BR OVC002/// 02/02 Q1013=
202012081920 METAR ESMX 081920Z AUTO 11004KT 040V190 1700 BR OVC002/// 02/02 Q1012=
202012081850 METAR ESMX 081850Z AUTO 12004KT 070V140 2500 -DZ OVC002/// 02/02 Q1012=
202012081820 METAR ESMX 081820Z AUTO 10005KT 070V140 1700 -RA OVC002/// 02/02 Q1012 REUP=
202012081750 METAR ESMX 081750Z AUTO 11004KT 050V190 1300 R01/P2000N R19/P2000N BR OVC002/// 02/02 Q1012=
202012081720 METAR ESMX 081720Z AUTO 11005KT 070V140 2300 BR OVC002/// 02/02 Q1012=
202012081650 METAR ESMX 081650Z AUTO 12005KT 070V140 5000 BR OVC004/// 02/02 Q1012 REDZ=
202012081620 METAR ESMX 081620Z AUTO 12005KT 090V150 7000 BR OVC005/// 02/01 Q1012=
202012081550 METAR ESMX 081550Z AUTO 11005KT 8000 BR OVC006/// 01/01 Q1012=
202012081520 METAR ESMX 081520Z AUTO 10004KT 050V130 6000 -DZ OVC005/// 01/01 Q1011=
202012081450 METAR ESMX 081450Z AUTO 09004KT 060V160 5000 -RA OVC005/// 01/01 Q1011 RESHUP=
202012081420 METAR COR ESMX 081420Z 07003KT 4500 -RASN OVC005 01/01 Q1011=
202012081350 METAR ESMX 081350Z 09003KT 4000 -SNRA OVC005 01/01 Q1011=
202012081320 METAR ESMX 081320Z 09003KT 2700 -RA BKN004 02/02 Q1011=
202012081250 METAR ESMX 081250Z 10005KT 050V130 3200 -RA BKN003 02/02 Q1011=
202012081220 METAR ESMX 081220Z 10005KT 060V150 3000 -RA BKN004 02/02 Q1011=
202012081150 METAR ESMX 081150Z 10005KT 060V140 3000 RA BR BKN004 02/02 Q1011=
202012081120 METAR ESMX 081120Z 11004KT 060V150 3000 RA BR BKN004 02/02 Q1011=
202012081050 METAR ESMX 081050Z 11005KT 030V190 4000 -RA BKN003 02/02 Q1011=
202012081020 METAR ESMX 081020Z 11007KT 060V150 4000 -RA BKN004 02/02 Q1011=
202012080950 METAR ESMX 080950Z 11006KT 060V160 5000 BR OVC004 02/02 Q1011=
202012080920 METAR ESMX 080920Z 10009KT 060V150 5000 BR OVC004 02/02 Q1011=
202012080850 METAR ESMX 080850Z 11007KT 070V150 5000 BR OVC004 03/03 Q1011=
202012080820 METAR ESMX 080820Z 10006KT 050V150 5000 -DZ OVC005 03/03 Q1011=
202012080750 METAR ESMX 080750Z 09006KT 360V150 5000 -DZ OVC006 03/03 Q1011=
202012080720 METAR ESMX 080720Z 10005KT 040V170 5000 -DZ OVC005 03/03 Q1010=
202012080650 METAR ESMX 080650Z AUTO 10005KT 050V160 4700 -RA OVC006/// 03/03 Q1010 REDZ=
202012080620 METAR ESMX 080620Z AUTO 10005KT 060V140 5000 DZ OVC005/// 03/03 Q1010=
202012080550 METAR ESMX 080550Z AUTO 10005KT 040V150 5000 -RA OVC005/// 03/03 Q1010 REDZ=
202012080520 METAR ESMX 080520Z AUTO 10006KT 350V150 5000 -DZ OVC006/// 03/03 Q1010=
202012080450 METAR ESMX 080450Z AUTO 09006KT 040V140 6000 DZ OVC006/// 03/03 Q1010=
202012080420 METAR ESMX 080420Z AUTO 10004KT 030V140 5000 -RA OVC005/// 03/03 Q1010 REDZ=
202012080350 METAR ESMX 080350Z AUTO 11004KT 050V140 7000 -DZ OVC006/// 04/03 Q1010=
202012080320 METAR ESMX 080320Z AUTO 09005KT 050V120 7000 -RA OVC006/// 04/04 Q1009 RESHUP=
202012080250 METAR ESMX 080250Z AUTO 10005KT 050V130 9999 UP OVC007/// 04/04 Q1010 REDZ=
202012080220 METAR ESMX 080220Z AUTO 09005KT 030V140 6000 BR OVC006/// 04/04 Q1010 REUP=
202012080150 METAR ESMX 080150Z AUTO 09005KT 030V200 8000 BR OVC006/// 04/04 Q1010 REDZ=
202012080120 METAR ESMX 080120Z AUTO 09004KT 030V120 8000 BR OVC006/// 04/04 Q1009=
202012080050 METAR ESMX 080050Z AUTO 11005KT 060V140 8000 BR OVC007/// 04/04 Q1009=
202012080020 METAR ESMX 080020Z AUTO 10004KT 060V130 9000 -RA OVC007/// 04/04 Q1009 REDZ REUP=
202012072350 METAR ESMX 072350Z AUTO 11005KT 060V150 9000 BR OVC007/// 04/04 Q1009=
202012072320 METAR ESMX 072320Z AUTO 11006KT 040V150 9000 BR OVC007/// 04/04 Q1009 REDZ=
202012072250 METAR ESMX 072250Z AUTO 13005KT 090V160 9000 BR OVC006/// 04/04 Q1009=
202012072220 METAR ESMX 072220Z AUTO 13005KT 080V150 9000 BR OVC006/// 04/04 Q1009 RESHUP REDZ=
202012072150 METAR ESMX 072150Z AUTO 12005KT 070V160 8000 BR OVC007/// 04/04 Q1009=
202012072120 METAR ESMX 072120Z AUTO 12006KT 090V190 8000 BR OVC006/// 04/04 Q1009=
202012072050 METAR ESMX 072050Z AUTO 11006KT 070V160 8000 -DZ OVC006/// 04/04 Q1009 RESHUP REUP=
202012072020 METAR ESMX 072020Z AUTO 11006KT 070V160 8000 BR OVC006/// 04/04 Q1008=
202012071950 METAR ESMX 071950Z AUTO 11005KT 060V150 9000 BR OVC006/// 04/03 Q1008=
202012071920 METAR ESMX 071920Z AUTO 12005KT 060V160 9999 OVC007/// 04/03 Q1008=
202012071850 METAR ESMX 071850Z AUTO 12006KT 080V160 9999 OVC007/// 04/03 Q1008=
202012071820 METAR ESMX 071820Z AUTO 12007KT 070V170 9000 BR OVC006/// 04/03 Q1008=
202012071750 METAR ESMX 071750Z 12007KT 070V170 9000 BR BKN005 04/03 Q1008=
202012071720 METAR ESMX 071720Z 12008KT 060V170 9000 BR BKN005 04/03 Q1008=
202012071650 METAR ESMX 071650Z 12008KT 070V180 9000 BR BKN005 04/03 Q1007=
202012071620 METAR ESMX 071620Z 12009KT 080V160 9999 BKN006 04/03 Q1007=
202012071550 METAR ESMX 071550Z 13008KT 070V170 9999 BKN007 04/03 Q1007=
202012071520 METAR ESMX 071520Z 10007KT 040V150 9999 BKN007 04/03 Q1006=
202012071450 METAR ESMX 071450Z 09008KT 350V160 9999 BKN007 04/03 Q1006=
202012071420 METAR ESMX 071420Z 11009KT 060V160 9999 BKN006 04/03 Q1007=
202012071350 METAR ESMX 071350Z 09007KT 050V160 9999 BKN006 04/04 Q1007=
202012071320 METAR ESMX 071320Z 11007G18KT 070V200 9999 BKN006 04/04 Q1007=
202012071250 METAR ESMX 071250Z 10008KT 050V150 9999 BKN006 04/04 Q1007=
202012071220 METAR ESMX 071220Z 10008G18KT 030V150 9999 BKN006 04/04 Q1006=
202012071150 METAR ESMX 071150Z 11008KT 060V200 9999 BKN006 05/04 Q1007=
202012071120 METAR ESMX 071120Z 10009KT 030V170 9999 BKN005 05/04 Q1007=
202012071050 METAR ESMX 071050Z 10008KT 050V150 9999 BKN005 05/04 Q1007=
202012071020 METAR ESMX 071020Z 10008G19KT 070V130 9999 BKN005 04/04 Q1007=
202012070950 METAR ESMX 070950Z 10008G18KT 050V150 9999 BKN005 04/04 Q1007=
202012070920 METAR ESMX 070920Z 11007KT 060V150 9999 BKN005 04/04 Q1007=
202012070850 METAR ESMX 070850Z 11009KT 060V160 9999 BKN006 04/04 Q1007=
202012070820 METAR ESMX 070820Z 11008KT 050V160 9000 BR BKN006 04/04 Q1007=
202012070750 METAR ESMX 070750Z 11009KT 060V150 9000 BR BKN005 05/04 Q1007=
202012070720 METAR ESMX 070720Z 11007KT 060V170 8000 BR BKN005 05/04 Q1007=
202012070650 METAR ESMX 070650Z AUTO 11008KT 070V140 8000 BR OVC004/// 05/04 Q1007=
202012070620 METAR ESMX 070620Z AUTO 12010G20KT 010V170 8000 BR OVC004/// 05/05 Q1006=
202012070550 METAR ESMX 070550Z AUTO 12010KT 050V220 7000 BR OVC004/// 05/05 Q1006=
202012070520 METAR ESMX 070520Z AUTO 10007KT 060V150 5000 BR OVC004/// 05/05 Q1006=
202012070450 METAR ESMX 070450Z AUTO 11008G18KT 030V160 7000 BR OVC004/// 05/05 Q1007=
202012070420 METAR ESMX 070420Z AUTO 11007KT 050V170 8000 BR OVC005/// 06/05 Q1007=
202012070350 METAR ESMX 070350Z AUTO 11007KT 050V170 9999 OVC005/// 06/05 Q1007=
202012070320 METAR ESMX 070320Z AUTO 10007KT 050V140 9999 OVC006/// 06/05 Q1007=
202012070250 METAR ESMX 070250Z AUTO VRB06KT 9999 OVC006/// 06/05 Q1007=
202012070220 METAR ESMX 070220Z AUTO 10006KT 020V160 9999 OVC006/// 06/05 Q1007=
202012070150 METAR ESMX 070150Z AUTO 10006KT 050V140 9000 BR OVC006/// 06/05 Q1007=
202012070120 METAR ESMX 070120Z AUTO 10007KT 050V140 9000 BR OVC006/// 06/05 Q1008=
202012070050 METAR ESMX 070050Z AUTO 10007KT 050V140 8000 BR OVC005/// 06/05 Q1008=
202012070020 METAR ESMX 070020Z AUTO 10006KT 050V140 7000 BR OVC004/// 06/05 Q1008=
202012062350 METAR ESMX 062350Z AUTO 10006KT 050V140 7000 BR OVC004/// 06/06 Q1008=
202012062320 METAR ESMX 062320Z AUTO 10007KT 010V140 7000 BR OVC004/// 06/06 Q1008=
202012062250 METAR ESMX 062250Z AUTO 10005KT 050V150 7000 BR OVC004/// 06/06 Q1008=
202012062220 METAR ESMX 062220Z AUTO 11006KT 050V150 7000 BR OVC005/// 06/06 Q1008=
202012062150 METAR ESMX 062150Z AUTO 10005KT 040V160 8000 BR OVC005/// 06/06 Q1008=
202012062120 METAR ESMX 062120Z AUTO 11006KT 060V140 8000 BR OVC005/// 06/06 Q1008=
202012062050 METAR ESMX 062050Z AUTO 12006KT 060V160 8000 BR OVC005/// 07/06 Q1008=
202012062020 METAR ESMX 062020Z AUTO 11006KT 060V170 8000 BR OVC005/// 07/06 Q1008=
202012061950 METAR ESMX 061950Z AUTO 11006KT 070V180 7000 BR OVC005/// 07/06 Q1008=
202012061920 METAR ESMX 061920Z AUTO 12006KT 060V160 7000 BR OVC006/// 07/06 Q1008=
202012061850 METAR ESMX 061850Z AUTO 11006KT 020V160 7000 BR OVC006/// 07/06 Q1008=
202012061820 METAR ESMX 061820Z AUTO 11006KT 070V160 6000 BR OVC005/// 07/06 Q1008=
202012061750 METAR ESMX 061750Z AUTO 11006KT 070V160 7000 BR OVC006/// 07/06 Q1008=
202012061720 METAR ESMX 061720Z AUTO 12006KT 030V160 7000 BR OVC006/// 07/06 Q1008=
202012061650 METAR ESMX 061650Z AUTO 11006KT 070V140 7000 BR OVC006/// 07/06 Q1008=
202012061620 METAR ESMX 061620Z AUTO 11005KT 070V160 7000 BR OVC007/// 07/06 Q1008=
202012061550 METAR ESMX 061550Z AUTO 11006KT 050V150 7000 BR OVC007/// 07/06 Q1008=
202012061520 METAR ESMX 061520Z AUTO 10006KT 060V150 6000 BR OVC006/// 07/07 Q1008=
202012061450 METAR ESMX 061450Z AUTO 11007KT 060V160 6000 BR OVC006/// 07/07 Q1008=
202012061420 METAR ESMX 061420Z AUTO 11005KT 060V150 6000 BR OVC007/// 07/07 Q1008=
202012061350 METAR ESMX 061350Z AUTO 10005KT 060V130 6000 BR OVC007/// 07/06 Q1008=
202012061320 METAR ESMX 061320Z AUTO 11005KT 060V140 5000 BR OVC006/// 07/07 Q1008=
202012061250 METAR ESMX 061250Z AUTO 11004KT 060V130 6000 BR OVC005/// 07/06 Q1008=
202012061220 METAR ESMX 061220Z AUTO 11006KT 050V140 5000 BR OVC004/// 07/07 Q1008=
202012061150 METAR ESMX 061150Z AUTO 12006KT 060V160 4700 BR OVC004/// 07/07 Q1008=
202012061120 METAR ESMX 061120Z AUTO 11006KT 030V140 5000 BR OVC005/// 07/07 Q1008=
202012061050 METAR ESMX 061050Z AUTO 12006KT 070V170 5000 BR OVC005/// 07/07 Q1008=
202012061020 METAR ESMX 061020Z AUTO 10005KT 070V150 4200 BR OVC004/// 07/07 Q1008=
202012060950 METAR ESMX 060950Z AUTO 12005KT 060V170 4000 BR OVC004/// 06/06 Q1009=
202012060920 METAR ESMX 060920Z AUTO 13005KT 090V160 3200 BR OVC003/// 06/06 Q1008=
202012060850 METAR ESMX 060850Z AUTO 11005KT 040V170 2700 OVC003/// 06/06 Q1008=
202012060820 METAR ESMX 060820Z AUTO 09003KT 030V140 2100 OVC002/// 05/05 Q1009=
202012060750 METAR ESMX 060750Z AUTO 36003KT 0900 R01/1700N R19/P2000N FG OVC001/// 04/04 Q1008=
202012060720 METAR ESMX 060720Z AUTO 03003KT 360V070 0650 R01/1500D R19/1900N FG OVC001/// 04/04 Q1008=
202012060650 METAR ESMX 060650Z AUTO 06002KT 0300 R01/0900U R19/1000N FG BKN001/// OVC002/// 03/03 Q1008=
202012060620 METAR ESMX 060620Z AUTO 04003KT 0150 R01/0600D R19/0500N FG VV002 03/03 Q1008=
202012060550 METAR ESMX 060550Z AUTO 02004KT 1200 R01/P2000N R19/P2000N SCT002/// BKN005/// 02/02 Q1008=
202012060520 METAR ESMX 060520Z AUTO 04003KT 0700 R01/1900N R19/P2000N FG NCD 01/01 Q1008=
202012060450 METAR ESMX 060450Z AUTO 05002KT 0100 R01/0400N R19/0450N FG FEW001/// SCT012/// 02/02 Q1008=
202012060420 METAR ESMX 060420Z AUTO 05003KT 0100 R01/0400N R19/0600N FG VV001 02/02 Q1008=
202012060350 METAR ESMX 060350Z AUTO 17002KT 0100 R01/0300N R19/0325N FG VV002 03/03 Q1008=
202012060320 METAR ESMX 060320Z AUTO 17001KT 0100 R01/0450D R19/0450N FG OVC001/// 03/03 Q1008=
202012060250 METAR ESMX 060250Z AUTO 17002KT 0250 R01/0700N R19/1600N FG OVC001/// 03/03 Q1008=
202012060220 METAR ESMX 060220Z AUTO 17002KT 1700 BCFG BKN002/// BKN010/// 03/03 Q1009=
202012060150 METAR ESMX 060150Z AUTO VRB03KT 2400 BCFG FEW003/// BKN011/// 03/03 Q1008=
202012060120 METAR ESMX 060120Z AUTO VRB02KT 2500 SCT003/// BKN013/// BKN100/// 03/03 Q1008=
202012060050 METAR ESMX 060050Z AUTO VRB02KT 3600 BR FEW013/// SCT120/// BKN150/// 04/04 Q1008=
202012060020 METAR ESMX 060020Z AUTO 17003KT 7000 BR OVC011/// 04/04 Q1008=
202012052350 METAR ESMX 052350Z AUTO 17003KT 9000 BR OVC011/// 04/04 Q1008=
202012052320 METAR ESMX 052320Z AUTO 17002KT 9000 BR OVC011/// 04/04 Q1007=
202012052250 METAR ESMX 052250Z AUTO 15003KT 120V190 9999 OVC011/// 05/04 Q1007=
202012052220 METAR ESMX 052220Z AUTO 16005KT 9999 OVC011/// 05/04 Q1007=
202012052150 METAR ESMX 052150Z AUTO 18006KT 9999 OVC011/// 05/04 Q1007=
202012052120 METAR ESMX 052120Z AUTO 18004KT 9000 BR OVC012/// 05/05 Q1006=
202012052050 METAR ESMX 052050Z AUTO 18005KT 9999 OVC011/// 05/05 Q1006=
202012052020 METAR ESMX 052020Z AUTO 17006KT 9999 OVC010/// 06/05 Q1005=
202012051950 METAR ESMX 051950Z AUTO 17006KT 9000 BR FEW011/// BKN019/// 06/05 Q1005=
202012051920 METAR ESMX 051920Z AUTO 17005KT 8000 BR SCT006/// BKN008/// BKN009/// 06/06 Q1005=
202012051850 METAR ESMX 051850Z AUTO 14006KT 100V170 9000 BR OVC006/// 06/06 Q1004=
202012051820 METAR ESMX 051820Z AUTO 13005KT 100V160 9999 BKN007/// OVC009/// 06/06 Q1004=
202012051750 METAR ESMX 051750Z AUTO 11004KT 060V160 9999 OVC010/// 06/06 Q1003=
202012051720 METAR ESMX 051720Z AUTO 15004KT 9999 OVC009/// 06/06 Q1003=
202012051650 METAR ESMX 051650Z AUTO 12004KT 9999 OVC009/// 06/06 Q1003=
202012051620 METAR ESMX 051620Z AUTO 13007KT 070V170 9999 BKN009/// BKN011/// OVC016/// 06/06 Q1003=
202012051550 METAR ESMX 051550Z AUTO 11004KT 070V140 9999 OVC017/// 06/05 Q1002=
202012051520 METAR ESMX 051520Z AUTO 11005KT 060V150 9999 FEW009/// OVC018/// 06/05 Q1003=
202012051450 METAR ESMX 051450Z AUTO 13005KT 070V150 9999 SCT008/// OVC020/// 06/05 Q1002=
202012051420 METAR ESMX 051420Z AUTO 09005KT 050V130 9000 BR SCT008/// OVC023/// 06/05 Q1002=
202012051350 METAR ESMX 051350Z AUTO 08005KT 050V110 8000 BR BKN008/// BKN010/// OVC023/// 06/05 Q1002=
202012051320 METAR ESMX 051320Z AUTO 10005KT 040V120 8000 BR BKN008/// OVC021/// 05/05 Q1002=
202012051250 METAR ESMX 051250Z AUTO 06005KT 030V100 8000 BR BKN008/// OVC023/// 05/05 Q1002=
202012051220 METAR ESMX 051220Z AUTO 07004KT 040V110 8000 BR OVC008/// 05/05 Q1003=
202012051150 METAR ESMX 051150Z AUTO 07004KT 8000 BR OVC009/// 05/05 Q1003=
202012051120 METAR ESMX 051120Z AUTO 04006KT 010V080 7000 BR BKN008/// OVC011/// 05/04 Q1002=
202012051050 METAR ESMX 051050Z AUTO 04004KT 300V100 7000 BR BKN009/// OVC010/// 05/04 Q1003=
202012051020 METAR ESMX 051020Z AUTO 05004KT 7000 BR BKN009/// OVC018/// 05/04 Q1003=
202012050950 METAR ESMX 050950Z AUTO 10004KT 7000 BR BKN007/// OVC009/// 05/04 Q1003=
202012050920 METAR ESMX 050920Z AUTO 11004KT 060V150 6000 BR OVC006/// 05/04 Q1004=
202012050850 METAR ESMX 050850Z AUTO 05006KT 020V080 4800 BR BKN004/// BKN022/// 04/04 Q1001=
202012050820 METAR ESMX 050820Z AUTO 04007KT 4200 BR OVC005/// 04/04 Q1001=
202012050750 METAR ESMX 050750Z AUTO 04006KT 4200 BR FEW007/// SCT009/// OVC022/// 04/04 Q1002=
202012050720 METAR ESMX 050720Z AUTO 04005KT 3900 BR SCT004/// OVC023/// 04/04 Q1002=
202012050650 METAR ESMX 050650Z AUTO 06004KT 020V080 3300 BR SCT002/// BKN005/// OVC019/// 03/03 Q1002=
202012050620 METAR ESMX 050620Z AUTO 07004KT 1900 BR OVC002/// 03/03 Q1002=
202012050550 METAR ESMX 050550Z AUTO 07005KT 030V100 2600 BR SCT003/// 03/03 Q1002=
202012050520 METAR ESMX 050520Z AUTO 06005KT 4500 BR SCT015/// BKN022/// 03/03 Q1002=
202012050450 METAR ESMX 050450Z AUTO 06003KT 6000 BR OVC025/// 04/03 Q1002=
202012050420 METAR ESMX 050420Z AUTO VRB03KT 6000 BR OVC022/// 04/04 Q1002=
202012050350 METAR ESMX 050350Z AUTO 08003KT 050V150 6000 BR OVC019/// 04/04 Q1001=
202012050320 METAR ESMX 050320Z AUTO 14002KT 6000 BR BKN019/// BKN024/// 04/03 Q1001=
202012050250 METAR ESMX 050250Z AUTO 09003KT 7000 BR SCT026/// 03/03 Q1001=
202012050220 METAR ESMX 050220Z AUTO VRB03KT 7000 BR OVC024/// 04/04 Q1001=
202012050150 METAR ESMX 050150Z AUTO 13003KT 8000 BR OVC022/// 04/04 Q1001=
202012050120 METAR ESMX 050120Z AUTO 13003KT 8000 BR OVC021/// 04/04 Q1002=
202012050050 METAR ESMX 050050Z AUTO 13003KT 7000 BR OVC021/// 04/04 Q1001=
202012050020 METAR ESMX 050020Z AUTO 12003KT 6000 BR SCT006/// OVC022/// 04/04 Q1001=
202012042350 METAR ESMX 042350Z AUTO 11003KT 6000 BR OVC006/// 04/03 Q1001=
202012042320 METAR ESMX 042320Z AUTO 11003KT 7000 BR BKN006/// OVC020/// 04/03 Q1000=
202012042250 METAR ESMX 042250Z AUTO 10004KT 060V150 8000 BR OVC021/// 04/03 Q1000=
202012042220 METAR ESMX 042220Z AUTO 11003KT 7000 BR OVC022/// 04/03 Q1000=
202012042150 METAR ESMX 042150Z AUTO 10003KT 070V160 7000 BR OVC021/// 04/03 Q1000=
202012042120 METAR ESMX 042120Z AUTO 13005KT 7000 BR OVC023/// 04/03 Q1000=
202012042050 METAR ESMX 042050Z AUTO 14005KT 100V190 8000 BR FEW007/// OVC022/// 04/03 Q1000=
202012042020 METAR ESMX 042020Z AUTO 13004KT 070V150 8000 BR OVC022/// 04/03 Q1000=
202012041950 METAR ESMX 041950Z AUTO 10004KT 050V200 7000 BR FEW009/// OVC023/// 03/03 Q0999=
202012041920 METAR ESMX 041920Z AUTO VRB04KT 6000 BR SCT007/// OVC024/// 03/03 Q0999=
202012041850 METAR ESMX 041850Z AUTO 11004KT 060V150 6000 BR FEW008/// OVC024/// 03/03 Q0999=
202012041820 METAR ESMX 041820Z AUTO 11003KT 6000 BR OVC024/// 03/03 Q0999=
202012041750 METAR ESMX 041750Z AUTO 12003KT 080V190 5000 BR BKN006/// OVC021/// 03/03 Q0999=
202012041720 METAR ESMX 041720Z AUTO 12004KT 080V140 4800 BR OVC005/// 03/03 Q0998=
202012041650 METAR ESMX 041650Z AUTO 12003KT 4000 BR OVC004/// 03/03 Q0998 REUP RESHUP=
202012041620 METAR ESMX 041620Z AUTO 10004KT 040V150 3300 BR OVC003/// 03/03 Q0998 RESHUP REDZ=
202012041550 METAR ESMX 041550Z AUTO 11004KT 4800 BR OVC003/// 03/03 Q0998 REUP=
202012041520 METAR ESMX 041520Z AUTO 11004KT 070V180 4500 BR OVC003/// 03/03 Q0998 REDZ=
202012041450 METAR ESMX 041450Z AUTO 12004KT 5000 BR OVC004/// 03/03 Q0998 REDZ=
202012041420 METAR ESMX 041420Z AUTO 07003KT 2800 BR OVC002/// 02/02 Q0998=
202012041350 METAR ESMX 041350Z 07003KT 1500 DZ OVC002 02/02 Q0998=
202012041320 METAR ESMX 041320Z 08003KT 1100 DZ OVC002 02/02 Q0998=
202012041250 METAR COR ESMX 041250Z 07004KT 050V110 1700 DZ OVC002 02/02 Q0998=
202012041220 METAR COR ESMX 041220Z 08004KT 040V110 1300 R01/1700N R19/1700N DZ OVC002 02/02 Q0998=
202012041150 METAR ESMX 041150Z 10003KT 1500 BR OVC002 02/02 Q0998=
202012041120 METAR ESMX 041120Z 10003KT 050V150 2000 BR OVC002 02/02 Q0998=
202012041050 METAR ESMX 041050Z 12004KT 4500 BR OVC007 02/02 Q0998=
202012041020 METAR ESMX 041020Z 11005KT 060V140 5000 BR SCT007 OVC013 02/01 Q0998=
202012040950 METAR ESMX 040950Z 11006KT 050V150 7000 BR BKN015 OVC021 02/01 Q0999=
202012040920 METAR ESMX 040920Z 11005KT 050V140 7000 BR OVC019 02/01 Q0999=
202012040850 METAR ESMX 040850Z 10005KT 050V140 7000 BR OVC022 02/01 Q0999=
202012040820 METAR ESMX 040820Z 10005KT 050V130 7000 BR OVC022 01/01 Q0999=
202012040750 METAR ESMX 040750Z 11006KT 050V140 7000 BR OVC021 01/01 Q0999=
202012040720 METAR COR ESMX 040720Z 11005KT 060V140 6000 BR OVC021 01/01 Q0999=
202012040650 METAR ESMX 040650Z AUTO 11006KT 030V170 8000 BR OVC021/// 01/01 Q0999=
202012040620 METAR ESMX 040620Z AUTO 11006KT 060V160 8000 BR FEW009/// OVC021/// 01/01 Q0999=
202012040550 METAR ESMX 040550Z AUTO 12005KT 080V150 7000 BR SCT009/// OVC020/// 01/01 Q0999=
202012040520 METAR ESMX 040520Z AUTO 12005KT 6000 BR BKN008/// OVC023/// 01/01 Q0999=
202012040450 METAR ESMX 040450Z AUTO 12004KT 7000 BR FEW009/// OVC023/// 01/01 Q0999=
202012040420 METAR ESMX 040420Z AUTO 12005KT 080V170 6000 BR FEW007/// SCT009/// OVC023/// 01/01 Q0999=
202012040350 METAR ESMX 040350Z AUTO 12005KT 080V170 6000 BR SCT007/// OVC023/// 01/01 Q0999=
202012040320 METAR ESMX 040320Z AUTO 14006KT 100V160 6000 BR BKN008/// OVC018/// 01/01 Q0999=
202012040250 METAR ESMX 040250Z AUTO 13005KT 090V190 6000 BR SCT009/// OVC021/// 01/01 Q0999 REDZ=
202012040220 METAR ESMX 040220Z AUTO 14005KT 5000 BR SCT008/// BKN009/// OVC014/// 01/01 Q0999=
202012040150 METAR ESMX 040150Z AUTO 15005KT 5000 BR BKN006/// OVC014/// 01/01 Q0999 REDZ=
202012040120 METAR ESMX 040120Z AUTO 14006KT 100V170 5000 BR OVC005/// 01/01 Q0999=
202012040050 METAR ESMX 040050Z AUTO 14006KT 4800 -DZ OVC004/// 01/01 Q0999=
202012040020 METAR ESMX 040020Z AUTO 15006KT 2900 DZ OVC002/// 01/01 Q0999=
202012032350 METAR ESMX 032350Z AUTO 14005KT 4200 -DZ OVC003/// 01/01 Q1000 REUP=
202012032320 METAR ESMX 032320Z AUTO 13005KT 100V160 8000 UP OVC004/// 01/01 Q0999=
202012032250 METAR ESMX 032250Z AUTO 13005KT 050V170 4500 -PL FEW002/// OVC004/// 01/01 Q1000=
202012032220 METAR ESMX 032220Z AUTO 14006KT 110V170 6000 SG SCT002/// OVC004/// 01/01 Q1000=
202012032150 METAR ESMX 032150Z AUTO 14005KT 4500 -SN BKN002/// OVC004/// 01/01 Q1000=
202012032120 METAR ESMX 032120Z AUTO 14006KT 2100 -SN OVC002/// 01/01 Q1000=
202012032050 METAR ESMX 032050Z AUTO 13006KT 090V160 4700 -RASN FEW002/// OVC005/// 01/01 Q1000=
202012032020 METAR ESMX 032020Z AUTO 14005KT 100V160 5000 -RASN SCT002/// OVC005/// 00/00 Q1000=
202012031950 METAR ESMX 031950Z AUTO 13006KT 090V170 3100 -SN BKN002/// OVC005/// 00/00 Q1001 RESG=
202012031920 METAR ESMX 031920Z AUTO 12005KT 070V150 9000 -DZ FEW002/// OVC005/// 00/00 Q1001=
202012031850 METAR ESMX 031850Z AUTO 13005KT 080V160 1900 -SN BKN001/// OVC004/// 00/00 Q1001=
202012031820 METAR ESMX 031820Z AUTO 12005KT 080V200 2100 -SN OVC001/// 00/00 Q1001=
202012031750 METAR ESMX 031750Z AUTO 13006KT 070V150 1400 R01/P2000N R19/P2000N -SN OVC002/// 00/00 Q1002=
202012031720 METAR ESMX 031720Z AUTO 12006KT 080V160 1800 -SN OVC001/// 00/00 Q1002=
202012031650 METAR ESMX 031650Z AUTO 13007KT 080V160 2700 -SN SCT002/// BKN006/// OVC008/// 00/00 Q1002=
202012031620 METAR ESMX 031620Z AUTO 11005KT 060V150 1900 -SN OVC001/// 00/00 Q1003=
202012031550 METAR ESMX 031550Z AUTO 12005KT 080V150 2500 -SN SCT002/// BKN011/// OVC015/// 00/M00 Q1003 REUP=
202012031520 METAR ESMX 031520Z AUTO 13007KT 080V160 9999 UP OVC012/// 01/M01 Q1004=
202012031450 METAR ESMX 031450Z AUTO 13007KT 100V160 9999 OVC014/// 01/M01 Q1004=
202012031420 METAR COR ESMX 031420Z 12007KT 070V160 9000 BR OVC015 01/M02 Q1004=
202012031350 METAR ESMX 031350Z 12007KT 070V150 9000 BR BKN017 01/M02 Q1005=
202012031320 METAR ESMX 031320Z AUTO 13007KT 060V170 9999 BKN017/// OVC026/// 01/M02 Q1005=
202012031250 METAR COR ESMX 031250Z 12007KT 070V170 9000 BR BKN026 01/M02 Q1005=
202012031220 METAR COR ESMX 031220Z 13007KT 080V150 9000 BR SCT020 BKN026 01/M02 Q1006=
202012031150 METAR ESMX 031150Z 13008KT 100V170 8000 BR FEW015 BKN021 01/M02 Q1006=
202012031120 METAR ESMX 031120Z 14009KT 110V170 8000 BR BKN014 01/M01 Q1007=
202012031050 METAR ESMX 031050Z 14007KT 100V190 8000 BR OVC011 01/M00 Q1007=
202012031020 METAR ESMX 031020Z 15010G21KT 8000 BR OVC011 02/M00 Q1007=
202012030950 METAR ESMX 030950Z 14010KT 100V170 8000 BR OVC011 02/M00 Q1008=
202012030920 METAR ESMX 030920Z 13007KT 090V170 7000 BR OVC012 01/M01 Q1008=
202012030850 METAR ESMX 030850Z 13006KT 080V170 7000 BR OVC014 01/M01 Q1008=
202012030820 METAR ESMX 030820Z 14006KT 080V170 7000 BR SCT012 OVC017 01/M01 Q1008=
202012030750 METAR ESMX 030750Z 13007KT 080V200 8000 BR OVC011 01/M01 Q1009=
202012030720 METAR ESMX 030720Z 14006KT 7000 BR OVC012 01/M01 Q1009=
202012030650 METAR COR ESMX 030650Z 14006KT 090V160 7000 BR OVC012 01/M01 Q1008=
202012030620 METAR ESMX 030620Z AUTO 13006KT 050V150 8000 BR OVC013/// 00/M02 Q1008=
202012030550 METAR ESMX 030550Z AUTO 13006KT 090V160 9000 BR OVC014/// 00/M02 Q1009=
202012030520 METAR ESMX 030520Z AUTO 13006KT 100V160 9000 BR OVC015/// 00/M02 Q1009=
202012030450 METAR ESMX 030450Z AUTO 13005KT 100V180 9999 OVC015/// 00/M02 Q1009=
202012030420 METAR ESMX 030420Z AUTO 12005KT 070V170 9999 OVC015/// 00/M02 Q1010=
202012030350 METAR ESMX 030350Z AUTO 13006KT 070V170 9999 OVC016/// 00/M02 Q1010=
202012030320 METAR ESMX 030320Z AUTO 12005KT 080V150 9999 OVC018/// M00/M02 Q1010=
202012030250 METAR ESMX 030250Z AUTO 13006KT 090V160 9999 OVC019/// 00/M02 Q1011=
202012030220 METAR ESMX 030220Z AUTO 12007KT 070V160 9999 OVC019/// 00/M02 Q1011=
202012030150 METAR ESMX 030150Z AUTO 12006KT 080V180 9999 OVC016/// 00/M02 Q1012=
202012030120 METAR ESMX 030120Z AUTO 13007KT 080V160 9999 OVC016/// 00/M02 Q1012=
202012030050 METAR ESMX 030050Z AUTO 13007KT 100V160 9999 OVC014/// 00/M02 Q1012=
202012030020 METAR ESMX 030020Z AUTO 14007KT 100V180 9999 OVC013/// 00/M02 Q1013=
202012022350 METAR ESMX 022350Z AUTO 13006KT 080V160 9999 OVC013/// 01/M02 Q1013=
202012022320 METAR ESMX 022320Z AUTO 14006KT 9999 OVC014/// 01/M01 Q1013=
202012022250 METAR ESMX 022250Z AUTO 14008KT 100V170 9999 OVC015/// 01/M01 Q1014=
202012022220 METAR ESMX 022220Z AUTO 14007KT 100V170 9999 OVC016/// 01/M01 Q1014=
202012022150 METAR ESMX 022150Z AUTO 14007KT 100V170 9999 OVC016/// 01/M01 Q1014=
202012022120 METAR ESMX 022120Z 13007KT 080V170 9999 OVC017 01/M01 Q1014=
202012022050 METAR COR ESMX 022050Z 13006KT 090V160 9999 OVC018 01/M01 Q1015=
202012022020 METAR ESMX 022020Z 13006KT 080V170 9999 OVC018 01/M01 Q1015=
202012021950 METAR ESMX 021950Z 13006KT 100V160 9999 OVC020 01/M01 Q1016=
202012021920 METAR ESMX 021920Z 12006KT 070V160 9999 OVC020 01/M01 Q1016=
202012021850 METAR ESMX 021850Z 12005KT 080V160 9999 OVC022 01/M00 Q1016=
202012021820 METAR COR ESMX 021820Z 12006KT 080V160 9999 OVC024 01/M00 Q1016=
202012021750 METAR ESMX 021750Z 13005KT 9999 OVC027 01/M00 Q1017=
202012021720 METAR ESMX 021720Z 13006KT 090V180 9999 OVC026 02/M00 Q1017=
202012021650 METAR ESMX 021650Z 14005KT 080V170 9999 OVC026 02/M00 Q1017=
202012021620 METAR ESMX 021620Z 13004KT 090V160 9999 OVC025 02/00 Q1018=
202012021550 METAR ESMX 021550Z 13003KT 9999 OVC027 02/00 Q1018=
202012021520 METAR COR ESMX 021520Z 14004KT 080V150 9999 OVC024 02/01 Q1018=
202012021450 METAR ESMX 021450Z 13004KT 080V160 9999 OVC025 02/01 Q1019=
202012021420 METAR ESMX 021420Z 12003KT 060V190 7000 BR OVC024 02/01 Q1019=
202012021350 METAR COR ESMX 021350Z 09003KT 030V160 7000 BR OVC022 02/01 Q1019=
202012021320 METAR ESMX 021320Z 11002KT 7000 BR BKN029 02/01 Q1020=
202012021250 METAR ESMX 021250Z 09003KT 7000 BR OVC038 02/02 Q1020=
202012021220 METAR ESMX 021220Z VRB02KT 7000 BR SCT024 BKN031 02/02 Q1020=
202012021150 METAR ESMX 021150Z VRB03KT 5000 BR SCT034 02/02 Q1021=
202012021120 METAR ESMX 021120Z VRB02KT 5000 BR BKN030 01/01 Q1021=
202012021050 METAR ESMX 021050Z VRB02KT 6000 BR FEW006 OVC029 01/01 Q1022=
202012021020 METAR ESMX 021020Z VRB01KT 6000 BR FEW009 OVC021 01/01 Q1022=
202012020950 METAR ESMX 020950Z VRB02KT 7000 BR OVC032 01/01 Q1023=
202012020920 METAR ESMX 020920Z 00000KT 7000 BR OVC037 00/00 Q1023=
202012020850 METAR COR ESMX 020850Z 03001KT 5000 BR FEW023 BKN037 00/00 Q1023=
202012020820 METAR ESMX 020820Z 03001KT 7000 BR SCT023 BKN038 00/00 Q1023=
202012020750 METAR ESMX 020750Z 03001KT 8000 BR FEW022 OVC036 M00/M00 Q1023=
202012020720 METAR COR ESMX 020720Z VRB02KT 8000 BR FEW031 BKN037 M00/M00 Q1023=
202012020650 METAR ESMX 020650Z AUTO 03003KT 8000 BR BKN025/// OVC034/// M00/M00 Q1024=
202012020620 METAR ESMX 020620Z AUTO 03003KT 7000 BR BKN023/// OVC033/// M00/M00 Q1024=
202012020550 METAR ESMX 020550Z AUTO 01003KT 9000 BR BKN022/// OVC034/// M01/M01 Q1024=
202012020520 METAR ESMX 020520Z AUTO 02003KT 9000 BR OVC035/// M01/M01 Q1024=
202012020450 METAR ESMX 020450Z AUTO 01002KT 9000 BR FEW022/// OVC033/// M02/M02 Q1024=
202012020420 METAR ESMX 020420Z AUTO 36002KT 8000 BR SCT020/// OVC032/// M02/M02 Q1024=
202012020350 METAR ESMX 020350Z AUTO 03001KT 7000 BKN020/// OVC032/// M03/M03 Q1024=
202012020320 METAR ESMX 020320Z AUTO 00000KT 5000 BCFG OVC033/// M04/M04 Q1025=
202012020250 METAR ESMX 020250Z AUTO 03002KT 0300 R01/P2000D R19/P2000N BCFG BKN034/// M04/M04 Q1025=
202012020220 METAR ESMX 020220Z AUTO 00000KT 8000 BCFG NCD M06/M06 Q1025=
202012020150 METAR ESMX 020150Z AUTO VRB01KT 0200 R01/0650N R19/P2000N FZFG NCD M05/M05 Q1025=
202012020120 METAR ESMX 020120Z AUTO 03003KT 0150 R01/0500N R19/P2000N FZFG NCD M05/M05 Q1025=
202012020050 METAR ESMX 020050Z AUTO 03002KT 0200 R01/0700U R19/P2000N FZFG NCD M06/M06 Q1025=
202012020020 METAR ESMX 020020Z AUTO 03001KT 0250 R01/0600D R19/P2000N FZFG NCD M05/M05 Q1025=
202012012350 METAR ESMX 012350Z AUTO 00000KT 0250 R01/P2000D R19/P2000N BCFG NCD M05/M05 Q1025=
202012012320 METAR ESMX 012320Z AUTO VRB02KT 0150 R01/0450N R19/0700N FZFG NCD M05/M05 Q1025=
202012012250 METAR ESMX 012250Z AUTO 00000KT 1300 R01/P2000N R19/P2000N BCFG NCD M04/M04 Q1025=
202012012220 METAR ESMX 012220Z AUTO 04002KT 0100 R01/0375N R19/0750N FZFG NCD M04/M04 Q1025=
202012012150 METAR ESMX 012150Z AUTO VRB02KT 0150 R01/0450N R19/P2000N FZFG NCD M04/M04 Q1025=
202012012120 METAR ESMX 012120Z AUTO 03002KT 0350 R01/0800N R19/P2000N FZFG NCD M03/M03 Q1025=
202012012050 METAR ESMX 012050Z AUTO 03003KT 4700 NCD M03/M03 Q1025=
202012012020 METAR ESMX 012020Z AUTO 36002KT 5000 FZFG NCD M04/M04 Q1025=
202012011950 METAR ESMX 011950Z AUTO VRB01KT 6000 NCD M03/M03 Q1024=
202012011920 METAR ESMX 011920Z AUTO VRB02KT 4400 BCFG NCD M02/M02 Q1024=
202012011850 METAR ESMX 011850Z AUTO VRB02KT 3000 NCD M03/M03 Q1024=
202012011820 METAR ESMX 011820Z AUTO VRB02KT 7000 NCD M03/M03 Q1023=
202012011750 METAR ESMX 011750Z AUTO VRB02KT 4600 BR NCD M01/M01 Q1023=
202012011720 METAR ESMX 011720Z AUTO 07003KT 9999 NCD 00/00 Q1023=
202012011650 METAR ESMX 011650Z AUTO 06003KT 4300 NCD 00/00 Q1023=
202012011620 METAR ESMX 011620Z AUTO 06003KT 6000 NCD 00/00 Q1022=
202012011550 METAR ESMX 011550Z AUTO 06003KT 9999 NCD 00/00 Q1022=
202012011520 METAR ESMX 011520Z AUTO VRB03KT 7000 BR NCD M00/M00 Q1022=
202012011450 METAR ESMX 011450Z AUTO 04003KT 8000 BR NCD 00/00 Q1021=
202012011420 METAR ESMX 011420Z 03003KT 9999 SCT025 01/01 Q1021=
202012011350 METAR ESMX 011350Z 05003KT 9999 SCT025 02/01 Q1020=
202012011320 METAR ESMX 011320Z 04003KT 9999 SCT025 02/01 Q1020=
202012011250 METAR ESMX 011250Z VRB02KT 9999 BKN025 03/01 Q1020=
202012011220 METAR ESMX 011220Z 06003KT 9999 BKN025 03/01 Q1019=
