##########################################################
# Query made at 04/19/2024 22:12:43 UTC
# Time interval: from 02/01/2020 12:00  to 02/29/2020 12:59  UTC
##########################################################

##########################################################
# ESMX, Vaxjo (Sweden)
# WMO index: 02641. WIGOS ID: 0-20000-0-02648
# Latitude 56-51N. Longitude 014-50E. Altitude 199 m.
##########################################################

202002291250 METAR ESMX 291250Z AUTO 12006KT 060V200 9999 OVC006/// 02/01 Q0993=
202002291220 METAR ESMX 291220Z AUTO 11005KT 070V150 9999 OVC006/// 02/01 Q0993 RESHUP=
202002291150 METAR ESMX 291150Z AUTO 11004KT 060V160 9999 OVC007/// 02/01 Q0994 REUP=
202002291120 METAR ESMX 291120Z AUTO 12005KT 020V160 9999 OVC008/// 02/01 Q0994=
202002291050 METAR ESMX 291050Z AUTO 10006KT 060V160 9999 OVC008/// 02/01 Q0995=
202002291020 METAR ESMX 291020Z AUTO 11006KT 060V160 9999 OVC007/// 02/01 Q0995=
202002290950 METAR ESMX 290950Z AUTO 12006KT 080V170 9999 OVC006/// 02/02 Q0996=
202002290920 METAR ESMX 290920Z 13008KT 080V150 9000 BR OVC004 02/02 Q0996=
202002290850 METAR ESMX 290850Z 13008KT 080V160 6000 BR OVC002 01/01 Q0996=
202002290820 METAR COR ESMX 290820Z 13006KT 100V170 3500 BR BKN002 01/01 Q0997=
202002290750 METAR ESMX 290750Z AUTO 13004KT 080V170 1500 OVC001/// 01/01 Q0997=
202002290720 METAR ESMX 290720Z AUTO 13005KT 070V160 1900 OVC001/// 01/01 Q0998=
202002290650 METAR ESMX 290650Z AUTO 13006KT 100V160 1000 R01/1200U R19/1700U FG OVC001/// 01/01 Q0998=
202002290620 METAR ESMX 290620Z AUTO 13006KT 0700 R01/1200D R19/1500D FG OVC001/// 01/01 Q0999=
202002290550 METAR ESMX 290550Z AUTO 13006KT 1800 OVC001/// 01/01 Q0999=
202002290520 METAR ESMX 290520Z AUTO 14006KT 2800 OVC001/// M00/M00 Q0999=
202002290450 METAR ESMX 290450Z AUTO 15005KT 0600 R01/1600U R19/1600N FG OVC001/// 00/00 Q1000=
202002290420 METAR ESMX 290420Z AUTO 15005KT 1000 R01/P2000N R19/P2000N BR OVC001/// M00/M00 Q1001=
202002290350 METAR ESMX 290350Z AUTO 14005KT 6000 BR BKN002/// OVC072/// M00/M00 Q1001=
202002290320 METAR ESMX 290320Z AUTO 17004KT 9000 VV002 M00/M00 Q1001=
202002290250 METAR ESMX 290250Z AUTO 15004KT 9000 BR BKN003/// BKN028/// M00/M00 Q1001=
202002290220 METAR ESMX 290220Z AUTO 18005KT 9999 BKN003/// BKN028/// OVC034/// 00/00 Q1002=
202002290150 METAR ESMX 290150Z AUTO 18004KT 9999 BKN003/// OVC009/// M00/M00 Q1002=
202002290120 METAR ESMX 290120Z AUTO 17005KT 9999 FEW003/// OVC008/// 00/00 Q1003=
202002290050 METAR ESMX 290050Z AUTO 16004KT 9999 BKN003/// OVC007/// M00/M00 Q1003=
202002290020 METAR ESMX 290020Z AUTO 16005KT 9999 OVC003/// M01/M01 Q1003=
202002282350 METAR ESMX 282350Z AUTO 17006KT 9999 BKN003/// OVC006/// M00/M00 Q1003=
202002282320 METAR ESMX 282320Z AUTO 18006KT 9999 BKN003/// OVC039/// M01/M01 Q1004=
202002282250 METAR ESMX 282250Z AUTO 18005KT 9999 OVC002/// M01/M01 Q1004=
202002282220 METAR ESMX 282220Z AUTO 18007KT 9999 BKN001/// OVC003/// M01/M01 Q1004=
202002282150 METAR ESMX 282150Z AUTO 15005KT 9999 OVC006/// M01/M01 Q1004=
202002282120 METAR ESMX 282120Z AUTO 18006KT 9999 BKN009/// OVC019/// M01/M01 Q1005=
202002282050 METAR ESMX 282050Z AUTO 17006KT 9999 BKN021/// M02/M02 Q1005=
202002282020 METAR ESMX 282020Z AUTO 15003KT 0700 R01/P2000N R19/P2000N SCT007/// M03/M03 Q1004=
202002281950 METAR ESMX 281950Z AUTO 17003KT 9999 SCT008/// BKN033/// M02/M02 Q1005=
202002281920 METAR ESMX 281920Z AUTO 19003KT 9999 FEW009/// BKN032/// M03/M03 Q1005=
202002281850 METAR ESMX 281850Z 24004KT 9999 BKN007 M01/M02 Q1005=
202002281820 METAR COR ESMX 281820Z 26006KT 9999 BKN007 M00/M01 Q1005=
202002281750 METAR ESMX 281750Z 25006KT 210V280 9999 BKN008 00/M00 Q1005=
202002281720 METAR ESMX 281720Z 00000KT 9999 BKN008 M00/M01 Q1005=
202002281650 METAR ESMX 281650Z 28004KT 250V310 9999 BKN007 M00/M01 Q1005=
202002281620 METAR ESMX 281620Z 27004KT 240V300 9999 BKN007 M00/M01 Q1004=
202002281550 METAR ESMX 281550Z 30004KT 270V330 9999 BKN008 M00/M01 Q1004=
202002281520 METAR ESMX 281520Z 30005KT 9999 BKN007 M00/M01 Q1004=
202002281450 METAR ESMX 281450Z 27005KT 240V310 9999 BKN007 M00/M01 Q1004=
202002281420 METAR ESMX 281420Z 29004KT 9999 BKN007 M00/M01 Q1004=
202002281350 METAR ESMX 281350Z 25003KT 160V300 9999 BKN006 M00/M01 Q1003=
202002281320 METAR ESMX 281320Z 00000KT 9999 BKN006 00/M01 Q1003=
202002281250 METAR ESMX 281250Z 05002KT 9999 FEW004 BKN010 M00/M01 Q1003=
202002281220 METAR ESMX 281220Z 00000KT 2000 SN FEW002 SCT010 BKN015 M00/M01 Q1003=
202002281150 METAR ESMX 281150Z 00000KT 3700 -SN FG VV005 M01/M01 Q1003=
202002281120 METAR ESMX 281120Z VRB01KT 1800 SN FG VV002 M01/M02 Q1002=
202002281050 METAR ESMX 281050Z VRB01KT 1700 SN FG VV002 M02/M02 Q1002=
202002281020 METAR ESMX 281020Z VRB02KT 3200 SN VV004 M02/M02 Q1002=
202002280950 METAR ESMX 280950Z 11003KT 040V150 0800 R01/0900D R19/1100N SN VV002 M02/M02 Q1002=
202002280920 METAR ESMX 280920Z VRB03KT 3300 -SN BKN002 M03/M03 Q1002=
202002280850 METAR ESMX 280850Z VRB02KT 1600 R01/P2000N R19/1400U -SN VV002 M03/M03 Q1002=
202002280820 METAR ESMX 280820Z 00000KT 2900 -SN VV024 M03/M03 Q1002=
202002280750 METAR ESMX 280750Z 00000KT 9999 SCT038 M04/M04 Q1002=
202002280720 METAR ESMX 280720Z VRB03KT 9999 SCT029 M04/M05 Q1002=
202002280650 METAR ESMX 280650Z 00000KT 9999 BKN029 M05/M06 Q1001=
202002280620 METAR ESMX 280620Z 00000KT 9999 FEW018 SCT029 M07/M08 Q1001=
202002280550 METAR ESMX 280550Z 00000KT 9999 SCT019 M07/M08 Q1001=
202002280520 METAR ESMX 280520Z 00000KT 9999 FEW039 M07/M08 Q1001=
202002280450 METAR ESMX 280450Z 00000KT 9999 FEW020 BKN040 M08/M09 Q1001=
202002280420 METAR ESMX 280420Z AUTO 18002KT 9999 NCD M09/M09 Q1001=
202002280350 METAR ESMX 280350Z AUTO VRB02KT 9999 NCD M09/M09 Q1001=
202002280320 METAR ESMX 280320Z AUTO 00000KT 9999 NCD M10/M10 Q1001=
202002280250 METAR ESMX 280250Z AUTO 00000KT 9999 NCD M09/M10 Q1000=
202002280220 METAR ESMX 280220Z AUTO 00000KT 9999 NCD M09/M10 Q1000=
202002280150 METAR ESMX 280150Z AUTO 22002KT 9999 NCD M10/M10 Q1000=
202002280120 METAR ESMX 280120Z AUTO 00000KT 9999 NCD M09/M10 Q1000=
202002280050 METAR ESMX 280050Z AUTO 00000KT 9999 NCD M08/M08 Q1000=
202002280020 METAR ESMX 280020Z 00000KT CAVOK M07/M07 Q1000=
202002272350 METAR ESMX 272350Z 25002KT CAVOK M09/M10 Q0999=
202002272320 METAR ESMX 272320Z 00000KT CAVOK M09/M10 Q0999=
202002272250 METAR ESMX 272250Z 00000KT CAVOK M08/M09 Q0999=
202002272220 METAR ESMX 272220Z AUTO 00000KT 9999 NCD M07/M08 Q0999=
202002272150 METAR ESMX 272150Z AUTO 00000KT 9999 NCD M07/M07 Q0998=
202002272120 METAR ESMX 272120Z AUTO 00000KT 9999 NCD M07/M08 Q0998=
202002272050 METAR ESMX 272050Z AUTO 00000KT 9999 NCD M07/M07 Q0998=
202002272020 METAR ESMX 272020Z AUTO 00000KT 9999 NCD M07/M08 Q0997=
202002271950 METAR ESMX 271950Z AUTO 00000KT 9999 NCD M07/M07 Q0997=
202002271920 METAR ESMX 271920Z AUTO 33001KT 9999 NCD M06/M06 Q0997=
202002271850 METAR ESMX 271850Z AUTO 00000KT 9999 NCD M07/M07 Q0997=
202002271820 METAR ESMX 271820Z 00000KT CAVOK M05/M05 Q0997=
202002271750 METAR ESMX 271750Z 28003KT CAVOK M05/M05 Q0996=
202002271720 METAR ESMX 271720Z 30003KT CAVOK M05/M05 Q0996=
202002271650 METAR ESMX 271650Z 30003KT CAVOK M03/M04 Q0996=
202002271620 METAR ESMX 271620Z 32004KT CAVOK M02/M05 Q0996=
202002271550 METAR ESMX 271550Z 33003KT CAVOK M01/M05 Q0996=
202002271520 METAR ESMX 271520Z 32006KT CAVOK M00/M06 Q0996=
202002271450 METAR ESMX 271450Z 32004KT 290V350 9999 FEW025 M00/M05 Q0996=
202002271420 METAR ESMX 271420Z 30004KT 270V330 9999 SCT023 00/M05 Q0996=
202002271350 METAR ESMX 271350Z 34005KT 9999 SCT021 M00/M04 Q0996=
202002271320 METAR ESMX 271320Z 32006KT 9999 BKN021 M00/M04 Q0996=
202002271250 METAR ESMX 271250Z 33005KT 300V010 9999 BKN018 M01/M04 Q0996=
202002271220 METAR ESMX 271220Z 31007KT 9999 BKN018 M01/M04 Q0996=
202002271150 METAR ESMX 271150Z 32008KT 9999 BKN017 M01/M04 Q0996=
202002271120 METAR ESMX 271120Z 32006KT 280V350 9999 BKN016 M01/M04 Q0996=
202002271050 METAR COR ESMX 271050Z 32007KT 9999 BKN016 M02/M05 Q0996=
202002271020 METAR ESMX 271020Z 30006KT 9999 BKN017 M02/M05 Q0996=
202002270950 METAR ESMX 270950Z 33008KT 9999 BKN015 M02/M04 Q0996=
202002270920 METAR ESMX 270920Z 31006KT 260V360 9999 BKN015 M02/M04 Q0996=
202002270850 METAR ESMX 270850Z 28004KT 260V320 9999 BKN018 M02/M04 Q0996=
202002270820 METAR ESMX 270820Z 29006KT 260V320 9999 BKN021 M03/M04 Q0996=
202002270750 METAR ESMX 270750Z 30005KT 9999 BKN023 M03/M04 Q0996=
202002270720 METAR ESMX 270720Z 29004KT CAVOK M04/M05 Q0996=
202002270650 METAR ESMX 270650Z 27005KT 9999 FEW024 M05/M05 Q0996=
202002270620 METAR ESMX 270620Z 27005KT 9999 SCT022 M05/M06 Q0996=
202002270550 METAR ESMX 270550Z 30004KT 9999 FEW023 M06/M06 Q0996=
202002270520 METAR ESMX 270520Z 29003KT CAVOK M05/M06 Q0996=
202002270450 METAR ESMX 270450Z 30005KT CAVOK M05/M06 Q0996=
202002270420 METAR ESMX 270420Z AUTO 30007KT 9999 SCT049/// M05/M06 Q0996=
202002270350 METAR ESMX 270350Z AUTO 30006KT 9999 OVC048/// M04/M05 Q0995=
202002270320 METAR ESMX 270320Z AUTO 29006KT 9999 OVC044/// M04/M05 Q0995=
202002270250 METAR ESMX 270250Z AUTO 30006KT 9999 OVC047/// M04/M05 Q0995=
202002270220 METAR ESMX 270220Z AUTO 29006KT 9999 OVC047/// M04/M05 Q0995=
202002270150 METAR ESMX 270150Z AUTO 29006KT 9999 BKN041/// OVC053/// M04/M05 Q0995=
202002270120 METAR ESMX 270120Z AUTO 29006KT 9999 FEW042/// OVC055/// M04/M05 Q0995=
202002270050 METAR ESMX 270050Z AUTO 29006KT 9999 OVC051/// M04/M05 Q0995=
202002270020 METAR ESMX 270020Z AUTO 28006KT 9999 BKN053/// M04/M05 Q0995=
202002262350 METAR ESMX 262350Z AUTO 29005KT 9999 OVC053/// M03/M04 Q0994=
202002262320 METAR ESMX 262320Z AUTO 30005KT 9999 BKN049/// M03/M04 Q0994=
202002262250 METAR ESMX 262250Z AUTO 32007KT 290V350 9999 FEW059/// M03/M05 Q0994=
202002262220 METAR ESMX 262220Z AUTO 33008KT 300V010 9999 BKN048/// OVC059/// M02/M05 Q0994=
202002262150 METAR ESMX 262150Z AUTO 33009KT 9999 FEW048/// OVC062/// M02/M05 Q0994=
202002262120 METAR ESMX 262120Z AUTO 33010KT 9999 BKN049/// OVC061/// M02/M04 Q0994=
202002262050 METAR ESMX 262050Z AUTO 33009KT 9999 OVC062/// M02/M04 Q0994=
202002262020 METAR ESMX 262020Z AUTO 33010KT 9999 OVC061/// M02/M04 Q0994=
202002261950 METAR ESMX 261950Z 34010KT CAVOK M01/M04 Q0993=
202002261920 METAR ESMX 261920Z 32008KT CAVOK M01/M04 Q0993=
202002261850 METAR ESMX 261850Z 32007KT CAVOK M01/M04 Q0993=
202002261820 METAR ESMX 261820Z 32009KT CAVOK M01/M04 Q0993=
202002261750 METAR ESMX 261750Z 33007KT 9999 BKN047 M01/M04 Q0992=
202002261720 METAR ESMX 261720Z 32009KT 9999 FEW040 BKN061 M01/M03 Q0992=
202002261650 METAR ESMX 261650Z 32007KT 8000 -SN FEW010 BKN033 M01/M02 Q0992=
202002261620 METAR ESMX 261620Z 33011KT 9999 -SN BKN017 M01/M03 Q0991=
202002261550 METAR ESMX 261550Z 33011KT 9999 -SN FEW010 BKN015 M01/M03 Q0991=
202002261520 METAR ESMX 261520Z 33010KT 9999 -SN BKN015 M01/M02 Q0991=
202002261450 METAR ESMX 261450Z 33011KT 9999 BKN015 M01/M03 Q0990=
202002261420 METAR ESMX 261420Z 34012KT 9999 BKN015 M01/M02 Q0990=
202002261350 METAR ESMX 261350Z 34010KT 9999 -SN OVC013 M01/M02 Q0989=
202002261320 METAR ESMX 261320Z 33010KT 7000 -SN FEW002 BKN010 M01/M02 Q0989=
202002261250 METAR ESMX 261250Z 33009KT 5000 -SN BKN015 M01/M02 Q0988=
202002261220 METAR ESMX 261220Z 33009KT 4500 -SN OVC002 M01/M02 Q0988=
202002261150 METAR ESMX 261150Z 32010KT 6000 -SN BKN002 M01/M02 Q0988=
202002261120 METAR ESMX 261120Z 33010KT 9999 -SN BKN013 M01/M03 Q0988=
202002261050 METAR COR ESMX 261050Z 34010KT 9999 -SN OVC014 M01/M03 Q0987=
202002261020 METAR COR ESMX 261020Z 34010KT 9999 -SN OVC014 M01/M03 Q0987=
202002260950 METAR ESMX 260950Z 33009KT 290V350 4000 -SN OVC013 M01/M03 Q0986=
202002260920 METAR ESMX 260920Z 33012KT 9999 BKN013 M01/M03 Q0986=
202002260850 METAR ESMX 260850Z 33011KT 9999 BKN013 M01/M03 Q0985=
202002260820 METAR ESMX 260820Z 34012KT 7000 -SN OVC013 M01/M02 Q0985=
202002260750 METAR ESMX 260750Z 34013KT 3500 -SN SCT002 BKN011 M01/M02 Q0984=
202002260720 METAR ESMX 260720Z 34012KT 5000 -SN OVC012 M01/M02 Q0984=
202002260650 METAR ESMX 260650Z 34012KT 8000 -SN BKN013 M01/M02 Q0983=
202002260620 METAR ESMX 260620Z 34012KT 9999 BKN012 M01/M02 Q0983=
202002260550 METAR ESMX 260550Z 34012KT 9999 BKN011 M01/M01 Q0983=
202002260520 METAR ESMX 260520Z 35014KT 9999 OVC011 M00/M01 Q0982=
202002260450 METAR ESMX 260450Z 36012KT 9999 -SN OVC011 M00/M00 Q0982=
202002260420 METAR ESMX 260420Z AUTO 36011KT 9000 SG SCT009/// BKN013/// BKN018/// M00/M00 Q0981=
202002260350 METAR ESMX 260350Z AUTO 36011KT 3200 -SN SCT002/// BKN008/// BKN015/// 00/00 Q0981=
202002260320 METAR ESMX 260320Z AUTO 02009KT 2000 -SN BKN002/// OVC015/// 00/00 Q0980=
202002260250 METAR ESMX 260250Z AUTO 01008KT 2600 -SN SCT002/// BKN018/// OVC021/// 00/00 Q0980=
202002260220 METAR ESMX 260220Z AUTO 03009KT 9999 SG SCT009/// BKN013/// OVC055/// 01/00 Q0980=
202002260150 METAR ESMX 260150Z AUTO 03009KT 010V070 9999 -SN BKN008/// OVC035/// 01/01 Q0980=
202002260120 METAR ESMX 260120Z AUTO 04007KT 010V070 5000 -SN BKN006/// OVC015/// 01/01 Q0979=
202002260050 METAR ESMX 260050Z AUTO 03007KT 3500 -SN FEW002/// BKN004/// BKN009/// 01/01 Q0979=
202002260020 METAR ESMX 260020Z AUTO 04006KT 2000 -SN SCT001/// OVC008/// 00/00 Q0979=
202002252350 METAR ESMX 252350Z AUTO 04006KT 020V080 2200 -SN VV009 01/01 Q0979=
202002252320 METAR ESMX 252320Z AUTO 04005KT 1600 -SN VV009 01/01 Q0978=
202002252250 METAR ESMX 252250Z 05004KT 1000 R01/P2000D R19/P2000N SN VV002 00/00 Q0978=
202002252220 METAR ESMX 252220Z AUTO 05004KT 0700 R01/P2000N R19/1800N -SN BKN001/// OVC008/// 00/00 Q0978=
202002252150 METAR ESMX 252150Z AUTO 07003KT 030V110 0900 R01/P2000N R19/P2000N -SN OVC001/// 00/00 Q0978=
202002252120 METAR ESMX 252120Z AUTO 07003KT 040V110 0650 R01/1600U R19/P2000N SN BKN001/// OVC005/// 01/01 Q0978=
202002252050 METAR ESMX 252050Z AUTO VRB03KT 1200 R01/P2000N R19/P2000N -SN BKN003/// OVC006/// 01/01 Q0978 RERASN=
202002252020 METAR ESMX 252020Z AUTO 14004KT 080V170 2300 -SN OVC004/// 01/01 Q0978 RERA=
202002251950 METAR ESMX 251950Z 14005KT 090V180 6000 -RA OVC005 02/02 Q0979=
202002251920 METAR ESMX 251920Z 14005KT 090V170 9999 -RA OVC006 02/02 Q0979=
202002251850 METAR ESMX 251850Z 11006KT 060V150 9999 -RA OVC006 02/02 Q0979=
202002251820 METAR ESMX 251820Z 13005KT 090V160 9000 -RA OVC006 02/02 Q0980=
202002251750 METAR ESMX 251750Z 09005KT 060V140 9999 -RA BKN008 02/02 Q0980=
202002251720 METAR ESMX 251720Z 12005KT 080V150 9999 -RA SCT007 03/02 Q0981=
202002251650 METAR ESMX 251650Z 15004KT 100V170 9999 -RA FEW014 BKN027 03/02 Q0981=
202002251620 METAR ESMX 251620Z 16009KT 9999 BKN012 03/02 Q0982=
202002251550 METAR ESMX 251550Z 15009KT 9999 BKN018 03/03 Q0982=
202002251520 METAR ESMX 251520Z 16006KT 9999 SCT018 04/03 Q0982=
202002251450 METAR ESMX 251450Z 18009KT 9999 SCT020 04/02 Q0983=
202002251420 METAR ESMX 251420Z 20010KT 9999 BKN010 03/02 Q0983=
202002251350 METAR ESMX 251350Z 17008KT 9999 BKN012 04/03 Q0983=
202002251320 METAR ESMX 251320Z 18006KT 130V210 9999 SCT008 BKN022 04/03 Q0984=
202002251250 METAR ESMX 251250Z 18006KT 140V200 9999 -RADZ BKN005 03/03 Q0984=
202002251220 METAR ESMX 251220Z 12004KT 090V160 7000 -RA BKN003 02/02 Q0984=
202002251150 METAR COR ESMX 251150Z 13004KT 100V160 8000 BKN003 01/01 Q0985=
202002251120 METAR ESMX 251120Z 14004KT 100V170 5000 -SN OVC002 01/01 Q0985=
202002251050 METAR ESMX 251050Z 13004KT 100V190 3400 -RASN OVC002 01/01 Q0985=
202002251020 METAR ESMX 251020Z 10005KT 070V160 3900 -SN OVC002 01/01 Q0985=
202002250950 METAR ESMX 250950Z 13005KT 080V170 3200 -SN OVC002 01/01 Q0986=
202002250920 METAR ESMX 250920Z 13004KT 070V180 2600 -SN OVC002 01/01 Q0986=
202002250850 METAR ESMX 250850Z 12004KT 080V160 2900 SN OVC002 01/01 Q0986=
202002250820 METAR ESMX 250820Z 08004KT 010V140 2200 -SN OVC002 01/01 Q0987=
202002250750 METAR ESMX 250750Z 09003KT 040V160 2500 SN OVC002 01/01 Q0987=
202002250720 METAR ESMX 250720Z 09005KT 020V140 4000 -SN OVC003 01/01 Q0987=
202002250650 METAR ESMX 250650Z 09006KT 030V140 5000 -SN OVC003 01/01 Q0987=
202002250620 METAR ESMX 250620Z 09006KT 020V140 5000 -SN FEW002 OVC005 01/01 Q0988=
202002250550 METAR ESMX 250550Z 09005KT 020V140 2000 -SN VV002 01/01 Q0989=
202002250520 METAR ESMX 250520Z 09006KT 030V140 3600 SN OVC002 01/01 Q0989=
202002250450 METAR ESMX 250450Z 09005KT 030V140 4700 -SN VV002 01/01 Q0990=
202002250420 METAR ESMX 250420Z AUTO 08004KT 030V140 2300 -SN OVC001/// 01/01 Q0991=
202002250350 METAR ESMX 250350Z AUTO 08005KT 030V120 1200 R01/P2000N R19/P2000N -SN BKN001/// OVC005/// 01/01 Q0991=
202002250320 METAR ESMX 250320Z AUTO 09003KT 040V160 1100 R01/P2000N R19/P2000N -SN BKN001/// BKN021/// OVC029/// 01/01 Q0992=
202002250250 METAR ESMX 250250Z AUTO 07005KT 030V100 5000 -SN ///020 01/00 Q0992=
202002250220 METAR ESMX 250220Z AUTO 09004KT 040V160 9999 -DZ SCT012/// BKN036/// BKN061/// 01/M00 Q0993 REUP=
202002250150 METAR ESMX 250150Z AUTO 09004KT 040V170 9999 FEW011/// OVC072/// 01/M00 Q0994=
202002250120 METAR ESMX 250120Z AUTO 09003KT 050V160 9999 BKN014/// OVC070/// 00/M00 Q0995=
202002250050 METAR ESMX 250050Z AUTO 08003KT 040V120 9999 OVC070/// 00/M00 Q0996=
202002250020 METAR ESMX 250020Z AUTO 08004KT 040V110 9999 OVC082/// M00/M00 Q0997=
202002242350 METAR ESMX 242350Z AUTO 09004KT 060V120 9999 OVC092/// M00/M00 Q0997=
202002242320 METAR ESMX 242320Z AUTO VRB02KT 9999 OVC100/// M00/M01 Q0998=
202002242250 METAR ESMX 242250Z AUTO VRB03KT 9999 BKN100/// M01/M01 Q0999=
202002242220 METAR ESMX 242220Z AUTO 12004KT 9999 SCT110/// M00/M01 Q0999=
202002242150 METAR ESMX 242150Z AUTO 14003KT 9999 NCD M00/M01 Q1000=
202002242120 METAR ESMX 242120Z AUTO 14004KT 9999 NCD 00/M01 Q1001=
202002242050 METAR ESMX 242050Z AUTO 17004KT 9999 NCD 01/M00 Q1001=
202002242020 METAR ESMX 242020Z AUTO 18004KT 9999 NCD 01/M00 Q1002=
202002241950 METAR ESMX 241950Z 18004KT CAVOK M00/M01 Q1002=
202002241920 METAR ESMX 241920Z 17003KT CAVOK M00/M01 Q1003=
202002241850 METAR ESMX 241850Z 15003KT CAVOK 00/M01 Q1003=
202002241820 METAR ESMX 241820Z 19003KT 9999 FEW027 01/M01 Q1004=
202002241750 METAR ESMX 241750Z 21005KT 9999 FEW027 01/M01 Q1004=
202002241720 METAR ESMX 241720Z 21005KT 9999 FEW028 01/M01 Q1005=
202002241650 METAR ESMX 241650Z 21004KT 9999 FEW028 01/M01 Q1005=
202002241620 METAR ESMX 241620Z 20004KT 9999 FEW028 02/M01 Q1005=
202002241550 METAR ESMX 241550Z 22004KT 200V260 9999 FEW028 03/M01 Q1006=
202002241520 METAR ESMX 241520Z AUTO 25006KT 220V280 9999 NCD 03/M01 Q1006=
202002241450 METAR ESMX 241450Z 22009KT 9999 FEW031 04/M01 Q1006=
202002241420 METAR ESMX 241420Z 23007KT 200V280 9999 FEW032 04/M02 Q1007=
202002241350 METAR COR ESMX 241350Z 25007KT 210V280 9999 FEW030 04/M01 Q1007=
202002241320 METAR ESMX 241320Z 24009KT 9999 FEW025 05/M02 Q1007=
202002241250 METAR ESMX 241250Z 25009KT 220V280 9999 FEW025 05/M02 Q1008=
202002241220 METAR ESMX 241220Z 27009KT 220V300 CAVOK 05/M02 Q1008=
202002241150 METAR ESMX 241150Z 27010KT 240V300 CAVOK 05/M01 Q1008=
202002241120 METAR ESMX 241120Z 27010KT CAVOK 05/M01 Q1008=
202002241050 METAR ESMX 241050Z 27011KT 9999 FEW029 05/M01 Q1008=
202002241020 METAR ESMX 241020Z 26009KT 230V290 9999 FEW025 04/00 Q1008=
202002240950 METAR ESMX 240950Z 25008KT 230V290 9999 FEW025 03/M00 Q1009=
202002240920 METAR ESMX 240920Z 27006KT 250V310 CAVOK 02/M00 Q1009=
202002240850 METAR ESMX 240850Z 26006KT CAVOK 02/M01 Q1008=
202002240820 METAR ESMX 240820Z 26006KT CAVOK 01/M01 Q1008=
202002240750 METAR ESMX 240750Z 26005KT 220V290 CAVOK 00/M01 Q1008=
202002240720 METAR ESMX 240720Z 27005KT CAVOK M01/M01 Q1008=
202002240650 METAR ESMX 240650Z 26005KT CAVOK M02/M02 Q1008=
202002240620 METAR ESMX 240620Z 27003KT CAVOK M01/M02 Q1007=
202002240550 METAR ESMX 240550Z 26005KT CAVOK M01/M01 Q1007=
202002240520 METAR ESMX 240520Z 27005KT CAVOK M01/M01 Q1007=
202002240450 METAR ESMX 240450Z 26006KT CAVOK M01/M01 Q1006=
202002240420 METAR COR ESMX 240420Z 27005KT CAVOK M00/M01 Q1006=
202002240350 METAR ESMX 240350Z AUTO 27006KT 9999 NCD M00/M01 Q1005=
202002240320 METAR ESMX 240320Z AUTO 27005KT 9999 NCD 00/00 Q1004=
202002240250 METAR ESMX 240250Z AUTO 26005KT 9999 NCD 01/00 Q1004=
202002240220 METAR ESMX 240220Z AUTO 27006KT 9999 NCD 01/01 Q1003=
202002240150 METAR ESMX 240150Z AUTO 27006KT 9999 NCD 01/01 Q1002=
202002240120 METAR ESMX 240120Z AUTO 27005KT 9999 NCD 02/01 Q1002=
202002240050 METAR ESMX 240050Z AUTO 27006KT 9999 NCD 02/02 Q1001=
202002240020 METAR ESMX 240020Z AUTO 26007KT 9999 NCD 02/02 Q1000=
202002232350 METAR ESMX 232350Z AUTO 26007KT 9999 NCD 03/02 Q0999=
202002232320 METAR ESMX 232320Z AUTO 28007KT 9999 FEW049/// 03/02 Q0999=
202002232250 METAR ESMX 232250Z AUTO 29008KT 9999 FEW011/// SCT016/// BKN049/// 03/02 Q0998=
202002232220 METAR ESMX 232220Z AUTO 28009KT 9999 BKN010/// OVC013/// 03/03 Q0997=
202002232150 METAR ESMX 232150Z AUTO 27010KT 9999 DZ BKN010/// OVC014/// 03/02 Q0997 RESHUP=
202002232120 METAR ESMX 232120Z AUTO 29009KT 9999 OVC011/// 03/02 Q0996=
202002232050 METAR ESMX 232050Z AUTO 28010KT 8000 -DZ BKN012/// OVC021/// 03/02 Q0995 REDZ REUP=
202002232020 METAR ESMX 232020Z 27010KT 220V300 9999 OVC014 04/02 Q0994=
202002231950 METAR ESMX 231950Z 26010KT 9999 BKN017 04/01 Q0994=
202002231920 METAR ESMX 231920Z 26011KT 9999 BKN016 04/01 Q0994=
202002231850 METAR ESMX 231850Z 26010KT 9999 BKN016 03/01 Q0993=
202002231820 METAR ESMX 231820Z 25011KT 9999 BKN043 03/01 Q0993=
202002231750 METAR ESMX 231750Z 25010KT 9999 BKN042 03/01 Q0993=
202002231720 METAR ESMX 231720Z 24008KT 210V270 9999 BKN045 03/01 Q0993=
202002231650 METAR ESMX 231650Z 24008KT 9999 FEW030 BKN047 04/00 Q0993=
202002231620 METAR ESMX 231620Z 26008KT 9999 BKN046 04/M00 Q0993=
202002231550 METAR ESMX 231550Z 23010KT 9999 BKN042 04/00 Q0992=
202002231520 METAR ESMX 231520Z 26010KT 9999 BKN032 05/M00 Q0993=
202002231450 METAR ESMX 231450Z 26011KT 210V290 9999 BKN033 05/M01 Q0993=
202002231420 METAR ESMX 231420Z 25013KT 220V290 9999 SCT034 06/M00 Q0993=
202002231350 METAR ESMX 231350Z 25013KT 9999 SCT043 05/M00 Q0993=
202002231320 METAR ESMX 231320Z 25014G26KT 220V280 9999 SCT031 05/M00 Q0994=
202002231250 METAR ESMX 231250Z 24015KT 9999 BKN030 05/00 Q0994=
202002231220 METAR ESMX 231220Z 25015KT 9999 BKN030 06/00 Q0994=
202002231150 METAR ESMX 231150Z 25016G28KT 220V280 9999 BKN026 05/00 Q0995=
202002231120 METAR ESMX 231120Z AUTO 25017G28KT 230V290 9999 SCT024/// OVC036/// 05/01 Q0995 RESHUP=
202002231050 METAR ESMX 231050Z AUTO 25015KT 210V280 9999 SCT019/// BKN026/// OVC038/// 05/02 Q0995 REDZ=
202002231020 METAR ESMX 231020Z 25017G27KT 9999 BKN015 04/02 Q0996=
202002230950 METAR ESMX 230950Z 25016KT 220V290 9999 BKN016 04/02 Q0995=
202002230920 METAR ESMX 230920Z 24015G25KT 9999 -RA BKN018 04/02 Q0996=
202002230850 METAR ESMX 230850Z 23017G29KT 9999 BKN018 04/02 Q0995=
202002230820 METAR ESMX 230820Z 24015G26KT 9999 SCT018 04/02 Q0995=
202002230750 METAR ESMX 230750Z 25016G29KT 9999 BKN014 04/02 Q0996=
202002230720 METAR ESMX 230720Z 23015G27KT 9999 BKN016 04/01 Q0996=
202002230650 METAR ESMX 230650Z 24017KT 210V270 9999 BKN018 04/01 Q0996=
202002230620 METAR ESMX 230620Z 25016KT 9999 -RA BKN014 04/01 Q0996=
202002230550 METAR ESMX 230550Z AUTO 24014KT 210V280 9999 BKN022/// BKN031/// OVC055/// 04/01 Q0996=
202002230520 METAR ESMX 230520Z AUTO 25015KT 9999 SCT025/// BKN039/// OVC047/// 04/01 Q0996=
202002230450 METAR ESMX 230450Z AUTO 25016G27KT 210V280 9999 BKN025/// OVC035/// 04/00 Q0995=
202002230420 METAR ESMX 230420Z AUTO 25017KT 9999 BKN026/// OVC037/// 04/00 Q0995=
202002230350 METAR ESMX 230350Z AUTO 25018G28KT 9999 BKN026/// OVC037/// 04/01 Q0995=
202002230320 METAR ESMX 230320Z AUTO 24018G31KT 9999 FEW024/// BKN037/// 04/00 Q0995=
202002230250 METAR ESMX 230250Z AUTO 24017G29KT 210V270 9999 BKN024/// OVC036/// 04/01 Q0995=
202002230220 METAR ESMX 230220Z AUTO 25017G29KT 9999 SCT024/// BKN034/// OVC039/// 04/01 Q0995=
202002230150 METAR ESMX 230150Z AUTO 23014KT 200V270 9999 BKN027/// BKN034/// OVC042/// 04/01 Q0995=
202002230120 METAR ESMX 230120Z AUTO 23015KT 9999 FEW028/// OVC040/// 04/01 Q0995=
202002230050 METAR ESMX 230050Z AUTO 25016G27KT 9999 SCT026/// OVC039/// 04/01 Q0995 RESHUP=
202002230020 METAR ESMX 230020Z AUTO 25013KT 9999 SCT029/// OVC044/// 03/01 Q0995 REUP=
202002222350 METAR ESMX 222350Z AUTO 25012KT 9999 BKN024/// BKN036/// OVC046/// 03/01 Q0995=
202002222320 METAR ESMX 222320Z AUTO 22012G27KT 9999 FEW007/// SCT022/// BKN031/// 02/01 Q0995 RESHUP=
202002222250 METAR ESMX 222250Z AUTO 24011KT 0900 R01/P2000N R19/P2000N -PL FEW004/// SCT007/// BKN009/// 01/01 Q0995 RESHRA=
202002222220 METAR ESMX 222220Z AUTO 25017G28KT 9999 -RA FEW011/// BKN017/// OVC025/// 03/01 Q0994=
202002222150 METAR ESMX 222150Z AUTO 26018G28KT 230V290 7000 -RA ///023 03/01 Q0995 REUP=
202002222120 METAR ESMX 222120Z AUTO 21014KT 9999 SCT029/// BKN044/// 03/01 Q0994=
202002222050 METAR ESMX 222050Z AUTO 23013KT 9999 SCT029/// BKN053/// 03/01 Q0994=
202002222020 METAR ESMX 222020Z AUTO 25014KT 9999 SCT021/// BKN031/// OVC051/// 03/01 Q0994=
202002221950 METAR ESMX 221950Z AUTO 25015G26KT 9999 FEW006/// BKN022/// 03/01 Q0994 RESHUP RERA=
202002221920 METAR ESMX 221920Z AUTO 22012KT 9999 SCT026/// 02/02 Q0994=
202002221850 METAR ESMX 221850Z AUTO 26017G34KT 230V290 7000 -PL ///023 02/01 Q0994 RESHRA=
202002221820 METAR ESMX 221820Z AUTO 27021G35KT 240V300 3900 RA VV017 02/01 Q0994=
202002221750 METAR ESMX 221750Z AUTO 25017G37KT 210V290 9999 -RA SCT025/// BKN036/// 03/01 Q0993 REUP=
202002221720 METAR ESMX 221720Z AUTO 24014KT 210V280 9999 BKN027/// 05/02 Q0992=
202002221650 METAR ESMX 221650Z AUTO 23012KT 200V260 9999 BKN028/// 04/02 Q0992=
202002221620 METAR ESMX 221620Z AUTO 24013KT 9999 FEW030/// 04/02 Q0992=
202002221550 METAR ESMX 221550Z AUTO 25017KT 9999 FEW031/// 04/02 Q0991=
202002221520 METAR ESMX 221520Z AUTO 25014KT 9999 FEW120/// 04/02 Q0991=
202002221450 METAR ESMX 221450Z AUTO 26014KT 230V290 9999 FEW017/// SCT080/// BKN110/// 04/03 Q0991=
202002221420 METAR ESMX 221420Z AUTO 26017KT 9999 -RA SCT014/// BKN026/// BKN041/// 04/03 Q0991 REUP RERA=
202002221350 METAR ESMX 221350Z AUTO 23018KT 9999 SCT014/// BKN018/// 05/04 Q0990=
202002221320 METAR ESMX 221320Z AUTO 22016G26KT 9999 FEW022/// BKN098/// 05/04 Q0990 RERA=
202002221250 METAR ESMX 221250Z AUTO 26017G29KT 7000 -RA ///023 05/04 Q0990=
202002221220 METAR ESMX 221220Z AUTO 25013KT 6000 RA FEW012/// SCT014/// BKN018/// 06/06 Q0990=
202002221150 METAR ESMX 221150Z AUTO 22018G29KT 9000 -RA SCT012/// OVC022/// 06/06 Q0991=
202002221120 METAR ESMX 221120Z AUTO 21020G30KT 7000 RA FEW009/// SCT013/// OVC024/// 06/05 Q0991=
202002221050 METAR ESMX 221050Z AUTO 22018KT 5000 RA SCT010/// OVC019/// 07/06 Q0992=
202002221020 METAR ESMX 221020Z AUTO 21019KT 6000 -RA BKN008/// BKN011/// OVC020/// 07/06 Q0992=
202002220950 METAR ESMX 220950Z AUTO 20020G32KT 7000 -RA SCT009/// OVC021/// 06/06 Q0993=
202002220920 METAR ESMX 220920Z AUTO 20019KT 7000 -RA FEW007/// BKN009/// BKN015/// 06/06 Q0994=
202002220850 METAR ESMX 220850Z AUTO 20020G31KT 4400 RA SCT006/// BKN008/// OVC017/// 06/06 Q0995 REDZ=
202002220820 METAR ESMX 220820Z AUTO 20020G31KT 8000 -DZ BKN008/// OVC011/// 06/06 Q0995=
202002220750 METAR ESMX 220750Z AUTO 20019KT 9999 -RA BKN009/// OVC010/// 06/06 Q0996=
202002220720 METAR ESMX 220720Z AUTO 20018KT 9999 -RA BKN008/// OVC011/// 06/06 Q0997=
202002220650 METAR ESMX 220650Z AUTO 19018G31KT 9000 -RA BKN008/// OVC016/// 06/06 Q0997=
202002220620 METAR ESMX 220620Z AUTO 20018KT 6000 -RA OVC007/// 06/06 Q0998 REDZ=
202002220550 METAR ESMX 220550Z AUTO 20019G30KT 9999 -RA OVC009/// 06/05 Q0999=
202002220520 METAR ESMX 220520Z AUTO 21020KT 9999 -DZ OVC009/// 06/05 Q0999 REDZ=
202002220450 METAR ESMX 220450Z AUTO 20019KT 9999 -RA BKN009/// OVC011/// 06/05 Q1000=
202002220420 METAR ESMX 220420Z AUTO 20017KT 9999 -RA BKN007/// OVC009/// 06/06 Q1001=
202002220350 METAR ESMX 220350Z AUTO 20016KT 4100 -RA SCT002/// OVC005/// 06/06 Q1002 REDZ=
202002220320 METAR ESMX 220320Z AUTO 19015KT 2400 DZ OVC002/// 05/05 Q1002=
202002220250 METAR ESMX 220250Z AUTO 19016KT 3400 DZ BKN002/// OVC004/// 05/05 Q1002=
202002220220 METAR ESMX 220220Z AUTO 19016KT 2500 -DZ OVC002/// 05/05 Q1003 REDZ=
202002220150 METAR ESMX 220150Z AUTO 19016KT 1900 DZ OVC002/// 05/05 Q1004=
202002220120 METAR ESMX 220120Z AUTO 20013KT 1700 DZ OVC002/// 05/05 Q1004=
202002220050 METAR ESMX 220050Z AUTO 19015KT 2200 DZ OVC002/// 05/05 Q1005=
202002220020 METAR ESMX 220020Z AUTO 19015KT 2200 DZ OVC002/// 05/05 Q1005 RESHUP RERA=
202002212350 METAR ESMX 212350Z AUTO 19016KT 2500 BR OVC002/// 05/05 Q1006 REUP=
202002212320 METAR ESMX 212320Z AUTO 19015KT 3300 BR BKN002/// OVC004/// 05/05 Q1006 REDZ=
202002212250 METAR ESMX 212250Z AUTO 20013KT 4700 BR OVC005/// 05/05 Q1007=
202002212220 METAR ESMX 212220Z AUTO 20015KT 8000 BR OVC005/// 05/04 Q1007=
202002212150 METAR ESMX 212150Z AUTO 20014KT 4200 -RA OVC005/// 04/04 Q1008 REDZ=
202002212120 METAR ESMX 212120Z AUTO 20014KT 4900 -DZ BKN006/// OVC008/// 04/04 Q1008=
202002212050 METAR ESMX 212050Z AUTO 21016G27KT 3200 DZ BKN002/// OVC006/// 04/04 Q1008 REDZ=
202002212020 METAR ESMX 212020Z AUTO 21012KT 7000 -DZ SCT005/// OVC007/// 04/04 Q1009=
202002211950 METAR ESMX 211950Z AUTO 19015KT 5000 DZ OVC005/// 04/04 Q1008=
202002211920 METAR ESMX 211920Z AUTO 19014KT 3400 DZ SCT002/// BKN006/// OVC008/// 04/04 Q1008=
202002211850 METAR ESMX 211850Z AUTO 19014KT 7000 DZ FEW009/// BKN011/// OVC015/// 04/04 Q1009=
202002211820 METAR ESMX 211820Z 20012KT 9000 -RA BKN018 05/04 Q1009=
202002211750 METAR ESMX 211750Z 20013KT 9999 BKN019 05/03 Q1009=
202002211720 METAR ESMX 211720Z 21011KT 9999 BKN021 05/03 Q1010=
202002211650 METAR ESMX 211650Z 21011KT 190V250 9999 FEW020 05/03 Q1010=
202002211620 METAR ESMX 211620Z 21011KT 9999 BKN020 05/03 Q1009=
202002211550 METAR ESMX 211550Z 21012KT 9999 BKN022 05/03 Q1009=
202002211520 METAR ESMX 211520Z 21011KT 9999 BKN021 05/03 Q1009=
202002211450 METAR ESMX 211450Z 23011KT 9999 -RA BKN023 05/02 Q1009=
202002211420 METAR ESMX 211420Z 25012KT 9999 BKN025 06/01 Q1009=
202002211350 METAR ESMX 211350Z 23012G23KT 200V260 9999 BKN022 06/02 Q1009=
202002211320 METAR ESMX 211320Z 25013KT 220V280 9999 BKN026 06/02 Q1008=
202002211250 METAR ESMX 211250Z 25013G24KT 9999 BKN025 06/02 Q1008=
202002211220 METAR ESMX 211220Z 25012G23KT 200V280 9999 BKN024 06/02 Q1008=
202002211150 METAR ESMX 211150Z 26015KT 9999 BKN020 06/02 Q1008=
202002211120 METAR ESMX 211120Z 26014KT 9999 BKN022 06/03 Q1007=
202002211050 METAR ESMX 211050Z 25011KT 9999 BKN018 05/03 Q1007=
202002211020 METAR ESMX 211020Z 24012G23KT 210V280 9999 BKN014 05/03 Q1006=
202002210950 METAR ESMX 210950Z 25010KT 230V290 9999 DZ BKN022 04/03 Q1006=
202002210920 METAR COR ESMX 210920Z 26010KT 220V280 9000 -RA BKN015 04/03 Q1006=
202002210850 METAR ESMX 210850Z 25011KT 9999 FEW017 BKN023 04/02 Q1005=
202002210820 METAR ESMX 210820Z 25011KT 210V280 9999 BKN016 04/02 Q1004=
202002210750 METAR ESMX 210750Z 26012KT 230V290 9999 FEW014 OVC022 03/02 Q1004=
202002210720 METAR ESMX 210720Z 26012KT 9999 BKN018 03/02 Q1003=
202002210650 METAR ESMX 210650Z 26011KT 9999 FEW016 03/02 Q1002=
202002210620 METAR ESMX 210620Z 26010KT 230V290 9999 SCT019 03/02 Q1001=
202002210550 METAR ESMX 210550Z 26011KT 9999 BKN015 03/02 Q1001=
202002210520 METAR ESMX 210520Z 26010KT 9999 BKN018 03/02 Q1000=
202002210450 METAR ESMX 210450Z 27010KT 9999 BKN019 03/02 Q1000=
202002210420 METAR ESMX 210420Z AUTO 26010KT 230V300 9999 FEW013/// SCT016/// 03/02 Q0999=
202002210350 METAR ESMX 210350Z AUTO 26009KT 9999 SCT014/// BKN021/// 03/03 Q0998=
202002210320 METAR ESMX 210320Z AUTO 26009KT 9999 BKN011/// 03/03 Q0998=
202002210250 METAR ESMX 210250Z AUTO 27010KT 9999 DZ SCT010/// BKN020/// BKN029/// 03/03 Q0997=
202002210220 METAR ESMX 210220Z AUTO 26016KT 210V290 8000 -RA SCT009/// BKN013/// OVC020/// 04/03 Q0996=
202002210150 METAR ESMX 210150Z AUTO 21015KT 6000 -RA BKN007/// BKN010/// OVC014/// 05/04 Q0996=
202002210120 METAR ESMX 210120Z AUTO 18014KT 8000 -RA SCT008/// BKN010/// OVC012/// 05/05 Q0995=
202002210050 METAR ESMX 210050Z AUTO 17014KT 8000 -RA BKN009/// OVC013/// 05/05 Q0995=
202002210020 METAR ESMX 210020Z AUTO 19015KT 7000 -RA BKN008/// BKN013/// OVC021/// 05/05 Q0996=
202002202350 METAR ESMX 202350Z AUTO 17014KT 9000 DZ BKN006/// OVC007/// 05/05 Q0996 REDZ=
202002202320 METAR ESMX 202320Z AUTO 17016KT 7000 DZ OVC005/// 05/05 Q0997 REUP REDZ=
202002202250 METAR ESMX 202250Z AUTO 18014KT 9999 OVC006/// 05/05 Q0997=
202002202220 METAR ESMX 202220Z AUTO 17016KT 9999 OVC006/// 05/05 Q0998=
202002202150 METAR ESMX 202150Z AUTO 16015KT 9999 OVC007/// 05/05 Q0998=
202002202120 METAR ESMX 202120Z AUTO 17016KT 6000 BR OVC005/// 05/05 Q0999=
202002202050 METAR ESMX 202050Z AUTO 16015KT 9999 OVC005/// 05/05 Q1000=
202002202020 METAR ESMX 202020Z AUTO 17014KT 9999 OVC005/// 05/05 Q1000 RERA=
202002201950 METAR ESMX 201950Z AUTO 16014KT 8000 BR OVC003/// 05/05 Q1001=
202002201920 METAR ESMX 201920Z AUTO 17014KT 7000 -DZ OVC002/// 04/04 Q1002=
202002201850 METAR ESMX 201850Z 17015KT 6000 -RADZ OVC003 04/04 Q1003=
202002201820 METAR ESMX 201820Z 17013KT 9000 -DZ OVC004 04/04 Q1003=
202002201750 METAR ESMX 201750Z 17013KT 8000 -DZ BR OVC004 04/04 Q1004=
202002201720 METAR ESMX 201720Z 16013KT 6000 -DZ SCT002 OVC004 04/04 Q1004=
202002201650 METAR ESMX 201650Z 17014KT 7000 -DZ FEW002 OVC005 03/03 Q1004=
202002201620 METAR ESMX 201620Z 16013KT 9999 -RA BKN006 03/03 Q1005=
202002201550 METAR ESMX 201550Z 16014KT 8000 -RADZ BKN006 03/03 Q1006=
202002201520 METAR ESMX 201520Z 17013KT 9999 -RA BKN007 03/03 Q1006=
202002201450 METAR ESMX 201450Z 17013KT 9000 -RA BR BKN008 03/03 Q1007=
202002201420 METAR ESMX 201420Z 16012KT 9999 -RA BKN011 04/03 Q1007=
202002201350 METAR ESMX 201350Z 16011G22KT 9000 -RA BR OVC017 04/02 Q1008=
202002201320 METAR ESMX 201320Z 17014KT 9999 -RA BR OVC024 04/01 Q1008=
202002201250 METAR ESMX 201250Z 17014KT 9999 BKN029 05/01 Q1009=
202002201220 METAR ESMX 201220Z 17016KT 9999 SCT024 05/01 Q1009=
202002201150 METAR ESMX 201150Z 17014KT 9999 BKN021 05/01 Q1010=
202002201120 METAR ESMX 201120Z 17013KT 9999 BKN018 05/02 Q1010=
202002201050 METAR ESMX 201050Z 17014KT 9999 BKN018 05/02 Q1011=
202002201020 METAR ESMX 201020Z 16012KT 9999 BKN013 04/02 Q1012=
202002200950 METAR ESMX 200950Z 18013KT 9999 SCT009 BKN012 04/03 Q1012=
202002200920 METAR ESMX 200920Z 17010KT 140V200 9999 SCT006 BKN009 03/03 Q1012=
202002200850 METAR ESMX 200850Z 18007KT 9999 BKN003 03/03 Q1012=
202002200820 METAR ESMX 200820Z 19006KT 7000 BR OVC002 03/03 Q1012=
202002200750 METAR ESMX 200750Z 18007KT 9999 OVC002 03/03 Q1012=
202002200720 METAR ESMX 200720Z AUTO 17006KT 9999 OVC002/// 02/02 Q1012=
202002200650 METAR ESMX 200650Z 18006KT 8000 BR OVC002 02/02 Q1012=
202002200620 METAR COR ESMX 200620Z 17006KT 7000 BR OVC002 02/02 Q1012=
202002200550 METAR COR ESMX 200550Z 19007KT 7000 BR OVC002 02/02 Q1012=
202002200520 METAR ESMX 200520Z 17005KT 8000 BR BKN002 OVC004 01/01 Q1012=
202002200450 METAR ESMX 200450Z 16005KT 8000 BR BKN002 OVC020 01/01 Q1012=
202002200420 METAR COR ESMX 200420Z 14004KT 2000 BR BKN003 01/01 Q1012=
202002200350 METAR ESMX 200350Z AUTO 14004KT 3600 OVC001/// 01/01 Q1011=
202002200320 METAR ESMX 200320Z AUTO 18003KT 0250 R01/0750N R19/1000N FG OVC001/// 00/00 Q1012=
202002200250 METAR ESMX 200250Z AUTO VRB03KT 0350 R01/1000N R19/1300N FG OVC001/// 00/00 Q1012=
202002200220 METAR ESMX 200220Z AUTO 21005KT 0300 R01/0900N R19/0900N FG OVC001/// 00/00 Q1011=
202002200150 METAR ESMX 200150Z AUTO 22004KT 0150 R01/0650N R19/0600N FG VV002 00/00 Q1011=
202002200120 METAR ESMX 200120Z AUTO 21004KT 0150 R01/0500N R19/0550N FG OVC001/// 01/01 Q1011=
202002200050 METAR ESMX 200050Z AUTO 24004KT 210V270 0550 R01/1400D R19/1500D FG OVC001/// 01/01 Q1011=
202002200020 METAR ESMX 200020Z AUTO 24005KT 210V280 0300 R01/0900N R19/0900N FG OVC001/// 01/01 Q1011=
202002192350 METAR ESMX 192350Z AUTO 24004KT 0400 R01/1600D R19/P2000D FG OVC001/// 01/01 Q1010=
202002192320 METAR ESMX 192320Z AUTO 25005KT 0700 R01/P2000D R19/P2000N FG BKN001/// BKN008/// 01/01 Q1010=
202002192250 METAR ESMX 192250Z AUTO 22006KT 9999 FEW009/// SCT013/// 00/00 Q1010=
202002192220 METAR ESMX 192220Z AUTO 21006KT 9999 SCT014/// 01/01 Q1009=
202002192150 METAR ESMX 192150Z AUTO 23007KT 9999 NCD 01/01 Q1009=
202002192120 METAR ESMX 192120Z AUTO 23006KT 9999 NCD 01/01 Q1009=
202002192050 METAR ESMX 192050Z AUTO 25005KT 9999 NCD 01/00 Q1008=
202002192020 METAR ESMX 192020Z 23005KT 200V270 CAVOK 01/01 Q1008=
202002191950 METAR ESMX 191950Z 26006KT CAVOK 01/01 Q1008=
202002191920 METAR ESMX 191920Z 25006KT CAVOK 01/01 Q1007=
202002191850 METAR ESMX 191850Z 26006KT CAVOK 02/01 Q1007=
202002191820 METAR ESMX 191820Z 26007KT CAVOK 02/01 Q1006=
202002191750 METAR ESMX 191750Z 26006KT CAVOK 02/01 Q1006=
202002191720 METAR ESMX 191720Z 26007KT CAVOK 03/01 Q1005=
202002191650 METAR ESMX 191650Z 27008KT CAVOK 03/01 Q1005=
202002191620 METAR ESMX 191620Z 25005KT 230V300 9999 FEW022 04/02 Q1004=
202002191550 METAR ESMX 191550Z 26008KT 9999 FEW024 05/01 Q1004=
202002191520 METAR ESMX 191520Z 27007KT 240V300 9999 SCT021 05/02 Q1003=
202002191450 METAR ESMX 191450Z 28009KT 230V310 9999 SCT021 05/02 Q1003=
202002191420 METAR ESMX 191420Z 27009KT 230V310 9999 SCT022 05/02 Q1003=
202002191350 METAR ESMX 191350Z 27008KT 9999 FEW017 SCT029 05/02 Q1002=
202002191320 METAR ESMX 191320Z 26008KT 9999 FEW014 BKN030 05/02 Q1002=
202002191250 METAR ESMX 191250Z 29007KT 250V330 9999 BKN022 04/02 Q1002=
202002191220 METAR ESMX 191220Z 27010KT 9999 BKN011 04/02 Q1002=
202002191150 METAR ESMX 191150Z 27010KT 9999 BKN014 04/03 Q1001=
202002191120 METAR ESMX 191120Z 29009KT 9999 BKN009 04/03 Q1001=
202002191050 METAR ESMX 191050Z 30008KT 260V330 9999 BKN008 04/03 Q1000=
202002191020 METAR ESMX 191020Z 29008KT 260V330 9999 BKN006 04/03 Q1000=
202002190950 METAR ESMX 190950Z 26006KT 9999 -RA BKN006 03/03 Q1000=
202002190920 METAR ESMX 190920Z 26007KT 6000 -RA BKN006 03/02 Q0999=
202002190850 METAR ESMX 190850Z 22007KT 9999 -RA BKN006 03/03 Q0999=
202002190820 METAR ESMX 190820Z 20009KT 9000 -RA BKN005 03/03 Q0999=
202002190750 METAR ESMX 190750Z 20008KT 7000 DZ BKN005 03/03 Q0999=
202002190720 METAR ESMX 190720Z 17004KT 130V200 8000 DZ BKN005 03/03 Q0999=
202002190650 METAR ESMX 190650Z 15005KT 7000 -RA BKN004 03/03 Q0999=
202002190620 METAR ESMX 190620Z 16006KT 5000 -RA OVC006 03/03 Q1000=
202002190550 METAR ESMX 190550Z 17011KT 9000 -RA BKN006 03/02 Q1000=
202002190520 METAR COR ESMX 190520Z 18011KT 8000 -RA BKN006 03/03 Q1000=
202002190450 METAR ESMX 190450Z AUTO 19012KT 9999 DZ BKN006/// OVC008/// 03/03 Q1000 REUP=
202002190420 METAR ESMX 190420Z AUTO 19010KT 9999 OVC007/// 03/03 Q1001=
202002190350 METAR ESMX 190350Z AUTO 20009KT 9999 OVC006/// 03/03 Q1001=
202002190320 METAR ESMX 190320Z AUTO 20010KT 9999 BKN007/// BKN009/// OVC014/// 03/03 Q1001=
202002190250 METAR ESMX 190250Z AUTO 20012KT 9999 BKN007/// BKN017/// OVC021/// 03/03 Q1001 RERA=
202002190220 METAR ESMX 190220Z AUTO 22011KT 9000 BR OVC006/// 03/03 Q1002=
202002190150 METAR ESMX 190150Z AUTO 20012KT 9999 -RA OVC007/// 03/03 Q1002=
202002190120 METAR ESMX 190120Z AUTO 22012KT 9000 DZ OVC007/// 03/03 Q1002 REDZ RESHUP=
202002190050 METAR ESMX 190050Z AUTO 22012KT 9999 UP BKN007/// OVC009/// 03/03 Q1003 RERA=
202002190020 METAR ESMX 190020Z AUTO 21012KT 9999 BKN008/// OVC011/// 03/03 Q1003 REDZ=
202002182350 METAR ESMX 182350Z AUTO 21010KT 9999 BKN007/// BKN012/// 03/03 Q1003=
202002182320 METAR ESMX 182320Z AUTO 22010KT 9999 BKN009/// BKN016/// OVC039/// 03/03 Q1003 REUP REDZ=
202002182250 METAR ESMX 182250Z AUTO 22012KT 9999 BKN010/// OVC013/// 03/03 Q1003=
202002182220 METAR ESMX 182220Z AUTO 22012KT 9999 BKN009/// BKN014/// OVC020/// 03/03 Q1003=
202002182150 METAR ESMX 182150Z AUTO 23013KT 9999 -DZ BKN008/// BKN011/// OVC017/// 03/03 Q1003=
202002182120 METAR ESMX 182120Z AUTO 22011KT 9999 -RA BKN009/// OVC015/// 03/03 Q1004 RESHUP REDZ=
202002182050 METAR ESMX 182050Z AUTO 22011KT 9999 BKN011/// OVC016/// 03/03 Q1004=
202002182020 METAR ESMX 182020Z AUTO 23013KT 9999 -DZ BKN009/// OVC012/// 03/03 Q1004=
202002181950 METAR ESMX 181950Z 23012KT 9999 -DZ BKN010 03/03 Q1004=
202002181920 METAR ESMX 181920Z 24011KT 210V270 9999 BKN010 03/03 Q1003=
202002181850 METAR ESMX 181850Z 22010KT 9999 RA BKN010 03/03 Q1004 RESHRA=
202002181820 METAR ESMX 181820Z 24012KT 190V260 9999 BKN013 03/02 Q1004=
202002181750 METAR ESMX 181750Z 22011KT 5000 -RA SCT011 BKN016 BKN045 04/03 Q1003 REDZ=
202002181720 METAR ESMX 181720Z 24011KT 9999 SCT013 03/03 Q1003=
202002181650 METAR ESMX 181650Z 23014G26KT 9999 BKN012 04/02 Q1003 REDZ=
202002181620 METAR ESMX 181620Z 24011KT 200V260 9999 BKN015 04/03 Q1003=
202002181550 METAR ESMX 181550Z 22012KT 200V260 9999 BKN015 BKN034 04/03 Q1003=
202002181520 METAR ESMX 181520Z 24010KT 9999 SCT011 BKN015 BKN035 04/03 Q1003=
202002181450 METAR ESMX 181450Z 24011KT 210V280 9999 BKN010 04/03 Q1003 RERA=
202002181420 METAR ESMX 181420Z 24011KT 9999 BKN009 BKN012 04/03 Q1003=
202002181350 METAR ESMX 181350Z 24012KT 9999 -RA SCT009 BKN018 03/03 Q1003 RESHRA=
202002181320 METAR ESMX 181320Z 22013KT 8000 SHRA BKN012 04/03 Q1002=
202002181250 METAR ESMX 181250Z 23014KT 9999 BKN012 04/03 Q1002=
202002181220 METAR ESMX 181220Z 22016KT 8000 -RA BR BKN018 05/02 Q1002=
202002181150 METAR ESMX 181150Z 23015KT 9999 -RA BKN023 05/02 Q1002=
202002181120 METAR ESMX 181120Z 24016KT 9999 -RA BKN025 BKN032 05/02 Q1002 REDZ=
202002181050 METAR ESMX 181050Z 22016KT 9999 BKN029 BKN040 06/02 Q1002=
202002181020 METAR ESMX 181020Z 23015G26KT 9999 BKN023 05/02 Q1002=
202002180950 METAR ESMX 180950Z 24015KT 9999 BKN026 06/02 Q1002=
202002180920 METAR ESMX 180920Z 24016KT 9999 SCT019 BKN029 06/02 Q1001=
202002180850 METAR ESMX 180850Z 22015G26KT 9999 BKN021 05/03 Q1001=
202002180820 METAR ESMX 180820Z 24011KT 9999 FEW014 BKN023 05/04 Q1001 RESHRA=
202002180750 METAR ESMX 180750Z 24013KT 9000 SHRA FEW008 BKN018CB 05/04 Q1001=
202002180720 METAR ESMX 180720Z 24016KT 9999 SCT017 BKN023 06/03 Q1001=
202002180650 METAR ESMX 180650Z 23015G26KT 9999 -SHRA BKN017CB 06/04 Q1001=
202002180620 METAR ESMX 180620Z 22012KT 9999 BKN016 06/04 Q1000=
202002180550 METAR ESMX 180550Z 22014KT 190V250 9999 BKN015 06/04 Q1000=
202002180520 METAR ESMX 180520Z 22012KT 9999 BKN018 05/04 Q1000=
202002180450 METAR ESMX 180450Z 23012KT 9999 -SHRA SCT016 BKN032 06/04 Q1000=
202002180420 METAR ESMX 180420Z AUTO 22012KT 9999 SCT016/// BKN027/// OVC039/// 06/04 Q1000 REUP REDZ=
202002180350 METAR ESMX 180350Z AUTO 22013KT 9999 BKN016/// OVC040/// 06/04 Q1000=
202002180320 METAR ESMX 180320Z AUTO 23011KT 9999 SCT016/// BKN019/// BKN031/// 06/04 Q1000=
202002180250 METAR ESMX 180250Z AUTO 23013G23KT 9999 -RA BKN016/// OVC029/// 06/04 Q1000 RERA=
202002180220 METAR ESMX 180220Z AUTO 23013KT 9999 -RA BKN013/// BKN016/// OVC029/// 05/04 Q1000 RERA RESHUP=
202002180150 METAR ESMX 180150Z AUTO 23013KT 9999 -DZ OVC013/// 05/04 Q1000 RESHUP REUP=
202002180120 METAR ESMX 180120Z AUTO 22012KT 9999 BKN014/// BKN019/// OVC043/// 05/04 Q1000=
202002180050 METAR ESMX 180050Z AUTO 22013KT 9999 BKN013/// BKN017/// OVC024/// 05/04 Q1000 RERA=
202002180020 METAR ESMX 180020Z AUTO 22014KT 9999 -DZ BKN014/// BKN020/// OVC029/// 05/04 Q1000=
202002172350 METAR ESMX 172350Z AUTO 22013KT 9999 -DZ OVC013/// 05/04 Q1000=
202002172320 METAR ESMX 172320Z AUTO 21014KT 9999 -DZ OVC013/// 05/04 Q1000=
202002172250 METAR ESMX 172250Z AUTO 22014KT 9999 OVC015/// 05/03 Q0999 REUP=
202002172220 METAR ESMX 172220Z AUTO 22016G26KT 9999 OVC014/// 05/03 Q0999=
202002172150 METAR ESMX 172150Z AUTO 23016KT 9999 BKN014/// OVC018/// 05/03 Q0999=
202002172120 METAR ESMX 172120Z AUTO 22016G28KT 9999 BKN014/// OVC019/// 05/03 Q0999=
202002172050 METAR ESMX 172050Z AUTO 21016KT 7000 -RA BKN012/// OVC015/// 05/04 Q0999=
202002172020 METAR ESMX 172020Z AUTO 23016KT 9000 -RA BKN013/// BKN021/// OVC028/// 05/04 Q0999=
202002171950 METAR ESMX 171950Z 22016KT 9999 -DZ BKN012 BKN015 05/04 Q0999=
202002171920 METAR ESMX 171920Z 22017G29KT 9999 -RA BKN016 05/04 Q0999=
202002171850 METAR ESMX 171850Z 22016G29KT 9999 -DZ BKN016 BKN027 05/03 Q0998=
202002171820 METAR ESMX 171820Z 22019G31KT 7000 DZ BKN018 BKN027 05/03 Q0998 REDZ=
202002171750 METAR ESMX 171750Z 22018G28KT 190V260 9999 DZ BKN022 BKN039 06/03 Q0998 RERA=
202002171720 METAR ESMX 171720Z 22018G33KT 9999 BKN026 BKN036 06/03 Q0998=
202002171650 METAR ESMX 171650Z 23019G30KT 9999 BKN027 06/02 Q0997=
202002171620 METAR ESMX 171620Z 22018KT 9999 BKN026 BKN037 06/02 Q0997=
202002171550 METAR ESMX 171550Z 23019G32KT 9999 BR FEW004 BKN029 BKN035 06/02 Q0997 RERA=
202002171520 METAR ESMX 171520Z 22017KT 9999 BKN029 06/02 Q0997=
202002171450 METAR ESMX 171450Z 21016KT 9999 VCSH BKN026 06/03 Q0997=
202002171420 METAR ESMX 171420Z 22015KT 9999 -SHRA FEW003 BKN022 05/03 Q0997=
202002171350 METAR ESMX 171350Z 21019KT 7000 -SHRA BKN025 BKN039 06/03 Q0997 REDZ=
202002171320 METAR ESMX 171320Z 22018G32KT 9999 BKN021 BKN029 BKN038 06/03 Q0997=
202002171250 METAR ESMX 171250Z 22021G34KT 7000 -RA BKN019 BKN027 OVC034 05/03 Q0997 RESHRA=
202002171220 METAR ESMX 171220Z 22019KT 9999 -SHRA BKN021 BKN031 06/03 Q0996 RESHRA=
202002171150 METAR ESMX 171150Z 23020G37KT 200V260 9999 BKN023 BKN032 06/02 Q0996=
202002171120 METAR ESMX 171120Z 22019G32KT 9999 SCT026 BKN037 BKN062 06/02 Q0996 RESHRA=
202002171050 METAR ESMX 171050Z 22018G28KT 9999 SCT025 BKN040 BKN055 05/03 Q0996=
202002171020 METAR ESMX 171020Z 23019G34KT 9999 SCT024 BKN033 BKN057 06/03 Q0996 RESHRA=
202002170950 METAR ESMX 170950Z 22015KT 9999 VCSH SCT029CB OVC051 05/03 Q0996=
202002170920 METAR ESMX 170920Z 21017G28KT 9999 VCSH BKN018CB 05/03 Q0996=
202002170850 METAR ESMX 170850Z 22014KT 9999 VCSH FEW024CB BKN040 04/03 Q0995=
202002170820 METAR ESMX 170820Z 23016G26KT 200V260 9999 SHRA SCT011CB 04/03 Q0995=
202002170750 METAR ESMX 170750Z 21016KT 9999 SHRA BKN011CB 04/03 Q0995=
202002170720 METAR ESMX 170720Z 22016KT 9999 SHRA FEW009CB BKN013 04/03 Q0994=
202002170650 METAR ESMX 170650Z 22014KT 9999 SHRA BKN015CB 05/04 Q0994=
202002170620 METAR ESMX 170620Z 22019G30KT 4700 SHRA FEW013CB BKN018 05/04 Q0993=
202002170550 METAR ESMX 170550Z 22015KT 9999 BKN017 05/04 Q0993=
202002170520 METAR ESMX 170520Z 21016G27KT 9999 -DZ FEW002 BKN016 05/04 Q0993=
202002170450 METAR ESMX 170450Z 20014KT 9999 BKN017 05/03 Q0992=
202002170420 METAR ESMX 170420Z AUTO 21013KT 9999 OVC025/// 05/03 Q0992=
202002170350 METAR ESMX 170350Z AUTO 21013KT 9999 SCT013/// BKN018/// OVC027/// 04/04 Q0992 REUP=
202002170320 METAR ESMX 170320Z AUTO 22015KT 9999 BKN013/// OVC021/// 04/03 Q0991=
202002170250 METAR ESMX 170250Z AUTO 22014KT 9999 OVC013/// 04/03 Q0991=
202002170220 METAR ESMX 170220Z AUTO 23016KT 9999 BKN016/// OVC092/// 04/03 Q0990=
202002170150 METAR ESMX 170150Z AUTO 22011KT 9999 FEW013/// SCT023/// BKN086/// 04/03 Q0990=
202002170120 METAR ESMX 170120Z AUTO 24011KT 9999 SCT015/// OVC074/// 04/03 Q0989 REDZ=
202002170050 METAR ESMX 170050Z AUTO 22014KT 9999 SCT011/// BKN017/// BKN053/// 05/04 Q0989=
202002170020 METAR ESMX 170020Z AUTO 22014KT 9999 -RA BKN009/// BKN012/// OVC019/// 05/04 Q0988 REDZ=
202002162350 METAR ESMX 162350Z AUTO 22015KT 6000 DZ ///020 05/04 Q0988=
202002162320 METAR ESMX 162320Z AUTO 22011KT 2300 DZ FEW002/// OVC005/// 05/05 Q0988 RESHUP RERA=
202002162250 METAR ESMX 162250Z AUTO 19010KT 9999 OVC006/// 05/05 Q0986=
202002162220 METAR ESMX 162220Z AUTO 18011KT 9999 BKN007/// BKN031/// OVC042/// 05/05 Q0986=
202002162150 METAR ESMX 162150Z AUTO 20010KT 9999 -RA ///043 05/05 Q0987=
202002162120 METAR ESMX 162120Z AUTO 22010KT 9000 RA ///039 06/05 Q0988=
202002162050 METAR ESMX 162050Z 21008KT 9999 -RA BKN007 06/06 Q0987=
202002162020 METAR ESMX 162020Z 21009KT 7000 -RA BKN009 06/06 Q0987=
202002161950 METAR ESMX 161950Z 24009KT 5000 RA SCT006 BKN019 06/06 Q0988=
202002161920 METAR COR ESMX 161920Z 22010KT 190V250 7000 -RA FEW007 BKN029 07/06 Q0988=
202002161850 METAR ESMX 161850Z 23013G25KT 6000 RA FEW006 BKN038 07/07 Q0989=
202002161820 METAR ESMX 161820Z 20014KT 7000 RA SCT010 BKN032 08/08 Q0988=
202002161750 METAR ESMX 161750Z 21015KT 9000 -RA BKN014 09/08 Q0989=
202002161720 METAR ESMX 161720Z 20014KT 9999 DZ BKN011 10/09 Q0989=
202002161650 METAR ESMX 161650Z 20014KT 9999 BKN012 10/09 Q0989=
202002161620 METAR ESMX 161620Z 21017KT 9999 BKN009 10/09 Q0989=
202002161550 METAR ESMX 161550Z 20017G29KT 9999 BKN006 10/10 Q0989=
202002161520 METAR ESMX 161520Z 19018G30KT 6000 -RA OVC006 10/10 Q0989=
202002161450 METAR ESMX 161450Z 19018KT 9999 -RA OVC007 10/09 Q0989=
202002161420 METAR ESMX 161420Z 19019G30KT 6000 -RA BKN006 10/09 Q0989=
202002161350 METAR ESMX 161350Z 19022KT 6000 -RA BKN006 09/09 Q0990=
202002161320 METAR COR ESMX 161320Z 18023KT 4900 -RA OVC006 09/09 Q0990=
202002161250 METAR ESMX 161250Z 18021KT 9999 -RA BKN007 09/09 Q0990=
202002161220 METAR ESMX 161220Z 18020G30KT 5000 RA BR SCT002 BKN006 09/09 Q0991=
202002161150 METAR ESMX 161150Z 18020KT 4400 -RA FEW002 BKN007 09/08 Q0991=
202002161120 METAR ESMX 161120Z 18020KT 9000 -RA OVC008 08/08 Q0992=
202002161050 METAR ESMX 161050Z 18019KT 9000 -RA OVC008 08/08 Q0992=
202002161020 METAR ESMX 161020Z 17020G32KT 9999 -RA OVC007 08/08 Q0992=
202002160950 METAR ESMX 160950Z 17016KT 9999 -RA BKN008 08/07 Q0993=
202002160920 METAR ESMX 160920Z 17018KT 9000 -RA BKN009 07/07 Q0993=
202002160850 METAR COR ESMX 160850Z 18016KT 9999 -RA SCT010 BKN013 07/07 Q0993=
202002160820 METAR ESMX 160820Z 17016KT 9999 -RA FEW012 BKN018 07/06 Q0994=
202002160750 METAR ESMX 160750Z 17016KT 9999 SCT012 BKN017 07/06 Q0995=
202002160720 METAR ESMX 160720Z 17017KT 9999 BKN013 07/06 Q0996=
202002160650 METAR ESMX 160650Z 18017KT 9999 SCT009 OVC014 07/06 Q0997=
202002160620 METAR COR ESMX 160620Z 19016KT 9999 -RA BKN009 07/06 Q0997=
202002160550 METAR ESMX 160550Z AUTO 18017KT 9000 BKN008/// OVC010/// 07/06 Q0997=
202002160520 METAR ESMX 160520Z AUTO 19020KT 9999 OVC007/// 07/07 Q0998=
202002160450 METAR ESMX 160450Z AUTO 19019KT 9999 OVC006/// 07/07 Q0998 RERA=
202002160420 METAR ESMX 160420Z AUTO 18018KT 5000 BR OVC004/// 06/06 Q0998=
202002160350 METAR ESMX 160350Z AUTO 18017G28KT 4600 DZ SCT002/// OVC005/// 06/06 Q0999 REDZ=
202002160320 METAR ESMX 160320Z AUTO 18018KT 6000 -RA FEW002/// OVC005/// 06/06 Q0999=
202002160250 METAR ESMX 160250Z AUTO 17015KT 7000 -RA OVC005/// 06/06 Q1000=
202002160220 METAR ESMX 160220Z AUTO 18015KT 9999 DZ BKN006/// OVC009/// 06/06 Q1000=
202002160150 METAR ESMX 160150Z AUTO 17017KT 8000 -RA OVC008/// 06/05 Q1001=
202002160120 METAR ESMX 160120Z AUTO 17016KT 9999 -RA BKN008/// OVC011/// 06/05 Q1001=
202002160050 METAR ESMX 160050Z AUTO 17014KT 9999 -DZ BKN008/// OVC011/// 06/05 Q1002=
202002160020 METAR ESMX 160020Z AUTO 17014KT 9999 -RA BKN008/// OVC011/// 06/05 Q1002 REDZ=
202002152350 METAR ESMX 152350Z AUTO 17013KT 9999 -RA BKN007/// OVC010/// 06/05 Q1003 REUP=
202002152320 METAR ESMX 152320Z AUTO 16010KT 9999 BKN007/// OVC009/// 06/05 Q1003=
202002152250 METAR ESMX 152250Z AUTO 17012KT 9999 OVC007/// 06/05 Q1004=
202002152220 METAR ESMX 152220Z AUTO 17012KT 9000 BR OVC006/// 06/06 Q1005=
202002152150 METAR ESMX 152150Z AUTO 17013KT 7000 BR OVC004/// 06/06 Q1005 REDZ=
202002152120 METAR ESMX 152120Z AUTO 17013KT 6000 BR OVC004/// 06/06 Q1006=
202002152050 METAR ESMX 152050Z AUTO 17013KT 130V190 5000 BR OVC002/// 06/06 Q1007=
202002152020 METAR ESMX 152020Z AUTO 17013KT 5000 -RA OVC002/// 05/05 Q1008=
202002151950 METAR ESMX 151950Z AUTO 16010KT 6000 -DZ OVC002/// 05/05 Q1008 REDZ=
202002151920 METAR ESMX 151920Z AUTO 16011KT 4700 DZ OVC002/// 05/05 Q1009 REDZ=
202002151850 METAR ESMX 151850Z AUTO 16011KT 5000 -DZ OVC002/// 05/05 Q1009 REDZ=
202002151820 METAR ESMX 151820Z AUTO 16010KT 1600 -RA OVC001/// 05/05 Q1010 REUP=
202002151750 METAR ESMX 151750Z AUTO 17010KT 4600 BR OVC003/// 05/05 Q1010 REDZ=
202002151720 METAR ESMX 151720Z AUTO 16008KT 5000 BR OVC002/// 05/05 Q1010=
202002151650 METAR ESMX 151650Z AUTO 15007KT 3900 BR OVC001/// 05/05 Q1011=
202002151620 METAR ESMX 151620Z AUTO 15007KT 1000 R01/P2000N R19/P2000N -DZ OVC001/// 05/05 Q1011 RESHUP REUP=
202002151550 METAR ESMX 151550Z AUTO 17008KT 3800 BR OVC002/// 05/05 Q1012 RESHUP REUP=
202002151520 METAR ESMX 151520Z AUTO 17008KT 3600 OVC002/// 05/05 Q1012=
202002151450 METAR ESMX 151450Z AUTO 18008KT 1200 R01/1500U R19/1800U OVC001/// 05/05 Q1012 REUP=
202002151420 METAR ESMX 151420Z AUTO 18008KT 0900 R01/1600D R19/P2000N BR OVC002/// 05/05 Q1012=
202002151350 METAR ESMX 151350Z AUTO 18007KT 4300 BR OVC002/// 05/05 Q1012 REUP=
202002151320 METAR ESMX 151320Z AUTO 20010KT 4700 BR OVC003/// 05/05 Q1012=
202002151250 METAR ESMX 151250Z AUTO 20009KT 4500 BR OVC003/// 05/05 Q1012=
202002151220 METAR ESMX 151220Z AUTO 20010KT 3500 BR OVC002/// 05/05 Q1012=
202002151150 METAR ESMX 151150Z AUTO 20011KT 5000 BR OVC003/// 04/04 Q1012 REUP=
202002151120 METAR ESMX 151120Z AUTO 19011KT 5000 BR OVC003/// 04/04 Q1012 REDZ=
202002151050 METAR ESMX 151050Z AUTO 19011KT 5000 BR OVC003/// 04/04 Q1013=
202002151020 METAR ESMX 151020Z AUTO 19011KT 4600 DZ OVC003/// 04/04 Q1013=
202002150950 METAR ESMX 150950Z AUTO 19012KT 5000 -DZ OVC004/// 04/04 Q1013=
202002150920 METAR ESMX 150920Z AUTO 18011KT 5000 -RA OVC005/// 03/03 Q1013 REDZ=
202002150850 METAR ESMX 150850Z AUTO 18012KT 6000 -RA OVC006/// 03/03 Q1013=
202002150820 METAR ESMX 150820Z AUTO 18013KT 4900 DZ OVC006/// 03/03 Q1013=
202002150750 METAR ESMX 150750Z AUTO 18011KT 5000 DZ OVC005/// 03/03 Q1013=
202002150720 METAR ESMX 150720Z AUTO 18011KT 4700 -RA OVC007/// 03/02 Q1013=
202002150650 METAR ESMX 150650Z AUTO 17014KT 6000 -RA OVC008/// 03/02 Q1013=
202002150620 METAR ESMX 150620Z AUTO 17010KT 9999 -DZ OVC008/// 03/02 Q1014 RESHUP REUP=
202002150550 METAR ESMX 150550Z AUTO 18012KT 9999 OVC008/// 03/02 Q1014=
202002150520 METAR ESMX 150520Z AUTO 18012KT 9999 OVC008/// 02/02 Q1014=
202002150450 METAR ESMX 150450Z AUTO 18013KT 9999 OVC007/// 02/02 Q1014=
202002150420 METAR ESMX 150420Z AUTO 19011KT 9999 OVC007/// 02/02 Q1015=
202002150350 METAR ESMX 150350Z AUTO 18014KT 9999 OVC008/// 02/02 Q1015=
202002150320 METAR ESMX 150320Z AUTO 18013KT 9999 OVC009/// 02/01 Q1016=
202002150250 METAR ESMX 150250Z AUTO 19012KT 9999 OVC009/// 02/01 Q1016=
202002150220 METAR ESMX 150220Z AUTO 18012KT 9999 OVC009/// 02/01 Q1016=
202002150150 METAR ESMX 150150Z AUTO 18012KT 9999 OVC009/// 02/01 Q1017=
202002150120 METAR ESMX 150120Z AUTO 19010KT 9999 OVC007/// 02/01 Q1018=
202002150050 METAR ESMX 150050Z AUTO 18009KT 9999 BKN007/// 02/01 Q1018=
202002150020 METAR ESMX 150020Z AUTO 17008KT 9999 BKN006/// 02/01 Q1018=
202002142350 METAR ESMX 142350Z AUTO 17007KT 9999 OVC005/// 01/01 Q1018=
202002142320 METAR ESMX 142320Z AUTO 16008KT 9999 OVC004/// 01/01 Q1018=
202002142250 METAR ESMX 142250Z AUTO 16007KT 9999 FEW007/// 01/01 Q1018=
202002142220 METAR ESMX 142220Z AUTO 17008KT 9999 NCD 01/00 Q1018=
202002142150 METAR ESMX 142150Z AUTO 18009KT 9999 FEW100/// 01/00 Q1019=
202002142120 METAR ESMX 142120Z AUTO 18009KT 9999 BKN100/// 01/00 Q1019=
202002142050 METAR ESMX 142050Z 18007KT CAVOK 01/M00 Q1019=
202002142020 METAR ESMX 142020Z 18006KT CAVOK 01/M01 Q1019=
202002141950 METAR COR ESMX 141950Z 17004KT CAVOK 00/M02 Q1019=
202002141920 METAR ESMX 141920Z AUTO 17005KT 9999 NCD 00/M02 Q1019=
202002141850 METAR ESMX 141850Z AUTO 17004KT 9999 NCD 00/M02 Q1019=
202002141820 METAR COR ESMX 141820Z 14004KT CAVOK M00/M02 Q1019=
202002141750 METAR ESMX 141750Z VRB02KT CAVOK M00/M02 Q1019=
202002141720 METAR ESMX 141720Z 19003KT CAVOK M00/M02 Q1019=
202002141650 METAR ESMX 141650Z 17003KT CAVOK M00/M02 Q1018=
202002141620 METAR ESMX 141620Z 16002KT CAVOK 01/M02 Q1018=
202002141550 METAR ESMX 141550Z 20003KT CAVOK 03/M02 Q1018=
202002141520 METAR ESMX 141520Z 22005KT 9999 FEW035 04/M02 Q1018=
202002141450 METAR ESMX 141450Z 23003KT 9999 FEW033 05/M01 Q1017=
202002141420 METAR ESMX 141420Z 24004KT 200V300 9999 FEW034 05/M02 Q1017=
202002141350 METAR ESMX 141350Z 27003KT 200V300 9999 SCT031 05/M02 Q1017=
202002141320 METAR ESMX 141320Z 30004KT 270V340 9999 FEW031 06/M01 Q1017=
202002141250 METAR ESMX 141250Z 22005KT 160V260 9999 SCT025 05/M01 Q1016=
202002141220 METAR ESMX 141220Z 23003KT 200V260 9999 SCT022 04/M00 Q1016=
202002141150 METAR ESMX 141150Z 25004KT 210V290 9999 FEW020 05/M00 Q1016=
202002141120 METAR ESMX 141120Z VRB03KT 9999 FEW018 05/00 Q1016=
202002141050 METAR ESMX 141050Z 00000KT CAVOK 04/01 Q1015=
202002141020 METAR ESMX 141020Z 00000KT CAVOK 03/01 Q1015=
202002140950 METAR ESMX 140950Z VRB01KT CAVOK 02/01 Q1014=
202002140920 METAR ESMX 140920Z 02003KT CAVOK 00/M00 Q1014=
202002140850 METAR ESMX 140850Z 36003KT CAVOK M00/M01 Q1014=
202002140820 METAR ESMX 140820Z 00000KT CAVOK M01/M01 Q1013=
202002140750 METAR ESMX 140750Z 00000KT CAVOK M03/M03 Q1013=
202002140720 METAR ESMX 140720Z 00000KT CAVOK M04/M04 Q1012=
202002140650 METAR ESMX 140650Z 00000KT CAVOK M03/M03 Q1012=
202002140620 METAR ESMX 140620Z 00000KT CAVOK M03/M03 Q1012=
202002140550 METAR ESMX 140550Z 03001KT CAVOK M03/M03 Q1011=
202002140520 METAR ESMX 140520Z 02003KT CAVOK M03/M03 Q1011=
202002140450 METAR ESMX 140450Z 00000KT CAVOK M04/M04 Q1010=
202002140420 METAR ESMX 140420Z AUTO 00000KT 9999 NCD M03/M03 Q1010=
202002140350 METAR ESMX 140350Z AUTO 00000KT 9999 NCD M04/M04 Q1010=
202002140320 METAR ESMX 140320Z AUTO 00000KT 9999 NCD M04/M04 Q1009=
202002140250 METAR ESMX 140250Z AUTO 00000KT 9999 NCD M03/M03 Q1009=
202002140220 METAR ESMX 140220Z AUTO 00000KT 9999 NCD M03/M03 Q1009=
202002140150 METAR ESMX 140150Z AUTO 00000KT 9999 NCD M03/M03 Q1008=
202002140120 METAR ESMX 140120Z AUTO 02002KT 9999 NCD M03/M03 Q1008=
202002140050 METAR ESMX 140050Z AUTO 01002KT 9999 NCD M04/M04 Q1008=
202002140020 METAR ESMX 140020Z AUTO 00000KT 9999 NCD M04/M04 Q1008=
202002132350 METAR ESMX 132350Z AUTO 00000KT 9999 NCD M03/M03 Q1007=
202002132320 METAR ESMX 132320Z AUTO 18002KT 9999 NCD M03/M03 Q1007=
202002132250 METAR ESMX 132250Z AUTO 00000KT 9999 FEW026/// M03/M03 Q1007=
202002132220 METAR ESMX 132220Z AUTO 00000KT 9999 BKN025/// M02/M02 Q1007=
202002132150 METAR ESMX 132150Z AUTO 00000KT 9999 SCT024/// M02/M02 Q1007=
202002132120 METAR ESMX 132120Z AUTO 00000KT 9999 NCD M03/M03 Q1006=
202002132050 METAR ESMX 132050Z 00000KT CAVOK M02/M02 Q1006=
202002132020 METAR ESMX 132020Z 00000KT CAVOK M02/M02 Q1006=
202002131950 METAR ESMX 131950Z 16002KT CAVOK M02/M02 Q1005=
202002131920 METAR ESMX 131920Z VRB01KT CAVOK M02/M03 Q1005=
202002131850 METAR ESMX 131850Z VRB02KT CAVOK M01/M01 Q1005=
202002131820 METAR ESMX 131820Z 21004KT CAVOK M01/M02 Q1005=
202002131750 METAR ESMX 131750Z 21005KT CAVOK M01/M02 Q1005=
202002131720 METAR ESMX 131720Z 22005KT CAVOK M00/M02 Q1004=
202002131650 METAR ESMX 131650Z 18005KT CAVOK 01/M01 Q1004=
202002131620 METAR ESMX 131620Z 21004KT CAVOK 01/M01 Q1004=
202002131550 METAR ESMX 131550Z 21004KT CAVOK 01/M01 Q1004=
202002131520 METAR ESMX 131520Z 21005KT 9999 FEW030 03/M01 Q1004=
202002131450 METAR ESMX 131450Z 22008KT 9999 FEW031 04/M02 Q1003=
202002131420 METAR ESMX 131420Z 22008KT 190V250 9999 FEW031 05/M01 Q1003=
202002131350 METAR ESMX 131350Z 24007KT 210V280 9999 FEW031 05/M01 Q1003=
202002131320 METAR ESMX 131320Z 25008KT 200V290 9999 SCT030 05/M00 Q1003=
202002131250 METAR ESMX 131250Z 23008KT 9999 SCT036 04/M00 Q1003=
202002131220 METAR ESMX 131220Z 23009KT 9999 SCT024 04/00 Q1003=
202002131150 METAR ESMX 131150Z 22010KT 9999 SCT021 04/01 Q1003=
202002131120 METAR ESMX 131120Z 25009KT 9999 FEW019 SCT021 04/01 Q1003=
202002131050 METAR ESMX 131050Z 25010KT 9999 BKN021 04/01 Q1003=
202002131020 METAR ESMX 131020Z 26008KT 230V290 9999 BKN017 03/00 Q1002=
202002130950 METAR ESMX 130950Z 27011KT 9999 BKN021 03/01 Q1002=
202002130920 METAR ESMX 130920Z 26009KT 9999 BKN016 03/01 Q1002=
202002130850 METAR ESMX 130850Z 27009KT 9999 BKN013 02/01 Q1002=
202002130820 METAR ESMX 130820Z 26013KT 210V280 9999 BKN013 02/00 Q1002=
202002130750 METAR ESMX 130750Z 24008KT 9999 FEW012 01/00 Q1001=
202002130720 METAR ESMX 130720Z 22006KT 9999 FEW014 01/M00 Q1001=
202002130650 METAR ESMX 130650Z 24006KT 9999 FEW015 01/M00 Q1001=
202002130620 METAR ESMX 130620Z 26009KT 230V300 9999 FEW020 01/M00 Q1000=
202002130550 METAR ESMX 130550Z 25008KT 210V280 9999 FEW030 01/M00 Q1000=
202002130520 METAR COR ESMX 130520Z 26007KT 9999 FEW030 01/M01 Q1000=
202002130450 METAR ESMX 130450Z AUTO 26008KT 9999 SCT032/// 01/M01 Q1000=
202002130420 METAR ESMX 130420Z AUTO 25009KT 9999 SCT033/// 01/M01 Q1000=
202002130350 METAR ESMX 130350Z AUTO 25011KT 9999 NCD 01/M02 Q1000=
202002130320 METAR ESMX 130320Z AUTO 26011KT 9999 NCD 01/M02 Q0999=
202002130250 METAR ESMX 130250Z AUTO 25011KT 9999 NCD 02/M01 Q0999=
202002130220 METAR ESMX 130220Z AUTO 26010KT 9999 NCD 02/M01 Q0998=
202002130150 METAR ESMX 130150Z AUTO 26011KT 9999 FEW030/// 02/M01 Q0998=
202002130120 METAR ESMX 130120Z AUTO 26011KT 9999 SCT030/// 02/M01 Q0997=
202002130050 METAR ESMX 130050Z AUTO 25012KT 9999 FEW029/// 02/M01 Q0997 RESHUP=
202002130020 METAR ESMX 130020Z AUTO 24011KT 9999 UP FEW012/// SCT032/// 03/M00 Q0997 REUP=
202002122350 METAR ESMX 122350Z AUTO 25009KT 9999 FEW042/// 03/M00 Q0996=
202002122320 METAR ESMX 122320Z AUTO 24010KT 9999 BKN043/// 03/00 Q0996=
202002122250 METAR ESMX 122250Z AUTO 25009KT 210V280 9999 OVC040/// 03/M00 Q0996=
202002122220 METAR ESMX 122220Z AUTO 26012KT 9999 FEW025/// BKN043/// 04/00 Q0995 RESHUP=
202002122150 METAR ESMX 122150Z AUTO 26013KT 9999 FEW023/// OVC037/// 04/00 Q0995 REUP=
202002122120 METAR ESMX 122120Z AUTO 25013KT 9999 FEW026/// OVC040/// 04/01 Q0994=
202002122050 METAR ESMX 122050Z 25015KT 9999 SCT041 04/01 Q0993=
202002122020 METAR ESMX 122020Z 24013KT 9999 FEW024 BKN038 04/01 Q0993=
202002121950 METAR ESMX 121950Z 26013KT 9999 BKN025 04/01 Q0993=
202002121920 METAR ESMX 121920Z 26015KT 9999 BKN025 04/01 Q0993=
202002121850 METAR ESMX 121850Z 25014G24KT 9999 BKN026 04/01 Q0992=
202002121820 METAR ESMX 121820Z 25014KT 210V280 9999 FEW025 BKN036 04/01 Q0992=
202002121750 METAR ESMX 121750Z 26011KT 9999 FEW028 BKN037 04/01 Q0991=
202002121720 METAR ESMX 121720Z 24012KT 9999 BKN025 04/01 Q0991=
202002121650 METAR ESMX 121650Z 25010KT 220V280 9999 SCT021 04/01 Q0990=
202002121620 METAR ESMX 121620Z 25011G22KT 9999 SCT025 04/01 Q0990=
202002121550 METAR COR ESMX 121550Z 23011KT 200V270 9999 SCT021 04/02 Q0990=
202002121520 METAR ESMX 121520Z 24013KT 9999 SCT018 04/02 Q0989=
202002121450 METAR ESMX 121450Z 25015KT 9999 BKN021 05/02 Q0989=
202002121420 METAR ESMX 121420Z 25012KT 9999 BKN020 05/02 Q0988=
202002121350 METAR ESMX 121350Z 24012KT 200V270 9999 BKN021 05/02 Q0988=
202002121320 METAR COR ESMX 121320Z 24014KT 210V280 9999 BKN021 05/02 Q0987=
202002121250 METAR ESMX 121250Z 23013KT 9999 SCT020 BKN037 04/02 Q0987=
202002121220 METAR ESMX 121220Z 24013G23KT 9999 SCT018 BKN032 04/03 Q0987=
202002121150 METAR ESMX 121150Z 23013G24KT 210V280 9999 -SHRA BKN014 03/02 Q0987=
202002121120 METAR ESMX 121120Z 24012KT 210V280 9999 BKN013 04/02 Q0986=
202002121050 METAR ESMX 121050Z 22010KT 200V260 9999 BKN011 04/03 Q0986=
202002121020 METAR ESMX 121020Z 23012KT 9999 BKN009 03/03 Q0985=
202002120950 METAR ESMX 120950Z 23012KT 8000 -DZ BR OVC007 03/03 Q0985=
202002120920 METAR ESMX 120920Z 20013KT 9000 -RASN BR BKN006 03/02 Q0985=
202002120850 METAR ESMX 120850Z 21011KT 8000 -RA BR BKN007 03/02 Q0985=
202002120820 METAR ESMX 120820Z 22013KT 8000 -RASN OVC007 02/02 Q0985=
202002120750 METAR ESMX 120750Z 21014KT 7000 -RA OVC006 02/02 Q0984=
202002120720 METAR ESMX 120720Z 20015KT 7000 -RASN OVC006 02/02 Q0984=
202002120650 METAR ESMX 120650Z 20015KT 5000 SHRASN SCT005 BKN007 02/02 Q0984=
202002120620 METAR ESMX 120620Z 21015KT 8000 -RASN BKN006 02/02 Q0984=
202002120550 METAR ESMX 120550Z 20013KT 9999 -RASN SCT008 BKN009 02/02 Q0985=
202002120520 METAR ESMX 120520Z 20014KT 9999 -RA FEW006 BKN014 02/01 Q0985 RESHRASN=
202002120450 METAR ESMX 120450Z 21012KT 9999 -DZ FEW006 BKN013 03/01 Q0985=
202002120420 METAR ESMX 120420Z AUTO 23012KT 9999 BKN016/// OVC022/// 03/01 Q0985=
202002120350 METAR ESMX 120350Z AUTO 23013KT 9999 BKN017/// OVC024/// 03/01 Q0985=
202002120320 METAR ESMX 120320Z AUTO 23012KT 9999 BKN019/// BKN024/// OVC031/// 03/01 Q0985=
202002120250 METAR ESMX 120250Z AUTO 22013KT 9999 SCT015/// OVC024/// 03/01 Q0985=
202002120220 METAR ESMX 120220Z AUTO 23011KT 9999 BKN016/// OVC021/// 03/01 Q0985=
202002120150 METAR ESMX 120150Z AUTO 24012KT 9999 SCT018/// OVC037/// 03/01 Q0985 RESHUP REUP=
202002120120 METAR ESMX 120120Z AUTO 24011KT 9999 BKN019/// OVC031/// 03/01 Q0985=
202002120050 METAR ESMX 120050Z AUTO 23011KT 200V260 9999 SCT017/// BKN024/// OVC033/// 03/01 Q0984=
202002120020 METAR ESMX 120020Z AUTO 25012G22KT 210V280 9999 SCT019/// OVC030/// 03/02 Q0984=
202002112350 METAR ESMX 112350Z AUTO 25013G24KT 210V280 9999 SCT015/// BKN022/// OVC031/// 03/02 Q0984=
202002112320 METAR ESMX 112320Z AUTO 25012KT 210V280 9999 FEW012/// SCT015/// BKN018/// 03/02 Q0984=
202002112250 METAR ESMX 112250Z AUTO 26012KT 9999 FEW011/// SCT014/// BKN017/// 03/02 Q0984 RERA=
202002112220 METAR ESMX 112220Z AUTO 26013G23KT 9999 -RA FEW009/// SCT013/// BKN020/// 03/03 Q0983 RERA=
202002112150 METAR ESMX 112150Z AUTO 25013KT 9000 -RA BKN008/// OVC010/// 03/03 Q0983=
202002112120 METAR ESMX 112120Z AUTO 25011KT 9999 DZ OVC009/// 03/02 Q0982 RERA=
202002112050 METAR ESMX 112050Z AUTO 24012KT 210V270 9999 OVC009/// 03/02 Q0982=
202002112020 METAR ESMX 112020Z AUTO 24010KT 9999 -DZ BKN012/// OVC021/// 03/02 Q0982 RERA=
202002111950 METAR ESMX 111950Z 25011KT 9000 -RADZ BKN008 OVC015 03/03 Q0981 RERA=
202002111920 METAR ESMX 111920Z 24009KT 9999 OVC007 03/02 Q0980 RERA=
202002111850 METAR ESMX 111850Z AUTO 24009KT 9999 BKN009/// BKN011/// OVC028/// 03/02 Q0980=
202002111820 METAR ESMX 111820Z 23010KT 9999 -RA FEW006 BKN010 OVC014 03/02 Q0980 REDZ=
202002111750 METAR ESMX 111750Z 23008KT 9999 -RADZ BKN008 OVC010 03/02 Q0980=
202002111720 METAR ESMX 111720Z 23008KT 4900 -DZRA BKN007 03/02 Q0979=
202002111650 METAR ESMX 111650Z 22006KT 7000 RA SCT007 BKN016 02/02 Q0979=
202002111620 METAR ESMX 111620Z 22008KT 9000 RA SCT007 BKN009 03/02 Q0979=
202002111550 METAR ESMX 111550Z 24009KT 9999 -SHRA FEW006CB BKN010 03/02 Q0979=
202002111520 METAR ESMX 111520Z 24009KT 9999 -SHRA FEW008CB BKN011 03/02 Q0979=
202002111450 METAR ESMX 111450Z 24010KT 9999 -SHRA SCT007 BKN011 03/02 Q0978=
202002111420 METAR ESMX 111420Z 24011KT 210V270 9999 SCT009 BKN012 03/02 Q0978=
202002111350 METAR ESMX 111350Z 23011KT 200V270 9999 BKN008 03/02 Q0978=
202002111320 METAR ESMX 111320Z 21011KT 6000 -RA BKN008 03/03 Q0977=
202002111250 METAR ESMX 111250Z 20011KT 9000 -RADZ BR BKN007 03/02 Q0977=
202002111220 METAR ESMX 111220Z 19011KT 8000 -RADZ BR BKN009 03/02 Q0977=
202002111150 METAR ESMX 111150Z 18009KT 9999 -RA BKN010 03/02 Q0977=
202002111120 METAR ESMX 111120Z 20011KT 9999 FEW005 BKN010 03/01 Q0978=
202002111050 METAR ESMX 111050Z 22012KT 9999 BKN011 03/01 Q0978=
202002111020 METAR ESMX 111020Z 21011KT 9999 BKN009 03/02 Q0978=
202002110950 METAR ESMX 110950Z 21013KT 9999 BKN009 03/02 Q0978=
202002110920 METAR ESMX 110920Z 21012KT 9999 BKN010 02/02 Q0978=
202002110850 METAR ESMX 110850Z 21011KT 9999 BKN011 02/02 Q0978=
202002110820 METAR ESMX 110820Z 22010KT 9999 FEW007 BKN011 02/01 Q0977=
202002110750 METAR ESMX 110750Z 23010KT 9000 -RA BKN006 02/01 Q0977=
202002110720 METAR ESMX 110720Z 23010KT 5000 -RA BR BKN005 01/01 Q0977=
202002110650 METAR ESMX 110650Z 22011KT 9999 -RASN BKN009 01/01 Q0977=
202002110620 METAR COR ESMX 110620Z 23011KT 9999 BKN009 01/01 Q0977=
202002110550 METAR ESMX 110550Z 23011KT 6000 -RASN BKN005 01/01 Q0977=
202002110520 METAR ESMX 110520Z 23009KT 9999 -SN BKN006 01/01 Q0977=
202002110450 METAR ESMX 110450Z 22010KT 9999 -SN FEW004 BKN007 01/01 Q0977=
202002110420 METAR ESMX 110420Z AUTO 24011KT 9999 OVC006/// 01/01 Q0977=
202002110350 METAR ESMX 110350Z AUTO 22012KT 9999 FEW002/// BKN005/// OVC016/// 01/01 Q0977=
202002110320 METAR ESMX 110320Z AUTO 22011KT 7000 -SN BKN006/// OVC009/// 01/01 Q0976 RESHUP RESN=
202002110250 METAR ESMX 110250Z AUTO 23011KT 9999 OVC006/// 01/01 Q0976 RESHUP=
202002110220 METAR ESMX 110220Z AUTO 22011KT 9000 -SN OVC005/// 01/01 Q0976 RESHUP=
202002110150 METAR ESMX 110150Z AUTO 20010KT 9999 UP OVC005/// 01/01 Q0977 RESN=
202002110120 METAR ESMX 110120Z AUTO 21010KT 3300 -SN BKN005/// OVC009/// 01/01 Q0977=
202002110050 METAR ESMX 110050Z AUTO 20009KT 9999 BR BKN005/// OVC009/// 01/01 Q0977=
202002110020 METAR ESMX 110020Z AUTO 21010KT 9999 -RA SCT006/// BKN015/// 02/01 Q0977 REDZ RESHUP=
202002102350 METAR ESMX 102350Z AUTO 22012KT 9999 -RA BKN013/// BKN030/// 02/01 Q0977 RESHUP REUP=
202002102320 METAR ESMX 102320Z AUTO 21010KT 9999 BKN015/// 02/01 Q0977 REUP=
202002102250 METAR ESMX 102250Z AUTO 21015KT 9999 SCT014/// BKN020/// 03/01 Q0977=
202002102220 METAR ESMX 102220Z AUTO 22012KT 190V250 9999 SCT018/// BKN030/// 03/01 Q0977=
202002102150 METAR ESMX 102150Z AUTO 23012KT 210V270 9999 SCT018/// BKN024/// 03/01 Q0977=
202002102120 METAR ESMX 102120Z AUTO 22014KT 9999 SCT017/// BKN040/// OVC049/// 03/01 Q0977=
202002102050 METAR ESMX 102050Z AUTO 23013KT 170V270 9999 BKN020/// OVC051/// 03/01 Q0977=
202002102020 METAR ESMX 102020Z AUTO 23013KT 200V260 9999 FEW021/// BKN032/// 04/01 Q0977=
202002101950 METAR ESMX 101950Z 23016KT 9999 BKN020 04/01 Q0977=
202002101920 METAR ESMX 101920Z 25015G28KT 9999 BKN025 04/01 Q0977=
202002101850 METAR ESMX 101850Z 23010KT 9999 BKN027 04/01 Q0977=
202002101820 METAR ESMX 101820Z 24014KT 9999 BKN023 04/01 Q0977=
202002101750 METAR ESMX 101750Z 23013G23KT 200V260 9999 -SHRA SCT019 BKN035 04/02 Q0976=
202002101720 METAR ESMX 101720Z 23015G30KT 9999 -RA SCT019 BKN029 04/02 Q0976=
202002101650 METAR ESMX 101650Z 25014KT 9999 SCT021 BKN039 04/02 Q0976=
202002101620 METAR ESMX 101620Z 25012KT 9999 FEW027 BKN035 04/02 Q0975=
202002101550 METAR ESMX 101550Z 25015G26KT 9999 SCT013 BKN021 04/03 Q0974=
202002101520 METAR ESMX 101520Z 24013KT 9999 -RA BKN013 04/03 Q0974=
202002101450 METAR ESMX 101450Z 25015G27KT 210V280 9999 BKN011 05/03 Q0973=
202002101420 METAR ESMX 101420Z 25013KT 210V270 7000 -SHRA FEW008CB BKN011 04/04 Q0973=
202002101350 METAR ESMX 101350Z 25015G26KT 9999 -SHRA BKN013 05/04 Q0972=
202002101320 METAR ESMX 101320Z 24015G25KT 210V280 9999 -SHRA SCT010CB BKN016 05/04 Q0971=
202002101250 METAR ESMX 101250Z 23012KT 200V260 9000 -RA FEW009 BKN012 05/04 Q0971=
202002101220 METAR ESMX 101220Z 26013KT 9000 -SHRA BKN012CB 04/04 Q0971 RESHRA=
202002101150 METAR ESMX 101150Z 23014KT 5000 -SHRA BKN011 05/04 Q0970=
202002101120 METAR ESMX 101120Z 22013KT 190V270 9999 -SHRA BKN013 05/04 Q0970=
202002101050 METAR ESMX 101050Z 22015KT 9999 BKN011 05/04 Q0970=
202002101020 METAR ESMX 101020Z 23016KT 9000 -SHRA BKN012 05/04 Q0969=
202002100950 METAR ESMX 100950Z 22017KT 9999 -RA BKN017 06/04 Q0969=
202002100920 METAR ESMX 100920Z 23017KT 9999 BKN018 06/04 Q0968=
202002100850 METAR ESMX 100850Z 23016G27KT 9999 -RA BKN019 06/04 Q0968=
202002100820 METAR ESMX 100820Z 23015KT 9999 BKN020 06/04 Q0968=
202002100750 METAR ESMX 100750Z 22015KT 9999 FEW017 BKN020 06/04 Q0968=
202002100720 METAR ESMX 100720Z 23016KT 200V260 9999 BKN019 06/04 Q0968=
202002100650 METAR ESMX 100650Z 23015G27KT 9999 -RA SCT018 BKN028 06/04 Q0967=
202002100620 METAR ESMX 100620Z 23014KT 9999 SCT024 BKN036 06/04 Q0967=
202002100550 METAR ESMX 100550Z 22015G26KT 9999 SCT018 BKN041 06/05 Q0968=
202002100520 METAR ESMX 100520Z 22013KT 9999 SCT013 BKN016 06/05 Q0968=
202002100450 METAR ESMX 100450Z 21015KT 9999 BKN010 06/06 Q0968=
202002100420 METAR ESMX 100420Z AUTO 20016G27KT 9000 DZ BKN009/// BKN018/// OVC031/// 07/06 Q0968=
202002100350 METAR ESMX 100350Z AUTO 19014KT 9999 SCT009/// BKN011/// OVC019/// 06/06 Q0968 RERA=
202002100320 METAR ESMX 100320Z AUTO 19013KT 9999 FEW007/// BKN010/// OVC017/// 06/06 Q0968=
202002100250 METAR ESMX 100250Z AUTO 20013KT 7000 -RA FEW002/// BKN006/// OVC008/// 06/06 Q0968=
202002100220 METAR ESMX 100220Z AUTO 18015KT 8000 BR FEW002/// BKN007/// OVC011/// 06/06 Q0969=
202002100150 METAR ESMX 100150Z AUTO 19015KT 9999 -DZ FEW006/// BKN010/// OVC012/// 07/06 Q0969=
202002100120 METAR ESMX 100120Z AUTO 20013KT 9999 BKN011/// BKN016/// OVC018/// 07/06 Q0970=
202002100050 METAR ESMX 100050Z AUTO 19014KT 9999 -RA BKN009/// BKN010/// OVC012/// 07/07 Q0970=
202002100020 METAR ESMX 100020Z AUTO 20013KT 9999 -RA BKN011/// OVC027/// 07/07 Q0971 RERA=
202002092350 METAR ESMX 092350Z AUTO 22018G29KT 6000 -RA FEW009/// SCT014/// BKN019/// 08/07 Q0971=
202002092320 METAR ESMX 092320Z AUTO 19021G34KT 9999 -RA OVC011/// 08/07 Q0971 RESHUP REDZ=
202002092250 METAR ESMX 092250Z AUTO 18021G31KT 9999 OVC010/// 08/07 Q0971=
202002092220 METAR ESMX 092220Z AUTO 18023KT 9999 -DZ OVC009/// 08/07 Q0972=
202002092150 METAR ESMX 092150Z AUTO 18022KT 9999 -DZ FEW002/// BKN009/// OVC010/// 08/07 Q0973=
202002092120 METAR ESMX 092120Z AUTO 18024KT 9999 -RA OVC010/// 08/07 Q0974=
202002092050 METAR ESMX 092050Z AUTO 18021KT 9999 -RA BKN009/// OVC013/// 07/07 Q0976=
202002092020 METAR ESMX 092020Z AUTO 18020KT 9999 -RA BKN011/// OVC022/// 07/06 Q0977 RERASN=
202002091950 METAR ESMX 091950Z AUTO 17023G37KT 5000 RA BKN011/// BKN024/// OVC032/// 07/06 Q0978 RERA=
202002091920 METAR ESMX 091920Z 18017KT 5000 RA FEW002 BKN009 06/06 Q0979=
202002091850 METAR ESMX 091850Z 17019KT 7000 RA SCT012 BKN015 06/06 Q0980 RESHRA=
202002091820 METAR ESMX 091820Z 16019KT 8000 SHRA BKN014 06/06 Q0981=
202002091750 METAR ESMX 091750Z 17019G31KT 5000 SHRA BKN009 06/06 Q0983=
202002091720 METAR ESMX 091720Z 17018G29KT 4500 RA BKN009 06/06 Q0984 RESHRA=
202002091650 METAR ESMX 091650Z 17019G32KT 5000 RA BKN008 06/05 Q0985 RESHRA=
202002091620 METAR ESMX 091620Z 17020G32KT 3900 SHRA FEW002 BKN007 05/05 Q0987=
202002091550 METAR ESMX 091550Z 17019KT 3000 RA FEW002 BKN010 05/05 Q0987 RESHRA=
202002091520 METAR ESMX 091520Z 16019G31KT 5000 SHRA BR BKN013 05/05 Q0988=
202002091450 METAR ESMX 091450Z 16021KT 8000 SHRA BR BKN015 06/04 Q0990=
202002091420 METAR ESMX 091420Z AUTO 17019G32KT 9999 -RA BKN015/// BKN021/// OVC031/// 06/04 Q0991 REDZ=
202002091350 METAR ESMX 091350Z AUTO 17019G30KT 9999 -RA OVC015/// 06/05 Q0992=
202002091320 METAR ESMX 091320Z 17017KT 9999 -SHRA BKN016 07/04 Q0993=
202002091250 METAR ESMX 091250Z 18019KT 9999 BKN017 07/04 Q0994=
202002091220 METAR ESMX 091220Z 17017KT 9999 BKN016 07/05 Q0996=
202002091150 METAR ESMX 091150Z 16018KT 9999 BKN014 07/04 Q0997=
202002091120 METAR ESMX 091120Z 16017KT 9999 BKN013 06/05 Q0999=
202002091050 METAR COR ESMX 091050Z 17015KT 9999 OVC013 06/05 Q1000=
202002091020 METAR ESMX 091020Z 17018KT 9999 OVC012 06/04 Q1002=
202002090950 METAR ESMX 090950Z 17019KT 9999 OVC012 06/04 Q1002=
202002090920 METAR ESMX 090920Z 17016G26KT 9999 BKN013 06/04 Q1003=
202002090850 METAR ESMX 090850Z AUTO 17014KT 9999 OVC012/// 06/04 Q1004=
202002090820 METAR ESMX 090820Z 17014KT 9999 BKN011 05/04 Q1006=
202002090750 METAR COR ESMX 090750Z 17011KT 9999 SCT010 BKN015 05/04 Q1007=
202002090720 METAR ESMX 090720Z 18011KT 9999 BKN009 05/04 Q1007=
202002090650 METAR ESMX 090650Z 20012KT 9999 OVC009 05/04 Q1008=
202002090620 METAR ESMX 090620Z 19011KT 9999 BKN010 05/04 Q1009=
202002090550 METAR ESMX 090550Z AUTO 19010KT 9999 BKN011/// OVC014/// 05/04 Q1009=
202002090520 METAR ESMX 090520Z AUTO 19009KT 9000 BR BKN011/// OVC016/// 05/04 Q1009=
202002090450 METAR ESMX 090450Z AUTO 20009KT 9000 BR SCT009/// BKN011/// OVC015/// 05/04 Q1010=
202002090420 METAR ESMX 090420Z AUTO 20009KT 7000 BR FEW008/// SCT010/// BKN014/// 05/04 Q1010=
202002090350 METAR ESMX 090350Z AUTO 22009KT 6000 BR OVC007/// 05/04 Q1010=
202002090320 METAR ESMX 090320Z AUTO 22010KT 5000 BR OVC004/// 04/04 Q1010 RERA=
202002090250 METAR ESMX 090250Z AUTO 20009KT 3500 BR OVC003/// 04/04 Q1010=
202002090220 METAR ESMX 090220Z AUTO 19011KT 3300 -RA OVC003/// 04/04 Q1010=
202002090150 METAR ESMX 090150Z AUTO 19010KT 5000 DZ OVC004/// 04/04 Q1011 REUP=
202002090120 METAR ESMX 090120Z AUTO 19011KT 6000 BR OVC006/// 04/04 Q1011=
202002090050 METAR ESMX 090050Z AUTO 18010KT 7000 BR OVC008/// 04/03 Q1011 REUP=
202002090020 METAR ESMX 090020Z AUTO 18008KT 7000 BR BKN009/// OVC011/// 04/03 Q1012 RESHUP REUP=
202002082350 METAR ESMX 082350Z AUTO 17009KT 7000 UP FEW008/// SCT010/// OVC015/// 03/03 Q1012 REUP=
202002082320 METAR ESMX 082320Z AUTO 18009KT 7000 BR OVC007/// 03/03 Q1012=
202002082250 METAR ESMX 082250Z AUTO 17009KT 8000 BR OVC010/// 03/02 Q1013=
202002082220 METAR ESMX 082220Z AUTO 19008KT 8000 BR OVC009/// 03/02 Q1013=
202002082150 METAR ESMX 082150Z AUTO 18008KT 8000 BR BKN011/// OVC014/// 02/02 Q1014=
202002082120 METAR ESMX 082120Z AUTO 18008KT 8000 BR BKN012/// OVC062/// 02/01 Q1014=
202002082050 METAR ESMX 082050Z AUTO 18007KT 8000 BR FEW024/// SCT062/// 02/01 Q1014=
202002082020 METAR ESMX 082020Z AUTO 18008KT 8000 BR BKN055/// BKN160/// 02/01 Q1014=
202002081950 METAR ESMX 081950Z AUTO 17008KT 8000 BR SCT008/// BKN010/// 02/01 Q1015=
202002081920 METAR ESMX 081920Z AUTO 17008KT 7000 BR BKN007/// 02/02 Q1015=
202002081850 METAR ESMX 081850Z AUTO 17008KT 7000 BR OVC007/// 02/02 Q1015=
202002081820 METAR ESMX 081820Z AUTO 17008KT 9000 BR OVC007/// 02/02 Q1016=
202002081750 METAR ESMX 081750Z AUTO 16007KT 9999 SCT008/// 02/02 Q1016=
202002081720 METAR ESMX 081720Z AUTO 16007KT 9999 SCT012/// 02/02 Q1016=
202002081650 METAR ESMX 081650Z AUTO 16007KT 9999 BKN012/// 03/02 Q1016=
202002081620 METAR ESMX 081620Z AUTO 16006KT 9999 FEW014/// 03/02 Q1016=
202002081550 METAR ESMX 081550Z AUTO 17007KT 9999 BKN014/// 04/02 Q1016=
202002081520 METAR ESMX 081520Z AUTO 17008KT 9999 OVC014/// 04/02 Q1017=
202002081450 METAR ESMX 081450Z AUTO 17009KT 9999 OVC014/// 04/02 Q1017=
202002081420 METAR ESMX 081420Z AUTO 17008KT 9999 OVC014/// 04/02 Q1017=
202002081350 METAR ESMX 081350Z AUTO 18008KT 140V200 9999 BKN015/// 04/02 Q1017=
202002081320 METAR ESMX 081320Z AUTO 16008KT 9999 FEW015/// 05/02 Q1017=
202002081250 METAR ESMX 081250Z AUTO 18011KT 140V200 9999 BKN014/// 05/02 Q1017=
202002081220 METAR ESMX 081220Z AUTO 19010KT 9999 OVC014/// 04/02 Q1018=
202002081150 METAR ESMX 081150Z AUTO 19008KT 9999 OVC013/// 04/02 Q1019=
202002081120 METAR ESMX 081120Z AUTO 19012KT 9999 OVC011/// 04/02 Q1019=
202002081050 METAR ESMX 081050Z AUTO 18011KT 9999 OVC010/// 03/02 Q1019=
202002081020 METAR ESMX 081020Z AUTO 18013KT 9999 OVC009/// 03/02 Q1020=
202002080950 METAR ESMX 080950Z AUTO 18009KT 9999 OVC008/// 03/02 Q1020=
202002080920 METAR ESMX 080920Z AUTO 19008KT 9999 OVC007/// 03/03 Q1020=
202002080850 METAR ESMX 080850Z AUTO 18008KT 9999 OVC006/// 03/02 Q1020=
202002080820 METAR ESMX 080820Z AUTO 19008KT 9999 OVC005/// 03/02 Q1020=
202002080750 METAR ESMX 080750Z AUTO 19011KT 9999 OVC005/// 02/02 Q1021=
202002080720 METAR ESMX 080720Z AUTO 18008KT 9999 OVC004/// 02/02 Q1021=
202002080650 METAR ESMX 080650Z AUTO 19009KT 9999 OVC005/// 02/02 Q1021=
202002080620 METAR ESMX 080620Z AUTO 18007KT 140V210 9000 BR OVC004/// 02/02 Q1021=
202002080550 METAR ESMX 080550Z AUTO 20008KT 9999 BR SCT003/// OVC005/// 02/02 Q1021=
202002080520 METAR ESMX 080520Z AUTO 20006KT 9000 BR OVC005/// 02/02 Q1022=
202002080450 METAR ESMX 080450Z AUTO 22009KT 9999 OVC003/// 02/02 Q1022=
202002080420 METAR ESMX 080420Z AUTO 21007KT 6000 BR BKN002/// OVC003/// 02/02 Q1022=
202002080350 METAR ESMX 080350Z AUTO 19007KT 4700 BR OVC002/// 02/02 Q1022=
202002080320 METAR ESMX 080320Z AUTO 20007KT 5000 BR BKN002/// OVC004/// 02/02 Q1022=
202002080250 METAR ESMX 080250Z AUTO 21008KT 6000 BR OVC002/// 02/02 Q1022=
202002080220 METAR ESMX 080220Z AUTO 20010KT 7000 BR OVC002/// 02/02 Q1023=
202002080150 METAR ESMX 080150Z AUTO 22009KT 7000 BR OVC002/// 02/02 Q1023=
202002080120 METAR ESMX 080120Z AUTO 21008KT 5000 BR OVC002/// 02/02 Q1023=
202002080050 METAR ESMX 080050Z AUTO 20008KT 5000 BR OVC002/// 02/02 Q1023=
202002080020 METAR ESMX 080020Z AUTO 18009KT 8000 BR OVC002/// 02/02 Q1024=
202002072350 METAR ESMX 072350Z AUTO 20007KT 6000 BR OVC002/// 02/02 Q1024=
202002072320 METAR ESMX 072320Z AUTO 20008KT 9999 OVC003/// 03/03 Q1025=
202002072250 METAR ESMX 072250Z AUTO 20009KT 9999 OVC002/// 03/03 Q1025=
202002072220 METAR ESMX 072220Z AUTO 21008KT 7000 BR OVC003/// 03/03 Q1025=
202002072150 METAR ESMX 072150Z AUTO 21007KT 9999 OVC004/// 03/03 Q1025=
202002072120 METAR ESMX 072120Z AUTO 21009KT 9999 OVC002/// 03/03 Q1025=
202002072050 METAR ESMX 072050Z 21008KT 9999 OVC002 03/03 Q1025=
202002072020 METAR ESMX 072020Z 21007KT 3600 BR OVC002 03/03 Q1026=
202002071950 METAR ESMX 071950Z 21007KT 2600 BR OVC002 03/03 Q1026=
202002071920 METAR ESMX 071920Z AUTO 20006KT 2300 BR OVC001/// 03/03 Q1026=
202002071850 METAR ESMX 071850Z AUTO 22006KT 2500 BR OVC001/// 02/02 Q1026=
202002071820 METAR ESMX 071820Z 20007KT 4000 BR OVC002 02/02 Q1026=
202002071750 METAR ESMX 071750Z 21006KT 190V250 3500 BR OVC002 02/02 Q1026=
202002071720 METAR ESMX 071720Z 21009KT 4500 BR OVC002 02/02 Q1027=
202002071650 METAR ESMX 071650Z 22009KT 8000 BR OVC002 02/02 Q1027=
202002071620 METAR ESMX 071620Z 21008KT 9999 OVC003 02/02 Q1027=
202002071550 METAR ESMX 071550Z 21007KT 9999 BKN004 03/03 Q1027=
202002071520 METAR ESMX 071520Z 21007KT 9999 BKN007 03/03 Q1027=
202002071450 METAR ESMX 071450Z 22007KT 9999 OVC007 04/03 Q1027=
202002071420 METAR ESMX 071420Z 21009KT 9999 OVC007 04/03 Q1027=
202002071350 METAR ESMX 071350Z 21007KT 180V240 9999 OVC008 04/03 Q1028=
202002071320 METAR ESMX 071320Z 20009KT 9999 BKN008 04/03 Q1028=
202002071250 METAR ESMX 071250Z 19009KT 9999 BKN007 04/03 Q1028=
202002071220 METAR ESMX 071220Z 21007KT 9999 OVC006 04/03 Q1028=
202002071150 METAR ESMX 071150Z 20008KT 9999 OVC006 04/03 Q1028=
202002071120 METAR ESMX 071120Z 19008KT 9999 BKN005 03/03 Q1029=
202002071050 METAR ESMX 071050Z 19008KT 9999 BKN003 03/03 Q1029=
202002071020 METAR ESMX 071020Z 20007KT 9999 OVC002 03/03 Q1029=
202002070950 METAR COR ESMX 070950Z 19006KT 9999 OVC003 02/02 Q1029=
202002070920 METAR ESMX 070920Z 16005KT 9999 OVC002 02/02 Q1029=
202002070850 METAR ESMX 070850Z 16005KT 3800 BR OVC001 02/02 Q1029=
202002070820 METAR ESMX 070820Z 17004KT 1100 R01/1400D R19/P2000N OVC002 02/02 Q1029=
202002070750 METAR ESMX 070750Z 17005KT 2100 BR OVC002 01/01 Q1028=
202002070720 METAR ESMX 070720Z 17003KT 0400 R01/P2000N R19/0900N OVC002 01/01 Q1028=
202002070650 METAR ESMX 070650Z 16003KT 0450 R01/1000D R19/1100N FG OVC001 01/01 Q1028=
202002070620 METAR ESMX 070620Z 19003KT 0350 R01/1000N R19/1000N FG OVC001 01/01 Q1028=
202002070550 METAR ESMX 070550Z 19002KT 0300 R01/0900N R19/1100N FG OVC001 01/01 Q1028=
202002070520 METAR ESMX 070520Z 00000KT 0500 R01/1400N R19/P2000N FG OVC002 00/00 Q1028=
202002070450 METAR ESMX 070450Z 00000KT 2300 BR OVC002 01/01 Q1028=
202002070420 METAR ESMX 070420Z AUTO VRB02KT 9000 BR OVC002/// 01/01 Q1028=
202002070350 METAR ESMX 070350Z AUTO 00000KT 9000 OVC001/// 00/00 Q1028=
202002070320 METAR ESMX 070320Z AUTO 19003KT 1300 R01/P2000N R19/P2000N OVC014/// 00/00 Q1028=
202002070250 METAR ESMX 070250Z AUTO 22003KT 0650 R01/1600U R19/P2000N FG OVC012/// 00/00 Q1028=
202002070220 METAR ESMX 070220Z AUTO 00000KT 0500 R01/1300U R19/P2000N FG FEW001/// OVC011/// 01/01 Q1027=
202002070150 METAR ESMX 070150Z AUTO VRB02KT 0350 R01/1100D R19/1400D FG OVC001/// 01/01 Q1027=
202002070120 METAR ESMX 070120Z AUTO 05003KT 020V090 0350 R01/1200D R19/1100D FG OVC001/// 01/01 Q1027=
202002070050 METAR ESMX 070050Z AUTO 08004KT 050V120 0400 R01/1200N R19/1200U FG BKN001/// OVC003/// 01/01 Q1026=
202002070020 METAR ESMX 070020Z AUTO 09004KT 050V150 0250 R01/0800N R19/0900N FG VV002 00/00 Q1026=
202002062350 METAR ESMX 062350Z AUTO 05003KT 020V080 9999 SCT002/// BKN004/// M00/M00 Q1026=
202002062320 METAR ESMX 062320Z AUTO 00000KT 9000 NCD M02/M02 Q1025=
202002062250 METAR ESMX 062250Z AUTO 00000KT 9999 NCD M02/M02 Q1025=
202002062220 METAR ESMX 062220Z AUTO 00000KT 6000 NCD M01/M01 Q1025=
202002062150 METAR ESMX 062150Z AUTO 00000KT 9999 NCD M01/M01 Q1024=
202002062120 METAR ESMX 062120Z 00000KT CAVOK M01/M01 Q1024=
202002062050 METAR ESMX 062050Z 00000KT CAVOK 00/00 Q1024=
202002062020 METAR ESMX 062020Z 00000KT CAVOK M00/M00 Q1023=
202002061950 METAR ESMX 061950Z 00000KT CAVOK M01/M01 Q1023=
202002061920 METAR ESMX 061920Z 00000KT CAVOK 00/00 Q1022=
202002061850 METAR ESMX 061850Z 00000KT CAVOK M00/M00 Q1022=
202002061820 METAR ESMX 061820Z 00000KT CAVOK 01/01 Q1021=
202002061750 METAR ESMX 061750Z 00000KT CAVOK 01/01 Q1021=
202002061720 METAR ESMX 061720Z 32003KT CAVOK 01/01 Q1021=
202002061650 METAR ESMX 061650Z 36003KT CAVOK 03/01 Q1020=
202002061620 METAR ESMX 061620Z 34004KT CAVOK 05/02 Q1020=
202002061550 METAR ESMX 061550Z 31005KT CAVOK 06/03 Q1019=
202002061520 METAR ESMX 061520Z 34003KT CAVOK 07/03 Q1019=
202002061450 METAR ESMX 061450Z 31006KT 9999 FEW026 08/03 Q1019=
202002061420 METAR ESMX 061420Z 30008KT 9999 FEW027 08/03 Q1018=
202002061350 METAR ESMX 061350Z 31008KT 9999 FEW025 08/04 Q1018=
202002061320 METAR ESMX 061320Z 30007KT 9999 FEW022 08/04 Q1018=
202002061250 METAR ESMX 061250Z 28007KT 250V320 CAVOK 09/04 Q1018=
202002061220 METAR ESMX 061220Z 29006KT 9999 FEW012 08/04 Q1018=
202002061150 METAR ESMX 061150Z 31007KT CAVOK 08/04 Q1018=
202002061120 METAR ESMX 061120Z 30008KT 260V330 CAVOK 08/04 Q1018=
202002061050 METAR ESMX 061050Z 28009KT 9999 FEW015 07/04 Q1018=
202002061020 METAR ESMX 061020Z 29009KT 9999 FEW013 07/04 Q1018=
202002060950 METAR ESMX 060950Z 27009KT 9999 FEW010 06/04 Q1018=
202002060920 METAR ESMX 060920Z 27008KT 240V300 9999 FEW009 05/04 Q1017=
202002060850 METAR ESMX 060850Z 28008KT 9999 BKN009 05/04 Q1018=
202002060820 METAR ESMX 060820Z 27009KT 9999 BKN010 05/04 Q1017=
202002060750 METAR ESMX 060750Z 27008KT 9999 SCT011 04/04 Q1017=
202002060720 METAR ESMX 060720Z 26007KT 9999 SCT013 04/03 Q1017=
202002060650 METAR ESMX 060650Z 26007KT 9999 SCT014 04/03 Q1017=
202002060620 METAR ESMX 060620Z 28006KT 9999 BKN013 04/04 Q1017=
202002060550 METAR ESMX 060550Z 27005KT 9999 OVC014 05/03 Q1016=
202002060520 METAR ESMX 060520Z 27009KT 9999 OVC013 05/04 Q1016=
202002060450 METAR ESMX 060450Z 26007KT 9999 OVC014 05/04 Q1016=
202002060420 METAR ESMX 060420Z AUTO 27008KT 9999 OVC014/// 05/04 Q1016=
202002060350 METAR ESMX 060350Z AUTO 27007KT 9999 OVC013/// 05/04 Q1016=
202002060320 METAR ESMX 060320Z AUTO 27008KT 9999 BKN014/// OVC017/// 05/04 Q1016=
202002060250 METAR ESMX 060250Z AUTO 27009KT 9999 OVC015/// 05/04 Q1016=
202002060220 METAR ESMX 060220Z AUTO 27009KT 240V310 9999 OVC014/// 05/04 Q1016=
202002060150 METAR ESMX 060150Z AUTO 27010KT 9999 OVC014/// 05/04 Q1016=
202002060120 METAR ESMX 060120Z AUTO 27010KT 240V310 9999 OVC014/// 05/04 Q1016=
202002060050 METAR ESMX 060050Z AUTO 27011KT 9999 OVC015/// 05/03 Q1016=
202002060020 METAR ESMX 060020Z AUTO 27009KT 230V310 9999 OVC014/// 05/04 Q1016=
202002052350 METAR ESMX 052350Z AUTO 27012KT 9999 OVC013/// 05/04 Q1016=
202002052320 METAR ESMX 052320Z AUTO 27011KT 9999 BKN011/// OVC014/// 05/04 Q1016=
202002052250 METAR ESMX 052250Z AUTO 27011KT 9999 OVC011/// 05/04 Q1017=
202002052220 METAR ESMX 052220Z AUTO 27013KT 9999 OVC011/// 05/03 Q1017=
202002052150 METAR ESMX 052150Z AUTO 26011KT 9999 OVC010/// 05/03 Q1017=
202002052120 METAR ESMX 052120Z AUTO 26014G25KT 9999 OVC010/// 04/03 Q1017=
202002052050 METAR ESMX 052050Z 25014KT 9999 OVC012 04/03 Q1017=
202002052020 METAR ESMX 052020Z 26012G23KT 9999 OVC014 04/03 Q1018=
202002051950 METAR ESMX 051950Z 26014KT 210V280 9999 BKN014 04/03 Q1017=
202002051920 METAR ESMX 051920Z 26014KT 9999 BKN012 04/03 Q1018=
202002051850 METAR ESMX 051850Z 26013KT 9999 BKN013 04/03 Q1018=
202002051820 METAR ESMX 051820Z 26014KT 9999 BKN014 04/02 Q1018=
202002051750 METAR ESMX 051750Z 26014KT 9999 BKN014 03/02 Q1019=
202002051720 METAR ESMX 051720Z 25012KT 9999 BKN012 03/02 Q1019=
202002051650 METAR ESMX 051650Z 23009KT 200V280 9999 BKN011 03/02 Q1020=
202002051620 METAR ESMX 051620Z 26011KT 9999 BKN012 03/02 Q1020=
202002051550 METAR ESMX 051550Z 25011KT 9999 BKN012 02/02 Q1020=
202002051520 METAR ESMX 051520Z 26010KT 9999 BKN013 02/01 Q1021=
202002051450 METAR ESMX 051450Z 25010KT 9999 BKN016 02/00 Q1021=
202002051420 METAR ESMX 051420Z 24009KT CAVOK 02/00 Q1021=
202002051350 METAR ESMX 051350Z 26009KT CAVOK 02/01 Q1021=
202002051320 METAR ESMX 051320Z 25010KT CAVOK 03/01 Q1022=
202002051250 METAR ESMX 051250Z 25009KT 9999 FEW010 02/01 Q1022=
202002051220 METAR ESMX 051220Z 23008KT 190V250 9999 FEW008 02/01 Q1023=
202002051150 METAR ESMX 051150Z 25009KT 9999 FEW009 02/01 Q1023=
202002051120 METAR ESMX 051120Z 25007KT 9999 FEW010 02/00 Q1023=
202002051050 METAR ESMX 051050Z 23006KT 190V250 9999 FEW015 01/00 Q1024=
202002051020 METAR ESMX 051020Z 23007KT 200V280 CAVOK 01/M00 Q1024=
202002050950 METAR ESMX 050950Z 25006KT CAVOK M00/M01 Q1024=
202002050920 METAR ESMX 050920Z 25007KT CAVOK M01/M02 Q1024=
202002050850 METAR ESMX 050850Z 26007KT CAVOK M02/M03 Q1024=
202002050820 METAR ESMX 050820Z 25007KT CAVOK M02/M03 Q1024=
202002050750 METAR ESMX 050750Z 26007KT CAVOK M03/M04 Q1024=
202002050720 METAR ESMX 050720Z 26004KT CAVOK M04/M05 Q1024=
202002050650 METAR ESMX 050650Z 21003KT CAVOK M05/M05 Q1023=
202002050620 METAR ESMX 050620Z VRB03KT CAVOK M05/M05 Q1023=
202002050550 METAR ESMX 050550Z VRB02KT CAVOK M04/M05 Q1023=
202002050520 METAR ESMX 050520Z 26003KT 230V290 CAVOK M04/M04 Q1023=
202002050450 METAR ESMX 050450Z 29005KT CAVOK M03/M04 Q1023=
202002050420 METAR ESMX 050420Z AUTO 29005KT 260V320 9999 NCD M04/M04 Q1023=
202002050350 METAR ESMX 050350Z AUTO 30005KT 9999 NCD M03/M04 Q1022=
202002050320 METAR ESMX 050320Z AUTO 31006KT 9999 NCD M03/M04 Q1022=
202002050250 METAR ESMX 050250Z AUTO 31007KT 9999 NCD M02/M03 Q1021=
202002050220 METAR ESMX 050220Z AUTO 31006KT 9999 NCD M02/M03 Q1021=
202002050150 METAR ESMX 050150Z AUTO 31007KT 9999 SCT010/// M02/M03 Q1020=
202002050120 METAR ESMX 050120Z AUTO 32007KT 9999 FEW010/// M02/M03 Q1020=
202002050050 METAR ESMX 050050Z AUTO 33009KT 9999 FEW001/// SCT008/// BKN011/// M01/M02 Q1020 RESG REFZUP=
202002050020 METAR ESMX 050020Z AUTO 34008KT 9999 FEW016/// SCT021/// M01/M01 Q1019=
202002042350 METAR ESMX 042350Z AUTO 33010KT 9999 SCT014/// BKN017/// M00/M01 Q1018=
202002042320 METAR ESMX 042320Z AUTO 34010KT 9999 FEW016/// M00/M01 Q1018 RESG REUP=
202002042250 METAR ESMX 042250Z AUTO 33010KT 9999 SG FEW009/// BKN013/// BKN020/// 00/M00 Q1017 REUP=
202002042220 METAR ESMX 042220Z AUTO 34008KT 9999 SCT008/// BKN009/// OVC055/// 01/00 Q1016=
202002042150 METAR ESMX 042150Z AUTO 35009KT 9999 SCT009/// BKN030/// OVC055/// 01/00 Q1015=
202002042120 METAR ESMX 042120Z AUTO 35008KT 9999 SCT008/// OVC049/// 01/00 Q1015=
202002042050 METAR ESMX 042050Z AUTO 35009KT 9999 FEW008/// BKN011/// OVC048/// 01/00 Q1014=
202002042020 METAR ESMX 042020Z AUTO 01009KT 8000 -SN SCT009/// BKN024/// BKN031/// 00/00 Q1013=
202002041950 METAR ESMX 041950Z 36010KT 6000 -SN BKN006 01/01 Q1012=
202002041920 METAR ESMX 041920Z 35009KT 4800 -SN BKN005 01/01 Q1011=
202002041850 METAR ESMX 041850Z 02008KT 9000 -SN BKN005 01/01 Q1010=
202002041820 METAR ESMX 041820Z 01008KT 4300 -SN BKN002 01/01 Q1009=
202002041750 METAR ESMX 041750Z 36008KT 2300 -SN BKN002 01/01 Q1008=
202002041720 METAR ESMX 041720Z 02006KT 3300 -SN BKN002 01/01 Q1007=
202002041650 METAR ESMX 041650Z 02006KT 2100 -SN BKN002 01/01 Q1006=
202002041620 METAR ESMX 041620Z 02007KT 2700 -SN VV008 01/01 Q1005=
202002041550 METAR ESMX 041550Z 04006KT 9999 BKN007 01/01 Q1004=
202002041520 METAR ESMX 041520Z 02006KT 9999 BKN006 01/01 Q1003=
202002041450 METAR ESMX 041450Z 01006KT 9999 BKN007 01/01 Q1003=
202002041420 METAR ESMX 041420Z 04005KT 020V080 9999 BKN007 02/01 Q1002=
202002041350 METAR ESMX 041350Z 06005KT 030V100 9999 OVC008 02/01 Q1001=
202002041320 METAR ESMX 041320Z 05005KT 020V090 9999 OVC006 01/01 Q1001=
202002041250 METAR ESMX 041250Z 05005KT 020V080 5000 -RASN OVC005 01/01 Q1000=
202002041220 METAR ESMX 041220Z 05005KT 9999 -DZ OVC005 02/02 Q1000=
202002041150 METAR ESMX 041150Z 07003KT 020V120 9000 BR OVC005 01/01 Q0999=
202002041120 METAR ESMX 041120Z 07003KT 030V140 7000 BR OVC005 01/01 Q0999=
202002041050 METAR ESMX 041050Z 08004KT 030V120 9999 OVC005 01/01 Q0998=
202002041020 METAR ESMX 041020Z 07003KT 030V110 9999 OVC003 01/01 Q0997=
202002040950 METAR ESMX 040950Z VRB03KT 9000 BR OVC003 01/01 Q0997=
202002040920 METAR ESMX 040920Z 08003KT 050V110 6000 -RASN OVC002 01/01 Q0996=
202002040850 METAR ESMX 040850Z 09003KT 050V110 6000 -RA BR OVC002 01/01 Q0995=
202002040820 METAR ESMX 040820Z 07003KT 030V100 6000 -RA BR OVC002 01/01 Q0995=
202002040750 METAR ESMX 040750Z VRB03KT 4000 -RA BR OVC002 01/01 Q0994=
202002040720 METAR ESMX 040720Z 00000KT 1800 DZ BR OVC002 02/02 Q0994=
202002040650 METAR ESMX 040650Z 00000KT 3000 -RASN OVC002 01/01 Q0993=
202002040620 METAR ESMX 040620Z 00000KT 3700 -DZ BR OVC002 01/01 Q0993=
202002040550 METAR COR ESMX 040550Z VRB02KT 2600 -SNRA BKN002 02/02 Q0993=
202002040520 METAR ESMX 040520Z 22003KT 8000 -SNRA OVC002 02/02 Q0992=
202002040450 METAR ESMX 040450Z 21004KT 6000 BR OVC001 01/01 Q0992=
202002040420 METAR ESMX 040420Z AUTO 18003KT 4400 BR OVC001/// 02/02 Q0992 RESHUP RERA=
202002040350 METAR ESMX 040350Z AUTO 19003KT 2700 BR BKN002/// OVC007/// 01/01 Q0992=
202002040320 METAR ESMX 040320Z AUTO 19006KT 150V210 6000 -RA BKN002/// OVC004/// 01/01 Q0992=
202002040250 METAR ESMX 040250Z AUTO 14005KT 7000 -DZ OVC002/// 01/01 Q0992=
202002040220 METAR ESMX 040220Z AUTO 14004KT 5000 DZ OVC001/// 01/01 Q0992=
202002040150 METAR ESMX 040150Z AUTO 13005KT 2000 +DZ BKN001/// OVC004/// 01/01 Q0993 RESHUP=
202002040120 METAR ESMX 040120Z AUTO 14004KT 070V180 5000 -RA OVC001/// 01/01 Q0993=
202002040050 METAR ESMX 040050Z AUTO 13005KT 4500 DZ OVC002/// 01/01 Q0993 RESHUP=
202002040020 METAR ESMX 040020Z AUTO 14006KT 9000 DZ OVC002/// 01/01 Q0994 RESHUP RERA=
202002032350 METAR ESMX 032350Z AUTO 14006KT 9000 BR OVC002/// 01/01 Q0994 RESHUP=
202002032320 METAR ESMX 032320Z AUTO 14005KT 9999 -RA OVC003/// 01/01 Q0995 RERA=
202002032250 METAR ESMX 032250Z AUTO 15004KT 9999 SG SCT002/// OVC004/// 01/01 Q0995=
202002032220 METAR ESMX 032220Z AUTO 13005KT 090V170 4500 -PL BKN001/// OVC008/// 01/01 Q0995=
202002032150 METAR ESMX 032150Z AUTO 10004KT 070V160 1000 R01/P2000N R19/P2000N -SN OVC001/// 01/01 Q0996=
202002032120 METAR ESMX 032120Z AUTO 11003KT 080V160 0750 R01/P2000N R19/1700U SN OVC001/// 01/01 Q0997=
202002032050 METAR ESMX 032050Z AUTO VRB03KT 0700 R01/P2000D R19/P2000N SN SCT001/// BKN009/// BKN012/// 01/00 Q0997=
202002032020 METAR ESMX 032020Z AUTO 14005KT 1000 R01/P2000N R19/P2000N -SN FEW001/// SCT017/// BKN032/// 01/M00 Q0998=
202002031950 METAR ESMX 031950Z 13005KT 9999 -SN BKN046 01/M01 Q0998=
202002031920 METAR ESMX 031920Z 14005KT 9999 BKN046 01/M01 Q0998=
202002031850 METAR ESMX 031850Z 13004KT 9999 SCT025 BKN062 00/M01 Q0999=
202002031820 METAR ESMX 031820Z 15005KT 9999 SCT024 BKN085 00/M01 Q0999=
202002031750 METAR ESMX 031750Z 13003KT 9999 FEW021 M01/M01 Q0999=
202002031720 METAR ESMX 031720Z 09002KT 9999 FEW021 M01/M01 Q1000=
202002031650 METAR ESMX 031650Z 15002KT 9999 FEW021 M02/M02 Q1000=
202002031620 METAR ESMX 031620Z 19003KT 9999 FEW021 M01/M02 Q1000=
202002031550 METAR ESMX 031550Z 18003KT 9999 FEW021 01/M01 Q1000=
202002031520 METAR ESMX 031520Z 21004KT CAVOK 01/M01 Q1001=
202002031450 METAR ESMX 031450Z 20004KT CAVOK 03/M01 Q1001=
202002031420 METAR ESMX 031420Z 26004KT 9999 FEW021 04/M01 Q1001=
202002031350 METAR ESMX 031350Z 25005KT 220V280 9999 FEW020 04/M01 Q1001=
202002031320 METAR ESMX 031320Z 25006KT 210V300 CAVOK 03/M00 Q1001=
202002031250 METAR ESMX 031250Z AUTO 23006KT 180V260 9999 NCD 03/M00 Q1001=
202002031220 METAR ESMX 031220Z 27006KT 230V300 CAVOK 04/M01 Q1001=
202002031150 METAR ESMX 031150Z 28007KT 250V310 CAVOK 03/M01 Q1001=
202002031120 METAR ESMX 031120Z 28006KT CAVOK 03/00 Q1001=
202002031050 METAR ESMX 031050Z 28006KT 240V300 CAVOK 02/M00 Q1001=
202002031020 METAR ESMX 031020Z 25005KT CAVOK 01/00 Q1001=
202002030950 METAR ESMX 030950Z 25005KT CAVOK 00/M00 Q1001=
202002030920 METAR ESMX 030920Z 27005KT CAVOK 01/M00 Q1001=
202002030850 METAR ESMX 030850Z 25004KT CAVOK M00/M01 Q1001=
202002030820 METAR ESMX 030820Z 25003KT CAVOK M01/M01 Q1000=
202002030750 METAR ESMX 030750Z 25003KT 210V280 CAVOK M02/M02 Q1000=
202002030720 METAR ESMX 030720Z 26004KT CAVOK M02/M02 Q1000=
202002030650 METAR ESMX 030650Z 25004KT CAVOK M04/M04 Q1000=
202002030620 METAR COR ESMX 030620Z 25004KT CAVOK M02/M02 Q1000=
202002030550 METAR ESMX 030550Z VRB03KT CAVOK M02/M02 Q1000=
202002030520 METAR ESMX 030520Z 17004KT CAVOK M02/M02 Q0999=
202002030450 METAR ESMX 030450Z VRB02KT CAVOK M02/M02 Q0999=
202002030420 METAR ESMX 030420Z AUTO 26004KT 9999 NCD M02/M02 Q0999=
202002030350 METAR ESMX 030350Z AUTO 26003KT 230V290 9999 NCD M01/M02 Q0999=
202002030320 METAR ESMX 030320Z AUTO 23003KT 9999 NCD M01/M01 Q0999=
202002030250 METAR ESMX 030250Z AUTO 25005KT 9999 NCD M01/M01 Q0998=
202002030220 METAR ESMX 030220Z AUTO 26005KT 9999 NCD M01/M01 Q0998=
202002030150 METAR ESMX 030150Z AUTO 25006KT 9999 NCD M01/M01 Q0998=
202002030120 METAR ESMX 030120Z AUTO 23005KT 9999 NCD M01/M01 Q0998=
202002030050 METAR ESMX 030050Z AUTO 22005KT 9999 NCD M01/M01 Q0998=
202002030020 METAR ESMX 030020Z AUTO 23005KT 9999 NCD M01/M02 Q0998=
202002022350 METAR ESMX 022350Z AUTO 24004KT 9999 NCD M01/M02 Q0998=
202002022320 METAR ESMX 022320Z AUTO 25005KT 9999 NCD M00/M02 Q0997=
202002022250 METAR ESMX 022250Z AUTO 26007KT 9999 NCD 00/M01 Q0997=
202002022220 METAR ESMX 022220Z AUTO 26006KT 9999 NCD 00/M01 Q0997=
202002022150 METAR ESMX 022150Z AUTO 26008KT 9999 NCD 00/M01 Q0997=
202002022120 METAR ESMX 022120Z AUTO 27009KT 9999 NCD 01/M01 Q0997=
202002022050 METAR ESMX 022050Z 27008KT CAVOK 00/M01 Q0997=
202002022020 METAR ESMX 022020Z 26008KT CAVOK 00/M01 Q0997=
202002021950 METAR ESMX 021950Z 27007KT CAVOK 01/M01 Q0996=
202002021920 METAR ESMX 021920Z 27006KT CAVOK 01/M01 Q0996=
202002021850 METAR ESMX 021850Z 27009KT CAVOK 01/M01 Q0996=
202002021820 METAR ESMX 021820Z 27009KT CAVOK 01/M01 Q0996=
202002021750 METAR ESMX 021750Z 25010KT CAVOK 02/M01 Q0995=
202002021720 METAR ESMX 021720Z 25008KT CAVOK 02/M01 Q0995=
202002021650 METAR ESMX 021650Z 26008KT 230V290 9999 FEW029 02/M01 Q0995=
202002021620 METAR ESMX 021620Z 25010KT 220V290 9999 FEW029 03/M01 Q0995=
202002021550 METAR ESMX 021550Z 26010KT 9999 FEW029 03/M01 Q0995=
202002021520 METAR ESMX 021520Z 27013KT 240V300 9999 FEW029 04/M01 Q0994=
202002021450 METAR ESMX 021450Z 27015KT 9999 FEW027 05/M01 Q0994=
202002021420 METAR ESMX 021420Z 27012KT 9999 FEW027 05/00 Q0994=
202002021350 METAR ESMX 021350Z 26012KT 9999 SCT027 05/01 Q0994=
202002021320 METAR ESMX 021320Z 26014G24KT 230V300 9999 SCT027 06/01 Q0994=
202002021250 METAR ESMX 021250Z 27013KT 230V290 9999 SCT025 06/01 Q0994=
202002021220 METAR ESMX 021220Z 27013KT 9999 SCT025 06/01 Q0994=
202002021150 METAR ESMX 021150Z 28012KT 9999 FEW015 05/01 Q0994=
202002021120 METAR COR ESMX 021120Z 28012KT 9999 FEW015 05/01 Q0994=
202002021050 METAR COR ESMX 021050Z 27012KT 230V310 CAVOK 05/01 Q0994=
202002021020 METAR ESMX 021020Z 28011KT 240V320 CAVOK 05/01 Q0994=
202002020950 METAR ESMX 020950Z 28010KT CAVOK 04/01 Q0993=
202002020920 METAR ESMX 020920Z 27013KT CAVOK 03/00 Q0993=
202002020850 METAR ESMX 020850Z 28013KT CAVOK 03/00 Q0993=
202002020820 METAR ESMX 020820Z 28014KT 9999 FEW013 03/01 Q0992=
202002020750 METAR ESMX 020750Z 29014G25KT 9999 SCT012 03/02 Q0990=
202002020720 METAR COR ESMX 020720Z 30013KT 9999 BKN010 04/02 Q0990=
202002020650 METAR ESMX 020650Z 28013KT 250V310 9999 BKN007 04/03 Q0988=
202002020620 METAR COR ESMX 020620Z 27015KT 9999 BKN007 04/03 Q0988=
202002020550 METAR ESMX 020550Z AUTO 26014KT 240V300 4400 DZ BKN011/// OVC016/// 04/03 Q0986 REUP=
202002020520 METAR ESMX 020520Z AUTO 24014G24KT 210V280 9999 OVC010/// 04/03 Q0986=
202002020450 METAR ESMX 020450Z AUTO 25011KT 9999 OVC008/// 04/03 Q0986=
202002020420 METAR ESMX 020420Z AUTO 23011KT 9999 OVC007/// 04/03 Q0985=
202002020350 METAR ESMX 020350Z AUTO 24013KT 2500 DZ FEW002/// BKN005/// BKN013/// 04/04 Q0985=
202002020320 METAR ESMX 020320Z AUTO 25015G26KT 210V280 6000 BR SCT006/// BKN008/// OVC018/// 05/05 Q0984 RESHUP REDZ=
202002020250 METAR ESMX 020250Z AUTO 25011KT 200V270 4000 BR FEW002/// BKN006/// OVC011/// 06/06 Q0984 REDZ=
202002020220 METAR ESMX 020220Z AUTO 23009KT 2700 DZ VV010 06/06 Q0984=
202002020150 METAR ESMX 020150Z AUTO 21010KT 2500 DZ BKN005/// BKN010/// OVC012/// 06/06 Q0984 REDZ=
202002020120 METAR ESMX 020120Z AUTO 23009KT 2600 DZ VV009 06/06 Q0984=
202002020050 METAR ESMX 020050Z AUTO 23011KT 2700 DZ BKN002/// OVC005/// 06/06 Q0984=
202002020020 METAR ESMX 020020Z AUTO 22012KT 4100 -DZ FEW002/// OVC005/// 06/06 Q0984 RESHUP RERA=
202002012350 METAR ESMX 012350Z AUTO 22011KT 9000 BR BKN006/// OVC008/// 06/06 Q0985=
202002012320 METAR ESMX 012320Z AUTO 22012KT 7000 BR BKN006/// BKN009/// OVC012/// 06/05 Q0985=
202002012250 METAR ESMX 012250Z AUTO 21012KT 9999 -DZ BKN012/// OVC021/// 06/05 Q0985 REDZ=
202002012220 METAR ESMX 012220Z AUTO 23014KT 9999 DZ OVC013/// 06/05 Q0985 REUP=
202002012150 METAR ESMX 012150Z AUTO 22013KT 190V250 9999 OVC015/// 06/05 Q0985=
202002012120 METAR ESMX 012120Z AUTO 22014KT 9999 OVC015/// 06/05 Q0986=
202002012050 METAR ESMX 012050Z AUTO 23013KT 9999 BKN014/// OVC024/// 06/05 Q0986=
202002012020 METAR ESMX 012020Z AUTO 22014KT 9999 OVC015/// 06/05 Q0986=
202002011950 METAR ESMX 011950Z AUTO 22014KT 9999 BKN016/// BKN026/// OVC037/// 07/05 Q0986=
202002011920 METAR ESMX 011920Z AUTO 22014KT 9999 BKN014/// BKN021/// OVC029/// 07/05 Q0987=
202002011850 METAR ESMX 011850Z AUTO 23013KT 9999 SCT015/// BKN025/// 07/05 Q0986=
202002011820 METAR ESMX 011820Z AUTO 22014KT 9999 FEW013/// BKN053/// 07/06 Q0987 REUP=
202002011750 METAR ESMX 011750Z AUTO 23014KT 9999 BKN015/// 07/06 Q0987 REDZ REUP=
202002011720 METAR ESMX 011720Z AUTO 21014KT 9999 BKN013/// BKN022/// OVC031/// 07/06 Q0987=
202002011650 METAR ESMX 011650Z AUTO 22014KT 9999 BKN014/// OVC031/// 07/06 Q0987=
202002011620 METAR ESMX 011620Z AUTO 22013KT 9999 BKN013/// OVC017/// 07/06 Q0987=
202002011550 METAR ESMX 011550Z AUTO 21011KT 9999 BKN014/// BKN018/// OVC034/// 07/06 Q0988 REUP=
202002011520 METAR ESMX 011520Z AUTO 21011KT 9999 RA BKN014/// OVC031/// 08/06 Q0988 REUP=
202002011450 METAR ESMX 011450Z AUTO 22011KT 9999 BKN014/// OVC057/// 08/07 Q0988=
202002011420 METAR ESMX 011420Z AUTO 22010KT 9999 SCT016/// BKN032/// 08/07 Q0988=
202002011350 METAR ESMX 011350Z AUTO 24012KT 9999 BKN016/// BKN055/// 08/06 Q0988=
202002011320 METAR ESMX 011320Z AUTO 24011KT 210V270 9999 BKN014/// BKN018/// OVC043/// 08/07 Q0988=
202002011250 METAR ESMX 011250Z AUTO 23011KT 9999 BKN013/// OVC025/// 09/07 Q0988=
202002011220 METAR ESMX 011220Z AUTO 22013KT 9999 BKN012/// OVC015/// 09/07 Q0988=
