##########################################################
# Query made at 04/19/2024 22:16:35 UTC
# Time interval: from 10/01/2020 12:00  to 10/31/2020 12:59  UTC
##########################################################

##########################################################
# ESMX, Vaxjo (Sweden)
# WMO index: 02641. WIGOS ID: 0-20000-0-02648
# Latitude 56-51N. Longitude 014-50E. Altitude 199 m.
##########################################################

202010311250 METAR ESMX 311250Z 15006KT 4600 BR BKN002 OVC004 10/10 Q1020 REDZ=
202010311220 METAR ESMX 311220Z 17008KT 3800 -DZ OVC002 10/10 Q1020 RERA=
202010311150 METAR ESMX 311150Z 17008KT 4700 BR OVC002 10/10 Q1020=
202010311120 METAR ESMX 311120Z 17007KT 4100 -DZ OVC002 10/10 Q1020=
202010311050 METAR ESMX 311050Z 17007KT 4300 BR OVC002 10/10 Q1020 RERA=
202010311020 METAR ESMX 311020Z 17007KT 4000 BR OVC002 10/10 Q1020=
202010310950 METAR ESMX 310950Z 17007KT 4500 -DZ OVC002 10/10 Q1020=
202010310920 METAR ESMX 310920Z 17007KT 3900 BR OVC002 09/09 Q1020=
202010310850 METAR ESMX 310850Z 17005KT 7000 BR BKN002 09/09 Q1020=
202010310820 METAR ESMX 310820Z 16004KT 2200 BR BKN002 08/08 Q1020=
202010310750 METAR ESMX 310750Z 15006KT 2200 BR BKN002 08/08 Q1020 REDZ=
202010310720 METAR ESMX 310720Z 15006KT 1800 BR BKN002 07/07 Q1020=
202010310650 METAR ESMX 310650Z AUTO 15006KT 1400 R01/P2000N R19/P2000N OVC001/// 07/07 Q1020 REDZ REUP=
202010310620 METAR ESMX 310620Z AUTO 15007KT 1200 R01/P2000N R19/P2000N DZ OVC001/// 06/06 Q1019 REDZ REUP=
202010310550 METAR ESMX 310550Z AUTO 15007KT 120V190 1200 R01/P2000N R19/P2000N BR OVC001/// 06/06 Q1019=
202010310520 METAR ESMX 310520Z AUTO 15008KT 2300 BR OVC001/// 06/06 Q1019=
202010310450 METAR ESMX 310450Z AUTO 15006KT 5000 BR OVC002/// 06/06 Q1019=
202010310420 METAR ESMX 310420Z AUTO 14007KT 100V170 7000 BR OVC002/// 06/06 Q1019 REDZ=
202010310350 METAR ESMX 310350Z AUTO 14007KT 5000 BR OVC002/// 05/05 Q1019=
202010310320 METAR ESMX 310320Z AUTO 14005KT 4900 BR OVC001/// 05/05 Q1019=
202010310250 METAR ESMX 310250Z AUTO 14004KT 2800 -RA OVC001/// 04/04 Q1019 REDZ=
202010310220 METAR ESMX 310220Z AUTO 14004KT 1900 -DZ OVC001/// 04/04 Q1019 REUP REDZ=
202010310150 METAR ESMX 310150Z AUTO 15003KT 1400 R01/P2000N R19/P2000N OVC001/// 04/04 Q1019=
202010310120 METAR ESMX 310120Z AUTO 13003KT 1000 R01/P2000N R19/P2000N OVC001/// 03/03 Q1019=
202010310050 METAR ESMX 310050Z AUTO 12004KT 0900 R01/P2000N R19/P2000N FG OVC001/// 03/03 Q1018=
202010310020 METAR ESMX 310020Z AUTO 12003KT 060V200 1900 BR OVC002/// 03/03 Q1019=
202010302350 METAR ESMX 302350Z AUTO 13005KT 100V160 6000 BR OVC002/// 04/04 Q1019=
202010302320 METAR ESMX 302320Z AUTO 12003KT 3400 BR OVC002/// 04/04 Q1018=
202010302250 METAR ESMX 302250Z AUTO 10003KT 9999 OVC002/// 04/04 Q1018=
202010302220 METAR ESMX 302220Z AUTO 09002KT 0550 R01/P2000N R19/1700N BKN001/// OVC002/// 04/04 Q1018=
202010302150 METAR ESMX 302150Z AUTO 05003KT 0300 R01/0900N R19/1200U FG OVC001/// 04/04 Q1018=
202010302120 METAR ESMX 302120Z AUTO 11003KT 0250 R01/0750N R19/1600U FG OVC001/// 05/05 Q1017=
202010302050 METAR ESMX 302050Z AUTO 11004KT 0350 R01/1100D R19/0900N FG OVC001/// 05/05 Q1017=
202010302020 METAR ESMX 302020Z AUTO VRB03KT 0400 R01/1300N R19/P2000D FG OVC001/// 05/05 Q1017=
202010301950 METAR ESMX 301950Z AUTO 13003KT 080V150 2000 BR OVC001/// 06/06 Q1017=
202010301920 METAR ESMX 301920Z AUTO 13004KT 4900 BR OVC002/// 06/06 Q1016=
202010301850 METAR ESMX 301850Z AUTO VRB03KT 9999 OVC004/// 06/06 Q1016=
202010301820 METAR ESMX 301820Z AUTO 12003KT 9999 OVC005/// 07/06 Q1016=
202010301750 METAR ESMX 301750Z AUTO 09002KT 9999 OVC005/// 07/06 Q1016=
202010301720 METAR ESMX 301720Z AUTO 10003KT 9999 BKN006/// OVC008/// 07/07 Q1015=
202010301650 METAR ESMX 301650Z AUTO VRB03KT 6000 OVC007/// 07/07 Q1015=
202010301620 METAR ESMX 301620Z AUTO VRB01KT 9999 OVC008/// 07/07 Q1015=
202010301550 METAR ESMX 301550Z AUTO VRB02KT 9999 OVC009/// 07/07 Q1015=
202010301520 METAR ESMX 301520Z AUTO 00000KT 9999 OVC009/// 07/07 Q1014=
202010301450 METAR ESMX 301450Z 20003KT 9999 SCT009 07/07 Q1014=
202010301420 METAR ESMX 301420Z 20002KT 9999 SCT009 08/07 Q1014=
202010301350 METAR ESMX 301350Z 20003KT 9999 SCT008 08/07 Q1014=
202010301320 METAR ESMX 301320Z 20003KT 9999 BKN008 08/07 Q1014=
202010301250 METAR ESMX 301250Z 20004KT 9999 BKN007 08/07 Q1013=
202010301220 METAR ESMX 301220Z 20003KT 9999 BKN007 08/07 Q1013=
202010301150 METAR ESMX 301150Z VRB02KT 9999 BKN006 08/07 Q1013=
202010301120 METAR ESMX 301120Z 20003KT 9999 OVC006 08/07 Q1013=
202010301050 METAR ESMX 301050Z VRB03KT 9999 BKN006 07/07 Q1013=
202010301020 METAR ESMX 301020Z 23002KT 9999 OVC006 07/06 Q1013=
202010300950 METAR ESMX 300950Z VRB02KT 9999 BKN006 07/07 Q1013=
202010300920 METAR ESMX 300920Z 23002KT 9999 OVC006 07/06 Q1013=
202010300850 METAR ESMX 300850Z VRB01KT 9999 OVC006 07/06 Q1013=
202010300820 METAR ESMX 300820Z 00000KT 9999 OVC006 07/06 Q1013=
202010300750 METAR ESMX 300750Z 00000KT 9999 OVC006 07/06 Q1012=
202010300720 METAR ESMX 300720Z VRB02KT 9999 OVC005 07/06 Q1012=
202010300650 METAR COR ESMX 300650Z VRB02KT 9999 BKN005 07/06 Q1012=
202010300620 METAR ESMX 300620Z AUTO VRB03KT 9999 OVC006/// 07/06 Q1012=
202010300550 METAR ESMX 300550Z AUTO VRB03KT 9999 OVC005/// 07/06 Q1012=
202010300520 METAR ESMX 300520Z VRB03KT 9999 BKN003 07/06 Q1012=
202010300450 METAR ESMX 300450Z VRB02KT 9999 BKN004 07/06 Q1011=
202010300420 METAR ESMX 300420Z AUTO VRB02KT 9999 OVC004/// 07/06 Q1011=
202010300350 METAR ESMX 300350Z AUTO 27003KT 230V320 9999 OVC004/// 07/06 Q1011=
202010300320 METAR ESMX 300320Z AUTO 26004KT 9000 BR OVC003/// 07/06 Q1011=
202010300250 METAR ESMX 300250Z AUTO 26004KT 9999 OVC004/// 07/06 Q1011=
202010300220 METAR ESMX 300220Z AUTO 29005KT 260V320 9999 OVC004/// 07/07 Q1011=
202010300150 METAR ESMX 300150Z AUTO 31005KT 9999 OVC004/// 07/06 Q1011=
202010300120 METAR ESMX 300120Z AUTO 30006KT 9999 OVC004/// 07/07 Q1011=
202010300050 METAR ESMX 300050Z AUTO 30007KT 9999 OVC005/// 07/06 Q1011=
202010300020 METAR ESMX 300020Z AUTO 30006KT 270V330 9999 OVC006/// 07/06 Q1010=
202010292350 METAR ESMX 292350Z AUTO 29007KT 9999 OVC006/// 07/06 Q1010=
202010292320 METAR ESMX 292320Z AUTO 29005KT 9999 OVC005/// 07/07 Q1010=
202010292250 METAR ESMX 292250Z AUTO 28006KT 250V310 9999 OVC004/// 07/07 Q1010=
202010292220 METAR ESMX 292220Z AUTO 30005KT 9999 OVC004/// 07/07 Q1009=
202010292150 METAR ESMX 292150Z AUTO 30006KT 9999 BKN005/// 07/07 Q1009=
202010292120 METAR ESMX 292120Z AUTO 28005KT 250V320 9999 BKN005/// 07/07 Q1009=
202010292050 METAR ESMX 292050Z AUTO 29008KT 9999 BKN005/// OVC006/// 08/08 Q1009=
202010292020 METAR ESMX 292020Z AUTO 29007KT 9999 OVC055/// 08/08 Q1008=
202010291950 METAR ESMX 291950Z AUTO 29006KT 9999 FEW023/// OVC038/// 08/08 Q1008=
202010291920 METAR ESMX 291920Z AUTO 28005KT 9999 FEW005/// OVC035/// 08/08 Q1008=
202010291850 METAR ESMX 291850Z AUTO 29006KT 9999 FEW025/// BKN041/// OVC053/// 08/08 Q1007=
202010291820 METAR ESMX 291820Z 28006KT 9999 FEW005 SCT025 08/08 Q1007=
202010291750 METAR ESMX 291750Z 28005KT 9999 FEW004 BKN021 08/08 Q1007=
202010291720 METAR ESMX 291720Z 27004KT 9999 FEW007 SCT025 08/08 Q1006=
202010291650 METAR ESMX 291650Z 28003KT 9999 FEW007 SCT019 08/08 Q1006=
202010291620 METAR ESMX 291620Z 30005KT 9000 -RA FEW005 SCT014 09/09 Q1005=
202010291550 METAR ESMX 291550Z 26004KT 9999 SCT007 BKN017 09/09 Q1005=
202010291520 METAR ESMX 291520Z 28001KT 9999 -RA SCT007 BKN021 09/09 Q1005=
202010291450 METAR ESMX 291450Z 26002KT 9999 -RA FEW013 BKN024 09/09 Q1005=
202010291420 METAR ESMX 291420Z VRB03KT 9999 SCT013 BKN046 09/09 Q1005=
202010291350 METAR ESMX 291350Z 26003KT 9999 -RA BKN045 09/09 Q1004=
202010291320 METAR ESMX 291320Z 26004KT 9999 FEW008 BKN043 09/08 Q1004=
202010291250 METAR ESMX 291250Z 27004KT 230V310 9999 FEW008 BKN032 10/09 Q1004=
202010291220 METAR ESMX 291220Z 28004KT 250V320 9999 FEW006 BKN033 09/09 Q1004=
202010291150 METAR ESMX 291150Z 29004KT 260V330 9999 -RA FEW005 BKN036 09/09 Q1003=
202010291120 METAR ESMX 291120Z AUTO 26003KT 8000 -RA BKN002/// BKN010/// OVC023/// 08/08 Q1004 RERA=
202010291050 METAR ESMX 291050Z 00000KT 5000 RA BKN004 10/10 Q1003=
202010291020 METAR ESMX 291020Z 09002KT 7000 -RADZ SCT004 BKN007 10/10 Q1003=
202010290950 METAR ESMX 290950Z VRB02KT 9000 -RA SCT006 BKN036 10/10 Q1003=
202010290920 METAR ESMX 290920Z VRB03KT 9999 -DZ FEW006 BKN009 09/09 Q1003=
202010290850 METAR ESMX 290850Z 13003KT 080V160 9000 -DZ BKN008 09/09 Q1003=
202010290820 METAR ESMX 290820Z 14003KT 120V190 8000 -RA SCT005 BKN007 09/09 Q1003=
202010290750 METAR ESMX 290750Z 15005KT 9000 -RA BKN005 09/09 Q1003=
202010290720 METAR ESMX 290720Z 14004KT 8000 BKN004 09/09 Q1003=
202010290650 METAR ESMX 290650Z 17004KT 8000 -DZ OVC004 09/09 Q1003=
202010290620 METAR ESMX 290620Z 15004KT 8000 BKN005 09/09 Q1003=
202010290550 METAR ESMX 290550Z 17004KT 9000 BKN006 09/09 Q1003=
202010290520 METAR ESMX 290520Z 17005KT 9000 BKN005 09/09 Q1003=
202010290450 METAR ESMX 290450Z 17005KT 9000 BKN005 09/09 Q1003=
202010290420 METAR ESMX 290420Z AUTO 17005KT 8000 BR BKN005/// OVC009/// 09/09 Q1003=
202010290350 METAR ESMX 290350Z AUTO 16006KT 9000 BR SCT006/// BKN008/// OVC041/// 08/08 Q1003 REDZ=
202010290320 METAR ESMX 290320Z AUTO 16006KT 8000 DZ OVC004/// 08/08 Q1003 REUP REDZ=
202010290250 METAR ESMX 290250Z AUTO 15007KT 7000 BR OVC004/// 08/08 Q1003=
202010290220 METAR ESMX 290220Z AUTO 15005KT 8000 BR BKN004/// OVC059/// 08/08 Q1003=
202010290150 METAR ESMX 290150Z AUTO 16006KT 9000 BR SCT005/// OVC086/// 08/08 Q1004=
202010290120 METAR ESMX 290120Z AUTO 16006KT 9999 OVC094/// 08/08 Q1004=
202010290050 METAR ESMX 290050Z AUTO 19007KT 9000 BR OVC098/// 08/08 Q1004=
202010290020 METAR ESMX 290020Z AUTO 18006KT 9999 SCT098/// 08/07 Q1004=
202010282350 METAR ESMX 282350Z AUTO 17007KT 9999 SCT007/// 07/07 Q1004=
202010282320 METAR ESMX 282320Z AUTO 22006KT 170V290 9999 FEW003/// BKN005/// BKN009/// 08/08 Q1004 REUP=
202010282250 METAR ESMX 282250Z AUTO 16006KT 9999 BKN026/// 08/07 Q1004=
202010282220 METAR ESMX 282220Z AUTO 17006KT 9999 FEW039/// 08/07 Q1004=
202010282150 METAR ESMX 282150Z AUTO 18007KT 9999 FEW046/// 07/07 Q1005=
202010282120 METAR ESMX 282120Z AUTO 17007KT 9999 FEW007/// SCT039/// BKN055/// 08/08 Q1005=
202010282050 METAR ESMX 282050Z AUTO 17006KT 9000 BR FEW005/// SCT009/// BKN011/// 08/08 Q1005=
202010282020 METAR ESMX 282020Z AUTO 16007KT 9999 BKN007/// OVC068/// 08/08 Q1005=
202010281950 METAR ESMX 281950Z AUTO 16007KT 9999 VV007 08/08 Q1005=
202010281920 METAR ESMX 281920Z AUTO 16009KT 9999 FEW009/// 08/08 Q1005=
202010281850 METAR ESMX 281850Z 17008KT CAVOK 08/08 Q1005=
202010281820 METAR ESMX 281820Z AUTO 18008KT 9999 NCD 08/08 Q1005=
202010281750 METAR ESMX 281750Z 17009KT 9999 FEW032 09/08 Q1005=
202010281720 METAR ESMX 281720Z AUTO 17009KT 9999 FEW032/// SCT090/// 09/08 Q1004=
202010281650 METAR ESMX 281650Z 17011KT 9999 SCT015 09/09 Q1004=
202010281620 METAR ESMX 281620Z 16009KT 9999 BKN015 10/09 Q1004=
202010281550 METAR ESMX 281550Z 16006KT 9999 FEW024 BKN045CB 10/09 Q1004=
202010281520 METAR COR ESMX 281520Z 17006KT 9999 VCSH FEW029 SCT044CB 10/09 Q1004=
202010281450 METAR ESMX 281450Z 18007KT 9999 FEW020 SCT049 10/09 Q1004=
202010281420 METAR ESMX 281420Z 20008KT CAVOK 10/09 Q1003=
202010281350 METAR ESMX 281350Z 19009KT 9999 SCT014 11/09 Q1003=
202010281320 METAR ESMX 281320Z 21010KT 9999 SCT014 11/09 Q1003=
202010281250 METAR ESMX 281250Z 21008KT 9999 FEW010 SCT016 10/09 Q1003=
202010281220 METAR ESMX 281220Z 19009KT 9999 FEW008 BKN012 10/10 Q1003=
202010281150 METAR ESMX 281150Z 21009KT 9999 -RA BKN008 10/10 Q1003=
202010281120 METAR ESMX 281120Z 20012KT 9999 BKN007 10/10 Q1002=
202010281050 METAR ESMX 281050Z 19012KT 5000 -DZ BKN006 10/10 Q1002=
202010281020 METAR ESMX 281020Z 19011KT 9999 BKN006 09/09 Q1002 REDZ=
202010280950 METAR ESMX 280950Z 18012KT 140V200 9999 BKN006 09/09 Q1002=
202010280920 METAR ESMX 280920Z 18011KT 6000 -DZ BKN005 09/09 Q1001=
202010280850 METAR ESMX 280850Z 17012KT 9999 -DZ BKN008 09/09 Q1001=
202010280820 METAR ESMX 280820Z 17010KT 9999 BKN008 09/08 Q1001=
202010280750 METAR ESMX 280750Z 17010KT 9000 -RA FEW005 BKN009 09/08 Q1001=
202010280720 METAR ESMX 280720Z 16011KT 9999 -RA BKN010 09/08 Q1001=
202010280650 METAR ESMX 280650Z 16010KT 9999 BKN011 09/08 Q1001=
202010280620 METAR ESMX 280620Z 16010KT 9999 BKN011 09/08 Q1001=
202010280550 METAR ESMX 280550Z 16010KT 130V200 9999 BKN010 09/08 Q1001=
202010280520 METAR ESMX 280520Z 15009KT 9999 BKN009 09/08 Q1001=
202010280450 METAR ESMX 280450Z 16009KT 9999 BKN009 09/08 Q1001=
202010280420 METAR ESMX 280420Z AUTO 17009KT 9999 OVC009/// 09/08 Q1001 RESHUP=
202010280350 METAR ESMX 280350Z AUTO 16009KT 140V200 9999 OVC007/// 09/08 Q1001 REUP=
202010280320 METAR ESMX 280320Z AUTO 17009KT 9999 -DZ OVC007/// 08/08 Q1002 RESHUP=
202010280250 METAR ESMX 280250Z AUTO 17007KT 9999 OVC007/// 08/08 Q1002=
202010280220 METAR ESMX 280220Z AUTO 16008KT 9999 BKN008/// OVC010/// 08/08 Q1002=
202010280150 METAR ESMX 280150Z AUTO 17008KT 9999 FEW007/// SCT009/// BKN043/// 08/07 Q1002=
202010280120 METAR ESMX 280120Z AUTO 17009KT 9999 BKN007/// BKN009/// 07/07 Q1003=
202010280050 METAR ESMX 280050Z AUTO 17009KT 9999 OVC006/// 08/07 Q1003=
202010280020 METAR ESMX 280020Z AUTO 17008KT 130V190 9999 BKN007/// OVC009/// 08/07 Q1003=
202010272350 METAR ESMX 272350Z AUTO 17008KT 9999 OVC008/// 08/07 Q1003=
202010272320 METAR ESMX 272320Z AUTO 18009KT 9999 BKN009/// OVC011/// 08/07 Q1003=
202010272250 METAR ESMX 272250Z AUTO 18009KT 9999 BKN010/// OVC013/// 08/07 Q1003=
202010272220 METAR ESMX 272220Z AUTO 18008KT 9999 SCT010/// BKN023/// 07/07 Q1003=
202010272150 METAR ESMX 272150Z AUTO 17008KT 9999 FEW018/// SCT038/// 07/07 Q1003=
202010272120 METAR ESMX 272120Z AUTO 17008KT 9999 NCD 07/07 Q1003=
202010272050 METAR ESMX 272050Z AUTO 17009KT 9999 NCD 07/07 Q1003=
202010272020 METAR ESMX 272020Z AUTO 17007KT 9999 NCD 07/07 Q1003=
202010271950 METAR ESMX 271950Z AUTO 18008KT 9999 NCD 07/07 Q1003=
202010271920 METAR ESMX 271920Z AUTO 16008KT 140V200 9999 SCT009/// 08/07 Q1003=
202010271850 METAR ESMX 271850Z AUTO 17008KT 9999 FEW009/// SCT015/// BKN040/// 08/08 Q1003=
202010271820 METAR ESMX 271820Z 17008KT 9999 FEW009 BKN039 08/08 Q1003=
202010271750 METAR ESMX 271750Z 18009KT 9999 BKN010 08/08 Q1003=
202010271720 METAR ESMX 271720Z 18010KT 9999 SCT016 BKN037 09/08 Q1003=
202010271650 METAR ESMX 271650Z 16009KT 9999 SCT015 BKN035 09/08 Q1003 RERA=
202010271620 METAR ESMX 271620Z 17010KT 140V200 9999 BKN014 09/08 Q1003=
202010271550 METAR ESMX 271550Z 18009KT 9999 BKN016 09/08 Q1003=
202010271520 METAR COR ESMX 271520Z 17008KT 9999 SCT016 BKN055 09/08 Q1003=
202010271450 METAR ESMX 271450Z 17010KT 9999 FEW015 BKN055 10/08 Q1003=
202010271420 METAR ESMX 271420Z AUTO 18009KT 9999 -DZ FEW017/// BKN023/// OVC053/// 10/08 Q1003=
202010271350 METAR ESMX 271350Z 17009KT 9999 BKN015 BKN055 10/08 Q1003=
202010271320 METAR ESMX 271320Z 18010KT 9999 BKN015 BKN020 BKN053 10/08 Q1003=
202010271250 METAR ESMX 271250Z 18010KT 9999 BKN015 BKN022 BKN048 10/08 Q1003=
202010271220 METAR ESMX 271220Z 17010KT 9999 BKN016 10/08 Q1003=
202010271150 METAR ESMX 271150Z 18011KT 9999 SCT012 BKN016 10/09 Q1003=
202010271120 METAR ESMX 271120Z 19011KT 9999 BKN011 10/08 Q1003=
202010271050 METAR ESMX 271050Z 18010KT 9999 BKN010 10/09 Q1003=
202010271020 METAR ESMX 271020Z 18010KT 9999 BKN009 09/09 Q1003=
202010270950 METAR ESMX 270950Z 18011KT 9999 BKN009 09/09 Q1003=
202010270920 METAR ESMX 270920Z 18010KT 9999 BKN008 BKN010 09/09 Q1003=
202010270850 METAR ESMX 270850Z 17009KT 9999 BKN007 09/08 Q1003=
202010270820 METAR ESMX 270820Z 17008KT 8000 BR BKN006 BKN009 09/08 Q1003=
202010270750 METAR ESMX 270750Z 17007KT 6000 BR BKN006 BKN016 08/08 Q1003=
202010270720 METAR ESMX 270720Z 17007KT 6000 BR SCT006 BKN012 BKN015 08/08 Q1003=
202010270650 METAR ESMX 270650Z 16007KT 5000 BR SCT006 BKN009 08/08 Q1003=
202010270620 METAR ESMX 270620Z 17006KT 7000 BR FEW003 SCT005 08/08 Q1002=
202010270550 METAR ESMX 270550Z 18005KT 5000 BR BKN005 BKN011 08/08 Q1002=
202010270520 METAR ESMX 270520Z 18006KT 7000 BR BKN006 BKN024 08/08 Q1002=
202010270450 METAR ESMX 270450Z 18006KT 8000 BR BKN007 BKN012 08/08 Q1001=
202010270420 METAR ESMX 270420Z AUTO 20009KT 9999 SCT005/// BKN011/// BKN015/// 09/08 Q1001=
202010270350 METAR ESMX 270350Z AUTO 18005KT 9999 BKN006/// OVC020/// 09/09 Q1001=
202010270320 METAR ESMX 270320Z AUTO 18006KT 9999 SCT005/// BKN009/// BKN012/// 09/09 Q1001=
202010270250 METAR ESMX 270250Z AUTO 18005KT 9999 BKN006/// BKN009/// OVC010/// 09/09 Q1001=
202010270220 METAR ESMX 270220Z AUTO 18006KT 9999 SCT008/// BKN010/// OVC024/// 09/09 Q1001 REDZ REUP=
202010270150 METAR ESMX 270150Z AUTO 16005KT 9999 UP FEW002/// BKN022/// BKN029/// 09/09 Q1001=
202010270120 METAR ESMX 270120Z AUTO 16005KT 9999 SCT012/// BKN020/// BKN044/// 09/09 Q1001=
202010270050 METAR ESMX 270050Z AUTO 18004KT 9999 FEW023/// SCT036/// BKN100/// 09/09 Q1001=
202010270020 METAR ESMX 270020Z AUTO 18003KT 9999 FEW035/// SCT100/// 09/09 Q1001=
202010262350 METAR ESMX 262350Z AUTO 19005KT 9999 -RA FEW037/// OVC053/// 09/09 Q1001=
202010262320 METAR ESMX 262320Z AUTO 19004KT 9999 -RA OVC055/// 09/09 Q1001=
202010262250 METAR ESMX 262250Z AUTO 20003KT 9999 -RA FEW000/// OVC051/// 09/09 Q1000=
202010262220 METAR ESMX 262220Z AUTO 20005KT 9999 -RA FEW006/// OVC057/// 09/09 Q1001 REDZ=
202010262150 METAR ESMX 262150Z AUTO 19007KT 9999 DZ FEW006/// OVC048/// 10/09 Q1001=
202010262120 METAR ESMX 262120Z AUTO 19006KT 9999 -RA FEW007/// OVC042/// 10/10 Q1001=
202010262050 METAR ESMX 262050Z AUTO 18007KT 9999 -RA FEW008/// BKN037/// OVC049/// 10/10 Q1001=
202010262020 METAR ESMX 262020Z AUTO 19009KT 9999 -RA SCT006/// BKN029/// OVC049/// 10/10 Q1001=
202010261950 METAR ESMX 261950Z AUTO 21008KT 9999 -RA FEW002/// BKN005/// OVC028/// 10/10 Q1001=
202010261920 METAR ESMX 261920Z AUTO 18006KT 9999 -RA FEW002/// BKN005/// OVC009/// 10/10 Q1001=
202010261850 METAR ESMX 261850Z 17005KT 9999 -RA BKN002 BKN004 10/10 Q1001=
202010261820 METAR ESMX 261820Z 16004KT 7000 RA SCT002 BKN004 10/10 Q1001=
202010261750 METAR ESMX 261750Z 15005KT 8000 -RA BKN005 BKN027 OVC043 10/10 Q1001=
202010261720 METAR ESMX 261720Z 16005KT 9999 -RA SCT011 BKN043 10/10 Q1001 REDZ=
202010261650 METAR ESMX 261650Z 15005KT 9999 DZ SCT009 BKN044 10/10 Q1001=
202010261620 METAR ESMX 261620Z 16003KT 9999 -RA SCT009 BKN046 10/10 Q1001=
202010261550 METAR ESMX 261550Z 14004KT 100V170 9999 -RA SCT009 BKN057 11/10 Q1001 REDZ=
202010261520 METAR ESMX 261520Z 15006KT 120V180 9999 DZ FEW007 BKN043 BKN051 11/10 Q1002 REDZ=
202010261450 METAR ESMX 261450Z 16007KT 8000 -RADZ FEW008 SCT022 BKN028 11/11 Q1002=
202010261420 METAR ESMX 261420Z 17005KT 8000 -RADZ BKN007 BKN017 11/11 Q1002=
202010261350 METAR ESMX 261350Z 17005KT 9999 DZ BKN007 BKN010 11/11 Q1002=
202010261320 METAR ESMX 261320Z 15005KT 120V190 9999 BKN008 BKN013 11/11 Q1001=
202010261250 METAR ESMX 261250Z 15005KT 120V180 9999 BKN008 BKN012 11/11 Q1002=
202010261220 METAR ESMX 261220Z 16004KT 9999 FEW008 SCT013 BKN100 11/11 Q1002=
202010261150 METAR ESMX 261150Z 16004KT 9999 BKN014 11/10 Q1002=
202010261120 METAR ESMX 261120Z 16004KT 9999 FEW011 BKN015 BKN032 11/10 Q1002=
202010261050 METAR ESMX 261050Z 19006KT 9999 SCT009 BKN110 11/10 Q1002=
202010261020 METAR ESMX 261020Z 19007KT 9999 SCT009 BKN055 11/10 Q1002=
202010260950 METAR ESMX 260950Z 20007KT 9999 FEW007 OVC055 11/11 Q1002=
202010260920 METAR ESMX 260920Z 19006KT 9999 SCT006 BKN049 11/11 Q1002=
202010260850 METAR ESMX 260850Z 17005KT 9999 SCT006 BKN047 11/11 Q1002=
202010260820 METAR ESMX 260820Z 19004KT 9999 SCT005 BKN044 10/10 Q1001=
202010260750 METAR ESMX 260750Z 19004KT 9999 FEW005 SCT038 BKN051 10/10 Q1001=
202010260720 METAR ESMX 260720Z 18006KT 9999 BKN005 BKN010 OVC057 10/10 Q1001=
202010260650 METAR ESMX 260650Z 18005KT 9999 BKN005 BKN010 10/10 Q1001=
202010260620 METAR ESMX 260620Z AUTO 18005KT 9999 FEW006/// BKN028/// OVC064/// 10/10 Q1001=
202010260550 METAR ESMX 260550Z AUTO 19006KT 9999 FEW006/// OVC026/// 10/10 Q1001=
202010260520 METAR ESMX 260520Z AUTO 19006KT 9999 SCT005/// OVC023/// 10/10 Q1000=
202010260450 METAR ESMX 260450Z AUTO 16007KT 9999 OVC003/// 11/11 Q1001=
202010260420 METAR ESMX 260420Z AUTO 17005KT 9999 OVC004/// 11/11 Q1000=
202010260350 METAR ESMX 260350Z AUTO 18006KT 9999 OVC005/// 11/11 Q1001 REDZ=
202010260320 METAR ESMX 260320Z AUTO 20007KT 9999 FEW002/// BKN005/// OVC006/// 11/11 Q1001=
202010260250 METAR ESMX 260250Z AUTO 18005KT 9999 BKN005/// BKN007/// OVC009/// 10/10 Q1000=
202010260220 METAR ESMX 260220Z AUTO 00000KT 9999 FEW002/// BKN012/// OVC024/// 09/09 Q1000=
202010260150 METAR ESMX 260150Z AUTO VRB02KT 9999 -DZ SCT002/// BKN009/// BKN025/// 09/09 Q1000=
202010260120 METAR ESMX 260120Z AUTO 21002KT 9999 -RA BKN002/// BKN003/// OVC010/// 10/10 Q1001=
202010260050 METAR ESMX 260050Z AUTO 22003KT 9999 -RA SCT002/// BKN015/// OVC049/// 10/10 Q1001=
202010260020 METAR ESMX 260020Z AUTO 22003KT 9999 DZ SCT021/// BKN028/// OVC049/// 10/10 Q1001=
202010252350 METAR ESMX 252350Z AUTO 22003KT 9999 -RA SCT003/// BKN029/// BKN049/// 10/10 Q1001=
202010252320 METAR ESMX 252320Z AUTO 22005KT 6000 RA FEW002/// OVC025/// 10/10 Q1002=
202010252250 METAR ESMX 252250Z AUTO 16003KT 120V200 9999 -RA SCT003/// OVC023/// 10/10 Q1001=
202010252220 METAR ESMX 252220Z AUTO 23005KT 9999 -RA FEW003/// SCT016/// BKN023/// 10/10 Q1002=
202010252150 METAR ESMX 252150Z AUTO 21008KT 9999 -RA FEW001/// OVC005/// 11/10 Q1002=
202010252120 METAR ESMX 252120Z AUTO 17008KT 9999 -RA FEW002/// BKN005/// OVC008/// 11/11 Q1001=
202010252050 METAR ESMX 252050Z AUTO 17008KT 9999 RA OVC005/// 12/11 Q1002=
202010252020 METAR ESMX 252020Z AUTO 17008KT 9999 -RA OVC005/// 12/11 Q1002=
202010251950 METAR ESMX 251950Z AUTO 17008KT 9999 -RA OVC006/// 12/11 Q1002 REDZ=
202010251920 METAR ESMX 251920Z AUTO 17008KT 9999 -RA OVC006/// 11/11 Q1002 REDZ=
202010251850 METAR ESMX 251850Z AUTO 16008KT 130V190 9999 DZ OVC005/// 11/11 Q1002=
202010251820 METAR ESMX 251820Z AUTO 17008KT 9999 -RA BKN005/// OVC009/// 11/11 Q1002=
202010251750 METAR ESMX 251750Z AUTO 16009KT 9999 -RA BKN006/// BKN008/// OVC011/// 11/11 Q1002 REDZ=
202010251720 METAR ESMX 251720Z AUTO 17007KT 9999 DZ SCT007/// BKN010/// BKN029/// 12/11 Q1002=
202010251650 METAR ESMX 251650Z AUTO 17008KT 9999 BKN009/// OVC032/// 12/11 Q1002=
202010251620 METAR ESMX 251620Z AUTO 16008KT 9999 BKN010/// OVC012/// 12/11 Q1002 RERA=
202010251550 METAR ESMX 251550Z AUTO 17008KT 9999 BKN011/// OVC014/// 12/11 Q1002=
202010251520 METAR ESMX 251520Z AUTO 17009KT 9999 -RA OVC012/// 12/11 Q1002=
202010251450 METAR ESMX 251450Z AUTO 17009KT 9999 OVC014/// 12/11 Q1002=
202010251420 METAR ESMX 251420Z AUTO 17011KT 9999 BKN012/// OVC016/// 12/11 Q1002=
202010251350 METAR ESMX 251350Z AUTO 16009KT 140V200 9999 OVC013/// 12/11 Q1001=
202010251320 METAR ESMX 251320Z AUTO 17010KT 9999 BKN013/// BKN018/// OVC031/// 13/11 Q1002=
202010251250 METAR ESMX 251250Z AUTO 17012KT 9999 BKN012/// OVC033/// 13/11 Q1002=
202010251220 METAR ESMX 251220Z AUTO 16011KT 130V190 9999 SCT013/// OVC036/// 13/11 Q1002=
202010251150 METAR ESMX 251150Z AUTO 17010KT 9999 FEW014/// OVC036/// 13/11 Q1002=
202010251120 METAR ESMX 251120Z AUTO 16012KT 120V190 9999 SCT013/// OVC038/// 13/11 Q1002=
202010251050 METAR ESMX 251050Z AUTO 17010KT 9999 SCT011/// BKN015/// OVC038/// 13/11 Q1003=
202010251020 METAR ESMX 251020Z AUTO 16011KT 9999 BKN010/// OVC037/// 13/12 Q1003=
202010250950 METAR ESMX 250950Z AUTO 17011KT 9999 BKN009/// OVC011/// 13/11 Q1003=
202010250920 METAR ESMX 250920Z AUTO 17011KT 9999 OVC008/// 12/11 Q1003=
202010250850 METAR ESMX 250850Z AUTO 16009KT 9999 OVC007/// 12/11 Q1003=
202010250820 METAR ESMX 250820Z AUTO 17010KT 9999 OVC008/// 12/11 Q1004=
202010250750 METAR ESMX 250750Z AUTO 17010KT 9999 OVC008/// 12/11 Q1004=
202010250720 METAR ESMX 250720Z AUTO 17010KT 9999 BKN007/// OVC009/// 12/11 Q1004=
202010250650 METAR ESMX 250650Z AUTO 17009KT 9999 OVC007/// 12/11 Q1004=
202010250620 METAR ESMX 250620Z AUTO 17008KT 140V200 9999 OVC006/// 11/11 Q1004=
202010250550 METAR ESMX 250550Z AUTO 17009KT 9999 OVC005/// 11/11 Q1004=
202010250520 METAR ESMX 250520Z AUTO 17008KT 9999 OVC005/// 11/11 Q1004=
202010250450 METAR ESMX 250450Z AUTO 17008KT 9000 BR OVC004/// 11/11 Q1005=
202010250420 METAR ESMX 250420Z AUTO 17009KT 120V190 5000 BR FEW002/// OVC005/// 11/10 Q1005 REDZ=
202010250350 METAR ESMX 250350Z AUTO 17008KT 9000 BR OVC005/// 10/10 Q1005=
202010250320 METAR ESMX 250320Z AUTO 18007KT 7000 BR BKN002/// OVC005/// 10/10 Q1005=
202010250250 METAR ESMX 250250Z AUTO 15007KT 5000 BR OVC002/// 09/09 Q1006=
202010250220 METAR ESMX 250220Z AUTO 15008KT 6000 BR OVC003/// 09/09 Q1006=
202010250150 METAR ESMX 250150Z AUTO 15007KT 110V170 9999 OVC004/// 09/08 Q1006=
202010250120 METAR ESMX 250120Z AUTO 15007KT 9999 BKN006/// OVC022/// 08/08 Q1006=
202010250050 METAR ESMX 250050Z AUTO 14006KT 9999 SCT024/// OVC041/// 08/08 Q1006=
202010250020 METAR ESMX 250020Z AUTO 15005KT 9999 OVC047/// 08/08 Q1007=
202010242350 METAR ESMX 242350Z AUTO 17005KT 9999 OVC051/// 08/07 Q1007=
202010242320 METAR ESMX 242320Z AUTO 16006KT 9999 SCT049/// 07/07 Q1007=
202010242250 METAR ESMX 242250Z AUTO 17006KT 9999 SCT048/// 07/07 Q1007=
202010242220 METAR ESMX 242220Z AUTO 17006KT 9999 NCD 08/07 Q1008=
202010242150 METAR ESMX 242150Z AUTO 17006KT 9999 NCD 08/07 Q1007=
202010242120 METAR ESMX 242120Z AUTO 18005KT 9999 NCD 08/08 Q1007=
202010242050 METAR ESMX 242050Z AUTO 17006KT 9999 NCD 08/08 Q1007=
202010242020 METAR ESMX 242020Z AUTO 21005KT 9999 FEW140/// 08/08 Q1008=
202010241950 METAR ESMX 241950Z AUTO 17005KT 9999 NCD 08/08 Q1008=
202010241920 METAR ESMX 241920Z AUTO 21005KT 9999 SCT010/// 08/08 Q1008=
202010241850 METAR ESMX 241850Z AUTO 19005KT 9999 SCT010/// BKN023/// 08/08 Q1007=
202010241820 METAR ESMX 241820Z AUTO 21006KT 9999 BKN029/// OVC046/// 09/08 Q1007 REUP REDZ=
202010241750 METAR ESMX 241750Z AUTO 18005KT 9999 BKN036/// OVC046/// 09/08 Q1007=
202010241720 METAR ESMX 241720Z AUTO 22005KT 9999 BKN051/// BKN140/// 08/08 Q1007=
202010241650 METAR ESMX 241650Z AUTO 22005KT 9999 BKN051/// 08/08 Q1007=
202010241620 METAR ESMX 241620Z AUTO 23004KT 9999 OVC051/// 09/07 Q1007=
202010241550 METAR ESMX 241550Z AUTO 23006KT 9999 FEW049/// 09/07 Q1007=
202010241520 METAR ESMX 241520Z AUTO 23007KT 9999 FEW023/// 10/08 Q1006=
202010241450 METAR ESMX 241450Z AUTO 26005KT 230V290 9999 NCD 11/08 Q1006=
202010241420 METAR ESMX 241420Z AUTO 25005KT 210V280 9999 SCT051/// 11/09 Q1006=
202010241350 METAR ESMX 241350Z AUTO 26006KT 230V300 9999 SCT053/// 11/09 Q1006=
202010241320 METAR ESMX 241320Z AUTO 27007KT 9999 OVC020/// 11/09 Q1005=
202010241250 METAR ESMX 241250Z AUTO 25007KT 9999 FEW016/// BKN023/// OVC035/// 12/08 Q1005 REDZ=
202010241220 METAR ESMX 241220Z AUTO 25009KT 9999 BKN016/// BKN022/// OVC036/// 12/09 Q1005=
202010241150 METAR ESMX 241150Z AUTO 23011G22KT 200V270 9999 BKN016/// BKN035/// OVC059/// 12/09 Q1005=
202010241120 METAR ESMX 241120Z AUTO 25009KT 9999 SCT020/// BKN033/// BKN057/// 13/10 Q1005=
202010241050 METAR ESMX 241050Z AUTO 24009KT 9999 FEW019/// SCT025/// BKN042/// 12/09 Q1004=
202010241020 METAR ESMX 241020Z AUTO 25008KT 9999 SCT180/// 11/09 Q1004=
202010240950 METAR ESMX 240950Z AUTO 23009KT 190V250 9999 FEW013/// SCT018/// BKN180/// 11/09 Q1004=
202010240920 METAR ESMX 240920Z AUTO 22009KT 9999 SCT010/// BKN013/// BKN017/// 11/10 Q1004=
202010240850 METAR ESMX 240850Z AUTO 22008KT 9999 SCT009/// BKN010/// BKN015/// 11/10 Q1004=
202010240820 METAR ESMX 240820Z AUTO 23009KT 200V260 9999 OVC008/// 11/10 Q1003=
202010240750 METAR ESMX 240750Z AUTO 20010KT 9999 BKN007/// BKN021/// OVC040/// 10/10 Q1003=
202010240720 METAR ESMX 240720Z AUTO 22009KT 9999 SCT005/// BKN007/// OVC010/// 10/10 Q1003=
202010240650 METAR ESMX 240650Z AUTO 20010KT 9999 BKN004/// OVC007/// 10/10 Q1003=
202010240620 METAR ESMX 240620Z AUTO 18008KT 9999 OVC004/// 10/10 Q1003=
202010240550 METAR ESMX 240550Z AUTO 19009KT 9000 -RA OVC004/// 10/10 Q1003=
202010240520 METAR ESMX 240520Z AUTO 19008KT 7000 RA SCT002/// OVC005/// 09/09 Q1003=
202010240450 METAR ESMX 240450Z AUTO 19009KT 6000 -RA OVC003/// 09/09 Q1003=
202010240420 METAR ESMX 240420Z AUTO 18009KT 3200 RA SCT001/// OVC004/// 09/09 Q1003 REDZ REUP=
202010240350 METAR ESMX 240350Z AUTO 17008KT 8000 UP BKN005/// OVC007/// 09/09 Q1004 REDZ=
202010240320 METAR ESMX 240320Z AUTO 17008KT 9999 SCT008/// OVC045/// 09/09 Q1004 REDZ=
202010240250 METAR ESMX 240250Z AUTO 16008KT 8000 -DZ FEW005/// OVC051/// 08/08 Q1004 REDZ=
202010240220 METAR ESMX 240220Z AUTO 17007KT 8000 DZ BKN004/// BKN030/// OVC041/// 08/08 Q1004 REDZ=
202010240150 METAR ESMX 240150Z AUTO 17007KT 8000 DZ OVC002/// 08/08 Q1005 REUP REDZ=
202010240120 METAR ESMX 240120Z AUTO 17008KT 5000 BR OVC001/// 08/08 Q1005=
202010240050 METAR ESMX 240050Z AUTO 16005KT 1300 R01/P2000N R19/P2000N OVC001/// 08/08 Q1005=
202010240020 METAR ESMX 240020Z AUTO 18006KT 3500 OVC001/// 08/08 Q1006=
202010232350 METAR ESMX 232350Z AUTO 19008KT 0800 R01/1800U R19/P2000N FG OVC001/// 08/08 Q1006=
202010232320 METAR ESMX 232320Z AUTO 18006KT 140V210 2100 BR OVC001/// 08/08 Q1006=
202010232250 METAR ESMX 232250Z AUTO 17006KT 1300 R01/P2000N R19/P2000N BR OVC001/// 08/08 Q1006=
202010232220 METAR ESMX 232220Z AUTO 19005KT 7000 BR BKN002/// OVC006/// 08/08 Q1006=
202010232150 METAR ESMX 232150Z AUTO 20007KT 9999 SCT004/// BKN006/// BKN009/// 07/07 Q1007=
202010232120 METAR ESMX 232120Z AUTO 22003KT 9999 BKN010/// BKN023/// 07/06 Q1006=
202010232050 METAR ESMX 232050Z AUTO 15002KT 9999 SCT012/// BKN014/// BKN018/// 08/07 Q1006=
202010232020 METAR ESMX 232020Z AUTO 22002KT 9999 FEW024/// OVC064/// 07/07 Q1006=
202010231950 METAR ESMX 231950Z AUTO 22003KT 9999 FEW016/// SCT026/// OVC064/// 07/07 Q1007=
202010231920 METAR ESMX 231920Z AUTO 22004KT 9999 SCT017/// BKN024/// OVC059/// 07/07 Q1007=
202010231850 METAR ESMX 231850Z AUTO 22006KT 9999 OVC057/// 08/07 Q1007=
202010231820 METAR ESMX 231820Z AUTO 22005KT 9999 OVC057/// 07/07 Q1007=
202010231750 METAR ESMX 231750Z AUTO 17003KT 9999 OVC059/// 07/07 Q1007=
202010231720 METAR ESMX 231720Z AUTO 23003KT 9999 BKN061/// 07/07 Q1006=
202010231650 METAR ESMX 231650Z AUTO 23003KT 9999 FEW029/// SCT062/// 07/06 Q1007=
202010231620 METAR ESMX 231620Z AUTO 23004KT 9999 BKN029/// 07/06 Q1006=
202010231550 METAR ESMX 231550Z AUTO 23004KT 9999 SCT027/// 08/06 Q1006=
202010231520 METAR ESMX 231520Z AUTO 24004KT 9999 OVC026/// 09/07 Q1006=
202010231450 METAR ESMX 231450Z AUTO 22005KT 9999 OVC026/// 09/07 Q1006=
202010231420 METAR ESMX 231420Z AUTO 25006KT 9999 OVC024/// 09/07 Q1006=
202010231350 METAR ESMX 231350Z 26010KT 9999 BKN020 10/06 Q1006=
202010231320 METAR ESMX 231320Z 26009KT 9999 BKN022 10/06 Q1006=
202010231250 METAR ESMX 231250Z 26009KT 9999 BKN021 10/06 Q1006=
202010231220 METAR ESMX 231220Z 25009KT 9999 BKN020 10/07 Q1006=
202010231150 METAR ESMX 231150Z 26009KT 9999 BKN021 10/07 Q1005=
202010231120 METAR ESMX 231120Z 23009KT 200V260 9999 BKN021 10/07 Q1006=
202010231050 METAR ESMX 231050Z 23010KT 9999 BKN022 10/07 Q1006=
202010231020 METAR ESMX 231020Z 26010KT 9999 FEW014 BKN019 10/07 Q1005=
202010230950 METAR ESMX 230950Z 26009KT 9999 BKN020 10/08 Q1005=
202010230920 METAR ESMX 230920Z 26011KT 9999 SCT015 BKN020 10/08 Q1005=
202010230850 METAR ESMX 230850Z 25010KT 9999 SCT011 BKN022 10/08 Q1004=
202010230820 METAR ESMX 230820Z 27009KT 240V300 9999 SCT012 BKN023 09/08 Q1004=
202010230750 METAR ESMX 230750Z 26010KT 9000 SCT005 BKN013 09/09 Q1004=
202010230720 METAR ESMX 230720Z 24010KT 190V260 9999 -DZ FEW010 BKN013 10/09 Q1003=
202010230650 METAR ESMX 230650Z 25011KT 220V280 9999 FEW010 BKN019 10/09 Q1002=
202010230620 METAR ESMX 230620Z AUTO 25010KT 9999 FEW019/// OVC025/// 10/09 Q1002=
202010230550 METAR ESMX 230550Z AUTO 25010KT 220V280 9999 SCT013/// OVC029/// 10/09 Q1002=
202010230520 METAR ESMX 230520Z AUTO 25010KT 9999 SCT013/// BKN019/// 10/09 Q1002 REDZ=
202010230450 METAR ESMX 230450Z AUTO 25010KT 9999 SCT014/// BKN034/// 10/10 Q1001=
202010230420 METAR ESMX 230420Z AUTO 24011KT 210V280 3700 +DZ FEW002/// BKN007/// OVC013/// 10/10 Q1001=
202010230350 METAR ESMX 230350Z AUTO 24010KT 9999 DZ SCT008/// BKN011/// BKN022/// 10/10 Q1001 REDZ=
202010230320 METAR ESMX 230320Z AUTO 24010KT 210V270 9000 +DZ FEW003/// BKN010/// BKN013/// 10/09 Q1001 REDZ=
202010230250 METAR ESMX 230250Z AUTO 23011KT 9999 BKN010/// BKN014/// OVC021/// 10/10 Q1001 RERA=
202010230220 METAR ESMX 230220Z AUTO 22010KT 9000 -DZ BKN008/// OVC021/// 10/10 Q1001=
202010230150 METAR ESMX 230150Z AUTO 22013KT 6000 DZ FEW008/// SCT009/// OVC016/// 10/10 Q1001=
202010230120 METAR ESMX 230120Z AUTO 22014KT 7000 FEW002/// OVC014/// 10/09 Q1001=
202010230050 METAR ESMX 230050Z AUTO 22014KT 9999 -DZ SCT013/// OVC018/// 11/10 Q1001 REDZ=
202010230020 METAR ESMX 230020Z AUTO 21012KT 9999 DZ FEW006/// SCT020/// BKN034/// 11/09 Q1001=
202010222350 METAR ESMX 222350Z AUTO 21014KT 9999 FEW016/// SCT024/// BKN033/// 11/09 Q1001=
202010222320 METAR ESMX 222320Z AUTO 20014KT 9999 BKN017/// 11/10 Q1001=
202010222250 METAR ESMX 222250Z AUTO 20015KT 9999 BKN016/// BKN025/// 11/10 Q1001 REDZ=
202010222220 METAR ESMX 222220Z AUTO 20014KT 9999 SCT023/// BKN033/// BKN043/// 12/10 Q1001=
202010222150 METAR ESMX 222150Z AUTO 21013KT 9999 BKN020/// OVC072/// 11/10 Q1002=
202010222120 METAR ESMX 222120Z AUTO 20014KT 9999 FEW013/// BKN017/// BKN020/// 11/10 Q1002=
202010222050 METAR ESMX 222050Z AUTO 20013KT 9999 BKN019/// BKN043/// OVC051/// 11/10 Q1002=
202010222020 METAR ESMX 222020Z AUTO 19012KT 9999 DZ BKN024/// OVC040/// 11/10 Q1002=
202010221950 METAR ESMX 221950Z AUTO 20011KT 9999 BKN024/// BKN044/// 11/10 Q1002=
202010221920 METAR ESMX 221920Z AUTO 20010KT 9999 FEW009/// OVC043/// 11/11 Q1003=
202010221850 METAR ESMX 221850Z AUTO 21013KT 9999 BKN008/// BKN013/// OVC021/// 11/11 Q1003=
202010221820 METAR ESMX 221820Z 21011KT 9999 SCT008 BKN012 11/11 Q1003=
202010221750 METAR ESMX 221750Z 21012KT 9999 BKN011 12/11 Q1003=
202010221720 METAR COR ESMX 221720Z 20011KT 9999 FEW009 BKN011 12/11 Q1003=
202010221650 METAR ESMX 221650Z 21013KT 5000 RA FEW006 BKN011 12/11 Q1003=
202010221620 METAR ESMX 221620Z 20012KT 9999 -DZ SCT017 BKN020 12/11 Q1003=
202010221550 METAR ESMX 221550Z 21012KT 9999 -RA FEW017 BKN020 12/11 Q1003=
202010221520 METAR ESMX 221520Z 22011KT 9999 -RA FEW007 BKN022 13/11 Q1002=
202010221450 METAR ESMX 221450Z 21013G23KT 9999 FEW019 BKN025 13/11 Q1002=
202010221420 METAR ESMX 221420Z 22015KT 9999 BKN015 13/11 Q1002=
202010221350 METAR ESMX 221350Z 21011KT 9999 SCT014 BKN021 13/12 Q1002=
202010221320 METAR ESMX 221320Z AUTO 23012KT 9999 -DZ BKN011/// BKN015/// OVC020/// 13/12 Q1002 REDZ=
202010221250 METAR ESMX 221250Z AUTO 20013KT 5000 BR SCT006/// BKN009/// OVC012/// 13/13 Q1002=
202010221220 METAR ESMX 221220Z AUTO 22009KT 8000 DZ BKN008/// OVC011/// 13/13 Q1002 REDZ=
202010221150 METAR ESMX 221150Z AUTO 24008KT 9999 OVC012/// 13/12 Q1002=
202010221120 METAR ESMX 221120Z AUTO 23009KT 9999 OVC011/// 13/12 Q1002=
202010221050 METAR ESMX 221050Z AUTO 23009KT 9999 OVC012/// 13/12 Q1002=
202010221020 METAR ESMX 221020Z AUTO 25012KT 9999 OVC012/// 13/11 Q1002=
202010220950 METAR ESMX 220950Z AUTO 26012KT 230V290 9999 OVC012/// 13/11 Q1002=
202010220920 METAR ESMX 220920Z AUTO 26013KT 9999 OVC012/// 12/11 Q1001=
202010220850 METAR ESMX 220850Z AUTO 26014G25KT 9999 OVC012/// 13/11 Q1000=
202010220820 METAR ESMX 220820Z AUTO 26015G25KT 9999 OVC010/// 13/11 Q0999=
202010220750 METAR ESMX 220750Z AUTO 26014KT 9999 FEW008/// OVC010/// 12/11 Q0998 REDZ=
202010220720 METAR ESMX 220720Z AUTO 26014KT 9999 SCT010/// BKN016/// OVC021/// 12/12 Q0996 REDZ=
202010220650 METAR ESMX 220650Z AUTO 23015G27KT 9999 BKN009/// OVC010/// 12/12 Q0995=
202010220620 METAR ESMX 220620Z AUTO 24014KT 9999 BKN009/// BKN012/// OVC016/// 12/11 Q0994=
202010220550 METAR ESMX 220550Z AUTO 24017G29KT 9999 BR BKN009/// OVC019/// 12/12 Q0993 REDZ=
202010220520 METAR ESMX 220520Z AUTO 22017KT 200V260 9999 FEW007/// SCT009/// BKN015/// 13/12 Q0992=
202010220450 METAR ESMX 220450Z AUTO 21016KT 5000 -DZ FEW007/// BKN011/// OVC015/// 13/13 Q0992=
202010220420 METAR ESMX 220420Z AUTO 20016KT 6000 DZ VV010 13/13 Q0992=
202010220350 METAR ESMX 220350Z AUTO 19015KT 4400 DZ FEW002/// BKN005/// OVC013/// 13/13 Q0992=
202010220320 METAR ESMX 220320Z AUTO 20015KT 7000 BR BKN006/// OVC009/// 13/13 Q0992 REDZ=
202010220250 METAR ESMX 220250Z AUTO 18013KT 9999 BKN009/// OVC013/// 13/12 Q0992=
202010220220 METAR ESMX 220220Z AUTO 18011KT 9999 FEW004/// BKN011/// OVC015/// 12/12 Q0993=
202010220150 METAR ESMX 220150Z AUTO 17012KT 9999 DZ BKN019/// OVC031/// 12/12 Q0994=
202010220120 METAR ESMX 220120Z AUTO 17013KT 9999 -RA FEW009/// BKN022/// OVC032/// 12/12 Q0994 RERA=
202010220050 METAR ESMX 220050Z AUTO 18012KT 9999 SCT026/// OVC036/// 12/12 Q0995=
202010220020 METAR ESMX 220020Z AUTO 17011KT 9999 SCT008/// BKN010/// BKN014/// 12/12 Q0995 REDZ RERA=
202010212350 METAR ESMX 212350Z AUTO 17012KT 9999 BKN007/// OVC010/// 12/11 Q0996=
202010212320 METAR ESMX 212320Z AUTO 18012KT 9999 FEW002/// BKN005/// OVC008/// 12/12 Q0996=
202010212250 METAR ESMX 212250Z AUTO 16010KT 8000 +RA FEW001/// OVC005/// 11/11 Q0996=
202010212220 METAR ESMX 212220Z AUTO 16009KT 7000 +RA FEW002/// BKN005/// OVC013/// 11/11 Q0997=
202010212150 METAR ESMX 212150Z AUTO 17010KT 8000 -RA FEW002/// OVC004/// 11/11 Q0997=
202010212120 METAR ESMX 212120Z AUTO 17010KT 9999 -RA FEW002/// OVC004/// 11/11 Q0998=
202010212050 METAR ESMX 212050Z AUTO 15009KT 8000 -RA FEW002/// BKN005/// BKN009/// 11/11 Q0998=
202010212020 METAR ESMX 212020Z AUTO 15010KT 110V170 8000 RA FEW002/// BKN004/// OVC007/// 11/11 Q0999 REDZ=
202010211950 METAR ESMX 211950Z AUTO 15007KT 7000 RA BKN002/// BKN005/// OVC017/// 11/11 Q0999=
202010211920 METAR ESMX 211920Z AUTO 15009KT 9999 RA SCT002/// OVC004/// 11/11 Q1000=
202010211850 METAR ESMX 211850Z AUTO 15008KT 120V180 7000 RA FEW002/// BKN004/// OVC018/// 11/11 Q1000=
202010211820 METAR ESMX 211820Z AUTO 15007KT 9999 -RA OVC003/// 12/12 Q1001=
202010211750 METAR ESMX 211750Z AUTO 14008KT 110V170 9999 RA OVC004/// 12/12 Q1001=
202010211720 METAR ESMX 211720Z AUTO 14007KT 110V170 8000 -RA OVC003/// 12/12 Q1002=
202010211650 METAR ESMX 211650Z AUTO 14005KT 100V160 5000 -RA OVC002/// 12/12 Q1002=
202010211620 METAR ESMX 211620Z AUTO 13005KT 100V170 3400 -RA OVC001/// 12/12 Q1002=
202010211550 METAR ESMX 211550Z AUTO 13005KT 100V160 1000 R01/P2000N R19/P2000N -RA OVC001/// 11/11 Q1003=
202010211520 METAR ESMX 211520Z AUTO 15004KT 0550 R01/1100N R19/1300N FG OVC001/// 11/11 Q1003=
202010211450 METAR ESMX 211450Z AUTO 13004KT 100V190 1100 R01/1700N R19/P2000N BR OVC001/// 11/11 Q1004=
202010211420 METAR ESMX 211420Z AUTO 14004KT 1700 BR OVC001/// 11/11 Q1004=
202010211350 METAR ESMX 211350Z 15005KT 1000 FG VV002 11/11 Q1004=
202010211320 METAR ESMX 211320Z 15006KT 2000 BR OVC004 11/11 Q1005=
202010211250 METAR ESMX 211250Z 18006KT 7000 BR OVC006 12/11 Q1005=
202010211220 METAR ESMX 211220Z 18005KT 5000 BR BKN004 12/11 Q1005=
202010211150 METAR ESMX 211150Z 19006KT 5000 BR BKN005 11/11 Q1005=
202010211120 METAR ESMX 211120Z 19008KT 5000 BR SCT002 11/11 Q1006=
202010211050 METAR ESMX 211050Z 19008KT 2800 BR OVC002 11/11 Q1006=
202010211020 METAR ESMX 211020Z 20008KT 1500 BR OVC002 11/11 Q1006=
202010210950 METAR ESMX 210950Z 21008KT 1000 FG OVC001 11/11 Q1006=
202010210920 METAR ESMX 210920Z 18008KT 0800 R01/1100N R19/1200N FG VV002 11/11 Q1006=
202010210850 METAR ESMX 210850Z 19007KT 0500 R01/0800U R19/0800N FG VV002 10/10 Q1006=
202010210820 METAR ESMX 210820Z 18007KT 0400 R01/0700N R19/0700N FG VV002 10/10 Q1006=
202010210750 METAR ESMX 210750Z 18006KT 0400 R01/0700N R19/0750N FG VV002 10/10 Q1005=
202010210720 METAR ESMX 210720Z 18006KT 0550 R01/0900N R19/1000N FG VV002 10/10 Q1006=
202010210650 METAR ESMX 210650Z 19006KT 0500 R01/0900N R19/1000N FG VV002 09/09 Q1005=
202010210620 METAR ESMX 210620Z AUTO 18006KT 0500 R01/1000N R19/1000N FG OVC001/// 09/09 Q1005=
202010210550 METAR ESMX 210550Z AUTO 19006KT 0700 R01/1600D R19/1800D FG OVC001/// 09/09 Q1005=
202010210520 METAR ESMX 210520Z AUTO 21006KT 1100 R01/P2000N R19/P2000N BR OVC001/// 09/09 Q1005=
202010210450 METAR ESMX 210450Z AUTO 20008KT 1800 OVC002/// 09/09 Q1005=
202010210420 METAR ESMX 210420Z AUTO 20008KT 2600 SCT001/// OVC003/// 09/09 Q1005=
202010210350 METAR ESMX 210350Z AUTO 19008KT 0900 R01/P2000N R19/P2000N FG OVC001/// 09/09 Q1005=
202010210320 METAR ESMX 210320Z AUTO 20008KT 0700 R01/1700D R19/P2000N FG OVC001/// 09/09 Q1005=
202010210250 METAR ESMX 210250Z AUTO 19008KT 2000 BR OVC002/// 09/09 Q1005=
202010210220 METAR ESMX 210220Z AUTO 20007KT 2600 BR OVC002/// 09/09 Q1005=
202010210150 METAR ESMX 210150Z AUTO 20007KT 2900 BR OVC003/// 08/08 Q1005 REUP=
202010210120 METAR ESMX 210120Z AUTO 18006KT 4000 BR OVC004/// 08/08 Q1005=
202010210050 METAR ESMX 210050Z AUTO 18007KT 4700 BR OVC005/// 08/08 Q1005 RESHUP RERA=
202010210020 METAR ESMX 210020Z AUTO 19006KT 5000 BR OVC006/// 08/08 Q1005=
202010202350 METAR ESMX 202350Z AUTO 17007KT 4400 -DZ SCT006/// BKN009/// OVC011/// 08/08 Q1006=
202010202320 METAR ESMX 202320Z AUTO 18006KT 7000 -DZ OVC013/// 08/08 Q1006 RERA=
202010202250 METAR ESMX 202250Z AUTO 16005KT 9000 -DZ OVC015/// 08/08 Q1006 REDZ REUP=
202010202220 METAR ESMX 202220Z AUTO 18007KT 9999 DZ OVC015/// 09/07 Q1007 REDZ REUP=
202010202150 METAR ESMX 202150Z AUTO 18007KT 9999 SCT014/// OVC019/// 09/07 Q1007=
202010202120 METAR ESMX 202120Z AUTO 17007KT 9999 BKN014/// OVC018/// 09/07 Q1007=
202010202050 METAR ESMX 202050Z AUTO 14005KT 110V170 9999 BKN016/// OVC098/// 08/07 Q1007=
202010202020 METAR ESMX 202020Z AUTO 16005KT 9999 FEW019/// BKN100/// BKN130/// 08/07 Q1008=
202010201950 METAR ESMX 201950Z AUTO 15005KT 9999 SCT017/// BKN025/// 08/07 Q1008=
202010201920 METAR ESMX 201920Z AUTO 15006KT 9999 SCT018/// 08/07 Q1008=
202010201850 METAR ESMX 201850Z AUTO 15006KT 110V170 9999 BKN017/// 09/07 Q1008=
202010201820 METAR ESMX 201820Z AUTO 14005KT 090V180 9999 BKN017/// BKN120/// 09/07 Q1008=
202010201750 METAR ESMX 201750Z AUTO 15008KT 9999 BKN100/// 09/07 Q1009=
202010201720 METAR ESMX 201720Z AUTO 14009KT 110V180 9999 SCT012/// BKN098/// 09/07 Q1009=
202010201650 METAR ESMX 201650Z AUTO 14007KT 110V170 9999 BKN013/// OVC021/// 09/07 Q1010=
202010201620 METAR ESMX 201620Z AUTO 14007KT 110V180 9999 BKN018/// BKN120/// 09/07 Q1010=
202010201550 METAR ESMX 201550Z AUTO 15008KT 9999 -DZ SCT018/// BKN066/// 09/07 Q1011 RERA=
202010201520 METAR ESMX 201520Z AUTO 15009KT 120V180 9999 -RA FEW017/// SCT028/// BKN062/// 09/08 Q1011=
202010201450 METAR ESMX 201450Z AUTO 15008KT 9999 SCT015/// BKN072/// 10/07 Q1011=
202010201420 METAR ESMX 201420Z AUTO 16009KT 9999 BKN015/// BKN110/// 10/07 Q1012=
202010201350 METAR ESMX 201350Z 17010KT 9999 BKN012 10/08 Q1012=
202010201320 METAR ESMX 201320Z 16007KT 9999 BKN011 10/08 Q1013=
202010201250 METAR ESMX 201250Z 15007KT 110V190 9999 SCT011 BKN014 09/08 Q1013=
202010201220 METAR ESMX 201220Z 15008KT 9999 BKN010 09/08 Q1014=
202010201150 METAR ESMX 201150Z 15008KT 120V190 9999 BKN010 09/08 Q1014=
202010201120 METAR ESMX 201120Z 14007KT 120V190 9999 BKN010 09/08 Q1015=
202010201050 METAR ESMX 201050Z 15008KT 9999 BKN008 09/07 Q1015=
202010201020 METAR ESMX 201020Z 15008KT 120V180 9999 SCT009 08/07 Q1015=
202010200950 METAR ESMX 200950Z 15007KT 110V180 8000 SCT008 BKN020 08/07 Q1016=
202010200920 METAR ESMX 200920Z 14007KT 110V180 9000 FEW008 BKN019 07/07 Q1016=
202010200850 METAR ESMX 200850Z 14007KT 110V170 8000 FEW006 SCT020 BKN057 07/06 Q1016=
202010200820 METAR ESMX 200820Z 14008KT 9999 FEW006 BKN050 06/06 Q1016=
202010200750 METAR ESMX 200750Z 15006KT 110V180 9999 FEW006 SCT019 BKN031 06/06 Q1017=
202010200720 METAR ESMX 200720Z 14008KT 9999 FEW004 BKN045 06/05 Q1017=
202010200650 METAR ESMX 200650Z 14008KT 100V160 9999 BKN048 05/05 Q1017=
202010200620 METAR ESMX 200620Z AUTO 13006KT 9999 SCT013/// OVC047/// 05/04 Q1017=
202010200550 METAR ESMX 200550Z AUTO 14007KT 110V190 9999 BKN015/// OVC021/// 04/04 Q1017 RESHUP REUP=
202010200520 METAR ESMX 200520Z AUTO 15005KT 9999 OVC025/// 04/03 Q1017=
202010200450 METAR ESMX 200450Z AUTO 14006KT 9999 OVC032/// 04/03 Q1017=
202010200420 METAR ESMX 200420Z AUTO 16005KT 9999 FEW027/// BKN037/// OVC042/// 04/03 Q1017=
202010200350 METAR ESMX 200350Z AUTO 13004KT 9999 OVC044/// 04/04 Q1017=
202010200320 METAR ESMX 200320Z AUTO 12004KT 080V150 9999 BKN049/// BKN080/// 03/03 Q1017=
202010200250 METAR ESMX 200250Z AUTO 13004KT 9999 FEW098/// 03/03 Q1018=
202010200220 METAR ESMX 200220Z AUTO 23002KT 9999 SCT025/// BKN100/// 03/02 Q1018=
202010200150 METAR ESMX 200150Z AUTO 15002KT 9999 SCT026/// BKN100/// 02/02 Q1018=
202010200120 METAR ESMX 200120Z AUTO 00000KT 9999 OVC120/// 01/01 Q1018=
202010200050 METAR ESMX 200050Z AUTO 23002KT 9999 BKN120/// 01/01 Q1018=
202010200020 METAR ESMX 200020Z AUTO 16002KT 9999 OVC130/// 01/01 Q1018=
202010192350 METAR ESMX 192350Z AUTO 00000KT 9999 OVC130/// 01/01 Q1018=
202010192320 METAR ESMX 192320Z AUTO 23003KT 9999 OVC130/// 01/01 Q1019=
202010192250 METAR ESMX 192250Z AUTO 16003KT 9999 OVC120/// 01/00 Q1018=
202010192220 METAR ESMX 192220Z AUTO 00000KT 9999 OVC130/// M00/M00 Q1018=
202010192150 METAR ESMX 192150Z AUTO 00000KT 9999 NCD M00/M01 Q1018=
202010192120 METAR ESMX 192120Z AUTO 23005KT 9999 NCD 01/01 Q1018=
202010192050 METAR ESMX 192050Z AUTO 23005KT 9999 NCD 01/00 Q1018=
202010192020 METAR ESMX 192020Z AUTO 23003KT 9999 FEW180/// 02/01 Q1018=
202010191950 METAR ESMX 191950Z AUTO 23003KT 9999 NCD 02/01 Q1018=
202010191920 METAR ESMX 191920Z AUTO 23005KT 9999 NCD 02/00 Q1018=
202010191850 METAR ESMX 191850Z AUTO 24005KT 9999 NCD 01/M00 Q1017=
202010191820 METAR ESMX 191820Z AUTO 24004KT 9999 NCD 02/00 Q1017=
202010191750 METAR ESMX 191750Z AUTO 25003KT 9999 NCD 02/00 Q1017=
202010191720 METAR ESMX 191720Z AUTO 24004KT 9999 BKN042/// 03/01 Q1017=
202010191650 METAR ESMX 191650Z AUTO 16002KT 9999 SCT044/// 04/01 Q1016=
202010191620 METAR ESMX 191620Z AUTO 28003KT 9999 SCT047/// 04/01 Q1016=
202010191550 METAR ESMX 191550Z AUTO 28003KT 9999 NCD 06/00 Q1016=
202010191520 METAR ESMX 191520Z AUTO 28004KT 9999 NCD 08/00 Q1016=
202010191450 METAR ESMX 191450Z AUTO 29004KT 9999 NCD 08/00 Q1015=
202010191420 METAR ESMX 191420Z 28009KT CAVOK 09/M00 Q1015=
202010191350 METAR ESMX 191350Z 28008KT 9999 NSC 09/M00 Q1015=
202010191320 METAR COR ESMX 191320Z 30010KT 260V330 FEW040 09/M00 Q1015=
202010191250 METAR ESMX 191250Z 28010KT CAVOK 09/M01 Q1015=
202010191220 METAR ESMX 191220Z 27009KT CAVOK 09/M02 Q1015=
202010191150 METAR ESMX 191150Z 28009KT 250V310 CAVOK 09/M02 Q1015=
202010191120 METAR ESMX 191120Z 30010KT CAVOK 09/M01 Q1015=
202010191050 METAR ESMX 191050Z 28007KT 240V320 CAVOK 09/01 Q1015=
202010191020 METAR ESMX 191020Z 28007KT CAVOK 08/02 Q1015=
202010190950 METAR ESMX 190950Z 28007KT CAVOK 07/02 Q1015=
202010190920 METAR ESMX 190920Z 27005KT 9999 FEW049 06/02 Q1015=
202010190850 METAR ESMX 190850Z 23004KT 9999 FEW041 04/02 Q1014=
202010190820 METAR ESMX 190820Z 23004KT 9999 FEW040 03/01 Q1014=
202010190750 METAR ESMX 190750Z 23005KT 9999 FEW040 02/01 Q1014=
202010190720 METAR ESMX 190720Z 23005KT 9999 FEW040 01/00 Q1014=
202010190650 METAR ESMX 190650Z 23004KT 9999 FEW044 M01/M01 Q1014=
202010190620 METAR ESMX 190620Z 23006KT 9999 FEW044 M01/M02 Q1014=
202010190550 METAR ESMX 190550Z AUTO 24005KT 9999 FEW047/// M02/M02 Q1013=
202010190520 METAR ESMX 190520Z AUTO 24004KT 9999 NCD M01/M02 Q1013=
202010190450 METAR ESMX 190450Z AUTO 27004KT 9999 NCD M01/M01 Q1013=
202010190420 METAR ESMX 190420Z AUTO 26004KT 9999 NCD M02/M02 Q1013=
202010190350 METAR ESMX 190350Z AUTO 24003KT 9999 NCD M01/M01 Q1013=
202010190320 METAR ESMX 190320Z AUTO 28004KT 9999 NCD M00/M01 Q1013=
202010190250 METAR ESMX 190250Z AUTO 26004KT 9999 NCD M00/M01 Q1013=
202010190220 METAR ESMX 190220Z AUTO 26004KT 9999 NCD M00/M01 Q1013=
202010190150 METAR ESMX 190150Z AUTO 25005KT 9999 NCD M01/M02 Q1013=
202010190120 METAR ESMX 190120Z AUTO 25005KT 9999 NCD M01/M02 Q1013=
202010190050 METAR ESMX 190050Z AUTO 25005KT 9999 NCD M01/M02 Q1013=
202010190020 METAR ESMX 190020Z AUTO 25005KT 9999 NCD M01/M02 Q1013=
202010182350 METAR ESMX 182350Z AUTO 26005KT 9999 NCD 00/M01 Q1013=
202010182320 METAR ESMX 182320Z AUTO 26005KT 9999 NCD M00/M02 Q1012=
202010182250 METAR ESMX 182250Z AUTO 24004KT 9999 NCD 00/M01 Q1012=
202010182220 METAR ESMX 182220Z AUTO 24005KT 9999 NCD 00/M02 Q1012=
202010182150 METAR ESMX 182150Z AUTO 25006KT 9999 NCD 01/M01 Q1012=
202010182120 METAR ESMX 182120Z AUTO 25006KT 9999 NCD 01/M01 Q1011=
202010182050 METAR ESMX 182050Z AUTO 26006KT 9999 NCD 02/M01 Q1011=
202010182020 METAR ESMX 182020Z AUTO 26006KT 9999 NCD 03/M01 Q1011=
202010181950 METAR ESMX 181950Z AUTO 27006KT 9999 NCD 03/M01 Q1011=
202010181920 METAR ESMX 181920Z AUTO 27007KT 9999 NCD 03/M01 Q1011=
202010181850 METAR ESMX 181850Z AUTO 27006KT 9999 NCD 03/M01 Q1011=
202010181820 METAR ESMX 181820Z AUTO 26005KT 9999 NCD 02/M01 Q1011=
202010181750 METAR ESMX 181750Z AUTO 27005KT 9999 NCD 03/M01 Q1010=
202010181720 METAR ESMX 181720Z AUTO 27004KT 9999 NCD 04/M02 Q1010=
202010181650 METAR ESMX 181650Z AUTO 27006KT 9999 NCD 05/M02 Q1010=
202010181620 METAR ESMX 181620Z AUTO 27007KT 9999 NCD 05/M02 Q1010=
202010181550 METAR ESMX 181550Z AUTO 27007KT 9999 NCD 06/M02 Q1009=
202010181520 METAR ESMX 181520Z AUTO 27008KT 9999 NCD 07/M03 Q1009=
202010181450 METAR ESMX 181450Z AUTO 28010KT 9999 NCD 08/M03 Q1009=
202010181420 METAR ESMX 181420Z AUTO 28013KT 9999 NCD 08/M03 Q1009=
202010181350 METAR ESMX 181350Z AUTO 26014KT 230V290 9999 NCD 08/M03 Q1009=
202010181320 METAR ESMX 181320Z AUTO 27011KT 240V300 9999 NCD 08/M03 Q1009=
202010181250 METAR ESMX 181250Z AUTO 28011KT 9999 NCD 08/M03 Q1009=
202010181220 METAR ESMX 181220Z AUTO 28012KT 9999 NCD 08/M02 Q1008=
202010181150 METAR ESMX 181150Z AUTO 30012KT 260V330 9999 NCD 08/M02 Q1008=
202010181120 METAR ESMX 181120Z AUTO 29011KT 250V320 9999 NCD 08/M01 Q1008=
202010181050 METAR ESMX 181050Z AUTO 30012KT 260V330 9999 NCD 07/M02 Q1008=
202010181020 METAR ESMX 181020Z AUTO 29011KT 250V320 9999 NCD 08/M01 Q1008=
202010180950 METAR ESMX 180950Z AUTO 31010KT 260V340 9999 NCD 07/M00 Q1008=
202010180920 METAR ESMX 180920Z AUTO 30010KT 260V340 9999 NCD 06/M00 Q1008=
202010180850 METAR ESMX 180850Z AUTO 31008KT 280V350 9999 NCD 06/01 Q1008=
202010180820 METAR ESMX 180820Z AUTO 31007KT 9999 NCD 05/01 Q1008=
202010180750 METAR ESMX 180750Z AUTO 31007KT 9999 NCD 04/01 Q1008=
202010180720 METAR ESMX 180720Z AUTO 31007KT 270V330 9999 NCD 04/01 Q1008=
202010180650 METAR ESMX 180650Z AUTO 32006KT 9999 NCD 03/02 Q1007=
202010180620 METAR ESMX 180620Z AUTO 32004KT 9999 NCD 03/02 Q1007=
202010180550 METAR ESMX 180550Z AUTO 32009KT 9999 NCD 04/01 Q1006=
202010180520 METAR ESMX 180520Z AUTO 30006KT 9999 NCD 04/03 Q1006=
202010180450 METAR ESMX 180450Z AUTO 33007KT 9999 FEW070/// SCT084/// BKN098/// 05/03 Q1006=
202010180420 METAR ESMX 180420Z AUTO 35008KT 9999 FEW053/// BKN070/// OVC094/// 06/04 Q1006=
202010180350 METAR ESMX 180350Z AUTO 35010KT 9999 SCT036/// OVC049/// 07/06 Q1006=
202010180320 METAR ESMX 180320Z AUTO 33007KT 9999 FEW015/// BKN047/// OVC086/// 07/06 Q1005=
202010180250 METAR ESMX 180250Z AUTO 33006KT 9999 FEW009/// SCT051/// OVC082/// 07/07 Q1005=
202010180220 METAR ESMX 180220Z AUTO 33007KT 290V360 9999 SCT008/// BKN011/// BKN076/// 07/07 Q1005=
202010180150 METAR ESMX 180150Z AUTO 30005KT 250V350 9999 BKN008/// OVC015/// 08/08 Q1005=
202010180120 METAR ESMX 180120Z AUTO 25004KT 9999 -RA FEW001/// BKN004/// BKN022/// 07/07 Q1005=
202010180050 METAR ESMX 180050Z AUTO 24005KT 9999 DZ SCT005/// BKN009/// OVC044/// 07/07 Q1005 RERA RESHRA RESHUP=
202010180020 METAR ESMX 180020Z AUTO 22005KT 4500 +DZ ///034 07/07 Q1006 REDZ=
202010172350 METAR ESMX 172350Z AUTO 22008KT 9999 OVC003/// 07/07 Q1006=
202010172320 METAR ESMX 172320Z AUTO 20006KT 7000 -RA BKN004/// OVC006/// 07/07 Q1007=
202010172250 METAR ESMX 172250Z AUTO 19008KT 8000 -RA OVC005/// 06/06 Q1007=
202010172220 METAR ESMX 172220Z AUTO 19008KT 9999 OVC006/// 06/06 Q1008=
202010172150 METAR ESMX 172150Z AUTO 19009KT 9999 -DZ OVC008/// 06/06 Q1008 RESHUP=
202010172120 METAR ESMX 172120Z AUTO 21008KT 9999 OVC009/// 06/06 Q1009 RESHUP REUP=
202010172050 METAR ESMX 172050Z AUTO 20007KT 9999 FEW005/// OVC009/// 06/05 Q1009 RESHUP REUP=
202010172020 METAR ESMX 172020Z AUTO 20009KT 9999 SCT011/// BKN015/// OVC020/// 06/05 Q1010=
202010171950 METAR ESMX 171950Z AUTO 19008KT 9999 SCT020/// OVC035/// 06/05 Q1010=
202010171920 METAR ESMX 171920Z AUTO 21007KT 9999 FEW007/// SCT018/// BKN025/// 06/04 Q1011=
202010171850 METAR ESMX 171850Z AUTO 21008KT 9999 OVC026/// 06/04 Q1012=
202010171820 METAR ESMX 171820Z AUTO 20008KT 9999 OVC029/// 06/04 Q1012=
202010171750 METAR ESMX 171750Z AUTO 22007KT 9999 OVC033/// 06/03 Q1013=
202010171720 METAR ESMX 171720Z AUTO 21006KT 9999 OVC033/// 06/03 Q1013=
202010171650 METAR ESMX 171650Z AUTO 19005KT 9999 BKN034/// 06/03 Q1013=
202010171620 METAR ESMX 171620Z AUTO 23006KT 9999 OVC031/// 06/02 Q1013=
202010171550 METAR ESMX 171550Z AUTO 22006KT 9999 OVC030/// 07/03 Q1014=
202010171520 METAR ESMX 171520Z AUTO 22006KT 9999 OVC031/// 08/03 Q1014=
202010171450 METAR ESMX 171450Z AUTO 24007KT 9999 OVC030/// 08/03 Q1015=
202010171420 METAR ESMX 171420Z AUTO 24007KT 9999 OVC029/// 08/03 Q1015=
202010171350 METAR ESMX 171350Z AUTO 25006KT 230V310 9999 BKN029/// 09/03 Q1015=
202010171320 METAR ESMX 171320Z AUTO 25007KT 220V290 9999 OVC031/// 09/03 Q1016=
202010171250 METAR ESMX 171250Z AUTO 25007KT 9999 SCT031/// 09/03 Q1016=
202010171220 METAR ESMX 171220Z AUTO 24008KT 9999 FEW031/// 10/03 Q1017=
202010171150 METAR ESMX 171150Z AUTO 28005KT 230V340 9999 NCD 09/03 Q1017=
202010171120 METAR ESMX 171120Z AUTO 29006KT 9999 SCT025/// 08/03 Q1018=
202010171050 METAR ESMX 171050Z AUTO 30006KT 9999 NCD 09/03 Q1018=
202010171020 METAR ESMX 171020Z AUTO 26003KT 9999 NCD 09/05 Q1019=
202010170950 METAR ESMX 170950Z AUTO 34002KT 9999 FEW000/// 07/07 Q1019=
202010170920 METAR ESMX 170920Z AUTO 00000KT 9999 OVC001/// 06/06 Q1019=
202010170850 METAR ESMX 170850Z AUTO 00000KT 0400 R01/0900N R19/0550N FG OVC001/// 04/04 Q1019=
202010170820 METAR ESMX 170820Z AUTO VRB02KT 0100 R01/0200N R19/0325N FG OVC001/// 04/04 Q1020=
202010170750 METAR ESMX 170750Z AUTO 00000KT 0100 R01/0225N R19/0350N FG OVC001/// 03/03 Q1020=
202010170720 METAR ESMX 170720Z AUTO VRB01KT 0100 R01/0250N R19/0275N FG VV001 01/01 Q1020=
202010170650 METAR ESMX 170650Z AUTO 01002KT 0050 R01/0175N R19/0150N FG VV001 00/00 Q1020=
202010170620 METAR ESMX 170620Z AUTO 20001KT 0050 R01/0200N R19/0300N FZFG VV001 M00/M00 Q1020=
202010170550 METAR ESMX 170550Z AUTO VRB01KT 0100 R01/0400N R19/0350N FZFG OVC001/// M01/M01 Q1020=
202010170520 METAR ESMX 170520Z AUTO 00000KT 0100 R01/0400N R19/0325N FZFG BKN001/// M01/M01 Q1021=
202010170450 METAR ESMX 170450Z AUTO 00000KT 0150 R01/0450N R19/P2000N FZFG BKN002/// M01/M01 Q1021=
202010170420 METAR ESMX 170420Z AUTO 01002KT 0200 R01/0500N R19/P2000N FZFG OVC002/// M01/M01 Q1021=
202010170350 METAR ESMX 170350Z AUTO 02004KT 0200 R01/0900N R19/1600U BCFG SCT003/// M01/M01 Q1021=
202010170320 METAR ESMX 170320Z AUTO VRB02KT 0250 R01/0750N R19/P2000N FZFG BKN003/// M01/M01 Q1021=
202010170250 METAR ESMX 170250Z AUTO 01002KT 0150 R01/0550N R19/0650N FZFG BKN004/// M01/M01 Q1021=
202010170220 METAR ESMX 170220Z AUTO 01002KT 0500 R01/P2000D R19/P2000N BCFG FEW003/// 01/01 Q1021=
202010170150 METAR ESMX 170150Z AUTO 36004KT 0250 R01/0700N R19/P2000N BCFG NCD 01/01 Q1022=
202010170120 METAR ESMX 170120Z AUTO 35004KT 9999 NCD M00/M00 Q1022=
202010170050 METAR ESMX 170050Z AUTO 01002KT 0400 R01/P2000D R19/P2000N FG NCD 02/02 Q1022=
202010170020 METAR ESMX 170020Z AUTO 01005KT 9999 NCD 03/03 Q1022=
202010162350 METAR ESMX 162350Z AUTO 35005KT 9999 NCD 03/03 Q1023=
202010162320 METAR ESMX 162320Z AUTO 01003KT 9999 BKN035/// 04/04 Q1023=
202010162250 METAR ESMX 162250Z AUTO 36003KT 9999 BKN038/// 03/03 Q1023=
202010162220 METAR ESMX 162220Z AUTO 01005KT 9999 SCT038/// 04/04 Q1023=
202010162150 METAR ESMX 162150Z AUTO 01006KT 9999 SCT039/// 05/04 Q1023=
202010162120 METAR ESMX 162120Z AUTO 01006KT 9999 NCD 06/04 Q1023=
202010162050 METAR ESMX 162050Z AUTO 01007KT 9999 FEW037/// 06/04 Q1023=
202010162020 METAR ESMX 162020Z AUTO 01007KT 9999 SCT036/// 06/04 Q1023=
202010161950 METAR ESMX 161950Z AUTO 01007KT 9999 OVC033/// 07/05 Q1023=
202010161920 METAR ESMX 161920Z AUTO 01007KT 9999 OVC032/// 07/05 Q1023=
202010161850 METAR ESMX 161850Z AUTO 02008KT 9999 OVC034/// 07/05 Q1023=
202010161820 METAR ESMX 161820Z AUTO 02007KT 9999 BKN037/// 07/05 Q1023=
202010161750 METAR ESMX 161750Z AUTO 01007KT 9999 OVC038/// 07/05 Q1023=
202010161720 METAR ESMX 161720Z AUTO 02009KT 9999 OVC038/// 08/05 Q1023=
202010161650 METAR ESMX 161650Z AUTO 02009KT 9999 OVC040/// 08/05 Q1023=
202010161620 METAR ESMX 161620Z AUTO 02008KT 9999 OVC041/// 08/04 Q1022=
202010161550 METAR ESMX 161550Z AUTO 36009KT 9999 OVC042/// 08/04 Q1022=
202010161520 METAR ESMX 161520Z AUTO 35009KT 9999 OVC039/// 08/05 Q1022=
202010161450 METAR ESMX 161450Z AUTO 01008KT 9999 OVC039/// 09/05 Q1022=
202010161420 METAR ESMX 161420Z AUTO 02009KT 9999 OVC038/// 09/04 Q1022=
202010161350 METAR ESMX 161350Z 01010KT 9999 BKN035 09/04 Q1022=
202010161320 METAR ESMX 161320Z 01010KT 9999 BKN036 09/05 Q1022=
202010161250 METAR ESMX 161250Z 36009KT 9999 OVC032 10/05 Q1022=
202010161220 METAR ESMX 161220Z 02009KT 9999 FEW019 BKN029 09/05 Q1022=
202010161150 METAR ESMX 161150Z 03011KT 9999 BKN028 09/05 Q1022=
202010161120 METAR ESMX 161120Z 03009KT 9999 FEW018 OVC026 09/05 Q1022=
202010161050 METAR ESMX 161050Z 36009KT 9999 FEW014 BKN024 09/06 Q1022=
202010161020 METAR ESMX 161020Z 03009KT 9999 SCT014 BKN036 09/06 Q1022=
202010160950 METAR ESMX 160950Z 03009KT 9999 SCT013 BKN040 09/06 Q1022=
202010160920 METAR ESMX 160920Z 36010KT 9999 SCT010 BKN036 08/06 Q1022=
202010160850 METAR ESMX 160850Z 01009KT 9999 FEW009 BKN034 07/06 Q1022=
202010160820 METAR COR ESMX 160820Z 01010KT 9999 FEW010 BKN033 07/06 Q1022=
202010160750 METAR ESMX 160750Z 36009KT 9999 SCT048 07/06 Q1022=
202010160720 METAR ESMX 160720Z 36006KT 9999 BKN050 06/06 Q1021=
202010160650 METAR ESMX 160650Z 36005KT 9999 BKN049 05/05 Q1021=
202010160620 METAR ESMX 160620Z AUTO 32004KT 9999 BKN053/// OVC100/// 02/02 Q1021=
202010160550 METAR ESMX 160550Z AUTO 32001KT 9999 OVC049/// 02/02 Q1021=
202010160520 METAR ESMX 160520Z AUTO 32003KT 9999 FEW036/// OVC051/// 01/01 Q1021=
202010160450 METAR ESMX 160450Z AUTO 32003KT 9999 BKN051/// 01/01 Q1021=
202010160420 METAR ESMX 160420Z AUTO 32003KT 9999 FEW088/// 01/01 Q1021=
202010160350 METAR ESMX 160350Z AUTO 32003KT 9999 SCT110/// M01/M01 Q1021=
202010160320 METAR ESMX 160320Z AUTO 32004KT 9999 NCD M00/M00 Q1021=
202010160250 METAR ESMX 160250Z AUTO 32003KT 9999 BR NCD 01/01 Q1021=
202010160220 METAR ESMX 160220Z AUTO 32002KT 9999 BR NCD 01/01 Q1022=
202010160150 METAR ESMX 160150Z AUTO 32003KT 9999 NCD 01/01 Q1022=
202010160120 METAR ESMX 160120Z AUTO 28003KT 9999 NCD M00/M00 Q1022=
202010160050 METAR ESMX 160050Z AUTO 32002KT 9999 NCD M00/M00 Q1022=
202010160020 METAR ESMX 160020Z AUTO 00000KT 9999 NCD 01/01 Q1022=
202010152350 METAR ESMX 152350Z AUTO 19002KT 9999 NCD 01/01 Q1022=
202010152320 METAR ESMX 152320Z AUTO 00000KT 9999 NCD 03/03 Q1022=
202010152250 METAR ESMX 152250Z AUTO 32003KT 9999 NCD 04/04 Q1022=
202010152220 METAR ESMX 152220Z AUTO 32003KT 9999 SCT031/// 05/04 Q1022=
202010152150 METAR ESMX 152150Z AUTO 32005KT 9999 BKN031/// 05/03 Q1022=
202010152120 METAR ESMX 152120Z AUTO 34004KT 9999 BKN031/// 06/04 Q1022=
202010152050 METAR ESMX 152050Z AUTO 03004KT 9999 OVC031/// 06/03 Q1022=
202010152020 METAR ESMX 152020Z AUTO 36005KT 9999 BKN031/// 06/04 Q1022=
202010151950 METAR ESMX 151950Z AUTO 35006KT 9999 BKN026/// 07/04 Q1022=
202010151920 METAR ESMX 151920Z AUTO 35006KT 9999 OVC029/// 07/04 Q1022=
202010151850 METAR ESMX 151850Z AUTO 02006KT 9999 OVC029/// 07/04 Q1022=
202010151820 METAR ESMX 151820Z 35007KT 9999 BKN028 07/04 Q1022=
202010151750 METAR ESMX 151750Z 01006KT 9999 BKN028 07/03 Q1023=
202010151720 METAR ESMX 151720Z 36007KT 9999 BKN025 07/03 Q1022=
202010151650 METAR ESMX 151650Z 35006KT 9999 BKN026 07/03 Q1022=
202010151620 METAR ESMX 151620Z 01006KT 9999 BKN026 07/03 Q1022=
202010151550 METAR ESMX 151550Z 35009KT 9999 BKN027 07/03 Q1022=
202010151450 METAR ESMX 151450Z AUTO 01009KT 340V040 9999 OVC027/// 08/03 Q1022=
202010151420 METAR ESMX 151420Z AUTO 02010KT 9999 OVC027/// 08/02 Q1022=
202010151350 METAR ESMX 151350Z AUTO 35011KT 9999 OVC028/// 08/03 Q1022=
202010151320 METAR ESMX 151320Z AUTO 01010KT 9999 OVC028/// 08/02 Q1022=
202010151250 METAR ESMX 151250Z AUTO 02011KT 9999 OVC028/// 08/02 Q1022=
202010151220 METAR ESMX 151220Z AUTO 01010KT 9999 BKN030/// 09/02 Q1022=
202010151150 METAR ESMX 151150Z AUTO 04011KT 9999 BKN029/// 09/01 Q1022=
202010151120 METAR ESMX 151120Z AUTO 02012KT 9999 SCT030/// 07/01 Q1022=
202010151050 METAR ESMX 151050Z AUTO 36013KT 9999 OVC030/// 08/02 Q1022=
202010151020 METAR ESMX 151020Z AUTO 36012KT 9999 OVC029/// 07/01 Q1022=
202010150950 METAR ESMX 150950Z AUTO 36013KT 9999 OVC028/// 07/02 Q1022=
202010150920 METAR ESMX 150920Z AUTO 01014KT 9999 OVC028/// 07/01 Q1022=
202010150850 METAR ESMX 150850Z AUTO 01014KT 9999 OVC029/// 06/01 Q1021=
202010150820 METAR ESMX 150820Z AUTO 01014KT 9999 OVC030/// 06/01 Q1021=
202010150750 METAR ESMX 150750Z AUTO 36014KT 9999 OVC029/// 06/01 Q1021=
202010150720 METAR ESMX 150720Z AUTO 36013KT 9999 OVC029/// 06/01 Q1021=
202010150650 METAR ESMX 150650Z AUTO 36014KT 9999 OVC028/// 06/01 Q1021=
202010150620 METAR ESMX 150620Z AUTO 36014KT 9999 OVC029/// 06/01 Q1020=
202010150550 METAR ESMX 150550Z AUTO 35014KT 9999 OVC029/// 06/02 Q1020=
202010150520 METAR ESMX 150520Z AUTO 02014KT 9999 OVC029/// 06/02 Q1020=
202010150450 METAR ESMX 150450Z AUTO 36013KT 9999 OVC028/// 06/02 Q1020=
202010150420 METAR ESMX 150420Z AUTO 35015KT 9999 OVC028/// 06/02 Q1019=
202010150350 METAR ESMX 150350Z AUTO 36014KT 9999 OVC028/// 06/02 Q1019=
202010150320 METAR ESMX 150320Z AUTO 35013KT 9999 OVC028/// 06/02 Q1019=
202010150250 METAR ESMX 150250Z AUTO 36014KT 9999 OVC028/// 06/02 Q1019=
202010150220 METAR ESMX 150220Z AUTO 01017KT 9999 OVC028/// 06/02 Q1019=
202010150150 METAR ESMX 150150Z AUTO 01016KT 9999 OVC030/// 06/02 Q1020=
202010150120 METAR ESMX 150120Z AUTO 01016KT 9999 OVC036/// 06/02 Q1019=
202010150050 METAR ESMX 150050Z AUTO 02015KT 9999 OVC034/// 06/02 Q1020=
202010150020 METAR ESMX 150020Z AUTO 02016KT 9999 OVC034/// 06/02 Q1020=
202010142350 METAR ESMX 142350Z AUTO 36014KT 9999 OVC033/// 07/02 Q1020=
202010142320 METAR ESMX 142320Z AUTO 02015KT 9999 FEW027/// OVC034/// 07/02 Q1020=
202010142250 METAR ESMX 142250Z AUTO 02015KT 9999 OVC031/// 06/02 Q1020=
202010142220 METAR ESMX 142220Z AUTO 02016KT 9999 OVC036/// 07/02 Q1019=
202010142150 METAR ESMX 142150Z AUTO 02015KT 9999 OVC035/// 07/02 Q1020=
202010142120 METAR ESMX 142120Z AUTO 02017KT 9999 OVC039/// 07/02 Q1020=
202010142050 METAR ESMX 142050Z AUTO 02014G24KT 9999 OVC039/// 07/03 Q1019=
202010142020 METAR ESMX 142020Z AUTO 01016KT 9999 OVC037/// 07/02 Q1019=
202010141950 METAR ESMX 141950Z AUTO 02017KT 9999 OVC037/// 07/03 Q1019=
202010141920 METAR ESMX 141920Z AUTO 02017KT 9999 OVC039/// 07/03 Q1019=
202010141850 METAR ESMX 141850Z AUTO 02017KT 9999 OVC036/// 07/03 Q1019=
202010141820 METAR ESMX 141820Z AUTO 02017KT 9999 OVC034/// 07/03 Q1019=
202010141750 METAR ESMX 141750Z AUTO 02017KT 9999 OVC037/// 07/03 Q1019=
202010141720 METAR ESMX 141720Z AUTO 02016G26KT 9999 FEW028/// OVC041/// 07/04 Q1019=
202010141650 METAR ESMX 141650Z AUTO 01018KT 9999 FEW016/// BKN044/// 07/04 Q1019=
202010141620 METAR ESMX 141620Z AUTO 01018KT 9999 SCT017/// BKN045/// 07/05 Q1019=
202010141550 METAR ESMX 141550Z AUTO 02017KT 9999 BKN016/// BKN021/// OVC047/// 07/05 Q1019=
202010141520 METAR ESMX 141520Z AUTO 01016KT 9999 BKN013/// OVC045/// 07/05 Q1019=
202010141450 METAR ESMX 141450Z AUTO 02016KT 9999 -DZ FEW006/// BKN012/// OVC018/// 07/05 Q1019 REDZ REUP=
202010141420 METAR ESMX 141420Z AUTO 02015KT 9999 FEW009/// BKN016/// OVC019/// 07/05 Q1019=
202010141350 METAR ESMX 141350Z 02017KT 9999 SCT021 BKN041 08/05 Q1019=
202010141320 METAR ESMX 141320Z 02017KT 9999 BKN021 08/04 Q1019=
202010141250 METAR ESMX 141250Z 02015KT 9999 -RA FEW006 BKN020 08/05 Q1020=
202010141220 METAR ESMX 141220Z 02015KT 9999 BKN024 08/04 Q1019=
202010141150 METAR ESMX 141150Z 02016KT 9999 BKN025 08/04 Q1019=
202010141120 METAR ESMX 141120Z 02015KT 350V060 9999 BKN025 09/04 Q1019=
202010141050 METAR ESMX 141050Z 02015KT 9999 SCT025 BKN036 08/04 Q1020=
202010141020 METAR ESMX 141020Z 01017KT 9999 SCT020 BKN035 08/04 Q1020=
202010140950 METAR ESMX 140950Z 01015KT 9999 BKN018 08/04 Q1020=
202010140920 METAR ESMX 140920Z 02013KT 9999 SCT019 BKN033 08/04 Q1020=
202010140850 METAR ESMX 140850Z 02015G26KT 9999 FEW018 BKN035 07/04 Q1020=
202010140820 METAR ESMX 140820Z 02015KT 9999 FEW018 BKN035 07/04 Q1020=
202010140750 METAR ESMX 140750Z 02015KT 9999 SCT016 BKN038 06/04 Q1020=
202010140720 METAR ESMX 140720Z 02015KT 9999 FEW014 BKN042 06/04 Q1020=
202010140650 METAR ESMX 140650Z 01016KT 9999 FEW013 FEW042 06/04 Q1020=
202010140620 METAR ESMX 140620Z AUTO 02015KT 9999 BKN012/// 05/04 Q1020=
202010140550 METAR ESMX 140550Z AUTO 02016KT 9999 BKN011/// OVC013/// 05/04 Q1020=
202010140520 METAR ESMX 140520Z AUTO 01014KT 9999 OVC010/// 05/03 Q1020=
202010140450 METAR ESMX 140450Z AUTO 02014KT 9999 SCT011/// BKN025/// 05/03 Q1020=
202010140420 METAR ESMX 140420Z AUTO 02013KT 9999 FEW023/// 04/03 Q1020=
202010140350 METAR ESMX 140350Z AUTO 02012KT 9999 FEW011/// 04/03 Q1020=
202010140320 METAR ESMX 140320Z AUTO 01011KT 340V050 9999 FEW022/// 05/03 Q1020=
202010140250 METAR ESMX 140250Z AUTO 02012KT 9999 NCD 05/03 Q1021=
202010140220 METAR ESMX 140220Z AUTO 02011KT 9999 NCD 05/03 Q1021=
202010140150 METAR ESMX 140150Z AUTO 02011KT 9999 NCD 05/04 Q1021=
202010140120 METAR ESMX 140120Z AUTO 02012KT 9999 FEW033/// 05/04 Q1021=
202010140050 METAR ESMX 140050Z AUTO 02013KT 9999 FEW037/// 05/04 Q1021=
202010140020 METAR ESMX 140020Z AUTO 01013KT 9999 FEW040/// 06/04 Q1022=
202010132350 METAR ESMX 132350Z AUTO 01012KT 9999 BKN042/// 06/04 Q1022=
202010132320 METAR ESMX 132320Z AUTO 01010KT 9999 FEW044/// 06/04 Q1022=
202010132250 METAR ESMX 132250Z AUTO 02011KT 9999 BKN043/// 07/04 Q1022=
202010132220 METAR ESMX 132220Z AUTO 01012KT 9999 OVC045/// 07/04 Q1022=
202010132150 METAR ESMX 132150Z AUTO 01009KT 9999 FEW035/// BKN046/// 07/04 Q1022=
202010132120 METAR ESMX 132120Z AUTO 01010KT 9999 NCD 07/04 Q1022=
202010132050 METAR ESMX 132050Z AUTO 02010KT 9999 NCD 07/04 Q1021=
202010132020 METAR ESMX 132020Z AUTO 01009KT 9999 BKN033/// 07/03 Q1021=
202010131950 METAR ESMX 131950Z AUTO 03009KT 9999 OVC032/// 07/04 Q1022=
202010131920 METAR ESMX 131920Z AUTO 01008KT 9999 BKN033/// 07/04 Q1021=
202010131850 METAR ESMX 131850Z AUTO 03009KT 9999 OVC033/// 08/04 Q1021=
202010131820 METAR ESMX 131820Z AUTO 03009KT 9999 OVC032/// 08/04 Q1021=
202010131750 METAR ESMX 131750Z AUTO 03009KT 9999 OVC030/// 08/05 Q1021=
202010131720 METAR ESMX 131720Z AUTO 02007KT 9999 BKN030/// 08/06 Q1020=
202010131650 METAR ESMX 131650Z AUTO 02007KT 9999 SCT030/// 08/06 Q1020=
202010131620 METAR ESMX 131620Z AUTO 03007KT 9999 NCD 08/06 Q1020=
202010131550 METAR ESMX 131550Z AUTO 01008KT 9999 NCD 09/06 Q1019=
202010131520 METAR ESMX 131520Z AUTO 36009KT 9999 NCD 10/07 Q1019=
202010131450 METAR ESMX 131450Z AUTO 36010KT 9999 NCD 11/06 Q1018=
202010131420 METAR ESMX 131420Z AUTO 01009KT 9999 NCD 12/06 Q1018=
202010131350 METAR ESMX 131350Z 01008KT 9999 FEW026 12/07 Q1018=
202010131320 METAR ESMX 131320Z 36005KT 9999 FEW025 11/06 Q1018=
202010131250 METAR ESMX 131250Z 36005KT 330V040 9999 SCT023 12/07 Q1018=
202010131220 METAR ESMX 131220Z 36003KT 300V070 9999 SCT015 12/08 Q1018=
202010131150 METAR ESMX 131150Z 04004KT 9999 SCT010 11/08 Q1018=
202010131120 METAR ESMX 131120Z 03004KT 9999 SCT008 10/09 Q1018=
202010131050 METAR ESMX 131050Z 02004KT 330V050 9999 FEW002 08/08 Q1018=
202010131020 METAR ESMX 131020Z 35005KT 1100 R01/1500U R19/1000U OVC001 07/07 Q1018=
202010130950 METAR ESMX 130950Z 04003KT 0200 R01/0500N R19/0400N FG OVC002 07/07 Q1018=
202010130920 METAR ESMX 130920Z 35004KT 0200 R01/0375N R19/0375N FG VV001 06/06 Q1018=
202010130850 METAR ESMX 130850Z VRB02KT 0100 R01/0275N R19/0275N FG VV001 06/06 Q1017=
202010130820 METAR ESMX 130820Z VRB02KT 0100 R01/0225N R19/0250N FG VV002 05/05 Q1017=
202010130750 METAR ESMX 130750Z 22002KT 0100 R01/0250N R19/0225N FG VV002 05/05 Q1017=
202010130720 METAR ESMX 130720Z 22003KT 0100 R01/0225N R19/0300N FG VV001 04/04 Q1017=
202010130650 METAR ESMX 130650Z 03003KT 0100 R01/0175N R19/0350N FG VV001 04/04 Q1016=
202010130620 METAR ESMX 130620Z 22002KT 0100 R01/0225N R19/0250N FG VV001 02/02 Q1016=
202010130550 METAR ESMX 130550Z 22003KT 0150 R01/0200N R19/0325N FG VV002 03/03 Q1016=
202010130520 METAR ESMX 130520Z AUTO VRB02KT 0050 R01/0275N R19/0400N FG VV001 02/02 Q1015=
202010130450 METAR ESMX 130450Z AUTO 22002KT 0050 R01/0225N R19/0400N FG VV001 01/01 Q1015=
202010130420 METAR ESMX 130420Z AUTO 22001KT 0050 R01/0200N R19/0325N FG VV001 01/01 Q1015=
202010130350 METAR ESMX 130350Z AUTO 00000KT 0050 R01/0200N R19/0300N FG VV001 00/00 Q1015=
202010130320 METAR ESMX 130320Z AUTO 00000KT 0300 R01/1400U R19/0900N FZFG VV001 M00/M00 Q1015=
202010130250 METAR ESMX 130250Z AUTO 00000KT 0300 R01/1000N R19/0600D FZFG BKN001/// OVC005/// M00/M00 Q1015=
202010130220 METAR ESMX 130220Z AUTO 00000KT 0050 R01/1000D R19/0200N FZFG VV000 M00/M00 Q1015=
202010130150 METAR ESMX 130150Z AUTO 22001KT 0300 R01/P2000D R19/0900N BCFG VV001 01/01 Q1015=
202010130120 METAR ESMX 130120Z AUTO 21001KT 0300 R01/P2000D R19/1900D FZFG VV001 M00/M00 Q1015=
202010130050 METAR ESMX 130050Z AUTO 17001KT 0100 R01/1700D R19/0400N FZFG VV000 M00/M00 Q1014=
202010130020 METAR ESMX 130020Z AUTO 17002KT 0250 R01/0700N R19/1200D FG NCD 01/01 Q1014=
202010122350 METAR ESMX 122350Z AUTO 00000KT 0400 R01/1700N R19/1200D FZFG NCD M00/M00 Q1014=
202010122320 METAR ESMX 122320Z AUTO 00000KT 0300 R01/0900N R19/P2000N BCFG NCD 02/02 Q1014=
202010122250 METAR ESMX 122250Z AUTO 22003KT 1500 BCFG NCD 02/02 Q1014=
202010122220 METAR ESMX 122220Z AUTO 22003KT 0650 R01/P2000N R19/P2000N BCFG NCD 02/02 Q1014=
202010122150 METAR ESMX 122150Z AUTO 18003KT 0600 R01/P2000N R19/P2000D NCD 03/03 Q1014=
202010122120 METAR ESMX 122120Z AUTO 18001KT 0250 R01/P2000N R19/0900N FG NCD 03/03 Q1014=
202010122050 METAR ESMX 122050Z AUTO VRB02KT 0300 R01/P2000D R19/P2000N FG BKN055/// 05/05 Q1014=
202010122020 METAR ESMX 122020Z AUTO 19003KT 4500 BR FEW026/// SCT051/// 05/05 Q1014=
202010121950 METAR ESMX 121950Z AUTO 00000KT 9999 SCT026/// BKN059/// 05/05 Q1014=
202010121920 METAR ESMX 121920Z AUTO VRB04KT 9999 FEW008/// BKN061/// 04/04 Q1014=
202010121850 METAR ESMX 121850Z AUTO 16004KT 9999 BKN059/// 04/04 Q1014=
202010121820 METAR ESMX 121820Z AUTO 16003KT 9999 FEW057/// BKN068/// 04/04 Q1014=
202010121750 METAR ESMX 121750Z AUTO 18004KT 2100 BKN070/// OVC092/// 06/06 Q1014=
202010121720 METAR ESMX 121720Z AUTO 16003KT 9999 FEW070/// 05/05 Q1014=
202010121650 METAR ESMX 121650Z AUTO 16004KT 9999 FEW074/// 05/05 Q1014=
202010121620 METAR ESMX 121620Z AUTO 17003KT 9999 FEW051/// SCT082/// 07/07 Q1014=
202010121550 METAR ESMX 121550Z AUTO 06004KT 9999 -DZ FEW035/// SCT048/// BKN082/// 08/07 Q1013=
202010121520 METAR ESMX 121520Z AUTO 35007KT 5000 RA ///040 08/07 Q1013 RERA=
202010121450 METAR ESMX 121450Z AUTO 23006KT 200V260 9999 SCT028/// BKN037/// OVC059/// 11/07 Q1013=
202010121420 METAR ESMX 121420Z 23006KT 9999 FEW025CB SCT030 12/07 Q1013=
202010121350 METAR ESMX 121350Z 24006KT 9999 FEW025CB SCT030 12/07 Q1013=
202010121320 METAR ESMX 121320Z 29005KT 9999 FEW025CB SCT030 11/07 Q1013=
202010121250 METAR ESMX 121250Z 27005KT 220V300 9999 FEW025CB SCT030 13/08 Q1013=
202010121220 METAR ESMX 121220Z 27007KT 9999 SCT027 13/07 Q1013=
202010121150 METAR ESMX 121150Z 27006KT 200V340 9999 SCT025TCU 12/07 Q1013=
202010121120 METAR ESMX 121120Z 23005KT 220V330 9999 FEW020 SCT038 12/08 Q1013=
202010121050 METAR ESMX 121050Z 25005KT 210V290 9999 FEW035 11/07 Q1014=
202010121020 METAR ESMX 121020Z 23004KT 9999 FEW010 10/07 Q1014=
202010120950 METAR ESMX 120950Z 20003KT 150V240 9999 FEW004 SCT024 09/08 Q1014=
202010120920 METAR ESMX 120920Z 21004KT 9999 SCT002 07/07 Q1014=
202010120850 METAR ESMX 120850Z 21003KT 4000 1000NW BCFG BR BKN002 06/06 Q1014=
202010120820 METAR ESMX 120820Z 21001KT 0250 R01/0450N R19/0350N FG VV002 05/05 Q1014=
202010120750 METAR ESMX 120750Z 21002KT 0150 R01/0375N R19/0350N FG VV002 04/04 Q1014=
202010120720 METAR ESMX 120720Z 21003KT 0100 R01/0300N R19/0300N FG VV002 04/04 Q1014=
202010120650 METAR ESMX 120650Z 18004KT 0100 R01/0250N R19/0275N FG VV001 03/03 Q1014=
202010120620 METAR ESMX 120620Z 21003KT 0100 R01/0325N R19/0225N FG VV001 03/03 Q1014=
202010120550 METAR ESMX 120550Z AUTO 21004KT 0050 R01/0225N R19/0200N FG VV001 03/03 Q1014=
202010120520 METAR ESMX 120520Z AUTO 21005KT 0150 R01/0550N R19/0550N FG VV002 03/03 Q1014=
202010120450 METAR ESMX 120450Z AUTO 21004KT 0100 R01/0400N R19/0450N FG VV002 03/03 Q1014=
202010120420 METAR ESMX 120420Z AUTO 18004KT 0050 R01/0300N R19/0400N FG BKN001/// OVC003/// 03/03 Q1014=
202010120350 METAR ESMX 120350Z AUTO 21003KT 0350 R01/1000N R19/1700N FG BKN001/// OVC003/// 02/02 Q1014=
202010120320 METAR ESMX 120320Z AUTO 21002KT 0350 R01/P2000D R19/1000D BCFG SCT003/// BKN005/// 01/01 Q1014=
202010120250 METAR ESMX 120250Z AUTO 21003KT 2000 BCFG FEW001/// SCT012/// 02/02 Q1014=
202010120220 METAR ESMX 120220Z AUTO 18003KT 0400 R01/1200D R19/1100U FG BKN017/// 03/03 Q1014=
202010120150 METAR ESMX 120150Z AUTO 21003KT 0150 R01/1100U R19/0550N FG BKN000/// BKN019/// 02/02 Q1014=
202010120120 METAR ESMX 120120Z AUTO 21003KT 0200 R01/P2000N R19/0650D BR BKN001/// 03/03 Q1014=
202010120050 METAR ESMX 120050Z AUTO 19005KT 4100 BR NCD 03/03 Q1014=
202010120020 METAR ESMX 120020Z AUTO 21004KT 9999 BKN033/// 03/03 Q1014=
202010112350 METAR ESMX 112350Z AUTO 21005KT 9999 FEW033/// 04/04 Q1014=
202010112320 METAR ESMX 112320Z AUTO 21005KT 9999 BKN055/// 04/04 Q1014=
202010112250 METAR ESMX 112250Z AUTO 21005KT 9999 OVC053/// 05/05 Q1014=
202010112220 METAR ESMX 112220Z AUTO 18005KT 9999 BKN049/// 04/04 Q1014=
202010112150 METAR ESMX 112150Z AUTO 22005KT 9999 BKN049/// 05/05 Q1014=
202010112120 METAR ESMX 112120Z AUTO 18005KT 9999 OVC051/// 05/05 Q1014=
202010112050 METAR ESMX 112050Z AUTO 23004KT 9999 BKN051/// 05/05 Q1014=
202010112020 METAR ESMX 112020Z AUTO 23005KT 9999 FEW043/// 05/05 Q1014=
202010111950 METAR ESMX 111950Z AUTO 21005KT 9999 FEW024/// BKN046/// 05/05 Q1014=
202010111920 METAR ESMX 111920Z AUTO 21007KT 9999 OVC035/// 06/06 Q1014=
202010111850 METAR ESMX 111850Z AUTO 19006KT 9999 FEW031/// 05/05 Q1014=
202010111820 METAR ESMX 111820Z AUTO 19004KT 9999 NCD 06/06 Q1014=
202010111750 METAR ESMX 111750Z AUTO 19004KT 9999 BKN047/// 06/06 Q1014=
202010111720 METAR ESMX 111720Z AUTO 19004KT 9999 SCT043/// 05/05 Q1014=
202010111650 METAR ESMX 111650Z AUTO 19004KT 9999 NCD 06/06 Q1014=
202010111620 METAR ESMX 111620Z AUTO 19004KT 9999 NCD 07/07 Q1014=
202010111550 METAR ESMX 111550Z AUTO 19004KT 9999 FEW039/// 07/07 Q1014 RESHUP RERA=
202010111520 METAR ESMX 111520Z AUTO 19005KT 9999 FEW013/// SCT044/// BKN057/// 09/07 Q1013=
202010111450 METAR ESMX 111450Z AUTO 16008KT 8000 RA FEW012/// BKN048/// BKN070/// 08/06 Q1013=
202010111420 METAR ESMX 111420Z AUTO 17007KT 9999 -DZ FEW026/// OVC068/// 10/07 Q1013=
202010111350 METAR ESMX 111350Z AUTO 17006KT 9999 OVC059/// 10/06 Q1013=
202010111320 METAR ESMX 111320Z AUTO 19008KT 9999 BKN064/// 11/06 Q1013=
202010111250 METAR ESMX 111250Z AUTO 21008KT 9999 FEW021/// 11/07 Q1013=
202010111220 METAR ESMX 111220Z AUTO 20007KT 9999 SCT044/// 11/07 Q1013=
202010111150 METAR ESMX 111150Z AUTO 21008KT 9999 BKN042/// 10/07 Q1013=
202010111120 METAR ESMX 111120Z AUTO 18007KT 9999 FEW014/// SCT022/// BKN031/// 10/08 Q1013=
202010111050 METAR ESMX 111050Z AUTO 19007KT 9999 SCT010/// BKN025/// 09/08 Q1013=
202010111020 METAR ESMX 111020Z AUTO 20007KT 9999 SCT007/// BKN010/// OVC021/// 09/07 Q1013=
202010110950 METAR ESMX 110950Z AUTO 21008KT 9999 BKN007/// OVC011/// 09/08 Q1013=
202010110920 METAR ESMX 110920Z AUTO 22008KT 9999 FEW004/// SCT005/// BKN009/// 08/08 Q1013=
202010110850 METAR ESMX 110850Z AUTO 17005KT 150V210 9999 BKN003/// OVC005/// 07/07 Q1013=
202010110820 METAR ESMX 110820Z AUTO 17006KT 140V200 5000 OVC001/// 07/07 Q1013=
202010110750 METAR ESMX 110750Z AUTO 17007KT 0450 R01/0700N R19/1300N FG OVC001/// 06/06 Q1013=
202010110720 METAR ESMX 110720Z AUTO 17005KT 0250 R01/0800N R19/0500N FG OVC001/// 06/06 Q1013=
202010110650 METAR ESMX 110650Z AUTO 16005KT 0250 R01/0450N R19/0600N FG FEW001/// OVC002/// 05/05 Q1013=
202010110620 METAR ESMX 110620Z AUTO 15005KT 0250 R01/0500N R19/0700N FG BKN001/// OVC002/// 05/05 Q1013=
202010110550 METAR ESMX 110550Z AUTO 16004KT 0200 R01/0450N R19/0600N FG VV002 05/05 Q1013=
202010110520 METAR ESMX 110520Z AUTO 15004KT 0150 R01/0500N R19/1000D FG OVC001/// 05/05 Q1013=
202010110450 METAR ESMX 110450Z AUTO 15005KT 0400 R01/1200D R19/1100U FG FEW001/// OVC003/// 04/04 Q1013=
202010110420 METAR ESMX 110420Z AUTO 17003KT 0200 R01/0650D R19/0650N FG VV003 04/04 Q1012=
202010110350 METAR ESMX 110350Z AUTO 18004KT 0100 R01/0650N R19/0400N FG VV001 04/04 Q1012=
202010110320 METAR ESMX 110320Z AUTO 18003KT 0100 R01/0450N R19/0450N FG BKN001/// OVC002/// 02/02 Q1012=
202010110250 METAR ESMX 110250Z AUTO 18003KT 0200 R01/0800N R19/0650N FG OVC001/// 03/03 Q1012=
202010110220 METAR ESMX 110220Z AUTO 16002KT 0200 R01/0600N R19/1000N BCFG OVC001/// 04/04 Q1012=
202010110150 METAR ESMX 110150Z AUTO 15003KT 2000 BKN001/// OVC003/// 04/04 Q1012=
202010110120 METAR ESMX 110120Z AUTO 17004KT 0300 R01/1800D R19/0900N FG OVC002/// 04/04 Q1012=
202010110050 METAR ESMX 110050Z AUTO 17003KT 0900 R01/P2000N R19/P2000D BR OVC002/// 04/04 Q1012=
202010110020 METAR ESMX 110020Z AUTO 17005KT 5000 NCD 03/03 Q1012=
202010102350 METAR ESMX 102350Z AUTO 15004KT 1900 NCD 04/04 Q1012=
202010102320 METAR ESMX 102320Z AUTO 17004KT 9999 NCD 04/04 Q1012=
202010102250 METAR ESMX 102250Z AUTO 18005KT 9999 NCD 05/05 Q1012=
202010102220 METAR ESMX 102220Z AUTO 18004KT 9999 NCD 02/02 Q1012=
202010102150 METAR ESMX 102150Z AUTO 19004KT 7000 NCD 04/04 Q1012=
202010102120 METAR ESMX 102120Z AUTO 19004KT 9999 NCD 04/04 Q1012=
202010102050 METAR ESMX 102050Z AUTO 19004KT 9999 NCD 04/04 Q1012=
202010102020 METAR ESMX 102020Z AUTO 16003KT 9999 NCD 05/05 Q1012=
202010101950 METAR ESMX 101950Z AUTO 19005KT 9999 NCD 04/04 Q1012=
202010101920 METAR ESMX 101920Z AUTO 19005KT 9999 NCD 05/05 Q1012=
202010101850 METAR ESMX 101850Z AUTO 19005KT 9999 FEW027/// 06/05 Q1012=
202010101820 METAR ESMX 101820Z AUTO 21005KT 9999 BKN026/// 06/06 Q1012=
202010101750 METAR ESMX 101750Z AUTO 23004KT 9999 SCT026/// BKN031/// 05/05 Q1012=
202010101720 METAR ESMX 101720Z AUTO 16003KT 9999 FEW130/// 06/06 Q1011=
202010101650 METAR ESMX 101650Z AUTO 23003KT 9999 BKN045/// 06/06 Q1011=
202010101620 METAR ESMX 101620Z AUTO 23005KT 9999 FEW026/// OVC042/// 07/07 Q1011=
202010101550 METAR ESMX 101550Z AUTO 24006KT 7000 FEW001/// SCT008/// BKN019/// 08/08 Q1011 RESHUP RERA=
202010101520 METAR ESMX 101520Z AUTO 23004KT 9999 FEW002/// SCT028/// OVC043/// 09/08 Q1011=
202010101450 METAR ESMX 101450Z AUTO 25005KT 9999 -RA ///041 09/07 Q1011=
202010101420 METAR ESMX 101420Z AUTO 25007KT 9999 FEW015/// SCT030/// OVC038/// 09/07 Q1010=
202010101350 METAR ESMX 101350Z AUTO 25006KT 210V290 9999 FEW011/// SCT030/// OVC041/// 09/08 Q1010 REDZ=
202010101320 METAR ESMX 101320Z AUTO 26007KT 9999 -RA SCT013/// BKN140/// 10/08 Q1010=
202010101250 METAR ESMX 101250Z AUTO 23007KT 9999 SCT023/// BKN040/// OVC084/// 09/08 Q1010=
202010101220 METAR ESMX 101220Z AUTO 25006KT 9999 SCT014/// OVC037/// 09/08 Q1010=
202010101150 METAR ESMX 101150Z AUTO 26008KT 7000 DZ FEW006/// SCT009/// BKN013/// 09/09 Q1010 RERA=
202010101120 METAR ESMX 101120Z AUTO 19009KT 9999 SCT011/// BKN016/// OVC051/// 10/10 Q1009=
202010101050 METAR ESMX 101050Z AUTO 18008KT 9999 FEW002/// BKN009/// BKN015/// 10/10 Q1009=
202010101020 METAR ESMX 101020Z AUTO 17008KT 9999 BKN010/// BKN016/// OVC062/// 11/09 Q1010=
202010100950 METAR ESMX 100950Z AUTO 16007KT 9999 SCT010/// OVC059/// 10/10 Q1010=
202010100920 METAR ESMX 100920Z AUTO 16006KT 9999 FEW009/// SCT036/// BKN047/// 10/09 Q1010=
202010100850 METAR ESMX 100850Z AUTO 16006KT 9999 BKN150/// 10/09 Q1010=
202010100820 METAR ESMX 100820Z AUTO 17006KT 9999 FEW007/// BKN150/// 09/09 Q1010=
202010100750 METAR ESMX 100750Z AUTO 16005KT 130V190 9999 FEW006/// SCT022/// 09/09 Q1010=
202010100720 METAR ESMX 100720Z AUTO 14006KT 9999 FEW006/// SCT037/// BKN048/// 09/09 Q1010 RESHUP=
202010100650 METAR ESMX 100650Z AUTO 14005KT 100V160 9999 -DZ FEW005/// BKN041/// OVC053/// 09/09 Q1010 REUP=
202010100620 METAR ESMX 100620Z AUTO 14006KT 110V190 9999 FEW005/// SCT024/// BKN042/// 09/09 Q1010=
202010100550 METAR ESMX 100550Z AUTO 14005KT 9999 FEW044/// SCT055/// BKN140/// 09/08 Q1009=
202010100520 METAR ESMX 100520Z AUTO 13005KT 100V170 9999 BKN076/// 09/08 Q1010=
202010100450 METAR ESMX 100450Z AUTO 14004KT 9999 FEW036/// SCT092/// 09/08 Q1010=
202010100420 METAR ESMX 100420Z AUTO 13006KT 100V160 9999 -DZ FEW030/// SCT040/// BKN055/// 09/08 Q1010=
202010100350 METAR ESMX 100350Z AUTO 14005KT 9999 DZ FEW034/// OVC053/// 09/08 Q1010 REDZ=
202010100320 METAR ESMX 100320Z AUTO 13005KT 9999 DZ FEW035/// BKN051/// 09/08 Q1011=
202010100250 METAR ESMX 100250Z AUTO 16004KT 9999 -RA OVC055/// 09/08 Q1011 RESHUP REDZ=
202010100220 METAR ESMX 100220Z AUTO 15005KT 9999 BKN068/// 09/08 Q1011=
202010100150 METAR ESMX 100150Z AUTO 14006KT 110V180 9999 SCT059/// BKN084/// 09/08 Q1011 REUP=
202010100120 METAR ESMX 100120Z AUTO 15006KT 9999 BKN061/// OVC074/// 09/08 Q1011=
202010100050 METAR ESMX 100050Z AUTO 15005KT 9999 FEW040/// SCT051/// OVC076/// 09/08 Q1012=
202010100020 METAR ESMX 100020Z AUTO 15005KT 9999 FEW057/// OVC078/// 09/08 Q1012=
202010092350 METAR ESMX 092350Z AUTO 15004KT 9999 FEW038/// SCT048/// BKN057/// 09/08 Q1012=
202010092320 METAR ESMX 092320Z AUTO 15004KT 9999 FEW029/// SCT084/// OVC120/// 09/08 Q1012=
202010092250 METAR ESMX 092250Z AUTO 16005KT 9999 FEW025/// BKN120/// 09/07 Q1012=
202010092220 METAR ESMX 092220Z AUTO 16005KT 9999 FEW130/// 09/07 Q1013=
202010092150 METAR ESMX 092150Z AUTO 17005KT 9999 OVC130/// 09/07 Q1013=
202010092120 METAR ESMX 092120Z AUTO 17006KT 9999 SCT150/// 09/07 Q1013=
202010092050 METAR ESMX 092050Z AUTO 19007KT 9999 SCT160/// 09/07 Q1013=
202010092020 METAR ESMX 092020Z AUTO 17007KT 9999 FEW150/// 09/06 Q1013=
202010091950 METAR ESMX 091950Z AUTO 17006KT 9999 NCD 09/07 Q1013=
202010091920 METAR ESMX 091920Z AUTO 18007KT 9999 FEW160/// 08/06 Q1014=
202010091850 METAR ESMX 091850Z AUTO 18007KT 9999 SCT160/// 09/06 Q1014=
202010091820 METAR ESMX 091820Z AUTO 18006KT 9999 OVC150/// 09/06 Q1014=
202010091750 METAR ESMX 091750Z AUTO 20005KT 9999 OVC150/// 09/06 Q1014=
202010091720 METAR ESMX 091720Z AUTO 22005KT 9999 FEW045/// BKN160/// 07/06 Q1014=
202010091650 METAR ESMX 091650Z AUTO 19004KT 9999 FEW044/// OVC160/// 09/06 Q1014=
202010091620 METAR ESMX 091620Z AUTO 18005KT 9999 FEW130/// BKN160/// 09/06 Q1013=
202010091550 METAR ESMX 091550Z AUTO 20006KT 9999 FEW046/// 10/05 Q1013=
202010091520 METAR ESMX 091520Z AUTO 22007KT 9999 FEW046/// BKN160/// 11/06 Q1013=
202010091450 METAR ESMX 091450Z AUTO 21008KT 9999 FEW040/// SCT170/// 11/05 Q1013=
202010091420 METAR ESMX 091420Z AUTO 23010KT 9999 FEW180/// SCT210/// 13/05 Q1013=
202010091350 METAR ESMX 091350Z AUTO 21010KT 9999 BKN170/// 12/06 Q1012=
202010091320 METAR ESMX 091320Z 23010KT 9999 FEW034 12/06 Q1012=
202010091250 METAR ESMX 091250Z 23011KT 9999 FEW030 12/05 Q1012=
202010091220 METAR ESMX 091220Z 25011KT 9999 SCT030 12/06 Q1012=
202010091150 METAR ESMX 091150Z 26012KT 9999 SCT032 12/06 Q1012=
202010091120 METAR ESMX 091120Z 25012KT 9999 SCT036 13/07 Q1012=
202010091050 METAR ESMX 091050Z 25013KT 9999 SCT031 13/06 Q1012=
202010091020 METAR ESMX 091020Z 27012KT 230V290 9999 SCT028 12/07 Q1012=
202010090950 METAR ESMX 090950Z 26015KT 9999 FEW024 12/07 Q1011=
202010090920 METAR ESMX 090920Z 27012KT 230V300 9999 FEW020 12/07 Q1011=
202010090850 METAR ESMX 090850Z 26012KT 220V290 9999 FEW012 11/07 Q1011=
202010090820 METAR ESMX 090820Z 27011KT CAVOK 11/08 Q1010=
202010090750 METAR ESMX 090750Z 26010KT 230V290 CAVOK 10/08 Q1009=
202010090720 METAR ESMX 090720Z 25008KT CAVOK 09/08 Q1009=
202010090650 METAR ESMX 090650Z 24007KT CAVOK 09/08 Q1009=
202010090620 METAR ESMX 090620Z AUTO 25008KT 9999 FEW006/// 09/08 Q1008=
202010090550 METAR ESMX 090550Z AUTO 25008KT 210V280 9999 BKN008/// 09/08 Q1008=
202010090520 METAR ESMX 090520Z AUTO 26006KT 230V290 9999 BKN011/// BKN014/// 09/09 Q1007=
202010090450 METAR ESMX 090450Z AUTO 27007KT 9999 FEW013/// SCT017/// 09/08 Q1007=
202010090420 METAR ESMX 090420Z AUTO 26010KT 240V300 9999 SCT008/// BKN015/// 10/09 Q1007=
202010090350 METAR ESMX 090350Z AUTO 28010KT 9999 BKN011/// 10/09 Q1006=
202010090320 METAR ESMX 090320Z AUTO 26009KT 9999 BKN007/// OVC013/// 10/10 Q1005=
202010090250 METAR ESMX 090250Z AUTO 28009KT 240V300 9999 OVC006/// 11/10 Q1005=
202010090220 METAR ESMX 090220Z AUTO 28009KT 9999 OVC004/// 11/11 Q1004 REDZ=
202010090150 METAR ESMX 090150Z AUTO 26004KT 8000 DZ FEW001/// BKN007/// OVC014/// 11/11 Q1004=
202010090120 METAR ESMX 090120Z AUTO 14003KT 2600 +DZ BKN002/// BKN011/// OVC015/// 11/11 Q1004=
202010090050 METAR ESMX 090050Z AUTO VRB02KT 5000 RA BKN002/// OVC007/// 11/11 Q1003=
202010090020 METAR ESMX 090020Z AUTO 04003KT 2900 RA BKN001/// BKN004/// OVC024/// 11/11 Q1003=
202010082350 METAR ESMX 082350Z AUTO 14002KT 3900 RA OVC002/// 11/11 Q1004 RESHRA=
202010082320 METAR ESMX 082320Z AUTO 14003KT 9999 -RA OVC003/// 11/11 Q1004 REDZ=
202010082250 METAR ESMX 082250Z AUTO 13004KT 100V160 9999 OVC004/// 10/10 Q1004=
202010082220 METAR ESMX 082220Z AUTO 14005KT 6000 DZ OVC002/// 10/10 Q1005=
202010082150 METAR ESMX 082150Z AUTO 13004KT 090V180 4800 DZ OVC003/// 10/10 Q1005=
202010082120 METAR ESMX 082120Z AUTO 13005KT 100V170 4500 -DZ OVC002/// 10/10 Q1006=
202010082050 METAR ESMX 082050Z AUTO 13004KT 2800 BR OVC002/// 10/10 Q1006=
202010082020 METAR ESMX 082020Z AUTO 14004KT 4700 -DZ FEW002/// SCT005/// BKN010/// 10/10 Q1007=
202010081950 METAR ESMX 081950Z AUTO 15005KT 8000 DZ SCT012/// BKN027/// OVC036/// 10/09 Q1007=
202010081920 METAR ESMX 081920Z AUTO 16005KT 9999 DZ BKN021/// BKN041/// OVC053/// 10/09 Q1007=
202010081850 METAR ESMX 081850Z AUTO 16007KT 9999 OVC035/// 10/09 Q1008=
202010081820 METAR ESMX 081820Z 16006KT 9999 BKN043 10/10 Q1008=
202010081750 METAR ESMX 081750Z 18006KT 9999 SCT011 10/10 Q1008 REDZ=
202010081720 METAR ESMX 081720Z 17006KT 9999 FEW021 10/10 Q1008=
202010081650 METAR ESMX 081650Z 18007KT 9999 -RA FEW027 10/09 Q1008=
202010081620 METAR ESMX 081620Z 17011KT 9999 -RA FEW021 SCT026CB 10/09 Q1008=
202010081550 METAR ESMX 081550Z 18009KT 9999 FEW017 BKN024 12/10 Q1008=
202010081520 METAR ESMX 081520Z AUTO 19008KT 9999 FEW020/// SCT027/// OVC120/// 12/10 Q1008=
202010081450 METAR ESMX 081450Z AUTO 18008KT 9999 FEW047/// BKN130/// 12/11 Q1008=
202010081420 METAR ESMX 081420Z AUTO 18010KT 9999 FEW024/// BKN064/// 12/10 Q1008 RERA=
202010081350 METAR ESMX 081350Z AUTO 18010KT 9999 FEW000/// SCT041/// BKN057/// 12/11 Q1008=
202010081320 METAR ESMX 081320Z AUTO 19010KT 9999 SCT022/// BKN035/// BKN061/// 14/10 Q1009=
202010081250 METAR ESMX 081250Z AUTO 20010KT 9999 FEW025/// BKN036/// 14/10 Q1009=
202010081220 METAR ESMX 081220Z AUTO 21010KT 9999 SCT024/// 14/10 Q1009=
202010081150 METAR ESMX 081150Z AUTO 21012KT 9999 BKN022/// OVC057/// 14/10 Q1009=
202010081120 METAR ESMX 081120Z AUTO 19013KT 9999 BKN020/// OVC057/// 14/10 Q1009=
202010081050 METAR ESMX 081050Z AUTO 21010KT 9999 FEW017/// BKN022/// OVC059/// 13/11 Q1009=
202010081020 METAR ESMX 081020Z AUTO 20010KT 9999 BKN016/// BKN021/// OVC036/// 13/11 Q1009=
202010080950 METAR ESMX 080950Z AUTO 20011KT 9999 BKN012/// OVC017/// 13/11 Q1010=
202010080920 METAR ESMX 080920Z AUTO 20010KT 9999 BKN011/// OVC013/// 12/11 Q1010=
202010080850 METAR ESMX 080850Z AUTO 20009KT 9999 BKN009/// OVC012/// 12/11 Q1010=
202010080820 METAR ESMX 080820Z AUTO 19009KT 9999 OVC008/// 11/11 Q1010=
202010080750 METAR ESMX 080750Z AUTO 19010KT 9999 OVC008/// 11/10 Q1010=
202010080720 METAR ESMX 080720Z AUTO 20010KT 9999 BKN007/// OVC055/// 11/10 Q1010=
202010080650 METAR ESMX 080650Z AUTO 18009KT 9999 SCT007/// OVC057/// 11/10 Q1009=
202010080620 METAR ESMX 080620Z AUTO 19008KT 9999 SCT007/// BKN009/// OVC057/// 11/10 Q1009=
202010080550 METAR ESMX 080550Z AUTO 20008KT 9999 BKN007/// OVC057/// 11/10 Q1009=
202010080520 METAR ESMX 080520Z AUTO 20008KT 9999 SCT008/// BKN015/// BKN061/// 10/10 Q1009=
202010080450 METAR ESMX 080450Z AUTO 19007KT 9999 SCT007/// BKN009/// 10/10 Q1009=
202010080420 METAR ESMX 080420Z AUTO 20009KT 9999 BKN007/// OVC011/// 11/10 Q1009=
202010080350 METAR ESMX 080350Z AUTO 20007KT 9999 BKN008/// OVC011/// 11/10 Q1008=
202010080320 METAR ESMX 080320Z AUTO 20008KT 9999 SCT008/// OVC010/// 11/10 Q1008=
202010080250 METAR ESMX 080250Z AUTO 21006KT 9999 SCT008/// BKN011/// BKN015/// 11/11 Q1008=
202010080220 METAR ESMX 080220Z AUTO 21008KT 9999 OVC006/// 11/11 Q1008=
202010080150 METAR ESMX 080150Z AUTO 20007KT 9999 BKN007/// OVC010/// 11/11 Q1008=
202010080120 METAR ESMX 080120Z AUTO 19008KT 9999 SCT006/// BKN013/// OVC066/// 11/11 Q1008=
202010080050 METAR ESMX 080050Z AUTO 20007KT 9999 FEW008/// SCT011/// OVC064/// 11/11 Q1008=
202010080020 METAR ESMX 080020Z AUTO 19007KT 9999 BKN006/// OVC068/// 11/11 Q1007=
202010072350 METAR ESMX 072350Z AUTO 21007KT 9999 OVC006/// 11/11 Q1007=
202010072320 METAR ESMX 072320Z AUTO 21007KT 9999 OVC005/// 11/11 Q1007=
202010072250 METAR ESMX 072250Z AUTO 19007KT 9999 OVC004/// 11/11 Q1007=
202010072220 METAR ESMX 072220Z AUTO 19007KT 9999 OVC005/// 11/11 Q1007=
202010072150 METAR ESMX 072150Z AUTO 19006KT 9999 BKN006/// OVC062/// 10/10 Q1006=
202010072120 METAR ESMX 072120Z AUTO 21008KT 9999 SCT008/// BKN062/// 10/10 Q1006=
202010072050 METAR ESMX 072050Z AUTO 20009KT 9999 BKN008/// OVC010/// 11/10 Q1006=
202010072020 METAR ESMX 072020Z AUTO 19008KT 9999 BKN012/// BKN025/// OVC043/// 10/10 Q1006=
202010071950 METAR ESMX 071950Z AUTO 18008KT 9999 SCT021/// 10/10 Q1006=
202010071920 METAR ESMX 071920Z AUTO 16006KT 9999 FEW082/// 10/10 Q1005=
202010071850 METAR ESMX 071850Z AUTO 17005KT 9999 FEW018/// SCT068/// 10/10 Q1005=
202010071820 METAR ESMX 071820Z AUTO 19007KT 9999 SCT049/// BKN066/// 10/10 Q1005=
202010071750 METAR ESMX 071750Z AUTO 17005KT 9999 NCD 10/10 Q1005=
202010071720 METAR ESMX 071720Z AUTO 17006KT 9999 SCT066/// 11/10 Q1005=
202010071650 METAR ESMX 071650Z AUTO 18007KT 9999 NCD 10/10 Q1005=
202010071620 METAR ESMX 071620Z AUTO 17007KT 9999 FEW024/// SCT051/// BKN076/// 12/10 Q1004 RERA=
202010071550 METAR ESMX 071550Z AUTO 21006KT 9999 BKN020/// BKN029/// OVC041/// 12/11 Q1004=
202010071520 METAR ESMX 071520Z AUTO 19008KT 9999 BKN043/// BKN059/// 12/11 Q1004=
202010071450 METAR ESMX 071450Z AUTO 17008KT 9999 -RA FEW014/// BKN072/// 13/12 Q1003 REDZ=
202010071420 METAR ESMX 071420Z AUTO 15007KT 9999 SCT017/// BKN020/// OVC068/// 14/11 Q1003=
202010071350 METAR ESMX 071350Z AUTO 17008KT 9999 SCT022/// BKN043/// OVC064/// 14/11 Q1003=
202010071320 METAR ESMX 071320Z 19010KT 9999 SCT016 15/11 Q1003=
202010071250 METAR ESMX 071250Z 17007KT 9999 -RA SCT017 14/11 Q1003=
202010071220 METAR ESMX 071220Z 18009KT 9999 FEW015 SCT020 14/11 Q1002=
202010071150 METAR ESMX 071150Z 19009KT 9999 SCT021 14/10 Q1002=
202010071120 METAR ESMX 071120Z 19010KT 150V210 9999 BKN019 14/10 Q1002=
202010071050 METAR ESMX 071050Z 17007KT 9999 BKN019 14/11 Q1002=
202010071020 METAR ESMX 071020Z 18009KT 9999 -DZ BKN015 14/11 Q1002=
202010070950 METAR ESMX 070950Z 18007KT 140V200 9999 BKN015 14/11 Q1002=
202010070920 METAR ESMX 070920Z 18008KT 9999 BKN013 13/11 Q1002=
202010070850 METAR ESMX 070850Z 15008KT 9999 BKN012 13/11 Q1001=
202010070820 METAR ESMX 070820Z 16005KT 9999 BKN009 13/12 Q1001=
202010070750 METAR ESMX 070750Z 15005KT 110V190 9999 BKN007 13/12 Q1001=
202010070720 METAR ESMX 070720Z 16005KT 120V190 9999 BKN005 12/12 Q1001=
202010070650 METAR ESMX 070650Z 15005KT 110V190 9999 BKN005 12/12 Q1001=
202010070620 METAR ESMX 070620Z AUTO 14004KT 9999 OVC006/// 12/11 Q1001=
202010070550 METAR ESMX 070550Z AUTO 13003KT 9999 SCT007/// BKN057/// BKN072/// 11/11 Q1000=
202010070520 METAR ESMX 070520Z AUTO 14004KT 110V170 9000 -RA FEW004/// SCT026/// BKN039/// 11/11 Q1000=
202010070450 METAR ESMX 070450Z AUTO 14004KT 7000 BR OVC004/// 11/11 Q1000=
202010070420 METAR ESMX 070420Z AUTO 13003KT 9999 BKN005/// BKN046/// 11/11 Q1000=
202010070350 METAR ESMX 070350Z AUTO VRB03KT 9999 SCT007/// BKN012/// 11/11 Q1000=
202010070320 METAR ESMX 070320Z AUTO 13004KT 100V170 9000 BR OVC003/// 11/11 Q1000=
202010070250 METAR ESMX 070250Z AUTO 13004KT 080V160 7000 BR BKN004/// OVC009/// 11/11 Q1000=
202010070220 METAR ESMX 070220Z AUTO 13004KT 100V170 9999 FEW005/// OVC007/// 11/11 Q1000=
202010070150 METAR ESMX 070150Z AUTO 17004KT 9999 BKN007/// 11/11 Q1000=
202010070120 METAR ESMX 070120Z AUTO 16004KT 9999 BKN007/// OVC070/// 11/11 Q1000=
202010070050 METAR ESMX 070050Z AUTO 16005KT 9999 BKN007/// OVC120/// 12/11 Q1000=
202010070020 METAR ESMX 070020Z AUTO 16004KT 9999 BKN006/// BKN022/// OVC120/// 12/11 Q1000=
202010062350 METAR ESMX 062350Z AUTO 16005KT 9999 FEW051/// BKN066/// OVC120/// 11/11 Q0999 REDZ=
202010062320 METAR ESMX 062320Z AUTO 16006KT 9999 DZ FEW008/// SCT011/// BKN032/// 12/11 Q0999 REDZ=
202010062250 METAR ESMX 062250Z AUTO 16006KT 9999 SCT008/// BKN009/// 11/11 Q0999=
202010062220 METAR ESMX 062220Z AUTO 17007KT 9999 BKN008/// OVC010/// 12/11 Q0999=
202010062150 METAR ESMX 062150Z AUTO 17007KT 9999 SCT008/// BKN009/// OVC018/// 12/11 Q0999=
202010062120 METAR ESMX 062120Z AUTO 18008KT 9999 OVC007/// 12/11 Q0999=
202010062050 METAR ESMX 062050Z AUTO 17007KT 130V200 9999 BKN008/// OVC013/// 12/11 Q0999=
202010062020 METAR ESMX 062020Z AUTO 17007KT 9999 SCT007/// BKN015/// 12/11 Q0999 REDZ=
202010061950 METAR ESMX 061950Z AUTO 19007KT 9999 OVC007/// 12/11 Q0998=
202010061920 METAR ESMX 061920Z AUTO 16007KT 9999 FEW002/// SCT005/// OVC007/// 12/11 Q0998 REDZ=
202010061850 METAR ESMX 061850Z AUTO 16007KT 9999 BKN005/// OVC007/// 12/11 Q0998=
202010061820 METAR ESMX 061820Z AUTO 15007KT 130V200 9999 SCT007/// BKN010/// OVC055/// 12/11 Q0998=
202010061750 METAR ESMX 061750Z AUTO 16007KT 9999 FEW038/// OVC064/// 12/11 Q0998=
202010061720 METAR ESMX 061720Z AUTO 16006KT 9999 FEW040/// OVC064/// 12/11 Q0998=
202010061650 METAR ESMX 061650Z AUTO 16006KT 9999 OVC064/// 12/11 Q0998=
202010061620 METAR ESMX 061620Z AUTO 17005KT 9999 OVC064/// 12/11 Q0998=
202010061550 METAR ESMX 061550Z AUTO 17003KT 9999 FEW021/// BKN064/// 11/11 Q0998=
202010061520 METAR ESMX 061520Z AUTO 18006KT 9999 FEW001/// BKN043/// OVC062/// 12/11 Q0998 RERA=
202010061450 METAR ESMX 061450Z AUTO 19008KT 9999 RA FEW002/// BKN026/// OVC036/// 13/11 Q0998 REDZ=
202010061420 METAR ESMX 061420Z AUTO 18010KT 140V200 9999 FEW028/// SCT043/// BKN064/// 14/09 Q0998=
202010061350 METAR ESMX 061350Z 18009KT 9999 FEW027 BKN036 14/10 Q0998=
202010061320 METAR ESMX 061320Z 19007KT 9999 FEW026 BKN039 13/10 Q0998=
202010061250 METAR ESMX 061250Z 19007KT 9999 SCT027 BKN043 14/10 Q0998=
202010061220 METAR ESMX 061220Z 19006KT 9999 FEW025 SCT200 13/10 Q0998=
202010061150 METAR ESMX 061150Z 19009KT 9999 SCT018 13/10 Q0998=
202010061120 METAR ESMX 061120Z 21006KT 9999 SCT016 BKN023 BKN170 13/10 Q0998=
202010061050 METAR ESMX 061050Z 21009KT 9999 SCT014 BKN021 BKN130 13/11 Q0998=
202010061020 METAR ESMX 061020Z 19012KT 9999 BKN014 BKN130 13/11 Q0998=
202010060950 METAR ESMX 060950Z 19012KT 9999 FEW008 BKN011 13/12 Q0998=
202010060920 METAR ESMX 060920Z 20009KT 9999 BKN009 12/11 Q0998=
202010060850 METAR ESMX 060850Z 20010KT 9999 FEW005 BKN008 12/11 Q0998=
202010060820 METAR ESMX 060820Z 20009KT 9999 BKN007 12/11 Q0998=
202010060750 METAR ESMX 060750Z 22008KT 9999 BKN005 12/12 Q0998=
202010060720 METAR ESMX 060720Z 21008KT 9999 SCT005 BKN042 12/11 Q0997=
202010060650 METAR COR ESMX 060650Z 22008KT 9999 BKN005 11/11 Q0997=
202010060620 METAR ESMX 060620Z AUTO 20010KT 9999 FEW007/// 12/11 Q0997=
202010060550 METAR ESMX 060550Z AUTO 19007KT 9999 BKN002/// BKN006/// OVC053/// 13/12 Q0997 REDZ=
202010060520 METAR ESMX 060520Z AUTO 16004KT 6000 DZ SCT005/// OVC053/// 13/13 Q0997=
202010060450 METAR ESMX 060450Z AUTO 16004KT 7000 -DZ BKN005/// BKN016/// 13/13 Q0997=
202010060420 METAR ESMX 060420Z AUTO 16003KT 9000 BR BKN004/// OVC011/// 13/13 Q0997=
202010060350 METAR ESMX 060350Z AUTO 16003KT 9999 OVC005/// 13/13 Q0997=
202010060320 METAR ESMX 060320Z AUTO 11003KT 9999 OVC006/// 13/13 Q0997=
202010060250 METAR ESMX 060250Z AUTO VRB02KT 9999 SCT008/// BKN012/// OVC086/// 13/13 Q0998 REDZ=
202010060220 METAR ESMX 060220Z AUTO VRB02KT 9999 BKN013/// OVC017/// 13/13 Q0998=
202010060150 METAR ESMX 060150Z AUTO VRB02KT 9999 SCT004/// BKN018/// OVC023/// 13/13 Q0998=
202010060120 METAR ESMX 060120Z AUTO 00000KT 9999 OVC004/// 13/13 Q0999=
202010060050 METAR ESMX 060050Z AUTO 07002KT 9999 BKN005/// OVC007/// 13/13 Q0999=
202010060020 METAR ESMX 060020Z AUTO 06002KT 9999 SCT005/// BKN008/// BKN013/// 13/13 Q0999 RERA=
202010052350 METAR ESMX 052350Z AUTO 05004KT 9999 BKN006/// BKN017/// OVC022/// 13/13 Q0999=
202010052320 METAR ESMX 052320Z AUTO 04003KT 9999 FEW007/// SCT013/// BKN070/// 13/13 Q1000=
202010052250 METAR ESMX 052250Z AUTO 07004KT 9999 BKN008/// OVC014/// 13/13 Q1000=
202010052220 METAR ESMX 052220Z AUTO 05004KT 9999 FEW009/// BKN082/// 13/13 Q1000=
202010052150 METAR ESMX 052150Z AUTO 05005KT 9999 FEW009/// BKN014/// 13/13 Q1001=
202010052120 METAR ESMX 052120Z AUTO 04005KT 9999 SCT009/// BKN047/// 13/13 Q1001=
202010052050 METAR ESMX 052050Z AUTO 03005KT 360V060 9999 SCT012/// BKN018/// 13/13 Q1001=
202010052020 METAR ESMX 052020Z AUTO 04006KT 9999 FEW018/// 13/12 Q1002=
202010051950 METAR ESMX 051950Z AUTO 04006KT 010V070 9999 BKN018/// BKN021/// 13/12 Q1003=
202010051920 METAR ESMX 051920Z AUTO 05006KT 9999 BKN010/// OVC021/// 13/12 Q1003=
202010051850 METAR ESMX 051850Z AUTO 07005KT 030V110 9999 BKN011/// OVC053/// 13/12 Q1004=
202010051820 METAR ESMX 051820Z AUTO 05006KT 340V100 9999 SCT016/// BKN053/// OVC078/// 13/12 Q1004=
202010051750 METAR ESMX 051750Z AUTO 06005KT 020V080 9999 FEW011/// BKN028/// OVC072/// 14/12 Q1004=
202010051720 METAR ESMX 051720Z AUTO 07005KT 030V120 9999 BKN036/// 14/13 Q1005=
202010051650 METAR ESMX 051650Z AUTO 07004KT 020V110 9999 FEW013/// 14/13 Q1005=
202010051620 METAR ESMX 051620Z AUTO 08004KT 030V100 9999 FEW020/// 14/12 Q1005=
202010051550 METAR ESMX 051550Z AUTO 07005KT 9999 FEW021/// 15/12 Q1005=
202010051520 METAR ESMX 051520Z AUTO 05005KT 9999 NCD 15/12 Q1005=
202010051450 METAR ESMX 051450Z AUTO 06004KT 9999 NCD 15/11 Q1005=
202010051420 METAR ESMX 051420Z 07004KT CAVOK 16/11 Q1006=
202010051350 METAR ESMX 051350Z 09004KT CAVOK 16/10 Q1006=
202010051320 METAR ESMX 051320Z 12005KT 070V170 CAVOK 17/09 Q1006=
202010051250 METAR ESMX 051250Z 08003KT 020V170 CAVOK 17/10 Q1007=
202010051220 METAR ESMX 051220Z 13005KT 080V160 CAVOK 17/09 Q1007=
202010051150 METAR ESMX 051150Z 11004KT 070V170 CAVOK 16/09 Q1007=
202010051120 METAR ESMX 051120Z 15004KT 100V160 CAVOK 16/10 Q1007=
202010051050 METAR ESMX 051050Z 13004KT 050V210 9999 FEW015 15/11 Q1008=
202010051020 METAR ESMX 051020Z 14004KT 080V180 9999 FEW014 15/11 Q1008=
202010050950 METAR ESMX 050950Z 11004KT 070V130 9999 SCT006 14/12 Q1008=
202010050920 METAR ESMX 050920Z 10004KT 9999 SCT005 13/13 Q1008=
202010050850 METAR ESMX 050850Z 12004KT 060V170 8000 BR BKN003 12/12 Q1008=
202010050820 METAR ESMX 050820Z 14004KT 5000 BR BKN002 11/11 Q1008=
202010050750 METAR ESMX 050750Z 11004KT 080V150 0900 R01/P2000N R19/1300N FG BKN002 11/11 Q1008=
202010050720 METAR ESMX 050720Z 11003KT 0900 R01/1100U R19/0650N FG BKN002 10/10 Q1008=
202010050650 METAR ESMX 050650Z 12004KT 0500 R01/0600D R19/0700N FG VV002 10/10 Q1008=
202010050620 METAR ESMX 050620Z 13002KT 5000 0800N R01/P2000N R19/1000N BCFG FEW003 09/09 Q1008=
202010050550 METAR ESMX 050550Z AUTO 13003KT 6000 OVC001/// 09/09 Q1008=
202010050520 METAR ESMX 050520Z AUTO 13004KT 0500 R01/0800N R19/P2000N FG OVC001/// 09/09 Q1007=
202010050450 METAR ESMX 050450Z AUTO 14005KT 0300 R01/0900N R19/1100N FG OVC001/// 10/10 Q1007=
202010050420 METAR ESMX 050420Z AUTO 14006KT 0150 R01/0600N R19/0700N FG VV002 10/10 Q1007=
202010050350 METAR ESMX 050350Z AUTO 13006KT 0200 R01/0700U R19/0800N FG OVC001/// 09/09 Q1007=
202010050320 METAR ESMX 050320Z AUTO 13005KT 0300 R01/P2000N R19/0900N BCFG SCT002/// 07/07 Q1006=
202010050250 METAR ESMX 050250Z AUTO 14004KT 0400 R01/P2000N R19/P2000N BR NCD 09/09 Q1006=
202010050220 METAR ESMX 050220Z AUTO 15005KT 3700 BR NCD 10/10 Q1006=
202010050150 METAR ESMX 050150Z AUTO 14004KT 0150 R01/P2000N R19/0650N NCD 08/08 Q1005=
202010050120 METAR ESMX 050120Z AUTO 15004KT 0300 R01/P2000N R19/1000D BCFG NCD 08/08 Q1005=
202010050050 METAR ESMX 050050Z AUTO 16002KT 0150 R01/P2000N R19/0500N BR NCD 08/08 Q1005=
202010050020 METAR ESMX 050020Z AUTO 16005KT 7000 BR NCD 10/10 Q1005=
202010042350 METAR ESMX 042350Z AUTO 16005KT 5000 FEW003/// 11/11 Q1004=
202010042320 METAR ESMX 042320Z AUTO 20003KT 1800 BR NCD 10/10 Q1004=
202010042250 METAR ESMX 042250Z AUTO 20005KT 0450 R01/P2000N R19/P2000D BR NCD 10/10 Q1004=
202010042220 METAR ESMX 042220Z AUTO 20004KT 4700 BR NCD 11/11 Q1003=
202010042150 METAR ESMX 042150Z AUTO 20005KT 4900 BR SCT004/// 11/11 Q1003=
202010042120 METAR ESMX 042120Z AUTO 21007KT 9000 BR VV005 11/11 Q1002=
202010042050 METAR ESMX 042050Z AUTO 21006KT 9999 NCD 12/12 Q1002=
202010042020 METAR ESMX 042020Z AUTO 22007KT 9999 SCT005/// 13/12 Q1001=
202010041950 METAR ESMX 041950Z AUTO 20008KT 9999 SCT005/// BKN008/// OVC017/// 13/13 Q1001=
202010041920 METAR ESMX 041920Z AUTO 20003KT 9999 -RA BKN019/// OVC026/// 13/13 Q1000=
202010041850 METAR ESMX 041850Z AUTO 21006KT 9999 RA FEW017/// BKN026/// OVC051/// 13/13 Q1000=
202010041820 METAR ESMX 041820Z AUTO 20006KT 9999 RA SCT003/// BKN014/// BKN031/// 13/13 Q1000 REDZ=
202010041750 METAR ESMX 041750Z AUTO 21005KT 9999 DZ BKN030/// 13/13 Q0999=
202010041720 METAR ESMX 041720Z AUTO 21004KT 9999 -DZ FEW000/// SCT014/// BKN043/// 13/13 Q0999 REDZ=
202010041650 METAR ESMX 041650Z AUTO 22005KT 9999 -DZ FEW082/// 13/13 Q0998 REDZ=
202010041620 METAR ESMX 041620Z AUTO 23004KT 9999 DZ FEW000/// BKN066/// 13/13 Q0998=
202010041550 METAR ESMX 041550Z AUTO 34004KT 280V010 9999 -DZ FEW001/// OVC062/// 14/13 Q0997=
202010041520 METAR ESMX 041520Z AUTO 29004KT 260V330 9999 -RA SCT005/// OVC059/// 14/14 Q0997 REDZ=
202010041450 METAR ESMX 041450Z AUTO 25005KT 9999 -RA SCT005/// BKN012/// OVC039/// 14/14 Q0997=
202010041420 METAR ESMX 041420Z AUTO 23007KT 9999 -RA SCT005/// BKN006/// OVC033/// 14/14 Q0996=
202010041350 METAR ESMX 041350Z AUTO 24009KT 8000 -RA BKN001/// OVC026/// 14/14 Q0996=
202010041320 METAR ESMX 041320Z AUTO 15004KT 2900 +RA FEW001/// OVC008/// 16/16 Q0995=
202010041250 METAR ESMX 041250Z AUTO 11003KT 9999 -RA OVC009/// 16/15 Q0995=
202010041220 METAR ESMX 041220Z AUTO 10003KT 9999 OVC008/// 16/15 Q0995=
202010041150 METAR ESMX 041150Z AUTO 11004KT 060V140 9999 OVC007/// 16/15 Q0995=
202010041120 METAR ESMX 041120Z AUTO 09005KT 060V130 9999 OVC007/// 16/15 Q0995=
202010041050 METAR ESMX 041050Z AUTO 10006KT 340V150 9999 OVC006/// 16/15 Q0995=
202010041020 METAR ESMX 041020Z AUTO 09006KT 040V160 9999 OVC006/// 16/15 Q0995=
202010040950 METAR ESMX 040950Z AUTO 08008KT 030V120 9999 OVC007/// 16/15 Q0995=
202010040920 METAR ESMX 040920Z AUTO 08007KT 030V150 9999 OVC007/// 16/15 Q0995=
202010040850 METAR ESMX 040850Z AUTO 09006KT 050V130 9999 OVC007/// 16/15 Q0995=
202010040820 METAR ESMX 040820Z AUTO VRB08KT 9999 OVC007/// 16/15 Q0995=
202010040750 METAR ESMX 040750Z AUTO 08007KT 030V120 9999 OVC007/// 16/15 Q0995=
202010040720 METAR ESMX 040720Z AUTO 07008KT 040V110 9999 OVC006/// 15/15 Q0995=
202010040650 METAR ESMX 040650Z AUTO 08008KT 040V130 9999 OVC006/// 15/15 Q0995=
202010040620 METAR ESMX 040620Z AUTO 06010G20KT 030V100 9999 OVC005/// 15/15 Q0995=
202010040550 METAR ESMX 040550Z AUTO 07008KT 030V120 9000 BR OVC006/// 15/15 Q0996=
202010040520 METAR ESMX 040520Z AUTO 07009KT 040V110 9000 BR OVC005/// 15/15 Q0996=
202010040450 METAR ESMX 040450Z AUTO 08007KT 030V140 9000 BR OVC005/// 15/15 Q0997=
202010040420 METAR ESMX 040420Z AUTO 08008KT 040V120 8000 BR OVC005/// 15/15 Q0997=
202010040350 METAR ESMX 040350Z AUTO 07008KT 010V140 8000 BR OVC005/// 15/15 Q0996=
202010040320 METAR ESMX 040320Z AUTO 08008KT 030V120 8000 BR OVC004/// 15/15 Q0997=
202010040250 METAR ESMX 040250Z AUTO 07008KT 030V120 6000 BR OVC004/// 15/14 Q0997=
202010040220 METAR ESMX 040220Z AUTO 06009KT 030V110 6000 BR OVC003/// 15/14 Q0997=
202010040150 METAR ESMX 040150Z AUTO 07009KT 030V120 6000 BR OVC003/// 15/14 Q0998=
202010040120 METAR ESMX 040120Z AUTO 06009KT 030V110 5000 BR OVC003/// 14/14 Q0998=
202010040050 METAR ESMX 040050Z AUTO 07008KT 020V130 5000 BR OVC003/// 14/14 Q0998=
202010040020 METAR ESMX 040020Z AUTO 07009KT 020V110 5000 BR OVC003/// 14/14 Q0998=
202010032350 METAR ESMX 032350Z AUTO 07009KT 020V110 5000 BR OVC004/// 14/14 Q0999=
202010032320 METAR ESMX 032320Z AUTO 07009KT 020V110 5000 BR OVC004/// 14/14 Q0999=
202010032250 METAR ESMX 032250Z AUTO 07010KT 040V110 5000 BR OVC004/// 14/14 Q0999 REDZ=
202010032220 METAR ESMX 032220Z AUTO 07009KT 030V100 4800 BR OVC004/// 14/14 Q1000=
202010032150 METAR ESMX 032150Z AUTO 07010KT 040V100 4500 BR OVC004/// 14/14 Q1000 REDZ=
202010032120 METAR ESMX 032120Z AUTO 07010KT 030V110 6000 BR OVC006/// 14/14 Q1001 RERA=
202010032050 METAR ESMX 032050Z AUTO 07009G19KT 030V110 6000 BR BKN006/// OVC007/// 14/14 Q1001=
202010032020 METAR ESMX 032020Z AUTO 06010G20KT 020V110 6000 -RA OVC007/// 14/14 Q1001 REDZ RERA=
202010031950 METAR ESMX 031950Z 06010KT 030V100 9999 BKN009 13/13 Q1001=
202010031920 METAR ESMX 031920Z 06009KT 4600 DZ BKN006 BKN008 13/13 Q1002 RERA=
202010031850 METAR ESMX 031850Z 07009KT 030V100 6000 DZ BR BKN006 BKN008 13/13 Q1002=
202010031820 METAR ESMX 031820Z AUTO 05010KT 360V100 6000 -DZ BKN005/// OVC008/// 13/13 Q1002=
202010031750 METAR ESMX 031750Z AUTO 06011KT 8000 BR BKN007/// OVC009/// 13/13 Q1003=
202010031720 METAR ESMX 031720Z AUTO 06010KT 030V100 9000 BR OVC007/// 13/13 Q1003=
202010031650 METAR ESMX 031650Z AUTO 07011KT 030V120 9999 OVC008/// 13/13 Q1003=
202010031620 METAR ESMX 031620Z AUTO 06010KT 030V120 9999 OVC009/// 14/12 Q1003=
202010031550 METAR ESMX 031550Z AUTO 07010KT 030V140 9000 BR BKN009/// OVC012/// 14/12 Q1004=
202010031520 METAR ESMX 031520Z AUTO 08009KT 020V120 9000 BR OVC011/// 14/12 Q1004=
202010031450 METAR ESMX 031450Z AUTO 08010G20KT 040V130 9999 OVC011/// 14/12 Q1004=
202010031420 METAR ESMX 031420Z AUTO 07009KT 020V110 9999 BKN012/// OVC030/// 14/12 Q1004=
202010031350 METAR ESMX 031350Z AUTO 06009KT 020V120 9999 SCT014/// OVC027/// 14/12 Q1004=
202010031320 METAR ESMX 031320Z AUTO 07008KT 030V100 9999 BKN012/// BKN016/// OVC036/// 14/13 Q1005=
202010031250 METAR ESMX 031250Z AUTO 07009KT 030V120 9999 OVC010/// 14/13 Q1005 RERA=
202010031220 METAR ESMX 031220Z AUTO 07009KT 030V110 9999 BKN010/// OVC013/// 14/13 Q1005=
202010031150 METAR ESMX 031150Z AUTO 07008KT 030V120 8000 -DZ BKN008/// BKN011/// OVC015/// 14/13 Q1006 REDZ=
202010031120 METAR ESMX 031120Z AUTO 06009KT 7000 BR BKN008/// BKN020/// OVC025/// 14/13 Q1006=
202010031050 METAR ESMX 031050Z AUTO 07008KT 030V110 8000 -DZ BKN009/// BKN013/// OVC020/// 14/13 Q1006 RERA=
202010031020 METAR ESMX 031020Z AUTO 07007KT 030V110 9999 SCT009/// OVC013/// 14/13 Q1006 RERA=
202010030950 METAR ESMX 030950Z AUTO 08007KT 050V140 9999 -RA BKN012/// BKN020/// OVC030/// 14/13 Q1007 RERA=
202010030920 METAR ESMX 030920Z AUTO 07008KT 030V100 9000 DZ BKN011/// OVC016/// 14/13 Q1007 REDZ=
202010030850 METAR ESMX 030850Z AUTO 08007KT 040V130 9999 DZ OVC011/// 14/13 Q1007=
202010030820 METAR ESMX 030820Z 07008KT 030V100 9999 SCT012 BKN017 BKN023 14/13 Q1007=
202010030750 METAR ESMX 030750Z 07007KT 040V140 9999 BKN012 BKN025 14/13 Q1007=
202010030720 METAR ESMX 030720Z 07006KT 020V130 9999 BKN012 BKN015 14/13 Q1007=
202010030650 METAR ESMX 030650Z 07008KT 030V120 7000 DZ BKN012 BKN016 14/13 Q1007 RERA=
202010030620 METAR ESMX 030620Z 07007KT 030V110 9999 BKN012 BKN016 14/13 Q1008=
202010030550 METAR ESMX 030550Z AUTO 08007KT 030V120 9999 BKN011/// OVC015/// 14/13 Q1008 REDZ=
202010030520 METAR ESMX 030520Z AUTO 07006KT 030V100 9999 BKN010/// OVC015/// 13/13 Q1008 REDZ=
202010030450 METAR ESMX 030450Z AUTO 07006KT 040V110 9999 DZ FEW003/// BKN011/// BKN018/// 13/13 Q1008=
202010030420 METAR ESMX 030420Z AUTO 07007KT 020V090 9999 BKN011/// OVC025/// 13/12 Q1008=
202010030350 METAR ESMX 030350Z AUTO 07006KT 9999 FEW012/// SCT015/// BKN040/// 13/12 Q1008=
202010030320 METAR ESMX 030320Z AUTO 06006KT 030V100 9999 BKN014/// OVC023/// 13/12 Q1008=
202010030250 METAR ESMX 030250Z AUTO 06007KT 9999 SCT013/// BKN018/// OVC026/// 13/12 Q1009 REDZ=
202010030220 METAR ESMX 030220Z AUTO 06007KT 030V100 9999 FEW016/// BKN034/// OVC062/// 14/12 Q1009=
202010030150 METAR ESMX 030150Z AUTO 06006KT 030V100 9999 -DZ BKN017/// OVC082/// 14/12 Q1009=
202010030120 METAR ESMX 030120Z AUTO 06007KT 030V110 9999 FEW046/// BKN082/// 14/12 Q1009=
202010030050 METAR ESMX 030050Z AUTO 07007KT 030V110 9999 FEW013/// SCT051/// BKN078/// 14/12 Q1010 REDZ=
202010030020 METAR ESMX 030020Z AUTO 06007KT 9999 FEW013/// BKN051/// 14/12 Q1010 REDZ=
202010022350 METAR ESMX 022350Z AUTO 04006KT 010V100 9999 BKN015/// OVC059/// 14/12 Q1010=
202010022320 METAR ESMX 022320Z AUTO 04006KT 360V080 9999 FEW013/// BKN019/// OVC053/// 14/12 Q1010=
202010022250 METAR ESMX 022250Z AUTO 06007KT 9999 BKN013/// BKN020/// OVC035/// 14/12 Q1010=
202010022220 METAR ESMX 022220Z AUTO 05006KT 020V080 9999 SCT012/// BKN033/// OVC055/// 14/12 Q1010=
202010022150 METAR ESMX 022150Z AUTO 05007KT 010V080 9999 SCT012/// OVC055/// 14/12 Q1010=
202010022120 METAR ESMX 022120Z AUTO 05006KT 320V120 9999 SCT012/// BKN036/// OVC055/// 14/12 Q1010=
202010022050 METAR ESMX 022050Z AUTO 06006KT 350V100 9999 BKN013/// OVC034/// 14/12 Q1011=
202010022020 METAR ESMX 022020Z AUTO 05006KT 010V100 9999 SCT013/// BKN034/// OVC057/// 14/12 Q1011=
202010021950 METAR ESMX 021950Z AUTO 06008KT 030V100 9999 FEW015/// BKN027/// OVC034/// 14/12 Q1011=
202010021920 METAR ESMX 021920Z AUTO 07007KT 020V120 7000 BR SCT015/// BKN023/// OVC029/// 14/12 Q1011=
202010021850 METAR ESMX 021850Z AUTO 07007KT 030V110 9000 BKN016/// OVC022/// 14/12 Q1011=
202010021820 METAR ESMX 021820Z AUTO 07007KT 030V120 9000 BKN017/// OVC030/// 14/12 Q1011=
202010021750 METAR ESMX 021750Z AUTO 06008KT 030V110 9000 BR FEW018/// SCT024/// OVC032/// 14/12 Q1011=
202010021720 METAR ESMX 021720Z AUTO 07008KT 030V110 9999 BKN017/// OVC025/// 14/12 Q1011=
202010021650 METAR ESMX 021650Z AUTO 07006KT 050V110 9999 BKN016/// BKN022/// OVC027/// 14/12 Q1011=
202010021620 METAR ESMX 021620Z AUTO 07007KT 030V100 9999 FEW020/// SCT070/// 14/12 Q1010=
202010021550 METAR ESMX 021550Z AUTO 06007KT 020V100 9999 FEW024/// 15/11 Q1010=
202010021520 METAR ESMX 021520Z AUTO 07008KT 030V120 9999 BKN023/// BKN031/// 16/12 Q1010=
202010021450 METAR ESMX 021450Z AUTO 07008KT 030V120 9999 FEW024/// SCT190/// 16/12 Q1010=
202010021420 METAR ESMX 021420Z AUTO 07006KT 010V110 9999 FEW028/// 16/12 Q1010=
202010021350 METAR ESMX 021350Z 08007KT 050V130 9999 SCT025 17/12 Q1010=
202010021320 METAR ESMX 021320Z 06007KT 010V180 9999 BKN023 16/12 Q1010=
202010021250 METAR ESMX 021250Z 09008KT 050V140 9999 SCT022 17/12 Q1010=
202010021220 METAR ESMX 021220Z 08007KT 020V150 9999 FEW022 BKN035 16/12 Q1010=
202010021150 METAR ESMX 021150Z VRB06KT 9999 BKN020 15/12 Q1010 RERA=
202010021120 METAR ESMX 021120Z 08008KT 030V120 9999 BKN021 16/12 Q1010=
202010021050 METAR ESMX 021050Z 07008KT 030V110 9999 BKN020 16/12 Q1010=
202010021020 METAR ESMX 021020Z 08008KT 020V120 9999 SCT018 BKN024 16/12 Q1010=
202010020950 METAR ESMX 020950Z 07008G19KT 020V130 9999 BKN017 16/13 Q1010=
202010020920 METAR ESMX 020920Z 08008KT 030V140 9999 BKN016 15/13 Q1010=
202010020850 METAR ESMX 020850Z 08007KT 020V130 9999 BKN015 15/12 Q1010=
202010020820 METAR ESMX 020820Z 07008KT 040V130 9999 BKN015 15/12 Q1010=
202010020750 METAR COR ESMX 020750Z 08007KT 040V110 9999 BKN015 15/12 Q1010=
202010020720 METAR ESMX 020720Z 08007KT 030V110 9999 BKN013 14/13 Q1010=
202010020650 METAR ESMX 020650Z 08006KT 020V130 9999 BKN012 14/13 Q1010=
202010020620 METAR ESMX 020620Z AUTO 07007KT 040V110 9999 SCT013/// BKN020/// OVC026/// 14/13 Q1010=
202010020550 METAR ESMX 020550Z AUTO 08006KT 030V110 9999 BKN014/// OVC018/// 14/12 Q1009=
202010020520 METAR ESMX 020520Z AUTO 09007KT 040V120 9999 OVC012/// 14/12 Q1009=
202010020450 METAR ESMX 020450Z AUTO 09006KT 040V140 9999 BKN012/// OVC017/// 14/12 Q1009=
202010020420 METAR ESMX 020420Z AUTO 09005KT 040V140 9999 BKN012/// OVC018/// 14/12 Q1009=
202010020350 METAR ESMX 020350Z AUTO 08007KT 050V120 9999 BKN012/// OVC017/// 14/12 Q1009=
202010020320 METAR ESMX 020320Z AUTO 08005KT 050V130 9999 OVC011/// 14/12 Q1008=
202010020250 METAR ESMX 020250Z AUTO 08006KT 030V110 8000 BR OVC011/// 14/12 Q1008=
202010020220 METAR ESMX 020220Z AUTO VRB05KT 9000 BR BKN010/// OVC068/// 13/12 Q1008=
202010020150 METAR ESMX 020150Z AUTO 08005KT 040V110 2300 BR SCT010/// OVC068/// 13/12 Q1008=
202010020120 METAR ESMX 020120Z AUTO 07005KT 040V100 6000 BR FEW011/// OVC064/// 13/12 Q1008=
202010020050 METAR ESMX 020050Z AUTO 07005KT 040V110 9999 BKN059/// 13/12 Q1008=
202010020020 METAR ESMX 020020Z AUTO 07005KT 9999 FEW012/// BKN047/// 13/12 Q1008=
202010012350 METAR ESMX 012350Z AUTO 07005KT 9999 FEW053/// 13/12 Q1008=
202010012320 METAR ESMX 012320Z AUTO 07005KT 040V100 9999 FEW013/// 13/12 Q1008=
202010012250 METAR ESMX 012250Z AUTO 07005KT 030V110 9999 SCT013/// BKN018/// 13/12 Q1008=
202010012220 METAR ESMX 012220Z AUTO 06005KT 030V100 9999 FEW014/// SCT068/// 13/12 Q1008=
202010012150 METAR ESMX 012150Z AUTO 07006KT 030V110 9999 FEW015/// BKN068/// 13/12 Q1009=
202010012120 METAR ESMX 012120Z AUTO 07006KT 020V100 9999 FEW074/// SCT150/// 13/12 Q1009=
202010012050 METAR ESMX 012050Z AUTO 06005KT 020V100 9999 SCT150/// 13/11 Q1009=
202010012020 METAR ESMX 012020Z AUTO 06007KT 9999 FEW055/// SCT150/// 13/11 Q1009=
202010011950 METAR ESMX 011950Z AUTO 07007KT 030V110 9999 OVC055/// 14/11 Q1009=
202010011920 METAR ESMX 011920Z AUTO 07007KT 010V110 9999 OVC051/// 14/11 Q1009=
202010011850 METAR ESMX 011850Z AUTO 06007KT 020V110 9999 FEW048/// SCT059/// OVC140/// 14/11 Q1009=
202010011820 METAR ESMX 011820Z AUTO 06008KT 030V100 9999 BKN130/// 14/11 Q1009=
202010011750 METAR ESMX 011750Z 06007KT 030V090 9999 SCT017 13/11 Q1009=
202010011720 METAR ESMX 011720Z 06007KT 030V090 9999 SCT020 13/11 Q1009=
202010011650 METAR ESMX 011650Z 06008KT 020V100 9999 SCT021 14/11 Q1009=
202010011620 METAR ESMX 011620Z 05009KT 020V090 9999 FEW022 14/11 Q1009=
202010011550 METAR ESMX 011550Z AUTO 06008KT 030V100 9999 FEW022/// SCT027/// 14/11 Q1009=
202010011520 METAR ESMX 011520Z AUTO 06008KT 9999 OVC022/// 14/11 Q1009=
202010011450 METAR ESMX 011450Z AUTO 06009KT 030V090 9999 OVC019/// 14/11 Q1009=
202010011420 METAR ESMX 011420Z AUTO 05007KT 9999 OVC020/// 15/12 Q1010=
202010011350 METAR ESMX 011350Z AUTO 04007KT 9999 OVC020/// 14/11 Q1010=
202010011320 METAR ESMX 011320Z AUTO 05006KT 020V080 9999 OVC020/// 15/11 Q1010=
202010011250 METAR ESMX 011250Z AUTO 03006KT 010V080 9999 OVC021/// 15/11 Q1010=
202010011220 METAR ESMX 011220Z AUTO 06007KT 030V090 9999 BKN020/// OVC130/// 14/11 Q1011=
