##########################################################
# Query made at 04/19/2024 22:13:42 UTC
# Time interval: from 04/01/2020 12:00  to 04/30/2020 12:59  UTC
##########################################################

##########################################################
# ESMX, Vaxjo (Sweden)
# WMO index: 02641. WIGOS ID: 0-20000-0-02648
# Latitude 56-51N. Longitude 014-50E. Altitude 199 m.
##########################################################

202004301250 METAR ESMX 301250Z VRB09KT 9999 BKN021 07/02 Q1006=
202004301220 METAR ESMX 301220Z AUTO 10008KT 050V140 9999 SCT013/// BKN017/// OVC021/// 06/02 Q1006=
202004301150 METAR ESMX 301150Z 10009KT 050V160 9999 BKN013 06/03 Q1006=
202004301120 METAR ESMX 301120Z 09007KT 050V130 9999 BKN012 05/03 Q1007=
202004301050 METAR ESMX 301050Z 09007KT 040V160 9999 FEW013 BKN026 04/02 Q1007=
202004301020 METAR ESMX 301020Z 08006KT 060V120 9999 FEW006 BKN028 04/02 Q1007=
202004300950 METAR ESMX 300950Z 11005KT 060V150 9999 FEW021 BKN030 03/02 Q1008=
202004300920 METAR COR ESMX 300920Z 11006KT 050V170 9000 -RA FEW010 BKN020 04/01 Q1008=
202004300850 METAR ESMX 300850Z 11007KT 060V170 9999 -SN SCT026 BKN039 04/M00 Q1008=
202004300820 METAR ESMX 300820Z 11008KT 050V170 9999 SCT027 BKN039 05/M01 Q1008=
202004300750 METAR ESMX 300750Z 11009KT 060V160 9999 FEW027 BKN041 05/M01 Q1008=
202004300720 METAR ESMX 300720Z 13007KT 070V190 9999 FEW026 BKN047 05/M01 Q1008=
202004300650 METAR ESMX 300650Z 09007KT 040V150 9999 BKN045 04/M01 Q1008=
202004300620 METAR ESMX 300620Z AUTO 09007G19KT 040V150 9999 OVC051/// 04/M02 Q1009=
202004300550 METAR ESMX 300550Z AUTO 09006KT 040V200 9999 SCT053/// OVC110/// 04/M01 Q1009=
202004300520 METAR ESMX 300520Z AUTO 10007G17KT 050V150 9999 FEW062/// OVC110/// 03/M01 Q1009=
202004300450 METAR ESMX 300450Z AUTO 08008KT 040V120 9999 OVC061/// 03/M00 Q1009=
202004300420 METAR ESMX 300420Z AUTO 09006KT 030V140 9999 BKN062/// BKN074/// OVC110/// 03/M01 Q1009=
202004300350 METAR ESMX 300350Z AUTO 10005KT 020V160 9999 BKN066/// OVC110/// 03/M00 Q1009=
202004300320 METAR ESMX 300320Z AUTO VRB04KT 9999 FEW066/// OVC110/// 03/00 Q1009=
202004300250 METAR ESMX 300250Z AUTO 08004KT 030V150 9999 FEW068/// OVC100/// 03/00 Q1009=
202004300220 METAR ESMX 300220Z AUTO 08005KT 030V150 9999 OVC070/// 02/00 Q1009=
202004300150 METAR ESMX 300150Z AUTO 08004KT 030V130 9999 OVC072/// 02/00 Q1010=
202004300120 METAR ESMX 300120Z AUTO 07005KT 020V110 9999 BKN076/// OVC110/// 02/M00 Q1010=
202004300050 METAR ESMX 300050Z AUTO 06005KT 030V100 9999 BKN078/// OVC110/// 02/M00 Q1010=
202004300020 METAR ESMX 300020Z AUTO 08003KT 020V130 9999 BKN082/// OVC110/// 02/M01 Q1010=
202004292350 METAR ESMX 292350Z AUTO 16003KT 080V210 9999 OVC084/// 02/M01 Q1010=
202004292320 METAR ESMX 292320Z AUTO 16004KT 080V200 9999 SCT086/// OVC110/// 02/M02 Q1011=
202004292250 METAR ESMX 292250Z AUTO 08003KT 040V140 9999 OVC100/// 02/M03 Q1010=
202004292220 METAR ESMX 292220Z AUTO VRB03KT 9999 OVC098/// 03/M03 Q1011=
202004292150 METAR ESMX 292150Z AUTO 08006KT 010V130 9999 OVC098/// 03/M04 Q1010=
202004292120 METAR ESMX 292120Z AUTO 09005KT 040V150 9999 OVC098/// 03/M05 Q1010=
202004292050 METAR ESMX 292050Z AUTO 08005KT 050V140 9999 OVC098/// 03/M05 Q1010=
202004292020 METAR ESMX 292020Z AUTO VRB05KT 9999 OVC098/// 04/M05 Q1010=
202004291950 METAR ESMX 291950Z AUTO 11006KT 030V150 9999 OVC100/// 04/M04 Q1010=
202004291920 METAR ESMX 291920Z AUTO VRB06KT 9999 OVC100/// 04/M04 Q1010=
202004291850 METAR ESMX 291850Z AUTO 10006KT 050V170 9999 OVC100/// 05/M04 Q1010=
202004291820 METAR ESMX 291820Z AUTO 11007KT 020V170 9999 BKN100/// OVC140/// 05/M03 Q1010=
202004291750 METAR ESMX 291750Z AUTO 10006KT 040V150 9999 SCT100/// OVC130/// 06/M03 Q1009=
202004291720 METAR ESMX 291720Z AUTO VRB06KT 9999 SCT053/// OVC140/// 07/M03 Q1009=
202004291650 METAR ESMX 291650Z AUTO 11006KT 050V180 9999 SCT051/// BKN110/// OVC130/// 08/M03 Q1009=
202004291620 METAR ESMX 291620Z AUTO 14006KT 090V180 9999 BKN055/// OVC130/// 08/M03 Q1009=
202004291550 METAR ESMX 291550Z AUTO VRB06KT 9999 BKN057/// OVC068/// 09/M03 Q1009=
202004291520 METAR ESMX 291520Z AUTO VRB05KT 9999 FEW059/// OVC120/// 09/M04 Q1009=
202004291450 METAR ESMX 291450Z AUTO VRB04KT 9999 BKN057/// OVC130/// 09/M04 Q1009=
202004291420 METAR ESMX 291420Z AUTO 02007KT 9999 FEW055/// BKN068/// 09/M04 Q1009=
202004291350 METAR ESMX 291350Z AUTO VRB03KT 9999 FEW055/// BKN068/// 10/M04 Q1009=
202004291320 METAR ESMX 291320Z 03006KT 350V060 CAVOK 09/M04 Q1009=
202004291250 METAR ESMX 291250Z 04007KT 010V110 CAVOK 09/M04 Q1009=
202004291220 METAR ESMX 291220Z 03006KT 330V070 CAVOK 09/M05 Q1009=
202004291150 METAR ESMX 291150Z VRB07KT CAVOK 08/M04 Q1009=
202004291120 METAR ESMX 291120Z 07004KT 340V150 CAVOK 09/M05 Q1009=
202004291050 METAR COR ESMX 291050Z 09005KT 040V180 9999 SCT044 07/M05 Q1009=
202004291020 METAR ESMX 291020Z 05007KT 020V130 9999 FEW047 07/M05 Q1009=
202004290950 METAR ESMX 290950Z 05008KT 9999 FEW042 06/M05 Q1009=
202004290920 METAR ESMX 290920Z 06009KT 020V110 9999 SCT037 06/M05 Q1009=
202004290850 METAR ESMX 290850Z 05010KT 9999 BKN036 05/M05 Q1009=
202004290820 METAR ESMX 290820Z 06008KT 020V110 9999 BKN033 04/M05 Q1009=
202004290750 METAR ESMX 290750Z 06006KT 020V100 9999 BKN031 04/M03 Q1009=
202004290720 METAR ESMX 290720Z 06006KT 9999 BKN027 03/M03 Q1009=
202004290650 METAR ESMX 290650Z 06008KT 030V100 9999 BKN025 03/M03 Q1009=
202004290620 METAR ESMX 290620Z AUTO 06008KT 9999 OVC024/// 03/M02 Q1009=
202004290550 METAR ESMX 290550Z AUTO 07008KT 030V110 9999 BKN023/// OVC029/// 03/M02 Q1009=
202004290520 METAR ESMX 290520Z AUTO 05009KT 030V100 9999 FEW016/// SCT022/// OVC029/// 03/00 Q1008=
202004290450 METAR ESMX 290450Z AUTO 06008KT 020V100 9999 FEW013/// BKN017/// BKN021/// 03/00 Q1008=
202004290420 METAR ESMX 290420Z AUTO 06007KT 020V090 9999 BKN017/// OVC025/// 03/01 Q1008=
202004290350 METAR ESMX 290350Z AUTO 07006KT 030V100 9999 FEW012/// OVC024/// 03/01 Q1008=
202004290320 METAR ESMX 290320Z AUTO 05007KT 9999 FEW011/// OVC021/// 03/01 Q1007=
202004290250 METAR ESMX 290250Z AUTO 06004KT 020V110 9999 FEW010/// SCT013/// BKN018/// 03/01 Q1008=
202004290220 METAR ESMX 290220Z AUTO 07005KT 9999 OVC017/// 03/01 Q1007=
202004290150 METAR ESMX 290150Z AUTO VRB04KT 9999 FEW020/// BKN039/// OVC064/// 03/01 Q1007=
202004290120 METAR ESMX 290120Z AUTO VRB04KT 9999 BKN038/// OVC066/// 03/01 Q1007=
202004290050 METAR ESMX 290050Z AUTO 15004KT 060V210 9999 FEW012/// BKN036/// OVC066/// 03/01 Q1007=
202004290020 METAR ESMX 290020Z AUTO 08004KT 030V150 9999 FEW036/// OVC066/// 03/01 Q1007=
202004282350 METAR ESMX 282350Z AUTO 06005KT 030V100 9999 FEW049/// OVC068/// 03/01 Q1007=
202004282320 METAR ESMX 282320Z AUTO 07006KT 030V110 9999 SCT018/// OVC048/// 04/01 Q1007=
202004282250 METAR ESMX 282250Z AUTO 07004KT 9999 FEW016/// SCT023/// BKN038/// 04/02 Q1007=
202004282220 METAR ESMX 282220Z AUTO 07005KT 040V100 9999 FEW012/// SCT016/// OVC029/// 04/02 Q1007=
202004282150 METAR ESMX 282150Z AUTO 07007KT 030V110 9999 FEW013/// OVC030/// 05/02 Q1006=
202004282120 METAR ESMX 282120Z AUTO 13004KT 080V190 9999 FEW013/// SCT020/// OVC027/// 05/02 Q1006=
202004282050 METAR ESMX 282050Z AUTO 07005KT 040V110 9999 FEW012/// OVC026/// 05/03 Q1006=
202004282020 METAR ESMX 282020Z AUTO 07005KT 030V120 9999 SCT009/// BKN018/// OVC023/// 05/03 Q1006=
202004281950 METAR ESMX 281950Z AUTO 08005KT 010V130 9999 BKN010/// OVC029/// 06/04 Q1006=
202004281920 METAR ESMX 281920Z AUTO 09006KT 060V140 9999 SCT023/// BKN057/// OVC068/// 06/04 Q1006 REUP=
202004281850 METAR ESMX 281850Z AUTO 07005KT 030V110 9999 FEW013/// BKN022/// BKN027/// 06/04 Q1006=
202004281820 METAR ESMX 281820Z AUTO 05005KT 020V080 9999 FEW022/// SCT035/// OVC042/// 06/04 Q1005=
202004281750 METAR ESMX 281750Z AUTO 04007KT 9999 BKN029/// OVC080/// 07/04 Q1005=
202004281720 METAR ESMX 281720Z AUTO 03007KT 9999 SCT066/// OVC082/// 07/04 Q1005=
202004281650 METAR ESMX 281650Z AUTO 03007KT 350V060 9999 FEW032/// BKN059/// OVC082/// 07/04 Q1005 REUP=
202004281620 METAR ESMX 281620Z AUTO 01007KT 9999 SCT055/// OVC082/// 07/04 Q1005=
202004281550 METAR ESMX 281550Z AUTO 35009KT 310V010 9999 BKN078/// 08/04 Q1004=
202004281520 METAR ESMX 281520Z AUTO 34008KT 300V010 9999 FEW072/// 07/04 Q1004=
202004281450 METAR ESMX 281450Z AUTO 36009KT 9999 FEW062/// BKN078/// 08/04 Q1004=
202004281420 METAR ESMX 281420Z AUTO 35009KT 330V030 9999 FEW002/// BKN022/// BKN034/// 08/05 Q1004 REDZ=
202004281350 METAR ESMX 281350Z AUTO 28008KT 230V350 9999 BKN024/// BKN028/// OVC033/// 10/05 Q1003 REDZ=
202004281320 METAR ESMX 281320Z 29006KT 260V340 9999 VCSH SCT025 09/05 Q1003=
202004281250 METAR ESMX 281250Z 33005KT 300V010 9999 SCT045 08/06 Q1003=
202004281220 METAR ESMX 281220Z 30005KT 260V330 9999 SCT035 07/06 Q1003=
202004281150 METAR ESMX 281150Z 32009KT 280V350 9999 -SHRA SCT031CB 07/05 Q1003=
202004281120 METAR COR ESMX 281120Z 01010KT 9999 VCSH SCT030 09/04 Q1003=
202004281050 METAR ESMX 281050Z 34005KT 300V010 9999 FEW026 SCT045 10/05 Q1002=
202004281020 METAR ESMX 281020Z 01006KT 350V060 9999 SCT026 09/04 Q1002=
202004280950 METAR ESMX 280950Z 32007KT 240V360 9999 BKN022 09/05 Q1003=
202004280920 METAR ESMX 280920Z 35006KT 310V020 9999 FEW012 SCT022 08/04 Q1003=
202004280850 METAR ESMX 280850Z 34009KT 9999 FEW012 BKN021 08/06 Q1002=
202004280820 METAR ESMX 280820Z 36006KT 9999 SCT012 BKN022 08/05 Q1002=
202004280750 METAR ESMX 280750Z 36005KT 330V040 9999 FEW010 BKN016 07/06 Q1002=
202004280720 METAR ESMX 280720Z 02006KT 9999 SCT008 BKN010 07/05 Q1002=
202004280650 METAR ESMX 280650Z 34009KT 9999 -DZ FEW006 BKN008 07/06 Q1002=
202004280620 METAR ESMX 280620Z AUTO 32007KT 260V350 9999 BKN006/// OVC013/// 07/06 Q1002=
202004280550 METAR ESMX 280550Z AUTO 34005KT 300V010 9999 -DZ SCT006/// OVC024/// 07/06 Q1002=
202004280520 METAR ESMX 280520Z AUTO 34006KT 9999 -DZ FEW006/// OVC024/// 07/07 Q1002 REDZ=
202004280450 METAR ESMX 280450Z AUTO 34004KT 9999 -DZ BKN006/// OVC026/// 07/07 Q1002 RESHUP REDZ=
202004280420 METAR ESMX 280420Z AUTO 22004KT 9999 FEW005/// SCT009/// OVC026/// 07/07 Q1002=
202004280350 METAR ESMX 280350Z AUTO 35003KT 9000 OVC020/// 06/06 Q1002=
202004280320 METAR ESMX 280320Z AUTO 19003KT 7000 -RA SCT007/// BKN012/// BKN016/// 06/06 Q1003=
202004280250 METAR ESMX 280250Z AUTO 19002KT 4700 -RA SCT007/// OVC014/// 06/06 Q1003 RERA=
202004280220 METAR ESMX 280220Z AUTO 19002KT 2100 BR FEW005/// SCT007/// BKN009/// 06/06 Q1003=
202004280150 METAR ESMX 280150Z AUTO 19002KT 0900 R01/P2000N R19/P2000N -DZ FEW007/// SCT009/// BKN010/// 06/06 Q1003 RESHUP RERA=
202004280120 METAR ESMX 280120Z AUTO 19002KT 2000 FEW009/// SCT016/// OVC055/// 06/06 Q1003=
202004280050 METAR ESMX 280050Z AUTO 00000KT 4300 -DZ BKN029/// 07/07 Q1003 RESHUP=
202004280020 METAR ESMX 280020Z AUTO 20003KT 4700 -DZ FEW008/// OVC027/// 07/07 Q1004 RESHUP RERA=
202004272350 METAR ESMX 272350Z AUTO 00000KT 4200 BR FEW010/// SCT023/// OVC034/// 07/07 Q1004=
202004272320 METAR ESMX 272320Z AUTO 20002KT 4900 -RA BKN021/// OVC026/// 07/07 Q1004=
202004272250 METAR ESMX 272250Z AUTO 00000KT 5000 -RA OVC026/// 07/07 Q1004 REDZ=
202004272220 METAR ESMX 272220Z AUTO 00000KT 7000 -RA OVC023/// 07/07 Q1004=
202004272150 METAR ESMX 272150Z AUTO VRB03KT 8000 -RA FEW006/// SCT011/// OVC021/// 07/07 Q1005=
202004272120 METAR ESMX 272120Z AUTO VRB01KT 7000 -RA SCT007/// BKN010/// OVC015/// 08/08 Q1005=
202004272050 METAR ESMX 272050Z AUTO 25004KT 210V310 6000 -RA FEW006/// OVC009/// 08/08 Q1005=
202004272020 METAR ESMX 272020Z AUTO 23004KT 6000 -DZ FEW005/// SCT007/// OVC016/// 08/08 Q1005=
202004271950 METAR ESMX 271950Z AUTO 16002KT 5000 -DZ FEW014/// OVC021/// 08/08 Q1005 RESHUP RERA=
202004271920 METAR ESMX 271920Z AUTO 00000KT 6000 BR OVC024/// 08/08 Q1005=
202004271850 METAR ESMX 271850Z AUTO 19001KT 9999 SCT022/// OVC028/// 09/08 Q1005 REUP=
202004271820 METAR ESMX 271820Z AUTO 00000KT 9999 UP OVC021/// 09/08 Q1005=
202004271750 METAR ESMX 271750Z AUTO 20003KT 9999 FEW014/// OVC023/// 09/08 Q1005=
202004271720 METAR ESMX 271720Z AUTO 20003KT 9999 OVC026/// 09/08 Q1005=
202004271650 METAR ESMX 271650Z AUTO 20003KT 9999 FEW016/// OVC024/// 09/08 Q1005=
202004271620 METAR ESMX 271620Z AUTO 20005KT 9999 -DZ BKN016/// BKN020/// OVC025/// 09/08 Q1005 REDZ=
202004271550 METAR ESMX 271550Z AUTO 20004KT 9999 -DZ SCT018/// OVC027/// 09/08 Q1005=
202004271520 METAR ESMX 271520Z AUTO 20003KT 9999 OVC030/// 09/08 Q1005 RERA=
202004271450 METAR ESMX 271450Z AUTO 20003KT 9999 -RA BKN036/// OVC045/// 08/07 Q1005=
202004271420 METAR ESMX 271420Z AUTO 20003KT 9999 -RA ///041 09/07 Q1006=
202004271350 METAR ESMX 271350Z AUTO 22004KT 9999 -RA OVC038/// 09/07 Q1006=
202004271320 METAR ESMX 271320Z 21006KT 9999 -RA BKN033 10/06 Q1006=
202004271250 METAR ESMX 271250Z 18009KT 9999 -DZ BKN035 BKN043 11/04 Q1006=
202004271220 METAR ESMX 271220Z 18008KT 150V210 9999 SCT034 BKN059 OVC084 12/03 Q1006=
202004271150 METAR ESMX 271150Z 18006KT 9999 SCT029 BKN059 OVC084 11/04 Q1006=
202004271120 METAR ESMX 271120Z 19006KT 9999 -DZ BKN034 11/03 Q1007=
202004271050 METAR ESMX 271050Z 20006KT 9999 BKN034 12/03 Q1007=
202004271020 METAR ESMX 271020Z 22005KT 160V260 9999 BKN032 OVC100 11/03 Q1007=
202004270950 METAR ESMX 270950Z 21004KT 190V250 9999 SCT021 BKN028 11/04 Q1007=
202004270920 METAR ESMX 270920Z 21004KT 170V250 9999 SCT021 BKN028 10/04 Q1007=
202004270850 METAR ESMX 270850Z 24005KT 210V290 9999 BKN016 BKN022 OVC098 10/05 Q1007=
202004270820 METAR ESMX 270820Z 21006KT 9999 SCT015 BKN098 OVC160 09/05 Q1008=
202004270750 METAR ESMX 270750Z 23004KT 200V260 9999 SCT010 BKN160 09/06 Q1007=
202004270720 METAR ESMX 270720Z 23006KT 9999 SCT005 07/05 Q1007=
202004270650 METAR ESMX 270650Z 24007KT 9999 SCT006 07/05 Q1007=
202004270620 METAR ESMX 270620Z 19005KT CAVOK 06/05 Q1007=
202004270550 METAR ESMX 270550Z 21005KT CAVOK 05/04 Q1007=
202004251120 METAR ESMX 251120Z AUTO 30007KT 270V340 9999 BKN051/// OVC066/// 10/M02 Q1008=
202004251050 METAR ESMX 251050Z AUTO 31006KT 280V340 9999 OVC064/// 10/M02 Q1008=
202004251020 METAR ESMX 251020Z AUTO 29010KT 260V320 9999 OVC062/// 10/M02 Q1008=
202004250950 METAR ESMX 250950Z AUTO 29007KT 220V320 9999 OVC057/// 10/M02 Q1008=
202004250920 METAR ESMX 250920Z AUTO 33008KT 280V360 9999 FEW043/// OVC064/// 10/M02 Q1008=
202004250850 METAR ESMX 250850Z AUTO 32005KT 210V020 9999 FEW042/// SCT053/// OVC070/// 10/00 Q1008=
202004250820 METAR ESMX 250820Z AUTO 34005KT 9999 OVC068/// 10/01 Q1008=
202004250750 METAR ESMX 250750Z AUTO 01004KT 9999 OVC070/// 09/01 Q1008=
202004250720 METAR ESMX 250720Z AUTO 33006KT 270V070 9999 OVC068/// 09/02 Q1007=
202004250650 METAR ESMX 250650Z AUTO 32006KT 240V350 9999 OVC070/// 08/03 Q1007=
202004250620 METAR ESMX 250620Z AUTO 26004KT 210V330 9999 OVC070/// 08/04 Q1007=
202004250550 METAR ESMX 250550Z AUTO VRB03KT 9999 OVC068/// 07/04 Q1007=
202004250520 METAR ESMX 250520Z AUTO 21002KT 9999 OVC068/// 07/04 Q1007=
202004250450 METAR ESMX 250450Z AUTO 29004KT 9999 OVC068/// 06/04 Q1007=
202004250420 METAR ESMX 250420Z AUTO 29005KT 9999 OVC070/// 06/04 Q1007=
202004250350 METAR ESMX 250350Z AUTO 29004KT 9999 OVC072/// 06/04 Q1007=
202004250320 METAR ESMX 250320Z AUTO 29005KT 9999 OVC074/// 06/04 Q1007=
202004250250 METAR ESMX 250250Z AUTO 30004KT 9999 BKN055/// OVC068/// 06/04 Q1007=
202004250220 METAR ESMX 250220Z AUTO 28006KT 230V320 9999 BKN041/// OVC055/// 06/03 Q1007 REDZ REUP=
202004250150 METAR ESMX 250150Z AUTO VRB03KT 9999 BKN046/// OVC070/// 06/02 Q1007=
202004250120 METAR ESMX 250120Z AUTO 23004KT 9999 FEW049/// OVC068/// 06/02 Q1007=
202004250050 METAR ESMX 250050Z AUTO 23004KT 9999 OVC070/// 05/01 Q1007=
202004250020 METAR ESMX 250020Z AUTO 22004KT 9999 FEW051/// OVC072/// 05/01 Q1007=
202004242350 METAR ESMX 242350Z AUTO 11001KT 9999 OVC072/// 03/M01 Q1007=
202004242320 METAR ESMX 242320Z AUTO 00000KT 9999 OVC072/// 04/M02 Q1007=
202004242250 METAR ESMX 242250Z AUTO 00000KT 9999 BKN074/// 04/M02 Q1007=
202004242220 METAR ESMX 242220Z AUTO 11002KT 9999 BKN072/// 06/M02 Q1006=
202004242150 METAR ESMX 242150Z AUTO 00000KT 9999 OVC066/// 07/M02 Q1006=
202004242120 METAR ESMX 242120Z AUTO 16003KT 090V180 9999 BKN049/// OVC061/// 07/M02 Q1006=
202004242050 METAR ESMX 242050Z AUTO VRB03KT 9999 BKN043/// OVC062/// 08/M02 Q1007=
202004242020 METAR ESMX 242020Z AUTO 07004KT 040V120 9999 FEW031/// OVC055/// 08/M02 Q1006=
202004241950 METAR ESMX 241950Z AUTO VRB04KT 9999 OVC047/// 08/M00 Q1006=
202004241920 METAR ESMX 241920Z AUTO 12005KT 050V210 9999 BKN055/// 09/01 Q1006=
202004241850 METAR ESMX 241850Z AUTO 10006KT 040V180 9999 OVC053/// 09/01 Q1005=
202004241820 METAR ESMX 241820Z AUTO 13006KT 060V200 9999 BKN053/// OVC062/// 10/00 Q1005=
202004241750 METAR ESMX 241750Z AUTO 09004KT 030V150 9999 BKN053/// OVC066/// 11/00 Q1004=
202004241720 METAR ESMX 241720Z AUTO 11006KT 080V160 9999 OVC064/// 11/00 Q1004=
202004241650 METAR ESMX 241650Z AUTO 12005KT 050V190 9999 BKN057/// OVC074/// 12/00 Q1004=
202004241620 METAR ESMX 241620Z AUTO 08006KT 030V120 9999 -DZ BKN059/// OVC080/// 13/01 Q1003=
202004241550 METAR ESMX 241550Z AUTO 06007KT 030V100 9999 OVC076/// 14/02 Q1003=
202004241520 METAR ESMX 241520Z AUTO 04008KT 9999 BKN078/// OVC096/// 14/02 Q1003=
202004241450 METAR ESMX 241450Z AUTO 03010KT 9999 SCT084/// BKN100/// 15/01 Q1003=
202004241420 METAR ESMX 241420Z AUTO 02010KT 9999 OVC088/// 16/02 Q1003=
202004241350 METAR ESMX 241350Z AUTO 03010KT 360V070 9999 BKN082/// 16/01 Q1004=
202004241320 METAR ESMX 241320Z 02009KT 330V060 CAVOK 17/00 Q1004=
202004241250 METAR ESMX 241250Z 05007KT 010V110 CAVOK 17/00 Q1004=
202004241220 METAR ESMX 241220Z 03009KT 340V070 CAVOK 16/M00 Q1004=
202004241150 METAR ESMX 241150Z VRB06KT CAVOK 17/02 Q1004=
202004241120 METAR ESMX 241120Z 01006KT 330V050 CAVOK 16/02 Q1004=
202004241050 METAR ESMX 241050Z 36007KT 310V060 CAVOK 16/03 Q1005=
202004241020 METAR ESMX 241020Z 01007KT 330V040 CAVOK 15/03 Q1005=
202004240950 METAR ESMX 240950Z 02007KT CAVOK 14/03 Q1005=
202004240920 METAR ESMX 240920Z 03006KT 350V070 CAVOK 14/02 Q1005=
202004240850 METAR ESMX 240850Z VRB06KT CAVOK 15/03 Q1005=
202004240820 METAR ESMX 240820Z VRB01KT CAVOK 14/03 Q1005=
202004240750 METAR ESMX 240750Z 00000KT CAVOK 13/03 Q1005=
202004240720 METAR ESMX 240720Z 22003KT 190V260 CAVOK 12/03 Q1006=
202004240650 METAR ESMX 240650Z 20001KT CAVOK 11/04 Q1006=
202004240620 METAR ESMX 240620Z AUTO 21002KT 9999 NCD 10/04 Q1007=
202004240550 METAR ESMX 240550Z AUTO 21002KT 9999 NCD 08/04 Q1007=
202004240520 METAR ESMX 240520Z AUTO 00000KT 9999 NCD 07/03 Q1007=
202004240450 METAR ESMX 240450Z AUTO 00000KT 9999 NCD 03/02 Q1007=
202004240420 METAR ESMX 240420Z AUTO 19003KT 9999 NCD 02/00 Q1008=
202004240350 METAR ESMX 240350Z AUTO 00000KT 9999 NCD 02/00 Q1008=
202004240320 METAR ESMX 240320Z AUTO 22004KT 9999 NCD 04/01 Q1008=
202004240250 METAR ESMX 240250Z AUTO 20003KT 9999 NCD 04/01 Q1009=
202004240220 METAR ESMX 240220Z AUTO 23004KT 9999 NCD 05/01 Q1009=
202004240150 METAR ESMX 240150Z AUTO 22004KT 9999 NCD 05/00 Q1010=
202004240120 METAR ESMX 240120Z AUTO 20002KT 9999 NCD 03/M00 Q1010=
202004240050 METAR ESMX 240050Z AUTO 20002KT 9999 NCD 06/00 Q1010=
202004240020 METAR ESMX 240020Z AUTO 00000KT 9999 NCD 08/00 Q1011=
202004232350 METAR ESMX 232350Z AUTO 20003KT 9999 NCD 08/00 Q1012=
202004232320 METAR ESMX 232320Z AUTO 21003KT 9999 NCD 08/00 Q1012=
202004232250 METAR ESMX 232250Z AUTO 21003KT 9999 NCD 08/00 Q1012=
202004232220 METAR ESMX 232220Z AUTO 21003KT 9999 NCD 09/00 Q1013=
202004232150 METAR ESMX 232150Z AUTO 26004KT 9999 NCD 09/01 Q1013=
202004232120 METAR ESMX 232120Z AUTO 26004KT 9999 NCD 09/01 Q1014=
202004232050 METAR ESMX 232050Z AUTO 24006KT 9999 NCD 11/01 Q1014=
202004232020 METAR ESMX 232020Z AUTO 26006KT 9999 NCD 11/00 Q1014=
202004231950 METAR ESMX 231950Z AUTO 25006KT 9999 NCD 11/M00 Q1015=
202004231920 METAR ESMX 231920Z AUTO 25006KT 9999 NCD 12/M00 Q1015=
202004231850 METAR ESMX 231850Z AUTO 25006KT 9999 NCD 13/M00 Q1015=
202004231820 METAR ESMX 231820Z AUTO 26007KT 9999 NCD 15/00 Q1015=
202004231750 METAR ESMX 231750Z AUTO 28006KT 250V320 9999 NCD 16/M00 Q1015=
202004231720 METAR ESMX 231720Z AUTO 30009KT 9999 NCD 17/M01 Q1016=
202004231650 METAR ESMX 231650Z AUTO 28009KT 9999 NCD 17/M01 Q1016=
202004231620 METAR ESMX 231620Z AUTO 29011KT 9999 NCD 18/M01 Q1016=
202004231550 METAR ESMX 231550Z AUTO 25009KT 210V300 9999 NCD 19/M01 Q1017=
202004231520 METAR ESMX 231520Z AUTO 29010KT 9999 NCD 19/M02 Q1017=
202004231450 METAR ESMX 231450Z AUTO 24011KT 210V280 9999 NCD 19/M02 Q1017=
202004231420 METAR ESMX 231420Z AUTO 27013KT 230V310 9999 NCD 20/M02 Q1018=
202004231350 METAR ESMX 231350Z 29013KT CAVOK 20/M01 Q1019=
202004231320 METAR ESMX 231320Z 28012KT 250V310 CAVOK 20/M01 Q1019=
202004231250 METAR ESMX 231250Z 28015KT 250V320 CAVOK 20/M01 Q1019=
202004231220 METAR ESMX 231220Z 28012KT 250V320 CAVOK 20/M01 Q1020=
202004231150 METAR ESMX 231150Z 27014G25KT CAVOK 20/M01 Q1020=
202004231120 METAR ESMX 231120Z 30012KT CAVOK 20/M01 Q1020=
202004231050 METAR ESMX 231050Z 28012KT 220V320 CAVOK 20/M00 Q1021=
202004231020 METAR ESMX 231020Z 25013KT CAVOK 19/M01 Q1021=
202004230950 METAR ESMX 230950Z 29014KT 250V330 CAVOK 19/M01 Q1022=
202004230920 METAR ESMX 230920Z 28010KT 240V320 CAVOK 18/M02 Q1022=
202004230850 METAR ESMX 230850Z 30011KT 250V340 CAVOK 18/M01 Q1022=
202004230820 METAR ESMX 230820Z 27011KT 240V320 CAVOK 18/M00 Q1022=
202004230750 METAR ESMX 230750Z 29006KT 260V340 CAVOK 17/02 Q1023=
202004230720 METAR ESMX 230720Z 30008KT CAVOK 15/02 Q1023=
202004230650 METAR ESMX 230650Z 24004KT CAVOK 14/02 Q1024=
202004230620 METAR ESMX 230620Z 23004KT CAVOK 12/02 Q1024=
202004230550 METAR ESMX 230550Z AUTO 23004KT 9999 NCD 11/03 Q1024=
202004230520 METAR ESMX 230520Z AUTO 22003KT 9999 NCD 08/04 Q1024=
202004230450 METAR ESMX 230450Z AUTO 00000KT 9999 NCD 03/03 Q1024=
202004230420 METAR ESMX 230420Z AUTO 00000KT 9999 NCD 02/01 Q1024=
202004230350 METAR ESMX 230350Z AUTO 00000KT 9999 NCD 02/02 Q1024=
202004230320 METAR ESMX 230320Z AUTO 00000KT 9999 NCD M00/M00 Q1025=
202004230250 METAR ESMX 230250Z AUTO 00000KT 9999 NCD 01/01 Q1025=
202004230220 METAR ESMX 230220Z AUTO 00000KT 9999 NCD 01/00 Q1025=
202004230150 METAR ESMX 230150Z AUTO 00000KT 9999 NCD 01/00 Q1025=
202004230120 METAR ESMX 230120Z AUTO 19003KT 9999 NCD 02/02 Q1025=
202004230050 METAR ESMX 230050Z AUTO 00000KT 9999 NCD 03/02 Q1025=
202004230020 METAR ESMX 230020Z AUTO 00000KT 9999 NCD 02/01 Q1026=
202004222350 METAR ESMX 222350Z AUTO 00000KT 9999 NCD 02/01 Q1026=
202004222320 METAR ESMX 222320Z AUTO 00000KT 9999 NCD 04/02 Q1026=
202004222250 METAR ESMX 222250Z AUTO 00000KT 9999 NCD 04/03 Q1026=
202004222220 METAR ESMX 222220Z AUTO 00000KT 9999 NCD 04/02 Q1026=
202004222150 METAR ESMX 222150Z AUTO 19001KT 9999 NCD 05/03 Q1026=
202004222120 METAR ESMX 222120Z AUTO 00000KT 9999 NCD 06/03 Q1026=
202004222050 METAR ESMX 222050Z AUTO 00000KT 9999 NCD 07/03 Q1026=
202004222020 METAR ESMX 222020Z AUTO 19001KT 9999 NCD 09/03 Q1026=
202004221950 METAR ESMX 221950Z AUTO 18003KT 9999 NCD 12/04 Q1026=
202004221920 METAR ESMX 221920Z AUTO 16005KT 9999 NCD 13/04 Q1026=
202004221850 METAR ESMX 221850Z AUTO 14004KT 110V170 9999 NCD 14/04 Q1026=
202004221820 METAR ESMX 221820Z AUTO 15005KT 9999 NCD 16/04 Q1026=
202004221750 METAR ESMX 221750Z AUTO 15003KT 020V190 9999 NCD 17/04 Q1026=
202004221720 METAR ESMX 221720Z AUTO 34007KT 290V010 9999 NCD 19/01 Q1026=
202004221650 METAR ESMX 221650Z AUTO 36007KT 340V050 9999 NCD 20/M00 Q1026=
202004221620 METAR ESMX 221620Z AUTO 36007KT 9999 NCD 21/M01 Q1026=
202004221550 METAR ESMX 221550Z AUTO 36008KT 9999 NCD 21/M00 Q1026=
202004221520 METAR ESMX 221520Z AUTO 36008KT 300V020 9999 NCD 21/M00 Q1027=
202004221450 METAR ESMX 221450Z AUTO 33007KT 280V010 9999 NCD 21/M00 Q1027=
202004221420 METAR ESMX 221420Z AUTO 02006KT 340V070 9999 NCD 21/00 Q1027=
202004221350 METAR ESMX 221350Z AUTO 01007KT 9999 NCD 21/01 Q1028=
202004221320 METAR ESMX 221320Z VRB04KT CAVOK 20/02 Q1028=
202004221250 METAR ESMX 221250Z VRB06KT CAVOK 21/03 Q1028=
202004221220 METAR ESMX 221220Z VRB03KT CAVOK 20/02 Q1029=
202004221150 METAR ESMX 221150Z VRB03KT CAVOK 20/02 Q1029=
202004221120 METAR ESMX 221120Z VRB04KT CAVOK 19/02 Q1029=
202004221050 METAR ESMX 221050Z 02004KT 350V050 CAVOK 19/02 Q1030=
202004221020 METAR ESMX 221020Z 04004KT 350V150 CAVOK 19/01 Q1030=
202004220950 METAR ESMX 220950Z 01005KT 320V050 CAVOK 18/02 Q1030=
202004220920 METAR ESMX 220920Z VRB02KT CAVOK 17/03 Q1030=
202004220850 METAR ESMX 220850Z 02006KT CAVOK 16/02 Q1031=
202004220820 METAR ESMX 220820Z 34004KT CAVOK 16/03 Q1031=
202004220750 METAR ESMX 220750Z 28004KT CAVOK 14/03 Q1031=
202004220720 METAR ESMX 220720Z 30003KT CAVOK 12/03 Q1031=
202004220650 METAR ESMX 220650Z 25004KT CAVOK 10/02 Q1031=
202004220620 METAR ESMX 220620Z 01004KT CAVOK 09/02 Q1031=
202004220550 METAR ESMX 220550Z AUTO 23003KT 9999 NCD 07/02 Q1031=
202004220520 METAR ESMX 220520Z AUTO 00000KT 9999 NCD 04/02 Q1031=
202004220450 METAR ESMX 220450Z AUTO 00000KT 9999 NCD 01/01 Q1031=
202004220420 METAR ESMX 220420Z AUTO 00000KT 9999 NCD M02/M02 Q1031=
202004220350 METAR ESMX 220350Z AUTO 00000KT 9999 NCD M02/M02 Q1031=
202004220320 METAR ESMX 220320Z AUTO 00000KT 9999 NCD M01/M02 Q1031=
202004220250 METAR ESMX 220250Z AUTO 19003KT 9999 NCD M01/M02 Q1031=
202004220220 METAR ESMX 220220Z AUTO 00000KT 9999 NCD M01/M02 Q1031=
202004220150 METAR ESMX 220150Z AUTO 00000KT 9999 NCD M01/M03 Q1031=
202004220120 METAR ESMX 220120Z AUTO 00000KT 9999 NCD M01/M03 Q1031=
202004220050 METAR ESMX 220050Z AUTO 20001KT 9999 NCD M00/M02 Q1031=
202004220020 METAR ESMX 220020Z AUTO 00000KT 9999 NCD M00/M02 Q1032=
202004212350 METAR ESMX 212350Z AUTO 20002KT 9999 NCD M00/M02 Q1031=
202004212320 METAR ESMX 212320Z AUTO 00000KT 9999 NCD 00/M02 Q1031=
202004212250 METAR ESMX 212250Z AUTO 00000KT 9999 NCD 00/M02 Q1031=
202004212220 METAR ESMX 212220Z AUTO 00000KT 9999 NCD 01/M02 Q1031=
202004212150 METAR ESMX 212150Z AUTO 00000KT 9999 NCD 01/M02 Q1031=
202004212120 METAR ESMX 212120Z AUTO 00000KT 9999 NCD 02/M03 Q1031=
202004212050 METAR ESMX 212050Z AUTO 00000KT 9999 NCD 05/M03 Q1031=
202004212020 METAR ESMX 212020Z AUTO 00000KT 9999 NCD 05/M03 Q1031=
202004211950 METAR ESMX 211950Z AUTO 18002KT 9999 NCD 08/M03 Q1031=
202004211920 METAR ESMX 211920Z AUTO VRB03KT 9999 NCD 10/M04 Q1031=
202004211850 METAR ESMX 211850Z AUTO 18002KT 9999 NCD 10/M03 Q1031=
202004211820 METAR ESMX 211820Z AUTO VRB03KT 9999 NCD 12/M04 Q1031=
202004211750 METAR ESMX 211750Z AUTO VRB03KT 9999 NCD 13/M04 Q1031=
202004211720 METAR ESMX 211720Z AUTO 07005KT 030V110 9999 NCD 14/M04 Q1030=
202004211650 METAR ESMX 211650Z AUTO 07005KT 030V110 9999 NCD 15/M03 Q1031=
202004211620 METAR ESMX 211620Z AUTO 06007KT 040V110 9999 NCD 15/M02 Q1031=
202004211550 METAR ESMX 211550Z AUTO 07007KT 030V120 9999 NCD 16/M02 Q1031=
202004211520 METAR ESMX 211520Z AUTO 05009KT 020V100 9999 NCD 16/M03 Q1031=
202004211450 METAR ESMX 211450Z AUTO 06007KT 020V110 9999 NCD 16/M03 Q1031=
202004211420 METAR ESMX 211420Z AUTO 05008KT 010V110 9999 NCD 17/M03 Q1031=
202004211350 METAR ESMX 211350Z AUTO 04009KT 010V080 9999 NCD 17/M03 Q1031=
202004211320 METAR ESMX 211320Z 04010KT CAVOK 16/M02 Q1031=
202004211250 METAR ESMX 211250Z 05009KT 020V080 CAVOK 16/M01 Q1031=
202004211220 METAR ESMX 211220Z 05010KT 360V080 CAVOK 16/M00 Q1031=
202004211150 METAR ESMX 211150Z 04010KT 010V090 CAVOK 15/M01 Q1032=
202004211120 METAR ESMX 211120Z 03010KT CAVOK 15/M01 Q1032=
202004211050 METAR ESMX 211050Z 04008KT 360V100 CAVOK 15/M01 Q1032=
202004211020 METAR ESMX 211020Z 05009KT 010V100 CAVOK 15/00 Q1032=
202004210950 METAR ESMX 210950Z 05008KT 010V100 CAVOK 14/01 Q1032=
202004210920 METAR ESMX 210920Z 02008KT 350V060 CAVOK 13/01 Q1032=
202004210850 METAR ESMX 210850Z 02008KT 330V080 CAVOK 13/01 Q1032=
202004210820 METAR ESMX 210820Z 01008KT 340V060 CAVOK 11/01 Q1032=
202004210750 METAR ESMX 210750Z 01008KT CAVOK 11/01 Q1032=
202004210720 METAR ESMX 210720Z 02006KT CAVOK 10/01 Q1032=
202004210650 METAR ESMX 210650Z 03006KT 010V080 CAVOK 09/01 Q1032=
202004210620 METAR ESMX 210620Z AUTO 02005KT 9999 NCD 08/02 Q1032=
202004210550 METAR ESMX 210550Z AUTO VRB02KT 9999 NCD 07/02 Q1032=
202004210520 METAR ESMX 210520Z AUTO 00000KT 9999 NCD 05/04 Q1032=
202004210450 METAR ESMX 210450Z AUTO 00000KT 9999 NCD 00/M00 Q1032=
202004210420 METAR ESMX 210420Z AUTO 00000KT 9999 NCD M01/M01 Q1032=
202004210350 METAR ESMX 210350Z AUTO 00000KT 0300 R01/P2000N R19/P2000N BR NCD M01/M02 Q1032=
202004210320 METAR ESMX 210320Z AUTO 19002KT 9999 NCD M01/M02 Q1032=
202004210250 METAR ESMX 210250Z AUTO 00000KT 9999 NCD M01/M01 Q1032=
202004210220 METAR ESMX 210220Z AUTO 00000KT 9999 NCD M01/M02 Q1032=
202004210150 METAR ESMX 210150Z AUTO 00000KT 9999 NCD M01/M02 Q1032=
202004210120 METAR ESMX 210120Z AUTO 20001KT 9999 NCD M00/M01 Q1031=
202004210050 METAR ESMX 210050Z AUTO 00000KT 9999 NCD 00/M01 Q1031=
202004210020 METAR ESMX 210020Z AUTO 00000KT 9999 NCD M00/M02 Q1031=
202004202350 METAR ESMX 202350Z AUTO 00000KT 9999 NCD 00/M01 Q1031=
202004202320 METAR ESMX 202320Z AUTO 00000KT 9999 NCD 01/M01 Q1031=
202004202250 METAR ESMX 202250Z AUTO 00000KT 9999 NCD 01/M01 Q1031=
202004202220 METAR ESMX 202220Z AUTO 00000KT 9999 NCD 02/M01 Q1031=
202004202150 METAR ESMX 202150Z AUTO 19002KT 9999 NCD 03/M01 Q1031=
202004202120 METAR ESMX 202120Z AUTO 19003KT 9999 NCD 03/M01 Q1031=
202004202050 METAR ESMX 202050Z AUTO 18003KT 9999 NCD 07/M00 Q1031=
202004202020 METAR ESMX 202020Z AUTO 18004KT 9999 NCD 08/M01 Q1030=
202004201950 METAR ESMX 201950Z AUTO 17005KT 9999 NCD 09/M01 Q1030=
202004201920 METAR ESMX 201920Z AUTO 17004KT 9999 NCD 10/M00 Q1030=
202004201850 METAR ESMX 201850Z AUTO 17007KT 9999 NCD 11/M00 Q1030=
202004201820 METAR ESMX 201820Z AUTO 17009KT 9999 NCD 12/00 Q1029=
202004201750 METAR ESMX 201750Z AUTO 15006KT 110V190 9999 NCD 13/01 Q1029=
202004201720 METAR ESMX 201720Z AUTO 09004KT 050V140 9999 NCD 15/00 Q1028=
202004201650 METAR ESMX 201650Z AUTO 07004KT 040V140 9999 NCD 16/M00 Q1028=
202004201620 METAR ESMX 201620Z AUTO 04005KT 350V070 9999 NCD 16/M00 Q1028=
202004201550 METAR ESMX 201550Z AUTO VRB03KT 9999 NCD 16/M00 Q1028=
202004201520 METAR ESMX 201520Z AUTO VRB03KT 9999 NCD 16/M00 Q1028=
202004201450 METAR ESMX 201450Z AUTO 06004KT 340V150 9999 NCD 16/M00 Q1028=
202004201420 METAR ESMX 201420Z AUTO VRB04KT 9999 NCD 16/M00 Q1028=
202004201350 METAR ESMX 201350Z AUTO 03005KT 360V070 9999 NCD 16/M01 Q1028=
202004201320 METAR ESMX 201320Z VRB03KT CAVOK 16/M00 Q1028=
202004201250 METAR ESMX 201250Z VRB05KT CAVOK 15/M00 Q1029=
202004201220 METAR ESMX 201220Z 05006KT 010V090 CAVOK 16/M00 Q1029=
202004201150 METAR ESMX 201150Z 20006KT 170V240 CAVOK 16/M00 Q1029=
202004201120 METAR ESMX 201120Z 36004KT 300V050 CAVOK 15/01 Q1029=
202004201050 METAR ESMX 201050Z 35005KT 280V020 CAVOK 14/M00 Q1029=
202004201020 METAR ESMX 201020Z 36004KT 300V070 CAVOK 15/01 Q1029=
202004200950 METAR ESMX 200950Z 33006KT 300V020 CAVOK 13/00 Q1029=
202004200920 METAR ESMX 200920Z 20006KT CAVOK 14/01 Q1029=
202004200850 METAR ESMX 200850Z 35006KT 300V020 CAVOK 14/02 Q1029=
202004200820 METAR ESMX 200820Z 01006KT 330V040 CAVOK 12/01 Q1029=
202004200750 METAR ESMX 200750Z 20003KT CAVOK 11/01 Q1029=
202004200720 METAR ESMX 200720Z 02005KT CAVOK 11/01 Q1029=
202004200650 METAR ESMX 200650Z 20003KT CAVOK 10/00 Q1029=
202004200620 METAR ESMX 200620Z AUTO 20002KT 9999 NCD 08/01 Q1029=
202004200550 METAR ESMX 200550Z AUTO 20002KT 9999 FEW057/// 06/01 Q1029=
202004200520 METAR ESMX 200520Z AUTO 00000KT 9999 SCT057/// 02/01 Q1029=
202004200450 METAR ESMX 200450Z AUTO 00000KT 9999 BKN059/// 00/M00 Q1028=
202004200420 METAR ESMX 200420Z AUTO 20002KT 9999 OVC059/// M01/M01 Q1028=
202004200350 METAR ESMX 200350Z AUTO 00000KT 9999 BKN059/// M02/M04 Q1028=
202004200320 METAR ESMX 200320Z AUTO 00000KT 9999 BKN059/// M02/M03 Q1028=
202004200250 METAR ESMX 200250Z AUTO 00000KT 9999 SCT061/// M02/M04 Q1028=
202004200220 METAR ESMX 200220Z AUTO 00000KT 9999 NCD M02/M03 Q1027=
202004200150 METAR ESMX 200150Z AUTO 20002KT 9999 NCD M01/M03 Q1027=
202004200120 METAR ESMX 200120Z AUTO 20001KT 9999 NCD M02/M04 Q1028=
202004200050 METAR ESMX 200050Z AUTO 00000KT 9999 NCD M02/M04 Q1027=
202004200020 METAR ESMX 200020Z AUTO 00000KT 9999 NCD M01/M03 Q1027=
202004192350 METAR ESMX 192350Z AUTO 20002KT 9999 NCD M01/M04 Q1027=
202004192320 METAR ESMX 192320Z AUTO 00000KT 9999 NCD M01/M04 Q1027=
202004192250 METAR ESMX 192250Z AUTO 00000KT 9999 NCD 00/M04 Q1027=
202004192220 METAR ESMX 192220Z AUTO 00000KT 9999 NCD 02/M04 Q1027=
202004192150 METAR ESMX 192150Z AUTO 00000KT 9999 NCD 03/M03 Q1027=
202004192120 METAR ESMX 192120Z AUTO 20005KT 9999 NCD 06/M03 Q1027=
202004192050 METAR ESMX 192050Z AUTO 20004KT 9999 NCD 06/M04 Q1026=
202004192020 METAR ESMX 192020Z AUTO 20006KT 160V230 9999 NCD 07/M03 Q1026=
202004191950 METAR ESMX 191950Z AUTO VRB06KT 9999 NCD 08/M02 Q1026=
202004191920 METAR ESMX 191920Z AUTO 20004KT 9999 NCD 08/M01 Q1025=
202004191850 METAR ESMX 191850Z AUTO 20005KT 9999 NCD 08/M02 Q1025=
202004191820 METAR ESMX 191820Z AUTO 33007KT 9999 NCD 10/M02 Q1025=
202004191750 METAR ESMX 191750Z AUTO 19007KT 9999 SCT068/// 12/M02 Q1025=
202004191720 METAR ESMX 191720Z AUTO 01003KT 9999 NCD 13/M02 Q1025=
202004191650 METAR ESMX 191650Z AUTO 02005KT 330V060 9999 NCD 14/M03 Q1024=
202004191620 METAR ESMX 191620Z AUTO 01006KT 9999 NCD 14/M03 Q1024=
202004191550 METAR ESMX 191550Z AUTO 35004KT 320V030 9999 NCD 14/M04 Q1024=
202004191520 METAR ESMX 191520Z AUTO 05004KT 350V090 9999 NCD 14/M04 Q1024=
202004191450 METAR ESMX 191450Z AUTO 01004KT 260V060 9999 NCD 14/M03 Q1024=
202004191420 METAR ESMX 191420Z AUTO 05006KT 010V080 9999 NCD 14/M04 Q1024=
202004191350 METAR ESMX 191350Z AUTO 06004KT 340V130 9999 NCD 13/M04 Q1024=
202004191320 METAR ESMX 191320Z AUTO 36003KT 300V090 9999 NCD 14/M04 Q1025=
202004191250 METAR ESMX 191250Z AUTO VRB03KT 9999 NCD 13/M04 Q1025=
202004191220 METAR ESMX 191220Z AUTO VRB02KT 9999 NCD 13/M05 Q1025=
202004191150 METAR ESMX 191150Z AUTO 34005KT 280V020 9999 NCD 13/M04 Q1025=
202004191120 METAR ESMX 191120Z AUTO VRB04KT 9999 NCD 13/M04 Q1025=
202004191050 METAR ESMX 191050Z AUTO 02006KT 290V080 9999 NCD 12/M04 Q1025=
202004191020 METAR ESMX 191020Z AUTO 34006KT 230V020 9999 NCD 12/M04 Q1025=
202004190950 METAR ESMX 190950Z AUTO VRB06KT 9999 NCD 11/M04 Q1025=
202004190920 METAR ESMX 190920Z AUTO 31007KT 240V030 9999 NCD 12/M04 Q1025=
202004190850 METAR ESMX 190850Z AUTO 01009KT 9999 NCD 10/M04 Q1025=
202004190820 METAR ESMX 190820Z AUTO VRB08KT 9999 NCD 09/M05 Q1025=
202004190750 METAR ESMX 190750Z AUTO 25004KT 210V350 9999 NCD 09/M01 Q1025=
202004190720 METAR ESMX 190720Z AUTO VRB05KT 9999 BKN062/// 08/M01 Q1025=
202004190650 METAR ESMX 190650Z AUTO VRB03KT 9999 BKN064/// 07/M01 Q1025=
202004190620 METAR ESMX 190620Z AUTO 25004KT 220V340 9999 OVC064/// 06/M01 Q1025=
202004190550 METAR ESMX 190550Z AUTO 22003KT 9999 OVC064/// 05/M01 Q1024=
202004190520 METAR ESMX 190520Z AUTO 00000KT 9999 OVC064/// 04/M00 Q1024=
202004190450 METAR ESMX 190450Z AUTO 00000KT 9999 OVC064/// 03/M00 Q1024=
202004190420 METAR ESMX 190420Z AUTO 00000KT 9999 OVC064/// 03/M01 Q1024=
202004190350 METAR ESMX 190350Z AUTO 21002KT 9999 OVC064/// 03/M01 Q1024=
202004190320 METAR ESMX 190320Z AUTO 21002KT 9999 OVC064/// 03/M01 Q1024=
202004190250 METAR ESMX 190250Z AUTO 21003KT 9999 OVC066/// 02/M01 Q1023=
202004190220 METAR ESMX 190220Z AUTO 21003KT 9999 OVC064/// 02/M01 Q1023=
202004190150 METAR ESMX 190150Z AUTO 20001KT 9999 OVC064/// 03/M01 Q1023=
202004190120 METAR ESMX 190120Z AUTO 22004KT 9999 OVC066/// 02/M01 Q1023=
202004190050 METAR ESMX 190050Z AUTO 20002KT 9999 OVC066/// 02/M01 Q1023=
202004190020 METAR ESMX 190020Z AUTO 20002KT 9999 OVC064/// 03/M01 Q1023=
202004182350 METAR ESMX 182350Z AUTO 21002KT 9999 OVC070/// 03/M01 Q1023=
202004182320 METAR ESMX 182320Z AUTO 22004KT 9999 OVC068/// 03/M01 Q1023=
202004182250 METAR ESMX 182250Z AUTO 21003KT 9999 OVC070/// 03/M01 Q1023=
202004182220 METAR ESMX 182220Z AUTO 22005KT 9999 OVC070/// 03/M01 Q1022=
202004182150 METAR ESMX 182150Z AUTO 20003KT 9999 OVC070/// 04/M01 Q1022=
202004182120 METAR ESMX 182120Z AUTO 20005KT 9999 OVC072/// 03/M01 Q1022=
202004182050 METAR ESMX 182050Z AUTO 19003KT 9999 OVC074/// 05/M01 Q1022=
202004182020 METAR ESMX 182020Z AUTO 17005KT 9999 SCT074/// 05/M01 Q1022=
202004181950 METAR ESMX 181950Z AUTO 16005KT 9999 BKN072/// 06/M01 Q1022=
202004181920 METAR ESMX 181920Z AUTO 17005KT 9999 SCT070/// 06/M01 Q1021=
202004181850 METAR ESMX 181850Z AUTO 21003KT 9999 BKN068/// 06/M04 Q1021=
202004181820 METAR ESMX 181820Z AUTO 01006KT 9999 NCD 06/M05 Q1021=
202004181750 METAR ESMX 181750Z AUTO 02006KT 9999 BKN066/// 08/M05 Q1020=
202004181720 METAR ESMX 181720Z AUTO 01009KT 9999 OVC062/// 09/M04 Q1020=
202004181650 METAR ESMX 181650Z AUTO 03009KT 9999 BKN062/// 09/M05 Q1020=
202004181620 METAR ESMX 181620Z AUTO 01009KT 9999 BKN064/// 10/M06 Q1020=
202004181550 METAR ESMX 181550Z AUTO 02010KT 340V050 9999 BKN064/// 10/M05 Q1020=
202004181520 METAR ESMX 181520Z AUTO 33010KT 290V010 9999 BKN062/// 09/M05 Q1020=
202004181450 METAR ESMX 181450Z AUTO 36010KT 9999 SCT064/// 10/M05 Q1020=
202004181420 METAR ESMX 181420Z AUTO 02011KT 9999 FEW062/// 10/M05 Q1020=
202004181350 METAR ESMX 181350Z AUTO 36010KT 9999 BKN064/// 10/M06 Q1020=
202004181320 METAR ESMX 181320Z AUTO 02009KT 350V050 9999 BKN064/// 11/M05 Q1020=
202004181250 METAR ESMX 181250Z AUTO 01008KT 9999 SCT064/// 10/M06 Q1020=
202004181220 METAR ESMX 181220Z AUTO 36005KT 320V120 9999 BKN062/// 10/M06 Q1020=
202004181150 METAR ESMX 181150Z AUTO 35007KT 320V050 9999 NCD 10/M06 Q1020=
202004181120 METAR ESMX 181120Z AUTO 33008KT 250V010 9999 NCD 10/M06 Q1020=
202004181050 METAR ESMX 181050Z AUTO 34007KT 240V050 9999 NCD 09/M06 Q1020=
202004181020 METAR ESMX 181020Z AUTO 35009KT 310V030 9999 NCD 09/M05 Q1021=
202004180950 METAR ESMX 180950Z AUTO 32010KT 290V350 9999 NCD 09/M05 Q1021=
202004180920 METAR ESMX 180920Z AUTO 02008KT 340V060 9999 NCD 08/M05 Q1021=
202004180850 METAR ESMX 180850Z AUTO 35007KT 250V030 9999 NCD 08/M05 Q1021=
202004180820 METAR ESMX 180820Z AUTO 03008KT 9999 FEW098/// 07/M05 Q1021=
202004180750 METAR ESMX 180750Z AUTO 02006KT 340V050 9999 NCD 06/M05 Q1021=
202004180720 METAR ESMX 180720Z AUTO VRB05KT 9999 NCD 05/M04 Q1021=
202004180650 METAR ESMX 180650Z AUTO 36008KT 9999 FEW200/// 05/M03 Q1021=
202004180620 METAR ESMX 180620Z AUTO 01008KT 9999 FEW190/// 04/M04 Q1021=
202004180550 METAR ESMX 180550Z AUTO 26005KT 220V320 9999 NCD 00/M02 Q1021=
202004180520 METAR ESMX 180520Z AUTO VRB03KT 9999 NCD M01/M03 Q1021=
202004180450 METAR ESMX 180450Z AUTO VRB03KT 9999 NCD M02/M05 Q1021=
202004180420 METAR ESMX 180420Z AUTO 00000KT 9999 NCD M04/M05 Q1021=
202004180350 METAR ESMX 180350Z AUTO 00000KT 9999 NCD M03/M05 Q1020=
202004180320 METAR ESMX 180320Z AUTO 00000KT 9999 NCD M04/M06 Q1020=
202004180250 METAR ESMX 180250Z AUTO 00000KT 9999 NCD M03/M05 Q1020=
202004180220 METAR ESMX 180220Z AUTO 00000KT 9999 NCD M03/M05 Q1020=
202004180150 METAR ESMX 180150Z AUTO 00000KT 9999 NCD M03/M05 Q1020=
202004180120 METAR ESMX 180120Z AUTO 00000KT 9999 NCD M03/M06 Q1020=
202004180050 METAR ESMX 180050Z AUTO 20002KT 9999 NCD M03/M07 Q1020=
202004180020 METAR ESMX 180020Z AUTO 20002KT 9999 NCD M01/M06 Q1020=
202004172350 METAR ESMX 172350Z AUTO 00000KT 9999 NCD M02/M06 Q1020=
202004172320 METAR ESMX 172320Z AUTO 20002KT 9999 NCD M01/M06 Q1020=
202004172250 METAR ESMX 172250Z AUTO 00000KT 9999 NCD M02/M06 Q1020=
202004172220 METAR ESMX 172220Z AUTO 00000KT 9999 NCD M01/M06 Q1020=
202004172150 METAR ESMX 172150Z AUTO 29003KT 9999 NCD M00/M07 Q1019=
202004172120 METAR ESMX 172120Z AUTO 00000KT 9999 NCD M01/M07 Q1019=
202004172050 METAR ESMX 172050Z AUTO 00000KT 9999 NCD 02/M07 Q1019=
202004172020 METAR ESMX 172020Z AUTO 00000KT 9999 NCD 04/M07 Q1019=
202004171950 METAR ESMX 171950Z AUTO 22003KT 9999 NCD 04/M07 Q1019=
202004171920 METAR ESMX 171920Z AUTO 34006KT 9999 NCD 05/M08 Q1019=
202004171850 METAR ESMX 171850Z AUTO 35006KT 9999 NCD 05/M07 Q1019=
202004171820 METAR ESMX 171820Z AUTO 35007KT 9999 NCD 06/M07 Q1019=
202004171750 METAR ESMX 171750Z AUTO 34009KT 300V360 9999 NCD 08/M08 Q1018=
202004171720 METAR ESMX 171720Z AUTO 01010KT 9999 NCD 09/M08 Q1018=
202004171650 METAR ESMX 171650Z AUTO 34010KT 9999 NCD 10/M08 Q1018=
202004171620 METAR ESMX 171620Z AUTO 34010KT 9999 NCD 10/M08 Q1018=
202004171550 METAR ESMX 171550Z AUTO 33010KT 290V360 9999 NCD 11/M09 Q1018=
202004171520 METAR ESMX 171520Z AUTO 33011KT 290V350 9999 NCD 11/M09 Q1018=
202004171450 METAR ESMX 171450Z AUTO 35010KT 310V020 9999 NCD 11/M09 Q1018=
202004171420 METAR ESMX 171420Z AUTO 34013KT 9999 NCD 12/M09 Q1018=
202004171350 METAR ESMX 171350Z AUTO 33009KT 290V010 9999 NCD 11/M08 Q1018=
202004171320 METAR ESMX 171320Z 32009G19KT 250V020 CAVOK 11/M08 Q1018=
202004171250 METAR ESMX 171250Z 31011KT CAVOK 12/M08 Q1018=
202004171220 METAR ESMX 171220Z 36011KT CAVOK 11/M08 Q1018=
202004171150 METAR ESMX 171150Z 34010KT CAVOK 10/M09 Q1018=
202004171120 METAR ESMX 171120Z 31010KT 270V020 CAVOK 10/M09 Q1018=
202004171050 METAR ESMX 171050Z 30011KT CAVOK 10/M08 Q1018=
202004171020 METAR ESMX 171020Z 30010KT 260V010 CAVOK 09/M08 Q1018=
202004170950 METAR ESMX 170950Z 33011KT 290V360 CAVOK 08/M07 Q1018=
202004170920 METAR ESMX 170920Z 30013KT CAVOK 09/M07 Q1018=
202004170850 METAR ESMX 170850Z 33013KT CAVOK 08/M09 Q1018=
202004170820 METAR ESMX 170820Z 34012KT CAVOK 07/M08 Q1018=
202004170750 METAR ESMX 170750Z 32010KT 270V360 CAVOK 07/M07 Q1018=
202004170720 METAR ESMX 170720Z 33011KT 280V010 CAVOK 06/M06 Q1018=
202004170650 METAR ESMX 170650Z 33011KT 300V360 CAVOK 05/M06 Q1018=
202004170620 METAR ESMX 170620Z AUTO 33010KT 270V020 9999 NCD 05/M06 Q1018=
202004170550 METAR ESMX 170550Z AUTO 33010KT 270V360 9999 NCD 05/M05 Q1018=
202004170520 METAR ESMX 170520Z AUTO 33010KT 280V350 9999 NCD 03/M05 Q1017=
202004170450 METAR ESMX 170450Z AUTO 34007KT 9999 NCD 02/M04 Q1017=
202004170420 METAR ESMX 170420Z AUTO 31007KT 250V340 9999 NCD 01/M05 Q1017=
202004170350 METAR ESMX 170350Z AUTO 24004KT 180V320 9999 NCD 01/M05 Q1016=
202004170320 METAR ESMX 170320Z AUTO 29004KT 230V350 9999 NCD 01/M04 Q1016=
202004170250 METAR ESMX 170250Z AUTO 35007KT 9999 NCD 01/M05 Q1016=
202004170220 METAR ESMX 170220Z AUTO 31006KT 260V340 9999 NCD 01/M04 Q1016=
202004170150 METAR ESMX 170150Z AUTO 34008KT 290V350 9999 NCD 02/M04 Q1015=
202004170120 METAR ESMX 170120Z AUTO 35006KT 9999 NCD 01/M04 Q1015=
202004170050 METAR ESMX 170050Z AUTO 26005KT 230V300 9999 NCD M01/M04 Q1015=
202004170020 METAR ESMX 170020Z AUTO 32003KT 9999 NCD 01/M03 Q1015=
202004162350 METAR ESMX 162350Z AUTO 00000KT 9999 NCD 01/M03 Q1015=
202004162320 METAR ESMX 162320Z AUTO 00000KT 9999 NCD 02/M04 Q1014=
202004162250 METAR ESMX 162250Z AUTO 24005KT 210V280 9999 NCD 03/M04 Q1014=
202004162220 METAR ESMX 162220Z AUTO 21002KT 9999 NCD 03/M04 Q1014=
202004162150 METAR ESMX 162150Z AUTO 28003KT 9999 NCD 02/M04 Q1013=
202004162120 METAR ESMX 162120Z AUTO 25004KT 9999 NCD 01/M04 Q1013=
202004162050 METAR ESMX 162050Z AUTO 28003KT 9999 SCT076/// 01/M04 Q1013=
202004162020 METAR ESMX 162020Z AUTO 00000KT 9999 SCT076/// 04/M03 Q1013=
202004161950 METAR ESMX 161950Z AUTO 00000KT 9999 SCT074/// 04/M04 Q1012=
202004161920 METAR ESMX 161920Z AUTO 00000KT 9999 OVC076/// 07/M05 Q1012=
202004161850 METAR ESMX 161850Z AUTO 23004KT 9999 OVC076/// 08/M06 Q1012=
202004161820 METAR ESMX 161820Z AUTO 34006KT 9999 BKN080/// 08/M07 Q1011=
202004161750 METAR ESMX 161750Z AUTO 30006KT 250V330 9999 FEW078/// 09/M06 Q1011=
202004161720 METAR ESMX 161720Z AUTO 30008KT 9999 FEW082/// 10/M06 Q1011=
202004161650 METAR ESMX 161650Z AUTO 32010KT 9999 BKN080/// 11/M07 Q1010=
202004161620 METAR ESMX 161620Z AUTO 31007KT 230V350 9999 NCD 12/M08 Q1010=
202004161550 METAR ESMX 161550Z AUTO 31011KT 270V340 9999 NCD 12/M07 Q1010=
202004161520 METAR ESMX 161520Z AUTO 32010KT 9999 NCD 13/M07 Q1010=
202004161450 METAR ESMX 161450Z AUTO 31012KT 280V350 9999 NCD 13/M08 Q1010=
202004161420 METAR ESMX 161420Z AUTO 29012KT 250V330 9999 FEW082/// 13/M07 Q1010=
202004161350 METAR ESMX 161350Z AUTO 30012KT 260V340 9999 FEW078/// 13/M07 Q1010=
202004161320 METAR ESMX 161320Z 30010KT 260V340 CAVOK 13/M06 Q1009=
202004161250 METAR ESMX 161250Z 32010KT 270V010 CAVOK 13/M05 Q1010=
202004161220 METAR ESMX 161220Z 31012G24KT 270V340 CAVOK 13/M06 Q1009=
202004161150 METAR ESMX 161150Z 31013KT 260V340 CAVOK 13/M05 Q1009=
202004161120 METAR ESMX 161120Z 33016KT CAVOK 13/M05 Q1009=
202004161050 METAR ESMX 161050Z 31014KT 270V340 9999 FEW066 12/M05 Q1009=
202004161020 METAR ESMX 161020Z 32016KT 9999 FEW062 12/M03 Q1009=
202004160950 METAR ESMX 160950Z 32014KT 280V350 9999 FEW061 12/M04 Q1008=
202004160920 METAR ESMX 160920Z 31013KT 280V350 9999 FEW058 12/M03 Q1008=
202004160850 METAR ESMX 160850Z 30012KT 270V330 9999 FEW053 11/M03 Q1008=
202004160820 METAR ESMX 160820Z 31013KT 250V330 9999 SCT047 10/M02 Q1008=
202004160750 METAR ESMX 160750Z 30014KT 260V330 9999 FEW043 10/M01 Q1007=
202004160720 METAR ESMX 160720Z 29013KT 250V320 9999 FEW039 09/00 Q1007=
202004160650 METAR ESMX 160650Z 31017KT 9999 FEW028 09/01 Q1006=
202004160620 METAR ESMX 160620Z 31014G27KT 9999 FEW027 09/02 Q1006=
202004160550 METAR ESMX 160550Z AUTO 30015KT 9999 FEW027/// 08/03 Q1006=
202004160520 METAR ESMX 160520Z AUTO 29013G25KT 9999 FEW023/// 08/04 Q1006=
202004160450 METAR ESMX 160450Z AUTO 29014KT 9999 SCT023/// 08/04 Q1006=
202004160420 METAR ESMX 160420Z AUTO 27013KT 9999 BKN022/// 08/04 Q1005=
202004160350 METAR ESMX 160350Z AUTO 27014KT 9999 OVC020/// 08/04 Q1005=
202004160320 METAR ESMX 160320Z AUTO 27014G25KT 9999 OVC019/// 08/04 Q1005=
202004160250 METAR ESMX 160250Z AUTO 29015G25KT 260V320 9999 OVC018/// 08/05 Q1004=
202004160220 METAR ESMX 160220Z AUTO 28018KT 250V310 9999 OVC015/// 08/05 Q1004=
202004160150 METAR ESMX 160150Z AUTO 27018G28KT 240V320 9999 OVC013/// 08/05 Q1004=
202004160120 METAR ESMX 160120Z AUTO 27017G30KT 9999 OVC012/// 07/05 Q1004=
202004160050 METAR ESMX 160050Z AUTO 27015G27KT 9999 OVC012/// 07/05 Q1004=
202004160020 METAR ESMX 160020Z AUTO 26017G28KT 9999 OVC013/// 07/04 Q1004=
202004152350 METAR ESMX 152350Z AUTO 27017G28KT 9999 OVC015/// 07/04 Q1004=
202004152320 METAR ESMX 152320Z AUTO 26019G31KT 9999 OVC016/// 07/04 Q1004=
202004152250 METAR ESMX 152250Z AUTO 27018G29KT 9999 OVC017/// 07/03 Q1005=
202004152220 METAR ESMX 152220Z AUTO 26019G32KT 9999 OVC020/// 07/03 Q1005=
202004152150 METAR ESMX 152150Z AUTO 26018KT 9999 OVC021/// 07/02 Q1005=
202004152120 METAR ESMX 152120Z AUTO 26019G30KT 9999 OVC022/// 06/02 Q1005=
202004152050 METAR ESMX 152050Z AUTO 25015G25KT 210V280 9999 OVC023/// 07/02 Q1006=
202004152020 METAR ESMX 152020Z AUTO 27017KT 9999 OVC024/// 07/02 Q1007=
202004151950 METAR ESMX 151950Z AUTO 25015G34KT 210V300 9999 OVC026/// 07/02 Q1007=
202004151920 METAR ESMX 151920Z AUTO 27015KT 9999 OVC026/// 08/02 Q1008=
202004151850 METAR ESMX 151850Z AUTO 26015KT 9999 OVC026/// 08/03 Q1008=
202004151820 METAR ESMX 151820Z AUTO 26015KT 9999 OVC026/// 08/03 Q1008=
202004151750 METAR ESMX 151750Z AUTO 24016G27KT 210V280 9999 OVC023/// 08/03 Q1008=
202004151720 METAR ESMX 151720Z AUTO 25016KT 220V280 9999 BKN021/// 08/04 Q1008=
202004151650 METAR ESMX 151650Z AUTO 24018KT 210V270 9999 OVC019/// 09/05 Q1008=
202004151620 METAR ESMX 151620Z AUTO 23017G28KT 190V260 9999 SCT024/// 11/06 Q1008=
202004151550 METAR ESMX 151550Z AUTO 25017G27KT 9999 NCD 12/06 Q1008=
202004151520 METAR ESMX 151520Z AUTO 23016KT 200V260 9999 NCD 14/06 Q1008=
202004151450 METAR ESMX 151450Z AUTO 25017KT 9999 NCD 15/06 Q1008=
202004151420 METAR ESMX 151420Z AUTO 25018KT 9999 NCD 14/05 Q1009=
202004151350 METAR ESMX 151350Z AUTO 25015KT 9999 FEW038/// 15/05 Q1009=
202004151320 METAR ESMX 151320Z 24014KT 210V270 9999 FEW040 14/05 Q1009=
202004151250 METAR ESMX 151250Z 25014KT 220V290 9999 FEW040 15/05 Q1009=
202004151220 METAR ESMX 151220Z 27012KT 240V300 9999 SCT039 15/05 Q1009=
202004151150 METAR ESMX 151150Z 29013KT 9999 SCT034 14/04 Q1009=
202004151120 METAR ESMX 151120Z 28013KT 240V310 9999 BKN032 13/05 Q1009=
202004151050 METAR ESMX 151050Z 28012KT 9999 SCT031 13/05 Q1010=
202004151020 METAR ESMX 151020Z 27012KT 9999 BKN030 12/04 Q1010=
202004150950 METAR ESMX 150950Z 29012KT 250V320 9999 BKN028 12/05 Q1010=
202004150920 METAR ESMX 150920Z 28014KT 9999 SCT024 11/05 Q1009=
202004150850 METAR ESMX 150850Z 26014KT 230V290 9999 BKN021 10/04 Q1009=
202004150820 METAR ESMX 150820Z 27013KT 240V320 9999 BKN019 09/04 Q1009=
202004150750 METAR ESMX 150750Z 28012KT 250V320 9999 BKN016 08/04 Q1009=
202004150720 METAR ESMX 150720Z 27012KT 9999 BKN016 08/04 Q1009=
202004150650 METAR ESMX 150650Z 27012KT 240V310 9999 BKN014 07/04 Q1009=
202004150620 METAR ESMX 150620Z 26011KT 220V290 9999 BKN014 06/04 Q1009=
202004150550 METAR ESMX 150550Z AUTO 27009KT 9999 OVC014/// 06/03 Q1009=
202004150520 METAR ESMX 150520Z AUTO 27008KT 9999 OVC016/// 06/03 Q1009=
202004150450 METAR ESMX 150450Z AUTO 27011KT 9999 OVC016/// 06/03 Q1009=
202004150420 METAR ESMX 150420Z AUTO 27010KT 9999 OVC016/// 05/03 Q1009=
202004150350 METAR ESMX 150350Z AUTO 27009KT 240V300 9999 OVC016/// 05/03 Q1009=
202004150320 METAR ESMX 150320Z AUTO 26010KT 9999 OVC015/// 05/03 Q1009=
202004150250 METAR ESMX 150250Z AUTO 26009KT 210V280 9999 OVC012/// 05/03 Q1009=
202004150220 METAR ESMX 150220Z AUTO 26009KT 230V300 9999 OVC010/// 05/03 Q1009=
202004150150 METAR ESMX 150150Z AUTO 26012KT 230V290 9999 OVC010/// 05/03 Q1009=
202004150120 METAR ESMX 150120Z AUTO 27011KT 240V310 9999 OVC010/// 05/03 Q1009=
202004150050 METAR ESMX 150050Z AUTO 26014KT 230V290 9999 OVC009/// 05/03 Q1010=
202004150020 METAR ESMX 150020Z AUTO 26012KT 230V290 9999 OVC007/// 05/03 Q1010 REDZ=
202004142350 METAR ESMX 142350Z AUTO 27011KT 7000 BR BKN008/// OVC009/// 05/03 Q1010=
202004142320 METAR ESMX 142320Z AUTO 27010KT 9999 BKN011/// OVC014/// 05/03 Q1010=
202004142250 METAR ESMX 142250Z AUTO 27011KT 9999 -DZ OVC015/// 05/03 Q1011 RESHUP REDZ=
202004142220 METAR ESMX 142220Z AUTO 26011KT 230V290 9999 OVC017/// 05/02 Q1011 REUP=
202004142150 METAR ESMX 142150Z AUTO 26010KT 9999 FEW006/// OVC019/// 05/01 Q1011=
202004142120 METAR ESMX 142120Z AUTO 26011KT 9999 OVC023/// 05/M01 Q1011=
202004142050 METAR ESMX 142050Z AUTO 23008KT 9999 OVC029/// 05/M03 Q1012=
202004142020 METAR ESMX 142020Z AUTO 22008KT 9999 BKN039/// OVC055/// 05/M04 Q1012=
202004141950 METAR ESMX 141950Z AUTO 25007KT 210V270 9999 OVC070/// 05/M05 Q1012=
202004141920 METAR ESMX 141920Z AUTO 25007KT 9999 BKN072/// 06/M05 Q1012=
202004141850 METAR ESMX 141850Z AUTO 25009KT 9999 BKN064/// 05/M04 Q1013=
202004141820 METAR ESMX 141820Z AUTO 24010KT 200V270 9999 OVC068/// 06/M05 Q1013=
202004141750 METAR ESMX 141750Z AUTO 27011KT 9999 OVC070/// 07/M05 Q1013=
202004141720 METAR ESMX 141720Z AUTO 27011KT 9999 OVC072/// 07/M04 Q1013=
202004141650 METAR ESMX 141650Z AUTO 28013KT 9999 OVC072/// 07/M04 Q1014=
202004141620 METAR ESMX 141620Z AUTO 28014KT 9999 OVC074/// 08/M04 Q1013=
202004141550 METAR ESMX 141550Z AUTO 31012KT 280V340 9999 BKN078/// BKN130/// 09/M05 Q1013=
202004141520 METAR ESMX 141520Z AUTO 29012KT 9999 SCT086/// 09/M05 Q1013=
202004141450 METAR ESMX 141450Z AUTO 30014KT 9999 FEW062/// BKN140/// 10/M05 Q1013=
202004141420 METAR ESMX 141420Z AUTO 28013KT 220V320 9999 FEW062/// 10/M06 Q1013=
202004141350 METAR ESMX 141350Z AUTO 29012KT 250V320 9999 NCD 09/M07 Q1013=
202004141320 METAR ESMX 141320Z 27012KT 230V310 9999 FEW058 10/M09 Q1013=
202004141250 METAR ESMX 141250Z 31014G25KT 280V350 CAVOK 09/M10 Q1014=
202004141220 METAR ESMX 141220Z 27012G23KT 210V310 CAVOK 08/M09 Q1014=
202004141150 METAR ESMX 141150Z 28015KT 9999 FEW056 08/M08 Q1014=
202004141120 METAR ESMX 141120Z 29016KT 9999 FEW055 07/M08 Q1014=
202004141050 METAR ESMX 141050Z 30014KT 270V330 9999 FEW057 06/M08 Q1014=
202004141020 METAR ESMX 141020Z 29016KT 9999 FEW052 05/M08 Q1014=
202004140950 METAR ESMX 140950Z 30015KT 9999 FEW055 06/M08 Q1014=
202004140920 METAR ESMX 140920Z 30013G23KT 270V340 9999 FEW049 05/M08 Q1014=
202004140850 METAR ESMX 140850Z 29013KT 9999 FEW025 04/M08 Q1014=
202004140820 METAR ESMX 140820Z 32012KT 280V350 9999 FEW025 04/M07 Q1014=
202004140750 METAR ESMX 140750Z 30013KT 260V330 9999 FEW022 03/M08 Q1014=
202004140720 METAR ESMX 140720Z 30012KT CAVOK 03/M07 Q1014=
202004140650 METAR ESMX 140650Z 31012KT CAVOK 02/M07 Q1014=
202004140620 METAR ESMX 140620Z 31011KT 280V340 CAVOK 01/M07 Q1014=
202004140550 METAR ESMX 140550Z AUTO 31011KT 9999 NCD 01/M07 Q1014=
202004140520 METAR ESMX 140520Z AUTO 30011KT 9999 NCD M00/M07 Q1014=
202004140450 METAR ESMX 140450Z AUTO 30010KT 9999 NCD M01/M07 Q1013=
202004140420 METAR ESMX 140420Z AUTO 29007KT 9999 NCD M01/M08 Q1013=
202004140350 METAR ESMX 140350Z AUTO 28008KT 240V310 9999 NCD M02/M08 Q1013=
202004140320 METAR ESMX 140320Z AUTO 30009KT 240V320 9999 NCD M01/M07 Q1013=
202004140250 METAR ESMX 140250Z AUTO 30008KT 9999 NCD M01/M08 Q1012=
202004140220 METAR ESMX 140220Z AUTO 31009KT 9999 NCD M01/M08 Q1012=
202004140150 METAR ESMX 140150Z AUTO 29009KT 240V320 9999 NCD M01/M08 Q1012=
202004140120 METAR ESMX 140120Z AUTO 30007KT 9999 NCD M01/M08 Q1012=
202004140050 METAR ESMX 140050Z AUTO 29010KT 9999 NCD M01/M08 Q1012=
202004140020 METAR ESMX 140020Z AUTO 29010KT 9999 NCD M01/M08 Q1012=
202004132350 METAR ESMX 132350Z AUTO 29009KT 9999 NCD M01/M09 Q1012=
202004132320 METAR ESMX 132320Z AUTO 29009KT 9999 NCD M01/M09 Q1012=
202004132250 METAR ESMX 132250Z AUTO 29009KT 250V320 9999 NCD M00/M09 Q1011=
202004132220 METAR ESMX 132220Z AUTO 29009KT 9999 NCD M00/M09 Q1011=
202004132150 METAR ESMX 132150Z AUTO 26007KT 9999 NCD M00/M09 Q1011=
202004132120 METAR ESMX 132120Z AUTO 28007KT 9999 NCD M00/M09 Q1011=
202004132050 METAR ESMX 132050Z AUTO 28007KT 9999 NCD M00/M08 Q1011=
202004132020 METAR ESMX 132020Z AUTO 27007KT 9999 NCD M00/M08 Q1010=
202004131950 METAR ESMX 131950Z AUTO 27005KT 9999 FEW066/// 00/M08 Q1010=
202004131920 METAR ESMX 131920Z AUTO 29009KT 240V320 9999 FEW061/// 01/M08 Q1010=
202004131850 METAR ESMX 131850Z AUTO 28005KT 9999 FEW068/// 01/M08 Q1010=
202004131820 METAR ESMX 131820Z AUTO 31010KT 9999 FEW064/// 03/M08 Q1010=
202004131750 METAR ESMX 131750Z AUTO 33012KT 9999 NCD 03/M10 Q1009=
202004131720 METAR ESMX 131720Z AUTO 30010KT 260V320 9999 FEW090/// 03/M08 Q1009=
202004131650 METAR ESMX 131650Z AUTO 32014KT 9999 NCD 04/M10 Q1009=
202004131620 METAR ESMX 131620Z AUTO 30011KT 9999 FEW078/// 04/M10 Q1009=
202004131550 METAR ESMX 131550Z AUTO 34016KT 290V010 9999 FEW072/// 05/M10 Q1009=
202004131520 METAR ESMX 131520Z AUTO 35016KT 9999 BKN072/// 05/M11 Q1008=
202004131450 METAR ESMX 131450Z AUTO 31014KT 260V350 9999 SCT086/// 06/M10 Q1008=
202004131420 METAR ESMX 131420Z AUTO 32017KT 9999 -RA FEW008/// BKN082/// 04/M06 Q1009 REUP=
202004131350 METAR ESMX 131350Z AUTO 30016G26KT 260V330 9999 FEW068/// SCT098/// 05/M09 Q1008=
202004131320 METAR ESMX 131320Z AUTO 33014KT 9999 FEW015/// BKN066/// BKN110/// 05/M05 Q1008 RESHUP=
202004131250 METAR ESMX 131250Z AUTO 31017G31KT 280V340 9999 FEW044/// SCT059/// BKN074/// 05/M08 Q1007 REUP=
202004131220 METAR ESMX 131220Z AUTO 32018KT 280V350 9999 FEW028/// BKN068/// BKN094/// 08/M08 Q1007 RESHUP REUP=
202004131150 METAR ESMX 131150Z AUTO 33016G27KT 290V350 9999 BKN059/// BKN110/// 06/M08 Q1007=
202004131120 METAR ESMX 131120Z AUTO 32018G30KT 280V350 9999 BKN070/// 07/M09 Q1007 RESHUP=
202004131050 METAR ESMX 131050Z AUTO 32018G28KT 9999 FEW046/// SCT057/// BKN072/// 06/M07 Q1007 REUP=
202004131020 METAR ESMX 131020Z AUTO 31016KT 280V340 9999 FEW045/// SCT057/// 06/M06 Q1007 RESHUP=
202004130950 METAR ESMX 130950Z AUTO 30017G28KT 9999 UP SCT049/// BKN064/// 05/M04 Q1007 REUP=
202004130920 METAR ESMX 130920Z AUTO 31016KT 9999 BKN047/// 05/M06 Q1006=
202004130850 METAR ESMX 130850Z AUTO 33018KT 9999 SCT049/// 04/M07 Q1006=
202004130820 METAR ESMX 130820Z AUTO 30016KT 9999 BKN049/// 04/M07 Q1006=
202004130750 METAR ESMX 130750Z AUTO 32017KT 270V350 9999 SCT072/// 04/M07 Q1006=
202004130720 METAR ESMX 130720Z AUTO 30017KT 250V320 9999 NCD 04/M07 Q1005=
202004130650 METAR ESMX 130650Z AUTO 29016KT 260V330 9999 NCD 03/M06 Q1005=
202004130620 METAR ESMX 130620Z AUTO 31015KT 9999 NCD 03/M06 Q1005=
202004130550 METAR ESMX 130550Z AUTO 29012KT 9999 NCD 02/M05 Q1004=
202004130520 METAR ESMX 130520Z AUTO 30010KT 9999 NCD 02/M05 Q1004=
202004130450 METAR ESMX 130450Z AUTO 30008KT 9999 NCD 01/M04 Q1004=
202004130420 METAR ESMX 130420Z AUTO 30010KT 9999 NCD 01/M04 Q1003=
202004130350 METAR ESMX 130350Z AUTO 30009KT 9999 NCD 02/M04 Q1003=
202004130320 METAR ESMX 130320Z AUTO 29012KT 9999 FEW078/// 02/M03 Q1003=
202004130250 METAR ESMX 130250Z AUTO 29010KT 9999 NCD 02/M02 Q1002=
202004130220 METAR ESMX 130220Z AUTO 29011KT 9999 NCD 03/M02 Q1002=
202004130150 METAR ESMX 130150Z AUTO 29011KT 9999 NCD 03/M01 Q1002=
202004130120 METAR ESMX 130120Z AUTO 28012KT 9999 NCD 04/M00 Q1001=
202004130050 METAR ESMX 130050Z AUTO 25010KT 210V280 9999 NCD 04/01 Q1001=
202004130020 METAR ESMX 130020Z AUTO 26009KT 9999 NCD 05/02 Q1001=
202004122350 METAR ESMX 122350Z AUTO 27010KT 240V300 9999 FEW024/// 05/02 Q1001=
202004122320 METAR ESMX 122320Z AUTO 26011KT 230V290 9999 SCT023/// BKN048/// 05/03 Q1001=
202004122250 METAR ESMX 122250Z AUTO 26011KT 230V290 9999 SCT017/// OVC042/// 06/04 Q1001 REDZ=
202004122220 METAR ESMX 122220Z AUTO 26011KT 230V290 7000 -RA FEW006/// OVC016/// 06/05 Q1001 REUP=
202004122150 METAR ESMX 122150Z AUTO 26013KT 9999 OVC019/// 07/04 Q1002=
202004122120 METAR ESMX 122120Z AUTO 23013G23KT 9999 OVC021/// 07/03 Q1002=
202004122050 METAR ESMX 122050Z AUTO 23012KT 9999 OVC022/// 07/03 Q1002=
202004122020 METAR ESMX 122020Z AUTO 23013G23KT 9999 FEW026/// 06/02 Q1003=
202004121950 METAR ESMX 121950Z AUTO 25013KT 9999 NCD 07/02 Q1003=
202004121920 METAR ESMX 121920Z AUTO 25011KT 9999 NCD 07/02 Q1003=
202004121850 METAR ESMX 121850Z AUTO 25012KT 9999 NCD 07/02 Q1004=
202004121820 METAR ESMX 121820Z AUTO 23014G25KT 200V270 9999 FEW030/// 08/03 Q1004=
202004121750 METAR ESMX 121750Z AUTO 24017G32KT 9999 FEW029/// 09/04 Q1004=
202004121720 METAR ESMX 121720Z AUTO 26013G24KT 230V290 9999 FEW029/// 10/04 Q1004=
202004121650 METAR ESMX 121650Z AUTO 25015KT 9999 SCT030/// 11/06 Q1004=
202004121620 METAR ESMX 121620Z AUTO 25014G26KT 9999 BKN033/// 12/06 Q1004=
202004121550 METAR ESMX 121550Z AUTO 25017KT 9999 BKN031/// 12/06 Q1004=
202004121520 METAR ESMX 121520Z AUTO 25016KT 9999 BKN031/// 13/06 Q1005=
202004121450 METAR ESMX 121450Z AUTO 25016KT 9999 SCT037/// 14/06 Q1005=
202004121420 METAR ESMX 121420Z AUTO 22013G24KT 9999 FEW040/// 14/05 Q1005=
202004121350 METAR ESMX 121350Z AUTO 22016KT 9999 NCD 14/04 Q1005=
202004121320 METAR ESMX 121320Z AUTO 23015KT 9999 FEW040/// 15/04 Q1006=
202004121250 METAR ESMX 121250Z AUTO 23016KT 200V260 9999 FEW074/// 16/06 Q1006=
202004121220 METAR ESMX 121220Z AUTO 24012KT 210V270 9999 FEW074/// 16/07 Q1006=
202004121150 METAR ESMX 121150Z AUTO 22017KT 9999 BKN031/// 15/08 Q1007=
202004121120 METAR ESMX 121120Z AUTO 23013KT 9999 BKN027/// 14/08 Q1007=
202004121050 METAR ESMX 121050Z AUTO 21014KT 9999 BKN026/// 14/08 Q1008=
202004121020 METAR ESMX 121020Z AUTO 22012KT 190V250 9999 BKN026/// 13/08 Q1008=
202004120950 METAR ESMX 120950Z AUTO 22013KT 9999 BKN025/// 12/07 Q1009=
202004120920 METAR ESMX 120920Z AUTO 22012KT 9999 FEW021/// SCT037/// 12/07 Q1009=
202004120850 METAR ESMX 120850Z AUTO 23013KT 9999 BKN017/// 11/07 Q1010=
202004120820 METAR ESMX 120820Z AUTO 20010KT 9999 SCT014/// BKN039/// 11/07 Q1010=
202004120750 METAR ESMX 120750Z AUTO 23013KT 9999 OVC016/// 10/06 Q1010=
202004120720 METAR ESMX 120720Z AUTO 22011KT 9999 OVC018/// 09/06 Q1011=
202004120650 METAR ESMX 120650Z AUTO 22010KT 9999 FEW021/// BKN025/// 09/06 Q1011=
202004120620 METAR ESMX 120620Z AUTO 22010KT 9999 SCT042/// 08/06 Q1011=
202004120550 METAR ESMX 120550Z AUTO 19011KT 9999 FEW059/// SCT074/// 07/06 Q1011=
202004120520 METAR ESMX 120520Z AUTO 19010KT 9999 FEW043/// SCT053/// 07/06 Q1011=
202004120450 METAR ESMX 120450Z AUTO 21011KT 9999 SCT036/// BKN072/// 06/05 Q1012 RESHUP REUP=
202004120420 METAR ESMX 120420Z AUTO 19012KT 9999 SCT039/// BKN049/// BKN066/// 06/05 Q1012=
202004120350 METAR ESMX 120350Z AUTO 19011KT 9999 FEW047/// SCT070/// 06/05 Q1012=
202004120320 METAR ESMX 120320Z AUTO 20011KT 9999 BKN043/// BKN061/// OVC074/// 06/05 Q1013=
202004120250 METAR ESMX 120250Z AUTO 18010KT 9999 OVC043/// 06/05 Q1014=
202004120220 METAR ESMX 120220Z AUTO 19010KT 9999 BKN046/// OVC055/// 06/05 Q1014=
202004120150 METAR ESMX 120150Z AUTO 18009KT 9999 SCT022/// OVC041/// 05/05 Q1015=
202004120120 METAR ESMX 120120Z AUTO 20008KT 9999 -RA FEW026/// SCT033/// BKN043/// 05/05 Q1015=
202004120050 METAR ESMX 120050Z AUTO 19009KT 9999 -RA SCT026/// BKN045/// OVC059/// 06/04 Q1016 REDZ=
202004120020 METAR ESMX 120020Z AUTO 19008KT 9999 OVC025/// 06/04 Q1016=
202004112350 METAR ESMX 112350Z AUTO 18008KT 9999 -RA SCT028/// OVC051/// 05/04 Q1017 REDZ=
202004112320 METAR ESMX 112320Z AUTO 18009KT 9999 DZ SCT034/// OVC048/// 06/04 Q1017 REDZ=
202004112250 METAR ESMX 112250Z AUTO 18007KT 9999 DZ BKN028/// OVC037/// 06/05 Q1018 REDZ=
202004112220 METAR ESMX 112220Z AUTO 19007KT 9999 DZ OVC026/// 06/04 Q1018=
202004112150 METAR ESMX 112150Z AUTO 21009KT 9999 DZ BKN025/// OVC037/// 07/03 Q1019 REDZ REUP RESHUP=
202004112120 METAR ESMX 112120Z AUTO 20010KT 9999 OVC025/// 08/M01 Q1019=
202004112050 METAR ESMX 112050Z AUTO 19010KT 9999 BKN027/// OVC049/// 08/M03 Q1019=
202004112020 METAR ESMX 112020Z AUTO 20008KT 9999 OVC033/// 09/M02 Q1019=
202004111950 METAR ESMX 111950Z AUTO 19009KT 9999 OVC039/// 09/00 Q1020=
202004111920 METAR ESMX 111920Z AUTO 18007KT 9999 -RA BKN051/// OVC070/// 09/01 Q1020=
202004111850 METAR ESMX 111850Z AUTO 18008KT 9999 SCT048/// BKN070/// 10/00 Q1020=
202004111820 METAR ESMX 111820Z AUTO 18009KT 9999 BKN053/// 10/00 Q1021=
202004111750 METAR ESMX 111750Z AUTO 18009KT 9999 BKN061/// 11/00 Q1021=
202004111720 METAR ESMX 111720Z AUTO 18011KT 9999 BKN076/// 11/M00 Q1021=
202004111650 METAR ESMX 111650Z AUTO 19012KT 9999 NCD 12/01 Q1021=
202004111620 METAR ESMX 111620Z AUTO 19013KT 9999 FEW190/// 12/00 Q1021=
202004111550 METAR ESMX 111550Z AUTO 22011KT 190V250 9999 SCT092/// 13/M01 Q1022=
202004111520 METAR ESMX 111520Z AUTO 21011KT 9999 OVC094/// 13/M01 Q1022=
202004111450 METAR ESMX 111450Z AUTO 20013KT 9999 FEW084/// BKN100/// 14/M02 Q1022=
202004111420 METAR ESMX 111420Z AUTO 20013KT 9999 OVC100/// 14/M02 Q1023=
202004111350 METAR ESMX 111350Z AUTO 21012KT 180V240 9999 OVC110/// 14/M03 Q1023=
202004111320 METAR ESMX 111320Z AUTO 19013KT 9999 OVC100/// 14/M04 Q1024=
202004111250 METAR ESMX 111250Z AUTO 20010KT 160V240 9999 FEW180/// 14/M04 Q1024=
202004111220 METAR ESMX 111220Z AUTO 20011KT 160V230 9999 SCT110/// 15/M03 Q1024=
202004111150 METAR ESMX 111150Z AUTO 21009KT 160V250 9999 FEW098/// 14/M04 Q1025=
202004111120 METAR ESMX 111120Z AUTO 22010KT 170V250 9999 FEW098/// 13/M04 Q1025=
202004111050 METAR ESMX 111050Z AUTO 18007KT 150V220 9999 FEW200/// 13/M04 Q1025=
202004111020 METAR ESMX 111020Z AUTO 18009KT 9999 NCD 12/M04 Q1026=
202004110950 METAR ESMX 110950Z AUTO 19007KT 9999 NCD 12/M03 Q1026=
202004110920 METAR ESMX 110920Z AUTO 16007KT 120V200 9999 NCD 12/M04 Q1026=
202004110850 METAR ESMX 110850Z AUTO 19007KT 9999 NCD 11/M04 Q1026=
202004110820 METAR ESMX 110820Z AUTO 17007KT 140V200 9999 NCD 10/M04 Q1026=
202004110750 METAR ESMX 110750Z AUTO 17005KT 9999 NCD 09/M04 Q1026=
202004110720 METAR ESMX 110720Z AUTO 16006KT 9999 NCD 08/M04 Q1026=
202004110650 METAR ESMX 110650Z AUTO 13004KT 9999 NCD 07/M02 Q1026=
202004110620 METAR ESMX 110620Z AUTO 00000KT 9999 NCD 05/M00 Q1026=
202004110550 METAR ESMX 110550Z AUTO 00000KT 9999 NCD 02/01 Q1026=
202004110520 METAR ESMX 110520Z AUTO 00000KT 9999 NCD M02/M02 Q1026=
202004110450 METAR ESMX 110450Z AUTO 00000KT 9999 NCD M04/M05 Q1026=
202004110420 METAR ESMX 110420Z AUTO 00000KT 9999 NCD M04/M04 Q1026=
202004110350 METAR ESMX 110350Z AUTO 00000KT 9999 NCD M04/M04 Q1026=
202004110320 METAR ESMX 110320Z AUTO 00000KT 9999 NCD M04/M04 Q1026=
202004110250 METAR ESMX 110250Z AUTO 00000KT 9999 NCD M03/M03 Q1026=
202004110220 METAR ESMX 110220Z AUTO 11004KT 9999 NCD M03/M04 Q1025=
202004110150 METAR ESMX 110150Z AUTO 13003KT 9999 NCD M02/M02 Q1025=
202004110120 METAR ESMX 110120Z AUTO 00000KT 9999 NCD M03/M04 Q1025=
202004110050 METAR ESMX 110050Z AUTO 00000KT 9999 NCD M02/M03 Q1025=
202004110020 METAR ESMX 110020Z AUTO 13001KT 9999 NCD M02/M03 Q1025=
202004102350 METAR ESMX 102350Z AUTO 00000KT 9999 NCD M02/M03 Q1025=
202004102320 METAR ESMX 102320Z AUTO 00000KT 9999 NCD M01/M03 Q1025=
202004102250 METAR ESMX 102250Z AUTO 00000KT 9999 NCD M00/M02 Q1024=
202004102220 METAR ESMX 102220Z AUTO 00000KT 9999 NCD 01/M03 Q1024=
202004102150 METAR ESMX 102150Z AUTO 00000KT 9999 NCD 03/M03 Q1024=
202004102120 METAR ESMX 102120Z AUTO 24003KT 160V290 9999 NCD 04/M02 Q1024=
202004102050 METAR ESMX 102050Z AUTO VRB03KT 9999 NCD 04/M02 Q1024=
202004102020 METAR ESMX 102020Z AUTO 28006KT 9999 NCD 05/M01 Q1023=
202004101950 METAR ESMX 101950Z AUTO 26006KT 9999 NCD 06/M01 Q1023=
202004101920 METAR ESMX 101920Z AUTO 25005KT 9999 NCD 06/M02 Q1023=
202004101850 METAR ESMX 101850Z AUTO 25005KT 9999 NCD 06/M02 Q1022=
202004101820 METAR ESMX 101820Z AUTO 21004KT 9999 NCD 08/M03 Q1022=
202004101750 METAR ESMX 101750Z AUTO 22004KT 9999 NCD 09/M03 Q1022=
202004101720 METAR ESMX 101720Z AUTO 23006KT 9999 NCD 10/M03 Q1022=
202004101650 METAR ESMX 101650Z AUTO 28006KT 9999 NCD 11/M04 Q1022=
202004101620 METAR ESMX 101620Z AUTO 29006KT 9999 FEW068/// 12/M04 Q1022=
202004101550 METAR ESMX 101550Z AUTO 31008KT 9999 NCD 12/M04 Q1022=
202004101520 METAR ESMX 101520Z AUTO 28006KT 240V310 9999 NCD 12/M04 Q1022=
202004101450 METAR ESMX 101450Z AUTO 31009KT 280V360 9999 NCD 12/M05 Q1022=
202004101420 METAR ESMX 101420Z AUTO 26008KT 220V290 9999 NCD 12/M05 Q1022=
202004101350 METAR ESMX 101350Z AUTO 31009KT 9999 NCD 12/M06 Q1022=
202004101320 METAR ESMX 101320Z AUTO 24007KT 200V280 9999 NCD 13/M05 Q1022=
202004101250 METAR ESMX 101250Z AUTO 30007KT 220V340 9999 NCD 13/M05 Q1023=
202004101220 METAR ESMX 101220Z AUTO VRB07KT 9999 NCD 12/M04 Q1023=
202004101150 METAR ESMX 101150Z AUTO 20009KT 160V240 9999 FEW064/// 11/M04 Q1023=
202004101120 METAR ESMX 101120Z AUTO 22007KT 160V290 9999 FEW062/// 12/M04 Q1023=
202004101050 METAR ESMX 101050Z AUTO 24006KT 190V300 9999 NCD 12/M04 Q1023=
202004101020 METAR ESMX 101020Z AUTO 21007KT 170V250 9999 BKN057/// 12/M03 Q1024=
202004100950 METAR ESMX 100950Z AUTO 19005KT 170V260 9999 NCD 10/M03 Q1024=
202004100920 METAR ESMX 100920Z AUTO 22003KT 190V290 9999 SCT170/// 10/M03 Q1024=
202004100850 METAR ESMX 100850Z AUTO 23004KT 110V260 9999 FEW180/// 09/M03 Q1024=
202004100820 METAR ESMX 100820Z AUTO 21004KT 9999 NCD 09/M03 Q1024=
202004100750 METAR ESMX 100750Z AUTO 20003KT 9999 NCD 08/M03 Q1024=
202004100720 METAR ESMX 100720Z AUTO 20001KT 9999 NCD 06/M02 Q1025=
202004100650 METAR ESMX 100650Z AUTO 21001KT 9999 NCD 04/M01 Q1025=
202004100620 METAR ESMX 100620Z AUTO 21002KT 9999 NCD 03/M01 Q1025=
202004100550 METAR ESMX 100550Z AUTO 00000KT 9999 NCD 02/M02 Q1024=
202004100520 METAR ESMX 100520Z AUTO 00000KT 9999 NCD M01/M02 Q1024=
202004100450 METAR ESMX 100450Z AUTO 00000KT 9999 NCD M04/M05 Q1024=
202004100420 METAR ESMX 100420Z AUTO 00000KT 9999 NCD M04/M04 Q1024=
202004100350 METAR ESMX 100350Z AUTO 20002KT 9999 NCD M04/M05 Q1024=
202004100320 METAR ESMX 100320Z AUTO 00000KT 9999 NCD M03/M05 Q1024=
202004100250 METAR ESMX 100250Z AUTO 19002KT 9999 NCD M02/M04 Q1024=
202004100220 METAR ESMX 100220Z AUTO 19003KT 9999 NCD M03/M05 Q1024=
202004100150 METAR ESMX 100150Z AUTO 00000KT 9999 NCD M03/M04 Q1024=
202004100120 METAR ESMX 100120Z AUTO 20001KT 9999 NCD M02/M04 Q1023=
202004100050 METAR ESMX 100050Z AUTO 20002KT 9999 NCD M02/M04 Q1023=
202004100020 METAR ESMX 100020Z AUTO 00000KT 9999 NCD 01/M04 Q1023=
202004092350 METAR ESMX 092350Z AUTO 28003KT 9999 NCD 01/M04 Q1023=
202004092320 METAR ESMX 092320Z AUTO 23004KT 210V270 9999 NCD 02/M04 Q1023=
202004092250 METAR ESMX 092250Z AUTO VRB02KT 9999 NCD 02/M03 Q1023=
202004092220 METAR ESMX 092220Z AUTO 24004KT 9999 NCD 03/M04 Q1023=
202004092150 METAR ESMX 092150Z AUTO 25004KT 9999 NCD 02/M04 Q1023=
202004092120 METAR ESMX 092120Z AUTO 25004KT 9999 FEW062/// 03/M04 Q1023=
202004092050 METAR ESMX 092050Z AUTO 27004KT 9999 BKN066/// 02/M04 Q1023=
202004092020 METAR ESMX 092020Z AUTO 26001KT 9999 BKN064/// 04/M04 Q1022=
202004091950 METAR ESMX 091950Z AUTO 25004KT 9999 OVC066/// 06/M04 Q1022=
202004091920 METAR ESMX 091920Z AUTO 22002KT 9999 BKN068/// 06/M04 Q1022=
202004091850 METAR ESMX 091850Z AUTO 23004KT 9999 OVC066/// 07/M04 Q1021=
202004091820 METAR ESMX 091820Z AUTO 28004KT 240V340 9999 OVC068/// 08/M04 Q1021=
202004091750 METAR ESMX 091750Z AUTO 35007KT 320V030 9999 OVC068/// 09/M04 Q1020=
202004091720 METAR ESMX 091720Z AUTO 31007KT 9999 OVC072/// 10/M04 Q1020=
202004091650 METAR ESMX 091650Z AUTO 28008KT 230V310 9999 SCT072/// 10/M04 Q1019=
202004091620 METAR ESMX 091620Z AUTO 28008KT 220V320 9999 BKN072/// 11/M04 Q1019=
202004091550 METAR ESMX 091550Z AUTO 27008KT 230V300 9999 OVC074/// 10/M04 Q1019=
202004091520 METAR ESMX 091520Z AUTO 27009KT 210V300 9999 BKN068/// 11/M03 Q1019=
202004091450 METAR ESMX 091450Z AUTO 32011KT 9999 SCT068/// 12/M04 Q1019=
202004091420 METAR ESMX 091420Z AUTO 31012KT 9999 FEW066/// 12/M04 Q1019=
202004091350 METAR ESMX 091350Z AUTO 32010KT 9999 SCT066/// 12/M04 Q1019=
202004091320 METAR COR ESMX 091320Z 32014KT 300V360 CAVOK 12/M04 Q1019=
202004091250 METAR COR ESMX 091250Z 32012KT 300V360 CAVOK 11/M05 Q1019=
202004091220 METAR ESMX 091220Z AUTO 27012KT 9999 NCD 12/M05 Q1018=
202004091150 METAR ESMX 091150Z 31015KT 270V340 CAVOK 12/M05 Q1018=
202004091120 METAR ESMX 091120Z 29012KT 250V320 CAVOK 12/M04 Q1018=
202004091050 METAR ESMX 091050Z 30014KT 260V320 CAVOK 12/M05 Q1018=
202004091020 METAR ESMX 091020Z 30012KT 270V330 CAVOK 11/M03 Q1018=
202004090950 METAR ESMX 090950Z 30013KT 9999 FEW040 11/M02 Q1017=
202004090920 METAR ESMX 090920Z 30010KT 9999 FEW038 11/M02 Q1017=
202004090850 METAR ESMX 090850Z 30010KT 270V340 9999 FEW035 10/M00 Q1017=
202004090820 METAR ESMX 090820Z 27011KT 9999 FEW030 10/02 Q1017=
202004090750 METAR ESMX 090750Z 29011KT 9999 SCT024 09/03 Q1016=
202004090720 METAR ESMX 090720Z 29010KT 9999 BKN018 08/04 Q1016=
202004090650 METAR COR ESMX 090650Z 28010KT 9999 BKN016 08/05 Q1016=
202004090620 METAR ESMX 090620Z AUTO 29009KT 9999 SCT012/// OVC018/// 07/05 Q1016=
202004090550 METAR ESMX 090550Z AUTO 29007KT 9999 OVC009/// 07/05 Q1015=
202004090520 METAR ESMX 090520Z AUTO 29009KT 9999 OVC009/// 07/05 Q1015=
202004090450 METAR ESMX 090450Z AUTO 26010KT 230V290 9999 OVC009/// 06/05 Q1015=
202004090420 METAR ESMX 090420Z AUTO 26010KT 9999 SCT011/// BKN040/// OVC120/// 06/04 Q1015=
202004090350 METAR ESMX 090350Z AUTO 27007KT 9999 FEW061/// SCT088/// OVC120/// 06/04 Q1014=
202004090320 METAR ESMX 090320Z AUTO 27008KT 9999 FEW080/// OVC120/// 06/04 Q1015=
202004090250 METAR ESMX 090250Z AUTO 23007KT 210V270 9999 OVC130/// 06/03 Q1014=
202004090220 METAR ESMX 090220Z AUTO 22006KT 9999 FEW100/// OVC130/// 06/03 Q1015=
202004090150 METAR ESMX 090150Z AUTO 21005KT 9999 OVC130/// 06/03 Q1015=
202004090120 METAR ESMX 090120Z 21005KT CAVOK 06/02 Q1015=
202004090050 METAR COR ESMX 090050Z 24006KT 210V270 CAVOK 06/02 Q1015=
202004090020 METAR ESMX 090020Z AUTO 24006KT 9999 OVC130/// 07/01 Q1016=
202004082350 METAR ESMX 082350Z AUTO 21006KT 9999 BKN130/// 07/01 Q1016=
202004082320 METAR ESMX 082320Z 22005KT CAVOK 06/00 Q1016=
202004082250 METAR COR ESMX 082250Z 22005KT CAVOK 07/M00 Q1017=
202004082220 METAR ESMX 082220Z 21007KT CAVOK 08/00 Q1017=
202004082150 METAR ESMX 082150Z 21009KT CAVOK 09/00 Q1017=
202004082120 METAR ESMX 082120Z 19007KT CAVOK 09/00 Q1018=
202004082050 METAR ESMX 082050Z 18007KT CAVOK 09/00 Q1018=
202004082020 METAR ESMX 082020Z 18006KT CAVOK 09/M01 Q1019=
202004081950 METAR ESMX 081950Z 19006KT CAVOK 08/M02 Q1019=
202004081920 METAR ESMX 081920Z 22005KT CAVOK 08/M02 Q1019=
202004081850 METAR ESMX 081850Z 21005KT CAVOK 09/M02 Q1019=
202004081820 METAR ESMX 081820Z 20005KT CAVOK 10/M03 Q1019=
202004081750 METAR ESMX 081750Z 23006KT CAVOK 12/M02 Q1020=
202004081720 METAR ESMX 081720Z 22006KT CAVOK 13/M02 Q1020=
202004081650 METAR ESMX 081650Z 24010KT CAVOK 14/M01 Q1020=
202004081620 METAR ESMX 081620Z 22013KT CAVOK 14/M01 Q1020=
202004081550 METAR ESMX 081550Z 20013KT 170V240 CAVOK 15/00 Q1021=
202004081520 METAR ESMX 081520Z 22012KT CAVOK 16/01 Q1021=
202004081450 METAR ESMX 081450Z AUTO 21011KT 9999 NCD 16/01 Q1022=
202004081420 METAR ESMX 081420Z AUTO 22013KT 9999 NCD 16/01 Q1022=
202004081350 METAR ESMX 081350Z AUTO 21011KT 160V250 9999 NCD 16/01 Q1023=
202004081320 METAR ESMX 081320Z 20013KT CAVOK 16/01 Q1024=
202004081250 METAR ESMX 081250Z 20010KT CAVOK 15/02 Q1024=
202004081220 METAR ESMX 081220Z 21009KT 170V240 CAVOK 15/01 Q1025=
202004081150 METAR ESMX 081150Z AUTO 22010KT 200V290 9999 NCD 15/02 Q1025=
202004081120 METAR ESMX 081120Z 22010KT 190V250 CAVOK 15/02 Q1026=
202004081050 METAR ESMX 081050Z 23010KT 190V280 CAVOK 14/01 Q1027=
202004081020 METAR ESMX 081020Z 20010KT CAVOK 14/02 Q1027=
202004080950 METAR ESMX 080950Z 19011KT 170V240 CAVOK 13/02 Q1028=
202004080920 METAR ESMX 080920Z 19011KT CAVOK 13/02 Q1028=
202004080850 METAR ESMX 080850Z 20010KT CAVOK 12/02 Q1029=
202004080820 METAR ESMX 080820Z 19012KT CAVOK 11/01 Q1029=
202004080750 METAR ESMX 080750Z 20009KT CAVOK 10/01 Q1029=
202004080720 METAR ESMX 080720Z 20006KT CAVOK 08/02 Q1029=
202004080650 METAR ESMX 080650Z 20006KT CAVOK 07/02 Q1030=
202004080620 METAR ESMX 080620Z AUTO 23005KT 9999 NCD 05/02 Q1030=
202004080550 METAR ESMX 080550Z AUTO 00000KT 9999 NCD 03/02 Q1030=
202004080520 METAR ESMX 080520Z AUTO 00000KT 9999 NCD M01/M01 Q1030=
202004080450 METAR ESMX 080450Z AUTO 00000KT 9999 NCD M02/M03 Q1030=
202004080420 METAR ESMX 080420Z AUTO 19002KT 9999 NCD M02/M02 Q1030=
202004080350 METAR ESMX 080350Z AUTO 19002KT 9999 NCD M02/M02 Q1030=
202004080320 METAR ESMX 080320Z AUTO 19003KT 9999 NCD M03/M03 Q1031=
202004080250 METAR ESMX 080250Z AUTO 19003KT 9999 NCD M02/M03 Q1031=
202004080220 METAR ESMX 080220Z AUTO 19003KT 9999 NCD M02/M03 Q1031=
202004080150 METAR ESMX 080150Z AUTO 19001KT 9999 NCD M01/M02 Q1031=
202004080120 METAR ESMX 080120Z AUTO 20001KT 9999 NCD M00/M02 Q1031=
202004080050 METAR ESMX 080050Z AUTO 19002KT 9999 NCD 00/M01 Q1031=
202004080020 METAR ESMX 080020Z AUTO 19003KT 9999 NCD 01/M00 Q1031=
202004072350 METAR ESMX 072350Z AUTO 20003KT 9999 NCD M00/M03 Q1032=
202004072320 METAR ESMX 072320Z AUTO 20003KT 9999 NCD 00/M01 Q1032=
202004072250 METAR ESMX 072250Z AUTO 20003KT 9999 NCD 01/M01 Q1032=
202004072220 METAR ESMX 072220Z AUTO 19003KT 9999 NCD 02/M01 Q1032=
202004072150 METAR ESMX 072150Z AUTO 20002KT 9999 NCD 04/M00 Q1031=
202004072120 METAR ESMX 072120Z AUTO 22003KT 9999 NCD 05/M01 Q1031=
202004072050 METAR ESMX 072050Z AUTO 27005KT 9999 NCD 06/M01 Q1031=
202004072020 METAR ESMX 072020Z AUTO 27004KT 9999 NCD 06/M01 Q1031=
202004071950 METAR ESMX 071950Z AUTO 21003KT 9999 NCD 07/M02 Q1031=
202004071920 METAR ESMX 071920Z AUTO 26005KT 9999 NCD 07/M02 Q1031=
202004071850 METAR ESMX 071850Z AUTO 25005KT 9999 NCD 08/M02 Q1030=
202004071820 METAR ESMX 071820Z AUTO 26005KT 9999 NCD 09/M02 Q1030=
202004071750 METAR ESMX 071750Z AUTO 24007KT 9999 NCD 10/M02 Q1030=
202004071720 METAR ESMX 071720Z AUTO 25009KT 9999 NCD 11/M02 Q1029=
202004071650 METAR ESMX 071650Z AUTO 28008KT 9999 NCD 12/M03 Q1029=
202004071620 METAR ESMX 071620Z AUTO 28012KT 9999 NCD 13/M03 Q1029=
202004071550 METAR ESMX 071550Z AUTO 28012KT 9999 NCD 14/M03 Q1028=
202004071520 METAR ESMX 071520Z AUTO 29014KT 9999 NCD 14/M03 Q1028=
202004071450 METAR ESMX 071450Z AUTO 29015KT 260V330 9999 NCD 15/M03 Q1027=
202004071420 METAR ESMX 071420Z AUTO 30014KT 250V340 9999 NCD 15/M03 Q1027=
202004071350 METAR ESMX 071350Z AUTO 28013KT 250V310 9999 NCD 15/M02 Q1027=
202004071320 METAR ESMX 071320Z 28014KT CAVOK 14/M01 Q1027=
202004071250 METAR ESMX 071250Z 28016KT 250V310 CAVOK 15/M00 Q1026=
202004071220 METAR ESMX 071220Z 27015KT CAVOK 15/01 Q1026=
202004071150 METAR ESMX 071150Z 26015G30KT 230V290 CAVOK 14/01 Q1025=
202004071120 METAR ESMX 071120Z 28015G26KT 240V320 9999 FEW049 14/01 Q1025=
202004071050 METAR COR ESMX 071050Z 28014KT CAVOK 15/02 Q1025=
202004071020 METAR ESMX 071020Z 29016KT 9999 FEW040 13/01 Q1025=
202004070950 METAR ESMX 070950Z 28017KT 9999 FEW040 13/03 Q1024=
202004070920 METAR ESMX 070920Z 27016KT 9999 SCT035 12/04 Q1024=
202004070850 METAR ESMX 070850Z 27016G26KT 9999 SCT030 11/03 Q1024=
202004070820 METAR ESMX 070820Z 25013KT 230V300 9999 SCT021 11/05 Q1023=
202004070750 METAR ESMX 070750Z 27011KT 230V300 CAVOK 10/06 Q1023=
202004070720 METAR ESMX 070720Z 26007KT CAVOK 08/06 Q1023=
202004070650 METAR ESMX 070650Z 27006KT 9999 SCT049 08/05 Q1023=
202004070620 METAR ESMX 070620Z AUTO 23006KT 9999 FEW008/// OVC088/// 07/05 Q1022 REDZ REUP=
202004070550 METAR ESMX 070550Z AUTO 25007KT 9999 SCT009/// BKN094/// OVC100/// 07/03 Q1022=
202004070520 METAR ESMX 070520Z AUTO 23007KT 200V260 9999 BKN100/// 06/03 Q1021=
202004070450 METAR ESMX 070450Z AUTO 22006KT 9999 BKN092/// 05/02 Q1021=
202004070420 METAR ESMX 070420Z AUTO 21001KT 9999 OVC090/// 02/01 Q1021=
202004070350 METAR ESMX 070350Z AUTO 20001KT 9999 OVC090/// 00/M00 Q1021=
202004070320 METAR ESMX 070320Z AUTO 16002KT 9999 NCD 01/00 Q1021=
202004070250 METAR ESMX 070250Z AUTO 00000KT 9999 NCD 00/M00 Q1021=
202004070220 METAR ESMX 070220Z AUTO 00000KT 9999 NCD 00/M00 Q1021=
202004070150 METAR ESMX 070150Z AUTO 00000KT 9999 NCD 00/M00 Q1021=
202004070120 METAR ESMX 070120Z AUTO 00000KT 9999 NCD 01/M01 Q1021=
202004070050 METAR ESMX 070050Z AUTO 00000KT 9999 NCD 01/M01 Q1021=
202004070020 METAR ESMX 070020Z AUTO 00000KT 9999 NCD 02/M00 Q1021=
202004062350 METAR ESMX 062350Z AUTO 18003KT 9999 NCD 02/01 Q1021=
202004062320 METAR ESMX 062320Z AUTO 00000KT 9999 NCD 02/M00 Q1021=
202004062250 METAR ESMX 062250Z AUTO 19002KT 9999 NCD 04/M00 Q1021=
202004062220 METAR ESMX 062220Z AUTO 19003KT 9999 NCD 06/M00 Q1022=
202004062150 METAR ESMX 062150Z AUTO 16005KT 120V190 9999 NCD 07/00 Q1022=
202004062120 METAR ESMX 062120Z AUTO 15005KT 9999 NCD 08/00 Q1022=
202004062050 METAR ESMX 062050Z AUTO 15005KT 9999 NCD 08/00 Q1022=
202004062020 METAR ESMX 062020Z AUTO 15006KT 9999 NCD 08/00 Q1022=
202004061950 METAR ESMX 061950Z AUTO 16005KT 9999 NCD 09/M00 Q1022=
202004061920 METAR ESMX 061920Z AUTO 16006KT 9999 NCD 10/M00 Q1022=
202004061850 METAR ESMX 061850Z AUTO 16006KT 9999 NCD 10/M00 Q1022=
202004061820 METAR ESMX 061820Z AUTO 16006KT 9999 NCD 11/M00 Q1022=
202004061750 METAR ESMX 061750Z AUTO 17005KT 9999 NCD 12/M00 Q1022=
202004061720 METAR ESMX 061720Z AUTO 17007KT 9999 NCD 13/M01 Q1022=
202004061650 METAR ESMX 061650Z AUTO 18010KT 9999 NCD 13/M01 Q1023=
202004061620 METAR ESMX 061620Z AUTO 16010KT 9999 NCD 14/M01 Q1023=
202004061550 METAR ESMX 061550Z AUTO 16010KT 9999 NCD 15/M02 Q1023=
202004061520 METAR ESMX 061520Z AUTO 15011KT 9999 NCD 15/M02 Q1023=
202004061450 METAR ESMX 061450Z AUTO 16011KT 9999 NCD 15/M02 Q1023=
202004061420 METAR ESMX 061420Z AUTO 18011KT 140V200 9999 NCD 16/M02 Q1023=
202004061350 METAR ESMX 061350Z AUTO 16012KT 9999 NCD 16/M03 Q1024=
202004061320 METAR ESMX 061320Z 16013KT CAVOK 16/M03 Q1024=
202004061250 METAR ESMX 061250Z 16012KT CAVOK 16/M03 Q1024=
202004061220 METAR ESMX 061220Z 17012KT 130V190 CAVOK 16/M03 Q1024=
202004061150 METAR ESMX 061150Z 15014KT CAVOK 15/M04 Q1024=
202004061120 METAR ESMX 061120Z 16012KT 120V190 CAVOK 15/M02 Q1025=
202004061050 METAR ESMX 061050Z 16013KT 130V190 CAVOK 14/M02 Q1025=
202004061020 METAR ESMX 061020Z 16012KT CAVOK 14/M01 Q1025=
202004060950 METAR ESMX 060950Z 15010KT 120V200 CAVOK 13/M00 Q1026=
202004060920 METAR ESMX 060920Z 15009KT 120V190 CAVOK 12/M00 Q1026=
202004060850 METAR ESMX 060850Z 16008KT CAVOK 11/M00 Q1026=
202004060820 METAR ESMX 060820Z 16009KT 120V190 CAVOK 11/M00 Q1026=
202004060750 METAR ESMX 060750Z 15009KT 120V190 CAVOK 09/00 Q1026=
202004060720 METAR ESMX 060720Z 16007KT CAVOK 08/M00 Q1026=
202004060650 METAR ESMX 060650Z 15008KT 120V190 CAVOK 07/00 Q1027=
202004060620 METAR ESMX 060620Z AUTO 15008KT 110V180 9999 NCD 06/00 Q1027=
202004060550 METAR ESMX 060550Z AUTO 15006KT 120V190 9999 NCD 05/00 Q1027=
202004060520 METAR ESMX 060520Z AUTO 15006KT 120V190 9999 NCD 04/00 Q1027=
202004060450 METAR ESMX 060450Z AUTO 15006KT 120V190 9999 NCD 03/00 Q1027=
202004060420 METAR ESMX 060420Z AUTO 13005KT 9999 NCD 03/00 Q1027=
202004060350 METAR ESMX 060350Z AUTO 14005KT 9999 NCD 03/00 Q1027=
202004060320 METAR ESMX 060320Z AUTO 13003KT 9999 NCD 03/00 Q1027=
202004060250 METAR ESMX 060250Z AUTO 14004KT 9999 NCD 03/00 Q1027=
202004060220 METAR ESMX 060220Z AUTO 17004KT 9999 NCD 03/M00 Q1027=
202004060150 METAR ESMX 060150Z AUTO 16005KT 9999 NCD 03/M00 Q1027=
202004060120 METAR ESMX 060120Z AUTO 15007KT 9999 NCD 04/M00 Q1028=
202004060050 METAR ESMX 060050Z AUTO 15007KT 9999 NCD 04/M01 Q1028=
202004060020 METAR ESMX 060020Z AUTO 15006KT 9999 NCD 04/M01 Q1028=
202004052350 METAR ESMX 052350Z AUTO 16007KT 9999 NCD 05/M01 Q1028=
202004052320 METAR ESMX 052320Z AUTO 16007KT 9999 NCD 04/M01 Q1028=
202004052250 METAR ESMX 052250Z AUTO 16006KT 9999 NCD 05/M01 Q1029=
202004052220 METAR ESMX 052220Z AUTO 16006KT 9999 NCD 05/M01 Q1029=
202004052150 METAR ESMX 052150Z AUTO 16005KT 9999 NCD 05/M01 Q1029=
202004052120 METAR ESMX 052120Z AUTO 16006KT 9999 NCD 05/M00 Q1029=
202004052050 METAR ESMX 052050Z AUTO 16006KT 9999 NCD 06/00 Q1029=
202004052020 METAR ESMX 052020Z AUTO 16006KT 9999 NCD 06/01 Q1029=
202004051950 METAR ESMX 051950Z AUTO 16007KT 9999 NCD 07/01 Q1029=
202004051920 METAR ESMX 051920Z AUTO 17007KT 9999 NCD 08/01 Q1029=
202004051850 METAR ESMX 051850Z AUTO 17007KT 9999 NCD 09/01 Q1029=
202004051820 METAR ESMX 051820Z AUTO 17007KT 9999 NCD 09/01 Q1029=
202004051750 METAR ESMX 051750Z AUTO 17009KT 9999 NCD 10/01 Q1029=
202004051720 METAR ESMX 051720Z AUTO 17009KT 9999 FEW053/// 12/01 Q1029=
202004051650 METAR ESMX 051650Z AUTO 16010KT 9999 SCT062/// 12/02 Q1028=
202004051620 METAR ESMX 051620Z AUTO 16008KT 9999 BKN066/// 13/02 Q1029=
202004051550 METAR ESMX 051550Z AUTO 18008KT 140V210 9999 OVC061/// 13/02 Q1029=
202004051520 METAR ESMX 051520Z AUTO 18007KT 9999 FEW066/// 13/01 Q1029=
202004051450 METAR ESMX 051450Z AUTO 18010KT 9999 SCT061/// 14/02 Q1029=
202004051420 METAR ESMX 051420Z AUTO 19008KT 9999 SCT053/// BKN066/// 14/01 Q1029=
202004051350 METAR ESMX 051350Z AUTO 19006KT 9999 FEW049/// OVC068/// 14/02 Q1030=
202004051320 METAR ESMX 051320Z AUTO 18007KT 9999 SCT049/// OVC072/// 13/02 Q1030=
202004051250 METAR ESMX 051250Z AUTO 19008KT 9999 BKN076/// 13/02 Q1030=
202004051220 METAR ESMX 051220Z AUTO 22007KT 170V250 9999 BKN074/// 14/03 Q1030=
202004051150 METAR ESMX 051150Z AUTO 21007KT 9999 BKN076/// 13/03 Q1030=
202004051120 METAR ESMX 051120Z AUTO 20007KT 9999 SCT041/// 13/02 Q1030=
202004051050 METAR ESMX 051050Z AUTO 24005KT 170V280 9999 NCD 13/03 Q1030=
202004051020 METAR ESMX 051020Z AUTO 20008KT 9999 FEW035/// 13/04 Q1030=
202004050950 METAR ESMX 050950Z AUTO 21006KT 170V250 9999 FEW028/// 12/05 Q1031=
202004050920 METAR ESMX 050920Z AUTO 20007KT 160V240 9999 NCD 11/06 Q1031=
202004050850 METAR ESMX 050850Z AUTO 19006KT 160V220 9999 NCD 10/05 Q1031=
202004050820 METAR ESMX 050820Z AUTO 21004KT 170V250 9999 FEW009/// SCT076/// 08/05 Q1031=
202004050750 METAR ESMX 050750Z AUTO 20006KT 9999 BKN008/// 07/05 Q1030=
202004050720 METAR ESMX 050720Z AUTO 23004KT 7000 BR OVC005/// 06/05 Q1030=
202004050650 METAR ESMX 050650Z AUTO 20004KT 4500 BR OVC004/// 05/05 Q1030=
202004050620 METAR ESMX 050620Z AUTO 20006KT 4200 BR OVC002/// 05/05 Q1030=
202004050550 METAR ESMX 050550Z AUTO 22004KT 3300 BR OVC002/// 04/04 Q1029=
202004050520 METAR ESMX 050520Z AUTO 24003KT 4500 BR BKN004/// OVC006/// 04/04 Q1029=
202004050450 METAR ESMX 050450Z AUTO 19003KT 6000 BR OVC006/// 04/03 Q1029=
202004050420 METAR ESMX 050420Z AUTO 19002KT 7000 BR VV007 03/03 Q1028 RESHUP=
202004050350 METAR ESMX 050350Z AUTO 21003KT 8000 BR FEW044/// BKN070/// BKN160/// 04/03 Q1028 REUP=
202004050320 METAR ESMX 050320Z AUTO 21003KT 9999 BKN074/// 04/03 Q1028=
202004050250 METAR ESMX 050250Z AUTO 21004KT 9999 BKN076/// 03/03 Q1028=
202004050220 METAR ESMX 050220Z AUTO 19005KT 9999 SCT082/// 03/02 Q1027=
202004050150 METAR ESMX 050150Z AUTO 21004KT 9999 BKN084/// 04/02 Q1027=
202004050120 METAR ESMX 050120Z AUTO 21006KT 9999 BKN082/// 04/02 Q1027=
202004050050 METAR ESMX 050050Z AUTO 21007KT 9999 FEW047/// OVC082/// 04/02 Q1027=
202004050020 METAR ESMX 050020Z AUTO 19007KT 9999 SCT019/// BKN045/// OVC082/// 04/01 Q1027=
202004042350 METAR ESMX 042350Z AUTO 19008KT 9999 OVC078/// 05/01 Q1027=
202004042320 METAR ESMX 042320Z AUTO 18006KT 9999 FEW018/// OVC076/// 04/M01 Q1026=
202004042250 METAR ESMX 042250Z AUTO 18006KT 9999 FEW019/// BKN078/// 04/M01 Q1026=
202004042220 METAR ESMX 042220Z AUTO 19004KT 9999 SCT020/// BKN074/// 03/M01 Q1026=
202004042150 METAR ESMX 042150Z AUTO 18005KT 9999 OVC066/// 04/M01 Q1026=
202004042120 METAR ESMX 042120Z AUTO 19003KT 9999 FEW027/// OVC061/// 04/M01 Q1025=
202004042050 METAR ESMX 042050Z AUTO VRB03KT 9999 SCT032/// OVC064/// 04/M01 Q1025=
202004042020 METAR ESMX 042020Z AUTO 18004KT 9999 OVC066/// 05/M01 Q1025=
202004041950 METAR ESMX 041950Z AUTO 22005KT 9999 OVC068/// 04/M01 Q1025=
202004041920 METAR ESMX 041920Z AUTO 19005KT 9999 OVC066/// 05/M01 Q1025=
202004041850 METAR ESMX 041850Z AUTO 20003KT 9999 OVC072/// 05/M01 Q1024=
202004041820 METAR ESMX 041820Z AUTO 20004KT 9999 OVC070/// 05/M01 Q1024=
202004041750 METAR ESMX 041750Z AUTO 21004KT 9999 FEW068/// BKN082/// 04/M02 Q1024=
202004041720 METAR ESMX 041720Z AUTO 24006KT 9999 BKN082/// 06/M02 Q1023=
202004041650 METAR ESMX 041650Z AUTO 25008KT 9999 BKN086/// 07/M02 Q1023=
202004041620 METAR ESMX 041620Z AUTO 25009KT 9999 FEW048/// 07/M02 Q1023=
202004041550 METAR ESMX 041550Z AUTO 24010KT 200V260 9999 FEW049/// BKN098/// 08/M03 Q1022=
202004041520 METAR ESMX 041520Z AUTO 27013KT 9999 SCT049/// 08/M03 Q1022=
202004041450 METAR ESMX 041450Z AUTO 27011KT 9999 BKN053/// 07/M03 Q1022=
202004041420 METAR ESMX 041420Z AUTO 23010KT 9999 FEW049/// SCT092/// 08/M03 Q1022=
202004041350 METAR ESMX 041350Z AUTO 24011KT 9999 SCT049/// BKN066/// 07/M04 Q1021=
202004041250 METAR ESMX 041250Z AUTO 24010KT 210V280 9999 BKN057/// 07/M04 Q1021=
202004041220 METAR ESMX 041220Z AUTO 23013G23KT 200V260 9999 SCT051/// BKN062/// 09/M04 Q1020=
202004041150 METAR ESMX 041150Z AUTO 26012KT 9999 SCT044/// BKN064/// 07/M02 Q1020=
202004041120 METAR ESMX 041120Z AUTO 25014KT 9999 BKN057/// 08/M02 Q1020=
202004041050 METAR ESMX 041050Z AUTO 24012KT 9999 SCT051/// BKN066/// 07/M03 Q1020=
202004041020 METAR ESMX 041020Z AUTO 23011KT 9999 BKN046/// 06/M02 Q1019=
202004040950 METAR ESMX 040950Z AUTO 24012KT 200V280 9999 BKN046/// 06/M03 Q1019=
202004040920 METAR ESMX 040920Z AUTO 24012KT 200V290 9999 SCT041/// 06/M03 Q1019=
202004040850 METAR ESMX 040850Z AUTO 25012G23KT 9999 BKN036/// 05/M03 Q1019=
202004040820 METAR ESMX 040820Z AUTO 27013G23KT 9999 SCT033/// 05/M02 Q1018=
202004040750 METAR ESMX 040750Z AUTO 27011KT 230V300 9999 NCD 04/M02 Q1018=
202004040720 METAR ESMX 040720Z AUTO 26010KT 9999 NCD 04/M02 Q1018=
202004040650 METAR ESMX 040650Z AUTO 25010KT 9999 NCD 03/M02 Q1017=
202004040620 METAR ESMX 040620Z AUTO 26008KT 220V280 9999 NCD 02/M01 Q1017=
202004040550 METAR ESMX 040550Z AUTO 22008KT 9999 NCD 01/M01 Q1016=
202004040520 METAR ESMX 040520Z AUTO 24007KT 9999 NCD M00/M02 Q1016=
202004040450 METAR ESMX 040450Z AUTO 21007KT 9999 SCT034/// M00/M02 Q1015=
202004040420 METAR ESMX 040420Z AUTO 23007KT 9999 SCT041/// M01/M02 Q1015=
202004040350 METAR ESMX 040350Z AUTO 21006KT 9999 NCD M01/M02 Q1015=
202004040320 METAR ESMX 040320Z AUTO 21006KT 9999 NCD M01/M02 Q1014=
202004040250 METAR ESMX 040250Z AUTO 21006KT 9999 NCD M01/M02 Q1014=
202004040220 METAR ESMX 040220Z AUTO 21007KT 9999 NCD M01/M02 Q1013=
202004040150 METAR ESMX 040150Z AUTO 23006KT 9999 NCD M01/M02 Q1013=
202004040120 METAR ESMX 040120Z AUTO 24005KT 9999 NCD M01/M02 Q1013=
202004040050 METAR ESMX 040050Z AUTO 22007KT 9999 NCD M00/M02 Q1012=
202004040020 METAR ESMX 040020Z AUTO 25008KT 9999 NCD M00/M02 Q1012=
202004032350 METAR ESMX 032350Z AUTO 24007KT 9999 NCD M00/M02 Q1012=
202004032320 METAR ESMX 032320Z AUTO 25008KT 9999 NCD 00/M02 Q1011=
202004032250 METAR ESMX 032250Z AUTO 23008KT 9999 NCD 00/M02 Q1011=
202004032220 METAR ESMX 032220Z AUTO 24007KT 210V280 9999 NCD 00/M03 Q1011=
202004032150 METAR ESMX 032150Z AUTO 25006KT 9999 NCD 00/M03 Q1010=
202004032120 METAR ESMX 032120Z AUTO 26008KT 9999 NCD 01/M03 Q1010=
202004032050 METAR ESMX 032050Z AUTO 22008KT 9999 NCD 01/M04 Q1009=
202004032020 METAR ESMX 032020Z AUTO 24007KT 9999 NCD 01/M04 Q1009=
202004031950 METAR ESMX 031950Z AUTO 24008KT 9999 NCD 01/M04 Q1008=
202004031920 METAR ESMX 031920Z AUTO 25007KT 9999 NCD 01/M04 Q1008=
202004031850 METAR ESMX 031850Z AUTO 23006KT 9999 NCD 01/M04 Q1007=
202004031820 METAR ESMX 031820Z AUTO 24009KT 9999 NCD 02/M04 Q1007 RESHUP=
202004031750 METAR ESMX 031750Z AUTO 28010KT 9999 FEW061/// SCT084/// 03/M05 Q1006 REUP=
202004031720 METAR ESMX 031720Z AUTO 27015G25KT 9999 NCD 03/M05 Q1005=
202004031650 METAR ESMX 031650Z AUTO 28015G28KT 250V320 9999 NCD 04/M05 Q1005=
202004031620 METAR ESMX 031620Z AUTO 26017KT 9999 NCD 05/M07 Q1004=
202004031550 METAR ESMX 031550Z AUTO 28017KT 9999 FEW068/// 06/M07 Q1003=
202004031520 METAR ESMX 031520Z AUTO 28016G27KT 9999 FEW046/// SCT072/// 06/M05 Q1003=
202004031450 METAR ESMX 031450Z AUTO 28018G28KT 9999 FEW062/// 06/M06 Q1002=
202004031420 METAR ESMX 031420Z AUTO 27017KT 240V300 9999 SCT110/// 06/M05 Q1001=
202004031350 METAR ESMX 031350Z AUTO 24013KT 200V280 9999 BKN130/// 06/M02 Q1001=
202004031320 METAR ESMX 031320Z 21004KT 160V240 9999 VCSH FEW030CB SCT088 04/00 Q1001=
202004031250 METAR ESMX 031250Z 21002KT 9999 VCSH FEW030CB SCT034 BKN086 02/M00 Q1001=
202004031220 METAR COR ESMX 031220Z 30013G23KT 280V340 9999 SHGS FEW015 SCT030CB BKN046 02/M00 Q1001=
202004031150 METAR ESMX 031150Z AUTO 29010KT 260V330 9999 RASN FEW002/// OVC043/// 02/M00 Q1000 RESHUP=
202004031120 METAR ESMX 031120Z 23006KT 9999 VCSH FEW030CB SCT045 BKN100 03/01 Q0999=
202004031050 METAR ESMX 031050Z 22008KT 9999 VCSH FEW030CB SCT045 02/01 Q0998=
202004031020 METAR ESMX 031020Z 25009KT 9999 VCSH FEW030CB BKN040 02/00 Q0998 RERA=
202004030950 METAR COR ESMX 030950Z 28011G22KT 250V320 5000 SHGS SCT025CB BKN035 02/00 Q0998=
202004030920 METAR COR ESMX 030920Z 25011KT 200V280 9999 VCSH FEW029CB BKN041 05/M01 Q0997=
202004030850 METAR ESMX 030850Z 28013KT 240V300 9999 SCT035 06/M01 Q0996=
202004030820 METAR ESMX 030820Z 26014KT 9999 SCT036 06/M02 Q0996=
202004030750 METAR COR ESMX 030750Z 26013G24KT 230V300 9999 SCT035 04/M02 Q0996=
202004030720 METAR ESMX 030720Z 27013KT 9999 SCT028 04/M01 Q0995=
202004030650 METAR COR ESMX 030650Z 26012G24KT 230V300 9999 SCT025 04/M00 Q0995=
202004030620 METAR ESMX 030620Z AUTO 25013KT 9999 FEW023/// 04/M00 Q0994=
202004030550 METAR ESMX 030550Z AUTO 26011KT 9999 NCD 03/M01 Q0994=
202004030520 METAR ESMX 030520Z AUTO 25009KT 9999 NCD 02/M01 Q0993=
202004030450 METAR ESMX 030450Z AUTO 26010KT 230V290 9999 NCD 02/M01 Q0993=
202004030420 METAR ESMX 030420Z AUTO 26012KT 9999 NCD 02/M02 Q0992=
202004030350 METAR ESMX 030350Z AUTO 26012KT 9999 FEW030/// 03/M02 Q0991=
202004030320 METAR ESMX 030320Z AUTO 25012G23KT 210V280 9999 SCT032/// 03/M02 Q0991=
202004030250 METAR ESMX 030250Z AUTO 26015KT 9999 SCT033/// BKN044/// 03/M02 Q0990=
202004030220 METAR ESMX 030220Z AUTO 26014G26KT 9999 SCT030/// OVC045/// 03/M01 Q0990=
202004030150 METAR ESMX 030150Z AUTO 26015KT 240V300 9999 FEW029/// BKN045/// 03/M00 Q0989=
202004030120 METAR ESMX 030120Z AUTO 25014KT 9999 FEW029/// SCT038/// OVC051/// 03/M00 Q0988 RESHUP RERA=
202004030050 METAR ESMX 030050Z AUTO 25015KT 220V280 9999 FEW025/// SCT031/// OVC048/// 03/00 Q0988 RERA=
202004030020 METAR ESMX 030020Z AUTO 24013KT 9999 BKN024/// OVC048/// 03/01 Q0988 REDZ=
202004022350 METAR ESMX 022350Z AUTO 22013KT 9999 BKN015/// OVC045/// 02/01 Q0988 RESHUP REDZ=
202004022320 METAR ESMX 022320Z AUTO 21014KT 9999 SCT019/// BKN024/// OVC042/// 02/01 Q0988=
202004022250 METAR ESMX 022250Z AUTO 22015G26KT 190V250 9999 -RA BKN026/// BKN039/// OVC049/// 03/00 Q0988 REDZ REUP=
202004022220 METAR ESMX 022220Z AUTO 23014KT 9999 BKN026/// OVC045/// 03/M00 Q0988=
202004022150 METAR ESMX 022150Z AUTO 23014KT 9999 SCT028/// OVC044/// 03/M00 Q0989=
202004022120 METAR ESMX 022120Z AUTO 22014KT 9999 BKN032/// OVC042/// 02/M00 Q0989=
202004022050 METAR ESMX 022050Z AUTO 23015KT 9999 OVC033/// 02/M00 Q0989=
202004022020 METAR ESMX 022020Z AUTO 22015KT 9999 BKN037/// 02/M00 Q0989=
202004021950 METAR ESMX 021950Z AUTO 23013KT 9999 NCD 02/M00 Q0989=
202004021920 METAR ESMX 021920Z AUTO 23014KT 9999 FEW003/// BKN017/// 02/01 Q0989 RERA REUP=
202004021850 METAR ESMX 021850Z AUTO 23013KT 200V260 9999 FEW021/// BKN031/// BKN094/// 02/01 Q0989=
202004021820 METAR ESMX 021820Z AUTO 24015KT 9999 FEW040/// SCT051/// OVC078/// 02/01 Q0989=
202004021750 METAR ESMX 021750Z AUTO 25018G32KT 4500 -SN VV017 02/01 Q0989 RERA=
202004021720 METAR ESMX 021720Z AUTO 24016G26KT 9999 -RA BKN010/// OVC020/// 03/03 Q0989=
202004021650 METAR ESMX 021650Z AUTO 25022G39KT 2200 -RA VV016 04/03 Q0989 REDZ REUP=
202004021620 METAR ESMX 021620Z AUTO 22023G34KT 9999 BKN026/// OVC038/// 07/02 Q0988=
202004021550 METAR ESMX 021550Z AUTO 22024KT 9999 BKN028/// 07/02 Q0989=
202004021520 METAR ESMX 021520Z AUTO 22023G35KT 9999 FEW021/// BKN028/// BKN036/// 07/02 Q0990 REUP=
202004021450 METAR ESMX 021450Z AUTO 22022G37KT 190V280 9999 BKN030/// BKN045/// OVC053/// 07/02 Q0991 REUP=
202004021420 METAR ESMX 021420Z AUTO 22021G33KT 9999 BKN029/// OVC059/// 08/03 Q0991=
202004021350 METAR ESMX 021350Z AUTO 21022G34KT 9999 BKN027/// BKN039/// OVC055/// 08/02 Q0992=
202004021320 METAR ESMX 021320Z 22017G29KT 9999 -RA BKN024 06/02 Q0993=
202004021250 METAR ESMX 021250Z 21020KT 9999 BKN025 06/02 Q0994=
202004021220 METAR ESMX 021220Z 22016KT 190V250 9999 BKN030 06/01 Q0995=
202004021150 METAR ESMX 021150Z 22017G30KT 190V250 9999 BKN028 06/01 Q0996=
202004021120 METAR ESMX 021120Z 25017KT 210V270 9999 SCT022 BKN035 06/00 Q0996=
202004021050 METAR ESMX 021050Z AUTO 24017KT 210V280 9999 BKN023/// OVC036/// 05/01 Q0996=
202004021020 METAR ESMX 021020Z 23015KT 9999 BKN026 06/01 Q0997=
202004020950 METAR ESMX 020950Z 23017KT 210V270 9999 BKN024 06/00 Q0997=
202004020920 METAR ESMX 020920Z 24015G25KT 200V270 9999 BKN027 06/01 Q0997=
202004020850 METAR ESMX 020850Z 25014G27KT 9999 BKN026 05/00 Q0998=
202004020820 METAR ESMX 020820Z 24015KT 200V260 9999 BKN027 05/00 Q0998=
202004020750 METAR ESMX 020750Z 23014G24KT 9999 BKN025 05/00 Q0998=
202004020720 METAR ESMX 020720Z 24013G25KT 200V280 9999 BKN024 05/00 Q0998=
202004020650 METAR ESMX 020650Z 26013KT 9999 BKN023 05/00 Q0999=
202004020620 METAR COR ESMX 020620Z 23012KT 200V270 9999 BKN023 05/01 Q0999=
202004020550 METAR ESMX 020550Z AUTO 24012KT 200V260 9999 OVC025/// 04/01 Q0999=
202004020520 METAR ESMX 020520Z AUTO 26010KT 9999 BKN032/// 04/01 Q0999=
202004020450 METAR ESMX 020450Z AUTO 25013KT 220V280 9999 FEW025/// BKN033/// 04/01 Q0999=
202004020420 METAR ESMX 020420Z AUTO 26011KT 230V290 9999 SCT017/// BKN024/// OVC032/// 04/02 Q0999=
202004020350 METAR ESMX 020350Z AUTO 25012KT 9999 BKN017/// OVC038/// 04/02 Q0999 RERA=
202004020320 METAR ESMX 020320Z AUTO 25011KT 9000 -DZ FEW016/// BKN023/// OVC035/// 04/03 Q0999 RESHUP=
202004020250 METAR ESMX 020250Z AUTO 23012KT 9999 BKN017/// OVC033/// 05/03 Q0999 REUP=
202004020220 METAR ESMX 020220Z AUTO 25013KT 9999 BKN017/// BKN025/// OVC036/// 05/03 Q1000=
202004020150 METAR ESMX 020150Z AUTO 26013KT 9999 FEW016/// SCT020/// OVC031/// 05/03 Q1000=
202004020120 METAR ESMX 020120Z AUTO 26013KT 9999 BKN012/// OVC032/// 05/04 Q1000=
202004020050 METAR ESMX 020050Z AUTO 26012KT 9999 SCT008/// OVC012/// 05/04 Q1000=
202004020020 METAR ESMX 020020Z AUTO 25011KT 9000 BR FEW006/// BKN008/// BKN010/// 05/04 Q1001=
202004012350 METAR ESMX 012350Z AUTO 23010KT 8000 BR BKN007/// OVC010/// 05/04 Q1001=
202004012320 METAR ESMX 012320Z AUTO 25011KT 220V280 4400 -DZ BKN006/// OVC009/// 05/04 Q1001 RERA=
202004012250 METAR ESMX 012250Z AUTO 25011KT 6000 -DZ FEW006/// BKN010/// OVC017/// 05/04 Q1001 REUP=
202004012220 METAR ESMX 012220Z AUTO 25012KT 9999 OVC014/// 05/03 Q1002=
202004012150 METAR ESMX 012150Z AUTO 25012KT 9999 OVC016/// 05/02 Q1002=
202004012120 METAR ESMX 012120Z AUTO 24011KT 200V270 9999 OVC018/// 05/02 Q1002=
202004012050 METAR ESMX 012050Z AUTO 26011KT 230V290 9999 OVC020/// 05/01 Q1003=
202004012020 METAR ESMX 012020Z AUTO 25012KT 9999 OVC024/// 05/01 Q1003=
202004011950 METAR ESMX 011950Z AUTO 24012KT 210V280 9999 BKN026/// 05/01 Q1003=
202004011920 METAR ESMX 011920Z AUTO 26014KT 9999 FEW098/// 05/00 Q1003=
202004011850 METAR ESMX 011850Z AUTO 26012KT 9999 FEW032/// 06/00 Q1003=
202004011820 METAR ESMX 011820Z AUTO 26012KT 9999 FEW035/// 06/00 Q1003=
202004011750 METAR ESMX 011750Z AUTO 24012KT 220V290 9999 OVC032/// 06/02 Q1004=
202004011720 METAR ESMX 011720Z AUTO 26011KT 220V290 9999 FEW031/// BKN040/// 07/02 Q1004=
202004011650 METAR ESMX 011650Z AUTO 26010KT 9999 BKN030/// OVC039/// 07/02 Q1004=
202004011620 METAR ESMX 011620Z AUTO 26011KT 230V290 9999 SCT035/// BKN051/// BKN064/// 08/02 Q1004=
202004011550 METAR ESMX 011550Z AUTO 23011KT 9999 FEW036/// SCT046/// BKN053/// 08/02 Q1004=
202004011520 METAR ESMX 011520Z AUTO 23010KT 180V250 9999 FEW032/// OVC045/// 08/02 Q1004=
202004011450 METAR ESMX 011450Z AUTO 23010KT 190V270 9999 BKN031/// OVC037/// 08/02 Q1005=
202004011420 METAR ESMX 011420Z AUTO 24010KT 210V280 9999 OVC029/// 08/02 Q1005=
202004011350 METAR ESMX 011350Z AUTO 25009KT 9999 BKN022/// OVC027/// 07/02 Q1005=
202004011320 METAR ESMX 011320Z 23011KT 200V270 9999 SCT020 BKN029 07/02 Q1006=
202004011250 METAR ESMX 011250Z 25011KT 9999 BKN020 06/02 Q1006=
202004011220 METAR ESMX 011220Z 26012KT 230V290 9999 BKN018 06/02 Q1007=
