##########################################################
# Query made at 04/19/2024 22:12:16 UTC
# Time interval: from 01/01/2020 12:00  to 01/31/2020 12:59  UTC
##########################################################

##########################################################
# ESMX, Vaxjo (Sweden)
# WMO index: 02641. WIGOS ID: 0-20000-0-02648
# Latitude 56-51N. Longitude 014-50E. Altitude 199 m.
##########################################################

202001311250 METAR COR ESMX 311250Z 28008KT 9999 BKN005 03/03 Q0994=
202001311220 METAR ESMX 311220Z 26005KT 220V290 9999 BKN005 04/03 Q0994=
202001311150 METAR ESMX 311150Z 27005KT 240V300 9999 SCT002 OVC004 03/03 Q0994=
202001311120 METAR ESMX 311120Z 27007KT 240V300 9999 OVC002 03/03 Q0993=
202001311050 METAR ESMX 311050Z 26005KT 9999 OVC003 03/03 Q0993=
202001311020 METAR ESMX 311020Z 28003KT 9999 OVC003 03/03 Q0992=
202001310950 METAR ESMX 310950Z 33004KT 9999 OVC002 03/03 Q0992=
202001310920 METAR ESMX 310920Z 33003KT 8000 OVC002 03/03 Q0991=
202001310850 METAR ESMX 310850Z VRB02KT 9999 OVC003 02/02 Q0991=
202001310820 METAR ESMX 310820Z 36004KT 9999 OVC003 02/02 Q0990=
202001310750 METAR ESMX 310750Z 01006KT 9999 OVC002 02/02 Q0989=
202001310720 METAR ESMX 310720Z 01006KT 6000 BR OVC002 02/02 Q0988=
202001310650 METAR COR ESMX 310650Z 36004KT 9999 OVC003 02/02 Q0988=
202001310620 METAR ESMX 310620Z 02003KT 9999 OVC002 02/02 Q0987=
202001310550 METAR ESMX 310550Z 04004KT 4200 BR OVC002 02/02 Q0986=
202001310520 METAR ESMX 310520Z 02003KT 340V040 3500 -DZ OVC002 03/03 Q0986=
202001310450 METAR ESMX 310450Z 01004KT 340V040 9000 -RA OVC002 03/03 Q0985=
202001310420 METAR ESMX 310420Z AUTO 02003KT 350V060 9999 DZ OVC002/// 03/03 Q0984 REDZ=
202001310350 METAR ESMX 310350Z AUTO 04003KT 7000 -RA BKN002/// OVC004/// 03/03 Q0984=
202001310320 METAR ESMX 310320Z AUTO 07004KT 020V110 2300 DZ BKN002/// OVC005/// 03/03 Q0984=
202001310250 METAR ESMX 310250Z AUTO 07004KT 040V110 7000 -RA SCT005/// OVC011/// 03/03 Q0984=
202001310220 METAR ESMX 310220Z AUTO VRB03KT 8000 RA SCT006/// OVC009/// 03/03 Q0984=
202001310150 METAR ESMX 310150Z AUTO 14006KT 8000 -RA BKN007/// OVC014/// 03/02 Q0985=
202001310120 METAR ESMX 310120Z 17009KT 4600 RA BKN007 03/03 Q0986=
202001310050 METAR ESMX 310050Z 15008KT 120V180 3200 RA SCT002 BKN004 OVC013 04/04 Q0986=
202001310020 METAR ESMX 310020Z 14007KT 3300 RA OVC002 03/03 Q0987=
202001302350 METAR ESMX 302350Z 14008KT 8000 -RA OVC003 03/03 Q0988=
202001302320 METAR ESMX 302320Z 14005KT 100V170 2800 -DZ OVC002 03/03 Q0989=
202001302250 METAR ESMX 302250Z 13006KT 080V170 4800 -RA OVC002 03/03 Q0989=
202001302220 METAR ESMX 302220Z 14007KT 5000 RA OVC002 03/03 Q0990=
202001302150 METAR COR ESMX 302150Z 14006KT 110V170 3900 DZ OVC002 03/03 Q0991=
202001302120 METAR ESMX 302120Z 14005KT 100V200 7000 BR OVC003 03/03 Q0992=
202001302050 METAR ESMX 302050Z 15004KT 8000 BR BKN003 OVC010 03/03 Q0993=
202001302020 METAR ESMX 302020Z 15004KT 110V170 8000 BR OVC002 03/03 Q0993=
202001301950 METAR ESMX 301950Z 14004KT 100V160 9000 BR SCT003 BKN006 03/03 Q0994=
202001301920 METAR ESMX 301920Z 15004KT 9999 SCT003 BKN006 03/03 Q0994=
202001301850 METAR ESMX 301850Z 15003KT 8000 BR SCT004 BKN007 03/03 Q0995=
202001301820 METAR ESMX 301820Z 17003KT 7000 BR FEW002 SCT007 BKN011 03/03 Q0995=
202001301750 METAR ESMX 301750Z 19003KT 6000 BR SCT002 OVC005 03/03 Q0995=
202001301720 METAR ESMX 301720Z 19001KT 7000 BR FEW001 OVC006 03/03 Q0995=
202001301650 METAR COR ESMX 301650Z 00000KT 5000 -DZ BR SCT002 BKN006 03/03 Q0995=
202001301620 METAR ESMX 301620Z 00000KT 9999 FEW007 OVC013 03/03 Q0995=
202001301550 METAR ESMX 301550Z 00000KT 6000 BR FEW006 BKN010 03/03 Q0996=
202001301520 METAR ESMX 301520Z 00000KT 6000 -DZ BR OVC003 03/03 Q0995=
202001301450 METAR ESMX 301450Z 00000KT 8000 -DZ BR OVC005 03/03 Q0995=
202001301420 METAR ESMX 301420Z VRB02KT 9000 BR BKN003 03/03 Q0995=
202001301350 METAR ESMX 301350Z 06003KT 9999 BKN005 03/03 Q0994=
202001301320 METAR ESMX 301320Z 00000KT 9999 BKN007 04/03 Q0995=
202001301250 METAR ESMX 301250Z VRB02KT 8000 -DZ BR BKN004 03/03 Q0995=
202001301220 METAR ESMX 301220Z 19005KT 7000 -DZ OVC005 03/03 Q0995=
202001301150 METAR ESMX 301150Z 14004KT 7000 -DZ BR SCT003 BKN006 03/03 Q0995=
202001301120 METAR ESMX 301120Z AUTO VRB03KT 6000 OVC003/// 03/03 Q0994 REDZ REUP=
202001301050 METAR ESMX 301050Z AUTO 14003KT 070V190 4500 BR OVC002/// 03/03 Q0994 REDZ=
202001301020 METAR ESMX 301020Z VRB03KT 9000 -DZ BR OVC005 03/03 Q0994=
202001300950 METAR ESMX 300950Z 14003KT 090V190 9999 BKN005 03/03 Q0995=
202001300920 METAR ESMX 300920Z 14005KT 100V170 9999 BKN005 03/03 Q0995=
202001300850 METAR ESMX 300850Z 13004KT 070V160 8000 -RADZ BKN005 03/03 Q0994=
202001300820 METAR ESMX 300820Z 15006KT 8000 -RADZ OVC006 03/03 Q0995=
202001300750 METAR ESMX 300750Z 16004KT 140V200 8000 -RADZ SCT008 BKN016 03/03 Q0995=
202001300720 METAR ESMX 300720Z 16003KT 9999 -RADZ SCT009 BKN018 03/03 Q0995=
202001300650 METAR ESMX 300650Z 18006KT 7000 -RA OVC016 03/03 Q0995=
202001300620 METAR ESMX 300620Z 17005KT 8000 -RADZ SCT003 BKN006 03/03 Q0995=
202001300550 METAR ESMX 300550Z 15005KT 7000 -RADZ OVC002 03/03 Q0995=
202001300520 METAR ESMX 300520Z 17004KT 2500 DZ BKN002 03/03 Q0996=
202001300450 METAR ESMX 300450Z 17002KT 6000 -DZ BR FEW002 BKN005 02/02 Q0996=
202001300420 METAR ESMX 300420Z AUTO VRB02KT 9999 OVC005/// 02/02 Q0996=
202001300350 METAR ESMX 300350Z AUTO 27004KT 240V300 9999 OVC005/// 02/02 Q0996=
202001300320 METAR ESMX 300320Z AUTO 26009KT 9999 OVC006/// 03/02 Q0996=
202001300250 METAR ESMX 300250Z AUTO 27012KT 9999 OVC005/// 03/03 Q0995=
202001300220 METAR ESMX 300220Z AUTO 27013KT 9999 OVC006/// 03/03 Q0995=
202001300150 METAR ESMX 300150Z AUTO 25011KT 9999 BKN006/// BKN007/// OVC015/// 04/03 Q0995 REDZ=
202001300120 METAR ESMX 300120Z AUTO 24011KT 210V280 3400 -RA FEW007/// BKN012/// OVC018/// 04/04 Q0994=
202001300050 METAR ESMX 300050Z AUTO 21011KT 5000 -RA SCT006/// BKN009/// OVC011/// 04/04 Q0994 REDZ=
202001300020 METAR ESMX 300020Z AUTO 19011KT 6000 DZ FEW002/// BKN006/// BKN009/// 04/04 Q0994=
202001292350 METAR ESMX 292350Z AUTO 19009KT 9999 -DZ FEW009/// SCT013/// BKN017/// 04/03 Q0995 RERA RESHUP=
202001292320 METAR ESMX 292320Z AUTO 21008KT 9999 -RA FEW009/// SCT011/// BKN017/// 03/03 Q0995 RESHUP REDZ=
202001292250 METAR ESMX 292250Z AUTO 22006KT 9999 SCT009/// BKN018/// BKN037/// 03/03 Q0995 RESHUP RERA=
202001292220 METAR ESMX 292220Z AUTO 22005KT 9999 SCT009/// BKN031/// BKN036/// 03/03 Q0995=
202001292150 METAR ESMX 292150Z AUTO 23006KT 9999 FEW006/// SCT015/// OVC032/// 03/03 Q0995 RERA=
202001292120 METAR ESMX 292120Z 22006KT 190V250 9999 BKN009 BKN013 03/03 Q0995=
202001292050 METAR ESMX 292050Z AUTO 23005KT 9999 FEW002/// SCT015/// BKN031/// 03/03 Q0995 RESHUP RERA=
202001292020 METAR ESMX 292020Z 25006KT 9999 FEW006 SCT010 BKN015 03/03 Q0994=
202001291950 METAR ESMX 291950Z 24006KT 9999 -RA FEW007 BKN010 03/03 Q0994=
202001291920 METAR ESMX 291920Z 25006KT 9999 FEW012 SCT018 BKN025 03/03 Q0994=
202001291850 METAR ESMX 291850Z AUTO 25008KT 9999 BKN022/// OVC076/// 03/03 Q0993=
202001291820 METAR ESMX 291820Z 24006KT 9999 BKN022 03/03 Q0993=
202001291750 METAR ESMX 291750Z 26007KT 9999 BKN009 03/03 Q0992=
202001291720 METAR ESMX 291720Z 25007KT 9999 -DZ FEW006 BKN010 03/03 Q0992=
202001291650 METAR ESMX 291650Z 26008KT 7000 -DZ BKN007 03/03 Q0992=
202001291620 METAR ESMX 291620Z 24008KT 9999 -RADZ FEW007 BKN009 04/03 Q0991 RESHRA=
202001291550 METAR ESMX 291550Z 22006KT 8000 -RADZ SCT012 BKN020 04/04 Q0991=
202001291520 METAR ESMX 291520Z 23007KT 9999 FEW012 BKN018 04/03 Q0991=
202001291450 METAR ESMX 291450Z 22007KT 9999 FEW007 04/04 Q0990=
202001291420 METAR ESMX 291420Z 20007KT 9999 BKN005 04/04 Q0990=
202001291350 METAR ESMX 291350Z 22007KT 2400 BR BKN004 04/04 Q0990=
202001291320 METAR ESMX 291320Z 22007KT 7000 -RA BKN005 04/04 Q0990=
202001291250 METAR ESMX 291250Z 21008KT 4200 DZ BKN005 04/04 Q0990=
202001291220 METAR ESMX 291220Z 20009KT 2600 DZ BKN005 04/04 Q0989=
202001291150 METAR ESMX 291150Z 19009KT 9999 BKN005 04/04 Q0989=
202001291120 METAR ESMX 291120Z 22007KT 8000 -DZ BR FEW002 BKN007 04/04 Q0989=
202001291050 METAR ESMX 291050Z 21006KT 8000 -RA BR BKN005 04/04 Q0989=
202001291020 METAR ESMX 291020Z 21007KT 7000 -DZ BR BKN005 04/04 Q0989=
202001290950 METAR ESMX 290950Z 21006KT 9999 SCT005 BKN014 04/03 Q0989=
202001290920 METAR ESMX 290920Z 21006KT 9999 BKN005 03/03 Q0989=
202001290850 METAR ESMX 290850Z 21006KT 9999 SCT009 BKN022 03/03 Q0989=
202001290820 METAR ESMX 290820Z 19005KT 9999 SCT006 BKN023 03/03 Q0988=
202001290750 METAR ESMX 290750Z 22005KT 4300 BR SCT004 BKN014 03/03 Q0988=
202001290720 METAR ESMX 290720Z 21005KT 9000 BKN004 03/03 Q0988=
202001290650 METAR ESMX 290650Z 18006KT 7000 BR BKN003 02/02 Q0988=
202001290620 METAR ESMX 290620Z 18005KT 6000 BR BKN003 02/02 Q0987=
202001290550 METAR ESMX 290550Z 18004KT 4800 BR BKN002 02/02 Q0987=
202001290520 METAR ESMX 290520Z 22006KT 4600 VV002 02/02 Q0987=
202001290450 METAR ESMX 290450Z 20004KT 0600 R01/P2000N R19/P2000D VV002 02/02 Q0987=
202001290420 METAR ESMX 290420Z AUTO 16003KT 2400 BR BKN001/// OVC029/// 02/02 Q0987=
202001290350 METAR ESMX 290350Z AUTO 20003KT 3300 BR FEW018/// BKN029/// 02/02 Q0987=
202001290320 METAR ESMX 290320Z AUTO 19004KT 160V220 4600 BR FEW004/// OVC018/// 02/02 Q0987=
202001290250 METAR ESMX 290250Z AUTO 17004KT 5000 BR FEW008/// OVC019/// 02/02 Q0987=
202001290220 METAR ESMX 290220Z AUTO 22004KT 3700 BR OVC010/// 02/02 Q0986=
202001290150 METAR ESMX 290150Z AUTO 20004KT 4000 BR FEW003/// SCT010/// BKN013/// 02/02 Q0986=
202001290120 METAR ESMX 290120Z AUTO 15003KT 3700 BR FEW001/// BKN015/// 03/03 Q0986=
202001290050 METAR ESMX 290050Z AUTO 16003KT 5000 BR FEW003/// BKN049/// 03/03 Q0986 RERA=
202001290020 METAR ESMX 290020Z AUTO 18004KT 5000 BR BKN004/// OVC047/// 03/03 Q0986=
202001282350 METAR ESMX 282350Z AUTO 19005KT 6000 BR BKN005/// OVC008/// 03/03 Q0986 RESHUP REDZ=
202001282320 METAR ESMX 282320Z AUTO 18004KT 9999 FEW004/// BKN010/// BKN014/// 03/03 Q0986=
202001282250 METAR ESMX 282250Z AUTO 18006KT 7000 BR OVC004/// 03/03 Q0986 REDZ REUP=
202001282220 METAR ESMX 282220Z AUTO 16005KT 8000 BR SCT004/// OVC043/// 04/04 Q0986=
202001282150 METAR ESMX 282150Z AUTO 17004KT 7000 BR SCT004/// BKN016/// OVC042/// 03/03 Q0986=
202001282120 METAR ESMX 282120Z AUTO 20004KT 7000 BR BKN004/// BKN007/// OVC010/// 03/03 Q0986=
202001282050 METAR ESMX 282050Z AUTO 16004KT 8000 BR OVC003/// 03/03 Q0985=
202001282020 METAR ESMX 282020Z 16004KT 9000 BR OVC003 03/03 Q0985=
202001281950 METAR ESMX 281950Z 17005KT 9999 BKN003 03/03 Q0985=
202001281920 METAR ESMX 281920Z 16005KT 9000 BR OVC002 03/03 Q0985=
202001281850 METAR ESMX 281850Z 15005KT 9999 OVC002 03/03 Q0985=
202001281820 METAR ESMX 281820Z 16005KT 110V190 9999 OVC002 02/02 Q0986=
202001281750 METAR ESMX 281750Z 14004KT 110V170 3300 -DZ BR SCT002 BKN004 02/02 Q0985=
202001281720 METAR ESMX 281720Z 14005KT 9999 -DZ OVC005 02/02 Q0986=
202001281650 METAR ESMX 281650Z 15007KT 8000 -RA BKN006 02/02 Q0986=
202001281620 METAR ESMX 281620Z 14006KT 7000 -RA BKN006 02/02 Q0986=
202001281550 METAR ESMX 281550Z 14007KT 6000 -RA BKN007 03/03 Q0986=
202001281520 METAR ESMX 281520Z 16007KT 120V190 7000 -RA BKN007 04/03 Q0985=
202001281450 METAR ESMX 281450Z 14006KT 7000 -RA BKN007 04/04 Q0985=
202001281420 METAR ESMX 281420Z 14007KT 6000 -RA BKN008 04/04 Q0986=
202001281350 METAR ESMX 281350Z 15005KT 110V180 9000 -RA BKN006 04/04 Q0986=
202001281320 METAR ESMX 281320Z 14005KT 8000 -RA BKN007 05/04 Q0986=
202001281250 METAR ESMX 281250Z 13006KT 090V160 8000 -RA BR SCT006 BKN008 05/04 Q0986=
202001281220 METAR ESMX 281220Z 14008KT 100V160 8000 -RA BR BKN006 05/04 Q0987=
202001281150 METAR ESMX 281150Z 13006KT 080V160 9000 -RA OVC005 04/04 Q0987=
202001281120 METAR ESMX 281120Z 12006KT 080V160 6000 BR OVC003 04/04 Q0987=
202001281050 METAR ESMX 281050Z 12005KT 070V160 7000 OVC005 04/04 Q0988=
202001281020 METAR ESMX 281020Z 12005KT 060V160 6000 -RA BR OVC004 04/04 Q0988=
202001280950 METAR ESMX 280950Z 12005KT 070V200 6000 -RADZ BR OVC004 04/04 Q0989=
202001280920 METAR ESMX 280920Z 11005KT 070V150 8000 -RA BR OVC004 04/03 Q0989=
202001280850 METAR ESMX 280850Z 13005KT 080V170 7000 BR FEW002 BKN005 04/04 Q0990=
202001280820 METAR ESMX 280820Z 14009KT 110V170 8000 -RA BR BKN008 04/04 Q0990=
202001280750 METAR COR ESMX 280750Z 11007KT 060V150 9999 -RA BKN007 04/04 Q0990=
202001280720 METAR ESMX 280720Z 11005KT 030V150 8000 -RA BKN005 04/04 Q0991=
202001280650 METAR COR ESMX 280650Z 10004KT 030V160 7000 -RA OVC005 04/04 Q0991=
202001280620 METAR ESMX 280620Z 08004KT 030V130 7000 -RA OVC003 04/04 Q0992=
202001280550 METAR ESMX 280550Z 09004KT 010V150 1800 BR OVC001 04/04 Q0992=
202001280520 METAR COR ESMX 280520Z 11004KT 070V150 1600 BR OVC001 04/04 Q0993=
202001280450 METAR ESMX 280450Z 13004KT 070V170 1200 BR OVC001 04/04 Q0994=
202001280420 METAR ESMX 280420Z AUTO 12005KT 070V160 1000 R01/P2000N R19/P2000N -RA OVC001/// 04/04 Q0994 RESHUP REUP=
202001280350 METAR ESMX 280350Z AUTO 13006KT 080V170 0550 R01/1500N R19/1900N FG OVC001/// 04/04 Q0995=
202001280320 METAR ESMX 280320Z AUTO 14006KT 090V180 1500 BR OVC001/// 04/04 Q0995=
202001280250 METAR ESMX 280250Z AUTO 14006KT 2300 BR OVC002/// 04/04 Q0996=
202001280220 METAR ESMX 280220Z AUTO 14004KT 070V190 5000 BR OVC004/// 04/04 Q0996=
202001280150 METAR ESMX 280150Z AUTO 14006KT 100V170 7000 BR OVC005/// 04/04 Q0997=
202001280120 METAR ESMX 280120Z AUTO 14007KT 110V170 6000 BR OVC005/// 04/04 Q0997=
202001280050 METAR ESMX 280050Z AUTO 15008KT 6000 OVC004/// 04/04 Q0998=
202001280020 METAR ESMX 280020Z AUTO 16007KT 2800 OVC001/// 04/04 Q0998=
202001272350 METAR ESMX 272350Z AUTO 15006KT 0600 R01/1500N R19/1800D FG OVC001/// 04/04 Q0998=
202001272320 METAR ESMX 272320Z AUTO 15006KT 4100 BR BKN003/// BKN005/// OVC006/// 04/04 Q0999=
202001272250 METAR ESMX 272250Z AUTO 14005KT 6000 BR FEW007/// BKN010/// OVC016/// 04/04 Q0999=
202001272220 METAR ESMX 272220Z AUTO 16004KT 8000 BR SCT005/// BKN013/// OVC017/// 04/04 Q0999=
202001272150 METAR ESMX 272150Z AUTO 18007KT 9000 BR BKN005/// OVC011/// 04/04 Q1000=
202001272120 METAR ESMX 272120Z AUTO 18007KT 8000 BR OVC003/// 04/04 Q1000=
202001272050 METAR ESMX 272050Z AUTO 18009KT 5000 BR OVC002/// 04/04 Q1000=
202001272020 METAR ESMX 272020Z AUTO 19006KT 3500 BR OVC002/// 04/04 Q1000=
202001271950 METAR ESMX 271950Z 19006KT 5000 BR OVC002 04/04 Q1001=
202001271920 METAR ESMX 271920Z 18007KT 4500 BR OVC002 04/04 Q1001=
202001271850 METAR ESMX 271850Z 18007KT 2000 BR OVC002 04/04 Q1001=
202001271820 METAR ESMX 271820Z 18008KT 3200 -DZ BR OVC002 04/04 Q1001=
202001271750 METAR ESMX 271750Z 18009KT 2000 -RA OVC002 04/04 Q1001=
202001271720 METAR ESMX 271720Z 17008KT 6000 -RA OVC003 04/04 Q1001=
202001271650 METAR ESMX 271650Z 18008KT 7000 -DZ OVC004 04/04 Q1002=
202001271620 METAR ESMX 271620Z 17008KT 8000 -DZ OVC003 04/04 Q1002=
202001271550 METAR ESMX 271550Z 17008KT 7000 -DZ OVC004 04/04 Q1002=
202001271520 METAR ESMX 271520Z 17010KT 9999 -DZ OVC004 04/04 Q1002 RERA=
202001271450 METAR ESMX 271450Z 17010KT 6000 -RA OVC003 04/04 Q1002=
202001271420 METAR ESMX 271420Z 17010KT 7000 -DZ BR OVC003 04/04 Q1002=
202001271350 METAR ESMX 271350Z 15009KT 5000 -RA OVC003 04/04 Q1002=
202001271320 METAR ESMX 271320Z 15009KT 4800 RA OVC002 04/04 Q1003=
202001271250 METAR ESMX 271250Z 15008KT 3200 RA OVC002 04/04 Q1003=
202001271220 METAR ESMX 271220Z 15007KT 120V180 4400 -RA OVC002 03/03 Q1004=
202001271150 METAR ESMX 271150Z 17008KT 5000 BR OVC002 03/03 Q1004=
202001271120 METAR ESMX 271120Z 16008KT 130V200 2500 VV002 03/03 Q1004=
202001271050 METAR ESMX 271050Z 15009KT 1200 R01/1500N R19/1900D BR VV002 03/03 Q1005=
202001271020 METAR ESMX 271020Z 15008KT 0600 R01/0900N R19/1400D FG OVC001 03/03 Q1005=
202001270950 METAR ESMX 270950Z 17007KT 1000 R01/1500D R19/P2000N BR VV002 03/03 Q1006=
202001270920 METAR ESMX 270920Z 16008KT 1300 R01/1500N R19/P2000D BR VV002 03/03 Q1006=
202001270850 METAR ESMX 270850Z 17007KT 2700 BR OVC002 03/03 Q1006=
202001270820 METAR ESMX 270820Z 16007KT 120V190 7000 BR OVC003 03/03 Q1006=
202001270750 METAR ESMX 270750Z 16008KT 4700 BR OVC002 03/03 Q1007=
202001270720 METAR ESMX 270720Z 17007KT 3600 BR OVC002 03/03 Q1007=
202001270650 METAR ESMX 270650Z 17008KT 4200 BR OVC002 03/03 Q1007=
202001270620 METAR ESMX 270620Z 16006KT 110V190 5000 OVC003 03/03 Q1007=
202001270550 METAR ESMX 270550Z 17008KT 7000 BR OVC003 03/03 Q1008=
202001270520 METAR ESMX 270520Z 18009KT 7000 BR OVC004 03/03 Q1008=
202001270450 METAR ESMX 270450Z 17008KT 8000 BR OVC004 03/03 Q1008=
202001270420 METAR ESMX 270420Z AUTO 18007KT 8000 BR OVC005/// 03/03 Q1009=
202001270350 METAR ESMX 270350Z AUTO 16008KT 9000 BR OVC005/// 03/03 Q1009=
202001270320 METAR ESMX 270320Z AUTO 16007KT 130V190 8000 BR OVC005/// 03/03 Q1009=
202001270250 METAR ESMX 270250Z AUTO 16006KT 8000 BR OVC005/// 03/03 Q1009=
202001270220 METAR ESMX 270220Z AUTO 17006KT 7000 BR OVC005/// 03/03 Q1009=
202001270150 METAR ESMX 270150Z AUTO 17006KT 8000 BR OVC005/// 03/03 Q1010=
202001270120 METAR ESMX 270120Z AUTO 16006KT 9000 BR OVC006/// 03/03 Q1010=
202001270050 METAR ESMX 270050Z AUTO 17005KT 8000 BR OVC006/// 03/03 Q1010=
202001270020 METAR ESMX 270020Z AUTO 17006KT 9000 BR OVC006/// 03/03 Q1010=
202001262350 METAR ESMX 262350Z AUTO 19007KT 8000 BR OVC005/// 03/03 Q1011=
202001262320 METAR ESMX 262320Z AUTO 18007KT 8000 BR OVC006/// 03/03 Q1011=
202001262250 METAR ESMX 262250Z AUTO 19008KT 7000 BR OVC005/// 03/03 Q1011=
202001262220 METAR ESMX 262220Z AUTO 21010KT 8000 BR OVC006/// 03/03 Q1011=
202001262150 METAR ESMX 262150Z 20008KT 7000 BR OVC006 04/03 Q1011=
202001262120 METAR ESMX 262120Z 20007KT 7000 BR OVC007 04/04 Q1011=
202001262050 METAR ESMX 262050Z 19009KT 8000 BR OVC007 04/04 Q1011=
202001262020 METAR ESMX 262020Z 20007KT 7000 BR OVC007 04/04 Q1011=
202001261950 METAR ESMX 261950Z 21006KT 7000 BR OVC007 04/04 Q1011=
202001261920 METAR ESMX 261920Z 22007KT 8000 BR OVC007 04/04 Q1011=
202001261850 METAR ESMX 261850Z 22008KT 8000 BR OVC007 04/04 Q1011=
202001261820 METAR ESMX 261820Z 21007KT 8000 BR OVC007 04/04 Q1011=
202001261750 METAR ESMX 261750Z 23008KT 9000 BR OVC007 04/04 Q1011=
202001261720 METAR ESMX 261720Z 23007KT 9000 BR OVC008 04/04 Q1011=
202001261650 METAR ESMX 261650Z 23007KT 7000 BR OVC007 04/04 Q1011=
202001261620 METAR ESMX 261620Z 24006KT 6000 BR OVC006 05/04 Q1011=
202001261550 METAR ESMX 261550Z 23008KT 6000 BR OVC006 05/04 Q1011=
202001261520 METAR ESMX 261520Z 23007KT 6000 BR OVC006 05/04 Q1011=
202001261450 METAR ESMX 261450Z 24008KT 8000 BR OVC008 05/04 Q1011=
202001261420 METAR ESMX 261420Z 25008KT 9999 BKN010 05/04 Q1011=
202001261350 METAR ESMX 261350Z 23007KT 9999 BKN010 05/04 Q1011=
202001261320 METAR ESMX 261320Z 25008KT 9999 BKN007 05/04 Q1011=
202001261250 METAR ESMX 261250Z 24007KT 9999 BR BKN008 05/04 Q1011=
202001261220 METAR ESMX 261220Z 23009KT 200V260 6000 BR BKN006 04/04 Q1011=
202001261150 METAR ESMX 261150Z 24007KT 7000 BR OVC008 05/04 Q1012=
202001261120 METAR ESMX 261120Z AUTO 24008KT 8000 BR BKN009/// OVC013/// 04/04 Q1012=
202001261050 METAR ESMX 261050Z AUTO 24008KT 9999 BKN008/// BKN012/// OVC016/// 05/04 Q1012=
202001261020 METAR ESMX 261020Z 22009KT 8000 BR OVC007 04/04 Q1012=
202001260950 METAR ESMX 260950Z AUTO 23009KT 200V270 7000 BR BKN007/// OVC010/// 04/04 Q1012=
202001260920 METAR ESMX 260920Z 23008KT 9999 BKN008 04/04 Q1012=
202001260850 METAR ESMX 260850Z 24009KT 9999 BKN008 04/04 Q1012=
202001260820 METAR ESMX 260820Z 24008KT 9999 BKN008 04/04 Q1012=
202001260750 METAR ESMX 260750Z 23008KT 9999 BKN007 04/04 Q1012=
202001260720 METAR ESMX 260720Z 24008KT 8000 DZ BKN007 04/04 Q1012=
202001260650 METAR ESMX 260650Z 22009KT 9000 BR BKN005 OVC008 04/04 Q1012=
202001260620 METAR COR ESMX 260620Z 22008KT 8000 OVC004 04/04 Q1012=
202001260550 METAR ESMX 260550Z AUTO 23007KT 4700 BR BKN004/// OVC009/// 04/04 Q1011=
202001260520 METAR ESMX 260520Z AUTO 23007KT 4900 -DZ SCT004/// BKN006/// OVC008/// 04/04 Q1012 RESHUP REUP=
202001260450 METAR ESMX 260450Z AUTO 22007KT 190V250 5000 BR FEW003/// BKN007/// BKN011/// 04/04 Q1012 RESHUP=
202001260420 METAR ESMX 260420Z AUTO 24007KT 4200 UP OVC005/// 04/04 Q1012 REUP=
202001260350 METAR ESMX 260350Z AUTO 23008KT 9999 BKN005/// OVC008/// 04/04 Q1012=
202001260320 METAR ESMX 260320Z AUTO 22009KT 9999 FEW002/// OVC004/// 04/04 Q1012 RESHUP REDZ=
202001260250 METAR ESMX 260250Z AUTO 22009KT 4700 BR FEW002/// BKN004/// OVC008/// 04/04 Q1012 REDZ REUP=
202001260220 METAR ESMX 260220Z AUTO 24009KT 9999 BKN009/// OVC019/// 04/04 Q1012=
202001260150 METAR ESMX 260150Z AUTO 23009KT 9999 FEW008/// OVC012/// 04/04 Q1012=
202001260120 METAR ESMX 260120Z AUTO 24012KT 9999 FEW007/// SCT009/// OVC015/// 05/04 Q1012=
202001260050 METAR ESMX 260050Z AUTO 24010KT 9999 SCT006/// BKN008/// OVC012/// 05/05 Q1012=
202001260020 METAR ESMX 260020Z AUTO 23008KT 2600 -DZ FEW002/// BKN005/// BKN010/// 05/05 Q1013=
202001252350 METAR ESMX 252350Z AUTO 23009KT 7000 BR FEW002/// OVC004/// 05/05 Q1013 RERA=
202001252320 METAR ESMX 252320Z AUTO 22008KT 4300 -RA SCT002/// BKN004/// OVC005/// 05/05 Q1013 REDZ=
202001252250 METAR ESMX 252250Z AUTO 20007KT 4300 DZ FEW005/// OVC008/// 04/04 Q1013 REUP REDZ=
202001252220 METAR ESMX 252220Z AUTO 21008KT 9999 SCT009/// OVC024/// 04/04 Q1013=
202001252150 METAR ESMX 252150Z AUTO 21007KT 9999 OVC026/// 04/03 Q1013=
202001252120 METAR ESMX 252120Z AUTO 22007KT 9999 BKN025/// 04/03 Q1013=
202001252050 METAR ESMX 252050Z AUTO 24007KT 9999 OVC019/// 05/03 Q1013=
202001252020 METAR ESMX 252020Z AUTO 24010KT 200V270 9999 OVC015/// 05/03 Q1014=
202001251950 METAR ESMX 251950Z AUTO 24007KT 200V260 9999 SCT014/// OVC021/// 05/02 Q1014=
202001251920 METAR ESMX 251920Z AUTO 24007KT 9999 OVC014/// 05/03 Q1014=
202001251850 METAR ESMX 251850Z AUTO 23007KT 9999 OVC016/// 05/03 Q1014=
202001251820 METAR ESMX 251820Z AUTO 23007KT 9999 OVC020/// 05/03 Q1014=
202001251750 METAR ESMX 251750Z AUTO 22007KT 9999 SCT018/// OVC022/// 05/03 Q1014=
202001251720 METAR ESMX 251720Z AUTO 20005KT 9999 SCT016/// OVC025/// 05/03 Q1014=
202001251650 METAR ESMX 251650Z AUTO 22004KT 9999 OVC025/// 05/03 Q1014=
202001251620 METAR ESMX 251620Z AUTO 26005KT 9999 OVC023/// 05/02 Q1013=
202001251550 METAR ESMX 251550Z AUTO 22004KT 200V260 9999 OVC024/// 05/03 Q1013=
202001251520 METAR ESMX 251520Z AUTO 23005KT 210V270 9999 OVC024/// 05/03 Q1013=
202001251450 METAR ESMX 251450Z AUTO 24004KT 200V280 9999 BKN025/// 06/03 Q1013=
202001251420 METAR ESMX 251420Z AUTO 26006KT 9999 OVC025/// 06/03 Q1013=
202001251350 METAR ESMX 251350Z AUTO 25007KT 210V310 9999 BKN030/// 06/03 Q1013=
202001251320 METAR ESMX 251320Z AUTO 26009KT 230V290 9999 BKN032/// 06/03 Q1013=
202001251250 METAR ESMX 251250Z AUTO 26008KT 9999 SCT029/// 05/03 Q1013=
202001251220 METAR ESMX 251220Z AUTO 27008KT 240V300 9999 FEW020/// SCT030/// 06/03 Q1013=
202001251150 METAR ESMX 251150Z AUTO 26011KT 9999 BKN017/// 06/03 Q1013=
202001251120 METAR ESMX 251120Z AUTO 28008KT 250V320 9999 NCD 06/03 Q1013=
202001251050 METAR ESMX 251050Z AUTO 27008KT 240V300 9999 FEW010/// SCT012/// 05/04 Q1013=
202001251020 METAR ESMX 251020Z AUTO 26008KT 9999 OVC008/// 05/04 Q1013=
202001250950 METAR ESMX 250950Z AUTO 25007KT 210V280 9999 OVC007/// 05/04 Q1013=
202001250920 METAR ESMX 250920Z AUTO 25006KT 9999 OVC006/// 04/04 Q1013=
202001250850 METAR ESMX 250850Z AUTO 25005KT 9999 BKN007/// 04/03 Q1013=
202001250820 METAR ESMX 250820Z AUTO 25005KT 9999 FEW006/// 03/03 Q1012=
202001250750 METAR ESMX 250750Z AUTO 24004KT 9999 FEW007/// SCT027/// 03/03 Q1012=
202001250720 METAR ESMX 250720Z AUTO 25005KT 9999 SCT009/// BKN017/// OVC022/// 03/03 Q1012=
202001250650 METAR ESMX 250650Z AUTO 24005KT 9999 BKN015/// 03/03 Q1012=
202001250620 METAR ESMX 250620Z AUTO 24004KT 9999 BKN014/// 03/03 Q1011=
202001250550 METAR ESMX 250550Z AUTO 25005KT 9999 NCD 03/03 Q1011=
202001250520 METAR ESMX 250520Z AUTO 24006KT 210V280 9999 SCT014/// 03/03 Q1011=
202001250450 METAR ESMX 250450Z AUTO 23007KT 9999 -RA FEW014/// SCT029/// 03/03 Q1011=
202001250420 METAR ESMX 250420Z AUTO 24006KT 220V280 9000 -RA FEW012/// 03/03 Q1011=
202001250350 METAR ESMX 250350Z AUTO 24008KT 9999 -RA FEW016/// 03/03 Q1010=
202001250320 METAR ESMX 250320Z AUTO 25007KT 210V280 9999 -RA SCT014/// BKN023/// 04/03 Q1010=
202001250250 METAR ESMX 250250Z AUTO 26006KT 220V280 9000 -RA ///026 04/03 Q1010 REDZ=
202001250220 METAR ESMX 250220Z AUTO 24006KT 9999 FEW013/// OVC031/// 04/03 Q1010 RESHUP=
202001250150 METAR ESMX 250150Z AUTO 26007KT 230V290 9999 FEW021/// OVC027/// 05/02 Q1010 REUP REDZ=
202001250120 METAR ESMX 250120Z AUTO 27010KT 9999 BKN019/// OVC026/// 05/02 Q1010=
202001250050 METAR ESMX 250050Z AUTO 25009KT 9999 SCT019/// OVC031/// 05/03 Q1010=
202001250020 METAR ESMX 250020Z AUTO 26007KT 9999 FEW017/// OVC030/// 04/03 Q1010 REUP=
202001242350 METAR ESMX 242350Z AUTO 26009KT 9999 UP FEW018/// SCT024/// OVC031/// 05/02 Q1010=
202001242320 METAR ESMX 242320Z AUTO 26008KT 220V290 9999 FEW019/// SCT023/// OVC032/// 05/03 Q1010=
202001242250 METAR ESMX 242250Z AUTO 26010KT 9999 BKN020/// OVC030/// 05/02 Q1010=
202001242220 METAR ESMX 242220Z AUTO 26008KT 230V290 9999 BKN020/// OVC033/// 05/03 Q1010=
202001242150 METAR ESMX 242150Z AUTO 27010KT 240V300 9999 BKN020/// OVC028/// 05/02 Q1010=
202001242120 METAR ESMX 242120Z AUTO 27010KT 240V310 9999 BKN020/// OVC026/// 05/03 Q1010=
202001242050 METAR ESMX 242050Z 26012KT 9999 BKN030 05/03 Q1010=
202001242020 METAR ESMX 242020Z 27011KT 9999 SCT024 BKN030 05/02 Q1010=
202001241950 METAR ESMX 241950Z 26011KT 9999 SCT023 BKN030 05/03 Q1010=
202001241920 METAR ESMX 241920Z AUTO 26011KT 230V290 9999 SCT022/// BKN030/// 05/03 Q1010=
202001241850 METAR ESMX 241850Z AUTO 26012KT 9999 OVC029/// 05/03 Q1010=
202001241820 METAR ESMX 241820Z 27014KT 9999 BKN025 06/03 Q1010=
202001241750 METAR ESMX 241750Z 26013G25KT 210V310 9999 BKN021 06/03 Q1010=
202001241720 METAR ESMX 241720Z 26012KT 9999 SCT014 BKN019 06/05 Q1009=
202001241650 METAR ESMX 241650Z 25011KT 9999 FEW011 SCT014 BKN020 06/05 Q1009=
202001241620 METAR ESMX 241620Z 25012KT 9999 FEW007 BKN011 06/05 Q1009=
202001241550 METAR ESMX 241550Z 25011KT 220V280 9999 BKN007 06/06 Q1010=
202001241520 METAR ESMX 241520Z 25011KT 9999 SCT006 BKN008 06/06 Q1010=
202001241450 METAR ESMX 241450Z 25010KT 5000 BR OVC004 06/06 Q1010=
202001241420 METAR ESMX 241420Z 25009KT 6000 BR OVC004 06/06 Q1010=
202001241350 METAR ESMX 241350Z 26009KT 3000 -DZ OVC002 06/06 Q1011=
202001241320 METAR ESMX 241320Z 25010KT 3000 BR FEW002 BKN004 06/06 Q1011=
202001241250 METAR ESMX 241250Z 25011KT 3200 BR OVC005 06/06 Q1011=
202001241220 METAR ESMX 241220Z 26011KT 8000 BR OVC005 06/06 Q1011=
202001241150 METAR ESMX 241150Z 25011KT 220V280 9999 OVC007 06/06 Q1012=
202001241120 METAR ESMX 241120Z 25010KT 210V280 9999 OVC007 06/06 Q1012=
202001241050 METAR ESMX 241050Z 24011KT 9999 OVC006 06/06 Q1012=
202001241020 METAR ESMX 241020Z 25011KT 210V290 9999 OVC007 06/06 Q1012=
202001240950 METAR ESMX 240950Z 24013KT 9999 -RA OVC006 06/05 Q1012=
202001240920 METAR ESMX 240920Z 23011KT 9999 OVC007 06/05 Q1012=
202001240850 METAR ESMX 240850Z AUTO 25011KT 9999 OVC008/// 06/05 Q1012=
202001240820 METAR ESMX 240820Z AUTO 25010KT 9999 OVC008/// 06/05 Q1012=
202001240750 METAR ESMX 240750Z 26011KT 9999 OVC008 06/05 Q1012=
202001240720 METAR ESMX 240720Z 26012G22KT 9999 OVC008 06/05 Q1012=
202001240650 METAR COR ESMX 240650Z 26011KT 9999 OVC008 06/05 Q1012=
202001240620 METAR ESMX 240620Z 26013KT 9999 OVC007 06/05 Q1012=
202001240550 METAR ESMX 240550Z 24011KT 9999 OVC007 06/05 Q1012=
202001240520 METAR ESMX 240520Z 26012KT 220V290 9999 OVC007 06/05 Q1012=
202001240450 METAR ESMX 240450Z 26011G22KT 9999 BKN006 05/05 Q1012=
202001240420 METAR ESMX 240420Z AUTO 26011KT 5000 BR BKN007/// OVC009/// 06/05 Q1013=
202001240350 METAR ESMX 240350Z AUTO 27014KT 5000 BR OVC006/// 06/05 Q1013=
202001240320 METAR ESMX 240320Z AUTO 25013KT 9999 OVC007/// 06/05 Q1013=
202001240250 METAR ESMX 240250Z AUTO 26015KT 230V290 9999 OVC008/// 06/05 Q1013=
202001240220 METAR ESMX 240220Z AUTO 26015KT 9999 OVC009/// 06/05 Q1013=
202001240150 METAR ESMX 240150Z AUTO 26015KT 9999 OVC011/// 06/05 Q1013=
202001240120 METAR ESMX 240120Z AUTO 26013KT 9999 SCT007/// OVC011/// 06/05 Q1014=
202001240050 METAR ESMX 240050Z AUTO 27013KT 9999 OVC010/// 06/05 Q1015=
202001240020 METAR ESMX 240020Z AUTO 26012G22KT 9999 FEW006/// BKN010/// OVC013/// 06/05 Q1015=
202001232350 METAR ESMX 232350Z AUTO 26011KT 7000 BR BKN008/// OVC011/// 06/06 Q1015=
202001232320 METAR ESMX 232320Z AUTO 26015G25KT 9999 BKN009/// OVC012/// 06/06 Q1016=
202001232250 METAR ESMX 232250Z AUTO 26014G26KT 5000 BR FEW002/// BKN006/// OVC011/// 06/06 Q1016=
202001232220 METAR ESMX 232220Z AUTO 26013G24KT 4200 -DZ SCT006/// BKN007/// BKN010/// 07/06 Q1016 REDZ=
202001232150 METAR ESMX 232150Z AUTO 24012KT 220V280 4000 -DZ OVC005/// 07/06 Q1016=
202001232120 METAR ESMX 232120Z AUTO 25013KT 4300 -DZ BKN006/// OVC015/// 07/07 Q1016=
202001232050 METAR ESMX 232050Z 26014KT 230V290 6000 -DZ BKN005 07/07 Q1016=
202001232020 METAR ESMX 232020Z 26012KT 6000 BR OVC006 07/07 Q1017=
202001231950 METAR ESMX 231950Z AUTO 25012KT 9000 BR BKN007/// OVC008/// 07/07 Q1017=
202001231920 METAR ESMX 231920Z AUTO 26012KT 9999 BKN004/// OVC006/// 07/07 Q1017=
202001231850 METAR ESMX 231850Z 25012KT 9000 BR OVC003 07/07 Q1017=
202001231820 METAR ESMX 231820Z 25013KT 6000 -DZ BR OVC003 07/07 Q1018=
202001231750 METAR ESMX 231750Z 25011G23KT 6000 -DZ BR OVC003 06/06 Q1018=
202001231720 METAR ESMX 231720Z 23011KT 3100 DZ BR OVC002 06/06 Q1018=
202001231650 METAR ESMX 231650Z 25009KT 9999 -DZ OVC003 06/06 Q1019=
202001231620 METAR ESMX 231620Z 23009KT 2100 DZ BR OVC002 05/05 Q1019=
202001231550 METAR ESMX 231550Z 25009KT 210V280 2400 DZ OVC002 05/05 Q1019=
202001231520 METAR ESMX 231520Z 25010KT 2500 -DZ OVC002 05/05 Q1019=
202001231450 METAR ESMX 231450Z 25011KT 3200 BR OVC002 05/05 Q1019=
202001231420 METAR ESMX 231420Z 25012KT 8000 BR OVC005 05/05 Q1020=
202001231350 METAR ESMX 231350Z 25013KT 8000 BR OVC003 05/05 Q1020=
202001231320 METAR COR ESMX 231320Z 24011KT 5000 BR OVC003 05/05 Q1020=
202001231250 METAR ESMX 231250Z 24011KT 200V260 9000 BR OVC003 05/05 Q1021=
202001231220 METAR ESMX 231220Z 24013KT 5000 BR OVC002 04/04 Q1021=
202001231150 METAR ESMX 231150Z 24009KT 2300 BR OVC002 04/04 Q1022=
202001231120 METAR ESMX 231120Z 23009KT 190V260 2600 BR OVC002 04/04 Q1022=
202001231050 METAR ESMX 231050Z 24010KT 2400 BR OVC002 04/04 Q1023=
202001231020 METAR ESMX 231020Z 24009KT 200V260 3100 BR OVC002 03/03 Q1023=
202001230950 METAR ESMX 230950Z 25007KT 5000 BR BKN002 03/03 Q1024=
202001230920 METAR ESMX 230920Z 22007KT 9999 OVC005 02/02 Q1024=
202001230850 METAR ESMX 230850Z 24008KT 200V260 9999 OVC007 02/02 Q1024=
202001230820 METAR ESMX 230820Z 25008KT 9999 BKN006 01/01 Q1025=
202001230750 METAR ESMX 230750Z 22007KT 190V250 9999 BKN004 01/01 Q1025=
202001230720 METAR ESMX 230720Z 20005KT 9999 OVC002 00/00 Q1025=
202001230650 METAR ESMX 230650Z 21006KT 0750 R01/1800U R19/P2000N FZFG OVC002 M00/M00 Q1026=
202001230620 METAR ESMX 230620Z 22006KT 0800 R01/1900N R19/P2000N FZFG OVC002 M01/M01 Q1026=
202001230550 METAR ESMX 230550Z 23005KT 6000 BR BKN003 M01/M02 Q1026=
202001230520 METAR ESMX 230520Z 21005KT CAVOK M02/M03 Q1026=
202001230450 METAR ESMX 230450Z 21005KT CAVOK M02/M04 Q1027=
202001230420 METAR ESMX 230420Z AUTO 23005KT 9999 NCD M02/M04 Q1027=
202001230350 METAR ESMX 230350Z AUTO 18005KT 9999 NCD M04/M05 Q1027=
202001230320 METAR ESMX 230320Z AUTO 16003KT 9999 NCD M03/M05 Q1028=
202001230250 METAR ESMX 230250Z AUTO 22003KT 9999 NCD M03/M05 Q1028=
202001230220 METAR ESMX 230220Z AUTO 23003KT 9999 NCD M04/M05 Q1028=
202001230150 METAR ESMX 230150Z AUTO 21002KT 9999 NCD M03/M05 Q1028=
202001230120 METAR ESMX 230120Z AUTO 25004KT 9999 NCD M04/M05 Q1029=
202001230050 METAR ESMX 230050Z AUTO 24004KT 9999 NCD M03/M05 Q1029=
202001230020 METAR ESMX 230020Z AUTO VRB03KT 9999 NCD M03/M05 Q1029=
202001222350 METAR ESMX 222350Z AUTO 25005KT 9999 NCD M03/M05 Q1030=
202001222320 METAR ESMX 222320Z AUTO 25005KT 9999 NCD M03/M05 Q1030=
202001222250 METAR ESMX 222250Z AUTO 26003KT 9999 NCD M03/M05 Q1030=
202001222220 METAR ESMX 222220Z AUTO 27003KT 9999 NCD M03/M05 Q1030=
202001222150 METAR ESMX 222150Z AUTO 26003KT 9999 NCD M02/M04 Q1029=
202001222120 METAR ESMX 222120Z AUTO 26003KT 9999 NCD M02/M05 Q1029=
202001222050 METAR ESMX 222050Z 26003KT CAVOK M01/M05 Q1029=
202001222020 METAR ESMX 222020Z 27004KT CAVOK M02/M05 Q1029=
202001221950 METAR ESMX 221950Z 27005KT CAVOK M01/M05 Q1029=
202001221920 METAR ESMX 221920Z 28004KT 240V300 CAVOK M00/M05 Q1029=
202001221850 METAR ESMX 221850Z 30004KT CAVOK M00/M05 Q1028=
202001221820 METAR ESMX 221820Z 30005KT CAVOK 00/M05 Q1028=
202001221750 METAR ESMX 221750Z 30005KT CAVOK 01/M05 Q1028=
202001221720 METAR ESMX 221720Z 30006KT CAVOK 01/M05 Q1027=
202001221650 METAR ESMX 221650Z 31007KT CAVOK 01/M05 Q1027=
202001221620 METAR ESMX 221620Z 31006KT CAVOK 02/M05 Q1027=
202001221550 METAR ESMX 221550Z 31007KT CAVOK 02/M05 Q1027=
202001221520 METAR ESMX 221520Z 32008KT CAVOK 03/M05 Q1026=
202001221450 METAR ESMX 221450Z 34009KT CAVOK 04/M05 Q1026=
202001221420 METAR ESMX 221420Z 34012KT CAVOK 05/M04 Q1026=
202001221350 METAR ESMX 221350Z 33012KT CAVOK 05/M05 Q1025=
202001221320 METAR ESMX 221320Z 32014KT CAVOK 06/M05 Q1025=
202001221250 METAR ESMX 221250Z 34015KT CAVOK 06/M05 Q1025=
202001221220 METAR ESMX 221220Z 32016KT CAVOK 06/M05 Q1024=
202001221150 METAR ESMX 221150Z 34014KT 290V360 CAVOK 06/M04 Q1024=
202001221120 METAR ESMX 221120Z 33015KT CAVOK 06/M03 Q1024=
202001221050 METAR ESMX 221050Z 31014KT 280V340 CAVOK 06/M01 Q1023=
202001221020 METAR ESMX 221020Z 32014KT CAVOK 06/M01 Q1023=
202001220950 METAR ESMX 220950Z 32010KT CAVOK 05/M00 Q1023=
202001220920 METAR ESMX 220920Z AUTO 31009KT 9999 NCD 05/M00 Q1022=
202001220850 METAR ESMX 220850Z 30008KT CAVOK 03/00 Q1022=
202001220820 METAR ESMX 220820Z 29007KT CAVOK 03/01 Q1021=
202001220750 METAR ESMX 220750Z 30007KT CAVOK 02/01 Q1021=
202001220720 METAR ESMX 220720Z 28008KT 250V320 CAVOK 03/01 Q1021=
202001220650 METAR ESMX 220650Z 30008KT CAVOK 02/01 Q1020=
202001220620 METAR ESMX 220620Z 29007KT 260V330 CAVOK 03/01 Q1020=
202001220550 METAR ESMX 220550Z 29008KT CAVOK 03/01 Q1020=
202001220520 METAR ESMX 220520Z 29006KT CAVOK 02/01 Q1020=
202001220450 METAR ESMX 220450Z 29006KT CAVOK 03/01 Q1020=
202001220420 METAR ESMX 220420Z AUTO 29007KT 260V330 9999 NCD 03/01 Q1020=
202001220350 METAR ESMX 220350Z AUTO 30009KT 260V330 9999 NCD 03/02 Q1019=
202001220320 METAR ESMX 220320Z AUTO 29008KT 9999 FEW130/// 04/02 Q1019=
202001220250 METAR ESMX 220250Z AUTO 28011KT 9999 BKN140/// 04/02 Q1019=
202001220220 METAR ESMX 220220Z AUTO 28011KT 9999 SCT130/// 04/02 Q1019=
202001220150 METAR ESMX 220150Z AUTO 27012KT 230V290 9999 FEW018/// 04/02 Q1019=
202001220120 METAR ESMX 220120Z AUTO 28013KT 250V320 9999 BKN017/// 05/02 Q1019=
202001220050 METAR ESMX 220050Z AUTO 27012G23KT 9999 BKN017/// OVC100/// 05/02 Q1019=
202001220020 METAR ESMX 220020Z AUTO 27010KT 250V320 9999 OVC017/// 05/02 Q1020=
202001212350 METAR ESMX 212350Z AUTO 28009KT 9999 OVC017/// 05/02 Q1020=
202001212320 METAR ESMX 212320Z AUTO 27012KT 240V300 9999 OVC017/// 05/02 Q1021=
202001212250 METAR ESMX 212250Z AUTO 28013KT 9999 OVC017/// 05/03 Q1021=
202001212220 METAR ESMX 212220Z AUTO 26012KT 9999 BKN019/// OVC140/// 05/03 Q1020=
202001212150 METAR ESMX 212150Z AUTO 27014KT 9999 OVC019/// 05/03 Q1021=
202001212120 METAR ESMX 212120Z AUTO 27011KT 9999 OVC018/// 05/03 Q1021=
202001212050 METAR ESMX 212050Z AUTO 27010KT 9999 OVC018/// 05/03 Q1022=
202001212020 METAR ESMX 212020Z AUTO 26008KT 9999 BKN020/// BKN210/// 05/03 Q1022=
202001211950 METAR ESMX 211950Z 27011KT 9999 BKN019 05/03 Q1023=
202001211920 METAR ESMX 211920Z 27011KT 230V300 9999 BKN020 06/03 Q1023=
202001211850 METAR ESMX 211850Z 28011KT 250V320 9999 BKN019 06/03 Q1023=
202001211820 METAR ESMX 211820Z 27012G26KT 9999 BKN018 06/04 Q1023=
202001211750 METAR ESMX 211750Z 27010KT 220V300 9999 OVC018 06/04 Q1024=
202001211720 METAR ESMX 211720Z 27011KT 240V300 9999 BKN018 06/04 Q1024=
202001211650 METAR ESMX 211650Z 26010KT 9999 BKN018 07/04 Q1024=
202001211620 METAR ESMX 211620Z 27011KT 230V290 9999 BKN018 07/05 Q1024=
202001211550 METAR ESMX 211550Z 26013G24KT 9999 BKN016 07/05 Q1024=
202001211520 METAR ESMX 211520Z 26011KT 9999 FEW007 BKN011 07/06 Q1024=
202001211450 METAR ESMX 211450Z 26011KT 8000 BR OVC006 07/06 Q1024=
202001211420 METAR ESMX 211420Z 26014G24KT 230V290 9000 BR OVC006 07/06 Q1025=
202001211350 METAR ESMX 211350Z 26011KT 240V300 7000 BR OVC005 07/06 Q1025=
202001211320 METAR ESMX 211320Z 26010KT 220V280 5000 BR OVC005 06/06 Q1025=
202001211250 METAR COR ESMX 211250Z 25010KT 220V290 3900 -RA OVC005 06/06 Q1025=
202001211220 METAR ESMX 211220Z AUTO 26011KT 230V290 4500 BR OVC004/// 06/06 Q1025=
202001211150 METAR ESMX 211150Z 27014KT 7000 BR OVC005 06/06 Q1025=
202001211120 METAR ESMX 211120Z 26014G25KT 6000 -DZ OVC003 06/06 Q1025=
202001211050 METAR ESMX 211050Z 27016KT 6000 -DZ OVC003 06/06 Q1025=
202001211020 METAR ESMX 211020Z 26015KT 5000 BR OVC003 06/06 Q1025=
202001210950 METAR COR ESMX 210950Z 26015KT 5000 BR -RA OVC003 06/06 Q1025=
202001210920 METAR ESMX 210920Z 26012KT 4200 BR BKN002 06/06 Q1025=
202001210850 METAR ESMX 210850Z 24013KT 210V290 9999 OVC005 06/06 Q1025=
202001210820 METAR ESMX 210820Z 25013G24KT 9999 OVC004 06/06 Q1025=
202001210750 METAR ESMX 210750Z 24013KT 2600 DZ OVC002 05/05 Q1025=
202001210720 METAR ESMX 210720Z 24013KT 210V270 3500 BR OVC002 05/05 Q1026=
202001210650 METAR COR ESMX 210650Z 25013KT 210V280 4700 BR OVC003 05/05 Q1026=
202001210620 METAR COR ESMX 210620Z 25015G26KT 6000 BR OVC004 05/05 Q1026=
202001210550 METAR ESMX 210550Z 26016KT 6000 BR OVC004 05/05 Q1026=
202001210520 METAR ESMX 210520Z 26015KT 9999 OVC005 05/05 Q1027=
202001210450 METAR ESMX 210450Z 26016KT 7000 BR OVC004 05/05 Q1027=
202001210420 METAR ESMX 210420Z AUTO 26014G25KT 9999 OVC004/// 05/05 Q1027=
202001210350 METAR ESMX 210350Z AUTO 26017KT 230V290 7000 BR OVC003/// 05/05 Q1027=
202001210320 METAR ESMX 210320Z AUTO 24016G27KT 6000 BR OVC003/// 05/05 Q1027=
202001210250 METAR ESMX 210250Z AUTO 25013KT 7000 BR OVC003/// 05/05 Q1028=
202001210220 METAR ESMX 210220Z AUTO 24014KT 9999 OVC004/// 05/05 Q1028=
202001210150 METAR ESMX 210150Z AUTO 23014G25KT 9999 OVC006/// 05/05 Q1028=
202001210120 METAR ESMX 210120Z AUTO 25012G23KT 9999 OVC007/// 05/05 Q1029=
202001210050 METAR ESMX 210050Z AUTO 25011KT 9999 OVC007/// 05/05 Q1029=
202001210020 METAR ESMX 210020Z AUTO 24012KT 9999 OVC007/// 05/05 Q1030=
202001202350 METAR ESMX 202350Z AUTO 25011KT 210V290 9999 OVC006/// 05/05 Q1030=
202001202320 METAR ESMX 202320Z AUTO 23009KT 9999 FEW006/// OVC008/// 05/04 Q1030=
202001202250 METAR ESMX 202250Z AUTO 23013KT 9999 OVC008/// 05/05 Q1030=
202001202220 METAR ESMX 202220Z AUTO 25011KT 220V290 9999 OVC009/// 05/05 Q1031=
202001202150 METAR ESMX 202150Z AUTO 24011KT 9999 OVC007/// 05/05 Q1031=
202001202120 METAR ESMX 202120Z AUTO 25013KT 9999 OVC007/// 06/05 Q1032=
202001202050 METAR ESMX 202050Z AUTO 26013KT 9999 OVC007/// 06/05 Q1032=
202001202020 METAR ESMX 202020Z AUTO 25011G23KT 9999 OVC007/// 06/05 Q1031=
202001201950 METAR ESMX 201950Z 25013KT 9000 BKN005 06/05 Q1032=
202001201920 METAR ESMX 201920Z 26012KT 9999 BKN006 06/05 Q1032=
202001201850 METAR ESMX 201850Z 26012KT 9999 BKN007 06/05 Q1032=
202001201820 METAR ESMX 201820Z 25011KT 210V280 9999 BKN009 06/04 Q1032=
202001201750 METAR ESMX 201750Z 26012KT 9999 BKN011 05/04 Q1032=
202001201720 METAR ESMX 201720Z 26013KT 9999 BKN012 05/04 Q1033=
202001201650 METAR ESMX 201650Z 26014KT 9999 BKN013 05/04 Q1033=
202001201620 METAR ESMX 201620Z 25014KT 210V280 9999 BKN013 05/04 Q1033=
202001201550 METAR ESMX 201550Z 25011KT 9999 BKN013 05/04 Q1033=
202001201520 METAR ESMX 201520Z 25011KT 210V290 9999 BKN014 05/04 Q1033=
202001201450 METAR ESMX 201450Z 25012KT 210V270 9999 BKN015 05/04 Q1034=
202001201420 METAR ESMX 201420Z 26012KT 230V290 9999 BKN014 06/04 Q1034=
202001201350 METAR ESMX 201350Z 26015KT 9999 BKN014 06/04 Q1034=
202001201320 METAR ESMX 201320Z 26014KT 9999 BKN013 06/04 Q1034=
202001201250 METAR ESMX 201250Z 25013KT 9999 BKN013 06/04 Q1034=
202001201220 METAR ESMX 201220Z 25012KT 9999 BKN012 05/04 Q1034=
202001201150 METAR ESMX 201150Z 23010KT 210V270 9999 BKN012 05/04 Q1035=
202001201120 METAR ESMX 201120Z 23011KT 9999 BKN010 05/04 Q1035=
202001201050 METAR ESMX 201050Z 24010KT 9999 BKN009 05/04 Q1035=
202001201020 METAR ESMX 201020Z 24010KT 210V270 9999 BKN009 04/04 Q1035=
202001200950 METAR ESMX 200950Z 23009KT 9999 SCT009 04/04 Q1035=
202001200920 METAR ESMX 200920Z 23009KT 9999 SCT007 BKN009 04/04 Q1035=
202001200850 METAR ESMX 200850Z 25009KT 9999 BKN006 04/04 Q1036=
202001200820 METAR ESMX 200820Z 23008KT 9999 OVC003 03/03 Q1036=
202001200750 METAR ESMX 200750Z 23007KT 3500 BR OVC002 03/03 Q1035=
202001200720 METAR ESMX 200720Z 22008KT 0600 R01/1400N R19/1500N FG VV002 02/02 Q1035=
202001200650 METAR ESMX 200650Z 22007KT 0450 R01/1200N R19/1500N FG VV002 02/02 Q1035=
202001200620 METAR ESMX 200620Z 23007KT 0650 R01/1600D R19/1900N FG VV002 01/01 Q1035=
202001200550 METAR ESMX 200550Z 22006KT 200V260 0600 R01/1500U R19/1600U FG VV002 01/01 Q1036=
202001200520 METAR ESMX 200520Z 22007KT 2100 BR OVC002 01/01 Q1036=
202001200450 METAR ESMX 200450Z 22007KT 9999 OVC003 00/00 Q1036=
202001200420 METAR ESMX 200420Z AUTO 22005KT 9999 FEW003/// M00/M00 Q1036=
202001200350 METAR ESMX 200350Z AUTO 23006KT 9999 NCD M00/M00 Q1036=
202001200320 METAR ESMX 200320Z AUTO 22005KT 9999 NCD M01/M01 Q1036=
202001200250 METAR ESMX 200250Z AUTO 23004KT 200V260 9999 NCD M01/M01 Q1037=
202001200220 METAR ESMX 200220Z AUTO 22004KT 9999 NCD M01/M01 Q1036=
202001200150 METAR ESMX 200150Z AUTO VRB03KT 9999 NCD M01/M01 Q1037=
202001200120 METAR ESMX 200120Z AUTO 23004KT 9999 NCD M01/M01 Q1037=
202001200050 METAR ESMX 200050Z AUTO 23004KT 9999 NCD M01/M01 Q1036=
202001200020 METAR ESMX 200020Z AUTO 23005KT 9999 NCD M01/M01 Q1037=
202001192350 METAR ESMX 192350Z AUTO 22003KT 9999 NCD M01/M01 Q1036=
202001192320 METAR ESMX 192320Z AUTO 23004KT 9999 NCD M01/M01 Q1036=
202001192250 METAR ESMX 192250Z AUTO 24004KT 9999 NCD M01/M01 Q1036=
202001192220 METAR ESMX 192220Z AUTO 25004KT 9999 NCD M01/M01 Q1036=
202001192150 METAR ESMX 192150Z AUTO 22003KT 9999 NCD M02/M02 Q1036=
202001192120 METAR ESMX 192120Z 25003KT CAVOK M03/M03 Q1036=
202001192050 METAR ESMX 192050Z 18003KT CAVOK M00/M00 Q1035=
202001192020 METAR ESMX 192020Z AUTO 24004KT 9999 NCD M02/M02 Q1035=
202001191950 METAR ESMX 191950Z 25004KT CAVOK M02/M02 Q1034=
202001191920 METAR ESMX 191920Z 23003KT CAVOK 00/00 Q1034=
202001191850 METAR ESMX 191850Z 27004KT CAVOK M00/M00 Q1035=
202001191820 METAR ESMX 191820Z AUTO 27005KT 9999 NCD 00/00 Q1034=
202001191750 METAR ESMX 191750Z 26004KT CAVOK M00/M00 Q1033=
202001191720 METAR ESMX 191720Z 27003KT CAVOK M00/M00 Q1033=
202001191650 METAR ESMX 191650Z 25003KT CAVOK M01/M01 Q1033=
202001191620 METAR ESMX 191620Z 25003KT CAVOK M00/M00 Q1032=
202001191550 METAR ESMX 191550Z 24002KT CAVOK 00/M00 Q1032=
202001191520 METAR ESMX 191520Z 28003KT CAVOK 02/02 Q1031=
202001191450 METAR ESMX 191450Z 27003KT CAVOK 03/02 Q1031=
202001191420 METAR ESMX 191420Z 24005KT CAVOK 03/02 Q1030=
202001191350 METAR ESMX 191350Z 26005KT 9999 FEW010 04/02 Q1030=
202001191320 METAR ESMX 191320Z 27006KT 9999 SCT010 04/03 Q1029=
202001191250 METAR ESMX 191250Z 27006KT 9999 BKN010 04/03 Q1029=
202001191220 METAR ESMX 191220Z 25005KT 230V290 9999 SCT010 04/02 Q1029=
202001191150 METAR ESMX 191150Z 25006KT 220V290 9999 SCT010 04/03 Q1028=
202001191120 METAR ESMX 191120Z 25007KT 9999 BKN008 04/02 Q1028=
202001191050 METAR ESMX 191050Z 29006KT 9999 BKN008 04/02 Q1027=
202001191020 METAR ESMX 191020Z 29006KT 9999 BKN008 04/03 Q1027=
202001190950 METAR ESMX 190950Z 26007KT 9999 BKN007 03/03 Q1027=
202001190920 METAR COR ESMX 190920Z 28006KT 9999 BKN007 03/02 Q1026=
202001190850 METAR COR ESMX 190850Z 27005KT 9999 BKN007 03/02 Q1026=
202001190820 METAR ESMX 190820Z AUTO 26006KT 220V290 9999 OVC007/// 03/02 Q1025=
202001190750 METAR ESMX 190750Z 26007KT 230V290 9999 BKN007 03/03 Q1024=
202001190720 METAR COR ESMX 190720Z 26005KT 9999 BKN008 03/02 Q1024=
202001190650 METAR ESMX 190650Z 25007KT 200V280 9999 BKN009 03/03 Q1023=
202001190620 METAR COR ESMX 190620Z 25005KT 9999 BKN010 03/02 Q1022=
202001190550 METAR ESMX 190550Z AUTO 26006KT 9999 BKN011/// 03/03 Q1022=
202001190520 METAR ESMX 190520Z AUTO 26005KT 9999 BKN011/// 03/02 Q1021=
202001190450 METAR ESMX 190450Z AUTO 27007KT 230V310 9999 OVC011/// 04/03 Q1021=
202001190420 METAR ESMX 190420Z AUTO 27007KT 9999 OVC011/// 04/03 Q1020=
202001190350 METAR ESMX 190350Z AUTO 26007KT 230V300 9999 OVC012/// 04/03 Q1019=
202001190320 METAR ESMX 190320Z AUTO 26007KT 9999 OVC013/// 04/03 Q1019=
202001190250 METAR ESMX 190250Z AUTO 26007KT 230V290 9999 OVC015/// 04/03 Q1019=
202001190220 METAR ESMX 190220Z AUTO 24008KT 9999 OVC016/// 04/03 Q1018=
202001190150 METAR ESMX 190150Z AUTO 25007KT 9999 OVC016/// 04/03 Q1018=
202001190120 METAR ESMX 190120Z AUTO 25007KT 9999 OVC016/// 05/03 Q1017=
202001190050 METAR ESMX 190050Z AUTO 23007KT 9999 FEW012/// OVC017/// 05/04 Q1017=
202001190020 METAR ESMX 190020Z AUTO 25007KT 9999 OVC016/// 05/04 Q1016=
202001182350 METAR ESMX 182350Z AUTO 25009KT 230V290 9999 OVC013/// 05/04 Q1016=
202001182320 METAR ESMX 182320Z AUTO 25009KT 9999 BKN013/// OVC017/// 05/04 Q1015 RESHUP REUP=
202001182250 METAR ESMX 182250Z AUTO 24009KT 9999 FEW008/// SCT011/// BKN014/// 05/04 Q1015=
202001182220 METAR ESMX 182220Z AUTO 24009KT 9999 BKN008/// BKN012/// OVC019/// 05/04 Q1014=
202001182150 METAR ESMX 182150Z AUTO 24009KT 9999 BKN007/// OVC010/// 05/04 Q1014=
202001182120 METAR ESMX 182120Z AUTO 24010KT 9999 BKN007/// OVC010/// 05/05 Q1013=
202001182050 METAR ESMX 182050Z AUTO 24011KT 9000 BR OVC006/// 05/05 Q1013=
202001182020 METAR ESMX 182020Z AUTO 22010KT 7000 BR OVC006/// 05/05 Q1013 RESHUP=
202001181950 METAR ESMX 181950Z AUTO 23010KT 8000 -DZ BKN006/// OVC009/// 05/04 Q1012 RERA REDZ=
202001181920 METAR ESMX 181920Z AUTO 22012KT 9999 -DZ OVC007/// 05/04 Q1012=
202001181850 METAR ESMX 181850Z AUTO 22012KT 9999 -RA OVC007/// 04/04 Q1012=
202001181820 METAR ESMX 181820Z AUTO 22012KT 9999 -RA BKN006/// OVC007/// 04/04 Q1012 RESHUP RERA=
202001181750 METAR ESMX 181750Z AUTO 22013KT 6000 BR BKN006/// OVC008/// 04/04 Q1011 RERA=
202001181720 METAR ESMX 181720Z AUTO 20015KT 8000 BR OVC006/// 04/04 Q1011=
202001181650 METAR ESMX 181650Z AUTO 21014KT 6000 -DZ FEW002/// OVC005/// 04/04 Q1011=
202001181620 METAR ESMX 181620Z AUTO 20014KT 5000 -DZ OVC006/// 04/04 Q1011=
202001181550 METAR ESMX 181550Z AUTO 20013KT 6000 DZ BKN007/// OVC009/// 04/04 Q1010=
202001181520 METAR ESMX 181520Z AUTO 20014KT 8000 BKN006/// BKN010/// OVC013/// 04/04 Q1010=
202001181450 METAR ESMX 181450Z AUTO 20011KT 3700 BR SCT006/// BKN013/// BKN021/// 04/04 Q1010=
202001181420 METAR ESMX 181420Z AUTO 20013KT 2200 DZ FEW002/// SCT005/// BKN008/// 04/04 Q1010=
202001181350 METAR ESMX 181350Z AUTO 19013KT 7000 BR SCT006/// OVC010/// 04/04 Q1010 RERA=
202001181320 METAR ESMX 181320Z AUTO 21014KT 9999 BKN013/// OVC016/// 04/03 Q1010=
202001181250 METAR ESMX 181250Z AUTO 20015KT 9999 OVC015/// 05/03 Q1010 REUP RESHUP=
202001181220 METAR ESMX 181220Z AUTO 21013KT 9999 OVC016/// 05/03 Q1010=
202001181150 METAR ESMX 181150Z AUTO 21012KT 9999 FEW011/// BKN016/// OVC024/// 05/03 Q1010=
202001181120 METAR ESMX 181120Z AUTO 20013KT 9999 BKN014/// OVC021/// 04/04 Q1010=
202001181050 METAR ESMX 181050Z AUTO 22012KT 9000 -DZ SCT009/// BKN014/// OVC022/// 05/04 Q1010 RESHUP REUP REDZ=
202001181020 METAR ESMX 181020Z AUTO 20014KT 9999 BKN014/// OVC024/// 05/04 Q1010=
202001180950 METAR ESMX 180950Z AUTO 20013KT 9999 FEW004/// SCT010/// BKN014/// 05/04 Q1010=
202001180920 METAR ESMX 180920Z AUTO 20012KT 9999 BKN010/// OVC012/// 05/04 Q1010=
202001180850 METAR ESMX 180850Z AUTO 19013KT 9999 BKN009/// OVC038/// 05/05 Q1010=
202001180820 METAR ESMX 180820Z AUTO 21010KT 9999 FEW007/// BKN009/// BKN011/// 05/05 Q1009=
202001180750 METAR ESMX 180750Z AUTO 20010KT 9999 OVC007/// 06/05 Q1009=
202001180720 METAR ESMX 180720Z AUTO 21009KT 9999 SCT007/// BKN008/// OVC011/// 06/05 Q1009=
202001180650 METAR ESMX 180650Z AUTO 20010KT 9999 BKN006/// OVC008/// 06/05 Q1009=
202001180620 METAR ESMX 180620Z AUTO 20010KT 6000 BR BKN002/// OVC004/// 05/05 Q1009=
202001180550 METAR ESMX 180550Z AUTO 21010KT 2200 -DZ OVC002/// 05/05 Q1008 REDZ=
202001180520 METAR ESMX 180520Z AUTO 19010KT 4300 BR OVC002/// 05/05 Q1008=
202001180450 METAR ESMX 180450Z AUTO 19010KT 4300 DZ OVC002/// 05/05 Q1008=
202001180420 METAR ESMX 180420Z AUTO 19009KT 2400 DZ OVC002/// 04/04 Q1008 REDZ=
202001180350 METAR ESMX 180350Z AUTO 19009KT 4800 -DZ OVC003/// 04/04 Q1009 REDZ=
202001180320 METAR ESMX 180320Z AUTO 18009KT 3400 DZ OVC003/// 04/04 Q1009 REDZ=
202001180250 METAR ESMX 180250Z AUTO 17008KT 3300 -RA OVC002/// 04/04 Q1009 REDZ=
202001180220 METAR ESMX 180220Z AUTO 17008KT 2000 DZ OVC002/// 04/04 Q1009=
202001180150 METAR ESMX 180150Z AUTO 17008KT 2000 -RA BKN002/// OVC003/// 04/04 Q1009 REDZ REUP RESHUP=
202001180120 METAR ESMX 180120Z AUTO 17007KT 5000 BR OVC005/// 04/04 Q1009=
202001180050 METAR ESMX 180050Z AUTO 17008KT 6000 BR OVC005/// 04/04 Q1008=
202001180020 METAR ESMX 180020Z AUTO 17007KT 7000 BR OVC006/// 04/04 Q1009=
202001172350 METAR ESMX 172350Z AUTO 16006KT 7000 BR OVC005/// 04/04 Q1009=
202001172320 METAR ESMX 172320Z AUTO 17007KT 6000 BR OVC005/// 04/04 Q1009=
202001172250 METAR ESMX 172250Z AUTO 17008KT 6000 BR OVC005/// 04/04 Q1010=
202001172220 METAR ESMX 172220Z AUTO 17008KT 6000 BR OVC004/// 04/04 Q1010=
202001172150 METAR ESMX 172150Z AUTO 16008KT 6000 BR OVC005/// 04/04 Q1010=
202001172120 METAR ESMX 172120Z AUTO 16008KT 7000 BR OVC006/// 04/04 Q1010=
202001172050 METAR ESMX 172050Z 15009KT 7000 BR OVC006 04/04 Q1011=
202001172020 METAR ESMX 172020Z 15008KT 8000 BR BKN007 04/04 Q1011=
202001171950 METAR ESMX 171950Z 15010KT 9000 BR BKN008 05/04 Q1012=
202001171920 METAR ESMX 171920Z 15009KT 9000 BR BKN007 05/04 Q1012=
202001171850 METAR ESMX 171850Z AUTO 16008KT 9999 OVC007/// 04/04 Q1013=
202001171820 METAR ESMX 171820Z 15008KT 9999 BKN006 05/04 Q1013=
202001171750 METAR ESMX 171750Z 15010KT 9000 BR BKN006 05/04 Q1013=
202001171720 METAR ESMX 171720Z 15008KT 8000 BR BKN007 04/04 Q1013=
202001171650 METAR ESMX 171650Z 15008KT 120V190 7000 BR SCT006 04/04 Q1013=
202001171620 METAR ESMX 171620Z 14009KT 6000 BR FEW005 05/04 Q1014=
202001171550 METAR ESMX 171550Z 15010KT CAVOK 05/05 Q1014=
202001171520 METAR ESMX 171520Z 15010KT CAVOK 06/05 Q1014=
202001171450 METAR ESMX 171450Z 15010KT CAVOK 06/05 Q1014=
202001171420 METAR ESMX 171420Z 15009KT CAVOK 06/05 Q1015=
202001171350 METAR ESMX 171350Z 15009KT CAVOK 07/05 Q1015=
202001171320 METAR ESMX 171320Z 16009KT CAVOK 07/05 Q1015=
202001171250 METAR ESMX 171250Z 15009KT CAVOK 07/05 Q1016=
202001171220 METAR ESMX 171220Z 17009KT 9999 FEW007 06/05 Q1016=
202001171150 METAR ESMX 171150Z 16009KT 8000 BR BKN006 06/05 Q1017=
202001171120 METAR ESMX 171120Z 17011KT 8000 BR BKN006 06/05 Q1017=
202001171050 METAR ESMX 171050Z 16010KT 7000 BR BKN005 05/05 Q1017=
202001171020 METAR ESMX 171020Z 17009KT 6000 BR OVC004 05/05 Q1018=
202001170950 METAR ESMX 170950Z 17010KT 5000 BR OVC004 05/05 Q1018=
202001170920 METAR ESMX 170920Z 17008KT 5000 BR OVC003 05/05 Q1018=
202001170850 METAR ESMX 170850Z 16008KT 110V180 4000 BR OVC003 05/05 Q1018=
202001170820 METAR ESMX 170820Z 17009KT 4600 BR OVC003 05/05 Q1018=
202001170750 METAR ESMX 170750Z 17008KT 6000 BR OVC003 05/05 Q1019=
202001170720 METAR ESMX 170720Z AUTO 16008KT 130V190 8000 BR OVC004/// 05/04 Q1019=
202001170650 METAR COR ESMX 170650Z 17008KT 9000 BR OVC004 05/04 Q1019=
202001170620 METAR ESMX 170620Z 15008KT 8000 BR OVC003 04/04 Q1019=
202001170550 METAR ESMX 170550Z 16007KT 9000 BR OVC003 04/04 Q1019=
202001170520 METAR ESMX 170520Z 16008KT 7000 BR OVC003 04/04 Q1020=
202001170450 METAR ESMX 170450Z 17008KT 7000 BR OVC003 04/04 Q1020=
202001170420 METAR ESMX 170420Z AUTO 17008KT 7000 BR BKN004/// OVC006/// 03/03 Q1020=
202001170350 METAR ESMX 170350Z AUTO 16008KT 9000 BR BKN005/// 03/03 Q1020=
202001170320 METAR ESMX 170320Z AUTO 16008KT 9999 FEW007/// BKN210/// 03/03 Q1021=
202001170250 METAR ESMX 170250Z AUTO 17006KT 9999 FEW006/// BKN029/// OVC210/// 03/03 Q1021=
202001170220 METAR ESMX 170220Z AUTO 17007KT 9999 OVC006/// 04/03 Q1022=
202001170150 METAR ESMX 170150Z AUTO 18008KT 9999 OVC006/// 04/03 Q1022=
202001170120 METAR ESMX 170120Z AUTO 17010KT 9999 OVC007/// 04/03 Q1022=
202001170050 METAR ESMX 170050Z AUTO 17008KT 9999 OVC007/// 04/03 Q1023=
202001170020 METAR ESMX 170020Z AUTO 18008KT 9999 OVC008/// 04/03 Q1023=
202001162350 METAR ESMX 162350Z AUTO 18008KT 9999 OVC009/// 04/03 Q1023=
202001162320 METAR ESMX 162320Z AUTO 19009KT 9999 OVC010/// 04/03 Q1023=
202001162250 METAR ESMX 162250Z 20010KT 9999 OVC011 05/03 Q1023=
202001162220 METAR COR ESMX 162220Z 19008KT 9999 BKN011 05/03 Q1023=
202001162150 METAR ESMX 162150Z AUTO 20008KT 9999 OVC012/// 05/04 Q1024=
202001162120 METAR ESMX 162120Z 23011KT 9999 OVC011 05/04 Q1024=
202001162050 METAR ESMX 162050Z 22009KT 9999 BKN012 05/04 Q1023=
202001162020 METAR COR ESMX 162020Z 23009KT 200V260 9999 BKN012 06/04 Q1023=
202001161950 METAR ESMX 161950Z 23008KT 9999 BKN014 06/04 Q1023=
202001161920 METAR ESMX 161920Z AUTO 21008KT 190V260 9999 OVC016/// 06/04 Q1023=
202001161850 METAR ESMX 161850Z 23007KT 9999 OVC017 05/04 Q1023=
202001161820 METAR ESMX 161820Z 23006KT 9999 BKN017 05/04 Q1022=
202001161750 METAR ESMX 161750Z 22006KT 9999 BKN020 04/03 Q1022=
202001161720 METAR ESMX 161720Z 22007KT 9999 BKN021 04/03 Q1022=
202001161650 METAR ESMX 161650Z 23006KT 9999 SCT022 04/03 Q1022=
202001161620 METAR ESMX 161620Z 23007KT 9999 BKN021 05/03 Q1022=
202001161550 METAR ESMX 161550Z 23009KT 9999 SCT022 05/03 Q1022=
202001161520 METAR ESMX 161520Z 24009KT 9999 SCT026 05/03 Q1021=
202001161450 METAR ESMX 161450Z 24008KT 9999 BKN025 06/03 Q1021=
202001161420 METAR ESMX 161420Z 25011KT 9999 BKN027 06/03 Q1021=
202001161350 METAR ESMX 161350Z 25010KT 9999 SCT023 OVC030 06/03 Q1021=
202001161320 METAR ESMX 161320Z 25011KT 9999 BKN027 06/03 Q1021=
202001161250 METAR ESMX 161250Z 25013G26KT 220V290 9999 BKN027 07/03 Q1020=
202001161220 METAR ESMX 161220Z 25012KT 9999 BKN026 07/03 Q1020=
202001161150 METAR ESMX 161150Z 25013KT 9999 BKN027 07/03 Q1019=
202001161120 METAR ESMX 161120Z 25013KT 9999 SCT024 BKN032 07/03 Q1019=
202001161050 METAR ESMX 161050Z 24012KT 210V280 9999 SCT020 BKN032 06/04 Q1018=
202001161020 METAR ESMX 161020Z 23013KT 9999 FEW018 BKN035 06/04 Q1018=
202001160950 METAR ESMX 160950Z 24015KT 9999 FEW018 BKN032 06/04 Q1017=
202001160920 METAR ESMX 160920Z 23014KT 9999 SCT016 OVC030 06/04 Q1017=
202001160850 METAR ESMX 160850Z 22011KT 9999 BKN017 06/04 Q1017=
202001160820 METAR ESMX 160820Z 23010KT 9999 BKN018 06/04 Q1016=
202001160750 METAR ESMX 160750Z 22012KT 9999 BKN016 05/04 Q1016=
202001160720 METAR ESMX 160720Z 22012KT 9999 BKN012 05/04 Q1015=
202001160650 METAR ESMX 160650Z 21011KT 180V240 9999 BKN013 05/04 Q1015=
202001160620 METAR ESMX 160620Z 22012KT 9999 BKN014 05/04 Q1014=
202001160550 METAR ESMX 160550Z 23011KT 9999 BKN014 05/04 Q1014=
202001160520 METAR ESMX 160520Z 23010KT 9999 BKN013 05/04 Q1014=
202001160450 METAR COR ESMX 160450Z 22010KT 9999 BKN013 05/04 Q1013=
202001160420 METAR ESMX 160420Z AUTO 23010KT 9999 OVC015/// 05/04 Q1013=
202001160350 METAR ESMX 160350Z AUTO 22010KT 9999 BKN015/// OVC036/// 05/04 Q1013=
202001160320 METAR ESMX 160320Z AUTO 22011KT 9999 OVC035/// 05/04 Q1012=
202001160250 METAR ESMX 160250Z AUTO 22010KT 9999 SCT014/// BKN017/// OVC035/// 05/04 Q1012=
202001160220 METAR ESMX 160220Z AUTO 22010KT 180V240 9999 BKN014/// OVC035/// 05/04 Q1012=
202001160150 METAR ESMX 160150Z AUTO 22009KT 9999 SCT013/// OVC035/// 05/04 Q1011=
202001160120 METAR ESMX 160120Z AUTO 24009KT 9999 FEW015/// OVC028/// 05/04 Q1011=
202001160050 METAR ESMX 160050Z AUTO 23009KT 200V270 9999 SCT012/// BKN020/// OVC026/// 05/04 Q1010=
202001160020 METAR ESMX 160020Z AUTO 23009KT 9999 OVC010/// 04/04 Q1010=
202001152350 METAR ESMX 152350Z AUTO 22009KT 9999 FEW010/// BKN017/// 04/04 Q1009=
202001152320 METAR ESMX 152320Z 22007KT 9999 SCT027 BKN064 04/03 Q1009=
202001152250 METAR COR ESMX 152250Z 22007KT 9999 FEW028 04/04 Q1008=
202001152220 METAR ESMX 152220Z AUTO 25009KT 9999 FEW010/// BKN045/// BKN057/// 04/04 Q1008=
202001152150 METAR ESMX 152150Z AUTO 27008KT 9999 -RA SCT010/// BKN032/// 04/04 Q1007=
202001152120 METAR ESMX 152120Z 27009KT 9999 -RA BKN008 05/05 Q1006=
202001152050 METAR ESMX 152050Z 29008KT 9999 DZ BKN009 05/05 Q1005=
202001152020 METAR ESMX 152020Z 27012KT 210V290 9999 RA BKN007 07/06 Q1004=
202001151950 METAR ESMX 151950Z 20011KT 9000 -RA BKN009 08/08 Q1004=
202001151920 METAR ESMX 151920Z 20011KT 9999 DZ BKN006 08/08 Q1004=
202001151850 METAR ESMX 151850Z 20014KT 9000 RA BKN010 08/08 Q1004 REDZ=
202001151820 METAR ESMX 151820Z 20013KT 9999 -RA BKN006 08/08 Q1003=
202001151750 METAR ESMX 151750Z 21012KT 8000 -RA BKN005 08/08 Q1003=
202001151720 METAR ESMX 151720Z 20013KT 4700 DZ BKN005 08/08 Q1003=
202001151650 METAR ESMX 151650Z 19013KT 7000 -RA OVC007 08/08 Q1003=
202001151620 METAR ESMX 151620Z 20013KT 9999 DZ BKN007 08/08 Q1003=
202001151550 METAR ESMX 151550Z 21013KT 9999 -RA BKN007 OVC009 09/08 Q1003=
202001151520 METAR ESMX 151520Z 20013KT 7000 DZ BKN008 09/09 Q1003=
202001151450 METAR ESMX 151450Z 20013KT 9000 -RA BKN007 09/09 Q1003=
202001151420 METAR ESMX 151420Z 20013KT 8000 -DZ OVC006 09/09 Q1002=
202001151350 METAR ESMX 151350Z 20014KT 6000 DZ BKN005 09/09 Q1002=
202001151320 METAR ESMX 151320Z 22015KT 5000 -DZ BR OVC006 09/09 Q1002=
202001151250 METAR ESMX 151250Z 20015KT 5000 -DZ BR OVC006 09/09 Q1002=
202001151220 METAR ESMX 151220Z 21014KT 5000 DZ BR BKN006 09/09 Q1002=
202001151150 METAR ESMX 151150Z 21015KT 5000 -RA BKN006 09/09 Q1001=
202001151120 METAR ESMX 151120Z 21017KT 5000 -RA BR BKN006 09/09 Q1001=
202001151050 METAR ESMX 151050Z 20016KT 4100 -DZ BR OVC005 09/09 Q1001=
202001151020 METAR ESMX 151020Z 20017KT 4300 -DZ BR OVC005 09/09 Q1001=
202001150950 METAR ESMX 150950Z 19018KT 4300 -DZ OVC005 09/09 Q1000=
202001150920 METAR ESMX 150920Z 19018KT 3900 -DZ OVC004 09/09 Q1000=
202001150850 METAR ESMX 150850Z 19017KT 4100 -DZ OVC004 09/09 Q1000=
202001150820 METAR ESMX 150820Z 19016KT 3900 -DZ OVC004 09/09 Q1000=
202001150750 METAR ESMX 150750Z 19017KT 4600 -DZ OVC005 09/09 Q0999=
202001150720 METAR ESMX 150720Z 19017KT 4500 -DZ BKN004 09/09 Q0999=
202001150650 METAR ESMX 150650Z 19016KT 3600 DZ OVC004 09/09 Q0999=
202001150620 METAR ESMX 150620Z 19016KT 4000 -RA SCT002 OVC005 09/09 Q0998=
202001150550 METAR ESMX 150550Z 19017KT 6000 -DZ OVC005 09/09 Q0998=
202001150520 METAR ESMX 150520Z 19018KT 4200 -DZ OVC004 09/09 Q0998=
202001150450 METAR ESMX 150450Z 20018KT 5000 -DZ OVC005 09/09 Q0998=
202001150420 METAR ESMX 150420Z AUTO 19017KT 5000 -DZ OVC005/// 09/09 Q0998 RERA=
202001150350 METAR ESMX 150350Z AUTO 19020KT 4600 BR OVC005/// 09/09 Q0998=
202001150320 METAR ESMX 150320Z AUTO 19019KT 4700 -DZ FEW002/// OVC004/// 09/09 Q0997=
202001150250 METAR ESMX 150250Z AUTO 19019G30KT 3600 -DZ OVC002/// 09/09 Q0997 REDZ=
202001150220 METAR ESMX 150220Z AUTO 19019KT 3800 -RA SCT002/// OVC005/// 09/08 Q0997 REUP REDZ=
202001150150 METAR ESMX 150150Z AUTO 19020KT 9000 BR OVC006/// 09/08 Q0997=
202001150120 METAR ESMX 150120Z AUTO 19019G32KT 8000 BR OVC006/// 08/08 Q0998 RESHUP=
202001150050 METAR ESMX 150050Z AUTO 18018G28KT 5000 UP OVC005/// 08/08 Q0998 RERA=
202001150020 METAR ESMX 150020Z AUTO 18018KT 4100 -RA SCT002/// OVC005/// 08/07 Q0998=
202001142350 METAR ESMX 142350Z AUTO 17017KT 5000 DZ SCT002/// OVC005/// 07/07 Q0998=
202001142320 METAR ESMX 142320Z AUTO 17017KT 7000 -RA FEW002/// OVC004/// 07/07 Q0998=
202001142250 METAR ESMX 142250Z AUTO 16014KT 6000 -RA OVC003/// 06/06 Q0999 REDZ=
202001142220 METAR ESMX 142220Z AUTO 17011KT 4600 -RA OVC002/// 06/06 Q0999 REDZ REUP RESHUP=
202001142150 METAR ESMX 142150Z AUTO 16011KT 9999 OVC005/// 05/05 Q1000=
202001142120 METAR ESMX 142120Z AUTO 17010KT 9999 OVC007/// 05/05 Q1000=
202001142050 METAR ESMX 142050Z AUTO 17011KT 9999 BKN009/// BKN018/// OVC080/// 05/05 Q1001=
202001142020 METAR ESMX 142020Z AUTO 18010KT 9999 BKN010/// OVC017/// 05/05 Q1002=
202001141950 METAR ESMX 141950Z 18011KT 9999 BKN009 05/05 Q1002=
202001141920 METAR ESMX 141920Z 19011KT 9999 SCT008 BKN011 05/05 Q1002=
202001141850 METAR COR ESMX 141850Z 18011KT 9999 FEW009 BKN025 05/05 Q1001=
202001141820 METAR ESMX 141820Z 19011KT 9999 BKN024 05/05 Q1001=
202001141750 METAR ESMX 141750Z 18009KT 9999 BKN027 05/05 Q1001=
202001141720 METAR ESMX 141720Z 19009KT 9999 OVC029 05/05 Q1001=
202001141650 METAR ESMX 141650Z 20009KT 9999 FEW017 BKN029 06/05 Q1001=
202001141620 METAR ESMX 141620Z 21007KT 9999 BKN031 05/05 Q1001=
202001141550 METAR ESMX 141550Z 22008KT 190V250 9999 BKN028 06/05 Q1001=
202001141520 METAR ESMX 141520Z 24009KT 9999 SCT007 BKN012 06/05 Q1000=
202001141450 METAR ESMX 141450Z 21007KT 9999 SCT009 BKN024 06/06 Q1000=
202001141420 METAR ESMX 141420Z 19010KT 9999 BKN007 06/06 Q1000=
202001141350 METAR ESMX 141350Z 21009KT 190V250 9999 BR -RA BKN005 06/06 Q0999=
202001141320 METAR ESMX 141320Z 18012KT 7000 BR -RA FEW002 OVC005 05/05 Q0999=
202001141250 METAR ESMX 141250Z 18012KT 9000 BR -RA OVC006 05/05 Q0999=
202001141220 METAR ESMX 141220Z 17012KT 9999 -RA OVC006 05/05 Q0999=
202001141150 METAR ESMX 141150Z 17013G24KT 9000 -RA OVC006 05/05 Q0999=
202001141120 METAR ESMX 141120Z 17013KT 9000 -RA BKN005 OVC007 05/04 Q0999=
202001141050 METAR ESMX 141050Z 16013KT 9000 RA BKN005 05/04 Q0999=
202001141020 METAR ESMX 141020Z 16014KT 6000 RA BR OVC004 04/04 Q1000=
202001140950 METAR ESMX 140950Z 16014KT 5000 RA BR OVC003 04/04 Q1000=
202001140920 METAR ESMX 140920Z 17015G28KT 8000 -RA BR OVC004 04/04 Q1000=
202001140850 METAR ESMX 140850Z 16016G28KT 8000 -RA BR OVC005 04/04 Q1000=
202001140820 METAR ESMX 140820Z 17015KT 140V200 9999 -RA OVC007 04/04 Q1001=
202001140750 METAR ESMX 140750Z 15015KT 9999 -RA OVC009 04/03 Q1001=
202001140720 METAR ESMX 140720Z 15015KT 9999 BKN010 04/03 Q1001 RESHRA=
202001140650 METAR ESMX 140650Z 16015KT 9999 OVC010 04/03 Q1002 RESHRA=
202001140620 METAR ESMX 140620Z 16015KT 9999 OVC011 04/03 Q1003=
202001140550 METAR ESMX 140550Z 15014KT 9999 BKN012 04/03 Q1003=
202001140520 METAR ESMX 140520Z 16014KT 9999 BKN011 04/03 Q1004=
202001140450 METAR ESMX 140450Z 15011KT 9999 OVC010 04/03 Q1004=
202001140420 METAR ESMX 140420Z AUTO 17011KT 9999 OVC010/// 04/03 Q1005=
202001140350 METAR ESMX 140350Z AUTO 16011KT 9999 OVC009/// 04/03 Q1006=
202001140320 METAR ESMX 140320Z AUTO 17011KT 9999 BKN009/// OVC012/// 04/03 Q1006=
202001140250 METAR ESMX 140250Z AUTO 16011KT 9999 OVC008/// 04/03 Q1007=
202001140220 METAR ESMX 140220Z AUTO 16011KT 9999 OVC008/// 03/03 Q1007=
202001140150 METAR ESMX 140150Z AUTO 15009KT 120V190 9999 OVC006/// 03/03 Q1008=
202001140120 METAR ESMX 140120Z AUTO 16008KT 140V200 6000 BR OVC003/// 03/03 Q1008=
202001140050 METAR ESMX 140050Z AUTO 15007KT 6000 BR OVC004/// 03/03 Q1009=
202001140020 METAR ESMX 140020Z AUTO 16007KT 8000 BR OVC004/// 03/03 Q1010=
202001132350 METAR ESMX 132350Z AUTO 17007KT 9999 OVC005/// 03/03 Q1010=
202001132320 METAR ESMX 132320Z AUTO 17007KT 9999 OVC004/// 03/03 Q1010=
202001132250 METAR ESMX 132250Z AUTO 18008KT 9999 OVC005/// 03/03 Q1010=
202001132220 METAR ESMX 132220Z AUTO 17009KT 9999 OVC004/// 03/03 Q1010=
202001132150 METAR ESMX 132150Z AUTO 18006KT 8000 BR OVC004/// 03/03 Q1011=
202001132120 METAR ESMX 132120Z AUTO 18007KT 140V200 7000 BR OVC003/// 03/03 Q1011=
202001132050 METAR ESMX 132050Z AUTO 18010KT 9000 BR OVC004/// 02/02 Q1011=
202001132020 METAR ESMX 132020Z AUTO 16007KT 9999 OVC004/// 02/02 Q1011=
202001131950 METAR ESMX 131950Z 17006KT 9999 BKN034 02/02 Q1012=
202001131920 METAR ESMX 131920Z 17004KT 140V200 9999 BKN029 02/02 Q1012=
202001131850 METAR ESMX 131850Z 20007KT 9999 BKN007 02/02 Q1012=
202001131820 METAR ESMX 131820Z 20006KT 9999 SCT008 03/03 Q1012=
202001131750 METAR ESMX 131750Z 20008KT 9999 BKN006 03/03 Q1012=
202001131720 METAR ESMX 131720Z 21008KT 9999 SCT011 03/03 Q1012=
202001131650 METAR ESMX 131650Z 21008KT 9999 BKN009 03/03 Q1012=
202001131620 METAR ESMX 131620Z 23009KT 9999 BKN009 03/03 Q1012=
202001131550 METAR ESMX 131550Z 21005KT 9999 SCT011 03/03 Q1012=
202001131520 METAR ESMX 131520Z 21005KT 9999 FEW011 03/03 Q1012=
202001131450 METAR ESMX 131450Z 21007KT 9999 BKN011 04/03 Q1012=
202001131420 METAR ESMX 131420Z 22006KT 9999 BKN013 04/04 Q1012=
202001131350 METAR ESMX 131350Z 23007KT 9999 BKN013 04/03 Q1012=
202001131320 METAR ESMX 131320Z 23007KT 9999 BKN011 05/04 Q1012=
202001131250 METAR ESMX 131250Z 24007KT 9999 BKN010 04/04 Q1012=
202001131220 METAR ESMX 131220Z 23007KT 9999 BKN010 04/04 Q1012=
202001131150 METAR ESMX 131150Z 23006KT 9999 BKN011 04/04 Q1013=
202001131120 METAR ESMX 131120Z 23006KT 9999 BKN011 04/04 Q1013=
202001131050 METAR ESMX 131050Z 23007KT 9999 BKN009 04/04 Q1013=
202001131020 METAR ESMX 131020Z 23007KT 9999 BKN009 04/04 Q1013=
202001130950 METAR ESMX 130950Z 23007KT 9999 BKN010 04/04 Q1013=
202001130920 METAR ESMX 130920Z 24006KT 9999 SCT009 BKN012 04/04 Q1013=
202001130850 METAR ESMX 130850Z 21006KT 9999 SCT009 BKN022 04/04 Q1012=
202001130820 METAR ESMX 130820Z 23006KT 9999 SCT009 BKN020 04/04 Q1012=
202001130750 METAR ESMX 130750Z 22005KT 200V260 9999 SCT010 BKN018 04/04 Q1012=
202001130720 METAR ESMX 130720Z 23005KT 9999 SCT009 BKN019 04/04 Q1012=
202001130650 METAR COR ESMX 130650Z 24006KT 9999 VCSH FEW008 FEW020CB BKN030 04/04 Q1011 RESHRA=
202001130620 METAR COR ESMX 130620Z 23006KT 5000 SHRA SCT006 BKN028 04/04 Q1011=
202001130550 METAR ESMX 130550Z 22005KT 9999 -SHRA SCT007 BKN031 04/04 Q1011=
202001130520 METAR ESMX 130520Z 22006KT 9999 FEW008 SCT022 04/04 Q1011=
202001130450 METAR ESMX 130450Z 21006KT 9999 FEW006 BKN025 04/04 Q1011=
202001130420 METAR ESMX 130420Z AUTO 23005KT 9999 FEW019/// OVC026/// 04/04 Q1011=
202001130350 METAR ESMX 130350Z AUTO 23005KT 9999 OVC023/// 04/04 Q1011=
202001130320 METAR ESMX 130320Z AUTO 22006KT 9999 FEW010/// BKN024/// BKN029/// 04/04 Q1010 RESHUP REUP=
202001130250 METAR ESMX 130250Z AUTO 24005KT 9999 SCT006/// BKN016/// OVC021/// 04/04 Q1010=
202001130220 METAR ESMX 130220Z AUTO 24004KT 210V280 9999 SCT009/// BKN032/// 04/04 Q1010=
202001130150 METAR ESMX 130150Z AUTO 24005KT 9999 BKN006/// 05/04 Q1010 REUP RESHUP=
202001130120 METAR ESMX 130120Z AUTO 22004KT 190V250 9999 OVC007/// 05/05 Q1010=
202001130050 METAR ESMX 130050Z AUTO 24006KT 220V280 9999 BKN006/// BKN008/// OVC028/// 05/05 Q1010=
202001130020 METAR ESMX 130020Z AUTO 25005KT 9999 BKN006/// OVC028/// 05/05 Q1009=
202001122350 METAR ESMX 122350Z AUTO 25006KT 220V280 9999 OVC005/// 05/05 Q1009=
202001122320 METAR ESMX 122320Z AUTO 24006KT 9999 OVC005/// 05/05 Q1009=
202001122250 METAR ESMX 122250Z AUTO 24004KT 210V280 9999 OVC004/// 05/05 Q1008=
202001122220 METAR ESMX 122220Z AUTO 22004KT 9999 OVC005/// 05/05 Q1008=
202001122150 METAR ESMX 122150Z AUTO 24003KT 9999 BKN006/// OVC014/// 05/05 Q1008=
202001122120 METAR ESMX 122120Z AUTO 24004KT 9999 FEW007/// BKN009/// BKN016/// 05/05 Q1008=
202001122050 METAR ESMX 122050Z 23005KT 9999 SCT003 BKN013 05/05 Q1008=
202001122020 METAR ESMX 122020Z 22004KT 7000 BKN003 05/05 Q1007=
202001121950 METAR ESMX 121950Z 23004KT 9999 BR BKN003 05/05 Q1008=
202001121920 METAR ESMX 121920Z 21004KT 9000 BR SCT005 BKN014 05/05 Q1007=
202001121850 METAR ESMX 121850Z 23004KT 190V270 9999 BKN005 05/05 Q1008=
202001121820 METAR ESMX 121820Z 22004KT 9999 SCT009 BKN027 05/05 Q1007=
202001121750 METAR ESMX 121750Z VRB03KT 9999 FEW011 BKN025 05/05 Q1008=
202001121720 METAR ESMX 121720Z 26004KT 220V290 9999 BKN010 05/05 Q1008=
202001121650 METAR ESMX 121650Z VRB01KT 9999 BKN009 05/05 Q1008=
202001121620 METAR ESMX 121620Z 23004KT 9999 FEW028 05/05 Q1008=
202001121550 METAR ESMX 121550Z 21004KT 9999 FEW008 BKN018 06/06 Q1008=
202001121520 METAR COR ESMX 121520Z 23004KT 9999 FEW010 BKN025 06/06 Q1008=
202001121450 METAR ESMX 121450Z AUTO 25005KT 9999 SCT009/// BKN012/// OVC020/// 06/06 Q1007=
202001121420 METAR ESMX 121420Z AUTO 25005KT 9999 BKN016/// 06/06 Q1007=
202001121350 METAR ESMX 121350Z AUTO 24007KT 200V260 9999 SCT009/// BKN016/// BKN035/// 07/06 Q1007=
202001121320 METAR ESMX 121320Z AUTO 24008KT 210V280 9999 OVC009/// 07/06 Q1007=
202001121250 METAR ESMX 121250Z AUTO 24008KT 9999 SCT005/// BKN007/// OVC009/// 07/07 Q1007=
202001121220 METAR ESMX 121220Z AUTO 23008KT 5000 DZ BKN006/// OVC008/// 07/07 Q1007 RERA=
202001121150 METAR ESMX 121150Z AUTO 23009KT 9999 BR BKN005/// BKN009/// OVC014/// 07/07 Q1007=
202001121120 METAR ESMX 121120Z AUTO 22008KT 6000 -RA BKN005/// BKN010/// OVC018/// 06/06 Q1007 REDZ=
202001121050 METAR ESMX 121050Z AUTO 21009KT 9999 DZ OVC005/// 07/07 Q1007 REDZ=
202001121020 METAR ESMX 121020Z AUTO 22010KT 9999 DZ OVC005/// 07/07 Q1007=
202001120950 METAR ESMX 120950Z AUTO 23010KT 5000 DZ FEW002/// OVC004/// 06/06 Q1007=
202001120920 METAR ESMX 120920Z AUTO 23010KT 5000 -RA FEW002/// OVC005/// 06/06 Q1007 REDZ=
202001120850 METAR ESMX 120850Z 22011KT 9999 DZ OVC005 06/06 Q1007=
202001120820 METAR ESMX 120820Z 22012KT 6000 BR DZ OVC005 06/06 Q1007=
202001120750 METAR ESMX 120750Z 21011KT 9999 OVC006 06/06 Q1007=
202001120720 METAR ESMX 120720Z 23011KT 9000 -RA OVC006 06/06 Q1007=
202001120650 METAR ESMX 120650Z 22011KT 9999 DZ OVC006 06/06 Q1007=
202001120620 METAR ESMX 120620Z 22012KT 8000 -RA OVC006 06/06 Q1007=
202001120550 METAR ESMX 120550Z AUTO 21013KT 8000 DZ OVC006/// 06/06 Q1007=
202001120520 METAR ESMX 120520Z AUTO 22013KT 6000 DZ BKN006/// OVC008/// 06/06 Q1008=
202001120450 METAR ESMX 120450Z AUTO 22014KT 4400 DZ OVC005/// 06/06 Q1007 REDZ=
202001120420 METAR ESMX 120420Z AUTO 23013KT 4000 BR OVC005/// 06/06 Q1008 REDZ=
202001120350 METAR ESMX 120350Z AUTO 21013KT 3300 DZ BKN005/// OVC011/// 06/06 Q1008=
202001120320 METAR ESMX 120320Z AUTO 22013G24KT 2200 DZ BKN002/// OVC005/// 06/06 Q1008=
202001120250 METAR ESMX 120250Z AUTO 21013KT 2200 DZ FEW002/// BKN004/// OVC010/// 06/06 Q1008=
202001120220 METAR ESMX 120220Z AUTO 22013KT 2700 DZ SCT002/// OVC004/// 05/05 Q1008=
202001120150 METAR ESMX 120150Z AUTO 20015KT 4400 DZ FEW002/// OVC004/// 05/05 Q1009 REDZ=
202001120120 METAR ESMX 120120Z AUTO 21015KT 1700 DZ BKN002/// OVC004/// 05/05 Q1009 REDZ=
202001120050 METAR ESMX 120050Z AUTO 21016KT 1700 DZ FEW002/// OVC004/// 05/05 Q1009=
202001120020 METAR ESMX 120020Z AUTO 22017KT 1600 +DZ OVC002/// 05/05 Q1010 REDZ=
202001112350 METAR ESMX 112350Z AUTO 22016KT 2200 DZ OVC002/// 05/05 Q1010 REUP REDZ=
202001112320 METAR ESMX 112320Z AUTO 21017KT 2700 BR BKN002/// OVC004/// 05/05 Q1010=
202001112250 METAR ESMX 112250Z AUTO 22016KT 3600 BR BKN002/// OVC004/// 05/04 Q1011=
202001112220 METAR ESMX 112220Z AUTO 22017KT 2700 -DZ BKN002/// OVC005/// 05/04 Q1011=
202001112150 METAR ESMX 112150Z AUTO 20020G31KT 3900 DZ SCT002/// OVC005/// 05/04 Q1012 REUP=
202001112120 METAR ESMX 112120Z AUTO 22017KT 3800 BR FEW002/// OVC005/// 05/04 Q1012=
202001112050 METAR ESMX 112050Z AUTO 21015KT 4600 BR OVC005/// 04/04 Q1012=
202001112020 METAR ESMX 112020Z AUTO 22016KT 6000 BR OVC005/// 04/04 Q1013=
202001111950 METAR ESMX 111950Z AUTO 20016KT 6000 BR OVC006/// 04/04 Q1013=
202001111920 METAR ESMX 111920Z AUTO 20016KT 8000 BR OVC006/// 04/04 Q1013=
202001111850 METAR ESMX 111850Z AUTO 22017KT 9999 OVC007/// 04/04 Q1014=
202001111820 METAR ESMX 111820Z AUTO 21016KT 9999 OVC008/// 04/04 Q1014=
202001111750 METAR ESMX 111750Z AUTO 21017G27KT 9999 OVC008/// 04/04 Q1014=
202001111720 METAR ESMX 111720Z AUTO 21015KT 9999 OVC008/// 04/04 Q1015=
202001111650 METAR ESMX 111650Z AUTO 20015G27KT 9999 OVC009/// 04/04 Q1015=
202001111620 METAR ESMX 111620Z AUTO 20014KT 9999 OVC009/// 04/03 Q1016=
202001111550 METAR ESMX 111550Z AUTO 20012KT 9999 OVC010/// 04/03 Q1017=
202001111520 METAR ESMX 111520Z AUTO 20015KT 9999 BKN010/// OVC015/// 04/03 Q1017=
202001111450 METAR ESMX 111450Z AUTO 19014KT 9999 OVC010/// 04/03 Q1017=
202001111420 METAR ESMX 111420Z AUTO 19017KT 9999 OVC010/// 04/03 Q1017=
202001111350 METAR ESMX 111350Z AUTO 19016KT 9999 OVC010/// 04/03 Q1018=
202001111320 METAR ESMX 111320Z AUTO 19014KT 9999 OVC009/// 04/03 Q1019=
202001111250 METAR ESMX 111250Z AUTO 19014KT 9999 OVC008/// 04/03 Q1019=
202001111220 METAR ESMX 111220Z AUTO 19014KT 9999 OVC009/// 03/03 Q1020=
202001111150 METAR ESMX 111150Z AUTO 19013KT 9999 BKN007/// OVC009/// 03/03 Q1020=
202001111120 METAR ESMX 111120Z AUTO 19013KT 9999 OVC005/// 03/03 Q1020=
202001111050 METAR ESMX 111050Z AUTO 18014KT 9999 OVC004/// 03/03 Q1021=
202001111020 METAR ESMX 111020Z AUTO 19012KT 9999 OVC006/// 02/02 Q1021=
202001110950 METAR ESMX 110950Z AUTO 18008KT 9999 SCT004/// BKN006/// OVC010/// 02/02 Q1022=
202001110920 METAR ESMX 110920Z AUTO 19008KT 9999 OVC004/// 01/01 Q1022=
202001110850 METAR ESMX 110850Z AUTO 20006KT 9999 OVC006/// 01/01 Q1023=
202001110820 METAR ESMX 110820Z AUTO 20005KT 9999 OVC007/// 01/01 Q1023=
202001110750 METAR ESMX 110750Z AUTO 17005KT 9999 BKN009/// OVC011/// 01/01 Q1023=
202001110720 METAR ESMX 110720Z AUTO 18005KT 9999 OVC011/// 01/01 Q1023=
202001110650 METAR ESMX 110650Z AUTO 21005KT 9999 SCT005/// OVC012/// 00/00 Q1023=
202001110620 METAR ESMX 110620Z AUTO 23005KT 9999 BKN002/// OVC004/// 00/00 Q1023=
202001110550 METAR ESMX 110550Z AUTO 22006KT 1600 OVC001/// M00/M00 Q1023=
202001110520 METAR ESMX 110520Z AUTO 24009KT 210V280 1800 OVC001/// M00/M00 Q1023=
202001110450 METAR ESMX 110450Z AUTO 25006KT 0900 R01/P2000N R19/P2000N FZFG OVC001/// M01/M01 Q1023=
202001110420 METAR ESMX 110420Z AUTO 26006KT 6000 BR OVC002/// M01/M01 Q1023=
202001110350 METAR ESMX 110350Z AUTO 24006KT 9999 OVC001/// M01/M01 Q1023=
202001110320 METAR ESMX 110320Z AUTO 24004KT 210V280 9999 OVC002/// M01/M01 Q1022=
202001110250 METAR ESMX 110250Z AUTO 21004KT 9999 OVC003/// M01/M01 Q1022=
202001110220 METAR ESMX 110220Z AUTO VRB03KT 9999 OVC004/// M01/M01 Q1022=
202001110150 METAR ESMX 110150Z AUTO VRB02KT 9999 OVC006/// M00/M01 Q1022=
202001110120 METAR ESMX 110120Z AUTO 33004KT 9999 OVC007/// M00/M01 Q1021=
202001110050 METAR ESMX 110050Z AUTO 36005KT 320V020 9999 OVC008/// 00/M01 Q1021=
202001110020 METAR ESMX 110020Z AUTO 35005KT 9999 SCT009/// OVC011/// 00/M00 Q1021=
202001102350 METAR ESMX 102350Z AUTO 34007KT 9999 OVC011/// 01/M00 Q1021=
202001102320 METAR ESMX 102320Z AUTO 35006KT 9999 OVC011/// 01/01 Q1020=
202001102250 METAR ESMX 102250Z AUTO 34010KT 9999 OVC013/// 02/00 Q1020=
202001102220 METAR ESMX 102220Z AUTO 35007KT 9999 OVC013/// 02/01 Q1019=
202001102150 METAR ESMX 102150Z AUTO 01007KT 9999 SCT010/// OVC015/// 02/02 Q1018=
202001102120 METAR ESMX 102120Z AUTO 01006KT 9999 OVC015/// 03/02 Q1018=
202001102050 METAR ESMX 102050Z AUTO 34008KT 9999 OVC015/// 03/02 Q1017=
202001102020 METAR ESMX 102020Z AUTO 06005KT 010V100 9999 OVC018/// 03/02 Q1016=
202001101950 METAR ESMX 101950Z AUTO 02009KT 9999 BKN018/// OVC024/// 03/02 Q1016=
202001101920 METAR ESMX 101920Z AUTO 02010KT 9999 SCT011/// OVC019/// 03/03 Q1016=
202001101850 METAR ESMX 101850Z AUTO 01009KT 9999 BKN014/// OVC018/// 03/03 Q1015=
202001101820 METAR ESMX 101820Z 01009KT 9999 -DZ BKN008 03/03 Q1015=
202001101750 METAR ESMX 101750Z 02008KT 9999 -RA FEW005 BKN009 03/03 Q1014=
202001101720 METAR ESMX 101720Z 02008KT 9999 BKN010 03/03 Q1013=
202001101650 METAR ESMX 101650Z 02007KT 9999 BKN009 03/03 Q1012=
202001101620 METAR ESMX 101620Z 03008KT 9999 -RA BKN010 03/03 Q1012=
202001101550 METAR ESMX 101550Z 02009KT 9999 RA BKN009 03/03 Q1011=
202001101520 METAR ESMX 101520Z 02008KT 9999 -RA BKN009 03/03 Q1011=
202001101450 METAR ESMX 101450Z 02009KT 9999 -RA BKN009 04/04 Q1010=
202001101420 METAR ESMX 101420Z 02007KT 8000 -RA SCT006 BKN010 04/04 Q1009=
202001101350 METAR ESMX 101350Z 02006KT 6000 RA SCT006 BKN010 04/04 Q1009=
202001101320 METAR ESMX 101320Z 02006KT 8000 RA OVC008 04/04 Q1009=
202001101250 METAR ESMX 101250Z 02007KT 6000 RA OVC003 04/04 Q1008=
202001101220 METAR ESMX 101220Z 03006KT 6000 -RA OVC002 04/04 Q1008=
202001101150 METAR ESMX 101150Z 04005KT 3100 RA OVC002 04/04 Q1007=
202001101120 METAR ESMX 101120Z 03005KT 2400 -RA VV002 04/04 Q1007=
202001101050 METAR ESMX 101050Z 04007KT 360V070 2500 VV002 04/04 Q1007=
202001101020 METAR ESMX 101020Z 03007KT 1400 R01/1800U R19/P2000N VV002 04/04 Q1007=
202001100950 METAR ESMX 100950Z 01007KT 0600 R01/0700N R19/1000N FG VV002 05/05 Q1006=
202001100920 METAR COR ESMX 100920Z 00000KT 1500 R01/2000N R19/1800D BR BCFG FEW001 OVC007 05/05 Q1006=
202001100850 METAR COR ESMX 100850Z VRB01KT 0600 R01/1300U R19/0700N BCFG BKN006 06/06 Q1006=
202001100820 METAR ESMX 100820Z 31002KT 3000 R01/1200N R19/0900D BCFG BKN006 06/06 Q1006=
202001100750 METAR ESMX 100750Z 00000KT 3000 BR BCFG OVC007 06/06 Q1006=
202001100720 METAR ESMX 100720Z 21002KT 4000 BR OVC007 07/07 Q1006=
202001100650 METAR ESMX 100650Z 21003KT 3000 DZ BR BKN004 06/06 Q1005=
202001100620 METAR ESMX 100620Z VRB01KT 7000 BR SCT003 OVC012 07/07 Q1005=
202001100550 METAR ESMX 100550Z 22004KT 6000 -DZ BKN004 07/07 Q1005=
202001100520 METAR ESMX 100520Z 22004KT 9000 BR BKN005 07/07 Q1005=
202001100450 METAR ESMX 100450Z 21004KT 7000 BR FEW002 BKN006 07/07 Q1005=
202001100420 METAR ESMX 100420Z AUTO 22005KT 4200 DZ VV015 07/07 Q1005=
202001100350 METAR ESMX 100350Z AUTO 21006KT 2000 -RA OVC001/// 07/07 Q1004 RERA=
202001100320 METAR ESMX 100320Z AUTO 19004KT 0650 R01/P2000N R19/1500U BR OVC001/// 06/06 Q1004 RERA REDZ REUP=
202001100250 METAR ESMX 100250Z AUTO 21004KT 1000 R01/P2000N R19/P2000N OVC001/// 06/06 Q1004=
202001100220 METAR ESMX 100220Z AUTO 20004KT 0550 R01/P2000N R19/1400N OVC001/// 06/06 Q1004 REDZ=
202001100150 METAR ESMX 100150Z AUTO 23003KT 200V270 0550 R01/P2000N R19/1400U FG OVC001/// 05/05 Q1004 REDZ RESHUP=
202001100120 METAR ESMX 100120Z AUTO 20004KT 0350 R01/1500N R19/0900N FG OVC001/// 05/05 Q1004 REUP=
202001100050 METAR ESMX 100050Z AUTO 19004KT 0500 R01/1300D R19/1400D FG OVC001/// 04/04 Q1004=
202001100020 METAR ESMX 100020Z AUTO 15004KT 0700 R01/1800D R19/P2000D FG OVC001/// 03/03 Q1004 REDZ=
202001092350 METAR ESMX 092350Z AUTO 16004KT 1000 R01/P2000N R19/P2000N -DZ OVC001/// 03/03 Q1004 RERA=
202001092320 METAR ESMX 092320Z AUTO VRB03KT 2600 BR OVC001/// 03/03 Q1004=
202001092250 METAR ESMX 092250Z AUTO 14003KT 3300 DZ OVC001/// 03/03 Q1004 RERA=
202001092220 METAR ESMX 092220Z AUTO VRB02KT 9999 OVC001/// 02/02 Q1004=
202001092150 METAR ESMX 092150Z AUTO 14003KT 090V190 2500 DZ OVC002/// 02/02 Q1004 REDZ=
202001092120 METAR ESMX 092120Z AUTO 13003KT 070V170 3700 -DZ OVC002/// 02/02 Q1004 REDZ=
202001092050 METAR ESMX 092050Z AUTO 13005KT 070V180 5000 BR OVC002/// 02/02 Q1004 RESHUP RERA=
202001092020 METAR ESMX 092020Z AUTO 13006KT 100V160 3900 BR OVC002/// 02/02 Q1004=
202001091950 METAR ESMX 091950Z AUTO 12007KT 080V190 3800 BR OVC002/// 01/01 Q1005=
202001091920 METAR ESMX 091920Z AUTO 11006KT 060V160 3100 DZ OVC002/// 01/01 Q1005=
202001091850 METAR ESMX 091850Z AUTO 11006KT 070V160 5000 -DZ OVC003/// 01/01 Q1006 REDZ RESG=
202001091820 METAR COR ESMX 091820Z 11006KT 070V150 2500 DZ OVC002 01/01 Q1006=
202001091750 METAR ESMX 091750Z 09004KT 030V150 4000 SN OVC003 01/01 Q1007=
202001091720 METAR ESMX 091720Z 09004KT 040V160 4700 SN OVC002 01/01 Q1007=
202001091650 METAR ESMX 091650Z 07003KT 040V120 2300 SNRA OVC002 01/01 Q1008=
202001091620 METAR ESMX 091620Z 10004KT 030V130 1900 SNRA OVC003 01/01 Q1009=
202001091550 METAR COR ESMX 091550Z 09004KT 040V180 5000 RASN BKN004 01/01 Q1009=
202001091520 METAR ESMX 091520Z 09004KT 050V140 6000 -RA BKN006 02/02 Q1009=
202001091450 METAR ESMX 091450Z 13004KT 8000 -RA BKN006 02/02 Q1010=
202001091420 METAR ESMX 091420Z 13003KT 090V170 8000 -RA SCT007 BKN008 03/03 Q1010=
202001091350 METAR ESMX 091350Z 14005KT 5000 -RA SCT002 BKN020 03/03 Q1011=
202001091320 METAR ESMX 091320Z 15005KT 6000 -DZ OVC003 03/03 Q1011=
202001091250 METAR ESMX 091250Z VRB02KT 9000 BR OVC004 03/03 Q1012=
202001091220 METAR ESMX 091220Z VRB03KT 9999 OVC003 03/03 Q1012=
202001091150 METAR ESMX 091150Z 17005KT 9999 OVC004 03/03 Q1013=
202001091120 METAR ESMX 091120Z 19006KT 150V210 9999 OVC003 03/03 Q1013=
202001091050 METAR ESMX 091050Z 20007KT 8000 BR OVC002 03/03 Q1013=
202001091020 METAR ESMX 091020Z 19007KT 7000 BR OVC002 03/03 Q1014=
202001090950 METAR ESMX 090950Z 21007KT 7000 BR OVC002 03/03 Q1014=
202001090920 METAR ESMX 090920Z 19007KT 6000 BR OVC002 03/03 Q1014=
202001090850 METAR ESMX 090850Z 18004KT 4200 BR OVC002 03/03 Q1014=
202001090820 METAR ESMX 090820Z 20004KT 4600 BR OVC002 02/02 Q1014=
202001090750 METAR ESMX 090750Z 22004KT 6000 BR OVC003 02/02 Q1015=
202001090720 METAR ESMX 090720Z VRB01KT 8000 BR OVC003 02/02 Q1015=
202001090650 METAR ESMX 090650Z 22004KT 9000 BR OVC004 02/02 Q1014=
202001090620 METAR ESMX 090620Z 22007KT 9000 BR OVC005 02/02 Q1014=
202001090550 METAR ESMX 090550Z 21007KT 9999 OVC006 02/02 Q1015=
202001090520 METAR ESMX 090520Z 23005KT 210V270 9999 OVC009 02/02 Q1015=
202001090450 METAR ESMX 090450Z 22008KT 9999 FEW009 BKN022 02/02 Q1015=
202001090420 METAR ESMX 090420Z AUTO 22008KT 9999 SCT023/// 02/02 Q1014=
202001090350 METAR ESMX 090350Z AUTO 22007KT 9999 FEW008/// OVC023/// 02/02 Q1015=
202001090320 METAR ESMX 090320Z AUTO 23008KT 200V260 9999 BKN019/// 02/02 Q1015=
202001090250 METAR ESMX 090250Z AUTO 23008KT 9999 SCT022/// 02/02 Q1014=
202001090220 METAR ESMX 090220Z AUTO 25007KT 9999 OVC021/// 02/02 Q1015=
202001090150 METAR ESMX 090150Z AUTO 24009KT 9999 BKN007/// 02/02 Q1015=
202001090120 METAR ESMX 090120Z AUTO 24009KT 9999 FEW007/// 03/02 Q1015=
202001090050 METAR ESMX 090050Z AUTO 23008KT 9999 NCD 03/02 Q1015=
202001090020 METAR ESMX 090020Z AUTO 24009KT 9999 FEW009/// SCT023/// 03/02 Q1014=
202001082350 METAR ESMX 082350Z AUTO 24007KT 9999 FEW011/// SCT023/// 03/02 Q1014=
202001082320 METAR ESMX 082320Z AUTO 24007KT 220V280 9999 SCT023/// 03/02 Q1014=
202001082250 METAR ESMX 082250Z AUTO 23007KT 9999 BKN010/// 03/02 Q1014=
202001082220 METAR ESMX 082220Z AUTO 23007KT 200V260 9999 SCT012/// BKN015/// 03/03 Q1014=
202001082150 METAR ESMX 082150Z AUTO 23009KT 9999 SCT012/// 03/03 Q1014=
202001082120 METAR ESMX 082120Z AUTO 22009KT 9999 SCT011/// 03/03 Q1013=
202001082050 METAR ESMX 082050Z AUTO 23008KT 9999 NCD 03/02 Q1013=
202001082020 METAR ESMX 082020Z 24007KT CAVOK 03/02 Q1013=
202001081950 METAR COR ESMX 081950Z 25008KT CAVOK 04/02 Q1013=
202001081920 METAR ESMX 081920Z 25010KT CAVOK 04/03 Q1012=
202001081850 METAR ESMX 081850Z 25009KT CAVOK 04/03 Q1012=
202001081820 METAR ESMX 081820Z 23008KT 9999 FEW015 04/03 Q1012=
202001081750 METAR ESMX 081750Z 25008KT CAVOK 05/03 Q1012=
202001081720 METAR ESMX 081720Z 26009KT 230V290 9999 FEW020 05/03 Q1012=
202001081650 METAR ESMX 081650Z 26010KT CAVOK 06/04 Q1011=
202001081620 METAR ESMX 081620Z 27012G25KT 9999 -SHRA FEW015CB SCT035 BKN046 06/05 Q1011 RESHRA=
202001081550 METAR ESMX 081550Z 25009KT 9999 SCT018 06/05 Q1010=
202001081520 METAR ESMX 081520Z 25010KT 9999 SCT018 07/05 Q1010=
202001081450 METAR ESMX 081450Z 25010KT 220V290 9999 SCT017 BKN055 07/05 Q1010=
202001081420 METAR ESMX 081420Z 24012KT 210V270 9999 BKN018 07/06 Q1009=
202001081350 METAR ESMX 081350Z 24011KT 210V280 9999 BKN018 08/06 Q1008=
202001081320 METAR ESMX 081320Z 24011KT 9999 BKN017 08/06 Q1008=
202001081250 METAR ESMX 081250Z 25010KT 9999 BKN013 08/07 Q1008=
202001081220 METAR ESMX 081220Z 23011KT 200V260 9999 SCT012 08/07 Q1007=
202001081150 METAR ESMX 081150Z 24013KT 190V270 9999 -RA BKN011 08/08 Q1007=
202001081120 METAR ESMX 081120Z 24012KT 200V280 9999 BKN011 09/08 Q1007=
202001081050 METAR ESMX 081050Z 22014KT 9999 BKN007 09/08 Q1007=
202001081020 METAR ESMX 081020Z 22014KT 9999 SCT004 OVC007 08/08 Q1007=
202001080950 METAR ESMX 080950Z 21012KT 5000 DZ BR OVC003 07/07 Q1007=
202001080920 METAR ESMX 080920Z 22014KT 3600 -DZ BR BKN002 07/07 Q1007=
202001080850 METAR ESMX 080850Z 22014KT 2500 -DZ BR OVC002 07/07 Q1007=
202001080820 METAR ESMX 080820Z 22013KT 2700 -DZ BR OVC002 07/07 Q1007=
202001080750 METAR ESMX 080750Z 21013KT 2700 BR OVC002 07/07 Q1007=
202001080720 METAR ESMX 080720Z 22014KT 2500 -DZ OVC002 07/07 Q1007=
202001080650 METAR ESMX 080650Z 21014KT 3600 -DZ OVC002 06/06 Q1007=
202001080620 METAR ESMX 080620Z AUTO 20016KT 3000 -DZ OVC002/// 06/06 Q1006=
202001080550 METAR ESMX 080550Z 20016KT 2500 DZ BR OVC002 06/06 Q1007=
202001080520 METAR ESMX 080520Z 20016KT 3500 -DZ BR BKN003 06/06 Q1007=
202001080450 METAR ESMX 080450Z 20015KT 2500 BR BKN002 05/05 Q1008=
202001080420 METAR ESMX 080420Z AUTO 20017KT 3300 BR OVC002/// 05/05 Q1008 REDZ=
202001080350 METAR ESMX 080350Z AUTO 20017KT 2400 -DZ OVC002/// 05/05 Q1008 RESHUP REDZ=
202001080320 METAR ESMX 080320Z AUTO 20015KT 2400 BR SCT002/// OVC005/// 05/05 Q1009=
202001080250 METAR ESMX 080250Z AUTO 19015KT 3600 BR FEW002/// BKN006/// OVC008/// 05/05 Q1010=
202001080220 METAR ESMX 080220Z AUTO 17016KT 8000 BR FEW002/// BKN009/// OVC012/// 05/04 Q1009=
202001080150 METAR ESMX 080150Z AUTO 18015KT 9000 -DZ FEW006/// BKN014/// OVC021/// 05/04 Q1010 REUP RESHUP=
202001080120 METAR ESMX 080120Z AUTO 19016KT 9999 FEW013/// BKN023/// BKN034/// 05/04 Q1011=
202001080050 METAR ESMX 080050Z AUTO 19016KT 9999 FEW011/// SCT017/// BKN039/// 05/04 Q1011=
202001080020 METAR ESMX 080020Z AUTO 18014KT 9999 SCT011/// BKN015/// OVC049/// 05/04 Q1012=
202001072350 METAR ESMX 072350Z AUTO 18014KT 9999 BKN009/// OVC055/// 05/04 Q1012=
202001072320 METAR ESMX 072320Z AUTO 18013KT 9999 BKN009/// OVC011/// 04/04 Q1013=
202001072250 METAR ESMX 072250Z AUTO 19014KT 9999 BKN009/// OVC012/// 04/04 Q1014=
202001072220 METAR ESMX 072220Z AUTO 20013KT 9999 OVC009/// 04/04 Q1014=
202001072150 METAR ESMX 072150Z AUTO 19015KT 9999 OVC009/// 04/04 Q1014=
202001072120 METAR ESMX 072120Z AUTO 20012KT 9999 OVC009/// 05/04 Q1015=
202001072050 METAR ESMX 072050Z AUTO 21011KT 9999 OVC009/// 05/04 Q1015=
202001072020 METAR ESMX 072020Z AUTO 22011KT 9999 BKN009/// OVC011/// 05/04 Q1016=
202001071950 METAR ESMX 071950Z AUTO 22011KT 9999 BKN007/// OVC009/// 05/05 Q1016=
202001071920 METAR ESMX 071920Z 21014KT 9999 OVC005 05/05 Q1017=
202001071850 METAR ESMX 071850Z 21011KT 6000 OVC003 05/05 Q1017=
202001071820 METAR ESMX 071820Z 20009KT 3400 OVC002 05/05 Q1017=
202001071750 METAR ESMX 071750Z 19009KT 0500 R01/1300U R19/1400U FG VV002 04/04 Q1017=
202001071720 METAR ESMX 071720Z 19009KT 0500 R01/1400N R19/1500N FG VV002 04/04 Q1017=
202001071650 METAR ESMX 071650Z 19009KT 0750 R01/P2000N R19/P2000N FG VV002 04/04 Q1017=
202001071620 METAR ESMX 071620Z 18009KT 0600 R01/1600N R19/1700N FG OVC001 04/04 Q1017=
202001071550 METAR ESMX 071550Z 18009KT 0650 R01/1700D R19/P2000D FG OVC002 04/04 Q1017=
202001071520 METAR ESMX 071520Z 19010KT 1200 R01/P2000N R19/P2000N BR OVC002 04/04 Q1017=
202001071450 METAR ESMX 071450Z 19010KT 2200 BR OVC002 04/04 Q1017=
202001071420 METAR ESMX 071420Z 19009KT 2700 BR OVC002 04/04 Q1017=
202001071350 METAR ESMX 071350Z 19009KT 3300 BR OVC003 04/04 Q1017=
202001071320 METAR ESMX 071320Z 19009KT 4100 BR OVC004 04/03 Q1017=
202001071250 METAR ESMX 071250Z 18010KT 5000 BR OVC006 04/03 Q1017=
202001071220 METAR ESMX 071220Z 19009KT 5000 BR BKN006 04/03 Q1017=
202001071150 METAR ESMX 071150Z 18009KT 4700 BR BKN007 04/03 Q1017=
202001071120 METAR ESMX 071120Z 20008KT 7000 BR OVC007 04/03 Q1017=
202001071050 METAR ESMX 071050Z 21009KT 7000 BR BKN008 03/03 Q1017=
202001071020 METAR ESMX 071020Z 19009KT 7000 BR FEW007 OVC030 03/03 Q1017=
202001070950 METAR ESMX 070950Z 19008KT 6000 BR OVC008 03/03 Q1017=
202001070920 METAR ESMX 070920Z 19009KT 5000 BR BKN008 03/03 Q1017=
202001070850 METAR ESMX 070850Z 19008KT 5000 BR BKN008 03/03 Q1017=
202001070820 METAR ESMX 070820Z 19008KT 5000 BR BKN007 03/03 Q1016=
202001070750 METAR ESMX 070750Z 19008KT 5000 BR BKN007 03/03 Q1016=
202001070720 METAR ESMX 070720Z 18008KT 5000 BR SCT007 OVC023 03/03 Q1016=
202001070650 METAR ESMX 070650Z 20006KT 6000 BR BKN006 03/03 Q1016=
202001070620 METAR ESMX 070620Z 20007KT 6000 BR OVC006 03/03 Q1015=
202001070550 METAR ESMX 070550Z 20007KT 6000 -DZ OVC005 03/03 Q1015=
202001070520 METAR ESMX 070520Z 21008KT 5000 -DZ OVC004 03/03 Q1015=
202001070450 METAR ESMX 070450Z 19008KT 4300 -DZ OVC004 03/03 Q1015=
202001070420 METAR ESMX 070420Z AUTO 19009KT 4300 DZ OVC005/// 03/03 Q1014=
202001070350 METAR ESMX 070350Z AUTO 19009KT 6000 DZ BKN006/// OVC008/// 04/03 Q1015=
202001070320 METAR ESMX 070320Z AUTO 19010KT 4900 -RA BKN007/// OVC029/// 04/03 Q1015 REDZ=
202001070250 METAR ESMX 070250Z AUTO 19010KT 6000 DZ FEW009/// SCT010/// OVC030/// 04/03 Q1015 REUP=
202001070220 METAR ESMX 070220Z AUTO 18010KT 9999 UP FEW011/// OVC023/// 04/03 Q1015=
202001070150 METAR ESMX 070150Z AUTO 19010KT 9999 FEW012/// SCT017/// OVC023/// 04/03 Q1015=
202001070120 METAR ESMX 070120Z AUTO 20010KT 9999 FEW007/// SCT009/// OVC024/// 04/04 Q1015=
202001070050 METAR ESMX 070050Z AUTO 21010KT 9000 BR BKN006/// OVC009/// 04/04 Q1015=
202001070020 METAR ESMX 070020Z AUTO 21009KT 7000 -DZ FEW002/// BKN005/// BKN017/// 05/04 Q1015=
202001062350 METAR ESMX 062350Z AUTO 20010KT 8000 -RA SCT005/// BKN007/// OVC010/// 05/05 Q1015 REDZ=
202001062320 METAR ESMX 062320Z AUTO 21008KT 2800 DZ FEW002/// OVC005/// 05/05 Q1015=
202001062250 METAR ESMX 062250Z AUTO 22007KT 6000 BR BKN005/// BKN008/// OVC027/// 05/05 Q1015 REDZ=
202001062220 METAR ESMX 062220Z AUTO 23008KT 6000 -DZ BKN006/// OVC007/// 05/05 Q1016 REUP=
202001062150 METAR ESMX 062150Z AUTO 23010KT 9999 BKN003/// OVC004/// 06/06 Q1016=
202001062120 METAR ESMX 062120Z AUTO 21010KT 4500 BR OVC003/// 06/06 Q1016=
202001062050 METAR ESMX 062050Z AUTO 21007KT 8000 BR OVC003/// 06/06 Q1016=
202001062020 METAR ESMX 062020Z AUTO 23008KT 9999 SCT002/// OVC005/// 06/06 Q1016=
202001061950 METAR ESMX 061950Z 23007KT 200V260 2100 BR OVC002 06/06 Q1016=
202001061920 METAR ESMX 061920Z 22006KT 2800 BR OVC002 06/06 Q1016=
202001061850 METAR ESMX 061850Z 20007KT 2700 BR OVC002 06/06 Q1016=
202001061820 METAR COR ESMX 061820Z 21007KT 2300 BR BKN002 06/06 Q1016=
202001061750 METAR ESMX 061750Z 21005KT 7000 BR BKN003 06/06 Q1017=
202001061720 METAR ESMX 061720Z 21005KT 8000 BR BKN005 06/06 Q1017=
202001061650 METAR ESMX 061650Z 22004KT 9999 BKN008 06/05 Q1017=
202001061620 METAR ESMX 061620Z 24007KT 9999 BKN008 06/06 Q1017=
202001061550 METAR ESMX 061550Z 25008KT 9999 BKN008 06/06 Q1017=
202001061520 METAR ESMX 061520Z 25008KT 210V280 9999 BKN008 06/06 Q1017=
202001061450 METAR ESMX 061450Z 24008KT 9999 BKN006 06/06 Q1017=
202001061420 METAR ESMX 061420Z 25007KT 8000 BR BKN005 06/06 Q1018=
202001061350 METAR ESMX 061350Z 23007KT 6000 BR BKN006 06/06 Q1018=
202001061320 METAR ESMX 061320Z 25008KT 9999 BKN005 06/06 Q1018=
202001061250 METAR ESMX 061250Z 25007KT 220V280 9999 BR BKN003 06/06 Q1018=
202001061220 METAR ESMX 061220Z 22006KT 200V260 2300 BR OVC002 06/06 Q1018=
202001061150 METAR ESMX 061150Z 23007KT 2000 BR OVC002 06/06 Q1018=
202001061120 METAR ESMX 061120Z 21006KT 1800 BR OVC002 06/06 Q1018=
202001061050 METAR ESMX 061050Z 23006KT 2500 BR OVC002 06/06 Q1019=
202001061020 METAR ESMX 061020Z 21006KT 2400 BR OVC002 06/06 Q1018=
202001060950 METAR ESMX 060950Z 20005KT 170V230 2300 -DZ OVC002 05/05 Q1019=
202001060920 METAR ESMX 060920Z 23006KT 2400 BR OVC002 05/05 Q1019=
202001060850 METAR ESMX 060850Z 22005KT 2200 -DZ OVC002 05/05 Q1019=
202001060820 METAR ESMX 060820Z 22004KT 190V270 4000 BR OVC002 05/05 Q1019=
202001060750 METAR ESMX 060750Z 25005KT 220V290 5000 BR OVC002 05/05 Q1019=
202001060720 METAR ESMX 060720Z 25004KT 190V290 3500 BR OVC002 05/05 Q1019=
202001060650 METAR ESMX 060650Z 26006KT 210V290 3400 BR OVC002 05/05 Q1019=
202001060620 METAR ESMX 060620Z 26007KT 3300 BR OVC002 05/05 Q1018=
202001060550 METAR COR ESMX 060550Z 25006KT 3300 BR OVC003 05/05 Q1019=
202001060520 METAR ESMX 060520Z AUTO 25007KT 210V280 5000 BR OVC003/// 05/05 Q1018=
202001060450 METAR ESMX 060450Z AUTO 26009KT 5000 BR OVC004/// 05/05 Q1018=
202001060420 METAR ESMX 060420Z AUTO 26010KT 5000 BR OVC004/// 05/05 Q1018=
202001060350 METAR ESMX 060350Z AUTO 25008KT 9999 OVC004/// 05/05 Q1018=
202001060320 METAR ESMX 060320Z AUTO 25009KT 6000 BR OVC004/// 05/05 Q1018=
202001060250 METAR ESMX 060250Z AUTO 24009KT 7000 BR OVC004/// 05/05 Q1018=
202001060220 METAR ESMX 060220Z AUTO 24009KT 6000 BR OVC004/// 05/04 Q1019=
202001060150 METAR ESMX 060150Z AUTO 22009KT 9999 OVC005/// 04/04 Q1019=
202001060120 METAR ESMX 060120Z AUTO 23008KT 9999 OVC005/// 04/04 Q1019=
202001060050 METAR ESMX 060050Z AUTO 23009KT 9999 BKN005/// OVC007/// 04/04 Q1019 REDZ REUP=
202001060020 METAR ESMX 060020Z AUTO 25009KT 210V270 2300 DZ OVC005/// 05/05 Q1019 REUP=
202001052350 METAR ESMX 052350Z AUTO 23010KT 7000 BR OVC004/// 05/04 Q1019=
202001052320 METAR ESMX 052320Z AUTO 25010KT 210V280 9999 OVC005/// 05/04 Q1020=
202001052250 METAR ESMX 052250Z AUTO 24013KT 4500 BR FEW002/// OVC004/// 04/04 Q1019=
202001052220 METAR ESMX 052220Z AUTO 24011KT 6000 BR OVC002/// 04/04 Q1020=
202001052150 METAR ESMX 052150Z AUTO 23010KT 5000 BR OVC002/// 04/04 Q1020 REDZ=
202001052120 METAR ESMX 052120Z 21011KT 8000 BR OVC003 03/03 Q1020=
202001052050 METAR ESMX 052050Z 22014KT 3700 -RA BR OVC002 03/03 Q1020=
202001052020 METAR COR ESMX 052020Z 22012KT 2000 -RA BR OVC002 03/03 Q1020=
202001051950 METAR ESMX 051950Z 22012KT 2500 BR OVC002 03/03 Q1021=
202001051920 METAR ESMX 051920Z 21011KT 4900 BR OVC002 02/02 Q1021=
202001051850 METAR COR ESMX 051850Z 19011KT 6000 BR OVC002 02/02 Q1021=
202001051820 METAR ESMX 051820Z 19012KT 4000 -RA BR OVC002 02/02 Q1022=
202001051750 METAR ESMX 051750Z 19012KT 1800 RA BR BKN002 01/01 Q1022=
202001051720 METAR ESMX 051720Z 21011KT 6000 -RA BR SCT002 OVC004 01/01 Q1023=
202001051650 METAR ESMX 051650Z 19011KT 5000 -RA BR SCT003 BKN008 01/01 Q1023=
202001051620 METAR ESMX 051620Z 18010KT 9999 -SN SCT011 BKN014 01/00 Q1023=
202001051550 METAR ESMX 051550Z 19011KT 9999 -SN FEW014 BKN021 01/00 Q1023=
202001051520 METAR ESMX 051520Z 20010KT 8000 -SN OVC024 01/01 Q1024=
202001051450 METAR ESMX 051450Z 19009KT 3600 -SN OVC019 01/00 Q1024=
202001051420 METAR ESMX 051420Z 20009KT 6000 -SN OVC035 01/M01 Q1025=
202001051350 METAR ESMX 051350Z 21007KT CAVOK 01/M01 Q1025=
202001051320 METAR ESMX 051320Z 19008KT CAVOK 01/M01 Q1025=
202001051250 METAR ESMX 051250Z 20007KT CAVOK 01/M01 Q1025=
202001051220 METAR ESMX 051220Z 21007KT CAVOK 01/M02 Q1025=
202001051150 METAR ESMX 051150Z 19007KT CAVOK 00/M03 Q1026=
202001051120 METAR ESMX 051120Z 19006KT CAVOK M00/M04 Q1026=
202001051050 METAR ESMX 051050Z AUTO 19005KT 9999 OVC130/// M01/M04 Q1026=
202001051020 METAR ESMX 051020Z 19004KT CAVOK M02/M04 Q1027=
202001050950 METAR ESMX 050950Z 22004KT CAVOK M02/M05 Q1027=
202001050920 METAR ESMX 050920Z 23006KT CAVOK M03/M05 Q1027=
202001050850 METAR ESMX 050850Z 23007KT CAVOK M04/M05 Q1027=
202001050820 METAR ESMX 050820Z 18003KT CAVOK M06/M08 Q1026=
202001050750 METAR ESMX 050750Z 16002KT CAVOK M03/M06 Q1026=
202001050720 METAR ESMX 050720Z 25004KT CAVOK M04/M06 Q1026=
202001050650 METAR ESMX 050650Z 28004KT CAVOK M05/M07 Q1026=
202001050620 METAR ESMX 050620Z AUTO 27003KT 9999 NCD M05/M07 Q1026=
202001050550 METAR ESMX 050550Z AUTO 29004KT 9999 NCD M04/M07 Q1026=
202001050520 METAR ESMX 050520Z AUTO 28005KT 9999 NCD M04/M07 Q1025=
202001050450 METAR ESMX 050450Z AUTO 29004KT 9999 NCD M03/M06 Q1025=
202001050420 METAR ESMX 050420Z AUTO 31005KT 9999 NCD M02/M06 Q1025=
202001050350 METAR ESMX 050350Z AUTO 31006KT 9999 NCD M02/M06 Q1024=
202001050320 METAR ESMX 050320Z AUTO 30006KT 9999 NCD M02/M06 Q1024=
202001050250 METAR ESMX 050250Z AUTO 29007KT 9999 NCD M02/M07 Q1024=
202001050220 METAR ESMX 050220Z AUTO 30008KT 9999 NCD M01/M07 Q1023=
202001050150 METAR ESMX 050150Z AUTO 30007KT 9999 NCD M01/M07 Q1023=
202001050120 METAR ESMX 050120Z AUTO 29010KT 9999 NCD M01/M07 Q1022=
202001050050 METAR ESMX 050050Z AUTO 30009KT 9999 NCD M01/M07 Q1022=
202001050020 METAR ESMX 050020Z AUTO 31007KT 280V340 9999 NCD M01/M07 Q1022=
202001042350 METAR ESMX 042350Z AUTO 30009KT 270V330 9999 NCD M01/M07 Q1021=
202001042320 METAR ESMX 042320Z AUTO 30009KT 9999 NCD M00/M07 Q1021=
202001042250 METAR ESMX 042250Z AUTO 30009KT 260V330 9999 NCD M00/M07 Q1020=
202001042220 METAR ESMX 042220Z AUTO 30010KT 9999 NCD M00/M07 Q1020=
202001042150 METAR ESMX 042150Z AUTO 30013KT 9999 NCD M00/M06 Q1019=
202001042120 METAR ESMX 042120Z AUTO 30013KT 9999 NCD 00/M06 Q1019=
202001042050 METAR ESMX 042050Z AUTO 30012KT 9999 NCD 00/M06 Q1018=
202001042020 METAR ESMX 042020Z AUTO 30012KT 9999 NCD 00/M06 Q1017=
202001041950 METAR ESMX 041950Z AUTO 31010KT 9999 NCD 00/M06 Q1016=
202001041920 METAR ESMX 041920Z AUTO 31012KT 9999 NCD 01/M06 Q1015=
202001041850 METAR ESMX 041850Z AUTO 31012KT 9999 NCD 01/M06 Q1014=
202001041820 METAR ESMX 041820Z AUTO 31013KT 9999 NCD 01/M06 Q1013=
202001041750 METAR ESMX 041750Z AUTO 31012KT 9999 NCD 01/M06 Q1012=
202001041720 METAR ESMX 041720Z AUTO 30012KT 9999 NCD 01/M06 Q1011=
202001041650 METAR ESMX 041650Z AUTO 32013KT 9999 NCD 01/M06 Q1010=
202001041620 METAR ESMX 041620Z AUTO 31014KT 9999 NCD 02/M05 Q1010=
202001041550 METAR ESMX 041550Z AUTO 31010KT 9999 NCD 02/M05 Q1009=
202001041520 METAR ESMX 041520Z AUTO 30009KT 9999 NCD 01/M04 Q1008=
202001041450 METAR ESMX 041450Z AUTO 30010KT 9999 NCD 02/M04 Q1007=
202001041420 METAR ESMX 041420Z AUTO 31010KT 9999 NCD 02/M03 Q1006=
202001041350 METAR ESMX 041350Z AUTO 30010KT 9999 NCD 02/M03 Q1005=
202001041320 METAR ESMX 041320Z AUTO 30011KT 9999 NCD 03/M03 Q1005=
202001041250 METAR ESMX 041250Z AUTO 30012KT 9999 NCD 03/M02 Q1005=
202001041220 METAR ESMX 041220Z AUTO 30011KT 9999 NCD 03/M02 Q1004=
202001041150 METAR ESMX 041150Z AUTO 29013KT 9999 NCD 03/M02 Q1003=
202001041120 METAR ESMX 041120Z AUTO 29014G24KT 260V330 9999 NCD 02/M03 Q1003=
202001041050 METAR ESMX 041050Z AUTO 28009KT 250V320 9999 NCD 02/M02 Q1003=
202001041020 METAR ESMX 041020Z AUTO 26007KT 220V300 9999 NCD 02/M02 Q1002=
202001040950 METAR ESMX 040950Z AUTO 27009KT 9999 NCD 02/M02 Q1003=
202001040920 METAR ESMX 040920Z AUTO 26009KT 9999 NCD 02/M03 Q1003=
202001040850 METAR ESMX 040850Z AUTO 27010KT 9999 NCD 01/M03 Q1002=
202001040820 METAR ESMX 040820Z AUTO 27010KT 9999 NCD 01/M03 Q1002=
202001040750 METAR ESMX 040750Z AUTO 27009KT 9999 NCD 01/M02 Q1002=
202001040720 METAR ESMX 040720Z AUTO 27011KT 9999 NCD 02/M02 Q1002=
202001040650 METAR ESMX 040650Z AUTO 27008KT 9999 FEW055/// 02/M01 Q1002=
202001040620 METAR ESMX 040620Z AUTO 26010KT 210V290 9999 SCT024/// BKN039/// BKN051/// 02/M00 Q1002=
202001040550 METAR ESMX 040550Z AUTO 26018KT 9999 -DZ FEW040/// SCT057/// BKN072/// 02/00 Q1002 REUP=
202001040520 METAR ESMX 040520Z AUTO 27010KT 9999 NCD 02/00 Q1002=
202001040450 METAR ESMX 040450Z AUTO 27011KT 240V300 9999 NCD 02/00 Q1002=
202001040420 METAR ESMX 040420Z AUTO 26013KT 9999 NCD 02/01 Q1002=
202001040350 METAR ESMX 040350Z AUTO 26013KT 9999 FEW023/// 02/01 Q1001=
202001040320 METAR ESMX 040320Z AUTO 25012G22KT 9999 FEW024/// 02/02 Q1002=
202001040250 METAR ESMX 040250Z AUTO 25011KT 210V280 9999 FEW001/// SCT010/// 01/01 Q1001 RESHRA=
202001040220 METAR ESMX 040220Z AUTO 28024G38KT 260V320 1800 RA FEW008/// OVC012/// 03/02 Q1002 RERA=
202001040150 METAR ESMX 040150Z AUTO 24014G24KT 210V280 9999 -RA BKN013/// BKN022/// OVC029/// 04/02 Q1001 REDZ=
202001040120 METAR ESMX 040120Z AUTO 24013KT 9999 BKN013/// OVC018/// 03/02 Q1002 RERA=
202001040050 METAR ESMX 040050Z AUTO 25015G25KT 9999 SCT015/// OVC023/// 04/02 Q1002 REDZ REUP RESHUP=
202001040020 METAR ESMX 040020Z AUTO 25013KT 9999 SCT027/// 04/01 Q1002=
202001032350 METAR ESMX 032350Z AUTO 25014G28KT 9999 OVC018/// 04/02 Q1003=
202001032320 METAR ESMX 032320Z AUTO 23012KT 190V260 9999 BKN021/// OVC033/// 04/02 Q1004=
202001032250 METAR ESMX 032250Z AUTO 25012G23KT 210V280 9999 BKN022/// OVC031/// 04/02 Q1004=
202001032220 METAR ESMX 032220Z AUTO 25011KT 210V280 9999 OVC022/// 04/02 Q1004=
202001032150 METAR ESMX 032150Z AUTO 23011KT 9999 BKN024/// BKN029/// 03/02 Q1005=
202001032120 METAR ESMX 032120Z AUTO 24010KT 9999 FEW020/// 03/02 Q1005=
202001032050 METAR ESMX 032050Z AUTO 24011KT 9999 FEW011/// SCT023/// 03/02 Q1005=
202001032020 METAR ESMX 032020Z AUTO 24010KT 9999 VV010 02/02 Q1005=
202001031950 METAR ESMX 031950Z AUTO 24009KT 9999 VV012 02/02 Q1005=
202001031920 METAR ESMX 031920Z AUTO 24009KT 9999 NCD 03/02 Q1005=
202001031850 METAR ESMX 031850Z AUTO 25009KT 9999 FEW007/// 03/02 Q1005=
202001031820 METAR ESMX 031820Z 25008KT 9999 SCT012 BKN160 02/02 Q1005=
202001031750 METAR ESMX 031750Z 26009KT 9999 FEW012 02/02 Q1005=
202001031720 METAR ESMX 031720Z 25009KT CAVOK 02/02 Q1005=
202001031650 METAR ESMX 031650Z 25008KT CAVOK 02/02 Q1005=
202001031620 METAR ESMX 031620Z 25009KT CAVOK 03/02 Q1004=
202001031550 METAR ESMX 031550Z 25007KT 210V280 CAVOK 03/03 Q1004=
202001031520 METAR ESMX 031520Z 25009KT CAVOK 03/03 Q1004=
202001031450 METAR ESMX 031450Z 25010KT 9999 FEW015 04/03 Q1003=
202001031420 METAR ESMX 031420Z 26009KT 9999 SCT018 05/04 Q1003=
202001031350 METAR ESMX 031350Z 26010KT 9999 SCT013 05/04 Q1003=
202001031320 METAR ESMX 031320Z 26011KT 9999 SCT013 BKN015 06/05 Q1003=
202001031250 METAR ESMX 031250Z 25010KT 9999 SCT003 BKN007 06/06 Q1002=
202001031220 METAR ESMX 031220Z 23012KT 3400 -DZ BR OVC003 06/06 Q1002=
202001031150 METAR COR ESMX 031150Z 20013KT 4700 BR OVC003 05/05 Q1002=
202001031120 METAR ESMX 031120Z 20012KT 5000 BR OVC003 05/05 Q1003=
202001031050 METAR ESMX 031050Z 20013KT 5000 BR OVC002 05/05 Q1003=
202001031020 METAR ESMX 031020Z 21013KT 5000 BR OVC003 05/04 Q1003=
202001030950 METAR ESMX 030950Z 20014KT 3000 BR OVC002 04/04 Q1003=
202001030920 METAR ESMX 030920Z 21014G25KT 4000 BR OVC003 04/04 Q1004=
202001030850 METAR ESMX 030850Z 20016KT 5000 BR OVC005 04/04 Q1004=
202001030820 METAR ESMX 030820Z 20015KT 6000 -DZ FEW002 OVC004 04/04 Q1004=
202001030750 METAR COR ESMX 030750Z 21015KT 5000 -DZ OVC005 04/04 Q1004=
202001030720 METAR ESMX 030720Z AUTO 20017KT 5000 -RA SCT002/// OVC005/// 04/04 Q1004 RESHUP REDZ=
202001030650 METAR ESMX 030650Z AUTO 20015KT 3300 BR OVC002/// 04/04 Q1004=
202001030620 METAR ESMX 030620Z AUTO 20015KT 2000 DZ OVC002/// 04/04 Q1005 RESHUP REDZ=
202001030550 METAR ESMX 030550Z AUTO 19015KT 6000 BR OVC003/// 03/03 Q1005=
202001030520 METAR ESMX 030520Z AUTO 18015KT 3500 -DZ OVC002/// 03/03 Q1005 REUP=
202001030450 METAR ESMX 030450Z AUTO 19013KT 4200 BR OVC003/// 03/02 Q1006=
202001030420 METAR ESMX 030420Z AUTO 18013KT 5000 BR OVC003/// 02/02 Q1006=
202001030350 METAR ESMX 030350Z AUTO 20012KT 4300 BR OVC003/// 02/02 Q1007 REDZ=
202001030320 METAR ESMX 030320Z AUTO 19014KT 4100 BR OVC003/// 02/02 Q1008 REDZ=
202001030250 METAR ESMX 030250Z AUTO 21013KT 3300 -RA OVC002/// 01/01 Q1008 REUP=
202001030220 METAR ESMX 030220Z AUTO 20012KT 3900 BR SCT002/// OVC004/// 01/01 Q1009=
202001030150 METAR ESMX 030150Z AUTO 21013KT 5000 BR OVC005/// 01/01 Q1009=
202001030120 METAR ESMX 030120Z AUTO 22014KT 190V250 7000 BR OVC003/// 01/01 Q1010=
202001030050 METAR ESMX 030050Z AUTO 23014KT 5000 BR OVC003/// 02/01 Q1010=
202001030020 METAR ESMX 030020Z AUTO 23013KT 5000 BR OVC003/// 02/01 Q1010=
202001022350 METAR ESMX 022350Z AUTO 22011KT 7000 BR OVC005/// 01/01 Q1011=
202001022320 METAR ESMX 022320Z AUTO 22012KT 9000 BR OVC005/// 01/01 Q1011=
202001022250 METAR ESMX 022250Z AUTO 21014KT 7000 BR OVC005/// 01/01 Q1011=
202001022220 METAR ESMX 022220Z AUTO 22013KT 7000 BR OVC004/// 01/01 Q1012=
202001022150 METAR ESMX 022150Z AUTO 22013KT 5000 BR OVC003/// 01/01 Q1012=
202001022120 METAR ESMX 022120Z AUTO 22014KT 4500 BR OVC003/// 02/02 Q1012=
202001022050 METAR ESMX 022050Z AUTO 22012KT 6000 BR OVC004/// 02/02 Q1013=
202001022020 METAR ESMX 022020Z AUTO 22012KT 5000 BR OVC004/// 02/02 Q1013=
202001021950 METAR ESMX 021950Z AUTO 22011KT 5000 BR BKN004/// OVC005/// 02/02 Q1013=
202001021920 METAR ESMX 021920Z AUTO 23010KT 6000 BR OVC006/// 02/01 Q1014=
202001021850 METAR ESMX 021850Z AUTO 23010KT 5000 BR OVC006/// 02/02 Q1014=
202001021820 METAR ESMX 021820Z 23010KT 5000 BR OVC005 02/02 Q1014=
202001021750 METAR ESMX 021750Z 22010KT 5000 BR OVC005 02/02 Q1014=
202001021720 METAR ESMX 021720Z 22011KT 4800 BR OVC005 03/02 Q1014=
202001021650 METAR ESMX 021650Z 23012KT 5000 BR OVC005 03/02 Q1015=
202001021620 METAR ESMX 021620Z 23011KT 5000 BR OVC005 03/02 Q1015=
202001021550 METAR ESMX 021550Z 25012KT 5000 BR OVC005 03/02 Q1015=
202001021520 METAR ESMX 021520Z 23012KT 200V260 5000 BR OVC006 03/02 Q1015=
202001021450 METAR ESMX 021450Z 24010KT 6000 BR OVC007 03/02 Q1015=
202001021420 METAR ESMX 021420Z 24010KT 210V280 7000 BR OVC007 03/02 Q1015=
202001021350 METAR ESMX 021350Z 24010KT 200V280 7000 BR OVC007 03/02 Q1016=
202001021320 METAR ESMX 021320Z 24011KT 210V270 7000 BR OVC008 03/02 Q1016=
202001021250 METAR ESMX 021250Z 24011KT 6000 BR OVC008 03/02 Q1016=
202001021220 METAR ESMX 021220Z 25010KT 6000 BR BKN009 04/02 Q1016=
202001021150 METAR ESMX 021150Z 25011KT 220V280 6000 BR OVC009 04/02 Q1017=
202001021120 METAR ESMX 021120Z 25011KT 8000 BR BKN009 04/02 Q1017=
202001021050 METAR ESMX 021050Z 23013KT 210V270 8000 BR OVC009 04/02 Q1017=
202001021020 METAR ESMX 021020Z 23011KT 7000 BR OVC009 04/02 Q1018=
202001020950 METAR ESMX 020950Z 24009KT 7000 BR OVC010 03/02 Q1018=
202001020920 METAR ESMX 020920Z 23011KT 6000 BR OVC009 03/02 Q1018=
202001020850 METAR ESMX 020850Z 25010KT 220V280 6000 BR OVC009 03/02 Q1018=
202001020820 METAR ESMX 020820Z 26010KT 210V280 6000 BR OVC009 03/02 Q1018=
202001020750 METAR ESMX 020750Z 26010KT 7000 BR OVC009 03/02 Q1018=
202001020720 METAR ESMX 020720Z 25010KT 220V280 8000 BR OVC009 03/01 Q1018=
202001020650 METAR ESMX 020650Z 26010KT 8000 BR OVC009 03/01 Q1018=
202001020620 METAR ESMX 020620Z 24008KT 8000 BR OVC009 03/01 Q1018=
202001020550 METAR ESMX 020550Z 26008KT 9000 BR OVC009 03/01 Q1018=
202001020520 METAR ESMX 020520Z 24010KT 210V280 9000 BR OVC009 03/01 Q1018=
202001020450 METAR ESMX 020450Z AUTO 25010KT 9999 OVC009/// 03/01 Q1018=
202001020420 METAR ESMX 020420Z AUTO 26011KT 9999 OVC009/// 03/01 Q1018=
202001020350 METAR ESMX 020350Z AUTO 25010KT 9999 OVC010/// 03/01 Q1019=
202001020320 METAR ESMX 020320Z AUTO 25011KT 9999 OVC010/// 03/01 Q1019=
202001020250 METAR ESMX 020250Z AUTO 24012KT 9999 OVC010/// 03/01 Q1019=
202001020220 METAR ESMX 020220Z AUTO 25011KT 9999 OVC011/// 03/02 Q1019=
202001020150 METAR ESMX 020150Z AUTO 25011KT 230V290 9999 OVC011/// 03/02 Q1019=
202001020120 METAR ESMX 020120Z AUTO 24011KT 210V270 9999 OVC011/// 03/02 Q1019=
202001020050 METAR ESMX 020050Z AUTO 24011KT 210V280 9999 OVC011/// 03/02 Q1020=
202001020020 METAR ESMX 020020Z AUTO 26010KT 9999 OVC011/// 04/02 Q1020=
202001012350 METAR ESMX 012350Z AUTO 26010KT 9999 OVC011/// 04/02 Q1020=
202001012320 METAR ESMX 012320Z AUTO 25010KT 9999 OVC011/// 04/02 Q1020=
202001012250 METAR ESMX 012250Z AUTO 25013KT 220V290 9999 OVC011/// 04/02 Q1020=
202001012220 METAR ESMX 012220Z AUTO 26013KT 220V290 9999 OVC012/// 04/02 Q1020=
202001012150 METAR ESMX 012150Z AUTO 25013KT 220V280 9999 OVC012/// 04/02 Q1020=
202001012120 METAR ESMX 012120Z AUTO 26012KT 9999 OVC013/// 04/02 Q1021=
202001012050 METAR ESMX 012050Z AUTO 23012KT 9999 OVC014/// 04/02 Q1021=
202001012020 METAR ESMX 012020Z AUTO 24010KT 9999 OVC015/// 04/02 Q1022=
202001011950 METAR ESMX 011950Z AUTO 25008KT 220V290 9999 OVC016/// 04/02 Q1022=
202001011920 METAR COR ESMX 011920Z 24009KT 9999 OVC015 04/02 Q1022=
202001011850 METAR COR ESMX 011850Z 25009KT 9999 BKN015 04/02 Q1022=
202001011820 METAR ESMX 011820Z 26011KT 9999 BKN015 04/02 Q1022=
202001011750 METAR ESMX 011750Z 25011KT 210V280 9999 BKN015 05/02 Q1022=
202001011720 METAR ESMX 011720Z 26012KT 9999 BKN014 04/02 Q1022=
202001011650 METAR ESMX 011650Z 26014KT 9999 BKN014 05/02 Q1021=
202001011620 METAR ESMX 011620Z 26014KT 9999 BKN015 05/02 Q1021=
202001011550 METAR ESMX 011550Z 27013KT 230V300 9999 BKN016 05/02 Q1021=
202001011520 METAR ESMX 011520Z 27015G28KT 9999 BKN017 05/02 Q1021=
202001011450 METAR COR ESMX 011450Z 26015KT 230V290 9999 BKN017 05/02 Q1021=
202001011420 METAR ESMX 011420Z 25016KT 9999 BKN017 05/02 Q1021=
202001011350 METAR ESMX 011350Z 26014KT 9999 BKN016 05/02 Q1021=
202001011320 METAR ESMX 011320Z 26016KT 240V300 9999 BKN016 05/02 Q1021=
202001011250 METAR ESMX 011250Z 25015G25KT 210V290 9999 BKN016 05/02 Q1021=
202001011220 METAR ESMX 011220Z 27017KT 230V300 9999 BKN017 05/02 Q1021=
