##########################################################
# Query made at 04/19/2024 22:14:10 UTC
# Time interval: from 05/01/2020 12:00  to 05/31/2020 12:59  UTC
##########################################################

##########################################################
# ESMX, Vaxjo (Sweden)
# WMO index: 02641. WIGOS ID: 0-20000-0-02648
# Latitude 56-51N. Longitude 014-50E. Altitude 199 m.
##########################################################

202005311250 METAR ESMX 311250Z AUTO 05013KT 020V090 9999 NCD 21/03 Q1028=
202005311220 METAR ESMX 311220Z AUTO 04013KT 350V080 9999 NCD 20/03 Q1028=
202005311150 METAR ESMX 311150Z AUTO 04013KT 9999 NCD 20/03 Q1028=
202005311120 METAR ESMX 311120Z AUTO 04015KT 010V080 9999 NCD 20/03 Q1028=
202005311050 METAR ESMX 311050Z AUTO 05012KT 010V110 9999 NCD 20/04 Q1028=
202005311020 METAR ESMX 311020Z AUTO 04013G23KT 020V080 9999 NCD 19/05 Q1028=
202005310950 METAR ESMX 310950Z AUTO 04013KT 020V090 9999 NCD 20/04 Q1028=
202005310920 METAR ESMX 310920Z AUTO 04014KT 010V080 9999 NCD 19/04 Q1028=
202005310850 METAR ESMX 310850Z AUTO 05012KT 9999 NCD 18/05 Q1028=
202005310820 METAR ESMX 310820Z AUTO 05011KT 320V090 9999 NCD 18/05 Q1028=
202005310750 METAR ESMX 310750Z AUTO 04011KT 9999 NCD 18/05 Q1028=
202005310720 METAR ESMX 310720Z AUTO 02010KT 350V050 9999 NCD 16/06 Q1028=
202005310650 METAR ESMX 310650Z AUTO 03010KT 360V060 9999 NCD 15/06 Q1027=
202005310620 METAR ESMX 310620Z AUTO 35010KT 320V020 9999 NCD 14/06 Q1028=
202005310550 METAR ESMX 310550Z AUTO 01010KT 9999 NCD 13/06 Q1028=
202005310520 METAR ESMX 310520Z AUTO 01008KT 9999 NCD 12/05 Q1028=
202005310450 METAR ESMX 310450Z AUTO 02009KT 9999 NCD 11/05 Q1027=
202005310420 METAR ESMX 310420Z AUTO 01009KT 9999 NCD 11/05 Q1027=
202005310350 METAR ESMX 310350Z AUTO 02009KT 9999 NCD 10/05 Q1027=
202005310320 METAR ESMX 310320Z AUTO 36010KT 330V030 9999 NCD 10/05 Q1027=
202005310250 METAR ESMX 310250Z AUTO 02009KT 9999 NCD 10/05 Q1027=
202005310220 METAR ESMX 310220Z AUTO 02009KT 9999 NCD 10/05 Q1027=
202005310150 METAR ESMX 310150Z AUTO 35009KT 9999 NCD 10/06 Q1027=
202005310120 METAR ESMX 310120Z AUTO 36010KT 9999 NCD 10/05 Q1027=
202005310050 METAR ESMX 310050Z AUTO 35009KT 310V010 9999 NCD 10/06 Q1027=
202005310020 METAR ESMX 310020Z AUTO 02010KT 9999 NCD 11/05 Q1028=
202005302350 METAR ESMX 302350Z AUTO 34007KT 9999 NCD 09/05 Q1028=
202005302320 METAR ESMX 302320Z AUTO 29005KT 240V350 9999 NCD 09/05 Q1028=
202005302250 METAR ESMX 302250Z AUTO 36004KT 9999 NCD 09/05 Q1028=
202005302220 METAR ESMX 302220Z AUTO 33005KT 240V010 9999 NCD 10/05 Q1028=
202005302150 METAR ESMX 302150Z AUTO 01004KT 9999 NCD 09/05 Q1028=
202005302120 METAR ESMX 302120Z AUTO 03005KT 9999 NCD 12/05 Q1028=
202005302050 METAR ESMX 302050Z AUTO 03006KT 9999 NCD 12/04 Q1028=
202005302020 METAR ESMX 302020Z AUTO 03007KT 9999 NCD 13/04 Q1028=
202005301950 METAR ESMX 301950Z AUTO 06006KT 030V090 9999 NCD 14/05 Q1028=
202005301920 METAR ESMX 301920Z AUTO 06005KT 020V100 9999 NCD 14/05 Q1027=
202005301850 METAR ESMX 301850Z AUTO 06005KT 020V090 9999 NCD 15/05 Q1027=
202005301820 METAR ESMX 301820Z AUTO 05004KT 010V080 9999 NCD 15/05 Q1027=
202005301750 METAR ESMX 301750Z AUTO 06006KT 030V100 9999 NCD 16/04 Q1027=
202005301720 METAR ESMX 301720Z AUTO 04010KT 9999 NCD 16/04 Q1027=
202005301650 METAR ESMX 301650Z AUTO 05010KT 010V080 9999 NCD 16/04 Q1027=
202005301620 METAR ESMX 301620Z AUTO 04012KT 9999 SCT057/// 17/04 Q1027=
202005301550 METAR ESMX 301550Z AUTO 04011KT 010V070 9999 SCT059/// 18/03 Q1027=
202005301520 METAR ESMX 301520Z AUTO 04012KT 020V080 9999 SCT057/// 18/04 Q1027=
202005301450 METAR ESMX 301450Z AUTO 05012KT 020V080 9999 SCT059/// 18/04 Q1027=
202005301420 METAR ESMX 301420Z AUTO 05009KT 010V080 9999 SCT059/// 17/03 Q1027=
202005301350 METAR ESMX 301350Z AUTO 03013KT 9999 BKN057/// 17/04 Q1027=
202005301320 METAR ESMX 301320Z AUTO 04012KT 010V090 9999 SCT057/// 18/04 Q1027=
202005301250 METAR ESMX 301250Z AUTO 03012KT 350V080 9999 FEW057/// 18/04 Q1027=
202005301220 METAR ESMX 301220Z AUTO 03014KT 360V070 9999 BKN059/// 19/04 Q1027=
202005301150 METAR ESMX 301150Z AUTO 02012KT 350V070 9999 BKN059/// 18/04 Q1027=
202005301120 METAR ESMX 301120Z AUTO 03012KT 360V080 9999 BKN061/// 17/04 Q1028=
202005301050 METAR ESMX 301050Z AUTO 04013KT 010V080 9999 SCT059/// 19/04 Q1028=
202005301020 METAR ESMX 301020Z AUTO 04013KT 020V080 9999 NCD 18/04 Q1028=
202005300950 METAR ESMX 300950Z AUTO 01013KT 9999 SCT059/// 18/04 Q1028=
202005300920 METAR ESMX 300920Z AUTO 04012KT 010V070 9999 BKN057/// 18/03 Q1028=
202005300850 METAR ESMX 300850Z AUTO 03012KT 360V080 9999 NCD 17/03 Q1028=
202005300820 METAR ESMX 300820Z AUTO 03010KT 9999 FEW059/// 17/04 Q1028=
202005300750 METAR ESMX 300750Z AUTO 36007KT 340V040 9999 NCD 16/04 Q1028=
202005300720 METAR ESMX 300720Z AUTO 01006KT 340V050 9999 NCD 15/04 Q1028=
202005300650 METAR ESMX 300650Z AUTO 34006KT 310V020 9999 NCD 15/03 Q1029=
202005300620 METAR ESMX 300620Z AUTO 35004KT 320V040 9999 FEW072/// 13/07 Q1029=
202005300550 METAR ESMX 300550Z AUTO VRB02KT 9999 OVC070/// 12/07 Q1029=
202005300520 METAR ESMX 300520Z AUTO VRB02KT 9999 OVC072/// 11/07 Q1029=
202005300450 METAR ESMX 300450Z AUTO 16001KT 9999 OVC072/// 10/08 Q1029=
202005300420 METAR ESMX 300420Z AUTO 16003KT 9999 SCT074/// 08/07 Q1029=
202005300350 METAR ESMX 300350Z AUTO 04002KT 9999 NCD 06/06 Q1029=
202005300320 METAR ESMX 300320Z AUTO 01002KT 9999 NCD 04/03 Q1029=
202005300250 METAR ESMX 300250Z AUTO 00000KT 9999 NCD 03/03 Q1028=
202005300220 METAR ESMX 300220Z AUTO 00000KT 9999 FEW076/// 04/03 Q1029=
202005300150 METAR ESMX 300150Z AUTO 00000KT 9999 BKN074/// 05/04 Q1028=
202005300120 METAR ESMX 300120Z AUTO 00000KT 9999 NCD 04/03 Q1028=
202005300050 METAR ESMX 300050Z AUTO 00000KT 9999 FEW070/// 04/03 Q1028=
202005300020 METAR ESMX 300020Z AUTO 00000KT 9999 NCD 05/03 Q1028=
202005292350 METAR ESMX 292350Z AUTO 00000KT 9999 NCD 05/04 Q1028=
202005292320 METAR ESMX 292320Z AUTO 21001KT 9999 NCD 06/05 Q1029=
202005292250 METAR ESMX 292250Z AUTO 00000KT 9999 NCD 08/04 Q1029=
202005292220 METAR ESMX 292220Z AUTO 17002KT 9999 NCD 09/04 Q1029=
202005292150 METAR ESMX 292150Z AUTO 16003KT 9999 NCD 11/04 Q1028=
202005292120 METAR ESMX 292120Z AUTO 14003KT 080V180 9999 NCD 12/04 Q1028=
202005292050 METAR ESMX 292050Z AUTO 10004KT 050V140 9999 NCD 12/04 Q1028=
202005292020 METAR ESMX 292020Z AUTO 15004KT 9999 NCD 14/03 Q1028=
202005291950 METAR ESMX 291950Z AUTO 17005KT 9999 NCD 14/04 Q1028=
202005291920 METAR ESMX 291920Z AUTO 17005KT 9999 NCD 15/04 Q1028=
202005291850 METAR ESMX 291850Z AUTO 16007KT 9999 NCD 15/04 Q1028=
202005291820 METAR ESMX 291820Z AUTO 16007KT 120V190 9999 BKN084/// 16/05 Q1028=
202005291750 METAR ESMX 291750Z AUTO 16007KT 120V190 9999 OVC086/// 17/05 Q1027=
202005291720 METAR ESMX 291720Z AUTO 03006KT 010V070 9999 OVC084/// 19/03 Q1027=
202005291650 METAR ESMX 291650Z AUTO 04004KT 360V080 9999 OVC086/// 19/02 Q1027=
202005291620 METAR ESMX 291620Z AUTO 05004KT 350V080 9999 FEW082/// 19/02 Q1027=
202005291550 METAR ESMX 291550Z AUTO 04007KT 020V080 9999 FEW082/// SCT100/// 19/03 Q1027=
202005291520 METAR ESMX 291520Z AUTO 04004KT 350V120 9999 OVC078/// 20/03 Q1027=
202005291450 METAR ESMX 291450Z AUTO 01005KT 340V060 9999 BKN084/// 20/02 Q1028=
202005291420 METAR ESMX 291420Z 07004KT 350V120 CAVOK 19/02 Q1028=
202005291350 METAR ESMX 291350Z 36006KT 310V030 CAVOK 20/02 Q1028=
202005291320 METAR ESMX 291320Z 02005KT 310V080 CAVOK 19/02 Q1028=
202005291250 METAR ESMX 291250Z VRB05KT CAVOK 19/02 Q1028=
202005291220 METAR ESMX 291220Z 06007KT 360V110 CAVOK 19/03 Q1029=
202005291150 METAR ESMX 291150Z VRB02KT CAVOK 19/03 Q1029=
202005291120 METAR ESMX 291120Z 35003KT 270V080 CAVOK 20/03 Q1029=
202005291050 METAR ESMX 291050Z 02005KT 300V080 CAVOK 19/04 Q1029=
202005291020 METAR ESMX 291020Z VRB03KT CAVOK 19/04 Q1029=
202005290950 METAR ESMX 290950Z VRB03KT CAVOK 18/05 Q1030=
202005290920 METAR ESMX 290920Z 19004KT 160V230 9999 SCT048 18/04 Q1030=
202005290850 METAR COR ESMX 290850Z VRB03KT CAVOK 17/04 Q1030=
202005290820 METAR ESMX 290820Z 16005KT 070V210 CAVOK 17/05 Q1030=
202005290750 METAR ESMX 290750Z VRB04KT CAVOK 16/04 Q1030=
202005290720 METAR ESMX 290720Z 15005KT 100V190 CAVOK 16/05 Q1030=
202005290650 METAR ESMX 290650Z 13004KT 050V210 CAVOK 15/06 Q1030=
202005290620 METAR ESMX 290620Z AUTO 13003KT 9999 NCD 14/07 Q1030=
202005290550 METAR ESMX 290550Z AUTO 13003KT 9999 NCD 13/07 Q1030=
202005290520 METAR ESMX 290520Z AUTO 03004KT 9999 NCD 12/06 Q1030=
202005290450 METAR ESMX 290450Z AUTO 05003KT 020V100 9999 NCD 11/06 Q1030=
202005290420 METAR ESMX 290420Z AUTO VRB03KT 9999 NCD 10/07 Q1030=
202005290350 METAR ESMX 290350Z AUTO VRB01KT 9999 NCD 06/06 Q1030=
202005290320 METAR ESMX 290320Z AUTO 20001KT 9999 NCD 04/04 Q1030=
202005290250 METAR ESMX 290250Z AUTO 00000KT 9999 NCD 04/03 Q1030=
202005290220 METAR ESMX 290220Z AUTO 35001KT 9999 NCD 04/03 Q1030=
202005290150 METAR ESMX 290150Z AUTO 20001KT 9999 NCD 04/03 Q1030=
202005290120 METAR ESMX 290120Z AUTO 00000KT 9999 NCD 05/04 Q1030=
202005290050 METAR ESMX 290050Z AUTO 00000KT 9999 NCD 07/05 Q1029=
202005290020 METAR ESMX 290020Z AUTO 19002KT 9999 NCD 09/05 Q1029=
202005282350 METAR ESMX 282350Z AUTO VRB03KT 9999 NCD 10/05 Q1029=
202005282320 METAR ESMX 282320Z AUTO 04006KT 9999 NCD 11/06 Q1029=
202005282250 METAR ESMX 282250Z AUTO 03004KT 9999 NCD 11/07 Q1029=
202005282220 METAR ESMX 282220Z AUTO 36007KT 9999 SCT078/// 12/07 Q1029=
202005282150 METAR ESMX 282150Z AUTO 30006KT 240V340 9999 BKN076/// 13/05 Q1029=
202005282120 METAR ESMX 282120Z AUTO 31006KT 9999 SCT084/// 13/04 Q1029=
202005282050 METAR ESMX 282050Z AUTO 30006KT 9999 FEW070/// BKN084/// 15/03 Q1028=
202005282020 METAR ESMX 282020Z AUTO 20004KT 9999 OVC088/// 13/06 Q1028=
202005281950 METAR ESMX 281950Z AUTO 20005KT 9999 OVC082/// 14/06 Q1028=
202005281920 METAR ESMX 281920Z AUTO 19007KT 9999 BKN082/// OVC096/// 15/06 Q1028=
202005281850 METAR ESMX 281850Z AUTO 21007KT 9999 BKN090/// 16/06 Q1028=
202005281820 METAR ESMX 281820Z AUTO 21007KT 9999 SCT076/// BKN092/// 17/06 Q1028=
202005281750 METAR ESMX 281750Z AUTO 21007KT 9999 OVC084/// 17/06 Q1028=
202005281720 METAR ESMX 281720Z AUTO 23004KT 9999 BKN094/// 18/03 Q1028=
202005281650 METAR ESMX 281650Z AUTO 27003KT 9999 BKN098/// 19/02 Q1028=
202005281620 METAR ESMX 281620Z AUTO 30004KT 280V340 9999 BKN098/// 19/02 Q1029=
202005281550 METAR ESMX 281550Z AUTO 32004KT 280V020 9999 OVC098/// 19/01 Q1029=
202005281520 METAR ESMX 281520Z AUTO 26005KT 240V300 9999 BKN098/// 19/02 Q1029=
202005281450 METAR ESMX 281450Z AUTO VRB03KT 9999 OVC098/// 19/02 Q1029=
202005281420 METAR ESMX 281420Z AUTO VRB03KT 9999 FEW078/// 19/01 Q1029=
202005281350 METAR ESMX 281350Z AUTO 21003KT 9999 OVC098/// 18/03 Q1029=
202005281320 METAR ESMX 281320Z AUTO 32006KT 280V360 9999 BKN096/// 18/02 Q1029=
202005281250 METAR ESMX 281250Z AUTO 35004KT 280V030 9999 FEW098/// SCT200/// ///// Q1029=
202005281220 METAR ESMX 281220Z AUTO 35004KT 300V030 9999 OVC090/// 18/02 Q1029=
202005281150 METAR ESMX 281150Z AUTO 29004KT 250V350 9999 OVC082/// 18/01 Q1029=
202005281120 METAR ESMX 281120Z AUTO VRB04KT 9999 SCT096/// 19/01 Q1030=
202005281050 METAR ESMX 281050Z AUTO 01004KT 310V050 9999 BKN086/// 17/02 Q1030=
202005281020 METAR ESMX 281020Z AUTO 02006KT 9999 OVC080/// 18/03 Q1030=
202005280950 METAR ESMX 280950Z VRB04KT CAVOK 18/02 Q1030=
202005280920 METAR ESMX 280920Z VRB04KT CAVOK 17/01 Q1030=
202005280850 METAR ESMX 280850Z 02005KT 280V070 CAVOK 17/02 Q1030=
202005280820 METAR ESMX 280820Z 02007KT 350V080 CAVOK 17/03 Q1030=
202005280750 METAR ESMX 280750Z 04006KT 010V070 CAVOK 16/04 Q1030=
202005280720 METAR ESMX 280720Z 04005KT 010V080 CAVOK 16/03 Q1030=
202005280650 METAR ESMX 280650Z 05006KT 020V100 CAVOK 15/04 Q1030=
202005280620 METAR ESMX 280620Z AUTO 01005KT 330V050 9999 NCD 14/05 Q1030=
202005280550 METAR ESMX 280550Z AUTO 01006KT 9999 NCD 13/06 Q1030=
202005280520 METAR ESMX 280520Z AUTO 36006KT 9999 NCD 12/06 Q1030=
202005280450 METAR ESMX 280450Z AUTO 01005KT 9999 NCD 11/06 Q1029=
202005280420 METAR ESMX 280420Z AUTO 01005KT 9999 NCD 10/06 Q1029=
202005280350 METAR ESMX 280350Z AUTO 36004KT 9999 NCD 09/06 Q1029=
202005280320 METAR ESMX 280320Z AUTO 33006KT 9999 NCD 08/05 Q1029=
202005280250 METAR ESMX 280250Z AUTO 34006KT 9999 NCD 06/04 Q1028=
202005280220 METAR ESMX 280220Z AUTO 34006KT 9999 NCD 06/03 Q1028=
202005280150 METAR ESMX 280150Z AUTO 25004KT 200V340 9999 NCD 07/04 Q1028=
202005280120 METAR ESMX 280120Z AUTO 23003KT 160V300 9999 NCD 07/05 Q1028=
202005280050 METAR ESMX 280050Z AUTO 31006KT 9999 NCD 07/04 Q1028=
202005280020 METAR ESMX 280020Z AUTO 24004KT 9999 NCD 07/04 Q1028=
202005272350 METAR ESMX 272350Z AUTO 32004KT 9999 NCD 08/05 Q1028=
202005272320 METAR ESMX 272320Z AUTO 30004KT 9999 NCD 08/05 Q1028=
202005272250 METAR ESMX 272250Z AUTO 29005KT 9999 NCD 09/05 Q1028=
202005272220 METAR ESMX 272220Z AUTO 28004KT 9999 NCD 09/05 Q1027=
202005272150 METAR ESMX 272150Z AUTO 23004KT 9999 NCD 10/05 Q1027=
202005272120 METAR ESMX 272120Z AUTO 28005KT 9999 FEW170/// 10/05 Q1027=
202005272050 METAR ESMX 272050Z AUTO 29005KT 9999 SCT160/// 11/05 Q1027=
202005272020 METAR ESMX 272020Z AUTO 29005KT 9999 SCT160/// 12/05 Q1027=
202005271950 METAR ESMX 271950Z AUTO 29007KT 9999 FEW057/// SCT110/// 12/05 Q1027=
202005271920 METAR ESMX 271920Z AUTO 28006KT 9999 FEW053/// BKN120/// 13/05 Q1027=
202005271850 METAR ESMX 271850Z AUTO 29008KT 9999 BKN110/// 13/04 Q1027=
202005271820 METAR ESMX 271820Z AUTO 29008KT 9999 FEW110/// 13/05 Q1026=
202005271750 METAR ESMX 271750Z AUTO 28009KT 230V310 9999 BKN110/// 14/05 Q1026=
202005271720 METAR ESMX 271720Z AUTO 30011KT 280V340 9999 BKN110/// 15/06 Q1026=
202005271650 METAR ESMX 271650Z AUTO 27011KT 230V300 9999 BKN110/// 15/07 Q1026=
202005271620 METAR ESMX 271620Z AUTO 28010KT 9999 FEW047/// OVC150/// 16/06 Q1026=
202005271550 METAR ESMX 271550Z AUTO 30009KT 260V330 9999 FEW130/// SCT170/// 16/06 Q1026=
202005271520 METAR ESMX 271520Z AUTO 25011KT 9999 SCT130/// 16/06 Q1026=
202005271450 METAR ESMX 271450Z AUTO 26010KT 9999 FEW037/// BKN140/// BKN180/// 16/08 Q1026=
202005271420 METAR ESMX 271420Z AUTO 24009KT 210V280 9999 OVC140/// 16/08 Q1027=
202005271350 METAR ESMX 271350Z AUTO 28010KT 9999 OVC150/// 16/07 Q1027=
202005271320 METAR ESMX 271320Z 27013KT 240V300 9999 SCT039 17/09 Q1027=
202005271250 METAR ESMX 271250Z 27012KT 9999 SCT042 18/08 Q1027=
202005271220 METAR ESMX 271220Z 26011KT 210V300 9999 SCT043 18/09 Q1027=
202005271150 METAR ESMX 271150Z 26010KT 210V290 9999 SCT044 18/08 Q1027=
202005271120 METAR ESMX 271120Z 24011KT 9999 SCT043 18/08 Q1027=
202005271050 METAR ESMX 271050Z 26009KT 220V290 9999 BKN048 19/09 Q1027=
202005271020 METAR ESMX 271020Z 25009KT 210V290 9999 SCT042 19/09 Q1028=
202005270950 METAR ESMX 270950Z 26009KT 220V310 9999 SCT040 18/08 Q1028=
202005270920 METAR ESMX 270920Z 24009KT 210V270 9999 FEW040 18/08 Q1028=
202005270850 METAR ESMX 270850Z 23010KT 210V280 CAVOK 18/08 Q1028=
202005270820 METAR ESMX 270820Z 23008KT 190V280 CAVOK 16/08 Q1029=
202005270750 METAR ESMX 270750Z 23009KT 200V260 CAVOK 16/08 Q1029=
202005270720 METAR ESMX 270720Z 23010KT CAVOK 15/08 Q1029=
202005270650 METAR ESMX 270650Z 24007KT 210V290 CAVOK 16/09 Q1029=
202005270620 METAR ESMX 270620Z AUTO 25007KT 9999 OVC070/// 14/09 Q1029=
202005270550 METAR ESMX 270550Z AUTO 25006KT 9999 OVC074/// 13/09 Q1030=
202005270520 METAR ESMX 270520Z AUTO 24007KT 9999 BKN076/// OVC098/// 14/09 Q1030=
202005270450 METAR ESMX 270450Z AUTO 26005KT 9999 BKN098/// 12/09 Q1030=
202005270420 METAR ESMX 270420Z AUTO 22005KT 9999 BKN098/// 11/08 Q1030=
202005270350 METAR ESMX 270350Z AUTO 24003KT 210V290 9999 BKN100/// 10/08 Q1030=
202005270320 METAR ESMX 270320Z AUTO 24003KT 9999 NCD 07/06 Q1030=
202005270250 METAR ESMX 270250Z AUTO 23003KT 9999 NCD 06/05 Q1031=
202005270220 METAR ESMX 270220Z AUTO 22004KT 9999 NCD 07/06 Q1031=
202005270150 METAR ESMX 270150Z AUTO 22003KT 9999 NCD 08/07 Q1031=
202005270120 METAR ESMX 270120Z AUTO 19003KT 9999 NCD 08/07 Q1031=
202005270050 METAR ESMX 270050Z AUTO 25003KT 9999 NCD 08/07 Q1032=
202005270020 METAR ESMX 270020Z AUTO 26003KT 9999 NCD 09/07 Q1032=
202005262350 METAR ESMX 262350Z AUTO 26003KT 9999 NCD 10/07 Q1032=
202005262320 METAR ESMX 262320Z AUTO 25003KT 9999 NCD 10/06 Q1032=
202005262250 METAR ESMX 262250Z AUTO 25004KT 9999 SCT150/// 10/06 Q1032=
202005262220 METAR ESMX 262220Z AUTO 26005KT 9999 FEW150/// 11/06 Q1032=
202005262150 METAR ESMX 262150Z AUTO 21005KT 9999 NCD 12/07 Q1032=
202005262120 METAR ESMX 262120Z AUTO 21005KT 9999 NCD 12/07 Q1032=
202005262050 METAR ESMX 262050Z AUTO 24005KT 9999 NCD 13/07 Q1032=
202005262020 METAR ESMX 262020Z AUTO 25005KT 9999 NCD 14/06 Q1032=
202005261950 METAR ESMX 261950Z AUTO 24005KT 9999 NCD 15/06 Q1032=
202005261920 METAR ESMX 261920Z AUTO 24006KT 9999 NCD 16/06 Q1032=
202005261850 METAR ESMX 261850Z AUTO 24007KT 190V260 9999 FEW059/// 17/06 Q1032=
202005261820 METAR ESMX 261820Z AUTO 26008KT 9999 FEW057/// SCT070/// 18/07 Q1032=
202005261750 METAR ESMX 261750Z AUTO 21005KT 9999 SCT086/// 18/08 Q1032=
202005261720 METAR ESMX 261720Z AUTO 24005KT 9999 FEW088/// 19/07 Q1032=
202005261650 METAR ESMX 261650Z AUTO 26008KT 9999 FEW068/// BKN088/// 20/06 Q1032=
202005261620 METAR ESMX 261620Z AUTO 23007KT 150V290 9999 OVC084/// 21/05 Q1032=
202005261550 METAR ESMX 261550Z AUTO 19004KT 9999 OVC076/// 19/05 Q1032=
202005261520 METAR ESMX 261520Z AUTO 23006KT 9999 OVC086/// 19/05 Q1033=
202005261450 METAR ESMX 261450Z AUTO VRB03KT 9999 FEW066/// OVC084/// 21/06 Q1033=
202005261420 METAR ESMX 261420Z AUTO 23006KT 190V300 9999 OVC078/// 20/05 Q1033=
202005261350 METAR ESMX 261350Z AUTO 31003KT 240V360 9999 FEW064/// BKN082/// 19/04 Q1033=
202005261320 METAR ESMX 261320Z VRB02KT CAVOK 20/06 Q1033=
202005261250 METAR ESMX 261250Z 21005KT 190V260 CAVOK 20/06 Q1034=
202005261220 METAR ESMX 261220Z 34003KT 250V050 9999 FEW050 19/05 Q1034=
202005261150 METAR ESMX 261150Z VRB03KT CAVOK 20/06 Q1034=
202005261120 METAR ESMX 261120Z VRB03KT CAVOK 19/05 Q1034=
202005261050 METAR ESMX 261050Z 20004KT 160V280 CAVOK 19/05 Q1034=
202005261020 METAR ESMX 261020Z 07005KT 020V150 CAVOK 18/04 Q1034=
202005260950 METAR ESMX 260950Z 22002KT CAVOK 18/06 Q1034=
202005260920 METAR ESMX 260920Z VRB03KT CAVOK 19/06 Q1034=
202005260850 METAR ESMX 260850Z VRB03KT 9999 FEW048 18/06 Q1035=
202005260820 METAR ESMX 260820Z VRB02KT 9999 FEW043 18/07 Q1035=
202005260750 METAR ESMX 260750Z VRB03KT CAVOK 17/07 Q1035=
202005260720 METAR ESMX 260720Z 23004KT 200V280 CAVOK 16/07 Q1035=
202005260650 METAR ESMX 260650Z VRB02KT CAVOK 15/08 Q1034=
202005260620 METAR ESMX 260620Z VRB03KT CAVOK 14/11 Q1034=
202005260550 METAR ESMX 260550Z AUTO VRB02KT 9999 R01///// R19/P2000N NCD 12/11 Q1034=
202005260520 METAR ESMX 260520Z AUTO 13002KT 9999 R01///// R19/P2000N NCD 11/11 Q1034=
202005260450 METAR ESMX 260450Z AUTO 00000KT 9999 R01///// R19/P2000N NCD 09/09 Q1034=
202005260420 METAR ESMX 260420Z AUTO 00000KT 1200 R01///// R19/P2000N NCD 06/06 Q1034=
202005260350 METAR ESMX 260350Z AUTO 00000KT 0650 R01///// R19/0800U BKN000/// 04/04 Q1034=
202005260320 METAR ESMX 260320Z AUTO 00000KT 0100 R01///// R19/0250N VV000 03/03 Q1033=
202005260250 METAR ESMX 260250Z AUTO 00000KT 0300 R01///// R19/0650N VV000 02/02 Q1033=
202005260220 METAR ESMX 260220Z AUTO 00000KT 0350 R01///// R19/0800N NCD 03/03 Q1033=
202005260150 METAR ESMX 260150Z AUTO 00000KT 0250 R01///// R19/0500N NCD 03/03 Q1033=
202005260120 METAR ESMX 260120Z AUTO 13001KT 0150 R01///// R19/0550N NCD 03/03 Q1033=
202005260050 METAR ESMX 260050Z AUTO 00000KT 0200 R01///// R19/0550N NCD 03/03 Q1033=
202005260020 METAR ESMX 260020Z AUTO 28002KT 0250 R01///// R19/0900N NCD 04/04 Q1033=
202005252350 METAR ESMX 252350Z AUTO 00000KT 0450 R01///// R19/1900D NCD 03/03 Q1033=
202005252320 METAR ESMX 252320Z AUTO 00000KT 0250 R01///// R19/0750N NCD 05/05 Q1032=
202005252250 METAR ESMX 252250Z AUTO 00000KT 0450 R01///// R19/1500N NCD 05/05 Q1032=
202005252220 METAR ESMX 252220Z AUTO 00000KT 0150 R01///// R19/0500N NCD 06/06 Q1032=
202005252150 METAR ESMX 252150Z AUTO 00000KT 0250 R01///// R19/0650U NCD 07/07 Q1032=
202005252120 METAR ESMX 252120Z AUTO 00000KT 0350 R01/1200U R19/1300D BCFG NCD 06/06 Q1032=
202005252050 METAR ESMX 252050Z AUTO 00000KT 0400 R01/P2000N R19/P2000D BR NCD 08/08 Q1032=
202005252020 METAR ESMX 252020Z AUTO 00000KT 0750 R01/P2000N R19/1200N NCD 09/09 Q1032=
202005251950 METAR ESMX 251950Z AUTO 09002KT 9999 NCD 10/09 Q1031=
202005251920 METAR ESMX 251920Z AUTO 13001KT 9999 NCD 11/10 Q1031=
202005251850 METAR ESMX 251850Z AUTO 13003KT 9999 FEW086/// 13/10 Q1031=
202005251820 METAR ESMX 251820Z AUTO 08002KT 9999 BKN082/// 14/10 Q1030=
202005251750 METAR ESMX 251750Z AUTO 06003KT 030V100 9999 OVC066/// 14/09 Q1030=
202005251720 METAR ESMX 251720Z AUTO 15004KT 100V190 9999 FEW084/// 14/10 Q1030=
202005251650 METAR ESMX 251650Z AUTO 16003KT 100V190 9999 NCD 14/11 Q1029=
202005251620 METAR ESMX 251620Z AUTO 04007KT 9999 FEW048/// BKN066/// 13/11 Q1029 RERA=
202005251550 METAR ESMX 251550Z AUTO 32012KT 280V350 9999 -RA SCT044/// OVC062/// 13/11 Q1029=
202005251520 METAR ESMX 251520Z AUTO 15006KT 110V190 9999 SCT045/// BKN064/// 16/08 Q1028=
202005251450 METAR ESMX 251450Z AUTO 33005KT 9999 SCT084/// 17/08 Q1028=
202005251350 METAR ESMX 251350Z AUTO VRB02KT 9999 BKN066/// 17/09 Q1027=
202005251320 METAR ESMX 251320Z 07005KT 030V120 9999 -SHRA FEW035 SCT047 BKN066 15/09 Q1027=
202005251250 METAR ESMX 251250Z VRB03KT 9999 SCT037 16/09 Q1027=
202005251220 METAR ESMX 251220Z 36009KT 9999 FEW033CB SCT055 BKN074 15/09 Q1026=
202005251150 METAR ESMX 251150Z 01007KT 9999 FEW033CB BKN047 BKN074 14/09 Q1026=
202005251120 METAR ESMX 251120Z 36010KT 330V080 9999 -DZ SCT033 BKN047 BKN074 14/09 Q1026 RERA=
202005251050 METAR ESMX 251050Z 34006KT 310V010 9999 FEW030CB BKN064 14/11 Q1025=
202005251020 METAR ESMX 251020Z 35009KT 310V020 8000 -SHRA FEW030CB BKN064 14/10 Q1025=
202005250950 METAR ESMX 250950Z 36006KT 320V040 9999 FEW030 BKN064 15/08 Q1025=
202005250920 METAR ESMX 250920Z 34006KT 210V030 9999 SCT025 BKN066 15/09 Q1025=
202005250850 METAR ESMX 250850Z 01007KT 9999 SCT025 BKN064 14/10 Q1024=
202005250820 METAR ESMX 250820Z 34007KT 270V020 9999 SCT025 BKN064 14/10 Q1024=
202005250750 METAR ESMX 250750Z 01006KT 320V050 9999 SCT022 BKN060 13/09 Q1023=
202005250720 METAR ESMX 250720Z 01006KT 320V040 9999 SCT023 BKN062 12/09 Q1023=
202005250650 METAR ESMX 250650Z 36005KT 320V040 9999 SCT023 BKN062 12/09 Q1022=
202005250620 METAR ESMX 250620Z 01006KT 9999 SCT020 BKN061 11/09 Q1022=
202005250550 METAR ESMX 250550Z 01006KT 9999 SCT020 BKN061 10/09 Q1022=
202005250520 METAR ESMX 250520Z AUTO 36006KT 9999 BKN061/// 10/09 Q1021=
202005250450 METAR ESMX 250450Z AUTO 36005KT 9999 BKN062/// 10/10 Q1021=
202005250420 METAR ESMX 250420Z AUTO 32004KT 9999 FEW005/// SCT040/// 09/09 Q1020=
202005250350 METAR ESMX 250350Z AUTO 28003KT 9999 FEW022/// SCT059/// 08/08 Q1020=
202005250320 METAR ESMX 250320Z AUTO 02004KT 9999 FEW004/// SCT012/// BKN016/// 08/08 Q1020=
202005250250 METAR ESMX 250250Z AUTO 20001KT 0500 R01/0900N R19/1500U BCFG SCT014/// BKN017/// OVC029/// 07/07 Q1019=
202005250220 METAR ESMX 250220Z AUTO 26003KT 0200 R01///// R19/0400N NCD 06/06 Q1019=
202005250150 METAR ESMX 250150Z AUTO 24002KT 0250 R01/P2000N R19/1400N BR NCD 08/08 Q1018=
202005250120 METAR ESMX 250120Z AUTO 20003KT 7000 FEW031/// 08/08 Q1018=
202005250050 METAR ESMX 250050Z AUTO 00000KT 9999 SCT010/// OVC037/// 08/08 Q1018=
202005250020 METAR ESMX 250020Z AUTO 26002KT 9999 FEW006/// BKN010/// OVC027/// 09/08 Q1018=
202005242350 METAR ESMX 242350Z AUTO 25003KT 9999 FEW005/// OVC027/// 09/09 Q1017=
202005242320 METAR ESMX 242320Z AUTO 25003KT 9999 SCT005/// BKN009/// BKN019/// 09/09 Q1017=
202005242250 METAR ESMX 242250Z AUTO 23004KT 9999 SCT006/// 08/08 Q1017=
202005242220 METAR ESMX 242220Z AUTO 21005KT 9999 BKN009/// OVC011/// 09/09 Q1017=
202005242150 METAR ESMX 242150Z AUTO 21004KT 9999 FEW006/// SCT010/// BKN014/// 09/09 Q1016=
202005242120 METAR ESMX 242120Z AUTO 20004KT 9999 SCT008/// BKN011/// OVC015/// 09/09 Q1016=
202005242050 METAR ESMX 242050Z AUTO 22004KT 9999 SCT012/// BKN017/// BKN035/// 09/09 Q1016=
202005242020 METAR ESMX 242020Z AUTO 21005KT 9999 -DZ SCT016/// BKN026/// BKN035/// 09/09 Q1016=
202005241950 METAR ESMX 241950Z AUTO 23005KT 9999 BKN016/// OVC028/// 10/09 Q1016=
202005241920 METAR ESMX 241920Z AUTO 23004KT 200V260 9999 FEW012/// SCT017/// BKN030/// 10/09 Q1016=
202005241850 METAR ESMX 241850Z AUTO 21005KT 9999 FEW004/// SCT013/// BKN019/// 10/09 Q1016 REDZ=
202005241820 METAR ESMX 241820Z AUTO 21007KT 9999 BKN016/// OVC035/// 10/09 Q1016=
202005241750 METAR ESMX 241750Z AUTO 23008KT 9999 SCT021/// BKN029/// OVC036/// 11/08 Q1015=
202005241720 METAR ESMX 241720Z AUTO 25008KT 9999 SCT021/// BKN032/// OVC041/// 11/08 Q1015=
202005241650 METAR ESMX 241650Z AUTO 23009KT 9999 FEW019/// SCT026/// BKN036/// 11/08 Q1015=
202005241620 METAR ESMX 241620Z AUTO 25007KT 230V290 9999 SCT023/// BKN036/// OVC053/// 12/08 Q1015 RERA=
202005241550 METAR ESMX 241550Z AUTO 23007KT 200V270 9999 SCT023/// OVC044/// 12/08 Q1015=
202005241520 METAR ESMX 241520Z AUTO 24010KT 210V270 9999 FEW024/// SCT035/// BKN045/// 12/08 Q1015=
202005241450 METAR ESMX 241450Z AUTO 24010KT 210V270 9999 OVC051/// 13/09 Q1015=
202005241420 METAR ESMX 241420Z AUTO 26010KT 230V300 9999 FEW024/// SCT044/// BKN061/// 12/08 Q1014=
202005241350 METAR ESMX 241350Z AUTO 23008KT 200V260 9999 FEW044/// SCT061/// 12/10 Q1014=
202005241320 METAR ESMX 241320Z AUTO 25010KT 220V290 9999 RA FEW035/// BKN046/// 11/09 Q1014 RERA=
202005241250 METAR ESMX 241250Z AUTO 24008KT 9999 FEW014/// BKN024/// OVC051/// 11/10 Q1014 RERA=
202005241220 METAR ESMX 241220Z AUTO 24011KT 9999 FEW021/// BKN042/// BKN066/// 12/10 Q1014=
202005241150 METAR ESMX 241150Z AUTO 23008KT 9999 FEW000/// SCT041/// BKN053/// 12/10 Q1014 RERA=
202005241120 METAR ESMX 241120Z AUTO 27010KT 9999 FEW015/// BKN038/// OVC051/// 13/10 Q1014 RERA RESHUP=
202005241050 METAR ESMX 241050Z AUTO 22009KT 9999 SCT017/// BKN035/// OVC043/// 12/10 Q1014 RERA=
202005241020 METAR ESMX 241020Z AUTO 22007KT 9999 SCT009/// BKN018/// BKN180/// 10/09 Q1014 RERA=
202005240950 METAR ESMX 240950Z AUTO 25006KT 210V290 9999 FEW001/// SCT036/// BKN055/// 12/10 Q1014=
202005240920 METAR ESMX 240920Z AUTO 21010KT 9999 -DZ BKN020/// OVC047/// 12/09 Q1014 RERA=
202005240850 METAR ESMX 240850Z AUTO 21011KT 9999 -RA SCT021/// BKN047/// 12/08 Q1014 RERA=
202005240820 METAR ESMX 240820Z AUTO 22012KT 9999 SCT017/// BKN024/// OVC053/// 11/08 Q1014 RERA=
202005240750 METAR ESMX 240750Z AUTO 22011KT 9999 BKN017/// OVC028/// 11/08 Q1014=
202005240720 METAR ESMX 240720Z AUTO 20010KT 9999 -RA SCT015/// OVC044/// 11/09 Q1014=
202005240650 METAR ESMX 240650Z AUTO 23011KT 9999 OVC017/// 11/08 Q1014=
202005240620 METAR ESMX 240620Z AUTO 22010KT 9999 BKN014/// OVC020/// 11/08 Q1014=
202005240550 METAR ESMX 240550Z AUTO 20011KT 9999 SCT012/// BKN100/// 11/08 Q1014=
202005240520 METAR ESMX 240520Z AUTO 21008KT 9999 FEW080/// BKN100/// 09/08 Q1014=
202005240450 METAR ESMX 240450Z AUTO 21009KT 9999 FEW007/// SCT082/// OVC100/// 09/08 Q1014=
202005240420 METAR ESMX 240420Z AUTO 20009KT 9999 OVC098/// 09/08 Q1014=
202005240350 METAR ESMX 240350Z AUTO 21008KT 9999 SCT100/// 08/07 Q1014=
202005240320 METAR ESMX 240320Z AUTO 20007KT 9999 FEW088/// OVC100/// 07/07 Q1015=
202005240250 METAR ESMX 240250Z AUTO 21007KT 9999 FEW059/// SCT068/// 07/07 Q1015=
202005240220 METAR ESMX 240220Z AUTO 21007KT 9999 SCT061/// 07/07 Q1015=
202005240150 METAR ESMX 240150Z AUTO 19006KT 8000 BR NCD 06/06 Q1015=
202005240120 METAR ESMX 240120Z AUTO 20006KT 9999 NCD 07/06 Q1015=
202005240050 METAR ESMX 240050Z AUTO 20006KT 9999 NCD 07/06 Q1015=
202005240020 METAR ESMX 240020Z AUTO 20005KT 9999 NCD 07/07 Q1015=
202005232350 METAR ESMX 232350Z AUTO 20005KT 9999 FEW041/// SCT055/// 08/07 Q1015=
202005232320 METAR ESMX 232320Z AUTO 20005KT 9999 SCT041/// BKN053/// 08/07 Q1015=
202005232250 METAR ESMX 232250Z AUTO 20006KT 9999 NCD 08/07 Q1016=
202005232220 METAR ESMX 232220Z AUTO 21006KT 9999 NCD 08/07 Q1015=
202005232150 METAR ESMX 232150Z AUTO 22006KT 9999 NCD 09/08 Q1015=
202005232120 METAR ESMX 232120Z AUTO 22007KT 9999 FEW076/// 09/08 Q1015=
202005232050 METAR ESMX 232050Z AUTO 22007KT 9999 SCT074/// 10/08 Q1015=
202005232020 METAR ESMX 232020Z AUTO 22007KT 9999 BKN072/// 11/08 Q1015=
202005231950 METAR ESMX 231950Z AUTO 22007KT 9999 SCT068/// 11/08 Q1015=
202005231920 METAR ESMX 231920Z AUTO 22007KT 9999 NCD 11/09 Q1014=
202005231850 METAR ESMX 231850Z AUTO 20007KT 9999 NCD 12/09 Q1014=
202005231820 METAR ESMX 231820Z AUTO 20010KT 9999 FEW200/// 13/10 Q1014=
202005231750 METAR ESMX 231750Z AUTO 18009KT 9999 FEW033/// 13/11 Q1013=
202005231720 METAR ESMX 231720Z AUTO 17009KT 9999 FEW022/// SCT062/// 12/11 Q1013=
202005231650 METAR ESMX 231650Z AUTO 17008KT 9999 FEW015/// SCT043/// BKN130/// 12/10 Q1013=
202005231620 METAR ESMX 231620Z AUTO 16009KT 9999 FEW130/// 12/11 Q1013=
202005231550 METAR ESMX 231550Z AUTO 16010KT 9999 FEW130/// 12/11 Q1014=
202005231520 METAR ESMX 231520Z AUTO 18007KT 9999 FEW035/// SCT057/// BKN130/// 11/09 Q1014=
202005231450 METAR ESMX 231450Z AUTO 18013KT 9999 RA FEW041/// SCT057/// 11/09 Q1014=
202005231420 METAR ESMX 231420Z AUTO 18008KT 9999 DZ SCT013/// BKN039/// OVC055/// 13/11 Q1014=
202005231350 METAR ESMX 231350Z AUTO 18006KT 150V210 9999 BKN013/// OVC017/// 13/10 Q1014=
202005231320 METAR ESMX 231320Z AUTO 17005KT 9999 BKN011/// BKN014/// OVC018/// 13/10 Q1014=
202005231250 METAR ESMX 231250Z AUTO 17005KT 130V190 9999 BKN011/// 12/10 Q1014=
202005231220 METAR ESMX 231220Z AUTO 19004KT 9999 BKN009/// BKN170/// 12/10 Q1014=
202005231150 METAR ESMX 231150Z AUTO 19006KT 9999 OVC008/// 11/10 Q1015=
202005231120 METAR ESMX 231120Z AUTO 19005KT 9999 BKN006/// OVC008/// 11/10 Q1015=
202005231050 METAR ESMX 231050Z AUTO 19006KT 9999 OVC005/// 10/09 Q1015=
202005231020 METAR ESMX 231020Z AUTO 18005KT 9999 BKN003/// OVC005/// 10/09 Q1015=
202005230950 METAR ESMX 230950Z AUTO 18007KT 9000 BR OVC003/// 09/09 Q1015=
202005230920 METAR ESMX 230920Z AUTO 18007KT 140V200 8000 BR OVC003/// 09/08 Q1015=
202005230850 METAR ESMX 230850Z AUTO 17009KT 7000 BR BKN002/// OVC004/// 09/08 Q1015 REDZ=
202005230820 METAR ESMX 230820Z AUTO 17009KT 4700 BR OVC002/// 08/08 Q1015=
202005230750 METAR ESMX 230750Z AUTO 16008KT 6000 BR OVC003/// 08/08 Q1016=
202005230720 METAR ESMX 230720Z AUTO 17007KT 5000 DZ FEW002/// OVC004/// 08/08 Q1016=
202005230650 METAR ESMX 230650Z AUTO 17007KT 5000 DZ FEW002/// OVC004/// 08/08 Q1016=
202005230620 METAR ESMX 230620Z AUTO 16006KT 7000 DZ FEW002/// OVC005/// 08/08 Q1016=
202005230550 METAR ESMX 230550Z AUTO 16009KT 8000 RA SCT002/// BKN005/// OVC008/// 08/08 Q1016=
202005230520 METAR ESMX 230520Z AUTO 17008KT 8000 -RA SCT002/// BKN005/// OVC007/// 08/07 Q1016=
202005230450 METAR ESMX 230450Z AUTO 17009KT 7000 DZ SCT002/// BKN005/// OVC006/// 08/07 Q1017=
202005230420 METAR ESMX 230420Z AUTO 18011KT 9999 -DZ FEW008/// BKN019/// OVC051/// 09/06 Q1017=
202005230350 METAR ESMX 230350Z AUTO 16009KT 9999 -RA SCT029/// OVC051/// 09/06 Q1017 RERA=
202005230320 METAR ESMX 230320Z AUTO 16009KT 120V190 9999 -RA BKN047/// OVC057/// 09/06 Q1017 RERA=
202005230250 METAR ESMX 230250Z AUTO 16009KT 9999 -DZ BKN046/// OVC059/// 09/06 Q1017=
202005230220 METAR ESMX 230220Z AUTO 16009KT 120V190 9999 -RA FEW049/// OVC062/// 09/06 Q1017=
202005230150 METAR ESMX 230150Z AUTO 15010KT 120V180 9999 -RA BKN049/// OVC061/// 09/05 Q1018=
202005230120 METAR ESMX 230120Z AUTO 16009KT 9999 -DZ BKN051/// OVC070/// 10/05 Q1018=
202005230050 METAR ESMX 230050Z AUTO 15009KT 9999 OVC070/// 10/05 Q1018=
202005230020 METAR ESMX 230020Z AUTO 15009KT 9999 -RA FEW048/// OVC074/// 10/05 Q1018=
202005222350 METAR ESMX 222350Z AUTO 16010KT 9999 -RA OVC072/// 10/04 Q1019=
202005222320 METAR ESMX 222320Z AUTO 16009KT 9999 DZ SCT057/// OVC080/// 11/03 Q1019=
202005222250 METAR ESMX 222250Z AUTO 16010KT 9999 -RA SCT057/// BKN072/// 11/01 Q1019=
202005222220 METAR ESMX 222220Z AUTO 15009KT 9999 BKN062/// 12/01 Q1019=
202005222150 METAR ESMX 222150Z AUTO 15009KT 120V200 9999 BKN072/// 12/01 Q1020=
202005222120 METAR ESMX 222120Z AUTO 16009KT 9999 BKN078/// 12/00 Q1020=
202005222050 METAR ESMX 222050Z AUTO 16009KT 9999 FEW080/// BKN140/// 12/M01 Q1020=
202005222020 METAR ESMX 222020Z AUTO 16008KT 9999 NCD 12/M01 Q1020=
202005221950 METAR ESMX 221950Z AUTO 16007KT 9999 FEW150/// 12/M01 Q1020=
202005221920 METAR ESMX 221920Z AUTO 15008KT 120V190 9999 FEW150/// 13/M02 Q1021=
202005221850 METAR ESMX 221850Z AUTO 16008KT 120V180 9999 NCD 13/M02 Q1021=
202005221820 METAR ESMX 221820Z AUTO 17007KT 9999 NCD 13/M02 Q1021=
202005221750 METAR ESMX 221750Z AUTO 17009KT 9999 NCD 14/M01 Q1021=
202005221720 METAR ESMX 221720Z AUTO 17009KT 9999 NCD 14/M01 Q1021=
202005221650 METAR ESMX 221650Z AUTO 17011KT 9999 FEW200/// 15/M01 Q1021=
202005221620 METAR ESMX 221620Z AUTO 18011KT 140V200 9999 FEW230/// 15/M01 Q1022=
202005221550 METAR ESMX 221550Z AUTO 17011KT 9999 FEW180/// 16/M01 Q1022=
202005221520 METAR ESMX 221520Z AUTO 18012KT 9999 FEW210/// 17/M02 Q1022=
202005221450 METAR ESMX 221450Z AUTO 18014KT 9999 FEW084/// 17/M01 Q1022=
202005221420 METAR ESMX 221420Z AUTO 17012KT 140V200 9999 FEW220/// 18/M00 Q1022=
202005221350 METAR ESMX 221350Z AUTO 17012KT 140V200 9999 FEW082/// 18/01 Q1022=
202005221320 METAR ESMX 221320Z 18011KT 140V210 CAVOK 18/01 Q1023=
202005221250 METAR ESMX 221250Z 15008KT 070V200 CAVOK 18/02 Q1023=
202005221220 METAR ESMX 221220Z 17010KT 110V200 CAVOK 18/02 Q1023=
202005221150 METAR COR ESMX 221150Z 16010KT 130V190 CAVOK 17/03 Q1023=
202005221120 METAR COR ESMX 221120Z 18011KT CAVOK 18/03 Q1024=
202005221050 METAR ESMX 221050Z 17008KT 140V200 CAVOK 17/03 Q1024=
202005221020 METAR COR ESMX 221020Z 18008KT 130V230 CAVOK 17/03 Q1024=
202005220950 METAR ESMX 220950Z 16007KT 120V210 CAVOK 17/03 Q1024=
202005220920 METAR ESMX 220920Z 21009KT CAVOK 16/04 Q1024=
202005220850 METAR ESMX 220850Z 19008KT 140V210 CAVOK 16/03 Q1024=
202005220820 METAR ESMX 220820Z 20008KT CAVOK 15/02 Q1024=
202005220750 METAR COR ESMX 220750Z 18006KT 150V210 CAVOK 14/03 Q1024=
202005220720 METAR ESMX 220720Z 17004KT 130V200 CAVOK 13/06 Q1024=
202005220650 METAR ESMX 220650Z 16005KT 9999 BKN078 12/07 Q1024=
202005220620 METAR ESMX 220620Z AUTO 16005KT 9999 SCT078/// OVC100/// 11/07 Q1024=
202005220550 METAR ESMX 220550Z AUTO 17004KT 9999 BKN120/// 11/07 Q1024=
202005220520 METAR ESMX 220520Z AUTO 17004KT 9999 SCT088/// OVC120/// 10/07 Q1024=
202005220450 METAR ESMX 220450Z AUTO 19003KT 9999 OVC090/// 10/07 Q1023=
202005220420 METAR ESMX 220420Z AUTO 19001KT 9999 OVC090/// 09/07 Q1023=
202005220350 METAR ESMX 220350Z AUTO 00000KT 9999 OVC090/// 08/07 Q1024=
202005220320 METAR ESMX 220320Z AUTO 20002KT 9999 OVC094/// 09/07 Q1023=
202005220250 METAR ESMX 220250Z AUTO 00000KT 9999 OVC092/// 09/06 Q1024=
202005220220 METAR ESMX 220220Z AUTO 17003KT 9999 OVC082/// 09/06 Q1024=
202005220150 METAR ESMX 220150Z AUTO 00000KT 9999 OVC086/// 09/06 Q1024=
202005220120 METAR ESMX 220120Z AUTO 19003KT 9999 BKN066/// OVC088/// 09/06 Q1024=
202005220050 METAR ESMX 220050Z AUTO 18003KT 9999 BKN068/// OVC082/// 10/05 Q1024=
202005220020 METAR ESMX 220020Z AUTO 18006KT 9999 FEW066/// 09/05 Q1024=
202005212350 METAR ESMX 212350Z AUTO 18003KT 9999 BKN094/// 09/04 Q1024=
202005212320 METAR ESMX 212320Z AUTO 20003KT 9999 OVC100/// 09/04 Q1024=
202005212250 METAR ESMX 212250Z AUTO 18004KT 9999 SCT100/// OVC130/// 10/04 Q1024=
202005212220 METAR ESMX 212220Z AUTO 18004KT 9999 OVC130/// 10/03 Q1024=
202005212150 METAR ESMX 212150Z AUTO 17006KT 9999 OVC130/// 10/02 Q1024=
202005212120 METAR ESMX 212120Z AUTO 17008KT 9999 OVC140/// 10/02 Q1024=
202005212050 METAR ESMX 212050Z AUTO 17009KT 9999 NCD 10/02 Q1024=
202005212020 METAR ESMX 212020Z AUTO 17009KT 9999 NCD 11/03 Q1024=
202005211950 METAR ESMX 211950Z AUTO 17009KT 9999 NCD 12/04 Q1023=
202005211920 METAR ESMX 211920Z AUTO 16008KT 9999 NCD 13/05 Q1023=
202005211850 METAR ESMX 211850Z AUTO 17009KT 9999 NCD 14/05 Q1023=
202005211820 METAR ESMX 211820Z AUTO 16008KT 9999 NCD 15/06 Q1023=
202005211750 METAR ESMX 211750Z AUTO 18008KT 9999 NCD 16/05 Q1023=
202005211720 METAR ESMX 211720Z AUTO VRB02KT 9999 NCD 18/M03 Q1023=
202005211650 METAR ESMX 211650Z AUTO 01005KT 340V050 9999 NCD 18/M04 Q1023=
202005211620 METAR ESMX 211620Z AUTO 01004KT 340V050 9999 NCD 18/M04 Q1023=
202005211550 METAR ESMX 211550Z AUTO 01003KT 330V060 9999 NCD 18/M04 Q1023=
202005211520 METAR ESMX 211520Z AUTO 02004KT 320V070 9999 NCD 18/M03 Q1023=
202005211450 METAR ESMX 211450Z AUTO VRB03KT 9999 NCD 18/M02 Q1023=
202005211420 METAR ESMX 211420Z AUTO VRB02KT 9999 NCD 17/M03 Q1023=
202005211350 METAR ESMX 211350Z AUTO 13005KT 050V190 9999 NCD 18/M03 Q1024=
202005211320 METAR ESMX 211320Z AUTO 21003KT 180V250 9999 NCD 17/M02 Q1024=
202005211250 METAR ESMX 211250Z AUTO VRB03KT 9999 NCD 18/M02 Q1024=
202005211220 METAR ESMX 211220Z AUTO 19005KT 100V260 9999 FEW220/// 18/M02 Q1024=
202005211150 METAR ESMX 211150Z AUTO VRB04KT 9999 NCD 17/M01 Q1024=
202005211120 METAR ESMX 211120Z AUTO VRB04KT 9999 NCD 17/00 Q1024=
202005211050 METAR ESMX 211050Z AUTO 23004KT 150V300 9999 NCD 16/M00 Q1024=
202005211020 METAR ESMX 211020Z AUTO VRB03KT 9999 NCD 16/M00 Q1025=
202005210950 METAR ESMX 210950Z AUTO VRB03KT 9999 NCD 15/M00 Q1025=
202005210920 METAR ESMX 210920Z AUTO VRB02KT 9999 NCD 15/01 Q1025=
202005210850 METAR ESMX 210850Z AUTO VRB03KT 9999 NCD 14/03 Q1025=
202005210820 METAR ESMX 210820Z AUTO VRB03KT 9999 NCD 14/03 Q1025=
202005210750 METAR ESMX 210750Z AUTO 17003KT 100V230 9999 NCD 13/05 Q1025=
202005210720 METAR ESMX 210720Z AUTO VRB03KT 9999 NCD 12/05 Q1025=
202005210650 METAR ESMX 210650Z AUTO VRB03KT 9999 NCD 11/05 Q1025=
202005210620 METAR ESMX 210620Z AUTO VRB02KT 9999 NCD 10/05 Q1025=
202005210550 METAR ESMX 210550Z AUTO VRB01KT 9999 NCD 09/05 Q1025=
202005210520 METAR ESMX 210520Z AUTO VRB02KT 9999 NCD 09/04 Q1025=
202005210450 METAR ESMX 210450Z AUTO 00000KT 9999 NCD 08/05 Q1025=
202005210420 METAR ESMX 210420Z AUTO 00000KT 9999 NCD 05/04 Q1025=
202005210350 METAR ESMX 210350Z AUTO 00000KT 9999 NCD 04/03 Q1025=
202005210320 METAR ESMX 210320Z AUTO VRB03KT 9999 NCD 03/03 Q1024=
202005210250 METAR ESMX 210250Z AUTO VRB02KT 9999 NCD 00/M00 Q1024=
202005210220 METAR ESMX 210220Z AUTO 19002KT 9999 NCD 01/01 Q1024=
202005210150 METAR ESMX 210150Z AUTO 00000KT 9999 NCD 02/01 Q1024=
202005210120 METAR ESMX 210120Z AUTO 00000KT 9999 NCD 02/01 Q1024=
202005210050 METAR ESMX 210050Z AUTO 20002KT 9999 FEW072/// 02/00 Q1024=
202005210020 METAR ESMX 210020Z AUTO 20002KT 9999 BKN074/// 02/M00 Q1024=
202005202350 METAR ESMX 202350Z AUTO 20001KT 9999 BKN076/// 04/02 Q1024=
202005202320 METAR ESMX 202320Z AUTO 20003KT 9999 BKN076/// 04/02 Q1024=
202005202250 METAR ESMX 202250Z AUTO 20004KT 9999 FEW078/// 07/02 Q1024=
202005202220 METAR ESMX 202220Z AUTO 19005KT 9999 NCD 07/02 Q1024=
202005202150 METAR ESMX 202150Z AUTO 18005KT 9999 NCD 08/02 Q1024=
202005202120 METAR ESMX 202120Z AUTO 18003KT 9999 NCD 08/02 Q1024=
202005202050 METAR ESMX 202050Z AUTO 17006KT 9999 NCD 09/02 Q1024=
202005202020 METAR ESMX 202020Z AUTO 18004KT 9999 NCD 09/02 Q1024=
202005201950 METAR ESMX 201950Z AUTO 17005KT 9999 FEW082/// 10/03 Q1024=
202005201920 METAR ESMX 201920Z AUTO 18007KT 9999 FEW084/// 10/02 Q1023=
202005201850 METAR ESMX 201850Z AUTO 17009KT 9999 FEW086/// 11/02 Q1023=
202005201820 METAR ESMX 201820Z AUTO 18008KT 9999 NCD 12/03 Q1022=
202005201750 METAR ESMX 201750Z AUTO 16007KT 9999 SCT090/// 13/03 Q1022=
202005201720 METAR ESMX 201720Z AUTO 16009KT 9999 BKN086/// 13/03 Q1022=
202005201650 METAR ESMX 201650Z AUTO 08005KT 020V170 9999 OVC090/// 14/04 Q1022=
202005201620 METAR ESMX 201620Z AUTO VRB01KT 9999 BKN094/// 15/M03 Q1022=
202005201550 METAR ESMX 201550Z AUTO VRB03KT 9999 SCT092/// 16/M02 Q1022=
202005201520 METAR ESMX 201520Z AUTO 08003KT 030V120 9999 BKN090/// 16/M03 Q1022=
202005201450 METAR ESMX 201450Z AUTO VRB03KT 9999 BKN092/// 15/M03 Q1022=
202005201420 METAR ESMX 201420Z AUTO 00000KT 9999 BKN088/// 16/M03 Q1022=
202005201350 METAR ESMX 201350Z AUTO VRB02KT 9999 OVC086/// 16/M03 Q1022=
202005201320 METAR ESMX 201320Z VRB05KT CAVOK 16/M02 Q1022=
202005201250 METAR ESMX 201250Z 17004KT 130V210 CAVOK 15/M03 Q1022=
202005201220 METAR ESMX 201220Z 02005KT 350V100 CAVOK 16/M02 Q1022=
202005201150 METAR ESMX 201150Z 33004KT 260V030 CAVOK 16/M02 Q1022=
202005201120 METAR ESMX 201120Z VRB04KT CAVOK 15/M03 Q1022=
202005201050 METAR ESMX 201050Z VRB04KT CAVOK 14/M02 Q1022=
202005201020 METAR ESMX 201020Z 01006KT 330V050 CAVOK 14/M02 Q1022=
202005200950 METAR ESMX 200950Z 04006KT 360V110 CAVOK 15/M02 Q1021=
202005200920 METAR ESMX 200920Z 03005KT 340V100 CAVOK 14/M03 Q1021=
202005200850 METAR ESMX 200850Z 03006KT 320V090 CAVOK 14/M03 Q1021=
202005200820 METAR ESMX 200820Z 03006KT 340V080 CAVOK 14/01 Q1021=
202005200750 METAR ESMX 200750Z VRB03KT CAVOK 13/01 Q1021=
202005200720 METAR ESMX 200720Z 01006KT 350V060 CAVOK 12/01 Q1021=
202005200650 METAR ESMX 200650Z 03005KT CAVOK 11/03 Q1021=
202005200620 METAR ESMX 200620Z 00000KT CAVOK 11/04 Q1021=
202005200550 METAR ESMX 200550Z AUTO VRB03KT 9999 NCD 09/05 Q1020=
202005200520 METAR ESMX 200520Z AUTO VRB03KT 9999 NCD 09/04 Q1020=
202005200450 METAR ESMX 200450Z AUTO 21002KT 9999 FEW068/// 07/05 Q1020=
202005200420 METAR ESMX 200420Z AUTO 00000KT 9999 NCD 04/04 Q1020=
202005200350 METAR ESMX 200350Z AUTO 00000KT 9999 NCD 01/01 Q1020=
202005200320 METAR ESMX 200320Z AUTO 20003KT 9999 NCD 01/01 Q1019=
202005200250 METAR ESMX 200250Z AUTO 19002KT 9999 BR NCD 01/01 Q1019=
202005200220 METAR ESMX 200220Z AUTO 00000KT 9999 NCD 02/02 Q1019=
202005200150 METAR ESMX 200150Z AUTO 21003KT 9999 NCD 02/02 Q1019=
202005200120 METAR ESMX 200120Z AUTO 00000KT 9999 NCD 04/04 Q1019=
202005200050 METAR ESMX 200050Z AUTO 22004KT 9999 NCD 05/03 Q1019=
202005200020 METAR ESMX 200020Z AUTO 32004KT 9999 NCD 06/04 Q1019=
202005192350 METAR ESMX 192350Z AUTO 30004KT 9999 FEW086/// 07/04 Q1019=
202005192320 METAR ESMX 192320Z AUTO 28005KT 9999 BKN086/// 07/05 Q1018=
202005192250 METAR ESMX 192250Z AUTO 28006KT 9999 FEW082/// 08/05 Q1018=
202005192220 METAR ESMX 192220Z AUTO 28005KT 9999 FEW057/// SCT082/// 09/05 Q1018=
202005192150 METAR ESMX 192150Z AUTO 23005KT 200V260 9999 SCT057/// OVC078/// 09/05 Q1018=
202005192120 METAR ESMX 192120Z AUTO 22004KT 9999 FEW061/// OVC078/// 09/05 Q1018=
202005191950 METAR ESMX 191950Z AUTO 23004KT 9999 BKN088/// 09/05 Q1017=
202005191920 METAR ESMX 191920Z AUTO 25005KT 9999 SCT088/// 09/06 Q1016=
202005191850 METAR ESMX 191850Z AUTO 23005KT 9999 NCD 10/06 Q1016=
202005191820 METAR ESMX 191820Z AUTO 23005KT 9999 NCD 11/06 Q1016=
202005191750 METAR ESMX 191750Z AUTO 27007KT 9999 NCD 12/05 Q1015=
202005191720 METAR ESMX 191720Z AUTO 26008KT 9999 NCD 13/06 Q1015=
202005191650 METAR ESMX 191650Z AUTO 28007KT 9999 NCD 13/05 Q1015=
202005191620 METAR ESMX 191620Z AUTO 24009KT 200V280 9999 SCT039/// 13/05 Q1015=
202005191550 METAR ESMX 191550Z AUTO 27008KT 240V310 9999 SCT041/// 13/06 Q1015=
202005191520 METAR ESMX 191520Z AUTO 25009KT 210V280 9999 BKN040/// BKN051/// 13/05 Q1014=
202005191450 METAR ESMX 191450Z AUTO 27007KT 230V320 9999 SCT037/// OVC051/// 13/05 Q1014=
202005191420 METAR ESMX 191420Z AUTO 32006KT 280V350 9999 BKN038/// OVC049/// 12/04 Q1014=
202005191350 METAR ESMX 191350Z AUTO 29006KT 240V350 9999 SCT033/// BKN048/// 13/06 Q1014=
202005191320 METAR ESMX 191320Z 27007KT 220V300 9999 BKN035 11/05 Q1014=
202005191250 METAR ESMX 191250Z 28007KT 9999 BKN033 11/06 Q1014=
202005191220 METAR ESMX 191220Z 29005KT 240V330 9999 SCT021 BKN029 11/06 Q1013=
202005191150 METAR ESMX 191150Z AUTO VRB03KT 9999 SCT019/// OVC025/// 10/06 Q1013=
202005191120 METAR ESMX 191120Z VRB04KT 9999 FEW012 BKN020 09/06 Q1013=
202005191050 METAR ESMX 191050Z 01004KT 320V050 9999 SCT011 BKN025 08/06 Q1013=
202005191020 METAR ESMX 191020Z 36005KT 310V030 9999 -DZ FEW014 BKN022 08/06 Q1013=
202005190950 METAR ESMX 190950Z 36004KT 9999 BKN015 08/06 Q1012=
202005190920 METAR ESMX 190920Z VRB02KT 9999 FEW012 BKN017 08/06 Q1012=
202005190850 METAR ESMX 190850Z AUTO 00000KT 7000 BR FEW005/// BKN013/// OVC019/// 07/06 Q1012=
202005190820 METAR ESMX 190820Z 16002KT 5000 BR FEW005 BKN020 07/06 Q1012=
202005190750 METAR ESMX 190750Z 21002KT 9000 -DZ FEW006 BKN009 07/05 Q1012=
202005190720 METAR ESMX 190720Z 19002KT 6000 BR FEW002 BKN006 07/06 Q1012=
202005190650 METAR ESMX 190650Z 19002KT 3300 BR FEW002 BKN006 07/06 Q1012=
202005190620 METAR ESMX 190620Z AUTO 19003KT 3200 DZ ///026 06/06 Q1012=
202005190550 METAR ESMX 190550Z AUTO 19003KT 4200 DZ SCT004/// BKN012/// BKN017/// 06/06 Q1012 REUP REDZ=
202005190520 METAR ESMX 190520Z AUTO 19004KT 9999 FEW010/// BKN022/// OVC028/// 07/04 Q1012=
202005190450 METAR ESMX 190450Z AUTO 20005KT 9999 FEW009/// BKN014/// OVC018/// 07/05 Q1012=
202005190420 METAR ESMX 190420Z AUTO 22005KT 9999 OVC028/// 07/05 Q1012=
202005190350 METAR ESMX 190350Z AUTO 19005KT 9999 SCT023/// BKN029/// BKN035/// 07/06 Q1012=
202005190320 METAR ESMX 190320Z AUTO 19004KT 9999 BKN040/// OVC049/// 06/06 Q1012 REDZ=
202005190250 METAR ESMX 190250Z AUTO 22004KT 9999 -RA BKN036/// OVC048/// 06/05 Q1012=
202005190220 METAR ESMX 190220Z AUTO 21005KT 9999 DZ BKN037/// OVC047/// 06/04 Q1012=
202005190150 METAR ESMX 190150Z AUTO 21004KT 9999 -RA FEW014/// BKN038/// BKN045/// 07/05 Q1012=
202005190120 METAR ESMX 190120Z AUTO VRB03KT 9999 -RA OVC044/// 07/05 Q1012 REUP=
202005190050 METAR ESMX 190050Z AUTO 20002KT 9999 BKN045/// OVC062/// 07/05 Q1012=
202005190020 METAR ESMX 190020Z AUTO 20002KT 9999 OVC055/// 07/04 Q1012=
202005182350 METAR ESMX 182350Z AUTO 20003KT 9999 OVC057/// 07/04 Q1013=
202005182320 METAR ESMX 182320Z AUTO 20003KT 9999 OVC059/// 07/04 Q1013=
202005182250 METAR ESMX 182250Z AUTO 21004KT 9999 BKN062/// BKN092/// 07/04 Q1013=
202005182220 METAR ESMX 182220Z AUTO 26005KT 9999 SCT064/// 07/04 Q1013=
202005182150 METAR ESMX 182150Z AUTO 21005KT 9999 NCD 07/04 Q1013=
202005182120 METAR ESMX 182120Z AUTO 22005KT 9999 NCD 08/04 Q1013=
202005182050 METAR ESMX 182050Z AUTO 22006KT 9999 NCD 08/03 Q1013=
202005182020 METAR ESMX 182020Z AUTO 21005KT 9999 NCD 08/03 Q1013=
202005181950 METAR ESMX 181950Z AUTO 21005KT 9999 NCD 09/02 Q1013=
202005181920 METAR ESMX 181920Z AUTO 21006KT 9999 FEW086/// 09/01 Q1013=
202005181850 METAR ESMX 181850Z AUTO 22005KT 9999 SCT088/// 10/00 Q1013=
202005181820 METAR ESMX 181820Z AUTO 26007KT 9999 OVC120/// 10/M00 Q1013=
202005181750 METAR ESMX 181750Z AUTO 22008KT 200V260 9999 OVC110/// 11/M02 Q1013=
202005181720 METAR ESMX 181720Z AUTO 24009KT 200V260 9999 OVC110/// 11/M02 Q1013=
202005181650 METAR ESMX 181650Z AUTO 25009KT 9999 BKN110/// 12/M01 Q1013=
202005181620 METAR ESMX 181620Z AUTO 27010KT 230V290 9999 SCT100/// 13/M02 Q1013=
202005181550 METAR ESMX 181550Z AUTO 21012KT 9999 OVC110/// 13/M02 Q1013=
202005181520 METAR ESMX 181520Z AUTO 23011KT 9999 OVC110/// 14/M01 Q1013=
202005181450 METAR ESMX 181450Z AUTO 24009KT 190V280 9999 OVC110/// 14/M02 Q1013=
202005181420 METAR ESMX 181420Z AUTO 25011KT 210V280 9999 SCT062/// OVC110/// 15/M02 Q1013=
202005181350 METAR ESMX 181350Z AUTO 24012KT 210V280 9999 FEW064/// OVC110/// 15/M00 Q1013=
202005181320 METAR ESMX 181320Z 24011G23KT 200V300 CAVOK 15/M02 Q1014=
202005181250 METAR ESMX 181250Z 25011KT 190V290 CAVOK 15/00 Q1014=
202005181220 METAR ESMX 181220Z 23008KT CAVOK 14/00 Q1014=
202005181150 METAR ESMX 181150Z 25011KT 210V280 CAVOK 15/M01 Q1014=
202005181120 METAR ESMX 181120Z 27009KT 230V300 CAVOK 14/01 Q1014=
202005181050 METAR ESMX 181050Z 25009KT 180V290 CAVOK 13/01 Q1014=
202005181020 METAR ESMX 181020Z 27010KT 220V300 CAVOK 13/01 Q1014=
202005180950 METAR ESMX 180950Z 22008KT 190V260 9999 FEW048 13/02 Q1014=
202005180920 METAR ESMX 180920Z 29009KT 260V340 CAVOK 13/00 Q1014=
202005180850 METAR ESMX 180850Z 27010KT 230V300 9999 FEW045 12/01 Q1014=
202005180820 METAR ESMX 180820Z 24010KT 190V280 9999 FEW037 12/01 Q1014=
202005180750 METAR ESMX 180750Z 27009KT 240V300 9999 FEW035 11/01 Q1014=
202005180720 METAR ESMX 180720Z 27009KT 250V310 9999 FEW024 10/03 Q1014=
202005180650 METAR ESMX 180650Z 22009KT 190V260 9999 FEW020 09/05 Q1014=
202005180620 METAR ESMX 180620Z AUTO 22007KT 9999 NCD 09/05 Q1014=
202005180550 METAR ESMX 180550Z AUTO 26008KT 210V300 9999 FEW012/// 08/05 Q1013=
202005180520 METAR ESMX 180520Z AUTO 23009KT 200V270 9999 FEW010/// 07/05 Q1013=
202005180450 METAR ESMX 180450Z AUTO 24007KT 9999 SCT010/// 06/05 Q1013=
202005180420 METAR ESMX 180420Z AUTO 22005KT 9999 OVC009/// 05/05 Q1013=
202005180350 METAR ESMX 180350Z AUTO 21003KT 9999 OVC009/// 04/04 Q1012=
202005180320 METAR ESMX 180320Z AUTO 00000KT 9999 OVC010/// 03/03 Q1012=
202005180250 METAR ESMX 180250Z AUTO 26004KT 9999 VV009 04/03 Q1012=
202005180220 METAR ESMX 180220Z AUTO 26005KT 9999 NCD 04/03 Q1012=
202005180150 METAR ESMX 180150Z AUTO 26007KT 9999 NCD 04/04 Q1012=
202005180120 METAR ESMX 180120Z AUTO 26007KT 9999 NCD 04/03 Q1011=
202005180050 METAR ESMX 180050Z AUTO 26008KT 9999 NCD 05/03 Q1011=
202005180020 METAR ESMX 180020Z AUTO 26009KT 9999 NCD 05/03 Q1011=
202005172350 METAR ESMX 172350Z AUTO 27008KT 9999 NCD 05/04 Q1011=
202005172320 METAR ESMX 172320Z AUTO 27008KT 9999 NCD 05/04 Q1011=
202005172250 METAR ESMX 172250Z AUTO 27008KT 9999 NCD 05/04 Q1011=
202005172220 METAR ESMX 172220Z AUTO 27008KT 9999 NCD 06/04 Q1011=
202005172150 METAR ESMX 172150Z AUTO 23006KT 9999 NCD 06/04 Q1010=
202005172120 METAR ESMX 172120Z AUTO 24007KT 9999 SCT130/// 06/04 Q1010=
202005172050 METAR ESMX 172050Z AUTO 26007KT 9999 BKN150/// 07/04 Q1010=
202005172020 METAR ESMX 172020Z AUTO 25008KT 9999 SCT120/// OVC140/// 07/04 Q1010=
202005171950 METAR ESMX 171950Z AUTO 25009KT 210V270 9999 FEW027/// BKN120/// OVC140/// 07/04 Q1010=
202005171920 METAR ESMX 171920Z AUTO 25009KT 210V290 9999 SCT028/// BKN043/// 08/04 Q1010=
202005171850 METAR ESMX 171850Z AUTO 25007KT 200V270 9999 FEW029/// 07/04 Q1010=
202005171820 METAR ESMX 171820Z AUTO 27010KT 210V310 9999 FEW016/// BKN026/// BKN053/// 08/04 Q1010=
202005171750 METAR ESMX 171750Z AUTO 24010KT 9999 FEW028/// SCT100/// 08/06 Q1009=
202005171720 METAR ESMX 171720Z AUTO 24011KT 9999 FEW046/// BKN110/// 08/06 Q1009 RERA=
202005171650 METAR ESMX 171650Z AUTO 26011KT 9999 FEW039/// SCT110/// 08/05 Q1009 RERA=
202005171620 METAR ESMX 171620Z AUTO 27016G30KT 240V300 7000 DZ BKN039/// BKN057/// OVC110/// 07/05 Q1009 REDZ=
202005171550 METAR ESMX 171550Z AUTO 27013KT 240V300 9999 FEW033/// BKN057/// BKN110/// 09/06 Q1009=
202005171520 METAR ESMX 171520Z AUTO 26011KT 9999 FEW027/// SCT150/// 09/06 Q1009=
202005171450 METAR ESMX 171450Z AUTO 27017G30KT 150V310 9999 SCT029/// OVC040/// 08/06 Q1009=
202005171420 METAR ESMX 171420Z AUTO 26015G26KT 240V300 9999 -RA FEW023/// OVC041/// 08/05 Q1009 REDZ=
202005171350 METAR ESMX 171350Z AUTO 27019G32KT 9999 DZ FEW029/// SCT043/// OVC062/// 09/04 Q1009=
202005171320 METAR ESMX 171320Z AUTO 25018KT 9999 BKN048/// OVC110/// 10/04 Q1009=
202005171250 METAR ESMX 171250Z AUTO 27019G31KT 9999 SCT049/// BKN062/// 12/00 Q1009=
202005171220 METAR ESMX 171220Z AUTO 26019KT 9999 SCT046/// BKN059/// 11/01 Q1009=
202005171150 METAR ESMX 171150Z AUTO 26018G30KT 9999 SCT037/// 12/03 Q1009=
202005171120 METAR ESMX 171120Z AUTO 26017G27KT 230V300 9999 BKN040/// BKN059/// OVC200/// 11/02 Q1009=
202005171050 METAR ESMX 171050Z AUTO 27016G30KT 240V300 9999 BKN043/// BKN062/// OVC070/// 11/02 Q1009=
202005171020 METAR ESMX 171020Z AUTO 27016G26KT 240V300 9999 SCT040/// BKN053/// 11/02 Q1009=
202005170950 METAR ESMX 170950Z AUTO 24013KT 210V280 9999 BKN064/// 10/02 Q1009=
202005170920 METAR ESMX 170920Z AUTO 27012KT 240V310 9999 -RA BKN049/// OVC068/// 10/02 Q1009 REDZ=
202005170850 METAR ESMX 170850Z AUTO 23013KT 9999 SCT043/// BKN062/// OVC076/// 09/01 Q1009=
202005170820 METAR ESMX 170820Z AUTO 24014G27KT 200V280 9999 FEW038/// BKN053/// 10/02 Q1009=
202005170750 METAR ESMX 170750Z AUTO 26014KT 220V290 9999 SCT037/// 10/02 Q1009=
202005170720 METAR ESMX 170720Z AUTO 25015KT 210V280 9999 BKN038/// 09/01 Q1009=
202005170650 METAR ESMX 170650Z AUTO 25012KT 210V280 9999 SCT032/// BKN042/// 08/01 Q1009=
202005170620 METAR ESMX 170620Z AUTO 25013KT 200V280 9999 OVC030/// 07/02 Q1009=
202005170550 METAR ESMX 170550Z AUTO 26012KT 9999 OVC025/// 07/02 Q1009=
202005170520 METAR ESMX 170520Z AUTO 26011KT 210V290 9999 OVC022/// 06/02 Q1009=
202005170450 METAR ESMX 170450Z AUTO 26011KT 9999 OVC023/// 06/02 Q1009=
202005170420 METAR ESMX 170420Z AUTO 26009KT 220V290 9999 OVC026/// 06/02 Q1009=
202005170350 METAR ESMX 170350Z AUTO 26009KT 9999 BKN025/// 06/01 Q1009=
202005170320 METAR ESMX 170320Z AUTO 26009KT 9999 OVC025/// 05/01 Q1009=
202005170250 METAR ESMX 170250Z AUTO 24009KT 9999 OVC029/// 06/01 Q1009=
202005170220 METAR ESMX 170220Z AUTO 26010KT 9999 BKN031/// BKN160/// 06/01 Q1009=
202005170150 METAR ESMX 170150Z AUTO 22007KT 190V250 9999 FEW022/// BKN043/// 05/02 Q1009=
202005170120 METAR ESMX 170120Z AUTO 22008KT 9999 BKN043/// OVC150/// 05/02 Q1009=
202005170050 METAR ESMX 170050Z AUTO 22009KT 9999 FEW026/// BKN044/// 05/03 Q1009=
202005170020 METAR ESMX 170020Z AUTO 23007KT 190V250 9999 BKN026/// OVC140/// 06/02 Q1009=
202005162350 METAR ESMX 162350Z AUTO 22008KT 200V260 9999 SCT025/// BKN033/// 06/03 Q1009=
202005162320 METAR ESMX 162320Z AUTO 22009KT 9999 BKN028/// OVC035/// 06/03 Q1009=
202005162250 METAR ESMX 162250Z AUTO 22008KT 9999 SCT027/// BKN064/// 06/03 Q1009=
202005162220 METAR ESMX 162220Z AUTO 22007KT 9999 FEW028/// SCT068/// 06/02 Q1009=
202005162150 METAR ESMX 162150Z AUTO 23011KT 9999 NCD 06/01 Q1009=
202005162120 METAR ESMX 162120Z AUTO 26013G23KT 230V290 9999 FEW064/// 06/01 Q1009=
202005162050 METAR ESMX 162050Z AUTO 25010KT 210V280 9999 BKN064/// 06/01 Q1009 RESHUP=
202005162020 METAR ESMX 162020Z AUTO 22007KT 190V250 9999 BKN035/// OVC055/// 06/01 Q1010 REUP=
202005161950 METAR ESMX 161950Z AUTO 25009KT 9999 FEW037/// SCT061/// 06/01 Q1010=
202005161920 METAR ESMX 161920Z AUTO 26011KT 9999 FEW039/// OVC061/// 06/01 Q1010=
202005161850 METAR ESMX 161850Z AUTO 26012KT 210V300 9999 OVC059/// 07/M00 Q1009=
202005161820 METAR ESMX 161820Z AUTO 24012KT 9999 FEW043/// OVC061/// 07/M00 Q1009=
202005161750 METAR ESMX 161750Z AUTO 25012KT 9999 SCT064/// 07/02 Q1009=
202005161720 METAR ESMX 161720Z AUTO 23013G24KT 9999 FEW031/// SCT057/// 07/02 Q1009=
202005161650 METAR ESMX 161650Z AUTO 26021G32KT 9999 -DZ FEW025/// BKN035/// OVC045/// 07/02 Q1009 RESHUP REUP=
202005161620 METAR ESMX 161620Z AUTO 25012KT 210V280 9999 OVC053/// 09/M00 Q1008=
202005161550 METAR ESMX 161550Z AUTO 25015KT 220V280 9999 BKN062/// 09/M02 Q1008=
202005161520 METAR ESMX 161520Z AUTO 25017G28KT 210V290 9999 SCT053/// BKN064/// 10/M01 Q1008=
202005161450 METAR ESMX 161450Z AUTO 26018G30KT 230V330 9999 SCT064/// 09/00 Q1008=
202005161420 METAR ESMX 161420Z AUTO 26019KT 9999 FEW048/// SCT070/// 09/00 Q1008 REDZ=
202005161350 METAR ESMX 161350Z AUTO 26015G28KT 220V290 9999 BKN057/// OVC074/// 09/00 Q1008=
202005161320 METAR ESMX 161320Z AUTO 25014G25KT 210V290 9999 FEW039/// SCT064/// BKN076/// 09/01 Q1008 RESHUP REDZ=
202005161250 METAR ESMX 161250Z AUTO 28014G28KT 240V310 9999 SCT040/// BKN061/// BKN076/// 09/01 Q1008 RESHUP=
202005161220 METAR ESMX 161220Z AUTO 29020G38KT 9999 -DZ FEW010/// BKN047/// 08/02 Q1008 RESHUP RERA=
202005161150 METAR ESMX 161150Z AUTO 31016KT 270V340 9999 -RA SCT026/// BKN037/// BKN190/// 07/03 Q1008 RERA=
202005161120 METAR ESMX 161120Z AUTO 25013KT 220V280 9999 FEW047/// 09/05 Q1007=
202005161050 METAR ESMX 161050Z AUTO 29015G27KT 4200 RA ///031 05/04 Q1008=
202005161020 METAR ESMX 161020Z AUTO 24012KT 210V280 9999 -DZ BKN022/// OVC029/// 08/06 Q1007=
202005160950 METAR ESMX 160950Z AUTO 24013KT 9999 BKN022/// 09/06 Q1007=
202005160920 METAR ESMX 160920Z AUTO 25011KT 210V280 9999 BKN024/// OVC038/// 08/05 Q1007=
202005160850 METAR ESMX 160850Z AUTO 23013KT 9999 SCT024/// BKN040/// BKN057/// 09/06 Q1007=
202005160820 METAR ESMX 160820Z AUTO 25011KT 210V280 9999 BKN021/// BKN029/// OVC037/// 08/05 Q1007=
202005160750 METAR ESMX 160750Z AUTO 30007KT 6000 -RA SCT022/// BKN032/// OVC042/// 06/05 Q1007 RERA=
202005160720 METAR ESMX 160720Z AUTO 27010KT 220V330 9999 SCT013/// BKN022/// OVC032/// 07/05 Q1008=
202005160650 METAR ESMX 160650Z AUTO 25011KT 210V290 9999 -DZ BKN037/// OVC086/// 07/05 Q1007 RESHUP=
202005160620 METAR ESMX 160620Z AUTO 26014KT 230V290 9999 RA BKN022/// BKN098/// 06/04 Q1007 RESHUP REUP=
202005160550 METAR ESMX 160550Z AUTO 25012G24KT 220V290 9999 -RA OVC020/// 07/04 Q1007 REUP=
202005160520 METAR ESMX 160520Z AUTO 26011KT 230V290 9999 BKN018/// OVC036/// 07/04 Q1007=
202005160450 METAR ESMX 160450Z AUTO 23010KT 200V260 9999 BKN017/// 07/05 Q1007=
202005160420 METAR ESMX 160420Z AUTO 25010KT 9999 SCT016/// BKN032/// BKN088/// 06/05 Q1007=
202005160350 METAR ESMX 160350Z AUTO 25010KT 200V290 9999 BKN015/// OVC110/// 06/05 Q1007=
202005160320 METAR ESMX 160320Z AUTO 24011KT 200V260 9999 OVC016/// 06/05 Q1007=
202005160250 METAR ESMX 160250Z AUTO 25008KT 210V280 6000 -RA SCT001/// BKN009/// BKN019/// 06/06 Q1007=
202005160220 METAR ESMX 160220Z AUTO 25010KT 210V280 9999 -RA FEW013/// SCT020/// BKN025/// 06/05 Q1007 RESHUP RERA=
202005160150 METAR ESMX 160150Z AUTO 22010KT 9999 SCT010/// BKN018/// OVC024/// 06/05 Q1007=
202005160120 METAR ESMX 160120Z AUTO 22011KT 8000 -RA SCT009/// BKN011/// OVC026/// 06/06 Q1007=
202005160050 METAR ESMX 160050Z AUTO 22011KT 9999 -RA SCT012/// BKN016/// BKN021/// 06/06 Q1007=
202005160020 METAR ESMX 160020Z AUTO 24014KT 210V270 9000 -RA SCT015/// OVC024/// 07/05 Q1007 REDZ REUP=
202005152350 METAR ESMX 152350Z AUTO 24010KT 9999 BKN015/// OVC020/// 07/05 Q1008=
202005152320 METAR ESMX 152320Z AUTO 23010KT 200V260 9999 OVC019/// 08/05 Q1008=
202005152250 METAR ESMX 152250Z AUTO 25010KT 9999 SCT020/// OVC040/// 07/04 Q1008=
202005152220 METAR ESMX 152220Z AUTO 25009KT 9999 SCT025/// BKN035/// OVC046/// 08/05 Q1008=
202005152150 METAR ESMX 152150Z AUTO 23010KT 190V250 9999 FEW026/// BKN037/// BKN130/// 07/05 Q1008 REUP=
202005152120 METAR ESMX 152120Z AUTO 23007KT 9999 BKN029/// 07/04 Q1008=
202005152050 METAR ESMX 152050Z AUTO 24009KT 210V280 9999 FEW034/// SCT053/// 07/03 Q1008=
202005152020 METAR ESMX 152020Z AUTO 26010KT 9999 FEW055/// 07/03 Q1008=
202005151950 METAR ESMX 151950Z AUTO 25011KT 9999 FEW039/// 08/03 Q1008=
202005151920 METAR ESMX 151920Z AUTO 25009KT 9999 FEW043/// BKN062/// 08/03 Q1008=
202005151850 METAR ESMX 151850Z AUTO 25009KT 9999 FEW044/// BKN062/// 09/03 Q1008=
202005151820 METAR ESMX 151820Z AUTO 22008KT 9999 FEW047/// BKN062/// 09/03 Q1008=
202005151750 METAR ESMX 151750Z AUTO 24009KT 210V270 9999 FEW059/// 09/04 Q1008=
202005151720 METAR ESMX 151720Z AUTO 23010G21KT 200V260 9999 OVC057/// 10/05 Q1008=
202005151650 METAR ESMX 151650Z AUTO 23010KT 9999 FEW062/// 09/05 Q1008=
202005151620 METAR ESMX 151620Z AUTO 25009KT 9999 FEW040/// BKN059/// 08/06 Q1008=
202005151550 METAR ESMX 151550Z AUTO 27009KT 9999 FEW005/// BKN031/// 08/06 Q1008 REDZ=
202005151520 METAR ESMX 151520Z AUTO 29009KT 9999 -DZ FEW024/// SCT037/// BKN047/// 08/05 Q1008=
202005151450 METAR ESMX 151450Z AUTO 22014KT 9999 BKN041/// BKN080/// 11/03 Q1008=
202005151420 METAR ESMX 151420Z AUTO 25014KT 9999 FEW034/// BKN046/// OVC062/// 10/03 Q1008=
202005151350 METAR ESMX 151350Z AUTO 25015KT 230V290 9999 FEW042/// OVC072/// 11/02 Q1008=
202005151320 METAR ESMX 151320Z 26012KT 9999 BKN044 10/03 Q1009=
202005151250 METAR ESMX 151250Z 24013KT 9999 VCSH FEW032 BKN040 10/02 Q1009=
202005151220 METAR COR ESMX 151220Z 27012KT 9999 BKN035 11/02 Q1009=
202005151150 METAR ESMX 151150Z 26011KT 230V290 9999 FEW030 BKN035 09/02 Q1009=
202005151120 METAR ESMX 151120Z 25011KT 210V280 9999 BKN031CB 09/02 Q1009=
202005151050 METAR ESMX 151050Z 26014KT 230V290 9999 FEW025 BKN033CB 09/03 Q1009=
202005151020 METAR ESMX 151020Z 25015KT 9999 FEW023 BKN033CB 10/01 Q1009=
202005150950 METAR ESMX 150950Z 24014KT 9999 SCT028 BKN039CB 11/03 Q1010=
202005150920 METAR ESMX 150920Z 26013KT 9999 -RA FEW024 BKN038CB 08/03 Q1010=
202005150850 METAR ESMX 150850Z 25012KT 9999 FEW024 BKN044CB 08/04 Q1010=
202005150820 METAR ESMX 150820Z 23012KT 190V260 9999 SCT024 BKN049CB 08/03 Q1010=
202005150750 METAR ESMX 150750Z 25010KT 210V280 9999 FEW023 BKN034CB 07/03 Q1010=
202005150720 METAR ESMX 150720Z 23011KT 9999 BKN028 08/02 Q1010=
202005150650 METAR ESMX 150650Z 26010KT 9999 VCSH SCT023 08/02 Q1010=
202005150620 METAR ESMX 150620Z AUTO 26012KT 9999 BKN022/// BKN029/// OVC044/// 08/03 Q1011=
202005150550 METAR ESMX 150550Z AUTO 25010KT 230V290 9999 SCT020/// 08/03 Q1011=
202005150520 METAR ESMX 150520Z AUTO 25010KT 220V280 9999 SCT017/// BKN022/// OVC046/// 07/03 Q1011=
202005150450 METAR ESMX 150450Z AUTO 25009KT 210V280 9999 FEW014/// 07/04 Q1011=
202005150420 METAR ESMX 150420Z AUTO 25009KT 210V290 9999 SCT015/// BKN022/// BKN027/// 06/04 Q1011=
202005150350 METAR ESMX 150350Z AUTO 21004KT 9999 SCT023/// BKN038/// 05/04 Q1011=
202005150320 METAR ESMX 150320Z AUTO 22005KT 190V250 9999 BKN021/// 06/04 Q1011=
202005150250 METAR ESMX 150250Z AUTO 25007KT 9999 BKN020/// BKN064/// 06/04 Q1011=
202005150220 METAR ESMX 150220Z AUTO 22007KT 9999 BKN021/// OVC026/// 06/03 Q1011=
202005150150 METAR ESMX 150150Z AUTO 23008KT 9999 OVC021/// 06/03 Q1011=
202005150120 METAR ESMX 150120Z AUTO 24009KT 9999 OVC021/// 07/03 Q1011=
202005150050 METAR ESMX 150050Z AUTO 24007KT 9999 BKN023/// OVC035/// 06/04 Q1012 RESHUP=
202005150020 METAR ESMX 150020Z AUTO 23009KT 200V260 9999 FEW025/// OVC043/// 07/03 Q1012 REUP=
202005142350 METAR ESMX 142350Z AUTO 24010KT 9999 BKN022/// OVC041/// 07/03 Q1012=
202005142320 METAR ESMX 142320Z AUTO 22008KT 9999 OVC025/// 07/02 Q1012 RESHUP REUP=
202005142250 METAR ESMX 142250Z AUTO 23008KT 9999 BKN028/// BKN046/// OVC072/// 06/02 Q1012=
202005142220 METAR ESMX 142220Z AUTO 22007KT 200V300 9999 FEW032/// SCT042/// 05/02 Q1012=
202005142150 METAR ESMX 142150Z AUTO 21005KT 9999 FEW026/// BKN047/// 06/01 Q1012=
202005142120 METAR ESMX 142120Z AUTO 21006KT 9999 FEW029/// OVC045/// 06/01 Q1012=
202005142050 METAR ESMX 142050Z AUTO 23007KT 9999 SCT045/// 06/01 Q1013=
202005142020 METAR ESMX 142020Z AUTO 26010KT 9999 SCT046/// 07/M00 Q1013=
202005141950 METAR ESMX 141950Z AUTO 26009KT 230V290 9999 FEW033/// OVC047/// 08/01 Q1013 REUP=
202005141920 METAR ESMX 141920Z AUTO 25009KT 210V280 9999 FEW036/// OVC047/// 08/01 Q1013=
202005141850 METAR ESMX 141850Z AUTO 25012KT 230V290 9999 BKN051/// 09/M00 Q1012=
202005141820 METAR ESMX 141820Z AUTO 27008KT 240V300 9999 BKN053/// 09/M01 Q1012=
202005141750 METAR ESMX 141750Z AUTO 26010KT 9999 BKN053/// 09/M00 Q1012=
202005141720 METAR ESMX 141720Z AUTO 28012KT 9999 SCT051/// BKN110/// 10/M01 Q1012=
202005141650 METAR ESMX 141650Z AUTO 26014KT 9999 FEW057/// SCT098/// 10/M01 Q1012=
202005141620 METAR ESMX 141620Z AUTO 27013G25KT 240V320 9999 SCT061/// 10/M03 Q1012=
202005141550 METAR ESMX 141550Z AUTO 26014KT 9999 NCD 11/M04 Q1012=
202005141520 METAR ESMX 141520Z AUTO 26016G26KT 9999 SCT070/// 12/M05 Q1012=
202005141450 METAR ESMX 141450Z AUTO 27015KT 9999 FEW074/// 12/M06 Q1012=
202005141420 METAR ESMX 141420Z AUTO 28013G24KT 250V320 9999 SCT076/// 12/M06 Q1012=
202005141350 METAR ESMX 141350Z AUTO 26015KT 220V290 9999 FEW078/// 12/M07 Q1012=
202005141320 METAR ESMX 141320Z 25014KT 220V300 CAVOK 13/M06 Q1011=
202005141250 METAR ESMX 141250Z 28013KT CAVOK 12/M06 Q1011=
202005141220 METAR ESMX 141220Z 27012KT 230V300 9999 FEW040CB BKN072 12/M05 Q1011=
202005141150 METAR ESMX 141150Z 22007KT 170V290 9999 FEW040CB BKN072 10/M01 Q1012=
202005141120 METAR ESMX 141120Z VRB03KT 9999 FEW036CB BKN072 08/00 Q1012=
202005141050 METAR ESMX 141050Z 05006KT 020V080 9999 BKN041CB 08/01 Q1012=
202005141020 METAR ESMX 141020Z 03008KT 350V140 9999 BKN037CB 07/01 Q1012=
202005140950 METAR ESMX 140950Z 22009KT 190V250 9999 SCT040CB 09/00 Q1012 RESHGS=
202005140920 METAR ESMX 140920Z 22008KT 9999 SCT041CB 08/M00 Q1012=
202005140850 METAR COR ESMX 140850Z 25007KT 190V300 9999 SHRA BKN043CB 08/M01 Q1011=
202005140820 METAR ESMX 140820Z 22008KT 190V270 9999 BKN040CB 08/M01 Q1011=
202005140750 METAR ESMX 140750Z 26008KT 210V290 9999 SCT037 BKN047 08/M01 Q1012=
202005140720 METAR ESMX 140720Z 22010KT 190V250 9999 SCT036 07/M01 Q1012=
202005140650 METAR ESMX 140650Z 24009KT 200V290 9999 FEW032 SCT038 07/00 Q1012=
202005140620 METAR ESMX 140620Z 21008KT 9999 FEW033 06/M01 Q1012=
202005140550 METAR ESMX 140550Z AUTO 18005KT 9999 BKN034/// OVC055/// 05/M00 Q1012 RESHUP RESHRA=
202005140520 METAR ESMX 140520Z AUTO 19004KT 9999 FEW039/// SCT084/// 05/M00 Q1012 RESHUP REUP=
202005140450 METAR ESMX 140450Z AUTO 21003KT 9999 FEW010/// BKN044/// BKN064/// 03/M01 Q1012 RESHUP REUP=
202005140420 METAR ESMX 140420Z AUTO 24006KT 210V290 9999 SCT088/// 02/M01 Q1012=
202005140350 METAR ESMX 140350Z AUTO 00000KT 9999 SCT096/// M01/M04 Q1012=
202005140320 METAR ESMX 140320Z AUTO 20002KT 9999 NCD M00/M04 Q1012=
202005140250 METAR ESMX 140250Z AUTO 22004KT 9999 NCD M00/M04 Q1012=
202005140220 METAR ESMX 140220Z AUTO 22004KT 9999 NCD M00/M04 Q1012=
202005140150 METAR ESMX 140150Z AUTO 22004KT 9999 NCD 00/M04 Q1012=
202005140120 METAR ESMX 140120Z AUTO 22003KT 9999 SCT082/// 01/M04 Q1012=
202005140050 METAR ESMX 140050Z AUTO 21003KT 9999 OVC080/// M00/M03 Q1012=
202005140020 METAR ESMX 140020Z AUTO 21003KT 9999 OVC090/// M00/M04 Q1012=
202005132350 METAR ESMX 132350Z AUTO 20001KT 9999 BKN088/// 00/M04 Q1012=
202005132320 METAR ESMX 132320Z AUTO 27002KT 9999 NCD 00/M03 Q1012=
202005132250 METAR ESMX 132250Z AUTO 22004KT 9999 BKN094/// M02/M04 Q1012=
202005132220 METAR ESMX 132220Z AUTO 22003KT 200V260 9999 FEW098/// 00/M04 Q1012=
202005132150 METAR ESMX 132150Z AUTO 00000KT 9999 NCD M01/M05 Q1012=
202005132120 METAR ESMX 132120Z AUTO 20002KT 9999 NCD 02/M05 Q1012=
202005132050 METAR ESMX 132050Z AUTO 21003KT 9999 NCD 02/M05 Q1012=
202005132020 METAR ESMX 132020Z AUTO 24004KT 9999 NCD 03/M05 Q1011=
202005131950 METAR ESMX 131950Z AUTO 00000KT 9999 NCD 02/M06 Q1011=
202005131920 METAR ESMX 131920Z AUTO 19002KT 9999 NCD 03/M06 Q1011=
202005131850 METAR ESMX 131850Z AUTO 00000KT 9999 NCD 07/M07 Q1011=
202005131820 METAR ESMX 131820Z AUTO VRB03KT 9999 NCD 08/M08 Q1010=
202005131750 METAR ESMX 131750Z AUTO 26005KT 230V310 9999 NCD 09/M08 Q1010=
202005131720 METAR ESMX 131720Z AUTO 33008KT 260V080 9999 NCD 09/M08 Q1010=
202005131650 METAR ESMX 131650Z AUTO 34009KT 300V010 9999 SCT094/// 10/M08 Q1010=
202005131620 METAR ESMX 131620Z AUTO 29007KT 230V350 9999 SCT092/// 11/M10 Q1010=
202005131550 METAR ESMX 131550Z AUTO 29008KT 210V330 9999 SCT098/// 10/M09 Q1010=
202005131520 METAR ESMX 131520Z AUTO 28007KT 210V010 9999 FEW084/// 10/M10 Q1010=
202005131450 METAR ESMX 131450Z AUTO 32009KT 260V010 9999 FEW084/// 09/M10 Q1010=
202005131420 METAR ESMX 131420Z AUTO 31009KT 270V350 9999 BKN080/// 10/M10 Q1010=
202005131350 METAR ESMX 131350Z AUTO 32011KT 9999 SCT096/// 10/M08 Q1010=
202005131320 METAR ESMX 131320Z 33013KT CAVOK 09/M08 Q1010=
202005131250 METAR ESMX 131250Z 29010G21KT 240V340 CAVOK 11/M10 Q1009=
202005131220 METAR ESMX 131220Z 30009KT 260V350 CAVOK 10/M10 Q1009=
202005131150 METAR ESMX 131150Z 27010KT 230V310 CAVOK 10/M09 Q1009=
202005131120 METAR ESMX 131120Z 32011KT CAVOK 10/M09 Q1009=
202005131050 METAR ESMX 131050Z 32009KT 250V050 CAVOK 09/M09 Q1009=
202005131020 METAR ESMX 131020Z 30011KT CAVOK 09/M07 Q1009=
202005130950 METAR ESMX 130950Z 30011KT 260V340 CAVOK 09/M06 Q1009=
202005130920 METAR ESMX 130920Z 31010KT 280V350 CAVOK 08/M06 Q1009=
202005130850 METAR ESMX 130850Z 28012KT 9999 SCT049 07/M05 Q1009=
202005130820 METAR ESMX 130820Z 29011KT 240V320 9999 SCT048 07/M03 Q1008=
202005130750 METAR ESMX 130750Z 29011KT 9999 FEW038 06/M02 Q1008=
202005130720 METAR ESMX 130720Z 28010KT 250V320 9999 FEW038 06/M01 Q1008=
202005130650 METAR ESMX 130650Z 29009KT 9999 FEW024 05/M01 Q1008=
202005130620 METAR ESMX 130620Z AUTO 29010KT 9999 NCD 04/M01 Q1008=
202005130550 METAR ESMX 130550Z AUTO 28009KT 250V320 9999 NCD 04/M01 Q1008=
202005130520 METAR ESMX 130520Z AUTO 25007KT 180V290 9999 NCD 03/M01 Q1008=
202005130450 METAR ESMX 130450Z AUTO 29007KT 260V320 9999 NCD 02/M01 Q1008=
202005130420 METAR ESMX 130420Z AUTO 27007KT 9999 FEW026/// 01/M01 Q1007=
202005130350 METAR ESMX 130350Z AUTO 25007KT 9999 NCD 01/M01 Q1007=
202005130320 METAR ESMX 130320Z AUTO 27007KT 9999 NCD 01/M02 Q1007=
202005130250 METAR ESMX 130250Z AUTO 26006KT 9999 NCD 00/M02 Q1006=
202005130220 METAR ESMX 130220Z AUTO 26006KT 9999 NCD M00/M02 Q1006=
202005130150 METAR ESMX 130150Z AUTO 25005KT 9999 NCD M00/M02 Q1006=
202005130120 METAR ESMX 130120Z AUTO 26007KT 9999 NCD 00/M02 Q1006=
202005130050 METAR ESMX 130050Z AUTO 25006KT 9999 NCD M00/M02 Q1006=
202005130020 METAR ESMX 130020Z AUTO 25005KT 9999 NCD M00/M02 Q1006=
202005122350 METAR ESMX 122350Z AUTO 26004KT 9999 NCD M00/M02 Q1006=
202005122320 METAR ESMX 122320Z AUTO 25005KT 9999 NCD 00/M02 Q1006=
202005122250 METAR ESMX 122250Z AUTO 26007KT 9999 NCD 01/M02 Q1005=
202005122220 METAR ESMX 122220Z AUTO 26008KT 9999 NCD 01/M01 Q1005=
202005122150 METAR ESMX 122150Z AUTO 22008KT 9999 NCD 01/M01 Q1005=
202005122120 METAR ESMX 122120Z AUTO 23008KT 9999 FEW100/// 02/M00 Q1005=
202005122050 METAR ESMX 122050Z AUTO 25009KT 9999 FEW012/// SCT035/// BKN100/// 02/M00 Q1005=
202005122020 METAR ESMX 122020Z AUTO 21008KT 9999 FEW110/// 01/00 Q1005=
202005121950 METAR ESMX 121950Z AUTO 22007KT 9999 FEW098/// 02/00 Q1005=
202005121920 METAR ESMX 121920Z AUTO 22010KT 9999 BKN098/// 02/01 Q1005=
202005121850 METAR ESMX 121850Z AUTO 21008KT 9999 NCD 02/01 Q1005=
202005121820 METAR ESMX 121820Z AUTO 22006KT 9999 FEW055/// 02/01 Q1005 RESHRA=
202005121750 METAR ESMX 121750Z AUTO 25008KT 9999 FEW003/// SCT031/// BKN042/// 02/01 Q1005=
202005121720 METAR ESMX 121720Z AUTO 29012KT 9999 -RA FEW004/// SCT015/// OVC036/// 02/01 Q1005 RESHUP=
202005121650 METAR ESMX 121650Z AUTO 24011KT 9999 FEW035/// SCT150/// 06/02 Q1004=
202005121620 METAR ESMX 121620Z AUTO 22011KT 9999 FEW031/// 06/03 Q1004=
202005121550 METAR ESMX 121550Z AUTO 24012G22KT 210V280 9999 FEW023/// SCT078/// BKN120/// 05/03 Q1004 RESHUP=
202005121520 METAR ESMX 121520Z AUTO 21008KT 9999 UP SCT017/// BKN031/// 05/04 Q1004 RERA=
202005121450 METAR ESMX 121450Z AUTO 21009KT 9999 FEW059/// SCT110/// 04/04 Q1005=
202005121420 METAR ESMX 121420Z AUTO 26015KT 2300 RA FEW001/// BKN016/// BKN023/// 03/02 Q1005=
202005121350 METAR ESMX 121350Z AUTO 23011KT 9999 -RA SCT017/// BKN033/// BKN072/// 06/04 Q1005 RESHUP REUP=
202005121320 METAR ESMX 121320Z 23012KT 9999 FEW014 SCT096 06/04 Q1005=
202005121250 METAR ESMX 121250Z 20010KT 9999 SHRA FEW010CB SCT022 06/04 Q1005 RERA=
202005121220 METAR COR ESMX 121220Z 25018G30KT 7000 SHRA FEW010CB BKN048 06/02 Q1006=
202005121150 METAR ESMX 121150Z 23015KT 9999 FEW050 SCT061 10/M01 Q1005=
202005121120 METAR ESMX 121120Z 24013KT 9999 FEW060CB BKN068 09/M04 Q1005=
202005121050 METAR ESMX 121050Z 26014KT 9999 FEW060CB SCT064 10/M06 Q1005=
202005121020 METAR ESMX 121020Z 25012KT 220V280 9999 SCT046 11/M03 Q1005=
202005120950 METAR ESMX 120950Z 25009KT 210V290 9999 FEW047CB SCT068 09/M02 Q1005=
202005120920 METAR ESMX 120920Z 25013KT 210V270 9999 -RA FEW048CB BKN062 08/M03 Q1006=
202005120850 METAR ESMX 120850Z 26012KT 220V290 9999 -RA FEW045CB BKN049 08/M02 Q1006=
202005120820 METAR ESMX 120820Z 22011KT 9999 SCT040 09/M01 Q1006=
202005120750 METAR ESMX 120750Z 22012KT 180V240 9999 SCT032 09/M00 Q1006=
202005120720 METAR ESMX 120720Z 21010KT 9999 SCT029 08/M01 Q1007=
202005120650 METAR ESMX 120650Z 22009KT 190V250 CAVOK 06/M00 Q1007=
202005120620 METAR ESMX 120620Z 21009KT CAVOK 06/M00 Q1007=
202005120550 METAR ESMX 120550Z AUTO 22009KT 9999 NCD 04/M01 Q1007=
202005120520 METAR ESMX 120520Z AUTO 20007KT 9999 NCD 03/M01 Q1007=
202005120450 METAR ESMX 120450Z AUTO 20007KT 9999 NCD 02/M02 Q1007=
202005120420 METAR ESMX 120420Z AUTO 22005KT 9999 NCD 00/M02 Q1007=
202005120350 METAR ESMX 120350Z AUTO 21006KT 9999 NCD M01/M03 Q1007=
202005120320 METAR ESMX 120320Z AUTO 21005KT 9999 NCD M02/M04 Q1007=
202005120250 METAR ESMX 120250Z AUTO 21006KT 9999 NCD M03/M04 Q1008=
202005120220 METAR ESMX 120220Z AUTO 22004KT 9999 NCD M02/M05 Q1008=
202005120150 METAR ESMX 120150Z AUTO 20002KT 9999 NCD M01/M05 Q1008=
202005120120 METAR ESMX 120120Z AUTO 23004KT 9999 NCD M01/M05 Q1008=
202005120050 METAR ESMX 120050Z AUTO 21004KT 9999 NCD M01/M05 Q1008=
202005120020 METAR ESMX 120020Z AUTO 23005KT 9999 NCD M00/M05 Q1008=
202005112350 METAR ESMX 112350Z AUTO 27004KT 9999 NCD M00/M06 Q1008=
202005112320 METAR ESMX 112320Z AUTO 29005KT 9999 NCD 00/M07 Q1008=
202005112250 METAR ESMX 112250Z AUTO 29005KT 9999 NCD 01/M08 Q1008=
202005112220 METAR ESMX 112220Z AUTO 27007KT 9999 NCD M01/M08 Q1008=
202005112150 METAR ESMX 112150Z AUTO 19003KT 9999 NCD M02/M07 Q1007=
202005112120 METAR ESMX 112120Z AUTO 19003KT 9999 NCD M01/M08 Q1007=
202005112050 METAR ESMX 112050Z AUTO VRB02KT 9999 NCD M00/M07 Q1008=
202005112020 METAR ESMX 112020Z AUTO VRB02KT 9999 NCD 00/M07 Q1008=
202005111950 METAR ESMX 111950Z AUTO 21002KT 9999 NCD 02/M08 Q1008=
202005111920 METAR ESMX 111920Z AUTO 34005KT 9999 NCD 04/M09 Q1008=
202005111850 METAR ESMX 111850Z AUTO 34006KT 9999 NCD 05/M10 Q1008=
202005111820 METAR ESMX 111820Z AUTO 34007KT 9999 NCD 06/M11 Q1008=
202005111750 METAR ESMX 111750Z AUTO 35007KT 9999 NCD 07/M12 Q1008=
202005111720 METAR ESMX 111720Z AUTO 36010KT 9999 NCD 08/M13 Q1008=
202005111650 METAR ESMX 111650Z AUTO 35009KT 9999 NCD 08/M14 Q1008=
202005111620 METAR ESMX 111620Z AUTO 35013KT 9999 NCD 08/M13 Q1008=
202005111550 METAR ESMX 111550Z AUTO 36011KT 9999 FEW088/// 09/M11 Q1008=
202005111520 METAR ESMX 111520Z AUTO 35012KT 9999 SCT084/// 07/M11 Q1008=
202005111450 METAR ESMX 111450Z AUTO 36013KT 9999 FEW084/// 07/M12 Q1008=
202005111420 METAR ESMX 111420Z AUTO 36014KT 9999 FEW084/// 08/M11 Q1008=
202005111350 METAR ESMX 111350Z AUTO 35013KT 300V020 9999 FEW084/// 09/M10 Q1008=
202005111320 METAR ESMX 111320Z 34013KT 300V010 CAVOK 09/M11 Q1008=
202005111250 METAR ESMX 111250Z 34012KT CAVOK 08/M10 Q1008=
202005111220 METAR ESMX 111220Z 33012KT 300V010 CAVOK 09/M10 Q1008=
202005111150 METAR ESMX 111150Z 34013KT CAVOK 08/M10 Q1008=
202005111120 METAR ESMX 111120Z 36015KT CAVOK 08/M10 Q1008=
202005111050 METAR ESMX 111050Z 36015KT 320V030 CAVOK 08/M08 Q1008=
202005111020 METAR ESMX 111020Z 33014KT 270V360 CAVOK 08/M08 Q1008=
202005110950 METAR ESMX 110950Z 34014KT 310V010 CAVOK 07/M06 Q1008=
202005110920 METAR ESMX 110920Z 35013KT 320V030 CAVOK 07/M07 Q1008=
202005110850 METAR ESMX 110850Z 35015KT CAVOK 07/M04 Q1008=
202005110820 METAR ESMX 110820Z 34014KT 310V020 CAVOK 07/M03 Q1007=
202005110750 METAR ESMX 110750Z 33015KT 9999 SCT046 05/M04 Q1007=
202005110720 METAR ESMX 110720Z 35016KT 9999 FEW028 BKN040 05/M04 Q1007=
202005110650 METAR ESMX 110650Z 01014KT 9999 FEW028 BKN036 05/M02 Q1007=
202005110620 METAR ESMX 110620Z 35017KT 9999 FEW025 SCT034 04/M02 Q1007=
202005110550 METAR ESMX 110550Z 36016KT 9999 SCT023 04/M00 Q1007=
202005110520 METAR ESMX 110520Z AUTO 35015KT 9999 BKN021/// 03/M01 Q1007=
202005110450 METAR ESMX 110450Z AUTO 35014KT 9999 SCT020/// 02/M00 Q1007=
202005110420 METAR ESMX 110420Z AUTO 35012KT 9999 FEW005/// BKN010/// BKN022/// 02/01 Q1006=
202005110350 METAR ESMX 110350Z AUTO 34015KT 9999 -RA SCT007/// BKN018/// BKN022/// 03/01 Q1006 RESHUP REUP=
202005110320 METAR ESMX 110320Z AUTO 35013KT 9999 BKN017/// OVC023/// 04/02 Q1005 RESHUP REUP=
202005110250 METAR ESMX 110250Z AUTO 35014KT 9999 BKN016/// BKN021/// OVC029/// 04/02 Q1005=
202005110220 METAR ESMX 110220Z AUTO 34014KT 9999 SCT016/// OVC094/// 04/02 Q1005=
202005110150 METAR ESMX 110150Z AUTO 35013KT 9999 BKN017/// OVC021/// 04/02 Q1005 RERA=
202005110120 METAR ESMX 110120Z AUTO 32013KT 280V340 9999 BKN020/// OVC074/// 04/02 Q1005 RERA=
202005110050 METAR ESMX 110050Z AUTO 33014KT 9999 BKN018/// OVC076/// 05/03 Q1005=
202005110020 METAR ESMX 110020Z AUTO 33014KT 290V350 9999 -RA BKN014/// OVC019/// 05/03 Q1005=
202005102350 METAR ESMX 102350Z AUTO 33012KT 290V360 9999 -RA FEW002/// OVC016/// 06/04 Q1004 RESHUP=
202005102320 METAR ESMX 102320Z AUTO 33011KT 280V350 9999 OVC020/// 06/04 Q1004=
202005102250 METAR ESMX 102250Z AUTO 33006KT 9999 OVC053/// 06/04 Q1004=
202005102220 METAR ESMX 102220Z AUTO 27006KT 240V320 9999 -DZ OVC051/// 07/05 Q1004 REDZ=
202005102150 METAR ESMX 102150Z AUTO 31003KT 9999 OVC047/// 07/06 Q1004=
202005102120 METAR ESMX 102120Z AUTO 31005KT 9999 -DZ OVC041/// 07/06 Q1004 RERA=
202005102050 METAR ESMX 102050Z AUTO 30005KT 9999 -RA OVC036/// 07/06 Q1005=
202005102020 METAR ESMX 102020Z AUTO 25004KT 200V320 9999 -RA BKN033/// OVC055/// 07/06 Q1004=
202005101950 METAR ESMX 101950Z AUTO 31007KT 9999 -RA OVC028/// 08/06 Q1005=
202005101920 METAR ESMX 101920Z AUTO 31008KT 9999 -RA OVC024/// 08/06 Q1004 REDZ=
202005101850 METAR ESMX 101850Z AUTO 32008KT 9999 -DZ OVC017/// 10/08 Q1004=
202005101820 METAR ESMX 101820Z AUTO 29007KT 9999 -DZ OVC017/// 11/09 Q1004=
202005101750 METAR ESMX 101750Z AUTO 29008KT 9999 -DZ SCT017/// OVC064/// 11/10 Q1004=
202005101720 METAR ESMX 101720Z AUTO 28009KT 9999 DZ OVC064/// 13/10 Q1003=
202005101650 METAR ESMX 101650Z AUTO 23007KT 9999 -DZ BKN068/// 15/10 Q1003=
202005101620 METAR ESMX 101620Z AUTO 20009KT 9999 FEW068/// BKN098/// 15/10 Q1003 RERA=
202005101550 METAR ESMX 101550Z AUTO 21009KT 9999 FEW028/// BKN064/// 16/10 Q1003=
202005101520 METAR ESMX 101520Z AUTO 21010KT 9999 OVC064/// 15/09 Q1003=
202005101450 METAR ESMX 101450Z AUTO 21010KT 9999 -DZ FEW001/// OVC064/// 15/10 Q1004 REDZ=
202005101420 METAR ESMX 101420Z AUTO 22010KT 9999 BKN066/// OVC092/// 16/10 Q1004=
202005101350 METAR ESMX 101350Z AUTO 19012KT 9999 BKN070/// BKN084/// 17/10 Q1004 REDZ=
202005101320 METAR ESMX 101320Z AUTO 21012KT 9999 BKN074/// 17/10 Q1004=
202005101250 METAR ESMX 101250Z AUTO 18012KT 9999 -RA FEW026/// BKN078/// BKN100/// 17/11 Q1004=
202005101220 METAR ESMX 101220Z AUTO 18012KT 9999 FEW028/// SCT070/// BKN094/// 17/10 Q1004=
202005101150 METAR ESMX 101150Z AUTO 18013KT 9999 FEW032/// SCT094/// 18/11 Q1004=
202005101120 METAR ESMX 101120Z AUTO 19013KT 160V220 9999 BKN033/// 18/11 Q1005=
202005101050 METAR ESMX 101050Z AUTO 18013KT 9999 FEW028/// SCT038/// 17/12 Q1005=
202005101020 METAR ESMX 101020Z AUTO 19012KT 9999 FEW055/// BKN110/// 16/12 Q1005=
202005100950 METAR ESMX 100950Z AUTO 17006KT 9999 BKN059/// BKN110/// 14/11 Q1006=
202005100920 METAR ESMX 100920Z AUTO 17011KT 9000 -RA FEW030/// BKN048/// OVC064/// 13/11 Q1006 REDZ=
202005100850 METAR ESMX 100850Z AUTO 18013KT 9999 FEW010/// BKN051/// 14/11 Q1006 REDZ=
202005100820 METAR ESMX 100820Z AUTO 17008KT 130V200 9999 FEW045/// 15/12 Q1006=
202005100750 METAR ESMX 100750Z AUTO 16007KT 9999 BKN045/// BKN092/// 11/10 Q1007 RERA=
202005100720 METAR ESMX 100720Z AUTO 17007KT 9999 BKN047/// BKN066/// OVC088/// 11/09 Q1007=
202005100650 METAR ESMX 100650Z AUTO 17010KT 9999 RA FEW004/// SCT039/// BKN048/// 10/08 Q1007=
202005100620 METAR ESMX 100620Z AUTO 18008KT 9999 -RA FEW015/// BKN046/// 11/07 Q1008=
202005100550 METAR ESMX 100550Z AUTO 16009KT 9999 FEW059/// BKN090/// 11/06 Q1007=
202005100520 METAR ESMX 100520Z AUTO 16007KT 9999 SCT049/// BKN064/// 09/06 Q1008=
202005100450 METAR ESMX 100450Z AUTO 17006KT 9999 FEW039/// BKN059/// 08/06 Q1008=
202005100420 METAR ESMX 100420Z AUTO 15005KT 9999 FEW040/// OVC057/// 07/05 Q1008=
202005100350 METAR ESMX 100350Z AUTO 15004KT 120V190 9999 FEW044/// BKN055/// 07/05 Q1009=
202005100320 METAR ESMX 100320Z AUTO 16003KT 9999 OVC040/// 06/05 Q1009=
202005100250 METAR ESMX 100250Z AUTO 14002KT 9999 NCD 03/03 Q1009=
202005100220 METAR ESMX 100220Z AUTO 16003KT 9999 NCD 04/02 Q1009=
202005100150 METAR ESMX 100150Z AUTO 17002KT 9999 NCD 04/03 Q1010=
202005100120 METAR ESMX 100120Z AUTO 20004KT 9999 NCD 05/02 Q1010=
202005100050 METAR ESMX 100050Z AUTO 22003KT 9999 NCD 04/02 Q1010=
202005100020 METAR ESMX 100020Z AUTO 23004KT 9999 NCD 04/01 Q1010=
202005092350 METAR ESMX 092350Z AUTO 22005KT 9999 NCD 05/02 Q1011=
202005092320 METAR ESMX 092320Z AUTO 22004KT 9999 NCD 05/01 Q1011=
202005092250 METAR ESMX 092250Z AUTO 23004KT 9999 NCD 06/01 Q1011=
202005092220 METAR ESMX 092220Z AUTO 24005KT 9999 NCD 06/01 Q1011=
202005092150 METAR ESMX 092150Z AUTO 25004KT 9999 NCD 07/01 Q1011=
202005092120 METAR ESMX 092120Z AUTO 24005KT 9999 NCD 07/01 Q1011=
202005092050 METAR ESMX 092050Z AUTO 23005KT 9999 NCD 08/01 Q1011=
202005092020 METAR ESMX 092020Z AUTO 23004KT 9999 NCD 09/00 Q1012=
202005091950 METAR ESMX 091950Z AUTO 24005KT 9999 NCD 10/00 Q1012=
202005091920 METAR ESMX 091920Z AUTO 24006KT 9999 NCD 10/01 Q1012=
202005091850 METAR ESMX 091850Z AUTO 25005KT 9999 NCD 12/01 Q1012=
202005091820 METAR ESMX 091820Z AUTO 26006KT 9999 NCD 14/01 Q1011=
202005091750 METAR ESMX 091750Z AUTO 23007KT 9999 NCD 15/00 Q1011=
202005091720 METAR ESMX 091720Z AUTO 26010KT 9999 NCD 16/M01 Q1011=
202005091650 METAR ESMX 091650Z AUTO 23008KT 9999 NCD 17/M01 Q1011=
202005091620 METAR ESMX 091620Z AUTO 23008KT 200V270 9999 NCD 18/M00 Q1011=
202005091550 METAR ESMX 091550Z AUTO 26008KT 210V300 9999 NCD 18/M01 Q1011=
202005091520 METAR ESMX 091520Z AUTO 26008KT 230V290 9999 NCD 18/00 Q1012=
202005091450 METAR ESMX 091450Z AUTO 25010KT 200V290 9999 NCD 18/02 Q1012=
202005091420 METAR ESMX 091420Z AUTO 26009KT 230V290 9999 NCD 19/02 Q1012=
202005091350 METAR ESMX 091350Z AUTO 29008KT 210V340 9999 NCD 19/01 Q1012=
202005091320 METAR ESMX 091320Z AUTO 25008KT 200V310 9999 FEW066/// 18/02 Q1012=
202005091250 METAR ESMX 091250Z AUTO 23009KT 170V290 9999 FEW062/// 18/01 Q1013=
202005091220 METAR ESMX 091220Z AUTO 33005KT 240V050 9999 NCD 17/03 Q1013=
202005091150 METAR ESMX 091150Z AUTO 25006KT 200V300 9999 NCD 17/03 Q1013=
202005091120 METAR ESMX 091120Z AUTO 25007KT 190V290 9999 FEW210/// 16/03 Q1013=
202005091050 METAR ESMX 091050Z AUTO 25006KT 200V330 9999 NCD 16/03 Q1013=
202005091020 METAR ESMX 091020Z AUTO 22008KT 170V260 9999 NCD 15/03 Q1014=
202005090950 METAR ESMX 090950Z AUTO VRB05KT 9999 NCD 14/05 Q1014=
202005090920 METAR ESMX 090920Z AUTO 25004KT 190V350 9999 NCD 13/05 Q1014=
202005090850 METAR ESMX 090850Z AUTO 26005KT 200V320 9999 NCD 11/05 Q1014=
202005090820 METAR ESMX 090820Z AUTO 23004KT 200V260 9999 SCT008/// BKN010/// 09/07 Q1014=
202005090750 METAR ESMX 090750Z AUTO 25006KT 200V270 9999 OVC006/// 07/06 Q1014=
202005090720 METAR ESMX 090720Z AUTO 24006KT 210V290 9999 OVC005/// 07/05 Q1014=
202005090650 METAR ESMX 090650Z AUTO 22006KT 9999 OVC004/// 06/05 Q1014=
202005090620 METAR ESMX 090620Z AUTO 24006KT 9999 OVC002/// 06/06 Q1014=
202005090550 METAR ESMX 090550Z AUTO 21005KT 4000 OVC001/// 05/05 Q1014=
202005090520 METAR ESMX 090520Z AUTO 23004KT 0750 R01/1000N R19/1100U FG OVC001/// 05/05 Q1014=
202005090450 METAR ESMX 090450Z AUTO 21003KT 6000 BR OVC002/// 05/05 Q1014=
202005090420 METAR ESMX 090420Z AUTO 24002KT 6000 BR OVC003/// 04/04 Q1013=
202005090350 METAR ESMX 090350Z AUTO 20004KT 0300 R01/P2000N R19/P2000N BR VV003 03/03 Q1013=
202005090320 METAR ESMX 090320Z AUTO 23003KT 5000 BR NCD 04/04 Q1013=
202005090250 METAR ESMX 090250Z AUTO 25004KT 6000 BR NCD 04/04 Q1013=
202005090220 METAR ESMX 090220Z AUTO 25005KT 8000 BR NCD 04/04 Q1013=
202005090150 METAR ESMX 090150Z AUTO 25005KT 8000 BR NCD 04/04 Q1013=
202005090120 METAR ESMX 090120Z AUTO 25005KT 9999 NCD 03/03 Q1013=
202005090050 METAR ESMX 090050Z AUTO 24005KT 9999 NCD 04/03 Q1013=
202005090020 METAR ESMX 090020Z AUTO 26004KT 9999 NCD 05/04 Q1013=
202005082350 METAR ESMX 082350Z AUTO 26006KT 9999 NCD 05/04 Q1013=
202005082320 METAR ESMX 082320Z AUTO 25005KT 9999 NCD 05/03 Q1013=
202005082250 METAR ESMX 082250Z AUTO 26005KT 9999 NCD 05/03 Q1013=
202005082220 METAR ESMX 082220Z AUTO 26005KT 9999 NCD 06/03 Q1013=
202005082150 METAR ESMX 082150Z AUTO 26004KT 9999 NCD 06/03 Q1013=
202005082120 METAR ESMX 082120Z AUTO 27005KT 9999 NCD 07/03 Q1013=
202005082050 METAR ESMX 082050Z AUTO 27005KT 9999 NCD 07/04 Q1013=
202005082020 METAR ESMX 082020Z AUTO 28005KT 9999 NCD 08/04 Q1013=
202005081950 METAR ESMX 081950Z AUTO 28005KT 9999 NCD 09/04 Q1012=
202005081920 METAR ESMX 081920Z AUTO 24005KT 210V280 9999 NCD 09/04 Q1012=
202005081850 METAR ESMX 081850Z AUTO 26007KT 9999 NCD 11/05 Q1012=
202005081820 METAR ESMX 081820Z AUTO 26010KT 9999 FEW034/// 12/05 Q1011=
202005081750 METAR ESMX 081750Z AUTO 26012KT 9999 FEW036/// 12/05 Q1011=
202005081720 METAR ESMX 081720Z AUTO 26011KT 230V300 9999 BKN035/// 13/05 Q1011=
202005081650 METAR ESMX 081650Z AUTO 27009KT 9999 SCT037/// 14/05 Q1011=
202005081620 METAR ESMX 081620Z AUTO 25014KT 220V300 9999 OVC036/// 13/06 Q1011=
202005081550 METAR ESMX 081550Z AUTO 27009KT 9999 BKN036/// 13/06 Q1011=
202005081520 METAR ESMX 081520Z AUTO 27013KT 9999 BKN028/// BKN035/// OVC042/// 12/06 Q1011=
202005081450 METAR ESMX 081450Z AUTO 27014KT 9999 BKN030/// OVC041/// 13/06 Q1012=
202005081420 METAR ESMX 081420Z AUTO 26014KT 9999 OVC033/// 12/05 Q1012=
202005081350 METAR ESMX 081350Z AUTO 26014KT 220V300 9999 BKN035/// 13/04 Q1012=
202005081320 METAR ESMX 081320Z 24013KT 210V290 9999 SCT035 13/04 Q1012=
202005081250 METAR ESMX 081250Z 26015KT 210V300 9999 SCT035 14/05 Q1012=
202005081220 METAR ESMX 081220Z AUTO 26012KT 220V290 9999 BKN033/// 14/05 Q1012=
202005081150 METAR ESMX 081150Z AUTO 28012KT 240V320 9999 NCD 14/05 Q1012=
202005081120 METAR ESMX 081120Z 25012KT 220V290 9999 FEW036 15/05 Q1012=
202005081050 METAR ESMX 081050Z 27013KT 240V300 9999 FEW038 15/04 Q1012=
202005081020 METAR ESMX 081020Z 25014KT CAVOK 14/04 Q1012=
202005080950 METAR COR ESMX 080950Z 25011KT 200V270 CAVOK 14/03 Q1012=
202005080920 METAR ESMX 080920Z 26013KT CAVOK 14/02 Q1012=
202005080850 METAR ESMX 080850Z 25012KT CAVOK 13/02 Q1012=
202005080820 METAR ESMX 080820Z 25011KT 200V280 CAVOK 13/03 Q1012=
202005080750 METAR ESMX 080750Z 25011KT 210V290 9999 FEW025 12/04 Q1013=
202005080720 METAR ESMX 080720Z 25010KT 200V280 9999 FEW024 11/04 Q1013=
202005080650 METAR ESMX 080650Z 26010KT 230V290 9999 FEW018 10/04 Q1013=
202005080620 METAR ESMX 080620Z AUTO 26010KT 220V290 9999 BKN017/// 09/05 Q1013=
202005080550 METAR ESMX 080550Z AUTO 26011KT 230V300 9999 OVC015/// 08/05 Q1013=
202005080520 METAR ESMX 080520Z AUTO 27009KT 9999 OVC015/// 08/05 Q1013=
202005080450 METAR ESMX 080450Z AUTO 26007KT 9999 OVC015/// 07/05 Q1013=
202005080420 METAR ESMX 080420Z AUTO 26006KT 9999 OVC016/// 07/04 Q1013=
202005080350 METAR ESMX 080350Z AUTO 23007KT 200V270 9999 BKN014/// OVC017/// 07/04 Q1013=
202005080320 METAR ESMX 080320Z AUTO 25006KT 210V290 9999 OVC015/// 07/04 Q1013=
202005080250 METAR ESMX 080250Z AUTO 21005KT 9999 OVC014/// 06/05 Q1013=
202005080220 METAR ESMX 080220Z AUTO 24005KT 9999 OVC013/// 06/05 Q1014=
202005080150 METAR ESMX 080150Z AUTO 24005KT 200V270 9999 BKN011/// BKN014/// OVC017/// 06/05 Q1014=
202005080120 METAR ESMX 080120Z AUTO 25005KT 220V280 9999 NCD 05/04 Q1014=
202005080050 METAR ESMX 080050Z AUTO 25004KT 230V290 9999 NCD 04/03 Q1014=
202005080020 METAR ESMX 080020Z AUTO 23004KT 9999 NCD 04/02 Q1014=
202005072350 METAR ESMX 072350Z AUTO 22004KT 9999 NCD 05/02 Q1015=
202005072320 METAR ESMX 072320Z AUTO 22005KT 9999 NCD 04/02 Q1015=
202005072250 METAR ESMX 072250Z AUTO 21004KT 9999 NCD 06/02 Q1015=
202005072220 METAR ESMX 072220Z AUTO 22005KT 9999 NCD 06/01 Q1015=
202005072150 METAR ESMX 072150Z AUTO 26004KT 9999 NCD 08/02 Q1015=
202005072120 METAR ESMX 072120Z AUTO 25006KT 9999 NCD 08/02 Q1015=
202005072050 METAR ESMX 072050Z AUTO 25006KT 9999 NCD 09/01 Q1015=
202005072020 METAR ESMX 072020Z AUTO 25007KT 9999 NCD 10/01 Q1015=
202005071950 METAR ESMX 071950Z AUTO 24006KT 9999 NCD 10/02 Q1015=
202005071920 METAR ESMX 071920Z AUTO 25008KT 9999 NCD 12/02 Q1015=
202005071850 METAR ESMX 071850Z AUTO 25006KT 9999 NCD 12/03 Q1015=
202005071820 METAR ESMX 071820Z AUTO 23008KT 210V270 9999 NCD 14/03 Q1015=
202005071750 METAR ESMX 071750Z AUTO 24007KT 200V270 9999 FEW055/// 15/03 Q1015=
202005071720 METAR ESMX 071720Z AUTO 26008KT 230V300 9999 BKN062/// 15/04 Q1015=
202005071650 METAR ESMX 071650Z AUTO 27011KT 9999 BKN061/// BKN190/// 16/04 Q1015=
202005071620 METAR ESMX 071620Z AUTO 25008KT 210V290 9999 SCT190/// 17/03 Q1015=
202005071550 METAR ESMX 071550Z AUTO 23007KT 9999 BKN061/// 16/03 Q1015=
202005071520 METAR ESMX 071520Z AUTO 25007KT 200V290 9999 SCT064/// 17/02 Q1015=
202005071450 METAR ESMX 071450Z AUTO 25007KT 210V300 9999 BKN061/// 17/02 Q1016=
202005071420 METAR ESMX 071420Z AUTO 30007KT 260V010 9999 FEW064/// 16/01 Q1016=
202005071350 METAR ESMX 071350Z AUTO 32008KT 270V350 9999 FEW180/// 16/01 Q1016=
202005071320 METAR ESMX 071320Z 01006KT 330V050 CAVOK 15/01 Q1016=
202005071250 METAR ESMX 071250Z 04004KT 330V080 CAVOK 15/02 Q1016=
202005071220 METAR ESMX 071220Z 35006KT CAVOK 14/02 Q1017=
202005071150 METAR ESMX 071150Z 07005KT 360V140 CAVOK 15/03 Q1017=
202005071120 METAR ESMX 071120Z VRB03KT CAVOK 15/02 Q1017=
202005071050 METAR ESMX 071050Z VRB02KT CAVOK 14/02 Q1017=
202005071020 METAR ESMX 071020Z VRB01KT CAVOK 14/03 Q1017=
202005070950 METAR ESMX 070950Z VRB03KT 9999 SCT044 14/03 Q1017=
202005070920 METAR ESMX 070920Z VRB03KT 9999 FEW040 13/03 Q1017=
202005070850 METAR ESMX 070850Z VRB03KT 9999 FEW040 13/03 Q1017=
202005070820 METAR ESMX 070820Z 03004KT 300V100 9999 FEW036 12/03 Q1017=
202005070750 METAR ESMX 070750Z 04005KT 010V090 CAVOK 11/03 Q1017=
202005070720 METAR ESMX 070720Z 14004KT 060V190 CAVOK 11/04 Q1017=
202005070650 METAR ESMX 070650Z VRB02KT CAVOK 10/04 Q1017=
202005070620 METAR ESMX 070620Z AUTO VRB01KT 9999 NCD 09/04 Q1017=
202005070550 METAR ESMX 070550Z AUTO 20002KT 9999 NCD 08/06 Q1017=
202005070520 METAR ESMX 070520Z AUTO 21001KT 9999 NCD 06/06 Q1017=
202005070450 METAR ESMX 070450Z AUTO 00000KT 9999 NCD 05/05 Q1016=
202005070420 METAR ESMX 070420Z AUTO 20003KT 2200 R01/1300U R19/P2000N NCD 02/02 Q1016=
202005070350 METAR ESMX 070350Z AUTO 20001KT 9999 NCD 00/00 Q1016=
202005070320 METAR ESMX 070320Z AUTO 20002KT 6000 BCFG NCD 00/00 Q1016=
202005070250 METAR ESMX 070250Z AUTO 20002KT 4100 BR NCD 02/02 Q1016=
202005070220 METAR ESMX 070220Z AUTO 01001KT 9999 FEW006/// 01/01 Q1016=
202005070150 METAR ESMX 070150Z AUTO 25003KT 9999 NCD 04/04 Q1015=
202005070120 METAR ESMX 070120Z AUTO 22004KT 9999 NCD 03/03 Q1015=
202005070050 METAR ESMX 070050Z AUTO 26006KT 9999 NCD 03/02 Q1015=
202005070020 METAR ESMX 070020Z AUTO 26005KT 9999 NCD 04/03 Q1015=
202005062350 METAR ESMX 062350Z AUTO 26004KT 240V300 9999 NCD 05/03 Q1015=
202005062320 METAR ESMX 062320Z AUTO 26003KT 9999 NCD 06/02 Q1015=
202005062250 METAR ESMX 062250Z AUTO 22004KT 200V260 9999 NCD 06/02 Q1015=
202005062220 METAR ESMX 062220Z AUTO 23005KT 210V280 9999 NCD 07/02 Q1015=
202005062150 METAR ESMX 062150Z AUTO 28007KT 9999 NCD 08/02 Q1015=
202005062120 METAR ESMX 062120Z AUTO 28008KT 9999 NCD 08/02 Q1015=
202005062050 METAR ESMX 062050Z AUTO 28007KT 9999 NCD 08/02 Q1015=
202005062020 METAR ESMX 062020Z AUTO 28008KT 9999 NCD 09/02 Q1014=
202005061950 METAR ESMX 061950Z AUTO 28007KT 9999 NCD 09/02 Q1014=
202005061920 METAR ESMX 061920Z AUTO 28007KT 9999 NCD 10/02 Q1014=
202005061850 METAR ESMX 061850Z AUTO 28009KT 9999 NCD 11/02 Q1014=
202005061820 METAR ESMX 061820Z AUTO 28009KT 9999 FEW061/// 11/01 Q1014=
202005061750 METAR ESMX 061750Z AUTO 28012KT 9999 NCD 12/01 Q1013=
202005061720 METAR ESMX 061720Z AUTO 28013KT 9999 NCD 13/01 Q1013=
202005061650 METAR ESMX 061650Z AUTO 28013KT 9999 NCD 14/01 Q1013=
202005061620 METAR ESMX 061620Z AUTO 26013KT 230V300 9999 R01///// R19/P2000N NCD 14/01 Q1013=
202005061550 METAR ESMX 061550Z AUTO 28012KT 240V300 9999 NCD 14/02 Q1013=
202005061520 METAR ESMX 061520Z AUTO 27011KT 220V320 9999 FEW055/// 14/01 Q1013=
202005061450 METAR ESMX 061450Z AUTO 25012KT 9999 FEW053/// 15/02 Q1013=
202005061420 METAR ESMX 061420Z AUTO 27013KT 240V310 9999 FEW160/// 15/02 Q1014=
202005061350 METAR ESMX 061350Z AUTO 26012KT 220V290 9999 SCT140/// 15/02 Q1014=
202005061320 METAR ESMX 061320Z 26011KT 230V290 CAVOK 15/M00 Q1014=
202005061250 METAR ESMX 061250Z 27013KT 230V290 CAVOK 15/M02 Q1014=
202005061220 METAR ESMX 061220Z 26012KT 220V290 CAVOK 16/M01 Q1014=
202005061150 METAR ESMX 061150Z 26010KT 220V300 CAVOK 15/M03 Q1015=
202005061120 METAR ESMX 061120Z 25011KT 210V280 CAVOK 15/M01 Q1015=
202005061050 METAR ESMX 061050Z 24011KT 210V270 CAVOK 15/M02 Q1015=
202005061020 METAR ESMX 061020Z 27012KT 220V320 CAVOK 14/00 Q1016=
202005060950 METAR ESMX 060950Z 24012KT 210V280 CAVOK 14/00 Q1016=
202005060920 METAR ESMX 060920Z 27013KT 230V290 CAVOK 14/00 Q1016=
202005060850 METAR ESMX 060850Z 27012KT 210V310 CAVOK 12/M00 Q1017=
202005060820 METAR ESMX 060820Z 27008KT CAVOK 10/01 Q1017=
202005060750 METAR ESMX 060750Z 27010KT 240V300 CAVOK 10/01 Q1017=
202005060720 METAR ESMX 060720Z 26007KT 230V290 CAVOK 09/01 Q1018=
202005060650 METAR ESMX 060650Z 25007KT CAVOK 07/02 Q1018=
202005060620 METAR ESMX 060620Z AUTO 26006KT 9999 NCD 06/02 Q1018=
202005060550 METAR ESMX 060550Z AUTO 26006KT 9999 FEW180/// 06/01 Q1018=
202005060520 METAR ESMX 060520Z AUTO 22004KT 9999 NCD 05/01 Q1018=
202005060450 METAR ESMX 060450Z AUTO 26003KT 9999 NCD 04/02 Q1018=
202005060420 METAR ESMX 060420Z AUTO VRB03KT 9999 NCD 02/01 Q1018=
202005060350 METAR ESMX 060350Z AUTO VRB02KT 9999 NCD 01/01 Q1018=
202005060320 METAR ESMX 060320Z AUTO 29002KT 9999 NCD M00/M01 Q1019=
202005060250 METAR ESMX 060250Z AUTO 22003KT 9999 NCD 01/01 Q1019=
202005060220 METAR ESMX 060220Z AUTO 21003KT 9999 NCD M01/M02 Q1019=
202005060150 METAR ESMX 060150Z AUTO 22004KT 9999 NCD 01/01 Q1019=
202005060120 METAR ESMX 060120Z AUTO 28003KT 9999 NCD 01/01 Q1019=
202005060050 METAR ESMX 060050Z AUTO 27003KT 9999 NCD M01/M01 Q1019=
202005060020 METAR ESMX 060020Z AUTO 26001KT 9999 NCD 01/01 Q1019=
202005052350 METAR ESMX 052350Z AUTO 27002KT 9999 NCD 01/01 Q1019=
202005052320 METAR ESMX 052320Z AUTO 28002KT 9999 NCD 00/00 Q1019=
202005052250 METAR ESMX 052250Z AUTO 28002KT 9999 NCD 01/01 Q1019=
202005052220 METAR ESMX 052220Z AUTO 20002KT 9999 NCD 00/00 Q1019=
202005052150 METAR ESMX 052150Z AUTO 00000KT 9999 NCD 01/01 Q1019=
202005052120 METAR ESMX 052120Z AUTO 00000KT 9999 NCD 01/01 Q1019=
202005052050 METAR ESMX 052050Z AUTO 00000KT 9999 NCD 02/02 Q1019=
202005052020 METAR ESMX 052020Z AUTO 00000KT 9999 NCD 03/02 Q1019=
202005051950 METAR ESMX 051950Z AUTO 20002KT 9999 NCD 03/02 Q1019=
202005051920 METAR ESMX 051920Z AUTO 20001KT 9999 NCD 05/02 Q1018=
202005051850 METAR ESMX 051850Z AUTO 30003KT 250V320 9999 NCD 06/03 Q1018=
202005051820 METAR ESMX 051820Z AUTO 23004KT 9999 NCD 07/03 Q1018=
202005051750 METAR ESMX 051750Z AUTO 36004KT 9999 NCD 09/03 Q1018=
202005051720 METAR ESMX 051720Z AUTO 03006KT 9999 SCT044/// 09/02 Q1018=
202005051650 METAR ESMX 051650Z AUTO 03007KT 9999 OVC043/// 10/02 Q1018=
202005051620 METAR ESMX 051620Z AUTO 03008KT 350V070 9999 OVC039/// 10/02 Q1018=
202005051550 METAR ESMX 051550Z AUTO 02007KT 350V060 9999 OVC033/// 09/03 Q1018=
202005051520 METAR ESMX 051520Z AUTO 01008KT 9999 OVC034/// 09/04 Q1018=
202005051450 METAR ESMX 051450Z AUTO 04009KT 9999 OVC031/// 09/03 Q1018=
202005051420 METAR ESMX 051420Z AUTO 02009KT 9999 OVC028/// 08/03 Q1018=
202005051350 METAR ESMX 051350Z AUTO 02013KT 9999 OVC029/// 09/04 Q1018=
202005051320 METAR ESMX 051320Z 03009KT 360V070 9999 BKN030 09/03 Q1017=
202005051250 METAR ESMX 051250Z 01008KT 290V040 9999 BKN028 09/04 Q1017=
202005051220 METAR ESMX 051220Z 03009KT 350V060 9999 BKN024 08/03 Q1017=
202005051150 METAR ESMX 051150Z 03007KT 350V060 9999 BKN023 08/04 Q1017=
202005051120 METAR ESMX 051120Z 36009KT 330V050 9999 BKN019 07/04 Q1017=
202005051050 METAR ESMX 051050Z 36012KT 9999 BKN017 06/03 Q1017=
202005051020 METAR ESMX 051020Z 35011KT 9999 BKN016 06/03 Q1017=
202005050950 METAR ESMX 050950Z 01012KT 9999 BKN015 06/03 Q1017=
202005050920 METAR ESMX 050920Z 01011KT 9999 BKN013 05/03 Q1017=
202005050850 METAR ESMX 050850Z 36011KT 9999 BKN012 05/03 Q1017=
202005050820 METAR ESMX 050820Z 02011KT 9999 BKN011 05/03 Q1017=
202005050750 METAR ESMX 050750Z 35011KT 9999 BKN012 05/03 Q1016=
202005050720 METAR ESMX 050720Z 02012KT 9999 BKN013 05/03 Q1016=
202005050650 METAR ESMX 050650Z 02012KT 9999 BKN012 05/04 Q1016=
202005050620 METAR ESMX 050620Z AUTO 01013KT 9999 BKN012/// BKN062/// OVC078/// 05/04 Q1016=
202005050550 METAR ESMX 050550Z AUTO 36010KT 9999 SCT010/// BKN032/// BKN076/// 05/04 Q1015=
202005050520 METAR ESMX 050520Z AUTO 35010KT 320V020 9999 -RA SCT009/// BKN013/// OVC018/// 04/04 Q1015=
202005050450 METAR ESMX 050450Z AUTO 36008KT 9999 -RA OVC011/// 04/04 Q1015=
202005050420 METAR ESMX 050420Z AUTO 36010KT 9999 -RA OVC010/// 04/03 Q1015=
202005050350 METAR ESMX 050350Z AUTO 34009KT 290V010 9999 RA OVC009/// 04/04 Q1015 REDZ=
202005050320 METAR ESMX 050320Z AUTO 33009KT 280V350 9999 -DZ FEW009/// OVC012/// 04/03 Q1015 RESHUP REDZ=
202005050250 METAR ESMX 050250Z AUTO 32009KT 9999 OVC011/// 04/03 Q1015=
202005050220 METAR ESMX 050220Z AUTO 32010KT 280V350 9999 OVC011/// 04/03 Q1015=
202005050150 METAR ESMX 050150Z AUTO 32007KT 260V350 9999 DZ OVC011/// 04/03 Q1015=
202005050120 METAR ESMX 050120Z AUTO 27004KT 220V010 9999 -RA OVC013/// 04/03 Q1015 RESHUP=
202005050050 METAR ESMX 050050Z AUTO 33008KT 9999 FEW009/// BKN013/// OVC016/// 04/03 Q1015=
202005050020 METAR ESMX 050020Z AUTO 33009KT 280V010 9999 -RA BKN012/// OVC026/// 04/04 Q1015=
202005042350 METAR ESMX 042350Z AUTO 35011KT 9999 -RA FEW002/// SCT014/// BKN024/// 05/03 Q1015 REDZ REUP=
202005042320 METAR ESMX 042320Z AUTO 34010KT 250V010 9999 FEW078/// 05/03 Q1014=
202005042250 METAR ESMX 042250Z AUTO 36012KT 330V030 9999 FEW048/// 05/03 Q1014=
202005042220 METAR ESMX 042220Z AUTO 34011KT 9999 FEW020/// SCT027/// BKN047/// 05/02 Q1014=
202005042150 METAR ESMX 042150Z AUTO 34011KT 9999 SCT030/// BKN041/// 05/02 Q1014=
202005042120 METAR ESMX 042120Z AUTO 34007KT 9999 BKN027/// BKN037/// 05/02 Q1014=
202005042050 METAR ESMX 042050Z AUTO 33007KT 9999 OVC029/// 05/02 Q1014=
202005042020 METAR ESMX 042020Z AUTO 33007KT 9999 SCT110/// 05/02 Q1014=
202005041950 METAR ESMX 041950Z AUTO 33009KT 9999 FEW020/// OVC110/// 06/02 Q1014=
202005041920 METAR ESMX 041920Z AUTO 31010KT 270V340 9999 FEW020/// OVC110/// 06/02 Q1014=
202005041850 METAR ESMX 041850Z AUTO 33009KT 9999 FEW021/// OVC033/// 06/02 Q1014=
202005041820 METAR ESMX 041820Z AUTO 31011KT 9999 BKN027/// OVC032/// 07/02 Q1014=
202005041750 METAR ESMX 041750Z AUTO 31009KT 9999 FEW032/// OVC100/// 08/01 Q1014=
202005041720 METAR ESMX 041720Z AUTO 29007KT 230V330 9999 BKN098/// 09/01 Q1013=
202005041650 METAR ESMX 041650Z AUTO 34008KT 300V010 9999 BKN110/// 08/02 Q1013=
202005041620 METAR ESMX 041620Z AUTO 35012KT 9999 FEW066/// SCT096/// 08/03 Q1013=
202005041550 METAR ESMX 041550Z AUTO 33016KT 9999 SCT026/// BKN049/// OVC061/// 08/05 Q1013=
202005041520 METAR ESMX 041520Z AUTO 33016KT 9999 BKN053/// OVC098/// 10/03 Q1013=
202005041450 METAR ESMX 041450Z AUTO 36007KT 330V030 9999 OVC098/// 11/02 Q1012=
202005041420 METAR ESMX 041420Z AUTO 23005KT 190V320 9999 FEW053/// BKN078/// BKN094/// 11/01 Q1012=
202005041350 METAR ESMX 041350Z AUTO 21009KT 9999 SCT055/// OVC068/// 10/01 Q1013=
202005041320 METAR ESMX 041320Z 26010KT 9999 SCT040CB 11/02 Q1012=
202005041250 METAR ESMX 041250Z 31009KT 9999 SCT040CB 11/01 Q1012=
202005041220 METAR ESMX 041220Z 31012KT 280V340 9999 BKN052CB 13/02 Q1012=
202005041150 METAR ESMX 041150Z 19004KT 9999 BKN052CB 13/00 Q1012=
202005041120 METAR ESMX 041120Z 22005KT 200V280 CAVOK 12/M00 Q1012=
202005041050 METAR ESMX 041050Z 22008KT 180V260 CAVOK 14/00 Q1012=
202005041020 METAR ESMX 041020Z 23009KT 200V270 CAVOK 14/M01 Q1012=
202005040950 METAR ESMX 040950Z 22008KT CAVOK 12/M01 Q1012=
202005040920 METAR ESMX 040920Z 25009KT CAVOK 13/00 Q1012=
202005040850 METAR ESMX 040850Z 23010KT 200V260 9999 SCT034 12/03 Q1012=
202005040820 METAR ESMX 040820Z 21006KT 180V250 9999 SCT031 10/03 Q1012=
202005040750 METAR ESMX 040750Z 21005KT 170V240 9999 SCT020 09/05 Q1013=
202005040720 METAR ESMX 040720Z 23005KT 150V260 9999 SCT013 09/05 Q1013=
202005040650 METAR ESMX 040650Z 23005KT 200V280 9999 BKN010 07/05 Q1013=
202005040620 METAR ESMX 040620Z 25005KT 210V300 9999 BKN010 07/05 Q1013=
202005040550 METAR ESMX 040550Z AUTO 23004KT 9999 OVC010/// 06/05 Q1013=
202005040520 METAR ESMX 040520Z AUTO 20003KT 9999 OVC010/// 06/05 Q1013=
202005040450 METAR ESMX 040450Z AUTO 22004KT 9999 OVC008/// 05/04 Q1012=
202005040420 METAR ESMX 040420Z AUTO 24004KT 9999 OVC008/// 04/04 Q1012=
202005040350 METAR ESMX 040350Z AUTO 20003KT 9999 OVC009/// 04/04 Q1012=
202005040320 METAR ESMX 040320Z AUTO 19004KT 9999 OVC010/// 04/04 Q1012=
202005040250 METAR ESMX 040250Z AUTO 20005KT 8000 BKN013/// 03/03 Q1012=
202005040220 METAR ESMX 040220Z AUTO 21006KT 9999 NCD 02/02 Q1012=
202005040150 METAR ESMX 040150Z AUTO 22006KT 9999 FEW014/// 02/02 Q1012=
202005040120 METAR ESMX 040120Z AUTO 21005KT 9999 SCT015/// 03/02 Q1012=
202005040050 METAR ESMX 040050Z AUTO 22004KT 9999 NCD 03/03 Q1012=
202005040020 METAR ESMX 040020Z AUTO 21004KT 9999 NCD 03/03 Q1012=
202005032350 METAR ESMX 032350Z AUTO 19004KT 9999 NCD 04/02 Q1012=
202005032320 METAR ESMX 032320Z AUTO 20004KT 9999 NCD 04/03 Q1012=
202005032250 METAR ESMX 032250Z AUTO 21004KT 9999 NCD 04/02 Q1012=
202005032220 METAR ESMX 032220Z AUTO 21004KT 9999 NCD 05/03 Q1012=
202005032150 METAR ESMX 032150Z AUTO 19003KT 9999 NCD 05/03 Q1012=
202005032120 METAR ESMX 032120Z AUTO 23005KT 9999 NCD 05/02 Q1012=
202005032050 METAR ESMX 032050Z AUTO 22005KT 9999 NCD 05/02 Q1012=
202005032020 METAR ESMX 032020Z AUTO 24005KT 9999 NCD 06/02 Q1012=
202005031950 METAR ESMX 031950Z AUTO 25008KT 9999 NCD 08/03 Q1012=
202005031920 METAR ESMX 031920Z AUTO 24006KT 9999 NCD 07/03 Q1011=
202005031850 METAR ESMX 031850Z AUTO 22005KT 9999 NCD 09/03 Q1011=
202005031820 METAR ESMX 031820Z AUTO 25008KT 9999 NCD 10/03 Q1011=
202005031750 METAR ESMX 031750Z AUTO 23008KT 9999 NCD 11/03 Q1011=
202005031720 METAR ESMX 031720Z AUTO 27009KT 9999 NCD 12/03 Q1011=
202005031650 METAR ESMX 031650Z AUTO 25010KT 9999 NCD 12/03 Q1011=
202005031620 METAR ESMX 031620Z AUTO 25009KT 220V290 9999 SCT042/// 12/03 Q1011=
202005031550 METAR ESMX 031550Z AUTO 25012KT 9999 BKN041/// 13/03 Q1010=
202005031520 METAR ESMX 031520Z AUTO 24011KT 210V280 9999 SCT041/// 13/04 Q1010=
202005031450 METAR ESMX 031450Z AUTO 25013KT 9999 SCT042/// 13/03 Q1010=
202005031420 METAR ESMX 031420Z AUTO 26013KT 9999 FEW044/// 13/03 Q1010=
202005031350 METAR ESMX 031350Z AUTO 26013KT 210V280 9999 FEW048/// 14/04 Q1010=
202005031320 METAR ESMX 031320Z AUTO 27012KT 240V300 9999 FEW048/// 13/02 Q1009=
202005031250 METAR ESMX 031250Z AUTO 24011KT 210V280 9999 SCT045/// BKN068/// 14/04 Q1009=
202005031220 METAR ESMX 031220Z AUTO 24012KT 200V260 9999 FEW043/// BKN068/// 15/05 Q1009=
202005031150 METAR ESMX 031150Z AUTO 27010KT 240V300 9999 BKN036/// BKN047/// 13/05 Q1009=
202005031120 METAR ESMX 031120Z AUTO 22010KT 9999 FEW031/// 14/06 Q1009=
202005031050 METAR ESMX 031050Z AUTO 26007KT 210V300 9999 BKN023/// 13/07 Q1009=
202005031020 METAR ESMX 031020Z AUTO 27008KT 240V300 9999 BKN018/// 11/07 Q1009=
202005030950 METAR ESMX 030950Z AUTO 25009KT 210V290 9999 BKN015/// 10/06 Q1009=
202005030920 METAR ESMX 030920Z AUTO 23009KT 9999 SCT012/// 10/07 Q1009=
202005030850 METAR ESMX 030850Z AUTO 25010KT 230V290 9999 SCT015/// 10/07 Q1009=
202005030820 METAR ESMX 030820Z AUTO 23008KT 9999 NCD 11/07 Q1009=
202005030750 METAR ESMX 030750Z AUTO 24007KT 9999 NCD 10/07 Q1009=
202005030720 METAR ESMX 030720Z AUTO 26007KT 9999 NCD 10/07 Q1009=
202005030650 METAR ESMX 030650Z AUTO 26007KT 9999 FEW006/// 09/07 Q1008=
202005030620 METAR ESMX 030620Z AUTO 25008KT 9999 BKN005/// 08/06 Q1008=
202005030550 METAR ESMX 030550Z AUTO 21004KT 9999 NCD 07/06 Q1007=
202005030520 METAR ESMX 030520Z AUTO 22004KT 9999 NCD 07/07 Q1007=
202005030450 METAR ESMX 030450Z AUTO 24006KT 9999 NCD 05/05 Q1007=
202005030420 METAR ESMX 030420Z AUTO 28004KT 9999 FEW059/// BKN086/// 06/06 Q1007=
202005030350 METAR ESMX 030350Z AUTO 27005KT 9999 OVC059/// 06/06 Q1006=
202005030320 METAR ESMX 030320Z AUTO 26005KT 9999 FEW040/// BKN049/// OVC059/// 06/06 Q1006=
202005030250 METAR ESMX 030250Z AUTO 22004KT 9999 FEW030/// OVC045/// 06/06 Q1006=
202005030220 METAR ESMX 030220Z AUTO 26003KT 9999 FEW018/// OVC023/// 06/06 Q1006=
202005030150 METAR ESMX 030150Z AUTO 21003KT 9999 BKN018/// BKN033/// OVC044/// 06/06 Q1005=
202005030120 METAR ESMX 030120Z AUTO 31002KT 9999 BKN021/// OVC029/// 06/06 Q1005=
202005030050 METAR ESMX 030050Z AUTO 31002KT 9999 -DZ OVC029/// 06/06 Q1005=
202005030020 METAR ESMX 030020Z AUTO 30003KT 9999 -DZ BKN032/// OVC042/// 07/07 Q1005=
202005022350 METAR ESMX 022350Z AUTO 20002KT 9999 -DZ FEW025/// BKN036/// OVC048/// 07/07 Q1005=
202005022320 METAR ESMX 022320Z AUTO 22004KT 9000 -DZ OVC023/// 07/07 Q1005 REUP=
202005022250 METAR ESMX 022250Z AUTO 21003KT 9999 FEW002/// BKN026/// OVC033/// 07/07 Q1004=
202005022220 METAR ESMX 022220Z AUTO 21003KT 9999 OVC035/// 06/06 Q1004=
202005022150 METAR ESMX 022150Z AUTO 22004KT 8000 BR FEW018/// OVC033/// 06/06 Q1004=
202005022120 METAR ESMX 022120Z AUTO 00000KT 6000 OVC033/// 06/06 Q1004=
202005022050 METAR ESMX 022050Z AUTO 00000KT 5000 BR OVC038/// 06/06 Q1004=
202005022020 METAR ESMX 022020Z AUTO 00000KT 9999 OVC044/// 07/07 Q1004=
202005021950 METAR ESMX 021950Z AUTO 00000KT 2300 BR BKN037/// OVC046/// 07/07 Q1003=
202005021920 METAR ESMX 021920Z AUTO 00000KT 9000 OVC043/// 06/06 Q1003=
202005021850 METAR ESMX 021850Z AUTO 00000KT 1500 SCT007/// BKN045/// 07/07 Q1003=
202005021820 METAR ESMX 021820Z AUTO 02002KT 9999 FEW006/// 07/07 Q1003=
202005021750 METAR ESMX 021750Z AUTO 28003KT 9999 FEW005/// SCT150/// 08/08 Q1002=
202005021720 METAR ESMX 021720Z AUTO 00000KT 9999 SCT040/// BKN051/// 08/07 Q1002=
202005021650 METAR ESMX 021650Z AUTO VRB01KT 9999 FEW160/// 08/08 Q1002=
202005021620 METAR ESMX 021620Z AUTO 02004KT 9999 FEW040/// SCT049/// OVC070/// 08/08 Q1002=
202005021550 METAR ESMX 021550Z AUTO VRB03KT 9999 -RA FEW003/// SCT007/// OVC037/// 08/08 Q1002=
202005021520 METAR ESMX 021520Z AUTO 20001KT 6000 RA FEW002/// SCT007/// OVC035/// 08/08 Q1002 RESHUP RERA=
202005021450 METAR ESMX 021450Z AUTO 03004KT 350V060 9999 OVC034/// 08/08 Q1001=
202005021420 METAR ESMX 021420Z AUTO 03004KT 9999 -DZ FEW001/// SCT015/// OVC033/// 08/07 Q1001=
202005021350 METAR ESMX 021350Z AUTO 19003KT 070V230 0650 R01/P2000N R19/1400D RA FEW001/// BKN016/// OVC030/// 07/07 Q1002 RERA=
202005021320 METAR ESMX 021320Z AUTO 15006KT 100V180 9999 FEW012/// OVC028/// 09/07 Q1001=
202005021250 METAR ESMX 021250Z AUTO 16004KT 100V190 9999 -RA BKN043/// OVC068/// 09/08 Q1001 REUP=
202005021220 METAR ESMX 021220Z AUTO 15004KT 100V190 9999 FEW029/// BKN040/// BKN066/// 09/08 Q1001 RESHUP RERA=
202005021150 METAR ESMX 021150Z AUTO 13007KT 080V200 9999 FEW001/// SCT020/// BKN028/// 09/07 Q1001 RERA=
202005021120 METAR ESMX 021120Z AUTO 02006KT 350V070 9999 BKN021/// BKN031/// 10/09 Q1000=
202005021050 METAR ESMX 021050Z AUTO 02005KT 9999 FEW010/// BKN022/// OVC059/// 10/08 Q1000=
202005021020 METAR ESMX 021020Z AUTO 03004KT 9999 SCT009/// BKN023/// OVC047/// 10/09 Q1001=
202005020950 METAR ESMX 020950Z AUTO VRB03KT 9999 BKN011/// BKN180/// 10/09 Q1001=
202005020920 METAR ESMX 020920Z AUTO 17003KT 120V210 9999 BKN038/// OVC049/// 09/09 Q1001=
202005020850 METAR ESMX 020850Z AUTO VRB03KT 9999 -DZ FEW004/// SCT028/// BKN044/// 08/08 Q1001=
202005020820 METAR ESMX 020820Z AUTO 17003KT 9999 -DZ BKN005/// OVC031/// 08/08 Q1001=
202005020750 METAR ESMX 020750Z AUTO VRB03KT 9999 BKN004/// OVC030/// 08/08 Q1001=
202005020720 METAR ESMX 020720Z AUTO 17003KT 070V190 7000 BR BKN003/// OVC044/// 07/07 Q1000 REDZ=
202005020650 METAR ESMX 020650Z AUTO VRB03KT 8000 BR SCT002/// OVC043/// 06/06 Q1000=
202005020620 METAR ESMX 020620Z AUTO 04003KT 010V090 6000 -DZ FEW002/// OVC041/// 06/06 Q1000 REDZ REUP=
202005020550 METAR ESMX 020550Z AUTO VRB03KT 8000 DZ SCT002/// BKN031/// OVC066/// 05/05 Q1000=
202005020520 METAR ESMX 020520Z AUTO VRB03KT 8000 BR SCT002/// BKN005/// OVC029/// 05/05 Q1000=
202005020450 METAR ESMX 020450Z AUTO VRB03KT 5000 BR SCT002/// OVC005/// 05/05 Q1000=
202005020420 METAR ESMX 020420Z AUTO VRB03KT 2400 BR OVC001/// 04/04 Q1000=
202005020350 METAR ESMX 020350Z AUTO 00000KT 7000 BKN001/// OVC064/// 04/04 Q1000=
202005020320 METAR ESMX 020320Z AUTO 00000KT 1100 R01/P2000N R19/P2000N OVC001/// 04/04 Q1000=
202005020250 METAR ESMX 020250Z AUTO 18002KT 0450 R01/1200N R19/1300N FG BKN001/// OVC002/// 04/04 Q1000=
202005020220 METAR ESMX 020220Z AUTO 18003KT 0200 R01/0650N R19/1100N FG VV001 04/04 Q1000=
202005020150 METAR ESMX 020150Z AUTO 18004KT 0100 R01/0400N R19/0450N FG VV001 04/04 Q1000=
202005020120 METAR ESMX 020120Z AUTO 16003KT 0250 R01/0450N R19/P2000N FG BKN002/// 03/03 Q1000=
202005020050 METAR ESMX 020050Z AUTO 00000KT 0150 R01/0450U R19/0750N FG NCD 03/03 Q1000=
202005020020 METAR ESMX 020020Z AUTO 00000KT 0200 R01/0500N R19/0600N BCFG NCD 03/03 Q1000=
202005012350 METAR ESMX 012350Z AUTO 19002KT 0200 R01/1300U R19/0650N FG NCD 04/04 Q1000=
202005012320 METAR ESMX 012320Z AUTO 19002KT 2000 FEW059/// 05/05 Q1000=
202005012250 METAR ESMX 012250Z AUTO 16004KT 9999 BKN059/// 07/07 Q1000=
202005012220 METAR ESMX 012220Z AUTO 16005KT 9999 BKN039/// OVC051/// 07/07 Q1000=
202005012150 METAR ESMX 012150Z AUTO 17004KT 9999 BKN033/// OVC062/// 07/07 Q1000=
202005012120 METAR ESMX 012120Z AUTO 16004KT 9999 FEW016/// BKN048/// OVC059/// 07/07 Q1000=
202005012050 METAR ESMX 012050Z AUTO 19004KT 9999 BKN020/// OVC038/// 07/07 Q1000=
202005012020 METAR ESMX 012020Z AUTO 18005KT 9999 SCT022/// OVC055/// 07/07 Q1000=
202005011950 METAR ESMX 011950Z AUTO 19005KT 9999 OVC055/// 07/07 Q1000=
202005011920 METAR ESMX 011920Z AUTO 19005KT 9999 SCT055/// 07/07 Q0999=
202005011850 METAR ESMX 011850Z AUTO 19005KT 9999 FEW051/// 07/07 Q0999=
202005011820 METAR ESMX 011820Z AUTO 20003KT 9999 SCT053/// 07/07 Q0999=
202005011750 METAR ESMX 011750Z AUTO 23004KT 9999 BKN009/// BKN053/// 08/07 Q0999=
202005011720 METAR ESMX 011720Z AUTO 25006KT 9999 BKN008/// OVC036/// 08/08 Q0998=
202005011650 METAR ESMX 011650Z AUTO 23007KT 9999 SCT007/// BKN022/// OVC029/// 09/08 Q0998=
202005011620 METAR ESMX 011620Z AUTO 21007KT 9999 SCT008/// BKN011/// OVC036/// 09/09 Q0998=
202005011550 METAR ESMX 011550Z AUTO 22007KT 9999 SCT006/// BKN008/// BKN017/// 09/09 Q0998=
202005011520 METAR ESMX 011520Z AUTO 22008KT 7000 -RA BKN005/// OVC019/// 09/09 Q0998=
202005011450 METAR ESMX 011450Z AUTO 20007KT 4400 DZ VV017 09/09 Q0997 RERA=
202005011420 METAR ESMX 011420Z AUTO 20009KT 8000 BR FEW002/// SCT007/// BKN009/// 09/09 Q0997=
202005011350 METAR ESMX 011350Z AUTO 19010KT 9999 -RA SCT008/// BKN013/// BKN020/// 10/10 Q0997 RERA=
202005011320 METAR ESMX 011320Z AUTO 19009KT 9999 FEW002/// BKN007/// BKN014/// 10/10 Q0997=
202005011250 METAR ESMX 011250Z AUTO 18009KT 9999 DZ BKN010/// BKN029/// OVC036/// 11/09 Q0997 REDZ=
202005011220 METAR ESMX 011220Z AUTO 17009KT 9999 FEW002/// OVC014/// 10/09 Q0996 REDZ=
