##########################################################
# Query made at 04/19/2024 22:23:28 UTC
# Time interval: from 12/01/2021 12:00  to 12/31/2021 12:59  UTC
##########################################################

##########################################################
# ESMX, Vaxjo (Sweden)
# WMO index: 02641. WIGOS ID: 0-20000-0-02648
# Latitude 56-51N. Longitude 014-50E. Altitude 199 m.
##########################################################

202112311250 METAR ESMX 311250Z 23006KT 7000 BR -DZ BKN004 08/08 Q1002=
202112311220 METAR ESMX 311220Z AUTO 24008KT 3400 +DZ VV007 08/08 Q1002 RERA=
202112311150 METAR ESMX 311150Z AUTO 23008KT 6000 OVC002/// 08/08 Q1002 RERA=
202112311120 METAR ESMX 311120Z AUTO 23008KT 2700 OVC001/// 07/07 Q1002 REDZ REUP=
202112311050 METAR ESMX 311050Z AUTO 22007KT 0550 R01/0900N R19/1000U FG OVC001/// 07/07 Q1002=
202112311020 METAR ESMX 311020Z AUTO 22008KT 0550 R01/0900N R19/1000N FG OVC001/// 07/07 Q1002=
202112310950 METAR ESMX 310950Z AUTO 23006KT 0750 R01/1200N R19/1500D FG OVC001/// 07/07 Q1003=
202112310920 METAR ESMX 310920Z AUTO 23007KT 0900 R01/1400N R19/1800N FG OVC001/// 07/07 Q1003=
202112310850 METAR ESMX 310850Z AUTO 22007KT 1300 R01/1900N R19/P2000N BR OVC001/// 07/07 Q1002=
202112310820 METAR ESMX 310820Z AUTO 23006KT 1200 R01/P2000N R19/P2000N BR OVC001/// 07/07 Q1002=
202112310750 METAR ESMX 310750Z AUTO 24008KT 1100 R01/P2000N R19/P2000N BR OVC001/// 07/07 Q1002=
202112310720 METAR ESMX 310720Z AUTO 24009KT 1900 BR OVC001/// 07/07 Q1002=
202112310650 METAR ESMX 310650Z AUTO 24009KT 3300 BR OVC002/// 07/07 Q1002=
202112310620 METAR ESMX 310620Z AUTO 23010KT 3100 BR OVC001/// 07/07 Q1002=
202112310550 METAR ESMX 310550Z AUTO 23010KT 200V270 2700 BR OVC001/// 07/07 Q1002=
202112310520 METAR ESMX 310520Z AUTO 23012KT 3700 BR OVC002/// 07/07 Q1002=
202112310450 METAR ESMX 310450Z AUTO 24010KT 3900 BR OVC001/// 07/07 Q1003=
202112310420 METAR ESMX 310420Z AUTO 24010KT 3500 BR OVC002/// 07/07 Q1002=
202112310350 METAR ESMX 310350Z AUTO 24010KT 4300 BR OVC002/// 07/07 Q1003=
202112310320 METAR ESMX 310320Z AUTO 23010KT 6000 BR OVC002/// 07/07 Q1003=
202112310250 METAR ESMX 310250Z AUTO 24010KT 7000 BR OVC002/// 07/07 Q1003=
202112310220 METAR ESMX 310220Z AUTO 25011KT 5000 BR OVC002/// 07/07 Q1003=
202112310150 METAR ESMX 310150Z AUTO 24011KT 200V270 9999 OVC003/// 07/07 Q1003=
202112310120 METAR ESMX 310120Z AUTO 24011G22KT 8000 BR OVC003/// 07/07 Q1003=
202112310050 METAR ESMX 310050Z AUTO 25011KT 5000 BR OVC002/// 07/07 Q1002=
202112310020 METAR ESMX 310020Z AUTO 25012KT 220V290 7000 BR OVC003/// 07/07 Q1002=
202112302350 METAR ESMX 302350Z AUTO 26013KT 9000 BR OVC003/// 08/08 Q1002=
202112302320 METAR ESMX 302320Z AUTO 25011KT 7000 BR OVC004/// 08/08 Q1002=
202112302250 METAR ESMX 302250Z AUTO 23009KT 5000 BR OVC002/// 07/07 Q1002=
202112302220 METAR ESMX 302220Z AUTO 24009KT 4600 BR OVC002/// 07/07 Q1002=
202112302150 METAR ESMX 302150Z AUTO 23009KT 3400 OVC001/// 06/06 Q1002=
202112302120 METAR ESMX 302120Z AUTO 23010KT 1700 OVC001/// 06/06 Q1002=
202112302050 METAR ESMX 302050Z AUTO 23008KT 0900 R01/P2000N R19/P2000N FG OVC001/// 05/05 Q1002=
202112302020 METAR ESMX 302020Z AUTO 22009KT 0600 R01/1600N R19/P2000N FG OVC001/// 05/05 Q1001=
202112301950 METAR ESMX 301950Z AUTO 23008KT 0450 R01/1200D R19/1700D FG OVC001/// 05/05 Q1002 RESHUP=
202112301920 METAR ESMX 301920Z AUTO 22010KT 0500 R01/1400N R19/1300U -RA BKN001/// OVC002/// 05/05 Q1001 RESHUP=
202112301850 METAR ESMX 301850Z AUTO 21008KT 0350 R01/1000N R19/1100N FG OVC001/// 04/04 Q1001 REUP=
202112301820 METAR ESMX 301820Z AUTO 19009KT 0500 R01/1300N R19/1600N UP OVC001/// 04/04 Q1002=
202112301750 METAR ESMX 301750Z AUTO 22008KT 0900 R01/P2000N R19/P2000N FG OVC001/// 04/04 Q1002=
202112301720 METAR ESMX 301720Z AUTO 22009KT 0800 R01/1900N R19/P2000N FG OVC001/// 04/04 Q1002=
202112301650 METAR ESMX 301650Z AUTO 22009KT 0550 R01/1400N R19/1700U FG OVC001/// 04/04 Q1002=
202112301620 METAR ESMX 301620Z AUTO 21009KT 0500 R01/1300N R19/1500N FG OVC001/// 04/04 Q1002=
202112301550 METAR ESMX 301550Z AUTO 21010KT 0650 R01/1600D R19/1900N FG OVC001/// 04/04 Q1002=
202112301520 METAR ESMX 301520Z AUTO 21008KT 0500 R01/1300N R19/1300N FG OVC001/// 04/04 Q1002=
202112301450 METAR ESMX 301450Z 21008KT 0300 R19/0700N FG VV002 04/04 Q1001=
202112301420 METAR ESMX 301420Z 21007KT 0350 R19/0750N FG VV002 04/04 Q1001=
202112301350 METAR ESMX 301350Z 20009KT 0400 R19/0800N FG VV002 04/04 Q1001=
202112301320 METAR ESMX 301320Z 18009KT 0500 R19/0800N FG VV002 04/04 Q1001=
202112301250 METAR ESMX 301250Z 21008KT 0500 R19/0900N FG VV002 04/04 Q1001=
202112301220 METAR ESMX 301220Z 21008KT 0500 R19/0800N FG VV002 03/03 Q1001=
202112301150 METAR ESMX 301150Z 21008KT 1000 R19/1300U BR VV002 03/03 Q1002=
202112301120 METAR ESMX 301120Z 20006KT 0800 R19/1000N FG VV002 03/03 Q1002=
202112301050 METAR ESMX 301050Z 19008KT 0800 R19/1100U FG VV002 03/03 Q1002=
202112301020 METAR ESMX 301020Z 19010KT 0400 R19/0700N FG VV002 03/03 Q1002=
202112300950 METAR ESMX 300950Z 19009KT 0900 R01/1100D R19/1300D FG VV002 02/02 Q1002=
202112300920 METAR COR ESMX 300920Z 17008KT 5000 BR OVC002 02/02 Q1002=
202112300850 METAR ESMX 300850Z 18008KT 5000 -DZ BR OVC002 02/02 Q1002=
202112300820 METAR ESMX 300820Z 18009KT 4000 -RA OVC002 02/02 Q1002=
202112300750 METAR ESMX 300750Z 17010KT 2500 DZ OVC002 02/02 Q1002=
202112300720 METAR ESMX 300720Z 17010KT 3500 -DZ OVC002 02/02 Q1002=
202112300650 METAR ESMX 300650Z AUTO 17010KT 3100 DZ OVC002/// 02/02 Q1002=
202112300620 METAR ESMX 300620Z AUTO 17010KT 2900 -RA OVC002/// 02/02 Q1002 REDZ=
202112300550 METAR ESMX 300550Z AUTO 15008KT 3100 -DZ OVC002/// 02/02 Q1002=
202112300520 METAR ESMX 300520Z AUTO 17008KT 1900 DZ OVC001/// 01/01 Q1003=
202112300450 METAR ESMX 300450Z AUTO 16006KT 0500 R01/1300U R19/1400U FG BKN001/// OVC002/// 01/01 Q1003=
202112300420 METAR ESMX 300420Z AUTO 17006KT 0300 R01/0800N R19/0900N -RA FEW001/// OVC002/// 01/01 Q1003 REUP=
202112300350 METAR ESMX 300350Z AUTO 16006KT 0250 R01/0800N R19/0800N FG VV002 01/01 Q1004=
202112300320 METAR ESMX 300320Z AUTO 17006KT 0200 R01/0750N R19/0750N FG VV002 01/01 Q1004=
202112300250 METAR ESMX 300250Z AUTO 17006KT 0250 R01/0800N R19/0800N FG VV002 01/01 Q1004=
202112300220 METAR ESMX 300220Z AUTO 17006KT 0300 R01/0900N R19/1000D FG BKN001/// OVC002/// 01/01 Q1004=
202112300150 METAR ESMX 300150Z AUTO 15005KT 0500 R01/1300N R19/1500D -RA OVC001/// 01/01 Q1004=
202112300120 METAR ESMX 300120Z AUTO 17005KT 1100 R01/P2000N R19/P2000N UP OVC001/// 01/01 Q1004 RERA=
202112300050 METAR ESMX 300050Z AUTO 16004KT 1800 OVC001/// 01/01 Q1005 REDZ=
202112300020 METAR ESMX 300020Z AUTO 16005KT 1600 DZ OVC001/// 00/00 Q1005 REUP REDZ=
202112292350 METAR ESMX 292350Z AUTO 16004KT 0450 R01/1200U R19/1200N FG OVC001/// 00/00 Q1005=
202112292320 METAR ESMX 292320Z AUTO 16003KT 0350 R01/1100N R19/1000N FG OVC001/// 00/00 Q1005=
202112292250 METAR ESMX 292250Z AUTO 16003KT 0450 R01/1200N R19/1600D FG OVC001/// 00/00 Q1005=
202112292220 METAR ESMX 292220Z AUTO 17004KT 1200 R01/P2000N R19/P2000N -DZ OVC001/// 00/00 Q1005 RESHUP=
202112292150 METAR ESMX 292150Z AUTO 16004KT 0800 R01/1900N R19/P2000N FG OVC001/// 00/00 Q1005 REUP=
202112292120 METAR ESMX 292120Z AUTO 16004KT 1000 R01/P2000N R19/P2000N OVC002/// 00/00 Q1005=
202112292050 METAR ESMX 292050Z AUTO 19004KT 6000 OVC002/// 00/00 Q1005=
202112292020 METAR ESMX 292020Z AUTO 16004KT 130V190 3600 FG BKN001/// BKN004/// OVC006/// 00/00 Q1005=
202112291950 METAR ESMX 291950Z AUTO 14003KT 0350 R01/1000D R19/1400D FG OVC001/// 00/00 Q1005=
202112291920 METAR ESMX 291920Z AUTO 17003KT 0500 R01/1300U R19/1500D FG OVC001/// 00/00 Q1005 REDZ=
202112291850 METAR ESMX 291850Z AUTO 00000KT 1000 R01/P2000N R19/P2000N BR SCT001/// OVC003/// 00/00 Q1004 REDZ REUP=
202112291820 METAR ESMX 291820Z AUTO 00000KT 1100 R01/P2000N R19/P2000N SCT001/// OVC003/// 00/00 Q1005=
202112291750 METAR ESMX 291750Z AUTO 14002KT 0600 R01/P2000N R19/1500N OVC001/// 00/00 Q1005=
202112291720 METAR ESMX 291720Z AUTO 14003KT 0500 R01/1300U R19/1300U FG OVC001/// 00/00 Q1005=
202112291650 METAR ESMX 291650Z AUTO 14003KT 0300 R01/0900N R19/1100N FG OVC001/// 00/00 Q1005=
202112291620 METAR ESMX 291620Z AUTO 14003KT 0400 R01/1100N R19/1300N FG OVC001/// 00/00 Q1005=
202112291550 METAR ESMX 291550Z AUTO 20002KT 0300 R01/0900N R19/1000N FG OVC001/// 00/00 Q1005=
202112291520 METAR ESMX 291520Z AUTO 14003KT 0400 R01/1100N R19/1100N FG OVC001/// 00/00 Q1004=
202112291450 METAR ESMX 291450Z 14003KT 0400 R01/1100U R19/1000U FG OVC001 00/00 Q1004=
202112291420 METAR ESMX 291420Z 18003KT 0300 R01/0750N R19/0700N FG VV003 00/00 Q1004=
202112291350 METAR ESMX 291350Z AUTO 17002KT 0250 R01/0600N R19/0550N FG VV002 00/00 Q1003=
202112291320 METAR ESMX 291320Z 14003KT 0250 R01/0550N R19/0550N FG VV003 00/00 Q1003=
202112291250 METAR ESMX 291250Z 14002KT 0350 R01/0650N R19/0650N FG OVC002 00/00 Q1003=
202112291220 METAR ESMX 291220Z 17002KT 0350 R01/0700N R19/0600N FG OVC002 00/00 Q1003=
202112291150 METAR ESMX 291150Z 14002KT 0450 R01/0700N R19/0750N FG OVC002 00/00 Q1003=
202112291120 METAR ESMX 291120Z 18002KT 0550 R01/0800N R19/0800N FG OVC002 00/00 Q1003=
202112291050 METAR ESMX 291050Z 14003KT 0900 R01/1200N R19/1300U FG OVC002 00/00 Q1003=
202112291020 METAR ESMX 291020Z 17003KT 0700 R01/1000N R19/1100N FG OVC002 00/00 Q1003=
202112290950 METAR ESMX 290950Z 13003KT 0650 R01/0900N R19/1000N FZFG OVC002 00/00 Q1003=
202112290920 METAR ESMX 290920Z 13002KT 1100 R01/1400N R19/1900D -FZDZ OVC002 00/00 Q1002=
202112290850 METAR ESMX 290850Z 13003KT 1800 -FZDZ OVC002 00/00 Q1002=
202112290820 METAR ESMX 290820Z VRB02KT 1300 R01/1900N R19/P2000N -FZDZ OVC001 00/00 Q1002=
202112290750 METAR ESMX 290750Z VRB02KT 2100 -FZDZ OVC002 00/00 Q1002=
202112290720 METAR ESMX 290720Z VRB02KT 1800 -FZDZ OVC002 M00/M00 Q1002=
202112290650 METAR ESMX 290650Z AUTO 00000KT 0900 R01/P2000N R19/P2000N -FZDZ OVC001/// M00/M00 Q1001 REFZUP=
202112290620 METAR ESMX 290620Z AUTO 00000KT 1000 R01/P2000N R19/P2000N FZUP OVC001/// M00/M00 Q1001=
202112290550 METAR ESMX 290550Z AUTO VRB01KT 1300 R01/P2000N R19/P2000N -FZDZ BKN001/// OVC003/// M00/M00 Q1001=
202112290520 METAR ESMX 290520Z AUTO VRB02KT 1300 R01/P2000N R19/P2000N -FZDZ OVC001/// M00/M00 Q1001=
202112290450 METAR ESMX 290450Z AUTO 00000KT 1600 -FZDZ OVC002/// M00/M00 Q1001 REFZUP REFZRA=
202112290420 METAR ESMX 290420Z AUTO 00000KT 3100 BR OVC002/// M00/M00 Q1000=
202112290350 METAR ESMX 290350Z AUTO 00000KT 2600 BR OVC002/// M00/M00 Q1000 REFZUP RESHUP=
202112290320 METAR ESMX 290320Z AUTO VRB03KT 1500 BR OVC001/// M00/M00 Q1000=
202112290250 METAR ESMX 290250Z AUTO VRB02KT 1600 -FZDZ OVC001/// M00/M00 Q1000=
202112290220 METAR ESMX 290220Z AUTO 11002KT 1700 FZUP OVC001/// M01/M01 Q1000 RESHUP REFZUP=
202112290150 METAR ESMX 290150Z AUTO 11002KT 0800 R01/1800N R19/1800U FZFG OVC001/// M01/M01 Q1000 RESHUP=
202112290120 METAR ESMX 290120Z AUTO 12002KT 0350 R01/1000N R19/1200N FZFG SCT001/// OVC002/// M01/M01 Q1000 REFZUP RESHUP=
202112290050 METAR ESMX 290050Z AUTO VRB03KT 0300 R01/0900N R19/1100N FZFG VV002 M01/M01 Q1000=
202112290020 METAR ESMX 290020Z AUTO 12003KT 0400 R01/1100N R19/1300N FZFG VV002 M01/M01 Q1000=
202112282350 METAR ESMX 282350Z AUTO 11003KT 070V160 0500 R01/1400N R19/1500N=
202112282320 METAR ESMX 282320Z AUTO 11003KT 060V150 0450 R01/1200N R19/1400N -FZRA OVC001/// M01/M01 Q0999 REFZUP RESHUP=
202112282250 METAR ESMX 282250Z AUTO 12004KT 070V140 0250 R01/0800N R19/1000N=
202112282220 METAR ESMX 282220Z AUTO 12004KT 0250 R01/0800N R19/1000D -FZDZ VV002 M01/M01 Q1000 RESHUP REFZUP=
202112282150 METAR ESMX 282150Z AUTO 13004KT 0300 R01/0900N R19/1000N FZUP VV002 M01/M01 Q0999 RESHUP=
202112282120 METAR ESMX 282120Z AUTO 13004KT 0350 R01/1000N R19/1200N -RASN SCT001/// OVC002/// M01/M01 Q0999=
202112282050 METAR ESMX 282050Z AUTO 14005KT 0400 R01/1000N R19/1300N FZFG OVC001/// M01/M01 Q0999=
202112282020 METAR ESMX 282020Z AUTO 13006KT 020V170 0400 R01/1200D R19/1500N=
202112281950 METAR ESMX 281950Z AUTO 13005KT 090V160 0500 R01/1300N R19/1600N=
202112281920 METAR ESMX 281920Z AUTO 13005KT 080V160 0500 R01/1300N R19/1800U -RASN OVC001/// M01/M01 Q0999 REFZUP RESHUP=
202112281850 METAR ESMX 281850Z AUTO 11005KT 050V150 0350 R01/1100N R19/1300N=
202112281820 METAR ESMX 281820Z AUTO 13006KT 0300 R01/0900N R19/1100N FZUP BKN001/// OVC002/// M01/M01 Q0999=
202112281750 METAR ESMX 281750Z AUTO 13005KT 080V150 0350 R01/1000N R19/1200N=
202112281720 METAR ESMX 281720Z AUTO 14005KT 070V160 0300 R01/0900N R19/1200U=
202112281650 METAR ESMX 281650Z AUTO 13005KT 080V150 0400 R01/1100N R19/1400N=
202112281620 METAR ESMX 281620Z AUTO 13005KT 080V160 0350 R01/1000U R19/1300N=
202112281550 METAR ESMX 281550Z AUTO 14006KT 100V160 0400 R01/1100N R19/1300U=
202112281520 METAR ESMX 281520Z AUTO 14006KT 100V200 0500 R01/1300N R19/1400N=
202112281450 METAR ESMX 281450Z 13006KT 090V170 0500 R01/1200N R19/1500U FZFG OVC001 M02/M02 Q1000=
202112281420 METAR ESMX 281420Z 13006KT 100V160 0550 R01/1100N R19/1400U FZFG OVC002 M02/M02 Q1000=
202112281350 METAR ESMX 281350Z 13005KT 060V180 0900 R01/1400N R19/1600N OVC001 M02/M02 Q1000=
202112281320 METAR ESMX 281320Z 13006KT 090V180 1100 R01/1700N R19/P2000N BR OVC002 M02/M02 Q1000=
202112281250 METAR ESMX 281250Z 13007KT 090V160 2100 BR OVC002 M02/M02 Q1000=
202112281220 METAR ESMX 281220Z 13007KT 080V160 2400 BR OVC002 M02/M02 Q1001=
202112281150 METAR COR ESMX 281150Z 12006KT 080V170 3000 BR OVC002 M02/M02 Q1001=
202112281120 METAR ESMX 281120Z 13006KT 080V160 3800 BR OVC002 M02/M02 Q1001=
202112281050 METAR ESMX 281050Z 13007KT 090V170 5000 BR OVC003 M02/M02 Q1002=
202112281020 METAR ESMX 281020Z 13007KT 090V190 7000 BR OVC003 M02/M02 Q1002=
202112280950 METAR ESMX 280950Z 12008KT 060V170 7000 BR OVC004 M02/M02 Q1002=
202112280920 METAR ESMX 280920Z 13007KT 090V160 9000 BR OVC005 M02/M03 Q1002=
202112280850 METAR ESMX 280850Z 13007KT 080V160 9999 BKN007 M02/M03 Q1003=
202112280820 METAR ESMX 280820Z 13008KT 090V160 9999 OVC008 M02/M03 Q1003=
202112280750 METAR ESMX 280750Z 13006KT 100V170 9999 BKN008 M02/M03 Q1003=
202112280720 METAR ESMX 280720Z 13007KT 090V160 9999 BKN009 M02/M03 Q1003=
202112280650 METAR COR ESMX 280650Z 12007KT 090V170 9999 BKN009 M02/M03 Q1004=
202112280620 METAR ESMX 280620Z AUTO 14007KT 100V160 9999 OVC009/// M02/M03 Q1004=
202112280550 METAR ESMX 280550Z AUTO 15006KT 100V170 9999 OVC009/// M02/M03 Q1004=
202112280520 METAR ESMX 280520Z AUTO 14007KT 090V160 9999 OVC009/// M02/M03 Q1004=
202112280450 METAR ESMX 280450Z AUTO 13007KT 090V180 9999 OVC009/// M02/M03 Q1005=
202112280420 METAR ESMX 280420Z AUTO 13007KT 090V160 9999 OVC009/// M02/M03 Q1005=
202112280350 METAR ESMX 280350Z AUTO 13006KT 090V160 9999 OVC009/// M02/M03 Q1005=
202112280320 METAR ESMX 280320Z AUTO 12007KT 070V160 9999 OVC010/// M02/M04 Q1006=
202112280250 METAR ESMX 280250Z AUTO 14007KT 100V170 9999 OVC011/// M03/M04 Q1006=
202112280220 METAR ESMX 280220Z AUTO 13008KT 100V170 9999 OVC011/// M03/M04 Q1006=
202112280150 METAR ESMX 280150Z AUTO 14008KT 100V170 9999 SCT013/// OVC088/// M03/M05 Q1006=
202112280120 METAR ESMX 280120Z AUTO 13006KT 9999 FEW016/// OVC084/// M03/M05 Q1006=
202112280050 METAR ESMX 280050Z AUTO 14008KT 110V190 9999 BKN082/// M04/M05 Q1007=
202112280020 METAR ESMX 280020Z AUTO 13008KT 080V160 9999 FEW082/// M04/M06 Q1006=
202112272350 METAR ESMX 272350Z AUTO 13008KT 070V170 9999 NCD M04/M06 Q1007=
202112272320 METAR ESMX 272320Z AUTO 13008KT 090V170 9999 NCD M03/M06 Q1008=
202112272250 METAR ESMX 272250Z AUTO 14007KT 100V160 9999 NCD M03/M06 Q1008=
202112272220 METAR ESMX 272220Z AUTO 13008KT 090V170 9999 NCD M03/M06 Q1008=
202112272150 METAR ESMX 272150Z AUTO 14008KT 080V170 9999 NCD M03/M06 Q1009=
202112272120 METAR ESMX 272120Z AUTO 13007KT 090V160 9999 NCD M04/M06 Q1009=
202112272050 METAR ESMX 272050Z 13006KT 070V160 CAVOK M05/M06 Q1009=
202112272020 METAR ESMX 272020Z 13005KT 070V160 CAVOK M05/M05 Q1009=
202112271950 METAR ESMX 271950Z 13005KT 080V150 CAVOK M05/M05 Q1010=
202112271920 METAR ESMX 271920Z 12005KT 070V160 CAVOK M05/M05 Q1010=
202112271850 METAR ESMX 271850Z 11004KT 050V160 CAVOK M05/M05 Q1010=
202112271820 METAR ESMX 271820Z 10003KT 050V210 CAVOK M05/M06 Q1010=
202112271750 METAR ESMX 271750Z 12003KT 040V140 CAVOK M06/M06 Q1011=
202112271720 METAR ESMX 271720Z 13003KT CAVOK M05/M06 Q1011=
202112271650 METAR ESMX 271650Z 12004KT 080V150 CAVOK M05/M06 Q1011=
202112271620 METAR ESMX 271620Z 11003KT 070V140 CAVOK M05/M06 Q1011=
202112271550 METAR ESMX 271550Z 12003KT 070V140 CAVOK M05/M05 Q1011=
202112271520 METAR ESMX 271520Z 12003KT CAVOK M05/M06 Q1011=
202112271450 METAR ESMX 271450Z VRB02KT CAVOK M05/M06 Q1011=
202112271420 METAR ESMX 271420Z AUTO 12002KT 9999 NCD M06/M06 Q1011=
202112271350 METAR ESMX 271350Z 13002KT CAVOK M06/M07 Q1011=
202112271320 METAR ESMX 271320Z 36001KT CAVOK M07/M07 Q1012=
202112271250 METAR ESMX 271250Z 36002KT CAVOK M07/M08 Q1012=
202112271220 METAR ESMX 271220Z 35001KT 9999 BKN016 M07/M08 Q1012=
202112271150 METAR ESMX 271150Z 00000KT 9999 BKN016 M07/M08 Q1012=
202112271120 METAR ESMX 271120Z 00000KT CAVOK M08/M09 Q1012=
202112271050 METAR ESMX 271050Z 06002KT 9999 FEW003 M08/M09 Q1012=
202112271020 METAR ESMX 271020Z AUTO 06002KT 9999 NCD M08/M09 Q1012=
202112270950 METAR ESMX 270950Z VRB02KT 9999 BKN016 M09/M10 Q1013=
202112270920 METAR ESMX 270920Z 22002KT 9999 BKN015 M09/M10 Q1013=
202112270850 METAR ESMX 270850Z 00000KT 9999 FEW002 BKN014 M09/M10 Q1013=
202112270820 METAR COR ESMX 270820Z 22001KT 8000 BKN002 M10/M11 Q1013=
202112270750 METAR ESMX 270750Z 00000KT 0900 R01/1000N R19/P2000N FZFG VV002 M11/M12 Q1013=
202112270720 METAR COR ESMX 270720Z 00000KT 0800 R01/0600N R19/1300U FZFG VV002 M11/M12 Q1013=
202112270650 METAR COR ESMX 270650Z 00000KT 0300 R01/0700N R19/1100D FZFG VV002 M12/M13 Q1013=
202112270620 METAR ESMX 270620Z AUTO 00000KT 3200 OVC001/// M12/M13 Q1013=
202112270550 METAR ESMX 270550Z AUTO 00000KT 0300 R01/0900N R19/P2000N FZFG OVC001/// M12/M13 Q1013=
202112270520 METAR ESMX 270520Z AUTO 00000KT 0100 R01/0400N R19/0800N FZFG BKN001/// OVC002/// M11/M13 Q1013=
202112270450 METAR ESMX 270450Z AUTO 00000KT 0200 R01/1700U R19/0600N FZFG BKN001/// OVC003/// M11/M12 Q1013=
202112270420 METAR ESMX 270420Z AUTO 20002KT 9999 OVC003/// M12/M13 Q1013=
202112270350 METAR ESMX 270350Z AUTO 20002KT 9999 FEW001/// SCT004/// M13/M14 Q1013=
202112270320 METAR ESMX 270320Z AUTO 00000KT 9999 OVC001/// M12/M14 Q1013=
202112270250 METAR ESMX 270250Z AUTO 19001KT 1600 OVC001/// M11/M12 Q1013=
202112270220 METAR ESMX 270220Z AUTO 22002KT 0150 R01/1600N R19/0600N FZFG VV002 M10/M11 Q1013=
202112270150 METAR ESMX 270150Z AUTO 17001KT 0100 R01/0350N R19/0400N FZFG VV002 M10/M11 Q1013=
202112270120 METAR ESMX 270120Z AUTO 18001KT 0100 R01/0325N R19/0500N FZFG VV001 M10/M11 Q1013=
202112270050 METAR ESMX 270050Z AUTO 20002KT 0250 R01/0900N R19/1000D FZFG BKN001/// OVC003/// M11/M12 Q1013=
202112270020 METAR ESMX 270020Z AUTO 00000KT 0250 R01/0800N R19/1100N FZFG OVC001/// M12/M12 Q1013=
202112262350 METAR ESMX 262350Z AUTO 00000KT 0250 R01/0900N R19/0700N FZFG OVC001/// M11/M12 Q1013=
202112262320 METAR ESMX 262320Z AUTO 00000KT 0300 R01/0900U R19/1100D FZFG VV002 M11/M12 Q1013=
202112262250 METAR ESMX 262250Z AUTO 00000KT 0100 R01/0600N R19/0450N FZFG FEW001/// OVC002/// M10/M11 Q1013=
202112262220 METAR ESMX 262220Z AUTO 00000KT 0200 R01/0750N R19/0650N FZFG VV002 M09/M10 Q1013=
202112262150 METAR ESMX 262150Z AUTO 00000KT 0250 R01/0900N R19/0900N FZFG OVC001/// M09/M10 Q1013=
202112262120 METAR ESMX 262120Z AUTO VRB01KT 0100 R01/0400N R19/0600N FZFG OVC002/// M09/M10 Q1013=
202112262050 METAR ESMX 262050Z AUTO 00000KT 0100 R01/0400N R19/0275N FZFG VV002 M09/M10 Q1013=
202112262020 METAR ESMX 262020Z AUTO 00000KT 9999 BR BKN001/// OVC003/// M09/M10 Q1013=
202112261950 METAR ESMX 261950Z 00000KT 9000 BKN002 M11/M12 Q1013=
202112261920 METAR ESMX 261920Z 00000KT 9999 SCT003 M12/M13 Q1013=
202112261850 METAR COR ESMX 261850Z 00000KT 9999 SCT005 M13/M14 Q1013=
202112261820 METAR ESMX 261820Z 17001KT 9999 FEW006 M12/M12 Q1013=
202112261750 METAR ESMX 261750Z 19002KT CAVOK M12/M12 Q1013=
202112261720 METAR ESMX 261720Z 00000KT CAVOK M11/M11 Q1013=
202112261650 METAR ESMX 261650Z 00000KT CAVOK M11/M12 Q1012=
202112261620 METAR ESMX 261620Z AUTO VRB01KT 8000 NCD M11/M12 Q1012=
202112261550 METAR ESMX 261550Z AUTO 23003KT 9999 NCD M08/M08 Q1012=
202112261520 METAR ESMX 261520Z AUTO 23002KT 9999 NCD M07/M07 Q1012=
202112261450 METAR ESMX 261450Z AUTO 22005KT 9999 NCD M06/M06 Q1012=
202112261420 METAR ESMX 261420Z AUTO 23003KT 9999 NCD M06/M07 Q1012=
202112261350 METAR ESMX 261350Z AUTO 22006KT 9999 NCD M05/M06 Q1012=
202112261320 METAR ESMX 261320Z AUTO 18002KT 9999 NCD M05/M07 Q1012=
202112261250 METAR ESMX 261250Z AUTO 00000KT 9999 NCD M03/M05 Q1011=
202112261220 METAR ESMX 261220Z AUTO 34002KT 9999 NCD M04/M05 Q1011=
202112261150 METAR ESMX 261150Z AUTO VRB02KT 9999 NCD M05/M05 Q1011=
202112261120 METAR ESMX 261120Z AUTO 29004KT 9999 NCD M05/M06 Q1011=
202112261050 METAR ESMX 261050Z AUTO 26002KT 9999 NCD M04/M04 Q1011=
202112261020 METAR ESMX 261020Z AUTO 27003KT 9999 NCD M05/M06 Q1011=
202112260950 METAR ESMX 260950Z AUTO 00000KT 9999 NCD M08/M09 Q1011=
202112260920 METAR ESMX 260920Z AUTO 00000KT 9999 NCD M08/M09 Q1011=
202112260850 METAR ESMX 260850Z AUTO 00000KT 9999 NCD M10/M12 Q1011=
202112260820 METAR ESMX 260820Z AUTO 00000KT 9999 NCD M10/M10 Q1011=
202112260750 METAR ESMX 260750Z 27002KT CAVOK M12/M13 Q1010=
202112260720 METAR ESMX 260720Z 00000KT CAVOK M10/M11 Q1010=
202112260650 METAR ESMX 260650Z 29002KT CAVOK M10/M11 Q1010=
202112260620 METAR ESMX 260620Z AUTO 26002KT 3600 NCD M10/M11 Q1009=
202112260550 METAR ESMX 260550Z AUTO VRB01KT 9999 BR NCD M10/M11 Q1009=
202112260520 METAR ESMX 260520Z AUTO 25004KT 9999 NCD M09/M09 Q1009=
202112260450 METAR ESMX 260450Z AUTO 25002KT 9999 NCD M08/M09 Q1009=
202112260420 METAR ESMX 260420Z AUTO 28003KT 9999 NCD M07/M08 Q1009=
202112260350 METAR ESMX 260350Z AUTO VRB03KT 9999 NCD M06/M07 Q1008=
202112260320 METAR ESMX 260320Z AUTO 26004KT 9999 NCD M06/M07 Q1008=
202112260250 METAR ESMX 260250Z AUTO 26004KT 230V290 9999 NCD M06/M07 Q1008=
202112260220 METAR ESMX 260220Z AUTO 27005KT 240V300 9999 NCD M06/M06 Q1008 RESG=
202112260150 METAR ESMX 260150Z AUTO 25007KT 1700 SG NCD M06/M06 Q1008=
202112260120 METAR ESMX 260120Z AUTO 25007KT 1000 R01/P2000N R19/P2000N SG NCD M06/M06 Q1008 RESN=
202112260050 METAR ESMX 260050Z AUTO 25006KT 0650 R01/P2000D R19/P2000N -SN NCD M06/M07 Q1008 RESG=
202112260020 METAR ESMX 260020Z 24005KT 1500 -SN NSC M06/M07 Q1008 RESG=
202112252350 METAR ESMX 252350Z 25006KT 7000 SG NSC M06/M07 Q1008 RESN=
202112252320 METAR ESMX 252320Z AUTO 23004KT 200V270 0500 R01/1400D R19/P2000N SG NCD M06/M07 Q1008=
202112252250 METAR ESMX 252250Z AUTO 26007KT 0900 R01/P2000N R19/P2000D NCD M06/M06 Q1007=
202112252220 METAR ESMX 252220Z AUTO 26007KT 9999 NCD M05/M06 Q1007=
202112252150 METAR ESMX 252150Z AUTO 26007KT 9999 NCD M05/M06 Q1007=
202112252120 METAR ESMX 252120Z AUTO 26007KT 9999 NCD M06/M06 Q1007=
202112252050 METAR ESMX 252050Z AUTO 26007KT 9999 NCD M05/M06 Q1007=
202112252020 METAR ESMX 252020Z AUTO 27007KT 9999 NCD M05/M06 Q1007=
202112251950 METAR ESMX 251950Z AUTO 26008KT 9999 NCD M05/M06 Q1007=
202112251920 METAR ESMX 251920Z AUTO 26006KT 9999 NCD M06/M07 Q1007=
202112251850 METAR ESMX 251850Z AUTO 26008KT 9999 NCD M05/M06 Q1007=
202112251820 METAR ESMX 251820Z AUTO 27009KT 9999 NCD M05/M06 Q1007=
202112251750 METAR ESMX 251750Z AUTO 26008KT 9999 NCD M05/M07 Q1007=
202112251720 METAR ESMX 251720Z AUTO 26008KT 9999 NCD M05/M07 Q1007=
202112251650 METAR ESMX 251650Z AUTO 26008KT 9999 NCD M06/M07 Q1007=
202112251620 METAR ESMX 251620Z AUTO 26007KT 9999 NCD M06/M07 Q1007=
202112251550 METAR ESMX 251550Z AUTO 25007KT 9999 NCD M06/M07 Q1007=
202112251520 METAR ESMX 251520Z AUTO 25009KT 9999 NCD M06/M07 Q1007=
202112251450 METAR ESMX 251450Z AUTO 26009KT 9999 NCD M05/M07 Q1007=
202112251420 METAR ESMX 251420Z AUTO 27007KT 9999 NCD M06/M08 Q1007=
202112251350 METAR ESMX 251350Z AUTO 26008KT 9999 NCD M06/M08 Q1006=
202112251320 METAR ESMX 251320Z AUTO 28006KT 250V320 9999 NCD M06/M09 Q1006=
202112251250 METAR ESMX 251250Z AUTO 26006KT 9999 NCD M06/M09 Q1007=
202112251220 METAR ESMX 251220Z AUTO 25007KT 9999 NCD M07/M10 Q1007=
202112251150 METAR ESMX 251150Z AUTO 26006KT 9999 NCD M07/M10 Q1006=
202112251120 METAR ESMX 251120Z AUTO 25005KT 9999 NCD M08/M11 Q1006=
202112251050 METAR ESMX 251050Z AUTO 25006KT 9999 NCD M08/M11 Q1006=
202112251020 METAR ESMX 251020Z AUTO 26007KT 9999 NCD M09/M12 Q1007=
202112250950 METAR ESMX 250950Z AUTO 26004KT 9999 NCD M10/M13 Q1007=
202112250920 METAR ESMX 250920Z AUTO 24005KT 9999 NCD M13/M15 Q1007=
202112250850 METAR ESMX 250850Z AUTO 23004KT 9999 NCD M14/M15 Q1006=
202112250820 METAR ESMX 250820Z AUTO 23004KT 9999 NCD M15/M17 Q1006=
202112250750 METAR ESMX 250750Z AUTO 24004KT 9999 NCD M15/M17 Q1006=
202112250720 METAR ESMX 250720Z AUTO 24004KT 9999 NCD M15/M16 Q1006=
202112250650 METAR ESMX 250650Z AUTO 25004KT 9999 NCD M15/M17 Q1006=
202112250620 METAR ESMX 250620Z AUTO 26003KT 9999 NCD M14/M16 Q1006=
202112250550 METAR ESMX 250550Z AUTO 24002KT 9999 NCD M14/M16 Q1005=
202112250520 METAR ESMX 250520Z AUTO 28004KT 9999 NCD M14/M15 Q1005=
202112250450 METAR ESMX 250450Z AUTO VRB02KT 9999 NCD M14/M15 Q1005=
202112250420 METAR ESMX 250420Z AUTO 27004KT 9999 NCD M12/M14 Q1005=
202112250350 METAR ESMX 250350Z AUTO 27006KT 9999 NCD M12/M14 Q1004=
202112250320 METAR ESMX 250320Z AUTO 23004KT 9999 NCD M16/M17 Q1004=
202112250250 METAR ESMX 250250Z AUTO VRB02KT 9999 FEW053/// M14/M15 Q1005=
202112250220 METAR ESMX 250220Z AUTO VRB03KT 9999 FEW062/// M13/M15 Q1004=
202112250150 METAR ESMX 250150Z AUTO 26003KT 230V290 9999 SCT053/// M12/M15 Q1004=
202112250120 METAR ESMX 250120Z AUTO 27003KT 9999 OVC057/// M13/M15 Q1004=
202112250050 METAR ESMX 250050Z AUTO 00000KT 9999 BKN059/// M14/M15 Q1004=
202112250020 METAR ESMX 250020Z AUTO 22004KT 9999 SCT068/// M14/M16 Q1003=
202112242350 METAR ESMX 242350Z AUTO VRB01KT 9999 SCT072/// M13/M15 Q1003=
202112242320 METAR ESMX 242320Z AUTO 25002KT 9999 NCD M15/M16 Q1003=
202112242250 METAR ESMX 242250Z AUTO 21002KT 9999 NCD M13/M14 Q1003=
202112242220 METAR ESMX 242220Z AUTO 24003KT 9999 NCD M13/M14 Q1003=
202112242150 METAR ESMX 242150Z AUTO 28003KT 9999 NCD M12/M14 Q1003=
202112242120 METAR ESMX 242120Z AUTO 28006KT 9999 NCD M11/M13 Q1003=
202112242050 METAR ESMX 242050Z 29005KT CAVOK M12/M13 Q1002=
202112242020 METAR ESMX 242020Z 29004KT CAVOK M11/M13 Q1002=
202112241950 METAR ESMX 241950Z 29005KT CAVOK M11/M13 Q1002=
202112241920 METAR ESMX 241920Z 32006KT CAVOK M11/M13 Q1002=
202112241850 METAR ESMX 241850Z 31005KT 290V350 CAVOK M11/M12 Q1001=
202112241820 METAR ESMX 241820Z 32006KT CAVOK M11/M13 Q1001=
202112241750 METAR ESMX 241750Z 31006KT CAVOK M11/M12 Q1001=
202112241720 METAR ESMX 241720Z 29005KT CAVOK M11/M13 Q1000=
202112241650 METAR ESMX 241650Z 29004KT CAVOK M12/M13 Q1000=
202112241620 METAR ESMX 241620Z 31004KT CAVOK M11/M13 Q1000=
202112241550 METAR ESMX 241550Z 31004KT CAVOK M11/M13 Q1000=
202112241520 METAR ESMX 241520Z 31006KT CAVOK M10/M12 Q0999=
202112241450 METAR ESMX 241450Z 31007KT CAVOK M10/M12 Q0999=
202112241420 METAR ESMX 241420Z 32008KT CAVOK M09/M12 Q0998=
202112241350 METAR ESMX 241350Z 32009KT CAVOK M09/M11 Q0998=
202112241320 METAR ESMX 241320Z 32008KT CAVOK M08/M11 Q0998=
202112241250 METAR ESMX 241250Z 33009KT CAVOK M09/M12 Q0997=
202112241220 METAR ESMX 241220Z 34009KT CAVOK M09/M12 Q0997 RESG=
202112241150 METAR ESMX 241150Z 34011KT CAVOK M09/M12 Q0997=
202112241120 METAR ESMX 241120Z 34010KT CAVOK M08/M12 Q0997=
202112241050 METAR ESMX 241050Z AUTO 35012KT 9999 OVC066/// M08/M12 Q0997=
202112241020 METAR ESMX 241020Z AUTO 34013KT 9999 FEW022/// OVC061/// M07/M12 Q0997=
202112240950 METAR ESMX 240950Z AUTO 36011KT 9999 OVC057/// M07/M10 Q0997=
202112240920 METAR ESMX 240920Z AUTO 35011KT 9999 BKN057/// OVC074/// M07/M10 Q0996=
202112240850 METAR ESMX 240850Z AUTO 01016KT 9999 BKN046/// OVC057/// M07/M10 Q0996=
202112240820 METAR ESMX 240820Z AUTO 36017KT 8000 -SN FEW018/// OVC049/// M06/M09 Q0996=
202112240750 METAR ESMX 240750Z AUTO 36017KT 7000 -SN FEW018/// OVC049/// M05/M08 Q0995=
202112240720 METAR ESMX 240720Z AUTO 35015KT 2100 -SN BKN001/// OVC021/// M04/M05 Q0994=
202112240650 METAR ESMX 240650Z AUTO 01012KT 1700 -SN ///020 M03/M04 Q0994=
202112240620 METAR ESMX 240620Z AUTO 01013KT 7000 SG SCT011/// BKN021/// BKN030/// M03/M04 Q0993=
202112240550 METAR ESMX 240550Z AUTO 35013KT 9999 SG BKN010/// OVC026/// M02/M03 Q0993=
202112240520 METAR ESMX 240520Z AUTO 01009KT 9999 SG FEW023/// BKN030/// OVC043/// M01/M02 Q0993=
202112240450 METAR ESMX 240450Z AUTO 36010KT 9999 -SN FEW003/// SCT012/// OVC022/// M01/M02 Q0992=
202112240420 METAR ESMX 240420Z AUTO 27005KT 2200 -SN BKN002/// BKN004/// OVC014/// 00/00 Q0992=
202112240350 METAR ESMX 240350Z AUTO 27006KT 3500 -SN OVC003/// M00/M00 Q0992=
202112240320 METAR ESMX 240320Z AUTO 25005KT 7000 -SN OVC003/// M00/M00 Q0992=
202112240250 METAR ESMX 240250Z AUTO 24005KT 4700 -SN OVC003/// M00/M00 Q0992=
202112240220 METAR ESMX 240220Z AUTO 22005KT 2500 -RASN OVC002/// M00/M00 Q0993=
202112240150 METAR ESMX 240150Z AUTO 22004KT 1600 -SN OVC001/// M01/M01 Q0993=
202112240120 METAR ESMX 240120Z AUTO 24004KT 1200 R01/P2000N R19/P2000N -SN OVC001/// M01/M01 Q0994 RESHUP=
202112240050 METAR ESMX 240050Z AUTO VRB03KT 0500 R01/1300U R19/1500U FZFG OVC001/// M01/M01 Q0994=
202112240020 METAR ESMX 240020Z AUTO 24001KT 0300 R01/0900N R19/1000N -SN OVC001/// M01/M01 Q0994 RESHUP=
202112232350 METAR ESMX 232350Z AUTO 22005KT 0800 R01/P2000N R19/P2000N -SN OVC001/// M01/M01 Q0994 RESHUP=
202112232320 METAR ESMX 232320Z AUTO 20005KT 1800 SG OVC001/// M01/M01 Q0995 RESHUP REFZUP=
202112232250 METAR ESMX 232250Z AUTO 21003KT 2200 BR OVC001/// M01/M01 Q0996=
202112232220 METAR ESMX 232220Z AUTO 22003KT 3100 BR OVC002/// M01/M01 Q0996=
202112232150 METAR ESMX 232150Z AUTO VRB03KT 4300 BR OVC003/// M02/M02 Q0996=
202112232120 METAR ESMX 232120Z AUTO 24003KT 3300 BR OVC002/// M02/M02 Q0997 RESN=
202112232050 METAR ESMX 232050Z AUTO 23004KT 3600 BR OVC002/// M02/M02 Q0997=
202112232020 METAR ESMX 232020Z AUTO 22003KT 3800 -SN OVC003/// M02/M02 Q0997 REFZUP=
202112231950 METAR ESMX 231950Z AUTO 22004KT 4600 BR OVC002/// M02/M02 Q0998=
202112231920 METAR ESMX 231920Z AUTO VRB03KT 3600 BR OVC001/// M02/M02 Q0998=
202112231850 METAR ESMX 231850Z AUTO 23005KT 1800 BR OVC001/// M02/M02 Q0999=
202112231820 METAR ESMX 231820Z AUTO 24004KT 2200 BR OVC001/// M02/M02 Q0999=
202112231750 METAR ESMX 231750Z AUTO 22004KT 2800 BR BKN002/// M02/M02 Q0999=
202112231720 METAR ESMX 231720Z AUTO 22004KT 3600 BR FEW035/// M02/M02 Q1000=
202112231650 METAR ESMX 231650Z 22004KT 3200 BR SCT057 M02/M02 Q1001=
202112231620 METAR ESMX 231620Z 22004KT 3600 BR FEW004 BKN057 M02/M02 Q1001=
202112231550 METAR ESMX 231550Z 22004KT 3900 BR SCT004 OVC057 M01/M01 Q1002=
202112231520 METAR COR ESMX 231520Z 18003KT 3700 BR SCT005 OVC057 M02/M02 Q1002=
202112231450 METAR COR ESMX 231450Z 22004KT 6000 -SN FEW007 BKN046 M01/M01 Q1003=
202112231420 METAR ESMX 231420Z 22004KT 7000 -SN BKN015 M01/M01 Q1004=
202112231350 METAR ESMX 231350Z 20005KT 4600 -RASN BKN006 M00/M00 Q1004=
202112231320 METAR ESMX 231320Z 21006KT 8000 BR OVC005 M00/M00 Q1005=
202112231250 METAR ESMX 231250Z AUTO 21007KT 9000 -SN BKN006/// OVC045/// M00/M00 Q1005 REFZUP=
202112231220 METAR ESMX 231220Z 20005KT 9000 -SN SCT030 OVC055 M00/M00 Q1005=
202112231150 METAR ESMX 231150Z 20005KT 9999 FEW053 BKN070 M00/M00 Q1006=
202112231120 METAR ESMX 231120Z 20006KT 5000 -RASN BKN025 00/00 Q1007=
202112231050 METAR ESMX 231050Z 19006KT 7000 -SN SCT004 BKN019 00/00 Q1007=
202112231020 METAR ESMX 231020Z 22007KT 3700 -SN OVC003 00/00 Q1008=
202112230950 METAR ESMX 230950Z 20007KT 2700 -SN OVC005 00/00 Q1008=
202112230920 METAR ESMX 230920Z 22006KT 2200 -SN BKN003 00/00 Q1009=
202112230850 METAR ESMX 230850Z 21006KT 2900 -SN BKN003 00/00 Q1009=
202112230820 METAR ESMX 230820Z 22006KT 1800 -SN OVC002 00/00 Q1009=
202112230750 METAR ESMX 230750Z 22007KT 2500 -SN OVC002 00/00 Q1010=
202112230720 METAR ESMX 230720Z AUTO 22007KT 1400 R01/P2000N R19/P2000N -SN OVC001/// 00/00 Q1010=
202112230650 METAR ESMX 230650Z AUTO 22007KT 1700 -RASN OVC001/// M00/M00 Q1010 REFZUP RESHUP=
202112230620 METAR ESMX 230620Z AUTO 21006KT 1900 BR OVC001/// M00/M00 Q1011=
202112230550 METAR ESMX 230550Z AUTO 18006KT 2000 BR OVC001/// M00/M00 Q1011 REUP=
202112230520 METAR ESMX 230520Z AUTO 16005KT 2500 BR OVC001/// M00/M00 Q1012 RESHUP=
202112230450 METAR ESMX 230450Z AUTO 17003KT 3600 BR OVC002/// M01/M01 Q1012 REFZUP RESHUP=
202112230420 METAR ESMX 230420Z AUTO 16002KT 1800 -FZRA SCT002/// BKN004/// BKN011/// M01/M01 Q1012=
202112230350 METAR ESMX 230350Z AUTO 18002KT 2200 -SN OVC002/// M01/M01 Q1013=
202112230320 METAR ESMX 230320Z AUTO VRB03KT 7000 -SN OVC002/// M01/M01 Q1014 REFZUP=
202112230250 METAR ESMX 230250Z AUTO 16003KT 8000 -FZDZ OVC002/// M01/M01 Q1014 REFZUP=
202112230220 METAR ESMX 230220Z AUTO 16003KT 2300 -SN OVC001/// M01/M01 Q1015 REFZUP=
202112230150 METAR ESMX 230150Z AUTO 17003KT 1900 BR OVC001/// M01/M01 Q1015=
202112230120 METAR ESMX 230120Z AUTO 16003KT 1600 BR OVC001/// M01/M01 Q1016 REFZRA=
202112230050 METAR ESMX 230050Z AUTO 16004KT 2900 BR OVC002/// M01/M01 Q1016=
202112230020 METAR ESMX 230020Z AUTO 16004KT 6000 BR OVC003/// M02/M02 Q1017=
202112222350 METAR ESMX 222350Z AUTO 16004KT 9999 -FZDZ OVC005/// M02/M02 Q1017=
202112222320 METAR ESMX 222320Z AUTO 16002KT 3500 FZUP FEW001/// BKN006/// OVC014/// M02/M02 Q1017=
202112222250 METAR ESMX 222250Z AUTO VRB02KT 2100 -SN SCT006/// OVC014/// M02/M02 Q1018=
202112222220 METAR ESMX 222220Z AUTO 16003KT 1900 -SN VV008 M02/M02 Q1018=
202112222150 METAR ESMX 222150Z AUTO 14003KT 110V170 2000 -SN SCT002/// OVC006/// M02/M02 Q1018=
202112222120 METAR ESMX 222120Z AUTO 14005KT 3100 -SN FEW001/// BKN007/// OVC017/// M02/M03 Q1019=
202112222050 METAR ESMX 222050Z AUTO 14004KT 3600 -SN SCT002/// BKN014/// BKN023/// M02/M03 Q1019=
202112222020 METAR ESMX 222020Z AUTO 14004KT 9999 -PL BKN019/// OVC026/// M02/M04 Q1019=
202112221950 METAR ESMX 221950Z AUTO 13005KT 6000 -SN FEW005/// OVC029/// M02/M04 Q1020 REFZUP RESHUP=
202112221920 METAR ESMX 221920Z AUTO 13005KT 080V150 9999 FZUP SCT012/// BKN016/// OVC029/// M02/M04 Q1020=
202112221850 METAR ESMX 221850Z AUTO 13004KT 9999 BKN016/// OVC031/// M02/M04 Q1020 RESHUP REUP=
202112221820 METAR ESMX 221820Z AUTO 13004KT 9999 SCT017/// OVC030/// M03/M04 Q1020 RESN=
202112221750 METAR ESMX 221750Z AUTO 13005KT 9999 OVC029/// M03/M04 Q1020 RESHUP=
202112221720 METAR ESMX 221720Z AUTO 10004KT 030V170 9999 -SN SCT018/// OVC027/// M03/M04 Q1021=
202112221650 METAR ESMX 221650Z AUTO 10003KT 9999 -SN BKN026/// OVC068/// M03/M05 Q1021 RESHUP REDZ=
202112221620 METAR ESMX 221620Z AUTO 10003KT 060V140 9999 FEW019/// BKN048/// OVC074/// M03/M05 Q1021 RESHUP=
202112221550 METAR ESMX 221550Z AUTO 14003KT 9999 -FZDZ OVC072/// ///// Q1022 RERA=
202112221520 METAR ESMX 221520Z AUTO 12003KT 9999 BKN030/// OVC076/// M03/M05 Q1022=
202112221450 METAR ESMX 221450Z 11004KT 060V150 9999 -SN BKN026 M03/M05 Q1022=
202112221420 METAR ESMX 221420Z 13004KT 9000 -SN BKN025 M03/M05 Q1022=
202112221350 METAR ESMX 221350Z 11005KT 080V170 8000 -SN BKN034 M03/M05 Q1023=
202112221320 METAR ESMX 221320Z 12004KT 9999 -SN FEW014 BKN026 M03/M05 Q1023=
202112221250 METAR ESMX 221250Z 13004KT 080V150 9999 SCT015 BKN027 M03/M05 Q1023=
202112221220 METAR ESMX 221220Z 12004KT 090V150 9999 -SN BKN028 M03/M06 Q1023=
202112221150 METAR ESMX 221150Z 13004KT 9999 -SN BKN029 M03/M06 Q1023=
202112221120 METAR ESMX 221120Z 14004KT 9999 -SN BKN030 M03/M06 Q1024=
202112221050 METAR ESMX 221050Z 12004KT 9999 BKN031 M03/M06 Q1024=
202112221020 METAR ESMX 221020Z 13003KT 100V160 9999 BKN032 M04/M07 Q1024=
202112220950 METAR ESMX 220950Z 13006KT 100V160 9999 BKN033 M04/M07 Q1024=
202112220920 METAR ESMX 220920Z 14004KT 9999 -SN BKN034 M04/M07 Q1024=
202112220850 METAR ESMX 220850Z 12004KT 9000 -SN BKN035 M04/M06 Q1024=
202112220820 METAR ESMX 220820Z 13003KT 6000 -SN SCT010 BKN032 M04/M06 Q1024=
202112220750 METAR ESMX 220750Z 14003KT 9999 -SN BKN010 M04/M06 Q1024=
202112220720 METAR ESMX 220720Z VRB03KT 9999 SCT012 BKN033 M05/// Q1024=
202112220650 METAR ESMX 220650Z AUTO 14003KT 9999 BKN043/// OVC057/// ///// Q1024=
202112220620 METAR ESMX 220620Z AUTO 11003KT 9999 OVC064/// ///// Q1024=
202112220550 METAR ESMX 220550Z AUTO 11002KT 9999 FEW039/// OVC068/// ///// Q1024=
202112220520 METAR ESMX 220520Z AUTO 11002KT 9999 BKN043/// OVC074/// ///// Q1024=
202112220450 METAR ESMX 220450Z AUTO VRB02KT 9999 FEW034/// SCT061/// OVC076/// ///// Q1024=
202112220420 METAR ESMX 220420Z AUTO VRB03KT 9999 OVC074/// ///// Q1025=
202112220350 METAR ESMX 220350Z AUTO 13002KT 9999 FEW059/// OVC080/// ///// Q1025=
202112220320 METAR ESMX 220320Z AUTO 00000KT 9999 SCT061/// OVC078/// ///// Q1025=
202112220250 METAR ESMX 220250Z AUTO VRB02KT 9999 BKN066/// OVC086/// ///// Q1025=
202112220220 METAR ESMX 220220Z AUTO 14001KT 9999 BKN078/// OVC100/// ///// Q1025=
202112220150 METAR ESMX 220150Z AUTO VRB01KT 9999 OVC100/// ///// Q1025=
202112220120 METAR ESMX 220120Z AUTO 00000KT 9999 FEW066/// BKN086/// OVC100/// M06/M07 Q1025=
202112220050 METAR ESMX 220050Z AUTO 20001KT 9999 OVC080/// M07/M07 Q1025=
202112220020 METAR ESMX 220020Z AUTO 19002KT 9999 OVC080/// M07/M07 Q1025=
202112212350 METAR ESMX 212350Z AUTO VRB02KT 9999 OVC078/// M07/M08 Q1025=
202112212320 METAR ESMX 212320Z AUTO 00000KT 9999 OVC082/// M08/M09 Q1025=
202112212250 METAR ESMX 212250Z AUTO 22001KT 9999 OVC082/// M09/M09 Q1025=
202112212220 METAR ESMX 212220Z AUTO 00000KT 9999 BKN084/// M10/M10 Q1025=
202112212150 METAR ESMX 212150Z AUTO 00000KT 9999 NCD M09/M10 Q1025=
202112212120 METAR ESMX 212120Z AUTO 00000KT 9999 NCD M08/M09 Q1025=
202112212050 METAR ESMX 212050Z AUTO 20001KT 9999 NCD M08/M08 Q1025=
202112212020 METAR ESMX 212020Z AUTO 19001KT 9999 FEW130/// M08/M08 Q1025=
202112211950 METAR ESMX 211950Z AUTO 00000KT 9999 NCD M08/M08 Q1025=
202112211920 METAR ESMX 211920Z AUTO 00000KT 9999 NCD M07/M07 Q1025=
202112211850 METAR ESMX 211850Z AUTO 00000KT 9999 NCD M07/M07 Q1025=
202112211820 METAR ESMX 211820Z AUTO 15001KT 9999 SCT088/// M07/M07 Q1025=
202112211750 METAR ESMX 211750Z AUTO 00000KT 9999 NCD M07/M07 Q1025=
202112211720 METAR ESMX 211720Z AUTO 00000KT 9999 NCD M08/M08 Q1025=
202112211650 METAR ESMX 211650Z AUTO 14002KT 9999 NCD M07/M08 Q1025=
202112211620 METAR ESMX 211620Z AUTO 15002KT 9999 NCD M07/M07 Q1024=
202112211550 METAR ESMX 211550Z AUTO 01004KT 9999 BKN043/// M06/M06 Q1024=
202112211520 METAR ESMX 211520Z AUTO 19005KT 9999 NCD M06/M07 Q1024=
202112211450 METAR ESMX 211450Z 22004KT CAVOK M06/M07 Q1025=
202112211420 METAR ESMX 211420Z 20002KT CAVOK M06/M06 Q1025=
202112211350 METAR ESMX 211350Z 00000KT CAVOK M05/M06 Q1025=
202112211320 METAR ESMX 211320Z VRB01KT CAVOK M04/M06 Q1025=
202112211250 METAR ESMX 211250Z 26002KT CAVOK M04/M06 Q1025=
202112211220 METAR ESMX 211220Z VRB02KT CAVOK M04/M06 Q1025=
202112211150 METAR ESMX 211150Z VRB01KT CAVOK M04/M06 Q1025=
202112211120 METAR ESMX 211120Z 00000KT CAVOK M04/M06 Q1025=
202112211050 METAR ESMX 211050Z VRB02KT CAVOK M04/M06 Q1025=
202112211020 METAR ESMX 211020Z 28002KT CAVOK M05/M06 Q1025=
202112210950 METAR ESMX 210950Z 00000KT CAVOK M06/M07 Q1025=
202112210920 METAR ESMX 210920Z 20002KT CAVOK M07/M07 Q1025=
202112210850 METAR ESMX 210850Z 00000KT CAVOK M08/M08 Q1025=
202112210820 METAR ESMX 210820Z 00000KT CAVOK M08/M09 Q1025=
202112210750 METAR ESMX 210750Z 32002KT CAVOK M09/M09 Q1024=
202112210720 METAR ESMX 210720Z 00000KT CAVOK M07/M08 Q1024=
202112210650 METAR COR ESMX 210650Z 00000KT CAVOK M07/M08 Q1025=
202112210620 METAR ESMX 210620Z AUTO 30003KT 9999 NCD M07/M08 Q1024=
202112210550 METAR ESMX 210550Z AUTO 29003KT 9999 NCD M08/M08 Q1025=
202112210520 METAR ESMX 210520Z AUTO VRB02KT 9999 NCD M08/M09 Q1025=
202112210450 METAR ESMX 210450Z AUTO VRB01KT 9999 NCD M06/M06 Q1025=
202112210420 METAR ESMX 210420Z AUTO VRB01KT 9999 NCD M06/M07 Q1025=
202112210350 METAR ESMX 210350Z AUTO 27003KT 9999 SCT029/// M06/M07 Q1025=
202112210320 METAR ESMX 210320Z AUTO 32004KT 9999 OVC030/// M06/M06 Q1025=
202112210250 METAR ESMX 210250Z AUTO 31003KT 9999 OVC030/// M05/M06 Q1025=
202112210220 METAR ESMX 210220Z AUTO 29005KT 9999 BKN028/// BKN035/// M05/M06 Q1025=
202112210150 METAR ESMX 210150Z AUTO 28005KT 9999 OVC026/// M04/M06 Q1025=
202112210120 METAR ESMX 210120Z AUTO 30005KT 9999 -SN SCT027/// OVC035/// M04/M05 Q1025=
202112210050 METAR ESMX 210050Z AUTO 30004KT 9999 OVC037/// M05/M06 Q1025=
202112210020 METAR ESMX 210020Z AUTO 30003KT 9999 OVC039/// M05/M06 Q1025=
202112202350 METAR ESMX 202350Z AUTO 29003KT 9999 OVC039/// M06/M06 Q1025=
202112202320 METAR ESMX 202320Z AUTO 28003KT 9999 OVC040/// M06/M06 Q1025=
202112202250 METAR ESMX 202250Z AUTO 33003KT 9999 SCT039/// M05/M06 Q1025=
202112202220 METAR ESMX 202220Z AUTO 36004KT 9999 NCD M06/M07 Q1025=
202112202150 METAR ESMX 202150Z AUTO 02003KT 9999 NCD M04/M06 Q1025=
202112202120 METAR ESMX 202120Z AUTO 02006KT 9999 NCD M04/M06 Q1025=
202112202050 METAR ESMX 202050Z 02008KT CAVOK M03/M06 Q1025=
202112202020 METAR ESMX 202020Z 02008KT CAVOK M03/M06 Q1026=
202112201950 METAR ESMX 201950Z 02006KT CAVOK M02/M06 Q1025=
202112201920 METAR ESMX 201920Z 01006KT CAVOK M02/M06 Q1025=
202112201850 METAR ESMX 201850Z 02006KT 9999 OVC066 M01/M06 Q1025=
202112201820 METAR ESMX 201820Z 36006KT CAVOK M02/M05 Q1025=
202112201750 METAR ESMX 201750Z 35007KT CAVOK M01/M06 Q1025=
202112201720 METAR ESMX 201720Z 34005KT 9999 FEW035 M02/M06 Q1025=
202112201650 METAR ESMX 201650Z 35004KT 9999 FEW030 M02/M06 Q1025=
202112201620 METAR ESMX 201620Z 35006KT 9999 BKN040 M01/M06 Q1025=
202112201550 METAR ESMX 201550Z 34004KT 9999 BKN045 M01/M05 Q1025=
202112201520 METAR ESMX 201520Z 36004KT 9999 BKN042 M01/M06 Q1024=
202112201450 METAR ESMX 201450Z 35005KT 9999 BKN040 M01/M05 Q1024=
202112201420 METAR ESMX 201420Z 36006KT 9999 BKN039 M01/M05 Q1024=
202112201350 METAR ESMX 201350Z 35007KT 9999 BKN036 M00/M05 Q1024=
202112201320 METAR ESMX 201320Z 36008KT 9999 BKN042 M00/M05 Q1024=
202112201250 METAR ESMX 201250Z 01007KT 9999 BKN032 00/M05 Q1024=
202112201220 METAR ESMX 201220Z 34008KT 9999 BKN029 00/M05 Q1024=
202112201150 METAR ESMX 201150Z 34007KT 9999 BKN030 00/M04 Q1023=
202112201120 METAR ESMX 201120Z 36007KT 9999 BKN031 00/M04 Q1023=
202112201050 METAR COR ESMX 201050Z 01008KT 9999 SCT031 00/M05 Q1023=
202112201020 METAR ESMX 201020Z 02008KT CAVOK M00/M05 Q1023=
202112200950 METAR ESMX 200950Z AUTO 01009KT 9999 NCD M00/M04 Q1023=
202112200920 METAR ESMX 200920Z AUTO 01008KT 9999 NCD M00/M04 Q1023=
202112200850 METAR ESMX 200850Z 02007KT CAVOK M00/M04 Q1022=
202112200820 METAR ESMX 200820Z 02009KT 350V050 9999 FEW030 M00/M04 Q1022=
202112200750 METAR ESMX 200750Z 01010KT 9999 BKN028 00/M04 Q1022=
202112200720 METAR ESMX 200720Z 03010KT 9999 BKN023 00/M03 Q1022=
202112200650 METAR ESMX 200650Z 02009KT 9999 BKN022 00/M03 Q1021=
202112200620 METAR ESMX 200620Z AUTO 02011KT 9999 OVC022/// 01/M03 Q1021=
202112200550 METAR ESMX 200550Z AUTO 02011KT 9999 OVC024/// 01/M03 Q1021=
202112200520 METAR ESMX 200520Z AUTO 01012KT 9999 BKN025/// 01/M02 Q1020=
202112200450 METAR ESMX 200450Z AUTO 35011KT 9999 FEW028/// 01/M02 Q1020=
202112200420 METAR ESMX 200420Z AUTO 35010KT 9999 SCT029/// 00/M02 Q1020=
202112200350 METAR ESMX 200350Z AUTO 32007KT 9999 SCT024/// M01/M02 Q1019=
202112200320 METAR ESMX 200320Z AUTO 31006KT 9999 NCD M01/M03 Q1019=
202112200250 METAR ESMX 200250Z AUTO 31007KT 9999 SCT025/// M01/M02 Q1019=
202112200220 METAR ESMX 200220Z AUTO 31007KT 9999 SCT027/// M00/M02 Q1019=
202112200150 METAR ESMX 200150Z AUTO 30007KT 9999 FEW031/// M01/M03 Q1018=
202112200120 METAR ESMX 200120Z AUTO 32007KT 9999 FEW031/// SCT038/// 00/M03 Q1018=
202112200050 METAR ESMX 200050Z AUTO 31008KT 9999 FEW030/// 00/M03 Q1018=
202112200020 METAR ESMX 200020Z AUTO 31009KT 9999 FEW038/// 00/M03 Q1018=
202112192350 METAR ESMX 192350Z AUTO 32010KT 9999 BKN038/// 01/M03 Q1018=
202112192320 METAR ESMX 192320Z AUTO 31011KT 9999 OVC040/// 01/M03 Q1017=
202112192250 METAR ESMX 192250Z AUTO 31010KT 9999 SCT040/// 01/M03 Q1017=
202112192220 METAR ESMX 192220Z AUTO 31010KT 9999 BKN037/// 01/M03 Q1017=
202112192150 METAR ESMX 192150Z AUTO 31008KT 9999 OVC039/// 01/M03 Q1017=
202112192120 METAR ESMX 192120Z AUTO 31009KT 280V340 9999 OVC040/// 01/M04 Q1017=
202112192050 METAR ESMX 192050Z AUTO 31009KT 9999 BKN041/// 00/M04 Q1017=
202112192020 METAR ESMX 192020Z AUTO 31009KT 9999 BKN042/// 00/M04 Q1017=
202112191950 METAR ESMX 191950Z 31010KT 9999 SCT045 01/M04 Q1016=
202112191920 METAR ESMX 191920Z 32011KT CAVOK 01/M04 Q1016=
202112191850 METAR ESMX 191850Z 31010KT 9999 SCT049 01/M04 Q1016=
202112191820 METAR ESMX 191820Z 30011KT CAVOK 00/M04 Q1016=
202112191750 METAR ESMX 191750Z 31010KT CAVOK 00/M04 Q1016=
202112191720 METAR ESMX 191720Z 31010KT CAVOK 00/M04 Q1016=
202112191650 METAR ESMX 191650Z 31010KT CAVOK 00/M04 Q1016=
202112191620 METAR ESMX 191620Z 31010KT CAVOK 01/M04 Q1016=
202112191550 METAR ESMX 191550Z 30009KT CAVOK 01/M03 Q1016=
202112191520 METAR ESMX 191520Z 31010KT CAVOK 01/M03 Q1016=
202112191450 METAR ESMX 191450Z 30010KT CAVOK 01/M03 Q1015=
202112191420 METAR ESMX 191420Z 31010KT CAVOK 02/M03 Q1015=
202112191350 METAR ESMX 191350Z 31009KT CAVOK 02/M03 Q1015=
202112191320 METAR ESMX 191320Z 32011KT CAVOK 03/M03 Q1015=
202112191250 METAR ESMX 191250Z 32012KT CAVOK 03/M03 Q1015=
202112191220 METAR ESMX 191220Z 33012KT CAVOK 03/M02 Q1015=
202112191150 METAR ESMX 191150Z 33012KT CAVOK 03/M02 Q1015=
202112191120 METAR ESMX 191120Z 32011KT CAVOK 03/M02 Q1015=
202112191050 METAR ESMX 191050Z 33013KT CAVOK 03/M02 Q1015=
202112191020 METAR ESMX 191020Z 32011KT CAVOK 03/M01 Q1015=
202112190950 METAR ESMX 190950Z 31008KT CAVOK 02/M01 Q1015=
202112190920 METAR ESMX 190920Z 31008KT CAVOK 03/M00 Q1015=
202112190850 METAR ESMX 190850Z 31007KT CAVOK 02/00 Q1014=
202112190820 METAR ESMX 190820Z 30005KT 280V350 CAVOK 01/00 Q1015=
202112190750 METAR ESMX 190750Z 31003KT CAVOK 00/M00 Q1014=
202112190720 METAR ESMX 190720Z 30004KT CAVOK 00/M00 Q1014=
202112190650 METAR ESMX 190650Z 30005KT CAVOK 01/00 Q1014=
202112190620 METAR ESMX 190620Z 29005KT CAVOK 01/01 Q1014=
202112190550 METAR ESMX 190550Z AUTO 29006KT 9999 NCD 02/01 Q1014=
202112190520 METAR ESMX 190520Z AUTO 29008KT 9999 NCD 02/01 Q1014=
202112190450 METAR ESMX 190450Z AUTO 28008KT 9999 NCD 02/01 Q1014=
202112190420 METAR ESMX 190420Z 27009KT CAVOK 02/01 Q1015=
202112190350 METAR ESMX 190350Z 28007KT CAVOK 02/01 Q1015=
202112190320 METAR ESMX 190320Z 28007KT CAVOK 02/01 Q1015=
202112190250 METAR ESMX 190250Z AUTO 29007KT 9999 NCD 02/02 Q1015=
202112190220 METAR ESMX 190220Z AUTO 30008KT 9999 NCD 02/02 Q1016=
202112190150 METAR ESMX 190150Z AUTO 29008KT 9999 NCD 02/02 Q1016=
202112190120 METAR ESMX 190120Z AUTO 30007KT 9999 NCD 03/02 Q1016=
202112190050 METAR ESMX 190050Z AUTO 30008KT 9999 NCD 02/02 Q1016=
202112190020 METAR ESMX 190020Z AUTO 30007KT 9999 NCD 03/02 Q1016=
202112182350 METAR ESMX 182350Z 30008KT 9999 FEW004 03/03 Q1016=
202112182320 METAR ESMX 182320Z 29009KT 260V320 9999 SCT005 03/03 Q1016=
202112182250 METAR ESMX 182250Z 30010KT 9999 SCT006 03/03 Q1017=
202112182220 METAR ESMX 182220Z 30010KT 9999 BKN005 02/02 Q1017=
202112182150 METAR ESMX 182150Z AUTO 28011KT 9999 OVC004/// 03/03 Q1017=
202112182120 METAR ESMX 182120Z AUTO 26011KT 9999 OVC003/// 03/03 Q1018=
202112182050 METAR ESMX 182050Z AUTO 28008KT 9999 OVC003/// 02/02 Q1018=
202112182020 METAR ESMX 182020Z AUTO 27006KT 9999 OVC003/// 03/03 Q1019=
202112181950 METAR ESMX 181950Z AUTO 28007KT 9999 OVC002/// 03/03 Q1019=
202112181920 METAR ESMX 181920Z AUTO 27007KT 240V300 3400 BR OVC001/// 02/02 Q1019=
202112181850 METAR ESMX 181850Z AUTO 27006KT 230V300 2600 BR OVC001/// 02/02 Q1020=
202112181820 METAR ESMX 181820Z AUTO 26006KT 230V290 1600 BR OVC001/// 02/02 Q1020=
202112181750 METAR ESMX 181750Z AUTO 26006KT 1500 BR OVC001/// 02/02 Q1021=
202112181720 METAR ESMX 181720Z AUTO 26007KT 230V290 1300 R01/P2000N R19/P2000N OVC001/// 02/02 Q1022=
202112181650 METAR ESMX 181650Z AUTO 26008KT 1000 R01/P2000N R19/P2000N OVC001/// 02/02 Q1022=
202112181620 METAR ESMX 181620Z AUTO 27006KT 0550 R01/1400U R19/1600N FG OVC001/// 02/02 Q1023=
202112181550 METAR ESMX 181550Z AUTO 26006KT 0500 R01/1300N R19/1700N FG OVC001/// 02/02 Q1023=
202112181520 METAR ESMX 181520Z AUTO 26006KT 0750 R01/1800N R19/P2000N FG OVC001/// 02/02 Q1024=
202112181450 METAR ESMX 181450Z AUTO 26007KT 0800 R01/1700U R19/1800N FG OVC001/// 02/02 Q1024=
202112181420 METAR ESMX 181420Z AUTO 25006KT 230V290 0600 R01/1200N R19/1300N FG OVC001/// 02/02 Q1024=
202112181350 METAR ESMX 181350Z AUTO 27006KT 0600 R01/1000N R19/1200N FG OVC001/// 02/02 Q1025=
202112181320 METAR ESMX 181320Z AUTO 28007KT 0600 R01/1000N R19/1900N FG OVC001/// 01/01 Q1025=
202112181250 METAR ESMX 181250Z AUTO 28006KT 1000 R01/1300D R19/1700N OVC001/// 01/01 Q1026=
202112181220 METAR ESMX 181220Z AUTO 27007KT 1000 R01/1300D R19/1900N OVC001/// 01/01 Q1026=
202112181150 METAR ESMX 181150Z AUTO 28007KT 2400 OVC001/// 01/01 Q1027=
202112181120 METAR ESMX 181120Z AUTO 26007KT 0700 R01/0900N R19/1800U FG OVC001/// 01/01 Q1027=
202112181050 METAR ESMX 181050Z AUTO 26005KT 1100 R01/1300N R19/1800U BR OVC001/// 01/01 Q1027=
202112181020 METAR ESMX 181020Z AUTO 28005KT 250V320 1100 R01/1700D R19/1700N BR OVC001/// 01/01 Q1028=
202112180950 METAR ESMX 180950Z AUTO 29006KT 1800 BR OVC001/// 01/01 Q1028=
202112180920 METAR ESMX 180920Z AUTO 29007KT 3800 BR OVC001/// 01/01 Q1028=
202112180850 METAR ESMX 180850Z AUTO 29006KT 250V320 1600 BR OVC001/// 01/01 Q1029=
202112180820 METAR ESMX 180820Z AUTO 28004KT 240V320 1900 OVC001/// 01/01 Q1029=
202112180750 METAR ESMX 180750Z AUTO 28006KT 250V330 1900 OVC001/// 01/01 Q1029=
202112180720 METAR ESMX 180720Z AUTO 26007KT 1000 R01/1700U R19/P2000N FG OVC001/// 01/01 Q1029=
202112180650 METAR ESMX 180650Z AUTO 26008KT 0800 R01/P2000N R19/P2000N FG OVC001/// 01/01 Q1029=
202112180620 METAR ESMX 180620Z AUTO 27007KT 1000 R01/P2000N R19/P2000N OVC001/// 01/01 Q1030=
202112180550 METAR ESMX 180550Z AUTO 25007KT 0700 R01/1700N R19/P2000N FG OVC001/// 01/01 Q1030=
202112180520 METAR ESMX 180520Z AUTO 27006KT 1200 R01/P2000N R19/P2000N OVC001/// 01/01 Q1030=
202112180450 METAR ESMX 180450Z AUTO 28005KT 0550 R01/1400U R19/P2000N FG OVC001/// 01/01 Q1030=
202112180420 METAR ESMX 180420Z AUTO 26006KT 0400 R01/1100N R19/1300N FG OVC001/// 01/01 Q1030=
202112180350 METAR ESMX 180350Z AUTO 26005KT 0450 R01/1200N R19/1400N FG OVC001/// 01/01 Q1030=
202112180320 METAR ESMX 180320Z AUTO 27004KT 0900 R01/P2000N R19/P2000N FG OVC001/// 01/01 Q1031=
202112180250 METAR ESMX 180250Z AUTO 26006KT 0600 R01/1700D R19/P2000D FG OVC001/// 00/00 Q1031=
202112180220 METAR ESMX 180220Z AUTO 26005KT 1700 BR OVC001/// 00/00 Q1031=
202112180150 METAR ESMX 180150Z AUTO 25007KT 7000 BR OVC001/// 00/00 Q1031=
202112180120 METAR ESMX 180120Z AUTO 25006KT 8000 BR OVC002/// 00/00 Q1032=
202112180050 METAR ESMX 180050Z AUTO 26006KT 3100 BR OVC001/// M00/M00 Q1032=
202112180020 METAR ESMX 180020Z AUTO 26007KT 3400 BR OVC001/// M00/M00 Q1032=
202112172350 METAR ESMX 172350Z AUTO 25004KT 4300 BR OVC001/// M00/M00 Q1032=
202112172320 METAR ESMX 172320Z AUTO 25004KT 2500 BR OVC001/// M00/M00 Q1032=
202112172250 METAR ESMX 172250Z AUTO VRB03KT 8000 BR OVC001/// M00/M00 Q1032=
202112172220 METAR ESMX 172220Z AUTO 26005KT 7000 BR OVC001/// M00/M00 Q1032=
202112172150 METAR ESMX 172150Z AUTO 22004KT 9999 SCT002/// M00/M00 Q1033=
202112172120 METAR ESMX 172120Z 27004KT CAVOK M00/M00 Q1033=
202112172050 METAR ESMX 172050Z 27004KT CAVOK M00/M00 Q1033=
202112172020 METAR ESMX 172020Z 26003KT CAVOK M00/M00 Q1033=
202112171950 METAR ESMX 171950Z 24004KT CAVOK M01/M01 Q1033=
202112171920 METAR ESMX 171920Z 26004KT 230V300 CAVOK M00/M00 Q1033=
202112171850 METAR ESMX 171850Z 28005KT CAVOK M01/M01 Q1033=
202112171820 METAR ESMX 171820Z VRB03KT CAVOK M01/M01 Q1033=
202112171750 METAR ESMX 171750Z 23002KT CAVOK M00/M00 Q1033=
202112171720 METAR ESMX 171720Z 24003KT CAVOK M01/M01 Q1033=
202112171650 METAR ESMX 171650Z 25004KT CAVOK M01/M01 Q1033=
202112171620 METAR ESMX 171620Z 25004KT CAVOK M01/M01 Q1033=
202112171550 METAR ESMX 171550Z 26003KT CAVOK M00/M00 Q1033=
202112171520 METAR ESMX 171520Z 26003KT CAVOK M01/M01 Q1033=
202112171450 METAR ESMX 171450Z 00000KT CAVOK 00/M01 Q1033=
202112171420 METAR ESMX 171420Z 28004KT CAVOK 02/00 Q1032=
202112171350 METAR ESMX 171350Z 28004KT CAVOK 04/00 Q1032=
202112171320 METAR ESMX 171320Z 28003KT CAVOK 04/01 Q1033=
202112171250 METAR ESMX 171250Z 29003KT CAVOK 04/01 Q1033=
202112171220 METAR ESMX 171220Z 28005KT CAVOK 04/01 Q1033=
202112171150 METAR ESMX 171150Z 27005KT CAVOK 03/01 Q1033=
202112171120 METAR ESMX 171120Z 29006KT CAVOK 03/01 Q1033=
202112171050 METAR ESMX 171050Z 28004KT CAVOK 03/01 Q1033=
202112171020 METAR ESMX 171020Z 27006KT CAVOK 02/00 Q1033=
202112170950 METAR ESMX 170950Z 27006KT CAVOK 01/00 Q1033=
202112170920 METAR COR ESMX 170920Z 27004KT CAVOK 01/M00 Q1033=
202112170850 METAR ESMX 170850Z 25005KT CAVOK M00/M01 Q1032=
202112170820 METAR ESMX 170820Z AUTO 26005KT 9999 NCD M00/M01 Q1032=
202112170750 METAR ESMX 170750Z AUTO 25005KT 9999 NCD M01/M01 Q1032=
202112170720 METAR ESMX 170720Z 25004KT CAVOK M02/M02 Q1032=
202112170650 METAR ESMX 170650Z AUTO 27003KT 9999 NCD M02/M02 Q1031=
202112170620 METAR ESMX 170620Z AUTO 31003KT 9999 NCD M00/M01 Q1031=
202112170550 METAR ESMX 170550Z AUTO 32004KT 9999 NCD M01/M01 Q1031=
202112170520 METAR ESMX 170520Z AUTO 32003KT 9999 NCD 00/M00 Q1031=
202112170450 METAR ESMX 170450Z AUTO 33005KT 9999 NCD 00/M01 Q1030=
202112170420 METAR ESMX 170420Z AUTO 31006KT 9999 NCD 01/M00 Q1030=
202112170350 METAR ESMX 170350Z AUTO 33006KT 9999 NCD 00/M00 Q1030=
202112170320 METAR ESMX 170320Z AUTO 32005KT 9999 NCD 01/00 Q1030=
202112170250 METAR ESMX 170250Z AUTO 33006KT 9999 NCD 01/00 Q1030=
202112170220 METAR ESMX 170220Z AUTO 32005KT 9999 NCD 01/00 Q1030=
202112170150 METAR ESMX 170150Z AUTO 30007KT 9999 NCD 01/01 Q1030=
202112170120 METAR ESMX 170120Z AUTO 31007KT 9999 NCD 02/01 Q1030=
202112170050 METAR ESMX 170050Z AUTO 30007KT 9999 NCD 02/01 Q1030=
202112170020 METAR ESMX 170020Z AUTO 30007KT 9999 NCD 02/01 Q1030=
202112162350 METAR ESMX 162350Z AUTO 30007KT 9999 NCD 02/01 Q1030=
202112162320 METAR ESMX 162320Z AUTO 30006KT 9999 NCD 02/02 Q1030=
202112162250 METAR ESMX 162250Z AUTO 31005KT 9999 FEW003/// 02/02 Q1030=
202112162220 METAR ESMX 162220Z AUTO 29004KT 250V330 9999 FEW003/// 02/02 Q1030=
202112162150 METAR ESMX 162150Z AUTO 27007KT 9999 FEW003/// 02/02 Q1030=
202112162120 METAR ESMX 162120Z AUTO 27009KT 9999 NCD 02/02 Q1030=
202112162050 METAR ESMX 162050Z AUTO 27008KT 9999 NCD 02/02 Q1029=
202112162020 METAR ESMX 162020Z AUTO 27009KT 9999 NCD 03/03 Q1029=
202112161950 METAR ESMX 161950Z AUTO 26008KT 9999 NCD 03/02 Q1029=
202112161920 METAR ESMX 161920Z AUTO 27006KT 9999 NCD 03/03 Q1029=
202112161850 METAR ESMX 161850Z AUTO 26007KT 9999 NCD 03/03 Q1029=
202112161820 METAR ESMX 161820Z AUTO 28007KT 9000 BR NCD 03/03 Q1029=
202112161750 METAR ESMX 161750Z AUTO 27006KT 9000 BR NCD 03/03 Q1029=
202112161720 METAR ESMX 161720Z AUTO 27007KT 9000 BR NCD 03/03 Q1028=
202112161650 METAR ESMX 161650Z AUTO 27007KT 9000 BR NCD 04/04 Q1028=
202112161620 METAR ESMX 161620Z AUTO 27006KT 9000 BR BKN006/// 04/03 Q1028=
202112161550 METAR ESMX 161550Z AUTO 28007KT 9999 NCD 04/04 Q1027=
202112161520 METAR ESMX 161520Z 26007KT 240V300 CAVOK 04/04 Q1027=
202112161450 METAR ESMX 161450Z 28006KT CAVOK 05/04 Q1027=
202112161420 METAR ESMX 161420Z 27006KT CAVOK 05/04 Q1026=
202112161350 METAR ESMX 161350Z 27007KT 240V300 CAVOK 05/04 Q1026=
202112161320 METAR ESMX 161320Z 26008KT 210V280 CAVOK 06/04 Q1026=
202112161250 METAR ESMX 161250Z 27009KT CAVOK 06/04 Q1025=
202112161220 METAR ESMX 161220Z 27010KT CAVOK 06/04 Q1025=
202112161150 METAR ESMX 161150Z 28010KT CAVOK 06/04 Q1025=
202112161120 METAR ESMX 161120Z 28011KT CAVOK 06/04 Q1025=
202112161050 METAR ESMX 161050Z 28012KT 250V320 9999 FEW009 05/04 Q1024=
202112161020 METAR ESMX 161020Z 26013KT 9999 SCT009 05/04 Q1024=
202112160950 METAR ESMX 160950Z 28012KT 9999 BKN010 05/04 Q1024=
202112160920 METAR ESMX 160920Z 28010KT 9999 BKN009 05/04 Q1024=
202112160850 METAR ESMX 160850Z 26009KT 9999 BKN009 04/04 Q1024=
202112160820 METAR ESMX 160820Z 28011KT 9999 BKN009 05/04 Q1023=
202112160750 METAR ESMX 160750Z 27008KT 250V310 9999 BKN009 05/04 Q1024=
202112160720 METAR ESMX 160720Z 27009KT 9999 FEW011 04/04 Q1023=
202112160650 METAR ESMX 160650Z AUTO 27009KT 9999 FEW190/// 04/04 Q1023=
202112160620 METAR ESMX 160620Z AUTO 26009KT 9999 FEW011/// 04/04 Q1022=
202112160550 METAR ESMX 160550Z AUTO 26008KT 9999 FEW011/// 05/04 Q1022=
202112160520 METAR ESMX 160520Z AUTO 26005KT 9999 BKN009/// 05/04 Q1022=
202112160450 METAR ESMX 160450Z AUTO 27006KT 9999 BKN009/// 05/05 Q1022=
202112160420 METAR ESMX 160420Z AUTO 27012KT 9999 BKN011/// 06/05 Q1021=
202112160350 METAR ESMX 160350Z AUTO 27012KT 9999 OVC011/// 06/05 Q1021=
202112160320 METAR ESMX 160320Z AUTO 27011KT 9999 BKN012/// OVC016/// 06/06 Q1021=
202112160250 METAR ESMX 160250Z AUTO 27010KT 9999 BKN011/// OVC015/// 07/06 Q1020=
202112160220 METAR ESMX 160220Z AUTO 25010KT 9999 FEW009/// BKN018/// 06/06 Q1020=
202112160150 METAR ESMX 160150Z AUTO 25010KT 9999 FEW006/// SCT007/// BKN010/// 07/06 Q1020=
202112160120 METAR ESMX 160120Z AUTO 26011KT 4400 BR OVC003/// 07/07 Q1020=
202112160050 METAR ESMX 160050Z AUTO 26012KT 2700 BR OVC002/// 07/07 Q1020=
202112160020 METAR ESMX 160020Z AUTO 25011KT 3500 BR OVC002/// 07/07 Q1019=
202112152350 METAR ESMX 152350Z AUTO 25010KT 2700 BR OVC002/// 07/07 Q1019=
202112152320 METAR ESMX 152320Z AUTO 25011KT 3200 BR OVC002/// 07/07 Q1019=
202112152250 METAR ESMX 152250Z AUTO 26011KT 2700 BR OVC002/// 07/07 Q1019=
202112152220 METAR ESMX 152220Z AUTO 25011KT 4200 BR OVC002/// 07/07 Q1019=
202112152150 METAR ESMX 152150Z AUTO 26013KT 210V280 5000 BR OVC002/// 07/07 Q1019=
202112152120 METAR ESMX 152120Z AUTO 26012KT 6000 BR OVC003/// 07/07 Q1019=
202112152050 METAR ESMX 152050Z AUTO 26013KT 9000 BR OVC003/// 07/07 Q1019=
202112152020 METAR ESMX 152020Z AUTO 25013KT 9999 OVC004/// 07/07 Q1018=
202112151950 METAR ESMX 151950Z AUTO 25013KT 6000 BR OVC003/// 07/07 Q1018=
202112151920 METAR ESMX 151920Z AUTO 25012KT 9999 OVC004/// 07/07 Q1019=
202112151850 METAR ESMX 151850Z AUTO 24012KT 9999 OVC003/// 07/07 Q1018=
202112151820 METAR ESMX 151820Z 23011KT 4000 BR OVC002 07/07 Q1018=
202112151750 METAR ESMX 151750Z 24010KT 5000 OVC002 07/07 Q1019=
202112151720 METAR ESMX 151720Z AUTO 25009KT 220V280 4000 BR OVC002/// 07/07 Q1018=
202112151650 METAR ESMX 151650Z AUTO 23010KT 210V270 2600 BR OVC002/// 06/06 Q1018=
202112151620 METAR ESMX 151620Z AUTO 23011KT 200V260 3500 BR OVC002/// 06/06 Q1018=
202112151550 METAR ESMX 151550Z AUTO 25012KT 220V280 5000 BR OVC002/// 06/06 Q1018=
202112151520 METAR ESMX 151520Z AUTO 26011KT 230V290 4200 BR OVC002/// 06/06 Q1018=
202112151450 METAR ESMX 151450Z 25010KT 2500 BR OVC002 06/06 Q1018=
202112151420 METAR ESMX 151420Z 24010KT 3000 BR OVC002 06/06 Q1018=
202112151350 METAR ESMX 151350Z 25009KT 210V290 3500 OVC002 06/06 Q1018=
202112151320 METAR ESMX 151320Z 25009KT 210V290 5000 OVC002 06/06 Q1017=
202112151250 METAR ESMX 151250Z 25010KT 5000 OVC002 06/06 Q1017=
202112151220 METAR ESMX 151220Z 23010KT 200V260 6000 OVC002 06/06 Q1017=
202112151150 METAR ESMX 151150Z 23009KT 4000 BR OVC002 06/06 Q1017=
202112151120 METAR ESMX 151120Z 25010KT 220V280 6000 OVC002 06/06 Q1017=
202112151050 METAR ESMX 151050Z 24010KT 6000 OVC002 05/05 Q1017=
202112151020 METAR ESMX 151020Z 24010KT 8000 OVC003 06/06 Q1018=
202112150950 METAR ESMX 150950Z 23010KT 8000 OVC002 05/05 Q1018=
202112150920 METAR ESMX 150920Z 23009KT 5000 BR OVC002 05/05 Q1018 REDZ=
202112150850 METAR ESMX 150850Z 22009KT 2000 BR OVC002 05/05 Q1018=
202112150820 METAR ESMX 150820Z 23009KT 3000 BR OVC002 05/05 Q1018=
202112150750 METAR ESMX 150750Z 22009KT 3000 BR OVC002 05/05 Q1018=
202112150720 METAR ESMX 150720Z 22009KT 5000 BR OVC002 05/05 Q1018=
202112150650 METAR ESMX 150650Z AUTO 21010KT 3400 BR OVC002/// 05/05 Q1018=
202112150620 METAR ESMX 150620Z AUTO 23009KT 2400 BR OVC002/// 05/05 Q1017=
202112150550 METAR ESMX 150550Z AUTO 24008KT 6000 BR OVC002/// 05/05 Q1018=
202112150520 METAR ESMX 150520Z AUTO 22008KT 200V260 7000 OVC003/// 05/05 Q1018=
202112150450 METAR ESMX 150450Z AUTO 23008KT 4200 OVC002/// 05/05 Q1017=
202112150420 METAR ESMX 150420Z AUTO 21008KT 1000 R01/1600U R19/P2000N FG OVC001/// 04/04 Q1017=
202112150350 METAR ESMX 150350Z AUTO 20010KT 0600 R01/1500N R19/1800U FG OVC001/// 04/04 Q1017=
202112150320 METAR ESMX 150320Z AUTO 22010KT 0550 R01/1400N R19/1900N FG OVC001/// 04/04 Q1018=
202112150250 METAR ESMX 150250Z AUTO 22009KT 0700 R01/1900D R19/P2000N FG OVC001/// 04/04 Q1018=
202112150220 METAR ESMX 150220Z AUTO 22007KT 3600 BR OVC001/// 03/03 Q1018=
202112150150 METAR ESMX 150150Z AUTO 20009KT 5000 BR OVC002/// 03/03 Q1018=
202112150120 METAR ESMX 150120Z AUTO 20009KT 6000 BR OVC002/// 04/04 Q1018=
202112150050 METAR ESMX 150050Z AUTO 21009KT 7000 BR OVC002/// 04/04 Q1019=
202112150020 METAR ESMX 150020Z AUTO 21010KT 9999 OVC003/// 04/04 Q1019=
202112142350 METAR ESMX 142350Z AUTO 21010KT 9999 OVC005/// 04/04 Q1019=
202112142320 METAR ESMX 142320Z AUTO 23010KT 9999 OVC002/// 04/04 Q1019=
202112142250 METAR ESMX 142250Z AUTO 20009KT 2200 BR OVC001/// 03/03 Q1019=
202112142220 METAR ESMX 142220Z AUTO 22008KT 3100 BR OVC002/// 03/03 Q1020=
202112142150 METAR ESMX 142150Z AUTO 23008KT 3700 BR OVC002/// 03/03 Q1020=
202112142120 METAR ESMX 142120Z AUTO 23008KT 2000 OVC001/// 03/03 Q1020=
202112142050 METAR ESMX 142050Z AUTO 23008KT 1000 R01/P2000N R19/P2000N OVC001/// 03/03 Q1020=
202112142020 METAR ESMX 142020Z AUTO 23008KT 1200 R01/P2000N R19/P2000N BR OVC001/// 03/03 Q1019=
202112141950 METAR ESMX 141950Z AUTO 22007KT 1600 BR OVC002/// 03/03 Q1020=
202112141920 METAR ESMX 141920Z AUTO 24007KT 6000 BR OVC003/// 03/03 Q1020=
202112141850 METAR ESMX 141850Z AUTO 24007KT 9999 OVC004/// 03/03 Q1020=
202112141820 METAR ESMX 141820Z AUTO 23009KT 9999 OVC004/// 03/03 Q1020=
202112141750 METAR ESMX 141750Z AUTO 23008KT 9999 OVC004/// 03/03 Q1020=
202112141720 METAR ESMX 141720Z AUTO 24007KT 9999 BKN005/// OVC006/// 03/03 Q1020=
202112141650 METAR ESMX 141650Z AUTO 25008KT 9999 BKN006/// OVC011/// 03/03 Q1019=
202112141620 METAR ESMX 141620Z AUTO 25007KT 9999 FEW006/// SCT017/// 03/03 Q1019=
202112141550 METAR ESMX 141550Z AUTO 25006KT 9999 BKN014/// OVC018/// 03/03 Q1019=
202112141520 METAR ESMX 141520Z AUTO 25007KT 9999 SCT009/// OVC012/// 03/03 Q1019=
202112141450 METAR ESMX 141450Z 26007KT 230V290 9999 BKN009 03/03 Q1019=
202112141420 METAR ESMX 141420Z 26007KT 9999 SCT006 BKN009 03/03 Q1019=
202112141350 METAR COR ESMX 141350Z 27007KT 230V310 9000 BKN006 03/03 Q1019=
202112141320 METAR ESMX 141320Z 25007KT 8000 BKN005 04/04 Q1018=
202112141250 METAR ESMX 141250Z 26007KT 7000 BKN004 04/04 Q1018=
202112141220 METAR ESMX 141220Z 27007KT 9999 BKN006 04/04 Q1018=
202112141150 METAR COR ESMX 141150Z 26008KT 9999 BKN005 04/04 Q1018=
202112141120 METAR ESMX 141120Z 26009KT 9999 SCT005 BKN007 04/04 Q1018=
202112141050 METAR ESMX 141050Z 25006KT 230V290 9999 BKN017 04/04 Q1018=
202112141020 METAR ESMX 141020Z 25006KT 9999 BKN015 04/04 Q1018=
202112140950 METAR ESMX 140950Z 25006KT 9999 BKN015 03/03 Q1018=
202112140920 METAR ESMX 140920Z 24003KT 9999 FEW028 03/03 Q1018=
202112140850 METAR ESMX 140850Z 24004KT 9999 FEW028 03/03 Q1017=
202112140820 METAR ESMX 140820Z 26003KT 9999 BKN028 04/04 Q1017=
202112140750 METAR ESMX 140750Z 26003KT 9000 -RA BR BKN024 03/03 Q1017=
202112140720 METAR ESMX 140720Z 26002KT 9999 -RA BKN014 04/04 Q1017=
202112140650 METAR ESMX 140650Z AUTO 26003KT 4500 -RA FEW002/// BKN016/// OVC031/// 04/04 Q1017=
202112140620 METAR ESMX 140620Z AUTO 21003KT 0550 R01/1400U R19/1700N -RA BKN001/// OVC005/// 03/03 Q1017=
202112140550 METAR ESMX 140550Z AUTO VRB03KT 0250 R01/0800N R19/0900N -RA SCT001/// BKN003/// OVC005/// 03/03 Q1017=
202112140520 METAR ESMX 140520Z AUTO 20003KT 0200 R01/0700N R19/0750N -RA VV004 04/04 Q1017 REUP=
202112140450 METAR ESMX 140450Z AUTO 17004KT 0200 R01/0650N R19/0650N FG VV004 04/04 Q1017=
202112140420 METAR ESMX 140420Z AUTO 18004KT 0200 R01/0700N R19/0650N FG OVC001/// 04/04 Q1017=
202112140350 METAR ESMX 140350Z AUTO 21004KT 0300 R01/0900N R19/1200D FG OVC001/// 03/03 Q1017=
202112140320 METAR ESMX 140320Z AUTO 20005KT 0200 R01/0700N R19/P2000D FG OVC001/// 04/04 Q1017=
202112140250 METAR ESMX 140250Z AUTO 21006KT 0400 R01/1100U R19/1200U FG OVC001/// 04/04 Q1017=
202112140220 METAR ESMX 140220Z AUTO 21006KT 0400 R01/1100D R19/1300U FG OVC001/// 04/04 Q1018=
202112140150 METAR ESMX 140150Z AUTO 21006KT 0250 R01/0800N R19/1100D FG OVC001/// 04/04 Q1018=
202112140120 METAR ESMX 140120Z AUTO 20006KT 0300 R01/0900N R19/1000N FG OVC001/// 04/04 Q1018=
202112140050 METAR ESMX 140050Z AUTO 20006KT 0250 R01/0750N R19/1100D FG OVC001/// 04/04 Q1018=
202112140020 METAR ESMX 140020Z AUTO 20007KT 0450 R01/1200D R19/1600D FG OVC001/// 04/04 Q1018=
202112132350 METAR ESMX 132350Z AUTO 22007KT 0450 R01/1300N R19/1800U FG OVC001/// 03/03 Q1018=
202112132320 METAR ESMX 132320Z AUTO 19008KT 0350 R01/1200U R19/1000U FG OVC001/// 03/03 Q1019=
202112132250 METAR ESMX 132250Z AUTO 18006KT 0250 R01/0800N R19/0800N FG OVC001/// 03/03 Q1019=
202112132220 METAR ESMX 132220Z AUTO 17005KT 0400 R01/1100N R19/1200N FG OVC001/// 03/03 Q1019=
202112132150 METAR ESMX 132150Z AUTO 17006KT 0550 R01/1500N R19/1400U FG OVC001/// 03/03 Q1019=
202112132120 METAR ESMX 132120Z AUTO 17006KT 1000 R01/P2000N R19/P2000N BR OVC001/// 03/03 Q1019=
202112132050 METAR ESMX 132050Z AUTO 17006KT 0900 R01/P2000N R19/P2000D -RA OVC001/// 03/03 Q1019 REDZ=
202112132020 METAR ESMX 132020Z AUTO 17007KT 2600 OVC002/// 03/03 Q1020 REDZ REUP=
202112131950 METAR ESMX 131950Z AUTO 17006KT 0200 R01/0750N R19/0700N FG VV002 03/03 Q1020=
202112131920 METAR ESMX 131920Z AUTO 18006KT 0200 R01/0650N R19/0650N FG VV002 03/03 Q1020=
202112131850 METAR ESMX 131850Z AUTO 16005KT 0250 R01/0750N R19/0750N FG VV002 02/02 Q1020=
202112131820 METAR ESMX 131820Z AUTO 17005KT 0300 R01/0900N R19/1000N FG BKN001/// OVC002/// 02/02 Q1020=
202112131750 METAR ESMX 131750Z AUTO 17005KT 0600 R01/1600D R19/P2000D FG OVC001/// 02/02 Q1021=
202112131720 METAR ESMX 131720Z AUTO 18005KT 2000 OVC001/// 02/02 Q1021=
202112131650 METAR ESMX 131650Z AUTO 18006KT 1200 R01/P2000N R19/P2000N BR OVC001/// 02/02 Q1021 REDZ=
202112131620 METAR ESMX 131620Z AUTO 16005KT 1200 R01/P2000N R19/P2000N BR OVC001/// 02/02 Q1021=
202112131550 METAR ESMX 131550Z AUTO 16006KT 2100 OVC001/// 02/02 Q1021=
202112131520 METAR ESMX 131520Z AUTO 16005KT 1900 OVC001/// 02/02 Q1021 REDZ REUP=
202112131450 METAR ESMX 131450Z 16005KT 0900 R01/1900U R19/1900N FG BKN002 02/02 Q1021=
202112131420 METAR ESMX 131420Z 17006KT 0550 R01/1000N R19/1200N FG BKN002 02/02 Q1021=
202112131350 METAR ESMX 131350Z 17005KT 0550 R01/0900N R19/1000N FG BKN002 02/02 Q1021=
202112131320 METAR ESMX 131320Z 17005KT 0800 R01/1100N R19/1300U FG BKN002 02/02 Q1021=
202112131250 METAR ESMX 131250Z 17005KT 0550 R01/0800N R19/0900N FG VV002 02/02 Q1021=
202112131220 METAR ESMX 131220Z 17005KT 0600 R01/0900N R19/0800N FG VV002 02/02 Q1022=
202112131150 METAR ESMX 131150Z 17005KT 0500 R01/0800N R19/0750N FG VV002 02/02 Q1022=
202112131120 METAR ESMX 131120Z 17005KT 0500 R01/0750N R19/0800N FG BKN002 02/02 Q1022=
202112131050 METAR ESMX 131050Z 16004KT 0600 R01/0800N R19/0900N FG BKN001 01/01 Q1022=
202112131020 METAR ESMX 131020Z 15005KT 0550 R01/0750N R19/0900N FG BKN001 01/01 Q1022=
202112130950 METAR ESMX 130950Z 14004KT 0250 R01/0450N R19/0600N FG BKN002 01/01 Q1022=
202112130920 METAR ESMX 130920Z 16004KT 0200 R01/0450N R19/0450N FG VV002 01/01 Q1022=
202112130850 METAR ESMX 130850Z 14004KT 0150 R01/0375N R19/0450N FG VV002 01/01 Q1022=
202112130820 METAR ESMX 130820Z 15004KT 0150 R01/0400N R19/0400N FG VV002 01/01 Q1022=
202112130750 METAR ESMX 130750Z 15004KT 0150 R01/0400N R19/0500N FG VV002 01/01 Q1022=
202112130720 METAR ESMX 130720Z 15004KT 0200 R01/0550N R19/0650N FG VV002 01/01 Q1022=
202112130650 METAR ESMX 130650Z 14004KT 0200 R01/0700N R19/0750N FG VV002 01/01 Q1022=
202112130620 METAR ESMX 130620Z AUTO 14003KT 0350 R01/1000D R19/1200N FG OVC001/// 01/01 Q1021=
202112130550 METAR ESMX 130550Z AUTO 14002KT 0400 R01/1200N R19/1300N FG OVC001/// 01/01 Q1021=
202112130520 METAR ESMX 130520Z AUTO 14003KT 0750 R01/1700U R19/1700N FG OVC001/// 01/01 Q1021=
202112130450 METAR ESMX 130450Z AUTO 14003KT 0400 R01/1100N R19/1500D FG OVC001/// 01/01 Q1021=
202112130420 METAR ESMX 130420Z AUTO 14003KT 0650 R01/1600D R19/P2000N FG OVC001/// 01/01 Q1021=
202112130350 METAR ESMX 130350Z AUTO 19004KT 0800 R01/1900U R19/P2000N FG OVC001/// 01/01 Q1021=
202112130320 METAR ESMX 130320Z AUTO 16002KT 0600 R01/1600N R19/1600D FG OVC001/// 01/01 Q1021=
202112130250 METAR ESMX 130250Z AUTO 20003KT 0600 R01/1500U R19/1600U FG BKN001/// OVC004/// 00/00 Q1021=
202112130220 METAR ESMX 130220Z AUTO VRB01KT 0350 R01/1000N R19/1600D FG OVC001/// 00/00 Q1021 REDZ=
202112130150 METAR ESMX 130150Z AUTO 00000KT 1700 BR OVC001/// 00/00 Q1021=
202112130120 METAR ESMX 130120Z AUTO VRB02KT 2100 OVC001/// 00/00 Q1021 REUP=
202112130050 METAR ESMX 130050Z AUTO VRB02KT 1900 OVC001/// 00/00 Q1021=
202112130020 METAR ESMX 130020Z AUTO 01003KT 1000 R01/1600U R19/P2000N FG OVC001/// 00/00 Q1020=
202112122350 METAR ESMX 122350Z AUTO 02002KT 0350 R01/1000N R19/1400U FG OVC001/// 00/00 Q1020=
202112122320 METAR ESMX 122320Z AUTO 00000KT 0400 R01/1200D R19/1500D FG OVC001/// 00/00 Q1020=
202112122250 METAR ESMX 122250Z AUTO 00000KT 0550 R01/1500D R19/P2000N FG OVC001/// 00/00 Q1020=
202112122220 METAR ESMX 122220Z AUTO VRB02KT 0500 R01/1300D R19/1800U FG BKN001/// OVC003/// 00/00 Q1020=
202112122150 METAR ESMX 122150Z AUTO VRB01KT 0300 R01/0900N R19/1000N FG BKN001/// OVC003/// 00/00 Q1020=
202112122120 METAR ESMX 122120Z AUTO 00000KT 0450 R01/1200N R19/1300D FG BKN001/// OVC003/// 00/00 Q1020=
202112122050 METAR ESMX 122050Z AUTO 00000KT 0550 R01/1500D R19/1700D FG OVC001/// 00/00 Q1019=
202112122020 METAR ESMX 122020Z AUTO VRB02KT 0600 R01/1500U R19/1900N FG OVC001/// 00/00 Q1019=
202112121950 METAR ESMX 121950Z AUTO VRB02KT 0400 R01/1200N R19/1200U FG BKN001/// OVC002/// 00/00 Q1019=
202112121920 METAR ESMX 121920Z AUTO 20002KT 0450 R01/1300N R19/1200N FG BKN001/// OVC003/// 00/00 Q1019 REUP RESHUP=
202112121850 METAR ESMX 121850Z AUTO 20002KT 0450 R01/1200N R19/1400D FG OVC001/// 00/00 Q1019=
202112121820 METAR ESMX 121820Z AUTO 20003KT 0500 R01/1300D R19/1600D FG OVC001/// 00/00 Q1019 REFZUP=
202112121750 METAR ESMX 121750Z AUTO 20002KT 0800 R01/P2000N R19/1800N FZUP OVC001/// M00/M00 Q1019=
202112121720 METAR ESMX 121720Z AUTO 20002KT 0500 R01/1300D R19/1600D FZFG OVC001/// M00/M00 Q1019=
202112121650 METAR ESMX 121650Z AUTO VRB02KT 0750 R01/1800N R19/P2000N FZFG OVC001/// M00/M00 Q1019=
202112121620 METAR ESMX 121620Z AUTO 20002KT 0750 R01/1600U R19/P2000N -SN OVC001/// M00/M00 Q1018 RESHUP=
202112121550 METAR ESMX 121550Z AUTO 20002KT 0450 R01/1200N R19/P2000N FZFG BKN001/// OVC002/// M00/M00 Q1018 RESHUP=
202112121520 METAR ESMX 121520Z AUTO 20003KT 0650 R01/1800D R19/1600N FZFG SCT001/// OVC002/// M00/M00 Q1018 RESHUP REFZUP=
202112121450 METAR ESMX 121450Z AUTO 20003KT 0400 R01/1000N R19/1400N FZUP OVC001/// M00/M00 Q1018=
202112121420 METAR ESMX 121420Z AUTO 22002KT 0700 R01/1200N R19/P2000N FZFG OVC001/// M00/M00 Q1018=
202112121350 METAR ESMX 121350Z AUTO 22002KT 1000 R01/1300U R19/P2000N FZFG OVC001/// M00/M00 Q1018=
202112121320 METAR ESMX 121320Z AUTO VRB02KT 2000 OVC001/// M01/M01 Q1018=
202112121250 METAR ESMX 121250Z AUTO 17002KT 1100 R01/1000N R19/P2000N FZFG OVC002/// M01/M01 Q1018=
202112121220 METAR ESMX 121220Z AUTO 00000KT 0550 R01/1200U R19/P2000N FZFG OVC002/// M01/M01 Q1018=
202112121150 METAR ESMX 121150Z AUTO 21003KT 0900 R01/1100N R19/P2000N BCFG OVC001/// M01/M01 Q1018=
202112121120 METAR ESMX 121120Z AUTO 22003KT 0700 R01/1000U R19/1400N FZFG OVC001/// M01/M01 Q1018=
202112121050 METAR ESMX 121050Z AUTO 22003KT 1100 R01/1400N R19/P2000N OVC001/// M01/M01 Q1018=
202112121020 METAR ESMX 121020Z AUTO 22004KT 1700 R01/1400U R19/1700U OVC001/// M01/M01 Q1018=
202112120950 METAR ESMX 120950Z AUTO 23001KT 0550 R01/0900N R19/0800N FZFG OVC001/// M02/M02 Q1018=
202112120920 METAR ESMX 120920Z AUTO 00000KT 0600 R01/0900N R19/1100D FZFG OVC001/// M02/M02 Q1018=
202112120850 METAR ESMX 120850Z AUTO VRB01KT 0300 R01/0550N R19/0600N FZFG BKN001/// OVC003/// M02/M02 Q1018=
202112120820 METAR ESMX 120820Z AUTO 00000KT 0250 R01/0550N R19/0500N FZFG BKN001/// OVC002/// M02/M02 Q1018=
202112120750 METAR ESMX 120750Z AUTO 22002KT 0250 R01/0550N R19/0650N FZFG BKN001/// OVC002/// M02/M02 Q1018=
202112120720 METAR ESMX 120720Z AUTO VRB01KT 0150 R01/0450N R19/0600N FZFG OVC001/// M03/M03 Q1018=
202112120650 METAR ESMX 120650Z AUTO VRB01KT 0250 R01/0800N R19/1000D FZFG VV001 M02/M02 Q1017=
202112120620 METAR ESMX 120620Z AUTO VRB02KT 0150 R01/0600N R19/0800N FZFG BKN001/// OVC002/// M02/M02 Q1017=
202112120550 METAR ESMX 120550Z AUTO VRB02KT 0250 R01/0800N R19/0800N FZFG OVC001/// M02/M02 Q1017=
202112120520 METAR ESMX 120520Z AUTO 20004KT 0250 R01/0650N R19/1200N FZFG OVC001/// M02/M02 Q1017=
202112120450 METAR ESMX 120450Z AUTO 23004KT 0550 R01/1200U R19/P2000N FZFG OVC001/// M01/M01 Q1017=
202112120420 METAR ESMX 120420Z AUTO 24004KT 0400 R01/1200D R19/P2000N FZFG OVC001/// M01/M01 Q1017=
202112120350 METAR ESMX 120350Z AUTO 25004KT 0600 R01/P2000N R19/P2000N BR OVC001/// M01/M01 Q1016=
202112120320 METAR ESMX 120320Z AUTO 24003KT 6000 BR BKN003/// M01/M01 Q1016=
202112120250 METAR ESMX 120250Z AUTO 26002KT 6000 BR OVC003/// M02/M02 Q1016=
202112120220 METAR ESMX 120220Z AUTO 24003KT 9000 BKN004/// BKN031/// M01/M01 Q1016=
202112120150 METAR ESMX 120150Z AUTO 26002KT 9999 OVC004/// M00/M00 Q1016=
202112120120 METAR ESMX 120120Z AUTO 27003KT 9999 OVC004/// 00/00 Q1016=
202112120050 METAR ESMX 120050Z AUTO 26004KT 8000 BKN002/// OVC003/// 00/00 Q1015 RESHUP=
202112120020 METAR ESMX 120020Z AUTO 25003KT 0400 R01/1100U R19/P2000D FG BKN001/// OVC003/// 00/00 Q1015 REUP=
202112112350 METAR ESMX 112350Z AUTO 12003KT 2400 BR SCT003/// BKN004/// OVC011/// 00/00 Q1015=
202112112320 METAR ESMX 112320Z AUTO 12003KT 1100 R01/P2000N R19/P2000N BR OVC002/// 00/00 Q1015=
202112112250 METAR ESMX 112250Z AUTO 26002KT 1700 BR OVC003/// 00/00 Q1015=
202112112220 METAR ESMX 112220Z AUTO 12002KT 2700 BR OVC003/// 00/00 Q1014=
202112112150 METAR ESMX 112150Z AUTO 00000KT 3200 BR OVC003/// 00/00 Q1014=
202112112120 METAR ESMX 112120Z AUTO 00000KT 4300 BR BKN003/// OVC006/// 00/00 Q1014=
202112112050 METAR ESMX 112050Z AUTO 00000KT 5000 BR OVC003/// 00/00 Q1014=
202112112020 METAR ESMX 112020Z AUTO 00000KT 6000 BR SCT004/// OVC010/// 00/00 Q1013=
202112111950 METAR ESMX 111950Z AUTO 00000KT 9999 SCT005/// OVC010/// 00/00 Q1013=
202112111920 METAR ESMX 111920Z AUTO VRB02KT 9999 OVC012/// 00/00 Q1013=
202112111850 METAR ESMX 111850Z AUTO VRB02KT 9999 BKN012/// OVC015/// 00/00 Q1012 REDZ=
202112111820 METAR ESMX 111820Z AUTO VRB01KT 7000 BR FEW005/// OVC013/// 00/00 Q1012=
202112111750 METAR ESMX 111750Z AUTO 00000KT 9000 BR OVC004/// 00/00 Q1012=
202112111720 METAR ESMX 111720Z AUTO 12001KT 4500 -DZ OVC002/// 00/00 Q1012=
202112111650 METAR ESMX 111650Z AUTO 00000KT 2300 -DZ OVC002/// 00/00 Q1012 REDZ=
202112111620 METAR ESMX 111620Z AUTO 00000KT 4300 -RA OVC003/// 00/00 Q1012=
202112111550 METAR ESMX 111550Z AUTO 13002KT 6000 -DZ OVC003/// 00/00 Q1011=
202112111520 METAR ESMX 111520Z AUTO 16002KT 6000 DZ OVC002/// 01/01 Q1011=
202112111450 METAR ESMX 111450Z AUTO 12003KT 7000 -RA OVC003/// 01/01 Q1010 REDZ=
202112111420 METAR ESMX 111420Z AUTO 12002KT 9000 DZ OVC003/// 01/01 Q1010=
202112111350 METAR ESMX 111350Z AUTO VRB02KT 8000 -RA OVC003/// 01/01 Q1010=
202112111320 METAR ESMX 111320Z AUTO 13002KT 7000 -RA BKN004/// OVC006/// 01/01 Q1010=
202112111250 METAR ESMX 111250Z AUTO 14003KT 2800 -SN BKN003/// OVC005/// 01/01 Q1009=
202112111220 METAR ESMX 111220Z AUTO VRB03KT 4200 -RASN BKN004/// OVC014/// 01/01 Q1009=
202112111150 METAR ESMX 111150Z AUTO 14003KT 4500 DZ BKN005/// OVC007/// 01/01 Q1009=
202112111120 METAR ESMX 111120Z AUTO 13003KT 090V180 5000 -RA BKN004/// OVC008/// 01/01 Q1009=
202112111050 METAR ESMX 111050Z AUTO 13003KT 100V170 4300 -RA OVC004/// 01/01 Q1008=
202112111020 METAR ESMX 111020Z AUTO 13003KT 5000 -RA OVC004/// 01/01 Q1008=
202112110950 METAR ESMX 110950Z AUTO 12003KT 7000 -DZ OVC004/// 01/01 Q1008=
202112110920 METAR ESMX 110920Z AUTO 11002KT 6000 -DZ OVC004/// 01/01 Q1008=
202112110850 METAR ESMX 110850Z AUTO VRB03KT 5000 DZ OVC004/// 00/00 Q1007=
202112110820 METAR ESMX 110820Z AUTO 10003KT 050V150 3600 -RASN OVC004/// 00/00 Q1007=
202112110750 METAR ESMX 110750Z AUTO 10003KT 030V150 3900 -RASN BKN006/// BKN007/// OVC009/// 00/00 Q1007 REUP=
202112110720 METAR ESMX 110720Z AUTO 09003KT 5000 UP FEW006/// BKN012/// OVC028/// 00/00 Q1007=
202112110650 METAR ESMX 110650Z AUTO VRB03KT 6000 UP FEW013/// OVC026/// 00/00 Q1006=
202112110620 METAR ESMX 110620Z AUTO VRB02KT 5000 -RA FEW004/// SCT018/// OVC025/// 00/00 Q1006=
202112110550 METAR ESMX 110550Z AUTO VRB02KT 5000 -RA FEW004/// SCT006/// BKN012/// 00/00 Q1006=
202112110520 METAR ESMX 110520Z AUTO VRB03KT 4000 -DZ OVC004/// 00/00 Q1005 REUP RESHUP=
202112110450 METAR ESMX 110450Z AUTO VRB03KT 4400 -DZ OVC005/// 00/00 Q1005=
202112110420 METAR ESMX 110420Z AUTO VRB03KT 4200 -DZ OVC005/// 00/00 Q1005=
202112110350 METAR ESMX 110350Z AUTO 11003KT 4300 -DZ BKN005/// OVC008/// 00/00 Q1005=
202112110320 METAR ESMX 110320Z AUTO 10002KT 4800 UP FEW005/// SCT007/// BKN009/// 00/00 Q1005=
202112110250 METAR ESMX 110250Z AUTO 08002KT 5000 -DZ FEW005/// BKN015/// OVC022/// 00/00 Q1004=
202112110220 METAR ESMX 110220Z AUTO 12003KT 4800 -DZ BKN006/// BKN017/// OVC030/// 00/00 Q1004=
202112110150 METAR ESMX 110150Z AUTO 11003KT 5000 -DZ SCT005/// OVC028/// 00/00 Q1004 REUP RESHUP REFZRA=
202112110120 METAR ESMX 110120Z AUTO 09003KT 040V140 5000 BR BKN005/// BKN008/// OVC026/// 00/00 Q1004 RESHUP=
202112110050 METAR ESMX 110050Z AUTO 11003KT 4800 UP SCT005/// BKN009/// BKN014/// 00/00 Q1003=
202112110020 METAR ESMX 110020Z AUTO VRB03KT 5000 -DZ FEW006/// SCT018/// OVC025/// 00/00 Q1003=
202112102350 METAR ESMX 102350Z AUTO 08003KT 6000 -DZ FEW010/// SCT017/// BKN022/// 00/00 Q1003=
202112102320 METAR ESMX 102320Z AUTO VRB03KT 6000 -DZ FEW006/// SCT013/// BKN018/// 00/00 Q1003=
202112102250 METAR ESMX 102250Z AUTO 08003KT 5000 UP SCT006/// BKN013/// OVC019/// 00/00 Q1003=
202112102220 METAR ESMX 102220Z AUTO 10003KT 6000 UP FEW005/// OVC021/// 00/M00 Q1002=
202112102150 METAR ESMX 102150Z AUTO VRB03KT 5000 -DZ SCT005/// BKN014/// OVC021/// 00/M00 Q1002 REFZUP RESHUP REFZRA=
202112102120 METAR ESMX 102120Z AUTO VRB03KT 8000 BR FEW008/// OVC017/// M00/M00 Q1002 REFZUP RESHUP=
202112102050 METAR ESMX 102050Z AUTO 08003KT 030V130 7000 BR FEW010/// OVC015/// M00/M00 Q1002 REFZUP=
202112102020 METAR ESMX 102020Z AUTO 09003KT 070V130 9999 OVC014/// M00/M00 Q1002=
202112101950 METAR ESMX 101950Z AUTO VRB04KT 9999 FEW009/// OVC013/// 00/M00 Q1001=
202112101920 METAR ESMX 101920Z AUTO 12004KT 9999 OVC007/// 00/M00 Q1001=
202112101850 METAR ESMX 101850Z AUTO 12004KT 070V140 9999 FEW005/// OVC007/// 00/M00 Q1001=
202112101820 METAR ESMX 101820Z 11003KT 030V190 6000 BKN006 00/M00 Q1000=
202112101750 METAR ESMX 101750Z 12004KT 070V160 9999 BKN007 00/M00 Q1000=
202112101720 METAR ESMX 101720Z 12004KT 070V170 9999 BKN005 00/M00 Q1000=
202112101650 METAR ESMX 101650Z 11004KT 060V150 9999 BKN006 M00/M00 Q0999=
202112101620 METAR ESMX 101620Z 10003KT 060V150 9999 BKN007 M00/M00 Q0999=
202112101550 METAR ESMX 101550Z 10003KT 5000 -SN BKN007 M00/M00 Q0999=
202112101520 METAR ESMX 101520Z 09003KT 030V140 6000 -SG FEW005 BKN006 M00/M00 Q0999=
202112101450 METAR ESMX 101450Z 07004KT 040V100 9999 BKN007 M00/M00 Q0998=
202112101420 METAR ESMX 101420Z 07003KT 8000 -SN BKN005 00/00 Q0998=
202112101350 METAR ESMX 101350Z 06003KT 2000 -SN VV006 00/00 Q0998=
202112101320 METAR ESMX 101320Z 06004KT 2000 -SN VV008 00/00 Q0998=
202112101250 METAR ESMX 101250Z 04005KT 2500 -SN VV007 00/00 Q0999=
202112101220 METAR ESMX 101220Z AUTO 04005KT 2100 -SN VV011 00/00 Q0999=
202112101150 METAR ESMX 101150Z 04004KT 3700 -RASN VV009 00/00 Q0999=
202112101120 METAR ESMX 101120Z 05004KT 2500 -SN VV007 00/00 Q0999=
202112101050 METAR ESMX 101050Z 05004KT 3000 -SN BKN004 00/00 Q1000=
202112101020 METAR COR ESMX 101020Z 04005KT 3200 -SN BR BKN002 M00/M00 Q1000=
202112100950 METAR ESMX 100950Z 03005KT 1700 -SN BKN001 OVC006 M00/M00 Q1000=
202112100920 METAR ESMX 100920Z 03004KT 6000 -SN OVC003 M00/M00 Q1001=
202112100850 METAR ESMX 100850Z 01002KT 9999 OVC004 M01/M01 Q1001=
202112100820 METAR ESMX 100820Z 36003KT 9999 OVC004 M01/M01 Q1001=
202112100750 METAR ESMX 100750Z 05002KT 9999 BR OVC005 M01/M01 Q1001=
202112100720 METAR ESMX 100720Z VRB03KT 9000 BR BKN006 M01/M01 Q1001=
202112100650 METAR COR ESMX 100650Z 04003KT 8000 BR FEW009 OVC035 M01/M01 Q1001=
202112100620 METAR ESMX 100620Z AUTO 01002KT 2000 SG FEW007/// SCT015/// OVC036/// M01/M01 Q1001=
202112100550 METAR ESMX 100550Z AUTO VRB02KT 5000 -FZRA VV017 M01/M01 Q1002 REFZUP=
202112100520 METAR ESMX 100520Z AUTO VRB02KT 4700 FZUP ///027 M01/M01 Q1002=
202112100450 METAR ESMX 100450Z AUTO VRB02KT 3300 -SN ///025 M00/M00 Q1002=
202112100420 METAR ESMX 100420Z AUTO 08002KT 2500 -RASN FEW002/// BKN005/// OVC006/// M00/M00 Q1002=
202112100350 METAR ESMX 100350Z AUTO 10002KT 6000 -RASN OVC005/// M00/M00 Q1002=
202112100320 METAR ESMX 100320Z AUTO VRB03KT 3900 -SN OVC004/// M00/M00 Q1002=
202112100250 METAR ESMX 100250Z AUTO VRB03KT 2900 -PL OVC005/// M00/M00 Q1002=
202112100220 METAR ESMX 100220Z AUTO VRB02KT 3400 -RASN OVC004/// M00/M00 Q1003=
202112100150 METAR ESMX 100150Z AUTO 11003KT 2600 -RASN OVC004/// M00/M00 Q1003=
202112100120 METAR ESMX 100120Z AUTO 11003KT 3000 -SN BKN005/// OVC011/// M00/M00 Q1003=
202112100050 METAR ESMX 100050Z AUTO 11004KT 060V190 2300 -SN BKN005/// OVC009/// M00/M00 Q1004=
202112100020 METAR ESMX 100020Z AUTO 12003KT 1900 -SN BKN005/// OVC009/// M00/M00 Q1004=
202112092350 METAR ESMX 092350Z AUTO VRB03KT 1700 -SN BKN001/// BKN009/// OVC012/// M00/M00 Q1004=
202112092320 METAR ESMX 092320Z AUTO 13003KT 1500 -SN OVC002/// M00/M00 Q1004=
202112092250 METAR ESMX 092250Z AUTO 14005KT 100V170 1900 -SN OVC002/// M00/M00 Q1005 RESHUP REUP=
202112092220 METAR ESMX 092220Z AUTO 14006KT 100V180 4200 UP BKN002/// OVC004/// 00/M00 Q1005 REUP RESHUP REFZRA=
202112092150 METAR ESMX 092150Z AUTO 14005KT 080V190 9999 OVC005/// 00/M00 Q1005 RESHUP=
202112092120 METAR ESMX 092120Z AUTO 14006KT 080V170 9999 OVC005/// 00/M00 Q1005=
202112092050 METAR ESMX 092050Z AUTO 13004KT 100V170 4500 -SN OVC004/// 00/00 Q1005=
202112092020 METAR ESMX 092020Z AUTO 13003KT 080V160 4100 -RASN OVC002/// 00/00 Q1005=
202112091950 METAR ESMX 091950Z AUTO 13005KT 090V160 2900 -RASN BKN002/// OVC004/// 00/00 Q1005 RESHUP=
202112091920 METAR ESMX 091920Z AUTO 10004KT 050V150 9999 OVC006/// 00/M00 Q1005 RESHUP=
202112091850 METAR ESMX 091850Z AUTO 07003KT 9999 UP OVC007/// 00/M00 Q1005=
202112091820 METAR ESMX 091820Z AUTO 07004KT 8000 -RASN OVC006/// M00/M00 Q1005=
202112091750 METAR ESMX 091750Z AUTO 06004KT 6000 -RASN OVC006/// 00/M00 Q1006 REUP=
202112091720 METAR ESMX 091720Z AUTO 08003KT 9999 UP OVC008/// 00/M01 Q1006=
202112091650 METAR ESMX 091650Z AUTO 08003KT 9999 OVC009/// 00/M01 Q1007=
202112091620 METAR ESMX 091620Z AUTO 06004KT 9999 OVC009/// 00/M01 Q1007 RESHUP=
202112091550 METAR ESMX 091550Z AUTO 07004KT 9999 OVC010/// 00/M01 Q1007 REUP RESHUP=
202112091520 METAR ESMX 091520Z AUTO 07004KT 040V110 9999 OVC010/// 00/M01 Q1007=
202112091450 METAR ESMX 091450Z 07005KT 040V110 9999 BKN011 00/M01 Q1007=
202112091420 METAR ESMX 091420Z 07004KT 030V110 9999 BKN012 00/M02 Q1007=
202112091350 METAR ESMX 091350Z 07006KT 9999 BKN014 00/M02 Q1007=
202112091320 METAR ESMX 091320Z 10005KT 060V150 9999 BKN015 00/M02 Q1008=
202112091250 METAR ESMX 091250Z 06006KT 020V130 9999 BKN015 00/M02 Q1007=
202112091220 METAR ESMX 091220Z 08004KT 040V130 9999 BKN015 00/M02 Q1008=
202112091150 METAR ESMX 091150Z 06007KT 030V110 9999 BKN015 00/M02 Q1008=
202112091120 METAR ESMX 091120Z 11004KT 070V150 9999 BKN015 00/M02 Q1009=
202112091050 METAR ESMX 091050Z 12004KT 070V150 9999 BKN015 00/M02 Q1009=
202112091020 METAR ESMX 091020Z 10003KT 030V140 9999 FEW017 SCT090 M00/M02 Q1009=
202112090950 METAR ESMX 090950Z VRB05KT CAVOK M00/M03 Q1009=
202112090920 METAR ESMX 090920Z 08005KT 330V120 CAVOK M00/M03 Q1009=
202112090850 METAR ESMX 090850Z 08005KT 040V120 CAVOK M00/M03 Q1009=
202112090820 METAR ESMX 090820Z 08005KT 040V120 9999 SCT049 M00/M03 Q1010=
202112090750 METAR ESMX 090750Z 07004KT 030V110 CAVOK M01/M03 Q1010=
202112090720 METAR ESMX 090720Z 07004KT 030V100 CAVOK M01/M03 Q1010=
202112090650 METAR ESMX 090650Z 08003KT CAVOK M01/M03 Q1010=
202112090620 METAR ESMX 090620Z 09004KT 050V120 CAVOK M01/M03 Q1010=
202112090550 METAR ESMX 090550Z 10003KT 010V180 CAVOK M01/M02 Q1009=
202112090520 METAR ESMX 090520Z 10004KT 050V140 CAVOK M01/M03 Q1009=
202112090450 METAR COR ESMX 090450Z 10005KT 050V140 9999 FEW017 M01/M03 Q1009=
202112090420 METAR ESMX 090420Z AUTO 10005KT 060V150 9999 FEW017/// OVC140/// M01/M02 Q1009=
202112090350 METAR ESMX 090350Z AUTO 10006KT 050V150 9999 FEW016/// OVC140/// M01/M02 Q1009=
202112090320 METAR ESMX 090320Z AUTO VRB06KT 9999 SCT017/// OVC140/// M01/M03 Q1009=
202112090250 METAR ESMX 090250Z AUTO 10005KT 070V140 9999 FEW021/// OVC140/// M01/M03 Q1009=
202112090220 METAR ESMX 090220Z AUTO 09005KT 030V160 9999 OVC130/// M00/M02 Q1009=
202112090150 METAR ESMX 090150Z AUTO 09005KT 040V120 9999 SCT015/// M00/M02 Q1009=
202112090120 METAR ESMX 090120Z AUTO VRB06KT 9999 BKN013/// OVC016/// 00/M01 Q1009=
202112090050 METAR ESMX 090050Z AUTO 09005KT 030V140 9999 OVC011/// 00/M01 Q1009=
202112090020 METAR ESMX 090020Z AUTO 10005KT 010V140 9999 OVC010/// M00/M01 Q1010=
202112082350 METAR ESMX 082350Z AUTO 11004KT 050V130 9999 OVC009/// M00/M01 Q1010=
202112082320 METAR ESMX 082320Z AUTO 11005KT 050V140 9999 OVC009/// M00/M02 Q1010=
202112082250 METAR ESMX 082250Z AUTO 11004KT 050V140 9999 BKN011/// M01/M02 Q1010=
202112082220 METAR ESMX 082220Z AUTO 11004KT 060V130 9999 BKN011/// M01/M02 Q1010=
202112082150 METAR ESMX 082150Z AUTO 10004KT 040V150 9999 SCT014/// BKN018/// OVC044/// M01/M02 Q1010=
202112082120 METAR ESMX 082120Z AUTO 10006KT 050V150 9999 BKN012/// OVC018/// M00/M02 Q1010=
202112082050 METAR ESMX 082050Z AUTO VRB05KT 9999 BKN011/// OVC017/// M00/M02 Q1010=
202112082020 METAR ESMX 082020Z 12007KT 060V170 9999 BKN009 M00/M02 Q1010=
202112081950 METAR ESMX 081950Z 13007KT 070V170 9999 OVC009 M00/M01 Q1010=
202112081920 METAR ESMX 081920Z 12007KT 070V150 9999 OVC008 M00/M01 Q1009=
202112081850 METAR ESMX 081850Z 11008KT 060V150 9999 OVC008 M01/M02 Q1009=
202112081820 METAR ESMX 081820Z 11007KT 060V150 9999 OVC008 M01/M02 Q1009=
202112081750 METAR ESMX 081750Z 13008KT 090V170 9999 OVC008 M01/M02 Q1009=
202112081720 METAR ESMX 081720Z 13007KT 050V180 9999 OVC009 M01/M02 Q1009=
202112081650 METAR ESMX 081650Z 12007KT 080V170 9999 OVC009 M01/M02 Q1009=
202112081620 METAR ESMX 081620Z 11007KT 060V150 9999 OVC010 M01/M02 Q1009=
202112081550 METAR ESMX 081550Z 13006KT 070V160 9999 OVC011 M01/M03 Q1009=
202112081520 METAR ESMX 081520Z 13007KT 070V160 9999 OVC012 M01/M03 Q1009=
202112081450 METAR ESMX 081450Z 12007G18KT 080V170 9999 BKN012 M01/M03 Q1008=
202112081420 METAR ESMX 081420Z 12007KT 080V160 9999 BKN011 M01/M02 Q1008=
202112081350 METAR COR ESMX 081350Z 13008KT 080V160 9999 BKN011 M01/M03 Q1008=
202112081320 METAR ESMX 081320Z 12006KT 070V160 9999 BKN011 M01/M03 Q1008=
202112081250 METAR ESMX 081250Z 11007KT 080V150 9999 BKN011 M01/M02 Q1008=
202112081220 METAR ESMX 081220Z 12007KT 050V150 9999 BKN010 M01/M03 Q1008=
202112081150 METAR ESMX 081150Z 11007KT 060V150 9999 BKN010 M01/M03 Q1009=
202112081120 METAR ESMX 081120Z 12006KT 060V160 9999 BKN011 M01/M03 Q1009=
202112081050 METAR ESMX 081050Z 12008KT 070V170 9999 BKN011 M01/M03 Q1009=
202112081020 METAR ESMX 081020Z 12007KT 080V150 9999 BKN011 M01/M03 Q1009=
202112080950 METAR ESMX 080950Z 11006KT 050V170 9999 BKN011 M01/M03 Q1009=
202112080920 METAR ESMX 080920Z 12008KT 080V160 9999 BKN012 M01/M03 Q1009=
202112080850 METAR ESMX 080850Z 12009KT 070V160 9999 BKN013 M02/M04 Q1009=
202112080820 METAR ESMX 080820Z 11007KT 070V150 9999 BKN013 M02/M04 Q1009=
202112080750 METAR ESMX 080750Z 11008KT 060V140 9999 BKN015 M02/M04 Q1009=
202112080720 METAR ESMX 080720Z 10006KT 060V150 9999 FEW015 BKN019 M02/M04 Q1009=
202112080650 METAR ESMX 080650Z AUTO 11006KT 060V140 9999 OVC022/// M02/M04 Q1009=
202112080620 METAR ESMX 080620Z AUTO 10007KT 060V160 9999 OVC023/// M02/M04 Q1009=
202112080550 METAR ESMX 080550Z AUTO 11007KT 050V160 9999 OVC021/// M02/M04 Q1009=
202112080520 METAR ESMX 080520Z AUTO 11006KT 070V150 9999 OVC020/// M02/M05 Q1009=
202112080450 METAR ESMX 080450Z AUTO 12006KT 060V160 9999 OVC020/// M02/M05 Q1010=
202112080420 METAR ESMX 080420Z AUTO 12006KT 080V170 9999 OVC021/// M02/M05 Q1010=
202112080350 METAR ESMX 080350Z AUTO 11008KT 070V160 9999 OVC022/// M02/M05 Q1010=
202112080320 METAR ESMX 080320Z AUTO 12007KT 070V160 9999 OVC027/// M02/M05 Q1010=
202112080250 METAR ESMX 080250Z AUTO 11006KT 060V150 9999 OVC032/// M02/M05 Q1010=
202112080220 METAR ESMX 080220Z AUTO 10005KT 050V190 9999 OVC029/// M02/M05 Q1011=
202112080150 METAR ESMX 080150Z AUTO 12007KT 050V160 9999 OVC031/// M02/M06 Q1011=
202112080120 METAR ESMX 080120Z AUTO 10006KT 010V160 9999 OVC029/// M02/M05 Q1011=
202112080050 METAR ESMX 080050Z AUTO 11004KT 9999 OVC026/// M02/M04 Q1012=
202112080020 METAR ESMX 080020Z AUTO 12005KT 080V170 9999 OVC028/// M02/M04 Q1012=
202112072350 METAR ESMX 072350Z AUTO 13005KT 070V140 9999 OVC028/// M02/M04 Q1012 RESHUP=
202112072320 METAR ESMX 072320Z AUTO 11004KT 070V170 9999 OVC024/// M03/M04 Q1012 REFZUP=
202112072250 METAR ESMX 072250Z AUTO 12003KT 080V200 9999 BKN021/// OVC032/// M03/M05 Q1012=
202112072220 METAR ESMX 072220Z AUTO 10003KT 050V170 9999 OVC025/// M03/M04 Q1012=
202112072150 METAR ESMX 072150Z AUTO 09003KT 9999 OVC025/// M03/M04 Q1012 REFZUP=
202112072120 METAR ESMX 072120Z AUTO 11002KT 9999 FZUP OVC028/// M03/M05 Q1013=
202112072050 METAR ESMX 072050Z AUTO VRB02KT 9999 OVC031/// M03/M05 Q1013=
202112072020 METAR ESMX 072020Z AUTO 10003KT 060V160 9999 OVC031/// M03/M04 Q1013 RESHUP REFZUP REFZRA=
202112071950 METAR ESMX 071950Z AUTO 12003KT 9999 OVC031/// M03/M04 Q1013 RESHUP=
202112071920 METAR ESMX 071920Z AUTO 13004KT 060V190 9999 FZUP OVC029/// M03/M04 Q1013 REFZUP=
202112071850 METAR ESMX 071850Z AUTO 11004KT 060V150 9999 FZUP OVC030/// M03/M05 Q1014=
202112071820 METAR ESMX 071820Z AUTO 12003KT 060V190 9999 -FZDZ OVC026/// M03/M05 Q1014=
202112071750 METAR ESMX 071750Z AUTO VRB03KT 9999 -FZDZ OVC027/// M03/M05 Q1014=
202112071720 METAR ESMX 071720Z AUTO 11003KT 040V160 9999 -FZDZ FEW014/// OVC025/// M04/M05 Q1014=
202112071650 METAR ESMX 071650Z AUTO 10003KT 060V120 9999 -FZRA BKN014/// BKN019/// OVC026/// M04/M05 Q1014=
202112071620 METAR ESMX 071620Z AUTO 10003KT 050V170 9999 -FZDZ BKN016/// OVC027/// M04/M06 Q1014=
202112071550 METAR ESMX 071550Z AUTO 09004KT 060V120 9999 -FZDZ SCT018/// BKN021/// OVC027/// M04/M06 Q1014 REFZUP=
202112071520 METAR ESMX 071520Z 10004KT 060V140 9999 -SN BKN019 M04/M06 Q1014=
202112071450 METAR ESMX 071450Z 10004KT 020V150 9999 -SG BKN020 M04/M06 Q1014=
202112071420 METAR COR ESMX 071420Z 09003KT 340V150 9999 -SG BKN020 M04/M07 Q1014=
202112071350 METAR ESMX 071350Z 10003KT 050V130 9999 BKN020 M04/M07 Q1014=
202112071320 METAR ESMX 071320Z 09004KT 030V180 9999 BKN023 M04/M07 Q1014=
202112071250 METAR ESMX 071250Z 09004KT 020V120 9999 -SN OVC023 M04/M07 Q1014=
202112071220 METAR ESMX 071220Z VRB03KT 9999 -SN BKN025 M04/M07 Q1014=
202112071150 METAR ESMX 071150Z 08004KT 030V120 9999 BKN026 M04/M07 Q1014=
202112071120 METAR ESMX 071120Z VRB03KT 9999 BKN026 M04/M07 Q1015=
202112071050 METAR ESMX 071050Z VRB03KT 9999 BKN032 M05/M07 Q1015=
202112071020 METAR ESMX 071020Z 06004KT 9999 BKN037 M05/M07 Q1015=
202112070950 METAR ESMX 070950Z 01004KT 9999 BKN039 M05/M07 Q1015=
202112070920 METAR ESMX 070920Z 06003KT 9999 BKN037 M06/M07 Q1015=
202112070850 METAR ESMX 070850Z VRB02KT 9999 FEW023 BKN034 M06/M07 Q1015=
202112070820 METAR ESMX 070820Z 07003KT 030V140 9999 BKN034 M06/M08 Q1015=
202112070750 METAR ESMX 070750Z 09003KT 9999 BKN036 M07/M08 Q1015=
202112070720 METAR ESMX 070720Z AUTO VRB03KT 9999 OVC037/// M07/M08 Q1015=
202112070650 METAR ESMX 070650Z AUTO VRB02KT 9999 OVC035/// M07/M08 Q1015=
202112070620 METAR ESMX 070620Z 05005KT 9999 BKN034 M07/M08 Q1014=
202112070550 METAR ESMX 070550Z VRB03KT 9999 BKN035 M07/M08 Q1015=
202112070520 METAR ESMX 070520Z VRB03KT 9999 BKN034 M07/M08 Q1014=
202112070450 METAR COR ESMX 070450Z 05004KT 020V100 9999 BKN035 M07/M08 Q1014=
202112070420 METAR ESMX 070420Z AUTO 07003KT 030V090 9999 OVC038/// M08/M08 Q1014=
202112070350 METAR ESMX 070350Z AUTO 06003KT 9999 OVC041/// M08/M08 Q1014=
202112070320 METAR ESMX 070320Z AUTO VRB03KT 9999 FEW028/// OVC041/// M08/M09 Q1015=
202112070250 METAR ESMX 070250Z AUTO 07003KT 9999 OVC042/// M08/M09 Q1015=
202112070220 METAR ESMX 070220Z AUTO 05004KT 020V080 9999 OVC042/// M08/M09 Q1014=
202112070150 METAR ESMX 070150Z AUTO 03004KT 9999 OVC043/// M08/M09 Q1015=
202112070120 METAR ESMX 070120Z AUTO 00000KT 9999 OVC042/// M10/M10 Q1015=
202112070050 METAR ESMX 070050Z AUTO 08001KT 9999 OVC042/// M09/M10 Q1015=
202112070020 METAR ESMX 070020Z AUTO 04003KT 9999 SCT002/// OVC041/// M09/M10 Q1015 REDZ=
202112062350 METAR ESMX 062350Z AUTO 03004KT 010V080 9999 OVC002/// M10/M11 Q1015=
202112062320 METAR ESMX 062320Z AUTO 05004KT 9999 OVC003/// M11/M12 Q1015 RESHUP REDZ=
202112062250 METAR ESMX 062250Z AUTO 03005KT 9999 FEW003/// SCT042/// M11/M12 Q1016=
202112062220 METAR ESMX 062220Z AUTO 02004KT 9999 FEW042/// M12/M13 Q1016 RESG=
202112062150 METAR ESMX 062150Z AUTO 03004KT 9999 BR NCD M12/M13 Q1016=
202112062120 METAR ESMX 062120Z AUTO 04003KT 010V080 9999 NCD M13/M14 Q1016=
202112062050 METAR ESMX 062050Z AUTO 04003KT 9999 NCD M11/M12 Q1016=
202112062020 METAR ESMX 062020Z AUTO 06003KT 9999 NCD M11/M12 Q1016=
202112061950 METAR ESMX 061950Z AUTO 04004KT 9999 NCD M11/M12 Q1016=
202112061920 METAR ESMX 061920Z AUTO 03003KT 9999 NCD M11/M12 Q1017=
202112061850 METAR ESMX 061850Z 03003KT 360V070 CAVOK M12/M13 Q1017=
202112061820 METAR ESMX 061820Z 10002KT CAVOK M12/M13 Q1017=
202112061750 METAR ESMX 061750Z VRB03KT CAVOK M11/M12 Q1017=
202112061720 METAR ESMX 061720Z 05003KT 020V080 CAVOK M12/M13 Q1017=
202112061650 METAR ESMX 061650Z 04004KT CAVOK M11/M12 Q1017=
202112061620 METAR ESMX 061620Z 05003KT CAVOK M11/M12 Q1017=
202112061550 METAR ESMX 061550Z VRB02KT CAVOK M10/M11 Q1017=
202112061520 METAR ESMX 061520Z 06003KT CAVOK M10/M10 Q1018=
202112061450 METAR ESMX 061450Z 04003KT CAVOK M09/M10 Q1018=
202112061420 METAR ESMX 061420Z 03002KT CAVOK M09/M10 Q1018=
202112061350 METAR ESMX 061350Z 03002KT 9999 SCT045 M08/M09 Q1018=
202112061320 METAR ESMX 061320Z 04003KT 9999 SCT042 M07/M09 Q1018=
202112061250 METAR ESMX 061250Z 03004KT 9999 BKN043 M07/M09 Q1018=
202112061220 METAR ESMX 061220Z 02005KT 9999 BKN042 M07/M09 Q1019=
202112061150 METAR ESMX 061150Z 03005KT 9999 BKN043 M07/M09 Q1019=
202112061120 METAR ESMX 061120Z 02004KT 9999 BKN043 M07/M09 Q1019=
202112061050 METAR ESMX 061050Z 02005KT 9999 FEW008 BKN047 M07/M09 Q1019=
202112061020 METAR ESMX 061020Z 02005KT 9999 FEW007 BKN047 M07/M09 Q1019=
202112060950 METAR ESMX 060950Z 01007KT 9999 SCT006 BKN045 M07/M09 Q1019=
202112060920 METAR ESMX 060920Z 02006KT 9999 SCT006 BKN046 M07/M08 Q1020=
202112060850 METAR ESMX 060850Z 02008KT 9999 SCT006 BKN045 M07/M08 Q1020=
202112060820 METAR ESMX 060820Z 36007KT 9999 FEW007 BKN045 M07/M08 Q1020=
202112060750 METAR ESMX 060750Z 01007KT 9999 SCT007 BKN043 M07/M08 Q1020=
202112060720 METAR ESMX 060720Z 03008KT 9999 FEW008 BKN041 M06/M08 Q1019=
202112060650 METAR ESMX 060650Z AUTO 03009KT 9999 FEW008/// OVC041/// M06/M08 Q1019=
202112060620 METAR ESMX 060620Z AUTO 03009KT 9999 BKN008/// BKN045/// M07/M08 Q1019=
202112060550 METAR ESMX 060550Z AUTO 02009KT 9999 OVC008/// M06/M07 Q1019=
202112060520 METAR ESMX 060520Z AUTO 02009KT 9999 OVC008/// M06/M07 Q1019=
202112060450 METAR ESMX 060450Z AUTO 03010KT 9999 -SN OVC008/// M05/M07 Q1019=
202112060420 METAR ESMX 060420Z AUTO 03009KT 9999 -SN OVC008/// M05/M07 Q1019=
202112060350 METAR ESMX 060350Z AUTO 01007KT 9999 -SN BKN008/// OVC044/// M05/M06 Q1019=
202112060320 METAR ESMX 060320Z AUTO 01007KT 9999 -SN FEW008/// OVC046/// M05/M07 Q1019=
202112060250 METAR ESMX 060250Z AUTO 01008KT 9999 -SN SCT009/// OVC047/// M05/M07 Q1019=
202112060220 METAR ESMX 060220Z AUTO 02007KT 9999 -SN SCT009/// OVC027/// M05/M06 Q1019 RESN=
202112060150 METAR ESMX 060150Z AUTO 01006KT 9999 -SN BKN009/// BKN021/// OVC046/// M05/M06 Q1019=
202112060120 METAR ESMX 060120Z AUTO 01007KT 9999 -SN BKN009/// OVC046/// M05/M06 Q1019=
202112060050 METAR ESMX 060050Z AUTO 01008KT 9999 -SN BKN008/// OVC044/// M05/M06 Q1019=
202112060020 METAR ESMX 060020Z AUTO 01010KT 9999 -SN BKN008/// OVC045/// M05/M06 Q1019=
202112052350 METAR ESMX 052350Z AUTO 01008KT 9999 -SN BKN008/// OVC039/// M05/M06 Q1019=
202112052320 METAR ESMX 052320Z AUTO 01009KT 9999 -SN SCT008/// OVC041/// M05/M06 Q1019=
202112052250 METAR ESMX 052250Z AUTO 01009KT 9999 -SN FEW008/// OVC040/// M05/M06 Q1019=
202112052220 METAR ESMX 052220Z AUTO 01009KT 9999 -SN FEW009/// OVC043/// M05/M06 Q1018=
202112052150 METAR ESMX 052150Z AUTO 01010KT 9999 -SN SCT008/// OVC041/// M05/M06 Q1018=
202112052120 METAR ESMX 052120Z AUTO 01009KT 9999 -SN SCT009/// OVC038/// M04/M06 Q1018=
202112052050 METAR ESMX 052050Z AUTO 01010KT 9999 SG OVC009/// M04/M06 Q1018=
202112052020 METAR ESMX 052020Z AUTO 03010KT 9999 -SN OVC009/// M05/M06 Q1018 RESHUP REDZ=
202112051950 METAR ESMX 051950Z AUTO 03010KT 9999 OVC009/// M05/M06 Q1018 RESN=
202112051920 METAR ESMX 051920Z AUTO 03010KT 9999 OVC009/// M05/M06 Q1018=
202112051850 METAR ESMX 051850Z AUTO 02010KT 9999 OVC009/// M05/M06 Q1017=
202112051820 METAR ESMX 051820Z AUTO 02009KT 9999 OVC009/// M05/M06 Q1017=
202112051750 METAR ESMX 051750Z AUTO 03010KT 9999 OVC009/// M05/M06 Q1017=
202112051720 METAR ESMX 051720Z AUTO 03011KT 9999 -SN OVC009/// M04/M06 Q1017=
202112051650 METAR ESMX 051650Z AUTO 03011KT 9999 OVC009/// M04/M06 Q1016=
202112051620 METAR ESMX 051620Z AUTO 03011KT 9999 -SN OVC009/// M04/M06 Q1016=
202112051550 METAR ESMX 051550Z AUTO 03012KT 9999 -SN OVC009/// M04/M05 Q1016=
202112051520 METAR ESMX 051520Z AUTO 03012KT 9999 -SN OVC009/// M04/M05 Q1016=
202112051450 METAR ESMX 051450Z AUTO 04011KT 9999 -SN OVC009/// M04/M05 Q1015=
202112051420 METAR ESMX 051420Z AUTO 03012KT 9999 -SN OVC010/// M04/M05 Q1015=
202112051350 METAR ESMX 051350Z AUTO 03013KT 9999 -SN OVC010/// M03/M05 Q1015=
202112051320 METAR ESMX 051320Z AUTO 03012KT 9999 -SN OVC010/// M03/M05 Q1014 RESN=
202112051250 METAR ESMX 051250Z AUTO 03012KT 360V060 9999 OVC010/// M03/M05 Q1014=
202112051220 METAR ESMX 051220Z AUTO 03012KT 9999 -SN OVC010/// M03/M05 Q1014=
202112051150 METAR ESMX 051150Z AUTO 03014KT 9999 -SN OVC010/// M03/M05 Q1014=
202112051120 METAR ESMX 051120Z AUTO 02013KT 9999 -SN OVC010/// M03/M04 Q1013=
202112051050 METAR ESMX 051050Z AUTO 04011KT 9999 -SN OVC010/// M02/M04 Q1013=
202112051020 METAR ESMX 051020Z AUTO 03012KT 9999 -SN OVC011/// M02/M04 Q1013=
202112050950 METAR ESMX 050950Z AUTO 03012KT 010V070 9999 -SN OVC011/// M02/M04 Q1013 RESG REFZUP=
202112050920 METAR ESMX 050920Z AUTO 03012KT 9999 OVC011/// M02/M04 Q1013=
202112050850 METAR ESMX 050850Z AUTO 04010KT 9999 OVC010/// M02/M03 Q1012=
202112050820 METAR ESMX 050820Z AUTO 04009KT 9999 OVC009/// M02/M03 Q1012=
202112050750 METAR ESMX 050750Z AUTO 04012KT 9999 OVC010/// M02/M03 Q1011=
202112050720 METAR ESMX 050720Z AUTO 04011KT 9999 OVC009/// M02/M03 Q1011=
202112050650 METAR ESMX 050650Z AUTO 04011KT 020V080 9999 OVC009/// M02/M03 Q1010=
202112050620 METAR ESMX 050620Z AUTO 03011KT 9999 OVC009/// M02/M03 Q1010=
202112050550 METAR ESMX 050550Z AUTO 04009KT 9999 OVC009/// M02/M03 Q1010=
202112050520 METAR ESMX 050520Z AUTO 04011KT 9999 OVC010/// M02/M03 Q1009=
202112050450 METAR ESMX 050450Z AUTO 04009KT 9999 BKN010/// M02/M03 Q1009=
202112050420 METAR ESMX 050420Z AUTO 05008KT 020V080 9999 BKN009/// BKN012/// OVC015/// M02/M03 Q1009 RESHUP RESG=
202112050350 METAR ESMX 050350Z AUTO 04010KT 9999 SG OVC009/// M02/M03 Q1008 REFZUP=
202112050320 METAR ESMX 050320Z AUTO 04010KT 020V080 9999 OVC010/// M02/M03 Q1008=
202112050250 METAR ESMX 050250Z AUTO 04010KT 020V080 9999 OVC009/// M02/M03 Q1007=
202112050220 METAR ESMX 050220Z AUTO 04012KT 020V080 9999 OVC009/// M02/M03 Q1007=
202112050150 METAR ESMX 050150Z AUTO 03010KT 360V070 9999 OVC009/// M02/M03 Q1007=
202112050120 METAR ESMX 050120Z AUTO 03010KT 9999 BKN009/// BKN010/// M02/M03 Q1007=
202112050050 METAR ESMX 050050Z AUTO 04010KT 9999 BKN009/// M02/M03 Q1007=
202112050020 METAR ESMX 050020Z AUTO 03008KT 9999 SCT008/// M03/M03 Q1007=
202112042350 METAR ESMX 042350Z AUTO 02008KT 9999 FEW009/// M02/M03 Q1006=
202112042320 METAR ESMX 042320Z AUTO 03009KT 9999 NCD M02/M03 Q1006=
202112042250 METAR ESMX 042250Z AUTO 03010KT 9999 NCD M02/M03 Q1006=
202112042220 METAR ESMX 042220Z AUTO 04008KT 9999 NCD M01/M02 Q1006=
202112042150 METAR ESMX 042150Z AUTO 04007KT 010V070 9999 NCD M01/M02 Q1006=
202112042120 METAR ESMX 042120Z AUTO 06007KT 020V080 9999 FEW016/// M01/M02 Q1005=
202112042050 METAR ESMX 042050Z AUTO 06008KT 020V100 9999 BKN015/// M00/M02 Q1005=
202112042020 METAR ESMX 042020Z AUTO 06009KT 030V090 9999 BKN013/// BKN031/// M00/M01 Q1005=
202112041950 METAR ESMX 041950Z AUTO 05007KT 6000 -SN FEW006/// BKN008/// OVC012/// M00/M00 Q1004 RESHUP RESN=
202112041920 METAR ESMX 041920Z AUTO 06008KT 020V100 9999 BKN009/// OVC011/// 00/M01 Q1004=
202112041850 METAR ESMX 041850Z AUTO 05005KT 020V090 9999 BKN007/// OVC011/// M00/M00 Q1004 REUP=
202112041820 METAR ESMX 041820Z AUTO 06007KT 020V080 9999 OVC008/// 00/M01 Q1003=
202112041750 METAR ESMX 041750Z AUTO 05007KT 9999 OVC008/// M00/M01 Q1003 RESG=
202112041720 METAR ESMX 041720Z AUTO 04008KT 9999 SG OVC009/// M00/M01 Q1002 REFZUP=
202112041650 METAR ESMX 041650Z AUTO 05008KT 020V080 9999 OVC009/// M00/M01 Q1002=
202112041620 METAR ESMX 041620Z AUTO 04007KT 9999 OVC009/// M00/M01 Q1002=
202112041550 METAR ESMX 041550Z AUTO 04008KT 9999 OVC010/// M00/M01 Q1002=
202112041520 METAR ESMX 041520Z AUTO 04009KT 9999 BKN010/// OVC027/// M00/M01 Q1001=
202112041450 METAR ESMX 041450Z AUTO 04011KT 9999 OVC009/// 00/M01 Q1001=
202112041420 METAR ESMX 041420Z AUTO 04009KT 9999 OVC009/// 00/M01 Q1001=
202112041350 METAR ESMX 041350Z AUTO 04008KT 010V080 9999 OVC009/// 00/M00 Q1000=
202112041320 METAR ESMX 041320Z AUTO 04009KT 9999 OVC009/// 01/M00 Q1000=
202112041250 METAR ESMX 041250Z AUTO 04007KT 9999 SG OVC009/// 01/M00 Q1000 REDZ=
202112041220 METAR ESMX 041220Z AUTO 04009KT 9999 OVC010/// 01/M00 Q1000 RESG REUP=
202112041150 METAR ESMX 041150Z AUTO 04007KT 020V090 9999 OVC011/// 00/M01 Q0999=
202112041120 METAR ESMX 041120Z AUTO 05009KT 020V090 9999 OVC010/// 00/M01 Q0999=
202112041050 METAR ESMX 041050Z AUTO 06008KT 020V090 9999 OVC010/// 00/M01 Q0999=
202112041020 METAR ESMX 041020Z AUTO 05009KT 020V080 9999 OVC010/// 00/M01 Q0998=
202112040950 METAR ESMX 040950Z AUTO 04008KT 010V080 9999 OVC009/// M00/M01 Q0998 REFZUP=
202112040920 METAR ESMX 040920Z AUTO 05009KT 020V080 9999 FZUP OVC009/// M00/M01 Q0998 RESG=
202112040850 METAR ESMX 040850Z AUTO 05008KT 020V080 9999 -SN BKN009/// OVC059/// M01/M01 Q0998=
202112040820 METAR ESMX 040820Z AUTO 04009KT 9999 -SN BKN009/// BKN018/// OVC051/// M01/M01 Q0997=
202112040750 METAR ESMX 040750Z AUTO 04008KT 4700 -SN ///025 M01/M01 Q0997=
202112040720 METAR ESMX 040720Z AUTO 04009KT 3400 -SN ///020 M01/M01 Q0997=
202112040650 METAR ESMX 040650Z AUTO 04010KT 020V080 8000 -SN SCT009/// OVC028/// M01/M01 Q0996=
202112040620 METAR ESMX 040620Z AUTO 04009KT 9999 -SN BKN009/// BKN023/// OVC053/// M01/M02 Q0996=
202112040550 METAR ESMX 040550Z AUTO 05008KT 010V080 7000 -SN BKN009/// OVC020/// M01/M02 Q0996=
202112040520 METAR ESMX 040520Z AUTO 04009KT 4300 -SN FEW002/// BKN008/// BKN020/// M02/M02 Q0995=
202112040450 METAR ESMX 040450Z AUTO 05009KT 2500 -SN FEW002/// OVC006/// M02/M02 Q0995=
202112040420 METAR ESMX 040420Z AUTO 05008KT 8000 -SN BKN007/// OVC009/// M02/M02 Q0995=
202112040350 METAR ESMX 040350Z AUTO 05008KT 9999 SG BKN006/// BKN011/// OVC014/// M02/M02 Q0995=
202112040320 METAR ESMX 040320Z AUTO 06007KT 020V100 4500 -SN VV016 M02/M02 Q0995=
202112040250 METAR ESMX 040250Z AUTO 06007KT 020V110 1500 -SN VV010 M02/M03 Q0995=
202112040220 METAR ESMX 040220Z AUTO 06006KT 020V090 1600 -SN VV013 M03/M03 Q0995=
202112040150 METAR ESMX 040150Z AUTO 05005KT 010V090 1100 R01/P2000N R19/P2000N -SN VV014 M03/M03 Q0995=
202112040120 METAR ESMX 040120Z AUTO 04006KT 020V080 1500 -SN VV016 M04/M04 Q0995=
202112040050 METAR ESMX 040050Z AUTO 05005KT 020V100 1200 R01/P2000N R19/P2000N -SN VV018 M04/M04 Q0995=
202112040020 METAR ESMX 040020Z AUTO 07005KT 030V100 3500 -SN FEW002/// SCT008/// BKN011/// M04/M04 Q0995=
202112032350 METAR ESMX 032350Z AUTO 06004KT 1600 -SN VV011 M04/M04 Q0996 RESG=
202112032320 METAR ESMX 032320Z AUTO 07004KT 040V110 5000 FZUP OVC008/// M04/M05 Q0996=
202112032250 METAR ESMX 032250Z AUTO 07005KT 2200 -SN BKN009/// OVC014/// M04/M05 Q0996=
202112032220 METAR ESMX 032220Z AUTO 07004KT 1700 -SN SCT002/// OVC019/// M04/M04 Q0997=
202112032150 METAR ESMX 032150Z AUTO 07004KT 1200 R01/P2000N R19/P2000N -SN ///020 M04/M04 Q0997=
202112032120 METAR ESMX 032120Z AUTO 07004KT 030V140 1200 R01/P2000N R19/P2000N -SN VV019 M04/M04 Q0997=
202112032050 METAR ESMX 032050Z AUTO 08004KT 1300 R01/P2000N R19/P2000N -SN ///025 M04/M04 Q0997=
202112032020 METAR ESMX 032020Z AUTO 07003KT 1300 R01/P2000N R19/P2000N -SN VV015 M04/M05 Q0997=
202112031950 METAR ESMX 031950Z AUTO 12003KT 1900 -SN VV018 M05/M05 Q0997=
202112031920 METAR ESMX 031920Z AUTO 09003KT 050V130 3200 -SN FEW003/// SCT019/// OVC036/// M05/M06 Q0998=
202112031850 METAR ESMX 031850Z AUTO 10003KT 9000 -SN BKN012/// OVC035/// M06/M06 Q0998=
202112031820 METAR ESMX 031820Z 09003KT 8000 -SN FEW022 BKN035 M06/M06 Q0998=
202112031750 METAR ESMX 031750Z 09003KT 5000 -SN BKN030 M06/M06 Q0998=
202112031720 METAR COR ESMX 031720Z 09002KT 5000 -SN BKN025 M06/M06 Q0998=
202112031650 METAR ESMX 031650Z VRB03KT 8000 -SN OVC003 M06/M06 Q0998=
202112031620 METAR ESMX 031620Z 11002KT 9999 OVC002 M06/M06 Q0998=
202112031550 METAR ESMX 031550Z 08003KT 9999 BKN003 M05/M06 Q0999=
202112031520 METAR ESMX 031520Z 06002KT 9999 OVC003 M05/M05 Q0999=
202112031450 METAR ESMX 031450Z VRB01KT 9999 BKN003 M05/M05 Q0999=
202112031420 METAR ESMX 031420Z 06002KT 9999 BKN003 M05/M05 Q0999=
202112031350 METAR ESMX 031350Z VRB02KT 9999 BKN004 M05/M05 Q0999=
202112031320 METAR ESMX 031320Z 19002KT 9999 BKN004 M05/M05 Q0999=
202112031250 METAR ESMX 031250Z 00000KT 9999 BKN005 M05/M05 Q0999=
202112031220 METAR ESMX 031220Z 00000KT 9999 BKN004 M05/M06 Q0999=
202112031150 METAR ESMX 031150Z 22001KT 9999 BKN004 M05/M06 Q0999=
202112031120 METAR ESMX 031120Z 00000KT 9999 FEW005 BKN008 M05/M06 Q0999=
202112031050 METAR ESMX 031050Z 00000KT 9999 SCT005 BKN010 M05/M06 Q0999=
202112031020 METAR ESMX 031020Z 00000KT 9999 FEW005 BKN014 M06/M06 Q0999=
202112030950 METAR ESMX 030950Z 00000KT 9999 SCT004 BKN013 M06/M07 Q0999=
202112030920 METAR ESMX 030920Z AUTO 00000KT 9999 SCT003/// BKN015/// OVC023/// M07/M07 Q0999=
202112030850 METAR ESMX 030850Z 00000KT 9999 BKN003 OVC021 M07/M07 Q0999=
202112030820 METAR ESMX 030820Z VRB02KT 9999 OVC002 M08/M08 Q0998=
202112030750 METAR ESMX 030750Z 05002KT 9999 OVC002 M07/M08 Q0998=
202112030720 METAR ESMX 030720Z VRB03KT 8000 BR OVC002 M07/M08 Q0998=
202112030650 METAR ESMX 030650Z AUTO 04003KT 2100 OVC001/// M07/M07 Q0998=
202112030620 METAR ESMX 030620Z AUTO 05003KT 010V070 0300 R01/1300N R19/1600N BCFG SCT001/// OVC002/// M07/M07 Q0997=
202112030550 METAR ESMX 030550Z AUTO VRB02KT 0400 R01/1300N R19/1800N FZFG SCT001/// OVC002/// M07/M07 Q0997=
202112030520 METAR ESMX 030520Z AUTO VRB03KT 0400 R01/1300U R19/1200D FZFG OVC001/// M07/M08 Q0997=
202112030450 METAR ESMX 030450Z AUTO VRB01KT 0250 R01/0600N R19/0750N FZFG VV001 M08/M08 Q0997=
202112030420 METAR ESMX 030420Z AUTO 00000KT 0150 R01/0550N R19/0600N FZFG OVC001/// M08/M08 Q0997=
202112030350 METAR ESMX 030350Z AUTO 00000KT 0150 R01/0600N R19/0600N FZFG BKN001/// OVC003/// M08/M08 Q0997=
202112030320 METAR ESMX 030320Z AUTO 00000KT 0150 R01/0600N R19/0600N FZFG OVC001/// M07/M08 Q0997=
202112030250 METAR ESMX 030250Z AUTO 17003KT 0150 R01/0550N R19/0900N FZFG OVC001/// M07/M07 Q0996=
202112030220 METAR ESMX 030220Z AUTO 17002KT 0250 R01/0700N R19/0900D FZFG OVC001/// M06/M07 Q0996=
202112030150 METAR ESMX 030150Z AUTO 17002KT 0400 R01/P2000N R19/1100N FZFG BKN001/// OVC002/// M06/M07 Q0996=
202112030120 METAR ESMX 030120Z AUTO 17002KT 4200 OVC001/// M06/M06 Q0996=
202112030050 METAR ESMX 030050Z AUTO 17003KT 9999 OVC002/// M06/M06 Q0996=
202112030020 METAR ESMX 030020Z AUTO 17003KT 120V200 9999 OVC003/// M06/M06 Q0996=
202112022350 METAR ESMX 022350Z AUTO VRB02KT 9999 OVC003/// M06/M06 Q0996=
202112022320 METAR ESMX 022320Z AUTO 29002KT 9999 OVC003/// M06/M06 Q0996=
202112022250 METAR ESMX 022250Z AUTO 24004KT 9999 OVC004/// M06/M06 Q0996=
202112022220 METAR ESMX 022220Z AUTO 21001KT 9999 OVC004/// M06/M06 Q0996=
202112022150 METAR ESMX 022150Z AUTO VRB02KT 9999 OVC004/// M06/M07 Q0996=
202112022120 METAR ESMX 022120Z AUTO VRB03KT 9999 OVC004/// M06/M06 Q0996=
202112022050 METAR ESMX 022050Z AUTO 35004KT 300V020 9999 OVC003/// M06/M06 Q0996=
202112022020 METAR ESMX 022020Z AUTO 35004KT 320V040 9999 OVC003/// M06/M07 Q0996=
202112021950 METAR ESMX 021950Z AUTO 31004KT 9999 OVC004/// M07/M07 Q0996=
202112021920 METAR ESMX 021920Z AUTO 32006KT 9999 OVC006/// M07/M07 Q0996=
202112021850 METAR ESMX 021850Z AUTO 31005KT 9999 BKN007/// BKN009/// M08/M09 Q0996=
202112021820 METAR ESMX 021820Z AUTO 30005KT 9999 NCD M06/M07 Q0996=
202112021750 METAR ESMX 021750Z AUTO 31005KT 9999 NCD M05/M06 Q0995=
202112021720 METAR ESMX 021720Z AUTO 30007KT 9999 NCD M05/M06 Q0995=
202112021650 METAR ESMX 021650Z AUTO 30007KT 9999 NCD M05/M06 Q0994=
202112021620 METAR ESMX 021620Z AUTO 30008KT 9999 NCD M04/M05 Q0994=
202112021550 METAR ESMX 021550Z AUTO 30007KT 9999 NCD M04/M05 Q0994=
202112021520 METAR ESMX 021520Z 30007KT CAVOK M03/M04 Q0993=
202112021450 METAR ESMX 021450Z 31007KT CAVOK M02/M04 Q0992=
202112021420 METAR ESMX 021420Z 32010KT 9999 FEW015 M02/M04 Q0992=
202112021350 METAR ESMX 021350Z 33012KT 9999 SCT015 M02/M04 Q0991=
202112021320 METAR ESMX 021320Z 34013KT 9999 SCT017 M02/M04 Q0991=
202112021250 METAR COR ESMX 021250Z 35015KT 9999 BKN018 M02/M04 Q0990=
202112021220 METAR ESMX 021220Z 33015KT 9999 BKN016 M02/M04 Q0989=
202112021150 METAR COR ESMX 021150Z 34016KT 9999 BKN016 M01/M04 Q0989=
202112021120 METAR ESMX 021120Z 34014G26KT 9999 BKN016 M01/M04 Q0988=
202112021050 METAR ESMX 021050Z 34015KT 9999 BKN015 M01/M04 Q0987=
202112021020 METAR ESMX 021020Z 35017KT 9999 SCT016 M01/M03 Q0987=
202112020950 METAR ESMX 020950Z 34018KT 9999 FEW016 BKN035 M01/M03 Q0986=
202112020920 METAR COR ESMX 020920Z 35019KT 9999 BKN016 M01/M03 Q0985=
202112020850 METAR ESMX 020850Z AUTO 35020KT 7000 SG BKN016/// OVC021/// M01/M03 Q0985=
202112020820 METAR ESMX 020820Z 34020KT 9999 BKN013 M01/M03 Q0984=
202112020750 METAR ESMX 020750Z 35021KT 9999 DRSN BKN014 M01/M03 Q0983=
202112020720 METAR COR ESMX 020720Z 35019KT 9999 DRSN BKN014 M01/M03 Q0982=
202112020650 METAR ESMX 020650Z 35021KT 9999 -SN BKN015 M01/M03 Q0981=
202112020620 METAR ESMX 020620Z 35020KT 8000 -SN SCT011 BKN014 M01/M03 Q0981=
202112020550 METAR ESMX 020550Z 35019KT 5000 -SN BKN010 M01/M02 Q0980=
202112020520 METAR ESMX 020520Z 35019KT 4000 -SN BKN011 M01/M02 Q0979=
202112020450 METAR ESMX 020450Z AUTO 35020KT 4000 -SN BKN012/// BKN022/// OVC048/// M01/M02 Q0979=
202112020420 METAR ESMX 020420Z AUTO 36021KT 3700 -SN SCT011/// BKN021/// OVC031/// M01/M02 Q0978=
202112020350 METAR ESMX 020350Z AUTO 01020KT 3600 -SN SCT009/// OVC020/// M01/M02 Q0978=
202112020320 METAR ESMX 020320Z AUTO 01021KT 2000 -SN FEW008/// SCT010/// OVC016/// M01/M02 Q0977=
202112020250 METAR ESMX 020250Z AUTO 01019KT 1800 -SN FEW009/// OVC015/// M01/M01 Q0976=
202112020220 METAR ESMX 020220Z AUTO 01018KT 1100 R01/P2000N R19/P2000N -SN VV014 M01/M01 Q0976=
202112020150 METAR ESMX 020150Z AUTO 01017KT 1000 R01/P2000N R19/P2000N -SN VV013 M01/M01 Q0976=
202112020120 METAR ESMX 020120Z AUTO 01016KT 0800 R01/P2000N R19/P2000N SN FEW001/// OVC011/// M01/M01 Q0976=
202112020050 METAR ESMX 020050Z AUTO 02016KT 1100 R01/P2000N R19/P2000N -SN VV009 M00/M01 Q0975=
202112020020 METAR ESMX 020020Z AUTO 02016G26KT 1200 R01/P2000N R19/P2000N -SN FEW001/// OVC012/// M00/M01 Q0975=
202112012350 METAR ESMX 012350Z AUTO 03017KT 1500 -SN VV014 M00/M01 Q0976=
202112012320 METAR ESMX 012320Z AUTO 03017KT 1900 -SN VV014 M00/M01 Q0976=
202112012250 METAR ESMX 012250Z AUTO 03016KT 1800 -SN FEW002/// OVC013/// M01/M01 Q0976=
202112012220 METAR ESMX 012220Z AUTO 04016KT 1500 -SN SCT002/// OVC014/// M01/M01 Q0976=
202112012150 METAR ESMX 012150Z AUTO 04014KT 1800 -SN BKN001/// OVC014/// M01/M01 Q0977=
202112012120 METAR ESMX 012120Z AUTO 03014KT 1700 -SN SCT002/// OVC017/// M01/M02 Q0977=
202112012050 METAR ESMX 012050Z AUTO 03013KT 3300 -SN FEW008/// OVC017/// M01/M02 Q0978=
202112012020 METAR ESMX 012020Z AUTO 04013KT 3700 -SN FEW001/// SCT009/// OVC017/// M02/M02 Q0978=
202112011950 METAR ESMX 011950Z AUTO 04013KT 0900 R01/P2000N R19/P2000D -SN BKN001/// OVC013/// M02/M02 Q0979=
202112011920 METAR ESMX 011920Z AUTO 04014KT 020V080 1900 -SN VV017 M02/M03 Q0979=
202112011850 METAR ESMX 011850Z 05013KT 2300 -SN VV010 M02/M03 Q0980=
202112011820 METAR COR ESMX 011820Z 05013KT 2000 -SN VV015 M02/M03 Q0980=
202112011750 METAR ESMX 011750Z 05015KT 1200 R01/P2000N SN VV013 M03/M03 Q0981=
202112011720 METAR ESMX 011720Z 06014KT 020V100 1200 R01/P2000N SN VV010 M03/M04 Q0981=
202112011650 METAR COR ESMX 011650Z 05015KT 020V080 0450 R01/0600N +SN VV003 M03/M04 Q0982=
202112011620 METAR ESMX 011620Z 06014G25KT 0800 R01/P1500D SN VV006 M03/M04 Q0983=
202112011550 METAR ESMX 011550Z 06012KT 5000 -SN SCT010 BKN020 M04/M05 Q0984=
202112011520 METAR ESMX 011520Z 06011KT 4000 -SN BKN020 M05/M05 Q0984=
202112011450 METAR ESMX 011450Z 06009KT 020V100 0800 R01/1400D SN VV005 M05/M06 Q0985=
202112011420 METAR COR ESMX 011420Z 06009KT 020V110 1000 R19/1400N SN VV005 M06/M06 Q0986=
202112011350 METAR ESMX 011350Z 07008KT 020V110 1500 SN VV010 M05/M06 Q0987=
202112011320 METAR ESMX 011320Z 07007KT 030V100 0700 R01/1200N R19/1100N SN VV002 M05/M06 Q0987=
202112011250 METAR ESMX 011250Z 08007KT 040V160 2100 -SN VV015 M04/M06 Q0988=
202112011220 METAR ESMX 011220Z 09005KT 050V130 5000 -SN BKN030 M04/M06 Q0989=
