##########################################################
# Query made at 04/19/2024 22:20:03 UTC
# Time interval: from 05/01/2021 12:00  to 05/31/2021 12:59  UTC
##########################################################

##########################################################
# ESMX, Vaxjo (Sweden)
# WMO index: 02641. WIGOS ID: 0-20000-0-02648
# Latitude 56-51N. Longitude 014-50E. Altitude 199 m.
##########################################################

202105311250 METAR ESMX 311250Z 27008KT 230V350 CAVOK 26/08 Q1020=
202105311220 METAR ESMX 311220Z 27009KT 230V330 CAVOK 25/08 Q1020=
202105311150 METAR ESMX 311150Z 27009KT 230V300 CAVOK 26/09 Q1021=
202105311120 METAR ESMX 311120Z 31007KT 260V020 CAVOK 25/09 Q1021=
202105311050 METAR ESMX 311050Z 29007KT 240V340 CAVOK 24/07 Q1021=
202105311020 METAR ESMX 311020Z 28007KT 250V320 CAVOK 24/08 Q1021=
202105310950 METAR ESMX 310950Z 30007KT 260V350 CAVOK 24/08 Q1022=
202105310920 METAR ESMX 310920Z 28006KT 240V330 CAVOK 23/09 Q1022=
202105310850 METAR ESMX 310850Z 31005KT 250V010 CAVOK 22/09 Q1022=
202105310820 METAR ESMX 310820Z 28008KT 250V330 CAVOK 21/10 Q1022=
202105310750 METAR ESMX 310750Z 29006KT 260V330 CAVOK 21/09 Q1023=
202105310720 METAR ESMX 310720Z AUTO 32006KT 270V010 9999 NCD 19/10 Q1023=
202105310650 METAR ESMX 310650Z 16003KT CAVOK 17/09 Q1023=
202105310620 METAR ESMX 310620Z 16003KT CAVOK 15/07 Q1024=
202105310550 METAR ESMX 310550Z AUTO 16003KT 9999 NCD 13/07 Q1024=
202105310520 METAR ESMX 310520Z AUTO 16003KT 9999 NCD 11/06 Q1024=
202105310450 METAR ESMX 310450Z AUTO VRB03KT 9999 NCD 10/06 Q1024=
202105310420 METAR ESMX 310420Z AUTO 00000KT 9999 NCD 09/06 Q1024=
202105310350 METAR ESMX 310350Z AUTO 00000KT 9999 NCD 06/05 Q1024=
202105310320 METAR ESMX 310320Z AUTO 00000KT 9999 NCD 03/03 Q1024=
202105310250 METAR ESMX 310250Z AUTO 00000KT 9999 NCD 04/04 Q1024=
202105310220 METAR ESMX 310220Z AUTO 00000KT 9999 NCD 04/03 Q1025=
202105310150 METAR ESMX 310150Z AUTO 00000KT 9999 NCD 04/04 Q1025=
202105310120 METAR ESMX 310120Z AUTO 16002KT 9999 NCD 05/04 Q1025=
202105310050 METAR ESMX 310050Z AUTO 00000KT 9999 NCD 05/03 Q1025=
202105310020 METAR ESMX 310020Z AUTO 16003KT 9999 NCD 06/04 Q1025=
202105302350 METAR ESMX 302350Z AUTO 16002KT 9999 NCD 07/04 Q1025=
202105302320 METAR ESMX 302320Z AUTO 16002KT 9999 NCD 07/04 Q1025=
202105302250 METAR ESMX 302250Z AUTO 16004KT 9999 NCD 08/04 Q1025=
202105302220 METAR ESMX 302220Z AUTO 16004KT 9999 NCD 10/03 Q1025=
202105302150 METAR ESMX 302150Z AUTO 16005KT 9999 NCD 11/03 Q1026=
202105302120 METAR ESMX 302120Z AUTO 17005KT 9999 NCD 11/03 Q1026=
202105302050 METAR ESMX 302050Z AUTO 17006KT 9999 NCD 12/03 Q1026=
202105302020 METAR ESMX 302020Z AUTO 16006KT 9999 NCD 13/04 Q1026=
202105301950 METAR ESMX 301950Z AUTO 16007KT 9999 NCD 14/04 Q1025=
202105301920 METAR ESMX 301920Z AUTO 17007KT 9999 NCD 15/05 Q1025=
202105301850 METAR ESMX 301850Z AUTO 16009KT 9999 NCD 16/05 Q1025=
202105301820 METAR ESMX 301820Z AUTO 16009KT 9999 NCD 18/06 Q1025=
202105301750 METAR ESMX 301750Z AUTO 17008KT 9999 NCD 19/06 Q1025=
202105301720 METAR ESMX 301720Z AUTO 17010KT 9999 NCD 19/07 Q1025=
202105301650 METAR ESMX 301650Z AUTO VRB03KT 9999 NCD 22/03 Q1025=
202105301620 METAR ESMX 301620Z AUTO VRB03KT 9999 NCD 22/03 Q1025=
202105301550 METAR ESMX 301550Z AUTO 07004KT 030V100 9999 NCD 22/03 Q1025=
202105301520 METAR ESMX 301520Z AUTO 04005KT 360V070 9999 NCD 22/04 Q1026=
202105301450 METAR ESMX 301450Z AUTO 10004KT 030V110 9999 NCD 22/04 Q1026=
202105301420 METAR ESMX 301420Z AUTO 09005KT 040V140 9999 NCD 22/03 Q1026=
202105301350 METAR ESMX 301350Z AUTO 05005KT 020V100 9999 NCD 22/03 Q1026=
202105301320 METAR ESMX 301320Z AUTO 08005KT 350V110 9999 NCD 22/03 Q1027=
202105301250 METAR ESMX 301250Z AUTO 09004KT 020V130 9999 NCD 21/03 Q1027=
202105301220 METAR ESMX 301220Z AUTO 04006KT 350V080 9999 NCD 21/03 Q1027=
202105301150 METAR ESMX 301150Z AUTO 06006KT 010V110 9999 NCD 21/03 Q1027=
202105301120 METAR ESMX 301120Z AUTO 02004KT 320V060 9999 NCD 20/03 Q1027=
202105301050 METAR ESMX 301050Z AUTO 05005KT 340V100 9999 NCD 20/03 Q1027=
202105301020 METAR ESMX 301020Z AUTO 33006KT 290V020 9999 NCD 19/04 Q1028=
202105300950 METAR ESMX 300950Z AUTO 03004KT 360V070 9999 NCD 19/04 Q1028=
202105300920 METAR ESMX 300920Z AUTO 03004KT 310V090 9999 NCD 18/05 Q1028=
202105300850 METAR ESMX 300850Z AUTO 04004KT 350V110 9999 NCD 18/05 Q1028=
202105300820 METAR ESMX 300820Z AUTO 02006KT 340V080 9999 NCD 16/06 Q1028=
202105300750 METAR ESMX 300750Z AUTO 05005KT 010V100 9999 NCD 15/05 Q1028=
202105300720 METAR ESMX 300720Z AUTO 10004KT 050V130 9999 NCD 15/07 Q1028=
202105300650 METAR ESMX 300650Z AUTO 06004KT 010V100 9999 NCD 14/08 Q1028=
202105300620 METAR ESMX 300620Z AUTO 04004KT 360V100 9999 NCD 13/08 Q1027=
202105300550 METAR ESMX 300550Z AUTO 05004KT 9999 NCD 12/08 Q1027=
202105300520 METAR ESMX 300520Z AUTO 16003KT 9999 NCD 12/08 Q1027=
202105300450 METAR ESMX 300450Z AUTO 16002KT 9999 NCD 11/07 Q1027=
202105300420 METAR ESMX 300420Z AUTO 00000KT 9999 NCD 09/07 Q1027=
202105300350 METAR ESMX 300350Z AUTO 00000KT 9999 NCD 06/04 Q1027=
202105300320 METAR ESMX 300320Z AUTO 00000KT 9999 NCD 04/03 Q1027=
202105300250 METAR ESMX 300250Z AUTO 00000KT 9999 NCD 03/02 Q1027=
202105300220 METAR ESMX 300220Z AUTO 00000KT 9999 NCD 03/02 Q1026=
202105300150 METAR ESMX 300150Z AUTO 19003KT 9999 NCD 04/03 Q1026=
202105300120 METAR ESMX 300120Z AUTO 15002KT 9999 NCD 04/04 Q1027=
202105300050 METAR ESMX 300050Z AUTO 00000KT 9999 NCD 05/04 Q1027=
202105300020 METAR ESMX 300020Z AUTO 18002KT 9999 NCD 06/04 Q1027=
202105292350 METAR ESMX 292350Z AUTO 16002KT 9999 NCD 07/03 Q1026=
202105292320 METAR ESMX 292320Z AUTO 16003KT 9999 NCD 07/05 Q1026=
202105292250 METAR ESMX 292250Z AUTO 16003KT 9999 NCD 09/03 Q1026=
202105292220 METAR ESMX 292220Z AUTO 19005KT 9999 NCD 09/03 Q1026=
202105292150 METAR ESMX 292150Z AUTO 16004KT 9999 NCD 10/03 Q1026=
202105292120 METAR ESMX 292120Z AUTO 15005KT 9999 NCD 11/04 Q1026=
202105292050 METAR ESMX 292050Z AUTO 15005KT 9999 NCD 13/03 Q1026=
202105292020 METAR ESMX 292020Z AUTO 14004KT 9999 NCD 13/03 Q1026=
202105291950 METAR ESMX 291950Z AUTO 14005KT 110V170 9999 NCD 14/02 Q1026=
202105291920 METAR ESMX 291920Z AUTO 15004KT 9999 NCD 15/01 Q1025=
202105291850 METAR ESMX 291850Z AUTO 14008KT 110V170 9999 NCD 16/02 Q1025=
202105291820 METAR ESMX 291820Z AUTO VRB02KT 9999 NCD 18/03 Q1024=
202105291750 METAR ESMX 291750Z AUTO 07003KT 9999 NCD 19/03 Q1024=
202105291720 METAR ESMX 291720Z AUTO 10002KT 9999 NCD 19/02 Q1024=
202105291650 METAR ESMX 291650Z AUTO 04005KT 9999 NCD 19/02 Q1024=
202105291620 METAR ESMX 291620Z AUTO 04005KT 010V090 9999 NCD 19/02 Q1024=
202105291550 METAR ESMX 291550Z AUTO 07004KT 020V120 9999 FEW078/// 19/03 Q1024=
202105291520 METAR ESMX 291520Z AUTO 04005KT 290V090 9999 FEW076/// 19/03 Q1024=
202105291450 METAR ESMX 291450Z AUTO 03008KT 360V090 9999 FEW078/// 19/03 Q1024=
202105291420 METAR ESMX 291420Z AUTO 06006KT 020V110 9999 FEW078/// 19/03 Q1024=
202105291350 METAR ESMX 291350Z AUTO 08006KT 040V140 9999 BKN076/// 19/04 Q1023=
202105291320 METAR ESMX 291320Z AUTO 06007KT 010V110 9999 BKN076/// 19/03 Q1023=
202105291250 METAR ESMX 291250Z AUTO 08005KT 020V110 9999 SCT078/// 18/03 Q1023=
202105291220 METAR ESMX 291220Z AUTO 06006KT 010V120 9999 BKN080/// 20/03 Q1023=
202105291150 METAR ESMX 291150Z AUTO 01007KT 9999 BKN080/// 19/03 Q1023=
202105291120 METAR ESMX 291120Z AUTO 04007KT 350V110 9999 SCT080/// 19/03 Q1023=
202105291050 METAR ESMX 291050Z AUTO 04007KT 010V100 9999 BKN080/// 19/03 Q1023=
202105291020 METAR ESMX 291020Z AUTO 01008KT 350V070 9999 FEW080/// 18/02 Q1023=
202105290950 METAR ESMX 290950Z AUTO 04009KT 9999 BKN082/// 18/02 Q1023=
202105290920 METAR ESMX 290920Z AUTO 05008KT 010V100 9999 BKN084/// OVC200/// 18/02 Q1022=
202105290850 METAR ESMX 290850Z AUTO 05008KT 020V110 9999 OVC084/// 18/02 Q1022=
202105290820 METAR ESMX 290820Z AUTO 04009KT 9999 OVC076/// 17/02 Q1022=
202105290750 METAR ESMX 290750Z AUTO 04009KT 9999 OVC078/// 17/02 Q1022=
202105290720 METAR ESMX 290720Z AUTO 04007KT 020V080 9999 SCT078/// 16/04 Q1021=
202105290650 METAR ESMX 290650Z AUTO 05006KT 010V100 9999 NCD 16/07 Q1021=
202105290620 METAR ESMX 290620Z AUTO 02005KT 9999 NCD 14/06 Q1021=
202105290550 METAR ESMX 290550Z AUTO 36004KT 9999 NCD 13/06 Q1021=
202105290520 METAR ESMX 290520Z AUTO 36005KT 9999 FEW084/// 12/05 Q1020=
202105290450 METAR ESMX 290450Z AUTO 33004KT 9999 OVC084/// 10/06 Q1020=
202105290420 METAR ESMX 290420Z AUTO 01003KT 9999 BKN084/// 09/07 Q1020=
202105290350 METAR ESMX 290350Z AUTO 01003KT 9999 OVC084/// 09/06 Q1020=
202105290320 METAR ESMX 290320Z AUTO 33001KT 9999 OVC084/// 08/05 Q1020=
202105290250 METAR ESMX 290250Z AUTO 33002KT 9999 OVC084/// 07/04 Q1020=
202105290220 METAR ESMX 290220Z AUTO 32004KT 9999 OVC082/// 07/04 Q1020=
202105290150 METAR ESMX 290150Z AUTO 32005KT 9999 BKN082/// 05/03 Q1019=
202105290120 METAR ESMX 290120Z AUTO 30003KT 9999 NCD 06/04 Q1019=
202105290050 METAR ESMX 290050Z AUTO 32003KT 9999 NCD 07/05 Q1019=
202105290020 METAR ESMX 290020Z AUTO 33006KT 9999 SCT082/// 07/05 Q1019=
202105282350 METAR ESMX 282350Z AUTO 32003KT 9999 SCT080/// 07/05 Q1019=
202105282320 METAR ESMX 282320Z AUTO 28006KT 9999 BKN080/// 07/05 Q1019=
202105282250 METAR ESMX 282250Z AUTO 28005KT 9999 FEW082/// 07/07 Q1019=
202105282220 METAR ESMX 282220Z AUTO 24002KT 9999 NCD 05/05 Q1019=
202105282150 METAR ESMX 282150Z AUTO 16001KT 9999 NCD 06/05 Q1019=
202105282120 METAR ESMX 282120Z AUTO 16003KT 9999 NCD 07/07 Q1019=
202105282050 METAR ESMX 282050Z AUTO 19004KT 9999 NCD 08/08 Q1018=
202105282020 METAR ESMX 282020Z AUTO 16004KT 9999 NCD 10/08 Q1018=
202105281950 METAR ESMX 281950Z AUTO 15005KT 9999 NCD 11/09 Q1018=
202105281920 METAR ESMX 281920Z AUTO 13006KT 9999 NCD 12/08 Q1018=
202105281850 METAR ESMX 281850Z AUTO 33004KT 9999 -RA NCD 14/03 Q1017=
202105281820 METAR ESMX 281820Z AUTO 33004KT 9999 NCD 16/03 Q1017=
202105281750 METAR ESMX 281750Z AUTO 34006KT 9999 NCD 15/03 Q1017=
202105281720 METAR ESMX 281720Z AUTO 34006KT 9999 FEW064/// 16/03 Q1017=
202105281650 METAR ESMX 281650Z AUTO 31007KT 250V330 9999 BKN064/// OVC088/// 17/03 Q1017=
202105281620 METAR ESMX 281620Z AUTO 02005KT 9999 FEW066/// BKN090/// 16/05 Q1017=
202105281550 METAR ESMX 281550Z AUTO 34006KT 9999 OVC088/// 16/04 Q1017=
202105281520 METAR ESMX 281520Z AUTO 34007KT 9999 OVC082/// 16/03 Q1017=
202105281450 METAR ESMX 281450Z AUTO 31008KT 9999 BKN074/// 17/03 Q1017=
202105281420 METAR ESMX 281420Z AUTO 34008KT 320V020 9999 SCT064/// BKN080/// 17/04 Q1017=
202105281350 METAR ESMX 281350Z 32008KT 280V020 CAVOK 17/04 Q1017=
202105281320 METAR ESMX 281320Z 34009KT CAVOK 16/03 Q1017=
202105281250 METAR ESMX 281250Z 34008KT CAVOK 16/03 Q1017=
202105281220 METAR ESMX 281220Z 35007KT 320V020 CAVOK 16/03 Q1017=
202105281150 METAR ESMX 281150Z 36009KT 330V030 CAVOK 16/02 Q1017=
202105281120 METAR ESMX 281120Z 36009KT 9999 FEW045 BKN078 15/04 Q1017=
202105281050 METAR ESMX 281050Z 33008KT 290V360 9999 FEW045 BKN064 15/04 Q1017=
202105281020 METAR ESMX 281020Z 33011KT 9999 SCT035 BKN066 14/06 Q1017=
202105280950 METAR ESMX 280950Z 32009KT 9999 BKN032 14/07 Q1017=
202105280920 METAR ESMX 280920Z 33010KT 9999 SCT029 BKN062 13/06 Q1017=
202105280850 METAR ESMX 280850Z 34011KT 9999 BKN028 12/07 Q1017=
202105280820 METAR ESMX 280820Z 34009KT 310V010 9999 SCT023 BKN068 12/07 Q1017=
202105280750 METAR ESMX 280750Z 34007KT 320V020 9999 FEW018 BKN068 10/07 Q1017=
202105280720 METAR ESMX 280720Z 33008KT 9999 FEW020 SCT049 BKN074 09/07 Q1017=
202105280650 METAR ESMX 280650Z 33009KT 9999 FEW021 BKN033 09/06 Q1017=
202105280620 METAR ESMX 280620Z 32009KT 290V350 9999 SCT021 BKN045 09/06 Q1017=
202105280550 METAR ESMX 280550Z AUTO 32009KT 9999 FEW017/// BKN021/// OVC080/// 08/05 Q1017=
202105280520 METAR ESMX 280520Z AUTO 31007KT 280V340 9999 SCT017/// OVC080/// 08/05 Q1016=
202105280450 METAR ESMX 280450Z AUTO 33007KT 9999 BKN018/// OVC076/// 08/05 Q1016=
202105280420 METAR ESMX 280420Z AUTO 31006KT 9999 BKN019/// OVC076/// 07/05 Q1016=
202105280350 METAR ESMX 280350Z AUTO 31006KT 9999 BKN029/// OVC078/// 07/05 Q1016=
202105280320 METAR ESMX 280320Z AUTO 30005KT 9999 OVC038/// 06/05 Q1016=
202105280250 METAR ESMX 280250Z AUTO 29004KT 9999 OVC088/// 06/04 Q1015=
202105280220 METAR ESMX 280220Z AUTO 29004KT 9999 FEW045/// OVC088/// 06/04 Q1015=
202105280150 METAR ESMX 280150Z AUTO 28004KT 9999 FEW047/// OVC094/// 06/05 Q1015=
202105280120 METAR ESMX 280120Z AUTO 28005KT 9999 BKN046/// BKN070/// OVC088/// 06/05 Q1015=
202105280050 METAR ESMX 280050Z AUTO 28005KT 9999 BKN062/// OVC094/// 06/05 Q1015=
202105280020 METAR ESMX 280020Z AUTO 27005KT 9999 OVC064/// 06/05 Q1015=
202105272350 METAR ESMX 272350Z AUTO 25004KT 9999 SCT064/// OVC096/// 05/04 Q1015=
202105272320 METAR ESMX 272320Z AUTO 26004KT 9999 BKN064/// OVC096/// 04/04 Q1015=
202105272250 METAR ESMX 272250Z AUTO 24004KT 9999 SCT068/// BKN098/// 04/03 Q1015=
202105272220 METAR ESMX 272220Z AUTO 24003KT 9999 NCD 04/03 Q1015=
202105272150 METAR ESMX 272150Z AUTO 35003KT 9999 NCD 04/03 Q1015=
202105272120 METAR ESMX 272120Z AUTO 35003KT 9999 NCD 04/04 Q1015=
202105272050 METAR ESMX 272050Z AUTO 35002KT 9999 NCD 06/05 Q1014=
202105272020 METAR ESMX 272020Z AUTO 31004KT 280V340 9999 BKN076/// 07/05 Q1014=
202105271950 METAR ESMX 271950Z AUTO 34007KT 9999 FEW036/// OVC074/// 09/05 Q1014=
202105271920 METAR ESMX 271920Z AUTO 36007KT 9999 SCT035/// OVC072/// 09/05 Q1014=
202105271850 METAR ESMX 271850Z AUTO 36007KT 9999 OVC035/// 10/05 Q1014=
202105271820 METAR ESMX 271820Z AUTO 35008KT 9999 BKN038/// OVC096/// 10/05 Q1013=
202105271750 METAR ESMX 271750Z AUTO 35008KT 9999 BKN039/// OVC094/// 10/05 Q1013=
202105271720 METAR ESMX 271720Z AUTO 35010KT 9999 BKN037/// OVC098/// 10/06 Q1013=
202105271650 METAR ESMX 271650Z AUTO 36010KT 9999 FEW041/// OVC098/// 11/05 Q1013=
202105271620 METAR ESMX 271620Z AUTO 36009KT 9999 OVC038/// 11/06 Q1012=
202105271550 METAR ESMX 271550Z AUTO 01008KT 9999 FEW030/// SCT062/// BKN098/// 11/04 Q1012=
202105271520 METAR ESMX 271520Z AUTO 35008KT 9999 FEW034/// BKN051/// OVC096/// 11/05 Q1012=
202105271450 METAR ESMX 271450Z AUTO 35009KT 9999 -DZ FEW025/// BKN041/// OVC064/// 11/06 Q1012=
202105271420 METAR ESMX 271420Z AUTO 35006KT 320V030 9999 OVC026/// 11/06 Q1011=
202105271350 METAR ESMX 271350Z 35007KT 320V020 9999 SCT026 BKN096 11/06 Q1011=
202105271320 METAR ESMX 271320Z 36008KT 9999 SCT026 BKN074 11/06 Q1011=
202105271250 METAR ESMX 271250Z 36009KT 9999 BKN030 11/06 Q1011=
202105271220 METAR ESMX 271220Z 36009KT 9999 BKN029 11/06 Q1010=
202105271150 METAR ESMX 271150Z AUTO 36007KT 9999 BKN027/// OVC036/// 11/05 Q1010=
202105271120 METAR ESMX 271120Z 36008KT 9999 BKN024 11/06 Q1010 RERA=
202105271050 METAR ESMX 271050Z 35008KT 9999 BKN026 11/06 Q1010=
202105271020 METAR ESMX 271020Z 01008KT 9999 -RA BKN021 10/07 Q1009=
202105270950 METAR ESMX 270950Z 01005KT 9999 BKN019 10/07 Q1009=
202105270920 METAR ESMX 270920Z 01007KT 9999 BKN020 10/06 Q1009=
202105270850 METAR ESMX 270850Z 01007KT 9999 FEW014 BKN023 10/07 Q1009=
202105270820 METAR ESMX 270820Z 02009KT 9999 FEW010 BKN013 09/07 Q1008=
202105270750 METAR ESMX 270750Z 27004KT 230V300 9999 BKN015 11/07 Q1008=
202105270720 METAR ESMX 270720Z VRB03KT 9999 FEW013 BKN040 10/07 Q1008=
202105270650 METAR ESMX 270650Z VRB02KT 9999 FEW010 SCT033 BKN042 10/07 Q1008=
202105270620 METAR ESMX 270620Z 29003KT 250V330 9999 FEW012 SCT032 BKN050 09/07 Q1007=
202105270550 METAR ESMX 270550Z AUTO VRB02KT 9999 FEW009/// SCT016/// BKN041/// 09/08 Q1007=
202105270520 METAR ESMX 270520Z AUTO 20002KT 9999 SCT014/// OVC041/// 09/08 Q1007=
202105270450 METAR ESMX 270450Z AUTO 16002KT 9999 SCT013/// OVC041/// 08/07 Q1007=
202105270420 METAR ESMX 270420Z AUTO 20001KT 9999 BKN013/// OVC038/// 08/08 Q1007=
202105270350 METAR ESMX 270350Z AUTO 00000KT 9999 OVC039/// 08/07 Q1007=
202105270320 METAR ESMX 270320Z AUTO 00000KT 9999 OVC039/// 07/07 Q1007=
202105270250 METAR ESMX 270250Z AUTO VRB02KT 9999 OVC040/// 07/07 Q1007=
202105270220 METAR ESMX 270220Z AUTO 23002KT 9999 OVC041/// 07/07 Q1006=
202105270150 METAR ESMX 270150Z AUTO 23003KT 9999 BKN055/// OVC084/// 07/06 Q1006=
202105270120 METAR ESMX 270120Z AUTO 23003KT 9999 FEW028/// OVC080/// 07/06 Q1006=
202105270050 METAR ESMX 270050Z AUTO 23003KT 9999 FEW027/// SCT051/// OVC074/// 07/07 Q1006=
202105270020 METAR ESMX 270020Z AUTO 23003KT 9999 FEW036/// SCT051/// OVC070/// 07/06 Q1006=
202105262350 METAR ESMX 262350Z AUTO 23004KT 9999 SCT059/// OVC070/// 07/06 Q1006=
202105262320 METAR ESMX 262320Z AUTO 23005KT 9999 SCT042/// OVC055/// 08/07 Q1006=
202105262250 METAR ESMX 262250Z AUTO 23005KT 9999 OVC044/// 09/07 Q1006 RESHUP REUP=
202105262220 METAR ESMX 262220Z AUTO 18002KT 9999 BKN049/// 08/07 Q1006=
202105262150 METAR ESMX 262150Z AUTO 23003KT 9999 BKN051/// 08/07 Q1006=
202105262120 METAR ESMX 262120Z AUTO 23003KT 9999 OVC049/// 08/07 Q1006=
202105262050 METAR ESMX 262050Z AUTO 23002KT 9999 OVC051/// 09/07 Q1006=
202105262020 METAR ESMX 262020Z AUTO 21003KT 9999 OVC057/// 08/07 Q1006=
202105261950 METAR ESMX 261950Z AUTO 23004KT 9999 BKN055/// 09/07 Q1006=
202105261920 METAR ESMX 261920Z AUTO 23005KT 9999 BKN055/// 09/07 Q1006=
202105261850 METAR ESMX 261850Z AUTO 24003KT 210V270 9999 NCD 09/06 Q1006=
202105261820 METAR ESMX 261820Z AUTO 24005KT 9999 NCD 10/06 Q1006=
202105261750 METAR ESMX 261750Z AUTO 26006KT 9999 NCD 10/06 Q1005=
202105261720 METAR ESMX 261720Z AUTO 26007KT 9999 FEW053/// 10/06 Q1005=
202105261650 METAR ESMX 261650Z AUTO 26010KT 9999 BKN043/// 11/07 Q1005=
202105261620 METAR ESMX 261620Z AUTO 25007KT 9999 BKN072/// 13/05 Q1005=
202105261550 METAR ESMX 261550Z AUTO 21009KT 190V250 9999 BKN068/// 13/06 Q1005=
202105261520 METAR ESMX 261520Z AUTO 20010KT 160V230 9999 SCT039/// OVC064/// 13/05 Q1005=
202105261450 METAR ESMX 261450Z AUTO 19011KT 160V230 9999 SCT040/// BKN061/// 14/05 Q1005=
202105261420 METAR ESMX 261420Z AUTO 23009KT 190V260 9999 -DZ FEW033/// SCT046/// OVC061/// 13/06 Q1005=
202105261350 METAR ESMX 261350Z 23011KT 9999 BKN057CB 13/05 Q1005=
202105261320 METAR ESMX 261320Z 21011KT 190V250 9999 FEW032 BKN055 13/06 Q1005=
202105261250 METAR ESMX 261250Z 21011KT 9999 FEW037 BKN055 13/06 Q1005=
202105261220 METAR COR ESMX 261220Z 19009KT CAVOK 13/07 Q1005=
202105261150 METAR ESMX 261150Z 18010KT 9999 FEW025 BKN055 12/08 Q1005=
202105261120 METAR ESMX 261120Z 21010KT 9999 FEW017 BKN053 12/09 Q1006=
202105261050 METAR ESMX 261050Z 21011KT 9999 FEW023 BKN034 11/08 Q1006=
202105261020 METAR ESMX 261020Z 20012KT 8000 RA SCT013 BKN023 10/09 Q1006=
202105260950 METAR ESMX 260950Z 18008KT 140V200 9999 FEW002 BKN009 11/09 Q1006=
202105260920 METAR ESMX 260920Z 17007KT 8000 -RA FEW002 BKN013 10/09 Q1006=
202105260850 METAR ESMX 260850Z 17006KT 9999 SCT014 BKN023 10/08 Q1006=
202105260820 METAR COR ESMX 260820Z 17007KT 9999 SCT015 BKN023 10/07 Q1006=
202105260750 METAR COR ESMX 260750Z 16005KT 110V190 9999 SCT013 BKN021 10/07 Q1006=
202105260720 METAR ESMX 260720Z 18006KT 130V190 9999 BKN013 10/07 Q1006=
202105260650 METAR ESMX 260650Z 17007KT 9999 SCT013 BKN019 10/08 Q1006=
202105260620 METAR ESMX 260620Z 17007KT 9999 FEW009 SCT012 BKN021 09/08 Q1006=
202105260550 METAR ESMX 260550Z AUTO 15005KT 110V180 9999 FEW008/// SCT012/// OVC019/// 09/08 Q1006=
202105260520 METAR ESMX 260520Z AUTO 13004KT 080V150 9999 SCT008/// BKN011/// OVC015/// 09/08 Q1006=
202105260450 METAR ESMX 260450Z AUTO 14005KT 9999 OVC008/// 08/08 Q1006=
202105260420 METAR ESMX 260420Z AUTO 13004KT 070V170 9999 SCT005/// BKN008/// OVC011/// 09/08 Q1006=
202105260350 METAR ESMX 260350Z AUTO 16003KT 9000 BR BKN008/// OVC012/// 09/08 Q1006=
202105260320 METAR ESMX 260320Z AUTO 16004KT 120V190 9999 FEW006/// OVC009/// 09/08 Q1006=
202105260250 METAR ESMX 260250Z AUTO 16004KT 6000 BR SCT006/// BKN049/// 08/08 Q1006=
202105260220 METAR ESMX 260220Z AUTO 15004KT 9999 BKN006/// OVC053/// 08/08 Q1006=
202105260150 METAR ESMX 260150Z AUTO 15004KT 9999 SCT005/// BKN007/// BKN037/// 09/09 Q1006=
202105260120 METAR ESMX 260120Z AUTO 16005KT 9999 BKN005/// OVC009/// 09/08 Q1006=
202105260050 METAR ESMX 260050Z AUTO 18004KT 9999 SCT006/// OVC031/// 08/08 Q1006=
202105260020 METAR ESMX 260020Z AUTO 16004KT 9999 BKN005/// OVC051/// 08/08 Q1007=
202105252350 METAR ESMX 252350Z AUTO 18004KT 9999 SCT006/// OVC042/// 08/08 Q1006=
202105252320 METAR ESMX 252320Z AUTO 18004KT 9999 BKN042/// OVC120/// 08/08 Q1006=
202105252250 METAR ESMX 252250Z AUTO 18005KT 9999 SCT018/// BKN043/// 08/08 Q1007=
202105252220 METAR ESMX 252220Z AUTO 17007KT 9999 SCT007/// BKN012/// OVC076/// 08/08 Q1007=
202105252150 METAR ESMX 252150Z AUTO 21005KT 9999 BKN059/// OVC092/// 08/08 Q1007=
202105252120 METAR ESMX 252120Z AUTO 21005KT 9999 -DZ FEW007/// OVC049/// 08/08 Q1007=
202105252050 METAR ESMX 252050Z AUTO 20007KT 9999 DZ FEW006/// SCT008/// BKN010/// 09/09 Q1007=
202105252020 METAR ESMX 252020Z AUTO 19008KT 9999 DZ FEW009/// OVC028/// 09/09 Q1007=
202105251950 METAR ESMX 251950Z AUTO 22009KT 9999 -DZ FEW002/// SCT007/// BKN023/// 09/09 Q1007=
202105251920 METAR ESMX 251920Z AUTO 09004KT 040V150 7000 RA FEW002/// OVC004/// 10/10 Q1006=
202105251850 METAR ESMX 251850Z AUTO 08004KT 9999 -RA BKN006/// OVC008/// 10/10 Q1006=
202105251820 METAR ESMX 251820Z AUTO 10003KT 060V140 9999 -RA BKN007/// OVC016/// 10/10 Q1006 REDZ=
202105251750 METAR ESMX 251750Z AUTO 09004KT 9999 DZ BKN007/// BKN011/// OVC025/// 11/11 Q1006=
202105251720 METAR ESMX 251720Z AUTO 06004KT 020V110 9999 -RA SCT006/// BKN011/// BKN016/// 11/11 Q1006=
202105251650 METAR ESMX 251650Z AUTO 05006KT 9999 RA FEW006/// BKN008/// BKN012/// 11/11 Q1006=
202105251620 METAR ESMX 251620Z AUTO 06006KT 020V080 9999 -RA FEW007/// BKN010/// OVC044/// 11/10 Q1007 REDZ=
202105251550 METAR ESMX 251550Z AUTO 06006KT 020V100 9999 DZ SCT007/// BKN011/// OVC043/// 11/11 Q1007=
202105251520 METAR ESMX 251520Z AUTO 06007KT 9999 -RA BKN009/// OVC037/// 11/11 Q1008=
202105251450 METAR ESMX 251450Z AUTO 05007KT 020V080 9999 -RA SCT009/// BKN022/// OVC045/// 11/11 Q1008=
202105251420 METAR ESMX 251420Z AUTO 06008KT 020V110 9999 -RA FEW012/// SCT027/// BKN038/// 11/11 Q1008=
202105251350 METAR ESMX 251350Z 07009KT 030V110 7000 -DZ BKN022 12/10 Q1008=
202105251320 METAR ESMX 251320Z 07008KT 030V110 9999 -RA BKN024 13/09 Q1008=
202105251250 METAR ESMX 251250Z 06009KT 020V100 9999 BKN025 13/09 Q1009=
202105251220 METAR ESMX 251220Z 07009KT 020V110 9999 BKN025 14/09 Q1009=
202105251150 METAR ESMX 251150Z 05009KT 020V110 9999 FEW013 BKN017 14/10 Q1009=
202105251120 METAR ESMX 251120Z 06006KT 020V100 9999 BKN013 13/11 Q1010=
202105251050 METAR ESMX 251050Z AUTO 07007KT 030V110 9999 BKN012/// BKN016/// 13/10 Q1010=
202105251020 METAR ESMX 251020Z 07008KT 020V110 9999 SCT013 BKN018 13/10 Q1010=
202105250950 METAR COR ESMX 250950Z 08008KT 030V140 9999 BKN017 13/09 Q1010=
202105250920 METAR ESMX 250920Z 08008KT 030V150 9999 BKN020 13/09 Q1010=
202105250850 METAR ESMX 250850Z 06007KT 020V100 9999 BKN038 13/09 Q1010=
202105250820 METAR ESMX 250820Z 06008KT 350V100 9999 BKN048 13/09 Q1010=
202105250750 METAR ESMX 250750Z 05007KT CAVOK 13/09 Q1010=
202105250720 METAR ESMX 250720Z 05007KT 020V090 CAVOK 11/09 Q1010=
202105250650 METAR ESMX 250650Z 04008KT CAVOK 11/09 Q1010=
202105250620 METAR ESMX 250620Z 08006KT 030V110 CAVOK 11/08 Q1011=
202105250550 METAR ESMX 250550Z 05007KT 020V090 CAVOK 11/08 Q1011=
202105250520 METAR ESMX 250520Z AUTO 05007KT 020V110 9999 FEW088/// 11/08 Q1011=
202105250450 METAR ESMX 250450Z AUTO 05006KT 9999 SCT062/// 11/08 Q1011=
202105250420 METAR ESMX 250420Z AUTO 07005KT 030V100 9999 NCD 10/07 Q1011=
202105250350 METAR ESMX 250350Z AUTO 05006KT 020V080 9999 SCT092/// 10/08 Q1011=
202105250320 METAR ESMX 250320Z AUTO 06005KT 9999 OVC090/// 10/08 Q1011=
202105250250 METAR ESMX 250250Z AUTO 07004KT 9999 OVC084/// 10/08 Q1012=
202105250220 METAR ESMX 250220Z AUTO 08004KT 9999 FEW074/// OVC090/// 10/08 Q1012=
202105250150 METAR ESMX 250150Z AUTO 08004KT 050V110 9999 SCT059/// OVC090/// 10/07 Q1012=
202105250120 METAR ESMX 250120Z AUTO 07005KT 020V110 9999 SCT053/// OVC080/// 11/07 Q1012 REDZ=
202105250050 METAR ESMX 250050Z AUTO 09005KT 020V140 9999 FEW066/// OVC088/// 11/06 Q1012=
202105250020 METAR ESMX 250020Z AUTO 09005KT 030V130 9999 OVC090/// 11/05 Q1013=
202105242350 METAR ESMX 242350Z AUTO 09004KT 020V150 9999 OVC094/// 10/05 Q1013=
202105242320 METAR ESMX 242320Z AUTO VRB03KT 9999 SCT098/// 08/05 Q1014=
202105242250 METAR ESMX 242250Z AUTO VRB03KT 9999 NCD 08/04 Q1014=
202105242220 METAR ESMX 242220Z AUTO VRB03KT 9999 NCD 09/05 Q1014=
202105242150 METAR ESMX 242150Z AUTO 12005KT 070V160 9999 NCD 10/05 Q1014=
202105242120 METAR ESMX 242120Z AUTO 13006KT 070V160 9999 NCD 10/05 Q1014=
202105242050 METAR ESMX 242050Z AUTO 13005KT 090V160 9999 NCD 11/05 Q1015=
202105242020 METAR ESMX 242020Z AUTO 13003KT 080V160 9999 NCD 10/05 Q1014=
202105241950 METAR ESMX 241950Z AUTO 16003KT 9999 NCD 10/05 Q1015=
202105241920 METAR ESMX 241920Z AUTO 16003KT 9999 NCD 12/05 Q1015=
202105241850 METAR ESMX 241850Z AUTO 16005KT 9999 NCD 14/04 Q1015=
202105241820 METAR ESMX 241820Z AUTO 16005KT 9999 NCD 15/04 Q1015=
202105241750 METAR ESMX 241750Z AUTO 18008KT 9999 NCD 15/03 Q1014=
202105241720 METAR ESMX 241720Z AUTO 16010KT 9999 SCT120/// 16/03 Q1014=
202105241650 METAR ESMX 241650Z AUTO 17006KT 9999 BKN120/// 16/04 Q1014=
202105241620 METAR ESMX 241620Z AUTO 13003KT 9999 BKN055/// OVC120/// 15/05 Q1014=
202105241550 METAR ESMX 241550Z AUTO 13005KT 9999 OVC064/// 15/05 Q1014=
202105241520 METAR ESMX 241520Z AUTO 15005KT 120V190 9999 OVC064/// 15/05 Q1014=
202105241450 METAR ESMX 241450Z AUTO 16006KT 9999 OVC070/// 16/05 Q1015=
202105241420 METAR ESMX 241420Z AUTO 15006KT 9999 OVC066/// 16/05 Q1015=
202105241350 METAR ESMX 241350Z 18005KT 140V210 CAVOK 16/04 Q1015=
202105241320 METAR ESMX 241320Z 18006KT CAVOK 15/05 Q1015=
202105241250 METAR ESMX 241250Z 18007KT 140V200 CAVOK 16/05 Q1015=
202105241220 METAR ESMX 241220Z 17008KT CAVOK 16/05 Q1015=
202105241150 METAR ESMX 241150Z 21007KT 170V260 9999 SCT047 16/04 Q1015=
202105241120 METAR ESMX 241120Z 19008KT 150V230 9999 SCT047 15/04 Q1015=
202105241050 METAR ESMX 241050Z 18006KT 140V210 9999 SCT047 14/04 Q1015=
202105241020 METAR ESMX 241020Z 19005KT 9999 SCT044 14/05 Q1016=
202105240950 METAR ESMX 240950Z AUTO 21009KT 9999 FEW037/// SCT053/// 13/06 Q1016=
202105240920 METAR ESMX 240920Z 20007KT 9999 SCT035 13/06 Q1016=
202105240850 METAR ESMX 240850Z 19012KT 9999 SCT032 13/06 Q1016=
202105240820 METAR ESMX 240820Z 19011KT 9999 SCT032 13/06 Q1016=
202105240750 METAR ESMX 240750Z 22010KT 9999 BKN029 BKN037 12/06 Q1015=
202105240720 METAR ESMX 240720Z 21010KT 9999 SCT025 BKN035 12/06 Q1015=
202105240650 METAR ESMX 240650Z 23008KT 190V250 9999 SCT020 11/07 Q1015=
202105240620 METAR ESMX 240620Z 23007KT 9999 FEW017 11/07 Q1015=
202105240550 METAR ESMX 240550Z 22006KT 190V250 9999 FEW015 10/07 Q1015=
202105240520 METAR ESMX 240520Z AUTO 20006KT 9999 NCD 09/06 Q1014=
202105240450 METAR ESMX 240450Z AUTO 21007KT 9999 NCD 08/06 Q1014=
202105240420 METAR ESMX 240420Z AUTO 21006KT 9999 NCD 06/06 Q1014=
202105240350 METAR ESMX 240350Z AUTO 21004KT 9999 NCD 05/05 Q1014=
202105240320 METAR ESMX 240320Z AUTO 22005KT 9999 NCD 04/04 Q1014=
202105240250 METAR ESMX 240250Z AUTO 19006KT 9999 NCD 04/04 Q1013=
202105240220 METAR ESMX 240220Z AUTO 22006KT 9999 NCD 05/04 Q1013=
202105240150 METAR ESMX 240150Z AUTO 23006KT 9999 NCD 05/05 Q1013=
202105240120 METAR ESMX 240120Z AUTO 23006KT 9999 FEW046/// 06/05 Q1013=
202105240050 METAR ESMX 240050Z AUTO 24008KT 9999 OVC046/// 07/05 Q1013=
202105240020 METAR ESMX 240020Z AUTO 23009KT 190V260 9999 OVC044/// 08/06 Q1012=
202105232350 METAR ESMX 232350Z AUTO 24008KT 9999 OVC035/// 08/06 Q1012=
202105232320 METAR ESMX 232320Z AUTO 22007KT 9999 OVC027/// 08/06 Q1012=
202105232250 METAR ESMX 232250Z AUTO 25009KT 9999 OVC025/// 08/06 Q1011=
202105232220 METAR ESMX 232220Z AUTO 25009KT 9999 FEW009/// SCT013/// OVC022/// 08/07 Q1011=
202105232150 METAR ESMX 232150Z AUTO 24009KT 9999 FEW007/// BKN009/// OVC013/// 08/07 Q1011=
202105232120 METAR ESMX 232120Z AUTO 22011KT 7000 BR FEW002/// BKN006/// OVC008/// 08/07 Q1010 REDZ REUP=
202105232050 METAR ESMX 232050Z AUTO 22011KT 6000 UP OVC006/// 08/08 Q1010 REDZ=
202105232020 METAR ESMX 232020Z AUTO 21011KT 8000 BR OVC004/// 08/08 Q1010=
202105231950 METAR ESMX 231950Z AUTO 22009KT 5000 BR OVC005/// 08/08 Q1009 REDZ REUP=
202105231920 METAR ESMX 231920Z AUTO 22013KT 8000 BR OVC007/// 08/07 Q1009=
202105231850 METAR ESMX 231850Z AUTO 22012KT 9999 OVC009/// 08/07 Q1008=
202105231820 METAR ESMX 231820Z AUTO 21014KT 9999 BKN011/// OVC013/// 08/07 Q1008=
202105231750 METAR ESMX 231750Z AUTO 21012KT 170V240 9999 OVC013/// 09/07 Q1008=
202105231720 METAR ESMX 231720Z AUTO 22013KT 9999 -DZ BKN016/// OVC029/// 09/07 Q1008=
202105231650 METAR ESMX 231650Z AUTO 22014KT 9999 BKN015/// BKN021/// OVC029/// 10/07 Q1007=
202105231620 METAR ESMX 231620Z AUTO 23013KT 9999 BKN011/// OVC018/// 09/07 Q1007=
202105231550 METAR ESMX 231550Z AUTO 22012KT 9999 BKN010/// BKN013/// OVC015/// 09/08 Q1007 REDZ=
202105231520 METAR ESMX 231520Z AUTO 22014KT 9999 BR BKN005/// BKN011/// OVC014/// 09/08 Q1007=
202105231450 METAR ESMX 231450Z AUTO 22014KT 9999 BKN019/// OVC027/// 10/08 Q1006=
202105231420 METAR ESMX 231420Z AUTO 22015KT 9999 BKN021/// OVC025/// 11/07 Q1006=
202105231350 METAR ESMX 231350Z AUTO 23016KT 190V250 9999 BKN019/// BKN026/// OVC053/// 11/07 Q1006=
202105231320 METAR ESMX 231320Z AUTO 22014KT 9999 BKN020/// OVC030/// 10/08 Q1006=
202105231250 METAR ESMX 231250Z AUTO 22015KT 9999 BKN021/// OVC061/// 11/07 Q1005=
202105231220 METAR ESMX 231220Z AUTO 21013KT 9999 BKN017/// OVC026/// 11/08 Q1005=
202105231150 METAR ESMX 231150Z AUTO 23012KT 9999 DZ BKN018/// OVC028/// 10/08 Q1005 REDZ=
202105231120 METAR ESMX 231120Z AUTO 21015KT 190V250 9999 BKN016/// BKN025/// 11/08 Q1004=
202105231050 METAR ESMX 231050Z AUTO 22013KT 9999 SCT015/// BKN024/// BKN098/// 11/08 Q1004=
202105231020 METAR ESMX 231020Z AUTO 21014KT 9999 BKN014/// OVC034/// 12/10 Q1004=
202105230950 METAR ESMX 230950Z AUTO 20015KT 9999 BKN012/// BKN037/// OVC061/// 12/10 Q1003=
202105230920 METAR ESMX 230920Z AUTO 22011KT 9999 BKN014/// OVC061/// 11/09 Q1003=
202105230850 METAR ESMX 230850Z AUTO 20011KT 9999 SCT008/// BKN012/// BKN016/// 11/09 Q1003 RERA=
202105230820 METAR ESMX 230820Z AUTO 21011KT 9999 -RA BKN009/// BKN012/// OVC018/// 10/09 Q1002 RERA=
202105230750 METAR ESMX 230750Z AUTO 19010KT 150V230 9999 DZ SCT001/// BKN008/// OVC041/// 10/10 Q1002=
202105230720 METAR ESMX 230720Z AUTO 22008KT 9999 RA SCT008/// BKN013/// BKN023/// 10/10 Q1002=
202105230650 METAR ESMX 230650Z AUTO 17007KT 8000 DZ BKN007/// BKN013/// OVC022/// 10/09 Q1001=
202105230620 METAR ESMX 230620Z AUTO 16009KT 9999 -RA FEW004/// SCT008/// BKN011/// 10/09 Q1001 REDZ=
202105230550 METAR ESMX 230550Z AUTO 17010KT 120V200 9999 BKN012/// OVC018/// 10/09 Q1001=
202105230520 METAR ESMX 230520Z AUTO 17007KT 9999 FEW011/// SCT017/// BKN025/// 10/08 Q1001=
202105230450 METAR ESMX 230450Z AUTO 17007KT 130V200 9999 BKN012/// OVC053/// 10/09 Q1001=
202105230420 METAR ESMX 230420Z AUTO 16006KT 9999 SCT012/// OVC055/// 10/09 Q1001=
202105230350 METAR ESMX 230350Z AUTO 18005KT 9999 OVC011/// 10/09 Q1001=
202105230320 METAR ESMX 230320Z AUTO 17005KT 9999 OVC011/// 10/09 Q1001=
202105230250 METAR ESMX 230250Z AUTO 16006KT 9999 FEW009/// BKN013/// OVC016/// 10/09 Q1001=
202105230220 METAR ESMX 230220Z AUTO 16005KT 9999 -DZ FEW009/// SCT013/// BKN022/// 10/09 Q1000=
202105230150 METAR ESMX 230150Z AUTO 17006KT 9999 -RA BKN011/// BKN059/// OVC070/// 10/09 Q1000=
202105230120 METAR ESMX 230120Z AUTO 17006KT 9999 DZ SCT009/// BKN013/// OVC051/// 10/09 Q1001=
202105230050 METAR ESMX 230050Z AUTO 16006KT 9999 BKN011/// OVC015/// 10/09 Q1001=
202105230020 METAR ESMX 230020Z AUTO 17006KT 9999 OVC009/// 10/09 Q1001=
202105222350 METAR ESMX 222350Z AUTO 16006KT 9999 OVC010/// 10/09 Q1001=
202105222320 METAR ESMX 222320Z AUTO 17005KT 9999 BKN010/// OVC048/// 09/08 Q1001=
202105222250 METAR ESMX 222250Z AUTO 16006KT 9999 OVC012/// 09/08 Q1001=
202105222220 METAR ESMX 222220Z AUTO 18005KT 9999 FEW013/// SCT048/// BKN130/// 09/08 Q1001=
202105222150 METAR ESMX 222150Z AUTO 17006KT 9999 FEW057/// SCT100/// 10/08 Q1001=
202105222120 METAR ESMX 222120Z AUTO 17005KT 9999 FEW070/// 10/08 Q1001=
202105222050 METAR ESMX 222050Z AUTO 16005KT 9999 -DZ SCT036/// BKN062/// 10/08 Q1001=
202105222020 METAR ESMX 222020Z AUTO 16006KT 9999 DZ OVC066/// 10/08 Q1001=
202105221950 METAR ESMX 221950Z AUTO 17006KT 9999 -RA BKN057/// 11/07 Q1001 REDZ=
202105221920 METAR ESMX 221920Z AUTO 16007KT 9999 -DZ SCT090/// 11/07 Q1001=
202105221850 METAR ESMX 221850Z AUTO 17005KT 9999 BKN100/// 12/06 Q1000=
202105221820 METAR ESMX 221820Z AUTO 18009KT 9999 SCT068/// 12/05 Q1000=
202105221750 METAR ESMX 221750Z AUTO 19006KT 9999 OVC100/// 12/05 Q1000=
202105221720 METAR ESMX 221720Z AUTO 18012KT 9999 FEW064/// BKN096/// 13/06 Q1000=
202105221650 METAR ESMX 221650Z AUTO 16012KT 9999 FEW051/// OVC092/// 14/05 Q1000=
202105221620 METAR ESMX 221620Z AUTO 17012KT 9999 SCT059/// BKN076/// 15/04 Q1000=
202105221550 METAR ESMX 221550Z AUTO 18011KT 9999 FEW066/// BKN090/// 15/05 Q0999=
202105221520 METAR ESMX 221520Z AUTO 18012KT 9999 FEW053/// SCT074/// 15/05 Q0999=
202105221450 METAR ESMX 221450Z AUTO 19012KT 9999 FEW059/// 16/05 Q0999=
202105221420 METAR ESMX 221420Z AUTO 14005KT 110V190 9999 SCT061/// BKN078/// 15/05 Q0999 RERA=
202105221350 METAR ESMX 221350Z AUTO 18005KT 9999 SCT059/// OVC078/// 14/05 Q0999 RERA=
202105221320 METAR ESMX 221320Z AUTO 20011KT 9999 FEW100/// 15/07 Q0999=
202105221250 METAR ESMX 221250Z AUTO 10003KT 070V140 9999 FEW030/// SCT059/// 13/10 Q0999=
202105221220 METAR ESMX 221220Z AUTO 33006KT 220V020 4000 RA SCT055/// BKN082/// BKN130/// 11/08 Q0999 RERA=
202105221150 METAR ESMX 221150Z AUTO 22010G27KT 2900 BR FEW004/// BKN057/// BKN140/// 11/05 Q1000 RERA=
202105221120 METAR ESMX 221120Z AUTO VRB01KT 9999 FEW018/// SCT049/// BKN110/// 13/05 Q1000=
202105221050 METAR ESMX 221050Z AUTO 28011KT 9999 -RA ///041 09/07 Q1000 RERA=
202105221020 METAR ESMX 221020Z AUTO 17007KT 9999 FEW047/// 15/05 Q0999=
202105220950 METAR ESMX 220950Z AUTO 17010KT 130V200 9999 BKN045/// BKN066/// 15/05 Q0999=
202105220920 METAR ESMX 220920Z AUTO 18010KT 9999 SCT038/// 14/07 Q1000=
202105220850 METAR ESMX 220850Z AUTO 18009KT 130V210 9999 SCT039/// 14/06 Q1000=
202105220820 METAR ESMX 220820Z AUTO 17008KT 9999 SCT026/// BKN032/// 13/07 Q1000=
202105220750 METAR ESMX 220750Z AUTO 18009KT 140V210 9999 SCT022/// BKN027/// 13/08 Q1000=
202105220720 METAR ESMX 220720Z AUTO 16006KT 9999 NCD 12/09 Q1000=
202105220650 METAR ESMX 220650Z AUTO 17005KT 9999 FEW110/// 11/09 Q1000=
202105220620 METAR ESMX 220620Z AUTO 20004KT 9999 FEW040/// BKN100/// 09/08 Q1000=
202105220550 METAR ESMX 220550Z AUTO 19004KT 9999 FEW042/// OVC066/// 08/08 Q1000 REDZ REUP=
202105220520 METAR ESMX 220520Z AUTO 19007KT 9999 DZ BKN041/// OVC057/// 08/08 Q1000 REDZ REUP=
202105220450 METAR ESMX 220450Z AUTO 21008KT 9999 BKN043/// OVC053/// 08/08 Q1000=
202105220420 METAR ESMX 220420Z AUTO 20006KT 9999 BKN043/// OVC055/// 08/08 Q1000=
202105220350 METAR ESMX 220350Z AUTO 23005KT 9999 BKN057/// 07/07 Q1000=
202105220320 METAR ESMX 220320Z AUTO 23004KT 9999 FEW068/// BKN098/// OVC140/// 07/07 Q0999=
202105220250 METAR ESMX 220250Z AUTO 20005KT 9999 BKN078/// OVC140/// 06/06 Q0999=
202105220220 METAR ESMX 220220Z AUTO 23005KT 9999 SCT076/// 06/06 Q0999=
202105220150 METAR ESMX 220150Z AUTO 23003KT 9999 FEW064/// BKN086/// 07/07 Q0999=
202105220120 METAR ESMX 220120Z AUTO 23003KT 9999 OVC066/// 08/08 Q0999=
202105220050 METAR ESMX 220050Z AUTO 23004KT 9999 FEW001/// OVC061/// 08/08 Q0999=
202105220020 METAR ESMX 220020Z AUTO 17004KT 0250 R01/1100N R19/0750N FG BKN001/// OVC004/// 07/07 Q0999=
202105212350 METAR ESMX 212350Z AUTO 18004KT 0150 R01/P2000N R19/0600N BCFG FEW006/// SCT090/// 07/07 Q0999=
202105212320 METAR ESMX 212320Z AUTO 23003KT 0150 R01/P2000N R19/0450N BCFG FEW092/// 05/05 Q1000 RERA=
202105212250 METAR ESMX 212250Z AUTO 23002KT 6000 BR FEW059/// OVC082/// 07/07 Q0999=
202105212220 METAR ESMX 212220Z AUTO 23003KT 9000 FEW014/// SCT040/// BKN057/// 08/08 Q0999 RESHUP RERA=
202105212150 METAR ESMX 212150Z AUTO 23003KT 9999 SCT048/// BKN110/// 08/08 Q1000=
202105212120 METAR ESMX 212120Z AUTO 23003KT 9999 BKN047/// OVC057/// 08/08 Q1000=
202105212050 METAR ESMX 212050Z AUTO 00000KT 9999 -RA FEW038/// OVC053/// 08/08 Q1000 RESHUP=
202105212020 METAR ESMX 212020Z AUTO 23004KT 9999 -DZ SCT012/// BKN036/// OVC048/// 07/07 Q1000 RESHUP=
202105211950 METAR ESMX 211950Z AUTO 00000KT 8000 BR BKN045/// 07/07 Q1000=
202105211920 METAR ESMX 211920Z AUTO VRB01KT 9999 BR FEW047/// 08/07 Q1000=
202105211850 METAR ESMX 211850Z AUTO 23002KT 9999 FEW059/// SCT094/// 09/08 Q0999=
202105211820 METAR ESMX 211820Z AUTO 23002KT 9999 SCT064/// BKN110/// 09/08 Q1000=
202105211750 METAR ESMX 211750Z AUTO 23003KT 9999 SCT098/// 09/08 Q1000=
202105211720 METAR ESMX 211720Z AUTO 24003KT 210V270 9999 FEW055/// BKN098/// 09/08 Q1000=
202105211650 METAR ESMX 211650Z AUTO 28005KT 240V310 9999 SCT047/// OVC070/// 09/07 Q1000=
202105211620 METAR ESMX 211620Z 25011KT 9999 -SHRA FEW026CB BKN045 09/07 Q1001=
202105211550 METAR ESMX 211550Z 18006KT 9999 VCSH BKN053 14/05 Q1000=
202105211520 METAR ESMX 211520Z 16006KT 9999 BKN046 14/05 Q1000=
202105211450 METAR ESMX 211450Z AUTO 01005KT 350V060 9999 FEW055/// 14/07 Q1000=
202105211420 METAR ESMX 211420Z AUTO 04004KT 340V080 9999 FEW046/// SCT055/// BKN078/// 14/08 Q1001=
202105211350 METAR ESMX 211350Z 36004KT 9999 VCSH FEW045CB BKN068 14/07 Q1001=
202105211320 METAR ESMX 211320Z 30005KT 9999 VCSH SCT041CB BKN062 12/09 Q1002=
202105211250 METAR ESMX 211250Z 20007KT 9999 SHRA SCT030CB BKN055 11/09 Q1002=
202105211220 METAR ESMX 211220Z 21003KT 9999 VCSH SCT036CB BKN045 12/07 Q1002=
202105211150 METAR ESMX 211150Z 18006KT 9999 -RA BKN033 13/06 Q1002=
202105211120 METAR ESMX 211120Z 19006KT 9999 SCT030 BKN047 13/06 Q1003=
202105211050 METAR ESMX 211050Z VRB03KT 9999 -DZ SCT031 BKN041 12/06 Q1003=
202105211020 METAR ESMX 211020Z 17008KT 9999 DZ BKN030 11/06 Q1004=
202105210950 METAR ESMX 210950Z 17005KT 9999 BKN036 12/05 Q1004=
202105210920 METAR ESMX 210920Z 14006KT 110V190 9999 SCT032 BKN042 12/05 Q1004=
202105210850 METAR ESMX 210850Z 20004KT 9999 SCT049 BKN096 12/05 Q1004=
202105210820 METAR ESMX 210820Z 19006KT 150V210 9999 BKN047 11/05 Q1004=
202105210750 METAR ESMX 210750Z 21009KT 9999 -DZ BKN059 11/05 Q1005=
202105210720 METAR ESMX 210720Z 21009KT CAVOK 11/05 Q1005=
202105210650 METAR ESMX 210650Z 20009KT CAVOK 11/05 Q1005=
202105210620 METAR ESMX 210620Z 22008KT CAVOK 09/06 Q1005=
202105210550 METAR ESMX 210550Z AUTO 23008KT 9999 NCD 09/06 Q1005=
202105210520 METAR ESMX 210520Z AUTO 20007KT 170V230 9999 NCD 08/06 Q1006=
202105210450 METAR ESMX 210450Z AUTO 19006KT 9999 NCD 07/06 Q1006=
202105210420 METAR ESMX 210420Z AUTO 18003KT 9999 NCD 06/06 Q1006=
202105210350 METAR ESMX 210350Z AUTO 22003KT 9999 NCD 04/04 Q1006=
202105210320 METAR ESMX 210320Z AUTO 22004KT 7000 BR FEW020/// 04/04 Q1007=
202105210250 METAR ESMX 210250Z AUTO 22005KT 5000 NCD 03/03 Q1007=
202105210220 METAR ESMX 210220Z AUTO 23005KT 9999 FEW025/// 03/03 Q1007=
202105210150 METAR ESMX 210150Z AUTO 23006KT 9999 FEW026/// 03/03 Q1008=
202105210120 METAR ESMX 210120Z AUTO 23004KT 9999 NCD 03/03 Q1008=
202105210050 METAR ESMX 210050Z AUTO 23005KT 9999 NCD 04/03 Q1008=
202105210020 METAR ESMX 210020Z AUTO 23005KT 9999 NCD 04/04 Q1008=
202105202350 METAR ESMX 202350Z AUTO 25004KT 9999 NCD 05/04 Q1008=
202105202320 METAR ESMX 202320Z AUTO 25005KT 9999 NCD 06/05 Q1009=
202105202250 METAR ESMX 202250Z AUTO 25006KT 9999 SCT049/// 07/05 Q1009=
202105202220 METAR ESMX 202220Z AUTO 22005KT 9999 FEW039/// BKN051/// 07/05 Q1009=
202105202150 METAR ESMX 202150Z AUTO 23005KT 200V260 9999 OVC037/// 07/05 Q1009=
202105202120 METAR ESMX 202120Z AUTO 23006KT 9999 BKN036/// OVC057/// 08/04 Q1009=
202105202050 METAR ESMX 202050Z AUTO 21006KT 9999 OVC055/// 08/04 Q1009=
202105202020 METAR ESMX 202020Z AUTO 23006KT 9999 SCT042/// OVC061/// 08/04 Q1009=
202105201950 METAR ESMX 201950Z AUTO 21006KT 9999 SCT041/// OVC061/// 08/05 Q1010=
202105201920 METAR ESMX 201920Z AUTO 23006KT 9999 SCT037/// OVC059/// 08/04 Q1010 RESHUP=
202105201850 METAR ESMX 201850Z AUTO 22007KT 9999 OVC035/// 09/04 Q1010 REUP=
202105201820 METAR ESMX 201820Z AUTO 23007KT 200V280 9999 BKN038/// OVC057/// 09/04 Q1010=
202105201750 METAR ESMX 201750Z AUTO 26008KT 9999 BKN032/// OVC061/// 09/04 Q1010=
202105201720 METAR ESMX 201720Z AUTO 25010KT 9999 BKN029/// BKN035/// OVC064/// 09/04 Q1010=
202105201650 METAR ESMX 201650Z AUTO 26009KT 9999 BKN032/// OVC043/// 10/04 Q1011=
202105201620 METAR ESMX 201620Z AUTO 26014KT 9999 BKN028/// OVC037/// 10/04 Q1011=
202105201550 METAR ESMX 201550Z AUTO 26010KT 9999 SCT028/// BKN041/// OVC062/// 10/04 Q1011=
202105201520 METAR ESMX 201520Z AUTO 25009KT 9999 FEW019/// SCT024/// BKN045/// 11/05 Q1011=
202105201450 METAR ESMX 201450Z AUTO 23008KT 200V260 9999 SCT026/// BKN040/// OVC055/// 10/08 Q1011 RERA=
202105201420 METAR ESMX 201420Z AUTO 22010KT 9999 SCT029/// BKN045/// BKN053/// 09/07 Q1011=
202105201350 METAR ESMX 201350Z 24012KT 9999 -RA FEW023CB BKN042 09/06 Q1011=
202105201320 METAR ESMX 201320Z 22011KT 190V250 9999 FEW037 BKN064 10/06 Q1011=
202105201250 METAR ESMX 201250Z 21012KT 190V260 9999 -RA FEW026CB SCT033 OVC051 10/07 Q1011=
202105201220 METAR ESMX 201220Z 22011KT 9999 VCSH FEW025CB BKN042 09/07 Q1011 RERA=
202105201150 METAR ESMX 201150Z 22013KT 9999 VCSH FEW030 BKN065 12/06 Q1011=
202105201120 METAR ESMX 201120Z 24014KT 9999 FEW028 BKN051 10/05 Q1011 RERA=
202105201050 METAR ESMX 201050Z 26011KT 230V300 9999 FEW024 BKN034 11/06 Q1011 RERA=
202105201020 METAR ESMX 201020Z 26010KT 230V290 9999 SCT022 BKN034 10/08 Q1011 RERA=
202105200950 METAR ESMX 200950Z 22011KT 9999 VCSH BKN025 11/06 Q1011 RERA=
202105200920 METAR ESMX 200920Z 22010KT 9999 BKN027 11/05 Q1011=
202105200850 METAR ESMX 200850Z 24010KT 190V280 9999 BKN028 12/05 Q1011=
202105200820 METAR ESMX 200820Z 21011KT 9999 VCSH BKN029 11/06 Q1011=
202105200750 METAR ESMX 200750Z 23009KT 9999 BKN030 11/05 Q1012=
202105200720 METAR ESMX 200720Z 25008KT 9999 BKN030 11/04 Q1012=
202105200650 METAR ESMX 200650Z 23010KT 9999 SCT027 11/04 Q1012=
202105200620 METAR ESMX 200620Z 25009KT 9999 SCT023 10/05 Q1012=
202105200550 METAR ESMX 200550Z AUTO 23007KT 200V260 9999 SCT015/// 09/06 Q1012=
202105200520 METAR ESMX 200520Z AUTO 22007KT 9999 NCD 09/07 Q1012=
202105200450 METAR ESMX 200450Z AUTO 22005KT 9999 FEW036/// 07/07 Q1012=
202105200420 METAR ESMX 200420Z AUTO 23005KT 9999 SCT025/// OVC035/// 07/06 Q1012=
202105200350 METAR ESMX 200350Z AUTO 23005KT 8000 SCT025/// 05/05 Q1012=
202105200320 METAR ESMX 200320Z AUTO 23004KT 8000 BR FEW029/// 05/05 Q1012=
202105200250 METAR ESMX 200250Z AUTO 23004KT 8000 BKN027/// 05/05 Q1012=
202105200220 METAR ESMX 200220Z AUTO 23004KT 4500 NCD 05/05 Q1012=
202105200150 METAR ESMX 200150Z AUTO 24003KT 9999 SCT007/// 05/05 Q1012=
202105200120 METAR ESMX 200120Z AUTO 24004KT 9999 NCD 05/05 Q1012=
202105200050 METAR ESMX 200050Z AUTO 23005KT 9999 NCD 05/05 Q1012=
202105200020 METAR ESMX 200020Z AUTO 23004KT 9999 FEW010/// 05/05 Q1012=
202105192350 METAR ESMX 192350Z AUTO 23004KT 9999 NCD 06/05 Q1012=
202105192320 METAR ESMX 192320Z AUTO 23004KT 9999 NCD 06/05 Q1012=
202105192250 METAR ESMX 192250Z AUTO 24004KT 9999 NCD 06/05 Q1012=
202105192220 METAR ESMX 192220Z AUTO 24004KT 9999 NCD 06/04 Q1012=
202105192150 METAR ESMX 192150Z AUTO 24004KT 9999 NCD 07/04 Q1012=
202105192120 METAR ESMX 192120Z AUTO 26004KT 9999 NCD 07/04 Q1011=
202105192050 METAR ESMX 192050Z AUTO 25004KT 9999 NCD 08/04 Q1011=
202105192020 METAR ESMX 192020Z AUTO 25005KT 9999 NCD 09/04 Q1011=
202105191950 METAR ESMX 191950Z AUTO 25005KT 9999 NCD 09/03 Q1011=
202105191920 METAR ESMX 191920Z AUTO 26006KT 9999 NCD 10/03 Q1011=
202105191850 METAR ESMX 191850Z AUTO 27007KT 9999 NCD 12/03 Q1011=
202105191820 METAR ESMX 191820Z AUTO 26006KT 9999 NCD 12/02 Q1010=
202105191750 METAR ESMX 191750Z AUTO 26009KT 240V300 9999 NCD 13/02 Q1010=
202105191720 METAR ESMX 191720Z AUTO 27010KT 240V310 9999 NCD 14/02 Q1010=
202105191650 METAR ESMX 191650Z AUTO 28010KT 250V320 9999 NCD 14/02 Q1010=
202105191620 METAR ESMX 191620Z AUTO 29011KT 250V330 9999 NCD 14/02 Q1010=
202105191550 METAR ESMX 191550Z AUTO 27010KT 230V300 9999 NCD 15/03 Q1010=
202105191520 METAR ESMX 191520Z AUTO 25012KT 210V280 9999 NCD 15/03 Q1010=
202105191450 METAR ESMX 191450Z AUTO 28010KT 240V320 9999 FEW080/// 16/03 Q1010=
202105191420 METAR ESMX 191420Z AUTO 28013KT 9999 FEW080/// 16/03 Q1010=
202105191350 METAR ESMX 191350Z 27011KT 230V290 CAVOK 15/03 Q1010=
202105191320 METAR ESMX 191320Z 24011KT CAVOK 15/04 Q1010=
202105191250 METAR ESMX 191250Z 25011KT 220V300 CAVOK 17/04 Q1010=
202105191220 METAR ESMX 191220Z 26008KT CAVOK 16/04 Q1010=
202105191150 METAR ESMX 191150Z 27009KT CAVOK 15/05 Q1009=
202105191120 METAR ESMX 191120Z 28008KT 230V340 9999 SCT044 15/04 Q1009=
202105191050 METAR ESMX 191050Z 28009KT 240V300 9999 SCT043 15/04 Q1009=
202105191020 METAR ESMX 191020Z 29009KT 250V320 9999 SCT041 14/04 Q1009=
202105190950 METAR ESMX 190950Z 29009KT 270V330 9999 FEW040 15/05 Q1009=
202105190920 METAR ESMX 190920Z AUTO 27008KT 240V320 9999 NCD 14/06 Q1009=
202105190850 METAR ESMX 190850Z 29009KT 250V320 9999 FEW032 14/06 Q1010=
202105190820 METAR ESMX 190820Z 28008KT 250V320 CAVOK 12/05 Q1009=
202105190750 METAR ESMX 190750Z 30008KT 260V330 CAVOK 12/06 Q1010=
202105190720 METAR ESMX 190720Z 30008KT 260V330 9999 FEW015 11/07 Q1010=
202105190650 METAR ESMX 190650Z 28008KT 250V320 9999 FEW015 10/06 Q1010=
202105190620 METAR ESMX 190620Z 29008KT 9999 FEW016 10/06 Q1010=
202105190550 METAR ESMX 190550Z AUTO 30008KT 270V330 9999 SCT007/// BKN012/// 08/06 Q1010=
202105190520 METAR ESMX 190520Z AUTO 29007KT 9999 BKN006/// 07/06 Q1009=
202105190450 METAR ESMX 190450Z AUTO 31006KT 9999 OVC004/// 07/06 Q1009=
202105190420 METAR ESMX 190420Z AUTO 30007KT 9999 OVC004/// 07/07 Q1009=
202105190350 METAR ESMX 190350Z AUTO 29007KT 5000 BR OVC002/// 07/07 Q1009=
202105190320 METAR ESMX 190320Z AUTO 30007KT 3300 BR BKN002/// BKN005/// OVC072/// 07/07 Q1009=
202105190250 METAR ESMX 190250Z AUTO 29004KT 9999 BKN074/// 06/06 Q1009=
202105190220 METAR ESMX 190220Z AUTO 30003KT 9999 OVC074/// 06/06 Q1009=
202105190150 METAR ESMX 190150Z AUTO 27002KT 9999 FEW076/// 06/06 Q1009=
202105190120 METAR ESMX 190120Z AUTO 30003KT 9999 FEW078/// 07/06 Q1009=
202105190050 METAR ESMX 190050Z AUTO 28006KT 9999 FEW078/// 07/07 Q1008=
202105190020 METAR ESMX 190020Z AUTO 29005KT 9999 OVC078/// 08/07 Q1008=
202105182350 METAR ESMX 182350Z AUTO 30006KT 9999 OVC078/// 09/07 Q1008=
202105182320 METAR ESMX 182320Z AUTO 30005KT 9999 OVC078/// 09/07 Q1009=
202105182250 METAR ESMX 182250Z AUTO 26005KT 9999 OVC078/// 09/07 Q1009=
202105182220 METAR ESMX 182220Z AUTO 27004KT 9999 OVC078/// 10/06 Q1009=
202105182150 METAR ESMX 182150Z AUTO 27004KT 9999 OVC080/// 10/06 Q1009=
202105182120 METAR ESMX 182120Z AUTO 25004KT 9999 BKN080/// 10/06 Q1008=
202105182050 METAR ESMX 182050Z AUTO 26004KT 9999 FEW080/// 10/06 Q1008=
202105182020 METAR ESMX 182020Z AUTO 25004KT 9999 NCD 10/07 Q1008=
202105181950 METAR ESMX 181950Z AUTO 25005KT 9999 NCD 11/07 Q1008=
202105181920 METAR ESMX 181920Z AUTO 25005KT 9999 BKN120/// 12/08 Q1008=
202105181850 METAR ESMX 181850Z AUTO 26004KT 9999 FEW080/// 13/08 Q1008=
202105181820 METAR ESMX 181820Z AUTO 27007KT 9999 FEW076/// OVC120/// 14/08 Q1008=
202105181750 METAR ESMX 181750Z AUTO 28005KT 9999 SCT078/// BKN120/// 15/06 Q1008=
202105181720 METAR ESMX 181720Z AUTO 19004KT 9999 FEW041/// BKN074/// OVC084/// 15/09 Q1008=
202105181650 METAR ESMX 181650Z AUTO 20006KT 9999 SCT040/// BKN070/// 14/09 Q1007=
202105181620 METAR ESMX 181620Z AUTO 21006KT 9999 FEW042/// BKN059/// BKN076/// 14/09 Q1007=
202105181550 METAR ESMX 181550Z AUTO 19004KT 9999 SCT042/// OVC066/// 15/08 Q1007 REDZ=
202105181520 METAR ESMX 181520Z AUTO 28005KT 9999 FEW038/// 15/07 Q1007=
202105181450 METAR ESMX 181450Z AUTO 28007KT 9999 BKN088/// 15/07 Q1007=
202105181420 METAR ESMX 181420Z AUTO 30006KT 260V360 9999 SCT090/// BKN190/// 15/06 Q1007=
202105181350 METAR ESMX 181350Z 26003KT 9999 FEW035 14/10 Q1008=
202105181320 METAR ESMX 181320Z 27005KT 9999 -SHRA FEW035 13/09 Q1008=
202105181250 METAR ESMX 181250Z 33005KT 260V010 9999 VCSH FEW034CB 14/08 Q1007=
202105181220 METAR COR ESMX 181220Z 30006KT 280V340 9999 FEW030 14/08 Q1007=
202105181150 METAR ESMX 181150Z 27008KT 9999 VCSH FEW035CB 15/07 Q1007=
202105181120 METAR ESMX 181120Z 22006KT 9999 VCSH SCT037CB 15/07 Q1007=
202105181050 METAR ESMX 181050Z VRB04KT 9999 VCSH SCT037 16/06 Q1007=
202105181020 METAR ESMX 181020Z 26005KT 230V300 9999 SCT040 14/07 Q1007=
202105180950 METAR ESMX 180950Z 26004KT 230V310 9999 SCT035 15/08 Q1007=
202105180920 METAR ESMX 180920Z 22004KT 9999 SCT036TCU 15/06 Q1007=
202105180850 METAR ESMX 180850Z 23004KT 210V280 9999 SCT030TCU 14/07 Q1007=
202105180820 METAR ESMX 180820Z 22003KT 9999 SCT028 15/08 Q1007=
202105180750 METAR ESMX 180750Z 23004KT 9999 FEW024 14/08 Q1007=
202105180720 METAR ESMX 180720Z VRB02KT 9999 FEW020 13/08 Q1007=
202105180650 METAR ESMX 180650Z VRB02KT CAVOK 13/08 Q1007=
202105180620 METAR ESMX 180620Z 17002KT CAVOK 12/09 Q1006=
202105180550 METAR ESMX 180550Z AUTO 17002KT 9999 NCD 11/08 Q1006=
202105180520 METAR ESMX 180520Z AUTO 17002KT 9999 SCT000/// 11/09 Q1006=
202105180450 METAR ESMX 180450Z AUTO 00000KT 9999 VV000 08/08 Q1006=
202105180420 METAR ESMX 180420Z AUTO 00000KT 8000 BCFG VV000 05/05 Q1006=
202105180350 METAR ESMX 180350Z AUTO 00000KT 9999 BCFG NCD 03/03 Q1006=
202105180320 METAR ESMX 180320Z AUTO 18002KT 0550 R01/1300D R19/P2000N BCFG NCD 03/03 Q1005=
202105180250 METAR ESMX 180250Z AUTO 19001KT 9999 BCFG NCD 03/03 Q1005=
202105180220 METAR ESMX 180220Z AUTO 00000KT 8000 BCFG NCD 03/03 Q1005=
202105180150 METAR ESMX 180150Z AUTO 17001KT 0650 R01/P2000D R19/P2000N BCFG NCD 05/05 Q1005=
202105180120 METAR ESMX 180120Z AUTO 17002KT 9999 BCFG NCD 05/05 Q1005=
202105180050 METAR ESMX 180050Z AUTO 00000KT 0150 R01/0400N R19/P2000N BCFG NCD 05/05 Q1004=
202105180020 METAR ESMX 180020Z AUTO VRB02KT 9999 NCD 06/06 Q1004=
202105172350 METAR ESMX 172350Z AUTO 12002KT 0550 R01/P2000N R19/P2000N NCD 07/07 Q1004=
202105172320 METAR ESMX 172320Z AUTO 00000KT 9999 BR NCD 07/07 Q1004=
202105172250 METAR ESMX 172250Z AUTO 17003KT 9999 NCD 07/07 Q1004=
202105172220 METAR ESMX 172220Z AUTO 17002KT 9999 FEW057/// 09/09 Q1004=
202105172150 METAR ESMX 172150Z AUTO 17004KT 9999 BKN055/// 09/09 Q1004=
202105172120 METAR ESMX 172120Z AUTO 17005KT 9999 BKN055/// 11/09 Q1004=
202105172050 METAR ESMX 172050Z AUTO 14005KT 9999 OVC055/// 11/09 Q1004=
202105172020 METAR ESMX 172020Z AUTO 19005KT 9999 SCT055/// 12/09 Q1004=
202105171950 METAR ESMX 171950Z AUTO 17004KT 9999 FEW040/// BKN051/// BKN082/// 12/09 Q1004=
202105171920 METAR ESMX 171920Z AUTO 19006KT 9999 BKN041/// BKN074/// 12/09 Q1003=
202105171850 METAR ESMX 171850Z AUTO 23003KT 9999 BKN046/// 11/08 Q1003=
202105171820 METAR ESMX 171820Z AUTO 24002KT 9999 SCT047/// BKN059/// 13/07 Q1003=
202105171750 METAR ESMX 171750Z AUTO 00000KT 9999 BKN057/// 13/07 Q1003=
202105171720 METAR ESMX 171720Z AUTO 29004KT 9999 SCT059/// 13/06 Q1003=
202105171650 METAR ESMX 171650Z AUTO 26005KT 220V290 9999 FEW044/// BKN061/// 14/07 Q1003=
202105171620 METAR ESMX 171620Z AUTO 18008KT 150V210 9999 FEW049/// BKN068/// 14/08 Q1002=
202105171550 METAR ESMX 171550Z AUTO 16010KT 9999 SCT078/// 14/07 Q1002=
202105171520 METAR ESMX 171520Z AUTO 19011KT 9999 SCT066/// BKN100/// 15/07 Q1002=
202105171450 METAR ESMX 171450Z AUTO 22011KT 190V250 9999 NCD 15/06 Q1002=
202105171420 METAR ESMX 171420Z 23011KT 9999 VCSH FEW047CB 14/07 Q1002=
202105171350 METAR ESMX 171350Z 22011KT 190V250 9999 VCSH FEW045CB 17/06 Q1001=
202105171320 METAR ESMX 171320Z AUTO 20010KT 9999 FEW082/// SCT170/// 17/08 Q1001=
202105171250 METAR ESMX 171250Z 19010KT 9999 VCSH FEW037CB BKN047 16/08 Q1001=
202105171220 METAR ESMX 171220Z 18009KT 9999 -SHRA FEW013CB BKN042 15/08 Q1001=
202105171150 METAR ESMX 171150Z 22006KT 9999 VCSH FEW031CB SCT190 15/08 Q1001=
202105171120 METAR ESMX 171120Z 20010KT 150V210 9999 -RA SCT031 BKN049 13/09 Q1001=
202105171050 METAR ESMX 171050Z 17009KT 140V210 9999 FEW029 BKN092 15/08 Q1001=
202105171020 METAR COR ESMX 171020Z 18010KT 150V210 9999 SCT023 BKN090 15/09 Q1001=
202105170950 METAR ESMX 170950Z 19009KT 160V230 9999 BKN020 14/10 Q1001=
202105170920 METAR ESMX 170920Z 18007KT 9999 BKN017 13/09 Q1001=
202105170850 METAR ESMX 170850Z 18008KT 9999 OVC015 12/09 Q1001=
202105170820 METAR ESMX 170820Z 17007KT 9999 OVC015 12/09 Q1001=
202105170750 METAR ESMX 170750Z 18007KT 9999 OVC014 11/08 Q1001=
202105170720 METAR ESMX 170720Z 14007KT 100V170 9999 BKN011 11/08 Q1001=
202105170650 METAR ESMX 170650Z 18007KT 9999 OVC011 11/09 Q1001=
202105170620 METAR ESMX 170620Z 18006KT 9999 FEW007 OVC011 11/09 Q1001=
202105170550 METAR ESMX 170550Z AUTO 18005KT 9999 OVC007/// 11/09 Q1000=
202105170520 METAR ESMX 170520Z AUTO 18005KT 9999 BKN006/// OVC070/// 10/09 Q1000=
202105170450 METAR ESMX 170450Z AUTO 17005KT 9999 BKN005/// BKN007/// OVC078/// 10/09 Q1000=
202105170420 METAR ESMX 170420Z AUTO 17004KT 130V200 9999 OVC005/// 10/09 Q1000=
202105170350 METAR ESMX 170350Z AUTO 12003KT 9999 BKN005/// OVC008/// 10/09 Q1000=
202105170320 METAR ESMX 170320Z AUTO 12002KT 9999 BKN009/// OVC011/// 10/09 Q1000=
202105170250 METAR ESMX 170250Z AUTO VRB03KT 9999 BKN006/// BKN008/// OVC011/// 10/09 Q1000=
202105170220 METAR ESMX 170220Z AUTO 11003KT 9999 -DZ FEW008/// SCT017/// BKN035/// 10/09 Q1000=
202105170150 METAR ESMX 170150Z AUTO VRB02KT 9999 SCT008/// BKN011/// BKN015/// 10/09 Q1000=
202105170120 METAR ESMX 170120Z AUTO 15003KT 9999 FEW006/// OVC008/// 10/09 Q1000=
202105170050 METAR ESMX 170050Z AUTO 16002KT 9999 OVC007/// 10/09 Q1000=
202105170020 METAR ESMX 170020Z AUTO VRB02KT 9999 OVC006/// 10/09 Q1000=
202105162350 METAR ESMX 162350Z AUTO 08003KT 9999 FEW007/// SCT008/// BKN012/// 10/09 Q1001=
202105162320 METAR ESMX 162320Z AUTO 11002KT 9999 BKN008/// OVC026/// 10/09 Q1001=
202105162250 METAR ESMX 162250Z AUTO 11003KT 9999 BKN009/// OVC013/// 11/10 Q1001=
202105162220 METAR ESMX 162220Z AUTO 09003KT 050V130 9999 OVC009/// 11/10 Q1001=
202105162150 METAR ESMX 162150Z AUTO 12003KT 9999 SCT010/// OVC027/// 11/10 Q1001=
202105162120 METAR ESMX 162120Z AUTO 09003KT 050V140 9999 FEW010/// OVC027/// 11/10 Q1001=
202105162050 METAR ESMX 162050Z AUTO 11003KT 070V170 9999 FEW011/// OVC026/// 11/10 Q1001=
202105162020 METAR ESMX 162020Z AUTO VRB02KT 9999 SCT026/// BKN064/// 10/09 Q1002=
202105161950 METAR ESMX 161950Z AUTO 10004KT 9999 SCT015/// BKN031/// 11/09 Q1002=
202105161920 METAR ESMX 161920Z AUTO 11003KT 9999 OVC028/// 12/09 Q1002=
202105161850 METAR ESMX 161850Z AUTO 11005KT 9999 SCT022/// 12/09 Q1002=
202105161820 METAR ESMX 161820Z AUTO 12006KT 080V170 9999 SCT022/// 13/09 Q1002=
202105161750 METAR ESMX 161750Z AUTO 11006KT 070V140 9999 FEW023/// 13/09 Q1001=
202105161720 METAR ESMX 161720Z AUTO 12006KT 070V160 9999 FEW023/// SCT092/// 14/09 Q1002=
202105161650 METAR ESMX 161650Z AUTO 11006KT 070V150 9999 BKN025/// 13/09 Q1002=
202105161620 METAR ESMX 161620Z AUTO 13007KT 9999 FEW020/// SCT028/// 14/09 Q1002=
202105161550 METAR ESMX 161550Z AUTO 11006KT 070V170 9999 FEW020/// BKN036/// BKN076/// 13/09 Q1002=
202105161520 METAR ESMX 161520Z AUTO 12007KT 070V170 9999 SCT026/// BKN070/// 15/09 Q1002=
202105161450 METAR ESMX 161450Z AUTO 13004KT 9999 SCT028/// BKN062/// 15/09 Q1002=
202105161420 METAR ESMX 161420Z AUTO 11005KT 040V160 9999 FEW025/// 14/08 Q1002=
202105161350 METAR ESMX 161350Z AUTO 09006KT 050V140 9999 FEW021/// SCT028/// 13/08 Q1003=
202105161320 METAR ESMX 161320Z AUTO 11006KT 050V140 9999 SCT021/// BKN029/// 13/09 Q1003=
202105161250 METAR ESMX 161250Z AUTO 10006KT 050V140 9999 BKN014/// 13/09 Q1003=
202105161220 METAR ESMX 161220Z AUTO 12007KT 080V170 9999 BKN014/// OVC019/// 13/09 Q1003=
202105161150 METAR ESMX 161150Z AUTO 12006KT 070V160 9999 BKN013/// BKN016/// OVC024/// 13/10 Q1003=
202105161120 METAR ESMX 161120Z AUTO 13006KT 080V160 9999 BKN011/// OVC013/// 12/09 Q1003=
202105161050 METAR ESMX 161050Z AUTO 06005KT 010V160 9999 BKN011/// BKN021/// OVC074/// 12/10 Q1003=
202105161020 METAR ESMX 161020Z AUTO 07006KT 030V110 9999 OVC010/// 12/10 Q1004=
202105160950 METAR ESMX 160950Z AUTO 05006KT 010V090 9999 BKN008/// OVC010/// 12/10 Q1004=
202105160920 METAR ESMX 160920Z AUTO 07006KT 040V120 9999 OVC007/// 11/09 Q1004=
202105160850 METAR ESMX 160850Z AUTO 07005KT 030V110 9999 OVC006/// 10/09 Q1003=
202105160820 METAR ESMX 160820Z AUTO 09005KT 040V130 9999 OVC005/// 10/10 Q1003=
202105160750 METAR ESMX 160750Z AUTO 06003KT 320V120 9999 OVC004/// 10/10 Q1004=
202105160720 METAR ESMX 160720Z AUTO 07004KT 9000 -RA SCT004/// BKN038/// OVC055/// 08/08 Q1004 REDZ=
202105160650 METAR ESMX 160650Z AUTO 06002KT 9999 DZ FEW004/// SCT039/// OVC066/// 08/08 Q1004=
202105160620 METAR ESMX 160620Z AUTO 05004KT 9999 -DZ SCT004/// BKN039/// OVC064/// 08/08 Q1004 REUP=
202105160550 METAR ESMX 160550Z AUTO 05004KT 9999 OVC003/// 07/07 Q1004=
202105160520 METAR ESMX 160520Z AUTO 03004KT 350V070 6000 BR BKN002/// OVC100/// 07/07 Q1004=
202105160450 METAR ESMX 160450Z AUTO 02003KT 350V060 4500 BR OVC001/// 06/06 Q1004=
202105160420 METAR ESMX 160420Z AUTO 06003KT 030V120 1100 R01/1500D R19/P2000N OVC001/// 06/06 Q1004=
202105160350 METAR ESMX 160350Z AUTO 16002KT 3300 OVC001/// 06/06 Q1004=
202105160320 METAR ESMX 160320Z AUTO 16001KT 1000 R01/1500D R19/P2000N OVC001/// 06/06 Q1004=
202105160250 METAR ESMX 160250Z AUTO 13003KT 080V180 0400 R01/0900U R19/1200N FG OVC001/// 06/06 Q1004=
202105160220 METAR ESMX 160220Z AUTO 16003KT 0900 R01/P2000N R19/P2000N OVC001/// 07/07 Q1004=
202105160150 METAR ESMX 160150Z AUTO 17006KT 140V200 2200 BR OVC002/// 07/07 Q1004=
202105160120 METAR ESMX 160120Z AUTO 16006KT 3500 BR OVC002/// 07/07 Q1004=
202105160050 METAR ESMX 160050Z AUTO 15005KT 2100 BR OVC003/// 07/07 Q1004=
202105160020 METAR ESMX 160020Z AUTO 14005KT 110V170 6000 BR OVC004/// 07/07 Q1004=
202105152350 METAR ESMX 152350Z AUTO 14004KT 7000 BR BKN004/// 07/07 Q1004=
202105152320 METAR ESMX 152320Z AUTO 14004KT 6000 BR OVC003/// 08/08 Q1004=
202105152250 METAR ESMX 152250Z AUTO 15004KT 7000 BR SCT004/// BKN021/// 08/08 Q1004=
202105152220 METAR ESMX 152220Z AUTO 21004KT 7000 FEW004/// BKN023/// 08/08 Q1004=
202105152150 METAR ESMX 152150Z AUTO 22003KT 0450 R01/P2000N R19/1400D FEW012/// BKN027/// 05/05 Q1004=
202105152120 METAR ESMX 152120Z AUTO 22002KT 0200 R01/0650N R19/0650N BCFG SCT013/// 06/06 Q1004=
202105152050 METAR ESMX 152050Z AUTO VRB01KT 0200 R01/1100N R19/0650U BCFG SCT024/// 06/06 Q1004=
202105152020 METAR ESMX 152020Z AUTO 00000KT 0200 R01/0450N R19/0650N BCFG SCT026/// 06/06 Q1004=
202105151950 METAR ESMX 151950Z AUTO 22003KT 1800 BCFG BKN026/// BKN033/// 08/08 Q1004=
202105151920 METAR ESMX 151920Z AUTO 00000KT 0800 R01/P2000N R19/P2000D BCFG BKN023/// 08/08 Q1004=
202105151850 METAR ESMX 151850Z AUTO 00000KT 9999 BR BKN028/// 09/08 Q1003=
202105151820 METAR ESMX 151820Z AUTO 18003KT 9999 BKN030/// 09/09 Q1003=
202105151750 METAR ESMX 151750Z AUTO 22003KT 9999 FEW012/// OVC027/// 09/09 Q1003=
202105151720 METAR ESMX 151720Z AUTO 22005KT 9999 BKN013/// OVC048/// 09/08 Q1003=
202105151650 METAR ESMX 151650Z AUTO 22005KT 190V270 9999 FEW009/// SCT062/// OVC090/// 10/09 Q1003=
202105151620 METAR ESMX 151620Z AUTO 23005KT 200V270 9999 SCT008/// BKN027/// OVC037/// 09/08 Q1003=
202105151550 METAR ESMX 151550Z AUTO 25006KT 230V290 9999 -DZ SCT006/// BKN014/// OVC026/// 09/08 Q1003=
202105151520 METAR ESMX 151520Z AUTO 23006KT 9999 DZ FEW007/// SCT009/// BKN013/// 09/09 Q1003=
202105151450 METAR ESMX 151450Z AUTO 23006KT 9999 DZ FEW008/// SCT012/// BKN017/// 09/09 Q1003=
202105151420 METAR ESMX 151420Z AUTO 22009KT 3800 BR FEW002/// BKN006/// OVC009/// 09/09 Q1003=
202105151350 METAR ESMX 151350Z AUTO 22008KT 9999 BKN007/// BKN012/// 10/10 Q1003=
202105151320 METAR ESMX 151320Z AUTO 23008KT 8000 BR FEW006/// OVC011/// 10/10 Q1003 REDZ=
202105151250 METAR ESMX 151250Z AUTO 24007KT 3400 BR SCT005/// BKN010/// OVC015/// 10/10 Q1003=
202105151220 METAR ESMX 151220Z AUTO 21007KT 150V250 2800 DZ BKN003/// OVC006/// 10/10 Q1003 REDZ=
202105151150 METAR ESMX 151150Z AUTO 18004KT 3400 -DZ FEW002/// BKN005/// OVC008/// 11/11 Q1002=
202105151120 METAR ESMX 151120Z AUTO 17006KT 130V200 9999 BKN006/// OVC010/// 11/10 Q1002=
202105151050 METAR ESMX 151050Z AUTO 16006KT 9999 BKN006/// OVC008/// 11/10 Q1002=
202105151020 METAR ESMX 151020Z AUTO 15006KT 130V190 9999 DZ OVC004/// 10/10 Q1002 REDZ=
202105150950 METAR ESMX 150950Z AUTO 17005KT 9999 DZ OVC004/// 10/09 Q1002=
202105150920 METAR ESMX 150920Z AUTO 15007KT 9999 DZ OVC005/// 09/09 Q1002=
202105150850 METAR ESMX 150850Z AUTO 14006KT 080V170 9999 -RA OVC006/// 09/09 Q1002=
202105150820 METAR ESMX 150820Z AUTO 16006KT 9999 -DZ OVC006/// 09/09 Q1002=
202105150750 METAR ESMX 150750Z AUTO 15007KT 9999 DZ OVC007/// 09/09 Q1002=
202105150720 METAR ESMX 150720Z AUTO 14006KT 110V170 9999 DZ SCT006/// OVC029/// 09/09 Q1002=
202105150650 METAR ESMX 150650Z AUTO 15006KT 9999 -DZ SCT007/// BKN032/// BKN038/// 09/09 Q1002=
202105150620 METAR ESMX 150620Z AUTO 15006KT 9999 -RA FEW007/// SCT019/// BKN035/// 09/09 Q1002=
202105150550 METAR ESMX 150550Z AUTO 14005KT 100V170 9999 -RA FEW007/// OVC046/// 09/09 Q1002=
202105150520 METAR ESMX 150520Z AUTO 14004KT 9999 -RA FEW032/// BKN047/// OVC061/// 09/09 Q1002=
202105150450 METAR ESMX 150450Z AUTO 13005KT 080V150 9999 -RA FEW033/// OVC055/// 08/08 Q1002=
202105150420 METAR ESMX 150420Z AUTO 13004KT 9999 RA OVC051/// 08/08 Q1002=
202105150350 METAR ESMX 150350Z AUTO 19003KT 9999 RA ///048 09/09 Q1002=
202105150320 METAR ESMX 150320Z AUTO 19003KT 9999 -RA BKN049/// OVC061/// 09/09 Q1002=
202105150250 METAR ESMX 150250Z AUTO VRB03KT 9999 -RA FEW037/// OVC051/// 09/08 Q1002 REDZ=
202105150220 METAR ESMX 150220Z AUTO 19003KT 9999 DZ FEW003/// BKN028/// OVC034/// 09/09 Q1003=
202105150150 METAR ESMX 150150Z AUTO 19003KT 9999 -RA OVC032/// 09/09 Q1003=
202105150120 METAR ESMX 150120Z AUTO 13004KT 9999 RA BKN036/// OVC048/// 09/09 Q1003=
202105150050 METAR ESMX 150050Z AUTO 19003KT 9999 -RA FEW031/// OVC047/// 09/09 Q1003=
202105150020 METAR ESMX 150020Z AUTO 20003KT 8000 RA SCT033/// OVC047/// 10/10 Q1003=
202105142350 METAR ESMX 142350Z AUTO 20003KT 7000 RA OVC048/// 09/09 Q1003=
202105142320 METAR ESMX 142320Z AUTO 16004KT 8000 RA FEW002/// OVC047/// 09/09 Q1003=
202105142250 METAR ESMX 142250Z AUTO 19004KT 8000 RA ///047 09/09 Q1003=
202105142220 METAR ESMX 142220Z AUTO 19004KT 6000 +RA BKN001/// BKN009/// OVC051/// 10/10 Q1004=
202105142150 METAR ESMX 142150Z AUTO VRB02KT 5000 RA BKN001/// BKN041/// OVC049/// 10/10 Q1004=
202105142120 METAR ESMX 142120Z AUTO 00000KT 5000 RA FEW002/// OVC046/// 10/10 Q1004=
202105142050 METAR ESMX 142050Z AUTO 19002KT 4700 RA SCT002/// OVC047/// 10/10 Q1004=
202105142020 METAR ESMX 142020Z AUTO 26003KT 230V300 8000 RA ///043 10/10 Q1004=
202105141950 METAR ESMX 141950Z AUTO 22003KT 9000 RA SCT002/// OVC051/// 11/10 Q1004=
202105141920 METAR ESMX 141920Z AUTO 19003KT 9000 RA BKN001/// OVC024/// 11/10 Q1004=
202105141850 METAR ESMX 141850Z AUTO 16004KT 9999 -RA BKN030/// OVC044/// 12/10 Q1004=
202105141820 METAR ESMX 141820Z AUTO 19003KT 9999 BKN032/// OVC042/// 12/09 Q1003=
202105141750 METAR ESMX 141750Z AUTO 16005KT 9999 BKN042/// OVC064/// 13/09 Q1003=
202105141720 METAR ESMX 141720Z AUTO 17006KT 9999 SCT038/// OVC055/// 13/09 Q1003=
202105141650 METAR ESMX 141650Z AUTO 19006KT 9999 BKN039/// 13/09 Q1003=
202105141620 METAR ESMX 141620Z AUTO 10004KT 060V170 9999 BKN053/// 15/06 Q1003=
202105141550 METAR ESMX 141550Z AUTO 09005KT 030V130 9999 FEW051/// BKN062/// OVC120/// 16/06 Q1003=
202105141520 METAR ESMX 141520Z AUTO 10006KT 050V120 9999 BKN053/// OVC090/// 17/06 Q1003=
202105141450 METAR ESMX 141450Z AUTO 07005KT 020V130 9999 -DZ FEW066/// BKN092/// 17/07 Q1003=
202105141420 METAR ESMX 141420Z AUTO 08005KT 020V130 9999 BKN092/// 17/06 Q1003=
202105141350 METAR ESMX 141350Z 07005KT 010V150 CAVOK 18/06 Q1003=
202105141320 METAR ESMX 141320Z 07006KT 020V120 CAVOK 18/06 Q1003=
202105141250 METAR ESMX 141250Z 11005KT 040V160 CAVOK 18/06 Q1003=
202105141220 METAR ESMX 141220Z 11005KT 060V140 CAVOK 19/06 Q1003=
202105141150 METAR ESMX 141150Z 07006KT 030V100 CAVOK 18/06 Q1003=
202105141120 METAR ESMX 141120Z 08006KT 020V130 CAVOK 18/06 Q1003=
202105141050 METAR ESMX 141050Z 05006KT 010V100 CAVOK 19/05 Q1003=
202105141020 METAR ESMX 141020Z 10006KT 050V130 CAVOK 18/04 Q1003=
202105140950 METAR ESMX 140950Z 06006KT 360V130 CAVOK 18/05 Q1003=
202105140920 METAR ESMX 140920Z 08006KT 010V140 CAVOK 18/05 Q1003=
202105140850 METAR ESMX 140850Z 10005KT 030V160 CAVOK 18/04 Q1003=
202105140820 METAR ESMX 140820Z VRB05KT CAVOK 18/05 Q1003=
202105140750 METAR ESMX 140750Z 13006KT 080V150 CAVOK 17/06 Q1003=
202105140720 METAR ESMX 140720Z 10007KT 060V180 CAVOK 16/05 Q1003=
202105140650 METAR ESMX 140650Z 13002KT CAVOK 15/07 Q1003=
202105140620 METAR ESMX 140620Z 12003KT CAVOK 13/07 Q1003=
202105140550 METAR ESMX 140550Z AUTO 12004KT 9999 NCD 13/06 Q1003=
202105140520 METAR ESMX 140520Z AUTO 12004KT 030V140 9999 FEW057/// SCT074/// 13/07 Q1003=
202105140450 METAR ESMX 140450Z AUTO 09002KT 9999 NCD 10/07 Q1003=
202105140420 METAR ESMX 140420Z AUTO VRB03KT 9999 BKN059/// 10/07 Q1003=
202105140350 METAR ESMX 140350Z AUTO 08003KT 030V090 9999 BKN057/// 09/07 Q1003=
202105140320 METAR ESMX 140320Z AUTO 07004KT 030V100 9999 -DZ NCD 09/07 Q1003=
202105140250 METAR ESMX 140250Z AUTO 05005KT 8000 -RA FEW055/// 10/06 Q1003 REUP=
202105140220 METAR ESMX 140220Z AUTO 04004KT 9999 BKN057/// 10/06 Q1003=
202105140150 METAR ESMX 140150Z AUTO 05003KT 9999 SCT055/// 08/06 Q1003=
202105140120 METAR ESMX 140120Z AUTO VRB02KT 9999 BKN055/// 09/06 Q1003=
202105140050 METAR ESMX 140050Z AUTO 02005KT 9999 BKN055/// 09/06 Q1003=
202105140020 METAR ESMX 140020Z AUTO 03004KT 9999 NCD 10/06 Q1003=
202105132350 METAR ESMX 132350Z AUTO 06004KT 9999 NCD 12/06 Q1003=
202105132320 METAR ESMX 132320Z AUTO 02002KT 9999 NCD 08/06 Q1003=
202105132250 METAR ESMX 132250Z AUTO 00000KT 9999 NCD 08/06 Q1004=
202105132220 METAR ESMX 132220Z AUTO VRB02KT 9999 NCD 08/06 Q1004=
202105132150 METAR ESMX 132150Z AUTO 00000KT 9999 NCD 10/06 Q1003=
202105132120 METAR ESMX 132120Z AUTO 00000KT 9999 SCT090/// 11/05 Q1004=
202105132050 METAR ESMX 132050Z AUTO 08002KT 9999 SCT092/// BKN120/// 13/05 Q1004=
202105132020 METAR ESMX 132020Z AUTO 06002KT 9999 FEW100/// 15/05 Q1004=
202105131950 METAR ESMX 131950Z AUTO 07004KT 030V100 9999 OVC100/// 16/04 Q1004=
202105131920 METAR ESMX 131920Z AUTO 07006KT 030V110 9999 BKN100/// 17/04 Q1004=
202105131850 METAR ESMX 131850Z AUTO 07004KT 030V100 9999 OVC100/// 18/04 Q1004=
202105131820 METAR ESMX 131820Z AUTO 08005KT 040V110 9999 OVC100/// 19/04 Q1004=
202105131750 METAR ESMX 131750Z AUTO 09004KT 360V160 9999 FEW100/// 20/04 Q1004=
202105131720 METAR ESMX 131720Z AUTO 09005KT 010V150 9999 NCD 21/03 Q1004=
202105131650 METAR ESMX 131650Z AUTO 12006KT 060V180 9999 NCD 22/02 Q1003=
202105131620 METAR ESMX 131620Z AUTO 11006KT 060V150 9999 NCD 22/03 Q1003=
202105131550 METAR ESMX 131550Z AUTO 13005KT 080V150 9999 NCD 23/04 Q1003=
202105131520 METAR ESMX 131520Z AUTO 07007KT 020V110 9999 NCD 23/06 Q1003=
202105131450 METAR ESMX 131450Z AUTO 11006KT 030V150 9999 NCD 23/07 Q1003=
202105131420 METAR ESMX 131420Z AUTO 13007KT 060V160 9999 FEW070/// 23/07 Q1003=
202105131350 METAR ESMX 131350Z 13007KT 070V160 CAVOK 23/08 Q1003=
202105131320 METAR ESMX 131320Z 13006KT 080V150 CAVOK 23/08 Q1003=
202105131250 METAR ESMX 131250Z 14009KT 110V190 CAVOK 24/09 Q1004=
202105131220 METAR ESMX 131220Z AUTO 13008KT 100V170 9999 SCT074/// 24/09 Q1004=
202105131150 METAR ESMX 131150Z AUTO 11007KT 020V160 9999 SCT055/// 24/10 Q1004=
202105131120 METAR ESMX 131120Z AUTO 13009KT 090V170 9999 SCT053/// 24/11 Q1004=
202105131050 METAR ESMX 131050Z AUTO 12008KT 060V160 9999 FEW200/// 23/11 Q1004=
202105131020 METAR ESMX 131020Z AUTO 14010KT 100V170 9999 NCD 23/11 Q1004=
202105130950 METAR ESMX 130950Z AUTO 12008KT 060V150 9999 NCD 24/11 Q1004=
202105130920 METAR ESMX 130920Z AUTO 04006KT 9999 NCD 22/12 Q1004=
202105130850 METAR ESMX 130850Z AUTO 05006KT 9999 NCD 20/12 Q1004=
202105130820 METAR ESMX 130820Z AUTO 02007KT 9999 NCD 19/11 Q1004=
202105130750 METAR ESMX 130750Z AUTO 03007KT 340V060 9999 NCD 18/12 Q1004=
202105130720 METAR ESMX 130720Z AUTO 03006KT 360V060 9999 FEW074/// 18/11 Q1004=
202105130650 METAR ESMX 130650Z AUTO 01005KT 9999 SCT070/// 16/12 Q1004=
202105130620 METAR ESMX 130620Z AUTO 36004KT 340V040 9999 FEW068/// 16/12 Q1004=
202105130550 METAR ESMX 130550Z AUTO 17004KT 9999 NCD 15/12 Q1005=
202105130520 METAR ESMX 130520Z AUTO 17003KT 9999 NCD 13/12 Q1005=
202105130450 METAR ESMX 130450Z AUTO 01003KT 9999 NCD 12/12 Q1005=
202105130420 METAR ESMX 130420Z AUTO 17002KT 7000 BCFG NCD 10/10 Q1005=
202105130350 METAR ESMX 130350Z AUTO 00000KT 5000 BCFG NCD 09/09 Q1005=
202105130320 METAR ESMX 130320Z AUTO VRB01KT 0150 R01/0300N R19/0350N FG NCD 08/08 Q1005=
202105130250 METAR ESMX 130250Z AUTO 00000KT 9999 BR NCD 09/09 Q1005=
202105130220 METAR ESMX 130220Z AUTO 00000KT 1100 R01/P2000N R19/P2000N NCD 09/09 Q1006=
202105130150 METAR ESMX 130150Z AUTO 00000KT 9999 NCD 09/09 Q1006=
202105130120 METAR ESMX 130120Z AUTO 00000KT 0300 R01/P2000N R19/P2000N BCFG NCD 08/08 Q1006=
202105130050 METAR ESMX 130050Z AUTO 00000KT 4800 BCFG NCD 10/10 Q1006=
202105130020 METAR ESMX 130020Z AUTO 00000KT 9999 NCD 11/11 Q1006=
202105122350 METAR ESMX 122350Z AUTO VRB01KT 9999 NCD 11/10 Q1006=
202105122320 METAR ESMX 122320Z AUTO 17003KT 9999 NCD 11/11 Q1006=
202105122250 METAR ESMX 122250Z AUTO 00000KT 9999 NCD 11/10 Q1006=
202105122220 METAR ESMX 122220Z AUTO 17003KT 9999 NCD 11/11 Q1006=
202105122150 METAR ESMX 122150Z AUTO 00000KT 9999 NCD 12/12 Q1007=
202105122120 METAR ESMX 122120Z AUTO 17002KT 9999 NCD 13/11 Q1007=
202105122050 METAR ESMX 122050Z AUTO 17002KT 9999 NCD 14/11 Q1007=
202105122020 METAR ESMX 122020Z AUTO 17003KT 9999 NCD 14/10 Q1007=
202105121950 METAR ESMX 121950Z AUTO 17003KT 9999 NCD 17/12 Q1007=
202105121920 METAR ESMX 121920Z AUTO 17005KT 9999 NCD 19/12 Q1007=
202105121850 METAR ESMX 121850Z AUTO 17006KT 9999 NCD 19/12 Q1006=
202105121820 METAR ESMX 121820Z AUTO 18006KT 9999 NCD 20/12 Q1006=
202105121750 METAR ESMX 121750Z AUTO 18007KT 9999 NCD 22/12 Q1006=
202105121720 METAR ESMX 121720Z AUTO 19010KT 9999 NCD 22/12 Q1005=
202105121650 METAR ESMX 121650Z AUTO 18009KT 9999 NCD 24/12 Q1005=
202105121620 METAR ESMX 121620Z 19010KT CAVOK 25/12 Q1005=
202105121550 METAR ESMX 121550Z 18009KT CAVOK 25/11 Q1005=
202105121520 METAR ESMX 121520Z AUTO 15008KT 100V170 9999 NCD 25/11 Q1005=
202105121450 METAR ESMX 121450Z AUTO 17009KT 120V190 9999 NCD 26/11 Q1005=
202105121420 METAR COR ESMX 121420Z 14009KT 110V170 CAVOK 25/11 Q1005=
202105121350 METAR ESMX 121350Z 14008KT 100V190 CAVOK 25/11 Q1005=
202105121320 METAR ESMX 121320Z 14009KT 070V170 CAVOK 25/12 Q1005=
202105121250 METAR ESMX 121250Z 13010KT 080V170 CAVOK 25/12 Q1005=
202105121220 METAR ESMX 121220Z 16010KT CAVOK 25/12 Q1005=
202105121150 METAR COR ESMX 121150Z 15009KT 100V170 CAVOK 25/12 Q1005=
202105121120 METAR ESMX 121120Z 13010KT 080V180 CAVOK 24/12 Q1005=
202105121050 METAR ESMX 121050Z 13008KT 070V160 CAVOK 24/12 Q1005=
202105121020 METAR ESMX 121020Z 14006KT 090V170 9999 FEW160 24/12 Q1005=
202105120950 METAR ESMX 120950Z 15007KT CAVOK 23/12 Q1005=
202105120920 METAR ESMX 120920Z 16008KT CAVOK 23/12 Q1005=
202105120850 METAR ESMX 120850Z 14007KT 100V170 CAVOK 22/12 Q1004=
202105120820 METAR ESMX 120820Z 14007KT 100V170 CAVOK 21/11 Q1004=
202105120750 METAR ESMX 120750Z 13007KT 070V170 CAVOK 20/11 Q1004=
202105120720 METAR ESMX 120720Z 14007KT 100V170 CAVOK 19/11 Q1004=
202105120650 METAR ESMX 120650Z 13007KT 090V170 CAVOK 19/11 Q1004=
202105120620 METAR ESMX 120620Z 12007KT 080V150 CAVOK 18/10 Q1004=
202105120550 METAR ESMX 120550Z AUTO 11006KT 050V150 9999 R01///// R19///// NCD 17/10 Q1004=
202105120520 METAR ESMX 120520Z AUTO 10007KT 060V130 9999 R01///// R19///// NCD 16/10 Q1004=
202105120450 METAR ESMX 120450Z AUTO 09005KT 050V130 9999 R01///// R19///// NCD 15/10 Q1004=
202105120420 METAR ESMX 120420Z AUTO 11006KT 070V140 9999 R01///// R19///// NCD 14/09 Q1004=
202105120350 METAR ESMX 120350Z AUTO 10003KT 9999 R01///// R19///// NCD 12/09 Q1005=
202105120320 METAR ESMX 120320Z AUTO 07003KT 9999 R01///// R19///// FEW210/// 11/09 Q1005=
202105120250 METAR ESMX 120250Z AUTO 06003KT 9999 R01///// R19///// NCD 11/09 Q1005=
202105120220 METAR ESMX 120220Z AUTO 07004KT 9999 R01///// R19///// NCD 11/08 Q1005=
202105120150 METAR ESMX 120150Z AUTO 04004KT 010V070 9999 R01///// R19///// NCD 11/09 Q1005=
202105120120 METAR ESMX 120120Z AUTO 04004KT 010V090 9999 R01///// R19///// NCD 12/09 Q1006=
202105120050 METAR ESMX 120050Z AUTO 03005KT 9999 R01///// R19///// NCD 12/09 Q1006=
202105120020 METAR ESMX 120020Z AUTO 04005KT 9999 R01///// R19///// NCD 12/09 Q1006=
202105112350 METAR ESMX 112350Z AUTO 04005KT 9999 R01///// R19///// NCD 12/09 Q1006=
202105112320 METAR ESMX 112320Z AUTO 04006KT 9999 R01///// R19///// NCD 13/09 Q1006=
202105112250 METAR ESMX 112250Z AUTO 03006KT 9999 R01///// R19///// NCD 13/10 Q1007=
202105112220 METAR ESMX 112220Z AUTO 03006KT 9999 R01///// R19///// NCD 14/10 Q1007=
202105112150 METAR ESMX 112150Z AUTO 04006KT 9999 R01///// R19///// NCD 15/11 Q1007=
202105112120 METAR ESMX 112120Z AUTO 04008KT 9999 R01///// R19///// NCD 16/11 Q1007=
202105112050 METAR ESMX 112050Z AUTO 03006KT 9999 R01///// R19///// NCD 17/11 Q1007=
202105112020 METAR ESMX 112020Z AUTO 01004KT 9999 R01///// R19///// NCD 17/11 Q1007=
202105111950 METAR ESMX 111950Z AUTO 07004KT 030V100 9999 R01///// R19///// NCD 18/11 Q1008=
202105111920 METAR ESMX 111920Z AUTO 06003KT 9999 R01///// R19///// NCD 19/11 Q1008=
202105111850 METAR ESMX 111850Z AUTO 12003KT 9999 R01///// R19///// NCD 20/11 Q1007=
202105111820 METAR ESMX 111820Z AUTO 12003KT 9999 R01///// R19///// NCD 21/11 Q1007=
202105111750 METAR ESMX 111750Z AUTO 11005KT 070V140 9999 R01///// R19///// NCD 22/11 Q1007=
202105111720 METAR ESMX 111720Z AUTO 10005KT 050V140 9999 R01///// R19///// NCD 23/11 Q1007=
202105111650 METAR ESMX 111650Z AUTO 12006KT 070V160 //// R01///// R19///// NCD 24/11 Q1007=
202105111620 METAR ESMX 111620Z AUTO 13007KT 070V140 9999 R01///// R19///// NCD 24/11 Q1007=
202105111550 METAR ESMX 111550Z AUTO 14008KT 110V170 9999 R01///// R19///// NCD 25/11 Q1007=
202105111520 METAR ESMX 111520Z AUTO 14006KT 100V170 9999 NCD 26/11 Q1007=
202105111450 METAR ESMX 111450Z AUTO 36008KT 9999 NCD 24/14 Q1007=
202105111420 METAR ESMX 111420Z AUTO 36009KT 9999 NCD 23/14 Q1007=
202105111350 METAR ESMX 111350Z 35009KT CAVOK 23/14 Q1008=
202105111320 METAR ESMX 111320Z 35010KT CAVOK 24/14 Q1008=
202105111250 METAR ESMX 111250Z 35010KT CAVOK 25/14 Q1008=
202105111220 METAR ESMX 111220Z 36009KT CAVOK 24/12 Q1008=
202105111150 METAR ESMX 111150Z 34008KT CAVOK 24/12 Q1009=
202105111120 METAR ESMX 111120Z 33009KT CAVOK 23/13 Q1009=
202105111050 METAR ESMX 111050Z 35008KT 320V020 CAVOK 23/12 Q1009=
202105111020 METAR ESMX 111020Z 36008KT CAVOK 23/12 Q1009=
202105110950 METAR ESMX 110950Z 36009KT CAVOK 22/12 Q1009=
202105110920 METAR ESMX 110920Z 34008KT CAVOK 22/13 Q1009=
202105110850 METAR ESMX 110850Z 34009KT CAVOK 21/12 Q1010=
202105110820 METAR ESMX 110820Z 34007KT 320V020 CAVOK 20/12 Q1010=
202105110750 METAR ESMX 110750Z 33007KT CAVOK 19/12 Q1010=
202105110720 METAR ESMX 110720Z 36006KT CAVOK 18/12 Q1010=
202105110650 METAR ESMX 110650Z 01007KT CAVOK 18/12 Q1010=
202105110620 METAR ESMX 110620Z 36008KT CAVOK 17/11 Q1010=
202105110550 METAR ESMX 110550Z AUTO 01008KT 9999 SCT070/// BKN170/// 17/11 Q1011=
202105110520 METAR ESMX 110520Z AUTO 36008KT 9999 FEW150/// 15/11 Q1011=
202105110450 METAR ESMX 110450Z AUTO 34006KT 9999 FEW150/// 14/11 Q1011=
202105110420 METAR ESMX 110420Z AUTO 20004KT 9999 FEW076/// 13/11 Q1011=
202105110350 METAR ESMX 110350Z AUTO 20003KT 9999 OVC150/// 11/10 Q1011=
202105110320 METAR ESMX 110320Z AUTO 20003KT 9999 FEW140/// 10/10 Q1011=
202105110250 METAR ESMX 110250Z AUTO 20002KT 9999 OVC140/// 12/10 Q1011=
202105110220 METAR ESMX 110220Z AUTO 00000KT 9999 SCT130/// BKN150/// 12/10 Q1011=
202105110150 METAR ESMX 110150Z AUTO 00000KT 9999 SCT120/// BKN160/// 12/10 Q1011=
202105110120 METAR ESMX 110120Z AUTO 28005KT 9999 BKN140/// 10/09 Q1011=
202105110050 METAR ESMX 110050Z AUTO 02003KT 9999 OVC140/// 11/09 Q1010=
202105110020 METAR ESMX 110020Z AUTO 20002KT 9999 BKN130/// 11/09 Q1010=
202105102350 METAR ESMX 102350Z AUTO 00000KT 9999 FEW120/// 11/10 Q1010=
202105102320 METAR ESMX 102320Z AUTO 20001KT 9999 SCT140/// 12/10 Q1010=
202105102250 METAR ESMX 102250Z AUTO 28004KT 9999 NCD 12/08 Q1010=
202105102220 METAR ESMX 102220Z AUTO 28003KT 250V320 9999 NCD 13/09 Q1010=
202105102150 METAR ESMX 102150Z AUTO 17006KT 9999 NCD 13/08 Q1010=
202105102120 METAR ESMX 102120Z AUTO 19005KT 9999 NCD 13/08 Q1010=
202105102050 METAR ESMX 102050Z AUTO 17004KT 9999 NCD 16/08 Q1010=
202105102020 METAR ESMX 102020Z AUTO 17006KT 9999 NCD 14/08 Q1010=
202105101950 METAR ESMX 101950Z AUTO 17005KT 9999 NCD 15/08 Q1009=
202105101920 METAR ESMX 101920Z AUTO 14007KT 9999 NCD 18/08 Q1009=
202105101850 METAR ESMX 101850Z AUTO 13005KT 9999 NCD 17/08 Q1009=
202105101820 METAR ESMX 101820Z AUTO 17006KT 9999 NCD 20/07 Q1009=
202105101750 METAR ESMX 101750Z AUTO 15005KT 9999 NCD 20/07 Q1008=
202105101720 METAR ESMX 101720Z AUTO 17008KT 9999 NCD 21/07 Q1008=
202105101650 METAR ESMX 101650Z AUTO 15010KT 9999 NCD 22/09 Q1008=
202105101620 METAR ESMX 101620Z AUTO 15010KT 9999 SCT140/// 23/09 Q1008=
202105101550 METAR ESMX 101550Z AUTO 15011KT 9999 SCT140/// 23/10 Q1007=
202105101520 METAR ESMX 101520Z AUTO 16009KT 9999 FEW110/// BKN160/// 24/10 Q1007=
202105101450 METAR ESMX 101450Z AUTO 17010KT 9999 SCT110/// 23/10 Q1007=
202105101420 METAR ESMX 101420Z AUTO 18008KT 9999 SCT110/// 24/10 Q1006=
202105101350 METAR ESMX 101350Z 19010KT CAVOK 25/10 Q1006=
202105101320 METAR ESMX 101320Z 16009KT 120V190 CAVOK 24/10 Q1006=
202105101250 METAR ESMX 101250Z 16009KT CAVOK 23/10 Q1006=
202105101220 METAR ESMX 101220Z 14011KT CAVOK 22/10 Q1006=
202105101150 METAR ESMX 101150Z 15011KT 110V170 9999 BKN130 22/10 Q1006=
202105101120 METAR ESMX 101120Z 15010KT CAVOK 22/11 Q1006=
202105101050 METAR ESMX 101050Z 15011KT CAVOK 21/10 Q1006=
202105101020 METAR ESMX 101020Z 16010KT 120V190 CAVOK 21/10 Q1006=
202105100950 METAR ESMX 100950Z 16010KT CAVOK 20/10 Q1006=
202105100920 METAR ESMX 100920Z 16009KT CAVOK 20/10 Q1006=
202105100850 METAR ESMX 100850Z 16008KT CAVOK 20/10 Q1006=
202105100820 METAR ESMX 100820Z 16009KT 120V180 CAVOK 19/10 Q1006=
202105100750 METAR ESMX 100750Z 16010KT CAVOK 18/10 Q1006=
202105100720 METAR ESMX 100720Z 15010KT CAVOK 17/09 Q1006=
202105100650 METAR ESMX 100650Z 15010KT 110V190 CAVOK 16/09 Q1005=
202105100620 METAR ESMX 100620Z 15009KT CAVOK 16/09 Q1005=
202105100550 METAR ESMX 100550Z 15010KT CAVOK 15/09 Q1005=
202105100520 METAR ESMX 100520Z AUTO 16008KT 9999 FEW086/// 14/09 Q1005=
202105100450 METAR ESMX 100450Z AUTO 14006KT 110V170 9999 SCT088/// 13/08 Q1005=
202105100420 METAR ESMX 100420Z AUTO 13004KT 100V180 9999 FEW086/// 12/08 Q1005=
202105100350 METAR ESMX 100350Z AUTO 12003KT 9999 NCD 11/08 Q1005=
202105100320 METAR ESMX 100320Z AUTO 03003KT 9999 NCD 11/08 Q1006=
202105100250 METAR ESMX 100250Z AUTO VRB03KT 9999 NCD 11/08 Q1006=
202105100220 METAR ESMX 100220Z AUTO 15004KT 9999 NCD 11/08 Q1006=
202105100150 METAR ESMX 100150Z AUTO 14009KT 110V170 9999 FEW150/// 12/08 Q1005=
202105100120 METAR ESMX 100120Z AUTO 13005KT 9999 FEW120/// SCT140/// 12/08 Q1006=
202105100050 METAR ESMX 100050Z AUTO 13004KT 080V140 9999 BKN110/// 12/09 Q1006=
202105100020 METAR ESMX 100020Z AUTO 17003KT 9999 OVC110/// 12/09 Q1006=
202105092350 METAR ESMX 092350Z AUTO 17004KT 9999 BKN100/// OVC120/// 12/09 Q1007=
202105092320 METAR ESMX 092320Z AUTO 18007KT 9999 OVC110/// 13/10 Q1006=
202105092250 METAR ESMX 092250Z AUTO 15007KT 9999 BKN110/// 13/10 Q1006=
202105092220 METAR ESMX 092220Z AUTO 14005KT 9999 FEW100/// SCT130/// 13/10 Q1005=
202105092150 METAR ESMX 092150Z AUTO 14008KT 120V180 9999 FEW051/// BKN094/// 13/10 Q1006=
202105092120 METAR ESMX 092120Z AUTO 14008KT 9999 -RA FEW037/// OVC082/// 13/10 Q1006=
202105092050 METAR ESMX 092050Z AUTO 16008KT 9999 -RA SCT082/// 14/09 Q1007=
202105092020 METAR ESMX 092020Z AUTO 15008KT 9999 FEW120/// SCT180/// 14/09 Q1007=
202105091950 METAR ESMX 091950Z AUTO 16008KT 9999 NCD 14/10 Q1007=
202105091920 METAR ESMX 091920Z AUTO 16008KT 9999 NCD 14/10 Q1007=
202105091850 METAR ESMX 091850Z AUTO 17008KT 9999 FEW110/// 15/10 Q1007=
202105091820 METAR ESMX 091820Z AUTO 16008KT 9999 NCD 16/10 Q1007=
202105091750 METAR ESMX 091750Z AUTO 17010KT 9999 NCD 17/10 Q1006=
202105091720 METAR ESMX 091720Z AUTO 15011KT 120V190 9999 FEW044/// 17/11 Q1006=
202105091650 METAR ESMX 091650Z AUTO 17011KT 9999 FEW045/// 18/11 Q1006=
202105091620 METAR ESMX 091620Z AUTO 16011KT 9999 FEW042/// 17/10 Q1005=
202105091550 METAR ESMX 091550Z AUTO 17012KT 9999 FEW038/// 17/10 Q1006=
202105091520 METAR ESMX 091520Z AUTO 15010KT 9999 BKN038/// 17/11 Q1006=
202105091450 METAR ESMX 091450Z AUTO 15011KT 120V190 9999 FEW038/// SCT059/// 17/11 Q1006=
202105091420 METAR ESMX 091420Z AUTO 15010KT 120V190 9999 FEW055/// 17/11 Q1006=
202105091350 METAR ESMX 091350Z AUTO 15010KT 120V190 9999 NCD 16/11 Q1006=
202105091320 METAR ESMX 091320Z AUTO 17010KT 9999 FEW043/// SCT053/// BKN068/// 14/11 Q1006=
202105091250 METAR ESMX 091250Z AUTO 18010KT 9999 FEW009/// BKN051/// 13/11 Q1006=
202105091220 METAR ESMX 091220Z AUTO 17009KT 9999 OVC008/// 11/10 Q1006=
202105091150 METAR ESMX 091150Z AUTO 17010KT 9999 OVC006/// 10/09 Q1007=
202105091120 METAR ESMX 091120Z AUTO 17010KT 9000 BR OVC005/// 09/09 Q1006=
202105091050 METAR ESMX 091050Z AUTO 17011KT 9999 OVC004/// 08/08 Q1007=
202105091020 METAR ESMX 091020Z AUTO 17012KT 5000 BR OVC003/// 07/07 Q1007 RESHUP=
202105090950 METAR ESMX 090950Z AUTO 16010KT 6000 UP OVC004/// 07/07 Q1007 RERA=
202105090920 METAR ESMX 090920Z AUTO 14009KT 110V190 9000 BR OVC004/// 07/07 Q1007 REDZ=
202105090850 METAR ESMX 090850Z AUTO 14009KT 100V170 5000 DZ OVC005/// 07/07 Q1007=
202105090820 METAR ESMX 090820Z AUTO 15009KT 4700 DZ FEW002/// BKN005/// OVC009/// 07/06 Q1007=
202105090750 METAR ESMX 090750Z AUTO 14008KT 100V180 9999 -RA BKN009/// OVC012/// 07/06 Q1008=
202105090720 METAR ESMX 090720Z AUTO 14009KT 100V170 9999 -RA BKN010/// OVC031/// 07/06 Q1008 REDZ=
202105090650 METAR ESMX 090650Z AUTO 14008KT 9999 -DZ FEW025/// BKN033/// OVC039/// 06/05 Q1008 REDZ=
202105090620 METAR ESMX 090620Z AUTO 13008KT 100V160 9999 -RA OVC038/// 06/05 Q1008 REDZ=
202105090550 METAR ESMX 090550Z AUTO 14008KT 090V170 9999 DZ FEW024/// OVC038/// 05/04 Q1009=
202105090520 METAR ESMX 090520Z AUTO 14008KT 9999 -RA ///038 05/04 Q1009 REDZ=
202105090450 METAR ESMX 090450Z AUTO 14008KT 110V170 9999 DZ ///042 05/03 Q1009 REDZ=
202105090420 METAR ESMX 090420Z AUTO 14009KT 9999 -DZ OVC048/// 06/02 Q1010=
202105090350 METAR ESMX 090350Z AUTO 14008KT 9999 -DZ OVC045/// 06/02 Q1010 REUP=
202105090320 METAR ESMX 090320Z AUTO 14008KT 110V170 9999 BKN055/// 05/02 Q1010=
202105090250 METAR ESMX 090250Z AUTO 14007KT 110V170 9999 BKN076/// OVC100/// 05/02 Q1011=
202105090220 METAR ESMX 090220Z AUTO 13007KT 100V160 9999 BKN057/// OVC110/// 05/02 Q1011=
202105090150 METAR ESMX 090150Z AUTO 14007KT 9999 FEW059/// OVC120/// 05/02 Q1011=
202105090120 METAR ESMX 090120Z AUTO 15006KT 9999 FEW055/// OVC130/// 05/03 Q1012=
202105090050 METAR ESMX 090050Z AUTO 14005KT 9999 SCT110/// OVC140/// 05/03 Q1012=
202105090020 METAR ESMX 090020Z AUTO 14006KT 9999 BKN140/// OVC170/// 05/03 Q1012=
202105082350 METAR ESMX 082350Z AUTO 20005KT 9999 FEW120/// OVC160/// 05/02 Q1012=
202105082320 METAR ESMX 082320Z AUTO 20005KT 9999 BKN160/// 05/02 Q1013=
202105082250 METAR ESMX 082250Z AUTO 20004KT 9999 BKN160/// BKN190/// 05/01 Q1013=
202105082220 METAR ESMX 082220Z AUTO 20005KT 9999 BKN190/// 05/01 Q1013=
202105082150 METAR ESMX 082150Z AUTO 22005KT 9999 BKN190/// 05/01 Q1013=
202105082120 METAR ESMX 082120Z AUTO 24003KT 9999 OVC180/// 04/01 Q1013=
202105082050 METAR ESMX 082050Z AUTO 24003KT 9999 OVC180/// 06/01 Q1013=
202105082020 METAR ESMX 082020Z AUTO 18004KT 9999 OVC190/// 05/01 Q1013=
202105081950 METAR ESMX 081950Z AUTO 24004KT 9999 BKN190/// 06/00 Q1013=
202105081920 METAR ESMX 081920Z AUTO 24004KT 9999 FEW210/// 06/M00 Q1013=
202105081850 METAR ESMX 081850Z AUTO 24004KT 9999 SCT220/// 06/M00 Q1013=
202105081820 METAR ESMX 081820Z AUTO 21003KT 9999 NCD 07/M01 Q1013=
202105081750 METAR ESMX 081750Z AUTO 23007KT 9999 FEW220/// 08/M01 Q1013=
202105081720 METAR ESMX 081720Z AUTO 24008KT 200V260 9999 NCD 09/M01 Q1013=
202105081650 METAR ESMX 081650Z AUTO 23009KT 9999 FEW220/// 10/M02 Q1012=
202105081620 METAR ESMX 081620Z AUTO 25010KT 220V290 9999 FEW049/// 10/M02 Q1012=
202105081550 METAR ESMX 081550Z AUTO 23009KT 9999 FEW045/// 11/02 Q1012=
202105081520 METAR ESMX 081520Z AUTO 23010KT 200V260 9999 NCD 09/00 Q1012=
202105081450 METAR ESMX 081450Z AUTO 27013KT 230V290 9999 FEW042/// SCT055/// 10/02 Q1012=
202105081420 METAR ESMX 081420Z AUTO 23010KT 190V260 9999 FEW039/// 11/02 Q1012=
202105081350 METAR ESMX 081350Z AUTO 22007KT 170V290 9999 BKN076/// 11/01 Q1012=
202105081320 METAR ESMX 081320Z AUTO 23010KT 9999 BKN080/// 08/02 Q1012=
202105081250 METAR ESMX 081250Z AUTO 24012KT 220V280 9999 FEW080/// 07/02 Q1012=
202105081220 METAR ESMX 081220Z AUTO 27009KT 240V320 9999 FEW057/// BKN078/// 09/01 Q1012=
202105081150 METAR ESMX 081150Z AUTO 26004KT 240V320 9999 BKN053/// BKN072/// 10/M01 Q1012=
202105081120 METAR ESMX 081120Z AUTO 24005KT 9999 FEW074/// 11/02 Q1012=
202105081050 METAR ESMX 081050Z AUTO 24005G16KT 9999 FEW062/// 08/00 Q1012=
202105081020 METAR ESMX 081020Z AUTO 05004KT 010V080 9999 FEW046/// 09/03 Q1012 RERA=
202105080950 METAR ESMX 080950Z AUTO 05005KT 010V080 9999 BKN057/// 08/02 Q1012=
202105080920 METAR ESMX 080920Z AUTO 36005KT 340V070 9999 -RA FEW027/// SCT038/// BKN062/// 07/04 Q1012 RERA=
202105080850 METAR ESMX 080850Z AUTO 36006KT 320V020 9999 BKN028/// BKN070/// 07/02 Q1012=
202105080820 METAR ESMX 080820Z AUTO 29005KT 9999 SCT026/// BKN055/// OVC072/// 07/01 Q1012=
202105080750 METAR ESMX 080750Z AUTO VRB03KT 9999 FEW053/// 08/02 Q1011=
202105080720 METAR ESMX 080720Z AUTO 27003KT 9999 SCT015/// OVC055/// 06/02 Q1011=
202105080650 METAR ESMX 080650Z AUTO 27003KT 240V350 9999 BKN049/// OVC066/// 07/03 Q1011=
202105080620 METAR ESMX 080620Z AUTO 30004KT 250V320 9999 FEW008/// OVC072/// 05/03 Q1011=
202105080550 METAR ESMX 080550Z AUTO VRB03KT 9999 SCT039/// BKN070/// 05/03 Q1011=
202105080520 METAR ESMX 080520Z AUTO 26003KT 9999 FEW007/// BKN068/// 04/03 Q1011=
202105080450 METAR ESMX 080450Z AUTO 00000KT 9999 OVC066/// 03/03 Q1010=
202105080420 METAR ESMX 080420Z AUTO 00000KT 9999 NCD 01/01 Q1010=
202105080350 METAR ESMX 080350Z AUTO 19002KT 8000 BR NCD 00/00 Q1010=
202105080320 METAR ESMX 080320Z AUTO 21002KT 8000 BR NCD 00/00 Q1010=
202105080250 METAR ESMX 080250Z AUTO VRB02KT 9999 BKN068/// M00/M00 Q1010=
202105080220 METAR ESMX 080220Z AUTO 19002KT 9999 BKN070/// M00/M00 Q1010=
202105080150 METAR ESMX 080150Z AUTO 24003KT 9999 OVC072/// 00/00 Q1010=
202105080120 METAR ESMX 080120Z AUTO 18003KT 9999 FEW059/// OVC074/// M01/M01 Q1009=
202105080050 METAR ESMX 080050Z AUTO VRB01KT 9999 FEW082/// 00/00 Q1009=
202105080020 METAR ESMX 080020Z AUTO 25002KT 9999 NCD 01/01 Q1009=
202105072350 METAR ESMX 072350Z AUTO 23005KT 9999 NCD 01/01 Q1009=
202105072320 METAR ESMX 072320Z AUTO 23003KT 9999 SCT074/// 01/01 Q1009=
202105072250 METAR ESMX 072250Z AUTO 23004KT 9999 FEW068/// 01/01 Q1009=
202105072220 METAR ESMX 072220Z AUTO 24004KT 9999 OVC061/// 01/01 Q1009=
202105072150 METAR ESMX 072150Z AUTO 24004KT 9999 FEW051/// OVC080/// 02/02 Q1009=
202105072120 METAR ESMX 072120Z AUTO 25003KT 9999 FEW057/// OVC074/// 03/02 Q1009=
202105072050 METAR ESMX 072050Z AUTO 22004KT 9999 OVC072/// 03/02 Q1009=
202105072020 METAR ESMX 072020Z AUTO 24003KT 9999 BKN055/// OVC070/// 04/02 Q1009=
202105071950 METAR ESMX 071950Z AUTO 32003KT 9999 OVC062/// 04/02 Q1008=
202105071920 METAR ESMX 071920Z AUTO 34005KT 9999 -DZ FEW034/// OVC051/// 04/02 Q1008 REUP=
202105071850 METAR ESMX 071850Z AUTO 30005KT 270V330 9999 BKN061/// OVC084/// 05/02 Q1008=
202105071820 METAR ESMX 071820Z AUTO 33005KT 9999 FEW055/// OVC074/// 05/02 Q1008=
202105071750 METAR ESMX 071750Z AUTO 33011KT 280V350 9999 FEW032/// BKN051/// OVC082/// 06/01 Q1007=
202105071720 METAR ESMX 071720Z AUTO 09003KT 070V140 9999 BKN057/// OVC082/// 07/01 Q1007=
202105071650 METAR ESMX 071650Z AUTO 35003KT 9999 SCT072/// 07/01 Q1006=
202105071620 METAR ESMX 071620Z AUTO 02005KT 340V040 9999 FEW032/// BKN088/// 08/M00 Q1006=
202105071550 METAR ESMX 071550Z AUTO 02006KT 9999 -DZ FEW009/// OVC045/// 07/M00 Q1006 RERA=
202105071520 METAR ESMX 071520Z AUTO 02002KT 9999 SCT059/// BKN080/// 07/M02 Q1006=
202105071450 METAR ESMX 071450Z AUTO 01004KT 280V050 9999 SCT061/// BKN080/// 08/M02 Q1005=
202105071420 METAR ESMX 071420Z AUTO 33004KT 290V020 9999 OVC080/// 08/M01 Q1005=
202105071350 METAR ESMX 071350Z AUTO 34005KT 290V030 9999 OVC078/// 08/00 Q1005=
202105071320 METAR ESMX 071320Z 03005KT 9999 VCSH FEW040 08/M01 Q1005=
202105071250 METAR ESMX 071250Z 01004KT 340V050 CAVOK 07/M01 Q1005=
202105071220 METAR ESMX 071220Z 34008KT 9999 FEW040 06/01 Q1005=
202105071150 METAR ESMX 071150Z 34006KT 300V010 9999 VCSH FEW040 07/M01 Q1004=
202105071120 METAR ESMX 071120Z 01004KT 320V050 9999 VCSH SCT040 07/M02 Q1004=
202105071050 METAR ESMX 071050Z 01004KT 330V040 9999 BKN040 08/M01 Q1004=
202105071020 METAR ESMX 071020Z 34004KT 280V040 9999 BKN036 07/M02 Q1004=
202105070950 METAR ESMX 070950Z 05005KT 010V070 9999 BKN028 07/00 Q1004=
202105070920 METAR ESMX 070920Z 05004KT 9999 BKN024 06/M00 Q1004=
202105070850 METAR ESMX 070850Z 08004KT 040V100 9999 BKN020 05/00 Q1003=
202105070820 METAR ESMX 070820Z 04006KT 9999 BKN016 05/01 Q1003=
202105070750 METAR ESMX 070750Z 04004KT 020V090 9999 BKN015 04/01 Q1003=
202105070720 METAR ESMX 070720Z 06005KT 9999 SCT015 04/01 Q1003=
202105070650 METAR ESMX 070650Z 06005KT 030V090 9999 FEW010 03/01 Q1003=
202105070620 METAR ESMX 070620Z 07006KT 030V100 9999 FEW010 03/01 Q1002=
202105070550 METAR ESMX 070550Z AUTO 07004KT 030V090 9999 SCT062/// OVC078/// 03/01 Q1002=
202105070520 METAR ESMX 070520Z AUTO 04006KT 010V070 9999 FEW010/// OVC066/// 03/02 Q1002=
202105070450 METAR ESMX 070450Z AUTO 01005KT 9999 FEW009/// SCT053/// BKN066/// 03/02 Q1002=
202105070420 METAR ESMX 070420Z AUTO 01005KT 9999 FEW009/// BKN074/// OVC130/// 02/02 Q1001=
202105070350 METAR ESMX 070350Z AUTO 03004KT 9999 -DZ SCT011/// BKN040/// OVC059/// 02/02 Q1001=
202105070320 METAR ESMX 070320Z AUTO 04003KT 9999 -DZ OVC010/// 02/02 Q1001=
202105070250 METAR ESMX 070250Z AUTO 04004KT 9999 DZ BKN010/// OVC015/// 03/02 Q1001=
202105070220 METAR ESMX 070220Z AUTO 08003KT 9999 -RA BKN010/// 03/02 Q1001=
202105070150 METAR ESMX 070150Z AUTO 07004KT 9999 -RA FEW002/// BKN021/// OVC028/// 03/02 Q1001=
202105070120 METAR ESMX 070120Z AUTO 04003KT 9999 -RA BKN008/// OVC031/// 03/03 Q1001=
202105070050 METAR ESMX 070050Z AUTO 03004KT 9999 -RA BKN008/// OVC031/// 03/02 Q1001=
202105070020 METAR ESMX 070020Z AUTO 04004KT 9999 -RA SCT008/// BKN023/// OVC034/// 03/03 Q1001=
202105062350 METAR ESMX 062350Z AUTO 02005KT 9999 -RA ///041 03/03 Q1001 REDZ=
202105062320 METAR ESMX 062320Z AUTO 02005KT 9999 -DZ BKN009/// OVC038/// 03/03 Q1001 RESHUP REUP=
202105062250 METAR ESMX 062250Z AUTO 03005KT 9999 FEW009/// OVC036/// 03/03 Q1000 RESHUP=
202105062220 METAR ESMX 062220Z AUTO 02006KT 9999 UP SCT010/// BKN014/// BKN033/// 04/03 Q1000=
202105062150 METAR ESMX 062150Z AUTO 36005KT 9999 -DZ FEW008/// SCT014/// OVC032/// 04/03 Q1000 RESHUP REDZ=
202105062120 METAR ESMX 062120Z AUTO 36002KT 9999 FEW012/// SCT029/// OVC051/// 04/03 Q1000=
202105062050 METAR ESMX 062050Z AUTO 01002KT 9999 -DZ OVC026/// 04/04 Q1000=
202105062020 METAR ESMX 062020Z AUTO 01003KT 9999 DZ OVC020/// 04/04 Q1000=
202105061950 METAR ESMX 061950Z AUTO 35005KT 9999 -RA SCT009/// OVC018/// 04/04 Q1000 REDZ=
202105061920 METAR ESMX 061920Z AUTO 30003KT 9999 DZ SCT009/// BKN013/// OVC021/// 04/04 Q0999=
202105061850 METAR ESMX 061850Z 31005KT 9999 -RA FEW009 BKN019 04/04 Q0999=
202105061820 METAR ESMX 061820Z 32004KT 9999 -DZ FEW007 BKN017 05/04 Q0999=
202105061750 METAR ESMX 061750Z 30006KT 9999 -RA FEW007 SCT009 BKN012 05/04 Q0998=
202105061720 METAR ESMX 061720Z AUTO 31005KT 9999 -RA OVC023/// 05/04 Q0998=
202105061650 METAR ESMX 061650Z AUTO 31005KT 9999 -RA FEW010/// SCT021/// BKN025/// 05/05 Q0998 REDZ=
202105061620 METAR ESMX 061620Z AUTO 29005KT 9999 -DZ BKN012/// OVC027/// 05/04 Q0998=
202105061550 METAR ESMX 061550Z AUTO 31008KT 9999 -RA FEW011/// SCT015/// BKN020/// 05/04 Q0997=
202105061520 METAR ESMX 061520Z AUTO 31006KT 9999 -RA ///033 05/05 Q0997 REDZ=
202105061450 METAR ESMX 061450Z AUTO 30008KT 9999 DZ SCT007/// BKN009/// OVC013/// 05/04 Q0997=
202105061420 METAR ESMX 061420Z AUTO 29009KT 9999 DZ BKN007/// BKN009/// OVC013/// 05/04 Q0997=
202105061350 METAR ESMX 061350Z 32008KT 9999 -RA SCT008 BKN013 05/04 Q0996=
202105061320 METAR ESMX 061320Z 33007KT 9999 -RA SCT007 BKN011 05/05 Q0996=
202105061250 METAR ESMX 061250Z 30008KT 9000 -RA FEW006 BKN010 05/05 Q0995=
202105061220 METAR ESMX 061220Z 26006KT 9999 -RA BKN005 05/05 Q0995=
202105061150 METAR ESMX 061150Z 24006KT 9999 -RA BKN005 05/04 Q0995=
202105061120 METAR ESMX 061120Z 24004KT 210V270 9999 -RA FEW004 BKN007 05/04 Q0995=
202105061050 METAR ESMX 061050Z 28006KT 9000 -RA BKN007 04/03 Q0994=
202105061020 METAR ESMX 061020Z 28008KT 9000 -RA BKN005 04/03 Q0994=
202105060950 METAR ESMX 060950Z 27008KT 9000 -RA BKN005 04/04 Q0993=
202105060920 METAR ESMX 060920Z 29008KT 6000 DZ BKN003 04/04 Q0993=
202105060850 METAR ESMX 060850Z 27007KT 7000 -RA BKN003 04/04 Q0993=
202105060820 METAR ESMX 060820Z 28007KT 250V310 8000 -RA BKN004 04/04 Q0992=
202105060750 METAR ESMX 060750Z 26008KT 6000 BKN004 04/04 Q0992=
202105060720 METAR ESMX 060720Z 27008KT 9000 -DZ BKN004 04/04 Q0991=
202105060650 METAR ESMX 060650Z 27008KT 6000 -RA BR BKN005 04/04 Q0991=
202105060620 METAR ESMX 060620Z 28007KT 5000 DZ BKN004 04/04 Q0991=
202105060550 METAR ESMX 060550Z AUTO 28008KT 2500 -DZ BKN003/// OVC005/// 04/04 Q0990=
202105060520 METAR ESMX 060520Z AUTO 28009KT 240V310 2400 DZ SCT002/// OVC005/// 05/05 Q0990=
202105060450 METAR ESMX 060450Z AUTO 26003KT 4100 RA OVC003/// 05/05 Q0990=
202105060420 METAR ESMX 060420Z AUTO VRB03KT 3800 DZ BKN003/// BKN007/// OVC010/// 05/05 Q0990=
202105060350 METAR ESMX 060350Z AUTO 23003KT 3500 +DZ VV009 05/05 Q0989 RERA=
202105060320 METAR ESMX 060320Z AUTO 23003KT 9000 BR OVC002/// 05/05 Q0989=
202105060250 METAR ESMX 060250Z AUTO 23003KT 6000 DZ OVC002/// 05/05 Q0989=
202105060220 METAR ESMX 060220Z AUTO 23003KT 4000 -DZ OVC002/// 05/05 Q0989=
202105060150 METAR ESMX 060150Z AUTO 23004KT 9999 -DZ OVC002/// 05/05 Q0989 REUP REDZ=
202105060120 METAR ESMX 060120Z AUTO 23005KT 9999 OVC002/// 05/05 Q0989=
202105060050 METAR ESMX 060050Z AUTO 20005KT 9999 BKN002/// OVC005/// 05/05 Q0989=
202105060020 METAR ESMX 060020Z AUTO 21005KT 9999 FEW007/// OVC038/// 04/04 Q0989=
202105052350 METAR ESMX 052350Z AUTO 21005KT 9999 SCT021/// OVC040/// 04/04 Q0989=
202105052320 METAR ESMX 052320Z AUTO 21004KT 9999 FEW019/// SCT024/// OVC043/// 04/04 Q0989=
202105052250 METAR ESMX 052250Z AUTO 21005KT 9999 BKN019/// OVC043/// 04/04 Q0989=
202105052220 METAR ESMX 052220Z AUTO 21005KT 9999 SCT018/// BKN044/// OVC059/// 04/04 Q0989=
202105052150 METAR ESMX 052150Z AUTO 21004KT 9999 SCT006/// BKN041/// OVC057/// 05/05 Q0989=
202105052120 METAR ESMX 052120Z AUTO 21004KT 9999 SCT008/// BKN019/// OVC031/// 05/05 Q0989=
202105052050 METAR ESMX 052050Z AUTO 21003KT 9999 FEW010/// BKN021/// OVC028/// 06/05 Q0989=
202105052020 METAR ESMX 052020Z AUTO 21004KT 9999 -RA FEW002/// OVC027/// 06/05 Q0988=
202105051950 METAR ESMX 051950Z AUTO 20005KT 9000 -RA FEW002/// BKN007/// BKN009/// 06/06 Q0988 REDZ REUP=
202105051920 METAR ESMX 051920Z AUTO 20003KT 9999 FEW008/// BKN010/// OVC013/// 06/06 Q0988=
202105051850 METAR ESMX 051850Z AUTO 17004KT 9999 FEW008/// BKN011/// OVC020/// 06/06 Q0988=
202105051820 METAR ESMX 051820Z AUTO 20005KT 9999 FEW008/// SCT027/// OVC040/// 06/06 Q0988=
202105051750 METAR ESMX 051750Z AUTO 17005KT 9999 FEW021/// BKN031/// BKN046/// 07/06 Q0988=
202105051720 METAR ESMX 051720Z AUTO 21005KT 9999 -DZ FEW009/// SCT019/// BKN025/// 06/06 Q0988 REDZ=
202105051650 METAR ESMX 051650Z AUTO 20006KT 9999 -RA FEW007/// SCT012/// BKN021/// 06/06 Q0988=
202105051620 METAR ESMX 051620Z 22007KT 9999 DZ SCT008 BKN024 BKN030 06/06 Q0987 RERA=
202105051550 METAR ESMX 051550Z 19010KT 9999 -RA BKN009 BKN019 07/06 Q0987=
202105051520 METAR ESMX 051520Z AUTO 15008KT 110V180 9999 FEW007/// BKN010/// BKN014/// 08/06 Q0987 REDZ REUP=
202105051450 METAR ESMX 051450Z 17008KT 9999 FEW006 BKN011 BKN016 08/06 Q0987=
202105051420 METAR ESMX 051420Z 15010KT 9999 BKN012 07/05 Q0987=
202105051350 METAR ESMX 051350Z 15010KT 110V170 9999 BKN012 BKN015 07/05 Q0987=
202105051320 METAR ESMX 051320Z 17011KT 9999 SCT012 BKN016 BKN034 07/05 Q0987=
202105051250 METAR ESMX 051250Z 18012KT 9999 SCT013 BKN018 BKN027 08/05 Q0987=
202105051220 METAR ESMX 051220Z 18013KT 9999 BKN012 BKN020 08/06 Q0987 RERA=
202105051150 METAR ESMX 051150Z 18011KT 9999 BKN012 BKN016 08/06 Q0986=
202105051120 METAR ESMX 051120Z 17013KT 9999 -DZ BKN010 BKN019 07/06 Q0986=
202105051050 METAR ESMX 051050Z 17014KT 140V200 9999 -DZ BKN011 BKN021 08/07 Q0986=
202105051020 METAR ESMX 051020Z 19012KT 9999 -DZ BKN006 BKN009 07/06 Q0986=
202105050950 METAR ESMX 050950Z 16010KT 9999 -DZ BKN006 BKN009 07/06 Q0986 RERA=
202105050920 METAR ESMX 050920Z 16010KT 9999 -DZ FEW004 SCT007 BKN010 07/05 Q0986=
202105050850 METAR ESMX 050850Z AUTO 17009KT 9000 BR FEW002/// SCT005/// BKN008/// 07/06 Q0986 RERA=
202105050820 METAR ESMX 050820Z 15008KT 110V190 9999 DZ BKN007 BKN011 06/06 Q0985=
202105050750 METAR ESMX 050750Z 15007KT 120V190 9999 -RA BKN009 BKN013 07/06 Q0985 REDZ=
202105050720 METAR ESMX 050720Z 17007KT 9999 -DZ BKN011 BKN015 06/06 Q0985=
202105050650 METAR ESMX 050650Z 17009KT 9999 -DZ SCT006 BKN009 BKN023 06/06 Q0985 REDZ=
202105050620 METAR ESMX 050620Z 16008KT 130V190 9999 BKN006 BKN009 06/06 Q0985=
202105050550 METAR ESMX 050550Z AUTO 17007KT 9999 DZ BKN007/// OVC013/// 06/06 Q0985=
202105050520 METAR ESMX 050520Z AUTO 16006KT 9999 DZ FEW002/// BKN005/// OVC007/// 06/06 Q0985=
202105050450 METAR ESMX 050450Z AUTO 17007KT 9999 DZ BKN004/// OVC006/// 06/06 Q0986=
202105050420 METAR ESMX 050420Z AUTO 16006KT 9999 -RA FEW005/// SCT009/// BKN015/// 06/05 Q0986 RESHUP RERA=
202105050350 METAR ESMX 050350Z AUTO 17006KT 9999 FEW009/// OVC019/// 06/05 Q0986=
202105050320 METAR ESMX 050320Z AUTO 15007KT 9999 OVC009/// 06/05 Q0986=
202105050250 METAR ESMX 050250Z AUTO 16006KT 9999 FEW006/// SCT008/// BKN011/// 06/06 Q0986=
202105050220 METAR ESMX 050220Z AUTO 15005KT 9000 DZ FEW002/// SCT008/// BKN014/// 06/05 Q0986 REUP=
202105050150 METAR ESMX 050150Z AUTO 16008KT 9999 FEW007/// BKN009/// OVC018/// 06/05 Q0987=
202105050120 METAR ESMX 050120Z AUTO 16008KT 9999 BKN008/// BKN014/// OVC028/// 06/05 Q0987=
202105050050 METAR ESMX 050050Z AUTO 16007KT 130V190 9999 FEW008/// BKN011/// OVC013/// 06/05 Q0987=
202105050020 METAR ESMX 050020Z AUTO 16008KT 9999 OVC006/// 06/05 Q0987=
202105042350 METAR ESMX 042350Z AUTO 17007KT 9999 -RA FEW002/// OVC006/// 05/05 Q0987 REUP=
202105042320 METAR ESMX 042320Z AUTO 16008KT 9999 BKN008/// OVC009/// 05/05 Q0988=
202105042250 METAR ESMX 042250Z AUTO 16007KT 9999 BKN011/// OVC017/// 05/05 Q0988=
202105042220 METAR ESMX 042220Z AUTO 20008KT 9999 FEW007/// BKN016/// OVC032/// 05/05 Q0988=
202105042150 METAR ESMX 042150Z AUTO 16009KT 9999 -DZ SCT002/// BKN005/// OVC020/// 06/06 Q0988 REDZ=
202105042120 METAR ESMX 042120Z AUTO VRB04KT 3300 RA SCT002/// OVC005/// 06/06 Q0988=
202105042050 METAR ESMX 042050Z AUTO 13004KT 5000 -RA FEW002/// OVC005/// 06/06 Q0988=
202105042020 METAR ESMX 042020Z AUTO 12004KT 9999 -RA BKN006/// BKN022/// OVC030/// 06/06 Q0989 RERA RESHRA=
202105041950 METAR ESMX 041950Z AUTO 11005KT 060V140 7000 -RA BKN003/// OVC006/// 06/06 Q0989=
202105041920 METAR ESMX 041920Z AUTO 10005KT 050V200 6000 DZ OVC003/// 06/06 Q0990=
202105041850 METAR ESMX 041850Z AUTO 11005KT 040V140 9999 -RA BKN005/// OVC009/// 06/06 Q0990 RERA=
202105041820 METAR ESMX 041820Z AUTO 11005KT 060V160 9999 -DZ BKN006/// BKN018/// OVC028/// 06/06 Q0990=
202105041750 METAR ESMX 041750Z AUTO 10006KT 050V140 9000 -RA FEW002/// OVC005/// 06/06 Q0991=
202105041720 METAR ESMX 041720Z AUTO 12007KT 070V150 2100 RA SCT005/// BKN007/// OVC010/// 06/06 Q0991 RERA=
202105041650 METAR ESMX 041650Z AUTO 12007KT 070V170 9999 BKN008/// BKN014/// OVC023/// 06/06 Q0992=
202105041620 METAR ESMX 041620Z AUTO 12007KT 030V150 9999 -RA BKN008/// BKN018/// OVC024/// 06/05 Q0992=
202105041550 METAR ESMX 041550Z AUTO 12008KT 060V160 9999 -RA BKN008/// BKN011/// OVC023/// 06/05 Q0993 REDZ=
202105041520 METAR ESMX 041520Z AUTO 12008KT 070V160 9000 -RA SCT009/// BKN012/// OVC017/// 06/05 Q0993=
202105041450 METAR ESMX 041450Z AUTO 11007KT 070V160 9999 -RA BKN009/// OVC014/// 06/05 Q0994 REDZ=
202105041420 METAR ESMX 041420Z AUTO 13008G18KT 060V160 9999 DZ SCT008/// OVC011/// 06/05 Q0994 REDZ=
202105041350 METAR ESMX 041350Z 12009KT 070V170 6000 -DZ FEW002 BKN009 05/05 Q0995=
202105041320 METAR ESMX 041320Z 12008KT 070V170 7000 -DZ FEW002 BKN009 05/05 Q0995=
202105041250 METAR ESMX 041250Z 13009KT 060V170 6000 -DZ FEW002 BKN010 06/05 Q0996=
202105041220 METAR ESMX 041220Z 12009KT 070V170 6000 -DZ FEW002 BKN009 06/05 Q0996=
202105041150 METAR ESMX 041150Z 12010KT 070V190 6000 -DZ BKN009 06/05 Q0997=
202105041120 METAR ESMX 041120Z 12008KT 090V160 6000 -DZ BKN010 06/05 Q0997=
202105041050 METAR ESMX 041050Z 10007KT 040V180 8000 -DZ FEW002 BKN009 06/05 Q0998=
202105041020 METAR ESMX 041020Z 11008KT 050V150 7000 -DZ BKN009 06/05 Q0999=
202105040950 METAR ESMX 040950Z 12007KT 060V160 8000 -DZ BKN009 06/05 Q1000=
202105040920 METAR ESMX 040920Z 13008KT 090V160 9000 -RA BKN008 06/05 Q1000=
202105040850 METAR ESMX 040850Z 12008KT 070V170 8000 -RA BKN008 06/05 Q1001=
202105040820 METAR ESMX 040820Z 13007KT 8000 -RA BKN008 05/04 Q1001=
202105040750 METAR ESMX 040750Z 12006KT 080V160 9999 -RA BKN008 04/04 Q1002=
202105040720 METAR ESMX 040720Z 13007KT 080V160 9999 -RA BKN008 04/03 Q1002=
202105040650 METAR COR ESMX 040650Z 13007KT 080V160 9000 -RA BKN007 04/04 Q1003=
202105040620 METAR ESMX 040620Z 14006KT 9999 -RA BKN047 04/03 Q1003=
202105040550 METAR COR ESMX 040550Z 14007KT 9999 -RA BKN045 04/03 Q1004=
202105040520 METAR ESMX 040520Z AUTO 14006KT 9999 FEW055/// SCT190/// 04/02 Q1004=
202105040450 METAR ESMX 040450Z AUTO 14005KT 9999 NCD 03/02 Q1004=
202105040420 METAR ESMX 040420Z AUTO 13006KT 9999 NCD 03/02 Q1005=
202105040350 METAR ESMX 040350Z AUTO 14005KT 9999 NCD 02/02 Q1005=
202105040320 METAR ESMX 040320Z AUTO 20005KT 9999 NCD 02/02 Q1005=
202105040250 METAR ESMX 040250Z AUTO 20005KT 9999 NCD 02/02 Q1006=
202105040220 METAR ESMX 040220Z AUTO 20005KT 9999 NCD 02/01 Q1006=
202105040150 METAR ESMX 040150Z AUTO 21005KT 9999 NCD 02/01 Q1007=
202105040120 METAR ESMX 040120Z AUTO 15004KT 9999 NCD 01/01 Q1007=
202105040050 METAR ESMX 040050Z AUTO 23003KT 9999 NCD 00/00 Q1007=
202105040020 METAR ESMX 040020Z AUTO 23004KT 9999 NCD 00/00 Q1008=
202105032350 METAR ESMX 032350Z AUTO 23004KT 9999 NCD 01/01 Q1008=
202105032320 METAR ESMX 032320Z AUTO 23005KT 9999 NCD 01/00 Q1008=
202105032250 METAR ESMX 032250Z AUTO 23006KT 9999 NCD 01/00 Q1008=
202105032220 METAR ESMX 032220Z AUTO 23005KT 9999 NCD 01/00 Q1009=
202105032150 METAR ESMX 032150Z AUTO 24005KT 9999 NCD 02/01 Q1009=
202105032120 METAR ESMX 032120Z AUTO 23005KT 9999 NCD 02/01 Q1009=
202105032050 METAR ESMX 032050Z AUTO 24004KT 9999 NCD 03/01 Q1009=
202105032020 METAR ESMX 032020Z AUTO 23003KT 9999 FEW032/// 04/02 Q1009=
202105031950 METAR ESMX 031950Z AUTO 24005KT 9999 OVC068/// 05/03 Q1009=
202105031920 METAR ESMX 031920Z AUTO 24003KT 9999 OVC062/// 04/03 Q1009=
202105031850 METAR ESMX 031850Z AUTO 29002KT 9999 OVC061/// 05/03 Q1009=
202105031820 METAR ESMX 031820Z AUTO 25003KT 9999 OVC066/// 06/03 Q1009=
202105031750 METAR ESMX 031750Z AUTO 27005KT 9999 FEW023/// SCT039/// OVC062/// 07/04 Q1009=
202105031720 METAR ESMX 031720Z AUTO 26005KT 230V300 9999 FEW018/// BKN047/// OVC059/// 07/04 Q1009=
202105031650 METAR ESMX 031650Z AUTO 27009KT 9999 SCT019/// BKN055/// 07/03 Q1009=
202105031620 METAR ESMX 031620Z AUTO 28007KT 9999 FEW016/// BKN035/// 08/04 Q1009=
202105031550 METAR ESMX 031550Z AUTO 28007KT 250V320 9999 BKN017/// OVC084/// 07/04 Q1010=
202105031520 METAR ESMX 031520Z AUTO 30006KT 9999 BKN040/// OVC062/// 07/05 Q1010=
202105031450 METAR ESMX 031450Z AUTO 29008KT 9999 -RA ///036 06/05 Q1010 RESHUP=
202105031420 METAR ESMX 031420Z AUTO 29008KT 9999 FEW017/// BKN048/// BKN064/// 07/03 Q1010=
202105031350 METAR ESMX 031350Z 29011KT 9999 FEW015 SCT021 BKN084 08/04 Q1010=
202105031320 METAR ESMX 031320Z 28011KT 260V320 9999 SCT017 BKN051 OVC070 09/03 Q1010=
202105031250 METAR ESMX 031250Z 31010KT 9999 FEW032 SCT043 BKN057 08/04 Q1010=
202105031220 METAR ESMX 031220Z 29011KT 9999 SCT037 BKN068 08/04 Q1010=
202105031150 METAR ESMX 031150Z 23006KT 210V290 9999 SCT037 BKN051 BKN072 11/02 Q1009=
202105031120 METAR ESMX 031120Z AUTO VRB05KT 9999 ///041 12/03 Q1009=
202105031050 METAR ESMX 031050Z 18004KT 120V210 9999 FEW030 BKN072 OVC190 10/03 Q1009=
202105031020 METAR ESMX 031020Z AUTO 21005KT 9999 FEW031/// BKN072/// OVC190/// 10/03 Q1010=
202105030950 METAR ESMX 030950Z 22007KT 9999 SCT032 OVC072 09/03 Q1010=
202105030920 METAR ESMX 030920Z 25006KT 9999 SCT041 BKN061 09/03 Q1010=
202105030850 METAR ESMX 030850Z 24006KT 9999 SCT044 BKN061 08/04 Q1011=
202105030820 METAR ESMX 030820Z 24004KT 200V280 9999 -DZ BKN044 BKN061 08/05 Q1011=
202105030750 METAR ESMX 030750Z 24003KT 9999 SCT045 BKN074 07/03 Q1011=
202105030720 METAR ESMX 030720Z 25004KT 210V290 9999 SCT045 BKN074 07/04 Q1011=
202105030650 METAR ESMX 030650Z 22004KT 9999 FEW010 SCT045 BKN072 06/05 Q1011=
202105030620 METAR ESMX 030620Z 19003KT 9999 FEW010 BKN049 06/05 Q1011=
202105030550 METAR ESMX 030550Z AUTO 24003KT 9999 OVC049/// 05/05 Q1011=
202105030520 METAR ESMX 030520Z AUTO 20003KT 9999 OVC049/// 05/05 Q1011=
202105030450 METAR ESMX 030450Z AUTO 21003KT 9999 BKN049/// OVC072/// 04/04 Q1011 REUP=
202105030420 METAR ESMX 030420Z AUTO 25003KT 9999 OVC049/// 03/03 Q1011=
202105030350 METAR ESMX 030350Z AUTO VRB02KT 9999 BKN049/// 03/03 Q1011=
202105030320 METAR ESMX 030320Z AUTO 35002KT 9999 FEW048/// 03/03 Q1011=
202105030250 METAR ESMX 030250Z AUTO 32004KT 9999 BKN051/// 03/03 Q1011=
202105030220 METAR ESMX 030220Z AUTO 33004KT 9999 BKN048/// OVC096/// 03/03 Q1011=
202105030150 METAR ESMX 030150Z AUTO 24002KT 9999 BKN044/// 04/03 Q1011=
202105030120 METAR ESMX 030120Z AUTO 24004KT 9999 OVC039/// 04/04 Q1011=
202105030050 METAR ESMX 030050Z AUTO 24005KT 9999 FEW038/// BKN090/// 04/04 Q1011=
202105030020 METAR ESMX 030020Z AUTO 23005KT 9999 BKN035/// 04/04 Q1011=
202105022350 METAR ESMX 022350Z AUTO 23006KT 9999 BKN034/// 04/04 Q1012=
202105022320 METAR ESMX 022320Z AUTO 22006KT 9999 FEW034/// SCT086/// 05/04 Q1012=
202105022250 METAR ESMX 022250Z AUTO 24006KT 9999 OVC045/// 05/04 Q1012=
202105022220 METAR ESMX 022220Z AUTO 21004KT 9999 -DZ FEW025/// BKN045/// 05/04 Q1012=
202105022150 METAR ESMX 022150Z AUTO 21002KT 9999 -RA FEW013/// SCT051/// 05/03 Q1012=
202105022120 METAR ESMX 022120Z AUTO 18006KT 9999 -RA ///028 05/03 Q1012 REDZ=
202105022050 METAR ESMX 022050Z AUTO 19005KT 9999 DZ ///023 05/04 Q1012=
202105022020 METAR ESMX 022020Z AUTO 22007KT 9999 -RA FEW017/// SCT025/// OVC036/// 06/05 Q1012=
202105021950 METAR ESMX 021950Z AUTO 17002KT 9999 -RA ///031 06/05 Q1012=
202105021920 METAR ESMX 021920Z AUTO 12003KT 070V170 5000 RA ///033 07/05 Q1013 REDZ=
202105021850 METAR ESMX 021850Z AUTO 01004KT 9999 -DZ ///038 08/03 Q1012 REUP=
202105021820 METAR ESMX 021820Z AUTO 02004KT 9999 OVC049/// 08/03 Q1012=
202105021750 METAR ESMX 021750Z AUTO 35006KT 9999 FEW055/// OVC082/// 08/03 Q1012=
202105021720 METAR ESMX 021720Z AUTO 35006KT 9999 FEW062/// OVC080/// 09/03 Q1012=
202105021650 METAR ESMX 021650Z AUTO 34009KT 9999 OVC062/// 09/03 Q1012=
202105021620 METAR ESMX 021620Z AUTO 29005KT 9999 OVC074/// 11/02 Q1012=
202105021550 METAR ESMX 021550Z AUTO 13004KT 9999 SCT048/// OVC066/// 11/M01 Q1012=
202105021520 METAR ESMX 021520Z AUTO 13004KT 9999 BKN066/// OVC084/// 12/M01 Q1012=
202105021450 METAR ESMX 021450Z AUTO 06007KT 030V100 9999 SCT072/// OVC094/// 12/M00 Q1012=
202105021420 METAR ESMX 021420Z AUTO 05006KT 010V070 9999 OVC068/// 12/01 Q1012=
202105021350 METAR ESMX 021350Z AUTO 05009KT 020V080 9999 BKN061/// OVC078/// 11/02 Q1012=
202105021320 METAR ESMX 021320Z AUTO 05006KT 020V090 9999 OVC066/// 11/01 Q1012=
202105021250 METAR ESMX 021250Z AUTO 02005KT 9999 FEW062/// SCT072/// OVC088/// 12/01 Q1013=
202105021220 METAR ESMX 021220Z AUTO 36007KT 9999 SCT049/// OVC064/// 10/03 Q1013=
202105021150 METAR ESMX 021150Z AUTO 07004KT 020V160 9999 FEW022/// OVC049/// 11/02 Q1013=
202105021120 METAR ESMX 021120Z AUTO 24002KT 9999 FEW035/// BKN057/// OVC082/// 10/03 Q1013=
202105021050 METAR ESMX 021050Z AUTO VRB02KT 9999 -RA FEW041/// BKN053/// OVC066/// 09/05 Q1013 RERA=
202105021020 METAR ESMX 021020Z AUTO 04005KT 010V110 9999 BKN051/// OVC086/// 11/01 Q1013=
202105020950 METAR ESMX 020950Z AUTO 16003KT 9999 FEW048/// 11/02 Q1014=
202105020920 METAR ESMX 020920Z AUTO 19004KT 140V240 9999 FEW044/// 11/01 Q1014=
202105020850 METAR ESMX 020850Z AUTO 15005KT 110V200 9999 FEW053/// 10/02 Q1014=
202105020820 METAR ESMX 020820Z AUTO 19005KT 150V220 9999 NCD 10/02 Q1014=
202105020750 METAR ESMX 020750Z AUTO 22003KT 9999 NCD 09/01 Q1014=
202105020720 METAR ESMX 020720Z AUTO 22002KT 9999 FEW045/// 08/02 Q1014=
202105020650 METAR ESMX 020650Z AUTO 01003KT 9999 NCD 07/03 Q1015=
202105020620 METAR ESMX 020620Z AUTO 00000KT 9999 NCD 06/03 Q1015=
202105020550 METAR ESMX 020550Z AUTO 22002KT 9999 NCD 04/04 Q1015=
202105020520 METAR ESMX 020520Z AUTO VRB02KT 9999 NCD 02/02 Q1015=
202105020450 METAR ESMX 020450Z AUTO 00000KT 0750 R01/1000U R19/P2000N FZFG FEW002/// M00/M00 Q1014=
202105020420 METAR ESMX 020420Z AUTO 00000KT 9999 BKN001/// M01/M01 Q1014=
202105020350 METAR ESMX 020350Z AUTO 00000KT 9999 FEW001/// M02/M02 Q1014=
202105020320 METAR ESMX 020320Z AUTO 00000KT 9999 NCD M02/M02 Q1014=
202105020250 METAR ESMX 020250Z AUTO 00000KT 9999 NCD M02/M02 Q1014=
202105020220 METAR ESMX 020220Z AUTO 00000KT 9999 NCD M01/M01 Q1014=
202105020150 METAR ESMX 020150Z AUTO 17001KT 9999 BR NCD M00/M00 Q1015=
202105020120 METAR ESMX 020120Z AUTO 18002KT 9999 NCD M00/M01 Q1015=
202105020050 METAR ESMX 020050Z AUTO 18002KT 9999 NCD M00/M00 Q1015=
202105020020 METAR ESMX 020020Z AUTO 22003KT 9999 FEW072/// 01/01 Q1015=
202105012350 METAR ESMX 012350Z AUTO 17001KT 9999 NCD 01/01 Q1015=
202105012320 METAR ESMX 012320Z AUTO 00000KT 9999 NCD 01/01 Q1015=
202105012250 METAR ESMX 012250Z AUTO 10002KT 9999 SCT076/// 02/02 Q1015=
202105012220 METAR ESMX 012220Z AUTO 22002KT 9999 FEW074/// BKN096/// 02/02 Q1015=
202105012150 METAR ESMX 012150Z AUTO 00000KT 9999 FEW062/// BKN082/// BKN098/// 03/03 Q1015=
202105012120 METAR ESMX 012120Z AUTO 22003KT 9999 FEW062/// BKN098/// 03/02 Q1015=
202105012050 METAR ESMX 012050Z AUTO 22003KT 9999 FEW068/// 05/03 Q1015=
202105012020 METAR ESMX 012020Z AUTO 22004KT 9999 BKN068/// 05/03 Q1015=
202105011950 METAR ESMX 011950Z AUTO 22004KT 9999 FEW086/// 05/03 Q1015=
202105011920 METAR ESMX 011920Z AUTO 22006KT 9999 FEW076/// 05/04 Q1015=
202105011850 METAR ESMX 011850Z AUTO 18004KT 9999 FEW043/// BKN066/// 07/05 Q1015=
202105011820 METAR ESMX 011820Z AUTO 17003KT 9999 OVC082/// 08/05 Q1014=
202105011750 METAR ESMX 011750Z AUTO 17003KT 9999 OVC082/// 08/04 Q1014=
202105011720 METAR ESMX 011720Z AUTO 20005KT 9999 OVC088/// 09/03 Q1014=
202105011650 METAR ESMX 011650Z AUTO 22005KT 9999 OVC086/// 09/04 Q1014=
202105011620 METAR ESMX 011620Z AUTO 24004KT 9999 OVC098/// 10/04 Q1014=
202105011550 METAR ESMX 011550Z AUTO VRB03KT 9999 SCT096/// BKN110/// 09/04 Q1015=
202105011520 METAR ESMX 011520Z AUTO 19006KT 9999 FEW053/// BKN098/// BKN170/// 08/05 Q1015=
202105011450 METAR ESMX 011450Z AUTO 20006KT 9999 FEW057/// SCT082/// 08/04 Q1015=
202105011420 METAR ESMX 011420Z AUTO 23008KT 9999 BKN088/// OVC100/// 08/04 Q1015 RERA=
202105011350 METAR ESMX 011350Z AUTO 21006KT 9999 SCT084/// BKN180/// 08/04 Q1015=
202105011320 METAR ESMX 011320Z AUTO 23005KT 9999 FEW029/// SCT092/// BKN200/// 09/06 Q1015=
202105011250 METAR ESMX 011250Z AUTO 21006KT 190V250 9999 -RA VV017 08/05 Q1015 RERA=
202105011220 METAR ESMX 011220Z AUTO 16005KT 130V190 9999 SCT043/// BKN057/// OVC098/// 08/04 Q1015=
