##########################################################
# Query made at 04/19/2024 22:23:02 UTC
# Time interval: from 11/01/2021 12:00  to 11/30/2021 12:59  UTC
##########################################################

##########################################################
# ESMX, Vaxjo (Sweden)
# WMO index: 02641. WIGOS ID: 0-20000-0-02648
# Latitude 56-51N. Longitude 014-50E. Altitude 199 m.
##########################################################

202111301250 METAR ESMX 301250Z 04009KT 010V070 9999 BKN039 M03/M05 Q0989=
202111301220 METAR ESMX 301220Z 04010KT 020V080 9999 FEW012 BKN039 M03/M05 Q0989=
202111301150 METAR ESMX 301150Z 05010KT 020V090 8000 -SN FEW012 BKN038 M04/M05 Q0988=
202111301120 METAR ESMX 301120Z 05011KT 020V080 9000 -SN BKN038 M03/M07 Q0988=
202111301050 METAR ESMX 301050Z 05010KT 020V090 9999 BKN038 M04/M07 Q0988=
202111301020 METAR ESMX 301020Z 06008KT 030V110 8000 -SG BKN040 M04/M06 Q0988=
202111300950 METAR ESMX 300950Z 07007KT 030V100 6000 SG VV039 M05/M06 Q0988=
202111300920 METAR ESMX 300920Z 07008KT 030V120 2700 -SN VV028 M05/M06 Q0988=
202111300850 METAR ESMX 300850Z 08006KT 030V140 1300 R01/1500U R19/1500N -SN VV014 M05/M05 Q0988=
202111300820 METAR COR ESMX 300820Z 08006KT 030V110 0550 R01/1400U R19/1200N -SN VV002 M05/M06 Q0988=
202111300750 METAR ESMX 300750Z 09006KT 050V140 1800 -SN VV019 M05/M06 Q0989=
202111300720 METAR ESMX 300720Z AUTO 09005KT 050V160 1200 R01/P2000N R19/P2000N -SN VV017 M06/M06 Q0989=
202111300650 METAR ESMX 300650Z 09006KT 050V150 1900 -SN BKN022 M05/M07 Q0990=
202111300620 METAR ESMX 300620Z 12006KT 9000 BKN037 M05/M07 Q0991 RESN=
202111300550 METAR ESMX 300550Z 12005KT 070V150 9999 BKN040 M05/M07 Q0991 RESN=
202111300520 METAR ESMX 300520Z 12005KT 080V160 9999 FEW011 M06/M07 Q0992=
202111300450 METAR ESMX 300450Z 14005KT 9999 SCT012 BKN062 M06/M07 Q0993=
202111300420 METAR ESMX 300420Z AUTO 13003KT 9999 OVC074/// M07/M07 Q0993=
202111300350 METAR ESMX 300350Z AUTO 12004KT 9999 BKN078/// M07/M07 Q0994=
202111300320 METAR ESMX 300320Z AUTO 22002KT 9999 SCT082/// M07/M07 Q0995=
202111300250 METAR ESMX 300250Z AUTO 16002KT 9999 BKN088/// M07/M07 Q0996=
202111300220 METAR ESMX 300220Z AUTO 22002KT 9999 BKN096/// M07/M08 Q0997=
202111300150 METAR ESMX 300150Z AUTO 23002KT 9999 FEW098/// M08/M09 Q0997=
202111300120 METAR ESMX 300120Z AUTO 23003KT 9999 NCD M09/M10 Q0998=
202111300050 METAR ESMX 300050Z AUTO 23003KT 9999 NCD M09/M10 Q0998=
202111300020 METAR ESMX 300020Z AUTO 16002KT 9999 NCD M09/M10 Q0999=
202111292350 METAR ESMX 292350Z AUTO 19002KT 9999 NCD M09/M09 Q0999=
202111292320 METAR ESMX 292320Z AUTO VRB02KT 9999 NCD M08/M09 Q1000=
202111292250 METAR ESMX 292250Z AUTO 27003KT 9999 NCD M09/M09 Q1000=
202111292220 METAR ESMX 292220Z AUTO 28004KT 9999 NCD M08/M09 Q1001=
202111292150 METAR ESMX 292150Z AUTO 29002KT 9999 NCD M08/M08 Q1001=
202111292120 METAR ESMX 292120Z AUTO VRB03KT 9999 NCD M09/M09 Q1001=
202111292050 METAR ESMX 292050Z AUTO 29004KT 9999 NCD M08/M09 Q1002=
202111292020 METAR ESMX 292020Z AUTO VRB02KT 9999 FEW008/// M08/M08 Q1002=
202111291950 METAR ESMX 291950Z AUTO 31005KT 9999 NCD M08/M08 Q1002=
202111291920 METAR ESMX 291920Z AUTO 34006KT 9999 FEW008/// M07/M08 Q1002=
202111291850 METAR ESMX 291850Z AUTO 33006KT 9999 FEW008/// M07/M08 Q1002=
202111291820 METAR ESMX 291820Z 34006KT 9999 FEW009 M07/M08 Q1002=
202111291750 METAR ESMX 291750Z AUTO 33004KT 9999 FEW009/// M07/M08 Q1003=
202111291720 METAR ESMX 291720Z 31006KT 280V340 9999 FEW010 M06/M08 Q1003=
202111291650 METAR ESMX 291650Z 31006KT 9999 FEW011 M06/M08 Q1003=
202111291620 METAR ESMX 291620Z 33007KT CAVOK M06/M07 Q1003=
202111291550 METAR ESMX 291550Z 34007KT CAVOK M06/M07 Q1003=
202111291520 METAR ESMX 291520Z AUTO 34010KT 9999 NCD M05/M08 Q1003=
202111291450 METAR ESMX 291450Z 35009KT CAVOK M04/M07 Q1003=
202111291420 METAR ESMX 291420Z 34009KT CAVOK M04/M07 Q1003=
202111291350 METAR ESMX 291350Z 35008KT CAVOK M03/M06 Q1003=
202111291320 METAR COR ESMX 291320Z 34009KT CAVOK M03/M07 Q1003=
202111291250 METAR ESMX 291250Z 35008KT 9999 FEW011 M02/M06 Q1003=
202111291220 METAR ESMX 291220Z 35008KT 9999 BKN010 M02/M04 Q1003=
202111291150 METAR ESMX 291150Z 34010KT 9999 BKN010 M02/M04 Q1003=
202111291120 METAR ESMX 291120Z 35010KT 9999 SCT011 M02/M04 Q1003=
202111291050 METAR ESMX 291050Z 33010KT 9999 FEW011 M02/M04 Q1003=
202111291020 METAR ESMX 291020Z 36010KT 330V030 9999 SCT010 M02/M04 Q1003=
202111290950 METAR COR ESMX 290950Z 35010KT 9999 BKN009 M02/M03 Q1003=
202111290920 METAR ESMX 290920Z 34010KT 9999 SCT010 BKN020 M02/M04 Q1003=
202111290850 METAR ESMX 290850Z 36010KT 9999 BKN010 M02/M04 Q1004=
202111290820 METAR COR ESMX 290820Z 35012KT 9999 BKN010 M02/M04 Q1004=
202111290750 METAR ESMX 290750Z AUTO 35012KT 9999 BKN012/// BKN017/// OVC031/// M02/M04 Q1003=
202111290720 METAR ESMX 290720Z AUTO 02010KT 9999 BKN010/// M02/M03 Q1003=
202111290650 METAR ESMX 290650Z AUTO 36011KT 9999 OVC009/// M01/M02 Q1003=
202111290620 METAR ESMX 290620Z AUTO 02011KT 9999 OVC009/// M01/M02 Q1002=
202111290550 METAR ESMX 290550Z AUTO 02012KT 9999 OVC009/// M01/M02 Q1002=
202111290520 METAR ESMX 290520Z AUTO 01010KT 9999 OVC008/// M01/M02 Q1002=
202111290450 METAR ESMX 290450Z AUTO 02010KT 9999 OVC009/// M01/M02 Q1002=
202111290420 METAR ESMX 290420Z AUTO 03008KT 350V060 9999 OVC009/// M01/M02 Q1001=
202111290350 METAR ESMX 290350Z AUTO 01009KT 9999 OVC009/// M01/M02 Q1001=
202111290320 METAR ESMX 290320Z AUTO 01008KT 9999 OVC009/// M01/M02 Q1001=
202111290250 METAR ESMX 290250Z AUTO 03010KT 9999 OVC009/// M01/M02 Q1001=
202111290220 METAR ESMX 290220Z AUTO 02010KT 340V050 9999 OVC009/// M01/M02 Q1001=
202111290150 METAR ESMX 290150Z AUTO 02011KT 9999 OVC009/// M00/M02 Q1001=
202111290120 METAR ESMX 290120Z AUTO 03010KT 360V070 9999 OVC009/// M00/M02 Q1001=
202111290050 METAR ESMX 290050Z AUTO 03012KT 9999 OVC010/// M00/M02 Q1001=
202111290020 METAR ESMX 290020Z AUTO 03014KT 9999 OVC010/// M00/M02 Q1001=
202111282350 METAR ESMX 282350Z AUTO 03014KT 9999 OVC010/// M00/M02 Q1001=
202111282320 METAR ESMX 282320Z AUTO 03013KT 9999 OVC011/// M00/M01 Q1000 RESHUP=
202111282250 METAR ESMX 282250Z AUTO 03011KT 9999 UP FEW005/// BKN010/// OVC013/// 00/M01 Q1000 RESHUP=
202111282220 METAR ESMX 282220Z AUTO 03011KT 9999 BKN010/// OVC014/// 01/M01 Q1001 REUP=
202111282150 METAR ESMX 282150Z AUTO 03012KT 9999 BKN011/// OVC034/// 01/M01 Q1000=
202111282120 METAR ESMX 282120Z AUTO 04009KT 9999 SCT013/// 00/M01 Q1000=
202111282050 METAR ESMX 282050Z AUTO 04012KT 9999 BKN015/// 01/M01 Q1000=
202111282020 METAR ESMX 282020Z AUTO 06010KT 020V100 9999 BKN015/// OVC018/// 01/M01 Q1000=
202111281950 METAR ESMX 281950Z AUTO 05008KT 020V100 9999 OVC015/// 01/M01 Q1000=
202111281920 METAR ESMX 281920Z AUTO 05009KT 020V080 9999 BKN013/// OVC016/// 01/M00 Q1000 RESN RESHUP=
202111281850 METAR ESMX 281850Z AUTO 06008KT 020V100 9999 OVC011/// 01/M00 Q0999=
202111281820 METAR ESMX 281820Z AUTO 05009KT 9999 -SN BKN009/// OVC013/// 01/00 Q0999 RESHUP REDZ=
202111281750 METAR ESMX 281750Z AUTO 05010KT 9999 FEW007/// BKN010/// OVC014/// 01/M00 Q0999=
202111281720 METAR ESMX 281720Z AUTO 04008KT 020V090 9999 FEW007/// OVC009/// 01/00 Q0999 REDZ=
202111281650 METAR ESMX 281650Z AUTO 04009KT 010V080 9999 -DZ BKN006/// BKN008/// OVC010/// 01/01 Q0999 REUP=
202111281620 METAR ESMX 281620Z AUTO 04008KT 020V100 9999 OVC006/// 01/01 Q0998=
202111281550 METAR ESMX 281550Z AUTO 04009KT 9999 BKN007/// OVC009/// 01/00 Q0998=
202111281520 METAR ESMX 281520Z AUTO 05009KT 9999 OVC009/// 01/00 Q0998=
202111281450 METAR ESMX 281450Z AUTO 06008KT 030V090 9999 BKN009/// OVC010/// 01/00 Q0998=
202111281420 METAR ESMX 281420Z AUTO 06009KT 020V090 9999 BKN009/// OVC011/// 02/01 Q0997 RERA=
202111281350 METAR ESMX 281350Z AUTO 05010KT 030V100 9999 FEW007/// OVC009/// 02/01 Q0997 REUP=
202111281320 METAR ESMX 281320Z AUTO 05009KT 9999 -RA BKN009/// OVC018/// 02/01 Q0997 REUP=
202111281250 METAR ESMX 281250Z AUTO 04008KT 010V070 9999 OVC011/// 02/01 Q0997=
202111281220 METAR ESMX 281220Z AUTO 06010KT 9999 OVC011/// 02/01 Q0997 RESHUP REUP=
202111281150 METAR ESMX 281150Z AUTO 06008KT 030V110 9999 -DZ OVC010/// 02/01 Q0997 REUP=
202111281120 METAR ESMX 281120Z AUTO 06008KT 9999 BKN008/// BKN011/// OVC064/// 02/01 Q0997=
202111281050 METAR ESMX 281050Z AUTO 06009KT 030V100 9999 OVC010/// 02/01 Q0997=
202111281020 METAR ESMX 281020Z AUTO 07007KT 030V120 9999 OVC009/// 02/01 Q0997=
202111280950 METAR ESMX 280950Z AUTO 06008KT 030V100 9999 OVC009/// 02/01 Q0996=
202111280920 METAR ESMX 280920Z AUTO 06007KT 020V120 9999 OVC008/// 02/01 Q0996=
202111280850 METAR ESMX 280850Z AUTO 06009KT 020V100 9999 -RA OVC008/// 02/01 Q0996=
202111280820 METAR ESMX 280820Z AUTO 06008KT 030V090 9999 -DZ OVC008/// 02/01 Q0996 REUP=
202111280750 METAR ESMX 280750Z AUTO 04007KT 360V080 9999 OVC008/// 02/01 Q0996=
202111280720 METAR ESMX 280720Z AUTO 06006KT 030V090 9999 OVC007/// 01/01 Q0996=
202111280650 METAR ESMX 280650Z AUTO 05007KT 9999 -DZ BKN006/// OVC008/// 01/01 Q0995 RESHUP REDZ=
202111280620 METAR ESMX 280620Z AUTO 06007KT 020V090 9999 BKN006/// OVC007/// 01/01 Q0995=
202111280550 METAR ESMX 280550Z AUTO 06007KT 030V100 9999 -DZ BKN006/// OVC024/// 01/01 Q0995=
202111280520 METAR ESMX 280520Z AUTO 06007KT 9999 -RA OVC006/// 02/01 Q0995 REDZ=
202111280450 METAR ESMX 280450Z AUTO 05007KT 030V100 9999 -DZ OVC005/// 02/01 Q0995 REDZ=
202111280420 METAR ESMX 280420Z AUTO 06007KT 030V100 9999 -DZ OVC005/// 02/02 Q0995 RESHUP REDZ=
202111280350 METAR ESMX 280350Z AUTO 05007KT 030V100 9999 OVC006/// 02/01 Q0995=
202111280320 METAR ESMX 280320Z AUTO 06007KT 020V090 9999 -DZ OVC006/// 02/01 Q0995=
202111280250 METAR ESMX 280250Z AUTO 06007KT 9999 -DZ OVC005/// 01/01 Q0995 REDZ=
202111280220 METAR ESMX 280220Z AUTO 06006KT 030V100 9000 DZ OVC005/// 02/01 Q0995=
202111280150 METAR ESMX 280150Z AUTO 05006KT 020V100 9999 -DZ BKN005/// OVC013/// 01/01 Q0995 RERA=
202111280120 METAR ESMX 280120Z AUTO 05006KT 020V090 9999 -DZ OVC005/// 01/01 Q0995=
202111280050 METAR ESMX 280050Z AUTO 05006KT 010V110 9999 -RA OVC005/// 02/01 Q0995=
202111280020 METAR ESMX 280020Z AUTO 06007KT 8000 -RA OVC005/// 01/01 Q0995 REDZ=
202111272350 METAR ESMX 272350Z AUTO 06005KT 9999 DZ OVC005/// 02/01 Q0996=
202111272320 METAR ESMX 272320Z AUTO 05006KT 020V080 9999 -DZ OVC006/// 01/01 Q0996=
202111272250 METAR ESMX 272250Z AUTO 06005KT 9999 -RA OVC005/// 01/01 Q0996 RESHUP=
202111272220 METAR ESMX 272220Z AUTO 04006KT 010V100 9999 -DZ OVC005/// 01/01 Q0996 RERA REDZ=
202111272150 METAR ESMX 272150Z AUTO 05006KT 9999 -DZ BKN006/// OVC008/// 01/01 Q0996=
202111272120 METAR ESMX 272120Z AUTO 06004KT 9999 -RA BKN005/// OVC018/// 01/01 Q0996 REDZ=
202111272050 METAR ESMX 272050Z AUTO 04006KT 360V100 9999 DZ OVC006/// 01/01 Q0996=
202111272020 METAR ESMX 272020Z AUTO 06004KT 9999 DZ OVC006/// 01/01 Q0996=
202111271950 METAR ESMX 271950Z AUTO 07004KT 4700 -PL BKN005/// OVC009/// 01/01 Q0996=
202111271920 METAR ESMX 271920Z AUTO 04004KT 5000 -PL BKN004/// BKN011/// OVC015/// 01/01 Q0996 RERA=
202111271850 METAR ESMX 271850Z AUTO 05006KT 030V090 9999 -RA BKN006/// OVC012/// 02/01 Q0996=
202111271820 METAR ESMX 271820Z AUTO 05007KT 020V090 9999 -RA OVC006/// 02/02 Q0996 RESHUP REDZ=
202111271750 METAR ESMX 271750Z AUTO 06007KT 020V090 9999 OVC007/// 02/02 Q0996=
202111271720 METAR ESMX 271720Z AUTO 05007KT 9999 OVC007/// 02/02 Q0996=
202111271650 METAR ESMX 271650Z AUTO 06007KT 020V110 9999 -RA OVC007/// 02/02 Q0996=
202111271620 METAR ESMX 271620Z AUTO 04009KT 010V070 9999 -RA OVC007/// 02/02 Q0996=
202111271550 METAR ESMX 271550Z AUTO 04008KT 9999 UP OVC007/// 02/02 Q0996=
202111271520 METAR ESMX 271520Z AUTO 04010KT 9999 -RA OVC006/// 02/02 Q0996=
202111271450 METAR ESMX 271450Z AUTO 05007KT 020V100 6000 -RA BKN007/// OVC009/// 02/02 Q0996=
202111271420 METAR ESMX 271420Z AUTO 04011KT 9999 BKN008/// OVC009/// 02/02 Q0996=
202111271350 METAR ESMX 271350Z AUTO 04009KT 9999 -DZ OVC009/// 03/02 Q0995=
202111271320 METAR ESMX 271320Z AUTO 04008KT 9999 OVC008/// 03/02 Q0995 RESHUP REUP=
202111271250 METAR ESMX 271250Z AUTO 05009KT 020V080 9999 OVC008/// 03/02 Q0995 RESHUP REUP=
202111271220 METAR ESMX 271220Z AUTO 05009KT 020V090 9999 OVC008/// 03/02 Q0996=
202111271150 METAR ESMX 271150Z AUTO 04008KT 9999 OVC008/// 03/02 Q0995=
202111271120 METAR ESMX 271120Z AUTO 05007KT 020V090 9999 OVC008/// 03/02 Q0996=
202111271050 METAR ESMX 271050Z AUTO 05007KT 020V080 9999 BKN008/// OVC045/// 03/02 Q0996=
202111271020 METAR ESMX 271020Z AUTO 06007KT 9999 OVC008/// 02/02 Q0996=
202111270950 METAR ESMX 270950Z AUTO 06005KT 020V100 9999 OVC007/// 02/01 Q0996=
202111270920 METAR ESMX 270920Z AUTO 06006KT 9999 OVC008/// 02/01 Q0996=
202111270850 METAR ESMX 270850Z AUTO 06006KT 020V100 9999 OVC007/// 02/01 Q0995=
202111270820 METAR ESMX 270820Z AUTO 04005KT 350V080 9999 OVC007/// 02/01 Q0995=
202111270750 METAR ESMX 270750Z AUTO 04007KT 8000 OVC005/// 02/01 Q0995=
202111270720 METAR ESMX 270720Z AUTO 04007KT 9999 OVC006/// 01/01 Q0995=
202111270650 METAR ESMX 270650Z AUTO 04008KT 9999 OVC006/// 01/01 Q0995 REUP=
202111270620 METAR ESMX 270620Z AUTO 03009KT 360V060 9999 OVC007/// 01/01 Q0994=
202111270550 METAR ESMX 270550Z AUTO 03010KT 9999 OVC007/// 01/01 Q0994=
202111270520 METAR ESMX 270520Z AUTO 03011KT 9999 OVC008/// 01/01 Q0994=
202111270450 METAR ESMX 270450Z AUTO 03010KT 9999 OVC006/// 01/01 Q0994=
202111270420 METAR ESMX 270420Z AUTO 03008KT 9999 -DZ BKN006/// OVC009/// 01/01 Q0994 REUP=
202111270350 METAR ESMX 270350Z AUTO 04007KT 9999 OVC006/// 01/01 Q0994=
202111270320 METAR ESMX 270320Z AUTO 04008KT 9999 OVC007/// 01/01 Q0994=
202111270250 METAR ESMX 270250Z AUTO 04009KT 9999 OVC007/// 01/01 Q0994=
202111270220 METAR ESMX 270220Z AUTO 04008KT 9999 BKN006/// OVC008/// 01/01 Q0994=
202111270150 METAR ESMX 270150Z AUTO 06006KT 030V090 9999 OVC005/// 01/01 Q0994=
202111270120 METAR ESMX 270120Z AUTO 05008KT 9999 OVC005/// 01/01 Q0994=
202111270050 METAR ESMX 270050Z AUTO 04007KT 350V080 9999 OVC007/// 01/01 Q0994=
202111270020 METAR ESMX 270020Z AUTO 05008KT 020V080 9999 OVC007/// 01/01 Q0995=
202111262350 METAR ESMX 262350Z AUTO 06006KT 030V100 9999 OVC006/// 01/01 Q0995=
202111262320 METAR ESMX 262320Z AUTO 07004KT 030V100 9999 OVC006/// 01/01 Q0995=
202111262250 METAR ESMX 262250Z AUTO 06006KT 020V090 9999 OVC006/// 01/00 Q0995=
202111262220 METAR ESMX 262220Z AUTO 06006KT 030V100 9999 OVC006/// 01/00 Q0995=
202111262150 METAR ESMX 262150Z AUTO 07006KT 040V110 9999 OVC007/// 01/00 Q0995=
202111262120 METAR ESMX 262120Z AUTO 08004KT 9999 OVC007/// 01/00 Q0995=
202111262050 METAR ESMX 262050Z AUTO 07005KT 040V100 9999 OVC006/// 00/00 Q0995=
202111262020 METAR ESMX 262020Z AUTO 06005KT 030V100 9999 OVC005/// 00/M00 Q0995 RESHUP REFZUP=
202111261950 METAR ESMX 261950Z AUTO 07004KT 020V140 9999 FZUP OVC005/// M00/M00 Q0995=
202111261920 METAR ESMX 261920Z AUTO 10004KT 070V140 9999 OVC005/// M00/M01 Q0995=
202111261850 METAR ESMX 261850Z AUTO 07007KT 030V100 9999 OVC006/// M00/M01 Q0995=
202111261820 METAR ESMX 261820Z AUTO 06007KT 020V090 9999 OVC007/// M00/M01 Q0995=
202111261750 METAR ESMX 261750Z AUTO 06006KT 010V110 9999 OVC006/// M00/M01 Q0995=
202111261720 METAR ESMX 261720Z AUTO 05007KT 020V080 9999 OVC007/// M00/M01 Q0995=
202111261650 METAR ESMX 261650Z 06006KT 9999 BKN008 M00/M01 Q0995=
202111261620 METAR ESMX 261620Z 05006KT 020V110 9999 SCT007 BKN009 M00/M01 Q0995=
202111261550 METAR ESMX 261550Z 04007KT 010V070 9999 BKN006 M00/M00 Q0995=
202111261520 METAR ESMX 261520Z 05005KT 020V080 9999 SCT006 BKN022 00/M00 Q0994=
202111261450 METAR ESMX 261450Z 18003KT 9999 BKN008 00/M00 Q0994=
202111261420 METAR ESMX 261420Z 18003KT 8000 -SN FEW002 SCT008 BKN011 00/M00 Q0994=
202111261350 METAR COR ESMX 261350Z 18001KT 9999 FEW002 BKN006 01/M00 Q0994=
202111261320 METAR ESMX 261320Z 00000KT 9999 BKN009 01/M00 Q0994=
202111261250 METAR ESMX 261250Z 18004KT 9999 BKN011 00/M00 Q0994=
202111261220 METAR ESMX 261220Z VRB02KT 9999 BKN012 00/M01 Q0994=
202111261150 METAR ESMX 261150Z 26004KT 210V290 9999 BKN007 00/M01 Q0994=
202111261120 METAR ESMX 261120Z AUTO 24004KT 9999 OVC007/// 00/M01 Q0994=
202111261050 METAR ESMX 261050Z 24004KT 9999 FEW004 BKN007 00/M00 Q0994=
202111261020 METAR ESMX 261020Z 27004KT 9999 BKN006 00/M00 Q0994=
202111260950 METAR ESMX 260950Z 30005KT 270V330 9999 OVC007 00/M00 Q0994=
202111260920 METAR ESMX 260920Z 29005KT 9999 BKN007 00/M00 Q0994=
202111260850 METAR ESMX 260850Z 27005KT 240V310 9999 OVC005 00/00 Q0994=
202111260820 METAR ESMX 260820Z 26005KT 240V310 9999 BKN004 00/00 Q0994=
202111260750 METAR ESMX 260750Z AUTO 26006KT 9999 OVC004/// 00/00 Q0994=
202111260720 METAR ESMX 260720Z 27006KT 9999 BKN004 01/01 Q0994=
202111260650 METAR COR ESMX 260650Z 27006KT 9999 OVC003 01/01 Q0993=
202111260620 METAR ESMX 260620Z AUTO 27005KT 9999 SCT006/// BKN010/// BKN025/// 01/01 Q0993 RESHUP=
202111260550 METAR ESMX 260550Z AUTO 28006KT 6000 UP SCT002/// BKN004/// OVC018/// 01/01 Q0993 REUP=
202111260520 METAR ESMX 260520Z AUTO 28006KT 3900 BR SCT002/// OVC004/// 01/01 Q0993=
202111260450 METAR ESMX 260450Z AUTO 29006KT 9999 BKN005/// OVC008/// 01/01 Q0993=
202111260420 METAR ESMX 260420Z AUTO 28007KT 9999 SCT003/// BKN005/// OVC007/// 01/01 Q0993=
202111260350 METAR ESMX 260350Z AUTO 28006KT 4500 -DZ OVC002/// 02/02 Q0992 RESHUP REDZ=
202111260320 METAR ESMX 260320Z AUTO 27005KT 4600 BR OVC003/// 02/02 Q0992=
202111260250 METAR ESMX 260250Z AUTO 28006KT 9999 OVC004/// 02/02 Q0993 REDZ=
202111260220 METAR ESMX 260220Z AUTO 30005KT 260V330 9999 OVC002/// 02/02 Q0992 REDZ REUP=
202111260150 METAR ESMX 260150Z AUTO 27006KT 230V310 9000 BKN002/// OVC004/// 02/02 Q0992=
202111260120 METAR ESMX 260120Z AUTO 27005KT 9999 BKN005/// OVC007/// 02/02 Q0993=
202111260050 METAR ESMX 260050Z AUTO 29004KT 9999 OVC005/// 02/02 Q0993=
202111260020 METAR ESMX 260020Z AUTO 26005KT 9999 BKN003/// BKN008/// OVC009/// 03/03 Q0993=
202111252350 METAR ESMX 252350Z AUTO 20004KT 2800 BR OVC002/// 02/02 Q0992 REDZ REUP=
202111252320 METAR ESMX 252320Z AUTO VRB02KT 9999 OVC003/// 02/02 Q0992=
202111252250 METAR ESMX 252250Z AUTO 00000KT 9999 OVC005/// 02/02 Q0992 REUP=
202111252220 METAR ESMX 252220Z AUTO VRB01KT 5000 BR BKN007/// BKN010/// OVC017/// 02/02 Q0992=
202111252150 METAR ESMX 252150Z AUTO 20002KT 6000 BR FEW010/// BKN013/// 02/02 Q0992 RESHUP=
202111252120 METAR ESMX 252120Z AUTO VRB02KT 3900 -RASN SCT005/// OVC014/// 02/02 Q0992 RERA REDZ REUP=
202111252050 METAR ESMX 252050Z AUTO 20003KT 9999 FEW005/// SCT009/// BKN016/// 02/02 Q0993=
202111252020 METAR ESMX 252020Z AUTO 20003KT 9999 SCT023/// OVC030/// 03/03 Q0993=
202111251950 METAR ESMX 251950Z AUTO 20004KT 9999 BKN024/// OVC029/// 03/03 Q0993=
202111251920 METAR ESMX 251920Z AUTO 19004KT 9999 FEW009/// BKN028/// 03/03 Q0993=
202111251850 METAR ESMX 251850Z AUTO 19006KT 9999 BKN006/// BKN027/// 03/03 Q0993=
202111251820 METAR ESMX 251820Z AUTO 18005KT 8000 FEW005/// BKN010/// OVC019/// 03/03 Q0994 RERA=
202111251750 METAR ESMX 251750Z AUTO 19006KT 9999 FEW006/// SCT037/// BKN049/// 03/03 Q0994 REUP=
202111251720 METAR ESMX 251720Z AUTO 20007KT 9999 -RA SCT026/// BKN049/// BKN092/// 03/03 Q0994=
202111251650 METAR ESMX 251650Z AUTO 19007KT 9999 FEW025/// SCT034/// 03/03 Q0995=
202111251620 METAR ESMX 251620Z AUTO 18007KT 9999 FEW005/// SCT064/// BKN088/// 03/03 Q0995=
202111251550 METAR ESMX 251550Z AUTO 21006KT 9999 DZ FEW007/// BKN009/// BKN055/// 04/04 Q0996 RERA=
202111251520 METAR ESMX 251520Z 21005KT 9999 SCT019 BKN044 04/04 Q0996=
202111251450 METAR ESMX 251450Z 18005KT 9999 -RA SCT019 BKN032 04/04 Q0996=
202111251420 METAR ESMX 251420Z 19006KT 9999 -RA FEW012 BKN021 04/04 Q0997=
202111251350 METAR ESMX 251350Z 22005KT 9999 -RA BKN024 05/04 Q0997=
202111251320 METAR ESMX 251320Z 23006KT 9999 -RA FEW013 BKN025 05/05 Q0998=
202111251250 METAR ESMX 251250Z 23005KT 8000 -RA SCT005 BKN026 05/05 Q0998=
202111251220 METAR ESMX 251220Z AUTO 20005KT 6000 RA FEW013/// SCT018/// OVC028/// 05/05 Q0999=
202111251150 METAR ESMX 251150Z 22004KT 9999 -RA BKN019 05/05 Q0999=
202111251120 METAR ESMX 251120Z 23005KT 9000 -RA SCT020 BKN025 05/05 Q1000=
202111251050 METAR ESMX 251050Z 23005KT 9999 -RA BKN006 06/06 Q1000=
202111251020 METAR ESMX 251020Z 26007KT 5000 -RA BKN005 06/06 Q1001=
202111250950 METAR ESMX 250950Z 21010KT 6000 -RA OVC004 06/06 Q1001=
202111250920 METAR ESMX 250920Z 20011KT 6000 -RA BR BKN004 06/06 Q1001=
202111250850 METAR ESMX 250850Z 20011KT 5000 BR -DZ BKN004 06/06 Q1001=
202111250820 METAR ESMX 250820Z 19011KT 9000 BKN004 06/06 Q1002=
202111250750 METAR ESMX 250750Z 21011KT 8000 BKN004 06/06 Q1002=
202111250720 METAR ESMX 250720Z 20011KT 9000 BKN004 06/06 Q1002=
202111250650 METAR ESMX 250650Z 20010KT 9999 BKN005 06/06 Q1003=
202111250620 METAR ESMX 250620Z 20010KT 9000 -DZ BKN004 06/06 Q1003=
202111250550 METAR ESMX 250550Z 20010KT 8000 -DZ BKN005 06/06 Q1003=
202111250520 METAR ESMX 250520Z 21009KT 9999 BKN005 06/06 Q1004=
202111250450 METAR COR ESMX 250450Z 20009KT 160V230 9000 -DZ BKN005 06/06 Q1004=
202111250420 METAR ESMX 250420Z AUTO 20009KT 4800 BR BKN004/// OVC006/// 06/06 Q1004=
202111250350 METAR ESMX 250350Z AUTO 21009KT 9999 BKN004/// OVC008/// 06/06 Q1005 REUP=
202111250320 METAR ESMX 250320Z AUTO 19009KT 9999 BKN005/// OVC007/// 06/06 Q1005=
202111250250 METAR ESMX 250250Z AUTO 22009KT 9999 BKN006/// OVC007/// 06/06 Q1006=
202111250220 METAR ESMX 250220Z AUTO 20009KT 9999 BKN006/// BKN009/// OVC031/// 06/06 Q1006=
202111250150 METAR ESMX 250150Z AUTO 20009KT 5000 DZ FEW006/// SCT009/// OVC027/// 06/06 Q1007 REDZ=
202111250120 METAR ESMX 250120Z AUTO 21008KT 9999 FEW005/// SCT011/// OVC028/// 06/06 Q1007=
202111250050 METAR ESMX 250050Z AUTO 24005KT 1900 +DZ VV011 06/06 Q1007=
202111250020 METAR ESMX 250020Z AUTO 21007KT 2500 DZ FEW002/// BKN006/// OVC018/// 06/06 Q1008 RESHUP REDZ=
202111242350 METAR ESMX 242350Z AUTO 20008KT 160V230 7000 BR OVC003/// 06/06 Q1008 RESHUP=
202111242320 METAR ESMX 242320Z AUTO 22007KT 2300 UP FEW002/// OVC005/// 06/06 Q1008 REDZ=
202111242250 METAR ESMX 242250Z AUTO 22007KT 5000 BR SCT004/// OVC007/// 06/06 Q1008 REDZ=
202111242220 METAR ESMX 242220Z AUTO 22007KT 1900 DZ BKN002/// OVC008/// 06/06 Q1009 REUP REDZ=
202111242150 METAR ESMX 242150Z AUTO 22009KT 9999 BKN007/// OVC009/// 06/06 Q1009=
202111242120 METAR ESMX 242120Z AUTO 21010KT 9999 SCT002/// OVC004/// 06/06 Q1009 RESHUP=
202111242050 METAR ESMX 242050Z AUTO 22007KT 2400 BR VV007 06/06 Q1010=
202111242020 METAR ESMX 242020Z AUTO 21008KT 7000 BR OVC006/// 06/06 Q1010 RESHUP REDZ=
202111241950 METAR ESMX 241950Z AUTO 23008KT 4000 BR BKN006/// OVC012/// 06/06 Q1010=
202111241920 METAR ESMX 241920Z AUTO 21009KT 3800 BR FEW002/// OVC004/// 06/06 Q1010 RERA=
202111241850 METAR ESMX 241850Z 23007KT 5000 -DZ BR BKN005 06/06 Q1010=
202111241820 METAR ESMX 241820Z 22008KT 9999 SCT004 BKN007 06/06 Q1011=
202111241750 METAR ESMX 241750Z 23008KT 9999 SCT004 BKN008 06/06 Q1011=
202111241720 METAR ESMX 241720Z 23007KT 9999 BKN009 06/05 Q1011=
202111241650 METAR ESMX 241650Z 23008KT 190V260 9999 BKN005 06/06 Q1011=
202111241620 METAR ESMX 241620Z 24006KT 8000 BKN006 06/06 Q1012=
202111241550 METAR ESMX 241550Z 25006KT 9999 BKN010 06/05 Q1012=
202111241520 METAR ESMX 241520Z 23008KT 200V270 9999 BKN010 06/05 Q1012=
202111241450 METAR COR ESMX 241450Z 24009KT 9000 -DZ FEW005 SCT007 BKN009 07/06 Q1012=
202111241420 METAR ESMX 241420Z 25008KT 9000 BKN006 07/06 Q1012=
202111241350 METAR ESMX 241350Z 24010KT 6000 BKN005 07/06 Q1013=
202111241320 METAR ESMX 241320Z 25010KT 9999 FEW006 BKN010 07/06 Q1013=
202111241250 METAR ESMX 241250Z 26010KT 220V290 9999 FEW006 BKN009 08/06 Q1013=
202111241220 METAR ESMX 241220Z 25010KT 220V280 9999 FEW006 BKN011 08/07 Q1013=
202111241150 METAR ESMX 241150Z 26010KT 9999 BKN012 08/06 Q1013=
202111241120 METAR ESMX 241120Z 25008KT 230V290 9999 BKN011 08/07 Q1013=
202111241050 METAR ESMX 241050Z 26009KT 220V300 9999 FEW010 BKN013 08/07 Q1013=
202111241020 METAR COR ESMX 241020Z 27009KT 230V300 9999 FEW005 BKN010 08/07 Q1013=
202111240950 METAR ESMX 240950Z 26008KT 220V290 8000 BKN010 08/07 Q1014=
202111240920 METAR ESMX 240920Z 23006KT 200V260 9999 SCT009 BKN011 07/07 Q1014=
202111240850 METAR ESMX 240850Z 23007KT 200V260 9999 SCT008 BKN020 07/06 Q1014=
202111240820 METAR ESMX 240820Z 25007KT 9999 FEW005 BKN009 07/06 Q1014=
202111240750 METAR ESMX 240750Z 24005KT 9999 FEW012 BKN018 07/06 Q1014=
202111240720 METAR ESMX 240720Z 27009KT 9999 FEW011 OVC016 07/05 Q1014=
202111240650 METAR COR ESMX 240650Z 26009KT 220V290 9999 OVC011 07/06 Q1014=
202111240620 METAR ESMX 240620Z AUTO 27008KT 9999 OVC013/// 07/05 Q1014=
202111240550 METAR ESMX 240550Z AUTO 27008KT 240V300 9999 OVC012/// 07/05 Q1014=
202111240520 METAR ESMX 240520Z AUTO 26006KT 230V300 9999 OVC012/// 06/06 Q1014=
202111240450 METAR ESMX 240450Z AUTO 25006KT 9999 BKN012/// OVC015/// 06/06 Q1014=
202111240420 METAR ESMX 240420Z AUTO 25005KT 9999 BKN012/// OVC015/// 06/06 Q1014=
202111240350 METAR ESMX 240350Z AUTO 25005KT 230V290 9999 OVC010/// 06/06 Q1014=
202111240320 METAR ESMX 240320Z AUTO 26006KT 220V280 9999 OVC010/// 06/06 Q1014=
202111240250 METAR ESMX 240250Z AUTO 24005KT 9999 OVC009/// 06/06 Q1015=
202111240220 METAR ESMX 240220Z AUTO 25006KT 9999 BKN008/// OVC010/// 05/05 Q1015=
202111240150 METAR ESMX 240150Z AUTO 24006KT 9999 OVC006/// 05/05 Q1015=
202111240120 METAR ESMX 240120Z AUTO 22004KT 9999 OVC006/// 05/05 Q1015=
202111240050 METAR ESMX 240050Z AUTO 22004KT 190V250 9999 BKN006/// OVC011/// 05/05 Q1015=
202111240020 METAR ESMX 240020Z AUTO 22004KT 9999 FEW007/// OVC011/// 05/05 Q1015=
202111232350 METAR ESMX 232350Z AUTO 22005KT 9999 FEW007/// OVC012/// 04/04 Q1015=
202111232320 METAR ESMX 232320Z AUTO 19004KT 9999 FEW005/// SCT007/// OVC010/// 04/04 Q1016=
202111232250 METAR ESMX 232250Z AUTO 23004KT 9999 FEW008/// OVC012/// 04/04 Q1016=
202111232220 METAR ESMX 232220Z 23006KT 9999 BKN012 04/04 Q1016=
202111232150 METAR ESMX 232150Z 23005KT 9999 BKN013 04/04 Q1016=
202111232120 METAR ESMX 232120Z 24005KT 9999 BKN013 04/04 Q1016=
202111232050 METAR ESMX 232050Z AUTO 24005KT 9999 BKN015/// 04/04 Q1017=
202111232020 METAR ESMX 232020Z AUTO 25006KT 9999 OVC014/// 04/04 Q1017=
202111231950 METAR ESMX 231950Z AUTO 21004KT 9999 SCT004/// OVC015/// 04/04 Q1017=
202111231920 METAR ESMX 231920Z AUTO 23004KT 9999 OVC005/// 04/04 Q1017=
202111231850 METAR ESMX 231850Z AUTO 23005KT 9999 SCT006/// OVC017/// 05/05 Q1017=
202111231820 METAR ESMX 231820Z AUTO 24005KT 9999 OVC004/// 04/04 Q1017=
202111231750 METAR ESMX 231750Z AUTO 23005KT 9999 OVC005/// 04/04 Q1017=
202111231720 METAR ESMX 231720Z AUTO 22004KT 2300 OVC001/// 03/03 Q1017=
202111231650 METAR ESMX 231650Z AUTO 24005KT 1200 R01/P2000N R19/P2000N OVC001/// 03/03 Q1018=
202111231620 METAR ESMX 231620Z AUTO 23007KT 2000 BR BKN002/// BKN006/// OVC008/// 03/03 Q1018=
202111231550 METAR ESMX 231550Z AUTO 21007KT 9999 NCD 02/02 Q1018=
202111231520 METAR ESMX 231520Z 19006KT CAVOK 02/01 Q1018=
202111231450 METAR ESMX 231450Z 20006KT CAVOK 02/01 Q1018=
202111231420 METAR ESMX 231420Z 22005KT CAVOK 02/01 Q1018=
202111231350 METAR ESMX 231350Z 17004KT CAVOK 03/02 Q1019=
202111231320 METAR COR ESMX 231320Z 22004KT CAVOK 04/02 Q1019=
202111231250 METAR ESMX 231250Z 23003KT CAVOK 04/02 Q1019=
202111231220 METAR ESMX 231220Z 17002KT CAVOK 04/02 Q1019=
202111231150 METAR ESMX 231150Z 18004KT 160V220 CAVOK 05/02 Q1019=
202111231120 METAR ESMX 231120Z 23003KT CAVOK 05/02 Q1019=
202111231050 METAR ESMX 231050Z 23002KT CAVOK 04/02 Q1020=
202111231020 METAR ESMX 231020Z 21002KT CAVOK 03/02 Q1019=
202111230950 METAR ESMX 230950Z 00000KT CAVOK 03/03 Q1019=
202111230920 METAR ESMX 230920Z 27003KT CAVOK 01/01 Q1020=
202111230850 METAR ESMX 230850Z 27002KT CAVOK 00/00 Q1020=
202111230820 METAR ESMX 230820Z 28002KT CAVOK M01/M01 Q1019=
202111230750 METAR ESMX 230750Z 00000KT CAVOK M00/M00 Q1019=
202111230720 METAR ESMX 230720Z 29003KT CAVOK M00/M00 Q1019=
202111230650 METAR ESMX 230650Z 29003KT CAVOK M01/M01 Q1019=
202111230620 METAR ESMX 230620Z 28003KT CAVOK M00/M00 Q1018=
202111230550 METAR ESMX 230550Z 28004KT CAVOK 00/00 Q1018=
202111230520 METAR ESMX 230520Z 29002KT CAVOK 01/01 Q1018=
202111230450 METAR COR ESMX 230450Z 30001KT CAVOK 01/01 Q1018=
202111230420 METAR ESMX 230420Z AUTO 30002KT 9999 BCFG NCD 01/01 Q1018=
202111230350 METAR ESMX 230350Z AUTO 31003KT 2400 BCFG NCD 01/01 Q1017=
202111230320 METAR ESMX 230320Z AUTO 32002KT 9999 BCFG NCD 01/01 Q1017=
202111230250 METAR ESMX 230250Z AUTO 32003KT 1000 R01/P2000N R19/P2000N NCD 02/02 Q1017=
202111230220 METAR ESMX 230220Z AUTO 34001KT 0350 R01/P2000D R19/P2000N BCFG NCD 00/00 Q1017=
202111230150 METAR ESMX 230150Z AUTO 34002KT 0400 R01/1100D R19/1200N FG NCD 01/01 Q1016=
202111230120 METAR ESMX 230120Z AUTO 33004KT 4200 BR NCD 02/02 Q1016=
202111230050 METAR ESMX 230050Z AUTO 32003KT 9999 NCD 03/03 Q1016=
202111230020 METAR ESMX 230020Z AUTO 27004KT 9999 SCT009/// 03/03 Q1016=
202111222350 METAR ESMX 222350Z AUTO 27003KT 9999 BKN007/// OVC009/// 03/03 Q1015=
202111222320 METAR ESMX 222320Z AUTO VRB02KT 7000 BR BKN002/// OVC004/// 03/03 Q1015 REDZ=
202111222250 METAR ESMX 222250Z AUTO 23002KT 3200 BR OVC001/// 03/03 Q1015=
202111222220 METAR ESMX 222220Z AUTO 23003KT 2400 BR OVC001/// 03/03 Q1015=
202111222150 METAR ESMX 222150Z AUTO 23003KT 2500 -DZ OVC002/// 03/03 Q1015=
202111222120 METAR ESMX 222120Z AUTO 22007KT 3300 DZ OVC002/// 02/02 Q1015 REDZ REUP=
202111222050 METAR ESMX 222050Z AUTO 23008KT 2600 -DZ OVC002/// 02/02 Q1015 REUP=
202111222020 METAR ESMX 222020Z AUTO 22009KT 4200 BR OVC002/// 02/02 Q1015=
202111221950 METAR ESMX 221950Z AUTO 22010KT 5000 BR OVC003/// 01/01 Q1015=
202111221920 METAR ESMX 221920Z AUTO 21010KT 3900 BR FEW002/// OVC004/// 01/01 Q1015 REUP=
202111221850 METAR ESMX 221850Z AUTO 22010KT 7000 BR BKN005/// BKN007/// OVC010/// 01/00 Q1015=
202111221820 METAR ESMX 221820Z 22011KT 9999 BKN006 BKN016 01/M01 Q1015=
202111221750 METAR ESMX 221750Z 22011KT 9999 -RASN BKN019 BKN025 00/M02 Q1016 RESG=
202111221720 METAR ESMX 221720Z 22011KT 9999 -SN BKN024 00/M02 Q1017=
202111221650 METAR ESMX 221650Z 21008KT 9999 SCT030 M00/M03 Q1017=
202111221620 METAR ESMX 221620Z 18007KT 9999 BKN035 M01/M03 Q1018=
202111221550 METAR ESMX 221550Z 21008KT 9999 FEW042 M01/M04 Q1018=
202111221520 METAR ESMX 221520Z 19008KT 9999 FEW043 M01/M04 Q1018=
202111221450 METAR ESMX 221450Z 20007KT 9999 FEW048 M01/M04 Q1019=
202111221420 METAR ESMX 221420Z 20006KT 9999 SCT049 00/M04 Q1019=
202111221350 METAR ESMX 221350Z 23006KT 9999 FEW049 01/M04 Q1019=
202111221320 METAR ESMX 221320Z 23007KT 200V260 CAVOK 01/M04 Q1020=
202111221250 METAR COR ESMX 221250Z 23006KT CAVOK 01/M05 Q1020=
202111221220 METAR ESMX 221220Z 25005KT CAVOK 01/M04 Q1020=
202111221150 METAR ESMX 221150Z 25006KT CAVOK 01/M03 Q1020=
202111221120 METAR ESMX 221120Z 26007KT CAVOK 01/M04 Q1021=
202111221050 METAR ESMX 221050Z 26004KT CAVOK 01/M03 Q1021=
202111221020 METAR ESMX 221020Z 26005KT CAVOK 01/M02 Q1021=
202111220950 METAR ESMX 220950Z 26005KT CAVOK 00/M02 Q1021=
202111220920 METAR ESMX 220920Z 26004KT CAVOK M00/M02 Q1021=
202111220850 METAR ESMX 220850Z 27003KT CAVOK M00/M02 Q1021=
202111220820 METAR ESMX 220820Z 00000KT CAVOK M01/M01 Q1021=
202111220750 METAR ESMX 220750Z 03003KT CAVOK M03/M03 Q1020=
202111220720 METAR ESMX 220720Z 00000KT CAVOK M03/M03 Q1020=
202111220650 METAR ESMX 220650Z 03002KT CAVOK M04/M04 Q1020=
202111220620 METAR ESMX 220620Z AUTO VRB02KT 9999 NCD M03/M03 Q1019=
202111220550 METAR ESMX 220550Z AUTO VRB03KT 9999 NCD M02/M03 Q1019=
202111220520 METAR ESMX 220520Z AUTO 01004KT 9999 FEW047/// M01/M02 Q1019=
202111220450 METAR ESMX 220450Z AUTO VRB02KT 9999 OVC048/// M01/M02 Q1019=
202111220420 METAR ESMX 220420Z AUTO 33003KT 9999 OVC048/// M00/M02 Q1019=
202111220350 METAR ESMX 220350Z AUTO 35005KT 9999 OVC046/// 00/M01 Q1018=
202111220320 METAR ESMX 220320Z AUTO 36007KT 9999 OVC047/// 00/M01 Q1018=
202111220250 METAR ESMX 220250Z AUTO 34007KT 9999 OVC048/// 00/M01 Q1018=
202111220220 METAR ESMX 220220Z AUTO 34008KT 9999 OVC047/// 00/M01 Q1018=
202111220150 METAR ESMX 220150Z AUTO 34005KT 9999 BKN011/// OVC051/// 00/M01 Q1018=
202111220120 METAR ESMX 220120Z AUTO 36007KT 9999 OVC051/// 00/M01 Q1018=
202111220050 METAR ESMX 220050Z AUTO 36008KT 9999 OVC053/// 00/M01 Q1017=
202111220020 METAR ESMX 220020Z AUTO 36008KT 9999 OVC053/// 01/M01 Q1017=
202111212350 METAR ESMX 212350Z AUTO 33007KT 9999 SCT011/// OVC053/// 01/M00 Q1017=
202111212320 METAR ESMX 212320Z AUTO 35007KT 9999 SCT010/// OVC051/// 00/M00 Q1016=
202111212250 METAR ESMX 212250Z AUTO 01006KT 9999 FEW011/// OVC053/// 01/M00 Q1016=
202111212220 METAR ESMX 212220Z AUTO 36008KT 9999 BKN011/// OVC051/// 01/M00 Q1016=
202111212150 METAR ESMX 212150Z AUTO 34007KT 9999 FEW011/// OVC051/// 01/M00 Q1016=
202111212120 METAR ESMX 212120Z AUTO 02006KT 9999 FEW020/// SCT027/// BKN051/// 00/M00 Q1015=
202111212050 METAR ESMX 212050Z AUTO 35005KT 9999 NCD M00/M01 Q1015=
202111212020 METAR ESMX 212020Z AUTO 01005KT 9999 SCT028/// 00/M01 Q1014=
202111211950 METAR ESMX 211950Z AUTO 35006KT 9999 FEW027/// 00/M01 Q1014=
202111211920 METAR ESMX 211920Z AUTO 35008KT 9999 NCD 01/M00 Q1013=
202111211850 METAR ESMX 211850Z AUTO 35007KT 9999 NCD 00/M00 Q1013=
202111211820 METAR ESMX 211820Z AUTO 35008KT 9999 NCD 01/M00 Q1012=
202111211750 METAR ESMX 211750Z AUTO 35010KT 9999 NCD 01/M00 Q1012=
202111211720 METAR ESMX 211720Z AUTO 35011KT 9999 NCD 02/M00 Q1011=
202111211650 METAR ESMX 211650Z AUTO 36010KT 9999 FEW019/// 02/M00 Q1010=
202111211620 METAR ESMX 211620Z AUTO 35010KT 9999 OVC019/// 03/00 Q1010=
202111211550 METAR ESMX 211550Z AUTO 34009KT 9999 OVC021/// 02/01 Q1010=
202111211520 METAR ESMX 211520Z AUTO 33006KT 9999 BKN019/// 02/01 Q1009=
202111211450 METAR ESMX 211450Z AUTO 32006KT 9999 NCD 01/01 Q1008=
202111211420 METAR ESMX 211420Z AUTO 32007KT 9999 NCD 02/01 Q1008=
202111211350 METAR ESMX 211350Z AUTO 34007KT 9999 FEW015/// 03/01 Q1007=
202111211320 METAR ESMX 211320Z AUTO 34010KT 9999 BKN015/// 03/01 Q1007=
202111211250 METAR ESMX 211250Z AUTO 35009KT 9999 NCD 04/00 Q1007=
202111211220 METAR ESMX 211220Z AUTO 35009KT 9999 NCD 04/01 Q1006=
202111211150 METAR ESMX 211150Z AUTO 35009KT 9999 FEW012/// SCT016/// 04/01 Q1006=
202111211120 METAR ESMX 211120Z AUTO 01010KT 9999 FEW014/// 04/01 Q1005=
202111211050 METAR ESMX 211050Z AUTO 35007KT 9999 FEW011/// 04/02 Q1005=
202111211020 METAR ESMX 211020Z AUTO 34008KT 9999 FEW011/// 04/02 Q1004=
202111210950 METAR ESMX 210950Z AUTO 35011KT 9999 BKN010/// 03/02 Q1004=
202111210920 METAR ESMX 210920Z AUTO 33010KT 9999 BKN009/// OVC082/// 04/03 Q1003=
202111210850 METAR ESMX 210850Z AUTO 33007KT 9999 FEW008/// BKN061/// OVC080/// 04/03 Q1003=
202111210820 METAR ESMX 210820Z AUTO 33005KT 9999 SCT041/// OVC057/// 04/03 Q1002=
202111210750 METAR ESMX 210750Z AUTO 35007KT 9999 FEW006/// BKN037/// OVC062/// 04/03 Q1002=
202111210720 METAR ESMX 210720Z AUTO 34006KT 9999 FEW007/// SCT036/// OVC059/// 03/03 Q1001 REUP=
202111210650 METAR ESMX 210650Z AUTO 33005KT 9999 UP OVC051/// 03/03 Q1001=
202111210620 METAR ESMX 210620Z AUTO 34006KT 9999 FEW008/// BKN043/// OVC057/// 03/03 Q1000=
202111210550 METAR ESMX 210550Z AUTO 34004KT 320V020 9999 FEW011/// SCT040/// BKN051/// 03/03 Q1000=
202111210520 METAR ESMX 210520Z AUTO 34005KT 320V030 9999 -RA SCT006/// OVC032/// 03/03 Q0999=
202111210450 METAR ESMX 210450Z AUTO 01007KT 9999 -RA BKN006/// BKN027/// OVC034/// 03/03 Q0999=
202111210420 METAR ESMX 210420Z AUTO 35008KT 9999 -RA BKN006/// BKN010/// OVC028/// 03/03 Q0999=
202111210350 METAR ESMX 210350Z AUTO 35010KT 9000 -RA ///032 03/03 Q0998 REDZ=
202111210320 METAR ESMX 210320Z AUTO 01009KT 6000 -RA BKN005/// BKN008/// OVC012/// 04/03 Q0998 RESHUP REDZ=
202111210250 METAR ESMX 210250Z AUTO 36010KT 9999 SCT006/// BKN012/// BKN034/// 04/04 Q0998=
202111210220 METAR ESMX 210220Z AUTO 35009KT 300V030 8000 DZ FEW002/// OVC005/// 05/05 Q0998 REDZ=
202111210150 METAR ESMX 210150Z AUTO 36010KT 7000 DZ FEW002/// OVC005/// 05/05 Q0997=
202111210120 METAR ESMX 210120Z AUTO 35008KT 7000 DZ VV010 06/06 Q0997 RERA=
202111210050 METAR ESMX 210050Z AUTO 01006KT 340V050 3800 +DZ SCT002/// BKN009/// OVC013/// 06/06 Q0996 REDZ=
202111210020 METAR ESMX 210020Z AUTO 01004KT 340V050 1400 R01/P2000N R19/P2000N +DZ VV010 06/06 Q0996=
202111202350 METAR ESMX 202350Z AUTO 04003KT 1900 RA BKN002/// BKN012/// OVC015/// 06/06 Q0997=
202111202320 METAR ESMX 202320Z AUTO 03005KT 1200 R01/P2000N R19/P2000N RA BKN001/// OVC015/// 06/06 Q0998=
202111202250 METAR ESMX 202250Z AUTO 06004KT 1200 R01/P2000N R19/P2000N RA OVC002/// 06/06 Q0998=
202111202220 METAR ESMX 202220Z AUTO 07004KT 050V110 1100 R01/P2000N R19/P2000N RA BKN001/// OVC012/// 06/06 Q0999=
202111202150 METAR ESMX 202150Z AUTO 11003KT 1200 R01/P2000N R19/P2000N -RA BKN001/// OVC014/// 07/07 Q0999=
202111202120 METAR ESMX 202120Z AUTO VRB02KT 1200 R01/P2000N R19/P2000N -RA BKN001/// OVC013/// 07/07 Q1000=
202111202050 METAR ESMX 202050Z AUTO 11003KT 1700 RA VV014 07/07 Q1000=
202111202020 METAR ESMX 202020Z AUTO 15002KT 2200 RA VV017 07/07 Q1001=
202111201950 METAR ESMX 201950Z AUTO 00000KT 1900 RA VV019 07/07 Q1001 REDZ=
202111201920 METAR ESMX 201920Z AUTO 00000KT 2000 RA VV019 07/07 Q1002=
202111201850 METAR ESMX 201850Z AUTO 02004KT 2200 +DZ VV015 07/07 Q1002=
202111201820 METAR ESMX 201820Z AUTO 36005KT 2500 RA BKN002/// OVC009/// 07/07 Q1002 REDZ=
202111201750 METAR ESMX 201750Z AUTO 26011KT 230V290 5000 DZ SCT003/// OVC005/// 09/09 Q1002 RESHUP REDZ=
202111201720 METAR ESMX 201720Z AUTO 25013KT 8000 BKN006/// OVC008/// 09/09 Q1002=
202111201650 METAR ESMX 201650Z AUTO 25015G27KT 230V290 4900 -DZ BKN006/// OVC008/// 09/09 Q1003=
202111201620 METAR ESMX 201620Z AUTO 25013KT 9999 OVC008/// 09/09 Q1003=
202111201550 METAR ESMX 201550Z AUTO 25014KT 7000 BR BKN007/// BKN009/// OVC014/// 09/09 Q1003=
202111201520 METAR ESMX 201520Z AUTO 25013KT 3800 -DZ VV013 10/09 Q1004 REDZ=
202111201450 METAR ESMX 201450Z AUTO 25013KT 7000 BR BKN007/// OVC014/// 10/09 Q1004=
202111201420 METAR ESMX 201420Z AUTO 25011KT 220V280 3900 -DZ VV011 10/10 Q1004 REDZ=
202111201350 METAR ESMX 201350Z AUTO 25015KT 9999 OVC007/// 10/10 Q1005 RESHUP REDZ=
202111201320 METAR ESMX 201320Z AUTO 23005KT 200V280 5000 DZ SCT002/// BKN005/// OVC008/// 08/08 Q1005=
202111201250 METAR ESMX 201250Z AUTO 20002KT 3800 DZ VV007 07/07 Q1006 REDZ=
202111201220 METAR ESMX 201220Z AUTO 20003KT 2300 +DZ VV006 07/07 Q1007=
202111201150 METAR ESMX 201150Z AUTO VRB02KT 2800 +DZ VV009 07/07 Q1007 RERA=
202111201120 METAR ESMX 201120Z AUTO 28003KT 3300 +DZ SCT006/// BKN011/// OVC015/// 07/07 Q1008=
202111201050 METAR ESMX 201050Z AUTO 24003KT 2900 +DZ VV017 07/07 Q1009=
202111201020 METAR ESMX 201020Z AUTO 25004KT 4300 DZ FEW008/// SCT016/// BKN021/// 07/07 Q1009=
202111200950 METAR ESMX 200950Z AUTO 24006KT 190V260 4700 DZ ///027 08/07 Q1010 REDZ=
202111200920 METAR ESMX 200920Z AUTO 20005KT 8000 BR OVC041/// 08/07 Q1010=
202111200850 METAR ESMX 200850Z AUTO 22006KT 9000 DZ BKN048/// 07/07 Q1011=
202111200820 METAR ESMX 200820Z AUTO 24004KT 9999 DZ FEW021/// SCT041/// 07/07 Q1011=
202111200750 METAR ESMX 200750Z AUTO 25008KT 9999 -RA ///043 07/07 Q1012 REDZ REUP RESHUP=
202111200720 METAR ESMX 200720Z AUTO 25008KT 9999 UP BKN055/// 08/06 Q1011=
202111200650 METAR ESMX 200650Z AUTO 25006KT 9999 FEW009/// SCT062/// 07/06 Q1011=
202111200620 METAR ESMX 200620Z AUTO 25005KT 9999 BKN082/// 07/06 Q1012=
202111200550 METAR ESMX 200550Z AUTO 25008KT 9999 OVC088/// 07/05 Q1011=
202111200520 METAR ESMX 200520Z AUTO 26009KT 9999 BKN098/// 07/05 Q1011=
202111200450 METAR ESMX 200450Z AUTO 26008KT 9999 BKN096/// OVC120/// 07/05 Q1012=
202111200420 METAR ESMX 200420Z AUTO 27007KT 240V300 9999 BKN098/// OVC120/// 06/05 Q1012=
202111200350 METAR ESMX 200350Z AUTO 27008KT 9999 BKN130/// 06/05 Q1012=
202111200320 METAR ESMX 200320Z AUTO 27009KT 9999 NCD 07/05 Q1012=
202111200250 METAR ESMX 200250Z AUTO 27010KT 9999 NCD 07/05 Q1011=
202111200220 METAR ESMX 200220Z AUTO 26009KT 9999 NCD 07/05 Q1011=
202111200150 METAR ESMX 200150Z AUTO 28009KT 9999 NCD 07/04 Q1011=
202111200120 METAR ESMX 200120Z AUTO 28010KT 9999 NCD 07/04 Q1011=
202111200050 METAR ESMX 200050Z AUTO 28012KT 9999 NCD 08/04 Q1011=
202111200020 METAR ESMX 200020Z AUTO 30011KT 9999 NCD 08/04 Q1011=
202111192350 METAR ESMX 192350Z AUTO 27013KT 9999 NCD 08/05 Q1010=
202111192320 METAR ESMX 192320Z AUTO 28013KT 9999 NCD 08/05 Q1010=
202111192250 METAR ESMX 192250Z AUTO 28013KT 9999 NCD 08/05 Q1009=
202111192220 METAR ESMX 192220Z AUTO 29013KT 250V320 9999 NCD 08/05 Q1009=
202111192150 METAR ESMX 192150Z AUTO 28015G25KT 9999 NCD 08/05 Q1008=
202111192120 METAR ESMX 192120Z AUTO 28017KT 9999 NCD 09/05 Q1007=
202111192050 METAR ESMX 192050Z AUTO 26017G30KT 9999 NCD 09/06 Q1007=
202111192020 METAR ESMX 192020Z AUTO 28015KT 9999 NCD 09/06 Q1007=
202111191950 METAR ESMX 191950Z AUTO 28020G30KT 9999 FEW023/// 09/06 Q1007=
202111191920 METAR ESMX 191920Z AUTO 26017G28KT 230V300 9999 FEW022/// 09/06 Q1006=
202111191850 METAR ESMX 191850Z AUTO 26016G28KT 240V300 9999 BKN022/// 10/06 Q1005=
202111191820 METAR ESMX 191820Z AUTO 26018G29KT 9999 FEW023/// 10/06 Q1005=
202111191750 METAR ESMX 191750Z AUTO 27019G31KT 9999 BKN021/// 10/07 Q1005=
202111191720 METAR ESMX 191720Z AUTO 27019G32KT 9999 BKN021/// 10/07 Q1004=
202111191650 METAR ESMX 191650Z 26017G35KT 9999 BKN021 10/07 Q1004=
202111191620 METAR ESMX 191620Z 26017G30KT 220V290 9999 BKN021 11/07 Q1004=
202111191550 METAR ESMX 191550Z 26019G32KT 9999 BKN021 11/08 Q1004=
202111191520 METAR ESMX 191520Z 26018G28KT 230V300 9999 BKN020 11/08 Q1004=
202111191450 METAR ESMX 191450Z 26020G38KT 9999 BKN020 11/08 Q1004=
202111191420 METAR ESMX 191420Z 26019G29KT 230V290 9999 BKN019 11/08 Q1004=
202111191350 METAR ESMX 191350Z 26019G31KT 220V290 9999 BKN017 12/09 Q1004=
202111191320 METAR ESMX 191320Z 26019G31KT 220V290 9999 BKN016 12/09 Q1004=
202111191250 METAR ESMX 191250Z 26019G30KT 220V280 9999 BKN015 12/09 Q1004=
202111191220 METAR ESMX 191220Z 26017G30KT 9999 BKN013 12/10 Q1005=
202111191150 METAR ESMX 191150Z 25015G29KT 210V290 9999 BKN012 12/10 Q1005=
202111191120 METAR ESMX 191120Z AUTO 25016KT 220V280 9999 OVC010/// 12/10 Q1005=
202111191050 METAR ESMX 191050Z 26016G26KT 9999 BKN010 12/11 Q1005=
202111191020 METAR ESMX 191020Z 26016G27KT 9999 BKN009 12/11 Q1005=
202111190950 METAR ESMX 190950Z 26014KT 230V290 9999 BKN009 12/11 Q1006=
202111190920 METAR ESMX 190920Z AUTO 26013KT 9999 OVC009/// 12/11 Q1006=
202111190850 METAR ESMX 190850Z 27013G24KT 9999 BKN008 12/11 Q1006=
202111190820 METAR ESMX 190820Z 26014KT 9000 -DZ BKN006 OVC010 11/11 Q1006=
202111190750 METAR ESMX 190750Z 27015KT 5000 BR BKN006 OVC009 11/11 Q1006=
202111190720 METAR ESMX 190720Z 26011KT 4500 -DZ BKN006 11/11 Q1006=
202111190650 METAR ESMX 190650Z AUTO 25011KT 210V280 5000 BR FEW006/// BKN009/// BKN011/// 11/11 Q1006=
202111190620 METAR ESMX 190620Z AUTO 25009KT 220V280 2700 DZ VV009 11/11 Q1006=
202111190550 METAR ESMX 190550Z AUTO 24007KT 2200 DZ VV008 10/10 Q1006=
202111190520 METAR ESMX 190520Z AUTO 22007KT 2000 DZ VV008 10/10 Q1006=
202111190450 METAR ESMX 190450Z AUTO 23006KT 2000 DZ VV006 10/10 Q1006=
202111190420 METAR ESMX 190420Z AUTO 23005KT 2200 BR BKN002/// BKN007/// OVC008/// 09/09 Q1007=
202111190350 METAR ESMX 190350Z AUTO 26006KT 2400 BR FEW002/// BKN005/// OVC009/// 09/09 Q1007=
202111190320 METAR ESMX 190320Z AUTO 25007KT 9999 BKN012/// OVC015/// 09/08 Q1007=
202111190250 METAR ESMX 190250Z AUTO 26008KT 230V300 9999 OVC015/// 09/08 Q1007=
202111190220 METAR ESMX 190220Z AUTO 27009KT 9999 OVC016/// 09/08 Q1008=
202111190150 METAR ESMX 190150Z AUTO 27009G19KT 240V320 9999 OVC015/// 09/08 Q1008=
202111190120 METAR ESMX 190120Z AUTO 28010KT 9999 OVC015/// 09/08 Q1007=
202111190050 METAR ESMX 190050Z AUTO 26012KT 9999 BKN015/// 09/08 Q1007=
202111190020 METAR ESMX 190020Z AUTO 26012KT 230V290 9999 BKN015/// 10/08 Q1007=
202111182350 METAR ESMX 182350Z AUTO 26013KT 9999 OVC015/// 10/08 Q1007=
202111182320 METAR ESMX 182320Z 28012KT 9999 BKN013 10/09 Q1007=
202111182250 METAR ESMX 182250Z 28016KT 9999 BKN009 10/09 Q1007=
202111182220 METAR ESMX 182220Z AUTO 27012KT 240V300 9999 BKN008/// OVC010/// 10/09 Q1007=
202111182150 METAR ESMX 182150Z AUTO 27013KT 9999 BKN009/// OVC013/// 10/10 Q1006 RERA=
202111182120 METAR ESMX 182120Z AUTO 27013KT 9999 FEW006/// BKN009/// OVC012/// 10/10 Q1006=
202111182050 METAR ESMX 182050Z AUTO 26012KT 5000 -DZ BKN006/// OVC016/// 10/10 Q1006=
202111182020 METAR ESMX 182020Z AUTO 26012KT 5000 -DZ OVC006/// 10/10 Q1006 REDZ=
202111181950 METAR ESMX 181950Z AUTO 26012KT 230V290 6000 BR BKN005/// OVC007/// 10/10 Q1006=
202111181920 METAR ESMX 181920Z AUTO 25012KT 220V280 4200 BR OVC006/// 10/10 Q1006=
202111181850 METAR ESMX 181850Z AUTO 26013KT 3900 BR OVC005/// 10/10 Q1005=
202111181820 METAR ESMX 181820Z AUTO 26013G24KT 220V280 3300 BR FEW002/// OVC004/// 10/10 Q1005=
202111181750 METAR ESMX 181750Z AUTO 24012KT 3400 BR OVC002/// 09/09 Q1005 REDZ=
202111181720 METAR ESMX 181720Z AUTO 22013KT 2700 BR BKN002/// OVC004/// 09/09 Q1005=
202111181650 METAR ESMX 181650Z AUTO 22012KT 2800 BR OVC002/// 09/09 Q1006 RESHUP=
202111181620 METAR ESMX 181620Z AUTO 22011KT 3300 -DZ OVC002/// 08/08 Q1006 RESHUP REDZ=
202111181550 METAR ESMX 181550Z AUTO 21012KT 4300 BR OVC002/// 08/08 Q1007=
202111181520 METAR ESMX 181520Z 19009KT 4000 -DZ BR BKN004 07/07 Q1008=
202111181450 METAR ESMX 181450Z 20008KT 4000 -DZ BR BKN004 07/07 Q1008=
202111181420 METAR ESMX 181420Z 21008KT 5000 -DZ BR BKN005 07/07 Q1009=
202111181350 METAR ESMX 181350Z 23006KT 8000 BR BKN005 07/07 Q1010=
202111181320 METAR ESMX 181320Z 21008KT 9000 BR -DZ SCT006 OVC012 07/07 Q1010=
202111181250 METAR ESMX 181250Z 23008KT 200V260 9999 BKN013 08/06 Q1010=
202111181220 METAR ESMX 181220Z 24009KT 9000 -DZ FEW006 BKN015 08/06 Q1011=
202111181150 METAR ESMX 181150Z 25007KT 230V290 9999 BKN016 08/06 Q1011=
202111181120 METAR ESMX 181120Z 25009KT 210V290 9999 BKN016 08/05 Q1011=
202111181050 METAR ESMX 181050Z 26010KT 9999 BKN015 08/05 Q1011=
202111181020 METAR ESMX 181020Z 26011KT 230V290 9999 BKN015 07/05 Q1011=
202111180950 METAR ESMX 180950Z 25008KT 220V290 9999 BKN014 07/06 Q1011=
202111180920 METAR ESMX 180920Z 25008KT 9999 BKN011 07/06 Q1011=
202111180850 METAR ESMX 180850Z 26008KT 220V280 9999 BKN009 07/06 Q1011=
202111180820 METAR ESMX 180820Z 26007KT 230V290 9999 BKN009 06/05 Q1011=
202111180750 METAR ESMX 180750Z AUTO 24007KT 210V280 9999 BKN010/// OVC015/// 06/05 Q1011=
202111180720 METAR ESMX 180720Z 26007KT 9999 BKN013 06/05 Q1011=
202111180650 METAR ESMX 180650Z 27009KT 9999 BKN012 06/05 Q1011=
202111180620 METAR ESMX 180620Z 25007KT 220V280 9999 BKN010 OVC013 06/05 Q1010=
202111180550 METAR ESMX 180550Z 26008KT 9999 BKN010 OVC014 06/05 Q1010=
202111180520 METAR ESMX 180520Z 25008KT 9999 OVC011 06/05 Q1010=
202111180450 METAR ESMX 180450Z AUTO 24007KT 9999 BKN011/// OVC014/// 06/05 Q1010=
202111180420 METAR ESMX 180420Z AUTO 23008KT 200V260 9999 BKN010/// OVC016/// 05/05 Q1010=
202111180350 METAR ESMX 180350Z AUTO 24006KT 9999 BKN018/// OVC028/// 05/05 Q1010=
202111180320 METAR ESMX 180320Z AUTO 22007KT 9999 FEW013/// SCT021/// BKN033/// 05/04 Q1010=
202111180250 METAR ESMX 180250Z AUTO 23007KT 9999 SCT008/// BKN015/// 05/04 Q1010=
202111180220 METAR ESMX 180220Z AUTO 24007KT 220V290 9999 BKN008/// OVC010/// 05/05 Q1010=
202111180150 METAR ESMX 180150Z AUTO 24008KT 9999 OVC007/// 05/05 Q1010=
202111180120 METAR ESMX 180120Z AUTO 25010KT 9999 OVC009/// 05/05 Q1010=
202111180050 METAR ESMX 180050Z AUTO 23007KT 9999 BKN007/// OVC010/// 05/05 Q1010=
202111180020 METAR ESMX 180020Z AUTO 26009KT 9999 BKN009/// OVC013/// 05/05 Q1010=
202111172350 METAR ESMX 172350Z AUTO 25008KT 9999 SCT015/// OVC027/// 05/05 Q1010=
202111172320 METAR ESMX 172320Z AUTO 24008KT 210V270 9999 SCT006/// BKN013/// BKN018/// 05/05 Q1010=
202111172250 METAR ESMX 172250Z AUTO 25008KT 220V280 9999 BKN007/// OVC011/// 05/04 Q1009=
202111172220 METAR ESMX 172220Z AUTO 25009KT 220V280 9999 BKN008/// BKN017/// 05/04 Q1009=
202111172150 METAR ESMX 172150Z AUTO 23008KT 9999 FEW007/// BKN012/// 05/04 Q1009=
202111172120 METAR ESMX 172120Z AUTO 25008KT 9999 BKN007/// OVC011/// 05/05 Q1009=
202111172050 METAR ESMX 172050Z AUTO 25007KT 9999 BKN006/// BKN014/// 05/05 Q1009=
202111172020 METAR ESMX 172020Z AUTO 25008KT 9999 OVC005/// 05/05 Q1009=
202111171950 METAR ESMX 171950Z AUTO 25007KT 9999 BKN005/// OVC010/// 05/05 Q1009=
202111171920 METAR ESMX 171920Z 25009KT 9999 OVC004 06/06 Q1009=
202111171850 METAR ESMX 171850Z 24007KT 9999 OVC005 05/05 Q1009=
202111171820 METAR ESMX 171820Z 23006KT 9999 OVC004 05/05 Q1009=
202111171750 METAR ESMX 171750Z 22008KT 9999 OVC005 05/05 Q1009=
202111171720 METAR ESMX 171720Z 22008KT 9999 -DZ BR OVC005 05/05 Q1009=
202111171650 METAR ESMX 171650Z AUTO 22007KT 9999 DZ OVC004/// 05/05 Q1009=
202111171620 METAR ESMX 171620Z 21009KT 5000 -RA BR OVC003 04/04 Q1009=
202111171550 METAR COR ESMX 171550Z 19009KT 4200 -DZ BR OVC002 04/04 Q1009=
202111171520 METAR ESMX 171520Z 19008KT 2600 -DZ BR OVC002 04/04 Q1009=
202111171450 METAR ESMX 171450Z 20008KT 5000 -RA BR OVC004 04/04 Q1009=
202111171420 METAR ESMX 171420Z 19009KT 5000 BR DZ OVC004 04/04 Q1009=
202111171350 METAR ESMX 171350Z 20007KT 9999 OVC005 04/04 Q1010=
202111171320 METAR ESMX 171320Z AUTO 20007KT 9000 BR OVC003/// 04/04 Q1010=
202111171250 METAR ESMX 171250Z 21008KT 5000 BR BKN005 04/04 Q1010=
202111171220 METAR ESMX 171220Z 19007KT 7000 BKN007 OVC017 04/04 Q1010=
202111171150 METAR ESMX 171150Z 19008KT 9000 FEW007 BKN019 04/04 Q1011=
202111171120 METAR ESMX 171120Z 22007KT 7000 BR BKN006 OVC013 04/04 Q1011=
202111171050 METAR ESMX 171050Z 20008KT 7000 BR BKN012 OVC016 04/04 Q1011=
202111171020 METAR ESMX 171020Z 22006KT 5000 BR BKN005 OVC007 04/04 Q1011=
202111170950 METAR ESMX 170950Z 22007KT 8000 BKN005 04/04 Q1012=
202111170920 METAR ESMX 170920Z 21005KT 5000 -DZ BKN005 OVC007 04/04 Q1012=
202111170850 METAR ESMX 170850Z 22006KT 6000 BR BKN004 OVC007 04/04 Q1012=
202111170820 METAR ESMX 170820Z 23004KT 6000 BR BKN005 OVC008 04/04 Q1012=
202111170750 METAR ESMX 170750Z 21005KT 7000 BR BKN005 04/04 Q1012=
202111170720 METAR ESMX 170720Z 22005KT 6000 BR BKN005 OVC015 04/04 Q1013=
202111170650 METAR COR ESMX 170650Z 21007KT 6000 -DZ BKN005 OVC008 04/04 Q1013=
202111170620 METAR ESMX 170620Z AUTO 19006KT 7000 BR BKN006/// OVC011/// 04/04 Q1013=
202111170550 METAR ESMX 170550Z AUTO 19005KT 5000 BR BKN004/// OVC007/// 04/04 Q1013=
202111170520 METAR ESMX 170520Z AUTO 19005KT 6000 BR OVC004/// 04/04 Q1013=
202111170450 METAR ESMX 170450Z AUTO 18005KT 4400 -DZ OVC004/// 04/04 Q1014=
202111170420 METAR ESMX 170420Z AUTO 18006KT 4800 -RA OVC005/// 04/04 Q1014=
202111170350 METAR ESMX 170350Z AUTO 18006KT 5000 -DZ BKN005/// BKN007/// OVC009/// 05/04 Q1014 REUP=
202111170320 METAR ESMX 170320Z AUTO 20007KT 9000 BR BKN006/// BKN010/// OVC013/// 05/04 Q1014=
202111170250 METAR ESMX 170250Z AUTO 20008KT 9000 BR FEW005/// SCT008/// OVC013/// 05/04 Q1015 REDZ=
202111170220 METAR ESMX 170220Z AUTO 18006KT 5000 BR SCT002/// BKN004/// OVC012/// 05/05 Q1015 RESHUP=
202111170150 METAR ESMX 170150Z AUTO 17005KT 4400 BR OVC002/// 04/04 Q1015 REDZ=
202111170120 METAR ESMX 170120Z AUTO 16006KT 140V200 4100 BR OVC002/// 04/04 Q1015 REDZ=
202111170050 METAR ESMX 170050Z AUTO 15005KT 110V180 4100 BR OVC003/// 04/04 Q1016 RESHUP REUP=
202111170020 METAR ESMX 170020Z AUTO 14004KT 110V170 4200 BR OVC004/// 04/04 Q1016=
202111162350 METAR ESMX 162350Z AUTO 15004KT 120V180 6000 BR OVC004/// 04/04 Q1016=
202111162320 METAR ESMX 162320Z AUTO 17004KT 6000 BR OVC005/// 04/04 Q1017=
202111162250 METAR ESMX 162250Z AUTO 22005KT 7000 BR BKN006/// OVC020/// 04/04 Q1017=
202111162220 METAR ESMX 162220Z AUTO 22004KT 9999 SCT013/// OVC018/// 04/04 Q1018=
202111162150 METAR ESMX 162150Z 22003KT 9999 BKN018 04/04 Q1018=
202111162120 METAR ESMX 162120Z 20004KT 170V240 9999 BKN011 04/03 Q1018=
202111162050 METAR ESMX 162050Z 18004KT 9999 OVC010 04/04 Q1019=
202111162020 METAR ESMX 162020Z 21004KT 8000 BR OVC009 04/04 Q1019=
202111161950 METAR COR ESMX 161950Z 17004KT 8000 BR OVC009 04/04 Q1019=
202111161920 METAR ESMX 161920Z AUTO 21004KT 9999 OVC009/// 04/03 Q1020 RESHUP REUP=
202111161850 METAR ESMX 161850Z AUTO 18004KT 9999 OVC010/// 04/03 Q1020=
202111161820 METAR ESMX 161820Z AUTO VRB03KT 9999 OVC010/// 04/03 Q1020=
202111161750 METAR ESMX 161750Z AUTO 22003KT 9999 OVC010/// 04/03 Q1021=
202111161720 METAR ESMX 161720Z AUTO 00000KT 9999 OVC011/// 04/03 Q1021=
202111161650 METAR ESMX 161650Z AUTO 00000KT 9999 OVC011/// 03/03 Q1021=
202111161620 METAR ESMX 161620Z AUTO 00000KT 9999 OVC011/// 04/03 Q1021=
202111161550 METAR ESMX 161550Z AUTO 00000KT 9999 OVC011/// 03/03 Q1022=
202111161520 METAR ESMX 161520Z 00000KT 6000 BR OVC011 04/03 Q1022=
202111161450 METAR ESMX 161450Z 00000KT 8000 BR OVC011 04/03 Q1022=
202111161420 METAR ESMX 161420Z 00000KT 9999 OVC011 04/02 Q1022=
202111161350 METAR ESMX 161350Z 00000KT 9999 OVC011 04/02 Q1023=
202111161320 METAR ESMX 161320Z VRB02KT 9999 FEW009 OVC012 04/02 Q1023=
202111161250 METAR ESMX 161250Z VRB01KT 9999 OVC013 04/02 Q1023=
202111161220 METAR ESMX 161220Z 00000KT 9999 OVC013 04/02 Q1024=
202111161150 METAR ESMX 161150Z 22003KT 9999 OVC012 04/02 Q1024=
202111161120 METAR ESMX 161120Z 22004KT 9999 BKN011 04/02 Q1024=
202111161050 METAR ESMX 161050Z 22004KT 9999 BKN013 04/02 Q1025=
202111161020 METAR ESMX 161020Z 21004KT 180V250 9999 BKN013 04/02 Q1025=
202111160950 METAR ESMX 160950Z 22005KT 9999 BKN012 04/02 Q1025=
202111160920 METAR ESMX 160920Z 19004KT 9999 BKN013 04/02 Q1025=
202111160850 METAR ESMX 160850Z 18004KT 9999 BKN013 04/02 Q1026=
202111160820 METAR ESMX 160820Z 22003KT 9999 BKN013 04/02 Q1026=
202111160750 METAR ESMX 160750Z 23004KT 9999 BKN012 04/02 Q1026=
202111160720 METAR ESMX 160720Z VRB02KT 9999 BKN011 04/02 Q1026=
202111160650 METAR ESMX 160650Z 26002KT 9999 BKN010 03/03 Q1026 REDZ=
202111160620 METAR ESMX 160620Z 26005KT 230V290 9000 OVC009 04/02 Q1026=
202111160550 METAR ESMX 160550Z 22004KT 9999 OVC009 04/03 Q1027=
202111160520 METAR ESMX 160520Z 22004KT 9999 BKN009 04/03 Q1027=
202111160450 METAR ESMX 160450Z 21004KT 9999 -DZ BKN009 04/03 Q1027=
202111160420 METAR ESMX 160420Z AUTO 19004KT 9999 OVC008/// 04/03 Q1027=
202111160350 METAR ESMX 160350Z AUTO 18006KT 9999 OVC007/// 04/03 Q1027=
202111160320 METAR ESMX 160320Z AUTO 17004KT 9999 BR OVC008/// 04/03 Q1027=
202111160250 METAR ESMX 160250Z AUTO 17004KT 9999 OVC008/// 04/04 Q1027=
202111160220 METAR ESMX 160220Z AUTO 17005KT 9999 OVC009/// 04/03 Q1027=
202111160150 METAR ESMX 160150Z AUTO 16003KT 9999 OVC009/// 05/03 Q1027=
202111160120 METAR ESMX 160120Z AUTO 20003KT 150V230 9999 OVC010/// 05/03 Q1028=
202111160050 METAR ESMX 160050Z AUTO 21004KT 9999 OVC012/// 05/03 Q1028=
202111160020 METAR ESMX 160020Z AUTO 20004KT 150V240 9999 OVC012/// 05/03 Q1028=
202111152350 METAR ESMX 152350Z AUTO 16005KT 9999 OVC011/// 05/03 Q1028=
202111152320 METAR ESMX 152320Z AUTO 20003KT 9999 OVC012/// 05/03 Q1029=
202111152250 METAR ESMX 152250Z AUTO 16004KT 9999 OVC012/// 05/03 Q1029=
202111152220 METAR ESMX 152220Z AUTO 16005KT 9999 OVC012/// 05/03 Q1029=
202111152150 METAR ESMX 152150Z AUTO 15003KT 9999 OVC013/// 05/03 Q1029=
202111152120 METAR ESMX 152120Z AUTO 16004KT 9999 OVC014/// 05/03 Q1029=
202111152050 METAR ESMX 152050Z AUTO 17004KT 140V210 9999 OVC015/// 06/03 Q1029=
202111152020 METAR ESMX 152020Z AUTO 16003KT 9999 OVC016/// 06/03 Q1029=
202111151950 METAR ESMX 151950Z AUTO 19004KT 9999 OVC016/// 06/03 Q1030=
202111151920 METAR ESMX 151920Z AUTO 19003KT 9999 OVC016/// 06/03 Q1030=
202111151850 METAR ESMX 151850Z AUTO 19003KT 9999 OVC017/// 06/03 Q1030=
202111151820 METAR ESMX 151820Z 19003KT 9999 BKN018 06/03 Q1030=
202111151750 METAR ESMX 151750Z 19004KT 9999 BKN017 06/03 Q1030=
202111151720 METAR ESMX 151720Z 20003KT 9999 BKN016 06/03 Q1030=
202111151650 METAR ESMX 151650Z 15004KT 9999 BKN016 06/03 Q1030=
202111151620 METAR ESMX 151620Z 16004KT 130V190 9999 BKN016 06/03 Q1031=
202111151550 METAR ESMX 151550Z 13004KT 9999 BKN018 06/03 Q1030=
202111151520 METAR ESMX 151520Z 13003KT 9999 BKN019 06/03 Q1031=
202111151450 METAR ESMX 151450Z VRB02KT 9999 BKN019 06/03 Q1031=
202111151420 METAR ESMX 151420Z 11004KT 080V160 9999 BKN020 06/03 Q1031=
202111151350 METAR ESMX 151350Z VRB03KT 9999 BKN022 06/03 Q1031=
202111151320 METAR ESMX 151320Z 13003KT 080V200 9999 BKN022 06/03 Q1031=
202111151250 METAR ESMX 151250Z 13004KT 9999 BKN020 06/03 Q1031=
202111151220 METAR ESMX 151220Z 12003KT 9999 BKN019 06/03 Q1032=
202111151150 METAR ESMX 151150Z 11003KT 9999 BKN018 06/03 Q1032=
202111151120 METAR ESMX 151120Z VRB02KT 9999 BKN019 06/03 Q1032=
202111151050 METAR ESMX 151050Z VRB03KT 9999 BKN020 05/03 Q1032=
202111151020 METAR ESMX 151020Z 12003KT 9999 BKN019 05/03 Q1033=
202111150950 METAR ESMX 150950Z 11003KT 9999 BKN017 05/02 Q1033=
202111150920 METAR ESMX 150920Z 12003KT 9999 BKN016 05/02 Q1033=
202111150850 METAR ESMX 150850Z 14004KT 9999 BKN015 05/02 Q1033=
202111150820 METAR ESMX 150820Z 15007KT 120V190 9999 BKN014 05/02 Q1033=
202111150750 METAR ESMX 150750Z 14006KT 110V170 9999 BKN014 05/02 Q1033=
202111150720 METAR ESMX 150720Z 14004KT 9999 BKN014 05/02 Q1033=
202111150650 METAR ESMX 150650Z 12003KT 9999 BKN014 05/02 Q1033=
202111150620 METAR ESMX 150620Z AUTO 13004KT 9999 OVC013/// 05/03 Q1033=
202111150550 METAR ESMX 150550Z AUTO 15004KT 9999 OVC013/// 05/03 Q1033=
202111150520 METAR ESMX 150520Z AUTO 10003KT 050V170 9999 OVC014/// 05/03 Q1033=
202111150450 METAR ESMX 150450Z AUTO 11003KT 9999 OVC014/// 05/03 Q1033=
202111150420 METAR ESMX 150420Z AUTO 11003KT 9999 OVC014/// 05/03 Q1033=
202111150350 METAR ESMX 150350Z AUTO 10003KT 050V120 9999 OVC014/// 05/03 Q1033=
202111150320 METAR ESMX 150320Z AUTO 11004KT 030V120 9999 OVC014/// 05/03 Q1033=
202111150250 METAR ESMX 150250Z AUTO 11004KT 050V140 9999 OVC014/// 05/03 Q1033=
202111150220 METAR ESMX 150220Z AUTO 10003KT 040V120 9999 OVC014/// 05/03 Q1033=
202111150150 METAR ESMX 150150Z AUTO 11004KT 9999 OVC013/// 05/03 Q1033=
202111150120 METAR ESMX 150120Z AUTO 10004KT 9999 OVC014/// 05/03 Q1034=
202111150050 METAR ESMX 150050Z AUTO 11003KT 9999 OVC014/// 05/03 Q1034=
202111150020 METAR ESMX 150020Z AUTO 09004KT 050V120 9999 OVC015/// 05/03 Q1034=
202111142350 METAR ESMX 142350Z AUTO 10004KT 070V140 9999 OVC014/// 05/03 Q1034=
202111142320 METAR ESMX 142320Z AUTO 12003KT 060V130 9999 OVC014/// 05/03 Q1034=
202111142250 METAR ESMX 142250Z AUTO 12005KT 070V170 9999 OVC014/// 05/03 Q1034=
202111142220 METAR ESMX 142220Z AUTO 11004KT 060V140 9999 OVC014/// 05/02 Q1034=
202111142150 METAR ESMX 142150Z AUTO 10004KT 9999 OVC015/// 05/03 Q1034=
202111142120 METAR ESMX 142120Z AUTO 08006KT 030V120 9999 OVC015/// 05/03 Q1034=
202111142050 METAR ESMX 142050Z AUTO 10006KT 040V130 9999 OVC014/// 05/03 Q1034=
202111142020 METAR ESMX 142020Z AUTO 09005KT 030V180 9999 OVC015/// 06/03 Q1034=
202111141950 METAR ESMX 141950Z AUTO 08003KT 9999 OVC018/// 06/03 Q1033=
202111141920 METAR ESMX 141920Z AUTO 08004KT 030V120 9999 OVC019/// 06/03 Q1033=
202111141850 METAR ESMX 141850Z AUTO 07004KT 040V110 9999 OVC019/// 06/03 Q1033=
202111141820 METAR ESMX 141820Z AUTO 07005KT 040V110 9999 OVC019/// 06/03 Q1033=
202111141750 METAR ESMX 141750Z AUTO 07005KT 040V100 9999 OVC019/// 06/03 Q1033=
202111141720 METAR ESMX 141720Z AUTO 08006KT 040V120 9999 OVC019/// 05/03 Q1032=
202111141650 METAR ESMX 141650Z AUTO 08006KT 030V120 9999 OVC018/// 05/03 Q1032=
202111141620 METAR ESMX 141620Z AUTO 07007KT 020V120 9999 OVC018/// 05/02 Q1032=
202111141550 METAR ESMX 141550Z AUTO 05005KT 020V090 9999 BKN019/// 06/03 Q1032=
202111141520 METAR ESMX 141520Z AUTO 08006KT 020V130 9999 BKN020/// 06/03 Q1031=
202111141450 METAR ESMX 141450Z AUTO 05006KT 350V150 9999 BKN021/// 07/03 Q1031=
202111141420 METAR ESMX 141420Z AUTO 06006KT 030V100 9999 OVC022/// 07/04 Q1031=
202111141350 METAR ESMX 141350Z AUTO 04005KT 350V080 9999 BKN022/// 07/04 Q1030=
202111141320 METAR ESMX 141320Z AUTO 07005KT 040V110 9999 BKN020/// 08/03 Q1030=
202111141250 METAR ESMX 141250Z AUTO 04009KT 9999 OVC022/// 07/03 Q1030=
202111141220 METAR ESMX 141220Z AUTO 03006KT 350V090 9999 OVC021/// 07/04 Q1030=
202111141150 METAR ESMX 141150Z AUTO 05008KT 020V090 9999 OVC021/// 07/03 Q1030=
202111141120 METAR ESMX 141120Z AUTO 04009KT 9999 OVC020/// 07/04 Q1030=
202111141050 METAR ESMX 141050Z AUTO 06006KT 030V100 9999 OVC019/// 07/04 Q1030=
202111141020 METAR ESMX 141020Z AUTO 05007KT 9999 OVC018/// 07/04 Q1029=
202111140950 METAR ESMX 140950Z AUTO 04008KT 9999 OVC019/// 07/04 Q1029=
202111140920 METAR ESMX 140920Z AUTO 04008KT 350V070 9999 OVC021/// 06/04 Q1029=
202111140850 METAR ESMX 140850Z AUTO 04009KT 9999 FEW015/// OVC021/// 06/04 Q1028=
202111140820 METAR ESMX 140820Z AUTO 04007KT 9999 OVC021/// 06/04 Q1028=
202111140750 METAR ESMX 140750Z AUTO 04008KT 9999 OVC022/// 06/04 Q1027=
202111140720 METAR ESMX 140720Z AUTO 04007KT 9999 OVC022/// 06/04 Q1027=
202111140650 METAR ESMX 140650Z AUTO 05008KT 020V080 9999 FEW015/// OVC020/// 06/04 Q1027=
202111140620 METAR ESMX 140620Z AUTO 04009KT 9999 FEW014/// OVC021/// 06/04 Q1026=
202111140550 METAR ESMX 140550Z AUTO 04009KT 9999 FEW011/// OVC016/// 07/05 Q1026=
202111140520 METAR ESMX 140520Z AUTO 04005KT 360V080 9999 SCT011/// OVC017/// 07/06 Q1025=
202111140450 METAR ESMX 140450Z AUTO 05004KT 030V110 9999 BKN013/// OVC020/// 07/06 Q1025=
202111140420 METAR ESMX 140420Z AUTO 05006KT 020V090 9999 OVC020/// 07/05 Q1024=
202111140350 METAR ESMX 140350Z AUTO 05009KT 020V090 9999 OVC018/// 07/05 Q1024=
202111140320 METAR ESMX 140320Z AUTO 04010KT 9999 OVC019/// 07/06 Q1024=
202111140250 METAR ESMX 140250Z AUTO 05006KT 020V080 9999 OVC020/// 07/06 Q1024=
202111140220 METAR ESMX 140220Z AUTO 04005KT 5000 BR BKN005/// OVC017/// 06/06 Q1023=
202111140150 METAR ESMX 140150Z AUTO 05005KT 020V080 9999 SCT007/// BKN011/// OVC017/// 06/06 Q1023=
202111140120 METAR ESMX 140120Z AUTO 05006KT 020V080 9999 SCT007/// OVC015/// 06/06 Q1023=
202111140050 METAR ESMX 140050Z AUTO 06005KT 030V100 9999 SCT005/// BKN007/// OVC009/// 07/07 Q1022=
202111140020 METAR ESMX 140020Z AUTO 04006KT 010V070 9999 FEW003/// BKN005/// BKN007/// 07/07 Q1022=
202111132350 METAR ESMX 132350Z AUTO 04005KT 8000 BKN005/// BKN008/// OVC013/// 07/07 Q1022 RESHUP=
202111132320 METAR ESMX 132320Z AUTO 03004KT 350V060 7000 BR BKN004/// OVC008/// 07/07 Q1022 REUP=
202111132250 METAR ESMX 132250Z AUTO 06003KT 030V090 7000 BR SCT006/// BKN008/// OVC012/// 07/07 Q1022=
202111132220 METAR ESMX 132220Z AUTO 03004KT 360V080 9000 FEW005/// BKN008/// OVC012/// 07/07 Q1021 REDZ=
202111132150 METAR ESMX 132150Z AUTO 06005KT 9999 FEW005/// SCT009/// OVC013/// 07/07 Q1021=
202111132120 METAR ESMX 132120Z AUTO 08005KT 020V120 7000 BR BKN006/// OVC010/// 07/07 Q1021=
202111132050 METAR ESMX 132050Z AUTO 07005KT 030V110 5000 -DZ SCT003/// BKN006/// BKN010/// 07/07 Q1020=
202111132020 METAR ESMX 132020Z AUTO 05004KT 020V110 6000 -RA OVC004/// 07/07 Q1020 REDZ=
202111131950 METAR ESMX 131950Z AUTO 04005KT 7000 -DZ OVC005/// 07/07 Q1020 REUP=
202111131920 METAR ESMX 131920Z AUTO 05006KT 020V080 7000 BR OVC005/// 07/07 Q1020 REUP=
202111131850 METAR ESMX 131850Z AUTO 06006KT 020V090 8000 BR OVC005/// 07/07 Q1019=
202111131820 METAR ESMX 131820Z AUTO 06006KT 020V090 4300 BR OVC005/// 07/07 Q1019 REUP REDZ=
202111131750 METAR ESMX 131750Z AUTO 06007KT 7000 BR BKN005/// OVC008/// 07/07 Q1019=
202111131720 METAR ESMX 131720Z AUTO 05006KT 5000 BR BKN005/// OVC019/// 07/07 Q1019=
202111131650 METAR ESMX 131650Z AUTO 05007KT 3900 -DZ FEW006/// BKN016/// OVC022/// 07/07 Q1018=
202111131620 METAR ESMX 131620Z AUTO 04006KT 5000 DZ BKN005/// BKN013/// OVC015/// 07/07 Q1018 REDZ=
202111131550 METAR ESMX 131550Z AUTO 04005KT 010V070 4900 -DZ VV013 07/07 Q1018=
202111131520 METAR ESMX 131520Z AUTO 05006KT 7000 DZ FEW005/// OVC012/// 07/07 Q1018 REDZ=
202111131450 METAR ESMX 131450Z AUTO 06005KT 030V090 4300 DZ SCT007/// BKN010/// BKN011/// 07/07 Q1018=
202111131420 METAR ESMX 131420Z AUTO 05005KT 020V080 4700 -DZ BKN006/// OVC008/// 07/07 Q1017=
202111131350 METAR ESMX 131350Z AUTO 06004KT 030V100 2800 DZ SCT002/// OVC005/// 07/07 Q1017=
202111131320 METAR ESMX 131320Z AUTO 06005KT 2700 -DZ OVC006/// 07/07 Q1017 REUP REDZ=
202111131250 METAR ESMX 131250Z AUTO 09005KT 030V140 9000 BR FEW006/// OVC009/// 08/06 Q1017=
202111131220 METAR ESMX 131220Z AUTO 08006KT 040V110 9999 OVC009/// 08/06 Q1017=
202111131150 METAR ESMX 131150Z AUTO VRB04KT 9999 OVC011/// 08/06 Q1017=
202111131120 METAR ESMX 131120Z AUTO 07005KT 020V110 9999 OVC011/// 08/06 Q1017 REUP=
202111131050 METAR ESMX 131050Z AUTO 08004KT 020V150 9999 OVC010/// 08/06 Q1017=
202111131020 METAR ESMX 131020Z AUTO 08005KT 040V110 9999 OVC009/// 07/06 Q1017=
202111130950 METAR ESMX 130950Z AUTO 07005KT 040V140 9999 OVC009/// 07/06 Q1017=
202111130920 METAR ESMX 130920Z AUTO 08004KT 010V130 9999 OVC010/// 07/06 Q1017=
202111130850 METAR ESMX 130850Z AUTO 08005KT 030V110 9999 BKN012/// OVC021/// 07/06 Q1017=
202111130820 METAR ESMX 130820Z AUTO 07004KT 020V140 9999 BKN011/// OVC022/// 07/06 Q1017=
202111130750 METAR ESMX 130750Z AUTO 09004KT 050V120 9999 BKN011/// OVC025/// 07/06 Q1017=
202111130720 METAR ESMX 130720Z AUTO 10005KT 060V130 9999 BKN011/// OVC015/// 07/06 Q1017=
202111130650 METAR ESMX 130650Z AUTO 09005KT 060V150 9999 BKN010/// OVC014/// 07/06 Q1016=
202111130620 METAR ESMX 130620Z AUTO 10005KT 040V150 9999 OVC008/// 07/06 Q1016=
202111130550 METAR ESMX 130550Z AUTO 09005KT 050V150 9999 BKN009/// OVC010/// 07/06 Q1016=
202111130520 METAR ESMX 130520Z AUTO 12005KT 070V160 9999 OVC007/// 07/06 Q1016=
202111130450 METAR ESMX 130450Z AUTO 12005KT 060V150 9999 OVC006/// 06/06 Q1016=
202111130420 METAR ESMX 130420Z AUTO 11007KT 060V150 9999 OVC005/// 06/06 Q1015=
202111130350 METAR ESMX 130350Z AUTO 11007KT 070V150 9999 OVC005/// 06/06 Q1015=
202111130320 METAR ESMX 130320Z AUTO 11006KT 060V160 9999 OVC005/// 06/06 Q1016=
202111130250 METAR ESMX 130250Z AUTO 11006KT 060V150 9999 OVC004/// 06/06 Q1016=
202111130220 METAR ESMX 130220Z AUTO 12004KT 060V140 9999 OVC002/// 06/06 Q1016=
202111130150 METAR ESMX 130150Z AUTO 11004KT 040V160 9999 OVC002/// 06/06 Q1016=
202111130120 METAR ESMX 130120Z AUTO 11004KT 050V140 9999 OVC002/// 05/05 Q1017=
202111130050 METAR ESMX 130050Z AUTO VRB03KT 6000 BR OVC001/// 05/05 Q1017=
202111130020 METAR ESMX 130020Z AUTO 10004KT 050V140 2400 BR OVC001/// 05/05 Q1017=
202111122350 METAR ESMX 122350Z AUTO 09003KT 050V140 5000 BR OVC002/// 05/05 Q1017=
202111122320 METAR ESMX 122320Z AUTO VRB03KT 9999 OVC002/// 04/04 Q1017=
202111122250 METAR ESMX 122250Z AUTO 08003KT 9999 OVC002/// 04/04 Q1017=
202111122220 METAR ESMX 122220Z AUTO VRB03KT 9999 OVC002/// 04/04 Q1017=
202111122150 METAR ESMX 122150Z AUTO 09003KT 030V140 9999 BKN003/// OVC022/// 04/04 Q1017=
202111122120 METAR ESMX 122120Z AUTO 10004KT 4400 OVC001/// 04/04 Q1017=
202111122050 METAR ESMX 122050Z AUTO 11004KT 0600 R01/1500U R19/P2000N FG OVC001/// 04/04 Q1017=
202111122020 METAR ESMX 122020Z AUTO 14003KT 100V170 0300 R01/0900N R19/1100N FG OVC001/// 04/04 Q1017=
202111121950 METAR ESMX 121950Z AUTO 17005KT 0550 R01/1800N R19/P2000N FG OVC001/// 04/04 Q1017=
202111121920 METAR ESMX 121920Z AUTO 14004KT 0350 R01/1600D R19/1000U FG BKN001/// OVC002/// 04/04 Q1018=
202111121850 METAR ESMX 121850Z AUTO 14004KT 0300 R01/0800N R19/1000N FG OVC001/// 04/04 Q1017=
202111121820 METAR ESMX 121820Z AUTO 15005KT 0450 R01/1300D R19/1700D FG OVC001/// 05/05 Q1017=
202111121750 METAR ESMX 121750Z AUTO 14003KT 0550 R01/1400N R19/1900D FG OVC001/// 05/05 Q1018=
202111121720 METAR ESMX 121720Z AUTO 13003KT 1000 R01/P2000N R19/P2000N BR OVC001/// 05/05 Q1018=
202111121650 METAR ESMX 121650Z 15004KT 2000 BR OVC002 05/05 Q1018=
202111121620 METAR ESMX 121620Z 15004KT 110V180 5000 BR BKN003 05/05 Q1018=
202111121550 METAR ESMX 121550Z 20004KT 9999 SCT005 05/05 Q1018=
202111121520 METAR ESMX 121520Z 22004KT 9999 FEW006 06/06 Q1018=
202111121450 METAR ESMX 121450Z 22003KT 9999 FEW006 06/06 Q1018=
202111121420 METAR ESMX 121420Z 22002KT 9999 SCT007 07/06 Q1018=
202111121350 METAR ESMX 121350Z 18003KT 9999 BKN006 07/06 Q1019=
202111121320 METAR ESMX 121320Z VRB03KT 9999 FEW010 BKN014 07/06 Q1019=
202111121250 METAR ESMX 121250Z 22006KT 9999 BKN005 06/06 Q1019=
202111121220 METAR ESMX 121220Z 00000KT 7000 BR BKN003 07/06 Q1019=
202111121150 METAR ESMX 121150Z 23004KT 4500 BR BKN002 06/06 Q1019=
202111121120 METAR ESMX 121120Z 26003KT 7000 BR BKN002 06/06 Q1019=
202111121050 METAR ESMX 121050Z 23002KT 8000 BR BKN002 06/06 Q1019=
202111121020 METAR ESMX 121020Z 23002KT 8000 SCT002 05/05 Q1019=
202111120950 METAR ESMX 120950Z VRB02KT 8000 BR OVC002 04/04 Q1019=
202111120920 METAR ESMX 120920Z 16003KT 0500 R01/0650N R19/P2000N FG VV002 04/04 Q1019=
202111120850 METAR ESMX 120850Z 24003KT 1500 R01/P2000N R19/1000N BCFG NSC 04/04 Q1019=
202111120820 METAR ESMX 120820Z 25003KT 8000 BR NSC 03/03 Q1018=
202111120750 METAR ESMX 120750Z AUTO 25003KT 0700 R01/P2000N R19/0900N FEW000/// 01/01 Q1018=
202111120720 METAR ESMX 120720Z 25003KT 9000 0900NE R01/P2000N R19/1000N BCFG NSC 01/01 Q1018=
202111120650 METAR COR ESMX 120650Z 00000KT 9000 1000N BCFG FEW003 02/02 Q1018=
202111120620 METAR ESMX 120620Z AUTO 25003KT 7000 NCD 01/01 Q1018=
202111120550 METAR ESMX 120550Z AUTO 24002KT 1400 R01/P2000N R19/P2000N FEW003/// 01/01 Q1018=
202111120520 METAR ESMX 120520Z AUTO 00000KT 0650 R01/P2000N R19/1500U FEW002/// SCT180/// 01/01 Q1018=
202111120450 METAR ESMX 120450Z AUTO 25002KT 8000 VV002 02/02 Q1018=
202111120420 METAR ESMX 120420Z AUTO 25003KT 0550 R01/P2000N R19/P2000D VV003 02/02 Q1018=
202111120350 METAR ESMX 120350Z AUTO VRB02KT 7000 BR VV005 03/03 Q1018=
202111120320 METAR ESMX 120320Z AUTO VRB02KT 7000 VV004 02/02 Q1018=
202111120250 METAR ESMX 120250Z AUTO 00000KT 9999 VV003 03/03 Q1018=
202111120220 METAR ESMX 120220Z AUTO 26005KT 9999 NCD 04/04 Q1017=
202111120150 METAR ESMX 120150Z AUTO 26006KT 9999 NCD 04/04 Q1017=
202111120120 METAR ESMX 120120Z AUTO 26007KT 9999 NCD 04/04 Q1017=
202111120050 METAR ESMX 120050Z AUTO 25006KT 9999 NCD 04/04 Q1017=
202111120020 METAR ESMX 120020Z AUTO 24006KT 9999 NCD 04/04 Q1017=
202111112350 METAR ESMX 112350Z AUTO 24004KT 9999 NCD 04/04 Q1017=
202111112320 METAR ESMX 112320Z AUTO 26005KT 9999 FEW007/// 05/05 Q1017=
202111112250 METAR ESMX 112250Z AUTO 26005KT 9999 FEW011/// 05/05 Q1017=
202111112220 METAR ESMX 112220Z AUTO 25006KT 9999 FEW015/// 05/05 Q1017=
202111112150 METAR ESMX 112150Z AUTO 25007KT 9999 FEW013/// 06/05 Q1016=
202111112120 METAR ESMX 112120Z AUTO 25007KT 9999 NCD 06/05 Q1016=
202111112050 METAR ESMX 112050Z AUTO 25007KT 9999 NCD 06/06 Q1016=
202111112020 METAR ESMX 112020Z AUTO 26008KT 9999 FEW022/// SCT028/// 07/06 Q1016=
202111111950 METAR ESMX 111950Z AUTO 25009KT 9999 SCT025/// 07/06 Q1016=
202111111920 METAR ESMX 111920Z AUTO 25009KT 9999 NCD 07/06 Q1015=
202111111850 METAR ESMX 111850Z AUTO 25010KT 9999 NCD 07/06 Q1015=
202111111820 METAR ESMX 111820Z AUTO 25010KT 9999 FEW037/// 07/06 Q1015=
202111111750 METAR ESMX 111750Z AUTO 25011KT 9999 FEW024/// SCT037/// BKN045/// 08/06 Q1015=
202111111720 METAR ESMX 111720Z AUTO 24012G22KT 200V260 9999 SCT015/// 08/07 Q1014=
202111111650 METAR ESMX 111650Z AUTO 25009KT 9999 BKN015/// BKN019/// OVC026/// 09/07 Q1014=
202111111620 METAR ESMX 111620Z AUTO 23010KT 9999 BKN016/// BKN033/// OVC051/// 09/07 Q1014 RERA=
202111111550 METAR ESMX 111550Z AUTO 25010KT 230V300 9999 FEW004/// BKN016/// BKN047/// 08/08 Q1014 REDZ=
202111111520 METAR ESMX 111520Z 24009KT 9999 FEW007 BKN013 09/07 Q1014=
202111111450 METAR ESMX 111450Z 23009KT 9999 BKN017 09/07 Q1014=
202111111420 METAR COR ESMX 111420Z 23009KT 200V260 9999 BKN038 09/06 Q1014=
202111111350 METAR ESMX 111350Z 25011KT 220V280 9999 FEW022 BKN040 09/06 Q1014=
202111111320 METAR ESMX 111320Z 26013KT 9999 SCT024 09/06 Q1014=
202111111250 METAR COR ESMX 111250Z 25013KT 9999 SCT017 09/06 Q1014=
202111111220 METAR ESMX 111220Z 25013KT 210V280 9999 BKN018 09/07 Q1015=
202111111150 METAR ESMX 111150Z 24012G23KT 9999 SCT008 BKN017 09/09 Q1015=
202111111120 METAR ESMX 111120Z 22010KT 9999 OVC007 09/09 Q1015=
202111111050 METAR ESMX 111050Z AUTO 22010KT 9999 OVC005/// 09/09 Q1015 REDZ REUP=
202111111020 METAR COR ESMX 111020Z 22008KT 5000 -DZ OVC005 09/09 Q1016=
202111110950 METAR ESMX 110950Z 20008KT 9999 OVC003 08/08 Q1016=
202111110920 METAR COR ESMX 110920Z 20007KT 9999 OVC002 08/08 Q1016=
202111110850 METAR ESMX 110850Z AUTO 21007KT 8000 BR OVC001/// 07/07 Q1017=
202111110820 METAR ESMX 110820Z 21006KT 6000 BR OVC002 06/06 Q1017=
202111110750 METAR ESMX 110750Z 22005KT 8000 BR BKN002 06/06 Q1017=
202111110720 METAR ESMX 110720Z 22005KT 9000 VV002 06/06 Q1017=
202111110650 METAR ESMX 110650Z AUTO 22005KT 9999 OVC001/// 06/06 Q1018=
202111110620 METAR ESMX 110620Z 22005KT 2300 BR VV002 05/05 Q1018=
202111110550 METAR ESMX 110550Z 22005KT 0800 R01/P2000N R19/1700U FG VV002 05/05 Q1018=
202111110520 METAR ESMX 110520Z 22004KT 0300 R01/1000N R19/0800N FG VV002 05/05 Q1018=
202111110450 METAR COR ESMX 110450Z 22003KT 0300 R01/0800N R19/0800N FG VV002 05/05 Q1018=
202111110420 METAR ESMX 110420Z AUTO 23003KT 0250 R01/0900N R19/0750N FG VV002 05/05 Q1018=
202111110350 METAR ESMX 110350Z AUTO 22002KT 0150 R01/0700N R19/0550N FG FEW001/// OVC002/// 05/05 Q1019=
202111110320 METAR ESMX 110320Z AUTO 23003KT 0150 R01/0550N R19/0600N FG VV002 05/05 Q1019=
202111110250 METAR ESMX 110250Z AUTO 20005KT 0150 R01/0550N R19/0750N FG OVC001/// 05/05 Q1019=
202111110220 METAR ESMX 110220Z AUTO 20005KT 0200 R01/0700N R19/0900N FG OVC001/// 05/05 Q1019=
202111110150 METAR ESMX 110150Z AUTO 23004KT 0200 R01/0750N R19/0700N FG BKN001/// OVC003/// 05/05 Q1019=
202111110120 METAR ESMX 110120Z AUTO 23005KT 0250 R01/0750N R19/P2000D FG OVC003/// 05/05 Q1019=
202111110050 METAR ESMX 110050Z AUTO 23003KT 6000 BKN004/// BKN007/// OVC009/// 05/05 Q1020=
202111110020 METAR ESMX 110020Z AUTO 23003KT 0200 R01/P2000N R19/0600N BKN008/// 05/05 Q1020=
202111102350 METAR ESMX 102350Z AUTO 23003KT 0500 R01/P2000N R19/P2000N BR NCD 06/06 Q1020=
202111102320 METAR ESMX 102320Z AUTO 23004KT 3600 BR SCT011/// 06/06 Q1020=
202111102250 METAR ESMX 102250Z AUTO 25004KT 7000 FEW009/// BKN012/// OVC200/// 06/06 Q1020=
202111102220 METAR ESMX 102220Z AUTO 22003KT 9999 FEW011/// BKN200/// 07/07 Q1020=
202111102150 METAR ESMX 102150Z AUTO 23004KT 9999 FEW019/// 07/07 Q1020=
202111102120 METAR ESMX 102120Z AUTO 25004KT 230V290 9999 BKN021/// 09/08 Q1020=
202111102050 METAR ESMX 102050Z AUTO 26006KT 9999 SCT007/// BKN013/// OVC019/// 09/09 Q1020=
202111102020 METAR ESMX 102020Z AUTO 24004KT 9999 BKN005/// BKN008/// OVC011/// 08/08 Q1020=
202111101950 METAR ESMX 101950Z AUTO 22004KT 200V260 9999 FEW007/// BKN010/// 08/08 Q1020=
202111101920 METAR ESMX 101920Z AUTO 23005KT 9999 FEW008/// 08/08 Q1019=
202111101850 METAR ESMX 101850Z 24005KT 200V260 9999 BKN009 BKN014 09/09 Q1019=
202111101820 METAR ESMX 101820Z 25006KT 9999 BKN011 10/09 Q1019=
202111101750 METAR ESMX 101750Z 24005KT 9999 BKN012 BKN018 09/09 Q1019=
202111101720 METAR ESMX 101720Z 23004KT 200V270 9999 FEW006 SCT010 BKN015 10/10 Q1019=
202111101650 METAR ESMX 101650Z 22007KT 9999 FEW007 BKN010 BKN013 10/10 Q1019=
202111101620 METAR ESMX 101620Z 22008KT 8000 BR FEW005 BKN011 BKN016 10/10 Q1019 REDZ=
202111101550 METAR ESMX 101550Z 22006KT 9999 BKN030 BKN047 10/10 Q1018=
202111101520 METAR ESMX 101520Z 21007KT 9999 FEW014 SCT031 BKN051 10/10 Q1018=
202111101450 METAR ESMX 101450Z 23006KT 9999 FEW004 BKN008 BKN013 10/10 Q1019 REDZ=
202111101420 METAR ESMX 101420Z 23007KT 4000 -DZ BKN003 10/10 Q1018=
202111101350 METAR ESMX 101350Z 24008KT 210V280 3700 BR BKN003 10/10 Q1018=
202111101320 METAR ESMX 101320Z 23010KT 9999 BKN004 10/10 Q1018=
202111101250 METAR ESMX 101250Z 22009KT 9999 BKN004 10/10 Q1018=
202111101220 METAR ESMX 101220Z 23011KT 9999 OVC005 10/10 Q1018=
202111101150 METAR ESMX 101150Z 22010KT 5000 -DZ BR BKN004 10/10 Q1018=
202111101120 METAR ESMX 101120Z 22011KT 9000 OVC005 10/10 Q1018=
202111101050 METAR ESMX 101050Z 20010KT 9999 OVC004 10/10 Q1018=
202111101020 METAR ESMX 101020Z 21011KT 6000 OVC005 10/10 Q1018=
202111100950 METAR ESMX 100950Z 20011KT 9999 OVC005 10/10 Q1018=
202111100920 METAR ESMX 100920Z 22010KT 9000 OVC006 10/09 Q1018=
202111100850 METAR ESMX 100850Z 20010KT 9999 OVC006 09/09 Q1018=
202111100820 METAR ESMX 100820Z 20010KT 9999 BKN005 09/09 Q1018=
202111100750 METAR ESMX 100750Z 20011KT 9000 OVC004 09/09 Q1018=
202111100720 METAR ESMX 100720Z 20012KT 8000 -DZ OVC004 09/09 Q1018=
202111100650 METAR ESMX 100650Z AUTO 19012KT 8000 BR OVC004/// 09/09 Q1018=
202111100620 METAR ESMX 100620Z AUTO 20010KT 9000 BR OVC004/// 09/09 Q1018 REUP=
202111100550 METAR ESMX 100550Z AUTO 22011KT 7000 BR OVC003/// 09/09 Q1018=
202111100520 METAR ESMX 100520Z AUTO 21011KT 6000 BR OVC003/// 09/09 Q1018 REUP=
202111100450 METAR ESMX 100450Z AUTO 20010KT 3400 BR OVC003/// 09/09 Q1018=
202111100420 METAR ESMX 100420Z AUTO 20010KT 4300 BR OVC003/// 09/09 Q1019=
202111100350 METAR ESMX 100350Z AUTO 20010KT 8000 BR OVC004/// 09/09 Q1018 REUP=
202111100320 METAR ESMX 100320Z AUTO 20010KT 6000 BR OVC003/// 09/09 Q1019=
202111100250 METAR ESMX 100250Z AUTO 22009KT 5000 BR OVC003/// 09/09 Q1019 REUP=
202111100220 METAR ESMX 100220Z AUTO 21010KT 5000 BR OVC003/// 09/09 Q1019=
202111100150 METAR ESMX 100150Z AUTO 20010KT 5000 BR OVC003/// 09/09 Q1019 REDZ=
202111100120 METAR ESMX 100120Z AUTO 20011KT 3000 BR OVC002/// 09/09 Q1019=
202111100050 METAR ESMX 100050Z AUTO 21010KT 3100 BR OVC002/// 09/09 Q1020 REDZ REUP=
202111100020 METAR ESMX 100020Z AUTO 20012KT 4200 BR OVC002/// 09/09 Q1020=
202111092350 METAR ESMX 092350Z AUTO 20012KT 5000 BR OVC002/// 09/09 Q1020=
202111092320 METAR ESMX 092320Z AUTO 20012KT 5000 BR OVC003/// 09/09 Q1020=
202111092250 METAR ESMX 092250Z AUTO 20012KT 2700 BR OVC002/// 09/09 Q1020=
202111092220 METAR ESMX 092220Z AUTO 20012KT 3500 BR OVC002/// 08/08 Q1020=
202111092150 METAR ESMX 092150Z AUTO 22012KT 3800 BR OVC002/// 08/08 Q1020=
202111092120 METAR ESMX 092120Z AUTO 20011KT 3800 BR OVC002/// 08/08 Q1020=
202111092050 METAR ESMX 092050Z AUTO 20013KT 5000 BR OVC003/// 08/08 Q1020=
202111092020 METAR ESMX 092020Z AUTO 21012KT 2800 BR BKN002/// OVC005/// 08/08 Q1020=
202111091950 METAR ESMX 091950Z AUTO 20011KT 9999 OVC006/// 08/08 Q1020 RESHUP REUP=
202111091920 METAR ESMX 091920Z AUTO 20013KT 9999 OVC006/// 08/08 Q1020=
202111091850 METAR ESMX 091850Z AUTO 19012KT 9999 OVC006/// 08/08 Q1020 REDZ=
202111091820 METAR ESMX 091820Z AUTO 19012KT 7000 -DZ FEW002/// OVC007/// 08/07 Q1020 REUP RESHUP=
202111091750 METAR ESMX 091750Z AUTO 21011KT 9999 OVC008/// 08/07 Q1020=
202111091720 METAR ESMX 091720Z AUTO 19012KT 7000 BR FEW002/// SCT004/// BKN009/// 08/07 Q1020=
202111091650 METAR ESMX 091650Z AUTO 21013KT 9999 OVC011/// 08/07 Q1020=
202111091620 METAR ESMX 091620Z AUTO 19013KT 9999 BKN015/// OVC020/// 08/06 Q1020=
202111091550 METAR ESMX 091550Z AUTO 19014KT 9999 SCT016/// BKN020/// OVC026/// 08/07 Q1020=
202111091520 METAR ESMX 091520Z 19013KT 9999 SCT014 BKN036 08/07 Q1020=
202111091450 METAR ESMX 091450Z 20013KT 9999 SCT011 BKN038 08/07 Q1020=
202111091420 METAR ESMX 091420Z 19012KT 9999 BKN009 08/07 Q1021=
202111091350 METAR ESMX 091350Z 20011KT 9999 BKN008 08/07 Q1021=
202111091320 METAR ESMX 091320Z 18011KT 9999 BKN007 07/07 Q1021=
202111091250 METAR ESMX 091250Z 18010KT 9999 BKN005 07/06 Q1021=
202111091220 METAR ESMX 091220Z 17011KT 9999 BKN005 06/06 Q1022=
202111091150 METAR COR ESMX 091150Z 17012KT 8000 BKN005 06/06 Q1022=
202111091120 METAR ESMX 091120Z 18011KT 9999 BKN010 06/05 Q1022=
202111091050 METAR ESMX 091050Z 16010KT 120V200 9999 -DZ BKN008 OVC011 05/05 Q1023=
202111091020 METAR ESMX 091020Z 17009KT 9999 -RA BKN008 OVC010 05/05 Q1023=
202111090950 METAR ESMX 090950Z 17008KT 9999 BKN008 05/04 Q1023=
202111090920 METAR ESMX 090920Z 17008KT 9999 BKN006 04/04 Q1023=
202111090850 METAR ESMX 090850Z 17008KT 9999 BKN004 03/03 Q1024=
202111090820 METAR ESMX 090820Z 16009KT 9999 BKN004 03/03 Q1024=
202111090750 METAR ESMX 090750Z 15008KT 120V190 9999 BKN005 03/03 Q1024=
202111090720 METAR ESMX 090720Z 16008KT 9999 FEW005 BKN013 02/02 Q1024=
202111090650 METAR ESMX 090650Z 15009KT 9999 SCT014 BKN034 02/02 Q1024=
202111090620 METAR ESMX 090620Z 16008KT 9999 FEW027 BKN033 01/01 Q1024=
202111090550 METAR ESMX 090550Z 15008KT 9999 BKN024 01/00 Q1024=
202111090520 METAR ESMX 090520Z 14007KT 9999 BKN022 01/00 Q1024=
202111090450 METAR ESMX 090450Z 15007KT 9999 BKN020 00/M00 Q1024=
202111090420 METAR ESMX 090420Z AUTO 15004KT 9999 OVC021/// M00/M01 Q1025=
202111090350 METAR ESMX 090350Z AUTO 14005KT 9999 NCD M00/M01 Q1025=
202111090320 METAR ESMX 090320Z AUTO 15005KT 9999 BKN014/// M00/M01 Q1024=
202111090250 METAR ESMX 090250Z AUTO 15005KT 9999 OVC016/// M01/M01 Q1024=
202111090220 METAR ESMX 090220Z AUTO 13003KT 9999 BKN019/// M01/M01 Q1025=
202111090150 METAR ESMX 090150Z AUTO 11002KT 9999 NCD M03/M03 Q1025=
202111090120 METAR ESMX 090120Z AUTO VRB03KT 9999 NCD M02/M02 Q1025=
202111090050 METAR ESMX 090050Z AUTO 10001KT 9999 FEW014/// M02/M02 Q1025=
202111090020 METAR ESMX 090020Z AUTO 18001KT 9999 OVC014/// M01/M01 Q1025=
202111082350 METAR ESMX 082350Z AUTO 00000KT 9999 OVC013/// M01/M02 Q1025=
202111082320 METAR ESMX 082320Z AUTO 22002KT 9999 BKN014/// M02/M03 Q1025=
202111082250 METAR ESMX 082250Z AUTO 19003KT 9999 NCD M03/M03 Q1025=
202111082220 METAR ESMX 082220Z AUTO VRB02KT 9999 NCD M03/M03 Q1025=
202111082150 METAR ESMX 082150Z AUTO 00000KT 9999 NCD M02/M03 Q1025=
202111082120 METAR ESMX 082120Z AUTO 00000KT 9999 NCD M02/M02 Q1025=
202111082050 METAR ESMX 082050Z AUTO 09002KT 9999 NCD M01/M01 Q1025=
202111082020 METAR ESMX 082020Z AUTO 05003KT 9999 NCD M00/M01 Q1024=
202111081950 METAR ESMX 081950Z AUTO 04003KT 360V070 9999 SCT010/// M00/M01 Q1024=
202111081920 METAR ESMX 081920Z AUTO 05005KT 9999 OVC011/// M00/M01 Q1024=
202111081850 METAR ESMX 081850Z AUTO 04003KT 010V080 9999 BKN011/// OVC013/// 00/M01 Q1024=
202111081820 METAR ESMX 081820Z AUTO 03003KT 9999 SCT012/// BKN014/// 00/M01 Q1024=
202111081750 METAR ESMX 081750Z 09004KT 9999 BKN012 01/M01 Q1023=
202111081720 METAR ESMX 081720Z 06004KT 9999 BKN012 01/M01 Q1023=
202111081650 METAR ESMX 081650Z 08004KT 040V100 9999 BKN013 01/M01 Q1022=
202111081620 METAR ESMX 081620Z 03007KT 9999 BKN013 01/M01 Q1022=
202111081550 METAR ESMX 081550Z 04007KT 9999 BKN014 01/M01 Q1021=
202111081520 METAR ESMX 081520Z 04007KT 9999 BKN015 02/M01 Q1021=
202111081450 METAR ESMX 081450Z 05005KT 010V080 9999 BKN016 02/M01 Q1020=
202111081420 METAR ESMX 081420Z 03006KT 9999 BKN015 02/M01 Q1020=
202111081350 METAR ESMX 081350Z 01007KT 9999 BKN014 02/M01 Q1020=
202111081320 METAR ESMX 081320Z 02008KT 340V050 9999 BKN015 02/M01 Q1020=
202111081250 METAR ESMX 081250Z 04009KT 010V080 9999 BKN015 03/M00 Q1019=
202111081220 METAR ESMX 081220Z 02009KT 9999 BKN015 02/M01 Q1019=
202111081150 METAR ESMX 081150Z 03009KT 9999 BKN015 03/M00 Q1019=
202111081120 METAR ESMX 081120Z 36007KT 9999 BKN011 02/M00 Q1019=
202111081050 METAR ESMX 081050Z 02006KT 9999 BKN014 02/M01 Q1018=
202111081020 METAR ESMX 081020Z 36008KT 330V030 9999 BKN013 02/00 Q1018=
202111080950 METAR ESMX 080950Z 02009KT 9999 BKN014 03/M00 Q1018=
202111080920 METAR ESMX 080920Z 02010KT 9999 BKN015 03/M00 Q1017=
202111080850 METAR ESMX 080850Z 02009KT 9999 BKN012 03/00 Q1016=
202111080820 METAR ESMX 080820Z 03009KT 9999 BKN009 02/00 Q1016=
202111080750 METAR COR ESMX 080750Z 04008KT 9999 SCT009 BKN014 02/00 Q1015=
202111080720 METAR ESMX 080720Z 04008KT 010V070 9999 BKN013 02/01 Q1015=
202111080650 METAR ESMX 080650Z AUTO 03008KT 9999 OVC015/// 02/00 Q1014=
202111080620 METAR ESMX 080620Z AUTO 03011KT 9999 BKN016/// 02/M00 Q1014=
202111080550 METAR ESMX 080550Z AUTO 03008KT 360V060 9999 BKN015/// 03/01 Q1013=
202111080520 METAR ESMX 080520Z AUTO 02007KT 9999 NCD 03/01 Q1012=
202111080450 METAR ESMX 080450Z AUTO 04010KT 9999 BKN012/// BKN016/// 03/02 Q1012=
202111080420 METAR ESMX 080420Z AUTO 02007KT 9999 SCT010/// BKN017/// OVC023/// 04/03 Q1011=
202111080350 METAR ESMX 080350Z AUTO 02009KT 9999 BKN010/// OVC021/// 04/03 Q1011=
202111080320 METAR ESMX 080320Z AUTO 01008KT 9999 SCT010/// BKN019/// BKN068/// 04/03 Q1010=
202111080250 METAR ESMX 080250Z AUTO 01010KT 9999 BKN010/// BKN017/// OVC066/// 04/03 Q1010=
202111080220 METAR ESMX 080220Z AUTO 01009KT 9999 SCT010/// BKN017/// OVC066/// 04/03 Q1009 RESHUP=
202111080150 METAR ESMX 080150Z AUTO 01008KT 9999 OVC015/// 04/03 Q1009 RERA=
202111080120 METAR ESMX 080120Z AUTO 03010KT 9999 FEW008/// SCT017/// OVC023/// 04/03 Q1008 RESHUP=
202111080050 METAR ESMX 080050Z AUTO 03009KT 9999 OVC010/// 05/04 Q1007 RESHUP=
202111080020 METAR ESMX 080020Z AUTO 02010KT 5000 BR FEW006/// BKN008/// OVC021/// 04/04 Q1007 REUP RESHUP=
202111072350 METAR ESMX 072350Z AUTO 02008KT 9999 SCT009/// OVC019/// 05/05 Q1006=
202111072320 METAR ESMX 072320Z AUTO 02010KT 9999 FEW006/// BKN009/// OVC013/// 06/05 Q1006=
202111072250 METAR ESMX 072250Z AUTO 36010KT 9999 FEW002/// BKN007/// OVC010/// 06/06 Q1005=
202111072220 METAR ESMX 072220Z AUTO 34010KT 9999 BKN008/// OVC012/// 06/06 Q1004=
202111072150 METAR ESMX 072150Z AUTO 31005KT 9999 BKN008/// BKN011/// 07/06 Q1003=
202111072120 METAR ESMX 072120Z AUTO 31006KT 9999 FEW008/// BKN015/// BKN092/// 07/06 Q1003=
202111072050 METAR ESMX 072050Z AUTO 30004KT 9999 SCT020/// BKN037/// 07/07 Q1002=
202111072020 METAR ESMX 072020Z AUTO 29005KT 9999 BR FEW002/// BKN017/// BKN021/// 07/07 Q1002 RERA=
202111071950 METAR ESMX 071950Z AUTO 28005KT 260V320 7000 FEW006/// SCT009/// BKN016/// 07/07 Q1001=
202111071920 METAR ESMX 071920Z AUTO 27005KT 9999 DZ FEW002/// SCT005/// BKN011/// 07/07 Q1001 RESHUP REUP=
202111071850 METAR ESMX 071850Z AUTO 26004KT 220V290 9999 FEW007/// SCT009/// BKN047/// 07/07 Q1000 RERA=
202111071820 METAR ESMX 071820Z AUTO 25006KT 9000 BR FEW005/// BKN011/// BKN019/// 07/07 Q1000 REDZ=
202111071750 METAR ESMX 071750Z AUTO 26007KT 5000 -RA BKN006/// OVC015/// 07/07 Q1000 REUP REDZ=
202111071720 METAR ESMX 071720Z AUTO 25008KT 9999 SCT006/// BKN009/// BKN027/// 07/07 Q0999=
202111071650 METAR ESMX 071650Z AUTO 25008KT 9999 BKN011/// BKN034/// 07/07 Q0999=
202111071620 METAR ESMX 071620Z AUTO 25007KT 9999 SCT009/// BKN013/// OVC029/// 07/07 Q0999 RERA=
202111071550 METAR ESMX 071550Z AUTO 25007KT 8000 -RA BKN012/// BKN021/// OVC027/// 07/07 Q0998 RESHUP REDZ=
202111071520 METAR ESMX 071520Z AUTO 24008KT 9999 BKN013/// BKN024/// OVC035/// 08/07 Q0998=
202111071450 METAR ESMX 071450Z AUTO 23008KT 9999 FEW006/// SCT012/// BKN016/// 08/07 Q0998 REDZ REUP=
202111071420 METAR ESMX 071420Z AUTO 23007KT 9999 FEW017/// SCT029/// BKN045/// 08/07 Q0997=
202111071350 METAR ESMX 071350Z AUTO 24008KT 210V280 9999 FEW026/// SCT043/// 08/06 Q0997=
202111071320 METAR ESMX 071320Z AUTO 24010KT 9999 BKN014/// BKN043/// 08/07 Q0997=
202111071250 METAR ESMX 071250Z 25007KT 230V290 9999 -RA FEW017 BKN036 08/07 Q0997=
202111071220 METAR ESMX 071220Z 25007KT 9999 SCT017 BKN025 08/07 Q0997 RERA=
202111071150 METAR ESMX 071150Z 25009KT 9999 DZ FEW012 SCT041 08/06 Q0997=
202111071120 METAR ESMX 071120Z 25009KT 220V290 9999 SCT013 BKN018 09/07 Q0997=
202111071050 METAR ESMX 071050Z 25010KT 9999 SCT014 BKN021 09/07 Q0996=
202111071020 METAR ESMX 071020Z 25010KT 220V280 9999 FEW012 BKN016 09/07 Q0996=
202111070950 METAR ESMX 070950Z 25009KT 220V290 9999 BKN012 09/08 Q0996=
202111070920 METAR ESMX 070920Z AUTO 25010KT 9999 BKN012/// BKN034/// 09/08 Q0996=
202111070850 METAR ESMX 070850Z AUTO 25010KT 9999 SCT010/// BKN014/// BKN025/// 09/08 Q0996=
202111070820 METAR ESMX 070820Z AUTO 23009KT 9999 -RA BKN011/// OVC042/// 09/08 Q0996 RERA RESHUP=
202111070750 METAR ESMX 070750Z AUTO 23007KT 9999 FEW012/// SCT024/// BKN035/// 09/08 Q0996=
202111070720 METAR ESMX 070720Z AUTO 22010KT 9999 SCT014/// BKN032/// OVC048/// 09/09 Q0996=
202111070650 METAR ESMX 070650Z AUTO 21010KT 9999 -DZ FEW004/// BKN008/// OVC014/// 09/09 Q0996 RESHUP REDZ=
202111070620 METAR ESMX 070620Z AUTO 22010KT 9999 BKN006/// OVC009/// 09/09 Q0996 REDZ=
202111070550 METAR ESMX 070550Z AUTO 20010KT 9999 DZ OVC007/// 09/09 Q0996=
202111070520 METAR ESMX 070520Z AUTO 21010KT 9999 BKN007/// OVC009/// 09/09 Q0996=
202111070450 METAR ESMX 070450Z AUTO 21012KT 9999 OVC005/// 09/09 Q0997 RERA=
202111070420 METAR ESMX 070420Z AUTO 21012KT 6000 -RA OVC004/// 09/09 Q0997=
202111070350 METAR ESMX 070350Z AUTO 19013KT 6000 -DZ OVC005/// 08/08 Q0997 REDZ=
202111070320 METAR ESMX 070320Z AUTO 18016KT 9999 -DZ OVC006/// 08/08 Q0998=
202111070250 METAR ESMX 070250Z AUTO 17011KT 9999 DZ OVC006/// 08/08 Q0999=
202111070220 METAR ESMX 070220Z AUTO 18011KT 9999 -RA BKN006/// BKN009/// OVC021/// 08/08 Q1000=
202111070150 METAR ESMX 070150Z AUTO 19014KT 9999 -RA BKN006/// OVC009/// 08/08 Q1001=
202111070120 METAR ESMX 070120Z AUTO 19012KT 9999 RA BKN007/// OVC012/// 09/08 Q1001 REDZ=
202111070050 METAR ESMX 070050Z AUTO 19012KT 9999 -DZ BKN007/// BKN009/// OVC012/// 09/08 Q1002=
202111070020 METAR ESMX 070020Z AUTO 19012KT 9999 -RA BKN007/// BKN009/// OVC017/// 09/08 Q1003=
202111062350 METAR ESMX 062350Z AUTO 19013KT 9999 -RA OVC007/// 09/09 Q1004 REDZ=
202111062320 METAR ESMX 062320Z AUTO 19013KT 9999 -DZ OVC008/// 09/09 Q1004 REDZ=
202111062250 METAR ESMX 062250Z AUTO 19012KT 9999 -DZ OVC007/// 09/08 Q1005=
202111062220 METAR ESMX 062220Z AUTO 19011KT 9999 -RA BKN007/// BKN009/// OVC012/// 08/08 Q1005 REDZ=
202111062150 METAR ESMX 062150Z AUTO 19012KT 9999 DZ OVC006/// 08/08 Q1006=
202111062120 METAR ESMX 062120Z AUTO 21009KT 9999 -RA BKN006/// BKN009/// OVC018/// 08/08 Q1007 REDZ=
202111062050 METAR ESMX 062050Z AUTO 22010KT 9999 DZ OVC008/// 08/08 Q1007=
202111062020 METAR ESMX 062020Z AUTO 21010KT 9999 DZ BKN007/// BKN009/// OVC015/// 08/08 Q1007 REDZ=
202111061950 METAR ESMX 061950Z AUTO 20010KT 9999 DZ BKN009/// OVC035/// 08/08 Q1008 REDZ=
202111061920 METAR ESMX 061920Z AUTO 22008KT 9999 DZ SCT011/// BKN015/// 09/08 Q1008=
202111061850 METAR ESMX 061850Z AUTO 22009KT 9999 DZ SCT010/// BKN015/// BKN022/// 09/08 Q1009=
202111061820 METAR ESMX 061820Z AUTO 21009KT 9999 DZ SCT009/// BKN014/// OVC020/// 09/09 Q1009=
202111061750 METAR ESMX 061750Z AUTO 21010KT 9999 DZ SCT007/// BKN009/// OVC011/// 09/09 Q1009 RERA=
202111061720 METAR ESMX 061720Z 21009KT 9999 +DZ BKN006 09/09 Q1010=
202111061650 METAR ESMX 061650Z 22009KT 9999 BKN006 09/09 Q1010=
202111061620 METAR ESMX 061620Z 22009KT 9999 DZ BKN008 09/09 Q1010=
202111061550 METAR ESMX 061550Z 23008KT 9999 BKN011 09/09 Q1010=
202111061520 METAR ESMX 061520Z 23009KT 9999 BKN014 10/08 Q1011=
202111061450 METAR ESMX 061450Z 24009KT 9999 BKN015 10/09 Q1011=
202111061420 METAR ESMX 061420Z AUTO 24009KT 9999 FEW014/// SCT023/// OVC100/// 10/09 Q1011=
202111061350 METAR ESMX 061350Z AUTO 24006KT 9999 -DZ FEW010/// BKN016/// OVC021/// 09/09 Q1011=
202111061320 METAR ESMX 061320Z AUTO 24009KT 9999 SCT019/// OVC034/// 10/08 Q1011=
202111061250 METAR ESMX 061250Z AUTO 25009KT 210V280 9999 FEW021/// SCT026/// OVC035/// 10/09 Q1011=
202111061220 METAR ESMX 061220Z AUTO 26010KT 8000 DZ FEW015/// SCT023/// OVC036/// 10/09 Q1011=
202111061150 METAR ESMX 061150Z AUTO 25009KT 230V290 4200 DZ SCT012/// BKN025/// OVC045/// 10/09 Q1011=
202111061120 METAR ESMX 061120Z AUTO 27011KT 4900 DZ FEW003/// SCT018/// BKN029/// 10/09 Q1011=
202111061050 METAR ESMX 061050Z AUTO 26010KT 7000 +DZ FEW016/// SCT020/// OVC031/// 10/09 Q1011 REDZ=
202111061020 METAR ESMX 061020Z AUTO 26011KT 9999 OVC013/// 10/08 Q1011=
202111060950 METAR ESMX 060950Z AUTO 25012KT 230V300 9999 BR OVC012/// 10/09 Q1011 RERA=
202111060920 METAR ESMX 060920Z AUTO 26011G21KT 220V290 9999 FEW008/// BKN011/// BKN014/// 10/09 Q1011=
202111060850 METAR ESMX 060850Z AUTO 26010KT 230V290 6000 -RA FEW007/// BKN014/// BKN018/// 09/09 Q1011 REDZ=
202111060820 METAR ESMX 060820Z AUTO 26015KT 9999 BKN018/// OVC024/// 10/08 Q1011=
202111060750 METAR ESMX 060750Z AUTO 26012KT 9999 BKN019/// OVC032/// 10/08 Q1010=
202111060720 METAR ESMX 060720Z AUTO 26010KT 9999 SCT016/// BKN022/// OVC033/// 09/08 Q1010=
202111060650 METAR ESMX 060650Z AUTO 26010KT 9999 BR FEW011/// BKN018/// OVC033/// 09/08 Q1010=
202111060620 METAR ESMX 060620Z AUTO 26012KT 6000 BR FEW009/// SCT015/// OVC036/// 09/08 Q1010 RESHUP REUP=
202111060550 METAR ESMX 060550Z AUTO 26012G22KT 7000 BR OVC011/// 09/08 Q1010 RESHUP REUP=
202111060520 METAR ESMX 060520Z AUTO 25012KT 9999 OVC014/// 09/07 Q1009=
202111060450 METAR ESMX 060450Z AUTO 26013KT 9999 SCT011/// BKN014/// OVC018/// 08/07 Q1009=
202111060420 METAR ESMX 060420Z AUTO 25012KT 8000 BR BKN011/// BKN017/// OVC021/// 08/07 Q1009=
202111060350 METAR ESMX 060350Z AUTO 25013G24KT 220V280 7000 BR FEW005/// OVC014/// 08/07 Q1009=
202111060320 METAR ESMX 060320Z AUTO 25013G25KT 9999 BKN016/// OVC021/// 09/07 Q1009=
202111060250 METAR ESMX 060250Z AUTO 25012KT 220V280 9999 OVC025/// 09/06 Q1009=
202111060220 METAR ESMX 060220Z AUTO 25011KT 9999 BKN028/// 08/06 Q1010=
202111060150 METAR ESMX 060150Z AUTO 24010KT 9999 OVC028/// 08/06 Q1010=
202111060120 METAR ESMX 060120Z AUTO 25010KT 9999 OVC032/// 07/06 Q1010=
202111060050 METAR ESMX 060050Z AUTO 25009KT 9999 SCT035/// 07/06 Q1010=
202111060020 METAR ESMX 060020Z AUTO 25009KT 9999 FEW037/// 06/05 Q1010=
202111052350 METAR ESMX 052350Z AUTO 26009KT 9999 NCD 06/05 Q1010=
202111052320 METAR ESMX 052320Z AUTO 25009KT 9999 BKN014/// 06/05 Q1010=
202111052250 METAR ESMX 052250Z AUTO 25009KT 9999 BKN016/// 06/05 Q1010=
202111052220 METAR ESMX 052220Z AUTO 25009KT 9999 NCD 07/06 Q1010=
202111052150 METAR ESMX 052150Z AUTO 26009KT 230V290 9999 FEW039/// 07/06 Q1010=
202111052120 METAR ESMX 052120Z AUTO 25009KT 9999 FEW018/// BKN041/// 07/06 Q1009=
202111052050 METAR ESMX 052050Z AUTO 26010KT 9999 FEW013/// SCT019/// BKN043/// 08/06 Q1009=
202111052020 METAR ESMX 052020Z AUTO 25009KT 220V290 9999 SCT017/// BKN023/// BKN041/// 08/07 Q1009=
202111051950 METAR ESMX 051950Z AUTO 23010KT 9999 FEW014/// SCT018/// BKN042/// 08/07 Q1009=
202111051920 METAR ESMX 051920Z AUTO 23010KT 9999 FEW020/// OVC040/// 08/07 Q1009=
202111051850 METAR ESMX 051850Z AUTO 24010KT 9999 FEW006/// BKN010/// OVC035/// 07/07 Q1009=
202111051820 METAR ESMX 051820Z AUTO 20009KT 9999 FEW007/// SCT025/// OVC037/// 06/06 Q1009 RESHUP REUP REDZ=
202111051750 METAR ESMX 051750Z AUTO 22008KT 9999 FEW005/// BKN025/// OVC160/// 06/05 Q1009=
202111051720 METAR ESMX 051720Z AUTO 22008KT 9999 SCT059/// BKN160/// 06/05 Q1009=
202111051650 METAR ESMX 051650Z 20007KT 9999 SCT027 06/05 Q1009=
202111051620 METAR ESMX 051620Z 22007KT 9999 BKN025 06/05 Q1009=
202111051550 METAR ESMX 051550Z 22006KT 9999 SCT028 06/04 Q1009=
202111051520 METAR ESMX 051520Z 22007KT 9999 FEW026 05/04 Q1009=
202111051450 METAR ESMX 051450Z 24005KT 9999 BKN025 06/04 Q1009=
202111051420 METAR ESMX 051420Z 22006KT 9999 FEW022 SCT033 06/04 Q1009=
202111051350 METAR ESMX 051350Z 25006KT 9999 SCT032 06/03 Q1009=
202111051320 METAR ESMX 051320Z 24006KT 9999 FEW017 06/03 Q1008=
202111051250 METAR ESMX 051250Z 26008KT 220V290 9999 BKN015 06/03 Q1009=
202111051220 METAR ESMX 051220Z 26010KT 240V300 9999 BKN015 06/03 Q1008=
202111051150 METAR ESMX 051150Z 28010KT 9999 BKN016 06/03 Q1008=
202111051120 METAR ESMX 051120Z 28009KT 230V300 9999 BKN017 06/03 Q1008=
202111051050 METAR ESMX 051050Z 28010KT 9999 BKN016 06/03 Q1008=
202111051020 METAR ESMX 051020Z 28008KT 250V310 9999 BKN015 06/04 Q1007=
202111050950 METAR ESMX 050950Z 30009KT 9999 BKN017 06/03 Q1007=
202111050920 METAR ESMX 050920Z 28007KT 250V320 9999 SCT015 BKN017 05/03 Q1007=
202111050850 METAR ESMX 050850Z 30008KT 9999 BKN019 05/03 Q1007=
202111050820 METAR ESMX 050820Z 30008KT 9999 BKN018 05/03 Q1006=
202111050750 METAR ESMX 050750Z 30008KT 9999 BKN015 05/03 Q1006=
202111050720 METAR ESMX 050720Z 31009KT 9999 BKN013 05/03 Q1005=
202111050650 METAR ESMX 050650Z AUTO 31011KT 9999 OVC010/// 04/03 Q1005=
202111050620 METAR ESMX 050620Z AUTO 32009KT 290V350 9999 OVC012/// 05/03 Q1004=
202111050550 METAR ESMX 050550Z AUTO 31007KT 9999 OVC013/// 05/03 Q1004=
202111050520 METAR ESMX 050520Z AUTO 34010KT 9999 OVC014/// 05/03 Q1004=
202111050450 METAR ESMX 050450Z AUTO 34013KT 9999 OVC015/// 05/02 Q1003=
202111050420 METAR ESMX 050420Z AUTO 34014KT 9999 OVC015/// 05/02 Q1003=
202111050350 METAR ESMX 050350Z AUTO 34013KT 9999 OVC015/// 05/03 Q1002=
202111050320 METAR ESMX 050320Z AUTO 34012KT 9999 OVC014/// 05/03 Q1002=
202111050250 METAR ESMX 050250Z AUTO 35013KT 9999 OVC015/// 06/03 Q1002=
202111050220 METAR ESMX 050220Z AUTO 35016KT 9999 OVC015/// 06/03 Q1001=
202111050150 METAR ESMX 050150Z AUTO 35013KT 9999 OVC014/// 06/04 Q1001=
202111050120 METAR ESMX 050120Z AUTO 35015KT 9999 OVC014/// 06/04 Q1001=
202111050050 METAR ESMX 050050Z AUTO 35013KT 9999 OVC014/// 06/04 Q1001=
202111050020 METAR ESMX 050020Z AUTO 35012KT 9999 OVC014/// 07/05 Q1001=
202111042350 METAR ESMX 042350Z AUTO 01015KT 9999 OVC015/// 07/05 Q1001=
202111042320 METAR ESMX 042320Z AUTO 01015KT 9999 OVC015/// 07/05 Q1001=
202111042250 METAR ESMX 042250Z AUTO 01017KT 9999 OVC015/// 07/05 Q1001=
202111042220 METAR ESMX 042220Z AUTO 01015KT 9999 OVC013/// 07/05 Q1001=
202111042150 METAR ESMX 042150Z AUTO 36014KT 9999 BKN014/// OVC016/// 07/05 Q1001=
202111042120 METAR ESMX 042120Z AUTO 02014KT 9999 OVC013/// 07/05 Q1001=
202111042050 METAR ESMX 042050Z AUTO 02013KT 9999 OVC013/// 07/05 Q1001=
202111042020 METAR ESMX 042020Z AUTO 01015KT 9999 OVC013/// 07/05 Q1001=
202111041950 METAR ESMX 041950Z 01013KT 9999 BKN012 07/05 Q1002=
202111041920 METAR ESMX 041920Z 01012KT 9999 BKN012 07/05 Q1002=
202111041850 METAR ESMX 041850Z 01012KT 9999 BKN010 07/05 Q1003=
202111041820 METAR ESMX 041820Z 01011KT 9999 BKN011 07/05 Q1003=
202111041750 METAR ESMX 041750Z 02013KT 9999 FEW011 06/05 Q1003=
202111041720 METAR ESMX 041720Z 01010KT 9999 FEW014 06/05 Q1003=
202111041650 METAR ESMX 041650Z 01011KT 9999 FEW015 06/05 Q1003=
202111041620 METAR ESMX 041620Z 02010KT 9999 FEW018 06/05 Q1004=
202111041550 METAR ESMX 041550Z 03009KT 9999 FEW017 06/05 Q1004=
202111041520 METAR ESMX 041520Z 03009KT 9999 FEW013 06/05 Q1005=
202111041450 METAR ESMX 041450Z 04007KT 9999 SCT015 07/05 Q1005=
202111041420 METAR ESMX 041420Z 05006KT 020V100 9999 SCT016 07/05 Q1005=
202111041350 METAR COR ESMX 041350Z 06005KT 020V100 9999 BKN016 07/05 Q1005=
202111041320 METAR ESMX 041320Z 05008KT 020V080 9999 BKN017 08/05 Q1006=
202111041250 METAR ESMX 041250Z 05008KT 9999 BKN016 08/06 Q1006=
202111041220 METAR ESMX 041220Z 06006KT 030V100 9999 BKN018 08/05 Q1006=
202111041150 METAR COR ESMX 041150Z 05007KT 9999 BKN015 08/06 Q1006=
202111041120 METAR ESMX 041120Z 07004KT 040V110 9999 BKN013 08/06 Q1007=
202111041050 METAR ESMX 041050Z 05005KT 020V090 9999 SCT011 08/06 Q1007=
202111041020 METAR ESMX 041020Z 21004KT 9999 BKN015 08/06 Q1007=
202111040950 METAR ESMX 040950Z 21004KT 9999 BKN016 07/06 Q1007=
202111040920 METAR ESMX 040920Z 22004KT 9999 BKN013 07/06 Q1008=
202111040850 METAR ESMX 040850Z 22003KT 9999 BKN014 06/06 Q1007=
202111040820 METAR ESMX 040820Z 22003KT 9999 BKN012 06/06 Q1008=
202111040750 METAR COR ESMX 040750Z 22003KT 9999 BKN013 05/05 Q1007=
202111040720 METAR ESMX 040720Z 22002KT 5000 BR OVC015 04/04 Q1007=
202111040650 METAR ESMX 040650Z AUTO 22002KT 5000 OVC016/// 03/03 Q1007=
202111040620 METAR ESMX 040620Z AUTO 22002KT 3500 OVC018/// 03/03 Q1007=
202111040550 METAR ESMX 040550Z 18001KT 0350 R01/1100U R19/1700D FG NSC 02/02 Q1007=
202111040520 METAR ESMX 040520Z VRB01KT 0100 R01/0400N R19/0450N FG NSC 01/01 Q1006=
202111040450 METAR ESMX 040450Z AUTO 00000KT 0150 R01/0600N R19/0500N FG FEW001/// 02/02 Q1006=
202111040420 METAR ESMX 040420Z AUTO 13003KT 2900 FEW020/// 04/04 Q1006=
202111040350 METAR ESMX 040350Z AUTO 22001KT 0700 R01/P2000D R19/P2000N FG BKN019/// 04/04 Q1007=
202111040320 METAR ESMX 040320Z AUTO 35002KT 0750 R01/P2000N R19/P2000N BR OVC018/// 04/04 Q1007=
202111040250 METAR ESMX 040250Z AUTO 00000KT 5000 BR OVC018/// 05/05 Q1007=
202111040220 METAR ESMX 040220Z AUTO 00000KT 6000 BR OVC018/// 05/05 Q1007=
202111040150 METAR ESMX 040150Z AUTO 22003KT 7000 OVC018/// 05/05 Q1006=
202111040120 METAR ESMX 040120Z AUTO 22003KT 0300 R01/P2000N R19/1000N BCFG OVC021/// 04/04 Q1006=
202111040050 METAR ESMX 040050Z AUTO 17001KT 2300 BR OVC022/// 04/04 Q1006=
202111040020 METAR ESMX 040020Z AUTO 16002KT 5000 BR OVC023/// 04/04 Q1006=
202111032350 METAR ESMX 032350Z AUTO 22003KT 4000 BR OVC023/// 05/05 Q1006=
202111032320 METAR ESMX 032320Z AUTO 22004KT 4000 FEW001/// OVC023/// 05/05 Q1006=
202111032250 METAR ESMX 032250Z AUTO 22003KT 0200 R01/P2000N R19/0700N BKN001/// OVC025/// 05/05 Q1006=
202111032220 METAR ESMX 032220Z AUTO 21002KT 0150 R01/0700N R19/0500N FG VV001 05/05 Q1006=
202111032150 METAR ESMX 032150Z AUTO 22004KT 0100 R01/0450N R19/0600N FG OVC001/// 04/04 Q1006=
202111032120 METAR ESMX 032120Z AUTO 22003KT 0150 R01/0600N R19/0550N FG BKN001/// OVC022/// 04/04 Q1005=
202111032050 METAR ESMX 032050Z AUTO 22003KT 0150 R01/0600N R19/0750N FG OVC001/// 05/05 Q1005=
202111032020 METAR ESMX 032020Z AUTO 24003KT 190V260 0200 R01/0650N R19/0750N FG SCT001/// OVC002/// 05/05 Q1005=
202111031950 METAR ESMX 031950Z AUTO 22005KT 0250 R01/0800N R19/0800N FG VV002 05/05 Q1005=
202111031920 METAR ESMX 031920Z 20006KT 0200 R01/0700N R19/0600N FG VV001 05/05 Q1004=
202111031850 METAR ESMX 031850Z 20007KT 0200 R01/0700N R19/0650N FG OVC001 05/05 Q1004=
202111031820 METAR ESMX 031820Z 22006KT 0150 R01/0500N R19/0600U FG OVC002 05/05 Q1004=
202111031750 METAR ESMX 031750Z 23006KT 0150 R01/0700N R19/0500N FG VV001 05/05 Q1004=
202111031720 METAR ESMX 031720Z 23005KT 0150 R01/0550N R19/0500N BCFG FEW001 04/04 Q1003=
202111031650 METAR ESMX 031650Z 23004KT 0100 R01/P2000N R19/0450N BCFG FEW025 05/05 Q1003=
202111031620 METAR COR ESMX 031620Z 23004KT 0500 R01/P2000N R19/0500N BCFG FEW009 SCT024 05/05 Q1003=
202111031550 METAR ESMX 031550Z AUTO 21004KT 2800 BR SCT018/// 05/05 Q1002=
202111031520 METAR ESMX 031520Z 23004KT 9000 BR FEW020 07/07 Q1002=
202111031450 METAR ESMX 031450Z 23005KT 9000 BR FEW005 06/06 Q1002=
202111031420 METAR ESMX 031420Z 23005KT 9999 FEW010 07/07 Q1002=
202111031350 METAR ESMX 031350Z 23005KT 9999 SCT007 08/07 Q1002=
202111031320 METAR ESMX 031320Z 25003KT 230V300 9999 SCT008 08/08 Q1002=
202111031250 METAR ESMX 031250Z 23004KT 9999 FEW016 BKN022 08/07 Q1002=
202111031220 METAR ESMX 031220Z 27005KT 9999 BKN011 08/07 Q1002=
202111031150 METAR ESMX 031150Z 25004KT 9999 BKN007 08/07 Q1002=
202111031120 METAR ESMX 031120Z 24005KT 9999 BKN005 07/07 Q1002=
202111031050 METAR ESMX 031050Z 27006KT 240V300 9000 BKN003 07/07 Q1001=
202111031020 METAR ESMX 031020Z 25005KT 7000 OVC002 07/07 Q1001=
202111030950 METAR ESMX 030950Z 23004KT 200V270 6000 OVC002 07/07 Q1001=
202111030920 METAR ESMX 030920Z 24004KT 0900 R19/1100N FG VV002 06/06 Q1001=
202111030850 METAR ESMX 030850Z 25006KT 0600 R19/0900D FG VV002 06/06 Q1001=
202111030820 METAR ESMX 030820Z 26005KT 0550 R19/0800N FG VV002 06/06 Q1001=
202111030750 METAR ESMX 030750Z 23004KT 0700 R19/0900 FG VV002 06/06 Q1000=
202111030720 METAR ESMX 030720Z 23003KT 9999 SCT004 BKN048 06/06 Q1000=
202111030650 METAR ESMX 030650Z AUTO 23003KT 9999 OVC048/// 05/05 Q1000=
202111030620 METAR ESMX 030620Z AUTO 23004KT 9999 FEW002/// OVC047/// 06/06 Q1000=
202111030550 METAR ESMX 030550Z AUTO 23004KT 9000 OVC001/// 06/06 Q1000=
202111030520 METAR ESMX 030520Z AUTO 25003KT 1300 R01/P2000N R19/P2000N OVC001/// 06/06 Q0999=
202111030450 METAR ESMX 030450Z AUTO 24004KT 0250 R01/0800N R19/0800N FG OVC001/// 05/05 Q0999=
202111030420 METAR ESMX 030420Z AUTO 23004KT 0600 R01/1900D R19/P2000N FG OVC001/// 05/05 Q0999=
202111030350 METAR ESMX 030350Z AUTO 23004KT 200V260 9000 BR OVC001/// 06/06 Q0999=
202111030320 METAR ESMX 030320Z AUTO 29003KT 9999 OVC001/// 06/06 Q0999=
202111030250 METAR ESMX 030250Z AUTO 28004KT 240V300 5000 BR OVC001/// 06/06 Q0999=
202111030220 METAR ESMX 030220Z AUTO 26005KT 9999 OVC002/// 06/06 Q0999=
202111030150 METAR ESMX 030150Z AUTO 26004KT 9999 OVC004/// 06/06 Q0999=
202111030120 METAR ESMX 030120Z AUTO 27005KT 230V290 9999 OVC004/// 06/06 Q0999=
202111030050 METAR ESMX 030050Z AUTO 27006KT 9999 BKN003/// OVC078/// 07/07 Q0999=
202111030020 METAR ESMX 030020Z AUTO 26005KT 9999 SCT003/// OVC053/// 07/07 Q0999=
202111022350 METAR ESMX 022350Z AUTO 25004KT 9999 -DZ OVC041/// 07/07 Q0998=
202111022320 METAR ESMX 022320Z AUTO 26004KT 9999 -RA FEW006/// OVC040/// 07/07 Q0998=
202111022250 METAR ESMX 022250Z AUTO 29004KT 9999 -DZ SCT005/// 07/07 Q0998=
202111022220 METAR ESMX 022220Z AUTO 29005KT 9999 -RA OVC005/// 07/07 Q0998=
202111022150 METAR ESMX 022150Z AUTO 29005KT 9999 -DZ OVC006/// 07/07 Q0998=
202111022120 METAR ESMX 022120Z AUTO 28005KT 9999 -DZ BKN006/// OVC019/// 07/07 Q0998=
202111022050 METAR ESMX 022050Z AUTO 29005KT 9999 -RA BKN006/// OVC011/// 07/07 Q0998=
202111022020 METAR ESMX 022020Z AUTO 29006KT 6000 -RA BKN006/// OVC009/// 07/07 Q0998=
202111021950 METAR ESMX 021950Z AUTO 30004KT 7000 -RA BKN006/// OVC008/// 08/08 Q0998=
202111021920 METAR ESMX 021920Z AUTO 32004KT 9999 -RA FEW004/// SCT006/// BKN008/// 08/08 Q0998=
202111021850 METAR ESMX 021850Z AUTO 31004KT 9999 DZ BKN004/// OVC007/// 08/08 Q0998=
202111021820 METAR ESMX 021820Z AUTO 31006KT 9999 -RA BKN004/// OVC006/// 08/08 Q0998 REDZ=
202111021750 METAR ESMX 021750Z AUTO 32005KT 9999 DZ OVC005/// 08/08 Q0998=
202111021720 METAR ESMX 021720Z AUTO 34006KT 9999 DZ SCT004/// OVC007/// 08/08 Q0998=
202111021650 METAR ESMX 021650Z 31005KT 280V350 9000 RA BKN006 08/08 Q0998=
202111021620 METAR ESMX 021620Z 33006KT 9999 -RA FEW005 BKN007 08/08 Q0998=
202111021550 METAR ESMX 021550Z 33006KT 9999 -RA BKN005 08/08 Q0998=
202111021520 METAR ESMX 021520Z 33006KT 9000 -RA SCT005 BKN007 08/08 Q0998=
202111021450 METAR COR ESMX 021450Z 34005KT 9000 -RA BKN006 08/08 Q0998=
202111021420 METAR ESMX 021420Z 32006KT 9999 -RA BKN005 08/08 Q0999=
202111021350 METAR ESMX 021350Z 34005KT 9000 -RA SCT007 BKN018 08/08 Q0999=
202111021320 METAR ESMX 021320Z 14003KT 9000 -RA BKN009 08/08 Q0999=
202111021250 METAR ESMX 021250Z 31003KT 8000 -RA BKN006 08/08 Q0999=
202111021220 METAR ESMX 021220Z 14004KT 9000 -RA SCT006 BKN033 08/08 Q0999=
202111021150 METAR ESMX 021150Z 14003KT 8000 -DZ BKN007 09/08 Q0999=
202111021120 METAR ESMX 021120Z 14003KT 9999 -RA FEW008 BKN012 09/08 Q1000=
202111021050 METAR ESMX 021050Z VRB03KT 9999 -RA BKN009 09/08 Q1000=
202111021020 METAR ESMX 021020Z 14003KT 9999 SCT007 BKN047 09/08 Q1000=
202111020950 METAR ESMX 020950Z 14003KT 9999 FEW005 BKN055 09/08 Q1000=
202111020920 METAR ESMX 020920Z VRB02KT 9999 FEW006 BKN061 09/08 Q1001=
202111020850 METAR ESMX 020850Z VRB02KT 9999 FEW007 BKN066 09/09 Q1001=
202111020820 METAR ESMX 020820Z VRB03KT 9999 FEW004 SCT055 09/08 Q1001=
202111020750 METAR ESMX 020750Z VRB02KT 9999 FEW026 SCT041 BKN053 08/08 Q1001=
202111020720 METAR ESMX 020720Z 14003KT 9999 FEW032 BKN041 08/08 Q1001=
202111020650 METAR ESMX 020650Z 14002KT 9999 FEW028 BKN039 09/08 Q1001=
202111020620 METAR ESMX 020620Z 11004KT 060V160 9999 FEW027 BKN070 09/08 Q1001=
202111020550 METAR ESMX 020550Z 14004KT 9999 BKN027 09/08 Q1001=
202111020520 METAR ESMX 020520Z 13004KT 9999 SCT007 OVC086 09/08 Q1001=
202111020450 METAR COR ESMX 020450Z 13005KT 9999 FEW003 BKN006 09/09 Q1001=
202111020420 METAR ESMX 020420Z AUTO 13005KT 070V150 6000 BR OVC003/// 09/09 Q1001 REDZ=
202111020350 METAR ESMX 020350Z AUTO VRB04KT 5000 BR OVC003/// 09/09 Q1001=
202111020320 METAR ESMX 020320Z AUTO 15004KT 4700 BR OVC002/// 09/09 Q1001=
202111020250 METAR ESMX 020250Z AUTO 13004KT 090V230 4200 BR OVC002/// 09/09 Q1001=
202111020220 METAR ESMX 020220Z AUTO 14004KT 4800 BR OVC003/// 09/09 Q1001=
202111020150 METAR ESMX 020150Z AUTO 15003KT 5000 BR OVC003/// 09/09 Q1001=
202111020120 METAR ESMX 020120Z AUTO 15004KT 6000 BR OVC004/// 09/09 Q1002=
202111020050 METAR ESMX 020050Z AUTO 14005KT 6000 BR OVC004/// 09/09 Q1002=
202111020020 METAR ESMX 020020Z AUTO 14005KT 100V170 6000 BR OVC004/// 09/09 Q1002=
202111012350 METAR ESMX 012350Z AUTO 14005KT 5000 BR OVC003/// 09/09 Q1002=
202111012320 METAR ESMX 012320Z AUTO 14005KT 100V170 7000 BR OVC004/// 09/09 Q1002=
202111012250 METAR ESMX 012250Z AUTO 13005KT 9000 BR BKN004/// BKN007/// 09/09 Q1002=
202111012220 METAR ESMX 012220Z AUTO 16004KT 9999 FEW100/// BKN130/// 08/08 Q1002=
202111012150 METAR ESMX 012150Z AUTO 16005KT 9999 SCT110/// OVC140/// 09/08 Q1002=
202111012120 METAR ESMX 012120Z AUTO 17005KT 9999 FEW012/// BKN100/// 09/08 Q1002=
202111012050 METAR ESMX 012050Z AUTO 17005KT 9999 BKN110/// 09/08 Q1002=
202111012020 METAR ESMX 012020Z AUTO 18005KT 9999 BKN110/// 09/08 Q1002=
202111011950 METAR ESMX 011950Z AUTO 15005KT 9999 FEW100/// 09/09 Q1001=
202111011920 METAR ESMX 011920Z AUTO 18006KT 9999 BKN018/// 09/09 Q1001=
202111011850 METAR ESMX 011850Z AUTO 16006KT 8000 BR BKN019/// 09/09 Q1001=
202111011820 METAR ESMX 011820Z 15006KT 5000 BR FEW005 BKN160 09/09 Q1001=
202111011750 METAR ESMX 011750Z 14005KT 6000 BR FEW005 BKN160 10/09 Q1001=
202111011720 METAR ESMX 011720Z 16005KT 7000 BR SCT006 BKN140 10/09 Q1000=
202111011650 METAR ESMX 011650Z 14005KT 8000 BR FEW014 OVC130 10/09 Q1000=
202111011620 METAR ESMX 011620Z 15005KT 9000 BR SCT015 BKN059 10/09 Q1000=
202111011550 METAR ESMX 011550Z 14005KT 9999 FEW014 BKN049 10/09 Q0999=
202111011520 METAR ESMX 011520Z 16005KT 9999 FEW011 BKN065 11/09 Q0999=
202111011450 METAR ESMX 011450Z 17005KT 9999 SCT011 BKN068 11/09 Q0999=
202111011420 METAR ESMX 011420Z 16005KT 9999 BKN011 11/10 Q0999=
202111011350 METAR ESMX 011350Z 17006KT 9999 BKN010 11/10 Q0999=
202111011320 METAR ESMX 011320Z 17007KT 9999 BKN010 11/09 Q0999=
202111011250 METAR ESMX 011250Z 16007KT 9999 BKN010 11/09 Q0999=
202111011220 METAR ESMX 011220Z 14005KT 100V170 9999 BKN010 11/09 Q0998=
