##########################################################
# Query made at 04/19/2024 22:22:03 UTC
# Time interval: from 09/01/2021 12:00  to 09/30/2021 12:59  UTC
##########################################################

##########################################################
# ESMX, Vaxjo (Sweden)
# WMO index: 02641. WIGOS ID: 0-20000-0-02648
# Latitude 56-51N. Longitude 014-50E. Altitude 199 m.
##########################################################

202109301250 METAR ESMX 301250Z 14011KT 110V170 6000 DZ BKN009 11/10 Q1013=
202109301220 METAR ESMX 301220Z 13008KT 050V160 9999 -RA BKN010 12/11 Q1013=
202109301150 METAR ESMX 301150Z 14008KT 110V170 9999 BKN007 11/11 Q1014=
202109301120 METAR ESMX 301120Z VRB08G19KT 5000 -DZ FEW002 SCT005 BKN010 11/10 Q1014=
202109301050 METAR ESMX 301050Z 14010KT 100V190 8000 -DZ FEW006 BKN015 11/10 Q1014=
202109301020 METAR ESMX 301020Z 13009KT 050V180 9000 BR BKN013 12/09 Q1014=
202109300950 METAR ESMX 300950Z 14010KT 100V180 9999 BKN013 12/09 Q1014=
202109300920 METAR ESMX 300920Z AUTO 14009KT 090V170 9999 OVC013/// 11/09 Q1015=
202109300850 METAR ESMX 300850Z 13007KT 080V160 9999 BKN011 11/10 Q1015=
202109300820 METAR ESMX 300820Z 15006KT 9999 BKN010 11/10 Q1015=
202109300750 METAR ESMX 300750Z 14006KT 100V170 9999 BKN013 BKN037 11/09 Q1015=
202109300720 METAR ESMX 300720Z 15005KT 110V170 9999 SCT028 BKN035 11/09 Q1015=
202109300650 METAR ESMX 300650Z 15007KT 110V170 9999 FEW016 BKN022 11/09 Q1015=
202109300620 METAR ESMX 300620Z 16008KT 9999 FEW014 BKN021 11/09 Q1015=
202109300550 METAR COR ESMX 300550Z 17009KT 9999 SCT014 BKN022 11/10 Q1015=
202109300520 METAR ESMX 300520Z AUTO 16009KT 9999 -DZ SCT004/// OVC019/// 11/10 Q1015=
202109300450 METAR ESMX 300450Z AUTO 11005KT 050V160 5000 -RA SCT002/// OVC004/// 12/12 Q1014 REDZ=
202109300420 METAR ESMX 300420Z AUTO 11007KT 060V150 7000 DZ OVC005/// 12/11 Q1014=
202109300350 METAR COR ESMX 300350Z 11006KT 060V150 9999 OVC006 12/11 Q1014=
202109300320 METAR ESMX 300320Z AUTO 10006KT 050V150 9999 OVC007/// 12/11 Q1014=
202109300250 METAR ESMX 300250Z AUTO 12006KT 060V160 9999 OVC007/// 11/11 Q1015=
202109300220 METAR ESMX 300220Z AUTO 12005KT 080V160 9999 OVC008/// 11/11 Q1015=
202109300150 METAR ESMX 300150Z AUTO 12006KT 080V170 9999 OVC008/// 11/11 Q1015=
202109300120 METAR ESMX 300120Z AUTO 12005KT 070V160 9999 BKN009/// OVC059/// 11/11 Q1015 RERA=
202109300050 METAR ESMX 300050Z AUTO 10005KT 050V150 9999 FEW009/// OVC064/// 11/11 Q1015=
202109300020 METAR ESMX 300020Z AUTO 10006KT 050V150 9999 SCT011/// BKN040/// OVC068/// 11/11 Q1015 REDZ=
202109292350 METAR ESMX 292350Z AUTO 11006KT 070V150 9999 SCT011/// BKN027/// OVC072/// 11/11 Q1016=
202109292320 METAR ESMX 292320Z AUTO 12007KT 070V150 9999 BKN011/// BKN029/// OVC064/// 11/11 Q1016=
202109292250 METAR ESMX 292250Z AUTO 11006KT 060V160 9999 BKN011/// BKN090/// 11/10 Q1016=
202109292220 METAR ESMX 292220Z AUTO 11006KT 070V150 9999 SCT010/// BKN098/// 11/10 Q1016=
202109292150 METAR ESMX 292150Z AUTO 11007KT 050V140 9999 FEW011/// BKN098/// OVC130/// 11/10 Q1016=
202109292120 METAR ESMX 292120Z AUTO 11007KT 060V160 9999 BKN098/// OVC120/// 11/10 Q1017=
202109292050 METAR ESMX 292050Z AUTO 11006KT 050V160 9999 SCT072/// BKN098/// OVC130/// 11/10 Q1017=
202109292020 METAR ESMX 292020Z AUTO 10006KT 050V160 9999 FEW011/// BKN074/// OVC094/// 11/10 Q1017=
202109291950 METAR ESMX 291950Z AUTO 11006KT 060V150 9999 SCT010/// BKN084/// BKN130/// 11/10 Q1018=
202109291920 METAR ESMX 291920Z AUTO 12007KT 060V150 9999 BKN011/// OVC086/// 11/10 Q1018=
202109291850 METAR ESMX 291850Z AUTO 11006KT 030V160 9999 BKN010/// OVC064/// 11/11 Q1018=
202109291820 METAR ESMX 291820Z AUTO 11006KT 030V160 9999 BKN010/// BKN012/// OVC064/// 11/11 Q1018=
202109291750 METAR ESMX 291750Z AUTO 11006KT 050V150 9999 BKN010/// OVC049/// 11/11 Q1018=
202109291720 METAR ESMX 291720Z AUTO 12006KT 080V140 9999 OVC010/// 11/11 Q1018=
202109291650 METAR ESMX 291650Z AUTO 12007KT 080V160 9999 BKN009/// BKN036/// OVC047/// 11/11 Q1018=
202109291620 METAR ESMX 291620Z AUTO 12007KT 060V150 9999 BKN009/// OVC048/// 11/11 Q1018=
202109291550 METAR ESMX 291550Z AUTO 11006G17KT 050V150 9999 FEW002/// BKN007/// OVC009/// 11/11 Q1018=
202109291520 METAR ESMX 291520Z AUTO 12006KT 080V170 9999 FEW002/// OVC007/// 11/11 Q1018 REDZ=
202109291450 METAR ESMX 291450Z AUTO 12007KT 080V160 9999 OVC006/// 12/11 Q1019=
202109291420 METAR ESMX 291420Z AUTO 12007KT 070V150 7000 BR OVC005/// 12/12 Q1019=
202109291350 METAR ESMX 291350Z 13009KT 090V170 7000 BR BKN006 12/11 Q1019=
202109291320 METAR ESMX 291320Z 12006KT 080V180 9999 FEW004 BKN006 12/11 Q1019=
202109291250 METAR ESMX 291250Z 13007KT 100V170 9999 OVC005 12/12 Q1019=
202109291220 METAR COR ESMX 291220Z 13007KT 070V170 9999 BKN006 12/12 Q1019=
202109291150 METAR ESMX 291150Z 11008KT 030V160 8000 BR BKN006 12/12 Q1019=
202109291120 METAR ESMX 291120Z 13007KT 090V170 8000 BR BKN005 12/12 Q1019=
202109291050 METAR ESMX 291050Z 13006KT 080V160 5000 -DZ BKN002 OVC004 12/12 Q1020=
202109291020 METAR ESMX 291020Z 14007KT 070V180 4500 BR FEW002 OVC005 12/12 Q1020=
202109290950 METAR ESMX 290950Z 13006KT 070V170 9999 BKN006 13/12 Q1020=
202109290920 METAR ESMX 290920Z 13006KT 080V170 9999 BKN007 13/12 Q1020=
202109290850 METAR ESMX 290850Z 14008KT 100V170 8000 -DZ FEW002 BKN007 13/13 Q1020=
202109290820 METAR ESMX 290820Z 13006KT 6000 -DZ OVC004 13/13 Q1020=
202109290750 METAR ESMX 290750Z 13004KT 080V160 8000 -DZ SCT003 BKN005 13/13 Q1020=
202109290720 METAR ESMX 290720Z 14004KT 5000 -DZ OVC003 13/13 Q1020=
202109290650 METAR ESMX 290650Z 13005KT 5000 BR BKN002 OVC004 13/13 Q1020=
202109290620 METAR ESMX 290620Z 14004KT 9999 OVC004 13/13 Q1020=
202109290550 METAR ESMX 290550Z 15004KT 9999 OVC004 13/13 Q1020=
202109290520 METAR ESMX 290520Z AUTO 15005KT 8000 BR OVC003/// 13/13 Q1020=
202109290450 METAR ESMX 290450Z AUTO 14005KT 100V180 7000 BR OVC003/// 13/13 Q1020=
202109290420 METAR ESMX 290420Z AUTO 14005KT 100V170 9999 OVC004/// 13/13 Q1020=
202109290350 METAR ESMX 290350Z AUTO 14005KT 100V170 9999 OVC004/// 13/13 Q1020=
202109290320 METAR ESMX 290320Z AUTO 14005KT 100V170 9999 OVC005/// 13/13 Q1020 REDZ=
202109290250 METAR ESMX 290250Z AUTO 14004KT 9999 OVC006/// 13/13 Q1020=
202109290220 METAR ESMX 290220Z AUTO 14004KT 9999 OVC004/// 13/13 Q1020=
202109290150 METAR ESMX 290150Z AUTO 14002KT 4200 DZ VV004 13/13 Q1020=
202109290120 METAR ESMX 290120Z AUTO VRB02KT 9000 DZ OVC004/// 12/12 Q1021=
202109290050 METAR ESMX 290050Z AUTO 14003KT 4700 RA BKN001/// OVC006/// 12/12 Q1021 REDZ=
202109290020 METAR ESMX 290020Z AUTO 14003KT 5000 DZ BKN003/// OVC006/// 12/12 Q1021 RESHRA=
202109282350 METAR ESMX 282350Z AUTO 14003KT 5000 -RA BKN002/// OVC006/// 12/12 Q1021=
202109282320 METAR ESMX 282320Z AUTO 14003KT 2400 +DZ OVC002/// 12/12 Q1021 REDZ=
202109282250 METAR ESMX 282250Z AUTO 01003KT 2500 -RA BKN002/// OVC004/// 12/12 Q1022=
202109282220 METAR ESMX 282220Z AUTO 14003KT 2400 -RA OVC004/// 12/12 Q1022 REDZ=
202109282150 METAR ESMX 282150Z AUTO 36002KT 2300 BR OVC004/// 12/12 Q1022=
202109282120 METAR ESMX 282120Z AUTO 14002KT 4900 BR BKN003/// OVC009/// 12/12 Q1022=
202109282050 METAR ESMX 282050Z AUTO VRB02KT 6000 -DZ BKN004/// BKN009/// OVC012/// 12/12 Q1022 RERA=
202109282020 METAR ESMX 282020Z AUTO 14003KT 5000 -DZ BKN004/// BKN006/// OVC008/// 12/12 Q1022 RERA=
202109281950 METAR ESMX 281950Z AUTO 14002KT 7000 -RA BKN005/// OVC009/// 12/12 Q1022 REDZ=
202109281920 METAR ESMX 281920Z AUTO VRB03KT 6000 -RA BKN003/// OVC005/// 12/12 Q1022=
202109281850 METAR ESMX 281850Z AUTO 14003KT 6000 +DZ SCT004/// BKN007/// OVC017/// 12/12 Q1022=
202109281820 METAR ESMX 281820Z AUTO 10003KT 070V140 6000 -DZ BKN005/// OVC007/// 12/12 Q1022=
202109281750 METAR ESMX 281750Z AUTO VRB03KT 5000 -RA OVC004/// 12/12 Q1022=
202109281720 METAR ESMX 281720Z AUTO 14003KT 5000 -DZ BKN003/// OVC006/// 12/12 Q1022 REDZ=
202109281650 METAR ESMX 281650Z AUTO 14003KT 5000 BR VV007 12/12 Q1022 REDZ=
202109281620 METAR ESMX 281620Z AUTO 14003KT 3700 BR VV007 13/13 Q1022=
202109281550 METAR ESMX 281550Z AUTO VRB02KT 2200 DZ BKN002/// BKN005/// OVC007/// 13/13 Q1022=
202109281520 METAR ESMX 281520Z AUTO 14003KT 2200 +DZ BKN002/// OVC004/// 13/13 Q1022=
202109281450 METAR ESMX 281450Z AUTO VRB02KT 8000 BR OVC005/// 13/13 Q1021=
202109281420 METAR ESMX 281420Z AUTO 14002KT 9999 OVC007/// 13/13 Q1021=
202109281350 METAR ESMX 281350Z VRB03KT 9999 BKN008 13/13 Q1021=
202109281320 METAR ESMX 281320Z 15003KT 9999 BKN008 13/13 Q1021=
202109281250 METAR ESMX 281250Z 12003KT 060V190 9999 BKN007 13/13 Q1021=
202109281220 METAR ESMX 281220Z 15003KT 9999 BKN007 13/13 Q1021=
202109281150 METAR ESMX 281150Z 13004KT 070V140 9999 BKN007 BKN010 13/13 Q1021 RERA=
202109281120 METAR ESMX 281120Z 14004KT 100V190 9999 BKN007 13/13 Q1021=
202109281050 METAR ESMX 281050Z 14004KT 9999 -RA BKN007 BKN030 13/13 Q1021=
202109281020 METAR ESMX 281020Z 12003KT 9000 -RA BKN005 OVC032 12/12 Q1021=
202109280950 METAR ESMX 280950Z 16004KT 120V190 5000 +RA BKN005 12/12 Q1021=
202109280920 METAR ESMX 280920Z AUTO 12004KT 060V140 9000 -RA OVC005/// 12/12 Q1020=
202109280850 METAR ESMX 280850Z 12004KT 9999 -RA FEW002 BKN005 12/12 Q1020=
202109280820 METAR ESMX 280820Z 11004KT 7000 RA SCT002 BKN005 12/12 Q1020=
202109280750 METAR ESMX 280750Z 11004KT 010V160 9000 RA FEW002 BKN005 12/12 Q1020=
202109280720 METAR ESMX 280720Z 12006KT 060V160 9000 RA FEW002 BKN005 12/12 Q1019=
202109280650 METAR ESMX 280650Z 12006KT 070V160 8000 RA BKN005 BKN040 12/12 Q1019=
202109280620 METAR ESMX 280620Z 12006KT 050V180 9999 RA SCT007 BKN048 BKN080 12/12 Q1019 REDZ=
202109280550 METAR ESMX 280550Z 13005KT 080V160 9999 DZ FEW010 BKN034 BKN082 12/11 Q1019 REDZ=
202109280520 METAR ESMX 280520Z AUTO 13006KT 9999 -RA FEW017/// BKN035/// OVC057/// 12/11 Q1019 REDZ=
202109280450 METAR ESMX 280450Z AUTO 13005KT 9999 BKN034/// OVC066/// 12/11 Q1019=
202109280420 METAR ESMX 280420Z AUTO 12005KT 080V170 9999 FEW061/// BKN078/// BKN092/// 12/11 Q1019=
202109280350 METAR ESMX 280350Z AUTO 12005KT 080V150 9999 FEW011/// SCT020/// BKN033/// 13/11 Q1019=
202109280320 METAR ESMX 280320Z AUTO 12005KT 060V160 9999 SCT021/// OVC030/// 13/11 Q1019=
202109280250 METAR ESMX 280250Z AUTO 13005KT 080V160 9999 BKN020/// OVC028/// 13/11 Q1019=
202109280220 METAR ESMX 280220Z AUTO 14005KT 9999 OVC027/// 13/11 Q1019=
202109280150 METAR ESMX 280150Z AUTO 13005KT 9999 BKN027/// 13/11 Q1019=
202109280120 METAR ESMX 280120Z AUTO 13005KT 9999 FEW028/// BKN080/// 13/11 Q1019=
202109280050 METAR ESMX 280050Z AUTO 13005KT 080V150 9999 OVC076/// 13/11 Q1019=
202109280020 METAR ESMX 280020Z AUTO 13006KT 070V160 9999 OVC070/// 13/11 Q1019=
202109272350 METAR ESMX 272350Z AUTO 12005KT 070V160 9999 OVC061/// 13/12 Q1019=
202109272320 METAR ESMX 272320Z AUTO 12006KT 080V190 9999 -DZ FEW040/// OVC055/// 13/12 Q1019=
202109272250 METAR ESMX 272250Z AUTO 11006KT 070V150 9999 FEW012/// SCT033/// BKN043/// 13/11 Q1020=
202109272220 METAR ESMX 272220Z AUTO 13005KT 080V170 9999 FEW012/// OVC034/// 13/11 Q1020=
202109272150 METAR ESMX 272150Z AUTO 12005KT 070V160 9999 FEW012/// BKN036/// 13/11 Q1020=
202109272120 METAR ESMX 272120Z AUTO 13006KT 070V150 9999 BKN012/// BKN038/// OVC046/// 13/11 Q1020=
202109272050 METAR ESMX 272050Z AUTO 12007KT 070V160 9999 BKN013/// OVC044/// 13/11 Q1020=
202109272020 METAR ESMX 272020Z AUTO 11006KT 060V140 9999 BKN012/// OVC041/// 12/11 Q1020=
202109271950 METAR ESMX 271950Z AUTO 12006KT 070V140 9999 OVC012/// 12/11 Q1020=
202109271920 METAR ESMX 271920Z AUTO 11006KT 030V150 9999 OVC012/// 12/10 Q1020=
202109271850 METAR ESMX 271850Z AUTO 12007KT 080V160 9999 OVC012/// 12/10 Q1020=
202109271820 METAR ESMX 271820Z AUTO 12008KT 060V160 9999 BKN014/// 12/10 Q1020=
202109271750 METAR ESMX 271750Z AUTO 11006KT 030V140 9999 SCT170/// 12/09 Q1020=
202109271720 METAR ESMX 271720Z AUTO 11007KT 070V150 9999 BKN170/// 13/09 Q1020=
202109271650 METAR ESMX 271650Z AUTO 12007KT 060V160 9999 NCD 13/09 Q1020=
202109271620 METAR ESMX 271620Z AUTO 12007KT 050V160 9999 NCD 14/09 Q1020=
202109271550 METAR ESMX 271550Z AUTO 11009KT 060V150 9999 NCD 15/09 Q1020=
202109271520 METAR ESMX 271520Z AUTO 11008KT 070V160 9999 NCD 16/09 Q1020=
202109271450 METAR ESMX 271450Z AUTO 13008KT 080V160 9999 NCD 16/09 Q1020=
202109271420 METAR ESMX 271420Z AUTO 12009KT 060V170 9999 NCD 17/10 Q1020=
202109271350 METAR ESMX 271350Z 11009KT 070V210 9999 FEW030 17/09 Q1020=
202109271320 METAR ESMX 271320Z 13006KT 080V190 9999 SCT031 BKN160 18/11 Q1020=
202109271250 METAR ESMX 271250Z AUTO VRB08KT 9999 SCT026/// BKN032/// BKN047/// 17/11 Q1020=
202109271220 METAR ESMX 271220Z 12008KT 080V160 9999 SCT023 OVC049 17/12 Q1021=
202109271150 METAR ESMX 271150Z 14008KT 090V170 9999 SCT019 BKN051 17/13 Q1021=
202109271120 METAR ESMX 271120Z 13006KT 080V160 9999 BKN017 BKN051 17/13 Q1021=
202109271050 METAR ESMX 271050Z 13008KT 050V160 9999 BKN016 16/14 Q1021=
202109271020 METAR ESMX 271020Z 13007KT 060V160 9999 BKN016 BKN051 16/14 Q1021=
202109270950 METAR ESMX 270950Z 13005KT 080V150 9999 SCT015 BKN048 16/13 Q1021=
202109270920 METAR ESMX 270920Z 12005KT 9999 FEW010 BKN045 15/13 Q1021=
202109270850 METAR ESMX 270850Z 11006KT 050V150 9999 SCT009 BKN045 15/13 Q1021=
202109270820 METAR ESMX 270820Z 12005KT 080V150 9999 BKN009 14/13 Q1021=
202109270750 METAR ESMX 270750Z 13005KT 090V150 9999 BKN009 14/13 Q1021=
202109270720 METAR ESMX 270720Z 12005KT 070V140 9999 BKN008 14/13 Q1021=
202109270650 METAR ESMX 270650Z 12005KT 060V150 9999 BKN006 14/13 Q1021=
202109270620 METAR ESMX 270620Z 12005KT 060V150 9999 BKN006 13/13 Q1021=
202109270550 METAR ESMX 270550Z 11004KT 070V140 9999 BKN006 13/13 Q1021=
202109270520 METAR ESMX 270520Z AUTO 11004KT 070V140 9999 OVC006/// 13/13 Q1021=
202109270450 METAR ESMX 270450Z AUTO 11004KT 9999 OVC005/// 13/13 Q1021=
202109270420 METAR ESMX 270420Z AUTO 10005KT 060V120 9999 OVC005/// 13/13 Q1021=
202109270350 METAR ESMX 270350Z AUTO 11005KT 060V140 9999 OVC005/// 13/13 Q1021=
202109270320 METAR ESMX 270320Z AUTO 11005KT 050V150 9999 OVC006/// 13/12 Q1021=
202109270250 METAR ESMX 270250Z AUTO 12004KT 9999 OVC007/// 13/12 Q1021=
202109270220 METAR ESMX 270220Z AUTO VRB04KT 9999 OVC006/// 13/12 Q1021=
202109270150 METAR ESMX 270150Z AUTO 13004KT 080V150 9999 OVC006/// 12/12 Q1021=
202109270120 METAR ESMX 270120Z AUTO 12005KT 070V160 9999 OVC006/// 12/12 Q1021=
202109270050 METAR ESMX 270050Z AUTO 12005KT 080V160 9999 OVC006/// 12/12 Q1021=
202109270020 METAR ESMX 270020Z AUTO 12005KT 080V150 9999 OVC006/// 12/11 Q1022=
202109262350 METAR ESMX 262350Z AUTO 13006KT 080V180 9999 OVC007/// 12/11 Q1022=
202109262320 METAR ESMX 262320Z AUTO 14004KT 9999 OVC007/// 12/11 Q1022=
202109262250 METAR ESMX 262250Z AUTO 13005KT 9999 SCT002/// BKN005/// OVC006/// 11/11 Q1022=
202109262220 METAR ESMX 262220Z AUTO 15006KT 110V170 9000 BR OVC002/// 11/11 Q1022=
202109262150 METAR ESMX 262150Z AUTO 13005KT 080V160 9999 OVC002/// 11/11 Q1022=
202109262120 METAR ESMX 262120Z AUTO 12003KT 9999 BKN005/// 10/10 Q1022=
202109262050 METAR ESMX 262050Z AUTO 11004KT 9999 NCD 10/10 Q1022=
202109262020 METAR ESMX 262020Z AUTO VRB03KT 9999 NCD 10/10 Q1022=
202109261950 METAR ESMX 261950Z AUTO VRB03KT 9999 NCD 10/10 Q1021=
202109261920 METAR ESMX 261920Z AUTO VRB02KT 9999 NCD 10/09 Q1021=
202109261850 METAR ESMX 261850Z AUTO 15003KT 9999 NCD 10/10 Q1021=
202109261820 METAR ESMX 261820Z AUTO 15002KT 9999 NCD 10/10 Q1021=
202109261750 METAR ESMX 261750Z 15003KT CAVOK 11/10 Q1021=
202109261720 METAR ESMX 261720Z 15003KT CAVOK 12/10 Q1021=
202109261650 METAR ESMX 261650Z 14004KT CAVOK 15/10 Q1021=
202109261620 METAR ESMX 261620Z 15006KT 9999 FEW031 16/10 Q1021=
202109261550 METAR ESMX 261550Z 14004KT 080V170 9999 FEW035 16/10 Q1021=
202109261520 METAR ESMX 261520Z 13006KT 100V200 9999 FEW035 17/10 Q1021=
202109261450 METAR ESMX 261450Z 15005KT 9999 FEW033 17/10 Q1021=
202109261420 METAR ESMX 261420Z 16009KT 120V190 9999 SCT033 17/10 Q1021=
202109261350 METAR ESMX 261350Z 11006KT 040V170 9999 FEW034 18/10 Q1020=
202109261320 METAR ESMX 261320Z 11006KT 060V150 9999 FEW030 18/10 Q1020=
202109261250 METAR ESMX 261250Z 13006KT 070V150 CAVOK 17/10 Q1021=
202109261220 METAR ESMX 261220Z 12006KT 080V150 CAVOK 16/10 Q1021=
202109261150 METAR ESMX 261150Z 15007KT 120V190 CAVOK 16/09 Q1021=
202109261120 METAR ESMX 261120Z 15007KT 110V180 CAVOK 17/09 Q1021=
202109261050 METAR ESMX 261050Z 15006KT CAVOK 16/09 Q1021=
202109261020 METAR ESMX 261020Z VRB03KT CAVOK 16/10 Q1021=
202109260950 METAR ESMX 260950Z 11003KT 040V140 CAVOK 15/09 Q1021=
202109260920 METAR ESMX 260920Z 16003KT CAVOK 14/08 Q1021=
202109260850 METAR ESMX 260850Z 15004KT CAVOK 13/08 Q1021=
202109260820 METAR ESMX 260820Z 15005KT 110V190 CAVOK 13/07 Q1021=
202109260750 METAR ESMX 260750Z 21003KT CAVOK 12/09 Q1020=
202109260720 METAR ESMX 260720Z 00000KT CAVOK 09/09 Q1020=
202109260650 METAR ESMX 260650Z 02001KT CAVOK 08/08 Q1020=
202109260620 METAR ESMX 260620Z VRB01KT 0550 R01/P2000N R19/0750N BCFG NSC 04/04 Q1019=
202109260550 METAR ESMX 260550Z 00000KT 0100 R01/1100U R19/0275N MIFG NSC 03/03 Q1019=
202109260520 METAR ESMX 260520Z AUTO 00000KT 0100 R01/1100N R19/0325N BCFG VV001 02/02 Q1019=
202109260450 METAR ESMX 260450Z AUTO 00000KT 0050 R01/0600N R19/0175N FG VV001 02/02 Q1019=
202109260420 METAR ESMX 260420Z AUTO 00000KT 0100 R01/0750N R19/0400N FG VV001 03/03 Q1019=
202109260350 METAR ESMX 260350Z AUTO 00000KT 0250 R01/1000N R19/0900N FG OVC001/// 03/03 Q1019=
202109260320 METAR ESMX 260320Z AUTO 00000KT 0200 R01/0600N R19/0600N BCFG FEW001/// 02/02 Q1019=
202109260250 METAR ESMX 260250Z AUTO 00000KT 0250 R01/0900N R19/0750N FG NCD 02/02 Q1019=
202109260220 METAR ESMX 260220Z AUTO 00000KT 0300 R01/P2000D R19/P2000N BCFG SCT002/// 02/02 Q1018=
202109260150 METAR ESMX 260150Z AUTO 00000KT 0400 R01/P2000D R19/P2000N FG BKN002/// 02/02 Q1018=
202109260120 METAR ESMX 260120Z AUTO 00000KT 9999 NCD 04/04 Q1018=
202109260050 METAR ESMX 260050Z AUTO 20002KT 9999 NCD 04/04 Q1018=
202109260020 METAR ESMX 260020Z AUTO 00000KT 9999 BCFG NCD 04/04 Q1017=
202109252350 METAR ESMX 252350Z AUTO 00000KT 9999 NCD 03/03 Q1017=
202109252320 METAR ESMX 252320Z AUTO 16001KT 9999 NCD 04/04 Q1017=
202109252250 METAR ESMX 252250Z AUTO 00000KT 9999 NCD 04/04 Q1017=
202109252220 METAR ESMX 252220Z AUTO 00000KT 9999 NCD 05/05 Q1017=
202109252150 METAR ESMX 252150Z AUTO 00000KT 9999 NCD 07/07 Q1016=
202109252120 METAR ESMX 252120Z AUTO 24003KT 9999 NCD 08/08 Q1016=
202109252050 METAR ESMX 252050Z AUTO 24004KT 9999 NCD 07/07 Q1016=
202109252020 METAR ESMX 252020Z AUTO 25004KT 9999 NCD 07/07 Q1016=
202109251950 METAR ESMX 251950Z AUTO 24004KT 9999 NCD 09/08 Q1015=
202109251920 METAR ESMX 251920Z AUTO 26004KT 9999 NCD 09/07 Q1015=
202109251850 METAR ESMX 251850Z AUTO 24004KT 9999 NCD 09/07 Q1014=
202109251820 METAR ESMX 251820Z AUTO 23003KT 9999 NCD 10/07 Q1014=
202109251750 METAR ESMX 251750Z 27006KT CAVOK 11/08 Q1013=
202109251720 METAR ESMX 251720Z 25005KT CAVOK 11/08 Q1013=
202109251650 METAR ESMX 251650Z 25005KT CAVOK 12/08 Q1013=
202109251620 METAR ESMX 251620Z 26005KT CAVOK 14/08 Q1012=
202109251550 METAR ESMX 251550Z 26008KT CAVOK 15/09 Q1012=
202109251520 METAR ESMX 251520Z AUTO 27009KT 240V300 9999 NCD 16/09 Q1011=
202109251450 METAR ESMX 251450Z AUTO 27009KT 9999 NCD 16/09 Q1011=
202109251420 METAR ESMX 251420Z AUTO 26009KT 9999 FEW036/// 16/09 Q1011=
202109251350 METAR ESMX 251350Z AUTO 26010KT 230V300 9999 SCT038/// 17/09 Q1010=
202109251320 METAR ESMX 251320Z AUTO 25011KT 220V290 9999 SCT040/// 17/08 Q1010=
202109251250 METAR ESMX 251250Z AUTO 30008KT 260V320 9999 NCD 17/09 Q1009=
202109251220 METAR ESMX 251220Z AUTO 29010KT 9999 SCT037/// 16/08 Q1009=
202109251150 METAR ESMX 251150Z AUTO 28010KT 240V310 9999 FEW038/// 17/09 Q1009=
202109251120 METAR ESMX 251120Z AUTO 29009KT 260V320 9999 SCT035/// 15/08 Q1008=
202109251050 METAR ESMX 251050Z AUTO 28010KT 250V320 9999 FEW034/// 15/08 Q1008=
202109251020 METAR ESMX 251020Z AUTO 28012KT 9999 SCT031/// 16/09 Q1008=
202109250950 METAR ESMX 250950Z AUTO 30010KT 9999 NCD 14/09 Q1008=
202109250920 METAR ESMX 250920Z AUTO 28011KT 9999 NCD 15/09 Q1007=
202109250850 METAR ESMX 250850Z AUTO 26011KT 230V300 9999 FEW029/// 14/09 Q1007=
202109250820 METAR ESMX 250820Z AUTO 28013KT 250V310 9999 FEW023/// SCT030/// 14/09 Q1007=
202109250750 METAR ESMX 250750Z AUTO 28010G21KT 250V310 9999 SCT022/// BKN031/// 13/10 Q1006=
202109250720 METAR ESMX 250720Z AUTO 27010KT 240V300 9999 BKN022/// OVC029/// 13/09 Q1006=
202109250650 METAR ESMX 250650Z AUTO 27010KT 9999 OVC024/// 13/09 Q1005=
202109250620 METAR ESMX 250620Z AUTO 26008KT 220V300 9999 SCT016/// BKN022/// OVC029/// 13/10 Q1005=
202109250550 METAR ESMX 250550Z AUTO 28007KT 9999 SCT017/// OVC031/// 13/10 Q1004=
202109250520 METAR ESMX 250520Z AUTO 26007KT 9999 BKN018/// OVC027/// 13/10 Q1004=
202109250450 METAR ESMX 250450Z AUTO 27009KT 230V300 9999 SCT020/// OVC026/// 13/10 Q1003=
202109250420 METAR ESMX 250420Z AUTO 26010KT 9999 FEW019/// OVC026/// 13/10 Q1003=
202109250350 METAR ESMX 250350Z AUTO 25010KT 230V290 9999 FEW018/// OVC030/// 13/10 Q1003=
202109250320 METAR ESMX 250320Z AUTO 26013KT 9999 BKN029/// 13/10 Q1002=
202109250250 METAR ESMX 250250Z AUTO 27014G24KT 9999 SCT019/// OVC029/// 13/10 Q1002=
202109250220 METAR ESMX 250220Z AUTO 27012KT 9999 SCT018/// OVC025/// 13/11 Q1002=
202109250150 METAR ESMX 250150Z AUTO 26012G24KT 230V300 9999 OVC018/// 13/11 Q1002=
202109250120 METAR ESMX 250120Z AUTO 26015G26KT 9999 BKN018/// OVC023/// 13/11 Q1001=
202109250050 METAR ESMX 250050Z AUTO 25013KT 9999 BKN015/// BKN020/// OVC028/// 14/12 Q1001=
202109250020 METAR ESMX 250020Z AUTO 26011KT 9999 OVC014/// 14/12 Q1001=
202109242350 METAR ESMX 242350Z AUTO 26014G24KT 9999 OVC011/// 14/12 Q1001=
202109242320 METAR ESMX 242320Z AUTO 25013KT 9999 OVC009/// 14/13 Q1000=
202109242250 METAR ESMX 242250Z AUTO 25014KT 220V290 9999 OVC009/// 14/13 Q1001=
202109242220 METAR ESMX 242220Z AUTO 25013G26KT 220V280 9999 FEW007/// BKN010/// BKN014/// 14/13 Q1001=
202109242150 METAR ESMX 242150Z AUTO 26013KT 7000 BR BKN007/// OVC010/// 14/13 Q1001=
202109242120 METAR ESMX 242120Z AUTO 24012KT 9999 OVC009/// 14/13 Q1001=
202109242050 METAR ESMX 242050Z AUTO 23012KT 9999 OVC008/// 14/13 Q1001=
202109242020 METAR ESMX 242020Z AUTO 23011KT 9999 OVC010/// 14/13 Q1001=
202109241950 METAR ESMX 241950Z AUTO 24011KT 9999 FEW010/// SCT013/// OVC024/// 14/13 Q1001=
202109241920 METAR ESMX 241920Z AUTO 23011KT 9999 BKN009/// BKN021/// OVC045/// 13/13 Q1002=
202109241850 METAR ESMX 241850Z AUTO 22010KT 180V260 8000 BR SCT005/// BKN008/// BKN012/// 13/13 Q1002 REDZ=
202109241820 METAR ESMX 241820Z AUTO 22010KT 9999 BKN006/// OVC011/// 13/13 Q1002=
202109241750 METAR ESMX 241750Z AUTO 22010KT 3200 DZ BKN004/// OVC009/// 12/12 Q1002=
202109241720 METAR ESMX 241720Z AUTO 20010KT 3300 DZ BKN003/// OVC005/// 12/12 Q1002 REDZ=
202109241650 METAR ESMX 241650Z AUTO 20010KT 5000 BR FEW002/// OVC005/// 11/11 Q1002 REDZ=
202109241620 METAR ESMX 241620Z AUTO 22011KT 8000 BR OVC007/// 12/11 Q1003=
202109241550 METAR ESMX 241550Z AUTO 23010KT 9999 SCT008/// BKN013/// OVC021/// 12/11 Q1003=
202109241520 METAR ESMX 241520Z AUTO 23012KT 9999 FEW007/// SCT010/// BKN018/// 12/10 Q1003=
202109241450 METAR ESMX 241450Z AUTO 23010KT 200V260 9999 BKN021/// OVC027/// 13/09 Q1003=
202109241420 METAR ESMX 241420Z AUTO 25009KT 220V280 9999 SCT033/// OVC043/// 13/08 Q1003=
202109241350 METAR ESMX 241350Z 24008KT 200V270 CAVOK 13/08 Q1003=
202109241320 METAR ESMX 241320Z 26009KT 230V300 CAVOK 13/08 Q1004=
202109241250 METAR COR ESMX 241250Z 26011KT 220V280 9999 FEW030 14/08 Q1004=
202109241220 METAR ESMX 241220Z 26010KT 230V300 9999 FEW030 15/08 Q1003=
202109241150 METAR ESMX 241150Z 28008KT 230V310 9999 FEW028 14/08 Q1003=
202109241120 METAR ESMX 241120Z 28009KT 250V310 9999 FEW032 14/07 Q1004=
202109241050 METAR ESMX 241050Z 27010KT 9999 FEW032 13/06 Q1004=
202109241020 METAR ESMX 241020Z 27010KT 9999 FEW030 13/06 Q1003=
202109240950 METAR ESMX 240950Z 28010KT 250V320 CAVOK 13/06 Q1003=
202109240920 METAR ESMX 240920Z 29008KT CAVOK 12/05 Q1003=
202109240850 METAR ESMX 240850Z 30008KT CAVOK 11/06 Q1003=
202109240820 METAR ESMX 240820Z 29009KT 260V330 CAVOK 11/06 Q1003=
202109240750 METAR ESMX 240750Z 29009KT CAVOK 10/06 Q1003=
202109240720 METAR ESMX 240720Z 30009KT CAVOK 10/06 Q1002=
202109240650 METAR ESMX 240650Z 29007KT CAVOK 09/06 Q1002=
202109240620 METAR ESMX 240620Z 28008KT CAVOK 08/06 Q1001=
202109240550 METAR ESMX 240550Z AUTO 28008KT 250V320 9999 NCD 07/06 Q1001=
202109240520 METAR ESMX 240520Z AUTO 28009KT 9999 NCD 07/06 Q1001=
202109240450 METAR ESMX 240450Z AUTO 27008KT 9999 NCD 07/06 Q1000=
202109240420 METAR ESMX 240420Z AUTO 28008KT 9999 NCD 07/06 Q1000=
202109240350 METAR ESMX 240350Z AUTO 27008KT 9999 NCD 07/06 Q1000=
202109240320 METAR ESMX 240320Z AUTO 29007KT 9999 NCD 07/06 Q1000=
202109240250 METAR ESMX 240250Z AUTO 27007KT 9999 NCD 08/06 Q1000=
202109240220 METAR ESMX 240220Z AUTO 28008KT 9999 NCD 08/06 Q0999=
202109240150 METAR ESMX 240150Z AUTO 26007KT 9999 NCD 08/06 Q0999=
202109240120 METAR ESMX 240120Z AUTO 29009KT 9999 NCD 08/07 Q0998=
202109240050 METAR ESMX 240050Z AUTO 29009KT 9999 NCD 08/07 Q0998=
202109240020 METAR ESMX 240020Z AUTO 28011KT 9999 NCD 09/07 Q0998=
202109232350 METAR ESMX 232350Z AUTO 28012KT 9999 NCD 09/07 Q0997=
202109232320 METAR ESMX 232320Z AUTO 28012KT 9999 NCD 09/08 Q0997=
202109232250 METAR ESMX 232250Z AUTO 28010KT 9999 NCD 09/08 Q0997=
202109232220 METAR ESMX 232220Z AUTO 26009KT 9999 NCD 09/08 Q0997=
202109232150 METAR ESMX 232150Z AUTO 30009KT 260V330 9999 BKN011/// 09/08 Q0996=
202109232120 METAR ESMX 232120Z AUTO 29011KT 260V330 9999 OVC012/// 09/08 Q0996=
202109232050 METAR ESMX 232050Z AUTO 29010KT 250V320 9999 BKN011/// OVC014/// 09/08 Q0995=
202109232020 METAR ESMX 232020Z AUTO 27011KT 240V300 9999 FEW014/// BKN046/// 08/07 Q0995=
202109231950 METAR ESMX 231950Z AUTO 29014KT 9999 BKN017/// BKN053/// 09/07 Q0994=
202109231920 METAR ESMX 231920Z AUTO 27011KT 9999 FEW017/// BKN025/// 08/07 Q0993=
202109231850 METAR ESMX 231850Z AUTO 26010KT 9999 FEW049/// BKN072/// BKN110/// 08/07 Q0992=
202109231820 METAR ESMX 231820Z AUTO 26010KT 9999 FEW026/// 08/06 Q0992 RESHUP=
202109231750 METAR ESMX 231750Z 27012KT 230V290 9999 -RA SCT032 09/06 Q0992=
202109231720 METAR ESMX 231720Z AUTO 26010KT 9999 FEW034/// SCT110/// 09/07 Q0992=
202109231650 METAR ESMX 231650Z 25010KT 9999 FEW008 SCT026 10/08 Q0992=
202109231620 METAR ESMX 231620Z 26014G24KT 230V290 9999 SCT026 11/09 Q0992=
202109231550 METAR ESMX 231550Z 26014KT 9999 -RA FEW004 BKN019 11/10 Q0992=
202109231520 METAR ESMX 231520Z 22010KT 9000 -RA BKN012 12/11 Q0992=
202109231450 METAR ESMX 231450Z 24008KT 9999 -RA BKN011 12/11 Q0993=
202109231420 METAR ESMX 231420Z 26010G22KT 230V290 9999 BKN012 12/11 Q0994=
202109231350 METAR ESMX 231350Z 26011KT 230V290 9999 BKN009 12/11 Q0994=
202109231320 METAR ESMX 231320Z 23010KT 200V280 8000 -DZ BKN007 12/11 Q0995=
202109231250 METAR ESMX 231250Z 25011G21KT 9000 -RA BKN008 12/11 Q0995=
202109231220 METAR ESMX 231220Z 26011KT 7000 RA FEW006 BKN010 12/12 Q0996=
202109231150 METAR ESMX 231150Z 26017KT 230V290 9000 -RA BKN010 13/12 Q0996=
202109231120 METAR ESMX 231120Z 22016KT 8000 -RA BR BKN008 14/14 Q0996=
202109231050 METAR ESMX 231050Z 21015KT 9999 -RA FEW002 BKN007 14/14 Q0997=
202109231020 METAR ESMX 231020Z 20015KT 5000 -RA BR BKN006 14/14 Q0998=
202109230950 METAR COR ESMX 230950Z 20017KT 3800 RA FEW003 BKN006 14/14 Q0999=
202109230920 METAR ESMX 230920Z 19015KT 8000 DZ OVC006 14/14 Q1000=
202109230850 METAR ESMX 230850Z 19014KT 6000 DZ OVC006 14/14 Q1001=
202109230820 METAR ESMX 230820Z 20013KT 9999 -DZ BKN006 14/14 Q1002=
202109230750 METAR COR ESMX 230750Z 20012KT 9999 -RA OVC007 14/13 Q1002=
202109230720 METAR ESMX 230720Z 22011KT 9999 OVC005 13/13 Q1003=
202109230650 METAR ESMX 230650Z 22010KT 9000 BR OVC004 13/13 Q1004=
202109230620 METAR ESMX 230620Z 22010KT 5000 BR OVC004 13/13 Q1005=
202109230550 METAR COR ESMX 230550Z 21009KT 7000 BR OVC003 13/13 Q1005=
202109230520 METAR ESMX 230520Z AUTO 22009KT 9999 OVC005/// 13/13 Q1006=
202109230450 METAR ESMX 230450Z AUTO 22008KT 6000 BR OVC004/// 13/13 Q1006 REDZ=
202109230420 METAR ESMX 230420Z AUTO 21008KT 4000 BR OVC003/// 12/12 Q1007=
202109230350 METAR ESMX 230350Z AUTO 22008KT 2600 BR BKN003/// OVC009/// 12/12 Q1007=
202109230320 METAR ESMX 230320Z AUTO 21008KT 2900 -DZ BKN005/// OVC012/// 12/12 Q1008=
202109230250 METAR ESMX 230250Z AUTO 21007KT 9000 BR OVC005/// 12/12 Q1009=
202109230220 METAR ESMX 230220Z AUTO 19008KT 9999 SCT006/// BKN008/// OVC011/// 12/12 Q1009=
202109230150 METAR ESMX 230150Z AUTO 20006KT 9999 FEW009/// OVC018/// 12/12 Q1010=
202109230120 METAR ESMX 230120Z AUTO 19007KT 9999 BKN022/// OVC031/// 12/12 Q1010=
202109230050 METAR ESMX 230050Z AUTO 21006KT 9999 OVC029/// 12/12 Q1012=
202109230020 METAR ESMX 230020Z AUTO 19007KT 9999 FEW017/// OVC029/// 12/12 Q1012=
202109222350 METAR ESMX 222350Z AUTO 20007KT 9999 OVC032/// 12/12 Q1012=
202109222320 METAR ESMX 222320Z AUTO 21006KT 9999 OVC032/// 12/12 Q1013=
202109222250 METAR ESMX 222250Z AUTO 22006KT 9999 OVC034/// 12/12 Q1014=
202109222220 METAR ESMX 222220Z AUTO 21007KT 9999 FEW018/// OVC034/// 12/12 Q1014=
202109222150 METAR ESMX 222150Z AUTO 21008KT 9999 FEW018/// OVC035/// 12/12 Q1014=
202109222120 METAR ESMX 222120Z AUTO 19008KT 9999 OVC036/// 12/12 Q1015=
202109222050 METAR ESMX 222050Z AUTO 18007KT 9999 BKN017/// OVC040/// 12/12 Q1015=
202109222020 METAR ESMX 222020Z AUTO 16006KT 9999 OVC021/// 12/11 Q1015=
202109221950 METAR ESMX 221950Z AUTO 17006KT 9999 SCT023/// BKN040/// 12/11 Q1016=
202109221920 METAR ESMX 221920Z AUTO 18005KT 9999 BKN038/// 12/11 Q1016=
202109221850 METAR COR ESMX 221850Z 20006KT 9999 SCT036 12/11 Q1017=
202109221820 METAR ESMX 221820Z 20006KT 9999 OVC036 12/11 Q1017=
202109221750 METAR ESMX 221750Z 19005KT 9999 BKN032 13/11 Q1018=
202109221720 METAR ESMX 221720Z 23004KT 9999 BKN030 13/10 Q1018=
202109221650 METAR ESMX 221650Z 24005KT 9999 SCT030 13/10 Q1018=
202109221620 METAR ESMX 221620Z AUTO 22006KT 9999 FEW028/// 15/11 Q1018=
202109221550 METAR ESMX 221550Z AUTO 21007KT 9999 SCT028/// 15/11 Q1018=
202109221520 METAR ESMX 221520Z AUTO 21007KT 9999 BKN029/// 15/12 Q1019=
202109221450 METAR ESMX 221450Z AUTO 20008KT 9999 FEW021/// BKN029/// 15/11 Q1019=
202109221420 METAR ESMX 221420Z AUTO 21008KT 9999 FEW021/// 15/11 Q1019=
202109221350 METAR ESMX 221350Z 18007KT 9999 BKN015 15/12 Q1020=
202109221320 METAR ESMX 221320Z 18008KT 9999 BKN014 15/12 Q1021=
202109221250 METAR ESMX 221250Z AUTO 18007KT 9999 SCT012/// BKN021/// OVC032/// 14/12 Q1021=
202109221220 METAR ESMX 221220Z 18006KT 9999 BKN010 14/12 Q1021=
202109221150 METAR ESMX 221150Z 19007KT 9999 BKN009 13/11 Q1022=
202109221120 METAR ESMX 221120Z 19006KT 9999 BKN007 12/11 Q1022=
202109221050 METAR ESMX 221050Z 21005KT 9999 BKN006 12/11 Q1022=
202109221020 METAR ESMX 221020Z 21006KT 9999 BKN007 11/10 Q1023=
202109220950 METAR ESMX 220950Z 20005KT 9999 BKN007 11/10 Q1023=
202109220920 METAR ESMX 220920Z 22005KT 9999 BKN007 11/10 Q1023=
202109220850 METAR ESMX 220850Z 19006KT 9999 BKN006 11/10 Q1023=
202109220820 METAR ESMX 220820Z 21006KT 9999 BKN006 10/10 Q1023=
202109220750 METAR ESMX 220750Z 20005KT 9999 BKN006 10/09 Q1023=
202109220720 METAR ESMX 220720Z 22005KT 9999 BKN004 10/10 Q1023=
202109220650 METAR ESMX 220650Z 20006KT 9999 SCT004 BKN007 10/10 Q1023=
202109220620 METAR ESMX 220620Z 19004KT 9999 FEW004 BKN010 10/10 Q1023=
202109220550 METAR COR ESMX 220550Z 20003KT 9999 FEW004 BKN010 10/10 Q1023=
202109220520 METAR ESMX 220520Z AUTO 00000KT 9999 BKN009/// OVC011/// 09/09 Q1023=
202109220450 METAR ESMX 220450Z AUTO 33003KT 9999 BKN007/// OVC009/// 09/09 Q1023=
202109220420 METAR ESMX 220420Z AUTO VRB02KT 9999 OVC007/// 09/09 Q1023=
202109220350 METAR ESMX 220350Z AUTO VRB03KT 9000 BR OVC007/// 09/09 Q1023=
202109220320 METAR ESMX 220320Z AUTO 17002KT 6000 OVC005/// 09/09 Q1023=
202109220250 METAR ESMX 220250Z AUTO 00000KT 2300 SCT001/// OVC004/// 09/09 Q1023=
202109220220 METAR ESMX 220220Z AUTO VRB01KT 0900 R01/P2000N R19/P2000N FG OVC001/// 09/09 Q1023=
202109220150 METAR ESMX 220150Z AUTO 29005KT 1200 R01/P2000N R19/P2000N OVC001/// 09/09 Q1023=
202109220120 METAR ESMX 220120Z AUTO 30003KT 270V340 1000 R01/P2000N R19/P2000N OVC001/// 09/09 Q1023=
202109220050 METAR ESMX 220050Z AUTO 27004KT 220V290 0650 R01/1900D R19/P2000D FG OVC001/// 09/09 Q1023=
202109220020 METAR ESMX 220020Z AUTO 22003KT 0800 R01/1800U R19/P2000N FG OVC001/// 09/09 Q1023=
202109212350 METAR ESMX 212350Z AUTO 21004KT 1400 R01/P2000N R19/P2000N BR OVC001/// 09/09 Q1023=
202109212320 METAR ESMX 212320Z AUTO 22004KT 2400 BR OVC001/// 09/09 Q1023=
202109212250 METAR ESMX 212250Z AUTO 22005KT 7000 BR OVC003/// 09/09 Q1023=
202109212220 METAR ESMX 212220Z AUTO 18004KT 9999 OVC004/// 09/09 Q1023=
202109212150 METAR ESMX 212150Z AUTO 18004KT 9999 OVC003/// 09/09 Q1022=
202109212120 METAR ESMX 212120Z AUTO 18004KT 9999 OVC004/// 09/09 Q1022=
202109212050 METAR ESMX 212050Z AUTO 18004KT 9999 OVC003/// 09/09 Q1022=
202109212020 METAR ESMX 212020Z AUTO 18005KT 8000 BR OVC003/// 09/09 Q1022 REDZ=
202109211950 METAR ESMX 211950Z AUTO 17005KT 6000 BR BKN005/// BKN010/// OVC012/// 09/09 Q1022=
202109211920 METAR ESMX 211920Z AUTO 18004KT 9999 FEW007/// BKN011/// OVC019/// 09/09 Q1022=
202109211850 METAR ESMX 211850Z AUTO 16004KT 9999 -DZ OVC021/// 09/09 Q1022=
202109211820 METAR ESMX 211820Z AUTO 19004KT 9999 SCT019/// OVC025/// 09/09 Q1022 REDZ=
202109211750 METAR ESMX 211750Z AUTO 17003KT 6000 DZ BKN030/// OVC038/// 09/09 Q1022=
202109211720 METAR ESMX 211720Z AUTO 16003KT 9999 -RA ///036 09/08 Q1022 REDZ=
202109211650 METAR ESMX 211650Z AUTO 15004KT 9999 OVC036/// 09/08 Q1022=
202109211620 METAR ESMX 211620Z AUTO 17003KT 9999 OVC041/// 09/08 Q1022=
202109211550 METAR ESMX 211550Z AUTO 16003KT 9999 OVC046/// 09/08 Q1022=
202109211520 METAR ESMX 211520Z AUTO 17004KT 150V210 9999 SCT049/// OVC062/// 10/08 Q1022=
202109211450 METAR ESMX 211450Z AUTO 20005KT 9999 -DZ FEW040/// BKN062/// 10/08 Q1022=
202109211420 METAR ESMX 211420Z 23004KT 9999 -DZ SCT053 10/09 Q1022=
202109211350 METAR ESMX 211350Z 22004KT 190V250 9999 -RA FEW033 BKN045 BKN066 10/09 Q1022 REDZ=
202109211320 METAR ESMX 211320Z 23007KT 9999 DZ FEW024 SCT032 BKN045 10/07 Q1023 REDZ=
202109211250 METAR ESMX 211250Z AUTO 23005KT 200V260 9999 -DZ FEW024/// BKN057/// 11/06 Q1023=
202109211220 METAR ESMX 211220Z 21007KT 9999 FEW023 BKN095 11/07 Q1023=
202109211150 METAR ESMX 211150Z 20007KT 9999 SCT023 BKN078 11/07 Q1023=
202109211120 METAR ESMX 211120Z 20006KT 9999 SCT022 11/07 Q1023=
202109211050 METAR ESMX 211050Z 21005KT 160V230 9999 FEW019 11/07 Q1023=
202109211020 METAR ESMX 211020Z 21005KT 9999 FEW019 SCT100 11/06 Q1024=
202109210950 METAR ESMX 210950Z 22005KT CAVOK 10/06 Q1024=
202109210920 METAR ESMX 210920Z 22005KT CAVOK 10/06 Q1024=
202109210850 METAR ESMX 210850Z 22005KT CAVOK 10/06 Q1024=
202109210820 METAR ESMX 210820Z 22005KT CAVOK 10/06 Q1024=
202109210750 METAR ESMX 210750Z 17003KT 140V210 CAVOK 09/06 Q1024=
202109210720 METAR ESMX 210720Z 24003KT CAVOK 08/07 Q1024=
202109210650 METAR ESMX 210650Z VRB01KT 8000 SCT062 07/07 Q1024=
202109210620 METAR ESMX 210620Z 20002KT 8000 BKN062 07/07 Q1024=
202109210550 METAR ESMX 210550Z AUTO 18002KT 9999 OVC061/// 06/06 Q1024=
202109210520 METAR ESMX 210520Z AUTO 00000KT 9000 OVC059/// 06/06 Q1024=
202109210450 METAR ESMX 210450Z AUTO 24001KT 9999 OVC059/// 06/06 Q1024=
202109210420 METAR ESMX 210420Z AUTO 24002KT 9999 OVC059/// 06/06 Q1024=
202109210350 METAR ESMX 210350Z AUTO 00000KT 9999 OVC061/// 06/06 Q1024=
202109210320 METAR ESMX 210320Z AUTO 00000KT 9999 OVC061/// 06/06 Q1024=
202109210250 METAR ESMX 210250Z AUTO 00000KT 9999 OVC059/// 06/06 Q1024=
202109210220 METAR ESMX 210220Z AUTO 21002KT 9999 OVC059/// 06/06 Q1024=
202109210150 METAR ESMX 210150Z AUTO 00000KT 9999 OVC059/// 06/06 Q1024=
202109210120 METAR ESMX 210120Z AUTO 00000KT 9999 OVC059/// 06/06 Q1024=
202109210050 METAR ESMX 210050Z AUTO VRB03KT 9999 OVC057/// 07/07 Q1024=
202109210020 METAR ESMX 210020Z AUTO 00000KT 9999 OVC057/// 06/06 Q1025=
202109202350 METAR ESMX 202350Z AUTO 00000KT 9999 OVC057/// 07/06 Q1025=
202109202320 METAR ESMX 202320Z AUTO 00000KT 9999 OVC055/// 07/07 Q1025=
202109202250 METAR ESMX 202250Z AUTO 00000KT 9999 OVC057/// 07/06 Q1025=
202109202220 METAR ESMX 202220Z AUTO 00000KT 9999 OVC057/// 07/07 Q1025=
202109202150 METAR ESMX 202150Z AUTO 00000KT 9999 OVC055/// 07/06 Q1025=
202109202120 METAR ESMX 202120Z AUTO 00000KT 9999 OVC055/// 07/06 Q1025=
202109202050 METAR ESMX 202050Z AUTO 00000KT 9999 OVC053/// 07/06 Q1025=
202109202020 METAR ESMX 202020Z AUTO VRB03KT 9999 OVC053/// 08/05 Q1025=
202109201950 METAR ESMX 201950Z AUTO 07002KT 9999 OVC053/// 08/05 Q1025=
202109201920 METAR ESMX 201920Z AUTO 06003KT 9999 OVC051/// 09/05 Q1025=
202109201850 METAR ESMX 201850Z AUTO 08002KT 9999 OVC051/// 09/05 Q1025=
202109201820 METAR ESMX 201820Z AUTO 04003KT 010V090 9999 OVC051/// 09/05 Q1025=
202109201750 METAR ESMX 201750Z AUTO 04004KT 350V080 9999 OVC051/// 09/05 Q1025=
202109201720 METAR ESMX 201720Z AUTO 05006KT 010V080 9999 OVC051/// 09/05 Q1024=
202109201650 METAR ESMX 201650Z AUTO 06007KT 9999 OVC053/// 10/05 Q1024=
202109201620 METAR ESMX 201620Z AUTO 03008KT 9999 OVC051/// 10/05 Q1024=
202109201550 METAR ESMX 201550Z AUTO 02004KT 9999 OVC051/// 10/06 Q1024=
202109201520 METAR ESMX 201520Z AUTO 02005KT 9999 OVC049/// 10/06 Q1024=
202109201450 METAR ESMX 201450Z AUTO 03005KT 9999 OVC048/// 10/06 Q1024=
202109201420 METAR ESMX 201420Z AUTO 01005KT 9999 OVC047/// 11/06 Q1024=
202109201350 METAR ESMX 201350Z 04005KT 010V070 9999 BKN040 11/05 Q1024=
202109201320 METAR ESMX 201320Z 04005KT 010V080 9999 SCT029 BKN048 11/05 Q1024=
202109201250 METAR ESMX 201250Z 36005KT 330V030 9999 BKN046 11/05 Q1024=
202109201220 METAR ESMX 201220Z 05006KT 020V100 9999 BKN045 11/06 Q1024=
202109201150 METAR ESMX 201150Z 04009KT 9999 BKN043 11/06 Q1024=
202109201120 METAR ESMX 201120Z 03010KT 9999 SCT027 BKN045 11/05 Q1024=
202109201050 METAR ESMX 201050Z 05007KT 010V100 9999 FEW026 BKN049 11/05 Q1024=
202109201020 METAR ESMX 201020Z 04007KT 010V070 9999 FEW023 BKN051 BKN180 11/05 Q1025=
202109200950 METAR ESMX 200950Z 03009KT CAVOK 10/05 Q1025=
202109200920 METAR ESMX 200920Z 02008KT 350V050 CAVOK 10/06 Q1024=
202109200850 METAR ESMX 200850Z AUTO 02009KT 9999 FEW051/// BKN180/// 10/06 Q1024=
202109200820 METAR ESMX 200820Z 02007KT 350V050 CAVOK 10/06 Q1024=
202109200750 METAR ESMX 200750Z 02007KT CAVOK 09/06 Q1024=
202109200720 METAR ESMX 200720Z 01006KT CAVOK 09/06 Q1024=
202109200650 METAR ESMX 200650Z 02008KT 9999 BKN047 08/06 Q1024=
202109200620 METAR ESMX 200620Z 01008KT 9999 BKN046 08/06 Q1024=
202109200550 METAR ESMX 200550Z 01007KT 9999 SCT046 BKN190 07/06 Q1024=
202109200520 METAR ESMX 200520Z AUTO 02008KT 9999 SCT048/// OVC190/// 07/06 Q1024=
202109200450 METAR ESMX 200450Z AUTO 01008KT 9999 OVC047/// 07/06 Q1024=
202109200420 METAR ESMX 200420Z AUTO 01008KT 9999 SCT049/// BKN190/// 07/06 Q1024=
202109200350 METAR ESMX 200350Z AUTO 01008KT 9999 SCT010/// OVC049/// 08/06 Q1023=
202109200320 METAR ESMX 200320Z AUTO 01009KT 9999 FEW010/// OVC046/// 08/06 Q1024=
202109200250 METAR ESMX 200250Z AUTO 01008KT 9999 FEW012/// OVC034/// 08/06 Q1023=
202109200220 METAR ESMX 200220Z AUTO 01008KT 9999 OVC026/// 08/06 Q1024=
202109200150 METAR ESMX 200150Z AUTO 01007KT 9999 BKN022/// OVC027/// 08/06 Q1024=
202109200120 METAR ESMX 200120Z AUTO 01008KT 9999 BKN025/// OVC030/// 08/06 Q1024=
202109200050 METAR ESMX 200050Z AUTO 01007KT 9999 OVC032/// 08/07 Q1024=
202109200020 METAR ESMX 200020Z AUTO 35007KT 9999 FEW039/// SCT047/// 07/07 Q1024=
202109192350 METAR ESMX 192350Z AUTO 35005KT 9999 FEW046/// 07/07 Q1024=
202109192320 METAR ESMX 192320Z AUTO 02007KT 9999 FEW008/// 08/07 Q1024=
202109192250 METAR ESMX 192250Z AUTO 01007KT 9999 NCD 08/07 Q1023=
202109192220 METAR ESMX 192220Z AUTO 36005KT 9999 FEW047/// 07/07 Q1023=
202109192150 METAR ESMX 192150Z AUTO 01007KT 9999 FEW024/// 08/07 Q1023=
202109192120 METAR ESMX 192120Z AUTO 02006KT 9999 BKN017/// BKN045/// 09/07 Q1023=
202109192050 METAR ESMX 192050Z AUTO 02006KT 9999 BKN020/// OVC045/// 09/07 Q1023=
202109192020 METAR ESMX 192020Z AUTO 01006KT 9999 SCT019/// 08/07 Q1023=
202109191950 METAR ESMX 191950Z AUTO 02006KT 9999 BKN017/// 08/07 Q1023=
202109191920 METAR ESMX 191920Z AUTO 03007KT 9999 BKN017/// 09/07 Q1023=
202109191850 METAR ESMX 191850Z AUTO 01007KT 9999 SCT023/// 09/07 Q1023=
202109191820 METAR ESMX 191820Z AUTO 02007KT 9999 FEW017/// SCT025/// 09/06 Q1023=
202109191750 METAR ESMX 191750Z AUTO 05007KT 020V080 9999 BKN027/// OVC042/// 10/05 Q1023=
202109191720 METAR COR ESMX 191720Z 05005KT 9999 FEW033 SCT042 10/05 Q1022=
202109191650 METAR ESMX 191650Z 06006KT 030V110 9999 SCT043 10/04 Q1022=
202109191620 METAR ESMX 191620Z 04009KT 9999 BKN042 11/04 Q1022=
202109191550 METAR ESMX 191550Z 04008KT 020V080 9999 SCT040 11/03 Q1022=
202109191520 METAR ESMX 191520Z 04008KT 020V090 9999 BKN041 12/04 Q1022=
202109191450 METAR ESMX 191450Z 06009KT 020V080 9999 BKN042 12/04 Q1022=
202109191420 METAR ESMX 191420Z 04011KT 9999 SCT042 12/03 Q1022=
202109191350 METAR ESMX 191350Z 04010KT 020V100 9999 BKN043 13/04 Q1022=
202109191320 METAR ESMX 191320Z AUTO 05011KT 9999 BKN045/// 12/03 Q1022=
202109191250 METAR ESMX 191250Z 04010KT 9999 BKN046 12/04 Q1022=
202109191220 METAR ESMX 191220Z 04010KT 350V070 9999 BKN045 13/04 Q1022=
202109191150 METAR ESMX 191150Z 03013KT 9999 BKN043 12/03 Q1022=
202109191120 METAR ESMX 191120Z 05010KT 020V080 9999 BKN040 12/04 Q1022=
202109191050 METAR ESMX 191050Z 05008KT 020V100 9999 SCT034 BKN042 12/04 Q1022=
202109191020 METAR ESMX 191020Z 04011KT 020V080 9999 SCT025 BKN040 11/05 Q1023=
202109190950 METAR ESMX 190950Z 04010KT 010V080 9999 SCT025 BKN037 11/06 Q1023=
202109190920 METAR ESMX 190920Z 05008KT 010V100 9999 FEW025 BKN041 11/06 Q1023=
202109190850 METAR ESMX 190850Z 03010KT 340V060 9999 SCT024 BKN041 10/06 Q1023=
202109190820 METAR ESMX 190820Z 04010KT 350V070 9999 FEW013 SCT019 BKN026 11/07 Q1022=
202109190750 METAR ESMX 190750Z 02009KT 340V050 9999 SCT013 BKN048 09/07 Q1022=
202109190720 METAR ESMX 190720Z 01009KT 9999 FEW009 BKN042 09/07 Q1023=
202109190650 METAR ESMX 190650Z 01009KT 9999 FEW008 SCT012 BKN027 08/07 Q1022=
202109190620 METAR ESMX 190620Z 01008KT 9999 BKN007 08/07 Q1022=
202109190550 METAR COR ESMX 190550Z 01008KT 9999 BKN007 08/07 Q1022=
202109190520 METAR ESMX 190520Z AUTO 01009KT 9999 OVC011/// 08/07 Q1022=
202109190450 METAR ESMX 190450Z AUTO 01008KT 9999 FEW005/// OVC009/// 08/07 Q1022=
202109190420 METAR ESMX 190420Z AUTO 01010KT 9999 BKN009/// OVC041/// 08/07 Q1022=
202109190350 METAR ESMX 190350Z AUTO 02010KT 9999 SCT009/// OVC040/// 08/07 Q1022=
202109190320 METAR ESMX 190320Z AUTO 36009KT 9999 OVC044/// 08/06 Q1022=
202109190250 METAR ESMX 190250Z AUTO 01010KT 9999 SCT032/// OVC044/// 08/06 Q1022=
202109190220 METAR ESMX 190220Z AUTO 01008KT 9999 OVC034/// 07/06 Q1022=
202109190150 METAR ESMX 190150Z AUTO 01008KT 9999 SCT039/// 07/06 Q1022=
202109190120 METAR ESMX 190120Z AUTO 36008KT 9999 SCT041/// 07/05 Q1023=
202109190050 METAR ESMX 190050Z AUTO 01008KT 9999 FEW041/// 07/05 Q1023=
202109190020 METAR ESMX 190020Z AUTO 02008KT 9999 FEW043/// 08/05 Q1023=
202109182350 METAR ESMX 182350Z AUTO 02008KT 9999 OVC041/// 09/05 Q1023=
202109182320 METAR ESMX 182320Z AUTO 01006KT 9999 OVC040/// 09/06 Q1023=
202109182250 METAR ESMX 182250Z AUTO 01007KT 9999 OVC039/// 09/05 Q1023=
202109182220 METAR ESMX 182220Z AUTO 01007KT 9999 OVC040/// 09/06 Q1023=
202109182150 METAR ESMX 182150Z AUTO 01008KT 9999 OVC036/// 09/05 Q1023=
202109182120 METAR ESMX 182120Z AUTO 02006KT 9999 OVC033/// 09/05 Q1023=
202109182050 METAR ESMX 182050Z AUTO 03005KT 9999 OVC039/// 09/04 Q1023=
202109182020 METAR ESMX 182020Z AUTO 03007KT 9999 OVC036/// 09/04 Q1023=
202109181950 METAR ESMX 181950Z AUTO 01008KT 9999 OVC036/// 09/05 Q1023=
202109181920 METAR ESMX 181920Z 02008KT 9999 BKN035 09/05 Q1023=
202109181850 METAR ESMX 181850Z 01008KT 9999 BKN035 09/05 Q1023=
202109181820 METAR ESMX 181820Z 02009KT 9999 BKN034 09/04 Q1022=
202109181750 METAR ESMX 181750Z 03009KT 9999 BKN032 09/04 Q1022=
202109181720 METAR ESMX 181720Z 03008KT 9999 BKN033 09/04 Q1022=
202109181650 METAR ESMX 181650Z 03008KT 9999 BKN031 10/05 Q1022=
202109181620 METAR ESMX 181620Z 03007KT 350V060 9999 BKN034 10/06 Q1022=
202109181550 METAR ESMX 181550Z 03009KT 9999 FEW019 BKN031 10/06 Q1022=
202109181520 METAR COR ESMX 181520Z 04009KT 010V080 9999 BKN020 10/07 Q1022=
202109181450 METAR ESMX 181450Z AUTO 03010KT 9999 BKN021/// OVC027/// 10/06 Q1022=
202109181420 METAR ESMX 181420Z AUTO 03009KT 9999 BKN018/// OVC033/// 10/06 Q1022=
202109181350 METAR ESMX 181350Z AUTO 01010KT 9999 FEW021/// OVC036/// 10/07 Q1022=
202109181320 METAR ESMX 181320Z AUTO 02010KT 9999 SCT020/// OVC035/// 10/07 Q1022=
202109181250 METAR ESMX 181250Z AUTO 03010KT 9999 SCT022/// OVC037/// 11/06 Q1022=
202109181220 METAR ESMX 181220Z AUTO 03009KT 9999 OVC032/// 10/07 Q1022=
202109181150 METAR ESMX 181150Z AUTO 03009KT 9999 FEW019/// SCT024/// OVC031/// 11/07 Q1022=
202109181120 METAR ESMX 181120Z AUTO 03008KT 9999 SCT021/// OVC030/// 11/06 Q1022=
202109181050 METAR ESMX 181050Z AUTO 03010KT 9999 BKN022/// OVC032/// 11/07 Q1021=
202109181020 METAR ESMX 181020Z AUTO 03010KT 9999 SCT022/// OVC032/// 11/07 Q1021=
202109180950 METAR ESMX 180950Z AUTO 04009KT 020V090 9999 SCT019/// BKN023/// OVC032/// 11/07 Q1021=
202109180920 METAR ESMX 180920Z AUTO 04010KT 010V070 9999 SCT020/// OVC036/// 11/07 Q1021=
202109180850 METAR ESMX 180850Z 04010KT 9999 SCT018 BKN040 12/08 Q1021=
202109180820 METAR ESMX 180820Z 03010KT 360V060 9999 BKN018 11/08 Q1021=
202109180750 METAR ESMX 180750Z 03009KT 360V060 9999 FEW016 BKN036 11/08 Q1020=
202109180720 METAR ESMX 180720Z 04010KT 9999 FEW017 BKN036 11/08 Q1020=
202109180650 METAR COR ESMX 180650Z 04011KT 020V080 CAVOK 11/08 Q1020=
202109180620 METAR COR ESMX 180620Z 05007KT 010V090 9999 FEW012 11/09 Q1019=
202109180550 METAR ESMX 180550Z AUTO 04010KT 9999 BKN010/// 10/09 Q1019=
202109180520 METAR ESMX 180520Z AUTO 04008KT 9999 SCT009/// 10/09 Q1019=
202109180450 METAR ESMX 180450Z AUTO 04007KT 020V080 9999 NCD 10/09 Q1019=
202109180420 METAR ESMX 180420Z AUTO 05008KT 9999 FEW010/// SCT012/// 10/09 Q1019=
202109180350 METAR ESMX 180350Z AUTO 04010KT 9999 OVC011/// 11/09 Q1019=
202109180320 METAR ESMX 180320Z AUTO 04009KT 9999 BKN012/// OVC017/// 11/10 Q1019=
202109172350 METAR ESMX 172350Z AUTO 04010KT 9999 OVC009/// 11/10 Q1018=
202109172320 METAR ESMX 172320Z AUTO 04011KT 020V080 9999 OVC009/// 11/10 Q1018=
202109172250 METAR ESMX 172250Z AUTO 04010KT 360V080 9999 OVC009/// 11/10 Q1018=
202109172220 METAR ESMX 172220Z AUTO 04010KT 9999 OVC008/// 11/10 Q1017=
202109172150 METAR ESMX 172150Z AUTO 04012KT 9999 OVC009/// 11/10 Q1017=
202109172120 METAR ESMX 172120Z AUTO 04011KT 010V080 9999 OVC009/// 11/10 Q1017=
202109172050 METAR ESMX 172050Z AUTO 04013KT 010V070 9999 OVC009/// 11/10 Q1017=
202109172020 METAR ESMX 172020Z AUTO 04013KT 010V080 9999 OVC009/// 11/10 Q1017=
202109171950 METAR ESMX 171950Z AUTO 04011KT 9999 OVC010/// 11/10 Q1017=
202109171920 METAR ESMX 171920Z AUTO 04012KT 010V090 9999 OVC010/// 11/10 Q1017=
202109171850 METAR ESMX 171850Z AUTO 04011KT 010V080 9999 OVC009/// 11/10 Q1016=
202109171820 METAR ESMX 171820Z AUTO 05012KT 020V110 9999 OVC008/// 11/10 Q1016=
202109171750 METAR ESMX 171750Z AUTO 04012KT 010V080 9999 OVC008/// 11/10 Q1016=
202109171720 METAR ESMX 171720Z AUTO 04013KT 020V080 9999 OVC007/// 11/10 Q1016=
202109171650 METAR ESMX 171650Z AUTO 04014KT 020V080 9999 OVC007/// 11/10 Q1015=
202109171620 METAR ESMX 171620Z AUTO 04013KT 9999 OVC009/// 12/10 Q1015=
202109171550 METAR ESMX 171550Z AUTO 04013KT 350V060 9999 OVC010/// 12/10 Q1015=
202109171520 METAR ESMX 171520Z AUTO 04013KT 9999 OVC011/// 12/10 Q1015=
202109171450 METAR ESMX 171450Z AUTO 04012KT 9999 OVC011/// 13/11 Q1014=
202109171420 METAR ESMX 171420Z AUTO 04012G24KT 9999 SCT010/// OVC014/// 13/11 Q1014=
202109171350 METAR ESMX 171350Z AUTO 04012KT 9999 OVC012/// 13/11 Q1014=
202109171320 METAR ESMX 171320Z AUTO 04012KT 010V070 9999 OVC011/// 13/11 Q1014=
202109171250 METAR ESMX 171250Z 04014KT 020V080 9999 BKN010 14/12 Q1013=
202109171220 METAR ESMX 171220Z 04016KT 010V070 9999 BKN009 13/12 Q1013=
202109171150 METAR ESMX 171150Z 04014KT 9999 BKN010 14/12 Q1013=
202109171120 METAR ESMX 171120Z 04012KT 9999 BKN010 13/12 Q1013=
202109171050 METAR ESMX 171050Z 02012KT 9999 BKN010 13/12 Q1012=
202109171020 METAR ESMX 171020Z 03012KT 9999 BKN009 13/12 Q1012=
202109170950 METAR ESMX 170950Z 04012KT 9999 BKN009 13/12 Q1012=
202109170920 METAR ESMX 170920Z 03012KT 9999 BKN009 13/13 Q1012=
202109170850 METAR ESMX 170850Z 04012KT 010V070 9999 BKN009 13/13 Q1011=
202109170820 METAR ESMX 170820Z 04012KT 9999 OVC007 13/13 Q1011=
202109170750 METAR ESMX 170750Z 04011KT 8000 -DZ OVC006 13/13 Q1011=
202109170720 METAR ESMX 170720Z 04011KT 5000 -DZ OVC005 13/13 Q1010=
202109170650 METAR ESMX 170650Z 03011KT 7000 -DZ OVC006 13/13 Q1010=
202109170620 METAR ESMX 170620Z 04011KT 7000 -DZ FEW002 OVC005 13/13 Q1010=
202109170550 METAR ESMX 170550Z AUTO 03011KT 9999 -RA OVC005/// 13/13 Q1010 REDZ=
202109170520 METAR ESMX 170520Z AUTO 04013KT 9999 DZ OVC006/// 13/13 Q1009=
202109170450 METAR ESMX 170450Z AUTO 04012KT 9999 -RA FEW002/// BKN005/// OVC030/// 13/13 Q1009 RESHRA=
202109170420 METAR ESMX 170420Z AUTO 04011KT 9999 -DZ OVC005/// 13/13 Q1009 RERA=
202109170350 METAR ESMX 170350Z AUTO 04010KT 010V070 9999 OVC006/// 13/13 Q1009=
202109170320 METAR ESMX 170320Z AUTO 04011KT 9999 -RA BKN007/// OVC076/// 13/13 Q1009=
202109170250 METAR ESMX 170250Z AUTO 04010KT 9999 -RA OVC006/// 13/13 Q1008=
202109170220 METAR ESMX 170220Z AUTO 04008KT 010V080 9999 DZ OVC006/// 13/13 Q1008=
202109170150 METAR ESMX 170150Z AUTO 04008KT 9999 DZ OVC007/// 13/13 Q1009=
202109170120 METAR ESMX 170120Z AUTO 05008KT 020V080 9999 OVC007/// 13/13 Q1008=
202109170050 METAR ESMX 170050Z AUTO 04008KT 020V080 9999 OVC007/// 13/13 Q1008=
202109170020 METAR ESMX 170020Z AUTO 05007KT 9999 OVC007/// 13/13 Q1008 REDZ=
202109162350 METAR ESMX 162350Z AUTO 06007KT 8000 BR OVC007/// 13/13 Q1008=
202109162320 METAR ESMX 162320Z AUTO 05006KT 020V080 5000 BR VV007 13/13 Q1008 REDZ=
202109162250 METAR ESMX 162250Z AUTO 06006KT 4100 -DZ VV005 13/13 Q1008 REDZ=
202109162220 METAR ESMX 162220Z AUTO 06006KT 020V080 3600 DZ BKN005/// OVC007/// 13/13 Q1008=
202109162150 METAR ESMX 162150Z AUTO 05007KT 020V100 4700 -DZ VV005 13/13 Q1008=
202109162120 METAR ESMX 162120Z AUTO 06006KT 030V100 3300 DZ VV005 13/13 Q1008 REDZ=
202109162050 METAR ESMX 162050Z AUTO 07006KT 030V100 3900 -DZ VV006 14/14 Q1008=
202109162020 METAR ESMX 162020Z AUTO 06007KT 030V100 2400 -RA BKN005/// BKN008/// OVC010/// 14/14 Q1008=
202109161950 METAR ESMX 161950Z AUTO 06007KT 030V110 5000 -RA OVC005/// 14/14 Q1008 REDZ=
202109161920 METAR ESMX 161920Z AUTO 06006KT 010V100 6000 BR OVC005/// 14/14 Q1007=
202109161850 METAR ESMX 161850Z AUTO 06006KT 020V100 5000 DZ BKN006/// OVC009/// 14/14 Q1007 REDZ=
202109161820 METAR ESMX 161820Z AUTO 06006KT 020V080 5000 BR OVC006/// 13/13 Q1007=
202109161750 METAR ESMX 161750Z 06006KT 5000 -DZ OVC007 13/13 Q1007=
202109161720 METAR ESMX 161720Z 06006KT 020V110 4500 DZ OVC005 13/13 Q1007=
202109161650 METAR ESMX 161650Z 06006KT 020V100 3900 DZ OVC005 14/14 Q1007=
202109161620 METAR ESMX 161620Z 06007KT 020V110 4500 -DZ OVC005 14/14 Q1007=
202109161550 METAR ESMX 161550Z 06007KT 020V110 4400 -DZ OVC006 14/14 Q1007=
202109161520 METAR ESMX 161520Z 06007KT 030V110 5000 -DZ OVC006 14/14 Q1007=
202109161450 METAR ESMX 161450Z 06007KT 020V100 5000 -DZ FEW002 OVC006 14/14 Q1007=
202109161420 METAR ESMX 161420Z 06008KT 020V110 3800 -DZ OVC006 14/14 Q1007=
202109161350 METAR COR ESMX 161350Z 06007KT 020V100 4500 DZ OVC005 14/14 Q1007=
202109161320 METAR ESMX 161320Z AUTO 04008KT 350V080 5000 DZ BKN006/// OVC008/// 14/14 Q1007 RERA=
202109161250 METAR ESMX 161250Z 04008KT 340V070 5000 BR OVC007 14/13 Q1007=
202109161220 METAR ESMX 161220Z 04010KT 020V100 5000 -DZ OVC008 13/13 Q1008=
202109161150 METAR ESMX 161150Z 05010KT 020V090 8000 -DZ BKN008 14/13 Q1008=
202109161120 METAR ESMX 161120Z 05008KT 010V100 5000 -DZ FEW002 OVC007 13/13 Q1008=
202109161050 METAR ESMX 161050Z 05010KT 7000 -DZ OVC007 13/13 Q1009=
202109161020 METAR ESMX 161020Z 05009KT 010V090 9000 -DZ BKN007 13/13 Q1009=
202109160950 METAR ESMX 160950Z 06010KT 020V100 9999 BKN007 13/12 Q1009=
202109160920 METAR ESMX 160920Z 05010KT 010V090 9999 BKN007 13/12 Q1009=
202109160850 METAR COR ESMX 160850Z 06011KT 030V100 9000 BKN006 13/12 Q1009=
202109160820 METAR ESMX 160820Z 06010KT 020V110 7000 BKN006 13/12 Q1009=
202109160750 METAR ESMX 160750Z 07008KT 020V110 5000 DZ BKN006 13/12 Q1010=
202109160720 METAR COR ESMX 160720Z 07009KT 020V110 6000 BR -DZ BKN006 13/12 Q1010=
202109160650 METAR ESMX 160650Z 06010KT 020V110 6000 -DZ BKN007 13/12 Q1010=
202109160620 METAR ESMX 160620Z 07009G20KT 030V110 9999 BKN009 13/12 Q1010=
202109160550 METAR ESMX 160550Z 07010KT 030V130 9999 BKN009 13/12 Q1010=
202109160520 METAR ESMX 160520Z 07009KT 030V110 9999 BKN010 12/12 Q1010=
202109160450 METAR ESMX 160450Z 07009KT 340V120 9999 BKN009 12/12 Q1010=
202109160420 METAR ESMX 160420Z 08009KT 040V120 9999 RA BKN009 12/12 Q1011=
202109160350 METAR ESMX 160350Z 08009KT 040V110 9999 -RA BKN010 13/12 Q1011=
202109160320 METAR ESMX 160320Z AUTO 07009KT 030V120 9999 BKN011/// OVC014/// 13/12 Q1011=
202109160250 METAR ESMX 160250Z AUTO 07008KT 030V110 9999 -DZ OVC010/// 13/12 Q1012 RERA=
202109160220 METAR ESMX 160220Z AUTO 07007G18KT 020V120 9999 BKN009/// OVC013/// 13/12 Q1012=
202109160150 METAR ESMX 160150Z AUTO 07008KT 020V110 9999 -RA BKN008/// BKN009/// OVC014/// 13/12 Q1012=
202109160120 METAR ESMX 160120Z AUTO 07008KT 040V120 9999 RA BKN007/// OVC011/// 12/12 Q1013=
202109160050 METAR ESMX 160050Z AUTO 06008KT 030V110 9999 RA SCT007/// BKN017/// OVC051/// 12/12 Q1013=
202109160020 METAR ESMX 160020Z AUTO 07008KT 030V110 9000 RA FEW002/// SCT006/// BKN041/// 12/12 Q1014=
202109152350 METAR ESMX 152350Z AUTO 07008KT 020V110 9999 RA FEW006/// OVC057/// 12/12 Q1014=
202109152320 METAR ESMX 152320Z AUTO 07007KT 010V100 9999 RA OVC061/// 12/12 Q1014=
202109152250 METAR ESMX 152250Z AUTO 07007KT 9999 -RA OVC066/// 12/11 Q1015=
202109152220 METAR ESMX 152220Z AUTO 08007KT 030V110 9999 -RA OVC074/// 12/11 Q1015=
202109152150 METAR ESMX 152150Z AUTO 08006KT 030V120 9999 RA OVC080/// 12/11 Q1015=
202109152120 METAR ESMX 152120Z AUTO 08007KT 040V130 9999 -RA OVC090/// 13/10 Q1015=
202109152050 METAR ESMX 152050Z AUTO 08007KT 020V130 9999 OVC092/// 13/10 Q1015=
202109152020 METAR ESMX 152020Z AUTO 09007KT 020V120 9999 OVC098/// 13/11 Q1015=
202109151950 METAR ESMX 151950Z AUTO 08007KT 020V140 9999 FEW016/// OVC098/// 13/11 Q1015=
202109151920 METAR ESMX 151920Z 08008KT 020V140 9999 SCT017 14/11 Q1015=
202109151850 METAR ESMX 151850Z AUTO 08006KT 030V120 9999 SCT017/// OVC130/// 14/11 Q1015=
202109151820 METAR ESMX 151820Z AUTO 08007KT 020V120 9999 BKN019/// OVC130/// 14/11 Q1016=
202109151750 METAR COR ESMX 151750Z 08006KT 040V130 9999 FEW019 14/10 Q1016=
202109151720 METAR ESMX 151720Z 09006KT 030V120 CAVOK 14/09 Q1016=
202109151650 METAR ESMX 151650Z 11007KT 050V140 CAVOK 15/08 Q1016=
202109151620 METAR ESMX 151620Z 11006KT 050V150 CAVOK 16/09 Q1016=
202109151550 METAR ESMX 151550Z 11005KT 050V160 CAVOK 17/10 Q1016=
202109151520 METAR ESMX 151520Z 11006KT 070V140 9999 FEW035 17/09 Q1016=
202109151450 METAR ESMX 151450Z 10007KT 030V140 9999 FEW030 18/09 Q1016=
202109151420 METAR ESMX 151420Z 08006KT 020V110 9999 FEW035 BKN051 18/11 Q1016=
202109151350 METAR ESMX 151350Z 10006KT 050V150 9999 BKN032 19/11 Q1016=
202109151320 METAR ESMX 151320Z VRB06KT 9999 FEW031 BKN051 18/11 Q1017=
202109151250 METAR ESMX 151250Z 10006KT 050V120 9999 SCT048 18/12 Q1017=
202109151220 METAR ESMX 151220Z 09005KT 040V150 9999 SCT031 18/11 Q1017=
202109151150 METAR ESMX 151150Z 12006KT 060V160 9999 FEW031 SCT041 19/11 Q1017=
202109151120 METAR ESMX 151120Z 12007KT 080V160 9999 SCT030 18/11 Q1017=
202109151050 METAR ESMX 151050Z 13007KT 090V150 9999 BKN027 18/12 Q1018=
202109151020 METAR ESMX 151020Z 12006KT 050V200 9999 SCT026 BKN031 18/12 Q1018=
202109150950 METAR ESMX 150950Z 11005KT 070V170 9999 SCT023 BKN200 17/12 Q1018=
202109150920 METAR ESMX 150920Z 12005KT 050V150 9999 SCT016 BKN180 17/13 Q1018=
202109150850 METAR ESMX 150850Z 12005KT 9999 SCT017 16/13 Q1018=
202109150820 METAR ESMX 150820Z 11005KT 040V120 9999 FEW013 16/13 Q1018=
202109150750 METAR ESMX 150750Z 17004KT CAVOK 14/14 Q1018=
202109150720 METAR ESMX 150720Z 23003KT 9999 FEW003 13/13 Q1018=
202109150650 METAR ESMX 150650Z 23004KT 9999 SCT002 BKN012 12/12 Q1018=
202109150620 METAR ESMX 150620Z 23004KT 5000 BR OVC002 12/12 Q1018=
202109150550 METAR ESMX 150550Z AUTO 23003KT 0200 R01/0400N R19/0700N FG VV001 11/11 Q1018=
202109150520 METAR ESMX 150520Z AUTO VRB02KT 0100 R01/0275N R19/0275N FG VV001 11/11 Q1018=
202109150450 METAR ESMX 150450Z AUTO VRB03KT 0100 R01/0300N R19/0400N FG VV001 11/11 Q1018=
202109150420 METAR ESMX 150420Z AUTO 02004KT 0100 R01/0350N R19/0450N FG VV001 10/10 Q1018=
202109150350 METAR ESMX 150350Z AUTO 00000KT 0050 R01/0250N R19/0200N FG VV001 10/10 Q1018=
202109150320 METAR ESMX 150320Z AUTO 00000KT 0050 R01/0200N R19/0200N FG VV001 09/09 Q1018=
202109150250 METAR ESMX 150250Z AUTO 20002KT 0050 R01/0175N R19/0250N FG VV001 09/09 Q1018=
202109150220 METAR ESMX 150220Z AUTO 00000KT 0100 R01/0325N R19/0450N FG VV000 08/08 Q1018=
202109150150 METAR ESMX 150150Z AUTO 00000KT 0100 R01/0450N R19/0350N FG VV000 07/07 Q1018=
202109150120 METAR ESMX 150120Z AUTO 00000KT 0300 R01/P2000D R19/P2000N BCFG SCT001/// 07/07 Q1018=
202109150050 METAR ESMX 150050Z AUTO 00000KT 9999 BCFG FEW001/// 07/07 Q1018=
202109150020 METAR ESMX 150020Z AUTO 18002KT 0150 R01/0600N R19/1600N BCFG NCD 08/08 Q1018=
202109142350 METAR ESMX 142350Z AUTO 14002KT 9999 BCFG NCD 08/08 Q1018=
202109142320 METAR ESMX 142320Z AUTO VRB02KT 0350 R01/1200N R19/P2000N BCFG NCD 10/10 Q1018=
202109142250 METAR ESMX 142250Z AUTO 23004KT 9999 BKN057/// 10/10 Q1018=
202109142220 METAR ESMX 142220Z AUTO 23003KT 9999 OVC057/// 09/09 Q1018=
202109142150 METAR ESMX 142150Z AUTO 23003KT 9999 BKN059/// 10/10 Q1018=
202109142120 METAR ESMX 142120Z AUTO 16001KT 9999 BKN043/// 09/09 Q1018=
202109142050 METAR ESMX 142050Z AUTO 00000KT 9999 OVC041/// 11/11 Q1018=
202109142020 METAR ESMX 142020Z AUTO 23002KT 9999 NCD 10/10 Q1018=
202109141950 METAR ESMX 141950Z AUTO 23002KT 9999 NCD 10/10 Q1018=
202109141920 METAR ESMX 141920Z AUTO 16002KT 9999 BR FEW062/// 11/11 Q1018=
202109141850 METAR ESMX 141850Z AUTO 00000KT 9999 BKN036/// 12/12 Q1018=
202109141820 METAR ESMX 141820Z AUTO 00000KT 9999 SCT038/// OVC061/// 13/13 Q1018=
202109141750 METAR ESMX 141750Z AUTO 00000KT 9999 -RA OVC061/// 13/12 Q1018=
202109141720 METAR ESMX 141720Z AUTO 23002KT 9999 SCT037/// BKN062/// 15/13 Q1018=
202109141650 METAR ESMX 141650Z 21004KT 9999 SCT036 BKN061 16/13 Q1018=
202109141620 METAR ESMX 141620Z 21006KT CAVOK 16/13 Q1018=
202109141550 METAR ESMX 141550Z 21008KT 9999 FEW036 BKN057 18/13 Q1018=
202109141520 METAR ESMX 141520Z 20005KT CAVOK 19/11 Q1018=
202109141450 METAR ESMX 141450Z 20005KT CAVOK 19/11 Q1018=
202109141420 METAR ESMX 141420Z 24004KT CAVOK 19/10 Q1018=
202109141350 METAR ESMX 141350Z 18003KT 140V240 9999 SCT026 19/11 Q1018=
202109141320 METAR ESMX 141320Z 18003KT 130V240 9999 SCT022 19/12 Q1018=
202109141250 METAR ESMX 141250Z 23004KT 9999 SCT020 17/12 Q1018=
202109141220 METAR ESMX 141220Z 23002KT 9999 SCT008 17/13 Q1019=
202109141150 METAR ESMX 141150Z 26005KT 190V310 9999 BKN008 15/13 Q1019=
202109141120 METAR ESMX 141120Z 19004KT 9999 BKN007 15/13 Q1019=
202109141050 METAR ESMX 141050Z 18005KT 9999 BKN006 14/13 Q1019=
202109141020 METAR ESMX 141020Z 19004KT 150V240 9999 BKN006 14/13 Q1019=
202109140950 METAR ESMX 140950Z 19004KT 9999 OVC005 14/13 Q1019=
202109140920 METAR ESMX 140920Z 20003KT 150V240 8000 OVC004 13/13 Q1019=
202109140850 METAR ESMX 140850Z VRB02KT 7000 BR OVC003 12/12 Q1019=
202109140820 METAR ESMX 140820Z 17002KT 5000 BR OVC002 12/12 Q1019=
202109140750 METAR COR ESMX 140750Z 13002KT 0600 R01/1200U R19/0750N FG VV002 11/11 Q1018=
202109140720 METAR COR ESMX 140720Z 13003KT 0500 R01/0450N R19/0700N FG VV002 12/12 Q1018=
202109140650 METAR ESMX 140650Z AUTO 21004KT 0200 R01/0400N R19/0600N FG OVC001/// 11/11 Q1018=
202109140620 METAR COR ESMX 140620Z 12004KT 0300 R01/0500N R19/0750N FG VV002 11/11 Q1018=
202109140550 METAR ESMX 140550Z AUTO 20003KT 0250 R01/0500N R19/0700N FG BKN001/// OVC002/// 11/11 Q1018=
202109140520 METAR ESMX 140520Z 12003KT 0300 R01/0800N R19/0650N FG VV002 11/11 Q1018=
202109140450 METAR ESMX 140450Z 00000KT 0100 R01/0400N R19/0400N FG VV001 11/11 Q1018=
202109140420 METAR ESMX 140420Z VRB01KT 0100 R01/0375N R19/0450N FG VV001 11/11 Q1018=
202109140350 METAR ESMX 140350Z AUTO 00000KT 0100 R01/0450N R19/0500N FG VV001 11/11 Q1018=
202109140320 METAR ESMX 140320Z AUTO 12002KT 0200 R01/0700N R19/0650N FG VV002 11/11 Q1018=
202109140250 METAR ESMX 140250Z AUTO VRB02KT 0250 R01/0750N R19/1100N FG BKN001/// OVC002/// 11/11 Q1018=
202109140220 METAR ESMX 140220Z AUTO VRB02KT 0400 R01/1200U R19/1900D FG OVC001/// 11/11 Q1017=
202109140150 METAR ESMX 140150Z AUTO 11003KT 0900 R01/P2000N R19/P2000N OVC001/// 11/11 Q1018=
202109140120 METAR ESMX 140120Z AUTO 11003KT 1700 OVC001/// 12/12 Q1017=
202109140050 METAR ESMX 140050Z AUTO VRB01KT 0400 R01/1100N R19/1800N FG OVC001/// 11/11 Q1017=
202109140020 METAR ESMX 140020Z AUTO 11003KT 0200 R01/0700N R19/0650N FG VV002 11/11 Q1018=
202109132350 METAR ESMX 132350Z AUTO 00000KT 0150 R01/0600N R19/0750N FG VV002 11/11 Q1017=
202109132320 METAR ESMX 132320Z AUTO 22002KT 0150 R01/0500N R19/0600N FG BKN001/// OVC002/// 11/11 Q1018=
202109132250 METAR ESMX 132250Z AUTO 11003KT 0200 R01/0650N R19/0650N FG VV002 11/11 Q1018=
202109132220 METAR ESMX 132220Z AUTO 11002KT 0150 R01/0500N R19/0500N FG VV001 10/10 Q1018=
202109132150 METAR ESMX 132150Z AUTO 11002KT 0100 R01/0400N R19/0400N FG VV001 09/09 Q1017=
202109132120 METAR ESMX 132120Z AUTO 15002KT 0250 R01/0650N R19/P2000N FG BKN001/// 08/08 Q1017=
202109132050 METAR ESMX 132050Z AUTO 10002KT 9999 NCD 07/07 Q1017=
202109132020 METAR ESMX 132020Z AUTO 18001KT 9999 BR NCD 08/08 Q1017=
202109131950 METAR ESMX 131950Z AUTO 18002KT 9999 NCD 09/09 Q1017=
202109131920 METAR ESMX 131920Z AUTO 00000KT 9999 NCD 10/10 Q1017=
202109131850 METAR ESMX 131850Z AUTO 07002KT 9999 NCD 10/09 Q1017=
202109131820 METAR ESMX 131820Z AUTO 33002KT 9999 NCD 10/10 Q1017=
202109131750 METAR ESMX 131750Z AUTO 36002KT 9999 NCD 11/09 Q1016=
202109131720 METAR ESMX 131720Z AUTO 01003KT 9999 NCD 14/10 Q1016=
202109131650 METAR ESMX 131650Z AUTO 02005KT 9999 NCD 15/10 Q1016=
202109131620 METAR ESMX 131620Z AUTO 02004KT 9999 NCD 17/10 Q1016=
202109131550 METAR ESMX 131550Z AUTO 02004KT 9999 NCD 18/09 Q1016=
202109131520 METAR ESMX 131520Z AUTO 02004KT 350V070 9999 NCD 18/09 Q1016=
202109131450 METAR ESMX 131450Z AUTO 01005KT 340V050 9999 NCD 19/10 Q1016=
202109131420 METAR ESMX 131420Z AUTO 33006KT 290V010 9999 NCD 18/10 Q1016=
202109131350 METAR ESMX 131350Z 36006KT 9999 SCT035 18/11 Q1016=
202109131320 METAR ESMX 131320Z 36007KT 330V030 9999 FEW033 19/11 Q1016=
202109131250 METAR ESMX 131250Z 32005KT 290V360 9999 FEW032 19/11 Q1016=
202109131220 METAR ESMX 131220Z 33003KT 9999 FEW028 18/12 Q1016=
202109131150 METAR ESMX 131150Z 02005KT 350V080 9999 FEW015 18/11 Q1015=
202109131120 METAR ESMX 131120Z 01004KT 320V050 9999 FEW035 17/11 Q1015=
202109131050 METAR ESMX 131050Z 36005KT 330V050 9999 FEW034 16/11 Q1015=
202109131020 METAR ESMX 131020Z 01006KT 9999 FEW019 SCT045 15/12 Q1015=
202109130950 METAR ESMX 130950Z 36006KT 330V030 9999 FEW011 BKN015 15/12 Q1015=
202109130920 METAR ESMX 130920Z 01009KT 9999 BKN011 15/12 Q1015=
202109130850 METAR ESMX 130850Z 35009KT 9999 BKN007 15/13 Q1014=
202109130820 METAR ESMX 130820Z 34008KT 9999 BKN010 15/14 Q1014=
202109130750 METAR ESMX 130750Z 33007KT 290V360 9999 SCT005 BKN008 15/15 Q1013=
202109130720 METAR ESMX 130720Z 30005KT 9000 BR OVC004 14/14 Q1013=
202109130650 METAR ESMX 130650Z AUTO 29005KT 250V310 4800 BR OVC003/// 14/14 Q1013=
202109130620 METAR ESMX 130620Z AUTO 29005KT 7000 BR OVC003/// 14/14 Q1012=
202109130550 METAR ESMX 130550Z AUTO 27006KT 9000 BR OVC004/// 14/14 Q1012=
202109130520 METAR ESMX 130520Z AUTO 26005KT 9999 OVC005/// 14/14 Q1012=
202109130450 METAR ESMX 130450Z AUTO 27005KT 9999 OVC005/// 14/14 Q1011=
202109130420 METAR ESMX 130420Z AUTO 26005KT 230V300 9999 BKN006/// OVC008/// 14/14 Q1011=
202109130350 METAR ESMX 130350Z AUTO 25006KT 9999 OVC009/// 14/13 Q1011=
202109130320 METAR ESMX 130320Z AUTO 25005KT 9999 OVC009/// 14/13 Q1011=
202109130250 METAR ESMX 130250Z AUTO 26005KT 9999 SCT011/// BKN034/// 14/13 Q1011=
202109130220 METAR ESMX 130220Z AUTO 26005KT 9999 FEW031/// BKN038/// 14/13 Q1011=
202109130150 METAR ESMX 130150Z AUTO 27006KT 240V300 9999 FEW016/// 14/14 Q1011=
202109130120 METAR ESMX 130120Z AUTO 27007KT 230V300 9999 SCT031/// 14/14 Q1010=
202109130050 METAR ESMX 130050Z AUTO 28007KT 250V320 9999 FEW009/// 14/14 Q1010=
202109130020 METAR ESMX 130020Z AUTO 26008KT 6000 BR FEW010/// 14/14 Q1010 REDZ=
202109122350 METAR ESMX 122350Z AUTO 25006KT 9999 SCT006/// BKN009/// BKN015/// 15/14 Q1010=
202109122320 METAR ESMX 122320Z AUTO 26008KT 9999 FEW006/// SCT009/// BKN028/// 15/14 Q1010=
202109122250 METAR ESMX 122250Z AUTO 24008KT 9999 FEW009/// SCT011/// OVC033/// 15/14 Q1010=
202109122220 METAR ESMX 122220Z AUTO 24007KT 9999 FEW008/// SCT012/// BKN018/// 15/15 Q1010=
202109122150 METAR ESMX 122150Z AUTO 24007KT 9999 FEW009/// SCT021/// OVC031/// 15/15 Q1010=
202109122120 METAR ESMX 122120Z AUTO 22006KT 9999 BKN009/// OVC030/// 15/15 Q1010=
202109122050 METAR ESMX 122050Z AUTO 23007KT 9999 OVC026/// 15/15 Q1010=
202109122020 METAR ESMX 122020Z AUTO 22008KT 9999 OVC028/// 15/15 Q1009=
202109121950 METAR ESMX 121950Z AUTO 23008KT 9999 SCT010/// 15/15 Q1010=
202109121920 METAR ESMX 121920Z AUTO 23007KT 9999 SCT010/// BKN024/// 15/15 Q1009=
202109121850 METAR ESMX 121850Z AUTO 23007KT 9999 SCT014/// BKN019/// BKN068/// 15/15 Q1009=
202109121820 METAR ESMX 121820Z AUTO 23009KT 9999 SCT057/// BKN066/// 15/15 Q1009=
202109121750 METAR ESMX 121750Z 24007KT 9999 FEW010 BKN038 16/15 Q1009=
202109121720 METAR ESMX 121720Z 24006KT 9999 VCSH SCT009 BKN014 16/15 Q1009=
202109121650 METAR ESMX 121650Z 24007KT 9999 VCSH FEW007 BKN011 16/15 Q1009=
202109121620 METAR ESMX 121620Z 24008KT 9999 VCSH SCT012 BKN025 16/15 Q1009=
202109121550 METAR ESMX 121550Z 23008KT 190V260 3600 SHRA FEW008 SCT014CB BKN027 15/15 Q1009=
202109121520 METAR ESMX 121520Z 24011KT 8000 BR FEW005 SCT022CB BKN029 16/15 Q1009=
202109121450 METAR ESMX 121450Z 24010KT 9999 FEW028 BKN055 17/14 Q1009=
202109121420 METAR ESMX 121420Z 25011KT CAVOK 18/13 Q1009=
202109121350 METAR ESMX 121350Z AUTO 25011KT 9999 NCD 20/14 Q1009=
202109121320 METAR ESMX 121320Z 24009KT 220V280 9999 SCT019 19/15 Q1009=
202109121250 METAR ESMX 121250Z 22010KT 190V260 9999 FEW016 SCT022 BKN082 19/16 Q1009=
202109121220 METAR ESMX 121220Z 25010KT 9999 FEW017 SCT038 BKN078 18/16 Q1009=
202109121150 METAR ESMX 121150Z 23009KT 9999 SCT013 BKN078 18/17 Q1009=
202109121120 METAR ESMX 121120Z 25008KT 9999 SCT012 SCT078 18/17 Q1009=
202109121050 METAR ESMX 121050Z 25007KT 230V290 9999 SCT013 BKN053 17/17 Q1009=
202109121020 METAR ESMX 121020Z 22007KT 9999 BKN009 BKN019 18/17 Q1009=
202109120950 METAR ESMX 120950Z 21008KT 9999 SCT009 BKN021 BKN038 17/17 Q1010=
202109120920 METAR ESMX 120920Z 22005KT 9999 FEW006 SCT017 BKN038 17/17 Q1009 RERA REDZ=
202109120850 METAR ESMX 120850Z 21007KT 9999 BKN008 BKN019 18/17 Q1009=
202109120820 METAR ESMX 120820Z 23007KT 9999 BKN019 17/17 Q1009=
202109120750 METAR ESMX 120750Z 22008KT 9999 FEW005 SCT029 BKN059 16/16 Q1009=
202109120720 METAR ESMX 120720Z 23009KT 9999 -RA FEW024 SCT048 BKN068 16/15 Q1009=
202109120650 METAR ESMX 120650Z 23010KT 8000 RA SCT004 BKN015 BKN072 16/16 Q1009=
202109120620 METAR ESMX 120620Z 21007KT 6000 -RA BKN005 BKN008 17/17 Q1009=
202109120550 METAR ESMX 120550Z 21007KT 6000 BR BKN005 17/17 Q1009 REDZ=
202109120520 METAR ESMX 120520Z AUTO 21007KT 7000 BR BKN005/// OVC007/// 17/17 Q1009=
202109120450 METAR ESMX 120450Z AUTO 21007KT 6000 BR FEW002/// BKN005/// OVC010/// 17/17 Q1009 REDZ=
202109120420 METAR ESMX 120420Z AUTO 22005KT 7000 BR SCT008/// BKN012/// 16/16 Q1009=
202109120350 METAR ESMX 120350Z AUTO 18005KT 6000 BR SCT003/// BKN012/// BKN020/// 17/17 Q1009=
202109120320 METAR ESMX 120320Z AUTO 22004KT 5000 BR OVC004/// 17/17 Q1010=
202109120250 METAR ESMX 120250Z AUTO 22004KT 5000 BR SCT005/// BKN014/// BKN024/// 17/17 Q1010=
202109120220 METAR ESMX 120220Z AUTO 22005KT 5000 BR BKN005/// BKN015/// OVC030/// 17/17 Q1010 REDZ=
202109120150 METAR ESMX 120150Z AUTO 22006KT 5000 BR BKN004/// OVC006/// 17/17 Q1010=
202109120120 METAR ESMX 120120Z AUTO 22007KT 6000 BR BKN005/// BKN009/// OVC038/// 16/16 Q1010=
202109120050 METAR ESMX 120050Z AUTO 22007KT 4100 RA BKN004/// OVC038/// 16/16 Q1010 RERA=
202109120020 METAR ESMX 120020Z AUTO 20007KT 5000 BR BKN003/// OVC009/// 16/16 Q1010=
202109112350 METAR ESMX 112350Z AUTO 21006KT 5000 -RA BKN003/// BKN008/// OVC017/// 16/16 Q1011 RERA=
202109112320 METAR ESMX 112320Z AUTO 19004KT 7000 BR SCT003/// BKN009/// BKN016/// 16/16 Q1011=
202109112250 METAR ESMX 112250Z AUTO 21005KT 9000 BR SCT003/// BKN006/// 16/16 Q1011 RERA=
202109112220 METAR ESMX 112220Z AUTO 21006KT 9999 RA FEW008/// BKN010/// BKN020/// 16/16 Q1011 REDZ=
202109112150 METAR ESMX 112150Z AUTO 22004KT 9999 FEW013/// SCT021/// BKN042/// 16/16 Q1011=
202109112120 METAR ESMX 112120Z AUTO 22005KT 9999 OVC016/// 16/16 Q1011=
202109112050 METAR ESMX 112050Z AUTO 19003KT 9999 SCT017/// BKN098/// 16/16 Q1011=
202109112020 METAR ESMX 112020Z AUTO 23003KT 9999 FEW032/// 15/15 Q1012=
202109111950 METAR ESMX 111950Z 19005KT 9999 FEW029 SCT046 BKN100 16/15 Q1012=
202109111920 METAR ESMX 111920Z 23005KT CAVOK 16/15 Q1012=
202109111850 METAR ESMX 111850Z 23003KT CAVOK 15/15 Q1011=
202109111820 METAR ESMX 111820Z 23003KT 9999 FEW020 16/15 Q1011=
202109111750 METAR ESMX 111750Z 23003KT 9999 FEW020 16/15 Q1011=
202109111720 METAR ESMX 111720Z 24006KT 9999 FEW022 18/15 Q1011=
202109111650 METAR ESMX 111650Z 24006KT 210V270 9999 FEW038 19/15 Q1011=
202109111620 METAR ESMX 111620Z 25007KT 220V280 9999 FEW023 SCT038 19/15 Q1011=
202109111550 METAR ESMX 111550Z 25009KT 9999 SCT023 20/16 Q1011=
202109111520 METAR ESMX 111520Z AUTO 24009KT 9999 SCT023/// BKN032/// 21/16 Q1011=
202109111450 METAR ESMX 111450Z AUTO 23011KT 9999 FEW017/// SCT049/// 21/16 Q1011=
202109111420 METAR ESMX 111420Z AUTO 23010KT 9999 FEW018/// SCT025/// BKN051/// 21/17 Q1011=
202109111350 METAR ESMX 111350Z AUTO 22010KT 9999 BKN018/// OVC024/// 20/17 Q1011=
202109111320 METAR ESMX 111320Z AUTO 20008KT 9999 FEW014/// BKN160/// 20/17 Q1011=
202109111250 METAR ESMX 111250Z AUTO 20008KT 9999 FEW031/// SCT080/// 19/17 Q1011=
202109111220 METAR ESMX 111220Z AUTO 22008KT 9999 -RA SCT018/// BKN024/// BKN062/// 20/17 Q1011=
202109111150 METAR ESMX 111150Z AUTO 23007KT 9999 FEW016/// BKN051/// BKN070/// 20/17 Q1011=
202109111120 METAR ESMX 111120Z AUTO 21007KT 190V250 9999 FEW027/// BKN053/// 20/17 Q1012=
202109111050 METAR ESMX 111050Z AUTO 22007KT 9999 BKN027/// BKN053/// OVC074/// 21/17 Q1012=
202109111020 METAR ESMX 111020Z AUTO 21005KT 9999 SCT057/// BKN072/// 19/17 Q1012=
202109110950 METAR ESMX 110950Z AUTO 20004KT 9999 OVC055/// 19/16 Q1012=
202109110920 METAR ESMX 110920Z AUTO 19005KT 9999 FEW039/// OVC057/// 19/16 Q1012=
202109110850 METAR ESMX 110850Z AUTO 21005KT 9999 FEW010/// OVC057/// 18/16 Q1012=
202109110820 METAR ESMX 110820Z AUTO 21007KT 9999 FEW011/// BKN059/// 18/16 Q1012=
202109110750 METAR ESMX 110750Z AUTO 22005KT 9999 FEW009/// 18/16 Q1012=
202109110720 METAR ESMX 110720Z AUTO 22005KT 9999 SCT098/// BKN160/// 18/16 Q1012=
202109110650 METAR ESMX 110650Z AUTO 22003KT 200V260 9999 SCT070/// 16/15 Q1012=
202109110620 METAR ESMX 110620Z AUTO VRB03KT 9999 OVC120/// 16/15 Q1011=
202109110550 METAR ESMX 110550Z AUTO 20003KT 9999 FEW074/// OVC120/// 15/14 Q1011=
202109110520 METAR ESMX 110520Z AUTO VRB03KT 9999 OVC072/// 15/14 Q1011=
202109110450 METAR ESMX 110450Z AUTO 18004KT 8000 BR OVC070/// 14/14 Q1011=
202109110420 METAR ESMX 110420Z AUTO VRB01KT 6000 BR SCT053/// BKN064/// 13/13 Q1011=
202109110350 METAR ESMX 110350Z AUTO 18003KT 7000 BKN086/// 13/13 Q1012=
202109110320 METAR ESMX 110320Z AUTO 18001KT 7000 BR OVC080/// 14/14 Q1012=
202109110250 METAR ESMX 110250Z AUTO 20002KT 9999 BKN070/// 14/14 Q1012 REDZ=
202109110220 METAR ESMX 110220Z AUTO 00000KT 9999 FEW070/// SCT092/// 14/13 Q1012=
202109110150 METAR ESMX 110150Z AUTO 00000KT 9999 BKN076/// BKN094/// 13/13 Q1012=
202109110120 METAR ESMX 110120Z AUTO 00000KT 9999 SCT084/// OVC100/// 13/12 Q1012=
202109110050 METAR ESMX 110050Z AUTO 00000KT 9999 BKN120/// 13/13 Q1012=
202109110020 METAR ESMX 110020Z AUTO 18002KT 9999 BKN110/// 14/13 Q1012=
202109102350 METAR ESMX 102350Z AUTO 00000KT 9999 OVC100/// 13/13 Q1012=
202109102320 METAR ESMX 102320Z AUTO 00000KT 9999 OVC088/// 13/12 Q1013=
202109102250 METAR ESMX 102250Z AUTO 00000KT 9999 SCT088/// OVC100/// 12/12 Q1013=
202109102220 METAR ESMX 102220Z AUTO 18002KT 9999 FEW084/// SCT098/// 12/11 Q1013=
202109102150 METAR ESMX 102150Z AUTO 00000KT 9999 SCT084/// 12/12 Q1013=
202109102120 METAR ESMX 102120Z AUTO 18002KT 9999 BKN084/// 12/12 Q1013=
202109102050 METAR ESMX 102050Z AUTO 18004KT 9999 BR NCD 13/12 Q1013=
202109102020 METAR ESMX 102020Z AUTO 18005KT 9999 NCD 13/12 Q1013=
202109101950 METAR ESMX 101950Z AUTO 19004KT 9999 NCD 13/12 Q1013=
202109101920 METAR ESMX 101920Z AUTO 17003KT 9999 NCD 14/13 Q1013=
202109101850 METAR ESMX 101850Z AUTO 00000KT 9999 FEW062/// 14/12 Q1013=
202109101820 METAR ESMX 101820Z AUTO 20003KT 9999 NCD 15/13 Q1013=
202109101750 METAR ESMX 101750Z AUTO 19003KT 9999 -RA FEW066/// 17/13 Q1013=
202109101720 METAR ESMX 101720Z AUTO 19004KT 9999 FEW064/// 18/13 Q1012=
202109101650 METAR ESMX 101650Z AUTO 19004KT 9999 SCT062/// 20/12 Q1012=
202109101620 METAR ESMX 101620Z AUTO 18005KT 9999 NCD 21/13 Q1012=
202109101550 METAR ESMX 101550Z AUTO 17006KT 9999 NCD 22/12 Q1012=
202109101520 METAR ESMX 101520Z AUTO 18006KT 9999 NCD 23/12 Q1012=
202109101450 METAR ESMX 101450Z AUTO 18007KT 9999 NCD 23/12 Q1013=
202109101420 METAR ESMX 101420Z AUTO 19007KT 9999 NCD 24/12 Q1013=
202109101350 METAR ESMX 101350Z 18007KT 130V200 CAVOK 24/12 Q1013=
202109101320 METAR ESMX 101320Z 17008KT CAVOK 24/12 Q1013=
202109101250 METAR ESMX 101250Z 20008KT CAVOK 24/12 Q1013=
202109101220 METAR ESMX 101220Z 15006KT 100V190 CAVOK 23/12 Q1013=
202109101150 METAR ESMX 101150Z 15006KT CAVOK 23/13 Q1013=
202109101120 METAR ESMX 101120Z 16006KT CAVOK 23/13 Q1014=
202109101050 METAR ESMX 101050Z 17006KT 130V200 CAVOK 23/13 Q1014=
202109101020 METAR ESMX 101020Z 15005KT 090V170 CAVOK 23/13 Q1014=
202109100950 METAR ESMX 100950Z 18005KT CAVOK 22/14 Q1014=
202109100920 METAR ESMX 100920Z 11004KT 060V160 CAVOK 21/14 Q1014=
202109100850 METAR ESMX 100850Z 19004KT CAVOK 21/14 Q1014=
202109100820 METAR ESMX 100820Z 20004KT CAVOK 20/14 Q1014=
202109100750 METAR ESMX 100750Z 21002KT CAVOK 19/14 Q1014=
202109100720 METAR ESMX 100720Z VRB02KT CAVOK 17/14 Q1014=
202109100650 METAR ESMX 100650Z 21002KT CAVOK 16/16 Q1014=
202109100620 METAR ESMX 100620Z 00000KT 7000 NSC 14/14 Q1014=
202109100550 METAR ESMX 100550Z AUTO 00000KT 3500 NCD 11/11 Q1014=
202109100520 METAR ESMX 100520Z AUTO 20001KT 3200 BCFG NCD 09/09 Q1014=
202109100450 METAR ESMX 100450Z AUTO 18002KT 0200 R01/0400N R19/P2000N BCFG NCD 09/09 Q1013=
202109100420 METAR ESMX 100420Z AUTO 00000KT 9000 BCFG NCD 09/09 Q1013=
202109100350 METAR ESMX 100350Z AUTO 00000KT 0250 R01/P2000N R19/P2000D NCD 08/08 Q1013=
202109100320 METAR ESMX 100320Z AUTO 00000KT 0150 R01/P2000N R19/0600U BCFG NCD 09/09 Q1014=
202109100250 METAR ESMX 100250Z AUTO 00000KT 1800 BCFG NCD 09/09 Q1014=
202109100220 METAR ESMX 100220Z AUTO 19002KT 0800 R01/P2000N R19/P2000N BCFG NCD 10/10 Q1014=
202109100150 METAR ESMX 100150Z AUTO 18001KT 0300 R01/P2000N R19/P2000N BCFG NCD 09/09 Q1014=
202109100120 METAR ESMX 100120Z AUTO 00000KT 9000 BCFG SCT049/// 10/10 Q1014=
202109100050 METAR ESMX 100050Z AUTO 00000KT 0150 R01/0600N R19/P2000N BCFG FEW049/// 10/10 Q1014=
202109100020 METAR ESMX 100020Z AUTO 00000KT 0200 R01/0375N R19/P2000N BCFG SCT049/// 11/11 Q1014=
202109092350 METAR ESMX 092350Z AUTO 00000KT 3500 BCFG NCD 11/11 Q1014=
202109092320 METAR ESMX 092320Z AUTO 00000KT 8000 BCFG NCD 12/12 Q1014=
202109092250 METAR ESMX 092250Z AUTO 00000KT 6000 BCFG NCD 12/12 Q1014=
202109092220 METAR ESMX 092220Z AUTO 00000KT 0150 R01/0225N R19/P2000N FG NCD 12/12 Q1014=
202109092150 METAR ESMX 092150Z AUTO 21002KT 9999 NCD 13/13 Q1014=
202109092120 METAR ESMX 092120Z AUTO 21003KT 9999 NCD 14/14 Q1014=
202109092050 METAR ESMX 092050Z AUTO 21003KT 9999 NCD 14/14 Q1014=
202109092020 METAR ESMX 092020Z AUTO 18003KT 9999 NCD 15/14 Q1014=
202109091950 METAR ESMX 091950Z AUTO 21004KT 9999 NCD 18/15 Q1014=
202109091920 METAR ESMX 091920Z AUTO 22004KT 9999 FEW051/// 18/15 Q1014=
202109091850 METAR ESMX 091850Z AUTO 22004KT 9999 OVC051/// 17/16 Q1013=
202109091820 METAR ESMX 091820Z AUTO 17005KT 9999 OVC051/// 19/16 Q1013=
202109091750 METAR ESMX 091750Z 18003KT CAVOK 20/16 Q1013=
202109091720 METAR ESMX 091720Z 19003KT CAVOK 20/16 Q1013=
202109091650 METAR ESMX 091650Z 19004KT CAVOK 21/16 Q1013=
202109091620 METAR ESMX 091620Z 19004KT CAVOK 21/16 Q1013=
202109091550 METAR ESMX 091550Z 23004KT CAVOK 22/16 Q1013=
202109091520 METAR ESMX 091520Z 23006KT CAVOK 22/15 Q1013=
202109091450 METAR ESMX 091450Z 23005KT 9999 SCT035 22/16 Q1013=
202109091420 METAR ESMX 091420Z 22007KT 9999 SCT035 23/16 Q1013=
202109091350 METAR ESMX 091350Z AUTO 22010KT 9999 SCT034/// OVC045/// 23/16 Q1013=
202109091320 METAR ESMX 091320Z AUTO 23008KT 9999 FEW035/// OVC048/// 24/16 Q1014=
202109091250 METAR ESMX 091250Z 24009KT 9999 SCT032 24/16 Q1014=
202109091220 METAR ESMX 091220Z 21009KT 170V270 9999 FEW030 23/16 Q1014=
202109091150 METAR ESMX 091150Z 24008KT 210V280 9999 SCT030 23/16 Q1014=
202109091120 METAR ESMX 091120Z 23008KT 9999 BKN028 22/16 Q1014=
202109091050 METAR ESMX 091050Z AUTO 21008KT 170V250 9999 BKN028/// BKN041/// 22/16 Q1014=
202109091020 METAR ESMX 091020Z 21007KT 180V240 9999 SCT027 22/16 Q1015=
202109090950 METAR COR ESMX 090950Z 23006KT 200V270 9999 FEW021 21/16 Q1015=
202109090920 METAR ESMX 090920Z 23006KT 170V260 CAVOK 21/16 Q1015=
202109090850 METAR ESMX 090850Z 21006KT CAVOK 20/16 Q1015=
202109090820 METAR ESMX 090820Z 20006KT CAVOK 19/16 Q1015=
202109090750 METAR ESMX 090750Z 22007KT CAVOK 18/16 Q1015=
202109090720 METAR ESMX 090720Z AUTO 20007KT 9999 NCD 17/16 Q1015=
202109090650 METAR ESMX 090650Z 22007KT CAVOK 16/15 Q1015=
202109090620 METAR ESMX 090620Z 22006KT 9000 BR NSC 16/15 Q1015=
202109090550 METAR ESMX 090550Z AUTO 22007KT 7000 BR SCT035/// 15/15 Q1015=
202109090520 METAR ESMX 090520Z AUTO 21006KT 6000 BR BKN045/// 15/14 Q1015=
202109090450 METAR ESMX 090450Z AUTO 21005KT 7000 BR FEW035/// OVC045/// 15/15 Q1015=
202109090420 METAR ESMX 090420Z AUTO 21006KT 7000 BR OVC044/// 15/14 Q1015=
202109090350 METAR ESMX 090350Z AUTO 21004KT 5000 BR OVC044/// 14/14 Q1015=
202109090320 METAR ESMX 090320Z AUTO 21004KT 6000 BR FEW027/// OVC045/// 14/14 Q1015=
202109090250 METAR ESMX 090250Z AUTO 21004KT 6000 BR FEW027/// OVC043/// 14/14 Q1016=
202109090220 METAR ESMX 090220Z AUTO 22005KT 5000 BR FEW026/// OVC044/// 14/14 Q1016=
202109090150 METAR ESMX 090150Z AUTO 19005KT 4800 BR OVC042/// 14/14 Q1016=
202109090120 METAR ESMX 090120Z AUTO 22004KT 4600 BR OVC041/// 13/13 Q1016=
202109090050 METAR ESMX 090050Z AUTO 22004KT 3400 BR OVC040/// 13/12 Q1016=
202109090020 METAR ESMX 090020Z AUTO 22004KT 3700 BR OVC039/// 14/14 Q1016=
202109082350 METAR ESMX 082350Z AUTO 22005KT 3400 BR BKN039/// 13/13 Q1016=
202109082320 METAR ESMX 082320Z AUTO 22005KT 3300 BR BKN039/// 12/12 Q1017=
202109082250 METAR ESMX 082250Z AUTO 22005KT 1300 R01/P2000N R19/P2000N BR SCT039/// 12/12 Q1017=
202109082220 METAR ESMX 082220Z AUTO 22006KT 0800 R01/P2000N R19/P2000D BR NCD 13/13 Q1017=
202109082150 METAR ESMX 082150Z AUTO 22005KT 3900 BR NCD 13/13 Q1017=
202109082120 METAR ESMX 082120Z AUTO 22006KT 3700 BR NCD 14/14 Q1017=
202109082050 METAR ESMX 082050Z AUTO 22005KT 4700 BR NCD 13/13 Q1017=
202109082020 METAR ESMX 082020Z AUTO 22005KT 6000 BR NCD 13/13 Q1017=
202109081950 METAR ESMX 081950Z AUTO 22006KT 8000 BR NCD 14/14 Q1017=
202109081920 METAR ESMX 081920Z AUTO 22005KT 9999 FEW040/// 15/14 Q1017=
202109081850 METAR ESMX 081850Z AUTO 23005KT 9999 OVC040/// 16/15 Q1017=
202109081820 METAR ESMX 081820Z AUTO 22006KT 9999 OVC041/// 17/15 Q1017=
202109081750 METAR ESMX 081750Z AUTO 20006KT 9999 OVC041/// 17/15 Q1017=
202109081720 METAR ESMX 081720Z AUTO 20005KT 9999 BKN042/// 17/15 Q1017=
202109081650 METAR ESMX 081650Z AUTO 21004KT 9999 BKN041/// 18/15 Q1017=
202109081620 METAR ESMX 081620Z AUTO 22006KT 9999 OVC041/// 18/15 Q1017=
202109081550 METAR ESMX 081550Z AUTO 24006KT 9999 OVC042/// 18/15 Q1017=
202109081520 METAR ESMX 081520Z AUTO 23007KT 190V260 9999 OVC042/// 18/15 Q1017=
202109081450 METAR ESMX 081450Z 23007KT 200V270 9999 BKN041 18/15 Q1018=
202109081420 METAR ESMX 081420Z 24009KT 9999 FEW018 BKN024 18/15 Q1018=
202109081350 METAR ESMX 081350Z 25008KT 220V290 9999 SCT020 BKN040 19/15 Q1018=
202109081320 METAR ESMX 081320Z 24009KT 9999 BKN022 19/15 Q1018=
202109081250 METAR ESMX 081250Z 22009KT 9999 SCT023 BKN039 19/15 Q1018=
202109081220 METAR ESMX 081220Z 22009KT 9999 BKN022 19/15 Q1018=
202109081150 METAR ESMX 081150Z 24010KT 9999 SCT020 19/15 Q1018=
202109081120 METAR ESMX 081120Z 21011KT 9999 FEW017 BKN051 19/15 Q1018=
202109081050 METAR ESMX 081050Z AUTO 22010KT 9999 FEW015/// SCT033/// OVC051/// 18/15 Q1018=
202109081020 METAR ESMX 081020Z 22009KT 190V260 9999 FEW036 BKN049 17/14 Q1019=
202109080950 METAR ESMX 080950Z 23008KT 9999 FEW034 BKN048 17/14 Q1019=
202109080920 METAR ESMX 080920Z 23008KT 9999 FEW035 BKN048 17/14 Q1019=
202109080850 METAR ESMX 080850Z 21009KT 9999 BKN046 17/14 Q1019=
202109080820 METAR COR ESMX 080820Z 20009KT 9999 SCT010 BKN047 17/15 Q1019=
202109080750 METAR ESMX 080750Z 21008KT 9999 SCT009 BKN046 16/15 Q1019=
202109080720 METAR ESMX 080720Z 22008KT 9999 SCT008 BKN047 16/15 Q1019=
202109080650 METAR ESMX 080650Z 22008KT 9999 FEW007 BKN046 16/15 Q1019=
202109080620 METAR ESMX 080620Z 22008KT 9999 BKN045 15/14 Q1019=
202109080550 METAR ESMX 080550Z AUTO 22006KT 9000 BR SCT027/// OVC045/// 15/14 Q1019=
202109080520 METAR ESMX 080520Z AUTO 22006KT 9999 BR BKN026/// OVC040/// 14/14 Q1019=
202109080450 METAR ESMX 080450Z AUTO 20007KT 9999 OVC036/// 14/14 Q1019=
202109080420 METAR ESMX 080420Z AUTO 22007KT 9999 OVC028/// 14/14 Q1020=
202109080350 METAR ESMX 080350Z AUTO 23007KT 9999 FEW009/// OVC030/// 14/14 Q1020=
202109080320 METAR ESMX 080320Z AUTO 22007KT 9999 OVC030/// 14/14 Q1020=
202109080250 METAR ESMX 080250Z AUTO 21006KT 9999 OVC030/// 14/14 Q1020=
202109080220 METAR ESMX 080220Z AUTO 19006KT 9999 OVC031/// 14/13 Q1020=
202109080150 METAR ESMX 080150Z AUTO 22007KT 9999 OVC030/// 14/13 Q1020=
202109080120 METAR ESMX 080120Z AUTO 22007KT 9999 OVC028/// 13/13 Q1020=
202109080050 METAR ESMX 080050Z AUTO 22007KT 9999 OVC027/// 13/12 Q1020=
202109080020 METAR ESMX 080020Z AUTO 22006KT 9999 OVC027/// 13/12 Q1020=
202109072350 METAR ESMX 072350Z AUTO 23005KT 9999 OVC027/// 12/11 Q1021=
202109072320 METAR ESMX 072320Z AUTO 22005KT 9999 NCD 12/11 Q1021=
202109072250 METAR ESMX 072250Z AUTO 22006KT 9999 NCD 12/11 Q1021=
202109072220 METAR ESMX 072220Z AUTO 22005KT 9999 FEW013/// 12/11 Q1021=
202109072150 METAR ESMX 072150Z AUTO 17006KT 9999 OVC014/// 13/12 Q1021=
202109072120 METAR ESMX 072120Z AUTO 19004KT 9999 BKN012/// 13/12 Q1021=
202109072050 METAR ESMX 072050Z AUTO 21005KT 9999 NCD 12/11 Q1021=
202109072020 METAR ESMX 072020Z AUTO 21005KT 9999 NCD 12/11 Q1021=
202109071950 METAR ESMX 071950Z AUTO 22004KT 9999 NCD 14/11 Q1022=
202109071920 METAR ESMX 071920Z AUTO 24005KT 9999 NCD 14/11 Q1021=
202109071850 METAR ESMX 071850Z AUTO 24005KT 9999 NCD 14/11 Q1021=
202109071820 METAR ESMX 071820Z AUTO 23005KT 9999 NCD 15/12 Q1021=
202109071750 METAR ESMX 071750Z AUTO 23005KT 9999 NCD 15/12 Q1021=
202109071720 METAR ESMX 071720Z AUTO 23004KT 9999 NCD 17/13 Q1021=
202109071650 METAR ESMX 071650Z AUTO 24006KT 9999 NCD 18/13 Q1021=
202109071620 METAR ESMX 071620Z AUTO 24004KT 9999 NCD 18/13 Q1021=
202109071550 METAR ESMX 071550Z AUTO 24005KT 9999 NCD 18/13 Q1021=
202109071520 METAR ESMX 071520Z AUTO 27006KT 9999 SCT032/// 19/13 Q1022=
202109071450 METAR ESMX 071450Z AUTO 27006KT 9999 OVC030/// 19/13 Q1022=
202109071420 METAR ESMX 071420Z AUTO 25008KT 210V290 9999 BKN030/// 19/13 Q1022=
202109071350 METAR ESMX 071350Z 24010KT 210V270 9999 BKN032 19/12 Q1022=
202109071320 METAR ESMX 071320Z 22009KT 9999 BKN032 20/13 Q1022=
202109071250 METAR ESMX 071250Z 22008KT 200V260 9999 SCT033 20/12 Q1022=
202109071220 METAR ESMX 071220Z 24009KT 210V280 9999 SCT033 20/12 Q1022=
202109071150 METAR ESMX 071150Z 24009KT 9999 SCT032 20/12 Q1022=
202109071120 METAR ESMX 071120Z 22007KT 9999 FEW030 19/11 Q1022=
202109071050 METAR ESMX 071050Z 24009KT 9999 SCT031 19/12 Q1023=
202109071020 METAR ESMX 071020Z 25008KT 220V290 9999 SCT031 18/11 Q1023=
202109070950 METAR ESMX 070950Z 23008KT 200V280 9999 FEW024 18/12 Q1023=
202109070920 METAR ESMX 070920Z 21008KT 9999 SCT022 17/12 Q1023=
202109070850 METAR ESMX 070850Z 24006KT 190V290 CAVOK 17/12 Q1023=
202109070820 METAR ESMX 070820Z 25004KT 200V290 CAVOK 15/12 Q1023=
202109070750 METAR ESMX 070750Z 20001KT CAVOK 14/12 Q1023=
202109070720 METAR ESMX 070720Z 20002KT 9999 BKN002 12/12 Q1023=
202109070650 METAR ESMX 070650Z 20003KT 9999 BKN002 11/11 Q1023=
202109070620 METAR ESMX 070620Z 20003KT 9999 BKN002 11/11 Q1023=
202109070550 METAR ESMX 070550Z 20001KT 1100 BR VV002 10/10 Q1023=
202109070520 METAR COR ESMX 070520Z 20002KT 0200 R01/0750N R19/0550N FG VV002 09/09 Q1023=
202109070450 METAR ESMX 070450Z 20003KT 0100 R01/0300N R19/0225N FG VV001 09/09 Q1022=
202109070420 METAR ESMX 070420Z AUTO 20002KT 0100 R01/0275N R19/0250N FG VV001 09/09 Q1022=
202109070350 METAR ESMX 070350Z AUTO 20003KT 0100 R01/0450N R19/0375N BCFG VV001 09/09 Q1022=
202109070320 METAR ESMX 070320Z AUTO 20002KT 0400 R01/1700U R19/P2000N BCFG BKN001/// BKN003/// OVC049/// 08/08 Q1022=
202109070250 METAR ESMX 070250Z AUTO 20002KT 8000 BCFG BKN051/// 08/08 Q1022=
202109070220 METAR ESMX 070220Z AUTO 19003KT 0250 R01/P2000D R19/0600N BCFG BKN051/// 09/09 Q1022=
202109070150 METAR ESMX 070150Z AUTO 20002KT 3800 BCFG FEW053/// 08/08 Q1022=
202109070120 METAR ESMX 070120Z AUTO 17001KT 9999 FEW057/// 07/07 Q1022=
202109070050 METAR ESMX 070050Z AUTO 20003KT 7000 BCFG SCT057/// 08/08 Q1023=
202109070020 METAR ESMX 070020Z AUTO 19003KT 9999 BCFG FEW057/// 08/08 Q1023=
202109062350 METAR ESMX 062350Z AUTO 20003KT 0250 R01/P2000D R19/P2000N BCFG NCD 08/08 Q1023=
202109062320 METAR ESMX 062320Z AUTO 20003KT 9999 NCD 09/09 Q1023=
202109062250 METAR ESMX 062250Z AUTO 20003KT 9999 NCD 10/10 Q1023=
202109062220 METAR ESMX 062220Z AUTO 20004KT 9999 NCD 10/10 Q1023=
202109062150 METAR ESMX 062150Z AUTO 20004KT 9999 FEW030/// BKN150/// 11/09 Q1023=
202109062120 METAR ESMX 062120Z AUTO 17004KT 9999 FEW032/// BKN150/// 12/10 Q1023=
202109062050 METAR ESMX 062050Z AUTO 17004KT 9999 FEW034/// OVC150/// 11/10 Q1023=
202109062020 METAR ESMX 062020Z AUTO 16003KT 9999 BKN160/// 12/10 Q1023=
202109061950 METAR ESMX 061950Z AUTO 20004KT 9999 BKN160/// 12/09 Q1023=
202109061920 METAR ESMX 061920Z AUTO 20004KT 9999 BKN160/// 11/10 Q1023=
202109061850 METAR ESMX 061850Z AUTO 17004KT 9999 BKN160/// 13/09 Q1023=
202109061820 METAR ESMX 061820Z AUTO 20003KT 9999 FEW049/// OVC160/// 14/10 Q1023=
202109061750 METAR ESMX 061750Z AUTO 19003KT 9999 OVC053/// 14/10 Q1023=
202109061720 METAR ESMX 061720Z AUTO 20003KT 9999 FEW055/// BKN170/// 14/10 Q1023=
202109061650 METAR ESMX 061650Z AUTO 16003KT 9999 FEW053/// BKN170/// 16/09 Q1023=
202109061620 METAR ESMX 061620Z AUTO 19004KT 9999 OVC170/// 16/09 Q1023=
202109061550 METAR ESMX 061550Z AUTO 20006KT 9999 BKN170/// 16/09 Q1023=
202109061520 METAR ESMX 061520Z AUTO 18006KT 9999 BKN180/// 17/09 Q1024=
202109061450 METAR ESMX 061450Z AUTO 21006KT 9999 FEW130/// BKN180/// 17/09 Q1024=
202109061420 METAR ESMX 061420Z AUTO 22005KT 9999 FEW055/// BKN180/// 17/08 Q1024=
202109061350 METAR ESMX 061350Z 20005KT CAVOK 18/09 Q1024=
202109061320 METAR ESMX 061320Z 21005KT 200V260 CAVOK 18/08 Q1024=
202109061250 METAR ESMX 061250Z 19004KT 140V250 CAVOK 18/08 Q1024=
202109061220 METAR ESMX 061220Z 21005KT 160V240 CAVOK 17/08 Q1025=
202109061150 METAR ESMX 061150Z 22005KT CAVOK 17/08 Q1025=
202109061120 METAR ESMX 061120Z 20006KT 140V220 CAVOK 17/08 Q1025=
202109061050 METAR ESMX 061050Z 21007KT 180V240 CAVOK 17/08 Q1025=
202109061020 METAR ESMX 061020Z 19005KT 140V240 CAVOK 17/08 Q1025=
202109060950 METAR ESMX 060950Z 21005KT CAVOK 16/09 Q1026=
202109060920 METAR ESMX 060920Z 21006KT CAVOK 16/09 Q1026=
202109060850 METAR ESMX 060850Z 20003KT 100V270 CAVOK 16/09 Q1026=
202109060820 METAR ESMX 060820Z 21004KT CAVOK 14/09 Q1026=
202109060750 METAR ESMX 060750Z 20003KT CAVOK 14/08 Q1026=
202109060720 METAR ESMX 060720Z 25003KT 200V270 CAVOK 12/08 Q1026=
202109060650 METAR ESMX 060650Z 21003KT CAVOK 12/08 Q1026=
202109060620 METAR ESMX 060620Z 21003KT CAVOK 10/08 Q1026=
202109060550 METAR ESMX 060550Z AUTO 21003KT 9999 NCD 09/08 Q1026=
202109060520 METAR ESMX 060520Z AUTO 17003KT 9999 NCD 07/07 Q1026=
202109060450 METAR ESMX 060450Z AUTO 19002KT 9999 NCD 05/05 Q1026=
202109060420 METAR ESMX 060420Z AUTO 21002KT 9999 SCT066/// 07/07 Q1026=
202109060350 METAR ESMX 060350Z AUTO 18001KT 9999 BKN066/// 07/06 Q1026=
202109060320 METAR ESMX 060320Z AUTO 17002KT 9999 OVC068/// 08/07 Q1026=
202109060250 METAR ESMX 060250Z AUTO 21002KT 9999 OVC066/// 08/07 Q1026=
202109060220 METAR ESMX 060220Z AUTO 21002KT 9999 OVC068/// 08/07 Q1026=
202109060150 METAR ESMX 060150Z AUTO 21003KT 9999 OVC070/// 08/07 Q1026=
202109060120 METAR ESMX 060120Z AUTO 21003KT 9999 SCT070/// 08/06 Q1026=
202109060050 METAR ESMX 060050Z AUTO 21003KT 9999 OVC066/// 08/07 Q1026=
202109060020 METAR ESMX 060020Z AUTO 21004KT 9999 BKN068/// 09/07 Q1026=
202109052350 METAR ESMX 052350Z AUTO 21003KT 9999 BKN068/// 10/07 Q1026=
202109052320 METAR ESMX 052320Z AUTO 21004KT 9999 OVC068/// 10/06 Q1026=
202109052250 METAR ESMX 052250Z AUTO 21004KT 9999 OVC066/// 11/07 Q1026=
202109052220 METAR ESMX 052220Z AUTO 21004KT 9999 OVC064/// 11/07 Q1026=
202109052150 METAR ESMX 052150Z AUTO 21004KT 9999 OVC062/// 11/07 Q1026=
202109052120 METAR ESMX 052120Z AUTO 21004KT 9999 SCT041/// OVC062/// 11/07 Q1027=
202109052050 METAR ESMX 052050Z AUTO 21005KT 9999 FEW040/// OVC062/// 11/07 Q1027=
202109052020 METAR ESMX 052020Z AUTO 19006KT 9999 OVC068/// 11/07 Q1027=
202109051950 METAR ESMX 051950Z AUTO 21006KT 9999 BKN037/// OVC070/// 12/07 Q1027=
202109051920 METAR ESMX 051920Z AUTO 20007KT 9999 FEW041/// OVC066/// 12/08 Q1026=
202109051850 METAR ESMX 051850Z AUTO 20008KT 9999 BKN044/// OVC070/// 13/08 Q1026=
202109051820 METAR ESMX 051820Z AUTO 19009KT 9999 BKN042/// OVC070/// 14/09 Q1026=
202109051750 METAR ESMX 051750Z 20003KT 9999 SCT045 BKN072 15/09 Q1026=
202109051720 METAR ESMX 051720Z 20003KT CAVOK 15/10 Q1026=
202109051650 METAR ESMX 051650Z 20004KT 9999 FEW045 16/09 Q1026=
202109051620 METAR ESMX 051620Z 20003KT 9999 FEW045 16/09 Q1026=
202109051550 METAR ESMX 051550Z 20005KT 9999 FEW045 16/08 Q1026=
202109051520 METAR ESMX 051520Z 20003KT 9999 FEW040 17/07 Q1026=
202109051450 METAR ESMX 051450Z 09002KT 9999 FEW045 18/07 Q1026=
202109051420 METAR ESMX 051420Z 36003KT 9999 SCT047 17/08 Q1026=
202109051350 METAR ESMX 051350Z 32004KT 280V010 9999 FEW047 18/07 Q1026=
202109051320 METAR ESMX 051320Z VRB03KT 9999 FEW047 18/07 Q1026=
202109051250 METAR ESMX 051250Z 26004KT 230V290 9999 FEW045 18/07 Q1027=
202109051220 METAR ESMX 051220Z AUTO 32004KT 9999 FEW047/// 16/06 Q1027=
202109051150 METAR ESMX 051150Z 25004KT 230V300 9999 FEW045 17/06 Q1027=
202109051120 METAR ESMX 051120Z 31005KT 280V350 9999 FEW045 17/06 Q1027=
202109051050 METAR ESMX 051050Z 26004KT 210V010 9999 FEW038 16/06 Q1027=
202109051020 METAR ESMX 051020Z 22006KT 170V260 9999 FEW028 16/06 Q1027=
202109050950 METAR ESMX 050950Z 20006KT 9999 FEW028 16/08 Q1028=
202109050920 METAR ESMX 050920Z 24007KT 200V280 9999 FEW025 14/08 Q1028=
202109050850 METAR ESMX 050850Z 23006KT 190V250 9999 FEW025 15/08 Q1028=
202109050820 METAR ESMX 050820Z 20007KT 9999 FEW024 13/09 Q1028=
202109050750 METAR ESMX 050750Z 20006KT 9999 SCT025 12/08 Q1028=
202109050720 METAR ESMX 050720Z 16005KT 9999 SCT024 12/08 Q1027=
202109050650 METAR ESMX 050650Z 14003KT 9999 FEW023 11/08 Q1027=
202109050620 METAR ESMX 050620Z 14002KT 9999 FEW023 10/09 Q1027=
202109050550 METAR ESMX 050550Z 00000KT 9999 BCFG NSC 06/06 Q1027=
202109050520 METAR ESMX 050520Z AUTO 00000KT 9999 NCD 03/03 Q1027=
202109050450 METAR ESMX 050450Z AUTO 00000KT 9999 NCD 01/01 Q1027=
202109050420 METAR ESMX 050420Z AUTO 00000KT 9999 NCD 01/01 Q1026=
202109050350 METAR ESMX 050350Z AUTO 14002KT 9999 NCD 02/02 Q1026=
202109050320 METAR ESMX 050320Z AUTO 14003KT 9999 NCD 02/02 Q1026=
202109050250 METAR ESMX 050250Z AUTO 14003KT 9999 NCD 02/02 Q1026=
202109050220 METAR ESMX 050220Z AUTO 14003KT 9999 NCD 02/02 Q1026=
202109050150 METAR ESMX 050150Z AUTO 14003KT 9999 NCD 02/02 Q1026=
202109050120 METAR ESMX 050120Z AUTO 14003KT 9999 NCD 02/02 Q1026=
202109050050 METAR ESMX 050050Z AUTO 13003KT 9999 NCD 02/02 Q1025=
202109050020 METAR ESMX 050020Z AUTO 19002KT 9999 BCFG NCD 02/02 Q1025=
202109042350 METAR ESMX 042350Z AUTO 00000KT 9999 NCD 02/02 Q1025=
202109042320 METAR ESMX 042320Z AUTO 18002KT 9999 NCD 03/02 Q1025=
202109042250 METAR ESMX 042250Z AUTO 00000KT 9999 NCD 04/04 Q1025=
202109042220 METAR ESMX 042220Z AUTO 00000KT 9999 NCD 03/03 Q1025=
202109042150 METAR ESMX 042150Z AUTO VRB01KT 9999 NCD 04/03 Q1025=
202109042120 METAR ESMX 042120Z AUTO 08003KT 9999 NCD 06/05 Q1024=
202109042050 METAR ESMX 042050Z AUTO 08003KT 9999 NCD 07/06 Q1024=
202109042020 METAR ESMX 042020Z 04003KT CAVOK 06/06 Q1024=
202109041950 METAR ESMX 041950Z 03001KT CAVOK 05/04 Q1024=
202109041920 METAR ESMX 041920Z 00000KT CAVOK 05/05 Q1024=
202109041850 METAR ESMX 041850Z 00000KT CAVOK 06/05 Q1023=
202109041820 METAR ESMX 041820Z 00000KT CAVOK 07/05 Q1023=
202109041750 METAR ESMX 041750Z 00000KT CAVOK 11/05 Q1023=
202109041720 METAR ESMX 041720Z 03003KT CAVOK 14/06 Q1022=
202109041650 METAR ESMX 041650Z 04005KT CAVOK 16/03 Q1022=
202109041620 METAR ESMX 041620Z 36005KT 320V030 CAVOK 16/02 Q1022=
202109041550 METAR ESMX 041550Z 03003KT 340V080 CAVOK 17/02 Q1022=
202109041520 METAR ESMX 041520Z AUTO 05004KT 010V080 9999 NCD 17/00 Q1022=
202109041450 METAR ESMX 041450Z AUTO 01004KT 9999 NCD 17/01 Q1022=
202109041420 METAR ESMX 041420Z AUTO 03004KT 300V070 9999 NCD 17/01 Q1022=
202109041350 METAR ESMX 041350Z AUTO VRB03KT 9999 NCD 17/01 Q1022=
202109041320 METAR ESMX 041320Z AUTO 32004KT 280V040 9999 NCD 17/01 Q1022=
202109041250 METAR ESMX 041250Z AUTO 33005KT 310V040 9999 NCD 17/02 Q1022=
202109041220 METAR ESMX 041220Z AUTO VRB04KT 9999 NCD 16/01 Q1022=
202109041150 METAR ESMX 041150Z AUTO VRB06KT 9999 NCD 16/01 Q1022=
202109041120 METAR ESMX 041120Z AUTO 33004KT 280V030 9999 NCD 16/01 Q1022=
202109041050 METAR ESMX 041050Z AUTO VRB04KT 9999 NCD 16/02 Q1022=
202109041020 METAR ESMX 041020Z AUTO 04005KT 350V120 9999 NCD 15/01 Q1022=
202109040950 METAR ESMX 040950Z AUTO 04005KT 010V070 9999 NCD 15/02 Q1022=
202109040920 METAR ESMX 040920Z AUTO 36005KT 330V060 9999 NCD 15/03 Q1022=
202109040850 METAR ESMX 040850Z AUTO 06005KT 9999 NCD 15/05 Q1022=
202109040820 METAR ESMX 040820Z AUTO 05005KT 9999 NCD 14/05 Q1021=
202109040750 METAR ESMX 040750Z AUTO 04004KT 9999 NCD 13/07 Q1021=
202109040720 METAR ESMX 040720Z AUTO 35003KT 330V030 9999 NCD 10/10 Q1021=
202109040650 METAR ESMX 040650Z AUTO 34004KT 1100 R01/P2000N R19/P2000N OVC001/// 10/10 Q1021=
202109040620 METAR ESMX 040620Z AUTO VRB03KT 0150 R01/0400N R19/0375N FG VV001 09/09 Q1021=
202109040550 METAR ESMX 040550Z AUTO VRB02KT 0100 R01/0250N R19/0800N FG VV000 08/08 Q1020=
202109040520 METAR ESMX 040520Z AUTO 05003KT 0100 R01/0325N R19/0325N FG VV001 08/08 Q1020=
202109040450 METAR ESMX 040450Z AUTO 05002KT 0050 R01/0175N R19/0500N FG VV001 07/07 Q1020=
202109040420 METAR ESMX 040420Z AUTO 05002KT 0100 R01/0600N R19/0375N FG VV001 05/05 Q1020=
202109040350 METAR ESMX 040350Z AUTO VRB02KT 0100 R01/0375N R19/0375D FG VV002 06/06 Q1020=
202109040320 METAR ESMX 040320Z AUTO 09002KT 0050 R01/0275N R19/0350D FG OVC001/// 04/04 Q1020=
202109040250 METAR ESMX 040250Z AUTO 09001KT 0200 R01/0800N R19/1000N FG SCT003/// 03/03 Q1019=
202109040220 METAR ESMX 040220Z AUTO 00000KT 0350 R01/1200N R19/P2000N FG BKN002/// 03/03 Q1019=
202109040150 METAR ESMX 040150Z AUTO 00000KT 0150 R01/0400N R19/P2000N BCFG SCT002/// 03/03 Q1019=
202109040120 METAR ESMX 040120Z AUTO 00000KT 0900 R01/P2000N R19/P2000N FG NCD 03/03 Q1019=
202109040050 METAR ESMX 040050Z AUTO 00000KT 7000 BR NCD 03/03 Q1019=
202109040020 METAR ESMX 040020Z AUTO 20002KT 9999 BR NCD 04/04 Q1019=
202109032350 METAR ESMX 032350Z AUTO 00000KT 9999 NCD 04/04 Q1019=
202109032320 METAR ESMX 032320Z AUTO 00000KT 9999 NCD 05/04 Q1019=
202109032250 METAR ESMX 032250Z AUTO 09002KT 9999 NCD 06/06 Q1019=
202109032220 METAR ESMX 032220Z AUTO VRB01KT 5000 BR NCD 07/06 Q1019=
202109032150 METAR ESMX 032150Z AUTO 09002KT 6000 BR NCD 09/08 Q1019=
202109032120 METAR ESMX 032120Z AUTO 07003KT 9999 NCD 10/08 Q1018=
202109032050 METAR ESMX 032050Z AUTO 06003KT 040V100 9999 BR NCD 11/07 Q1018=
202109032020 METAR ESMX 032020Z AUTO 03006KT 9999 NCD 11/06 Q1018=
202109031950 METAR ESMX 031950Z AUTO 36005KT 9999 NCD 11/07 Q1018=
202109031920 METAR ESMX 031920Z AUTO 02007KT 9999 NCD 13/05 Q1018=
202109031850 METAR ESMX 031850Z AUTO 01005KT 9999 NCD 12/06 Q1017=
202109031820 METAR ESMX 031820Z AUTO 00000KT 9999 BR NCD 10/08 Q1017=
202109031750 METAR ESMX 031750Z AUTO VRB02KT 9999 NCD 13/08 Q1017=
202109031720 METAR ESMX 031720Z AUTO 34005KT 9999 NCD 15/07 Q1017=
202109031650 METAR ESMX 031650Z AUTO 35006KT 9999 NCD 16/08 Q1017=
202109031620 METAR ESMX 031620Z AUTO 02008KT 9999 NCD 17/06 Q1017=
202109031550 METAR ESMX 031550Z AUTO 03005KT 9999 BKN064/// 18/07 Q1016=
202109031520 METAR ESMX 031520Z AUTO 35004KT 9999 FEW082/// 18/06 Q1017=
202109031450 METAR ESMX 031450Z AUTO 36005KT 330V030 9999 SCT080/// 18/07 Q1017=
202109031420 METAR ESMX 031420Z AUTO 34007KT 9999 OVC078/// 18/06 Q1017=
202109031350 METAR ESMX 031350Z 36009KT CAVOK 19/06 Q1017=
202109031320 METAR ESMX 031320Z 33008KT CAVOK 19/06 Q1017=
202109031250 METAR ESMX 031250Z 33009KT CAVOK 19/07 Q1016=
202109031220 METAR ESMX 031220Z 01011KT CAVOK 19/09 Q1016=
202109031150 METAR COR ESMX 031150Z 34009KT CAVOK 19/09 Q1016=
202109031120 METAR ESMX 031120Z 34008KT 310V010 FEW047 18/09 Q1016=
202109031050 METAR COR ESMX 031050Z 33008KT 290V020 FEW046 18/08 Q1016=
202109031020 METAR ESMX 031020Z 31010KT CAVOK 18/09 Q1016=
202109030950 METAR ESMX 030950Z 33008KT CAVOK 18/08 Q1016=
202109030920 METAR ESMX 030920Z 35012KT CAVOK 18/08 Q1016=
202109030850 METAR ESMX 030850Z 02014KT FEW036 17/08 Q1016=
202109030820 METAR COR ESMX 030820Z 36012KT FEW036 17/08 Q1016=
202109030750 METAR ESMX 030750Z 33008KT CAVOK 16/11 Q1016=
202109030720 METAR ESMX 030720Z 33006KT CAVOK 16/12 Q1016=
202109030650 METAR ESMX 030650Z 33006KT CAVOK 15/12 Q1016=
202109030620 METAR ESMX 030620Z 33007KT CAVOK 15/12 Q1015=
202109030550 METAR ESMX 030550Z 33007KT CAVOK 14/12 Q1015=
202109030520 METAR ESMX 030520Z AUTO 33008KT 9999 SCT016/// 14/12 Q1015=
202109030450 METAR ESMX 030450Z AUTO 32007KT 9999 OVC012/// 14/13 Q1015=
202109030420 METAR ESMX 030420Z AUTO 30004KT 9000 BR BKN014/// 13/13 Q1015=
202109030350 METAR ESMX 030350Z AUTO 28004KT 250V320 9000 BR SCT012/// 13/13 Q1015=
202109030320 METAR ESMX 030320Z AUTO 26005KT 220V300 9999 FEW011/// 13/13 Q1015=
202109030250 METAR ESMX 030250Z AUTO 25005KT 220V280 9999 SCT010/// 13/13 Q1015=
202109030220 METAR ESMX 030220Z AUTO 26005KT 230V300 9999 FEW009/// 14/13 Q1015=
202109030150 METAR ESMX 030150Z AUTO 28006KT 240V320 9999 OVC010/// 14/13 Q1015=
202109030120 METAR ESMX 030120Z AUTO 28008KT 250V320 9999 OVC009/// 14/13 Q1015=
202109030050 METAR ESMX 030050Z AUTO 27009KT 9999 OVC009/// 14/14 Q1015=
202109030020 METAR ESMX 030020Z AUTO 26008KT 9999 OVC008/// 14/14 Q1016=
202109022350 METAR ESMX 022350Z AUTO 26009KT 9000 BR OVC006/// 14/14 Q1016=
202109022320 METAR ESMX 022320Z AUTO 26007KT 8000 BR BKN006/// 14/14 Q1017=
202109022250 METAR ESMX 022250Z AUTO 24006KT 9000 BR NCD 14/13 Q1017=
202109022220 METAR ESMX 022220Z AUTO 25007KT 9999 NCD 14/14 Q1017=
202109022150 METAR ESMX 022150Z AUTO 25007KT 9999 NCD 14/13 Q1018=
202109022120 METAR ESMX 022120Z AUTO 25009KT 9999 NCD 14/14 Q1018=
202109022050 METAR ESMX 022050Z AUTO 26010KT 9999 FEW012/// 15/14 Q1018=
202109022020 METAR ESMX 022020Z AUTO 24008KT 200V260 9999 BKN012/// 15/14 Q1019=
202109021950 METAR ESMX 021950Z AUTO 25007KT 9999 NCD 15/13 Q1019=
202109021920 METAR ESMX 021920Z AUTO 22006KT 9999 FEW019/// 14/12 Q1019=
202109021850 METAR ESMX 021850Z AUTO 22006KT 9999 FEW023/// 15/11 Q1020=
202109021820 METAR ESMX 021820Z 23005KT CAVOK 15/10 Q1020=
202109021750 METAR ESMX 021750Z 25006KT 230V290 CAVOK 16/10 Q1020=
202109021720 METAR ESMX 021720Z 26009KT CAVOK 17/09 Q1020=
202109021650 METAR ESMX 021650Z 26008KT CAVOK 18/10 Q1021=
202109021620 METAR ESMX 021620Z 26011KT CAVOK 19/10 Q1021=
202109021550 METAR ESMX 021550Z 26011KT CAVOK 20/10 Q1021=
202109021520 METAR ESMX 021520Z 27010KT 230V300 CAVOK 21/10 Q1022=
202109021450 METAR ESMX 021450Z 26011KT 220V290 CAVOK 21/10 Q1022=
202109021420 METAR ESMX 021420Z 28009KT 230V310 CAVOK 21/10 Q1022=
202109021350 METAR ESMX 021350Z 27009KT 240V320 CAVOK 21/09 Q1023=
202109021320 METAR ESMX 021320Z AUTO 28010KT 250V320 9999 SCT061/// 21/09 Q1023=
202109021250 METAR ESMX 021250Z 30009KT CAVOK 21/10 Q1024=
202109021220 METAR ESMX 021220Z 29007KT 240V330 9999 FEW046 20/10 Q1024=
202109021150 METAR ESMX 021150Z 31009KT 9999 FEW043 20/10 Q1024=
202109021120 METAR ESMX 021120Z 30007KT 260V340 CAVOK 19/10 Q1024=
202109021050 METAR ESMX 021050Z 28006KT 230V320 CAVOK 19/10 Q1025=
202109021020 METAR ESMX 021020Z AUTO 31007KT 280V350 9999 NCD 18/09 Q1025=
202109020950 METAR ESMX 020950Z AUTO 31008KT 280V360 9999 NCD 18/09 Q1025=
202109020920 METAR ESMX 020920Z AUTO 32008KT 280V350 9999 NCD 17/09 Q1025=
202109020850 METAR ESMX 020850Z 32008KT 290V350 CAVOK 17/10 Q1025=
202109020820 METAR ESMX 020820Z 32006KT 270V360 CAVOK 16/10 Q1025=
202109020750 METAR ESMX 020750Z 30006KT 250V340 CAVOK 15/10 Q1025=
202109020720 METAR ESMX 020720Z 34004KT 300V020 CAVOK 14/10 Q1025=
202109020650 METAR ESMX 020650Z 34005KT CAVOK 13/10 Q1025=
202109020620 METAR ESMX 020620Z 32005KT CAVOK 12/10 Q1025=
202109020550 METAR ESMX 020550Z 33003KT CAVOK 11/10 Q1025=
202109020520 METAR ESMX 020520Z AUTO 34002KT 9999 NCD 10/09 Q1025=
202109020450 METAR ESMX 020450Z AUTO 34003KT 9999 NCD 10/09 Q1025=
202109020420 METAR ESMX 020420Z AUTO 35003KT 9999 NCD 10/09 Q1025=
202109020350 METAR ESMX 020350Z AUTO 33001KT 9999 NCD 09/09 Q1024=
202109020320 METAR ESMX 020320Z AUTO VRB02KT 9999 NCD 09/09 Q1024=
202109020250 METAR ESMX 020250Z AUTO 28004KT 9999 NCD 09/09 Q1024=
202109020220 METAR ESMX 020220Z AUTO VRB01KT 9999 NCD 10/09 Q1024=
202109020150 METAR ESMX 020150Z AUTO 29003KT 220V320 9999 NCD 10/09 Q1024=
202109020120 METAR ESMX 020120Z AUTO 31005KT 9999 NCD 10/09 Q1024=
202109020050 METAR ESMX 020050Z AUTO 32005KT 9999 NCD 11/09 Q1024=
202109020020 METAR ESMX 020020Z AUTO 32005KT 9999 NCD 11/09 Q1024=
202109012350 METAR ESMX 012350Z AUTO 31005KT 280V350 9999 NCD 11/09 Q1024=
202109012320 METAR ESMX 012320Z AUTO 31004KT 9999 NCD 11/09 Q1024=
202109012250 METAR ESMX 012250Z AUTO 30005KT 9999 NCD 12/10 Q1023=
202109012220 METAR ESMX 012220Z AUTO 30005KT 9999 NCD 13/10 Q1023=
202109012150 METAR ESMX 012150Z AUTO 29005KT 250V320 9999 NCD 13/10 Q1023=
202109012120 METAR ESMX 012120Z AUTO 28005KT 9999 FEW080/// 13/10 Q1023=
202109012050 METAR ESMX 012050Z AUTO 28004KT 9999 BKN082/// 13/10 Q1023=
202109012020 METAR ESMX 012020Z AUTO 27005KT 9999 NCD 13/10 Q1023=
202109011950 METAR ESMX 011950Z AUTO 26004KT 9999 NCD 12/10 Q1023=
202109011920 METAR ESMX 011920Z AUTO 25004KT 9999 NCD 13/10 Q1023=
202109011850 METAR ESMX 011850Z AUTO 25003KT 9999 NCD 13/10 Q1023=
202109011820 METAR ESMX 011820Z AUTO 25004KT 9999 NCD 13/10 Q1022=
202109011750 METAR ESMX 011750Z AUTO 27004KT 9999 NCD 14/10 Q1022=
202109011720 METAR ESMX 011720Z AUTO 27004KT 9999 NCD 15/10 Q1022=
202109011650 METAR ESMX 011650Z AUTO 28002KT 9999 NCD 17/11 Q1022=
202109011620 METAR ESMX 011620Z AUTO 31003KT 9999 NCD 18/09 Q1022=
202109011550 METAR ESMX 011550Z AUTO 33006KT 9999 NCD 18/08 Q1022=
202109011520 METAR ESMX 011520Z AUTO 31006KT 280V340 9999 NCD 18/08 Q1022=
202109011450 METAR ESMX 011450Z AUTO 33009KT 290V010 9999 NCD 18/08 Q1023=
202109011420 METAR ESMX 011420Z AUTO 34009KT 9999 FEW200/// 19/09 Q1023=
202109011350 METAR ESMX 011350Z 35010KT CAVOK 19/07 Q1023=
202109011320 METAR ESMX 011320Z 32010KT CAVOK 19/07 Q1023=
202109011250 METAR ESMX 011250Z 32009KT 290V350 CAVOK 19/09 Q1023=
202109011220 METAR ESMX 011220Z 32010KT 290V350 CAVOK 19/09 Q1023=
