##########################################################
# Query made at 04/19/2024 22:22:31 UTC
# Time interval: from 10/01/2021 12:00  to 10/31/2021 12:59  UTC
##########################################################

##########################################################
# ESMX, Vaxjo (Sweden)
# WMO index: 02641. WIGOS ID: 0-20000-0-02648
# Latitude 56-51N. Longitude 014-50E. Altitude 199 m.
##########################################################

202110311250 METAR ESMX 311250Z 19008KT 9999 BKN016 12/09 Q1007=
202110311220 METAR ESMX 311220Z 20008KT 9999 FEW014 SCT021 12/10 Q1007=
202110311150 METAR ESMX 311150Z 19008KT 9999 SCT010 BKN013 11/10 Q1007=
202110311120 METAR ESMX 311120Z 20008KT 9999 SCT008 BKN019 11/10 Q1007=
202110311050 METAR ESMX 311050Z 22007KT 9999 FEW007 BKN018 11/10 Q1007=
202110311020 METAR ESMX 311020Z 22008KT 8000 BKN005 11/10 Q1007=
202110310950 METAR ESMX 310950Z 22007KT 5000 BR BKN002 OVC004 10/10 Q1007=
202110310920 METAR COR ESMX 310920Z 20009KT 1700 BR OVC002 10/10 Q1006=
202110310850 METAR ESMX 310850Z AUTO 19006KT 1800 +DZ OVC002/// 10/10 Q1006 RERA=
202110310820 METAR ESMX 310820Z AUTO 19008KT 2800 BR OVC003/// 09/09 Q1006=
202110310750 METAR ESMX 310750Z AUTO 19007KT 3300 BR OVC003/// 09/09 Q1006=
202110310720 METAR ESMX 310720Z AUTO 19009KT 3300 DZ OVC003/// 09/09 Q1005 REDZ=
202110310650 METAR ESMX 310650Z AUTO 20006KT 3700 BR OVC003/// 09/09 Q1005=
202110310620 METAR ESMX 310620Z AUTO 21008KT 3700 BR BKN004/// OVC007/// 09/09 Q1004 REDZ=
202110310550 METAR ESMX 310550Z AUTO 18007KT 2900 DZ FEW007/// SCT013/// OVC037/// 09/09 Q1004=
202110310520 METAR ESMX 310520Z AUTO 19007KT 4800 +DZ FEW002/// BKN013/// OVC017/// 09/08 Q1004=
202110310450 METAR ESMX 310450Z AUTO 20007KT 9000 BR BKN015/// OVC035/// 09/08 Q1004=
202110310420 METAR ESMX 310420Z AUTO 18007KT 9000 BR OVC039/// 09/08 Q1004=
202110310350 METAR ESMX 310350Z AUTO 18006KT 8000 BR BKN043/// OVC057/// 09/08 Q1003=
202110310320 METAR ESMX 310320Z AUTO 18006KT 7000 BR OVC061/// 08/08 Q1003=
202110310250 METAR ESMX 310250Z AUTO 16005KT 7000 BR OVC074/// 08/08 Q1003=
202110310220 METAR ESMX 310220Z AUTO 16006KT 7000 BR FEW008/// BKN080/// OVC130/// 08/08 Q1003=
202110310150 METAR ESMX 310150Z AUTO 15006KT 8000 BR FEW008/// OVC094/// 08/08 Q1003=
202110310120 METAR ESMX 310120Z AUTO 14006KT 110V190 8000 BR OVC098/// 08/08 Q1004=
202110310050 METAR ESMX 310050Z AUTO 14006KT 100V160 8000 BR OVC110/// 08/08 Q1004=
202110310020 METAR ESMX 310020Z AUTO 13006KT 100V170 9000 BR OVC110/// 08/07 Q1004=
202110302350 METAR ESMX 302350Z AUTO 14004KT 090V200 8000 BR BKN120/// 08/07 Q1004=
202110302320 METAR ESMX 302320Z AUTO 13004KT 100V170 7000 BR SCT140/// 08/07 Q1004=
202110302250 METAR ESMX 302250Z AUTO 13004KT 7000 BR SCT150/// BKN170/// 08/07 Q1005=
202110302220 METAR ESMX 302220Z AUTO 10003KT 040V180 7000 BR BKN200/// 07/07 Q1005=
202110302150 METAR ESMX 302150Z AUTO 11004KT 8000 BR SCT170/// 08/07 Q1005=
202110302120 METAR ESMX 302120Z AUTO 13004KT 9000 BR NCD 08/07 Q1006=
202110302050 METAR ESMX 302050Z AUTO 12004KT 9000 BR NCD 08/07 Q1006=
202110302020 METAR ESMX 302020Z AUTO 12003KT 080V150 9000 BR NCD 08/07 Q1006=
202110301950 METAR ESMX 301950Z AUTO 12004KT 070V210 8000 BR NCD 09/08 Q1006=
202110301920 METAR ESMX 301920Z AUTO 11005KT 060V150 6000 BR NCD 09/08 Q1007=
202110301850 METAR ESMX 301850Z AUTO 11005KT 070V150 5000 BR FEW005/// 09/09 Q1007=
202110301820 METAR ESMX 301820Z 14004KT 6000 BR NSC 09/09 Q1007=
202110301750 METAR ESMX 301750Z 13004KT 6000 BR NSC 09/09 Q1007=
202110301720 METAR ESMX 301720Z 13004KT 6000 BR NSC 09/09 Q1007=
202110301650 METAR ESMX 301650Z 10004KT 050V140 6000 BR NSC 09/09 Q1008=
202110301620 METAR ESMX 301620Z 14003KT 8000 BR NSC 09/09 Q1008=
202110301550 METAR ESMX 301550Z 14003KT CAVOK 09/09 Q1008=
202110301520 METAR ESMX 301520Z AUTO 12003KT 9999 NCD 10/09 Q1008=
202110301450 METAR ESMX 301450Z AUTO 13004KT 9999 NCD 11/10 Q1009=
202110301420 METAR ESMX 301420Z AUTO 18003KT 9999 NCD 11/10 Q1009=
202110301350 METAR ESMX 301350Z AUTO 19003KT 9999 FEW190/// 11/10 Q1009=
202110301320 METAR ESMX 301320Z AUTO VRB03KT 9999 NCD 11/09 Q1009=
202110301250 METAR ESMX 301250Z AUTO 19003KT 9000 BR NCD 11/09 Q1009=
202110301220 METAR ESMX 301220Z AUTO 19004KT 9000 BR NCD 11/09 Q1009=
202110301150 METAR ESMX 301150Z AUTO 19004KT 6000 BR SCT007/// 11/09 Q1010=
202110301120 METAR ESMX 301120Z AUTO 15004KT 6000 BR OVC007/// 10/09 Q1010=
202110301050 METAR ESMX 301050Z AUTO 19004KT 6000 BR VV006 10/09 Q1010=
202110301020 METAR ESMX 301020Z AUTO 20005KT 4800 BR OVC005/// 10/09 Q1010=
202110300950 METAR ESMX 300950Z AUTO 17005KT 140V200 4100 BR OVC004/// 09/09 Q1010=
202110300920 METAR ESMX 300920Z AUTO 20005KT 3600 BR OVC004/// 09/09 Q1010=
202110300850 METAR ESMX 300850Z AUTO 19006KT 3100 BR OVC003/// 09/08 Q1010=
202110300820 METAR ESMX 300820Z AUTO 19007KT 2700 BR OVC003/// 08/08 Q1010=
202110300750 METAR ESMX 300750Z AUTO 17005KT 3000 BR OVC004/// 08/08 Q1009=
202110300720 METAR ESMX 300720Z AUTO 16005KT 3200 BR OVC004/// 08/08 Q1009=
202110300650 METAR ESMX 300650Z AUTO 18006KT 3300 BR OVC004/// 08/08 Q1009=
202110300620 METAR ESMX 300620Z AUTO 18007KT 150V220 3500 BR OVC005/// 08/08 Q1009=
202110300550 METAR ESMX 300550Z AUTO 16006KT 3700 BR OVC005/// 08/08 Q1008=
202110300520 METAR ESMX 300520Z AUTO 17007KT 3300 BR OVC004/// 08/08 Q1009=
202110300450 METAR ESMX 300450Z AUTO 16006KT 120V200 3200 BR OVC004/// 08/08 Q1008=
202110300420 METAR ESMX 300420Z AUTO 18008KT 2500 BR OVC003/// 08/08 Q1009=
202110300350 METAR ESMX 300350Z AUTO 14007KT 2800 BR OVC003/// 08/08 Q1008=
202110300320 METAR ESMX 300320Z AUTO 14006KT 100V180 2800 BR OVC003/// 08/08 Q1008=
202110300250 METAR ESMX 300250Z AUTO 15006KT 2300 OVC002/// 08/08 Q1008=
202110300220 METAR ESMX 300220Z AUTO 16005KT 1300 R01/P2000N R19/P2000N OVC001/// 08/08 Q1009=
202110300150 METAR ESMX 300150Z AUTO 17008KT 120V190 0900 R01/P2000N R19/P2000N FG OVC001/// 07/07 Q1009=
202110300120 METAR ESMX 300120Z AUTO 15005KT 0600 R01/P2000D R19/P2000N FG OVC002/// 07/07 Q1009=
202110300050 METAR ESMX 300050Z AUTO 15005KT 1300 R01/P2000N R19/P2000N BR OVC002/// 08/08 Q1009=
202110300020 METAR ESMX 300020Z AUTO 14005KT 110V170 1100 R01/P2000N R19/P2000N OVC002/// 08/08 Q1009=
202110292350 METAR ESMX 292350Z AUTO 15006KT 120V190 1000 R01/P2000N R19/P2000N OVC002/// 08/08 Q1010=
202110292320 METAR ESMX 292320Z AUTO 15007KT 1200 R01/P2000N R19/P2000N BR BKN003/// 08/08 Q1010=
202110292250 METAR ESMX 292250Z AUTO 14005KT 110V180 2900 BR NCD 08/08 Q1010=
202110292220 METAR ESMX 292220Z AUTO 16005KT 3400 BR SCT004/// 08/08 Q1010=
202110292150 METAR ESMX 292150Z AUTO 15005KT 110V170 3700 BR OVC005/// 08/08 Q1010=
202110292120 METAR ESMX 292120Z AUTO 17007KT 5000 BR OVC005/// 08/08 Q1011=
202110292050 METAR ESMX 292050Z AUTO 16008KT 4600 BR OVC004/// 08/08 Q1011=
202110292020 METAR ESMX 292020Z AUTO 17008KT 3400 BR OVC003/// 08/08 Q1011=
202110291950 METAR ESMX 291950Z AUTO 15007KT 110V180 3100 BR OVC003/// 08/08 Q1010=
202110291920 METAR ESMX 291920Z AUTO 16006KT 3100 BR OVC003/// 08/08 Q1011=
202110291850 METAR ESMX 291850Z AUTO 16007KT 3200 BR OVC003/// 08/08 Q1011=
202110291820 METAR ESMX 291820Z 16008KT 3300 BR BKN003 08/08 Q1011=
202110291750 METAR ESMX 291750Z 15007KT 3400 BR BKN003 09/08 Q1011=
202110291720 METAR ESMX 291720Z 15007KT 4000 BR BKN003 09/09 Q1011=
202110291650 METAR ESMX 291650Z 16007KT 4800 BR BKN004 09/09 Q1011=
202110291620 METAR ESMX 291620Z 16007KT 5000 BR SCT006 09/09 Q1011=
202110291550 METAR ESMX 291550Z AUTO 16007KT 9000 BR NCD 10/09 Q1010=
202110291520 METAR ESMX 291520Z 16007KT CAVOK 11/09 Q1010=
202110291450 METAR ESMX 291450Z 15005KT CAVOK 12/09 Q1010=
202110291420 METAR ESMX 291420Z 17005KT CAVOK 12/09 Q1011=
202110291350 METAR ESMX 291350Z 17006KT CAVOK 12/09 Q1011=
202110291320 METAR ESMX 291320Z 16006KT CAVOK 12/09 Q1011=
202110291250 METAR ESMX 291250Z 18007KT CAVOK 12/09 Q1011=
202110291220 METAR ESMX 291220Z 17007KT 140V200 9999 FEW012 12/09 Q1011=
202110291150 METAR ESMX 291150Z 17007KT 9999 BKN011 11/09 Q1011=
202110291120 METAR ESMX 291120Z 18008KT 9999 BKN010 10/09 Q1012=
202110291050 METAR ESMX 291050Z 18007KT 130V200 9999 BKN009 10/09 Q1012=
202110291020 METAR ESMX 291020Z 19007KT 9000 BKN009 10/08 Q1012=
202110290950 METAR ESMX 290950Z 17007KT 9000 BR BKN009 10/08 Q1012=
202110290920 METAR ESMX 290920Z 17008KT 120V200 9000 BKN009 10/09 Q1012=
202110290850 METAR ESMX 290850Z 15007KT 110V190 9000 BKN008 09/08 Q1011=
202110290820 METAR ESMX 290820Z 16008KT 120V190 7000 BKN008 09/08 Q1011=
202110290750 METAR ESMX 290750Z 18005KT 7000 BKN007 09/08 Q1011=
202110290720 METAR ESMX 290720Z 17008KT 6000 BKN008 09/08 Q1011=
202110290650 METAR ESMX 290650Z 17008KT 6000 BKN006 09/08 Q1011=
202110290620 METAR ESMX 290620Z 16008KT 5000 BR OVC005 09/08 Q1011=
202110290550 METAR ESMX 290550Z AUTO 15007KT 3900 BR OVC004/// 09/09 Q1011=
202110290520 METAR ESMX 290520Z AUTO 15006KT 110V190 3600 BR OVC003/// 09/09 Q1012=
202110290450 METAR ESMX 290450Z AUTO 15007KT 130V190 2600 OVC002/// 09/09 Q1012=
202110290420 METAR ESMX 290420Z AUTO 15006KT 120V190 1800 OVC001/// 08/08 Q1012=
202110290350 METAR ESMX 290350Z AUTO 16006KT 1900 BR OVC002/// 08/08 Q1012=
202110290320 METAR ESMX 290320Z AUTO 16007KT 1800 BR OVC002/// 09/09 Q1012=
202110290250 METAR ESMX 290250Z AUTO 15007KT 2400 BR OVC002/// 09/09 Q1013=
202110290220 METAR ESMX 290220Z AUTO 15006KT 2600 BR BKN004/// OVC006/// 09/09 Q1013=
202110290150 METAR ESMX 290150Z AUTO 17006KT 3400 BR OVC004/// 09/09 Q1013=
202110290120 METAR ESMX 290120Z AUTO 16006KT 4000 BR OVC004/// 09/09 Q1013=
202110290050 METAR ESMX 290050Z AUTO 18007KT 4900 BR OVC005/// 10/09 Q1014=
202110290020 METAR ESMX 290020Z AUTO 18008KT 5000 BR OVC005/// 10/10 Q1014=
202110282350 METAR ESMX 282350Z AUTO 18008KT 4000 BR OVC004/// 10/10 Q1014=
202110282320 METAR ESMX 282320Z AUTO 19006KT 3600 BR OVC003/// 10/10 Q1014=
202110282250 METAR ESMX 282250Z AUTO 19006KT 3400 BR OVC003/// 10/10 Q1014=
202110282220 METAR ESMX 282220Z AUTO 17007KT 3600 BR OVC003/// 10/10 Q1014=
202110282150 METAR ESMX 282150Z AUTO 18007KT 3500 BR OVC003/// 10/10 Q1015=
202110282120 METAR ESMX 282120Z AUTO 18008KT 3900 BR OVC003/// 10/10 Q1015=
202110282050 METAR ESMX 282050Z AUTO 18008KT 3400 BR OVC003/// 09/09 Q1015=
202110282020 METAR ESMX 282020Z AUTO 17007KT 4100 BR BKN004/// 09/09 Q1015=
202110281950 METAR ESMX 281950Z AUTO 18008KT 5000 BR NCD 09/09 Q1015=
202110281920 METAR ESMX 281920Z AUTO 18007KT 7000 BR NCD 09/09 Q1015=
202110281850 METAR ESMX 281850Z AUTO 18008KT 7000 BR NCD 09/09 Q1015=
202110281820 METAR COR ESMX 281820Z 19009KT 9000 NSC 09/09 Q1015=
202110281750 METAR ESMX 281750Z 18010KT CAVOK 10/09 Q1015=
202110281720 METAR ESMX 281720Z 19009KT CAVOK 10/09 Q1015=
202110281650 METAR ESMX 281650Z 19009KT CAVOK 10/09 Q1015=
202110281620 METAR ESMX 281620Z 19008KT CAVOK 10/10 Q1015=
202110281550 METAR ESMX 281550Z 18008KT CAVOK 11/10 Q1015=
202110281520 METAR ESMX 281520Z 19006KT CAVOK 11/10 Q1015=
202110281450 METAR ESMX 281450Z 19007KT CAVOK 11/10 Q1015=
202110281420 METAR ESMX 281420Z 20008KT 9999 FEW017 12/10 Q1016=
202110281350 METAR ESMX 281350Z 22009KT 9999 BKN017 12/09 Q1016=
202110281320 METAR ESMX 281320Z 22010KT 9999 BKN018 12/09 Q1016=
202110281250 METAR ESMX 281250Z 20010KT 9999 BKN019 12/10 Q1016=
202110281220 METAR ESMX 281220Z 22013KT 9999 BKN016 12/09 Q1016=
202110281150 METAR ESMX 281150Z 22009KT 9999 BKN016 12/10 Q1016=
202110281120 METAR ESMX 281120Z 22012KT 9999 BKN013 12/10 Q1016=
202110281050 METAR ESMX 281050Z 22011KT 9999 BKN011 12/11 Q1016=
202110281020 METAR ESMX 281020Z 20011KT 9999 BKN010 12/11 Q1016=
202110280950 METAR ESMX 280950Z 21011KT 9999 BKN008 12/11 Q1016=
202110280920 METAR ESMX 280920Z 22010KT 9999 BKN008 12/12 Q1016=
202110280850 METAR ESMX 280850Z 20010KT 9999 BKN007 12/12 Q1016=
202110280820 METAR ESMX 280820Z 22010KT 9999 OVC007 12/12 Q1016=
202110280750 METAR ESMX 280750Z 22010KT 9999 OVC007 12/12 Q1015=
202110280720 METAR ESMX 280720Z 22010KT 9999 OVC006 12/12 Q1015=
202110280650 METAR ESMX 280650Z 22010KT 9000 BR OVC005 12/12 Q1015=
202110280620 METAR ESMX 280620Z 22012KT 8000 BR OVC005 12/12 Q1015=
202110280550 METAR ESMX 280550Z 21010KT 6000 BR OVC005 12/12 Q1015=
202110280520 METAR ESMX 280520Z 23010KT 9000 BR OVC005 12/12 Q1014=
202110280450 METAR ESMX 280450Z 23010KT 4900 BR OVC004 12/12 Q1015=
202110280420 METAR ESMX 280420Z 22010KT 3900 BR OVC004 12/12 Q1014=
202110280350 METAR COR ESMX 280350Z 21010KT 8000 BR OVC005 12/12 Q1014=
202110280320 METAR ESMX 280320Z AUTO 23010KT 2700 BR SCT005/// OVC010/// 12/12 Q1014=
202110280250 METAR ESMX 280250Z AUTO 21010KT 2600 BR BKN004/// OVC009/// 12/12 Q1014=
202110280220 METAR ESMX 280220Z AUTO 22010KT 2400 -RA BKN004/// OVC009/// 12/12 Q1014 REDZ=
202110280150 METAR ESMX 280150Z AUTO 21010KT 2700 DZ BKN005/// OVC009/// 12/12 Q1014 REDZ=
202110280120 METAR ESMX 280120Z AUTO 23011KT 4400 BR OVC004/// 13/13 Q1014=
202110280050 METAR ESMX 280050Z AUTO 22010KT 4900 BR OVC004/// 13/13 Q1014=
202110280020 METAR ESMX 280020Z AUTO 22010KT 190V260 3900 -DZ OVC005/// 13/13 Q1014 REDZ=
202110272350 METAR ESMX 272350Z AUTO 23010KT 5000 BR OVC005/// 13/13 Q1013=
202110272320 METAR ESMX 272320Z AUTO 23010KT 200V260 9999 -DZ BKN006/// OVC008/// 13/13 Q1013=
202110272250 METAR ESMX 272250Z AUTO 24010KT 5000 BR OVC005/// 13/13 Q1013=
202110272220 METAR ESMX 272220Z AUTO 23008KT 4000 BR OVC006/// 13/13 Q1013=
202110272150 METAR ESMX 272150Z AUTO 22009KT 9999 OVC007/// 13/13 Q1013=
202110272120 METAR ESMX 272120Z AUTO 23010KT 9999 OVC008/// 13/13 Q1013=
202110272050 METAR ESMX 272050Z AUTO 23011KT 9999 OVC008/// 13/13 Q1013=
202110272020 METAR ESMX 272020Z AUTO 23010KT 9999 OVC007/// 13/13 Q1012=
202110271950 METAR ESMX 271950Z AUTO 24009KT 9999 OVC007/// 13/13 Q1012=
202110271920 METAR ESMX 271920Z AUTO 24010KT 4500 BR BKN007/// OVC010/// 13/13 Q1012 RERA=
202110271850 METAR ESMX 271850Z AUTO 23009KT 200V260 5000 BR BKN007/// 13/13 Q1012 REDZ=
202110271820 METAR ESMX 271820Z AUTO 24009KT 2600 -RA VV008 13/13 Q1012=
202110271750 METAR ESMX 271750Z 23010KT 4000 -RA BR BKN006 13/13 Q1011=
202110271720 METAR ESMX 271720Z 24011KT 3300 -RA BR BKN005 13/13 Q1011=
202110271650 METAR ESMX 271650Z 25012KT 210V280 3400 -RA BR BKN004 13/13 Q1011=
202110271620 METAR ESMX 271620Z 24011KT 6000 BR -RA BKN006 13/13 Q1010=
202110271550 METAR ESMX 271550Z 24012KT 3800 BR -RA BKN005 13/13 Q1010=
202110271520 METAR ESMX 271520Z 23012KT 4300 BR -RA BKN006 13/13 Q1010=
202110271450 METAR ESMX 271450Z 24013KT 6000 BR BKN005 13/13 Q1010=
202110271420 METAR ESMX 271420Z 23012KT 190V260 3600 BR -RA BKN004 13/13 Q1010=
202110271350 METAR ESMX 271350Z 24013KT 4300 BR -RA BKN006 13/13 Q1009=
202110271320 METAR ESMX 271320Z 24014KT 5000 BR -RA BKN007 13/13 Q1009=
202110271250 METAR ESMX 271250Z 24013KT 210V280 4800 -RA BR OVC006 13/13 Q1009=
202110271220 METAR ESMX 271220Z 24015KT 190V260 5000 BR -RA BKN006 13/13 Q1009=
202110271150 METAR ESMX 271150Z 22015KT 6000 -DZ BKN008 13/13 Q1009=
202110271120 METAR ESMX 271120Z 24014G24KT 9999 BKN009 13/12 Q1009=
202110271050 METAR ESMX 271050Z 23014KT 9999 BKN008 13/12 Q1009=
202110271020 METAR ESMX 271020Z AUTO 22016KT 190V250 9000 BR OVC009/// 13/12 Q1009=
202110270950 METAR ESMX 270950Z 23016KT 7000 -DZ BKN006 13/12 Q1009=
202110270920 METAR ESMX 270920Z 22014KT 6000 BR BKN004 12/12 Q1009=
202110270850 METAR ESMX 270850Z 21013KT 5000 BR BKN003 12/12 Q1009=
202110270820 METAR ESMX 270820Z 21013KT 5000 BR BKN002 11/11 Q1009=
202110270750 METAR ESMX 270750Z 19013KT 3400 DZ BR BKN002 11/11 Q1009=
202110270720 METAR ESMX 270720Z 19014KT 2200 BR BKN002 11/11 Q1009=
202110270650 METAR ESMX 270650Z 19013KT 5000 BR BKN004 10/10 Q1009=
202110270620 METAR ESMX 270620Z 19012KT 5000 DZ BKN003 10/10 Q1009=
202110270550 METAR ESMX 270550Z 18012KT 7000 -DZ BKN003 10/10 Q1010=
202110270520 METAR ESMX 270520Z AUTO 18012KT 6000 -DZ OVC004/// 09/09 Q1010=
202110270450 METAR ESMX 270450Z AUTO 18011KT 4100 DZ OVC003/// 09/09 Q1010 REDZ=
202110270420 METAR ESMX 270420Z AUTO 17009KT 4600 OVC003/// 08/08 Q1011 RESHUP=
202110270350 METAR ESMX 270350Z AUTO 19009KT 2700 -DZ OVC001/// 08/08 Q1011 RESHUP REDZ=
202110270320 METAR ESMX 270320Z AUTO 18008KT 1100 R01/P2000N R19/P2000N -RA OVC001/// 08/08 Q1012 REDZ=
202110270250 METAR ESMX 270250Z AUTO 18008KT 0550 R01/1400N R19/1600N DZ OVC001/// 07/07 Q1012 REUP RESHUP=
202110270220 METAR ESMX 270220Z AUTO 19009KT 1200 R01/P2000N R19/P2000N BR OVC001/// 07/07 Q1012=
202110270150 METAR ESMX 270150Z AUTO 19008KT 5000 BR OVC001/// 07/07 Q1012=
202110270120 METAR ESMX 270120Z AUTO 18008KT 2100 BR OVC002/// 07/07 Q1013=
202110270050 METAR ESMX 270050Z AUTO 22009KT 5000 BR OVC003/// 07/07 Q1013=
202110270020 METAR ESMX 270020Z AUTO 23009KT 9999 OVC004/// 07/07 Q1013=
202110262350 METAR ESMX 262350Z AUTO 21009KT 9999 OVC005/// 08/08 Q1013=
202110262320 METAR ESMX 262320Z AUTO 22007KT 9999 BKN005/// OVC008/// 08/07 Q1013=
202110262250 METAR ESMX 262250Z AUTO 20007KT 9999 FEW006/// OVC009/// 08/08 Q1014=
202110262220 METAR ESMX 262220Z AUTO 23008KT 9999 BKN005/// OVC007/// 08/08 Q1014=
202110262150 METAR ESMX 262150Z AUTO 23009KT 9999 OVC004/// 07/07 Q1014=
202110262120 METAR ESMX 262120Z AUTO 20008KT 7000 OVC001/// 07/07 Q1014=
202110262050 METAR ESMX 262050Z AUTO 21008KT 0700 R01/P2000D R19/P2000N FG OVC002/// 06/06 Q1014=
202110262020 METAR ESMX 262020Z AUTO 22006KT 8000 BR BKN002/// 06/06 Q1014=
202110261950 METAR ESMX 261950Z AUTO 20007KT 9999 FEW002/// 06/06 Q1013=
202110261920 METAR ESMX 261920Z AUTO 22006KT 9999 FEW007/// 06/06 Q1013=
202110261850 METAR ESMX 261850Z AUTO 22007KT 9999 NCD 07/07 Q1013=
202110261820 METAR ESMX 261820Z AUTO 22007KT 9999 NCD 07/07 Q1013=
202110261750 METAR ESMX 261750Z 22007KT 9999 FEW020 07/07 Q1013=
202110261720 METAR ESMX 261720Z 22007KT CAVOK 07/07 Q1013=
202110261650 METAR ESMX 261650Z 21007KT CAVOK 07/07 Q1012=
202110261620 METAR ESMX 261620Z AUTO 20006KT 9999 NCD 07/07 Q1012=
202110261550 METAR ESMX 261550Z 22006KT 9999 FEW021 08/07 Q1012=
202110261520 METAR ESMX 261520Z 23006KT 9999 FEW021 09/07 Q1012=
202110261450 METAR ESMX 261450Z 25007KT 9999 FEW021 10/08 Q1012=
202110261420 METAR ESMX 261420Z 24010KT 9999 FEW017 SCT048 11/08 Q1011=
202110261350 METAR ESMX 261350Z 23009KT 9999 SCT015 11/09 Q1011=
202110261320 METAR ESMX 261320Z 23010KT 9999 SCT013 11/09 Q1011=
202110261250 METAR ESMX 261250Z 22008KT 190V250 9999 SCT013 11/09 Q1011=
202110261220 METAR ESMX 261220Z 24007KT 9999 SCT011 11/09 Q1011=
202110261150 METAR ESMX 261150Z 24007KT 9999 SCT009 BKN012 10/09 Q1011=
202110261120 METAR ESMX 261120Z 24006KT 9999 BKN009 10/10 Q1011=
202110261050 METAR ESMX 261050Z 23006KT 9999 BKN007 10/10 Q1011=
202110261020 METAR ESMX 261020Z 23008KT 9999 -RA BKN005 10/10 Q1011=
202110260950 METAR ESMX 260950Z 21006KT 7000 -RA BKN005 10/10 Q1011=
202110260920 METAR ESMX 260920Z 22006KT 9000 -RA BR OVC004 09/09 Q1011=
202110260850 METAR ESMX 260850Z 21009KT 5000 -RA BR OVC003 09/09 Q1011=
202110260820 METAR ESMX 260820Z 19010KT 4100 -DZ BR OVC003 09/09 Q1011=
202110260750 METAR ESMX 260750Z 19010KT 4300 BR OVC002 09/09 Q1011=
202110260720 METAR ESMX 260720Z 18009KT 3900 BR OVC002 09/09 Q1011=
202110260650 METAR ESMX 260650Z 19009KT 3600 BR OVC002 09/09 Q1011=
202110260620 METAR ESMX 260620Z 19009KT 5000 BR OVC003 08/08 Q1011=
202110260550 METAR ESMX 260550Z 21007KT 6000 BR OVC003 08/08 Q1011=
202110260520 METAR ESMX 260520Z 21007KT 4100 BR OVC002 08/08 Q1011=
202110260450 METAR ESMX 260450Z 21007KT 2400 BR OVC002 08/08 Q1011=
202110260420 METAR ESMX 260420Z 20006KT 2100 BR OVC002 08/08 Q1011=
202110260350 METAR COR ESMX 260350Z 20006KT 1100 R01/P2000N R19/P2000N BR OVC002 08/08 Q1011=
202110260320 METAR ESMX 260320Z AUTO 18006KT 1000 R01/P2000N R19/P2000N OVC001/// 08/08 Q1012=
202110260250 METAR ESMX 260250Z AUTO 20006KT 0350 R01/1000U R19/1000U FG OVC001/// 08/08 Q1012=
202110260220 METAR ESMX 260220Z AUTO 20006KT 0450 R01/1200D R19/1400D FG OVC001/// 08/08 Q1012 REDZ=
202110260150 METAR ESMX 260150Z AUTO 22006KT 1800 BR OVC001/// 08/08 Q1012=
202110260120 METAR ESMX 260120Z AUTO 20006KT 3300 BR OVC002/// 08/08 Q1012 REDZ=
202110260050 METAR ESMX 260050Z AUTO 20006KT 2200 DZ OVC002/// 07/07 Q1012=
202110260020 METAR ESMX 260020Z AUTO 19005KT 2600 DZ OVC002/// 07/07 Q1013 REDZ REUP=
202110252350 METAR ESMX 252350Z AUTO 19005KT 3100 BR OVC002/// 07/07 Q1013=
202110252320 METAR ESMX 252320Z AUTO 19006KT 3400 BR OVC002/// 07/07 Q1013=
202110252250 METAR ESMX 252250Z AUTO 19005KT 3700 BR OVC003/// 07/07 Q1013=
202110252220 METAR ESMX 252220Z AUTO 19005KT 4800 BR BKN004/// BKN020/// OVC057/// 07/07 Q1013 RESHUP REUP=
202110252150 METAR ESMX 252150Z AUTO 19006KT 4700 BR FEW043/// OVC062/// 07/07 Q1013=
202110252120 METAR ESMX 252120Z AUTO 20005KT 5000 BR OVC048/// 07/07 Q1013=
202110252050 METAR ESMX 252050Z AUTO 18004KT 4400 BR FEW009/// BKN051/// OVC092/// 06/06 Q1014 RESHUP REUP=
202110252020 METAR ESMX 252020Z AUTO 18005KT 6000 BR SCT008/// OVC042/// 06/06 Q1014=
202110251950 METAR ESMX 251950Z AUTO 19006KT 6000 BR SCT080/// OVC098/// 06/06 Q1014=
202110251920 METAR ESMX 251920Z AUTO 20007KT 9999 FEW080/// SCT098/// BKN150/// 06/06 Q1014=
202110251850 METAR ESMX 251850Z AUTO 19006KT 9000 BR FEW100/// 05/05 Q1014=
202110251820 METAR ESMX 251820Z AUTO 19004KT 4300 NCD 05/05 Q1014=
202110251750 METAR ESMX 251750Z 19004KT CAVOK 06/06 Q1014=
202110251720 METAR ESMX 251720Z 17004KT CAVOK 06/06 Q1014=
202110251650 METAR ESMX 251650Z 19004KT CAVOK 07/06 Q1014=
202110251620 METAR ESMX 251620Z 19004KT CAVOK 08/07 Q1014=
202110251550 METAR ESMX 251550Z 20005KT CAVOK 08/06 Q1014=
202110251520 METAR ESMX 251520Z 17004KT CAVOK 08/06 Q1014=
202110251450 METAR ESMX 251450Z 22002KT CAVOK 09/07 Q1014=
202110251420 METAR ESMX 251420Z 22003KT 9999 SCT023 09/07 Q1014=
202110251350 METAR ESMX 251350Z 20005KT 9999 FEW017 BKN024 09/06 Q1015=
202110251320 METAR ESMX 251320Z 21006KT 9999 FEW016 10/07 Q1015=
202110251250 METAR ESMX 251250Z 20007KT 9999 FEW015 09/06 Q1015=
202110251220 METAR ESMX 251220Z 21007KT 9999 BKN013 09/06 Q1015=
202110251150 METAR ESMX 251150Z 21007KT 9999 BKN012 09/06 Q1015=
202110251120 METAR ESMX 251120Z 22006KT 190V250 9999 BKN010 08/06 Q1016=
202110251050 METAR ESMX 251050Z 20008KT 160V230 9999 BKN007 07/06 Q1016=
202110251020 METAR ESMX 251020Z 20008KT 9999 BKN004 07/06 Q1016=
202110250950 METAR ESMX 250950Z 19008KT 9999 BKN004 06/06 Q1016=
202110250920 METAR ESMX 250920Z AUTO 20009KT 9000 BR OVC003/// 06/06 Q1016=
202110250850 METAR ESMX 250850Z 20010KT 9999 BKN003 06/06 Q1016=
202110250820 METAR ESMX 250820Z 17005KT 9999 BKN005 06/06 Q1016=
202110250750 METAR ESMX 250750Z 16005KT 0400 R01/0650N R19/1100D FG VV002 04/04 Q1017=
202110250720 METAR ESMX 250720Z AUTO 16004KT 0400 R01/1100N R19/0650N FG BKN001/// OVC002/// 04/04 Q1016=
202110250650 METAR ESMX 250650Z 15004KT 0350 R01/0800N R19/0600N FG VV002 04/04 Q1016=
202110250620 METAR ESMX 250620Z 15006KT 0250 R01/0550N R19/0600N FG VV002 04/04 Q1016=
202110250550 METAR ESMX 250550Z 16004KT 0900 R01/1700D R19/P2000N FG VV002 04/04 Q1017=
202110250520 METAR ESMX 250520Z AUTO 15006KT 1000 R01/P2000N R19/P2000N BR SCT003/// 04/04 Q1017=
202110250450 METAR ESMX 250450Z AUTO 16005KT 7000 BR NCD 04/04 Q1017=
202110250420 METAR ESMX 250420Z AUTO 16004KT 4000 BR NCD 04/04 Q1017=
202110250350 METAR ESMX 250350Z AUTO 15004KT 6000 BR NCD 04/04 Q1018=
202110250320 METAR ESMX 250320Z AUTO 16005KT 9999 NCD 04/04 Q1018=
202110250250 METAR ESMX 250250Z AUTO 16005KT 7000 NCD 04/04 Q1018=
202110250220 METAR ESMX 250220Z AUTO 16005KT 5000 NCD 04/04 Q1019=
202110250150 METAR ESMX 250150Z AUTO 17004KT 9999 NCD 05/05 Q1019=
202110250120 METAR ESMX 250120Z AUTO 18005KT 9999 NCD 05/05 Q1019=
202110250050 METAR ESMX 250050Z AUTO 18005KT 9999 NCD 06/05 Q1020=
202110250020 METAR ESMX 250020Z AUTO 17005KT 9999 NCD 06/05 Q1020=
202110242350 METAR ESMX 242350Z AUTO 18007KT 9999 BKN024/// 06/05 Q1020=
202110242320 METAR ESMX 242320Z AUTO 18007KT 9999 OVC026/// 07/05 Q1020=
202110242250 METAR ESMX 242250Z AUTO 17006KT 9999 OVC027/// 06/04 Q1020=
202110242220 METAR ESMX 242220Z AUTO 18005KT 9999 OVC028/// 06/04 Q1021=
202110242150 METAR ESMX 242150Z 16006KT 130V200 9999 BKN030 06/04 Q1021=
202110242120 METAR ESMX 242120Z 17005KT 9999 SCT029 05/04 Q1022=
202110242050 METAR ESMX 242050Z 18005KT 9999 FEW024 05/04 Q1022=
202110242020 METAR ESMX 242020Z AUTO 18006KT 9999 NCD 05/04 Q1022=
202110241950 METAR ESMX 241950Z AUTO 19006KT 9999 NCD 05/04 Q1022=
202110241920 METAR ESMX 241920Z 18006KT CAVOK 05/04 Q1022=
202110241850 METAR ESMX 241850Z AUTO 19009KT 9999 NCD 06/04 Q1022=
202110241820 METAR ESMX 241820Z 18007KT CAVOK 07/05 Q1023=
202110241750 METAR ESMX 241750Z 18007KT CAVOK 07/05 Q1023=
202110241720 METAR ESMX 241720Z 18007KT CAVOK 07/05 Q1023=
202110241650 METAR ESMX 241650Z 20007KT 9999 BKN049 08/06 Q1023=
202110241620 METAR ESMX 241620Z 19007KT 9999 BKN049 08/06 Q1023=
202110241550 METAR ESMX 241550Z 19009KT 9999 BKN049 09/06 Q1023=
202110241520 METAR ESMX 241520Z 21007KT 9999 FEW048 09/06 Q1023=
202110241450 METAR ESMX 241450Z 20012KT 9999 FEW037 09/06 Q1024=
202110241420 METAR ESMX 241420Z 21011KT 9999 SCT057 10/06 Q1024=
202110241350 METAR ESMX 241350Z AUTO 22010KT 9999 SCT025/// OVC057/// 10/06 Q1024=
202110241320 METAR ESMX 241320Z 19009KT CAVOK 10/07 Q1024=
202110241250 METAR ESMX 241250Z 20009KT CAVOK 10/07 Q1024=
202110241220 METAR ESMX 241220Z 20009KT CAVOK 09/06 Q1024=
202110241150 METAR ESMX 241150Z 19011KT CAVOK 09/06 Q1025=
202110241120 METAR ESMX 241120Z 19011KT CAVOK 09/06 Q1025=
202110241050 METAR ESMX 241050Z 20012KT CAVOK 09/06 Q1025=
202110241020 METAR ESMX 241020Z 20011KT 9999 FEW046 08/06 Q1025=
202110240950 METAR ESMX 240950Z 19010KT 9999 BKN045 08/06 Q1025=
202110240920 METAR ESMX 240920Z 19010KT 9999 BKN039 07/06 Q1025=
202110240850 METAR ESMX 240850Z 19008KT 9999 FEW028 BKN038 06/05 Q1025=
202110240820 METAR ESMX 240820Z 19008KT 9999 BKN040 06/05 Q1025=
202110240750 METAR ESMX 240750Z 18007KT 9999 BKN040 05/04 Q1025=
202110240720 METAR ESMX 240720Z 20007KT 9999 BKN035 05/03 Q1025=
202110240650 METAR ESMX 240650Z 20007KT 9999 BKN038 04/03 Q1025=
202110240620 METAR ESMX 240620Z 20006KT 9999 BKN035 04/03 Q1025=
202110240550 METAR ESMX 240550Z 20006KT 9999 BKN036 03/03 Q1025=
202110240520 METAR ESMX 240520Z AUTO 20006KT 9999 FEW140/// 02/02 Q1025=
202110240450 METAR ESMX 240450Z AUTO 20005KT 9999 OVC041/// 02/02 Q1025=
202110240420 METAR ESMX 240420Z AUTO 20005KT 9999 OVC036/// 03/02 Q1025=
202110240350 METAR ESMX 240350Z AUTO 21005KT 9999 FEW023/// OVC040/// 02/02 Q1025=
202110240320 METAR ESMX 240320Z AUTO 18003KT 9999 FEW021/// OVC033/// 01/01 Q1025=
202110240250 METAR ESMX 240250Z AUTO 21004KT 9999 FEW023/// OVC040/// 01/01 Q1025=
202110240220 METAR ESMX 240220Z AUTO 22004KT 9999 FEW042/// M00/M00 Q1025=
202110240150 METAR ESMX 240150Z AUTO 23004KT 9999 NCD 01/00 Q1025=
202110240120 METAR ESMX 240120Z AUTO 23004KT 9999 OVC025/// 01/00 Q1026=
202110240050 METAR ESMX 240050Z AUTO 23005KT 9999 BKN022/// 01/00 Q1025=
202110240020 METAR ESMX 240020Z AUTO 23003KT 9999 NCD M01/M01 Q1025=
202110232350 METAR ESMX 232350Z AUTO 23003KT 9999 NCD M01/M01 Q1025=
202110232320 METAR ESMX 232320Z AUTO 18002KT 9999 NCD M02/M02 Q1025=
202110232250 METAR ESMX 232250Z AUTO 18002KT 9999 NCD M01/M01 Q1025=
202110232220 METAR ESMX 232220Z AUTO 16001KT 9999 NCD M01/M01 Q1025=
202110232150 METAR ESMX 232150Z AUTO 23001KT 9999 NCD M01/M01 Q1025=
202110232120 METAR ESMX 232120Z AUTO 16002KT 9999 NCD M01/M01 Q1025=
202110232050 METAR ESMX 232050Z AUTO 23003KT 9999 NCD M01/M01 Q1024=
202110232020 METAR ESMX 232020Z AUTO 23001KT 9999 NCD M01/M02 Q1024=
202110231950 METAR ESMX 231950Z AUTO 24002KT 9999 NCD 01/M00 Q1024=
202110231920 METAR ESMX 231920Z AUTO 25005KT 9999 NCD M00/M01 Q1024=
202110231850 METAR ESMX 231850Z AUTO 25003KT 9999 NCD 01/M00 Q1023=
202110231820 METAR ESMX 231820Z 27003KT 240V330 CAVOK 01/M00 Q1023=
202110231750 METAR ESMX 231750Z 00000KT CAVOK 01/00 Q1023=
202110231720 METAR ESMX 231720Z 27001KT CAVOK 02/01 Q1022=
202110231650 METAR ESMX 231650Z 26003KT CAVOK 02/01 Q1022=
202110231620 METAR ESMX 231620Z 24002KT CAVOK 03/01 Q1022=
202110231550 METAR ESMX 231550Z 27003KT CAVOK 04/01 Q1021=
202110231520 METAR ESMX 231520Z 31004KT 9999 FEW047 07/00 Q1021=
202110231450 METAR ESMX 231450Z 30006KT 9999 FEW043 08/00 Q1020=
202110231420 METAR ESMX 231420Z 30008KT 280V340 9999 FEW043 09/00 Q1020=
202110231350 METAR ESMX 231350Z 32007KT 280V350 9999 FEW043 09/00 Q1019=
202110231320 METAR ESMX 231320Z 33010KT 9999 FEW044 09/00 Q1019=
202110231250 METAR ESMX 231250Z 32011KT 9999 FEW036 09/00 Q1019=
202110231220 METAR ESMX 231220Z 33010KT 290V010 9999 FEW036 09/00 Q1018=
202110231150 METAR ESMX 231150Z 31011KT 280V340 9999 FEW032 08/00 Q1018=
202110231120 METAR ESMX 231120Z 33011KT CAVOK 08/02 Q1017=
202110231050 METAR ESMX 231050Z 33011KT CAVOK 08/01 Q1016=
202110231020 METAR ESMX 231020Z 33014KT 290V350 CAVOK 07/01 Q1016=
202110230950 METAR ESMX 230950Z 32010KT CAVOK 07/01 Q1015=
202110230920 METAR ESMX 230920Z 32010KT 290V360 CAVOK 07/02 Q1015=
202110230850 METAR ESMX 230850Z 33010KT CAVOK 06/01 Q1014=
202110230820 METAR ESMX 230820Z 33009KT CAVOK 05/01 Q1013=
202110230750 METAR ESMX 230750Z 32007KT CAVOK 04/01 Q1012=
202110230720 METAR ESMX 230720Z 30008KT CAVOK 03/00 Q1012=
202110230650 METAR ESMX 230650Z 29006KT CAVOK 03/M00 Q1011=
202110230620 METAR ESMX 230620Z 29007KT CAVOK 02/M00 Q1010=
202110230550 METAR COR ESMX 230550Z 29007KT CAVOK 02/M00 Q1010=
202110230520 METAR ESMX 230520Z AUTO 29007KT 9999 NCD 02/M00 Q1009=
202110230450 METAR ESMX 230450Z AUTO 29005KT 260V320 9999 NCD 03/M00 Q1008=
202110230420 METAR ESMX 230420Z AUTO 28005KT 9999 NCD 02/M00 Q1008=
202110230350 METAR ESMX 230350Z AUTO 30005KT 9999 NCD 03/M00 Q1007=
202110230320 METAR ESMX 230320Z AUTO 29007KT 9999 NCD 03/M00 Q1006=
202110230250 METAR ESMX 230250Z AUTO 29007KT 9999 NCD 03/00 Q1005=
202110230220 METAR ESMX 230220Z AUTO 28007KT 9999 NCD 03/00 Q1005=
202110230150 METAR ESMX 230150Z AUTO 28007KT 9999 NCD 03/00 Q1004=
202110230120 METAR ESMX 230120Z AUTO 29007KT 9999 NCD 03/01 Q1004=
202110230050 METAR ESMX 230050Z AUTO 28008KT 9999 NCD 04/01 Q1003=
202110230020 METAR ESMX 230020Z AUTO 28007KT 9999 NCD 04/01 Q1003=
202110222350 METAR ESMX 222350Z AUTO 27007KT 9999 NCD 04/02 Q1002=
202110222320 METAR ESMX 222320Z AUTO 27008KT 9999 NCD 04/02 Q1001=
202110222250 METAR ESMX 222250Z AUTO 26007KT 230V290 9999 NCD 04/02 Q1001=
202110222220 METAR ESMX 222220Z AUTO 25006KT 230V290 9999 NCD 04/02 Q1000=
202110222150 METAR ESMX 222150Z AUTO 25006KT 9999 NCD 03/02 Q1000=
202110222120 METAR ESMX 222120Z AUTO 25006KT 9999 NCD 04/02 Q1000=
202110222050 METAR ESMX 222050Z AUTO 25006KT 9999 NCD 03/02 Q0999=
202110222020 METAR ESMX 222020Z AUTO 22004KT 9999 NCD 03/01 Q0999=
202110221950 METAR ESMX 221950Z AUTO 24004KT 230V290 9999 NCD 04/01 Q0999=
202110221920 METAR ESMX 221920Z AUTO 24006KT 9999 NCD 04/01 Q0998=
202110221850 METAR ESMX 221850Z AUTO 25007KT 220V280 9999 NCD 04/01 Q0998=
202110221820 METAR ESMX 221820Z AUTO 25007KT 9999 NCD 04/01 Q0997=
202110221750 METAR ESMX 221750Z 25008KT CAVOK 04/01 Q0997=
202110221720 METAR ESMX 221720Z 25007KT CAVOK 05/01 Q0996=
202110221650 METAR ESMX 221650Z 26008KT CAVOK 05/01 Q0996=
202110221620 METAR ESMX 221620Z 25008KT CAVOK 05/01 Q0995=
202110221550 METAR ESMX 221550Z 25007KT 9999 BKN038 06/02 Q0995=
202110221520 METAR ESMX 221520Z 25010KT 9999 FEW025 06/01 Q0994=
202110221450 METAR ESMX 221450Z 25012KT 220V280 9999 FEW025 07/02 Q0993=
202110221420 METAR ESMX 221420Z 25010KT 9999 FEW025 07/02 Q0993=
202110221350 METAR ESMX 221350Z 25010KT 9999 FEW068CB 07/02 Q0993=
202110221320 METAR ESMX 221320Z 25015KT 210V300 9999 FEW020 BKN028 07/03 Q0993=
202110221250 METAR ESMX 221250Z 23010KT 200V260 9999 FEW029 08/04 Q0992=
202110221220 METAR ESMX 221220Z 25010KT 9999 FEW020 08/04 Q0992=
202110221150 METAR ESMX 221150Z 24008KT 9999 FEW020 07/04 Q0992=
202110221120 METAR ESMX 221120Z AUTO 23008KT 200V270 9999 FEW120/// 07/04 Q0992=
202110221050 METAR ESMX 221050Z 25006KT 9999 VCSH SCT016CB 05/04 Q0992=
202110221020 METAR ESMX 221020Z 25005KT 220V290 9999 -RA FEW009 SCT031 05/04 Q0992=
202110220950 METAR ESMX 220950Z 29007KT 250V310 9999 -SHRA BKN020 04/04 Q0992=
202110220920 METAR ESMX 220920Z AUTO 28004KT 240V330 9999 -RA FEW019/// BKN027/// BKN037/// 04/03 Q0991=
202110220850 METAR ESMX 220850Z AUTO 30009KT 9999 -RA FEW008/// BKN022/// OVC039/// 03/03 Q0991=
202110220820 METAR COR ESMX 220820Z 23010KT 200V260 9999 -RA SCT012 BKN026 05/05 Q0991=
202110220750 METAR ESMX 220750Z 22009KT 9999 FEW018 SCT039 05/04 Q0991=
202110220720 METAR ESMX 220720Z 23007KT 9999 SHRA FEW004 BKN029 05/04 Q0991=
202110220650 METAR ESMX 220650Z 22009KT 9999 SCT023 04/04 Q0991=
202110220620 METAR ESMX 220620Z 20009KT 9999 FEW020 BKN041 04/04 Q0990=
202110220550 METAR ESMX 220550Z 22006KT 9999 BKN019 04/03 Q0990=
202110220520 METAR ESMX 220520Z AUTO 28003KT 230V330 9999 SCT019/// BKN028/// BKN043/// 04/03 Q0990=
202110220450 METAR ESMX 220450Z AUTO 23004KT 210V340 6000 FEW011/// BKN033/// 04/03 Q0991 RESHUP REDZ=
202110220420 METAR ESMX 220420Z AUTO 26004KT 230V300 9999 SCT014/// BKN017/// OVC023/// 04/03 Q0991=
202110220350 METAR ESMX 220350Z AUTO 22006KT 170V250 9999 FEW019/// BKN025/// 04/02 Q0990 RERA=
202110220320 METAR ESMX 220320Z AUTO 23007KT 200V270 9999 BKN032/// 04/02 Q0990=
202110220250 METAR ESMX 220250Z AUTO 26017G28KT 9999 FEW014/// BKN090/// 04/01 Q0990 RESHUP REUP=
202110220220 METAR ESMX 220220Z AUTO 25010KT 9999 FEW034/// 05/02 Q0990 RESHUP REUP=
202110220150 METAR ESMX 220150Z AUTO 25010KT 9999 SCT034/// 05/02 Q0989=
202110220120 METAR ESMX 220120Z AUTO 25011KT 9999 NCD 05/01 Q0989=
202110220050 METAR ESMX 220050Z AUTO 25011G22KT 9999 NCD 05/02 Q0989=
202110220020 METAR ESMX 220020Z AUTO 23009KT 9999 NCD 05/03 Q0988=
202110212350 METAR ESMX 212350Z AUTO 24009KT 9999 NCD 05/03 Q0988=
202110212320 METAR ESMX 212320Z AUTO 23010KT 9999 FEW051/// 05/03 Q0988=
202110212250 METAR ESMX 212250Z AUTO 25010KT 9999 BKN055/// 06/03 Q0987=
202110212220 METAR ESMX 212220Z AUTO 25012KT 9999 OVC053/// 06/03 Q0987=
202110212150 METAR ESMX 212150Z AUTO 23011KT 190V260 9999 OVC057/// 06/04 Q0987=
202110212120 METAR ESMX 212120Z AUTO 23009KT 9999 BKN053/// 05/04 Q0986=
202110212050 METAR ESMX 212050Z AUTO 23009KT 9999 FEW053/// 06/04 Q0986=
202110212020 METAR ESMX 212020Z AUTO 23010KT 9999 BKN053/// 06/04 Q0986=
202110211950 METAR ESMX 211950Z AUTO 22011KT 9999 FEW039/// BKN059/// 06/04 Q0985=
202110211920 METAR ESMX 211920Z AUTO 23011KT 9999 FEW038/// SCT055/// 06/04 Q0985=
202110211850 METAR ESMX 211850Z AUTO 23012KT 9999 NCD 06/04 Q0984 RESHUP=
202110211820 METAR ESMX 211820Z 21011KT 9999 -RA FEW048 06/04 Q0984=
202110211750 METAR ESMX 211750Z 23010KT CAVOK 06/04 Q0984=
202110211720 METAR ESMX 211720Z 24011KT CAVOK 06/04 Q0983=
202110211650 METAR ESMX 211650Z 25010KT CAVOK 06/04 Q0983=
202110211620 METAR ESMX 211620Z 25011KT CAVOK 06/04 Q0982=
202110211550 METAR COR ESMX 211550Z 25012KT CAVOK 07/04 Q0981=
202110211520 METAR ESMX 211520Z 26016KT 9999 SCT027 07/05 Q0980=
202110211450 METAR COR ESMX 211450Z 24011KT 9999 SCT025 08/06 Q0980=
202110211420 METAR ESMX 211420Z 26013KT 9999 FEW015 BKN020 08/06 Q0979=
202110211350 METAR ESMX 211350Z 26013KT 9999 BKN017 08/06 Q0979=
202110211320 METAR COR ESMX 211320Z 26012KT 9999 FEW011 BKN024 08/07 Q0978=
202110211250 METAR ESMX 211250Z 26009G20KT 9000 -RA SCT006 BKN011 08/08 Q0977=
202110211220 METAR ESMX 211220Z 26007KT 240V300 9000 -RA BKN045 08/08 Q0976=
202110211150 METAR ESMX 211150Z 28006KT 6000 RA SCT015 BKN031 08/08 Q0976=
202110211120 METAR ESMX 211120Z 30009KT 5000 RA OVC005 08/08 Q0975=
202110211050 METAR ESMX 211050Z 18004KT 160V240 4500 RA OVC002 09/09 Q0976=
202110211020 METAR ESMX 211020Z 23004KT 5000 RA OVC005 09/09 Q0976=
202110210950 METAR ESMX 210950Z 21003KT 170V280 5000 RA BKN002 09/09 Q0976=
202110210920 METAR ESMX 210920Z 13003KT 4000 RA OVC002 10/10 Q0976=
202110210850 METAR ESMX 210850Z 17004KT 5000 RA SCT008 BKN016 10/10 Q0977=
202110210820 METAR ESMX 210820Z 17006KT 9999 -RA BKN009 11/10 Q0979=
202110210750 METAR ESMX 210750Z 19008KT 9999 BKN010 10/10 Q0979=
202110210720 METAR ESMX 210720Z 17011KT 9999 BKN009 11/10 Q0980=
202110210650 METAR ESMX 210650Z 17009KT 9999 SCT010 BKN017 11/10 Q0981=
202110210620 METAR COR ESMX 210620Z 19011KT 9999 SCT010 BKN014 11/10 Q0981=
202110210550 METAR ESMX 210550Z 19012KT 9999 BKN011 BKN043 11/10 Q0982=
202110210520 METAR ESMX 210520Z 19013KT 9999 BKN011 11/10 Q0982=
202110210450 METAR ESMX 210450Z 20013KT 9999 FEW008 BKN011 11/10 Q0983=
202110210420 METAR ESMX 210420Z 20011KT 9999 BKN009 BKN012 11/10 Q0983=
202110210350 METAR COR ESMX 210350Z 20012KT 9999 FEW002 BKN009 11/10 Q0984=
202110210320 METAR ESMX 210320Z AUTO 20012KT 9999 FEW010/// SCT015/// OVC024/// 11/10 Q0984=
202110210250 METAR ESMX 210250Z AUTO 20012KT 9999 FEW007/// BKN011/// BKN016/// 11/10 Q0984=
202110210220 METAR ESMX 210220Z AUTO 21010KT 8000 BR FEW004/// SCT008/// BKN012/// 11/11 Q0984 REDZ=
202110210150 METAR ESMX 210150Z AUTO 20012KT 9999 SCT010/// BKN013/// BKN019/// 11/11 Q0985=
202110210120 METAR ESMX 210120Z AUTO 22012KT 9999 FEW009/// BKN013/// BKN017/// 11/11 Q0985=
202110210050 METAR ESMX 210050Z AUTO 20012KT 9999 DZ SCT008/// BKN024/// BKN030/// 11/11 Q0986 RERA=
202110210020 METAR ESMX 210020Z AUTO 20009KT 9999 BKN010/// OVC024/// 11/11 Q0986=
202110202350 METAR ESMX 202350Z AUTO 20009KT 9999 SCT008/// BKN014/// BKN030/// 11/11 Q0986 REDZ=
202110202320 METAR ESMX 202320Z AUTO 20011KT 9999 BKN010/// BKN015/// OVC025/// 11/11 Q0987=
202110202250 METAR ESMX 202250Z AUTO 22010KT 9999 -DZ BKN010/// OVC015/// 11/11 Q0987=
202110202220 METAR ESMX 202220Z AUTO 21012KT 9999 -RA FEW007/// BKN010/// OVC016/// 11/11 Q0987=
202110202150 METAR ESMX 202150Z AUTO 22012KT 9999 BKN008/// OVC011/// 11/11 Q0987=
202110202120 METAR ESMX 202120Z AUTO 22012KT 9999 SCT012/// BKN024/// 11/11 Q0988=
202110202050 METAR ESMX 202050Z AUTO 22014KT 9999 BKN011/// BKN066/// 12/11 Q0988=
202110202020 METAR ESMX 202020Z AUTO 22016KT 9999 BKN012/// BKN055/// OVC064/// 12/11 Q0988=
202110201950 METAR ESMX 201950Z AUTO 20008KT 9999 DZ FEW014/// SCT029/// BKN057/// 12/12 Q0988=
202110201920 METAR ESMX 201920Z AUTO 24009KT 9999 -RA FEW001/// BKN021/// BKN039/// 11/11 Q0988=
202110201850 METAR ESMX 201850Z AUTO 24013KT 5000 +RA ///042 11/11 Q0988=
202110201820 METAR ESMX 201820Z AUTO 21013KT 8000 RA BKN053/// OVC064/// 12/11 Q0988=
202110201750 METAR ESMX 201750Z AUTO 22013KT 9999 -RA BKN004/// BKN053/// OVC066/// 13/12 Q0989=
202110201720 METAR ESMX 201720Z 22013KT 9999 -RA BKN007 BKN009 13/13 Q0989 REDZ=
202110201650 METAR ESMX 201650Z 20012KT 9999 -DZ SCT008 BKN010 BKN013 13/13 Q0989=
202110201620 METAR ESMX 201620Z 22012KT 8000 -RA BKN005 BKN017 13/13 Q0988 RESHRA=
202110201550 METAR ESMX 201550Z 20012KT 9999 RA FEW006 BKN009 BKN017 13/13 Q0989=
202110201520 METAR ESMX 201520Z 21011KT 9999 -DZ FEW011 BKN018 BKN033 13/13 Q0989=
202110201450 METAR ESMX 201450Z 23010KT 9999 BKN012 13/13 Q0989=
202110201420 METAR ESMX 201420Z 24010KT 9999 -RA SCT012 BKN018 13/13 Q0990=
202110201350 METAR ESMX 201350Z 24010KT 9999 -RA FEW007 BKN020 14/13 Q0990=
202110201320 METAR ESMX 201320Z 21014KT 5000 RA BKN006 14/14 Q0990=
202110201250 METAR ESMX 201250Z 22014KT 5000 RA SCT005 BKN008 14/14 Q0989=
202110201220 METAR ESMX 201220Z 21011KT 5000 RA FEW002 BKN006 14/14 Q0990=
202110201150 METAR ESMX 201150Z 21013KT 4500 RA BKN005 14/14 Q0990=
202110201120 METAR ESMX 201120Z 21011KT 5000 RA BKN005 OVC009 14/14 Q0991=
202110201050 METAR ESMX 201050Z 19012KT 7000 -RA BKN006 OVC011 15/14 Q0991=
202110201020 METAR ESMX 201020Z 21012KT 9000 -RA BKN006 15/15 Q0992=
202110200950 METAR ESMX 200950Z 20013KT 5000 -RA BKN005 OVC013 15/15 Q0992=
202110200920 METAR ESMX 200920Z 20013KT 8000 RA BKN005 OVC009 15/15 Q0993=
202110200850 METAR ESMX 200850Z 20014KT 7000 -RA BKN006 15/15 Q0994=
202110200820 METAR ESMX 200820Z 19014KT 7000 -RA BKN005 15/15 Q0994=
202110200750 METAR ESMX 200750Z 19013KT 6000 -RA BKN005 15/15 Q0994=
202110200720 METAR ESMX 200720Z 19013KT 6000 -RA BKN005 15/15 Q0995=
202110200650 METAR ESMX 200650Z 20014KT 6000 RA BKN005 OVC008 14/14 Q0995=
202110200620 METAR ESMX 200620Z 20013KT 5000 -DZ VV007 14/14 Q0995=
202110200550 METAR ESMX 200550Z AUTO 20012KT 4100 -RA BKN006/// OVC009/// 15/15 Q0996=
202110200520 METAR ESMX 200520Z AUTO 20012KT 5000 DZ FEW005/// BKN008/// OVC010/// 15/15 Q0996=
202110200450 METAR ESMX 200450Z AUTO 20012KT 4000 RA BKN005/// OVC009/// 15/15 Q0997=
202110200420 METAR ESMX 200420Z AUTO 22011KT 3700 BR VV007 14/14 Q0997 REDZ=
202110200350 METAR ESMX 200350Z AUTO 22011KT 3600 BR VV008 14/14 Q0997 REDZ=
202110200320 METAR ESMX 200320Z AUTO 22012KT 6000 BR OVC005/// 14/14 Q0997=
202110200250 METAR ESMX 200250Z AUTO 22010KT 4500 BR OVC005/// 14/14 Q0998=
202110200220 METAR ESMX 200220Z AUTO 20011KT 3700 -DZ OVC004/// 14/14 Q0998=
202110200150 METAR ESMX 200150Z AUTO 20011KT 9000 -RA OVC003/// 13/13 Q0999 REDZ=
202110200120 METAR ESMX 200120Z AUTO 19012KT 3300 -DZ BKN003/// BKN005/// OVC007/// 13/13 Q0999=
202110200050 METAR ESMX 200050Z AUTO 19013KT 3700 DZ BKN005/// OVC010/// 13/13 Q1000=
202110200020 METAR ESMX 200020Z AUTO 19012KT 5000 DZ OVC005/// 12/12 Q1000 REDZ=
202110192350 METAR ESMX 192350Z AUTO 17011KT 9000 +DZ OVC004/// 12/12 Q1001=
202110192320 METAR ESMX 192320Z AUTO 16009KT 8000 DZ OVC003/// 11/11 Q1001=
202110192250 METAR ESMX 192250Z AUTO 17006KT 6000 -RA OVC002/// 11/11 Q1002=
202110192220 METAR ESMX 192220Z AUTO 17006KT 7000 DZ OVC003/// 11/11 Q1003=
202110192150 METAR ESMX 192150Z AUTO 17008KT 4700 RA OVC002/// 11/11 Q1004 REDZ=
202110192120 METAR ESMX 192120Z AUTO 19010KT 4500 -RA OVC002/// 11/11 Q1005=
202110192050 METAR ESMX 192050Z AUTO 17010KT 6000 -RA OVC003/// 11/11 Q1005 REDZ=
202110192020 METAR ESMX 192020Z AUTO 18010KT 3200 BR OVC002/// 11/11 Q1006 REDZ=
202110191950 METAR ESMX 191950Z AUTO 16009KT 4500 DZ OVC002/// 10/10 Q1007=
202110191920 METAR ESMX 191920Z AUTO 16008KT 120V190 3600 -DZ OVC002/// 10/10 Q1007=
202110191850 METAR ESMX 191850Z AUTO 18008KT 3100 -DZ OVC002/// 10/10 Q1008 REDZ=
202110191820 METAR ESMX 191820Z AUTO 17008KT 3700 -DZ OVC003/// 10/10 Q1008=
202110191750 METAR ESMX 191750Z AUTO 16007KT 120V190 3600 -DZ OVC003/// 11/11 Q1009=
202110191720 METAR ESMX 191720Z AUTO 17007KT 4400 BR OVC003/// 11/11 Q1009 REDZ=
202110191650 METAR ESMX 191650Z AUTO 17007KT 4900 BR OVC003/// 11/11 Q1010=
202110191620 METAR ESMX 191620Z AUTO 17006KT 3800 -DZ BKN003/// OVC005/// 11/11 Q1010 REDZ=
202110191550 METAR ESMX 191550Z AUTO 15005KT 6000 BR OVC006/// 11/11 Q1011 REDZ=
202110191520 METAR ESMX 191520Z AUTO 18006KT 9999 OVC007/// 11/11 Q1011=
202110191450 METAR ESMX 191450Z AUTO 16006KT 9999 OVC008/// 11/11 Q1012=
202110191420 METAR ESMX 191420Z 16006KT 9999 BKN009 11/10 Q1012=
202110191350 METAR ESMX 191350Z 15005KT 9999 BKN008 11/10 Q1012=
202110191320 METAR ESMX 191320Z 15005KT 110V170 9999 BKN007 11/10 Q1013=
202110191250 METAR ESMX 191250Z 15005KT 110V190 9999 BKN009 11/10 Q1013=
202110191220 METAR ESMX 191220Z 15005KT 110V170 9000 BKN005 10/10 Q1014=
202110191150 METAR ESMX 191150Z 16006KT 9000 BKN004 10/09 Q1014=
202110191120 METAR ESMX 191120Z 15005KT 8000 OVC002 09/09 Q1015=
202110191050 METAR ESMX 191050Z 14005KT 6000 OVC002 09/09 Q1015=
202110191020 METAR ESMX 191020Z 14007KT 090V170 6000 OVC002 08/08 Q1016=
202110190950 METAR ESMX 190950Z 14007KT 090V170 6000 OVC002 08/08 Q1016=
202110190920 METAR ESMX 190920Z 14006KT 9000 OVC002 07/07 Q1016=
202110190850 METAR ESMX 190850Z 14005KT 100V170 9999 OVC003 07/07 Q1017=
202110190820 METAR ESMX 190820Z 14006KT 9999 BKN004 07/06 Q1017=
202110190750 METAR COR ESMX 190750Z 12005KT 070V170 9999 BKN005 06/06 Q1017=
202110190720 METAR ESMX 190720Z AUTO 14005KT 100V170 9999 BKN007/// OVC009/// 06/06 Q1018=
202110190650 METAR ESMX 190650Z AUTO 13005KT 070V190 9999 BKN008/// OVC011/// 06/05 Q1018=
202110190620 METAR ESMX 190620Z AUTO 14005KT 9999 DZ BKN008/// OVC009/// 05/05 Q1018=
202110190550 METAR ESMX 190550Z 13005KT 9999 BKN011 05/04 Q1018=
202110190520 METAR ESMX 190520Z 13006KT 100V160 9999 FEW005 BKN013 05/04 Q1018=
202110190450 METAR ESMX 190450Z 13006KT 090V150 9999 -DZ FEW006 SCT018 BKN022 05/04 Q1019=
202110190420 METAR ESMX 190420Z 14006KT 110V170 9999 -DZ FEW005 OVC020 05/03 Q1019=
202110190350 METAR COR ESMX 190350Z 13005KT 100V190 9999 OVC022 05/02 Q1019=
202110190320 METAR ESMX 190320Z AUTO 14005KT 9999 OVC025/// 05/02 Q1020=
202110190250 METAR ESMX 190250Z AUTO 15005KT 9999 OVC031/// 05/02 Q1020 RESHUP=
202110190220 METAR ESMX 190220Z AUTO 14005KT 9999 OVC035/// 05/01 Q1020 REUP=
202110190150 METAR ESMX 190150Z AUTO 14005KT 9999 SCT033/// 05/01 Q1021=
202110190120 METAR ESMX 190120Z AUTO 13004KT 070V150 9999 FEW098/// 04/01 Q1021=
202110190050 METAR ESMX 190050Z AUTO 12003KT 9999 SCT100/// 03/01 Q1022=
202110190020 METAR ESMX 190020Z AUTO 12003KT 9999 FEW120/// 03/00 Q1022=
202110182350 METAR ESMX 182350Z AUTO 13003KT 9999 FEW110/// 02/00 Q1022=
202110182320 METAR ESMX 182320Z AUTO VRB02KT 9999 NCD 02/00 Q1022=
202110182250 METAR ESMX 182250Z AUTO 11002KT 9999 NCD 01/00 Q1022=
202110182220 METAR ESMX 182220Z AUTO VRB01KT 9999 FEW120/// 01/01 Q1023=
202110182150 METAR ESMX 182150Z AUTO 02001KT 9999 SCT120/// M00/M01 Q1023=
202110182120 METAR ESMX 182120Z AUTO 00000KT 9999 SCT130/// 00/00 Q1023=
202110182050 METAR ESMX 182050Z AUTO 00000KT 9999 BKN140/// M00/M01 Q1023=
202110182020 METAR ESMX 182020Z AUTO 00000KT 9999 FEW130/// BKN150/// M00/M00 Q1023=
202110181950 METAR ESMX 181950Z AUTO 00000KT 9999 NCD M00/M01 Q1023=
202110181920 METAR ESMX 181920Z AUTO 18003KT 9999 NCD 00/M00 Q1023=
202110181850 METAR ESMX 181850Z AUTO 00000KT 9999 NCD M00/M00 Q1023=
202110181820 METAR ESMX 181820Z AUTO 02001KT 9999 NCD 01/01 Q1023=
202110181750 METAR ESMX 181750Z AUTO 00000KT 9999 NCD 00/M00 Q1023=
202110181720 METAR ESMX 181720Z 19002KT CAVOK 02/00 Q1023=
202110181650 METAR ESMX 181650Z 18002KT CAVOK 02/01 Q1023=
202110181620 METAR ESMX 181620Z 20002KT CAVOK 03/01 Q1022=
202110181550 METAR ESMX 181550Z 00000KT CAVOK 05/01 Q1022=
202110181520 METAR ESMX 181520Z 00000KT CAVOK 07/00 Q1022=
202110181450 METAR ESMX 181450Z VRB02KT CAVOK 08/M00 Q1022=
202110181420 METAR ESMX 181420Z 02003KT CAVOK 08/M00 Q1022=
202110181350 METAR ESMX 181350Z 03003KT CAVOK 09/M02 Q1022=
202110181320 METAR ESMX 181320Z 02004KT CAVOK 09/M02 Q1022=
202110181250 METAR ESMX 181250Z 01004KT CAVOK 09/M02 Q1022=
202110181220 METAR ESMX 181220Z 02004KT CAVOK 09/M02 Q1022=
202110181150 METAR ESMX 181150Z 02003KT CAVOK 09/M01 Q1022=
202110181120 METAR ESMX 181120Z 01004KT 330V040 CAVOK 09/M02 Q1022=
202110181050 METAR ESMX 181050Z 04003KT 320V080 CAVOK 08/M02 Q1023=
202110181020 METAR ESMX 181020Z 01003KT 330V050 CAVOK 08/M00 Q1022=
202110180950 METAR ESMX 180950Z 01003KT CAVOK 07/M01 Q1022=
202110180920 METAR ESMX 180920Z 36004KT CAVOK 06/01 Q1022=
202110180850 METAR ESMX 180850Z 01004KT CAVOK 05/01 Q1022=
202110180820 METAR ESMX 180820Z 01003KT CAVOK 04/02 Q1022=
202110180750 METAR ESMX 180750Z 00000KT CAVOK 03/01 Q1022=
202110180720 METAR ESMX 180720Z AUTO 00000KT 9999 NCD 01/00 Q1022=
202110180650 METAR ESMX 180650Z AUTO 00000KT 9999 NCD M02/M02 Q1021=
202110180620 METAR ESMX 180620Z AUTO 19002KT 9999 NCD M03/M03 Q1021=
202110180550 METAR ESMX 180550Z AUTO 17002KT 9999 NCD M02/M02 Q1021=
202110180520 METAR ESMX 180520Z AUTO 00000KT 9999 FEW130/// M02/M02 Q1021=
202110180450 METAR ESMX 180450Z AUTO 00000KT 9999 OVC130/// M02/M02 Q1020=
202110180420 METAR ESMX 180420Z AUTO 21001KT 9999 OVC140/// M01/M02 Q1020=
202110180350 METAR ESMX 180350Z AUTO 00000KT 9999 BKN150/// BKN180/// M02/M02 Q1020=
202110180320 METAR ESMX 180320Z AUTO 18001KT 9999 FEW130/// BKN160/// M01/M01 Q1020=
202110180250 METAR ESMX 180250Z AUTO 20002KT 9999 FEW130/// BKN160/// M02/M03 Q1020=
202110180220 METAR ESMX 180220Z AUTO 20001KT 9999 OVC170/// M02/M02 Q1019=
202110180150 METAR ESMX 180150Z AUTO 23002KT 9999 SCT170/// M02/M02 Q1019=
202110180120 METAR ESMX 180120Z AUTO 17001KT 9999 NCD M03/M03 Q1019=
202110180050 METAR ESMX 180050Z AUTO 00000KT 9999 NCD M03/M03 Q1019=
202110180020 METAR ESMX 180020Z AUTO 18002KT 9999 NCD M03/M03 Q1019=
202110172350 METAR ESMX 172350Z AUTO 25002KT 9999 NCD M02/M03 Q1019=
202110172320 METAR ESMX 172320Z AUTO 18002KT 9999 NCD M02/M02 Q1018=
202110172250 METAR ESMX 172250Z AUTO 25003KT 9999 NCD M01/M02 Q1018=
202110172220 METAR ESMX 172220Z AUTO 28002KT 9999 NCD M01/M01 Q1018=
202110172150 METAR ESMX 172150Z AUTO 21002KT 9999 NCD M01/M01 Q1018=
202110172120 METAR ESMX 172120Z AUTO 00000KT 9999 NCD 00/M00 Q1017=
202110172050 METAR ESMX 172050Z AUTO 00000KT 9999 NCD 01/00 Q1017=
202110172020 METAR ESMX 172020Z AUTO 00000KT 9999 NCD 02/02 Q1017=
202110171950 METAR ESMX 171950Z AUTO 31003KT 9999 NCD 01/01 Q1016=
202110171920 METAR ESMX 171920Z AUTO 30003KT 9999 NCD 04/02 Q1016=
202110171850 METAR ESMX 171850Z AUTO 31003KT 9999 NCD 04/02 Q1016=
202110171820 METAR ESMX 171820Z AUTO 32004KT 9999 BKN055/// 05/03 Q1015=
202110171750 METAR ESMX 171750Z AUTO 31004KT 9999 OVC055/// 06/03 Q1015=
202110171720 METAR ESMX 171720Z 30004KT 260V340 9999 FEW045 BKN053 07/04 Q1015=
202110171650 METAR ESMX 171650Z 30003KT 240V340 9999 FEW043 SCT055 07/04 Q1014=
202110171620 METAR ESMX 171620Z 30004KT 9999 FEW043 BKN055 08/04 Q1014=
202110171550 METAR ESMX 171550Z 31004KT 9999 FEW043 BKN055 08/05 Q1014=
202110171520 METAR ESMX 171520Z 29003KT 9999 FEW031 SCT041 BKN057 09/04 Q1013=
202110171450 METAR ESMX 171450Z 30005KT 9999 FEW042 BKN057 09/04 Q1013=
202110171420 METAR ESMX 171420Z 29005KT 9999 SCT045 09/04 Q1013=
202110171350 METAR ESMX 171350Z 29007KT 9999 SCT044 09/04 Q1012=
202110171320 METAR ESMX 171320Z AUTO 29009KT 9999 SCT046/// BKN057/// 10/04 Q1012=
202110171250 METAR ESMX 171250Z 26012KT 9999 SCT032 BKN045 11/05 Q1012 RESHRA=
202110171220 METAR ESMX 171220Z 25009KT 9999 SCT034 BKN051 12/05 Q1012=
202110171150 METAR ESMX 171150Z 25010KT 9999 FEW027 BKN045 12/04 Q1012=
202110171120 METAR COR ESMX 171120Z 26011KT 9999 FEW027 BKN041 12/06 Q1012=
202110171050 METAR ESMX 171050Z 25011KT 200V280 9999 SCT027 BKN043 11/05 Q1012=
202110171020 METAR ESMX 171020Z 23009KT 9999 SCT021 BKN045 11/05 Q1012=
202110170950 METAR ESMX 170950Z 25010KT 210V280 9999 SCT016 BKN031 10/06 Q1012=
202110170920 METAR ESMX 170920Z 25008KT 9999 BKN014 09/07 Q1012=
202110170850 METAR ESMX 170850Z 26008KT 230V300 9999 BKN009 BKN012 09/07 Q1012=
202110170820 METAR ESMX 170820Z 22007KT 9999 BKN010 08/07 Q1012=
202110170750 METAR ESMX 170750Z 22007KT 9999 SCT013 BKN025 BKN038 07/06 Q1012=
202110170720 METAR ESMX 170720Z AUTO 23008KT 9999 FEW009/// BKN014/// OVC038/// 07/06 Q1012=
202110170650 METAR ESMX 170650Z AUTO 22007KT 9999 BKN009/// OVC014/// 07/06 Q1012=
202110170620 METAR ESMX 170620Z AUTO 22007KT 9999 SCT009/// OVC035/// 07/06 Q1011=
202110170550 METAR ESMX 170550Z AUTO 22006KT 9999 SCT010/// OVC035/// 06/06 Q1011=
202110170520 METAR ESMX 170520Z AUTO 22005KT 9999 SCT010/// BKN039/// OVC064/// 06/05 Q1011=
202110170450 METAR ESMX 170450Z AUTO 21007KT 9999 FEW018/// BKN039/// BKN068/// 06/05 Q1011=
202110170420 METAR ESMX 170420Z AUTO 23008KT 9999 FEW013/// 06/05 Q1011=
202110170350 METAR ESMX 170350Z AUTO 22008KT 9999 SCT014/// 05/05 Q1011=
202110170320 METAR ESMX 170320Z AUTO 22009KT 9999 FEW014/// 05/05 Q1011=
202110170250 METAR ESMX 170250Z AUTO 22007KT 9999 FEW029/// 05/05 Q1011=
202110170220 METAR ESMX 170220Z AUTO 22009KT 9999 BKN046/// 06/05 Q1011=
202110170150 METAR ESMX 170150Z AUTO 20009KT 9999 FEW022/// BKN035/// BKN047/// 06/06 Q1011=
202110170120 METAR ESMX 170120Z AUTO 21008KT 9999 FEW024/// SCT029/// 06/05 Q1012=
202110170050 METAR ESMX 170050Z AUTO 22009KT 9999 OVC043/// 06/06 Q1012=
202110170020 METAR ESMX 170020Z AUTO 22008KT 9999 OVC043/// 06/05 Q1012=
202110162350 METAR ESMX 162350Z AUTO 22008KT 9999 SCT047/// 05/05 Q1011=
202110162320 METAR ESMX 162320Z AUTO 23006KT 9999 FEW032/// 05/05 Q1011=
202110162250 METAR ESMX 162250Z AUTO 22007KT 9999 FEW048/// 06/05 Q1011=
202110162220 METAR ESMX 162220Z AUTO 22009KT 9999 FEW026/// SCT046/// 07/05 Q1011 REUP REDZ=
202110162150 METAR ESMX 162150Z AUTO 23008KT 9999 FEW025/// BKN046/// 07/05 Q1011=
202110162120 METAR ESMX 162120Z AUTO 22010KT 9999 SCT046/// 07/05 Q1011 RESHUP=
202110162050 METAR ESMX 162050Z AUTO 22008KT 9999 UP FEW040/// SCT053/// 07/05 Q1012 REUP RESHUP=
202110162020 METAR ESMX 162020Z AUTO 22007KT 9999 OVC051/// 07/05 Q1011 REUP=
202110161950 METAR ESMX 161950Z AUTO 21008KT 9999 OVC048/// 08/05 Q1011=
202110161920 METAR ESMX 161920Z AUTO 22006KT 9999 OVC048/// 08/06 Q1012=
202110161850 METAR ESMX 161850Z AUTO 22006KT 9999 BKN051/// 07/05 Q1012=
202110161820 METAR ESMX 161820Z 22008KT 9999 SCT027 BKN036 07/06 Q1011=
202110161750 METAR ESMX 161750Z 24008KT 9999 SCT027 BKN036 08/06 Q1011=
202110161720 METAR ESMX 161720Z 23011KT 200V260 9999 FEW017 SCT036 BKN048 08/06 Q1011 RERA=
202110161650 METAR ESMX 161650Z 25010KT 210V280 9999 FEW017 BKN051 08/06 Q1011=
202110161620 METAR ESMX 161620Z 24012KT 200V280 9999 BKN018 09/06 Q1011=
202110161550 METAR ESMX 161550Z 23012KT 200V260 9999 BKN020 BKN027 09/06 Q1010=
202110161520 METAR ESMX 161520Z AUTO 24011G22KT 9999 BKN021/// BKN029/// OVC037/// 09/06 Q1010=
202110161450 METAR ESMX 161450Z AUTO 25012KT 9999 SCT019/// BKN025/// 09/06 Q1010=
202110161420 METAR ESMX 161420Z AUTO 24011KT 9999 BKN021/// 09/07 Q1010=
202110161350 METAR ESMX 161350Z AUTO 25012G24KT 220V280 9999 -DZ SCT024/// 10/06 Q1010=
202110161320 METAR ESMX 161320Z AUTO 25013KT 9999 BKN024/// 11/06 Q1010=
202110161250 METAR ESMX 161250Z AUTO 24014G27KT 220V290 9999 BKN026/// OVC051/// 11/06 Q1010=
202110161220 METAR ESMX 161220Z AUTO 24012KT 9999 SCT028/// BKN039/// OVC051/// 10/06 Q1010=
202110161150 METAR ESMX 161150Z AUTO 23013G24KT 9999 FEW027/// SCT037/// OVC049/// 10/06 Q1010=
202110161120 METAR ESMX 161120Z AUTO 25012KT 9999 SCT030/// BKN036/// OVC044/// 11/06 Q1010=
202110161050 METAR ESMX 161050Z AUTO 23015G25KT 9999 BKN026/// OVC048/// 10/06 Q1010=
202110161020 METAR ESMX 161020Z AUTO 24014KT 210V280 9999 FEW024/// SCT032/// OVC043/// 10/06 Q1010=
202110160950 METAR ESMX 160950Z AUTO 24012KT 210V280 9999 BKN025/// OVC047/// 10/06 Q1010=
202110160920 METAR ESMX 160920Z AUTO 24012KT 9999 BKN021/// OVC047/// 10/07 Q1010=
202110160850 METAR ESMX 160850Z AUTO 23010KT 9999 BKN021/// BKN032/// OVC051/// 09/07 Q1010=
202110160820 METAR ESMX 160820Z AUTO 24010KT 9999 FEW019/// SCT027/// OVC053/// 09/06 Q1010=
202110160750 METAR ESMX 160750Z AUTO 23010KT 9999 OVC051/// 08/06 Q1010=
202110160720 METAR ESMX 160720Z AUTO 21010KT 9999 BKN051/// 07/06 Q1010=
202110160650 METAR ESMX 160650Z AUTO 22010KT 9999 SCT049/// 06/05 Q1010=
202110160620 METAR ESMX 160620Z AUTO 22010KT 9999 NCD 05/05 Q1009=
202110160550 METAR ESMX 160550Z AUTO 21009KT 9999 NCD 05/04 Q1009=
202110160520 METAR ESMX 160520Z AUTO 21008KT 9999 SCT037/// 05/04 Q1009 RESHUP REUP=
202110160450 METAR ESMX 160450Z AUTO 23008KT 9999 FEW031/// 04/04 Q1009=
202110160420 METAR ESMX 160420Z AUTO 22006KT 9999 FEW024/// 03/03 Q1009=
202110160350 METAR ESMX 160350Z AUTO 21006KT 9999 FEW026/// 03/03 Q1009=
202110160320 METAR ESMX 160320Z AUTO 22006KT 9999 NCD 04/04 Q1009=
202110160250 METAR ESMX 160250Z AUTO 23006KT 9999 NCD 04/03 Q1009=
202110160220 METAR ESMX 160220Z AUTO 23006KT 9999 FEW034/// 04/03 Q1009=
202110160150 METAR ESMX 160150Z AUTO 23006KT 9999 FEW049/// 04/02 Q1009=
202110160120 METAR ESMX 160120Z AUTO 25005KT 9999 NCD 03/02 Q1009=
202110160050 METAR ESMX 160050Z AUTO 26006KT 9999 NCD 04/02 Q1009=
202110160020 METAR ESMX 160020Z AUTO 25006KT 9999 NCD 04/03 Q1009=
202110152350 METAR ESMX 152350Z AUTO 25005KT 9999 NCD 04/03 Q1009=
202110152320 METAR ESMX 152320Z AUTO 25005KT 9999 NCD 05/03 Q1009=
202110152250 METAR ESMX 152250Z AUTO 25005KT 9999 NCD 05/03 Q1009=
202110152220 METAR ESMX 152220Z AUTO 25006KT 9999 OVC072/// 06/04 Q1009=
202110152150 METAR ESMX 152150Z AUTO 23006KT 9999 BKN070/// 06/04 Q1008=
202110152120 METAR ESMX 152120Z AUTO 23004KT 9999 SCT082/// 06/03 Q1008=
202110152050 METAR ESMX 152050Z AUTO 24006KT 9999 BKN072/// OVC090/// 07/04 Q1008=
202110152020 METAR ESMX 152020Z AUTO 24008KT 9999 OVC080/// 06/04 Q1008=
202110151950 METAR ESMX 151950Z AUTO 22007KT 9999 SCT064/// OVC090/// 06/03 Q1007 REDZ REUP=
202110151920 METAR ESMX 151920Z AUTO 23008KT 9999 -RA BKN059/// OVC080/// 06/03 Q1007 RESHUP=
202110151850 METAR ESMX 151850Z AUTO 22007KT 9999 FEW061/// 04/02 Q1007=
202110151820 METAR ESMX 151820Z AUTO 22006KT 9999 NCD 04/02 Q1007=
202110151750 METAR ESMX 151750Z AUTO 23005KT 9999 NCD 04/02 Q1006=
202110151720 METAR ESMX 151720Z AUTO 23005KT 9999 NCD 05/02 Q1006=
202110151650 METAR ESMX 151650Z AUTO 24005KT 9999 NCD 06/02 Q1006=
202110151620 METAR ESMX 151620Z AUTO 24005KT 9999 NCD 06/02 Q1005=
202110151550 METAR ESMX 151550Z 27005KT 9999 FEW035 08/02 Q1005=
202110151520 METAR ESMX 151520Z 29007KT 9999 FEW035 09/02 Q1004=
202110151450 METAR ESMX 151450Z 29010KT 9999 FEW030 10/02 Q1004=
202110151420 METAR ESMX 151420Z 30010KT 270V330 9999 FEW030 10/03 Q1003=
202110151350 METAR ESMX 151350Z 30012KT 270V330 9999 FEW030 10/03 Q1003=
202110151320 METAR ESMX 151320Z 31012KT 9999 FEW025 SCT031 10/05 Q1002=
202110151250 METAR ESMX 151250Z 31013KT 9999 -RA FEW025 SCT031 BKN044 09/07 Q1001=
202110151220 METAR ESMX 151220Z 28012KT 250V320 9999 SCT029 OVC051 12/06 Q1000=
202110151150 METAR ESMX 151150Z 26012KT 230V300 9999 FEW028 SCT051 12/07 Q1000=
202110151120 METAR ESMX 151120Z 26011KT 9999 FEW020 SCT051 12/08 Q0999=
202110151050 METAR ESMX 151050Z 26010KT 230V300 9999 SCT016 BKN035 11/08 Q0999=
202110151020 METAR ESMX 151020Z 25009KT 210V280 9999 SCT015 BKN028 BKN041 11/08 Q0999=
202110150950 METAR ESMX 150950Z 24009KT 200V280 9999 SCT012 BKN028 BKN041 10/08 Q0999=
202110150920 METAR ESMX 150920Z 25008KT 9999 BKN012 BKN017 09/08 Q0999=
202110150850 METAR ESMX 150850Z 24008KT 9999 SCT014 BKN022 BKN039 09/08 Q0999 REDZ=
202110150820 METAR ESMX 150820Z 25009KT 220V280 9999 DZ FEW013 SCT021 BKN035 09/08 Q0999=
202110150750 METAR ESMX 150750Z 24008KT 9999 BKN015 BKN020 OVC026 09/08 Q0998=
202110150720 METAR ESMX 150720Z 24009KT 9999 BKN014 BKN021 09/08 Q0998=
202110150650 METAR ESMX 150650Z 23010KT 9999 SCT015 BKN023 BKN110 09/08 Q0998=
202110150620 METAR ESMX 150620Z 24010KT 9999 SCT016 BKN022 BKN098 09/08 Q0998=
202110150550 METAR ESMX 150550Z 25010KT 9999 SCT031 09/08 Q0998=
202110150520 METAR ESMX 150520Z AUTO 25012KT 9999 FEW007/// BKN029/// OVC038/// 10/08 Q0998=
202110150450 METAR ESMX 150450Z AUTO 21013KT 8000 +DZ BKN005/// BKN013/// OVC018/// 11/11 Q0998=
202110150420 METAR ESMX 150420Z AUTO 21015KT 8000 BR FEW002/// BKN005/// BKN010/// 11/11 Q0998=
202110150350 METAR ESMX 150350Z AUTO 20013KT 3800 DZ BKN005/// OVC009/// 11/11 Q0998=
202110150320 METAR ESMX 150320Z AUTO 20014KT 3900 -RA OVC005/// 10/10 Q0998 REDZ=
202110150250 METAR ESMX 150250Z AUTO 20013KT 4300 DZ OVC005/// 10/10 Q0999 REDZ=
202110150220 METAR ESMX 150220Z AUTO 20012KT 6000 BR OVC005/// 10/10 Q0999 REDZ=
202110150150 METAR ESMX 150150Z AUTO 20012KT 8000 BR BKN005/// OVC009/// 10/10 Q1000=
202110150120 METAR ESMX 150120Z AUTO 21011KT 3700 DZ BKN005/// OVC011/// 10/10 Q1001=
202110150050 METAR ESMX 150050Z AUTO 20011KT 6000 -RA FEW002/// SCT005/// BKN007/// 10/10 Q1001=
202110150020 METAR ESMX 150020Z AUTO 20010KT 9999 BKN008/// OVC017/// 10/10 Q1002=
202110142350 METAR ESMX 142350Z AUTO 22009KT 9999 FEW007/// SCT009/// BKN013/// 10/10 Q1002=
202110142320 METAR ESMX 142320Z AUTO 21010KT 9999 SCT006/// BKN011/// 10/10 Q1003 RERA=
202110142250 METAR ESMX 142250Z AUTO 20010KT 4500 +DZ FEW002/// OVC005/// 10/10 Q1003 REDZ=
202110142220 METAR ESMX 142220Z AUTO 21009KT 9999 OVC007/// 09/09 Q1003=
202110142150 METAR ESMX 142150Z AUTO 22009KT 9999 BKN008/// BKN049/// 09/09 Q1004=
202110142120 METAR ESMX 142120Z AUTO 22010KT 9999 SCT008/// BKN040/// OVC053/// 09/09 Q1005=
202110142050 METAR ESMX 142050Z AUTO 20009KT 9999 FEW008/// SCT036/// BKN047/// 09/09 Q1005=
202110142020 METAR ESMX 142020Z AUTO 22009KT 9999 FEW008/// SCT011/// BKN029/// 10/09 Q1005=
202110141950 METAR ESMX 141950Z AUTO 22009KT 9999 SCT008/// BKN010/// BKN013/// 10/09 Q1006=
202110141920 METAR ESMX 141920Z AUTO 21009KT 9999 FEW006/// BKN015/// OVC026/// 10/09 Q1006=
202110141850 METAR ESMX 141850Z AUTO 22007KT 9999 FEW014/// BKN037/// OVC053/// 10/10 Q1006=
202110141820 METAR ESMX 141820Z 20007KT 9999 SCT008 BKN023 10/10 Q1007=
202110141750 METAR ESMX 141750Z 21006KT 9999 BKN005 10/10 Q1007=
202110141720 METAR ESMX 141720Z 20007KT 9999 BR FEW006 BKN012 10/10 Q1007=
202110141650 METAR ESMX 141650Z 20006KT 9999 FEW005 BKN015 10/09 Q1008=
202110141620 METAR ESMX 141620Z 23009KT 9999 SCT007 BKN013 10/09 Q1008=
202110141550 METAR ESMX 141550Z 21008KT 9999 FEW004 BKN016 11/10 Q1008=
202110141520 METAR ESMX 141520Z 21007KT 9999 SCT017 BKN023 11/10 Q1008=
202110141450 METAR ESMX 141450Z 23007KT 200V260 9999 SCT016 BKN022 10/10 Q1009=
202110141420 METAR ESMX 141420Z 24009KT 9999 BKN017 11/09 Q1009=
202110141350 METAR ESMX 141350Z 24009KT 9999 BKN015 12/10 Q1009=
202110141320 METAR ESMX 141320Z 24008KT 9999 BKN011 11/10 Q1009=
202110141250 METAR COR ESMX 141250Z 25007KT 9999 SCT011 BKN024 11/10 Q1009=
202110141220 METAR ESMX 141220Z 25009KT 9999 SCT010 BKN014 11/10 Q1010=
202110141150 METAR ESMX 141150Z 24007KT 9000 -RA BKN010 11/10 Q1010=
202110141120 METAR ESMX 141120Z 21009KT 9999 BKN008 11/10 Q1010=
202110141050 METAR ESMX 141050Z 22009KT 9999 SCT005 BKN008 10/10 Q1011=
202110141020 METAR ESMX 141020Z 19007KT 6000 OVC004 10/10 Q1011=
202110140950 METAR COR ESMX 140950Z 22008KT 9000 -DZ BKN003 OVC006 10/10 Q1011=
202110140920 METAR ESMX 140920Z 21008KT 9999 OVC002 09/09 Q1011=
202110140850 METAR ESMX 140850Z 20008KT 7000 OVC002 08/08 Q1012=
202110140820 METAR ESMX 140820Z 20008KT 6000 OVC002 08/08 Q1011 REDZ=
202110140750 METAR ESMX 140750Z 19007KT 7000 OVC002 08/08 Q1012=
202110140720 METAR ESMX 140720Z 19006KT 9999 OVC003 07/07 Q1012=
202110140650 METAR ESMX 140650Z 18006KT 1500 BR -RA OVC002 07/07 Q1012=
202110140620 METAR ESMX 140620Z 17005KT 3000 BR OVC002 06/06 Q1012=
202110140550 METAR ESMX 140550Z 18004KT 9999 BKN003 06/06 Q1012=
202110140520 METAR ESMX 140520Z 18007KT 9999 BKN004 06/06 Q1013=
202110140450 METAR ESMX 140450Z AUTO 17006KT 9999 BKN006/// OVC009/// 06/06 Q1013=
202110140420 METAR ESMX 140420Z 21005KT 9999 FEW007 BKN014 06/06 Q1013=
202110140350 METAR ESMX 140350Z 21005KT 9999 BKN013 06/06 Q1013=
202110140320 METAR ESMX 140320Z AUTO 21005KT 9999 SCT013/// OVC017/// 06/06 Q1013=
202110140250 METAR ESMX 140250Z AUTO 21006KT 9999 FEW019/// BKN027/// OVC074/// 06/06 Q1013=
202110140220 METAR ESMX 140220Z AUTO 21006KT 9999 FEW004/// BKN031/// OVC076/// 05/05 Q1014=
202110140150 METAR ESMX 140150Z AUTO 20006KT 9999 OVC003/// 05/05 Q1014=
202110140120 METAR ESMX 140120Z AUTO 20006KT 9999 SCT004/// BKN006/// OVC009/// 05/05 Q1014=
202110140050 METAR ESMX 140050Z AUTO 20006KT 9999 SCT012/// OVC017/// 05/05 Q1015=
202110140020 METAR ESMX 140020Z AUTO 20005KT 9999 SCT025/// BKN043/// BKN057/// 04/03 Q1015=
202110132350 METAR ESMX 132350Z AUTO 20005KT 9999 BKN059/// 04/04 Q1015=
202110132320 METAR ESMX 132320Z AUTO 20005KT 9999 OVC061/// 05/04 Q1015=
202110132250 METAR ESMX 132250Z AUTO 21004KT 9999 OVC066/// 05/04 Q1015=
202110132220 METAR ESMX 132220Z AUTO 19004KT 9999 FEW072/// OVC090/// 03/03 Q1016=
202110132150 METAR ESMX 132150Z AUTO 15003KT 9999 BKN078/// OVC100/// 04/03 Q1016=
202110132120 METAR ESMX 132120Z AUTO 17003KT 9999 FEW098/// 04/03 Q1016=
202110132050 METAR ESMX 132050Z AUTO 16002KT 9999 BKN100/// 04/03 Q1016=
202110132020 METAR ESMX 132020Z AUTO 23003KT 9999 BKN098/// 03/03 Q1017=
202110131950 METAR ESMX 131950Z AUTO 23003KT 9999 NCD 04/02 Q1017=
202110131920 METAR ESMX 131920Z AUTO 18003KT 9999 BKN100/// 02/01 Q1017=
202110131850 METAR ESMX 131850Z AUTO 17002KT 9999 SCT150/// 02/01 Q1017=
202110131820 METAR ESMX 131820Z AUTO 18003KT 9999 BKN041/// BKN150/// 02/01 Q1017=
202110131750 METAR ESMX 131750Z AUTO 18003KT 9999 BKN045/// BKN130/// 02/01 Q1017=
202110131720 METAR ESMX 131720Z 00000KT CAVOK 02/01 Q1017=
202110131650 METAR ESMX 131650Z 24003KT CAVOK 04/01 Q1017=
202110131620 METAR ESMX 131620Z 24002KT CAVOK 04/02 Q1017=
202110131550 METAR ESMX 131550Z 24002KT CAVOK 06/03 Q1017=
202110131520 METAR ESMX 131520Z 25002KT CAVOK 09/00 Q1017=
202110131450 METAR ESMX 131450Z 25003KT CAVOK 09/00 Q1017=
202110131420 METAR ESMX 131420Z 27006KT CAVOK 09/M00 Q1016=
202110131350 METAR ESMX 131350Z 30005KT 230V360 CAVOK 10/M01 Q1017=
202110131320 METAR ESMX 131320Z 32006KT 290V350 CAVOK 09/M01 Q1017=
202110131250 METAR ESMX 131250Z 29005KT 250V330 CAVOK 09/M01 Q1017=
202110131220 METAR ESMX 131220Z 29005KT 250V320 CAVOK 09/00 Q1017=
202110131150 METAR ESMX 131150Z 29006KT 240V330 CAVOK 09/M00 Q1017=
202110131120 METAR ESMX 131120Z 31006KT 260V340 CAVOK 09/00 Q1017=
202110131050 METAR ESMX 131050Z 30007KT 270V330 CAVOK 09/01 Q1017=
202110131020 METAR ESMX 131020Z 28007KT 240V330 CAVOK 08/00 Q1017=
202110130950 METAR ESMX 130950Z 27006KT 230V300 CAVOK 07/01 Q1017=
202110130920 METAR ESMX 130920Z 30006KT CAVOK 06/02 Q1017=
202110130850 METAR ESMX 130850Z 29006KT CAVOK 05/02 Q1017=
202110130820 METAR ESMX 130820Z 27006KT CAVOK 04/02 Q1016=
202110130750 METAR ESMX 130750Z 31004KT CAVOK 03/02 Q1016=
202110130720 METAR ESMX 130720Z 30004KT CAVOK 02/01 Q1016=
202110130650 METAR ESMX 130650Z 27004KT CAVOK M01/M01 Q1016=
202110130620 METAR ESMX 130620Z 19002KT CAVOK M01/M01 Q1015=
202110130550 METAR COR ESMX 130550Z 00000KT CAVOK M01/M02 Q1015=
202110130520 METAR ESMX 130520Z AUTO 28004KT 9999 NCD M01/M01 Q1015=
202110130450 METAR ESMX 130450Z AUTO 32003KT 9999 NCD 01/01 Q1015=
202110130420 METAR ESMX 130420Z AUTO 32003KT 9999 NCD M00/M00 Q1015=
202110130350 METAR ESMX 130350Z AUTO 33002KT 9999 NCD 01/01 Q1014=
202110130320 METAR ESMX 130320Z AUTO 33003KT 9999 NCD 00/00 Q1014=
202110130250 METAR ESMX 130250Z AUTO 33004KT 9999 NCD 01/01 Q1014=
202110130220 METAR ESMX 130220Z AUTO 31002KT 9999 NCD 01/01 Q1014=
202110130150 METAR ESMX 130150Z AUTO 27003KT 9999 NCD 01/01 Q1014=
202110130120 METAR ESMX 130120Z AUTO 28005KT 9999 NCD 01/01 Q1013=
202110130050 METAR ESMX 130050Z AUTO 28006KT 9999 NCD M00/M00 Q1013=
202110130020 METAR ESMX 130020Z AUTO 27005KT 9999 NCD 01/01 Q1013=
202110122350 METAR ESMX 122350Z AUTO 28005KT 9999 NCD 02/02 Q1013=
202110122320 METAR ESMX 122320Z AUTO 28004KT 240V320 9999 NCD 02/02 Q1013=
202110122250 METAR ESMX 122250Z AUTO 27003KT 220V300 9999 NCD 01/01 Q1013=
202110122220 METAR ESMX 122220Z 29004KT CAVOK 01/01 Q1013=
202110122150 METAR ESMX 122150Z AUTO 28004KT 9999 NCD 01/01 Q1013=
202110122120 METAR ESMX 122120Z VRB01KT CAVOK 02/01 Q1013=
202110122050 METAR ESMX 122050Z 29003KT CAVOK 02/02 Q1013=
202110122020 METAR ESMX 122020Z 29004KT CAVOK 01/01 Q1013=
202110121950 METAR ESMX 121950Z 28004KT CAVOK 01/01 Q1013=
202110121920 METAR ESMX 121920Z 29003KT CAVOK 01/01 Q1013=
202110121850 METAR ESMX 121850Z AUTO 28004KT 9999 NCD 02/01 Q1012=
202110121820 METAR ESMX 121820Z AUTO 31005KT 9999 NCD 03/02 Q1012=
202110121750 METAR ESMX 121750Z AUTO 31006KT 9999 NCD 05/02 Q1012=
202110121720 METAR ESMX 121720Z AUTO 32005KT 9999 NCD 05/02 Q1012=
202110121650 METAR ESMX 121650Z AUTO 32005KT 9999 NCD 06/02 Q1012=
202110121620 METAR ESMX 121620Z AUTO 32007KT 290V350 9999 NCD 07/03 Q1011=
202110121550 METAR ESMX 121550Z AUTO 32008KT 9999 NCD 08/03 Q1011=
202110121520 METAR ESMX 121520Z AUTO 31007KT 9999 NCD 09/03 Q1011=
202110121450 METAR ESMX 121450Z AUTO 33010KT 9999 NCD 09/03 Q1010=
202110121420 METAR ESMX 121420Z 32008KT 290V360 9999 FEW035 10/03 Q1010=
202110121350 METAR ESMX 121350Z 32009KT 9999 SCT035 09/03 Q1010=
202110121320 METAR ESMX 121320Z 33009KT 9999 BKN035 09/04 Q1010=
202110121250 METAR ESMX 121250Z 34010KT 300V010 9999 BKN033 09/03 Q1010=
202110121220 METAR ESMX 121220Z 32011KT 290V350 9999 BKN032 09/03 Q1010=
202110121150 METAR ESMX 121150Z 34011KT 9999 BKN031 09/04 Q1010=
202110121120 METAR ESMX 121120Z 31010KT 9999 BKN028 09/04 Q1010=
202110121050 METAR COR ESMX 121050Z 32010KT 290V350 9999 BKN026 09/04 Q1010=
202110121020 METAR ESMX 121020Z 33010KT 290V010 9999 SCT022 09/04 Q1009=
202110120950 METAR ESMX 120950Z 34008KT 300V020 9999 FEW020 08/04 Q1009=
202110120920 METAR ESMX 120920Z 34008KT 9999 FEW010 07/04 Q1010=
202110120850 METAR ESMX 120850Z AUTO 33008KT 9999 FEW100/// 07/04 Q1009=
202110120820 METAR ESMX 120820Z 33010KT 9999 SCT010 06/05 Q1009=
202110120750 METAR ESMX 120750Z 32006KT 290V350 9999 FEW009 05/05 Q1009=
202110120720 METAR ESMX 120720Z 31006KT 9999 FEW009 05/05 Q1009=
202110120650 METAR ESMX 120650Z 32004KT 9999 FEW036 04/04 Q1009=
202110120620 METAR ESMX 120620Z 30005KT 9999 FEW008 03/03 Q1009=
202110120550 METAR ESMX 120550Z 31005KT 9999 FEW032 03/03 Q1008=
202110120520 METAR ESMX 120520Z 29005KT CAVOK 03/03 Q1008=
202110120450 METAR ESMX 120450Z 31004KT 9999 FEW025 03/03 Q1008=
202110120420 METAR ESMX 120420Z 30005KT 260V330 9999 BKN025 05/04 Q1008=
202110120350 METAR ESMX 120350Z 31005KT 9999 FEW009 BKN024 04/04 Q1008=
202110120320 METAR ESMX 120320Z AUTO 32003KT 290V350 9999 NCD 04/04 Q1008=
202110120250 METAR ESMX 120250Z AUTO VRB01KT 9999 BKN036/// 04/04 Q1008=
202110120220 METAR ESMX 120220Z AUTO 26005KT 9999 SCT036/// 04/04 Q1008=
202110120150 METAR ESMX 120150Z AUTO 26004KT 9999 FEW078/// 04/04 Q1008=
202110120120 METAR ESMX 120120Z AUTO 25003KT 9999 SCT043/// BKN055/// OVC078/// 06/05 Q1008=
202110120050 METAR ESMX 120050Z AUTO 26004KT 9999 BKN055/// 06/05 Q1008 REUP=
202110120020 METAR ESMX 120020Z AUTO 26005KT 9999 -DZ SCT084/// 06/05 Q1009 REUP=
202110112350 METAR ESMX 112350Z AUTO 28005KT 9999 FEW046/// 06/05 Q1009=
202110112320 METAR ESMX 112320Z AUTO 29006KT 9999 FEW043/// 06/06 Q1009=
202110112250 METAR ESMX 112250Z AUTO 26005KT 9999 FEW078/// 06/06 Q1008=
202110112220 METAR ESMX 112220Z AUTO 25005KT 9999 NCD 06/06 Q1008=
202110112150 METAR ESMX 112150Z AUTO 26004KT 9999 FEW042/// 06/06 Q1008=
202110112120 METAR ESMX 112120Z AUTO 24005KT 9999 NCD 06/06 Q1009=
202110112050 METAR ESMX 112050Z AUTO 23005KT 9999 NCD 06/06 Q1009=
202110112020 METAR ESMX 112020Z AUTO 23005KT 9999 NCD 06/06 Q1009=
202110111950 METAR ESMX 111950Z AUTO 24003KT 9999 FEW057/// 07/06 Q1009=
202110111920 METAR ESMX 111920Z AUTO 24005KT 9999 NCD 07/06 Q1009=
202110111850 METAR ESMX 111850Z AUTO 23005KT 9999 NCD 07/06 Q1009=
202110111820 METAR ESMX 111820Z AUTO 24003KT 9999 NCD 07/06 Q1009=
202110111750 METAR ESMX 111750Z AUTO 23004KT 9999 NCD 07/06 Q1010=
202110111720 METAR ESMX 111720Z 25007KT CAVOK 09/06 Q1010=
202110111650 METAR ESMX 111650Z 26007KT 9999 FEW027 09/06 Q1010=
202110111620 METAR ESMX 111620Z 25007KT 9999 FEW030 09/06 Q1010=
202110111550 METAR COR ESMX 111550Z 25007KT 210V290 9999 FEW031 10/06 Q1010=
202110111520 METAR ESMX 111520Z 26010KT 220V290 9999 SCT032 12/06 Q1010=
202110111450 METAR ESMX 111450Z 26010KT 230V300 9999 FEW031 SCT040 12/07 Q1010=
202110111420 METAR ESMX 111420Z 26009KT 9999 SCT035 12/07 Q1010=
202110111350 METAR ESMX 111350Z 25013KT 210V280 9999 FEW032 BKN051 12/07 Q1010=
202110111320 METAR ESMX 111320Z 25012KT 9999 BKN031 13/08 Q1010=
202110111250 METAR COR ESMX 111250Z 25010KT 210V280 9999 BKN028 13/07 Q1010=
202110111220 METAR ESMX 111220Z 27009KT 9999 BKN025 11/08 Q1011=
202110111150 METAR ESMX 111150Z 23010KT 9999 BKN023 12/09 Q1011=
202110111120 METAR COR ESMX 111120Z 25010KT 220V280 9999 -RA BKN017 12/09 Q1011=
202110111050 METAR ESMX 111050Z 24010KT 210V280 9999 BKN014 12/10 Q1011=
202110111020 METAR ESMX 111020Z 23009KT 9999 FEW009 BKN012 11/09 Q1012=
202110110950 METAR ESMX 110950Z 23009KT 9999 BKN008 11/10 Q1012=
202110110920 METAR ESMX 110920Z 21008KT 9000 -RA SCT006 BKN013 09/09 Q1012=
202110110850 METAR ESMX 110850Z 22009KT 9000 -RA BKN006 10/09 Q1013=
202110110820 METAR ESMX 110820Z 21009KT 9999 BKN006 10/10 Q1013=
202110110750 METAR ESMX 110750Z 22008KT 9999 -RA BKN005 09/09 Q1013=
202110110720 METAR ESMX 110720Z 22008KT 9999 -RA BKN005 08/08 Q1013=
202110110650 METAR ESMX 110650Z AUTO 22008KT 9000 UP OVC003/// 08/08 Q1013=
202110110620 METAR ESMX 110620Z AUTO 22008KT 8000 BR OVC003/// 08/08 Q1013=
202110110550 METAR ESMX 110550Z AUTO 22008KT 7000 BR OVC002/// 08/08 Q1014=
202110110520 METAR ESMX 110520Z AUTO 22007KT 6000 BR OVC002/// 07/07 Q1014=
202110110450 METAR ESMX 110450Z AUTO 22006KT 1900 BR OVC001/// 07/07 Q1014=
202110110420 METAR ESMX 110420Z AUTO 19006KT 1700 BR OVC001/// 07/07 Q1014=
202110110350 METAR ESMX 110350Z AUTO 20006KT 2500 BR OVC002/// 07/07 Q1015 RERA=
202110110320 METAR ESMX 110320Z AUTO 22006KT 4400 BR OVC003/// 07/07 Q1015=
202110110250 METAR ESMX 110250Z AUTO 21007KT 4900 BR OVC004/// 07/07 Q1015 REDZ=
202110110220 METAR ESMX 110220Z AUTO 21007KT 6000 -DZ BKN006/// OVC008/// 07/06 Q1016=
202110110150 METAR ESMX 110150Z AUTO 21006KT 6000 -RA BKN009/// BKN015/// OVC020/// 06/06 Q1016=
202110110120 METAR ESMX 110120Z AUTO 22009KT 7000 RA FEW016/// BKN040/// OVC053/// 07/06 Q1017 REUP=
202110110050 METAR ESMX 110050Z AUTO 20009KT 9999 BKN068/// OVC094/// 07/05 Q1017=
202110110020 METAR ESMX 110020Z AUTO 19009KT 9999 OVC098/// 07/05 Q1017=
202110102350 METAR ESMX 102350Z AUTO 19008KT 9999 SCT100/// 06/05 Q1018=
202110102320 METAR ESMX 102320Z AUTO 19007KT 9999 NCD 06/05 Q1018=
202110102250 METAR ESMX 102250Z AUTO 18006KT 9999 NCD 06/05 Q1019=
202110102220 METAR ESMX 102220Z AUTO 18006KT 9999 FEW110/// 06/05 Q1019=
202110102150 METAR ESMX 102150Z AUTO 18008KT 9999 FEW110/// 06/05 Q1020=
202110102120 METAR ESMX 102120Z AUTO 18008KT 9999 NCD 07/05 Q1020=
202110102050 METAR ESMX 102050Z AUTO 19008KT 9999 FEW130/// 06/05 Q1021=
202110102020 METAR ESMX 102020Z AUTO 18007KT 9999 BKN130/// 07/05 Q1021=
202110101950 METAR ESMX 101950Z AUTO 18007KT 9999 SCT130/// 07/05 Q1022=
202110101920 METAR ESMX 101920Z AUTO 18007KT 9999 FEW130/// 07/05 Q1022=
202110101850 METAR ESMX 101850Z AUTO 19007KT 9999 FEW110/// 07/05 Q1022=
202110101820 METAR ESMX 101820Z AUTO 18008KT 9999 NCD 08/05 Q1022=
202110101750 METAR ESMX 101750Z 19008KT CAVOK 09/06 Q1023=
202110101720 METAR ESMX 101720Z 19009KT CAVOK 09/06 Q1023=
202110101650 METAR ESMX 101650Z 19008KT CAVOK 09/07 Q1023=
202110101620 METAR ESMX 101620Z 17008KT CAVOK 10/07 Q1023=
202110101550 METAR ESMX 101550Z 18008KT CAVOK 10/06 Q1024=
202110101520 METAR ESMX 101520Z 17008KT CAVOK 10/06 Q1024=
202110101450 METAR ESMX 101450Z 18007KT CAVOK 11/06 Q1024=
202110101420 METAR ESMX 101420Z 18008KT CAVOK 11/06 Q1025=
202110101350 METAR ESMX 101350Z 17008KT CAVOK 11/06 Q1025=
202110101320 METAR ESMX 101320Z 18009KT CAVOK 12/05 Q1026=
202110101250 METAR ESMX 101250Z 19009KT CAVOK 12/05 Q1026=
202110101220 METAR ESMX 101220Z 18010KT 150V210 CAVOK 12/06 Q1027=
202110101150 METAR ESMX 101150Z 19010KT CAVOK 12/06 Q1027=
202110101120 METAR ESMX 101120Z 20009KT CAVOK 11/07 Q1028=
202110101050 METAR ESMX 101050Z 19010KT CAVOK 11/08 Q1028=
202110101020 METAR ESMX 101020Z 19007KT CAVOK 10/08 Q1028=
202110100950 METAR ESMX 100950Z 19008KT CAVOK 10/08 Q1028=
202110100920 METAR ESMX 100920Z 20008KT CAVOK 09/08 Q1028=
202110100850 METAR ESMX 100850Z 21008KT CAVOK 09/08 Q1028=
202110100820 METAR ESMX 100820Z 17006KT CAVOK 08/08 Q1029=
202110100750 METAR ESMX 100750Z AUTO 20006KT 9999 BKN210/// 08/08 Q1029=
202110100720 METAR ESMX 100720Z AUTO 20005KT 9999 OVC210/// 08/08 Q1029=
202110100650 METAR ESMX 100650Z AUTO 20005KT 6000 BR OVC200/// 06/06 Q1029=
202110100620 METAR ESMX 100620Z AUTO 16003KT 3700 BR FEW120/// OVC200/// 05/05 Q1029=
202110100550 METAR ESMX 100550Z AUTO 16004KT 5000 BR OVC200/// 05/05 Q1029=
202110100520 METAR ESMX 100520Z AUTO 20003KT 7000 BR OVC200/// 04/04 Q1029=
202110100450 METAR ESMX 100450Z AUTO 20003KT 7000 BR OVC200/// 05/05 Q1029=
202110100420 METAR ESMX 100420Z AUTO 18004KT 5000 BR FEW200/// 04/04 Q1030=
202110100350 METAR ESMX 100350Z AUTO 22003KT 4000 BR NCD 03/03 Q1030=
202110100320 METAR ESMX 100320Z AUTO 22005KT 1400 R01/P2000N R19/P2000N NCD 03/03 Q1030=
202110100250 METAR ESMX 100250Z AUTO 16004KT 3800 BCFG NCD 04/04 Q1030=
202110100220 METAR ESMX 100220Z AUTO 16003KT 0300 R01/P2000D R19/1100N BCFG NCD 04/04 Q1031=
202110100150 METAR ESMX 100150Z AUTO 22003KT 6000 BR NCD 05/05 Q1031=
202110100120 METAR ESMX 100120Z AUTO 22004KT 2400 BR NCD 04/04 Q1031=
202110100050 METAR ESMX 100050Z AUTO 22004KT 6000 BR NCD 03/03 Q1031=
202110100020 METAR ESMX 100020Z AUTO 16003KT 6000 BR NCD 03/03 Q1032=
202110092350 METAR ESMX 092350Z AUTO 22003KT 0150 R01/P2000N R19/0450N BR NCD 05/05 Q1032=
202110092320 METAR ESMX 092320Z AUTO 17003KT 1500 BR NCD 05/05 Q1032=
202110092250 METAR ESMX 092250Z AUTO 18004KT 4500 NCD 06/06 Q1032=
202110092220 METAR ESMX 092220Z AUTO 22004KT 9999 NCD 06/05 Q1032=
202110092150 METAR ESMX 092150Z AUTO 22004KT 6000 NCD 06/06 Q1032=
202110092120 METAR ESMX 092120Z 22004KT 6000 BR NSC 07/06 Q1033=
202110092050 METAR ESMX 092050Z 19004KT 6000 BR NSC 06/06 Q1033=
202110092020 METAR ESMX 092020Z 22004KT 9000 BR NSC 06/06 Q1033=
202110091950 METAR COR ESMX 091950Z 22004KT 7000 BR NSC 07/07 Q1033=
202110091920 METAR ESMX 091920Z AUTO 22004KT 9999 NCD 07/07 Q1033=
202110091850 METAR ESMX 091850Z AUTO 22004KT 9999 NCD 06/06 Q1033=
202110091820 METAR ESMX 091820Z 22003KT CAVOK 06/06 Q1033=
202110091750 METAR ESMX 091750Z 22003KT 8000 BCFG NSC 06/06 Q1033=
202110091720 METAR ESMX 091720Z 22002KT 2500 BR NSC 06/06 Q1033=
202110091650 METAR ESMX 091650Z 22002KT CAVOK 07/07 Q1033=
202110091620 METAR ESMX 091620Z 00000KT CAVOK 08/08 Q1033=
202110091550 METAR ESMX 091550Z 22004KT CAVOK 10/08 Q1034=
202110091520 METAR ESMX 091520Z AUTO 20005KT 9999 NCD 12/09 Q1034=
202110091450 METAR ESMX 091450Z AUTO 20006KT 9999 NCD 12/09 Q1034=
202110091420 METAR ESMX 091420Z AUTO 19006KT 9999 FEW018/// 13/09 Q1034=
202110091350 METAR ESMX 091350Z AUTO 21005KT 9999 FEW013/// 13/09 Q1034=
202110091320 METAR ESMX 091320Z AUTO 20007KT 170V240 9999 BKN015/// 13/09 Q1035=
202110091250 METAR ESMX 091250Z AUTO 17006KT 9999 SCT012/// 12/10 Q1035=
202110091220 METAR ESMX 091220Z AUTO 18005KT 9999 BKN011/// 12/10 Q1035=
202110091150 METAR ESMX 091150Z AUTO 19005KT 9999 BKN010/// BKN140/// 12/10 Q1036=
202110091120 METAR ESMX 091120Z AUTO 21005KT 9999 BKN008/// 11/10 Q1036=
202110091050 METAR ESMX 091050Z AUTO 19005KT 9999 OVC007/// 11/09 Q1036=
202110091020 METAR ESMX 091020Z AUTO 18005KT 9000 SCT005/// OVC008/// 10/10 Q1036=
202110090950 METAR ESMX 090950Z AUTO 20006KT 6000 BKN002/// OVC004/// 09/09 Q1036=
202110090920 METAR ESMX 090920Z AUTO VRB03KT 2000 BCFG OVC002/// 09/09 Q1036=
202110090850 METAR ESMX 090850Z VRB02KT 0150 R01/0650N R19/1400U FG OVC001 09/09 Q1036=
202110090820 METAR ESMX 090820Z 20002KT 0200 R01/0400N R19/0650U FG OVC002 08/08 Q1036=
202110090750 METAR ESMX 090750Z 17004KT 130V190 0150 R01/0375D R19/0400N FG OVC001 08/08 Q1036=
202110090720 METAR ESMX 090720Z 18003KT 140V220 0200 R01/0450N R19/0400N FG VV002 08/08 Q1036=
202110090650 METAR ESMX 090650Z 00000KT 0200 R01/0550N R19/0400N FG VV002 08/08 Q1036=
202110090620 METAR ESMX 090620Z AUTO 00000KT 0150 R01/0325N R19/0350N FG VV002 07/07 Q1035=
202110090550 METAR ESMX 090550Z AUTO 18003KT 0100 R01/0325N R19/0350N FG VV001 07/07 Q1035=
202110090520 METAR ESMX 090520Z AUTO VRB01KT 0100 R01/0450N R19/0400N FG VV001 07/07 Q1035=
202110090450 METAR ESMX 090450Z AUTO VRB02KT 0100 R01/0500N R19/0325N FG VV001 07/07 Q1035=
202110090420 METAR ESMX 090420Z AUTO VRB02KT 0150 R01/0550N R19/0500N FG VV002 07/07 Q1035=
202110090350 METAR ESMX 090350Z AUTO VRB02KT 0200 R01/0700N R19/0750N FG OVC001/// 07/07 Q1035=
202110090320 METAR ESMX 090320Z AUTO VRB02KT 0200 R01/0700N R19/0800N FG BKN001/// OVC002/// 07/07 Q1035=
202110090250 METAR ESMX 090250Z AUTO 20005KT 0250 R01/0750N R19/0750N FG SCT001/// OVC002/// 07/07 Q1035=
202110090220 METAR ESMX 090220Z AUTO 19005KT 0200 R01/0700N R19/0750N FG BKN001/// OVC002/// 07/07 Q1035=
202110090150 METAR ESMX 090150Z AUTO 20005KT 0150 R01/0600N R19/0650N FG FEW001/// OVC002/// 07/07 Q1035=
202110090120 METAR ESMX 090120Z AUTO 20005KT 0150 R01/0600N R19/0600N FG VV002 07/07 Q1036=
202110090050 METAR ESMX 090050Z AUTO 22004KT 0150 R01/0500N R19/0500N FG VV001 07/07 Q1036=
202110090020 METAR ESMX 090020Z AUTO 17003KT 0100 R01/0550N R19/0400N FG VV001 07/07 Q1036=
202110082350 METAR ESMX 082350Z AUTO 18005KT 0150 R01/0550N R19/0600N FG VV001 07/07 Q1036=
202110082320 METAR ESMX 082320Z AUTO 16005KT 0150 R01/0600N R19/0600N FG VV001 07/07 Q1036=
202110082250 METAR ESMX 082250Z AUTO 20004KT 0200 R01/0650N R19/0700N FG VV002 07/07 Q1036=
202110082220 METAR ESMX 082220Z AUTO 20003KT 0100 R01/0650N R19/0450N FG VV001 07/07 Q1036=
202110082150 METAR ESMX 082150Z AUTO 17003KT 0250 R01/0800N R19/0800D FG BKN001/// OVC002/// 07/07 Q1036=
202110082120 METAR ESMX 082120Z AUTO 16003KT 0250 R01/0900N R19/0900N FG VV002 08/08 Q1036=
202110082050 METAR ESMX 082050Z AUTO 16003KT 0150 R01/0600N R19/0400N FG SCT001/// 08/08 Q1036=
202110082020 METAR ESMX 082020Z AUTO 20002KT 6000 BR NCD 06/06 Q1035=
202110081950 METAR ESMX 081950Z AUTO 00000KT 9999 NCD 06/06 Q1035=
202110081920 METAR ESMX 081920Z AUTO 20004KT 9999 BCFG NCD 07/07 Q1035=
202110081850 METAR ESMX 081850Z AUTO 19002KT 9999 NCD 06/06 Q1035=
202110081820 METAR ESMX 081820Z AUTO 20002KT 9999 NCD 07/07 Q1035=
202110081750 METAR ESMX 081750Z AUTO 19002KT 9999 NCD 07/07 Q1035=
202110081720 METAR ESMX 081720Z AUTO 17002KT 9999 NCD 09/09 Q1035=
202110081650 METAR ESMX 081650Z AUTO 19002KT 9999 NCD 10/09 Q1035=
202110081620 METAR ESMX 081620Z AUTO 00000KT 9999 NCD 10/10 Q1035=
202110081550 METAR ESMX 081550Z 00000KT CAVOK 14/10 Q1035=
202110081520 METAR ESMX 081520Z VRB02KT 9999 FEW034 15/09 Q1035=
202110081450 METAR ESMX 081450Z VRB02KT 9999 FEW034 16/08 Q1035=
202110081420 METAR ESMX 081420Z 22003KT 180V260 9999 FEW034 16/08 Q1035=
202110081350 METAR ESMX 081350Z 20003KT 9999 SCT032 16/08 Q1035=
202110081320 METAR ESMX 081320Z 18004KT 9999 SCT030 16/09 Q1035=
202110081250 METAR ESMX 081250Z 17004KT 9999 FEW028 16/08 Q1035=
202110081220 METAR ESMX 081220Z 18004KT 9999 FEW023 15/08 Q1035=
202110081150 METAR ESMX 081150Z 18004KT 9999 FEW023 15/08 Q1035=
202110081120 METAR ESMX 081120Z AUTO 21005KT 9999 FEW023/// 15/08 Q1035=
202110081050 METAR ESMX 081050Z 18003KT 090V230 9999 FEW020 15/10 Q1035=
202110081020 METAR ESMX 081020Z VRB03KT 9999 FEW015 14/10 Q1036=
202110080950 METAR ESMX 080950Z 20004KT 9999 FEW009 13/09 Q1036=
202110080920 METAR ESMX 080920Z 20003KT 9999 MIFG SCT002 12/10 Q1036=
202110080850 METAR ESMX 080850Z VRB02KT 7000 BCFG SCT002 10/10 Q1036=
202110080820 METAR ESMX 080820Z 00000KT 3700 BCFG VV002 08/08 Q1036=
202110080750 METAR ESMX 080750Z VRB01KT 0500 R01/0700N R19/0550N FG VV002 07/07 Q1035=
202110080720 METAR ESMX 080720Z 00000KT 0200 R01/0225N R19/0350N FG VV002 06/06 Q1035=
202110080620 METAR ESMX 080620Z AUTO 00000KT 0150 R01/1100N R19/0375D FG VV001 03/03 Q1035=
202110080550 METAR ESMX 080550Z AUTO 00000KT 0150 R01/0325N R19/0600N FG VV000 02/02 Q1034=
202110080520 METAR ESMX 080520Z AUTO 00000KT 0100 R01/0325N R19/0325N FG VV000 02/02 Q1034=
202110080450 METAR ESMX 080450Z AUTO 00000KT 0100 R01/0400D R19/0375N FG VV001 03/03 Q1034=
202110080420 METAR ESMX 080420Z AUTO 00000KT 0050 R01/0650D R19/0275N FG VV000 03/03 Q1034=
202110080350 METAR ESMX 080350Z AUTO 20002KT 0100 R01/0325N R19/0350N FG VV000 03/03 Q1034=
202110080320 METAR ESMX 080320Z AUTO 19002KT 0050 R01/0275N R19/0400N FG VV001 03/03 Q1034=
202110080250 METAR ESMX 080250Z AUTO 00000KT 0100 R01/0375N R19/0650U FG VV000 02/02 Q1034=
202110080220 METAR ESMX 080220Z AUTO 00000KT 0250 R01/0800N R19/0900N FG VV000 03/03 Q1033=
202110080150 METAR ESMX 080150Z AUTO 00000KT 0200 R01/1000N R19/0800N FG VV000 03/03 Q1033=
202110080120 METAR ESMX 080120Z AUTO 00000KT 0100 R01/0225N R19/0450N FG VV000 02/02 Q1033=
202110080050 METAR ESMX 080050Z AUTO 18001KT 0100 R01/0650N R19/0250N FG VV000 04/04 Q1033=
202110080020 METAR ESMX 080020Z AUTO 00000KT 0150 R01/1900N R19/0450N FG BKN000/// 03/03 Q1033=
202110072350 METAR ESMX 072350Z AUTO 00000KT 0150 R01/1100U R19/0650N FG OVC000/// 04/04 Q1033=
202110072320 METAR ESMX 072320Z AUTO 18003KT 0150 R01/0650N R19/0350N FG VV000 05/05 Q1033=
202110072250 METAR ESMX 072250Z AUTO 00000KT 0100 R01/0900N R19/0450N BCFG NCD 05/05 Q1033=
202110072220 METAR ESMX 072220Z AUTO 00000KT 0200 R01/0700N R19/1100D FG NCD 04/04 Q1033=
202110072150 METAR ESMX 072150Z AUTO 00000KT 0200 R01/0700N R19/P2000N BCFG NCD 05/05 Q1033=
202110072120 METAR ESMX 072120Z AUTO 00000KT 0150 R01/1000N R19/0750N NCD 05/05 Q1033=
202110072050 METAR ESMX 072050Z AUTO 00000KT 0150 R01/0650N R19/0650N FG NCD 06/06 Q1033=
202110072020 METAR ESMX 072020Z AUTO 00000KT 0150 R01///// R19/0400N NCD 05/05 Q1033=
202110071950 METAR ESMX 071950Z AUTO 00000KT 3200 BCFG NCD 05/05 Q1032=
202110071920 METAR ESMX 071920Z AUTO 00000KT 9999 NCD 07/07 Q1032=
202110071850 METAR ESMX 071850Z AUTO 00000KT 7000 BCFG NCD 08/08 Q1032=
202110071820 METAR ESMX 071820Z 19002KT CAVOK 08/08 Q1032=
202110071750 METAR ESMX 071750Z 21003KT 1000 R01/P2000N R19/1400U BCFG NSC 08/08 Q1032=
202110071720 METAR ESMX 071720Z 18002KT 6000 MIFG NSC 09/09 Q1031=
202110071650 METAR ESMX 071650Z 17001KT 9999 MIFG NSC 10/10 Q1031=
202110071620 METAR ESMX 071620Z VRB02KT CAVOK 11/11 Q1031=
202110071550 METAR ESMX 071550Z 03002KT CAVOK 12/11 Q1031=
202110071520 METAR ESMX 071520Z 36002KT 9999 FEW020 13/11 Q1031=
202110071450 METAR ESMX 071450Z 36003KT 9999 FEW020 13/11 Q1030=
202110071420 METAR ESMX 071420Z 35004KT 9999 FEW018 13/11 Q1030=
202110071350 METAR ESMX 071350Z 00000KT 9999 FEW017 14/11 Q1030=
202110071320 METAR ESMX 071320Z VRB03KT 9999 FEW017 14/10 Q1030=
202110071250 METAR ESMX 071250Z 21003KT 9999 SCT012 15/10 Q1030=
202110071220 METAR ESMX 071220Z VRB03KT 9999 SCT009 14/11 Q1030=
202110071150 METAR ESMX 071150Z 21003KT 9999 BKN007 12/11 Q1030=
202110071120 METAR ESMX 071120Z 19004KT 160V250 9999 SCT005 BKN008 12/11 Q1030=
202110071050 METAR ESMX 071050Z 21004KT 170V240 9999 BKN004 11/11 Q1029=
202110071020 METAR ESMX 071020Z VRB03KT 7000 BKN002 10/10 Q1029=
202110070950 METAR ESMX 070950Z VRB03KT 2200 BR BKN002 10/10 Q1029=
202110070920 METAR ESMX 070920Z VRB02KT 0200 R01/0550N R19/0400N FG OVC001 09/09 Q1029=
202110070850 METAR ESMX 070850Z 00000KT 0150 R01/0350N R19/0400N FG VV002 08/08 Q1029=
202110070820 METAR ESMX 070820Z VRB02KT 0150 R01/0300N R19/0325N FG VV001 08/08 Q1029=
202110070750 METAR ESMX 070750Z 21003KT 0100 R01/0250N R19/0325N FG VV001 08/08 Q1028=
202110070720 METAR ESMX 070720Z VRB02KT 0200 R01/0400N R19/0500N FG VV002 08/08 Q1028=
202110070650 METAR ESMX 070650Z 17003KT 0100 R01/0325N R19/0400N FG VV002 07/07 Q1028=
202110070620 METAR ESMX 070620Z 17003KT 0200 R01/0450N R19/0450N FG VV002 07/07 Q1027=
202110070550 METAR ESMX 070550Z 21002KT 0150 R01/0400N R19/0350N FG VV002 06/06 Q1027=
202110070520 METAR ESMX 070520Z VRB01KT 0100 R01/0400N R19/0400N FG VV001 06/06 Q1027=
202110070450 METAR ESMX 070450Z 24003KT 0100 R01/0400N R19/0400N FG VV001 07/07 Q1026=
202110070420 METAR ESMX 070420Z VRB03KT 0100 R01/0350N R19/0450N FG VV001 07/07 Q1026=
202110070350 METAR COR ESMX 070350Z VRB02KT 0150 R01/0500N R19/0450N FG VV001 07/07 Q1026=
202110070320 METAR ESMX 070320Z AUTO 18003KT 0150 R01/0500N R19/0500N FG VV001 07/07 Q1025=
202110070250 METAR ESMX 070250Z AUTO 19003KT 0100 R01/0450N R19/0500N FG VV001 07/07 Q1025=
202110070220 METAR ESMX 070220Z AUTO 18003KT 0150 R01/0450N R19/0600N FG VV001 07/07 Q1025=
202110070150 METAR ESMX 070150Z AUTO 21002KT 0100 R01/0450N R19/0450N FG VV001 07/07 Q1025=
202110070120 METAR ESMX 070120Z AUTO 21003KT 0100 R01/0350N R19/0375N FG VV001 08/08 Q1024=
202110070050 METAR ESMX 070050Z AUTO 21003KT 0100 R01/0375N R19/0350N FG VV001 08/08 Q1024=
202110070020 METAR ESMX 070020Z AUTO 19005KT 0150 R01/0750N R19/0550N FG BKN001/// 08/08 Q1024=
202110062350 METAR ESMX 062350Z AUTO 19003KT 0150 R01/0650N R19/0450N FG NCD 07/07 Q1023=
202110062320 METAR ESMX 062320Z AUTO 19004KT 0100 R01/P2000N R19/0350N BCFG NCD 07/07 Q1023=
202110062250 METAR ESMX 062250Z AUTO 19004KT 0200 R01/P2000N R19/0900N BCFG NCD 06/06 Q1023=
202110062220 METAR ESMX 062220Z AUTO 19003KT 0150 R01/P2000N R19/0500N BCFG NCD 09/09 Q1022=
202110062150 METAR ESMX 062150Z AUTO 16003KT 0450 R01/P2000D R19/1800N BCFG NCD 09/09 Q1022=
202110062120 METAR ESMX 062120Z AUTO 19004KT 0250 R01/P2000N R19/0800N BKN018/// 09/09 Q1022=
202110062050 METAR ESMX 062050Z AUTO 19004KT 0150 R01/0800N R19/0600N FG BKN001/// OVC019/// 09/09 Q1022=
202110062020 METAR ESMX 062020Z AUTO 18004KT 0350 R01/1200N R19/0650N FG OVC001/// 10/10 Q1021=
202110061950 METAR ESMX 061950Z AUTO 19005KT 0450 R01/1300D R19/P2000N FG OVC001/// 11/11 Q1021=
202110061920 METAR ESMX 061920Z AUTO 19005KT 0350 R01/1000N R19/1000N FG OVC001/// 11/11 Q1021=
202110061850 METAR ESMX 061850Z AUTO 16006KT 1100 R01/P2000N R19/P2000N BR SCT002/// 11/11 Q1020=
202110061820 METAR ESMX 061820Z AUTO 17006KT 4900 BR FEW019/// 11/11 Q1020=
202110061750 METAR ESMX 061750Z AUTO 17005KT 6000 BR SCT044/// 12/12 Q1019=
202110061720 METAR ESMX 061720Z 17005KT 9000 BR FEW049 12/12 Q1019=
202110061650 METAR ESMX 061650Z 17004KT CAVOK 12/12 Q1018=
202110061620 METAR ESMX 061620Z 17004KT CAVOK 12/12 Q1018=
202110061550 METAR ESMX 061550Z 15004KT 9999 FEW022 SCT032 13/12 Q1017=
202110061520 METAR COR ESMX 061520Z 16005KT 9999 FEW003 SCT009 BKN015 13/13 Q1017=
202110061450 METAR ESMX 061450Z 16005KT 9999 -RA BKN013 13/12 Q1017=
202110061420 METAR ESMX 061420Z 16005KT 9999 BKN011 13/12 Q1016=
202110061350 METAR ESMX 061350Z 16005KT 9999 -RA BKN016 13/12 Q1016=
202110061320 METAR ESMX 061320Z 17006KT 9999 BKN015 14/11 Q1016=
202110061250 METAR ESMX 061250Z 17007KT 9999 BKN017 14/11 Q1015=
202110061220 METAR ESMX 061220Z 18008KT 9999 BKN017 14/11 Q1015=
202110061150 METAR ESMX 061150Z 18007KT 9999 BKN016 13/11 Q1014=
202110061120 METAR ESMX 061120Z 18008KT 9999 BKN017 13/10 Q1014=
202110061050 METAR ESMX 061050Z 17009KT 9999 BKN021 13/11 Q1014=
202110061020 METAR ESMX 061020Z 20010KT 9999 BKN018 13/10 Q1014=
202110060950 METAR ESMX 060950Z 17009KT 130V190 9999 BKN021 13/11 Q1013=
202110060920 METAR ESMX 060920Z 17010KT 9999 SCT015 BKN022 13/10 Q1013=
202110060850 METAR ESMX 060850Z 20009KT 9999 FEW014 BKN022 13/11 Q1012=
202110060820 METAR COR ESMX 060820Z 19008KT 9999 SCT005 BKN009 12/12 Q1012=
202110060750 METAR ESMX 060750Z 19008KT 9999 BKN007 12/12 Q1011=
202110060720 METAR ESMX 060720Z 19008KT 9999 BKN007 12/11 Q1011=
202110060650 METAR ESMX 060650Z 19010KT 9999 BKN007 12/11 Q1010=
202110060620 METAR ESMX 060620Z 20009KT 9999 BKN007 12/12 Q1010=
202110060550 METAR COR ESMX 060550Z 19010KT 9999 BKN008 12/11 Q1009=
202110060520 METAR ESMX 060520Z AUTO 18009KT 9999 SCT007/// BKN009/// OVC014/// 12/12 Q1009=
202110060450 METAR ESMX 060450Z AUTO 20008KT 9999 BKN007/// BKN009/// OVC013/// 12/12 Q1008=
202110060420 METAR ESMX 060420Z AUTO 18010KT 9999 BKN005/// OVC008/// 12/12 Q1008=
202110060350 METAR ESMX 060350Z AUTO 18009KT 9999 OVC003/// 12/12 Q1007=
202110060320 METAR ESMX 060320Z AUTO 18008KT 9999 BR OVC004/// 12/12 Q1007=
202110060250 METAR ESMX 060250Z AUTO 18009KT 9999 FEW003/// OVC005/// 12/12 Q1007=
202110060220 METAR ESMX 060220Z AUTO 18009KT 140V200 5000 BR OVC003/// 13/13 Q1006=
202110060150 METAR ESMX 060150Z AUTO 17008KT 140V200 9999 OVC005/// 13/13 Q1006=
202110060120 METAR ESMX 060120Z AUTO 17007KT 9999 SCT007/// OVC014/// 13/13 Q1006=
202110060050 METAR ESMX 060050Z AUTO 17009KT 9999 BKN008/// OVC010/// 14/13 Q1006 REDZ=
202110060020 METAR ESMX 060020Z AUTO 18012KT 150V210 7000 BR BKN004/// OVC008/// 14/14 Q1005 REDZ=
202110052350 METAR ESMX 052350Z AUTO 17010KT 5000 BR OVC003/// 14/14 Q1005=
202110052320 METAR ESMX 052320Z AUTO 14007KT 2500 BR OVC002/// 14/14 Q1005=
202110052250 METAR ESMX 052250Z AUTO 14007KT 100V170 3800 BR OVC003/// 14/14 Q1005 REDZ=
202110052220 METAR ESMX 052220Z AUTO 14006KT 100V170 6000 BR OVC005/// 14/14 Q1005 REDZ=
202110052150 METAR ESMX 052150Z 14007KT 100V180 9000 -RA BKN006 14/13 Q1005=
202110052120 METAR ESMX 052120Z 11005KT 070V160 9000 RA BKN005 13/13 Q1005=
202110052050 METAR ESMX 052050Z 10004KT 040V130 8000 RA BKN005 12/12 Q1005=
202110052020 METAR ESMX 052020Z 09005KT 030V130 6000 RA BKN004 12/12 Q1006=
202110051950 METAR ESMX 051950Z 09004KT 020V130 7000 RA BKN006 12/12 Q1006=
202110051920 METAR ESMX 051920Z 09005KT 030V140 8000 -RA BKN007 12/12 Q1007=
202110051850 METAR ESMX 051850Z AUTO 09006KT 020V130 7000 BR OVC006/// 12/12 Q1007=
202110051820 METAR ESMX 051820Z AUTO 08007KT 040V140 7000 BR OVC006/// 12/12 Q1008=
202110051750 METAR ESMX 051750Z AUTO 08007KT 030V130 7000 -DZ OVC004/// 11/11 Q1008=
202110051720 METAR ESMX 051720Z AUTO 07008KT 020V130 9999 DZ OVC004/// 11/11 Q1009=
202110051650 METAR ESMX 051650Z AUTO 07008KT 030V120 9999 -RA FEW001/// OVC005/// 11/11 Q1009=
202110051620 METAR ESMX 051620Z AUTO 07007KT 030V120 9999 RA OVC006/// 11/11 Q1010=
202110051550 METAR ESMX 051550Z AUTO 05008KT 020V090 9999 -RA OVC006/// 10/10 Q1010=
202110051520 METAR ESMX 051520Z AUTO 05006KT 020V090 9999 -RA OVC006/// 10/10 Q1011=
202110051450 METAR ESMX 051450Z AUTO 04007KT 9999 -RA BKN007/// OVC015/// 10/10 Q1011=
202110051420 METAR ESMX 051420Z 05006KT 020V080 9000 RA SCT010 BKN022 10/10 Q1012=
202110051350 METAR COR ESMX 051350Z 04007KT 9999 -RA SCT010 BKN021 11/10 Q1013=
202110051320 METAR ESMX 051320Z 07004KT 9000 -RA BKN021 11/10 Q1014=
202110051250 METAR ESMX 051250Z 10005KT 050V130 9000 -RA SCT041 BKN068 12/10 Q1014=
202110051220 METAR ESMX 051220Z 11005KT 060V140 9999 BKN016 13/10 Q1014=
202110051150 METAR ESMX 051150Z 09004KT 050V120 9999 BKN018 13/10 Q1014=
202110051120 METAR ESMX 051120Z 12005KT 070V160 9999 BKN015 13/10 Q1015=
202110051050 METAR ESMX 051050Z 11005KT 070V150 9999 FEW013 BKN021 13/11 Q1015=
202110051020 METAR ESMX 051020Z 12004KT 9999 BKN013 13/11 Q1016=
202110050950 METAR ESMX 050950Z 12005KT 090V150 9999 BKN010 13/11 Q1016=
202110050920 METAR ESMX 050920Z 13005KT 9999 BKN009 12/11 Q1016=
202110050850 METAR ESMX 050850Z 14005KT 9999 BKN008 12/11 Q1016=
202110050820 METAR ESMX 050820Z 12004KT 9000 BKN005 12/11 Q1017=
202110050750 METAR ESMX 050750Z 12004KT 8000 BKN002 11/11 Q1017=
202110050720 METAR ESMX 050720Z 12004KT 1100 R01/1300U R19/P2000N BKN002 11/11 Q1017=
202110050650 METAR ESMX 050650Z 15004KT 1700 BKN002 10/10 Q1017=
202110050620 METAR ESMX 050620Z 13004KT 1100 R01/P2000D R19/1100N BR BKN001 10/10 Q1017=
202110050550 METAR ESMX 050550Z 15003KT 0600 R01/1100N R19/1100N FG OVC002 10/10 Q1017=
202110050520 METAR ESMX 050520Z 15004KT 1600 R01/P2000D R19/P2000N BR BKN002 10/10 Q1017=
202110050450 METAR ESMX 050450Z 16003KT 0800 R01/P2000N R19/P2000N BR BKN002 BKN006 10/10 Q1017=
202110050420 METAR ESMX 050420Z 16005KT 130V200 2400 BR BKN003 BKN006 10/10 Q1017=
202110050350 METAR ESMX 050350Z AUTO 19004KT 8000 BR BKN007/// OVC009/// 11/11 Q1017=
202110050320 METAR ESMX 050320Z AUTO 20003KT 9999 BKN008/// 10/10 Q1017=
202110050250 METAR ESMX 050250Z AUTO 20003KT 9999 OVC008/// 11/10 Q1017=
202110050220 METAR ESMX 050220Z AUTO 18005KT 9999 OVC009/// 11/10 Q1017=
202110050150 METAR ESMX 050150Z AUTO 17003KT 9999 OVC009/// 11/11 Q1017=
202110050120 METAR ESMX 050120Z AUTO 21004KT 9999 OVC010/// 11/11 Q1017=
202110050050 METAR ESMX 050050Z AUTO 21005KT 9999 OVC008/// 11/11 Q1018=
202110050020 METAR ESMX 050020Z AUTO 21006KT 9999 BKN006/// OVC009/// 11/11 Q1018=
202110042350 METAR ESMX 042350Z AUTO 19006KT 9999 BKN008/// OVC010/// 11/11 Q1018=
202110042320 METAR ESMX 042320Z AUTO 19006KT 9999 BKN006/// OVC008/// 11/11 Q1017=
202110042250 METAR ESMX 042250Z AUTO 19008KT 9999 OVC006/// 11/11 Q1017=
202110042220 METAR ESMX 042220Z AUTO 18006KT 9999 SCT008/// BKN010/// OVC012/// 11/11 Q1017=
202110042150 METAR ESMX 042150Z AUTO 17004KT 9999 OVC013/// 11/11 Q1017=
202110042120 METAR ESMX 042120Z AUTO 17005KT 9999 OVC015/// 11/11 Q1017=
202110042050 METAR ESMX 042050Z AUTO 18006KT 9999 SCT015/// 11/11 Q1017=
202110042020 METAR ESMX 042020Z AUTO 16005KT 9999 FEW015/// 11/11 Q1017=
202110041950 METAR ESMX 041950Z AUTO 16004KT 9999 SCT013/// 11/11 Q1017=
202110041920 METAR ESMX 041920Z AUTO 16005KT 9999 NCD 12/12 Q1017=
202110041850 METAR ESMX 041850Z AUTO 16005KT 9999 NCD 12/12 Q1017=
202110041820 METAR ESMX 041820Z AUTO 16005KT 9999 FEW014/// SCT020/// 13/12 Q1017=
202110041750 METAR ESMX 041750Z AUTO 16005KT 9999 SCT190/// 13/12 Q1016=
202110041720 METAR ESMX 041720Z 16004KT 9999 FEW020 13/12 Q1016=
202110041650 METAR ESMX 041650Z 16005KT 9999 FEW020 13/12 Q1016=
202110041620 METAR ESMX 041620Z 15005KT CAVOK 14/12 Q1016=
202110041550 METAR ESMX 041550Z 16005KT 9999 FEW025 14/11 Q1016=
202110041520 METAR ESMX 041520Z 15005KT 120V190 9999 FEW025 14/11 Q1016=
202110041450 METAR ESMX 041450Z 16004KT 9999 FEW025 14/11 Q1016=
202110041420 METAR ESMX 041420Z 18006KT 9999 FEW030 14/11 Q1016=
202110041350 METAR ESMX 041350Z 17006KT 9999 FEW025 15/10 Q1015=
202110041320 METAR ESMX 041320Z 19008KT 9999 SCT025 15/11 Q1015=
202110041250 METAR ESMX 041250Z 19009KT 9999 SCT020 15/11 Q1015=
202110041220 METAR ESMX 041220Z 19006KT 9999 SCT020 15/11 Q1015=
202110041150 METAR ESMX 041150Z 17006KT 9999 BKN020 15/12 Q1015=
202110041120 METAR ESMX 041120Z 20007KT 9999 BKN017 15/11 Q1015=
202110041050 METAR ESMX 041050Z 18005KT 150V210 9999 BKN015 14/11 Q1015=
202110041020 METAR COR ESMX 041020Z 22006KT 9999 BKN012 14/11 Q1015=
202110040950 METAR ESMX 040950Z 23005KT 9999 BKN007 14/13 Q1015=
202110040920 METAR ESMX 040920Z 24006KT 9999 BKN006 13/12 Q1015=
202110040850 METAR ESMX 040850Z 22006KT 9999 BKN005 13/12 Q1014=
202110040820 METAR ESMX 040820Z 23006KT 9999 SCT005 12/12 Q1014=
202110040750 METAR ESMX 040750Z 22004KT CAVOK 12/12 Q1014=
202110040720 METAR COR ESMX 040720Z 22005KT CAVOK 12/12 Q1014=
202110040650 METAR ESMX 040650Z AUTO 23004KT 9999 NCD 12/12 Q1013=
202110040620 METAR ESMX 040620Z AUTO 23004KT 9999 NCD 11/11 Q1013=
202110040550 METAR ESMX 040550Z AUTO 22003KT 9999 NCD 11/11 Q1012=
202110040520 METAR ESMX 040520Z AUTO 22004KT 9999 FEW032/// 11/11 Q1012=
202110040450 METAR ESMX 040450Z AUTO 27003KT 9999 FEW026/// SCT036/// 12/12 Q1011=
202110040420 METAR ESMX 040420Z AUTO 24004KT 9999 BKN022/// 12/12 Q1011=
202110040350 METAR ESMX 040350Z AUTO 25005KT 9999 FEW008/// OVC016/// 13/13 Q1011 REDZ=
202110040320 METAR ESMX 040320Z AUTO 21008KT 160V250 6000 DZ SCT006/// BKN009/// BKN016/// 14/13 Q1010 REDZ=
202110040250 METAR ESMX 040250Z AUTO 18007KT 7000 BR BKN006/// OVC009/// 14/14 Q1010=
202110040220 METAR ESMX 040220Z AUTO 17006KT 7000 BR SCT006/// BKN014/// OVC049/// 14/14 Q1009=
202110040150 METAR ESMX 040150Z AUTO 17006KT 7000 BR FEW007/// BKN047/// 14/14 Q1009=
202110040120 METAR ESMX 040120Z AUTO 18008KT 8000 -DZ BKN008/// OVC012/// 14/14 Q1009=
202110040050 METAR ESMX 040050Z AUTO 17009KT 7000 -RA SCT007/// OVC044/// 14/14 Q1009=
202110040020 METAR ESMX 040020Z AUTO 17008KT 8000 -RA ///043 14/14 Q1008=
202110032350 METAR ESMX 032350Z AUTO 16009KT 130V190 9000 -RA SCT035/// OVC053/// 14/14 Q1008=
202110032320 METAR ESMX 032320Z AUTO 16010KT 9000 -RA OVC053/// 14/13 Q1008=
202110032250 METAR ESMX 032250Z AUTO 16010KT 9999 -RA FEW039/// OVC055/// 14/13 Q1008=
202110032220 METAR ESMX 032220Z AUTO 15009KT 110V190 9999 DZ BKN051/// OVC066/// 14/13 Q1007=
202110032150 METAR ESMX 032150Z AUTO 15008KT 110V180 9999 -DZ FEW036/// OVC048/// 14/13 Q1007=
202110032120 METAR ESMX 032120Z AUTO 16010KT 9999 -RA BKN039/// OVC051/// 14/13 Q1008 REDZ=
202110032050 METAR ESMX 032050Z AUTO 15009KT 120V180 9999 DZ FEW047/// OVC086/// 14/13 Q1007 REDZ=
202110032020 METAR ESMX 032020Z AUTO 15010KT 110V180 9999 DZ BKN072/// OVC094/// 14/13 Q1007=
202110031950 METAR ESMX 031950Z AUTO 15011KT 110V170 9999 DZ OVC066/// 14/12 Q1007=
202110031920 METAR ESMX 031920Z AUTO 15011KT 9999 DZ OVC086/// 15/12 Q1007=
202110031850 METAR ESMX 031850Z AUTO 15011KT 9999 -DZ SCT088/// BKN100/// 15/12 Q1007 REDZ=
202110031820 METAR ESMX 031820Z AUTO 15010KT 120V180 9999 -DZ BKN090/// 15/12 Q1006=
202110031750 METAR ESMX 031750Z AUTO 15011KT 9999 DZ BKN064/// OVC088/// 15/11 Q1006=
202110031720 METAR ESMX 031720Z 15010KT CAVOK 15/11 Q1006=
202110031650 METAR ESMX 031650Z 15011KT 110V180 CAVOK 15/11 Q1006=
202110031620 METAR ESMX 031620Z 16011KT 120V190 CAVOK 15/11 Q1005=
202110031550 METAR ESMX 031550Z 15011KT 110V170 CAVOK 15/11 Q1005=
202110031520 METAR ESMX 031520Z AUTO 14011KT 9999 OVC080/// 15/11 Q1005=
202110031450 METAR ESMX 031450Z 14013KT 110V170 CAVOK 15/11 Q1005=
202110031420 METAR ESMX 031420Z 14011G22KT 110V190 CAVOK 15/11 Q1005=
202110031350 METAR ESMX 031350Z 14014KT CAVOK 15/11 Q1005=
202110031320 METAR ESMX 031320Z 16011KT 110V190 9999 FEW037 SCT047 BKN066 15/11 Q1005=
202110031250 METAR ESMX 031250Z 15011KT 110V190 9999 SCT037 BKN043 OVC066 15/11 Q1005=
202110031220 METAR ESMX 031220Z 16012KT CAVOK 15/11 Q1005=
202110031150 METAR ESMX 031150Z 15013KT 110V180 CAVOK 15/11 Q1005=
202110031120 METAR ESMX 031120Z 16012KT CAVOK 15/11 Q1006=
202110031050 METAR ESMX 031050Z 14013G23KT 100V180 CAVOK 15/11 Q1005=
202110031020 METAR ESMX 031020Z 14013KT 110V170 CAVOK 15/11 Q1005=
202110030950 METAR ESMX 030950Z 15012KT 110V180 CAVOK 15/11 Q1005=
202110030920 METAR ESMX 030920Z 16013KT CAVOK 15/11 Q1005=
202110030850 METAR ESMX 030850Z 15014KT 110V190 9999 FEW045 14/11 Q1005=
202110030820 METAR ESMX 030820Z 15013G23KT CAVOK 14/11 Q1005=
202110030750 METAR ESMX 030750Z 14011KT 110V170 CAVOK 14/11 Q1005=
202110030720 METAR ESMX 030720Z 14010KT 100V170 9999 FEW013 14/12 Q1005=
202110030650 METAR ESMX 030650Z 13009KT 060V170 9999 SCT013 14/12 Q1005=
202110030620 METAR ESMX 030620Z 14010KT 100V170 9999 -DZ BKN012 13/12 Q1006=
202110030550 METAR ESMX 030550Z AUTO 15010KT 9999 -RA BKN012/// OVC074/// 13/12 Q1005=
202110030520 METAR ESMX 030520Z AUTO 14009KT 090V190 9999 FEW013/// SCT078/// BKN120/// 13/12 Q1006=
202110030450 METAR ESMX 030450Z AUTO 13009KT 090V190 9999 BKN068/// OVC080/// 13/12 Q1005=
202110030420 METAR ESMX 030420Z AUTO 14009G19KT 110V170 9999 BKN066/// OVC080/// 13/11 Q1006=
202110030350 METAR ESMX 030350Z AUTO 14008KT 080V170 9999 SCT090/// OVC110/// 13/11 Q1006=
202110030320 METAR ESMX 030320Z AUTO 13007KT 080V170 9999 OVC120/// 12/11 Q1006=
202110030250 METAR ESMX 030250Z AUTO 13008KT 080V160 9999 BKN098/// OVC130/// 12/11 Q1007=
202110030220 METAR ESMX 030220Z AUTO 12007KT 080V170 9999 OVC100/// 12/11 Q1007=
202110030150 METAR ESMX 030150Z AUTO 13007KT 090V170 9999 BKN100/// OVC150/// 13/11 Q1008=
202110030120 METAR ESMX 030120Z AUTO 13005KT 080V170 9999 FEW100/// BKN160/// 12/11 Q1008=
202110030050 METAR ESMX 030050Z AUTO 12006KT 070V150 9999 FEW037/// BKN051/// OVC180/// 12/11 Q1009=
202110030020 METAR ESMX 030020Z AUTO 11006KT 070V220 9000 BR BKN007/// OVC048/// 12/11 Q1009=
202110022350 METAR ESMX 022350Z AUTO 13005KT 080V150 8000 BR OVC006/// 11/11 Q1010=
202110022320 METAR ESMX 022320Z AUTO 13005KT 9000 BR OVC007/// 11/11 Q1010=
202110022250 METAR ESMX 022250Z AUTO 14007KT 9000 BR OVC006/// 12/11 Q1010=
202110022220 METAR ESMX 022220Z AUTO 14005KT 9999 OVC007/// 11/11 Q1010=
202110022150 METAR ESMX 022150Z AUTO 13004KT 9999 OVC008/// 11/11 Q1011=
202110022120 METAR ESMX 022120Z AUTO 15006KT 9999 BKN008/// OVC037/// 11/11 Q1011=
202110022050 METAR ESMX 022050Z AUTO 14006KT 9999 FEW010/// OVC042/// 11/10 Q1011=
202110022020 METAR ESMX 022020Z AUTO 13006KT 100V180 9999 BKN009/// OVC048/// 11/10 Q1012=
202110021950 METAR ESMX 021950Z AUTO 14008KT 100V180 9999 OVC008/// 11/10 Q1012=
202110021920 METAR ESMX 021920Z AUTO 14008KT 100V170 9999 OVC008/// 11/10 Q1012=
202110021850 METAR ESMX 021850Z AUTO 14007KT 100V160 9999 OVC009/// 11/10 Q1012=
202110021820 METAR ESMX 021820Z 14007KT 090V180 9999 BKN010 11/10 Q1012=
202110021750 METAR ESMX 021750Z 14007KT 9999 BKN010 12/10 Q1012=
202110021720 METAR ESMX 021720Z 14008KT 100V170 9999 BKN010 12/10 Q1012=
202110021650 METAR ESMX 021650Z 15006KT 9999 BKN011 12/10 Q1012=
202110021620 METAR ESMX 021620Z 13006KT 080V150 9999 SCT012 12/10 Q1011=
202110021550 METAR ESMX 021550Z 13006KT 090V170 9999 SCT013 12/10 Q1012=
202110021520 METAR ESMX 021520Z AUTO 14007KT 100V190 9999 BKN013/// OVC076/// 12/10 Q1012=
202110021450 METAR ESMX 021450Z AUTO 13007KT 100V190 9999 SCT013/// OVC076/// 13/10 Q1012=
202110021420 METAR ESMX 021420Z AUTO 16007KT 110V170 9999 BKN014/// BKN023/// OVC080/// 13/10 Q1012=
202110021350 METAR ESMX 021350Z AUTO 14007KT 110V170 9999 BKN014/// OVC080/// 13/10 Q1012=
202110021320 METAR ESMX 021320Z AUTO 15006KT 9999 SCT015/// BKN025/// OVC082/// 13/10 Q1012=
202110021250 METAR ESMX 021250Z AUTO 16008KT 9999 BKN017/// OVC022/// 13/10 Q1012=
202110021220 METAR ESMX 021220Z AUTO 15008KT 9999 OVC016/// 13/10 Q1012=
202110021150 METAR ESMX 021150Z AUTO 14010KT 110V180 9999 BKN014/// OVC017/// 13/10 Q1012=
202110021120 METAR ESMX 021120Z AUTO 15007KT 100V180 9999 BKN015/// OVC098/// 13/10 Q1012=
202110021050 METAR ESMX 021050Z AUTO 13008KT 090V170 9999 OVC014/// 13/10 Q1012=
202110021020 METAR ESMX 021020Z AUTO 14008KT 080V170 9999 OVC015/// 13/10 Q1013=
202110020950 METAR ESMX 020950Z AUTO 13008KT 090V180 9999 OVC014/// 13/10 Q1013=
202110020920 METAR ESMX 020920Z AUTO 15009KT 100V190 9999 OVC013/// 13/10 Q1013=
202110020850 METAR ESMX 020850Z AUTO 14008KT 9999 BKN012/// OVC015/// 12/10 Q1013=
202110020820 METAR ESMX 020820Z AUTO 15007KT 9999 OVC011/// 12/10 Q1013=
202110020750 METAR ESMX 020750Z AUTO 13007KT 090V180 9999 OVC010/// 12/10 Q1013=
202110020720 METAR ESMX 020720Z AUTO 15007KT 9999 OVC009/// 12/10 Q1013=
202110020650 METAR ESMX 020650Z AUTO 15007KT 110V200 9999 OVC008/// 11/10 Q1013=
202110020620 METAR ESMX 020620Z AUTO 14008KT 9999 OVC008/// 11/10 Q1013=
202110020550 METAR ESMX 020550Z AUTO 14008KT 110V170 9999 BKN009/// OVC098/// 11/10 Q1013=
202110020520 METAR ESMX 020520Z AUTO 14007KT 110V190 9999 FEW011/// OVC098/// 11/09 Q1013=
202110020450 METAR ESMX 020450Z AUTO 14008KT 9999 FEW098/// BKN120/// 11/09 Q1014=
202110020420 METAR ESMX 020420Z AUTO 14007KT 110V170 9999 OVC150/// 11/09 Q1014=
202110020350 METAR ESMX 020350Z AUTO 14008KT 100V170 9999 FEW100/// BKN130/// OVC160/// 11/09 Q1014=
202110020320 METAR ESMX 020320Z AUTO 15008KT 110V170 9999 FEW100/// BKN130/// BKN150/// 11/09 Q1014=
202110020250 METAR ESMX 020250Z AUTO 15008KT 9999 BKN130/// 11/09 Q1014=
202110020220 METAR ESMX 020220Z AUTO 14007KT 110V170 9999 FEW120/// 11/09 Q1014=
202110020150 METAR ESMX 020150Z AUTO 15008KT 9999 BKN100/// 11/09 Q1014=
202110020120 METAR ESMX 020120Z AUTO 15007KT 9999 SCT110/// BKN150/// 11/09 Q1015=
202110020050 METAR ESMX 020050Z AUTO 15007KT 9999 FEW094/// 11/09 Q1015=
202110020020 METAR ESMX 020020Z AUTO 15007KT 9999 OVC092/// 12/09 Q1015=
202110012350 METAR ESMX 012350Z AUTO 16008KT 120V190 9999 BKN096/// OVC120/// 12/09 Q1015=
202110012320 METAR ESMX 012320Z AUTO 14008KT 100V170 9999 -RA OVC098/// 12/09 Q1015=
202110012250 METAR ESMX 012250Z AUTO 15007KT 9999 FEW098/// BKN110/// 12/09 Q1016=
202110012220 METAR ESMX 012220Z AUTO 14008KT 110V190 9999 FEW110/// 12/09 Q1016=
202110012150 METAR ESMX 012150Z AUTO 16008KT 9999 BKN100/// 12/09 Q1016=
202110012120 METAR ESMX 012120Z AUTO 14007KT 100V170 9999 SCT084/// 12/09 Q1016=
202110012050 METAR ESMX 012050Z AUTO 15007KT 100V180 9999 BKN088/// 12/09 Q1017=
202110012020 METAR ESMX 012020Z AUTO 15008KT 9999 OVC092/// 12/09 Q1017=
202110011950 METAR ESMX 011950Z AUTO 15007KT 9999 BKN092/// 12/09 Q1017=
202110011920 METAR ESMX 011920Z AUTO 14008KT 110V170 9999 FEW098/// 11/09 Q1017=
202110011850 METAR ESMX 011850Z AUTO 16007KT 9999 NCD 11/09 Q1017=
202110011820 METAR ESMX 011820Z AUTO 16007KT 9999 NCD 12/09 Q1017=
202110011750 METAR ESMX 011750Z AUTO 15007KT 100V170 9999 FEW098/// 12/09 Q1017=
202110011720 METAR ESMX 011720Z AUTO 16008KT 9999 FEW100/// 12/09 Q1017=
202110011650 METAR ESMX 011650Z AUTO 16009KT 9999 SCT098/// OVC160/// 12/09 Q1017=
202110011620 METAR ESMX 011620Z AUTO 17011KT 9999 BKN098/// 13/08 Q1017=
202110011550 METAR ESMX 011550Z AUTO 16009KT 9999 SCT068/// BKN088/// 13/08 Q1017=
202110011520 METAR ESMX 011520Z AUTO 17012G23KT 9999 OVC066/// 13/08 Q1017=
202110011450 METAR ESMX 011450Z AUTO 17012G23KT 110V190 9999 FEW024/// BKN066/// OVC074/// 13/09 Q1017=
202110011420 METAR ESMX 011420Z AUTO 16011KT 9999 OVC066/// 14/09 Q1017=
202110011350 METAR ESMX 011350Z 17014KT 140V200 9999 FEW032 14/08 Q1017=
202110011320 METAR ESMX 011320Z 18014KT 140V200 9999 FEW032 14/08 Q1017=
202110011250 METAR ESMX 011250Z 18013KT 9999 BKN049 14/08 Q1017=
202110011220 METAR ESMX 011220Z 17013KT 9999 BKN046 14/09 Q1017=
