##########################################################
# Query made at 04/19/2024 22:18:08 UTC
# Time interval: from 01/01/2021 12:00  to 01/31/2021 12:59  UTC
##########################################################

##########################################################
# ESMX, Vaxjo (Sweden)
# WMO index: 02641. WIGOS ID: 0-20000-0-02648
# Latitude 56-51N. Longitude 014-50E. Altitude 199 m.
##########################################################

202101311250 METAR ESMX 311250Z AUTO 23002KT 9999 FEW003/// SCT017/// M03/M04 Q0997 RESG=
202101311220 METAR ESMX 311220Z AUTO 00000KT 6000 SG SCT003/// M02/M02 Q0997 RESG REFZUP RESHUP=
202101311150 METAR ESMX 311150Z AUTO VRB01KT 9999 OVC002/// M05/M05 Q0997=
202101311120 METAR ESMX 311120Z AUTO VRB01KT 1300 R01/1000U R19/1900N FZFG OVC001/// M05/M05 Q0997=
202101311050 METAR ESMX 311050Z AUTO 01002KT 0400 R01/0750N R19/0600N FZFG BKN001/// OVC002/// M05/M06 Q0997=
202101311020 METAR ESMX 311020Z AUTO 00000KT 0350 R01/0900N R19/0550N FZFG BKN001/// OVC002/// M06/M06 Q0997=
202101310950 METAR ESMX 310950Z AUTO 01002KT 0200 R01/0375N R19/0550N FZFG BKN001/// OVC002/// M06/M07 Q0997=
202101310920 METAR ESMX 310920Z AUTO 00000KT 0150 R01/0325N R19/0450N FZFG BKN001/// OVC002/// M07/M07 Q0997=
202101310850 METAR ESMX 310850Z AUTO 00000KT 0150 R01/0375N R19/0350N FZFG VV002 M07/M07 Q0997=
202101310820 METAR ESMX 310820Z AUTO 00000KT 0150 R01/0325N R19/0325N FZFG VV002 M07/M08 Q0997=
202101310750 METAR ESMX 310750Z AUTO 18001KT 0150 R01/0450N R19/0350N FZFG OVC001/// M08/M08 Q0997=
202101310720 METAR ESMX 310720Z AUTO 22003KT 0250 R01/0650N R19/0600N FZFG OVC001/// M08/M08 Q0997=
202101310650 METAR ESMX 310650Z AUTO 22003KT 0150 R01/0450N R19/0500N FZFG OVC001/// M08/M08 Q0997=
202101310620 METAR ESMX 310620Z AUTO 22002KT 0050 R01/0375N R19/0300N FZFG VV001 M08/M08 Q0997=
202101310550 METAR ESMX 310550Z AUTO 22002KT 0100 R01/0325N R19/0350N FZFG VV001 M09/M09 Q0997=
202101310520 METAR ESMX 310520Z AUTO 17003KT 0300 R01/P2000N R19/0900U BCFG BKN001/// M09/M10 Q0997=
202101310450 METAR ESMX 310450Z AUTO 23002KT 0400 R01/P2000N R19/1200D BCFG SCT000/// OVC001/// M11/M12 Q0997=
202101310420 METAR ESMX 310420Z AUTO 23003KT 0100 R01/0500N R19/0400N FZFG FEW000/// SCT001/// M10/M11 Q0997=
202101310350 METAR ESMX 310350Z AUTO 23002KT 0250 R01/0750N R19/P2000N FZFG FEW000/// M11/M12 Q0998=
202101310320 METAR ESMX 310320Z AUTO 23002KT 4900 NCD M10/M11 Q0998=
202101310250 METAR ESMX 310250Z AUTO 19001KT 1300 R01/P2000N R19/P2000N BCFG NCD M09/M09 Q0998 REDZ=
202101310220 METAR ESMX 310220Z AUTO 18003KT 1400 R01/P2000N R19/P2000N BR BKN003/// M09/M10 Q0998=
202101310150 METAR ESMX 310150Z AUTO 25003KT 2200 SG OVC001/// M09/M10 Q0998=
202101310120 METAR ESMX 310120Z AUTO 26004KT 8000 BKN001/// M09/M10 Q0998 RESN=
202101310050 METAR ESMX 310050Z AUTO 24005KT 9999 -SN NCD M09/M10 Q0998 RESG=
202101310020 METAR ESMX 310020Z AUTO 25004KT 6000 NCD M07/M08 Q0998=
202101302350 METAR ESMX 302350Z AUTO 25003KT 2000 NCD M07/M08 Q0998 RESN=
202101302320 METAR ESMX 302320Z AUTO 26005KT 9999 NCD M06/M07 Q0998=
202101302250 METAR ESMX 302250Z AUTO 27005KT 9999 NCD M06/M07 Q0998 RESN=
202101302220 METAR ESMX 302220Z AUTO 28004KT 9999 FEW004/// M06/M06 Q0998=
202101302150 METAR ESMX 302150Z AUTO 27004KT 9999 OVC004/// M05/M06 Q0998=
202101302120 METAR ESMX 302120Z AUTO 28006KT 9999 OVC005/// M04/M04 Q0998=
202101302050 METAR ESMX 302050Z AUTO 26006KT 220V290 9999 OVC005/// M04/M04 Q0998=
202101302020 METAR ESMX 302020Z AUTO 28005KT 230V320 9999 OVC006/// M03/M04 Q0998=
202101301950 METAR ESMX 301950Z AUTO 27003KT 220V350 9999 BKN009/// OVC010/// M03/M04 Q0998=
202101301920 METAR ESMX 301920Z AUTO VRB03KT 9999 OVC009/// M04/M04 Q0998=
202101301850 METAR ESMX 301850Z AUTO 28005KT 240V320 9999 OVC009/// M04/M05 Q0998=
202101301820 METAR ESMX 301820Z AUTO 26003KT 230V290 9999 OVC009/// M04/M05 Q0998=
202101301750 METAR ESMX 301750Z AUTO 27004KT 230V300 9999 OVC010/// M04/M05 Q0998=
202101301720 METAR ESMX 301720Z AUTO 28006KT 240V310 9999 OVC010/// M04/M05 Q0998=
202101301650 METAR ESMX 301650Z AUTO 27007KT 230V300 9999 OVC011/// M04/M05 Q0998=
202101301620 METAR ESMX 301620Z AUTO VRB02KT 9000 BR BKN008/// OVC016/// M06/M06 Q0998=
202101301550 METAR ESMX 301550Z AUTO 26002KT 9999 BKN016/// M07/M07 Q0998=
202101301520 METAR ESMX 301520Z AUTO VRB02KT 9999 BKN018/// M06/M07 Q0998=
202101301450 METAR ESMX 301450Z AUTO VRB03KT 9999 FEW009/// SCT019/// M06/M07 Q0998=
202101301420 METAR ESMX 301420Z AUTO 25005KT 9999 BKN019/// M05/M07 Q0998=
202101301350 METAR ESMX 301350Z AUTO 26005KT 9999 BKN017/// M06/M07 Q0999=
202101301320 METAR ESMX 301320Z AUTO 26005KT 230V290 9999 OVC018/// M06/M07 Q0999=
202101301250 METAR ESMX 301250Z AUTO 27006KT 9999 OVC019/// M06/M07 Q0999=
202101301220 METAR ESMX 301220Z AUTO 29006KT 9999 OVC019/// M07/M07 Q0999=
202101301150 METAR ESMX 301150Z AUTO 29005KT 9999 BKN020/// M07/M08 Q0999=
202101301120 METAR ESMX 301120Z AUTO 30007KT 9999 FEW007/// BKN009/// M08/M09 Q1000=
202101301050 METAR ESMX 301050Z AUTO 30005KT 9999 FEW005/// SCT007/// BKN009/// M08/M09 Q1000=
202101301020 METAR ESMX 301020Z AUTO 30007KT 9999 OVC005/// M09/M09 Q1000=
202101300950 METAR ESMX 300950Z AUTO 29005KT 9999 FEW006/// M09/M10 Q1000=
202101300920 METAR ESMX 300920Z AUTO 28003KT 9999 NCD M10/M11 Q1000=
202101300850 METAR ESMX 300850Z AUTO 28005KT 9999 NCD M10/M11 Q1000=
202101300820 METAR ESMX 300820Z AUTO 28004KT 9999 NCD M11/M12 Q1000=
202101300750 METAR ESMX 300750Z AUTO VRB01KT 9999 NCD M12/M13 Q1000=
202101300720 METAR ESMX 300720Z AUTO VRB02KT 9999 -SN FEW090/// M12/M13 Q1000=
202101300650 METAR ESMX 300650Z AUTO 23002KT 9999 NCD M12/M13 Q0999=
202101300620 METAR ESMX 300620Z AUTO 27002KT 9999 NCD M13/M14 Q0999=
202101300550 METAR ESMX 300550Z AUTO 23002KT 9999 NCD M12/M13 Q0999=
202101300520 METAR ESMX 300520Z AUTO 28002KT 9999 NCD M12/M13 Q0999=
202101300450 METAR ESMX 300450Z AUTO VRB02KT 9999 NCD M10/M11 Q0999=
202101300420 METAR ESMX 300420Z AUTO 33003KT 9999 NCD M10/M11 Q0999=
202101300350 METAR ESMX 300350Z AUTO 31005KT 9999 NCD M10/M11 Q1000=
202101300320 METAR ESMX 300320Z AUTO 32005KT 9999 NCD M10/M11 Q1000=
202101300250 METAR ESMX 300250Z AUTO 31005KT 9999 NCD M10/M11 Q1000=
202101300220 METAR ESMX 300220Z AUTO 31003KT 9999 NCD M09/M10 Q1000=
202101300150 METAR ESMX 300150Z AUTO 31005KT 9999 FEW006/// M09/M10 Q1000=
202101300120 METAR ESMX 300120Z AUTO 31005KT 9999 NCD M09/M09 Q1000=
202101300050 METAR ESMX 300050Z AUTO 32005KT 9999 BKN006/// M08/M08 Q1000=
202101300020 METAR ESMX 300020Z AUTO 32005KT 9999 OVC006/// M07/M08 Q1000=
202101292350 METAR ESMX 292350Z AUTO 31004KT 9999 OVC007/// M07/M08 Q1000=
202101292320 METAR ESMX 292320Z AUTO 36008KT 9999 OVC008/// M06/M07 Q1000=
202101292250 METAR ESMX 292250Z AUTO 35007KT 9999 OVC008/// M06/M07 Q1000=
202101292220 METAR ESMX 292220Z AUTO 35008KT 9999 OVC007/// M06/M07 Q1000=
202101292150 METAR ESMX 292150Z AUTO 35009KT 9999 OVC005/// M06/M07 Q1000=
202101292120 METAR ESMX 292120Z AUTO 36009KT 9999 OVC005/// M07/M07 Q1000=
202101292050 METAR ESMX 292050Z AUTO 35010KT 9999 OVC005/// M07/M07 Q1000=
202101292020 METAR ESMX 292020Z AUTO 35010KT 9999 BKN005/// OVC007/// M07/M07 Q1000=
202101291950 METAR ESMX 291950Z AUTO 34009KT 9999 NCD M06/M07 Q1000=
202101291920 METAR ESMX 291920Z AUTO 34008KT 9999 NCD M06/M07 Q1000=
202101291850 METAR ESMX 291850Z AUTO 35007KT 9999 NCD M06/M07 Q1000=
202101291820 METAR ESMX 291820Z AUTO 02006KT 9999 FEW049/// M05/M06 Q1000=
202101291750 METAR ESMX 291750Z AUTO 02006KT 9999 BKN053/// OVC100/// M05/M06 Q1000=
202101291720 METAR ESMX 291720Z AUTO 02006KT 9999 OVC055/// M04/M05 Q1000=
202101291650 METAR ESMX 291650Z AUTO 02006KT 9999 FEW012/// OVC049/// M03/M05 Q1000=
202101291620 METAR ESMX 291620Z AUTO 02007KT 9999 BKN013/// OVC048/// M03/M04 Q0999=
202101291550 METAR ESMX 291550Z AUTO 04008KT 9999 OVC010/// M03/M04 Q0999=
202101291520 METAR ESMX 291520Z AUTO 03007KT 9999 OVC010/// M02/M04 Q0999=
202101291450 METAR ESMX 291450Z AUTO 01008KT 9999 OVC011/// M02/M04 Q0999=
202101291420 METAR ESMX 291420Z 06005KT 030V100 9999 BKN011 M02/M03 Q0999=
202101291350 METAR ESMX 291350Z 04007KT 9999 BKN010 M01/M03 Q0999=
202101291320 METAR ESMX 291320Z 03008KT 9999 BKN009 M01/M03 Q0999=
202101291250 METAR ESMX 291250Z 03007KT 360V070 9999 -SN BKN009 M01/M03 Q0999=
202101291220 METAR ESMX 291220Z 04006KT 9000 -SN BKN008 M01/M03 Q0999=
202101291150 METAR ESMX 291150Z 03007KT 9000 -SN BKN008 M01/M03 Q0999=
202101291120 METAR ESMX 291120Z 03007KT 9999 BKN008 M02/M03 Q0999=
202101291050 METAR ESMX 291050Z 02005KT 9999 BKN009 M02/M03 Q0999=
202101291020 METAR ESMX 291020Z 01005KT 9999 SCT011 BKN014 M02/M04 Q0999=
202101290950 METAR ESMX 290950Z 02007KT 9999 BKN015 M03/M04 Q0998=
202101290920 METAR ESMX 290920Z 01007KT 9999 FEW008 BKN014 M03/M04 Q0998=
202101290850 METAR ESMX 290850Z 36008KT 9000 -SN BKN011 M03/M04 Q0998=
202101290820 METAR ESMX 290820Z 34006KT 9999 -SN BKN011 M03/M04 Q0998=
202101290750 METAR ESMX 290750Z 33005KT 9999 BKN011 M04/M05 Q0998=
202101290720 METAR ESMX 290720Z 32005KT 9999 BKN012 M04/M05 Q0998=
202101290650 METAR ESMX 290650Z AUTO 33005KT 9999 FEW009/// OVC013/// M05/M05 Q0999=
202101290620 METAR ESMX 290620Z AUTO 27006KT 9999 BKN014/// M05/M06 Q0999=
202101290550 METAR ESMX 290550Z AUTO 36007KT 9999 NCD M05/M06 Q0998=
202101290520 METAR ESMX 290520Z AUTO 34008KT 9999 FEW010/// SCT062/// M05/M06 Q0998=
202101290450 METAR ESMX 290450Z AUTO 36009KT 9999 OVC011/// M04/M05 Q0998=
202101290420 METAR ESMX 290420Z AUTO 35010KT 9999 FEW012/// BKN048/// OVC062/// M03/M05 Q0999=
202101290350 METAR ESMX 290350Z AUTO 35010KT 9999 FEW024/// SCT074/// M03/M05 Q0999 RESHUP RESN=
202101290320 METAR ESMX 290320Z AUTO 34008KT 9999 BKN013/// BKN028/// OVC043/// M03/M05 Q0999=
202101290250 METAR ESMX 290250Z AUTO 33008KT 9999 OVC011/// M03/M04 Q0999=
202101290220 METAR ESMX 290220Z AUTO 33009KT 9999 -SN OVC011/// M03/M04 Q0999 RESHUP RESN=
202101290150 METAR ESMX 290150Z AUTO 33010KT 9999 OVC011/// M03/M04 Q0999 REFZUP=
202101290120 METAR ESMX 290120Z AUTO 33011KT 9999 -SN OVC012/// M03/M04 Q0999 REFZUP=
202101290050 METAR ESMX 290050Z AUTO 34010KT 9999 OVC012/// M03/M04 Q0999=
202101290020 METAR ESMX 290020Z AUTO 34009KT 9999 OVC012/// M03/M04 Q0999=
202101282350 METAR ESMX 282350Z AUTO 33012KT 9999 OVC012/// M03/M04 Q0999=
202101282320 METAR ESMX 282320Z AUTO 34012KT 9999 OVC012/// M03/M04 Q0999=
202101282250 METAR ESMX 282250Z AUTO 33012KT 9999 OVC011/// M03/M04 Q0999=
202101282220 METAR ESMX 282220Z AUTO 34012KT 9999 OVC011/// M03/M04 Q0998=
202101282150 METAR ESMX 282150Z AUTO 34012KT 9999 OVC012/// M03/M04 Q0998=
202101282120 METAR ESMX 282120Z AUTO 33012KT 9999 OVC012/// M03/M04 Q0998=
202101282050 METAR ESMX 282050Z AUTO 33011KT 9999 OVC013/// M03/M05 Q0998=
202101282020 METAR ESMX 282020Z AUTO 34011KT 9999 BKN013/// OVC016/// M03/M05 Q0998=
202101281950 METAR ESMX 281950Z AUTO 33013KT 9999 BKN014/// OVC027/// M03/M05 Q0998 RESHUP REFZUP=
202101281920 METAR ESMX 281920Z AUTO 34013KT 9999 BKN014/// OVC030/// M03/M04 Q0998=
202101281850 METAR ESMX 281850Z AUTO 32011KT 9999 OVC015/// M03/M04 Q0998=
202101281820 METAR ESMX 281820Z AUTO 33013KT 9999 OVC015/// M03/M05 Q0998=
202101281750 METAR ESMX 281750Z AUTO 33014KT 9999 OVC014/// M03/M04 Q0998=
202101281720 METAR ESMX 281720Z AUTO 34013KT 9999 OVC012/// M03/M04 Q0998=
202101281650 METAR ESMX 281650Z AUTO 33012KT 9999 -SN OVC012/// M03/M04 Q0998=
202101281620 METAR ESMX 281620Z AUTO 33010KT 6000 -SN FEW009/// SCT012/// BKN016/// M03/M04 Q0998=
202101281550 METAR ESMX 281550Z AUTO 32011KT 4600 -SN FEW010/// OVC022/// M03/M04 Q0998=
202101281520 METAR ESMX 281520Z AUTO 32010KT 6000 -SN FEW010/// SCT035/// OVC053/// M03/M05 Q0998=
202101281450 METAR ESMX 281450Z AUTO 34012KT 9000 -SN FEW011/// SCT036/// OVC051/// M04/M05 Q0997=
202101281420 METAR ESMX 281420Z 33011KT 3000 -SN VV015 M04/M05 Q0997=
202101281350 METAR ESMX 281350Z 32012KT 2500 -SN VV015 M04/M05 Q0997=
202101281320 METAR ESMX 281320Z 33011KT 4000 -SN VV020 M04/M05 Q0997=
202101281250 METAR ESMX 281250Z 33011KT 5000 -SN FEW011 BKN015 M04/M05 Q0997=
202101281220 METAR ESMX 281220Z 32011KT 8000 -SN BKN013 M03/M05 Q0998=
202101281150 METAR ESMX 281150Z 33012KT 290V350 9999 -SN BKN012 M03/M05 Q0998=
202101281120 METAR ESMX 281120Z 33011KT 9000 -SN BKN012 M04/M05 Q0998=
202101281050 METAR ESMX 281050Z 33012KT 9000 -SN BKN013 M04/M05 Q0998=
202101281020 METAR ESMX 281020Z 35012KT 9000 -SN SCT011 BKN013 M04/M05 Q0998=
202101280950 METAR ESMX 280950Z 34011KT 7000 -SN BKN012 M04/M05 Q0998=
202101280920 METAR ESMX 280920Z 34011KT 6000 -SN BKN012 M04/M05 Q0998=
202101280850 METAR ESMX 280850Z 34010KT 6000 -SN BKN011 M04/M05 Q0998=
202101280820 METAR ESMX 280820Z 34010KT 7000 -SN BKN011 M04/M05 Q0998=
202101280750 METAR ESMX 280750Z 34010KT 9000 -SN BKN010 M04/M04 Q0998=
202101280720 METAR ESMX 280720Z 34011KT 7000 -SN BKN009 M04/M04 Q0998=
202101280650 METAR ESMX 280650Z AUTO 34010KT 4500 -SN SCT011/// BKN016/// BKN029/// M03/M04 Q0998=
202101280620 METAR ESMX 280620Z AUTO 33008KT 4100 -SN FEW002/// BKN010/// OVC030/// M03/M04 Q0998=
202101280550 METAR ESMX 280550Z AUTO 34009KT 3800 -SN BKN002/// BKN009/// OVC026/// M03/M04 Q0998=
202101280520 METAR ESMX 280520Z AUTO 34008KT 5000 -SN BKN009/// OVC012/// M03/M03 Q0998=
202101280450 METAR ESMX 280450Z AUTO 34009KT 3700 -SN FEW002/// SCT007/// BKN009/// M03/M03 Q0998=
202101280420 METAR ESMX 280420Z AUTO 33007KT 2000 -SN BKN002/// OVC014/// M02/M03 Q0998=
202101280350 METAR ESMX 280350Z AUTO 31005KT 0900 R01/P2000N R19/P2000N -SN SCT001/// BKN010/// OVC014/// M02/M02 Q0998=
202101280320 METAR ESMX 280320Z AUTO 19003KT 1200 R01/P2000N R19/P2000N -SN FEW002/// BKN005/// OVC007/// M00/M00 Q0998=
202101280250 METAR ESMX 280250Z AUTO 19003KT 2000 -SN BKN004/// OVC009/// M00/M00 Q0998=
202101280220 METAR ESMX 280220Z AUTO 19003KT 2300 -SN BKN005/// OVC009/// M00/M00 Q0999=
202101280150 METAR ESMX 280150Z AUTO 19003KT 2000 -SN VV007 00/00 Q0999=
202101280120 METAR ESMX 280120Z AUTO 19004KT 1100 R01/P2000N R19/P2000N -SN VV007 00/00 Q1000=
202101280050 METAR ESMX 280050Z AUTO 20004KT 1900 -SN SCT001/// BKN005/// BKN008/// 00/00 Q1000=
202101280020 METAR ESMX 280020Z AUTO 19004KT 4200 -SN BKN005/// OVC008/// 00/00 Q1001=
202101272350 METAR ESMX 272350Z AUTO 19005KT 1200 R01/P2000N R19/P2000N -SN VV008 00/00 Q1001=
202101272320 METAR ESMX 272320Z AUTO 17004KT 2600 -SN VV006 00/00 Q1001=
202101272250 METAR ESMX 272250Z AUTO 17004KT 2000 -SN VV010 00/00 Q1002=
202101272220 METAR ESMX 272220Z AUTO 17003KT 2500 -SN VV007 00/00 Q1002=
202101272150 METAR ESMX 272150Z AUTO 20005KT 2700 -SN SCT005/// BKN008/// OVC009/// 00/00 Q1003=
202101272120 METAR ESMX 272120Z AUTO 19006KT 0900 R01/P2000N R19/P2000D SN VV006 00/00 Q1003=
202101272050 METAR ESMX 272050Z AUTO 19005KT 1000 R01/P2000N R19/P2000N -SN VV007 00/00 Q1003=
202101272020 METAR ESMX 272020Z AUTO 19005KT 1000 R01/P2000N R19/P2000N -SN VV007 00/00 Q1003=
202101271950 METAR ESMX 271950Z AUTO 19005KT 1200 R01/P2000N R19/P2000N -SN VV006 00/00 Q1004=
202101271920 METAR ESMX 271920Z AUTO 19005KT 1500 -SN VV006 00/00 Q1004=
202101271850 METAR ESMX 271850Z AUTO 16003KT 2000 -SN OVC001/// 00/00 Q1004=
202101271820 METAR ESMX 271820Z AUTO 16003KT 0750 R01/P2000D R19/P2000N SN OVC002/// M00/M00 Q1004=
202101271750 METAR ESMX 271750Z AUTO 15004KT 0650 R01/P2000D R19/1900D SN BKN001/// BKN004/// OVC007/// M00/M00 Q1005=
202101271720 METAR ESMX 271720Z AUTO 14003KT 1000 R01/P2000N R19/P2000N -SN VV004 M00/M00 Q1005=
202101271650 METAR ESMX 271650Z AUTO 14004KT 0800 R01/P2000N R19/P2000N SN BKN002/// OVC018/// M00/M00 Q1005=
202101271620 METAR ESMX 271620Z AUTO 17004KT 1100 R01/P2000N R19/P2000N -SN OVC002/// M00/M00 Q1005=
202101271550 METAR ESMX 271550Z AUTO 17004KT 2400 -SN OVC002/// M00/M00 Q1006=
202101271520 METAR ESMX 271520Z AUTO 17003KT 6000 -RASN OVC002/// M00/M00 Q1006 REFZUP RESHUP REFZRA=
202101271450 METAR ESMX 271450Z AUTO 19004KT 8000 BR OVC003/// M00/M00 Q1006 REFZUP=
202101271420 METAR ESMX 271420Z 15003KT 4000 BR -SN BKN004 M01/M01 Q1006=
202101271350 METAR ESMX 271350Z 20003KT 4000 -SN BR VV007 M01/M01 Q1006=
202101271320 METAR ESMX 271320Z 14003KT 3000 -SN VV003 M01/M01 Q1006=
202101271250 METAR ESMX 271250Z 16003KT 4000 BR -SN OVC002 M01/M01 Q1006=
202101271220 METAR ESMX 271220Z 20004KT 5000 BR -SN OVC002 M01/M01 Q1006=
202101271150 METAR ESMX 271150Z 20004KT 7000 OVC002 M01/M01 Q1007=
202101271120 METAR ESMX 271120Z 20004KT 7000 BKN003 M02/M02 Q1007=
202101271050 METAR ESMX 271050Z VRB02KT 8000 BKN003 M03/M03 Q1007=
202101271020 METAR ESMX 271020Z VRB02KT 7000 OVC002 M03/M03 Q1007=
202101270950 METAR ESMX 270950Z VRB02KT 5000 BR OVC002 M04/M04 Q1007=
202101270920 METAR ESMX 270920Z 23002KT 3000 BR BKN003 M04/M04 Q1007=
202101270850 METAR ESMX 270850Z VRB02KT 0550 R19/0900D FZFG OVC002 M05/M05 Q1007=
202101270820 METAR ESMX 270820Z 23003KT 9999 BKN003 M06/M07 Q1007=
202101270750 METAR ESMX 270750Z 23003KT 9000 NSC M07/M08 Q1007=
202101270720 METAR ESMX 270720Z 23002KT CAVOK M07/M08 Q1007=
202101270650 METAR ESMX 270650Z AUTO 23002KT 9999 FEW037/// M07/M07 Q1007=
202101270620 METAR ESMX 270620Z AUTO VRB02KT 8000 BR BKN036/// M06/M07 Q1007 RESG=
202101270550 METAR ESMX 270550Z AUTO 25002KT 2400 SCT003/// OVC035/// M06/M06 Q1007=
202101270520 METAR ESMX 270520Z AUTO 27004KT 0500 R01/1800D R19/P2000N SN OVC002/// M06/M06 Q1008 RESG=
202101270450 METAR ESMX 270450Z AUTO 26004KT 5000 OVC002/// M05/M05 Q1008=
202101270420 METAR ESMX 270420Z AUTO 26005KT 0400 R01/1600D R19/P2000N SN OVC001/// M05/M06 Q1008=
202101270350 METAR ESMX 270350Z AUTO 26004KT 220V300 0300 R01/0900D R19/P2000N +SN OVC001/// M05/M05 Q1008 RESG=
202101270320 METAR ESMX 270320Z AUTO 27004KT 230V300 9999 OVC002/// M05/M05 Q1008=
202101270250 METAR ESMX 270250Z AUTO 27005KT 9999 OVC002/// M05/M05 Q1008=
202101270220 METAR ESMX 270220Z AUTO 27007KT 9999 OVC003/// M05/M05 Q1008=
202101270150 METAR ESMX 270150Z AUTO 27006KT 9999 OVC003/// M05/M05 Q1008=
202101270120 METAR ESMX 270120Z AUTO 28006KT 9999 OVC003/// M05/M05 Q1008=
202101270050 METAR ESMX 270050Z AUTO 28008KT 9999 OVC004/// M05/M05 Q1008=
202101270020 METAR ESMX 270020Z AUTO 28007KT 240V310 9999 OVC003/// M05/M05 Q1008=
202101262350 METAR ESMX 262350Z AUTO 30007KT 9999 OVC003/// M05/M05 Q1008=
202101262320 METAR ESMX 262320Z AUTO 30007KT 9999 OVC003/// M05/M05 Q1008=
202101262250 METAR ESMX 262250Z AUTO 27007KT 9999 OVC003/// M05/M05 Q1008=
202101262220 METAR ESMX 262220Z AUTO 27008KT 9999 OVC004/// M04/M05 Q1008=
202101262150 METAR ESMX 262150Z AUTO 29008KT 9999 OVC004/// M04/M05 Q1008=
202101262120 METAR ESMX 262120Z AUTO 28007KT 9999 OVC004/// M04/M05 Q1008=
202101262050 METAR ESMX 262050Z AUTO 29009KT 9999 OVC004/// M04/M05 Q1008=
202101262020 METAR ESMX 262020Z AUTO 29009KT 9999 OVC004/// M04/M05 Q1008=
202101261950 METAR ESMX 261950Z AUTO 29008KT 9999 OVC005/// M04/M05 Q1007=
202101261920 METAR ESMX 261920Z AUTO 29006KT 9999 OVC006/// M04/M05 Q1007=
202101261850 METAR ESMX 261850Z AUTO 30006KT 9999 BKN007/// M04/M05 Q1007=
202101261820 METAR ESMX 261820Z AUTO 30006KT 9999 BKN007/// M04/M05 Q1007=
202101261750 METAR ESMX 261750Z AUTO 29007KT 9999 OVC007/// M04/M04 Q1007=
202101261720 METAR ESMX 261720Z AUTO 29009KT 9999 FEW008/// M03/M04 Q1007=
202101261650 METAR ESMX 261650Z AUTO 29009KT 9999 NCD M04/M04 Q1007=
202101261620 METAR ESMX 261620Z AUTO 30005KT 9999 FEW009/// M03/M04 Q1007=
202101261550 METAR ESMX 261550Z AUTO 31007KT 9999 SCT010/// M03/M04 Q1007=
202101261520 METAR ESMX 261520Z AUTO 31005KT 9999 BKN011/// M03/M04 Q1007=
202101261450 METAR ESMX 261450Z AUTO 32007KT 9999 BKN011/// M02/M04 Q1007=
202101261420 METAR ESMX 261420Z 31007KT 270V340 9999 BKN012 M02/M03 Q1006=
202101261350 METAR ESMX 261350Z 32008KT 9999 BKN011 M02/M04 Q1006=
202101261320 METAR ESMX 261320Z 31007KT 280V340 9999 BKN012 M01/M03 Q1006=
202101261250 METAR ESMX 261250Z 31008KT 260V340 9999 BKN012 M01/M03 Q1006=
202101261220 METAR ESMX 261220Z 31009KT 9999 BKN011 M02/M04 Q1006=
202101261150 METAR ESMX 261150Z 32007KT 260V340 9999 BKN011 M01/M03 Q1005=
202101261120 METAR ESMX 261120Z 31008KT 270V330 9999 BKN011 M02/M03 Q1005=
202101261050 METAR ESMX 261050Z 31007KT 9999 BKN011 M02/M03 Q1005=
202101261020 METAR ESMX 261020Z 30008KT 9999 BKN011 M02/M04 Q1005=
202101260950 METAR ESMX 260950Z 31007KT 9999 BKN011 M02/M03 Q1005=
202101260920 METAR ESMX 260920Z 31008KT 9999 BKN012 M02/M03 Q1005=
202101260850 METAR ESMX 260850Z 31006KT 9999 BKN014 M02/M03 Q1005=
202101260820 METAR ESMX 260820Z 31004KT 9999 BKN015 M02/M03 Q1005=
202101260750 METAR ESMX 260750Z 29005KT 9999 BKN016 M02/M03 Q1005=
202101260720 METAR ESMX 260720Z 28005KT 9999 SCT039 M03/M03 Q1004=
202101260650 METAR ESMX 260650Z AUTO 27005KT 9999 SCT061/// M02/M03 Q1004=
202101260620 METAR ESMX 260620Z AUTO 26004KT 9999 FEW017/// OVC068/// M02/M03 Q1004=
202101260550 METAR ESMX 260550Z AUTO 27003KT 9999 BKN018/// M02/M03 Q1004=
202101260520 METAR ESMX 260520Z AUTO 30003KT 9999 BKN017/// OVC053/// M02/M03 Q1004=
202101260450 METAR ESMX 260450Z AUTO 31005KT 9999 OVC017/// M02/M03 Q1004=
202101260420 METAR ESMX 260420Z AUTO 32004KT 9999 OVC015/// M01/M03 Q1004=
202101260350 METAR ESMX 260350Z AUTO 31004KT 280V340 9999 FEW012/// OVC015/// M01/M02 Q1004 RESG REFZUP=
202101260320 METAR ESMX 260320Z AUTO 31003KT 9999 OVC014/// M01/M02 Q1003=
202101260250 METAR ESMX 260250Z AUTO 29003KT 250V340 9999 OVC014/// M01/M02 Q1003=
202101260220 METAR ESMX 260220Z AUTO 29003KT 9999 OVC015/// M01/M02 Q1003=
202101260150 METAR ESMX 260150Z AUTO 29002KT 9999 OVC016/// M01/M02 Q1003=
202101260120 METAR ESMX 260120Z AUTO 26002KT 9999 OVC016/// M02/M02 Q1003=
202101260050 METAR ESMX 260050Z AUTO 30003KT 9999 OVC016/// M02/M02 Q1003=
202101260020 METAR ESMX 260020Z AUTO 30003KT 9999 OVC017/// M02/M02 Q1002=
202101252350 METAR ESMX 252350Z AUTO 29003KT 9999 OVC019/// M02/M02 Q1002=
202101252320 METAR ESMX 252320Z AUTO 26003KT 9999 OVC020/// M02/M02 Q1002=
202101252250 METAR ESMX 252250Z AUTO 25003KT 9999 OVC021/// M02/M02 Q1002=
202101252220 METAR ESMX 252220Z AUTO 26004KT 9999 OVC021/// M02/M03 Q1002=
202101252150 METAR ESMX 252150Z AUTO 26003KT 9999 OVC020/// M02/M03 Q1002=
202101252120 METAR ESMX 252120Z AUTO 28003KT 9999 BKN021/// M03/M03 Q1002=
202101252050 METAR ESMX 252050Z AUTO 27003KT 9999 SCT018/// M03/M03 Q1002=
202101252020 METAR ESMX 252020Z AUTO 27002KT 9999 OVC018/// M03/M03 Q1001=
202101251950 METAR ESMX 251950Z AUTO 27003KT 9999 BKN019/// M02/M02 Q1001=
202101251920 METAR ESMX 251920Z AUTO 25002KT 9999 NCD M02/M02 Q1001=
202101251850 METAR ESMX 251850Z AUTO 24001KT 9999 SCT096/// M02/M02 Q1001=
202101251820 METAR ESMX 251820Z AUTO 26002KT 9999 OVC094/// M02/M02 Q1001=
202101251750 METAR ESMX 251750Z AUTO 26003KT 9999 OVC092/// M02/M02 Q1000=
202101251720 METAR ESMX 251720Z AUTO 27002KT 9999 BKN092/// M02/M02 Q1000=
202101251650 METAR ESMX 251650Z AUTO VRB03KT 9999 OVC090/// M01/M02 Q1000=
202101251620 METAR ESMX 251620Z AUTO 29003KT 9999 OVC088/// M01/M02 Q0999=
202101251550 METAR ESMX 251550Z AUTO 27002KT 9999 FEW012/// M01/M02 Q0999=
202101251520 METAR ESMX 251520Z 26004KT 9999 SCT013 M00/M02 Q0999=
202101251450 METAR ESMX 251450Z 28004KT 9999 BKN013 00/M02 Q0998=
202101251420 METAR ESMX 251420Z 28005KT 9999 BKN013 00/M02 Q0998=
202101251350 METAR ESMX 251350Z 28005KT 240V300 9999 BKN013 00/M02 Q0998=
202101251320 METAR ESMX 251320Z 26004KT 230V310 9999 BKN013 00/M02 Q0998=
202101251250 METAR ESMX 251250Z 28004KT 9999 BKN012 00/M02 Q0998=
202101251220 METAR ESMX 251220Z 30003KT 270V330 9999 BKN011 00/M01 Q0998=
202101251150 METAR ESMX 251150Z 26003KT 230V290 9999 FEW015 00/M02 Q0997=
202101251120 METAR ESMX 251120Z 31002KT 9999 FEW023 M00/M02 Q0997=
202101251050 METAR ESMX 251050Z 35003KT 9999 FEW023 M00/M02 Q0997=
202101251020 METAR ESMX 251020Z 35003KT 9999 FEW029 SCT047 M00/M02 Q0997=
202101250950 METAR ESMX 250950Z 22003KT 9999 FEW029 SCT036 BKN064 M01/M02 Q0997=
202101250920 METAR ESMX 250920Z 22002KT 9999 BKN030 M01/M02 Q0997 REDZ=
202101250850 METAR ESMX 250850Z 22003KT 9999 BKN030 M01/M02 Q0997 RESG=
202101250820 METAR ESMX 250820Z 22003KT 9999 SG BKN030 M01/M02 Q0996 RESG=
202101250750 METAR ESMX 250750Z 02003KT 9999 BKN034 M01/M02 Q0996=
202101250720 METAR ESMX 250720Z 02002KT 9999 BKN037 BKN049 M02/M02 Q0996=
202101250650 METAR ESMX 250650Z 29002KT 9999 FEW006 BKN059 M02/M02 Q0996=
202101250620 METAR ESMX 250620Z AUTO 02002KT 9999 BKN005/// M02/M02 Q0996=
202101250550 METAR ESMX 250550Z AUTO 01005KT 9999 OVC005/// M01/M02 Q0995=
202101250520 METAR ESMX 250520Z AUTO 36005KT 9999 OVC005/// M01/M02 Q0995=
202101250450 METAR ESMX 250450Z AUTO 32003KT 9999 OVC005/// M01/M02 Q0995=
202101250420 METAR ESMX 250420Z AUTO 32004KT 290V010 9999 OVC004/// M01/M02 Q0995=
202101250350 METAR ESMX 250350Z AUTO 31004KT 9999 OVC004/// M01/M02 Q0995=
202101250320 METAR ESMX 250320Z AUTO 29004KT 250V330 9999 OVC004/// M01/M02 Q0995=
202101250250 METAR ESMX 250250Z AUTO 34003KT 9999 OVC004/// M01/M01 Q0995=
202101250220 METAR ESMX 250220Z AUTO 33004KT 9999 OVC004/// M01/M01 Q0995=
202101250150 METAR ESMX 250150Z AUTO 32003KT 9999 OVC004/// M01/M01 Q0995=
202101250120 METAR ESMX 250120Z AUTO 31003KT 9999 OVC004/// M01/M01 Q0995=
202101250050 METAR ESMX 250050Z AUTO 32004KT 9999 OVC004/// M01/M01 Q0995=
202101250020 METAR ESMX 250020Z AUTO 33003KT 9999 OVC004/// M01/M01 Q0995=
202101242350 METAR ESMX 242350Z AUTO 03002KT 9999 OVC004/// M01/M02 Q0995=
202101242320 METAR ESMX 242320Z AUTO 35002KT 9999 OVC005/// M01/M01 Q0995=
202101242250 METAR ESMX 242250Z AUTO VRB02KT 9999 OVC005/// M01/M01 Q0995=
202101242220 METAR ESMX 242220Z AUTO 07002KT 9999 OVC005/// M01/M02 Q0996=
202101242150 METAR ESMX 242150Z AUTO 07003KT 9999 OVC005/// M01/M02 Q0996=
202101242120 METAR ESMX 242120Z AUTO 04002KT 9999 OVC005/// M01/M01 Q0996=
202101242050 METAR ESMX 242050Z AUTO 06003KT 9999 OVC005/// M01/M01 Q0996=
202101242020 METAR ESMX 242020Z AUTO 06004KT 9999 OVC004/// M01/M01 Q0996=
202101241950 METAR ESMX 241950Z AUTO 06004KT 9999 OVC004/// M01/M01 Q0996=
202101241920 METAR ESMX 241920Z AUTO 02004KT 350V080 9999 OVC003/// M01/M01 Q0996=
202101241850 METAR ESMX 241850Z AUTO 02004KT 9999 OVC003/// M01/M01 Q0996=
202101241820 METAR ESMX 241820Z AUTO VRB03KT 9000 BR OVC003/// M01/M01 Q0996=
202101241750 METAR ESMX 241750Z AUTO 06003KT 8000 BR OVC003/// M01/M01 Q0996=
202101241720 METAR ESMX 241720Z AUTO 04004KT 7000 BR OVC002/// M01/M01 Q0996=
202101241650 METAR ESMX 241650Z AUTO VRB02KT 9999 OVC002/// M01/M01 Q0997=
202101241620 METAR ESMX 241620Z AUTO VRB02KT 8000 BR OVC002/// M01/M01 Q0996=
202101241550 METAR ESMX 241550Z AUTO VRB02KT 8000 BR OVC002/// M01/M01 Q0996=
202101241520 METAR ESMX 241520Z AUTO VRB02KT 3500 BR OVC002/// M01/M01 Q0996=
202101241450 METAR ESMX 241450Z AUTO 05003KT 1800 BR OVC001/// M01/M01 Q0996=
202101241420 METAR ESMX 241420Z AUTO 01003KT 6000 OVC001/// M01/M01 Q0996=
202101241350 METAR ESMX 241350Z AUTO 08003KT 2900 OVC001/// M01/M01 Q0996=
202101241320 METAR ESMX 241320Z AUTO 36004KT 1200 R01/P2000D R19/1600N BKN001/// OVC002/// M00/M00 Q0996=
202101241250 METAR ESMX 241250Z AUTO 07003KT 0250 R01/0500N R19/P2000N FZFG OVC001/// M00/M00 Q0996=
202101241220 METAR ESMX 241220Z AUTO 02003KT 0400 R01/P2000N R19/0600N BR ////// M01/M01 Q0996=
202101241150 METAR ESMX 241150Z AUTO 05002KT 2500 BR OVC001/// M01/M01 Q0996=
202101241120 METAR ESMX 241120Z AUTO 08004KT 3800 BR OVC002/// M00/M00 Q0996=
202101241050 METAR ESMX 241050Z AUTO VRB02KT 9999 OVC002/// M00/M00 Q0996=
202101241020 METAR ESMX 241020Z AUTO VRB02KT 9000 BKN003/// BKN004/// OVC031/// M00/M00 Q0996=
202101240950 METAR ESMX 240950Z AUTO 00000KT 9999 OVC002/// M01/M01 Q0996=
202101240920 METAR ESMX 240920Z AUTO 00000KT 9000 BR OVC001/// M01/M01 Q0996=
202101240850 METAR ESMX 240850Z AUTO 15003KT 8000 OVC001/// M01/M01 Q0996=
202101240820 METAR ESMX 240820Z AUTO 08003KT 6000 BR OVC002/// M01/M01 Q0996=
202101240750 METAR ESMX 240750Z AUTO VRB02KT 9999 OVC003/// M01/M01 Q0996=
202101240720 METAR ESMX 240720Z AUTO 35002KT 9999 OVC003/// M01/M01 Q0995=
202101240650 METAR ESMX 240650Z AUTO 19002KT 9999 OVC003/// M01/M01 Q0995=
202101240620 METAR ESMX 240620Z AUTO 04002KT 9999 OVC003/// M01/M01 Q0995=
202101240550 METAR ESMX 240550Z AUTO 20002KT 9999 OVC003/// M01/M01 Q0995=
202101240520 METAR ESMX 240520Z AUTO VRB02KT 9999 OVC003/// M01/M01 Q0995=
202101240450 METAR ESMX 240450Z AUTO 05001KT 9999 OVC003/// M01/M01 Q0994=
202101240420 METAR ESMX 240420Z AUTO 05003KT 9999 OVC004/// M01/M01 Q0994=
202101240350 METAR ESMX 240350Z AUTO 00000KT 9999 OVC003/// M00/M00 Q0994=
202101240320 METAR ESMX 240320Z AUTO VRB03KT 5000 BR OVC002/// M00/M00 Q0994=
202101240250 METAR ESMX 240250Z AUTO 26004KT 230V290 5000 BR OVC001/// M00/M00 Q0994=
202101240220 METAR ESMX 240220Z AUTO 27005KT 230V300 3300 BR OVC001/// M00/M00 Q0994=
202101240150 METAR ESMX 240150Z AUTO 26004KT 2900 BR OVC001/// M00/M00 Q0994=
202101240120 METAR ESMX 240120Z AUTO VRB03KT 2100 OVC001/// M00/M00 Q0994=
202101240050 METAR ESMX 240050Z AUTO 22004KT 1100 R01/P2000N R19/P2000N OVC001/// M00/M00 Q0994=
202101240020 METAR ESMX 240020Z AUTO 30004KT 260V330 0550 R01/1400N R19/P2000D FG OVC001/// 00/00 Q0994=
202101232350 METAR ESMX 232350Z AUTO 28004KT 240V300 1000 R01/P2000N R19/P2000N FG OVC001/// 00/00 Q0994=
202101232320 METAR ESMX 232320Z AUTO 23004KT 1800 OVC001/// 01/01 Q0994=
202101232250 METAR ESMX 232250Z AUTO 22003KT 200V280 0800 R01/P2000N R19/P2000N BR OVC001/// 01/01 Q0994=
202101232220 METAR ESMX 232220Z AUTO 20004KT 5000 BR OVC003/// 01/01 Q0994=
202101232150 METAR ESMX 232150Z AUTO 20002KT 9999 OVC004/// 01/01 Q0994=
202101232120 METAR ESMX 232120Z AUTO 25003KT 9999 OVC005/// 01/01 Q0994=
202101232050 METAR ESMX 232050Z AUTO VRB02KT 9999 OVC005/// 01/01 Q0993=
202101232020 METAR ESMX 232020Z AUTO 20001KT 9999 OVC006/// 01/01 Q0994=
202101231950 METAR ESMX 231950Z AUTO 20001KT 9999 OVC006/// 01/01 Q0994=
202101231920 METAR ESMX 231920Z AUTO 20003KT 9999 OVC006/// 01/01 Q0994=
202101231850 METAR ESMX 231850Z AUTO VRB02KT 9999 OVC006/// 01/01 Q0994=
202101231820 METAR ESMX 231820Z AUTO 20002KT 9999 OVC007/// 01/01 Q0994=
202101231750 METAR ESMX 231750Z AUTO 00000KT 9999 FEW006/// SCT008/// BKN066/// 01/01 Q0994=
202101231720 METAR ESMX 231720Z AUTO 00000KT 9999 FEW006/// BKN008/// 01/01 Q0994=
202101231650 METAR ESMX 231650Z AUTO 00000KT 9999 OVC009/// 01/01 Q0994=
202101231620 METAR ESMX 231620Z AUTO 00000KT 9999 BKN009/// 02/01 Q0994=
202101231550 METAR ESMX 231550Z AUTO 18002KT 9999 OVC009/// 02/01 Q0994=
202101231520 METAR ESMX 231520Z AUTO 17003KT 9999 OVC009/// 02/01 Q0994=
202101231450 METAR ESMX 231450Z AUTO VRB03KT 9999 OVC008/// 02/01 Q0994=
202101231420 METAR ESMX 231420Z AUTO 15004KT 9999 OVC008/// 02/01 Q0994=
202101231350 METAR ESMX 231350Z AUTO 15003KT 120V190 9999 BKN009/// 03/01 Q0995=
202101231320 METAR ESMX 231320Z AUTO 20004KT 9999 OVC008/// 03/01 Q0995=
202101231250 METAR ESMX 231250Z AUTO 20004KT 9999 OVC008/// 02/01 Q0995=
202101231220 METAR ESMX 231220Z AUTO 20004KT 9999 OVC008/// 03/01 Q0995=
202101231150 METAR ESMX 231150Z AUTO 21005KT 9999 OVC008/// 03/01 Q0996=
202101231120 METAR ESMX 231120Z AUTO 20006KT 160V230 9999 OVC007/// 02/02 Q0996=
202101231050 METAR ESMX 231050Z AUTO 18009KT 9999 OVC008/// 02/01 Q0996=
202101231020 METAR ESMX 231020Z AUTO 20006KT 9999 OVC008/// 03/02 Q0996=
202101230950 METAR ESMX 230950Z AUTO 22007KT 9999 OVC009/// 02/01 Q0996=
202101230920 METAR ESMX 230920Z AUTO 20007KT 9999 OVC013/// 02/01 Q0995=
202101230850 METAR ESMX 230850Z AUTO 19007KT 9999 OVC015/// 02/01 Q0995=
202101230820 METAR ESMX 230820Z AUTO 21006KT 9999 OVC017/// 02/01 Q0995=
202101230750 METAR ESMX 230750Z AUTO 20006KT 9999 OVC019/// 02/01 Q0994=
202101230720 METAR ESMX 230720Z AUTO 19008KT 9999 OVC019/// 02/01 Q0994=
202101230650 METAR ESMX 230650Z AUTO 18007KT 9999 BKN019/// OVC024/// 02/01 Q0994=
202101230620 METAR ESMX 230620Z AUTO 18006KT 9999 OVC024/// 02/01 Q0993=
202101230550 METAR ESMX 230550Z AUTO 20007KT 9999 BKN027/// 02/01 Q0993=
202101230520 METAR ESMX 230520Z AUTO 22008KT 9999 BKN027/// 03/02 Q0992=
202101230450 METAR ESMX 230450Z AUTO 21009KT 9999 FEW017/// OVC029/// 03/02 Q0992=
202101230420 METAR ESMX 230420Z AUTO 21010KT 9999 OVC031/// 03/02 Q0992=
202101230350 METAR ESMX 230350Z AUTO 22011KT 9999 OVC034/// 03/02 Q0991=
202101230320 METAR ESMX 230320Z AUTO 23011KT 9999 FEW014/// OVC033/// 03/02 Q0991=
202101230250 METAR ESMX 230250Z AUTO 23011KT 9999 FEW015/// SCT018/// OVC032/// 04/02 Q0991=
202101230220 METAR ESMX 230220Z AUTO 21012KT 9999 SCT015/// OVC029/// 04/02 Q0990=
202101230150 METAR ESMX 230150Z AUTO 22012KT 9999 BKN010/// OVC033/// 03/03 Q0990=
202101230120 METAR ESMX 230120Z AUTO 22013KT 9999 BKN010/// BKN013/// OVC016/// 03/03 Q0989 RESHUP REDZ=
202101230050 METAR ESMX 230050Z AUTO 22013KT 9999 OVC009/// 03/03 Q0989=
202101230020 METAR ESMX 230020Z AUTO 20014KT 9999 BKN010/// OVC013/// 03/02 Q0988 RESHUP REUP=
202101222350 METAR ESMX 222350Z AUTO 20014KT 9999 OVC011/// 03/02 Q0988=
202101222320 METAR ESMX 222320Z AUTO 20016KT 9999 BR OVC011/// 03/02 Q0987=
202101222250 METAR ESMX 222250Z AUTO 20016KT 8000 BR SCT008/// OVC011/// 03/02 Q0987=
202101222220 METAR ESMX 222220Z AUTO 20016G27KT 8000 BR BKN008/// OVC012/// 03/02 Q0986 RERA=
202101222150 METAR ESMX 222150Z AUTO 21016KT 5000 BR SCT007/// OVC009/// 03/02 Q0986=
202101222120 METAR ESMX 222120Z AUTO 21017KT 9999 -DZ BKN008/// OVC009/// 03/02 Q0986=
202101222050 METAR ESMX 222050Z AUTO 19016KT 6000 -DZ SCT007/// OVC009/// 03/02 Q0985=
202101222020 METAR ESMX 222020Z AUTO 19020KT 9999 -DZ OVC010/// 03/02 Q0985=
202101221950 METAR ESMX 221950Z AUTO 19020KT 9999 -DZ BKN010/// OVC015/// 03/02 Q0985=
202101221920 METAR ESMX 221920Z AUTO 19017G28KT 9999 -DZ FEW008/// BKN012/// OVC018/// 03/02 Q0984=
202101221850 METAR ESMX 221850Z AUTO 19018KT 6000 -RA FEW007/// BKN018/// OVC024/// 03/02 Q0984 REDZ REUP=
202101221820 METAR ESMX 221820Z AUTO 19019KT 9999 OVC020/// 03/01 Q0984=
202101221750 METAR ESMX 221750Z AUTO 18017G27KT 9999 BKN023/// OVC031/// 03/01 Q0984=
202101221720 METAR ESMX 221720Z AUTO 19016KT 9999 FEW017/// SCT020/// OVC032/// 03/01 Q0984=
202101221650 METAR ESMX 221650Z 19016KT 9999 -RA FEW008 BKN021 03/01 Q0984=
202101221620 METAR ESMX 221620Z 18016KT 9999 -RA BKN018 03/01 Q0983=
202101221550 METAR ESMX 221550Z 18014KT 9999 FEW020 OVC035 03/02 Q0983=
202101221520 METAR ESMX 221520Z 19013KT 9999 SCT012 BKN022 03/02 Q0983=
202101221450 METAR ESMX 221450Z 19013KT 9999 SCT015 BKN037 03/02 Q0983=
202101221420 METAR ESMX 221420Z 19014KT 9999 BKN014 03/02 Q0983=
202101221350 METAR ESMX 221350Z 19013KT 9999 BKN014 03/02 Q0982=
202101221320 METAR ESMX 221320Z 20015KT 9999 BKN013 04/02 Q0982=
202101221250 METAR ESMX 221250Z 20017KT 9999 BKN011 03/02 Q0982=
202101221220 METAR ESMX 221220Z 22015KT 9999 OVC010 03/02 Q0981=
202101221150 METAR ESMX 221150Z 21013KT 9999 OVC010 03/02 Q0981=
202101221120 METAR ESMX 221120Z 22015KT 9999 OVC009 03/02 Q0980=
202101221050 METAR ESMX 221050Z 22016KT 9999 BKN010 03/02 Q0980=
202101221020 METAR ESMX 221020Z 19023G38KT 160V230 8000 RA BKN008 05/04 Q0978=
202101220950 METAR ESMX 220950Z 16015KT 9999 -RA OVC008 06/06 Q0977=
202101220920 METAR COR ESMX 220920Z 17014G25KT 9999 -RA OVC007 06/06 Q0977=
202101220850 METAR ESMX 220850Z 15014KT 9999 -RA OVC005 06/05 Q0977=
202101220820 METAR ESMX 220820Z 15013KT 9999 -RA OVC004 05/05 Q0978=
202101220750 METAR ESMX 220750Z 15011KT 9000 BR OVC004 05/05 Q0979=
202101220720 METAR ESMX 220720Z 14009KT 8000 -RA OVC004 04/04 Q0979=
202101220650 METAR ESMX 220650Z AUTO 14008KT 4500 -RA FEW002/// OVC004/// 04/04 Q0980=
202101220620 METAR ESMX 220620Z AUTO 14008KT 8000 -RA OVC005/// 03/03 Q0980=
202101220550 METAR ESMX 220550Z AUTO 14008KT 8000 -RA OVC006/// 03/03 Q0981=
202101220520 METAR ESMX 220520Z AUTO 13006KT 100V170 8000 -RA BKN007/// BKN011/// OVC020/// 03/03 Q0981 REDZ=
202101220450 METAR ESMX 220450Z AUTO 14007KT 9000 DZ FEW007/// OVC038/// 03/03 Q0982=
202101220420 METAR ESMX 220420Z AUTO 14009KT 9999 -DZ FEW009/// SCT032/// BKN049/// 03/02 Q0983 REUP=
202101220350 METAR ESMX 220350Z AUTO 15009KT 9999 FEW061/// 03/02 Q0984=
202101220320 METAR ESMX 220320Z AUTO 15008KT 9999 SCT070/// 03/02 Q0985=
202101220250 METAR ESMX 220250Z AUTO 16010KT 9999 NCD 02/01 Q0985=
202101220220 METAR ESMX 220220Z AUTO 15008KT 9999 NCD 02/01 Q0985=
202101220150 METAR ESMX 220150Z AUTO 17010KT 9999 NCD 03/01 Q0986=
202101220120 METAR ESMX 220120Z 16011KT CAVOK 03/01 Q0986=
202101220050 METAR COR ESMX 220050Z 16011KT CAVOK 03/01 Q0986=
202101220020 METAR ESMX 220020Z 16010KT CAVOK 02/01 Q0987=
202101212350 METAR ESMX 212350Z 17010KT CAVOK 02/01 Q0987=
202101212320 METAR ESMX 212320Z 17010KT CAVOK 03/01 Q0987=
202101212250 METAR ESMX 212250Z 17010KT CAVOK 03/01 Q0987=
202101212220 METAR ESMX 212220Z 17010KT CAVOK 03/01 Q0988=
202101212150 METAR ESMX 212150Z 16010KT CAVOK 03/01 Q0987=
202101212120 METAR ESMX 212120Z 16011KT CAVOK 03/01 Q0988=
202101212050 METAR ESMX 212050Z AUTO 16012KT 9999 NCD 03/01 Q0987=
202101212020 METAR ESMX 212020Z AUTO 16011KT 9999 NCD 03/01 Q0988=
202101211950 METAR ESMX 211950Z AUTO 16011KT 9999 NCD 03/01 Q0988=
202101211920 METAR ESMX 211920Z AUTO 16011KT 9999 FEW047/// 03/01 Q0988=
202101211850 METAR ESMX 211850Z AUTO 16012KT 9999 NCD 03/01 Q0988=
202101211820 METAR ESMX 211820Z AUTO 16010KT 9999 NCD 03/01 Q0988=
202101211750 METAR ESMX 211750Z AUTO 17011KT 9999 BKN039/// 03/02 Q0988=
202101211720 METAR ESMX 211720Z AUTO 17010KT 9999 FEW029/// 03/02 Q0988=
202101211650 METAR ESMX 211650Z AUTO 17010KT 9999 NCD 03/02 Q0988=
202101211620 METAR ESMX 211620Z AUTO 18011KT 9999 SCT029/// 03/02 Q0988=
202101211550 METAR ESMX 211550Z AUTO 19013KT 9999 FEW023/// 04/02 Q0987=
202101211520 METAR ESMX 211520Z AUTO 18012KT 9999 BKN021/// 04/03 Q0987=
202101211450 METAR ESMX 211450Z AUTO 19009KT 9999 SCT027/// BKN033/// 05/03 Q0987=
202101211420 METAR ESMX 211420Z 19009KT 9999 FEW024 SCT140 05/04 Q0987=
202101211350 METAR ESMX 211350Z AUTO 20012KT 9999 FEW025/// BKN140/// 05/04 Q0986=
202101211320 METAR ESMX 211320Z 17010KT 9999 FEW031 BKN092 05/04 Q0986=
202101211250 METAR ESMX 211250Z 16010KT 9999 -RA FEW013 BKN053 05/04 Q0986=
202101211220 METAR ESMX 211220Z 17012KT 9999 -RA FEW030 OVC053 05/04 Q0986=
202101211150 METAR ESMX 211150Z 17011KT 9999 -RA FEW006 BKN030 05/03 Q0986=
202101211120 METAR ESMX 211120Z 17011KT 9999 -DZ FEW008 BKN026 05/03 Q0987=
202101211050 METAR ESMX 211050Z 17010KT 9999 BKN045 04/03 Q0987=
202101211020 METAR COR ESMX 211020Z 16012KT 9999 FEW009 BKN074 04/03 Q0987=
202101210950 METAR ESMX 210950Z 15012KT 9999 SCT008 04/03 Q0987=
202101210920 METAR ESMX 210920Z 15012KT 9999 BKN007 03/03 Q0987=
202101210850 METAR ESMX 210850Z 15010KT 9999 BKN006 03/03 Q0988=
202101210820 METAR ESMX 210820Z 14009KT 9999 BKN007 03/03 Q0988=
202101210750 METAR ESMX 210750Z 15010KT 9999 BKN006 03/03 Q0988=
202101210720 METAR ESMX 210720Z 15010KT 9999 BKN005 03/03 Q0988=
202101210650 METAR ESMX 210650Z AUTO 14009KT 120V180 9999 SCT005/// 03/03 Q0989=
202101210620 METAR ESMX 210620Z AUTO 15007KT 9999 FEW005/// 03/03 Q0989=
202101210550 METAR ESMX 210550Z AUTO 15009KT 9999 BKN005/// 03/03 Q0989=
202101210520 METAR ESMX 210520Z AUTO 15009KT 9999 BKN005/// BKN006/// OVC008/// 03/03 Q0990=
202101210450 METAR ESMX 210450Z AUTO 16010KT 9999 OVC004/// 03/03 Q0990=
202101210420 METAR ESMX 210420Z AUTO 15009KT 9000 BR BKN004/// 03/03 Q0990=
202101210350 METAR ESMX 210350Z AUTO 15007KT 9999 FEW005/// 03/03 Q0990=
202101210320 METAR ESMX 210320Z AUTO 15008KT 9999 NCD 04/04 Q0991=
202101210250 METAR ESMX 210250Z AUTO 17007KT 9999 FEW007/// BKN100/// 04/04 Q0991=
202101210220 METAR ESMX 210220Z AUTO 17008KT 9999 BKN005/// OVC048/// 04/04 Q0991=
202101210150 METAR ESMX 210150Z AUTO 17008KT 9999 -DZ OVC005/// 04/04 Q0992=
202101210120 METAR ESMX 210120Z AUTO 18008KT 9999 DZ OVC005/// 04/04 Q0992=
202101210050 METAR ESMX 210050Z AUTO 18010KT 9999 DZ OVC004/// 04/04 Q0992=
202101210020 METAR ESMX 210020Z AUTO 18010KT 5000 -DZ OVC004/// 05/05 Q0992=
202101202350 METAR ESMX 202350Z AUTO 18010KT 5000 DZ OVC005/// 05/05 Q0992 RESHUP REUP=
202101202320 METAR ESMX 202320Z AUTO 19012KT 8000 BR BKN004/// OVC006/// 05/05 Q0992 REUP=
202101202250 METAR ESMX 202250Z AUTO 18011KT 3600 BR OVC002/// 05/05 Q0992=
202101202220 METAR ESMX 202220Z AUTO 19011KT 1700 BR OVC001/// 05/05 Q0992=
202101202150 METAR ESMX 202150Z AUTO 19011KT 1100 R01/P2000N R19/P2000N BR OVC001/// 05/05 Q0992=
202101202120 METAR ESMX 202120Z AUTO 19011KT 1300 R01/P2000N R19/P2000N BR OVC001/// 04/04 Q0992 REDZ=
202101202050 METAR ESMX 202050Z AUTO 20010KT 2100 BR OVC002/// 04/04 Q0992 RESHUP=
202101202020 METAR ESMX 202020Z AUTO 19011KT 2500 -DZ OVC002/// 04/04 Q0992 RESHUP REDZ=
202101201950 METAR ESMX 201950Z AUTO 20011KT 3700 BR OVC002/// 04/04 Q0992=
202101201920 METAR ESMX 201920Z AUTO 19010KT 5000 -DZ OVC002/// 04/04 Q0992 REUP=
202101201850 METAR ESMX 201850Z AUTO 19011KT 5000 BR OVC003/// 04/04 Q0992=
202101201820 METAR ESMX 201820Z AUTO 19010KT 4100 BR OVC003/// 04/04 Q0992 REDZ=
202101201750 METAR ESMX 201750Z AUTO 18010KT 9999 OVC004/// 04/04 Q0992=
202101201720 METAR ESMX 201720Z AUTO 18010KT 9999 OVC004/// 04/04 Q0992 REDZ=
202101201650 METAR ESMX 201650Z AUTO 17010KT 9999 -DZ OVC004/// 04/04 Q0992=
202101201620 METAR ESMX 201620Z AUTO 17010KT 9999 -DZ OVC004/// 04/04 Q0992=
202101201550 METAR ESMX 201550Z AUTO 17009KT 9999 -RA OVC004/// 04/04 Q0992=
202101201520 METAR ESMX 201520Z AUTO 17009KT 7000 -RA OVC004/// 04/04 Q0992=
202101201450 METAR ESMX 201450Z AUTO 17010KT 6000 -RA BKN004/// OVC007/// 04/04 Q0992=
202101201420 METAR COR ESMX 201420Z 17008KT 6000 -RA BR OVC004 04/04 Q0992=
202101201350 METAR ESMX 201350Z 17008KT 7000 BR OVC003 04/04 Q0992=
202101201320 METAR ESMX 201320Z AUTO 16008KT 9999 -RA OVC004/// 04/04 Q0992 REDZ=
202101201250 METAR ESMX 201250Z 17008KT 9000 DZ BR OVC003 04/04 Q0992=
202101201220 METAR ESMX 201220Z 17007KT 9999 -RA OVC003 03/03 Q0993=
202101201150 METAR ESMX 201150Z 15007KT 5000 -RA BR OVC002 03/03 Q0993=
202101201120 METAR COR ESMX 201120Z 15007KT 100V170 9000 DZ BR OVC002 03/03 Q0993=
202101201050 METAR ESMX 201050Z 14006KT 110V170 9000 -DZ OVC004 02/02 Q0994=
202101201020 METAR ESMX 201020Z 13005KT 100V160 7000 -RA BR SCT004 OVC009 02/02 Q0994=
202101200950 METAR ESMX 200950Z 13007KT 8000 -RA BR OVC003 02/02 Q0994=
202101200920 METAR ESMX 200920Z 14007KT 090V160 5000 -RA BR OVC003 02/02 Q0995=
202101200850 METAR ESMX 200850Z 13006KT 100V160 4500 -RA BR OVC003 01/01 Q0995=
202101200820 METAR ESMX 200820Z 13005KT 080V160 9999 -RA OVC003 01/01 Q0995=
202101200750 METAR ESMX 200750Z 12004KT 080V160 4600 -SN BR OVC002 01/01 Q0995=
202101200720 METAR ESMX 200720Z 12005KT 7000 -SNRA BR OVC003 01/01 Q0995=
202101200650 METAR ESMX 200650Z AUTO 12004KT 080V150 6000 -SN OVC002/// 01/01 Q0995=
202101200620 METAR ESMX 200620Z AUTO 13005KT 4500 -SN OVC002/// 01/01 Q0996=
202101200550 METAR ESMX 200550Z AUTO 13004KT 5000 -PL OVC002/// 01/01 Q0996=
202101200520 METAR ESMX 200520Z AUTO 13004KT 5000 -SN OVC002/// 01/01 Q0996=
202101200450 METAR ESMX 200450Z AUTO 13005KT 6000 -RA OVC002/// 01/01 Q0997=
202101200420 METAR ESMX 200420Z AUTO 13004KT 3700 -RA OVC001/// 01/01 Q0997=
202101200350 METAR ESMX 200350Z AUTO 13004KT 1800 -RASN OVC001/// 01/01 Q0997=
202101200320 METAR ESMX 200320Z AUTO 14004KT 0700 R01/1800N R19/P2000N -RA OVC001/// 01/01 Q0997=
202101200250 METAR ESMX 200250Z AUTO 14004KT 110V190 0900 R01/P2000N R19/P2000N DZ OVC001/// 01/01 Q0997 RESHUP=
202101200220 METAR ESMX 200220Z AUTO 14004KT 0600 R01/1600D R19/P2000N FG OVC001/// 01/01 Q0997 REUP=
202101200150 METAR ESMX 200150Z AUTO 14004KT 0700 R01/1800D R19/P2000N FG OVC001/// 01/01 Q0998 REDZ RESG=
202101200120 METAR ESMX 200120Z AUTO 14004KT 100V160 2400 BR OVC001/// 01/01 Q0998=
202101200050 METAR ESMX 200050Z AUTO 14004KT 110V170 3400 -RA OVC002/// 01/01 Q0998 RESG=
202101200020 METAR ESMX 200020Z AUTO 14004KT 7000 SG OVC002/// 01/01 Q0998 REDZ=
202101192350 METAR ESMX 192350Z AUTO 14004KT 110V180 5000 DZ OVC003/// 01/01 Q0998=
202101192320 METAR ESMX 192320Z AUTO 14004KT 100V170 7000 -RA OVC002/// 01/01 Q0999=
202101192250 METAR ESMX 192250Z AUTO 14004KT 3700 -SN OVC002/// 01/01 Q0999=
202101192220 METAR ESMX 192220Z AUTO 14004KT 100V170 7000 -RASN OVC002/// 01/01 Q0999=
202101192150 METAR ESMX 192150Z AUTO 15004KT 3500 -PL OVC001/// 01/01 Q0999 REUP=
202101192120 METAR ESMX 192120Z AUTO 15005KT 4200 UP OVC002/// 01/01 Q0999 RESHUP REDZ=
202101192050 METAR ESMX 192050Z AUTO 14005KT 090V160 9999 OVC003/// 01/01 Q0999=
202101192020 METAR ESMX 192020Z AUTO 14005KT 100V170 9999 OVC003/// 01/01 Q0999=
202101191950 METAR ESMX 191950Z AUTO 13005KT 100V180 8000 -SN OVC003/// 01/01 Q0999=
202101191920 METAR ESMX 191920Z AUTO 12004KT 090V150 7000 -SN OVC002/// 01/01 Q0999=
202101191850 METAR ESMX 191850Z AUTO 13004KT 3800 -SN OVC002/// 01/01 Q0999=
202101191820 METAR ESMX 191820Z AUTO 12004KT 070V180 4400 -SN OVC003/// 01/01 Q0999=
202101191750 METAR ESMX 191750Z AUTO 12005KT 070V170 7000 -RASN OVC003/// 01/01 Q1000 REDZ=
202101191720 METAR ESMX 191720Z AUTO 13005KT 080V150 7000 DZ OVC003/// 01/01 Q1000=
202101191650 METAR ESMX 191650Z AUTO 12005KT 070V150 7000 -RA OVC003/// 01/01 Q1000=
202101191620 METAR ESMX 191620Z AUTO 13004KT 090V150 5000 -RASN OVC003/// 01/01 Q1000=
202101191550 METAR ESMX 191550Z 12004KT 080V160 5000 -SN BR OVC002 01/01 Q1001=
202101191520 METAR ESMX 191520Z AUTO 11003KT 060V200 4100 -RA OVC002/// 01/01 Q1001=
202101191450 METAR ESMX 191450Z AUTO 13004KT 3200 -SN OVC002/// 01/01 Q1001 RERA=
202101191420 METAR ESMX 191420Z 13005KT 080V150 4200 -RASN BR OVC002 01/01 Q1001=
202101191350 METAR ESMX 191350Z 14005KT 2100 BR OVC002 01/01 Q1001=
202101191320 METAR ESMX 191320Z 13004KT 070V170 1000 R01/1300D R19/1800D -SN BR OVC002 01/01 Q1002=
202101191250 METAR ESMX 191250Z 14004KT 1600 BR OVC001 01/01 Q1002=
202101191220 METAR ESMX 191220Z 14006KT 100V170 2700 BR OVC002 01/01 Q1002=
202101191150 METAR ESMX 191150Z 14006KT 4300 BR OVC001 01/01 Q1003=
202101191120 METAR ESMX 191120Z 13005KT 080V150 0900 R01/1100N R19/1600D BR -SN OVC001 01/01 Q1003=
202101191050 METAR ESMX 191050Z 13005KT 1200 R01/1300N R19/P2000D BR OVC001 01/01 Q1003=
202101191020 METAR ESMX 191020Z 14004KT 2300 BR OVC001 01/01 Q1004=
202101190950 METAR COR ESMX 190950Z 13005KT 1900 BR OVC002 01/01 Q1004=
202101190920 METAR ESMX 190920Z 14005KT 110V170 0700 R01/0900N R19/1100N BR OVC001 01/01 Q1005=
202101190850 METAR ESMX 190850Z 14005KT 0400 R01/0700N R19/0900N BR OVC002 00/00 Q1005=
202101190820 METAR ESMX 190820Z 14004KT 110V200 0400 R01/0700N R19/0800D BR OVC002 00/00 Q1005=
202101190750 METAR ESMX 190750Z 15003KT 1200 R01/1900D R19/P2000N BR OVC002 00/00 Q1005=
202101190720 METAR COR ESMX 190720Z 16004KT 2100 BR OVC002 00/00 Q1005=
202101190650 METAR ESMX 190650Z AUTO 15004KT 1500 UP OVC001/// 00/00 Q1005 REFZRA=
202101190620 METAR ESMX 190620Z AUTO 16005KT 2000 -DZ OVC001/// 00/00 Q1005=
202101190550 METAR ESMX 190550Z AUTO 15006KT 1700 -DZ OVC001/// 00/00 Q1006 REUP=
202101190520 METAR ESMX 190520Z AUTO 16005KT 2600 BR OVC002/// 00/00 Q1006 REFZRA=
202101190450 METAR ESMX 190450Z AUTO 15006KT 4700 BR OVC002/// 00/00 Q1006=
202101190420 METAR ESMX 190420Z AUTO 17006KT 5000 BR OVC002/// 00/00 Q1006=
202101190350 METAR ESMX 190350Z AUTO 15007KT 5000 -DZ OVC003/// 00/00 Q1006=
202101190320 METAR ESMX 190320Z AUTO 16006KT 4500 -DZ OVC003/// 00/00 Q1007 REUP=
202101190250 METAR ESMX 190250Z AUTO 16006KT 3300 -RASN OVC002/// 00/00 Q1007=
202101190220 METAR ESMX 190220Z AUTO 15005KT 2000 -SN OVC002/// 00/00 Q1007=
202101190150 METAR ESMX 190150Z AUTO 15005KT 1800 -SN OVC001/// 00/00 Q1008=
202101190120 METAR ESMX 190120Z AUTO 15005KT 1800 -PL OVC002/// 00/00 Q1008=
202101190050 METAR ESMX 190050Z AUTO 15006KT 2000 -PL OVC002/// 00/00 Q1008=
202101190020 METAR ESMX 190020Z AUTO 14007KT 110V170 3000 -RASN OVC003/// 00/00 Q1008 RESHUP=
202101182350 METAR ESMX 182350Z AUTO 14006KT 110V190 3000 UP OVC003/// 00/00 Q1008 RESN=
202101182320 METAR ESMX 182320Z AUTO 14005KT 090V180 3500 -SN OVC003/// 00/M00 Q1009 RESG=
202101182250 METAR ESMX 182250Z AUTO 15006KT 2800 -SN OVC002/// M00/M00 Q1009 REFZUP=
202101182220 METAR ESMX 182220Z AUTO 16006KT 2800 BR OVC002/// M00/M00 Q1009=
202101182150 METAR ESMX 182150Z AUTO 15006KT 4500 BR OVC002/// M00/M01 Q1009=
202101182120 METAR ESMX 182120Z AUTO 15007KT 9000 BR OVC004/// M01/M01 Q1010=
202101182050 METAR ESMX 182050Z AUTO 14005KT 110V170 9999 OVC005/// M01/M01 Q1010=
202101182020 METAR ESMX 182020Z AUTO 15006KT 9999 BKN005/// OVC007/// M01/M01 Q1010 RESG REFZUP=
202101181950 METAR ESMX 181950Z AUTO 16005KT 9999 FZUP OVC007/// M01/M01 Q1010=
202101181920 METAR ESMX 181920Z AUTO 16005KT 9999 -SN FEW001/// BKN008/// OVC032/// M01/M02 Q1010 RESG REFZUP=
202101181850 METAR ESMX 181850Z AUTO 17007KT 140V200 9999 OVC009/// M01/M02 Q1011=
202101181820 METAR ESMX 181820Z AUTO 16008KT 9999 SCT010/// BKN016/// OVC032/// M01/M02 Q1011=
202101181750 METAR ESMX 181750Z AUTO 17007KT 9999 OVC015/// M01/M03 Q1011=
202101181720 METAR ESMX 181720Z AUTO 16008KT 9999 OVC012/// M01/M03 Q1011=
202101181650 METAR ESMX 181650Z AUTO 18008KT 9999 FEW005/// OVC010/// M01/M03 Q1011=
202101181620 METAR ESMX 181620Z AUTO 18008KT 9999 SG OVC010/// M01/M03 Q1011 RESN=
202101181550 METAR ESMX 181550Z AUTO 17008KT 9999 OVC012/// M01/M03 Q1012=
202101181520 METAR ESMX 181520Z AUTO 17007KT 9999 -SN OVC013/// M01/M03 Q1012 RESG=
202101181450 METAR ESMX 181450Z AUTO 19008KT 3100 SG OVC015/// M01/M02 Q1012 REFZUP=
202101181420 METAR ESMX 181420Z 19008KT 9999 BKN013 M01/M03 Q1012=
202101181350 METAR ESMX 181350Z 19009KT 9999 BKN015 BKN019 M01/M03 Q1012=
202101181320 METAR ESMX 181320Z 19008KT 9999 BKN021 M01/M03 Q1013=
202101181250 METAR ESMX 181250Z 18007KT 9999 FEW012 BKN024 OVC030 M01/M03 Q1013=
202101181220 METAR ESMX 181220Z 17007KT 140V200 9999 SCT010 BKN033 M01/M02 Q1014=
202101181150 METAR ESMX 181150Z 19005KT 9999 BKN008 M02/M02 Q1014=
202101181120 METAR ESMX 181120Z AUTO 17004KT 9999 BKN007/// OVC045/// M02/M02 Q1014=
202101181050 METAR ESMX 181050Z 19005KT 9999 BKN006 M02/M02 Q1014=
202101181020 METAR ESMX 181020Z 20004KT 8000 BR OVC004 M02/M02 Q1015=
202101180950 METAR ESMX 180950Z 20004KT 8000 BR BKN004 M03/M03 Q1015=
202101180920 METAR ESMX 180920Z 16003KT 120V190 6000 BR OVC002 M03/M03 Q1015=
202101180850 METAR ESMX 180850Z 18003KT 6000 BR OVC002 M03/M03 Q1015 REDZ=
202101180820 METAR ESMX 180820Z 18003KT 5000 BR OVC002 M03/M04 Q1016=
202101180750 METAR ESMX 180750Z 20003KT 5000 SG BKN002 M04/M04 Q1016=
202101180720 METAR ESMX 180720Z 20003KT 2000 BR BKN002 M04/M04 Q1016=
202101180650 METAR ESMX 180650Z AUTO 22003KT 3500 OVC001/// M05/M05 Q1016=
202101180620 METAR ESMX 180620Z AUTO 22003KT 0600 R01/1700N R19/1400U BCFG OVC001/// M05/M05 Q1016=
202101180550 METAR ESMX 180550Z AUTO 22003KT 0450 R01/1500U R19/1200N FZFG OVC001/// M05/M06 Q1016=
202101180520 METAR ESMX 180520Z AUTO 22004KT 0300 R01/1400U R19/0900N FZFG OVC001/// M06/M06 Q1016=
202101180450 METAR ESMX 180450Z AUTO 20006KT 0550 R01/1800D R19/1600D FZFG BKN001/// OVC044/// M06/M06 Q1016=
202101180420 METAR ESMX 180420Z AUTO 22004KT 9999 OVC043/// M06/M06 Q1016=
202101180350 METAR ESMX 180350Z AUTO 22003KT 8000 BR OVC042/// M06/M06 Q1017=
202101180320 METAR ESMX 180320Z AUTO 22004KT 9000 BR FEW041/// M07/M07 Q1017=
202101180250 METAR ESMX 180250Z AUTO 23003KT 0450 R01/P2000N R19/1200N NCD M08/M08 Q1017=
202101180220 METAR ESMX 180220Z AUTO 23003KT 1200 R01/P2000N R19/P2000N NCD M06/M06 Q1017=
202101180150 METAR ESMX 180150Z AUTO 23003KT 9999 NCD M04/M05 Q1017=
202101180120 METAR ESMX 180120Z AUTO 21004KT 9999 BKN007/// M04/M05 Q1017=
202101180050 METAR ESMX 180050Z AUTO 22004KT 9999 BKN007/// OVC009/// M03/M04 Q1018=
202101180020 METAR ESMX 180020Z AUTO 22005KT 9999 BKN005/// OVC016/// M03/M03 Q1018=
202101172350 METAR ESMX 172350Z AUTO 23003KT 9999 FEW002/// OVC015/// M03/M03 Q1018=
202101172320 METAR ESMX 172320Z AUTO 23005KT 9999 FEW002/// OVC004/// M02/M03 Q1018=
202101172250 METAR ESMX 172250Z AUTO 16003KT 9999 OVC005/// M03/M03 Q1018=
202101172220 METAR ESMX 172220Z AUTO 16004KT 9999 OVC005/// M03/M04 Q1018=
202101172150 METAR ESMX 172150Z AUTO 16004KT 9999 -SN OVC006/// M03/M04 Q1018 RESG=
202101172120 METAR ESMX 172120Z AUTO 16004KT 9999 SG BKN007/// OVC027/// M03/M04 Q1019=
202101172050 METAR ESMX 172050Z AUTO 18004KT 9999 SG OVC032/// M03/M05 Q1019 RESG REFZUP=
202101172020 METAR ESMX 172020Z AUTO 16004KT 9999 FZUP OVC038/// M03/M06 Q1019=
202101171950 METAR ESMX 171950Z AUTO 15004KT 9999 OVC043/// M03/M06 Q1019=
202101171920 METAR ESMX 171920Z AUTO 15003KT 9999 OVC044/// M03/M06 Q1019=
202101171850 METAR ESMX 171850Z AUTO 14003KT 9999 OVC042/// M03/M06 Q1019=
202101171820 METAR ESMX 171820Z AUTO 15004KT 9999 OVC040/// M03/M06 Q1019=
202101171750 METAR ESMX 171750Z AUTO 16003KT 9999 OVC039/// M03/M05 Q1019=
202101171720 METAR ESMX 171720Z AUTO 16003KT 9999 OVC038/// M03/M06 Q1019=
202101171650 METAR ESMX 171650Z 16003KT 130V190 9999 OVC039 M03/M06 Q1019=
202101171620 METAR ESMX 171620Z 17004KT 9999 OVC040 M03/M06 Q1019=
202101171550 METAR ESMX 171550Z 16003KT 9999 OVC040 M03/M06 Q1019=
202101171520 METAR ESMX 171520Z 16003KT 9999 BKN038 M02/M06 Q1019=
202101171450 METAR ESMX 171450Z AUTO 16003KT 9999 OVC038/// M02/M06 Q1019=
202101171420 METAR ESMX 171420Z 15003KT 110V190 9999 BKN037 M02/M06 Q1019=
202101171350 METAR ESMX 171350Z VRB02KT 9999 BKN037 M02/M07 Q1019=
202101171320 METAR ESMX 171320Z AUTO 16003KT 9999 OVC036/// M02/M06 Q1019=
202101171250 METAR ESMX 171250Z AUTO 16004KT 9999 OVC035/// M02/M06 Q1019=
202101171220 METAR ESMX 171220Z AUTO 19004KT 9999 OVC035/// M02/M07 Q1019=
202101171150 METAR ESMX 171150Z AUTO 18004KT 9999 OVC035/// M02/M07 Q1019=
202101171120 METAR ESMX 171120Z AUTO 13002KT 9999 OVC033/// M02/M07 Q1019=
202101171050 METAR ESMX 171050Z AUTO VRB01KT 9999 OVC031/// M02/M08 Q1020=
202101171020 METAR ESMX 171020Z AUTO VRB03KT 9999 OVC031/// M02/M07 Q1020=
202101170950 METAR ESMX 170950Z AUTO 12004KT 060V150 9999 OVC031/// M02/M07 Q1019=
202101170920 METAR ESMX 170920Z AUTO 10004KT 070V140 9999 OVC032/// M03/M07 Q1019=
202101170850 METAR ESMX 170850Z AUTO 10003KT 060V150 9999 OVC031/// M03/M06 Q1019=
202101170820 METAR ESMX 170820Z AUTO 11003KT 9999 -SN OVC030/// M03/M06 Q1019 RESG REFZUP RESHUP=
202101170750 METAR ESMX 170750Z AUTO 15002KT 9999 OVC030/// M03/M05 Q1019=
202101170720 METAR ESMX 170720Z AUTO VRB02KT 9999 OVC030/// M03/M05 Q1019=
202101170650 METAR ESMX 170650Z AUTO 14003KT 9999 OVC030/// M03/M05 Q1019=
202101170620 METAR ESMX 170620Z AUTO 13003KT 9999 OVC030/// M03/M05 Q1018=
202101170550 METAR ESMX 170550Z AUTO VRB02KT 9999 OVC030/// M03/M05 Q1018=
202101170520 METAR ESMX 170520Z AUTO 11002KT 9999 OVC029/// M03/M04 Q1018=
202101170450 METAR ESMX 170450Z AUTO VRB03KT 9999 OVC029/// M03/M04 Q1018=
202101170420 METAR ESMX 170420Z AUTO 10002KT 9999 OVC029/// M03/M04 Q1018=
202101170350 METAR ESMX 170350Z AUTO VRB02KT 9999 OVC029/// M03/M04 Q1018=
202101170320 METAR ESMX 170320Z AUTO 11002KT 9999 OVC028/// M03/M04 Q1018=
202101170250 METAR ESMX 170250Z AUTO 00000KT 9999 OVC028/// M03/M03 Q1018=
202101170220 METAR ESMX 170220Z AUTO 00000KT 9999 OVC027/// M03/M03 Q1018=
202101170150 METAR ESMX 170150Z AUTO 09003KT 9999 OVC027/// M02/M03 Q1018=
202101170120 METAR ESMX 170120Z AUTO 08003KT 010V120 9999 FEW007/// OVC027/// M02/M03 Q1018=
202101170050 METAR ESMX 170050Z AUTO 09002KT 9999 FEW007/// OVC030/// M02/M03 Q1018=
202101170020 METAR ESMX 170020Z AUTO 06003KT 9999 BKN007/// OVC008/// M02/M03 Q1018=
202101162350 METAR ESMX 162350Z AUTO VRB02KT 9999 OVC007/// M02/M03 Q1018=
202101162320 METAR ESMX 162320Z AUTO 08002KT 9999 OVC007/// M02/M03 Q1018=
202101162250 METAR ESMX 162250Z AUTO 10002KT 9999 OVC007/// M02/M03 Q1018=
202101162220 METAR ESMX 162220Z AUTO 08003KT 9999 OVC007/// M02/M03 Q1018=
202101162150 METAR ESMX 162150Z AUTO 05005KT 020V110 9999 BKN008/// OVC029/// M03/M03 Q1018=
202101162120 METAR ESMX 162120Z AUTO 04004KT 9999 BKN007/// OVC030/// M03/M03 Q1018=
202101162050 METAR ESMX 162050Z AUTO 02006KT 9999 OVC007/// M03/M03 Q1018=
202101162020 METAR ESMX 162020Z AUTO 02005KT 9999 OVC007/// M03/M04 Q1018=
202101161950 METAR ESMX 161950Z AUTO 03005KT 9999 OVC008/// M03/M04 Q1018=
202101161920 METAR ESMX 161920Z AUTO 36006KT 9999 OVC007/// M03/M04 Q1018=
202101161850 METAR ESMX 161850Z AUTO 03007KT 9999 OVC007/// M03/M04 Q1018=
202101161820 METAR ESMX 161820Z AUTO 03007KT 9999 OVC007/// M03/M03 Q1018=
202101161750 METAR ESMX 161750Z AUTO 04006KT 9999 OVC007/// M03/M03 Q1018=
202101161720 METAR ESMX 161720Z AUTO 04005KT 010V070 9999 OVC007/// M03/M04 Q1018=
202101161650 METAR ESMX 161650Z AUTO 03007KT 360V060 9999 OVC007/// M03/M04 Q1018=
202101161620 METAR ESMX 161620Z AUTO 03009KT 9999 OVC007/// M03/M04 Q1018=
202101161550 METAR ESMX 161550Z AUTO 02008KT 9999 OVC008/// M02/M04 Q1018=
202101161520 METAR ESMX 161520Z AUTO 01009KT 9999 OVC008/// M02/M04 Q1018=
202101161450 METAR ESMX 161450Z AUTO 01008KT 9999 OVC009/// M02/M04 Q1018=
202101161420 METAR ESMX 161420Z AUTO 35007KT 320V020 9999 OVC010/// M02/M04 Q1018=
202101161350 METAR ESMX 161350Z AUTO 34005KT 9999 OVC012/// M02/M04 Q1018=
202101161320 METAR ESMX 161320Z AUTO 34006KT 9999 OVC012/// M02/M05 Q1018=
202101161250 METAR ESMX 161250Z AUTO 34008KT 9999 FEW013/// M03/M05 Q1018=
202101161220 METAR ESMX 161220Z AUTO 34008KT 9999 FEW040/// M03/M06 Q1018=
202101161150 METAR ESMX 161150Z AUTO 35008KT 9999 BKN037/// M03/M06 Q1018=
202101161120 METAR ESMX 161120Z AUTO 33006KT 9999 FEW039/// M04/M06 Q1018=
202101161050 METAR ESMX 161050Z AUTO 31007KT 9999 SCT038/// M05/M07 Q1019=
202101161020 METAR ESMX 161020Z AUTO 33008KT 9999 FEW036/// M05/M07 Q1019=
202101160950 METAR ESMX 160950Z AUTO 33007KT 9999 NCD M06/M08 Q1019=
202101160920 METAR ESMX 160920Z AUTO 27004KT 9999 NCD M08/M09 Q1019=
202101160850 METAR ESMX 160850Z AUTO 28006KT 9999 NCD M09/M10 Q1019=
202101160820 METAR ESMX 160820Z AUTO 28004KT 9999 NCD M08/M10 Q1019=
202101160750 METAR ESMX 160750Z AUTO 30004KT 9999 NCD M09/M10 Q1020=
202101160720 METAR ESMX 160720Z AUTO 29006KT 9999 NCD M09/M10 Q1020=
202101160650 METAR ESMX 160650Z AUTO 28005KT 9999 NCD M09/M10 Q1020=
202101160620 METAR ESMX 160620Z AUTO 30006KT 9999 NCD M08/M09 Q1020=
202101160550 METAR ESMX 160550Z AUTO 30006KT 9999 NCD M08/M09 Q1020=
202101160520 METAR ESMX 160520Z AUTO 30005KT 280V340 9999 BKN160/// M08/M09 Q1021=
202101160450 METAR ESMX 160450Z AUTO 31006KT 9999 OVC160/// M08/M09 Q1021=
202101160420 METAR ESMX 160420Z AUTO 31005KT 9999 OVC160/// M08/M09 Q1021=
202101160350 METAR ESMX 160350Z AUTO 30004KT 9999 OVC160/// M09/M09 Q1021=
202101160320 METAR ESMX 160320Z AUTO 27003KT 9999 OVC160/// M09/M10 Q1021=
202101160250 METAR ESMX 160250Z AUTO 27004KT 9999 OVC160/// M09/M10 Q1022=
202101160220 METAR ESMX 160220Z AUTO 27003KT 9999 OVC160/// M09/M10 Q1022=
202101160150 METAR ESMX 160150Z AUTO 29003KT 9999 OVC150/// M09/M10 Q1022=
202101160120 METAR ESMX 160120Z AUTO 33004KT 9999 OVC150/// M09/M10 Q1022=
202101160050 METAR ESMX 160050Z AUTO 30005KT 9999 BKN150/// M10/M11 Q1023=
202101160020 METAR ESMX 160020Z AUTO 32007KT 280V350 9999 BKN150/// M09/M10 Q1023=
202101152350 METAR ESMX 152350Z AUTO 32005KT 9999 OVC150/// M09/M10 Q1023=
202101152320 METAR ESMX 152320Z AUTO 30005KT 9999 FEW009/// OVC150/// M10/M11 Q1024=
202101152250 METAR ESMX 152250Z AUTO 30004KT 9999 FEW009/// BKN150/// M10/M11 Q1024=
202101152220 METAR ESMX 152220Z AUTO 35007KT 9999 FEW009/// M09/M10 Q1024=
202101152150 METAR ESMX 152150Z AUTO 35007KT 9999 BKN010/// M08/M10 Q1024=
202101152120 METAR ESMX 152120Z AUTO 35008KT 9999 OVC011/// M10/M11 Q1024=
202101152050 METAR ESMX 152050Z AUTO 34006KT 9999 OVC012/// M10/M11 Q1024=
202101152020 METAR ESMX 152020Z AUTO 33006KT 9999 OVC013/// M10/M11 Q1024 RESG=
202101151950 METAR ESMX 151950Z AUTO 31006KT 9999 BKN016/// M10/M11 Q1024=
202101151920 METAR ESMX 151920Z AUTO 32005KT 9999 NCD M10/M11 Q1024=
202101151850 METAR ESMX 151850Z AUTO 31006KT 9999 FEW009/// M10/M11 Q1024=
202101151820 METAR ESMX 151820Z AUTO 33006KT 9999 OVC010/// M09/M10 Q1024=
202101151750 METAR ESMX 151750Z AUTO 33009KT 9999 OVC010/// M08/M10 Q1024=
202101151720 METAR ESMX 151720Z AUTO 33007KT 9999 OVC011/// M08/M10 Q1024=
202101151650 METAR ESMX 151650Z AUTO 33006KT 9999 BKN012/// M08/M10 Q1024=
202101151620 METAR ESMX 151620Z AUTO 31006KT 9999 OVC010/// M08/M10 Q1024=
202101151550 METAR ESMX 151550Z AUTO 32006KT 9999 OVC010/// M08/M09 Q1024=
202101151520 METAR ESMX 151520Z AUTO 32007KT 9999 OVC011/// M07/M09 Q1024=
202101151450 METAR ESMX 151450Z AUTO 31008KT 9999 OVC012/// M07/M09 Q1023=
202101151420 METAR ESMX 151420Z 33007KT 300V010 9999 SCT014 M07/M09 Q1023=
202101151350 METAR ESMX 151350Z 33007KT 9999 SCT014 M06/M09 Q1023=
202101151320 METAR ESMX 151320Z 33008KT 9999 FEW013 M06/M09 Q1023=
202101151250 METAR ESMX 151250Z AUTO 31008KT 9999 FEW130/// M06/M09 Q1023=
202101151220 METAR ESMX 151220Z 33008KT 300V010 CAVOK M07/M09 Q1024=
202101151150 METAR ESMX 151150Z 34008KT CAVOK M07/M09 Q1024=
202101151120 METAR ESMX 151120Z 34008KT CAVOK M08/M10 Q1024=
202101151050 METAR ESMX 151050Z 35009KT CAVOK M08/M10 Q1024=
202101151020 METAR COR ESMX 151020Z 35009KT 9999 FEW023 M08/M10 Q1024=
202101150950 METAR ESMX 150950Z 35007KT CAVOK M08/M10 Q1024=
202101150920 METAR ESMX 150920Z 34008KT CAVOK M09/M10 Q1024=
202101150850 METAR ESMX 150850Z 35007KT CAVOK M09/M10 Q1023=
202101150820 METAR ESMX 150820Z 35008KT CAVOK M09/M11 Q1023=
202101150750 METAR ESMX 150750Z AUTO 35009KT 9999 NCD M10/M11 Q1023=
202101150720 METAR ESMX 150720Z 35009KT CAVOK M10/M11 Q1023=
202101150650 METAR ESMX 150650Z AUTO 34010KT 9999 NCD M10/M11 Q1023=
202101150620 METAR ESMX 150620Z AUTO 35010KT 9999 NCD M10/M11 Q1022=
202101150550 METAR ESMX 150550Z AUTO 35011KT 9999 NCD M09/M11 Q1022=
202101150520 METAR ESMX 150520Z AUTO 36010KT 9999 NCD M09/M10 Q1022=
202101150450 METAR ESMX 150450Z AUTO 36011KT 9999 NCD M09/M11 Q1022=
202101150420 METAR ESMX 150420Z AUTO 34010KT 9999 SCT100/// M09/M11 Q1022=
202101150350 METAR ESMX 150350Z AUTO 35010KT 9999 BKN110/// M08/M10 Q1022=
202101150320 METAR ESMX 150320Z AUTO 34011KT 9999 SCT120/// M08/M10 Q1022=
202101150250 METAR ESMX 150250Z AUTO 34010KT 9999 NCD M08/M09 Q1022=
202101150220 METAR ESMX 150220Z AUTO 35011KT 9999 NCD M07/M09 Q1022=
202101150150 METAR ESMX 150150Z AUTO 35010KT 9999 NCD M07/M09 Q1022=
202101150120 METAR ESMX 150120Z AUTO 35008KT 9999 NCD M07/M09 Q1022=
202101150050 METAR ESMX 150050Z AUTO 36009KT 9999 NCD M07/M08 Q1022=
202101150020 METAR ESMX 150020Z AUTO 36011KT 9999 NCD M07/M08 Q1022=
202101142350 METAR ESMX 142350Z AUTO 36011KT 9999 NCD M07/M08 Q1022=
202101142320 METAR ESMX 142320Z AUTO 36011KT 9999 NCD M06/M08 Q1022=
202101142250 METAR ESMX 142250Z AUTO 35013KT 9999 NCD M06/M08 Q1022=
202101142220 METAR ESMX 142220Z AUTO 36010KT 9999 SCT012/// BKN120/// M05/M07 Q1022=
202101142150 METAR ESMX 142150Z AUTO 01011KT 9999 FEW012/// OVC120/// M05/M07 Q1021=
202101142120 METAR ESMX 142120Z AUTO 01010KT 9999 SCT094/// OVC120/// M04/M06 Q1021=
202101142050 METAR ESMX 142050Z AUTO 01010KT 9999 BKN086/// OVC100/// M04/M06 Q1021=
202101142020 METAR ESMX 142020Z AUTO 01012KT 9999 OVC088/// M04/M06 Q1021=
202101141950 METAR ESMX 141950Z AUTO 02011KT 9999 BKN043/// OVC088/// M04/M06 Q1021=
202101141920 METAR ESMX 141920Z AUTO 01011KT 9999 SG BKN013/// OVC040/// M04/M06 Q1021=
202101141850 METAR ESMX 141850Z AUTO 02012KT 9999 SG SCT014/// BKN020/// OVC037/// M03/M06 Q1021 RESG REFZUP=
202101141820 METAR ESMX 141820Z AUTO 01012KT 9999 OVC013/// M03/M06 Q1021=
202101141750 METAR ESMX 141750Z AUTO 02010KT 9999 BKN014/// OVC035/// M03/M05 Q1021=
202101141720 METAR ESMX 141720Z AUTO 36011KT 9999 SCT016/// OVC035/// M03/M05 Q1021=
202101141650 METAR ESMX 141650Z AUTO 01011KT 9999 SCT035/// OVC120/// M03/M06 Q1021=
202101141620 METAR ESMX 141620Z AUTO 36011KT 9999 FEW016/// BKN026/// OVC120/// M03/M05 Q1020=
202101141550 METAR ESMX 141550Z AUTO 35011KT 9999 OVC015/// M03/M05 Q1020=
202101141520 METAR ESMX 141520Z AUTO 01011KT 9999 OVC013/// M02/M04 Q1020=
202101141450 METAR ESMX 141450Z AUTO 01009KT 9999 OVC015/// M02/M04 Q1020=
202101141420 METAR ESMX 141420Z 02011KT 9999 BKN017 M02/M05 Q1020=
202101141350 METAR ESMX 141350Z 01011KT 9999 BKN016 M02/M05 Q1020=
202101141320 METAR COR ESMX 141320Z 36011KT 9999 SCT011 M02/M04 Q1020=
202101141250 METAR ESMX 141250Z 02012KT 9999 BKN011 M02/M04 Q1019=
202101141220 METAR ESMX 141220Z 01013KT 9999 BKN010 M02/M03 Q1019=
202101141150 METAR ESMX 141150Z 01014KT 9999 BKN009 M02/M03 Q1019=
202101141120 METAR ESMX 141120Z 36011KT 9999 BKN009 M01/M03 Q1019=
202101141050 METAR COR ESMX 141050Z 03010KT 9999 BKN013 M01/M03 Q1019=
202101141020 METAR ESMX 141020Z 01012KT 9999 BKN013 M01/M03 Q1019=
202101140950 METAR ESMX 140950Z 01014KT 9999 BKN012 M01/M03 Q1018=
202101140920 METAR ESMX 140920Z 02011KT 9999 BKN013 M01/M03 Q1018=
202101140850 METAR ESMX 140850Z 01012KT 9999 BKN012 M01/M02 Q1017=
202101140820 METAR ESMX 140820Z 02013KT 9999 BKN012 M01/M02 Q1017=
202101140750 METAR ESMX 140750Z 01013KT 9999 BKN012 M00/M02 Q1017=
202101140720 METAR ESMX 140720Z 01013KT 9999 BKN014 M00/M02 Q1016=
202101140650 METAR ESMX 140650Z 01014KT 9999 BKN013 M00/M02 Q1015=
202101140620 METAR ESMX 140620Z AUTO 02012KT 9999 OVC012/// M00/M02 Q1015=
202101140550 METAR ESMX 140550Z AUTO 01014KT 9999 -SN OVC010/// M00/M01 Q1014=
202101140520 METAR ESMX 140520Z AUTO 01012KT 9999 -SN BKN011/// OVC015/// M00/M01 Q1014=
202101140450 METAR ESMX 140450Z AUTO 01014KT 9999 -SN BKN010/// OVC012/// M00/M01 Q1013=
202101140420 METAR ESMX 140420Z AUTO 01013KT 6000 -SN SCT002/// BKN009/// OVC011/// M00/M01 Q1013=
202101140350 METAR ESMX 140350Z AUTO 35013KT 9999 -SN OVC010/// M00/M01 Q1012=
202101140320 METAR ESMX 140320Z AUTO 36012KT 5000 -SN BKN010/// BKN030/// OVC040/// M00/M01 Q1012=
202101140250 METAR ESMX 140250Z AUTO 36012KT 9999 -SN BKN010/// OVC027/// M00/M01 Q1011=
202101140220 METAR ESMX 140220Z AUTO 36012KT 9999 -SN BKN010/// OVC013/// M00/M01 Q1011=
202101140150 METAR ESMX 140150Z AUTO 01012KT 9999 -SN OVC010/// M00/M01 Q1011 RESG=
202101140120 METAR ESMX 140120Z AUTO 01013KT 9999 SG OVC010/// M00/M01 Q1010 RESG=
202101140050 METAR ESMX 140050Z AUTO 36012KT 9999 SG OVC011/// M00/M01 Q1010=
202101140020 METAR ESMX 140020Z AUTO 01013KT 9999 -SN OVC011/// M00/M01 Q1009=
202101132350 METAR ESMX 132350Z AUTO 36013KT 9999 -SN OVC011/// M00/M01 Q1009 REFZUP REUP=
202101132320 METAR ESMX 132320Z AUTO 01013KT 9999 OVC010/// 00/M01 Q1008=
202101132250 METAR ESMX 132250Z AUTO 01013KT 9999 OVC009/// 00/M01 Q1008=
202101132220 METAR ESMX 132220Z AUTO 01014KT 9999 OVC009/// 00/M01 Q1008=
202101132150 METAR ESMX 132150Z AUTO 01012KT 9999 OVC008/// M00/M01 Q1007=
202101132120 METAR ESMX 132120Z AUTO 01012KT 9999 OVC008/// M00/M01 Q1007=
202101132050 METAR ESMX 132050Z AUTO 02011KT 340V040 9999 OVC007/// M00/M01 Q1006=
202101132020 METAR ESMX 132020Z AUTO 01011KT 9999 OVC008/// M00/M01 Q1006=
202101131950 METAR ESMX 131950Z AUTO 01011KT 9999 OVC009/// M01/M01 Q1005=
202101131920 METAR ESMX 131920Z AUTO 02013KT 9999 OVC009/// M01/M02 Q1005=
202101131850 METAR ESMX 131850Z AUTO 03013KT 9999 OVC009/// M01/M02 Q1004=
202101131820 METAR ESMX 131820Z AUTO 03014KT 9999 OVC009/// M01/M02 Q1004=
202101131750 METAR ESMX 131750Z AUTO 03012KT 9999 FEW010/// M01/M02 Q1003=
202101131720 METAR ESMX 131720Z AUTO 03014KT 9999 FEW016/// M01/M02 Q1003=
202101131650 METAR ESMX 131650Z AUTO 03012KT 9999 FEW009/// BKN024/// OVC036/// M00/M01 Q1002=
202101131620 METAR ESMX 131620Z AUTO 04012KT 2700 -SN VV010 M01/M01 Q1002 RESG REFZUP=
202101131550 METAR ESMX 131550Z AUTO 03011KT 9999 BKN008/// OVC014/// M01/M01 Q1001=
202101131520 METAR ESMX 131520Z AUTO 04011KT 9999 OVC007/// M01/M02 Q1001=
202101131450 METAR ESMX 131450Z AUTO 04011KT 9999 OVC006/// M01/M01 Q1001=
202101131420 METAR ESMX 131420Z 04009KT 9999 BKN005 M01/M02 Q1000=
202101131350 METAR ESMX 131350Z 04011KT 9999 BKN005 M02/M02 Q1000=
202101131320 METAR ESMX 131320Z 04010KT 9999 BKN005 OVC007 M02/M02 Q1000=
202101131250 METAR ESMX 131250Z 04009KT CAVOK M02/M03 Q0999=
202101131220 METAR ESMX 131220Z 05008KT 030V100 9999 SCT041 M02/M03 Q0999=
202101131150 METAR ESMX 131150Z 05007KT 030V100 9999 SCT041 M02/M03 Q0999=
202101131120 METAR ESMX 131120Z 05007KT 9999 SCT041 M01/M02 Q0999=
202101131050 METAR ESMX 131050Z 06005KT 020V120 9999 BKN036 M01/M02 Q0999=
202101131020 METAR ESMX 131020Z 06005KT 030V100 9999 BKN030 M01/M01 Q0999=
202101130950 METAR ESMX 130950Z 06006KT 030V090 9000 BKN005 M01/M01 Q0999=
202101130920 METAR ESMX 130920Z 05005KT 020V080 9000 -SN OVC004 M01/M01 Q0999=
202101130850 METAR ESMX 130850Z 06004KT 040V110 2100 -SN SCT002 OVC004 M01/M01 Q0998=
202101130820 METAR ESMX 130820Z 06004KT 4500 -SN BKN002 OVC004 M01/M01 Q0998=
202101130750 METAR ESMX 130750Z 08004KT 050V110 2000 SN OVC002 M01/M01 Q0998=
202101130720 METAR ESMX 130720Z 08003KT 030V120 5000 -SN SCT002 OVC004 M01/M01 Q0998=
202101130650 METAR ESMX 130650Z 11003KT 060V140 4000 -SN OVC002 M01/M01 Q0998=
202101130620 METAR ESMX 130620Z AUTO 11003KT 050V170 1200 R01/P2000N R19/P2000N -SN OVC002/// M01/M01 Q0997=
202101130550 METAR ESMX 130550Z AUTO 12005KT 060V150 7000 -SN OVC002/// M02/M02 Q0997 RESHUP=
202101130520 METAR ESMX 130520Z AUTO 12003KT 070V140 9999 -SN OVC002/// M02/M02 Q0997 RESHUP RESN=
202101130450 METAR ESMX 130450Z AUTO 12004KT 070V140 9000 BR OVC002/// M02/M02 Q0997=
202101130420 METAR ESMX 130420Z AUTO 12004KT 080V150 5000 -SN OVC002/// M02/M02 Q0997=
202101130350 METAR ESMX 130350Z AUTO 12004KT 2300 -SN OVC002/// M02/M02 Q0997 RESHUP REFZUP=
202101130320 METAR ESMX 130320Z AUTO 13004KT 110V170 3200 -SN OVC002/// M02/M02 Q0997 REFZUP=
202101130250 METAR ESMX 130250Z AUTO 15005KT 3300 OVC001/// M02/M02 Q0997=
202101130220 METAR ESMX 130220Z AUTO 13003KT 080V170 1800 OVC001/// M02/M02 Q0997=
202101130150 METAR ESMX 130150Z AUTO 14004KT 110V170 0900 R01/P2000N R19/P2000N=
202101130120 METAR ESMX 130120Z AUTO 16004KT 1300 R01/P2000N R19/P2000N BR OVC002/// M02/M02 Q0997=
202101130050 METAR ESMX 130050Z AUTO 19004KT 7000 BR OVC002/// M02/M02 Q0997=
202101130020 METAR ESMX 130020Z AUTO 18006KT 6000 BR OVC001/// M02/M02 Q0997=
202101122350 METAR ESMX 122350Z AUTO 20004KT 3700 BR OVC001/// M02/M02 Q0997=
202101122320 METAR ESMX 122320Z AUTO 20005KT 9999 OVC001/// M02/M02 Q0996=
202101122250 METAR ESMX 122250Z AUTO 19007KT 9000 BR OVC002/// M02/M02 Q0996=
202101122220 METAR ESMX 122220Z AUTO 19005KT 9999 OVC003/// M02/M02 Q0996=
202101122150 METAR ESMX 122150Z AUTO 22006KT 9999 OVC003/// M01/M01 Q0996=
202101122120 METAR ESMX 122120Z AUTO 22008KT 9999 OVC004/// M01/M01 Q0996=
202101122050 METAR ESMX 122050Z AUTO 21008KT 9999 BKN005/// OVC006/// M01/M01 Q0995=
202101122020 METAR ESMX 122020Z AUTO 19008KT 9999 FEW005/// M02/M02 Q0995=
202101121950 METAR ESMX 121950Z AUTO 20007KT 9999 -SN OVC043/// M01/M01 Q0995 REFZUP=
202101121920 METAR ESMX 121920Z AUTO 17006KT 9999 BKN044/// M01/M01 Q0995=
202101121850 METAR ESMX 121850Z AUTO 19006KT 9999 NCD M01/M02 Q0995=
202101121820 METAR ESMX 121820Z AUTO 20008KT 9999 SCT032/// M01/M02 Q0995=
202101121750 METAR ESMX 121750Z AUTO 19007KT 9999 BKN032/// M01/M01 Q0995=
202101121720 METAR ESMX 121720Z 20006KT 9999 BKN030 M01/M01 Q0995=
202101121650 METAR ESMX 121650Z 19007KT 9999 FEW020 BKN029 M01/M01 Q0994=
202101121620 METAR ESMX 121620Z 20007KT 9999 BKN023 BKN029 M01/M01 Q0994=
202101121550 METAR ESMX 121550Z 19006KT 9999 SCT017 BKN024 BKN034 M01/M01 Q0994=
202101121520 METAR ESMX 121520Z 20007KT 9999 FEW012 SCT018 BKN023 M01/M02 Q0994=
202101121450 METAR ESMX 121450Z 20007KT 9999 SCT015 BKN022 M00/M01 Q0994=
202101121420 METAR ESMX 121420Z 19006KT 9999 BKN016 BKN024 00/M01 Q0994=
202101121350 METAR ESMX 121350Z 20008KT 9999 BKN022 00/M01 Q0994=
202101121320 METAR ESMX 121320Z 20009KT 9999 BKN015 00/M01 Q0994=
202101121250 METAR ESMX 121250Z 20008KT 9999 BKN012 00/M01 Q0994=
202101121220 METAR ESMX 121220Z 20008KT 9999 SCT012 M00/M01 Q0994=
202101121150 METAR ESMX 121150Z 20008KT 9999 FEW010 BKN024 M00/M01 Q0994=
202101121120 METAR ESMX 121120Z 18007KT 9999 FEW010 SCT024 M00/M01 Q0994=
202101121050 METAR ESMX 121050Z 21005KT 9999 SCT025 M01/M02 Q0994=
202101121020 METAR ESMX 121020Z 22005KT 9999 SCT025 M01/M02 Q0994=
202101120950 METAR ESMX 120950Z 22005KT CAVOK M01/M02 Q0994=
202101120920 METAR ESMX 120920Z 23005KT CAVOK M02/M03 Q0994=
202101120850 METAR ESMX 120850Z 22006KT CAVOK M02/M03 Q0994=
202101120820 METAR ESMX 120820Z 24005KT CAVOK M02/M03 Q0994=
202101120750 METAR ESMX 120750Z 25006KT CAVOK M02/M03 Q0993=
202101120720 METAR ESMX 120720Z 27007KT CAVOK M02/M03 Q0993=
202101120650 METAR ESMX 120650Z AUTO 27008KT 9999 NCD M01/M03 Q0993=
202101120620 METAR ESMX 120620Z AUTO 29010KT 9999 FEW009/// M01/M02 Q0992=
202101120550 METAR ESMX 120550Z AUTO 28011KT 9999 SCT001/// BKN011/// OVC015/// M00/M01 Q0992=
202101120520 METAR ESMX 120520Z AUTO 29010KT 9999 FEW002/// OVC014/// 00/M00 Q0991=
202101120450 METAR ESMX 120450Z AUTO 27008KT 220V300 2200 -SN FEW005/// BKN007/// BKN010/// 01/00 Q0991=
202101120420 METAR ESMX 120420Z AUTO 26008KT 9999 -SN BKN007/// OVC012/// 01/01 Q0990=
202101120350 METAR ESMX 120350Z AUTO 27006KT 9999 SG FEW006/// SCT008/// OVC011/// 01/01 Q0990=
202101120320 METAR ESMX 120320Z AUTO 27006KT 1900 -SN VV010 01/01 Q0990 RERA=
202101120250 METAR ESMX 120250Z AUTO 25007KT 220V280 6000 -RASN BKN004/// OVC009/// 01/01 Q0990=
202101120220 METAR ESMX 120220Z AUTO 20012KT 6000 RA OVC005/// 02/02 Q0989 REDZ=
202101120150 METAR ESMX 120150Z AUTO 18015KT 7000 DZ OVC005/// 02/02 Q0989=
202101120120 METAR ESMX 120120Z AUTO 18015KT 9999 DZ OVC006/// 02/02 Q0990 REDZ=
202101120050 METAR ESMX 120050Z AUTO 18016KT 8000 DZ OVC005/// 02/02 Q0990=
202101120020 METAR ESMX 120020Z AUTO 18015KT 9000 DZ OVC005/// 02/02 Q0991=
202101112350 METAR ESMX 112350Z AUTO 18015KT 9999 DZ OVC005/// 02/02 Q0991=
202101112320 METAR ESMX 112320Z AUTO 18015KT 9999 -DZ OVC005/// 02/02 Q0992=
202101112250 METAR ESMX 112250Z AUTO 18017KT 9999 DZ OVC005/// 02/02 Q0992 REDZ=
202101112220 METAR ESMX 112220Z AUTO 18017KT 9000 -DZ OVC006/// 02/02 Q0993=
202101112150 METAR ESMX 112150Z AUTO 18017KT 9999 -RA OVC006/// 02/01 Q0993=
202101112120 METAR ESMX 112120Z AUTO 19016KT 9999 -RA OVC006/// 02/01 Q0994=
202101112050 METAR ESMX 112050Z AUTO 18017KT 9999 -RA OVC006/// 02/01 Q0994 REDZ=
202101112020 METAR ESMX 112020Z AUTO 18017KT 9999 DZ OVC007/// 02/02 Q0995=
202101111950 METAR ESMX 111950Z AUTO 18017KT 9999 DZ OVC007/// 02/02 Q0995=
202101111920 METAR ESMX 111920Z AUTO 18016KT 6000 -RA OVC006/// 02/02 Q0996=
202101111850 METAR ESMX 111850Z AUTO 18017G27KT 6000 -RA BKN006/// OVC008/// 02/02 Q0996 REDZ=
202101111820 METAR ESMX 111820Z AUTO 18016KT 6000 DZ OVC005/// 03/02 Q0997=
202101111750 METAR ESMX 111750Z AUTO 18016KT 5000 DZ OVC005/// 03/03 Q0997=
202101111720 METAR ESMX 111720Z AUTO 18015KT 7000 DZ OVC004/// 03/03 Q0998 REDZ=
202101111650 METAR ESMX 111650Z AUTO 18016KT 4700 -DZ OVC004/// 03/03 Q0998=
202101111620 METAR ESMX 111620Z AUTO 19016KT 5000 -DZ OVC003/// 03/03 Q0999 RERA=
202101111550 METAR ESMX 111550Z AUTO 19015KT 2700 -RA OVC002/// 03/03 Q1000 RESHUP REDZ=
202101111520 METAR ESMX 111520Z AUTO 19015KT 6000 BR OVC003/// 02/02 Q1000=
202101111450 METAR ESMX 111450Z AUTO 18015KT 9000 -DZ OVC004/// 02/02 Q1001=
202101111420 METAR ESMX 111420Z 18015KT 5000 DZ BKN004 02/02 Q1001=
202101111350 METAR ESMX 111350Z 18015KT 9000 DZ BKN004 02/02 Q1001=
202101111320 METAR ESMX 111320Z 18014KT 9999 -RA BKN004 02/02 Q1002=
202101111250 METAR ESMX 111250Z 18014KT 9999 -RA BKN004 02/02 Q1002=
202101111220 METAR ESMX 111220Z 18016KT 9999 BKN005 BKN007 02/02 Q1003=
202101111150 METAR ESMX 111150Z 17015KT 9999 -DZ BKN006 01/01 Q1004 RESN=
202101111120 METAR ESMX 111120Z 17015KT 9999 -DZ BKN005 BKN007 01/01 Q1004=
202101111050 METAR ESMX 111050Z 17014KT 7000 -SN FEW002 BKN005 BKN010 01/01 Q1005=
202101111020 METAR ESMX 111020Z 16011KT 4200 -SN BKN002 OVC004 01/01 Q1005=
202101110950 METAR ESMX 110950Z 16011KT 3800 -SN BKN003 01/01 Q1006=
202101110920 METAR ESMX 110920Z AUTO 15009KT 3800 -SN BKN003/// OVC005/// 00/00 Q1007=
202101110850 METAR ESMX 110850Z 16010KT 4200 -SN BKN002 00/00 Q1007=
202101110820 METAR ESMX 110820Z 17009KT 2200 SG BKN002 M00/M00 Q1008=
202101110750 METAR ESMX 110750Z 17008KT 8000 BR BKN003 M00/M01 Q1008=
202101110720 METAR ESMX 110720Z 17009KT 9999 BKN005 M00/M01 Q1009=
202101110650 METAR ESMX 110650Z AUTO 18010KT 9999 OVC005/// M00/M01 Q1009=
202101110620 METAR ESMX 110620Z AUTO 20010KT 9999 OVC005/// M00/M01 Q1009=
202101110550 METAR ESMX 110550Z AUTO 19010KT 9999 OVC006/// M00/M01 Q1009=
202101110520 METAR ESMX 110520Z AUTO 18010KT 9999 OVC007/// M00/M01 Q1010=
202101110450 METAR ESMX 110450Z AUTO 20010KT 9999 BKN008/// OVC010/// M00/M01 Q1010=
202101110420 METAR ESMX 110420Z AUTO 20008KT 9999 FEW007/// SCT009/// BKN013/// M00/M01 Q1010=
202101110350 METAR ESMX 110350Z AUTO 19007KT 9999 SCT005/// OVC017/// M00/M00 Q1010=
202101110320 METAR ESMX 110320Z AUTO 18007KT 9999 FEW010/// SCT015/// OVC019/// 00/M00 Q1011=
202101110250 METAR ESMX 110250Z AUTO 22008KT 9999 FEW009/// BKN012/// OVC017/// 00/M00 Q1011=
202101110220 METAR ESMX 110220Z AUTO 21006KT 9999 OVC016/// M00/M00 Q1011=
202101110150 METAR ESMX 110150Z AUTO 23007KT 9999 SCT005/// BKN007/// BKN010/// 00/M00 Q1012=
202101110120 METAR ESMX 110120Z AUTO 22006KT 9999 BKN006/// OVC012/// 00/M00 Q1012=
202101110050 METAR ESMX 110050Z AUTO 23007KT 9999 OVC005/// 00/M00 Q1011=
202101110020 METAR ESMX 110020Z AUTO 24007KT 9999 OVC004/// 00/00 Q1012=
202101102350 METAR ESMX 102350Z AUTO 23007KT 9999 OVC004/// 00/M00 Q1012=
202101102320 METAR ESMX 102320Z AUTO 22008KT 9999 OVC004/// 00/M00 Q1012 REUP=
202101102250 METAR ESMX 102250Z AUTO 23006KT 9999 OVC005/// 00/M00 Q1012=
202101102220 METAR ESMX 102220Z AUTO 21007KT 9999 OVC005/// M00/M00 Q1012=
202101102150 METAR ESMX 102150Z AUTO 22007KT 9999 BKN008/// BKN010/// OVC036/// M00/M00 Q1012=
202101102120 METAR ESMX 102120Z AUTO 22007KT 9999 SCT010/// OVC035/// M01/M01 Q1012=
202101102050 METAR ESMX 102050Z AUTO 22006KT 9999 FEW004/// SCT007/// BKN011/// M00/M00 Q1012 RESHUP RESG=
202101102020 METAR ESMX 102020Z AUTO 22006KT 9999 FZUP SCT006/// BKN009/// OVC012/// M00/M00 Q1013 REFZUP RESG=
202101101950 METAR ESMX 101950Z AUTO 22006KT 9999 FEW006/// BKN015/// BKN029/// M00/M01 Q1013=
202101101920 METAR ESMX 101920Z AUTO 22005KT 9999 FEW018/// OVC038/// M01/M01 Q1013=
202101101850 METAR ESMX 101850Z AUTO 22006KT 9999 BKN007/// BKN037/// 00/M00 Q1013=
202101101820 METAR ESMX 101820Z AUTO 23008KT 9999 OVC005/// 00/M00 Q1013=
202101101750 METAR ESMX 101750Z AUTO 24008KT 9999 OVC006/// 00/M00 Q1013=
202101101720 METAR ESMX 101720Z AUTO 23009KT 210V280 9999 OVC005/// 00/00 Q1013=
202101101650 METAR ESMX 101650Z AUTO 21009KT 9999 BKN006/// OVC007/// 00/00 Q1013=
202101101620 METAR ESMX 101620Z AUTO 21008KT 9999 BKN006/// OVC008/// 00/00 Q1013=
202101101550 METAR ESMX 101550Z AUTO 23007KT 9999 OVC006/// 00/00 Q1013=
202101101520 METAR ESMX 101520Z AUTO 22008KT 9000 -RASN BKN007/// OVC009/// 00/00 Q1013=
202101101450 METAR ESMX 101450Z AUTO 22009KT 6000 -SN FEW002/// OVC006/// 00/00 Q1013 REUP=
202101101420 METAR ESMX 101420Z 21010KT 9999 -SN BKN007 00/00 Q1013=
202101101350 METAR ESMX 101350Z 22010KT 5000 -SN FEW002 BKN005 00/00 Q1013=
202101101320 METAR ESMX 101320Z 20011KT 5000 -SN FEW002 BKN005 00/00 Q1013=
202101101250 METAR ESMX 101250Z AUTO 21012KT 3700 -SN FEW002/// OVC005/// 00/M00 Q1013=
202101101220 METAR ESMX 101220Z AUTO 19011KT 1900 R01/1800N R19/1300U -SN SCT001/// BKN006/// OVC013/// M00/M00 Q1014=
202101101150 METAR ESMX 101150Z AUTO 19012KT 1400 R01/1900D R19/1700D -SN BKN002/// BKN010/// OVC014/// 00/M00 Q1014 RESG=
202101101120 METAR ESMX 101120Z AUTO 18014KT 8000 SG OVC010/// 00/M01 Q1014=
202101101050 METAR ESMX 101050Z AUTO 19015KT 9999 -SN SCT011/// BKN020/// BKN023/// 00/M01 Q1014 RESHUP=
202101101020 METAR ESMX 101020Z AUTO 19014KT 9999 -SN FEW012/// OVC021/// M00/M01 Q1015 RESN=
202101100950 METAR ESMX 100950Z AUTO 19014KT 9999 SCT010/// BKN031/// OVC088/// M00/M01 Q1015=
202101100920 METAR ESMX 100920Z AUTO 18012KT 9999 -SN FEW011/// OVC023/// M00/M02 Q1015 RESHUP REFZUP=
202101100850 METAR ESMX 100850Z AUTO 19011KT 9999 BKN023/// OVC090/// M01/M02 Q1016=
202101100820 METAR ESMX 100820Z AUTO 19011KT 9999 OVC100/// M01/M02 Q1016=
202101100750 METAR ESMX 100750Z AUTO 18010KT 9999 SCT024/// OVC120/// M01/M02 Q1016=
202101100720 METAR ESMX 100720Z AUTO 17009KT 9999 OVC023/// M01/M02 Q1016=
202101100650 METAR ESMX 100650Z AUTO 19009KT 9999 OVC022/// M01/M02 Q1017=
202101100620 METAR ESMX 100620Z AUTO 18008KT 9999 OVC022/// M01/M02 Q1017=
202101100550 METAR ESMX 100550Z AUTO 17007KT 9999 OVC022/// M02/M03 Q1017=
202101100520 METAR ESMX 100520Z AUTO 17007KT 9999 FEW007/// OVC021/// M02/M03 Q1017=
202101100450 METAR ESMX 100450Z AUTO 17007KT 9999 FEW006/// OVC020/// M02/M03 Q1018=
202101100420 METAR ESMX 100420Z AUTO 17006KT 9999 SCT006/// BKN014/// OVC019/// M02/M03 Q1018=
202101100350 METAR ESMX 100350Z AUTO 17005KT 9999 SCT006/// OVC012/// M03/M03 Q1019=
202101100320 METAR ESMX 100320Z AUTO 21004KT 9999 BKN006/// OVC011/// M03/M03 Q1019=
202101100250 METAR ESMX 100250Z AUTO 19005KT 9999 OVC007/// M03/M03 Q1019=
202101100220 METAR ESMX 100220Z AUTO 23007KT 2600 -SN OVC005/// M03/M03 Q1019 RESG=
202101100150 METAR ESMX 100150Z AUTO 24006KT 3300 -SN SCT002/// OVC005/// M02/M03 Q1019 RESG REFZUP=
202101100120 METAR ESMX 100120Z AUTO 23009KT 4900 BR OVC002/// M02/M02 Q1019=
202101100050 METAR ESMX 100050Z AUTO 20007KT 9999 OVC004/// M02/M02 Q1019=
202101100020 METAR ESMX 100020Z AUTO 22006KT 190V260 9999 OVC005/// M01/M02 Q1019=
202101092350 METAR ESMX 092350Z AUTO 22004KT 9999 OVC005/// M01/M01 Q1019 REDZ=
202101092320 METAR ESMX 092320Z 22004KT 9999 BKN006 M01/M01 Q1020 RESG=
202101092250 METAR ESMX 092250Z 22003KT 9999 SCT009 OVC015 M01/M01 Q1020=
202101092220 METAR ESMX 092220Z VRB02KT 9999 SCT010 BKN014 M01/M01 Q1020=
202101092150 METAR ESMX 092150Z AUTO 30002KT 9999 OVC011/// M01/M02 Q1020=
202101092120 METAR ESMX 092120Z AUTO 28003KT 9999 OVC013/// M01/M02 Q1020=
202101092050 METAR ESMX 092050Z AUTO 27003KT 9999 OVC013/// M01/M01 Q1020=
202101092020 METAR ESMX 092020Z AUTO 26004KT 9999 FEW014/// SCT019/// M03/M03 Q1020=
202101091950 METAR ESMX 091950Z AUTO 28003KT 9999 NCD M03/M03 Q1020=
202101091920 METAR ESMX 091920Z AUTO 29002KT 9999 BKN012/// M01/M02 Q1020=
202101091850 METAR ESMX 091850Z AUTO VRB03KT 9999 OVC012/// M00/M01 Q1020=
202101091820 METAR ESMX 091820Z AUTO 27003KT 9999 OVC012/// 00/M01 Q1020=
202101091750 METAR ESMX 091750Z AUTO VRB02KT 9999 OVC011/// M00/M01 Q1020=
202101091720 METAR ESMX 091720Z AUTO 30003KT 9999 OVC010/// M00/M01 Q1020=
202101091650 METAR ESMX 091650Z AUTO VRB02KT 9999 OVC009/// M00/M00 Q1020=
202101091620 METAR ESMX 091620Z AUTO 29002KT 9999 OVC009/// M00/M00 Q1020=
202101091550 METAR ESMX 091550Z AUTO VRB02KT 9999 OVC010/// M00/M00 Q1020=
202101091520 METAR ESMX 091520Z AUTO 35004KT 9999 OVC009/// 00/M00 Q1020=
202101091450 METAR ESMX 091450Z AUTO VRB02KT 9999 BKN008/// OVC010/// 00/M00 Q1020=
202101091420 METAR ESMX 091420Z AUTO VRB02KT 9999 SCT008/// OVC010/// 00/M01 Q1020=
202101091350 METAR ESMX 091350Z AUTO 36004KT 9999 BKN008/// OVC010/// 00/M00 Q1020=
202101091320 METAR ESMX 091320Z AUTO 36006KT 9999 OVC008/// 00/M00 Q1019=
202101091250 METAR ESMX 091250Z 01007KT 9999 BKN007 00/M00 Q1019=
202101091220 METAR ESMX 091220Z 36006KT 9999 BKN007 00/M00 Q1019=
202101091150 METAR ESMX 091150Z 36006KT 9999 BKN007 00/M00 Q1019=
202101091120 METAR ESMX 091120Z 36007KT 9999 BKN006 00/M00 Q1019=
202101091050 METAR COR ESMX 091050Z 36007KT 9999 BKN006 00/M00 Q1019=
202101091020 METAR ESMX 091020Z AUTO 34007KT 9999 OVC007/// M00/M01 Q1019=
202101090950 METAR ESMX 090950Z AUTO 35006KT 9999 BKN007/// OVC009/// M00/M01 Q1019=
202101090920 METAR ESMX 090920Z AUTO 34007KT 9999 BKN007/// OVC008/// M00/M01 Q1020=
202101090850 METAR ESMX 090850Z AUTO 36006KT 9999 OVC007/// M00/M01 Q1019=
202101090820 METAR ESMX 090820Z AUTO 34007KT 9999 OVC008/// M00/M01 Q1019=
202101090750 METAR ESMX 090750Z AUTO 35007KT 9999 OVC009/// M00/M01 Q1019=
202101090720 METAR ESMX 090720Z AUTO 35007KT 9999 BKN013/// OVC048/// 00/M01 Q1019=
202101090650 METAR ESMX 090650Z AUTO 01007KT 9999 OVC048/// M00/M01 Q1018=
202101090620 METAR ESMX 090620Z AUTO 35009KT 9999 OVC049/// 00/M01 Q1018=
202101090550 METAR ESMX 090550Z AUTO 35007KT 9999 OVC049/// 00/M00 Q1018=
202101090520 METAR ESMX 090520Z AUTO 35008KT 9999 FEW011/// OVC048/// 00/M00 Q1018=
202101090450 METAR ESMX 090450Z AUTO 35008KT 9999 SCT012/// OVC049/// 00/M00 Q1018=
202101090420 METAR ESMX 090420Z AUTO 36007KT 9999 BKN010/// OVC013/// 00/M00 Q1018=
202101090350 METAR ESMX 090350Z AUTO 35008KT 9999 SCT009/// BKN012/// OVC015/// 00/00 Q1017=
202101090320 METAR ESMX 090320Z AUTO 35007KT 9999 -RASN FEW007/// SCT009/// BKN012/// 00/00 Q1017=
202101090250 METAR ESMX 090250Z AUTO 35006KT 9000 SG FEW005/// BKN014/// BKN019/// 00/00 Q1017=
202101090220 METAR ESMX 090220Z AUTO 02005KT 9999 SG FEW005/// SCT013/// OVC024/// 00/M00 Q1017 RESHUP RESN=
202101090150 METAR ESMX 090150Z AUTO 03008KT 9999 OVC013/// 01/M00 Q1017=
202101090120 METAR ESMX 090120Z AUTO 01007KT 9999 -SN SCT007/// BKN013/// BKN023/// 00/00 Q1017 RESN=
202101090050 METAR ESMX 090050Z AUTO 02008KT 9999 BKN005/// OVC026/// 00/00 Q1017=
202101090020 METAR ESMX 090020Z AUTO 01008KT 9999 BKN007/// BKN013/// OVC027/// 01/00 Q1016 RESHUP REDZ RESG=
202101082350 METAR ESMX 082350Z AUTO 01007KT 9999 SG SCT006/// BKN010/// OVC013/// 01/01 Q1016 REUP RESHUP=
202101082320 METAR ESMX 082320Z AUTO 36006KT 9999 BKN008/// OVC011/// 01/01 Q1016=
202101082250 METAR ESMX 082250Z AUTO 01006KT 9999 FEW005/// BKN009/// OVC024/// 01/00 Q1016=
202101082220 METAR ESMX 082220Z AUTO 02007KT 9999 BKN023/// OVC061/// 01/00 Q1016=
202101082150 METAR ESMX 082150Z AUTO 01006KT 9999 FEW008/// OVC061/// 01/00 Q1016=
202101082120 METAR ESMX 082120Z AUTO 01007KT 9999 SCT006/// BKN008/// OVC036/// 01/01 Q1016 RESHUP REUP=
202101082050 METAR ESMX 082050Z AUTO 02007KT 9999 UP SCT006/// BKN008/// BKN011/// 01/01 Q1015=
202101082020 METAR ESMX 082020Z AUTO 02008KT 9999 SCT006/// BKN008/// OVC011/// 01/01 Q1015=
202101081950 METAR ESMX 081950Z AUTO 03008KT 9999 SCT006/// BKN012/// BKN061/// 01/01 Q1015=
202101081920 METAR ESMX 081920Z AUTO 02006KT 9999 -SN OVC005/// 01/01 Q1014 RESG=
202101081850 METAR ESMX 081850Z AUTO 01007KT 9999 SG OVC004/// 01/01 Q1014=
202101081820 METAR ESMX 081820Z AUTO 02006KT 9999 -SN FEW004/// BKN013/// OVC033/// 01/01 Q1014=
202101081750 METAR ESMX 081750Z AUTO 02006KT 9999 SG SCT005/// BKN035/// OVC070/// 01/01 Q1014=
202101081720 METAR ESMX 081720Z AUTO 02006KT 9999 -RA SCT021/// BKN038/// OVC062/// 01/01 Q1013 RESHUP RESN=
202101081650 METAR ESMX 081650Z AUTO 01006KT 9999 SCT004/// BKN009/// OVC068/// 01/01 Q1013=
202101081620 METAR ESMX 081620Z AUTO 01007KT 9999 BKN004/// OVC009/// 01/01 Q1013=
202101081550 METAR ESMX 081550Z AUTO 01007KT 9999 -RASN OVC003/// 01/01 Q1013=
202101081520 METAR ESMX 081520Z AUTO 02006KT 9000 UP BKN003/// OVC004/// 01/01 Q1012 REDZ=
202101081450 METAR ESMX 081450Z AUTO 01007KT 9999 DZ OVC003/// 01/01 Q1012=
202101081420 METAR ESMX 081420Z 01007KT 5000 -SN BKN004 01/01 Q1012=
202101081350 METAR ESMX 081350Z 02008KT 7000 -SN BKN006 01/01 Q1011=
202101081320 METAR ESMX 081320Z 01007KT 8000 BKN006 01/01 Q1011=
202101081250 METAR ESMX 081250Z 01006KT 6000 -SN FEW002 BKN005 01/01 Q1011=
202101081220 METAR ESMX 081220Z 02007KT 8000 -SN BKN006 01/01 Q1011=
202101081150 METAR ESMX 081150Z 01006KT 9000 BKN006 01/01 Q1011=
202101081120 METAR ESMX 081120Z 01006KT 7000 -SN BKN006 01/01 Q1011=
202101081050 METAR ESMX 081050Z 02007KT 9999 OVC006 01/01 Q1011=
202101081020 METAR ESMX 081020Z 02006KT 9999 BKN006 01/01 Q1011=
202101080950 METAR ESMX 080950Z 01007KT 9000 -SN BKN006 01/01 Q1011=
202101080920 METAR ESMX 080920Z 01007KT 6000 -SN OVC006 01/00 Q1011=
202101080850 METAR ESMX 080850Z 01008KT 7000 -SN OVC007 01/00 Q1010=
202101080820 METAR ESMX 080820Z 36008KT 9999 BKN008 00/00 Q1010=
202101080750 METAR ESMX 080750Z 36008KT 7000 -SN FEW006 OVC011 00/00 Q1010=
202101080720 METAR ESMX 080720Z 02007KT 9999 SCT007 BKN011 00/M00 Q1010=
202101080650 METAR COR ESMX 080650Z 36008KT 9999 BKN007 00/M00 Q1010=
202101080620 METAR ESMX 080620Z AUTO 01009KT 9999 OVC007/// 00/M00 Q1009=
202101080550 METAR ESMX 080550Z AUTO 01008KT 9999 OVC007/// 00/00 Q1009=
202101080520 METAR ESMX 080520Z AUTO 02007KT 9999 BKN006/// OVC008/// 00/00 Q1009=
202101080450 METAR ESMX 080450Z AUTO 36007KT 5000 -SN OVC004/// 00/00 Q1009=
202101080420 METAR ESMX 080420Z AUTO 36007KT 4900 SG OVC004/// 00/00 Q1009 RESG=
202101080350 METAR ESMX 080350Z AUTO 02007KT 9999 SG OVC004/// 00/00 Q1009=
202101080320 METAR ESMX 080320Z AUTO 01007KT 9999 -SN OVC005/// 00/00 Q1009 RESG REUP=
202101080250 METAR ESMX 080250Z AUTO 02006KT 9999 OVC006/// 00/M00 Q1009=
202101080220 METAR ESMX 080220Z AUTO 03008KT 350V060 9999 OVC005/// 00/00 Q1009=
202101080150 METAR ESMX 080150Z AUTO 02006KT 9999 OVC005/// 00/00 Q1009=
202101080120 METAR ESMX 080120Z AUTO 03007KT 9999 OVC005/// 00/00 Q1009=
202101080050 METAR ESMX 080050Z AUTO 03006KT 9999 OVC005/// 00/00 Q1009 RESG=
202101080020 METAR ESMX 080020Z AUTO 03006KT 9999 OVC005/// 00/00 Q1009=
202101072350 METAR ESMX 072350Z AUTO 03007KT 9000 -SN OVC005/// 00/00 Q1009=
202101072320 METAR ESMX 072320Z AUTO 03007KT 5000 -SN OVC005/// 00/M00 Q1009=
202101072250 METAR ESMX 072250Z AUTO 03007KT 9999 -SN OVC006/// 00/M00 Q1009=
202101072220 METAR ESMX 072220Z AUTO 03008KT 9999 -SN OVC006/// M00/M00 Q1009=
202101072150 METAR ESMX 072150Z AUTO 03007KT 9999 -SN OVC007/// M00/M00 Q1009=
202101072120 METAR ESMX 072120Z AUTO 03007KT 9999 SG OVC007/// M00/M00 Q1009=
202101072050 METAR ESMX 072050Z AUTO 01007KT 9999 SG OVC007/// M00/M00 Q1009=
202101072020 METAR ESMX 072020Z AUTO 01007KT 7000 -SN OVC006/// M00/M00 Q1009=
202101071950 METAR ESMX 071950Z AUTO 01008KT 9999 -SN OVC006/// M00/M00 Q1009=
202101071920 METAR ESMX 071920Z AUTO 01008KT 9999 -SN BKN006/// BKN010/// OVC046/// M00/M00 Q1009=
202101071850 METAR ESMX 071850Z AUTO 02008KT 9999 -SN BKN007/// BKN014/// OVC064/// M00/M00 Q1009=
202101071820 METAR ESMX 071820Z AUTO 02009KT 9999 SG BKN007/// OVC009/// M00/M00 Q1009=
202101071750 METAR ESMX 071750Z AUTO 01008KT 9999 -SN BKN006/// OVC008/// M00/M00 Q1008=
202101071720 METAR ESMX 071720Z AUTO 01007KT 9999 -SN OVC006/// M00/M00 Q1008=
202101071650 METAR ESMX 071650Z AUTO 02007KT 9000 -SN OVC007/// M00/M00 Q1008=
202101071620 METAR ESMX 071620Z AUTO 36008KT 8000 -SN FEW006/// BKN008/// OVC011/// M00/M00 Q1009=
202101071550 METAR ESMX 071550Z AUTO 01008KT 4000 -SN FEW002/// BKN008/// OVC028/// M00/M00 Q1009=
202101071520 METAR ESMX 071520Z AUTO 01008KT 4000 -SN BKN006/// BKN012/// OVC016/// M00/M00 Q1009=
202101071450 METAR ESMX 071450Z AUTO 02008KT 3900 -SN BKN006/// OVC018/// M00/M00 Q1008=
202101071420 METAR ESMX 071420Z 02009KT 7000 -SN BKN007 M00/M00 Q1008=
202101071350 METAR ESMX 071350Z 01009KT 7000 -SN BKN007 M00/M00 Q1008=
202101071320 METAR ESMX 071320Z 01008KT 5000 -SN FEW002 BKN006 M00/M00 Q1008=
202101071250 METAR ESMX 071250Z 36009KT 6000 -SN OVC006 M00/M00 Q1008=
202101071220 METAR ESMX 071220Z 01008KT 9000 OVC007 M00/M00 Q1009=
202101071150 METAR COR ESMX 071150Z 01008KT 6000 -SN BKN006 M00/M00 Q1009=
202101071120 METAR ESMX 071120Z 01009KT 5000 -SN BKN007 M00/M00 Q1009=
202101071050 METAR ESMX 071050Z 01008KT 5000 -SN BKN006 M00/M00 Q1009=
202101071020 METAR ESMX 071020Z 01008KT 4500 -SN FEW002 BKN006 M00/M00 Q1010=
202101070950 METAR ESMX 070950Z 36008KT 5000 -SN BKN006 M00/M00 Q1010=
202101070920 METAR ESMX 070920Z 36009KT 5000 -SN BKN007 M00/M00 Q1010=
202101070850 METAR COR ESMX 070850Z 36009KT 6000 -SN BKN006 M00/M01 Q1010=
202101070820 METAR ESMX 070820Z 36009KT 7000 BR BKN007 M01/M01 Q1010=
202101070750 METAR ESMX 070750Z 36008KT 6000 -SN FEW002 BKN005 M01/M01 Q1010=
202101070720 METAR ESMX 070720Z 02007KT 3800 -SN OVC005 M00/M00 Q1010=
202101070650 METAR ESMX 070650Z AUTO 02007KT 2500 -SN FEW002/// BKN005/// OVC053/// M00/M00 Q1010=
202101070620 METAR ESMX 070620Z AUTO 01007KT 5000 -SN SCT023/// BKN028/// OVC055/// M00/M00 Q1010=
202101070550 METAR ESMX 070550Z AUTO 01008KT 8000 -SN FEW007/// SCT028/// BKN057/// M00/M00 Q1010=
202101070520 METAR ESMX 070520Z AUTO 01008KT 5000 -RASN BKN006/// OVC026/// M00/M00 Q1010=
202101070450 METAR ESMX 070450Z AUTO 01008KT 2100 -SN BKN006/// OVC021/// M00/M00 Q1010=
202101070420 METAR ESMX 070420Z AUTO 01009KT 2400 -SN FEW002/// BKN006/// BKN008/// M00/M00 Q1010=
202101070350 METAR ESMX 070350Z AUTO 01008KT 2400 -SN OVC002/// 00/00 Q1010=
202101070320 METAR ESMX 070320Z AUTO 01007KT 7000 -RASN BKN004/// OVC008/// 01/01 Q1010 RESG=
202101070250 METAR ESMX 070250Z AUTO 03007KT 5000 -RASN OVC005/// 01/01 Q1011=
202101070220 METAR ESMX 070220Z AUTO 03006KT 7000 -SN OVC004/// 01/00 Q1011 RESG=
202101070150 METAR ESMX 070150Z AUTO 03006KT 7000 SG OVC004/// 01/00 Q1011=
202101070120 METAR ESMX 070120Z AUTO 04007KT 9000 SG BKN007/// OVC009/// 01/00 Q1011=
202101070050 METAR ESMX 070050Z AUTO 04007KT 9999 -RASN SCT006/// BKN008/// OVC010/// 01/01 Q1011=
202101070020 METAR ESMX 070020Z AUTO 03008KT 5000 -RASN SCT006/// BKN014/// OVC021/// 01/01 Q1011=
202101062350 METAR ESMX 062350Z AUTO 03006KT 4800 -SN BKN005/// OVC014/// 01/01 Q1011 RESHUP=
202101062320 METAR ESMX 062320Z AUTO 03006KT 9999 -RA BKN006/// OVC008/// 01/01 Q1012 REUP=
202101062250 METAR ESMX 062250Z AUTO 03006KT 9999 BKN005/// OVC007/// 01/01 Q1012 RESHUP REUP=
202101062220 METAR ESMX 062220Z AUTO 03006KT 9999 UP OVC004/// 01/01 Q1012 REUP=
202101062150 METAR ESMX 062150Z AUTO 02006KT 9999 OVC005/// 01/01 Q1012=
202101062120 METAR ESMX 062120Z AUTO 03007KT 9999 OVC006/// 01/01 Q1012 REUP=
202101062050 METAR ESMX 062050Z AUTO 03008KT 9999 UP OVC005/// 01/01 Q1012 RESG=
202101062020 METAR ESMX 062020Z AUTO 04007KT 9999 UP OVC005/// 01/01 Q1013=
202101061950 METAR ESMX 061950Z AUTO 03009KT 9999 SG OVC006/// 01/00 Q1013=
202101061920 METAR ESMX 061920Z AUTO 03009KT 8000 SG OVC005/// 01/00 Q1013=
202101061850 METAR ESMX 061850Z AUTO 03010KT 6000 SG OVC005/// 01/00 Q1013=
202101061820 METAR ESMX 061820Z AUTO 03009KT 8000 SG BKN006/// OVC009/// 00/00 Q1013=
202101061750 METAR ESMX 061750Z AUTO 02010KT 350V060 8000 -SN OVC006/// 00/M00 Q1013 RESG=
202101061720 METAR ESMX 061720Z AUTO 03011KT 9999 SG OVC007/// 01/M00 Q1013 REUP RESHUP=
202101061650 METAR ESMX 061650Z AUTO 03011KT 9999 SG OVC008/// 00/M00 Q1013=
202101061620 METAR ESMX 061620Z AUTO 02010KT 9999 -SN OVC008/// 00/M00 Q1013=
202101061550 METAR ESMX 061550Z AUTO 03011KT 9999 -SN OVC008/// 00/M01 Q1013=
202101061520 METAR ESMX 061520Z AUTO 03011KT 9999 SG OVC009/// 00/M01 Q1014 RESHUP=
202101061450 METAR ESMX 061450Z AUTO 03011KT 9999 UP OVC009/// 00/M01 Q1014 RESG=
202101061420 METAR ESMX 061420Z AUTO 03011KT 9999 OVC009/// 00/M01 Q1014 RESG=
202101061350 METAR ESMX 061350Z AUTO 03011KT 9999 UP OVC009/// 00/M01 Q1014=
202101061320 METAR ESMX 061320Z AUTO 03010KT 9999 SG OVC009/// 00/M01 Q1014=
202101061250 METAR ESMX 061250Z AUTO 03012KT 9000 -SN OVC010/// 00/M01 Q1014=
202101061220 METAR ESMX 061220Z AUTO 03013KT 9999 -SN OVC010/// 00/M01 Q1015=
202101061150 METAR ESMX 061150Z AUTO 03013KT 9999 SG OVC010/// 00/M01 Q1015 RESG=
202101061120 METAR ESMX 061120Z AUTO 03013KT 9999 -SN OVC010/// 00/M01 Q1015=
202101061050 METAR ESMX 061050Z AUTO 03014KT 9999 SG OVC010/// 00/M01 Q1016 RESHUP REDZ=
202101061020 METAR ESMX 061020Z AUTO 03014KT 9999 OVC011/// M00/M02 Q1016=
202101060950 METAR ESMX 060950Z AUTO 03015KT 9999 SG OVC011/// M00/M01 Q1016=
202101060920 METAR ESMX 060920Z AUTO 03014KT 9999 -SN BKN009/// OVC012/// M00/M01 Q1017=
202101060850 METAR ESMX 060850Z AUTO 03014KT 9000 -SN FEW005/// OVC009/// M00/M01 Q1017=
202101060820 METAR ESMX 060820Z AUTO 03014KT 6000 -SN OVC009/// M00/M01 Q1017=
202101060750 METAR ESMX 060750Z AUTO 03013KT 9999 -SN OVC009/// M00/M01 Q1017=
202101060720 METAR ESMX 060720Z AUTO 03013KT 9999 -SN OVC009/// M00/M02 Q1017 RESN=
202101060650 METAR ESMX 060650Z AUTO 03015KT 9999 OVC009/// M01/M02 Q1017=
202101060620 METAR ESMX 060620Z AUTO 03012KT 9999 -SN OVC009/// M01/M02 Q1017=
202101060550 METAR ESMX 060550Z AUTO 02012KT 4500 -SN BKN009/// BKN012/// OVC018/// M01/M02 Q1017=
202101060520 METAR ESMX 060520Z AUTO 03012KT 7000 -SN BKN010/// OVC012/// M01/M02 Q1018=
202101060450 METAR ESMX 060450Z AUTO 03013KT 360V060 9999 SG OVC009/// M01/M02 Q1018=
202101060420 METAR ESMX 060420Z AUTO 03013KT 9999 -SN OVC009/// M01/M02 Q1018=
202101060350 METAR ESMX 060350Z AUTO 03011KT 8000 -SN FEW002/// BKN009/// BKN012/// M01/M02 Q1018=
202101060320 METAR ESMX 060320Z AUTO 02012KT 3300 -SN FEW002/// OVC019/// M01/M01 Q1019=
202101060250 METAR ESMX 060250Z AUTO 02012KT 2300 -SN FEW002/// OVC016/// M01/M01 Q1019=
202101060220 METAR ESMX 060220Z AUTO 03012KT 2900 -SN VV016 M01/M02 Q1019 RESG REFZUP=
202101060150 METAR ESMX 060150Z AUTO 02013KT 9999 OVC012/// M00/M02 Q1019=
202101060120 METAR ESMX 060120Z AUTO 02013KT 9999 OVC011/// M00/M02 Q1019=
202101060050 METAR ESMX 060050Z AUTO 02012KT 9999 OVC011/// M00/M02 Q1020 RESN=
202101060020 METAR ESMX 060020Z AUTO 02012KT 9999 OVC011/// M00/M02 Q1020=
202101052350 METAR ESMX 052350Z AUTO 01011KT 9999 SG OVC010/// M00/M01 Q1020 RESHUP RESN=
202101052320 METAR ESMX 052320Z AUTO 02011KT 9999 OVC011/// M00/M01 Q1021=
202101052250 METAR ESMX 052250Z AUTO 02010KT 9999 SG FEW005/// BKN011/// OVC016/// M00/M01 Q1021=
202101052220 METAR ESMX 052220Z AUTO 01010KT 3400 -SN FEW002/// BKN011/// OVC020/// M00/M01 Q1021 RESHUP RESN=
202101052150 METAR ESMX 052150Z AUTO 03011KT 9999 BKN015/// OVC031/// 00/M01 Q1022=
202101052120 METAR ESMX 052120Z AUTO 01010KT 9999 FEW002/// OVC015/// M00/M01 Q1022=
202101052050 METAR ESMX 052050Z AUTO 02010KT 2000 -SN BKN001/// BKN016/// OVC027/// M00/M00 Q1022 REUP=
202101052020 METAR ESMX 052020Z AUTO 01010KT 9999 FEW010/// SCT014/// BKN019/// 00/M01 Q1022=
202101051950 METAR ESMX 051950Z AUTO 02010KT 9999 BKN014/// OVC028/// 00/M00 Q1022=
202101051920 METAR ESMX 051920Z AUTO 02010KT 5000 -SN BKN001/// BKN005/// OVC013/// M00/M00 Q1023=
202101051850 METAR ESMX 051850Z AUTO 03008KT 9999 FEW001/// BKN007/// OVC030/// 00/M00 Q1023=
202101051820 METAR ESMX 051820Z AUTO 03008KT 350V060 9999 -SN FEW002/// BKN011/// BKN014/// 00/M01 Q1023 RESHUP RESN=
202101051750 METAR ESMX 051750Z AUTO 04009KT 9999 SCT013/// BKN017/// OVC032/// 00/M01 Q1023 RESN=
202101051720 METAR ESMX 051720Z AUTO 03009KT 9999 BKN014/// BKN020/// OVC031/// 00/M01 Q1023=
202101051650 METAR ESMX 051650Z AUTO 03008KT 7000 -SN FEW001/// BKN007/// OVC012/// 00/M00 Q1023=
202101051620 METAR ESMX 051620Z AUTO 03007KT 2400 -SN SCT002/// BKN007/// OVC013/// M00/M00 Q1023=
202101051550 METAR ESMX 051550Z AUTO 03008KT 7000 -SN FEW003/// BKN011/// BKN015/// 00/M01 Q1023 RESN=
202101051520 METAR ESMX 051520Z AUTO 03007KT 9999 SG SCT009/// BKN013/// OVC036/// 00/M01 Q1024 RESG REUP=
202101051450 METAR ESMX 051450Z AUTO 03008KT 010V070 9999 FEW009/// BKN013/// OVC025/// 00/M01 Q1024=
202101051420 METAR ESMX 051420Z 03009KT 9999 BKN015 00/M02 Q1024=
202101051350 METAR ESMX 051350Z 03009KT 9999 SCT017 BKN033 00/M02 Q1024=
202101051320 METAR ESMX 051320Z 03009KT 9999 BKN034 01/M02 Q1024=
202101051250 METAR ESMX 051250Z 03010KT 9999 FEW018 BKN031 01/M02 Q1024=
202101051220 METAR ESMX 051220Z 02011KT 9999 FEW018 BKN031 01/M02 Q1024=
202101051150 METAR ESMX 051150Z 03011KT 360V070 9999 BKN030 BKN036 01/M02 Q1024=
202101051120 METAR ESMX 051120Z 03011KT 9999 FEW012 SCT016 BKN035 01/M02 Q1025=
202101051050 METAR ESMX 051050Z 03009KT 9999 UP SCT011 BKN016 BKN035 00/M01 Q1025=
202101051020 METAR ESMX 051020Z 04010KT 7000 -SN FEW006 BKN011 OVC023 00/M01 Q1025=
202101050950 METAR ESMX 050950Z 03010KT 9999 FEW013 BKN032 01/M01 Q1025=
202101050920 METAR ESMX 050920Z 04009KT 010V070 9999 FEW016 BKN030 01/M01 Q1025=
202101050850 METAR ESMX 050850Z 04008KT 9999 FEW016 BKN032 00/M01 Q1025=
202101050820 METAR ESMX 050820Z 04007KT 020V080 9999 SCT006 BKN030 00/M00 Q1025=
202101050750 METAR ESMX 050750Z 03008KT 2100 -SN BKN006 00/00 Q1025 RESN=
202101050720 METAR ESMX 050720Z 03008KT 9999 BKN007 00/M00 Q1025=
202101050650 METAR ESMX 050650Z AUTO 01008KT 5000 -SN FEW002/// OVC009/// 00/M00 Q1025=
202101050620 METAR ESMX 050620Z AUTO 01008KT 9999 SG OVC009/// 00/M00 Q1024=
202101050550 METAR ESMX 050550Z AUTO 02007KT 9999 SG FEW007/// BKN009/// OVC012/// 00/M00 Q1025 RESG REUP=
202101050520 METAR ESMX 050520Z AUTO 01007KT 9999 OVC011/// 00/M01 Q1025=
202101050450 METAR ESMX 050450Z AUTO 03008KT 9999 SCT012/// BKN022/// OVC036/// 00/M01 Q1024=
202101050420 METAR ESMX 050420Z AUTO 03008KT 9999 FEW016/// SCT024/// OVC034/// 00/M01 Q1025=
202101050350 METAR ESMX 050350Z AUTO 03009KT 9999 SCT014/// OVC034/// 00/M01 Q1025=
202101050320 METAR ESMX 050320Z AUTO 03009KT 9999 SCT014/// BKN018/// BKN026/// 00/M02 Q1025=
202101050250 METAR ESMX 050250Z AUTO 03008KT 9999 OVC027/// 00/M01 Q1025=
202101050220 METAR ESMX 050220Z AUTO 04007KT 9999 BKN017/// 00/M02 Q1025=
202101050150 METAR ESMX 050150Z AUTO 03006KT 360V070 9999 FEW029/// BKN037/// 00/M02 Q1025=
202101050120 METAR ESMX 050120Z AUTO 05010KT 9999 SCT016/// OVC029/// 01/M01 Q1025=
202101050050 METAR ESMX 050050Z AUTO 04009KT 9999 SCT017/// OVC030/// 01/M01 Q1025=
202101050020 METAR ESMX 050020Z AUTO 04009KT 9999 SCT011/// OVC030/// 01/M01 Q1025=
202101042350 METAR ESMX 042350Z AUTO 04008KT 9999 OVC012/// 00/M00 Q1025=
202101042320 METAR ESMX 042320Z AUTO 04008KT 9999 -SN BKN012/// OVC028/// 00/M00 Q1025 RESHUP RESN=
202101042250 METAR ESMX 042250Z AUTO 03007KT 9999 SCT009/// BKN014/// OVC028/// 00/M00 Q1025 RESHUP=
202101042220 METAR ESMX 042220Z AUTO 01007KT 2000 SG FEW002/// SCT005/// OVC011/// 00/M00 Q1025 REDZ=
202101042150 METAR ESMX 042150Z AUTO 01007KT 9999 FEW007/// OVC009/// 00/M00 Q1025 RESG=
202101042120 METAR ESMX 042120Z AUTO 01008KT 9999 SG SCT006/// BKN011/// OVC019/// M00/M00 Q1025=
202101042050 METAR ESMX 042050Z AUTO 01007KT 4200 -SN SCT002/// OVC006/// 00/M00 Q1025 RESG=
202101042020 METAR ESMX 042020Z AUTO 01007KT 9999 -SN OVC007/// 00/M00 Q1025 REUP=
202101041950 METAR ESMX 041950Z AUTO 01007KT 9999 BKN009/// OVC010/// 00/M01 Q1025=
202101041920 METAR ESMX 041920Z AUTO 01008KT 9999 OVC009/// 00/M00 Q1025=
202101041850 METAR ESMX 041850Z AUTO 02007KT 350V050 9999 OVC008/// 00/M00 Q1025=
202101041820 METAR ESMX 041820Z AUTO 03007KT 9999 OVC007/// 00/M00 Q1025=
202101041750 METAR ESMX 041750Z AUTO 02008KT 8000 -SN FEW002/// OVC007/// 00/M00 Q1025 RESG=
202101041720 METAR ESMX 041720Z AUTO 03008KT 9999 OVC008/// 00/M00 Q1025=
202101041650 METAR ESMX 041650Z AUTO 01008KT 4400 -SN FEW002/// BKN008/// OVC021/// M00/M00 Q1025 RESG=
202101041620 METAR ESMX 041620Z AUTO 01008KT 9000 -SN FEW001/// BKN008/// OVC011/// M00/M00 Q1025=
202101041550 METAR ESMX 041550Z AUTO 01008KT 6000 -SN SCT007/// BKN012/// OVC023/// M00/M01 Q1025 RESG=
202101041520 METAR ESMX 041520Z AUTO 01008KT 9999 -SN SCT007/// OVC012/// M00/M01 Q1025 RESG=
202101041450 METAR ESMX 041450Z AUTO 01008KT 6000 -SN BKN008/// OVC010/// M00/M01 Q1025 RESG=
202101041420 METAR ESMX 041420Z 01009KT 8000 SG BKN008 M00/M01 Q1025=
202101041350 METAR ESMX 041350Z 02008KT 9999 SN BKN008 00/M01 Q1025 RESN=
202101041320 METAR ESMX 041320Z 02008KT 9999 BKN008 00/M01 Q1025=
202101041250 METAR ESMX 041250Z AUTO 36010KT 9999 BKN008/// OVC011/// M00/M01 Q1025 RESG=
202101041220 METAR ESMX 041220Z 01010KT 4300 -SN BKN009 M00/M01 Q1025 RESG=
202101041150 METAR ESMX 041150Z 02009KT 9999 -SN BKN009 M00/M01 Q1025 RESG=
202101041120 METAR ESMX 041120Z 02009KT 9999 BKN009 M00/M02 Q1025=
202101041050 METAR ESMX 041050Z 02010KT 9999 BKN009 M00/M02 Q1025=
202101041020 METAR ESMX 041020Z 02009KT 9999 BKN010 M00/M02 Q1025=
202101040950 METAR ESMX 040950Z 02010KT 9999 BKN011 BKN023 M01/M02 Q1025=
202101040920 METAR ESMX 040920Z 01010KT 9999 FEW012 BKN029 BKN038 M01/M03 Q1025=
202101040850 METAR ESMX 040850Z 36010KT 9999 FEW012 BKN034 M01/M03 Q1025=
202101040820 METAR ESMX 040820Z 02008KT 350V060 9999 SCT012 BKN035 M01/M03 Q1025=
202101040750 METAR ESMX 040750Z 02010KT 360V070 9999 SCT026 BKN035 M01/M03 Q1025=
202101040720 METAR ESMX 040720Z 01010KT 9999 BKN032 M01/M03 Q1025=
202101040650 METAR ESMX 040650Z AUTO 02009KT 9999 OVC034/// M01/M03 Q1025=
202101040620 METAR ESMX 040620Z AUTO 36008KT 9999 OVC033/// M01/M03 Q1025=
202101040550 METAR ESMX 040550Z AUTO 01010KT 9999 OVC029/// M01/M03 Q1025=
202101040520 METAR ESMX 040520Z AUTO 01009KT 9999 OVC025/// M01/M04 Q1025=
202101040450 METAR ESMX 040450Z AUTO 02009KT 9999 OVC025/// M02/M04 Q1025=
202101040420 METAR ESMX 040420Z AUTO 36010KT 9999 OVC025/// M02/M04 Q1025=
202101040350 METAR ESMX 040350Z AUTO 35011KT 9999 OVC027/// M02/M04 Q1025=
202101040320 METAR ESMX 040320Z AUTO 01010KT 9999 OVC026/// M02/M04 Q1026=
202101040250 METAR ESMX 040250Z AUTO 01011KT 9999 BKN014/// OVC025/// M02/M04 Q1026=
202101040220 METAR ESMX 040220Z AUTO 03011KT 9999 OVC015/// M01/M04 Q1026=
202101040150 METAR ESMX 040150Z AUTO 03012KT 9999 OVC015/// M01/M04 Q1026=
202101040120 METAR ESMX 040120Z AUTO 03011KT 9999 OVC019/// M01/M03 Q1026=
202101040050 METAR ESMX 040050Z AUTO 03011KT 9999 OVC024/// M01/M03 Q1026=
202101040020 METAR ESMX 040020Z AUTO 02011KT 9999 BKN014/// OVC025/// M01/M03 Q1026=
202101032350 METAR ESMX 032350Z AUTO 01009KT 9999 BKN015/// OVC029/// M01/M03 Q1026=
202101032320 METAR ESMX 032320Z AUTO 01010KT 9999 FEW019/// OVC028/// M01/M03 Q1026=
202101032250 METAR ESMX 032250Z AUTO 01008KT 9999 OVC028/// M01/M03 Q1026=
202101032220 METAR ESMX 032220Z AUTO 02007KT 9999 FEW019/// OVC026/// M01/M03 Q1026=
202101032150 METAR ESMX 032150Z AUTO 03010KT 360V060 9999 OVC014/// M01/M03 Q1026=
202101032120 METAR ESMX 032120Z AUTO 03009KT 010V070 9999 FEW011/// OVC016/// M01/M03 Q1026 RESG REFZUP=
202101032050 METAR ESMX 032050Z AUTO 01008KT 9999 FZUP FEW010/// OVC013/// M01/M02 Q1026=
202101032020 METAR ESMX 032020Z AUTO 03008KT 9999 OVC014/// M01/M03 Q1026=
202101031950 METAR ESMX 031950Z AUTO 03010KT 9999 OVC012/// M01/M03 Q1026=
202101031920 METAR ESMX 031920Z AUTO 01009KT 9999 SG OVC012/// M01/M03 Q1026 RESHUP RESN=
202101031850 METAR ESMX 031850Z AUTO 02009KT 9999 OVC013/// M01/M03 Q1026=
202101031820 METAR ESMX 031820Z AUTO 02008KT 9999 OVC012/// M01/M03 Q1026=
202101031750 METAR ESMX 031750Z AUTO 03008KT 9999 -SN FEW008/// OVC010/// M01/M02 Q1026=
202101031720 METAR ESMX 031720Z AUTO 03009KT 8000 -SN FEW006/// BKN009/// OVC015/// M01/M02 Q1026 RESG=
202101031650 METAR ESMX 031650Z AUTO 03009KT 9999 SG OVC012/// M01/M02 Q1026 RESG REFZUP=
202101031620 METAR ESMX 031620Z AUTO 04009KT 9999 OVC011/// M00/M02 Q1026=
202101031550 METAR ESMX 031550Z AUTO 03010KT 9999 BKN012/// OVC015/// M00/M03 Q1026=
202101031520 METAR ESMX 031520Z AUTO 03010KT 9999 OVC013/// M00/M02 Q1026=
202101031450 METAR ESMX 031450Z AUTO 03009KT 9999 FEW011/// OVC015/// 00/M01 Q1026 RESG=
202101031420 METAR ESMX 031420Z AUTO 04008KT 010V070 9999 SG BKN013/// OVC016/// 00/M01 Q1026 RESG REUP=
202101031350 METAR ESMX 031350Z AUTO 04009KT 010V070 9999 OVC014/// 01/M01 Q1026=
202101031320 METAR ESMX 031320Z AUTO 05008KT 9999 OVC011/// 01/M00 Q1026=
202101031250 METAR ESMX 031250Z AUTO 04008KT 9999 OVC011/// 01/M01 Q1025=
202101031220 METAR ESMX 031220Z AUTO 04010KT 9999 OVC011/// 01/M00 Q1025=
202101031150 METAR ESMX 031150Z AUTO 03010KT 9999 SCT011/// OVC015/// 01/M00 Q1025=
202101031120 METAR ESMX 031120Z AUTO 03012KT 9999 OVC010/// 01/M00 Q1025 RESHUP REUP=
202101031050 METAR ESMX 031050Z AUTO 03009KT 020V090 9999 OVC011/// 01/M00 Q1025=
202101031020 METAR ESMX 031020Z AUTO 04009KT 010V080 9999 BKN009/// OVC011/// 01/M00 Q1025=
202101030950 METAR ESMX 030950Z AUTO 04007KT 020V080 9999 OVC010/// 01/00 Q1025=
202101030920 METAR ESMX 030920Z AUTO 04010KT 020V080 9999 BKN009/// OVC010/// 01/00 Q1025=
202101030850 METAR ESMX 030850Z AUTO 02009KT 9999 BKN009/// OVC011/// 01/00 Q1025 RESHUP RESG=
202101030820 METAR ESMX 030820Z AUTO 03010KT 9999 SG BKN009/// OVC014/// 01/00 Q1024 RESHUP RESN=
202101030750 METAR ESMX 030750Z AUTO 04008KT 9999 BKN009/// OVC015/// 01/00 Q1024 RESHUP=
202101030720 METAR ESMX 030720Z AUTO 04008KT 9999 SG FEW002/// OVC008/// 01/00 Q1024 REUP=
202101030650 METAR ESMX 030650Z AUTO 04008KT 9999 OVC009/// 01/00 Q1023=
202101030620 METAR ESMX 030620Z AUTO 04009KT 010V070 9999 BKN009/// OVC012/// 01/00 Q1023 RESHUP=
202101030550 METAR ESMX 030550Z AUTO 04008KT 9999 BKN007/// 01/01 Q1023 REUP=
202101030520 METAR ESMX 030520Z AUTO 04009KT 9999 OVC013/// 01/00 Q1022=
202101030450 METAR ESMX 030450Z AUTO 04008KT 9999 OVC009/// 01/01 Q1022=
202101030420 METAR ESMX 030420Z AUTO 04007KT 9999 OVC007/// 01/01 Q1022=
202101030350 METAR ESMX 030350Z AUTO 04006KT 9999 -RA FEW002/// SCT005/// OVC007/// 01/01 Q1022 RESHUP REUP=
202101030320 METAR ESMX 030320Z AUTO 04007KT 9999 BKN007/// OVC008/// 01/01 Q1021 RESHUP REUP=
202101030250 METAR ESMX 030250Z AUTO 03008KT 9999 BKN008/// OVC010/// 01/01 Q1021 RESHUP=
202101030220 METAR ESMX 030220Z AUTO 03007KT 9999 -RASN OVC008/// 01/01 Q1021=
202101030150 METAR ESMX 030150Z AUTO 03007KT 9999 BKN008/// OVC011/// 01/01 Q1021=
202101030120 METAR ESMX 030120Z AUTO 03007KT 9999 OVC007/// 01/01 Q1021 REUP RESHUP=
202101030050 METAR ESMX 030050Z AUTO 03005KT 9999 SCT009/// BKN019/// OVC030/// 01/01 Q1020=
202101030020 METAR ESMX 030020Z AUTO 04007KT 9999 BKN007/// OVC023/// 01/01 Q1020=
202101022350 METAR ESMX 022350Z AUTO 02005KT 9999 OVC006/// 01/01 Q1020=
202101022320 METAR ESMX 022320Z AUTO 01006KT 9999 BKN006/// OVC007/// 01/01 Q1020=
202101022250 METAR ESMX 022250Z AUTO 36006KT 9999 OVC006/// 01/01 Q1019=
202101022220 METAR ESMX 022220Z AUTO 01007KT 9999 BKN008/// OVC009/// 01/01 Q1019=
202101022150 METAR ESMX 022150Z AUTO 36007KT 9999 BKN011/// OVC020/// 01/01 Q1019=
202101022120 METAR ESMX 022120Z AUTO 36006KT 9999 BKN019/// OVC032/// 01/01 Q1018=
202101022050 METAR ESMX 022050Z AUTO 34007KT 9999 FEW009/// SCT021/// OVC030/// 01/01 Q1018=
202101022020 METAR ESMX 022020Z AUTO 34006KT 9999 OVC026/// 01/01 Q1018 RESHUP=
202101021950 METAR ESMX 021950Z AUTO 34006KT 9999 -RA FEW002/// OVC023/// 01/01 Q1017 RESHUP REUP=
202101021920 METAR ESMX 021920Z AUTO 35004KT 9999 ///022 01/01 Q1017=
202101021850 METAR ESMX 021850Z AUTO 03003KT 350V060 9999 BKN008/// OVC010/// 01/01 Q1017=
202101021820 METAR ESMX 021820Z AUTO 01002KT 9999 FEW007/// BKN009/// OVC012/// 00/00 Q1017=
202101021750 METAR ESMX 021750Z AUTO 02005KT 9999 FEW008/// 00/00 Q1016=
202101021720 METAR ESMX 021720Z AUTO 02005KT 9999 FEW011/// BKN014/// 01/01 Q1016=
202101021650 METAR ESMX 021650Z AUTO 01004KT 9999 BKN014/// 01/01 Q1016=
202101021620 METAR ESMX 021620Z AUTO 36004KT 9999 BKN016/// 01/01 Q1015=
202101021550 METAR ESMX 021550Z AUTO 36005KT 9999 FEW008/// BKN014/// BKN018/// 01/01 Q1015=
202101021520 METAR ESMX 021520Z AUTO 01005KT 9999 SCT008/// OVC024/// 01/01 Q1015=
202101021450 METAR ESMX 021450Z AUTO 35005KT 9999 FEW009/// BKN024/// OVC036/// 01/01 Q1014=
202101021420 METAR ESMX 021420Z AUTO 35006KT 9999 SCT009/// BKN024/// OVC034/// 01/01 Q1014=
202101021350 METAR ESMX 021350Z AUTO 35005KT 9999 SCT007/// BKN009/// OVC033/// 01/01 Q1014=
202101021320 METAR ESMX 021320Z AUTO 34006KT 9999 SCT008/// BKN010/// OVC025/// 01/01 Q1013=
202101021250 METAR ESMX 021250Z AUTO 35005KT 9999 BKN008/// OVC010/// 01/01 Q1013=
202101021220 METAR ESMX 021220Z AUTO 35005KT 9999 OVC008/// 01/01 Q1013=
202101021150 METAR ESMX 021150Z AUTO 34005KT 9999 SCT006/// OVC009/// 01/01 Q1013=
202101021120 METAR ESMX 021120Z AUTO 01005KT 9999 SCT006/// BKN008/// OVC019/// 01/01 Q1013=
202101021050 METAR ESMX 021050Z AUTO 01005KT 9999 BKN006/// OVC017/// 01/01 Q1012=
202101021020 METAR ESMX 021020Z AUTO 01004KT 9999 FEW006/// BKN025/// OVC033/// 01/01 Q1012=
202101020950 METAR ESMX 020950Z AUTO 34003KT 9999 OVC019/// 01/01 Q1012=
202101020920 METAR ESMX 020920Z AUTO 32003KT 9999 OVC016/// 01/01 Q1012=
202101020850 METAR ESMX 020850Z AUTO 34004KT 9999 FEW007/// SCT009/// OVC015/// 01/01 Q1011=
202101020820 METAR ESMX 020820Z AUTO 02004KT 9999 FEW006/// BKN008/// OVC010/// 01/01 Q1011=
202101020750 METAR ESMX 020750Z AUTO 01005KT 9999 OVC007/// 01/01 Q1011=
202101020720 METAR ESMX 020720Z AUTO 35004KT 9999 BKN006/// OVC007/// 01/01 Q1010=
202101020650 METAR ESMX 020650Z AUTO 01006KT 9999 OVC004/// 01/01 Q1010=
202101020620 METAR ESMX 020620Z AUTO 35006KT 9999 OVC004/// 01/01 Q1010=
202101020550 METAR ESMX 020550Z AUTO 35005KT 9999 OVC004/// 01/01 Q1009=
202101020520 METAR ESMX 020520Z AUTO 02004KT 9999 OVC003/// 01/01 Q1009=
202101020450 METAR ESMX 020450Z AUTO 02005KT 9999 OVC003/// 01/01 Q1009=
202101020420 METAR ESMX 020420Z AUTO 01003KT 9000 BR OVC004/// 00/00 Q1009=
202101020350 METAR ESMX 020350Z AUTO 03003KT 9999 OVC004/// 01/01 Q1009=
202101020320 METAR ESMX 020320Z AUTO VRB01KT 9999 OVC003/// 01/01 Q1009=
202101020250 METAR ESMX 020250Z AUTO VRB02KT 9999 OVC004/// 01/01 Q1008 RESG=
202101020220 METAR ESMX 020220Z AUTO 03003KT 9999 OVC004/// 01/01 Q1008=
202101020150 METAR ESMX 020150Z AUTO 04002KT 7000 -RA BKN004/// OVC007/// 00/00 Q1008 RESG=
202101020120 METAR ESMX 020120Z AUTO 35002KT 3300 -SN BKN004/// OVC005/// 00/00 Q1008=
202101020050 METAR ESMX 020050Z AUTO VRB02KT 1200 R01/P2000N R19/P2000N -SN VV005 00/00 Q1008=
202101020020 METAR ESMX 020020Z AUTO 02002KT 0900 R01/1800U R19/P2000N -SN FEW001/// BKN004/// OVC007/// 00/00 Q1008=
202101012350 METAR ESMX 012350Z AUTO 02002KT 0600 R01/1800D R19/P2000N SN VV005 00/00 Q1008=
202101012320 METAR ESMX 012320Z AUTO 35002KT 1600 -RASN BKN003/// OVC005/// 00/00 Q1007=
202101012250 METAR ESMX 012250Z AUTO VRB01KT 2200 -SN OVC002/// 01/01 Q1007=
202101012220 METAR ESMX 012220Z AUTO 00000KT 6000 -PL OVC003/// 01/01 Q1007=
202101012150 METAR ESMX 012150Z AUTO VRB02KT 6000 -RA OVC003/// 01/01 Q1007=
202101012120 METAR ESMX 012120Z AUTO VRB02KT 4300 -RA OVC003/// 01/01 Q1007=
202101012050 METAR ESMX 012050Z AUTO VRB02KT 4600 -SN OVC004/// 01/01 Q1007=
202101012020 METAR ESMX 012020Z AUTO 03002KT 2800 -SN OVC003/// 01/01 Q1007=
202101011950 METAR ESMX 011950Z AUTO 03003KT 4400 -RA OVC002/// 01/01 Q1006=
202101011920 METAR ESMX 011920Z AUTO 01003KT 1000 R01/P2000N R19/P2000N -SN BKN002/// BKN005/// OVC008/// 01/01 Q1006=
202101011850 METAR ESMX 011850Z AUTO 04003KT 2500 -RASN OVC002/// 01/01 Q1006=
202101011820 METAR ESMX 011820Z AUTO VRB03KT 7000 -RASN OVC003/// 01/01 Q1006 RESHUP=
202101011750 METAR ESMX 011750Z AUTO 05003KT 020V090 9000 -DZ OVC003/// 01/01 Q1006 RESHUP REUP=
202101011720 METAR ESMX 011720Z AUTO 07003KT 030V110 9999 OVC004/// 01/01 Q1006 REUP RESHUP=
202101011650 METAR ESMX 011650Z AUTO VRB03KT 9999 OVC005/// 01/01 Q1006=
202101011620 METAR ESMX 011620Z AUTO 11002KT 9999 SCT005/// BKN013/// OVC018/// 01/01 Q1006 RESHUP=
202101011550 METAR ESMX 011550Z AUTO VRB03KT 9999 UP SCT007/// BKN016/// OVC021/// 01/01 Q1006 RERA=
202101011520 METAR ESMX 011520Z AUTO VRB02KT 9000 BR OVC005/// 01/01 Q1006=
202101011450 METAR ESMX 011450Z AUTO VRB02KT 6000 -RA OVC005/// 01/01 Q1006=
202101011420 METAR ESMX 011420Z AUTO 06002KT 1800 -SN BKN006/// OVC009/// 01/01 Q1006=
202101011350 METAR ESMX 011350Z AUTO VRB01KT 2200 RASN VV010 01/01 Q1006=
202101011320 METAR ESMX 011320Z AUTO 07002KT 9999 -RASN FEW002/// OVC006/// 01/01 Q1006 RESHUP REDZ=
202101011250 METAR ESMX 011250Z AUTO VRB02KT 9999 BKN006/// BKN008/// OVC016/// 02/01 Q1006=
202101011220 METAR ESMX 011220Z AUTO VRB03KT 9999 OVC004/// 02/02 Q1006 RESHUP REDZ=
