##########################################################
# Query made at 04/19/2024 22:21:35 UTC
# Time interval: from 08/01/2021 12:00  to 08/31/2021 12:59  UTC
##########################################################

##########################################################
# ESMX, Vaxjo (Sweden)
# WMO index: 02641. WIGOS ID: 0-20000-0-02648
# Latitude 56-51N. Longitude 014-50E. Altitude 199 m.
##########################################################

202108311250 METAR ESMX 311250Z 01008KT 320V030 9999 SCT046 21/12 Q1020=
202108311220 METAR ESMX 311220Z 36008KT 9999 SCT045 21/11 Q1020=
202108311150 METAR ESMX 311150Z 02012KT 9999 FEW043 20/11 Q1021=
202108311120 METAR ESMX 311120Z 36011KT 9999 FEW035 20/10 Q1021=
202108311050 METAR ESMX 311050Z 01011KT 9999 FEW036 19/11 Q1021=
202108311020 METAR ESMX 311020Z 36013KT CAVOK 19/11 Q1021=
202108310950 METAR ESMX 310950Z 01012KT CAVOK 18/10 Q1021=
202108310920 METAR ESMX 310920Z 01010KT 340V040 CAVOK 18/10 Q1021=
202108310850 METAR ESMX 310850Z 02010KT CAVOK 17/10 Q1021=
202108310820 METAR ESMX 310820Z 36010KT CAVOK 16/10 Q1021=
202108310750 METAR ESMX 310750Z AUTO 01011KT 9999 NCD 16/10 Q1021=
202108310720 METAR ESMX 310720Z 36010KT CAVOK 15/11 Q1021=
202108310650 METAR ESMX 310650Z 35010KT CAVOK 14/11 Q1021=
202108310620 METAR ESMX 310620Z 34008KT CAVOK 13/12 Q1021=
202108310550 METAR ESMX 310550Z 34006KT CAVOK 12/11 Q1021=
202108310520 METAR ESMX 310520Z AUTO VRB02KT 9999 NCD 09/09 Q1021=
202108310450 METAR ESMX 310450Z AUTO 35005KT 9999 NCD 10/10 Q1021=
202108310420 METAR ESMX 310420Z AUTO 35004KT 9999 NCD 09/09 Q1021=
202108310350 METAR ESMX 310350Z AUTO 33004KT 9999 NCD 08/08 Q1021=
202108310320 METAR ESMX 310320Z AUTO 33005KT 9999 NCD 10/10 Q1021=
202108310250 METAR ESMX 310250Z AUTO 34006KT 9999 NCD 10/10 Q1021=
202108310220 METAR ESMX 310220Z AUTO 33006KT 9999 NCD 10/10 Q1021=
202108310150 METAR ESMX 310150Z AUTO 34005KT 9999 NCD 10/10 Q1021=
202108310120 METAR ESMX 310120Z AUTO 34006KT 9999 NCD 11/10 Q1021=
202108310050 METAR ESMX 310050Z AUTO 35006KT 9999 NCD 10/10 Q1021=
202108310020 METAR ESMX 310020Z AUTO 35006KT 9999 NCD 11/11 Q1021=
202108302350 METAR ESMX 302350Z AUTO 33005KT 9999 NCD 09/09 Q1021=
202108302320 METAR ESMX 302320Z AUTO 36003KT 9999 NCD 10/09 Q1021=
202108302250 METAR ESMX 302250Z AUTO 02005KT 9999 NCD 12/11 Q1021=
202108302220 METAR ESMX 302220Z AUTO 35005KT 9999 NCD 11/10 Q1021=
202108302150 METAR ESMX 302150Z AUTO 01006KT 9999 NCD 12/11 Q1021=
202108302120 METAR ESMX 302120Z AUTO 02006KT 9999 NCD 13/10 Q1021=
202108302050 METAR ESMX 302050Z AUTO 03007KT 9999 NCD 14/11 Q1021=
202108302020 METAR ESMX 302020Z AUTO 02007KT 9999 NCD 14/11 Q1021=
202108301950 METAR ESMX 301950Z AUTO 03007KT 9999 NCD 15/11 Q1021=
202108301920 METAR ESMX 301920Z AUTO 04007KT 9999 NCD 15/11 Q1021=
202108301850 METAR ESMX 301850Z AUTO 03005KT 9999 NCD 15/12 Q1021=
202108301820 METAR ESMX 301820Z AUTO 03005KT 9999 NCD 16/12 Q1021=
202108301750 METAR ESMX 301750Z AUTO 04007KT 9999 NCD 17/12 Q1020=
202108301720 METAR ESMX 301720Z AUTO 03007KT 9999 NCD 18/12 Q1020=
202108301650 METAR ESMX 301650Z AUTO 04007KT 9999 FEW040/// 19/12 Q1020=
202108301620 METAR ESMX 301620Z AUTO 02008KT 350V060 9999 NCD 19/11 Q1020=
202108301550 METAR ESMX 301550Z AUTO 03010KT 9999 NCD 20/11 Q1020=
202108301520 METAR ESMX 301520Z AUTO 03009KT 9999 FEW051/// 20/11 Q1020=
202108301450 METAR ESMX 301450Z AUTO 03011KT 9999 FEW041/// 20/12 Q1020=
202108301420 METAR ESMX 301420Z AUTO 04009KT 010V080 9999 SCT048/// 20/11 Q1020=
202108301350 METAR ESMX 301350Z 03009KT 9999 SCT047 20/11 Q1020=
202108301320 METAR ESMX 301320Z 02009KT 9999 SCT044 21/12 Q1020=
202108301250 METAR ESMX 301250Z 03010KT 9999 SCT044 20/12 Q1020=
202108301220 METAR ESMX 301220Z 03010KT 9999 SCT040 19/12 Q1020=
202108301150 METAR ESMX 301150Z 03011KT 350V060 9999 SCT039 19/11 Q1020=
202108301120 METAR ESMX 301120Z 04011KT 010V070 9999 FEW034 SCT044 19/12 Q1020=
202108301050 METAR ESMX 301050Z 02008KT 350V060 9999 SCT035 19/13 Q1020=
202108301020 METAR ESMX 301020Z 03009KT 350V060 9999 FEW024 SCT033 18/13 Q1020=
202108300950 METAR ESMX 300950Z 36010KT 9999 SCT023 18/13 Q1020=
202108300920 METAR ESMX 300920Z 36010KT 9999 FEW015 18/14 Q1020=
202108300850 METAR ESMX 300850Z 01011KT 9999 FEW015 17/13 Q1020=
202108300820 METAR ESMX 300820Z 36010KT 9999 SCT015 16/13 Q1020=
202108300750 METAR ESMX 300750Z 36009KT 9999 FEW012 SCT015 15/13 Q1020=
202108300720 METAR ESMX 300720Z 03007KT 340V060 9999 BKN011 15/13 Q1020=
202108300650 METAR ESMX 300650Z 01011KT 9999 SCT007 BKN010 13/12 Q1020=
202108300620 METAR ESMX 300620Z 36011KT 9999 BKN007 13/12 Q1020=
202108300550 METAR ESMX 300550Z 36012KT 9999 BKN007 13/12 Q1020=
202108300520 METAR ESMX 300520Z AUTO 36010KT 9999 OVC007/// 13/13 Q1020=
202108300450 METAR ESMX 300450Z AUTO 36010KT 9999 BKN010/// 13/13 Q1020=
202108300420 METAR ESMX 300420Z AUTO 01008KT 340V040 9999 FEW048/// 13/12 Q1020=
202108300350 METAR ESMX 300350Z AUTO 35008KT 9999 SCT047/// 12/12 Q1020=
202108300320 METAR ESMX 300320Z AUTO 01007KT 9999 FEW047/// 13/13 Q1020=
202108300250 METAR ESMX 300250Z AUTO 36007KT 9999 FEW011/// 12/12 Q1020=
202108300220 METAR ESMX 300220Z AUTO 02007KT 9999 FEW034/// SCT046/// 13/13 Q1020=
202108300150 METAR ESMX 300150Z AUTO 01008KT 9999 FEW013/// OVC048/// 13/13 Q1020=
202108300120 METAR ESMX 300120Z AUTO 02007KT 9999 OVC043/// 14/13 Q1020=
202108300050 METAR ESMX 300050Z AUTO 01007KT 9999 BKN015/// OVC040/// 14/13 Q1020=
202108300020 METAR ESMX 300020Z AUTO 36006KT 9999 BKN015/// 14/13 Q1020=
202108292350 METAR ESMX 292350Z AUTO 01007KT 9999 FEW017/// 14/13 Q1020=
202108292320 METAR ESMX 292320Z AUTO 01007KT 9999 FEW016/// 14/13 Q1020=
202108292250 METAR ESMX 292250Z AUTO 01008KT 9999 SCT016/// 14/14 Q1020=
202108292220 METAR ESMX 292220Z AUTO 02008KT 9999 BKN015/// 15/14 Q1020=
202108292150 METAR ESMX 292150Z AUTO 01008KT 9999 BKN017/// BKN043/// 15/14 Q1020=
202108292120 METAR ESMX 292120Z AUTO 01008KT 9999 FEW017/// BKN043/// 15/14 Q1020=
202108292050 METAR ESMX 292050Z AUTO 02008KT 9999 SCT017/// OVC042/// 16/14 Q1020=
202108292020 METAR ESMX 292020Z AUTO 01006KT 9999 BKN016/// BKN022/// OVC037/// 16/14 Q1020=
202108291950 METAR ESMX 291950Z AUTO 01007KT 9999 BKN016/// OVC024/// 16/14 Q1020=
202108291920 METAR ESMX 291920Z AUTO 02009KT 9999 BKN015/// OVC022/// 16/14 Q1020=
202108291850 METAR ESMX 291850Z AUTO 03008KT 9999 BKN015/// OVC031/// 16/14 Q1020=
202108291820 METAR ESMX 291820Z AUTO 02009KT 350V050 9999 FEW014/// SCT021/// OVC027/// 16/14 Q1019=
202108291750 METAR ESMX 291750Z 02010KT 350V060 9999 FEW014 SCT018 BKN034 16/15 Q1019=
202108291720 METAR ESMX 291720Z 36009KT 9999 FEW014 SCT023 16/15 Q1019=
202108291650 METAR ESMX 291650Z 02011KT 9999 SCT014 BKN020 16/15 Q1019=
202108291620 METAR ESMX 291620Z 01011KT 9999 FEW013 BKN021 17/15 Q1019=
202108291550 METAR ESMX 291550Z 01011KT 9999 BKN014 BKN028 17/15 Q1019=
202108291520 METAR ESMX 291520Z 01010KT 9999 BKN013 BKN017 17/15 Q1019=
202108291450 METAR ESMX 291450Z 36009KT 9999 SCT010 BKN015 BKN025 16/15 Q1019=
202108291420 METAR ESMX 291420Z 01009KT 9999 BKN010 BKN020 16/15 Q1019=
202108291350 METAR ESMX 291350Z 02009KT 9999 BKN010 16/15 Q1019=
202108291320 METAR ESMX 291320Z 02008KT 9999 BKN011 BKN015 17/15 Q1019=
202108291250 METAR ESMX 291250Z 02009KT 9999 BKN013 17/15 Q1019=
202108291220 METAR ESMX 291220Z 02009KT 9999 BKN013 17/15 Q1019=
202108291150 METAR ESMX 291150Z 02008KT 9999 BKN013 17/15 Q1019=
202108291120 METAR ESMX 291120Z 02009KT 9999 BKN012 17/15 Q1019=
202108291050 METAR ESMX 291050Z 36011KT 9999 BKN012 17/15 Q1018=
202108291020 METAR ESMX 291020Z 02010KT 340V050 9999 BKN011 BKN014 17/15 Q1019=
202108290950 METAR ESMX 290950Z AUTO 02009KT 9999 OVC011/// 16/14 Q1019=
202108290920 METAR ESMX 290920Z 01010KT 9999 BKN010 16/15 Q1018=
202108290850 METAR ESMX 290850Z 02011KT 9999 BKN010 16/14 Q1018=
202108290820 METAR ESMX 290820Z AUTO 03010KT 9999 OVC009/// 16/14 Q1018=
202108290750 METAR ESMX 290750Z 03010KT 9999 BKN010 16/14 Q1018=
202108290720 METAR ESMX 290720Z 03010KT 9999 BKN010 15/14 Q1018=
202108290650 METAR ESMX 290650Z 02010KT 9999 BKN009 15/14 Q1018=
202108290620 METAR ESMX 290620Z 02011KT 9999 BKN008 15/14 Q1018=
202108290550 METAR ESMX 290550Z 03010KT 010V110 9999 BKN008 15/14 Q1018=
202108290520 METAR ESMX 290520Z 02010KT 9999 BKN009 15/14 Q1018=
202108290450 METAR ESMX 290450Z 02010KT 9999 BKN009 15/14 Q1018=
202108290420 METAR ESMX 290420Z 02010KT 9999 BKN009 15/14 Q1017=
202108290350 METAR ESMX 290350Z 01013KT 9999 BKN007 15/14 Q1017=
202108290320 METAR ESMX 290320Z AUTO 01011KT 9999 OVC007/// 15/14 Q1017=
202108290250 METAR ESMX 290250Z AUTO 02011KT 9999 OVC006/// 14/14 Q1017=
202108290220 METAR ESMX 290220Z AUTO 01012KT 9000 BR OVC005/// 14/14 Q1018=
202108290150 METAR ESMX 290150Z AUTO 03011KT 9999 OVC005/// 14/14 Q1017=
202108290120 METAR ESMX 290120Z AUTO 03012KT 350V060 9999 OVC005/// 14/14 Q1017=
202108290050 METAR ESMX 290050Z AUTO 03011KT 9999 OVC005/// 14/14 Q1017=
202108290020 METAR ESMX 290020Z AUTO 03012KT 9999 OVC005/// 14/14 Q1017=
202108282350 METAR ESMX 282350Z AUTO 03012KT 9999 OVC005/// 14/14 Q1017=
202108282320 METAR ESMX 282320Z AUTO 01009KT 9999 OVC006/// 14/14 Q1017=
202108282250 METAR ESMX 282250Z AUTO 03008KT 9999 OVC006/// 14/14 Q1017=
202108282220 METAR ESMX 282220Z AUTO 01010KT 5000 BR OVC005/// 14/14 Q1017=
202108282150 METAR ESMX 282150Z AUTO 01010KT 9000 BR OVC005/// 14/14 Q1017=
202108282120 METAR ESMX 282120Z AUTO 02011KT 6000 BR BKN006/// BKN012/// OVC027/// 14/14 Q1017=
202108282050 METAR ESMX 282050Z AUTO 02011KT 9999 OVC006/// 14/14 Q1017=
202108282020 METAR ESMX 282020Z AUTO 02011KT 350V050 7000 BR BKN007/// OVC009/// 14/14 Q1017=
202108281950 METAR ESMX 281950Z AUTO 01011KT 7000 BR BKN006/// OVC014/// 14/14 Q1017 REDZ=
202108281920 METAR ESMX 281920Z AUTO 01010KT 7000 BR BKN006/// BKN008/// OVC009/// 15/14 Q1017=
202108281850 METAR ESMX 281850Z AUTO 02011KT 9999 BKN008/// OVC011/// 15/14 Q1017=
202108281820 METAR ESMX 281820Z AUTO 02011KT 9999 BKN007/// OVC011/// 15/14 Q1016=
202108281750 METAR ESMX 281750Z 02011KT 9000 BR BKN006 15/14 Q1016=
202108281720 METAR ESMX 281720Z 01011KT 9000 BKN006 14/14 Q1016=
202108281650 METAR ESMX 281650Z 02011KT 9999 -RA BKN008 15/14 Q1016=
202108281620 METAR ESMX 281620Z 02010KT 9999 BKN008 15/14 Q1016=
202108281550 METAR ESMX 281550Z 01011KT 9000 BR BKN008 15/14 Q1016=
202108281520 METAR ESMX 281520Z AUTO 35010KT 9999 BKN008/// OVC013/// 15/14 Q1016 REDZ=
202108281450 METAR ESMX 281450Z AUTO 35011KT 7000 BR FEW007/// OVC011/// 14/14 Q1016=
202108281420 METAR ESMX 281420Z AUTO 35010KT 5000 BR VV011 14/14 Q1016=
202108281350 METAR ESMX 281350Z AUTO 35011KT 8000 DZ SCT007/// OVC012/// 14/14 Q1016=
202108281320 METAR ESMX 281320Z AUTO 35010KT 9999 SCT008/// BKN011/// 14/14 Q1016=
202108281250 METAR ESMX 281250Z AUTO 35010KT 9000 DZ BKN008/// OVC012/// 14/14 Q1017=
202108281220 METAR ESMX 281220Z AUTO 35012KT 9999 -RA OVC009/// 14/14 Q1017 REDZ=
202108281150 METAR ESMX 281150Z AUTO 35011KT 9999 BKN009/// BKN011/// OVC013/// 14/14 Q1017=
202108281120 METAR ESMX 281120Z AUTO 36011KT 9999 -DZ BKN009/// OVC018/// 14/14 Q1017=
202108281050 METAR ESMX 281050Z AUTO 35012KT 9999 -DZ BKN009/// BKN012/// OVC017/// 14/14 Q1017=
202108281020 METAR ESMX 281020Z 35011KT 9999 -RA BKN008 14/14 Q1017=
202108280950 METAR ESMX 280950Z 35012KT 9999 BKN009 14/13 Q1017=
202108280920 METAR ESMX 280920Z 01012KT 9999 -RA BKN010 14/13 Q1017=
202108280850 METAR ESMX 280850Z 01011KT 340V040 9999 BKN010 14/13 Q1017=
202108280820 METAR ESMX 280820Z AUTO 01013KT 9999 OVC009/// 14/13 Q1017=
202108280750 METAR ESMX 280750Z AUTO 02013KT 9999 OVC008/// 14/13 Q1017=
202108280720 METAR ESMX 280720Z AUTO 01012KT 9999 OVC008/// 14/13 Q1017=
202108280650 METAR ESMX 280650Z AUTO 02012KT 9999 OVC007/// 14/13 Q1018=
202108280620 METAR ESMX 280620Z AUTO 02012KT 9999 OVC006/// 13/13 Q1018=
202108280550 METAR ESMX 280550Z AUTO 01011KT 6000 BR OVC006/// 13/13 Q1018=
202108280520 METAR ESMX 280520Z AUTO 36011KT 9999 BKN006/// OVC009/// 13/13 Q1018=
202108280450 METAR ESMX 280450Z AUTO 01011KT 6000 BR OVC006/// 13/13 Q1018=
202108280420 METAR ESMX 280420Z AUTO 01013KT 9999 BKN008/// OVC009/// 13/13 Q1018=
202108280350 METAR ESMX 280350Z AUTO 01012KT 9999 OVC008/// 13/13 Q1018=
202108280320 METAR ESMX 280320Z AUTO 01011KT 9999 OVC008/// 13/13 Q1018=
202108280250 METAR ESMX 280250Z AUTO 01011KT 9999 -RA OVC007/// 13/13 Q1018 REDZ=
202108280220 METAR ESMX 280220Z AUTO 02012KT 9999 OVC008/// 13/13 Q1018=
202108280150 METAR ESMX 280150Z AUTO 01012KT 9999 OVC009/// 14/13 Q1018=
202108280120 METAR ESMX 280120Z AUTO 02011KT 9999 OVC009/// 14/13 Q1018=
202108280050 METAR ESMX 280050Z AUTO 01011KT 9999 OVC008/// 14/13 Q1018=
202108280020 METAR ESMX 280020Z AUTO 01012KT 9999 OVC009/// 14/13 Q1018=
202108272350 METAR ESMX 272350Z AUTO 01012KT 9999 OVC009/// 14/13 Q1018=
202108272320 METAR ESMX 272320Z AUTO 02012KT 350V060 9999 BKN009/// OVC011/// 14/13 Q1018=
202108272250 METAR ESMX 272250Z AUTO 01012KT 9999 FEW005/// BKN007/// BKN009/// 13/13 Q1018=
202108272220 METAR ESMX 272220Z AUTO 02012KT 9999 OVC007/// 14/13 Q1018 REDZ=
202108272150 METAR ESMX 272150Z AUTO 01014KT 9000 BR BKN006/// BKN008/// OVC011/// 14/13 Q1018=
202108272120 METAR ESMX 272120Z AUTO 02015KT 9999 OVC007/// 14/13 Q1018=
202108272050 METAR ESMX 272050Z AUTO 02013KT 9999 -DZ BKN008/// BKN010/// OVC012/// 14/13 Q1018 REDZ=
202108272020 METAR ESMX 272020Z AUTO 01013KT 9999 BKN009/// OVC012/// 14/13 Q1018 REDZ=
202108271950 METAR ESMX 271950Z AUTO 01012KT 9999 OVC012/// 14/13 Q1018=
202108271920 METAR ESMX 271920Z AUTO 01012KT 9999 OVC014/// 14/13 Q1018=
202108271850 METAR ESMX 271850Z AUTO 02011KT 9999 FEW011/// BKN013/// OVC017/// 14/13 Q1018=
202108271820 METAR ESMX 271820Z AUTO 01012G22KT 9999 BKN013/// OVC018/// 14/14 Q1018=
202108271750 METAR ESMX 271750Z AUTO 02012KT 9999 BKN013/// OVC019/// 14/14 Q1017=
202108271720 METAR ESMX 271720Z AUTO 02011KT 9999 FEW009/// SCT012/// BKN015/// 14/14 Q1017 RERA=
202108271650 METAR ESMX 271650Z AUTO 01011KT 9999 -RA SCT011/// OVC019/// 14/14 Q1017=
202108271620 METAR ESMX 271620Z AUTO 01010KT 9999 -RA BKN012/// OVC018/// 14/14 Q1017=
202108271550 METAR ESMX 271550Z AUTO 02011KT 9999 -DZ BKN011/// BKN014/// OVC016/// 14/14 Q1017=
202108271520 METAR ESMX 271520Z AUTO 02011KT 9999 -RA BKN010/// OVC015/// 14/14 Q1017=
202108271450 METAR ESMX 271450Z AUTO 02010KT 9999 -DZ BKN009/// OVC016/// 14/14 Q1016=
202108271420 METAR ESMX 271420Z AUTO 03011KT 9999 -RA FEW001/// SCT007/// BKN010/// 14/14 Q1016 RESHRA=
202108271350 METAR ESMX 271350Z 03006KT 7000 RA BKN009 15/14 Q1016=
202108271320 METAR ESMX 271320Z 04008KT 360V060 9999 FEW035 15/14 Q1016=
202108271250 METAR ESMX 271250Z 03009KT 9999 -RA SCT012 15/14 Q1016=
202108271220 METAR ESMX 271220Z 03008KT 9999 -RA BKN012 15/15 Q1016=
202108271150 METAR ESMX 271150Z 04009KT 9999 -RA FEW011 BKN015 15/15 Q1016=
202108271120 METAR ESMX 271120Z 04008KT 010V080 9999 -DZ FEW011 BKN015 15/15 Q1015=
202108271050 METAR ESMX 271050Z 03011KT 010V070 9000 -RA BKN010 15/14 Q1015=
202108271020 METAR ESMX 271020Z 03009KT 7000 -RA BKN012 15/15 Q1015=
202108270950 METAR ESMX 270950Z 03009KT 9999 BKN011 15/14 Q1015=
202108270920 METAR ESMX 270920Z 03006KT 9999 -RA BKN009 15/14 Q1015=
202108270850 METAR ESMX 270850Z 03008KT 9999 BKN009 15/14 Q1015=
202108270820 METAR COR ESMX 270820Z 04009KT 9999 -RA SCT006 BKN008 14/14 Q1014=
202108270750 METAR ESMX 270750Z 04008KT 9999 SCT007 BKN009 14/14 Q1014=
202108270720 METAR ESMX 270720Z 04007KT 9000 -RA BKN007 14/14 Q1014=
202108270650 METAR ESMX 270650Z 03007KT 9999 BKN008 14/14 Q1013=
202108270620 METAR ESMX 270620Z 03008KT 360V060 9999 BKN007 14/14 Q1013=
202108270550 METAR ESMX 270550Z AUTO 03009KT 9999 BKN006/// OVC016/// 14/14 Q1013=
202108270520 METAR ESMX 270520Z AUTO 01009KT 9999 -RA BKN007/// OVC019/// 14/14 Q1012=
202108270450 METAR ESMX 270450Z AUTO 01008KT 9999 -RA SCT007/// OVC011/// 13/13 Q1012=
202108270420 METAR ESMX 270420Z AUTO 04006KT 010V080 4700 RA BKN005/// OVC023/// 13/13 Q1012 RERA=
202108270350 METAR ESMX 270350Z AUTO 02007KT 9999 SCT005/// BKN017/// BKN026/// 13/13 Q1012 RERA=
202108270320 METAR ESMX 270320Z AUTO 01009KT 9999 BKN006/// BKN018/// OVC024/// 13/13 Q1012=
202108270250 METAR ESMX 270250Z AUTO 01009KT 9000 DZ FEW001/// BKN006/// OVC010/// 13/13 Q1011 RERA=
202108270220 METAR ESMX 270220Z AUTO 02009KT 9999 OVC005/// 13/13 Q1011=
202108270150 METAR ESMX 270150Z AUTO 02010KT 9999 -DZ OVC006/// 13/13 Q1011 RERA=
202108270120 METAR ESMX 270120Z AUTO 02010KT 9999 RA BKN007/// OVC013/// 13/13 Q1011 REDZ=
202108270050 METAR ESMX 270050Z AUTO 02012KT 9999 RA FEW002/// BKN007/// OVC027/// 13/13 Q1010=
202108270020 METAR ESMX 270020Z AUTO 36012KT 9999 RA BKN007/// OVC015/// 13/13 Q1010 RESHRA=
202108262350 METAR ESMX 262350Z AUTO 02011KT 9999 RA OVC007/// 13/13 Q1010=
202108262320 METAR ESMX 262320Z AUTO 01011KT 9999 -RA OVC007/// 13/13 Q1010=
202108262250 METAR ESMX 262250Z AUTO 01011KT 9999 -RA FEW002/// OVC007/// 13/13 Q1010 RERA=
202108262220 METAR ESMX 262220Z AUTO 01010KT 9999 OVC007/// 13/13 Q1010 RERA=
202108262150 METAR ESMX 262150Z AUTO 02013KT 9999 BKN008/// OVC009/// 13/13 Q1009=
202108262120 METAR ESMX 262120Z AUTO 02011KT 9999 -RA BKN008/// OVC009/// 13/13 Q1009=
202108262050 METAR ESMX 262050Z AUTO 36011KT 9999 -DZ BKN007/// OVC013/// 13/13 Q1009 REDZ=
202108262020 METAR ESMX 262020Z AUTO 02009KT 9999 BKN008/// BKN015/// 13/13 Q1008=
202108261950 METAR ESMX 261950Z AUTO 02011KT 7000 -RA FEW006/// SCT008/// OVC012/// 13/13 Q1008 REDZ=
202108261920 METAR ESMX 261920Z AUTO 35010KT 9999 FEW007/// BKN010/// BKN015/// 13/13 Q1008=
202108261850 METAR ESMX 261850Z AUTO 34009KT 9999 -DZ FEW007/// SCT014/// BKN026/// 13/13 Q1008=
202108261820 METAR ESMX 261820Z 34010KT 9999 -RA FEW008 BKN013 13/13 Q1007=
202108261750 METAR ESMX 261750Z 34009KT 9999 BKN009 13/13 Q1007=
202108261720 METAR ESMX 261720Z 34010KT 310V010 9999 BKN008 14/13 Q1007=
202108261650 METAR ESMX 261650Z 33012KT 9999 BKN010 14/13 Q1007=
202108261620 METAR ESMX 261620Z 34011KT 9999 FEW010 BKN017 14/13 Q1007=
202108261550 METAR ESMX 261550Z AUTO 34012KT 310V010 9999 -DZ FEW011/// BKN051/// 14/13 Q1007 REDZ=
202108261520 METAR ESMX 261520Z 33009KT 9999 -RA FEW011 SCT035 14/13 Q1007=
202108261450 METAR ESMX 261450Z 35010KT 9999 -RA BKN011 13/13 Q1007=
202108261420 METAR ESMX 261420Z 35011KT 9999 -RA BKN011 14/13 Q1007=
202108261350 METAR ESMX 261350Z AUTO 35011KT 9999 FEW010/// SCT021/// BKN029/// 14/13 Q1007=
202108261320 METAR ESMX 261320Z AUTO 35009KT 9999 -RA FEW000/// OVC049/// 13/13 Q1007=
202108261250 METAR ESMX 261250Z 35013KT 9000 -RA BKN015 14/12 Q1007=
202108261220 METAR ESMX 261220Z 36012KT 9999 BKN015 15/12 Q1007=
202108261150 METAR ESMX 261150Z 35014KT 9999 BKN012 14/12 Q1007=
202108261120 METAR ESMX 261120Z 36012KT 9999 BKN011 13/12 Q1007=
202108261050 METAR ESMX 261050Z 35012KT 9999 BKN009 13/12 Q1006=
202108261020 METAR ESMX 261020Z 36011KT 330V030 9999 -RA BKN009 13/12 Q1006=
202108260950 METAR ESMX 260950Z 35012KT 7000 -RA BKN011 12/12 Q1006=
202108260920 METAR ESMX 260920Z 35013KT 9999 -RA BKN008 12/11 Q1006=
202108260850 METAR ESMX 260850Z 36012KT 9999 -RA BKN009 12/11 Q1006 RERA=
202108260820 METAR ESMX 260820Z 35012KT 9999 BKN009 11/11 Q1006 RERA=
202108260750 METAR ESMX 260750Z AUTO 34012KT 9999 -RA BKN009/// BKN013/// OVC021/// 11/11 Q1005=
202108260720 METAR ESMX 260720Z AUTO 34011KT 9999 -RA BKN007/// BKN011/// OVC018/// 11/10 Q1005=
202108260650 METAR ESMX 260650Z 33010KT 6000 -RA BKN006 10/10 Q1005=
202108260620 METAR ESMX 260620Z 32009KT 8000 -RA BKN006 10/10 Q1005=
202108260550 METAR ESMX 260550Z AUTO 33008KT 9999 -RA BKN007/// OVC023/// 10/10 Q1005=
202108260520 METAR ESMX 260520Z AUTO 32008KT 9999 -RA BKN007/// OVC022/// 10/09 Q1005=
202108260450 METAR ESMX 260450Z AUTO 31009KT 9999 -RA BKN008/// OVC014/// 10/09 Q1005=
202108260420 METAR ESMX 260420Z AUTO 32008KT 9999 DZ OVC008/// 10/09 Q1005=
202108260350 METAR ESMX 260350Z AUTO 32011KT 9999 DZ BKN008/// OVC014/// 10/09 Q1005 REDZ=
202108260320 METAR ESMX 260320Z AUTO 32010KT 9999 BR SCT005/// OVC007/// 10/09 Q1005 REDZ=
202108260250 METAR ESMX 260250Z AUTO 32010KT 9999 OVC008/// 10/09 Q1005=
202108260220 METAR ESMX 260220Z AUTO 31009KT 9999 -RA BKN009/// OVC016/// 10/09 Q1005=
202108260150 METAR ESMX 260150Z AUTO 31009KT 9999 BKN013/// BKN019/// OVC022/// 10/09 Q1005=
202108260120 METAR ESMX 260120Z AUTO 34012KT 9999 OVC019/// 11/08 Q1006=
202108260050 METAR ESMX 260050Z AUTO 34010KT 9999 OVC019/// 11/08 Q1006=
202108260020 METAR ESMX 260020Z AUTO 34012KT 9999 OVC021/// 11/08 Q1006=
202108252350 METAR ESMX 252350Z AUTO 34006KT 9999 FEW004/// SCT015/// BKN021/// 11/09 Q1006 REDZ=
202108252320 METAR ESMX 252320Z AUTO 35010KT 9999 FEW003/// OVC025/// 11/08 Q1006=
202108252250 METAR ESMX 252250Z AUTO 34010KT 9999 FEW023/// BKN039/// BKN055/// 11/08 Q1006=
202108252220 METAR ESMX 252220Z AUTO 35011KT 9999 SCT062/// OVC130/// 11/09 Q1006=
202108252150 METAR ESMX 252150Z AUTO 34011KT 9999 FEW002/// OVC051/// 12/09 Q1006=
202108252120 METAR ESMX 252120Z AUTO 33009KT 9999 FEW018/// BKN028/// BKN047/// 13/09 Q1006=
202108252050 METAR ESMX 252050Z AUTO 33005KT 9999 BKN057/// OVC072/// 13/09 Q1006=
202108252020 METAR ESMX 252020Z AUTO 34009KT 9999 SCT037/// OVC059/// 13/09 Q1006=
202108251950 METAR ESMX 251950Z AUTO 34007KT 9999 FEW051/// 12/08 Q1006=
202108251920 METAR ESMX 251920Z AUTO 34011KT 9999 FEW210/// 14/08 Q1006=
202108251850 METAR ESMX 251850Z AUTO 33013KT 9999 NCD 14/08 Q1006=
202108251820 METAR ESMX 251820Z AUTO 32009KT 9999 FEW078/// 14/09 Q1006=
202108251750 METAR ESMX 251750Z AUTO 32008KT 9999 BKN080/// 15/09 Q1006=
202108251720 METAR ESMX 251720Z AUTO 34008KT 9999 BKN082/// 16/10 Q1006=
202108251650 METAR ESMX 251650Z AUTO 34011KT 9999 FEW074/// BKN090/// 17/09 Q1006=
202108251620 METAR ESMX 251620Z AUTO 35011KT 9999 NCD 18/10 Q1006=
202108251550 METAR ESMX 251550Z AUTO 33012KT 9999 NCD 18/09 Q1005=
202108251520 METAR ESMX 251520Z 33011KT CAVOK 19/10 Q1005=
202108251450 METAR ESMX 251450Z AUTO 33013KT 9999 FEW080/// 19/10 Q1005=
202108251420 METAR ESMX 251420Z AUTO 32011KT 9999 FEW038/// 18/12 Q1006=
202108251350 METAR ESMX 251350Z 28004KT 250V310 9999 FEW031 18/15 Q1006=
202108251320 METAR ESMX 251320Z 20003KT 140V240 9999 VCSH SCT035CB 16/15 Q1006 RERA=
202108251250 METAR ESMX 251250Z 36014KT 320V020 7000 RA BKN026CB 14/14 Q1007=
202108251220 METAR ESMX 251220Z 28007KT 240V310 9999 BKN022 19/14 Q1006=
202108251150 METAR ESMX 251150Z 27009KT 240V300 9999 BKN025 19/15 Q1006=
202108251120 METAR ESMX 251120Z 28008KT 250V320 9999 SCT012 BKN034 18/16 Q1007=
202108251050 METAR ESMX 251050Z 27009KT 9999 BKN008 17/15 Q1007=
202108251020 METAR ESMX 251020Z 27007KT 240V300 9999 BKN007 16/16 Q1008=
202108250950 METAR ESMX 250950Z 25007KT 6000 -DZ BKN007 16/15 Q1008=
202108250920 METAR ESMX 250920Z 25008KT 4500 -DZ VV006 15/15 Q1009=
202108250850 METAR ESMX 250850Z 26006KT 230V290 4700 DZ VV034 15/15 Q1009=
202108250820 METAR ESMX 250820Z 26008KT 9999 -RA BKN011 16/14 Q1010=
202108250750 METAR ESMX 250750Z 25008KT 9999 BKN009 15/14 Q1010=
202108250720 METAR ESMX 250720Z 22009KT 9999 BKN008 15/14 Q1011=
202108250650 METAR ESMX 250650Z 22009KT 8000 BR BKN008 14/13 Q1011=
202108250620 METAR ESMX 250620Z 24008KT 9999 BKN010 14/12 Q1012=
202108250550 METAR ESMX 250550Z 25009KT 9999 BKN011 14/12 Q1013=
202108250520 METAR ESMX 250520Z AUTO 25011KT 210V280 9999 OVC013/// 14/12 Q1013=
202108250450 METAR ESMX 250450Z AUTO 25009KT 220V290 9999 OVC016/// 14/11 Q1014=
202108250420 METAR ESMX 250420Z AUTO 23011KT 9999 OVC015/// 14/12 Q1014=
202108250350 METAR ESMX 250350Z AUTO 23010KT 9999 BKN015/// OVC140/// 14/12 Q1015=
202108250320 METAR ESMX 250320Z AUTO 23012KT 9999 BKN013/// OVC150/// 14/12 Q1015=
202108250250 METAR ESMX 250250Z AUTO 24011KT 9999 FEW013/// OVC076/// 14/13 Q1016=
202108250220 METAR ESMX 250220Z AUTO 21011KT 9999 BKN130/// OVC160/// 15/13 Q1017=
202108250150 METAR ESMX 250150Z AUTO 21009KT 9999 OVC160/// 14/12 Q1017=
202108250120 METAR ESMX 250120Z AUTO 22010KT 9999 SCT076/// BKN130/// OVC160/// 14/11 Q1018=
202108250050 METAR ESMX 250050Z AUTO 22009KT 9999 BKN074/// 14/11 Q1019=
202108250020 METAR ESMX 250020Z AUTO 22009KT 9999 OVC078/// 15/11 Q1020=
202108242350 METAR ESMX 242350Z AUTO 21009KT 9999 OVC086/// 15/11 Q1021=
202108242320 METAR ESMX 242320Z AUTO 23007KT 9999 OVC088/// 15/11 Q1021=
202108242250 METAR ESMX 242250Z AUTO 22006KT 9999 OVC090/// 15/11 Q1022=
202108242220 METAR ESMX 242220Z AUTO 23005KT 9999 OVC098/// 14/11 Q1022=
202108242150 METAR ESMX 242150Z AUTO 23005KT 9999 BKN098/// 14/11 Q1023=
202108242120 METAR ESMX 242120Z AUTO 23005KT 9999 BKN100/// 15/11 Q1023=
202108242050 METAR ESMX 242050Z AUTO 20005KT 9999 SCT110/// 15/11 Q1024=
202108242020 METAR ESMX 242020Z AUTO 23005KT 9999 FEW130/// 15/11 Q1024=
202108241950 METAR ESMX 241950Z AUTO 24004KT 9999 NCD 15/11 Q1024=
202108241920 METAR ESMX 241920Z AUTO 24004KT 9999 NCD 15/11 Q1025=
202108241850 METAR ESMX 241850Z AUTO 25005KT 9999 BKN070/// 17/11 Q1025=
202108241820 METAR ESMX 241820Z AUTO 23004KT 9999 BKN049/// 17/12 Q1025=
202108241750 METAR ESMX 241750Z AUTO 21005KT 9999 NCD 17/11 Q1025=
202108241720 METAR ESMX 241720Z AUTO 23004KT 9999 NCD 19/12 Q1025=
202108241650 METAR ESMX 241650Z AUTO 22004KT 170V250 9999 FEW053/// 20/11 Q1026=
202108241620 METAR ESMX 241620Z AUTO 23005KT 200V260 9999 FEW055/// 20/10 Q1026=
202108241550 METAR ESMX 241550Z AUTO 20005KT 9999 NCD 21/10 Q1026=
202108241520 METAR ESMX 241520Z AUTO 20007KT 9999 NCD 20/10 Q1026=
202108241450 METAR ESMX 241450Z AUTO 24005KT 9999 NCD 21/10 Q1027=
202108241420 METAR ESMX 241420Z AUTO 21004KT 170V280 9999 FEW057/// SCT070/// 20/08 Q1027=
202108241350 METAR ESMX 241350Z 27005KT 230V300 CAVOK 21/08 Q1027=
202108241320 METAR ESMX 241320Z 05003KT 340V120 CAVOK 21/09 Q1027=
202108241250 METAR ESMX 241250Z 03003KT 9999 FEW047 20/09 Q1028=
202108241220 METAR ESMX 241220Z 31004KT 260V330 9999 FEW046 20/10 Q1028=
202108241150 METAR ESMX 241150Z 05004KT 010V080 9999 FEW045 20/10 Q1028=
202108241120 METAR ESMX 241120Z 07004KT 020V140 CAVOK 20/10 Q1029=
202108241050 METAR ESMX 241050Z 17004KT CAVOK 19/10 Q1029=
202108241020 METAR ESMX 241020Z 17004KT CAVOK 19/11 Q1029=
202108240950 METAR ESMX 240950Z 17003KT CAVOK 18/11 Q1029=
202108240920 METAR ESMX 240920Z 16004KT CAVOK 17/11 Q1029=
202108240850 METAR ESMX 240850Z 22003KT 170V290 CAVOK 17/11 Q1029=
202108240820 METAR ESMX 240820Z 16003KT CAVOK 16/10 Q1029=
202108240750 METAR ESMX 240750Z 16005KT CAVOK 15/10 Q1029=
202108240720 METAR ESMX 240720Z 14004KT CAVOK 15/10 Q1029=
202108240650 METAR ESMX 240650Z 14003KT CAVOK 14/10 Q1029=
202108240620 METAR ESMX 240620Z 12001KT CAVOK 13/11 Q1029=
202108240550 METAR ESMX 240550Z 00000KT CAVOK 11/11 Q1029=
202108240520 METAR ESMX 240520Z AUTO 00000KT 8000 BKN170/// 09/09 Q1029=
202108240450 METAR ESMX 240450Z AUTO 19002KT 9999 FEW170/// 06/06 Q1028=
202108240420 METAR ESMX 240420Z AUTO 00000KT 0500 R01/P2000N R19/P2000D BCFG NCD 04/04 Q1028=
202108240350 METAR ESMX 240350Z AUTO 00000KT 0350 R01/P2000N R19/P2000N BR NCD 04/04 Q1028=
202108240320 METAR ESMX 240320Z AUTO 17001KT 9999 NCD 06/06 Q1028=
202108240250 METAR ESMX 240250Z AUTO 00000KT 9999 NCD 05/05 Q1028=
202108240220 METAR ESMX 240220Z AUTO 00000KT 9999 NCD 05/05 Q1028=
202108240150 METAR ESMX 240150Z AUTO 12002KT 9999 NCD 05/05 Q1028=
202108240120 METAR ESMX 240120Z AUTO 18002KT 9999 NCD 05/05 Q1028=
202108240050 METAR ESMX 240050Z AUTO 00000KT 9999 R01///// R19/P2000N NCD 06/06 Q1028=
202108240020 METAR ESMX 240020Z AUTO 00000KT 9999 NCD 06/06 Q1028=
202108232350 METAR ESMX 232350Z AUTO 12003KT 9999 BCFG NCD 06/06 Q1028=
202108232320 METAR ESMX 232320Z AUTO 17001KT 5000 BCFG NCD 07/07 Q1028=
202108232250 METAR ESMX 232250Z AUTO 00000KT 9999 NCD 07/07 Q1028=
202108232220 METAR ESMX 232220Z AUTO 17002KT 9999 NCD 07/07 Q1027=
202108232150 METAR ESMX 232150Z AUTO 12003KT 9999 NCD 10/10 Q1027=
202108232120 METAR ESMX 232120Z AUTO 12002KT 9999 NCD 08/08 Q1027=
202108232050 METAR ESMX 232050Z AUTO 00000KT 9999 NCD 09/09 Q1027=
202108232020 METAR ESMX 232020Z AUTO 12003KT 9999 NCD 10/09 Q1027=
202108231950 METAR ESMX 231950Z AUTO 00000KT 9999 NCD 10/10 Q1027=
202108231920 METAR ESMX 231920Z AUTO 00000KT 9999 NCD 10/08 Q1027=
202108231850 METAR ESMX 231850Z AUTO 00000KT 9999 -RA NCD 11/09 Q1026=
202108231820 METAR ESMX 231820Z AUTO 00000KT 9999 NCD 13/10 Q1026=
202108231750 METAR ESMX 231750Z AUTO 00000KT 9999 NCD 16/10 Q1026=
202108231720 METAR ESMX 231720Z AUTO 03002KT 9999 NCD 18/09 Q1026=
202108231650 METAR ESMX 231650Z AUTO 03005KT 9999 NCD 19/07 Q1026=
202108231620 METAR ESMX 231620Z AUTO 01005KT 340V050 9999 NCD 19/07 Q1026=
202108231550 METAR ESMX 231550Z AUTO 02005KT 9999 NCD 19/07 Q1026=
202108231520 METAR ESMX 231520Z AUTO 03005KT 350V070 9999 FEW055/// 20/08 Q1026=
202108231450 METAR ESMX 231450Z AUTO 35006KT 320V020 9999 FEW055/// 20/07 Q1026=
202108231420 METAR ESMX 231420Z AUTO 04005KT 9999 NCD 20/07 Q1026=
202108231350 METAR ESMX 231350Z 32004KT 270V010 CAVOK 20/07 Q1026=
202108231320 METAR ESMX 231320Z 36005KT 320V080 CAVOK 20/08 Q1026=
202108231250 METAR ESMX 231250Z 36005KT 330V080 CAVOK 19/09 Q1026=
202108231220 METAR ESMX 231220Z 06004KT 300V110 CAVOK 20/08 Q1026=
202108231150 METAR ESMX 231150Z 06006KT 020V110 CAVOK 19/07 Q1026=
202108231120 METAR ESMX 231120Z 35006KT 330V030 9999 SCT049 19/07 Q1026=
202108231050 METAR ESMX 231050Z 03006KT 350V070 CAVOK 19/07 Q1026=
202108231020 METAR COR ESMX 231020Z 06007KT CAVOK 18/08 Q1026=
202108230950 METAR ESMX 230950Z 04005KT 360V090 CAVOK 18/09 Q1026=
202108230920 METAR ESMX 230920Z 04008KT 360V070 CAVOK 18/09 Q1025=
202108230850 METAR ESMX 230850Z 01008KT 340V050 CAVOK 18/11 Q1025=
202108230820 METAR ESMX 230820Z 01007KT CAVOK 17/11 Q1025=
202108230750 METAR ESMX 230750Z 03005KT CAVOK 16/11 Q1025=
202108230720 METAR ESMX 230720Z AUTO 01005KT 320V040 9999 NCD 15/12 Q1025=
202108230650 METAR ESMX 230650Z 36006KT CAVOK 14/11 Q1025=
202108230620 METAR ESMX 230620Z 01006KT CAVOK 13/10 Q1024=
202108230550 METAR COR ESMX 230550Z 36007KT CAVOK 12/10 Q1024=
202108230520 METAR ESMX 230520Z AUTO 35006KT 9999 NCD 11/10 Q1024=
202108230450 METAR ESMX 230450Z AUTO 36003KT 9999 NCD 06/06 Q1024=
202108230420 METAR ESMX 230420Z AUTO 00000KT 9999 NCD 06/06 Q1024=
202108230350 METAR ESMX 230350Z AUTO VRB02KT 9999 NCD 05/05 Q1024=
202108230320 METAR ESMX 230320Z AUTO 00000KT 1200 R01/P2000N R19/P2000N FG NCD 05/05 Q1023=
202108230250 METAR ESMX 230250Z AUTO 19001KT 9999 NCD 06/06 Q1023=
202108230220 METAR ESMX 230220Z AUTO 00000KT 9999 NCD 06/06 Q1023=
202108230150 METAR ESMX 230150Z AUTO 00000KT 9999 NCD 06/06 Q1023=
202108230120 METAR ESMX 230120Z AUTO 00000KT 9999 NCD 07/06 Q1023=
202108230050 METAR ESMX 230050Z AUTO 19002KT 9999 NCD 08/07 Q1023=
202108230020 METAR ESMX 230020Z AUTO 00000KT 9999 NCD 08/08 Q1023=
202108222350 METAR ESMX 222350Z AUTO 21001KT 9999 FEW059/// SCT070/// 07/07 Q1023=
202108222320 METAR ESMX 222320Z AUTO 17001KT 9999 FEW066/// 09/08 Q1023=
202108222250 METAR ESMX 222250Z AUTO 00000KT 9999 FEW061/// SCT074/// 09/08 Q1023=
202108222220 METAR ESMX 222220Z AUTO 00000KT 9999 BKN070/// 10/09 Q1023=
202108222150 METAR ESMX 222150Z AUTO 00000KT 9999 FEW068/// 10/08 Q1022=
202108222120 METAR ESMX 222120Z AUTO 23003KT 9999 SCT066/// 13/09 Q1022=
202108222050 METAR ESMX 222050Z AUTO 23003KT 9999 BKN072/// 13/08 Q1022=
202108222020 METAR ESMX 222020Z AUTO 21005KT 9999 FEW055/// BKN066/// OVC086/// 14/09 Q1022=
202108221950 METAR ESMX 221950Z AUTO 17005KT 9999 BKN055/// OVC066/// 15/10 Q1022=
202108221920 METAR ESMX 221920Z AUTO 20006KT 9999 BKN059/// OVC088/// 15/11 Q1021=
202108221850 METAR ESMX 221850Z AUTO 00000KT 9999 BKN066/// OVC086/// 15/13 Q1021=
202108221820 METAR ESMX 221820Z AUTO 00000KT 9999 BKN066/// OVC086/// 15/12 Q1021=
202108221750 METAR ESMX 221750Z 08003KT CAVOK 17/11 Q1020=
202108221720 METAR ESMX 221720Z 07004KT CAVOK 19/10 Q1020=
202108221650 METAR ESMX 221650Z 03004KT CAVOK 20/11 Q1020=
202108221620 METAR ESMX 221620Z 03004KT CAVOK 19/10 Q1020=
202108221550 METAR ESMX 221550Z AUTO 03005KT 9999 OVC086/// 19/10 Q1020=
202108221520 METAR ESMX 221520Z AUTO 02008KT 9999 OVC084/// 20/10 Q1020=
202108221450 METAR ESMX 221450Z 09003KT 010V110 CAVOK 21/07 Q1020=
202108221420 METAR ESMX 221420Z 03004KT CAVOK 21/07 Q1020=
202108221350 METAR ESMX 221350Z 34003KT 280V040 CAVOK 21/08 Q1020=
202108221320 METAR ESMX 221320Z VRB03KT CAVOK 21/08 Q1020=
202108221250 METAR COR ESMX 221250Z VRB02KT CAVOK 21/08 Q1020=
202108221220 METAR ESMX 221220Z AUTO 03004KT 340V080 9999 FEW080/// 21/08 Q1020=
202108221150 METAR ESMX 221150Z 23004KT CAVOK 21/07 Q1020=
202108221120 METAR ESMX 221120Z 03003KT CAVOK 20/07 Q1020=
202108221050 METAR ESMX 221050Z 04004KT CAVOK 20/07 Q1020=
202108221020 METAR ESMX 221020Z 04004KT 010V080 CAVOK 19/09 Q1020=
202108220950 METAR ESMX 220950Z 06004KT 010V110 CAVOK 19/09 Q1020=
202108220920 METAR ESMX 220920Z 05003KT 330V120 CAVOK 19/09 Q1020=
202108220850 METAR ESMX 220850Z 22004KT CAVOK 18/09 Q1020=
202108220820 METAR ESMX 220820Z VRB03KT CAVOK 19/10 Q1020=
202108220750 METAR ESMX 220750Z VRB02KT CAVOK 17/10 Q1020=
202108220720 METAR ESMX 220720Z 22003KT CAVOK 17/12 Q1020=
202108220650 METAR ESMX 220650Z VRB01KT CAVOK 16/12 Q1020=
202108220620 METAR COR ESMX 220620Z 00000KT CAVOK 14/14 Q1020=
202108220550 METAR ESMX 220550Z 00000KT 7000 R01/0500N R19/P2000N BCFG NSC 11/11 Q1019=
202108220520 METAR ESMX 220520Z 19002KT 0150 R01/0225N R19/0225N FG NSC 10/10 Q1019=
202108220450 METAR ESMX 220450Z 22002KT 0500 R01/0800N R19/1100N FG NSC 08/08 Q1019=
202108220420 METAR ESMX 220420Z 00000KT 0300 R01/0450N R19/0175N FG NSC 07/07 Q1019=
202108220350 METAR ESMX 220350Z 18001KT 0200 R01/0600N R19/P2000N BCFG NSC 08/08 Q1019=
202108220320 METAR ESMX 220320Z AUTO 00000KT 0250 R01/1600D R19/P2000D BCFG SCT084/// 07/07 Q1019=
202108220250 METAR ESMX 220250Z AUTO 19001KT 9999 OVC084/// 08/08 Q1019=
202108220220 METAR ESMX 220220Z AUTO 00000KT 9999 OVC084/// 08/08 Q1019=
202108220150 METAR ESMX 220150Z AUTO 00000KT 9999 FG SCT086/// 07/07 Q1019=
202108220120 METAR ESMX 220120Z AUTO 20001KT 9999 SCT070/// 08/08 Q1019=
202108220050 METAR ESMX 220050Z AUTO 00000KT 9999 BKN074/// 09/09 Q1019=
202108220020 METAR ESMX 220020Z AUTO 19002KT 9999 BR BKN070/// 09/09 Q1019=
202108212350 METAR ESMX 212350Z AUTO 00000KT 9999 BKN076/// 09/09 Q1019=
202108212320 METAR ESMX 212320Z AUTO 00000KT 9999 BKN082/// 09/09 Q1019=
202108212250 METAR ESMX 212250Z AUTO 18002KT 9999 BKN084/// 09/08 Q1019=
202108212220 METAR ESMX 212220Z AUTO 18003KT 9999 NCD 10/10 Q1019=
202108212150 METAR ESMX 212150Z AUTO 22002KT 9999 FEW072/// 11/11 Q1019=
202108212120 METAR ESMX 212120Z AUTO 00000KT 9999 NCD 11/11 Q1019=
202108212050 METAR ESMX 212050Z AUTO 22001KT 9999 SCT062/// 13/12 Q1019=
202108212020 METAR ESMX 212020Z AUTO 22003KT 9999 OVC061/// 14/12 Q1019=
202108211950 METAR ESMX 211950Z AUTO 22003KT 9999 FEW062/// BKN084/// 14/12 Q1019=
202108211920 METAR ESMX 211920Z AUTO 22003KT 9999 OVC080/// 14/12 Q1018=
202108211850 METAR ESMX 211850Z 26003KT CAVOK 15/11 Q1018=
202108211820 METAR ESMX 211820Z 25004KT CAVOK 15/11 Q1018=
202108211750 METAR ESMX 211750Z 27005KT CAVOK 16/11 Q1018=
202108211720 METAR ESMX 211720Z 29004KT CAVOK 17/10 Q1017=
202108211650 METAR ESMX 211650Z 29005KT CAVOK 18/10 Q1017=
202108211620 METAR ESMX 211620Z 29003KT CAVOK 18/11 Q1017=
202108211550 METAR ESMX 211550Z 30003KT CAVOK 18/10 Q1017=
202108211520 METAR ESMX 211520Z AUTO 28005KT 9999 BKN088/// 18/09 Q1017=
202108211450 METAR ESMX 211450Z AUTO 29005KT 9999 OVC088/// 18/09 Q1017=
202108211420 METAR ESMX 211420Z AUTO 28006KT 240V330 9999 FEW072/// OVC088/// 18/09 Q1017=
202108211350 METAR ESMX 211350Z AUTO 34007KT 9999 OVC086/// 19/10 Q1017=
202108211320 METAR ESMX 211320Z AUTO 34007KT 9999 OVC080/// 18/10 Q1018=
202108211250 METAR ESMX 211250Z AUTO 33008KT 9999 FEW055/// OVC074/// 17/10 Q1018=
202108211220 METAR ESMX 211220Z AUTO 33006KT 260V350 9999 BKN082/// 18/09 Q1017=
202108211150 METAR ESMX 211150Z AUTO VRB06KT 9999 BKN068/// 20/09 Q1017=
202108211120 METAR ESMX 211120Z AUTO 31006KT 9999 FEW035/// 18/10 Q1017=
202108211050 METAR ESMX 211050Z AUTO 27006KT 9999 FEW034/// SCT043/// 18/10 Q1017=
202108211020 METAR ESMX 211020Z AUTO 30005KT 240V350 9999 SCT029/// 18/11 Q1017=
202108210950 METAR ESMX 210950Z AUTO 25006KT 230V290 9999 NCD 17/10 Q1017=
202108210920 METAR ESMX 210920Z AUTO 28006KT 230V310 9999 FEW018/// 17/12 Q1017=
202108210850 METAR ESMX 210850Z AUTO 29007KT 250V320 9999 BKN017/// 16/12 Q1017=
202108210820 METAR ESMX 210820Z AUTO 30007KT 260V350 9999 SCT015/// BKN018/// 15/12 Q1017=
202108210750 METAR ESMX 210750Z AUTO 32009KT 9999 FEW010/// BKN013/// OVC016/// 14/12 Q1017=
202108210720 METAR ESMX 210720Z AUTO 29005KT 9999 OVC009/// 14/12 Q1016=
202108210650 METAR ESMX 210650Z AUTO 28006KT 240V320 9999 BKN008/// 14/12 Q1016=
202108210620 METAR ESMX 210620Z AUTO 27005KT 240V300 9999 FEW007/// 13/11 Q1016=
202108210550 METAR ESMX 210550Z AUTO 26005KT 210V280 9999 NCD 12/11 Q1016=
202108210520 METAR ESMX 210520Z AUTO 27005KT 230V300 9999 FEW057/// 11/11 Q1015=
202108210450 METAR ESMX 210450Z AUTO 25005KT 9999 BKN057/// 10/10 Q1015=
202108210420 METAR ESMX 210420Z AUTO 25005KT 9999 NCD 09/09 Q1015=
202108210350 METAR ESMX 210350Z AUTO 25005KT 9999 NCD 09/09 Q1015=
202108210320 METAR ESMX 210320Z AUTO 25005KT 9999 FEW003/// 08/08 Q1015=
202108210250 METAR ESMX 210250Z AUTO 25004KT 9999 NCD 08/08 Q1015=
202108210220 METAR ESMX 210220Z AUTO 26004KT 9999 NCD 09/09 Q1015=
202108210150 METAR ESMX 210150Z AUTO 24006KT 9999 NCD 09/09 Q1015=
202108210120 METAR ESMX 210120Z AUTO 24005KT 9999 NCD 09/09 Q1015=
202108210050 METAR ESMX 210050Z AUTO 25006KT 9999 NCD 09/09 Q1014=
202108210020 METAR ESMX 210020Z AUTO 24005KT 9999 NCD 09/08 Q1014=
202108202350 METAR ESMX 202350Z AUTO 24006KT 9999 NCD 09/08 Q1014=
202108202320 METAR ESMX 202320Z AUTO 25005KT 9999 NCD 09/08 Q1014=
202108202250 METAR ESMX 202250Z AUTO 25004KT 9999 NCD 09/09 Q1014=
202108202220 METAR ESMX 202220Z AUTO 24005KT 9999 NCD 09/09 Q1014=
202108202150 METAR ESMX 202150Z AUTO 24004KT 9999 NCD 10/09 Q1014=
202108202120 METAR ESMX 202120Z AUTO 23006KT 9999 NCD 09/08 Q1013=
202108202050 METAR ESMX 202050Z AUTO 24004KT 9999 NCD 10/09 Q1013=
202108202020 METAR ESMX 202020Z AUTO 23005KT 9999 NCD 11/09 Q1013=
202108201950 METAR ESMX 201950Z AUTO 24004KT 9999 NCD 11/09 Q1013=
202108201920 METAR ESMX 201920Z AUTO 25005KT 9999 NCD 12/09 Q1013=
202108201850 METAR ESMX 201850Z AUTO 24004KT 9999 NCD 12/09 Q1012=
202108201820 METAR ESMX 201820Z AUTO 25005KT 9999 FEW062/// 14/09 Q1012=
202108201750 METAR ESMX 201750Z AUTO 25008KT 9999 FEW034/// SCT062/// 15/09 Q1012=
202108201720 METAR ESMX 201720Z AUTO 25009KT 9999 SCT070/// 15/09 Q1012=
202108201650 METAR ESMX 201650Z AUTO 25011KT 220V280 9999 SCT070/// 16/09 Q1011=
202108201620 METAR ESMX 201620Z AUTO 25009KT 9999 OVC070/// 17/09 Q1011=
202108201550 METAR ESMX 201550Z AUTO 26008KT 9999 BKN074/// 16/10 Q1011=
202108201520 METAR ESMX 201520Z AUTO 26009KT 9999 BKN055/// OVC074/// 16/10 Q1011=
202108201450 METAR ESMX 201450Z AUTO 24013KT 9999 SCT035/// BKN049/// 18/10 Q1011=
202108201420 METAR ESMX 201420Z AUTO 24012KT 210V270 9999 FEW036/// SCT064/// 18/11 Q1011=
202108201350 METAR ESMX 201350Z 25012KT CAVOK 18/10 Q1010=
202108201320 METAR ESMX 201320Z 25013KT 9999 FEW041 SCT062 18/10 Q1010=
202108201250 METAR ESMX 201250Z 24013KT 210V280 9999 FEW043 19/10 Q1010=
202108201220 METAR ESMX 201220Z 22013KT 9999 FEW043 19/09 Q1010=
202108201150 METAR ESMX 201150Z 26012KT CAVOK 18/08 Q1010=
202108201120 METAR ESMX 201120Z 26011KT 9999 SCT041 18/09 Q1010=
202108201050 METAR ESMX 201050Z 25012KT 9999 SCT039 18/09 Q1009=
202108201020 METAR ESMX 201020Z 26010KT 210V290 9999 BKN040 17/10 Q1009=
202108200950 METAR ESMX 200950Z 23009KT 200V260 9999 BKN031 16/10 Q1009=
202108200920 METAR ESMX 200920Z 26010KT 220V290 9999 BKN030 17/10 Q1009=
202108200850 METAR ESMX 200850Z 22009KT 9999 BKN022 15/11 Q1009=
202108200820 METAR ESMX 200820Z 23007KT 190V290 9999 BKN020 15/11 Q1009=
202108200750 METAR ESMX 200750Z 24007KT 9999 BKN017 15/12 Q1009=
202108200720 METAR ESMX 200720Z 23008KT 200V270 9999 BKN016 14/11 Q1009=
202108200650 METAR ESMX 200650Z 23006KT 200V260 9999 BKN012 14/12 Q1009=
202108200620 METAR ESMX 200620Z 23006KT 9999 BKN010 13/12 Q1008=
202108200550 METAR ESMX 200550Z AUTO 22007KT 9999 FEW015/// OVC019/// 13/12 Q1008=
202108200520 METAR ESMX 200520Z AUTO 21007KT 9999 BKN010/// 12/12 Q1008=
202108200450 METAR ESMX 200450Z AUTO 22006KT 9999 FEW012/// 11/11 Q1008=
202108200420 METAR ESMX 200420Z AUTO 21006KT 9999 BKN011/// 11/11 Q1008=
202108200350 METAR ESMX 200350Z AUTO 22007KT 9999 OVC013/// 12/11 Q1007=
202108200320 METAR ESMX 200320Z AUTO 20007KT 9999 OVC016/// 11/11 Q1007=
202108200250 METAR ESMX 200250Z AUTO 22007KT 9999 SCT017/// 11/11 Q1007=
202108200220 METAR ESMX 200220Z AUTO 22007KT 9999 FEW053/// 11/10 Q1007=
202108200150 METAR ESMX 200150Z AUTO 22005KT 9999 OVC053/// 11/10 Q1007=
202108200120 METAR ESMX 200120Z AUTO 22005KT 9999 OVC055/// 11/10 Q1007=
202108200050 METAR ESMX 200050Z AUTO 22006KT 9999 BKN057/// 11/10 Q1007=
202108200020 METAR ESMX 200020Z AUTO 21007KT 9999 OVC057/// 12/10 Q1007=
202108192350 METAR ESMX 192350Z AUTO 20007KT 9999 OVC055/// 12/11 Q1007=
202108192320 METAR ESMX 192320Z AUTO 22007KT 9999 OVC055/// 12/10 Q1007=
202108192250 METAR ESMX 192250Z AUTO 23006KT 9999 BKN055/// 11/10 Q1007=
202108192220 METAR ESMX 192220Z AUTO 19006KT 9999 NCD 11/10 Q1007=
202108192150 METAR ESMX 192150Z AUTO 23006KT 9999 FEW023/// 11/10 Q1006=
202108192120 METAR ESMX 192120Z AUTO 23006KT 9999 SCT024/// 12/10 Q1006=
202108192050 METAR ESMX 192050Z AUTO 23008KT 9999 BKN053/// 13/10 Q1006=
202108192020 METAR ESMX 192020Z AUTO 22007KT 9999 BKN055/// BKN170/// 13/10 Q1006=
202108191950 METAR ESMX 191950Z AUTO 22007KT 9999 FEW031/// BKN180/// 13/10 Q1005=
202108191920 METAR ESMX 191920Z AUTO 23006KT 9999 FEW055/// SCT180/// 13/10 Q1005=
202108191850 METAR ESMX 191850Z AUTO 23006KT 9999 FEW160/// 13/10 Q1005=
202108191820 METAR ESMX 191820Z 22007KT 190V250 9999 FEW038 15/10 Q1005=
202108191750 METAR ESMX 191750Z 25008KT CAVOK 15/09 Q1005=
202108191720 METAR ESMX 191720Z 25007KT 9999 FEW038 16/09 Q1004=
202108191650 METAR ESMX 191650Z 25009KT 9999 SCT038 16/10 Q1004=
202108191620 METAR COR ESMX 191620Z 24010G21KT 210V280 9999 SCT039 17/09 Q1004=
202108191550 METAR ESMX 191550Z 25012KT 230V290 9999 SCT038 18/09 Q1004=
202108191520 METAR ESMX 191520Z 22015KT 9999 FEW039 18/09 Q1004=
202108191450 METAR ESMX 191450Z 24015KT 9999 SCT037 18/10 Q1003=
202108191420 METAR ESMX 191420Z 23013G23KT 200V260 9999 SCT035 19/11 Q1003=
202108191350 METAR ESMX 191350Z 23014KT 200V270 9999 SCT034 18/10 Q1003=
202108191320 METAR ESMX 191320Z AUTO 23016KT 9999 SCT034/// 19/11 Q1003=
202108191250 METAR ESMX 191250Z 21016KT 9999 SCT043 19/12 Q1002=
202108191220 METAR ESMX 191220Z 24013KT 9999 SCT038 20/11 Q1002=
202108191150 METAR ESMX 191150Z 24012KT 9999 FEW035 SCT068 18/11 Q1002=
202108191120 METAR ESMX 191120Z 23011KT 210V270 9999 FEW032 BKN070 19/11 Q1002=
202108191050 METAR ESMX 191050Z 24009KT 9999 SCT032 BKN049 18/12 Q1002=
202108191020 METAR ESMX 191020Z 24010KT 210V280 9999 SCT029 BKN064 18/12 Q1001=
202108190950 METAR ESMX 190950Z 26010KT 220V290 9999 BKN026 17/11 Q1001=
202108190920 METAR ESMX 190920Z 24010KT 200V270 9999 BKN025 18/12 Q1001=
202108190850 METAR ESMX 190850Z 23008KT 200V260 9999 SCT018 BKN029 16/13 Q1001=
202108190820 METAR ESMX 190820Z AUTO 25009KT 230V300 9999 FEW015/// SCT020/// OVC030/// 16/13 Q1001=
202108190750 METAR ESMX 190750Z 24008KT 200V290 9999 BKN012 15/13 Q1000=
202108190720 METAR ESMX 190720Z 24008KT 9999 BKN010 15/13 Q1000=
202108190650 METAR ESMX 190650Z 23009KT 9999 BKN008 14/13 Q1000=
202108190620 METAR ESMX 190620Z 25007KT 9999 BKN007 13/13 Q1000=
202108190550 METAR ESMX 190550Z 23009KT 9999 BKN007 14/13 Q0999=
202108190520 METAR ESMX 190520Z 25008KT 9999 -RA BKN007 13/13 Q0999=
202108190450 METAR ESMX 190450Z 25008KT 9999 FEW007 BKN014 13/13 Q0999=
202108190420 METAR ESMX 190420Z 24008KT 9999 SCT015 BKN064 13/12 Q0998=
202108190350 METAR ESMX 190350Z 23007KT 9999 SCT011 BKN070 13/12 Q0998=
202108190320 METAR ESMX 190320Z AUTO 25007KT 9999 -RA SCT011/// BKN046/// BKN055/// 13/13 Q0998 REDZ=
202108190250 METAR ESMX 190250Z AUTO 24008KT 9999 FEW009/// BKN013/// BKN070/// 13/13 Q0998 REDZ=
202108190220 METAR ESMX 190220Z AUTO 22008KT 9999 BKN015/// OVC061/// 13/13 Q0998=
202108190150 METAR ESMX 190150Z AUTO 24007KT 9999 SCT011/// BKN014/// OVC018/// 13/13 Q0998=
202108190120 METAR ESMX 190120Z AUTO 25007KT 9999 BKN010/// OVC014/// 13/13 Q0998=
202108190050 METAR ESMX 190050Z AUTO 24006KT 9999 OVC009/// 13/13 Q0998=
202108190020 METAR ESMX 190020Z AUTO 23007KT 170V250 9999 BKN009/// BKN013/// OVC017/// 13/13 Q0997=
202108182350 METAR ESMX 182350Z AUTO 22007KT 190V260 9999 FEW009/// BKN011/// OVC016/// 13/13 Q0997=
202108182320 METAR ESMX 182320Z AUTO 22007KT 190V250 9999 SCT012/// BKN020/// OVC059/// 13/13 Q0997=
202108182250 METAR ESMX 182250Z AUTO 24007KT 9999 BKN012/// OVC070/// 13/12 Q0997=
202108182220 METAR ESMX 182220Z AUTO 24008KT 9999 FEW057/// BKN078/// OVC100/// 13/12 Q0997=
202108182150 METAR ESMX 182150Z AUTO 23009KT 9999 OVC098/// 13/12 Q0997=
202108182120 METAR ESMX 182120Z AUTO 22009KT 9999 SCT017/// OVC098/// 13/13 Q0997=
202108182050 METAR ESMX 182050Z AUTO 25007KT 9999 FEW016/// SCT057/// 13/13 Q0997=
202108182020 METAR ESMX 182020Z AUTO 24009KT 9999 SCT012/// BKN016/// 13/12 Q0997=
202108181950 METAR ESMX 181950Z AUTO 24008KT 9999 FEW012/// SCT018/// BKN048/// 13/13 Q0997=
202108181920 METAR ESMX 181920Z AUTO 25009KT 9999 SCT012/// BKN021/// BKN042/// 14/13 Q0998=
202108181850 METAR ESMX 181850Z AUTO 25010KT 6000 FEW010/// BKN017/// OVC036/// 14/13 Q0998=
202108181820 METAR ESMX 181820Z AUTO 22010KT 9999 BR SCT009/// BKN017/// OVC024/// 13/13 Q0997=
202108181750 METAR ESMX 181750Z AUTO 23010KT 9999 FEW001/// BKN008/// BKN015/// 14/13 Q0997=
202108181720 METAR ESMX 181720Z AUTO 23010KT 200V270 6000 DZ FEW002/// BKN012/// BKN021/// 14/13 Q0997 RERA=
202108181650 METAR ESMX 181650Z AUTO 22011KT 190V250 9999 BKN012/// BKN026/// OVC084/// 14/13 Q0997=
202108181620 METAR ESMX 181620Z AUTO 23011KT 9999 -RA SCT011/// BKN016/// OVC023/// 14/13 Q0997 RERA=
202108181550 METAR ESMX 181550Z AUTO 23010KT 9999 FEW013/// SCT017/// BKN026/// 13/13 Q0998=
202108181520 METAR ESMX 181520Z AUTO 23011KT 9999 -RA SCT015/// BKN025/// BKN039/// 13/13 Q0998=
202108181450 METAR ESMX 181450Z AUTO 21009KT 9999 -RA SCT021/// BKN061/// BKN078/// 14/12 Q0998=
202108181420 METAR ESMX 181420Z AUTO 23012G22KT 9999 -RA BKN042/// OVC053/// 15/11 Q0998=
202108181350 METAR ESMX 181350Z 24012KT 210V270 9999 FEW031 BKN048 16/11 Q0998=
202108181320 METAR ESMX 181320Z 24010KT 200V280 9999 SCT033 BKN047 17/11 Q0998=
202108181250 METAR ESMX 181250Z 24010KT 9999 FEW028 BKN044 17/11 Q0998=
202108181220 METAR ESMX 181220Z 23011KT 200V280 9999 SCT030 17/11 Q0998=
202108181150 METAR ESMX 181150Z 24014G27KT 9999 BKN025 16/12 Q0999=
202108181120 METAR ESMX 181120Z 23013KT 190V260 9999 BKN023 18/13 Q0998=
202108181050 METAR ESMX 181050Z 24015KT 9999 BKN024 17/13 Q0998=
202108181020 METAR ESMX 181020Z 23014G25KT 200V260 9999 BKN026 17/13 Q0998=
202108180950 METAR ESMX 180950Z 25014KT 9999 BKN025 18/13 Q0998=
202108180920 METAR ESMX 180920Z 25012KT 9999 BKN023 18/13 Q0998=
202108180850 METAR ESMX 180850Z 26013KT 9999 BKN023 17/13 Q0998=
202108180820 METAR ESMX 180820Z 26012KT 210V300 9999 BKN018 17/13 Q0998=
202108180750 METAR ESMX 180750Z 26011KT 9999 BKN016 16/14 Q0998=
202108180720 METAR ESMX 180720Z 26011KT 230V290 9999 BKN013 15/14 Q0998=
202108180650 METAR ESMX 180650Z 26011KT 230V290 9999 BKN011 14/13 Q0998=
202108180620 METAR ESMX 180620Z 26009KT 9999 FEW012 SCT034 14/13 Q0998=
202108180550 METAR COR ESMX 180550Z 26010KT 9999 SCT010 BKN033 13/13 Q0998=
202108180520 METAR ESMX 180520Z AUTO 27010KT 9999 BKN011/// BKN033/// OVC074/// 13/13 Q0997=
202108180450 METAR ESMX 180450Z AUTO 27011KT 9999 DZ BKN006/// OVC010/// 13/13 Q0997 REDZ=
202108180420 METAR ESMX 180420Z AUTO 26009KT 4100 DZ BKN005/// OVC011/// 13/13 Q0997=
202108180350 METAR ESMX 180350Z AUTO 26008KT 9999 DZ BKN004/// OVC007/// 12/12 Q0997=
202108180320 METAR ESMX 180320Z AUTO 26005KT 2300 RA VV008 12/12 Q0997=
202108180250 METAR ESMX 180250Z AUTO 26008KT 9999 FEW004/// BKN006/// BKN008/// 12/12 Q0997=
202108180220 METAR ESMX 180220Z AUTO 26005KT 9999 BKN007/// BKN100/// 12/12 Q0997=
202108180150 METAR ESMX 180150Z AUTO 25006KT 9999 FEW006/// BKN098/// 12/12 Q0997=
202108180120 METAR ESMX 180120Z AUTO 26005KT 240V300 9999 FEW006/// SCT062/// BKN110/// 12/12 Q0997=
202108180050 METAR ESMX 180050Z AUTO 27006KT 250V320 9999 BKN066/// BKN100/// 12/12 Q0997=
202108180020 METAR ESMX 180020Z AUTO 28005KT 9999 -DZ BKN045/// OVC068/// 12/12 Q0997=
202108172350 METAR ESMX 172350Z AUTO 28006KT 9999 BKN039/// OVC057/// 12/12 Q0997=
202108172320 METAR ESMX 172320Z AUTO 25004KT 9999 FEW012/// BKN062/// 12/12 Q0997=
202108172250 METAR ESMX 172250Z AUTO 25003KT 9999 FEW008/// SCT047/// OVC061/// 12/12 Q0996=
202108172220 METAR ESMX 172220Z AUTO 25004KT 9999 BKN064/// 12/12 Q0996=
202108172150 METAR ESMX 172150Z AUTO 25005KT 9999 FEW008/// BKN055/// OVC068/// 12/12 Q0996=
202108172120 METAR ESMX 172120Z AUTO 24004KT 9999 -RA SCT059/// BKN072/// 12/12 Q0997=
202108172050 METAR ESMX 172050Z AUTO 25004KT 9999 -RA BKN064/// 13/12 Q0997=
202108172020 METAR ESMX 172020Z AUTO 22005KT 9999 SCT012/// BKN120/// 13/12 Q0997=
202108171950 METAR ESMX 171950Z AUTO 22004KT 9999 FEW014/// BKN057/// 13/12 Q0997=
202108171920 METAR ESMX 171920Z AUTO 22004KT 9999 BKN016/// BKN072/// 13/12 Q0997=
202108171850 METAR ESMX 171850Z AUTO 19005KT 9999 SCT072/// BKN098/// 13/12 Q0997=
202108171820 METAR ESMX 171820Z AUTO 20003KT 9999 FEW072/// 13/12 Q0997=
202108171750 METAR ESMX 171750Z AUTO 35002KT 9999 FEW051/// BKN068/// 14/13 Q0997=
202108171720 METAR ESMX 171720Z AUTO 32004KT 9999 BKN025/// BKN074/// 14/12 Q0998=
202108171650 METAR ESMX 171650Z AUTO 32005KT 9999 FEW021/// BKN028/// OVC041/// 14/13 Q0998=
202108171620 METAR ESMX 171620Z AUTO VRB02KT 9999 -DZ FEW001/// BKN047/// 14/12 Q0998 RERA=
202108171550 METAR ESMX 171550Z AUTO 20006KT 5000 RA FEW030/// SCT036/// BKN055/// 15/12 Q0997=
202108171520 METAR ESMX 171520Z AUTO 20002KT 9999 BKN072/// 16/10 Q0997=
202108171450 METAR ESMX 171450Z AUTO 20003KT 9999 SCT061/// OVC074/// 16/10 Q0997=
202108171420 METAR ESMX 171420Z AUTO 20005KT 9999 FEW034/// OVC076/// 17/10 Q0997=
202108171350 METAR ESMX 171350Z 21006KT 9999 BKN035 17/10 Q0997=
202108171320 METAR ESMX 171320Z 16003KT 9999 FEW034 BKN074 17/10 Q0997=
202108171250 METAR ESMX 171250Z 18004KT 130V220 CAVOK 16/10 Q0997=
202108171220 METAR ESMX 171220Z 15004KT 9999 FEW035 BKN060 16/10 Q0997=
202108171150 METAR ESMX 171150Z 15004KT 9999 FEW025 BKN047 15/09 Q0997=
202108171120 METAR ESMX 171120Z AUTO 15004KT 090V210 9999 FEW025/// BKN047/// OVC110/// 15/10 Q0997=
202108171050 METAR ESMX 171050Z 11004KT 030V140 9999 SCT028 BKN053 16/10 Q0998=
202108171020 METAR ESMX 171020Z 10005KT 050V140 9999 BKN032 15/09 Q0998=
202108170950 METAR ESMX 170950Z 18004KT 100V200 9999 SCT026 16/10 Q0998=
202108170920 METAR ESMX 170920Z 20005KT 140V230 9999 SCT024 14/09 Q0998=
202108170850 METAR ESMX 170850Z 16006KT 9999 BKN022 15/10 Q0998=
202108170820 METAR ESMX 170820Z 20007KT 160V230 9999 SCT021 15/10 Q0998=
202108170750 METAR ESMX 170750Z 20007KT 9999 FEW007 14/10 Q0999=
202108170720 METAR ESMX 170720Z 17006KT 140V210 CAVOK 13/10 Q0999=
202108170650 METAR ESMX 170650Z 19006KT CAVOK 12/11 Q0999=
202108170620 METAR ESMX 170620Z 17006KT CAVOK 12/11 Q0999=
202108170550 METAR ESMX 170550Z AUTO 16005KT 9999 FEW006/// 11/11 Q0999=
202108170520 METAR ESMX 170520Z AUTO 16005KT 9999 NCD 11/11 Q0999=
202108170450 METAR ESMX 170450Z AUTO 16004KT 9999 NCD 11/10 Q0999=
202108170420 METAR ESMX 170420Z AUTO 15007KT 9999 NCD 10/10 Q0999=
202108170350 METAR ESMX 170350Z AUTO 18005KT 9999 NCD 10/10 Q0999=
202108170320 METAR ESMX 170320Z AUTO 19005KT 9999 NCD 10/10 Q0999=
202108170250 METAR ESMX 170250Z AUTO 19006KT 9999 NCD 11/10 Q1000=
202108170220 METAR ESMX 170220Z AUTO 19005KT 9999 NCD 11/11 Q1000=
202108170150 METAR ESMX 170150Z AUTO 20005KT 9999 NCD 11/11 Q1000=
202108170120 METAR ESMX 170120Z AUTO 23003KT 9999 SCT066/// 11/11 Q1000=
202108170050 METAR ESMX 170050Z AUTO 22009KT 9999 SCT012/// BKN042/// OVC066/// 12/12 Q1000=
202108170020 METAR ESMX 170020Z AUTO 19005KT 9999 FEW044/// BKN096/// 12/12 Q1000=
202108162350 METAR ESMX 162350Z AUTO 00000KT 9999 -RA FEW000/// OVC066/// 13/13 Q1000=
202108162320 METAR ESMX 162320Z AUTO VRB03KT 9999 -RA FEW004/// SCT053/// OVC066/// 13/13 Q1000=
202108162250 METAR ESMX 162250Z AUTO 21009KT 4700 RA SCT004/// BKN040/// BKN070/// 13/13 Q1001=
202108162220 METAR ESMX 162220Z AUTO 17004KT 9999 -RA FEW009/// SCT047/// BKN062/// 14/14 Q1001=
202108162150 METAR ESMX 162150Z AUTO 17004KT 9999 BKN049/// OVC064/// 14/13 Q1001=
202108162120 METAR ESMX 162120Z AUTO 16005KT 9999 SCT051/// OVC066/// 15/13 Q1001=
202108162050 METAR ESMX 162050Z AUTO 21003KT 9999 SCT011/// BKN015/// OVC064/// 15/13 Q1001=
202108162020 METAR ESMX 162020Z AUTO 17003KT 9999 OVC070/// 15/13 Q1002=
202108161950 METAR ESMX 161950Z AUTO 21003KT 9999 OVC074/// 15/13 Q1002=
202108161920 METAR ESMX 161920Z AUTO 19003KT 9999 OVC078/// 15/14 Q1002=
202108161850 METAR ESMX 161850Z AUTO 22002KT 9999 OVC080/// 15/13 Q1001=
202108161820 METAR ESMX 161820Z AUTO 20004KT 9999 FEW044/// BKN088/// 15/13 Q1001=
202108161750 METAR ESMX 161750Z AUTO 21004KT 9999 BKN043/// 16/13 Q1001=
202108161720 METAR ESMX 161720Z AUTO 20006KT 9999 BKN051/// OVC062/// 16/13 Q1001=
202108161650 METAR ESMX 161650Z AUTO 19007KT 9999 SCT064/// 16/13 Q1001=
202108161620 METAR ESMX 161620Z AUTO 19008KT 9999 SCT062/// 17/13 Q1001=
202108161550 METAR ESMX 161550Z AUTO 21007KT 9999 FEW029/// SCT037/// OVC057/// 17/12 Q1001=
202108161520 METAR ESMX 161520Z AUTO 21008KT 9999 SCT140/// 17/12 Q1001=
202108161450 METAR ESMX 161450Z AUTO 22007KT 170V260 9999 SCT150/// 18/12 Q1001=
202108161420 METAR ESMX 161420Z AUTO 22008KT 9999 FEW057/// SCT140/// BKN170/// 18/11 Q1001=
202108161350 METAR ESMX 161350Z 21010KT 170V240 9999 FEW044 BKN055 17/12 Q1001=
202108161320 METAR ESMX 161320Z 23009KT 9999 FEW025 BKN057 18/12 Q1001=
202108161250 METAR ESMX 161250Z 22010KT 9999 BKN031 17/12 Q1001=
202108161220 METAR ESMX 161220Z 22011KT 9999 BKN025 17/13 Q1001=
202108161150 METAR ESMX 161150Z 22012KT 9999 BKN023 18/13 Q1001=
202108161120 METAR ESMX 161120Z 22014KT 9999 FEW018 SCT036 18/14 Q1000=
202108161050 METAR ESMX 161050Z 21013KT 180V240 9999 SCT016 BKN025 17/14 Q1000=
202108161020 METAR ESMX 161020Z 19014KT 9999 SCT014 BKN020 17/14 Q1000=
202108160950 METAR ESMX 160950Z AUTO 19012KT 9999 BKN013/// OVC150/// 17/14 Q1000=
202108160920 METAR ESMX 160920Z 19010KT 9999 SCT011 BKN013 16/15 Q1000=
202108160850 METAR ESMX 160850Z 18009KT 9999 SCT010 BKN016 16/15 Q1000=
202108160820 METAR ESMX 160820Z 18007KT 9999 SCT010 BKN019 16/14 Q1000=
202108160750 METAR ESMX 160750Z 19007KT 9999 SCT008 BKN010 15/15 Q1000=
202108160720 METAR COR ESMX 160720Z 18007KT 9999 SCT007 BKN010 16/15 Q1000=
202108160650 METAR ESMX 160650Z 17007KT 9999 BKN006 15/14 Q1000=
202108160620 METAR ESMX 160620Z 15006KT 120V180 9999 BKN006 14/14 Q1000=
202108160550 METAR COR ESMX 160550Z 16007KT 9999 BKN007 14/13 Q1000=
202108160520 METAR ESMX 160520Z AUTO 14007KT 110V170 9999 BKN011/// OVC015/// 14/13 Q1000=
202108160450 METAR ESMX 160450Z AUTO 15007KT 9999 BKN018/// OVC021/// 14/13 Q1001 REDZ=
202108160420 METAR ESMX 160420Z AUTO 14006KT 9999 SCT005/// OVC020/// 13/13 Q1001 REDZ=
202108160350 METAR ESMX 160350Z AUTO 14005KT 9999 FEW006/// BKN019/// OVC024/// 13/13 Q1001=
202108160320 METAR ESMX 160320Z AUTO 15004KT 9999 FEW005/// BKN027/// OVC036/// 13/13 Q1001=
202108160250 METAR ESMX 160250Z AUTO 11003KT 070V150 9999 FEW005/// OVC040/// 13/13 Q1002=
202108160220 METAR ESMX 160220Z AUTO 16005KT 9999 FEW007/// BKN042/// BKN061/// 14/14 Q1002 REDZ=
202108160150 METAR ESMX 160150Z AUTO 14007KT 9999 -DZ SCT005/// BKN045/// OVC068/// 14/14 Q1002=
202108160120 METAR ESMX 160120Z AUTO 17008KT 9999 BKN006/// OVC051/// 14/14 Q1003=
202108160050 METAR ESMX 160050Z AUTO 15006KT 9999 BKN006/// OVC130/// 14/14 Q1003 RERA=
202108160020 METAR ESMX 160020Z AUTO 15005KT 9999 -RA FEW023/// BKN070/// 14/14 Q1003=
202108152350 METAR ESMX 152350Z AUTO 17006KT 8000 -RA FEW001/// BKN037/// OVC062/// 14/14 Q1005 REDZ=
202108152320 METAR ESMX 152320Z AUTO 17005KT 9999 DZ FEW036/// BKN048/// OVC057/// 15/13 Q1005=
202108152250 METAR ESMX 152250Z AUTO VRB02KT 9999 FEW028/// SCT040/// OVC051/// 15/13 Q1005=
202108152220 METAR ESMX 152220Z AUTO 17004KT 9999 SCT028/// BKN034/// OVC045/// 16/13 Q1005=
202108152150 METAR ESMX 152150Z AUTO 17006KT 9999 OVC044/// 15/13 Q1006=
202108152120 METAR ESMX 152120Z AUTO 18005KT 9999 BKN059/// OVC072/// 15/12 Q1006=
202108152050 METAR ESMX 152050Z AUTO 20005KT 9999 OVC072/// 15/13 Q1006=
202108152020 METAR ESMX 152020Z AUTO 20004KT 9999 BKN080/// OVC140/// 15/13 Q1007=
202108151950 METAR ESMX 151950Z AUTO 21005KT 9999 BKN064/// BKN080/// 15/12 Q1007=
202108151920 METAR ESMX 151920Z AUTO 23004KT 9999 OVC066/// 15/12 Q1007=
202108151850 METAR ESMX 151850Z AUTO 19004KT 9999 OVC070/// 15/11 Q1007=
202108151820 METAR ESMX 151820Z AUTO 23005KT 9999 NCD 15/11 Q1007=
202108151750 METAR ESMX 151750Z 23007KT CAVOK 16/11 Q1007=
202108151720 METAR ESMX 151720Z 23007KT CAVOK 18/12 Q1007=
202108151650 METAR ESMX 151650Z 23008KT 200V260 CAVOK 17/11 Q1007=
202108151620 METAR ESMX 151620Z 24011KT CAVOK 18/11 Q1007=
202108151550 METAR ESMX 151550Z 23010KT 9999 SCT034 BKN180 19/11 Q1007=
202108151520 METAR COR ESMX 151520Z 25010KT 220V290 9999 FEW034 SCT130 19/11 Q1007=
202108151450 METAR ESMX 151450Z AUTO 24011KT 200V260 9999 FEW190/// 18/12 Q1007=
202108151420 METAR ESMX 151420Z AUTO 25011KT 210V280 9999 FEW031/// 18/12 Q1007=
202108151350 METAR ESMX 151350Z 24013KT 9999 SCT037 BKN064 18/12 Q1008=
202108151320 METAR ESMX 151320Z 24014KT 220V280 9999 BKN037 19/12 Q1007=
202108151250 METAR COR ESMX 151250Z 26013KT 230V290 9999 BKN037 20/11 Q1007=
202108151220 METAR ESMX 151220Z AUTO 25014KT 210V280 9999 SCT038/// 18/10 Q1007=
202108151150 METAR ESMX 151150Z 24014KT 210V270 9999 FEW038 SCT070 19/11 Q1007=
202108151120 METAR ESMX 151120Z 24014G24KT 200V270 9999 SCT030 BKN044 18/12 Q1007=
202108151050 METAR ESMX 151050Z 23011KT 190V280 9999 SCT029 BKN038 19/13 Q1007=
202108151020 METAR ESMX 151020Z 23011KT 200V260 9999 FEW025 BKN036 17/12 Q1007=
202108150950 METAR ESMX 150950Z 24012KT 9999 SCT026 BKN070 17/12 Q1007=
202108150920 METAR ESMX 150920Z 23011KT 9999 FEW022 SCT072 17/13 Q1007=
202108150850 METAR ESMX 150850Z 24011KT 200V280 9999 FEW020 BKN031 16/13 Q1007=
202108150820 METAR ESMX 150820Z 24010G20KT 210V280 9999 FEW013 BKN017 16/13 Q1007=
202108150750 METAR ESMX 150750Z 23011KT 200V270 9999 SCT013 BKN019 16/13 Q1006=
202108150720 METAR ESMX 150720Z AUTO 23011KT 9999 SCT011/// BKN017/// OVC025/// 15/13 Q1006 RERA=
202108150650 METAR ESMX 150650Z 23010KT 9999 SCT009 BKN019 14/14 Q1006=
202108150620 METAR ESMX 150620Z 21009KT 9999 SCT009 BKN014 14/13 Q1006=
202108150550 METAR ESMX 150550Z 20010KT 9999 FEW008 BKN020 13/13 Q1007=
202108150520 METAR ESMX 150520Z 20009KT 9999 SCT008 BKN040 13/13 Q1007=
202108150450 METAR ESMX 150450Z 21010KT 9999 SCT007 BKN009 13/13 Q1007=
202108150420 METAR ESMX 150420Z 21009KT 9999 SCT007 BKN013 13/12 Q1007=
202108150350 METAR ESMX 150350Z 22008KT 9999 SCT007 BKN020 13/13 Q1007=
202108150320 METAR ESMX 150320Z AUTO 22008KT 9999 SCT020/// OVC078/// 13/12 Q1007=
202108150250 METAR ESMX 150250Z AUTO 22010KT 9999 OVC078/// 13/12 Q1007=
202108150220 METAR ESMX 150220Z AUTO 22009KT 9999 FEW008/// SCT017/// BKN057/// 12/12 Q1007=
202108150150 METAR ESMX 150150Z AUTO 20008KT 9999 FEW019/// OVC072/// 12/12 Q1007=
202108150120 METAR ESMX 150120Z AUTO 20007KT 9999 FEW042/// BKN072/// 12/12 Q1007=
202108150050 METAR ESMX 150050Z AUTO 22008KT 9999 FEW027/// SCT053/// BKN070/// 12/12 Q1008 REDZ=
202108150020 METAR ESMX 150020Z AUTO 22008KT 9999 FEW062/// 12/11 Q1008=
202108142350 METAR ESMX 142350Z AUTO 22009KT 9999 FEW024/// SCT070/// 12/11 Q1008=
202108142320 METAR ESMX 142320Z AUTO 22008KT 9999 FEW042/// SCT061/// 12/11 Q1008=
202108142250 METAR ESMX 142250Z AUTO 22008KT 9999 FEW072/// 12/11 Q1009=
202108142220 METAR ESMX 142220Z AUTO 21009KT 9999 OVC070/// 12/11 Q1009=
202108142150 METAR ESMX 142150Z AUTO 22009KT 9999 FEW032/// SCT070/// 12/11 Q1009=
202108142120 METAR ESMX 142120Z AUTO 21008KT 9999 NCD 12/12 Q1009=
202108142050 METAR ESMX 142050Z AUTO 22008KT 9999 NCD 12/12 Q1009=
202108142020 METAR ESMX 142020Z AUTO 20010KT 9999 NCD 13/12 Q1009=
202108141950 METAR ESMX 141950Z AUTO 22008KT 9999 NCD 13/12 Q1009=
202108141920 METAR ESMX 141920Z AUTO 20010KT 9999 NCD 14/13 Q1009=
202108141850 METAR ESMX 141850Z AUTO 20008KT 9999 SCT080/// BKN160/// 13/13 Q1009=
202108141820 METAR ESMX 141820Z 22009KT CAVOK 14/13 Q1009=
202108141750 METAR ESMX 141750Z 23010KT CAVOK 14/13 Q1009=
202108141720 METAR ESMX 141720Z 21009KT 9999 VCSH SCT050CB 14/13 Q1010=
202108141650 METAR ESMX 141650Z 23009KT 9999 VCSH FEW040CB BKN066 14/13 Q1010=
202108141620 METAR ESMX 141620Z 25006KT 9999 SHRA FEW008 BKN049CB 14/13 Q1010=
202108141550 METAR ESMX 141550Z 28008KT 9000 SHRA FEW002 SCT012CB BKN037 14/13 Q1011=
202108141520 METAR ESMX 141520Z 30011KT 9999 VCSH SCT041CB BKN088 16/13 Q1010=
202108141450 METAR ESMX 141450Z AUTO 31009KT 290V030 9999 BKN039/// BKN066/// 17/12 Q1010=
202108141420 METAR ESMX 141420Z 24015KT 9999 FEW044TCU BKN086 20/12 Q1010=
202108141350 METAR ESMX 141350Z 23014G25KT 9999 SCT049 20/12 Q1010=
202108141320 METAR ESMX 141320Z AUTO 24012KT 210V270 9999 NCD 19/12 Q1011=
202108141250 METAR ESMX 141250Z AUTO 22008KT 190V250 9999 FEW036/// SCT066/// 18/13 Q1011=
202108141220 METAR ESMX 141220Z AUTO 21003KT 9999 SCT033/// BKN051/// OVC190/// 17/15 Q1011 RERA=
202108141150 METAR ESMX 141150Z AUTO 21006KT 9999 SCT036/// BKN049/// 16/14 Q1012=
202108141120 METAR ESMX 141120Z AUTO 23005KT 170V270 9999 -RA SCT028/// BKN037/// OVC048/// 15/14 Q1013=
202108141050 METAR ESMX 141050Z AUTO 22011KT 7000 RA ///038 15/13 Q1013 REDZ=
202108141020 METAR ESMX 141020Z AUTO 21013KT 9999 SCT028/// BKN066/// OVC078/// 17/12 Q1013=
202108140950 METAR ESMX 140950Z AUTO 22012KT 9999 FEW026/// BKN053/// OVC072/// 17/14 Q1013=
202108140920 METAR ESMX 140920Z AUTO 22010KT 9999 FEW018/// SCT042/// BKN066/// 17/14 Q1013=
202108140850 METAR ESMX 140850Z AUTO 22012KT 9999 SCT009/// BKN012/// OVC017/// 17/14 Q1013=
202108140820 METAR ESMX 140820Z AUTO 20011KT 9999 BKN010/// OVC019/// 16/14 Q1014=
202108140750 METAR ESMX 140750Z AUTO 20009KT 9999 BKN008/// OVC068/// 15/14 Q1014=
202108140720 METAR ESMX 140720Z AUTO 22009KT 9999 FEW009/// SCT070/// BKN150/// 15/14 Q1014=
202108140650 METAR ESMX 140650Z AUTO 20009KT 9999 FEW009/// SCT011/// 14/14 Q1014=
202108140620 METAR ESMX 140620Z AUTO 22007KT 9999 SCT008/// 15/14 Q1014=
202108140550 METAR ESMX 140550Z AUTO 22007KT 9999 SCT006/// 14/14 Q1014=
202108140520 METAR ESMX 140520Z AUTO 22007KT 9999 BKN005/// 14/14 Q1014=
202108140450 METAR ESMX 140450Z AUTO 20007KT 9999 FEW002/// SCT005/// 13/13 Q1014=
202108140420 METAR ESMX 140420Z AUTO 22007KT 9999 FEW000/// SCT009/// 13/13 Q1014=
202108140350 METAR ESMX 140350Z AUTO 20007KT 9999 SCT009/// 13/13 Q1014=
202108140320 METAR ESMX 140320Z AUTO 22006KT 9999 FEW010/// 13/13 Q1014=
202108140250 METAR ESMX 140250Z AUTO 23005KT 9999 NCD 13/13 Q1014=
202108140220 METAR ESMX 140220Z AUTO 23005KT 9999 NCD 13/13 Q1014=
202108140150 METAR ESMX 140150Z AUTO 23005KT 9999 FEW018/// 14/14 Q1014=
202108140120 METAR ESMX 140120Z AUTO 22005KT 9999 FEW051/// 14/14 Q1014=
202108140050 METAR ESMX 140050Z AUTO 23006KT 9999 FEW018/// SCT046/// BKN062/// 15/15 Q1014=
202108140020 METAR ESMX 140020Z AUTO 23006KT 9999 OVC044/// 15/15 Q1014=
202108132350 METAR ESMX 132350Z AUTO 23007KT 9999 FEW047/// SCT078/// 15/15 Q1014=
202108132320 METAR ESMX 132320Z AUTO 23006KT 9999 FEW061/// 15/15 Q1014=
202108132250 METAR ESMX 132250Z AUTO 21006KT 9999 FEW022/// SCT041/// BKN059/// 16/16 Q1014 REDZ=
202108132220 METAR ESMX 132220Z AUTO 21006KT 8000 -RA FEW022/// SCT070/// 16/16 Q1014=
202108132150 METAR ESMX 132150Z AUTO 23005KT 9999 FEW031/// SCT036/// 15/15 Q1014=
202108132120 METAR ESMX 132120Z AUTO 23005KT 9999 NCD 15/15 Q1014=
202108132050 METAR ESMX 132050Z AUTO 21005KT 9999 NCD 16/15 Q1014=
202108132020 METAR ESMX 132020Z AUTO 22008KT 200V260 9999 FEW055/// 16/16 Q1014=
202108131950 METAR ESMX 131950Z AUTO 22007KT 200V260 9999 FEW001/// BKN053/// 16/16 Q1014 RERA=
202108131920 METAR ESMX 131920Z AUTO 27010KT 240V300 9999 RA FEW001/// BKN024/// OVC032/// 16/16 Q1014=
202108131850 METAR ESMX 131850Z AUTO 19006KT 9999 SCT035/// BKN061/// BKN092/// 19/17 Q1013=
202108131820 METAR ESMX 131820Z AUTO 17006KT 9999 FEW120/// 19/18 Q1013=
202108131750 METAR ESMX 131750Z AUTO 22003KT 9999 SCT059/// 19/18 Q1014=
202108131720 METAR ESMX 131720Z AUTO 23011KT 9999 FEW005/// BKN027/// BKN035/// 19/18 Q1014=
202108131650 METAR ESMX 131650Z 16006KT 9999 SHRA BKN039 21/17 Q1014=
202108131620 METAR ESMX 131620Z 19005KT 9999 FEW036 BKN055 21/18 Q1015=
202108131550 METAR COR ESMX 131550Z 19006KT CAVOK 22/17 Q1015=
202108131520 METAR ESMX 131520Z AUTO 23006KT 9999 FEW053/// SCT076/// 23/16 Q1015=
202108131450 METAR ESMX 131450Z AUTO 22008KT 9999 FEW046/// SCT072/// 23/16 Q1016=
202108131420 METAR ESMX 131420Z 22010KT 9999 SCT040 23/15 Q1016=
202108131350 METAR ESMX 131350Z 20009KT 9999 SCT034 23/16 Q1016=
202108131320 METAR ESMX 131320Z 21010KT 170V250 9999 SCT033 23/16 Q1016=
202108131250 METAR ESMX 131250Z 21010KT 9999 SCT038 22/16 Q1017=
202108131220 METAR ESMX 131220Z 21009KT 180V280 9999 BKN029 22/16 Q1017=
202108131150 METAR ESMX 131150Z 22008KT 180V260 9999 FEW022 BKN068 22/17 Q1017=
202108131120 METAR ESMX 131120Z AUTO 17007KT 9999 FEW078/// SCT100/// BKN180/// 21/17 Q1017=
202108131050 METAR ESMX 131050Z 20007KT 9999 FEW012 BKN070 19/17 Q1018=
202108131020 METAR ESMX 131020Z 20007KT 9999 FEW011 BKN076 19/17 Q1018=
202108130950 METAR ESMX 130950Z 20009KT 9999 -RA FEW015 BKN053 19/17 Q1018=
202108130920 METAR ESMX 130920Z 20007KT CAVOK 19/17 Q1018=
202108130850 METAR ESMX 130850Z 18007KT CAVOK 19/16 Q1018=
202108130820 METAR ESMX 130820Z 20008KT CAVOK 19/16 Q1018=
202108130750 METAR ESMX 130750Z 17007KT CAVOK 19/16 Q1018=
202108130720 METAR ESMX 130720Z 17006KT CAVOK 19/16 Q1018=
202108130650 METAR ESMX 130650Z 16005KT CAVOK 17/15 Q1018=
202108130620 METAR ESMX 130620Z 16005KT CAVOK 17/14 Q1018=
202108130550 METAR ESMX 130550Z AUTO 15005KT 9999 BKN057/// 16/13 Q1018=
202108130520 METAR ESMX 130520Z AUTO 17004KT 9999 SCT051/// 16/14 Q1018=
202108130450 METAR ESMX 130450Z AUTO 20004KT 9999 SCT200/// 15/14 Q1018=
202108130420 METAR ESMX 130420Z AUTO 20004KT 9999 BKN055/// 15/13 Q1018=
202108130350 METAR ESMX 130350Z AUTO 20004KT 9999 NCD 14/13 Q1018=
202108130320 METAR ESMX 130320Z AUTO 16003KT 9999 FEW110/// 14/13 Q1019=
202108130250 METAR ESMX 130250Z AUTO 15004KT 9999 SCT110/// 14/13 Q1019=
202108130220 METAR ESMX 130220Z AUTO 20003KT 9999 FEW110/// 15/13 Q1019=
202108130150 METAR ESMX 130150Z AUTO 17003KT 9999 FEW100/// 15/13 Q1019=
202108130120 METAR ESMX 130120Z AUTO 20005KT 9999 SCT080/// BKN098/// 15/13 Q1019=
202108130050 METAR ESMX 130050Z AUTO 21005KT 9999 SCT076/// 15/14 Q1019=
202108130020 METAR ESMX 130020Z AUTO 21005KT 9999 OVC076/// 16/14 Q1019=
202108122350 METAR ESMX 122350Z AUTO 22005KT 9999 OVC074/// 16/14 Q1019=
202108122320 METAR ESMX 122320Z AUTO 16003KT 9999 BKN074/// 14/13 Q1019=
202108122250 METAR ESMX 122250Z AUTO 16003KT 9999 FEW074/// 14/14 Q1019=
202108122220 METAR ESMX 122220Z AUTO 23003KT 9999 FEW088/// 15/14 Q1020=
202108122150 METAR ESMX 122150Z AUTO 23003KT 9999 BKN086/// 16/14 Q1020=
202108122120 METAR ESMX 122120Z AUTO 23003KT 9999 OVC086/// 16/14 Q1020=
202108122050 METAR ESMX 122050Z AUTO 23004KT 9999 OVC086/// 16/14 Q1020=
202108122020 METAR ESMX 122020Z AUTO 23004KT 9999 OVC082/// 15/14 Q1020=
202108121950 METAR ESMX 121950Z AUTO 23004KT 9999 BKN080/// 14/14 Q1019=
202108121920 METAR ESMX 121920Z AUTO 23003KT 9999 -RA FEW120/// 14/14 Q1019=
202108121850 METAR ESMX 121850Z AUTO 23003KT 9999 FEW120/// 16/14 Q1019=
202108121820 METAR ESMX 121820Z 23003KT CAVOK 19/15 Q1019=
202108121750 METAR ESMX 121750Z 25003KT CAVOK 20/14 Q1019=
202108121720 METAR ESMX 121720Z AUTO 25003KT 9999 NCD 21/14 Q1019=
202108121650 METAR ESMX 121650Z 26006KT CAVOK 21/14 Q1019=
202108121620 METAR ESMX 121620Z 25007KT CAVOK 21/14 Q1019=
202108121550 METAR ESMX 121550Z 26005KT 210V320 CAVOK 21/14 Q1019=
202108121520 METAR ESMX 121520Z 25008KT 9999 FEW035 22/13 Q1020=
202108121450 METAR ESMX 121450Z 25009KT 9999 SCT033 21/13 Q1020=
202108121420 METAR ESMX 121420Z 22007KT 200V270 9999 FEW031 BKN064 21/14 Q1020=
202108121350 METAR ESMX 121350Z AUTO 30003KT 230V320 9999 FEW038/// BKN068/// 21/15 Q1020=
202108121320 METAR ESMX 121320Z 33005KT 9999 FEW028 BKN049 20/15 Q1020=
202108121250 METAR ESMX 121250Z 33004KT 280V350 9999 BKN030 19/15 Q1020=
202108121220 METAR ESMX 121220Z 29004KT 240V330 9999 FEW027 BKN080 19/14 Q1020=
202108121150 METAR ESMX 121150Z 28006KT 230V320 9999 FEW028 BKN048 19/14 Q1020=
202108121120 METAR ESMX 121120Z 28006KT 250V320 9999 BKN024 20/14 Q1020=
202108121050 METAR ESMX 121050Z 25008KT 9999 BKN024 19/14 Q1020=
202108121020 METAR ESMX 121020Z 25008KT 220V290 9999 BKN019 19/14 Q1020=
202108120950 METAR ESMX 120950Z 25008KT 9999 BKN019 18/14 Q1020=
202108120920 METAR ESMX 120920Z AUTO 29008KT 250V320 9999 SCT016/// BKN020/// BKN160/// 18/14 Q1020=
202108120850 METAR ESMX 120850Z 24005KT 200V280 9999 BKN012 17/14 Q1020=
202108120820 METAR ESMX 120820Z AUTO 25005KT 200V350 9999 BKN007/// OVC160/// 16/15 Q1020=
202108120750 METAR ESMX 120750Z 27005KT 9999 BKN005 15/15 Q1020=
202108120720 METAR ESMX 120720Z 25004KT 200V280 9999 BKN003 14/14 Q1020=
202108120650 METAR ESMX 120650Z 26002KT 8000 BKN002 14/14 Q1019=
202108120620 METAR ESMX 120620Z VRB02KT 7000 VV003 14/14 Q1019=
202108120550 METAR ESMX 120550Z VRB03KT 0300 R01/0500N R19/1000N FG VV002 13/13 Q1019=
202108120520 METAR ESMX 120520Z 27003KT 0150 R01/0500N R19/0375N FG VV002 12/12 Q1019=
202108120450 METAR ESMX 120450Z 26003KT 0150 R01/0350N R19/0400N FG VV002 12/12 Q1019=
202108120420 METAR ESMX 120420Z 25004KT 210V290 0150 R01/0375N R19/0400N FG VV002 12/12 Q1019=
202108120350 METAR ESMX 120350Z 26003KT 0150 R01/0450N R19/0450N FG VV002 12/12 Q1019=
202108120320 METAR ESMX 120320Z AUTO 24003KT 0050 R01/0550N R19/0225N FG VV001 12/12 Q1019=
202108120250 METAR ESMX 120250Z AUTO 23003KT 0100 R01/0375N R19/0325N FG VV001 12/12 Q1018=
202108120220 METAR ESMX 120220Z AUTO 25003KT 0100 R01/0400N R19/0450N FG VV001 12/12 Q1018=
202108120150 METAR ESMX 120150Z AUTO 25003KT 0050 R01/0250N R19/0400D FG BKN001/// 12/12 Q1018=
202108120120 METAR ESMX 120120Z AUTO 24004KT 0200 R01/0500N R19/P2000N FG NCD 12/12 Q1018=
202108120050 METAR ESMX 120050Z AUTO 25003KT 1800 BR NCD 10/10 Q1018=
202108120020 METAR ESMX 120020Z AUTO 25003KT 9000 BR NCD 12/12 Q1018=
202108112350 METAR ESMX 112350Z AUTO 26004KT 9999 NCD 12/12 Q1018=
202108112320 METAR ESMX 112320Z AUTO 25004KT 9999 NCD 12/12 Q1018=
202108112250 METAR ESMX 112250Z AUTO 26004KT 9999 NCD 13/13 Q1018=
202108112220 METAR ESMX 112220Z AUTO 26004KT 9999 NCD 13/13 Q1018=
202108112150 METAR ESMX 112150Z AUTO 26005KT 9999 NCD 14/14 Q1018=
202108112120 METAR ESMX 112120Z AUTO 26004KT 9999 NCD 14/14 Q1017=
202108112050 METAR ESMX 112050Z AUTO 26005KT 9999 NCD 14/13 Q1017=
202108112020 METAR ESMX 112020Z AUTO 25005KT 9999 NCD 14/14 Q1017=
202108111950 METAR ESMX 111950Z AUTO 26003KT 9999 NCD 14/14 Q1017=
202108111920 METAR ESMX 111920Z AUTO 25003KT 9999 BKN074/// 15/14 Q1017=
202108111850 METAR ESMX 111850Z AUTO 26004KT 9999 NCD 15/14 Q1016=
202108111820 METAR ESMX 111820Z AUTO 28003KT 9999 NCD 16/14 Q1016=
202108111750 METAR ESMX 111750Z AUTO 30004KT 9999 NCD 17/15 Q1016=
202108111720 METAR ESMX 111720Z AUTO 29005KT 9999 BKN072/// 17/15 Q1016 RERA=
202108111650 METAR ESMX 111650Z AUTO 27008KT 9999 FEW072/// 17/14 Q1015=
202108111620 METAR ESMX 111620Z AUTO 28010KT 250V310 9999 FEW022/// SCT037/// BKN076/// 19/14 Q1015=
202108111550 METAR ESMX 111550Z AUTO 29007KT 240V320 9999 FEW080/// 19/15 Q1015=
202108111520 METAR ESMX 111520Z AUTO 30007KT 9999 NCD 17/15 Q1015=
202108111450 METAR ESMX 111450Z AUTO 28008KT 240V300 9999 FEW014/// 18/15 Q1015=
202108111420 METAR ESMX 111420Z AUTO 28009KT 250V320 9999 -RA BKN014/// 18/16 Q1015 RERA=
202108111350 METAR ESMX 111350Z AUTO 25007KT 9999 FEW011/// SCT017/// BKN040/// 17/16 Q1015=
202108111320 METAR ESMX 111320Z 26008KT 230V300 9999 BKN010 17/15 Q1015 RERA=
202108111250 METAR ESMX 111250Z 23007KT 9999 FEW009CB SCT033 BKN068 17/16 Q1015=
202108111220 METAR ESMX 111220Z 27007KT 9999 -RA FEW015CB BKN037 16/15 Q1015=
202108111150 METAR ESMX 111150Z AUTO 22005KT 180V240 9999 -RA FEW019/// SCT040/// BKN066/// 17/15 Q1015 RERA=
202108111120 METAR ESMX 111120Z 28005KT 9999 VCSH FEW018CB BKN020 17/13 Q1014=
202108111050 METAR ESMX 111050Z 33005KT 9999 -RA BKN019 17/15 Q1014=
202108111020 METAR ESMX 111020Z AUTO 32005KT 9999 FEW017/// SCT049/// BKN088/// 17/14 Q1014=
202108110950 METAR ESMX 110950Z 32004KT 290V350 9999 BKN020 17/14 Q1014=
202108110920 METAR ESMX 110920Z 24004KT 9999 BKN017 18/13 Q1014=
202108110850 METAR ESMX 110850Z 24005KT 170V280 9999 SCT009 BKN020 17/14 Q1014=
202108110820 METAR ESMX 110820Z 17004KT 9999 BKN012 17/14 Q1014=
202108110750 METAR ESMX 110750Z 14002KT 9999 BKN006 16/14 Q1014=
202108110720 METAR ESMX 110720Z 14002KT 9999 BKN004 16/14 Q1014=
202108110650 METAR ESMX 110650Z VRB03KT 9999 SCT003 14/14 Q1014=
202108110620 METAR ESMX 110620Z VRB02KT 9999 SCT002 14/14 Q1014=
202108110550 METAR ESMX 110550Z AUTO 00000KT 1500 R01/1500U R19/1200U BKN001/// 13/13 Q1014=
202108110520 METAR ESMX 110520Z AUTO 21001KT 0300 R01/0550N R19/1000N FG FEW000/// 11/11 Q1013=
202108110450 METAR ESMX 110450Z AUTO 21002KT 0300 R01/0650N R19/0450N FG NCD 10/10 Q1013=
202108110420 METAR ESMX 110420Z AUTO 19002KT 0200 R01/0400N R19/0900N FG NCD 08/08 Q1013=
202108110350 METAR ESMX 110350Z AUTO 18003KT 0550 R01/1200N R19/1100D BCFG NCD 08/08 Q1013=
202108110320 METAR ESMX 110320Z AUTO 20002KT 0100 R01/0325N R19/0550N FG NCD 08/08 Q1013=
202108110250 METAR ESMX 110250Z AUTO 15003KT 0100 R01/0700U R19/0375N FG NCD 10/10 Q1013=
202108110220 METAR ESMX 110220Z AUTO 00000KT 0150 R01/0500U R19/0900N FG NCD 08/08 Q1013=
202108110150 METAR ESMX 110150Z AUTO 16002KT 0150 R01/0600N R19/0650N BCFG NCD 09/09 Q1013=
202108110120 METAR ESMX 110120Z AUTO 00000KT 0400 R01/P2000N R19/P2000N NCD 08/08 Q1013=
202108110050 METAR ESMX 110050Z AUTO 00000KT 1100 R01/P2000N R19/P2000N BCFG NCD 09/09 Q1013=
202108110020 METAR ESMX 110020Z AUTO 00000KT 0250 R01/0650N R19/P2000N FG BKN220/// 09/09 Q1013=
202108102350 METAR ESMX 102350Z AUTO 19001KT 0300 R01/1000N R19/1200U BCFG SCT220/// 10/10 Q1013=
202108102320 METAR ESMX 102320Z AUTO 00000KT 0250 R01/0700N R19/P2000N BCFG FEW120/// 10/10 Q1013=
202108102250 METAR ESMX 102250Z AUTO 00000KT 1600 BCFG SCT130/// 10/10 Q1013=
202108102220 METAR ESMX 102220Z AUTO 00000KT 0250 R01/P2000D R19/P2000N BCFG NCD 11/11 Q1013=
202108102150 METAR ESMX 102150Z AUTO 21002KT 0650 R01/P2000N R19/1600N BCFG NCD 11/11 Q1013=
202108102120 METAR ESMX 102120Z AUTO 00000KT 0200 R01/0600N R19/0800N FG NCD 12/12 Q1013=
202108102050 METAR ESMX 102050Z AUTO 21003KT 0450 R01/P2000D R19/1700N BCFG NCD 11/11 Q1013=
202108102020 METAR ESMX 102020Z AUTO 21004KT 0300 R01/P2000N R19/0800N BCFG FEW082/// 11/11 Q1013=
202108101950 METAR ESMX 101950Z AUTO 21003KT 0400 R01/1100N R19/1900N BCFG FEW088/// 13/13 Q1013=
202108101920 METAR ESMX 101920Z AUTO 00000KT 0200 R01/0600N R19/0600U BCFG FEW088/// 13/13 Q1013=
202108101850 METAR ESMX 101850Z AUTO 21001KT 0300 R01/P2000N R19/P2000N FG NCD 13/13 Q1013=
202108101820 METAR ESMX 101820Z 21002KT CAVOK 14/14 Q1013=
202108101750 METAR ESMX 101750Z 13003KT CAVOK 15/14 Q1013=
202108101720 METAR ESMX 101720Z VRB03KT CAVOK 16/14 Q1013=
202108101650 METAR ESMX 101650Z 21003KT 9999 FEW054CB SCT078 16/14 Q1013 RERA=
202108101620 METAR ESMX 101620Z 19005KT 9999 RA FEW030CB SCT059 BKN084 16/14 Q1013 RERA=
202108101550 METAR ESMX 101550Z 21006KT 9999 VCSH FEW030CB BKN086 17/14 Q1013=
202108101520 METAR ESMX 101520Z 19009KT 9999 -RA FEW030 BKN088 16/15 Q1013=
202108101450 METAR ESMX 101450Z 17009KT 9999 VCSH FEW027CB BKN086 18/13 Q1013=
202108101420 METAR ESMX 101420Z 17009KT 9999 VCSH FEW035CB SCT039 18/14 Q1013=
202108101350 METAR ESMX 101350Z 19008KT 9999 SCT035 20/12 Q1013=
202108101320 METAR ESMX 101320Z 15007KT 100V200 9999 SCT028 BKN090 20/13 Q1013=
202108101250 METAR ESMX 101250Z 16006KT 110V220 9999 SCT025 20/14 Q1014=
202108101220 METAR ESMX 101220Z 18008KT 9999 SCT026 19/12 Q1014=
202108101150 METAR ESMX 101150Z 20006KT 9999 SCT025 19/13 Q1014=
202108101120 METAR ESMX 101120Z 18006KT 120V210 9999 SCT024 BKN084 19/14 Q1014=
202108101050 METAR ESMX 101050Z 16006KT 9999 FEW025 BKN080 18/15 Q1014 RERA=
202108101020 METAR COR ESMX 101020Z 15005KT 110V180 9999 SHRA SCT025CB BKN098 17/15 Q1014=
202108100950 METAR ESMX 100950Z AUTO 16006KT 120V190 9999 FEW027/// BKN098/// 16/14 Q1014 RERA=
202108100920 METAR ESMX 100920Z AUTO 11005KT 9999 FEW017/// BKN098/// 15/13 Q1015 RERA=
202108100850 METAR ESMX 100850Z AUTO 17007KT 9999 -RA FEW030/// SCT041/// BKN094/// 17/13 Q1015=
202108100820 METAR ESMX 100820Z AUTO 20008KT 9999 SCT020/// BKN037/// 18/14 Q1015=
202108100750 METAR ESMX 100750Z AUTO 18005KT 150V210 9999 FEW018/// 18/15 Q1015=
202108100720 METAR ESMX 100720Z AUTO 18005KT 130V210 9999 NCD 17/13 Q1015=
202108100650 METAR ESMX 100650Z AUTO 19005KT 9999 NCD 16/13 Q1015=
202108100620 METAR ESMX 100620Z AUTO 19005KT 9999 NCD 16/14 Q1015=
202108100550 METAR ESMX 100550Z AUTO 18005KT 9999 NCD 15/14 Q1015=
202108100520 METAR ESMX 100520Z AUTO 17003KT 9999 NCD 14/14 Q1015=
202108100450 METAR ESMX 100450Z AUTO 19002KT 9999 FEW120/// 12/12 Q1015=
202108100420 METAR ESMX 100420Z AUTO 19003KT 9999 OVC120/// 12/12 Q1015=
202108100350 METAR ESMX 100350Z AUTO 19003KT 7000 BCFG SCT120/// BKN150/// 11/11 Q1015=
202108100320 METAR ESMX 100320Z AUTO 19003KT 1000 R01/1400N R19/P2000N BCFG FEW150/// 10/10 Q1015=
202108100250 METAR ESMX 100250Z AUTO 18003KT 5000 BR NCD 10/10 Q1015=
202108100220 METAR ESMX 100220Z AUTO 19004KT 9999 NCD 12/12 Q1015=
202108100150 METAR ESMX 100150Z AUTO 16004KT 9999 NCD 12/12 Q1015=
202108100120 METAR ESMX 100120Z AUTO 18003KT 9999 FEW068/// SCT220/// 13/12 Q1015=
202108100050 METAR ESMX 100050Z AUTO 19005KT 9999 OVC072/// 13/13 Q1015=
202108100020 METAR ESMX 100020Z AUTO 17003KT 9999 OVC076/// 13/13 Q1015=
202108092350 METAR ESMX 092350Z AUTO 18003KT 9999 BKN074/// OVC088/// 14/13 Q1015=
202108092320 METAR ESMX 092320Z AUTO 19005KT 9999 OVC078/// 14/13 Q1015=
202108092250 METAR ESMX 092250Z AUTO 19005KT 9999 OVC078/// 14/13 Q1015=
202108092220 METAR ESMX 092220Z AUTO 21006KT 9999 OVC082/// 14/14 Q1015=
202108092150 METAR ESMX 092150Z AUTO 17005KT 9999 FEW005/// BKN080/// OVC098/// 14/14 Q1015=
202108092120 METAR ESMX 092120Z AUTO 22005KT 9999 OVC078/// 14/14 Q1015=
202108092050 METAR ESMX 092050Z AUTO 22005KT 9999 FEW010/// BKN013/// OVC017/// 15/15 Q1015 REDZ=
202108092020 METAR ESMX 092020Z AUTO 23005KT 9999 DZ SCT012/// BKN016/// OVC092/// 15/14 Q1015=
202108091950 METAR ESMX 091950Z AUTO 19006KT 9999 FEW011/// BKN084/// 14/14 Q1015=
202108091920 METAR ESMX 091920Z AUTO 23005KT 9999 BKN070/// OVC090/// 15/14 Q1015 REDZ=
202108091850 METAR ESMX 091850Z AUTO 21004KT 9999 BKN086/// 15/14 Q1015=
202108091820 METAR ESMX 091820Z AUTO 21008KT 180V240 9999 FEW040/// SCT057/// BKN088/// 15/14 Q1014=
202108091750 METAR ESMX 091750Z AUTO 21006KT 9999 FEW025/// SCT051/// OVC072/// 16/15 Q1014=
202108091720 METAR ESMX 091720Z AUTO 19011KT 9999 -RA FEW002/// SCT016/// BKN020/// 16/15 Q1014=
202108091650 METAR ESMX 091650Z AUTO 24006KT 9999 FEW020/// SCT030/// 17/14 Q1014=
202108091620 METAR ESMX 091620Z AUTO 20010KT 9999 FEW019/// SCT028/// 17/14 Q1014=
202108091550 METAR ESMX 091550Z AUTO 21012KT 9999 SCT022/// 18/14 Q1014=
202108091520 METAR ESMX 091520Z AUTO 18010KT 9999 FEW026/// SCT057/// BKN094/// 18/14 Q1014=
202108091450 METAR ESMX 091450Z AUTO 18008KT 9999 FEW001/// BKN026/// OVC068/// 18/16 Q1014=
202108091420 METAR ESMX 091420Z AUTO 18008KT 9999 FEW001/// BKN028/// BKN098/// 18/15 Q1013 RERA=
202108091350 METAR ESMX 091350Z 19007KT 9999 SCT032CB BKN044 18/15 Q1013 RERA=
202108091320 METAR ESMX 091320Z 20010KT 9999 BKN040 20/12 Q1013=
202108091250 METAR ESMX 091250Z 21010KT 170V240 9999 BKN051 22/13 Q1013=
202108091220 METAR ESMX 091220Z AUTO 19011KT 9999 FEW044/// 22/11 Q1013=
202108091150 METAR ESMX 091150Z 19010KT 9999 SCT040 21/12 Q1013=
202108091120 METAR ESMX 091120Z 23008KT 200V260 9999 BKN037 20/13 Q1013=
202108091050 METAR ESMX 091050Z 19013KT 9999 SCT038 21/13 Q1013=
202108091020 METAR ESMX 091020Z 21007KT 9999 SCT035 20/13 Q1013=
202108090950 METAR ESMX 090950Z 19010KT 9999 SCT031 20/13 Q1013=
202108090920 METAR ESMX 090920Z 19010KT 9999 SCT026 19/14 Q1013=
202108090850 METAR ESMX 090850Z 18009KT 9999 FEW019 BKN039 18/14 Q1013=
202108090820 METAR ESMX 090820Z 19009KT 9999 BKN015 18/15 Q1013=
202108090750 METAR ESMX 090750Z 19008KT 9999 SCT014 18/15 Q1013=
202108090720 METAR ESMX 090720Z 22008KT 9999 FEW007 17/15 Q1013=
202108090650 METAR ESMX 090650Z 21008KT 9999 FEW008 17/15 Q1013=
202108090620 METAR COR ESMX 090620Z 21009KT 9999 FEW007 16/15 Q1012=
202108090550 METAR ESMX 090550Z AUTO 19008KT 9999 SCT006/// BKN098/// 15/15 Q1012=
202108090520 METAR ESMX 090520Z AUTO 22006KT 9999 FEW005/// SCT094/// 14/14 Q1012=
202108090450 METAR ESMX 090450Z AUTO 22005KT 9999 OVC096/// 14/14 Q1012=
202108090420 METAR ESMX 090420Z AUTO 22006KT 9999 FEW026/// BKN090/// 14/14 Q1012=
202108090350 METAR ESMX 090350Z AUTO 19007KT 9999 SCT007/// BKN025/// 14/14 Q1012=
202108090320 METAR ESMX 090320Z AUTO 22007KT 9999 OVC006/// 14/14 Q1011=
202108090250 METAR ESMX 090250Z AUTO 22007KT 9999 OVC006/// 14/14 Q1011=
202108090220 METAR ESMX 090220Z AUTO 22007KT 9999 OVC005/// 15/14 Q1011=
202108090150 METAR ESMX 090150Z AUTO 23009KT 9999 OVC005/// 15/14 Q1011=
202108090120 METAR ESMX 090120Z AUTO 22006KT 9999 OVC006/// 15/15 Q1011=
202108090050 METAR ESMX 090050Z AUTO 22005KT 9999 OVC005/// 15/15 Q1010=
202108090020 METAR ESMX 090020Z AUTO 20007KT 9999 OVC005/// 15/15 Q1010=
202108082350 METAR ESMX 082350Z AUTO 22007KT 9999 OVC005/// 15/14 Q1010=
202108082320 METAR ESMX 082320Z AUTO 20006KT 9999 BKN006/// BKN008/// OVC090/// 14/14 Q1010=
202108082250 METAR ESMX 082250Z AUTO 19006KT 9999 BKN092/// 14/14 Q1010=
202108082220 METAR ESMX 082220Z AUTO 17007KT 9999 FEW010/// SCT014/// 14/14 Q1010=
202108082150 METAR ESMX 082150Z AUTO 17005KT 9999 NCD 14/14 Q1009=
202108082120 METAR ESMX 082120Z AUTO 17005KT 9999 NCD 14/14 Q1009=
202108082050 METAR ESMX 082050Z AUTO 17006KT 9999 NCD 14/14 Q1009=
202108082020 METAR ESMX 082020Z AUTO 17005KT 9999 NCD 15/14 Q1009=
202108081950 METAR ESMX 081950Z AUTO 18004KT 9999 FEW110/// 14/14 Q1008=
202108081920 METAR ESMX 081920Z AUTO 17004KT 9999 NCD 14/14 Q1008=
202108081850 METAR ESMX 081850Z AUTO 17005KT 9999 BKN036/// 16/15 Q1008=
202108081820 METAR ESMX 081820Z AUTO 16005KT 9999 NCD 16/15 Q1008=
202108081750 METAR ESMX 081750Z AUTO 18006KT 9999 FEW084/// 17/15 Q1007=
202108081720 METAR ESMX 081720Z 16005KT 9999 VCSH FEW040CB SCT090 17/15 Q1007=
202108081650 METAR ESMX 081650Z 15005KT 9999 VCSH FEW040CB SCT097 16/15 Q1007=
202108081620 METAR ESMX 081620Z 16006KT CAVOK 16/15 Q1007 RERA=
202108081550 METAR ESMX 081550Z 17005KT 9999 VCSH FEW027CB SCT068 16/15 Q1006 RERA=
202108081520 METAR ESMX 081520Z 18006KT 9999 RA VCSH FEW027 SCT070 15/14 Q1006=
202108081450 METAR ESMX 081450Z 23003KT 9999 -RA VCSH FEW023CB SCT048 16/14 Q1006=
202108081420 METAR ESMX 081420Z 23002KT 9999 VCSH FEW024CB 16/13 Q1005 RERA=
202108081350 METAR ESMX 081350Z 24006KT 9999 RA FEW025CB BKN040 15/13 Q1005 RERA=
202108081320 METAR ESMX 081320Z 20007KT 9999 VCSH FEW035CB SCT053 19/15 Q1005=
202108081250 METAR ESMX 081250Z AUTO 19008KT 9999 FEW072/// SCT098/// 20/15 Q1004=
202108081220 METAR ESMX 081220Z AUTO 18008KT 9999 FEW034/// SCT064/// BKN098/// 20/15 Q1004=
202108081150 METAR ESMX 081150Z 21006KT 9999 SCT025 20/15 Q1004=
202108081120 METAR ESMX 081120Z 20007KT 9999 SCT022 20/16 Q1004=
202108081050 METAR ESMX 081050Z 16007KT 140V200 9999 SCT021 21/16 Q1004=
202108081020 METAR ESMX 081020Z 17005KT 9999 FEW010 SCT016 19/16 Q1003=
202108080950 METAR COR ESMX 080950Z 16005KT 9999 SCT010 19/17 Q1003=
202108080920 METAR ESMX 080920Z 14003KT 9999 BKN011 18/16 Q1003=
202108080850 METAR ESMX 080850Z 14002KT 9999 SCT009 BKN014 18/16 Q1003=
202108080820 METAR ESMX 080820Z VRB03KT 9999 BKN017 17/16 Q1003=
202108080750 METAR ESMX 080750Z 14003KT 9999 -DZ BKN020 16/16 Q1003=
202108080720 METAR ESMX 080720Z 14002KT 9999 -RA FEW004 SCT023 16/16 Q1003=
202108080650 METAR ESMX 080650Z 14001KT 9999 SCT005 16/16 Q1003=
202108080620 METAR ESMX 080620Z 14003KT 9999 -RA SCT015 16/16 Q1003=
202108080550 METAR ESMX 080550Z 14004KT 9999 -RA FEW007 SCT047 15/15 Q1003=
202108080520 METAR ESMX 080520Z 14005KT 090V180 9999 -RA FEW005 BKN053 15/15 Q1003=
202108080450 METAR ESMX 080450Z 16004KT 9999 VCSH BKN061 15/15 Q1003=
202108080420 METAR ESMX 080420Z 16004KT 9999 -RA FEW005 16/15 Q1003=
202108080350 METAR ESMX 080350Z 15004KT 9999 FEW005 16/15 Q1003=
202108080320 METAR ESMX 080320Z AUTO 15004KT 9999 FEW005/// OVC086/// 16/15 Q1003=
202108080250 METAR ESMX 080250Z AUTO 14004KT 9999 OVC004/// 16/15 Q1003=
202108080220 METAR ESMX 080220Z AUTO 14003KT 9999 BKN005/// OVC059/// 15/15 Q1003=
202108080150 METAR ESMX 080150Z AUTO 14001KT 9999 SCT006/// BKN030/// BKN034/// 15/14 Q1003=
202108080120 METAR ESMX 080120Z AUTO 14003KT 9999 SCT005/// BKN072/// OVC100/// 15/14 Q1003=
202108080050 METAR ESMX 080050Z AUTO 14003KT 9999 BKN076/// BKN100/// 14/14 Q1003=
202108080020 METAR ESMX 080020Z AUTO 14002KT 9999 NCD 14/13 Q1003=
202108072350 METAR ESMX 072350Z AUTO 13003KT 9999 NCD 15/13 Q1003=
202108072320 METAR ESMX 072320Z AUTO 18005KT 9999 SCT150/// 15/13 Q1004=
202108072250 METAR ESMX 072250Z AUTO 20004KT 9999 NCD 13/12 Q1004=
202108072220 METAR ESMX 072220Z AUTO 20003KT 9999 FEW053/// 13/11 Q1004=
202108072150 METAR ESMX 072150Z AUTO 00000KT 9999 NCD 13/11 Q1004=
202108072120 METAR ESMX 072120Z AUTO 17003KT 9999 SCT100/// 14/11 Q1004=
202108072050 METAR ESMX 072050Z AUTO 20003KT 9999 SCT210/// 14/10 Q1004=
202108072020 METAR ESMX 072020Z AUTO 20003KT 9999 FEW220/// 13/10 Q1004=
202108071950 METAR ESMX 071950Z AUTO 21006KT 9999 BKN100/// 16/10 Q1004=
202108071920 METAR ESMX 071920Z AUTO 21003KT 9999 FEW068/// 15/11 Q1004=
202108071850 METAR ESMX 071850Z 22004KT CAVOK 18/12 Q1004=
202108071820 METAR ESMX 071820Z 19004KT CAVOK 18/13 Q1004=
202108071750 METAR ESMX 071750Z 22004KT 9999 FEW048 19/12 Q1003=
202108071720 METAR ESMX 071720Z 22006KT CAVOK 21/12 Q1003=
202108071650 METAR ESMX 071650Z 19006KT CAVOK 21/12 Q1003=
202108071620 METAR ESMX 071620Z 24005KT CAVOK 21/12 Q1003=
202108071550 METAR ESMX 071550Z 23007KT CAVOK 20/12 Q1003=
202108071520 METAR ESMX 071520Z AUTO 23007KT 9999 OVC082/// 20/12 Q1003=
202108071450 METAR ESMX 071450Z AUTO 22010KT 9999 OVC082/// 20/11 Q1003=
202108071420 METAR ESMX 071420Z AUTO 21008KT 9999 SCT059/// OVC086/// 21/11 Q1003=
202108071350 METAR ESMX 071350Z AUTO 21005KT 200V260 9999 FEW059/// SCT076/// 22/10 Q1003=
202108071320 METAR ESMX 071320Z AUTO 18003KT 9999 NCD 22/10 Q1003=
202108071250 METAR ESMX 071250Z AUTO 17003KT 9999 NCD 21/11 Q1003=
202108071220 METAR ESMX 071220Z AUTO 17002KT 9999 FEW072/// 20/12 Q1004=
202108071150 METAR ESMX 071150Z AUTO 17002KT 9999 FEW072/// 20/12 Q1004=
202108071120 METAR ESMX 071120Z AUTO 17005KT 9999 FEW070/// 20/11 Q1004=
202108071050 METAR ESMX 071050Z AUTO 34004KT 280V060 9999 NCD 22/11 Q1004=
202108071020 METAR ESMX 071020Z AUTO 01003KT 330V070 9999 NCD 21/12 Q1004=
202108070950 METAR ESMX 070950Z AUTO VRB03KT 9999 NCD 20/11 Q1004=
202108070920 METAR ESMX 070920Z AUTO VRB03KT 9999 NCD 19/12 Q1004=
202108070850 METAR ESMX 070850Z AUTO 01004KT 330V060 9999 NCD 19/15 Q1005=
202108070820 METAR ESMX 070820Z AUTO VRB04KT 9999 NCD 18/14 Q1005=
202108070750 METAR ESMX 070750Z AUTO 35004KT 290V060 9999 FEW200/// 17/14 Q1005=
202108070720 METAR ESMX 070720Z AUTO 33005KT 9999 FEW210/// 16/14 Q1005=
202108070650 METAR ESMX 070650Z AUTO 35005KT 9999 NCD 16/14 Q1005=
202108070620 METAR ESMX 070620Z AUTO 36004KT 9999 SCT200/// 15/14 Q1005=
202108070550 METAR ESMX 070550Z AUTO 35004KT 9999 FEW009/// SCT010/// 14/13 Q1005=
202108070520 METAR ESMX 070520Z AUTO 33004KT 9999 FEW009/// 14/13 Q1005=
202108070450 METAR ESMX 070450Z AUTO 01005KT 9999 FEW150/// 14/13 Q1005=
202108070420 METAR ESMX 070420Z AUTO 02005KT 9999 SCT160/// 14/13 Q1005=
202108070350 METAR ESMX 070350Z AUTO 01005KT 9999 FEW150/// 13/13 Q1006=
202108070320 METAR ESMX 070320Z AUTO 35006KT 9999 BKN150/// 13/12 Q1006=
202108070250 METAR ESMX 070250Z AUTO 01006KT 9999 OVC160/// 13/12 Q1006=
202108070220 METAR ESMX 070220Z AUTO 01004KT 9999 FEW180/// 13/12 Q1006=
202108070150 METAR ESMX 070150Z AUTO 01005KT 9999 NCD 13/12 Q1006=
202108070120 METAR ESMX 070120Z AUTO 01005KT 9999 NCD 13/12 Q1006=
202108070050 METAR ESMX 070050Z AUTO 02006KT 9999 NCD 13/12 Q1007=
202108070020 METAR ESMX 070020Z AUTO 01005KT 9999 NCD 13/12 Q1007=
202108062350 METAR ESMX 062350Z AUTO 01006KT 9999 NCD 13/11 Q1007=
202108062320 METAR ESMX 062320Z AUTO 03006KT 9999 NCD 14/12 Q1007=
202108062250 METAR ESMX 062250Z AUTO 01005KT 9999 BKN190/// 14/12 Q1008=
202108062220 METAR ESMX 062220Z AUTO 02005KT 9999 NCD 14/11 Q1008=
202108062150 METAR ESMX 062150Z AUTO 01004KT 9999 FEW200/// 14/11 Q1008=
202108062120 METAR ESMX 062120Z AUTO 03003KT 9999 FEW210/// 14/11 Q1008=
202108062050 METAR ESMX 062050Z AUTO 03004KT 9999 FEW200/// 15/10 Q1009=
202108062020 METAR ESMX 062020Z AUTO 03003KT 9999 NCD 14/10 Q1009=
202108061950 METAR ESMX 061950Z AUTO 02003KT 9999 FEW210/// 14/09 Q1009=
202108061920 METAR ESMX 061920Z AUTO 06004KT 9999 NCD 16/09 Q1009=
202108061850 METAR ESMX 061850Z AUTO 06005KT 030V100 9999 NCD 17/09 Q1009=
202108061820 METAR ESMX 061820Z AUTO 06007KT 010V100 9999 NCD 17/09 Q1009=
202108061750 METAR ESMX 061750Z AUTO 07007KT 030V110 9999 NCD 18/11 Q1009=
202108061720 METAR ESMX 061720Z AUTO 08006KT 030V110 9999 FEW059/// SCT070/// 18/11 Q1009=
202108061650 METAR ESMX 061650Z AUTO 07007KT 010V110 9999 FEW041/// BKN076/// 19/11 Q1009=
202108061620 METAR ESMX 061620Z AUTO 08006KT 030V110 9999 BKN053/// OVC070/// 19/11 Q1009=
202108061550 METAR ESMX 061550Z AUTO 07006KT 030V100 9999 FEW072/// 20/11 Q1008=
202108061520 METAR ESMX 061520Z AUTO 07008KT 030V110 9999 FEW053/// SCT076/// 21/11 Q1008=
202108061450 METAR ESMX 061450Z AUTO 04006KT 9999 FEW200/// 21/10 Q1008=
202108061420 METAR ESMX 061420Z AUTO 06007KT 030V100 9999 FEW200/// 21/10 Q1009=
202108061350 METAR ESMX 061350Z 06006KT 030V100 CAVOK 21/10 Q1009=
202108061320 METAR ESMX 061320Z 06007KT 030V100 CAVOK 21/10 Q1009=
202108061250 METAR ESMX 061250Z 06008KT 030V100 CAVOK 21/10 Q1009=
202108061220 METAR ESMX 061220Z 06007KT 020V090 9999 FEW048 21/09 Q1009=
202108061150 METAR ESMX 061150Z 08006KT 020V130 9999 SCT048 21/10 Q1009=
202108061120 METAR ESMX 061120Z 08007KT 030V140 9999 SCT045 21/11 Q1010=
202108061050 METAR ESMX 061050Z 08008KT 030V130 9999 SCT043 20/11 Q1010=
202108061020 METAR ESMX 061020Z 08005KT 010V110 9999 SCT045 20/11 Q1010=
202108060950 METAR ESMX 060950Z 06006KT 020V160 9999 SCT033 19/12 Q1010=
202108060920 METAR ESMX 060920Z 07007KT 020V110 9999 SCT031 20/14 Q1010=
202108060850 METAR ESMX 060850Z 06007KT 010V130 9999 SCT020 19/14 Q1010=
202108060820 METAR ESMX 060820Z 07008KT 030V140 9999 SCT017 19/14 Q1010=
202108060750 METAR ESMX 060750Z 06008KT 020V110 9999 SCT014 18/15 Q1010=
202108060720 METAR ESMX 060720Z 06009KT 030V100 9999 FEW012 17/14 Q1010=
202108060650 METAR ESMX 060650Z 06008KT 030V100 9999 FEW012 16/14 Q1010=
202108060620 METAR ESMX 060620Z 06007KT 020V100 9999 FEW012 16/14 Q1010=
202108060550 METAR ESMX 060550Z AUTO 06008KT 020V100 9999 NCD 15/14 Q1010=
202108060520 METAR ESMX 060520Z AUTO 05007KT 9999 NCD 15/13 Q1010=
202108060450 METAR ESMX 060450Z AUTO 05006KT 020V080 9999 NCD 14/13 Q1010=
202108060420 METAR ESMX 060420Z AUTO 04007KT 9999 NCD 14/13 Q1010=
202108060350 METAR ESMX 060350Z AUTO 04007KT 9999 NCD 14/13 Q1010=
202108060320 METAR ESMX 060320Z AUTO 03006KT 9999 FEW051/// SCT064/// 13/13 Q1011=
202108060250 METAR ESMX 060250Z AUTO 03007KT 9999 SCT051/// 13/13 Q1011=
202108060220 METAR ESMX 060220Z AUTO 03006KT 9999 FEW047/// 13/13 Q1011=
202108060150 METAR ESMX 060150Z AUTO 03006KT 9999 NCD 13/13 Q1011=
202108060120 METAR ESMX 060120Z AUTO 03005KT 9999 NCD 13/12 Q1012=
202108060050 METAR ESMX 060050Z AUTO 02006KT 9999 FEW038/// 13/12 Q1011=
202108060020 METAR ESMX 060020Z AUTO 02005KT 9999 SCT037/// 12/12 Q1012=
202108052350 METAR ESMX 052350Z AUTO 07003KT 9999 NCD 12/12 Q1012=
202108052320 METAR ESMX 052320Z AUTO 07002KT 9999 NCD 12/12 Q1012=
202108052250 METAR ESMX 052250Z AUTO 07003KT 9999 NCD 12/12 Q1012=
202108052220 METAR ESMX 052220Z AUTO 07003KT 9999 NCD 13/12 Q1012=
202108052150 METAR ESMX 052150Z AUTO 14002KT 9999 NCD 13/12 Q1012=
202108052120 METAR ESMX 052120Z AUTO VRB02KT 9999 NCD 13/11 Q1013=
202108052050 METAR ESMX 052050Z AUTO VRB02KT 9999 NCD 12/11 Q1013=
202108052020 METAR ESMX 052020Z AUTO 14002KT 9999 NCD 14/12 Q1013=
202108051950 METAR ESMX 051950Z AUTO 14002KT 9999 NCD 14/12 Q1013=
202108051920 METAR ESMX 051920Z AUTO 14003KT 9999 NCD 15/12 Q1013=
202108051850 METAR ESMX 051850Z AUTO 13003KT 9999 SCT098/// 17/12 Q1012=
202108051820 METAR ESMX 051820Z 11004KT 9999 FEW042 OVC096 18/12 Q1012=
202108051750 METAR ESMX 051750Z 12005KT 060V140 CAVOK 19/12 Q1012=
202108051720 METAR ESMX 051720Z 12005KT CAVOK 19/12 Q1012=
202108051650 METAR ESMX 051650Z 12005KT 080V140 CAVOK 19/13 Q1012=
202108051620 METAR ESMX 051620Z 09005KT 030V130 CAVOK 20/13 Q1012=
202108051550 METAR ESMX 051550Z 08007KT 040V130 CAVOK 19/13 Q1013=
202108051520 METAR ESMX 051520Z 12003KT CAVOK 20/12 Q1013=
202108051450 METAR ESMX 051450Z 08004KT 040V120 CAVOK 21/11 Q1013=
202108051420 METAR ESMX 051420Z 10004KT CAVOK 22/11 Q1013=
202108051350 METAR ESMX 051350Z VRB04KT CAVOK 21/10 Q1013=
202108051320 METAR ESMX 051320Z 12004KT CAVOK 20/11 Q1013=
202108051250 METAR ESMX 051250Z 09004KT 050V110 CAVOK 20/12 Q1013=
202108051220 METAR ESMX 051220Z 06006KT 020V090 CAVOK 20/11 Q1013=
202108051150 METAR ESMX 051150Z 04006KT 350V150 9999 FEW042 21/12 Q1013=
202108051120 METAR ESMX 051120Z 14003KT 9999 FEW042 21/11 Q1014=
202108051050 METAR ESMX 051050Z 13004KT 9999 SCT049 20/11 Q1014=
202108051020 METAR ESMX 051020Z 08004KT 040V110 9999 SCT048 20/12 Q1014=
202108050950 METAR ESMX 050950Z 15003KT 9999 SCT034 19/12 Q1014=
202108050920 METAR ESMX 050920Z 18004KT 130V210 9999 FEW027 SCT064 19/12 Q1014=
202108050850 METAR ESMX 050850Z 18004KT 130V220 CAVOK 20/12 Q1014=
202108050820 METAR ESMX 050820Z 02003KT 320V080 CAVOK 19/14 Q1014=
202108050750 METAR ESMX 050750Z 22003KT CAVOK 18/14 Q1014=
202108050720 METAR ESMX 050720Z 22002KT CAVOK 17/14 Q1014=
202108050650 METAR ESMX 050650Z AUTO 22002KT 9999 FEW002/// 16/14 Q1014=
202108050620 METAR COR ESMX 050620Z 22003KT 9999 FEW002 15/15 Q1014=
202108050550 METAR ESMX 050550Z 22003KT 4000 BCFG SCT002 13/13 Q1014=
202108050520 METAR ESMX 050520Z 00000KT 1000 R01/P2000N R19/1000D BCFG NSC 12/12 Q1014=
202108050450 METAR ESMX 050450Z 00000KT 0400 R01/P2000N R19/0650N BCFG NSC 10/10 Q1014=
202108050420 METAR ESMX 050420Z 00000KT 0250 R01/0500N R19/P2000D BCFG NSC 08/08 Q1014=
202108050350 METAR ESMX 050350Z 00000KT 0200 R01/1500U R19/0400U BCFG NSC 07/07 Q1014=
202108050320 METAR ESMX 050320Z AUTO 22002KT 0150 R01/0275N R19/P2000D BCFG NCD 09/09 Q1015=
202108050250 METAR ESMX 050250Z AUTO 20003KT 9999 NCD 07/07 Q1015=
202108050220 METAR ESMX 050220Z AUTO 18003KT 0400 R01/P2000N R19/1100N BCFG NCD 08/08 Q1014=
202108050150 METAR ESMX 050150Z AUTO 22001KT 9999 BCFG NCD 08/08 Q1014=
202108050120 METAR ESMX 050120Z AUTO 00000KT 0250 R01/P2000D R19/P2000N BCFG NCD 07/07 Q1014=
202108050050 METAR ESMX 050050Z AUTO 22001KT 0300 R01/P2000N R19/P2000N BR NCD 10/10 Q1014=
202108050020 METAR ESMX 050020Z AUTO 17003KT 5000 NCD 10/10 Q1014=
202108042350 METAR ESMX 042350Z AUTO 18004KT 9999 BCFG NCD 10/10 Q1014=
202108042320 METAR ESMX 042320Z AUTO 00000KT 9999 BR NCD 10/10 Q1014=
202108042250 METAR ESMX 042250Z AUTO 22003KT 9999 NCD 11/11 Q1015=
202108042220 METAR ESMX 042220Z AUTO 16003KT 9999 NCD 11/11 Q1015=
202108042150 METAR ESMX 042150Z AUTO 22003KT 9999 NCD 11/11 Q1015=
202108042120 METAR ESMX 042120Z AUTO 22004KT 9999 NCD 11/11 Q1015=
202108042050 METAR ESMX 042050Z AUTO 22004KT 9999 NCD 12/12 Q1015=
202108042020 METAR ESMX 042020Z AUTO 22004KT 9999 NCD 12/12 Q1015=
202108041950 METAR ESMX 041950Z AUTO 18003KT 9999 FEW066/// 14/13 Q1014=
202108041920 METAR ESMX 041920Z AUTO 22005KT 9999 OVC064/// 15/13 Q1014=
202108041850 METAR ESMX 041850Z AUTO 22004KT 9999 SCT064/// 16/13 Q1014=
202108041820 METAR ESMX 041820Z AUTO 22003KT 9999 FEW064/// SCT076/// 17/14 Q1014=
202108041750 METAR ESMX 041750Z AUTO 22003KT 9999 FEW068/// 18/14 Q1014=
202108041720 METAR ESMX 041720Z AUTO 22002KT 9999 BKN078/// 18/14 Q1014=
202108041650 METAR ESMX 041650Z AUTO 22003KT 9999 NCD 16/14 Q1014=
202108041620 METAR ESMX 041620Z AUTO 16004KT 9999 FEW090/// 17/13 Q1013=
202108041550 METAR ESMX 041550Z AUTO 20003KT 9999 -RA FEW043/// OVC090/// 16/13 Q1014=
202108041520 METAR ESMX 041520Z AUTO 22006KT 9999 -RA BKN072/// OVC096/// 18/12 Q1014=
202108041450 METAR ESMX 041450Z AUTO 17003KT 9999 FEW045/// 18/11 Q1014=
202108041420 METAR ESMX 041420Z AUTO VRB03KT 9999 FEW059/// 18/11 Q1014=
202108041350 METAR ESMX 041350Z 04005KT 9999 SCT048 20/12 Q1014=
202108041320 METAR ESMX 041320Z 04005KT 9999 SCT048 BKN075 18/12 Q1014=
202108041250 METAR ESMX 041250Z AUTO 02006KT 9999 FEW046/// OVC086/// 18/12 Q1014=
202108041220 METAR ESMX 041220Z 01008KT 310V030 9999 BKN048TCU 18/12 Q1014=
202108041150 METAR ESMX 041150Z 29006KT 230V330 9999 SCT045 BKN086 20/11 Q1014=
202108041120 METAR ESMX 041120Z 29005KT 260V330 9999 FEW033 BKN080 19/10 Q1014=
202108041050 METAR ESMX 041050Z 24006KT 190V280 9999 SCT035 19/11 Q1014=
202108041020 METAR ESMX 041020Z AUTO 22006KT 190V260 9999 FEW046/// OVC070/// 19/12 Q1014=
202108040950 METAR ESMX 040950Z 18005KT 120V240 9999 BKN032 19/12 Q1014=
202108040920 METAR ESMX 040920Z 23005KT 9999 FEW024 BKN050 18/12 Q1014=
202108040850 METAR ESMX 040850Z 26004KT 220V300 9999 FEW025 BKN050 17/12 Q1014=
202108040820 METAR ESMX 040820Z 21005KT 170V260 9999 FEW023 BKN051 17/11 Q1014=
202108040750 METAR ESMX 040750Z 24006KT 220V290 9999 FEW023 BKN045 17/11 Q1014=
202108040720 METAR ESMX 040720Z 25004KT 210V290 9999 FEW020 17/11 Q1014=
202108040650 METAR ESMX 040650Z 22005KT CAVOK 16/12 Q1014=
202108040620 METAR ESMX 040620Z 22004KT CAVOK 14/12 Q1014=
202108040550 METAR COR ESMX 040550Z 19005KT CAVOK 13/11 Q1014=
202108040520 METAR ESMX 040520Z AUTO 20004KT 9999 OVC062/// 12/11 Q1014=
202108040450 METAR ESMX 040450Z AUTO 22004KT 9999 FEW037/// OVC061/// 12/10 Q1013=
202108040420 METAR ESMX 040420Z AUTO 17004KT 9999 OVC059/// 12/11 Q1013=
202108040350 METAR ESMX 040350Z AUTO 16003KT 9999 OVC055/// 12/11 Q1013=
202108040320 METAR ESMX 040320Z AUTO 22004KT 9999 OVC049/// 11/11 Q1013=
202108040250 METAR ESMX 040250Z AUTO 14003KT 9999 SCT033/// OVC042/// 10/10 Q1013=
202108040220 METAR ESMX 040220Z AUTO 00000KT 9999 SCT038/// OVC053/// 07/07 Q1013=
202108040150 METAR ESMX 040150Z AUTO 18002KT 9999 SCT038/// BKN055/// 08/08 Q1013=
202108040120 METAR ESMX 040120Z AUTO 00000KT 9999 NCD 07/07 Q1013=
202108040050 METAR ESMX 040050Z AUTO 17003KT 9999 BR NCD 07/07 Q1013=
202108040020 METAR ESMX 040020Z AUTO 00000KT 9999 NCD 07/07 Q1013=
202108032350 METAR ESMX 032350Z AUTO 00000KT 9999 NCD 09/08 Q1013=
202108032320 METAR ESMX 032320Z AUTO 22003KT 9999 NCD 09/09 Q1013=
202108032250 METAR ESMX 032250Z AUTO 22004KT 9999 SCT066/// 09/09 Q1013=
202108032220 METAR ESMX 032220Z AUTO 22004KT 9999 NCD 10/09 Q1013=
202108032150 METAR ESMX 032150Z AUTO 22005KT 9999 NCD 10/09 Q1013=
202108032120 METAR ESMX 032120Z AUTO 22005KT 9999 NCD 10/09 Q1013=
202108032050 METAR ESMX 032050Z AUTO 22004KT 9999 NCD 11/10 Q1012=
202108032020 METAR ESMX 032020Z AUTO 22004KT 9999 NCD 11/10 Q1012=
202108031950 METAR ESMX 031950Z AUTO 22004KT 9999 -RA NCD 11/10 Q1012=
202108031920 METAR ESMX 031920Z AUTO 22003KT 9999 NCD 12/11 Q1012=
202108031850 METAR ESMX 031850Z 24003KT CAVOK 15/10 Q1012=
202108031820 METAR ESMX 031820Z 26005KT CAVOK 16/10 Q1012=
202108031750 METAR ESMX 031750Z 26005KT 230V290 CAVOK 17/10 Q1011=
202108031720 METAR ESMX 031720Z 24006KT 9999 FEW045 17/10 Q1011=
202108031650 METAR ESMX 031650Z 26007KT 9999 FEW045 18/10 Q1011=
202108031620 METAR ESMX 031620Z 24007KT 9999 SCT038 18/10 Q1011=
202108031550 METAR ESMX 031550Z 22007KT 9999 SCT037 18/10 Q1011=
202108031520 METAR ESMX 031520Z 31004KT 290V350 9999 BKN044 18/11 Q1011=
202108031450 METAR ESMX 031450Z 21004KT 9999 FEW033 BKN048 17/11 Q1011=
202108031420 METAR ESMX 031420Z 23006KT 9999 SCT033 BKN048 17/11 Q1011=
202108031350 METAR ESMX 031350Z 21006KT 180V250 9999 FEW030 BKN047 18/11 Q1011=
202108031320 METAR ESMX 031320Z 29005KT 250V320 9999 BKN033 17/11 Q1011=
202108031250 METAR ESMX 031250Z 25003KT 190V290 9999 SCT049 BKN062 17/11 Q1011=
202108031220 METAR ESMX 031220Z 25003KT 9999 BKN046 17/10 Q1011=
202108031150 METAR ESMX 031150Z 22005KT 9999 SCT039 BKN051 16/11 Q1011=
202108031120 METAR ESMX 031120Z 21007KT 9999 FEW023 BKN032 16/12 Q1011=
202108031050 METAR ESMX 031050Z 21007KT CAVOK 17/12 Q1011=
202108031020 METAR ESMX 031020Z 22003KT 9999 BKN048 17/08 Q1011=
202108030950 METAR ESMX 030950Z 22003KT 9999 BKN048 16/08 Q1011=
202108030920 METAR ESMX 030920Z AUTO 19003KT 150V230 9999 OVC048/// 16/09 Q1011=
202108030850 METAR ESMX 030850Z AUTO 22004KT 9999 OVC048/// 15/10 Q1011=
202108030820 METAR ESMX 030820Z AUTO VRB03KT 9999 OVC051/// 15/11 Q1011=
202108030750 METAR ESMX 030750Z AUTO 06003KT 030V110 9999 BKN055/// 15/11 Q1011=
202108030720 METAR ESMX 030720Z 17002KT 9999 BKN049 14/09 Q1011=
202108030650 METAR ESMX 030650Z AUTO 22003KT 9999 OVC049/// 13/11 Q1011=
202108030620 METAR ESMX 030620Z AUTO 23003KT 9999 OVC046/// 13/09 Q1010=
202108030550 METAR ESMX 030550Z AUTO VRB02KT 9999 FEW039/// 13/10 Q1010=
202108030520 METAR ESMX 030520Z AUTO 00000KT 9999 BKN037/// 12/11 Q1010=
202108030450 METAR ESMX 030450Z AUTO 00000KT 9999 FEW036/// 10/10 Q1010=
202108030420 METAR ESMX 030420Z AUTO 18002KT 9999 NCD 07/07 Q1010=
202108030350 METAR ESMX 030350Z AUTO 19002KT 9999 NCD 06/06 Q1010=
202108030320 METAR ESMX 030320Z AUTO 00000KT 9999 FEW041/// 05/05 Q1009=
202108030250 METAR ESMX 030250Z AUTO 17002KT 9999 BR SCT044/// 06/06 Q1010=
202108030220 METAR ESMX 030220Z AUTO 18003KT 9999 NCD 07/07 Q1009=
202108030150 METAR ESMX 030150Z AUTO 17003KT 9999 FEW047/// 07/07 Q1009=
202108030120 METAR ESMX 030120Z AUTO 17003KT 9999 NCD 08/08 Q1009=
202108030050 METAR ESMX 030050Z AUTO 23004KT 9999 NCD 08/08 Q1009=
202108030020 METAR ESMX 030020Z AUTO 20003KT 9999 NCD 07/07 Q1009=
202108022350 METAR ESMX 022350Z AUTO 35001KT 9999 NCD 08/08 Q1009=
202108022320 METAR ESMX 022320Z AUTO 27004KT 9999 FEW053/// 08/07 Q1009=
202108022250 METAR ESMX 022250Z AUTO 28004KT 9999 FEW055/// 09/09 Q1008=
202108022220 METAR ESMX 022220Z AUTO 28003KT 9999 NCD 09/09 Q1008=
202108022150 METAR ESMX 022150Z AUTO 29003KT 9999 NCD 10/09 Q1008=
202108022120 METAR ESMX 022120Z AUTO 28005KT 9999 NCD 10/09 Q1008=
202108022050 METAR ESMX 022050Z AUTO 31005KT 9999 NCD 11/10 Q1008=
202108022020 METAR ESMX 022020Z AUTO 30004KT 9999 NCD 12/11 Q1007=
202108021950 METAR ESMX 021950Z AUTO 31004KT 9999 FEW053/// 13/11 Q1007=
202108021920 METAR ESMX 021920Z AUTO 31005KT 9999 FEW036/// SCT048/// 14/11 Q1007=
202108021850 METAR ESMX 021850Z AUTO 31007KT 9999 FEW038/// BKN062/// BKN076/// 14/12 Q1006=
202108021820 METAR ESMX 021820Z AUTO 32005KT 9999 FEW041/// OVC057/// 15/13 Q1006=
202108021750 METAR ESMX 021750Z AUTO 28005KT 9999 SCT043/// BKN055/// OVC076/// 15/14 Q1006=
202108021720 METAR ESMX 021720Z AUTO 27005KT 9999 -RA FEW018/// BKN049/// OVC068/// 15/14 Q1005 RERA=
202108021650 METAR ESMX 021650Z AUTO 30008KT 9999 RA FEW053/// OVC078/// 16/13 Q1005 RERA=
202108021620 METAR ESMX 021620Z AUTO 30007KT 9999 OVC078/// 17/12 Q1005=
202108021550 METAR ESMX 021550Z AUTO 34010KT 9999 -RA FEW039/// BKN061/// OVC078/// 16/13 Q1004=
202108021520 METAR ESMX 021520Z AUTO 29012KT 260V330 9999 OVC082/// 19/12 Q1004=
202108021450 METAR ESMX 021450Z AUTO 29008KT 260V330 9999 FEW038/// SCT086/// 18/11 Q1004=
202108021420 METAR ESMX 021420Z AUTO 29008KT 260V330 9999 BKN078/// 19/11 Q1003=
202108021350 METAR ESMX 021350Z 30010KT 280V340 9999 FEW041 18/11 Q1003=
202108021320 METAR ESMX 021320Z 31011KT 9999 SCT039 19/11 Q1003=
202108021250 METAR ESMX 021250Z 29009KT 250V330 9999 FEW037 20/12 Q1002=
202108021220 METAR ESMX 021220Z 31008KT 260V350 9999 FEW033 19/10 Q1002=
202108021150 METAR ESMX 021150Z 31010KT 270V340 9999 SCT034 18/11 Q1002=
202108021120 METAR ESMX 021120Z 28010KT 9999 SCT026 18/12 Q1002=
202108021050 METAR ESMX 021050Z 30009KT 270V330 9999 SCT023 18/13 Q1001=
202108021020 METAR ESMX 021020Z 27008KT 9999 BKN020 17/13 Q1001=
202108020950 METAR ESMX 020950Z 27006KT 240V310 9999 BKN018 17/14 Q1001=
202108020920 METAR ESMX 020920Z 29007KT 9999 -RA BKN011 16/14 Q1001=
202108020850 METAR ESMX 020850Z 24005KT 220V300 9999 -RA BKN007 14/14 Q1000=
202108020820 METAR ESMX 020820Z 21008KT 9999 BKN007 14/13 Q1000=
202108020750 METAR ESMX 020750Z 19008KT 9999 BKN007 13/13 Q1000=
202108020720 METAR ESMX 020720Z 19008KT 9999 BKN007 13/13 Q1000=
202108020650 METAR ESMX 020650Z 18009KT 9000 BKN008 13/12 Q1000=
202108020620 METAR ESMX 020620Z 17008KT 9999 -RA BKN009 12/12 Q1000=
202108020550 METAR ESMX 020550Z AUTO 17008KT 9999 RA FEW002/// BKN006/// OVC064/// 12/12 Q1001=
202108020520 METAR ESMX 020520Z AUTO 18008KT 9000 RA FEW005/// SCT017/// BKN055/// 12/12 Q1001 RESHRA=
202108020450 METAR ESMX 020450Z AUTO 17007KT 8000 RA ///045 12/12 Q1001=
202108020420 METAR ESMX 020420Z AUTO 19008KT 9999 DZ FEW001/// SCT027/// BKN035/// 12/11 Q1001 REDZ=
202108020350 METAR ESMX 020350Z AUTO 18007KT 9999 DZ ///033 12/11 Q1001=
202108020320 METAR ESMX 020320Z AUTO 18006KT 9999 OVC062/// 12/11 Q1002=
202108020250 METAR ESMX 020250Z AUTO 18005KT 9999 FEW026/// SCT057/// OVC072/// 11/11 Q1002=
202108020220 METAR ESMX 020220Z AUTO 18005KT 9999 FEW180/// 11/10 Q1002=
202108020150 METAR ESMX 020150Z AUTO 18006KT 9999 FEW088/// 11/10 Q1002=
202108020120 METAR ESMX 020120Z AUTO 18005KT 9999 SCT080/// 11/10 Q1002=
202108020050 METAR ESMX 020050Z AUTO 18006KT 9999 OVC074/// 12/11 Q1002=
202108020020 METAR ESMX 020020Z AUTO 18006KT 9999 FEW043/// 11/10 Q1002=
202108012350 METAR ESMX 012350Z AUTO 18005KT 9999 SCT080/// 12/10 Q1002=
202108012320 METAR ESMX 012320Z AUTO 18005KT 9999 OVC078/// 12/10 Q1002=
202108012250 METAR ESMX 012250Z AUTO 19006KT 9999 FEW033/// BKN046/// OVC076/// 12/10 Q1003=
202108012220 METAR ESMX 012220Z AUTO 19006KT 9999 SCT043/// 13/10 Q1003=
202108012150 METAR ESMX 012150Z AUTO 19006KT 9999 NCD 12/10 Q1003=
202108012120 METAR ESMX 012120Z AUTO 18005KT 9999 NCD 12/10 Q1003=
202108012050 METAR ESMX 012050Z AUTO 17006KT 9999 NCD 13/10 Q1003=
202108012020 METAR ESMX 012020Z AUTO 23005KT 9999 SCT210/// 13/10 Q1003=
202108011950 METAR ESMX 011950Z AUTO 23005KT 9999 NCD 12/10 Q1003=
202108011920 METAR ESMX 011920Z AUTO 19004KT 9999 NCD 14/10 Q1003=
202108011850 METAR ESMX 011850Z AUTO 23005KT 9999 FEW080/// 14/10 Q1003=
202108011820 METAR ESMX 011820Z AUTO 21007KT 9999 BKN080/// 16/10 Q1003=
202108011750 METAR ESMX 011750Z AUTO 23005KT 9999 BKN090/// 17/11 Q1003=
202108011720 METAR ESMX 011720Z 26005KT CAVOK 17/12 Q1003=
202108011650 METAR ESMX 011650Z 24004KT 9999 SCT041 16/12 Q1003=
202108011620 METAR ESMX 011620Z 27007KT 9999 FEW040 16/11 Q1003=
202108011550 METAR ESMX 011550Z 29008KT 9999 FEW040 18/11 Q1003=
202108011520 METAR ESMX 011520Z 28007KT 9999 SCT046 17/11 Q1003=
202108011450 METAR ESMX 011450Z 22008KT 9999 SCT044 18/10 Q1002=
202108011420 METAR ESMX 011420Z 27008KT 240V300 9999 FEW048 18/11 Q1002=
202108011350 METAR ESMX 011350Z 26011KT 230V290 9999 FEW047 18/11 Q1002=
202108011320 METAR ESMX 011320Z 23013KT 190V250 9999 FEW046 18/09 Q1002=
202108011250 METAR ESMX 011250Z 24010KT 210V280 9999 SCT046 19/09 Q1002=
202108011220 METAR ESMX 011220Z 22014KT 9999 SCT047 20/10 Q1002=
