##########################################################
# Query made at 04/19/2024 22:24:22 UTC
# Time interval: from 02/01/2022 12:00  to 02/28/2022 12:59  UTC
##########################################################

##########################################################
# ESMX, Vaxjo (Sweden)
# WMO index: 02641. WIGOS ID: 0-20000-0-02648
# Latitude 56-51N. Longitude 014-50E. Altitude 199 m.
##########################################################

202202281250 METAR ESMX 281250Z 16007KT 120V190 CAVOK 06/M04 Q1035=
202202281220 METAR ESMX 281220Z 15008KT 110V170 CAVOK 05/M04 Q1035=
202202281150 METAR ESMX 281150Z 19008KT CAVOK 05/M06 Q1035=
202202281120 METAR ESMX 281120Z 20009KT CAVOK 05/M06 Q1036=
202202281050 METAR ESMX 281050Z 18007KT 150V210 CAVOK 05/M05 Q1036=
202202281020 METAR ESMX 281020Z 18006KT CAVOK 04/M04 Q1036=
202202280950 METAR ESMX 280950Z 19005KT CAVOK 03/M02 Q1036=
202202280920 METAR ESMX 280920Z 17005KT CAVOK 02/M02 Q1036=
202202280850 METAR ESMX 280850Z 18005KT CAVOK 00/M02 Q1036=
202202280820 METAR ESMX 280820Z 19004KT CAVOK M01/M01 Q1036=
202202280750 METAR ESMX 280750Z 19002KT 6000 BR NSC M02/M02 Q1036=
202202280720 METAR ESMX 280720Z 00000KT 4000 BR FEW003 M05/M05 Q1036=
202202280650 METAR COR ESMX 280650Z 00000KT 1500 R01/0700N R19/1900N BR FEW003 M06/M06 Q1036=
202202280620 METAR ESMX 280620Z AUTO 00000KT 0350 R01/0700N R19/1400U FZFG VV001 M05/M05 Q1036=
202202280550 METAR ESMX 280550Z AUTO 00000KT 0100 R01/0400N R19/0400D FZFG VV001 M06/M06 Q1036=
202202280520 METAR ESMX 280520Z AUTO 14001KT 0150 R01/1600U R19/0650N FZFG OVC001/// M06/M06 Q1035=
202202280450 METAR ESMX 280450Z AUTO 13001KT 0300 R01/P2000N R19/0900D -FZDZ BKN001/// M05/M05 Q1035 REFZUP RESHUP REFZRA=
202202280420 METAR ESMX 280420Z AUTO 19002KT 0350 R01/P2000N R19/1000N FZUP BKN001/// OVC002/// M05/M05 Q1036 RESHUP REFZUP=
202202280350 METAR ESMX 280350Z AUTO 17002KT 0200 R01/0800N R19/0650N FZFG VV002 M04/M04 Q1036=
202202280320 METAR ESMX 280320Z AUTO 15003KT 110V170 0350 R01/1000N R19/1300D -FZDZ BKN001/// M04/M04 Q1036 REFZUP=
202202280250 METAR ESMX 280250Z AUTO 19002KT 9000 BR NCD M04/M04 Q1036=
202202280220 METAR ESMX 280220Z AUTO 19003KT 9999 FEW002/// M04/M04 Q1036=
202202280150 METAR ESMX 280150Z AUTO 17003KT 9999 NCD M03/M03 Q1035=
202202280120 METAR ESMX 280120Z AUTO 16002KT 7000 BR NCD M05/M05 Q1036=
202202280050 METAR ESMX 280050Z AUTO 19003KT 8000 NCD M04/M04 Q1036=
202202280020 METAR ESMX 280020Z AUTO 19003KT 9999 BR NCD M04/M04 Q1036=
202202272350 METAR ESMX 272350Z AUTO 19003KT 9999 NCD M03/M03 Q1036=
202202272320 METAR ESMX 272320Z AUTO 19003KT 6000 NCD M03/M03 Q1036=
202202272250 METAR ESMX 272250Z AUTO 19004KT 9999 NCD M02/M02 Q1036=
202202272220 METAR ESMX 272220Z AUTO 19003KT 9999 NCD M02/M02 Q1037=
202202272150 METAR ESMX 272150Z AUTO 19003KT 9999 NCD M03/M03 Q1037=
202202272120 METAR ESMX 272120Z AUTO 19003KT 9999 NCD M03/M04 Q1037=
202202272050 METAR ESMX 272050Z AUTO 19003KT 9999 NCD M02/M03 Q1037=
202202272020 METAR ESMX 272020Z AUTO 17003KT 9999 NCD M01/M03 Q1037=
202202271950 METAR ESMX 271950Z 19004KT CAVOK M00/M04 Q1037=
202202271920 METAR ESMX 271920Z AUTO 19004KT 9999 NCD M01/M04 Q1037=
202202271850 METAR ESMX 271850Z AUTO 19005KT 9999 NCD M00/M05 Q1037=
202202271820 METAR ESMX 271820Z 19004KT CAVOK M00/M05 Q1037=
202202271750 METAR ESMX 271750Z 19005KT CAVOK M00/M05 Q1037=
202202271720 METAR ESMX 271720Z 20004KT CAVOK 01/M06 Q1037=
202202271650 METAR ESMX 271650Z 20004KT CAVOK 03/M07 Q1037=
202202271620 METAR ESMX 271620Z 18005KT CAVOK 04/M06 Q1037=
202202271550 METAR ESMX 271550Z 20005KT CAVOK 04/M05 Q1037=
202202271520 METAR ESMX 271520Z AUTO 20007KT 9999 NCD 05/M05 Q1037=
202202271450 METAR ESMX 271450Z AUTO 22007KT 9999 NCD 06/M05 Q1037=
202202271420 METAR ESMX 271420Z AUTO 19006KT 160V230 9999 NCD 06/M05 Q1037=
202202271350 METAR ESMX 271350Z AUTO 22007KT 9999 NCD 06/M06 Q1037=
202202271320 METAR ESMX 271320Z AUTO 20008KT 160V230 9999 NCD 06/M06 Q1038=
202202271250 METAR ESMX 271250Z AUTO 18008KT 9999 NCD 06/M07 Q1038=
202202271220 METAR ESMX 271220Z AUTO 18008KT 9999 NCD 05/M05 Q1038=
202202271150 METAR ESMX 271150Z AUTO 21009KT 9999 NCD 05/M05 Q1038=
202202271120 METAR ESMX 271120Z AUTO 20007KT 9999 NCD 05/M04 Q1038=
202202271050 METAR ESMX 271050Z AUTO 21007KT 9999 NCD 04/M04 Q1038=
202202271020 METAR ESMX 271020Z AUTO 20007KT 9999 NCD 03/M03 Q1038=
202202270950 METAR ESMX 270950Z AUTO 21008KT 9999 NCD 03/M02 Q1038=
202202270920 METAR ESMX 270920Z AUTO 20006KT 170V230 9999 NCD 02/M02 Q1038=
202202270850 METAR ESMX 270850Z AUTO 16005KT 9999 NCD 01/M02 Q1038=
202202270820 METAR ESMX 270820Z AUTO 16004KT 9999 NCD 00/M02 Q1038=
202202270750 METAR ESMX 270750Z AUTO 16002KT 9999 NCD 01/M02 Q1038=
202202270720 METAR ESMX 270720Z AUTO 00000KT 9999 NCD M04/M04 Q1038=
202202270650 METAR ESMX 270650Z AUTO 16003KT 9999 NCD M05/M05 Q1038=
202202270620 METAR ESMX 270620Z AUTO 15001KT 9999 NCD M06/M06 Q1038=
202202270550 METAR ESMX 270550Z AUTO 16003KT 9999 NCD M06/M06 Q1038=
202202270520 METAR ESMX 270520Z AUTO 16003KT 9999 NCD M05/M05 Q1038=
202202270450 METAR ESMX 270450Z AUTO 18002KT 9999 NCD M06/M06 Q1038=
202202270420 METAR ESMX 270420Z AUTO 16003KT 9999 NCD M05/M06 Q1038=
202202270350 METAR ESMX 270350Z AUTO 14003KT 9999 NCD M05/M06 Q1038=
202202270320 METAR ESMX 270320Z AUTO 00000KT 9999 NCD M05/M06 Q1038=
202202270250 METAR ESMX 270250Z AUTO 16003KT 9999 NCD M03/M05 Q1038=
202202270220 METAR ESMX 270220Z AUTO 16004KT 9999 NCD M04/M05 Q1038=
202202270150 METAR ESMX 270150Z AUTO 17002KT 9999 NCD M05/M05 Q1038=
202202270120 METAR ESMX 270120Z AUTO 17002KT 9999 NCD M04/M06 Q1037=
202202270050 METAR ESMX 270050Z AUTO 16003KT 9999 NCD M03/M05 Q1037=
202202270020 METAR ESMX 270020Z AUTO 16004KT 9999 NCD M04/M05 Q1037=
202202262350 METAR ESMX 262350Z AUTO 16003KT 9999 NCD M03/M05 Q1037=
202202262320 METAR ESMX 262320Z AUTO 16004KT 9999 NCD M03/M05 Q1037=
202202262250 METAR ESMX 262250Z AUTO 15003KT 9999 NCD M04/M05 Q1037=
202202262220 METAR ESMX 262220Z AUTO 15003KT 9999 NCD M05/M07 Q1037=
202202262150 METAR ESMX 262150Z AUTO 15004KT 9999 NCD M04/M05 Q1037=
202202262120 METAR ESMX 262120Z AUTO 00000KT 9999 NCD M05/M06 Q1037=
202202262050 METAR ESMX 262050Z AUTO 17001KT 9999 NCD M04/M04 Q1036=
202202262020 METAR ESMX 262020Z AUTO 00000KT 9999 NCD M04/M05 Q1036=
202202261950 METAR ESMX 261950Z AUTO 17001KT 9999 NCD M03/M05 Q1036=
202202261920 METAR ESMX 261920Z AUTO 18001KT 9999 NCD M02/M05 Q1036=
202202261850 METAR ESMX 261850Z AUTO 00000KT 9999 NCD M03/M05 Q1036=
202202261820 METAR ESMX 261820Z AUTO 17002KT 9999 NCD M02/M05 Q1036=
202202261750 METAR ESMX 261750Z AUTO 00000KT 9999 NCD M02/M04 Q1035=
202202261720 METAR ESMX 261720Z AUTO 00000KT 9999 NCD M00/M05 Q1035=
202202261650 METAR ESMX 261650Z AUTO 00000KT 9999 NCD 00/M05 Q1035=
202202261620 METAR ESMX 261620Z AUTO 00000KT 9999 NCD 02/M06 Q1034=
202202261550 METAR ESMX 261550Z AUTO 00000KT 9999 NCD 05/M07 Q1034=
202202261520 METAR ESMX 261520Z AUTO 16002KT 9999 NCD 06/M09 Q1034=
202202261450 METAR ESMX 261450Z AUTO VRB02KT 9999 NCD 05/M07 Q1034=
202202261420 METAR ESMX 261420Z AUTO 36003KT 9999 NCD 05/M07 Q1033=
202202261350 METAR ESMX 261350Z AUTO 36005KT 9999 NCD 06/M08 Q1033=
202202261320 METAR ESMX 261320Z AUTO 23002KT 9999 NCD 05/M09 Q1033=
202202261250 METAR ESMX 261250Z AUTO VRB02KT 9999 NCD 05/M07 Q1033=
202202261220 METAR ESMX 261220Z AUTO VRB02KT 9999 NCD 05/M05 Q1033=
202202261150 METAR ESMX 261150Z AUTO VRB02KT 9999 NCD 04/M04 Q1033=
202202261120 METAR ESMX 261120Z AUTO VRB03KT 9999 NCD 03/M03 Q1033=
202202261050 METAR ESMX 261050Z AUTO 02003KT 350V070 9999 NCD 03/M04 Q1032=
202202261020 METAR ESMX 261020Z AUTO VRB03KT 9999 NCD 02/M05 Q1032=
202202260950 METAR ESMX 260950Z AUTO 35005KT 9999 NCD 01/M03 Q1032=
202202260920 METAR ESMX 260920Z AUTO 36006KT 9999 NCD 01/M04 Q1031=
202202260850 METAR ESMX 260850Z AUTO 35006KT 9999 NCD 00/M03 Q1031=
202202260820 METAR ESMX 260820Z AUTO 01005KT 9999 NCD M00/M03 Q1031=
202202260750 METAR ESMX 260750Z AUTO 36004KT 320V020 9999 NCD M01/M04 Q1030=
202202260720 METAR ESMX 260720Z AUTO 31003KT 9999 NCD M02/M03 Q1029=
202202260650 METAR ESMX 260650Z AUTO 29003KT 9999 NCD M04/M04 Q1029=
202202260620 METAR ESMX 260620Z AUTO 32004KT 9999 NCD M04/M04 Q1028=
202202260550 METAR ESMX 260550Z AUTO 33005KT 9999 NCD M04/M05 Q1027=
202202260520 METAR ESMX 260520Z AUTO 33005KT 9999 NCD M03/M04 Q1026=
202202260450 METAR ESMX 260450Z AUTO 34005KT 9999 NCD M03/M04 Q1026=
202202260420 METAR ESMX 260420Z AUTO 34006KT 9999 NCD M02/M03 Q1025=
202202260350 METAR ESMX 260350Z AUTO 33006KT 9999 NCD M02/M03 Q1024=
202202260320 METAR ESMX 260320Z AUTO 33005KT 9999 NCD M02/M03 Q1024=
202202260250 METAR ESMX 260250Z AUTO 35005KT 9999 NCD M01/M02 Q1023=
202202260220 METAR ESMX 260220Z AUTO 35007KT 9999 NCD M01/M02 Q1022=
202202260150 METAR ESMX 260150Z AUTO 35008KT 9999 NCD M01/M02 Q1021=
202202260120 METAR ESMX 260120Z AUTO 35007KT 9999 NCD M01/M01 Q1021=
202202260050 METAR ESMX 260050Z AUTO 34008KT 9999 NCD M00/M01 Q1020=
202202260020 METAR ESMX 260020Z AUTO 33008KT 9999 NCD M00/M01 Q1019=
202202252350 METAR ESMX 252350Z AUTO 32007KT 9999 NCD 00/M00 Q1019=
202202252320 METAR ESMX 252320Z AUTO 30006KT 9999 NCD 00/00 Q1018=
202202252250 METAR ESMX 252250Z AUTO 31004KT 9999 NCD 00/00 Q1017=
202202252220 METAR ESMX 252220Z AUTO 31004KT 9999 SCT006/// 01/01 Q1016=
202202252150 METAR ESMX 252150Z AUTO 30005KT 9999 BKN005/// 02/02 Q1016=
202202252120 METAR ESMX 252120Z AUTO 26003KT 9000 FEW002/// 01/01 Q1015=
202202252050 METAR ESMX 252050Z AUTO 25004KT 9999 BKN004/// 01/01 Q1014=
202202252020 METAR ESMX 252020Z AUTO 26004KT 9999 VV005 02/02 Q1013 REUP=
202202251950 METAR ESMX 251950Z AUTO 26005KT 9999 UP SCT007/// BKN013/// BKN040/// 02/02 Q1013=
202202251920 METAR ESMX 251920Z AUTO 23004KT 9999 BKN007/// OVC009/// 02/02 Q1012=
202202251850 METAR ESMX 251850Z AUTO 23004KT 9999 OVC010/// 02/02 Q1012=
202202251820 METAR ESMX 251820Z AUTO 19004KT 9999 FEW006/// OVC010/// 02/02 Q1011=
202202251750 METAR ESMX 251750Z 21005KT 9999 SCT006 BKN039 02/02 Q1010=
202202251720 METAR ESMX 251720Z 22006KT 9999 FEW010TCU BKN038 03/02 Q1009=
202202251650 METAR ESMX 251650Z 25005KT 9999 -SHRA FEW010TCU BKN018 03/02 Q1009=
202202251620 METAR ESMX 251620Z 24006KT 9999 FEW021 BKN029 03/02 Q1008=
202202251550 METAR ESMX 251550Z 26007KT 230V300 9999 BKN011 03/02 Q1008=
202202251520 METAR ESMX 251520Z 25009KT 9999 FEW008 BKN016 03/02 Q1007=
202202251450 METAR ESMX 251450Z 25008KT 9999 FEW008 BKN022 03/02 Q1006=
202202251420 METAR ESMX 251420Z 23009KT 9999 FEW010 BKN015 04/02 Q1005=
202202251350 METAR ESMX 251350Z 23010KT 200V270 9999 BKN016 04/02 Q1005=
202202251320 METAR ESMX 251320Z 23012KT 210V280 9999 BKN010 05/03 Q1005=
202202251250 METAR ESMX 251250Z 23009KT 200V260 9999 BKN009 04/03 Q1004=
202202251220 METAR ESMX 251220Z 22010KT 9999 VCSH BKN009 04/03 Q1004=
202202251150 METAR COR ESMX 251150Z 22009KT 9999 -SHRA BKN010 03/03 Q1004=
202202251120 METAR ESMX 251120Z 24011KT 9999 BKN011 04/03 Q1003=
202202251050 METAR COR ESMX 251050Z 22013KT 9999 BKN012 03/02 Q1003 RERA=
202202251020 METAR ESMX 251020Z 22011KT 9999 BKN010 OVC013 03/02 Q1002=
202202250950 METAR ESMX 250950Z 22010KT 9999 BKN008 OVC010 03/02 Q1002=
202202250920 METAR ESMX 250920Z 23010KT 9999 BKN009 03/02 Q1001=
202202250850 METAR ESMX 250850Z 23012KT 9999 BKN009 02/02 Q1001=
202202250820 METAR ESMX 250820Z 24011KT 9999 BKN008 02/01 Q1001=
202202250750 METAR COR ESMX 250750Z 24010KT 9999 BKN008 02/01 Q1000=
202202250720 METAR COR ESMX 250720Z 24009KT 9999 -RASN BKN009 02/01 Q1000=
202202250650 METAR ESMX 250650Z AUTO 23010KT 9999 BKN010/// OVC013/// 02/01 Q1000=
202202250620 METAR ESMX 250620Z AUTO 25012G23KT 9999 BKN010/// OVC013/// 02/01 Q0999=
202202250550 METAR ESMX 250550Z AUTO 24012KT 9999 BKN009/// OVC011/// 01/01 Q0999=
202202250520 METAR ESMX 250520Z AUTO 25010KT 9999 BKN009/// OVC013/// 01/01 Q0998=
202202250450 METAR ESMX 250450Z AUTO 25010KT 9999 BKN009/// OVC012/// 01/01 Q0998=
202202250420 METAR ESMX 250420Z AUTO 25009KT 9999 BKN009/// OVC011/// 01/01 Q0998=
202202250350 METAR ESMX 250350Z AUTO 26010KT 9999 BKN009/// OVC013/// 01/01 Q0997=
202202250320 METAR ESMX 250320Z AUTO 26010KT 9999 OVC008/// 01/01 Q0997=
202202250250 METAR ESMX 250250Z AUTO 26010KT 9999 OVC007/// 01/01 Q0996=
202202250220 METAR ESMX 250220Z 26010KT 9999 BKN005 00/00 Q0996=
202202250150 METAR ESMX 250150Z 27010KT 230V300 9999 SN VV002 00/00 Q0995=
202202250120 METAR ESMX 250120Z 28007KT 2100 SN VV002 00/00 Q0995=
202202250050 METAR ESMX 250050Z AUTO 29011KT 1700 -SN FEW001/// BKN017/// OVC022/// 00/00 Q0994=
202202250020 METAR ESMX 250020Z AUTO 29013G23KT 1400 R01/P2000N R19/P2000N -SN VV012 00/00 Q0993=
202202242350 METAR ESMX 242350Z AUTO 30011KT 0800 R01/P2000N R19/P2000D SN VV009 00/00 Q0993=
202202242320 METAR COR ESMX 242320Z 30012KT 1000 R01/P2000N R19/P2000N SNRA VV009 00/00 Q0992=
202202242250 METAR ESMX 242250Z AUTO 29014KT 260V320 1200 R01/P2000N R19/P2000N -SN SCT002/// BKN004/// OVC006/// 01/01 Q0991 RERA=
202202242220 METAR ESMX 242220Z AUTO 16009KT 8000 -RA OVC007/// 04/04 Q0991=
202202242150 METAR ESMX 242150Z AUTO 17010KT 9999 -DZ BKN008/// OVC012/// 04/04 Q0991 REDZ=
202202242120 METAR ESMX 242120Z AUTO 17009KT 7000 DZ BKN010/// OVC013/// 04/03 Q0992=
202202242050 METAR ESMX 242050Z AUTO 18009KT 8000 -RA FEW011/// BKN015/// OVC028/// 04/03 Q0993=
202202242020 METAR ESMX 242020Z AUTO 17010KT 9999 DZ OVC013/// 04/03 Q0993 REUP=
202202241950 METAR ESMX 241950Z AUTO 16009KT 9999 OVC013/// 04/03 Q0994=
202202241920 METAR ESMX 241920Z AUTO 16009KT 9999 OVC014/// 05/03 Q0994=
202202241850 METAR ESMX 241850Z AUTO 18011KT 9999 OVC016/// 05/03 Q0995=
202202241820 METAR ESMX 241820Z AUTO 16010KT 9999 OVC016/// 05/03 Q0995=
202202241750 METAR ESMX 241750Z AUTO 17012KT 9999 BKN016/// OVC026/// 05/03 Q0996=
202202241720 METAR ESMX 241720Z AUTO 17014KT 9999 BKN017/// OVC057/// 05/03 Q0996=
202202241650 METAR ESMX 241650Z AUTO 18012KT 9999 OVC017/// 05/03 Q0997=
202202241620 METAR ESMX 241620Z AUTO 18013KT 9999 OVC018/// 05/03 Q0997=
202202241550 METAR ESMX 241550Z AUTO 18014KT 9999 OVC017/// 06/03 Q0997=
202202241520 METAR ESMX 241520Z 18012KT 9999 BKN018 06/03 Q0998=
202202241450 METAR ESMX 241450Z 18015KT 9999 BKN018 06/03 Q0998=
202202241420 METAR ESMX 241420Z 18012KT 9999 BKN018 06/03 Q0999=
202202241350 METAR ESMX 241350Z 19009KT 9999 -DZ BKN017 06/04 Q0999=
202202241320 METAR ESMX 241320Z 19011KT 9999 -DZ BKN017 05/04 Q1000=
202202241250 METAR ESMX 241250Z 21014KT 9000 -RA BKN015 05/04 Q1000=
202202241220 METAR ESMX 241220Z 19015KT 9999 BKN015 06/03 Q1001=
202202241150 METAR ESMX 241150Z 19013KT 9000 -DZ FEW006 BKN016 05/04 Q1001=
202202241120 METAR ESMX 241120Z 19016KT 9999 -DZ FEW006 BKN018 06/03 Q1002=
202202241050 METAR ESMX 241050Z 20017KT 9999 -DZ BKN019 06/03 Q1002=
202202241020 METAR ESMX 241020Z 20016KT 9999 BKN018 06/03 Q1002=
202202240950 METAR ESMX 240950Z 19017KT 9999 BKN018 06/03 Q1003=
202202240920 METAR ESMX 240920Z 19018KT 9999 BKN019 06/03 Q1003=
202202240850 METAR ESMX 240850Z 21017G28KT 9999 BKN019 06/02 Q1003=
202202240820 METAR ESMX 240820Z 21017KT 9999 BKN020 06/02 Q1004=
202202240750 METAR ESMX 240750Z 21019KT 9999 BKN020 05/02 Q1003=
202202240720 METAR ESMX 240720Z 21017KT 9999 BKN020 05/02 Q1003=
202202240650 METAR ESMX 240650Z AUTO 19018G28KT 9999 SCT022/// 05/02 Q1003=
202202240620 METAR ESMX 240620Z AUTO 19017KT 9999 SCT024/// BKN062/// 05/01 Q1004=
202202240550 METAR ESMX 240550Z AUTO 19017KT 9999 FEW025/// OVC061/// 05/01 Q1004=
202202240520 METAR ESMX 240520Z AUTO 20018KT 9999 FEW027/// OVC057/// 05/02 Q1004=
202202240450 METAR ESMX 240450Z AUTO 20018KT 9999 OVC025/// 05/02 Q1004=
202202240420 METAR ESMX 240420Z AUTO 20017KT 9999 OVC024/// 05/02 Q1005 RESHUP REUP REDZ=
202202240350 METAR ESMX 240350Z AUTO 20017KT 9999 FEW015/// BKN027/// OVC049/// 05/01 Q1005=
202202240320 METAR ESMX 240320Z AUTO 21016KT 9999 FEW030/// OVC048/// 05/01 Q1005=
202202240250 METAR ESMX 240250Z AUTO 19014KT 9999 FEW036/// OVC051/// 05/01 Q1006=
202202240220 METAR ESMX 240220Z AUTO 21013KT 9999 OVC049/// 05/01 Q1006=
202202240150 METAR ESMX 240150Z 19014KT CAVOK 05/02 Q1006=
202202240120 METAR ESMX 240120Z 19015KT 9999 BKN023 04/02 Q1007=
202202240050 METAR COR ESMX 240050Z 20016KT 9999 BKN023 05/02 Q1007=
202202240020 METAR ESMX 240020Z 21016G28KT 9999 BKN026 05/01 Q1008=
202202232350 METAR ESMX 232350Z AUTO 21016G31KT 9999 SCT029/// OVC045/// 05/00 Q1008 RESHUP REUP=
202202232320 METAR ESMX 232320Z AUTO 21015KT 9999 OVC034/// 05/00 Q1008=
202202232250 METAR ESMX 232250Z AUTO 21016KT 9999 OVC031/// 05/00 Q1009=
202202232220 METAR ESMX 232220Z AUTO 20014KT 9999 OVC030/// 05/00 Q1009=
202202232150 METAR ESMX 232150Z AUTO 21017KT 9999 OVC029/// 05/00 Q1010=
202202232120 METAR ESMX 232120Z AUTO 22017KT 9999 OVC028/// 05/00 Q1010=
202202232050 METAR ESMX 232050Z AUTO 22015G26KT 9999 OVC028/// 05/01 Q1010=
202202232020 METAR ESMX 232020Z AUTO 19012KT 9999 BKN029/// OVC035/// 04/01 Q1011=
202202231950 METAR ESMX 231950Z AUTO 19015KT 9999 OVC034/// 04/02 Q1011=
202202231920 METAR ESMX 231920Z AUTO 19013KT 9999 BKN033/// 04/02 Q1012=
202202231850 METAR ESMX 231850Z AUTO 19012KT 9999 FEW021/// 03/01 Q1012=
202202231820 METAR ESMX 231820Z AUTO 19008KT 9999 BKN022/// 03/01 Q1012=
202202231750 METAR ESMX 231750Z AUTO 18008KT 9999 FEW023/// 03/01 Q1012=
202202231720 METAR ESMX 231720Z AUTO 18007KT 9999 SCT030/// 03/01 Q1013=
202202231650 METAR ESMX 231650Z 22008KT 9999 BKN027 04/01 Q1013=
202202231620 METAR ESMX 231620Z 23007KT 9999 SCT026 03/01 Q1013=
202202231550 METAR ESMX 231550Z 22007KT CAVOK 04/01 Q1013=
202202231520 METAR ESMX 231520Z 23007KT CAVOK 05/01 Q1012=
202202231450 METAR ESMX 231450Z 23007KT 190V260 9999 FEW026 05/01 Q1012=
202202231420 METAR ESMX 231420Z 25008KT 9999 SCT026 06/02 Q1012=
202202231350 METAR ESMX 231350Z 25008KT 9999 FEW022 06/02 Q1012=
202202231320 METAR ESMX 231320Z 25007KT 210V290 9999 SCT021 BKN030 05/02 Q1012=
202202231250 METAR ESMX 231250Z 27010KT 9999 BKN023 06/02 Q1012=
202202231220 METAR ESMX 231220Z 27009KT 240V310 9999 BKN016 05/02 Q1012=
202202231150 METAR ESMX 231150Z 25006KT 220V280 9999 BKN010 04/02 Q1011=
202202231120 METAR ESMX 231120Z 28006KT 250V320 9999 BKN010 03/02 Q1011=
202202231050 METAR ESMX 231050Z 27004KT 240V320 9999 BKN008 02/01 Q1011=
202202231020 METAR ESMX 231020Z 28004KT 9999 BKN007 02/01 Q1010=
202202230950 METAR ESMX 230950Z 30005KT 9999 BKN008 01/01 Q1010=
202202230920 METAR ESMX 230920Z 30008KT 270V330 9999 BKN010 01/00 Q1009=
202202230850 METAR ESMX 230850Z 32012KT 9999 BKN008 01/00 Q1009=
202202230820 METAR ESMX 230820Z 30011KT 250V330 9999 BKN007 01/00 Q1008=
202202230750 METAR ESMX 230750Z 30013KT 9999 BKN006 01/00 Q1007=
202202230720 METAR ESMX 230720Z 30012KT 9999 BKN008 01/00 Q1006=
202202230650 METAR ESMX 230650Z AUTO 30012KT 9999 OVC009/// 01/00 Q1005=
202202230620 METAR ESMX 230620Z AUTO 30016KT 9999 OVC010/// 01/00 Q1004=
202202230550 METAR ESMX 230550Z AUTO 30016KT 9999 OVC009/// 01/00 Q1002=
202202230520 METAR ESMX 230520Z AUTO 30014KT 9999 -RA FEW006/// OVC009/// 01/01 Q1001=
202202230450 METAR ESMX 230450Z AUTO 29013KT 9999 -RA BKN006/// OVC009/// 01/01 Q1000=
202202230420 METAR ESMX 230420Z AUTO 29014KT 9999 OVC005/// 01/01 Q0999 REUP=
202202230350 METAR ESMX 230350Z AUTO 27009KT 9999 UP OVC003/// 01/01 Q0998=
202202230320 METAR ESMX 230320Z AUTO 22006KT 4600 -SN OVC002/// 01/01 Q0997=
202202230250 METAR ESMX 230250Z AUTO 18007KT 1900 -SN SCT001/// BKN004/// BKN010/// 01/01 Q0997=
202202230220 METAR ESMX 230220Z AUTO 18008KT 2600 -SN SCT001/// OVC004/// 01/01 Q0997=
202202230150 METAR ESMX 230150Z 16007KT 2200 -SN BKN002 BKN004 BKN014 01/01 Q0997=
202202230120 METAR ESMX 230120Z 15007KT 120V190 2200 -SN BKN002 01/01 Q0997=
202202230050 METAR ESMX 230050Z 14008KT 3300 -SN BKN002 01/01 Q0998=
202202230020 METAR ESMX 230020Z AUTO 14008KT 110V170 3600 -SN OVC002/// 01/01 Q0998=
202202222350 METAR ESMX 222350Z AUTO 13006KT 080V190 3400 -SN OVC002/// 01/01 Q0999=
202202222320 METAR ESMX 222320Z AUTO 14006KT 1700 -SN OVC001/// 01/01 Q0999=
202202222250 METAR ESMX 222250Z AUTO 13004KT 1300 R01/P2000N R19/P2000N -SN OVC001/// 00/00 Q1000=
202202222220 METAR ESMX 222220Z AUTO 13005KT 100V160 2500 -SN ///022 00/M00 Q1000=
202202222150 METAR ESMX 222150Z AUTO 14006KT 100V170 9999 -RA FEW012/// SCT023/// BKN036/// 00/M01 Q1001 REUP RESHUP REFZRA=
202202222120 METAR ESMX 222120Z AUTO 13006KT 9999 FEW015/// SCT026/// BKN049/// 00/M01 Q1001=
202202222050 METAR ESMX 222050Z AUTO 14006KT 9999 -RA FEW019/// SCT029/// BKN051/// 00/M01 Q1001 RESHUP REUP=
202202222020 METAR ESMX 222020Z AUTO 15007KT 9999 UP FEW015/// SCT026/// BKN049/// 00/M02 Q1002 RESHUP RESN=
202202221950 METAR ESMX 221950Z AUTO 16007KT 9999 FEW015/// OVC064/// 00/M03 Q1002 RESHUP REUP=
202202221920 METAR ESMX 221920Z AUTO 16005KT 9999 FEW016/// OVC070/// 00/M03 Q1003=
202202221850 METAR ESMX 221850Z AUTO 17005KT 9999 SCT017/// BKN023/// OVC076/// 00/M03 Q1003=
202202221820 METAR ESMX 221820Z AUTO 15005KT 110V170 9999 OVC016/// 00/M04 Q1004=
202202221750 METAR ESMX 221750Z AUTO 14004KT 9999 BKN017/// OVC130/// M00/M04 Q1004=
202202221720 METAR ESMX 221720Z AUTO 23003KT 9999 BKN020/// OVC130/// M00/M04 Q1004=
202202221650 METAR ESMX 221650Z AUTO 16003KT 9999 FEW023/// BKN032/// OVC120/// M00/M05 Q1004=
202202221620 METAR ESMX 221620Z AUTO 18003KT 9999 FEW028/// SCT036/// OVC120/// M00/M04 Q1005=
202202221550 METAR ESMX 221550Z AUTO 24003KT 9999 BKN033/// BKN120/// M00/M05 Q1005=
202202221520 METAR ESMX 221520Z AUTO 25003KT 9999 BKN034/// M00/M05 Q1005=
202202221450 METAR ESMX 221450Z 26005KT CAVOK 00/M05 Q1005=
202202221420 METAR ESMX 221420Z 27005KT 230V290 CAVOK M00/M05 Q1005=
202202221350 METAR ESMX 221350Z 28006KT 250V320 CAVOK M00/M05 Q1005=
202202221320 METAR ESMX 221320Z 27008KT 240V300 9999 FEW022 M01/M04 Q1005=
202202221250 METAR ESMX 221250Z 27010KT 9999 SCT022 M00/M05 Q1005=
202202221220 METAR ESMX 221220Z 28009KT 240V310 9999 FEW022 00/M05 Q1005=
202202221150 METAR ESMX 221150Z 28008KT 250V310 9999 FEW022 M00/M04 Q1004=
202202221120 METAR ESMX 221120Z 26008KT 210V290 9999 FEW022 M00/M05 Q1004=
202202221050 METAR ESMX 221050Z 28010KT 9999 SCT022 M00/M05 Q1005=
202202221020 METAR ESMX 221020Z 30010KT 270V340 9999 BKN021 M01/M05 Q1005=
202202220950 METAR ESMX 220950Z 28010KT 9999 BKN019 M01/M05 Q1004=
202202220920 METAR ESMX 220920Z AUTO 30009KT 9999 BKN018/// M02/M05 Q1004=
202202220850 METAR ESMX 220850Z 30009KT 260V340 9999 BKN018 M02/M05 Q1004=
202202220820 METAR ESMX 220820Z 29011KT 9999 BKN017 M02/M05 Q1003=
202202220750 METAR ESMX 220750Z 30010KT 270V330 9999 BKN017 M02/M05 Q1003=
202202220720 METAR ESMX 220720Z 31010KT 280V350 9999 BKN016 M02/M06 Q1002=
202202220650 METAR COR ESMX 220650Z 30010KT 9999 BKN016 M02/M05 Q1002=
202202220620 METAR ESMX 220620Z AUTO 30009KT 9999 OVC017/// M03/M05 Q1001=
202202220550 METAR ESMX 220550Z AUTO 32011KT 280V350 9999 OVC017/// M03/M05 Q1000=
202202220520 METAR ESMX 220520Z AUTO 30011KT 9999 OVC015/// M02/M05 Q1000=
202202220450 METAR ESMX 220450Z AUTO 31009KT 9999 OVC016/// M02/M05 Q0999=
202202220420 METAR ESMX 220420Z AUTO 32011KT 9999 BKN017/// OVC020/// M02/M05 Q0999=
202202220350 METAR ESMX 220350Z AUTO 31012KT 9999 OVC017/// M02/M05 Q0998=
202202220320 METAR ESMX 220320Z AUTO 32010KT 9999 OVC018/// M02/M05 Q0997=
202202220250 METAR ESMX 220250Z 31010KT 290V350 9999 BKN020 M02/M05 Q0997=
202202220220 METAR ESMX 220220Z 32014G24KT 290V360 9999 BKN019 M02/M04 Q0996=
202202220150 METAR ESMX 220150Z 31014KT 9999 BKN020 M01/M05 Q0995=
202202220120 METAR ESMX 220120Z 31017KT 9999 BKN020 M01/M04 Q0995=
202202220050 METAR ESMX 220050Z 32015G26KT 9999 BKN019 M01/M04 Q0994=
202202220020 METAR ESMX 220020Z AUTO 32017G28KT 9999 OVC019/// M01/M04 Q0993=
202202212350 METAR ESMX 212350Z AUTO 32012KT 290V350 9999 OVC019/// M01/M04 Q0992=
202202212320 METAR ESMX 212320Z AUTO 32017KT 9999 OVC019/// M01/M04 Q0991=
202202212250 METAR ESMX 212250Z AUTO 33018KT 9999 OVC019/// M01/M04 Q0990=
202202212220 METAR ESMX 212220Z 32014KT 280V350 9999 BKN018 M00/M03 Q0989=
202202212150 METAR ESMX 212150Z 32017G29KT 280V350 9999 BKN019 M00/M03 Q0988=
202202212120 METAR ESMX 212120Z 32017KT 290V350 9999 BKN018 BKN024 M00/M03 Q0987=
202202212050 METAR ESMX 212050Z 32018G30KT 280V350 9999 BKN020 00/M03 Q0986 RESHSN=
202202212020 METAR ESMX 212020Z 31016KT 9999 -DZ BKN020 00/M02 Q0985=
202202211950 METAR ESMX 211950Z 31017G28KT 9999 -DZ BKN018 00/M02 Q0984=
202202211920 METAR ESMX 211920Z 31017G29KT 9999 -DZ BKN018 OVC025 00/M02 Q0983 RESN=
202202211850 METAR ESMX 211850Z 30016KT 9999 -SN SCT017 BKN029 BKN035 00/M01 Q0982 RESG=
202202211820 METAR ESMX 211820Z 29015KT 8000 -SN FEW011 SCT014 BKN019 00/M01 Q0980=
202202211750 METAR ESMX 211750Z 29017G28KT 9000 -RASN FEW011 SCT013 BKN018 00/M01 Q0979=
202202211720 METAR ESMX 211720Z 27016KT 5000 -SN SCT008 BKN019 00/M00 Q0978=
202202211650 METAR ESMX 211650Z 27016G30KT 3600 -SN FEW009 BKN017 00/M00 Q0978=
202202211620 METAR ESMX 211620Z 27014KT 3000 -SN FEW008 BKN017 00/M00 Q0977=
202202211550 METAR ESMX 211550Z 27016KT 4900 -SN FEW007 BKN015 BKN021 01/M00 Q0976=
202202211520 METAR ESMX 211520Z 27018KT 8000 -SN FEW007 BKN013 BKN021 01/M00 Q0976 RESG=
202202211450 METAR ESMX 211450Z 26016G29KT 5000 -SN FEW010 BKN012 01/M00 Q0975=
202202211420 METAR ESMX 211420Z 26017KT 5000 -RA SCT010 BKN018 01/M00 Q0974=
202202211350 METAR ESMX 211350Z 27016G33KT 4000 -SNRA SCT013 BKN018 01/00 Q0974=
202202211320 METAR ESMX 211320Z 26016G28KT 210V280 8000 -RASN SCT014 BKN020 02/00 Q0973=
202202211250 METAR ESMX 211250Z 26018G29KT 230V290 9000 -RASN BKN013 02/01 Q0972=
202202211220 METAR ESMX 211220Z 26017G32KT 9000 -DZ FEW003 BKN011 02/01 Q0972 RESN=
202202211150 METAR ESMX 211150Z 26017G31KT 8000 -DZ SCT005 BKN012 02/01 Q0972=
202202211120 METAR ESMX 211120Z 25017G34KT 9000 -RA SCT005 BKN008 03/01 Q0971=
202202211050 METAR ESMX 211050Z 24017G29KT 200V260 9000 BKN012 OVC021 03/01 Q0971=
202202211020 METAR ESMX 211020Z 25016G28KT 9999 BKN011 OVC015 03/02 Q0970=
202202210950 METAR ESMX 210950Z 24016KT 210V270 9999 BKN010 OVC015 03/02 Q0970=
202202210920 METAR ESMX 210920Z 25016KT 9999 FEW007 BKN010 03/03 Q0969=
202202210850 METAR ESMX 210850Z 24017KT 7000 RA SCT005 OVC008 04/03 Q0969=
202202210820 METAR ESMX 210820Z 23017G27KT 7000 -RADZ OVC006 04/04 Q0968=
202202210750 METAR ESMX 210750Z 23015G26KT 9000 -RA OVC008 04/03 Q0968=
202202210720 METAR ESMX 210720Z 22015KT 9000 -RADZ BKN007 OVC012 04/03 Q0968=
202202210650 METAR ESMX 210650Z 22015KT 9000 -DZ BKN006 04/04 Q0967=
202202210620 METAR ESMX 210620Z AUTO 21013KT 9999 -DZ OVC007/// 04/04 Q0967 REDZ=
202202210550 METAR ESMX 210550Z AUTO 22013KT 9999 DZ BKN007/// OVC010/// 04/04 Q0968=
202202210520 METAR ESMX 210520Z AUTO 22016KT 9999 -DZ OVC009/// 04/03 Q0968 RESHUP RERA=
202202210450 METAR ESMX 210450Z AUTO 23017G29KT 9999 FEW005/// SCT009/// BKN013/// 05/04 Q0968=
202202210420 METAR ESMX 210420Z AUTO 22020G33KT 9999 -DZ FEW002/// SCT008/// OVC011/// 06/05 Q0967 RERA=
202202210350 METAR ESMX 210350Z AUTO 19019KT 5000 -RA BKN002/// OVC005/// 07/07 Q0967=
202202210320 METAR ESMX 210320Z AUTO 16012KT 9999 -RA OVC004/// 07/07 Q0967 REDZ=
202202210250 METAR ESMX 210250Z AUTO 17012KT 140V200 6000 -RA SCT002/// OVC004/// 06/06 Q0968=
202202210220 METAR ESMX 210220Z AUTO 16010KT 9000 -RA OVC004/// 06/06 Q0970=
202202210150 METAR ESMX 210150Z AUTO 15011KT 9000 -RA FEW002/// BKN004/// OVC006/// 06/06 Q0971=
202202210120 METAR ESMX 210120Z AUTO 16009KT 9999 DZ BKN004/// OVC006/// 06/06 Q0972 REDZ=
202202210050 METAR ESMX 210050Z AUTO 17010KT 9999 -DZ OVC003/// 06/06 Q0974=
202202210020 METAR ESMX 210020Z AUTO 15010KT 9999 -RA OVC002/// 05/05 Q0975=
202202202350 METAR ESMX 202350Z AUTO 15009KT 4700 -RA OVC002/// 04/04 Q0976=
202202202320 METAR ESMX 202320Z AUTO 15007KT 2500 -RA OVC001/// 03/03 Q0977=
202202202250 METAR ESMX 202250Z AUTO 14009KT 0750 R01/P2000N R19/P2000N FG OVC001/// 02/02 Q0978 RERA=
202202202220 METAR ESMX 202220Z AUTO 15010KT 130V190 1300 R01/P2000N R19/P2000N -RA OVC002/// 02/02 Q0979=
202202202150 METAR ESMX 202150Z AUTO 14008KT 110V170 2100 -DZ OVC001/// 02/02 Q0980 REDZ=
202202202120 METAR ESMX 202120Z AUTO 14009KT 2300 DZ OVC002/// 01/01 Q0981=
202202202050 METAR ESMX 202050Z AUTO 14009KT 3500 -DZ OVC002/// 01/01 Q0982 REUP RESHUP=
202202202020 METAR ESMX 202020Z AUTO 16008KT 4700 UP OVC002/// 01/01 Q0983 REFZRA REUP RESHUP=
202202201950 METAR ESMX 201950Z AUTO 14009KT 100V170 4200 -DZ BKN002/// OVC004/// 01/01 Q0984=
202202201920 METAR ESMX 201920Z 16009KT 120V190 5000 -RASN OVC003 01/01 Q0985=
202202201850 METAR ESMX 201850Z 14009KT 110V170 3500 -SN BKN003 01/01 Q0986=
202202201820 METAR ESMX 201820Z 14007KT 100V160 2500 -SN BR BKN003 01/01 Q0987=
202202201750 METAR ESMX 201750Z 13007KT 100V160 3000 -SN BKN003 01/00 Q0988=
202202201720 METAR ESMX 201720Z AUTO 14006KT 110V170 3900 -SN BKN001/// BKN019/// OVC027/// 00/00 Q0989=
202202201650 METAR ESMX 201650Z AUTO 15011KT 4900 -PL ///031 01/M01 Q0990 REUP=
202202201620 METAR ESMX 201620Z AUTO 15009KT 120V200 9999 -RA ///035 02/M03 Q0990=
202202201550 METAR ESMX 201550Z AUTO 16007KT 9999 SCT057/// BKN072/// 02/M03 Q0991=
202202201520 METAR ESMX 201520Z AUTO 15007KT 9999 OVC078/// 02/M02 Q0992=
202202201450 METAR ESMX 201450Z AUTO 17007KT 9999 BKN090/// 02/M02 Q0993=
202202201420 METAR ESMX 201420Z AUTO 17007KT 9999 BKN098/// 02/M01 Q0994=
202202201350 METAR ESMX 201350Z AUTO 20009KT 9999 BKN098/// 03/M01 Q0995=
202202201320 METAR ESMX 201320Z AUTO 21011KT 9999 FEW130/// 03/M02 Q0995=
202202201250 METAR ESMX 201250Z AUTO 22012KT 9999 SCT022/// 03/M01 Q0996=
202202201220 METAR ESMX 201220Z AUTO 20011KT 9999 SCT021/// 03/M01 Q0996=
202202201150 METAR ESMX 201150Z AUTO 21010KT 9999 FEW020/// 03/M01 Q0996=
202202201120 METAR ESMX 201120Z AUTO 21009KT 9999 FEW020/// 03/M01 Q0997=
202202201050 METAR ESMX 201050Z 23008KT 9999 SCT018 03/00 Q0997=
202202201020 METAR ESMX 201020Z 22007KT 9999 SCT015 02/M00 Q0997=
202202200950 METAR ESMX 200950Z 24007KT 9999 SCT014 02/00 Q0998=
202202200920 METAR ESMX 200920Z 25006KT 9999 FEW013 02/M00 Q0998=
202202200850 METAR ESMX 200850Z 25006KT 9999 FEW009 01/M00 Q0998=
202202200820 METAR ESMX 200820Z 26005KT 9999 SCT008 01/M00 Q0997=
202202200750 METAR ESMX 200750Z 27006KT 240V300 9999 BKN009 00/M00 Q0997=
202202200720 METAR ESMX 200720Z 26007KT 9999 BKN011 00/M00 Q0997=
202202200650 METAR COR ESMX 200650Z 27007KT 9999 FEW008 BKN011 01/M00 Q0996=
202202200620 METAR ESMX 200620Z AUTO 27006KT 240V310 9999 FEW007/// BKN010/// BKN014/// 01/01 Q0996=
202202200550 METAR ESMX 200550Z AUTO 27007KT 9999 FEW001/// SCT018/// 01/01 Q0995=
202202200520 METAR ESMX 200520Z AUTO 26006KT 2000 -SN VV009 01/01 Q0995 RESHUP RERA=
202202200450 METAR ESMX 200450Z AUTO 24007KT 9999 BKN005/// OVC007/// 01/01 Q0995 RESN=
202202200420 METAR ESMX 200420Z AUTO 22008KT 9999 FEW004/// BKN008/// OVC034/// 01/01 Q0995=
202202200350 METAR ESMX 200350Z AUTO 22008KT 4100 -RA BKN005/// OVC009/// 01/01 Q0995=
202202200320 METAR ESMX 200320Z AUTO 23008KT 6000 BR FEW005/// OVC008/// 01/01 Q0995 RESHUP REUP=
202202200250 METAR ESMX 200250Z AUTO 23010KT 9999 OVC008/// 02/01 Q0995=
202202200220 METAR ESMX 200220Z AUTO 24010KT 9999 OVC009/// 02/01 Q0995=
202202200150 METAR ESMX 200150Z AUTO 24010KT 9999 SCT005/// OVC010/// 01/01 Q0995=
202202200120 METAR ESMX 200120Z AUTO 22010KT 7000 -RA BKN005/// OVC007/// 01/01 Q0995=
202202200050 METAR ESMX 200050Z AUTO 21012KT 9999 -RA OVC006/// 01/01 Q0995=
202202200020 METAR ESMX 200020Z 20011KT 7000 -RASN BKN004 01/01 Q0995=
202202192350 METAR ESMX 192350Z 20011KT 5000 -SNRA SCT003 BKN006 01/01 Q0995=
202202192320 METAR ESMX 192320Z 22010KT 9000 -RA SCT005 BKN009 01/01 Q0995=
202202192250 METAR ESMX 192250Z AUTO 20012KT 6000 -RA BKN004/// OVC016/// 01/01 Q0996=
202202192220 METAR ESMX 192220Z AUTO 19011KT 9000 -RA FEW003/// BKN005/// OVC008/// 01/01 Q0996=
202202192150 METAR ESMX 192150Z AUTO 19011KT 9999 -RA SCT006/// BKN008/// BKN009/// 01/01 Q0996 RESHUP=
202202192120 METAR ESMX 192120Z AUTO 19011KT 9999 FEW002/// OVC005/// 01/01 Q0996 RESHRA=
202202192050 METAR ESMX 192050Z AUTO 19013KT 6000 -RA BKN005/// OVC008/// 02/01 Q0996=
202202192020 METAR ESMX 192020Z AUTO 20011KT 9999 -DZ FEW004/// BKN008/// OVC012/// 02/01 Q0997 REUP=
202202191950 METAR ESMX 191950Z AUTO 21012KT 9999 OVC008/// 02/01 Q0997=
202202191920 METAR ESMX 191920Z AUTO 22010KT 9999 OVC010/// 02/01 Q0997=
202202191850 METAR ESMX 191850Z AUTO 21010KT 9999 SCT011/// BKN016/// OVC024/// 02/01 Q0997=
202202191820 METAR ESMX 191820Z AUTO 23009KT 9999 SCT013/// BKN018/// BKN044/// 02/01 Q0997 REUP=
202202191750 METAR ESMX 191750Z AUTO 22009KT 9999 FEW007/// SCT019/// BKN057/// 02/01 Q0997=
202202191720 METAR ESMX 191720Z AUTO 22007KT 9999 FEW022/// 02/00 Q0997=
202202191650 METAR ESMX 191650Z AUTO 23007KT 9999 NCD 02/M00 Q0997=
202202191620 METAR ESMX 191620Z AUTO 23007KT 200V260 9999 NCD 02/M00 Q0996=
202202191550 METAR ESMX 191550Z AUTO 25008KT 9999 NCD 03/M01 Q0996=
202202191520 METAR ESMX 191520Z AUTO 25007KT 9999 NCD 03/M01 Q0996=
202202191450 METAR ESMX 191450Z AUTO 26010KT 9999 NCD 04/M01 Q0995=
202202191420 METAR ESMX 191420Z AUTO 27010KT 230V300 9999 FEW028/// 04/00 Q0995=
202202191350 METAR ESMX 191350Z AUTO 27012KT 240V310 9999 SCT018/// BKN024/// 04/00 Q0994=
202202191320 METAR ESMX 191320Z AUTO 27012KT 9999 SCT020/// 03/00 Q0994=
202202191250 METAR ESMX 191250Z AUTO 27013KT 240V300 9999 SCT016/// BKN022/// 03/00 Q0993=
202202191220 METAR ESMX 191220Z AUTO 28013KT 9999 SCT015/// BKN019/// 02/00 Q0993=
202202191150 METAR ESMX 191150Z AUTO 28012KT 9999 BKN009/// OVC011/// 02/00 Q0992=
202202191120 METAR ESMX 191120Z AUTO 28012KT 9000 -SN BKN011/// BKN022/// OVC025/// 02/01 Q0991 REUP=
202202191050 METAR ESMX 191050Z AUTO 29012KT 260V330 9999 OVC011/// 02/00 Q0990=
202202191020 METAR ESMX 191020Z AUTO 30014KT 9999 OVC011/// 02/01 Q0988=
202202190950 METAR ESMX 190950Z AUTO 29012KT 9999 OVC010/// 02/01 Q0987=
202202190920 METAR ESMX 190920Z AUTO 30012KT 9000 BR SCT007/// BKN010/// OVC015/// 01/01 Q0985 RESHUP RESN=
202202190850 METAR ESMX 190850Z AUTO 31010KT 9999 FEW005/// SCT012/// BKN015/// 01/01 Q0984 RESHUP RESN=
202202190820 METAR ESMX 190820Z AUTO 31011KT 9999 BKN009/// BKN012/// OVC027/// 01/01 Q0982 RESN=
202202190750 METAR ESMX 190750Z AUTO 31010KT 9999 BKN009/// OVC062/// 01/01 Q0980=
202202190720 METAR ESMX 190720Z AUTO 33009KT 9999 -SN BKN007/// BKN028/// OVC036/// 01/01 Q0978=
202202190650 METAR ESMX 190650Z AUTO 30008KT 9999 -RA FEW002/// BKN007/// BKN009/// 01/01 Q0977=
202202190620 METAR ESMX 190620Z AUTO 27005KT 2600 -SN BKN002/// BKN011/// OVC014/// 01/01 Q0976=
202202190550 METAR ESMX 190550Z AUTO 25006KT 4000 RASN OVC002/// 01/01 Q0974=
202202190520 METAR ESMX 190520Z AUTO 23007KT 2600 -RA OVC002/// 01/01 Q0974 RESHUP REUP=
202202190450 METAR ESMX 190450Z AUTO 23008KT 7000 BR OVC003/// 01/01 Q0973=
202202190420 METAR ESMX 190420Z AUTO 22007KT 7000 BR OVC004/// 02/02 Q0973 REUP RESHUP=
202202190350 METAR ESMX 190350Z AUTO 23008KT 9999 UP OVC002/// 01/01 Q0972 REDZ=
202202190320 METAR ESMX 190320Z AUTO 20006KT 4000 BR OVC002/// 01/01 Q0972=
202202190250 METAR ESMX 190250Z AUTO 22008KT 2200 DZ OVC001/// 01/01 Q0972 REDZ=
202202190220 METAR ESMX 190220Z AUTO 23006KT 3300 -RA OVC002/// 01/01 Q0972 REDZ REUP=
202202190150 METAR ESMX 190150Z AUTO 24007KT 8000 BR OVC002/// 01/01 Q0972=
202202190120 METAR ESMX 190120Z AUTO 23007KT 9999 OVC003/// 01/01 Q0971 REFZRA=
202202190050 METAR ESMX 190050Z AUTO 22007KT 5000 BR OVC002/// 01/01 Q0971=
202202190020 METAR ESMX 190020Z AUTO 22007KT 9000 BR OVC003/// 01/01 Q0971=
202202182350 METAR ESMX 182350Z AUTO 21006KT 5000 UP OVC002/// 01/01 Q0971=
202202182320 METAR ESMX 182320Z AUTO 16005KT 9000 -DZ OVC002/// 01/01 Q0971 REUP=
202202182250 METAR ESMX 182250Z AUTO 16005KT 9999 OVC003/// 01/01 Q0971=
202202182220 METAR ESMX 182220Z AUTO 16006KT 9999 OVC003/// 01/01 Q0971 RESHUP=
202202182150 METAR ESMX 182150Z AUTO 16005KT 9999 UP OVC004/// 01/01 Q0972 RESN=
202202182120 METAR ESMX 182120Z AUTO 15007KT 9999 UP SCT001/// OVC004/// 00/00 Q0973=
202202182050 METAR ESMX 182050Z AUTO 15008KT 110V170 1800 -SN SCT001/// OVC006/// 00/00 Q0974 REUP=
202202182020 METAR ESMX 182020Z AUTO 16006KT 110V210 8000 -SN SCT001/// BKN005/// OVC007/// 00/00 Q0975 RESN=
202202181950 METAR ESMX 181950Z AUTO 13008KT 080V160 0500 R01/1500U R19/1400U SN OVC001/// 00/00 Q0975=
202202181920 METAR ESMX 181920Z AUTO 12007KT 080V180 0650 R01/1700D R19/1600N SN OVC001/// 00/00 Q0978=
202202181850 METAR ESMX 181850Z AUTO 12007KT 070V160 1100 R01/P2000N R19/P2000N -SN OVC001/// 00/00 Q0979=
202202181820 METAR ESMX 181820Z AUTO 13007KT 090V160 1100 R01/P2000N R19/P2000N -SN OVC001/// 01/01 Q0981=
202202181750 METAR ESMX 181750Z AUTO 15007G18KT 110V170 2000 -SN BKN001/// OVC016/// 01/01 Q0982=
202202181720 METAR ESMX 181720Z AUTO 14008KT 2500 -SN FEW001/// SCT016/// BKN028/// 01/01 Q0984 RERASN RERA REUP=
202202181650 METAR ESMX 181650Z AUTO 15009KT 110V180 9999 ///034 03/M00 Q0986=
202202181620 METAR COR ESMX 181620Z 17009KT FEW027 03/M00 Q0987=
202202181550 METAR ESMX 181550Z 15007KT 9999 FEW027 03/M01 Q0987=
202202181520 METAR ESMX 181520Z 17007KT 9999 FEW025 03/M01 Q0989=
202202181450 METAR ESMX 181450Z 20009KT 9999 SCT024 03/M00 Q0989=
202202181420 METAR ESMX 181420Z 20010KT 9999 BKN024 04/00 Q0990=
202202181350 METAR ESMX 181350Z 23010KT 9999 BKN024 04/00 Q0991=
202202181320 METAR ESMX 181320Z 23009KT 200V260 9999 BKN023 04/01 Q0991=
202202181250 METAR ESMX 181250Z 23009KT 190V250 9999 SCT018 BKN025 04/01 Q0991=
202202181220 METAR ESMX 181220Z 23011KT 200V260 9999 SCT013 BKN016 04/02 Q0992=
202202181150 METAR ESMX 181150Z 23012KT 9000 BKN012 03/02 Q0993 RESHRA=
202202181120 METAR ESMX 181120Z 24014KT 200V270 9999 -RA BKN014 04/02 Q0993=
202202181050 METAR ESMX 181050Z 26015KT 9999 -RA BKN016 05/02 Q0992=
202202181020 METAR ESMX 181020Z 26016KT 9999 -RA SCT017 BKN031 04/02 Q0993=
202202180950 METAR ESMX 180950Z 25016KT 9999 BKN022 04/01 Q0993=
202202180920 METAR ESMX 180920Z 25016KT 9999 BKN024 04/01 Q0992=
202202180850 METAR ESMX 180850Z 23013G24KT 200V260 9999 BKN021 04/01 Q0992=
202202180820 METAR ESMX 180820Z 25014G28KT 220V280 9999 SCT020 04/01 Q0992=
202202180750 METAR ESMX 180750Z 25014KT 9999 BKN021 04/01 Q0992=
202202180720 METAR ESMX 180720Z 26014KT 9999 BKN022 04/00 Q0992=
202202180650 METAR ESMX 180650Z AUTO 26016KT 9999 OVC023/// 04/00 Q0991=
202202180620 METAR ESMX 180620Z AUTO 26014KT 9999 OVC024/// 04/00 Q0991=
202202180550 METAR ESMX 180550Z AUTO 26015G26KT 9999 OVC024/// 04/00 Q0991=
202202180520 METAR ESMX 180520Z AUTO 25012KT 9999 BKN024/// OVC033/// 04/00 Q0990=
202202180450 METAR ESMX 180450Z AUTO 26013G25KT 9999 BKN025/// OVC036/// 04/00 Q0990=
202202180420 METAR ESMX 180420Z AUTO 26011KT 9999 BKN022/// OVC031/// 04/01 Q0990=
202202180350 METAR ESMX 180350Z AUTO 26016KT 9999 SCT024/// OVC035/// 04/01 Q0989=
202202180320 METAR ESMX 180320Z AUTO 26014KT 9999 BKN023/// OVC031/// 04/01 Q0989=
202202180250 METAR ESMX 180250Z AUTO 26011KT 9999 -RA BKN023/// OVC031/// 03/01 Q0989 REDZ=
202202180220 METAR ESMX 180220Z AUTO 25010KT 9999 -DZ SCT024/// BKN036/// OVC047/// 03/01 Q0989=
202202180150 METAR ESMX 180150Z 25011KT 6000 RA SCT016 BKN023 02/02 Q0988=
202202180120 METAR ESMX 180120Z 25010KT 9999 SCT025 03/01 Q0988=
202202180050 METAR ESMX 180050Z 25010KT CAVOK 03/01 Q0988=
202202180020 METAR ESMX 180020Z 25012G22KT 9999 FEW019 02/01 Q0987=
202202172350 METAR ESMX 172350Z AUTO 25011KT 9999 BKN024/// 03/01 Q0987=
202202172320 METAR ESMX 172320Z AUTO 25012KT 9999 FEW027/// SCT051/// 03/01 Q0987 RESHUP REDZ=
202202172250 METAR ESMX 172250Z AUTO 25010KT 9999 FEW028/// SCT045/// 03/01 Q0986 REUP=
202202172220 METAR ESMX 172220Z AUTO 26011KT 220V290 9999 FEW061/// 03/01 Q0986=
202202172150 METAR ESMX 172150Z AUTO 23009KT 9999 BKN019/// BKN051/// 02/01 Q0986=
202202172120 METAR ESMX 172120Z AUTO 25011KT 230V290 9000 BR FEW016/// BKN053/// 03/01 Q0985 REUP RESHUP=
202202172050 METAR ESMX 172050Z AUTO 25010KT 220V290 9999 SCT017/// 02/01 Q0985=
202202172020 METAR ESMX 172020Z AUTO 25010KT 9999 SCT017/// BKN045/// 02/01 Q0984=
202202171950 METAR ESMX 171950Z AUTO 25010KT 9999 FEW007/// SCT018/// BKN051/// 03/01 Q0984=
202202171920 METAR ESMX 171920Z AUTO 26011KT 9999 -RA FEW007/// BKN018/// BKN032/// 03/01 Q0984 REUP RESHUP=
202202171850 METAR ESMX 171850Z AUTO 26012KT 9999 BKN030/// OVC037/// 03/01 Q0984=
202202171820 METAR ESMX 171820Z AUTO 26010KT 230V290 9999 SCT019/// OVC028/// 03/00 Q0983=
202202171750 METAR ESMX 171750Z AUTO 26012KT 9999 BKN021/// 03/01 Q0983=
202202171720 METAR ESMX 171720Z AUTO 26013KT 220V280 9999 BKN016/// 03/01 Q0982=
202202171650 METAR ESMX 171650Z AUTO 26011KT 9999 SCT013/// BKN017/// OVC023/// 03/02 Q0982=
202202171620 METAR ESMX 171620Z AUTO 25010KT 9999 OVC012/// 03/02 Q0981=
202202171550 METAR ESMX 171550Z AUTO 25010KT 9999 -RA BKN008/// OVC010/// 03/02 Q0981=
202202171520 METAR ESMX 171520Z AUTO 23010G22KT 9999 FEW006/// BKN011/// OVC024/// 02/02 Q0981 REDZ=
202202171450 METAR ESMX 171450Z 24009KT 9999 -RA BKN020 03/00 Q0981=
202202171420 METAR ESMX 171420Z 27009KT 9999 BKN023 03/M00 Q0981=
202202171350 METAR ESMX 171350Z 26010KT 9999 SCT026 BKN037 03/M00 Q0980=
202202171320 METAR ESMX 171320Z 28011G21KT 250V320 9999 BKN021 03/M01 Q0980=
202202171250 METAR ESMX 171250Z 28010KT 240V320 9999 SCT019 03/M00 Q0979=
202202171220 METAR ESMX 171220Z 30015KT 9999 BKN016 03/00 Q0979=
202202171150 METAR ESMX 171150Z 30011KT 260V330 9999 BKN014 03/01 Q0978=
202202171120 METAR ESMX 171120Z 31012KT 9999 BKN011 02/01 Q0977=
202202171050 METAR ESMX 171050Z 30013KT 9999 BKN011 02/01 Q0976=
202202171020 METAR ESMX 171020Z 31013KT 9999 BKN011 02/01 Q0975=
202202170950 METAR ESMX 170950Z 31014KT 9999 BKN009 02/01 Q0974=
202202170920 METAR ESMX 170920Z 30010KT 9999 SCT010 BKN012 01/01 Q0973=
202202170850 METAR ESMX 170850Z 31010KT 9999 BKN011 01/01 Q0971=
202202170820 METAR ESMX 170820Z 31009KT 9999 BKN011 01/01 Q0971=
202202170750 METAR ESMX 170750Z 31010KT 9999 SCT009 BKN014 01/01 Q0969=
202202170720 METAR ESMX 170720Z 33009KT 9999 -SN FEW002 BKN009 01/01 Q0968=
202202170650 METAR ESMX 170650Z AUTO 31008KT 4100 -SN FEW001/// SCT008/// BKN016/// 01/01 Q0967=
202202170620 METAR ESMX 170620Z AUTO 31008KT 2300 -SN VV018 01/01 Q0966=
202202170550 METAR ESMX 170550Z AUTO 30008KT 5000 -SN FEW006/// SCT008/// BKN014/// 01/01 Q0965=
202202170520 METAR ESMX 170520Z AUTO 31009KT 2100 -SN BKN005/// OVC012/// 01/01 Q0964=
202202170450 METAR ESMX 170450Z AUTO 34011KT 5000 -RA BKN005/// OVC024/// 01/01 Q0963 RERA=
202202170420 METAR ESMX 170420Z AUTO 34010KT 6000 -RA OVC003/// 02/02 Q0961 REDZ=
202202170350 METAR ESMX 170350Z AUTO 24006KT 2100 DZ BKN002/// OVC004/// 05/05 Q0960 RESHUP REDZ=
202202170320 METAR ESMX 170320Z AUTO 22009KT 3800 BR SCT002/// BKN005/// OVC008/// 05/05 Q0960=
202202170250 METAR ESMX 170250Z AUTO 23008KT 9000 BR FEW006/// SCT017/// BKN023/// 05/05 Q0960=
202202170220 METAR ESMX 170220Z AUTO 20012KT 9999 -RA SCT005/// BKN007/// BKN009/// 06/05 Q0960 REDZ=
202202170150 METAR ESMX 170150Z 15005KT 9000 RA SCT002 BKN004 05/05 Q0961=
202202170120 METAR ESMX 170120Z 09004KT 050V120 6000 RA FEW006 OVC018 05/05 Q0963=
202202170050 METAR ESMX 170050Z 11003KT 070V150 9999 -RA FEW011 SCT017 OVC035 05/05 Q0964=
202202170020 METAR ESMX 170020Z AUTO 18008KT 6000 -RA ///035 05/05 Q0965=
202202162350 METAR COR ESMX 162350Z 18004KT 8000 RA FEW009 OVC012 05/05 Q0966=
202202162320 METAR ESMX 162320Z AUTO 18007KT 7000 -RA SCT006/// BKN013/// BKN027/// 05/05 Q0968=
202202162250 METAR ESMX 162250Z AUTO 19009KT 7000 DZ OVC005/// 05/05 Q0969 REDZ=
202202162220 METAR ESMX 162220Z AUTO 22010KT 9999 FEW001/// SCT005/// OVC008/// 05/05 Q0969 REDZ=
202202162150 METAR ESMX 162150Z AUTO 22009KT 6000 -DZ SCT006/// OVC009/// 05/05 Q0970 RESHUP RERA=
202202162120 METAR ESMX 162120Z AUTO 22007KT 9999 FEW004/// SCT006/// OVC009/// 04/04 Q0971=
202202162050 METAR ESMX 162050Z AUTO 16005KT 2200 -RA BKN001/// OVC006/// 02/02 Q0972 REDZ=
202202162020 METAR ESMX 162020Z AUTO 13003KT 3300 DZ VV006 02/02 Q0972=
202202161950 METAR ESMX 161950Z AUTO 19003KT 2200 DZ BKN002/// OVC004/// 01/01 Q0973 REDZ=
202202161920 METAR ESMX 161920Z AUTO 28002KT 1300 R01/P2000N R19/P2000N -DZ OVC001/// 01/01 Q0973 RESHUP REDZ=
202202161850 METAR ESMX 161850Z AUTO 00000KT 3500 BR OVC001/// 01/01 Q0973 REDZ=
202202161820 METAR ESMX 161820Z AUTO VRB01KT 2800 DZ BKN003/// BKN008/// OVC010/// 01/01 Q0974=
202202161750 METAR ESMX 161750Z AUTO 06003KT 020V160 4600 -RA BKN003/// OVC005/// 01/01 Q0974=
202202161720 METAR ESMX 161720Z AUTO VRB03KT 3400 -SN BKN003/// OVC005/// 01/01 Q0975=
202202161650 METAR ESMX 161650Z 09003KT 030V110 3100 -SN BR BKN002 OVC004 01/01 Q0976=
202202161620 METAR ESMX 161620Z 10004KT 050V140 3100 -SN OVC003 01/01 Q0977=
202202161550 METAR ESMX 161550Z 11005KT 060V140 6000 RASN OVC004 01/01 Q0978=
202202161520 METAR ESMX 161520Z 12006KT 080V160 7000 -RA OVC005 02/02 Q0980=
202202161450 METAR ESMX 161450Z 13005KT 090V160 7000 -RA BKN006 02/02 Q0981=
202202161420 METAR ESMX 161420Z 13007KT 090V170 8000 -RA BR BKN006 02/02 Q0982=
202202161350 METAR ESMX 161350Z 15007KT 7000 -RA BR BKN007 03/03 Q0983=
202202161320 METAR ESMX 161320Z 16007KT 9000 DZ BKN006 04/03 Q0985=
202202161250 METAR ESMX 161250Z 15006KT 100V170 9999 BKN006 04/03 Q0986=
202202161220 METAR ESMX 161220Z 15007KT 120V190 9999 DZ BKN007 03/03 Q0987=
202202161150 METAR ESMX 161150Z 15008KT 9999 DZ SCT007 BKN009 OVC027 03/03 Q0988=
202202161120 METAR ESMX 161120Z AUTO 16008KT 9999 -RA SCT010/// BKN032/// OVC049/// 04/03 Q0989 REUP=
202202161050 METAR ESMX 161050Z 17010KT 9999 BKN009 04/03 Q0990=
202202161020 METAR ESMX 161020Z 19010KT 9999 BKN010 04/03 Q0990=
202202160950 METAR ESMX 160950Z 19011KT 9999 BKN009 04/03 Q0991=
202202160920 METAR ESMX 160920Z 19011KT 9999 BKN008 04/03 Q0991=
202202160850 METAR ESMX 160850Z 22010KT 9999 BKN009 03/03 Q0991=
202202160820 METAR ESMX 160820Z 20011KT 9999 BKN008 03/02 Q0992=
202202160750 METAR COR ESMX 160750Z 20012KT 9999 BKN008 03/02 Q0992=
202202160720 METAR ESMX 160720Z 22012KT 9999 SCT007 BKN010 03/02 Q0992=
202202160650 METAR ESMX 160650Z AUTO 20011KT 9999 SCT008/// BKN010/// OVC014/// 03/02 Q0992 RESHUP RERA=
202202160620 METAR ESMX 160620Z AUTO 22009KT 9999 FEW009/// BKN014/// OVC021/// 03/02 Q0992=
202202160550 METAR ESMX 160550Z AUTO 23009KT 9000 SCT009/// BKN014/// BKN022/// 03/02 Q0992=
202202160520 METAR ESMX 160520Z AUTO 20012KT 4000 -RA BKN006/// OVC017/// 02/02 Q0992=
202202160450 METAR ESMX 160450Z AUTO 20011KT 5000 -RA BKN006/// BKN010/// OVC018/// 03/03 Q0992 RESHUP RERA=
202202160420 METAR ESMX 160420Z AUTO 21010KT 9999 OVC006/// 03/02 Q0992 RERA=
202202160350 METAR ESMX 160350Z AUTO 21011KT 9999 OVC005/// 02/02 Q0992=
202202160320 METAR ESMX 160320Z AUTO 19013KT 9999 OVC006/// 02/02 Q0992 REDZ=
202202160250 METAR ESMX 160250Z AUTO 18012KT 9999 -DZ OVC006/// 02/02 Q0993=
202202160220 METAR ESMX 160220Z AUTO 18011KT 7000 -RA OVC006/// 02/02 Q0993=
202202160150 METAR ESMX 160150Z 17013KT 6000 -RADZ BKN007 03/02 Q0993=
202202160120 METAR ESMX 160120Z 16010KT 6000 -RADZ OVC007 03/03 Q0994=
202202160050 METAR ESMX 160050Z 17010KT 7000 -RADZ BKN010 03/03 Q0995=
202202160020 METAR ESMX 160020Z 16010KT 9999 -RA OVC012 04/02 Q0995=
202202152350 METAR COR ESMX 152350Z 16011KT 130V190 9999 -RA BKN013 04/02 Q0996=
202202152320 METAR ESMX 152320Z AUTO 17010KT 9999 OVC012/// 04/02 Q0997=
202202152250 METAR ESMX 152250Z AUTO 17010KT 9999 BKN010/// OVC013/// 03/02 Q0997=
202202152220 METAR ESMX 152220Z AUTO 17010KT 9999 OVC011/// 03/02 Q0998=
202202152150 METAR ESMX 152150Z AUTO 17009KT 9999 BKN012/// OVC016/// 03/02 Q0999=
202202152120 METAR ESMX 152120Z AUTO 17007KT 9999 SCT015/// OVC049/// 03/01 Q0999=
202202152050 METAR ESMX 152050Z AUTO 17009KT 9999 OVC047/// 03/01 Q1000=
202202152020 METAR ESMX 152020Z AUTO 16009KT 9999 OVC042/// 03/01 Q1000=
202202151950 METAR ESMX 151950Z AUTO 16009KT 9999 FEW030/// OVC039/// 03/00 Q1000=
202202151920 METAR ESMX 151920Z AUTO 18008KT 9999 OVC036/// 03/M00 Q1001=
202202151850 METAR ESMX 151850Z AUTO 17008KT 9999 OVC034/// 03/M00 Q1001=
202202151820 METAR ESMX 151820Z AUTO 18009KT 9999 SCT036/// 02/M00 Q1001=
202202151750 METAR ESMX 151750Z AUTO 21007KT 9999 NCD 01/M00 Q1001=
202202151720 METAR ESMX 151720Z AUTO 19007KT 9999 SCT043/// 02/00 Q1001=
202202151650 METAR ESMX 151650Z AUTO 22008KT 9999 FEW046/// 02/00 Q1001=
202202151620 METAR ESMX 151620Z AUTO 22008KT 9999 FEW027/// BKN047/// 03/00 Q1001=
202202151550 METAR ESMX 151550Z AUTO 22010KT 9999 FEW023/// BKN044/// 03/00 Q1001=
202202151520 METAR ESMX 151520Z 22010KT 9999 FEW031 BKN042 04/00 Q1001=
202202151450 METAR ESMX 151450Z 24009KT 9999 FEW033 BKN042 04/M00 Q1001=
202202151420 METAR ESMX 151420Z 23013KT 9999 FEW025 BKN046 04/01 Q1001=
202202151350 METAR ESMX 151350Z 23008KT 210V280 9999 FEW017 BKN024 04/03 Q1000=
202202151320 METAR ESMX 151320Z 22011KT 9999 SCT015 BKN020 04/02 Q1000=
202202151250 METAR ESMX 151250Z AUTO 24011KT 9999 FEW017/// OVC040/// 04/03 Q1000=
202202151220 METAR ESMX 151220Z 24012KT 9999 SCT011 BKN021 04/03 Q1000=
202202151150 METAR ESMX 151150Z 23013KT 9999 FEW012 BKN021 04/04 Q0999=
202202151120 METAR ESMX 151120Z 23013G23KT 200V260 9999 -RA SCT008 BKN013 05/04 Q0999=
202202151050 METAR ESMX 151050Z 23010KT 7000 -RA BKN008 05/04 Q0999=
202202151020 METAR ESMX 151020Z 20011G22KT 8000 -RA FEW005 BKN008 05/05 Q0998=
202202150950 METAR ESMX 150950Z AUTO 22012KT 9999 FEW006/// OVC009/// 05/04 Q0998 RERA=
202202150920 METAR ESMX 150920Z 21012KT 9999 DZ OVC007 05/04 Q0998=
202202150850 METAR ESMX 150850Z 19014KT 9999 BKN006 05/04 Q0997=
202202150820 METAR ESMX 150820Z 18012KT 6000 BR BKN006 04/04 Q0997=
202202150750 METAR ESMX 150750Z 17011KT 7000 -DZ FEW005 BKN007 04/04 Q0997=
202202150720 METAR ESMX 150720Z 17011KT 9999 BKN013 05/03 Q0997=
202202150650 METAR ESMX 150650Z AUTO 17012KT 9999 -RA OVC013/// 04/03 Q0997 REUP=
202202150620 METAR ESMX 150620Z AUTO 17011KT 9999 SCT013/// OVC036/// 04/03 Q0997=
202202150550 METAR ESMX 150550Z AUTO 17010KT 9999 OVC040/// 04/03 Q0997=
202202150520 METAR ESMX 150520Z AUTO 17009KT 9999 OVC039/// 04/03 Q0997=
202202150450 METAR ESMX 150450Z AUTO 16009KT 9999 OVC041/// 04/03 Q0998=
202202150420 METAR ESMX 150420Z AUTO 16009KT 8000 BR FEW042/// 04/03 Q0998=
202202150350 METAR ESMX 150350Z AUTO 17007KT 9999 FEW030/// 04/03 Q0998=
202202150320 METAR ESMX 150320Z AUTO 17008KT 9999 FEW026/// BKN034/// 04/03 Q0998=
202202150250 METAR ESMX 150250Z AUTO 16008KT 9999 FEW021/// OVC034/// 04/03 Q0998=
202202150220 METAR ESMX 150220Z 16008KT 9999 SCT024 04/03 Q0998=
202202150150 METAR ESMX 150150Z 16008KT 9999 SCT037 04/03 Q0999=
202202150120 METAR ESMX 150120Z 16008KT CAVOK 04/03 Q0999=
202202150050 METAR ESMX 150050Z AUTO 16007KT 9999 NCD 03/03 Q0999=
202202150020 METAR ESMX 150020Z AUTO 18007KT 9999 NCD 04/03 Q0999=
202202142350 METAR ESMX 142350Z AUTO 16008KT 9999 NCD 04/03 Q0999=
202202142320 METAR ESMX 142320Z AUTO 16008KT 9999 FEW024/// 04/03 Q0999=
202202142250 METAR ESMX 142250Z AUTO 17006KT 9999 FEW025/// 05/04 Q0999=
202202142220 METAR ESMX 142220Z AUTO 18008KT 9999 NCD 04/04 Q0999=
202202142150 METAR ESMX 142150Z AUTO 19007KT 9999 FEW068/// 04/03 Q0999=
202202142120 METAR ESMX 142120Z AUTO 17007KT 9999 FEW025/// OVC070/// 05/04 Q0999=
202202142050 METAR ESMX 142050Z AUTO 18008KT 9999 OVC068/// 05/04 Q0999=
202202142020 METAR ESMX 142020Z 19009KT 9999 SCT048 05/04 Q0999=
202202141950 METAR ESMX 141950Z 18009KT 9999 FEW032 BKN047 05/03 Q0999=
202202141920 METAR ESMX 141920Z 16009KT 140V200 9999 SCT023 05/03 Q0998=
202202141850 METAR ESMX 141850Z 17010KT 9999 BKN025 05/03 Q0998=
202202141820 METAR ESMX 141820Z 17008KT 9999 FEW024 SCT042 05/03 Q0998=
202202141750 METAR ESMX 141750Z 15009KT 9999 FEW021 SCT031 05/03 Q0998=
202202141720 METAR ESMX 141720Z 15008KT 9999 SCT022 05/03 Q0998=
202202141650 METAR ESMX 141650Z 15007KT 9999 SCT026 05/03 Q0998=
202202141620 METAR ESMX 141620Z 16008KT 9999 FEW006 BKN024 06/03 Q0997=
202202141550 METAR ESMX 141550Z 17009KT 9999 BKN028 06/03 Q0997=
202202141520 METAR ESMX 141520Z 16009KT 140V200 9999 SCT049 BKN066 06/02 Q0997=
202202141450 METAR ESMX 141450Z 17008KT CAVOK 07/03 Q0997=
202202141420 METAR ESMX 141420Z 17008KT CAVOK 07/03 Q0997=
202202141350 METAR ESMX 141350Z 18008KT 9999 FEW043 SCT055 BKN084 07/03 Q0997=
202202141320 METAR ESMX 141320Z 18009KT 9999 FEW037 07/03 Q0997=
202202141250 METAR ESMX 141250Z 18009KT 9999 FEW037 SCT051 07/03 Q0997=
202202141220 METAR ESMX 141220Z 17009KT 9999 SCT037 BKN051 07/02 Q0997=
202202141150 METAR ESMX 141150Z 18010KT 9999 BKN037 06/02 Q0997=
202202141120 METAR ESMX 141120Z 18010KT 9999 FEW031 BKN042 06/02 Q0997=
202202141050 METAR ESMX 141050Z 19010KT 9999 SCT023 BKN031 05/02 Q0998=
202202141020 METAR ESMX 141020Z 18011KT 9999 BKN043 BKN055 05/02 Q0997=
202202140950 METAR ESMX 140950Z 18011KT 9999 BKN034 05/02 Q0997=
202202140920 METAR ESMX 140920Z 17011KT 9999 SCT035 04/02 Q0998=
202202140850 METAR ESMX 140850Z 17011KT 9999 BKN034 04/02 Q0998=
202202140820 METAR ESMX 140820Z 17011KT 9999 BKN032 04/01 Q0998=
202202140750 METAR ESMX 140750Z 18010KT 9999 BKN030 03/01 Q0998=
202202140720 METAR ESMX 140720Z 16010KT 9999 SCT029 BKN120 03/01 Q0998=
202202140650 METAR ESMX 140650Z 17010KT 9999 SCT037 BKN120 02/01 Q0998=
202202140620 METAR ESMX 140620Z 18010KT 9999 BKN029 BKN035 02/01 Q0998=
202202140550 METAR ESMX 140550Z AUTO 16009KT 9999 BKN027/// 02/01 Q0998=
202202140520 METAR ESMX 140520Z AUTO 17008KT 9999 FEW047/// 02/00 Q0998=
202202140450 METAR ESMX 140450Z AUTO 16008KT 9999 OVC045/// 02/00 Q0998=
202202140420 METAR ESMX 140420Z AUTO 16008KT 9999 SCT053/// 02/M00 Q0999=
202202140350 METAR ESMX 140350Z AUTO 16008KT 9999 SCT055/// 02/M00 Q0999=
202202140320 METAR ESMX 140320Z AUTO 16007KT 9999 BKN055/// 01/M01 Q0999=
202202140250 METAR ESMX 140250Z AUTO 17006KT 9999 NCD 01/M01 Q1000=
202202140220 METAR ESMX 140220Z AUTO 17007KT 9999 NCD 01/M02 Q1000=
202202140150 METAR ESMX 140150Z AUTO 16007KT 9999 NCD 01/M02 Q1000=
202202140120 METAR ESMX 140120Z AUTO 15008KT 9999 NCD 01/M02 Q1001=
202202140050 METAR ESMX 140050Z AUTO 17006KT 9999 NCD 01/M02 Q1002=
202202140020 METAR ESMX 140020Z AUTO 17006KT 9999 NCD 02/M02 Q1002=
202202132350 METAR ESMX 132350Z AUTO 18008KT 9999 NCD 02/M02 Q1002=
202202132320 METAR ESMX 132320Z AUTO 18007KT 9999 NCD 02/M01 Q1003=
202202132250 METAR ESMX 132250Z AUTO 18007KT 9999 BKN028/// 02/M01 Q1003=
202202132220 METAR ESMX 132220Z AUTO 18008KT 9999 OVC024/// 02/M01 Q1003=
202202132150 METAR ESMX 132150Z AUTO 18007KT 9999 OVC023/// 02/M01 Q1004=
202202132120 METAR ESMX 132120Z AUTO 18006KT 9999 OVC020/// 02/M00 Q1004=
202202132050 METAR ESMX 132050Z AUTO 20008KT 9999 SCT008/// OVC019/// 01/01 Q1004=
202202132020 METAR ESMX 132020Z AUTO 19010KT 9999 FEW005/// OVC008/// 01/01 Q1004=
202202131950 METAR ESMX 131950Z AUTO 19009KT 6000 BR BKN005/// OVC009/// 01/01 Q1004 REUP REDZ=
202202131920 METAR ESMX 131920Z 19011KT 6000 BR BKN005 BKN008 OVC010 02/01 Q1005=
202202131850 METAR ESMX 131850Z 19009KT 9999 FEW006 BKN010 02/00 Q1005=
202202131820 METAR ESMX 131820Z 19012KT 9999 BKN011 02/00 Q1005=
202202131750 METAR ESMX 131750Z 20011KT 9999 BKN013 02/M00 Q1005=
202202131720 METAR ESMX 131720Z 20010KT 9999 BKN017 03/M00 Q1005=
202202131650 METAR ESMX 131650Z AUTO 20013KT 9999 OVC018/// 03/M00 Q1005=
202202131620 METAR ESMX 131620Z AUTO 19013KT 9999 OVC017/// 03/M00 Q1005=
202202131550 METAR ESMX 131550Z AUTO 19011KT 9999 FEW010/// BKN015/// OVC019/// 03/M00 Q1005=
202202131520 METAR ESMX 131520Z AUTO 20010KT 9999 OVC018/// 04/M00 Q1005=
202202131450 METAR ESMX 131450Z AUTO 20009KT 9999 OVC019/// 03/01 Q1005 RESHUP REUP=
202202131420 METAR ESMX 131420Z AUTO 20008KT 9999 OVC017/// 03/01 Q1006=
202202131350 METAR ESMX 131350Z AUTO 19007KT 9999 OVC014/// 02/01 Q1006=
202202131320 METAR ESMX 131320Z AUTO 20010KT 7000 FEW002/// BKN004/// OVC011/// 02/01 Q1006 REUP RESHUP=
202202131250 METAR ESMX 131250Z AUTO 19012KT 5000 BR SCT005/// OVC009/// 02/01 Q1006=
202202131220 METAR ESMX 131220Z AUTO 19012KT 9999 OVC011/// 02/M00 Q1007=
202202131150 METAR ESMX 131150Z AUTO 19012KT 9999 FEW005/// OVC010/// 02/M00 Q1007=
202202131120 METAR ESMX 131120Z AUTO 19012KT 9999 OVC008/// 01/M00 Q1007=
202202131050 METAR ESMX 131050Z AUTO 19014KT 9999 BKN009/// OVC011/// 01/M00 Q1008=
202202131020 METAR ESMX 131020Z AUTO 20013KT 9999 OVC011/// 02/M00 Q1008=
202202130950 METAR ESMX 130950Z AUTO 19014KT 9999 SCT008/// OVC011/// 01/M01 Q1008=
202202130920 METAR ESMX 130920Z AUTO 21011KT 9999 FEW007/// OVC011/// 01/M01 Q1008=
202202130850 METAR ESMX 130850Z AUTO 19012KT 9999 FEW009/// OVC013/// 01/M01 Q1008=
202202130820 METAR ESMX 130820Z 19014KT 9999 BKN014 BKN020 01/M01 Q1008=
202202130750 METAR ESMX 130750Z 20013KT 9999 BKN017 01/M01 Q1008 RESHSN=
202202130720 METAR ESMX 130720Z 21013KT 9999 UP FEW016 BKN020 BKN040 01/M01 Q1009=
202202130650 METAR ESMX 130650Z 20013KT 9999 FEW017 SCT022 BKN055 01/M01 Q1009=
202202130620 METAR ESMX 130620Z AUTO 19013KT 9999 OVC059/// 00/M02 Q1009=
202202130550 METAR ESMX 130550Z AUTO 19014KT 9999 BKN070/// OVC088/// 00/M02 Q1009=
202202130520 METAR ESMX 130520Z AUTO 19013KT 9999 OVC096/// 00/M02 Q1009=
202202130450 METAR ESMX 130450Z AUTO 19011KT 9999 BKN110/// M00/M02 Q1010=
202202130420 METAR ESMX 130420Z AUTO 19013KT 9999 BKN110/// 00/M02 Q1010=
202202130350 METAR ESMX 130350Z AUTO 18013KT 9999 BKN098/// 00/M02 Q1010=
202202130320 METAR ESMX 130320Z AUTO 19013KT 9999 FEW130/// M00/M02 Q1011=
202202130250 METAR ESMX 130250Z AUTO 19012KT 9999 NCD M00/M02 Q1011=
202202130220 METAR ESMX 130220Z AUTO 18013KT 9999 NCD M00/M02 Q1011=
202202130150 METAR ESMX 130150Z AUTO 18011KT 9999 NCD M00/M02 Q1012=
202202130120 METAR ESMX 130120Z AUTO 18012KT 9999 NCD M00/M02 Q1013=
202202130050 METAR ESMX 130050Z AUTO 19013KT 9999 NCD M00/M02 Q1013=
202202130020 METAR ESMX 130020Z 18014KT CAVOK M00/M02 Q1014=
202202122350 METAR ESMX 122350Z 19012KT CAVOK M00/M02 Q1014=
202202122320 METAR ESMX 122320Z 18012KT CAVOK M00/M02 Q1015=
202202122250 METAR ESMX 122250Z 18013KT CAVOK M00/M02 Q1015=
202202122220 METAR ESMX 122220Z AUTO 19014KT 9999 NCD M00/M03 Q1016=
202202122150 METAR ESMX 122150Z AUTO 19014KT 9999 NCD M00/M02 Q1016=
202202122120 METAR ESMX 122120Z AUTO 19014KT 9999 NCD M00/M02 Q1016=
202202122050 METAR ESMX 122050Z AUTO 19013KT 9999 NCD M00/M02 Q1017=
202202122020 METAR ESMX 122020Z AUTO 21014KT 9999 NCD 00/M02 Q1017=
202202121950 METAR ESMX 121950Z AUTO 21014KT 9999 FEW016/// BKN160/// 00/M02 Q1018=
202202121920 METAR ESMX 121920Z AUTO 20014KT 9999 BKN017/// BKN026/// OVC160/// 01/M01 Q1018=
202202121850 METAR ESMX 121850Z AUTO 20015KT 9999 BKN017/// OVC026/// 01/M01 Q1018=
202202121820 METAR ESMX 121820Z AUTO 21013KT 9999 BKN018/// OVC027/// 01/M01 Q1018=
202202121750 METAR ESMX 121750Z AUTO 20013KT 9999 OVC030/// 01/M02 Q1019=
202202121720 METAR ESMX 121720Z AUTO 19012KT 9999 OVC030/// 01/M02 Q1019=
202202121650 METAR ESMX 121650Z AUTO 19011KT 9999 OVC030/// 01/M03 Q1019=
202202121620 METAR ESMX 121620Z AUTO 21009KT 9999 SCT031/// 01/M03 Q1019=
202202121550 METAR ESMX 121550Z AUTO 21011KT 9999 FEW150/// 01/M03 Q1019=
202202121520 METAR ESMX 121520Z AUTO 20012KT 9999 NCD 02/M03 Q1020=
202202121450 METAR ESMX 121450Z AUTO 20012KT 9999 FEW034/// 02/M03 Q1020=
202202121420 METAR ESMX 121420Z AUTO 21014KT 190V250 9999 SCT034/// 03/M03 Q1021=
202202121350 METAR ESMX 121350Z AUTO 21013KT 9999 FEW032/// SCT120/// BKN160/// 03/M03 Q1021=
202202121320 METAR ESMX 121320Z AUTO 23015KT 9999 BKN031/// 03/M03 Q1021=
202202121250 METAR ESMX 121250Z AUTO 22015KT 9999 OVC031/// 03/M03 Q1022=
202202121220 METAR ESMX 121220Z AUTO 22012KT 9999 SCT031/// BKN130/// 03/M02 Q1022=
202202121150 METAR ESMX 121150Z AUTO 20011KT 9999 SCT100/// 02/M02 Q1022=
202202121120 METAR ESMX 121120Z AUTO 22010KT 9999 SCT110/// 01/M01 Q1023=
202202121050 METAR ESMX 121050Z AUTO 20012KT 9999 FEW016/// SCT110/// BKN160/// 01/M01 Q1023=
202202121020 METAR ESMX 121020Z AUTO 20011KT 9999 SCT012/// BKN016/// BKN130/// 01/M00 Q1023=
202202120950 METAR ESMX 120950Z AUTO 22011KT 9999 OVC012/// 01/M00 Q1024=
202202120920 METAR ESMX 120920Z AUTO 22011KT 200V260 9999 OVC012/// 01/M00 Q1024=
202202120850 METAR ESMX 120850Z AUTO 21011KT 9999 OVC009/// 01/M00 Q1024=
202202120820 METAR ESMX 120820Z AUTO 21012KT 9999 BKN007/// OVC010/// 00/M00 Q1024=
202202120750 METAR ESMX 120750Z AUTO 21010KT 190V250 9999 FEW008/// SCT010/// 00/M00 Q1024=
202202120720 METAR ESMX 120720Z AUTO 22010KT 9999 BKN008/// BKN011/// M00/M01 Q1024=
202202120650 METAR ESMX 120650Z AUTO 22009KT 9999 NCD M01/M01 Q1024=
202202120620 METAR ESMX 120620Z AUTO 23008KT 9999 FEW009/// M02/M02 Q1024=
202202120550 METAR ESMX 120550Z AUTO 22008KT 9999 NCD M02/M03 Q1023=
202202120520 METAR ESMX 120520Z AUTO 23008KT 9999 FEW009/// M02/M02 Q1023=
202202120450 METAR ESMX 120450Z AUTO 22008KT 9999 BKN009/// M02/M02 Q1024=
202202120420 METAR ESMX 120420Z AUTO 22009KT 9999 FEW009/// M02/M03 Q1024=
202202120350 METAR ESMX 120350Z AUTO 22009KT 9999 BKN010/// M02/M03 Q1024=
202202120320 METAR ESMX 120320Z AUTO 23008KT 9999 NCD M02/M03 Q1024=
202202120250 METAR ESMX 120250Z AUTO 23007KT 9999 NCD M02/M03 Q1024=
202202120220 METAR ESMX 120220Z AUTO 24008KT 9999 NCD M01/M03 Q1024=
202202120150 METAR ESMX 120150Z AUTO 22007KT 9999 NCD M02/M04 Q1024=
202202120120 METAR ESMX 120120Z AUTO 25009KT 9999 NCD M01/M04 Q1024=
202202120050 METAR ESMX 120050Z AUTO 26007KT 9999 NCD M02/M05 Q1024=
202202120020 METAR ESMX 120020Z AUTO 19006KT 9999 NCD M03/M05 Q1024=
202202112350 METAR ESMX 112350Z AUTO 22006KT 9999 NCD M03/M05 Q1024=
202202112320 METAR ESMX 112320Z AUTO 22007KT 9999 NCD M04/M06 Q1024=
202202112250 METAR ESMX 112250Z AUTO 22006KT 9999 NCD M04/M06 Q1024=
202202112220 METAR ESMX 112220Z AUTO 23006KT 9999 NCD M03/M06 Q1024=
202202112150 METAR ESMX 112150Z AUTO 23005KT 9999 NCD M03/M06 Q1024=
202202112120 METAR ESMX 112120Z AUTO 23005KT 9999 NCD M03/M07 Q1024=
202202112050 METAR ESMX 112050Z AUTO 25005KT 9999 NCD M03/M07 Q1024=
202202112020 METAR ESMX 112020Z AUTO 24005KT 9999 NCD M03/M07 Q1023=
202202111950 METAR ESMX 111950Z AUTO 25005KT 9999 NCD M03/M07 Q1023=
202202111920 METAR ESMX 111920Z AUTO 25005KT 9999 NCD M02/M06 Q1022=
202202111850 METAR ESMX 111850Z AUTO 26005KT 9999 NCD M02/M06 Q1022=
202202111820 METAR ESMX 111820Z AUTO 27006KT 9999 NCD M01/M06 Q1022=
202202111750 METAR ESMX 111750Z AUTO 27004KT 9999 NCD M02/M06 Q1021=
202202111720 METAR ESMX 111720Z AUTO 28004KT 9999 NCD M01/M06 Q1021=
202202111650 METAR ESMX 111650Z 30005KT CAVOK M01/M06 Q1020=
202202111620 METAR ESMX 111620Z 31006KT CAVOK M00/M06 Q1019=
202202111550 METAR ESMX 111550Z 32007KT CAVOK 01/M06 Q1019=
202202111520 METAR ESMX 111520Z 33010KT CAVOK 01/M06 Q1018=
202202111450 METAR ESMX 111450Z 33013KT 9999 FEW036 02/M05 Q1018=
202202111420 METAR ESMX 111420Z 31012KT 9999 FEW038 02/M06 Q1017=
202202111350 METAR ESMX 111350Z 31011KT 9999 FEW041 02/M06 Q1016=
202202111320 METAR ESMX 111320Z 33012KT 9999 FEW040 03/M06 Q1015=
202202111250 METAR ESMX 111250Z AUTO 32014G24KT 280V350 9999 SCT039/// 03/M05 Q1015=
202202111220 METAR ESMX 111220Z 30012KT 9999 SCT028 03/M05 Q1014=
202202111150 METAR ESMX 111150Z 32010KT 290V350 9999 FEW022 03/M03 Q1014=
202202111120 METAR ESMX 111120Z 29009KT 250V320 9999 SCT016 03/M00 Q1014=
202202111050 METAR ESMX 111050Z 29007KT 9999 SCT039 02/00 Q1014=
202202111020 METAR ESMX 111020Z 30009KT 9999 BKN013 02/01 Q1013=
202202110950 METAR ESMX 110950Z 27007KT 9999 SCT012 BKN022 03/01 Q1013=
202202110920 METAR ESMX 110920Z 27008KT 9999 SCT008 BKN011 02/01 Q1012=
202202110850 METAR ESMX 110850Z 28006KT 250V310 9999 BKN008 02/01 Q1012=
202202110820 METAR ESMX 110820Z 26006KT 9999 SCT008 BKN012 02/01 Q1012=
202202110750 METAR COR ESMX 110750Z 26006KT 8000 FEW004 BKN007 02/01 Q1012=
202202110720 METAR ESMX 110720Z 23005KT 9999 BKN009 01/01 Q1011=
202202110650 METAR ESMX 110650Z AUTO 22005KT 9999 SCT009/// BKN015/// OVC030/// 01/01 Q1011=
202202110620 METAR ESMX 110620Z AUTO 24004KT 9999 FEW010/// BKN014/// OVC031/// 01/01 Q1011 RESHUP RERA=
202202110550 METAR ESMX 110550Z AUTO 26005KT 9999 OVC029/// 02/01 Q1010=
202202110520 METAR ESMX 110520Z AUTO 26006KT 230V290 9999 -RA FEW010/// BKN015/// OVC035/// 02/01 Q1010 RESHUP RERA=
202202110450 METAR ESMX 110450Z AUTO 22004KT 190V260 9999 SCT015/// BKN030/// 02/00 Q1010=
202202110420 METAR ESMX 110420Z AUTO 22005KT 190V250 9999 -RA FEW014/// SCT018/// BKN024/// 02/00 Q1010 RERA RESHUP REDZ=
202202110350 METAR ESMX 110350Z AUTO 24005KT 9999 FEW021/// BKN030/// 02/00 Q1010=
202202110320 METAR ESMX 110320Z AUTO 24007KT 210V280 9999 -DZ FEW020/// SCT027/// OVC034/// 02/00 Q1009 REUP=
202202110250 METAR ESMX 110250Z AUTO 25008KT 9999 OVC026/// 02/00 Q1009=
202202110220 METAR ESMX 110220Z AUTO 26007KT 230V290 9999 FEW011/// SCT015/// OVC026/// 02/01 Q1009=
202202110150 METAR ESMX 110150Z 25007KT 9999 SCT012 BKN026 02/01 Q1009=
202202110120 METAR ESMX 110120Z 23007KT 210V270 9999 SCT013 BKN028 02/01 Q1009=
202202110050 METAR ESMX 110050Z 24008KT 9999 SCT012 BKN031 02/01 Q1009=
202202110020 METAR ESMX 110020Z 25008KT 9999 BKN014 02/01 Q1009=
202202102350 METAR ESMX 102350Z 25008KT 9000 -RASN SCT005 BKN014 02/01 Q1009=
202202102320 METAR ESMX 102320Z 25008KT 9999 BKN015 OVC037 02/00 Q1009=
202202102250 METAR ESMX 102250Z AUTO 25010KT 9999 BKN015/// OVC036/// 02/00 Q1009=
202202102220 METAR ESMX 102220Z AUTO 23009KT 200V260 9999 BKN015/// OVC018/// 02/01 Q1009=
202202102150 METAR ESMX 102150Z AUTO 23009KT 9999 SCT011/// BKN015/// 02/00 Q1009=
202202102120 METAR ESMX 102120Z AUTO 23009KT 9999 SCT010/// BKN018/// 01/01 Q1008=
202202102050 METAR ESMX 102050Z AUTO 23011KT 9999 OVC009/// 01/01 Q1008=
202202102020 METAR ESMX 102020Z AUTO 22010KT 9999 OVC009/// 01/01 Q1008=
202202101950 METAR ESMX 101950Z AUTO 23008KT 9999 SCT011/// BKN031/// 01/00 Q1008=
202202101920 METAR ESMX 101920Z AUTO 21009KT 9999 FEW012/// 01/00 Q1008=
202202101850 METAR ESMX 101850Z AUTO 23009KT 9999 FEW014/// 01/00 Q1008=
202202101820 METAR ESMX 101820Z AUTO 22008KT 9999 SCT015/// BKN019/// 02/01 Q1008=
202202101750 METAR ESMX 101750Z AUTO 23007KT 9999 SCT015/// BKN026/// 02/01 Q1008=
202202101720 METAR ESMX 101720Z AUTO 23005KT 9999 FEW017/// SCT022/// 01/00 Q1008=
202202101650 METAR ESMX 101650Z AUTO 23007KT 9999 FEW019/// 01/00 Q1008=
202202101620 METAR ESMX 101620Z AUTO 22007KT 9999 NCD 01/00 Q1008=
202202101550 METAR ESMX 101550Z 25010KT 9999 VCSH SCT036 02/01 Q1008=
202202101520 METAR ESMX 101520Z 25009KT 9999 SCT039 03/00 Q1008=
202202101450 METAR ESMX 101450Z 25010KT 9999 SCT022 04/00 Q1008=
202202101420 METAR ESMX 101420Z 25012KT 9999 BKN024 04/00 Q1008=
202202101350 METAR ESMX 101350Z 24006KT 200V280 9999 VCSH BKN023 03/01 Q1008=
202202101320 METAR ESMX 101320Z 29005KT 260V340 9999 VCSH FEW026 BKN042 02/01 Q1008=
202202101250 METAR ESMX 101250Z 29018G30KT 1700 SHSNRA FEW005 BKN019 02/01 Q1008=
202202101220 METAR ESMX 101220Z 25008KT 220V310 9999 BKN018 05/01 Q1008=
202202101150 METAR ESMX 101150Z 26008KT 230V320 9999 BKN014 04/02 Q1008=
202202101120 METAR ESMX 101120Z 26011KT 9999 -RA FEW021 BKN053 03/01 Q1009=
202202101050 METAR COR ESMX 101050Z 25009KT 210V280 9999 -RA FEW008 BKN017 04/02 Q1009=
202202101020 METAR ESMX 101020Z 23010KT 9999 BKN020 04/01 Q1009=
202202100950 METAR ESMX 100950Z 23010KT 9999 BKN017 05/02 Q1009=
202202100920 METAR COR ESMX 100920Z 24008KT 9999 BKN015 04/01 Q1009=
202202100850 METAR ESMX 100850Z AUTO 24008KT 9999 OVC014/// 03/02 Q1009=
202202100820 METAR ESMX 100820Z 23008KT 9999 BKN016 03/02 Q1009=
202202100750 METAR ESMX 100750Z 23009KT 9999 FEW014 BKN020 03/02 Q1009=
202202100720 METAR ESMX 100720Z 23009KT 9999 BKN015 03/02 Q1009=
202202100650 METAR ESMX 100650Z AUTO 22009KT 9999 SCT017/// BKN041/// OVC160/// 02/01 Q1009 RESHUP REDZ REUP=
202202100620 METAR ESMX 100620Z AUTO 22009KT 9999 FEW015/// BKN041/// OVC160/// 03/01 Q1009=
202202100550 METAR ESMX 100550Z AUTO 24010KT 9999 SCT013/// BKN039/// 02/01 Q1009=
202202100520 METAR ESMX 100520Z AUTO 24010KT 9999 BKN014/// OVC019/// 03/01 Q1009=
202202100450 METAR ESMX 100450Z AUTO 23010KT 210V280 9999 OVC014/// 03/01 Q1009=
202202100420 METAR ESMX 100420Z AUTO 22010KT 9999 OVC014/// 03/01 Q1010=
202202100350 METAR ESMX 100350Z AUTO 24009KT 220V280 9999 OVC014/// 03/01 Q1010=
202202100320 METAR ESMX 100320Z AUTO 24010KT 210V280 9999 BKN014/// OVC017/// 03/01 Q1010=
202202100250 METAR ESMX 100250Z AUTO 23010KT 200V270 9999 BKN014/// OVC018/// 03/01 Q1010=
202202100220 METAR ESMX 100220Z AUTO 23010KT 9999 BKN017/// OVC027/// 03/01 Q1011=
202202100150 METAR ESMX 100150Z 25010KT 9999 BKN015 03/01 Q1011=
202202100120 METAR ESMX 100120Z 24009KT 210V290 9999 BKN015 03/01 Q1011=
202202100050 METAR ESMX 100050Z 24010KT 9999 BKN017 02/01 Q1011=
202202100020 METAR ESMX 100020Z 25010KT 220V280 9999 SCT019 02/00 Q1011=
202202092350 METAR ESMX 092350Z 25010KT 9999 SCT017 02/01 Q1011=
202202092320 METAR ESMX 092320Z 25010KT 9999 BKN019 02/01 Q1011=
202202092250 METAR ESMX 092250Z AUTO 24010KT 9999 FEW016/// 02/01 Q1011=
202202092220 METAR ESMX 092220Z AUTO 24010KT 9999 SCT016/// BKN024/// 02/01 Q1011=
202202092150 METAR ESMX 092150Z AUTO 25010KT 9999 FEW018/// 02/01 Q1011=
202202092120 METAR ESMX 092120Z AUTO 26011KT 230V290 9999 SCT017/// BKN023/// 02/01 Q1011=
202202092050 METAR ESMX 092050Z AUTO 25011KT 230V290 9999 FEW020/// OVC036/// 03/01 Q1010=
202202092020 METAR ESMX 092020Z AUTO 26013KT 9999 FEW018/// BKN034/// 03/01 Q1010=
202202091950 METAR ESMX 091950Z AUTO 25011KT 9999 FEW015/// SCT038/// 03/01 Q1010=
202202091920 METAR ESMX 091920Z AUTO 26011KT 9999 FEW018/// 03/01 Q1010=
202202091850 METAR ESMX 091850Z AUTO 26011KT 240V300 9999 BKN017/// BKN021/// OVC026/// 03/01 Q1010 REUP=
202202091820 METAR ESMX 091820Z AUTO 25013KT 9999 SCT017/// BKN024/// 03/01 Q1009=
202202091750 METAR ESMX 091750Z AUTO 25011KT 9999 FEW024/// 03/01 Q1009=
202202091720 METAR ESMX 091720Z AUTO 25011KT 210V280 9999 BKN074/// 03/02 Q1009=
202202091650 METAR ESMX 091650Z 25011G22KT 230V290 9999 FEW013 BKN080 04/03 Q1008=
202202091620 METAR ESMX 091620Z 26011KT 9999 VCSH SCT014CB BKN062 04/04 Q1008=
202202091550 METAR ESMX 091550Z 23012KT 9999 VCSH FEW024CB BKN034 05/03 Q1008=
202202091520 METAR ESMX 091520Z 25014KT 220V290 7000 SHRA SCT017CB BKN033 05/03 Q1007=
202202091450 METAR ESMX 091450Z 25016KT 9999 VCSH SCT026CB 06/02 Q1007=
202202091420 METAR ESMX 091420Z 26015KT 9999 BKN024 07/02 Q1007=
202202091350 METAR ESMX 091350Z 26017G28KT 9999 VCSH BKN024 07/03 Q1007=
202202091320 METAR ESMX 091320Z 24015G25KT 210V280 9999 SHRA BKN026 06/04 Q1007=
202202091250 METAR ESMX 091250Z 25016G32KT 220V290 9999 BKN022 07/03 Q1007=
202202091220 METAR ESMX 091220Z 24016G28KT 210V270 9999 BKN018 07/04 Q1007=
202202091150 METAR ESMX 091150Z 22012KT 180V240 9999 BKN015 06/04 Q1007=
202202091120 METAR ESMX 091120Z 24012G24KT 9999 BKN018 06/04 Q1008=
202202091050 METAR ESMX 091050Z 24013G25KT 9999 BKN018 06/03 Q1008=
202202091020 METAR ESMX 091020Z 23014KT 9999 BKN018 06/04 Q1008=
202202090950 METAR ESMX 090950Z 22010KT 9999 BKN016 06/04 Q1008=
202202090920 METAR ESMX 090920Z 22009KT 9999 BKN013 05/04 Q1008=
202202090850 METAR ESMX 090850Z AUTO 20010KT 9999 OVC011/// 05/04 Q1009=
202202090820 METAR ESMX 090820Z 21012KT 9999 BKN011 04/03 Q1009=
202202090750 METAR ESMX 090750Z 22011KT 9999 BKN010 04/03 Q1009=
202202090720 METAR ESMX 090720Z 22011KT 9999 -DZ BKN009 04/03 Q1009=
202202090650 METAR ESMX 090650Z AUTO 20010KT 9999 OVC009/// 04/03 Q1010=
202202090620 METAR ESMX 090620Z AUTO 22009KT 9999 BKN013/// OVC045/// 03/02 Q1010=
202202090550 METAR ESMX 090550Z AUTO 23008KT 9999 FEW014/// SCT020/// BKN046/// 03/02 Q1010=
202202090520 METAR ESMX 090520Z AUTO 22008KT 9999 FEW014/// BKN023/// BKN029/// 03/02 Q1011=
202202090450 METAR ESMX 090450Z AUTO 22007KT 9999 OVC023/// 03/02 Q1011=
202202090420 METAR ESMX 090420Z AUTO 19007KT 9999 SCT012/// OVC023/// 02/02 Q1011=
202202090350 METAR ESMX 090350Z AUTO 22007KT 9999 SCT015/// BKN021/// OVC025/// 03/02 Q1012=
202202090320 METAR ESMX 090320Z AUTO 22008KT 9999 BKN012/// OVC016/// 03/02 Q1012=
202202090250 METAR ESMX 090250Z AUTO 23008KT 9999 OVC009/// 03/02 Q1012=
202202090220 METAR ESMX 090220Z AUTO 25009KT 9999 OVC010/// 03/02 Q1012=
202202090150 METAR ESMX 090150Z 25010KT 9999 BKN015 03/02 Q1013=
202202090120 METAR ESMX 090120Z 25009KT 9999 BKN016 03/02 Q1013=
202202090050 METAR ESMX 090050Z 25008KT 9999 BKN017 03/01 Q1013=
202202090020 METAR ESMX 090020Z 25009KT 9999 SCT018 03/01 Q1012=
202202082350 METAR ESMX 082350Z 25009KT 210V280 9999 BKN016 03/01 Q1012=
202202082320 METAR ESMX 082320Z 26010KT 9999 SCT016 03/01 Q1012=
202202082250 METAR ESMX 082250Z AUTO 26009KT 230V290 9999 SCT016/// 03/01 Q1012=
202202082220 METAR ESMX 082220Z AUTO 26010KT 9999 NCD 03/01 Q1011=
202202082150 METAR ESMX 082150Z AUTO 26014KT 9999 BKN015/// 04/01 Q1011=
202202082120 METAR ESMX 082120Z AUTO 27013KT 9999 OVC015/// 04/01 Q1011=
202202082050 METAR ESMX 082050Z AUTO 26011KT 9999 SCT015/// 03/01 Q1011=
202202082020 METAR ESMX 082020Z AUTO 26010KT 9999 NCD 03/01 Q1010=
202202081950 METAR ESMX 081950Z AUTO 27012KT 9999 NCD 03/01 Q1010=
202202081920 METAR ESMX 081920Z AUTO 26012KT 9999 NCD 03/01 Q1010=
202202081850 METAR ESMX 081850Z AUTO 27012KT 9999 SCT018/// 04/01 Q1010=
202202081820 METAR ESMX 081820Z AUTO 26013KT 9999 NCD 04/01 Q1009=
202202081750 METAR ESMX 081750Z AUTO 27014G25KT 9999 NCD 04/01 Q1009=
202202081720 METAR ESMX 081720Z AUTO 26013KT 9999 NCD 05/01 Q1008=
202202081650 METAR ESMX 081650Z AUTO 27010KT 9999 FEW025/// 05/01 Q1008=
202202081620 METAR ESMX 081620Z AUTO 26011KT 9999 BKN025/// BKN029/// 05/01 Q1008=
202202081550 METAR ESMX 081550Z AUTO 26012KT 210V290 9999 NCD 05/01 Q1007=
202202081520 METAR ESMX 081520Z 27013KT CAVOK 06/01 Q1007=
202202081450 METAR ESMX 081450Z 27013KT 240V300 CAVOK 06/02 Q1006=
202202081420 METAR ESMX 081420Z AUTO 26016KT 9999 FEW025/// 07/02 Q1006=
202202081350 METAR ESMX 081350Z 26016KT 9999 BKN025 07/02 Q1006=
202202081320 METAR ESMX 081320Z 29016KT 9999 BKN027 07/02 Q1005=
202202081250 METAR ESMX 081250Z 28017G28KT 9999 BKN024 07/02 Q1005=
202202081220 METAR ESMX 081220Z 27014KT 250V310 9999 BKN022 07/03 Q1005=
202202081150 METAR COR ESMX 081150Z 27013KT 9999 BKN020 07/03 Q1004=
202202081120 METAR ESMX 081120Z 27013KT 9999 BKN019 06/03 Q1004=
202202081050 METAR COR ESMX 081050Z 27015KT 230V300 9999 BKN019 06/04 Q1004=
202202081020 METAR ESMX 081020Z 26015KT 230V290 9999 BKN016 06/04 Q1003=
202202080950 METAR ESMX 080950Z 26016KT 9999 BKN015 06/05 Q1003=
202202080920 METAR ESMX 080920Z AUTO 26014G28KT 9999 SCT005/// BKN013/// OVC023/// 06/05 Q1003=
202202080850 METAR ESMX 080850Z 22011KT 6000 BR OVC003 05/05 Q1003=
202202080820 METAR ESMX 080820Z AUTO 22010KT 5000 BR OVC002/// 04/04 Q1003 REDZ=
202202080750 METAR ESMX 080750Z 20013KT 9999 OVC003 03/03 Q1003=
202202080720 METAR ESMX 080720Z 20013KT 4400 -DZ OVC003 03/03 Q1004=
202202080650 METAR ESMX 080650Z AUTO 22012KT 2300 DZ OVC002/// 03/03 Q1004=
202202080620 METAR ESMX 080620Z AUTO 21012KT 2400 DZ OVC003/// 02/02 Q1005 REDZ=
202202080550 METAR ESMX 080550Z AUTO 20012KT 7000 BR OVC004/// 02/02 Q1005=
202202080520 METAR ESMX 080520Z AUTO 20011KT 5000 -RA OVC004/// 02/02 Q1006=
202202080450 METAR ESMX 080450Z AUTO 21011KT 7000 DZ OVC007/// 02/01 Q1007 RERA=
202202080420 METAR ESMX 080420Z AUTO 21011KT 9000 -RA FEW006/// SCT011/// BKN014/// 02/01 Q1007 REUP=
202202080350 METAR ESMX 080350Z AUTO 22010KT 9999 BKN010/// OVC035/// 02/01 Q1008=
202202080320 METAR ESMX 080320Z AUTO 20009KT 160V240 9999 BKN009/// OVC012/// 02/01 Q1009=
202202080250 METAR ESMX 080250Z AUTO 21010KT 9999 OVC008/// 02/01 Q1009=
202202080220 METAR ESMX 080220Z 21008KT 9999 BKN007 02/01 Q1010=
202202080150 METAR ESMX 080150Z 21008KT 9000 SCT007 01/01 Q1010=
202202080120 METAR ESMX 080120Z 22006KT 9000 SCT002 BKN010 00/00 Q1010=
202202080050 METAR ESMX 080050Z 22006KT 2000 BR OVC002 M00/M00 Q1011=
202202080020 METAR COR ESMX 080020Z 22008KT 9000 BKN003 M01/M01 Q1011=
202202072350 METAR ESMX 072350Z 22008KT CAVOK M01/M02 Q1011=
202202072320 METAR ESMX 072320Z 22006KT CAVOK M02/M03 Q1011=
202202072250 METAR ESMX 072250Z 23005KT CAVOK M01/M03 Q1011=
202202072220 METAR ESMX 072220Z 24006KT CAVOK M03/M03 Q1011=
202202072150 METAR ESMX 072150Z 25005KT CAVOK M02/M03 Q1011=
202202072120 METAR ESMX 072120Z AUTO 25005KT 9999 NCD M02/M03 Q1011=
202202072050 METAR ESMX 072050Z 26004KT CAVOK M01/M03 Q1011=
202202072020 METAR ESMX 072020Z 25004KT CAVOK M01/M02 Q1011=
202202071950 METAR ESMX 071950Z 25003KT CAVOK 00/M03 Q1010=
202202071920 METAR ESMX 071920Z 27005KT CAVOK 00/M03 Q1010=
202202071850 METAR ESMX 071850Z 28005KT CAVOK 01/M03 Q1009=
202202071820 METAR ESMX 071820Z 30006KT CAVOK 01/M03 Q1009=
202202071750 METAR ESMX 071750Z 29008KT CAVOK 02/M03 Q1008=
202202071720 METAR ESMX 071720Z 30007KT CAVOK 02/M03 Q1007=
202202071650 METAR ESMX 071650Z 30008KT CAVOK 02/M03 Q1007=
202202071620 METAR ESMX 071620Z 30009KT CAVOK 03/M02 Q1006=
202202071550 METAR ESMX 071550Z 30010KT CAVOK 03/M02 Q1005=
202202071520 METAR ESMX 071520Z 30012KT 9999 FEW035 04/M02 Q1004=
202202071450 METAR ESMX 071450Z 30012KT 270V330 9999 FEW035 04/M02 Q1003=
202202071420 METAR ESMX 071420Z 30010KT 260V330 9999 FEW032 05/M01 Q1002=
202202071350 METAR ESMX 071350Z 30013KT 9999 FEW032 05/M01 Q1002=
202202071320 METAR ESMX 071320Z 28012KT 9999 FEW032 04/M01 Q1001=
202202071250 METAR ESMX 071250Z 29013KT 260V330 9999 FEW032 04/M01 Q1000=
202202071220 METAR ESMX 071220Z 29013KT CAVOK 04/M01 Q1000=
202202071150 METAR ESMX 071150Z 29012KT 9999 NSC 04/M01 Q0999=
202202071120 METAR ESMX 071120Z 29012KT CAVOK 04/M01 Q0998=
202202071050 METAR ESMX 071050Z 29012KT 260V330 CAVOK 03/M01 Q0998=
202202071020 METAR ESMX 071020Z 29011KT CAVOK 03/M01 Q0998=
202202070950 METAR ESMX 070950Z AUTO 28010KT 9999 NCD 02/M01 Q0997=
202202070920 METAR ESMX 070920Z 30009KT 280V340 CAVOK 02/M01 Q0997=
202202070850 METAR ESMX 070850Z 29010KT CAVOK 01/M01 Q0996=
202202070820 METAR ESMX 070820Z 28010KT CAVOK 00/M01 Q0995=
202202070750 METAR ESMX 070750Z 28008KT CAVOK M00/M01 Q0995=
202202070720 METAR ESMX 070720Z 27008KT CAVOK M01/M01 Q0994=
202202070650 METAR ESMX 070650Z 27007KT CAVOK M01/M01 Q0993=
202202070620 METAR ESMX 070620Z AUTO 27007KT 9999 NCD M01/M01 Q0993=
202202070550 METAR ESMX 070550Z AUTO 27006KT 9999 NCD M01/M01 Q0992=
202202070520 METAR ESMX 070520Z AUTO 27006KT 9999 NCD M00/M01 Q0991=
202202070450 METAR ESMX 070450Z AUTO 27007KT 9999 FEW009/// M00/M00 Q0991=
202202070420 METAR ESMX 070420Z AUTO 28008KT 9999 BKN008/// OVC011/// 00/M00 Q0990=
202202070350 METAR ESMX 070350Z AUTO 26007KT 230V290 9999 BKN009/// OVC011/// 01/00 Q0989=
202202070320 METAR ESMX 070320Z AUTO 26006KT 9999 SCT023/// 00/M00 Q0989=
202202070250 METAR ESMX 070250Z AUTO 28006KT 9999 FEW011/// OVC023/// 01/00 Q0988=
202202070220 METAR ESMX 070220Z AUTO 26006KT 9999 FEW015/// OVC021/// 01/00 Q0988 RESHUP=
202202070150 METAR ESMX 070150Z AUTO 29006KT 9999 FEW002/// SCT015/// OVC020/// 01/00 Q0987 REUP=
202202070120 METAR ESMX 070120Z AUTO 28008KT 9999 BKN007/// OVC009/// 01/00 Q0987=
202202070050 METAR ESMX 070050Z AUTO 26005KT 9999 BKN008/// BKN010/// OVC029/// 01/00 Q0986=
202202070020 METAR ESMX 070020Z AUTO 25007KT 9999 FEW008/// SCT010/// OVC032/// 01/00 Q0986=
202202062350 METAR ESMX 062350Z AUTO 27006KT 9999 BKN007/// OVC009/// 01/00 Q0985=
202202062320 METAR ESMX 062320Z AUTO 26006KT 9999 BKN008/// OVC026/// 01/M00 Q0985=
202202062250 METAR ESMX 062250Z AUTO 26009KT 9999 BKN006/// 00/M00 Q0984=
202202062220 METAR ESMX 062220Z AUTO 24007KT 9999 FEW007/// M00/M00 Q0984 RESHUP=
202202062150 METAR ESMX 062150Z AUTO 25006KT 9999 FEW009/// BKN033/// M00/M00 Q0984 RESHUP RERA=
202202062120 METAR ESMX 062120Z AUTO 25007KT 9999 FEW008/// BKN033/// 00/M00 Q0984 RESHUP RERA=
202202062050 METAR ESMX 062050Z AUTO 25007KT 9999 FEW008/// OVC024/// 00/M00 Q0984 REUP=
202202062020 METAR ESMX 062020Z AUTO 26010KT 9999 -PL BKN010/// BKN019/// OVC024/// 01/M00 Q0984=
202202061950 METAR ESMX 061950Z AUTO 26009KT 230V290 9999 BKN009/// OVC013/// 01/00 Q0983=
202202061920 METAR ESMX 061920Z 23006KT 9999 BKN006 BKN015 01/01 Q0983=
202202061850 METAR ESMX 061850Z 17003KT 140V210 9999 FEW008 SCT013 BKN019 01/01 Q0983 RESHSN=
202202061820 METAR ESMX 061820Z 21005KT 9999 FEW009 SCT012 OVC018 01/01 Q0983 RESN=
202202061750 METAR ESMX 061750Z 24005KT 200V260 9999 SCT010 BKN013 BKN017 01/00 Q0983=
202202061720 METAR ESMX 061720Z AUTO 22005KT 9999 BKN006/// BKN009/// OVC011/// 01/01 Q0983=
202202061650 METAR ESMX 061650Z AUTO 22004KT 9999 BKN006/// BKN009/// OVC015/// 01/01 Q0983=
202202061620 METAR ESMX 061620Z AUTO 22006KT 9999 BKN011/// OVC015/// 01/01 Q0983=
202202061550 METAR ESMX 061550Z AUTO 23008KT 9999 FEW014/// BKN130/// 02/01 Q0983=
202202061520 METAR ESMX 061520Z AUTO 21008KT 9999 BKN010/// 02/01 Q0983=
202202061450 METAR ESMX 061450Z AUTO 22009KT 9999 SCT006/// BKN010/// 02/01 Q0983=
202202061420 METAR ESMX 061420Z AUTO 22009KT 6000 -DZ BKN006/// OVC015/// 02/02 Q0984=
202202061350 METAR ESMX 061350Z AUTO 23010KT 9999 DZ SCT013/// BKN019/// BKN026/// 03/01 Q0984 REUP RESHUP=
202202061320 METAR ESMX 061320Z AUTO 21012KT 9999 FEW022/// SCT036/// BKN074/// 04/01 Q0984=
202202061250 METAR ESMX 061250Z AUTO 22013KT 9999 FEW026/// SCT034/// BKN094/// 04/00 Q0985=
202202061220 METAR ESMX 061220Z AUTO 23010KT 190V260 9999 FEW027/// SCT090/// 05/01 Q0985=
202202061150 METAR ESMX 061150Z AUTO 23009KT 9999 BKN019/// 04/01 Q0985=
202202061120 METAR ESMX 061120Z AUTO 22012KT 190V250 9999 FEW019/// 05/02 Q0986=
202202061050 METAR ESMX 061050Z AUTO 23009KT 9999 SCT018/// BKN030/// 04/02 Q0986=
202202061020 METAR ESMX 061020Z AUTO 23010KT 9999 SCT008/// BKN011/// OVC015/// 03/02 Q0987=
202202060950 METAR ESMX 060950Z AUTO 21010KT 9999 BKN008/// BKN009/// OVC014/// 03/02 Q0987 REUP=
202202060920 METAR ESMX 060920Z AUTO 21011KT 9999 BKN008/// OVC011/// 03/02 Q0987=
202202060850 METAR ESMX 060850Z AUTO 22010KT 9999 SCT009/// BKN012/// OVC022/// 02/02 Q0987=
202202060820 METAR ESMX 060820Z 23009KT 9999 BKN007 BKN010 02/02 Q0987=
202202060750 METAR ESMX 060750Z 22007KT 9999 FEW006 BKN009 02/02 Q0987=
202202060720 METAR ESMX 060720Z 22008KT 9999 BKN011 02/02 Q0988=
202202060650 METAR ESMX 060650Z 22007KT 9999 BKN010 BKN013 02/02 Q0988=
202202060620 METAR ESMX 060620Z AUTO 22007KT 9999 OVC011/// 02/02 Q0988=
202202060550 METAR ESMX 060550Z AUTO 24007KT 9999 BKN012/// OVC062/// 02/02 Q0988=
202202060520 METAR ESMX 060520Z AUTO 23009KT 9999 OVC057/// 03/02 Q0988=
202202060450 METAR ESMX 060450Z AUTO 22010KT 9999 BKN059/// 03/02 Q0988 RESHUP=
202202060420 METAR ESMX 060420Z AUTO 23008KT 200V270 9999 FEW011/// OVC051/// 04/03 Q0988=
202202060350 METAR ESMX 060350Z AUTO 21010KT 180V240 7000 RA OVC004/// 04/04 Q0988=
202202060320 METAR ESMX 060320Z AUTO 20012KT 9999 -RA OVC005/// 03/03 Q0989 RERA=
202202060250 METAR ESMX 060250Z AUTO 20014KT 8000 -DZ OVC005/// 03/03 Q0989 REDZ=
202202060220 METAR ESMX 060220Z AUTO 20014KT 5000 DZ OVC005/// 03/03 Q0990=
202202060150 METAR ESMX 060150Z AUTO 20015KT 9999 -RA OVC006/// 02/02 Q0990=
202202060120 METAR ESMX 060120Z AUTO 20014KT 9999 -RA OVC006/// 02/02 Q0991=
202202060050 METAR ESMX 060050Z 20016KT 4800 RA BKN007 BKN016 02/02 Q0991 REDZ=
202202060020 METAR ESMX 060020Z 20014KT 8000 DZ BKN005 03/02 Q0992=
202202052350 METAR ESMX 052350Z 20016KT 5000 -RA BKN005 03/02 Q0993 REDZ=
202202052320 METAR ESMX 052320Z 19015KT 5000 DZ BKN005 03/02 Q0993=
202202052250 METAR ESMX 052250Z 18015KT 9000 -DZ BKN005 02/02 Q0994=
202202052220 METAR ESMX 052220Z AUTO 18015KT 6000 -RA OVC005/// 02/02 Q0995 REDZ=
202202052150 METAR ESMX 052150Z AUTO 18014KT 7000 DZ OVC005/// 02/02 Q0996=
202202052120 METAR ESMX 052120Z AUTO 19013KT 7000 -RA OVC005/// 02/02 Q0996 REDZ=
202202052050 METAR ESMX 052050Z AUTO 18012KT 8000 -RA BKN006/// OVC008/// 02/02 Q0997=
202202052020 METAR ESMX 052020Z AUTO 18010KT 8000 DZ BKN006/// BKN009/// OVC011/// 02/02 Q0998 RERA=
202202051950 METAR ESMX 051950Z AUTO 19012KT 8000 BR SCT008/// OVC011/// 02/01 Q0999 RESHUP REUP=
202202051920 METAR ESMX 051920Z AUTO 20011KT 8000 DZ FEW007/// BKN035/// BKN055/// 02/01 Q0999 REDZ REUP=
202202051850 METAR ESMX 051850Z AUTO 20012KT 9999 FEW010/// SCT014/// BKN017/// 02/01 Q1000=
202202051820 METAR ESMX 051820Z AUTO 22011KT 9999 BKN010/// BKN042/// 02/01 Q1000=
202202051750 METAR ESMX 051750Z AUTO 22012KT 9999 FEW012/// 02/01 Q1000=
202202051720 METAR ESMX 051720Z AUTO 23012KT 9999 BKN013/// OVC018/// 02/01 Q1000=
202202051650 METAR ESMX 051650Z AUTO 24012KT 9999 BKN022/// 02/01 Q1000=
202202051620 METAR ESMX 051620Z AUTO 23010KT 9999 SCT014/// BKN018/// OVC024/// 02/01 Q1000=
202202051550 METAR ESMX 051550Z AUTO 22011KT 9999 FEW017/// BKN036/// 02/01 Q1000=
202202051520 METAR ESMX 051520Z AUTO 25012KT 9999 BR FEW007/// BKN036/// 02/01 Q1000=
202202051450 METAR ESMX 051450Z AUTO 24011KT 9999 FEW004/// SCT018/// OVC025/// 03/01 Q1000=
202202051420 METAR ESMX 051420Z AUTO 25012KT 9999 -RA FEW006/// BKN040/// 03/01 Q1000 RERA RESHUP=
202202051350 METAR ESMX 051350Z AUTO 26009KT 230V290 9999 FEW006/// SCT013/// BKN036/// 02/01 Q1000=
202202051320 METAR ESMX 051320Z AUTO 25013G24KT 220V290 9999 SCT020/// BKN024/// OVC031/// 04/01 Q1000 RESHUP RERA=
202202051250 METAR ESMX 051250Z AUTO 25012KT 9999 FEW024/// BKN038/// 04/01 Q1000 RERA=
202202051220 METAR ESMX 051220Z AUTO 25016KT 9999 SCT016/// BKN025/// OVC037/// 04/02 Q1000 RESHUP=
202202051150 METAR ESMX 051150Z AUTO 25010KT 9999 -RA SCT015/// OVC040/// 04/01 Q1000 RESHUP=
202202051120 METAR ESMX 051120Z AUTO 25011KT 9999 OVC017/// 04/01 Q1000=
202202051050 METAR ESMX 051050Z AUTO 25010KT 230V300 9999 BKN019/// OVC029/// 03/01 Q1000=
202202051020 METAR ESMX 051020Z AUTO 26009KT 9999 OVC017/// 03/01 Q1000=
202202050950 METAR ESMX 050950Z AUTO 26010KT 210V280 9999 OVC016/// 03/01 Q0999=
202202050920 METAR ESMX 050920Z AUTO 26010KT 9999 BKN013/// OVC019/// 03/01 Q0999=
202202050850 METAR ESMX 050850Z AUTO 25011KT 220V290 9999 BKN013/// BKN016/// OVC020/// 02/01 Q0998=
202202050820 METAR ESMX 050820Z AUTO 23012KT 9999 SCT012/// BKN015/// OVC022/// 02/01 Q0998=
202202050750 METAR ESMX 050750Z AUTO 25010KT 220V280 9999 BKN013/// OVC016/// 02/01 Q0998=
202202050720 METAR ESMX 050720Z AUTO 24009KT 9999 FEW009/// BKN013/// BKN016/// 02/01 Q0997=
202202050650 METAR ESMX 050650Z AUTO 24010KT 7000 -RA SCT009/// OVC015/// 01/01 Q0997 REUP=
202202050620 METAR ESMX 050620Z AUTO 23011KT 200V260 9999 BKN012/// OVC018/// 02/01 Q0997=
202202050550 METAR ESMX 050550Z AUTO 23009KT 9999 BKN012/// OVC017/// 02/00 Q0997=
202202050520 METAR ESMX 050520Z AUTO 23010KT 200V260 9999 BKN013/// OVC017/// 02/00 Q0997=
202202050450 METAR ESMX 050450Z AUTO 23010KT 9999 FEW009/// SCT011/// BKN015/// 01/01 Q0996=
202202050420 METAR ESMX 050420Z AUTO 25011KT 9999 OVC009/// 01/01 Q0996=
202202050350 METAR ESMX 050350Z AUTO 26011KT 9999 BKN009/// OVC010/// 01/01 Q0996=
202202050320 METAR ESMX 050320Z AUTO 25010KT 9999 BKN010/// OVC014/// 01/01 Q0996=
202202050250 METAR ESMX 050250Z AUTO 26010KT 9999 OVC010/// 01/01 Q0996=
202202050220 METAR ESMX 050220Z AUTO 26010KT 9999 BKN012/// OVC019/// 01/01 Q0995=
202202050150 METAR ESMX 050150Z AUTO 26008KT 9999 SCT014/// BKN020/// 01/01 Q0995=
202202050120 METAR ESMX 050120Z AUTO 26011KT 9999 FEW008/// BKN011/// OVC018/// 02/01 Q0995=
202202050050 METAR ESMX 050050Z AUTO 26009KT 9999 OVC008/// 01/01 Q0994=
202202050020 METAR ESMX 050020Z AUTO 26009KT 9999 OVC006/// 01/01 Q0994=
202202042350 METAR ESMX 042350Z AUTO 26008KT 9999 OVC005/// 01/01 Q0994=
202202042320 METAR ESMX 042320Z AUTO 27008KT 9999 OVC004/// 01/01 Q0994=
202202042250 METAR ESMX 042250Z AUTO 25007KT 9999 OVC004/// 01/01 Q0994=
202202042220 METAR ESMX 042220Z AUTO 26006KT 9999 SG BKN004/// OVC007/// 01/01 Q0993=
202202042150 METAR ESMX 042150Z AUTO 25005KT 5000 -SN FEW008/// BKN021/// OVC031/// 01/01 Q0993=
202202042120 METAR ESMX 042120Z AUTO 29005KT 7000 -SN ///025 01/01 Q0993=
202202042050 METAR ESMX 042050Z AUTO 29006KT 2500 -SN VV017 01/01 Q0993=
202202042020 METAR ESMX 042020Z AUTO 29007KT 2100 -SN VV011 01/01 Q0993=
202202041950 METAR ESMX 041950Z AUTO 29005KT 2100 -SN VV012 01/01 Q0993 RERA=
202202041920 METAR ESMX 041920Z AUTO 29010KT 7000 -RA BKN006/// BKN017/// OVC022/// 02/02 Q0992=
202202041850 METAR ESMX 041850Z AUTO 27010KT 6000 -RA BKN005/// OVC021/// 03/03 Q0992=
202202041820 METAR ESMX 041820Z AUTO 19010KT 5000 -RA OVC005/// 05/05 Q0992 REDZ=
202202041750 METAR ESMX 041750Z AUTO 18011KT 7000 DZ OVC006/// 05/05 Q0992 REDZ=
202202041720 METAR ESMX 041720Z AUTO 18012KT 9999 DZ OVC006/// 05/05 Q0992=
202202041650 METAR ESMX 041650Z 18011KT 7000 -DZ BKN007 05/05 Q0993=
202202041620 METAR ESMX 041620Z 18012KT 5000 -DZRA OVC005 05/05 Q0993=
202202041550 METAR ESMX 041550Z 18011KT 5000 -DZ OVC005 05/05 Q0994=
202202041520 METAR ESMX 041520Z 18011KT 5000 -RADZ OVC004 05/05 Q0994=
202202041450 METAR ESMX 041450Z 18011KT 5000 -DZRA OVC003 05/05 Q0995=
202202041420 METAR ESMX 041420Z 18011KT 3000 -DZRA OVC002 05/05 Q0995=
202202041350 METAR ESMX 041350Z 18013KT 1500 BR OVC002 05/05 Q0996=
202202041320 METAR ESMX 041320Z 18012KT 4500 BR OVC002 05/05 Q0996=
202202041250 METAR ESMX 041250Z 17011KT 2000 BR OVC002 05/05 Q0996=
202202041220 METAR ESMX 041220Z 18014KT 3000 BR OVC002 04/04 Q0997=
202202041150 METAR ESMX 041150Z 19012KT 5000 BR OVC003 04/04 Q0997=
202202041120 METAR ESMX 041120Z 18012KT 7000 BR OVC003 04/04 Q0998=
202202041050 METAR ESMX 041050Z 17012KT 6000 BR OVC003 04/04 Q0998=
202202041020 METAR ESMX 041020Z 17009KT 140V200 6000 BR OVC003 04/04 Q0999=
202202040950 METAR ESMX 040950Z 18011KT 5000 BR OVC002 04/04 Q0999=
202202040920 METAR ESMX 040920Z 17010KT 6000 BR OVC002 04/04 Q1000=
202202040850 METAR ESMX 040850Z 18010KT 4500 BR OVC002 04/04 Q1000=
202202040820 METAR ESMX 040820Z 17007KT 2800 BR OVC002 04/04 Q1000=
202202040750 METAR ESMX 040750Z 18010KT 2500 BR OVC002 03/03 Q1001=
202202040720 METAR ESMX 040720Z 20009KT 3400 BR OVC002 03/03 Q1001=
202202040650 METAR COR ESMX 040650Z 20010KT 2100 BR OVC002 03/03 Q1001=
202202040620 METAR ESMX 040620Z AUTO 19009KT 0800 R01/1900N R19/P2000N FG OVC001/// 03/03 Q1001=
202202040550 METAR ESMX 040550Z AUTO 17007KT 0400 R01/1100N R19/1300N FG OVC001/// 03/03 Q1001=
202202040520 METAR ESMX 040520Z AUTO 20006KT 0650 R01/P2000D R19/P2000N FG OVC001/// 03/03 Q1001=
202202040450 METAR ESMX 040450Z AUTO 20006KT 1000 R01/P2000N R19/P2000N FG OVC001/// 03/03 Q1002=
202202040420 METAR ESMX 040420Z AUTO 22007KT 1500 OVC001/// 03/03 Q1002=
202202040350 METAR ESMX 040350Z AUTO 19007KT 2100 OVC001/// 03/03 Q1002 REDZ REUP=
202202040320 METAR ESMX 040320Z AUTO 19008KT 0300 R01/0900N R19/1100D FG OVC001/// 03/03 Q1002=
202202040250 METAR ESMX 040250Z AUTO 21008KT 0450 R01/1200U R19/1200N FG OVC001/// 03/03 Q1002=
202202040220 METAR ESMX 040220Z 19008KT 0650 R01/1600N R19/1700U FG VV002 03/03 Q1002=
202202040150 METAR ESMX 040150Z 19006KT 0250 R01/0800N R19/0800N FG VV002 02/02 Q1002=
202202040120 METAR ESMX 040120Z 17006KT 0350 R01/1000N R19/1000N FG VV003 02/02 Q1003=
202202040050 METAR ESMX 040050Z 17006KT 0400 R01/1100N R19/1300D DZ OVC002 03/03 Q1003=
202202040020 METAR ESMX 040020Z 17005KT 0800 R01/P2000N R19/P2000N DZ OVC002 02/02 Q1003=
202202032350 METAR ESMX 032350Z 17005KT 2000 DZ OVC002 02/02 Q1003=
202202032320 METAR ESMX 032320Z AUTO 17005KT 4600 DZ OVC001/// 02/02 Q1003=
202202032250 METAR ESMX 032250Z AUTO 16006KT 3600 -RA OVC001/// 02/02 Q1003=
202202032220 METAR ESMX 032220Z AUTO 16006KT 4900 -RA OVC002/// 02/02 Q1004=
202202032150 METAR ESMX 032150Z AUTO 15007KT 6000 -RA OVC002/// 02/02 Q1004 REDZ=
202202032120 METAR ESMX 032120Z AUTO 15007KT 6000 DZ OVC002/// 02/02 Q1004 REDZ=
202202032050 METAR ESMX 032050Z AUTO 15008KT 5000 DZ OVC002/// 02/02 Q1004=
202202032020 METAR ESMX 032020Z AUTO 14007KT 110V170 2500 -RA OVC001/// 02/02 Q1004=
202202031950 METAR ESMX 031950Z AUTO 14007KT 110V170 3300 -RA OVC001/// 01/01 Q1004=
202202031920 METAR ESMX 031920Z AUTO 14007KT 100V160 4900 -RA OVC002/// 01/01 Q1005=
202202031850 METAR ESMX 031850Z AUTO 13007KT 100V160 9999 -RA OVC003/// 01/01 Q1005=
202202031820 METAR ESMX 031820Z AUTO 14006KT 3600 -RASN OVC003/// 01/01 Q1005=
202202031750 METAR ESMX 031750Z AUTO 14007KT 8000 -RASN OVC003/// 01/01 Q1005=
202202031720 METAR ESMX 031720Z AUTO 14007KT 110V170 4600 -RASN OVC003/// 01/01 Q1006=
202202031650 METAR ESMX 031650Z AUTO 13005KT 090V170 4500 -PL OVC003/// 01/01 Q1006=
202202031620 METAR ESMX 031620Z AUTO 13005KT 080V180 4700 -RA OVC003/// 01/01 Q1006=
202202031550 METAR ESMX 031550Z AUTO 13005KT 6000 -RA OVC003/// 01/01 Q1006=
202202031520 METAR ESMX 031520Z AUTO 13006KT 5000 -SN OVC002/// 01/01 Q1006=
202202031450 METAR ESMX 031450Z 14005KT 3000 -SN VV002 01/01 Q1007=
202202031420 METAR ESMX 031420Z 12004KT 2500 -RASN OVC002 01/01 Q1007=
202202031350 METAR ESMX 031350Z 13004KT 3500 -RASN OVC002 01/01 Q1008=
202202031320 METAR ESMX 031320Z 14004KT 4000 -RASN OVC002 01/01 Q1008=
202202031250 METAR ESMX 031250Z 18004KT 2000 -RASN VV002 01/01 Q1009=
202202031220 METAR ESMX 031220Z 13003KT 080V170 0900 R19/1200D FG VV002 01/01 Q1009=
202202031150 METAR ESMX 031150Z 13004KT 080V170 1500 R19/P2000N BR VV002 01/01 Q1009=
202202031120 METAR ESMX 031120Z 15004KT 110V190 1000 R01/1300D R19/1600N BR OVC002 00/00 Q1009=
202202031050 METAR ESMX 031050Z 17002KT 0900 R01/P2000N R19/1000U FG OVC003 00/00 Q1010=
202202031020 METAR COR ESMX 031020Z 20002KT 0500 R01/0650N R19/0550D FG VV003 00/00 Q1010=
202202030950 METAR ESMX 030950Z 20002KT 0250 R01/0400N R19/0375N FG VV002 00/00 Q1010=
202202030920 METAR ESMX 030920Z 20003KT 0250 R01/0450N R19/0450N FG VV002 00/00 Q1010=
202202030850 METAR ESMX 030850Z 20003KT 0250 R01/0450N R19/0450N FG OVC002 M00/M00 Q1010=
202202030820 METAR ESMX 030820Z 20004KT 0300 R01/0550N R19/0550N FG OVC002 M00/M00 Q1010=
202202030750 METAR ESMX 030750Z 20004KT 0350 R01/0650N R19/0750N FG OVC002 M01/M01 Q1010=
202202030720 METAR ESMX 030720Z 20003KT 3000 BR OVC002 M01/M01 Q1010=
202202030650 METAR ESMX 030650Z AUTO 20003KT 2200 BR OVC001/// M01/M01 Q1010=
202202030620 METAR ESMX 030620Z AUTO 21004KT 1800 BR OVC001/// M01/M01 Q1010 REUP RESHUP REFZUP=
202202030550 METAR ESMX 030550Z AUTO 21004KT 6000 BR OVC002/// M01/M01 Q1010=
202202030520 METAR ESMX 030520Z AUTO 22003KT 2500 -FZDZ BKN002/// OVC004/// M02/M02 Q1010 RESHUP=
202202030450 METAR ESMX 030450Z AUTO 22001KT 4200 FZUP OVC002/// M03/M03 Q1010 RESN=
202202030420 METAR ESMX 030420Z AUTO 00000KT 9999 OVC003/// M04/M04 Q1010 RESHUP=
202202030350 METAR ESMX 030350Z AUTO 22003KT 4900 FZUP OVC005/// M04/M04 Q1010 RESG=
202202030320 METAR ESMX 030320Z AUTO 00000KT 9999 SG OVC007/// M05/M05 Q1010=
202202030250 METAR ESMX 030250Z AUTO 22003KT 9999 SCT007/// OVC061/// M05/M05 Q1010=
202202030220 METAR ESMX 030220Z 22003KT CAVOK M05/M05 Q1010=
202202030150 METAR ESMX 030150Z 22003KT CAVOK M06/M06 Q1010=
202202030120 METAR ESMX 030120Z 22003KT 4500 R01/P2000N R19/P2000N BCFG SCT076 M05/M06 Q1010=
202202030050 METAR ESMX 030050Z 22004KT CAVOK M05/M05 Q1010=
202202030020 METAR ESMX 030020Z 22004KT CAVOK M06/M06 Q1010=
202202022350 METAR ESMX 022350Z 22003KT 9999 FEW034 M05/M05 Q1010=
202202022320 METAR ESMX 022320Z 22003KT CAVOK M05/M05 Q1010=
202202022250 METAR ESMX 022250Z AUTO 22004KT 9999 FEW024/// M05/M05 Q1010=
202202022220 METAR ESMX 022220Z AUTO 22004KT 9999 SCT009/// BKN020/// M04/M05 Q1010=
202202022150 METAR ESMX 022150Z AUTO 23004KT 9999 SCT023/// BKN032/// M03/M04 Q1010=
202202022120 METAR ESMX 022120Z AUTO 24003KT 9999 OVC027/// M03/M03 Q1011=
202202022050 METAR ESMX 022050Z AUTO 23003KT 9999 FEW019/// OVC028/// M03/M04 Q1010=
202202022020 METAR ESMX 022020Z AUTO 23004KT 9999 BKN023/// OVC028/// M03/M04 Q1010=
202202021950 METAR ESMX 021950Z AUTO 27005KT 9999 OVC018/// M02/M04 Q1010=
202202021920 METAR ESMX 021920Z AUTO 24006KT 9999 OVC014/// M03/M03 Q1010=
202202021850 METAR ESMX 021850Z AUTO 24004KT 9999 OVC016/// M03/M03 Q1010=
202202021820 METAR ESMX 021820Z AUTO 24003KT 9999 OVC019/// M03/M04 Q1010=
202202021750 METAR ESMX 021750Z AUTO 24004KT 9999 SCT022/// M03/M04 Q1009=
202202021720 METAR ESMX 021720Z AUTO 24003KT 9999 FEW015/// OVC021/// M02/M03 Q1009=
202202021650 METAR ESMX 021650Z 25003KT 9999 BKN023 M02/M03 Q1009=
202202021620 METAR ESMX 021620Z 27003KT 9999 BKN017 M02/M03 Q1009=
202202021550 METAR ESMX 021550Z 28003KT 9999 SCT010 BKN017 M02/M03 Q1008=
202202021520 METAR ESMX 021520Z 29003KT 9999 BKN012 M02/M03 Q1008=
202202021450 METAR ESMX 021450Z 29003KT 9999 BKN011 M02/M03 Q1008=
202202021420 METAR ESMX 021420Z 29004KT 9999 BKN010 M02/M04 Q1007=
202202021350 METAR ESMX 021350Z 31003KT 9999 BKN011 M02/M04 Q1006=
202202021320 METAR ESMX 021320Z 32004KT 9999 BKN011 OVC043 M02/M04 Q1006=
202202021250 METAR ESMX 021250Z 34004KT 9999 BKN011 M02/M04 Q1006=
202202021220 METAR ESMX 021220Z 34005KT 9999 BKN012 M02/M04 Q1005=
202202021150 METAR ESMX 021150Z 36005KT 9999 BKN011 M02/M04 Q1005=
202202021120 METAR ESMX 021120Z 35005KT 9999 BKN010 M02/M03 Q1004=
202202021050 METAR ESMX 021050Z 01005KT 9999 -SN SCT010 BKN018 M02/M03 Q1004=
202202021020 METAR ESMX 021020Z 01006KT 9999 -SN SCT010 BKN014 M02/M03 Q1003=
202202020950 METAR ESMX 020950Z 01006KT 9999 BKN011 M02/M03 Q1002=
202202020920 METAR ESMX 020920Z 01006KT 9999 -SN BKN012 M02/M03 Q1001=
202202020850 METAR ESMX 020850Z 02006KT 9999 BKN012 M02/M02 Q1001=
202202020820 METAR ESMX 020820Z 01007KT 9999 BKN011 M02/M02 Q1000=
202202020750 METAR ESMX 020750Z 01007KT 9999 BKN008 M02/M02 Q1000=
202202020720 METAR ESMX 020720Z 36006KT 9999 BKN009 M02/M02 Q0999=
202202020650 METAR ESMX 020650Z AUTO 01005KT 9999 OVC010/// M02/M03 Q0998=
202202020620 METAR ESMX 020620Z AUTO 36005KT 9999 OVC011/// M03/M03 Q0997=
202202020550 METAR ESMX 020550Z AUTO 36004KT 9999 SCT011/// OVC080/// M04/M04 Q0996 RESG=
202202020520 METAR ESMX 020520Z AUTO 02005KT 9999 SG BKN010/// BKN041/// OVC082/// M03/M03 Q0996=
202202020450 METAR ESMX 020450Z AUTO 01004KT 9999 -SN OVC039/// M03/M03 Q0995=
202202020420 METAR ESMX 020420Z AUTO 01004KT 9000 -SN SCT011/// BKN039/// OVC072/// M03/M03 Q0995=
202202020350 METAR ESMX 020350Z AUTO 01004KT 6000 -SN FEW004/// SCT031/// OVC076/// M03/M03 Q0994=
202202020320 METAR ESMX 020320Z AUTO 01004KT 4100 -SN ///042 M03/M03 Q0994=
202202020250 METAR ESMX 020250Z 01003KT 1900 SN VV018 M02/M03 Q0993=
202202020220 METAR ESMX 020220Z 01003KT 1500 -SN VV020 M02/M02 Q0993=
202202020150 METAR ESMX 020150Z 01003KT 0700 R01/P2000N R19/1800D SN VV009 M02/M02 Q0992=
202202020120 METAR ESMX 020120Z 02004KT 1900 -SN VV018 M02/M02 Q0992=
202202020050 METAR ESMX 020050Z 01004KT 1100 R01/P2000N R19/P2000N SN VV016 M02/M02 Q0992=
202202020020 METAR ESMX 020020Z 01004KT 0550 R01/P2000N R19/P2000N SN VV014 M02/M02 Q0991=
202202012350 METAR ESMX 012350Z 03002KT 9999 -SN OVC007 M02/M03 Q0991=
202202012320 METAR ESMX 012320Z AUTO 03002KT 9999 OVC008/// M02/M03 Q0991 REFZUP=
202202012250 METAR ESMX 012250Z AUTO 04003KT 9999 OVC008/// M02/M03 Q0990=
202202012220 METAR ESMX 012220Z AUTO 03004KT 9999 BKN009/// OVC018/// M02/M03 Q0990=
202202012150 METAR ESMX 012150Z AUTO 04005KT 9999 BKN016/// OVC020/// M02/M03 Q0990 REFZUP=
202202012120 METAR ESMX 012120Z AUTO 08003KT 040V120 9999 FZUP FEW010/// BKN016/// OVC022/// M02/M03 Q0989 REFZUP=
202202012050 METAR ESMX 012050Z AUTO 05004KT 020V100 9999 OVC009/// M02/M02 Q0990=
202202012020 METAR ESMX 012020Z AUTO 05005KT 020V080 9999 OVC009/// M02/M02 Q0989=
202202011950 METAR ESMX 011950Z AUTO 04005KT 010V070 9999 BKN009/// OVC019/// M02/M02 Q0989 REFZUP=
202202011920 METAR ESMX 011920Z AUTO 05005KT 020V080 7000 FZUP BKN008/// BKN025/// OVC029/// M02/M02 Q0988=
202202011850 METAR ESMX 011850Z AUTO 05005KT 2000 -SN FEW002/// SCT006/// BKN016/// M02/M02 Q0988 REFZUP=
202202011820 METAR ESMX 011820Z AUTO 06004KT 020V110 5000 -FZDZ BKN007/// OVC009/// M02/M02 Q0988 REFZUP=
202202011750 METAR ESMX 011750Z AUTO 07004KT 030V110 3300 FZUP BKN007/// OVC027/// M02/M02 Q0988=
202202011720 METAR ESMX 011720Z AUTO 07005KT 030V110 3500 -SN SCT007/// BKN024/// OVC031/// M02/M02 Q0988=
202202011650 METAR ESMX 011650Z AUTO 08004KT 040V120 1700 -SN ///023 M02/M02 Q0988=
202202011620 METAR ESMX 011620Z AUTO 10004KT 030V130 1200 R01/P2000N R19/P2000N -SN VV018 M02/M02 Q0989=
202202011550 METAR ESMX 011550Z AUTO 09004KT 050V120 1600 -SN VV018 M02/M02 Q0989=
202202011520 METAR ESMX 011520Z AUTO 09003KT 1200 R01/P2000N R19/1900N -SN VV011 M01/M02 Q0990=
202202011450 METAR ESMX 011450Z AUTO 11003KT 1300 R01/1700N R19/1700N -SN VV014 M01/M02 Q0990=
202202011420 METAR ESMX 011420Z 19002KT 1100 R01/1400N R19/1400U SN OVC016 M01/M01 Q0991=
202202011350 METAR ESMX 011350Z 19004KT 2200 -SN OVC023 M01/M02 Q0992=
202202011320 METAR ESMX 011320Z 19006KT 5000 -SN OVC037 M00/M01 Q0993=
202202011250 METAR ESMX 011250Z 19006KT 9999 BKN033 M00/M02 Q0993=
202202011220 METAR ESMX 011220Z 20005KT 6000 -SN OVC038 M00/M02 Q0994=
