##########################################################
# Query made at 04/19/2024 22:23:54 UTC
# Time interval: from 01/01/2022 12:00  to 01/31/2022 12:59  UTC
##########################################################

##########################################################
# ESMX, Vaxjo (Sweden)
# WMO index: 02641. WIGOS ID: 0-20000-0-02648
# Latitude 56-51N. Longitude 014-50E. Altitude 199 m.
##########################################################

202201311250 METAR ESMX 311250Z 36005KT CAVOK M00/M07 Q1004=
202201311220 METAR ESMX 311220Z 36006KT CAVOK M00/M06 Q1004=
202201311150 METAR ESMX 311150Z 01005KT CAVOK M01/M07 Q1004=
202201311120 METAR ESMX 311120Z 02005KT CAVOK M02/M07 Q1004=
202201311050 METAR ESMX 311050Z 01007KT CAVOK M02/M06 Q1004=
202201311020 METAR ESMX 311020Z 36008KT CAVOK M02/M06 Q1004=
202201310950 METAR COR ESMX 310950Z 02006KT CAVOK M02/M06 Q1003=
202201310920 METAR ESMX 310920Z AUTO 01006KT 9999 NCD M03/M06 Q1003=
202201310850 METAR COR ESMX 310850Z 35004KT CAVOK M03/M06 Q1003=
202201310820 METAR ESMX 310820Z 32003KT CAVOK M06/M07 Q1003=
202201310750 METAR ESMX 310750Z 29003KT CAVOK M07/M08 Q1003=
202201310720 METAR ESMX 310720Z 00000KT CAVOK M06/M07 Q1003=
202201310650 METAR COR ESMX 310650Z 31002KT CAVOK M07/M08 Q1003=
202201310620 METAR ESMX 310620Z AUTO 31004KT 4900 BR NCD M07/M08 Q1004=
202201310550 METAR ESMX 310550Z AUTO 00000KT 9999 NCD M06/M07 Q1004=
202201310520 METAR ESMX 310520Z AUTO 00000KT 9999 NCD M05/M07 Q1004=
202201310450 METAR ESMX 310450Z AUTO 32002KT 9999 NCD M05/M07 Q1004=
202201310420 METAR ESMX 310420Z AUTO 30004KT 9999 NCD M05/M08 Q1005=
202201310350 METAR ESMX 310350Z AUTO 27004KT 9999 NCD M05/M08 Q1005=
202201310320 METAR ESMX 310320Z AUTO 28004KT 9999 NCD M04/M08 Q1005=
202201310250 METAR ESMX 310250Z AUTO 27004KT 9999 NCD M05/M08 Q1005=
202201310220 METAR ESMX 310220Z AUTO 34003KT 9999 NCD M04/M07 Q1005=
202201310150 METAR ESMX 310150Z AUTO 29003KT 9999 NCD M04/M08 Q1006=
202201310120 METAR ESMX 310120Z AUTO 28005KT 9999 NCD M04/M08 Q1006=
202201310050 METAR ESMX 310050Z AUTO 28005KT 9999 NCD M03/M08 Q1007=
202201310020 METAR ESMX 310020Z AUTO 28005KT 9999 NCD M03/M08 Q1007=
202201302350 METAR ESMX 302350Z AUTO 27005KT 9999 NCD M03/M08 Q1007=
202201302320 METAR ESMX 302320Z AUTO 30006KT 9999 NCD M02/M07 Q1007=
202201302250 METAR ESMX 302250Z AUTO 29006KT 9999 NCD M02/M08 Q1007=
202201302220 METAR ESMX 302220Z AUTO 30009KT 9999 NCD M01/M07 Q1007=
202201302150 METAR ESMX 302150Z AUTO 31008KT 9999 NCD M01/M08 Q1008=
202201302120 METAR ESMX 302120Z AUTO 30007KT 9999 NCD M01/M08 Q1008=
202201302050 METAR ESMX 302050Z AUTO 31008KT 9999 NCD M01/M08 Q1008=
202201302020 METAR ESMX 302020Z AUTO 31010KT 9999 NCD M00/M08 Q1008=
202201301950 METAR ESMX 301950Z AUTO 31011KT 9999 NCD 01/M08 Q1008=
202201301920 METAR ESMX 301920Z 31013KT CAVOK 01/M07 Q1008=
202201301850 METAR ESMX 301850Z 31013KT CAVOK 02/M07 Q1008=
202201301820 METAR ESMX 301820Z 31012KT CAVOK 02/M07 Q1008=
202201301750 METAR ESMX 301750Z 33011KT CAVOK 03/M07 Q1008=
202201301720 METAR ESMX 301720Z AUTO 32013KT 9999 SCT059/// 03/M07 Q1007=
202201301650 METAR ESMX 301650Z 32014G26KT 280V350 CAVOK 03/M07 Q1007=
202201301620 METAR ESMX 301620Z AUTO 32015G29KT 9999 OVC059/// 04/M06 Q1007=
202201301550 METAR ESMX 301550Z AUTO 32015KT 290V350 9999 OVC061/// 04/M07 Q1006=
202201301520 METAR ESMX 301520Z AUTO 32020G31KT 9999 OVC059/// 04/M06 Q1005=
202201301450 METAR ESMX 301450Z AUTO 32016G30KT 290V350 9999 OVC057/// 04/M06 Q1005=
202201301420 METAR ESMX 301420Z AUTO 32020G31KT 9999 OVC057/// 04/M06 Q1004=
202201301350 METAR ESMX 301350Z AUTO 32019G33KT 9999 OVC059/// 05/M07 Q1003=
202201301320 METAR ESMX 301320Z 32019G30KT 300V010 CAVOK 05/M06 Q1003=
202201301250 METAR ESMX 301250Z 32023G37KT CAVOK 05/M06 Q1002=
202201301220 METAR COR ESMX 301220Z 33021G34KT CAVOK 05/M05 Q1001=
202201301150 METAR ESMX 301150Z 32021G38KT 290V350 CAVOK 05/M04 Q1001=
202201301120 METAR ESMX 301120Z 32020G34KT 290V350 9999 BKN047 06/M03 Q1000=
202201301050 METAR ESMX 301050Z 32023G37KT 9999 -RA SCT039 BKN051 05/M02 Q0999=
202201301020 METAR ESMX 301020Z 32019G29KT 9999 -RA BKN046 05/M03 Q0998=
202201300950 METAR ESMX 300950Z 32020KT 290V350 9999 BKN045 05/M02 Q0997=
202201300920 METAR ESMX 300920Z 32020G32KT CAVOK 05/M02 Q0996=
202201300850 METAR ESMX 300850Z 31018G28KT 9999 BKN045 04/M01 Q0995=
202201300820 METAR ESMX 300820Z 31018G28KT 290V350 9999 BKN045 04/M01 Q0994=
202201300750 METAR ESMX 300750Z 31016KT 280V340 9999 BKN045 03/M00 Q0993=
202201300720 METAR ESMX 300720Z 31018G30KT 9999 -RA FEW016 BKN034 02/01 Q0992=
202201300650 METAR ESMX 300650Z 31018G30KT 9999 -RA FEW010 OVC025 02/01 Q0991=
202201300620 METAR ESMX 300620Z AUTO 31019KT 6000 -RASN FEW012/// OVC020/// 02/01 Q0989=
202201300550 METAR ESMX 300550Z AUTO 31018G29KT 9999 -RA ///024 02/00 Q0988=
202201300520 METAR ESMX 300520Z AUTO 31022G33KT 9000 -RA ///030 02/M00 Q0987=
202201300450 METAR ESMX 300450Z AUTO 31023G37KT 5000 -SN ///031 02/M01 Q0986=
202201300420 METAR ESMX 300420Z AUTO 31022KT 280V350 9999 -RASN BKN040/// OVC051/// 03/M03 Q0985 RERA=
202201300350 METAR ESMX 300350Z AUTO 30020G35KT 270V340 9999 FEW037/// OVC051/// 03/M03 Q0984=
202201300320 METAR ESMX 300320Z AUTO 30022G36KT 270V330 9999 -DZ OVC047/// 03/M03 Q0983 REUP=
202201300250 METAR ESMX 300250Z AUTO 29017KT 9999 OVC053/// 03/M03 Q0982=
202201300220 METAR ESMX 300220Z AUTO 28018G31KT 250V320 9999 SCT066/// 03/M04 Q0982=
202201300150 METAR ESMX 300150Z AUTO 29020G32KT 240V320 9999 NCD 03/M05 Q0981=
202201300120 METAR ESMX 300120Z AUTO 29021G35KT 9999 FEW046/// 04/M05 Q0981 RERA=
202201300020 METAR ESMX 300020Z AUTO 29020G31KT 250V320 9999 -RA FEW029/// BKN042/// OVC074/// 03/M02 Q0981 RESHUP=
202201292350 METAR ESMX 292350Z 28018G30KT 250V320 9999 -RA FEW014 BKN025 03/M00 Q0980=
202201292320 METAR COR ESMX 292320Z 29024G42KT 250V340 9999 -RA FEW021 BKN032 02/M01 Q0980=
202201292250 METAR ESMX 292250Z AUTO 27018G29KT 9999 BKN033/// 04/00 Q0980=
202201292220 METAR ESMX 292220Z AUTO 27017KT 9999 FEW029/// 04/00 Q0980=
202201292150 METAR ESMX 292150Z AUTO 27018KT 9999 SCT030/// 04/01 Q0980=
202201292120 METAR ESMX 292120Z AUTO 27020G33KT 230V290 9999 SCT031/// 04/01 Q0980=
202201292050 METAR ESMX 292050Z AUTO 27021G37KT 9999 BKN030/// BKN041/// 04/01 Q0979=
202201292020 METAR ESMX 292020Z AUTO 26020G35KT 9999 SCT026/// BKN034/// OVC061/// 05/02 Q0978=
202201291950 METAR ESMX 291950Z AUTO 26022G34KT 9999 FEW014/// BKN020/// OVC032/// 05/03 Q0978=
202201291920 METAR ESMX 291920Z AUTO 26019G31KT 230V290 6000 -RA FEW008/// SCT012/// BKN018/// 05/05 Q0977=
202201291850 METAR ESMX 291850Z AUTO 24018G31KT 3700 DZ VV017 06/05 Q0977=
202201291820 METAR ESMX 291820Z AUTO 25017G28KT 6000 BR FEW005/// BKN010/// BKN012/// 06/05 Q0977=
202201291750 METAR ESMX 291750Z AUTO 24018G30KT 5000 -DZ VV017 06/05 Q0978=
202201291720 METAR ESMX 291720Z AUTO 24016G30KT 9000 -RA SCT011/// BKN015/// BKN022/// 06/05 Q0980=
202201291650 METAR ESMX 291650Z AUTO 25020G33KT 220V280 6000 -RA SCT012/// OVC022/// 06/06 Q0980=
202201291620 METAR ESMX 291620Z AUTO 24018G32KT 9999 -DZ SCT011/// BKN015/// OVC022/// 07/06 Q0981 REDZ=
202201291550 METAR ESMX 291550Z AUTO 23017G29KT 210V270 6000 DZ SCT006/// BKN009/// OVC014/// 07/06 Q0982=
202201291520 METAR ESMX 291520Z AUTO 23018G31KT 6000 DZ BKN008/// OVC010/// 07/07 Q0984 RERA=
202201291450 METAR ESMX 291450Z AUTO 23017G35KT 9000 BKN006/// OVC008/// 07/07 Q0985=
202201291420 METAR ESMX 291420Z AUTO 23021G36KT 4400 -DZ OVC005/// 07/07 Q0987 RERA=
202201291350 METAR ESMX 291350Z AUTO 23017KT 4400 BR OVC004/// 07/07 Q0988=
202201291320 METAR ESMX 291320Z AUTO 23016KT 3600 -DZ OVC004/// 07/07 Q0989 REUP=
202201291250 METAR ESMX 291250Z AUTO 23015G29KT 7000 BR OVC005/// 07/07 Q0991=
202201291220 METAR ESMX 291220Z AUTO 23014KT 9999 OVC005/// 07/07 Q0992=
202201291150 METAR ESMX 291150Z AUTO 23014KT 8000 BR OVC004/// 07/07 Q0993=
202201291120 METAR ESMX 291120Z AUTO 22012KT 4000 BR OVC003/// 06/06 Q0994=
202201291050 METAR ESMX 291050Z AUTO 22012KT 3200 -DZ OVC002/// 05/05 Q0995=
202201291020 METAR ESMX 291020Z AUTO 21013KT 2300 DZ OVC002/// 05/05 Q0996 REDZ=
202201290950 METAR ESMX 290950Z AUTO 21013KT 2400 -DZ OVC002/// 04/04 Q0997=
202201290920 METAR ESMX 290920Z AUTO 21013KT 2700 DZ OVC002/// 04/04 Q0998 RERA REDZ=
202201290850 METAR ESMX 290850Z AUTO 21013KT 3600 BR OVC002/// 03/03 Q0999=
202201290820 METAR ESMX 290820Z AUTO 20013KT 2200 -RA OVC002/// 03/03 Q1000=
202201290750 METAR ESMX 290750Z AUTO 19013KT 2500 -RA OVC002/// 03/03 Q1001 REDZ=
202201290720 METAR ESMX 290720Z AUTO 20012KT 2200 DZ OVC002/// 02/02 Q1002 REDZ=
202201290650 METAR ESMX 290650Z AUTO 20013KT 2400 -DZ OVC002/// 02/02 Q1003=
202201290620 METAR ESMX 290620Z AUTO 19014KT 3500 -DZ OVC003/// 02/02 Q1004 RESHUP REDZ=
202201290550 METAR ESMX 290550Z AUTO 20014KT 9000 BR OVC004/// 02/02 Q1005=
202201290520 METAR ESMX 290520Z AUTO 19015KT 9000 -DZ OVC005/// 02/01 Q1006 RERA=
202201290450 METAR ESMX 290450Z AUTO 20014KT 9999 OVC006/// 02/01 Q1007=
202201290420 METAR ESMX 290420Z AUTO 20013KT 9999 -DZ OVC006/// 01/01 Q1007 RESHUP RESN=
202201290350 METAR ESMX 290350Z AUTO 19012KT 9999 OVC007/// 01/01 Q1008=
202201290320 METAR ESMX 290320Z AUTO 20011KT 9000 UP BKN008/// OVC010/// 01/00 Q1010=
202201290250 METAR ESMX 290250Z AUTO 20010KT 9999 -SN BKN009/// OVC013/// 01/00 Q1010 RESHUP RESN=
202201290220 METAR ESMX 290220Z AUTO 20009KT 9999 OVC009/// 01/00 Q1012=
202201290150 METAR ESMX 290150Z AUTO 22010KT 8000 -SN BKN009/// BKN042/// OVC057/// 01/00 Q1013 REUP=
202201290120 METAR ESMX 290120Z AUTO 22009KT 9999 FEW010/// SCT072/// OVC092/// 01/M00 Q1014=
202201290050 METAR ESMX 290050Z AUTO 22009KT 9999 BKN094/// OVC110/// 00/M01 Q1014=
202201290020 METAR ESMX 290020Z AUTO 22009KT 9999 FEW110/// 00/M01 Q1015=
202201282350 METAR ESMX 282350Z AUTO 22008KT 9999 FEW061/// 00/M01 Q1016=
202201282320 METAR ESMX 282320Z AUTO 22007KT 9999 FEW072/// 00/M01 Q1017=
202201282250 METAR ESMX 282250Z AUTO 22008KT 9999 SCT080/// M00/M02 Q1017=
202201282220 METAR ESMX 282220Z AUTO 22008KT 9999 FEW090/// M00/M02 Q1018=
202201282150 METAR ESMX 282150Z AUTO 22008KT 9999 NCD M00/M02 Q1018=
202201282120 METAR ESMX 282120Z AUTO 22007KT 9999 NCD M01/M04 Q1019=
202201282050 METAR ESMX 282050Z AUTO 22005KT 9999 SCT110/// M02/M06 Q1019=
202201282020 METAR ESMX 282020Z AUTO 22005KT 9999 OVC120/// M02/M06 Q1020=
202201281950 METAR ESMX 281950Z AUTO 22005KT 9999 OVC120/// M02/M06 Q1020=
202201281920 METAR ESMX 281920Z AUTO 23006KT 9999 FEW130/// M02/M06 Q1021=
202201281850 METAR ESMX 281850Z AUTO 23006KT 9999 NCD M02/M06 Q1021=
202201281820 METAR ESMX 281820Z AUTO 24004KT 9999 NCD M03/M07 Q1021=
202201281750 METAR ESMX 281750Z AUTO 24004KT 9999 NCD M02/M07 Q1021=
202201281720 METAR ESMX 281720Z AUTO 24004KT 9999 NCD M02/M07 Q1021=
202201281650 METAR ESMX 281650Z 25005KT CAVOK M01/M07 Q1021=
202201281620 METAR ESMX 281620Z AUTO 30005KT 9999 NCD M01/M07 Q1021=
202201281550 METAR COR ESMX 281550Z 29005KT CAVOK 00/M07 Q1021=
202201281520 METAR ESMX 281520Z AUTO 30007KT 9999 NCD 01/M07 Q1021=
202201281450 METAR ESMX 281450Z AUTO 30008KT 9999 NCD 02/M07 Q1021=
202201281420 METAR ESMX 281420Z AUTO 31009KT 9999 NCD 03/M07 Q1020=
202201281350 METAR ESMX 281350Z 32011KT CAVOK 03/M07 Q1020=
202201281320 METAR ESMX 281320Z 33010KT CAVOK 03/M07 Q1020=
202201281250 METAR ESMX 281250Z 33012KT CAVOK 03/M07 Q1019=
202201281220 METAR COR ESMX 281220Z 34013KT CAVOK 03/M07 Q1019=
202201281150 METAR ESMX 281150Z 34014KT CAVOK 03/M06 Q1019=
202201281120 METAR ESMX 281120Z 34017KT CAVOK 03/M07 Q1018=
202201281050 METAR ESMX 281050Z 33015G25KT 300V010 CAVOK 03/M06 Q1018=
202201281020 METAR ESMX 281020Z 33013KT CAVOK 02/M06 Q1017=
202201280950 METAR ESMX 280950Z 33015G26KT CAVOK 02/M05 Q1017=
202201280920 METAR ESMX 280920Z 33015KT CAVOK 02/M05 Q1016=
202201280850 METAR ESMX 280850Z 32012KT 290V360 CAVOK 02/M05 Q1015=
202201280820 METAR ESMX 280820Z 33013KT CAVOK 01/M04 Q1015=
202201280750 METAR ESMX 280750Z 32012KT CAVOK 01/M04 Q1014=
202201280720 METAR ESMX 280720Z 32014KT CAVOK 01/M04 Q1013=
202201280650 METAR ESMX 280650Z AUTO 32012KT 9999 NCD 01/M03 Q1012=
202201280620 METAR ESMX 280620Z AUTO 32013KT 9999 NCD 01/M02 Q1011=
202201280550 METAR ESMX 280550Z AUTO 31010KT 9999 NCD 01/M00 Q1011=
202201280520 METAR ESMX 280520Z AUTO 34012KT 9999 NCD 02/M00 Q1009=
202201280450 METAR ESMX 280450Z AUTO 34012KT 9999 BKN015/// 02/00 Q1009=
202201280420 METAR ESMX 280420Z AUTO 33014KT 9999 SCT018/// 02/00 Q1008=
202201280350 METAR ESMX 280350Z AUTO 33012KT 9999 SCT017/// 02/00 Q1007=
202201280320 METAR ESMX 280320Z AUTO 32012KT 9999 SCT016/// 02/00 Q1006=
202201280250 METAR ESMX 280250Z AUTO 34014G25KT 300V020 9999 OVC016/// 02/00 Q1005=
202201280220 METAR ESMX 280220Z AUTO 33014G25KT 300V010 9999 OVC015/// 02/00 Q1004=
202201280150 METAR ESMX 280150Z AUTO 33014KT 9999 OVC013/// 02/01 Q1003=
202201280120 METAR ESMX 280120Z AUTO 33013KT 9999 -RA BKN011/// OVC017/// 02/01 Q1002 RESHUP REUP=
202201280050 METAR ESMX 280050Z AUTO 33014KT 9999 OVC013/// 03/01 Q1001=
202201280020 METAR ESMX 280020Z AUTO 33015KT 9999 OVC012/// 02/01 Q1000=
202201272350 METAR ESMX 272350Z AUTO 33013KT 9999 OVC011/// 02/01 Q0999=
202201272320 METAR ESMX 272320Z AUTO 32013KT 9999 OVC011/// 03/01 Q0999=
202201272250 METAR ESMX 272250Z AUTO 32015KT 9999 OVC010/// 02/01 Q0997=
202201272220 METAR ESMX 272220Z AUTO 31014G25KT 9999 -DZ BKN011/// OVC013/// 03/01 Q0997 RESHUP REDZ=
202201272150 METAR ESMX 272150Z AUTO 31014KT 9999 OVC011/// 03/02 Q0996=
202201272120 METAR ESMX 272120Z AUTO 31013KT 9999 BKN013/// OVC017/// 03/02 Q0995 REUP REDZ=
202201272050 METAR ESMX 272050Z AUTO 30013KT 9999 OVC013/// 04/02 Q0994=
202201272020 METAR ESMX 272020Z AUTO 30012KT 270V330 9999 OVC011/// 04/03 Q0993=
202201271950 METAR ESMX 271950Z AUTO 29009KT 250V320 9999 BKN010/// OVC014/// 04/03 Q0992 RESHUP REUP=
202201271920 METAR ESMX 271920Z AUTO 27011KT 9999 SCT010/// BKN013/// OVC029/// 04/03 Q0992=
202201271850 METAR ESMX 271850Z AUTO 27010KT 9999 BKN009/// OVC012/// 04/03 Q0991=
202201271820 METAR ESMX 271820Z AUTO 26011KT 8000 -DZ SCT009/// BKN012/// BKN032/// 04/03 Q0991=
202201271750 METAR ESMX 271750Z AUTO 26011KT 9999 DZ BKN008/// OVC015/// 04/03 Q0991 RESHUP REDZ=
202201271720 METAR ESMX 271720Z AUTO 25012KT 9999 BKN009/// OVC011/// 04/03 Q0991=
202201271650 METAR ESMX 271650Z AUTO 26012KT 9999 OVC009/// 04/03 Q0991 RESHUP REDZ=
202201271620 METAR ESMX 271620Z AUTO 26012KT 9999 BKN009/// OVC011/// 04/03 Q0991 REDZ=
202201271550 METAR ESMX 271550Z AUTO 26012KT 220V290 8000 -DZ BKN009/// OVC012/// 04/03 Q0991=
202201271520 METAR ESMX 271520Z AUTO 25012KT 8000 -DZ BKN010/// OVC014/// 04/03 Q0991=
202201271450 METAR ESMX 271450Z 26015KT 9000 -RA BKN013 04/03 Q0991=
202201271420 METAR ESMX 271420Z 26017G28KT 7000 -RA BKN017 04/02 Q0991=
202201271350 METAR ESMX 271350Z 26018G29KT 210V280 9999 BKN017 05/02 Q0991=
202201271320 METAR COR ESMX 271320Z 25019G32KT 9000 -RA BKN016 05/03 Q0991=
202201271250 METAR ESMX 271250Z 26017G28KT 220V280 9999 BKN015 05/03 Q0991=
202201271220 METAR ESMX 271220Z 25018G32KT 9999 BKN011 05/04 Q0991=
202201271150 METAR ESMX 271150Z 23017G33KT 210V270 5000 -RA SCT005 BKN009 05/04 Q0992=
202201271120 METAR COR ESMX 271120Z 23019G32KT 200V260 5000 -RADZ SCT005 BKN009 05/05 Q0992=
202201271050 METAR ESMX 271050Z 24018G30KT 7000 -DZ FEW005 BKN011 06/05 Q0993=
202201271020 METAR ESMX 271020Z 25013G27KT 9999 BKN014 06/05 Q0994=
202201270950 METAR ESMX 270950Z 23016G29KT 200V260 9999 BKN015 06/05 Q0994=
202201270920 METAR ESMX 270920Z 22012KT 9999 SCT012 BKN015 06/05 Q0995=
202201270850 METAR ESMX 270850Z 23012KT 9999 FEW006 BKN009 06/05 Q0995=
202201270820 METAR ESMX 270820Z 23013KT 9000 -RA BKN006 06/05 Q0996=
202201270750 METAR ESMX 270750Z 22011KT 9999 BKN006 05/05 Q0996=
202201270720 METAR ESMX 270720Z 22012KT 9000 -RADZ BKN005 05/05 Q0997=
202201270650 METAR ESMX 270650Z AUTO 23013KT 5000 BR FEW002/// OVC005/// 05/05 Q0998=
202201270620 METAR ESMX 270620Z AUTO 23012KT 4100 -RA OVC005/// 05/05 Q0998 REDZ=
202201270550 METAR ESMX 270550Z AUTO 21012KT 6000 DZ OVC005/// 05/05 Q0999 REUP REDZ=
202201270520 METAR ESMX 270520Z AUTO 23012KT 5000 BR OVC004/// 05/05 Q0999=
202201270450 METAR ESMX 270450Z AUTO 22011KT 9999 OVC005/// 04/04 Q1000 RERA=
202201270420 METAR ESMX 270420Z AUTO 21010KT 9999 OVC005/// 04/04 Q1001 RESHUP=
202201270350 METAR ESMX 270350Z AUTO 21011KT 9000 -RA OVC006/// 04/04 Q1002 REDZ=
202201270320 METAR ESMX 270320Z AUTO 22011KT 7000 DZ OVC006/// 04/04 Q1003=
202201270250 METAR ESMX 270250Z AUTO 22011KT 4100 DZ BKN005/// OVC012/// 04/04 Q1003=
202201270220 METAR ESMX 270220Z AUTO 20010KT 3700 DZ OVC004/// 04/04 Q1004=
202201270150 METAR ESMX 270150Z AUTO 22009KT 4400 DZ SCT005/// BKN008/// OVC011/// 04/04 Q1005=
202201270120 METAR ESMX 270120Z AUTO 22009KT 8000 -RA SCT014/// OVC030/// 04/03 Q1006=
202201270050 METAR ESMX 270050Z AUTO 22010KT 9999 SCT012/// BKN015/// BKN020/// 04/03 Q1006 RESHUP=
202201270020 METAR ESMX 270020Z AUTO 23009KT 9999 BKN014/// OVC018/// 05/03 Q1007 REUP=
202201262350 METAR ESMX 262350Z AUTO 24009KT 9999 OVC014/// 04/03 Q1008=
202201262320 METAR ESMX 262320Z AUTO 24008KT 9999 BKN013/// OVC020/// 04/03 Q1008=
202201262250 METAR ESMX 262250Z AUTO 24009KT 9999 BKN014/// BKN019/// OVC024/// 04/03 Q1009=
202201262220 METAR ESMX 262220Z AUTO 24008KT 9999 FEW019/// BKN026/// 04/03 Q1009=
202201262150 METAR ESMX 262150Z AUTO 24009KT 9999 SCT023/// 04/03 Q1009=
202201262120 METAR ESMX 262120Z AUTO 25011KT 9999 BKN023/// 04/03 Q1010=
202201262050 METAR ESMX 262050Z AUTO 25008KT 9999 BKN021/// 04/03 Q1010=
202201262020 METAR ESMX 262020Z AUTO 25008KT 9999 SCT012/// BKN015/// OVC024/// 03/02 Q1010=
202201261950 METAR ESMX 261950Z AUTO 25007KT 9999 BKN013/// OVC023/// 04/03 Q1010=
202201261920 METAR ESMX 261920Z AUTO 25007KT 9999 SCT013/// BKN018/// OVC022/// 04/02 Q1010=
202201261850 METAR ESMX 261850Z AUTO 26009KT 9999 OVC015/// 04/02 Q1011=
202201261820 METAR ESMX 261820Z AUTO 27007KT 240V300 9999 OVC014/// 04/02 Q1011=
202201261750 METAR ESMX 261750Z AUTO 26008KT 9999 OVC015/// 04/02 Q1011=
202201261720 METAR ESMX 261720Z AUTO 27010KT 9999 BKN016/// 04/02 Q1011=
202201261650 METAR ESMX 261650Z AUTO 27010KT 9999 BKN015/// BKN020/// 04/02 Q1011=
202201261620 METAR ESMX 261620Z AUTO 26011KT 9999 SCT021/// 03/02 Q1011=
202201261550 METAR ESMX 261550Z AUTO 26010KT 230V290 9999 FEW023/// 03/02 Q1011=
202201261520 METAR ESMX 261520Z AUTO 26010KT 9999 FEW015/// 03/02 Q1011=
202201261450 METAR ESMX 261450Z 26010KT 230V290 9999 BKN015 04/03 Q1011=
202201261420 METAR ESMX 261420Z 25012KT 220V290 9999 BKN014 05/03 Q1011=
202201261350 METAR ESMX 261350Z 26012KT 9999 FEW010 BKN014 05/03 Q1011=
202201261320 METAR ESMX 261320Z 26014KT 9999 SCT008 BKN010 05/04 Q1011=
202201261250 METAR ESMX 261250Z 25011KT 9999 BKN008 05/04 Q1011=
202201261220 METAR ESMX 261220Z 23011KT 210V270 9000 -DZ BKN007 OVC010 04/04 Q1011=
202201261150 METAR ESMX 261150Z 25010KT 220V280 9000 -DZ BKN007 04/04 Q1012=
202201261120 METAR ESMX 261120Z 24011KT 210V270 9000 -DZ SCT006 BKN008 04/04 Q1012=
202201261050 METAR ESMX 261050Z 24011KT 9000 OVC005 04/04 Q1013=
202201261020 METAR ESMX 261020Z 24010KT 9000 -DZ OVC004 04/04 Q1014=
202201260950 METAR ESMX 260950Z 23010KT 9000 BKN005 04/04 Q1014=
202201260920 METAR ESMX 260920Z 24010KT 5000 -RA BR OVC004 04/04 Q1015=
202201260850 METAR ESMX 260850Z 24012KT 6000 -DZ OVC005 04/04 Q1015=
202201260820 METAR ESMX 260820Z 24010KT 210V280 9000 OVC004 04/04 Q1015=
202201260750 METAR ESMX 260750Z 25010KT 7000 -DZ OVC005 04/04 Q1015=
202201260720 METAR ESMX 260720Z 24010G21KT 210V280 7000 -DZ OVC005 04/04 Q1015=
202201260650 METAR ESMX 260650Z AUTO 25009KT 5000 BR OVC005/// 04/04 Q1016=
202201260620 METAR ESMX 260620Z AUTO 23008KT 4100 -DZ OVC005/// 04/04 Q1016 REUP=
202201260550 METAR ESMX 260550Z AUTO 24009KT 9999 BKN006/// OVC008/// 04/04 Q1016 REUP=
202201260520 METAR ESMX 260520Z AUTO 24009KT 9999 OVC007/// 04/04 Q1017=
202201260450 METAR ESMX 260450Z AUTO 24009KT 9999 BKN002/// BKN004/// OVC006/// 04/04 Q1017 RESHUP REUP=
202201260420 METAR ESMX 260420Z AUTO 23007KT 3200 OVC002/// 03/03 Q1017=
202201260350 METAR ESMX 260350Z AUTO 24007KT 1100 R01/P2000N R19/P2000N OVC001/// 02/02 Q1018 RESHUP REUP=
202201260320 METAR ESMX 260320Z AUTO 21006KT 0600 R01/1600D R19/P2000N FG OVC001/// 01/01 Q1019=
202201260250 METAR ESMX 260250Z AUTO 21007KT 0900 R01/P2000N R19/P2000N FG OVC001/// 01/01 Q1019 REDZ=
202201260220 METAR ESMX 260220Z AUTO 21005KT 1200 R01/P2000N R19/P2000N BR OVC001/// 01/01 Q1020 REDZ=
202201260150 METAR ESMX 260150Z AUTO 22005KT 1700 DZ OVC001/// 01/01 Q1020 RESHUP RESN=
202201260120 METAR ESMX 260120Z AUTO 22004KT 1300 R01/P2000N R19/P2000N OVC001/// 01/01 Q1020=
202201260050 METAR ESMX 260050Z AUTO 22004KT 0600 R01/P2000N R19/1600U -RASN OVC001/// 00/00 Q1021 REUP=
202201260020 METAR ESMX 260020Z AUTO 23003KT 0500 R01/1300D R19/1600D FG OVC001/// 00/00 Q1021=
202201252350 METAR ESMX 252350Z AUTO 24003KT 0650 R01/1600U R19/1800D FG OVC001/// 00/00 Q1022=
202201252320 METAR ESMX 252320Z AUTO 23004KT 0600 R01/1500N R19/1600N FG OVC001/// 00/00 Q1022=
202201252250 METAR ESMX 252250Z AUTO 24003KT 0500 R01/1500D R19/1600N FG OVC001/// 00/00 Q1022=
202201252220 METAR ESMX 252220Z AUTO VRB02KT 0600 R01/1600D R19/P2000N FG OVC001/// 00/00 Q1023=
202201252150 METAR ESMX 252150Z AUTO VRB03KT 0900 R01/P2000N R19/P2000N FZFG OVC001/// M00/M00 Q1023=
202201252120 METAR ESMX 252120Z AUTO 26006KT 1000 R01/P2000N R19/P2000N BR OVC001/// M00/M00 Q1023=
202201252050 METAR ESMX 252050Z AUTO 27006KT 240V300 9999 OVC001/// M00/M00 Q1023=
202201252020 METAR ESMX 252020Z AUTO 26005KT 7000 OVC001/// 00/00 Q1023=
202201251950 METAR ESMX 251950Z AUTO 23003KT 0650 R01/P2000D R19/P2000N FG BKN001/// OVC004/// 00/00 Q1024=
202201251920 METAR ESMX 251920Z AUTO 23001KT 1900 OVC005/// M00/M00 Q1024=
202201251850 METAR ESMX 251850Z AUTO 00000KT 0150 R01/0500N R19/0600N FZFG VV004 M00/M00 Q1024=
202201251820 METAR ESMX 251820Z AUTO 23003KT 0100 R01/0400N R19/0375N FZFG VV002 M00/M00 Q1024=
202201251750 METAR ESMX 251750Z AUTO 31002KT 0100 R01/0400N R19/0400N FZFG VV001 M00/M00 Q1024=
202201251720 METAR ESMX 251720Z AUTO VRB02KT 0150 R01/0550N R19/0500N FG VV001 00/00 Q1024=
202201251650 METAR ESMX 251650Z AUTO 27004KT 0200 R01/0650N R19/0800N FG VV002 01/01 Q1024=
202201251620 METAR ESMX 251620Z AUTO 26007KT 0150 R01/0550N R19/0650N FG VV002 01/01 Q1025=
202201251550 METAR ESMX 251550Z AUTO 27003KT 0400 R01/1100N R19/1200N FG VV002 01/01 Q1024=
202201251520 METAR ESMX 251520Z AUTO 28005KT 1100 R01/P2000N R19/P2000N BR BKN001/// 01/01 Q1024=
202201251450 METAR ESMX 251450Z AUTO 27004KT 9999 NCD 02/01 Q1024=
202201251420 METAR COR ESMX 251420Z 27004KT CAVOK 04/02 Q1024=
202201251350 METAR ESMX 251350Z 29004KT CAVOK 04/01 Q1024=
202201251320 METAR ESMX 251320Z 28004KT CAVOK 04/02 Q1024=
202201251250 METAR ESMX 251250Z 29004KT CAVOK 04/02 Q1024=
202201251220 METAR ESMX 251220Z AUTO 30004KT 260V330 9999 NCD 04/02 Q1024=
202201251150 METAR ESMX 251150Z 30005KT CAVOK 04/01 Q1024=
202201251120 METAR ESMX 251120Z AUTO 30006KT 260V320 9999 NCD 04/01 Q1024=
202201251050 METAR ESMX 251050Z 32004KT 290V350 CAVOK 04/01 Q1025=
202201251020 METAR ESMX 251020Z 33005KT CAVOK 03/02 Q1025=
202201250950 METAR ESMX 250950Z 31005KT CAVOK 03/02 Q1024=
202201250920 METAR ESMX 250920Z 32004KT 280V350 9999 FEW006 02/02 Q1024=
202201250850 METAR ESMX 250850Z 29006KT 9999 FEW006 02/02 Q1024=
202201250820 METAR ESMX 250820Z 29006KT 9999 FEW005 02/02 Q1024=
202201250750 METAR ESMX 250750Z 30006KT 9999 SCT007 02/02 Q1024=
202201250720 METAR ESMX 250720Z 30005KT 9999 SCT009 02/02 Q1024=
202201250650 METAR COR ESMX 250650Z 28005KT 9999 FEW010 03/03 Q1023=
202201250620 METAR ESMX 250620Z AUTO 29006KT 260V330 9999 FEW012/// SCT016/// 03/03 Q1023=
202201250550 METAR ESMX 250550Z AUTO 27008KT 9999 FEW010/// BKN017/// 04/04 Q1023=
202201250520 METAR ESMX 250520Z AUTO 28006KT 9999 BKN020/// 04/04 Q1023=
202201250450 METAR ESMX 250450Z AUTO 28004KT 9999 OVC022/// 05/04 Q1023=
202201250420 METAR ESMX 250420Z AUTO 28004KT 250V310 9999 FEW010/// OVC024/// 05/05 Q1023=
202201250350 METAR ESMX 250350Z AUTO 28004KT 250V320 9999 SCT005/// BKN007/// OVC027/// 05/05 Q1023=
202201250320 METAR ESMX 250320Z AUTO 27007KT 9999 BKN005/// BKN007/// OVC033/// 05/05 Q1023=
202201250250 METAR ESMX 250250Z AUTO 27006KT 8000 BR OVC005/// 05/05 Q1023 REDZ=
202201250220 METAR ESMX 250220Z AUTO 27007KT 5000 BR OVC004/// 05/05 Q1023=
202201250150 METAR ESMX 250150Z AUTO 27007KT 5000 -DZ OVC004/// 05/05 Q1023 REUP=
202201250120 METAR ESMX 250120Z AUTO 26007KT 5000 BR OVC005/// 05/05 Q1023 REDZ=
202201250050 METAR ESMX 250050Z AUTO 26007KT 240V320 6000 BR OVC004/// 05/05 Q1023=
202201250020 METAR ESMX 250020Z AUTO 25006KT 230V290 3400 BR OVC003/// 05/05 Q1023 REDZ=
202201242350 METAR ESMX 242350Z AUTO 26008KT 230V290 3000 BR OVC003/// 05/05 Q1023 REUP=
202201242320 METAR ESMX 242320Z AUTO 26008KT 2700 BR OVC002/// 04/04 Q1023=
202201242250 METAR ESMX 242250Z AUTO 26010KT 5000 BR OVC004/// 04/04 Q1023=
202201242220 METAR ESMX 242220Z AUTO 26010KT 9999 OVC005/// 04/04 Q1024=
202201242150 METAR ESMX 242150Z AUTO 26010KT 230V290 9999 OVC005/// 04/04 Q1024=
202201242120 METAR ESMX 242120Z AUTO 25009KT 9999 OVC006/// 04/04 Q1024=
202201242050 METAR ESMX 242050Z 26010KT 9999 BKN007 04/04 Q1024=
202201242020 METAR ESMX 242020Z 26010KT 9999 BKN007 04/04 Q1024=
202201241950 METAR ESMX 241950Z 26012KT 9999 BKN007 04/04 Q1024=
202201241920 METAR ESMX 241920Z 27012KT 9999 BKN007 04/04 Q1024=
202201241850 METAR ESMX 241850Z 27010KT 9999 BKN006 04/04 Q1024=
202201241820 METAR ESMX 241820Z 26010KT 220V290 9999 BKN008 04/03 Q1024=
202201241750 METAR ESMX 241750Z 26010KT 9999 BKN008 04/03 Q1024=
202201241720 METAR ESMX 241720Z 26008KT 230V290 9999 BKN008 BKN015 04/03 Q1024=
202201241650 METAR ESMX 241650Z 27008KT 240V300 8000 BR BKN008 BKN010 04/03 Q1024=
202201241620 METAR ESMX 241620Z 27009KT 230V290 9999 BKN007 04/03 Q1024=
202201241550 METAR ESMX 241550Z 26011KT 9999 BKN008 04/03 Q1024=
202201241520 METAR ESMX 241520Z 25011KT 220V290 9999 BKN007 04/03 Q1024=
202201241450 METAR ESMX 241450Z 25010KT 220V280 7000 BR BKN006 BKN008 04/03 Q1024=
202201241420 METAR ESMX 241420Z 25010KT 9000 BR BKN007 BKN009 04/03 Q1024=
202201241350 METAR ESMX 241350Z 26010KT 220V290 9000 BR BKN007 BKN010 04/03 Q1025=
202201241320 METAR ESMX 241320Z 27012KT 9000 BR BKN006 04/03 Q1025=
202201241250 METAR ESMX 241250Z 26012KT 9000 BKN007 04/03 Q1025=
202201241220 METAR ESMX 241220Z 26012KT 9000 -DZ BKN007 04/03 Q1025=
202201241150 METAR ESMX 241150Z 26012KT 9000 -DZ BKN007 04/03 Q1025=
202201241120 METAR ESMX 241120Z 27011KT 250V310 9999 BKN007 04/03 Q1025=
202201241050 METAR ESMX 241050Z 26012KT 9999 BKN006 04/03 Q1025=
202201241020 METAR ESMX 241020Z 26012KT 9000 BKN006 04/03 Q1025=
202201240950 METAR ESMX 240950Z 26013KT 220V290 9000 BKN005 04/03 Q1025=
202201240920 METAR ESMX 240920Z 26010KT 7000 SCT004 BKN009 OVC012 04/03 Q1026=
202201240850 METAR ESMX 240850Z 26013KT 9999 BKN008 04/03 Q1026=
202201240820 METAR ESMX 240820Z 26012KT 240V300 9999 BKN009 OVC012 04/03 Q1026=
202201240750 METAR ESMX 240750Z 26012KT 9999 SCT008 BKN012 04/03 Q1026=
202201240720 METAR ESMX 240720Z 26009KT 220V290 6000 BKN005 04/03 Q1026=
202201240650 METAR ESMX 240650Z 26010KT 230V290 8000 BR -DZ SCT006 BKN008 04/04 Q1026=
202201240620 METAR ESMX 240620Z AUTO 26011KT 8000 BR BKN006/// OVC007/// 04/04 Q1026=
202201240550 METAR ESMX 240550Z AUTO 26011KT 8000 OVC005/// 04/04 Q1026=
202201240520 METAR ESMX 240520Z AUTO 25009KT 4300 -DZ OVC004/// 04/04 Q1026 REUP REDZ=
202201240450 METAR ESMX 240450Z AUTO 25006KT 220V290 4600 BR OVC004/// 04/04 Q1026=
202201240420 METAR ESMX 240420Z AUTO 26009KT 7000 BR BKN003/// OVC005/// 04/04 Q1026 REDZ=
202201240350 METAR ESMX 240350Z AUTO 25009KT 220V280 4100 BR OVC003/// 04/04 Q1027=
202201240320 METAR ESMX 240320Z AUTO 25007KT 4100 BR OVC003/// 04/04 Q1027=
202201240250 METAR ESMX 240250Z AUTO 25009KT 2800 -RA OVC002/// 04/04 Q1027 REUP=
202201240220 METAR ESMX 240220Z AUTO 25009KT 3900 BR BKN002/// OVC004/// 04/04 Q1027=
202201240150 METAR ESMX 240150Z AUTO 25007KT 220V280 2900 BR OVC002/// 04/04 Q1027=
202201240120 METAR ESMX 240120Z AUTO 25009KT 3600 BR OVC002/// 04/04 Q1027=
202201240050 METAR ESMX 240050Z AUTO 25006KT 2800 BR OVC002/// 04/04 Q1027=
202201240020 METAR ESMX 240020Z AUTO 25007KT 2600 BR OVC002/// 04/04 Q1027=
202201232350 METAR ESMX 232350Z AUTO 26009KT 2500 BR OVC002/// 04/04 Q1027=
202201232320 METAR ESMX 232320Z AUTO 25007KT 2600 BR OVC002/// 05/05 Q1027=
202201232250 METAR ESMX 232250Z AUTO 26008KT 4900 BR BKN002/// OVC005/// 05/05 Q1027=
202201232220 METAR ESMX 232220Z AUTO 26007KT 230V290 6000 BR BKN003/// OVC005/// 05/05 Q1027=
202201232150 METAR ESMX 232150Z AUTO 26006KT 230V290 4800 BR OVC003/// 05/05 Q1027=
202201232120 METAR ESMX 232120Z 25005KT 220V310 9999 BKN005 05/05 Q1027=
202201232050 METAR ESMX 232050Z 25006KT 9999 BKN005 05/05 Q1027=
202201232020 METAR ESMX 232020Z 24006KT 210V280 9000 BR BKN002 05/05 Q1027=
202201231950 METAR ESMX 231950Z 22004KT 3600 BR BKN002 04/04 Q1027=
202201231920 METAR ESMX 231920Z 22005KT 3500 BR BKN001 03/03 Q1027=
202201231850 METAR ESMX 231850Z 22004KT 3700 BKN002 03/03 Q1027=
202201231820 METAR ESMX 231820Z 22005KT 4300 BKN001 03/03 Q1027=
202201231750 METAR ESMX 231750Z 21004KT 3300 BR BKN001 03/03 Q1027=
202201231720 METAR ESMX 231720Z 22003KT 1700 BKN002 02/02 Q1028=
202201231650 METAR ESMX 231650Z 22003KT 1200 R01/P2000N R19/P2000N VV002 02/02 Q1028=
202201231620 METAR ESMX 231620Z 23002KT 0650 R01/1500U R19/P2000N FG OVC002 02/02 Q1028=
202201231550 METAR ESMX 231550Z 23003KT 0450 R01/1200N R19/1400N FG VV002 01/01 Q1028=
202201231520 METAR ESMX 231520Z AUTO 23002KT 0450 R01/1000N R19/1100N FG OVC001/// 01/01 Q1028=
202201231450 METAR ESMX 231450Z AUTO 23002KT 0450 R01/0900N R19/0900N FG OVC001/// 01/01 Q1028=
202201231420 METAR ESMX 231420Z AUTO 24004KT 0400 R01/0700N R19/0750N FG OVC001/// 01/01 Q1028=
202201231350 METAR ESMX 231350Z AUTO 25006KT 0500 R01/0800N R19/1100N FG OVC001/// 01/01 Q1028=
202201231320 METAR ESMX 231320Z AUTO 25004KT 0550 R01/0800N R19/1000N FG OVC001/// 01/01 Q1027=
202201231250 METAR ESMX 231250Z AUTO 25005KT 0450 R01/0800N R19/0900N FG OVC001/// 01/01 Q1027=
202201231220 METAR ESMX 231220Z AUTO 25004KT 0600 R01/0900N R19/1400U FG OVC001/// 01/01 Q1027=
202201231150 METAR ESMX 231150Z 26005KT 240V300 1000 R01/1200N R19/1700U FG OVC002 01/01 Q1028=
202201231120 METAR ESMX 231120Z 25004KT 1300 R01/1400N R19/1800D BR OVC002 00/00 Q1028=
202201231050 METAR ESMX 231050Z 25005KT 0750 R01/1100D R19/1800N FG OVC002 00/00 Q1028=
202201231020 METAR ESMX 231020Z 24003KT 1800 BR OVC002 00/00 Q1028=
202201230950 METAR ESMX 230950Z AUTO 26004KT 1200 R01/1500D R19/P2000D OVC001/// M00/M00 Q1028=
202201230920 METAR ESMX 230920Z AUTO 26003KT 0700 R01/0900N R19/1500N FZFG OVC001/// M00/M00 Q1028=
202201230850 METAR ESMX 230850Z AUTO 28003KT 250V310 0600 R01/0900N R19/1100U=
202201230820 METAR ESMX 230820Z 00000KT 0500 R01/0800N R19/1300N FG OVC002 M01/M01 Q1027=
202201230750 METAR ESMX 230750Z 27003KT 1100 R01/1500N R19/P2000N BR OVC002 M01/M01 Q1027=
202201230720 METAR ESMX 230720Z 28003KT 1200 R01/1900N R19/1700N BR OVC002 M01/M01 Q1026=
202201230650 METAR COR ESMX 230650Z 27003KT 1200 R01/1500N R19/1700D BR OVC002 M01/M01 Q1026=
202201230620 METAR ESMX 230620Z AUTO 27004KT 0400 R01/1100N R19/1400N FZFG OVC001/// M01/M01 Q1026=
202201230550 METAR ESMX 230550Z AUTO VRB02KT 0350 R01/1000D R19/1300D FZFG OVC001/// M01/M01 Q1026=
202201230520 METAR ESMX 230520Z AUTO 27003KT 0450 R01/1200U R19/1700N FZFG OVC001/// M01/M01 Q1026=
202201230450 METAR ESMX 230450Z AUTO 28004KT 250V330 0350 R01/1000N R19/1300U=
202201230420 METAR ESMX 230420Z AUTO 29005KT 0350 R01/1000N R19/1000N FZFG OVC001/// M00/M00 Q1026=
202201230350 METAR ESMX 230350Z AUTO 28004KT 250V320 0550 R01/1400D R19/1400D=
202201230320 METAR ESMX 230320Z AUTO VRB03KT 1000 R01/P2000N R19/P2000N FZFG OVC001/// M01/M01 Q1025=
202201230250 METAR ESMX 230250Z AUTO 00000KT 0750 R01/P2000N R19/P2000D FZFG OVC001/// M01/M01 Q1025=
202201230220 METAR ESMX 230220Z AUTO 20003KT 1200 R01/P2000N R19/P2000N BR OVC001/// M01/M01 Q1025=
202201230150 METAR ESMX 230150Z AUTO 00000KT 1800 BR OVC001/// M02/M02 Q1025=
202201230120 METAR ESMX 230120Z AUTO 20002KT 2100 BR OVC001/// M02/M02 Q1025=
202201230050 METAR ESMX 230050Z AUTO 20001KT 1800 BR OVC001/// M02/M02 Q1025=
202201230020 METAR ESMX 230020Z 00000KT 3500 BR OVC002 M02/M02 Q1025=
202201222350 METAR ESMX 222350Z 20002KT 4000 BR OVC002 M02/M02 Q1025=
202201222320 METAR ESMX 222320Z 20002KT 5000 OVC002 M02/M02 Q1025=
202201222250 METAR ESMX 222250Z AUTO 00000KT 7000 BR OVC003/// M02/M03 Q1025=
202201222220 METAR ESMX 222220Z AUTO 20002KT 9999 OVC004/// M02/M03 Q1025=
202201222150 METAR ESMX 222150Z AUTO 00000KT 9000 BR OVC004/// M02/M04 Q1025=
202201222120 METAR ESMX 222120Z AUTO 00000KT 9999 OVC005/// M02/M04 Q1025=
202201222050 METAR ESMX 222050Z AUTO 00000KT 9999 OVC005/// M02/M05 Q1025=
202201222020 METAR ESMX 222020Z AUTO 20002KT 9999 OVC005/// M02/M05 Q1025=
202201221950 METAR ESMX 221950Z 20004KT 9999 BKN006 M03/M06 Q1025=
202201221920 METAR ESMX 221920Z 20003KT 9999 FEW008 BKN010 M04/M07 Q1025=
202201221850 METAR ESMX 221850Z 00000KT 9999 BKN012 M04/M08 Q1025=
202201221820 METAR ESMX 221820Z 20003KT 9999 FEW013 M03/M07 Q1025=
202201221750 METAR ESMX 221750Z AUTO 20003KT 9999 FEW039/// M03/M07 Q1024=
202201221720 METAR ESMX 221720Z AUTO 20004KT 9999 BKN039/// M03/M07 Q1025=
202201221650 METAR ESMX 221650Z AUTO 20003KT 9999 OVC039/// M04/M08 Q1025=
202201221620 METAR ESMX 221620Z AUTO 20005KT 9999 BKN040/// M03/M07 Q1024=
202201221550 METAR ESMX 221550Z AUTO 23003KT 9999 OVC041/// M02/M06 Q1025=
202201221520 METAR ESMX 221520Z AUTO 00000KT 9999 BKN043/// M02/M07 Q1025=
202201221450 METAR ESMX 221450Z AUTO 23002KT 9999 BKN045/// M02/M06 Q1025=
202201221420 METAR ESMX 221420Z AUTO 23003KT 9999 FEW100/// SCT120/// M02/M07 Q1025=
202201221350 METAR ESMX 221350Z AUTO 00000KT 9999 SCT045/// BKN100/// M01/M07 Q1025=
202201221320 METAR ESMX 221320Z AUTO 23003KT 9999 SCT033/// BKN096/// M01/M08 Q1025=
202201221250 METAR ESMX 221250Z AUTO 24004KT 9999 BKN030/// OVC094/// M01/M08 Q1025=
202201221220 METAR ESMX 221220Z AUTO 25002KT 9999 FEW031/// OVC094/// M02/M07 Q1025=
202201221150 METAR ESMX 221150Z AUTO 25003KT 9999 OVC032/// M02/M07 Q1025=
202201221120 METAR ESMX 221120Z AUTO 25002KT 9999 OVC034/// M02/M06 Q1025=
202201221050 METAR ESMX 221050Z AUTO VRB03KT 9999 SCT036/// M03/M06 Q1025=
202201221020 METAR ESMX 221020Z AUTO 27003KT 9999 BKN120/// M04/M06 Q1025=
202201220950 METAR ESMX 220950Z AUTO VRB02KT 9999 BKN130/// M05/M06 Q1025=
202201220920 METAR ESMX 220920Z AUTO 00000KT 9999 SCT200/// M07/M07 Q1025=
202201220850 METAR ESMX 220850Z AUTO 00000KT 9999 NCD M07/M08 Q1025=
202201220820 METAR ESMX 220820Z 00000KT CAVOK M07/M08 Q1025=
202201220750 METAR ESMX 220750Z 00000KT CAVOK M07/M08 Q1025=
202201220720 METAR ESMX 220720Z 27002KT CAVOK M09/M09 Q1025=
202201220650 METAR ESMX 220650Z AUTO 31003KT 9999 NCD M10/M10 Q1024=
202201220620 METAR ESMX 220620Z AUTO 00000KT 9999 NCD M08/M10 Q1024=
202201220550 METAR ESMX 220550Z AUTO 35003KT 9999 NCD M08/M09 Q1024=
202201220520 METAR ESMX 220520Z AUTO 35004KT 9999 NCD M07/M09 Q1024=
202201220450 METAR ESMX 220450Z AUTO 36005KT 9999 NCD M06/M08 Q1023=
202201220420 METAR ESMX 220420Z AUTO 32004KT 9999 NCD M07/M09 Q1023=
202201220350 METAR ESMX 220350Z AUTO 32005KT 9999 FEW150/// M06/M09 Q1023=
202201220320 METAR ESMX 220320Z AUTO 34007KT 9999 NCD M05/M09 Q1022=
202201220250 METAR ESMX 220250Z AUTO 01007KT 9999 NCD M05/M08 Q1022=
202201220220 METAR ESMX 220220Z AUTO 01008KT 9999 NCD M05/M08 Q1022=
202201220150 METAR ESMX 220150Z AUTO 02008KT 9999 NCD M04/M08 Q1022=
202201220120 METAR ESMX 220120Z AUTO 36007KT 9999 NCD M04/M08 Q1022=
202201220050 METAR ESMX 220050Z AUTO 35006KT 9999 NCD M05/M08 Q1021=
202201220020 METAR ESMX 220020Z AUTO 34007KT 9999 NCD M05/M07 Q1021=
202201212350 METAR ESMX 212350Z AUTO 33007KT 9999 NCD M04/M07 Q1021=
202201212320 METAR ESMX 212320Z AUTO 34008KT 9999 NCD M04/M07 Q1021=
202201212250 METAR ESMX 212250Z AUTO 33008KT 9999 NCD M03/M07 Q1020=
202201212220 METAR ESMX 212220Z AUTO 33008KT 9999 NCD M03/M07 Q1020=
202201212150 METAR ESMX 212150Z AUTO 33007KT 9999 NCD M04/M07 Q1020=
202201212120 METAR ESMX 212120Z AUTO 35008KT 9999 NCD M03/M06 Q1019=
202201212050 METAR ESMX 212050Z AUTO 01008KT 9999 NCD M02/M06 Q1019=
202201212020 METAR ESMX 212020Z AUTO 35008KT 9999 NCD M02/M06 Q1018=
202201211950 METAR ESMX 211950Z AUTO 35007KT 9999 NCD M01/M05 Q1019=
202201211920 METAR ESMX 211920Z AUTO 35008KT 9999 NCD M00/M05 Q1018=
202201211850 METAR ESMX 211850Z AUTO 35009KT 9999 NCD M00/M05 Q1018=
202201211820 METAR ESMX 211820Z AUTO 35009KT 9999 FEW031/// 00/M04 Q1017=
202201211750 METAR ESMX 211750Z AUTO 34005KT 300V010 9999 NCD M00/M04 Q1017=
202201211720 METAR ESMX 211720Z AUTO 31008KT 9999 FEW042/// SCT070/// 00/M04 Q1017 RESHUP REUP=
202201211650 METAR ESMX 211650Z 31006KT CAVOK 01/M05 Q1016=
202201211620 METAR ESMX 211620Z 28007KT 9999 FEW039 BKN076 01/M05 Q1016=
202201211550 METAR ESMX 211550Z 28006KT CAVOK 01/M06 Q1016=
202201211520 METAR ESMX 211520Z 29006KT CAVOK 01/M06 Q1016=
202201211450 METAR ESMX 211450Z AUTO 28005KT 250V320 9999 OVC084/// 01/M07 Q1016=
202201211420 METAR ESMX 211420Z 30007KT CAVOK 02/M07 Q1016=
202201211350 METAR ESMX 211350Z 30008KT 260V330 CAVOK 02/M07 Q1015=
202201211320 METAR ESMX 211320Z 31009KT CAVOK 03/M07 Q1016=
202201211250 METAR ESMX 211250Z 31009KT 9999 SCT055 BKN098 02/M08 Q1016=
202201211220 METAR ESMX 211220Z 31011KT CAVOK 02/M08 Q1016=
202201211150 METAR ESMX 211150Z 31010KT 280V350 CAVOK 02/M07 Q1016=
202201211120 METAR ESMX 211120Z 31010KT CAVOK 02/M08 Q1016=
202201211050 METAR ESMX 211050Z 32013KT CAVOK 02/M08 Q1016=
202201211020 METAR ESMX 211020Z 32012G22KT CAVOK 01/M08 Q1016=
202201210950 METAR ESMX 210950Z 31008KT 270V340 CAVOK M00/M08 Q1016=
202201210920 METAR ESMX 210920Z 30008KT CAVOK M02/M08 Q1016=
202201210850 METAR ESMX 210850Z 30008KT CAVOK M02/M08 Q1016=
202201210820 METAR ESMX 210820Z 30008KT CAVOK M03/M09 Q1017=
202201210750 METAR ESMX 210750Z 30009KT CAVOK M03/M09 Q1016=
202201210720 METAR ESMX 210720Z 31011KT CAVOK M02/M09 Q1016=
202201210650 METAR ESMX 210650Z AUTO 31010KT 9999 NCD M02/M09 Q1016=
202201210620 METAR ESMX 210620Z AUTO 32010KT 9999 NCD M02/M09 Q1016=
202201210550 METAR ESMX 210550Z AUTO 31012KT 9999 NCD M02/M09 Q1015=
202201210520 METAR ESMX 210520Z AUTO 31012KT 9999 NCD M02/M09 Q1015=
202201210450 METAR ESMX 210450Z AUTO 31012KT 9999 NCD M02/M09 Q1015=
202201210420 METAR ESMX 210420Z AUTO 31011KT 9999 NCD M02/M09 Q1015=
202201210350 METAR ESMX 210350Z AUTO 32012KT 9999 NCD M02/M09 Q1015=
202201210320 METAR ESMX 210320Z AUTO 32012KT 9999 NCD M02/M09 Q1014=
202201210250 METAR ESMX 210250Z AUTO 31013KT 9999 NCD M02/M09 Q1014=
202201210220 METAR ESMX 210220Z AUTO 31013KT 9999 NCD M02/M09 Q1014=
202201210150 METAR ESMX 210150Z AUTO 31013KT 9999 NCD M02/M09 Q1014=
202201210120 METAR ESMX 210120Z AUTO 31014KT 9999 NCD M02/M09 Q1014=
202201210050 METAR ESMX 210050Z AUTO 31014KT 9999 NCD M02/M09 Q1013=
202201210020 METAR ESMX 210020Z AUTO 31013KT 9999 NCD M02/M09 Q1013=
202201202350 METAR ESMX 202350Z AUTO 32012KT 9999 NCD M02/M09 Q1013=
202201202320 METAR ESMX 202320Z AUTO 31013KT 9999 NCD M02/M09 Q1013=
202201202250 METAR ESMX 202250Z AUTO 31012KT 9999 NCD M02/M09 Q1013=
202201202220 METAR ESMX 202220Z AUTO 31013KT 9999 NCD M02/M09 Q1012=
202201202150 METAR ESMX 202150Z AUTO 31012KT 9999 NCD M02/M09 Q1012=
202201202120 METAR ESMX 202120Z AUTO 31012KT 9999 NCD M02/M10 Q1012=
202201202050 METAR ESMX 202050Z AUTO 31014KT 9999 NCD M02/M10 Q1012=
202201202020 METAR ESMX 202020Z AUTO 31013KT 9999 NCD M02/M10 Q1011=
202201201950 METAR ESMX 201950Z AUTO 30013KT 9999 NCD M02/M10 Q1011=
202201201920 METAR ESMX 201920Z AUTO 30010G21KT 9999 FEW049/// M02/M10 Q1011=
202201201850 METAR ESMX 201850Z AUTO 30013KT 9999 BKN049/// M02/M10 Q1010=
202201201820 METAR ESMX 201820Z AUTO 30012KT 9999 FEW048/// OVC061/// M02/M09 Q1010=
202201201750 METAR ESMX 201750Z AUTO 30012KT 9999 SCT055/// M02/M10 Q1010=
202201201720 METAR ESMX 201720Z AUTO 30011KT 9999 NCD M03/M10 Q1009=
202201201650 METAR ESMX 201650Z AUTO 30013KT 9999 NCD M03/M10 Q1009=
202201201620 METAR ESMX 201620Z AUTO 31014KT 9999 NCD M02/M10 Q1009=
202201201550 METAR ESMX 201550Z AUTO 32013KT 9999 NCD M02/M11 Q1008=
202201201520 METAR ESMX 201520Z AUTO 31017KT 9999 NCD M02/M11 Q1008=
202201201450 METAR ESMX 201450Z 32019G29KT 9999 FEW040 M02/M11 Q1007=
202201201420 METAR ESMX 201420Z 32020G31KT 9999 FEW040 M01/M11 Q1007=
202201201350 METAR ESMX 201350Z 32018G31KT CAVOK M01/M11 Q1006=
202201201320 METAR ESMX 201320Z 32020G31KT CAVOK M01/M11 Q1005=
202201201250 METAR ESMX 201250Z AUTO 32018G29KT 270V350 9999 NCD M00/M11 Q1005=
202201201220 METAR ESMX 201220Z 33020G31KT 9999 FEW040 M00/M10 Q1005=
202201201150 METAR ESMX 201150Z 33018KT 9999 FEW040 M00/M09 Q1004=
202201201120 METAR ESMX 201120Z 33018G29KT 9999 FEW040 M00/M08 Q1004=
202201201050 METAR ESMX 201050Z 33020G33KT 9999 FEW042 M00/M07 Q1003=
202201201020 METAR ESMX 201020Z 32020G32KT 290V360 9999 FEW040 M01/M07 Q1003=
202201200950 METAR ESMX 200950Z 32018KT 9999 FEW042 M01/M07 Q1002=
202201200920 METAR ESMX 200920Z 32018G29KT 290V360 9999 SCT040 M01/M07 Q1002=
202201200850 METAR ESMX 200850Z 31015G26KT 280V340 9999 BKN038 M02/M07 Q1001=
202201200820 METAR ESMX 200820Z 31015G26KT 9999 BKN037 M02/M07 Q1001 RESN=
202201200750 METAR ESMX 200750Z 31016G26KT 9999 BKN038 M02/M07 Q1000=
202201200720 METAR ESMX 200720Z 31016KT 9999 BKN039 M03/M08 Q1000=
202201200650 METAR ESMX 200650Z AUTO 31017G28KT 9999 NCD M03/M08 Q0999=
202201200620 METAR ESMX 200620Z AUTO 30014KT 9999 NCD M03/M09 Q0999=
202201200550 METAR ESMX 200550Z AUTO 31013KT 9999 NCD M03/M08 Q0998=
202201200520 METAR ESMX 200520Z AUTO 31014KT 9999 NCD M03/M08 Q0998=
202201200450 METAR ESMX 200450Z AUTO 31012KT 9999 NCD M03/M08 Q0998=
202201200420 METAR ESMX 200420Z AUTO 30014KT 9999 NCD M03/M08 Q0997=
202201200350 METAR ESMX 200350Z AUTO 30016G30KT 9999 NCD M03/M08 Q0997=
202201200320 METAR ESMX 200320Z AUTO 30013KT 9999 NCD M02/M07 Q0997=
202201200250 METAR ESMX 200250Z AUTO 31013KT 9999 FEW100/// M02/M07 Q0996=
202201200220 METAR ESMX 200220Z AUTO 30013KT 260V330 9999 SCT030/// OVC100/// M02/M05 Q0996=
202201200150 METAR ESMX 200150Z AUTO 31013KT 9999 FEW043/// OVC098/// M02/M05 Q0996 RESHUP RESN=
202201200120 METAR ESMX 200120Z AUTO 31018G33KT 9999 FEW023/// SCT028/// OVC100/// M01/M05 Q0995=
202201200050 METAR ESMX 200050Z AUTO 30016G29KT 9999 SG BKN019/// BKN027/// OVC051/// M00/M03 Q0995=
202201200020 METAR ESMX 200020Z AUTO 31015G28KT 9999 SG SCT022/// BKN057/// OVC084/// M00/M02 Q0994 RESHUP=
202201192350 METAR ESMX 192350Z AUTO 31017G28KT 260V340 9999 UP FEW001/// BKN023/// BKN035/// 00/M02 Q0993=
202201192320 METAR ESMX 192320Z AUTO 30012KT 5000 -SN FEW002/// SCT007/// BKN019/// 01/M00 Q0993=
202201192250 METAR ESMX 192250Z AUTO 30015G27KT 9999 -SN FEW016/// BKN026/// 01/M00 Q0992=
202201192220 METAR ESMX 192220Z AUTO 30016KT 9999 -SN FEW006/// SCT013/// BKN019/// 01/00 Q0992 RESHRA=
202201192150 METAR ESMX 192150Z AUTO 26013G24KT 7000 -RA FEW006/// BKN009/// BKN011/// 03/02 Q0991 RESHUP=
202201192120 METAR ESMX 192120Z AUTO 25013KT 8000 BR BKN009/// OVC013/// 03/03 Q0991 RERA=
202201192050 METAR ESMX 192050Z AUTO 23013KT 5000 -RA SCT005/// BKN007/// OVC009/// 02/02 Q0992=
202201192020 METAR ESMX 192020Z AUTO 21016G26KT 4900 -RA OVC004/// 02/02 Q0992=
202201191950 METAR ESMX 191950Z AUTO 20016KT 8000 -DZ OVC005/// 02/02 Q0993 REDZ=
202201191920 METAR ESMX 191920Z AUTO 19015KT 7000 -DZ OVC005/// 02/02 Q0994=
202201191850 METAR ESMX 191850Z AUTO 19014KT 7000 -RA OVC006/// 02/02 Q0995 RESHRA=
202201191820 METAR ESMX 191820Z AUTO 20015KT 5000 -RA OVC004/// 02/02 Q0997 RESHUP=
202201191750 METAR ESMX 191750Z AUTO 19015KT 8000 BR OVC005/// 02/02 Q0998 RESG=
202201191720 METAR ESMX 191720Z AUTO 19012KT 9000 -RA OVC005/// 02/02 Q0999=
202201191650 METAR ESMX 191650Z AUTO 21014KT 4500 RA OVC005/// 02/02 Q1000=
202201191620 METAR ESMX 191620Z AUTO 21014KT 3500 -RA OVC004/// 02/02 Q1001 REUP=
202201191550 METAR ESMX 191550Z AUTO 21015KT 6000 BR OVC004/// 03/02 Q1002=
202201191520 METAR ESMX 191520Z AUTO 21015KT 5000 BR OVC003/// 03/03 Q1003=
202201191450 METAR ESMX 191450Z 22014KT 4500 BR OVC003 03/03 Q1004=
202201191420 METAR ESMX 191420Z 22013KT 5000 BR OVC003 03/03 Q1005=
202201191350 METAR ESMX 191350Z 22014KT 5000 BR OVC004 03/03 Q1006=
202201191320 METAR ESMX 191320Z 22014G24KT 6000 BR OVC004 03/03 Q1007=
202201191250 METAR ESMX 191250Z 22013KT 7000 BR OVC006 03/03 Q1008=
202201191220 METAR ESMX 191220Z 22013KT 7000 BR OVC005 03/03 Q1009=
202201191150 METAR ESMX 191150Z 23013KT 8000 BR OVC006 03/03 Q1010=
202201191120 METAR ESMX 191120Z 23014KT 9999 BKN007 03/02 Q1010=
202201191050 METAR ESMX 191050Z 23013KT 9999 BKN008 03/02 Q1011=
202201191020 METAR ESMX 191020Z 23013KT 9999 BKN009 03/02 Q1012=
202201190950 METAR ESMX 190950Z 23014KT 9999 BKN009 03/02 Q1012=
202201190920 METAR ESMX 190920Z 24014KT 9999 BKN009 03/02 Q1013=
202201190850 METAR COR ESMX 190850Z 23015KT 9999 BKN008 03/02 Q1013=
202201190820 METAR ESMX 190820Z 23012KT 9999 BKN008 02/02 Q1014=
202201190750 METAR ESMX 190750Z 23012KT 9999 BKN008 02/02 Q1014=
202201190720 METAR ESMX 190720Z 23011KT 9999 BKN007 02/02 Q1014=
202201190650 METAR COR ESMX 190650Z 24010KT 9999 BKN008 02/02 Q1015=
202201190620 METAR ESMX 190620Z AUTO 23011KT 9999 BKN007/// 02/02 Q1015=
202201190550 METAR ESMX 190550Z AUTO 23010KT 9999 FEW008/// 02/02 Q1016=
202201190520 METAR ESMX 190520Z AUTO 24010KT 9999 NCD 02/01 Q1016=
202201190450 METAR ESMX 190450Z AUTO 23011KT 9999 NCD 02/02 Q1016=
202201190420 METAR ESMX 190420Z AUTO 23007KT 200V260 9999 NCD 02/02 Q1017=
202201190350 METAR ESMX 190350Z AUTO 22008KT 9999 NCD 03/02 Q1018=
202201190320 METAR ESMX 190320Z AUTO 23009KT 9999 FEW004/// 03/02 Q1018=
202201190250 METAR ESMX 190250Z AUTO 22007KT 9999 FEW210/// 02/02 Q1019=
202201190220 METAR ESMX 190220Z AUTO 24007KT 9999 BKN006/// 03/02 Q1020=
202201190150 METAR ESMX 190150Z AUTO 25008KT 9999 FEW006/// BKN210/// 03/02 Q1020=
202201190120 METAR ESMX 190120Z AUTO 26009KT 9999 FEW007/// SCT210/// 03/02 Q1021=
202201190050 METAR ESMX 190050Z AUTO 26009KT 9999 OVC007/// 03/02 Q1021=
202201190020 METAR ESMX 190020Z AUTO 26008KT 9999 OVC008/// 03/02 Q1022=
202201182350 METAR ESMX 182350Z AUTO 26009KT 9999 OVC009/// 03/02 Q1022=
202201182320 METAR ESMX 182320Z AUTO 26009KT 9999 OVC009/// 03/02 Q1022=
202201182250 METAR ESMX 182250Z AUTO 26010KT 220V280 9999 OVC009/// 03/02 Q1022=
202201182220 METAR ESMX 182220Z AUTO 26011KT 9999 OVC009/// 03/02 Q1023=
202201182150 METAR ESMX 182150Z AUTO 26011KT 220V280 9999 OVC009/// 03/02 Q1023=
202201182120 METAR ESMX 182120Z AUTO 26010KT 9999 OVC009/// 03/02 Q1023=
202201182050 METAR ESMX 182050Z AUTO 26010KT 9999 OVC007/// 04/03 Q1024=
202201182020 METAR ESMX 182020Z AUTO 27009KT 240V300 9999 OVC006/// 04/03 Q1024=
202201181950 METAR ESMX 181950Z AUTO 27010KT 9999 OVC006/// 04/03 Q1024=
202201181920 METAR ESMX 181920Z AUTO 26012KT 9999 OVC007/// 04/03 Q1024=
202201181850 METAR ESMX 181850Z AUTO 26014KT 9999 OVC008/// 04/03 Q1024=
202201181820 METAR ESMX 181820Z AUTO 27010KT 230V310 9999 OVC007/// 04/03 Q1024=
202201181750 METAR ESMX 181750Z AUTO 27011KT 9999 OVC006/// 04/03 Q1025=
202201181720 METAR ESMX 181720Z AUTO 27010KT 240V320 8000 BR OVC006/// 04/03 Q1025=
202201181650 METAR ESMX 181650Z AUTO 27009KT 8000 BR OVC007/// 04/03 Q1025=
202201181620 METAR ESMX 181620Z AUTO 27010KT 9999 OVC006/// 04/03 Q1026=
202201181550 METAR ESMX 181550Z AUTO 26010KT 9000 OVC005/// 03/03 Q1026=
202201181520 METAR ESMX 181520Z AUTO 25009KT 5000 BR OVC003/// 03/03 Q1026=
202201181450 METAR ESMX 181450Z 25006KT 220V290 4700 BR BKN002 03/03 Q1026=
202201181420 METAR ESMX 181420Z 25005KT 4300 BR BKN003 03/03 Q1027=
202201181350 METAR ESMX 181350Z 24006KT 9999 BR BKN003 02/02 Q1027=
202201181320 METAR ESMX 181320Z 23005KT 4200 BR BKN002 02/02 Q1027=
202201181250 METAR ESMX 181250Z 25008KT 9000 BR BKN003 BKN005 01/01 Q1028=
202201181220 METAR ESMX 181220Z 25006KT CAVOK 03/M01 Q1028=
202201181150 METAR ESMX 181150Z 24006KT CAVOK 03/M02 Q1028=
202201181120 METAR ESMX 181120Z 24004KT CAVOK 02/M03 Q1028=
202201181050 METAR ESMX 181050Z 22004KT CAVOK 01/M04 Q1029=
202201181020 METAR ESMX 181020Z 22004KT CAVOK 00/M05 Q1029=
202201180950 METAR ESMX 180950Z 23004KT CAVOK M01/M06 Q1029=
202201180920 METAR ESMX 180920Z 00000KT CAVOK M02/M06 Q1029=
202201180850 METAR ESMX 180850Z 23003KT CAVOK M04/M06 Q1029=
202201180820 METAR ESMX 180820Z 23004KT CAVOK M04/M07 Q1029=
202201180750 METAR ESMX 180750Z 23002KT CAVOK M04/M07 Q1029=
202201180720 METAR ESMX 180720Z 24003KT CAVOK M04/M07 Q1029=
202201180650 METAR ESMX 180650Z AUTO 26003KT 9999 NCD M04/M07 Q1028=
202201180620 METAR ESMX 180620Z AUTO 27005KT 9999 NCD M03/M07 Q1028=
202201180550 METAR ESMX 180550Z AUTO 27005KT 9999 NCD M03/M07 Q1028=
202201180520 METAR ESMX 180520Z AUTO 27004KT 9999 NCD M03/M07 Q1028=
202201180450 METAR ESMX 180450Z AUTO 27005KT 9999 NCD M03/M07 Q1028=
202201180420 METAR ESMX 180420Z AUTO 26004KT 9999 NCD M04/M08 Q1027=
202201180350 METAR ESMX 180350Z AUTO 27003KT 9999 NCD M04/M08 Q1027=
202201180320 METAR ESMX 180320Z AUTO VRB03KT 9999 NCD M04/M08 Q1027=
202201180250 METAR ESMX 180250Z AUTO 26002KT 9999 NCD M03/M08 Q1027=
202201180220 METAR ESMX 180220Z AUTO 27003KT 230V290 9999 NCD M03/M08 Q1027=
202201180150 METAR ESMX 180150Z AUTO 32005KT 9999 NCD M03/M08 Q1027=
202201180120 METAR ESMX 180120Z AUTO 31005KT 9999 NCD M03/M08 Q1026=
202201180050 METAR ESMX 180050Z AUTO 31005KT 290V350 9999 NCD M02/M08 Q1026=
202201180020 METAR ESMX 180020Z AUTO 31005KT 9999 NCD M02/M08 Q1025=
202201172350 METAR ESMX 172350Z AUTO 31007KT 9999 NCD M02/M08 Q1025=
202201172320 METAR ESMX 172320Z AUTO 30008KT 9999 NCD M02/M08 Q1025=
202201172250 METAR ESMX 172250Z AUTO 29008KT 9999 NCD M02/M08 Q1024=
202201172220 METAR ESMX 172220Z AUTO 30006KT 9999 NCD M02/M08 Q1024=
202201172150 METAR ESMX 172150Z AUTO 29007KT 9999 NCD M02/M08 Q1024=
202201172120 METAR ESMX 172120Z AUTO 29008KT 9999 NCD M01/M08 Q1023=
202201172050 METAR ESMX 172050Z 29008KT CAVOK M01/M08 Q1023=
202201172020 METAR ESMX 172020Z 30008KT CAVOK M01/M08 Q1022=
202201171950 METAR ESMX 171950Z 30007KT 280V340 CAVOK M01/M08 Q1022=
202201171920 METAR ESMX 171920Z 30008KT CAVOK M01/M08 Q1021=
202201171850 METAR ESMX 171850Z 30008KT CAVOK M00/M08 Q1021=
202201171820 METAR ESMX 171820Z 29010KT CAVOK M00/M08 Q1021=
202201171750 METAR ESMX 171750Z 28008KT CAVOK M00/M07 Q1020=
202201171720 METAR ESMX 171720Z 29009KT CAVOK M00/M07 Q1020=
202201171650 METAR ESMX 171650Z 29008KT CAVOK 00/M07 Q1019=
202201171620 METAR ESMX 171620Z 29009KT CAVOK 01/M07 Q1018=
202201171550 METAR ESMX 171550Z 30009KT CAVOK 01/M07 Q1018=
202201171520 METAR ESMX 171520Z 31009KT CAVOK 01/M07 Q1017=
202201171450 METAR ESMX 171450Z 31010KT 280V340 CAVOK 02/M07 Q1017=
202201171420 METAR COR ESMX 171420Z 31010KT CAVOK 02/M07 Q1016=
202201171350 METAR ESMX 171350Z 32011KT 290V010 CAVOK 03/M07 Q1015=
202201171320 METAR ESMX 171320Z 32012KT CAVOK 03/M07 Q1014=
202201171250 METAR ESMX 171250Z 32012KT CAVOK 03/M07 Q1013=
202201171220 METAR ESMX 171220Z 32016G27KT CAVOK 03/M07 Q1012=
202201171150 METAR ESMX 171150Z 32019KT CAVOK 03/M08 Q1012=
202201171120 METAR ESMX 171120Z 33015G28KT 290V350 CAVOK 03/M08 Q1011=
202201171050 METAR ESMX 171050Z 32016G32KT 300V360 CAVOK 02/M08 Q1010=
202201171020 METAR ESMX 171020Z 31018G29KT 280V350 CAVOK 02/M09 Q1009=
202201170950 METAR COR ESMX 170950Z 31017KT CAVOK 01/M09 Q1008=
202201170920 METAR ESMX 170920Z 31014KT 270V340 CAVOK 01/M09 Q1007=
202201170850 METAR ESMX 170850Z 30016G28KT CAVOK 01/M09 Q1006=
202201170820 METAR ESMX 170820Z 30017KT CAVOK 00/M09 Q1005=
202201170750 METAR ESMX 170750Z 30015G26KT CAVOK M00/M09 Q1005=
202201170720 METAR ESMX 170720Z 30016KT CAVOK 00/M09 Q1004=
202201170650 METAR COR ESMX 170650Z 30015KT CAVOK 00/M09 Q1004=
202201170620 METAR ESMX 170620Z AUTO 31011KT 9999 NCD M00/M08 Q1003=
202201170550 METAR ESMX 170550Z AUTO 31015KT 9999 NCD 00/M08 Q1002=
202201170520 METAR ESMX 170520Z AUTO 31013KT 9999 NCD 00/M07 Q1001=
202201170450 METAR ESMX 170450Z AUTO 31015KT 9999 NCD 01/M05 Q1000=
202201170420 METAR ESMX 170420Z AUTO 32013KT 9999 NCD 01/M04 Q0999=
202201170350 METAR ESMX 170350Z AUTO 32014KT 290V350 9999 BKN088/// 01/M02 Q0999=
202201170320 METAR ESMX 170320Z AUTO 33019G30KT 9999 SCT020/// OVC055/// 01/M01 Q0998=
202201170250 METAR ESMX 170250Z AUTO 34020G36KT 1100 R01/P2000N R19/P2000N -SN BKN001/// BKN018/// OVC037/// 00/00 Q0997=
202201170220 METAR ESMX 170220Z AUTO 33018G29KT 9999 -RA SCT016/// BKN037/// BKN066/// 02/01 Q0996 RERA=
202201170150 METAR ESMX 170150Z AUTO 32019G30KT 9999 -DZ BKN020/// OVC032/// 04/02 Q0995=
202201170120 METAR ESMX 170120Z AUTO 28019G32KT 250V310 7000 -RA ///028 05/04 Q0994 REDZ REUP=
202201170050 METAR ESMX 170050Z AUTO 26021G35KT 230V300 9999 BKN019/// OVC025/// 06/03 Q0993=
202201170020 METAR ESMX 170020Z AUTO 26021G36KT 9999 OVC015/// 05/03 Q0995=
202201162350 METAR ESMX 162350Z AUTO 26018G30KT 230V290 9999 OVC016/// 05/03 Q0996=
202201162320 METAR ESMX 162320Z AUTO 25017G34KT 220V280 9999 OVC017/// 04/02 Q0997=
202201162250 METAR ESMX 162250Z AUTO 26016KT 9999 OVC019/// 04/01 Q0998=
202201162220 METAR ESMX 162220Z AUTO 26016KT 220V300 9999 BKN021/// 03/01 Q0999=
202201162150 METAR ESMX 162150Z AUTO 26014KT 9999 FEW020/// 03/01 Q1000=
202201162120 METAR ESMX 162120Z AUTO 26015KT 9999 FEW017/// 03/01 Q1000=
202201162050 METAR ESMX 162050Z AUTO 25013KT 9999 BKN015/// BKN020/// 04/02 Q1001=
202201162020 METAR ESMX 162020Z AUTO 26013KT 9999 BKN013/// OVC017/// 04/02 Q1001=
202201161950 METAR ESMX 161950Z 25010KT 210V280 9999 BKN013 04/03 Q1002=
202201161920 METAR ESMX 161920Z 25010KT 210V290 9999 BKN012 04/03 Q1002=
202201161850 METAR ESMX 161850Z 26010KT 9999 SCT011 BKN015 BKN022 05/04 Q1002=
202201161820 METAR ESMX 161820Z 26010KT 230V290 9999 BKN009 BKN012 05/04 Q1002=
202201161750 METAR ESMX 161750Z 26010KT 9999 SCT008 BKN012 05/04 Q1003 REDZ=
202201161720 METAR ESMX 161720Z 26011KT 7000 -DZ SCT006 BKN008 BKN015 05/04 Q1003=
202201161650 METAR ESMX 161650Z 26011KT 5000 DZ BKN006 BKN009 OVC012 04/04 Q1003=
202201161620 METAR ESMX 161620Z AUTO 25012KT 3500 DZ OVC005/// 04/04 Q1003=
202201161550 METAR ESMX 161550Z AUTO 25011KT 3700 BR OVC005/// 04/04 Q1003 REDZ=
202201161520 METAR ESMX 161520Z AUTO 25012KT 4600 BR OVC005/// 04/04 Q1004=
202201161450 METAR ESMX 161450Z AUTO 25013KT 3600 -DZ BKN005/// OVC007/// 04/04 Q1004 RERA=
202201161420 METAR ESMX 161420Z AUTO 25012KT 6000 -DZ OVC007/// 04/04 Q1004 REUP=
202201161350 METAR ESMX 161350Z AUTO 25011KT 9999 BKN009/// OVC011/// 04/04 Q1005=
202201161320 METAR ESMX 161320Z AUTO 25012KT 220V280 8000 BR BKN004/// OVC006/// 04/04 Q1005=
202201161250 METAR ESMX 161250Z 25011KT 9000 BKN003 03/03 Q1005=
202201161220 METAR ESMX 161220Z 22011KT 9000 BKN004 03/03 Q1006=
202201161150 METAR ESMX 161150Z 22011KT 3500 BR -RA OVC003 03/03 Q1006=
202201161120 METAR ESMX 161120Z 23012KT 3000 BR OVC002 02/02 Q1007=
202201161050 METAR ESMX 161050Z 22011KT 2500 BR OVC002 02/02 Q1007=
202201161020 METAR ESMX 161020Z 22011KT 5000 BR OVC002 02/02 Q1008=
202201160950 METAR ESMX 160950Z 22011KT 3000 BR OVC002 02/02 Q1008=
202201160920 METAR ESMX 160920Z 21011KT 3500 BR OVC002 02/02 Q1009=
202201160850 METAR ESMX 160850Z 21011KT 3000 BR OVC003 02/02 Q1010=
202201160820 METAR ESMX 160820Z 22010KT 4000 BR OVC003 02/02 Q1010=
202201160750 METAR ESMX 160750Z 22010KT 6000 OVC004 02/02 Q1010=
202201160720 METAR ESMX 160720Z 22010KT 9000 OVC005 02/02 Q1011=
202201160650 METAR ESMX 160650Z 23010KT 8000 OVC005 02/02 Q1011=
202201160620 METAR ESMX 160620Z AUTO 23010KT 9000 BR OVC005/// 02/02 Q1011 RESHUP REUP=
202201160550 METAR ESMX 160550Z AUTO 22010KT 7000 BR OVC004/// 02/02 Q1012=
202201160520 METAR ESMX 160520Z AUTO 21010KT 9000 BR OVC005/// 02/02 Q1012=
202201160450 METAR ESMX 160450Z AUTO 20010KT 9000 BR OVC004/// 02/02 Q1013=
202201160420 METAR ESMX 160420Z AUTO 22009KT 9000 BR OVC004/// 02/02 Q1013=
202201160350 METAR ESMX 160350Z AUTO 22009KT 9999 OVC005/// 02/02 Q1014=
202201160320 METAR ESMX 160320Z AUTO 22009KT 9000 OVC004/// 02/02 Q1015=
202201160250 METAR ESMX 160250Z AUTO 22009KT 9000 BR OVC004/// 02/02 Q1015=
202201160220 METAR ESMX 160220Z AUTO 22007KT 8000 BR OVC003/// 02/02 Q1014=
202201160150 METAR ESMX 160150Z AUTO 23009KT 7000 OVC001/// 02/02 Q1016=
202201160120 METAR ESMX 160120Z AUTO 23006KT 1600 OVC001/// 02/02 Q1016=
202201160050 METAR ESMX 160050Z AUTO 22005KT 0900 R01/P2000N R19/P2000N FG OVC001/// 02/02 Q1017=
202201160020 METAR ESMX 160020Z 22006KT 1200 R01/P2000N R19/P2000N BR OVC002 02/02 Q1017=
202201152350 METAR ESMX 152350Z 23006KT 1600 BR OVC002 02/02 Q1017=
202201152320 METAR COR ESMX 152320Z 23007KT 1100 R01/P2000N R19/P2000N BR OVC002 01/01 Q1018=
202201152250 METAR ESMX 152250Z AUTO 23007KT 1200 R01/P2000N R19/P2000N BR OVC001/// 01/01 Q1018=
202201152220 METAR ESMX 152220Z AUTO 24007KT 1600 BR OVC001/// 01/01 Q1018=
202201152150 METAR ESMX 152150Z AUTO 23007KT 1800 BR OVC002/// 01/01 Q1018=
202201152120 METAR ESMX 152120Z AUTO 23008KT 2300 BR OVC002/// 01/01 Q1019=
202201152050 METAR ESMX 152050Z AUTO 23007KT 6000 BR OVC003/// 01/01 Q1019=
202201152020 METAR ESMX 152020Z AUTO 23008KT 7000 BR OVC004/// 01/01 Q1019=
202201151950 METAR ESMX 151950Z AUTO 22007KT 8000 BR OVC003/// 01/00 Q1019=
202201151920 METAR ESMX 151920Z AUTO 22007KT 9000 BR OVC004/// 00/00 Q1019=
202201151850 METAR ESMX 151850Z AUTO 22007KT 9999 OVC005/// 00/M00 Q1021=
202201151820 METAR ESMX 151820Z AUTO 21007KT 9999 SCT006/// BKN009/// OVC013/// 00/M00 Q1021=
202201151750 METAR ESMX 151750Z AUTO 21006KT 9999 OVC007/// 00/M01 Q1021=
202201151720 METAR ESMX 151720Z AUTO 23010KT 9999 BKN007/// OVC009/// 00/M01 Q1021=
202201151650 METAR ESMX 151650Z AUTO 19005KT 9999 NCD M00/M03 Q1021=
202201151620 METAR ESMX 151620Z AUTO 19005KT 9999 NCD M00/M04 Q1022=
202201151550 METAR ESMX 151550Z AUTO 19005KT 9999 NCD 00/M05 Q1022=
202201151520 METAR ESMX 151520Z AUTO 22004KT 9999 FEW110/// M00/M05 Q1022=
202201151450 METAR ESMX 151450Z AUTO 23004KT 9999 NCD M00/M04 Q1022=
202201151420 METAR ESMX 151420Z AUTO 23003KT 9999 NCD M01/M04 Q1023=
202201151350 METAR ESMX 151350Z AUTO 00000KT 9999 NCD 01/M05 Q1023=
202201151320 METAR ESMX 151320Z AUTO 23002KT 9999 NCD 01/M05 Q1023=
202201151250 METAR ESMX 151250Z AUTO 23002KT 9999 NCD 01/M05 Q1024=
202201151220 METAR ESMX 151220Z AUTO 23003KT 9999 NCD 02/M05 Q1024=
202201151150 METAR ESMX 151150Z AUTO 24004KT 9999 NCD 01/M05 Q1024=
202201151120 METAR ESMX 151120Z AUTO 23004KT 9999 FEW180/// 01/M05 Q1024=
202201151050 METAR ESMX 151050Z AUTO 25003KT 9999 NCD 00/M05 Q1024=
202201151020 METAR ESMX 151020Z AUTO 24002KT 9999 NCD M00/M06 Q1024=
202201150950 METAR ESMX 150950Z AUTO 24003KT 9999 NCD M01/M05 Q1024=
202201150920 METAR ESMX 150920Z AUTO 25002KT 9999 NCD M01/M05 Q1024=
202201150850 METAR ESMX 150850Z AUTO 26003KT 9999 NCD M02/M06 Q1024=
202201150820 METAR ESMX 150820Z AUTO 28003KT 9999 NCD M05/M07 Q1024=
202201150750 METAR ESMX 150750Z AUTO 27003KT 9999 NCD M05/M07 Q1024=
202201150720 METAR ESMX 150720Z AUTO 29003KT 9999 NCD M03/M07 Q1024=
202201150650 METAR ESMX 150650Z AUTO 29003KT 9999 NCD M04/M07 Q1024=
202201150620 METAR ESMX 150620Z AUTO 33002KT 9999 NCD M03/M07 Q1024=
202201150550 METAR ESMX 150550Z AUTO 31002KT 9999 NCD M02/M06 Q1024=
202201150520 METAR ESMX 150520Z AUTO 30004KT 9999 NCD M02/M06 Q1024=
202201150450 METAR ESMX 150450Z AUTO 32004KT 9999 NCD M02/M07 Q1024=
202201150420 METAR ESMX 150420Z AUTO 32004KT 250V010 9999 NCD M02/M06 Q1024=
202201150350 METAR ESMX 150350Z AUTO 30006KT 9999 NCD M02/M06 Q1024=
202201150320 METAR ESMX 150320Z AUTO 30007KT 9999 NCD M02/M06 Q1024=
202201150250 METAR ESMX 150250Z AUTO 30007KT 9999 NCD M01/M06 Q1024=
202201150220 METAR ESMX 150220Z AUTO 30007KT 9999 NCD M02/M05 Q1024=
202201150150 METAR ESMX 150150Z AUTO 29007KT 260V320 9999 NCD M01/M05 Q1024=
202201150120 METAR ESMX 150120Z AUTO 29007KT 9999 NCD M01/M05 Q1024=
202201150050 METAR ESMX 150050Z AUTO 29007KT 9999 NCD M01/M05 Q1024=
202201150020 METAR ESMX 150020Z AUTO 28008KT 9999 NCD M01/M05 Q1024=
202201142350 METAR ESMX 142350Z AUTO 29007KT 9999 NCD M01/M05 Q1024=
202201142320 METAR ESMX 142320Z AUTO 28008KT 9999 NCD M01/M05 Q1024=
202201142250 METAR ESMX 142250Z AUTO 28008KT 9999 NCD M00/M05 Q1024=
202201142220 METAR ESMX 142220Z AUTO 28009KT 9999 NCD M00/M05 Q1024=
202201142150 METAR ESMX 142150Z AUTO 28009KT 9999 NCD M00/M05 Q1024=
202201142120 METAR ESMX 142120Z AUTO 29010KT 9999 NCD 00/M06 Q1023=
202201142050 METAR ESMX 142050Z AUTO 29009KT 9999 NCD 00/M06 Q1023=
202201142020 METAR ESMX 142020Z AUTO 29009KT 9999 NCD 01/M06 Q1023=
202201141950 METAR ESMX 141950Z AUTO 29010KT 9999 NCD 01/M06 Q1023=
202201141920 METAR ESMX 141920Z AUTO 29009KT 9999 NCD 01/M06 Q1023=
202201141850 METAR ESMX 141850Z AUTO 29009KT 9999 NCD 01/M06 Q1023=
202201141820 METAR ESMX 141820Z AUTO 30010KT 9999 NCD 02/M06 Q1022=
202201141750 METAR ESMX 141750Z AUTO 29010KT 9999 NCD 02/M06 Q1022=
202201141720 METAR ESMX 141720Z AUTO 30011KT 9999 NCD 03/M07 Q1022=
202201141650 METAR ESMX 141650Z AUTO 29011KT 9999 NCD 03/M06 Q1022=
202201141620 METAR ESMX 141620Z AUTO 28010KT 9999 NCD 03/M06 Q1021=
202201141550 METAR ESMX 141550Z 30008KT CAVOK 03/M07 Q1021=
202201141520 METAR ESMX 141520Z 29010KT CAVOK 03/M07 Q1021=
202201141450 METAR ESMX 141450Z 30010KT CAVOK 04/M08 Q1020=
202201141420 METAR ESMX 141420Z 30011KT CAVOK 05/M07 Q1020=
202201141350 METAR ESMX 141350Z 31013KT CAVOK 05/M08 Q1019=
202201141320 METAR ESMX 141320Z AUTO 31013KT 9999 NCD 05/M08 Q1019=
202201141250 METAR ESMX 141250Z 31017KT CAVOK 06/M07 Q1018=
202201141220 METAR ESMX 141220Z 31015G26KT 270V340 CAVOK 06/M07 Q1018=
202201141150 METAR ESMX 141150Z 31015G28KT 270V340 CAVOK 06/M07 Q1017=
202201141120 METAR ESMX 141120Z 31015G27KT CAVOK 06/M07 Q1017=
202201141050 METAR ESMX 141050Z 31014G25KT CAVOK 06/M06 Q1017=
202201141020 METAR ESMX 141020Z 30015KT CAVOK 06/M05 Q1016=
202201140950 METAR ESMX 140950Z 31017KT 270V330 CAVOK 06/M04 Q1015=
202201140920 METAR ESMX 140920Z 31016KT 280V340 CAVOK 06/M04 Q1015=
202201140850 METAR ESMX 140850Z 30015KT CAVOK 06/M02 Q1014=
202201140820 METAR ESMX 140820Z 30018G32KT 280V340 9999 FEW030 06/M01 Q1014=
202201140750 METAR ESMX 140750Z 29018G32KT 9999 FEW030 07/01 Q1012=
202201140720 METAR ESMX 140720Z 29015G30KT 9999 FEW030 07/02 Q1012=
202201140650 METAR ESMX 140650Z 28017KT 9999 FEW037 07/03 Q1011=
202201140620 METAR ESMX 140620Z AUTO 28017G29KT 9999 SCT030/// 08/04 Q1011=
202201140550 METAR ESMX 140550Z AUTO 28018G31KT 250V320 9999 SCT028/// BKN037/// 08/04 Q1010=
202201140520 METAR ESMX 140520Z AUTO 27017G30KT 9999 BKN030/// OVC044/// 08/05 Q1010=
202201140450 METAR ESMX 140450Z AUTO 28021G33KT 9999 BKN026/// BKN043/// OVC051/// 09/05 Q1010=
202201140420 METAR ESMX 140420Z AUTO 28019G39KT 9999 BKN022/// OVC030/// 09/05 Q1010=
202201140350 METAR ESMX 140350Z AUTO 28021G34KT 9999 OVC020/// 09/06 Q1010=
202201140320 METAR ESMX 140320Z AUTO 27017G31KT 250V310 9999 OVC019/// 09/06 Q1010=
202201140250 METAR ESMX 140250Z AUTO 27020G33KT 9999 OVC019/// 09/06 Q1010=
202201140220 METAR ESMX 140220Z AUTO 26020G35KT 9999 OVC018/// 09/06 Q1010=
202201140150 METAR ESMX 140150Z AUTO 26021G34KT 9999 OVC015/// 08/06 Q1010=
202201140120 METAR ESMX 140120Z AUTO 25019G30KT 9999 OVC014/// 08/06 Q1011=
202201140050 METAR ESMX 140050Z AUTO 26020G31KT 9999 OVC015/// 08/06 Q1011=
202201140020 METAR ESMX 140020Z AUTO 26020G31KT 9999 OVC014/// 08/06 Q1012=
202201132350 METAR ESMX 132350Z AUTO 26016G28KT 9999 OVC015/// 08/06 Q1013=
202201132320 METAR ESMX 132320Z AUTO 26018KT 230V290 9999 OVC014/// 08/06 Q1013=
202201132250 METAR ESMX 132250Z AUTO 26019G30KT 230V300 9999 OVC012/// 07/06 Q1014=
202201132220 METAR ESMX 132220Z AUTO 26019KT 9999 OVC012/// 07/05 Q1014=
202201132150 METAR ESMX 132150Z AUTO 26017G32KT 240V300 9999 OVC012/// 07/05 Q1014=
202201132120 METAR ESMX 132120Z AUTO 26018G29KT 210V280 9999 OVC013/// 07/05 Q1015=
202201132050 METAR ESMX 132050Z AUTO 26016G29KT 230V290 9999 OVC013/// 07/05 Q1015=
202201132020 METAR ESMX 132020Z AUTO 27016KT 240V300 9999 OVC013/// 07/05 Q1015=
202201131950 METAR ESMX 131950Z AUTO 28015G27KT 240V310 9999 OVC013/// 07/05 Q1016=
202201131920 METAR ESMX 131920Z AUTO 27016G27KT 240V300 9999 OVC012/// 07/05 Q1016=
202201131850 METAR ESMX 131850Z AUTO 26016G28KT 9999 OVC012/// 07/05 Q1016=
202201131820 METAR ESMX 131820Z AUTO 26016G26KT 230V290 9999 OVC013/// 06/05 Q1016=
202201131750 METAR ESMX 131750Z AUTO 26017G29KT 9999 OVC014/// 06/04 Q1016=
202201131720 METAR ESMX 131720Z AUTO 27017KT 9999 OVC014/// 06/04 Q1017=
202201131650 METAR ESMX 131650Z AUTO 27017G28KT 9999 OVC014/// 07/04 Q1017=
202201131620 METAR ESMX 131620Z AUTO 26019G32KT 9999 BKN015/// 07/04 Q1017=
202201131550 METAR ESMX 131550Z AUTO 27018G30KT 9999 OVC015/// 07/05 Q1017=
202201131520 METAR ESMX 131520Z AUTO 26017G28KT 9999 OVC014/// 07/05 Q1017=
202201131450 METAR ESMX 131450Z 27015G25KT 240V300 9999 BKN013 07/05 Q1017=
202201131420 METAR ESMX 131420Z 27015KT 9999 BKN014 07/05 Q1018=
202201131350 METAR ESMX 131350Z 25017G27KT 230V290 9999 BKN013 07/05 Q1018=
202201131320 METAR ESMX 131320Z 25016KT 9999 BKN012 07/05 Q1018=
202201131250 METAR ESMX 131250Z 25018KT 210V290 9999 BKN012 07/05 Q1018=
202201131220 METAR ESMX 131220Z 26016KT 220V280 9999 BKN011 07/06 Q1018=
202201131150 METAR ESMX 131150Z 26016G26KT 9999 BKN011 07/06 Q1018=
202201131120 METAR ESMX 131120Z 26017G31KT 230V290 9999 BKN010 07/06 Q1019=
202201131050 METAR ESMX 131050Z 27014G25KT 240V300 9999 BKN009 07/06 Q1019=
202201131020 METAR ESMX 131020Z 27015KT 9999 BKN009 07/06 Q1019=
202201130950 METAR ESMX 130950Z 26016KT 9999 BKN010 07/06 Q1019=
202201130920 METAR ESMX 130920Z 26012KT 9999 BKN009 07/06 Q1019=
202201130850 METAR ESMX 130850Z 25015G27KT 220V290 9999 BKN009 07/06 Q1020=
202201130820 METAR ESMX 130820Z 26015KT 9999 BKN010 06/05 Q1019=
202201130750 METAR ESMX 130750Z 26017KT 9999 BKN009 06/05 Q1019=
202201130720 METAR ESMX 130720Z 25015G27KT 220V280 9999 BKN009 06/06 Q1019=
202201130650 METAR ESMX 130650Z AUTO 27015KT 240V300 9999 OVC008/// 06/06 Q1019=
202201130620 METAR ESMX 130620Z AUTO 27015G29KT 9999 OVC008/// 06/06 Q1019=
202201130550 METAR ESMX 130550Z AUTO 27015G26KT 9999 OVC008/// 07/06 Q1019=
202201130520 METAR ESMX 130520Z AUTO 27014KT 9999 OVC008/// 06/06 Q1019=
202201130450 METAR ESMX 130450Z AUTO 27014G24KT 9999 OVC008/// 07/06 Q1020=
202201130420 METAR ESMX 130420Z AUTO 27013KT 9999 OVC008/// 07/06 Q1020=
202201130350 METAR ESMX 130350Z AUTO 27014G25KT 9999 OVC007/// 07/06 Q1020=
202201130320 METAR ESMX 130320Z AUTO 27013KT 240V300 9999 OVC007/// 07/06 Q1020=
202201130250 METAR ESMX 130250Z AUTO 26015KT 9000 BR OVC005/// 06/06 Q1020=
202201130220 METAR ESMX 130220Z AUTO 26014KT 6000 BR OVC004/// 06/06 Q1020=
202201130150 METAR ESMX 130150Z AUTO 26013KT 8000 BR OVC005/// 06/06 Q1021=
202201130120 METAR ESMX 130120Z AUTO 26016G28KT 7000 BR OVC004/// 06/06 Q1020=
202201130050 METAR ESMX 130050Z AUTO 26016KT 7000 BR OVC002/// 06/06 Q1021=
202201130020 METAR ESMX 130020Z AUTO 25015G26KT 4600 BR OVC002/// 06/06 Q1021=
202201122350 METAR ESMX 122350Z AUTO 26016G26KT 4700 BR OVC002/// 06/06 Q1022=
202201122320 METAR ESMX 122320Z AUTO 26014KT 7000 BR OVC003/// 06/06 Q1022=
202201122250 METAR ESMX 122250Z AUTO 26014G26KT 230V290 6000 BR OVC003/// 05/05 Q1022=
202201122220 METAR ESMX 122220Z AUTO 26012G22KT 5000 BR OVC003/// 05/05 Q1023=
202201122150 METAR ESMX 122150Z AUTO 26014KT 5000 BR OVC003/// 06/06 Q1023=
202201122120 METAR ESMX 122120Z AUTO 25013KT 4600 BR OVC003/// 05/05 Q1023=
202201122050 METAR ESMX 122050Z AUTO 25013G24KT 4900 BR OVC003/// 05/05 Q1023=
202201122020 METAR ESMX 122020Z AUTO 26015KT 2700 BR OVC002/// 05/05 Q1023=
202201121950 METAR ESMX 121950Z AUTO 26015KT 3800 BR OVC002/// 05/05 Q1024=
202201121920 METAR ESMX 121920Z AUTO 26012KT 6000 BR BKN002/// OVC005/// 05/05 Q1024=
202201121850 METAR ESMX 121850Z AUTO 26012KT 5000 BR OVC002/// 04/04 Q1024=
202201121820 METAR ESMX 121820Z AUTO 25011KT 2300 BR OVC002/// 04/04 Q1025=
202201121750 METAR ESMX 121750Z AUTO 25010KT 2500 BR OVC002/// 04/04 Q1024=
202201121720 METAR ESMX 121720Z AUTO 25011KT 7000 BR OVC002/// 04/04 Q1025=
202201121650 METAR ESMX 121650Z AUTO 25011KT 6000 BR OVC002/// 03/03 Q1025=
202201121620 METAR ESMX 121620Z AUTO 25010KT 6000 BR OVC002/// 03/03 Q1026=
202201121550 METAR ESMX 121550Z AUTO 24011KT 4600 BR OVC002/// 03/03 Q1025=
202201121520 METAR ESMX 121520Z AUTO 25011KT 4300 BR OVC002/// 03/03 Q1026=
202201121450 METAR ESMX 121450Z 25010KT 5000 OVC002 03/03 Q1026=
202201121420 METAR ESMX 121420Z 24010KT 8000 OVC003 03/03 Q1026=
202201121350 METAR ESMX 121350Z 24009KT 9999 OVC004 03/03 Q1026=
202201121320 METAR ESMX 121320Z 23010KT 9000 OVC003 03/03 Q1027=
202201121250 METAR ESMX 121250Z 22007KT 9999 OVC003 02/02 Q1027=
202201121220 METAR ESMX 121220Z 24008KT 5000 OVC002 02/02 Q1028=
202201121150 METAR ESMX 121150Z 25008KT 5000 OVC002 02/02 Q1028=
202201121120 METAR ESMX 121120Z 25010KT 5000 OVC002 02/02 Q1028=
202201121050 METAR ESMX 121050Z 26008KT 230V300 5000 OVC002 01/01 Q1029=
202201121020 METAR ESMX 121020Z 24006KT 5000 OVC002 01/01 Q1029=
202201120950 METAR ESMX 120950Z 25008KT 4500 BR OVC002 01/01 Q1029=
202201120920 METAR ESMX 120920Z 25008KT 7000 OVC002 01/01 Q1029=
202201120850 METAR ESMX 120850Z 25007KT 9000 OVC003 01/01 Q1029=
202201120820 METAR ESMX 120820Z 24006KT 9999 OVC004 01/01 Q1029=
202201120750 METAR ESMX 120750Z 26005KT 9000 OVC003 01/01 Q1029=
202201120720 METAR ESMX 120720Z 25006KT 9000 OVC003 01/01 Q1029=
202201120650 METAR ESMX 120650Z AUTO 24005KT 6000 BR OVC003/// 01/01 Q1029=
202201120620 METAR ESMX 120620Z AUTO 25006KT 4400 OVC001/// 01/01 Q1028=
202201120550 METAR ESMX 120550Z AUTO 24005KT 1100 R01/P2000N R19/P2000N OVC001/// 00/00 Q1028=
202201120520 METAR ESMX 120520Z AUTO 22007KT 2500 BR BKN002/// OVC003/// 00/00 Q1028=
202201120450 METAR ESMX 120450Z AUTO 18006KT 4700 BR OVC003/// 01/01 Q1028=
202201120420 METAR ESMX 120420Z AUTO 23005KT 4100 OVC003/// 01/01 Q1029=
202201120350 METAR ESMX 120350Z AUTO 23005KT 2200 OVC002/// 01/01 Q1029=
202201120320 METAR ESMX 120320Z AUTO 25005KT 0600 R01/1500U R19/1700U FG OVC001/// 00/00 Q1029=
202201120250 METAR ESMX 120250Z AUTO 23006KT 0500 R01/1300N R19/1400D FG OVC001/// 00/00 Q1029=
202201120220 METAR ESMX 120220Z AUTO 22008KT 0700 R01/1700N R19/P2000D FG OVC001/// 00/00 Q1029=
202201120150 METAR ESMX 120150Z AUTO 22008KT 0900 R01/P2000N R19/P2000N FG OVC001/// 00/00 Q1029=
202201120120 METAR ESMX 120120Z AUTO 22008KT 1400 R01/P2000N R19/P2000N BR OVC001/// 00/00 Q1029=
202201120050 METAR ESMX 120050Z AUTO 19008KT 2200 BR OVC002/// 00/00 Q1029=
202201120020 METAR ESMX 120020Z AUTO 19009KT 1700 BR OVC002/// 00/00 Q1029=
202201112350 METAR ESMX 112350Z AUTO 18009KT 1700 BR OVC002/// 00/00 Q1029 REFZRA=
202201112320 METAR ESMX 112320Z AUTO 19008KT 2100 BR OVC002/// 00/00 Q1030=
202201112250 METAR ESMX 112250Z AUTO 19008KT 3500 BR OVC003/// M00/M00 Q1030=
202201112220 METAR ESMX 112220Z AUTO 18007KT 1900 -RASN OVC002/// M00/M00 Q1030=
202201112150 METAR ESMX 112150Z AUTO 19009KT 2400 -SN OVC003/// M00/M00 Q1030=
202201112120 METAR ESMX 112120Z AUTO 17008KT 4900 -PL OVC004/// M00/M01 Q1030=
202201112050 METAR ESMX 112050Z AUTO 18008KT 4100 -SN OVC004/// M01/M01 Q1030=
202201112020 METAR ESMX 112020Z AUTO 18007KT 5000 SG OVC004/// M01/M01 Q1030 RESHUP REFZUP=
202201111950 METAR ESMX 111950Z AUTO 18008KT 6000 -SN OVC005/// M01/M01 Q1031=
202201111920 METAR ESMX 111920Z AUTO 18007KT 7000 BR OVC005/// M01/M01 Q1030=
202201111850 METAR ESMX 111850Z AUTO 18008KT 8000 BR OVC006/// M01/M01 Q1030=
202201111820 METAR ESMX 111820Z AUTO 18007KT 8000 BR BKN007/// OVC022/// M01/M01 Q1030=
202201111750 METAR ESMX 111750Z AUTO 18006KT 8000 BR FEW007/// OVC024/// M01/M01 Q1031=
202201111720 METAR ESMX 111720Z AUTO 18008KT 9000 BR OVC026/// M01/M01 Q1030=
202201111650 METAR ESMX 111650Z AUTO 17008KT 9000 BR OVC026/// M01/M01 Q1030=
202201111620 METAR ESMX 111620Z AUTO 17007KT 9999 OVC024/// M01/M01 Q1031=
202201111550 METAR ESMX 111550Z AUTO 18007KT 9999 OVC022/// M01/M01 Q1031=
202201111520 METAR ESMX 111520Z AUTO 17007KT 9999 OVC022/// M01/M01 Q1031=
202201111450 METAR ESMX 111450Z 16007KT 9000 BKN026 M01/M01 Q1031=
202201111420 METAR ESMX 111420Z 16007KT 120V190 9999 BKN024 M01/M01 Q1031=
202201111350 METAR ESMX 111350Z 19007KT 9999 SCT009 BKN011 M00/M01 Q1032=
202201111320 METAR ESMX 111320Z 18008KT 9999 BKN010 M00/M01 Q1032=
202201111250 METAR ESMX 111250Z 17009KT 9999 BKN010 M00/M01 Q1032=
202201111220 METAR ESMX 111220Z 18009KT 9999 BKN009 M00/M01 Q1032=
202201111150 METAR ESMX 111150Z 18007KT 9999 BKN012 M01/M01 Q1032=
202201111120 METAR ESMX 111120Z 16006KT 9999 FEW008 M01/M01 Q1032=
202201111050 METAR ESMX 111050Z 18004KT CAVOK M02/M02 Q1032=
202201111020 METAR ESMX 111020Z 15005KT CAVOK M02/M02 Q1033=
202201110950 METAR ESMX 110950Z 16004KT CAVOK M03/M03 Q1033=
202201110920 METAR ESMX 110920Z 14005KT CAVOK M03/M03 Q1033=
202201110850 METAR ESMX 110850Z 15003KT CAVOK M03/M03 Q1033=
202201110820 METAR ESMX 110820Z 13004KT 8000 SCT002 M04/M04 Q1033=
202201110750 METAR ESMX 110750Z 15004KT 3000 BR BKN002 M03/M03 Q1033=
202201110720 METAR ESMX 110720Z 14004KT 2000 BR VV002 M03/M03 Q1033=
202201110650 METAR ESMX 110650Z AUTO 16003KT 1400 R01/P2000N R19/P2000N BR OVC001/// M03/M03 Q1033=
202201110620 METAR ESMX 110620Z AUTO 15004KT 120V190 1100 R01/P2000N R19/P2000N BR OVC002/// M02/M02 Q1033=
202201110550 METAR ESMX 110550Z AUTO 15003KT 120V180 4500 OVC002/// M02/M02 Q1033=
202201110520 METAR ESMX 110520Z AUTO 19004KT 2700 OVC001/// M02/M02 Q1033=
202201110450 METAR ESMX 110450Z AUTO 16004KT 0300 R01/0900U R19/0900N FZFG VV002 M02/M02 Q1033=
202201110420 METAR ESMX 110420Z AUTO 16004KT 0450 R01/1200D R19/1300N FZFG OVC001/// M02/M02 Q1033=
202201110350 METAR ESMX 110350Z AUTO 16004KT 1800 BR OVC001/// M02/M02 Q1033=
202201110320 METAR ESMX 110320Z AUTO 14004KT 100V170 9000 BR OVC003/// M02/M02 Q1033=
202201110250 METAR ESMX 110250Z AUTO 15004KT 100V170 9999 FEW005/// SCT011/// OVC022/// M02/M03 Q1033=
202201110220 METAR ESMX 110220Z AUTO 13003KT 9999 OVC022/// M02/M02 Q1033=
202201110150 METAR ESMX 110150Z AUTO 14003KT 9000 BKN021/// M03/M03 Q1033=
202201110120 METAR ESMX 110120Z AUTO 14003KT 9999 BCFG FEW012/// BKN018/// M05/M05 Q1033=
202201110050 METAR ESMX 110050Z AUTO 11001KT 0900 R01/P2000N R19/P2000N BR NCD M07/M07 Q1033=
202201110020 METAR ESMX 110020Z AUTO VRB01KT 7000 BR NCD M06/M06 Q1033=
202201102350 METAR ESMX 102350Z AUTO VRB02KT 9999 NCD M05/M05 Q1033=
202201102320 METAR ESMX 102320Z AUTO VRB02KT 6000 BR NCD M04/M04 Q1033=
202201102250 METAR ESMX 102250Z AUTO VRB02KT 9999 SCT022/// M04/M04 Q1033=
202201102220 METAR ESMX 102220Z AUTO 00000KT 9999 OVC021/// M03/M03 Q1033=
202201102150 METAR ESMX 102150Z VRB03KT 9999 BKN022 M03/M03 Q1033=
202201102120 METAR ESMX 102120Z 00000KT 9999 SCT022 M05/M05 Q1033=
202201102050 METAR ESMX 102050Z 00000KT 1500 R01/0500N R19/1000U BCFG SCT022 M07/M07 Q1033=
202201102020 METAR ESMX 102020Z 00000KT 1200 R01/P2000N R19/0600N BCFG NSC M06/M06 Q1032=
202201101950 METAR ESMX 101950Z 00000KT 1100 R01/P2000D R19/P2000N BCFG NSC M05/M06 Q1032=
202201101920 METAR COR ESMX 101920Z 00000KT 0900 FZFG NSC M06/M06 Q1032=
202201101850 METAR ESMX 101850Z 00000KT 3500 R01/P2000N R19/0500N BCFG NSC M06/M06 Q1031=
202201101820 METAR COR ESMX 101820Z VRB01KT 2500 R01/0650N R19/0600N MIFG NSC M06/M06 Q1031=
202201101750 METAR COR ESMX 101750Z 00000KT 5000 R01/P2000N R19/0650N MIFG NSC M04/M04 Q1030=
202201101720 METAR ESMX 101720Z VRB02KT 8000 R01/0700N R19/P2000N BCFG NSC M03/M03 Q1030=
202201101650 METAR ESMX 101650Z VRB01KT CAVOK M02/M02 Q1029=
202201101620 METAR ESMX 101620Z AUTO 07002KT 9999 NCD M01/M01 Q1029=
202201101550 METAR ESMX 101550Z AUTO 07003KT 9999 NCD M01/M01 Q1029=
202201101520 METAR ESMX 101520Z AUTO 07003KT 9999 NCD M00/M01 Q1028=
202201101450 METAR COR ESMX 101450Z 07003KT CAVOK 00/M00 Q1028=
202201101420 METAR ESMX 101420Z 07004KT 9999 BKN028 01/M00 Q1028=
202201101350 METAR ESMX 101350Z 05005KT 9999 BKN024 01/00 Q1027=
202201101320 METAR ESMX 101320Z 07003KT 9999 FEW018 BKN023 01/00 Q1027=
202201101250 METAR ESMX 101250Z 08003KT 9999 BKN020 01/00 Q1027=
202201101220 METAR ESMX 101220Z 07002KT 9999 BKN020 01/01 Q1026=
202201101150 METAR ESMX 101150Z 06003KT 9999 BKN012 01/00 Q1026=
202201101120 METAR ESMX 101120Z 07004KT 9999 SCT010 BKN016 01/00 Q1025=
202201101050 METAR ESMX 101050Z 05004KT 360V120 9999 SCT010 BKN015 01/00 Q1025=
202201101020 METAR ESMX 101020Z 08004KT 060V120 9999 BKN010 01/00 Q1024=
202201100950 METAR ESMX 100950Z 07006KT 020V110 9999 BKN011 01/M00 Q1024=
202201100920 METAR ESMX 100920Z 05006KT 020V120 9999 BKN011 01/M00 Q1023=
202201100850 METAR ESMX 100850Z 07005KT 010V120 9999 BKN012 01/M00 Q1023=
202201100820 METAR ESMX 100820Z 07006KT 040V110 9999 BKN012 01/M00 Q1022=
202201100750 METAR ESMX 100750Z 06006KT 030V120 9999 SCT009 BKN013 01/00 Q1021=
202201100720 METAR ESMX 100720Z 07005KT 9999 FEW009 SCT028 00/00 Q1021=
202201100650 METAR ESMX 100650Z 03005KT 010V070 9999 BKN030 00/00 Q1020=
202201100620 METAR ESMX 100620Z AUTO 04005KT 010V070 9999 R01///// R19/P2000N OVC030/// 01/00 Q1020=
202201100550 METAR ESMX 100550Z AUTO 06005KT 030V090 9999 R01///// R19/P2000N OVC030/// 01/00 Q1019=
202201100520 METAR ESMX 100520Z AUTO 06006KT 9999 R01///// R19/P2000N SCT011/// OVC028/// 01/00 Q1018=
202201100450 METAR ESMX 100450Z AUTO 04005KT 340V080 9999 R01///// R19/P2000N BKN011/// OVC015/// 01/00 Q1018=
202201100420 METAR ESMX 100420Z AUTO 06005KT 020V080 9999 R01///// R19/P2000N BKN026/// OVC100/// 00/M00 Q1017=
202201100350 METAR ESMX 100350Z AUTO 07004KT 9999 R01///// R19/P2000N BKN030/// M00/M00 Q1016=
202201100320 METAR ESMX 100320Z AUTO 08004KT 9999 R01///// R19/P2000N SCT012/// 00/M00 Q1016=
202201100250 METAR ESMX 100250Z AUTO 07004KT 040V110 9999 R01///// R19/P2000N SCT009/// BKN012/// OVC018/// 01/00 Q1015=
202201100220 METAR ESMX 100220Z AUTO 05005KT 9999 R01///// R19/P2000N BKN012/// BKN027/// 00/00 Q1015=
202201100150 METAR ESMX 100150Z AUTO 06005KT 9999 R01///// R19/P2000N SCT012/// BKN015/// BKN025/// 01/00 Q1014=
202201100120 METAR ESMX 100120Z AUTO 05005KT 9999 R01///// R19/P2000N SCT009/// OVC026/// 01/00 Q1014=
202201100050 METAR ESMX 100050Z AUTO 04004KT 350V070 9999 R01///// R19/P2000N FEW012/// OVC023/// 01/00 Q1013=
202201100020 METAR ESMX 100020Z AUTO 06005KT 9999 R01///// R19/P2000N OVC020/// 01/00 Q1013=
202201092350 METAR ESMX 092350Z AUTO 04005KT 010V070 9999 R01///// R19/P2000N OVC020/// 00/00 Q1012=
202201092320 METAR ESMX 092320Z AUTO 06005KT 9999 R01///// R19/P2000N SCT009/// OVC021/// 00/M00 Q1012=
202201092250 METAR ESMX 092250Z AUTO 06004KT 9999 R01///// R19/P2000N SCT011/// BKN019/// M00/M00 Q1011=
202201092220 METAR ESMX 092220Z AUTO 06005KT 9999 R01///// R19/P2000N BKN090/// M00/M00 Q1010=
202201092150 METAR ESMX 092150Z AUTO 07005KT 9999 R01///// R19/P2000N FEW007/// M00/M00 Q1010=
202201092120 METAR ESMX 092120Z AUTO 06005KT 9999 R01///// R19/P2000N NCD M00/M01 Q1009=
202201092050 METAR ESMX 092050Z AUTO 06005KT 9999 R01///// R19/P2000N BKN090/// M00/M01 Q1009=
202201092020 METAR ESMX 092020Z AUTO 05006KT 9999 R01///// R19/P2000N FEW018/// BKN086/// M00/M01 Q1008=
202201091950 METAR ESMX 091950Z 07004KT 040V100 9999 BKN018 M00/M01 Q1008=
202201091920 METAR ESMX 091920Z 08005KT 050V110 9999 BKN009 M00/M01 Q1007=
202201091850 METAR ESMX 091850Z 07005KT 040V110 9999 BKN009 M00/M00 Q1007=
202201091820 METAR ESMX 091820Z 07004KT 9999 FEW009 BKN016 M00/M01 Q1006=
202201091750 METAR ESMX 091750Z 07006KT 040V110 9999 BKN016 00/M00 Q1005=
202201091720 METAR ESMX 091720Z 08005KT 030V140 9999 BKN016 00/M00 Q1005=
202201091650 METAR ESMX 091650Z 08004KT 9999 BKN017 00/M00 Q1005=
202201091620 METAR ESMX 091620Z AUTO 08004KT 9999 R01///// R19/P2000N FEW011/// OVC017/// 00/M00 Q1004=
202201091550 METAR ESMX 091550Z AUTO 07004KT 020V100 9999 R01///// R19/P2000N BKN011/// OVC018/// 00/M00 Q1004=
202201091520 METAR ESMX 091520Z AUTO 11004KT 070V130 9999 R01///// R19/P2000N FEW010/// OVC016/// 00/M00 Q1004=
202201091450 METAR ESMX 091450Z AUTO 09004KT 050V160 9999 R01///// R19/P2000N BKN012/// OVC016/// 00/M00 Q1003=
202201091420 METAR ESMX 091420Z AUTO 10005KT 060V130 9999 R01///// R19/P2000N BKN011/// OVC014/// 00/M00 Q1003=
202201091350 METAR ESMX 091350Z AUTO 10004KT 040V130 9999 R01///// R19/P2000N BKN011/// OVC014/// 01/M00 Q1002=
202201091320 METAR ESMX 091320Z AUTO 10004KT 060V140 9999 R01///// R19/P2000N BKN011/// OVC021/// 01/M00 Q1002=
202201091250 METAR ESMX 091250Z 09005KT 020V140 9999 FEW010 OVC021 01/M00 Q1001=
202201091220 METAR ESMX 091220Z 10006KT 050V160 9999 R01///// R19/P2000N FEW011 OVC020 01/M00 Q1001=
202201091150 METAR ESMX 091150Z 10005KT 060V140 9999 R01///// R19/P2000N BKN010 01/00 Q1001=
202201091120 METAR ESMX 091120Z 12005KT 070V160 9999 BKN009 OVC012 01/00 Q1001=
202201091050 METAR COR ESMX 091050Z 11005KT 080V160 9999 BKN008 01/00 Q1000=
202201091020 METAR ESMX 091020Z 12005KT 070V150 9999 OVC008 01/00 Q1000=
202201090950 METAR ESMX 090950Z 13006KT 070V160 9999 BKN008 01/00 Q1000=
202201090920 METAR ESMX 090920Z 13005KT 070V160 9999 BKN007 01/00 Q1000=
202201090850 METAR COR ESMX 090850Z 13005KT 080V150 9999 BKN008 OVC010 01/00 Q0999=
202201090820 METAR ESMX 090820Z 12005KT 070V140 9999 R01///// R19/P2000N OVC008 00/00 Q0999=
202201090750 METAR ESMX 090750Z 13004KT 080V160 9999 R01///// R19/P2000N BKN007 OVC011 00/00 Q0999=
202201090720 METAR ESMX 090720Z 11004KT 9999 R01///// R19/P2000N SCT006 OVC009 00/00 Q0999=
202201090650 METAR COR ESMX 090650Z 11004KT 070V130 9999 R01///// R19/P2000N BKN006 OVC012 00/00 Q0999=
202201090620 METAR ESMX 090620Z AUTO 10003KT 050V190 9999 R01///// R19/P2000N BKN006/// OVC009/// 00/00 Q0998=
202201090550 METAR ESMX 090550Z AUTO VRB03KT 9999 R01///// R19/P2000N OVC006/// M00/M00 Q0998=
202201090520 METAR ESMX 090520Z AUTO 18003KT 9999 R01///// R19/P2000N SCT008/// BKN010/// OVC017/// M00/M00 Q0998=
202201090450 METAR ESMX 090450Z AUTO 07003KT 030V110 9999 R01///// R19/P2000N FEW011/// BKN014/// OVC026/// M00/M00 Q0998=
202201090420 METAR ESMX 090420Z AUTO 09004KT 060V120 9999 R01///// R19/P2000N BKN020/// M00/M00 Q0998=
202201090350 METAR ESMX 090350Z AUTO VRB02KT 9999 R01///// R19/P2000N BKN021/// M00/M00 Q0998=
202201090320 METAR ESMX 090320Z AUTO 09003KT 9999 R01///// R19/P2000N BKN023/// M00/M00 Q0998=
202201090250 METAR ESMX 090250Z AUTO 15005KT 100V160 9999 R01///// R19/P2000N OVC022/// 00/M00 Q0998=
202201090220 METAR ESMX 090220Z AUTO 14003KT 110V170 9999 R01///// R19/P2000N BKN021/// M00/M00 Q0998=
202201090150 METAR ESMX 090150Z AUTO 19004KT 9999 OVC019/// 00/00 Q0998=
202201090120 METAR ESMX 090120Z AUTO 20004KT 9999 R01///// R19/P2000N OVC019/// 01/01 Q0998=
202201090050 METAR ESMX 090050Z AUTO 18005KT 9999 R01///// R19/P2000N SCT006/// OVC018/// 01/01 Q0998=
202201090020 METAR ESMX 090020Z 21004KT 9999 R01///// R19/P2000N FEW005 BKN010 BKN017 01/01 Q0998 RERA=
202201082350 METAR ESMX 082350Z 21004KT 9000 R01///// R19/P2000N FEW009 BKN019 01/01 Q0998 RESN=
202201082320 METAR ESMX 082320Z 20006KT 9999 FEW004 BKN015 01/01 Q0998=
202201082250 METAR ESMX 082250Z AUTO 22005KT 9999 -SN FEW001/// BKN004/// OVC009/// 01/01 Q0998=
202201082220 METAR ESMX 082220Z AUTO 22005KT 1700 -SN OVC003/// 01/01 Q0998 RESHUP RESG=
202201082150 METAR ESMX 082150Z AUTO 22006KT 9999 SG OVC003/// 01/01 Q0997=
202201082120 METAR ESMX 082120Z AUTO 22006KT 5000 -SN BKN004/// BKN007/// OVC022/// 01/01 Q0997=
202201082050 METAR ESMX 082050Z AUTO 25006KT 9999 -SN SCT003/// BKN005/// OVC011/// 01/01 Q0997=
202201082020 METAR ESMX 082020Z AUTO 23005KT 3800 -SN BKN003/// OVC006/// 01/01 Q0997=
202201081950 METAR ESMX 081950Z AUTO 22007KT 3200 -SN SCT003/// BKN005/// OVC007/// 01/01 Q0997=
202201081920 METAR ESMX 081920Z AUTO 22008KT 4000 -SN OVC004/// 01/01 Q0997=
202201081850 METAR ESMX 081850Z AUTO 22007KT 3800 -SN BKN004/// BKN006/// OVC013/// 01/01 Q0997=
202201081820 METAR ESMX 081820Z AUTO 22007KT 4200 -SN BKN006/// OVC010/// 01/01 Q0997 RESG=
202201081750 METAR ESMX 081750Z AUTO 21008KT 9000 SG OVC005/// 01/01 Q0997=
202201081720 METAR ESMX 081720Z AUTO 20010KT 4600 -SN SCT002/// OVC004/// 01/01 Q0997 REUP=
202201081650 METAR ESMX 081650Z AUTO 19009KT 2400 R01///// R19/P2000N BKN002/// OVC004/// 01/01 Q0997 REUP=
202201081620 METAR ESMX 081620Z AUTO 19008KT 4500 R01///// R19/P2000N OVC002/// 01/01 Q0997=
202201081550 METAR ESMX 081550Z AUTO 18008KT 7000 R01///// R19/P2000N OVC003/// 01/01 Q0997=
202201081520 METAR ESMX 081520Z AUTO 18008KT 4700 -SN FEW002/// OVC004/// 00/00 Q0997=
202201081450 METAR ESMX 081450Z AUTO 17009KT 4200 -RASN BKN002/// BKN004/// OVC018/// 00/00 Q0997=
202201081420 METAR ESMX 081420Z AUTO 14009KT 110V180 6000 -SN FEW001/// BKN004/// BKN006/// 00/00 Q0998=
202201081350 METAR ESMX 081350Z AUTO 14007KT 110V170 0450 R01/1000D R19/0750N SN VV005 00/00 Q0998=
202201081320 METAR ESMX 081320Z AUTO 15008KT 110V190 1400 R01/1800D R19/1900D -SN BKN001/// OVC015/// 00/00 Q0999=
202201081250 METAR ESMX 081250Z AUTO 15007KT 3100 -SN OVC007/// 01/00 Q0999 REUP=
202201081220 METAR ESMX 081220Z AUTO 15006KT 9999 OVC007/// 01/00 Q0999=
202201081150 METAR ESMX 081150Z AUTO 16006KT 9999 BKN007/// OVC032/// 01/00 Q1000=
202201081120 METAR ESMX 081120Z AUTO 16006KT 9999 BKN007/// BKN009/// OVC030/// 01/00 Q1000=
202201081050 METAR ESMX 081050Z AUTO 17006KT 9999 BKN007/// OVC010/// 01/00 Q1001 RESHUP REUP=
202201081020 METAR ESMX 081020Z AUTO 16005KT 8000 BR SCT005/// BKN012/// OVC032/// 01/01 Q1001 REUP=
202201080950 METAR ESMX 080950Z AUTO 15005KT 110V190 7000 BR FEW002/// BKN005/// OVC034/// 01/01 Q1002 RESHUP REUP=
202201080920 METAR ESMX 080920Z AUTO 17005KT 6000 BR BKN005/// OVC030/// 01/01 Q1002=
202201080850 METAR ESMX 080850Z 16005KT 120V190 5000 BR BKN004 BKN007 01/01 Q1002=
202201080820 METAR ESMX 080820Z 17005KT 6000 BR BKN004 01/01 Q1002 REDZ=
202201080750 METAR ESMX 080750Z AUTO 18006KT 6000 BR OVC004/// 01/01 Q1002=
202201080720 METAR ESMX 080720Z AUTO 18006KT 5000 BR FEW002/// OVC004/// 01/01 Q1002 REUP=
202201080650 METAR ESMX 080650Z AUTO 18005KT 4400 -RA FEW002/// BKN004/// OVC006/// 01/01 Q1002 REUP=
202201080620 METAR ESMX 080620Z AUTO 17004KT 5000 BR BKN004/// OVC032/// 01/01 Q1003=
202201080550 METAR ESMX 080550Z AUTO 17006KT 6000 BR BKN004/// OVC031/// 01/01 Q1003=
202201080520 METAR ESMX 080520Z AUTO 17005KT 4500 BR OVC003/// 01/01 Q1003=
202201080450 METAR ESMX 080450Z AUTO 19006KT 4900 BR OVC003/// 01/01 Q1003=
202201080420 METAR ESMX 080420Z AUTO 18004KT 5000 BR OVC004/// 01/01 Q1003=
202201080350 METAR ESMX 080350Z AUTO 18005KT 5000 BR OVC003/// 01/01 Q1003 REUP=
202201080320 METAR ESMX 080320Z AUTO 18005KT 4400 BR OVC002/// 01/01 Q1003=
202201080250 METAR ESMX 080250Z AUTO 18006KT 3000 BR OVC002/// 01/01 Q1003 REUP RESHUP=
202201080220 METAR ESMX 080220Z AUTO 17006KT 5000 BR BKN003/// OVC014/// 01/01 Q1003=
202201080150 METAR ESMX 080150Z AUTO 18005KT 5000 BR BKN003/// OVC014/// 01/01 Q1004=
202201080120 METAR ESMX 080120Z AUTO 18005KT 4600 BR OVC003/// 01/01 Q1004=
202201080050 METAR ESMX 080050Z AUTO 18005KT 4100 BR OVC002/// 01/01 Q1004=
202201080020 METAR ESMX 080020Z AUTO 19006KT 2400 OVC001/// 01/01 Q1004=
202201072350 METAR ESMX 072350Z AUTO 21006KT 1700 OVC001/// 01/01 Q1004=
202201072320 METAR ESMX 072320Z AUTO 19004KT 0450 R01/1200N R19/1200N FG BKN001/// OVC002/// 00/00 Q1004=
202201072250 METAR ESMX 072250Z AUTO 19006KT 0350 R01/1000N R19/1000N FG SCT001/// OVC002/// 01/01 Q1004=
202201072220 METAR ESMX 072220Z AUTO 20006KT 0350 R01/1000N R19/1000N FG OVC001/// 00/00 Q1004=
202201072150 METAR ESMX 072150Z AUTO 19004KT 0400 R01/1100D R19/1200D FG OVC001/// 00/00 Q1004 RESHUP=
202201072120 METAR ESMX 072120Z AUTO 20005KT 0700 R01/1900D R19/P2000N FG OVC001/// 00/00 Q1004 RESN RESHUP=
202201072050 METAR ESMX 072050Z AUTO 18006KT 7000 BR OVC002/// 00/00 Q1004 RESHUP=
202201072020 METAR ESMX 072020Z AUTO 20006KT 7000 UP OVC003/// 00/00 Q1004 RERA=
202201071950 METAR ESMX 071950Z AUTO 18006KT 8000 -PL OVC003/// 00/00 Q1004=
202201071920 METAR ESMX 071920Z AUTO 17005KT 7000 -PL OVC002/// 00/00 Q1004=
202201071850 METAR ESMX 071850Z AUTO 17006KT 5000 -SN OVC003/// 00/00 Q1004=
202201071820 METAR ESMX 071820Z AUTO 17006KT 3900 -SN BKN001/// BKN003/// OVC007/// 00/00 Q1004=
202201071750 METAR ESMX 071750Z AUTO 17005KT 0900 R01/P2000N R19/P2000N -SN BKN001/// OVC008/// 00/00 Q1004=
202201071720 METAR ESMX 071720Z 17006KT 1700 -SN BKN003 01/01 Q1004=
202201071650 METAR ESMX 071650Z 17006KT 5000 -RASN BKN003 01/01 Q1004=
202201071620 METAR ESMX 071620Z 18006KT 9999 -RASN BKN005 01/01 Q1004=
202201071550 METAR ESMX 071550Z 16007KT 9999 BKN005 01/01 Q1004 RESHRASN=
202201071520 METAR ESMX 071520Z 16006KT 4700 -RASN BKN001 OVC005 01/01 Q1004=
202201071450 METAR ESMX 071450Z 17006KT 9999 -DZ BKN006 01/01 Q1004=
202201071420 METAR ESMX 071420Z 17007KT 9000 -RA BKN006 01/01 Q1005=
202201071350 METAR ESMX 071350Z 16007KT 8000 -RA BKN005 BKN007 01/01 Q1005=
202201071320 METAR ESMX 071320Z 17007KT 4800 -RA BKN005 BKN015 01/01 Q1005=
202201071250 METAR ESMX 071250Z 17007KT 7000 -RA BKN005 01/01 Q1005 REDZ=
202201071220 METAR ESMX 071220Z 18007KT 7000 -DZ OVC005 01/01 Q1005=
202201071150 METAR ESMX 071150Z 18008KT 4400 -RASN FEW002 BKN004 01/01 Q1006=
202201071120 METAR ESMX 071120Z 18007KT 4100 -RA BKN003 01/01 Q1006=
202201071050 METAR ESMX 071050Z 18006KT 4300 -RA BKN003 01/01 Q1006 RERA=
202201071020 METAR ESMX 071020Z 18007KT 4900 -RA BKN004 01/01 Q1006 REDZ=
202201070950 METAR ESMX 070950Z 16005KT 4300 -FZDZ BKN003 00/00 Q1006=
202201070920 METAR ESMX 070920Z 15004KT 3700 -FZRA BKN002 M00/M00 Q1006 REFZDZ=
202201070850 METAR ESMX 070850Z 16005KT 4000 BR OVC002 M01/M01 Q1007=
202201070820 METAR ESMX 070820Z 16004KT 3000 BR OVC002 M01/M01 Q1007=
202201070750 METAR ESMX 070750Z 16005KT 2500 SN OVC002 M01/M01 Q1007=
202201070720 METAR ESMX 070720Z 15005KT 5000 -SN OVC002 M02/M02 Q1007=
202201070650 METAR COR ESMX 070650Z 15005KT 5000 -SN OVC002 M02/M02 Q1007=
202201070620 METAR ESMX 070620Z AUTO 14004KT 2300 -SN OVC001/// M02/M02 Q1007=
202201070550 METAR ESMX 070550Z AUTO 14003KT 2000 -SN OVC001/// M03/M03 Q1007 RESHUP REUP=
202201070520 METAR ESMX 070520Z AUTO 19004KT 9999 OVC003/// M03/M03 Q1008=
202201070450 METAR ESMX 070450Z AUTO VRB03KT 9999 FZUP OVC004/// M03/M03 Q1008=
202201070420 METAR ESMX 070420Z AUTO 19002KT 2500 -SN FEW002/// SCT008/// BKN029/// M03/M04 Q1008 REFZUP=
202201070350 METAR ESMX 070350Z AUTO 19003KT 9999 FEW027/// BKN035/// OVC190/// M04/M04 Q1008=
202201070320 METAR ESMX 070320Z AUTO 20003KT 9999 FEW024/// BKN034/// OVC046/// M04/M04 Q1009=
202201070250 METAR ESMX 070250Z AUTO 20004KT 9999 SCT042/// OVC051/// M04/M04 Q1009=
202201070220 METAR ESMX 070220Z AUTO 00000KT 9999 SCT005/// OVC008/// M04/M04 Q1009=
202201070150 METAR ESMX 070150Z AUTO 00000KT 9999 BKN002/// OVC005/// M04/M04 Q1009=
202201070120 METAR ESMX 070120Z AUTO 21003KT 9999 OVC003/// M04/M05 Q1010=
202201070050 METAR ESMX 070050Z AUTO 21003KT 9999 BKN005/// OVC025/// M05/M05 Q1010=
202201070020 METAR ESMX 070020Z AUTO 21004KT 9999 SCT030/// M05/M06 Q1010=
202201062350 METAR ESMX 062350Z AUTO 19005KT 9999 FEW008/// BKN013/// M05/M05 Q1011=
202201062320 METAR ESMX 062320Z AUTO 19005KT 9999 FEW009/// BKN018/// OVC031/// M05/M05 Q1011=
202201062250 METAR ESMX 062250Z AUTO 22003KT 9999 BKN015/// OVC038/// M07/M07 Q1011=
202201062220 METAR ESMX 062220Z AUTO 22002KT 9999 FEW020/// SCT033/// M09/M10 Q1011=
202201062150 METAR ESMX 062150Z AUTO 13003KT 9999 NCD M08/M08 Q1011=
202201062120 METAR ESMX 062120Z AUTO 22002KT 9999 NCD M09/M10 Q1011=
202201062050 METAR ESMX 062050Z AUTO 17002KT 9999 NCD M09/M09 Q1011=
202201062020 METAR ESMX 062020Z AUTO 22002KT 9999 NCD M08/M09 Q1011=
202201061950 METAR ESMX 061950Z AUTO 22003KT 9999 NCD M07/M08 Q1011=
202201061920 METAR ESMX 061920Z AUTO 22002KT 9999 NCD M08/M09 Q1011=
202201061850 METAR ESMX 061850Z AUTO 22003KT 9999 NCD M07/M08 Q1012=
202201061820 METAR ESMX 061820Z 22002KT CAVOK M07/M07 Q1012=
202201061750 METAR ESMX 061750Z 23005KT CAVOK M08/M08 Q1012=
202201061720 METAR ESMX 061720Z 22004KT CAVOK M07/M08 Q1012=
202201061650 METAR ESMX 061650Z 22003KT CAVOK M07/M08 Q1012=
202201061620 METAR ESMX 061620Z 22004KT CAVOK M07/M07 Q1012=
202201061550 METAR ESMX 061550Z 24005KT CAVOK M07/M07 Q1012=
202201061520 METAR ESMX 061520Z 24004KT CAVOK M06/M06 Q1011=
202201061450 METAR ESMX 061450Z 24004KT CAVOK M06/M07 Q1011=
202201061420 METAR ESMX 061420Z AUTO 26003KT 9999 NCD M04/M05 Q1011=
202201061350 METAR ESMX 061350Z AUTO 27003KT 240V300 9999 NCD M04/M05 Q1011=
202201061320 METAR ESMX 061320Z 30004KT CAVOK M03/M05 Q1010=
202201061250 METAR ESMX 061250Z 28007KT CAVOK M03/M05 Q1010=
202201061220 METAR ESMX 061220Z 28008KT CAVOK M03/M05 Q1010=
202201061150 METAR ESMX 061150Z 28009KT CAVOK M04/M06 Q1010=
202201061120 METAR ESMX 061120Z 28009KT CAVOK M04/M06 Q1009=
202201061050 METAR ESMX 061050Z AUTO 29006KT 9999 NCD M04/M06 Q1009=
202201061020 METAR ESMX 061020Z AUTO 30005KT 9999 NCD M04/M06 Q1009=
202201060950 METAR ESMX 060950Z AUTO 30006KT 280V340 9999 NCD M05/M07 Q1009=
202201060920 METAR ESMX 060920Z AUTO 30006KT 9999 NCD M05/M07 Q1008=
202201060850 METAR ESMX 060850Z AUTO 30006KT 9999 NCD M06/M08 Q1008=
202201060820 METAR ESMX 060820Z AUTO 31005KT 9999 NCD M06/M08 Q1007=
202201060750 METAR ESMX 060750Z AUTO 30005KT 9999 NCD M06/M08 Q1007=
202201060720 METAR ESMX 060720Z AUTO 31006KT 290V350 9999 NCD M06/M07 Q1006=
202201060650 METAR ESMX 060650Z AUTO 30005KT 9999 NCD M06/M08 Q1006=
202201060620 METAR ESMX 060620Z AUTO 30006KT 9999 NCD M05/M07 Q1005=
202201060550 METAR ESMX 060550Z AUTO 32009KT 9999 NCD M04/M07 Q1005=
202201060520 METAR ESMX 060520Z AUTO 32011KT 9999 NCD M04/M06 Q1004=
202201060450 METAR ESMX 060450Z AUTO 32010KT 9999 BKN020/// BKN030/// OVC110/// M03/M06 Q1004 RESHUP RESN=
202201060420 METAR ESMX 060420Z AUTO 33013KT 9999 OVC023/// M03/M06 Q1003=
202201060350 METAR ESMX 060350Z AUTO 33012KT 9999 OVC019/// M03/M05 Q1002=
202201060320 METAR ESMX 060320Z AUTO 32011KT 9999 -SN BKN019/// OVC027/// M03/M05 Q1001=
202201060250 METAR ESMX 060250Z AUTO 32012KT 9999 SG BKN021/// OVC028/// M03/M05 Q1001=
202201060220 METAR ESMX 060220Z AUTO 32012KT 9999 -SN BKN022/// OVC031/// M03/M06 Q1000=
202201060150 METAR ESMX 060150Z AUTO 32012KT 9999 -SN BKN024/// OVC033/// M03/M05 Q1000=
202201060120 METAR ESMX 060120Z AUTO 31011KT 9999 -SN BKN024/// OVC046/// M03/M05 Q0999=
202201060050 METAR ESMX 060050Z AUTO 32010KT 9999 BKN024/// BKN037/// OVC045/// M03/M05 Q0999 RESHUP=
202201060020 METAR ESMX 060020Z AUTO 32010KT 9999 -SN SCT023/// OVC032/// M03/M05 Q0999=
202201052350 METAR ESMX 052350Z AUTO 32008KT 9999 -SN FEW018/// OVC024/// M03/M05 Q0998 RESHUP=
202201052320 METAR ESMX 052320Z AUTO 32007KT 9999 OVC032/// M03/M05 Q0998 REFZUP RESHUP=
202201052250 METAR ESMX 052250Z AUTO 32008KT 9999 BKN024/// OVC031/// M03/M05 Q0997 REFZUP=
202201052220 METAR ESMX 052220Z AUTO 31007KT 9999 BKN028/// M04/M05 Q0997=
202201052150 METAR ESMX 052150Z AUTO 33010KT 9999 FEW030/// M04/M06 Q0996=
202201052120 METAR ESMX 052120Z AUTO 33015KT 9999 SCT019/// M03/M06 Q0996=
202201052050 METAR ESMX 052050Z AUTO 34010KT 300V010 9999 BKN017/// OVC021/// M02/M04 Q0995=
202201052020 METAR ESMX 052020Z AUTO 33010KT 9999 OVC013/// M02/M03 Q0994=
202201051950 METAR ESMX 051950Z AUTO 32011KT 9999 OVC011/// M01/M03 Q0993 RESN=
202201051920 METAR ESMX 051920Z AUTO 33009KT 9999 BKN014/// OVC020/// M01/M02 Q0993 RESN=
202201051850 METAR ESMX 051850Z AUTO 31007KT 9999 BKN016/// OVC021/// M00/M01 Q0992=
202201051820 METAR ESMX 051820Z AUTO 34005KT 9999 -SN FEW004/// SCT014/// OVC019/// M00/M01 Q0991 REFZUP=
202201051750 METAR ESMX 051750Z AUTO 31005KT 9999 OVC020/// M00/M01 Q0991=
202201051720 METAR ESMX 051720Z AUTO 33007KT 9999 SCT010/// OVC023/// 00/M01 Q0990=
202201051650 METAR ESMX 051650Z AUTO 32007KT 9999 BKN011/// OVC014/// 00/M00 Q0990=
202201051620 METAR ESMX 051620Z AUTO 32005KT 9999 SCT009/// BKN011/// BKN021/// 01/00 Q0989 RESN=
202201051550 METAR ESMX 051550Z AUTO 32006KT 9999 FEW006/// BKN012/// OVC016/// 01/00 Q0989=
202201051520 METAR ESMX 051520Z AUTO 31006KT 2200 -SN SCT002/// BKN006/// BKN008/// 01/01 Q0988=
202201051450 METAR ESMX 051450Z 32003KT 3300 BR BKN002 OVC007 01/01 Q0987=
202201051420 METAR ESMX 051420Z 27003KT 9999 BKN002 OVC010 01/01 Q0987=
202201051350 METAR ESMX 051350Z 22004KT 1400 R01/1600U R19/P2000N SN VV012 00/00 Q0986=
202201051320 METAR ESMX 051320Z 26004KT 1100 R01/P2000D R19/P2000D SHSN SCT001 OVC008 01/01 Q0986=
202201051250 METAR ESMX 051250Z 26004KT 230V290 1300 R01/P2000N R19/1800N BR -SHSNRA BKN003 01/01 Q0986=
202201051220 METAR ESMX 051220Z 23006KT 5000 -SHSNRA OVC003 01/01 Q0985=
202201051150 METAR ESMX 051150Z 21006KT 9999 BR -SHRA OVC004 02/02 Q0985=
202201051120 METAR ESMX 051120Z 23006KT 4100 BR OVC002 02/02 Q0985=
202201051050 METAR ESMX 051050Z 21008KT 6000 -DZ OVC005 02/02 Q0985=
202201051020 METAR COR ESMX 051020Z 19009KT 9999 OVC006 02/02 Q0985=
202201050950 METAR ESMX 050950Z AUTO 20010KT 9000 BR OVC005/// 01/01 Q0985 RERA=
202201050920 METAR ESMX 050920Z 20010KT 9999 BKN006 01/01 Q0985=
202201050850 METAR ESMX 050850Z 19009KT 9999 OVC006 01/01 Q0984=
202201050820 METAR ESMX 050820Z 19008KT 9999 -SHSN FEW002 BKN006 01/01 Q0985=
202201050750 METAR ESMX 050750Z 19010KT 7000 BR OVC007 01/00 Q0984=
202201050720 METAR ESMX 050720Z 20012KT 9999 OVC008 01/00 Q0984=
202201050650 METAR ESMX 050650Z 20011KT 9999 OVC008 01/00 Q0984=
202201050620 METAR ESMX 050620Z AUTO 21010KT 9999 OVC009/// 01/00 Q0984=
202201050550 METAR ESMX 050550Z AUTO 21011KT 9999 OVC009/// 01/00 Q0984=
202201050520 METAR ESMX 050520Z AUTO 22010KT 9999 OVC010/// 01/00 Q0984=
202201050450 METAR ESMX 050450Z AUTO 22013KT 9999 OVC009/// 01/01 Q0984=
202201050420 METAR ESMX 050420Z AUTO 22012KT 9999 OVC009/// 01/01 Q0984=
202201050350 METAR ESMX 050350Z AUTO 20014KT 9999 OVC009/// 01/01 Q0984=
202201050320 METAR ESMX 050320Z AUTO 22013KT 9999 -DZ BKN008/// OVC011/// 01/01 Q0984=
202201050250 METAR ESMX 050250Z AUTO 21013KT 9999 -DZ BKN007/// OVC010/// 01/01 Q0984 RESHUP RERA=
202201050220 METAR ESMX 050220Z AUTO 19014KT 9999 BKN008/// OVC010/// 01/01 Q0984 REUP=
202201050150 METAR ESMX 050150Z AUTO 20013KT 9999 UP OVC009/// 01/01 Q0984=
202201050120 METAR ESMX 050120Z AUTO 21011KT 9999 OVC008/// 01/01 Q0984=
202201050050 METAR ESMX 050050Z AUTO 20010KT 9999 OVC007/// 01/01 Q0985=
202201050020 METAR ESMX 050020Z AUTO 19010KT 9999 BKN007/// BKN009/// OVC014/// 01/01 Q0985=
202201042350 METAR ESMX 042350Z AUTO 22009KT 9999 OVC006/// 01/01 Q0985=
202201042320 METAR ESMX 042320Z AUTO 20010KT 9999 OVC006/// 01/01 Q0985=
202201042250 METAR ESMX 042250Z AUTO 22010KT 9999 OVC005/// 01/01 Q0985 RESHUP=
202201042220 METAR ESMX 042220Z AUTO 21010KT 1300 R01/P2000N R19/P2000N -SN SCT001/// BKN004/// OVC007/// 01/01 Q0985 REUP=
202201042150 METAR ESMX 042150Z AUTO 22010KT 9999 UP OVC005/// 01/01 Q0985=
202201042120 METAR ESMX 042120Z AUTO 22008KT 9999 OVC004/// 01/01 Q0985=
202201042050 METAR ESMX 042050Z AUTO 21008KT 9999 OVC004/// 01/01 Q0985=
202201042020 METAR ESMX 042020Z AUTO 19008KT 9999 OVC004/// 01/01 Q0985=
202201041950 METAR ESMX 041950Z AUTO 20007KT 9999 OVC005/// 01/01 Q0986 REUP=
202201041920 METAR ESMX 041920Z AUTO 22007KT 9999 OVC006/// 01/01 Q0986=
202201041850 METAR ESMX 041850Z AUTO 22007KT 9999 OVC004/// 00/00 Q0986=
202201041820 METAR ESMX 041820Z AUTO 21008KT 9999 OVC005/// 00/00 Q0986=
202201041750 METAR ESMX 041750Z AUTO 22008KT 8000 OVC001/// 00/00 Q0986=
202201041720 METAR ESMX 041720Z AUTO 20007KT 1300 R01/P2000N R19/P2000N BR OVC001/// 00/00 Q0986=
202201041650 METAR ESMX 041650Z AUTO 19006KT 8000 BR OVC002/// M00/M00 Q0986=
202201041620 METAR ESMX 041620Z AUTO 21006KT 1800 OVC001/// 00/00 Q0986=
202201041550 METAR ESMX 041550Z AUTO 19005KT 2700 OVC001/// 00/00 Q0986=
202201041520 METAR ESMX 041520Z AUTO 19005KT 0350 R01/1300U R19/1000N FG OVC001/// 00/00 Q0987=
202201041450 METAR ESMX 041450Z 18006KT 0650 R01/1400D R19/P2000N FG BKN002 00/00 Q0987=
202201041420 METAR ESMX 041420Z 19006KT 9999 FEW006 OVC090 01/00 Q0987=
202201041350 METAR ESMX 041350Z 18005KT CAVOK 01/00 Q0987=
202201041320 METAR ESMX 041320Z 20004KT 9999 FEW005 BKN094 01/01 Q0987=
202201041250 METAR ESMX 041250Z 20005KT 9999 SCT004 BKN098 01/01 Q0988=
202201041220 METAR ESMX 041220Z 20006KT 9999 BKN003 01/01 Q0988=
202201041150 METAR ESMX 041150Z 21006KT 6000 BR OVC002 01/01 Q0988=
202201041120 METAR ESMX 041120Z 22006KT 2100 BR OVC002 01/01 Q0988=
202201041050 METAR ESMX 041050Z 20006KT 1100 R01/1500D R19/1400U BR OVC002 00/00 Q0989=
202201041020 METAR ESMX 041020Z 21007KT 8000 BR OVC002 00/00 Q0989=
202201040950 METAR ESMX 040950Z 20006KT 9999 SCT005 BKN084 00/00 Q0989=
202201040920 METAR ESMX 040920Z 19006KT CAVOK M01/M01 Q0989=
202201040850 METAR ESMX 040850Z 22006KT CAVOK M01/M01 Q0990=
202201040820 METAR ESMX 040820Z 22007KT CAVOK M01/M01 Q0990=
202201040750 METAR ESMX 040750Z 22007KT CAVOK M01/M01 Q0990=
202201040720 METAR ESMX 040720Z 23006KT CAVOK M01/M01 Q0990=
202201040650 METAR ESMX 040650Z AUTO 22006KT 9999 NCD M01/M01 Q0990=
202201040620 METAR ESMX 040620Z AUTO 22006KT 9999 NCD M01/M01 Q0990=
202201040550 METAR ESMX 040550Z AUTO 22006KT 9999 NCD M01/M01 Q0990=
202201040520 METAR ESMX 040520Z AUTO 20008KT 9999 NCD M00/M01 Q0990=
202201040450 METAR ESMX 040450Z AUTO 20006KT 9999 NCD M01/M01 Q0990=
202201040420 METAR ESMX 040420Z AUTO 20004KT 9999 NCD M00/M01 Q0990=
202201040350 METAR ESMX 040350Z AUTO 24005KT 9999 NCD 01/M00 Q0990=
202201040320 METAR ESMX 040320Z AUTO 24006KT 9999 NCD 01/00 Q0990=
202201040250 METAR ESMX 040250Z AUTO 24006KT 9999 NCD 01/01 Q0990=
202201040220 METAR ESMX 040220Z AUTO 22006KT 9999 NCD 02/01 Q0990=
202201040150 METAR ESMX 040150Z AUTO 24005KT 9999 FEW043/// SCT059/// BKN078/// 02/02 Q0990=
202201040120 METAR ESMX 040120Z AUTO 26008KT 9999 FEW026/// SCT100/// 03/02 Q0990=
202201040050 METAR ESMX 040050Z AUTO 27011KT 9999 FEW014/// OVC020/// 04/03 Q0990=
202201040020 METAR ESMX 040020Z AUTO 25012KT 220V280 9999 BR FEW005/// SCT011/// OVC019/// 05/05 Q0990=
202201032350 METAR ESMX 032350Z AUTO 21010KT 4900 -RA FEW002/// BKN005/// OVC011/// 05/05 Q0989 RERA=
202201032320 METAR ESMX 032320Z AUTO 21011KT 7000 BR OVC007/// 05/05 Q0989=
202201032250 METAR ESMX 032250Z AUTO 20010KT 7000 -RA BKN006/// OVC008/// 05/05 Q0990=
202201032220 METAR ESMX 032220Z AUTO 20012KT 9999 BKN008/// BKN010/// OVC012/// 06/05 Q0990 REUP=
202201032150 METAR ESMX 032150Z AUTO 20011KT 9999 -DZ FEW008/// BKN011/// BKN015/// 06/05 Q0990 REUP=
202201032120 METAR ESMX 032120Z AUTO 20011KT 9999 FEW010/// BKN012/// BKN017/// 06/05 Q0990=
202201032050 METAR ESMX 032050Z 22011KT 9999 -DZ SCT006 BKN014 BKN020 06/05 Q0991=
202201032020 METAR ESMX 032020Z 22010KT 6000 DZ BKN006 BKN010 06/05 Q0991=
202201031950 METAR ESMX 031950Z 22009KT 8000 DZ BKN007 06/06 Q0991 RERA=
202201031920 METAR ESMX 031920Z 20008KT 9999 SCT006 BKN008 BKN012 06/06 Q0992=
202201031850 METAR ESMX 031850Z 21010KT 5000 -DZ SCT006 BKN008 BKN010 06/05 Q0992=
202201031820 METAR ESMX 031820Z 20009KT 160V230 6000 -DZ SCT006 BKN008 BKN010 06/06 Q0992=
202201031750 METAR ESMX 031750Z 22010KT 9999 -RA BKN009 BKN013 06/05 Q0992 RESHRA REDZ=
202201031720 METAR ESMX 031720Z 21010KT 9999 DZ BKN009 BKN013 06/06 Q0993 RERA=
202201031650 METAR ESMX 031650Z 22010KT 9999 BKN009 BKN012 06/06 Q0993=
202201031620 METAR ESMX 031620Z 23009KT 9999 BKN009 BKN012 06/06 Q0993 REDZ=
202201031550 METAR ESMX 031550Z 23010KT 9999 BKN012 BKN015 06/06 Q0993 RERA=
202201031520 METAR ESMX 031520Z 23009KT 9999 BKN011 BKN015 06/06 Q0993=
202201031450 METAR ESMX 031450Z AUTO 23010KT 9999 BKN010/// OVC013/// 06/06 Q0993=
202201031420 METAR ESMX 031420Z 23009KT 9999 -DZ SCT009 BKN012 06/06 Q0993=
202201031350 METAR ESMX 031350Z 21008KT 9999 DZ BKN008 BKN011 OVC013 06/06 Q0994 RERA=
202201031320 METAR ESMX 031320Z 22008KT 9999 BKN008 06/06 Q0994 RESHRA=
202201031250 METAR ESMX 031250Z 22010KT 9999 BKN006 06/06 Q0994=
202201031220 METAR ESMX 031220Z 20008KT 9000 -RA BKN006 06/06 Q0994=
202201031150 METAR ESMX 031150Z 22009KT 9999 -RA BKN005 OVC007 06/06 Q0994=
202201031120 METAR ESMX 031120Z 20009KT 9999 -RA BKN005 06/06 Q0995=
202201031050 METAR ESMX 031050Z 21008KT 9999 BKN005 06/06 Q0995=
202201031020 METAR ESMX 031020Z 22008KT 9999 BKN004 06/06 Q0995=
202201030950 METAR ESMX 030950Z 21008KT 9999 BKN007 06/06 Q0995=
202201030920 METAR ESMX 030920Z 22007KT 9999 FEW007 BKN022 05/05 Q0995=
202201030850 METAR ESMX 030850Z 22007KT 9000 -RA SCT005 BKN010 06/06 Q0996=
202201030820 METAR ESMX 030820Z 22008KT 9000 BKN002 06/06 Q0996=
202201030750 METAR ESMX 030750Z 21008KT 8000 BKN004 05/05 Q0995=
202201030720 METAR ESMX 030720Z 22008KT 9999 BKN005 05/05 Q0995=
202201030650 METAR ESMX 030650Z 21008KT 9000 BKN005 05/05 Q0995=
202201030620 METAR ESMX 030620Z AUTO 22008KT 5000 -DZ BKN004/// OVC011/// 05/05 Q0996 REDZ=
202201030550 METAR ESMX 030550Z AUTO 23007KT 4900 -DZ BKN004/// OVC008/// 05/05 Q0996 REUP RESHUP=
202201030520 METAR ESMX 030520Z AUTO 23007KT 6000 BR SCT005/// BKN008/// BKN012/// 05/05 Q0996=
202201030450 METAR ESMX 030450Z AUTO 23006KT 9999 FEW008/// OVC025/// 05/05 Q0996=
202201030420 METAR ESMX 030420Z AUTO 23007KT 9999 OVC006/// 06/06 Q0996=
202201030350 METAR ESMX 030350Z AUTO 25007KT 9999 BKN007/// BKN008/// OVC033/// 06/06 Q0996=
202201030320 METAR ESMX 030320Z AUTO 25007KT 9999 SCT007/// BKN011/// BKN017/// 06/06 Q0996=
202201030250 METAR ESMX 030250Z AUTO 25007KT 220V280 9999 BKN006/// OVC010/// 06/06 Q0996=
202201030220 METAR ESMX 030220Z AUTO 25009KT 9999 BKN005/// OVC009/// 06/06 Q0996 RERA=
202201030150 METAR ESMX 030150Z AUTO 24008KT 7000 -DZ OVC005/// 06/06 Q0996 RERA=
202201030120 METAR ESMX 030120Z AUTO 25008KT 9000 BR BKN004/// BKN006/// OVC008/// 06/06 Q0996 RERA=
202201030050 METAR ESMX 030050Z AUTO 25008KT 6000 BR OVC003/// 06/06 Q0996 RERA=
202201030020 METAR ESMX 030020Z AUTO 25006KT 8000 BR OVC005/// 06/06 Q0996=
202201022350 METAR ESMX 022350Z AUTO 25007KT 9999 -RA BKN006/// OVC008/// 06/06 Q0996 RESHUP RERA=
202201022320 METAR ESMX 022320Z AUTO 26005KT 9999 BKN006/// OVC008/// 06/06 Q0996=
202201022250 METAR ESMX 022250Z AUTO 26005KT 230V290 9999 -DZ SCT003/// BKN005/// OVC008/// 07/07 Q0996=
202201022220 METAR ESMX 022220Z AUTO 26005KT 9999 DZ OVC002/// 07/07 Q0996 REDZ REUP=
202201022150 METAR ESMX 022150Z AUTO 25006KT 210V290 9000 BR BKN002/// OVC004/// 07/07 Q0997=
202201022120 METAR ESMX 022120Z AUTO 26006KT 9999 OVC004/// 07/07 Q0996=
202201022050 METAR ESMX 022050Z AUTO 26007KT 7000 BR BKN002/// OVC004/// 07/07 Q0996=
202201022020 METAR ESMX 022020Z AUTO 25005KT 3900 OVC001/// 07/07 Q0996=
202201021950 METAR ESMX 021950Z 21003KT 1100 R01/P2000N R19/P2000N VV002 06/06 Q0996=
202201021920 METAR ESMX 021920Z 22004KT 0700 R01/P2000N R19/P2000N VV002 07/07 Q0996=
202201021850 METAR ESMX 021850Z 22004KT 0700 R01/P2000N R19/P2000N VV002 07/07 Q0997=
202201021820 METAR ESMX 021820Z 21004KT 0350 R01/0800N R19/1600D FG VV002 07/07 Q0997=
202201021750 METAR ESMX 021750Z 18005KT 0350 R01/1000N R19/1500D FG VV002 07/07 Q0997=
202201021720 METAR ESMX 021720Z 20005KT 0350 R01/1000N R19/P2000N FG VV002 07/07 Q0997=
202201021650 METAR ESMX 021650Z 20005KT 3000 BR BKN001 07/07 Q0997=
202201021620 METAR ESMX 021620Z 20004KT 6000 BR BKN001 07/07 Q0998=
202201021550 METAR ESMX 021550Z 23005KT 6000 BR BKN002 07/07 Q0998=
202201021520 METAR ESMX 021520Z AUTO 22004KT 4400 BR OVC002/// 07/07 Q0998=
202201021450 METAR ESMX 021450Z AUTO 24005KT 2400 BR OVC002/// 07/07 Q0999=
202201021420 METAR ESMX 021420Z AUTO 24006KT 2600 BR OVC002/// 07/07 Q0999 REDZ=
202201021350 METAR ESMX 021350Z AUTO 25006KT 220V290 4100 BR OVC002/// 07/07 Q1000=
202201021320 METAR ESMX 021320Z AUTO 24007KT 210V280 2600 -DZ OVC002/// 08/08 Q1000 REUP REDZ=
202201021250 METAR ESMX 021250Z AUTO 23007KT 9000 BR BKN003/// OVC004/// 08/08 Q1001=
202201021220 METAR ESMX 021220Z AUTO 22008KT 9999 FEW003/// OVC005/// 08/08 Q1001=
202201021150 METAR ESMX 021150Z AUTO 24007KT 200V270 4000 BR OVC002/// 08/08 Q1002=
202201021120 METAR ESMX 021120Z AUTO 24008KT 2800 OVC002/// 08/08 Q1002=
202201021050 METAR ESMX 021050Z AUTO 23007KT 200V270 2100 OVC001/// 08/08 Q1002=
202201021020 METAR ESMX 021020Z AUTO 22007KT 0700 R01/1200N R19/1300U FG OVC001/// 07/07 Q1003=
202201020950 METAR ESMX 020950Z AUTO 21007KT 0550 R01/1000N R19/1000N FG BKN001/// OVC002/// 07/07 Q1003=
202201020920 METAR ESMX 020920Z AUTO 21005KT 0350 R01/0700N R19/0700N FG BKN001/// OVC002/// 07/07 Q1004=
202201020850 METAR ESMX 020850Z AUTO 21004KT 0300 R01/0700N R19/0750N FG BKN001/// OVC003/// 07/07 Q1004=
202201020820 METAR ESMX 020820Z AUTO 17004KT 0400 R01/0900N R19/1000N FG BKN001/// OVC003/// 07/07 Q1004=
202201020750 METAR ESMX 020750Z 21005KT 0350 R19/0900N FG VV002 07/07 Q1005=
202201020720 METAR ESMX 020720Z 21006KT 0350 R19/1000N FG VV002 07/07 Q1005=
202201020650 METAR ESMX 020650Z 21006KT 0400 R19/1000U FG VV002 07/07 Q1005=
202201020620 METAR ESMX 020620Z AUTO 21007KT 0300 R01/0900N R19/1000N FG OVC001/// 07/07 Q1005=
202201020550 METAR ESMX 020550Z AUTO 19007KT 0350 R01/1000N R19/1100N FG OVC001/// 06/06 Q1006=
202201020520 METAR ESMX 020520Z AUTO 19007KT 0550 R01/1400D R19/1500N FG OVC001/// 06/06 Q1006=
202201020450 METAR ESMX 020450Z AUTO 20005KT 0550 R01/1500N R19/1400N FG OVC001/// 06/06 Q1006=
202201020420 METAR ESMX 020420Z AUTO 21006KT 0400 R01/1100N R19/1200N FG BKN001/// OVC002/// 05/05 Q1007=
202201020350 METAR ESMX 020350Z AUTO 21006KT 0350 R01/1100N R19/1100D FG OVC001/// 05/05 Q1008=
202201020320 METAR ESMX 020320Z AUTO 19008KT 1100 R01/P2000N R19/P2000N BR OVC001/// 05/05 Q1008 REDZ=
202201020250 METAR ESMX 020250Z AUTO 18007KT 6000 BR OVC001/// 04/04 Q1008=
202201020220 METAR ESMX 020220Z AUTO 17007KT 9999 OVC002/// 04/04 Q1009=
202201020150 METAR ESMX 020150Z AUTO 17010KT 4800 DZ OVC002/// 04/04 Q1010 RESHUP RERA=
202201020120 METAR ESMX 020120Z AUTO 17010KT 9999 OVC003/// 04/04 Q1010=
202201020050 METAR ESMX 020050Z AUTO 17011KT 9999 DZ OVC003/// 03/03 Q1011=
202201020020 METAR ESMX 020020Z 17012KT 130V190 9000 -RA OVC003 03/03 Q1012=
202201012350 METAR ESMX 012350Z 17010KT 140V200 9000 -RA OVC003 03/03 Q1013=
202201012320 METAR ESMX 012320Z 16010KT 4000 -DZ OVC002 02/02 Q1013=
202201012250 METAR ESMX 012250Z AUTO 16010KT 3200 DZ OVC002/// 02/02 Q1014 RESHUP RERA=
202201012220 METAR ESMX 012220Z AUTO 16010KT 120V200 6000 BR OVC002/// 01/01 Q1015=
202201012150 METAR ESMX 012150Z AUTO 15010KT 110V190 8000 BR OVC003/// 01/01 Q1015=
202201012120 METAR ESMX 012120Z AUTO 14010KT 5000 DZ OVC003/// 01/01 Q1016=
202201012050 METAR ESMX 012050Z AUTO 15009KT 120V190 9999 UP OVC003/// 01/01 Q1017 REUP=
202201012020 METAR ESMX 012020Z AUTO 15009KT 110V190 2800 UP OVC002/// 00/00 Q1017=
202201011950 METAR ESMX 011950Z AUTO 14008KT 100V170 2500 -DZ OVC002/// 00/00 Q1018 REUP=
202201011920 METAR ESMX 011920Z AUTO 14008KT 3900 BR SCT002/// OVC005/// 00/00 Q1019=
202201011850 METAR ESMX 011850Z AUTO 14009KT 9999 OVC005/// 01/M00 Q1019=
202201011820 METAR ESMX 011820Z AUTO 13009KT 100V170 9999 OVC004/// 01/01 Q1019=
202201011750 METAR ESMX 011750Z AUTO 14008KT 110V180 7000 BR OVC004/// 01/01 Q1020=
202201011720 METAR ESMX 011720Z AUTO 14007KT 7000 BR OVC003/// 02/02 Q1020=
202201011650 METAR ESMX 011650Z AUTO 13007KT 9999 OVC003/// 02/02 Q1020=
202201011620 METAR ESMX 011620Z AUTO 13006KT 090V170 9999 OVC004/// 02/02 Q1020=
202201011550 METAR ESMX 011550Z AUTO 14007KT 110V170 9999 OVC003/// 02/02 Q1020=
202201011520 METAR ESMX 011520Z AUTO 14006KT 9999 BKN004/// OVC006/// 03/03 Q1020=
202201011450 METAR ESMX 011450Z AUTO VRB03KT 9999 BKN010/// OVC018/// 03/03 Q1019=
202201011420 METAR ESMX 011420Z AUTO VRB02KT 9999 OVC018/// 04/03 Q1019=
202201011350 METAR ESMX 011350Z AUTO VRB01KT 9999 OVC018/// 04/03 Q1019=
202201011320 METAR ESMX 011320Z AUTO VRB02KT 9999 OVC017/// 04/03 Q1019=
202201011250 METAR ESMX 011250Z AUTO 06002KT 9999 OVC016/// 04/03 Q1019=
202201011220 METAR ESMX 011220Z AUTO VRB01KT 9999 OVC016/// 04/02 Q1019=
