##########################################################
# Query made at 04/19/2024 22:29:17 UTC
# Time interval: from 12/01/2022 12:00  to 12/31/2022 12:59  UTC
##########################################################

##########################################################
# ESMX, Vaxjo (Sweden)
# WMO index: 02641. WIGOS ID: 0-20000-0-02648
# Latitude 56-51N. Longitude 014-50E. Altitude 199 m.
##########################################################

202212311250 METAR ESMX 311250Z AUTO 20011KT 9999 OVC015/// 08/07 Q0997=
202212311220 METAR ESMX 311220Z AUTO 20012KT 9999 OVC014/// 08/07 Q0997=
202212311150 METAR ESMX 311150Z AUTO 20012KT 9999 OVC015/// 08/07 Q0998=
202212311120 METAR ESMX 311120Z AUTO 20011KT 9999 OVC013/// 08/07 Q0998=
202212311050 METAR ESMX 311050Z AUTO 22011KT 9999 OVC013/// 08/07 Q0998=
202212311020 METAR ESMX 311020Z AUTO 20011KT 9999 BKN015/// BKN021/// 08/07 Q0998=
202212310950 METAR ESMX 310950Z AUTO 22012KT 9999 SCT012/// BKN026/// 07/07 Q0998=
202212310920 METAR ESMX 310920Z AUTO 21013KT 9999 BKN014/// OVC024/// 07/07 Q0998=
202212310850 METAR ESMX 310850Z AUTO 21013KT 9999 BKN012/// OVC017/// 08/06 Q0998=
202212310820 METAR ESMX 310820Z AUTO 21014KT 9999 BKN012/// OVC019/// 08/07 Q0998=
202212310750 METAR ESMX 310750Z AUTO 20015KT 9999 BKN013/// OVC018/// 08/07 Q0997=
202212310720 METAR ESMX 310720Z AUTO 22012KT 9999 SCT011/// BKN014/// OVC036/// 07/07 Q0997=
202212310650 METAR ESMX 310650Z AUTO 19013KT 9999 SCT015/// BKN020/// 07/07 Q0997=
202212310620 METAR ESMX 310620Z AUTO 20013KT 9999 FEW015/// BKN037/// 07/07 Q0997=
202212310550 METAR ESMX 310550Z AUTO 20013KT 9999 FEW013/// SCT041/// 07/07 Q0996=
202212310520 METAR ESMX 310520Z AUTO 20013KT 9999 OVC013/// 07/07 Q0996=
202212310450 METAR ESMX 310450Z AUTO 20012KT 9999 FEW010/// SCT013/// BKN021/// 07/07 Q0996=
202212310420 METAR ESMX 310420Z AUTO 21011KT 9999 BKN013/// OVC018/// 08/07 Q0995=
202212310350 METAR ESMX 310350Z AUTO 22013KT 9999 BKN011/// BKN015/// OVC019/// 08/07 Q0995=
202212310320 METAR ESMX 310320Z AUTO 22012KT 9999 BKN009/// OVC013/// 07/07 Q0995=
202212310250 METAR ESMX 310250Z AUTO 21015KT 9999 BKN004/// BKN007/// OVC008/// 07/07 Q0995 REDZ=
202212310220 METAR ESMX 310220Z AUTO 19016KT 3700 DZ SCT002/// OVC004/// 06/06 Q0994=
202212310150 METAR ESMX 310150Z AUTO 18015KT 2800 DZ OVC002/// 06/06 Q0994=
202212310120 METAR ESMX 310120Z AUTO 18015KT 3600 DZ BKN002/// OVC004/// 05/05 Q0994=
202212310050 METAR ESMX 310050Z AUTO 17015KT 9000 -DZ OVC005/// 05/05 Q0994=
202212310020 METAR ESMX 310020Z AUTO 17012KT 9999 -DZ OVC006/// 05/05 Q0994=
202212302350 METAR ESMX 302350Z AUTO 17012KT 9999 -DZ OVC007/// 05/04 Q0995=
202212302320 METAR ESMX 302320Z AUTO 18012KT 9000 -RA OVC012/// 05/04 Q0996=
202212302250 METAR ESMX 302250Z AUTO 17012KT 150V210 9999 -DZ OVC013/// 05/04 Q0996 REUP=
202212302220 METAR ESMX 302220Z AUTO 17013KT 9999 OVC012/// 05/03 Q0997=
202212302150 METAR ESMX 302150Z AUTO 17014KT 120V200 9999 OVC012/// 05/03 Q0997=
202212302120 METAR ESMX 302120Z AUTO 17014G24KT 9999 OVC011/// 05/04 Q0998=
202212302050 METAR ESMX 302050Z AUTO 15013G27KT 9999 OVC010/// 05/04 Q0999=
202212302020 METAR ESMX 302020Z AUTO 17012KT 9999 OVC009/// 05/04 Q1000=
202212301950 METAR ESMX 301950Z AUTO 16010KT 9999 OVC009/// 05/04 Q1001=
202212301920 METAR ESMX 301920Z AUTO 15009KT 9999 OVC008/// 04/04 Q1001=
202212301850 METAR ESMX 301850Z AUTO 17010KT 9999 OVC008/// 04/03 Q1002=
202212301820 METAR ESMX 301820Z AUTO 17011KT 9999 OVC009/// 04/03 Q1003=
202212301750 METAR ESMX 301750Z AUTO 18010KT 9999 OVC011/// 04/03 Q1003=
202212301720 METAR ESMX 301720Z AUTO 17009KT 130V190 9999 OVC011/// 04/03 Q1004=
202212301650 METAR ESMX 301650Z AUTO 18012KT 9999 OVC010/// 04/03 Q1004=
202212301620 METAR ESMX 301620Z AUTO 19011KT 9999 OVC010/// 04/03 Q1004=
202212301550 METAR ESMX 301550Z AUTO 18009KT 9999 OVC013/// 04/03 Q1004=
202212301520 METAR ESMX 301520Z AUTO 17007KT 9999 OVC013/// 04/03 Q1005=
202212301450 METAR ESMX 301450Z AUTO 19008KT 9999 OVC013/// 04/03 Q1005=
202212301420 METAR ESMX 301420Z 20008KT 9999 BKN017 04/03 Q1004=
202212301350 METAR ESMX 301350Z 20007KT 9999 BKN019 04/03 Q1004=
202212301320 METAR ESMX 301320Z 22007KT 9999 FEW015 BKN028 05/03 Q1004=
202212301250 METAR ESMX 301250Z AUTO 23008KT 9999 FEW017/// SCT027/// 05/03 Q1004=
202212301220 METAR ESMX 301220Z 23013KT 9999 SCT015 BKN021 05/03 Q1004=
202212301150 METAR ESMX 301150Z 24012KT 9999 BKN014 05/04 Q1003=
202212301120 METAR ESMX 301120Z 23012G22KT 200V260 9999 SCT009 BKN012 05/04 Q1003=
202212301050 METAR ESMX 301050Z 24012KT 8000 BR BKN006 05/04 Q1002=
202212301020 METAR ESMX 301020Z 24011KT 5000 -DZ BKN005 05/04 Q1002=
202212300950 METAR ESMX 300950Z 23012KT 9999 BKN009 05/04 Q1002=
202212300920 METAR COR ESMX 300920Z 24012KT 7000 BR FEW005 BKN008 05/04 Q1001=
202212300850 METAR ESMX 300850Z 23010KT 9999 FEW005 BKN009 05/04 Q1001 RERA=
202212300820 METAR ESMX 300820Z 22012KT 9999 FEW007 BKN010 05/04 Q1000=
202212300750 METAR COR ESMX 300750Z 23011KT 9999 FEW005 BKN008 05/04 Q1000=
202212300720 METAR ESMX 300720Z 23012KT 9999 BKN009 05/04 Q0999=
202212300650 METAR ESMX 300650Z 21013KT 9999 -RA FEW006 BKN008 05/04 Q0998=
202212300620 METAR ESMX 300620Z AUTO 22015KT 8000 -RA FEW005/// BKN009/// OVC013/// 05/04 Q0998=
202212300550 METAR ESMX 300550Z AUTO 21014G25KT 7000 -DZ SCT008/// BKN011/// OVC014/// 05/04 Q0998=
202212300520 METAR ESMX 300520Z AUTO 20013KT 9999 -RA BKN010/// OVC015/// 05/04 Q0998 RESHUP RERA=
202212300450 METAR ESMX 300450Z AUTO 20012KT 9999 OVC010/// 05/04 Q0998=
202212300420 METAR ESMX 300420Z AUTO 20014KT 9999 -RA OVC009/// 05/04 Q0998 RESHUP REUP=
202212300350 METAR ESMX 300350Z AUTO 21012KT 9999 BKN008/// OVC010/// 05/05 Q0998=
202212300320 METAR ESMX 300320Z AUTO 20012KT 9999 BKN009/// OVC012/// 05/05 Q0998 REUP=
202212300250 METAR ESMX 300250Z AUTO 20014KT 9999 BKN010/// BKN013/// OVC016/// 05/05 Q0997=
202212300220 METAR ESMX 300220Z AUTO 19011KT 9999 BKN011/// BKN020/// OVC024/// 05/04 Q0997=
202212300150 METAR ESMX 300150Z AUTO 20010KT 9999 FEW014/// SCT019/// 04/03 Q0997=
202212300120 METAR ESMX 300120Z AUTO 20012KT 9999 SCT013/// 05/04 Q0997=
202212300050 METAR ESMX 300050Z AUTO 20013KT 9999 OVC011/// 05/05 Q0997=
202212300020 METAR ESMX 300020Z 22013KT 9999 BKN012 05/05 Q0997=
202212292350 METAR ESMX 292350Z AUTO 22012KT 9999 BKN016/// OVC027/// 05/05 Q0997=
202212292320 METAR ESMX 292320Z 21012KT 9999 SCT014 BKN020 BKN033 05/05 Q0997=
202212292250 METAR ESMX 292250Z AUTO 22013KT 9999 BKN012/// OVC021/// 05/05 Q0996=
202212292220 METAR ESMX 292220Z 22012KT 9999 BKN016 06/05 Q0996=
202212292150 METAR ESMX 292150Z 22012KT 9999 SCT009 BKN013 BKN031 06/05 Q0996 RERA=
202212292120 METAR ESMX 292120Z 21013KT 9999 SCT011 BKN018 BKN047 06/06 Q0996=
202212292050 METAR ESMX 292050Z 21012KT 9999 -RA FEW005 BKN009 BKN012 06/06 Q0995 REDZ=
202212292020 METAR ESMX 292020Z AUTO 21010KT 9999 BKN011/// OVC017/// 06/06 Q0995 RESHUP REDZ=
202212291950 METAR ESMX 291950Z AUTO 21013KT 9999 BKN012/// OVC031/// 06/06 Q0995=
202212291920 METAR ESMX 291920Z AUTO 21011KT 9999 SCT012/// BKN037/// 06/06 Q0994 RESHUP RERA=
202212291850 METAR ESMX 291850Z AUTO 23011KT 9999 FEW005/// SCT009/// BKN013/// 07/06 Q0994 REDZ=
202212291820 METAR ESMX 291820Z AUTO 22011KT 5000 DZ OVC005/// 07/07 Q0994=
202212291750 METAR ESMX 291750Z AUTO 20011KT 4300 -RA FEW002/// OVC005/// 07/07 Q0994=
202212291720 METAR ESMX 291720Z AUTO 19013KT 6000 DZ FEW002/// BKN005/// OVC007/// 07/07 Q0994 RESHUP REUP=
202212291650 METAR ESMX 291650Z AUTO 20011KT 9999 BKN008/// OVC012/// 07/06 Q0993=
202212291620 METAR ESMX 291620Z AUTO 19013KT 9999 BKN008/// OVC012/// 07/07 Q0993 RESHUP REUP=
202212291550 METAR ESMX 291550Z AUTO 19013KT 9999 FEW009/// BKN013/// OVC038/// 07/07 Q0993=
202212291520 METAR ESMX 291520Z AUTO 20011KT 9999 FEW024/// BKN040/// 06/06 Q0993=
202212291450 METAR ESMX 291450Z AUTO 20011KT 9999 -RA FEW001/// SCT007/// BKN012/// 07/07 Q0993=
202212291420 METAR ESMX 291420Z AUTO 21013KT 9999 -RA FEW002/// BKN010/// BKN021/// 07/07 Q0993 REUP=
202212291350 METAR ESMX 291350Z AUTO 19012KT 9999 SCT009/// BKN013/// BKN020/// 07/07 Q0993 RESHUP RERA=
202212291320 METAR ESMX 291320Z 20012KT 9999 SCT007 BKN010 08/07 Q0993=
202212291250 METAR ESMX 291250Z 20011KT 9000 -RA SCT008 BKN012 07/07 Q0993=
202212291220 METAR ESMX 291220Z 18012KT 5000 -DZ BKN008 07/07 Q0993=
202212291150 METAR ESMX 291150Z 19011KT 7000 -DZ BKN008 07/07 Q0993=
202212291120 METAR ESMX 291120Z 18010KT 9999 FEW017 BKN026 07/07 Q0993=
202212291050 METAR ESMX 291050Z 19010KT 9999 -DZ FEW005 SCT011 BKN034 07/07 Q0993=
202212291020 METAR ESMX 291020Z 18011KT 5000 RA OVC003 07/07 Q0993=
202212290950 METAR ESMX 290950Z 17009KT 5000 RA OVC003 07/07 Q0993=
202212290920 METAR COR ESMX 290920Z 18009KT 9999 OVC003 07/07 Q0993=
202212290850 METAR ESMX 290850Z AUTO 17010KT 9999 OVC003/// 06/06 Q0994=
202212290820 METAR ESMX 290820Z 17008KT 5000 -DZ OVC003 06/06 Q0994=
202212290750 METAR ESMX 290750Z 16009KT 4500 BR OVC002 06/06 Q0994=
202212290720 METAR ESMX 290720Z 17009KT 6000 RA OVC002 06/06 Q0994=
202212290650 METAR ESMX 290650Z AUTO 17009KT 3500 DZ OVC003/// 06/06 Q0994 REDZ=
202212290620 METAR ESMX 290620Z AUTO 17010KT 9000 DZ OVC003/// 06/06 Q0994=
202212290550 METAR ESMX 290550Z AUTO 17009KT 7000 DZ OVC003/// 06/06 Q0995 RESHUP REDZ=
202212290520 METAR ESMX 290520Z AUTO 16009KT 7000 BR OVC002/// 06/06 Q0995 REDZ=
202212290450 METAR ESMX 290450Z AUTO 17008KT 6000 BR OVC002/// 05/05 Q0995 REUP REDZ=
202212290420 METAR ESMX 290420Z AUTO 15008KT 120V190 9999 BR OVC003/// 05/05 Q0996 REDZ=
202212290350 METAR ESMX 290350Z AUTO 15008KT 9000 BR OVC002/// 05/05 Q0996=
202212290320 METAR ESMX 290320Z AUTO 15007KT 6000 BR OVC002/// 05/05 Q0996=
202212290250 METAR ESMX 290250Z AUTO 15006KT 2800 -RA OVC002/// 05/05 Q0997 REDZ=
202212290220 METAR ESMX 290220Z AUTO 15007KT 3900 BR FEW002/// BKN004/// BKN006/// 05/05 Q0997 RERA REDZ=
202212290150 METAR ESMX 290150Z AUTO 17006KT 9999 -DZ BKN005/// OVC039/// 05/05 Q0998=
202212290120 METAR ESMX 290120Z AUTO 16007KT 9000 -RA OVC004/// 05/05 Q0998=
202212290050 METAR ESMX 290050Z AUTO 15007KT 7000 -RA BKN003/// BKN006/// OVC010/// 05/05 Q0998=
202212290020 METAR ESMX 290020Z 16006KT 5000 -RA BKN002 04/04 Q0999=
202212282350 METAR ESMX 282350Z 15006KT 110V170 2600 BR BKN002 04/04 Q0999=
202212282320 METAR ESMX 282320Z AUTO 17006KT 3300 -DZ OVC002/// 05/05 Q0999 RESHUP=
202212282250 METAR ESMX 282250Z 17005KT 5000 BR BKN003 05/05 Q1000=
202212282220 METAR ESMX 282220Z 15006KT 7000 BR BKN003 05/05 Q1000=
202212282150 METAR ESMX 282150Z 18006KT 9999 BKN003 05/05 Q1000=
202212282120 METAR ESMX 282120Z AUTO 18006KT 9999 OVC003/// 05/05 Q1001 REDZ=
202212282050 METAR ESMX 282050Z 19007KT 8000 -RA BKN003 05/05 Q1001=
202212282020 METAR ESMX 282020Z AUTO 21009KT 9999 OVC004/// 05/05 Q1001=
202212281950 METAR ESMX 281950Z AUTO 19008KT 9999 OVC005/// 05/05 Q1001=
202212281920 METAR ESMX 281920Z AUTO 20007KT 9999 BKN008/// OVC010/// 05/05 Q1001=
202212281850 METAR ESMX 281850Z AUTO 19008KT 9999 SCT005/// BKN007/// OVC008/// 05/05 Q1001=
202212281820 METAR ESMX 281820Z AUTO 20008KT 9999 OVC005/// 05/05 Q1001=
202212281750 METAR ESMX 281750Z AUTO 20008KT 9999 OVC004/// 05/05 Q1001=
202212281720 METAR ESMX 281720Z AUTO 19007KT 9999 OVC004/// 04/04 Q1001=
202212281650 METAR ESMX 281650Z 19008KT 9999 OVC003 04/04 Q1001=
202212281620 METAR ESMX 281620Z 19008KT 8000 -RA OVC002 04/04 Q1001=
202212281550 METAR ESMX 281550Z 19007KT 7000 -RA OVC002 04/04 Q1000=
202212281520 METAR ESMX 281520Z 21007KT 5000 -DZ OVC002 04/04 Q1000=
202212281450 METAR ESMX 281450Z 21008KT 5000 -DZ OVC002 03/03 Q1001=
202212281420 METAR ESMX 281420Z 18006KT 6000 BR OVC003 03/03 Q1000=
202212281350 METAR COR ESMX 281350Z 17007KT 5000 -DZ OVC003 03/03 Q1000=
202212281320 METAR COR ESMX 281320Z 16006KT 5000 BR OVC003 03/03 Q1001=
202212281250 METAR ESMX 281250Z 17007KT 5000 -DZ OVC005 02/02 Q1001=
202212281220 METAR ESMX 281220Z 17009KT 6000 RA OVC006 03/03 Q1001=
202212281150 METAR ESMX 281150Z 18008KT 8000 -RA OVC006 03/03 Q1001=
202212281120 METAR ESMX 281120Z 16008KT 9999 -DZ BKN006 03/03 Q1002=
202212281050 METAR ESMX 281050Z 18008KT 9999 DZ BKN005 03/03 Q1002=
202212281020 METAR ESMX 281020Z 18009KT 9999 -DZ BKN006 02/02 Q1003=
202212280950 METAR ESMX 280950Z 17008KT 9999 DZ BKN006 02/02 Q1003=
202212280920 METAR ESMX 280920Z 17008KT 9000 DZ BKN005 02/02 Q1004=
202212280850 METAR ESMX 280850Z 18007KT 7000 DZ BKN005 02/02 Q1004=
202212280820 METAR ESMX 280820Z 16006KT 5000 DZ BKN004 02/02 Q1004=
202212280750 METAR ESMX 280750Z 15006KT 6000 -RA BKN004 01/01 Q1005=
202212280720 METAR ESMX 280720Z 15005KT 4000 -SN BKN002 01/01 Q1005=
202212280650 METAR ESMX 280650Z AUTO 14006KT 2200 -SN OVC002/// 01/01 Q1006=
202212280620 METAR ESMX 280620Z AUTO 14005KT 110V170 1900 -SN OVC002/// 01/01 Q1006=
202212280550 METAR ESMX 280550Z AUTO 14004KT 100V160 1700 -SN OVC002/// 01/01 Q1007=
202212280520 METAR ESMX 280520Z AUTO 14004KT 100V160 3200 -SN OVC002/// 01/01 Q1007=
202212280450 METAR ESMX 280450Z AUTO 13004KT 5000 -RASN OVC002/// 01/01 Q1008=
202212280420 METAR ESMX 280420Z AUTO 15005KT 2700 -PL OVC003/// 01/01 Q1009 RERASN RERA=
202212280350 METAR ESMX 280350Z AUTO 18006KT 6000 -RA OVC003/// 01/01 Q1009=
202212280320 METAR ESMX 280320Z AUTO 19006KT 9999 -DZ OVC005/// 01/01 Q1010 REUP=
202212280250 METAR ESMX 280250Z AUTO 19006KT 9999 OVC005/// 01/01 Q1010=
202212280220 METAR ESMX 280220Z AUTO 19007KT 9999 OVC004/// 01/01 Q1010=
202212280150 METAR ESMX 280150Z AUTO 20009KT 9999 BKN005/// OVC006/// 01/01 Q1011=
202212280120 METAR ESMX 280120Z AUTO 21008KT 9999 BKN007/// OVC018/// 01/01 Q1011=
202212280050 METAR ESMX 280050Z 19010KT 9999 BKN006 OVC008 01/01 Q1011=
202212280020 METAR ESMX 280020Z AUTO 21009KT 9999 SCT005/// BKN008/// OVC026/// 01/01 Q1012 RESHUP=
202212272350 METAR ESMX 272350Z 19008KT 9999 FEW002 BKN004 01/01 Q1012=
202212272320 METAR ESMX 272320Z 19008KT 9999 BR BKN003 BKN005 01/01 Q1012=
202212272250 METAR ESMX 272250Z 22007KT 9000 -DZ BKN004 OVC006 01/01 Q1012 RESN=
202212272220 METAR ESMX 272220Z 22008KT 9000 SCT005 BKN011 BKN017 01/01 Q1012 RESHSN=
202212272150 METAR ESMX 272150Z 21007KT 9000 -SN FEW002 SCT005 BKN008 01/01 Q1012=
202212272120 METAR ESMX 272120Z 23009KT 4300 -PL FEW002 BKN007 BKN011 01/01 Q1012 RESN=
202212272050 METAR ESMX 272050Z 22009KT 9999 BKN012 BKN015 01/01 Q1012=
202212272020 METAR ESMX 272020Z AUTO 21010KT 9999 SCT013/// BKN046/// 01/00 Q1012=
202212271950 METAR ESMX 271950Z AUTO 23010KT 9999 SCT010/// BKN015/// BKN031/// 01/00 Q1012=
202212271920 METAR ESMX 271920Z 22012KT 9999 BKN011 OVC042 02/01 Q1012=
202212271850 METAR ESMX 271850Z 22010KT 9999 -RA FEW005 BKN011 OVC016 01/01 Q1011=
202212271820 METAR ESMX 271820Z 22009KT 9999 -DZ BKN013 01/00 Q1011=
202212271750 METAR ESMX 271750Z 23010KT 9999 BKN013 01/00 Q1011=
202212271720 METAR ESMX 271720Z 23010KT 9999 SCT014 02/00 Q1011=
202212271650 METAR ESMX 271650Z 24010KT 9999 FEW018 02/00 Q1011=
202212271620 METAR ESMX 271620Z 24009KT 9999 FEW020 02/M00 Q1011=
202212271550 METAR ESMX 271550Z AUTO 23010KT 9999 SCT024/// 02/M00 Q1011=
202212271520 METAR ESMX 271520Z AUTO 24011KT 9999 NCD 02/M00 Q1010=
202212271450 METAR ESMX 271450Z 25012KT 9999 FEW024 02/M00 Q1010=
202212271420 METAR ESMX 271420Z 24012KT 9999 FEW024 SCT033 03/M00 Q1009=
202212271350 METAR ESMX 271350Z 25013KT 9999 BKN033 03/M00 Q1009=
202212271320 METAR ESMX 271320Z 26013KT 9999 SCT026 03/M00 Q1008=
202212271250 METAR ESMX 271250Z 24013KT 210V280 9999 SCT026 03/M00 Q1008=
202212271220 METAR ESMX 271220Z 26015KT 9999 SCT024 03/M00 Q1008=
202212271150 METAR ESMX 271150Z 26013KT 230V300 9999 BKN022 03/00 Q1007=
202212271120 METAR ESMX 271120Z 26012KT 9999 SCT017 BKN028 03/01 Q1007=
202212271050 METAR ESMX 271050Z 26013KT 9999 BKN019 03/01 Q1007=
202212271020 METAR ESMX 271020Z 23012KT 200V270 9999 SCT012 BKN017 03/01 Q1007=
202212270950 METAR ESMX 270950Z 22010KT 9999 SCT011 BKN017 03/01 Q1007=
202212270920 METAR ESMX 270920Z 24010KT 9999 BKN011 02/01 Q1007=
202212270850 METAR ESMX 270850Z 23011KT 9999 BKN010 02/01 Q1006=
202212270820 METAR ESMX 270820Z 23011KT 9999 BKN012 02/01 Q1006=
202212270750 METAR ESMX 270750Z 24011KT 9999 BKN010 02/01 Q1006=
202212270720 METAR ESMX 270720Z 24011KT 9999 BKN011 02/01 Q1006=
202212270650 METAR ESMX 270650Z 23011KT 9999 SCT012 BKN022 02/01 Q1005=
202212270620 METAR ESMX 270620Z AUTO 26011G22KT 210V280 9999 OVC011/// 02/01 Q1005=
202212270550 METAR ESMX 270550Z AUTO 24011KT 9999 OVC012/// 03/01 Q1005=
202212270520 METAR ESMX 270520Z AUTO 24011KT 9999 BKN013/// OVC017/// 03/01 Q1004=
202212270450 METAR ESMX 270450Z AUTO 23011KT 180V260 9999 OVC013/// 03/02 Q1004=
202212270420 METAR ESMX 270420Z AUTO 23012KT 9999 BKN014/// OVC019/// 03/02 Q1004=
202212270350 METAR ESMX 270350Z AUTO 24010KT 9999 BKN012/// OVC017/// 03/02 Q1004=
202212270320 METAR ESMX 270320Z AUTO 25009KT 9999 BKN010/// BKN014/// OVC016/// 03/02 Q1004 REUP=
202212270250 METAR ESMX 270250Z AUTO 23010KT 9999 OVC010/// 03/02 Q1004=
202212270220 METAR ESMX 270220Z AUTO 24010KT 9999 BKN011/// OVC020/// 03/02 Q1004=
202212270150 METAR ESMX 270150Z AUTO 23009KT 9999 SCT011/// OVC025/// 03/02 Q1004=
202212270120 METAR ESMX 270120Z AUTO 25012KT 210V270 9999 BKN009/// BKN014/// OVC022/// 03/02 Q1004=
202212270050 METAR ESMX 270050Z AUTO 23013KT 200V260 9999 OVC009/// 03/02 Q1003=
202212270020 METAR ESMX 270020Z AUTO 23012KT 9999 OVC009/// 03/02 Q1003=
202212262350 METAR ESMX 262350Z AUTO 23011KT 200V260 9999 OVC008/// 02/02 Q1003=
202212262320 METAR ESMX 262320Z 25009KT 9999 BKN008 02/02 Q1003=
202212262250 METAR ESMX 262250Z 25009KT 9999 BKN008 02/02 Q1003=
202212262220 METAR ESMX 262220Z 26009KT 9999 BKN009 BKN014 02/02 Q1002=
202212262150 METAR ESMX 262150Z 27011KT 9999 BKN013 BKN019 03/02 Q1002=
202212262120 METAR ESMX 262120Z 25011KT 9999 BKN013 03/02 Q1002=
202212262050 METAR ESMX 262050Z 27012KT 9999 BKN010 BKN017 03/02 Q1001=
202212262020 METAR ESMX 262020Z 27014KT 9999 BKN010 BKN015 03/02 Q1001 RERA=
202212261950 METAR ESMX 261950Z 27015KT 9999 -DZ FEW003 SCT005 BKN008 04/03 Q1000=
202212261920 METAR ESMX 261920Z 21009KT 9999 DZ BKN003 04/04 Q0999=
202212261850 METAR ESMX 261850Z 18006KT 7000 -RA BKN002 03/03 Q0999=
202212261820 METAR ESMX 261820Z 15006KT 4100 -RA BKN002 03/03 Q0999 RERA=
202212261750 METAR ESMX 261750Z 17006KT 1100 R01/P2000N R19/P2000N BR BKN002 03/03 Q1000 REDZ=
202212261720 METAR ESMX 261720Z 15005KT 7000 BR BKN002 03/03 Q1000=
202212261650 METAR ESMX 261650Z 13005KT 100V160 5000 BR BKN002 03/03 Q1000=
202212261620 METAR ESMX 261620Z 13004KT 2800 -RA BKN002 03/03 Q1001 RERA=
202212261550 METAR ESMX 261550Z 11002KT 9000 BR SCT004 BKN019 03/03 Q1001 REDZ=
202212261520 METAR ESMX 261520Z 11003KT 7000 DZ BKN004 03/03 Q1001 REDZ=
202212261450 METAR ESMX 261450Z VRB02KT 8000 DZ BKN004 03/03 Q1002=
202212261420 METAR ESMX 261420Z 11002KT 4700 -RA BKN004 03/03 Q1002=
202212261350 METAR ESMX 261350Z 11002KT 8000 -RA BKN007 03/03 Q1002=
202212261320 METAR ESMX 261320Z VRB01KT 9999 RA BKN007 04/04 Q1002 REDZ=
202212261250 METAR ESMX 261250Z 11002KT 9999 -DZ BKN008 04/04 Q1003 REDZ=
202212261220 METAR ESMX 261220Z 11002KT 9999 BKN007 04/04 Q1003=
202212261150 METAR ESMX 261150Z VRB03KT 9999 BKN008 04/04 Q1004=
202212261120 METAR ESMX 261120Z VRB02KT 9999 FEW004 SCT007 BKN009 04/04 Q1004=
202212261050 METAR ESMX 261050Z VRB02KT 3900 BR BKN003 BKN005 04/04 Q1004=
202212261020 METAR ESMX 261020Z VRB02KT 5000 BR OVC005 04/04 Q1005=
202212260950 METAR ESMX 260950Z VRB03KT 9000 BKN005 04/04 Q1005=
202212260920 METAR ESMX 260920Z VRB03KT 9999 BKN005 03/03 Q1006=
202212260850 METAR ESMX 260850Z VRB02KT 9000 BKN003 03/03 Q1006=
202212260820 METAR ESMX 260820Z 10003KT 050V120 5000 BKN002 03/03 Q1006=
202212260750 METAR ESMX 260750Z 12004KT 070V140 3500 BR OVC002 03/03 Q1006=
202212260720 METAR ESMX 260720Z 12005KT 1200 R19/P2000N BR BKN002 03/03 Q1006=
202212260650 METAR ESMX 260650Z 11003KT 3000 BR BKN002 03/03 Q1007=
202212260620 METAR ESMX 260620Z 12004KT 070V140 5000 BKN002 03/03 Q1007=
202212260550 METAR ESMX 260550Z 12003KT 5000 BKN002 03/03 Q1007=
202212260520 METAR ESMX 260520Z AUTO 12004KT 4400 BR OVC002/// 03/03 Q1007=
202212260450 METAR ESMX 260450Z AUTO 12005KT 8000 OVC003/// 03/03 Q1008=
202212260420 METAR ESMX 260420Z AUTO 12004KT 3500 -DZ OVC001/// 03/03 Q1008=
202212260350 METAR ESMX 260350Z AUTO 15004KT 0450 R01/1200D R19/1900D -RA OVC001/// 03/03 Q1008=
202212260320 METAR ESMX 260320Z AUTO 12005KT 0700 R01/1800N R19/P2000N -RA OVC001/// 03/03 Q1009=
202212260250 METAR ESMX 260250Z AUTO 13005KT 080V190 1000 R01/P2000N R19/P2000N -DZ OVC001/// 03/03 Q1009=
202212260220 METAR ESMX 260220Z AUTO 13005KT 050V160 0750 R01/1800U R19/P2000N -DZ OVC001/// 03/03 Q1009 REUP=
202212260150 METAR ESMX 260150Z AUTO 13007KT 050V170 0800 R01/1900D R19/P2000N UP OVC001/// 03/03 Q1010=
202212260120 METAR ESMX 260120Z AUTO 13007KT 080V180 1800 BR OVC001/// 03/03 Q1010=
202212260050 METAR ESMX 260050Z AUTO 14007KT 100V170 2200 BR OVC001/// 03/03 Q1010=
202212260020 METAR ESMX 260020Z AUTO 14007KT 090V180 2300 BR OVC001/// 03/03 Q1011=
202212252350 METAR ESMX 252350Z AUTO 14009KT 090V160 3200 BR OVC002/// 03/03 Q1011=
202212252320 METAR ESMX 252320Z AUTO 14010KT 110V170 4300 BR OVC002/// 03/03 Q1011=
202212252250 METAR ESMX 252250Z AUTO 14010KT 110V170 4400 BR OVC003/// 03/03 Q1011=
202212252220 METAR ESMX 252220Z AUTO 14009KT 110V170 9000 BR OVC004/// 03/03 Q1012=
202212252150 METAR ESMX 252150Z AUTO 14010KT 100V180 9000 BR OVC004/// 04/04 Q1012=
202212252120 METAR ESMX 252120Z AUTO 14008KT 110V170 8000 OVC003/// 04/04 Q1012=
202212252050 METAR ESMX 252050Z AUTO 14009KT 100V170 4000 OVC001/// 04/04 Q1013=
202212252020 METAR ESMX 252020Z AUTO 14008KT 0450 R01/1200U R19/1600N FG OVC001/// 03/03 Q1013=
202212251950 METAR ESMX 251950Z AUTO 14008KT 0350 R01/1000U R19/1200U FG BKN001/// OVC002/// 03/03 Q1013=
202212251920 METAR ESMX 251920Z AUTO 14008KT 0300 R01/0900N R19/1000N FG VV002 03/03 Q1013=
202212251850 METAR ESMX 251850Z AUTO 14007KT 110V170 0250 R01/0750N R19/0800N FG VV002 03/03 Q1013=
202212251820 METAR ESMX 251820Z AUTO 14006KT 070V180 0250 R01/0800N R19/1000N FG VV002 03/03 Q1013=
202212251750 METAR ESMX 251750Z AUTO 13007KT 0400 R01/1200N R19/1700N FG OVC001/// 03/03 Q1014=
202212251720 METAR ESMX 251720Z AUTO 14006KT 100V160 0300 R01/0900N R19/1100N FG BKN001/// OVC002/// 03/03 Q1014=
202212251650 METAR ESMX 251650Z AUTO 14006KT 080V170 0250 R01/0800N R19/1000N FG VV002 03/03 Q1014=
202212251620 METAR ESMX 251620Z AUTO 15007KT 110V170 0500 R01/1400N R19/1800D FG OVC001/// 03/03 Q1015=
202212251550 METAR ESMX 251550Z AUTO 15007KT 100V170 1200 R01/P2000N R19/P2000N OVC001/// 03/03 Q1015=
202212251520 METAR ESMX 251520Z AUTO 15007KT 0900 R01/P2000N R19/P2000N FG OVC001/// 03/03 Q1015=
202212251450 METAR ESMX 251450Z AUTO 15008KT 0800 R01/1800U R19/P2000N FG OVC001/// 02/02 Q1015=
202212251420 METAR ESMX 251420Z AUTO 14006KT 100V170 1000 R01/1800D R19/P2000N OVC001/// 02/02 Q1015=
202212251350 METAR ESMX 251350Z AUTO 15007KT 0800 R01/1300U R19/1700U FG OVC001/// 02/02 Q1015=
202212251320 METAR ESMX 251320Z AUTO 15008KT 120V190 1000 R01/1600D R19/1900D BR OVC001/// 02/02 Q1015=
202212251250 METAR ESMX 251250Z AUTO 15006KT 1900 BR OVC001/// 02/02 Q1015=
202212251220 METAR ESMX 251220Z AUTO 14007KT 110V170 5000 BR OVC002/// 01/01 Q1015 REDZ=
202212251150 METAR ESMX 251150Z AUTO 14006KT 080V170 6000 BR OVC002/// 01/01 Q1015=
202212251120 METAR ESMX 251120Z AUTO 14005KT 100V180 5000 BR OVC002/// 01/01 Q1016 REDZ=
202212251050 METAR ESMX 251050Z AUTO 13005KT 070V170 5000 DZ OVC002/// 01/01 Q1016 RESHUP REFZRA=
202212251020 METAR ESMX 251020Z AUTO 14005KT 3600 -DZ OVC002/// 00/00 Q1016 REUP RESHUP=
202212250950 METAR ESMX 250950Z AUTO 13005KT 3000 BR OVC003/// 00/00 Q1016 REUP=
202212250920 METAR ESMX 250920Z AUTO 13004KT 7000 BR FEW003/// SCT006/// OVC011/// 00/00 Q1016=
202212250850 METAR ESMX 250850Z AUTO 13003KT 9999 FEW008/// BKN012/// OVC017/// M00/M00 Q1016=
202212250820 METAR ESMX 250820Z AUTO 12003KT 9999 OVC019/// M01/M01 Q1016=
202212250750 METAR ESMX 250750Z AUTO VRB02KT 9999 SCT016/// OVC031/// M01/M01 Q1016=
202212250720 METAR ESMX 250720Z AUTO 13003KT 9999 FEW017/// OVC038/// M02/M02 Q1016=
202212250650 METAR ESMX 250650Z AUTO 11002KT 9999 FEW014/// BKN043/// OVC088/// M02/M02 Q1016=
202212250620 METAR ESMX 250620Z AUTO 00000KT 9999 FEW013/// SCT046/// BKN086/// M02/M02 Q1015=
202212250550 METAR ESMX 250550Z AUTO VRB02KT 9999 FEW051/// OVC082/// M02/M02 Q1015=
202212250520 METAR ESMX 250520Z AUTO VRB03KT 9999 OVC078/// M02/M02 Q1016=
202212250450 METAR ESMX 250450Z AUTO 00000KT 9999 BKN023/// OVC076/// M02/M02 Q1016=
202212250420 METAR ESMX 250420Z AUTO 11002KT 9999 OVC021/// M03/M03 Q1016=
202212250350 METAR ESMX 250350Z AUTO 00000KT 9999 OVC022/// M04/M04 Q1016=
202212250320 METAR ESMX 250320Z AUTO 00000KT 9999 BKN024/// OVC090/// M05/M05 Q1015=
202212250250 METAR ESMX 250250Z AUTO 01001KT 9999 BKN024/// BKN092/// M05/M05 Q1016=
202212250220 METAR ESMX 250220Z AUTO 00000KT 9999 FEW025/// M05/M05 Q1016=
202212250150 METAR ESMX 250150Z AUTO 00000KT 9999 OVC025/// M04/M04 Q1015=
202212250120 METAR ESMX 250120Z AUTO 09001KT 9999 FEW005/// SCT007/// OVC025/// M03/M03 Q1015=
202212250050 METAR ESMX 250050Z AUTO 00000KT 9999 BKN007/// OVC026/// M03/M03 Q1015=
202212250020 METAR ESMX 250020Z AUTO 00000KT 9999 FEW009/// OVC025/// M03/M03 Q1015=
202212242350 METAR ESMX 242350Z AUTO 00000KT 9999 SCT009/// OVC025/// M03/M03 Q1015=
202212242320 METAR ESMX 242320Z AUTO 00000KT 9999 FEW009/// OVC024/// M03/M03 Q1015=
202212242250 METAR ESMX 242250Z AUTO 04002KT 9999 OVC024/// M04/M04 Q1015=
202212242220 METAR ESMX 242220Z AUTO 03002KT 9999 OVC025/// M04/M04 Q1015=
202212242150 METAR ESMX 242150Z AUTO 01002KT 9999 OVC026/// M04/M04 Q1015=
202212242120 METAR ESMX 242120Z AUTO 36001KT 9999 OVC029/// M05/M05 Q1015=
202212242050 METAR ESMX 242050Z AUTO 01002KT 9999 BKN026/// M05/M06 Q1015=
202212242020 METAR ESMX 242020Z AUTO 00000KT 9999 SCT028/// M06/M07 Q1014=
202212241950 METAR ESMX 241950Z AUTO 00000KT 9999 SCT027/// M06/M06 Q1014=
202212241920 METAR ESMX 241920Z AUTO 00000KT 9999 OVC027/// M06/M06 Q1014=
202212241850 METAR ESMX 241850Z AUTO 00000KT 9999 OVC027/// M06/M07 Q1014=
202212241820 METAR ESMX 241820Z AUTO 00000KT 9999 BKN026/// M07/M07 Q1014=
202212241750 METAR ESMX 241750Z AUTO 00000KT 9999 SCT028/// M07/M07 Q1014=
202212241720 METAR ESMX 241720Z AUTO 00000KT 9999 NCD M07/M08 Q1014=
202212241650 METAR ESMX 241650Z AUTO 00000KT 9999 NCD M07/M07 Q1013=
202212241620 METAR ESMX 241620Z AUTO 00000KT 9999 NCD M07/M07 Q1013=
202212241550 METAR ESMX 241550Z AUTO 00000KT 9999 NCD M06/M07 Q1013=
202212241520 METAR ESMX 241520Z AUTO 00000KT 9999 NCD M06/M06 Q1013=
202212241450 METAR ESMX 241450Z AUTO 00000KT 9999 NCD M06/M06 Q1013=
202212241420 METAR ESMX 241420Z AUTO 00000KT 9999 NCD M05/M05 Q1013=
202212241350 METAR ESMX 241350Z AUTO 00000KT 9999 NCD M05/M05 Q1012=
202212241320 METAR ESMX 241320Z AUTO 00000KT 9999 NCD M05/M05 Q1012=
202212241250 METAR ESMX 241250Z AUTO 00000KT 9999 FEW200/// M05/M05 Q1012=
202212241220 METAR ESMX 241220Z AUTO 00000KT 9999 NCD M05/M05 Q1012=
202212241150 METAR ESMX 241150Z AUTO 35002KT 9999 NCD M04/M05 Q1012=
202212241120 METAR ESMX 241120Z AUTO VRB02KT 9999 NCD M05/M05 Q1012=
202212241050 METAR ESMX 241050Z AUTO 00000KT 9999 NCD M06/M06 Q1012=
202212241020 METAR ESMX 241020Z AUTO 00000KT 9999 NCD M06/M07 Q1011=
202212240950 METAR ESMX 240950Z AUTO 20001KT 9999 NCD M07/M08 Q1011=
202212240920 METAR ESMX 240920Z AUTO 19001KT 9999 NCD M08/M09 Q1011=
202212240850 METAR ESMX 240850Z AUTO 00000KT 9999 NCD M09/M10 Q1010=
202212240820 METAR ESMX 240820Z AUTO 00000KT 9999 NCD M10/M11 Q1010=
202212240750 METAR ESMX 240750Z AUTO 00000KT 9999 NCD M11/M12 Q1010=
202212240720 METAR ESMX 240720Z AUTO 00000KT 9999 NCD M10/M11 Q1010=
202212240650 METAR ESMX 240650Z AUTO 00000KT 9999 NCD M10/M11 Q1009=
202212240620 METAR ESMX 240620Z AUTO 00000KT 9999 NCD M09/M10 Q1009=
202212240550 METAR ESMX 240550Z AUTO 00000KT 9999 NCD M11/M11 Q1009=
202212240520 METAR ESMX 240520Z AUTO 00000KT 9999 NCD M10/M10 Q1009=
202212240450 METAR ESMX 240450Z AUTO 00000KT 9999 NCD M10/M11 Q1008=
202212240420 METAR ESMX 240420Z AUTO 00000KT 9999 NCD M09/M10 Q1008=
202212240350 METAR ESMX 240350Z AUTO 00000KT 9999 NCD M09/M10 Q1008=
202212240320 METAR ESMX 240320Z AUTO 00000KT 9999 NCD M10/M11 Q1008=
202212240250 METAR ESMX 240250Z AUTO 00000KT 9999 NCD M08/M09 Q1007=
202212240220 METAR ESMX 240220Z AUTO 01002KT 9999 NCD M08/M09 Q1007=
202212240150 METAR ESMX 240150Z AUTO 00000KT 9999 BR NCD M08/M09 Q1007=
202212240120 METAR ESMX 240120Z AUTO 00000KT 9999 NCD M09/M10 Q1007=
202212240050 METAR ESMX 240050Z AUTO 00000KT 9999 NCD M08/M08 Q1007=
202212240020 METAR ESMX 240020Z AUTO 18002KT 9999 NCD M06/M06 Q1006=
202212232350 METAR ESMX 232350Z AUTO 00000KT 9999 BCFG NCD M07/M07 Q1006=
202212232320 METAR ESMX 232320Z AUTO 00000KT 0700 R01/P2000D R19/P2000N BCFG NCD M06/M06 Q1006=
202212232250 METAR ESMX 232250Z AUTO 00000KT 0350 R01/P2000N R19/1200N BR NCD M06/M06 Q1006=
202212232220 METAR ESMX 232220Z AUTO 00000KT 9999 NCD M04/M04 Q1005=
202212232150 METAR ESMX 232150Z AUTO 35002KT 9999 NCD M05/M05 Q1005=
202212232120 METAR ESMX 232120Z AUTO 00000KT 9999 NCD M05/M05 Q1005=
202212232050 METAR ESMX 232050Z AUTO 00000KT 9999 NCD M03/M03 Q1005=
202212232020 METAR ESMX 232020Z AUTO 00000KT 9999 SCT017/// M03/M03 Q1005=
202212231950 METAR ESMX 231950Z AUTO 03003KT 9999 FEW014/// SCT018/// M02/M03 Q1005=
202212231920 METAR ESMX 231920Z AUTO 04004KT 9999 OVC015/// M01/M04 Q1004=
202212231850 METAR ESMX 231850Z AUTO 01008KT 9999 OVC015/// M01/M03 Q1004=
202212231820 METAR ESMX 231820Z AUTO 01006KT 9999 BKN018/// OVC022/// M01/M03 Q1003=
202212231750 METAR ESMX 231750Z AUTO 02006KT 9999 FEW013/// OVC020/// M01/M02 Q1003=
202212231720 METAR ESMX 231720Z AUTO 34004KT 9999 SCT013/// OVC023/// M01/M01 Q1003 RESHUP=
202212231650 METAR ESMX 231650Z AUTO 33005KT 2200 FZUP SCT001/// BKN013/// BKN017/// M01/M01 Q1003 REFZUP=
202212231620 METAR ESMX 231620Z AUTO 32003KT 9999 BKN014/// BKN022/// M01/M01 Q1002=
202212231550 METAR ESMX 231550Z AUTO 35005KT 9999 BKN011/// OVC024/// M00/M01 Q1002=
202212231520 METAR ESMX 231520Z AUTO 32005KT 280V010 9999 OVC026/// M00/M01 Q1002=
202212231450 METAR ESMX 231450Z 32007KT 9999 BKN023 M00/M01 Q1001=
202212231420 METAR ESMX 231420Z 31006KT 9999 BKN020 00/M01 Q1001=
202212231350 METAR ESMX 231350Z 32006KT 9999 SCT009 BKN020 00/M01 Q1001=
202212231320 METAR ESMX 231320Z 33007KT 9999 VCSH SCT011 BKN021 00/M01 Q1000=
202212231250 METAR ESMX 231250Z 31008KT 9999 VCSH SCT013 BKN023 00/M00 Q1000=
202212231220 METAR ESMX 231220Z 31008KT 9999 SCT009 BKN025 01/00 Q1000=
202212231150 METAR ESMX 231150Z 32006KT 9999 -DZ SCT006 BKN018 01/00 Q0999=
202212231120 METAR ESMX 231120Z 33009KT 9000 -SN FEW006 BKN013 00/00 Q0999=
202212231050 METAR ESMX 231050Z 30009KT 9000 -RASN BKN008 02/01 Q0999=
202212231020 METAR ESMX 231020Z 28007KT 9999 BKN006 01/01 Q0998=
202212230950 METAR ESMX 230950Z 30006KT 9999 SCT007 BKN027 01/01 Q0998=
202212230920 METAR ESMX 230920Z 30007KT 9000 -RASN BKN006 01/01 Q0998=
202212230850 METAR ESMX 230850Z 28007KT 9000 -RA BKN007 02/02 Q0997=
202212230820 METAR ESMX 230820Z 25006KT 9000 -DZ BKN006 02/02 Q0997=
202212230750 METAR ESMX 230750Z 26007KT 9999 SCT006 BKN010 02/02 Q0997=
202212230720 METAR ESMX 230720Z 28007KT 9000 FEW006 BKN012 03/03 Q0997=
202212230650 METAR ESMX 230650Z AUTO 26006KT 210V300 9999 -DZ FEW006/// OVC013/// 03/03 Q0996=
202212230620 METAR ESMX 230620Z AUTO 26006KT 220V300 4700 BR BKN005/// BKN007/// OVC018/// 03/03 Q0996 REDZ=
202212230550 METAR ESMX 230550Z AUTO 25006KT 8000 BKN003/// OVC006/// 03/03 Q0996 REUP=
202212230520 METAR ESMX 230520Z AUTO 24007KT 3600 BR BKN005/// OVC008/// 03/03 Q0995=
202212230450 METAR ESMX 230450Z AUTO 25008KT 6000 BR SCT005/// BKN007/// BKN011/// 03/03 Q0995=
202212230420 METAR ESMX 230420Z AUTO 26008KT 9999 SCT011/// OVC019/// 04/03 Q0995=
202212230350 METAR ESMX 230350Z AUTO 25008KT 210V280 9999 SCT010/// OVC021/// 04/04 Q0995=
202212230320 METAR ESMX 230320Z AUTO 24006KT 9999 BKN007/// OVC019/// 04/04 Q0995=
202212230250 METAR ESMX 230250Z AUTO 25009KT 9999 FEW002/// BKN005/// OVC006/// 04/04 Q0995=
202212230220 METAR ESMX 230220Z AUTO 22007KT 200V260 9999 BKN007/// BKN021/// OVC026/// 04/04 Q0995=
202212230150 METAR ESMX 230150Z AUTO 25008KT 9999 SCT006/// BKN018/// 04/04 Q0995 RESHUP REDZ=
202212230120 METAR ESMX 230120Z AUTO 24008KT 9999 BR FEW005/// SCT007/// BKN009/// 04/04 Q0995=
202212230050 METAR ESMX 230050Z 24008KT 9999 OVC006 05/05 Q0995=
202212230020 METAR COR ESMX 230020Z 22008KT 9999 OVC006 05/05 Q0995=
202212222350 METAR ESMX 222350Z AUTO 23007KT 2400 DZ FEW002/// OVC004/// 05/05 Q0995 RESHUP RERA=
202212222320 METAR ESMX 222320Z AUTO 22008KT 4500 BR BKN004/// OVC006/// 05/05 Q0995=
202212222250 METAR ESMX 222250Z 20008KT 5000 BR OVC004 05/05 Q0995=
202212222220 METAR ESMX 222220Z 22009KT 8000 BR OVC003 05/05 Q0995=
202212222150 METAR ESMX 222150Z 21010KT 3800 -DZ OVC003 05/05 Q0995=
202212222120 METAR ESMX 222120Z 19011KT 4500 RA OVC003 04/04 Q0995=
202212222050 METAR COR ESMX 222050Z 19010KT 5000 BR OVC003 04/04 Q0995=
202212222020 METAR ESMX 222020Z AUTO 19010KT 3100 -RA OVC003/// 04/04 Q0995=
202212221950 METAR ESMX 221950Z AUTO 19011KT 6000 BR OVC005/// 04/04 Q0995=
202212221920 METAR ESMX 221920Z AUTO 20011KT 8000 -RA OVC005/// 04/04 Q0996 REUP RESHUP=
202212221850 METAR ESMX 221850Z AUTO 19010KT 7000 BR OVC005/// 04/04 Q0996=
202212221820 METAR ESMX 221820Z AUTO 19010KT 6000 BR OVC004/// 04/04 Q0996 REUP=
202212221750 METAR ESMX 221750Z AUTO 21010KT 7000 BR OVC004/// 04/04 Q0996=
202212221720 METAR ESMX 221720Z AUTO 20008KT 6000 BR OVC004/// 04/04 Q0996=
202212221650 METAR ESMX 221650Z AUTO 18008KT 6000 BR OVC005/// 04/04 Q0996=
202212221620 METAR ESMX 221620Z AUTO 19008KT 5000 BR OVC005/// 04/04 Q0997 RESHUP REUP=
202212221550 METAR ESMX 221550Z AUTO 18007KT 6000 BR OVC007/// 04/04 Q0997=
202212221520 METAR ESMX 221520Z AUTO 19006KT 7000 BR SCT007/// BKN008/// OVC010/// 04/04 Q0997 RESHUP=
202212221450 METAR ESMX 221450Z 21005KT 7000 -DZ FEW010 BKN023 04/04 Q0997=
202212221420 METAR ESMX 221420Z 20006KT 9999 FEW014 BKN022 04/04 Q0997=
202212221350 METAR ESMX 221350Z 21007KT 8000 BR FEW006 BKN024 04/04 Q0997=
202212221320 METAR ESMX 221320Z 21008KT 8000 BR BKN007 04/04 Q0997=
202212221250 METAR ESMX 221250Z 19006KT 8000 BR FEW014 OVC028 04/04 Q0997=
202212221220 METAR ESMX 221220Z 22005KT 7000 BR FEW006 BKN024 04/04 Q0998=
202212221150 METAR ESMX 221150Z 22006KT 8000 BR FEW004 BKN006 04/04 Q0998=
202212221120 METAR ESMX 221120Z 21008KT 4600 BR BKN003 04/04 Q0998=
202212221050 METAR ESMX 221050Z 21009KT 5000 BR OVC003 04/04 Q0998=
202212221020 METAR ESMX 221020Z 19007KT 4100 BR OVC004 04/04 Q0998=
202212220950 METAR ESMX 220950Z AUTO 18007KT 5000 BR SCT006/// OVC018/// 04/04 Q0999=
202212220920 METAR ESMX 220920Z 20007KT 7000 BR OVC016 03/03 Q0999=
202212220850 METAR ESMX 220850Z 19007KT 6000 BR FEW005 OVC015 03/03 Q0999=
202212220820 METAR ESMX 220820Z 20007KT 5000 BR OVC015 03/03 Q0999=
202212220750 METAR ESMX 220750Z 19008KT 7000 BR OVC017 03/03 Q0999=
202212220720 METAR ESMX 220720Z 19007KT 7000 BR OVC016 03/03 Q0999=
202212220650 METAR ESMX 220650Z AUTO 19006KT 8000 BR SCT007/// BKN013/// OVC016/// 03/03 Q0999=
202212220620 METAR ESMX 220620Z AUTO 18007KT 9999 BR BKN009/// OVC016/// 03/03 Q0999=
202212220550 METAR ESMX 220550Z AUTO 22008KT 9999 BKN008/// OVC009/// 04/03 Q1000=
202212220520 METAR ESMX 220520Z AUTO 20008KT 9999 FEW005/// BKN009/// BKN011/// 04/03 Q1000=
202212220450 METAR ESMX 220450Z AUTO 22008KT 8000 BR SCT005/// BKN009/// OVC015/// 04/04 Q1000=
202212220420 METAR ESMX 220420Z AUTO 20009KT 9000 BR BKN006/// BKN008/// OVC012/// 04/04 Q1000 REDZ=
202212220350 METAR ESMX 220350Z AUTO 22008KT 7000 BR BKN003/// BKN005/// OVC009/// 04/04 Q1000=
202212220320 METAR ESMX 220320Z AUTO 19008KT 4400 BR OVC002/// 04/04 Q1000=
202212220250 METAR ESMX 220250Z AUTO 22007KT 4100 BR OVC001/// 04/04 Q1000 RESHUP REUP=
202212220220 METAR ESMX 220220Z AUTO 22008KT 3700 BR OVC002/// 04/04 Q1000 REDZ=
202212220150 METAR ESMX 220150Z AUTO 20008KT 8000 BR OVC003/// 03/03 Q1000=
202212220120 METAR ESMX 220120Z AUTO 21008KT 9999 OVC003/// 03/03 Q1000=
202212220050 METAR ESMX 220050Z 19009KT 6000 BR BKN004 03/03 Q1000=
202212220020 METAR ESMX 220020Z 19010KT 5000 -RA BKN003 03/03 Q1001=
202212212350 METAR ESMX 212350Z 19011KT 3200 BR BKN002 03/03 Q1001 REDZ=
202212212320 METAR ESMX 212320Z 19007KT 3000 BR BKN002 03/03 Q1001 REDZ=
202212212250 METAR ESMX 212250Z 21008KT 5000 BR BKN002 03/03 Q1001=
202212212220 METAR ESMX 212220Z 19009KT 3800 BR BKN001 03/03 Q1002=
202212212150 METAR ESMX 212150Z 21010KT 1700 BR BKN002 03/03 Q1002=
202212212120 METAR ESMX 212120Z 20009KT 1800 BR BKN002 BKN004 02/02 Q1002=
202212212050 METAR ESMX 212050Z 19008KT 2400 BR BKN002 BKN004 02/02 Q1003=
202212212020 METAR ESMX 212020Z AUTO 18007KT 8000 BR BKN002/// OVC004/// 03/03 Q1003=
202212211950 METAR ESMX 211950Z AUTO 21010KT 8000 BR OVC003/// 03/03 Q1003=
202212211920 METAR ESMX 211920Z 19010KT 9999 BKN003 03/03 Q1003=
202212211850 METAR ESMX 211850Z 20007KT 8000 BR BKN003 03/03 Q1003=
202212211820 METAR ESMX 211820Z 21009KT 9999 BKN004 03/03 Q1003=
202212211750 METAR ESMX 211750Z 20009KT 9999 BKN002 03/03 Q1004=
202212211720 METAR ESMX 211720Z 22008KT 1300 R01/P2000N R19/P2000N BR VV002 03/03 Q1004=
202212211650 METAR COR ESMX 211650Z 23007KT 5000 BR FEW001 OVC003 03/03 Q1004=
202212211620 METAR ESMX 211620Z 22008KT 5000 FG VV002 03/03 Q1004=
202212211550 METAR ESMX 211550Z 22005KT 1400 R01/P2000N R19/P2000N VV002 03/03 Q1004=
202212211520 METAR ESMX 211520Z 23004KT 1100 R01/P2000N R19/P2000N FG VV002 03/03 Q1004=
202212211450 METAR ESMX 211450Z 23004KT 190V250 0600 R01/1800D R19/P2000N FG VV002 03/03 Q1005=
202212211420 METAR ESMX 211420Z 22005KT 190V250 4100 BR OVC003 03/03 Q1005=
202212211350 METAR ESMX 211350Z 23007KT 9999 BKN002 04/04 Q1005=
202212211320 METAR ESMX 211320Z 24007KT 7000 BR OVC003 04/04 Q1005=
202212211250 METAR ESMX 211250Z 23008KT 9999 BKN003 04/04 Q1005=
202212211220 METAR ESMX 211220Z 24007KT 9999 BKN004 04/04 Q1005=
202212211150 METAR ESMX 211150Z 23006KT 9999 BKN003 04/04 Q1005=
202212211120 METAR ESMX 211120Z 23006KT 9999 BKN004 04/04 Q1005=
202212211050 METAR ESMX 211050Z 25007KT 8000 SCT002 BKN007 04/04 Q1005=
202212211020 METAR ESMX 211020Z 25006KT 3000 BR BKN002 04/04 Q1005=
202212210950 METAR ESMX 210950Z 23007KT 3500 BR OVC002 04/04 Q1005=
202212210920 METAR ESMX 210920Z 23007KT 5000 BR OVC002 04/04 Q1005=
202212210850 METAR ESMX 210850Z 22007KT 1700 BR OVC002 04/04 Q1005=
202212210820 METAR ESMX 210820Z 21007KT 0800 R19/1400D FG VV002 04/04 Q1005=
202212210750 METAR ESMX 210750Z 23006KT 1100 R19/1600D BR VV002 04/04 Q1005=
202212210720 METAR ESMX 210720Z 22006KT 0900 R19/1600N FG VV002 04/04 Q1005=
202212210650 METAR ESMX 210650Z AUTO 23007KT 0500 R01/1300N R19/1400U FG OVC001/// 04/04 Q1005=
202212210620 METAR ESMX 210620Z AUTO 20007KT 0700 R01/P2000N R19/P2000N BR OVC001/// 04/04 Q1004=
202212210550 METAR ESMX 210550Z AUTO 21006KT 9999 BKN003/// OVC011/// 04/04 Q1004=
202212210520 METAR ESMX 210520Z AUTO 18006KT 9999 FEW015/// SCT100/// 03/03 Q1004=
202212210450 METAR ESMX 210450Z AUTO 23005KT 9999 OVC007/// 04/04 Q1004=
202212210420 METAR ESMX 210420Z AUTO 25008KT 9999 OVC008/// 04/04 Q1005=
202212210350 METAR ESMX 210350Z AUTO 24006KT 9999 OVC010/// 04/04 Q1005=
202212210320 METAR ESMX 210320Z AUTO 24005KT 9999 BKN009/// 04/04 Q1004=
202212210250 METAR ESMX 210250Z AUTO 27007KT 9999 BKN005/// OVC007/// 05/05 Q1004=
202212210220 METAR ESMX 210220Z AUTO 25006KT 9999 SCT003/// OVC005/// 05/05 Q1004=
202212210150 METAR ESMX 210150Z AUTO 25006KT 4900 BR OVC001/// 05/05 Q1004=
202212210120 METAR ESMX 210120Z 23006KT 2100 DZ BKN002 06/06 Q1004=
202212210050 METAR ESMX 210050Z 22007KT 5000 BR BKN002 05/05 Q1004=
202212210020 METAR ESMX 210020Z 22006KT 3100 BR BKN003 05/05 Q1004 RERA=
202212202350 METAR ESMX 202350Z 22008KT 2500 BR BKN002 05/05 Q1004=
202212202320 METAR ESMX 202320Z AUTO 22009KT 2000 BR OVC001/// 05/05 Q1004=
202212202250 METAR ESMX 202250Z AUTO 21009KT 1800 BR OVC001/// 05/05 Q1004 REDZ=
202212202220 METAR ESMX 202220Z AUTO 20009KT 2100 BR OVC001/// 05/05 Q1004=
202212202150 METAR ESMX 202150Z 19009KT 2400 BKN002 05/05 Q1004=
202212202120 METAR ESMX 202120Z 19008KT 0600 R01/P2000N R19/1800N -RA BKN002 05/05 Q1004 REDZ=
202212202050 METAR ESMX 202050Z 20009KT 0750 R01/P2000D R19/1400D FG VV002 05/05 Q1004 REDZ=
202212202020 METAR ESMX 202020Z AUTO 18010KT 6000 OVC002/// 05/05 Q1004=
202212201950 METAR ESMX 201950Z AUTO 18009KT 2100 -DZ OVC001/// 05/05 Q1004 REDZ=
202212201920 METAR ESMX 201920Z AUTO 19009KT 0200 R01/1100U R19/0700N -DZ BKN001/// OVC003/// 05/05 Q1004 REUP=
202212201850 METAR ESMX 201850Z AUTO 19008KT 0150 R01/0900N R19/0550N FG BKN001/// OVC002/// 05/05 Q1004=
202212201820 METAR ESMX 201820Z AUTO 18009KT 0300 R01/1100D R19/1000N BCFG OVC001/// 05/05 Q1005 REDZ=
202212201750 METAR ESMX 201750Z AUTO 18009KT 0600 R01/P2000N R19/1800D OVC001/// 05/05 Q1005=
202212201720 METAR ESMX 201720Z AUTO 18010KT 2600 OVC001/// 05/05 Q1005 REDZ REUP RESHUP=
202212201650 METAR ESMX 201650Z AUTO 18009KT 0500 R01/P2000N R19/1300D UP OVC001/// 05/05 Q1005=
202212201620 METAR ESMX 201620Z AUTO 18008KT 0250 R01/1500U R19/0800U BCFG OVC001/// 05/05 Q1005=
202212201550 METAR ESMX 201550Z AUTO 18009KT 0500 R01/1800N R19/1800D BCFG OVC001/// 05/05 Q1005 REUP RESHUP=
202212201520 METAR ESMX 201520Z AUTO 18008KT 3400 BR OVC002/// 05/05 Q1005 RESHUP REDZ=
202212201450 METAR ESMX 201450Z 19007KT 5000 BR OVC002 05/05 Q1006=
202212201420 METAR ESMX 201420Z 18007KT 2000 -DZ OVC002 04/04 Q1006=
202212201350 METAR ESMX 201350Z 18008KT 2000 -DZ OVC002 05/05 Q1006=
202212201320 METAR ESMX 201320Z 19009KT 1500 BR VV002 04/04 Q1006=
202212201250 METAR ESMX 201250Z 20008KT 0800 R19/0800N FG VV002 04/04 Q1006=
202212201220 METAR ESMX 201220Z 19007KT 0900 R19/0800N FG VV002 04/04 Q1007=
202212201150 METAR ESMX 201150Z 20006KT 0250 R01/1000U R19/0550N -RA VV002 04/04 Q1007=
202212201120 METAR ESMX 201120Z 20007KT 0250 R01/0650N R19/0500N -RA VV002 04/04 Q1007=
202212201050 METAR ESMX 201050Z 20006KT 0250 R01/0500N R19/0450N FG OVC002 04/04 Q1008=
202212201020 METAR ESMX 201020Z 20007KT 0300 R01/0550N R19/0500N FG OVC001 04/04 Q1008=
202212200950 METAR ESMX 200950Z 21007KT 0650 R01/1500D R19/1000U BR OVC002 04/04 Q1008=
202212200920 METAR ESMX 200920Z 21009KT 4000 BR OVC002 04/04 Q1008=
202212200850 METAR ESMX 200850Z 21010KT 2500 -DZ OVC002 03/03 Q1008=
202212200820 METAR ESMX 200820Z 22007KT 0700 FG VV002 04/04 Q1008=
202212200750 METAR ESMX 200750Z 22007KT 1300 R19/1900N BR OVC002 03/03 Q1007=
202212200720 METAR ESMX 200720Z 21008KT 1000 R19/P1800N BR OVC002 03/03 Q1007=
202212200650 METAR ESMX 200650Z AUTO 22009KT 0550 R01/1400U R19/1700U FG OVC001/// 03/03 Q1007=
202212200620 METAR ESMX 200620Z AUTO 22009KT 1200 R01/P2000N R19/P2000N OVC001/// 03/03 Q1007=
202212200550 METAR ESMX 200550Z AUTO 22008KT 0800 R01/1900N R19/P2000N FG OVC001/// 03/03 Q1007=
202212200520 METAR ESMX 200520Z AUTO 20009KT 0700 R01/1700D R19/P2000N FG OVC001/// 03/03 Q1007=
202212200450 METAR ESMX 200450Z AUTO 20008KT 0900 R01/P2000N R19/P2000N FG OVC001/// 03/03 Q1007 RERA=
202212200420 METAR ESMX 200420Z AUTO 21007KT 2600 -DZ OVC001/// 03/03 Q1008 REDZ=
202212200350 METAR ESMX 200350Z AUTO 22007KT 8000 BR OVC001/// 02/02 Q1008 REDZ REUP=
202212200250 METAR ESMX 200250Z 21007KT 1700 BR OVC002 02/02 Q1008=
202212200220 METAR COR ESMX 200220Z 19007KT 1100 R01/1800N R19/P2000N BR VV002 02/02 Q1008=
202212200150 METAR ESMX 200150Z 18006KT 3000 DZ OVC002 02/02 Q1008=
202212200120 METAR ESMX 200120Z 18006KT 6000 -DZ OVC002 02/02 Q1008=
202212200050 METAR COR ESMX 200050Z 18006KT 5000 -DZ OVC002 02/02 Q1008=
202212200020 METAR ESMX 200020Z AUTO 17006KT 5000 -RA OVC002/// 01/01 Q1009=
202212192350 METAR ESMX 192350Z AUTO 17005KT 6000 -RA OVC002/// 01/01 Q1009 REDZ=
202212192320 METAR ESMX 192320Z AUTO 17006KT 4600 -RA OVC001/// 01/01 Q1009 REUP=
202212192250 METAR ESMX 192250Z 17006KT 3200 RA OVC002 01/01 Q1009=
202212192220 METAR ESMX 192220Z 17005KT 4000 RA OVC002 01/01 Q1009=
202212192150 METAR ESMX 192150Z 17006KT 3600 RA OVC002 01/01 Q1010=
202212192120 METAR ESMX 192120Z 18007KT 5000 -DZ OVC002 01/01 Q1010=
202212192050 METAR ESMX 192050Z 18007KT 9999 OVC003 01/01 Q1010=
202212192020 METAR ESMX 192020Z 18007KT 3300 -DZ OVC002 01/01 Q1010=
202212191950 METAR COR ESMX 191950Z 18007KT 5000 -DZ OVC003 01/01 Q1011=
202212191920 METAR ESMX 191920Z 17006KT 9999 OVC003 01/01 Q1011=
202212191850 METAR ESMX 191850Z 17008KT 3400 -FZDZ OVC003 01/01 Q1011=
202212191820 METAR ESMX 191820Z 17008KT 9000 BKN003 01/01 Q1012=
202212191750 METAR ESMX 191750Z 16006KT 4500 -DZ BR BKN003 01/01 Q1012=
202212191720 METAR ESMX 191720Z 17007KT 4000 BR BKN003 01/01 Q1012=
202212191650 METAR ESMX 191650Z 17007KT 3000 -DZ BKN002 01/01 Q1013=
202212191620 METAR COR ESMX 191620Z 15008KT 4000 -DZ OVC003 00/00 Q1013=
202212191550 METAR ESMX 191550Z 15008KT 5000 -DZ OVC003 00/00 Q1013=
202212191520 METAR ESMX 191520Z 15008KT 6000 -DZ OVC003 00/00 Q1014=
202212191450 METAR ESMX 191450Z 16008KT 6000 -RA OVC004 00/00 Q1014=
202212191420 METAR ESMX 191420Z 16008KT 6000 -DZ OVC005 00/00 Q1014=
202212191350 METAR ESMX 191350Z 16008KT 7000 -DZ BKN006 00/M00 Q1015=
202212191320 METAR ESMX 191320Z 15008KT 120V190 8000 -DZ BKN007 00/M00 Q1015=
202212191250 METAR ESMX 191250Z 16008KT 8000 -RA BKN011 00/M00 Q1016=
202212191220 METAR ESMX 191220Z 17008KT 9000 -RA SCT012 BKN045 00/M01 Q1016=
202212191150 METAR ESMX 191150Z 17009KT 9000 -FZRA SCT012 BKN050 00/M01 Q1017=
202212191120 METAR ESMX 191120Z 17009KT 9999 SCT011 BKN098 00/M01 Q1017=
202212191050 METAR ESMX 191050Z 17008KT CAVOK M00/M01 Q1018=
202212191020 METAR ESMX 191020Z 15007KT 110V180 CAVOK M01/M02 Q1018=
202212190950 METAR ESMX 190950Z 16006KT CAVOK M01/M02 Q1019=
202212190920 METAR ESMX 190920Z 16006KT 9000 BR NSC M02/M03 Q1019=
202212190850 METAR ESMX 190850Z 15006KT 9000 BR NSC M02/M03 Q1020=
202212190820 METAR ESMX 190820Z 14006KT 110V180 8000 BR NSC M02/M03 Q1020=
202212190750 METAR ESMX 190750Z 14006KT 110V170 9000 BR NSC M02/M03 Q1020=
202212190720 METAR ESMX 190720Z AUTO 14006KT 100V170 9999 NCD M02/M03 Q1021=
202212190650 METAR ESMX 190650Z 15006KT CAVOK M02/M03 Q1021=
202212190620 METAR ESMX 190620Z 15006KT CAVOK M02/M03 Q1021=
202212190550 METAR ESMX 190550Z AUTO 14005KT 9999 SCT006/// M02/M03 Q1022=
202212190520 METAR ESMX 190520Z AUTO 14006KT 090V170 9000 BR OVC006/// M02/M02 Q1022=
202212190450 METAR ESMX 190450Z AUTO 15006KT 120V180 9999 OVC006/// M02/M02 Q1023=
202212190420 METAR ESMX 190420Z AUTO 14007KT 100V160 9999 OVC006/// M02/M02 Q1023=
202212190350 METAR ESMX 190350Z AUTO 14008KT 100V170 9999 OVC006/// M02/M02 Q1024=
202212190320 METAR ESMX 190320Z AUTO 16007KT 9000 BR OVC006/// M02/M02 Q1025=
202212190250 METAR ESMX 190250Z AUTO 17008KT 9000 BR OVC006/// M02/M03 Q1025=
202212190220 METAR ESMX 190220Z AUTO 18006KT 9999 OVC007/// M02/M03 Q1025=
202212190150 METAR ESMX 190150Z AUTO 18007KT 9999 OVC007/// M02/M03 Q1026=
202212190120 METAR ESMX 190120Z AUTO 17005KT 9000 BR OVC005/// M03/M03 Q1026=
202212190050 METAR ESMX 190050Z AUTO 18005KT 8000 BR OVC003/// M03/M03 Q1027=
202212190020 METAR ESMX 190020Z AUTO 17005KT 7000 BR OVC002/// M04/M04 Q1027 RESHUP REFZUP=
202212182350 METAR ESMX 182350Z AUTO 17007KT 7000 BR OVC003/// M04/M04 Q1027=
202212182320 METAR ESMX 182320Z AUTO 14004KT 9000 BR BKN005/// M05/M05 Q1027=
202212182250 METAR ESMX 182250Z AUTO 14004KT 9999 BKN006/// M05/M05 Q1027=
202212182220 METAR ESMX 182220Z AUTO 18005KT 9999 OVC006/// M04/M05 Q1028=
202212182150 METAR ESMX 182150Z AUTO 15004KT 9999 OVC006/// M04/M05 Q1028=
202212182120 METAR ESMX 182120Z AUTO 18005KT 9999 FEW005/// M04/M04 Q1028=
202212182050 METAR ESMX 182050Z 16005KT CAVOK M04/M04 Q1028=
202212182020 METAR ESMX 182020Z AUTO 17005KT 9999 NCD M03/M04 Q1028=
202212181950 METAR ESMX 181950Z 22009KT 9999 FEW029 M03/M04 Q1027=
202212181920 METAR ESMX 181920Z 21010KT 9999 SCT030 M02/M04 Q1028=
202212181850 METAR ESMX 181850Z 20010KT 9999 BKN026 M02/M03 Q1028=
202212181820 METAR ESMX 181820Z AUTO 22010KT 9999 OVC021/// M01/M03 Q1028=
202212181750 METAR ESMX 181750Z AUTO 22010KT 9999 OVC016/// M01/M03 Q1027=
202212181720 METAR ESMX 181720Z AUTO 22011KT 9999 OVC014/// M01/M02 Q1027=
202212181650 METAR ESMX 181650Z AUTO 21011KT 9999 OVC014/// M01/M02 Q1027=
202212181620 METAR ESMX 181620Z 22012KT 9999 BKN014 M01/M02 Q1027=
202212181550 METAR COR ESMX 181550Z 21010KT 9999 BKN015 M00/M02 Q1027=
202212181520 METAR ESMX 181520Z 19010KT 8000 BR FEW012 BKN017 M00/M01 Q1027=
202212181450 METAR ESMX 181450Z 20010KT 9999 BKN016 M00/M01 Q1027=
202212181420 METAR ESMX 181420Z AUTO 19010KT 9999 OVC016/// M00/M01 Q1027=
202212181350 METAR ESMX 181350Z 21011KT 9999 BKN014 M00/M01 Q1026=
202212181320 METAR ESMX 181320Z 20011KT 9999 BKN009 M00/M01 Q1026=
202212181250 METAR ESMX 181250Z 21011KT 9999 BKN007 M00/M01 Q1026=
202212181220 METAR ESMX 181220Z 22011KT 9999 BKN006 M00/M01 Q1026=
202212181150 METAR COR ESMX 181150Z 20012KT 9999 BKN006 M00/M01 Q1026=
202212181120 METAR ESMX 181120Z AUTO 20012KT 6000 FZUP BKN006/// OVC008/// M00/M01 Q1025 REFZUP=
202212181050 METAR ESMX 181050Z AUTO 20011KT 9999 OVC006/// M00/M01 Q1026=
202212181020 METAR ESMX 181020Z AUTO 20011KT 9999 OVC007/// M01/M01 Q1025=
202212180950 METAR ESMX 180950Z AUTO 20011KT 9999 OVC007/// M01/M01 Q1025=
202212180920 METAR ESMX 180920Z AUTO 21012KT 4900 -FZDZ OVC006/// M01/M02 Q1025=
202212180850 METAR ESMX 180850Z AUTO 19013KT 3800 -PL OVC006/// M01/M02 Q1025=
202212180820 METAR ESMX 180820Z AUTO 19012KT 3500 -SN OVC006/// M02/M02 Q1025=
202212180750 METAR ESMX 180750Z AUTO 19015KT 2700 -PL SCT002/// BKN006/// OVC010/// M02/M02 Q1025=
202212180720 METAR ESMX 180720Z AUTO 20015KT 6000 -SN OVC012/// M02/M03 Q1024=
202212180650 METAR ESMX 180650Z AUTO 19014KT 9999 -FZDZ OVC015/// M02/M03 Q1024 REFZUP RESHUP REFZRA=
202212180620 METAR ESMX 180620Z AUTO 19014KT 9999 BKN021/// OVC030/// M02/M03 Q1024=
202212180550 METAR ESMX 180550Z AUTO 19014KT 9999 BKN016/// OVC023/// M02/M04 Q1024 REFZUP=
202212180520 METAR ESMX 180520Z AUTO 19011KT 9999 FEW025/// M03/M04 Q1024=
202212180450 METAR ESMX 180450Z AUTO 19011KT 9999 NCD M03/M04 Q1024=
202212180420 METAR ESMX 180420Z AUTO 18011KT 9999 NCD M03/M04 Q1024=
202212180350 METAR ESMX 180350Z AUTO 18010KT 9999 NCD M03/M04 Q1024=
202212180320 METAR ESMX 180320Z AUTO 19010KT 9999 NCD M04/M04 Q1024=
202212180250 METAR ESMX 180250Z AUTO 19012KT 9999 NCD M03/M04 Q1024=
202212180220 METAR ESMX 180220Z AUTO 19010KT 8000 BR FEW007/// SCT018/// M03/M04 Q1024=
202212180150 METAR ESMX 180150Z AUTO 18009KT 8000 BR SCT006/// BKN019/// M03/M03 Q1024=
202212180120 METAR ESMX 180120Z AUTO 19009KT 7000 BR OVC005/// M03/M03 Q1024=
202212180050 METAR ESMX 180050Z AUTO 22010KT 7000 BR BKN003/// OVC006/// M02/M02 Q1024=
202212180020 METAR ESMX 180020Z AUTO 19008KT 4300 BR OVC002/// M02/M02 Q1024=
202212172350 METAR ESMX 172350Z AUTO 20008KT 2900 BR OVC002/// M02/M02 Q1024=
202212172320 METAR ESMX 172320Z AUTO 21007KT 3300 BR OVC002/// M02/M02 Q1024=
202212172250 METAR ESMX 172250Z AUTO 22007KT 2800 BR OVC002/// M03/M03 Q1024=
202212172220 METAR ESMX 172220Z AUTO 20007KT 5000 BR OVC003/// M03/M03 Q1024=
202212172150 METAR ESMX 172150Z AUTO 21008KT 6000 BR OVC004/// M03/M03 Q1024=
202212172120 METAR ESMX 172120Z AUTO 20007KT 6000 BR OVC003/// M03/M03 Q1024=
202212172050 METAR ESMX 172050Z AUTO 21007KT 7000 BR OVC004/// M03/M03 Q1024=
202212172020 METAR ESMX 172020Z AUTO 21009KT 8000 BR OVC005/// M03/M03 Q1024=
202212171950 METAR ESMX 171950Z AUTO 20006KT 9000 BR OVC005/// M03/M03 Q1024 RESHUP=
202212171920 METAR ESMX 171920Z AUTO 20006KT 9000 BR OVC005/// M03/M04 Q1024 REFZUP RESHUP REUP=
202212171850 METAR ESMX 171850Z AUTO 21006KT 9000 BR OVC004/// M04/M04 Q1024=
202212171820 METAR ESMX 171820Z AUTO 22006KT 9000 OVC003/// M04/M04 Q1024 RESHUP REFZUP=
202212171750 METAR ESMX 171750Z AUTO 22005KT 5000 -FZDZ OVC002/// M04/M05 Q1023 REFZUP REUP=
202212171720 METAR ESMX 171720Z AUTO 19005KT 3200 BR OVC001/// M05/M05 Q1023=
202212171650 METAR ESMX 171650Z AUTO 20006KT 2300 BR OVC002/// M05/M05 Q1023 REFZUP=
202212171620 METAR ESMX 171620Z AUTO 22007KT 9999 OVC003/// M05/M05 Q1023=
202212171550 METAR ESMX 171550Z AUTO 16003KT 9999 BKN006/// M09/M10 Q1023=
202212171520 METAR ESMX 171520Z AUTO 16003KT 9999 NCD M09/M10 Q1023=
202212171450 METAR ESMX 171450Z AUTO 16004KT 9999 NCD M08/M08 Q1022=
202212171420 METAR ESMX 171420Z AUTO 16004KT 9999 NCD M08/M09 Q1022=
202212171350 METAR ESMX 171350Z AUTO 15004KT 9999 NCD M08/M09 Q1022=
202212171320 METAR ESMX 171320Z AUTO 15004KT 9999 NCD M07/M08 Q1022=
202212171250 METAR ESMX 171250Z AUTO 15003KT 9999 NCD M07/M08 Q1022=
202212171220 METAR ESMX 171220Z AUTO 16003KT 9999 NCD M08/M08 Q1022=
202212171150 METAR ESMX 171150Z AUTO 16002KT 9999 NCD M08/M09 Q1022=
202212171120 METAR ESMX 171120Z AUTO 00000KT 9999 NCD M10/M11 Q1022=
202212171050 METAR ESMX 171050Z AUTO 00000KT 9999 NCD M09/M10 Q1022=
202212171020 METAR ESMX 171020Z AUTO 00000KT 9999 NCD M13/M14 Q1022=
202212170950 METAR ESMX 170950Z AUTO 00000KT 9999 NCD M15/M17 Q1022=
202212170920 METAR ESMX 170920Z AUTO 00000KT 9999 NCD M16/M18 Q1022 RESN=
202212170850 METAR ESMX 170850Z AUTO 00000KT 6000 NCD M14/M15 Q1022=
202212170820 METAR ESMX 170820Z AUTO 00000KT 9999 SG NCD M19/M21 Q1022=
202212170750 METAR ESMX 170750Z AUTO 00000KT 9999 NCD M18/M20 Q1022 RESG=
202212170720 METAR ESMX 170720Z AUTO 00000KT 9999 NCD M20/M21 Q1022=
202212170650 METAR ESMX 170650Z AUTO 00000KT 9999 NCD M20/M22 Q1021=
202212170620 METAR ESMX 170620Z AUTO 00000KT 9999 -SN NCD M19/M20 Q1021 RESG=
202212170550 METAR ESMX 170550Z AUTO 00000KT 9999 SG NCD M19/M20 Q1021=
202212170520 METAR ESMX 170520Z AUTO 00000KT 9999 FEW001/// M19/M21 Q1021=
202212170450 METAR ESMX 170450Z AUTO 00000KT 9999 FEW000/// SCT001/// M19/M20 Q1021=
202212170420 METAR ESMX 170420Z AUTO 00000KT 9999 FEW001/// M18/M20 Q1021 RESHUP=
202212170350 METAR ESMX 170350Z AUTO 00000KT 7000 BCFG VV000 M17/M19 Q1021=
202212170320 METAR ESMX 170320Z AUTO 00000KT 0250 R01/P2000N R19/0900N BCFG OVC002/// M17/M18 Q1021 RESHUP=
202212170250 METAR ESMX 170250Z AUTO 00000KT 0200 R01/0700N R19/0600N FZFG OVC001/// M16/M17 Q1021 REDZ=
202212170220 METAR ESMX 170220Z AUTO 00000KT 9999 OVC002/// M17/M19 Q1021=
202212170150 METAR ESMX 170150Z AUTO 00000KT 9999 SCT000/// BKN002/// M17/M18 Q1020=
202212170120 METAR ESMX 170120Z AUTO 00000KT 6000 -SN FEW001/// M17/M18 Q1020 RESN=
202212170050 METAR ESMX 170050Z AUTO 00000KT 3500 -SN OVC001/// M16/M18 Q1020=
202212170020 METAR ESMX 170020Z AUTO 00000KT 0150 R01/0600N R19/P2000N FZFG OVC001/// M16/M17 Q1020 REFZUP=
202212162350 METAR ESMX 162350Z AUTO 00000KT 0200 R01/0800N R19/0900N -SN OVC001/// M15/M16 Q1020=
202212162320 METAR ESMX 162320Z AUTO 00000KT 0100 R01/0400N R19/0650N FZFG OVC001/// M15/M16 Q1020=
202212162250 METAR ESMX 162250Z AUTO 00000KT 0100 R01/0325N R19/0700N FZFG OVC001/// M14/M16 Q1020=
202212162220 METAR ESMX 162220Z AUTO 00000KT 0100 R01/0325N R19/0600N FZFG OVC001/// M14/M16 Q1020=
202212162150 METAR ESMX 162150Z AUTO 00000KT 0050 R01/0300N R19/0375N FZFG OVC001/// M14/M16 Q1020 RESHUP REFZUP=
202212162120 METAR ESMX 162120Z 00000KT 0200 R01/0250N R19/0900U FG VV002 M14/M16 Q1019=
202212162050 METAR ESMX 162050Z 00000KT 0250 R01/0350N R19/0350N FG VV002 M15/M16 Q1019=
202212162020 METAR COR ESMX 162020Z 00000KT 0250 R01/0300N R19/0550N FG VV002 M15/M16 Q1019=
202212161950 METAR ESMX 161950Z 00000KT 0150 R01/0250N R19/0250N FG VV002 M15/M16 Q1019=
202212161920 METAR ESMX 161920Z AUTO 00000KT 0050 R01/0200N R19/0225N FZFG VV002 M14/M16 Q1019=
202212161850 METAR ESMX 161850Z 00000KT 0150 R01/0250N R19/0225N FG VV002 M15/M16 Q1019=
202212161820 METAR ESMX 161820Z 00000KT 0200 R01/0450N R19/0450N FG VV002 M15/M17 Q1018=
202212161750 METAR ESMX 161750Z 00000KT 0350 R01/0450N R19/0500N FG VV002 M15/M16 Q1018=
202212161720 METAR ESMX 161720Z 00000KT 0800 FG VV002 M14/M16 Q1018=
202212161650 METAR ESMX 161650Z 00000KT 1500 R01/P2000N R19/0600N BR OVC002 M14/M15 Q1018=
202212161620 METAR ESMX 161620Z 00000KT 0600 R01/1700N R19/0600N FG VV002 M13/M15 Q1017=
202212161550 METAR ESMX 161550Z 19002KT 0500 R01/0900D R19/P2000N FG VV002 M13/M14 Q1017=
202212161520 METAR COR ESMX 161520Z 00000KT 2000 BR M13/M14 Q1017=
202212161450 METAR ESMX 161450Z 00000KT CAVOK M12/M13 Q1016=
202212161420 METAR COR ESMX 161420Z 00000KT CAVOK M12/M13 Q1016=
202212161350 METAR ESMX 161350Z AUTO 00000KT 9999 NCD M11/M12 Q1016=
202212161320 METAR ESMX 161320Z 18001KT CAVOK M10/M11 Q1016=
202212161250 METAR ESMX 161250Z 00000KT CAVOK M08/M09 Q1016=
202212161220 METAR COR ESMX 161220Z 00000KT CAVOK M08/M10 Q1015=
202212161150 METAR ESMX 161150Z 00000KT CAVOK M09/M10 Q1015=
202212161120 METAR ESMX 161120Z 00000KT CAVOK M10/M11 Q1015=
202212161050 METAR ESMX 161050Z 00000KT CAVOK M09/M10 Q1015=
202212161020 METAR ESMX 161020Z 00000KT CAVOK M11/M13 Q1015=
202212160950 METAR ESMX 160950Z 00000KT CAVOK M11/M12 Q1015=
202212160920 METAR ESMX 160920Z 00000KT CAVOK M14/M15 Q1015=
202212160850 METAR ESMX 160850Z 00000KT CAVOK M16/M18 Q1015=
202212160820 METAR ESMX 160820Z 00000KT CAVOK M17/M19 Q1015=
202212160750 METAR ESMX 160750Z 00000KT CAVOK M18/M19 Q1014=
202212160720 METAR ESMX 160720Z 00000KT CAVOK M17/M18 Q1014=
202212160650 METAR ESMX 160650Z 17002KT 9000 NSC M16/M18 Q1013=
202212160620 METAR ESMX 160620Z 00000KT CAVOK M17/M18 Q1013=
202212160550 METAR ESMX 160550Z 00000KT CAVOK M16/M18 Q1013=
202212160520 METAR ESMX 160520Z AUTO 23002KT 5000 -SN NCD M16/M17 Q1012=
202212160450 METAR ESMX 160450Z AUTO 00000KT 9999 -SN NCD M16/M18 Q1012 RESG=
202212160420 METAR ESMX 160420Z AUTO 00000KT 9999 NCD M17/M18 Q1012=
202212160350 METAR ESMX 160350Z AUTO 00000KT 9999 NCD M15/M17 Q1012=
202212160320 METAR ESMX 160320Z AUTO 00000KT 9999 NCD M15/M17 Q1012=
202212160250 METAR ESMX 160250Z AUTO 29002KT 9999 NCD M15/M17 Q1011=
202212160220 METAR ESMX 160220Z AUTO 26002KT 9999 SCT003/// M13/M15 Q1011 RESN=
202212160150 METAR ESMX 160150Z AUTO 23002KT 9999 BKN003/// M12/M14 Q1011=
202212160120 METAR ESMX 160120Z 22002KT 7000 BR OVC003 M12/M13 Q1011=
202212160050 METAR ESMX 160050Z VRB03KT 9999 OVC002 M11/M12 Q1011=
202212160020 METAR ESMX 160020Z VRB03KT 9999 OVC002 M11/M12 Q1011=
202212152350 METAR ESMX 152350Z 31003KT 9999 OVC002 M11/M12 Q1010=
202212152320 METAR ESMX 152320Z VRB02KT 9999 OVC003 M10/M11 Q1010=
202212152250 METAR COR ESMX 152250Z 29004KT 6000 FZFG OVC003 M10/M11 Q1010=
202212152220 METAR ESMX 152220Z 32003KT 9999 OVC002 M09/M10 Q1010=
202212152150 METAR ESMX 152150Z 32003KT 4000 BR OVC003 M09/M10 Q1010=
202212152120 METAR ESMX 152120Z 32003KT 9999 OVC002 M09/M10 Q1009=
202212152050 METAR ESMX 152050Z 31003KT 6000 BR OVC002 M09/M09 Q1009=
202212152020 METAR ESMX 152020Z AUTO 28003KT 240V320 8000 OVC002/// M08/M09 Q1009=
202212151950 METAR ESMX 151950Z AUTO 29004KT 9999 OVC002/// M08/M08 Q1008=
202212151920 METAR ESMX 151920Z AUTO 28005KT 9999 OVC003/// M08/M08 Q1008=
202212151850 METAR ESMX 151850Z AUTO 27003KT 9999 OVC004/// M07/M08 Q1007=
202212151820 METAR ESMX 151820Z AUTO 30005KT 9999 OVC004/// M07/M08 Q1007=
202212151750 METAR ESMX 151750Z 29004KT 9999 BKN004 M07/M07 Q1007=
202212151720 METAR ESMX 151720Z 30005KT 9999 BKN005 M06/M07 Q1006=
202212151650 METAR ESMX 151650Z 32004KT 9999 BKN004 M06/M07 Q1006=
202212151620 METAR ESMX 151620Z 30006KT 9999 BKN004 M06/M06 Q1006=
202212151550 METAR ESMX 151550Z 31005KT 270V330 9999 BKN005 M05/M06 Q1006=
202212151520 METAR ESMX 151520Z 34006KT 9999 BKN005 M05/M05 Q1005=
202212151450 METAR ESMX 151450Z 34006KT 9999 BKN006 M05/M05 Q1005=
202212151420 METAR ESMX 151420Z 35006KT 9999 BKN007 M04/M05 Q1005=
202212151350 METAR ESMX 151350Z 35005KT 9999 BKN007 M04/M05 Q1004=
202212151320 METAR ESMX 151320Z 34005KT 9999 BKN007 M04/M05 Q1004=
202212151250 METAR ESMX 151250Z 34006KT 9999 BKN007 M04/M05 Q1004=
202212151220 METAR ESMX 151220Z 33005KT 9999 -SN BKN006 M04/M04 Q1003=
202212151150 METAR ESMX 151150Z 35004KT 9999 -SN BKN006 M04/M04 Q1003=
202212151120 METAR ESMX 151120Z 36004KT 9999 -SN BKN006 M04/M04 Q1003=
202212151050 METAR ESMX 151050Z 35005KT 9999 -SN BKN006 M04/M04 Q1002=
202212151020 METAR ESMX 151020Z 35006KT 9000 -SN BKN005 M04/M04 Q1002=
202212150950 METAR ESMX 150950Z 35005KT 9000 -SN BKN005 M04/M04 Q1002=
202212150920 METAR ESMX 150920Z 36005KT 4000 -SN BKN006 M04/M04 Q1002=
202212150850 METAR ESMX 150850Z 36004KT 2500 -SN BKN004 M04/M04 Q1002=
202212150820 METAR ESMX 150820Z 36002KT 2500 -SN BKN005 M03/M04 Q1001=
202212150750 METAR ESMX 150750Z 35001KT 2000 -SN VV015 M03/M04 Q1001=
202212150720 METAR ESMX 150720Z 00000KT 2000 -SN VV009 M03/M04 Q1001=
202212150650 METAR ESMX 150650Z 00000KT 1400 -SN VV008 M04/M04 Q1001=
202212150620 METAR ESMX 150620Z 36003KT 1500 -SN VV009 M04/M04 Q1001=
202212150550 METAR ESMX 150550Z 01003KT 340V050 2000 -SN VV010 M04/M04 Q1000=
202212150520 METAR ESMX 150520Z 36004KT 1500 -SN VV008 M03/M03 Q1000=
202212150450 METAR ESMX 150450Z AUTO 36003KT 4700 -SN FEW004/// BKN006/// OVC014/// M03/M04 Q1000=
202212150420 METAR ESMX 150420Z AUTO 00000KT 3200 -SN BKN007/// OVC011/// M04/M04 Q1000=
202212150350 METAR ESMX 150350Z AUTO VRB01KT 3700 -SN FEW006/// SCT008/// BKN011/// M04/M04 Q1000=
202212150320 METAR ESMX 150320Z AUTO VRB02KT 1100 R01/P2000N R19/1800N -SN VV009 M04/M04 Q1000=
202212150250 METAR ESMX 150250Z AUTO 04002KT 1700 -SN ///021 M04/M04 Q0999 REFZUP RESG=
202212150220 METAR ESMX 150220Z AUTO 07003KT 030V100 7000 FZUP VV002 M04/M04 Q0999=
202212150150 METAR ESMX 150150Z AUTO 02003KT 1400 R01/P2000N R19/P2000N -SN VV012 M04/M04 Q1000=
202212150120 METAR ESMX 150120Z 00000KT 0300 R01/1200U R19/0900U SHSN VV004 M04/M04 Q1000=
202212150050 METAR ESMX 150050Z VRB03KT 0900 R01/P2000N R19/P2000N SHSN FEW002 OVC006 M04/M05 Q1000=
202212150020 METAR ESMX 150020Z 03004KT 9999 -SN OVC007 M04/M04 Q1000=
202212142350 METAR ESMX 142350Z 01005KT 9999 -SN OVC007 M03/M04 Q1000=
202212142320 METAR ESMX 142320Z 32004KT 9999 OVC006 M03/M04 Q1000=
202212142250 METAR ESMX 142250Z 00000KT 9000 -SN FEW002 BKN008 M03/M03 Q0999=
202212142220 METAR ESMX 142220Z 33003KT 1700 -SN SCT001 BKN006 M03/M04 Q1000=
202212142150 METAR ESMX 142150Z VRB02KT 9999 FEW002 BKN008 M03/M04 Q1000=
202212142120 METAR ESMX 142120Z 30003KT 4900 -SN FEW004 OVC009 M03/M03 Q1000=
202212142050 METAR ESMX 142050Z 34003KT 9999 SCT018 OVC029 M03/M03 Q0999=
202212142020 METAR ESMX 142020Z AUTO VRB02KT 9999 OVC018/// M02/M03 Q0999=
202212141950 METAR ESMX 141950Z VRB03KT 9999 FEW008 BKN019 M02/M03 Q0999=
202212141920 METAR ESMX 141920Z VRB03KT 9999 FEW009 BKN019 M02/M03 Q0999=
202212141850 METAR ESMX 141850Z 23003KT 9999 BKN019 M02/M03 Q0999=
202212141820 METAR ESMX 141820Z 25002KT 9999 BKN019 M02/M02 Q0999=
202212141750 METAR ESMX 141750Z 23004KT 9999 BKN020 M02/M03 Q0999=
202212141720 METAR ESMX 141720Z 24005KT 9999 BKN018 M01/M02 Q0999=
202212141650 METAR ESMX 141650Z 21005KT 9999 SCT017 BKN022 M01/M02 Q0999=
202212141620 METAR ESMX 141620Z 22006KT 9999 BKN022 M01/M02 Q0998=
202212141550 METAR ESMX 141550Z 22005KT 9999 FEW010 BKN024 M02/M02 Q0998=
202212141520 METAR ESMX 141520Z 22007KT 9999 SCT017 M02/M03 Q0998=
202212141450 METAR ESMX 141450Z 22007KT 9999 BKN013 M01/M01 Q0998=
202212141420 METAR ESMX 141420Z 21009KT 9999 BKN010 M00/M01 Q0998=
202212141350 METAR ESMX 141350Z 22009KT 9000 -SN BKN007 M00/M00 Q0998=
202212141320 METAR ESMX 141320Z 20011KT 6000 -SN BKN009 M00/M01 Q0998=
202212141250 METAR ESMX 141250Z 20012KT 9999 -SN BKN009 M00/M01 Q0998=
202212141220 METAR ESMX 141220Z 20013KT 9999 BKN008 M00/M01 Q0998=
202212141150 METAR ESMX 141150Z 21011KT 7000 BKN007 M00/M01 Q0998=
202212141120 METAR ESMX 141120Z 20011KT 4000 -SN BKN007 M00/M01 Q0998=
202212141050 METAR ESMX 141050Z AUTO 20013KT 9999 OVC007/// M00/M01 Q0998=
202212141020 METAR ESMX 141020Z 19013KT 9999 BKN006 M00/M01 Q0998=
202212140950 METAR ESMX 140950Z 19013KT 9999 BKN006 M01/M01 Q0998=
202212140920 METAR COR ESMX 140920Z 19013KT 9000 -SN OVC005 M01/M01 Q0998=
202212140850 METAR ESMX 140850Z 19014KT 7000 -SN OVC006 M01/M01 Q0998=
202212140820 METAR ESMX 140820Z 19014KT 7000 -SN BKN005 M01/M01 Q0998=
202212140750 METAR COR ESMX 140750Z 19014KT 4600 -SN OVC005 M01/M01 Q0998=
202212140720 METAR ESMX 140720Z AUTO 19014KT 7000 FZUP OVC005/// M01/M01 Q0998 REFZRA=
202212140650 METAR ESMX 140650Z AUTO 19014KT 9000 BR OVC006/// M01/M01 Q0998 REFZUP RESHUP=
202212140620 METAR ESMX 140620Z AUTO 19014KT 9000 FZUP OVC005/// M00/M01 Q0998 REFZRA=
202212140550 METAR ESMX 140550Z 19017KT 6000 -SN BKN005 M01/M01 Q0998=
202212140520 METAR ESMX 140520Z 19013KT 7000 -SN BKN005 M01/M01 Q0999=
202212140450 METAR COR ESMX 140450Z 18014KT 7000 -SN OVC006 M01/M01 Q0999=
202212140420 METAR ESMX 140420Z AUTO 18011KT 6000 -FZDZ OVC004/// M01/M01 Q0999 REFZUP RESHUP=
202212140350 METAR ESMX 140350Z AUTO 19014KT 5000 BR OVC003/// M01/M01 Q0999 RESHUP=
202212140320 METAR ESMX 140320Z AUTO 19011KT 5000 -FZDZ OVC003/// M01/M01 Q1000 RERA REFZUP=
202212140250 METAR ESMX 140250Z AUTO 18010KT 5000 FZUP OVC003/// M02/M02 Q1000=
202212140220 METAR ESMX 140220Z AUTO 18010KT 5000 -PL FEW002/// OVC004/// M02/M03 Q1000=
202212140150 METAR ESMX 140150Z 17009KT 8000 SHSN FEW001 BKN007 M03/M03 Q1001=
202212140120 METAR ESMX 140120Z 17009KT 7000 -SN OVC005 M03/M04 Q1001=
202212140050 METAR ESMX 140050Z 18008KT 9999 OVC006 M04/M05 Q1001=
202212140020 METAR ESMX 140020Z 17007KT 9999 -SN BKN008 M05/M06 Q1002=
202212132350 METAR ESMX 132350Z 16007KT 9999 OVC025 M05/M06 Q1002=
202212132320 METAR ESMX 132320Z 16005KT 9999 OVC022 M06/M07 Q1003=
202212132250 METAR ESMX 132250Z AUTO 18005KT 9999 OVC022/// M06/M07 Q1003=
202212132220 METAR ESMX 132220Z 20005KT 9999 OVC022 M07/M08 Q1004=
202212132150 METAR ESMX 132150Z 20004KT 9999 OVC023 M08/M09 Q1004=
202212132120 METAR ESMX 132120Z 20005KT 9999 OVC023 M08/M09 Q1004=
202212132050 METAR ESMX 132050Z 21004KT 9999 OVC022 M09/M09 Q1005=
202212132020 METAR ESMX 132020Z AUTO 21005KT 9999 OVC024/// M10/M11 Q1004=
202212131950 METAR ESMX 131950Z AUTO 21006KT 9999 BKN023/// M11/M12 Q1005=
202212131920 METAR ESMX 131920Z AUTO 18005KT 9999 NCD M12/M13 Q1005=
202212131850 METAR ESMX 131850Z AUTO 23002KT 9999 FEW001/// M11/M12 Q1005=
202212131820 METAR ESMX 131820Z AUTO 23004KT 0400 R01/P2000N R19/P2000D NCD M12/M13 Q1005=
202212131750 METAR ESMX 131750Z 23003KT CAVOK M10/M11 Q1005=
202212131720 METAR ESMX 131720Z 27005KT 9999 BKN008 M09/M10 Q1005=
202212131650 METAR ESMX 131650Z 28007KT 9999 BKN008 M08/M09 Q1005=
202212131620 METAR ESMX 131620Z AUTO 28006KT 9999 -FZDZ OVC009/// M08/M09 Q1005 RESHUP=
202212131550 METAR ESMX 131550Z AUTO 28006KT 250V320 9999 OVC009/// M07/M09 Q1005 RESHUP REFZUP=
202212131520 METAR ESMX 131520Z 27007KT 9999 BKN009 M07/M09 Q1006=
202212131450 METAR COR ESMX 131450Z 25008KT 9999 BKN010 M07/M09 Q1006=
202212131420 METAR ESMX 131420Z AUTO 26007KT 9999 OVC011/// M07/M08 Q1006=
202212131350 METAR ESMX 131350Z AUTO 26007KT 230V290 9999 BKN012/// M07/M09 Q1006=
202212131320 METAR ESMX 131320Z 27008KT 9999 BKN010 M06/M08 Q1006=
202212131250 METAR ESMX 131250Z 27007KT 230V310 9999 BKN010 M06/M08 Q1005=
202212131220 METAR ESMX 131220Z 29008KT 250V320 9999 BKN011 M06/M08 Q1006=
202212131150 METAR ESMX 131150Z 29007KT 9999 BKN011 M07/M09 Q1006=
202212131120 METAR ESMX 131120Z 29007KT 9999 SCT013 M06/M09 Q1006=
202212131050 METAR ESMX 131050Z 32005KT 290V350 9999 FEW017 M07/M09 Q1006=
202212131020 METAR ESMX 131020Z 30006KT 9999 FEW017 M07/M09 Q1006=
202212130950 METAR ESMX 130950Z 27005KT 9999 FEW017 M08/M10 Q1006=
202212130920 METAR ESMX 130920Z 28006KT 9999 BKN017 M08/M10 Q1006=
202212130850 METAR ESMX 130850Z 30006KT 9999 BKN018 M08/M10 Q1006=
202212130820 METAR ESMX 130820Z 29007KT 9999 SCT019 M08/M10 Q1006=
202212130750 METAR ESMX 130750Z 29006KT 9999 SCT019 M08/M10 Q1006=
202212130720 METAR ESMX 130720Z 30007KT 9999 SCT019 M08/M10 Q1006=
202212130650 METAR ESMX 130650Z 31008KT 9999 FEW020 M08/M09 Q1005=
202212130620 METAR ESMX 130620Z 31008KT 9999 SCT021 M07/M09 Q1005=
202212130550 METAR ESMX 130550Z 31008KT 9999 SCT021 M06/M09 Q1005=
202212130520 METAR ESMX 130520Z 32010KT 9999 FEW010 BKN021 M06/M08 Q1005=
202212130450 METAR ESMX 130450Z AUTO 32010KT 9999 FZUP BKN013/// OVC020/// M05/M07 Q1005 REFZUP RESHUP=
202212130420 METAR ESMX 130420Z AUTO 32009KT 9999 OVC013/// M05/M07 Q1006 RESHUP=
202212130350 METAR ESMX 130350Z AUTO 32010KT 9999 OVC012/// M05/M06 Q1006 RESHUP REUP=
202212130320 METAR ESMX 130320Z AUTO 31009KT 9999 OVC015/// M05/M06 Q1006=
202212130250 METAR ESMX 130250Z AUTO 30005KT 9999 OVC018/// M05/M07 Q1006 REFZUP RESHUP REFZRA=
202212130220 METAR ESMX 130220Z AUTO 31006KT 9999 OVC019/// M05/M07 Q1006 REFZUP=
202212130150 METAR ESMX 130150Z AUTO 31007KT 9999 OVC022/// M05/M07 Q1006=
202212130120 METAR ESMX 130120Z 35011KT 9999 SCT018 OVC025 M04/M07 Q1006=
202212130050 METAR ESMX 130050Z 34013KT 9999 OVC017 M04/M07 Q1006=
202212130020 METAR ESMX 130020Z 34013KT 300V010 9999 OVC016 M04/M07 Q1006=
202212122350 METAR ESMX 122350Z 34011KT 300V010 9999 OVC016 M04/M07 Q1006=
202212122320 METAR ESMX 122320Z 32009KT 9999 OVC017 M05/M07 Q1006=
202212122250 METAR ESMX 122250Z 32009KT 9999 BKN017 M06/M07 Q1006=
202212122220 METAR ESMX 122220Z 32009KT CAVOK M06/M08 Q1006=
202212122150 METAR ESMX 122150Z 32009KT 9999 BKN018 M06/M08 Q1006=
202212122120 METAR ESMX 122120Z 34011KT 9999 OVC018 M05/M07 Q1006=
202212122050 METAR ESMX 122050Z 33012KT 9999 OVC016 M05/M07 Q1007=
202212122020 METAR ESMX 122020Z 34011KT 9999 OVC017 M04/M07 Q1006=
202212121950 METAR ESMX 121950Z 35012KT 9999 OVC016 M04/M06 Q1006=
202212121920 METAR ESMX 121920Z 34013KT 9999 OVC017 M04/M07 Q1007=
202212121850 METAR ESMX 121850Z 34013KT 9999 OVC018 M04/M07 Q1007=
202212121820 METAR ESMX 121820Z 34014KT 9999 BKN019 M04/M07 Q1007=
202212121750 METAR ESMX 121750Z 32009KT 9999 -SN BKN021 M05/M07 Q1007=
202212121720 METAR ESMX 121720Z 31008KT 9999 FEW010 BKN028 M06/M07 Q1007=
202212121650 METAR ESMX 121650Z 31008KT 9999 SCT009 BKN017 M06/M07 Q1007=
202212121620 METAR ESMX 121620Z 31008KT 9999 BKN017 M06/M07 Q1008=
202212121550 METAR ESMX 121550Z 32007KT 9999 FEW010 BKN015 M06/M07 Q1008=
202212121520 METAR ESMX 121520Z 32008KT 9999 SCT016 M06/M08 Q1008=
202212121450 METAR ESMX 121450Z 34010KT 9999 SCT010 M05/M07 Q1008=
202212121420 METAR ESMX 121420Z 35013KT 9999 BKN010 M05/M07 Q1009=
202212121350 METAR ESMX 121350Z 35011KT 9999 BKN009 M05/M07 Q1009=
202212121320 METAR ESMX 121320Z 36012KT 9999 BKN009 M05/M06 Q1009=
202212121250 METAR ESMX 121250Z 35012KT 9999 BKN009 M05/M06 Q1009=
202212121220 METAR ESMX 121220Z 35012KT 9999 OVC009 M05/M06 Q1009=
202212121150 METAR ESMX 121150Z 35012KT 9999 BKN009 M05/M06 Q1009=
202212121120 METAR ESMX 121120Z 34013KT 9999 -SN OVC009 M05/M06 Q1009=
202212121050 METAR ESMX 121050Z 34012KT 9999 OVC009 M04/M06 Q1009=
202212121020 METAR ESMX 121020Z 35011KT 9999 -SN OVC008 M05/M06 Q1009=
202212120950 METAR ESMX 120950Z 35010KT 9999 OVC007 M05/M06 Q1010=
202212120920 METAR ESMX 120920Z AUTO 34010KT 9999 FZUP OVC007/// M05/M06 Q1010=
202212120850 METAR ESMX 120850Z AUTO 35011KT 9999 -SN OVC006/// M05/M06 Q1010=
202212120820 METAR ESMX 120820Z 35011KT 9999 OVC006 M05/M06 Q1010=
202212120750 METAR ESMX 120750Z 01013KT 9999 OVC007 M05/M06 Q1010=
202212120720 METAR COR ESMX 120720Z 01012KT 9999 BKN007 M05/M06 Q1010=
202212120650 METAR ESMX 120650Z 35010KT 9999 BKN008 M05/M06 Q1009=
202212120620 METAR ESMX 120620Z 35011KT 9999 BKN008 M05/M06 Q1009=
202212120550 METAR ESMX 120550Z 35010KT 9999 BKN009 M05/M06 Q1009=
202212120520 METAR ESMX 120520Z 35010KT 9999 BKN008 M05/M06 Q1010=
202212120450 METAR ESMX 120450Z 35010KT 9999 BKN007 M05/M06 Q1010=
202212120420 METAR ESMX 120420Z AUTO 35008KT 9999 OVC005/// M05/M06 Q1010=
202212120350 METAR ESMX 120350Z AUTO 34008KT 9999 OVC004/// M05/M06 Q1010=
202212120320 METAR ESMX 120320Z AUTO 35007KT 9999 OVC005/// M06/M06 Q1010=
202212120250 METAR ESMX 120250Z AUTO 34010KT 9999 OVC006/// M06/M07 Q1010=
202212120220 METAR ESMX 120220Z AUTO 34009KT 9999 OVC005/// M06/M07 Q1010=
202212120150 METAR ESMX 120150Z AUTO 33008KT 9999 OVC004/// M06/M07 Q1010=
202212120120 METAR ESMX 120120Z AUTO 01010KT 9999 OVC004/// M07/M07 Q1010=
202212120050 METAR ESMX 120050Z AUTO 35010KT 9999 OVC005/// M07/M08 Q1010=
202212120020 METAR ESMX 120020Z AUTO 34010KT 9999 OVC006/// M07/M08 Q1010=
202212112350 METAR ESMX 112350Z AUTO 36011KT 9999 OVC005/// M07/M07 Q1010=
202212112320 METAR ESMX 112320Z AUTO 35011KT 9999 OVC005/// M07/M07 Q1010=
202212112250 METAR ESMX 112250Z AUTO 35009KT 9999 OVC005/// M07/M07 Q1010=
202212112220 METAR ESMX 112220Z AUTO 36008KT 9999 OVC005/// M07/M07 Q1011=
202212112150 METAR ESMX 112150Z 01009KT 9999 OVC005 M07/M07 Q1011=
202212112120 METAR ESMX 112120Z 02008KT 9999 OVC005 M07/M07 Q1011=
202212112050 METAR ESMX 112050Z 01009KT 9999 BKN005 M07/M07 Q1011=
202212112020 METAR ESMX 112020Z 02009KT 9999 SCT005 M07/M08 Q1011=
202212111950 METAR ESMX 111950Z 01007KT CAVOK M07/M08 Q1011=
202212111920 METAR ESMX 111920Z 02007KT 9999 SCT006 M07/M07 Q1011=
202212111850 METAR ESMX 111850Z AUTO 02007KT 9999 NCD M07/M07 Q1011=
202212111820 METAR COR ESMX 111820Z 02007KT 9999 SCT006 BKN008 M07/M07 Q1011=
202212111750 METAR ESMX 111750Z 01008KT 9999 OVC006 M06/M07 Q1011=
202212111720 METAR ESMX 111720Z 01006KT 9999 OVC006 M06/M07 Q1011=
202212111650 METAR ESMX 111650Z AUTO 01007KT 9999 OVC006/// M06/M07 Q1011=
202212111620 METAR ESMX 111620Z 01007KT 9999 OVC006 M06/M06 Q1011=
202212111550 METAR ESMX 111550Z 01006KT 9999 OVC006 M06/M06 Q1011=
202212111520 METAR ESMX 111520Z 01006KT 9999 OVC005 M06/M06 Q1011=
202212111450 METAR ESMX 111450Z 01007KT 9999 OVC005 M06/M06 Q1011=
202212111420 METAR ESMX 111420Z 01006KT 9999 OVC005 M05/M06 Q1011=
202212111350 METAR ESMX 111350Z 04006KT 9999 OVC005 M05/M06 Q1011=
202212111320 METAR ESMX 111320Z 02006KT 9999 OVC005 M05/M06 Q1011=
202212111250 METAR ESMX 111250Z 36005KT 9999 OVC005 M06/M06 Q1011=
202212111220 METAR ESMX 111220Z 01006KT 9999 OVC005 M06/M07 Q1011=
202212111150 METAR ESMX 111150Z AUTO 01005KT 9999 OVC004/// M06/M06 Q1011=
202212111120 METAR ESMX 111120Z AUTO 04005KT 360V060 9999 OVC005/// M06/M07 Q1012=
202212111050 METAR ESMX 111050Z AUTO 02005KT 350V050 9999 OVC004/// M06/M07 Q1012=
202212111020 METAR ESMX 111020Z AUTO 04005KT 9999 OVC004/// M06/M07 Q1012=
202212110950 METAR ESMX 110950Z AUTO 03006KT 010V080 9999 OVC004/// M07/M07 Q1012=
202212110920 METAR ESMX 110920Z AUTO 04005KT 9999 OVC004/// M07/M07 Q1012=
202212110850 METAR ESMX 110850Z AUTO 03006KT 9999 OVC004/// M07/M07 Q1012=
202212110820 METAR ESMX 110820Z AUTO 05006KT 9999 OVC003/// M07/M08 Q1012=
202212110750 METAR ESMX 110750Z AUTO 05006KT 9999 OVC003/// M07/M08 Q1012=
202212110720 METAR ESMX 110720Z AUTO 03007KT 9999 OVC003/// M07/M07 Q1012=
202212110650 METAR ESMX 110650Z AUTO 03006KT 9999 OVC003/// M07/M07 Q1012=
202212110620 METAR ESMX 110620Z AUTO 05005KT 020V090 9999 OVC003/// M07/M08 Q1011=
202212110550 METAR ESMX 110550Z AUTO 03006KT 9999 OVC003/// M07/M07 Q1011=
202212110520 METAR ESMX 110520Z AUTO 06006KT 020V100 9999 OVC003/// M07/M07 Q1011=
202212110450 METAR ESMX 110450Z AUTO 04005KT 010V070 9999 OVC004/// M07/M07 Q1011=
202212110420 METAR ESMX 110420Z AUTO 06004KT 340V110 9999 OVC004/// M07/M07 Q1011=
202212110350 METAR ESMX 110350Z AUTO 05005KT 9999 OVC004/// M06/M07 Q1011=
202212110320 METAR ESMX 110320Z AUTO 03006KT 9999 OVC003/// M06/M07 Q1011=
202212110250 METAR ESMX 110250Z AUTO 03006KT 9999 OVC003/// M06/M07 Q1011=
202212110220 METAR ESMX 110220Z AUTO 05005KT 9999 OVC003/// M06/M07 Q1011=
202212110150 METAR ESMX 110150Z AUTO 03004KT 350V070 9999 OVC003/// M06/M07 Q1011=
202212110120 METAR ESMX 110120Z AUTO 01005KT 340V050 9999 OVC003/// M06/M07 Q1011=
202212110050 METAR ESMX 110050Z AUTO 03005KT 350V060 9999 OVC003/// M06/M07 Q1011=
202212110020 METAR ESMX 110020Z AUTO 05005KT 020V110 9999 OVC004/// M06/M06 Q1011=
202212102350 METAR ESMX 102350Z AUTO 02005KT 340V060 9999 OVC004/// M06/M06 Q1011=
202212102320 METAR ESMX 102320Z AUTO 06005KT 010V100 9999 OVC004/// M06/M06 Q1011=
202212102250 METAR ESMX 102250Z AUTO 05005KT 010V080 9999 OVC005/// M06/M06 Q1011=
202212102220 METAR ESMX 102220Z AUTO 02004KT 340V050 9999 OVC005/// M06/M06 Q1011=
202212102150 METAR ESMX 102150Z AUTO 02005KT 350V070 9999 OVC006/// M06/M06 Q1012=
202212102120 METAR ESMX 102120Z AUTO 03005KT 9999 OVC006/// M06/M06 Q1011=
202212102050 METAR ESMX 102050Z AUTO 03006KT 9999 OVC006/// M06/M06 Q1011=
202212102020 METAR ESMX 102020Z AUTO 04005KT 9999 OVC006/// M06/M06 Q1011=
202212101950 METAR ESMX 101950Z AUTO 05004KT 020V090 9999 OVC006/// M06/M07 Q1011=
202212101920 METAR ESMX 101920Z AUTO 08004KT 030V110 9999 OVC005/// M06/M07 Q1011=
202212101850 METAR ESMX 101850Z AUTO VRB02KT 9999 OVC005/// M06/M07 Q1011=
202212101820 METAR ESMX 101820Z AUTO 01006KT 9999 OVC004/// M06/M07 Q1011=
202212101750 METAR ESMX 101750Z AUTO 36005KT 9999 OVC004/// M06/M07 Q1011=
202212101720 METAR ESMX 101720Z AUTO 01005KT 9999 OVC004/// M06/M07 Q1011=
202212101650 METAR ESMX 101650Z AUTO 02005KT 350V060 9999 OVC003/// M06/M07 Q1011=
202212101620 METAR ESMX 101620Z AUTO 04007KT 9999 OVC003/// M06/M07 Q1011=
202212101550 METAR ESMX 101550Z AUTO 03007KT 9999 OVC003/// M06/M07 Q1011=
202212101520 METAR ESMX 101520Z AUTO 04006KT 9999 OVC003/// M06/M07 Q1011=
202212101450 METAR ESMX 101450Z AUTO 03006KT 9999 OVC004/// M06/M07 Q1011=
202212101420 METAR ESMX 101420Z AUTO 01005KT 9999 OVC004/// M06/M06 Q1011=
202212101350 METAR ESMX 101350Z AUTO 35005KT 9999 OVC004/// M06/M07 Q1011=
202212101320 METAR ESMX 101320Z AUTO 36007KT 9999 OVC004/// M06/M06 Q1011=
202212101250 METAR ESMX 101250Z AUTO 36005KT 9999 OVC005/// M06/M06 Q1010=
202212101220 METAR ESMX 101220Z AUTO 01007KT 9999 OVC005/// M06/M06 Q1010=
202212101150 METAR ESMX 101150Z AUTO 36007KT 9999 OVC004/// M06/M06 Q1011=
202212101120 METAR ESMX 101120Z AUTO 36007KT 9999 OVC004/// M06/M06 Q1011=
202212101050 METAR ESMX 101050Z AUTO 02007KT 9999 OVC005/// M06/M06 Q1011=
202212101020 METAR ESMX 101020Z AUTO 03007KT 9999 OVC004/// M06/M06 Q1010=
202212100950 METAR ESMX 100950Z AUTO 01008KT 9999 OVC004/// M06/M06 Q1010=
202212100920 METAR ESMX 100920Z AUTO 01007KT 9999 OVC003/// M06/M06 Q1010=
202212100850 METAR ESMX 100850Z AUTO 36008KT 9999 OVC004/// M05/M05 Q1010=
202212100820 METAR ESMX 100820Z AUTO 01008KT 9999 OVC005/// M05/M05 Q1010=
202212100750 METAR ESMX 100750Z AUTO 02007KT 9999 OVC005/// M04/M05 Q1010=
202212100720 METAR ESMX 100720Z AUTO 01007KT 9999 OVC005/// M04/M05 Q1010=
202212100650 METAR ESMX 100650Z AUTO 01007KT 9999 OVC005/// M04/M05 Q1009=
202212100620 METAR ESMX 100620Z AUTO 36007KT 9999 OVC005/// M04/M04 Q1009=
202212100550 METAR ESMX 100550Z AUTO 36008KT 9999 OVC005/// M03/M04 Q1009=
202212100520 METAR ESMX 100520Z AUTO 01009KT 9999 OVC005/// M03/M03 Q1009=
202212100450 METAR ESMX 100450Z AUTO 36006KT 9999 OVC004/// M02/M02 Q1008=
202212100420 METAR ESMX 100420Z AUTO 04005KT 9999 -FZDZ OVC004/// M02/M02 Q1008 REFZUP RESHUP REFZRA=
202212100350 METAR ESMX 100350Z AUTO 03005KT 010V080 9999 FZUP OVC007/// M02/M02 Q1008 REFZUP=
202212100320 METAR ESMX 100320Z AUTO 02006KT 9999 FZUP BKN007/// OVC008/// M02/M02 Q1008 REFZUP=
202212100250 METAR ESMX 100250Z AUTO 02006KT 8000 FZUP SCT002/// BKN005/// OVC008/// M02/M02 Q1008=
202212100220 METAR ESMX 100220Z AUTO 03005KT 4200 -SN BKN002/// OVC004/// M01/M02 Q1008=
202212100150 METAR ESMX 100150Z AUTO 03004KT 3700 -SN SCT002/// OVC005/// M01/M01 Q1008=
202212100120 METAR ESMX 100120Z AUTO 02004KT 1700 -SN SCT001/// OVC005/// M01/M01 Q1008=
202212100050 METAR ESMX 100050Z AUTO 02003KT 5000 -FZDZ OVC005/// M01/M01 Q1008 REFZUP=
202212100020 METAR ESMX 100020Z AUTO 00000KT 3300 FZUP BKN002/// OVC008/// M01/M01 Q1008=
202212092350 METAR ESMX 092350Z AUTO 00000KT 1200 R01/P2000N R19/P2000N -SN BKN002/// BKN004/// OVC010/// M01/M01 Q1008=
202212092320 METAR ESMX 092320Z AUTO 00000KT 2300 -FZDZ FEW001/// SCT006/// BKN009/// M01/M01 Q1007 REFZUP=
202212092250 METAR ESMX 092250Z AUTO 00000KT 2000 -SN FEW002/// SCT009/// BKN013/// M01/M01 Q1007=
202212092220 METAR ESMX 092220Z AUTO 00000KT 0600 R01/1600D R19/1800U SN VV014 M01/M01 Q1007=
202212092150 METAR ESMX 092150Z AUTO 00000KT 1100 R01/P2000N R19/P2000N -SN VV005 M01/M01 Q1007=
202212092120 METAR ESMX 092120Z AUTO 00000KT 1000 R01/P2000N R19/P2000N -SN FEW002/// OVC004/// M01/M01 Q1007 REFZUP=
202212092050 METAR ESMX 092050Z AUTO 00000KT 9999 FZUP OVC005/// M01/M01 Q1007=
202212092020 METAR ESMX 092020Z AUTO 19004KT 9999 -FZDZ OVC005/// M01/M01 Q1007 REFZUP RESHUP=
202212091950 METAR ESMX 091950Z AUTO 19004KT 9999 OVC006/// M01/M01 Q1006 REFZUP RESHUP REFZRA=
202212091920 METAR ESMX 091920Z AUTO 19002KT 9999 FEW002/// OVC005/// M01/M01 Q1006 REFZUP RESHUP=
202212091850 METAR ESMX 091850Z AUTO 00000KT 9999 SCT002/// OVC006/// M01/M01 Q1006=
202212091820 METAR ESMX 091820Z AUTO 19002KT 2000 -SN SCT002/// OVC006/// M01/M01 Q1006=
202212091750 METAR ESMX 091750Z 19003KT 7000 -SN FEW002 OVC006 M01/M01 Q1006=
202212091720 METAR ESMX 091720Z 19004KT 9000 -SN OVC007 M01/M01 Q1006=
202212091650 METAR ESMX 091650Z 19005KT 9999 -SN OVC008 M01/M01 Q1006=
202212091620 METAR ESMX 091620Z 19006KT 9999 -SN FEW005 OVC009 M01/M01 Q1006=
202212091550 METAR ESMX 091550Z 19005KT 9999 -SN BKN009 M01/M02 Q1005=
202212091520 METAR ESMX 091520Z AUTO 17005KT 9999 BKN009/// OVC032/// M01/M02 Q1005=
202212091450 METAR ESMX 091450Z 21004KT 9999 OVC009 M01/M01 Q1005=
202212091420 METAR ESMX 091420Z 18004KT 9999 OVC008 M01/M02 Q1005=
202212091350 METAR ESMX 091350Z 21004KT 9999 OVC009 M01/M02 Q1005=
202212091320 METAR ESMX 091320Z 21004KT 9999 OVC010 M01/M02 Q1005=
202212091250 METAR ESMX 091250Z 21005KT 9999 SCT012 BKN038 M01/M02 Q1005=
202212091220 METAR ESMX 091220Z 21006KT 9999 FEW012 BKN043 M01/M02 Q1005=
202212091150 METAR ESMX 091150Z 20008KT 9999 BKN016 BKN047 M01/M02 Q1005=
202212091120 METAR ESMX 091120Z AUTO 19009KT 9999 BKN017/// OVC051/// M01/M02 Q1005=
202212091050 METAR ESMX 091050Z 19010KT 9999 FEW041 BKN055 M01/M03 Q1005=
202212091020 METAR ESMX 091020Z 21011KT 9999 FEW025 SCT053 BKN082 M01/M03 Q1005=
202212090950 METAR ESMX 090950Z 21010KT 9999 FEW025 SCT064 BKN082 M01/M03 Q1005=
202212090920 METAR ESMX 090920Z 20011KT 9999 FEW020 SCT041 M02/M03 Q1005=
202212090850 METAR ESMX 090850Z AUTO 19011KT 9999 BKN059/// BKN084/// M02/M03 Q1005=
202212090820 METAR ESMX 090820Z 21009KT 9999 FEW020 BKN078 M02/M03 Q1005=
202212090750 METAR ESMX 090750Z AUTO 21009KT 9999 SCT041/// OVC070/// M02/M03 Q1004=
202212090720 METAR ESMX 090720Z 19009KT 9999 FEW009 BKN038 BKN068 M02/M03 Q1004=
202212090650 METAR ESMX 090650Z 18008KT 9999 FEW009 BKN039 BKN068 M03/M03 Q1004=
202212090620 METAR ESMX 090620Z 18007KT 9999 FEW029 BKN035 OVC053 M03/M03 Q1004=
202212090550 METAR ESMX 090550Z 18008KT 9999 SCT027 BKN034 BKN053 M03/M03 Q1004=
202212090520 METAR ESMX 090520Z AUTO 18008KT 9999 BKN029/// OVC048/// M03/M03 Q1004=
202212090450 METAR ESMX 090450Z AUTO 19007KT 9999 OVC029/// M03/M03 Q1004=
202212090420 METAR ESMX 090420Z AUTO 18009KT 9999 BKN027/// OVC055/// M03/M03 Q1004=
202212090350 METAR ESMX 090350Z AUTO 18008KT 9999 BKN030/// OVC053/// M02/M04 Q1004=
202212090320 METAR ESMX 090320Z AUTO 19009KT 9999 OVC030/// M02/M04 Q1004=
202212090250 METAR ESMX 090250Z AUTO 18008KT 9999 OVC031/// M03/M04 Q1004=
202212090220 METAR ESMX 090220Z AUTO 19008KT 9999 BKN033/// OVC053/// M03/M04 Q1004=
202212090150 METAR ESMX 090150Z AUTO 18007KT 9999 OVC032/// M03/M04 Q1004=
202212090120 METAR ESMX 090120Z AUTO 18008KT 9999 BKN034/// OVC043/// M03/M05 Q1004=
202212090050 METAR ESMX 090050Z AUTO 16007KT 9999 OVC040/// M04/M05 Q1004=
202212090020 METAR ESMX 090020Z 19006KT 5000 -SN OVC035 M04/M05 Q1004=
202212082350 METAR ESMX 082350Z AUTO 17006KT 9999 OVC064/// M04/M06 Q1004=
202212082320 METAR COR ESMX 082320Z 17005KT CAVOK M04/M06 Q1004=
202212082250 METAR ESMX 082250Z AUTO 17006KT 9999 OVC080/// M05/M06 Q1004=
202212082220 METAR ESMX 082220Z 17007KT CAVOK M04/M06 Q1004=
202212082150 METAR ESMX 082150Z 17005KT CAVOK M05/M06 Q1004=
202212082120 METAR COR ESMX 082120Z 18006KT CAVOK M05/M06 Q1004=
202212082050 METAR COR ESMX 082050Z 18006KT CAVOK M05/M05 Q1004=
202212082020 METAR ESMX 082020Z AUTO 18006KT 9999 SCT100/// M05/M06 Q1004=
202212081950 METAR ESMX 081950Z AUTO 17004KT 9999 NCD M06/M06 Q1004=
202212081920 METAR ESMX 081920Z AUTO 17005KT 9999 FEW078/// M06/M06 Q1003=
202212081850 METAR ESMX 081850Z AUTO 17004KT 9999 SCT094/// BKN120/// M06/M06 Q1004=
202212081820 METAR ESMX 081820Z AUTO 17004KT 9999 SCT110/// BKN140/// M06/M06 Q1003=
202212081750 METAR ESMX 081750Z AUTO 16004KT 9999 SCT110/// M05/M06 Q1004=
202212081720 METAR ESMX 081720Z 16004KT 9999 FEW023 M05/M06 Q1003=
202212081650 METAR ESMX 081650Z 16004KT 9999 FEW023 M05/M06 Q1003=
202212081620 METAR ESMX 081620Z 17004KT 9999 FEW023 M06/M06 Q1003=
202212081550 METAR ESMX 081550Z 18004KT 9999 FEW023 M06/M06 Q1003=
202212081520 METAR ESMX 081520Z 20003KT 9999 FEW022 SCT038 M06/M06 Q1003=
202212081450 METAR ESMX 081450Z 20002KT 9999 FEW022 SCT038 M06/M07 Q1003=
202212081420 METAR ESMX 081420Z 18003KT 9999 FEW039 M06/M07 Q1003=
202212081350 METAR ESMX 081350Z 19003KT 9999 FEW006 SCT041 M06/M06 Q1003=
202212081320 METAR ESMX 081320Z AUTO 20002KT 9999 NCD M06/M06 Q1003=
202212081250 METAR ESMX 081250Z 20003KT 9999 SCT003 BKN049 M06/M06 Q1003=
202212081220 METAR ESMX 081220Z 20002KT 9999 SCT003 BKN051 M06/M07 Q1004=
202212081150 METAR ESMX 081150Z 15003KT 9999 SCT003 BKN055 M06/M07 Q1003=
202212081120 METAR ESMX 081120Z 20002KT 9999 BKN003 M07/M07 Q1003=
202212081050 METAR ESMX 081050Z 16004KT 130V200 9999 BKN002 M07/M07 Q1003=
202212081020 METAR ESMX 081020Z 22003KT 9000 BKN002 M07/M07 Q1004=
202212080950 METAR ESMX 080950Z 22003KT 2000 BR BKN002 M07/M08 Q1004=
202212080920 METAR COR ESMX 080920Z 22003KT 1600 BR BKN002 M07/M08 Q1004=
202212080850 METAR ESMX 080850Z 22004KT 2000 BCFG BKN002 M08/M08 Q1004=
202212080820 METAR ESMX 080820Z 22003KT 1600 R19/P2000D BCFG BKN002 M08/M08 Q1004=
202212080750 METAR ESMX 080750Z 22004KT 1000 R19/1300D BCFG OVC002 M08/M09 Q1003=
202212080720 METAR ESMX 080720Z 22003KT 1000 R19/P1300N BCFG OVC002 M09/M09 Q1003=
202212080650 METAR ESMX 080650Z 23003KT 1300 R19/1700N BCFG BKN002 M09/M09 Q1003=
202212080620 METAR ESMX 080620Z 23003KT 1100 R19/P2000N BCFG BKN002 M09/M09 Q1003=
202212080550 METAR ESMX 080550Z 23003KT 1500 BR BKN002 M09/M09 Q1003=
202212080520 METAR ESMX 080520Z 23003KT 9999 -SN FEW002 M10/M11 Q1003=
202212080450 METAR ESMX 080450Z 18003KT 9999 -SN NSC M09/M09 Q1003=
202212080420 METAR ESMX 080420Z AUTO 23003KT 0550 R01/P2000D R19/P2000N SG NCD M09/M10 Q1003=
202212080350 METAR ESMX 080350Z AUTO 20001KT 0600 R01/P2000N R19/1500U -FZRA NCD M08/M09 Q1003 RESG=
202212080320 METAR ESMX 080320Z AUTO 26003KT 0350 R01/1000D R19/P2000N -FZRA NCD M08/M09 Q1003=
202212080250 METAR ESMX 080250Z AUTO 24003KT 1000 R01/P2000N R19/P2000N -SN NCD M07/M08 Q1003=
202212080220 METAR ESMX 080220Z AUTO 25004KT 3600 -FZRA NCD M07/M07 Q1003 RESG REFZUP RESHUP=
202212080150 METAR ESMX 080150Z AUTO 28004KT 250V320 9999 BKN003/// M05/M06 Q1003=
202212080120 METAR ESMX 080120Z AUTO 30005KT 9999 BKN002/// OVC004/// M05/M05 Q1003=
202212080050 METAR ESMX 080050Z 31004KT 9999 OVC002 M05/M06 Q1003=
202212080020 METAR COR ESMX 080020Z 32005KT 9999 OVC004 M05/M06 Q1003=
202212072350 METAR ESMX 072350Z AUTO 30003KT 270V330 9999 OVC006/// M06/M07 Q1003=
202212072320 METAR ESMX 072320Z AUTO 27004KT 9999 SCT007/// BKN047/// OVC100/// M07/M07 Q1003=
202212072250 METAR ESMX 072250Z AUTO 35006KT 9999 OVC043/// M05/M06 Q1003=
202212072220 METAR ESMX 072220Z 34007KT 9999 BKN043 M06/M07 Q1003=
202212072150 METAR ESMX 072150Z 33007KT 9999 FEW007 SCT037 M06/M07 Q1003=
202212072120 METAR ESMX 072120Z 34009KT 9999 BKN007 M05/M07 Q1003=
202212072050 METAR COR ESMX 072050Z 34008KT 9999 FEW008 M05/M06 Q1003=
202212072020 METAR ESMX 072020Z AUTO 34010KT 9999 FEW008/// M05/M06 Q1003=
202212071950 METAR ESMX 071950Z AUTO 34008KT 9999 OVC072/// M05/M06 Q1003=
202212071920 METAR ESMX 071920Z AUTO 34008KT 9999 OVC070/// M05/M06 Q1003=
202212071850 METAR ESMX 071850Z AUTO 34010KT 9999 BKN074/// M05/M06 Q1003=
202212071820 METAR ESMX 071820Z AUTO 33008KT 300V010 9999 BKN076/// M05/M06 Q1003=
202212071750 METAR ESMX 071750Z AUTO 32006KT 9999 OVC078/// M04/M05 Q1003=
202212071720 METAR ESMX 071720Z 34008KT 9999 FEW009 M04/M05 Q1003=
202212071650 METAR ESMX 071650Z 33008KT 9999 FEW009 M04/M05 Q1003=
202212071620 METAR ESMX 071620Z 34008KT 9999 FEW009 M04/M05 Q1003=
202212071550 METAR ESMX 071550Z 32006KT CAVOK M04/M05 Q1004=
202212071520 METAR ESMX 071520Z 31006KT 9999 FEW010 M04/M05 Q1004=
202212071450 METAR ESMX 071450Z 32006KT 9999 FEW010 M04/M04 Q1004=
202212071420 METAR ESMX 071420Z 32006KT 9999 FEW010 M03/M04 Q1004=
202212071350 METAR ESMX 071350Z 34008KT 9999 FEW009 M02/M04 Q1004=
202212071320 METAR ESMX 071320Z 34007KT 9999 FEW008 M02/M03 Q1004=
202212071250 METAR ESMX 071250Z 34008KT 9999 FEW008 M02/M03 Q1004=
202212071220 METAR COR ESMX 071220Z 33007KT 9999 FEW009 M02/M03 Q1004=
202212071150 METAR ESMX 071150Z 35006KT 9999 FEW009 M02/M03 Q1004=
202212071120 METAR ESMX 071120Z 34007KT 9999 FEW008 M02/M03 Q1004=
202212071050 METAR ESMX 071050Z 34007KT 9999 FEW008 M02/M03 Q1004=
202212071020 METAR ESMX 071020Z 34007KT 9999 BKN007 M03/M04 Q1005=
202212070950 METAR ESMX 070950Z 35006KT 9999 BKN007 M03/M04 Q1005=
202212070920 METAR ESMX 070920Z 34008KT 9999 BKN007 M02/M03 Q1005=
202212070850 METAR ESMX 070850Z AUTO 36007KT 9999 BKN008/// M02/M03 Q1005=
202212070820 METAR ESMX 070820Z 01006KT 9999 BKN007 M02/M03 Q1005=
202212070750 METAR ESMX 070750Z 36006KT 9999 BKN006 M02/M03 Q1006=
202212070720 METAR ESMX 070720Z 36007KT 9999 BKN006 M02/M03 Q1006=
202212070650 METAR ESMX 070650Z 34005KT 320V040 9999 OVC007 M02/M03 Q1006=
202212070620 METAR ESMX 070620Z 01004KT 9999 OVC007 M02/M03 Q1006=
202212070550 METAR ESMX 070550Z 01005KT 340V070 9999 OVC007 M02/M03 Q1006=
202212070520 METAR ESMX 070520Z 04006KT 9999 OVC006 M02/M03 Q1006=
202212070450 METAR ESMX 070450Z 02006KT 9999 BKN003 M02/M02 Q1006=
202212070420 METAR ESMX 070420Z AUTO 01008KT 9999 OVC005/// M02/M02 Q1006=
202212070350 METAR ESMX 070350Z AUTO 01007KT 9999 OVC004/// M02/M02 Q1006=
202212070320 METAR ESMX 070320Z AUTO 01006KT 9999 OVC005/// M02/M02 Q1006=
202212070250 METAR ESMX 070250Z AUTO 01005KT 340V040 9999 OVC004/// M02/M02 Q1007=
202212070220 METAR ESMX 070220Z AUTO 02005KT 9999 OVC004/// M02/M02 Q1007=
202212070150 METAR ESMX 070150Z AUTO 35006KT 9999 OVC004/// M02/M02 Q1007=
202212070120 METAR ESMX 070120Z AUTO 35007KT 9999 OVC004/// M02/M02 Q1008=
202212070050 METAR ESMX 070050Z 34007KT 9999 OVC004 M02/M02 Q1008=
202212070020 METAR ESMX 070020Z AUTO 01004KT 330V030 9999 OVC004/// M02/M02 Q1008=
202212062350 METAR ESMX 062350Z AUTO 01005KT 330V030 9999 OVC004/// M02/M02 Q1008=
202212062320 METAR ESMX 062320Z AUTO 01006KT 350V050 9999 OVC004/// M02/M02 Q1008=
202212062250 METAR ESMX 062250Z AUTO 02005KT 9999 OVC004/// M02/M02 Q1008=
202212062220 METAR ESMX 062220Z AUTO 35005KT 320V030 9999 OVC004/// M02/M02 Q1008=
202212062150 METAR COR ESMX 062150Z 01005KT 9999 OVC004 M02/M02 Q1009=
202212062120 METAR ESMX 062120Z 02005KT 340V060 9999 OVC004 M02/M02 Q1009=
202212062050 METAR COR ESMX 062050Z 34004KT 9999 OVC004 M02/M02 Q1009=
202212062020 METAR ESMX 062020Z AUTO 03004KT 350V060 9999 OVC004/// M02/M02 Q1009=
202212061950 METAR ESMX 061950Z AUTO 01004KT 9999 OVC004/// M02/M02 Q1010=
202212061920 METAR ESMX 061920Z AUTO 02005KT 9999 OVC004/// M02/M03 Q1010=
202212061850 METAR ESMX 061850Z AUTO 30004KT 9999 OVC004/// M02/M02 Q1010=
202212061820 METAR ESMX 061820Z AUTO 31003KT 280V350 9999 OVC005/// M02/M02 Q1010=
202212061750 METAR ESMX 061750Z 35004KT 9999 OVC004 M02/M03 Q1010=
202212061720 METAR ESMX 061720Z 31005KT 9999 OVC006 M02/M03 Q1010=
202212061650 METAR ESMX 061650Z 30005KT 9999 OVC005 M02/M03 Q1010=
202212061620 METAR ESMX 061620Z 34007KT 9999 BKN004 M02/M03 Q1011=
202212061550 METAR ESMX 061550Z 30007KT 270V340 9999 OVC004 M02/M02 Q1011=
202212061520 METAR ESMX 061520Z 32006KT 9999 OVC004 M01/M01 Q1011=
202212061450 METAR ESMX 061450Z 31007KT 9999 OVC004 M01/M01 Q1011=
202212061420 METAR COR ESMX 061420Z 28006KT 250V320 9999 OVC005 M01/M01 Q1011=
202212061350 METAR ESMX 061350Z 28005KT 9999 BKN003 M01/M01 Q1011=
202212061320 METAR ESMX 061320Z 31004KT 9999 BKN005 M00/M01 Q1011=
202212061250 METAR COR ESMX 061250Z 30004KT 9999 BKN005 M00/M01 Q1012=
202212061220 METAR ESMX 061220Z 28003KT 250V310 9999 BKN006 M00/M01 Q1012=
202212061150 METAR ESMX 061150Z 33004KT 9999 BKN006 M00/M01 Q1012=
202212061120 METAR ESMX 061120Z 31005KT 9999 BKN006 M01/M01 Q1013=
202212061050 METAR ESMX 061050Z 33005KT 9999 BKN007 M00/M01 Q1013=
202212061020 METAR ESMX 061020Z 01005KT 9999 BKN007 M00/M01 Q1013=
202212060950 METAR ESMX 060950Z 36005KT 9999 -SN BKN007 M01/M01 Q1013=
202212060920 METAR ESMX 060920Z 35007KT 9999 SCT007 BKN031 M01/M01 Q1014=
202212060850 METAR ESMX 060850Z 01006KT 9999 FEW007 BKN033 M01/M01 Q1013=
202212060820 METAR ESMX 060820Z 35007KT 9999 FEW008 BKN030 M01/M01 Q1014=
202212060750 METAR ESMX 060750Z 01006KT 9999 FEW007 SCT016 BKN028 M01/M01 Q1014=
202212060720 METAR ESMX 060720Z 02007KT 9999 SCT008 BKN014 M01/M01 Q1014=
202212060650 METAR ESMX 060650Z 36007KT 9999 BKN006 M00/M01 Q1014=
202212060620 METAR ESMX 060620Z 01008KT 9999 -FZDZ BKN006 M00/M01 Q1014=
202212060550 METAR ESMX 060550Z 36008KT 9999 -SN BKN006 M00/M01 Q1014=
202212060520 METAR ESMX 060520Z 01006KT 9999 -SN BKN005 M00/M00 Q1014=
202212060450 METAR ESMX 060450Z 02006KT 9999 -SN BKN006 M00/M00 Q1015=
202212060420 METAR ESMX 060420Z AUTO 01006KT 9999 OVC006/// M00/M00 Q1015 REUP=
202212060350 METAR ESMX 060350Z AUTO 03007KT 9999 OVC007/// M00/M00 Q1015 RESHUP=
202212060320 METAR ESMX 060320Z AUTO 03007KT 9999 FZUP OVC008/// M00/M00 Q1015 RESHUP=
202212060250 METAR ESMX 060250Z AUTO 02007KT 9999 UP OVC008/// 00/M00 Q1015 REUP REFZRA=
202212060220 METAR ESMX 060220Z AUTO 02007KT 340V050 9999 OVC007/// 00/M00 Q1016 RESHUP=
202212060150 METAR ESMX 060150Z AUTO 03007KT 9999 UP OVC007/// 00/M00 Q1016=
202212060120 METAR ESMX 060120Z AUTO 01006KT 340V050 9999 -DZ OVC006/// 00/00 Q1016=
202212060050 METAR ESMX 060050Z 02009KT 9999 -DZ OVC006 00/00 Q1017=
202212060020 METAR ESMX 060020Z AUTO 36008KT 9999 -DZ OVC005/// 00/00 Q1017=
202212052350 METAR ESMX 052350Z AUTO 36007KT 9999 -DZ BKN005/// OVC007/// 01/00 Q1017=
202212052320 METAR ESMX 052320Z AUTO 01008KT 9999 -DZ OVC005/// 01/01 Q1017 RESG=
202212052250 METAR ESMX 052250Z AUTO 35007KT 9999 -RA BKN004/// OVC006/// 01/01 Q1018=
202212052220 METAR ESMX 052220Z 02006KT 9999 -SN OVC004 01/01 Q1018=
202212052150 METAR ESMX 052150Z 36005KT 9999 -SN OVC004 01/01 Q1018=
202212052120 METAR ESMX 052120Z 02005KT 9999 -SN OVC004 01/01 Q1019=
202212052050 METAR ESMX 052050Z 01006KT 6000 -SN OVC003 01/01 Q1019=
202212052020 METAR ESMX 052020Z 02006KT 8000 -SN OVC003 01/01 Q1019=
202212051950 METAR ESMX 051950Z 02006KT 9000 -SN OVC003 01/01 Q1020=
202212051920 METAR ESMX 051920Z 02006KT 9999 -SN OVC003 01/01 Q1020=
202212051850 METAR ESMX 051850Z 36006KT 7000 -SN OVC003 01/01 Q1020=
202212051820 METAR ESMX 051820Z 01007KT 9999 -SN BKN003 01/01 Q1020=
202212051750 METAR ESMX 051750Z 02006KT 6000 -SN OVC002 01/01 Q1020=
202212051720 METAR ESMX 051720Z 01006KT 7000 -SN OVC002 01/01 Q1020=
202212051650 METAR ESMX 051650Z 02005KT 4100 -SN OVC003 01/01 Q1021=
202212051620 METAR ESMX 051620Z 03005KT 3700 -SN BKN002 01/01 Q1021=
202212051550 METAR ESMX 051550Z 03006KT 2500 -SN BKN003 01/01 Q1021=
202212051520 METAR ESMX 051520Z 01005KT 4400 -SN BKN003 01/01 Q1021=
202212051450 METAR ESMX 051450Z 02006KT 3500 -SN OVC003 01/01 Q1021=
202212051420 METAR ESMX 051420Z AUTO 01006KT 4800 -SN BKN002/// OVC004/// 01/01 Q1022=
202212051350 METAR ESMX 051350Z 02006KT 6000 -SN OVC002 01/01 Q1022=
202212051320 METAR ESMX 051320Z 03007KT 7000 -SN FEW002 BKN008 01/01 Q1022=
202212051250 METAR ESMX 051250Z 03005KT 1800 -SN BKN004 01/01 Q1023=
202212051220 METAR ESMX 051220Z 02005KT 7000 -RASN OVC004 01/01 Q1023=
202212051150 METAR ESMX 051150Z 03004KT 9000 -SNRA OVC004 01/01 Q1023=
202212051120 METAR ESMX 051120Z 03005KT 5000 -SN OVC004 01/01 Q1024=
202212051050 METAR ESMX 051050Z 03006KT 2000 -SN VV005 01/01 Q1024=
202212051020 METAR ESMX 051020Z 03006KT 2000 -SN VV005 01/01 Q1024=
202212050950 METAR ESMX 050950Z 03006KT 2000 SN VV005 01/01 Q1025=
202212050920 METAR ESMX 050920Z 04006KT 5000 -SN FEW005 BKN008 01/01 Q1025=
202212050850 METAR ESMX 050850Z 04006KT 020V080 9000 -RASN BKN006 01/01 Q1025=
202212050820 METAR ESMX 050820Z 04008KT 9000 -RASN BKN006 01/01 Q1025=
202212050750 METAR ESMX 050750Z 05007KT 8000 -SN BKN006 01/01 Q1025=
202212050720 METAR ESMX 050720Z 04007KT 010V070 7000 -SN BKN004 01/01 Q1025=
202212050650 METAR ESMX 050650Z 04006KT 010V110 6000 -SN BKN005 01/01 Q1026=
202212050620 METAR ESMX 050620Z 04008KT 9000 -SN BKN005 01/01 Q1025=
202212050550 METAR ESMX 050550Z 04008KT 8000 -SN BKN004 01/01 Q1026=
202212050520 METAR ESMX 050520Z 04008KT 6000 -SN FEW002 BKN005 01/01 Q1026=
202212050450 METAR ESMX 050450Z 05008KT 020V110 8000 -SN BKN005 01/01 Q1026=
202212050420 METAR ESMX 050420Z AUTO 05010KT 9000 -RA OVC005/// 02/01 Q1026 REUP=
202212050350 METAR ESMX 050350Z AUTO 04010KT 9999 OVC007/// 02/01 Q1026=
202212050320 METAR ESMX 050320Z AUTO 05009KT 010V080 9999 OVC008/// 02/01 Q1026=
202212050250 METAR ESMX 050250Z AUTO 04010KT 010V080 9999 OVC007/// 02/01 Q1026=
202212050220 METAR ESMX 050220Z AUTO 04009KT 010V080 9999 OVC006/// 02/01 Q1026=
202212050150 METAR ESMX 050150Z AUTO 03009KT 9999 OVC005/// 01/01 Q1027=
202212050120 METAR ESMX 050120Z AUTO 03009KT 9999 OVC005/// 01/01 Q1027=
202212050050 METAR ESMX 050050Z AUTO 03009KT 9999 OVC005/// 01/01 Q1027=
202212050020 METAR ESMX 050020Z AUTO 03009KT 360V060 9999 -RA OVC005/// 01/01 Q1027 REDZ=
202212042350 METAR ESMX 042350Z AUTO 04009KT 9999 -DZ OVC006/// 02/01 Q1027 RESHUP RERA=
202212042320 METAR ESMX 042320Z AUTO 03009KT 9999 OVC005/// 01/01 Q1028=
202212042250 METAR ESMX 042250Z AUTO 03008KT 9999 OVC005/// 01/01 Q1028 REDZ REUP=
202212042220 METAR ESMX 042220Z AUTO 04009KT 9999 UP OVC006/// 02/01 Q1028=
202212042150 METAR ESMX 042150Z AUTO 05008KT 9999 OVC005/// 02/01 Q1028=
202212042120 METAR ESMX 042120Z AUTO 04009KT 010V070 9999 OVC004/// 01/01 Q1028=
202212042050 METAR ESMX 042050Z AUTO 03009KT 9000 BR OVC004/// 01/01 Q1028=
202212042020 METAR ESMX 042020Z AUTO 03009KT 360V060 9999 OVC004/// 01/01 Q1028=
202212041950 METAR ESMX 041950Z AUTO 03010KT 9999 OVC004/// 01/01 Q1028=
202212041920 METAR ESMX 041920Z AUTO 03009KT 9999 OVC006/// 01/01 Q1028=
202212041850 METAR ESMX 041850Z AUTO 04010KT 9999 OVC007/// 01/01 Q1028=
202212041820 METAR ESMX 041820Z AUTO 04008KT 9999 OVC008/// 01/01 Q1028=
202212041750 METAR ESMX 041750Z AUTO 05009KT 010V080 9999 OVC007/// 01/01 Q1028=
202212041720 METAR ESMX 041720Z AUTO 03010KT 9999 -DZ OVC006/// 01/00 Q1028=
202212041650 METAR ESMX 041650Z AUTO 03009KT 9999 -DZ OVC006/// 01/00 Q1028=
202212041620 METAR ESMX 041620Z 04009KT 020V080 9999 -DZ BKN006 01/00 Q1028=
202212041550 METAR ESMX 041550Z 04009KT 9999 -DZ BKN006 01/00 Q1028=
202212041520 METAR ESMX 041520Z 04010KT 9999 -DZ BKN007 01/00 Q1028=
202212041450 METAR ESMX 041450Z 04010KT 9999 -RA BKN005 01/00 Q1028 REDZ=
202212041420 METAR ESMX 041420Z 04009KT 7000 BR BKN004 01/00 Q1028=
202212041350 METAR ESMX 041350Z 04009KT 9999 BKN005 BKN007 01/00 Q1028=
202212041320 METAR ESMX 041320Z 04010KT 9999 -DZ BKN007 01/M00 Q1028=
202212041250 METAR ESMX 041250Z 04009KT 9999 -DZ BKN008 01/M00 Q1028=
202212041220 METAR ESMX 041220Z 04008KT 010V080 9999 -DZ BKN009 01/M00 Q1028=
202212041150 METAR ESMX 041150Z 04008KT 9999 -DZ BKN009 01/M00 Q1028=
202212041120 METAR ESMX 041120Z AUTO 04009KT 9999 -DZ OVC009/// 01/M00 Q1028=
202212041050 METAR ESMX 041050Z AUTO 04007KT 020V080 9999 -DZ OVC009/// 01/M00 Q1028 RESHUP=
202212041020 METAR ESMX 041020Z AUTO 04009KT 010V080 9999 UP OVC009/// 00/M00 Q1028 REUP=
202212040950 METAR ESMX 040950Z AUTO 04008KT 9999 OVC010/// 00/M01 Q1028=
202212040920 METAR ESMX 040920Z AUTO 04008KT 9999 OVC009/// 00/M00 Q1028 RESHUP=
202212040850 METAR ESMX 040850Z AUTO 04007KT 9999 UP BKN007/// OVC009/// 00/M00 Q1028=
202212040820 METAR ESMX 040820Z AUTO 03008KT 9999 -FZDZ OVC005/// M00/M00 Q1028=
202212040750 METAR ESMX 040750Z AUTO 03006KT 5000 -FZRA OVC005/// M00/M00 Q1028=
202212040720 METAR ESMX 040720Z AUTO 03008KT 6000 -FZRA FEW002/// BKN005/// OVC008/// M00/M00 Q1028=
202212040650 METAR ESMX 040650Z AUTO 03007KT 5000 -FZDZ OVC005/// M00/M01 Q1028=
202212040620 METAR ESMX 040620Z AUTO 03007KT 9999 -FZRA OVC006/// M00/M01 Q1028=
202212040550 METAR ESMX 040550Z AUTO 03007KT 9999 -FZDZ OVC006/// M00/M01 Q1028=
202212040520 METAR ESMX 040520Z AUTO 03008KT 9999 -FZDZ BKN006/// OVC008/// M00/M01 Q1028 REFZUP=
202212040450 METAR ESMX 040450Z AUTO 03009KT 360V060 3300 FZUP BKN002/// BKN005/// OVC007/// M00/M01 Q1028=
202212040420 METAR ESMX 040420Z AUTO 03009KT 6000 -FZRA FEW002/// BKN005/// OVC007/// M00/M01 Q1028=
202212040350 METAR ESMX 040350Z AUTO 03009KT 5000 -FZRA SCT002/// OVC005/// M01/M01 Q1028=
202212040320 METAR ESMX 040320Z AUTO 03008KT 1800 -PL OVC001/// M01/M01 Q1028=
202212040250 METAR ESMX 040250Z AUTO 03009KT 2600 -FZRA SCT001/// OVC005/// M01/M01 Q1028 REFZUP RESHUP REFZRA=
202212040220 METAR ESMX 040220Z AUTO 03008KT 9999 OVC005/// M01/M01 Q1028=
202212040150 METAR ESMX 040150Z AUTO 03009KT 9999 -FZDZ OVC006/// M01/M02 Q1028 REFZUP RESHUP=
202212040120 METAR ESMX 040120Z AUTO 03010KT 9999 -FZDZ BKN006/// OVC009/// M01/M02 Q1028 REFZUP RESHUP REFZRA=
202212040050 METAR ESMX 040050Z AUTO 02010KT 350V050 9999 OVC007/// M01/M02 Q1028 REFZUP=
202212040020 METAR ESMX 040020Z AUTO 03008KT 9999 OVC007/// M01/M02 Q1028=
202212032350 METAR ESMX 032350Z AUTO 03010KT 9999 OVC007/// M01/M02 Q1028=
202212032320 METAR ESMX 032320Z AUTO 03011KT 9999 OVC008/// M01/M02 Q1028=
202212032250 METAR ESMX 032250Z AUTO 03009KT 9999 -FZDZ OVC007/// M00/M01 Q1028=
202212032220 METAR ESMX 032220Z AUTO 03009KT 9999 -FZDZ OVC008/// M00/M01 Q1029=
202212032150 METAR ESMX 032150Z AUTO 03009KT 9999 -FZDZ OVC007/// M00/M01 Q1029 REFZUP RESHUP REFZRA=
202212032120 METAR ESMX 032120Z AUTO 04008KT 9999 OVC007/// M00/M01 Q1029=
202212032050 METAR ESMX 032050Z AUTO 03008KT 010V070 9999 OVC008/// M00/M01 Q1029=
202212032020 METAR ESMX 032020Z AUTO 04008KT 010V080 9999 -FZDZ OVC008/// M00/M01 Q1029 REFZUP=
202212031950 METAR ESMX 031950Z AUTO 04008KT 9999 FZUP OVC008/// M00/M01 Q1029=
202212031920 METAR ESMX 031920Z AUTO 03008KT 9999 OVC008/// M00/M01 Q1029=
202212031850 METAR ESMX 031850Z AUTO 03008KT 010V070 9999 OVC008/// M00/M01 Q1029=
202212031820 METAR ESMX 031820Z AUTO 03008KT 9999 OVC008/// M00/M01 Q1029=
202212031750 METAR ESMX 031750Z AUTO 03008KT 9999 OVC009/// M00/M01 Q1029=
202212031720 METAR ESMX 031720Z AUTO 03008KT 9999 OVC010/// M00/M01 Q1029=
202212031650 METAR ESMX 031650Z AUTO 03007KT 9999 SCT010/// BKN012/// OVC027/// 00/M01 Q1029=
202212031620 METAR ESMX 031620Z AUTO 03008KT 9999 SCT010/// OVC026/// 00/M01 Q1029=
202212031550 METAR ESMX 031550Z AUTO 04009KT 9999 BKN010/// BKN013/// OVC027/// M00/M01 Q1029=
202212031520 METAR ESMX 031520Z AUTO 03008KT 9999 BKN010/// BKN013/// OVC029/// 00/M01 Q1029=
202212031450 METAR ESMX 031450Z AUTO 03008KT 9999 BKN010/// OVC027/// 00/M01 Q1029=
202212031420 METAR ESMX 031420Z AUTO 03007KT 9999 OVC010/// 00/M01 Q1029=
202212031350 METAR ESMX 031350Z AUTO 03008KT 9999 BKN009/// OVC013/// 00/M01 Q1029=
202212031320 METAR ESMX 031320Z AUTO 03008KT 010V070 9999 OVC009/// 00/M01 Q1029=
202212031250 METAR ESMX 031250Z AUTO 03009KT 9999 BKN008/// OVC009/// 00/M01 Q1029=
202212031220 METAR ESMX 031220Z AUTO 04009KT 9999 OVC008/// 00/M01 Q1029=
202212031150 METAR ESMX 031150Z AUTO 04008KT 9999 -DZ OVC008/// 00/M01 Q1029=
202212031120 METAR ESMX 031120Z AUTO 04008KT 9999 -DZ OVC008/// 00/M01 Q1030=
202212031050 METAR ESMX 031050Z AUTO 04009KT 010V080 9999 -DZ OVC008/// 00/M01 Q1030=
202212031020 METAR ESMX 031020Z AUTO 02008KT 360V070 9999 -DZ BKN008/// OVC009/// 00/M01 Q1030=
202212030950 METAR ESMX 030950Z AUTO 04010KT 9000 -DZ OVC008/// 00/M00 Q1030=
202212030920 METAR ESMX 030920Z AUTO 04009KT 9999 -DZ OVC007/// 00/M00 Q1030=
202212030850 METAR ESMX 030850Z AUTO 04008KT 9000 -DZ BKN007/// OVC009/// 00/M00 Q1030 REUP RESHUP REFZRA=
202212030820 METAR ESMX 030820Z AUTO 04010KT 9999 OVC008/// 00/M00 Q1030 REUP RESHUP REFZRA=
202212030750 METAR ESMX 030750Z AUTO 03009KT 9999 OVC008/// 00/M00 Q1030 RESHUP=
202212030720 METAR ESMX 030720Z AUTO 04008KT 010V070 9999 OVC008/// 01/M00 Q1030 REUP=
202212030650 METAR ESMX 030650Z AUTO 04009KT 9999 OVC008/// 01/M00 Q1030=
202212030620 METAR ESMX 030620Z AUTO 03009KT 010V070 9999 OVC009/// 01/M00 Q1030=
202212030550 METAR ESMX 030550Z AUTO 03007KT 9999 OVC009/// 01/M00 Q1030=
202212030520 METAR ESMX 030520Z AUTO 03004KT 360V070 9999 BKN009/// BKN017/// OVC025/// 01/00 Q1030=
202212030450 METAR ESMX 030450Z AUTO 04007KT 7000 -RA SCT001/// BKN006/// OVC017/// 01/00 Q1030 RESHUP REDZ=
202212030420 METAR ESMX 030420Z AUTO 03007KT 9999 OVC009/// 01/M00 Q1030=
202212030350 METAR ESMX 030350Z AUTO 03007KT 9999 -RA OVC009/// 01/M00 Q1031 REUP=
202212030320 METAR ESMX 030320Z AUTO 03007KT 9999 OVC010/// 01/M00 Q1031=
202212030250 METAR ESMX 030250Z AUTO 03006KT 360V060 9999 BKN011/// BKN017/// OVC039/// 01/M00 Q1031=
202212030220 METAR ESMX 030220Z AUTO 04008KT 360V060 9999 SCT012/// BKN029/// OVC039/// 01/M01 Q1031=
202212030150 METAR ESMX 030150Z AUTO 04007KT 020V080 9999 BKN011/// OVC040/// 01/M01 Q1031=
202212030120 METAR ESMX 030120Z AUTO 03009KT 9999 BKN012/// OVC039/// 01/M01 Q1031=
202212030050 METAR ESMX 030050Z AUTO 01007KT 9999 BKN013/// OVC033/// 01/M00 Q1031=
202212030020 METAR ESMX 030020Z AUTO 03007KT 9999 -DZ FEW014/// BKN019/// OVC030/// 01/M00 Q1032=
202212022350 METAR ESMX 022350Z AUTO 01006KT 4000 -RA SCT001/// BKN008/// BKN015/// 00/00 Q1032 REDZ=
202212022320 METAR ESMX 022320Z AUTO 02007KT 9999 -DZ FEW007/// BKN010/// OVC015/// 01/M00 Q1032=
202212022250 METAR ESMX 022250Z AUTO 03007KT 350V060 9999 DZ BKN011/// OVC022/// 01/M01 Q1032 RERA=
202212022220 METAR ESMX 022220Z AUTO 04007KT 010V080 8000 DZ SCT003/// BKN012/// OVC025/// 01/M00 Q1032 RESHUP=
202212022150 METAR ESMX 022150Z AUTO 01007KT 9999 SCT015/// OVC024/// 01/M01 Q1032 REUP RESHUP=
202212022120 METAR ESMX 022120Z AUTO 01008KT 9999 FEW012/// OVC027/// 01/M01 Q1032=
202212022050 METAR ESMX 022050Z AUTO 03007KT 340V050 9999 FEW015/// OVC027/// 01/M01 Q1032=
202212022020 METAR ESMX 022020Z AUTO 03007KT 9999 SCT014/// OVC027/// 01/M01 Q1032=
202212021950 METAR ESMX 021950Z AUTO 03007KT 360V060 9999 SCT015/// OVC030/// 01/M01 Q1032=
202212021920 METAR ESMX 021920Z AUTO 01007KT 9999 FEW017/// OVC029/// 01/M01 Q1032=
202212021850 METAR ESMX 021850Z AUTO 36007KT 9999 OVC027/// 01/M01 Q1032=
202212021820 METAR ESMX 021820Z AUTO 03008KT 9999 OVC028/// 01/M01 Q1032=
202212021750 METAR ESMX 021750Z 03008KT 9999 SCT019 BKN026 01/M01 Q1032=
202212021720 METAR ESMX 021720Z 03008KT 9999 BKN025 02/M01 Q1032=
202212021650 METAR ESMX 021650Z 03009KT 9999 SCT020 BKN028 02/M01 Q1032=
202212021620 METAR ESMX 021620Z 03008KT 9999 BKN027 02/M01 Q1032 RERA=
202212021550 METAR ESMX 021550Z 04009KT 9999 FEW008 SCT019 BKN024 01/M00 Q1032 RESN=
202212021520 METAR ESMX 021520Z 06006KT 020V100 9999 -RASN FEW005 SCT010 BKN015 02/01 Q1032 RERA=
202212021450 METAR ESMX 021450Z 06006KT 020V120 9999 BKN011 BKN015 02/01 Q1031=
202212021420 METAR ESMX 021420Z 04007KT 9999 SCT008 BKN011 BKN016 02/01 Q1031=
202212021350 METAR ESMX 021350Z 04007KT 010V070 9999 BKN008 02/01 Q1031=
202212021320 METAR ESMX 021320Z 03008KT 9999 BKN008 02/02 Q1031=
202212021250 METAR ESMX 021250Z 03007KT 9999 -DZ BKN008 02/02 Q1031=
202212021220 METAR ESMX 021220Z AUTO 01007KT 9999 -DZ OVC008/// 02/02 Q1031 REUP=
202212021150 METAR ESMX 021150Z 01007KT 9999 BKN008 03/01 Q1031=
202212021120 METAR ESMX 021120Z 01007KT 9999 BKN009 03/02 Q1031=
202212021050 METAR ESMX 021050Z 01006KT 9999 BKN009 02/01 Q1031=
202212021020 METAR ESMX 021020Z 03007KT 350V060 9999 BKN008 02/01 Q1031=
202212020950 METAR ESMX 020950Z 03007KT 350V050 9999 BKN008 02/01 Q1032=
202212020920 METAR ESMX 020920Z 03009KT 9999 OVC008 02/01 Q1031=
202212020850 METAR ESMX 020850Z AUTO 03008KT 9999 OVC008/// 02/01 Q1031=
202212020820 METAR ESMX 020820Z AUTO 01009KT 9999 OVC008/// 02/01 Q1031=
202212020750 METAR ESMX 020750Z AUTO 02011KT 9999 OVC009/// 02/01 Q1031=
202212020720 METAR ESMX 020720Z AUTO 03009KT 9999 OVC009/// 03/01 Q1031=
202212020650 METAR ESMX 020650Z 03009KT 9999 OVC008 03/02 Q1031=
202212020620 METAR ESMX 020620Z 02008KT 9999 BKN010 03/02 Q1031=
202212020550 METAR COR ESMX 020550Z 03009KT 9999 BKN010 03/01 Q1031=
202212020520 METAR ESMX 020520Z AUTO 03010KT 9999 OVC011/// 03/01 Q1031=
202212020450 METAR ESMX 020450Z AUTO 03010KT 9999 OVC011/// 03/01 Q1031=
202212020420 METAR ESMX 020420Z AUTO 03010KT 350V060 9999 OVC012/// 03/01 Q1031=
202212020350 METAR ESMX 020350Z AUTO 03009KT 9999 OVC011/// 03/01 Q1031=
202212020320 METAR ESMX 020320Z AUTO 03009KT 9999 OVC010/// 03/02 Q1031=
202212020250 METAR ESMX 020250Z AUTO 03008KT 9999 OVC009/// 03/02 Q1031=
202212020220 METAR ESMX 020220Z AUTO 03009KT 9999 OVC010/// 03/01 Q1031=
202212020150 METAR ESMX 020150Z AUTO 03008KT 9999 OVC009/// 03/01 Q1031=
202212020120 METAR ESMX 020120Z AUTO 03010KT 9999 OVC009/// 03/02 Q1031=
202212020050 METAR ESMX 020050Z 03009KT 9999 BKN008 03/02 Q1031=
202212020020 METAR ESMX 020020Z 03008KT 9999 BKN008 02/02 Q1031=
202212012350 METAR ESMX 012350Z 03007KT 9999 BKN008 03/02 Q1031=
202212012320 METAR ESMX 012320Z 02007KT 9999 BKN008 02/02 Q1031=
202212012250 METAR ESMX 012250Z 03007KT 9999 -DZ BKN007 02/02 Q1031=
202212012220 METAR ESMX 012220Z 03006KT 9999 BKN008 03/02 Q1032=
202212012150 METAR ESMX 012150Z 03006KT 9999 BKN008 03/02 Q1032=
202212012120 METAR ESMX 012120Z 03005KT 9999 BKN009 02/02 Q1031=
202212012050 METAR ESMX 012050Z 04004KT 9999 -RA BKN009 03/02 Q1032=
202212012020 METAR ESMX 012020Z AUTO 06004KT 020V090 9999 -RA OVC008/// 02/02 Q1032=
202212011950 METAR ESMX 011950Z AUTO 06005KT 360V100 9999 -DZ OVC005/// 02/02 Q1032=
202212011920 METAR ESMX 011920Z AUTO 04006KT 9999 OVC006/// 03/02 Q1031 RESHUP REUP=
202212011850 METAR ESMX 011850Z AUTO 04005KT 010V070 9999 UP BKN006/// OVC008/// 03/02 Q1031=
202212011820 METAR ESMX 011820Z AUTO 04005KT 9999 OVC006/// 03/02 Q1031=
202212011750 METAR ESMX 011750Z 03003KT 350V070 9999 BKN007 03/02 Q1031=
202212011720 METAR ESMX 011720Z 06003KT 010V100 9999 SCT008 BKN012 03/02 Q1031=
202212011650 METAR ESMX 011650Z 05004KT 020V100 9999 BKN008 03/02 Q1031=
202212011620 METAR ESMX 011620Z 05003KT 020V090 9999 BKN016 03/02 Q1031=
202212011550 METAR ESMX 011550Z 04005KT 9999 FEW009 BKN018 03/02 Q1031=
202212011520 METAR COR ESMX 011520Z 06003KT 010V100 9999 FEW009 BKN020 03/02 Q1031=
202212011450 METAR ESMX 011450Z 06003KT 010V100 9999 FEW008 BKN015 03/02 Q1031=
202212011420 METAR ESMX 011420Z 05003KT 020V090 9999 BKN007 03/03 Q1031=
202212011350 METAR COR ESMX 011350Z 03004KT 9999 BKN006 03/03 Q1031=
202212011320 METAR ESMX 011320Z AUTO 01004KT 9999 OVC007/// 03/03 Q1031=
202212011250 METAR ESMX 011250Z AUTO 03004KT 9999 OVC005/// 03/03 Q1031 REDZ=
202212011220 METAR ESMX 011220Z 02003KT 7000 BKN005 03/03 Q1032=
