##########################################################
# Query made at 04/19/2024 22:26:19 UTC
# Time interval: from 06/01/2022 12:00  to 06/30/2022 12:59  UTC
##########################################################

##########################################################
# ESMX, Vaxjo (Sweden)
# WMO index: 02641. WIGOS ID: 0-20000-0-02648
# Latitude 56-51N. Longitude 014-50E. Altitude 199 m.
##########################################################

202206301250 METAR ESMX 301250Z AUTO 04005KT 9999 R01///// R19/P2000N OVC080/// 26/15 Q1015=
202206301220 METAR ESMX 301220Z AUTO 08004KT 350V110 9999 R01///// R19/P2000N SCT080/// 26/14 Q1015=
202206301150 METAR ESMX 301150Z AUTO 35005KT 310V060 9999 R01///// R19/P2000N SCT078/// 27/15 Q1015=
202206301120 METAR ESMX 301120Z AUTO 36005KT 310V070 9999 R01///// R19/P2000N FEW180/// 26/15 Q1015=
202206301050 METAR ESMX 301050Z AUTO 04005KT 350V110 9999 R01///// R19/P2000N NCD 26/14 Q1015=
202206301020 METAR ESMX 301020Z AUTO 36005KT 320V060 9999 R01///// R19/P2000N FEW190/// 25/14 Q1015=
202206300950 METAR ESMX 300950Z AUTO 36006KT 320V070 9999 R01///// R19/P2000N NCD 25/14 Q1016=
202206300920 METAR ESMX 300920Z AUTO 01004KT 330V070 9999 R01///// R19/P2000N FEW066/// 24/14 Q1016=
202206300850 METAR ESMX 300850Z AUTO 07004KT 020V110 9999 R01///// R19/P2000N NCD 24/15 Q1016=
202206300820 METAR ESMX 300820Z AUTO 35005KT 310V060 9999 R01///// R19/P2000N NCD 24/15 Q1016=
202206300750 METAR ESMX 300750Z 04005KT CAVOK 24/14 Q1016=
202206300720 METAR ESMX 300720Z 05004KT CAVOK 23/14 Q1017=
202206300650 METAR ESMX 300650Z 07003KT 010V100 CAVOK 22/15 Q1017=
202206300620 METAR ESMX 300620Z 04004KT CAVOK 22/15 Q1017=
202206300550 METAR ESMX 300550Z 03004KT CAVOK 20/14 Q1017=
202206300520 METAR ESMX 300520Z AUTO 35003KT 320V030 9999 R01///// R19/P2000N NCD 20/14 Q1017=
202206300450 METAR ESMX 300450Z AUTO 36003KT 9999 R01///// R19/P2000N NCD 19/15 Q1017=
202206300420 METAR ESMX 300420Z AUTO 36003KT 9999 R01///// R19/P2000N NCD 17/15 Q1017=
202206300350 METAR ESMX 300350Z AUTO 04002KT 9999 R01///// R19/P2000N NCD 14/14 Q1017=
202206300320 METAR ESMX 300320Z AUTO 04002KT 9999 R01///// R19/P2000N NCD 12/12 Q1017=
202206300250 METAR ESMX 300250Z AUTO 00000KT 9999 NCD 12/12 Q1017=
202206300220 METAR ESMX 300220Z AUTO 00000KT 9999 NCD 12/12 Q1017=
202206300150 METAR ESMX 300150Z AUTO 02002KT 9999 NCD 13/13 Q1017=
202206300120 METAR ESMX 300120Z AUTO 04003KT 9999 NCD 14/14 Q1017=
202206300050 METAR ESMX 300050Z AUTO 04005KT 9999 NCD 13/12 Q1017=
202206300020 METAR ESMX 300020Z AUTO 05004KT 9999 BKN220/// 15/14 Q1017=
202206292350 METAR ESMX 292350Z 03005KT CAVOK 16/14 Q1017=
202206292320 METAR ESMX 292320Z 04003KT CAVOK 17/14 Q1017=
202206292250 METAR ESMX 292250Z 06004KT 030V110 CAVOK 17/14 Q1017=
202206292220 METAR ESMX 292220Z 04004KT CAVOK 16/14 Q1017=
202206292150 METAR ESMX 292150Z 34003KT CAVOK 14/12 Q1017=
202206292120 METAR ESMX 292120Z VRB02KT CAVOK 15/12 Q1017=
202206292050 METAR ESMX 292050Z 00000KT CAVOK 15/12 Q1017=
202206292020 METAR ESMX 292020Z 30002KT CAVOK 16/12 Q1017=
202206291950 METAR ESMX 291950Z 30003KT CAVOK 19/13 Q1016=
202206291920 METAR ESMX 291920Z 30003KT CAVOK 22/13 Q1016=
202206291850 METAR ESMX 291850Z 29003KT CAVOK 23/11 Q1016=
202206291820 METAR ESMX 291820Z 30003KT CAVOK 23/11 Q1016=
202206291750 METAR ESMX 291750Z 28005KT CAVOK 23/09 Q1017=
202206291720 METAR ESMX 291720Z AUTO 30006KT 9999 R01///// R19/P2000N FEW210/// 24/09 Q1017=
202206291650 METAR ESMX 291650Z AUTO 26005KT 230V290 9999 R01///// R19/P2000N FEW190/// 25/09 Q1017=
202206291620 METAR ESMX 291620Z AUTO 28004KT 9999 R01///// R19/P2000N FEW190/// 25/09 Q1017=
202206291550 METAR ESMX 291550Z AUTO 28005KT 9999 R01///// R19/P2000N NCD 25/08 Q1017=
202206291520 METAR ESMX 291520Z 33005KT 250V030 CAVOK 25/09 Q1017=
202206291450 METAR ESMX 291450Z VRB03KT CAVOK 25/09 Q1018=
202206291420 METAR ESMX 291420Z 35004KT 320V030 CAVOK 25/09 Q1018=
202206291350 METAR ESMX 291350Z 35003KT 300V050 CAVOK 24/08 Q1018=
202206291320 METAR ESMX 291320Z 01006KT 330V040 CAVOK 24/10 Q1018=
202206291250 METAR ESMX 291250Z 36006KT 330V040 CAVOK 24/09 Q1018=
202206291220 METAR ESMX 291220Z 01005KT 320V060 CAVOK 24/09 Q1019=
202206291150 METAR ESMX 291150Z 02006KT 300V050 CAVOK 24/10 Q1019=
202206291120 METAR ESMX 291120Z AUTO 36005KT 290V030 9999 R01///// R19/P2000N NCD 24/10 Q1019=
202206291050 METAR ESMX 291050Z AUTO 01005KT 330V050 9999 R01///// R19/P2000N NCD 23/10 Q1019=
202206291020 METAR ESMX 291020Z AUTO 01003KT 320V030 9999 R01///// R19/P2000N NCD 23/10 Q1020=
202206290950 METAR ESMX 290950Z 02005KT CAVOK 22/11 Q1020=
202206290920 METAR ESMX 290920Z 05005KT 360V070 CAVOK 21/10 Q1020=
202206290850 METAR ESMX 290850Z 02005KT 330V040 CAVOK 21/10 Q1020=
202206290820 METAR ESMX 290820Z 03006KT CAVOK 20/10 Q1020=
202206290750 METAR ESMX 290750Z 33006KT 300V020 CAVOK 20/10 Q1020=
202206290720 METAR ESMX 290720Z 34005KT 230V020 CAVOK 19/10 Q1020=
202206290650 METAR ESMX 290650Z 35005KT 300V020 CAVOK 18/13 Q1020=
202206290620 METAR ESMX 290620Z AUTO 01006KT 9999 R01///// R19/P2000N NCD 17/13 Q1020=
202206290550 METAR ESMX 290550Z AUTO 02007KT 9999 R01///// R19/P2000N NCD 17/13 Q1020=
202206290520 METAR ESMX 290520Z AUTO 36007KT 9999 R01///// R19/P2000N NCD 16/13 Q1021=
202206290450 METAR ESMX 290450Z AUTO 01005KT 9999 R01///// R19/P2000N NCD 15/13 Q1021=
202206290420 METAR ESMX 290420Z AUTO 34006KT 9999 NCD 14/13 Q1021=
202206290350 METAR ESMX 290350Z AUTO 32005KT 9999 NCD 12/12 Q1021=
202206290320 METAR ESMX 290320Z AUTO 29002KT 9999 NCD 09/09 Q1021=
202206290250 METAR ESMX 290250Z AUTO 00000KT 9999 R01///// R19/P2000N NCD 10/10 Q1021=
202206290220 METAR ESMX 290220Z AUTO 28002KT 9999 NCD 08/08 Q1021=
202206290150 METAR ESMX 290150Z AUTO VRB02KT 9999 R01///// R19/P2000N NCD 08/08 Q1021=
202206290120 METAR ESMX 290120Z AUTO 28003KT 240V310 9999 R01///// R19/P2000N NCD 09/09 Q1021=
202206290050 METAR ESMX 290050Z AUTO 27003KT 9999 R01///// R19/P2000N NCD 10/10 Q1021=
202206290020 METAR ESMX 290020Z AUTO 28003KT 9999 R01///// R19/P2000N NCD 09/09 Q1021=
202206282350 METAR ESMX 282350Z 26003KT CAVOK 11/11 Q1021=
202206282320 METAR ESMX 282320Z 28003KT CAVOK 11/11 Q1021=
202206282250 METAR ESMX 282250Z 27003KT CAVOK 10/10 Q1021=
202206282220 METAR ESMX 282220Z 29003KT CAVOK 13/12 Q1021=
202206282150 METAR ESMX 282150Z 30003KT CAVOK 14/11 Q1020=
202206282120 METAR ESMX 282120Z 28004KT CAVOK 15/11 Q1020=
202206282050 METAR ESMX 282050Z 27004KT CAVOK 15/12 Q1020=
202206282020 METAR ESMX 282020Z 26004KT CAVOK 15/12 Q1020=
202206281950 METAR ESMX 281950Z 28004KT CAVOK 17/12 Q1020=
202206281920 METAR ESMX 281920Z AUTO 28004KT 9999 NCD 18/12 Q1020=
202206281850 METAR ESMX 281850Z AUTO 29006KT 9999 R01///// R19/P2000N NCD 19/12 Q1019=
202206281820 METAR ESMX 281820Z AUTO 29009KT 9999 R01///// R19/P2000N BKN051/// 20/12 Q1019=
202206281750 METAR ESMX 281750Z AUTO 30007KT 9999 BKN048/// 19/13 Q1019=
202206281720 METAR ESMX 281720Z AUTO 28008KT 250V320 9999 R01///// R19/P2000N SCT040/// BKN049/// 21/13 Q1019=
202206281650 METAR ESMX 281650Z AUTO 29009KT 9999 R01///// R19/P2000N SCT048/// 21/13 Q1019=
202206281620 METAR ESMX 281620Z AUTO 31007KT 9999 R01///// R19/P2000N FEW043/// 20/12 Q1019=
202206281550 METAR ESMX 281550Z AUTO 31007KT 280V340 9999 R01///// R19/P2000N FEW034/// 22/13 Q1019=
202206281520 METAR ESMX 281520Z 28006KT 240V320 9999 SCT029 20/15 Q1019=
202206281450 METAR ESMX 281450Z 32009KT 290V010 9999 FEW028 20/14 Q1019=
202206281420 METAR ESMX 281420Z 30010KT 260V330 9999 FEW024 20/13 Q1019=
202206281350 METAR ESMX 281350Z 29008KT 9999 FEW017 18/14 Q1019=
202206281320 METAR ESMX 281320Z 31009KT 280V350 9999 -RA FEW015 17/14 Q1019=
202206281250 METAR ESMX 281250Z 31008KT 260V330 9999 FEW015 17/14 Q1019=
202206281220 METAR ESMX 281220Z 31009KT 280V350 9999 FEW012 17/14 Q1019=
202206281150 METAR ESMX 281150Z 30009KT 250V330 9999 SCT012 16/14 Q1019=
202206281120 METAR ESMX 281120Z 30010KT 9999 BKN011 16/14 Q1018=
202206281050 METAR ESMX 281050Z 30009KT 260V330 9999 BKN010 16/15 Q1018=
202206281020 METAR ESMX 281020Z 30010KT 260V330 9999 FEW007 BKN009 16/15 Q1017=
202206280950 METAR ESMX 280950Z 29007KT 260V320 9999 -RA FEW005 BKN008 16/15 Q1017=
202206280920 METAR ESMX 280920Z 31010KT 9999 SCT005 BKN008 17/16 Q1017=
202206280850 METAR ESMX 280850Z AUTO 29010KT 260V340 9999 R01///// R19/P2000N BKN005/// OVC008/// 16/16 Q1017 RERA=
202206280820 METAR ESMX 280820Z AUTO 28008KT 9999 -DZ OVC007/// 17/17 Q1016 RERA=
202206280750 METAR ESMX 280750Z AUTO 27008KT 240V320 9999 -RA BKN006/// BKN017/// 17/17 Q1016 RERA=
202206280720 METAR ESMX 280720Z AUTO 28009KT 9999 R01///// R19/P2000N SCT003/// BKN016/// OVC038/// 18/17 Q1016 RERA=
202206280650 METAR ESMX 280650Z 24006KT 9999 -RA BKN006 19/19 Q1016=
202206280620 METAR ESMX 280620Z 26007KT 230V290 9999 BKN005 BKN008 20/19 Q1016=
202206280550 METAR ESMX 280550Z AUTO 23009KT 9999 BKN006/// BKN008/// OVC090/// 20/19 Q1016=
202206280520 METAR ESMX 280520Z AUTO 26004KT 9999 R01///// R19/P2000N BKN080/// BKN170/// 20/19 Q1015=
202206280450 METAR ESMX 280450Z AUTO 22007KT 9999 SCT076/// BKN098/// 19/19 Q1015=
202206280420 METAR ESMX 280420Z AUTO 12003KT 9999 BKN078/// 19/18 Q1014=
202206280350 METAR ESMX 280350Z AUTO 09005KT 040V120 9999 BKN086/// 19/18 Q1014 RERA=
202206280320 METAR ESMX 280320Z AUTO 08005KT 020V120 9999 R01///// R19/P2000N BKN086/// BKN140/// 19/18 Q1014 RERA RESHRA=
202206280250 METAR ESMX 280250Z AUTO 05006KT 020V080 9999 R01///// R19/P2000N BKN088/// 19/18 Q1014 RESHRA=
202206280220 METAR ESMX 280220Z AUTO 09003KT 010V150 9999 R01///// R19/P2000N RA FEW017/// SCT076/// OVC098/// 19/18 Q1014 RESHRA=
202206280150 METAR ESMX 280150Z AUTO VRB03KT 9999 R01///// R19/P2000N FEW009/// OVC098/// 20/17 Q1014=
202206280120 METAR ESMX 280120Z AUTO 04004KT 010V070 9999 R01///// R19/P2000N FEW076/// BKN100/// 20/18 Q1014=
202206280050 METAR ESMX 280050Z AUTO 36003KT 9999 SCT076/// BKN160/// 19/18 Q1014 RERA=
202206280020 METAR ESMX 280020Z 22002KT CAVOK 20/18 Q1014=
202206272350 METAR ESMX 272350Z VRB02KT 9999 -RA BKN072 20/18 Q1014=
202206272320 METAR ESMX 272320Z 22002KT CAVOK 21/16 Q1015=
202206272250 METAR ESMX 272250Z 25003KT CAVOK 21/16 Q1015=
202206272220 METAR ESMX 272220Z 21006KT 110V250 CAVOK 22/16 Q1015=
202206272150 METAR ESMX 272150Z VRB04KT CAVOK 22/16 Q1014=
202206272120 METAR ESMX 272120Z 10004KT 020V140 CAVOK 23/16 Q1014=
202206272050 METAR ESMX 272050Z 10005KT 060V140 CAVOK 23/16 Q1015=
202206272020 METAR ESMX 272020Z 12003KT CAVOK 24/16 Q1015=
202206271950 METAR ESMX 271950Z 13005KT CAVOK 25/15 Q1015=
202206271920 METAR ESMX 271920Z VRB05KT CAVOK 26/15 Q1015=
202206271850 METAR ESMX 271850Z AUTO 12006KT 060V150 9999 NCD 26/15 Q1014=
202206271820 METAR ESMX 271820Z AUTO 13006KT 080V160 9999 NCD 27/14 Q1014=
202206271750 METAR ESMX 271750Z AUTO 15009KT 100V170 9999 NCD 28/13 Q1015=
202206271720 METAR ESMX 271720Z 16009KT CAVOK 28/13 Q1015=
202206271650 METAR ESMX 271650Z 15009KT 080V180 CAVOK 29/13 Q1015=
202206271620 METAR ESMX 271620Z AUTO 15008KT 100V190 9999 R01///// R19/P2000N NCD 29/14 Q1015=
202206271550 METAR ESMX 271550Z 15011KT 110V180 CAVOK 29/13 Q1015=
202206271520 METAR ESMX 271520Z 15010KT CAVOK 30/14 Q1015=
202206271450 METAR ESMX 271450Z 15010KT 090V170 CAVOK 30/13 Q1015=
202206271420 METAR ESMX 271420Z 15008KT 110V200 CAVOK 31/13 Q1015=
202206271350 METAR ESMX 271350Z 16010KT 120V190 CAVOK 30/12 Q1015=
202206271320 METAR ESMX 271320Z 17009KT 110V200 CAVOK 31/12 Q1016=
202206271250 METAR ESMX 271250Z 15008KT 110V190 CAVOK 30/12 Q1016=
202206271220 METAR ESMX 271220Z 16009KT 110V190 CAVOK 30/13 Q1016=
202206271150 METAR ESMX 271150Z 16010KT 130V200 CAVOK 30/13 Q1016=
202206271120 METAR ESMX 271120Z AUTO 13009KT 070V170 9999 NCD 30/13 Q1016=
202206271050 METAR ESMX 271050Z AUTO 16008KT 9999 NCD 30/14 Q1017=
202206271020 METAR ESMX 271020Z AUTO 14008KT 060V180 9999 R01///// R19/P2000N NCD 29/14 Q1017=
202206270950 METAR ESMX 270950Z AUTO 15008KT 100V210 9999 R01///// R19/P2000N NCD 29/15 Q1017=
202206270920 METAR ESMX 270920Z 13008KT 070V170 CAVOK 29/16 Q1017=
202206270850 METAR ESMX 270850Z 14007KT 100V190 CAVOK 28/16 Q1017=
202206270820 METAR ESMX 270820Z AUTO 15006KT 080V170 9999 R01///// R19/P2000N NCD 28/16 Q1017=
202206270750 METAR ESMX 270750Z AUTO 14006KT 100V170 9999 R01///// R19/P2000N NCD 27/16 Q1017=
202206270720 METAR ESMX 270720Z AUTO 12006KT 080V150 9999 R01///// R19/P2000N NCD 26/17 Q1017=
202206270650 METAR ESMX 270650Z AUTO 10005KT 060V130 9999 NCD 25/17 Q1017=
202206270620 METAR ESMX 270620Z AUTO 12006KT 9999 R01///// R19/P2000N NCD 24/16 Q1018=
202206270550 METAR ESMX 270550Z AUTO 11005KT 9999 R01///// R19/P2000N NCD 23/16 Q1017=
202206270520 METAR ESMX 270520Z 12003KT CAVOK 22/16 Q1017=
202206270450 METAR ESMX 270450Z 10002KT CAVOK 20/17 Q1017=
202206270420 METAR ESMX 270420Z 17002KT CAVOK 20/16 Q1017=
202206270350 METAR ESMX 270350Z 01003KT CAVOK 17/16 Q1017=
202206270320 METAR ESMX 270320Z AUTO 03003KT 9999 R01///// R19/P2000N NCD 16/15 Q1018=
202206270250 METAR ESMX 270250Z AUTO VRB02KT 9999 NCD 16/15 Q1017=
202206270220 METAR ESMX 270220Z AUTO 03002KT 9999 NCD 16/15 Q1017=
202206270150 METAR ESMX 270150Z AUTO 36003KT 9999 NCD 16/15 Q1018=
202206270120 METAR ESMX 270120Z AUTO 17003KT 9999 SCT130/// 15/14 Q1018=
202206270050 METAR ESMX 270050Z AUTO VRB02KT 9999 SCT130/// 14/14 Q1018=
202206270020 METAR ESMX 270020Z AUTO VRB02KT 9999 SCT120/// 14/14 Q1018=
202206262350 METAR ESMX 262350Z AUTO 02002KT 9999 NCD 16/15 Q1018=
202206262320 METAR ESMX 262320Z AUTO 00000KT 9999 NCD 15/14 Q1018=
202206262250 METAR ESMX 262250Z AUTO 00000KT 9999 NCD 16/14 Q1018=
202206262220 METAR ESMX 262220Z AUTO 35003KT 9999 NCD 17/14 Q1018=
202206262150 METAR ESMX 262150Z AUTO 17002KT 9999 NCD 18/14 Q1018=
202206262120 METAR ESMX 262120Z 17003KT CAVOK 20/14 Q1018=
202206262050 METAR ESMX 262050Z 15004KT CAVOK 20/14 Q1018=
202206262020 METAR ESMX 262020Z 17004KT CAVOK 21/14 Q1018=
202206261950 METAR ESMX 261950Z 17005KT CAVOK 24/13 Q1018=
202206261920 METAR ESMX 261920Z 16005KT CAVOK 25/13 Q1017=
202206261850 METAR ESMX 261850Z 17004KT CAVOK 26/13 Q1017=
202206261820 METAR ESMX 261820Z 19005KT CAVOK 25/13 Q1017=
202206261750 METAR ESMX 261750Z 19008KT CAVOK 27/13 Q1017=
202206261720 METAR ESMX 261720Z 16007KT CAVOK 28/12 Q1017=
202206261650 METAR ESMX 261650Z 16006KT 130V190 CAVOK 29/12 Q1017=
202206261620 METAR ESMX 261620Z 18008KT 150V210 CAVOK 29/12 Q1017=
202206261550 METAR ESMX 261550Z 18010KT 140V200 CAVOK 29/13 Q1017=
202206261520 METAR ESMX 261520Z 17009KT 140V200 CAVOK 29/13 Q1017=
202206261450 METAR ESMX 261450Z 18010KT CAVOK 30/13 Q1017=
202206261420 METAR ESMX 261420Z 19010KT 140V210 CAVOK 30/12 Q1017=
202206261350 METAR ESMX 261350Z 15009KT 110V190 CAVOK 29/11 Q1017=
202206261320 METAR ESMX 261320Z 16009KT 110V190 CAVOK 30/11 Q1017=
202206261250 METAR ESMX 261250Z 18010KT 140V200 CAVOK 30/13 Q1017=
202206261220 METAR ESMX 261220Z 16009KT 140V200 CAVOK 30/11 Q1017=
202206261150 METAR ESMX 261150Z 16009KT 110V200 CAVOK 29/13 Q1017=
202206261120 METAR ESMX 261120Z 17009KT 120V190 CAVOK 30/13 Q1017=
202206261050 METAR ESMX 261050Z 16010KT 120V190 CAVOK 29/14 Q1017=
202206261020 METAR ESMX 261020Z 16010KT 120V190 CAVOK 29/14 Q1017=
202206260950 METAR ESMX 260950Z 16008KT 080V190 CAVOK 28/15 Q1017=
202206260920 METAR ESMX 260920Z AUTO 15009KT 100V200 9999 R01///// R19/P2000N NCD 28/14 Q1017=
202206260850 METAR ESMX 260850Z 15007KT 100V200 CAVOK 27/15 Q1017=
202206260820 METAR ESMX 260820Z AUTO 13007KT 060V210 9999 R01///// R19/P2000N NCD 27/15 Q1017=
202206260750 METAR ESMX 260750Z 14007KT 070V170 CAVOK 26/15 Q1017=
202206260720 METAR ESMX 260720Z 12005KT 050V160 CAVOK 25/16 Q1017=
202206260650 METAR ESMX 260650Z 13004KT CAVOK 24/16 Q1017=
202206260620 METAR ESMX 260620Z 09005KT 040V150 CAVOK 23/15 Q1017=
202206260550 METAR ESMX 260550Z AUTO 11005KT 060V130 9999 R01///// R19/P2000N NCD 22/16 Q1017=
202206260520 METAR ESMX 260520Z VRB03KT CAVOK 21/16 Q1017=
202206260450 METAR ESMX 260450Z 08003KT CAVOK 20/15 Q1017=
202206260420 METAR ESMX 260420Z VRB02KT CAVOK 19/15 Q1017=
202206260350 METAR COR ESMX 260350Z 06003KT CAVOK 18/15 Q1017=
202206260320 METAR ESMX 260320Z AUTO 06002KT 9999 R01///// R19/P2000N NCD 17/14 Q1017=
202206260250 METAR ESMX 260250Z AUTO 08002KT 9999 NCD 16/14 Q1017=
202206260220 METAR ESMX 260220Z AUTO 10003KT 9999 NCD 16/14 Q1017=
202206260150 METAR ESMX 260150Z AUTO 11002KT 9999 NCD 16/13 Q1017=
202206260120 METAR ESMX 260120Z AUTO 13003KT 9999 NCD 16/14 Q1017=
202206260050 METAR ESMX 260050Z AUTO 13003KT 9999 NCD 15/14 Q1017=
202206260020 METAR ESMX 260020Z AUTO VRB02KT 9999 NCD 15/14 Q1017=
202206252350 METAR ESMX 252350Z AUTO VRB03KT 9999 NCD 16/13 Q1017=
202206252320 METAR ESMX 252320Z AUTO VRB03KT 9999 NCD 16/13 Q1017=
202206252250 METAR ESMX 252250Z AUTO 13003KT 9999 NCD 17/12 Q1017=
202206252220 METAR ESMX 252220Z AUTO 13002KT 9999 NCD 18/13 Q1017=
202206252150 METAR ESMX 252150Z AUTO VRB02KT 9999 NCD 18/12 Q1017=
202206252120 METAR ESMX 252120Z AUTO VRB03KT 9999 NCD 20/12 Q1017=
202206252050 METAR ESMX 252050Z AUTO 14003KT 9999 NCD 20/12 Q1016=
202206252020 METAR ESMX 252020Z AUTO 13004KT 9999 NCD 22/12 Q1016=
202206251950 METAR ESMX 251950Z AUTO 16004KT 9999 NCD 23/13 Q1016=
202206251920 METAR ESMX 251920Z AUTO 15005KT 110V170 9999 NCD 24/13 Q1016=
202206251850 METAR ESMX 251850Z AUTO 16005KT 130V200 9999 NCD 25/13 Q1016=
202206251820 METAR ESMX 251820Z AUTO 17006KT 9999 R01///// R19/P2000N NCD 26/12 Q1015=
202206251750 METAR ESMX 251750Z AUTO 16007KT 120V180 9999 R01///// R19/P2000N NCD 26/12 Q1015=
202206251720 METAR ESMX 251720Z AUTO 18008KT 9999 R01///// R19/P2000N NCD 27/12 Q1015=
202206251650 METAR ESMX 251650Z AUTO 16008KT 9999 R01///// R19/P2000N NCD 27/12 Q1015=
202206251620 METAR ESMX 251620Z AUTO 16009KT 140V200 9999 R01///// R19/P2000N NCD 28/12 Q1015=
202206251550 METAR ESMX 251550Z AUTO 16009KT 9999 R01///// R19/P2000N NCD 28/12 Q1014=
202206251520 METAR ESMX 251520Z AUTO 16010KT 130V190 9999 R01///// R19/P2000N FEW076/// 28/12 Q1014=
202206251450 METAR ESMX 251450Z AUTO 17010KT 9999 R01///// R19/P2000N FEW076/// 28/12 Q1014=
202206251420 METAR ESMX 251420Z AUTO 17010G23KT 130V210 9999 R01///// R19/P2000N BKN070/// 29/13 Q1014=
202206251350 METAR ESMX 251350Z AUTO 17010KT 130V200 9999 R01///// R19/P2000N SCT070/// 28/12 Q1014=
202206251320 METAR ESMX 251320Z AUTO 16010KT 120V190 9999 R01///// R19/P2000N SCT076/// 29/12 Q1014=
202206251250 METAR ESMX 251250Z AUTO 18010KT 120V210 9999 R01///// R19/P2000N FEW072/// 29/12 Q1014=
202206251220 METAR ESMX 251220Z AUTO 16009KT 9999 R01///// R19/P2000N SCT074/// 29/12 Q1014=
202206251150 METAR ESMX 251150Z AUTO 17009KT 9999 R01///// R19/P2000N FEW070/// 29/12 Q1014=
202206251120 METAR ESMX 251120Z AUTO 15009KT 100V200 9999 R01///// R19/P2000N FEW068/// 28/12 Q1014=
202206251050 METAR ESMX 251050Z AUTO 16009KT 120V190 9999 R01///// R19/P2000N FEW064/// 28/13 Q1014=
202206251020 METAR ESMX 251020Z AUTO 14010KT 100V190 9999 FEW059/// 28/13 Q1014=
202206250950 METAR ESMX 250950Z AUTO 15008KT 110V190 9999 NCD 28/14 Q1014=
202206250920 METAR ESMX 250920Z AUTO 14008KT 110V180 9999 NCD 27/15 Q1014=
202206250850 METAR ESMX 250850Z AUTO 14007KT 100V170 9999 NCD 26/14 Q1014=
202206250820 METAR ESMX 250820Z AUTO 13006KT 080V150 9999 NCD 26/15 Q1014=
202206250750 METAR ESMX 250750Z AUTO 12005KT 070V150 9999 NCD 24/15 Q1014=
202206250720 METAR ESMX 250720Z AUTO 12005KT 080V150 9999 NCD 24/15 Q1014=
202206250650 METAR ESMX 250650Z AUTO 14005KT 080V150 9999 NCD 23/15 Q1014=
202206250620 METAR ESMX 250620Z AUTO 13005KT 9999 NCD 22/15 Q1014=
202206250550 METAR ESMX 250550Z AUTO 13005KT 9999 NCD 21/14 Q1013=
202206250520 METAR ESMX 250520Z AUTO 12004KT 9999 NCD 20/14 Q1013=
202206250450 METAR ESMX 250450Z AUTO 13004KT 9999 NCD 19/14 Q1013=
202206250420 METAR ESMX 250420Z AUTO 11003KT 9999 NCD 18/14 Q1013=
202206250350 METAR ESMX 250350Z AUTO 09003KT 9999 R01///// R19/P2000N NCD 17/14 Q1013=
202206250320 METAR ESMX 250320Z AUTO 09004KT 9999 R01///// R19/P2000N NCD 16/14 Q1013=
202206250250 METAR ESMX 250250Z AUTO 12003KT 9999 NCD 15/13 Q1013=
202206250220 METAR ESMX 250220Z AUTO 11003KT 9999 NCD 15/13 Q1013=
202206250150 METAR ESMX 250150Z AUTO 11005KT 9999 NCD 16/13 Q1013=
202206250120 METAR ESMX 250120Z AUTO 11005KT 070V140 9999 NCD 16/13 Q1013=
202206250050 METAR ESMX 250050Z AUTO 12003KT 9999 NCD 17/13 Q1013=
202206250020 METAR ESMX 250020Z AUTO 11005KT 080V150 9999 NCD 17/13 Q1013=
202206242350 METAR ESMX 242350Z AUTO 11004KT 080V140 9999 NCD 17/13 Q1012=
202206242320 METAR ESMX 242320Z AUTO 10004KT 9999 NCD 17/13 Q1013=
202206242250 METAR ESMX 242250Z AUTO 10004KT 050V140 9999 NCD 17/13 Q1013=
202206242220 METAR ESMX 242220Z AUTO 09004KT 040V130 9999 NCD 18/13 Q1013=
202206242150 METAR ESMX 242150Z AUTO 11004KT 060V140 9999 NCD 18/13 Q1013=
202206242120 METAR ESMX 242120Z AUTO 10003KT 060V140 9999 NCD 19/13 Q1013=
202206242050 METAR ESMX 242050Z AUTO 11003KT 9999 NCD 19/13 Q1013=
202206242020 METAR ESMX 242020Z AUTO 10003KT 070V150 9999 NCD 20/13 Q1013=
202206241950 METAR ESMX 241950Z AUTO 13003KT 9999 NCD 21/12 Q1013=
202206241920 METAR ESMX 241920Z AUTO 12005KT 070V200 9999 NCD 22/12 Q1013=
202206241850 METAR ESMX 241850Z AUTO 13007KT 100V160 9999 R01///// R19/P2000N NCD 23/11 Q1012=
202206241820 METAR ESMX 241820Z VRB07KT CAVOK 24/11 Q1012=
202206241750 METAR ESMX 241750Z 14008KT 110V170 CAVOK 25/11 Q1012=
202206241720 METAR ESMX 241720Z 16009KT 120V200 CAVOK 25/12 Q1012=
202206241650 METAR ESMX 241650Z 14009KT 080V200 CAVOK 26/11 Q1012=
202206241620 METAR ESMX 241620Z 17009KT 130V200 CAVOK 26/12 Q1012=
202206241550 METAR ESMX 241550Z 16009KT 120V190 CAVOK 26/11 Q1012=
202206241520 METAR ESMX 241520Z 16008KT CAVOK 27/11 Q1012=
202206241450 METAR ESMX 241450Z 15009KT 110V200 CAVOK 27/12 Q1012=
202206241420 METAR ESMX 241420Z 17008KT 130V200 CAVOK 27/12 Q1012=
202206241350 METAR ESMX 241350Z AUTO 16008KT 120V190 9999 NCD 27/13 Q1012=
202206241320 METAR ESMX 241320Z AUTO 17009KT 120V200 9999 NCD 27/13 Q1013=
202206241250 METAR ESMX 241250Z AUTO 16008KT 9999 NCD 27/13 Q1013=
202206241220 METAR ESMX 241220Z AUTO 17007KT 120V210 9999 R01///// R19/P2000N NCD 26/13 Q1013=
202206241150 METAR ESMX 241150Z AUTO 17006KT 120V200 9999 R01///// R19/P2000N NCD 26/11 Q1013=
202206241120 METAR ESMX 241120Z AUTO 17007KT 140V210 9999 R01///// R19/P2000N NCD 26/08 Q1013=
202206241050 METAR ESMX 241050Z AUTO 18007KT 140V200 9999 R01///// R19/P2000N NCD 25/10 Q1014=
202206241020 METAR ESMX 241020Z AUTO 15007KT 120V200 9999 R01///// R19/P2000N NCD 24/11 Q1014=
202206240950 METAR ESMX 240950Z AUTO 14006KT 080V190 9999 R01///// R19/P2000N NCD 24/12 Q1014=
202206240920 METAR ESMX 240920Z AUTO 12007KT 070V170 9999 R01///// R19/P2000N NCD 23/13 Q1014=
202206240850 METAR ESMX 240850Z AUTO 15006KT 060V190 9999 R01///// R19/P2000N NCD 23/13 Q1014=
202206240820 METAR ESMX 240820Z AUTO 15006KT 9999 R01///// R19/P2000N NCD 22/13 Q1015=
202206240750 METAR ESMX 240750Z AUTO 16005KT 9999 R01///// R19/P2000N NCD 22/15 Q1015=
202206240720 METAR ESMX 240720Z AUTO 17004KT 9999 R01///// R19/P2000N NCD 21/15 Q1015=
202206240650 METAR ESMX 240650Z AUTO 16004KT 9999 R01///// R19/P2000N NCD 20/15 Q1015=
202206240620 METAR ESMX 240620Z AUTO 14006KT 9999 R01///// R19/P2000N NCD 20/15 Q1015=
202206240550 METAR ESMX 240550Z 10004KT 050V140 CAVOK 19/16 Q1015=
202206240520 METAR ESMX 240520Z 19004KT CAVOK 19/16 Q1015=
202206240450 METAR ESMX 240450Z 19003KT CAVOK 17/15 Q1015=
202206240420 METAR ESMX 240420Z 00000KT CAVOK 16/15 Q1015=
202206240350 METAR ESMX 240350Z 00000KT CAVOK 13/13 Q1015=
202206240320 METAR ESMX 240320Z AUTO VRB02KT 9999 R01///// R19/P2000N NCD 10/10 Q1015=
202206240250 METAR ESMX 240250Z AUTO 00000KT 9999 R01///// R19/P2000N BR NCD 09/09 Q1015=
202206240220 METAR ESMX 240220Z AUTO 00000KT 9999 R01///// R19/P2000N NCD 10/10 Q1015=
202206240150 METAR ESMX 240150Z AUTO 23002KT 9999 R01///// R19/P2000N NCD 11/11 Q1015=
202206240120 METAR ESMX 240120Z AUTO 00000KT 9999 NCD 09/09 Q1015=
202206240050 METAR ESMX 240050Z AUTO 00000KT 9999 R01///// R19/P2000N NCD 10/10 Q1015=
202206240020 METAR ESMX 240020Z AUTO 00000KT 9999 R01///// R19/P2000N NCD 11/11 Q1015=
202206232350 METAR ESMX 232350Z AUTO 18002KT 9999 R01///// R19/P2000N NCD 11/11 Q1015=
202206232320 METAR ESMX 232320Z AUTO 00000KT 9999 R01///// R19/P2000N NCD 11/11 Q1015=
202206232250 METAR ESMX 232250Z AUTO 19002KT 9999 R01///// R19/P2000N NCD 12/12 Q1015=
202206232220 METAR ESMX 232220Z AUTO 18002KT 9999 NCD 12/12 Q1015=
202206232150 METAR ESMX 232150Z AUTO 17002KT 9999 NCD 13/13 Q1015=
202206232120 METAR ESMX 232120Z AUTO 00000KT 9999 NCD 14/13 Q1015=
202206232050 METAR ESMX 232050Z AUTO 20002KT 9999 NCD 14/13 Q1015=
202206232020 METAR ESMX 232020Z AUTO 00000KT 9999 NCD 15/14 Q1015=
202206231950 METAR ESMX 231950Z AUTO 24002KT 9999 NCD 17/14 Q1015=
202206231920 METAR ESMX 231920Z AUTO 27003KT 9999 NCD 19/14 Q1015=
202206231850 METAR ESMX 231850Z 29004KT CAVOK 21/13 Q1015=
202206231820 METAR ESMX 231820Z 29005KT CAVOK 22/13 Q1015=
202206231750 METAR ESMX 231750Z 27005KT 240V300 CAVOK 22/14 Q1015=
202206231720 METAR ESMX 231720Z 25007KT CAVOK 21/13 Q1015=
202206231650 METAR ESMX 231650Z 25006KT 210V280 CAVOK 23/14 Q1014=
202206231620 METAR ESMX 231620Z 25006KT 230V290 CAVOK 23/14 Q1015=
202206231550 METAR ESMX 231550Z 34006KT 300V020 CAVOK 22/14 Q1015=
202206231520 METAR ESMX 231520Z 27007KT CAVOK 21/14 Q1015=
202206231450 METAR ESMX 231450Z 27006KT 220V330 CAVOK 22/14 Q1015=
202206231420 METAR ESMX 231420Z 25007KT CAVOK 22/14 Q1015=
202206231350 METAR ESMX 231350Z 26007KT 230V300 CAVOK 21/14 Q1015=
202206231320 METAR ESMX 231320Z 28008KT 240V320 9999 FEW029 22/14 Q1015=
202206231250 METAR ESMX 231250Z 26008KT 9999 SCT028 21/14 Q1015=
202206231220 METAR ESMX 231220Z 26009KT 9999 SCT028 21/14 Q1015=
202206231150 METAR ESMX 231150Z 25009KT 220V290 9999 BKN027 20/14 Q1016=
202206231120 METAR ESMX 231120Z 24009KT 200V280 9999 BKN025 19/13 Q1016=
202206231050 METAR ESMX 231050Z 24008KT 190V280 9999 BKN025 20/13 Q1015=
202206231020 METAR ESMX 231020Z 26009KT 210V280 9999 BKN024 19/14 Q1015=
202206230950 METAR ESMX 230950Z 28008KT 240V310 9999 BKN021 19/14 Q1015=
202206230920 METAR ESMX 230920Z 27007KT 230V320 9999 BKN021 18/13 Q1015=
202206230850 METAR ESMX 230850Z 26009KT 230V300 9999 BKN018 17/13 Q1015=
202206230820 METAR ESMX 230820Z 27006KT 230V330 9999 BKN017 17/13 Q1015=
202206230750 METAR ESMX 230750Z 24007KT 210V310 9999 BKN013 16/13 Q1015=
202206230720 METAR ESMX 230720Z 24005KT 9999 BKN010 15/13 Q1014=
202206230650 METAR ESMX 230650Z 24006KT 210V280 9999 BKN009 14/13 Q1014=
202206230620 METAR ESMX 230620Z 26006KT 9999 BKN007 14/13 Q1014=
202206230550 METAR COR ESMX 230550Z 25005KT 9999 BKN007 14/13 Q1014=
202206230520 METAR ESMX 230520Z AUTO 25005KT 9999 R01///// R19/P2000N OVC007/// 13/13 Q1014=
202206230450 METAR ESMX 230450Z AUTO 25005KT 9999 R01///// R19/P2000N OVC007/// 12/12 Q1014=
202206230420 METAR ESMX 230420Z AUTO 25004KT 9999 R01///// R19/P2000N OVC006/// 12/12 Q1014=
202206230350 METAR ESMX 230350Z AUTO 26006KT 230V300 9999 OVC005/// 12/12 Q1014=
202206230320 METAR ESMX 230320Z AUTO 22004KT 9999 R01///// R19/P2000N OVC004/// 11/11 Q1013=
202206230250 METAR ESMX 230250Z AUTO 22005KT 7000 R01///// R19/P2000N SCT001/// BKN003/// BKN009/// 10/10 Q1013=
202206230220 METAR ESMX 230220Z AUTO 22005KT 7000 R01///// R19/P2000N SCT001/// 10/10 Q1013=
202206230150 METAR ESMX 230150Z AUTO 22006KT 9999 R01///// R19/P2000N NCD 10/10 Q1012=
202206230120 METAR ESMX 230120Z AUTO 23005KT 9999 NCD 10/10 Q1012=
202206230050 METAR ESMX 230050Z AUTO 23005KT 9999 R01///// R19/P2000N NCD 10/10 Q1012=
202206230020 METAR ESMX 230020Z AUTO 23005KT 9999 R01///// R19/P2000N NCD 10/10 Q1012=
202206222350 METAR ESMX 222350Z 23004KT 9999 FEW030 10/10 Q1012=
202206222320 METAR ESMX 222320Z 23004KT 9999 SCT028 09/09 Q1012=
202206222250 METAR ESMX 222250Z 23004KT 9999 FEW028 10/09 Q1012=
202206222220 METAR ESMX 222220Z 24003KT CAVOK 10/10 Q1012=
202206222150 METAR ESMX 222150Z 23004KT CAVOK 11/10 Q1012=
202206222120 METAR ESMX 222120Z 25005KT CAVOK 12/10 Q1012=
202206222050 METAR ESMX 222050Z 25005KT 9999 FEW041 12/10 Q1012=
202206222020 METAR ESMX 222020Z 24004KT 9999 FEW041 13/11 Q1012=
202206221950 METAR ESMX 221950Z 25007KT 9999 SCT041 14/11 Q1012=
202206221920 METAR ESMX 221920Z 25004KT 9999 BKN041 15/12 Q1012=
202206221850 METAR ESMX 221850Z 25005KT 9999 SCT043 15/12 Q1011=
202206221820 METAR ESMX 221820Z 25005KT 230V290 9999 BKN042 16/12 Q1011=
202206221750 METAR ESMX 221750Z 26008KT 230V290 9999 SCT044 16/11 Q1011=
202206221720 METAR ESMX 221720Z 27007KT 230V300 9999 FEW025 BKN046 17/12 Q1011=
202206221650 METAR ESMX 221650Z 27008KT 9999 FEW025 BKN044 17/12 Q1011=
202206221620 METAR ESMX 221620Z 27008KT 9999 FEW020 BKN043 17/13 Q1011=
202206221550 METAR ESMX 221550Z 26009KT 9999 SCT017 BKN039 16/13 Q1011=
202206221520 METAR ESMX 221520Z 25006KT 9999 FEW013 BKN028 16/13 Q1011=
202206221450 METAR ESMX 221450Z 25009KT 9999 SCT015 BKN025 16/14 Q1011=
202206221420 METAR ESMX 221420Z 22008KT 9999 BKN020 16/14 Q1011=
202206221350 METAR ESMX 221350Z 23011KT 200V260 9999 BKN022 16/13 Q1011=
202206221320 METAR ESMX 221320Z 24008KT 9999 FEW021 BKN042 18/12 Q1011=
202206221250 METAR ESMX 221250Z 23008KT 9999 BKN041 18/13 Q1011=
202206221220 METAR ESMX 221220Z 24008KT 9999 FEW022 BKN040 17/13 Q1011=
202206221150 METAR ESMX 221150Z 24008KT 9999 BKN033 17/12 Q1011=
202206221120 METAR ESMX 221120Z 25007KT 220V280 9999 BKN037 18/11 Q1010=
202206221050 METAR ESMX 221050Z 26008KT 9999 BKN037 19/11 Q1010=
202206221020 METAR ESMX 221020Z 22007KT 180V250 9999 BKN036 19/11 Q1010=
202206220950 METAR ESMX 220950Z 25008KT 9999 SCT033 19/11 Q1010=
202206220920 METAR ESMX 220920Z 24009KT 200V280 9999 SCT030 19/12 Q1010=
202206220850 METAR ESMX 220850Z 23009KT 200V260 9999 SCT022 18/12 Q1010=
202206220820 METAR ESMX 220820Z 26006KT 220V290 9999 FEW013 BKN019 17/12 Q1010=
202206220750 METAR ESMX 220750Z 27005KT 240V320 9999 FEW017 BKN021 16/13 Q1010=
202206220720 METAR ESMX 220720Z 26008KT 9999 FEW015 SCT020 16/13 Q1010=
202206220650 METAR ESMX 220650Z 25005KT 200V280 9999 SCT015 15/13 Q1010=
202206220620 METAR ESMX 220620Z 26005KT 230V300 9999 BKN013 15/13 Q1010 RERA=
202206220550 METAR ESMX 220550Z AUTO 26004KT 230V300 9999 R01///// R19/P2000N FEW018/// OVC068/// 14/13 Q1010 RERA=
202206220520 METAR ESMX 220520Z AUTO 21004KT 9999 R01///// R19/P2000N FEW057/// OVC074/// 14/13 Q1010 RERA=
202206220450 METAR ESMX 220450Z AUTO 26004KT 9999 R01///// R19/P2000N OVC072/// 14/13 Q1010=
202206220420 METAR ESMX 220420Z AUTO 23004KT 9999 R01///// R19/P2000N OVC072/// 13/13 Q1010=
202206220350 METAR ESMX 220350Z AUTO 25004KT 9999 R01///// R19/P2000N FEW009/// OVC076/// 13/12 Q1010=
202206220320 METAR ESMX 220320Z AUTO 26004KT 9999 OVC078/// 13/12 Q1010=
202206220250 METAR ESMX 220250Z AUTO 22004KT 190V250 9999 R01///// R19/P2000N OVC076/// 13/12 Q1010=
202206220220 METAR ESMX 220220Z AUTO 17003KT 9999 R01///// R19/P2000N OVC074/// 13/11 Q1010=
202206220150 METAR ESMX 220150Z AUTO 23004KT 9999 R01///// R19/P2000N OVC080/// 13/11 Q1010=
202206220120 METAR ESMX 220120Z AUTO 21004KT 9999 R01///// R19/P2000N BKN080/// OVC098/// 13/11 Q1010=
202206220050 METAR ESMX 220050Z AUTO 23005KT 9999 R01///// R19/P2000N BKN086/// OVC130/// 13/11 Q1010=
202206220020 METAR ESMX 220020Z AUTO 25004KT 9999 FEW084/// OVC130/// 13/11 Q1010=
202206212350 METAR ESMX 212350Z AUTO 24004KT 9999 SCT088/// OVC130/// 13/11 Q1010=
202206212320 METAR ESMX 212320Z 20004KT CAVOK 14/10 Q1010=
202206212250 METAR COR ESMX 212250Z 26004KT CAVOK 14/10 Q1010=
202206212220 METAR ESMX 212220Z AUTO 24003KT 9999 OVC140/// 14/10 Q1010=
202206212150 METAR ESMX 212150Z 26003KT CAVOK 14/10 Q1010=
202206212120 METAR ESMX 212120Z 25004KT CAVOK 14/10 Q1010=
202206212050 METAR ESMX 212050Z 25003KT CAVOK 14/10 Q1010=
202206212020 METAR ESMX 212020Z 27003KT CAVOK 15/10 Q1010=
202206211950 METAR ESMX 211950Z 26005KT 9999 FEW029 15/10 Q1010=
202206211920 METAR ESMX 211920Z AUTO 26006KT 230V300 9999 R01///// R19/P2000N SCT029/// 16/10 Q1010=
202206211850 METAR ESMX 211850Z AUTO 27008KT 230V290 9999 R01///// R19/P2000N FEW130/// 16/10 Q1010=
202206211820 METAR ESMX 211820Z AUTO 26012KT 9999 R01///// R19/P2000N NCD 17/10 Q1010=
202206211750 METAR ESMX 211750Z AUTO 26011KT 9999 R01///// R19/P2000N NCD 18/10 Q1009=
202206211720 METAR ESMX 211720Z AUTO 27010KT 9999 R01///// R19/P2000N NCD 20/09 Q1009=
202206211650 METAR ESMX 211650Z AUTO 26011KT 230V290 9999 R01///// R19/P2000N NCD 20/09 Q1009=
202206211620 METAR ESMX 211620Z AUTO 27010KT 240V300 9999 R01///// R19/P2000N NCD 21/08 Q1009=
202206211550 METAR ESMX 211550Z AUTO 27010KT 230V300 9999 R01///// R19/P2000N NCD 22/07 Q1009=
202206211520 METAR ESMX 211520Z AUTO 25010KT 220V320 9999 R01///// R19/P2000N NCD 22/08 Q1009=
202206211450 METAR ESMX 211450Z AUTO 26010KT 220V300 9999 R01///// R19/P2000N FEW059/// 23/10 Q1009=
202206211420 METAR ESMX 211420Z 24009KT CAVOK 23/10 Q1009=
202206211350 METAR ESMX 211350Z 24008KT 210V290 CAVOK 22/10 Q1009=
202206211320 METAR ESMX 211320Z 27006KT 230V310 CAVOK 22/09 Q1009=
202206211250 METAR ESMX 211250Z 26007KT 230V320 CAVOK 22/10 Q1009=
202206211220 METAR ESMX 211220Z 28007KT 230V300 CAVOK 22/08 Q1009=
202206211150 METAR ESMX 211150Z 28006KT 250V340 CAVOK 22/10 Q1009=
202206211120 METAR ESMX 211120Z 28006KT 220V350 CAVOK 21/09 Q1009=
202206211050 METAR ESMX 211050Z 27006KT 240V330 9999 FEW046 20/10 Q1009=
202206211020 METAR ESMX 211020Z 27007KT 230V300 9999 FEW045 21/10 Q1009=
202206210950 METAR ESMX 210950Z 29006KT 9999 FEW045 20/09 Q1009=
202206210920 METAR ESMX 210920Z 27005KT 230V300 9999 SCT040 18/11 Q1009=
202206210850 METAR ESMX 210850Z 31005KT 260V350 9999 SCT037 19/10 Q1009=
202206210820 METAR ESMX 210820Z VRB03KT 9999 SCT028 18/11 Q1009=
202206210750 METAR ESMX 210750Z VRB03KT 9999 FEW024 18/12 Q1009=
202206210720 METAR ESMX 210720Z VRB03KT 9999 FEW020 17/12 Q1009=
202206210650 METAR ESMX 210650Z 02003KT CAVOK 17/12 Q1009=
202206210620 METAR ESMX 210620Z 02003KT 330V060 CAVOK 16/12 Q1009=
202206210550 METAR ESMX 210550Z 02004KT CAVOK 15/12 Q1009=
202206210520 METAR ESMX 210520Z AUTO 36004KT 310V030 9999 R01///// R19/P2000N NCD 14/12 Q1009=
202206210450 METAR ESMX 210450Z AUTO 32004KT 9999 R01///// R19/P2000N NCD 12/12 Q1008=
202206210420 METAR ESMX 210420Z AUTO 23002KT 9999 R01///// R19/P2000N NCD 11/11 Q1008=
202206210350 METAR ESMX 210350Z AUTO 00000KT 2200 R01///// R19/1400N NCD 09/09 Q1008=
202206210320 METAR ESMX 210320Z AUTO 20002KT 0100 R01///// R19/0250N NCD 08/08 Q1008=
202206210250 METAR ESMX 210250Z AUTO 17002KT 0250 R01///// R19/0450N NCD 08/08 Q1008=
202206210220 METAR ESMX 210220Z AUTO 00000KT 0200 R01///// R19/0650N FEW006/// 08/08 Q1008=
202206210150 METAR ESMX 210150Z AUTO 30004KT 0450 R01///// R19/P2000N FEW098/// 09/09 Q1008=
202206210120 METAR ESMX 210120Z AUTO 25002KT 0500 R01///// R19/0800U NCD 09/09 Q1008=
202206210050 METAR ESMX 210050Z AUTO 30002KT 9999 R01///// R19/P2000N BKN090/// 10/10 Q1008=
202206210020 METAR ESMX 210020Z AUTO VRB01KT 9999 R01///// R19/P2000N FEW006/// OVC086/// 10/10 Q1008=
202206202350 METAR ESMX 202350Z 00000KT CAVOK 10/10 Q1008 REDZ RERA=
202206202320 METAR ESMX 202320Z 22002KT CAVOK 10/10 Q1008=
202206202250 METAR ESMX 202250Z 20003KT 9999 R01///// R19/P2000N FEW023 BKN051 OVC064 10/10 Q1008=
202206202220 METAR ESMX 202220Z 31002KT 9999 SCT023 OVC062 11/11 Q1008 RERA=
202206202150 METAR ESMX 202150Z 26004KT 9999 R01///// R19/P2000N FEW035 BKN048 11/11 Q1008=
202206202120 METAR ESMX 202120Z 26004KT 9999 FEW046 BKN064 OVC080 11/11 Q1008=
202206202050 METAR ESMX 202050Z 26004KT 230V290 9999 R01///// R19/P2000N FEW037 BKN066 11/11 Q1008=
202206202020 METAR ESMX 202020Z 24003KT 9999 BKN047 BKN066 11/11 Q1008=
202206201950 METAR ESMX 201950Z 27005KT 240V310 9999 BKN047 BKN066 11/11 Q1009=
202206201920 METAR ESMX 201920Z AUTO 23005KT 9999 R01///// R19/P2000N BKN074/// BKN100/// 11/11 Q1008 REDZ=
202206201850 METAR ESMX 201850Z AUTO 18004KT 9999 R01///// R19/P2000N OVC072/// 12/12 Q1008=
202206201820 METAR ESMX 201820Z AUTO 18006KT 9999 R01///// R19/P2000N FEW057/// SCT076/// BKN120/// 12/11 Q1009 RESHRA=
202206201750 METAR ESMX 201750Z AUTO 20007KT 9999 R01///// R19/P2000N FEW001/// SCT032/// OVC055/// 12/11 Q1009 RESHRA=
202206201720 METAR ESMX 201720Z AUTO VRB02KT 9999 R01///// R19/P2000N FEW001/// OVC045/// 11/11 Q1009=
202206201650 METAR ESMX 201650Z AUTO 19013KT 9999 R01///// R19/P2000N OVC068/// 14/09 Q1008=
202206201620 METAR ESMX 201620Z AUTO 28003KT 250V310 9999 R01///// R19/P2000N SCT098/// BKN120/// 18/08 Q1008=
202206201550 METAR ESMX 201550Z 31005KT 9999 R01///// R19/P2000N SCT040CB BKN120 17/07 Q1008=
202206201520 METAR ESMX 201520Z 05005KT 360V080 9999 SCT040CB BKN120 19/05 Q1008=
202206201450 METAR ESMX 201450Z 35004KT CAVOK 19/06 Q1008=
202206201420 METAR ESMX 201420Z 35004KT 320V020 CAVOK 19/06 Q1008=
202206201350 METAR ESMX 201350Z 34004KT 280V020 CAVOK 19/07 Q1008=
202206201320 METAR ESMX 201320Z 29005KT 250V020 CAVOK 18/06 Q1008=
202206201250 METAR ESMX 201250Z 26005KT CAVOK 18/07 Q1008=
202206201220 METAR ESMX 201220Z 31006KT 280V360 9999 FEW046 18/07 Q1009=
202206201150 METAR ESMX 201150Z 30005KT 260V350 9999 FEW046 18/08 Q1009=
202206201120 METAR ESMX 201120Z 26006KT 230V300 9999 FEW046 18/07 Q1009=
202206201050 METAR ESMX 201050Z 28006KT 250V320 9999 FEW049 18/07 Q1009=
202206201020 METAR ESMX 201020Z VRB04KT CAVOK 18/06 Q1010=
202206200950 METAR ESMX 200950Z VRB02KT CAVOK 17/07 Q1010=
202206200920 METAR ESMX 200920Z 02004KT 340V060 CAVOK 16/07 Q1010=
202206200850 METAR ESMX 200850Z VRB03KT 9999 VCSH SCT062 18/07 Q1010=
202206200820 METAR ESMX 200820Z 02005KT 330V070 CAVOK 16/07 Q1011=
202206200750 METAR ESMX 200750Z 02004KT 340V070 CAVOK 16/08 Q1011=
202206200720 METAR ESMX 200720Z 36004KT 320V020 CAVOK 16/07 Q1011=
202206200650 METAR ESMX 200650Z 03004KT CAVOK 15/08 Q1011=
202206200620 METAR ESMX 200620Z 01005KT 330V040 CAVOK 14/08 Q1011=
202206200550 METAR ESMX 200550Z 36005KT 330V030 CAVOK 14/09 Q1011=
202206200520 METAR ESMX 200520Z 36004KT 330V040 CAVOK 13/08 Q1011=
202206200450 METAR ESMX 200450Z 35003KT 300V030 CAVOK 13/09 Q1010=
202206200420 METAR ESMX 200420Z VRB03KT CAVOK 11/09 Q1010=
202206200350 METAR ESMX 200350Z 29003KT CAVOK 09/09 Q1011=
202206200320 METAR ESMX 200320Z AUTO 00000KT 9999 R01///// R19/P2000N BKN098/// 07/07 Q1011=
202206200250 METAR ESMX 200250Z AUTO VRB02KT 9999 BKN098/// 06/06 Q1010=
202206200220 METAR ESMX 200220Z AUTO 31002KT 9999 FEW098/// 05/05 Q1010=
202206200150 METAR ESMX 200150Z AUTO 00000KT 9999 R01///// R19/P2000N NCD 06/06 Q1011=
202206200120 METAR ESMX 200120Z AUTO 29003KT 9999 R01///// R19/P2000N SCT088/// 06/06 Q1011=
202206200050 METAR ESMX 200050Z AUTO 29003KT 9999 R01///// R19/P2000N NCD 07/07 Q1011=
202206200020 METAR ESMX 200020Z AUTO 25003KT 9999 R01///// R19/P2000N NCD 08/08 Q1011=
202206192350 METAR ESMX 192350Z AUTO 25004KT 9999 R01///// R19/P2000N NCD 08/07 Q1011=
202206192320 METAR ESMX 192320Z AUTO 25004KT 9999 R01///// R19/P2000N NCD 08/08 Q1011=
202206192250 METAR ESMX 192250Z AUTO 25005KT 9999 NCD 09/08 Q1011=
202206192220 METAR ESMX 192220Z AUTO 25006KT 9999 NCD 10/08 Q1011=
202206192150 METAR ESMX 192150Z AUTO 25005KT 9999 R01///// R19/P2000N NCD 10/08 Q1010=
202206192120 METAR ESMX 192120Z AUTO 23004KT 9999 NCD 10/08 Q1010=
202206192050 METAR ESMX 192050Z AUTO 24005KT 9999 NCD 11/09 Q1010=
202206192020 METAR ESMX 192020Z 23005KT CAVOK 11/10 Q1010=
202206191950 METAR ESMX 191950Z 23005KT CAVOK 12/10 Q1009=
202206191920 METAR ESMX 191920Z 23005KT CAVOK 13/10 Q1009=
202206191850 METAR ESMX 191850Z 21007KT CAVOK 15/10 Q1009=
202206191820 METAR ESMX 191820Z 20007KT CAVOK 15/11 Q1009=
202206191750 METAR ESMX 191750Z 19006KT 9999 FEW038 14/11 Q1009=
202206191720 METAR ESMX 191720Z 22007KT 9999 FEW032 SCT062 15/10 Q1009=
202206191650 METAR ESMX 191650Z 26005KT 230V290 9999 FEW032 SCT062 16/08 Q1009=
202206191620 METAR ESMX 191620Z 23006KT 200V270 9999 FEW032 SCT060 16/08 Q1009=
202206191550 METAR ESMX 191550Z 26005KT 230V310 9999 FEW028 SCT060 17/08 Q1009=
202206191520 METAR ESMX 191520Z 26006KT 230V300 9999 FEW028 SCT060 16/09 Q1009=
202206191450 METAR ESMX 191450Z 27007KT 230V300 9999 SCT028 BKN059 16/08 Q1009=
202206191420 METAR ESMX 191420Z 25006KT 230V290 9999 SCT029 BKN051 15/09 Q1009=
202206191350 METAR ESMX 191350Z 24007KT 210V280 9999 SCT026 BKN051 15/09 Q1010=
202206191320 METAR ESMX 191320Z 27008KT 230V310 9999 FEW022 SCT130 BKN170 15/10 Q1010=
202206191250 METAR ESMX 191250Z 26007KT 9999 FEW020 SCT110 BKN140 14/09 Q1010=
202206191220 METAR ESMX 191220Z 23007KT 200V260 9999 FEW020 SCT057 BKN100 13/09 Q1010=
202206191150 METAR ESMX 191150Z 22008KT 9999 SCT021 BKN038 OVC200 14/09 Q1010=
202206191120 METAR ESMX 191120Z 21008KT 9999 FEW017 SCT098 BKN120 13/09 Q1010=
202206191050 METAR ESMX 191050Z 24008KT 9999 FEW017 SCT098 BKN120 13/10 Q1010=
202206191020 METAR ESMX 191020Z 22005KT 190V260 9999 FEW017 SCT098 BKN120 13/10 Q1009=
202206190950 METAR ESMX 190950Z 21006KT 170V240 9999 FEW012 SCT055 BKN110 12/09 Q1009=
202206190920 METAR ESMX 190920Z 21007KT 9999 R01///// R19/P2000N FEW012 SCT055 BKN110 12/10 Q1010=
202206190850 METAR ESMX 190850Z 23006KT 9999 FEW012 BKN057 12/09 Q1010=
202206190820 METAR ESMX 190820Z 23007KT 9999 FEW012 BKN057 12/10 Q1010=
202206190750 METAR ESMX 190750Z 22007KT 9999 FEW049 12/10 Q1010=
202206190720 METAR ESMX 190720Z 24005KT 9999 FEW049 11/09 Q1010=
202206190650 METAR ESMX 190650Z 22006KT CAVOK 11/09 Q1010=
202206190620 METAR ESMX 190620Z 20008KT 9999 FEW049 12/09 Q1010=
202206190550 METAR ESMX 190550Z 22006KT 9999 -DZ FEW035 11/09 Q1010=
202206190520 METAR ESMX 190520Z AUTO 22005KT 9999 R01///// R19/P2000N FEW037/// SCT057/// 12/09 Q1010=
202206190450 METAR ESMX 190450Z AUTO 24004KT 9999 R01///// R19/P2000N OVC070/// 11/08 Q1010=
202206190420 METAR ESMX 190420Z AUTO 25007KT 9999 R01///// R19/P2000N OVC098/// 11/08 Q1011=
202206190350 METAR ESMX 190350Z AUTO 21004KT 9999 OVC098/// 11/07 Q1010=
202206190320 METAR ESMX 190320Z AUTO 24004KT 9999 R01///// R19/P2000N BKN088/// OVC100/// 11/07 Q1010=
202206190250 METAR ESMX 190250Z AUTO 24004KT 9999 OVC090/// 11/07 Q1010=
202206190220 METAR ESMX 190220Z AUTO 26005KT 230V290 9999 R01///// R19/P2000N SCT070/// BKN096/// 11/07 Q1011=
202206190150 METAR ESMX 190150Z AUTO 26006KT 9999 R01///// R19/P2000N OVC100/// 11/06 Q1011=
202206190120 METAR ESMX 190120Z AUTO 25006KT 9999 OVC100/// 11/06 Q1011=
202206190050 METAR ESMX 190050Z AUTO 27006KT 9999 OVC110/// 11/06 Q1011=
202206190020 METAR ESMX 190020Z AUTO 26005KT 230V290 9999 R01///// R19/P2000N OVC120/// 11/06 Q1011=
202206182350 METAR ESMX 182350Z AUTO 25005KT 9999 BKN130/// OVC150/// 11/06 Q1011=
202206182320 METAR ESMX 182320Z AUTO 26005KT 9999 BKN140/// 11/06 Q1011=
202206182250 METAR ESMX 182250Z AUTO 27006KT 240V320 9999 SCT150/// 11/05 Q1010=
202206182220 METAR ESMX 182220Z AUTO 27005KT 230V320 9999 FEW160/// 11/05 Q1010=
202206182150 METAR ESMX 182150Z AUTO 27008KT 9999 NCD 12/05 Q1011=
202206182120 METAR ESMX 182120Z AUTO 27010KT 9999 R01///// R19/P2000N SCT170/// 13/05 Q1011=
202206182050 METAR ESMX 182050Z AUTO 27010KT 9999 FEW180/// 13/05 Q1011=
202206182020 METAR ESMX 182020Z AUTO 27010KT 9999 FEW140/// 13/04 Q1011=
202206181950 METAR ESMX 181950Z AUTO 25009KT 220V280 9999 R01///// R19/P2000N NCD 14/04 Q1010=
202206181920 METAR ESMX 181920Z AUTO 25012KT 230V300 9999 NCD 14/03 Q1010=
202206181850 METAR ESMX 181850Z AUTO 25010KT 220V280 9999 R01///// R19/P2000N NCD 15/04 Q1010=
202206181820 METAR ESMX 181820Z AUTO 25012KT 9999 R01///// R19/P2000N NCD 16/05 Q1010=
202206181750 METAR ESMX 181750Z AUTO 25013KT 210V280 9999 R01///// R19/P2000N NCD 17/05 Q1010=
202206181720 METAR ESMX 181720Z AUTO 26015KT 220V280 9999 R01///// R19/P2000N NCD 18/06 Q1010=
202206181650 METAR ESMX 181650Z AUTO 25014KT 9999 R01///// R19/P2000N NCD 19/07 Q1010=
202206181620 METAR ESMX 181620Z AUTO 26016KT 230V290 9999 R01///// R19/P2000N FEW045/// 19/08 Q1010=
202206181550 METAR ESMX 181550Z AUTO 26014KT 230V290 9999 R01///// R19/P2000N NCD 20/10 Q1010=
202206181520 METAR ESMX 181520Z AUTO 27014KT 240V300 9999 R01///// R19/P2000N SCT043/// 20/10 Q1010=
202206181450 METAR ESMX 181450Z AUTO 27015KT 240V300 9999 R01///// R19/P2000N FEW045/// 21/10 Q1010=
202206181420 METAR ESMX 181420Z AUTO 25013KT 210V280 9999 R01///// R19/P2000N BKN044/// 21/11 Q1010=
202206181350 METAR ESMX 181350Z AUTO 28011KT 240V310 9999 R01///// R19/P2000N BKN043/// 21/12 Q1009=
202206181320 METAR ESMX 181320Z AUTO 26013KT 9999 R01///// R19/P2000N SCT040/// 21/11 Q1010=
202206181250 METAR ESMX 181250Z AUTO 27013KT 9999 R01///// R19/P2000N SCT037/// 21/12 Q1010=
202206181220 METAR ESMX 181220Z AUTO 27013KT 230V300 9999 R01///// R19/P2000N SCT034/// 21/13 Q1010=
202206181150 METAR ESMX 181150Z AUTO 28012KT 240V320 9999 R01///// R19/P2000N SCT036/// 21/13 Q1010=
202206181120 METAR ESMX 181120Z AUTO 29012KT 9999 R01///// R19/P2000N FEW037/// 21/13 Q1009=
202206181050 METAR ESMX 181050Z AUTO 26010KT 230V300 9999 R01///// R19/P2000N FEW035/// 21/13 Q1009=
202206181020 METAR ESMX 181020Z AUTO 24012KT 210V280 9999 R01///// R19/P2000N FEW030/// SCT210/// 21/14 Q1009=
202206180950 METAR ESMX 180950Z AUTO 25012KT 9999 R01///// R19/P2000N SCT027/// BKN140/// 20/14 Q1010=
202206180920 METAR ESMX 180920Z AUTO 23011KT 9999 R01///// R19/P2000N BKN025/// 19/14 Q1010=
202206180850 METAR ESMX 180850Z AUTO 22009KT 190V250 9999 R01///// R19/P2000N BKN025/// 19/15 Q1010=
202206180820 METAR ESMX 180820Z AUTO 23010KT 9999 R01///// R19/P2000N BKN023/// OVC028/// 19/14 Q1010=
202206180750 METAR ESMX 180750Z AUTO 23012KT 9999 R01///// R19/P2000N BKN023/// 19/15 Q1010=
202206180720 METAR ESMX 180720Z AUTO 22011KT 190V260 9999 R01///// R19/P2000N SCT020/// 19/14 Q1010=
202206180650 METAR ESMX 180650Z AUTO 22010KT 9999 R01///// R19/P2000N FEW019/// 18/14 Q1010=
202206180620 METAR ESMX 180620Z 20010KT 9999 BKN036 17/14 Q1011=
202206180550 METAR ESMX 180550Z 21011KT 9999 BKN038 16/14 Q1011=
202206180520 METAR ESMX 180520Z 21012KT 9999 BKN043 16/14 Q1011=
202206180450 METAR ESMX 180450Z 21011KT 9999 BKN049 15/14 Q1011=
202206180420 METAR ESMX 180420Z 20011KT 9999 FEW042 SCT051 BKN098 15/13 Q1012=
202206180350 METAR ESMX 180350Z 19010KT 9999 SCT043 BKN059 14/13 Q1012=
202206180320 METAR ESMX 180320Z AUTO 19009KT 9999 R01///// R19/P2000N OVC061/// 14/13 Q1012=
202206180250 METAR ESMX 180250Z AUTO 20009KT 9999 R01///// R19/P2000N FEW038/// BKN049/// OVC062/// 14/13 Q1013=
202206180220 METAR ESMX 180220Z AUTO 19007KT 9999 R01///// R19/P2000N SCT046/// BKN062/// OVC082/// 14/14 Q1013=
202206180150 METAR ESMX 180150Z AUTO 18009KT 9999 R01///// R19/P2000N FEW044/// OVC088/// 14/14 Q1013=
202206180120 METAR ESMX 180120Z AUTO 19008KT 9999 R01///// R19/P2000N FEW046/// SCT059/// OVC092/// 14/14 Q1014=
202206180050 METAR ESMX 180050Z AUTO 19008KT 9999 R01///// R19/P2000N BKN047/// OVC090/// 14/14 Q1015=
202206180020 METAR ESMX 180020Z AUTO 19008KT 9999 R01///// R19/P2000N FEW026/// SCT051/// OVC088/// 14/14 Q1015=
202206172350 METAR ESMX 172350Z AUTO 20008KT 9999 R01///// R19/P2000N FEW066/// OVC084/// 14/14 Q1016 REDZ=
202206172320 METAR ESMX 172320Z AUTO 20007KT 9999 R01///// R19/P2000N BKN053/// OVC068/// 14/14 Q1016=
202206172250 METAR ESMX 172250Z AUTO 20007KT 9999 R01///// R19/P2000N BKN045/// OVC061/// 14/14 Q1016 REDZ=
202206172220 METAR ESMX 172220Z AUTO 20006KT 9999 R01///// R19/P2000N BKN051/// OVC066/// 14/14 Q1017=
202206172150 METAR ESMX 172150Z AUTO 22006KT 9999 R01///// R19/P2000N OVC064/// 14/13 Q1017=
202206172120 METAR ESMX 172120Z AUTO 22005KT 9999 -DZ OVC066/// 14/13 Q1017=
202206172050 METAR ESMX 172050Z AUTO 21006KT 9999 DZ FEW062/// OVC084/// 15/12 Q1018=
202206172020 METAR ESMX 172020Z 21007KT 9999 -RA NSC 16/11 Q1018=
202206171950 METAR ESMX 171950Z 21008KT 9999 -DZ NSC 16/10 Q1018=
202206171920 METAR ESMX 171920Z 23007KT CAVOK 17/10 Q1018=
202206171850 METAR ESMX 171850Z 23006KT 210V270 CAVOK 17/11 Q1018=
202206171820 METAR ESMX 171820Z 26007KT CAVOK 18/10 Q1018=
202206171750 METAR ESMX 171750Z 26009KT CAVOK 18/10 Q1018=
202206171720 METAR ESMX 171720Z 27010KT 230V290 CAVOK 19/10 Q1018=
202206171650 METAR ESMX 171650Z 27011KT CAVOK 19/10 Q1019=
202206171620 METAR ESMX 171620Z 26011KT CAVOK 20/10 Q1019=
202206171550 METAR ESMX 171550Z 26011KT 230V290 CAVOK 20/11 Q1019=
202206171520 METAR ESMX 171520Z 24011KT CAVOK 21/10 Q1018=
202206171450 METAR ESMX 171450Z 26011KT 230V290 CAVOK 22/10 Q1019=
202206171420 METAR ESMX 171420Z 26012KT 220V290 CAVOK 22/11 Q1019=
202206171350 METAR ESMX 171350Z 26013KT CAVOK 23/11 Q1019=
202206171320 METAR ESMX 171320Z 25011KT 220V300 CAVOK 23/11 Q1019=
202206171250 METAR ESMX 171250Z 26010KT 230V290 CAVOK 23/11 Q1019=
202206171220 METAR ESMX 171220Z 22012KT CAVOK 23/11 Q1019=
202206171150 METAR COR ESMX 171150Z 28010KT 250V320 CAVOK 22/10 Q1019=
202206171120 METAR ESMX 171120Z 27010KT 240V310 CAVOK 23/11 Q1019=
202206171050 METAR ESMX 171050Z 26009KT 230V290 9999 BKN049 21/11 Q1019=
202206171020 METAR ESMX 171020Z 27008KT 200V310 9999 SCT045 21/11 Q1019=
202206170950 METAR ESMX 170950Z 28009KT 250V320 9999 SCT037 21/12 Q1019=
202206170920 METAR ESMX 170920Z 28009KT 230V300 9999 FEW037 21/13 Q1019=
202206170850 METAR ESMX 170850Z 22006KT 150V310 CAVOK 20/14 Q1019=
202206170820 METAR ESMX 170820Z 23007KT CAVOK 20/14 Q1019=
202206170750 METAR ESMX 170750Z 22008KT 190V250 CAVOK 19/13 Q1019=
202206170720 METAR ESMX 170720Z 23007KT CAVOK 19/13 Q1019=
202206170650 METAR ESMX 170650Z 26006KT 230V290 CAVOK 17/13 Q1019=
202206170620 METAR ESMX 170620Z 26005KT 230V290 CAVOK 16/13 Q1019=
202206170550 METAR ESMX 170550Z 29006KT CAVOK 15/13 Q1019=
202206170520 METAR ESMX 170520Z 25005KT 200V280 CAVOK 14/13 Q1019=
202206170450 METAR ESMX 170450Z 26006KT CAVOK 13/13 Q1019=
202206170420 METAR ESMX 170420Z 24003KT CAVOK 12/11 Q1019=
202206170350 METAR ESMX 170350Z 24003KT CAVOK 11/11 Q1019=
202206170320 METAR ESMX 170320Z AUTO 24003KT 9999 NCD 10/10 Q1019=
202206170250 METAR ESMX 170250Z AUTO 25003KT 9999 NCD 09/09 Q1019=
202206170220 METAR ESMX 170220Z AUTO 24004KT 9999 NCD 10/10 Q1019=
202206170150 METAR ESMX 170150Z AUTO 25004KT 9999 NCD 10/10 Q1019=
202206170120 METAR ESMX 170120Z AUTO 26004KT 9999 NCD 10/10 Q1019=
202206170050 METAR ESMX 170050Z AUTO 27005KT 9999 NCD 11/11 Q1019=
202206170020 METAR ESMX 170020Z AUTO 28004KT 9999 FEW074/// 12/11 Q1019=
202206162350 METAR ESMX 162350Z AUTO 28005KT 9999 SCT074/// 13/11 Q1019=
202206162320 METAR ESMX 162320Z 29004KT CAVOK 13/11 Q1018=
202206162250 METAR ESMX 162250Z 28005KT CAVOK 13/11 Q1018=
202206162220 METAR ESMX 162220Z 27004KT CAVOK 13/11 Q1018=
202206162150 METAR ESMX 162150Z 27004KT CAVOK 13/11 Q1018=
202206162120 METAR ESMX 162120Z 25005KT CAVOK 13/11 Q1018=
202206162050 METAR ESMX 162050Z 25004KT CAVOK 13/11 Q1018=
202206162020 METAR ESMX 162020Z 26005KT CAVOK 14/11 Q1018=
202206161950 METAR ESMX 161950Z 26005KT CAVOK 14/12 Q1017=
202206161920 METAR ESMX 161920Z AUTO 26005KT 9999 OVC086/// 14/12 Q1017 RERA=
202206161850 METAR ESMX 161850Z 28011KT 9999 -RA FEW055 18/10 Q1017=
202206161820 METAR ESMX 161820Z 27004KT CAVOK 19/10 Q1017=
202206161750 METAR ESMX 161750Z 27006KT CAVOK 19/10 Q1016=
202206161720 METAR ESMX 161720Z 28007KT CAVOK 20/10 Q1016=
202206161650 METAR ESMX 161650Z 27006KT 230V300 CAVOK 21/10 Q1016=
202206161620 METAR ESMX 161620Z 28006KT 230V330 CAVOK 20/09 Q1016=
202206161550 METAR ESMX 161550Z 34006KT 280V020 CAVOK 22/09 Q1016=
202206161520 METAR ESMX 161520Z 28007KT 250V330 CAVOK 21/09 Q1016=
202206161450 METAR ESMX 161450Z 28009KT CAVOK 21/09 Q1016=
202206161420 METAR ESMX 161420Z 30007KT 260V010 CAVOK 20/09 Q1016=
202206161350 METAR ESMX 161350Z 28006KT 210V330 9999 BKN049 20/09 Q1016=
202206161320 METAR COR ESMX 161320Z 31007KT 260V330 9999 BKN048 19/09 Q1016=
202206161250 METAR ESMX 161250Z 28008KT 230V320 9999 BKN046 19/08 Q1016=
202206161220 METAR ESMX 161220Z 29009KT 250V320 9999 BKN044 19/10 Q1016=
202206161150 METAR ESMX 161150Z 30009KT 250V330 9999 BKN044 18/09 Q1016=
202206161120 METAR ESMX 161120Z 29008KT 260V350 9999 BKN039 19/10 Q1016=
202206161050 METAR ESMX 161050Z 26007KT 200V280 9999 BKN038 19/09 Q1016=
202206161020 METAR ESMX 161020Z 28009KT 9999 BKN033 18/09 Q1016=
202206160950 METAR ESMX 160950Z 23007KT 190V290 9999 BKN031 18/11 Q1016=
202206160920 METAR ESMX 160920Z 28007KT 240V310 9999 SCT028 BKN100 17/10 Q1016=
202206160850 METAR ESMX 160850Z 25007KT 220V290 9999 SCT027 BKN110 16/10 Q1016=
202206160820 METAR ESMX 160820Z 28007KT 240V310 9999 FEW025 BKN110 16/10 Q1016=
202206160750 METAR ESMX 160750Z 28008KT 240V300 9999 FEW018 BKN110 16/10 Q1016=
202206160720 METAR ESMX 160720Z 26007KT 9999 FEW018 BKN110 15/09 Q1016=
202206160650 METAR ESMX 160650Z 26007KT 230V290 9999 FEW018 BKN110 15/11 Q1016=
202206160620 METAR ESMX 160620Z 28005KT 250V340 9999 FEW017 BKN110 14/11 Q1016=
202206160550 METAR ESMX 160550Z 29006KT 250V320 9999 FEW015 14/11 Q1016=
202206160520 METAR ESMX 160520Z AUTO 29005KT 250V320 9999 OVC110/// 13/10 Q1016=
202206160450 METAR ESMX 160450Z AUTO 27004KT 9999 OVC110/// 13/11 Q1016=
202206160420 METAR ESMX 160420Z AUTO 26003KT 9999 OVC110/// 12/10 Q1016=
202206160350 METAR ESMX 160350Z AUTO 26004KT 9999 OVC120/// 12/10 Q1016=
202206160320 METAR ESMX 160320Z AUTO 28004KT 9999 OVC120/// 12/10 Q1016=
202206160250 METAR ESMX 160250Z AUTO 28004KT 9999 OVC120/// 12/10 Q1016=
202206160220 METAR ESMX 160220Z AUTO 26004KT 9999 OVC120/// 12/11 Q1016=
202206160150 METAR ESMX 160150Z AUTO 26004KT 9999 OVC120/// 11/11 Q1016=
202206160120 METAR ESMX 160120Z AUTO 25003KT 9999 OVC130/// 12/11 Q1017=
202206160050 METAR ESMX 160050Z AUTO 27004KT 9999 OVC130/// 12/11 Q1016=
202206160020 METAR ESMX 160020Z AUTO 26004KT 9999 OVC120/// 12/11 Q1016=
202206152350 METAR ESMX 152350Z 26003KT CAVOK 12/11 Q1016=
202206152320 METAR ESMX 152320Z 25003KT CAVOK 12/10 Q1016=
202206152250 METAR ESMX 152250Z 26004KT CAVOK 13/10 Q1017=
202206152220 METAR ESMX 152220Z 26004KT CAVOK 13/10 Q1016=
202206152150 METAR ESMX 152150Z 28005KT CAVOK 13/10 Q1017=
202206152120 METAR ESMX 152120Z 27006KT CAVOK 13/10 Q1017=
202206152050 METAR ESMX 152050Z 26007KT CAVOK 14/10 Q1017=
202206152020 METAR ESMX 152020Z 26007KT CAVOK 14/10 Q1017=
202206151950 METAR ESMX 151950Z 26007KT 230V300 CAVOK 15/10 Q1017=
202206151920 METAR ESMX 151920Z 27007KT 9999 FEW045 16/09 Q1017=
202206151850 METAR ESMX 151850Z 27006KT 9999 FEW045 17/09 Q1017=
202206151820 METAR ESMX 151820Z 26005KT CAVOK 17/09 Q1016=
202206151750 METAR ESMX 151750Z 26004KT 230V290 CAVOK 18/09 Q1016=
202206151720 METAR ESMX 151720Z 27006KT 230V300 CAVOK 19/09 Q1016=
202206151650 METAR ESMX 151650Z 26007KT 230V290 CAVOK 19/09 Q1017=
202206151620 METAR ESMX 151620Z 27007KT CAVOK 19/09 Q1017=
202206151550 METAR ESMX 151550Z 26009KT 9999 SCT045 20/09 Q1017=
202206151520 METAR ESMX 151520Z 23009KT 9999 SCT045 BKN055 19/09 Q1017=
202206151450 METAR ESMX 151450Z 23007KT 200V270 9999 FEW046 BKN061 19/09 Q1017=
202206151420 METAR ESMX 151420Z 29007KT 240V320 9999 FEW047 BKN059 19/09 Q1017=
202206151350 METAR ESMX 151350Z 26008KT 230V290 9999 FEW045 BKN063 20/09 Q1017=
202206151320 METAR ESMX 151320Z 22008KT 190V260 9999 FEW044 BKN062 20/09 Q1017=
202206151250 METAR ESMX 151250Z 26009KT 220V290 9999 SCT042 BKN057 19/09 Q1017=
202206151220 METAR ESMX 151220Z 25008KT 9999 SCT041 BKN057 19/09 Q1017=
202206151150 METAR ESMX 151150Z 24006KT 160V280 CAVOK 19/09 Q1018=
202206151120 METAR ESMX 151120Z 28007KT 230V300 9999 SCT037 BKN053 18/10 Q1018=
202206151050 METAR ESMX 151050Z 30004KT 250V330 9999 BKN040 18/10 Q1018=
202206151020 METAR ESMX 151020Z 29006KT 9999 BKN036 17/10 Q1018=
202206150950 METAR ESMX 150950Z 28007KT 9999 BKN033 17/10 Q1018=
202206150920 METAR ESMX 150920Z 28006KT 250V310 9999 BKN029 17/11 Q1018=
202206150850 METAR ESMX 150850Z 30006KT 260V350 9999 BKN026 16/11 Q1018=
202206150820 METAR ESMX 150820Z 28006KT 230V320 9999 BKN023 16/10 Q1018=
202206150750 METAR ESMX 150750Z 25006KT 210V290 9999 BKN021 16/11 Q1018=
202206150720 METAR ESMX 150720Z 27006KT 240V300 9999 BKN020 15/10 Q1017=
202206150650 METAR ESMX 150650Z 30006KT 280V340 9999 BKN017 15/11 Q1017=
202206150620 METAR ESMX 150620Z 28006KT 250V330 9999 BKN015 14/11 Q1017=
202206150550 METAR ESMX 150550Z 31007KT 270V340 9999 BKN013 14/11 Q1017=
202206150520 METAR ESMX 150520Z AUTO 26005KT 220V290 9999 OVC012/// 13/11 Q1017=
202206150450 METAR ESMX 150450Z AUTO 26006KT 9999 BKN012/// OVC130/// 12/11 Q1017=
202206150420 METAR ESMX 150420Z AUTO 25006KT 9999 OVC130/// 12/11 Q1017=
202206150350 METAR ESMX 150350Z AUTO 27004KT 9999 OVC130/// 12/11 Q1017=
202206150320 METAR ESMX 150320Z AUTO 27003KT 9999 OVC130/// 10/10 Q1017=
202206150250 METAR ESMX 150250Z AUTO 25004KT 9999 OVC130/// 10/10 Q1017=
202206150220 METAR ESMX 150220Z AUTO 25003KT 9999 BKN140/// 09/09 Q1017=
202206150150 METAR ESMX 150150Z AUTO 25004KT 9999 NCD 08/08 Q1017=
202206150120 METAR ESMX 150120Z AUTO 26003KT 9999 NCD 09/09 Q1017=
202206150050 METAR ESMX 150050Z AUTO 26003KT 9999 NCD 09/09 Q1017=
202206150020 METAR ESMX 150020Z AUTO 26004KT 9999 NCD 09/09 Q1017=
202206142350 METAR ESMX 142350Z AUTO 24004KT 9999 NCD 10/09 Q1017=
202206142320 METAR ESMX 142320Z 24004KT CAVOK 10/09 Q1017=
202206142250 METAR ESMX 142250Z 25004KT CAVOK 11/10 Q1017=
202206142220 METAR ESMX 142220Z 27004KT CAVOK 11/10 Q1017=
202206142150 METAR ESMX 142150Z 27006KT CAVOK 12/10 Q1016=
202206142120 METAR ESMX 142120Z 26007KT CAVOK 12/09 Q1017=
202206142050 METAR ESMX 142050Z 26006KT CAVOK 13/08 Q1016=
202206142020 METAR ESMX 142020Z 27006KT 230V290 CAVOK 14/08 Q1016=
202206141950 METAR ESMX 141950Z 27007KT CAVOK 15/08 Q1016=
202206141920 METAR ESMX 141920Z AUTO 27007KT 9999 NCD 16/08 Q1016=
202206141850 METAR ESMX 141850Z AUTO 26010KT 230V300 9999 NCD 16/08 Q1016=
202206141820 METAR ESMX 141820Z AUTO 23005KT 9999 NCD 17/11 Q1015=
202206141750 METAR ESMX 141750Z AUTO 00000KT 9999 NCD 18/10 Q1015=
202206141720 METAR ESMX 141720Z AUTO 03003KT 9999 FEW053/// 17/10 Q1015=
202206141650 METAR ESMX 141650Z AUTO 36004KT 9999 OVC053/// 17/10 Q1015=
202206141620 METAR ESMX 141620Z AUTO 36006KT 9999 OVC051/// 17/10 Q1015=
202206141550 METAR ESMX 141550Z AUTO 36006KT 330V030 9999 BKN051/// BKN096/// 17/10 Q1015=
202206141520 METAR ESMX 141520Z AUTO 02008KT 350V060 9999 BKN051/// BKN074/// 16/10 Q1015=
202206141450 METAR ESMX 141450Z AUTO 35011KT 290V030 9999 BKN044/// 16/09 Q1015=
202206141420 METAR ESMX 141420Z AUTO 27011KT 240V310 9999 SCT049/// 19/09 Q1014=
202206141350 METAR ESMX 141350Z 27012KT 230V320 9999 SCT047 20/09 Q1014=
202206141320 METAR COR ESMX 141320Z 26011KT 210V300 9999 SCT048 19/09 Q1014=
202206141250 METAR ESMX 141250Z 24012KT 200V260 9999 SCT045 20/09 Q1014=
202206141220 METAR ESMX 141220Z 25010KT 220V290 9999 SCT044 20/10 Q1014=
202206141150 METAR ESMX 141150Z 27010KT 240V310 9999 BKN043 20/10 Q1014=
202206141120 METAR ESMX 141120Z 27009KT 230V300 9999 BKN044 19/09 Q1014=
202206141050 METAR ESMX 141050Z 27010KT 240V300 9999 BKN044 19/10 Q1014=
202206141020 METAR ESMX 141020Z 27010KT 230V300 9999 BKN037 18/09 Q1014=
202206140950 METAR ESMX 140950Z 28011KT 9999 BKN035 19/10 Q1014=
202206140920 METAR ESMX 140920Z 24010KT 210V280 9999 BKN034 18/10 Q1014=
202206140850 METAR ESMX 140850Z 29010KT 260V320 9999 BKN030 17/10 Q1014=
202206140820 METAR ESMX 140820Z 28011KT 240V320 9999 SCT027 17/10 Q1014=
202206140750 METAR ESMX 140750Z 27011KT 9999 BKN024 16/10 Q1014=
202206140720 METAR ESMX 140720Z 27012KT 240V310 9999 BKN022 15/10 Q1014=
202206140650 METAR ESMX 140650Z 28011KT 9999 BKN020 15/10 Q1014=
202206140620 METAR ESMX 140620Z 28011KT 9999 BKN018 14/10 Q1013=
202206140550 METAR ESMX 140550Z 26011KT 240V310 9999 BKN018 13/10 Q1013=
202206140520 METAR ESMX 140520Z AUTO 26011G21KT 210V280 9999 OVC017/// 13/09 Q1013=
202206140450 METAR ESMX 140450Z AUTO 26012KT 9999 SCT016/// 13/10 Q1013=
202206140420 METAR ESMX 140420Z AUTO 26012KT 9999 FEW017/// BKN076/// 12/10 Q1013=
202206140350 METAR ESMX 140350Z AUTO 26010KT 220V280 9999 BKN018/// OVC076/// 12/10 Q1013=
202206140320 METAR ESMX 140320Z AUTO 26010KT 9999 BKN019/// OVC088/// 11/09 Q1013=
202206140250 METAR ESMX 140250Z AUTO 26010KT 9999 BKN018/// OVC096/// 11/09 Q1013=
202206140220 METAR ESMX 140220Z AUTO 25008KT 9999 OVC018/// 11/10 Q1013=
202206140150 METAR ESMX 140150Z AUTO 26008KT 9999 OVC017/// 11/10 Q1013=
202206140120 METAR ESMX 140120Z AUTO 25008KT 9999 BKN019/// 11/10 Q1013=
202206140050 METAR ESMX 140050Z AUTO 25008KT 9999 SCT076/// 10/09 Q1012=
202206140020 METAR ESMX 140020Z AUTO 25008KT 9999 BKN074/// 11/10 Q1012=
202206132350 METAR ESMX 132350Z 25010KT 9999 SCT012 11/10 Q1012=
202206132320 METAR ESMX 132320Z 24008KT 9999 SCT012 11/10 Q1012=
202206132250 METAR ESMX 132250Z 24008KT 200V280 9999 FEW013 11/10 Q1013=
202206132220 METAR ESMX 132220Z 25008KT CAVOK 11/10 Q1012=
202206132150 METAR ESMX 132150Z 24008KT CAVOK 11/10 Q1012=
202206132120 METAR ESMX 132120Z 25008KT CAVOK 11/10 Q1013=
202206132050 METAR ESMX 132050Z 25008KT CAVOK 11/10 Q1012=
202206132020 METAR ESMX 132020Z 25006KT CAVOK 12/09 Q1012=
202206131950 METAR ESMX 131950Z 25007KT CAVOK 12/09 Q1012=
202206131920 METAR ESMX 131920Z AUTO 25008KT 9999 NCD 12/08 Q1012=
202206131850 METAR ESMX 131850Z AUTO 24009KT 9999 NCD 13/08 Q1012=
202206131820 METAR ESMX 131820Z AUTO 25012KT 9999 NCD 14/07 Q1012=
202206131750 METAR ESMX 131750Z AUTO 26012KT 230V290 9999 NCD 15/07 Q1012=
202206131720 METAR ESMX 131720Z AUTO 26012KT 230V300 9999 FEW042/// 15/06 Q1011=
202206131650 METAR ESMX 131650Z AUTO 27013KT 230V290 9999 FEW040/// 15/06 Q1011=
202206131620 METAR ESMX 131620Z AUTO 27013KT 9999 FEW045/// 16/06 Q1011=
202206131550 METAR ESMX 131550Z 26012KT 230V300 9999 FEW045 SCT120 16/05 Q1011=
202206131520 METAR ESMX 131520Z 27015KT 230V300 9999 FEW047 SCT061 16/06 Q1011=
202206131450 METAR ESMX 131450Z 26013KT 230V300 9999 SCT047 BKN066 16/06 Q1011=
202206131420 METAR ESMX 131420Z 26013KT 210V300 9999 FEW045 SCT061 17/05 Q1011=
202206131350 METAR ESMX 131350Z AUTO 24012KT 200V280 9999 BKN045/// 17/07 Q1011=
202206131320 METAR ESMX 131320Z 28009KT 230V330 9999 FEW035 SCT082 16/07 Q1011=
202206131250 METAR ESMX 131250Z AUTO 29012KT 9999 FEW033/// BKN059/// BKN084/// 16/06 Q1011=
202206131220 METAR ESMX 131220Z 26012G23KT 230V290 9999 FEW035 SCT051 BKN086 15/06 Q1011=
202206131150 METAR ESMX 131150Z 27007KT 240V310 9999 FEW035 SCT051 BKN086 14/10 Q1011 RERA=
202206131120 METAR ESMX 131120Z 29008KT 9999 SCT035 BKN051 OVC068 13/08 Q1012=
202206131050 METAR ESMX 131050Z 27010KT 230V300 9999 FEW036 SCT048 BKN068 15/08 Q1011=
202206131020 METAR ESMX 131020Z 26011KT 9999 SCT032 BKN059 15/08 Q1011=
202206130950 METAR ESMX 130950Z 23010KT 200V270 9999 SCT032 BKN061 OVC200 15/10 Q1012=
202206130920 METAR ESMX 130920Z 23012KT 200V270 9999 -RA BKN032 BKN061 OVC200 13/07 Q1012=
202206130850 METAR ESMX 130850Z AUTO 23012KT 9999 FEW034/// SCT062/// 14/08 Q1011=
202206130820 METAR ESMX 130820Z 24010KT 9999 -RA BKN034 13/09 Q1011=
202206130750 METAR ESMX 130750Z 23009KT 9999 SCT028 BKN150 14/09 Q1011=
202206130720 METAR ESMX 130720Z 23009KT 200V260 9999 SCT024 BKN140 13/09 Q1012=
202206130650 METAR ESMX 130650Z 22009KT 9999 SCT024 BKN130 OVC210 13/09 Q1012=
202206130620 METAR ESMX 130620Z 24007KT 9999 SCT017 BKN025 BKN170 12/10 Q1012=
202206130550 METAR ESMX 130550Z 24007KT 200V290 9999 BKN013 BKN020 12/10 Q1012=
202206130520 METAR ESMX 130520Z 26008KT 230V300 9999 FEW011 SCT014 BKN051 12/11 Q1012=
202206130450 METAR ESMX 130450Z AUTO 27006KT 230V300 9999 FEW007/// SCT033/// BKN053/// 11/11 Q1012=
202206130420 METAR ESMX 130420Z 22007KT 9999 -RA BKN011 BKN033 OVC066 12/11 Q1012 REDZ=
202206130350 METAR ESMX 130350Z 22007KT 9999 FEW045 BKN072 11/11 Q1011=
202206130320 METAR ESMX 130320Z AUTO 23006KT 9999 SCT045/// BKN070/// 11/11 Q1011=
202206130250 METAR ESMX 130250Z AUTO 20005KT 9999 FEW022/// OVC070/// 11/11 Q1012=
202206130220 METAR ESMX 130220Z AUTO 21006KT 9999 OVC064/// 11/11 Q1012=
202206130150 METAR ESMX 130150Z AUTO 19006KT 9999 BKN066/// 11/11 Q1012=
202206130120 METAR ESMX 130120Z AUTO 22005KT 9999 OVC064/// 11/11 Q1012=
202206130050 METAR ESMX 130050Z AUTO 22005KT 9999 OVC064/// 12/11 Q1012=
202206130020 METAR ESMX 130020Z AUTO 22005KT 9999 OVC066/// 12/11 Q1012=
202206122350 METAR ESMX 122350Z AUTO 20005KT 9999 OVC066/// 12/11 Q1013=
202206122320 METAR ESMX 122320Z AUTO 22005KT 9999 SCT032/// OVC068/// 12/11 Q1013=
202206122250 METAR ESMX 122250Z AUTO 22006KT 9999 FEW036/// OVC070/// 12/11 Q1013=
202206122220 METAR ESMX 122220Z AUTO 21006KT 9999 OVC068/// 12/11 Q1013=
202206122150 METAR ESMX 122150Z AUTO 23006KT 9999 BKN064/// 11/10 Q1013=
202206122120 METAR ESMX 122120Z AUTO 22006KT 9999 NCD 11/10 Q1013=
202206122050 METAR ESMX 122050Z 23007KT CAVOK 12/10 Q1014=
202206122020 METAR ESMX 122020Z 23006KT CAVOK 11/09 Q1014=
202206121950 METAR ESMX 121950Z 21007KT CAVOK 12/10 Q1014=
202206121920 METAR ESMX 121920Z 21011KT 9999 VCSH FEW030 13/10 Q1014 RERA=
202206121850 METAR ESMX 121850Z 25008KT 230V290 9999 SCT033 15/10 Q1014=
202206121820 METAR ESMX 121820Z 24009KT 9999 SCT036 15/09 Q1014=
202206121750 METAR ESMX 121750Z 23009KT 190V260 CAVOK 16/09 Q1014=
202206121720 METAR ESMX 121720Z 23009KT CAVOK 16/09 Q1014=
202206121650 METAR ESMX 121650Z 26010KT 220V290 CAVOK 17/09 Q1014=
202206121620 METAR ESMX 121620Z 24012KT 210V280 CAVOK 17/09 Q1014=
202206121550 METAR ESMX 121550Z 26012KT 220V280 9999 FEW040 17/10 Q1014=
202206121520 METAR ESMX 121520Z 25012KT 9999 VCSH SCT042 18/10 Q1014=
202206121450 METAR ESMX 121450Z 25011KT 200V280 9999 FEW042 19/10 Q1014=
202206121420 METAR COR ESMX 121420Z 24012G24KT 190V280 9999 FEW040 19/09 Q1014=
202206121350 METAR ESMX 121350Z 24010KT 200V270 9999 FEW033 19/12 Q1015=
202206121320 METAR ESMX 121320Z 24011KT 200V260 9999 FEW030 18/13 Q1015=
202206121250 METAR ESMX 121250Z 25009KT 9999 SCT038 BKN059 17/14 Q1015=
202206121220 METAR ESMX 121220Z 25007KT 9999 SCT038 BKN059 14/13 Q1016 RERA=
202206121150 METAR ESMX 121150Z 22009KT 9999 SCT038 BKN059 16/13 Q1016=
202206121120 METAR ESMX 121120Z 23011KT 8000 RA SCT038 OVC059 14/13 Q1017=
202206121050 METAR ESMX 121050Z 30005KT 260V330 9999 -RA SCT051 BKN064 16/11 Q1016 RERA=
202206121020 METAR ESMX 121020Z 25012KT 220V280 9999 -RA FEW046CB BKN068 17/08 Q1016=
202206120950 METAR ESMX 120950Z 24014KT 9999 FEW046CB BKN068 20/09 Q1016=
202206120920 METAR ESMX 120920Z 22013KT 200V260 9999 SCT044 BKN057 BKN092 18/08 Q1017=
202206120850 METAR ESMX 120850Z 23010KT 200V260 9999 SCT045 BKN088 18/08 Q1017=
202206120820 METAR ESMX 120820Z 24011KT 210V280 9999 SCT042 19/10 Q1017=
202206120750 METAR ESMX 120750Z 24010KT 210V280 9999 SCT038 18/09 Q1017=
202206120720 METAR ESMX 120720Z 20010KT 170V230 9999 FEW028 17/10 Q1017=
202206120650 METAR ESMX 120650Z 24007KT 210V280 CAVOK 16/10 Q1017=
202206120620 METAR COR ESMX 120620Z 24008KT CAVOK 16/11 Q1017=
202206120550 METAR ESMX 120550Z 22007KT 200V260 9999 FEW010 14/12 Q1017=
202206120520 METAR ESMX 120520Z 26008KT 9999 BKN010 BKN017 13/13 Q1018=
202206120450 METAR ESMX 120450Z AUTO 21005KT 9999 FEW012/// 12/12 Q1018=
202206120420 METAR ESMX 120420Z AUTO 23006KT 1400 R01/1800N R19/P2000D BR NCD 11/11 Q1018=
202206120350 METAR ESMX 120350Z AUTO 23005KT 9999 FEW033/// 11/11 Q1017=
202206120320 METAR ESMX 120320Z AUTO 23004KT 9999 SCT037/// 10/10 Q1018=
202206120250 METAR ESMX 120250Z AUTO 23004KT 6000 FEW037/// 10/10 Q1018=
202206120220 METAR ESMX 120220Z AUTO 23005KT 8000 BR FEW180/// 10/10 Q1018=
202206120150 METAR ESMX 120150Z AUTO 23004KT 1400 R01/P2000N R19/P2000N BR FEW180/// 10/10 Q1018=
202206120120 METAR ESMX 120120Z AUTO 23005KT 9000 NCD 11/11 Q1018=
202206120050 METAR ESMX 120050Z AUTO 23005KT 9999 NCD 11/11 Q1018=
202206120020 METAR ESMX 120020Z AUTO 23006KT 9999 NCD 11/11 Q1018=
202206112350 METAR ESMX 112350Z AUTO 23006KT 9999 NCD 11/10 Q1018=
202206112320 METAR ESMX 112320Z AUTO 23005KT 9999 NCD 11/10 Q1018=
202206112250 METAR ESMX 112250Z AUTO 23004KT 9999 NCD 12/11 Q1018=
202206112220 METAR ESMX 112220Z AUTO 24004KT 9999 NCD 13/11 Q1018=
202206112150 METAR ESMX 112150Z AUTO 23005KT 9999 NCD 13/11 Q1018=
202206112120 METAR ESMX 112120Z AUTO 23005KT 9999 NCD 13/10 Q1018=
202206112050 METAR ESMX 112050Z AUTO 23004KT 9999 NCD 13/10 Q1017=
202206112020 METAR ESMX 112020Z AUTO 22004KT 9999 NCD 15/10 Q1017=
202206111950 METAR ESMX 111950Z AUTO 23004KT 9999 NCD 15/09 Q1018=
202206111920 METAR ESMX 111920Z AUTO 23005KT 9999 NCD 16/07 Q1017=
202206111850 METAR ESMX 111850Z AUTO 25007KT 9999 NCD 18/07 Q1017=
202206111820 METAR ESMX 111820Z AUTO 26006KT 9999 NCD 20/07 Q1017=
202206111750 METAR ESMX 111750Z AUTO 26007KT 9999 NCD 20/07 Q1017=
202206111720 METAR ESMX 111720Z AUTO 26007KT 9999 NCD 21/07 Q1017=
202206111650 METAR ESMX 111650Z AUTO 24008KT 190V280 9999 NCD 21/05 Q1017=
202206111620 METAR ESMX 111620Z AUTO 27009KT 230V300 9999 NCD 21/06 Q1017=
202206111550 METAR ESMX 111550Z AUTO 25011KT 210V280 9999 NCD 22/05 Q1017=
202206111520 METAR ESMX 111520Z AUTO 26011KT 220V290 9999 NCD 22/08 Q1017=
202206111450 METAR ESMX 111450Z AUTO 23011KT 9999 BKN051/// 21/10 Q1017=
202206111420 METAR ESMX 111420Z AUTO 22009KT 200V270 9999 SCT055/// 20/10 Q1017=
202206111350 METAR ESMX 111350Z AUTO 23012KT 9999 SCT049/// BKN066/// 21/10 Q1017=
202206111320 METAR ESMX 111320Z AUTO 25010KT 220V290 9999 FEW048/// BKN062/// 20/10 Q1018=
202206111250 METAR ESMX 111250Z AUTO 24012KT 9999 BKN057/// 21/10 Q1018=
202206111220 METAR ESMX 111220Z AUTO 21013KT 9999 SCT051/// BKN059/// 20/09 Q1018=
202206111150 METAR ESMX 111150Z AUTO 25012KT 9999 BKN057/// 21/09 Q1018=
202206111120 METAR ESMX 111120Z AUTO 22013KT 190V260 9999 BKN051/// 20/09 Q1018=
202206111050 METAR ESMX 111050Z AUTO 23013KT 200V270 9999 BKN047/// 21/09 Q1018=
202206111020 METAR ESMX 111020Z AUTO 24010KT 9999 SCT051/// 19/09 Q1018=
202206110950 METAR ESMX 110950Z AUTO 22012KT 190V250 9999 OVC041/// 19/11 Q1018=
202206110920 METAR ESMX 110920Z AUTO 22013KT 9999 BKN038/// OVC048/// 20/11 Q1018=
202206110850 METAR ESMX 110850Z AUTO 21011KT 170V240 9999 BKN038/// 19/12 Q1018=
202206110820 METAR ESMX 110820Z AUTO 22011KT 200V260 9999 BKN038/// BKN190/// 18/11 Q1018=
202206110750 METAR ESMX 110750Z AUTO 21010KT 9999 FEW023/// SCT030/// 17/11 Q1018=
202206110720 METAR ESMX 110720Z AUTO 20010KT 9999 BKN017/// 17/13 Q1018=
202206110650 METAR ESMX 110650Z AUTO 21011KT 9999 FEW015/// SCT023/// BKN036/// 17/13 Q1018=
202206110620 METAR ESMX 110620Z AUTO 20011KT 9999 BKN012/// BKN034/// 17/14 Q1018=
202206110550 METAR ESMX 110550Z AUTO 22011KT 190V250 9999 BKN012/// OVC015/// 16/14 Q1018=
202206110520 METAR ESMX 110520Z AUTO 20010KT 9999 SCT015/// 16/14 Q1018=
202206110450 METAR ESMX 110450Z AUTO 19006KT 9999 NCD 15/13 Q1018=
202206110420 METAR ESMX 110420Z AUTO 21006KT 9999 SCT055/// 13/12 Q1018=
202206110350 METAR ESMX 110350Z AUTO 21004KT 9999 FEW037/// SCT059/// 12/11 Q1018=
202206110320 METAR ESMX 110320Z AUTO 21005KT 9999 FEW021/// BKN036/// 12/11 Q1018=
202206110250 METAR ESMX 110250Z AUTO 22004KT 9999 SCT026/// BKN035/// BKN041/// 12/11 Q1018=
202206110220 METAR ESMX 110220Z AUTO 22006KT 9999 NCD 11/10 Q1018=
202206110150 METAR ESMX 110150Z AUTO 23005KT 9999 NCD 11/10 Q1018=
202206110120 METAR ESMX 110120Z AUTO 19004KT 9999 FEW066/// 11/11 Q1018=
202206110050 METAR ESMX 110050Z AUTO 19004KT 9999 BKN062/// 12/11 Q1018=
202206110020 METAR ESMX 110020Z AUTO 23005KT 9999 OVC057/// 13/11 Q1018=
202206102350 METAR ESMX 102350Z AUTO 23005KT 9999 OVC057/// 13/11 Q1019=
202206102320 METAR ESMX 102320Z AUTO 19004KT 9999 OVC059/// 13/11 Q1019=
202206102250 METAR ESMX 102250Z AUTO 23004KT 9999 OVC057/// 12/11 Q1019=
202206102220 METAR ESMX 102220Z AUTO 23004KT 9999 FEW048/// BKN059/// 10/10 Q1019=
202206102150 METAR ESMX 102150Z AUTO 23003KT 9999 FEW051/// 10/10 Q1019=
202206102120 METAR ESMX 102120Z AUTO 23003KT 9999 SCT053/// 11/10 Q1019=
202206102050 METAR ESMX 102050Z AUTO 23004KT 9999 BKN049/// 10/10 Q1019=
202206102020 METAR ESMX 102020Z AUTO 24003KT 9999 BKN045/// 10/10 Q1019=
202206101950 METAR ESMX 101950Z AUTO 17001KT 9999 NCD 12/10 Q1019=
202206101920 METAR ESMX 101920Z AUTO 22002KT 9999 NCD 14/10 Q1019=
202206101850 METAR ESMX 101850Z AUTO 26003KT 9999 NCD 15/10 Q1019=
202206101820 METAR ESMX 101820Z 26006KT 9999 SCT029 15/10 Q1019=
202206101750 METAR ESMX 101750Z 26008KT 230V300 9999 SCT028 16/10 Q1019=
202206101720 METAR ESMX 101720Z 25006KT 230V290 9999 SCT028 17/11 Q1019=
202206101650 METAR ESMX 101650Z 27007KT 220V300 9999 BKN028 16/10 Q1019=
202206101620 METAR ESMX 101620Z 24010KT 190V260 9999 BKN029 16/10 Q1019=
202206101550 METAR ESMX 101550Z 28009KT 9999 BKN031 16/12 Q1019=
202206101520 METAR ESMX 101520Z AUTO 26008KT 9999 FEW023/// OVC031/// 17/11 Q1019=
202206101450 METAR ESMX 101450Z 28009KT 250V310 9999 SCT020 BKN027 17/11 Q1019=
202206101420 METAR ESMX 101420Z 26010KT 230V290 9999 BKN018 15/12 Q1019=
202206101350 METAR ESMX 101350Z AUTO 26009KT 9999 OVC021/// 16/12 Q1019=
202206101320 METAR ESMX 101320Z 29011KT 9999 FEW017 BKN026 BKN033 16/12 Q1018=
202206101250 METAR ESMX 101250Z 27010KT 240V300 9999 BKN019 17/13 Q1018=
202206101220 METAR ESMX 101220Z 26008KT 230V300 9999 OVC036 16/12 Q1018=
202206101150 METAR ESMX 101150Z AUTO 26008KT 210V300 9999 FEW021/// OVC037/// 17/12 Q1018=
202206101120 METAR ESMX 101120Z AUTO 25010KT 230V290 9999 SCT020/// OVC036/// 18/12 Q1018=
202206101050 METAR ESMX 101050Z 26007KT 230V300 9999 FEW017 BKN029 16/13 Q1018=
202206101020 METAR ESMX 101020Z 27008KT 240V340 9999 SCT019 BKN030 16/12 Q1018=
202206100950 METAR ESMX 100950Z 28009KT 9999 SCT019 BKN032 16/12 Q1018=
202206100920 METAR ESMX 100920Z 24008KT 9999 SCT019 BKN037 17/13 Q1017=
202206100850 METAR ESMX 100850Z 24009KT 210V280 9999 SCT022 BKN039 17/13 Q1017=
202206100820 METAR ESMX 100820Z 27008KT 250V320 9999 SCT022 BKN039 17/12 Q1017=
202206100750 METAR ESMX 100750Z 25008KT 210V290 9999 SCT019 BKN036 17/12 Q1017=
202206100720 METAR ESMX 100720Z 26009KT 230V290 9999 BKN016 17/12 Q1016=
202206100650 METAR ESMX 100650Z 26008KT 230V290 9999 BKN013 17/14 Q1016=
202206100620 METAR ESMX 100620Z 24007KT 9999 BKN011 16/14 Q1016=
202206100550 METAR ESMX 100550Z 23007KT 9999 BKN011 16/14 Q1016=
202206100520 METAR ESMX 100520Z 22006KT 190V270 9999 SCT009 BKN020 15/14 Q1016=
202206100450 METAR ESMX 100450Z 22005KT 9999 BKN007 15/14 Q1016=
202206100420 METAR ESMX 100420Z 21004KT 9999 FEW012 BKN017 15/14 Q1016=
202206100350 METAR COR ESMX 100350Z 22003KT 170V260 8000 BR SCT004 BKN012 14/14 Q1016=
202206100320 METAR ESMX 100320Z AUTO 26006KT 230V290 4300 OVC002/// 13/13 Q1015=
202206100250 METAR ESMX 100250Z AUTO 27006KT 1200 R01/P2000N R19/1500U OVC001/// 13/13 Q1015=
202206100220 METAR ESMX 100220Z AUTO 26006KT 7000 BKN003/// OVC005/// 13/13 Q1015=
202206100150 METAR ESMX 100150Z AUTO 24004KT 5000 FEW004/// SCT033/// 12/12 Q1015=
202206100120 METAR ESMX 100120Z AUTO 19004KT 9999 NCD 12/12 Q1015=
202206100050 METAR ESMX 100050Z AUTO 19003KT 9999 FEW008/// 12/12 Q1014=
202206100020 METAR ESMX 100020Z AUTO 19003KT 9999 NCD 13/13 Q1014=
202206092350 METAR ESMX 092350Z AUTO 19003KT 9999 FEW100/// 13/12 Q1014=
202206092320 METAR ESMX 092320Z 20004KT CAVOK 14/13 Q1014=
202206092250 METAR ESMX 092250Z 18004KT CAVOK 16/13 Q1014=
202206092220 METAR ESMX 092220Z 19004KT CAVOK 16/13 Q1014=
202206092150 METAR ESMX 092150Z 19004KT CAVOK 16/13 Q1014=
202206092120 METAR ESMX 092120Z 19005KT CAVOK 16/13 Q1014=
202206092050 METAR ESMX 092050Z 19005KT CAVOK 16/13 Q1014=
202206092020 METAR ESMX 092020Z 19004KT CAVOK 16/13 Q1013=
202206091950 METAR ESMX 091950Z 19006KT CAVOK 16/13 Q1013=
202206091920 METAR ESMX 091920Z AUTO 19004KT 9999 NCD 17/14 Q1013=
202206091850 METAR ESMX 091850Z AUTO 18005KT 9999 NCD 18/14 Q1013=
202206091820 METAR ESMX 091820Z 19004KT CAVOK 19/14 Q1013=
202206091750 METAR ESMX 091750Z 19005KT CAVOK 20/13 Q1012=
202206091720 METAR ESMX 091720Z 18006KT CAVOK 20/13 Q1012=
202206091650 METAR ESMX 091650Z 18006KT CAVOK 21/12 Q1012=
202206091620 METAR ESMX 091620Z 19006KT CAVOK 21/13 Q1012=
202206091550 METAR ESMX 091550Z 20007KT CAVOK 21/14 Q1012=
202206091520 METAR ESMX 091520Z 22007KT 9999 FEW049 BKN078 21/13 Q1012=
202206091450 METAR ESMX 091450Z 18004KT 9999 FEW042 BKN078 21/13 Q1011=
202206091420 METAR ESMX 091420Z 17005KT 9999 FEW044 BKN084 21/13 Q1011=
202206091350 METAR ESMX 091350Z 17004KT 9999 FEW044 BKN084 21/13 Q1011=
202206091320 METAR ESMX 091320Z 18004KT 120V210 9999 FEW049 SCT068 BKN086 21/13 Q1011=
202206091250 METAR ESMX 091250Z 16005KT 070V190 9999 FEW048 SCT070 BKN098 22/11 Q1011=
202206091220 METAR ESMX 091220Z 17003KT CAVOK 22/11 Q1011=
202206091150 METAR ESMX 091150Z 18006KT 140V220 CAVOK 22/10 Q1011=
202206091120 METAR ESMX 091120Z 13006KT 070V190 CAVOK 23/11 Q1011=
202206091050 METAR ESMX 091050Z AUTO 14006KT 9999 FEW043/// 21/11 Q1011=
202206091020 METAR ESMX 091020Z 36004KT 320V070 CAVOK 22/11 Q1011=
202206090950 METAR ESMX 090950Z 02003KT CAVOK 21/12 Q1011=
202206090920 METAR ESMX 090920Z 02005KT 350V060 CAVOK 20/11 Q1010=
202206090850 METAR ESMX 090850Z VRB03KT CAVOK 19/12 Q1010=
202206090820 METAR ESMX 090820Z 02005KT CAVOK 18/11 Q1010=
202206090750 METAR ESMX 090750Z VRB02KT CAVOK 18/11 Q1010=
202206090720 METAR ESMX 090720Z VRB04KT CAVOK 17/11 Q1010=
202206090650 METAR ESMX 090650Z 23002KT CAVOK 16/11 Q1010=
202206090620 METAR ESMX 090620Z 23003KT CAVOK 16/11 Q1010=
202206090550 METAR ESMX 090550Z 23003KT CAVOK 14/11 Q1010=
202206090520 METAR ESMX 090520Z VRB03KT CAVOK 13/11 Q1010=
202206090450 METAR ESMX 090450Z AUTO VRB01KT 9999 FEW190/// 12/11 Q1010=
202206090420 METAR ESMX 090420Z AUTO 00000KT 9999 NCD 11/11 Q1009=
202206090350 METAR ESMX 090350Z AUTO 00000KT 9999 FEW001/// 08/08 Q1009=
202206090320 METAR ESMX 090320Z AUTO 00000KT 9999 NCD 07/07 Q1009=
202206090250 METAR ESMX 090250Z AUTO 00000KT 9000 NCD 07/07 Q1009=
202206090220 METAR ESMX 090220Z AUTO 00000KT 9999 NCD 07/07 Q1009=
202206090150 METAR ESMX 090150Z AUTO 00000KT 9999 NCD 06/06 Q1009=
202206090120 METAR ESMX 090120Z AUTO 20001KT 3000 NCD 07/07 Q1009=
202206090050 METAR ESMX 090050Z AUTO 00000KT 0500 R01/P2000N R19/1400N NCD 07/07 Q1009=
202206090020 METAR ESMX 090020Z AUTO 23002KT 9999 NCD 08/08 Q1009=
202206082350 METAR ESMX 082350Z 00000KT 9999 BKN030 09/09 Q1009=
202206082320 METAR ESMX 082320Z 23003KT 9999 BKN031 10/10 Q1009=
202206082250 METAR ESMX 082250Z 23003KT 9999 BKN030 09/09 Q1009=
202206082220 METAR ESMX 082220Z 23004KT 9999 FEW029 09/09 Q1009=
202206082150 METAR ESMX 082150Z 18002KT 9999 MIFG NSC 09/09 Q1009=
202206082120 METAR ESMX 082120Z 23003KT 9999 MIFG NSC 09/09 Q1009=
202206082050 METAR ESMX 082050Z 23003KT 9999 MIFG NSC 10/09 Q1008=
202206082020 METAR ESMX 082020Z 17003KT CAVOK 11/10 Q1008=
202206081950 METAR ESMX 081950Z 20002KT CAVOK 12/10 Q1008=
202206081920 METAR ESMX 081920Z 24003KT CAVOK 14/10 Q1008=
202206081850 METAR ESMX 081850Z 28005KT 9999 FEW026 15/11 Q1008=
202206081820 METAR ESMX 081820Z 25006KT 200V280 9999 FEW024 16/11 Q1007=
202206081750 METAR ESMX 081750Z 25006KT 200V280 9999 FEW027 SCT051 15/11 Q1007=
202206081720 METAR ESMX 081720Z 27006KT 9999 FEW027 BKN051 16/11 Q1007=
202206081650 METAR ESMX 081650Z 27007KT 9999 FEW031 BKN057 16/11 Q1007=
202206081620 METAR ESMX 081620Z 23007KT 200V290 9999 FEW033 BKN061 17/11 Q1007=
202206081550 METAR ESMX 081550Z 23008KT 200V260 9999 FEW032 BKN053 OVC072 17/11 Q1007=
202206081520 METAR ESMX 081520Z AUTO 22007KT 9999 FEW043/// BKN057/// BKN072/// 17/11 Q1007=
202206081450 METAR ESMX 081450Z AUTO 24006KT 9999 BKN057/// 17/11 Q1007=
202206081350 METAR ESMX 081350Z AUTO 28007KT 230V320 9999 OVC061/// 17/12 Q1007=
202206081320 METAR ESMX 081320Z 23009KT 9999 SCT043 BKN061 16/11 Q1007=
202206081250 METAR ESMX 081250Z AUTO 21008KT 9999 BKN046/// OVC064/// 16/11 Q1007=
202206081220 METAR ESMX 081220Z 23007KT 9999 BKN025 BKN059 16/11 Q1007=
202206081150 METAR ESMX 081150Z 21010KT 9999 SCT023 BKN030 BKN046 17/11 Q1007=
202206081120 METAR ESMX 081120Z 19010KT 9999 BKN019 SCT025CB BKN041 16/11 Q1007=
202206081050 METAR ESMX 081050Z 20012KT 9999 FEW011 BKN015 OVC041 16/12 Q1007=
202206081020 METAR ESMX 081020Z 19010KT 9999 BKN011 OVC014 13/12 Q1008=
202206080950 METAR ESMX 080950Z 19012KT 5000 FEW003 SCT015 BKN021 13/12 Q1008=
202206080920 METAR ESMX 080920Z 17011KT 9999 SCT015 BKN026 BKN037 15/11 Q1007=
202206080850 METAR ESMX 080850Z 19010KT 9999 BKN011 OVC017 14/11 Q1007=
202206080820 METAR ESMX 080820Z 19010KT 9999 BKN014 BKN025 OVC033 13/11 Q1007=
202206080750 METAR ESMX 080750Z 19011KT 9999 SCT017 BKN025 BKN036 13/10 Q1007=
202206080720 METAR ESMX 080720Z 19011KT 9999 SCT016 BKN021 OVC037 14/11 Q1007=
202206080650 METAR ESMX 080650Z 18011KT 9999 SCT015 BKN019 BKN023 13/11 Q1007=
202206080620 METAR ESMX 080620Z 19010KT 9999 SCT014 BKN023 OVC028 13/10 Q1007=
202206080550 METAR ESMX 080550Z 19011KT 150V210 9999 BKN012 OVC021 13/10 Q1007=
202206080520 METAR ESMX 080520Z AUTO 18009KT 9999 BKN011/// OVC025/// 13/11 Q1007=
202206080450 METAR ESMX 080450Z AUTO 19010KT 9999 BKN009/// OVC025/// 12/11 Q1007=
202206080420 METAR ESMX 080420Z AUTO 19008KT 9999 BKN009/// OVC029/// 12/11 Q1007=
202206080350 METAR ESMX 080350Z AUTO 18008KT 9999 FEW010/// OVC032/// 11/11 Q1007=
202206080320 METAR ESMX 080320Z AUTO 18007KT 9999 SCT010/// BKN034/// 11/11 Q1007=
202206080250 METAR ESMX 080250Z AUTO 19008KT 9999 BKN010/// 11/10 Q1007=
202206080220 METAR ESMX 080220Z AUTO 18006KT 9999 SCT011/// BKN017/// 12/11 Q1007=
202206080150 METAR ESMX 080150Z AUTO 18007KT 9999 OVC057/// 12/11 Q1007=
202206080120 METAR ESMX 080120Z AUTO 18008KT 9999 OVC059/// 12/11 Q1007=
202206080050 METAR ESMX 080050Z AUTO 17006KT 9999 BKN061/// 12/11 Q1008=
202206080020 METAR ESMX 080020Z AUTO 18007KT 9999 BKN061/// 13/11 Q1008=
202206072350 METAR ESMX 072350Z 17007KT CAVOK 13/11 Q1008=
202206072320 METAR ESMX 072320Z 16005KT 120V190 9999 BKN049 14/11 Q1008=
202206072250 METAR ESMX 072250Z 16005KT 9999 FEW049 14/12 Q1008=
202206072220 METAR ESMX 072220Z 16006KT CAVOK 14/12 Q1008=
202206072150 METAR ESMX 072150Z 16005KT CAVOK 14/12 Q1009=
202206072120 METAR ESMX 072120Z 16005KT CAVOK 14/12 Q1009=
202206072050 METAR ESMX 072050Z 17005KT CAVOK 14/12 Q1009=
202206072020 METAR ESMX 072020Z 17008KT CAVOK 14/13 Q1009=
202206071950 METAR COR ESMX 071950Z 18008KT -RA BKN060 16/13 Q1009=
202206071920 METAR ESMX 071920Z 17004KT CAVOK 15/13 Q1009=
202206071850 METAR ESMX 071850Z AUTO 21003KT 9999 OVC076/// 15/14 Q1009=
202206071820 METAR ESMX 071820Z AUTO 19004KT 9999 FEW042/// OVC070/// 15/13 Q1009 REDZ=
202206071750 METAR ESMX 071750Z AUTO 22008KT 9999 BKN043/// OVC066/// 18/11 Q1009=
202206071720 METAR ESMX 071720Z AUTO 18006KT 9999 BKN086/// 19/11 Q1009=
202206071650 METAR ESMX 071650Z AUTO 22011KT 9999 NCD 19/11 Q1009=
202206071620 METAR ESMX 071620Z AUTO 19013KT 9999 NCD 19/10 Q1009=
202206071550 METAR ESMX 071550Z AUTO 20012KT 9999 SCT046/// 21/10 Q1009=
202206071520 METAR ESMX 071520Z AUTO 17008KT 9999 FEW041/// 20/12 Q1009=
202206071450 METAR ESMX 071450Z AUTO 18013KT 9999 FEW086/// 21/12 Q1009=
202206071420 METAR ESMX 071420Z AUTO 17009KT 140V210 9999 FEW035/// BKN044/// 21/12 Q1009=
202206071350 METAR ESMX 071350Z AUTO 13005KT 080V190 9999 FEW033/// SCT043/// BKN190/// 20/13 Q1009=
202206071320 METAR ESMX 071320Z 10004KT 050V170 9999 FEW034CB BKN057 20/13 Q1010=
202206071250 METAR ESMX 071250Z 13004KT 080V160 9999 FEW030CB BKN046 20/13 Q1010=
202206071220 METAR ESMX 071220Z 16005KT 110V200 9999 FEW040CB BKN048 18/13 Q1011=
202206071150 METAR ESMX 071150Z 14006KT 9999 FEW018 SCT031 BKN066 18/14 Q1011=
202206071120 METAR ESMX 071120Z 19007KT 9999 SCT036 BKN061 18/14 Q1011=
202206071050 METAR ESMX 071050Z 04004KT 360V100 9999 SCT030 BKN066 19/12 Q1011=
202206071020 METAR ESMX 071020Z 34005KT 9999 SCT034 BKN076 20/14 Q1011=
202206070950 METAR ESMX 070950Z 00000KT 9999 FEW024 SCT039 BKN060 18/14 Q1011=
202206070920 METAR ESMX 070920Z 02003KT 340V060 9999 SCT020 BKN086 19/14 Q1011=
202206070850 METAR ESMX 070850Z 35004KT 330V030 9999 SCT017 BKN098 18/13 Q1011=
202206070820 METAR ESMX 070820Z 01004KT 9999 BKN016 18/14 Q1012=
202206070750 METAR COR ESMX 070750Z VRB02KT 9999 BKN014 17/13 Q1012=
202206070720 METAR ESMX 070720Z AUTO VRB02KT 9999 BKN094/// 16/13 Q1012=
202206070650 METAR ESMX 070650Z AUTO 11003KT 9999 OVC098/// 16/14 Q1012=
202206070620 METAR ESMX 070620Z AUTO 11002KT 9999 FEW005/// BKN014/// OVC098/// 15/13 Q1012=
202206070550 METAR ESMX 070550Z AUTO 19002KT 9999 OVC005/// 14/13 Q1012=
202206070520 METAR ESMX 070520Z AUTO VRB02KT 9999 OVC005/// 13/13 Q1012=
202206070450 METAR ESMX 070450Z AUTO VRB02KT 9999 OVC003/// 13/13 Q1012=
202206070420 METAR ESMX 070420Z AUTO VRB03KT 8000 BR OVC003/// 13/13 Q1012=
202206070350 METAR ESMX 070350Z AUTO 06004KT 020V120 6000 BR OVC002/// 13/13 Q1012=
202206070320 METAR ESMX 070320Z AUTO VRB02KT 3700 BR OVC002/// 13/13 Q1012=
202206070250 METAR ESMX 070250Z AUTO 01003KT 330V030 4500 BR OVC001/// 13/13 Q1012=
202206070220 METAR ESMX 070220Z AUTO 12001KT 3800 BR OVC001/// 13/13 Q1012=
202206070150 METAR ESMX 070150Z AUTO 00000KT 2600 BR OVC001/// 13/13 Q1012=
202206070120 METAR ESMX 070120Z AUTO 12003KT 5000 BR OVC002/// 13/13 Q1013=
202206070050 METAR ESMX 070050Z AUTO 17004KT 130V200 5000 BR OVC002/// 13/13 Q1013=
202206070020 METAR ESMX 070020Z AUTO 11002KT 7000 BR OVC002/// 13/13 Q1013=
202206062350 METAR ESMX 062350Z AUTO 13003KT 8000 BR OVC003/// 13/13 Q1013=
202206062320 METAR ESMX 062320Z AUTO VRB02KT 9000 OVC003/// 13/13 Q1014=
202206062250 METAR ESMX 062250Z AUTO VRB03KT 7000 BR OVC004/// 13/13 Q1014=
202206062220 METAR ESMX 062220Z AUTO 13004KT 8000 BR BKN005/// OVC008/// 14/13 Q1014=
202206062150 METAR ESMX 062150Z AUTO 13005KT 9999 OVC009/// 14/13 Q1014=
202206062120 METAR ESMX 062120Z AUTO 11004KT 9999 OVC010/// 14/13 Q1014=
202206062050 METAR ESMX 062050Z AUTO 11003KT 060V160 9999 OVC012/// 14/12 Q1014=
202206062020 METAR ESMX 062020Z AUTO 12004KT 9999 OVC014/// 14/12 Q1014=
202206061950 METAR ESMX 061950Z AUTO 11004KT 060V130 9999 OVC015/// 15/13 Q1014=
202206061920 METAR ESMX 061920Z AUTO 10003KT 040V170 9999 FEW018/// OVC028/// 15/13 Q1014=
202206061850 METAR ESMX 061850Z AUTO 09004KT 040V110 9999 FEW019/// OVC035/// 15/13 Q1014=
202206061820 METAR ESMX 061820Z AUTO 09003KT 030V110 9999 BKN020/// BKN028/// OVC036/// 15/13 Q1014 REDZ=
202206061750 METAR ESMX 061750Z AUTO 09005KT 030V110 9999 -DZ OVC038/// 15/12 Q1014=
202206061720 METAR ESMX 061720Z AUTO VRB03KT 9999 -RA OVC046/// 16/12 Q1015=
202206061650 METAR ESMX 061650Z AUTO 09005KT 050V120 9999 FEW034/// OVC055/// 16/12 Q1015=
202206061620 METAR ESMX 061620Z AUTO 11003KT 9999 -DZ OVC064/// 16/12 Q1015=
202206061550 METAR ESMX 061550Z 11004KT 040V210 9999 -RA SCT055 BKN072 17/11 Q1015=
202206061520 METAR ESMX 061520Z 10005KT 050V160 CAVOK 17/11 Q1015=
202206061450 METAR ESMX 061450Z 11006KT 060V130 9999 -DZ FEW053 OVC080 17/11 Q1015=
202206061420 METAR ESMX 061420Z 14008KT 090V170 9999 -DZ OVC076 18/10 Q1015=
202206061350 METAR ESMX 061350Z 12008KT 050V160 CAVOK 19/10 Q1015=
202206061320 METAR ESMX 061320Z 12006KT CAVOK 20/09 Q1015=
202206061250 METAR ESMX 061250Z 14006KT 080V170 9999 BKN140 BKN180 20/10 Q1015=
202206061220 METAR ESMX 061220Z 12009KT 080V160 CAVOK 20/10 Q1015=
202206061150 METAR ESMX 061150Z 12007KT 060V170 CAVOK 21/10 Q1015=
202206061120 METAR ESMX 061120Z 12008KT 080V160 CAVOK 21/10 Q1015=
202206061050 METAR ESMX 061050Z 13007KT 090V150 CAVOK 21/10 Q1016=
202206061020 METAR ESMX 061020Z 13008KT 080V160 9999 SCT190 20/09 Q1016=
202206060950 METAR ESMX 060950Z AUTO 12007KT 070V160 9999 FEW140/// SCT200/// 21/11 Q1016=
202206060920 METAR ESMX 060920Z AUTO 13007KT 080V160 9999 FEW150/// SCT200/// 20/11 Q1016=
202206060850 METAR ESMX 060850Z AUTO 11007KT 060V150 9999 SCT170/// 19/10 Q1016=
202206060820 METAR ESMX 060820Z AUTO 13007KT 080V160 9999 SCT170/// BKN220/// 19/11 Q1016=
202206060750 METAR ESMX 060750Z AUTO 11007KT 060V160 9999 SCT180/// 18/11 Q1016=
202206060720 METAR ESMX 060720Z 12007KT 060V160 CAVOK 19/11 Q1016=
202206060650 METAR ESMX 060650Z 11005KT 040V130 CAVOK 17/10 Q1017=
202206060620 METAR ESMX 060620Z 11005KT 040V160 CAVOK 16/08 Q1017=
202206060550 METAR ESMX 060550Z 10004KT CAVOK 16/08 Q1017=
202206060520 METAR ESMX 060520Z VRB03KT CAVOK 14/08 Q1017=
202206060450 METAR ESMX 060450Z VRB03KT CAVOK 13/09 Q1017=
202206060420 METAR ESMX 060420Z VRB03KT CAVOK 12/10 Q1017=
202206060350 METAR ESMX 060350Z 16002KT CAVOK 11/10 Q1017=
202206060320 METAR ESMX 060320Z AUTO 00000KT 9999 NCD 10/09 Q1017=
202206060250 METAR ESMX 060250Z AUTO 00000KT 9999 NCD 09/09 Q1017=
202206060220 METAR ESMX 060220Z AUTO 16002KT 9999 NCD 11/10 Q1017=
202206060150 METAR ESMX 060150Z AUTO 16004KT 9999 NCD 11/10 Q1017=
202206060120 METAR ESMX 060120Z AUTO 18005KT 9999 NCD 09/08 Q1018=
202206060050 METAR ESMX 060050Z AUTO 18004KT 9999 NCD 10/09 Q1018=
202206060020 METAR ESMX 060020Z AUTO 18004KT 9999 NCD 11/10 Q1018=
202206052350 METAR ESMX 052350Z AUTO 18003KT 9999 NCD 10/09 Q1018=
202206052320 METAR ESMX 052320Z AUTO 00000KT 9999 NCD 11/09 Q1018=
202206052250 METAR ESMX 052250Z AUTO 18003KT 9999 NCD 11/08 Q1018=
202206052220 METAR ESMX 052220Z AUTO 18004KT 9999 NCD 12/08 Q1018=
202206052150 METAR ESMX 052150Z AUTO 17005KT 9999 NCD 14/08 Q1018=
202206052120 METAR ESMX 052120Z AUTO 18006KT 9999 NCD 15/07 Q1018=
202206052050 METAR ESMX 052050Z AUTO 17005KT 9999 NCD 17/07 Q1018=
202206052020 METAR ESMX 052020Z AUTO 18006KT 9999 NCD 17/08 Q1018=
202206051950 METAR ESMX 051950Z 19007KT CAVOK 18/09 Q1018=
202206051920 METAR ESMX 051920Z 19007KT CAVOK 19/09 Q1018=
202206051850 METAR ESMX 051850Z 19007KT CAVOK 20/10 Q1018=
202206051820 METAR ESMX 051820Z 17008KT CAVOK 21/10 Q1017=
202206051750 METAR ESMX 051750Z 18008KT CAVOK 22/10 Q1017=
202206051720 METAR ESMX 051720Z 18005KT 150V210 CAVOK 23/07 Q1017=
202206051650 METAR ESMX 051650Z 21006KT CAVOK 23/07 Q1017=
202206051620 METAR ESMX 051620Z 21007KT 180V250 CAVOK 23/07 Q1018=
202206051550 METAR ESMX 051550Z VRB03KT CAVOK 24/07 Q1018=
202206051520 METAR ESMX 051520Z 25007KT CAVOK 23/08 Q1018=
202206051450 METAR ESMX 051450Z 28004KT 240V300 CAVOK 24/08 Q1018=
202206051420 METAR ESMX 051420Z 23004KT 120V290 CAVOK 23/07 Q1018=
202206051350 METAR ESMX 051350Z 22005KT 170V280 CAVOK 23/09 Q1019=
202206051320 METAR ESMX 051320Z 19006KT 120V250 CAVOK 23/08 Q1019=
202206051250 METAR ESMX 051250Z 23005KT 130V280 CAVOK 23/08 Q1019=
202206051220 METAR ESMX 051220Z 25005KT 190V320 CAVOK 23/08 Q1019=
202206051150 METAR ESMX 051150Z 19005KT 150V250 CAVOK 23/09 Q1020=
202206051120 METAR ESMX 051120Z 20006KT 120V250 CAVOK 22/08 Q1020=
202206051050 METAR ESMX 051050Z 24007KT 190V320 CAVOK 22/09 Q1021=
202206051020 METAR ESMX 051020Z 23008KT CAVOK 21/08 Q1021=
202206050950 METAR ESMX 050950Z 20009KT 140V220 CAVOK 21/09 Q1021=
202206050920 METAR ESMX 050920Z 22007KT 170V270 CAVOK 21/09 Q1021=
202206050850 METAR ESMX 050850Z 20009KT 170V240 CAVOK 20/10 Q1021=
202206050820 METAR ESMX 050820Z 19007KT 150V230 CAVOK 19/09 Q1021=
202206050750 METAR ESMX 050750Z 22004KT 170V260 CAVOK 18/08 Q1021=
202206050720 METAR ESMX 050720Z 22005KT CAVOK 18/08 Q1021=
202206050650 METAR ESMX 050650Z 21003KT 090V260 CAVOK 17/10 Q1021=
202206050620 METAR ESMX 050620Z 28003KT 250V310 CAVOK 16/09 Q1021=
202206050550 METAR ESMX 050550Z AUTO 23003KT 9999 NCD 16/10 Q1021=
202206050520 METAR ESMX 050520Z AUTO VRB02KT 9999 NCD 14/10 Q1021=
202206050450 METAR ESMX 050450Z AUTO VRB03KT 9999 NCD 12/11 Q1022=
202206050420 METAR ESMX 050420Z AUTO 24003KT 9999 NCD 11/10 Q1022=
202206050350 METAR ESMX 050350Z AUTO 19003KT 9999 NCD 10/10 Q1022=
202206050320 METAR ESMX 050320Z AUTO 19001KT 9999 NCD 06/06 Q1022=
202206050250 METAR ESMX 050250Z AUTO 19002KT 9999 NCD 06/06 Q1021=
202206050220 METAR ESMX 050220Z AUTO 17002KT 9999 NCD 09/09 Q1022=
202206050150 METAR ESMX 050150Z AUTO 26003KT 9999 NCD 09/09 Q1022=
202206050120 METAR ESMX 050120Z AUTO 18003KT 9999 NCD 09/09 Q1022=
202206050050 METAR ESMX 050050Z AUTO 17002KT 9999 NCD 10/09 Q1022=
202206050020 METAR ESMX 050020Z AUTO 25002KT 9999 NCD 10/09 Q1022=
202206042350 METAR ESMX 042350Z AUTO 21004KT 9999 NCD 09/09 Q1022=
202206042320 METAR ESMX 042320Z AUTO VRB02KT 9999 NCD 10/07 Q1022=
202206042250 METAR ESMX 042250Z AUTO VRB03KT 9999 NCD 12/09 Q1022=
202206042220 METAR ESMX 042220Z AUTO 28004KT 250V310 9999 NCD 13/09 Q1022=
202206042150 METAR ESMX 042150Z AUTO 27005KT 9999 NCD 13/10 Q1022=
202206042120 METAR ESMX 042120Z AUTO 26005KT 9999 NCD 14/10 Q1021=
202206042050 METAR ESMX 042050Z AUTO 26004KT 9999 NCD 14/11 Q1021=
202206042020 METAR ESMX 042020Z AUTO 27005KT 9999 NCD 15/11 Q1021=
202206041950 METAR ESMX 041950Z AUTO 25005KT 9999 NCD 16/10 Q1021=
202206041920 METAR ESMX 041920Z AUTO 25002KT 9999 NCD 16/10 Q1021=
202206041850 METAR ESMX 041850Z AUTO 25004KT 9999 NCD 18/09 Q1020=
202206041820 METAR ESMX 041820Z AUTO 26003KT 9999 NCD 20/09 Q1020=
202206041750 METAR ESMX 041750Z AUTO VRB03KT 9999 NCD 20/08 Q1020=
202206041720 METAR ESMX 041720Z AUTO 27006KT 9999 NCD 21/09 Q1020=
202206041650 METAR ESMX 041650Z AUTO 30004KT 9999 FEW070/// 21/08 Q1020=
202206041620 METAR ESMX 041620Z AUTO 35006KT 310V020 9999 OVC062/// 21/08 Q1020=
202206041550 METAR ESMX 041550Z AUTO 32005KT 9999 BKN074/// 20/08 Q1020=
202206041520 METAR ESMX 041520Z AUTO 33005KT 260V350 9999 NCD 21/07 Q1020=
202206041450 METAR ESMX 041450Z AUTO 02004KT 310V040 9999 FEW055/// SCT068/// 20/08 Q1020=
202206041420 METAR ESMX 041420Z AUTO 33004KT 240V010 9999 FEW055/// 21/08 Q1021=
202206041350 METAR ESMX 041350Z AUTO 02008KT 340V050 9999 FEW055/// 19/08 Q1021=
202206041320 METAR ESMX 041320Z AUTO 36005KT 340V050 9999 FEW051/// 19/10 Q1021=
202206041250 METAR ESMX 041250Z AUTO 34004KT 310V020 9999 FEW042/// 20/11 Q1021=
202206041220 METAR ESMX 041220Z AUTO 34005KT 250V060 9999 NCD 19/09 Q1021=
202206041150 METAR ESMX 041150Z AUTO 34006KT 280V030 9999 FEW034/// 19/11 Q1021=
202206041120 METAR ESMX 041120Z AUTO 27006KT 230V330 9999 NCD 18/10 Q1021=
202206041050 METAR ESMX 041050Z AUTO 25006KT 190V330 9999 NCD 17/10 Q1021=
202206041020 METAR ESMX 041020Z AUTO 27007KT 240V310 9999 FEW026/// 17/11 Q1021=
202206040950 METAR ESMX 040950Z AUTO 30007KT 250V330 9999 NCD 16/11 Q1021=
202206040920 METAR ESMX 040920Z AUTO 30007KT 260V330 9999 FEW022/// 16/11 Q1021=
202206040850 METAR ESMX 040850Z AUTO 28008KT 240V300 9999 FEW017/// 15/10 Q1021=
202206040820 METAR ESMX 040820Z AUTO 31007KT 260V340 9999 BKN015/// 14/10 Q1021=
202206040750 METAR ESMX 040750Z AUTO 28007KT 240V300 9999 OVC014/// 14/10 Q1021=
202206040720 METAR ESMX 040720Z AUTO 31007KT 270V340 9999 OVC012/// 12/09 Q1021=
202206040650 METAR ESMX 040650Z AUTO 31007KT 9999 OVC011/// 12/09 Q1021=
202206040620 METAR ESMX 040620Z AUTO 33007KT 290V010 9999 OVC011/// 11/09 Q1021=
202206040550 METAR ESMX 040550Z AUTO 30009KT 9999 OVC011/// 11/09 Q1020=
202206040520 METAR ESMX 040520Z AUTO 29007KT 260V330 9999 OVC009/// 11/10 Q1020=
202206040450 METAR ESMX 040450Z AUTO 29007KT 9999 BKN008/// 11/10 Q1020=
202206040420 METAR ESMX 040420Z AUTO 30005KT 9999 BKN006/// 10/10 Q1020=
202206040350 METAR ESMX 040350Z AUTO 27003KT 250V320 9999 FEW007/// 09/09 Q1020=
202206040320 METAR ESMX 040320Z AUTO 25002KT 9999 NCD 08/08 Q1020=
202206040250 METAR ESMX 040250Z AUTO 25003KT 9999 NCD 08/08 Q1019=
202206040220 METAR ESMX 040220Z AUTO 26004KT 9999 SCT010/// 09/08 Q1019=
202206040150 METAR ESMX 040150Z AUTO 26004KT 9999 FEW012/// BKN016/// 09/09 Q1020=
202206040120 METAR ESMX 040120Z AUTO 25004KT 9999 BKN016/// BKN034/// 09/09 Q1019=
202206040050 METAR ESMX 040050Z AUTO 24004KT 9999 FEW014/// OVC034/// 10/09 Q1019=
202206040020 METAR ESMX 040020Z AUTO 27003KT 9999 OVC033/// 10/09 Q1019=
202206032350 METAR ESMX 032350Z AUTO 23004KT 9999 OVC033/// 10/09 Q1019=
202206032320 METAR ESMX 032320Z AUTO 23004KT 9999 OVC035/// 10/09 Q1019=
202206032250 METAR ESMX 032250Z AUTO 23005KT 9999 OVC034/// 10/10 Q1019=
202206032220 METAR ESMX 032220Z AUTO 23005KT 9999 OVC030/// 10/09 Q1019=
202206032150 METAR ESMX 032150Z AUTO 23004KT 9999 OVC028/// 11/09 Q1019=
202206032120 METAR ESMX 032120Z AUTO 23004KT 190V270 9999 OVC027/// 11/08 Q1019=
202206032050 METAR ESMX 032050Z AUTO 25004KT 9999 OVC027/// 11/09 Q1019=
202206032020 METAR ESMX 032020Z AUTO 26004KT 230V320 9999 OVC027/// 11/09 Q1019=
202206031950 METAR ESMX 031950Z AUTO 24003KT 210V280 9999 OVC027/// 11/09 Q1019=
202206031920 METAR ESMX 031920Z AUTO 24004KT 9999 FEW020/// OVC026/// 11/09 Q1019=
202206031850 METAR ESMX 031850Z AUTO 22006KT 9999 OVC026/// 11/09 Q1019=
202206031820 METAR ESMX 031820Z 25006KT 210V280 9999 SCT018 BKN027 12/09 Q1019=
202206031750 METAR ESMX 031750Z 24007KT 220V290 9999 SCT016 BKN025 12/09 Q1019=
202206031720 METAR ESMX 031720Z 24009KT 9999 FEW019 BKN027 12/09 Q1019=
202206031650 METAR ESMX 031650Z 23008KT 200V260 9999 SCT017 BKN031 12/09 Q1018=
202206031620 METAR ESMX 031620Z 23008KT 9999 BKN017 13/10 Q1018=
202206031550 METAR ESMX 031550Z 25008KT 9999 BKN018 13/10 Q1018=
202206031520 METAR ESMX 031520Z 24011KT 9999 BKN017 13/10 Q1018=
202206031450 METAR ESMX 031450Z 24010KT 200V280 9999 SCT018 BKN026 13/10 Q1018=
202206031420 METAR ESMX 031420Z 24012KT 210V280 9999 SCT017 BKN027 13/10 Q1018=
202206031350 METAR ESMX 031350Z 23011KT 210V270 9999 BKN014 13/10 Q1018=
202206031320 METAR ESMX 031320Z 23012KT 9999 BKN015 14/10 Q1018=
202206031250 METAR ESMX 031250Z 25011KT 9999 BKN018 14/09 Q1018=
202206031220 METAR ESMX 031220Z 24010KT 200V260 9999 BKN017 13/10 Q1018=
202206031150 METAR ESMX 031150Z 24009KT 210V280 9999 BKN014 13/10 Q1018=
202206031120 METAR ESMX 031120Z 23010KT 190V280 9999 FEW011 BKN016 13/10 Q1018=
202206031050 METAR ESMX 031050Z 24010KT 9999 BKN011 12/10 Q1018=
202206031020 METAR ESMX 031020Z 24010KT 8000 -DZ SCT008 BKN013 11/11 Q1018=
202206030950 METAR ESMX 030950Z 23010KT 210V280 9999 SCT007 BKN013 12/10 Q1018=
202206030920 METAR ESMX 030920Z 24010KT 9999 FEW009 BKN012 12/10 Q1018=
202206030850 METAR ESMX 030850Z 25010KT 9999 -DZ FEW006 BKN009 OVC011 12/10 Q1018=
202206030820 METAR ESMX 030820Z 24008KT 9000 -DZ SCT008 BKN011 11/11 Q1017=
202206030750 METAR ESMX 030750Z 23009KT 9999 BKN013 11/10 Q1017=
202206030720 METAR ESMX 030720Z 24009KT 9999 FEW013 BKN015 11/10 Q1017=
202206030650 METAR ESMX 030650Z 25010KT 220V290 9999 FEW011 BKN015 11/10 Q1017=
202206030620 METAR ESMX 030620Z 24009KT 200V270 9999 BKN012 OVC020 11/10 Q1017=
202206030550 METAR ESMX 030550Z 24007KT 9999 FEW008 BKN010 11/11 Q1017=
202206030520 METAR ESMX 030520Z 23006KT 190V260 9000 -DZ BKN007 OVC010 11/11 Q1017=
202206030450 METAR ESMX 030450Z 23007KT 9999 SCT006 BKN008 11/11 Q1017=
202206030420 METAR ESMX 030420Z 22007KT 9999 BKN005 OVC009 11/11 Q1016=
202206030350 METAR ESMX 030350Z 23008KT 5000 BR BKN006 BKN008 OVC009 10/10 Q1016=
202206030320 METAR ESMX 030320Z 22007KT 9999 SCT006 BKN009 BKN011 10/10 Q1016 REDZ=
202206030250 METAR ESMX 030250Z AUTO 23009KT 4900 DZ FEW005/// OVC010/// 10/10 Q1016=
202206030220 METAR ESMX 030220Z 23006KT 2300 DZ SCT004 BKN006 OVC008 10/10 Q1016 REDZ=
202206030150 METAR ESMX 030150Z 23008KT 9999 SCT006 BKN009 OVC032 10/10 Q1016 REDZ=
202206030120 METAR ESMX 030120Z AUTO 21008KT 6000 BR FEW006/// SCT008/// BKN010/// 10/10 Q1016 REDZ=
202206030050 METAR ESMX 030050Z 23007KT 210V280 9999 SCT008 BKN012 BKN018 11/10 Q1016=
202206030020 METAR ESMX 030020Z 24006KT 2800 DZ VV014 11/11 Q1016 REDZ=
202206022350 METAR ESMX 022350Z 23005KT 9999 BR FEW006 SCT008 BKN018 11/10 Q1016=
202206022320 METAR ESMX 022320Z 25006KT 9999 BKN010 OVC012 11/11 Q1016=
202206022250 METAR ESMX 022250Z 24006KT 200V260 9999 SCT009 BKN010 OVC014 11/11 Q1016=
202206022220 METAR ESMX 022220Z 24005KT 9000 SCT006 BKN022 BKN035 11/11 Q1016 RERA=
202206022150 METAR ESMX 022150Z 24008KT 190V290 9999 BR FEW001 SCT005 BKN009 11/11 Q1015=
202206022120 METAR ESMX 022120Z 24007KT 3800 DZ BKN009 OVC015 11/11 Q1015 REDZ=
202206022050 METAR ESMX 022050Z 24007KT 9999 BKN009 OVC015 11/11 Q1015=
202206022020 METAR ESMX 022020Z 22008KT 9999 BKN011 BKN035 12/11 Q1015=
202206021950 METAR ESMX 021950Z 23007KT 9999 DZ SCT013 BKN036 12/10 Q1015=
202206021920 METAR ESMX 021920Z 25008KT 9999 BKN012 BKN022 12/10 Q1015=
202206021850 METAR ESMX 021850Z 25008KT 9999 FEW006 BKN014 OVC024 12/10 Q1015=
202206021820 METAR ESMX 021820Z 25010KT 220V280 9999 SCT019 BKN026 OVC034 13/10 Q1014=
202206021750 METAR ESMX 021750Z 25008KT 220V280 9999 SCT018 BKN037 OVC070 13/10 Q1014=
202206021720 METAR ESMX 021720Z 23007KT 9999 SCT019 BKN028 13/11 Q1014=
202206021650 METAR ESMX 021650Z 24009KT 9999 SCT016 BKN046 13/10 Q1014=
202206021620 METAR COR ESMX 021620Z 25011KT 9999 SCT019 BKN061 13/10 Q1014 RERA=
202206021550 METAR ESMX 021550Z 23011KT 200V260 9999 BKN022 13/11 Q1014=
202206021520 METAR ESMX 021520Z 23011KT 9999 BKN025 14/10 Q1013=
202206021450 METAR ESMX 021450Z 22009KT 9999 BKN027CB 15/09 Q1013=
202206021420 METAR ESMX 021420Z 24009KT 9999 FEW024CB SCT047 BKN072 14/09 Q1013=
202206021350 METAR ESMX 021350Z 23010KT 9999 FEW028CB SCT059 BKN070 15/11 Q1013=
202206021320 METAR ESMX 021320Z 22008KT 190V260 9999 VCSH FEW027CB SCT040 BKN057 14/10 Q1013=
202206021250 METAR ESMX 021250Z 20007KT 160V240 9999 SCT027CB BKN072 15/12 Q1013=
202206021220 METAR ESMX 021220Z 22005KT 200V260 9999 -SHRA FEW025CB BKN062 13/11 Q1013=
202206021150 METAR ESMX 021150Z 28006KT 240V320 8000 SCT024CB BKN045 13/10 Q1013=
202206021120 METAR ESMX 021120Z 21012KT 9999 FEW009 SCT025CB BKN051 16/09 Q1013=
202206021050 METAR ESMX 021050Z 20011KT 9999 -SHRA SCT031CB BKN055 13/09 Q1013=
202206021020 METAR ESMX 021020Z 24009KT 9999 FEW029CB BKN041 16/08 Q1013=
202206020950 METAR COR ESMX 020950Z 23009KT 210V280 9999 SCT045 BKN068 15/09 Q1013=
202206020920 METAR ESMX 020920Z 24009KT 9999 -SHRA FEW028CB BKN040 12/09 Q1013=
202206020850 METAR COR ESMX 020850Z 22012KT 200V260 9999 -SHRA FEW021CB BKN030 12/07 Q1013=
202206020820 METAR ESMX 020820Z 23010KT 200V270 9999 BKN030 14/08 Q1012=
202206020750 METAR ESMX 020750Z 25008KT 210V280 9999 BKN025 13/08 Q1012=
202206020720 METAR ESMX 020720Z 26008KT 210V300 9999 BKN021 13/08 Q1012=
202206020650 METAR ESMX 020650Z 23010KT 200V270 9999 BKN019 13/08 Q1012=
202206020620 METAR ESMX 020620Z 26008KT 220V280 9999 BKN016 12/08 Q1012=
202206020550 METAR ESMX 020550Z 23006KT CAVOK 11/09 Q1012=
202206020520 METAR ESMX 020520Z AUTO 25007KT 9999 FEW180/// 11/09 Q1012=
202206020450 METAR ESMX 020450Z AUTO 26006KT 230V290 9999 NCD 10/09 Q1011=
202206020420 METAR ESMX 020420Z AUTO 25006KT 9999 NCD 10/08 Q1011=
202206020350 METAR ESMX 020350Z AUTO 26004KT 9999 FEW120/// 09/08 Q1011=
202206020320 METAR ESMX 020320Z AUTO 26004KT 9999 FEW130/// 08/08 Q1011=
202206020250 METAR ESMX 020250Z AUTO 24004KT 9999 FEW170/// 07/07 Q1011=
202206020220 METAR ESMX 020220Z AUTO 25004KT 9999 NCD 07/07 Q1011=
202206020150 METAR ESMX 020150Z AUTO 26004KT 9999 FEW100/// 07/07 Q1011=
202206020120 METAR ESMX 020120Z AUTO 26004KT 9999 OVC100/// 08/07 Q1011=
202206020050 METAR ESMX 020050Z AUTO 26005KT 9999 OVC110/// 09/07 Q1011=
202206020020 METAR ESMX 020020Z AUTO 26005KT 9999 BKN098/// OVC120/// 09/07 Q1011=
202206012350 METAR ESMX 012350Z AUTO 26005KT 230V300 9999 BKN094/// OVC110/// 09/07 Q1011=
202206012320 METAR ESMX 012320Z 26006KT CAVOK 10/07 Q1011=
202206012250 METAR ESMX 012250Z 26005KT 9999 BKN059 OVC120 10/07 Q1011=
202206012220 METAR ESMX 012220Z 26006KT CAVOK 10/07 Q1011=
202206012150 METAR ESMX 012150Z 26005KT CAVOK 10/07 Q1011=
202206012120 METAR ESMX 012120Z 26004KT CAVOK 11/08 Q1011=
202206012050 METAR ESMX 012050Z 25004KT CAVOK 11/08 Q1011=
202206012020 METAR ESMX 012020Z 25003KT CAVOK 11/08 Q1011=
202206011950 METAR ESMX 011950Z 25004KT CAVOK 11/08 Q1011=
202206011920 METAR ESMX 011920Z 24003KT CAVOK 12/08 Q1011=
202206011850 METAR ESMX 011850Z 26004KT CAVOK 12/09 Q1011=
202206011820 METAR ESMX 011820Z 25005KT CAVOK 13/09 Q1011=
202206011750 METAR ESMX 011750Z 24005KT CAVOK 13/08 Q1011=
202206011720 METAR ESMX 011720Z 25005KT 210V270 9999 FEW052CB BKN098 14/08 Q1011=
202206011650 METAR ESMX 011650Z 21007KT 9999 FEW051CB BKN098 14/08 Q1011=
202206011620 METAR ESMX 011620Z 19009KT 9999 SCT053CB BKN076 14/09 Q1011=
202206011550 METAR ESMX 011550Z 23006KT 210V280 9999 FEW055CB BKN076 15/07 Q1011=
202206011520 METAR ESMX 011520Z 27005KT 230V300 9999 FEW047CB BKN078 15/07 Q1011=
202206011450 METAR ESMX 011450Z 31005KT 280V020 9999 SCT051CB BKN080 15/08 Q1011=
202206011420 METAR ESMX 011420Z 36009KT 9999 FEW044CB BKN078 15/08 Q1011=
202206011350 METAR ESMX 011350Z 30007KT 240V340 9999 FEW045 BKN076 15/08 Q1011=
202206011320 METAR ESMX 011320Z 32007KT 260V350 9999 FEW048 BKN078 15/08 Q1011=
202206011250 METAR ESMX 011250Z 29009KT 260V330 9999 SCT046 BKN074 15/08 Q1011=
202206011220 METAR ESMX 011220Z 28007KT 240V310 9999 SCT046 BKN057 14/08 Q1011=
