##########################################################
# Query made at 04/19/2024 22:27:50 UTC
# Time interval: from 09/01/2022 12:00  to 09/30/2022 12:59  UTC
##########################################################

##########################################################
# ESMX, Vaxjo (Sweden)
# WMO index: 02641. WIGOS ID: 0-20000-0-02648
# Latitude 56-51N. Longitude 014-50E. Altitude 199 m.
##########################################################

202209301250 METAR ESMX 301250Z 16006KT 120V200 9999 VCSH SCT030 14/08 Q1009=
202209301220 METAR ESMX 301220Z 15006KT 110V190 9999 SCT030 13/07 Q1009=
202209301150 METAR ESMX 301150Z 16008KT 9999 SCT026 14/08 Q1009=
202209301120 METAR ESMX 301120Z 18005KT 140V200 9999 SCT023 BKN055 13/08 Q1010=
202209301050 METAR ESMX 301050Z 16006KT 9999 SCT022 13/08 Q1010=
202209301020 METAR ESMX 301020Z 14005KT 110V180 9999 SCT019 12/08 Q1010=
202209300950 METAR ESMX 300950Z 16006KT 9999 SCT017 12/08 Q1010=
202209300920 METAR ESMX 300920Z 16006KT 120V200 9999 FEW032 BKN062 12/08 Q1010=
202209300850 METAR ESMX 300850Z 11004KT CAVOK 11/08 Q1010=
202209300820 METAR ESMX 300820Z 11004KT CAVOK 10/08 Q1010=
202209300750 METAR ESMX 300750Z 10003KT 9999 FEW040 SCT064 09/09 Q1010=
202209300720 METAR ESMX 300720Z VRB02KT CAVOK 07/07 Q1010=
202209300650 METAR ESMX 300650Z AUTO VRB01KT 9999 OVC061/// 07/07 Q1010=
202209300620 METAR ESMX 300620Z AUTO VRB02KT 9999 FEW022/// OVC061/// 05/05 Q1010=
202209300550 METAR ESMX 300550Z 00000KT 9999 BCFG SCT021 BKN057 04/04 Q1010=
202209300520 METAR ESMX 300520Z 00000KT 9999 BCFG FEW068 BKN098 04/04 Q1009=
202209300450 METAR ESMX 300450Z 08001KT 9999 BCFG BKN066 04/04 Q1009=
202209300420 METAR ESMX 300420Z 02003KT 8000 BR OVC066 04/04 Q1009=
202209300350 METAR COR ESMX 300350Z VRB02KT 7000 BR OVC066 05/05 Q1009=
202209300320 METAR ESMX 300320Z AUTO 00000KT 2700 SCT068/// BKN098/// 04/04 Q1008=
202209300250 METAR ESMX 300250Z AUTO VRB02KT 9999 BKN070/// OVC098/// 05/05 Q1008=
202209300220 METAR ESMX 300220Z AUTO VRB02KT 8000 BCFG FEW076/// BKN098/// 05/05 Q1008=
202209300150 METAR ESMX 300150Z AUTO VRB02KT 9999 BCFG BKN068/// 05/05 Q1008=
202209300120 METAR ESMX 300120Z AUTO 00000KT 0350 R01/P2000N R19/P2000N BR FEW036/// SCT072/// OVC100/// 05/05 Q1008=
202209300050 METAR ESMX 300050Z AUTO 00000KT 9999 SCT070/// OVC100/// 05/05 Q1008=
202209300020 METAR ESMX 300020Z AUTO 00000KT 9999 SCT072/// OVC100/// 04/04 Q1008=
202209292350 METAR ESMX 292350Z 00000KT 8000 BCFG FEW072 OVC100 05/05 Q1008=
202209292320 METAR ESMX 292320Z VRB01KT 9999 BCFG NSC 04/04 Q1008=
202209292250 METAR ESMX 292250Z 00000KT CAVOK 06/06 Q1008=
202209292220 METAR ESMX 292220Z 05002KT 9999 FEW041 BKN170 05/05 Q1007=
202209292150 METAR ESMX 292150Z 03002KT CAVOK 07/07 Q1007=
202209292120 METAR ESMX 292120Z 03003KT 9999 SCT030 BKN100 08/08 Q1007=
202209292050 METAR ESMX 292050Z 01003KT CAVOK 08/08 Q1007=
202209292020 METAR ESMX 292020Z 03002KT CAVOK 08/08 Q1007=
202209291950 METAR ESMX 291950Z 03004KT CAVOK 08/08 Q1006=
202209291920 METAR ESMX 291920Z 03005KT CAVOK 08/08 Q1006=
202209291850 METAR COR ESMX 291850Z 03005KT CAVOK 09/08 Q1006=
202209291820 METAR ESMX 291820Z 03005KT 9999 SCT049 09/08 Q1006=
202209291750 METAR ESMX 291750Z 03005KT 9999 SCT049 09/08 Q1005=
202209291720 METAR ESMX 291720Z 01005KT 9999 FEW047 09/08 Q1005=
202209291650 METAR ESMX 291650Z 03003KT 9999 SCT047 10/07 Q1005=
202209291620 METAR ESMX 291620Z 06004KT 020V090 9999 BKN045 10/07 Q1005=
202209291550 METAR ESMX 291550Z 05005KT 030V100 9999 FEW044 11/06 Q1004=
202209291520 METAR ESMX 291520Z 03008KT 9999 FEW030 11/06 Q1004=
202209291450 METAR ESMX 291450Z 02010KT 9999 SCT031 13/07 Q1003=
202209291420 METAR COR ESMX 291420Z 05007KT 020V080 CAVOK 13/05 Q1003=
202209291350 METAR ESMX 291350Z 06007KT 020V100 9999 FEW025 13/05 Q1003=
202209291320 METAR ESMX 291320Z 05005KT 020V080 9999 FEW025 12/06 Q1003=
202209291250 METAR ESMX 291250Z 05006KT 9999 FEW025 12/07 Q1003=
202209291220 METAR ESMX 291220Z 04010KT 010V100 9999 SCT024 12/07 Q1002=
202209291150 METAR ESMX 291150Z 05009KT 020V080 9999 SCT021 13/07 Q1002=
202209291120 METAR ESMX 291120Z 05009KT 020V080 9999 SCT021 12/08 Q1002=
202209291050 METAR ESMX 291050Z 05006KT 020V100 9999 SCT021 12/07 Q1002=
202209291020 METAR ESMX 291020Z 05009KT 020V080 9999 SCT022 11/07 Q1002=
202209290950 METAR ESMX 290950Z 04010KT 9999 SCT017 11/08 Q1002=
202209290920 METAR COR ESMX 290920Z 04010KT 9999 BKN018 10/08 Q1001=
202209290850 METAR COR ESMX 290850Z 04007KT 020V080 9999 SCT018 11/08 Q1001=
202209290820 METAR ESMX 290820Z 05009KT 020V110 9999 SCT011 10/08 Q1001=
202209290750 METAR ESMX 290750Z 04008KT 020V080 9999 SCT011 10/08 Q1000=
202209290720 METAR ESMX 290720Z 06007KT 020V100 9999 BKN009 09/08 Q1000=
202209290650 METAR ESMX 290650Z 05009KT 020V090 9999 BKN025 09/08 Q1000=
202209290620 METAR ESMX 290620Z 05008KT 020V080 9999 -RA FEW010 SCT024 BKN031 09/08 Q1000=
202209290550 METAR ESMX 290550Z AUTO 06008KT 9999 FEW028/// OVC038/// 09/08 Q0999 RESHUP REDZ=
202209290520 METAR ESMX 290520Z 06007KT 020V100 9999 FEW006 BKN026 09/08 Q0999=
202209290450 METAR ESMX 290450Z 06007KT 030V110 9999 OVC037 09/08 Q0999=
202209290420 METAR ESMX 290420Z 05009KT 010V090 9999 FEW034 BKN047 09/08 Q0998=
202209290350 METAR COR ESMX 290350Z 05009KT 030V100 9999 SCT035 BKN047 09/08 Q0998=
202209290320 METAR ESMX 290320Z AUTO 05010KT 010V090 9999 FEW019/// OVC049/// 10/08 Q0998=
202209290250 METAR ESMX 290250Z AUTO 04010KT 020V080 9999 FEW019/// OVC046/// 10/08 Q0998=
202209290220 METAR ESMX 290220Z AUTO 05012G24KT 020V080 9999 FEW015/// OVC041/// 10/08 Q0998=
202209290150 METAR ESMX 290150Z AUTO 05011KT 010V080 9999 FEW015/// OVC043/// 10/08 Q0997=
202209290120 METAR ESMX 290120Z AUTO 04011KT 9999 -DZ FEW013/// SCT017/// OVC037/// 10/09 Q0997=
202209290050 METAR ESMX 290050Z AUTO 04012KT 9999 BKN040/// OVC061/// 10/09 Q0997=
202209290020 METAR ESMX 290020Z AUTO 04011KT 9999 SCT032/// BKN048/// OVC070/// 10/09 Q0997=
202209282350 METAR ESMX 282350Z 03010KT 010V070 9999 FEW011 SCT020 BKN045 10/09 Q0997=
202209282320 METAR ESMX 282320Z 03010KT 9999 -RA FEW009 BKN013 10/10 Q0997=
202209282250 METAR ESMX 282250Z 03012KT 9999 -RA FEW004 BKN016 10/09 Q0997=
202209282220 METAR ESMX 282220Z 03012KT 9999 -RA SCT019 BKN024 10/09 Q0997=
202209282150 METAR ESMX 282150Z 03012KT 9999 FEW007 SCT018 BKN033 10/09 Q0997=
202209282120 METAR ESMX 282120Z 03013KT 9999 FEW019 BKN053 10/09 Q0997=
202209282050 METAR ESMX 282050Z 03012KT 9999 FEW018 BKN057 10/09 Q0997=
202209282020 METAR ESMX 282020Z 03012KT 9999 SCT021 BKN059 10/09 Q0997=
202209281950 METAR ESMX 281950Z 03011KT 9999 BKN016 10/09 Q0997=
202209281920 METAR ESMX 281920Z 03013KT 9999 FEW019 BKN026 10/09 Q0997=
202209281850 METAR ESMX 281850Z 03013KT 9999 BKN016 11/09 Q0997=
202209281820 METAR ESMX 281820Z 04012KT 9999 BKN013 11/10 Q0997=
202209281750 METAR ESMX 281750Z 04011KT 010V070 9999 -RA OVC015 11/10 Q0997=
202209281720 METAR ESMX 281720Z 04009KT 010V080 9999 BKN013 11/10 Q0997=
202209281650 METAR ESMX 281650Z 05010KT 020V080 9999 BKN014 11/10 Q0996=
202209281620 METAR ESMX 281620Z 05010KT 8000 -RA BKN011 11/11 Q0996=
202209281550 METAR ESMX 281550Z 06012KT 030V090 9999 -RA BKN010 11/10 Q0996=
202209281520 METAR ESMX 281520Z 06010KT 9999 -RA BKN012 11/11 Q0996=
202209281450 METAR COR ESMX 281450Z 06010KT 020V110 9999 -RA FEW013 BKN022 11/11 Q0996=
202209281420 METAR ESMX 281420Z 06010KT 020V110 5000 RA BKN012 11/11 Q0996=
202209281350 METAR COR ESMX 281350Z 06008KT 030V110 5000 RA SCT012 BKN017 11/11 Q0996=
202209281320 METAR COR ESMX 281320Z 05010KT 020V080 9999 -RA BKN014 12/11 Q0996=
202209281250 METAR ESMX 281250Z 06010KT 020V090 9999 -RA BKN016 12/11 Q0996=
202209281220 METAR ESMX 281220Z AUTO 06010KT 030V100 9999 -DZ BKN016/// BKN027/// OVC059/// 12/11 Q0996 RERA=
202209281150 METAR COR ESMX 281150Z 06008KT 010V100 9999 SCT017 BKN045 12/11 Q0996=
202209281120 METAR ESMX 281120Z 06009KT 030V110 9999 BKN043 12/11 Q0996=
202209281050 METAR ESMX 281050Z 06008KT 030V110 9999 FEW016 SCT034 BKN047 12/11 Q0996=
202209281020 METAR ESMX 281020Z 05008KT 330V120 9999 BKN015 12/11 Q0996=
202209280950 METAR ESMX 280950Z 04005KT 9999 BKN013 11/11 Q0996=
202209280920 METAR ESMX 280920Z 08003KT 030V100 9999 FEW004 BKN013 10/10 Q0996=
202209280850 METAR ESMX 280850Z 12004KT 060V130 9000 -RA FEW010 BKN026 10/10 Q0996=
202209280820 METAR ESMX 280820Z 06006KT 7000 RA FEW030 BKN044 10/10 Q0996=
202209280750 METAR ESMX 280750Z 10004KT 030V110 6000 RA BKN040 10/10 Q0996=
202209280720 METAR ESMX 280720Z 11005KT 060V120 4000 RA BKN008 10/10 Q0996=
202209280650 METAR ESMX 280650Z VRB03KT 8000 RA FEW003 BKN007 10/10 Q0996=
202209280620 METAR ESMX 280620Z 13004KT 090V200 9999 -RA SCT006 BKN008 10/10 Q0995=
202209280550 METAR COR ESMX 280550Z 14005KT 9000 RA FEW006 BKN010 11/11 Q0995=
202209280520 METAR ESMX 280520Z 13003KT 9000 -RA SCT007 BKN012 11/11 Q0995=
202209280450 METAR ESMX 280450Z 08007G17KT 030V120 9999 -RA FEW012 SCT021 12/11 Q0995=
202209280420 METAR ESMX 280420Z 06007KT 030V090 9999 SCT017 12/11 Q0995=
202209280350 METAR ESMX 280350Z 07006KT 030V110 9999 SCT015 12/11 Q0995=
202209280320 METAR ESMX 280320Z AUTO 06007KT 030V100 9999 SCT170/// 12/11 Q0995=
202209280250 METAR ESMX 280250Z AUTO 05007KT 010V090 9999 SCT013/// BKN170/// 12/11 Q0995=
202209280220 METAR ESMX 280220Z AUTO 07005KT 020V100 9999 BKN012/// BKN057/// OVC170/// 12/12 Q0995=
202209280150 METAR ESMX 280150Z AUTO 08005KT 030V110 9000 BR BKN012/// OVC015/// 12/12 Q0995=
202209280120 METAR ESMX 280120Z AUTO 08006KT 030V120 9999 BKN012/// 12/12 Q0995=
202209280050 METAR ESMX 280050Z AUTO 07005KT 020V110 9000 BR BKN012/// BKN018/// 12/12 Q0996 RERA=
202209280020 METAR ESMX 280020Z AUTO 10002KT 9999 SCT012/// BKN023/// BKN055/// 11/11 Q0996=
202209272350 METAR ESMX 272350Z 09005KT 030V130 7000 -RA FEW001 SCT019 BKN030 11/11 Q0996=
202209272320 METAR ESMX 272320Z 08003KT 030V110 9999 -RA FEW009 SCT031 BKN045 11/11 Q0996=
202209272250 METAR ESMX 272250Z 10004KT 040V110 9999 RA SCT027 BKN044 11/10 Q0996=
202209272220 METAR ESMX 272220Z 11006KT 060V140 8000 -RA FEW002 BKN045 11/11 Q0997=
202209272150 METAR ESMX 272150Z 12006KT 070V150 9999 -RA FEW014 SCT023 BKN061 11/11 Q0996=
202209272120 METAR ESMX 272120Z 08004KT 040V110 7000 RA BR FEW002 SCT016 OVC049 12/12 Q0996=
202209272050 METAR ESMX 272050Z 09004KT 030V110 9999 -RA FEW011 BKN055 12/11 Q0996=
202209272020 METAR ESMX 272020Z 09005KT 350V130 9999 SCT010 BKN018 12/11 Q0996=
202209271950 METAR ESMX 271950Z 11005KT 020V140 9999 -RA FEW002 SCT012 BKN023 11/11 Q0996=
202209271920 METAR ESMX 271920Z AUTO 07004KT 010V120 5000 +RA FEW002/// SCT013/// BKN031/// 11/11 Q0997=
202209271850 METAR ESMX 271850Z AUTO 07005KT 030V110 9999 -RA FEW021/// BKN044/// OVC055/// 11/11 Q0996 RERA=
202209271820 METAR ESMX 271820Z AUTO 07005KT 030V100 9999 FEW019/// SCT055/// BKN082/// 11/11 Q0996=
202209271750 METAR ESMX 271750Z AUTO 08004KT 050V110 9999 -DZ FEW019/// BKN053/// OVC066/// 12/11 Q0996=
202209271720 METAR ESMX 271720Z AUTO 08003KT 030V100 9999 FEW015/// SCT020/// OVC059/// 12/11 Q0996=
202209271650 METAR ESMX 271650Z AUTO 10006KT 040V140 9999 -RA FEW021/// BKN053/// BKN064/// 12/11 Q0996=
202209271620 METAR ESMX 271620Z 09004KT 040V100 9999 VCSH FEW022 12/11 Q0996=
202209271550 METAR ESMX 271550Z 09004KT 020V110 9999 FEW025 12/11 Q0996=
202209271520 METAR ESMX 271520Z 09004KT 030V110 9999 FEW029 12/11 Q0996=
202209271450 METAR ESMX 271450Z 11003KT 9999 FEW045 11/10 Q0996=
202209271420 METAR ESMX 271420Z 12005KT 070V140 CAVOK 11/10 Q0996=
202209271350 METAR ESMX 271350Z 12006KT 080V140 9999 FEW020 11/09 Q0996=
202209271320 METAR ESMX 271320Z 12007KT 070V160 9000 -RA FEW004 SCT025 11/10 Q0996=
202209271250 METAR ESMX 271250Z 14004KT 9000 -RA SCT022 13/12 Q0996=
202209271220 METAR COR ESMX 271220Z 12004KT 9000 RA FEW003 SCT023 12/11 Q0996=
202209271150 METAR ESMX 271150Z 10007G17KT 040V170 9999 FEW015 SCT021 14/11 Q0996=
202209271120 METAR ESMX 271120Z 16008KT 9999 FEW014 BKN018 15/10 Q0996=
202209271050 METAR ESMX 271050Z 14011KT 100V200 9999 BKN019 14/10 Q0996=
202209271020 METAR ESMX 271020Z 14010G20KT 100V170 CAVOK 14/10 Q0996=
202209270950 METAR ESMX 270950Z 12010G22KT 070V180 9999 FEW004 SCT018 13/11 Q0996 RERA=
202209270920 METAR ESMX 270920Z 12007G19KT 060V150 9999 BKN016 13/11 Q0996=
202209270850 METAR ESMX 270850Z 11009KT 070V150 9999 SCT015 BKN028 13/11 Q0996=
202209270820 METAR ESMX 270820Z 11007KT 070V150 9999 BKN011 13/11 Q0996=
202209270750 METAR ESMX 270750Z 11007KT 060V150 9999 BKN009 12/11 Q0996=
202209270720 METAR ESMX 270720Z 12007KT 080V150 9999 BKN009 12/11 Q0996=
202209270650 METAR COR ESMX 270650Z VRB07KT 9999 BKN008 12/11 Q0996=
202209270620 METAR ESMX 270620Z AUTO 12006KT 050V160 9999 BKN007/// OVC059/// 11/11 Q0996 REDZ=
202209270550 METAR ESMX 270550Z AUTO 12006KT 080V140 9999 SCT007/// BKN098/// 11/11 Q0995=
202209270520 METAR ESMX 270520Z AUTO 11005KT 050V140 9999 SCT007/// 11/11 Q0995=
202209270450 METAR ESMX 270450Z 10004KT 9999 SCT016 BKN049 10/10 Q0996=
202209270420 METAR ESMX 270420Z 09004KT 050V150 CAVOK 10/10 Q0995=
202209270350 METAR COR ESMX 270350Z 11004KT CAVOK 10/10 Q0995=
202209270320 METAR ESMX 270320Z AUTO 10003KT 050V200 9999 FEW051/// OVC064/// 10/10 Q0996=
202209270250 METAR ESMX 270250Z AUTO 12003KT 9999 OVC064/// 10/09 Q0996=
202209270220 METAR ESMX 270220Z AUTO 14004KT 9999 FEW044/// OVC057/// 10/09 Q0996 REDZ=
202209270150 METAR ESMX 270150Z AUTO 13004KT 9999 OVC066/// 10/10 Q0996=
202209270120 METAR ESMX 270120Z AUTO 13004KT 9999 -DZ OVC064/// 10/10 Q0996 REDZ=
202209270050 METAR ESMX 270050Z AUTO 12004KT 080V170 9999 DZ BKN049/// OVC062/// 10/10 Q0996=
202209270020 METAR ESMX 270020Z AUTO 19005KT 9999 DZ FEW009/// BKN044/// OVC057/// 10/10 Q0997=
202209262350 METAR ESMX 262350Z 15003KT 9999 -DZ FEW004 SCT036 BKN053 09/09 Q0997=
202209262320 METAR ESMX 262320Z VRB03KT 9999 -RA FEW005 SCT008 BKN013 09/09 Q0997=
202209262250 METAR ESMX 262250Z 15003KT 9999 -RA SCT006 BKN027 09/09 Q0997=
202209262220 METAR ESMX 262220Z 15003KT 9999 FEW008 SCT032 BKN051 09/09 Q0997=
202209262150 METAR ESMX 262150Z 15004KT 9999 BKN018 BKN047 10/09 Q0997=
202209262120 METAR ESMX 262120Z 13005KT 090V170 9999 DZ FEW025 BKN047 10/09 Q0997=
202209262050 METAR ESMX 262050Z 17007KT 9999 DZ FEW025 BKN041 10/09 Q0998=
202209262020 METAR ESMX 262020Z 14006KT 100V170 9999 -RA FEW025 BKN045 10/10 Q0997=
202209261950 METAR ESMX 261950Z 14006KT 100V180 9999 FEW025 OVC038 11/10 Q0998=
202209261920 METAR ESMX 261920Z AUTO 14006KT 100V170 9999 SCT028/// BKN045/// OVC110/// 11/10 Q0998=
202209261850 METAR ESMX 261850Z AUTO 15006KT 9999 FEW057/// BKN120/// 11/10 Q0998=
202209261820 METAR ESMX 261820Z AUTO 16007KT 9999 SCT076/// BKN110/// 11/10 Q0998=
202209261750 METAR ESMX 261750Z 15006KT CAVOK 11/10 Q0998=
202209261720 METAR ESMX 261720Z 16005KT CAVOK 11/10 Q0998=
202209261650 METAR ESMX 261650Z AUTO 15006KT 120V190 9999 OVC062/// 11/10 Q0998=
202209261620 METAR ESMX 261620Z 17006KT 9999 FEW025 BKN057 11/10 Q0998=
202209261550 METAR ESMX 261550Z 16006KT 9999 FEW039 BKN057 11/10 Q0998=
202209261520 METAR ESMX 261520Z 15006KT 9999 -RA FEW006 BKN059 11/11 Q0998=
202209261450 METAR ESMX 261450Z 17007KT 9999 -RA FEW006 BKN048 11/10 Q0998=
202209261420 METAR ESMX 261420Z 15006KT 110V180 9999 -RA FEW026 BKN048 11/10 Q0998=
202209261350 METAR ESMX 261350Z 17007KT 9999 DZ BKN041 12/09 Q0998=
202209261320 METAR ESMX 261320Z 19007KT 9999 FEW028 BKN044 13/09 Q0998=
202209261250 METAR ESMX 261250Z 17006KT 9999 FEW019 BKN029 13/10 Q0998=
202209261220 METAR ESMX 261220Z 18007KT 9999 FEW014 SCT029 BKN066 13/10 Q0998=
202209261150 METAR ESMX 261150Z 19006KT 9999 FEW024 SCT044 BKN066 12/10 Q0999=
202209261120 METAR ESMX 261120Z 19008KT 9999 DZ SCT022 BKN039 BKN092 12/10 Q0999=
202209261050 METAR ESMX 261050Z 20007KT 9999 -DZ SCT017 BKN023 BKN041 12/10 Q0999 REDZ=
202209261020 METAR ESMX 261020Z 18007KT 9999 BKN015 BKN080 12/10 Q0999=
202209260950 METAR ESMX 260950Z 17007KT 140V210 9999 BKN012 11/10 Q0999=
202209260920 METAR ESMX 260920Z 20008KT 9999 BKN012 11/10 Q0999=
202209260850 METAR ESMX 260850Z 19008KT 9999 SCT009 11/10 Q1000=
202209260820 METAR ESMX 260820Z 19007KT 9999 BKN009 11/10 Q0999=
202209260750 METAR ESMX 260750Z 19007KT 9999 BKN009 11/10 Q0999=
202209260720 METAR ESMX 260720Z 19009KT 9999 BKN005 10/10 Q0999=
202209260650 METAR ESMX 260650Z 20006KT 9999 BKN006 10/10 Q0999=
202209260620 METAR ESMX 260620Z 18006KT 9999 FEW004 BKN007 10/10 Q0999=
202209260550 METAR ESMX 260550Z 20005KT 6000 BR OVC003 10/10 Q0999=
202209260520 METAR ESMX 260520Z 20004KT 5000 BR BKN004 10/10 Q1000=
202209260450 METAR ESMX 260450Z 17003KT 6000 BR OVC004 10/10 Q1000=
202209260420 METAR ESMX 260420Z 20004KT 5000 BR OVC004 10/10 Q1000=
202209260350 METAR COR ESMX 260350Z 17004KT 6000 BR OVC004 10/10 Q1000=
202209260320 METAR ESMX 260320Z AUTO 18005KT 6000 BR BKN004/// OVC006/// 10/10 Q1001=
202209260250 METAR ESMX 260250Z AUTO 20004KT 6000 BR SCT004/// OVC008/// 10/10 Q1001=
202209260220 METAR ESMX 260220Z AUTO 20005KT 6000 BR OVC005/// 10/10 Q1001 REDZ=
202209260150 METAR ESMX 260150Z AUTO 17004KT 7000 BR BKN005/// 10/10 Q1001=
202209260120 METAR ESMX 260120Z AUTO 20004KT 7000 BR BKN004/// OVC082/// 10/10 Q1002 REDZ=
202209260050 METAR ESMX 260050Z AUTO 18006KT 6000 DZ OVC003/// 10/10 Q1002=
202209260020 METAR ESMX 260020Z AUTO 20005KT 7000 BR OVC004/// 11/11 Q1002=
202209252350 METAR ESMX 252350Z AUTO 21004KT 8000 BR BKN005/// BKN010/// OVC092/// 10/10 Q1003=
202209252320 METAR ESMX 252320Z AUTO 22004KT 7000 BR SCT004/// OVC096/// 10/10 Q1003=
202209252250 METAR ESMX 252250Z AUTO 22004KT 9000 BR SCT006/// BKN034/// BKN110/// 10/10 Q1003=
202209252220 METAR ESMX 252220Z AUTO 23004KT 9999 FEW005/// BKN037/// OVC066/// 10/10 Q1004 RERA=
202209252150 METAR ESMX 252150Z AUTO 15006KT 120V260 9999 -RA FEW025/// BKN053/// OVC070/// 11/11 Q1004=
202209252120 METAR ESMX 252120Z AUTO 12003KT 8000 RA FEW006/// OVC059/// 10/10 Q1005=
202209252050 METAR ESMX 252050Z AUTO VRB02KT 3200 BR BKN007/// OVC076/// 10/10 Q1005 RERA=
202209252020 METAR ESMX 252020Z AUTO 12002KT 4900 BR SCT009/// BKN032/// OVC055/// 10/10 Q1005=
202209251950 METAR ESMX 251950Z 23002KT 9999 BKN015 BKN046 OVC057 10/10 Q1006 RERA=
202209251920 METAR ESMX 251920Z 24004KT 6000 RA BKN021 BKN045 10/10 Q1006 RERA=
202209251850 METAR ESMX 251850Z 19002KT 9999 SCT022 BKN031 10/10 Q1006=
202209251820 METAR ESMX 251820Z 19003KT 9999 DZ SCT045 BKN062 11/10 Q1007=
202209251750 METAR ESMX 251750Z 19004KT 9999 -RA FEW030CB BKN055 11/10 Q1007=
202209251720 METAR ESMX 251720Z 16006KT 9999 FEW034CB BKN059 BKN079 12/10 Q1007=
202209251650 METAR ESMX 251650Z 16003KT 9999 FEW034CB BKN059 BKN079 12/11 Q1007 RERA=
202209251620 METAR ESMX 251620Z 21002KT 9999 FEW033CB SCT049 BKN079 12/11 Q1008=
202209251550 METAR ESMX 251550Z VRB01KT 9999 FEW033CB BKN043 BKN100 12/11 Q1008 REDZ=
202209251520 METAR ESMX 251520Z 24009KT 200V260 9999 DZ FEW035CB BKN048 BKN100 13/10 Q1008=
202209251450 METAR ESMX 251450Z 20006KT 9999 SCT042 15/08 Q1008=
202209251420 METAR ESMX 251420Z 19007KT 150V210 9999 SCT040 BKN110 16/08 Q1008=
202209251350 METAR ESMX 251350Z AUTO 20007KT 9999 FEW040/// BKN059/// 16/08 Q1009=
202209251320 METAR ESMX 251320Z 18003KT 9999 BKN048 BKN078 14/12 Q1009=
202209251250 METAR ESMX 251250Z 18003KT 9999 -RA SCT044 BKN078 BKN092 15/09 Q1010=
202209251220 METAR ESMX 251220Z 19007KT 160V230 9999 BKN034 BKN048 15/09 Q1010=
202209251150 METAR ESMX 251150Z 15006KT 090V200 9999 BKN034 16/08 Q1010=
202209251120 METAR ESMX 251120Z 15006KT 100V200 9999 BKN033 BKN045 15/08 Q1011=
202209251050 METAR ESMX 251050Z 16006KT 120V200 9999 SCT024 16/09 Q1011=
202209251020 METAR ESMX 251020Z 18006KT 150V210 9999 SCT022 15/10 Q1011=
202209250950 METAR ESMX 250950Z 17005KT 070V210 9999 FEW025 15/10 Q1012=
202209250920 METAR ESMX 250920Z 13003KT 9999 FEW025 13/10 Q1012=
202209250850 METAR ESMX 250850Z 13003KT 9999 FEW021 13/10 Q1012=
202209250820 METAR ESMX 250820Z 13003KT CAVOK 12/10 Q1012=
202209250750 METAR ESMX 250750Z VRB01KT CAVOK 11/10 Q1013=
202209250720 METAR ESMX 250720Z 13003KT CAVOK 11/10 Q1012=
202209250650 METAR ESMX 250650Z 13004KT CAVOK 11/10 Q1012=
202209250620 METAR ESMX 250620Z 13004KT CAVOK 10/10 Q1012=
202209250550 METAR ESMX 250550Z 15002KT 9999 FEW033 09/09 Q1012=
202209250520 METAR ESMX 250520Z AUTO VRB01KT 9999 FEW033/// OVC094/// 09/09 Q1013=
202209250450 METAR ESMX 250450Z AUTO 13003KT 9999 OVC094/// 09/09 Q1013=
202209250420 METAR ESMX 250420Z AUTO VRB02KT 9999 OVC094/// 08/08 Q1013=
202209250350 METAR ESMX 250350Z AUTO 00000KT 9999 SCT057/// OVC090/// 09/09 Q1013=
202209250320 METAR ESMX 250320Z AUTO 00000KT 9999 OVC086/// 09/09 Q1013=
202209250250 METAR ESMX 250250Z AUTO 13002KT 9999 FEW057/// OVC084/// 09/09 Q1013=
202209250220 METAR ESMX 250220Z AUTO 00000KT 9999 FEW055/// OVC082/// 09/09 Q1013=
202209250150 METAR ESMX 250150Z AUTO 00000KT 9999 FEW055/// OVC080/// 09/09 Q1013=
202209250120 METAR ESMX 250120Z AUTO 00000KT 9999 OVC080/// 09/09 Q1013=
202209250050 METAR ESMX 250050Z AUTO 00000KT 9999 SCT055/// OVC080/// 09/09 Q1013=
202209250020 METAR ESMX 250020Z AUTO 13002KT 9999 OVC080/// 09/09 Q1013=
202209242350 METAR ESMX 242350Z AUTO 13003KT 9999 FEW053/// OVC082/// 09/09 Q1013=
202209242320 METAR ESMX 242320Z AUTO 13003KT 9999 FEW053/// OVC080/// 09/09 Q1014=
202209242250 METAR ESMX 242250Z AUTO 00000KT 9999 OVC080/// 09/09 Q1014=
202209242220 METAR ESMX 242220Z AUTO 16001KT 9999 FEW045/// OVC076/// 10/09 Q1014=
202209242150 METAR ESMX 242150Z AUTO 13003KT 9999 OVC076/// 10/09 Q1014=
202209242120 METAR ESMX 242120Z AUTO 13003KT 9999 OVC074/// 10/09 Q1014=
202209242050 METAR ESMX 242050Z AUTO 13003KT 9999 OVC070/// 11/09 Q1014=
202209242020 METAR ESMX 242020Z AUTO 13004KT 9999 OVC072/// 11/09 Q1014=
202209241950 METAR ESMX 241950Z AUTO 13004KT 9999 OVC072/// 11/09 Q1014=
202209241920 METAR ESMX 241920Z AUTO 13004KT 9999 OVC072/// 11/09 Q1014=
202209241850 METAR ESMX 241850Z AUTO 13003KT 9999 OVC072/// 11/09 Q1014=
202209241820 METAR ESMX 241820Z AUTO 13003KT 9999 SCT055/// OVC072/// 10/09 Q1014=
202209241750 METAR ESMX 241750Z AUTO 13002KT 9999 BKN053/// OVC070/// 11/10 Q1014=
202209241720 METAR ESMX 241720Z AUTO 13003KT 9999 FEW055/// OVC072/// 11/09 Q1014=
202209241650 METAR ESMX 241650Z AUTO 13002KT 9999 BKN049/// BKN059/// OVC072/// 11/10 Q1014=
202209241620 METAR ESMX 241620Z AUTO 13003KT 9999 BKN051/// OVC072/// 12/09 Q1014=
202209241550 METAR ESMX 241550Z AUTO 13001KT 9999 OVC051/// 12/09 Q1014=
202209241520 METAR ESMX 241520Z AUTO 13001KT 9999 OVC053/// 12/10 Q1014=
202209241450 METAR ESMX 241450Z AUTO VRB03KT 9999 BKN051/// OVC062/// 13/09 Q1014=
202209241420 METAR ESMX 241420Z AUTO 13003KT 9999 SCT043/// BKN051/// OVC072/// 13/09 Q1014=
202209241350 METAR ESMX 241350Z AUTO 13003KT 9999 SCT043/// BKN055/// OVC074/// 13/09 Q1014=
202209241320 METAR ESMX 241320Z AUTO 13004KT 9999 BKN057/// BKN072/// 13/09 Q1014=
202209241250 METAR ESMX 241250Z AUTO 14004KT 9999 FEW026/// OVC066/// 13/09 Q1014=
202209241220 METAR ESMX 241220Z AUTO 12004KT 060V170 9999 BKN026/// OVC061/// 13/08 Q1014=
202209241150 METAR ESMX 241150Z AUTO 14005KT 9999 BKN025/// OVC059/// 13/09 Q1014=
202209241120 METAR ESMX 241120Z AUTO 14003KT 9999 BKN024/// BKN044/// OVC055/// 13/08 Q1014=
202209241050 METAR ESMX 241050Z AUTO 14003KT 9999 FEW023/// SCT033/// OVC042/// 12/08 Q1014=
202209241020 METAR ESMX 241020Z AUTO 13003KT 070V160 9999 OVC043/// 12/08 Q1014=
202209240950 METAR ESMX 240950Z AUTO 13003KT 090V190 9999 OVC047/// 12/08 Q1014=
202209240920 METAR ESMX 240920Z AUTO VRB03KT 9999 OVC051/// 12/08 Q1014=
202209240850 METAR ESMX 240850Z AUTO 13004KT 080V190 9999 BKN051/// OVC062/// 12/08 Q1014=
202209240820 METAR ESMX 240820Z AUTO 13005KT 100V160 9999 OVC061/// 11/07 Q1014=
202209240750 METAR ESMX 240750Z AUTO 14005KT 100V210 9999 BKN053/// OVC064/// 11/07 Q1014=
202209240720 METAR ESMX 240720Z AUTO 14005KT 100V190 9999 OVC055/// 11/07 Q1014=
202209240650 METAR ESMX 240650Z AUTO 14006KT 110V170 9999 OVC059/// 10/07 Q1013=
202209240620 METAR ESMX 240620Z AUTO 15004KT 9999 OVC062/// 10/07 Q1013=
202209240550 METAR ESMX 240550Z AUTO 15004KT 9999 OVC064/// 10/07 Q1013=
202209240520 METAR ESMX 240520Z AUTO 15004KT 9999 OVC070/// 10/07 Q1013=
202209240450 METAR ESMX 240450Z AUTO 20004KT 9999 OVC078/// 10/07 Q1013=
202209240420 METAR ESMX 240420Z AUTO 14005KT 9999 OVC074/// 10/07 Q1013=
202209240350 METAR ESMX 240350Z AUTO 20004KT 9999 OVC070/// 10/07 Q1013=
202209240320 METAR ESMX 240320Z AUTO 20002KT 9999 BKN074/// 08/08 Q1014 REUP=
202209240250 METAR ESMX 240250Z AUTO 20002KT 9999 -DZ FEW055/// OVC076/// 09/08 Q1014 REUP=
202209240220 METAR ESMX 240220Z AUTO 20004KT 9999 OVC080/// 09/08 Q1014=
202209240150 METAR ESMX 240150Z AUTO 20003KT 9999 FEW057/// BKN080/// OVC098/// 09/08 Q1014=
202209240120 METAR ESMX 240120Z AUTO 20003KT 9999 FEW049/// BKN061/// OVC080/// 09/08 Q1014=
202209240050 METAR ESMX 240050Z AUTO 20003KT 9999 BKN074/// 10/08 Q1014=
202209240020 METAR ESMX 240020Z AUTO 16004KT 9999 SCT064/// BKN092/// 10/07 Q1014=
202209232350 METAR ESMX 232350Z AUTO 16003KT 9999 SCT066/// BKN098/// 10/07 Q1014=
202209232320 METAR ESMX 232320Z AUTO 15004KT 9999 FEW066/// SCT098/// BKN110/// 10/07 Q1015=
202209232250 METAR ESMX 232250Z AUTO 18003KT 9999 FEW120/// 10/07 Q1015=
202209232220 METAR ESMX 232220Z AUTO 20004KT 9999 SCT064/// BKN110/// 10/07 Q1015=
202209232150 METAR ESMX 232150Z AUTO 20004KT 9999 OVC064/// 10/07 Q1015=
202209232120 METAR ESMX 232120Z AUTO 20003KT 9999 FEW062/// SCT100/// 11/07 Q1015=
202209232050 METAR ESMX 232050Z AUTO 20004KT 9999 BKN092/// 11/08 Q1015=
202209232020 METAR ESMX 232020Z AUTO 20005KT 9999 NCD 11/08 Q1015=
202209231950 METAR ESMX 231950Z AUTO 20005KT 9999 NCD 11/08 Q1015=
202209231920 METAR ESMX 231920Z AUTO 20005KT 9999 NCD 11/08 Q1015=
202209231850 METAR ESMX 231850Z 20005KT CAVOK 12/08 Q1015=
202209231820 METAR ESMX 231820Z 20004KT CAVOK 11/09 Q1015=
202209231750 METAR ESMX 231750Z 20003KT CAVOK 11/08 Q1015=
202209231720 METAR ESMX 231720Z 17003KT CAVOK 13/07 Q1015=
202209231650 METAR ESMX 231650Z 20005KT CAVOK 13/08 Q1015=
202209231620 METAR ESMX 231620Z 20005KT CAVOK 13/08 Q1015=
202209231550 METAR ESMX 231550Z 19008KT 9999 FEW044 BKN062 14/07 Q1015=
202209231520 METAR COR ESMX 231520Z 20008KT 9999 FEW042 BKN062 14/08 Q1015=
202209231450 METAR ESMX 231450Z 19010KT CAVOK 14/07 Q1015=
202209231420 METAR ESMX 231420Z 19008KT CAVOK 15/07 Q1015=
202209231350 METAR ESMX 231350Z 18008KT 150V210 9999 FEW043 BKN210 16/07 Q1016=
202209231320 METAR ESMX 231320Z 22009KT 190V260 9999 FEW043 BKN057 17/08 Q1016=
202209231250 METAR ESMX 231250Z AUTO 21009KT 9999 FEW210/// 17/07 Q1016=
202209231220 METAR ESMX 231220Z 20010KT 9999 FEW036 SCT190 16/08 Q1016=
202209231150 METAR COR ESMX 231150Z 20009KT 190V260 9999 SCT032 16/08 Q1017=
202209231120 METAR ESMX 231120Z 21009KT 190V250 9999 SCT031 15/09 Q1017=
202209231050 METAR ESMX 231050Z 20008KT 9999 SCT027 15/09 Q1017=
202209231020 METAR ESMX 231020Z 19007KT 9999 FEW022 15/09 Q1017=
202209230950 METAR ESMX 230950Z 21007KT CAVOK 14/09 Q1017=
202209230920 METAR ESMX 230920Z 21006KT CAVOK 13/10 Q1018=
202209230850 METAR ESMX 230850Z 22006KT CAVOK 13/10 Q1018=
202209230820 METAR ESMX 230820Z 22006KT CAVOK 12/09 Q1018=
202209230750 METAR ESMX 230750Z 22006KT CAVOK 12/09 Q1018=
202209230720 METAR ESMX 230720Z 22004KT CAVOK 10/09 Q1018=
202209230650 METAR ESMX 230650Z 17004KT CAVOK 09/08 Q1018=
202209230620 METAR ESMX 230620Z 17004KT CAVOK 08/08 Q1018=
202209230550 METAR ESMX 230550Z 22004KT CAVOK 07/07 Q1018=
202209230520 METAR ESMX 230520Z 16004KT CAVOK 07/07 Q1018=
202209230450 METAR ESMX 230450Z 23005KT 9999 MIFG NSC 06/06 Q1018=
202209230420 METAR ESMX 230420Z 23005KT 9999 MIFG NSC 05/05 Q1018=
202209230350 METAR ESMX 230350Z AUTO 23005KT 9999 NCD 05/05 Q1018=
202209230320 METAR ESMX 230320Z AUTO 23004KT 3100 SCT057/// 06/06 Q1019=
202209230250 METAR ESMX 230250Z AUTO 23004KT 9999 NCD 05/05 Q1019=
202209230220 METAR ESMX 230220Z AUTO 23004KT 4200 NCD 06/06 Q1019=
202209230150 METAR ESMX 230150Z AUTO 23005KT 7000 NCD 06/06 Q1019=
202209230120 METAR ESMX 230120Z AUTO 23004KT 9999 NCD 05/05 Q1019=
202209230050 METAR ESMX 230050Z AUTO 23005KT 9999 NCD 05/05 Q1020=
202209230020 METAR ESMX 230020Z AUTO 23004KT 9999 NCD 05/05 Q1020=
202209222350 METAR ESMX 222350Z AUTO 23003KT 9999 FEW057/// 05/05 Q1020=
202209222320 METAR COR ESMX 222320Z 23003KT CAVOK 05/05 Q1020=
202209222250 METAR ESMX 222250Z 18003KT CAVOK 07/07 Q1020=
202209222220 METAR ESMX 222220Z AUTO 23003KT 9999 NCD 06/05 Q1021=
202209222150 METAR ESMX 222150Z AUTO 23004KT 9999 FEW059/// 05/05 Q1021=
202209222120 METAR ESMX 222120Z AUTO 23002KT 9999 FEW039/// 04/04 Q1021=
202209222050 METAR ESMX 222050Z AUTO 23003KT 9999 FEW042/// 06/06 Q1021=
202209222020 METAR ESMX 222020Z 23003KT CAVOK 06/06 Q1021=
202209221950 METAR COR ESMX 221950Z 15003KT CAVOK 06/05 Q1021=
202209221920 METAR ESMX 221920Z AUTO 23002KT 9999 NCD 06/06 Q1021=
202209221850 METAR ESMX 221850Z AUTO 24003KT 9999 NCD 07/06 Q1021=
202209221820 METAR ESMX 221820Z 23003KT CAVOK 07/06 Q1021=
202209221750 METAR ESMX 221750Z 23004KT CAVOK 09/07 Q1021=
202209221720 METAR ESMX 221720Z 23003KT CAVOK 09/08 Q1021=
202209221650 METAR ESMX 221650Z 25003KT 9999 FEW036 12/08 Q1021=
202209221620 METAR ESMX 221620Z 23003KT 9999 SCT038 BKN062 14/08 Q1021=
202209221550 METAR ESMX 221550Z 28003KT 9999 FEW046 BKN062 14/08 Q1021=
202209221520 METAR ESMX 221520Z 26004KT 220V300 9999 SCT045 BKN059 14/07 Q1022=
202209221450 METAR ESMX 221450Z 27006KT 240V300 CAVOK 15/07 Q1022=
202209221420 METAR ESMX 221420Z 21006KT 9999 BKN048 16/05 Q1022=
202209221350 METAR ESMX 221350Z 22005KT CAVOK 15/05 Q1022=
202209221320 METAR ESMX 221320Z 21006KT 180V250 CAVOK 16/04 Q1022=
202209221250 METAR ESMX 221250Z 21008KT CAVOK 17/05 Q1022=
202209221220 METAR ESMX 221220Z AUTO 22007KT 9999 NCD 16/03 Q1023=
202209221150 METAR ESMX 221150Z AUTO 21008KT 9999 NCD 16/03 Q1023=
202209221120 METAR ESMX 221120Z AUTO 22008KT 9999 NCD 16/04 Q1023=
202209221050 METAR ESMX 221050Z 24005KT CAVOK 15/05 Q1023=
202209221020 METAR ESMX 221020Z AUTO 20006KT 9999 NCD 16/05 Q1024=
202209220950 METAR ESMX 220950Z AUTO 20007KT 9999 NCD 15/05 Q1024=
202209220920 METAR ESMX 220920Z 17005KT CAVOK 14/08 Q1024=
202209220850 METAR ESMX 220850Z 17004KT CAVOK 13/07 Q1024=
202209220820 METAR ESMX 220820Z AUTO 15004KT 9999 NCD 12/08 Q1024=
202209220750 METAR ESMX 220750Z 00000KT 9999 VCFG NSC 09/09 Q1024=
202209220720 METAR COR ESMX 220720Z 00000KT 9999 R01/P2000N R19/0400U PRFG NSC 08/08 Q1024=
202209220650 METAR ESMX 220650Z 00000KT 0500 R01/1200U R19/0200N PRFG NSC 06/06 Q1024=
202209220620 METAR ESMX 220620Z 00000KT 0150 R01/0350N FG VV002 04/04 Q1024=
202209220550 METAR ESMX 220550Z 20002KT 0150 R01/0375N FG VV002 03/03 Q1024=
202209220520 METAR ESMX 220520Z 00000KT 0100 R19/0175N FG VV002 02/02 Q1024=
202209220450 METAR ESMX 220450Z 00000KT 0100 R01/0225N FG VV002 02/02 Q1024=
202209220420 METAR ESMX 220420Z 00000KT 0500 R01/0650U FG VV002 01/01 Q1024=
202209220350 METAR ESMX 220350Z 20002KT 0200 R01/0450N R19/0150N FG VV002 01/01 Q1024=
202209220320 METAR ESMX 220320Z AUTO 00000KT 0200 R01/0750N R19/0650N BCFG VV001 M00/M00 Q1024=
202209220250 METAR ESMX 220250Z AUTO 00000KT 9999 BCFG BKN000/// 01/01 Q1024=
202209220220 METAR ESMX 220220Z AUTO 00000KT 9999 BCFG BKN000/// 00/00 Q1024=
202209220150 METAR ESMX 220150Z AUTO 16001KT 0300 R01/0900N R19/P2000N BCFG NCD 01/01 Q1024=
202209220120 METAR ESMX 220120Z AUTO 00000KT 0600 R01/P2000N R19/P2000N BCFG NCD 02/02 Q1025=
202209220050 METAR ESMX 220050Z AUTO VRB01KT 9999 BR SCT064/// 01/01 Q1025=
202209220020 METAR ESMX 220020Z AUTO 00000KT 9999 FEW064/// 03/03 Q1025=
202209212350 METAR ESMX 212350Z AUTO VRB02KT 2700 BR FEW062/// 02/02 Q1025=
202209212320 METAR COR ESMX 212320Z 18002KT CAVOK 04/04 Q1025=
202209212250 METAR ESMX 212250Z AUTO 19001KT 9999 NCD 04/04 Q1025=
202209212220 METAR ESMX 212220Z AUTO 18001KT 9999 NCD 05/05 Q1025=
202209212150 METAR ESMX 212150Z AUTO 17003KT 9999 NCD 05/05 Q1025=
202209212120 METAR ESMX 212120Z AUTO 17002KT 9999 SCT064/// 04/04 Q1025=
202209212050 METAR COR ESMX 212050Z 00000KT CAVOK 06/06 Q1025=
202209212020 METAR ESMX 212020Z VRB01KT CAVOK 07/07 Q1025=
202209211950 METAR ESMX 211950Z 00000KT CAVOK 07/06 Q1025=
202209211920 METAR ESMX 211920Z 00000KT CAVOK 08/08 Q1025=
202209211850 METAR ESMX 211850Z 00000KT CAVOK 08/07 Q1025=
202209211820 METAR ESMX 211820Z 24003KT CAVOK 09/08 Q1025=
202209211750 METAR ESMX 211750Z 00000KT CAVOK 09/08 Q1025=
202209211720 METAR ESMX 211720Z 00000KT CAVOK 10/08 Q1024=
202209211650 METAR ESMX 211650Z VRB02KT 9999 FEW048 BKN061 10/08 Q1024=
202209211620 METAR ESMX 211620Z 26001KT CAVOK 11/08 Q1024=
202209211550 METAR ESMX 211550Z 31003KT CAVOK 12/07 Q1024=
202209211520 METAR ESMX 211520Z 29005KT 250V330 CAVOK 15/06 Q1024=
202209211450 METAR ESMX 211450Z 22003KT CAVOK 13/05 Q1024=
202209211420 METAR ESMX 211420Z 27004KT 230V310 CAVOK 14/05 Q1024=
202209211350 METAR ESMX 211350Z 22004KT CAVOK 13/05 Q1024=
202209211320 METAR ESMX 211320Z 26005KT CAVOK 14/05 Q1025=
202209211250 METAR ESMX 211250Z 29004KT 250V350 9999 FEW043 BKN064 15/05 Q1025=
202209211220 METAR ESMX 211220Z 23003KT 9999 FEW042 BKN064 14/05 Q1025=
202209211150 METAR ESMX 211150Z VRB02KT 9999 SCT045 14/05 Q1025=
202209211120 METAR ESMX 211120Z 09003KT 9999 BKN042 14/05 Q1025=
202209211050 METAR ESMX 211050Z 10003KT 9999 FEW033 BKN049 13/05 Q1025=
202209211020 METAR ESMX 211020Z VRB02KT 9999 SCT046 13/06 Q1025=
202209210950 METAR ESMX 210950Z VRB03KT 9999 FEW046 13/06 Q1025=
202209210920 METAR COR ESMX 210920Z 29003KT 240V330 9999 FEW045 13/06 Q1025=
202209210850 METAR ESMX 210850Z 21004KT 9999 SCT045 12/06 Q1025=
202209210820 METAR ESMX 210820Z VRB03KT CAVOK 11/05 Q1025=
202209210750 METAR ESMX 210750Z 00000KT CAVOK 11/07 Q1025=
202209210720 METAR ESMX 210720Z VRB02KT CAVOK 08/07 Q1025=
202209210650 METAR ESMX 210650Z 00000KT 9999 FEW002 07/07 Q1025=
202209210620 METAR ESMX 210620Z 00000KT 9999 FEW002 04/04 Q1025=
202209210550 METAR ESMX 210550Z 00000KT 9999 FEW002 01/01 Q1025=
202209210520 METAR ESMX 210520Z 00000KT 9999 FEW002 01/01 Q1024=
202209210450 METAR ESMX 210450Z 00000KT 2000 BCFG SCT002 00/00 Q1024=
202209210420 METAR ESMX 210420Z 00000KT 1500 BCFG NSC M00/M00 Q1024=
202209210350 METAR ESMX 210350Z AUTO 18002KT 9999 BCFG NCD 01/01 Q1024=
202209210320 METAR ESMX 210320Z AUTO 00000KT 4400 BCFG NCD 01/01 Q1024=
202209210250 METAR ESMX 210250Z AUTO 00000KT 9999 NCD 00/00 Q1024=
202209210220 METAR ESMX 210220Z AUTO 00000KT 2000 FG NCD 00/00 Q1023=
202209210150 METAR ESMX 210150Z AUTO 00000KT 9999 NCD 01/01 Q1023=
202209210120 METAR ESMX 210120Z AUTO 35003KT 9999 NCD 00/00 Q1023=
202209210050 METAR ESMX 210050Z AUTO 00000KT 9999 NCD 01/01 Q1023=
202209210020 METAR ESMX 210020Z AUTO 00000KT 9999 NCD 02/02 Q1023=
202209202350 METAR ESMX 202350Z AUTO 00000KT 9999 NCD 02/02 Q1023=
202209202320 METAR ESMX 202320Z VRB02KT CAVOK 02/02 Q1023=
202209202250 METAR ESMX 202250Z AUTO 00000KT 9999 NCD 04/04 Q1023=
202209202220 METAR COR ESMX 202220Z 31002KT CAVOK 03/03 Q1023=
202209202150 METAR ESMX 202150Z AUTO 30002KT 9999 NCD 03/03 Q1023=
202209202120 METAR ESMX 202120Z AUTO 29002KT 9999 NCD 04/04 Q1023=
202209202050 METAR ESMX 202050Z AUTO 29001KT 9999 NCD 05/05 Q1022=
202209202020 METAR ESMX 202020Z 00000KT CAVOK 04/04 Q1022=
202209201950 METAR COR ESMX 201950Z 00000KT CAVOK 05/05 Q1022=
202209201920 METAR ESMX 201920Z AUTO 34002KT 9999 NCD 06/06 Q1022=
202209201850 METAR ESMX 201850Z AUTO 34001KT 9999 NCD 07/06 Q1021=
202209201820 METAR ESMX 201820Z AUTO 32005KT 9999 NCD 08/06 Q1021=
202209201750 METAR ESMX 201750Z AUTO 33004KT 9999 NCD 09/06 Q1021=
202209201720 METAR ESMX 201720Z AUTO 35007KT 9999 SCT047/// 11/06 Q1021=
202209201650 METAR ESMX 201650Z 35006KT 9999 BKN048 12/07 Q1020=
202209201620 METAR ESMX 201620Z 36009KT 9999 BKN048 12/06 Q1020=
202209201550 METAR ESMX 201550Z 33006KT 9999 FEW034 BKN049 13/07 Q1020=
202209201520 METAR ESMX 201520Z 33006KT 290V010 9999 BKN044 13/07 Q1019=
202209201450 METAR ESMX 201450Z 33007KT 9999 FEW035 BKN048 14/07 Q1019=
202209201420 METAR ESMX 201420Z 35006KT 9999 BKN043 14/06 Q1019=
202209201350 METAR ESMX 201350Z 35007KT 9999 BKN047 13/06 Q1019=
202209201320 METAR ESMX 201320Z 34008KT 9999 FEW035 BKN044 13/06 Q1019=
202209201250 METAR ESMX 201250Z 35008KT 9999 BKN045 13/06 Q1019=
202209201220 METAR ESMX 201220Z 33010KT 9999 BKN043 13/05 Q1018=
202209201150 METAR ESMX 201150Z 36006KT 9999 BKN043 14/05 Q1018=
202209201120 METAR ESMX 201120Z 35009KT 9999 FEW034 BKN045 13/06 Q1018=
202209201050 METAR ESMX 201050Z 01009KT 330V030 9999 BKN033 14/06 Q1018=
202209201020 METAR ESMX 201020Z 35010KT 9999 BKN045 13/06 Q1017=
202209200950 METAR ESMX 200950Z 34010KT 9999 FEW024 BKN042 13/07 Q1017=
202209200920 METAR ESMX 200920Z 01009KT 9999 BKN028 13/07 Q1017=
202209200850 METAR ESMX 200850Z 34011KT 9999 BKN016 12/08 Q1017=
202209200820 METAR COR ESMX 200820Z 01012KT 9999 BKN016 11/08 Q1017=
202209200750 METAR ESMX 200750Z 35010KT 9999 FEW014 SCT046 12/08 Q1016=
202209200720 METAR ESMX 200720Z 36010KT 9999 FEW013 11/08 Q1016=
202209200650 METAR ESMX 200650Z 34007KT 320V020 9999 FEW011 10/08 Q1016=
202209200620 METAR ESMX 200620Z 33006KT 300V010 9999 FEW008 10/08 Q1015=
202209200550 METAR ESMX 200550Z 33007KT 9999 FEW008 SCT090 09/08 Q1015=
202209200520 METAR ESMX 200520Z 32006KT CAVOK 09/08 Q1015=
202209200450 METAR ESMX 200450Z 32006KT 9999 FEW039 BKN092 09/08 Q1014=
202209200420 METAR ESMX 200420Z 32006KT 9999 BKN040 09/08 Q1014=
202209200350 METAR COR ESMX 200350Z 32007KT 9999 BKN038 09/08 Q1014=
202209200320 METAR ESMX 200320Z AUTO 32008KT 9999 OVC032/// 08/08 Q1014=
202209200250 METAR ESMX 200250Z AUTO 32007KT 9999 OVC032/// 08/08 Q1014=
202209200220 METAR ESMX 200220Z AUTO 32006KT 9999 OVC034/// 08/07 Q1013=
202209200150 METAR ESMX 200150Z AUTO 32006KT 9999 SCT034/// BKN090/// 07/06 Q1013=
202209200120 METAR ESMX 200120Z AUTO 32005KT 9999 OVC090/// 07/06 Q1013=
202209200050 METAR ESMX 200050Z AUTO 31004KT 9999 SCT090/// 06/06 Q1013=
202209200020 METAR ESMX 200020Z AUTO 32004KT 9999 NCD 06/06 Q1013=
202209192350 METAR ESMX 192350Z AUTO 30004KT 9999 NCD 07/06 Q1012=
202209192320 METAR ESMX 192320Z 31004KT CAVOK 07/06 Q1012=
202209192250 METAR COR ESMX 192250Z 30004KT CAVOK 07/06 Q1012=
202209192220 METAR ESMX 192220Z 30006KT CAVOK 08/06 Q1012=
202209192150 METAR ESMX 192150Z 31005KT CAVOK 10/07 Q1012=
202209192120 METAR ESMX 192120Z 31005KT CAVOK 10/07 Q1012=
202209192050 METAR ESMX 192050Z 29005KT CAVOK 10/07 Q1012=
202209192020 METAR ESMX 192020Z 31005KT CAVOK 10/07 Q1012=
202209191950 METAR COR ESMX 191950Z 31005KT 280V340 CAVOK 10/07 Q1012=
202209191920 METAR ESMX 191920Z AUTO 31004KT 9999 OVC057/// 10/08 Q1011=
202209191850 METAR ESMX 191850Z AUTO 31006KT 9999 OVC059/// 11/07 Q1011=
202209191820 METAR ESMX 191820Z AUTO 32006KT 280V340 9999 OVC062/// 11/07 Q1011=
202209191750 METAR ESMX 191750Z AUTO 32005KT 9999 OVC062/// 11/07 Q1011=
202209191720 METAR ESMX 191720Z AUTO 32007KT 9999 OVC061/// 11/07 Q1011=
202209191650 METAR ESMX 191650Z 32008KT 280V340 CAVOK 12/07 Q1010=
202209191620 METAR ESMX 191620Z 32006KT CAVOK 12/07 Q1010=
202209191550 METAR ESMX 191550Z 31007KT 280V340 CAVOK 13/07 Q1010=
202209191520 METAR ESMX 191520Z 32008KT CAVOK 13/07 Q1010=
202209191450 METAR ESMX 191450Z 31009KT 280V340 CAVOK 13/07 Q1010=
202209191420 METAR ESMX 191420Z 31007KT CAVOK 13/07 Q1010=
202209191350 METAR ESMX 191350Z 30009KT 9999 FEW049 BKN057 13/07 Q1009=
202209191320 METAR ESMX 191320Z 32010KT 290V010 9999 FEW043 BKN059 14/07 Q1009=
202209191250 METAR ESMX 191250Z 31010KT 9999 FEW039 BKN055 14/07 Q1009=
202209191220 METAR ESMX 191220Z AUTO 31010KT 280V350 9999 FEW033/// OVC055/// 13/08 Q1009=
202209191150 METAR COR ESMX 191150Z 34011KT 9999 FEW035 BKN055 14/07 Q1009=
202209191120 METAR ESMX 191120Z 33010KT 300V360 9999 FEW029 BKN055 14/08 Q1009=
202209191050 METAR ESMX 191050Z 33011KT 9999 SCT029 14/08 Q1008=
202209191020 METAR ESMX 191020Z 33012KT 9999 SCT024 13/08 Q1008=
202209190950 METAR ESMX 190950Z 31011KT 9999 SCT021 13/08 Q1008=
202209190920 METAR ESMX 190920Z 33011KT 300V010 9999 SCT020 12/08 Q1008=
202209190850 METAR ESMX 190850Z 33010KT 9999 FEW017 13/09 Q1008=
202209190820 METAR ESMX 190820Z 31009KT 270V340 9999 FEW013 12/09 Q1007=
202209190750 METAR ESMX 190750Z 33008KT 9999 FEW013 11/09 Q1007=
202209190720 METAR ESMX 190720Z 32007KT 9999 FEW010 11/09 Q1007=
202209190650 METAR ESMX 190650Z 32009KT 9999 FEW010 10/09 Q1007=
202209190620 METAR COR ESMX 190620Z 32007KT FEW009 10/09 Q1007=
202209190550 METAR ESMX 190550Z 32007KT 9999 FEW009 10/09 Q1007=
202209190520 METAR ESMX 190520Z 32006KT CAVOK 10/09 Q1006=
202209190450 METAR ESMX 190450Z 31006KT 270V350 CAVOK 09/09 Q1006=
202209190420 METAR ESMX 190420Z 31006KT CAVOK 09/09 Q1006=
202209190350 METAR ESMX 190350Z AUTO 31005KT 9999 OVC062/// 09/09 Q1006=
202209190320 METAR ESMX 190320Z AUTO 31006KT 9999 OVC062/// 10/09 Q1006=
202209190250 METAR ESMX 190250Z AUTO 31005KT 9999 OVC062/// 09/09 Q1006=
202209190220 METAR ESMX 190220Z AUTO 31005KT 9999 OVC061/// 09/09 Q1006=
202209190150 METAR ESMX 190150Z AUTO 32006KT 9999 OVC061/// 10/09 Q1005=
202209190120 METAR ESMX 190120Z AUTO 31004KT 9999 OVC061/// 09/09 Q1005=
202209190050 METAR ESMX 190050Z AUTO 30002KT 9999 OVC061/// 09/09 Q1005=
202209190020 METAR ESMX 190020Z AUTO 31003KT 9999 OVC062/// 07/07 Q1005=
202209182350 METAR ESMX 182350Z AUTO 31004KT 9999 OVC064/// 08/08 Q1005=
202209182320 METAR ESMX 182320Z AUTO 32006KT 9999 OVC068/// 08/08 Q1005=
202209182250 METAR ESMX 182250Z AUTO 34003KT 9999 BKN068/// 08/08 Q1005=
202209182220 METAR ESMX 182220Z AUTO 36005KT 9999 BKN066/// 08/08 Q1005=
202209182150 METAR ESMX 182150Z AUTO 32004KT 9999 BKN064/// 09/08 Q1005=
202209182120 METAR ESMX 182120Z AUTO 34006KT 9999 BKN062/// 09/09 Q1005 RESHUP REUP=
202209182050 METAR ESMX 182050Z AUTO 35006KT 9999 OVC062/// 09/09 Q1005=
202209182020 METAR ESMX 182020Z AUTO 35004KT 9999 OVC068/// 09/09 Q1005=
202209181950 METAR ESMX 181950Z 35007KT CAVOK 09/09 Q1005=
202209181920 METAR ESMX 181920Z 33006KT CAVOK 08/08 Q1005=
202209181850 METAR ESMX 181850Z 34005KT CAVOK 09/09 Q1004=
202209181820 METAR ESMX 181820Z 02007KT CAVOK 10/09 Q1004=
202209181750 METAR ESMX 181750Z 36006KT CAVOK 10/10 Q1004=
202209181720 METAR ESMX 181720Z 35004KT CAVOK 10/10 Q1003=
202209181650 METAR ESMX 181650Z AUTO 31004KT 9999 BKN066/// 10/10 Q1003=
202209181620 METAR ESMX 181620Z AUTO 02003KT 9999 FEW059/// SCT100/// 10/10 Q1003=
202209181550 METAR ESMX 181550Z 36005KT 9999 FEW041 BKN057 11/10 Q1002=
202209181520 METAR ESMX 181520Z 36008KT 9999 RA FEW002 BKN053 11/09 Q1002 RESHRA=
202209181450 METAR ESMX 181450Z 01010KT 9999 FEW048 BKN053 13/07 Q1002=
202209181420 METAR ESMX 181420Z 31004KT 9999 FEW045 BKN062 15/07 Q1002=
202209181350 METAR ESMX 181350Z 02008KT 9999 FEW047 BKN068 15/07 Q1002=
202209181320 METAR ESMX 181320Z 36004KT 320V070 CAVOK 16/05 Q1001=
202209181250 METAR ESMX 181250Z VRB03KT CAVOK 16/04 Q1001=
202209181220 METAR ESMX 181220Z VRB02KT CAVOK 16/04 Q1001=
202209181150 METAR ESMX 181150Z VRB03KT CAVOK 15/04 Q1001=
202209181120 METAR ESMX 181120Z 08003KT CAVOK 16/04 Q1001=
202209181050 METAR ESMX 181050Z 05004KT 010V100 CAVOK 16/05 Q1001=
202209181020 METAR ESMX 181020Z VRB03KT CAVOK 16/06 Q1001=
202209180950 METAR ESMX 180950Z 23002KT CAVOK 15/07 Q1001=
202209180920 METAR ESMX 180920Z VRB01KT CAVOK 14/09 Q1001=
202209180850 METAR ESMX 180850Z VRB01KT CAVOK 13/10 Q1001=
202209180820 METAR ESMX 180820Z 23001KT CAVOK 12/09 Q1001=
202209180750 METAR ESMX 180750Z VRB02KT CAVOK 11/10 Q1000=
202209180720 METAR ESMX 180720Z 23001KT CAVOK 10/09 Q1000=
202209180650 METAR ESMX 180650Z 00000KT CAVOK 08/08 Q1000=
202209180620 METAR ESMX 180620Z 00000KT CAVOK 07/07 Q1000=
202209180550 METAR COR ESMX 180550Z 20001KT CAVOK 06/06 Q1000=
202209180520 METAR ESMX 180520Z AUTO 00000KT 9999 SCT059/// OVC070/// 06/06 Q1000=
202209180450 METAR ESMX 180450Z AUTO 00000KT 9999 OVC070/// 06/06 Q1000=
202209180420 METAR ESMX 180420Z AUTO 19002KT 9999 FEW053/// OVC070/// 07/07 Q1000=
202209180350 METAR ESMX 180350Z AUTO 23003KT 9999 OVC066/// 07/07 Q1000=
202209180320 METAR ESMX 180320Z AUTO 20002KT 9999 OVC064/// 07/07 Q1000=
202209180250 METAR ESMX 180250Z AUTO 18003KT 9999 BKN064/// 05/05 Q1000=
202209180220 METAR ESMX 180220Z AUTO 18003KT 9999 FEW066/// 06/06 Q1000=
202209180150 METAR ESMX 180150Z AUTO 17002KT 9999 SCT061/// 06/06 Q1000=
202209180120 METAR ESMX 180120Z AUTO VRB02KT 9999 SCT070/// 06/06 Q1000=
202209180050 METAR ESMX 180050Z AUTO 00000KT 9999 SCT072/// 07/07 Q1000=
202209180020 METAR ESMX 180020Z AUTO 24002KT 9999 OVC072/// 07/07 Q1000=
202209172350 METAR ESMX 172350Z AUTO 24003KT 9999 BKN072/// 07/07 Q1000=
202209172320 METAR ESMX 172320Z AUTO 25003KT 9999 BKN070/// 07/07 Q1000=
202209172250 METAR ESMX 172250Z AUTO 27003KT 9999 FEW068/// 07/07 Q1000=
202209172220 METAR ESMX 172220Z AUTO 26003KT 9999 BKN066/// 07/06 Q1000=
202209172150 METAR ESMX 172150Z AUTO 24003KT 9999 FEW066/// 07/06 Q1000=
202209172120 METAR ESMX 172120Z AUTO 26004KT 9999 SCT066/// 07/07 Q1000=
202209172050 METAR ESMX 172050Z AUTO 00000KT 9999 SCT066/// 06/05 Q1000=
202209172020 METAR ESMX 172020Z AUTO 17002KT 9999 NCD 08/07 Q1000=
202209171950 METAR ESMX 171950Z AUTO VRB03KT 9999 NCD 08/08 Q1000=
202209171920 METAR ESMX 171920Z AUTO 27002KT 9999 OVC059/// 10/09 Q1000=
202209171850 METAR ESMX 171850Z AUTO 00000KT 9999 OVC059/// 10/10 Q1000=
202209171820 METAR ESMX 171820Z AUTO 29003KT 9999 OVC061/// 10/10 Q1000=
202209171750 METAR ESMX 171750Z AUTO 29003KT 9999 OVC061/// 11/10 Q1000=
202209171720 METAR ESMX 171720Z AUTO 27003KT 9999 OVC061/// 12/10 Q0999=
202209171650 METAR ESMX 171650Z AUTO 30002KT 9999 FEW046/// OVC061/// 14/09 Q0999=
202209171620 METAR ESMX 171620Z AUTO 29002KT 9999 FEW041/// OVC061/// 14/09 Q0999=
202209171550 METAR ESMX 171550Z AUTO 31004KT 9999 OVC059/// 14/09 Q0999=
202209171520 METAR ESMX 171520Z AUTO 31004KT 280V350 9999 OVC057/// 14/08 Q0999=
202209171450 METAR ESMX 171450Z AUTO 31005KT 9999 OVC055/// 15/08 Q0999=
202209171420 METAR ESMX 171420Z AUTO 31005KT 9999 OVC051/// 14/08 Q0999=
202209171350 METAR ESMX 171350Z AUTO 30008KT 9999 BKN048/// 14/07 Q0999=
202209171320 METAR ESMX 171320Z AUTO 31010KT 280V340 9999 BKN051/// 14/08 Q0999=
202209171250 METAR ESMX 171250Z AUTO 30009KT 260V330 9999 FEW035/// BKN051/// 15/09 Q0999=
202209171220 METAR ESMX 171220Z AUTO 30008KT 260V330 9999 SCT046/// 15/08 Q0998=
202209171150 METAR ESMX 171150Z AUTO 30008KT 270V340 9999 SCT033/// BKN045/// 15/08 Q0998=
202209171120 METAR ESMX 171120Z AUTO 29008KT 260V350 9999 FEW030/// SCT049/// 16/09 Q0998=
202209171050 METAR ESMX 171050Z AUTO 29009KT 260V330 9999 SCT027/// 15/09 Q0998=
202209171020 METAR ESMX 171020Z AUTO 29008KT 260V350 9999 FEW025/// 15/09 Q0998=
202209170950 METAR ESMX 170950Z AUTO 30009KT 260V330 9999 SCT021/// 14/09 Q0998=
202209170920 METAR ESMX 170920Z AUTO 28008KT 260V320 9999 FEW019/// 14/09 Q0998=
202209170850 METAR ESMX 170850Z AUTO 30008KT 260V350 9999 NCD 13/09 Q0998=
202209170820 METAR ESMX 170820Z 32007KT 290V350 CAVOK 12/09 Q0998=
202209170750 METAR ESMX 170750Z 31007KT 270V350 CAVOK 11/09 Q0998=
202209170720 METAR ESMX 170720Z 29006KT CAVOK 10/09 Q0998=
202209170650 METAR ESMX 170650Z AUTO 30005KT 270V340 9999 NCD 09/08 Q0997=
202209170620 METAR ESMX 170620Z AUTO 31005KT 9999 NCD 08/08 Q0997=
202209170550 METAR ESMX 170550Z AUTO 32004KT 290V350 9999 NCD 07/07 Q0997=
202209170520 METAR ESMX 170520Z AUTO 30005KT 9999 NCD 07/07 Q0997=
202209170450 METAR ESMX 170450Z AUTO 29006KT 9999 NCD 07/07 Q0997=
202209170420 METAR ESMX 170420Z AUTO 29005KT 9999 NCD 07/07 Q0997=
202209170350 METAR ESMX 170350Z AUTO 29005KT 9999 FEW057/// 07/07 Q0997=
202209170320 METAR ESMX 170320Z AUTO 27005KT 9999 NCD 07/07 Q0996=
202209170250 METAR ESMX 170250Z AUTO 26005KT 9999 NCD 08/08 Q0996=
202209170220 METAR ESMX 170220Z AUTO 27005KT 9999 NCD 08/08 Q0996=
202209170150 METAR ESMX 170150Z AUTO 26005KT 9999 NCD 08/08 Q0996=
202209170120 METAR ESMX 170120Z AUTO 27005KT 9999 NCD 08/08 Q0996=
202209170050 METAR ESMX 170050Z AUTO 26004KT 9999 NCD 09/08 Q0996=
202209170020 METAR ESMX 170020Z AUTO 26005KT 230V290 9999 BKN061/// 09/08 Q0996=
202209162350 METAR ESMX 162350Z AUTO 27006KT 9999 OVC062/// 10/09 Q0996=
202209162320 METAR ESMX 162320Z AUTO 29005KT 9999 FEW048/// OVC062/// 10/09 Q0996=
202209162250 METAR ESMX 162250Z AUTO 28006KT 9999 BKN064/// 10/09 Q0996=
202209162220 METAR ESMX 162220Z AUTO 27006KT 9999 BKN061/// 10/09 Q0996=
202209162150 METAR ESMX 162150Z AUTO 28006KT 9999 OVC062/// 10/09 Q0996=
202209162120 METAR ESMX 162120Z AUTO 28005KT 9999 OVC064/// 10/09 Q0996=
202209162050 METAR ESMX 162050Z AUTO 28004KT 9999 SCT064/// 09/08 Q0996=
202209162020 METAR ESMX 162020Z AUTO 28004KT 9999 FEW061/// 10/09 Q0996=
202209161950 METAR ESMX 161950Z AUTO 27005KT 9999 NCD 10/09 Q0995=
202209161920 METAR ESMX 161920Z AUTO 27006KT 9999 SCT062/// 10/09 Q0995=
202209161850 METAR ESMX 161850Z AUTO 27004KT 9999 SCT062/// 10/09 Q0995=
202209161820 METAR ESMX 161820Z 26004KT CAVOK 10/10 Q0995=
202209161750 METAR ESMX 161750Z 29004KT 9999 -SHRA FEW035CB BKN068 11/09 Q0995=
202209161720 METAR ESMX 161720Z 29004KT 9999 FEW035CB BKN062 12/10 Q0995=
202209161650 METAR ESMX 161650Z 30006KT 9999 -SHRA FEW035CB BKN044 12/10 Q0995=
202209161620 METAR ESMX 161620Z 29006KT 9999 FEW025CB BKN066 13/09 Q0995=
202209161550 METAR ESMX 161550Z 32004KT 9999 VCSH FEW030CB BKN062 14/11 Q0994=
202209161520 METAR ESMX 161520Z 27004KT 9999 VCSH FEW030CB BKN066 14/11 Q0994=
202209161450 METAR ESMX 161450Z 29010KT 9999 -SHRA FEW041CB BKN066 13/10 Q0994=
202209161420 METAR ESMX 161420Z 29008KT 9999 VCSH FEW045CB BKN068 14/10 Q0994=
202209161350 METAR ESMX 161350Z 29007KT 260V320 9999 VCSH FEW031CB BKN068 14/10 Q0994=
202209161320 METAR ESMX 161320Z 29005KT 9999 VCSH FEW030 BKN068 15/11 Q0993=
202209161250 METAR ESMX 161250Z 34004KT 9999 VCSH FEW030 SCT048 BKN066 12/11 Q0993=
202209161220 METAR ESMX 161220Z AUTO 29008KT 240V320 9999 FEW001/// BKN030/// OVC055/// 15/09 Q0993=
202209161150 METAR COR ESMX 161150Z 28008KT 250V320 9999 FEW031 BKN042 15/09 Q0993=
202209161120 METAR ESMX 161120Z 30009KT 250V330 9999 FEW027 BKN034 15/09 Q0993=
202209161050 METAR ESMX 161050Z 30010KT 9999 FEW024 BKN032 14/09 Q0993=
202209161020 METAR ESMX 161020Z 30010KT 9999 SCT021 BKN051 14/10 Q0993=
202209160950 METAR ESMX 160950Z 30011KT 9999 BKN021 15/11 Q0993=
202209160920 METAR ESMX 160920Z 29010KT 9999 BKN017 14/10 Q0993=
202209160850 METAR ESMX 160850Z 28009KT 250V310 9999 BKN013 14/10 Q0992=
202209160820 METAR ESMX 160820Z 26010KT 9999 FEW010 BKN053 12/10 Q0992=
202209160750 METAR ESMX 160750Z 27007KT 250V310 9999 SCT010 BKN051 12/11 Q0992=
202209160720 METAR ESMX 160720Z 27009KT 9999 SCT009 BKN012 12/11 Q0992=
202209160650 METAR ESMX 160650Z 26009KT 9999 SCT006 BKN014 11/11 Q0992=
202209160620 METAR ESMX 160620Z AUTO 27007KT 9999 BKN006/// BKN009/// OVC011/// 11/11 Q0992=
202209160550 METAR ESMX 160550Z AUTO 25009KT 9999 OVC006/// 10/10 Q0992=
202209160520 METAR ESMX 160520Z 23008KT 9999 BKN006 10/10 Q0991=
202209160450 METAR ESMX 160450Z 24006KT 9999 BKN007 09/09 Q0991=
202209160420 METAR ESMX 160420Z 23007KT 9999 SCT007 OVC068 09/09 Q0991=
202209160350 METAR COR ESMX 160350Z 23007KT 9999 SCT007 BKN064 09/09 Q0991=
202209160320 METAR ESMX 160320Z AUTO 24007KT 9999 SCT066/// 08/08 Q0991=
202209160250 METAR ESMX 160250Z AUTO 23007KT 9999 FEW009/// SCT110/// 08/08 Q0991=
202209160220 METAR ESMX 160220Z AUTO 23008KT 9999 BKN110/// 08/08 Q0992=
202209160150 METAR ESMX 160150Z AUTO 23007KT 9999 OVC100/// 08/08 Q0992=
202209160120 METAR ESMX 160120Z AUTO 22007KT 9999 OVC100/// 09/09 Q0992=
202209160050 METAR ESMX 160050Z AUTO 23007KT 9999 OVC100/// 08/08 Q0992=
202209160020 METAR ESMX 160020Z AUTO 23007KT 9999 OVC100/// 08/08 Q0992=
202209152350 METAR ESMX 152350Z 23007KT CAVOK 08/08 Q0992=
202209152320 METAR ESMX 152320Z 23007KT CAVOK 08/08 Q0992=
202209152250 METAR ESMX 152250Z 23008KT CAVOK 07/07 Q0992=
202209152220 METAR ESMX 152220Z 23008KT CAVOK 08/07 Q0992=
202209152150 METAR ESMX 152150Z 22007KT CAVOK 07/07 Q0992=
202209152120 METAR ESMX 152120Z 22007KT CAVOK 07/07 Q0992=
202209152050 METAR ESMX 152050Z 22006KT CAVOK 07/07 Q0992=
202209152020 METAR ESMX 152020Z 21006KT CAVOK 07/07 Q0993=
202209151950 METAR ESMX 151950Z 21007KT CAVOK 07/07 Q0993=
202209151920 METAR ESMX 151920Z AUTO 22007KT 9999 NCD 07/07 Q0993=
202209151850 METAR ESMX 151850Z AUTO 22007KT 9999 NCD 08/08 Q0993=
202209151820 METAR ESMX 151820Z 22007KT CAVOK 09/08 Q0993=
202209151750 METAR ESMX 151750Z 25006KT 9999 SHRA FEW030CB BKN047 09/08 Q0993=
202209151720 METAR ESMX 151720Z 29010KT 9999 BKN039CB 10/08 Q0993=
202209151650 METAR ESMX 151650Z 25005KT 9999 FEW030CB SCT066 10/08 Q0993=
202209151620 METAR ESMX 151620Z 29005KT 9999 SHRA FEW029CB SCT039 09/07 Q0994=
202209151550 METAR ESMX 151550Z 32008KT 290V010 9999 BKN026CB 12/05 Q0993=
202209151520 METAR ESMX 151520Z 32010KT 280V360 9999 BKN028CB 15/08 Q0993=
202209151450 METAR ESMX 151450Z 26011KT 9999 SCT034CB 15/07 Q0993=
202209151420 METAR ESMX 151420Z 26012KT 230V290 9999 FEW040CB 15/06 Q0993=
202209151350 METAR ESMX 151350Z 28011KT 230V300 9999 FEW036CB 15/06 Q0993=
202209151320 METAR ESMX 151320Z 27014KT 9999 FEW037TCU 15/06 Q0992=
202209151250 METAR ESMX 151250Z 24013KT 200V270 9999 SCT034 15/08 Q0992=
202209151220 METAR ESMX 151220Z 28012KT 250V320 9999 FEW034 15/08 Q0992=
202209151150 METAR ESMX 151150Z 28013KT 230V310 CAVOK 15/07 Q0992=
202209151120 METAR COR ESMX 151120Z 26012KT 220V290 CAVOK 16/09 Q0992=
202209151050 METAR ESMX 151050Z 26009KT 230V290 9999 FEW031 SCT040 15/09 Q0992=
202209151020 METAR ESMX 151020Z AUTO 25011KT 9999 SCT030/// BKN046/// 15/09 Q0992=
202209150950 METAR ESMX 150950Z 27010KT 9999 BKN026 14/09 Q0992=
202209150920 METAR ESMX 150920Z 25011KT 220V280 9999 BKN018 14/10 Q0992=
202209150850 METAR COR ESMX 150850Z 25009KT 210V280 9999 BKN017 13/10 Q0992=
202209150820 METAR ESMX 150820Z 26009KT 9999 BKN014 13/10 Q0992=
202209150750 METAR ESMX 150750Z 25008KT 220V290 9999 FEW010 BKN013 12/11 Q0992=
202209150720 METAR ESMX 150720Z 22009KT 9999 FEW009 SCT014 11/10 Q0992=
202209150650 METAR ESMX 150650Z 21007KT 9999 FEW010 SCT074 10/10 Q0992=
202209150620 METAR COR ESMX 150620Z 23007KT CAVOK 11/10 Q0992=
202209150550 METAR ESMX 150550Z AUTO 23006KT 9999 FEW006/// SCT012/// BKN064/// 10/10 Q0992=
202209150520 METAR ESMX 150520Z 22008KT 9999 BKN009 10/10 Q0993=
202209150450 METAR ESMX 150450Z 22007KT CAVOK 10/10 Q0993=
202209150420 METAR ESMX 150420Z 24006KT 9999 FEW012 BKN027 10/10 Q0993=
202209150350 METAR ESMX 150350Z 23007KT 9999 -RA FEW016 SCT024 10/10 Q0993=
202209150320 METAR ESMX 150320Z AUTO 23007KT 9999 -RA SCT019/// BKN057/// 10/10 Q0993 RERA=
202209150250 METAR ESMX 150250Z AUTO 23008KT 9999 +RA SCT017/// BKN035/// BKN059/// 10/10 Q0993=
202209150220 METAR ESMX 150220Z AUTO 22007KT 9999 FEW062/// 10/10 Q0993=
202209150150 METAR ESMX 150150Z AUTO 23007KT 9999 FEW026/// SCT046/// BKN066/// 10/10 Q0993=
202209150120 METAR ESMX 150120Z AUTO 22007KT 9999 BKN061/// 10/10 Q0994=
202209150050 METAR ESMX 150050Z AUTO 22008KT 9999 FEW051/// BKN072/// 10/10 Q0994=
202209150020 METAR ESMX 150020Z AUTO 22007KT 9999 SCT019/// 10/10 Q0994=
202209142350 METAR ESMX 142350Z 19007KT 9999 FEW030 10/10 Q0995=
202209142320 METAR ESMX 142320Z 22007KT 9999 FEW030 11/10 Q0995=
202209142250 METAR ESMX 142250Z 23006KT 9999 SCT021 12/10 Q0995=
202209142220 METAR ESMX 142220Z 20008KT 9999 SCT020 12/11 Q0995=
202209142150 METAR ESMX 142150Z 22007KT 9999 FEW033 12/11 Q0996=
202209142120 METAR ESMX 142120Z 22007KT 9999 SCT033 12/11 Q0996=
202209142050 METAR ESMX 142050Z 22007KT 9999 FEW030 12/11 Q0996=
202209142020 METAR ESMX 142020Z 21006KT 9999 FEW030 12/10 Q0996=
202209141950 METAR ESMX 141950Z 22006KT 9999 SCT030 12/10 Q0996=
202209141920 METAR ESMX 141920Z 23006KT 9999 BKN049 12/10 Q0996=
202209141850 METAR ESMX 141850Z 23006KT 9999 FEW027 12/11 Q0996=
202209141820 METAR ESMX 141820Z 22005KT 9999 SCT024 12/10 Q0996=
202209141750 METAR ESMX 141750Z 23008KT 9999 FEW006 SCT036 BKN046 13/10 Q0996=
202209141720 METAR ESMX 141720Z 24009KT 9999 SCT042 BKN057 13/10 Q0996=
202209141650 METAR ESMX 141650Z 24010KT CAVOK 14/10 Q0996=
202209141620 METAR ESMX 141620Z 24010KT 200V260 CAVOK 15/09 Q0996=
202209141550 METAR ESMX 141550Z 25010KT 9999 SCT047 15/09 Q0996=
202209141520 METAR ESMX 141520Z AUTO 25013KT 9999 BKN055/// 16/09 Q0996=
202209141450 METAR ESMX 141450Z 25013KT 9999 SCT040 BKN055 17/09 Q0996=
202209141420 METAR ESMX 141420Z 23011KT 9999 SCT034 BKN046 16/10 Q0996=
202209141350 METAR ESMX 141350Z 24011KT 9999 FEW037 BKN045 16/09 Q0996=
202209141320 METAR ESMX 141320Z 25009KT 230V290 9999 SCT036 BKN059 17/10 Q0997=
202209141250 METAR ESMX 141250Z 26012KT 230V300 9999 FEW036 BKN055 17/10 Q0997=
202209141220 METAR ESMX 141220Z 26010KT 9999 BKN034 16/09 Q0997=
202209141150 METAR ESMX 141150Z 25008KT 9999 FEW030 BKN057 16/10 Q0997=
202209141120 METAR ESMX 141120Z 24013KT 200V270 9999 SCT032 BKN045 16/11 Q0997=
202209141050 METAR ESMX 141050Z 25009KT 220V290 9999 SCT051 17/11 Q0997=
202209141020 METAR ESMX 141020Z 26009KT 230V290 9999 FEW038 SCT051 16/09 Q0997=
202209140950 METAR ESMX 140950Z 25009KT 190V290 9999 FEW032 BKN046 16/11 Q0997=
202209140920 METAR ESMX 140920Z 27008KT 230V300 9999 BKN045 15/11 Q0997=
202209140850 METAR ESMX 140850Z 26008KT 9999 FEW021 BKN039 15/11 Q0997=
202209140820 METAR ESMX 140820Z 25007KT 9999 SCT016 BKN021 15/12 Q0997=
202209140750 METAR ESMX 140750Z 24008KT 210V280 9999 BKN012 14/12 Q0997=
202209140720 METAR ESMX 140720Z 25008KT 230V290 9999 BKN011 14/12 Q0997=
202209140650 METAR ESMX 140650Z 24008KT 9999 BKN010 13/12 Q0997=
202209140620 METAR ESMX 140620Z 24008KT 9999 BKN009 13/12 Q0997=
202209140550 METAR ESMX 140550Z AUTO 24008KT 9999 BKN010/// BKN057/// 13/12 Q0997=
202209140520 METAR COR ESMX 140520Z 26009KT 9999 BKN011 13/12 Q0996=
202209140450 METAR ESMX 140450Z 24007KT 210V270 9999 OVC010 13/12 Q0996=
202209140420 METAR ESMX 140420Z 25008KT 9999 BKN010 13/12 Q0996=
202209140350 METAR COR ESMX 140350Z 26006KT 9999 BKN010 13/12 Q0996=
202209140320 METAR ESMX 140320Z AUTO 24006KT 200V260 9999 FEW011/// SCT035/// 13/12 Q0996=
202209140250 METAR ESMX 140250Z AUTO 26007KT 9999 NCD 13/12 Q0996=
202209140220 METAR ESMX 140220Z AUTO 26008KT 9999 SCT013/// 13/12 Q0996=
202209140150 METAR ESMX 140150Z AUTO 23007KT 200V270 9999 BKN012/// OVC055/// 13/13 Q0996=
202209140120 METAR ESMX 140120Z AUTO 25007KT 9999 SCT011/// BKN015/// OVC059/// 13/13 Q0996=
202209140050 METAR ESMX 140050Z AUTO 24007KT 9999 BKN010/// OVC025/// 13/13 Q0996=
202209140020 METAR ESMX 140020Z AUTO 23007KT 9999 BKN009/// BKN011/// OVC016/// 13/13 Q0996=
202209132350 METAR ESMX 132350Z 22008KT 9999 BKN009 13/13 Q0996=
202209132320 METAR ESMX 132320Z 21008KT 9999 -RA BKN009 13/12 Q0996=
202209132250 METAR ESMX 132250Z 23009KT 9999 BKN009 OVC013 13/12 Q0996=
202209132220 METAR ESMX 132220Z 22010KT 9999 SCT009 BKN012 12/12 Q0996=
202209132150 METAR ESMX 132150Z 23010KT 9999 FEW010 BKN013 12/12 Q0996=
202209132120 METAR ESMX 132120Z 22010KT 9999 -RA SCT010 BKN014 12/12 Q0996=
202209132050 METAR ESMX 132050Z 22010KT 9999 -DZ SCT009 BKN016 13/12 Q0997=
202209132020 METAR ESMX 132020Z 22010KT 9999 -RA FEW009 BKN013 13/13 Q0997=
202209131950 METAR ESMX 131950Z 23009KT 9999 -RA SCT013 BKN015 13/13 Q0997=
202209131920 METAR ESMX 131920Z AUTO 21010KT 9999 -RA FEW013/// SCT020/// BKN033/// 13/13 Q0997 RERA=
202209131850 METAR ESMX 131850Z AUTO 21010KT 8000 -RA FEW007/// SCT015/// BKN024/// 13/13 Q0997 REDZ=
202209131820 METAR ESMX 131820Z AUTO 23011KT 9999 SCT015/// BKN023/// 13/13 Q0998=
202209131750 METAR ESMX 131750Z AUTO 20011KT 9999 FEW010/// SCT018/// BKN045/// 13/13 Q0998 REDZ=
202209131720 METAR ESMX 131720Z AUTO 20011KT 9999 DZ BKN012/// OVC018/// 13/13 Q0998=
202209131650 METAR ESMX 131650Z 19011KT 9999 VCSH BKN011 13/13 Q0998=
202209131620 METAR ESMX 131620Z 19011KT 9999 VCSH FEW011 BKN017 13/13 Q0998=
202209131550 METAR ESMX 131550Z 20008KT 9999 -SHRA FEW012 BKN020 13/12 Q0999=
202209131520 METAR ESMX 131520Z 20011KT 8000 -RA BKN020 13/12 Q0999=
202209131450 METAR ESMX 131450Z 20011KT 9999 FEW032 BKN043 14/11 Q0999=
202209131420 METAR ESMX 131420Z AUTO 22013KT 9999 FEW032/// SCT053/// OVC062/// 14/11 Q0999=
202209131350 METAR ESMX 131350Z 22012KT 9999 FEW006 SCT034 BKN051 15/10 Q0999=
202209131320 METAR ESMX 131320Z 24012KT 9999 FEW027 BKN057 16/09 Q0999=
202209131250 METAR ESMX 131250Z 25009KT 190V280 9999 FEW030 SCT053 16/10 Q1000=
202209131220 METAR ESMX 131220Z 23012KT 9999 FEW029 SCT059 16/10 Q1000=
202209131150 METAR ESMX 131150Z 25011KT 220V280 9999 FEW025 SCT057 16/11 Q1000=
202209131120 METAR ESMX 131120Z 23011KT 200V310 9999 FEW030 SCT039 16/11 Q1000=
202209131050 METAR ESMX 131050Z 24009KT 9999 FEW039 SCT048 15/11 Q1000=
202209131020 METAR ESMX 131020Z 25012KT 9999 FEW014 SCT053 17/12 Q1000=
202209130950 METAR ESMX 130950Z 24010KT 9999 FEW016 BKN025 16/14 Q1000=
202209130920 METAR ESMX 130920Z 23008KT 9999 SCT009 BKN022 15/14 Q1000=
202209130850 METAR ESMX 130850Z AUTO 20011KT 9999 -DZ SCT006/// BKN009/// OVC020/// 15/15 Q1000 RERA=
202209130820 METAR ESMX 130820Z AUTO 19011KT 9999 OVC006/// 15/14 Q1001 REDZ=
202209130750 METAR ESMX 130750Z AUTO 17010KT 140V200 9999 DZ BKN007/// OVC008/// 14/14 Q1001=
202209130720 METAR ESMX 130720Z 18011KT 9999 BKN008 14/14 Q1001=
202209130650 METAR COR ESMX 130650Z 18012KT 9999 BKN008 14/14 Q1001=
202209130620 METAR COR ESMX 130620Z 17011KT 9999 BKN009 14/14 Q1002=
202209130550 METAR ESMX 130550Z AUTO 18012KT 9999 SCT001/// BKN005/// BKN007/// 14/14 Q1002=
202209130520 METAR ESMX 130520Z AUTO 17011KT 9000 RA SCT001/// BKN007/// OVC011/// 14/14 Q1003=
202209130450 METAR ESMX 130450Z 17011KT 5000 RA OVC009 14/14 Q1003=
202209130420 METAR ESMX 130420Z 17010KT 8000 RA BKN008 14/14 Q1004=
202209130350 METAR COR ESMX 130350Z 16009KT 9999 -RA BKN009 14/14 Q1004=
202209130320 METAR ESMX 130320Z AUTO 17010KT 140V200 9999 -RA BKN011/// OVC082/// 15/14 Q1005=
202209130250 METAR ESMX 130250Z AUTO 17010KT 9999 -RA FEW010/// SCT078/// 15/14 Q1005 RERA=
202209130220 METAR ESMX 130220Z AUTO 17010KT 9999 OVC009/// 14/14 Q1006=
202209130150 METAR ESMX 130150Z AUTO 17010KT 9999 BKN010/// OVC015/// 15/14 Q1007=
202209130120 METAR ESMX 130120Z AUTO 17010KT 9999 BKN010/// 14/13 Q1007=
202209130050 METAR ESMX 130050Z AUTO 17009KT 9999 BKN009/// OVC098/// 14/13 Q1008=
202209130020 METAR ESMX 130020Z AUTO 17010KT 9999 OVC009/// 14/13 Q1008=
202209122350 METAR ESMX 122350Z 16008KT 140V200 9999 BKN008 14/13 Q1009=
202209122320 METAR ESMX 122320Z 16007KT 9999 SCT009 BKN012 13/13 Q1010=
202209122250 METAR ESMX 122250Z 17006KT 9999 FEW013 13/13 Q1010=
202209122220 METAR ESMX 122220Z 14005KT 9999 FEW025 13/13 Q1010=
202209122150 METAR ESMX 122150Z 15006KT 9999 FEW025 13/13 Q1011=
202209122120 METAR ESMX 122120Z 16006KT 9999 SCT023 14/13 Q1011=
202209122050 METAR ESMX 122050Z 16006KT CAVOK 14/13 Q1012=
202209122020 METAR ESMX 122020Z 16005KT CAVOK 14/13 Q1012=
202209121950 METAR ESMX 121950Z 16005KT 130V200 CAVOK 14/13 Q1012=
202209121920 METAR ESMX 121920Z AUTO 16005KT 9999 OVC140/// 14/13 Q1013=
202209121850 METAR ESMX 121850Z AUTO 19005KT 9999 OVC140/// 15/12 Q1013=
202209121820 METAR ESMX 121820Z AUTO 19004KT 9999 BKN150/// 13/12 Q1013=
202209121750 METAR ESMX 121750Z AUTO 19004KT 9999 SCT150/// 13/12 Q1013=
202209121720 METAR ESMX 121720Z AUTO 19003KT 9999 SCT170/// 14/13 Q1013=
202209121650 METAR ESMX 121650Z AUTO 19003KT 9999 BKN170/// 15/12 Q1014=
202209121620 METAR ESMX 121620Z 23002KT CAVOK 16/11 Q1014=
202209121550 METAR ESMX 121550Z 23003KT CAVOK 17/11 Q1014=
202209121520 METAR ESMX 121520Z 23003KT CAVOK 17/10 Q1015=
202209121450 METAR ESMX 121450Z 20005KT 9999 FEW033 17/10 Q1015=
202209121420 METAR ESMX 121420Z 21005KT 9999 FEW033 18/10 Q1015=
202209121350 METAR ESMX 121350Z 24005KT 9999 SCT033 18/11 Q1015=
202209121320 METAR ESMX 121320Z 19007KT 170V230 9999 SCT033 18/10 Q1016=
202209121250 METAR ESMX 121250Z AUTO 23005KT 200V260 9999 SCT029/// 18/11 Q1016=
202209121220 METAR ESMX 121220Z AUTO 23004KT 9999 SCT028/// 17/11 Q1016=
202209121150 METAR ESMX 121150Z AUTO 21006KT 160V260 9999 SCT029/// BKN220/// 17/11 Q1016=
202209121120 METAR ESMX 121120Z AUTO 16004KT 110V230 9999 FEW200/// 17/10 Q1016=
202209121050 METAR ESMX 121050Z AUTO 16003KT 9999 FEW023/// 17/10 Q1016=
202209121020 METAR ESMX 121020Z AUTO 15004KT 9999 FEW019/// 16/12 Q1016=
202209120950 METAR ESMX 120950Z AUTO 14004KT 9999 FEW018/// 16/11 Q1016=
202209120920 METAR ESMX 120920Z AUTO 13002KT 9999 NCD 15/11 Q1017=
202209120850 METAR ESMX 120850Z 02003KT 9999 SCT002 BKN004 13/13 Q1017=
202209120820 METAR ESMX 120820Z VRB02KT 9999 BKN002 12/12 Q1017=
202209120750 METAR ESMX 120750Z 02001KT 0300 R01/0450U R19/1000N VV002 11/11 Q1017=
202209120720 METAR ESMX 120720Z 00000KT 0300 R01/0500N R19/0800N VV002 11/11 Q1017=
202209120650 METAR ESMX 120650Z 04002KT 0350 R01/0275N R19/0550N VV002 10/10 Q1017=
202209120620 METAR ESMX 120620Z 010003KT 0100 R01/0300N R19/0275N FG VV002 10/10 Q1016=
202209120550 METAR ESMX 120550Z 020003KT 0100 R01/0275N R19/0300N FG VV002 10/10 Q1017=
202209120520 METAR ESMX 120520Z 040003KT 0100 R01/0275N R19/0300N FG VV002 10/10 Q1016=
202209120450 METAR ESMX 120450Z 340003KT 0150 R01/0325N R19/0350N FG VV002 10/10 Q1016=
202209120420 METAR ESMX 120420Z 00000KT 0150 R01/0450N R19/0700N FG VV002 09/09 Q1016=
202209120350 METAR ESMX 120350Z 00000KT 0100 R01/275N R19/600N FG VV002 09/09 Q1016=
202209111950 METAR ESMX 111950Z 34004KT 9999 SCT047 BKN059 14/13 Q1017=
202209111920 METAR ESMX 111920Z 34004KT 9999 SCT043 BKN059 14/13 Q1017=
202209111850 METAR ESMX 111850Z 01003KT 9999 SCT043 BKN059 14/14 Q1017=
202209111820 METAR ESMX 111820Z 34004KT 9999 FEW046 BKN055 14/13 Q1016=
202209111750 METAR ESMX 111750Z 34003KT 9999 FEW046 BKN059 14/13 Q1016=
202209111720 METAR ESMX 111720Z 35003KT 9999 FEW046 BKN065 15/14 Q1016=
202209111650 METAR ESMX 111650Z 34003KT 9999 FEW027 BKN062 15/13 Q1016=
202209111620 METAR ESMX 111620Z 31005KT 9999 SCT027 BKN082 15/13 Q1016=
202209111550 METAR ESMX 111550Z 34007KT 9999 SCT027 BKN082 15/13 Q1016=
202209111520 METAR ESMX 111520Z 34005KT 9999 FEW020 SCT063 17/12 Q1016=
202209111450 METAR ESMX 111450Z 35005KT 9999 FEW020 SCT051 17/12 Q1016=
202209111420 METAR ESMX 111420Z 35005KT 9999 FEW020 BKN051 16/11 Q1016=
202209111350 METAR ESMX 111350Z 03004KT 9999 FEW020 BKN051 17/12 Q1016=
202209111320 METAR ESMX 111320Z 02003KT 9999 FEW020 BKN055 17/12 Q1016=
202209111250 METAR ESMX 111250Z 04005KT 9999 FEW019 BKN055 17/12 Q1017=
202209111220 METAR ESMX 111220Z 04005KT 9999 SCT018 BKN055 16/11 Q1017=
202209111150 METAR ESMX 111150Z 04006KT 9999 SCT018 BKN053 16/12 Q1017=
202209111120 METAR ESMX 111120Z 01005KT 9999 BKN018 16/12 Q1017=
202209111050 METAR ESMX 111050Z 35005KT 9999 BKN016 16/12 Q1017=
202209111020 METAR ESMX 111020Z 35007KT 9999 BKN015 16/12 Q1017=
202209110950 METAR ESMX 110950Z 01006KT 9999 BKN015 16/12 Q1017=
202209110920 METAR ESMX 110920Z 01007KT 9999 BKN048 16/12 Q1017=
202209110820 METAR ESMX 110820Z 02006KT 9999 BKN048 15/12 Q1016=
202209110720 METAR ESMX 110720Z 03007KT 9999 BKN045 15/13 Q1016=
202209110650 METAR ESMX 110650Z 36007KT 9999 BKN040 15/13 Q1016=
202209110620 METAR ESMX 110620Z 36005KT 9999 BKN035 14/13 Q1016=
202209110550 METAR ESMX 110550Z 36005KT 9999 BKN025 13/13 Q1016=
202209091750 METAR ESMX 091750Z 09003KT 350V120 8000 -DZ BKN006 13/13 Q1015=
202209091720 METAR ESMX 091720Z 11004KT 030V120 8000 -DZ BKN005 13/13 Q1015=
202209091650 METAR ESMX 091650Z 09005KT 050V190 5000 BR -DZ BKN005 13/13 Q1015=
202209091620 METAR ESMX 091620Z 10004KT 030V110 5000 BR -DZ BKN005 13/13 Q1015=
202209091550 METAR ESMX 091550Z 11004KT 050V140 8000 -DZ BKN005 13/13 Q1014=
202209091520 METAR ESMX 091520Z 12005KT 060V150 6000 -DZ BKN004 13/13 Q1014=
202209091450 METAR ESMX 091450Z 11005KT 050V140 5000 BR -DZ BKN005 13/13 Q1014=
202209091420 METAR ESMX 091420Z 11006KT 070V140 9000 -DZ BKN006 13/13 Q1014=
202209091350 METAR ESMX 091350Z 09006KT 030V140 9999 BKN008 14/13 Q1014=
202209091320 METAR ESMX 091320Z 10007KT 050V130 9999 BKN008 14/13 Q1014=
202209091250 METAR ESMX 091250Z 10007KT 030V130 9999 BKN008 14/13 Q1014=
202209091220 METAR ESMX 091220Z 10006KT 040V150 9999 BKN007 14/13 Q1014=
202209091150 METAR ESMX 091150Z 09007KT 030V140 9000 -RA BKN007 13/13 Q1014=
202209091120 METAR ESMX 091120Z 09007KT 050V140 9000 BR FEW002 BKN007 13/13 Q1014=
202209091050 METAR ESMX 091050Z 09006G17KT 020V140 7000 BR BKN009 13/13 Q1014=
202209091020 METAR ESMX 091020Z 11007KT 040V140 9000 BR -RA FEW002 BKN015 14/13 Q1014=
202209090950 METAR ESMX 090950Z 10007KT 030V140 9999 -RA BKN017 14/12 Q1014=
202209090920 METAR ESMX 090920Z 10007KT 050V150 9999 -RA BKN019 14/12 Q1013=
202209090850 METAR ESMX 090850Z 08008KT 030V120 9999 -RA BKN020 14/13 Q1013=
202209090820 METAR ESMX 090820Z 08008KT 030V140 9999 -RA BKN020 15/12 Q1013=
202209090750 METAR ESMX 090750Z 07009KT 030V110 9999 -RA BKN019 15/12 Q1013=
202209090720 METAR ESMX 090720Z 07009KT 020V120 9999 BKN018 15/11 Q1013=
202209090620 METAR ESMX 090620Z 07009KT 9999 BKN018 14/11 Q1013=
202209090550 METAR ESMX 090550Z 07010KT 010V180 9999 BKN018 14/11 Q1013=
202209090450 METAR ESMX 090450Z 06010KT 340V140 9999 BKN018 14/11 Q1013=
202209090420 METAR ESMX 090420Z 06008KT 360V120 9999 BKN018 14/11 Q1013=
202209090350 METAR ESMX 090350Z 06008KT 350V110 9999 BKN019 13/11 Q1013=
202209082320 METAR ESMX 082320Z 06008KT 360V080 9999 FEW045 12/09 Q1016=
202209082250 METAR ESMX 082250Z 06008KT 9999 FEW035 BKN040 12/09 Q1016=
202209082220 METAR ESMX 082220Z 06007KT 010V110 9999 FEW035 12/09 Q1016=
202209082150 METAR ESMX 082150Z 06007KT 030V100 9999 FEW035 12/08 Q1017=
202209082120 METAR ESMX 082120Z 07007KT 030V110 CAVOK 12/08 Q1017=
202209082050 METAR ESMX 082050Z 07008KT 030V110 CAVOK 12/08 Q1017=
202209082020 METAR ESMX 082020Z 07008KT 030V100 9999 FEW040 12/08 Q1017=
202209081950 METAR ESMX 081950Z 07007KT 020V100 9999 FEW040 12/08 Q1017=
202209081920 METAR ESMX 081920Z 07008KT 020V110 CAVOK 12/08 Q1017=
202209081820 METAR ESMX 081820Z 05006KT 360V120 9999 FEW041 13/08 Q1017=
202209081750 METAR ESMX 081750Z 05008KT 340V140 9999 SCT038 13/07 Q1017=
202209081720 METAR ESMX 081720Z 07006KT 010V140 CAVOK 13/07 Q1017=
202209081650 METAR ESMX 081650Z 07008KT 350V160 9999 FEW038 13/06 Q1017=
202209081620 METAR ESMX 081620Z 07009KT 030V130 9999 FEW042 14/07 Q1018=
202209081550 METAR ESMX 081550Z 08009KT 360V160 9999 SCT045 15/05 Q1018=
202209081520 METAR ESMX 081520Z 09008KT 020V150 9999 BKN044 15/06 Q1018=
202209081250 METAR ESMX 081250Z 07008KT CAVOK 16/07 Q1019=
202209081150 METAR ESMX 081150Z 09006KT 9999 BKN047 16/08 Q1019=
202209081120 METAR ESMX 081120Z 07009KT 9999 BKN039 17/08 Q1019=
202209081050 METAR ESMX 081050Z 07008KT 9999 BKN030 16/08 Q1019=
202209081020 METAR ESMX 081020Z 06006G16KT 9999 BKN032 17/09 Q1019=
202209080950 METAR ESMX 080950Z 06005KT 9999 BKN031 15/07 Q1020=
202209080920 METAR ESMX 080920Z 08009KT 9999 BKN029 16/08 Q1020=
202209080850 METAR ESMX 080850Z 08008KT 9999 BKN029 15/08 Q1020=
202209080820 METAR ESMX 080820Z 09005KT 9999 NSC 15/M19 Q1020=
202209080750 METAR ESMX 080750Z 08008KT 030V130 CAVOK 14/09 Q1020=
202209080720 METAR ESMX 080720Z 06008KT 020V120 CAVOK 14/09 Q1020=
202209080650 METAR ESMX 080650Z 07006KT 020V120 CAVOK 12/09 Q1020=
202209080620 METAR ESMX 080620Z 06007KT 020V110 CAVOK 12/09 Q1020=
202209080550 METAR ESMX 080550Z 06006KT 030V110 CAVOK 11/09 Q1020=
202209080520 METAR ESMX 080520Z AUTO 05006KT 360V100 9999 NCD 10/08 Q1020=
202209080450 METAR ESMX 080450Z AUTO 06007KT 9999 NCD 10/08 Q1020=
202209080420 METAR ESMX 080420Z AUTO 06006KT 030V100 9999 NCD 10/08 Q1020=
202209080350 METAR ESMX 080350Z AUTO 06006KT 020V090 9999 NCD 10/08 Q1020=
202209080320 METAR ESMX 080320Z AUTO 04005KT 360V100 9999 NCD 10/08 Q1020=
202209080250 METAR ESMX 080250Z AUTO 07005KT 020V100 9999 NCD 10/08 Q1020=
202209080220 METAR ESMX 080220Z AUTO 08004KT 030V110 9999 SCT210/// 10/09 Q1020=
202209080150 METAR ESMX 080150Z AUTO 08005KT 040V110 9999 NCD 11/09 Q1020=
202209080120 METAR ESMX 080120Z AUTO 05006KT 010V110 9999 NCD 11/09 Q1020=
202209080050 METAR ESMX 080050Z AUTO 07006KT 040V120 9999 NCD 11/09 Q1020=
202209080020 METAR ESMX 080020Z AUTO 08006KT 020V120 9999 NCD 11/10 Q1020=
202209072350 METAR ESMX 072350Z AUTO 07005KT 040V110 9999 NCD 11/10 Q1020=
202209072320 METAR ESMX 072320Z 07006KT 030V110 CAVOK 11/10 Q1021=
202209072250 METAR ESMX 072250Z 06005KT 030V090 CAVOK 11/10 Q1021=
202209072220 METAR ESMX 072220Z 06005KT 030V110 CAVOK 11/10 Q1021=
202209072150 METAR ESMX 072150Z 08004KT 030V110 CAVOK 11/10 Q1021=
202209072120 METAR ESMX 072120Z 05005KT 010V120 CAVOK 12/10 Q1020=
202209072050 METAR ESMX 072050Z 07005KT 040V100 CAVOK 12/10 Q1020=
202209072020 METAR ESMX 072020Z 07005KT 030V100 CAVOK 12/10 Q1020=
202209071950 METAR ESMX 071950Z 08005KT 040V110 CAVOK 12/09 Q1020=
202209071920 METAR ESMX 071920Z 09004KT 040V110 CAVOK 12/07 Q1020=
202209071850 METAR ESMX 071850Z 11003KT CAVOK 12/06 Q1020=
202209071820 METAR ESMX 071820Z 12003KT CAVOK 13/06 Q1020=
202209071750 METAR ESMX 071750Z 11003KT CAVOK 14/06 Q1019=
202209071720 METAR ESMX 071720Z AUTO 13004KT 9999 NCD 15/06 Q1019=
202209071650 METAR ESMX 071650Z 11005KT CAVOK 16/05 Q1019=
202209071620 METAR COR ESMX 071620Z 10005KT 050V140 CAVOK 17/05 Q1019=
202209071550 METAR ESMX 071550Z 10004KT 040V160 CAVOK 18/04 Q1019=
202209071520 METAR ESMX 071520Z 08004KT 040V110 CAVOK 18/04 Q1019=
202209071450 METAR ESMX 071450Z 17003KT CAVOK 19/05 Q1019=
202209071420 METAR ESMX 071420Z 19004KT 150V230 CAVOK 18/06 Q1019=
202209071350 METAR ESMX 071350Z 13005KT 060V160 CAVOK 19/06 Q1019=
202209071320 METAR COR ESMX 071320Z 14004KT CAVOK 19/06 Q1020=
202209071250 METAR ESMX 071250Z 15004KT CAVOK 19/05 Q1020=
202209071220 METAR ESMX 071220Z 17005KT CAVOK 18/04 Q1020=
202209071150 METAR ESMX 071150Z 18006KT CAVOK 18/06 Q1020=
202209071120 METAR ESMX 071120Z 09005KT 030V150 CAVOK 18/06 Q1021=
202209071050 METAR ESMX 071050Z 08005KT 040V110 CAVOK 18/06 Q1021=
202209071020 METAR ESMX 071020Z 10004KT 030V190 9999 FEW038 16/06 Q1021=
202209070950 METAR ESMX 070950Z 07005KT 010V120 CAVOK 17/08 Q1021=
202209070920 METAR ESMX 070920Z 07003KT 020V090 9999 FEW033 16/08 Q1021=
202209070850 METAR ESMX 070850Z 04004KT 010V080 CAVOK 15/10 Q1021=
202209070820 METAR ESMX 070820Z 05004KT 360V080 9999 FEW001 12/12 Q1021=
202209070750 METAR ESMX 070750Z VRB02KT 9999 FEW001 12/12 Q1021=
202209070720 METAR ESMX 070720Z 01003KT 0350 R01/P2000N R19/0400N BCFG NSC 11/11 Q1021=
202209070650 METAR ESMX 070650Z 35004KT 0250 R01/0400N R19/0650N FG OVC001 10/10 Q1021=
202209070620 METAR ESMX 070620Z 11003KT 0150 R01/0375N R19/0300N FG VV001 09/09 Q1021=
202209070550 METAR COR ESMX 070550Z 11003KT 0100 R01/0300N R19/0225N FG VV001 08/08 Q1021=
202209070520 METAR ESMX 070520Z AUTO 01003KT 0050 R01/0150N R19/0275U FG VV000 09/09 Q1021=
202209070450 METAR ESMX 070450Z AUTO VRB01KT 0050 R01/0150N R19/0150N FG VV001 09/09 Q1022=
202209070420 METAR ESMX 070420Z AUTO VRB03KT 0050 R01/0200N R19/0200N FG VV000 09/09 Q1021=
202209070350 METAR ESMX 070350Z AUTO VRB02KT 0050 R01/0250N R19/0350N FG VV000 08/08 Q1021=
202209070320 METAR ESMX 070320Z AUTO 00000KT 0050 R01/0225N R19/0275N FG VV001 07/07 Q1021=
202209070250 METAR ESMX 070250Z AUTO VRB01KT 0050 R01/0225N R19/0225N FG VV000 06/06 Q1022=
202209070220 METAR ESMX 070220Z AUTO 00000KT 0050 R01/0175N R19/0225N FG VV001 06/06 Q1022=
202209070150 METAR ESMX 070150Z AUTO 20001KT 0050 R01/0150N R19/0350N FG VV000 05/05 Q1022=
202209070120 METAR ESMX 070120Z AUTO 00000KT 0000 R01/0450N R19/0150N BCFG VV000 05/05 Q1022=
202209070050 METAR ESMX 070050Z AUTO 00000KT 0100 R01/0500N R19/0325U BCFG OVC001/// 04/04 Q1022=
202209070020 METAR ESMX 070020Z AUTO 00000KT 0250 R01/P2000N R19/P2000N BCFG SCT001/// 04/04 Q1022=
202209062350 METAR ESMX 062350Z AUTO 00000KT 9999 NCD 04/04 Q1023=
202209062320 METAR ESMX 062320Z 00000KT 5000 BCFG NSC 05/05 Q1023=
202209062250 METAR ESMX 062250Z 00000KT 5000 BCFG NSC 04/04 Q1023=
202209062220 METAR ESMX 062220Z 00000KT 9999 BCFG NSC 05/05 Q1023=
202209062150 METAR ESMX 062150Z 00000KT CAVOK 05/05 Q1023=
202209062120 METAR ESMX 062120Z 00000KT CAVOK 06/06 Q1023=
202209062050 METAR ESMX 062050Z 12003KT CAVOK 07/07 Q1023=
202209062020 METAR ESMX 062020Z 12002KT CAVOK 08/08 Q1023=
202209061950 METAR ESMX 061950Z 12003KT CAVOK 07/06 Q1023=
202209061920 METAR ESMX 061920Z AUTO 19002KT 9999 NCD 07/06 Q1023=
202209061850 METAR ESMX 061850Z AUTO 00000KT 9999 NCD 09/08 Q1023=
202209061820 METAR ESMX 061820Z AUTO 00000KT 9999 SCT055/// 09/08 Q1023=
202209061750 METAR ESMX 061750Z AUTO 12002KT 9999 FEW055/// 11/08 Q1023=
202209061720 METAR ESMX 061720Z AUTO 12003KT 9999 NCD 14/09 Q1023=
202209061650 METAR ESMX 061650Z AUTO 12002KT 9999 NCD 16/08 Q1023=
202209061620 METAR ESMX 061620Z AUTO 12002KT 9999 FEW059/// 17/08 Q1024=
202209061550 METAR ESMX 061550Z AUTO 12002KT 9999 SCT055/// 14/09 Q1024=
202209061520 METAR ESMX 061520Z AUTO VRB02KT 9999 FEW057/// 16/06 Q1024=
202209061450 METAR ESMX 061450Z AUTO 11003KT 9999 NCD 17/06 Q1024=
202209061420 METAR ESMX 061420Z AUTO 12004KT 9999 NCD 17/05 Q1025=
202209061350 METAR ESMX 061350Z 18005KT 100V220 CAVOK 18/05 Q1025=
202209061320 METAR ESMX 061320Z AUTO 22007KT 9999 NCD 18/05 Q1025=
202209061250 METAR ESMX 061250Z 14004KT 070V170 CAVOK 17/05 Q1025=
202209061220 METAR ESMX 061220Z AUTO 20006KT 160V240 9999 FEW053/// 17/05 Q1026=
202209061150 METAR ESMX 061150Z 15005KT 140V200 CAVOK 18/04 Q1026=
202209061120 METAR ESMX 061120Z 14004KT CAVOK 17/04 Q1026=
202209061050 METAR ESMX 061050Z 08003KT 350V140 CAVOK 16/05 Q1027=
202209061020 METAR ESMX 061020Z 03006KT 350V080 CAVOK 16/05 Q1027=
202209060950 METAR ESMX 060950Z 05006KT 010V090 CAVOK 16/06 Q1027=
202209060920 METAR ESMX 060920Z 09004KT 020V110 CAVOK 15/06 Q1028=
202209060850 METAR ESMX 060850Z 07005KT 020V140 CAVOK 15/06 Q1028=
202209060820 METAR ESMX 060820Z 09005KT 360V120 CAVOK 15/06 Q1028=
202209060750 METAR ESMX 060750Z 10005KT 060V120 CAVOK 14/07 Q1028=
202209060720 METAR ESMX 060720Z 09003KT 340V100 CAVOK 13/07 Q1028=
202209060650 METAR ESMX 060650Z 07003KT 020V090 CAVOK 13/08 Q1028=
202209060620 METAR ESMX 060620Z 09003KT CAVOK 12/08 Q1028=
202209060550 METAR ESMX 060550Z AUTO 09003KT 9999 NCD 10/10 Q1029=
202209060520 METAR ESMX 060520Z AUTO VRB02KT 9999 FEW040/// 06/06 Q1029=
202209060450 METAR ESMX 060450Z AUTO 00000KT 0550 R01/P2000N R19/P2000D BCFG SCT039/// 05/05 Q1028=
202209060420 METAR ESMX 060420Z AUTO 00000KT 9999 NCD 06/06 Q1028=
202209060350 METAR ESMX 060350Z AUTO 00000KT 9999 BR FEW057/// 07/07 Q1029=
202209060320 METAR ESMX 060320Z AUTO 00000KT 9999 OVC055/// 08/08 Q1029=
202209060250 METAR ESMX 060250Z AUTO 00000KT 9999 OVC053/// 08/08 Q1029=
202209060220 METAR ESMX 060220Z AUTO 00000KT 9999 OVC055/// 08/08 Q1029=
202209060150 METAR ESMX 060150Z AUTO 00000KT 9999 OVC057/// 07/07 Q1029=
202209060120 METAR ESMX 060120Z AUTO 00000KT 9999 OVC057/// 06/06 Q1029=
202209060050 METAR ESMX 060050Z AUTO 09002KT 9999 FEW057/// 06/06 Q1029=
202209060020 METAR ESMX 060020Z AUTO 00000KT 9999 SCT044/// 07/07 Q1029=
202209052350 METAR ESMX 052350Z 12002KT 9999 SCT039 06/06 Q1029=
202209052320 METAR ESMX 052320Z 12002KT 9999 FEW044 07/07 Q1029=
202209052220 METAR ESMX 052220Z 12003KT 9999 FEW040 08/08 Q1030=
202209052150 METAR ESMX 052150Z 12002KT 9999 FEW040 09/09 Q1030=
202209052120 METAR ESMX 052120Z VRB02KT CAVOK 11/08 Q1030=
202209052050 METAR ESMX 052050Z 12003KT 080V160 9999 FEW045 11/09 Q1030=
202209052020 METAR ESMX 052020Z VRB04KT 9999 SCT045 12/09 Q1030=
202209051950 METAR ESMX 051950Z 10004KT 050V140 9999 FEW029 SCT048 13/09 Q1030=
202209051920 METAR ESMX 051920Z AUTO 09004KT 010V130 9999 FEW028/// OVC042/// 13/09 Q1030=
202209051850 METAR ESMX 051850Z AUTO 12004KT 9999 OVC043/// 13/10 Q1030=
202209051820 METAR ESMX 051820Z AUTO 10003KT 9999 SCT046/// BKN078/// 13/10 Q1030=
202209051750 METAR ESMX 051750Z AUTO 10002KT 9999 SCT078/// 13/10 Q1029=
202209051720 METAR ESMX 051720Z AUTO 09003KT 9999 NCD 15/10 Q1029=
202209051650 METAR ESMX 051650Z AUTO 09004KT 030V110 9999 BKN080/// 16/10 Q1029=
202209051620 METAR ESMX 051620Z AUTO 05005KT 020V090 9999 OVC082/// 17/10 Q1030=
202209051550 METAR ESMX 051550Z 08003KT CAVOK 17/09 Q1030=
202209051520 METAR COR ESMX 051520Z 05004KT 010V080 CAVOK 17/08 Q1030=
202209051450 METAR ESMX 051450Z 05007KT 010V090 CAVOK 17/09 Q1030=
202209051420 METAR ESMX 051420Z 03006KT CAVOK 17/08 Q1030=
202209051350 METAR ESMX 051350Z 04005KT 360V080 CAVOK 18/08 Q1030=
202209051320 METAR COR ESMX 051320Z VRB03KT CAVOK 19/07 Q1030=
202209051250 METAR ESMX 051250Z VRB03KT 9999 FEW045 18/07 Q1031=
202209051220 METAR ESMX 051220Z 03005KT 010V100 9999 SCT045 19/09 Q1031=
202209051150 METAR ESMX 051150Z AUTO 04004KT 290V110 9999 NCD 18/08 Q1031=
202209051120 METAR ESMX 051120Z 04005KT 350V080 9999 SCT040 18/08 Q1031=
202209051050 METAR ESMX 051050Z 07005KT 010V110 9999 SCT038 18/09 Q1031=
202209051020 METAR ESMX 051020Z 04005KT 010V080 9999 FEW032 17/09 Q1031=
202209050950 METAR ESMX 050950Z 08004KT 030V110 9999 FEW030 17/09 Q1032=
202209050920 METAR ESMX 050920Z 05006KT 010V120 9999 SCT025 15/10 Q1032=
202209050850 METAR ESMX 050850Z 09004KT 030V110 9999 SCT022 16/10 Q1032=
202209050820 METAR ESMX 050820Z 07005KT 020V140 CAVOK 16/11 Q1032=
202209050750 METAR ESMX 050750Z AUTO 11005KT 070V150 9999 NCD 15/11 Q1032=
202209050720 METAR COR ESMX 050720Z 08004KT 350V100 CAVOK 14/11 Q1032=
202209050650 METAR ESMX 050650Z AUTO 05003KT 010V130 9999 NCD 13/11 Q1032=
202209050620 METAR COR ESMX 050620Z 05003KT 340V110 CAVOK 13/11 Q1032=
202209050550 METAR ESMX 050550Z AUTO 06004KT 020V100 9999 NCD 11/11 Q1032=
202209050520 METAR ESMX 050520Z VRB02KT CAVOK 10/10 Q1031=
202209050450 METAR ESMX 050450Z 08002KT 9999 BCFG NSC 05/05 Q1031=
202209050420 METAR ESMX 050420Z 05003KT 9999 R01/0400N R19/P2000N BCFG NSC 06/06 Q1031=
202209050350 METAR COR ESMX 050350Z 04003KT 9999 R01/0400N R19/P2000N BCFG NSC 05/05 Q1031=
202209050320 METAR ESMX 050320Z AUTO 05002KT 0400 R01/1600N R19/P2000N NCD 05/05 Q1031=
202209050250 METAR ESMX 050250Z AUTO 00000KT 9999 BR NCD 06/06 Q1031=
202209050220 METAR ESMX 050220Z AUTO 04002KT 9999 NCD 06/06 Q1031=
202209050150 METAR ESMX 050150Z AUTO VRB02KT 9999 NCD 06/06 Q1031=
202209050120 METAR ESMX 050120Z AUTO 00000KT 9999 BCFG NCD 06/06 Q1031=
202209050050 METAR ESMX 050050Z AUTO VRB03KT 9999 BCFG NCD 06/06 Q1031=
202209050020 METAR ESMX 050020Z AUTO VRB02KT 9999 BR NCD 07/07 Q1031=
202209042350 METAR ESMX 042350Z AUTO VRB03KT 9999 NCD 07/07 Q1031=
202209042320 METAR ESMX 042320Z AUTO 07003KT 020V110 9999 NCD 08/08 Q1031=
202209042250 METAR ESMX 042250Z AUTO 07004KT 030V110 9999 NCD 10/10 Q1031=
202209042220 METAR ESMX 042220Z AUTO 10003KT 9999 NCD 11/10 Q1031=
202209042150 METAR ESMX 042150Z AUTO 07004KT 9999 NCD 11/10 Q1031=
202209042120 METAR ESMX 042120Z AUTO 11003KT 9999 FEW040/// 12/10 Q1030=
202209042050 METAR ESMX 042050Z AUTO 08004KT 030V140 9999 BKN041/// 12/11 Q1030=
202209042020 METAR ESMX 042020Z 09003KT CAVOK 12/10 Q1030=
202209041950 METAR ESMX 041950Z 08003KT 9999 FEW048 13/11 Q1030=
202209041920 METAR COR ESMX 041920Z VRB03KT FEW045 13/10 Q1029=
202209041850 METAR ESMX 041850Z 07005KT 030V090 CAVOK 14/10 Q1029=
202209041820 METAR ESMX 041820Z 06005KT 020V080 CAVOK 14/10 Q1029=
202209041750 METAR ESMX 041750Z 06005KT CAVOK 15/10 Q1029=
202209041720 METAR ESMX 041720Z 04007KT 010V090 CAVOK 16/10 Q1028=
202209041650 METAR ESMX 041650Z 03008KT 360V060 CAVOK 17/10 Q1028=
202209041620 METAR ESMX 041620Z 16004KT 9999 VCSH FEW050 18/09 Q1028=
202209041550 METAR ESMX 041550Z 10004KT 9999 FEW049 17/09 Q1028=
202209041520 METAR COR ESMX 041520Z 07004KT 010V130 9999 VCSH SCT049 19/08 Q1028=
202209041450 METAR ESMX 041450Z 01004KT 320V040 CAVOK 19/07 Q1028=
202209041420 METAR ESMX 041420Z 10003KT 040V120 CAVOK 19/08 Q1028=
202209041350 METAR ESMX 041350Z 03005KT 010V080 CAVOK 18/08 Q1028=
202209041320 METAR ESMX 041320Z 03005KT 010V090 CAVOK 18/08 Q1028=
202209041250 METAR ESMX 041250Z 04004KT 350V090 CAVOK 19/07 Q1028=
202209041220 METAR ESMX 041220Z 06005KT 010V100 9999 SCT043 19/07 Q1028=
202209041150 METAR COR ESMX 041150Z 04005KT 360V090 9999 SCT043 19/07 Q1028=
202209041120 METAR ESMX 041120Z 13004KT 080V150 9999 FEW043 18/07 Q1028=
202209041050 METAR ESMX 041050Z 22003KT CAVOK 18/08 Q1028=
202209041020 METAR ESMX 041020Z VRB03KT CAVOK 18/09 Q1028=
202209040950 METAR COR ESMX 040950Z VRB02KT CAVOK 17/09 Q1028=
202209040920 METAR ESMX 040920Z AUTO 11003KT 360V160 9999 NCD 17/09 Q1028=
202209040850 METAR ESMX 040850Z 12003KT CAVOK 17/10 Q1028=
202209040820 METAR ESMX 040820Z 04003KT 340V140 CAVOK 16/11 Q1028=
202209040750 METAR COR ESMX 040750Z 05004KT 010V080 CAVOK 15/10 Q1028=
202209040720 METAR ESMX 040720Z 07003KT 020V100 CAVOK 14/10 Q1028=
202209040650 METAR ESMX 040650Z 15003KT CAVOK 13/10 Q1027=
202209040620 METAR ESMX 040620Z VRB02KT CAVOK 12/11 Q1027=
202209040550 METAR COR ESMX 040550Z VRB02KT CAVOK 10/10 Q1027=
202209040520 METAR ESMX 040520Z AUTO 02002KT 9999 NCD 05/05 Q1027=
202209040450 METAR ESMX 040450Z AUTO 15003KT 9999 NCD 05/05 Q1026=
202209040420 METAR ESMX 040420Z AUTO 15001KT 1900 BCFG NCD 03/03 Q1026=
202209040350 METAR ESMX 040350Z AUTO 00000KT 0650 R01/P2000N R19/P2000N BCFG NCD 04/04 Q1026=
202209040320 METAR ESMX 040320Z AUTO 15001KT 9999 BR NCD 03/03 Q1026=
202209040250 METAR ESMX 040250Z AUTO 00000KT 9999 NCD 03/03 Q1026=
202209040220 METAR ESMX 040220Z AUTO 00000KT 9999 NCD 04/04 Q1026=
202209040150 METAR ESMX 040150Z AUTO 00000KT 9999 NCD 04/04 Q1026=
202209040120 METAR ESMX 040120Z AUTO 00000KT 9999 NCD 04/04 Q1026=
202209040050 METAR ESMX 040050Z AUTO 15001KT 9999 NCD 04/04 Q1026=
202209040020 METAR ESMX 040020Z AUTO 15001KT 9999 NCD 05/05 Q1026=
202209032350 METAR ESMX 032350Z AUTO 00000KT 9999 NCD 05/05 Q1026=
202209032320 METAR ESMX 032320Z AUTO 15002KT 9999 NCD 06/05 Q1025=
202209032250 METAR ESMX 032250Z AUTO 15002KT 9999 NCD 06/06 Q1025=
202209032220 METAR ESMX 032220Z AUTO 15003KT 9999 NCD 07/07 Q1025=
202209032150 METAR ESMX 032150Z AUTO 15003KT 9999 NCD 09/07 Q1025=
202209032120 METAR ESMX 032120Z AUTO 15004KT 9999 NCD 09/07 Q1025=
202209032050 METAR ESMX 032050Z AUTO 15004KT 9999 NCD 09/07 Q1025=
202209032020 METAR ESMX 032020Z AUTO 15004KT 9999 NCD 11/07 Q1025=
202209031950 METAR ESMX 031950Z AUTO 15005KT 9999 NCD 13/06 Q1025=
202209031920 METAR ESMX 031920Z AUTO 15005KT 9999 NCD 13/07 Q1025=
202209031850 METAR ESMX 031850Z AUTO 14006KT 100V190 9999 NCD 14/07 Q1024=
202209031820 METAR ESMX 031820Z AUTO 15005KT 9999 NCD 15/07 Q1024=
202209031750 METAR ESMX 031750Z AUTO 15004KT 9999 NCD 13/08 Q1024=
202209031720 METAR ESMX 031720Z AUTO 16005KT 9999 NCD 16/07 Q1023=
202209031650 METAR ESMX 031650Z AUTO 15004KT 9999 NCD 17/07 Q1023=
202209031620 METAR ESMX 031620Z AUTO 16004KT 9999 NCD 17/07 Q1023=
202209031550 METAR ESMX 031550Z AUTO 15005KT 9999 NCD 17/07 Q1023=
202209031520 METAR ESMX 031520Z AUTO 15004KT 9999 NCD 18/07 Q1023=
202209031450 METAR ESMX 031450Z AUTO 15005KT 9999 SCT059/// 18/08 Q1023=
202209031420 METAR ESMX 031420Z AUTO 15005KT 080V180 9999 BKN055/// 19/08 Q1023=
202209031350 METAR ESMX 031350Z AUTO 14003KT 9999 BKN055/// 18/07 Q1024=
202209031320 METAR ESMX 031320Z AUTO 14004KT 9999 BKN053/// 17/07 Q1024=
202209031250 METAR ESMX 031250Z AUTO 12004KT 9999 SCT049/// 18/07 Q1024=
202209031220 METAR ESMX 031220Z AUTO 13005KT 060V170 9999 BKN048/// 17/07 Q1024=
202209031150 METAR ESMX 031150Z AUTO 15005KT 110V190 9999 FEW045/// 18/06 Q1024=
202209031120 METAR ESMX 031120Z AUTO 14006KT 050V180 9999 FEW082/// 18/07 Q1025=
202209031050 METAR ESMX 031050Z AUTO 15006KT 110V170 9999 SCT040/// OVC082/// 17/07 Q1025=
202209031020 METAR ESMX 031020Z AUTO 15006KT 100V170 9999 FEW039/// BKN082/// 17/07 Q1025=
202209030950 METAR ESMX 030950Z AUTO 11005KT 050V160 9999 FEW035/// 16/07 Q1025=
202209030920 METAR ESMX 030920Z AUTO 13005KT 090V150 9999 SCT032/// 16/08 Q1025=
202209030850 METAR ESMX 030850Z AUTO 12006KT 070V160 9999 FEW031/// 15/08 Q1025=
202209030820 METAR ESMX 030820Z AUTO 14005KT 090V160 9999 NCD 14/07 Q1025=
202209030750 METAR ESMX 030750Z AUTO 12005KT 9999 NCD 14/07 Q1025=
202209030720 METAR ESMX 030720Z AUTO 12004KT 9999 NCD 13/07 Q1025=
202209030650 METAR ESMX 030650Z AUTO 08003KT 030V190 9999 NCD 13/08 Q1025=
202209030620 METAR ESMX 030620Z AUTO VRB03KT 9999 NCD 12/08 Q1025=
202209030550 METAR ESMX 030550Z AUTO 09003KT 9999 NCD 10/08 Q1025=
202209030520 METAR ESMX 030520Z AUTO 10003KT 9999 NCD 04/04 Q1025=
202209030450 METAR ESMX 030450Z AUTO 00000KT 9999 NCD 04/04 Q1025=
202209030420 METAR ESMX 030420Z AUTO 15001KT 9999 NCD 03/03 Q1025=
202209030350 METAR ESMX 030350Z AUTO 14001KT 9999 NCD 03/03 Q1025=
202209030320 METAR ESMX 030320Z AUTO 00000KT 9999 NCD 04/04 Q1025=
202209030250 METAR ESMX 030250Z AUTO 11001KT 9999 NCD 03/03 Q1025=
202209030220 METAR ESMX 030220Z AUTO 00000KT 9999 NCD 05/05 Q1025=
202209030150 METAR ESMX 030150Z AUTO 11001KT 9999 NCD 05/05 Q1025=
202209030120 METAR ESMX 030120Z AUTO 00000KT 9999 NCD 05/05 Q1025=
202209030050 METAR ESMX 030050Z AUTO VRB02KT 9999 NCD 06/05 Q1025=
202209030020 METAR ESMX 030020Z AUTO VRB02KT 9999 NCD 08/07 Q1025=
202209022350 METAR ESMX 022350Z AUTO 11002KT 9999 SCT051/// 09/08 Q1025=
202209022320 METAR ESMX 022320Z AUTO 11002KT 9999 BKN051/// 09/08 Q1025=
202209022250 METAR ESMX 022250Z AUTO 11003KT 9999 BKN051/// 10/08 Q1025=
202209022220 METAR ESMX 022220Z AUTO 11002KT 9999 FEW047/// 09/07 Q1025=
202209022150 METAR ESMX 022150Z AUTO VRB03KT 9999 BKN043/// 10/08 Q1025=
202209022120 METAR ESMX 022120Z AUTO 11003KT 9999 OVC044/// 10/08 Q1025=
202209022050 METAR ESMX 022050Z AUTO 13003KT 080V180 9999 SCT032/// BKN038/// 11/08 Q1025=
202209022020 METAR ESMX 022020Z AUTO 13003KT 9999 BKN031/// 11/08 Q1025=
202209021950 METAR ESMX 021950Z AUTO 13004KT 9999 FEW034/// OVC043/// 12/08 Q1024=
202209021920 METAR ESMX 021920Z AUTO 12004KT 010V170 9999 BKN036/// BKN057/// 12/08 Q1024=
202209021850 METAR ESMX 021850Z AUTO 11005KT 070V170 9999 BKN057/// 12/08 Q1024=
202209021820 METAR ESMX 021820Z AUTO 11004KT 070V140 9999 SCT040/// OVC057/// 13/08 Q1024=
202209021750 METAR ESMX 021750Z 15006KT CAVOK 14/08 Q1024=
202209021720 METAR ESMX 021720Z 16005KT 9999 FEW042 SCT055 BKN064 15/08 Q1024=
202209021650 METAR ESMX 021650Z 19007KT CAVOK 16/08 Q1024=
202209021520 METAR ESMX 021520Z 13003KT 9999 FEW048 SCT068 17/06 Q1024=
202209021450 METAR ESMX 021450Z 16003KT 9999 FEW046 BKN066 17/06 Q1024=
202209021420 METAR ESMX 021420Z 13004KT 9999 FEW046 BKN066 17/06 Q1024=
202209021350 METAR ESMX 021350Z 07003KT 9999 SCT046 BKN064 16/06 Q1024=
202209021320 METAR ESMX 021320Z 13004KT 100V190 9999 SCT046 BKN062 16/06 Q1024=
202209021250 METAR ESMX 021250Z 06005KT 030V100 9999 FEW047 BKN061 17/07 Q1024=
202209021220 METAR ESMX 021220Z 05005KT 360V080 9999 SCT047 BKN057 17/06 Q1025=
202209021150 METAR ESMX 021150Z AUTO 03006KT 350V070 9999 SCT057/// 16/07 Q1025=
202209021120 METAR ESMX 021120Z 04006KT 350V090 9999 FEW040 BKN062 17/07 Q1025=
202209021050 METAR ESMX 021050Z 05007KT 010V120 CAVOK 16/07 Q1025=
202209021020 METAR ESMX 021020Z 09004KT 030V110 CAVOK 16/07 Q1025=
202209020950 METAR ESMX 020950Z 05007KT CAVOK 16/08 Q1025=
202209020920 METAR ESMX 020920Z 08007KT 050V110 CAVOK 14/08 Q1025=
202209020850 METAR ESMX 020850Z 08005KT 030V110 9999 BKN049 13/08 Q1025=
202209020820 METAR ESMX 020820Z 08005KT 030V110 9999 BKN048 13/08 Q1025=
202209020750 METAR ESMX 020750Z 06007KT 010V100 9999 BKN046 13/08 Q1025=
202209020720 METAR ESMX 020720Z 06006KT 020V100 9999 BKN037 13/08 Q1025=
202209020650 METAR ESMX 020650Z 06004KT 020V090 9999 BKN033 12/08 Q1024=
202209020620 METAR ESMX 020620Z 06006KT 030V100 9999 SCT029 BKN040 12/08 Q1024=
202209020550 METAR ESMX 020550Z 05007KT 9999 BKN028 12/08 Q1024=
202209020520 METAR ESMX 020520Z 06007KT 020V100 9999 BKN028 12/09 Q1024=
202209020450 METAR ESMX 020450Z 06006KT 9999 BKN027 12/09 Q1024=
202209020420 METAR ESMX 020420Z 06005KT 9999 FEW030 BKN057 11/09 Q1024=
202209020350 METAR ESMX 020350Z 06005KT 9000 SCT039 BKN051 11/09 Q1024=
202209020320 METAR ESMX 020320Z AUTO 03005KT 9999 SCT031/// BKN039/// OVC048/// 11/10 Q1024=
202209020250 METAR ESMX 020250Z AUTO 03003KT 9999 BKN030/// OVC037/// 10/10 Q1024=
202209020220 METAR ESMX 020220Z AUTO 03004KT 4500 BKN029/// BKN061/// 10/09 Q1024=
202209020150 METAR ESMX 020150Z AUTO 03004KT 5000 OVC029/// 10/10 Q1024=
202209020120 METAR ESMX 020120Z AUTO 04004KT 5000 SCT030/// OVC059/// 10/09 Q1024=
202209020050 METAR ESMX 020050Z AUTO 04003KT 9999 OVC059/// 09/09 Q1024=
202209020020 METAR ESMX 020020Z AUTO 35002KT 9999 BKN059/// 07/07 Q1024=
202209012350 METAR ESMX 012350Z 04003KT CAVOK 07/07 Q1023=
202209012320 METAR ESMX 012320Z VRB01KT CAVOK 07/07 Q1024=
202209012250 METAR ESMX 012250Z 08001KT CAVOK 08/08 Q1024=
202209012220 METAR ESMX 012220Z 11002KT CAVOK 07/07 Q1024=
202209012150 METAR ESMX 012150Z 00000KT CAVOK 08/08 Q1024=
202209012120 METAR ESMX 012120Z 08002KT CAVOK 08/08 Q1024=
202209012050 METAR ESMX 012050Z 00000KT CAVOK 08/08 Q1024=
202209012020 METAR ESMX 012020Z 06002KT CAVOK 09/08 Q1024=
202209011950 METAR ESMX 011950Z 00000KT CAVOK 09/08 Q1024=
202209011920 METAR ESMX 011920Z AUTO 00000KT 9999 FEW057/// 09/07 Q1023=
202209011850 METAR ESMX 011850Z AUTO 00000KT 9999 NCD 09/08 Q1023=
202209011820 METAR ESMX 011820Z 03004KT CAVOK 11/09 Q1023=
202209011750 METAR ESMX 011750Z 03004KT CAVOK 14/08 Q1023=
202209011720 METAR ESMX 011720Z 04003KT CAVOK 16/07 Q1023=
202209011650 METAR ESMX 011650Z 03005KT CAVOK 17/07 Q1023=
202209011620 METAR ESMX 011620Z 02004KT CAVOK 17/07 Q1023=
202209011550 METAR ESMX 011550Z 02004KT 350V090 9999 FEW045 17/08 Q1023=
202209011520 METAR ESMX 011520Z 01004KT 330V040 9999 FEW045 18/07 Q1023=
202209011450 METAR ESMX 011450Z 03005KT 350V060 CAVOK 18/07 Q1023=
202209011420 METAR ESMX 011420Z 05006KT 010V080 9999 FEW048 18/08 Q1024=
202209011350 METAR ESMX 011350Z 03007KT 9999 FEW048 18/08 Q1024=
202209011320 METAR ESMX 011320Z 03008KT 350V070 9999 FEW048 16/09 Q1024=
202209011250 METAR ESMX 011250Z 36006KT 340V060 9999 SCT045 17/09 Q1024=
202209011220 METAR COR ESMX 011220Z 36006KT 320V020 9999 FEW043 17/08 Q1024=
