##########################################################
# Query made at 04/19/2024 22:26:48 UTC
# Time interval: from 07/01/2022 12:00  to 07/31/2022 12:59  UTC
##########################################################

##########################################################
# ESMX, Vaxjo (Sweden)
# WMO index: 02641. WIGOS ID: 0-20000-0-02648
# Latitude 56-51N. Longitude 014-50E. Altitude 199 m.
##########################################################

202207311250 METAR ESMX 311250Z 17006KT CAVOK 23/08 Q1015=
202207311220 METAR ESMX 311220Z 17007KT CAVOK 24/08 Q1016=
202207311150 METAR ESMX 311150Z 14005KT 060V150 CAVOK 22/08 Q1016=
202207311120 METAR ESMX 311120Z 17006KT 090V220 9999 FEW047 22/10 Q1016=
202207311050 METAR ESMX 311050Z 18006KT CAVOK 22/11 Q1016=
202207311020 METAR ESMX 311020Z 15005KT CAVOK 22/11 Q1017=
202207310950 METAR ESMX 310950Z 15005KT CAVOK 21/10 Q1017=
202207310920 METAR ESMX 310920Z 20005KT 150V260 CAVOK 20/11 Q1017=
202207310850 METAR ESMX 310850Z 18004KT CAVOK 20/11 Q1017=
202207310820 METAR ESMX 310820Z 21003KT 140V320 CAVOK 19/12 Q1017=
202207310750 METAR COR ESMX 310750Z VRB03KT CAVOK 18/11 Q1017=
202207310720 METAR ESMX 310720Z 18004KT CAVOK 18/12 Q1017=
202207310650 METAR COR ESMX 310650Z 18002KT 9999 FEW004 17/14 Q1017=
202207310620 METAR ESMX 310620Z 17003KT 150V210 CAVOK 14/14 Q1018=
202207310550 METAR ESMX 310550Z 18003KT 0450 R01/0650N R19/0750N FG VV002 14/14 Q1018=
202207310520 METAR ESMX 310520Z 18003KT 0150 R01/0300N R19/0325N FG VV002 13/13 Q1018=
202207310450 METAR ESMX 310450Z 18002KT 0200 R01/0275N R19/0225N FG VV002 13/13 Q1018=
202207310420 METAR ESMX 310420Z 18003KT 0500 FG VV002 10/10 Q1018=
202207310350 METAR COR ESMX 310350Z 00000KT 1200 BCFG NSC 09/09 Q1018=
202207310320 METAR ESMX 310320Z AUTO 00000KT 0150 R01/0375N R19/P2000N BCFG NCD 08/08 Q1018=
202207310250 METAR ESMX 310250Z AUTO 00000KT 9999 BCFG NCD 08/08 Q1018=
202207310220 METAR ESMX 310220Z AUTO 17002KT 9999 NCD 09/09 Q1018=
202207310150 METAR ESMX 310150Z AUTO 00000KT 9999 NCD 08/08 Q1018=
202207310120 METAR ESMX 310120Z AUTO 00000KT 9999 NCD 09/09 Q1018=
202207310050 METAR ESMX 310050Z AUTO 00000KT 9999 NCD 10/10 Q1018=
202207310020 METAR ESMX 310020Z AUTO 00000KT 9999 NCD 11/11 Q1018=
202207302350 METAR ESMX 302350Z AUTO 20003KT 9999 NCD 11/11 Q1018=
202207302320 METAR ESMX 302320Z AUTO 18005KT 9999 NCD 12/10 Q1019=
202207302250 METAR ESMX 302250Z AUTO 18004KT 9999 NCD 13/11 Q1019=
202207302220 METAR ESMX 302220Z AUTO 18004KT 9999 NCD 12/10 Q1019=
202207302150 METAR ESMX 302150Z AUTO 18005KT 9999 NCD 13/11 Q1019=
202207302120 METAR ESMX 302120Z AUTO 18005KT 9999 NCD 15/11 Q1019=
202207302050 METAR ESMX 302050Z AUTO 18005KT 9999 NCD 15/11 Q1019=
202207302020 METAR ESMX 302020Z AUTO 17005KT 9999 NCD 16/11 Q1019=
202207301950 METAR ESMX 301950Z AUTO 18006KT 9999 NCD 16/11 Q1019=
202207301920 METAR ESMX 301920Z AUTO 18007KT 9999 NCD 18/11 Q1018=
202207301850 METAR ESMX 301850Z AUTO 20005KT 9999 NCD 19/11 Q1018=
202207301820 METAR ESMX 301820Z AUTO 16007KT 9999 NCD 20/11 Q1018=
202207301750 METAR ESMX 301750Z AUTO 17007KT 9999 NCD 21/11 Q1018=
202207301720 METAR ESMX 301720Z AUTO 18007KT 9999 NCD 21/11 Q1018=
202207301650 METAR ESMX 301650Z AUTO 16008KT 9999 FEW068/// 22/10 Q1018=
202207301620 METAR ESMX 301620Z AUTO 18004KT 9999 NCD 23/07 Q1018=
202207301550 METAR ESMX 301550Z AUTO 22004KT 140V250 9999 NCD 23/07 Q1018=
202207301520 METAR ESMX 301520Z AUTO 15005KT 9999 FEW086/// 23/08 Q1018=
202207301450 METAR ESMX 301450Z AUTO 15004KT 9999 BKN088/// 21/08 Q1019=
202207301420 METAR ESMX 301420Z AUTO 17004KT 9999 OVC080/// 22/08 Q1019=
202207301350 METAR ESMX 301350Z 17003KT CAVOK 22/07 Q1019=
202207301320 METAR ESMX 301320Z 17006KT CAVOK 23/08 Q1019=
202207301250 METAR ESMX 301250Z 21008KT 180V240 CAVOK 23/09 Q1019=
202207301220 METAR ESMX 301220Z VRB05KT CAVOK 23/09 Q1020=
202207301150 METAR ESMX 301150Z AUTO 20004KT 190V250 9999 FEW061/// 22/09 Q1020=
202207301120 METAR ESMX 301120Z AUTO 19004KT 9999 NCD 22/09 Q1020=
202207301050 METAR ESMX 301050Z AUTO 10003KT 050V120 9999 NCD 21/09 Q1020=
202207301020 METAR ESMX 301020Z AUTO 14004KT 060V210 9999 NCD 21/10 Q1020=
202207300950 METAR ESMX 300950Z AUTO 18006KT 9999 NCD 21/11 Q1020=
202207300920 METAR ESMX 300920Z AUTO 18006KT 120V230 9999 NCD 20/10 Q1021=
202207300850 METAR ESMX 300850Z AUTO 16005KT 9999 NCD 20/10 Q1021=
202207300820 METAR ESMX 300820Z AUTO 16005KT 9999 NCD 19/10 Q1021=
202207300750 METAR ESMX 300750Z AUTO 15005KT 9999 NCD 19/11 Q1021=
202207300720 METAR ESMX 300720Z AUTO 15005KT 080V190 9999 NCD 18/12 Q1021=
202207300650 METAR ESMX 300650Z AUTO 17006KT 140V210 9999 NCD 17/12 Q1021=
202207300620 METAR ESMX 300620Z AUTO 17005KT 9999 NCD 17/14 Q1021=
202207300550 METAR ESMX 300550Z AUTO 17004KT 9999 NCD 17/14 Q1021=
202207300520 METAR ESMX 300520Z AUTO 17004KT 9999 NCD 16/13 Q1021=
202207300450 METAR ESMX 300450Z AUTO 17003KT 9999 NCD 15/13 Q1021=
202207300420 METAR ESMX 300420Z AUTO 17001KT 9999 BKN094/// 14/13 Q1021=
202207300350 METAR ESMX 300350Z AUTO 00000KT 9999 OVC094/// 12/12 Q1021=
202207300320 METAR ESMX 300320Z AUTO 19002KT 9999 OVC094/// 11/11 Q1021=
202207300250 METAR ESMX 300250Z AUTO 00000KT 9999 OVC094/// 11/11 Q1021=
202207300220 METAR ESMX 300220Z AUTO 00000KT 9999 OVC094/// 11/10 Q1021=
202207300150 METAR ESMX 300150Z AUTO 00000KT 9999 OVC094/// 11/10 Q1021=
202207300120 METAR ESMX 300120Z AUTO 00000KT 9999 OVC096/// 11/10 Q1022=
202207300050 METAR ESMX 300050Z AUTO 00000KT 9999 OVC094/// 11/10 Q1022=
202207300020 METAR ESMX 300020Z AUTO 17001KT 9999 OVC094/// 10/10 Q1022=
202207292350 METAR ESMX 292350Z AUTO 00000KT 9999 OVC092/// 10/09 Q1022=
202207292320 METAR ESMX 292320Z AUTO 00000KT 9999 OVC094/// 10/09 Q1022=
202207292250 METAR ESMX 292250Z AUTO VRB01KT 9999 BKN096/// 10/09 Q1022=
202207292220 METAR ESMX 292220Z AUTO 17003KT 9999 NCD 12/09 Q1022=
202207292150 METAR ESMX 292150Z AUTO 19004KT 9999 FEW094/// 12/09 Q1022=
202207292120 METAR ESMX 292120Z AUTO 19004KT 9999 NCD 13/09 Q1022=
202207292050 METAR ESMX 292050Z AUTO 17004KT 9999 FEW098/// 16/08 Q1022=
202207292020 METAR ESMX 292020Z AUTO 17005KT 9999 FEW098/// 17/08 Q1022=
202207291950 METAR ESMX 291950Z AUTO 17005KT 9999 NCD 17/08 Q1022=
202207291920 METAR ESMX 291920Z AUTO 18004KT 9999 NCD 18/09 Q1022=
202207291850 METAR ESMX 291850Z AUTO 17005KT 9999 NCD 19/09 Q1021=
202207291820 METAR ESMX 291820Z 14005KT CAVOK 19/09 Q1021=
202207291750 METAR ESMX 291750Z 18003KT CAVOK 20/10 Q1021=
202207291720 METAR ESMX 291720Z 17004KT CAVOK 21/10 Q1021=
202207291650 METAR ESMX 291650Z 18003KT CAVOK 21/09 Q1021=
202207291620 METAR ESMX 291620Z 14004KT 030V140 CAVOK 21/10 Q1021=
202207291550 METAR ESMX 291550Z 15004KT 110V190 9999 OVC096 21/10 Q1021=
202207291520 METAR ESMX 291520Z AUTO 14004KT 9999 OVC092/// 21/10 Q1022=
202207291450 METAR ESMX 291450Z VRB02KT CAVOK 21/11 Q1022=
202207291420 METAR ESMX 291420Z VRB02KT CAVOK 21/12 Q1022=
202207291350 METAR ESMX 291350Z 13003KT CAVOK 21/12 Q1022=
202207291320 METAR ESMX 291320Z 06005KT 020V110 CAVOK 21/11 Q1022=
202207291250 METAR ESMX 291250Z 06004KT CAVOK 21/11 Q1022=
202207291220 METAR ESMX 291220Z VRB03KT CAVOK 21/10 Q1022=
202207291150 METAR ESMX 291150Z AUTO 05005KT 9999 SCT094/// 22/09 Q1022=
202207291120 METAR ESMX 291120Z AUTO 18004KT 100V230 9999 FEW055/// 23/08 Q1022=
202207291050 METAR ESMX 291050Z AUTO 15005KT 9999 FEW051/// 22/09 Q1022=
202207291020 METAR ESMX 291020Z 17004KT 100V250 9999 SCT038 22/11 Q1022=
202207290950 METAR ESMX 290950Z 15004KT 050V170 9999 SCT036 21/12 Q1023=
202207290920 METAR ESMX 290920Z 14004KT 090V160 CAVOK 21/12 Q1023=
202207290850 METAR ESMX 290850Z 15004KT CAVOK 20/12 Q1023=
202207290820 METAR ESMX 290820Z AUTO 15004KT 100V260 9999 NCD 20/13 Q1023=
202207290750 METAR ESMX 290750Z AUTO 15004KT 9999 NCD 19/13 Q1023=
202207290720 METAR ESMX 290720Z AUTO 14004KT 040V190 9999 NCD 18/13 Q1023=
202207290650 METAR ESMX 290650Z AUTO 15003KT 9999 NCD 18/13 Q1023=
202207290620 METAR ESMX 290620Z AUTO 15002KT 9999 NCD 17/14 Q1023=
202207290550 METAR ESMX 290550Z 15002KT CAVOK 16/13 Q1022=
202207290520 METAR ESMX 290520Z 15003KT CAVOK 14/13 Q1022=
202207290450 METAR ESMX 290450Z 15001KT CAVOK 13/13 Q1022=
202207290420 METAR ESMX 290420Z VRB02KT CAVOK 09/09 Q1022=
202207290350 METAR ESMX 290350Z 00000KT 9999 MIFG NSC 08/08 Q1022=
202207290320 METAR ESMX 290320Z AUTO 19002KT 9999 NCD 07/07 Q1022=
202207290250 METAR ESMX 290250Z AUTO VRB02KT 9999 BCFG NCD 08/08 Q1022=
202207290220 METAR ESMX 290220Z AUTO VRB01KT 9999 BR NCD 09/09 Q1022=
202207290150 METAR ESMX 290150Z AUTO 17001KT 9999 NCD 09/09 Q1022=
202207290120 METAR ESMX 290120Z AUTO 15002KT 9999 NCD 09/09 Q1022=
202207290050 METAR ESMX 290050Z AUTO 00000KT 9999 BR NCD 08/08 Q1022=
202207290020 METAR ESMX 290020Z AUTO 00000KT 9999 NCD 09/09 Q1022=
202207282350 METAR ESMX 282350Z AUTO 00000KT 9999 NCD 10/10 Q1022=
202207282320 METAR ESMX 282320Z 00000KT CAVOK 11/10 Q1022=
202207282250 METAR COR ESMX 282250Z VRB02KT CAVOK 11/10 Q1022=
202207282220 METAR ESMX 282220Z AUTO VRB02KT 9999 NCD 14/11 Q1021=
202207282150 METAR ESMX 282150Z AUTO 15003KT 9999 NCD 15/11 Q1021=
202207282120 METAR ESMX 282120Z AUTO 15005KT 9999 NCD 15/11 Q1021=
202207282050 METAR ESMX 282050Z 15005KT CAVOK 16/11 Q1021=
202207282020 METAR ESMX 282020Z 15006KT CAVOK 17/12 Q1020=
202207281950 METAR ESMX 281950Z 15006KT CAVOK 18/12 Q1020=
202207281920 METAR ESMX 281920Z AUTO 14006KT 100V170 9999 NCD 18/12 Q1020=
202207281850 METAR ESMX 281850Z AUTO 14006KT 9999 NCD 19/12 Q1020=
202207281820 METAR ESMX 281820Z 10005KT 050V160 CAVOK 20/12 Q1019=
202207281750 METAR ESMX 281750Z 09006KT 030V110 CAVOK 21/11 Q1019=
202207281720 METAR ESMX 281720Z VRB02KT CAVOK 23/05 Q1019=
202207281650 METAR ESMX 281650Z VRB02KT CAVOK 23/05 Q1019=
202207281620 METAR ESMX 281620Z 36003KT CAVOK 23/05 Q1019=
202207281550 METAR ESMX 281550Z 32005KT 280V360 CAVOK 23/06 Q1018=
202207281520 METAR ESMX 281520Z 04004KT 350V070 CAVOK 22/05 Q1019=
202207281450 METAR ESMX 281450Z 02005KT CAVOK 22/06 Q1019=
202207281420 METAR ESMX 281420Z VRB03KT CAVOK 23/06 Q1019=
202207281350 METAR ESMX 281350Z AUTO 35004KT 300V020 9999 NCD 22/06 Q1019=
202207281320 METAR ESMX 281320Z AUTO 33004KT 300V010 9999 FEW068/// 22/06 Q1019=
202207281250 METAR ESMX 281250Z AUTO 02006KT 340V050 9999 NCD 22/08 Q1019=
202207281220 METAR ESMX 281220Z AUTO 36007KT 9999 NCD 22/07 Q1019=
202207281150 METAR ESMX 281150Z AUTO 36005KT 330V030 9999 NCD 22/08 Q1018=
202207281120 METAR ESMX 281120Z AUTO 36005KT 320V030 9999 NCD 21/09 Q1019=
202207281050 METAR ESMX 281050Z AUTO 01004KT 340V100 9999 NCD 21/08 Q1018=
202207281020 METAR ESMX 281020Z AUTO 33005KT 280V030 9999 FEW066/// 20/08 Q1018=
202207280950 METAR ESMX 280950Z AUTO 03006KT 360V070 9999 NCD 20/10 Q1018=
202207280920 METAR ESMX 280920Z AUTO 01006KT 330V050 9999 NCD 20/10 Q1018=
202207280850 METAR ESMX 280850Z AUTO 32004KT 280V350 9999 NCD 19/10 Q1018=
202207280820 METAR ESMX 280820Z 32003KT CAVOK 19/12 Q1018=
202207280750 METAR ESMX 280750Z VRB03KT CAVOK 18/13 Q1018=
202207280720 METAR ESMX 280720Z 36003KT 300V060 CAVOK 17/12 Q1017=
202207280650 METAR ESMX 280650Z VRB04KT CAVOK 16/13 Q1017=
202207280620 METAR ESMX 280620Z 32003KT CAVOK 15/13 Q1017=
202207280550 METAR ESMX 280550Z 27004KT CAVOK 14/12 Q1017=
202207280520 METAR ESMX 280520Z 29003KT CAVOK 13/13 Q1016=
202207280450 METAR ESMX 280450Z 28003KT CAVOK 12/12 Q1016=
202207280420 METAR ESMX 280420Z AUTO VRB02KT 9999 NCD 11/11 Q1016=
202207280350 METAR ESMX 280350Z VRB02KT CAVOK 10/10 Q1016=
202207280320 METAR ESMX 280320Z AUTO 25003KT 9999 FEW064/// SCT086/// 10/10 Q1016=
202207280250 METAR ESMX 280250Z AUTO 24002KT 6000 BKN066/// BKN084/// 10/10 Q1016=
202207280220 METAR ESMX 280220Z AUTO 25003KT 9999 BKN082/// 10/10 Q1015=
202207280150 METAR ESMX 280150Z AUTO 25003KT 9999 BKN078/// 11/11 Q1015=
202207280120 METAR ESMX 280120Z AUTO 25003KT 1100 R01/P2000N R19/P2000N SCT076/// 10/10 Q1015=
202207280050 METAR ESMX 280050Z AUTO 25003KT 0350 R01/P2000N R19/P2000D NCD 10/10 Q1015=
202207280020 METAR ESMX 280020Z AUTO 25003KT 9999 NCD 10/10 Q1015=
202207272350 METAR ESMX 272350Z AUTO 00000KT 9999 NCD 11/11 Q1015=
202207272320 METAR COR ESMX 272320Z 26004KT CAVOK 12/12 Q1014=
202207272250 METAR ESMX 272250Z AUTO 27004KT 9999 NCD 12/12 Q1014=
202207272220 METAR ESMX 272220Z AUTO 28003KT 9999 SCT100/// 12/12 Q1014=
202207272150 METAR ESMX 272150Z AUTO 26005KT 9999 SCT100/// 12/12 Q1014=
202207272120 METAR ESMX 272120Z AUTO 25003KT 9999 FEW088/// OVC100/// 12/12 Q1013=
202207272050 METAR ESMX 272050Z AUTO 32003KT 9999 BKN084/// OVC170/// 13/13 Q1013=
202207272020 METAR ESMX 272020Z 30003KT CAVOK 14/14 Q1013=
202207271950 METAR ESMX 271950Z 29004KT CAVOK 14/14 Q1013=
202207271920 METAR ESMX 271920Z 29004KT 9999 SCT027 BKN055 15/14 Q1012=
202207271850 METAR ESMX 271850Z 26003KT 230V300 9999 FEW041 SCT080 15/14 Q1012=
202207271820 METAR ESMX 271820Z 28005KT CAVOK 16/14 Q1012=
202207271750 METAR ESMX 271750Z 28007KT CAVOK 17/14 Q1011=
202207271720 METAR ESMX 271720Z AUTO 27006KT 9999 OVC092/// 16/15 Q1011=
202207271650 METAR ESMX 271650Z AUTO 27005KT 9999 SCT044/// OVC078/// 17/15 Q1011=
202207271620 METAR ESMX 271620Z AUTO 28006KT 9999 FEW010/// BKN080/// OVC150/// 17/15 Q1011=
202207271550 METAR ESMX 271550Z AUTO 26005KT 220V300 9999 FEW010/// BKN068/// 17/15 Q1011=
202207271520 METAR ESMX 271520Z AUTO 27006KT 9999 FEW016/// OVC070/// 16/15 Q1011=
202207271450 METAR ESMX 271450Z AUTO 23005KT 9999 OVC068/// 16/15 Q1011=
202207271420 METAR ESMX 271420Z 26006KT 9999 +RA SCT020CB BKN062 BKN088 15/15 Q1011=
202207271350 METAR ESMX 271350Z 32009KT 290V350 3800 +RA SCT020CB BKN030 BKN062 14/14 Q1011 RERA=
202207271320 METAR ESMX 271320Z 24007KT 9999 SCT030CB BKN035 BKN056 18/13 Q1010=
202207271250 METAR ESMX 271250Z 25007KT 9999 SCT027CB BKN033 BKN076 19/13 Q1010=
202207271220 METAR ESMX 271220Z 23007KT 9999 SCT033 BKN076 19/13 Q1009=
202207271150 METAR ESMX 271150Z AUTO 26007KT 210V290 9999 SCT040/// OVC080/// 19/12 Q1009=
202207271120 METAR ESMX 271120Z 24008KT 9999 SCT030 BKN039 18/12 Q1009=
202207271050 METAR ESMX 271050Z 26007KT 9999 BKN033 18/12 Q1009=
202207271020 METAR ESMX 271020Z AUTO 26007KT 240V300 9999 OVC035/// 18/12 Q1009=
202207270950 METAR ESMX 270950Z AUTO 26008KT 220V290 9999 BKN026/// OVC034/// 17/12 Q1009=
202207270920 METAR ESMX 270920Z AUTO 26008KT 230V300 9999 BKN023/// OVC029/// 17/12 Q1009=
202207270850 METAR ESMX 270850Z 26008KT 230V290 9999 BKN019 BKN070 16/12 Q1009=
202207270820 METAR ESMX 270820Z 24008KT 9999 BKN017 15/12 Q1009=
202207270750 METAR ESMX 270750Z 24007KT 9999 BKN015 15/12 Q1008=
202207270720 METAR ESMX 270720Z 24006KT 230V290 9999 BKN014 BKN019 14/12 Q1008=
202207270650 METAR ESMX 270650Z 23006KT 200V260 9999 BKN014 13/11 Q1008=
202207270620 METAR ESMX 270620Z AUTO 25007KT 9999 BKN013/// OVC015/// 13/11 Q1008=
202207270550 METAR ESMX 270550Z AUTO 23007KT 9999 BKN011/// OVC015/// 13/11 Q1008=
202207270520 METAR ESMX 270520Z AUTO 23006KT 9999 FEW009/// SCT012/// OVC016/// 12/11 Q1008=
202207270450 METAR ESMX 270450Z AUTO 23007KT 9999 SCT010/// OVC016/// 12/11 Q1008=
202207270420 METAR ESMX 270420Z AUTO 23007KT 9999 FEW009/// OVC018/// 12/11 Q1007=
202207270350 METAR ESMX 270350Z AUTO 23007KT 9999 SCT008/// BKN011/// OVC016/// 12/11 Q1007=
202207270320 METAR ESMX 270320Z AUTO 23007KT 9999 OVC007/// 11/11 Q1007=
202207270250 METAR ESMX 270250Z AUTO 22007KT 9999 OVC007/// 11/11 Q1007=
202207270220 METAR ESMX 270220Z AUTO 22009KT 9999 OVC007/// 11/11 Q1007 REDZ=
202207270150 METAR ESMX 270150Z AUTO 22008KT 9999 BKN008/// OVC009/// 11/11 Q1007=
202207270120 METAR ESMX 270120Z AUTO 23007KT 9999 OVC010/// 12/11 Q1008=
202207270050 METAR ESMX 270050Z AUTO 22009KT 9999 BKN013/// OVC024/// 12/10 Q1008=
202207270020 METAR ESMX 270020Z AUTO 23008KT 9999 SCT015/// BKN023/// OVC029/// 12/10 Q1008=
202207262350 METAR ESMX 262350Z AUTO 22010KT 9999 FEW027/// SCT035/// BKN043/// 11/10 Q1007=
202207262320 METAR COR ESMX 262320Z 22009KT 9999 BKN043 12/09 Q1008=
202207262250 METAR ESMX 262250Z AUTO 22008KT 9999 FEW027/// OVC045/// 12/09 Q1008=
202207262220 METAR ESMX 262220Z AUTO 22008KT 9999 SCT028/// OVC045/// 12/09 Q1008=
202207262150 METAR ESMX 262150Z AUTO 20008KT 9999 BKN028/// OVC041/// 13/09 Q1008=
202207262120 METAR ESMX 262120Z AUTO 22007KT 9999 OVC041/// 13/09 Q1008=
202207262050 METAR ESMX 262050Z AUTO 22008KT 200V260 9999 OVC043/// 13/08 Q1008=
202207262020 METAR ESMX 262020Z 24010G21KT 220V320 9999 BKN045 13/09 Q1008=
202207261950 METAR COR ESMX 261950Z 25012KT 9999 FEW023 BKN041 13/10 Q1008=
202207261920 METAR ESMX 261920Z AUTO 25012KT 220V290 9999 SCT025/// BKN048/// 14/09 Q1007=
202207261850 METAR ESMX 261850Z AUTO 23010KT 9999 BKN027/// 14/10 Q1007=
202207261820 METAR ESMX 261820Z AUTO 25010G21KT 9999 SCT027/// BKN049/// 14/09 Q1007=
202207261750 METAR ESMX 261750Z AUTO 24010KT 9999 FEW024/// SCT036/// OVC049/// 15/10 Q1007 REDZ=
202207261720 METAR ESMX 261720Z AUTO 26014KT 9999 FEW027/// SCT035/// BKN047/// 15/10 Q1007=
202207261650 METAR ESMX 261650Z AUTO 25011KT 220V280 9999 FEW031/// OVC053/// 15/09 Q1007=
202207261620 METAR ESMX 261620Z AUTO 25012KT 9999 FEW030/// BKN053/// 16/10 Q1006=
202207261550 METAR ESMX 261550Z AUTO 23013KT 200V260 9999 BKN047/// BKN061/// 16/10 Q1007=
202207261520 METAR ESMX 261520Z 24013KT 9999 FEW036 SCT046 BKN057 17/09 Q1006=
202207261450 METAR ESMX 261450Z 24015KT 200V270 9999 FEW037 BKN061 17/09 Q1006=
202207261420 METAR COR ESMX 261420Z 24016KT 9999 FEW039 SCT066 18/09 Q1006=
202207261350 METAR ESMX 261350Z AUTO 24015G26KT 210V280 9999 FEW053/// 17/09 Q1006=
202207261320 METAR ESMX 261320Z 24015KT CAVOK 17/09 Q1006=
202207261250 METAR ESMX 261250Z 24015G27KT 200V280 CAVOK 18/09 Q1005=
202207261220 METAR ESMX 261220Z 25012KT 220V280 9999 FEW037 SCT061 17/10 Q1005=
202207261150 METAR COR ESMX 261150Z 22014G25KT 9999 FEW038 SCT051 18/10 Q1005=
202207261120 METAR ESMX 261120Z AUTO 23014G24KT 9999 FEW031/// BKN046/// 18/11 Q1005=
202207261050 METAR ESMX 261050Z AUTO 23011KT 200V260 9999 FEW024/// SCT031/// BKN045/// 17/12 Q1005=
202207261020 METAR ESMX 261020Z AUTO 24012KT 210V290 9999 BKN025/// BKN036/// 17/13 Q1005=
202207260950 METAR ESMX 260950Z AUTO 26010KT 230V290 9999 BKN026/// OVC037/// 16/13 Q1005=
202207260920 METAR ESMX 260920Z AUTO 26012KT 9999 SCT017/// BKN025/// 16/13 Q1004=
202207260850 METAR ESMX 260850Z AUTO 24012G23KT 200V280 9999 SCT016/// BKN021/// OVC025/// 16/14 Q1004=
202207260820 METAR ESMX 260820Z AUTO 26012KT 240V300 9999 FEW009/// BKN015/// OVC022/// 16/15 Q1003=
202207260750 METAR ESMX 260750Z AUTO 22012KT 9999 BKN011/// BKN038/// 18/16 Q1003=
202207260720 METAR ESMX 260720Z AUTO 24009KT 9999 FEW007/// SCT016/// 17/16 Q1003=
202207260650 METAR ESMX 260650Z AUTO 22010KT 5000 -RA FEW001/// BKN006/// BKN013/// 16/16 Q1003 REDZ=
202207260620 METAR ESMX 260620Z AUTO 21010KT 9999 SCT008/// BKN010/// BKN013/// 16/16 Q1003=
202207260550 METAR ESMX 260550Z AUTO 21008KT 9999 SCT008/// BKN012/// OVC022/// 16/16 Q1003=
202207260520 METAR ESMX 260520Z AUTO 22009KT 9999 FEW008/// BKN046/// OVC084/// 16/16 Q1003=
202207260450 METAR ESMX 260450Z AUTO 22009KT 9999 FEW006/// BKN011/// BKN034/// 16/16 Q1003=
202207260420 METAR ESMX 260420Z AUTO 23008KT 9999 SCT020/// BKN082/// 16/16 Q1003=
202207260350 METAR ESMX 260350Z AUTO 22007KT 9999 FEW009/// BKN055/// OVC072/// 16/16 Q1003 RERA=
202207260320 METAR ESMX 260320Z AUTO 24008KT 7000 -RA FEW007/// SCT033/// OVC051/// 16/16 Q1003 REDZ=
202207260250 METAR ESMX 260250Z AUTO 21007KT 9999 DZ SCT007/// BKN019/// BKN055/// 16/16 Q1003=
202207260220 METAR ESMX 260220Z AUTO 22009KT 9999 SCT008/// OVC010/// 16/16 Q1003=
202207260150 METAR ESMX 260150Z AUTO 22008KT 9999 OVC009/// 17/17 Q1002=
202207260120 METAR ESMX 260120Z AUTO 22011KT 9999 SCT010/// BKN057/// 17/17 Q1003=
202207260050 METAR ESMX 260050Z AUTO 22010KT 9999 FEW006/// BKN009/// OVC014/// 17/17 Q1003=
202207260020 METAR ESMX 260020Z AUTO 20010KT 9999 FEW007/// BKN009/// BKN057/// 18/18 Q1003=
202207252350 METAR ESMX 252350Z 18006KT 9999 BKN004 17/17 Q1003=
202207252320 METAR ESMX 252320Z 18006KT 9999 BKN003 BKN019 17/17 Q1003=
202207252250 METAR ESMX 252250Z AUTO 17005KT 9000 -RA BKN004/// OVC046/// 17/17 Q1003=
202207252220 METAR ESMX 252220Z AUTO 16006KT 9999 DZ BKN004/// BKN043/// OVC055/// 17/17 Q1004 RERA=
202207252150 METAR ESMX 252150Z AUTO 14005KT 9999 BKN059/// 17/17 Q1004=
202207252120 METAR ESMX 252120Z AUTO 14005KT 9999 -RA FEW055/// BKN090/// 17/17 Q1004=
202207252050 METAR ESMX 252050Z AUTO 15009KT 6000 RA FEW001/// OVC068/// 18/18 Q1005=
202207252020 METAR COR ESMX 252020Z 20004KT 9999 -RA OVC094 18/18 Q1004=
202207251950 METAR COR ESMX 251950Z 20004KT CAVOK 17/17 Q1004=
202207251920 METAR ESMX 251920Z AUTO 21005KT 9999 FEW043/// SCT078/// BKN100/// 17/17 Q1005=
202207251850 METAR ESMX 251850Z AUTO 20005KT 9000 RA OVC074/// 18/17 Q1006=
202207251820 METAR ESMX 251820Z AUTO 24009G19KT 170V280 9999 RA OVC074/// 22/14 Q1006=
202207251750 METAR ESMX 251750Z AUTO 17006KT 9999 BKN082/// BKN098/// 24/12 Q1004=
202207251720 METAR ESMX 251720Z AUTO 16007KT 120V200 9999 BKN082/// OVC160/// 24/12 Q1005=
202207251650 METAR ESMX 251650Z AUTO 16010KT 9999 FEW080/// 24/12 Q1005=
202207251620 METAR ESMX 251620Z 17010KT CAVOK 24/12 Q1005=
202207251550 METAR ESMX 251550Z 16012KT 9999 FEW120 SCT160 24/12 Q1006=
202207251520 METAR ESMX 251520Z 17015KT CAVOK 25/12 Q1006=
202207251450 METAR ESMX 251450Z 17014KT 130V200 CAVOK 25/11 Q1006=
202207251420 METAR ESMX 251420Z 16011KT 120V190 CAVOK 26/12 Q1006=
202207251350 METAR ESMX 251350Z 17012G23KT 120V200 CAVOK 27/13 Q1007=
202207251320 METAR ESMX 251320Z 17014KT CAVOK 27/14 Q1007=
202207251250 METAR ESMX 251250Z 15010KT 110V180 CAVOK 26/14 Q1007=
202207251220 METAR ESMX 251220Z 15009KT 110V180 CAVOK 25/15 Q1008=
202207251150 METAR ESMX 251150Z AUTO 16009KT 9999 FEW170/// 24/16 Q1008=
202207251120 METAR ESMX 251120Z AUTO 15007KT 120V190 9999 OVC066/// 24/15 Q1009=
202207251050 METAR ESMX 251050Z AUTO 21005KT 9999 OVC064/// 23/15 Q1010=
202207251020 METAR ESMX 251020Z AUTO 18005KT 9999 OVC064/// 23/16 Q1010=
202207250950 METAR ESMX 250950Z AUTO 15006KT 110V190 9999 BKN062/// OVC100/// 22/16 Q1010=
202207250920 METAR ESMX 250920Z AUTO 11004KT 010V170 9999 BKN120/// 21/15 Q1010=
202207250850 METAR ESMX 250850Z AUTO VRB01KT 9999 BKN061/// BKN110/// 20/16 Q1011=
202207250820 METAR ESMX 250820Z AUTO 26005KT 220V290 9999 BKN120/// BKN150/// 21/16 Q1011=
202207250750 METAR ESMX 250750Z AUTO 25007KT 200V280 9999 FEW080/// BKN130/// 20/16 Q1011=
202207250720 METAR ESMX 250720Z AUTO 17005KT 9999 SCT084/// BKN098/// OVC120/// 20/15 Q1011=
202207250650 METAR ESMX 250650Z AUTO 17004KT 140V200 9999 SCT090/// OVC110/// 19/15 Q1011=
202207250620 METAR ESMX 250620Z AUTO 17005KT 080V200 9999 BKN100/// 19/15 Q1011=
202207250550 METAR ESMX 250550Z AUTO 17007KT 9999 SCT130/// BKN170/// 19/14 Q1011=
202207250520 METAR ESMX 250520Z 17006KT CAVOK 18/14 Q1011=
202207250450 METAR ESMX 250450Z AUTO 16006KT 9999 SCT220/// 17/13 Q1012=
202207250420 METAR ESMX 250420Z 17004KT 130V190 CAVOK 17/13 Q1012=
202207250350 METAR ESMX 250350Z 18007KT CAVOK 16/13 Q1013=
202207250320 METAR ESMX 250320Z AUTO 18006KT 9999 BKN072/// OVC150/// 17/13 Q1013=
202207250250 METAR ESMX 250250Z AUTO 18007KT 9999 BKN070/// BKN120/// 17/13 Q1013=
202207250220 METAR ESMX 250220Z AUTO 18006KT 9999 FEW059/// 17/14 Q1013=
202207250150 METAR ESMX 250150Z AUTO 18007KT 9999 BKN044/// BKN082/// 17/14 Q1013=
202207250120 METAR ESMX 250120Z AUTO 19007KT 9999 OVC038/// 17/14 Q1013=
202207250050 METAR ESMX 250050Z AUTO 19006KT 9999 OVC038/// 17/14 Q1013=
202207250020 METAR ESMX 250020Z AUTO 19007KT 9999 OVC035/// 17/14 Q1014=
202207242350 METAR ESMX 242350Z AUTO 19007KT 9999 OVC037/// 17/14 Q1014=
202207242320 METAR ESMX 242320Z AUTO 19007KT 9999 BKN040/// OVC051/// 17/14 Q1014=
202207242250 METAR ESMX 242250Z 20008KT CAVOK 17/14 Q1015=
202207242220 METAR COR ESMX 242220Z 20006KT CAVOK 16/14 Q1015=
202207242150 METAR ESMX 242150Z 18006KT CAVOK 17/13 Q1015=
202207242120 METAR ESMX 242120Z 18006KT CAVOK 17/13 Q1015=
202207242050 METAR ESMX 242050Z 18005KT CAVOK 17/14 Q1015=
202207242020 METAR ESMX 242020Z 17005KT CAVOK 17/13 Q1015=
202207241950 METAR ESMX 241950Z 18004KT CAVOK 16/13 Q1015=
202207241920 METAR ESMX 241920Z 22005KT CAVOK 17/13 Q1015=
202207241850 METAR ESMX 241850Z 19003KT CAVOK 18/14 Q1015=
202207241820 METAR ESMX 241820Z AUTO 16003KT 9999 BKN100/// 18/14 Q1015=
202207241750 METAR ESMX 241750Z 24002KT CAVOK 19/14 Q1016=
202207241720 METAR COR ESMX 241720Z 25003KT CAVOK 18/13 Q1016=
202207241650 METAR ESMX 241650Z AUTO 32003KT 9999 FEW084/// SCT190/// 18/14 Q1016=
202207241620 METAR ESMX 241620Z AUTO 27004KT 240V300 9999 FEW032/// OVC088/// 17/14 Q1016=
202207241550 METAR ESMX 241550Z 26009KT 9999 -RA BKN082 20/12 Q1016=
202207241520 METAR ESMX 241520Z 26009KT 9999 FEW041 BKN160 20/12 Q1016=
202207241450 METAR ESMX 241450Z 27009KT 230V320 9999 BKN042 OVC180 21/12 Q1016=
202207241420 METAR ESMX 241420Z 26009KT 230V290 9999 SCT040 BKN200 21/12 Q1016=
202207241350 METAR ESMX 241350Z 24009KT 9999 SCT040 BKN200 22/12 Q1016=
202207241320 METAR ESMX 241320Z 26010KT 220V290 9999 SCT040 BKN200 23/13 Q1016=
202207241250 METAR ESMX 241250Z 27009KT 240V310 9999 FEW040 21/12 Q1016=
202207241220 METAR ESMX 241220Z 25007KT 160V330 CAVOK 21/12 Q1016=
202207241150 METAR ESMX 241150Z 28009KT 240V320 9999 FEW034 20/12 Q1017=
202207241120 METAR ESMX 241120Z 25009KT 230V360 9999 FEW034 20/11 Q1017=
202207241050 METAR ESMX 241050Z 24008KT 210V280 9999 SCT027 20/12 Q1017=
202207241020 METAR ESMX 241020Z 24008KT 220V290 9999 FEW018 BKN024 19/13 Q1017=
202207240950 METAR ESMX 240950Z 27008KT 220V310 9999 SCT016 BKN022 17/14 Q1017=
202207240920 METAR ESMX 240920Z AUTO 25007KT 9999 OVC020/// 17/15 Q1017=
202207240850 METAR ESMX 240850Z AUTO 25007KT 200V280 9999 SCT011/// BKN028/// 17/15 Q1017=
202207240820 METAR ESMX 240820Z AUTO 26007KT 230V300 5000 BR FEW007/// BKN015/// BKN029/// 15/14 Q1017 REDZ=
202207240750 METAR ESMX 240750Z 28004KT 250V330 7000 FEW003 SCT011 BKN020 15/15 Q1017 REDZ=
202207240720 METAR ESMX 240720Z 27004KT 3900 DZ BKN005 BKN011 15/15 Q1017=
202207240650 METAR ESMX 240650Z 26004KT 9000 BR SCT006 BKN008 OVC011 15/14 Q1016=
202207240620 METAR ESMX 240620Z 31004KT 9999 BKN009 BKN019 15/14 Q1016=
202207240550 METAR ESMX 240550Z AUTO 29004KT 260V320 9999 FEW008/// OVC025/// 15/14 Q1016=
202207240520 METAR ESMX 240520Z 31003KT 250V340 9999 BKN006 15/14 Q1016=
202207240450 METAR ESMX 240450Z 35003KT 9999 BKN007 14/14 Q1016=
202207240420 METAR ESMX 240420Z 31002KT 9999 BKN007 12/12 Q1016=
202207240350 METAR ESMX 240350Z VRB02KT 9999 FEW008 13/13 Q1016=
202207240320 METAR ESMX 240320Z AUTO 25001KT 9999 NCD 13/13 Q1016=
202207240250 METAR ESMX 240250Z AUTO 29003KT 9999 NCD 13/13 Q1015=
202207240220 METAR ESMX 240220Z AUTO 27005KT 9999 FEW039/// 14/13 Q1015=
202207240150 METAR ESMX 240150Z AUTO 27005KT 9999 FEW038/// 14/13 Q1015=
202207240120 METAR ESMX 240120Z AUTO 27005KT 9999 OVC038/// 15/14 Q1015=
202207240050 METAR ESMX 240050Z AUTO 28005KT 250V310 9999 OVC037/// 15/14 Q1015=
202207240020 METAR ESMX 240020Z AUTO 26004KT 230V290 9999 OVC036/// 15/14 Q1015=
202207232350 METAR ESMX 232350Z AUTO 27004KT 9999 OVC033/// 15/14 Q1015=
202207232320 METAR ESMX 232320Z AUTO 30004KT 9999 OVC031/// 15/14 Q1015=
202207232250 METAR ESMX 232250Z AUTO 31004KT 9999 OVC031/// 15/14 Q1015=
202207232220 METAR ESMX 232220Z AUTO 31005KT 9999 OVC032/// 15/14 Q1015=
202207232150 METAR ESMX 232150Z AUTO 31006KT 280V340 9999 OVC031/// 16/14 Q1015=
202207232120 METAR ESMX 232120Z AUTO 29004KT 9999 OVC030/// 16/14 Q1014=
202207232050 METAR ESMX 232050Z AUTO 31004KT 9999 OVC028/// 16/14 Q1014=
202207232020 METAR ESMX 232020Z AUTO 30005KT 9999 OVC026/// 16/14 Q1014=
202207231950 METAR ESMX 231950Z AUTO 29004KT 9999 OVC026/// 16/14 Q1014=
202207231920 METAR ESMX 231920Z AUTO 29003KT 9999 SCT027/// OVC110/// 16/14 Q1014=
202207231850 METAR ESMX 231850Z AUTO 33006KT 9999 BKN120/// 17/14 Q1013=
202207231820 METAR ESMX 231820Z AUTO 34007KT 9999 FEW080/// SCT110/// 17/14 Q1013=
202207231750 METAR ESMX 231750Z AUTO 34008KT 9999 FEW076/// SCT120/// 17/14 Q1013=
202207231720 METAR ESMX 231720Z AUTO 34008KT 9999 BKN130/// 18/14 Q1013=
202207231650 METAR ESMX 231650Z 34010KT 9999 FEW031 BKN120 18/14 Q1012=
202207231620 METAR ESMX 231620Z 33010KT 9999 SCT030 BKN043 19/15 Q1013=
202207231550 METAR ESMX 231550Z 33007KT 290V360 9999 BKN028 BKN038 20/15 Q1013=
202207231520 METAR ESMX 231520Z 34007KT 300V010 9999 BKN030 BKN130 19/15 Q1013=
202207231450 METAR ESMX 231450Z 01006KT 330V030 9999 BKN024 BKN032 19/16 Q1013=
202207231420 METAR ESMX 231420Z 20003KT 9999 SCT012 BKN015 BKN020 18/17 Q1012=
202207231350 METAR ESMX 231350Z 20004KT 9999 SCT021 BKN031 BKN045 18/17 Q1012=
202207231320 METAR ESMX 231320Z 20005KT 6000 DZ FEW015 BKN023 17/17 Q1012 REDZ=
202207231250 METAR ESMX 231250Z 23005KT 200V260 8000 BR FEW008 SCT024 BKN036 18/17 Q1012 RERA=
202207231220 METAR ESMX 231220Z AUTO 20003KT 9999 FEW015/// SCT023/// OVC030/// 18/18 Q1012=
202207231150 METAR ESMX 231150Z AUTO 20004KT 2600 -RA SCT001/// BKN005/// OVC028/// 17/17 Q1012=
202207231120 METAR ESMX 231120Z AUTO 20003KT 2500 -RA BKN005/// BKN013/// OVC024/// 18/17 Q1012 REDZ=
202207231050 METAR ESMX 231050Z AUTO 20005KT 4600 -RA BKN001/// OVC020/// 17/17 Q1012 REDZ=
202207231020 METAR ESMX 231020Z AUTO 22005KT 9999 FEW001/// OVC008/// 18/16 Q1012=
202207230950 METAR ESMX 230950Z AUTO 22004KT 9999 BKN005/// BKN008/// OVC013/// 17/17 Q1013=
202207230920 METAR ESMX 230920Z AUTO 26005KT 9999 OVC005/// 17/16 Q1013=
202207230850 METAR ESMX 230850Z AUTO 23006KT 9999 OVC005/// 16/16 Q1013=
202207230820 METAR ESMX 230820Z AUTO 21007KT 9999 OVC005/// 16/16 Q1013=
202207230750 METAR ESMX 230750Z AUTO 23005KT 9999 OVC006/// 16/16 Q1013=
202207230720 METAR ESMX 230720Z AUTO 22006KT 9999 OVC004/// 15/15 Q1012=
202207230650 METAR ESMX 230650Z AUTO 23007KT 9999 VV004 15/15 Q1012=
202207230620 METAR ESMX 230620Z AUTO 22007KT 4400 BR VV003 15/15 Q1012=
202207230550 METAR ESMX 230550Z AUTO 21006KT 4000 -DZ VV004 15/15 Q1012=
202207230520 METAR ESMX 230520Z AUTO 21006KT 3300 DZ BKN002/// OVC005/// 15/15 Q1012=
202207230450 METAR ESMX 230450Z AUTO 23007KT 6000 BR OVC001/// 15/15 Q1012=
202207230420 METAR ESMX 230420Z AUTO 21007KT 8000 BR OVC003/// 15/15 Q1012 REDZ=
202207230350 METAR ESMX 230350Z AUTO 23006KT 9999 OVC004/// 15/15 Q1012 REDZ=
202207230320 METAR ESMX 230320Z AUTO 21007KT 4000 -DZ SCT004/// BKN006/// BKN008/// 15/15 Q1013=
202207230250 METAR ESMX 230250Z AUTO 21008KT 7000 BR OVC005/// 15/14 Q1013=
202207230220 METAR ESMX 230220Z AUTO 22007KT 9999 OVC006/// 15/14 Q1013=
202207230150 METAR ESMX 230150Z AUTO 22007KT 9999 OVC007/// 15/14 Q1013=
202207230120 METAR ESMX 230120Z AUTO 22006KT 9999 OVC007/// 15/14 Q1013=
202207230050 METAR ESMX 230050Z AUTO 20006KT 9999 OVC007/// 15/14 Q1013=
202207230020 METAR ESMX 230020Z AUTO 23006KT 220V280 9999 OVC008/// 15/14 Q1013=
202207222350 METAR ESMX 222350Z AUTO 22005KT 9999 OVC008/// 15/14 Q1013=
202207222320 METAR ESMX 222320Z AUTO 23007KT 9999 OVC009/// 15/14 Q1013=
202207222250 METAR ESMX 222250Z AUTO 22007KT 190V250 9999 OVC009/// 15/14 Q1013=
202207222220 METAR ESMX 222220Z AUTO 22008KT 9999 BKN009/// OVC010/// 15/14 Q1013=
202207222150 METAR ESMX 222150Z AUTO 22008KT 9999 OVC011/// 16/13 Q1014=
202207222120 METAR ESMX 222120Z AUTO 23008KT 9999 FEW012/// OVC016/// 16/13 Q1014=
202207222050 METAR ESMX 222050Z AUTO 22009KT 9999 OVC016/// 16/13 Q1014=
202207222020 METAR ESMX 222020Z AUTO 24006KT 9999 OVC018/// 16/13 Q1014=
202207221950 METAR ESMX 221950Z AUTO 24004KT 9999 BKN021/// OVC031/// 16/13 Q1014=
202207221920 METAR ESMX 221920Z AUTO 22004KT 200V260 9999 OVC030/// 16/13 Q1014=
202207221850 METAR ESMX 221850Z AUTO 25006KT 210V280 9999 BKN033/// OVC061/// 16/13 Q1014=
202207221820 METAR ESMX 221820Z 25006KT 9999 SCT034 BKN066 17/12 Q1014=
202207221750 METAR ESMX 221750Z 24007KT 210V280 9999 FEW018 BKN033 BKN070 17/13 Q1014=
202207221720 METAR ESMX 221720Z 26009KT 230V290 9999 FEW020 BKN044 17/13 Q1014=
202207221650 METAR ESMX 221650Z 25009KT 9999 FEW019 BKN055 BKN066 18/14 Q1014=
202207221620 METAR ESMX 221620Z 24010KT 9999 FEW045 BKN061 19/13 Q1014=
202207221550 METAR ESMX 221550Z 25009KT 9999 FEW045 BKN064 19/13 Q1014=
202207221520 METAR ESMX 221520Z AUTO 23009KT 210V270 9999 SCT053/// BKN064/// 19/14 Q1013=
202207221450 METAR ESMX 221450Z AUTO 23010KT 9999 BKN048/// BKN059/// 21/13 Q1013=
202207221420 METAR ESMX 221420Z 23009KT 9999 FEW033 21/13 Q1013=
202207221350 METAR ESMX 221350Z 23010KT 9999 -RA SCT064 20/13 Q1013=
202207221320 METAR ESMX 221320Z 25009KT 230V290 CAVOK 21/14 Q1013=
202207221250 METAR ESMX 221250Z 23011KT 9999 SCT039 22/15 Q1013=
202207221220 METAR COR ESMX 221220Z 22013KT 9999 BKN038 23/14 Q1013=
202207221150 METAR ESMX 221150Z AUTO 21012KT 180V240 9999 FEW033/// SCT040/// OVC059/// 22/14 Q1013=
202207221120 METAR ESMX 221120Z AUTO 21010KT 180V250 9999 BKN037/// OVC051/// 23/15 Q1013=
202207221050 METAR ESMX 221050Z AUTO 20008KT 150V260 9999 SCT038/// 23/14 Q1013=
202207221020 METAR ESMX 221020Z AUTO 18010KT 130V230 9999 FEW028/// SCT035/// 23/13 Q1013=
202207220950 METAR ESMX 220950Z AUTO 17009KT 130V200 9999 BKN026/// 22/16 Q1013=
202207220920 METAR ESMX 220920Z AUTO 17007KT 9999 FEW024/// SCT037/// 22/16 Q1013=
202207220850 METAR ESMX 220850Z AUTO 18008KT 140V210 9999 OVC021/// 20/16 Q1013=
202207220820 METAR ESMX 220820Z AUTO 20007KT 9999 SCT020/// OVC030/// 20/16 Q1013=
202207220750 METAR ESMX 220750Z AUTO 20007KT 9999 BKN018/// OVC025/// 20/17 Q1013=
202207220720 METAR ESMX 220720Z AUTO 20007KT 9999 BKN018/// OVC022/// 20/16 Q1013=
202207220650 METAR ESMX 220650Z AUTO 20006KT 9999 OVC018/// 19/16 Q1013=
202207220620 METAR ESMX 220620Z AUTO 21007KT 9999 FEW012/// BKN018/// OVC023/// 19/16 Q1013=
202207220550 METAR ESMX 220550Z AUTO 20008KT 9999 SCT007/// BKN010/// OVC016/// 19/17 Q1013=
202207220520 METAR ESMX 220520Z 20007KT 7000 BR OVC006 18/18 Q1013=
202207220450 METAR ESMX 220450Z 19006KT 5000 BR OVC004 18/18 Q1013=
202207220420 METAR COR ESMX 220420Z 19005KT 5000 BR OVC005 18/18 Q1013=
202207220350 METAR COR ESMX 220350Z 20007KT 8000 BR BKN006 18/17 Q1013=
202207220320 METAR ESMX 220320Z AUTO 19005KT 9000 BKN010/// BKN014/// 18/18 Q1013=
202207220250 METAR ESMX 220250Z AUTO 20003KT 9000 NCD 18/18 Q1013=
202207220220 METAR ESMX 220220Z AUTO 20003KT 9999 FEW220/// 18/18 Q1013=
202207220150 METAR ESMX 220150Z AUTO 20006KT 9999 FEW130/// 18/17 Q1013=
202207220120 METAR ESMX 220120Z AUTO 21005KT 9000 FEW130/// 18/18 Q1013=
202207220050 METAR ESMX 220050Z AUTO 21003KT 9999 NCD 18/18 Q1013=
202207220020 METAR ESMX 220020Z AUTO 21004KT 9999 SCT094/// 19/18 Q1014=
202207212350 METAR ESMX 212350Z AUTO 22003KT 9999 RA BKN098/// 19/18 Q1013=
202207212320 METAR ESMX 212320Z 22003KT 9999 FEW022 19/17 Q1014=
202207212250 METAR ESMX 212250Z 22004KT 9999 FEW022 20/17 Q1014=
202207212220 METAR ESMX 212220Z 18005KT CAVOK 19/17 Q1014=
202207212150 METAR ESMX 212150Z 23003KT CAVOK 20/17 Q1014=
202207212120 METAR ESMX 212120Z 23003KT CAVOK 20/17 Q1013=
202207212050 METAR ESMX 212050Z 23005KT CAVOK 21/17 Q1013=
202207212020 METAR ESMX 212020Z 22006KT CAVOK 22/19 Q1013=
202207211950 METAR ESMX 211950Z 21009KT CAVOK 23/19 Q1014=
202207211920 METAR ESMX 211920Z 19012KT CAVOK 24/18 Q1014=
202207211850 METAR ESMX 211850Z 17008KT CAVOK 25/18 Q1013=
202207211820 METAR ESMX 211820Z 18007KT CAVOK 26/17 Q1013=
202207211750 METAR ESMX 211750Z 17008KT CAVOK 27/17 Q1013=
202207211720 METAR ESMX 211720Z 17008KT CAVOK 28/16 Q1013=
202207211650 METAR ESMX 211650Z 17010KT CAVOK 28/15 Q1013=
202207211620 METAR ESMX 211620Z 16012KT CAVOK 29/14 Q1013=
202207211550 METAR ESMX 211550Z 16011KT CAVOK 30/14 Q1013=
202207211520 METAR ESMX 211520Z 18010KT CAVOK 31/15 Q1013=
202207211450 METAR ESMX 211450Z 18012KT CAVOK 32/15 Q1013=
202207211420 METAR ESMX 211420Z 17013KT 140V200 CAVOK 33/14 Q1013=
202207211350 METAR ESMX 211350Z AUTO 16010KT 120V190 9999 NCD 33/13 Q1013=
202207211320 METAR ESMX 211320Z AUTO 17013KT 9999 NCD 34/13 Q1013=
202207211250 METAR ESMX 211250Z AUTO 16011KT 120V190 9999 NCD 34/12 Q1013=
202207211220 METAR ESMX 211220Z AUTO 18009KT 9999 NCD 33/14 Q1014=
202207211150 METAR ESMX 211150Z AUTO 17009KT 9999 NCD 33/15 Q1014=
202207211120 METAR ESMX 211120Z AUTO 18010KT 9999 NCD 33/15 Q1014=
202207211050 METAR ESMX 211050Z AUTO 16008KT 120V190 9999 NCD 31/17 Q1014=
202207211020 METAR ESMX 211020Z AUTO 17008KT 9999 NCD 30/17 Q1014=
202207210950 METAR ESMX 210950Z AUTO 15007KT 110V190 9999 NCD 30/18 Q1014=
202207210920 METAR ESMX 210920Z AUTO 15007KT 9999 NCD 29/18 Q1015=
202207210850 METAR ESMX 210850Z AUTO 15006KT 9999 NCD 28/18 Q1015=
202207210820 METAR ESMX 210820Z AUTO 15007KT 9999 NCD 27/18 Q1015=
202207210750 METAR ESMX 210750Z 16006KT CAVOK 26/18 Q1015=
202207210720 METAR ESMX 210720Z 15005KT CAVOK 25/17 Q1015=
202207210650 METAR ESMX 210650Z 16005KT CAVOK 24/18 Q1015=
202207210620 METAR ESMX 210620Z 15003KT CAVOK 23/17 Q1016=
202207210550 METAR COR ESMX 210550Z 14003KT CAVOK 22/17 Q1016=
202207210520 METAR ESMX 210520Z AUTO 14005KT 9999 NCD 21/17 Q1016=
202207210450 METAR ESMX 210450Z VRB01KT CAVOK 17/16 Q1016=
202207210420 METAR ESMX 210420Z 00000KT CAVOK 15/14 Q1016=
202207210350 METAR COR ESMX 210350Z 00000KT CAVOK 13/13 Q1016=
202207210320 METAR ESMX 210320Z AUTO 00000KT 9999 NCD 13/13 Q1017=
202207210250 METAR ESMX 210250Z AUTO 00000KT 9999 NCD 12/12 Q1017=
202207210220 METAR ESMX 210220Z AUTO 00000KT 9999 NCD 12/12 Q1017=
202207210150 METAR ESMX 210150Z AUTO 00000KT 9999 NCD 12/12 Q1017=
202207210120 METAR ESMX 210120Z AUTO 00000KT 9999 NCD 12/11 Q1017=
202207210050 METAR ESMX 210050Z AUTO 00000KT 9999 NCD 13/12 Q1017=
202207210020 METAR ESMX 210020Z AUTO 00000KT 9999 SCT180/// 14/12 Q1018=
202207202350 METAR ESMX 202350Z AUTO 00000KT 9999 SCT180/// 14/12 Q1018=
202207202320 METAR ESMX 202320Z 16003KT CAVOK 15/12 Q1018=
202207202250 METAR ESMX 202250Z 16003KT CAVOK 15/11 Q1018=
202207202220 METAR ESMX 202220Z 16004KT CAVOK 17/11 Q1018=
202207202150 METAR ESMX 202150Z 17005KT CAVOK 19/11 Q1018=
202207202120 METAR ESMX 202120Z 17004KT CAVOK 20/11 Q1018=
202207202050 METAR ESMX 202050Z 17005KT CAVOK 21/11 Q1019=
202207202020 METAR ESMX 202020Z 16005KT CAVOK 22/12 Q1018=
202207201950 METAR ESMX 201950Z 16006KT CAVOK 23/11 Q1018=
202207201920 METAR ESMX 201920Z 17006KT CAVOK 24/12 Q1018=
202207201850 METAR ESMX 201850Z 16006KT CAVOK 25/13 Q1018=
202207201820 METAR ESMX 201820Z 16006KT CAVOK 26/13 Q1018=
202207201750 METAR ESMX 201750Z 17008KT CAVOK 27/13 Q1018=
202207201720 METAR ESMX 201720Z AUTO 17008KT 9999 NCD 28/11 Q1018=
202207201650 METAR ESMX 201650Z AUTO 16008KT 120V190 9999 NCD 29/11 Q1018=
202207201620 METAR ESMX 201620Z AUTO 15009KT 110V180 9999 NCD 29/12 Q1019=
202207201550 METAR ESMX 201550Z AUTO 18009KT 9999 NCD 30/12 Q1019=
202207201520 METAR ESMX 201520Z 17009KT CAVOK 30/12 Q1019=
202207201450 METAR ESMX 201450Z 17009KT 120V200 CAVOK 31/13 Q1019=
202207201420 METAR ESMX 201420Z 16007KT 120V200 CAVOK 31/13 Q1019=
202207201350 METAR ESMX 201350Z 16008KT 120V200 CAVOK 31/12 Q1020=
202207201320 METAR ESMX 201320Z 16008KT 120V200 CAVOK 30/12 Q1020=
202207201250 METAR COR ESMX 201250Z 17008KT CAVOK 30/14 Q1020=
202207201220 METAR ESMX 201220Z 15007KT 080V190 CAVOK 29/14 Q1020=
202207201150 METAR ESMX 201150Z AUTO 19008KT 9999 NCD 30/14 Q1020=
202207201120 METAR ESMX 201120Z AUTO 18008KT 9999 NCD 29/15 Q1020=
202207201050 METAR ESMX 201050Z AUTO 20009KT 9999 NCD 29/15 Q1021=
202207201020 METAR ESMX 201020Z AUTO 18007KT 9999 NCD 27/16 Q1021=
202207200950 METAR ESMX 200950Z AUTO 15006KT 100V190 9999 NCD 27/15 Q1021=
202207200920 METAR ESMX 200920Z 18008KT CAVOK 27/15 Q1021=
202207200850 METAR ESMX 200850Z 19007KT 130V230 CAVOK 26/16 Q1021=
202207200820 METAR ESMX 200820Z 17005KT CAVOK 25/16 Q1021=
202207200750 METAR ESMX 200750Z 18007KT CAVOK 24/16 Q1021=
202207200720 METAR ESMX 200720Z 16005KT CAVOK 24/16 Q1021=
202207200650 METAR COR ESMX 200650Z 15003KT CAVOK 23/16 Q1021=
202207200620 METAR ESMX 200620Z AUTO 15005KT 9999 NCD 22/15 Q1021=
202207200550 METAR ESMX 200550Z AUTO 11003KT 9999 NCD 21/16 Q1021=
202207200520 METAR ESMX 200520Z AUTO 08003KT 9999 NCD 19/16 Q1021=
202207200450 METAR ESMX 200450Z AUTO 00000KT 9999 NCD 18/16 Q1021=
202207200420 METAR ESMX 200420Z AUTO 00000KT 9999 FEW180/// 15/14 Q1021=
202207200350 METAR ESMX 200350Z AUTO 00000KT 9999 SCT180/// 14/14 Q1020=
202207200320 METAR ESMX 200320Z AUTO 00000KT 9999 FEW180/// 13/13 Q1020=
202207200250 METAR ESMX 200250Z AUTO 00000KT 9999 NCD 12/12 Q1020=
202207200220 METAR ESMX 200220Z AUTO 17002KT 9999 NCD 13/13 Q1020=
202207200150 METAR ESMX 200150Z AUTO 21001KT 9999 NCD 13/13 Q1020=
202207200120 METAR ESMX 200120Z AUTO 00000KT 9999 NCD 13/13 Q1020=
202207200050 METAR ESMX 200050Z AUTO 00000KT 9999 NCD 14/13 Q1020=
202207200020 METAR ESMX 200020Z AUTO 33002KT 9999 NCD 14/13 Q1020=
202207192350 METAR ESMX 192350Z 33001KT CAVOK 14/13 Q1020=
202207192320 METAR ESMX 192320Z 00000KT CAVOK 15/13 Q1020=
202207192250 METAR ESMX 192250Z 27002KT CAVOK 16/13 Q1020=
202207192220 METAR ESMX 192220Z 27002KT CAVOK 18/14 Q1020=
202207192150 METAR ESMX 192150Z 28003KT CAVOK 19/13 Q1020=
202207192120 METAR ESMX 192120Z 27005KT CAVOK 19/13 Q1020=
202207192050 METAR ESMX 192050Z 24004KT CAVOK 19/14 Q1020=
202207192020 METAR ESMX 192020Z 25004KT CAVOK 20/14 Q1019=
202207191950 METAR ESMX 191950Z 25004KT CAVOK 21/14 Q1019=
202207191920 METAR ESMX 191920Z AUTO 25004KT 9999 NCD 22/15 Q1019=
202207191850 METAR ESMX 191850Z AUTO 25003KT 9999 NCD 23/15 Q1019=
202207191820 METAR ESMX 191820Z AUTO 25003KT 9999 NCD 25/14 Q1019=
202207191750 METAR ESMX 191750Z AUTO 26005KT 9999 NCD 26/14 Q1019=
202207191720 METAR ESMX 191720Z AUTO 25004KT 9999 NCD 27/14 Q1019=
202207191650 METAR ESMX 191650Z AUTO 29006KT 9999 NCD 27/14 Q1018=
202207191620 METAR ESMX 191620Z AUTO 30006KT 9999 NCD 27/14 Q1018=
202207191550 METAR ESMX 191550Z AUTO 29006KT 250V320 9999 NCD 27/14 Q1018=
202207191520 METAR ESMX 191520Z AUTO 26006KT 200V310 9999 NCD 27/14 Q1018=
202207191450 METAR ESMX 191450Z AUTO 26008G20KT 220V310 9999 NCD 27/14 Q1018=
202207191420 METAR ESMX 191420Z AUTO 28008KT 240V320 9999 NCD 27/14 Q1019=
202207191350 METAR ESMX 191350Z 25007KT 230V290 CAVOK 27/15 Q1018=
202207191320 METAR ESMX 191320Z 29009KT 250V320 CAVOK 27/15 Q1019=
202207191250 METAR ESMX 191250Z 28009KT CAVOK 26/15 Q1019=
202207191220 METAR ESMX 191220Z 26009KT CAVOK 26/14 Q1019=
202207191150 METAR ESMX 191150Z AUTO 26010KT 240V300 9999 NCD 27/15 Q1018=
202207191120 METAR ESMX 191120Z AUTO 30008KT 260V330 9999 NCD 26/14 Q1018=
202207191050 METAR ESMX 191050Z AUTO 30008KT 260V330 9999 NCD 26/15 Q1018=
202207191020 METAR ESMX 191020Z AUTO 30007KT 250V330 9999 NCD 25/14 Q1018=
202207190950 METAR ESMX 190950Z AUTO 26009KT 9999 NCD 25/15 Q1018=
202207190920 METAR ESMX 190920Z AUTO 28007KT 250V320 9999 NCD 24/14 Q1018=
202207190850 METAR ESMX 190850Z AUTO 24006KT 200V270 9999 NCD 23/16 Q1018=
202207190820 METAR ESMX 190820Z AUTO 27005KT 220V300 9999 NCD 22/16 Q1018=
202207190750 METAR ESMX 190750Z AUTO 23006KT 200V270 9999 NCD 22/16 Q1018=
202207190720 METAR ESMX 190720Z AUTO 26005KT 230V290 9999 NCD 20/16 Q1018=
202207190650 METAR ESMX 190650Z AUTO 29004KT 260V340 9999 NCD 19/16 Q1018=
202207190620 METAR ESMX 190620Z AUTO 27006KT 9999 NCD 18/16 Q1018=
202207190550 METAR ESMX 190550Z AUTO 27005KT 240V300 9999 SCT008/// 17/16 Q1017=
202207190520 METAR ESMX 190520Z AUTO 26005KT 9999 SCT007/// 17/15 Q1018=
202207190450 METAR ESMX 190450Z AUTO 25006KT 9999 NCD 16/15 Q1017=
202207190420 METAR ESMX 190420Z AUTO 24004KT 9999 NCD 15/15 Q1017=
202207190350 METAR ESMX 190350Z AUTO 23005KT 9999 NCD 14/14 Q1017=
202207190320 METAR ESMX 190320Z AUTO 24004KT 9000 NCD 13/13 Q1017=
202207190250 METAR ESMX 190250Z AUTO 21005KT 4500 NCD 12/12 Q1017=
202207190220 METAR ESMX 190220Z AUTO 19005KT 9999 NCD 12/12 Q1017=
202207190150 METAR ESMX 190150Z AUTO 19004KT 9999 NCD 12/12 Q1017=
202207190120 METAR ESMX 190120Z AUTO 19004KT 0400 R01/P2000N R19/P2000N NCD 13/13 Q1017=
202207190050 METAR ESMX 190050Z AUTO 19004KT 9999 NCD 13/13 Q1017=
202207190020 METAR ESMX 190020Z AUTO 19004KT 9999 NCD 14/14 Q1017=
202207182350 METAR ESMX 182350Z 19004KT CAVOK 13/13 Q1017=
202207182320 METAR ESMX 182320Z 19005KT CAVOK 14/14 Q1017=
202207182250 METAR ESMX 182250Z 19005KT CAVOK 15/14 Q1017=
202207182220 METAR ESMX 182220Z 19006KT CAVOK 15/14 Q1017=
202207182150 METAR ESMX 182150Z 19006KT CAVOK 15/14 Q1017=
202207182120 METAR ESMX 182120Z 19007KT CAVOK 16/14 Q1017=
202207182050 METAR ESMX 182050Z 19006KT CAVOK 16/15 Q1017=
202207182020 METAR ESMX 182020Z 18006KT CAVOK 17/15 Q1018=
202207181950 METAR ESMX 181950Z 17006KT CAVOK 17/15 Q1018=
202207181920 METAR ESMX 181920Z AUTO 16006KT 9999 NCD 17/15 Q1018=
202207181850 METAR ESMX 181850Z AUTO 17006KT 9999 SCT120/// 18/15 Q1018=
202207181820 METAR ESMX 181820Z AUTO 19005KT 9999 FEW140/// 18/14 Q1018=
202207181750 METAR ESMX 181750Z AUTO 19005KT 9999 FEW150/// 18/14 Q1018=
202207181720 METAR ESMX 181720Z AUTO 21008KT 9999 NCD 18/14 Q1018=
202207181650 METAR ESMX 181650Z AUTO 22009KT 9999 SCT061/// 20/13 Q1018=
202207181620 METAR ESMX 181620Z AUTO 24007KT 9999 FEW062/// BKN074/// 20/14 Q1019=
202207181550 METAR ESMX 181550Z 23007KT 200V280 CAVOK 20/14 Q1019=
202207181520 METAR ESMX 181520Z 22009KT CAVOK 19/14 Q1019=
202207181450 METAR ESMX 181450Z 23010KT 9999 FEW016 SCT088 18/14 Q1019=
202207181420 METAR ESMX 181420Z 22008KT 190V250 9999 BKN015 19/15 Q1019=
202207181350 METAR ESMX 181350Z 23007KT 9999 BKN014 18/16 Q1020=
202207181320 METAR ESMX 181320Z 22009KT 190V250 9999 BKN013 17/16 Q1020=
202207181250 METAR ESMX 181250Z 22009KT 9999 SCT013 BKN023 17/16 Q1020=
202207181220 METAR ESMX 181220Z 21008KT 9999 SCT011 BKN021 17/17 Q1020=
202207181150 METAR ESMX 181150Z AUTO 23006KT 9999 FEW010/// BKN027/// OVC100/// 17/17 Q1020=
202207181120 METAR ESMX 181120Z AUTO 23006KT 210V270 9999 -DZ FEW008/// SCT012/// BKN025/// 17/17 Q1020=
202207181050 METAR ESMX 181050Z AUTO 23005KT 210V270 9999 SCT009/// BKN021/// BKN070/// 17/17 Q1020=
202207181020 METAR ESMX 181020Z AUTO 26005KT 9999 FEW015/// SCT031/// BKN059/// 17/17 Q1020=
202207180950 METAR ESMX 180950Z AUTO 25005KT 210V300 9999 BKN019/// OVC025/// 18/15 Q1020=
202207180920 METAR ESMX 180920Z AUTO 26009KT 9999 BKN019/// OVC029/// 18/15 Q1020=
202207180850 METAR ESMX 180850Z AUTO 26006KT 230V300 9999 BKN018/// OVC027/// 18/15 Q1020=
202207180820 METAR ESMX 180820Z AUTO 28006KT 9999 FEW016/// SCT020/// OVC027/// 18/16 Q1020=
202207180750 METAR ESMX 180750Z AUTO 27007KT 9999 FEW015/// OVC023/// 17/16 Q1020=
202207180720 METAR ESMX 180720Z AUTO 27008KT 9999 BKN008/// BKN016/// OVC029/// 17/16 Q1020=
202207180650 METAR ESMX 180650Z AUTO 25006KT 9999 FEW007/// SCT011/// OVC026/// 16/16 Q1020=
202207180620 METAR ESMX 180620Z AUTO 26005KT 9999 BKN006/// OVC010/// 15/15 Q1020=
202207180550 METAR ESMX 180550Z AUTO 23005KT 200V280 4200 SCT006/// BKN009/// OVC013/// 15/15 Q1020=
202207180520 METAR ESMX 180520Z 24005KT 4600 BKN006 15/15 Q1020=
202207180450 METAR ESMX 180450Z 24006KT 9999 BKN006 15/15 Q1020=
202207180420 METAR ESMX 180420Z 22006KT 190V250 9999 BKN006 15/15 Q1020=
202207180350 METAR COR ESMX 180350Z 24004KT 7000 BR SCT005 BKN008 15/15 Q1020=
202207180320 METAR ESMX 180320Z AUTO 24006KT 220V290 9000 FEW009/// SCT014/// BKN020/// 15/15 Q1020=
202207180250 METAR ESMX 180250Z AUTO 22005KT 9999 BKN010/// OVC012/// 15/15 Q1020=
202207180220 METAR ESMX 180220Z AUTO 20005KT 9999 OVC011/// 15/14 Q1020=
202207180150 METAR ESMX 180150Z AUTO 23005KT 9999 FEW006/// BKN013/// OVC018/// 15/15 Q1020=
202207180120 METAR ESMX 180120Z AUTO 23005KT 9999 OVC010/// 15/15 Q1020=
202207180050 METAR ESMX 180050Z AUTO 24005KT 9999 SCT013/// BKN017/// OVC021/// 15/15 Q1020=
202207180020 METAR ESMX 180020Z AUTO 24004KT 9999 BKN012/// OVC016/// 15/14 Q1020=
202207172350 METAR ESMX 172350Z AUTO 25003KT 9999 BKN017/// BKN023/// OVC059/// 15/14 Q1020=
202207172320 METAR ESMX 172320Z AUTO 25006KT 9999 BKN018/// OVC150/// 15/13 Q1020=
202207172250 METAR ESMX 172250Z AUTO 25005KT 9999 FEW023/// SCT047/// 15/13 Q1020=
202207172220 METAR ESMX 172220Z AUTO 25006KT 9999 BKN025/// 15/12 Q1021=
202207172150 METAR ESMX 172150Z AUTO 25006KT 9999 SCT160/// 15/12 Q1021=
202207172120 METAR ESMX 172120Z AUTO 25004KT 9999 FEW031/// BKN160/// 15/12 Q1020=
202207172050 METAR ESMX 172050Z AUTO 24004KT 9999 FEW031/// 15/12 Q1020=
202207172020 METAR ESMX 172020Z 24004KT CAVOK 15/11 Q1020=
202207171950 METAR ESMX 171950Z 26004KT 240V300 9999 SCT150 15/11 Q1020=
202207171920 METAR ESMX 171920Z 27006KT 250V320 9999 SCT032 BKN072 16/11 Q1020=
202207171850 METAR ESMX 171850Z 27008KT CAVOK 17/10 Q1020=
202207171820 METAR ESMX 171820Z 26011KT 230V300 CAVOK 18/10 Q1020=
202207171750 METAR ESMX 171750Z 27011KT CAVOK 19/10 Q1020=
202207171720 METAR ESMX 171720Z 26011KT 230V300 CAVOK 20/09 Q1020=
202207171650 METAR ESMX 171650Z 28010KT CAVOK 21/08 Q1019=
202207171620 METAR ESMX 171620Z 26010KT 230V310 9999 FEW047 21/09 Q1019=
202207171550 METAR ESMX 171550Z 26014KT 9999 SCT048 21/09 Q1019=
202207171520 METAR ESMX 171520Z 26011KT CAVOK 21/09 Q1019=
202207171450 METAR ESMX 171450Z 26012KT 210V300 CAVOK 21/09 Q1019=
202207171420 METAR ESMX 171420Z 25011KT 230V290 CAVOK 20/10 Q1019=
202207171350 METAR ESMX 171350Z 24012KT 210V270 9999 BKN048 21/09 Q1019=
202207171320 METAR ESMX 171320Z 26011KT 230V290 9999 FEW046 SCT059 21/11 Q1019=
202207171250 METAR ESMX 171250Z 22010KT 9999 SCT048 22/10 Q1019=
202207171220 METAR ESMX 171220Z 23010KT 200V280 9999 SCT045 BKN059 21/10 Q1020=
202207171150 METAR ESMX 171150Z 25010KT 220V280 9999 SCT043 BKN051 21/10 Q1020=
202207171120 METAR ESMX 171120Z 25010KT 9999 FEW039 21/11 Q1020=
202207171050 METAR ESMX 171050Z 22011KT 190V260 CAVOK 19/11 Q1020=
202207171020 METAR ESMX 171020Z 24010KT 210V280 CAVOK 20/12 Q1020=
202207170950 METAR COR ESMX 170950Z 21009KT CAVOK 18/12 Q1020=
202207170920 METAR ESMX 170920Z AUTO 22009KT 9999 FEW020/// BKN140/// 18/13 Q1020=
202207170850 METAR ESMX 170850Z 23008KT 200V280 CAVOK 17/13 Q1020=
202207170820 METAR ESMX 170820Z 21008KT CAVOK 16/12 Q1020=
202207170750 METAR ESMX 170750Z 22007KT CAVOK 16/11 Q1020=
202207170720 METAR ESMX 170720Z AUTO 23006KT 9999 OVC130/// 16/11 Q1020=
202207170650 METAR COR ESMX 170650Z 25007KT CAVOK 16/11 Q1020=
202207170620 METAR ESMX 170620Z 25007KT 210V290 CAVOK 14/11 Q1020=
202207170550 METAR ESMX 170550Z AUTO 26007KT 9999 NCD 14/12 Q1020=
202207170520 METAR ESMX 170520Z 23005KT 180V260 CAVOK 12/11 Q1019=
202207170450 METAR ESMX 170450Z 23003KT CAVOK 11/11 Q1019=
202207170420 METAR ESMX 170420Z 18003KT CAVOK 10/10 Q1019=
202207170350 METAR COR ESMX 170350Z 23003KT CAVOK 10/10 Q1019=
202207170320 METAR ESMX 170320Z AUTO 19003KT 9999 SCT220/// 08/07 Q1019=
202207170250 METAR ESMX 170250Z AUTO 23003KT 9999 NCD 08/08 Q1019=
202207170220 METAR ESMX 170220Z AUTO 24004KT 9999 NCD 08/07 Q1019=
202207170150 METAR ESMX 170150Z AUTO 24005KT 9999 NCD 08/07 Q1019=
202207170120 METAR ESMX 170120Z AUTO 24005KT 9999 NCD 08/07 Q1019=
202207170050 METAR ESMX 170050Z AUTO 26004KT 9999 NCD 09/07 Q1019=
202207170020 METAR ESMX 170020Z AUTO 25004KT 9999 NCD 09/06 Q1019=
202207162350 METAR ESMX 162350Z AUTO 24004KT 9999 NCD 09/07 Q1019=
202207162320 METAR ESMX 162320Z AUTO 25005KT 9999 NCD 10/07 Q1019=
202207162250 METAR ESMX 162250Z AUTO 25004KT 9999 NCD 10/07 Q1019=
202207162220 METAR ESMX 162220Z AUTO 25004KT 9999 NCD 11/06 Q1018=
202207162150 METAR ESMX 162150Z AUTO 26005KT 9999 NCD 12/07 Q1018=
202207162120 METAR ESMX 162120Z AUTO 25005KT 9999 NCD 12/07 Q1018=
202207162050 METAR ESMX 162050Z AUTO 24004KT 9999 BKN064/// 11/08 Q1017=
202207162020 METAR ESMX 162020Z AUTO 20002KT 9999 FEW066/// 10/08 Q1017=
202207161950 METAR ESMX 161950Z AUTO 18002KT 9999 FEW066/// SCT160/// 11/07 Q1017=
202207161920 METAR ESMX 161920Z AUTO 00000KT 9999 FEW160/// 13/07 Q1017=
202207161850 METAR ESMX 161850Z AUTO 34004KT 9999 NCD 16/06 Q1016=
202207161820 METAR ESMX 161820Z AUTO 34007KT 9999 NCD 17/06 Q1016=
202207161750 METAR ESMX 161750Z AUTO 34009KT 9999 NCD 18/05 Q1016=
202207161720 METAR ESMX 161720Z AUTO 33010KT 290V350 9999 NCD 18/05 Q1015=
202207161650 METAR ESMX 161650Z AUTO 32012KT 280V350 9999 NCD 19/05 Q1015=
202207161620 METAR ESMX 161620Z AUTO 33012KT 9999 NCD 19/05 Q1015=
202207161550 METAR ESMX 161550Z AUTO 32012KT 9999 NCD 19/06 Q1014=
202207161520 METAR ESMX 161520Z AUTO 32011KT 280V340 9999 NCD 20/05 Q1014=
202207161450 METAR ESMX 161450Z AUTO 32011KT 280V350 9999 SCT068/// 20/06 Q1014=
202207161420 METAR ESMX 161420Z AUTO 32012KT 290V010 9999 FEW062/// BKN078/// 20/06 Q1013=
202207161350 METAR ESMX 161350Z AUTO 33010KT 9999 FEW059/// SCT078/// 19/08 Q1013=
202207161320 METAR ESMX 161320Z AUTO 31010KT 260V340 9999 SCT057/// BKN090/// 18/06 Q1013=
202207161250 METAR ESMX 161250Z AUTO 32011KT 280V010 9999 SCT061/// 19/06 Q1012=
202207161220 METAR ESMX 161220Z AUTO 34011KT 9999 NCD 19/07 Q1012=
202207161150 METAR ESMX 161150Z AUTO 32009KT 9999 FEW051/// SCT080/// 18/09 Q1012=
202207161120 METAR ESMX 161120Z AUTO 05004KT 9999 FEW036/// SCT049/// 17/10 Q1012=
202207161050 METAR ESMX 161050Z AUTO 28003KT 200V350 9999 SCT040/// BKN076/// 17/12 Q1011 RERA=
202207161020 METAR ESMX 161020Z AUTO 29009KT 9999 BR FEW001/// SCT031/// BKN059/// 15/11 Q1011 RERA=
202207160950 METAR ESMX 160950Z AUTO 31007KT 9999 SCT029/// BKN066/// 16/10 Q1011=
202207160920 METAR ESMX 160920Z AUTO 33006KT 290V360 9999 SCT023/// 16/10 Q1011=
202207160850 METAR ESMX 160850Z AUTO 30007KT 250V340 9999 SCT023/// BKN033/// 16/11 Q1011=
202207160820 METAR ESMX 160820Z AUTO 29006KT 240V330 9999 FEW020/// 15/09 Q1010=
202207160750 METAR ESMX 160750Z AUTO 31006KT 270V010 9999 SCT016/// BKN023/// 14/10 Q1010=
202207160720 METAR ESMX 160720Z AUTO 30005KT 260V330 9999 FEW008/// SCT013/// 13/10 Q1010=
202207160650 METAR ESMX 160650Z AUTO 28004KT 240V330 9999 BKN008/// 12/10 Q1010=
202207160620 METAR ESMX 160620Z AUTO VRB03KT 9999 SCT008/// BKN016/// BKN070/// 11/10 Q1010=
202207160550 METAR ESMX 160550Z AUTO 28003KT 230V340 9999 FEW006/// BKN020/// 11/10 Q1010=
202207160520 METAR ESMX 160520Z AUTO 20002KT 9999 SCT008/// OVC013/// 11/10 Q1010=
202207160450 METAR ESMX 160450Z AUTO 00000KT 9999 SCT057/// BKN080/// 10/10 Q1010 RESHUP=
202207160420 METAR ESMX 160420Z AUTO 20005KT 9999 -DZ SCT076/// 10/10 Q1010 RESHUP RERA=
202207160350 METAR COR ESMX 160350Z 18007KT CAVOK 10/10 Q1010=
202207160320 METAR ESMX 160320Z AUTO 21005KT 9999 -RA FEW044/// BKN057/// OVC066/// 10/10 Q1010 RESHRA=
202207160250 METAR ESMX 160250Z AUTO 25007KT 8000 RA FEW001/// SCT010/// OVC053/// 10/10 Q1010=
202207160220 METAR ESMX 160220Z AUTO 22005KT 9999 -DZ BKN012/// BKN068/// OVC080/// 10/10 Q1010=
202207160150 METAR ESMX 160150Z AUTO 22004KT 9999 -DZ FEW043/// SCT080/// BKN100/// 10/09 Q1010 REUP REDZ=
202207160120 METAR ESMX 160120Z AUTO 18005KT 9999 FEW025/// SCT045/// BKN120/// 09/09 Q1010=
202207160050 METAR ESMX 160050Z AUTO 22006KT 9999 SCT023/// 09/08 Q1011=
202207160020 METAR ESMX 160020Z AUTO 22007KT 9999 NCD 09/08 Q1011=
202207152350 METAR ESMX 152350Z AUTO 22007KT 9999 NCD 09/08 Q1011=
202207152320 METAR ESMX 152320Z AUTO 21005KT 9999 FEW160/// 09/08 Q1011=
202207152250 METAR ESMX 152250Z AUTO 23005KT 9999 NCD 10/09 Q1012=
202207152220 METAR ESMX 152220Z AUTO 23005KT 9999 FEW082/// 10/09 Q1012=
202207152150 METAR ESMX 152150Z AUTO 24006KT 9999 NCD 11/09 Q1012=
202207152120 METAR ESMX 152120Z AUTO 24006KT 9999 NCD 11/08 Q1012=
202207152050 METAR ESMX 152050Z AUTO 23005KT 9999 NCD 11/07 Q1012=
202207152020 METAR ESMX 152020Z AUTO 25007KT 9999 NCD 12/07 Q1012=
202207151950 METAR ESMX 151950Z AUTO 23006KT 9999 NCD 13/07 Q1012=
202207151920 METAR ESMX 151920Z AUTO 23007KT 190V250 9999 SCT110/// 14/08 Q1012=
202207151850 METAR ESMX 151850Z 23007KT 180V250 CAVOK 14/07 Q1012=
202207151820 METAR ESMX 151820Z 23009KT 200V260 9999 VCSH FEW045 15/06 Q1012=
202207151750 METAR ESMX 151750Z 25010KT 9999 VCSH FEW045 16/08 Q1011=
202207151720 METAR ESMX 151720Z 26012KT 230V290 9999 FEW048 16/08 Q1011=
202207151650 METAR ESMX 151650Z 25013KT CAVOK 17/08 Q1011=
202207151620 METAR ESMX 151620Z 24008KT 200V280 CAVOK 19/07 Q1011=
202207151550 METAR ESMX 151550Z 25011KT 220V290 CAVOK 19/06 Q1011=
202207151520 METAR ESMX 151520Z AUTO 27009KT 210V310 9999 FEW061/// SCT094/// 19/05 Q1011=
202207151450 METAR ESMX 151450Z 27010KT 230V320 CAVOK 19/06 Q1011=
202207151420 METAR ESMX 151420Z 28010KT 250V320 CAVOK 18/04 Q1011=
202207151350 METAR ESMX 151350Z 30010KT CAVOK 20/05 Q1011=
202207151320 METAR ESMX 151320Z 31010KT CAVOK 18/04 Q1011=
202207151250 METAR ESMX 151250Z 27011KT 230V300 CAVOK 20/05 Q1011=
202207151220 METAR ESMX 151220Z 31012KT 290V350 CAVOK 18/04 Q1011=
202207151150 METAR ESMX 151150Z 29013G26KT 260V330 CAVOK 19/03 Q1011=
202207151120 METAR ESMX 151120Z 30012KT CAVOK 18/04 Q1011=
202207151050 METAR ESMX 151050Z AUTO 30012KT 250V340 9999 FEW061/// 18/04 Q1011=
202207151020 METAR ESMX 151020Z AUTO 28012KT 9999 NCD 18/04 Q1011=
202207150950 METAR ESMX 150950Z AUTO 30012KT 250V330 9999 NCD 18/05 Q1011=
202207150920 METAR ESMX 150920Z AUTO 30013KT 9999 NCD 17/05 Q1011=
202207150850 METAR ESMX 150850Z AUTO 30011KT 9999 FEW045/// 17/06 Q1010=
202207150820 METAR ESMX 150820Z AUTO 30010KT 260V340 9999 NCD 16/06 Q1010=
202207150750 METAR ESMX 150750Z AUTO 31008KT 260V340 9999 FEW032/// 15/07 Q1010=
202207150720 METAR ESMX 150720Z AUTO 33010KT 290V350 9999 FEW028/// 15/08 Q1010=
202207150650 METAR ESMX 150650Z AUTO 33009KT 300V360 9999 FEW098/// 14/08 Q1010=
202207150620 METAR ESMX 150620Z AUTO 32009KT 9999 SCT100/// 13/09 Q1010=
202207150550 METAR ESMX 150550Z AUTO 33008KT 290V010 9999 SCT017/// OVC100/// 13/10 Q1010=
202207150520 METAR ESMX 150520Z 31007KT 280V340 CAVOK 12/11 Q1009=
202207150450 METAR ESMX 150450Z 31005KT 280V350 CAVOK 12/11 Q1009=
202207150420 METAR ESMX 150420Z 26005KT 230V290 CAVOK 12/11 Q1009=
202207150350 METAR COR ESMX 150350Z 26004KT CAVOK 11/11 Q1008=
202207150320 METAR ESMX 150320Z AUTO 26005KT 9999 NCD 10/10 Q1008=
202207150250 METAR ESMX 150250Z AUTO 25004KT 9999 FEW053/// 10/10 Q1008=
202207150220 METAR ESMX 150220Z AUTO 26005KT 9999 SCT053/// 10/10 Q1008=
202207150150 METAR ESMX 150150Z AUTO 23005KT 9999 FEW013/// 10/10 Q1008=
202207150120 METAR ESMX 150120Z AUTO 26004KT 9999 SCT016/// BKN021/// 11/10 Q1008=
202207150050 METAR ESMX 150050Z AUTO 26005KT 230V290 9999 FEW002/// SCT011/// BKN051/// 11/10 Q1008 REDZ=
202207150020 METAR ESMX 150020Z AUTO 28007KT 250V320 9999 FEW010/// BKN017/// BKN026/// 11/10 Q1008=
202207142350 METAR ESMX 142350Z 26009KT 9999 BKN018 11/10 Q1008=
202207142320 METAR ESMX 142320Z 26009KT 9999 BKN022 12/09 Q1008=
202207142250 METAR ESMX 142250Z 24007KT 9999 BKN022 12/09 Q1008=
202207142220 METAR ESMX 142220Z 24007KT CAVOK 12/09 Q1008=
202207142150 METAR ESMX 142150Z 25006KT CAVOK 12/08 Q1008=
202207142120 METAR ESMX 142120Z 25006KT 210V280 CAVOK 12/08 Q1008=
202207142050 METAR ESMX 142050Z 26009KT CAVOK 13/08 Q1008=
202207142020 METAR ESMX 142020Z 26006KT CAVOK 13/08 Q1008=
202207141950 METAR ESMX 141950Z 26009KT 230V300 9999 NSC 13/09 Q1008=
202207141920 METAR ESMX 141920Z 25010KT 210V290 9999 SCT035 14/09 Q1008=
202207141850 METAR ESMX 141850Z 25007KT 9999 FEW035 14/10 Q1008=
202207141820 METAR COR ESMX 141820Z 26008KT 230V290 9999 -SHRA FEW034 16/09 Q1008=
202207141750 METAR ESMX 141750Z 26010KT 210V280 9999 VCSH SCT035 16/08 Q1008=
202207141720 METAR ESMX 141720Z 24011KT 9999 SCT044 17/08 Q1008=
202207141650 METAR ESMX 141650Z 26010KT 230V300 9999 SCT048 17/07 Q1008=
202207141620 METAR ESMX 141620Z 25012KT 220V290 9999 SCT048 18/07 Q1008=
202207141550 METAR ESMX 141550Z 25013KT 230V290 CAVOK 17/07 Q1009=
202207141520 METAR ESMX 141520Z 25011G24KT 210V280 9999 SCT048 18/07 Q1009=
202207141450 METAR ESMX 141450Z 27013KT 240V300 9999 SCT048 18/06 Q1009=
202207141420 METAR ESMX 141420Z 24015KT 9999 FEW048 18/07 Q1009=
202207141350 METAR ESMX 141350Z AUTO 26016G26KT 230V300 9999 SCT046/// BKN160/// 18/07 Q1009=
202207141320 METAR ESMX 141320Z AUTO 25015KT 220V310 9999 FEW057/// 18/09 Q1009=
202207141250 METAR ESMX 141250Z AUTO 26017G27KT 9999 FEW035/// SCT045/// 17/08 Q1009=
202207141220 METAR ESMX 141220Z AUTO 24015KT 210V280 9999 BKN057/// BKN070/// 18/10 Q1010=
202207141150 METAR ESMX 141150Z AUTO 27011KT 9999 BKN053/// 17/08 Q1010=
202207141120 METAR ESMX 141120Z AUTO 26014KT 9999 BKN047/// 19/08 Q1010=
202207141050 METAR ESMX 141050Z AUTO 26014KT 230V290 9999 FEW039/// SCT053/// BKN200/// 18/09 Q1010=
202207141020 METAR ESMX 141020Z AUTO 25011KT 220V280 9999 SCT035/// BKN055/// OVC170/// 17/09 Q1010=
202207140950 METAR ESMX 140950Z AUTO 26011KT 240V300 9999 SCT035/// OVC051/// 16/09 Q1010=
202207140920 METAR ESMX 140920Z AUTO 26013KT 230V290 9999 FEW030/// OVC048/// 17/09 Q1010=
202207140850 METAR ESMX 140850Z AUTO 26012KT 230V290 9999 SCT030/// OVC046/// 16/09 Q1010=
202207140820 METAR ESMX 140820Z 25012KT 220V300 9999 SCT031 BKN041 16/10 Q1010=
202207140750 METAR ESMX 140750Z 25012KT 220V280 9999 SCT025 BKN042 15/10 Q1010=
202207140720 METAR ESMX 140720Z 28012KT 250V310 9999 FEW026 BKN042 16/10 Q1010=
202207140650 METAR ESMX 140650Z 26009KT 210V320 9999 BKN025 15/10 Q1010=
202207140620 METAR ESMX 140620Z 26012KT 9999 BKN021 15/11 Q1010=
202207140550 METAR COR ESMX 140550Z 24009KT 200V270 9999 BKN021 14/11 Q1010=
202207140520 METAR ESMX 140520Z 26010KT 9999 BKN019 14/11 Q1010=
202207140450 METAR ESMX 140450Z 26007KT 9999 BKN018 13/11 Q1010=
202207140420 METAR ESMX 140420Z 25007KT 210V280 9999 FEW020 BKN025 13/11 Q1010=
202207140350 METAR COR ESMX 140350Z 26008KT 9999 BKN022 13/11 Q1011=
202207140320 METAR ESMX 140320Z AUTO 25009KT 230V300 9999 FEW022/// BKN033/// 13/10 Q1010=
202207140250 METAR ESMX 140250Z AUTO 25010KT 9999 FEW041/// 12/10 Q1011=
202207140220 METAR ESMX 140220Z AUTO 25009KT 9999 FEW026/// 12/10 Q1011=
202207140150 METAR ESMX 140150Z AUTO 25008KT 9999 NCD 12/10 Q1011=
202207140120 METAR ESMX 140120Z AUTO 25008KT 9999 FEW034/// 12/10 Q1011=
202207140050 METAR ESMX 140050Z AUTO 26007KT 9999 BKN025/// BKN034/// 12/10 Q1011=
202207140020 METAR ESMX 140020Z AUTO 27008KT 9999 BKN021/// 13/10 Q1011=
202207132350 METAR ESMX 132350Z 26008KT 230V300 9999 SCT021 13/10 Q1011=
202207132320 METAR ESMX 132320Z 26008KT 9999 FEW022 12/10 Q1011=
202207132250 METAR ESMX 132250Z 26009KT 230V290 9999 FEW029 13/10 Q1011=
202207132220 METAR ESMX 132220Z 26009KT 9999 FEW029 13/10 Q1011=
202207132150 METAR ESMX 132150Z 26009KT 9999 FEW029 14/10 Q1011=
202207132120 METAR ESMX 132120Z 26011KT 9999 FEW029 14/10 Q1011=
202207132050 METAR ESMX 132050Z 26010KT 220V280 9999 FEW031 15/10 Q1011=
202207132020 METAR ESMX 132020Z 25009KT 9999 SCT042 15/10 Q1011=
202207131950 METAR ESMX 131950Z 25008KT 9999 SCT042 16/10 Q1010=
202207131920 METAR ESMX 131920Z 26010KT 9999 SCT041 17/09 Q1010=
202207131850 METAR ESMX 131850Z 26013KT 9999 FEW041 17/09 Q1010=
202207131820 METAR ESMX 131820Z 26014KT CAVOK 19/09 Q1010=
202207131750 METAR ESMX 131750Z 25013KT CAVOK 20/08 Q1010=
202207131720 METAR ESMX 131720Z AUTO 25016G26KT 9999 NCD 21/08 Q1010=
202207131650 METAR ESMX 131650Z AUTO 26016KT 230V290 9999 FEW048/// 21/08 Q1010=
202207131620 METAR ESMX 131620Z AUTO 24016G27KT 9999 BKN043/// 21/11 Q1010=
202207131550 METAR ESMX 131550Z AUTO 23014G25KT 9999 BKN043/// 22/12 Q1010=
202207131520 METAR ESMX 131520Z AUTO 25013KT 9999 FEW038/// 22/13 Q1010=
202207131450 METAR ESMX 131450Z 26013KT 230V290 9999 SCT039 BKN088 22/14 Q1010=
202207131420 METAR ESMX 131420Z 25013G25KT 220V290 9999 FEW045 BKN086 23/12 Q1010=
202207131350 METAR ESMX 131350Z 23014KT 200V270 9999 SCT044 23/12 Q1010=
202207131320 METAR ESMX 131320Z 26015KT 220V280 9999 SCT045 BKN080 24/14 Q1010=
202207131250 METAR ESMX 131250Z 26011KT 230V290 9999 BKN044 22/13 Q1011=
202207131220 METAR ESMX 131220Z 26011KT 230V290 9999 FEW046 23/13 Q1011=
202207131150 METAR COR ESMX 131150Z 26011KT 220V290 9999 FEW041 BKN061 23/14 Q1011=
202207131120 METAR ESMX 131120Z AUTO 28013KT 9999 FEW043/// SCT059/// 23/13 Q1011=
202207131050 METAR ESMX 131050Z AUTO 25012KT 9999 FEW040/// SCT059/// 24/14 Q1011=
202207131020 METAR ESMX 131020Z AUTO 25012KT 220V280 9999 FEW043/// SCT059/// 23/13 Q1012=
202207130950 METAR ESMX 130950Z 24009KT 210V270 9999 SCT038 22/15 Q1012=
202207130920 METAR ESMX 130920Z 27010KT 250V310 9999 FEW035 23/15 Q1012=
202207130850 METAR ESMX 130850Z 26009KT 9999 FEW032 22/15 Q1012=
202207130820 METAR ESMX 130820Z 26010KT 220V290 CAVOK 21/15 Q1012=
202207130750 METAR COR ESMX 130750Z 27008KT 230V300 CAVOK 21/16 Q1012=
202207130720 METAR ESMX 130720Z 24007KT 210V280 CAVOK 20/16 Q1013=
202207130650 METAR ESMX 130650Z 26008KT 230V300 CAVOK 20/16 Q1013=
202207130620 METAR ESMX 130620Z 26006KT 230V290 CAVOK 19/16 Q1013=
202207130550 METAR ESMX 130550Z 27007KT CAVOK 18/16 Q1013=
202207130520 METAR ESMX 130520Z 26008KT 220V290 CAVOK 18/16 Q1014=
202207130450 METAR ESMX 130450Z AUTO 25008KT 210V280 9999 FEW130/// BKN160/// 18/16 Q1014=
202207130420 METAR ESMX 130420Z AUTO 23006KT 9999 SCT130/// 16/15 Q1014=
202207130350 METAR ESMX 130350Z AUTO 25004KT 9999 SCT140/// 16/15 Q1014=
202207130320 METAR ESMX 130320Z AUTO 26005KT 9999 OVC130/// 16/14 Q1014=
202207130250 METAR ESMX 130250Z AUTO 20004KT 9999 OVC130/// 15/13 Q1014=
202207130220 METAR ESMX 130220Z AUTO 19003KT 9999 OVC130/// 15/13 Q1015=
202207130150 METAR ESMX 130150Z AUTO 23003KT 9999 OVC130/// 15/13 Q1015=
202207130120 METAR ESMX 130120Z AUTO 19004KT 9999 BKN120/// OVC170/// 15/13 Q1015=
202207130050 METAR ESMX 130050Z AUTO 23004KT 9999 FEW110/// BKN150/// 15/13 Q1015=
202207130020 METAR ESMX 130020Z AUTO 18003KT 9999 FEW110/// OVC140/// 16/13 Q1016=
202207122350 METAR ESMX 122350Z 24005KT CAVOK 16/13 Q1016=
202207122320 METAR ESMX 122320Z 24004KT CAVOK 15/13 Q1017=
202207122250 METAR ESMX 122250Z 23004KT CAVOK 15/12 Q1017=
202207122220 METAR ESMX 122220Z 23003KT CAVOK 16/11 Q1017=
202207122150 METAR ESMX 122150Z 25003KT CAVOK 16/11 Q1017=
202207122120 METAR ESMX 122120Z 28005KT CAVOK 18/11 Q1018=
202207122050 METAR ESMX 122050Z 29006KT CAVOK 18/11 Q1018=
202207122020 METAR ESMX 122020Z 28005KT CAVOK 19/11 Q1018=
202207121950 METAR ESMX 121950Z 29006KT CAVOK 20/11 Q1017=
202207121920 METAR ESMX 121920Z AUTO 28009KT 9999 NCD 21/11 Q1017=
202207121850 METAR ESMX 121850Z AUTO 29009KT 9999 NCD 22/11 Q1017=
202207121820 METAR ESMX 121820Z AUTO 28010KT 250V320 9999 NCD 23/13 Q1017=
202207121750 METAR ESMX 121750Z AUTO 29011KT 9999 NCD 24/13 Q1017=
202207121720 METAR ESMX 121720Z AUTO 28010KT 250V320 9999 FEW061/// 25/13 Q1017=
202207121650 METAR ESMX 121650Z AUTO 28007KT 250V320 9999 FEW064/// 25/12 Q1017=
202207121620 METAR ESMX 121620Z AUTO 29011KT 270V330 9999 FEW068/// 26/12 Q1017=
202207121550 METAR ESMX 121550Z 29009KT 250V320 CAVOK 25/11 Q1018=
202207121520 METAR ESMX 121520Z 30008KT 260V360 CAVOK 26/10 Q1018=
202207121450 METAR ESMX 121450Z 29007KT 230V350 CAVOK 26/10 Q1018=
202207121420 METAR ESMX 121420Z 29007KT 230V330 CAVOK 26/10 Q1018=
202207121350 METAR ESMX 121350Z 28007KT 250V320 CAVOK 25/09 Q1018=
202207121320 METAR ESMX 121320Z 27008KT 240V330 CAVOK 25/10 Q1019=
202207121250 METAR ESMX 121250Z 31006KT 260V030 CAVOK 25/09 Q1019=
202207121220 METAR ESMX 121220Z 31007KT 280V350 CAVOK 25/09 Q1019=
202207121150 METAR ESMX 121150Z 31007KT 260V010 CAVOK 24/08 Q1019=
202207121120 METAR ESMX 121120Z 29005KT 250V330 CAVOK 24/10 Q1019=
202207121050 METAR ESMX 121050Z 31006KT 260V010 CAVOK 24/09 Q1020=
202207121020 METAR ESMX 121020Z AUTO 30005KT 240V350 9999 NCD 23/07 Q1020=
202207120950 METAR ESMX 120950Z AUTO 31006KT 240V360 9999 NCD 23/08 Q1020=
202207120920 METAR ESMX 120920Z AUTO 31007KT 230V350 9999 NCD 23/08 Q1020=
202207120850 METAR ESMX 120850Z AUTO 33008KT 9999 NCD 22/09 Q1020=
202207120820 METAR ESMX 120820Z AUTO 29006KT 240V350 9999 NCD 21/08 Q1020=
202207120750 METAR ESMX 120750Z AUTO 27006KT 230V300 9999 NCD 21/09 Q1020=
202207120720 METAR ESMX 120720Z AUTO 31006KT 280V340 9999 NCD 20/10 Q1020=
202207120650 METAR ESMX 120650Z AUTO 29005KT 9999 NCD 19/11 Q1020=
202207120620 METAR ESMX 120620Z AUTO 31005KT 9999 NCD 18/11 Q1021=
202207120550 METAR ESMX 120550Z AUTO 28004KT 250V330 9999 NCD 17/11 Q1021=
202207120520 METAR ESMX 120520Z AUTO 27004KT 9999 NCD 16/11 Q1021=
202207120450 METAR ESMX 120450Z AUTO 31003KT 9999 NCD 14/11 Q1021=
202207120420 METAR ESMX 120420Z AUTO 00000KT 9999 NCD 14/11 Q1021=
202207120350 METAR ESMX 120350Z AUTO 26002KT 9999 NCD 10/10 Q1021=
202207120320 METAR ESMX 120320Z AUTO 21002KT 9999 NCD 08/08 Q1021=
202207120250 METAR ESMX 120250Z AUTO 00000KT 9999 NCD 09/08 Q1021=
202207120220 METAR ESMX 120220Z AUTO VRB01KT 9999 NCD 09/09 Q1021=
202207120150 METAR ESMX 120150Z AUTO 29001KT 9999 NCD 09/09 Q1021=
202207120120 METAR ESMX 120120Z AUTO 34002KT 9999 NCD 09/08 Q1021=
202207120050 METAR ESMX 120050Z AUTO 35002KT 9999 NCD 11/10 Q1020=
202207120020 METAR ESMX 120020Z AUTO 32005KT 9999 NCD 12/10 Q1020=
202207112350 METAR ESMX 112350Z 33003KT CAVOK 11/10 Q1020=
202207112320 METAR ESMX 112320Z 32004KT CAVOK 11/09 Q1020=
202207112250 METAR ESMX 112250Z 27003KT CAVOK 11/10 Q1020=
202207112220 METAR ESMX 112220Z VRB02KT CAVOK 11/10 Q1020=
202207112150 METAR ESMX 112150Z 00000KT CAVOK 12/11 Q1020=
202207112120 METAR ESMX 112120Z VRB02KT CAVOK 13/12 Q1020=
202207112050 METAR ESMX 112050Z 18001KT CAVOK 13/12 Q1020=
202207112020 METAR ESMX 112020Z 00000KT CAVOK 14/11 Q1020=
202207111950 METAR ESMX 111950Z 00000KT CAVOK 16/12 Q1020=
202207111920 METAR ESMX 111920Z AUTO 35005KT 9999 BKN092/// 17/11 Q1020=
202207111850 METAR ESMX 111850Z AUTO 36004KT 9999 NCD 19/11 Q1019=
202207111820 METAR ESMX 111820Z AUTO 03006KT 9999 NCD 20/11 Q1019=
202207111750 METAR ESMX 111750Z AUTO 04006KT 010V070 9999 NCD 20/11 Q1019=
202207111720 METAR ESMX 111720Z AUTO 04005KT 360V070 9999 NCD 20/11 Q1019=
202207111650 METAR ESMX 111650Z AUTO 05007KT 9999 FEW062/// 20/10 Q1019=
202207111620 METAR ESMX 111620Z AUTO 05011KT 020V090 9999 BKN062/// BKN078/// OVC092/// 21/10 Q1019=
202207111550 METAR ESMX 111550Z 06005KT 030V100 CAVOK 21/10 Q1018=
202207111520 METAR ESMX 111520Z 06007KT 360V100 CAVOK 21/10 Q1018=
202207111450 METAR ESMX 111450Z 33008KT 300V360 CAVOK 22/09 Q1018=
202207111420 METAR ESMX 111420Z 36007KT 310V060 CAVOK 22/10 Q1018=
202207111350 METAR ESMX 111350Z 34008KT 280V020 CAVOK 21/09 Q1018=
202207111320 METAR ESMX 111320Z 33007KT 270V020 CAVOK 21/09 Q1018=
202207111250 METAR ESMX 111250Z 35009KT CAVOK 21/09 Q1018=
202207111220 METAR ESMX 111220Z 34009KT CAVOK 22/10 Q1018=
202207111150 METAR ESMX 111150Z AUTO 36006KT 320V060 9999 SCT086/// 21/11 Q1018=
202207111120 METAR ESMX 111120Z AUTO 35007KT 320V030 9999 SCT049/// BKN070/// 20/08 Q1018=
202207111050 METAR ESMX 111050Z AUTO 31007KT 9999 NCD 21/10 Q1018=
202207111020 METAR ESMX 111020Z AUTO 02009KT 330V040 9999 FEW068/// 20/10 Q1018=
202207110950 METAR ESMX 110950Z AUTO 01009KT 320V040 9999 FEW041/// BKN062/// 19/10 Q1018=
202207110920 METAR ESMX 110920Z AUTO 31008KT 260V010 9999 FEW040/// SCT048/// BKN066/// 20/10 Q1018=
202207110850 METAR ESMX 110850Z AUTO 33009KT 9999 FEW038/// 23/09 Q1018=
202207110820 METAR ESMX 110820Z AUTO 34010KT 300V010 9999 FEW038/// 21/08 Q1018=
202207110750 METAR ESMX 110750Z AUTO 33009KT 9999 NCD 19/11 Q1018=
202207110720 METAR ESMX 110720Z AUTO 34009KT 9999 FEW034/// 18/10 Q1018=
202207110650 METAR ESMX 110650Z AUTO 34007KT 9999 NCD 17/11 Q1018=
202207110620 METAR ESMX 110620Z AUTO 36006KT 330V030 9999 NCD 16/11 Q1018=
202207110550 METAR ESMX 110550Z 34007KT CAVOK 15/11 Q1018=
202207110520 METAR ESMX 110520Z 33005KT 300V010 CAVOK 14/11 Q1017=
202207110450 METAR ESMX 110450Z 31006KT 280V340 CAVOK 13/10 Q1017=
202207110420 METAR ESMX 110420Z 32003KT 300V360 CAVOK 12/10 Q1017=
202207110350 METAR COR ESMX 110350Z 31003KT 290V350 CAVOK 11/10 Q1017=
202207110320 METAR ESMX 110320Z AUTO VRB02KT 9999 NCD 09/09 Q1017=
202207110250 METAR ESMX 110250Z AUTO 28003KT 9999 NCD 09/09 Q1017=
202207110220 METAR ESMX 110220Z AUTO 29004KT 9999 NCD 09/08 Q1017=
202207110150 METAR ESMX 110150Z AUTO 31005KT 9999 FEW070/// 10/09 Q1017=
202207110120 METAR ESMX 110120Z AUTO 30004KT 9999 SCT074/// 10/09 Q1017=
202207110050 METAR ESMX 110050Z AUTO 30005KT 9999 NCD 10/09 Q1017=
202207110020 METAR ESMX 110020Z AUTO 31006KT 9999 FEW068/// 11/09 Q1017=
202207102350 METAR ESMX 102350Z AUTO 31006KT 9999 FEW053/// BKN070/// 12/10 Q1016=
202207102320 METAR ESMX 102320Z AUTO 30004KT 9999 NCD 11/10 Q1016=
202207102250 METAR ESMX 102250Z AUTO 30004KT 9999 NCD 12/10 Q1016=
202207102220 METAR ESMX 102220Z AUTO 31004KT 9999 BKN072/// 13/10 Q1016=
202207102150 METAR ESMX 102150Z AUTO 29004KT 9999 OVC072/// 13/10 Q1016=
202207102120 METAR ESMX 102120Z AUTO 29004KT 9999 OVC072/// 13/10 Q1016=
202207102050 METAR ESMX 102050Z AUTO 29003KT 9999 FEW061/// OVC076/// 13/10 Q1016=
202207102020 METAR ESMX 102020Z VRB02KT CAVOK 14/10 Q1016=
202207101950 METAR ESMX 101950Z 29004KT 9999 SCT055 14/10 Q1016=
202207101920 METAR ESMX 101920Z 30004KT 9999 -RA SCT055 14/10 Q1016=
202207101850 METAR ESMX 101850Z 36006KT 9999 -RA FEW035 SCT068 15/10 Q1016=
202207101820 METAR ESMX 101820Z 03009KT 350V060 9999 VCSH SCT039 16/09 Q1015=
202207101750 METAR ESMX 101750Z 33006KT 9999 VCSH FEW064 16/08 Q1015=
202207101720 METAR ESMX 101720Z 34006KT 290V010 9999 VCSH SCT068 16/09 Q1015=
202207101650 METAR ESMX 101650Z 35013KT 9999 -RA SCT062 15/10 Q1015=
202207101620 METAR ESMX 101620Z 34011KT 9999 VCSH SCT070 17/07 Q1015=
202207101550 METAR ESMX 101550Z 33011KT CAVOK 18/08 Q1014=
202207101520 METAR ESMX 101520Z 32013KT CAVOK 18/06 Q1014=
202207101450 METAR ESMX 101450Z 33011KT 300V360 CAVOK 19/07 Q1014=
202207101420 METAR COR ESMX 101420Z 34011KT CAVOK 19/07 Q1014=
202207101350 METAR ESMX 101350Z 34014KT CAVOK 20/07 Q1014=
202207101320 METAR ESMX 101320Z 34012KT 300V360 CAVOK 20/08 Q1014=
202207101250 METAR ESMX 101250Z 33013KT 290V010 CAVOK 20/07 Q1014=
202207101220 METAR ESMX 101220Z 33010KT CAVOK 18/07 Q1014=
202207101150 METAR ESMX 101150Z 33013KT CAVOK 18/06 Q1014=
202207101120 METAR ESMX 101120Z 34012KT 310V020 9999 SCT048 19/08 Q1013=
202207101050 METAR COR ESMX 101050Z 33011KT 290V360 9999 BKN045 19/08 Q1014=
202207101020 METAR ESMX 101020Z 31010KT 280V350 9999 BKN041 17/09 Q1014=
202207100950 METAR ESMX 100950Z 34011KT 9999 BKN044 17/09 Q1014=
202207100920 METAR ESMX 100920Z AUTO 32010KT 290V360 9999 BKN042/// 18/09 Q1013=
202207100850 METAR ESMX 100850Z AUTO 33012KT 300V360 9999 SCT040/// 18/08 Q1013=
202207100820 METAR ESMX 100820Z 33009KT 290V010 CAVOK 17/08 Q1013=
202207100750 METAR ESMX 100750Z 31012KT 280V360 CAVOK 16/08 Q1013=
202207100720 METAR ESMX 100720Z 31011KT CAVOK 16/08 Q1013=
202207100650 METAR ESMX 100650Z 32011KT CAVOK 16/09 Q1013=
202207100620 METAR ESMX 100620Z 30008KT 260V330 CAVOK 16/10 Q1013=
202207100550 METAR ESMX 100550Z 32007KT 280V340 CAVOK 15/10 Q1013=
202207100520 METAR ESMX 100520Z AUTO 32005KT 9999 SCT130/// 13/11 Q1013=
202207100450 METAR ESMX 100450Z 28003KT 250V320 CAVOK 12/11 Q1012=
202207100420 METAR ESMX 100420Z 32001KT CAVOK 11/11 Q1012=
202207100350 METAR COR ESMX 100350Z VRB02KT CAVOK 11/11 Q1012=
202207100320 METAR ESMX 100320Z AUTO 28003KT 9999 BKN084/// 11/11 Q1012=
202207100250 METAR ESMX 100250Z AUTO 26004KT 9999 OVC084/// 10/10 Q1012=
202207100220 METAR ESMX 100220Z AUTO 27003KT 9999 BKN092/// 11/10 Q1012=
202207100150 METAR ESMX 100150Z AUTO 27004KT 9999 NCD 10/10 Q1012=
202207100120 METAR ESMX 100120Z AUTO 27003KT 230V290 9999 FEW088/// 11/10 Q1012=
202207100050 METAR ESMX 100050Z AUTO 27005KT 240V300 9999 OVC090/// 11/10 Q1012=
202207100020 METAR ESMX 100020Z AUTO 26006KT 9999 BKN094/// 11/10 Q1013=
202207092350 METAR ESMX 092350Z AUTO 26006KT 9999 FEW082/// 11/10 Q1013=
202207092320 METAR ESMX 092320Z AUTO 25006KT 9999 FEW098/// 11/09 Q1013=
202207092250 METAR ESMX 092250Z AUTO 26006KT 9999 BKN096/// 12/09 Q1013=
202207092220 METAR ESMX 092220Z AUTO 27005KT 9999 BKN098/// 13/09 Q1013=
202207092150 METAR ESMX 092150Z AUTO 26003KT 220V320 9999 OVC092/// 13/09 Q1013=
202207092120 METAR ESMX 092120Z AUTO 26004KT 9999 OVC086/// 14/09 Q1013=
202207092050 METAR ESMX 092050Z AUTO 27007KT 9999 FEW064/// OVC088/// 15/08 Q1013=
202207092020 METAR ESMX 092020Z AUTO 29009KT 9999 BKN066/// OVC086/// 15/08 Q1013=
202207091950 METAR ESMX 091950Z AUTO 29008KT 250V320 9999 OVC080/// 15/08 Q1013=
202207091920 METAR ESMX 091920Z AUTO 27007KT 9999 OVC088/// 15/09 Q1012=
202207091850 METAR ESMX 091850Z AUTO 26006KT 9999 BKN086/// 15/08 Q1012=
202207091820 METAR ESMX 091820Z AUTO 26006KT 240V310 9999 NCD 16/08 Q1012=
202207091750 METAR ESMX 091750Z AUTO 27010KT 230V300 9999 NCD 17/08 Q1012=
202207091720 METAR ESMX 091720Z AUTO 27009KT 9999 FEW046/// 17/08 Q1012=
202207091650 METAR ESMX 091650Z AUTO 27011KT 240V300 9999 FEW045/// 18/08 Q1012=
202207091620 METAR ESMX 091620Z AUTO 27012KT 230V290 9999 FEW044/// 18/08 Q1012=
202207091550 METAR ESMX 091550Z AUTO 26013KT 9999 FEW041/// 19/09 Q1012=
202207091520 METAR ESMX 091520Z AUTO 26013KT 230V300 9999 FEW068/// 18/09 Q1013=
202207091450 METAR ESMX 091450Z AUTO 26013KT 230V290 9999 FEW041/// 17/07 Q1013=
202207091420 METAR ESMX 091420Z AUTO 26014KT 9999 BKN062/// 18/09 Q1013=
202207091350 METAR ESMX 091350Z AUTO 26014KT 9999 FEW044/// SCT057/// 19/08 Q1013=
202207091320 METAR ESMX 091320Z AUTO 25014KT 230V290 9999 OVC057/// 18/08 Q1013=
202207091250 METAR ESMX 091250Z AUTO 27015KT 9999 BKN057/// 18/08 Q1013=
202207091220 METAR ESMX 091220Z AUTO 25015KT 9999 FEW047/// 19/08 Q1013=
202207091150 METAR ESMX 091150Z AUTO 26014KT 220V290 9999 SCT047/// 20/09 Q1013=
202207091120 METAR ESMX 091120Z AUTO 27014KT 9999 BKN053/// 20/09 Q1013=
202207091050 METAR ESMX 091050Z AUTO 24014KT 9999 FEW042/// 19/08 Q1013=
202207091020 METAR ESMX 091020Z AUTO 26012KT 220V290 9999 FEW040/// SCT051/// 18/10 Q1013=
202207090950 METAR ESMX 090950Z AUTO 27012KT 230V300 9999 SCT042/// BKN059/// 19/10 Q1013=
202207090920 METAR ESMX 090920Z AUTO 29010KT 9999 FEW039/// SCT059/// 19/11 Q1014=
202207090850 METAR ESMX 090850Z AUTO 26012KT 230V290 9999 FEW034/// 18/10 Q1014=
202207090820 METAR ESMX 090820Z AUTO 26013KT 9999 FEW051/// 18/11 Q1014=
202207090750 METAR ESMX 090750Z AUTO 27014KT 9999 FEW028/// BKN051/// 16/11 Q1014=
202207090720 METAR ESMX 090720Z AUTO 26009KT 230V300 9999 FEW029/// SCT043/// 17/11 Q1014=
202207090650 METAR ESMX 090650Z AUTO 28010KT 9999 SCT027/// BKN039/// 15/11 Q1015=
202207090620 METAR ESMX 090620Z 27007KT 230V300 9999 SCT018 BKN022 15/11 Q1014=
202207090550 METAR COR ESMX 090550Z 26008KT 9999 BKN017 14/12 Q1015=
202207090520 METAR ESMX 090520Z 25008KT 9999 FEW014 BKN035 14/12 Q1015=
202207090450 METAR ESMX 090450Z 25006KT 9999 SCT016 BKN027 14/12 Q1015=
202207090420 METAR ESMX 090420Z 24006KT CAVOK 13/12 Q1015=
202207090350 METAR COR ESMX 090350Z 25007KT CAVOK 13/12 Q1015=
202207090320 METAR ESMX 090320Z AUTO 26009KT 9999 BKN011/// 13/12 Q1015=
202207090250 METAR ESMX 090250Z AUTO 26007KT 9999 OVC012/// 13/12 Q1016=
202207090220 METAR ESMX 090220Z AUTO 26006KT 230V290 9999 BKN012/// OVC015/// 14/12 Q1016=
202207090150 METAR ESMX 090150Z AUTO 26007KT 9999 OVC014/// 14/12 Q1016=
202207090120 METAR ESMX 090120Z AUTO 25009KT 9999 FEW011/// OVC017/// 14/13 Q1016=
202207090050 METAR ESMX 090050Z AUTO 25007KT 9999 BKN016/// 13/12 Q1016=
202207090020 METAR ESMX 090020Z AUTO 26007KT 9999 BKN013/// 13/13 Q1017=
202207082350 METAR ESMX 082350Z AUTO 26009KT 9999 BKN011/// 14/13 Q1017=
202207082320 METAR ESMX 082320Z AUTO 26008KT 9999 SCT010/// 14/13 Q1017=
202207082250 METAR ESMX 082250Z AUTO 23006KT 9999 BKN011/// 14/13 Q1017=
202207082220 METAR ESMX 082220Z AUTO 25005KT 9999 NCD 13/12 Q1018=
202207082150 METAR ESMX 082150Z AUTO 26005KT 9999 NCD 14/12 Q1018=
202207082120 METAR ESMX 082120Z AUTO 26006KT 9999 NCD 14/12 Q1018=
202207082050 METAR ESMX 082050Z AUTO 26006KT 9999 NCD 14/12 Q1018=
202207082020 METAR ESMX 082020Z AUTO 26006KT 9999 NCD 15/11 Q1018=
202207081950 METAR ESMX 081950Z AUTO 24004KT 9999 NCD 15/11 Q1018=
202207081920 METAR ESMX 081920Z AUTO 25005KT 9999 NCD 16/11 Q1018=
202207081850 METAR ESMX 081850Z AUTO 25007KT 9999 NCD 17/11 Q1018=
202207081820 METAR ESMX 081820Z 25009KT 220V280 CAVOK 18/11 Q1018=
202207081750 METAR ESMX 081750Z 25010KT CAVOK 19/11 Q1018=
202207081720 METAR ESMX 081720Z 27009KT 240V300 CAVOK 20/12 Q1018=
202207081650 METAR ESMX 081650Z 26010KT 230V290 9999 FEW038 20/12 Q1018=
202207081620 METAR ESMX 081620Z 26010KT 9999 FEW038 21/12 Q1018=
202207081550 METAR ESMX 081550Z 27011KT 9999 FEW038 21/12 Q1018=
202207081520 METAR ESMX 081520Z 27011KT 9999 FEW039 21/12 Q1018=
202207081450 METAR ESMX 081450Z 25011KT 200V280 9999 SCT038 22/13 Q1018=
202207081420 METAR ESMX 081420Z 27011KT 9999 SCT039 BKN053 BKN066 20/12 Q1018=
202207081350 METAR ESMX 081350Z 24010KT 9999 SCT037 22/13 Q1019=
202207081320 METAR ESMX 081320Z 27011KT 240V310 9999 SCT037 BKN055 22/13 Q1018=
202207081250 METAR ESMX 081250Z 25009KT 210V300 9999 SCT040 21/13 Q1019=
202207081220 METAR ESMX 081220Z 27009KT 240V300 9999 BKN042 21/12 Q1019=
202207081150 METAR ESMX 081150Z 24009KT 9999 FEW036 BKN064 21/13 Q1019=
202207081120 METAR ESMX 081120Z AUTO 24007KT 210V280 9999 SCT039/// BKN070/// 20/12 Q1019=
202207081050 METAR ESMX 081050Z AUTO 28009KT 9999 BKN037/// OVC061/// 19/13 Q1019=
202207081020 METAR ESMX 081020Z AUTO 22006KT 200V260 9999 BKN028/// BKN040/// OVC053/// 19/12 Q1019=
202207080950 METAR ESMX 080950Z AUTO 25005KT 170V290 9999 FEW026/// 19/14 Q1019=
202207080920 METAR ESMX 080920Z AUTO 25007KT 230V290 9999 BKN017/// 18/15 Q1019=
202207080850 METAR ESMX 080850Z AUTO 27008KT 240V300 9999 FEW010/// SCT014/// OVC070/// 17/14 Q1019=
202207080820 METAR ESMX 080820Z AUTO 29006KT 250V320 9999 SCT009/// OVC084/// 16/14 Q1019=
202207080750 METAR ESMX 080750Z AUTO 27004KT 230V300 9999 OVC090/// 15/14 Q1019=
202207080720 METAR ESMX 080720Z AUTO 28005KT 230V320 9999 -DZ FEW007/// BKN068/// BKN088/// 15/14 Q1019=
202207080650 METAR ESMX 080650Z AUTO 26005KT 210V290 9999 SCT068/// BKN110/// 14/14 Q1019=
202207080620 METAR ESMX 080620Z AUTO 25005KT 9999 OVC110/// 14/13 Q1019=
202207080550 METAR ESMX 080550Z 23003KT CAVOK 12/12 Q1018=
202207080520 METAR ESMX 080520Z 23003KT CAVOK 12/12 Q1018=
202207080450 METAR ESMX 080450Z VRB02KT CAVOK 12/12 Q1018=
202207080420 METAR ESMX 080420Z 26004KT CAVOK 12/11 Q1018=
202207080350 METAR COR ESMX 080350Z 25004KT CAVOK 11/11 Q1018=
202207080320 METAR ESMX 080320Z AUTO 26002KT 9999 SCT070/// BKN170/// 11/11 Q1018=
202207080250 METAR ESMX 080250Z AUTO 24003KT 9999 OVC068/// 10/10 Q1018=
202207080220 METAR ESMX 080220Z AUTO 23002KT 9999 BKN066/// OVC210/// 09/09 Q1018=
202207080150 METAR ESMX 080150Z AUTO 22003KT 9999 FEW200/// 10/10 Q1018=
202207080120 METAR ESMX 080120Z AUTO 25003KT 9999 FEW220/// 08/08 Q1018=
202207080050 METAR ESMX 080050Z AUTO 26002KT 9999 NCD 10/10 Q1017=
202207080020 METAR ESMX 080020Z AUTO 28003KT 9999 NCD 09/09 Q1018=
202207072350 METAR ESMX 072350Z AUTO 28003KT 9999 NCD 09/09 Q1018=
202207072320 METAR ESMX 072320Z VRB02KT CAVOK 09/09 Q1017=
202207072250 METAR ESMX 072250Z VRB02KT CAVOK 10/10 Q1017=
202207072220 METAR ESMX 072220Z 26003KT CAVOK 10/10 Q1017=
202207072150 METAR ESMX 072150Z 28004KT CAVOK 10/10 Q1017=
202207072120 METAR ESMX 072120Z 00000KT CAVOK 11/11 Q1017=
202207072050 METAR ESMX 072050Z 32004KT CAVOK 13/12 Q1017=
202207072020 METAR ESMX 072020Z 33007KT CAVOK 14/12 Q1016=
202207071950 METAR ESMX 071950Z 34008KT 9999 FEW042 14/12 Q1016=
202207071920 METAR ESMX 071920Z 34006KT 9999 SCT042 15/13 Q1015=
202207071850 METAR ESMX 071850Z 35007KT 9999 FEW026 SCT034 BKN051 15/13 Q1015=
202207071820 METAR ESMX 071820Z 35011KT 9999 SCT027 BKN033 15/13 Q1014=
202207071750 METAR ESMX 071750Z 35012KT 9999 SCT013 BKN031 15/14 Q1014=
202207071720 METAR ESMX 071720Z 35014KT 9999 FEW013 BKN025 16/14 Q1014=
202207071650 METAR ESMX 071650Z 33013KT 280V350 9999 BKN013 BKN057 16/14 Q1013=
202207071620 METAR ESMX 071620Z 33013KT 9999 SCT015 FEW033CB BKN040 17/15 Q1013=
202207071550 METAR ESMX 071550Z 32010KT 9999 FEW015 SCT030CB BKN051 17/15 Q1012=
202207071520 METAR ESMX 071520Z 33008KT 300V360 9999 FEW011 SCT032CB BKN038 17/15 Q1012=
202207071450 METAR ESMX 071450Z 33006KT 9999 FEW011 SCT014 BKN038 17/16 Q1012=
202207071420 METAR ESMX 071420Z 34009KT 9999 BKN010 BKN030 17/16 Q1011=
202207071350 METAR ESMX 071350Z AUTO 32006KT 9999 SCT007/// BKN009/// BKN014/// 16/16 Q1011=
202207071320 METAR ESMX 071320Z 27005KT 170V310 2400 SCT014 SCT036CB OVC061 15/15 Q1011=
202207071250 METAR ESMX 071250Z 09003KT 9999 SCT016 BKN034 17/16 Q1010=
202207071220 METAR ESMX 071220Z VRB02KT 7000 BKN008 OVC012 15/15 Q1010=
202207071150 METAR ESMX 071150Z 28004KT 230V330 8000 RA BKN008 OVC012 17/16 Q1010 RERA=
202207071120 METAR ESMX 071120Z VRB03KT 9999 FEW006 BKN041 BKN098 16/16 Q1010=
202207071050 METAR ESMX 071050Z 33002KT 9999 SCT035 BKN047 15/15 Q1009=
202207071020 METAR ESMX 071020Z 27006KT 220V310 0800 R01/P2000N R19/P2000D +RA BKN001 BKN016 OVC028 14/14 Q1009 RERA=
202207070950 METAR ESMX 070950Z AUTO 21007KT 9999 BKN011/// BKN028/// OVC066/// 18/16 Q1009=
202207070920 METAR ESMX 070920Z AUTO 19006KT 150V220 9999 SCT009/// BKN011/// OVC025/// 18/16 Q1009=
202207070850 METAR ESMX 070850Z AUTO 21007KT 9999 BKN008/// OVC010/// 17/16 Q1009=
202207070820 METAR ESMX 070820Z AUTO 21008KT 9999 BKN006/// OVC009/// 16/16 Q1009 REDZ=
202207070750 METAR ESMX 070750Z 20007KT 9999 BKN005 15/15 Q1009=
202207070720 METAR ESMX 070720Z 20007KT 9999 -RA BKN004 15/15 Q1009=
202207070650 METAR ESMX 070650Z 20008KT 9999 BKN003 15/15 Q1009=
202207070620 METAR ESMX 070620Z 18007KT 9000 -DZ BKN003 14/14 Q1009=
202207070550 METAR ESMX 070550Z 19006KT 9000 -DZ BKN004 14/14 Q1009=
202207070520 METAR ESMX 070520Z 19007KT 4000 -RA BKN004 13/13 Q1009=
202207070450 METAR ESMX 070450Z 17007KT 4000 RADZ BKN003 13/13 Q1009=
202207070420 METAR ESMX 070420Z 17006KT 9000 -DZ BKN004 13/13 Q1009=
202207070350 METAR COR ESMX 070350Z 18007KT 9999 -DZ BKN005 12/12 Q1009=
202207070320 METAR ESMX 070320Z AUTO 17007KT 8000 DZ BKN006/// OVC008/// 12/12 Q1009=
202207070250 METAR ESMX 070250Z AUTO 18007KT 9999 DZ BKN009/// OVC025/// 12/12 Q1010=
202207070220 METAR ESMX 070220Z AUTO 19008KT 9999 OVC027/// 12/11 Q1010=
202207070150 METAR ESMX 070150Z AUTO 18006KT 9999 -DZ FEW020/// OVC034/// 12/11 Q1010=
202207070120 METAR ESMX 070120Z AUTO 17005KT 9999 -RA FEW013/// BKN019/// OVC027/// 13/11 Q1010 REDZ=
202207070050 METAR ESMX 070050Z AUTO 19006KT 9999 FEW019/// OVC027/// 12/10 Q1011=
202207070020 METAR ESMX 070020Z AUTO 21007KT 9999 FEW016/// SCT026/// OVC038/// 12/10 Q1011=
202207062350 METAR ESMX 062350Z AUTO 21006KT 9999 OVC042/// 11/10 Q1011=
202207062320 METAR ESMX 062320Z 19006KT CAVOK 11/09 Q1012=
202207062250 METAR ESMX 062250Z 22005KT CAVOK 10/08 Q1012=
202207062220 METAR ESMX 062220Z 18005KT CAVOK 11/08 Q1012=
202207062150 METAR ESMX 062150Z 18005KT CAVOK 10/08 Q1013=
202207062120 METAR ESMX 062120Z 22005KT CAVOK 11/08 Q1013=
202207062050 METAR ESMX 062050Z 23005KT CAVOK 11/08 Q1013=
202207062020 METAR ESMX 062020Z 24005KT CAVOK 13/07 Q1013=
202207061950 METAR ESMX 061950Z 25007KT CAVOK 14/07 Q1013=
202207061920 METAR ESMX 061920Z 25006KT CAVOK 15/07 Q1013=
202207061850 METAR ESMX 061850Z 26008KT CAVOK 16/07 Q1013=
202207061820 METAR ESMX 061820Z 27010KT 240V300 CAVOK 17/07 Q1014=
202207061750 METAR ESMX 061750Z 27009KT 240V300 CAVOK 17/07 Q1014=
202207061720 METAR ESMX 061720Z 27011KT 9999 FEW048 SCT057 18/07 Q1014=
202207061650 METAR ESMX 061650Z AUTO 26011KT 9999 FEW049/// 18/08 Q1014=
202207061620 METAR ESMX 061620Z AUTO 24011KT 9999 NCD 19/08 Q1014=
202207061550 METAR ESMX 061550Z AUTO 26011KT 9999 FEW049/// 18/08 Q1013=
202207061520 METAR ESMX 061520Z 26011KT 230V300 9999 FEW045 19/09 Q1014=
202207061450 METAR ESMX 061450Z 27011KT 230V300 9999 FEW046 20/08 Q1014=
202207061420 METAR ESMX 061420Z 26011KT 220V290 9999 SCT041 20/10 Q1014=
202207061350 METAR ESMX 061350Z 22010KT 9999 SCT039 18/10 Q1014=
202207061320 METAR ESMX 061320Z 25009KT CAVOK 17/10 Q1014=
202207061250 METAR ESMX 061250Z 25007KT 220V300 9999 FEW038 17/11 Q1014=
202207061220 METAR ESMX 061220Z 27010KT 230V300 9999 SCT038 17/09 Q1014=
202207061150 METAR ESMX 061150Z AUTO 28009KT 9999 BKN062/// 19/11 Q1014=
202207061120 METAR ESMX 061120Z AUTO 26009KT 230V310 9999 FEW041/// BKN057/// 17/10 Q1014=
202207061050 METAR ESMX 061050Z AUTO 27009KT 230V330 9999 SCT043/// 18/09 Q1014=
202207061020 METAR ESMX 061020Z AUTO 23009KT 9999 SCT041/// 19/10 Q1014=
202207060950 METAR ESMX 060950Z AUTO 27008KT 9999 FEW038/// BKN053/// 16/09 Q1015=
202207060920 METAR COR ESMX 060920Z 25010KT 220V280 9999 SCT035 18/09 Q1014=
202207060850 METAR ESMX 060850Z 24011KT 9999 SCT032 17/10 Q1014=
202207060820 METAR ESMX 060820Z 23011KT 200V260 9999 SCT033 16/10 Q1015=
202207060750 METAR ESMX 060750Z 26010KT 220V280 9999 SCT031 16/10 Q1015=
202207060720 METAR ESMX 060720Z 25010KT 220V290 9999 SCT026 15/10 Q1015=
202207060650 METAR ESMX 060650Z AUTO 24009KT 200V270 9999 SCT020/// 15/10 Q1015=
202207060620 METAR ESMX 060620Z AUTO 26009KT 230V290 9999 BKN017/// 15/11 Q1015=
202207060550 METAR ESMX 060550Z AUTO 23009KT 9999 SCT013/// 14/11 Q1015=
202207060520 METAR ESMX 060520Z AUTO 24008KT 200V260 9999 BKN010/// BKN013/// 13/12 Q1015=
202207060450 METAR ESMX 060450Z AUTO 23007KT 9999 NCD 13/12 Q1015=
202207060420 METAR ESMX 060420Z AUTO 21008KT 9999 FEW006/// 12/12 Q1015=
202207060350 METAR ESMX 060350Z AUTO 20007KT 9999 NCD 11/11 Q1015=
202207060320 METAR ESMX 060320Z AUTO 20006KT 9999 BKN016/// BKN020/// 11/11 Q1015=
202207060250 METAR ESMX 060250Z AUTO 20006KT 9999 FEW025/// 10/10 Q1015=
202207060220 METAR ESMX 060220Z AUTO 21006KT 9999 FEW020/// 10/10 Q1015=
202207060150 METAR ESMX 060150Z AUTO 19007KT 9999 FEW098/// 10/10 Q1015=
202207060120 METAR ESMX 060120Z AUTO 21005KT 9999 FEW020/// 10/10 Q1015=
202207060050 METAR ESMX 060050Z AUTO 21004KT 9999 FEW021/// 10/10 Q1015=
202207060020 METAR ESMX 060020Z AUTO 20005KT 9999 FEW021/// SCT068/// 10/10 Q1015=
202207052350 METAR ESMX 052350Z 23005KT CAVOK 10/10 Q1016=
202207052320 METAR ESMX 052320Z 23005KT CAVOK 10/10 Q1016=
202207052250 METAR ESMX 052250Z 20005KT CAVOK 10/10 Q1016=
202207052220 METAR ESMX 052220Z 22007KT CAVOK 11/10 Q1016=
202207052150 METAR ESMX 052150Z 22006KT CAVOK 11/10 Q1016=
202207052120 METAR ESMX 052120Z 22005KT 9999 FEW030 11/11 Q1016=
202207052050 METAR ESMX 052050Z 23005KT 9999 FEW028 BKN055 12/12 Q1016=
202207052020 METAR ESMX 052020Z 22006KT 9999 SHRA FEW033 SCT076 13/11 Q1016=
202207051950 METAR ESMX 051950Z 25003KT CAVOK 13/10 Q1016=
202207051920 METAR ESMX 051920Z AUTO 23005KT 9999 FEW078/// 14/10 Q1016=
202207051850 METAR ESMX 051850Z AUTO 24006KT 9999 FEW051/// BKN074/// 15/11 Q1016=
202207051820 METAR ESMX 051820Z AUTO 24007KT 9999 BKN033/// BKN053/// OVC059/// 15/11 Q1016=
202207051750 METAR ESMX 051750Z AUTO 21008KT 9999 BKN035/// 15/11 Q1015=
202207051720 METAR ESMX 051720Z AUTO 22007KT 190V260 9999 FEW090/// 15/12 Q1016=
202207051650 METAR ESMX 051650Z AUTO 22006KT 9999 OVC066/// 15/13 Q1016=
202207051620 METAR ESMX 051620Z AUTO 24010KT 9999 FEW039/// OVC076/// 16/10 Q1016=
202207051550 METAR ESMX 051550Z AUTO 25011KT 210V290 9999 FEW045/// BKN078/// 17/08 Q1015=
202207051520 METAR ESMX 051520Z AUTO 26010KT 240V300 9999 FEW042/// 18/10 Q1015=
202207051450 METAR ESMX 051450Z AUTO 24012KT 9999 BKN076/// 19/10 Q1015=
202207051420 METAR ESMX 051420Z AUTO 24011KT 9999 FEW042/// BKN072/// 18/10 Q1015=
202207051350 METAR ESMX 051350Z 23012KT 200V260 9999 BKN041 19/10 Q1015=
202207051320 METAR ESMX 051320Z 25011KT 9999 BKN039 19/10 Q1015=
202207051250 METAR ESMX 051250Z 24013G24KT 210V280 9999 FEW043 BKN066 20/10 Q1015=
202207051220 METAR ESMX 051220Z 24011KT 210V280 9999 BKN042 18/10 Q1015=
202207051150 METAR ESMX 051150Z 24012KT 9999 FEW036TCU BKN053 18/10 Q1015=
202207051120 METAR ESMX 051120Z 22011KT 9999 FEW031TCU SCT059 17/12 Q1015=
202207051050 METAR ESMX 051050Z 22010KT 190V250 9999 FEW021TCU BKN057 16/12 Q1015=
202207051020 METAR ESMX 051020Z AUTO 21009KT 9999 BKN055/// 17/13 Q1015=
202207050950 METAR ESMX 050950Z AUTO 23010KT 9999 -RA SCT051/// BKN068/// OVC086/// 15/13 Q1015 REDZ=
202207050920 METAR ESMX 050920Z AUTO 22013KT 9999 FEW025/// BKN062/// 15/11 Q1015=
202207050850 METAR ESMX 050850Z AUTO 23012KT 200V260 9999 FEW021/// BKN062/// 17/12 Q1015=
202207050820 METAR ESMX 050820Z AUTO 22012KT 9999 FEW023/// SCT032/// BKN059/// 17/12 Q1015=
202207050750 METAR ESMX 050750Z AUTO 21012KT 9999 FEW018/// SCT042/// 16/12 Q1015=
202207050720 METAR ESMX 050720Z AUTO 23011KT 9999 -RA SCT020/// BKN024/// BKN051/// 15/12 Q1015=
202207050650 METAR ESMX 050650Z 22010KT 9999 SCT013 BKN019 15/13 Q1015=
202207050620 METAR ESMX 050620Z 21008KT 9999 SCT009 BKN011 14/13 Q1015=
202207050550 METAR ESMX 050550Z 21008KT 9999 BKN009 13/12 Q1015=
202207050520 METAR COR ESMX 050520Z 21008KT 9999 BKN008 13/12 Q1015=
202207050450 METAR ESMX 050450Z AUTO 20009KT 9999 FEW009/// 13/13 Q1015=
202207050420 METAR ESMX 050420Z AUTO 22008KT 9999 NCD 13/12 Q1015=
202207050350 METAR ESMX 050350Z AUTO 20008KT 9999 BKN004/// OVC064/// 12/12 Q1015=
202207050320 METAR ESMX 050320Z AUTO 19007KT 9999 SCT002/// 12/12 Q1014=
202207050250 METAR ESMX 050250Z AUTO 22005KT 9999 FEW025/// 11/11 Q1014=
202207050220 METAR ESMX 050220Z AUTO 22006KT 9999 FEW027/// SCT051/// 11/11 Q1014 REDZ=
202207050150 METAR ESMX 050150Z AUTO 22006KT 9999 SCT042/// BKN061/// 12/11 Q1014=
202207050120 METAR ESMX 050120Z AUTO 20007KT 9999 SCT046/// BKN066/// 12/11 Q1014=
202207050050 METAR ESMX 050050Z AUTO 22008KT 9999 FEW042/// BKN068/// 12/12 Q1014=
202207050020 METAR ESMX 050020Z AUTO 22008KT 9999 FEW014/// SCT019/// BKN070/// 12/12 Q1014=
202207042350 METAR ESMX 042350Z 21005KT 9999 SCT018 12/12 Q1014=
202207042320 METAR ESMX 042320Z 20005KT CAVOK 12/12 Q1014=
202207042250 METAR ESMX 042250Z AUTO 20004KT 9999 SCT064/// 11/11 Q1014=
202207042220 METAR ESMX 042220Z 20006KT 9999 FEW037 12/11 Q1014=
202207042150 METAR ESMX 042150Z 19006KT CAVOK 12/12 Q1014=
202207042120 METAR ESMX 042120Z 27006KT 230V310 6000 RA FEW005 BKN024 13/12 Q1014=
202207042050 METAR ESMX 042050Z 18006KT 9999 FEW026 SCT038 15/12 Q1014=
202207042020 METAR ESMX 042020Z 20006KT 9999 FEW032 BKN180 14/11 Q1014=
202207041950 METAR ESMX 041950Z 20006KT CAVOK 15/11 Q1014=
202207041920 METAR ESMX 041920Z AUTO 20007KT 9999 FEW180/// 15/11 Q1014=
202207041850 METAR ESMX 041850Z AUTO 22008KT 9999 BKN098/// 16/11 Q1014=
202207041820 METAR ESMX 041820Z AUTO 21009KT 9999 BKN084/// OVC110/// 17/12 Q1013=
202207041750 METAR ESMX 041750Z AUTO 22010KT 200V260 9999 FEW036/// OVC084/// 17/12 Q1013=
202207041720 METAR ESMX 041720Z AUTO 21011KT 180V240 9999 FEW037/// OVC084/// 18/11 Q1013=
202207041650 METAR ESMX 041650Z AUTO 23009KT 9999 FEW045/// BKN088/// 18/11 Q1013=
202207041620 METAR ESMX 041620Z AUTO 23011KT 9999 SCT045/// 19/10 Q1013=
202207041550 METAR ESMX 041550Z 24010KT 9999 SCT042 20/11 Q1013=
202207041520 METAR ESMX 041520Z 23010KT 200V260 9999 SCT043 20/11 Q1013=
202207041450 METAR ESMX 041450Z 22010KT 9999 SCT041 21/11 Q1013=
202207041420 METAR ESMX 041420Z 25010KT 220V280 9999 SCT042 19/11 Q1013=
202207041350 METAR ESMX 041350Z 23010KT 190V250 9999 SCT040 20/12 Q1013=
202207041320 METAR ESMX 041320Z 23009KT 200V260 9999 SCT030 19/13 Q1014=
202207041250 METAR ESMX 041250Z 25009KT 220V280 9999 FEW027 19/13 Q1014=
202207041220 METAR ESMX 041220Z 25009KT 9999 FEW027 18/13 Q1014=
202207041150 METAR ESMX 041150Z AUTO 26006KT 9999 FEW028/// OVC059/// 19/15 Q1014=
202207041120 METAR ESMX 041120Z AUTO 26007KT 9999 FEW002/// SCT031/// BKN049/// 16/14 Q1014=
202207041050 METAR ESMX 041050Z AUTO 22007KT 190V260 9999 FEW025/// BKN090/// 20/13 Q1014=
202207041020 METAR ESMX 041020Z AUTO 21009KT 180V250 9999 FEW029/// SCT066/// OVC088/// 19/14 Q1014=
202207040950 METAR ESMX 040950Z AUTO 24008KT 9999 FEW028/// SCT053/// BKN082/// 19/14 Q1014=
202207040920 METAR ESMX 040920Z AUTO 19009KT 9999 FEW027/// SCT034/// 20/14 Q1013=
202207040850 METAR ESMX 040850Z AUTO 23009KT 9999 FEW022/// SCT031/// 20/14 Q1014=
202207040820 METAR ESMX 040820Z AUTO 23008KT 200V260 9999 SCT020/// BKN026/// 19/14 Q1014=
202207040750 METAR ESMX 040750Z AUTO 23008KT 9999 SCT016/// 18/15 Q1014=
202207040720 METAR ESMX 040720Z AUTO 24006KT 9999 FEW009/// SCT013/// 18/15 Q1014=
202207040650 METAR ESMX 040650Z AUTO 18006KT 140V230 9999 SCT008/// BKN010/// 18/16 Q1013=
202207040620 METAR ESMX 040620Z AUTO 22007KT 170V240 9999 OVC006/// 16/16 Q1014=
202207040550 METAR ESMX 040550Z 24005KT 9999 BKN006 16/16 Q1014=
202207040520 METAR ESMX 040520Z 20005KT 9999 FEW012 BKN021 16/16 Q1013=
202207040450 METAR ESMX 040450Z 15007KT 110V170 9999 -RA FEW011 SCT027 15/15 Q1013=
202207040420 METAR ESMX 040420Z 15007KT 9999 FEW040 15/15 Q1014=
202207040350 METAR ESMX 040350Z 15006KT 110V190 CAVOK 15/15 Q1014=
202207040320 METAR ESMX 040320Z AUTO 15006KT 9999 FEW074/// 15/15 Q1014=
202207040250 METAR ESMX 040250Z AUTO 14004KT 9999 FEW005/// BKN072/// 15/15 Q1014=
202207040220 METAR ESMX 040220Z AUTO 21002KT 9999 SCT005/// BKN080/// 14/14 Q1014=
202207040150 METAR ESMX 040150Z AUTO 22006KT 170V240 9999 FEW038/// OVC049/// 14/14 Q1015=
202207040120 METAR ESMX 040120Z AUTO 12002KT 9999 BKN049/// BKN064/// OVC096/// 14/14 Q1015=
202207040050 METAR ESMX 040050Z AUTO VRB04KT 9999 SCT084/// BKN110/// 14/14 Q1015=
202207040020 METAR ESMX 040020Z AUTO 08004KT 040V130 9999 FEW001/// OVC080/// 14/14 Q1015=
202207032350 METAR ESMX 032350Z AUTO 18003KT 9999 FEW048/// OVC076/// 14/14 Q1015=
202207032320 METAR ESMX 032320Z AUTO 20011KT 7000 FEW001/// OVC048/// 14/13 Q1017=
202207032250 METAR ESMX 032250Z AUTO 17008KT 110V200 9999 BKN055/// OVC070/// 17/12 Q1017=
202207032220 METAR ESMX 032220Z AUTO 14007KT 090V170 9999 BKN072/// 17/12 Q1016=
202207032150 METAR ESMX 032150Z AUTO 15005KT 110V180 9999 NCD 17/12 Q1016=
202207032120 METAR ESMX 032120Z 17004KT CAVOK 15/12 Q1017=
202207032050 METAR ESMX 032050Z 17004KT CAVOK 18/12 Q1017=
202207032020 METAR ESMX 032020Z 17004KT CAVOK 18/12 Q1017=
202207031950 METAR ESMX 031950Z 16005KT CAVOK 19/11 Q1017=
202207031920 METAR ESMX 031920Z 16007KT CAVOK 20/11 Q1017=
202207031850 METAR ESMX 031850Z 16007KT CAVOK 21/11 Q1017=
202207031820 METAR ESMX 031820Z 17007KT CAVOK 21/11 Q1017=
202207031750 METAR COR ESMX 031750Z 17008KT CAVOK 22/11 Q1017=
202207031720 METAR ESMX 031720Z 17010KT CAVOK 22/10 Q1017=
202207031650 METAR ESMX 031650Z 17011KT CAVOK 22/10 Q1017=
202207031620 METAR ESMX 031620Z 17009KT CAVOK 23/10 Q1017=
202207031550 METAR ESMX 031550Z 18012KT CAVOK 23/10 Q1018=
202207031520 METAR ESMX 031520Z 17011KT CAVOK 24/10 Q1018=
202207031450 METAR ESMX 031450Z 17011KT 140V210 CAVOK 23/10 Q1018=
202207031420 METAR ESMX 031420Z 17011KT 120V200 CAVOK 23/10 Q1018=
202207031350 METAR ESMX 031350Z 17012KT 120V200 CAVOK 24/10 Q1018=
202207031320 METAR ESMX 031320Z 16012KT 120V200 CAVOK 24/11 Q1018=
202207031250 METAR ESMX 031250Z 17011KT 140V200 CAVOK 24/12 Q1018=
202207031220 METAR ESMX 031220Z 15010KT CAVOK 23/12 Q1019=
202207031150 METAR ESMX 031150Z 17012KT CAVOK 23/12 Q1019=
202207031120 METAR ESMX 031120Z 18011KT 150V210 CAVOK 23/12 Q1019=
202207031050 METAR ESMX 031050Z 16012KT 080V190 CAVOK 22/11 Q1019=
202207031020 METAR ESMX 031020Z 15010KT 110V190 CAVOK 22/12 Q1019=
202207030950 METAR ESMX 030950Z 15012KT 110V190 CAVOK 22/12 Q1019=
202207030920 METAR ESMX 030920Z AUTO 16011KT 9999 FEW084/// BKN150/// 21/13 Q1020=
202207030850 METAR ESMX 030850Z AUTO 15010KT 100V190 9999 FEW080/// SCT130/// 21/13 Q1020=
202207030820 METAR ESMX 030820Z 15010KT CAVOK 20/12 Q1020=
202207030750 METAR ESMX 030750Z 15007KT 090V180 CAVOK 19/12 Q1020=
202207030720 METAR ESMX 030720Z 14006KT 110V170 CAVOK 18/12 Q1020=
202207030650 METAR ESMX 030650Z 15003KT CAVOK 18/12 Q1021=
202207030620 METAR ESMX 030620Z 15004KT CAVOK 18/13 Q1021=
202207030550 METAR ESMX 030550Z 19003KT CAVOK 16/14 Q1021=
202207030520 METAR ESMX 030520Z 15004KT CAVOK 16/14 Q1021=
202207030450 METAR ESMX 030450Z AUTO 19004KT 9999 SCT074/// 16/13 Q1021=
202207030420 METAR ESMX 030420Z AUTO 19003KT 9999 FEW200/// 15/13 Q1021=
202207030350 METAR ESMX 030350Z AUTO 19002KT 9999 FEW074/// SCT170/// BKN200/// 13/13 Q1021=
202207030320 METAR ESMX 030320Z AUTO 17003KT 9999 OVC170/// 14/12 Q1021=
202207030250 METAR ESMX 030250Z AUTO 19004KT 9999 BKN180/// 13/12 Q1021=
202207030220 METAR ESMX 030220Z AUTO 20005KT 9999 SCT200/// 13/12 Q1021=
202207030150 METAR ESMX 030150Z AUTO 20005KT 9999 BKN210/// 13/12 Q1021=
202207030120 METAR ESMX 030120Z AUTO 20004KT 9999 FEW190/// 12/11 Q1021=
202207030050 METAR ESMX 030050Z AUTO 20005KT 9999 BKN190/// 11/11 Q1021=
202207030020 METAR ESMX 030020Z AUTO 18005KT 9999 FEW190/// 12/11 Q1021=
202207022350 METAR ESMX 022350Z AUTO 20006KT 9999 NCD 13/11 Q1021=
202207022320 METAR ESMX 022320Z AUTO 17006KT 9999 NCD 14/12 Q1021=
202207022250 METAR ESMX 022250Z AUTO 21006KT 9999 NCD 14/12 Q1021=
202207022220 METAR ESMX 022220Z AUTO 21004KT 9999 NCD 14/12 Q1021=
202207022150 METAR ESMX 022150Z AUTO 20006KT 9999 FEW041/// 15/12 Q1021=
202207022120 METAR ESMX 022120Z AUTO 20007KT 9999 BKN042/// OVC064/// 17/13 Q1021=
202207022050 METAR ESMX 022050Z AUTO 18004KT 9999 BKN042/// OVC066/// 17/12 Q1021=
202207022020 METAR ESMX 022020Z AUTO 22003KT 9999 BKN042/// OVC066/// 16/13 Q1021=
202207021950 METAR ESMX 021950Z AUTO 18003KT 9999 OVC059/// 17/13 Q1021=
202207021920 METAR ESMX 021920Z AUTO 00000KT 9999 BKN062/// 17/12 Q1021=
202207021850 METAR ESMX 021850Z AUTO 24003KT 9999 BKN066/// 18/11 Q1021=
202207021820 METAR ESMX 021820Z AUTO 22004KT 9999 NCD 20/12 Q1021=
202207021750 METAR ESMX 021750Z AUTO 23005KT 9999 NCD 20/11 Q1021=
202207021720 METAR ESMX 021720Z AUTO 25006KT 9999 FEW047/// 20/11 Q1021=
202207021650 METAR ESMX 021650Z AUTO 24007KT 9999 FEW048/// 20/11 Q1021=
202207021620 METAR ESMX 021620Z AUTO 25008KT 220V290 9999 SCT048/// 20/11 Q1021=
202207021550 METAR ESMX 021550Z AUTO 23007KT 9999 FEW046/// 21/12 Q1021=
202207021520 METAR ESMX 021520Z AUTO 24009KT 210V280 9999 SCT045/// 21/11 Q1021=
202207021450 METAR ESMX 021450Z AUTO 24009KT 210V300 9999 FEW046/// SCT057/// 21/11 Q1021=
202207021420 METAR ESMX 021420Z AUTO 24009KT 210V280 9999 BKN051/// 21/11 Q1021=
202207021350 METAR ESMX 021350Z AUTO 24010KT 160V300 9999 FEW045/// 21/10 Q1021=
202207021320 METAR ESMX 021320Z AUTO 24009KT 200V290 9999 SCT049/// 21/11 Q1021=
202207021250 METAR ESMX 021250Z AUTO 26010KT 230V290 9999 BKN047/// 21/11 Q1021=
202207021220 METAR ESMX 021220Z AUTO 24009KT 200V270 9999 BKN045/// 19/11 Q1020=
202207021150 METAR ESMX 021150Z AUTO 25011KT 210V300 9999 FEW040/// SCT053/// 20/12 Q1020=
202207021120 METAR ESMX 021120Z AUTO 22013KT 190V260 9999 SCT037/// OVC051/// 19/12 Q1020=
202207021050 METAR ESMX 021050Z AUTO 25011KT 9999 SCT053/// 19/12 Q1020=
202207021020 METAR ESMX 021020Z AUTO 23009KT 200V290 9999 SCT055/// 19/13 Q1019=
202207020950 METAR ESMX 020950Z AUTO 22009KT 200V260 9999 FEW026/// SCT053/// 19/13 Q1019=
202207020920 METAR ESMX 020920Z AUTO 25010KT 210V280 9999 BKN047/// 17/12 Q1019=
202207020850 METAR ESMX 020850Z AUTO 24010KT 210V280 9999 FEW022/// SCT044/// 18/14 Q1019=
202207020820 METAR ESMX 020820Z AUTO 24010KT 200V270 9999 SCT010/// BKN014/// 17/14 Q1018=
202207020750 METAR ESMX 020750Z AUTO 25009KT 220V280 9999 SCT011/// BKN049/// BKN190/// 16/15 Q1018=
202207020720 METAR ESMX 020720Z AUTO 23007KT 9999 SCT036/// BKN180/// 15/14 Q1018=
202207020650 METAR ESMX 020650Z AUTO 23011KT 7000 FEW001/// SCT007/// BKN015/// 14/14 Q1018 RERA=
202207020620 METAR ESMX 020620Z AUTO 23007KT 9999 SCT007/// BKN034/// 15/15 Q1017=
202207020550 METAR ESMX 020550Z AUTO 25005KT 9999 -RA BKN092/// 14/14 Q1017=
202207020520 METAR ESMX 020520Z AUTO 25006KT 9999 -RA FEW006/// OVC088/// 14/14 Q1017 REDZ=
202207020450 METAR ESMX 020450Z AUTO 26006KT 230V290 9999 -DZ FEW007/// BKN053/// OVC070/// 14/14 Q1017=
202207020420 METAR ESMX 020420Z AUTO 25006KT 9999 SCT005/// BKN010/// BKN019/// 14/14 Q1017=
202207020350 METAR ESMX 020350Z AUTO 26005KT 9999 SCT006/// OVC009/// 14/14 Q1017=
202207020320 METAR ESMX 020320Z AUTO 26007KT 220V300 9999 FEW008/// BKN010/// OVC044/// 14/14 Q1016 REDZ=
202207020250 METAR ESMX 020250Z AUTO 27009KT 230V300 9999 FEW024/// SCT030/// OVC045/// 14/14 Q1016=
202207020220 METAR ESMX 020220Z AUTO 25012KT 9999 -DZ SCT008/// BKN011/// OVC027/// 14/14 Q1015=
202207020150 METAR ESMX 020150Z AUTO 26013KT 8000 DZ BKN008/// BKN019/// OVC026/// 15/15 Q1014=
202207020120 METAR ESMX 020120Z AUTO 26012KT 9000 +DZ BKN007/// BKN009/// OVC017/// 16/15 Q1014=
202207020050 METAR ESMX 020050Z AUTO 26011KT 9000 DZ SCT006/// BKN009/// OVC018/// 16/16 Q1014=
202207020020 METAR ESMX 020020Z AUTO 26011KT 9999 DZ OVC006/// 17/17 Q1013=
202207012350 METAR ESMX 012350Z AUTO 24006KT 9999 -DZ OVC006/// 18/18 Q1013=
202207012320 METAR ESMX 012320Z AUTO 25006KT 5000 RA BKN001/// OVC042/// 18/18 Q1013=
202207012250 METAR ESMX 012250Z AUTO 24006KT 4800 +RA FEW002/// BKN006/// OVC016/// 18/18 Q1013=
202207012220 METAR ESMX 012220Z AUTO 24007KT 210V280 9999 -RA BKN005/// BKN017/// OVC028/// 19/19 Q1013=
202207012150 METAR ESMX 012150Z AUTO 25009KT 9000 -RA FEW001/// BKN004/// BKN009/// 19/19 Q1012=
202207012120 METAR ESMX 012120Z AUTO 17008KT 7000 RA SCT001/// OVC003/// 20/20 Q1013 RESHRA=
202207012050 METAR ESMX 012050Z AUTO 16009KT 110V170 2600 +RA BKN001/// BKN013/// OVC031/// 20/20 Q1013=
202207012020 METAR ESMX 012020Z AUTO 14005KT 100V170 9999 RA FEW008/// SCT011/// BKN017/// 22/21 Q1013 REDZ=
202207011950 METAR ESMX 011950Z AUTO VRB02KT 9999 FEW047/// BKN100/// 21/20 Q1013=
202207011920 METAR ESMX 011920Z AUTO 29002KT 9999 FEW031/// SCT110/// BKN160/// 22/21 Q1012=
202207011850 METAR ESMX 011850Z AUTO 18007KT 9999 -RA SCT047/// BKN100/// 24/19 Q1012 REDZ=
202207011820 METAR ESMX 011820Z 14007KT 110V170 9999 VCSH SCT048 24/19 Q1012=
202207011750 METAR ESMX 011750Z 28003KT 9999 FEW048 26/17 Q1012=
202207011720 METAR ESMX 011720Z 21003KT 170V250 9999 VCSH FEW053 27/17 Q1012=
202207011650 METAR ESMX 011650Z 20006KT CAVOK 27/17 Q1012=
202207011620 METAR ESMX 011620Z 22005KT CAVOK 28/17 Q1012=
202207011550 METAR ESMX 011550Z 23004KT 190V280 CAVOK 28/17 Q1012=
202207011520 METAR ESMX 011520Z AUTO VRB02KT 9999 NCD 28/17 Q1012=
202207011450 METAR ESMX 011450Z AUTO 20005KT 160V260 9999 NCD 28/17 Q1013=
202207011420 METAR ESMX 011420Z 17005KT 140V210 9999 SCT046 28/17 Q1013=
202207011350 METAR ESMX 011350Z 15004KT 9999 BKN048 27/16 Q1013=
202207011320 METAR ESMX 011320Z 10004KT 040V140 9999 BKN048 26/17 Q1013=
202207011250 METAR ESMX 011250Z 21003KT 180V240 9999 BKN042 27/17 Q1013=
202207011220 METAR ESMX 011220Z 15005KT 100V190 9999 BKN041 26/17 Q1013=
