##########################################################
# Query made at 04/19/2024 22:24:50 UTC
# Time interval: from 03/01/2022 12:00  to 03/31/2022 12:59  UTC
##########################################################

##########################################################
# ESMX, Vaxjo (Sweden)
# WMO index: 02641. WIGOS ID: 0-20000-0-02648
# Latitude 56-51N. Longitude 014-50E. Altitude 199 m.
##########################################################

202203311250 METAR ESMX 311250Z 01007KT 330V040 CAVOK 04/M14 Q1010=
202203311220 METAR ESMX 311220Z 34005KT 310V030 CAVOK 04/M14 Q1010=
202203311150 METAR ESMX 311150Z 36004KT 300V050 CAVOK 05/M14 Q1010=
202203311120 METAR ESMX 311120Z VRB04KT CAVOK 03/M15 Q1010=
202203311050 METAR ESMX 311050Z 05005KT 320V090 CAVOK 04/M14 Q1010=
202203311020 METAR COR ESMX 311020Z 36006KT 320V030 CAVOK 03/M15 Q1010=
202203310950 METAR ESMX 310950Z 03005KT 360V070 CAVOK 03/M14 Q1010=
202203310920 METAR ESMX 310920Z 36004KT 320V050 CAVOK 03/M13 Q1010=
202203310850 METAR ESMX 310850Z 22003KT CAVOK 02/M12 Q1010=
202203310820 METAR ESMX 310820Z 23003KT CAVOK 03/M09 Q1010=
202203310750 METAR ESMX 310750Z 23002KT CAVOK 01/M08 Q1010=
202203310720 METAR ESMX 310720Z 23003KT CAVOK 00/M07 Q1010=
202203310650 METAR ESMX 310650Z VRB02KT CAVOK M01/M06 Q1010=
202203310620 METAR ESMX 310620Z 00000KT CAVOK M03/M05 Q1009=
202203310550 METAR ESMX 310550Z AUTO 00000KT 9999 NCD M07/M07 Q1009=
202203310520 METAR ESMX 310520Z AUTO 00000KT 9999 NCD M09/M11 Q1009=
202203310450 METAR ESMX 310450Z AUTO 00000KT 9999 NCD M10/M11 Q1009=
202203310420 METAR ESMX 310420Z AUTO 00000KT 9999 NCD M09/M10 Q1009=
202203310350 METAR ESMX 310350Z AUTO 00000KT 9999 NCD M10/M11 Q1009=
202203310320 METAR ESMX 310320Z AUTO 19001KT 9999 NCD M09/M10 Q1009=
202203310250 METAR ESMX 310250Z AUTO 00000KT 9999 NCD M08/M09 Q1009=
202203310220 METAR ESMX 310220Z AUTO 23002KT 9999 NCD M08/M08 Q1009=
202203310150 METAR ESMX 310150Z AUTO VRB02KT 9999 NCD M09/M10 Q1009=
202203310120 METAR ESMX 310120Z AUTO 18001KT 9999 NCD M07/M10 Q1009=
202203310050 METAR ESMX 310050Z 26003KT CAVOK M06/M08 Q1009=
202203310020 METAR ESMX 310020Z 25003KT CAVOK M06/M08 Q1009=
202203302350 METAR ESMX 302350Z 24003KT CAVOK M06/M08 Q1009=
202203302320 METAR ESMX 302320Z 24004KT CAVOK M06/M08 Q1009=
202203302250 METAR ESMX 302250Z AUTO 23004KT 9999 NCD M05/M08 Q1009=
202203302220 METAR ESMX 302220Z AUTO 23005KT 9999 NCD M05/M08 Q1009=
202203302150 METAR ESMX 302150Z AUTO 21005KT 9999 NCD M05/M08 Q1009=
202203302120 METAR ESMX 302120Z AUTO 20004KT 9999 NCD M05/M10 Q1009=
202203302050 METAR ESMX 302050Z AUTO 21003KT 9999 NCD M03/M11 Q1009=
202203302020 METAR ESMX 302020Z 21005KT CAVOK M05/M12 Q1009=
202203301950 METAR ESMX 301950Z 23002KT CAVOK M05/M12 Q1008=
202203301920 METAR ESMX 301920Z 00000KT CAVOK M04/M15 Q1008=
202203301850 METAR ESMX 301850Z 00000KT CAVOK M03/M15 Q1008=
202203301820 METAR ESMX 301820Z 00000KT CAVOK M02/M15 Q1008=
202203301750 METAR ESMX 301750Z 23002KT CAVOK M01/M15 Q1007=
202203301720 METAR ESMX 301720Z VRB02KT CAVOK 02/M18 Q1007=
202203301650 METAR ESMX 301650Z VRB03KT CAVOK 03/M20 Q1007=
202203301620 METAR ESMX 301620Z 29005KT 260V330 CAVOK 03/M19 Q1007=
202203301550 METAR ESMX 301550Z 33007KT 290V350 CAVOK 04/M18 Q1007=
202203301520 METAR ESMX 301520Z 02005KT 300V080 CAVOK 04/M20 Q1007=
202203301450 METAR ESMX 301450Z 04003KT 330V100 CAVOK 04/M21 Q1007=
202203301420 METAR ESMX 301420Z 36006KT 310V030 CAVOK 03/M21 Q1007=
202203301350 METAR ESMX 301350Z 36006KT 320V040 CAVOK 03/M20 Q1008=
202203301320 METAR ESMX 301320Z 02007KT 350V070 CAVOK 03/M18 Q1008=
202203301250 METAR ESMX 301250Z 03006KT 340V090 CAVOK 03/M17 Q1008=
202203301220 METAR ESMX 301220Z 10004KT 360V130 CAVOK 03/M17 Q1008=
202203301150 METAR ESMX 301150Z 01004KT 300V070 CAVOK 03/M16 Q1008=
202203301120 METAR ESMX 301120Z 34003KT 260V030 CAVOK 02/M19 Q1009=
202203301050 METAR ESMX 301050Z VRB03KT CAVOK 02/M16 Q1009=
202203301020 METAR ESMX 301020Z 36004KT 290V030 CAVOK 01/M13 Q1009=
202203300950 METAR ESMX 300950Z 01005KT 290V030 CAVOK 01/M15 Q1009=
202203300920 METAR ESMX 300920Z 36004KT 300V050 CAVOK 00/M13 Q1009=
202203300850 METAR ESMX 300850Z 01005KT 300V050 CAVOK 00/M11 Q1009=
202203300820 METAR ESMX 300820Z 01005KT 310V050 CAVOK M00/M10 Q1009=
202203300750 METAR ESMX 300750Z 36005KT 320V030 CAVOK M00/M07 Q1009=
202203300720 METAR ESMX 300720Z 04004KT 350V070 CAVOK M01/M07 Q1009=
202203300650 METAR ESMX 300650Z 02005KT CAVOK M01/M07 Q1009=
202203300620 METAR ESMX 300620Z 04005KT CAVOK M02/M07 Q1009=
202203300550 METAR ESMX 300550Z AUTO 04004KT 9999 NCD M03/M07 Q1008=
202203300520 METAR ESMX 300520Z AUTO 03005KT 9999 NCD M03/M07 Q1008=
202203300450 METAR ESMX 300450Z AUTO 03005KT 9999 NCD M04/M06 Q1008=
202203300420 METAR ESMX 300420Z AUTO 03006KT 9999 SCT039/// M03/M06 Q1008 REFZUP=
202203300350 METAR ESMX 300350Z AUTO 04003KT 010V170 9999 FEW011/// M03/M04 Q1008=
202203300320 METAR ESMX 300320Z AUTO 06006KT 010V100 9999 SCT013/// BKN041/// M02/M04 Q1008=
202203300250 METAR ESMX 300250Z AUTO 04007KT 020V080 9999 BKN012/// OVC015/// M02/M04 Q1008=
202203300220 METAR ESMX 300220Z AUTO 05005KT 010V080 9999 SCT013/// BKN022/// OVC044/// M02/M03 Q1008=
202203300150 METAR ESMX 300150Z AUTO 02004KT 9999 SCT044/// M02/M03 Q1008=
202203300120 METAR ESMX 300120Z AUTO VRB03KT 9999 SCT009/// BKN013/// OVC040/// M02/M03 Q1008=
202203300050 METAR ESMX 300050Z AUTO 01003KT 9999 BR NCD M03/M03 Q1008=
202203300020 METAR ESMX 300020Z 00000KT 9999 FEW011 M02/M03 Q1007=
202203292350 METAR ESMX 292350Z 09003KT 9999 FEW011 M02/M03 Q1007=
202203292320 METAR ESMX 292320Z AUTO 08003KT 030V140 9999 NCD M01/M03 Q1007=
202203292250 METAR ESMX 292250Z AUTO 07006KT 030V100 9999 BKN017/// M01/M03 Q1007=
202203292220 METAR ESMX 292220Z 04004KT 360V080 9999 FEW009 SCT013 BKN017 M01/M03 Q1007=
202203292150 METAR ESMX 292150Z 03006KT 9999 SCT010 BKN012 BKN015 M01/M02 Q1007=
202203292120 METAR ESMX 292120Z AUTO 14003KT 9999 BKN074/// M01/M03 Q1006=
202203292050 METAR ESMX 292050Z AUTO 12004KT 9999 BKN070/// M01/M03 Q1006 REFZUP=
202203292020 METAR ESMX 292020Z AUTO 11004KT 070V130 9999 SCT051/// OVC064/// M01/M02 Q1006=
202203291950 METAR ESMX 291950Z AUTO 07005KT 020V120 4700 -SN FEW005/// SCT020/// BKN029/// M00/M01 Q1006 REFZUP=
202203291920 METAR ESMX 291920Z AUTO 03006KT 5000 FZUP FEW002/// OVC031/// M00/M01 Q1006=
202203291850 METAR ESMX 291850Z AUTO 04008KT 2000 -PL ///026 M01/M01 Q1006=
202203291820 METAR ESMX 291820Z AUTO 01008KT 3400 -DZ ///020 00/M03 Q1006=
202203291750 METAR ESMX 291750Z AUTO 01010KT 9999 -RA ///035 00/M04 Q1006=
202203291720 METAR ESMX 291720Z AUTO 01009KT 9999 -DZ BKN030/// OVC044/// 02/M04 Q1006 REUP=
202203291650 METAR ESMX 291650Z AUTO 36012KT 9999 BKN051/// OVC062/// 02/M04 Q1005=
202203291620 METAR ESMX 291620Z AUTO 35014KT 9999 BKN061/// OVC074/// 03/M06 Q1005=
202203291550 METAR ESMX 291550Z AUTO 35010KT 9999 BKN084/// 04/M08 Q1005=
202203291520 METAR ESMX 291520Z AUTO 35008KT 9999 BKN059/// 05/M10 Q1005=
202203291450 METAR ESMX 291450Z AUTO 33007KT 9999 BKN064/// 06/M11 Q1005=
202203291420 METAR ESMX 291420Z 35005KT 290V030 9999 BKN074CB 05/M11 Q1005=
202203291350 METAR ESMX 291350Z 33008KT 290V350 9999 BKN070CB 06/M10 Q1006=
202203291320 METAR ESMX 291320Z 32008KT 280V010 9999 BKN057CB 05/M10 Q1006=
202203291250 METAR ESMX 291250Z 32009KT 290V360 9999 FEW046 BKN062 05/M10 Q1006=
202203291220 METAR ESMX 291220Z 31009G21KT 260V360 9999 FEW029 BKN070 06/M10 Q1006=
202203291150 METAR ESMX 291150Z AUTO 32006KT 280V360 9999 BKN084/// BKN100/// 05/M10 Q1006=
202203291120 METAR ESMX 291120Z 31006KT 230V350 CAVOK 06/M09 Q1007=
202203291050 METAR ESMX 291050Z 29005KT 240V010 CAVOK 06/M11 Q1007=
202203291020 METAR ESMX 291020Z 01005KT 330V060 CAVOK 05/M09 Q1007=
202203290950 METAR ESMX 290950Z 02005KT 340V060 CAVOK 04/M08 Q1007=
202203290920 METAR ESMX 290920Z 02005KT 330V040 CAVOK 03/M08 Q1008=
202203290850 METAR ESMX 290850Z 02005KT 340V050 CAVOK 03/M07 Q1008=
202203290820 METAR ESMX 290820Z 36004KT CAVOK 02/M07 Q1008=
202203290750 METAR ESMX 290750Z 36005KT 320V030 CAVOK 02/M07 Q1008=
202203290720 METAR ESMX 290720Z 33004KT 290V020 CAVOK 02/M05 Q1008=
202203290650 METAR ESMX 290650Z VRB03KT CAVOK 01/M05 Q1008=
202203290620 METAR ESMX 290620Z 33002KT CAVOK 00/M04 Q1008=
202203290550 METAR ESMX 290550Z 33002KT CAVOK M01/M05 Q1008=
202203290520 METAR ESMX 290520Z AUTO VRB02KT 9999 OVC080/// M01/M05 Q1008=
202203290450 METAR ESMX 290450Z 32002KT CAVOK M01/M06 Q1008=
202203290420 METAR ESMX 290420Z 30003KT CAVOK M01/M06 Q1008=
202203290350 METAR ESMX 290350Z 29003KT CAVOK M01/M06 Q1008=
202203290320 METAR ESMX 290320Z AUTO 31004KT 9999 OVC068/// M01/M06 Q1008=
202203290250 METAR ESMX 290250Z AUTO 34005KT 9999 OVC068/// 00/M06 Q1008=
202203290220 METAR ESMX 290220Z AUTO 34006KT 9999 OVC068/// 00/M06 Q1008=
202203290150 METAR ESMX 290150Z AUTO 31005KT 9999 SCT072/// M00/M05 Q1008=
202203290120 METAR ESMX 290120Z AUTO 31005KT 9999 FEW076/// 00/M06 Q1008=
202203290050 METAR ESMX 290050Z 35006KT CAVOK 01/M06 Q1008=
202203290020 METAR ESMX 290020Z 34007KT CAVOK 01/M05 Q1008=
202203282350 METAR ESMX 282350Z 34007KT CAVOK 02/M05 Q1008=
202203282320 METAR ESMX 282320Z AUTO 34006KT 9999 NCD 02/M04 Q1008=
202203282250 METAR ESMX 282250Z 32006KT CAVOK 02/M03 Q1008=
202203282220 METAR ESMX 282220Z 31006KT CAVOK 03/M03 Q1008=
202203282150 METAR ESMX 282150Z AUTO 30005KT 9999 NCD 03/M03 Q1008=
202203282120 METAR ESMX 282120Z 30007KT CAVOK 03/M03 Q1008=
202203282050 METAR ESMX 282050Z AUTO 30006KT 9999 NCD 03/M02 Q1008=
202203282020 METAR ESMX 282020Z 28005KT CAVOK 04/M02 Q1008=
202203281950 METAR ESMX 281950Z 28006KT CAVOK 04/M02 Q1008=
202203281920 METAR ESMX 281920Z 28005KT CAVOK 05/M02 Q1008=
202203281850 METAR ESMX 281850Z 29005KT CAVOK 05/M02 Q1008=
202203281820 METAR ESMX 281820Z 30006KT CAVOK 06/01 Q1007=
202203281750 METAR ESMX 281750Z 26006KT 220V290 9999 FEW031 06/04 Q1007=
202203281720 METAR ESMX 281720Z 23007KT 9999 FEW027 07/04 Q1007=
202203281650 METAR ESMX 281650Z 25010KT 9999 SCT027 08/04 Q1007=
202203281620 METAR ESMX 281620Z 26011KT 9999 SCT025 09/04 Q1007=
202203281550 METAR ESMX 281550Z 26013KT 9999 SCT027 09/04 Q1007=
202203281520 METAR ESMX 281520Z 26012KT 230V290 9999 SCT030 10/04 Q1007=
202203281450 METAR ESMX 281450Z 27014KT 230V300 9999 SCT030 10/03 Q1007=
202203281420 METAR ESMX 281420Z 26013KT 240V300 9999 BKN031 09/03 Q1008=
202203281350 METAR COR ESMX 281350Z 26014KT 9999 BKN028 10/03 Q1008=
202203281320 METAR ESMX 281320Z AUTO 26015KT 210V290 9999 BKN030/// 10/03 Q1008=
202203281250 METAR ESMX 281250Z AUTO 27018KT 230V300 9999 SCT028/// 11/03 Q1008=
202203281220 METAR ESMX 281220Z 27018KT 240V310 9999 SCT027 10/03 Q1008=
202203281150 METAR COR ESMX 281150Z 26018KT 9999 SCT027 10/03 Q1009=
202203281120 METAR ESMX 281120Z 26017KT 9999 SCT027 10/03 Q1009=
202203281050 METAR ESMX 281050Z 25015G26KT 210V280 CAVOK 11/03 Q1009=
202203281020 METAR ESMX 281020Z 25015KT CAVOK 11/03 Q1009=
202203280950 METAR ESMX 280950Z 24014KT CAVOK 10/04 Q1010=
202203280920 METAR ESMX 280920Z 25013G24KT 210V280 CAVOK 09/04 Q1010=
202203280850 METAR ESMX 280850Z AUTO 26017KT 9999 NCD 09/03 Q1011=
202203280820 METAR ESMX 280820Z AUTO 26015KT 9999 NCD 08/03 Q1011=
202203280750 METAR ESMX 280750Z AUTO 26014KT 9999 NCD 07/03 Q1011=
202203280720 METAR COR ESMX 280720Z 26013KT CAVOK 06/03 Q1012=
202203280650 METAR ESMX 280650Z 27013KT CAVOK 05/03 Q1012=
202203280620 METAR ESMX 280620Z 26013KT CAVOK 05/03 Q1012=
202203280550 METAR ESMX 280550Z 26013KT CAVOK 04/03 Q1013=
202203280520 METAR ESMX 280520Z 26012KT 9999 FEW009 04/03 Q1013=
202203280450 METAR ESMX 280450Z 26013KT 9999 BKN009 04/03 Q1013=
202203280420 METAR ESMX 280420Z 27012KT 9999 BKN009 04/03 Q1014=
202203280350 METAR ESMX 280350Z AUTO 26012KT 9999 FEW008/// 04/03 Q1014=
202203280320 METAR ESMX 280320Z AUTO 25011KT 9999 FEW006/// 04/04 Q1014=
202203280250 METAR ESMX 280250Z AUTO 24011KT 9999 SCT006/// 04/04 Q1014=
202203280220 METAR ESMX 280220Z AUTO 26011KT 9999 NCD 04/04 Q1015=
202203280150 METAR ESMX 280150Z AUTO 26012KT 9999 NCD 04/03 Q1015=
202203280120 METAR ESMX 280120Z AUTO 26012KT 9999 NCD 04/03 Q1016=
202203280050 METAR ESMX 280050Z AUTO 26012KT 9999 NCD 04/03 Q1016=
202203280020 METAR ESMX 280020Z AUTO 26013G24KT 9999 NCD 04/03 Q1016=
202203272350 METAR ESMX 272350Z AUTO 26010KT 9999 NCD 04/02 Q1016=
202203272320 METAR ESMX 272320Z AUTO 26006KT 9999 NCD 03/02 Q1017=
202203272250 METAR ESMX 272250Z AUTO 25006KT 9999 NCD 03/03 Q1018=
202203272220 METAR ESMX 272220Z AUTO 25007KT 9999 NCD 04/03 Q1018=
202203272150 METAR ESMX 272150Z AUTO 26008KT 9999 NCD 04/03 Q1019=
202203272120 METAR ESMX 272120Z AUTO 26010KT 9999 NCD 04/03 Q1019=
202203272050 METAR ESMX 272050Z AUTO 26009KT 9999 NCD 04/03 Q1020=
202203272020 METAR ESMX 272020Z AUTO 27009KT 9999 NCD 05/03 Q1020=
202203271950 METAR ESMX 271950Z 26010KT CAVOK 05/03 Q1020=
202203271920 METAR ESMX 271920Z 25008KT CAVOK 06/03 Q1020=
202203271850 METAR ESMX 271850Z 25007KT CAVOK 06/04 Q1020=
202203271820 METAR ESMX 271820Z 23006KT 200V280 CAVOK 07/04 Q1020=
202203271750 METAR ESMX 271750Z 25007KT CAVOK 07/03 Q1020=
202203271720 METAR ESMX 271720Z 25009KT 9999 FEW024 09/04 Q1021=
202203271650 METAR ESMX 271650Z 26009KT 220V290 CAVOK 09/04 Q1021=
202203271620 METAR ESMX 271620Z 25009KT CAVOK 10/04 Q1021=
202203271550 METAR ESMX 271550Z 25010KT 210V280 CAVOK 10/04 Q1021=
202203271520 METAR ESMX 271520Z 26011KT 220V300 CAVOK 11/04 Q1021=
202203271450 METAR ESMX 271450Z 26010KT 230V290 CAVOK 11/03 Q1022=
202203271420 METAR ESMX 271420Z 27011KT CAVOK 12/02 Q1022=
202203271350 METAR ESMX 271350Z 24012KT CAVOK 13/02 Q1022=
202203271320 METAR ESMX 271320Z 23011KT 200V270 9999 FEW042 13/01 Q1022=
202203271250 METAR ESMX 271250Z 23011KT 9999 FEW033 12/M01 Q1023=
202203271220 METAR COR ESMX 271220Z 23011KT 200V260 9999 BKN034 11/M02 Q1023=
202203271150 METAR ESMX 271150Z 23012KT 9999 BKN037 11/M03 Q1024=
202203271120 METAR ESMX 271120Z 23011KT 200V260 9999 BKN042 11/M03 Q1024=
202203271050 METAR ESMX 271050Z 22012KT 9999 BKN049 11/M04 Q1025=
202203271020 METAR ESMX 271020Z 19012KT CAVOK 10/M03 Q1025=
202203270950 METAR ESMX 270950Z 21010KT CAVOK 10/M03 Q1026=
202203270920 METAR ESMX 270920Z AUTO 22008KT 9999 BKN072/// 08/M04 Q1026=
202203270850 METAR ESMX 270850Z AUTO 23006KT 9999 FEW057/// BKN068/// BKN082/// 07/M03 Q1027=
202203270820 METAR ESMX 270820Z AUTO 22006KT 9999 BKN080/// 06/M02 Q1027=
202203270750 METAR ESMX 270750Z AUTO 22006KT 9999 FEW057/// OVC078/// 04/M01 Q1028=
202203270720 METAR ESMX 270720Z AUTO 20007KT 9999 OVC059/// 03/M01 Q1028=
202203270650 METAR ESMX 270650Z AUTO 21006KT 9999 BKN059/// OVC076/// 03/M01 Q1028=
202203270620 METAR ESMX 270620Z AUTO 17004KT 9999 OVC062/// 02/M02 Q1028=
202203270550 METAR ESMX 270550Z AUTO 23003KT 9999 BKN062/// OVC086/// 00/M02 Q1029=
202203270520 METAR ESMX 270520Z AUTO 16001KT 9999 SCT062/// OVC088/// M00/M03 Q1029=
202203270450 METAR ESMX 270450Z AUTO VRB01KT 9999 SCT064/// OVC092/// M01/M03 Q1029=
202203270420 METAR ESMX 270420Z AUTO 23003KT 9999 BKN064/// OVC084/// M01/M03 Q1029=
202203270350 METAR ESMX 270350Z AUTO 17002KT 9999 BKN066/// OVC084/// M02/M04 Q1029=
202203270320 METAR ESMX 270320Z AUTO 00000KT 9999 OVC066/// M02/M04 Q1029=
202203270250 METAR ESMX 270250Z AUTO 17001KT 9999 OVC070/// M02/M04 Q1030=
202203270220 METAR ESMX 270220Z AUTO 23003KT 9999 SCT074/// M02/M04 Q1030=
202203270150 METAR ESMX 270150Z AUTO 23003KT 9999 FEW110/// M02/M04 Q1030=
202203270120 METAR ESMX 270120Z AUTO 23003KT 9999 BKN110/// M02/M05 Q1031=
202203270050 METAR ESMX 270050Z AUTO 18002KT 9999 OVC120/// M03/M05 Q1030=
202203270020 METAR ESMX 270020Z AUTO 19002KT 9999 BKN120/// M03/M05 Q1031=
202203262350 METAR ESMX 262350Z AUTO 18002KT 9999 SCT120/// M03/M05 Q1031=
202203262320 METAR ESMX 262320Z AUTO 21002KT 9999 SCT120/// M03/M05 Q1031=
202203262250 METAR ESMX 262250Z AUTO 00000KT 9999 NCD M03/M05 Q1031=
202203262220 METAR ESMX 262220Z AUTO 00000KT 9999 NCD M02/M05 Q1031=
202203262150 METAR ESMX 262150Z AUTO 21001KT 9999 NCD M02/M05 Q1031=
202203262120 METAR ESMX 262120Z AUTO 00000KT 9999 NCD M01/M05 Q1030=
202203262050 METAR ESMX 262050Z AUTO 33003KT 9999 NCD M01/M05 Q1030=
202203262020 METAR ESMX 262020Z AUTO 01004KT 9999 NCD 02/M05 Q1030=
202203261950 METAR ESMX 261950Z AUTO 01003KT 9999 NCD 02/M04 Q1030=
202203261920 METAR ESMX 261920Z AUTO 36003KT 9999 NCD 02/M05 Q1030=
202203261850 METAR ESMX 261850Z AUTO 36003KT 9999 NCD 04/M04 Q1029=
202203261820 METAR ESMX 261820Z AUTO 33006KT 9999 NCD 04/M05 Q1029=
202203261750 METAR ESMX 261750Z AUTO 34007KT 9999 NCD 04/M05 Q1029=
202203261720 METAR ESMX 261720Z AUTO 34007KT 9999 NCD 05/M06 Q1028=
202203261650 METAR ESMX 261650Z AUTO 34009KT 9999 NCD 07/M06 Q1028=
202203261620 METAR ESMX 261620Z AUTO 33010KT 9999 NCD 08/M06 Q1027=
202203261550 METAR ESMX 261550Z AUTO 33011KT 9999 NCD 09/M07 Q1027=
202203261520 METAR ESMX 261520Z AUTO 35011KT 9999 NCD 09/M07 Q1027=
202203261450 METAR ESMX 261450Z AUTO 34012KT 9999 NCD 10/M07 Q1026=
202203261420 METAR ESMX 261420Z AUTO 32013KT 290V350 9999 NCD 10/M06 Q1026=
202203261350 METAR ESMX 261350Z AUTO 32012KT 9999 NCD 10/M06 Q1026=
202203261320 METAR ESMX 261320Z AUTO 35013KT 9999 NCD 11/M06 Q1025=
202203261250 METAR ESMX 261250Z AUTO 33013KT 9999 NCD 11/M06 Q1025=
202203261220 METAR ESMX 261220Z AUTO 33013KT 9999 NCD 11/M06 Q1025=
202203261150 METAR ESMX 261150Z AUTO 33012KT 290V020 9999 NCD 10/M05 Q1025=
202203261120 METAR ESMX 261120Z AUTO 34013KT 9999 NCD 10/M06 Q1024=
202203261050 METAR ESMX 261050Z AUTO 32012KT 290V350 9999 NCD 10/M07 Q1024=
202203261020 METAR ESMX 261020Z AUTO 33013KT 9999 NCD 10/M06 Q1024=
202203260950 METAR ESMX 260950Z AUTO 34014KT 9999 NCD 09/M06 Q1024=
202203260920 METAR ESMX 260920Z AUTO 35012KT 9999 NCD 09/M06 Q1024=
202203260850 METAR ESMX 260850Z AUTO 34012KT 9999 NCD 08/M05 Q1023=
202203260820 METAR ESMX 260820Z AUTO 34011KT 9999 NCD 08/M03 Q1023=
202203260750 METAR ESMX 260750Z AUTO 33012KT 9999 NCD 07/M02 Q1023=
202203260720 METAR ESMX 260720Z AUTO 33010KT 300V360 9999 NCD 06/00 Q1022=
202203260650 METAR ESMX 260650Z AUTO 31009KT 9999 NCD 06/01 Q1022=
202203260620 METAR ESMX 260620Z AUTO 31009KT 9999 NCD 05/03 Q1021=
202203260550 METAR ESMX 260550Z AUTO 31008KT 9999 NCD 05/03 Q1021=
202203260520 METAR ESMX 260520Z AUTO 31005KT 9999 NCD 04/04 Q1021=
202203260450 METAR ESMX 260450Z AUTO 30005KT 9999 NCD 04/04 Q1020=
202203260420 METAR ESMX 260420Z AUTO 29005KT 9999 NCD 04/04 Q1020=
202203260350 METAR ESMX 260350Z AUTO 29004KT 250V350 9999 NCD 05/04 Q1019=
202203260320 METAR ESMX 260320Z AUTO 30005KT 260V340 9999 NCD 05/05 Q1019=
202203260250 METAR ESMX 260250Z AUTO 30006KT 9999 NCD 05/05 Q1019=
202203260220 METAR ESMX 260220Z AUTO 29007KT 260V320 9999 NCD 06/05 Q1019=
202203260150 METAR ESMX 260150Z AUTO 28008KT 9999 NCD 06/05 Q1018=
202203260120 METAR ESMX 260120Z AUTO 28010KT 9999 NCD 06/05 Q1018=
202203260050 METAR ESMX 260050Z AUTO 28009KT 9999 NCD 06/05 Q1018=
202203260020 METAR ESMX 260020Z AUTO 28009KT 9999 NCD 06/05 Q1018=
202203252350 METAR ESMX 252350Z AUTO 27009KT 9999 NCD 06/05 Q1018=
202203252320 METAR ESMX 252320Z AUTO 28010KT 9999 NCD 06/05 Q1018=
202203252250 METAR ESMX 252250Z AUTO 27010KT 9999 NCD 06/05 Q1018=
202203252220 METAR ESMX 252220Z AUTO 26011KT 9999 FEW014/// 06/05 Q1018=
202203252150 METAR ESMX 252150Z AUTO 26011KT 9999 NCD 07/05 Q1018=
202203252120 METAR ESMX 252120Z AUTO 26011KT 9999 NCD 07/05 Q1019=
202203252050 METAR ESMX 252050Z AUTO 25012KT 9999 NCD 08/05 Q1019=
202203252020 METAR ESMX 252020Z AUTO 26011KT 9999 NCD 08/05 Q1019=
202203251950 METAR ESMX 251950Z AUTO 26010KT 9999 NCD 08/05 Q1019=
202203251920 METAR ESMX 251920Z AUTO 26013KT 9999 NCD 08/04 Q1019=
202203251850 METAR ESMX 251850Z AUTO 24011KT 9999 NCD 08/04 Q1019=
202203251820 METAR ESMX 251820Z AUTO 24011KT 9999 NCD 09/04 Q1020=
202203251750 METAR ESMX 251750Z AUTO 26010KT 9999 NCD 09/03 Q1020=
202203251720 METAR ESMX 251720Z AUTO 27011KT 9999 NCD 10/03 Q1020=
202203251650 METAR ESMX 251650Z 27011KT CAVOK 11/04 Q1020=
202203251620 METAR ESMX 251620Z 26012KT CAVOK 12/04 Q1020=
202203251550 METAR ESMX 251550Z 26011KT 230V290 CAVOK 12/04 Q1020=
202203251520 METAR ESMX 251520Z 26013KT 220V280 CAVOK 12/04 Q1020=
202203251450 METAR ESMX 251450Z 25012KT 220V280 CAVOK 13/04 Q1021=
202203251420 METAR ESMX 251420Z 26012KT 230V290 CAVOK 14/03 Q1021=
202203251350 METAR ESMX 251350Z 26013KT CAVOK 14/03 Q1021=
202203251320 METAR ESMX 251320Z 25012KT 230V290 CAVOK 14/03 Q1022=
202203251250 METAR ESMX 251250Z 24012KT CAVOK 14/03 Q1022=
202203251220 METAR ESMX 251220Z 26014KT CAVOK 14/01 Q1022=
202203251150 METAR ESMX 251150Z 26014KT 240V300 CAVOK 14/01 Q1023=
202203251120 METAR ESMX 251120Z 27011KT 230V290 CAVOK 14/01 Q1023=
202203251050 METAR ESMX 251050Z 25013KT CAVOK 14/04 Q1023=
202203251020 METAR ESMX 251020Z 24011KT 9999 FEW170 13/04 Q1023=
202203250950 METAR ESMX 250950Z 25011KT CAVOK 12/04 Q1023=
202203250920 METAR ESMX 250920Z 24009KT CAVOK 10/04 Q1024=
202203250850 METAR ESMX 250850Z 26008KT 230V290 CAVOK 10/04 Q1024=
202203250820 METAR ESMX 250820Z 23007KT 200V260 9000 BR NSC 08/04 Q1024=
202203250750 METAR ESMX 250750Z 27007KT 9000 BR NSC 06/03 Q1024=
202203250720 METAR ESMX 250720Z 27005KT 240V300 7000 BR NSC 05/03 Q1024=
202203250650 METAR ESMX 250650Z 27004KT 6000 BR NSC 04/03 Q1024=
202203250620 METAR ESMX 250620Z AUTO 26004KT 5000 BR NCD 03/02 Q1024=
202203250550 METAR ESMX 250550Z AUTO 26004KT 5000 BR NCD 01/01 Q1024=
202203250520 METAR ESMX 250520Z AUTO 24004KT 4500 BR NCD 00/M00 Q1024=
202203250450 METAR ESMX 250450Z AUTO 24004KT 5000 BR NCD 01/00 Q1024=
202203250420 METAR ESMX 250420Z AUTO 26004KT 6000 BR NCD 00/M00 Q1024=
202203250350 METAR ESMX 250350Z AUTO 26003KT 6000 BR NCD 01/M00 Q1024=
202203250320 METAR ESMX 250320Z AUTO 26004KT 7000 BR NCD 01/00 Q1024=
202203250250 METAR ESMX 250250Z AUTO 26005KT 7000 BR NCD 01/00 Q1024=
202203250220 METAR ESMX 250220Z AUTO 24003KT 6000 BR NCD 00/M00 Q1024=
202203250150 METAR ESMX 250150Z 25003KT 5000 BR NSC 01/01 Q1024=
202203250120 METAR ESMX 250120Z 20003KT 6000 BR NSC 01/00 Q1024=
202203250050 METAR ESMX 250050Z 25003KT 8000 BR NSC 01/01 Q1025=
202203250020 METAR ESMX 250020Z AUTO 26004KT 9999 NCD 01/00 Q1025=
202203242350 METAR ESMX 242350Z AUTO 26004KT 9999 NCD 01/M01 Q1025=
202203242320 METAR ESMX 242320Z AUTO 26005KT 9999 NCD 03/01 Q1025=
202203242250 METAR ESMX 242250Z AUTO 24004KT 9999 NCD 02/M00 Q1025=
202203242220 METAR ESMX 242220Z AUTO 25004KT 9999 NCD 03/00 Q1025=
202203242150 METAR ESMX 242150Z AUTO 26003KT 9999 NCD 04/01 Q1025=
202203242120 METAR ESMX 242120Z AUTO 25004KT 9999 NCD 04/00 Q1025=
202203242050 METAR ESMX 242050Z AUTO 24005KT 9999 NCD 04/00 Q1025=
202203242020 METAR ESMX 242020Z AUTO 24006KT 9999 NCD 05/00 Q1025=
202203241950 METAR ESMX 241950Z AUTO 25007KT 9999 NCD 06/00 Q1026=
202203241920 METAR ESMX 241920Z AUTO 25005KT 9999 NCD 06/00 Q1026=
202203241850 METAR ESMX 241850Z AUTO 24005KT 9999 NCD 06/01 Q1026=
202203241820 METAR ESMX 241820Z AUTO 25005KT 9999 NCD 07/01 Q1025=
202203241750 METAR ESMX 241750Z AUTO 24004KT 9999 NCD 09/00 Q1025=
202203241720 METAR ESMX 241720Z AUTO 22005KT 9999 NCD 09/M00 Q1025=
202203241650 METAR ESMX 241650Z AUTO 26007KT 9999 NCD 11/M00 Q1025=
202203241620 METAR ESMX 241620Z AUTO 26008KT 9999 NCD 13/M01 Q1025=
202203241550 METAR ESMX 241550Z 25009KT CAVOK 13/M02 Q1025=
202203241520 METAR ESMX 241520Z 24008KT CAVOK 14/M02 Q1025=
202203241450 METAR ESMX 241450Z 23008KT CAVOK 15/M03 Q1025=
202203241420 METAR ESMX 241420Z 24008KT 190V280 CAVOK 14/M04 Q1026=
202203241350 METAR ESMX 241350Z 24009KT CAVOK 15/M02 Q1026=
202203241320 METAR ESMX 241320Z 25009KT 230V290 CAVOK 15/M02 Q1026=
202203241250 METAR ESMX 241250Z 25008KT 210V280 CAVOK 14/M03 Q1027=
202203241220 METAR ESMX 241220Z 27009KT 230V310 CAVOK 14/M02 Q1027=
202203241150 METAR ESMX 241150Z 25009KT 210V290 CAVOK 14/M02 Q1027=
202203241120 METAR COR ESMX 241120Z 23008KT 200V270 CAVOK 13/M02 Q1027=
202203241050 METAR ESMX 241050Z AUTO 27009KT 230V300 9999 NCD 12/M03 Q1027=
202203241020 METAR ESMX 241020Z 26007KT 230V290 CAVOK 12/M02 Q1028=
202203240950 METAR ESMX 240950Z 26008KT CAVOK 11/00 Q1028=
202203240920 METAR ESMX 240920Z 27006KT 240V310 CAVOK 09/01 Q1028=
202203240850 METAR ESMX 240850Z 28007KT 250V320 CAVOK 08/01 Q1028=
202203240820 METAR ESMX 240820Z 28008KT CAVOK 07/01 Q1028=
202203240750 METAR ESMX 240750Z 29006KT CAVOK 06/01 Q1028=
202203240720 METAR ESMX 240720Z 27004KT CAVOK 04/00 Q1028=
202203240650 METAR ESMX 240650Z VRB03KT CAVOK 02/00 Q1028=
202203240620 METAR ESMX 240620Z AUTO 26002KT 9999 NCD 01/M00 Q1028=
202203240550 METAR ESMX 240550Z AUTO 19003KT 9999 NCD M01/M02 Q1028=
202203240520 METAR ESMX 240520Z AUTO 18002KT 8000 BR NCD M03/M03 Q1028=
202203240450 METAR ESMX 240450Z AUTO 17003KT 8000 NCD M02/M03 Q1028=
202203240420 METAR ESMX 240420Z AUTO 24002KT 9999 NCD M02/M03 Q1028=
202203240350 METAR ESMX 240350Z AUTO 25003KT 9999 NCD M01/M02 Q1028=
202203240320 METAR ESMX 240320Z AUTO 25003KT 9999 NCD M01/M02 Q1028=
202203240250 METAR ESMX 240250Z AUTO 26003KT 9999 NCD M02/M02 Q1028=
202203240220 METAR ESMX 240220Z AUTO 26003KT 9999 NCD M02/M02 Q1028=
202203240150 METAR ESMX 240150Z AUTO 26002KT 9999 NCD M01/M04 Q1028=
202203240120 METAR ESMX 240120Z 29004KT CAVOK M01/M02 Q1028=
202203240050 METAR ESMX 240050Z 27003KT CAVOK M02/M03 Q1029=
202203240020 METAR COR ESMX 240020Z 28002KT CAVOK 00/M02 Q1029=
202203232350 METAR ESMX 232350Z AUTO 28003KT 9999 NCD 00/M02 Q1029=
202203232320 METAR ESMX 232320Z AUTO 25004KT 9999 NCD 00/M02 Q1029=
202203232250 METAR ESMX 232250Z AUTO 26004KT 9999 NCD 01/M02 Q1029=
202203232220 METAR ESMX 232220Z AUTO 28003KT 9999 NCD 01/M03 Q1030=
202203232150 METAR ESMX 232150Z AUTO 28005KT 9999 NCD 03/M02 Q1030=
202203232120 METAR ESMX 232120Z AUTO 29005KT 9999 NCD 04/M03 Q1030=
202203232050 METAR COR ESMX 232050Z 28005KT CAVOK 04/M03 Q1030=
202203232020 METAR ESMX 232020Z AUTO 29005KT 9999 NCD 05/M02 Q1030=
202203231950 METAR ESMX 231950Z AUTO 29004KT 9999 NCD 05/M03 Q1030=
202203231920 METAR ESMX 231920Z AUTO 29004KT 9999 NCD 05/M02 Q1030=
202203231850 METAR ESMX 231850Z AUTO 26004KT 9999 NCD 05/M02 Q1030=
202203231820 METAR ESMX 231820Z AUTO 26003KT 9999 NCD 05/M03 Q1030=
202203231750 METAR ESMX 231750Z AUTO 25003KT 9999 NCD 06/M03 Q1030=
202203231720 METAR ESMX 231720Z AUTO 26003KT 9999 NCD 09/M03 Q1030=
202203231650 METAR ESMX 231650Z AUTO 26004KT 9999 NCD 10/M03 Q1030=
202203231620 METAR ESMX 231620Z AUTO 28005KT 260V340 9999 NCD 11/M03 Q1030=
202203231550 METAR ESMX 231550Z 27006KT CAVOK 12/M03 Q1030=
202203231520 METAR ESMX 231520Z 29006KT 250V330 CAVOK 12/M04 Q1030=
202203231450 METAR ESMX 231450Z 28007KT CAVOK 13/M04 Q1030=
202203231420 METAR ESMX 231420Z 33006KT 270V020 CAVOK 12/M04 Q1031=
202203231350 METAR ESMX 231350Z 28006KT 240V320 CAVOK 12/M04 Q1031=
202203231320 METAR ESMX 231320Z 28005KT 200V340 CAVOK 12/M04 Q1031=
202203231250 METAR ESMX 231250Z 30006KT 260V350 CAVOK 12/M04 Q1031=
202203231220 METAR ESMX 231220Z 31005KT 240V340 CAVOK 11/M04 Q1032=
202203231150 METAR ESMX 231150Z 35006KT 280V020 CAVOK 11/M04 Q1032=
202203231120 METAR ESMX 231120Z 36006KT 320V030 CAVOK 10/M03 Q1032=
202203231050 METAR ESMX 231050Z 35007KT 320V020 CAVOK 10/M03 Q1032=
202203231020 METAR ESMX 231020Z 35007KT CAVOK 10/M03 Q1033=
202203230950 METAR ESMX 230950Z 31007KT CAVOK 09/M02 Q1033=
202203230920 METAR ESMX 230920Z 32005KT 280V350 CAVOK 08/M01 Q1033=
202203230850 METAR ESMX 230850Z 32004KT 290V010 CAVOK 07/00 Q1033=
202203230820 METAR ESMX 230820Z 30003KT CAVOK 05/01 Q1033=
202203230750 METAR ESMX 230750Z VRB03KT CAVOK 04/01 Q1033=
202203230720 METAR ESMX 230720Z 31002KT 9000 BR NSC 02/00 Q1033=
202203230650 METAR ESMX 230650Z 00000KT 6000 BR NSC 02/00 Q1033=
202203230620 METAR ESMX 230620Z AUTO 19002KT 6000 BR NCD M02/M02 Q1032=
202203230550 METAR ESMX 230550Z AUTO 21001KT 3500 BR NCD M04/M05 Q1032=
202203230520 METAR ESMX 230520Z AUTO 19002KT 2500 BR NCD M04/M05 Q1032=
202203230450 METAR ESMX 230450Z AUTO 00000KT 2800 BR NCD M05/M05 Q1032=
202203230420 METAR ESMX 230420Z AUTO 00000KT 4700 BR NCD M04/M04 Q1032=
202203230350 METAR ESMX 230350Z AUTO 28003KT 7000 BR NCD M03/M03 Q1032=
202203230320 METAR ESMX 230320Z AUTO 29003KT 7000 BR NCD M04/M04 Q1032=
202203230250 METAR ESMX 230250Z AUTO 29002KT 8000 BR NCD M04/M04 Q1032=
202203230220 METAR ESMX 230220Z AUTO 28003KT 8000 NCD M04/M04 Q1032=
202203230150 METAR ESMX 230150Z AUTO 17002KT 9999 NCD M03/M05 Q1032=
202203230120 METAR ESMX 230120Z VRB01KT CAVOK M01/M03 Q1032=
202203230050 METAR ESMX 230050Z 30003KT CAVOK M02/M03 Q1032=
202203230020 METAR ESMX 230020Z AUTO 30003KT 9999 NCD M02/M03 Q1032=
202203222350 METAR ESMX 222350Z AUTO 28003KT 9999 NCD M01/M03 Q1033=
202203222320 METAR ESMX 222320Z AUTO 28003KT 9999 NCD M01/M04 Q1033=
202203222250 METAR ESMX 222250Z AUTO 29001KT 9999 NCD 00/M03 Q1033=
202203222220 METAR ESMX 222220Z AUTO 27004KT 9999 NCD M01/M03 Q1033=
202203222150 METAR ESMX 222150Z AUTO 30004KT 9999 NCD 02/M03 Q1033=
202203222120 METAR ESMX 222120Z 30003KT CAVOK 03/M03 Q1033=
202203222050 METAR ESMX 222050Z AUTO VRB02KT 9999 NCD 04/M03 Q1033=
202203222020 METAR ESMX 222020Z AUTO 27003KT 9999 NCD 05/M03 Q1032=
202203221950 METAR ESMX 221950Z AUTO 28003KT 9999 NCD 06/M03 Q1033=
202203221920 METAR ESMX 221920Z AUTO 27005KT 9999 NCD 06/M02 Q1032=
202203221850 METAR ESMX 221850Z AUTO 26005KT 9999 NCD 07/M02 Q1032=
202203221820 METAR ESMX 221820Z AUTO 25004KT 9999 NCD 06/M02 Q1032=
202203221750 METAR ESMX 221750Z AUTO 25004KT 9999 NCD 07/M03 Q1032=
202203221720 METAR ESMX 221720Z AUTO 21004KT 9999 NCD 08/M03 Q1032=
202203221650 METAR ESMX 221650Z AUTO 20005KT 9999 NCD 10/M03 Q1032=
202203221620 METAR ESMX 221620Z AUTO 20006KT 9999 NCD 11/M03 Q1032=
202203221550 METAR ESMX 221550Z 20008KT CAVOK 12/M04 Q1032=
202203221520 METAR ESMX 221520Z 19009KT CAVOK 13/M04 Q1032=
202203221450 METAR ESMX 221450Z 21009KT CAVOK 13/M04 Q1032=
202203221420 METAR ESMX 221420Z 21008KT CAVOK 14/M05 Q1032=
202203221350 METAR ESMX 221350Z 22009KT 190V250 CAVOK 14/M05 Q1033=
202203221320 METAR ESMX 221320Z 21008KT 170V260 CAVOK 14/M06 Q1033=
202203221250 METAR ESMX 221250Z 22009KT 180V260 CAVOK 14/M05 Q1033=
202203221220 METAR ESMX 221220Z 21009KT 170V240 CAVOK 14/M04 Q1034=
202203221150 METAR ESMX 221150Z 21009KT 160V240 CAVOK 13/M05 Q1034=
202203221120 METAR ESMX 221120Z 18011KT CAVOK 13/M05 Q1034=
202203221050 METAR ESMX 221050Z 21009KT 170V250 CAVOK 12/M04 Q1035=
202203221020 METAR ESMX 221020Z 20008KT CAVOK 11/M04 Q1035=
202203220950 METAR ESMX 220950Z 21008KT CAVOK 11/M05 Q1035=
202203220920 METAR ESMX 220920Z 16005KT CAVOK 10/M03 Q1035=
202203220850 METAR ESMX 220850Z 14004KT CAVOK 07/M01 Q1035=
202203220820 METAR ESMX 220820Z 16004KT 120V200 CAVOK 06/M01 Q1035=
202203220750 METAR ESMX 220750Z 14004KT CAVOK 05/M01 Q1035=
202203220720 METAR ESMX 220720Z 14004KT CAVOK 03/M00 Q1035=
202203220650 METAR ESMX 220650Z 14002KT CAVOK 01/M01 Q1035=
202203220620 METAR ESMX 220620Z AUTO 14001KT 9999 NCD M03/M03 Q1035=
202203220550 METAR ESMX 220550Z AUTO 14002KT 8000 BR NCD M05/M05 Q1035=
202203220520 METAR ESMX 220520Z AUTO 00000KT 7000 BR NCD M05/M06 Q1035=
202203220450 METAR ESMX 220450Z AUTO 00000KT 7000 BR NCD M06/M06 Q1035=
202203220420 METAR ESMX 220420Z AUTO 00000KT 9000 BR NCD M05/M06 Q1035=
202203220350 METAR ESMX 220350Z AUTO VRB01KT 9999 NCD M06/M06 Q1035=
202203220320 METAR ESMX 220320Z AUTO 00000KT 9999 NCD M05/M06 Q1035=
202203220250 METAR ESMX 220250Z AUTO VRB01KT 9999 NCD M06/M07 Q1035=
202203220220 METAR ESMX 220220Z AUTO 00000KT 9999 NCD M05/M06 Q1035=
202203220150 METAR ESMX 220150Z 00000KT CAVOK M05/M07 Q1035=
202203220120 METAR ESMX 220120Z 14003KT CAVOK M03/M06 Q1036=
202203220050 METAR ESMX 220050Z 14004KT CAVOK M04/M06 Q1036=
202203220020 METAR ESMX 220020Z AUTO 14004KT 9999 NCD M04/M06 Q1036=
202203212350 METAR ESMX 212350Z AUTO 00000KT 9999 NCD M04/M06 Q1036=
202203212320 METAR ESMX 212320Z AUTO 14001KT 9999 NCD M03/M06 Q1036=
202203212250 METAR ESMX 212250Z AUTO 36002KT 9999 NCD M03/M05 Q1036=
202203212220 METAR ESMX 212220Z AUTO 14004KT 9999 NCD M03/M06 Q1036=
202203212150 METAR ESMX 212150Z AUTO 17003KT 9999 NCD M01/M06 Q1037=
202203212120 METAR ESMX 212120Z AUTO 17003KT 9999 NCD M02/M07 Q1037=
202203212050 METAR ESMX 212050Z AUTO 17003KT 9999 NCD 01/M07 Q1037=
202203212020 METAR ESMX 212020Z 17004KT CAVOK 00/M07 Q1037=
202203211950 METAR ESMX 211950Z 15005KT CAVOK 03/M08 Q1037=
202203211920 METAR ESMX 211920Z 14005KT CAVOK 03/M08 Q1037=
202203211850 METAR ESMX 211850Z 15005KT CAVOK 03/M08 Q1037=
202203211820 METAR ESMX 211820Z 17004KT CAVOK 04/M08 Q1037=
202203211750 METAR ESMX 211750Z 17004KT CAVOK 04/M09 Q1037=
202203211720 METAR ESMX 211720Z 16005KT CAVOK 07/M09 Q1037=
202203211650 METAR ESMX 211650Z 16006KT CAVOK 08/M09 Q1037=
202203211620 METAR ESMX 211620Z AUTO 16008KT 140V210 9999 NCD 09/M09 Q1037=
202203211550 METAR ESMX 211550Z 16008KT 120V190 CAVOK 10/M09 Q1037=
202203211520 METAR ESMX 211520Z 16008KT CAVOK 11/M09 Q1037=
202203211450 METAR ESMX 211450Z 15008KT 100V200 CAVOK 11/M09 Q1038=
202203211420 METAR ESMX 211420Z 15007KT 090V180 CAVOK 11/M10 Q1038=
202203211350 METAR ESMX 211350Z 16007KT 130V200 CAVOK 11/M09 Q1038=
202203211320 METAR ESMX 211320Z 18010KT CAVOK 11/M09 Q1038=
202203211250 METAR ESMX 211250Z 18009KT 150V220 CAVOK 11/M08 Q1039=
202203211220 METAR ESMX 211220Z 15008KT 110V180 CAVOK 11/M07 Q1039=
202203211150 METAR ESMX 211150Z 16008KT 120V200 CAVOK 11/M06 Q1039=
202203211120 METAR ESMX 211120Z 15008KT 110V190 CAVOK 11/M07 Q1039=
202203211050 METAR ESMX 211050Z 15010KT 110V180 CAVOK 10/M07 Q1040=
202203211020 METAR ESMX 211020Z 16007KT 120V190 CAVOK 10/M05 Q1040=
202203210950 METAR ESMX 210950Z 14007KT CAVOK 08/M04 Q1040=
202203210920 METAR ESMX 210920Z 15007KT 110V180 CAVOK 07/M04 Q1040=
202203210850 METAR ESMX 210850Z 15005KT 080V210 CAVOK 06/M03 Q1040=
202203210820 METAR ESMX 210820Z 15008KT CAVOK 06/M03 Q1040=
202203210750 METAR ESMX 210750Z 15006KT 110V180 CAVOK 04/M02 Q1040=
202203210720 METAR ESMX 210720Z 13005KT CAVOK 04/M02 Q1040=
202203210650 METAR ESMX 210650Z 13005KT CAVOK 02/M02 Q1040=
202203210620 METAR ESMX 210620Z 11003KT CAVOK M01/M02 Q1040=
202203210550 METAR ESMX 210550Z AUTO 12004KT 9999 NCD M02/M02 Q1040=
202203210520 METAR ESMX 210520Z AUTO 11004KT 9999 NCD M02/M03 Q1040=
202203210450 METAR ESMX 210450Z AUTO 11003KT 9999 NCD M02/M03 Q1040=
202203210420 METAR ESMX 210420Z AUTO 11003KT 9999 NCD M02/M03 Q1040=
202203210350 METAR ESMX 210350Z AUTO 12003KT 9999 NCD M03/M03 Q1040=
202203210320 METAR ESMX 210320Z AUTO 12003KT 9999 NCD M03/M03 Q1040=
202203210250 METAR ESMX 210250Z AUTO 12003KT 9999 NCD M03/M03 Q1040=
202203210220 METAR ESMX 210220Z AUTO VRB01KT 9999 NCD M04/M05 Q1040=
202203210150 METAR ESMX 210150Z AUTO 13004KT 9999 NCD M02/M04 Q1041=
202203210120 METAR ESMX 210120Z AUTO 13004KT 9999 NCD M04/M05 Q1041=
202203210050 METAR ESMX 210050Z AUTO 13003KT 9999 NCD M03/M04 Q1041=
202203210020 METAR ESMX 210020Z AUTO 13003KT 9999 NCD M03/M04 Q1041=
202203202350 METAR ESMX 202350Z AUTO 12003KT 9999 NCD M04/M06 Q1041=
202203202320 METAR ESMX 202320Z AUTO 11003KT 080V160 9999 NCD M01/M04 Q1042=
202203202250 METAR ESMX 202250Z AUTO VRB02KT 9999 NCD M01/M03 Q1042=
202203202220 METAR ESMX 202220Z AUTO VRB03KT 9999 NCD M01/M03 Q1042=
202203202150 METAR ESMX 202150Z AUTO 08004KT 050V140 9999 NCD M00/M03 Q1042=
202203202120 METAR ESMX 202120Z AUTO 13001KT 9999 NCD M01/M03 Q1042=
202203202050 METAR ESMX 202050Z AUTO 13003KT 9999 NCD 01/M02 Q1042=
202203202020 METAR ESMX 202020Z AUTO 00000KT 9999 NCD 01/M02 Q1042=
202203201950 METAR ESMX 201950Z AUTO 12003KT 9999 NCD 02/M02 Q1042=
202203201920 METAR ESMX 201920Z 11003KT CAVOK 03/M01 Q1042=
202203201850 METAR ESMX 201850Z 11003KT 060V140 CAVOK 04/M01 Q1042=
202203201820 METAR ESMX 201820Z 10003KT 060V150 CAVOK 05/M01 Q1042=
202203201750 METAR ESMX 201750Z 12003KT CAVOK 06/M01 Q1042=
202203201720 METAR ESMX 201720Z 13004KT 090V170 CAVOK 07/M01 Q1042=
202203201650 METAR ESMX 201650Z 13005KT CAVOK 08/M01 Q1042=
202203201620 METAR ESMX 201620Z 13005KT 090V160 CAVOK 09/M01 Q1042=
202203201550 METAR ESMX 201550Z 13006KT 090V180 CAVOK 10/M01 Q1042=
202203201520 METAR ESMX 201520Z 14006KT 100V180 CAVOK 10/M01 Q1042=
202203201450 METAR ESMX 201450Z AUTO 15006KT 9999 NCD 11/M01 Q1043=
202203201420 METAR ESMX 201420Z AUTO 14005KT 080V190 9999 NCD 11/M01 Q1043=
202203201350 METAR ESMX 201350Z AUTO 16005KT 9999 NCD 11/M01 Q1043=
202203201320 METAR ESMX 201320Z AUTO 17007KT 100V190 9999 NCD 11/M01 Q1044=
202203201250 METAR ESMX 201250Z AUTO 15006KT 090V210 9999 NCD 10/M00 Q1044=
202203201220 METAR ESMX 201220Z AUTO 16006KT 120V220 9999 NCD 10/M01 Q1044=
202203201150 METAR ESMX 201150Z AUTO 17005KT 9999 NCD 09/M00 Q1045=
202203201120 METAR ESMX 201120Z AUTO 17006KT 9999 NCD 10/M01 Q1045=
202203201050 METAR ESMX 201050Z AUTO 17007KT 9999 NCD 09/M01 Q1045=
202203201020 METAR ESMX 201020Z AUTO 17005KT 100V210 9999 NCD 08/M00 Q1046=
202203200950 METAR ESMX 200950Z AUTO 15006KT 100V180 9999 NCD 08/M01 Q1046=
202203200920 METAR ESMX 200920Z AUTO 15006KT 100V160 9999 NCD 07/M01 Q1046=
202203200850 METAR ESMX 200850Z AUTO 15005KT 9999 NCD 06/M01 Q1046=
202203200820 METAR ESMX 200820Z AUTO 14004KT 9999 NCD 05/M01 Q1046=
202203200750 METAR ESMX 200750Z AUTO 17004KT 9999 NCD 04/M00 Q1046=
202203200720 METAR ESMX 200720Z AUTO 17002KT 9999 NCD 02/01 Q1046=
202203200650 METAR ESMX 200650Z AUTO 35002KT 9999 NCD M00/M00 Q1046=
202203200620 METAR ESMX 200620Z AUTO 00000KT 9999 NCD M04/M04 Q1046=
202203200550 METAR ESMX 200550Z AUTO 20002KT 9999 NCD M05/M05 Q1046=
202203200520 METAR ESMX 200520Z AUTO 00000KT 6000 NCD M05/M05 Q1046=
202203200450 METAR ESMX 200450Z AUTO 36002KT 9999 FZFG NCD M05/M05 Q1046=
202203200420 METAR ESMX 200420Z AUTO 00000KT 1000 R01/1900N R19/P2000N FZFG NCD M05/M05 Q1046=
202203200350 METAR ESMX 200350Z AUTO 00000KT 2000 BCFG NCD M06/M06 Q1046=
202203200320 METAR ESMX 200320Z AUTO 00000KT 9999 BCFG NCD M05/M05 Q1046=
202203200250 METAR ESMX 200250Z AUTO 00000KT 0550 R01/1300U R19/P2000N FZFG NCD M04/M04 Q1046=
202203200220 METAR ESMX 200220Z AUTO 00000KT 9999 NCD M04/M04 Q1046=
202203200150 METAR ESMX 200150Z AUTO 35001KT 9999 NCD M05/M05 Q1047=
202203200120 METAR ESMX 200120Z AUTO 00000KT 9999 NCD M04/M04 Q1047=
202203200050 METAR ESMX 200050Z AUTO 17001KT 9999 NCD M04/M04 Q1047=
202203200020 METAR ESMX 200020Z AUTO 00000KT 9999 NCD M03/M03 Q1047=
202203192350 METAR ESMX 192350Z AUTO 00000KT 9999 NCD M03/M04 Q1047=
202203192320 METAR ESMX 192320Z AUTO 00000KT 9999 NCD M03/M03 Q1047=
202203192250 METAR ESMX 192250Z AUTO 00000KT 9999 NCD M02/M04 Q1047=
202203192220 METAR ESMX 192220Z AUTO 00000KT 9999 NCD M02/M03 Q1047=
202203192150 METAR ESMX 192150Z AUTO 00000KT 9999 NCD M01/M04 Q1047=
202203192120 METAR ESMX 192120Z AUTO 17002KT 9999 NCD 00/M04 Q1047=
202203192050 METAR ESMX 192050Z AUTO 17003KT 9999 NCD 03/M03 Q1047=
202203192020 METAR ESMX 192020Z AUTO 17004KT 9999 NCD 04/M03 Q1047=
202203191950 METAR ESMX 191950Z AUTO 17006KT 9999 NCD 05/M05 Q1047=
202203191920 METAR ESMX 191920Z AUTO 15005KT 9999 NCD 06/M06 Q1047=
202203191850 METAR ESMX 191850Z AUTO 13005KT 9999 NCD 04/M05 Q1047=
202203191820 METAR ESMX 191820Z AUTO 11002KT 9999 NCD 02/M05 Q1047=
202203191750 METAR ESMX 191750Z AUTO 11002KT 9999 NCD 05/M05 Q1047=
202203191720 METAR ESMX 191720Z AUTO 05002KT 9999 NCD 07/M06 Q1047=
202203191650 METAR ESMX 191650Z AUTO 01003KT 9999 NCD 10/M06 Q1047=
202203191620 METAR ESMX 191620Z AUTO 36004KT 9999 NCD 11/M07 Q1047=
202203191550 METAR ESMX 191550Z AUTO 36004KT 9999 NCD 12/M07 Q1047=
202203191520 METAR ESMX 191520Z AUTO 35004KT 320V050 9999 NCD 12/M07 Q1047=
202203191450 METAR ESMX 191450Z AUTO 36004KT 320V050 9999 NCD 12/M07 Q1047=
202203191420 METAR ESMX 191420Z AUTO 32004KT 280V010 9999 NCD 12/M07 Q1047=
202203191350 METAR ESMX 191350Z AUTO 33004KT 280V020 9999 NCD 12/M07 Q1048=
202203191320 METAR ESMX 191320Z AUTO 35005KT 320V030 9999 NCD 12/M06 Q1048=
202203191250 METAR ESMX 191250Z AUTO 35004KT 290V020 9999 NCD 11/M05 Q1048=
202203191220 METAR ESMX 191220Z AUTO 34006KT 310V010 9999 NCD 11/M05 Q1049=
202203191150 METAR ESMX 191150Z AUTO 34005KT 300V020 9999 NCD 11/M04 Q1049=
202203191120 METAR ESMX 191120Z AUTO 02004KT 310V080 9999 NCD 10/M04 Q1049=
202203191050 METAR ESMX 191050Z AUTO 35005KT 320V030 9999 NCD 09/M03 Q1049=
202203191020 METAR ESMX 191020Z AUTO 33005KT 290V020 9999 NCD 09/M02 Q1049=
202203190950 METAR ESMX 190950Z AUTO 04004KT 360V100 9999 NCD 08/M03 Q1050=
202203190920 METAR ESMX 190920Z AUTO 02004KT 340V050 9999 NCD 08/M02 Q1050=
202203190850 METAR ESMX 190850Z AUTO 05004KT 020V090 9999 NCD 07/M00 Q1050=
202203190820 METAR ESMX 190820Z AUTO VRB03KT 9999 NCD 06/00 Q1050=
202203190750 METAR ESMX 190750Z AUTO 04003KT 010V070 9999 NCD 05/01 Q1050=
202203190720 METAR ESMX 190720Z AUTO VRB02KT 9999 NCD 03/01 Q1050=
202203190650 METAR ESMX 190650Z AUTO 36003KT 9999 NCD 00/00 Q1049=
202203190620 METAR ESMX 190620Z AUTO 02003KT 9999 NCD M02/M02 Q1049=
202203190550 METAR ESMX 190550Z AUTO 36003KT 9999 NCD M04/M04 Q1049=
202203190520 METAR ESMX 190520Z AUTO 01003KT 9999 NCD M04/M04 Q1049=
202203190450 METAR ESMX 190450Z AUTO 02002KT 9999 NCD M05/M05 Q1048=
202203190420 METAR ESMX 190420Z AUTO 00000KT 9999 BR NCD M04/M04 Q1048=
202203190350 METAR ESMX 190350Z AUTO 00000KT 9999 NCD M05/M05 Q1048=
202203190320 METAR ESMX 190320Z AUTO VRB01KT 9999 NCD M04/M04 Q1048=
202203190250 METAR ESMX 190250Z AUTO VRB01KT 9999 NCD M04/M04 Q1048=
202203190220 METAR ESMX 190220Z AUTO 33002KT 9999 NCD M04/M04 Q1048=
202203190150 METAR ESMX 190150Z AUTO 35002KT 9999 NCD M04/M04 Q1048=
202203190120 METAR ESMX 190120Z AUTO 35002KT 9999 NCD M04/M04 Q1048=
202203190050 METAR ESMX 190050Z AUTO 36003KT 9999 NCD M02/M02 Q1047=
202203190020 METAR ESMX 190020Z AUTO 34003KT 9999 NCD M02/M02 Q1047=
202203182350 METAR ESMX 182350Z AUTO 32005KT 9999 NCD M00/M01 Q1047=
202203182320 METAR ESMX 182320Z AUTO 33005KT 9999 NCD 00/M01 Q1047=
202203182250 METAR ESMX 182250Z AUTO 32006KT 9999 NCD M00/M01 Q1046=
202203182220 METAR ESMX 182220Z AUTO 34005KT 9999 NCD 02/M00 Q1046=
202203182150 METAR ESMX 182150Z AUTO 30006KT 9999 NCD 02/M01 Q1046=
202203182120 METAR ESMX 182120Z AUTO 32006KT 280V340 9999 NCD 02/M00 Q1045=
202203182050 METAR ESMX 182050Z AUTO 31006KT 9999 NCD 02/M00 Q1045=
202203182020 METAR ESMX 182020Z AUTO 30006KT 9999 NCD 03/M00 Q1045=
202203181950 METAR ESMX 181950Z AUTO 30005KT 9999 NCD 03/M00 Q1045=
202203181920 METAR ESMX 181920Z AUTO 29005KT 9999 NCD 03/M01 Q1044=
202203181850 METAR ESMX 181850Z AUTO 29005KT 9999 NCD 04/M00 Q1044=
202203181820 METAR ESMX 181820Z AUTO 28006KT 9999 NCD 05/M00 Q1043=
202203181750 METAR ESMX 181750Z AUTO 28007KT 9999 NCD 06/M01 Q1043=
202203181720 METAR ESMX 181720Z 27007KT CAVOK 07/M02 Q1042=
202203181650 METAR ESMX 181650Z 27009KT CAVOK 08/M03 Q1041=
202203181620 METAR ESMX 181620Z 28011KT CAVOK 09/M03 Q1041=
202203181550 METAR ESMX 181550Z 27012KT 240V300 CAVOK 09/M03 Q1040=
202203181520 METAR ESMX 181520Z 26012KT CAVOK 10/M03 Q1040=
202203181450 METAR ESMX 181450Z 27011KT CAVOK 10/M02 Q1040=
202203181420 METAR ESMX 181420Z 28011KT 240V300 CAVOK 10/M02 Q1039=
202203181350 METAR ESMX 181350Z 28012KT CAVOK 09/M02 Q1039=
202203181320 METAR ESMX 181320Z 26012KT 230V290 9999 SCT046 BKN061 10/M00 Q1039=
202203181250 METAR ESMX 181250Z AUTO 25009KT 220V300 9999 BKN039/// 10/02 Q1039=
202203181220 METAR ESMX 181220Z 25009KT 210V280 9999 BKN027 09/02 Q1039=
202203181150 METAR ESMX 181150Z 23008KT 9999 SCT021 BKN029 07/03 Q1040=
202203181120 METAR ESMX 181120Z 25008KT 230V290 9999 FEW007 BKN016 07/05 Q1039=
202203181050 METAR ESMX 181050Z 21006KT 7000 BR BKN002 05/05 Q1039=
202203181020 METAR ESMX 181020Z 23007KT 2000 BR OVC002 04/04 Q1039=
202203180950 METAR ESMX 180950Z 20008KT 2000 BR OVC002 04/04 Q1039=
202203180920 METAR ESMX 180920Z 19008KT 2500 BR OVC002 04/04 Q1038=
202203180850 METAR ESMX 180850Z 20008KT 3000 BR OVC002 04/04 Q1038=
202203180820 METAR ESMX 180820Z 23009KT 5000 BR OVC003 04/04 Q1038=
202203180750 METAR ESMX 180750Z 22009KT 5000 BR OVC002 04/04 Q1037=
202203180720 METAR ESMX 180720Z 21009KT 5000 BR OVC003 03/03 Q1037=
202203180650 METAR ESMX 180650Z AUTO 22010KT 9999 BKN005/// OVC007/// 03/03 Q1037=
202203180620 METAR ESMX 180620Z AUTO 19009KT 9999 BKN007/// OVC032/// 03/03 Q1036=
202203180550 METAR ESMX 180550Z AUTO 20008KT 9999 BKN007/// OVC008/// 03/03 Q1036=
202203180520 METAR ESMX 180520Z AUTO 21007KT 9999 OVC008/// 03/02 Q1036=
202203180450 METAR ESMX 180450Z AUTO 18006KT 9999 OVC009/// 02/02 Q1035=
202203180420 METAR ESMX 180420Z AUTO 18005KT 9999 BKN010/// OVC013/// 02/02 Q1035=
202203180350 METAR ESMX 180350Z AUTO 22004KT 9999 BKN015/// OVC021/// 02/02 Q1035=
202203180320 METAR ESMX 180320Z AUTO 22005KT 9999 BKN022/// 01/01 Q1035=
202203180250 METAR ESMX 180250Z AUTO 22006KT 9999 SCT009/// 02/02 Q1034=
202203180220 METAR ESMX 180220Z AUTO 22005KT 9999 BKN010/// OVC028/// 02/02 Q1034=
202203180150 METAR ESMX 180150Z 21007KT 9999 FEW014 BKN026 04/03 Q1033=
202203180120 METAR ESMX 180120Z 23006KT 9999 BKN029 04/04 Q1033=
202203180050 METAR ESMX 180050Z 23007KT 9999 BKN013 04/04 Q1033=
202203180020 METAR ESMX 180020Z 20007KT 9000 FEW010 SCT016 OVC025 05/04 Q1033=
202203172350 METAR ESMX 172350Z 23007KT 7000 SCT008 BKN010 05/05 Q1032=
202203172320 METAR ESMX 172320Z 20007KT 5000 BKN006 05/05 Q1032=
202203172250 METAR ESMX 172250Z 20009KT 3500 BR OVC004 05/05 Q1032=
202203172220 METAR ESMX 172220Z 19010KT 2500 BR -DZ OVC003 05/05 Q1031=
202203172150 METAR ESMX 172150Z AUTO 18009KT 1400 R01/P2000N R19/P2000N BR OVC003/// 05/05 Q1031 REUP=
202203172120 METAR ESMX 172120Z AUTO 18009KT 1300 R01/P2000N R19/P2000N BR OVC003/// 05/05 Q1031=
202203172050 METAR ESMX 172050Z AUTO 18008KT 1300 R01/P2000N R19/P2000N BR OVC003/// 05/05 Q1031 REDZ=
202203172020 METAR ESMX 172020Z AUTO 17009KT 2100 BR OVC005/// 04/04 Q1030=
202203171950 METAR ESMX 171950Z AUTO 16009KT 2900 BR OVC007/// 04/04 Q1030=
202203171920 METAR ESMX 171920Z AUTO 16009KT 4000 DZ BKN010/// OVC012/// 04/04 Q1030=
202203171850 METAR ESMX 171850Z AUTO 17009KT 5000 -RA SCT014/// BKN019/// BKN025/// 05/03 Q1030=
202203171820 METAR ESMX 171820Z AUTO 15010KT 7000 -DZ FEW014/// BKN038/// OVC057/// 05/03 Q1029=
202203171750 METAR ESMX 171750Z AUTO 15010KT 120V190 7000 BR FEW015/// SCT025/// BKN044/// 05/03 Q1029=
202203171720 METAR ESMX 171720Z AUTO 15010KT 110V190 8000 DZ ///045 05/02 Q1029 REUP=
202203171650 METAR ESMX 171650Z AUTO 15010KT 9000 BR FEW046/// 05/02 Q1029=
202203171620 METAR ESMX 171620Z AUTO 15009KT 110V180 9000 BR BKN049/// 05/02 Q1028=
202203171550 METAR ESMX 171550Z 14009KT 5000 BR FEW130 05/02 Q1029=
202203171520 METAR ESMX 171520Z AUTO 14009KT 100V170 8000 BR SCT150/// 05/02 Q1028=
202203171450 METAR ESMX 171450Z 14009KT 100V160 5000 BR BKN013 05/02 Q1029=
202203171420 METAR ESMX 171420Z 14007KT 110V180 5000 BR SCT010 05/02 Q1029=
202203171350 METAR ESMX 171350Z 13008KT 090V170 5000 BR FEW010 04/02 Q1029=
202203171320 METAR ESMX 171320Z 13007KT 060V160 6000 BR NSC 04/02 Q1029=
202203171250 METAR ESMX 171250Z 13007KT 100V160 7000 BR NSC 04/02 Q1029=
202203171220 METAR ESMX 171220Z 13006KT 090V160 9000 BR NSC 04/02 Q1029=
202203171150 METAR ESMX 171150Z 14007KT 100V200 9000 BR BKN010 03/01 Q1030=
202203171120 METAR ESMX 171120Z 14008KT 100V160 9000 BR FEW045 03/01 Q1030=
202203171050 METAR ESMX 171050Z 13007KT 070V160 9000 BR FEW040 03/01 Q1030=
202203171020 METAR ESMX 171020Z AUTO 14007KT 100V170 8000 BR FEW180/// 03/01 Q1030=
202203170950 METAR ESMX 170950Z 15005KT 110V180 8000 BR FEW008 02/00 Q1030=
202203170920 METAR ESMX 170920Z 13005KT 5000 BR BKN006 01/00 Q1030=
202203170850 METAR ESMX 170850Z AUTO 10006KT 060V140 5000 BR VV006 01/00 Q1030=
202203170820 METAR ESMX 170820Z 11006KT 080V150 4400 BR OVC004 00/M00 Q1031=
202203170750 METAR ESMX 170750Z 13005KT 3200 BR OVC003 00/M00 Q1031=
202203170720 METAR ESMX 170720Z 12004KT 050V170 3500 BR OVC003 M00/M00 Q1031=
202203170650 METAR ESMX 170650Z 13005KT 3500 BR OVC002 M00/M00 Q1031=
202203170620 METAR ESMX 170620Z AUTO 12005KT 080V140 2200 BR OVC002/// M00/M00 Q1031=
202203170550 METAR ESMX 170550Z AUTO 12005KT 2500 BR OVC003/// M01/M01 Q1031=
202203170520 METAR ESMX 170520Z AUTO 11004KT 050V140 2100 BR OVC002/// M01/M01 Q1031=
202203170450 METAR ESMX 170450Z AUTO 12004KT 070V150 2100 BR OVC002/// M01/M01 Q1031=
202203170420 METAR ESMX 170420Z AUTO 12006KT 070V140 2000 BR OVC002/// M01/M01 Q1031=
202203170350 METAR ESMX 170350Z AUTO 14004KT 1700 OVC002/// M01/M01 Q1032=
202203170320 METAR ESMX 170320Z AUTO 12004KT 1700 OVC001/// M01/M01 Q1032=
202203170250 METAR ESMX 170250Z AUTO 12003KT 070V130 0500 R01/1300N R19/P2000N=
202203170220 METAR ESMX 170220Z AUTO 10004KT 050V130 0650 R01/1800D R19/P2000N=
202203170150 METAR ESMX 170150Z VRB03KT 1500 BR OVC002 M01/M01 Q1032=
202203170120 METAR ESMX 170120Z VRB02KT 0900 R19/1900N VV002 M01/M01 Q1032=
202203170050 METAR ESMX 170050Z 12004KT 070V150 0400 R19/1300U FZFG VV002 M01/M01 Q1032=
202203170020 METAR ESMX 170020Z 13004KT 0300 R19/0900N FZFG VV002 M01/M01 Q1032=
202203162350 METAR ESMX 162350Z 11005KT 070V170 0300 R19/0750N FZFG VV002 M00/M00 Q1032=
202203162320 METAR ESMX 162320Z 12005KT 080V160 0350 R19/0900D FZFG VV002 M00/M00 Q1032=
202203162250 METAR ESMX 162250Z 15005KT 110V180 0350 R19/0900N FZFG VV002 M00/M00 Q1032=
202203162220 METAR ESMX 162220Z AUTO 14005KT 100V160 0250 R01/0750N R19/1100N=
202203162150 METAR ESMX 162150Z AUTO 14006KT 0350 R01/P2000D R19/P2000N FZFG SCT005/// M00/M00 Q1032=
202203162120 METAR ESMX 162120Z 13003KT 110V170 9000 NSC 01/01 Q1032=
202203162050 METAR ESMX 162050Z 13003KT 9000 NSC 02/01 Q1032=
202203162020 METAR ESMX 162020Z AUTO 16005KT 9000 BR NCD 03/01 Q1032=
202203161950 METAR ESMX 161950Z AUTO 14006KT 110V170 9999 NCD 04/01 Q1032=
202203161920 METAR ESMX 161920Z AUTO 14006KT 9999 NCD 05/01 Q1031=
202203161850 METAR ESMX 161850Z AUTO 15005KT 9999 NCD 05/01 Q1031=
202203161820 METAR ESMX 161820Z AUTO 14007KT 9999 NCD 06/01 Q1031=
202203161750 METAR ESMX 161750Z AUTO 13005KT 9999 NCD 07/M00 Q1030=
202203161720 METAR ESMX 161720Z AUTO 18002KT 9999 NCD 06/M03 Q1030=
202203161650 METAR ESMX 161650Z AUTO 23004KT 9999 NCD 08/M02 Q1030=
202203161620 METAR ESMX 161620Z AUTO 00000KT 9999 NCD 10/M03 Q1030=
202203161550 METAR ESMX 161550Z VRB02KT CAVOK 11/M03 Q1030=
202203161520 METAR ESMX 161520Z VRB03KT CAVOK 12/M03 Q1030=
202203161450 METAR ESMX 161450Z VRB03KT CAVOK 12/M03 Q1030=
202203161420 METAR ESMX 161420Z 33004KT 300V010 CAVOK 12/M03 Q1030=
202203161350 METAR ESMX 161350Z 31004KT 270V340 CAVOK 12/M03 Q1030=
202203161320 METAR ESMX 161320Z AUTO VRB03KT 9999 NCD 12/M03 Q1030=
202203161250 METAR ESMX 161250Z AUTO 05003KT 010V090 9999 NCD 11/M04 Q1030=
202203161220 METAR ESMX 161220Z VRB03KT CAVOK 10/M05 Q1030=
202203161150 METAR ESMX 161150Z AUTO 34003KT 300V040 9999 NCD 10/M03 Q1030=
202203161120 METAR ESMX 161120Z 36004KT 340V050 CAVOK 09/M02 Q1030=
202203161050 METAR ESMX 161050Z AUTO 34004KT 300V020 9999 NCD 08/M02 Q1030=
202203161020 METAR ESMX 161020Z AUTO 34003KT 310V070 9999 NCD 07/M01 Q1030=
202203160950 METAR ESMX 160950Z AUTO VRB03KT 9999 NCD 06/M01 Q1029=
202203160920 METAR ESMX 160920Z AUTO 34004KT 310V010 9999 NCD 05/M01 Q1029=
202203160850 METAR ESMX 160850Z AUTO 34003KT 320V020 9999 NCD 04/M00 Q1029=
202203160820 METAR COR ESMX 160820Z VRB03KT 8000 NSC 02/M01 Q1029=
202203160750 METAR ESMX 160750Z AUTO 00000KT 8000 BR NCD 01/M01 Q1029=
202203160720 METAR ESMX 160720Z VRB02KT 6000 BR NSC M01/M02 Q1029=
202203160650 METAR ESMX 160650Z 27002KT 5000 BR NSC M03/M03 Q1029=
202203160620 METAR ESMX 160620Z AUTO 27003KT 5000 BR NCD M05/M05 Q1028=
202203160550 METAR ESMX 160550Z AUTO 00000KT 2900 BR NCD M06/M07 Q1028=
202203160520 METAR ESMX 160520Z AUTO 00000KT 2600 BR NCD M04/M04 Q1028=
202203160450 METAR ESMX 160450Z AUTO 26003KT 3600 BR NCD M06/M07 Q1027=
202203160420 METAR ESMX 160420Z AUTO 26002KT 2900 BR NCD M06/M06 Q1027=
202203160350 METAR ESMX 160350Z AUTO 19002KT 1700 BR NCD M05/M05 Q1027=
202203160320 METAR ESMX 160320Z AUTO 00000KT 1100 R01/P2000N R19/P2000N BR NCD M05/M05 Q1027=
202203160250 METAR ESMX 160250Z AUTO 00000KT 1700 BR NCD M05/M05 Q1026=
202203160220 METAR ESMX 160220Z AUTO 26003KT 2600 BR NCD M06/M06 Q1026=
202203160150 METAR ESMX 160150Z 25002KT 7000 NSC M03/M03 Q1026=
202203160120 METAR ESMX 160120Z 20002KT 9000 NSC M03/M03 Q1026=
202203160050 METAR ESMX 160050Z 18002KT 9000 NSC M03/M03 Q1026=
202203160020 METAR ESMX 160020Z 26003KT 9000 NSC M03/M03 Q1026=
202203152350 METAR ESMX 152350Z 26001KT 9000 NSC M03/M04 Q1025=
202203152320 METAR ESMX 152320Z 26002KT 9000 NSC M03/M03 Q1025=
202203152250 METAR ESMX 152250Z 00000KT 9000 NSC M01/M03 Q1025=
202203152220 METAR ESMX 152220Z 25003KT 9999 NSC M01/M02 Q1025=
202203152150 METAR ESMX 152150Z 25003KT 9000 NSC M02/M03 Q1025=
202203152120 METAR ESMX 152120Z 27002KT CAVOK M00/M02 Q1025=
202203152050 METAR ESMX 152050Z VRB02KT CAVOK M00/M02 Q1025=
202203152020 METAR ESMX 152020Z AUTO 26003KT 9999 NCD 00/M02 Q1024=
202203151950 METAR ESMX 151950Z AUTO 26004KT 9999 NCD 01/M03 Q1024=
202203151920 METAR ESMX 151920Z AUTO 24004KT 9999 NCD 00/M03 Q1024=
202203151850 METAR ESMX 151850Z AUTO 00000KT 9999 NCD M01/M03 Q1024=
202203151820 METAR ESMX 151820Z AUTO 19002KT 9999 NCD 02/M03 Q1024=
202203151750 METAR ESMX 151750Z AUTO 00000KT 9999 NCD 02/M03 Q1023=
202203151720 METAR ESMX 151720Z AUTO 00000KT 9999 NCD 04/M03 Q1023=
202203151650 METAR ESMX 151650Z AUTO 11001KT 9999 NCD 06/M04 Q1023=
202203151620 METAR ESMX 151620Z 00000KT CAVOK 09/M05 Q1023=
202203151550 METAR ESMX 151550Z VRB02KT CAVOK 09/M05 Q1023=
202203151520 METAR ESMX 151520Z 31003KT 270V360 CAVOK 10/M05 Q1023=
202203151450 METAR COR ESMX 151450Z 24003KT 230V290 CAVOK 10/M05 Q1023=
202203151420 METAR ESMX 151420Z 20004KT CAVOK 10/M02 Q1023=
202203151350 METAR ESMX 151350Z 15005KT 100V220 CAVOK 10/M03 Q1023=
202203151320 METAR ESMX 151320Z 17004KT 080V170 CAVOK 10/M02 Q1024=
202203151250 METAR ESMX 151250Z 13003KT CAVOK 09/M02 Q1024=
202203151220 METAR ESMX 151220Z 18004KT 140V230 9999 FEW044 09/M02 Q1024=
202203151150 METAR ESMX 151150Z 13004KT CAVOK 09/M01 Q1024=
202203151120 METAR ESMX 151120Z 14004KT 070V160 CAVOK 08/M01 Q1024=
202203151050 METAR ESMX 151050Z 16005KT CAVOK 08/M01 Q1025=
202203151020 METAR ESMX 151020Z 15005KT 100V200 CAVOK 08/M00 Q1025=
202203150950 METAR ESMX 150950Z 14004KT CAVOK 06/M00 Q1025=
202203150920 METAR ESMX 150920Z 22003KT CAVOK 05/00 Q1025=
202203150850 METAR ESMX 150850Z VRB02KT CAVOK 04/M00 Q1025=
202203150820 METAR ESMX 150820Z 04004KT CAVOK 01/M01 Q1025=
202203150750 METAR ESMX 150750Z 05003KT CAVOK 00/M01 Q1025=
202203150720 METAR ESMX 150720Z 04003KT CAVOK M01/M01 Q1025=
202203150650 METAR ESMX 150650Z VRB03KT 8000 BR NSC M02/M02 Q1025=
202203150620 METAR ESMX 150620Z AUTO 02005KT 8000 BR NCD M02/M02 Q1025=
202203150550 METAR ESMX 150550Z AUTO 02005KT 8000 BR NCD M03/M03 Q1025=
202203150520 METAR ESMX 150520Z AUTO 02003KT 5000 BR NCD M03/M03 Q1026=
202203150450 METAR ESMX 150450Z AUTO 02003KT 4400 BR NCD M03/M03 Q1026=
202203150420 METAR ESMX 150420Z AUTO 02002KT 4000 BR NCD M04/M04 Q1026=
202203150350 METAR ESMX 150350Z AUTO 04004KT 4400 NCD M03/M03 Q1026=
202203150320 METAR ESMX 150320Z AUTO 36004KT 3400 BCFG NCD M04/M04 Q1026=
202203150250 METAR ESMX 150250Z AUTO 02003KT 0700 R01/P2000N R19/P2000D NCD M03/M03 Q1025=
202203150220 METAR ESMX 150220Z AUTO VRB03KT 3000 NCD M03/M03 Q1026=
202203150150 METAR ESMX 150150Z 01004KT 8000 NSC M03/M03 Q1026=
202203150120 METAR ESMX 150120Z 07002KT 4000 NSC M03/M03 Q1026=
202203150050 METAR ESMX 150050Z 03004KT 5000 NSC M02/M02 Q1026=
202203150020 METAR ESMX 150020Z 02004KT 5000 NSC M03/M03 Q1026=
202203142350 METAR ESMX 142350Z 03003KT 7000 NSC M02/M02 Q1026=
202203142320 METAR ESMX 142320Z 02004KT 9000 NSC M02/M02 Q1027=
202203142250 METAR ESMX 142250Z 04003KT 9000 NSC M02/M02 Q1027=
202203142220 METAR ESMX 142220Z 02004KT CAVOK M01/M02 Q1027=
202203142150 METAR ESMX 142150Z 06003KT CAVOK M01/M02 Q1027=
202203142120 METAR ESMX 142120Z 04003KT CAVOK 00/M01 Q1027=
202203142050 METAR ESMX 142050Z VRB03KT CAVOK 00/M02 Q1028=
202203142020 METAR ESMX 142020Z 11004KT 060V130 CAVOK 01/M02 Q1028=
202203141950 METAR ESMX 141950Z 11004KT CAVOK 01/M02 Q1028=
202203141920 METAR ESMX 141920Z 12005KT 060V160 CAVOK 02/M02 Q1028=
202203141850 METAR ESMX 141850Z 12004KT CAVOK 03/M03 Q1027=
202203141820 METAR ESMX 141820Z 12004KT CAVOK 04/M03 Q1027=
202203141750 METAR ESMX 141750Z 12004KT 070V170 CAVOK 05/M04 Q1027=
202203141720 METAR ESMX 141720Z 13004KT 090V160 CAVOK 05/M04 Q1027=
202203141650 METAR ESMX 141650Z 12005KT 090V150 CAVOK 07/M04 Q1027=
202203141620 METAR ESMX 141620Z 12006KT 080V150 CAVOK 08/M04 Q1027=
202203141550 METAR ESMX 141550Z 11006KT 060V160 CAVOK 09/M04 Q1027=
202203141520 METAR ESMX 141520Z 11006KT 070V160 CAVOK 09/M05 Q1027=
202203141450 METAR ESMX 141450Z 15008KT 120V190 CAVOK 09/M06 Q1027=
202203141420 METAR ESMX 141420Z 16008KT CAVOK 10/M06 Q1027=
202203141350 METAR ESMX 141350Z 12007KT 060V170 CAVOK 10/M05 Q1027=
202203141320 METAR ESMX 141320Z 15007KT 110V170 CAVOK 10/M05 Q1027=
202203141250 METAR ESMX 141250Z 14008KT 110V170 CAVOK 10/M05 Q1027=
202203141220 METAR ESMX 141220Z 13007KT 060V160 CAVOK 10/M05 Q1028=
202203141150 METAR ESMX 141150Z 13008KT 080V170 CAVOK 10/M05 Q1028=
202203141120 METAR ESMX 141120Z 14009KT 100V170 CAVOK 09/M05 Q1028=
202203141050 METAR ESMX 141050Z 15007KT 110V190 CAVOK 09/M05 Q1028=
202203141020 METAR ESMX 141020Z 14007KT 080V190 CAVOK 09/M04 Q1028=
202203140950 METAR ESMX 140950Z 15006KT CAVOK 08/M03 Q1029=
202203140920 METAR ESMX 140920Z 14007KT 100V170 CAVOK 07/M02 Q1029=
202203140850 METAR ESMX 140850Z 14005KT 110V190 CAVOK 06/M02 Q1028=
202203140820 METAR ESMX 140820Z 12004KT 080V150 CAVOK 06/M01 Q1029=
202203140750 METAR ESMX 140750Z 11003KT CAVOK 04/M01 Q1029=
202203140720 METAR ESMX 140720Z 08003KT 030V120 CAVOK 02/M01 Q1029=
202203140650 METAR ESMX 140650Z 14003KT CAVOK M01/M02 Q1029=
202203140620 METAR ESMX 140620Z AUTO 14004KT 9999 NCD M02/M03 Q1029=
202203140550 METAR ESMX 140550Z AUTO 36003KT 9999 NCD M03/M03 Q1028=
202203140520 METAR ESMX 140520Z AUTO 01003KT 8000 NCD M04/M04 Q1028=
202203140450 METAR ESMX 140450Z AUTO 36002KT 9999 NCD M03/M03 Q1028=
202203140420 METAR ESMX 140420Z AUTO 35003KT 9999 NCD M02/M03 Q1028=
202203140350 METAR ESMX 140350Z AUTO 12004KT 9999 NCD M00/M02 Q1028=
202203140320 METAR ESMX 140320Z AUTO 13005KT 9999 NCD 01/M02 Q1028=
202203140250 METAR ESMX 140250Z AUTO 13006KT 9999 NCD 01/M02 Q1028=
202203140220 METAR ESMX 140220Z AUTO 13005KT 9999 NCD 01/M03 Q1028=
202203140150 METAR ESMX 140150Z AUTO 13005KT 9999 NCD 01/M03 Q1028=
202203140120 METAR ESMX 140120Z AUTO 12005KT 080V160 9999 NCD 01/M03 Q1028=
202203140050 METAR ESMX 140050Z AUTO 11003KT 9999 NCD M01/M05 Q1028=
202203140020 METAR ESMX 140020Z AUTO 12003KT 9999 NCD M00/M05 Q1028=
202203132350 METAR ESMX 132350Z AUTO 13004KT 9999 NCD M00/M06 Q1028=
202203132320 METAR ESMX 132320Z AUTO 10003KT 070V150 9999 NCD M00/M08 Q1028=
202203132250 METAR ESMX 132250Z AUTO 09003KT 020V150 9999 NCD M00/M10 Q1028=
202203132220 METAR ESMX 132220Z AUTO 11003KT 9999 NCD M00/M11 Q1028=
202203132150 METAR ESMX 132150Z AUTO 10003KT 9999 NCD 00/M12 Q1028=
202203132120 METAR ESMX 132120Z AUTO 11003KT 9999 NCD 00/M11 Q1028=
202203132050 METAR ESMX 132050Z AUTO 11003KT 9999 NCD 01/M11 Q1028=
202203132020 METAR ESMX 132020Z AUTO 11003KT 9999 NCD 01/M11 Q1028=
202203131950 METAR ESMX 131950Z AUTO VRB03KT 9999 NCD 02/M11 Q1028=
202203131920 METAR ESMX 131920Z AUTO 11003KT 9999 NCD 03/M11 Q1027=
202203131850 METAR ESMX 131850Z AUTO 10003KT 9999 NCD 03/M12 Q1027=
202203131820 METAR ESMX 131820Z 11005KT CAVOK 04/M13 Q1027=
202203131750 METAR ESMX 131750Z 12005KT 060V220 CAVOK 05/M12 Q1027=
202203131720 METAR ESMX 131720Z 11005KT 070V160 CAVOK 07/M13 Q1027=
202203131650 METAR ESMX 131650Z 13004KT 060V160 CAVOK 08/M12 Q1027=
202203131620 METAR ESMX 131620Z AUTO 13006KT 080V160 9999 NCD 09/M12 Q1027=
202203131550 METAR ESMX 131550Z 12006KT 070V170 CAVOK 10/M12 Q1027=
202203131520 METAR ESMX 131520Z AUTO 14008KT 100V170 9999 NCD 11/M13 Q1027=
202203131450 METAR ESMX 131450Z AUTO 15006KT 9999 NCD 11/M12 Q1027=
202203131420 METAR ESMX 131420Z AUTO 14009KT 110V170 9999 NCD 11/M13 Q1027=
202203131350 METAR ESMX 131350Z AUTO 14008KT 110V170 9999 NCD 11/M13 Q1027=
202203131320 METAR ESMX 131320Z AUTO 14007KT 100V170 9999 NCD 11/M12 Q1027=
202203131250 METAR ESMX 131250Z AUTO 13008KT 070V170 9999 NCD 11/M12 Q1027=
202203131220 METAR ESMX 131220Z AUTO 14007KT 100V180 9999 NCD 11/M11 Q1027=
202203131150 METAR ESMX 131150Z AUTO 16008KT 110V200 9999 NCD 10/M10 Q1027=
202203131120 METAR ESMX 131120Z AUTO 13009KT 100V160 9999 NCD 09/M11 Q1027=
202203131050 METAR ESMX 131050Z AUTO 15008KT 9999 NCD 09/M11 Q1027=
202203131020 METAR ESMX 131020Z AUTO 13007KT 080V170 9999 NCD 09/M10 Q1027=
202203130950 METAR ESMX 130950Z AUTO 13008KT 080V170 9999 NCD 08/M08 Q1027=
202203130920 METAR ESMX 130920Z 14007KT 110V190 CAVOK 07/M08 Q1027=
202203130850 METAR ESMX 130850Z 12005KT CAVOK 06/M06 Q1027=
202203130820 METAR ESMX 130820Z 14004KT CAVOK 04/M06 Q1027=
202203130750 METAR ESMX 130750Z 14005KT CAVOK 03/M05 Q1027=
202203130720 METAR ESMX 130720Z 13005KT CAVOK 00/M04 Q1027=
202203130650 METAR ESMX 130650Z 34003KT CAVOK M03/M05 Q1027=
202203130620 METAR ESMX 130620Z AUTO 16003KT 9999 NCD M06/M07 Q1027=
202203130550 METAR ESMX 130550Z AUTO 16002KT 9999 NCD M07/M08 Q1027=
202203130520 METAR ESMX 130520Z AUTO VRB01KT 9999 NCD M07/M08 Q1027=
202203130450 METAR ESMX 130450Z AUTO VRB01KT 9999 NCD M07/M08 Q1027=
202203130420 METAR ESMX 130420Z AUTO 02002KT 9999 NCD M07/M08 Q1027=
202203130350 METAR ESMX 130350Z AUTO 00000KT 9999 NCD M08/M09 Q1027=
202203130320 METAR ESMX 130320Z AUTO VRB02KT 9999 NCD M06/M08 Q1026=
202203130250 METAR ESMX 130250Z AUTO 16002KT 9999 NCD M06/M09 Q1026=
202203130220 METAR ESMX 130220Z AUTO 00000KT 9999 NCD M05/M08 Q1026=
202203130150 METAR ESMX 130150Z AUTO 16002KT 9999 NCD M04/M08 Q1026=
202203130120 METAR ESMX 130120Z AUTO VRB01KT 9999 NCD M05/M09 Q1027=
202203130050 METAR ESMX 130050Z AUTO 16002KT 9999 NCD M03/M08 Q1027=
202203130020 METAR ESMX 130020Z AUTO 16003KT 9999 NCD M03/M08 Q1027=
202203122350 METAR ESMX 122350Z AUTO 09003KT 030V140 9999 NCD M03/M08 Q1027=
202203122320 METAR ESMX 122320Z AUTO 16003KT 9999 NCD M03/M08 Q1027=
202203122250 METAR ESMX 122250Z AUTO 16003KT 9999 NCD M02/M09 Q1027=
202203122220 METAR ESMX 122220Z AUTO 00000KT 9999 NCD M02/M09 Q1027=
202203122150 METAR ESMX 122150Z AUTO 16003KT 9999 NCD M00/M10 Q1027=
202203122120 METAR ESMX 122120Z AUTO 15004KT 100V180 9999 NCD 01/M10 Q1027=
202203122050 METAR ESMX 122050Z AUTO 15005KT 9999 NCD 02/M11 Q1027=
202203122020 METAR ESMX 122020Z AUTO 14005KT 100V190 9999 NCD 02/M10 Q1027=
202203121950 METAR ESMX 121950Z AUTO 14005KT 9999 NCD 02/M12 Q1027=
202203121920 METAR ESMX 121920Z AUTO 15003KT 9999 NCD 03/M12 Q1027=
202203121850 METAR ESMX 121850Z AUTO 16005KT 9999 NCD 04/M11 Q1027=
202203121820 METAR ESMX 121820Z AUTO 15004KT 9999 NCD 05/M11 Q1027=
202203121750 METAR ESMX 121750Z AUTO 14003KT 9999 NCD 05/M12 Q1027=
202203121720 METAR ESMX 121720Z AUTO 14004KT 9999 NCD 06/M13 Q1027=
202203121650 METAR ESMX 121650Z 14004KT CAVOK 08/M14 Q1026=
202203121620 METAR ESMX 121620Z 14005KT 090V170 9999 NSC 09/M13 Q1027=
202203121550 METAR ESMX 121550Z AUTO 17007KT 9999 NCD 09/M13 Q1027=
202203121520 METAR ESMX 121520Z AUTO 17007KT 9999 NCD 09/M14 Q1027=
202203121450 METAR ESMX 121450Z AUTO 16008KT 120V200 9999 NCD 10/M14 Q1027=
202203121420 METAR ESMX 121420Z AUTO 16007KT 120V200 9999 NCD 10/M13 Q1027=
202203121350 METAR ESMX 121350Z AUTO 17008KT 9999 NCD 10/M13 Q1027=
202203121320 METAR ESMX 121320Z AUTO 14007KT 110V170 9999 NCD 10/M12 Q1027=
202203121250 METAR ESMX 121250Z AUTO 15009KT 100V190 9999 NCD 10/M10 Q1027=
202203121220 METAR ESMX 121220Z AUTO 14007KT 100V180 9999 NCD 09/M09 Q1028=
202203121150 METAR ESMX 121150Z AUTO 15007KT 110V190 9999 NCD 09/M09 Q1028=
202203121120 METAR ESMX 121120Z AUTO 16008KT 130V200 9999 NCD 08/M08 Q1028=
202203121050 METAR ESMX 121050Z AUTO 16007KT 120V190 9999 NCD 08/M08 Q1028=
202203121020 METAR ESMX 121020Z AUTO 14007KT 100V160 9999 NCD 06/M06 Q1028=
202203120950 METAR ESMX 120950Z AUTO 14006KT 100V180 9999 NCD 05/M05 Q1029=
202203120920 METAR ESMX 120920Z AUTO 16007KT 9999 NCD 04/M04 Q1029=
202203120850 METAR ESMX 120850Z AUTO 15006KT 110V190 9999 NCD 03/M04 Q1029=
202203120820 METAR ESMX 120820Z AUTO 15007KT 9999 NCD 02/M03 Q1029=
202203120750 METAR ESMX 120750Z AUTO 15007KT 9999 NCD 02/M03 Q1029=
202203120720 METAR ESMX 120720Z AUTO 15007KT 9999 NCD 01/M03 Q1028=
202203120650 METAR ESMX 120650Z AUTO 14005KT 9999 NCD 00/M03 Q1028=
202203120620 METAR ESMX 120620Z AUTO 14004KT 9999 NCD M01/M04 Q1028=
202203120550 METAR ESMX 120550Z AUTO 14004KT 9999 NCD M01/M04 Q1028=
202203120520 METAR ESMX 120520Z AUTO 15005KT 9999 NCD M01/M04 Q1028=
202203120450 METAR ESMX 120450Z AUTO 14005KT 110V170 9999 NCD M01/M04 Q1028=
202203120420 METAR ESMX 120420Z AUTO 14004KT 110V170 9999 NCD M01/M04 Q1029=
202203120350 METAR ESMX 120350Z AUTO 15004KT 9999 NCD M02/M04 Q1029=
202203120320 METAR ESMX 120320Z AUTO 15004KT 9999 NCD M02/M04 Q1029=
202203120250 METAR ESMX 120250Z AUTO 15003KT 9999 NCD M01/M04 Q1029=
202203120220 METAR ESMX 120220Z AUTO 14004KT 9999 NCD M01/M04 Q1029=
202203120150 METAR ESMX 120150Z AUTO 15005KT 9999 NCD M01/M04 Q1029=
202203120120 METAR ESMX 120120Z AUTO 14005KT 9999 NCD M00/M04 Q1029=
202203120050 METAR ESMX 120050Z AUTO 15005KT 9999 NCD M01/M04 Q1029=
202203120020 METAR ESMX 120020Z AUTO 16004KT 9999 NCD M01/M04 Q1029=
202203112350 METAR ESMX 112350Z AUTO 15004KT 120V180 9999 NCD M00/M04 Q1029=
202203112320 METAR ESMX 112320Z AUTO 14005KT 110V170 9999 NCD M00/M05 Q1029=
202203112250 METAR ESMX 112250Z AUTO 15006KT 9999 NCD M00/M05 Q1030=
202203112220 METAR ESMX 112220Z AUTO 16006KT 9999 NCD M00/M06 Q1030=
202203112150 METAR ESMX 112150Z AUTO 14004KT 110V170 9999 NCD M00/M05 Q1030=
202203112120 METAR ESMX 112120Z AUTO 13004KT 9999 NCD M01/M06 Q1030=
202203112050 METAR ESMX 112050Z AUTO 14005KT 110V170 9999 NCD M00/M05 Q1030=
202203112020 METAR ESMX 112020Z AUTO 14005KT 110V170 9999 NCD M00/M05 Q1030=
202203111950 METAR ESMX 111950Z AUTO 13005KT 100V170 9999 NCD M00/M06 Q1030=
202203111920 METAR ESMX 111920Z AUTO 15006KT 9999 NCD 00/M06 Q1030=
202203111850 METAR ESMX 111850Z AUTO 15006KT 9999 NCD 01/M06 Q1030=
202203111820 METAR ESMX 111820Z AUTO 15008KT 9999 NCD 01/M06 Q1030=
202203111750 METAR ESMX 111750Z AUTO 15007KT 9999 NCD 02/M08 Q1030=
202203111720 METAR ESMX 111720Z AUTO 15005KT 9999 NCD 03/M10 Q1030=
202203111650 METAR ESMX 111650Z 15007KT CAVOK 04/M12 Q1030=
202203111620 METAR ESMX 111620Z 15006KT CAVOK 05/M13 Q1030=
202203111550 METAR ESMX 111550Z 16007KT CAVOK 06/M13 Q1031=
202203111520 METAR ESMX 111520Z 17008KT CAVOK 07/M13 Q1031=
202203111450 METAR ESMX 111450Z 17007KT CAVOK 07/M12 Q1031=
202203111420 METAR ESMX 111420Z 16008KT 110V190 CAVOK 07/M14 Q1031=
202203111350 METAR ESMX 111350Z 17011KT CAVOK 08/M12 Q1031=
202203111320 METAR ESMX 111320Z 15010KT 120V190 CAVOK 07/M14 Q1032=
202203111250 METAR ESMX 111250Z AUTO 16010KT 9999 NCD 07/M12 Q1032=
202203111220 METAR ESMX 111220Z 14010KT CAVOK 07/M11 Q1032=
202203111150 METAR ESMX 111150Z 17010KT 130V190 CAVOK 07/M10 Q1032=
202203111120 METAR ESMX 111120Z 15010KT CAVOK 06/M08 Q1033=
202203111050 METAR ESMX 111050Z 18009KT 140V210 CAVOK 05/M08 Q1033=
202203111020 METAR ESMX 111020Z 16009KT 110V190 CAVOK 05/M06 Q1033=
202203110950 METAR ESMX 110950Z 15009KT CAVOK 03/M05 Q1033=
202203110920 METAR COR ESMX 110920Z 15008KT CAVOK 03/M04 Q1033=
202203110850 METAR ESMX 110850Z 15009KT CAVOK 01/M03 Q1033=
202203110820 METAR ESMX 110820Z 15009KT CAVOK 01/M03 Q1033=
202203110750 METAR ESMX 110750Z 15008KT 110V180 CAVOK 00/M03 Q1033=
202203110720 METAR ESMX 110720Z 16005KT CAVOK M00/M03 Q1033=
202203110650 METAR COR ESMX 110650Z 16005KT CAVOK M01/M03 Q1033=
202203110620 METAR ESMX 110620Z AUTO 16005KT 9999 NCD M01/M03 Q1033=
202203110550 METAR ESMX 110550Z AUTO 16004KT 9999 NCD M02/M03 Q1033=
202203110520 METAR ESMX 110520Z AUTO 16004KT 9999 NCD M02/M03 Q1033=
202203110450 METAR ESMX 110450Z AUTO 16004KT 9999 NCD M02/M03 Q1033=
202203110420 METAR ESMX 110420Z AUTO 16004KT 9999 NCD M03/M03 Q1033=
202203110350 METAR ESMX 110350Z AUTO 15005KT 9999 NCD M02/M03 Q1033=
202203110320 METAR ESMX 110320Z AUTO 14004KT 9999 NCD M02/M03 Q1033=
202203110250 METAR ESMX 110250Z AUTO 15004KT 9999 NCD M02/M03 Q1033=
202203110220 METAR ESMX 110220Z AUTO 14005KT 9999 NCD M02/M03 Q1033=
202203110150 METAR ESMX 110150Z AUTO 14005KT 9999 NCD M02/M02 Q1033=
202203110120 METAR ESMX 110120Z 14007KT CAVOK M01/M02 Q1033=
202203110050 METAR ESMX 110050Z 15006KT CAVOK M01/M02 Q1033=
202203110020 METAR ESMX 110020Z 14005KT CAVOK M02/M03 Q1033=
202203102350 METAR ESMX 102350Z 14004KT CAVOK M03/M03 Q1033=
202203102320 METAR ESMX 102320Z VRB02KT CAVOK M04/M04 Q1034=
202203102250 METAR ESMX 102250Z VRB02KT CAVOK M03/M03 Q1034=
202203102220 METAR ESMX 102220Z AUTO 14002KT 9999 NCD M03/M04 Q1034=
202203102150 METAR COR ESMX 102150Z 14002KT CAVOK M03/M04 Q1034=
202203102120 METAR ESMX 102120Z 14004KT CAVOK M02/M03 Q1034=
202203102050 METAR ESMX 102050Z AUTO 13003KT 9999 NCD M01/M03 Q1034=
202203102020 METAR ESMX 102020Z AUTO 14005KT 9999 NCD M01/M03 Q1034=
202203101950 METAR ESMX 101950Z AUTO 14005KT 100V170 9999 NCD M01/M03 Q1034=
202203101920 METAR ESMX 101920Z AUTO 14005KT 090V180 9999 NCD M00/M03 Q1034=
202203101850 METAR ESMX 101850Z AUTO 17004KT 9999 NCD M00/M03 Q1034=
202203101820 METAR ESMX 101820Z AUTO 17005KT 9999 NCD 00/M04 Q1034=
202203101750 METAR ESMX 101750Z AUTO 17007KT 9999 NCD 01/M04 Q1034=
202203101720 METAR ESMX 101720Z AUTO 16006KT 9999 NCD 02/M05 Q1033=
202203101650 METAR ESMX 101650Z AUTO 16007KT 9999 NCD 03/M05 Q1033=
202203101620 METAR ESMX 101620Z AUTO 15008KT 9999 NCD 04/M05 Q1033=
202203101550 METAR ESMX 101550Z 17009KT CAVOK 05/M03 Q1033=
202203101520 METAR ESMX 101520Z 15010KT 130V190 CAVOK 05/M04 Q1033=
202203101450 METAR ESMX 101450Z 16009KT 130V190 CAVOK 05/M04 Q1033=
202203101420 METAR ESMX 101420Z 15009KT 120V190 CAVOK 05/M04 Q1033=
202203101350 METAR ESMX 101350Z 17009KT CAVOK 06/M03 Q1034=
202203101320 METAR ESMX 101320Z 14008KT 100V190 CAVOK 05/M04 Q1034=
202203101250 METAR ESMX 101250Z 17010KT CAVOK 05/M04 Q1034=
202203101220 METAR ESMX 101220Z 16010KT CAVOK 05/M03 Q1034=
202203101150 METAR ESMX 101150Z 17010KT 140V200 CAVOK 05/M04 Q1034=
202203101120 METAR ESMX 101120Z 17009KT 120V190 CAVOK 04/M03 Q1034=
202203101050 METAR ESMX 101050Z 16009KT 120V200 9999 FEW024 04/M03 Q1034=
202203101020 METAR ESMX 101020Z 14008KT 090V200 9999 SCT023 04/M02 Q1034=
202203100950 METAR ESMX 100950Z 15008KT 110V190 9999 BKN021 03/M03 Q1034=
202203100920 METAR ESMX 100920Z 12009KT 080V160 9999 BKN019 02/M03 Q1034=
202203100850 METAR ESMX 100850Z 15010KT 110V170 9999 BKN019 02/M02 Q1034=
202203100820 METAR ESMX 100820Z 14008KT 9999 BKN018 01/M03 Q1034=
202203100750 METAR ESMX 100750Z 14007KT 080V170 9999 BKN018 01/M02 Q1034=
202203100720 METAR ESMX 100720Z 16009KT 9999 BKN016 01/M02 Q1034=
202203100650 METAR ESMX 100650Z 14005KT 100V170 9999 BKN013 01/M01 Q1034=
202203100620 METAR ESMX 100620Z AUTO 14007KT 100V180 9999 OVC011/// 01/M00 Q1034=
202203100550 METAR ESMX 100550Z AUTO 16007KT 9999 OVC009/// 01/M00 Q1033=
202203100520 METAR ESMX 100520Z AUTO 14007KT 110V190 9999 OVC009/// 01/M00 Q1033=
202203100450 METAR ESMX 100450Z AUTO 14007KT 100V170 9999 OVC009/// 01/00 Q1033=
202203100420 METAR ESMX 100420Z AUTO 14005KT 100V170 9999 OVC009/// 01/00 Q1033=
202203100350 METAR ESMX 100350Z AUTO 15005KT 120V190 9999 OVC009/// 01/00 Q1033=
202203100320 METAR ESMX 100320Z AUTO 15004KT 9999 FEW006/// OVC009/// 01/00 Q1033=
202203100250 METAR ESMX 100250Z AUTO 15006KT 110V190 9999 OVC004/// 01/00 Q1033 REUP RESHUP REFZRA=
202203100220 METAR ESMX 100220Z AUTO 16005KT 8000 BR FEW002/// OVC004/// 01/00 Q1033=
202203100150 METAR ESMX 100150Z 13006KT 070V170 7000 BR OVC003 00/00 Q1033=
202203100120 METAR ESMX 100120Z 15005KT 7000 BR OVC002 01/01 Q1032=
202203100050 METAR ESMX 100050Z 14006KT 100V170 8000 BR OVC002 01/01 Q1032=
202203100020 METAR ESMX 100020Z 14007KT 110V170 6000 BR OVC003 01/01 Q1032=
202203092350 METAR ESMX 092350Z 15006KT 4200 BR OVC003 01/01 Q1032=
202203092320 METAR ESMX 092320Z 15005KT 5000 BR OVC004 01/01 Q1032=
202203092250 METAR ESMX 092250Z 14004KT 9999 OVC005 01/00 Q1032=
202203092220 METAR ESMX 092220Z 13005KT 100V170 9999 OVC005 01/01 Q1031=
202203092150 METAR ESMX 092150Z 12005KT 070V170 9999 BKN005 OVC007 01/01 Q1031=
202203092120 METAR ESMX 092120Z 11006KT 070V150 9999 SCT009 01/00 Q1031=
202203092050 METAR ESMX 092050Z AUTO VRB03KT 9999 NCD 01/00 Q1031=
202203092020 METAR ESMX 092020Z AUTO 14003KT 9999 NCD 01/M00 Q1030=
202203091950 METAR ESMX 091950Z AUTO 13005KT 080V170 9999 NCD 03/M00 Q1030=
202203091920 METAR ESMX 091920Z AUTO 13004KT 080V180 9999 NCD 04/M00 Q1029=
202203091850 METAR ESMX 091850Z AUTO 13005KT 090V170 9999 NCD 05/M00 Q1029=
202203091820 METAR ESMX 091820Z AUTO 13004KT 9999 NCD 05/M01 Q1029=
202203091750 METAR ESMX 091750Z AUTO 13004KT 080V170 9999 NCD 05/M02 Q1029=
202203091720 METAR ESMX 091720Z AUTO 09004KT 060V140 6000 NCD 05/M03 Q1028=
202203091650 METAR ESMX 091650Z AUTO 17002KT 9999 NCD 06/M04 Q1028=
202203091620 METAR ESMX 091620Z AUTO 17003KT 9999 NCD 09/M04 Q1027=
202203091550 METAR ESMX 091550Z 35003KT 310V030 CAVOK 11/M05 Q1027=
202203091520 METAR ESMX 091520Z VRB02KT CAVOK 11/M05 Q1027=
202203091450 METAR ESMX 091450Z 01004KT 340V070 CAVOK 11/M05 Q1027=
202203091420 METAR ESMX 091420Z 17003KT CAVOK 11/M04 Q1027=
202203091350 METAR COR ESMX 091350Z VRB03KT CAVOK 11/M06 Q1027=
202203091320 METAR ESMX 091320Z 17002KT CAVOK 11/M06 Q1027=
202203091250 METAR ESMX 091250Z 17005KT CAVOK 10/M05 Q1027=
202203091220 METAR ESMX 091220Z AUTO 15002KT 9999 NCD 10/M05 Q1027=
202203091150 METAR ESMX 091150Z 07004KT 360V140 CAVOK 10/M04 Q1027=
202203091120 METAR ESMX 091120Z VRB04KT CAVOK 10/M03 Q1027=
202203091050 METAR ESMX 091050Z 35005KT CAVOK 08/M02 Q1027=
202203091020 METAR ESMX 091020Z 04003KT 010V080 CAVOK 07/M02 Q1027=
202203090950 METAR ESMX 090950Z VRB03KT CAVOK 05/M02 Q1027=
202203090920 METAR ESMX 090920Z 04003KT 350V070 CAVOK 03/M02 Q1027=
202203090850 METAR ESMX 090850Z VRB03KT CAVOK 02/M02 Q1026=
202203090820 METAR ESMX 090820Z VRB03KT CAVOK 00/M02 Q1026=
202203090750 METAR ESMX 090750Z 35003KT CAVOK M01/M01 Q1026=
202203090720 METAR ESMX 090720Z 36002KT CAVOK M03/M03 Q1026=
202203090650 METAR ESMX 090650Z AUTO 36001KT 9999 NCD M05/M05 Q1026=
202203090620 METAR ESMX 090620Z AUTO 32001KT 9999 NCD M08/M08 Q1026=
202203090550 METAR ESMX 090550Z AUTO 00000KT 9999 NCD M08/M08 Q1025=
202203090520 METAR ESMX 090520Z AUTO 00000KT 9999 NCD M07/M07 Q1025=
202203090450 METAR ESMX 090450Z AUTO 00000KT 9999 NCD M08/M08 Q1025=
202203090420 METAR ESMX 090420Z AUTO 00000KT 9999 NCD M07/M07 Q1025=
202203090350 METAR ESMX 090350Z AUTO 00000KT 9999 NCD M07/M07 Q1025=
202203090320 METAR ESMX 090320Z AUTO 00000KT 9999 BR NCD M07/M07 Q1025=
202203090250 METAR ESMX 090250Z AUTO 33001KT 9999 NCD M06/M07 Q1024=
202203090220 METAR ESMX 090220Z AUTO 00000KT 9999 NCD M06/M06 Q1024=
202203090150 METAR ESMX 090150Z 00000KT 1000 BCFG NSC M06/M06 Q1024=
202203090120 METAR ESMX 090120Z 00000KT 3300 BCFG NSC M05/M05 Q1024=
202203090050 METAR ESMX 090050Z 00000KT CAVOK M04/M04 Q1024=
202203090020 METAR ESMX 090020Z 00000KT 0250 R01/0900N R19/P2000N BCFG NSC M05/M05 Q1024=
202203082350 METAR ESMX 082350Z 00000KT CAVOK M04/M04 Q1024=
202203082320 METAR COR ESMX 082320Z 00000KT CAVOK M04/M04 Q1024=
202203082250 METAR ESMX 082250Z AUTO 26001KT 9999 NCD M03/M03 Q1024=
202203082220 METAR ESMX 082220Z AUTO 25002KT 9999 NCD M03/M03 Q1024=
202203082150 METAR ESMX 082150Z AUTO 26001KT 9999 NCD M02/M03 Q1024=
202203082120 METAR ESMX 082120Z AUTO 28003KT 9999 NCD M01/M02 Q1024=
202203082050 METAR ESMX 082050Z AUTO 28003KT 9999 NCD M01/M02 Q1023=
202203082020 METAR ESMX 082020Z AUTO 28003KT 9999 NCD M00/M02 Q1023=
202203081950 METAR ESMX 081950Z AUTO 28003KT 9999 NCD M01/M03 Q1023=
202203081920 METAR ESMX 081920Z AUTO 28003KT 9999 NCD 00/M03 Q1023=
202203081850 METAR ESMX 081850Z AUTO VRB02KT 9999 NCD 02/M02 Q1023=
202203081820 METAR ESMX 081820Z AUTO 27004KT 9999 NCD 02/M03 Q1023=
202203081750 METAR ESMX 081750Z AUTO 26004KT 9999 NCD 02/M02 Q1023=
202203081720 METAR ESMX 081720Z AUTO 27003KT 9999 NCD 04/M02 Q1023=
202203081650 METAR ESMX 081650Z AUTO 27004KT 9999 NCD 06/M02 Q1022=
202203081620 METAR ESMX 081620Z AUTO 28004KT 9999 NCD 07/M02 Q1022=
202203081550 METAR ESMX 081550Z 34004KT CAVOK 09/M04 Q1022=
202203081520 METAR ESMX 081520Z 36005KT 310V030 CAVOK 09/M05 Q1022=
202203081450 METAR ESMX 081450Z AUTO 34006KT 9999 NCD 09/M04 Q1022=
202203081420 METAR ESMX 081420Z 31005KT 260V350 CAVOK 09/M03 Q1023=
202203081350 METAR ESMX 081350Z 29006KT 260V330 CAVOK 09/M03 Q1023=
202203081320 METAR ESMX 081320Z 28007KT 260V330 CAVOK 09/M03 Q1023=
202203081250 METAR ESMX 081250Z 30006KT 270V330 CAVOK 09/M02 Q1023=
202203081220 METAR ESMX 081220Z 30005KT 230V360 CAVOK 09/M02 Q1023=
202203081150 METAR ESMX 081150Z AUTO 29005KT 240V350 9999 NCD 08/M02 Q1023=
202203081120 METAR ESMX 081120Z 29007KT 260V330 CAVOK 08/M03 Q1023=
202203081050 METAR ESMX 081050Z 31007KT 270V350 CAVOK 07/M02 Q1023=
202203081020 METAR ESMX 081020Z 31006KT 280V340 CAVOK 07/M01 Q1023=
202203080950 METAR ESMX 080950Z 30007KT CAVOK 06/M01 Q1023=
202203080920 METAR ESMX 080920Z 30007KT CAVOK 05/M01 Q1023=
202203080850 METAR ESMX 080850Z 29004KT 260V340 CAVOK 04/M02 Q1024=
202203080820 METAR ESMX 080820Z 28003KT 240V310 CAVOK 02/M03 Q1023=
202203080750 METAR ESMX 080750Z 00000KT CAVOK M00/M03 Q1024=
202203080720 METAR ESMX 080720Z 00000KT CAVOK M00/M04 Q1024=
202203080650 METAR ESMX 080650Z AUTO 00000KT 9999 NCD M04/M05 Q1024=
202203080620 METAR ESMX 080620Z AUTO 00000KT 9999 NCD M07/M07 Q1024=
202203080550 METAR ESMX 080550Z 00000KT CAVOK M06/M07 Q1024=
202203080520 METAR ESMX 080520Z AUTO 18002KT 9999 NCD M06/M06 Q1024=
202203080450 METAR ESMX 080450Z AUTO 16002KT 9999 NCD M05/M06 Q1024=
202203080420 METAR ESMX 080420Z AUTO 19003KT 9999 NCD M06/M07 Q1024=
202203080350 METAR ESMX 080350Z AUTO 00000KT 9999 NCD M05/M06 Q1023=
202203080320 METAR ESMX 080320Z AUTO VRB02KT 9999 NCD M04/M05 Q1023=
202203080250 METAR ESMX 080250Z AUTO 00000KT 9999 NCD M04/M05 Q1024=
202203080220 METAR ESMX 080220Z AUTO 00000KT 9999 NCD M04/M05 Q1024=
202203080150 METAR ESMX 080150Z 17002KT CAVOK M03/M06 Q1024=
202203080120 METAR ESMX 080120Z 27002KT CAVOK M04/M06 Q1024=
202203080050 METAR ESMX 080050Z 25003KT CAVOK M02/M05 Q1024=
202203080020 METAR ESMX 080020Z AUTO 20001KT 9999 NCD M04/M05 Q1024=
202203072350 METAR ESMX 072350Z VRB01KT CAVOK M02/M04 Q1024=
202203072320 METAR ESMX 072320Z 26003KT CAVOK M01/M05 Q1024=
202203072250 METAR ESMX 072250Z 25003KT CAVOK M01/M05 Q1024=
202203072220 METAR ESMX 072220Z 27003KT CAVOK M01/M05 Q1024=
202203072150 METAR ESMX 072150Z 28003KT CAVOK M00/M05 Q1024=
202203072120 METAR ESMX 072120Z 29003KT CAVOK M01/M05 Q1024=
202203072050 METAR ESMX 072050Z 28003KT CAVOK M00/M05 Q1024=
202203072020 METAR ESMX 072020Z 29003KT 9999 OVC150 01/M05 Q1024=
202203071950 METAR ESMX 071950Z 28004KT CAVOK 02/M05 Q1024=
202203071920 METAR ESMX 071920Z 29004KT CAVOK 03/M05 Q1024=
202203071850 METAR ESMX 071850Z 28004KT CAVOK 03/M06 Q1024=
202203071820 METAR ESMX 071820Z 27005KT CAVOK 02/M05 Q1023=
202203071750 METAR ESMX 071750Z 27003KT CAVOK 01/M05 Q1023=
202203071720 METAR ESMX 071720Z 26003KT CAVOK 04/M06 Q1023=
202203071650 METAR ESMX 071650Z 30004KT CAVOK 07/M06 Q1023=
202203071620 METAR ESMX 071620Z 31004KT CAVOK 07/M06 Q1023=
202203071550 METAR ESMX 071550Z 33005KT CAVOK 08/M05 Q1023=
202203071520 METAR ESMX 071520Z 36005KT 320V030 CAVOK 09/M06 Q1023=
202203071450 METAR ESMX 071450Z 01007KT CAVOK 09/M06 Q1023=
202203071420 METAR ESMX 071420Z 34008KT CAVOK 09/M06 Q1023=
202203071350 METAR ESMX 071350Z 33010KT CAVOK 10/M05 Q1023=
202203071320 METAR ESMX 071320Z 34010KT 310V010 CAVOK 09/M05 Q1023=
202203071250 METAR ESMX 071250Z 34012KT CAVOK 09/M04 Q1023=
202203071220 METAR COR ESMX 071220Z 33012KT CAVOK 09/M04 Q1023=
202203071150 METAR ESMX 071150Z AUTO 34009KT 300V010 9999 NCD 09/M03 Q1023=
202203071120 METAR ESMX 071120Z 33009KT CAVOK 09/M04 Q1024=
202203071050 METAR ESMX 071050Z 35006KT 300V030 CAVOK 08/M03 Q1024=
202203071020 METAR ESMX 071020Z 36005KT 330V030 CAVOK 07/M04 Q1024=
202203070950 METAR ESMX 070950Z 34005KT 290V020 CAVOK 06/M04 Q1024=
202203070920 METAR ESMX 070920Z 32007KT 290V360 CAVOK 05/M04 Q1024=
202203070850 METAR ESMX 070850Z 31007KT CAVOK 04/M05 Q1024=
202203070820 METAR ESMX 070820Z 31006KT 270V350 CAVOK 03/M04 Q1024=
202203070750 METAR ESMX 070750Z 33004KT CAVOK 02/M05 Q1024=
202203070720 METAR ESMX 070720Z 31006KT CAVOK 01/M06 Q1023=
202203070650 METAR COR ESMX 070650Z 32005KT CAVOK 00/M05 Q1023=
202203070620 METAR ESMX 070620Z AUTO 33005KT 9999 NCD M02/M06 Q1023=
202203070550 METAR ESMX 070550Z AUTO 33006KT 9999 NCD M01/M06 Q1023=
202203070520 METAR ESMX 070520Z AUTO 32005KT 9999 NCD M01/M07 Q1023=
202203070450 METAR ESMX 070450Z AUTO 34006KT 9999 NCD M01/M07 Q1023=
202203070420 METAR ESMX 070420Z AUTO 32007KT 9999 NCD M00/M07 Q1023=
202203070350 METAR ESMX 070350Z AUTO 32008KT 9999 NCD M00/M07 Q1023=
202203070320 METAR ESMX 070320Z AUTO 32008KT 9999 NCD M00/M07 Q1023=
202203070250 METAR ESMX 070250Z AUTO 32011KT 9999 NCD 01/M07 Q1023=
202203070220 METAR ESMX 070220Z AUTO 32006KT 290V350 9999 NCD M02/M07 Q1023=
202203070150 METAR ESMX 070150Z AUTO 29006KT 9999 NCD M02/M07 Q1023=
202203070120 METAR ESMX 070120Z AUTO 27005KT 9999 NCD M03/M07 Q1023=
202203070050 METAR ESMX 070050Z AUTO 27005KT 9999 NCD M02/M07 Q1023=
202203070020 METAR ESMX 070020Z AUTO 26004KT 9999 NCD M03/M07 Q1023=
202203062350 METAR ESMX 062350Z AUTO 27004KT 9999 NCD M03/M07 Q1023=
202203062320 METAR ESMX 062320Z AUTO 25003KT 9999 NCD M04/M07 Q1023=
202203062250 METAR ESMX 062250Z AUTO 26005KT 9999 NCD M03/M07 Q1023=
202203062220 METAR ESMX 062220Z AUTO 28005KT 9999 NCD M01/M06 Q1023=
202203062150 METAR ESMX 062150Z AUTO 29003KT 240V320 9999 NCD M00/M06 Q1023=
202203062120 METAR ESMX 062120Z AUTO 29005KT 9999 NCD M00/M06 Q1023=
202203062050 METAR ESMX 062050Z AUTO 28005KT 9999 NCD 00/M06 Q1023=
202203062020 METAR ESMX 062020Z AUTO 29005KT 9999 NCD 00/M06 Q1023=
202203061950 METAR ESMX 061950Z AUTO 29006KT 9999 NCD 00/M06 Q1023=
202203061920 METAR ESMX 061920Z AUTO 31006KT 9999 NCD 00/M06 Q1023=
202203061850 METAR ESMX 061850Z AUTO 31004KT 9999 NCD M00/M06 Q1023=
202203061820 METAR ESMX 061820Z AUTO 32005KT 9999 NCD 00/M07 Q1023=
202203061750 METAR ESMX 061750Z 31006KT CAVOK 01/M07 Q1023=
202203061720 METAR ESMX 061720Z AUTO 33005KT 9999 NCD 01/M08 Q1023=
202203061650 METAR ESMX 061650Z AUTO 33005KT 9999 NCD 03/M08 Q1022=
202203061620 METAR ESMX 061620Z 33007KT CAVOK 05/M08 Q1022=
202203061550 METAR ESMX 061550Z 33008KT 300V360 CAVOK 06/M08 Q1022=
202203061520 METAR COR ESMX 061520Z 32009KT CAVOK 07/M07 Q1022=
202203061450 METAR ESMX 061450Z AUTO 34009KT 9999 NCD 07/M07 Q1022=
202203061420 METAR ESMX 061420Z AUTO 34009KT 9999 NCD 07/M06 Q1022=
202203061350 METAR ESMX 061350Z AUTO 33010KT 9999 NCD 08/M05 Q1022=
202203061320 METAR ESMX 061320Z AUTO 32009KT 290V010 9999 NCD 07/M06 Q1022=
202203061250 METAR ESMX 061250Z AUTO 33008KT 290V010 9999 NCD 08/M05 Q1022=
202203061220 METAR ESMX 061220Z AUTO 34008KT 300V010 9999 NCD 07/M04 Q1023=
202203061150 METAR ESMX 061150Z AUTO 35006KT 300V040 9999 NCD 06/M03 Q1023=
202203061120 METAR ESMX 061120Z AUTO 35007KT 320V020 9999 NCD 06/M03 Q1023=
202203061050 METAR ESMX 061050Z AUTO 33007KT 300V010 9999 NCD 05/M03 Q1023=
202203061020 METAR ESMX 061020Z AUTO 34007KT 300V010 9999 NCD 05/M03 Q1023=
202203060950 METAR ESMX 060950Z AUTO 34007KT 300V010 9999 NCD 04/M02 Q1023=
202203060920 METAR ESMX 060920Z AUTO 32008KT 9999 NCD 03/M01 Q1023=
202203060850 METAR ESMX 060850Z AUTO 32008KT 290V350 9999 NCD 02/M01 Q1023=
202203060820 METAR ESMX 060820Z AUTO 31008KT 270V340 9999 SCT008/// 00/M02 Q1023=
202203060750 METAR ESMX 060750Z AUTO 30006KT 270V330 9999 OVC008/// M01/M01 Q1023=
202203060720 METAR ESMX 060720Z AUTO 28004KT 9999 OVC009/// M01/M02 Q1023=
202203060650 METAR ESMX 060650Z AUTO 27003KT 240V300 9999 OVC011/// M01/M02 Q1023=
202203060620 METAR ESMX 060620Z AUTO 29003KT 9999 BKN009/// OVC013/// M02/M02 Q1023=
202203060550 METAR ESMX 060550Z AUTO 30002KT 9999 BKN009/// M02/M03 Q1023=
202203060520 METAR ESMX 060520Z AUTO 27004KT 9999 FEW012/// M03/M03 Q1023=
202203060450 METAR ESMX 060450Z AUTO 28005KT 9999 NCD M03/M03 Q1023=
202203060420 METAR ESMX 060420Z AUTO 26005KT 9999 NCD M02/M03 Q1023=
202203060350 METAR ESMX 060350Z AUTO 25005KT 9999 FEW028/// M02/M03 Q1023=
202203060320 METAR ESMX 060320Z AUTO 26006KT 9999 OVC030/// M01/M03 Q1023=
202203060250 METAR ESMX 060250Z AUTO 27006KT 9999 OVC031/// M01/M03 Q1023=
202203060220 METAR ESMX 060220Z AUTO 27006KT 9999 OVC032/// M01/M03 Q1023=
202203060150 METAR ESMX 060150Z AUTO 26005KT 9999 OVC032/// M01/M03 Q1024=
202203060120 METAR ESMX 060120Z AUTO 28006KT 250V310 9999 OVC032/// M01/M03 Q1024=
202203060050 METAR ESMX 060050Z AUTO 26005KT 9999 OVC031/// M01/M03 Q1024=
202203060020 METAR ESMX 060020Z AUTO 28005KT 9999 OVC033/// M01/M04 Q1024=
202203052350 METAR ESMX 052350Z AUTO 29005KT 9999 OVC033/// M01/M04 Q1024=
202203052320 METAR ESMX 052320Z AUTO 28005KT 9999 OVC034/// M01/M04 Q1024=
202203052250 METAR ESMX 052250Z AUTO 26005KT 9999 OVC033/// M01/M04 Q1025=
202203052220 METAR ESMX 052220Z AUTO 29005KT 9999 OVC031/// M01/M04 Q1025=
202203052150 METAR ESMX 052150Z AUTO 29006KT 9999 OVC031/// M01/M04 Q1025=
202203052120 METAR ESMX 052120Z AUTO 28004KT 9999 OVC032/// M01/M04 Q1025=
202203052050 METAR ESMX 052050Z AUTO 29005KT 9999 OVC032/// M01/M04 Q1025=
202203052020 METAR ESMX 052020Z AUTO 30005KT 9999 OVC033/// M01/M04 Q1025=
202203051950 METAR ESMX 051950Z AUTO 29005KT 9999 OVC033/// M01/M04 Q1024=
202203051920 METAR ESMX 051920Z AUTO 27004KT 9999 OVC034/// M02/M04 Q1024=
202203051850 METAR ESMX 051850Z AUTO 25003KT 9999 BKN034/// M03/M05 Q1024=
202203051820 METAR ESMX 051820Z AUTO 24004KT 9999 NCD M02/M05 Q1024=
202203051750 METAR ESMX 051750Z AUTO 25003KT 9999 NCD M02/M05 Q1024=
202203051720 METAR ESMX 051720Z AUTO 25003KT 9999 NCD M01/M06 Q1024=
202203051650 METAR ESMX 051650Z AUTO 26003KT 9999 NCD M00/M05 Q1024=
202203051620 METAR ESMX 051620Z AUTO 26003KT 9999 NCD 02/M06 Q1025=
202203051550 METAR ESMX 051550Z AUTO 28004KT 250V320 9999 NCD 03/M06 Q1025=
202203051520 METAR ESMX 051520Z AUTO 25004KT 230V290 9999 NCD 03/M06 Q1025=
202203051450 METAR ESMX 051450Z AUTO VRB03KT 9999 NCD 04/M05 Q1025=
202203051420 METAR ESMX 051420Z AUTO 27004KT 230V350 9999 NCD 04/M05 Q1025=
202203051350 METAR ESMX 051350Z AUTO 31004KT 9999 NCD 04/M04 Q1025=
202203051320 METAR ESMX 051320Z AUTO 34003KT 300V010 9999 NCD 03/M05 Q1026=
202203051250 METAR ESMX 051250Z AUTO 30005KT 270V330 9999 NCD 04/M04 Q1026=
202203051220 METAR ESMX 051220Z AUTO 32005KT 290V020 9999 NCD 03/M05 Q1026=
202203051150 METAR ESMX 051150Z AUTO 18004KT 9999 NCD 03/M04 Q1026=
202203051120 METAR ESMX 051120Z AUTO VRB02KT 9999 NCD 03/M04 Q1027=
202203051050 METAR ESMX 051050Z AUTO 01004KT 340V120 9999 SCT023/// 02/M05 Q1027=
202203051020 METAR ESMX 051020Z AUTO 29005KT 9999 SCT023/// 01/M05 Q1027=
202203050950 METAR ESMX 050950Z AUTO 25003KT 190V300 9999 SCT021/// 02/M05 Q1027=
202203050920 METAR ESMX 050920Z AUTO 22004KT 190V270 9999 BKN020/// 01/M05 Q1027=
202203050850 METAR ESMX 050850Z AUTO 22003KT 9999 NCD 00/M03 Q1027=
202203050820 METAR ESMX 050820Z AUTO 00000KT 9999 NCD M00/M03 Q1027=
202203050750 METAR ESMX 050750Z AUTO 00000KT 9999 NCD M02/M03 Q1027=
202203050720 METAR ESMX 050720Z AUTO 00000KT 9999 NCD M05/M05 Q1027=
202203050650 METAR ESMX 050650Z AUTO 10001KT 9999 NCD M07/M07 Q1027=
202203050620 METAR ESMX 050620Z AUTO 00000KT 9999 NCD M09/M10 Q1027=
202203050550 METAR ESMX 050550Z AUTO 00000KT 9999 NCD M09/M10 Q1027=
202203050520 METAR ESMX 050520Z AUTO 00000KT 9999 NCD M09/M10 Q1027=
202203050450 METAR ESMX 050450Z AUTO 00000KT 9999 NCD M09/M09 Q1027=
202203050420 METAR ESMX 050420Z AUTO 00000KT 9999 NCD M09/M09 Q1027=
202203050350 METAR ESMX 050350Z AUTO 00000KT 9999 NCD M08/M09 Q1027=
202203050320 METAR ESMX 050320Z AUTO 00000KT 9999 NCD M08/M09 Q1027=
202203050250 METAR ESMX 050250Z AUTO 00000KT 9999 NCD M08/M08 Q1027=
202203050220 METAR ESMX 050220Z AUTO 00000KT 9999 NCD M08/M08 Q1027=
202203050150 METAR ESMX 050150Z AUTO 00000KT 9999 NCD M08/M09 Q1027=
202203050120 METAR ESMX 050120Z AUTO 00000KT 9999 NCD M08/M09 Q1027=
202203050050 METAR ESMX 050050Z AUTO 00000KT 9999 BR NCD M07/M07 Q1027=
202203050020 METAR ESMX 050020Z AUTO 00000KT 9999 BR NCD M07/M08 Q1027=
202203042350 METAR ESMX 042350Z AUTO 00000KT 9999 NCD M08/M08 Q1027=
202203042320 METAR ESMX 042320Z AUTO 19001KT 9999 NCD M07/M07 Q1027=
202203042250 METAR ESMX 042250Z AUTO 20001KT 9999 NCD M06/M06 Q1027=
202203042220 METAR ESMX 042220Z AUTO 01001KT 9999 NCD M06/M06 Q1027=
202203042150 METAR ESMX 042150Z AUTO 00000KT 9999 NCD M05/M06 Q1027=
202203042120 METAR ESMX 042120Z AUTO VRB01KT 9999 NCD M04/M05 Q1027=
202203042050 METAR ESMX 042050Z AUTO 10002KT 9999 NCD M03/M05 Q1027=
202203042020 METAR ESMX 042020Z AUTO 11002KT 9999 NCD M03/M05 Q1027=
202203041950 METAR ESMX 041950Z AUTO VRB03KT 9999 NCD M02/M06 Q1027=
202203041920 METAR ESMX 041920Z AUTO 08003KT 060V190 9999 NCD M02/M06 Q1027=
202203041850 METAR ESMX 041850Z AUTO VRB02KT 9999 NCD M04/M05 Q1027=
202203041820 METAR ESMX 041820Z AUTO 00000KT 9999 NCD M03/M05 Q1027=
202203041750 METAR ESMX 041750Z VRB01KT CAVOK M02/M05 Q1026=
202203041720 METAR ESMX 041720Z 35002KT CAVOK M01/M06 Q1026=
202203041650 METAR ESMX 041650Z 36003KT CAVOK 01/M05 Q1026=
202203041620 METAR ESMX 041620Z 01004KT CAVOK 02/M06 Q1026=
202203041550 METAR ESMX 041550Z 35004KT CAVOK 03/M06 Q1026=
202203041520 METAR ESMX 041520Z 36005KT CAVOK 04/M05 Q1026=
202203041450 METAR ESMX 041450Z AUTO 35005KT 320V020 9999 NCD 04/M06 Q1026=
202203041420 METAR ESMX 041420Z AUTO 35005KT 300V030 9999 NCD 04/M06 Q1026=
202203041350 METAR COR ESMX 041350Z 35005KT 320V030 CAVOK 04/M06 Q1026=
202203041320 METAR ESMX 041320Z 34006KT CAVOK 04/M05 Q1027=
202203041250 METAR ESMX 041250Z 35007KT CAVOK 04/M04 Q1027=
202203041220 METAR ESMX 041220Z 36007KT CAVOK 03/M04 Q1027=
202203041150 METAR ESMX 041150Z 36006KT 330V030 CAVOK 02/M04 Q1027=
202203041120 METAR ESMX 041120Z 34007KT CAVOK 02/M05 Q1027=
202203041050 METAR ESMX 041050Z 02006KT 9999 FEW015 01/M04 Q1027=
202203041020 METAR ESMX 041020Z 04006KT 010V070 9999 FEW015 01/M04 Q1027=
202203040950 METAR ESMX 040950Z 07006KT 030V100 9999 FEW013 M00/M04 Q1027=
202203040920 METAR ESMX 040920Z 06007KT 020V090 9999 FEW012 M00/M04 Q1027=
202203040850 METAR ESMX 040850Z 05006KT 010V100 9999 FEW009 M01/M04 Q1027=
202203040820 METAR ESMX 040820Z 05007KT 9999 FEW009 M01/M04 Q1027=
202203040750 METAR ESMX 040750Z 02005KT CAVOK M02/M05 Q1027=
202203040720 METAR ESMX 040720Z 02004KT CAVOK M03/M05 Q1026=
202203040650 METAR ESMX 040650Z AUTO 34004KT 9999 NCD M06/M06 Q1026=
202203040620 METAR ESMX 040620Z AUTO VRB01KT 9999 NCD M06/M07 Q1026=
202203040550 METAR ESMX 040550Z AUTO 00000KT 9999 NCD M06/M07 Q1025=
202203040520 METAR ESMX 040520Z AUTO 33004KT 9999 NCD M05/M06 Q1025=
202203040450 METAR ESMX 040450Z AUTO 03003KT 9999 NCD M04/M05 Q1025=
202203040420 METAR ESMX 040420Z AUTO 02004KT 9999 NCD M04/M05 Q1025=
202203040350 METAR ESMX 040350Z AUTO 32003KT 9999 NCD M04/M05 Q1025=
202203040320 METAR ESMX 040320Z AUTO 33004KT 9999 NCD M05/M06 Q1025=
202203040250 METAR ESMX 040250Z AUTO 36003KT 9999 NCD M05/M05 Q1025=
202203040220 METAR ESMX 040220Z AUTO 36002KT 9999 NCD M05/M06 Q1025=
202203040150 METAR ESMX 040150Z 35002KT CAVOK M05/M05 Q1025=
202203040120 METAR ESMX 040120Z 33003KT CAVOK M05/M05 Q1025=
202203040050 METAR ESMX 040050Z AUTO 36002KT 9999 NCD M04/M04 Q1025=
202203040020 METAR ESMX 040020Z AUTO 34003KT 9999 NCD M05/M05 Q1025=
202203032350 METAR ESMX 032350Z 36002KT CAVOK M05/M05 Q1025=
202203032320 METAR ESMX 032320Z 00000KT CAVOK M04/M04 Q1025=
202203032250 METAR ESMX 032250Z 31002KT CAVOK M04/M05 Q1024=
202203032220 METAR ESMX 032220Z 02003KT CAVOK M02/M04 Q1024=
202203032150 METAR ESMX 032150Z 33003KT CAVOK M03/M04 Q1024=
202203032120 METAR ESMX 032120Z 35004KT 9999 NSC M03/M04 Q1024=
202203032050 METAR ESMX 032050Z AUTO 34004KT 9999 NCD M02/M04 Q1024=
202203032020 METAR ESMX 032020Z AUTO 33005KT 9999 NCD M01/M04 Q1024=
202203031950 METAR ESMX 031950Z AUTO 01005KT 9999 NCD M00/M04 Q1024=
202203031920 METAR ESMX 031920Z AUTO 36005KT 9999 BKN042/// M01/M03 Q1024=
202203031850 METAR ESMX 031850Z AUTO 04003KT 9999 BKN041/// M02/M03 Q1024=
202203031820 METAR ESMX 031820Z AUTO VRB02KT 9999 NCD M01/M03 Q1023=
202203031750 METAR ESMX 031750Z AUTO 36003KT 9999 NCD M01/M04 Q1023=
202203031720 METAR ESMX 031720Z AUTO 35003KT 9999 NCD 00/M04 Q1023=
202203031650 METAR ESMX 031650Z AUTO 35004KT 9999 NCD 02/M03 Q1022=
202203031620 METAR ESMX 031620Z AUTO 01005KT 9999 NCD 04/M03 Q1022=
202203031550 METAR ESMX 031550Z 01006KT CAVOK 06/M03 Q1022=
202203031520 METAR ESMX 031520Z 01008KT CAVOK 06/M03 Q1022=
202203031450 METAR ESMX 031450Z 01010KT 340V040 9999 FEW043 07/M03 Q1022=
202203031420 METAR ESMX 031420Z 02009KT 350V060 CAVOK 07/M03 Q1022=
202203031350 METAR ESMX 031350Z 01011KT CAVOK 07/M03 Q1022=
202203031320 METAR ESMX 031320Z 36009KT CAVOK 07/M03 Q1022=
202203031250 METAR ESMX 031250Z 36010KT CAVOK 07/M02 Q1022=
202203031220 METAR ESMX 031220Z 36010KT CAVOK 07/M03 Q1022=
202203031150 METAR ESMX 031150Z 34009KT CAVOK 07/M02 Q1022=
202203031120 METAR ESMX 031120Z 34008KT 310V020 CAVOK 06/M02 Q1022=
202203031050 METAR ESMX 031050Z 01007KT 330V030 CAVOK 05/M02 Q1022=
202203031020 METAR ESMX 031020Z 36008KT CAVOK 04/M02 Q1022=
202203030950 METAR ESMX 030950Z 01008KT CAVOK 04/M02 Q1022=
202203030920 METAR ESMX 030920Z 36008KT CAVOK 03/M02 Q1022=
202203030850 METAR ESMX 030850Z 01010KT CAVOK 03/M01 Q1022=
202203030820 METAR ESMX 030820Z 01008KT CAVOK 02/M02 Q1022=
202203030750 METAR ESMX 030750Z 35006KT CAVOK 01/M02 Q1022=
202203030720 METAR ESMX 030720Z 36005KT CAVOK M01/M03 Q1022=
202203030650 METAR ESMX 030650Z 01004KT CAVOK M01/M03 Q1022=
202203030620 METAR ESMX 030620Z AUTO 01003KT 9999 NCD M03/M04 Q1022=
202203030550 METAR ESMX 030550Z AUTO 35003KT 9999 NCD M03/M04 Q1022=
202203030520 METAR ESMX 030520Z AUTO 36003KT 350V080 9999 NCD M02/M03 Q1022=
202203030450 METAR ESMX 030450Z AUTO 34005KT 9999 NCD M02/M04 Q1021=
202203030420 METAR ESMX 030420Z AUTO 35007KT 9999 NCD M02/M03 Q1021=
202203030350 METAR ESMX 030350Z AUTO 35005KT 9999 NCD M03/M03 Q1021=
202203030320 METAR ESMX 030320Z AUTO 31003KT 9999 NCD M04/M04 Q1022=
202203030250 METAR ESMX 030250Z AUTO 31003KT 9999 NCD M05/M05 Q1022=
202203030220 METAR ESMX 030220Z AUTO 00000KT 9999 BR NCD M04/M04 Q1022=
202203030150 METAR ESMX 030150Z AUTO VRB02KT 9999 NCD M03/M03 Q1022=
202203030120 METAR ESMX 030120Z 30002KT CAVOK M04/M04 Q1022=
202203030050 METAR ESMX 030050Z 22002KT CAVOK M04/M04 Q1022=
202203030020 METAR ESMX 030020Z 30003KT CAVOK M04/M04 Q1022=
202203022350 METAR ESMX 022350Z AUTO 30003KT 9999 NCD M03/M03 Q1022=
202203022320 METAR ESMX 022320Z AUTO 31003KT 9999 NCD M02/M02 Q1022=
202203022250 METAR ESMX 022250Z AUTO 32003KT 9999 NCD M01/M01 Q1022=
202203022220 METAR ESMX 022220Z 33003KT CAVOK M01/M01 Q1022=
202203022150 METAR ESMX 022150Z 32004KT CAVOK M01/M02 Q1022=
202203022120 METAR ESMX 022120Z 33003KT CAVOK M00/M01 Q1022=
202203022050 METAR ESMX 022050Z AUTO 34003KT 9999 NCD M00/M02 Q1022=
202203022020 METAR ESMX 022020Z AUTO 29004KT 9999 NCD M00/M02 Q1022=
202203021950 METAR ESMX 021950Z AUTO 29004KT 9999 NCD 00/M02 Q1022=
202203021920 METAR ESMX 021920Z AUTO 32004KT 9999 NCD 01/M02 Q1022=
202203021850 METAR ESMX 021850Z AUTO 32004KT 9999 NCD 01/M02 Q1022=
202203021820 METAR ESMX 021820Z AUTO 29004KT 9999 NCD 01/M01 Q1022=
202203021750 METAR ESMX 021750Z AUTO 29005KT 9999 NCD 02/M01 Q1022=
202203021720 METAR ESMX 021720Z AUTO 27005KT 9999 NCD 02/M01 Q1022=
202203021650 METAR ESMX 021650Z AUTO 29003KT 9999 NCD 04/M01 Q1022=
202203021620 METAR ESMX 021620Z AUTO 28004KT 9999 NCD 05/M01 Q1022=
202203021550 METAR ESMX 021550Z 29005KT CAVOK 06/M01 Q1022=
202203021520 METAR ESMX 021520Z 29006KT 260V350 CAVOK 07/M01 Q1022=
202203021450 METAR ESMX 021450Z 28007KT CAVOK 07/M01 Q1022=
202203021420 METAR ESMX 021420Z 29007KT 230V320 CAVOK 07/M01 Q1022=
202203021350 METAR ESMX 021350Z 27007KT CAVOK 08/M01 Q1023=
202203021320 METAR ESMX 021320Z 28006KT CAVOK 07/M01 Q1023=
202203021250 METAR ESMX 021250Z 28006KT 230V330 CAVOK 07/M00 Q1023=
202203021220 METAR ESMX 021220Z 27009KT CAVOK 07/M00 Q1024=
202203021150 METAR ESMX 021150Z 31009KT CAVOK 06/M00 Q1024=
202203021120 METAR ESMX 021120Z 31008KT CAVOK 06/M00 Q1025=
202203021050 METAR ESMX 021050Z 29006KT 250V320 CAVOK 05/M00 Q1025=
202203021020 METAR ESMX 021020Z 29004KT 240V340 CAVOK 04/M00 Q1025=
202203020950 METAR ESMX 020950Z 29006KT 230V320 9999 FEW009 03/M00 Q1025=
202203020920 METAR ESMX 020920Z 26005KT 210V290 9999 BKN008 02/M00 Q1026=
202203020850 METAR ESMX 020850Z 30005KT 240V320 9999 BKN007 01/M00 Q1026=
202203020820 METAR ESMX 020820Z 30005KT 250V330 9999 OVC006 01/M00 Q1026=
202203020750 METAR ESMX 020750Z 30004KT 260V330 9999 OVC006 00/M00 Q1026=
202203020720 METAR ESMX 020720Z 29006KT 240V320 9999 OVC006 00/M01 Q1026=
202203020650 METAR ESMX 020650Z 30006KT 9999 OVC006 00/M01 Q1026=
202203020620 METAR ESMX 020620Z AUTO 29005KT 9999 OVC006/// 00/M01 Q1026=
202203020550 METAR ESMX 020550Z AUTO 29005KT 9999 OVC006/// 00/M01 Q1026=
202203020520 METAR ESMX 020520Z AUTO 30006KT 9999 OVC006/// M00/M01 Q1026=
202203020450 METAR ESMX 020450Z AUTO 31006KT 9999 OVC007/// M00/M01 Q1026=
202203020420 METAR ESMX 020420Z AUTO 31006KT 240V340 9999 OVC007/// 00/M01 Q1026=
202203020350 METAR ESMX 020350Z AUTO 31006KT 9999 OVC008/// 00/M01 Q1026=
202203020320 METAR ESMX 020320Z AUTO 30007KT 9999 OVC009/// 00/M01 Q1026=
202203020250 METAR ESMX 020250Z AUTO 31003KT 270V330 9999 OVC009/// M00/M01 Q1027=
202203020220 METAR ESMX 020220Z AUTO 00000KT 9999 BKN010/// M02/M03 Q1027=
202203020150 METAR ESMX 020150Z 30003KT 9999 SCT016 M01/M02 Q1027=
202203020120 METAR ESMX 020120Z 26003KT 9999 SCT016 M01/M03 Q1027=
202203020050 METAR ESMX 020050Z AUTO 29003KT 9999 OVC017/// M00/M02 Q1028=
202203020020 METAR ESMX 020020Z AUTO 29004KT 9999 OVC020/// 00/M02 Q1028=
202203012350 METAR ESMX 012350Z AUTO 28005KT 9999 OVC022/// 00/M03 Q1028=
202203012320 METAR ESMX 012320Z 24004KT 200V290 9999 BKN023 BKN064 01/M03 Q1028=
202203012250 METAR ESMX 012250Z 20003KT 9999 BKN022 01/M03 Q1028=
202203012220 METAR ESMX 012220Z AUTO 20003KT 9999 OVC022/// 01/M03 Q1028=
202203012150 METAR ESMX 012150Z 20004KT 9999 BKN023 01/M03 Q1028=
202203012120 METAR ESMX 012120Z 20005KT 9999 BKN027 01/M02 Q1028=
202203012050 METAR ESMX 012050Z AUTO 20003KT 9999 SCT030/// BKN084/// 00/M03 Q1029=
202203012020 METAR ESMX 012020Z AUTO 20004KT 9999 FEW076/// 00/M03 Q1029=
202203011950 METAR ESMX 011950Z AUTO 17003KT 9999 BKN076/// 01/M03 Q1029=
202203011920 METAR ESMX 011920Z AUTO 17004KT 9999 OVC088/// 01/M04 Q1028=
202203011850 METAR ESMX 011850Z AUTO 19004KT 9999 OVC098/// 01/M04 Q1028=
202203011820 METAR ESMX 011820Z AUTO 20005KT 9999 NCD 01/M03 Q1028=
202203011750 METAR ESMX 011750Z AUTO 20005KT 9999 SCT110/// 02/M03 Q1028=
202203011720 METAR ESMX 011720Z AUTO 17004KT 9999 BKN120/// 02/M03 Q1028=
202203011650 METAR ESMX 011650Z AUTO 16003KT 9999 NCD 03/M03 Q1028=
202203011620 METAR ESMX 011620Z AUTO 16004KT 9999 NCD 03/M03 Q1028=
202203011550 METAR ESMX 011550Z 19004KT CAVOK 03/M03 Q1028=
202203011520 METAR ESMX 011520Z 18005KT CAVOK 04/M04 Q1028=
202203011450 METAR ESMX 011450Z 19006KT CAVOK 04/M03 Q1029=
202203011420 METAR ESMX 011420Z 19008KT CAVOK 04/M03 Q1029=
202203011350 METAR ESMX 011350Z 18010KT CAVOK 04/M04 Q1029=
202203011320 METAR ESMX 011320Z 19010KT CAVOK 05/M05 Q1029=
202203011250 METAR ESMX 011250Z 19009KT 160V220 CAVOK 06/M04 Q1029=
202203011220 METAR ESMX 011220Z 20011KT CAVOK 05/M05 Q1030=
