##########################################################
# Query made at 04/19/2024 22:27:20 UTC
# Time interval: from 08/01/2022 12:00  to 08/31/2022 12:59  UTC
##########################################################

##########################################################
# ESMX, Vaxjo (Sweden)
# WMO index: 02641. WIGOS ID: 0-20000-0-02648
# Latitude 56-51N. Longitude 014-50E. Altitude 199 m.
##########################################################

202208311250 METAR ESMX 311250Z 01005KT 310V040 9999 FEW044 BKN066 18/07 Q1026=
202208311220 METAR ESMX 311220Z 02006KT 340V050 9999 SCT043 BKN061 17/07 Q1026=
202208311150 METAR ESMX 311150Z 03008KT 330V070 9999 SCT041 BKN059 18/08 Q1026=
202208311120 METAR ESMX 311120Z 02007KT 340V070 9999 SCT039 17/07 Q1027=
202208311050 METAR ESMX 311050Z 35008KT 320V030 9999 SCT039 17/08 Q1027=
202208311020 METAR ESMX 311020Z 01008KT 9999 SCT037 15/08 Q1027=
202208310950 METAR ESMX 310950Z 02008KT 330V050 9999 FEW035 16/08 Q1027=
202208310920 METAR ESMX 310920Z 02008KT CAVOK 16/08 Q1027=
202208310850 METAR ESMX 310850Z 01009KT CAVOK 15/09 Q1027=
202208310820 METAR ESMX 310820Z 02008KT 340V050 CAVOK 15/09 Q1027=
202208310750 METAR ESMX 310750Z 02007KT CAVOK 14/10 Q1027=
202208310720 METAR ESMX 310720Z 36009KT CAVOK 14/10 Q1027=
202208310650 METAR ESMX 310650Z 02008KT CAVOK 13/10 Q1027=
202208310620 METAR ESMX 310620Z AUTO 02008KT 9999 NCD 13/10 Q1027=
202208310550 METAR ESMX 310550Z AUTO 01008KT 9999 SCT064/// 12/10 Q1027=
202208310520 METAR ESMX 310520Z AUTO 02006KT 9999 BKN064/// 12/09 Q1026=
202208310450 METAR ESMX 310450Z AUTO 02006KT 9999 OVC064/// 11/10 Q1026=
202208310420 METAR ESMX 310420Z AUTO 01006KT 9999 OVC064/// 11/10 Q1026=
202208310350 METAR ESMX 310350Z AUTO 02006KT 9999 OVC062/// 11/10 Q1026=
202208310320 METAR ESMX 310320Z AUTO 02006KT 9999 OVC064/// 11/10 Q1026=
202208310250 METAR ESMX 310250Z AUTO 01004KT 9999 OVC064/// 11/10 Q1026=
202208310220 METAR ESMX 310220Z AUTO 02005KT 9999 OVC064/// 11/10 Q1026=
202208310150 METAR ESMX 310150Z AUTO 36002KT 9999 OVC066/// 09/09 Q1026=
202208310120 METAR ESMX 310120Z AUTO 02004KT 330V050 9999 OVC066/// 09/09 Q1026=
202208310050 METAR ESMX 310050Z AUTO VRB02KT 9999 SCT062/// 08/08 Q1026=
202208310020 METAR ESMX 310020Z AUTO 00000KT 9999 NCD 08/08 Q1026=
202208302350 METAR ESMX 302350Z AUTO 35002KT 9999 NCD 09/09 Q1026=
202208302320 METAR ESMX 302320Z 01004KT CAVOK 10/09 Q1025=
202208302250 METAR ESMX 302250Z 01004KT CAVOK 10/09 Q1025=
202208302220 METAR ESMX 302220Z 02005KT CAVOK 12/09 Q1025=
202208302120 METAR ESMX 302120Z 01006KT CAVOK 12/09 Q1025=
202208302050 METAR ESMX 302050Z 35006KT CAVOK 12/09 Q1025=
202208302020 METAR ESMX 302020Z 35008KT CAVOK 13/09 Q1025=
202208301950 METAR ESMX 301950Z 35008KT CAVOK 13/09 Q1025=
202208301920 METAR ESMX 301920Z AUTO 35007KT 9999 NCD 13/10 Q1025=
202208301850 METAR ESMX 301850Z AUTO 35005KT 9999 NCD 11/09 Q1025=
202208301820 METAR ESMX 301820Z AUTO 34004KT 9999 NCD 12/10 Q1024=
202208301750 METAR ESMX 301750Z AUTO 33005KT 9999 NCD 14/10 Q1024=
202208301720 METAR ESMX 301720Z AUTO 36006KT 9999 FEW062/// 16/08 Q1024=
202208301620 METAR ESMX 301620Z AUTO 01005KT 9999 FEW047/// SCT061/// 18/08 Q1024=
202208301550 METAR ESMX 301550Z AUTO 35006KT 9999 BKN057/// 17/08 Q1024=
202208301520 METAR ESMX 301520Z AUTO 36007KT 320V030 9999 FEW053/// 18/07 Q1024=
202208301450 METAR ESMX 301450Z AUTO 35009KT 320V020 9999 BKN051/// 18/08 Q1024=
202208301420 METAR ESMX 301420Z AUTO 02008KT 9999 FEW049/// 17/08 Q1024=
202208301350 METAR ESMX 301350Z 36008KT 310V020 9999 SCT048 18/08 Q1024=
202208301320 METAR COR ESMX 301320Z 36009KT 9999 SCT049 17/08 Q1024=
202208301250 METAR ESMX 301250Z 36009KT 9999 SCT045 17/08 Q1024=
202208301220 METAR ESMX 301220Z 36009KT 9999 SCT045 18/08 Q1024=
202208301150 METAR ESMX 301150Z 01009KT 330V030 9999 FEW044 18/08 Q1024=
202208301120 METAR ESMX 301120Z 01010KT 9999 SCT039 17/07 Q1024=
202208301050 METAR ESMX 301050Z 35010KT 320V020 9999 SCT039 16/08 Q1024=
202208301020 METAR ESMX 301020Z 35010KT 290V030 9999 SCT040 17/08 Q1024=
202208300950 METAR ESMX 300950Z 36010KT 330V030 9999 SCT039 17/08 Q1024=
202208300920 METAR ESMX 300920Z 01013KT 9999 SCT035 16/08 Q1024=
202208300850 METAR ESMX 300850Z 01012KT 9999 SCT035 16/08 Q1024=
202208300820 METAR ESMX 300820Z 36010KT 340V040 9999 FEW028 15/08 Q1024=
202208300750 METAR ESMX 300750Z 36010KT CAVOK 15/09 Q1024=
202208300720 METAR ESMX 300720Z 35010KT CAVOK 14/09 Q1024=
202208300650 METAR ESMX 300650Z 36009KT CAVOK 13/09 Q1024=
202208300620 METAR ESMX 300620Z 36009KT CAVOK 12/09 Q1024=
202208300550 METAR ESMX 300550Z AUTO 35010KT 9999 NCD 12/09 Q1023=
202208300520 METAR ESMX 300520Z AUTO 35010KT 9999 NCD 10/09 Q1023=
202208300450 METAR ESMX 300450Z AUTO 35009KT 9999 NCD 10/09 Q1023=
202208300420 METAR ESMX 300420Z AUTO 35008KT 9999 NCD 09/08 Q1023=
202208300350 METAR ESMX 300350Z AUTO 36006KT 9999 NCD 08/08 Q1023=
202208300320 METAR ESMX 300320Z AUTO 34005KT 290V010 9999 NCD 08/07 Q1023=
202208300250 METAR ESMX 300250Z AUTO 35007KT 9999 NCD 08/08 Q1023=
202208300220 METAR ESMX 300220Z AUTO 34007KT 9999 NCD 09/07 Q1023=
202208300150 METAR ESMX 300150Z AUTO 33008KT 9999 NCD 07/07 Q1023=
202208300120 METAR ESMX 300120Z AUTO 34006KT 9999 NCD 09/08 Q1023=
202208300050 METAR ESMX 300050Z AUTO 35007KT 9999 NCD 10/08 Q1023=
202208300020 METAR ESMX 300020Z AUTO 34007KT 9999 NCD 09/08 Q1023=
202208292350 METAR ESMX 292350Z AUTO 34008KT 9999 NCD 09/09 Q1022=
202208292320 METAR ESMX 292320Z 34008KT CAVOK 09/09 Q1022=
202208292250 METAR ESMX 292250Z 31005KT CAVOK 08/08 Q1022=
202208292220 METAR ESMX 292220Z 33004KT CAVOK 10/09 Q1022=
202208292150 METAR ESMX 292150Z 35008KT CAVOK 11/10 Q1022=
202208292120 METAR ESMX 292120Z 35009KT CAVOK 12/10 Q1022=
202208292050 METAR ESMX 292050Z 35010KT CAVOK 13/10 Q1022=
202208292020 METAR ESMX 292020Z 34008KT 300V010 CAVOK 11/10 Q1022=
202208291950 METAR ESMX 291950Z 34007KT 9999 BKN048 12/10 Q1022=
202208291920 METAR ESMX 291920Z AUTO 33005KT 9999 NCD 12/10 Q1022=
202208291850 METAR ESMX 291850Z AUTO 34009KT 9999 NCD 13/11 Q1021=
202208291820 METAR ESMX 291820Z AUTO 34008KT 9999 SCT045/// 13/11 Q1021=
202208291750 METAR ESMX 291750Z AUTO 33009KT 9999 NCD 15/10 Q1021=
202208291720 METAR ESMX 291720Z AUTO 34010KT 9999 FEW032/// 15/11 Q1021=
202208291650 METAR ESMX 291650Z AUTO 34009KT 9999 FEW047/// 16/11 Q1021=
202208291620 METAR ESMX 291620Z AUTO 34011KT 9999 FEW025/// 16/10 Q1021=
202208291550 METAR ESMX 291550Z 34012KT 9999 SCT025 16/11 Q1021=
202208291520 METAR ESMX 291520Z 35010KT 9999 BKN027 16/11 Q1020=
202208291450 METAR ESMX 291450Z 01011KT 9999 FEW024 SCT033 BKN210 16/11 Q1020=
202208291420 METAR ESMX 291420Z 36010KT 9999 SCT023 BKN028 BKN200 17/12 Q1020=
202208291350 METAR ESMX 291350Z AUTO 34010KT 9999 OVC026/// 16/12 Q1020=
202208291320 METAR ESMX 291320Z 02013KT 9999 BKN023 15/11 Q1021=
202208291250 METAR ESMX 291250Z 01013KT 9999 BKN020 15/11 Q1021=
202208291220 METAR ESMX 291220Z 36011KT 9999 BKN016 BKN019 15/12 Q1020=
202208291150 METAR ESMX 291150Z 01012KT 9999 BKN015 15/12 Q1020=
202208291120 METAR ESMX 291120Z 36012KT 9999 BKN012 14/12 Q1020=
202208291050 METAR ESMX 291050Z 35012KT 9999 BKN010 13/12 Q1020=
202208291020 METAR ESMX 291020Z 35011KT 9999 BKN010 13/12 Q1020=
202208290950 METAR ESMX 290950Z 36011KT 9999 BKN009 12/11 Q1019=
202208290920 METAR ESMX 290920Z 36013KT 9999 BKN008 12/11 Q1019=
202208290850 METAR ESMX 290850Z 01011KT 9999 -RA BKN009 12/12 Q1019=
202208290820 METAR ESMX 290820Z 36012KT 330V030 9999 -RA BKN009 13/12 Q1019=
202208290750 METAR ESMX 290750Z 35012KT 9999 BKN008 12/12 Q1019=
202208290720 METAR ESMX 290720Z 35012KT 9999 BKN009 12/12 Q1018=
202208290650 METAR ESMX 290650Z 35011KT 9999 -RA BKN008 12/12 Q1018=
202208290620 METAR ESMX 290620Z 36011KT 9999 RA BKN007 12/12 Q1018=
202208290550 METAR ESMX 290550Z 01011KT 9000 -RA BKN007 12/12 Q1017=
202208290520 METAR ESMX 290520Z 02013KT 9999 BKN008 12/11 Q1017=
202208290450 METAR ESMX 290450Z 02013KT 9999 BKN010 12/11 Q1017=
202208290420 METAR ESMX 290420Z 02013KT 9999 BKN009 12/11 Q1017=
202208290350 METAR ESMX 290350Z 36013KT 9999 BKN009 12/11 Q1017=
202208290320 METAR ESMX 290320Z AUTO 01013KT 9999 OVC009/// 12/11 Q1017=
202208290250 METAR ESMX 290250Z AUTO 36015KT 9999 OVC009/// 12/11 Q1016=
202208290220 METAR ESMX 290220Z AUTO 36013KT 9999 OVC008/// 13/12 Q1016=
202208290150 METAR ESMX 290150Z AUTO 02013KT 9999 OVC009/// 13/12 Q1016=
202208290120 METAR ESMX 290120Z AUTO 01013KT 9999 OVC009/// 13/12 Q1016=
202208290050 METAR ESMX 290050Z AUTO 01012KT 9999 OVC010/// 13/12 Q1016=
202208290020 METAR ESMX 290020Z AUTO 02012KT 9999 BKN009/// OVC010/// 13/12 Q1016=
202208282350 METAR ESMX 282350Z AUTO 02011KT 9999 BKN008/// OVC012/// 13/12 Q1016=
202208282320 METAR ESMX 282320Z AUTO 02012KT 9999 SCT009/// OVC012/// 13/12 Q1016=
202208282250 METAR ESMX 282250Z AUTO 01012KT 350V060 9999 OVC010/// 13/12 Q1016=
202208282220 METAR ESMX 282220Z AUTO 02012KT 9999 OVC008/// 13/13 Q1016=
202208282150 METAR ESMX 282150Z AUTO 01011KT 9999 OVC007/// 14/13 Q1015=
202208282120 METAR ESMX 282120Z AUTO 01012KT 9999 OVC007/// 14/14 Q1015=
202208282050 METAR ESMX 282050Z AUTO 01011KT 9999 OVC007/// 15/14 Q1015=
202208282020 METAR ESMX 282020Z AUTO 02011KT 9999 OVC007/// 15/15 Q1014=
202208281950 METAR ESMX 281950Z 02011KT 9999 BKN008 16/15 Q1014 REDZ=
202208281920 METAR ESMX 281920Z 36012KT 9999 BKN009 BKN024 16/16 Q1014=
202208281850 METAR ESMX 281850Z 35011KT 9999 -DZ BKN006 17/17 Q1014=
202208281820 METAR ESMX 281820Z 34010KT 9999 -RA SCT001 BKN005 OVC007 17/17 Q1013 RERA REDZ=
202208281750 METAR ESMX 281750Z 32007KT 9999 -DZ BKN006 18/18 Q1013=
202208281720 METAR ESMX 281720Z 34005KT 7000 -RA BKN005 BKN055 18/18 Q1013=
202208281650 METAR ESMX 281650Z 36007KT 6000 RA BKN008 18/18 Q1013=
202208281620 METAR ESMX 281620Z 01008KT 7000 RA SCT001 BKN008 18/18 Q1013=
202208281550 METAR ESMX 281550Z 02007KT 9999 -RA SCT010 BKN013 BKN026 19/18 Q1013=
202208281520 METAR ESMX 281520Z 02005KT 340V050 9999 BKN010 20/18 Q1013=
202208281450 METAR ESMX 281450Z 01008KT 9999 SCT010 BKN019 OVC098 20/18 Q1013=
202208281420 METAR ESMX 281420Z 36009KT 9999 BKN009 20/18 Q1013=
202208281350 METAR ESMX 281350Z 36008KT 9999 BKN008 20/18 Q1013=
202208281320 METAR ESMX 281320Z AUTO 01008KT 9999 OVC008/// 19/18 Q1013=
202208281250 METAR ESMX 281250Z 01007KT 9999 BKN008 BKN046 19/18 Q1014=
202208281220 METAR ESMX 281220Z 01008KT 9999 FEW007 BKN009 BKN019 19/18 Q1013=
202208281150 METAR ESMX 281150Z 01006KT 9999 SCT007 BKN009 BKN016 19/18 Q1013=
202208281120 METAR ESMX 281120Z 02007KT 9999 BKN007 BKN011 19/19 Q1013=
202208281050 METAR ESMX 281050Z 02008KT 9999 BKN006 BKN009 19/18 Q1013=
202208281020 METAR ESMX 281020Z 01008KT 9999 BKN006 19/18 Q1013=
202208280950 METAR ESMX 280950Z 35009KT 9999 FEW006 BKN008 BKN017 19/19 Q1013=
202208280920 METAR ESMX 280920Z AUTO 02006KT 9999 SCT008/// BKN018/// OVC040/// 20/19 Q1013=
202208280850 METAR ESMX 280850Z AUTO 04004KT 9999 BKN016/// OVC035/// 20/19 Q1013=
202208280820 METAR ESMX 280820Z 06004KT 9999 SCT006 BKN010 19/19 Q1012=
202208280750 METAR ESMX 280750Z 02003KT 350V070 9999 BKN006 19/19 Q1012=
202208280720 METAR ESMX 280720Z 07003KT 9999 BKN004 19/19 Q1012=
202208280650 METAR ESMX 280650Z 08003KT 9999 BKN005 19/19 Q1012=
202208280620 METAR ESMX 280620Z 00000KT 9999 BKN005 18/18 Q1012=
202208280550 METAR ESMX 280550Z 08002KT 9999 BKN004 18/18 Q1012=
202208280520 METAR ESMX 280520Z 02002KT 9999 BKN004 18/18 Q1012=
202208280450 METAR ESMX 280450Z 04005KT 010V120 9999 -RA BKN004 18/18 Q1012=
202208280350 METAR ESMX 280350Z 04008KT 9999 SCT004 BKN043 18/18 Q1011=
202208280320 METAR ESMX 280320Z AUTO 05004KT 020V080 8000 -RA SCT002/// BKN064/// BKN080/// 18/18 Q1012=
202208280250 METAR ESMX 280250Z AUTO 04007KT 9999 -DZ FEW002/// BKN098/// 18/18 Q1012=
202208280220 METAR ESMX 280220Z AUTO 04008KT 7000 -RA SCT001/// BKN011/// OVC072/// 18/18 Q1012=
202208280150 METAR ESMX 280150Z AUTO 06004KT 3300 +RA BKN001/// OVC076/// 18/18 Q1013=
202208280120 METAR ESMX 280120Z AUTO 33004KT 230V360 3600 RA SCT001/// OVC068/// 18/18 Q1013 RESHRA=
202208280050 METAR ESMX 280050Z AUTO 02003KT 7000 +RA SCT005/// BKN045/// OVC078/// 18/18 Q1013=
202208280020 METAR ESMX 280020Z AUTO 01006KT 330V050 9999 OVC007/// 19/18 Q1013=
202208272350 METAR ESMX 272350Z AUTO 36006KT 330V030 9999 -DZ BKN008/// OVC100/// 19/18 Q1013=
202208272320 METAR ESMX 272320Z AUTO 02007KT 9999 -DZ BKN008/// 19/18 Q1013 REDZ=
202208272250 METAR ESMX 272250Z AUTO 03006KT 9999 BKN008/// OVC098/// 19/18 Q1013=
202208272220 METAR ESMX 272220Z AUTO 02005KT 9999 -RA FEW008/// OVC098/// 19/19 Q1013 RERA=
202208272150 METAR ESMX 272150Z AUTO 02006KT 9999 BKN098/// 19/19 Q1013=
202208272120 METAR ESMX 272120Z AUTO 01007KT 9999 -RA OVC096/// 19/19 Q1013=
202208272050 METAR ESMX 272050Z AUTO 35006KT 9999 BKN098/// 19/19 Q1013=
202208272020 METAR ESMX 272020Z AUTO 35006KT 9999 BKN041/// OVC082/// 20/19 Q1013=
202208271950 METAR ESMX 271950Z AUTO 35006KT 9999 BKN041/// OVC086/// 19/19 Q1013=
202208271920 METAR ESMX 271920Z AUTO 02005KT 9999 FEW009/// BKN040/// OVC100/// 20/19 Q1013=
202208271850 METAR ESMX 271850Z AUTO 01006KT 9999 FEW009/// BKN098/// 20/19 Q1013=
202208271820 METAR ESMX 271820Z AUTO 01005KT 9999 SCT098/// 20/19 Q1013=
202208271750 METAR ESMX 271750Z AUTO 02005KT 9999 FEW092/// OVC110/// 20/19 Q1012=
202208271720 METAR ESMX 271720Z AUTO 01006KT 9999 BKN110/// 20/19 Q1012=
202208271650 METAR ESMX 271650Z AUTO 02006KT 9999 BKN100/// 21/19 Q1012=
202208271620 METAR ESMX 271620Z AUTO 02006KT 9999 FEW098/// 21/19 Q1012=
202208271550 METAR ESMX 271550Z AUTO 34010KT 9999 NCD 21/19 Q1012=
202208271520 METAR ESMX 271520Z AUTO 31010KT 270V340 9999 NCD 23/20 Q1012=
202208271450 METAR ESMX 271450Z AUTO 31009KT 270V340 9999 SCT140/// 24/20 Q1012=
202208271420 METAR ESMX 271420Z AUTO 31009KT 9999 SCT130/// 24/21 Q1012=
202208271350 METAR ESMX 271350Z AUTO 32007KT 9999 SCT084/// 24/21 Q1012=
202208271320 METAR ESMX 271320Z AUTO 33003KT 9999 FEW044/// BKN090/// 24/20 Q1012=
202208271250 METAR ESMX 271250Z AUTO 31006KT 260V330 9999 FEW078/// BKN100/// 24/21 Q1012=
202208271220 METAR ESMX 271220Z AUTO 29006KT 250V330 9999 SCT076/// BKN160/// 24/20 Q1013=
202208271150 METAR ESMX 271150Z AUTO 32006KT 290V350 9999 FEW150/// SCT180/// 24/20 Q1013=
202208271120 METAR ESMX 271120Z AUTO 32006KT 290V010 9999 BKN150/// 23/20 Q1013=
202208271050 METAR ESMX 271050Z AUTO 32007KT 280V360 9999 SCT150/// 22/19 Q1013=
202208270950 METAR ESMX 270950Z AUTO 01005KT 9999 FEW013/// BKN074/// 21/19 Q1013=
202208270920 METAR ESMX 270920Z AUTO 01003KT 9999 SCT009/// OVC074/// 21/19 Q1013=
202208270850 METAR ESMX 270850Z AUTO 04005KT 010V080 9999 OVC008/// 20/18 Q1014=
202208270820 METAR ESMX 270820Z AUTO 05004KT 9999 OVC007/// 19/18 Q1013=
202208270750 METAR ESMX 270750Z AUTO 04004KT 9999 OVC006/// 19/18 Q1013=
202208270720 METAR ESMX 270720Z AUTO 01005KT 9999 OVC005/// 19/18 Q1013=
202208270650 METAR ESMX 270650Z AUTO 04007KT 9999 OVC004/// 18/18 Q1013=
202208270620 METAR ESMX 270620Z AUTO 02006KT 8000 BR OVC003/// 18/18 Q1013=
202208270550 METAR ESMX 270550Z AUTO 01005KT 6000 BR OVC003/// 18/18 Q1013=
202208270520 METAR ESMX 270520Z AUTO 01005KT 340V050 6000 BR OVC003/// 18/18 Q1013=
202208270450 METAR ESMX 270450Z AUTO 01006KT 6000 BR OVC003/// 17/17 Q1013=
202208270420 METAR ESMX 270420Z AUTO 01007KT 6000 BR OVC004/// 17/17 Q1013=
202208270350 METAR ESMX 270350Z AUTO 01005KT 8000 BR OVC004/// 18/18 Q1013=
202208270320 METAR ESMX 270320Z AUTO 04004KT 8000 BR OVC004/// 18/18 Q1014=
202208270250 METAR ESMX 270250Z AUTO 03003KT 8000 BR OVC004/// 18/18 Q1014=
202208270220 METAR ESMX 270220Z AUTO 02004KT 9000 BR OVC004/// 18/18 Q1014=
202208270150 METAR ESMX 270150Z AUTO 10002KT 9999 OVC005/// 18/18 Q1014=
202208270120 METAR ESMX 270120Z AUTO VRB02KT 9000 BR OVC004/// 18/18 Q1014=
202208270050 METAR ESMX 270050Z AUTO 10003KT 8000 BR OVC004/// 18/18 Q1014=
202208270020 METAR ESMX 270020Z AUTO VRB03KT 7000 BR OVC004/// 18/18 Q1014=
202208262350 METAR ESMX 262350Z AUTO 11004KT 8000 BR OVC005/// 18/18 Q1014=
202208262320 METAR ESMX 262320Z AUTO 09004KT 050V110 9999 OVC006/// 18/18 Q1015=
202208262250 METAR ESMX 262250Z AUTO 09003KT 9000 OVC007/// 18/18 Q1015=
202208262220 METAR ESMX 262220Z AUTO 00000KT 7000 BKN008/// 18/18 Q1015=
202208262150 METAR ESMX 262150Z AUTO 10003KT 9999 NCD 18/18 Q1015=
202208262120 METAR ESMX 262120Z AUTO 10002KT 9999 SCT012/// 19/18 Q1015=
202208262050 METAR ESMX 262050Z AUTO VRB03KT 9999 SCT096/// 19/19 Q1015=
202208262020 METAR ESMX 262020Z AUTO VRB02KT 9999 -DZ FEW022/// SCT088/// 19/19 Q1015=
202208261950 METAR ESMX 261950Z 11004KT 9999 -RA BKN022 20/19 Q1015=
202208261920 METAR ESMX 261920Z 07002KT 9999 SCT021 20/20 Q1015=
202208261850 METAR ESMX 261850Z VRB02KT 9999 BKN023 21/20 Q1015=
202208261820 METAR ESMX 261820Z 06003KT 020V140 9999 -RA BKN025 21/21 Q1015=
202208261750 METAR ESMX 261750Z 09004KT 9999 FEW017 BKN025 21/21 Q1015=
202208261720 METAR ESMX 261720Z 26006KT 210V340 9999 SCT027 22/21 Q1015=
202208261650 METAR COR ESMX 261650Z 06001KT 7000 -SHRA SCT025 22/21 Q1015=
202208261620 METAR ESMX 261620Z 07004KT 9999 SCT025 23/20 Q1015=
202208261550 METAR COR ESMX 261550Z 03004KT 9999 SCT017 23/20 Q1015=
202208261520 METAR ESMX 261520Z 35005KT 9999 BKN015 23/21 Q1015=
202208261450 METAR ESMX 261450Z VRB03KT 9999 SCT011 23/20 Q1015=
202208261420 METAR ESMX 261420Z 04003KT 9999 FEW009 BKN016 22/20 Q1016=
202208261350 METAR ESMX 261350Z VRB01KT 9999 BKN008 21/20 Q1016=
202208261320 METAR ESMX 261320Z 00000KT 9999 FEW005 BKN008 20/20 Q1016=
202208261250 METAR ESMX 261250Z 00000KT 7000 FEW005 BKN007 20/20 Q1017=
202208261220 METAR ESMX 261220Z 34003KT 7000 BR -DZ BKN004 20/20 Q1017=
202208261150 METAR ESMX 261150Z 34003KT 300V010 9999 BKN003 OVC006 20/19 Q1017=
202208261120 METAR ESMX 261120Z 35003KT 300V030 7000 BR OVC002 19/19 Q1017=
202208261050 METAR ESMX 261050Z VRB03KT 2800 BR OVC002 19/19 Q1017=
202208261020 METAR ESMX 261020Z VRB03KT 4700 BR OVC002 18/18 Q1018=
202208260950 METAR ESMX 260950Z 04004KT 2700 BR OVC002 18/18 Q1018=
202208260920 METAR ESMX 260920Z 04005KT 2500 BR OVC002 18/18 Q1018=
202208260850 METAR ESMX 260850Z 36004KT 330V030 2300 BR OVC001 17/17 Q1018=
202208260820 METAR ESMX 260820Z 04004KT 1400 R01/1300U R19/1900N OVC001 17/17 Q1018=
202208260750 METAR ESMX 260750Z 01004KT 0800 R01/0900N R19/1300N FG OVC001 17/17 Q1018=
202208260720 METAR ESMX 260720Z 01004KT 1300 R01/1500D R19/P2000D BR OVC001 16/16 Q1019=
202208260650 METAR ESMX 260650Z AUTO 03005KT 4100 BR OVC002/// 16/16 Q1019=
202208260620 METAR ESMX 260620Z 01003KT 5000 BR OVC002 16/16 Q1019=
202208260550 METAR ESMX 260550Z 04004KT 5000 BR OVC002 16/16 Q1019=
202208260520 METAR ESMX 260520Z 01004KT 2500 BR OVC002 16/16 Q1019=
202208260450 METAR ESMX 260450Z 03004KT 3500 BR BKN002 16/16 Q1019=
202208260420 METAR ESMX 260420Z 04004KT 360V080 9999 OVC005 16/16 Q1019=
202208260350 METAR ESMX 260350Z AUTO 05005KT 020V080 9999 SCT006/// OVC009/// 16/15 Q1019=
202208260320 METAR ESMX 260320Z AUTO 06005KT 030V100 9999 BKN010/// OVC066/// 16/15 Q1019=
202208260250 METAR ESMX 260250Z AUTO 08004KT 040V110 9999 OVC012/// 16/15 Q1019=
202208260220 METAR ESMX 260220Z AUTO 08004KT 040V100 9999 OVC010/// 16/15 Q1019=
202208260150 METAR ESMX 260150Z AUTO 06005KT 030V090 9999 OVC010/// 16/15 Q1020=
202208260120 METAR ESMX 260120Z AUTO 07004KT 9999 SCT008/// BKN011/// 16/15 Q1020=
202208260050 METAR ESMX 260050Z AUTO VRB03KT 9999 OVC008/// 16/16 Q1020=
202208260020 METAR ESMX 260020Z AUTO 05003KT 010V110 9999 FEW006/// OVC008/// 16/16 Q1020=
202208252350 METAR ESMX 252350Z AUTO 05004KT 010V120 9999 OVC006/// 16/16 Q1020=
202208252320 METAR ESMX 252320Z 08004KT 050V110 9999 BKN006 16/16 Q1021=
202208252250 METAR ESMX 252250Z 06005KT 350V120 9999 BKN007 16/15 Q1021=
202208252220 METAR ESMX 252220Z 07004KT 9999 FEW011 16/15 Q1021=
202208252150 METAR ESMX 252150Z 08004KT 040V110 CAVOK 16/15 Q1021=
202208252120 METAR ESMX 252120Z 07004KT 020V120 CAVOK 17/15 Q1022=
202208252050 METAR ESMX 252050Z 09003KT 020V150 CAVOK 17/15 Q1022=
202208252020 METAR ESMX 252020Z 08004KT 050V120 9999 SCT046 17/15 Q1022=
202208251950 METAR ESMX 251950Z 08006KT 050V130 9999 SCT047 18/14 Q1022=
202208251920 METAR ESMX 251920Z 06004KT 030V100 9999 SCT049 19/14 Q1022=
202208251850 METAR ESMX 251850Z 08004KT 050V120 CAVOK 19/14 Q1021=
202208251820 METAR ESMX 251820Z 08005KT 050V110 CAVOK 20/13 Q1021=
202208251750 METAR ESMX 251750Z 08005KT 050V120 CAVOK 21/13 Q1021=
202208251720 METAR ESMX 251720Z 07005KT 040V110 CAVOK 22/13 Q1021=
202208251650 METAR ESMX 251650Z 09004KT 9999 FEW048 23/13 Q1021=
202208251620 METAR ESMX 251620Z 08005KT 040V120 9999 FEW049 23/13 Q1021=
202208251550 METAR ESMX 251550Z 06006KT 020V120 CAVOK 24/13 Q1022=
202208251520 METAR ESMX 251520Z 11004KT 050V140 CAVOK 24/12 Q1022=
202208251450 METAR ESMX 251450Z AUTO 10005KT 060V140 9999 NCD 24/12 Q1022=
202208251420 METAR ESMX 251420Z 08006KT 020V140 CAVOK 24/12 Q1022=
202208251350 METAR ESMX 251350Z 07006KT 040V110 CAVOK 25/13 Q1022=
202208251320 METAR ESMX 251320Z 06005KT 010V110 CAVOK 24/13 Q1023=
202208251250 METAR ESMX 251250Z 06006KT 020V120 CAVOK 24/12 Q1023=
202208251220 METAR ESMX 251220Z 05006KT 020V100 CAVOK 24/13 Q1023=
202208251150 METAR ESMX 251150Z 05007KT 020V090 CAVOK 23/13 Q1024=
202208251120 METAR ESMX 251120Z 07006KT 010V110 CAVOK 23/14 Q1024=
202208251050 METAR ESMX 251050Z 05008KT 020V080 CAVOK 22/13 Q1024=
202208251020 METAR ESMX 251020Z VRB05KT CAVOK 22/14 Q1025=
202208250950 METAR ESMX 250950Z AUTO 05007KT 010V090 9999 NCD 21/13 Q1025=
202208250920 METAR ESMX 250920Z 05006KT 020V100 9999 SCT026 20/14 Q1025=
202208250850 METAR ESMX 250850Z AUTO 08005KT 030V110 9999 FEW025/// 20/14 Q1025=
202208250820 METAR ESMX 250820Z AUTO 06006KT 020V100 9999 SCT015/// BKN019/// 19/15 Q1025=
202208250750 METAR ESMX 250750Z 05006KT 020V090 9999 BKN012 17/15 Q1025=
202208250720 METAR ESMX 250720Z 07004KT 030V110 9999 FEW005 BKN008 16/15 Q1025=
202208250650 METAR ESMX 250650Z 05004KT 9999 BKN003 15/15 Q1025=
202208250620 METAR ESMX 250620Z 06005KT 020V090 9999 OVC001 15/15 Q1025=
202208250550 METAR ESMX 250550Z AUTO 06005KT 2100 BKN001/// OVC002/// 14/14 Q1025=
202208250520 METAR ESMX 250520Z AUTO 04003KT 030V090 0500 R01/1200N R19/0900N FG OVC002/// 14/14 Q1025=
202208250450 METAR ESMX 250450Z AUTO 04004KT 0250 R01/0650N R19/0550N FG VV002 14/14 Q1025=
202208250420 METAR ESMX 250420Z AUTO 02004KT 0250 R01/0600N R19/0650N FG VV001 14/14 Q1025=
202208250350 METAR ESMX 250350Z AUTO 04006KT 0250 R01/0550N R19/0700N FG OVC001/// 14/14 Q1025=
202208250320 METAR ESMX 250320Z AUTO 05006KT 020V080 0350 R01/1000D R19/1200D FG VV002 15/15 Q1025=
202208250250 METAR ESMX 250250Z AUTO 05004KT 020V100 0600 R01/P2000D R19/P2000N FG SCT001/// BKN004/// OVC006/// 14/14 Q1025=
202208250220 METAR ESMX 250220Z AUTO VRB02KT 9999 SCT007/// 10/10 Q1025=
202208250150 METAR ESMX 250150Z AUTO 00000KT 9999 NCD 09/09 Q1025=
202208250120 METAR ESMX 250120Z AUTO 06003KT 9999 NCD 13/13 Q1025=
202208250050 METAR ESMX 250050Z AUTO 06004KT 9999 NCD 11/11 Q1025=
202208250020 METAR ESMX 250020Z AUTO 00000KT 9999 NCD 10/10 Q1025=
202208242350 METAR ESMX 242350Z 00000KT CAVOK 10/10 Q1025=
202208242320 METAR ESMX 242320Z 00000KT CAVOK 10/10 Q1025=
202208242250 METAR ESMX 242250Z 00000KT CAVOK 10/10 Q1026=
202208242220 METAR ESMX 242220Z 00000KT CAVOK 11/10 Q1026=
202208242150 METAR ESMX 242150Z 00000KT CAVOK 12/11 Q1026=
202208242120 METAR ESMX 242120Z 00000KT CAVOK 14/10 Q1026=
202208242050 METAR ESMX 242050Z 14002KT CAVOK 16/10 Q1025=
202208242020 METAR ESMX 242020Z VRB03KT CAVOK 17/10 Q1025=
202208241950 METAR ESMX 241950Z 13004KT 080V140 CAVOK 18/11 Q1025=
202208241920 METAR ESMX 241920Z 14004KT CAVOK 19/11 Q1025=
202208241850 METAR ESMX 241850Z 09003KT 030V150 CAVOK 18/13 Q1024=
202208241820 METAR ESMX 241820Z 00000KT CAVOK 19/14 Q1024=
202208241750 METAR ESMX 241750Z 35003KT CAVOK 21/14 Q1024=
202208241720 METAR ESMX 241720Z AUTO 35003KT 9999 NCD 22/13 Q1024=
202208241650 METAR ESMX 241650Z AUTO 34004KT 9999 NCD 23/12 Q1024=
202208241620 METAR ESMX 241620Z AUTO 33004KT 9999 NCD 24/11 Q1023=
202208241550 METAR ESMX 241550Z AUTO 33004KT 9999 NCD 24/10 Q1023=
202208241520 METAR ESMX 241520Z AUTO 34004KT 9999 NCD 24/10 Q1023=
202208241450 METAR ESMX 241450Z AUTO 35005KT 300V020 9999 NCD 24/11 Q1023=
202208241420 METAR ESMX 241420Z 35004KT 290V060 CAVOK 24/10 Q1024=
202208241350 METAR ESMX 241350Z 35004KT 260V060 CAVOK 24/10 Q1024=
202208241320 METAR ESMX 241320Z 34005KT CAVOK 24/10 Q1024=
202208241250 METAR ESMX 241250Z 03004KT 340V060 CAVOK 23/10 Q1024=
202208241220 METAR ESMX 241220Z 06005KT CAVOK 23/11 Q1024=
202208241150 METAR ESMX 241150Z 04005KT 350V060 CAVOK 23/11 Q1024=
202208241120 METAR ESMX 241120Z 04007KT 010V070 CAVOK 22/11 Q1024=
202208241050 METAR ESMX 241050Z 02007KT 330V060 CAVOK 22/12 Q1024=
202208241020 METAR ESMX 241020Z 36007KT CAVOK 21/12 Q1024=
202208240950 METAR ESMX 240950Z 03006KT 360V070 CAVOK 21/14 Q1024=
202208240920 METAR ESMX 240920Z 02006KT 340V070 CAVOK 21/13 Q1024=
202208240850 METAR ESMX 240850Z 04006KT 010V090 CAVOK 20/13 Q1024=
202208240820 METAR ESMX 240820Z 03006KT 350V070 CAVOK 19/14 Q1024=
202208240750 METAR ESMX 240750Z 03007KT CAVOK 18/13 Q1024=
202208240720 METAR ESMX 240720Z 35005KT CAVOK 17/14 Q1024=
202208240650 METAR ESMX 240650Z AUTO 01004KT 9999 NCD 15/14 Q1024=
202208240620 METAR ESMX 240620Z AUTO 36005KT 9999 NCD 16/14 Q1024=
202208240550 METAR ESMX 240550Z AUTO 02004KT 9999 NCD 14/14 Q1023=
202208240520 METAR ESMX 240520Z AUTO 02004KT 9999 NCD 13/13 Q1023=
202208240450 METAR ESMX 240450Z AUTO 35003KT 9999 NCD 12/12 Q1023=
202208240420 METAR ESMX 240420Z AUTO 36003KT 9000 BR NCD 10/10 Q1023=
202208240350 METAR ESMX 240350Z AUTO 03002KT 9999 NCD 08/08 Q1023=
202208240320 METAR ESMX 240320Z AUTO 00000KT 9999 BCFG NCD 08/08 Q1023=
202208240250 METAR ESMX 240250Z AUTO 00000KT 0250 R01/0750N R19/P2000N BCFG NCD 08/08 Q1023=
202208240220 METAR ESMX 240220Z AUTO 00000KT 9999 NCD 08/08 Q1023=
202208240150 METAR ESMX 240150Z AUTO 00000KT 0150 R01/0450N R19/P2000N BCFG NCD 09/09 Q1023=
202208240120 METAR ESMX 240120Z AUTO 00000KT 2500 BCFG NCD 08/08 Q1022=
202208240050 METAR ESMX 240050Z AUTO VRB01KT 9999 BCFG NCD 08/08 Q1022=
202208240020 METAR ESMX 240020Z AUTO 00000KT 9999 BCFG NCD 09/09 Q1022=
202208232350 METAR ESMX 232350Z 00000KT 7000 BCFG NSC 09/09 Q1023=
202208232320 METAR ESMX 232320Z 00000KT 9999 BCFG NSC 09/09 Q1023=
202208232250 METAR ESMX 232250Z 00000KT CAVOK 10/10 Q1023=
202208232220 METAR ESMX 232220Z 00000KT CAVOK 10/10 Q1023=
202208232150 METAR ESMX 232150Z 00000KT CAVOK 11/11 Q1023=
202208232120 METAR ESMX 232120Z 00000KT CAVOK 11/11 Q1023=
202208232050 METAR ESMX 232050Z 00000KT CAVOK 12/12 Q1023=
202208232020 METAR ESMX 232020Z VRB03KT CAVOK 13/12 Q1023=
202208231950 METAR ESMX 231950Z 02003KT CAVOK 15/13 Q1023=
202208231920 METAR ESMX 231920Z 06003KT CAVOK 17/13 Q1023=
202208231850 METAR ESMX 231850Z AUTO 07004KT 9999 NCD 17/13 Q1022=
202208231820 METAR ESMX 231820Z AUTO 07003KT 9999 NCD 18/13 Q1022=
202208231750 METAR ESMX 231750Z AUTO 07004KT 9999 NCD 19/13 Q1022=
202208231720 METAR ESMX 231720Z AUTO VRB03KT 9999 NCD 20/13 Q1021=
202208231650 METAR ESMX 231650Z AUTO 03004KT 9999 NCD 20/13 Q1021=
202208231620 METAR ESMX 231620Z AUTO 04005KT 9999 NCD 20/13 Q1021=
202208231550 METAR ESMX 231550Z AUTO 03005KT 350V070 9999 NCD 20/13 Q1021=
202208231520 METAR ESMX 231520Z AUTO 02005KT 340V100 9999 FEW030/// 20/13 Q1021=
202208231450 METAR ESMX 231450Z AUTO 04006KT 360V060 9999 FEW030/// 20/13 Q1022=
202208231420 METAR ESMX 231420Z AUTO 02008KT 9999 FEW029/// 21/13 Q1022=
202208231350 METAR ESMX 231350Z AUTO 05006KT 010V110 9999 BKN028/// 21/14 Q1022=
202208231320 METAR ESMX 231320Z 01006KT 9999 SCT027 20/14 Q1022=
202208231250 METAR ESMX 231250Z 02006KT CAVOK 19/13 Q1022=
202208231220 METAR ESMX 231220Z 03005KT CAVOK 19/13 Q1022=
202208231150 METAR ESMX 231150Z AUTO 35006KT 9999 SCT120/// BKN240/// 19/12 Q1022=
202208231120 METAR ESMX 231120Z 01006KT CAVOK 19/13 Q1022=
202208231050 METAR ESMX 231050Z 03004KT CAVOK 19/12 Q1022=
202208231020 METAR ESMX 231020Z 03005KT CAVOK 19/12 Q1022=
202208230950 METAR ESMX 230950Z 04005KT 020V080 CAVOK 19/12 Q1022=
202208230920 METAR ESMX 230920Z AUTO 04003KT 330V070 9999 SCT150/// BKN210/// 19/12 Q1022=
202208230850 METAR ESMX 230850Z AUTO 04005KT 9999 BKN140/// 18/13 Q1022=
202208230820 METAR ESMX 230820Z AUTO 35005KT 9999 BKN150/// 18/13 Q1022=
202208230750 METAR ESMX 230750Z AUTO 36005KT 9999 BKN160/// 18/13 Q1021=
202208230720 METAR ESMX 230720Z AUTO 04005KT 9999 BKN160/// 17/13 Q1021=
202208230650 METAR ESMX 230650Z AUTO 04004KT 9999 BKN170/// 16/13 Q1021=
202208230620 METAR ESMX 230620Z AUTO 03004KT 9999 BKN160/// 15/13 Q1021=
202208230550 METAR ESMX 230550Z AUTO 03004KT 9999 BKN170/// 15/13 Q1021=
202208230520 METAR ESMX 230520Z AUTO VRB02KT 9999 FEW190/// 14/12 Q1021=
202208230450 METAR ESMX 230450Z AUTO 35003KT 9999 FEW180/// 11/11 Q1021=
202208230420 METAR ESMX 230420Z AUTO 33003KT 310V020 9999 NCD 10/10 Q1021=
202208230350 METAR ESMX 230350Z AUTO 03004KT 9999 NCD 10/10 Q1021=
202208230320 METAR ESMX 230320Z AUTO 04003KT 9999 NCD 10/10 Q1020=
202208230250 METAR ESMX 230250Z AUTO VRB02KT 9999 NCD 09/09 Q1020=
202208230220 METAR ESMX 230220Z AUTO 00000KT 9999 SCT210/// 09/09 Q1020=
202208230150 METAR ESMX 230150Z AUTO 00000KT 9999 FEW210/// 10/10 Q1020=
202208230120 METAR ESMX 230120Z AUTO 00000KT 9999 OVC210/// 10/10 Q1020=
202208230050 METAR ESMX 230050Z AUTO 00000KT 9999 BKN220/// 10/10 Q1020=
202208230020 METAR ESMX 230020Z AUTO 26002KT 9999 NCD 10/10 Q1020=
202208222350 METAR ESMX 222350Z 00000KT CAVOK 11/11 Q1020=
202208222320 METAR ESMX 222320Z 20001KT CAVOK 11/10 Q1020=
202208222250 METAR ESMX 222250Z 20002KT CAVOK 11/10 Q1020=
202208222220 METAR ESMX 222220Z 19002KT CAVOK 11/10 Q1020=
202208222150 METAR ESMX 222150Z 00000KT CAVOK 11/11 Q1020=
202208222120 METAR ESMX 222120Z 00000KT CAVOK 12/11 Q1020=
202208222050 METAR ESMX 222050Z 00000KT CAVOK 12/11 Q1020=
202208222020 METAR ESMX 222020Z 00000KT CAVOK 13/12 Q1020=
202208221950 METAR ESMX 221950Z VRB02KT CAVOK 13/12 Q1020=
202208221920 METAR ESMX 221920Z AUTO 00000KT 9999 NCD 14/13 Q1019=
202208221850 METAR ESMX 221850Z AUTO 00000KT 9999 -RA NCD 14/12 Q1019=
202208221820 METAR ESMX 221820Z AUTO 18002KT 9999 NCD 15/12 Q1019=
202208221750 METAR ESMX 221750Z AUTO 00000KT 9999 NCD 17/12 Q1019=
202208221720 METAR ESMX 221720Z AUTO 00000KT 9999 NCD 17/11 Q1019=
202208221650 METAR ESMX 221650Z AUTO 00000KT 9999 NCD 18/10 Q1019=
202208221620 METAR ESMX 221620Z AUTO 33002KT 9999 NCD 20/10 Q1019=
202208221550 METAR ESMX 221550Z 34003KT CAVOK 21/08 Q1019=
202208221520 METAR ESMX 221520Z 36003KT CAVOK 20/08 Q1019=
202208221450 METAR ESMX 221450Z 35004KT CAVOK 21/09 Q1019=
202208221420 METAR ESMX 221420Z 27003KT 190V300 CAVOK 21/08 Q1019=
202208221350 METAR ESMX 221350Z 32004KT 280V340 CAVOK 20/08 Q1019=
202208221320 METAR ESMX 221320Z 29004KT 250V330 CAVOK 21/08 Q1018=
202208221250 METAR ESMX 221250Z VRB04KT CAVOK 21/07 Q1019=
202208221220 METAR ESMX 221220Z 22003KT CAVOK 20/08 Q1019=
202208221150 METAR ESMX 221150Z 35003KT 300V070 CAVOK 20/09 Q1019=
202208221120 METAR ESMX 221120Z 24004KT CAVOK 20/08 Q1019=
202208221050 METAR ESMX 221050Z 31004KT 260V340 9999 FEW044 20/08 Q1019=
202208221020 METAR ESMX 221020Z 36005KT 9999 SCT042 20/09 Q1019=
202208220950 METAR ESMX 220950Z AUTO 36004KT 330V030 9999 BKN040/// 19/10 Q1019=
202208220920 METAR ESMX 220920Z AUTO 35005KT 320V040 9999 SCT037/// 18/09 Q1019=
202208220850 METAR ESMX 220850Z AUTO 33005KT 280V020 9999 BKN034/// 18/10 Q1018=
202208220820 METAR ESMX 220820Z AUTO 32005KT 230V360 9999 FEW026/// 17/11 Q1018=
202208220750 METAR ESMX 220750Z AUTO 34006KT 300V010 9999 NCD 17/11 Q1018=
202208220720 METAR ESMX 220720Z AUTO 32006KT 280V350 9999 NCD 16/11 Q1018=
202208220650 METAR ESMX 220650Z AUTO 31005KT 240V350 9999 NCD 16/12 Q1018=
202208220620 METAR ESMX 220620Z AUTO 31003KT 280V350 9999 NCD 15/13 Q1018=
202208220550 METAR ESMX 220550Z AUTO VRB01KT 9999 NCD 14/12 Q1018=
202208220520 METAR ESMX 220520Z 29002KT CAVOK 12/12 Q1017=
202208220450 METAR ESMX 220450Z 15003KT CAVOK 11/11 Q1017=
202208220420 METAR ESMX 220420Z 29003KT CAVOK 09/09 Q1017=
202208220350 METAR COR ESMX 220350Z 29002KT CAVOK 09/09 Q1016=
202208220320 METAR ESMX 220320Z AUTO 29003KT 9999 NCD 09/09 Q1016=
202208220250 METAR ESMX 220250Z AUTO 29002KT 9999 NCD 10/10 Q1016=
202208220220 METAR ESMX 220220Z AUTO 00000KT 9999 BCFG NCD 11/11 Q1016=
202208220150 METAR ESMX 220150Z AUTO 00000KT 9999 BR NCD 11/11 Q1016=
202208220120 METAR ESMX 220120Z AUTO 00000KT 9999 NCD 13/13 Q1016=
202208220050 METAR ESMX 220050Z AUTO 28004KT 9999 NCD 13/13 Q1015=
202208220020 METAR ESMX 220020Z AUTO 26004KT 9999 NCD 13/12 Q1015=
202208212350 METAR ESMX 212350Z AUTO 21002KT 9999 FEW080/// 13/12 Q1015=
202208212320 METAR ESMX 212320Z AUTO 25004KT 9999 NCD 14/12 Q1015=
202208212250 METAR ESMX 212250Z AUTO 23005KT 9999 SCT092/// 14/12 Q1015=
202208212220 METAR ESMX 212220Z AUTO 23004KT 9999 FEW062/// 15/12 Q1015=
202208212150 METAR ESMX 212150Z AUTO 23004KT 9999 FEW061/// SCT076/// 15/12 Q1014=
202208212120 METAR ESMX 212120Z AUTO 23003KT 9999 OVC059/// 16/13 Q1014=
202208212050 METAR ESMX 212050Z AUTO 24003KT 9999 BKN059/// 15/13 Q1014=
202208212020 METAR ESMX 212020Z AUTO 24003KT 9999 FEW064/// 14/12 Q1014=
202208211950 METAR ESMX 211950Z 25003KT CAVOK 15/12 Q1014=
202208211920 METAR ESMX 211920Z 18003KT CAVOK 15/12 Q1014=
202208211850 METAR ESMX 211850Z 25003KT CAVOK 16/12 Q1014=
202208211820 METAR ESMX 211820Z 27002KT CAVOK 19/12 Q1013=
202208211750 METAR ESMX 211750Z 24003KT 210V280 CAVOK 20/11 Q1013=
202208211720 METAR ESMX 211720Z 27005KT CAVOK 20/11 Q1013=
202208211650 METAR ESMX 211650Z VRB02KT CAVOK 20/12 Q1013=
202208211620 METAR ESMX 211620Z 25003KT CAVOK 20/11 Q1013=
202208211550 METAR ESMX 211550Z 24006KT 210V270 CAVOK 21/11 Q1013=
202208211520 METAR ESMX 211520Z 24006KT CAVOK 21/11 Q1013=
202208211450 METAR ESMX 211450Z 21009KT CAVOK 22/11 Q1013=
202208211420 METAR ESMX 211420Z 22005KT 9999 FEW048 SCT064 22/12 Q1013=
202208211350 METAR ESMX 211350Z 23007KT 200V280 9999 SCT041 21/12 Q1013=
202208211320 METAR ESMX 211320Z 27007KT 240V330 9999 BKN048 22/13 Q1013=
202208211250 METAR ESMX 211250Z 27008KT 200V300 9999 SCT045 BKN062 21/13 Q1013=
202208211220 METAR ESMX 211220Z 24006KT 9999 FEW043 BKN060 22/12 Q1013=
202208211150 METAR ESMX 211150Z 23006KT 200V280 9999 BKN046 20/12 Q1013=
202208211120 METAR ESMX 211120Z VRB03KT 9999 BKN042 20/11 Q1013=
202208211050 METAR ESMX 211050Z 24007KT 200V270 9999 BKN045 21/12 Q1013=
202208211020 METAR ESMX 211020Z 21008KT 180V280 9999 FEW041 SCT059 22/12 Q1013=
202208210950 METAR ESMX 210950Z 23006KT 190V270 9999 BKN037 21/12 Q1014=
202208210920 METAR ESMX 210920Z AUTO 23007KT 9999 BKN035/// BKN046/// OVC057/// 19/12 Q1014=
202208210850 METAR ESMX 210850Z AUTO 24005KT 210V310 9999 BKN032/// OVC038/// 20/13 Q1014=
202208210820 METAR ESMX 210820Z VRB03KT 9999 FEW031 20/13 Q1014=
202208210750 METAR ESMX 210750Z 27003KT CAVOK 19/13 Q1014=
202208210720 METAR ESMX 210720Z 26004KT CAVOK 18/13 Q1014=
202208210650 METAR ESMX 210650Z 25003KT 210V290 CAVOK 17/14 Q1014=
202208210620 METAR ESMX 210620Z VRB02KT CAVOK 15/13 Q1014=
202208210550 METAR ESMX 210550Z 25002KT CAVOK 12/12 Q1014=
202208210520 METAR ESMX 210520Z 21002KT CAVOK 11/11 Q1014=
202208210450 METAR ESMX 210450Z 00000KT CAVOK 10/10 Q1014=
202208210420 METAR ESMX 210420Z 28002KT CAVOK 10/10 Q1014=
202208210350 METAR ESMX 210350Z 28002KT CAVOK 11/11 Q1014=
202208210320 METAR ESMX 210320Z AUTO 21002KT 9999 BKN170/// 11/11 Q1014=
202208210250 METAR ESMX 210250Z AUTO 28002KT 9999 BKN170/// 11/11 Q1014=
202208210220 METAR ESMX 210220Z AUTO 28002KT 9999 BKN160/// OVC190/// 11/11 Q1014=
202208210150 METAR ESMX 210150Z AUTO 21002KT 9999 SCT190/// 11/11 Q1014=
202208210120 METAR ESMX 210120Z AUTO 28003KT 9999 FEW180/// 11/11 Q1014=
202208210050 METAR ESMX 210050Z AUTO 28001KT 9999 FEW180/// 12/11 Q1014=
202208210020 METAR ESMX 210020Z AUTO 30003KT 9999 OVC170/// 13/12 Q1014=
202208202350 METAR ESMX 202350Z AUTO 30002KT 9999 BKN170/// 14/12 Q1014=
202208202320 METAR ESMX 202320Z AUTO 31003KT 9999 SCT140/// 14/11 Q1014=
202208202250 METAR ESMX 202250Z AUTO 31004KT 9999 BKN140/// 15/12 Q1014=
202208202220 METAR ESMX 202220Z AUTO 31005KT 9999 SCT120/// 16/12 Q1014=
202208202150 METAR ESMX 202150Z AUTO 32003KT 9999 OVC110/// 16/11 Q1014=
202208202120 METAR ESMX 202120Z AUTO 31004KT 9999 BKN130/// OVC160/// 16/12 Q1014=
202208202050 METAR ESMX 202050Z AUTO 31004KT 280V350 9999 OVC150/// 17/12 Q1014=
202208202020 METAR ESMX 202020Z AUTO 31004KT 9999 BKN140/// 17/12 Q1014=
202208201950 METAR ESMX 201950Z AUTO 30004KT 9999 BKN150/// 17/13 Q1014=
202208201920 METAR ESMX 201920Z AUTO 29005KT 9999 BKN150/// 18/12 Q1014=
202208201850 METAR ESMX 201850Z AUTO 27004KT 9999 SCT150/// BKN210/// 18/12 Q1014=
202208201820 METAR ESMX 201820Z AUTO 26004KT 9999 BKN160/// 19/12 Q1014=
202208201750 METAR ESMX 201750Z AUTO 27005KT 9999 FEW180/// SCT210/// 20/13 Q1014=
202208201720 METAR ESMX 201720Z AUTO 28005KT 9999 BKN180/// 20/13 Q1013=
202208201650 METAR ESMX 201650Z AUTO 28007KT 250V320 9999 SCT200/// 21/12 Q1013=
202208201620 METAR ESMX 201620Z AUTO 30006KT 9999 SCT200/// 22/14 Q1013=
202208201550 METAR ESMX 201550Z AUTO 30006KT 270V330 9999 FEW180/// 22/14 Q1013=
202208201520 METAR ESMX 201520Z AUTO 27007KT 230V300 9999 FEW180/// 22/14 Q1013=
202208201450 METAR ESMX 201450Z AUTO 28008KT 9999 BKN180/// 22/13 Q1013=
202208201420 METAR ESMX 201420Z AUTO 29007KT 250V320 9999 BKN190/// 22/14 Q1013=
202208201350 METAR ESMX 201350Z AUTO 31008KT 280V350 9999 BKN190/// 22/15 Q1013=
202208201320 METAR ESMX 201320Z AUTO 27006KT 9999 FEW029/// BKN130/// 22/15 Q1013=
202208201250 METAR ESMX 201250Z AUTO 29007KT 250V340 9999 FEW024/// OVC130/// 21/16 Q1013=
202208201220 METAR ESMX 201220Z AUTO 30007KT 9999 BKN130/// 21/16 Q1013=
202208201150 METAR ESMX 201150Z AUTO 27007KT 9999 OVC120/// 20/16 Q1012=
202208201120 METAR ESMX 201120Z AUTO 27007KT 230V300 9999 BKN110/// OVC140/// 20/16 Q1012=
202208201050 METAR ESMX 201050Z AUTO 28006KT 250V320 9999 BKN110/// 20/17 Q1012=
202208201020 METAR ESMX 201020Z AUTO 27006KT 9999 FEW088/// SCT110/// 19/17 Q1012=
202208200950 METAR ESMX 200950Z AUTO 28006KT 9999 -DZ BKN120/// 19/17 Q1012=
202208200920 METAR ESMX 200920Z AUTO 29006KT 9999 FEW008/// SCT037/// BKN120/// 20/18 Q1011=
202208200850 METAR ESMX 200850Z AUTO 27008KT 9999 BKN008/// OVC011/// 19/18 Q1011=
202208200820 METAR ESMX 200820Z AUTO 26008KT 9999 BKN006/// OVC010/// 19/19 Q1011=
202208200750 METAR ESMX 200750Z AUTO 28006KT 9999 OVC006/// 20/19 Q1011=
202208200720 METAR ESMX 200720Z AUTO 29006KT 9999 OVC005/// 20/19 Q1010=
202208200650 METAR ESMX 200650Z AUTO 29006KT 9999 SCT002/// OVC004/// 19/19 Q1010=
202208200620 METAR ESMX 200620Z AUTO 27005KT 4200 BR BKN002/// OVC004/// 19/19 Q1010=
202208200550 METAR ESMX 200550Z AUTO 29006KT 1200 R01/P2000D R19/P2000N BR BKN003/// OVC008/// 19/19 Q1010=
202208200520 METAR ESMX 200520Z AUTO 29004KT 9999 OVC004/// 19/19 Q1010=
202208200450 METAR ESMX 200450Z AUTO 27005KT 9999 BKN004/// BKN007/// OVC008/// 18/18 Q1010=
202208200420 METAR ESMX 200420Z AUTO 27003KT 9000 FEW001/// SCT005/// OVC009/// 18/18 Q1010=
202208200350 METAR ESMX 200350Z AUTO 26005KT 1300 R01/1800N R19/P2000N FG OVC001/// 18/18 Q1010=
202208200320 METAR ESMX 200320Z AUTO 26004KT 6000 FEW002/// OVC006/// 19/19 Q1010=
202208200250 METAR ESMX 200250Z AUTO 27004KT 6000 BCFG BKN005/// 18/18 Q1009=
202208200220 METAR ESMX 200220Z AUTO 35003KT 320V020 0800 R01/P2000N R19/P2000N FG SCT005/// 18/18 Q1009 REDZ=
202208200150 METAR ESMX 200150Z AUTO 32004KT 9999 BKN015/// BKN110/// 19/19 Q1009=
202208200120 METAR ESMX 200120Z AUTO 36004KT 9999 SCT013/// BKN110/// 19/19 Q1009=
202208200050 METAR ESMX 200050Z AUTO 32005KT 9999 FEW005/// OVC010/// 19/19 Q1009=
202208200020 METAR ESMX 200020Z AUTO 31004KT 7000 BR OVC006/// 19/19 Q1010=
202208192350 METAR ESMX 192350Z AUTO 31004KT 7000 BR OVC004/// 18/18 Q1010=
202208192320 METAR ESMX 192320Z AUTO 31005KT 7000 BR OVC004/// 19/19 Q1010=
202208192250 METAR ESMX 192250Z AUTO 35006KT 9999 SCT005/// OVC037/// 19/19 Q1010=
202208192220 METAR ESMX 192220Z AUTO 32004KT 9000 BR FEW006/// SCT038/// BKN066/// 19/19 Q1010=
202208192150 METAR ESMX 192150Z AUTO 34004KT 9999 FEW120/// 18/18 Q1010=
202208192120 METAR ESMX 192120Z AUTO 34006KT 9999 BKN120/// 19/19 Q1010=
202208192050 METAR ESMX 192050Z AUTO 34006KT 9999 FEW082/// BKN110/// 19/19 Q1011 REDZ=
202208192020 METAR ESMX 192020Z AUTO 02005KT 9999 FEW007/// BKN086/// 19/19 Q1011=
202208191950 METAR ESMX 191950Z AUTO 04003KT 9999 SCT042/// BKN070/// OVC090/// 19/19 Q1011=
202208191920 METAR ESMX 191920Z AUTO 04005KT 9999 -DZ FEW055/// SCT070/// BKN098/// 19/19 Q1011=
202208191850 METAR ESMX 191850Z AUTO 03006KT 9999 SCT044/// BKN055/// 19/19 Q1011=
202208191820 METAR ESMX 191820Z 03005KT 9999 FEW010 SCT064CB BKN084 19/19 Q1011=
202208191750 METAR ESMX 191750Z VRB03KT 6000 RA SCT040CB BKN053 19/19 Q1012=
202208191720 METAR ESMX 191720Z 36009KT 9999 VCSH SCT044CB BKN055 19/19 Q1011=
202208191650 METAR ESMX 191650Z 17006KT 8000 SHRA TS FEW004 BKN051CB 19/19 Q1012=
202208191620 METAR ESMX 191620Z 30005KT 9999 VCSH FEW042CB BKN094 19/19 Q1011=
202208191550 METAR ESMX 191550Z 36004KT 9999 SHRA TS FEW060CB BKN092 18/18 Q1011=
202208191520 METAR COR ESMX 191520Z 15012G26KT 020V170 0450 R01/P1800D R19/1100N +SHRA TS BKN026CB 18/18 Q1012=
202208191450 METAR ESMX 191450Z VRB04KT 9999 VCSH FEW060CB 25/21 Q1011=
202208191420 METAR ESMX 191420Z 32005KT 9999 VCSH FEW044 26/21 Q1011=
202208191350 METAR ESMX 191350Z 28006KT 9999 FEW044 26/21 Q1011=
202208191320 METAR ESMX 191320Z 25006KT 200V280 9999 VCSH FEW042 25/21 Q1012=
202208191250 METAR ESMX 191250Z 00000KT 9999 -RA FEW043 25/21 Q1012=
202208191220 METAR ESMX 191220Z VRB02KT 9999 VCSH FEW042 25/21 Q1012=
202208191150 METAR ESMX 191150Z 22008KT 9999 SCT042 24/20 Q1012 RESHRA=
202208191120 METAR ESMX 191120Z 16004KT 9999 FEW041 27/19 Q1012=
202208191050 METAR ESMX 191050Z 16005KT CAVOK 27/19 Q1012=
202208191020 METAR ESMX 191020Z 14005KT 070V180 CAVOK 27/19 Q1013=
202208190950 METAR ESMX 190950Z 15007KT 100V170 CAVOK 27/18 Q1013=
202208190920 METAR ESMX 190920Z AUTO 11004KT 060V150 9999 NCD 27/18 Q1013=
202208190850 METAR ESMX 190850Z AUTO 11006KT 060V140 9999 NCD 27/19 Q1013=
202208190820 METAR ESMX 190820Z AUTO 13003KT 9999 NCD 26/19 Q1013=
202208190750 METAR ESMX 190750Z AUTO 08004KT 040V110 9999 NCD 25/19 Q1013=
202208190720 METAR ESMX 190720Z AUTO 11005KT 070V140 9999 NCD 24/19 Q1013=
202208190650 METAR ESMX 190650Z AUTO 12004KT 9999 NCD 23/19 Q1013=
202208190620 METAR ESMX 190620Z AUTO 12004KT 9999 NCD 22/18 Q1013=
202208190550 METAR ESMX 190550Z 11004KT CAVOK 21/18 Q1013=
202208190520 METAR ESMX 190520Z 11002KT CAVOK 20/18 Q1012=
202208190450 METAR ESMX 190450Z VRB01KT CAVOK 18/18 Q1012=
202208190420 METAR ESMX 190420Z 08001KT CAVOK 18/18 Q1012=
202208190350 METAR ESMX 190350Z VRB02KT 9000 MIFG NSC 18/18 Q1012=
202208190320 METAR ESMX 190320Z AUTO 00000KT 9000 BR NCD 18/18 Q1012=
202208190250 METAR ESMX 190250Z AUTO 11002KT 9999 NCD 18/18 Q1012=
202208190220 METAR ESMX 190220Z AUTO 11003KT 9999 NCD 18/18 Q1012=
202208190150 METAR ESMX 190150Z AUTO 13003KT 9999 NCD 18/18 Q1013=
202208190120 METAR ESMX 190120Z AUTO 10003KT 9999 NCD 19/19 Q1012=
202208190050 METAR ESMX 190050Z AUTO 12003KT 9999 NCD 19/19 Q1012=
202208190020 METAR ESMX 190020Z AUTO 11002KT 9999 NCD 18/18 Q1012=
202208182350 METAR ESMX 182350Z 10004KT CAVOK 19/19 Q1013=
202208182320 METAR COR ESMX 182320Z 11004KT CAVOK 20/19 Q1013=
202208182250 METAR COR ESMX 182250Z 12002KT CAVOK 20/19 Q1013=
202208182220 METAR ESMX 182220Z AUTO 12003KT 9999 NCD 20/19 Q1013=
202208182150 METAR ESMX 182150Z AUTO 11003KT 060V140 9999 NCD 20/18 Q1013=
202208182120 METAR ESMX 182120Z AUTO 12004KT 070V160 9999 NCD 21/18 Q1013=
202208182050 METAR ESMX 182050Z AUTO 16004KT 9999 NCD 21/18 Q1013=
202208182020 METAR ESMX 182020Z VRB03KT CAVOK 20/17 Q1013=
202208181950 METAR ESMX 181950Z VRB02KT CAVOK 19/17 Q1013=
202208181920 METAR ESMX 181920Z VRB02KT CAVOK 20/17 Q1013=
202208181850 METAR ESMX 181850Z 16003KT CAVOK 20/16 Q1013=
202208181820 METAR ESMX 181820Z 00000KT CAVOK 21/17 Q1013=
202208181750 METAR ESMX 181750Z 16003KT CAVOK 24/16 Q1012=
202208181720 METAR COR ESMX 181720Z 14004KT 110V180 CAVOK 24/17 Q1012=
202208181650 METAR ESMX 181650Z AUTO 14003KT 100V180 9999 NCD 25/16 Q1012=
202208181620 METAR COR ESMX 181620Z 17004KT CAVOK 26/16 Q1012=
202208181550 METAR ESMX 181550Z 15006KT 100V180 CAVOK 28/15 Q1013=
202208181520 METAR ESMX 181520Z 14005KT 100V190 CAVOK 27/15 Q1013=
202208181450 METAR ESMX 181450Z 16005KT CAVOK 28/15 Q1013=
202208181420 METAR ESMX 181420Z 16004KT 140V200 CAVOK 27/14 Q1013=
202208181350 METAR COR ESMX 181350Z 17006KT CAVOK 27/15 Q1013=
202208181320 METAR ESMX 181320Z AUTO 17005KT 9999 FEW084/// 28/16 Q1013=
202208181250 METAR ESMX 181250Z AUTO 16007KT 110V180 9999 FEW170/// 28/16 Q1013=
202208181220 METAR ESMX 181220Z AUTO 18006KT 140V230 9999 FEW160/// 27/17 Q1014=
202208181150 METAR ESMX 181150Z AUTO 18006KT 150V210 9999 SCT130/// BKN210/// 26/18 Q1014=
202208181120 METAR ESMX 181120Z AUTO 16004KT 9999 BKN120/// 25/17 Q1014=
202208181050 METAR ESMX 181050Z AUTO 15004KT 9999 OVC110/// 25/18 Q1014=
202208181020 METAR ESMX 181020Z AUTO 17002KT 9999 OVC120/// 24/18 Q1014=
202208180950 METAR ESMX 180950Z AUTO 15003KT 9999 OVC130/// 24/18 Q1014=
202208180920 METAR ESMX 180920Z AUTO 18005KT 9999 OVC130/// 24/18 Q1014=
202208180850 METAR ESMX 180850Z AUTO 15004KT 9999 SCT150/// 25/17 Q1014=
202208180820 METAR ESMX 180820Z 15004KT CAVOK 24/17 Q1015=
202208180750 METAR ESMX 180750Z VRB02KT CAVOK 24/18 Q1014=
202208180720 METAR ESMX 180720Z VRB03KT CAVOK 23/17 Q1014=
202208180650 METAR ESMX 180650Z 04002KT CAVOK 21/17 Q1014=
202208180620 METAR ESMX 180620Z 04003KT CAVOK 21/17 Q1014=
202208180550 METAR ESMX 180550Z 35002KT CAVOK 21/18 Q1014=
202208180520 METAR ESMX 180520Z 03003KT CAVOK 19/19 Q1014=
202208180450 METAR ESMX 180450Z 03003KT CAVOK 15/15 Q1014=
202208180420 METAR ESMX 180420Z VRB02KT 9999 MIFG NSC 14/14 Q1014=
202208180350 METAR ESMX 180350Z 03002KT 9999 R01/2000U R19/0600N BCFG NSC 14/14 Q1014=
202208180320 METAR ESMX 180320Z AUTO 00000KT 0150 R01/0375N R19/P2000N BCFG NCD 14/14 Q1014=
202208180250 METAR ESMX 180250Z AUTO 00000KT 0200 R01/P2000N R19/P2000D BCFG NCD 14/14 Q1014=
202208180220 METAR ESMX 180220Z AUTO 00000KT 9999 BCFG NCD 15/15 Q1014=
202208180150 METAR ESMX 180150Z AUTO 00000KT 0300 R01/P2000N R19/P2000N FG SCT220/// 15/15 Q1014=
202208180120 METAR ESMX 180120Z AUTO 00000KT 9000 BR SCT220/// 16/16 Q1014=
202208180050 METAR ESMX 180050Z AUTO 00000KT 6000 BR NCD 16/16 Q1014=
202208180020 METAR ESMX 180020Z AUTO 00000KT 9999 FEW210/// 16/16 Q1014=
202208172350 METAR ESMX 172350Z 00000KT CAVOK 16/16 Q1014=
202208172320 METAR COR ESMX 172320Z 00000KT CAVOK 15/15 Q1014=
202208172250 METAR ESMX 172250Z AUTO 00000KT 9999 NCD 15/15 Q1014=
202208172220 METAR ESMX 172220Z AUTO 00000KT 9999 NCD 16/16 Q1014=
202208172150 METAR ESMX 172150Z AUTO 00000KT 9999 NCD 17/16 Q1014=
202208172120 METAR ESMX 172120Z AUTO 19002KT 9999 NCD 17/16 Q1014=
202208172050 METAR ESMX 172050Z AUTO 00000KT 9999 NCD 17/16 Q1014=
202208172020 METAR ESMX 172020Z 00000KT CAVOK 18/17 Q1014=
202208171950 METAR ESMX 171950Z VRB02KT CAVOK 19/16 Q1014=
202208171920 METAR ESMX 171920Z 00000KT CAVOK 19/16 Q1014=
202208171850 METAR ESMX 171850Z 28003KT CAVOK 20/17 Q1014=
202208171820 METAR ESMX 171820Z 28002KT CAVOK 22/17 Q1013=
202208171750 METAR ESMX 171750Z 27004KT 250V310 CAVOK 23/17 Q1013=
202208171720 METAR ESMX 171720Z AUTO 30004KT 9999 NCD 24/17 Q1013=
202208171650 METAR ESMX 171650Z AUTO 28003KT 9999 NCD 25/18 Q1013=
202208171620 METAR ESMX 171620Z AUTO 27003KT 9999 FEW210/// 26/16 Q1013=
202208171550 METAR ESMX 171550Z AUTO 25004KT 9999 ////// 26/16 Q1013=
202208171520 METAR ESMX 171520Z AUTO 26004KT 9999 NCD 26/16 Q1013=
202208171450 METAR ESMX 171450Z AUTO 28006KT 9999 NCD 27/15 Q1013=
202208171420 METAR ESMX 171420Z 25006KT 200V300 CAVOK 27/15 Q1013=
202208171350 METAR ESMX 171350Z 23007KT 9999 FEW043 27/15 Q1013=
202208171320 METAR ESMX 171320Z 26007KT 210V300 9999 FEW040 27/16 Q1013=
202208171250 METAR ESMX 171250Z 23007KT 190V280 9999 FEW040 26/16 Q1013=
202208171220 METAR ESMX 171220Z 26006KT 220V310 9999 FEW035 26/17 Q1013=
202208171150 METAR COR ESMX 171150Z 23006KT 9999 FEW036 26/18 Q1013=
202208171120 METAR ESMX 171120Z 22006KT 150V260 9999 SCT035 26/18 Q1013=
202208171050 METAR ESMX 171050Z 23006KT 200V280 9999 FEW034 26/18 Q1013=
202208171020 METAR ESMX 171020Z 21005KT 170V240 9999 SCT033 25/17 Q1013=
202208170950 METAR ESMX 170950Z 23005KT 9999 FEW029 25/18 Q1013=
202208170920 METAR ESMX 170920Z 27007KT 210V290 9999 SCT026 23/17 Q1013=
202208170850 METAR ESMX 170850Z 24004KT 210V290 9999 FEW021 23/18 Q1013=
202208170820 METAR ESMX 170820Z 22006KT CAVOK 23/18 Q1012=
202208170750 METAR ESMX 170750Z 17004KT CAVOK 22/19 Q1012=
202208170720 METAR ESMX 170720Z 17004KT CAVOK 21/18 Q1012=
202208170650 METAR ESMX 170650Z 17004KT CAVOK 21/18 Q1012=
202208170620 METAR ESMX 170620Z AUTO 16005KT 9999 NCD 20/19 Q1012=
202208170550 METAR ESMX 170550Z AUTO 16005KT 9999 NCD 19/19 Q1012=
202208170520 METAR ESMX 170520Z AUTO 15003KT 8000 BR NCD 19/18 Q1012=
202208170450 METAR ESMX 170450Z AUTO 15003KT 6000 BR NCD 18/18 Q1011=
202208170420 METAR ESMX 170420Z AUTO 00000KT 2400 BR NCD 16/16 Q1011=
202208170350 METAR ESMX 170350Z AUTO 15002KT 0200 R01/P2000N R19/0275N BR NCD 16/16 Q1011=
202208170320 METAR ESMX 170320Z AUTO 15002KT 1500 BR NCD 17/17 Q1011=
202208170250 METAR ESMX 170250Z AUTO 15004KT 7000 NCD 18/18 Q1011=
202208170220 METAR ESMX 170220Z AUTO 15004KT 9999 BCFG NCD 17/17 Q1011=
202208170150 METAR ESMX 170150Z AUTO 15002KT 5000 BR NCD 16/16 Q1011=
202208170120 METAR ESMX 170120Z AUTO 17003KT 9000 NCD 17/17 Q1011=
202208170050 METAR ESMX 170050Z AUTO 16003KT 2300 BR NCD 18/18 Q1011=
202208170020 METAR ESMX 170020Z AUTO 19003KT 7000 BR NCD 18/18 Q1011=
202208162350 METAR ESMX 162350Z AUTO 16004KT 8000 BR NCD 19/19 Q1011=
202208162320 METAR ESMX 162320Z 15004KT CAVOK 19/19 Q1011=
202208162250 METAR ESMX 162250Z AUTO 16004KT 9000 NCD 19/19 Q1010=
202208162220 METAR ESMX 162220Z AUTO 16005KT 9999 NCD 20/19 Q1010=
202208162150 METAR ESMX 162150Z AUTO 16004KT 9999 NCD 20/19 Q1010=
202208162120 METAR ESMX 162120Z AUTO 16004KT 9999 NCD 20/19 Q1010=
202208162050 METAR ESMX 162050Z AUTO 16004KT 9999 SCT100/// 20/19 Q1010=
202208162020 METAR ESMX 162020Z 16005KT CAVOK 21/19 Q1010=
202208161950 METAR COR ESMX 161950Z 16004KT 9999 FEW035 21/19 Q1010=
202208161920 METAR ESMX 161920Z AUTO 16005KT 9999 FEW035/// 22/19 Q1010=
202208161850 METAR ESMX 161850Z AUTO 17005KT 9999 FEW038/// 22/19 Q1009=
202208161820 METAR ESMX 161820Z AUTO 16007KT 9999 NCD 23/19 Q1009=
202208161750 METAR ESMX 161750Z AUTO 17007KT 9999 NCD 23/18 Q1009=
202208161720 METAR ESMX 161720Z 16009KT 120V190 CAVOK 24/18 Q1009=
202208161650 METAR ESMX 161650Z 15008KT 100V180 CAVOK 25/18 Q1008=
202208161620 METAR ESMX 161620Z AUTO 18008KT 9999 NCD 25/18 Q1008=
202208161550 METAR ESMX 161550Z AUTO 17010KT 9999 NCD 26/18 Q1008=
202208161520 METAR ESMX 161520Z AUTO 15009KT 100V200 9999 NCD 26/18 Q1008=
202208161450 METAR ESMX 161450Z AUTO 18012KT 9999 NCD 26/18 Q1008=
202208161420 METAR ESMX 161420Z 17012KT 9999 FEW038 27/18 Q1007=
202208161350 METAR ESMX 161350Z 18013KT 130V200 9999 SCT041 27/18 Q1007=
202208161320 METAR ESMX 161320Z 15010KT 120V190 9999 SCT033 27/18 Q1008=
202208161250 METAR ESMX 161250Z 16010KT 120V190 9999 SCT034 27/19 Q1008=
202208161220 METAR ESMX 161220Z 15009G19KT 110V180 9999 SCT028 26/20 Q1008=
202208161150 METAR ESMX 161150Z 14009KT 100V180 9999 SCT025 26/20 Q1008=
202208161120 METAR ESMX 161120Z 14009KT 100V190 9999 SCT021 25/20 Q1008=
202208161050 METAR ESMX 161050Z 13008KT 080V170 9999 SCT020 25/20 Q1008=
202208161020 METAR ESMX 161020Z 14008KT 080V170 9999 SCT018 24/20 Q1008=
202208160950 METAR ESMX 160950Z VRB07KT 9999 SCT016 24/20 Q1008=
202208160920 METAR ESMX 160920Z AUTO 13006KT 100V200 9999 SCT016/// BKN022/// 23/21 Q1008=
202208160850 METAR ESMX 160850Z AUTO 14008KT 100V190 9999 SCT019/// BKN033/// 23/20 Q1008 REDZ=
202208160820 METAR ESMX 160820Z AUTO 12005KT 080V160 9999 FEW034/// 24/21 Q1008=
202208160750 METAR ESMX 160750Z AUTO 10006KT 050V140 9999 FEW037/// SCT130/// 23/20 Q1008=
202208160720 METAR ESMX 160720Z AUTO 11005KT 060V140 9999 NCD 22/20 Q1008=
202208160650 METAR ESMX 160650Z AUTO 10004KT 040V140 9999 NCD 21/20 Q1008=
202208160620 METAR ESMX 160620Z AUTO 12003KT 070V140 9999 SCT140/// 21/20 Q1008=
202208160550 METAR ESMX 160550Z AUTO 10003KT 9999 SCT110/// BKN140/// 20/20 Q1008=
202208160520 METAR ESMX 160520Z AUTO VRB04KT 9999 BKN120/// 19/19 Q1008=
202208160450 METAR ESMX 160450Z AUTO 04004KT 6000 BR OVC120/// 19/19 Q1008=
202208160420 METAR ESMX 160420Z AUTO 08003KT 8000 BR BKN005/// OVC130/// 19/19 Q1008=
202208160350 METAR ESMX 160350Z AUTO 04005KT 020V080 9999 FEW140/// 19/19 Q1008=
202208160320 METAR ESMX 160320Z AUTO 04005KT 020V080 9999 NCD 18/18 Q1008=
202208160250 METAR ESMX 160250Z AUTO 04005KT 9999 FEW140/// 18/18 Q1008=
202208160220 METAR ESMX 160220Z AUTO 02004KT 9999 -RA FEW002/// SCT062/// BKN078/// 18/18 Q1008=
202208160150 METAR ESMX 160150Z AUTO 04008KT 9999 -RA OVC086/// 17/17 Q1009 RESHRA=
202208160120 METAR ESMX 160120Z AUTO 01004KT 9000 RA FEW001/// OVC088/// 18/18 Q1009=
202208160050 METAR ESMX 160050Z AUTO 12006KT 080V160 1800 +RA SCT001/// BKN042/// BKN120/// 18/18 Q1010 RERA=
202208160020 METAR ESMX 160020Z AUTO 05003KT 9999 SCT061/// 17/17 Q1009=
202208152350 METAR ESMX 152350Z 07004KT 9999 -RA SCT021CB BKN061 17/17 Q1009=
202208152320 METAR ESMX 152320Z 14010G26KT 080V190 2000 +TSRA BKN021CB BKN130 17/17 Q1010 RERA=
202208152250 METAR ESMX 152250Z 08004KT 040V150 9999 FEW041 20/19 Q1009=
202208152220 METAR ESMX 152220Z 13003KT 9999 SCT044 20/18 Q1010=
202208152150 METAR ESMX 152150Z 08004KT 040V140 CAVOK 20/18 Q1010=
202208152120 METAR ESMX 152120Z 08004KT 020V150 CAVOK 21/18 Q1009=
202208152050 METAR ESMX 152050Z 06005KT CAVOK 21/18 Q1009=
202208152020 METAR ESMX 152020Z 07003KT CAVOK 22/18 Q1009=
202208151950 METAR ESMX 151950Z 09004KT 360V160 CAVOK 22/18 Q1010=
202208151920 METAR ESMX 151920Z AUTO 10004KT 070V150 9999 NCD 23/18 Q1010=
202208151850 METAR ESMX 151850Z AUTO 10004KT 9999 NCD 24/18 Q1009=
202208151820 METAR ESMX 151820Z AUTO 10005KT 050V140 9999 NCD 24/18 Q1009=
202208151750 METAR ESMX 151750Z AUTO 11005KT 070V140 9999 NCD 25/17 Q1009=
202208151720 METAR ESMX 151720Z 10005KT 020V160 9999 FEW044TCU SCT060 26/17 Q1009=
202208151650 METAR ESMX 151650Z 11006KT 9999 FEW044TCU SCT060 26/17 Q1008=
202208151620 METAR ESMX 151620Z 11006KT 030V160 9999 FEW044CB SCT060 27/17 Q1008=
202208151550 METAR ESMX 151550Z 10006KT 050V140 9999 SCT044CB BKN060 27/17 Q1008=
202208151520 METAR ESMX 151520Z 11007KT 060V160 9999 SCT044CB SCT060 SCT170 28/17 Q1008=
202208151450 METAR ESMX 151450Z 13008KT 050V170 9999 SCT044CB SCT057 SCT170 29/17 Q1008=
202208151420 METAR ESMX 151420Z 10008G21KT 050V140 9999 FEW047CB SCT057 SCT170 28/17 Q1008=
202208151350 METAR ESMX 151350Z 12006KT 050V160 9999 FEW047CB SCT057 SCT170 28/17 Q1009=
202208151320 METAR ESMX 151320Z 13007KT 080V160 9999 SCT047 28/17 Q1009=
202208151250 METAR ESMX 151250Z 11009KT 070V160 9999 -SHRA SCT047 28/18 Q1009=
202208151220 METAR ESMX 151220Z 10010KT 050V140 9999 BKN047 29/17 Q1009=
202208151150 METAR ESMX 151150Z 14008KT 080V170 9999 SCT047 29/17 Q1009=
202208151120 METAR ESMX 151120Z 13008KT 070V160 9999 SCT046 28/17 Q1010=
202208151050 METAR ESMX 151050Z 11008KT 050V170 9999 FEW043 29/19 Q1010=
202208151020 METAR ESMX 151020Z AUTO 09007KT 030V140 9999 NCD 27/19 Q1010=
202208150950 METAR ESMX 150950Z 07007KT 020V130 CAVOK 27/19 Q1010=
202208150920 METAR ESMX 150920Z AUTO 07007KT 030V110 9999 NCD 26/19 Q1010=
202208150850 METAR ESMX 150850Z AUTO 06007KT 030V110 9999 NCD 25/19 Q1011=
202208150820 METAR ESMX 150820Z AUTO 07006KT 020V110 9999 NCD 24/19 Q1011=
202208150750 METAR ESMX 150750Z AUTO 06006KT 330V110 9999 NCD 24/18 Q1011=
202208150720 METAR ESMX 150720Z AUTO 07005KT 020V130 9999 NCD 23/18 Q1011=
202208150650 METAR ESMX 150650Z AUTO 08006KT 030V130 9999 BKN110/// 22/17 Q1011=
202208150620 METAR ESMX 150620Z AUTO 07004KT 9999 FEW100/// SCT170/// 21/17 Q1011=
202208150550 METAR ESMX 150550Z 05004KT CAVOK 20/17 Q1011=
202208150520 METAR ESMX 150520Z 05005KT 030V100 9999 BKN038 19/17 Q1011=
202208150450 METAR ESMX 150450Z 04004KT 9999 SCT039 18/17 Q1011=
202208150420 METAR ESMX 150420Z 04006KT CAVOK 18/17 Q1011=
202208150350 METAR ESMX 150350Z 07004KT CAVOK 18/17 Q1011=
202208150320 METAR ESMX 150320Z AUTO 05004KT 030V090 9999 NCD 18/17 Q1011=
202208150250 METAR ESMX 150250Z AUTO 05005KT 9999 NCD 18/16 Q1011=
202208150220 METAR ESMX 150220Z AUTO 03005KT 350V080 9999 NCD 18/16 Q1011=
202208150150 METAR ESMX 150150Z AUTO 06004KT 9999 NCD 18/16 Q1012=
202208150120 METAR ESMX 150120Z AUTO 07004KT 9999 NCD 18/16 Q1012=
202208150050 METAR ESMX 150050Z AUTO 06005KT 9999 NCD 19/16 Q1012=
202208150020 METAR ESMX 150020Z AUTO 07004KT 020V110 9999 NCD 18/16 Q1012=
202208142350 METAR ESMX 142350Z AUTO 05004KT 9999 NCD 18/16 Q1012=
202208142320 METAR ESMX 142320Z AUTO 06004KT 9999 NCD 18/15 Q1013=
202208142250 METAR ESMX 142250Z AUTO 06004KT 9999 NCD 18/15 Q1013=
202208142220 METAR ESMX 142220Z AUTO 06004KT 9999 NCD 18/15 Q1013=
202208142150 METAR ESMX 142150Z AUTO 07004KT 9999 NCD 19/15 Q1014=
202208142120 METAR ESMX 142120Z 09003KT CAVOK 19/14 Q1014=
202208142050 METAR ESMX 142050Z 11004KT 060V130 CAVOK 20/14 Q1014=
202208142020 METAR ESMX 142020Z 11005KT 060V140 CAVOK 21/14 Q1014=
202208141950 METAR ESMX 141950Z 12004KT CAVOK 22/14 Q1014=
202208141920 METAR ESMX 141920Z 12004KT CAVOK 23/14 Q1014=
202208141850 METAR ESMX 141850Z 12005KT 080V150 CAVOK 24/14 Q1014=
202208141820 METAR ESMX 141820Z 12006KT 070V140 CAVOK 25/13 Q1014=
202208141750 METAR ESMX 141750Z 12005KT 070V150 CAVOK 26/13 Q1013=
202208141720 METAR ESMX 141720Z 13006KT 060V170 CAVOK 27/13 Q1013=
202208141650 METAR ESMX 141650Z 16006KT CAVOK 28/13 Q1013=
202208141620 METAR ESMX 141620Z 15006KT 080V190 CAVOK 28/12 Q1014=
202208141550 METAR ESMX 141550Z 14008KT 090V170 CAVOK 29/12 Q1014=
202208141520 METAR ESMX 141520Z AUTO 13005KT 080V160 9999 NCD 29/12 Q1014=
202208141450 METAR ESMX 141450Z 16008KT 110V210 CAVOK 29/12 Q1014=
202208141420 METAR ESMX 141420Z AUTO 13005KT 070V150 9999 NCD 29/12 Q1014=
202208141350 METAR ESMX 141350Z 13006KT 080V170 CAVOK 29/10 Q1015=
202208141320 METAR ESMX 141320Z 15006KT 100V170 CAVOK 29/10 Q1015=
202208141250 METAR ESMX 141250Z 15007KT 100V170 CAVOK 29/10 Q1016=
202208141220 METAR ESMX 141220Z 16008KT 110V190 CAVOK 29/09 Q1016=
202208141150 METAR ESMX 141150Z 17007KT CAVOK 28/10 Q1016=
202208141120 METAR ESMX 141120Z 15005KT 090V200 CAVOK 28/11 Q1016=
202208141050 METAR ESMX 141050Z 06004KT 350V140 CAVOK 27/12 Q1017=
202208141020 METAR ESMX 141020Z 16004KT CAVOK 27/13 Q1017=
202208140950 METAR ESMX 140950Z 16004KT CAVOK 26/13 Q1017=
202208140920 METAR ESMX 140920Z AUTO 16005KT 9999 NCD 25/14 Q1017=
202208140850 METAR ESMX 140850Z AUTO 15004KT 9999 NCD 24/14 Q1017=
202208140820 METAR ESMX 140820Z 12004KT 060V150 CAVOK 24/14 Q1018=
202208140750 METAR ESMX 140750Z 15003KT CAVOK 23/14 Q1018=
202208140720 METAR ESMX 140720Z 15004KT CAVOK 22/14 Q1018=
202208140650 METAR ESMX 140650Z 16003KT 130V210 CAVOK 21/15 Q1018=
202208140620 METAR ESMX 140620Z 15003KT CAVOK 20/16 Q1018=
202208140550 METAR ESMX 140550Z 15002KT CAVOK 19/16 Q1018=
202208140520 METAR ESMX 140520Z 00000KT CAVOK 17/17 Q1018=
202208140450 METAR ESMX 140450Z 00000KT CAVOK 13/13 Q1018=
202208140420 METAR ESMX 140420Z 00000KT 0150 R01/P2000N R19/0250N BCFG NSC 14/14 Q1018=
202208140350 METAR COR ESMX 140350Z 18002KT 9999 BCFG NSC 13/13 Q1018=
202208140320 METAR ESMX 140320Z AUTO 00000KT 9999 NCD 13/13 Q1018=
202208140250 METAR ESMX 140250Z AUTO 15002KT 9999 NCD 14/14 Q1018=
202208140220 METAR ESMX 140220Z AUTO 15003KT 9999 NCD 14/13 Q1018=
202208140150 METAR ESMX 140150Z AUTO 19002KT 9999 NCD 15/14 Q1019=
202208140120 METAR ESMX 140120Z AUTO 18005KT 9999 NCD 16/15 Q1019=
202208140050 METAR ESMX 140050Z AUTO 16005KT 9999 NCD 16/15 Q1019=
202208140020 METAR ESMX 140020Z AUTO 16002KT 9999 NCD 15/14 Q1019=
202208132350 METAR ESMX 132350Z AUTO 16004KT 9999 NCD 16/13 Q1019=
202208132320 METAR ESMX 132320Z AUTO 16004KT 9999 NCD 16/12 Q1019=
202208132250 METAR ESMX 132250Z AUTO 16005KT 9999 NCD 19/13 Q1019=
202208132220 METAR ESMX 132220Z AUTO 16004KT 9999 NCD 18/13 Q1019=
202208132150 METAR ESMX 132150Z AUTO 16004KT 9999 NCD 17/12 Q1019=
202208132120 METAR ESMX 132120Z AUTO 16005KT 9999 NCD 18/12 Q1019=
202208132050 METAR ESMX 132050Z AUTO 15005KT 9999 NCD 21/13 Q1019=
202208132020 METAR ESMX 132020Z AUTO 17005KT 9999 NCD 22/13 Q1019=
202208131950 METAR ESMX 131950Z AUTO 15005KT 9999 NCD 22/13 Q1019=
202208131920 METAR ESMX 131920Z AUTO 15005KT 9999 NCD 23/14 Q1019=
202208131850 METAR ESMX 131850Z AUTO 15005KT 9999 NCD 23/13 Q1019=
202208131820 METAR ESMX 131820Z AUTO 15003KT 9999 NCD 23/12 Q1019=
202208131750 METAR ESMX 131750Z AUTO 19003KT 9999 NCD 25/13 Q1019=
202208131720 METAR ESMX 131720Z AUTO 16003KT 9999 NCD 26/12 Q1019=
202208131650 METAR ESMX 131650Z AUTO 16003KT 9999 NCD 28/11 Q1019=
202208131620 METAR ESMX 131620Z AUTO 15004KT 9999 NCD 29/10 Q1019=
202208131550 METAR ESMX 131550Z AUTO 15005KT 9999 NCD 29/10 Q1019=
202208131520 METAR ESMX 131520Z AUTO 15003KT 9999 NCD 29/10 Q1020=
202208131450 METAR ESMX 131450Z AUTO 16004KT 9999 NCD 29/11 Q1020=
202208131420 METAR ESMX 131420Z AUTO 08004KT 030V170 9999 NCD 29/11 Q1020=
202208131350 METAR ESMX 131350Z AUTO 11003KT 350V140 9999 NCD 29/09 Q1020=
202208131320 METAR ESMX 131320Z AUTO 14005KT 100V170 9999 NCD 29/11 Q1020=
202208131250 METAR ESMX 131250Z AUTO 14005KT 070V160 9999 NCD 28/12 Q1021=
202208131220 METAR ESMX 131220Z AUTO 18005KT 150V220 9999 NCD 28/12 Q1021=
202208131150 METAR ESMX 131150Z AUTO 15005KT 9999 NCD 28/12 Q1021=
202208131120 METAR ESMX 131120Z AUTO 13004KT 9999 NCD 28/12 Q1021=
202208131050 METAR ESMX 131050Z AUTO 16003KT 9999 NCD 28/15 Q1022=
202208131020 METAR ESMX 131020Z AUTO 17004KT 9999 NCD 27/14 Q1022=
202208130950 METAR ESMX 130950Z AUTO 18004KT 110V210 9999 NCD 26/15 Q1022=
202208130920 METAR ESMX 130920Z AUTO 21001KT 9999 NCD 26/15 Q1022=
202208130850 METAR ESMX 130850Z AUTO 22002KT 9999 NCD 25/14 Q1022=
202208130820 METAR ESMX 130820Z AUTO 22002KT 9999 NCD 24/16 Q1022=
202208130750 METAR ESMX 130750Z AUTO 22003KT 9999 NCD 23/15 Q1022=
202208130720 METAR ESMX 130720Z AUTO 22002KT 9999 NCD 22/15 Q1022=
202208130650 METAR ESMX 130650Z AUTO 28001KT 9999 NCD 20/15 Q1022=
202208130620 METAR ESMX 130620Z AUTO 00000KT 9999 NCD 19/15 Q1022=
202208130550 METAR ESMX 130550Z AUTO 19002KT 9999 NCD 18/15 Q1022=
202208130520 METAR ESMX 130520Z AUTO 19002KT 9999 NCD 17/14 Q1022=
202208130450 METAR ESMX 130450Z AUTO 00000KT 9999 NCD 13/12 Q1022=
202208130420 METAR ESMX 130420Z AUTO 19003KT 9999 NCD 12/12 Q1022=
202208130350 METAR ESMX 130350Z AUTO 18002KT 9999 NCD 11/11 Q1022=
202208130320 METAR ESMX 130320Z AUTO 19002KT 9999 NCD 12/12 Q1022=
202208130250 METAR ESMX 130250Z AUTO 21002KT 9999 NCD 12/12 Q1022=
202208130220 METAR ESMX 130220Z AUTO 16003KT 9999 NCD 12/12 Q1022=
202208130150 METAR ESMX 130150Z AUTO 17002KT 9999 NCD 12/12 Q1022=
202208130120 METAR ESMX 130120Z AUTO 00000KT 9999 NCD 12/12 Q1023=
202208130050 METAR ESMX 130050Z AUTO 19002KT 9999 NCD 15/12 Q1023=
202208130020 METAR ESMX 130020Z AUTO 19003KT 9999 NCD 16/12 Q1023=
202208122350 METAR ESMX 122350Z AUTO 18004KT 9999 NCD 15/12 Q1023=
202208122320 METAR ESMX 122320Z AUTO 19005KT 9999 NCD 14/12 Q1023=
202208122250 METAR ESMX 122250Z AUTO 19005KT 9999 NCD 18/13 Q1023=
202208122220 METAR ESMX 122220Z AUTO 17004KT 9999 NCD 15/13 Q1023=
202208122150 METAR ESMX 122150Z AUTO 19003KT 9999 NCD 16/13 Q1023=
202208122120 METAR ESMX 122120Z AUTO 17003KT 9999 NCD 17/14 Q1023=
202208122050 METAR ESMX 122050Z AUTO 19003KT 9999 NCD 16/14 Q1023=
202208122020 METAR ESMX 122020Z AUTO 19003KT 9999 NCD 19/14 Q1022=
202208121950 METAR ESMX 121950Z AUTO 22003KT 9999 NCD 18/14 Q1023 RERA=
202208121920 METAR ESMX 121920Z AUTO 18005KT 9999 NCD 21/14 Q1022=
202208121850 METAR ESMX 121850Z 18006KT CAVOK 22/14 Q1022=
202208121820 METAR ESMX 121820Z 18008KT CAVOK 24/14 Q1022=
202208121750 METAR ESMX 121750Z 18008KT CAVOK 25/14 Q1022=
202208121720 METAR ESMX 121720Z 15004KT CAVOK 28/10 Q1022=
202208121650 METAR ESMX 121650Z 15004KT CAVOK 28/10 Q1022=
202208121620 METAR ESMX 121620Z 17004KT 140V200 CAVOK 28/11 Q1022=
202208121550 METAR ESMX 121550Z 15004KT CAVOK 28/11 Q1022=
202208121520 METAR ESMX 121520Z 15004KT CAVOK 28/11 Q1023=
202208121450 METAR ESMX 121450Z 19004KT CAVOK 28/11 Q1023=
202208121420 METAR ESMX 121420Z 20005KT CAVOK 29/13 Q1023=
202208121350 METAR ESMX 121350Z 22003KT CAVOK 28/12 Q1023=
202208121320 METAR ESMX 121320Z 11003KT 040V150 CAVOK 28/12 Q1023=
202208121250 METAR ESMX 121250Z 16004KT 110V210 CAVOK 27/13 Q1023=
202208121220 METAR ESMX 121220Z 15005KT CAVOK 27/13 Q1023=
202208121150 METAR ESMX 121150Z AUTO 09004KT 030V180 9999 NCD 27/13 Q1024=
202208121120 METAR ESMX 121120Z AUTO VRB04KT 9999 NCD 26/13 Q1024=
202208121050 METAR ESMX 121050Z AUTO 19003KT 9999 NCD 26/14 Q1024=
202208121020 METAR ESMX 121020Z AUTO 19002KT 9999 NCD 25/13 Q1024=
202208120950 METAR ESMX 120950Z AUTO VRB02KT 9999 NCD 25/13 Q1025=
202208120920 METAR ESMX 120920Z AUTO VRB02KT 9999 NCD 24/13 Q1025=
202208120850 METAR ESMX 120850Z AUTO 22003KT 160V270 9999 NCD 23/13 Q1025=
202208120820 METAR ESMX 120820Z AUTO 19003KT 9999 NCD 23/13 Q1025=
202208120750 METAR ESMX 120750Z AUTO 19001KT 9999 NCD 22/13 Q1025=
202208120720 METAR ESMX 120720Z AUTO 19003KT 9999 NCD 21/13 Q1025=
202208120650 METAR ESMX 120650Z AUTO 00000KT 9999 NCD 20/12 Q1025=
202208120620 METAR ESMX 120620Z AUTO VRB01KT 9999 NCD 19/12 Q1024=
202208120550 METAR ESMX 120550Z AUTO VRB01KT 9999 NCD 18/13 Q1024=
202208120520 METAR ESMX 120520Z 16002KT CAVOK 16/12 Q1024=
202208120450 METAR ESMX 120450Z 00000KT CAVOK 12/11 Q1024=
202208120420 METAR ESMX 120420Z VRB02KT CAVOK 11/10 Q1024=
202208120350 METAR COR ESMX 120350Z 00000KT CAVOK 10/09 Q1024=
202208120320 METAR ESMX 120320Z AUTO 20002KT 9999 NCD 10/09 Q1024=
202208120250 METAR ESMX 120250Z AUTO 18003KT 9999 NCD 12/10 Q1024=
202208120220 METAR ESMX 120220Z AUTO 18002KT 9999 NCD 11/10 Q1024=
202208120150 METAR ESMX 120150Z AUTO VRB01KT 9999 NCD 12/11 Q1024=
202208120120 METAR ESMX 120120Z AUTO 00000KT 9999 NCD 12/11 Q1024=
202208120050 METAR ESMX 120050Z AUTO 00000KT 9999 NCD 11/10 Q1024=
202208120020 METAR ESMX 120020Z AUTO VRB01KT 9999 NCD 13/12 Q1024=
202208112350 METAR ESMX 112350Z 19004KT CAVOK 15/12 Q1024=
202208112320 METAR ESMX 112320Z 19002KT CAVOK 14/11 Q1024=
202208112250 METAR ESMX 112250Z 21004KT CAVOK 15/12 Q1024=
202208112220 METAR ESMX 112220Z 00000KT CAVOK 15/12 Q1024=
202208112150 METAR ESMX 112150Z 27003KT CAVOK 17/11 Q1024=
202208112120 METAR ESMX 112120Z 28003KT 250V320 CAVOK 18/12 Q1024=
202208112050 METAR ESMX 112050Z 29005KT CAVOK 18/12 Q1024=
202208112020 METAR ESMX 112020Z AUTO 28005KT 9999 NCD 18/13 Q1023=
202208111950 METAR ESMX 111950Z 26004KT CAVOK 19/13 Q1023=
202208111920 METAR ESMX 111920Z AUTO 25004KT 9999 NCD 20/13 Q1023=
202208111850 METAR ESMX 111850Z 26004KT CAVOK 21/13 Q1023=
202208111820 METAR ESMX 111820Z 27005KT CAVOK 23/13 Q1023=
202208111750 METAR ESMX 111750Z 27006KT CAVOK 24/14 Q1023=
202208111720 METAR ESMX 111720Z 27006KT CAVOK 25/14 Q1023=
202208111650 METAR ESMX 111650Z 28008KT 250V320 CAVOK 26/14 Q1023=
202208111620 METAR ESMX 111620Z 29008KT 260V330 CAVOK 26/14 Q1023=
202208111550 METAR ESMX 111550Z 29008KT CAVOK 27/14 Q1023=
202208111520 METAR ESMX 111520Z 27005KT 210V330 CAVOK 27/14 Q1023=
202208111450 METAR ESMX 111450Z 27006G18KT 230V010 CAVOK 27/14 Q1024=
202208111420 METAR ESMX 111420Z 29009KT CAVOK 27/14 Q1024=
202208111350 METAR ESMX 111350Z AUTO 25008KT 220V290 9999 NCD 27/14 Q1024=
202208111320 METAR ESMX 111320Z AUTO 29009KT 260V320 9999 NCD 27/14 Q1024=
202208111250 METAR ESMX 111250Z AUTO 26007KT 220V310 9999 NCD 27/14 Q1024=
202208111220 METAR ESMX 111220Z AUTO 24007KT 200V300 9999 NCD 27/14 Q1024=
202208111150 METAR ESMX 111150Z AUTO 24007KT 170V290 9999 NCD 26/14 Q1025=
202208111120 METAR ESMX 111120Z AUTO 25008KT 200V300 9999 NCD 26/13 Q1025=
202208111050 METAR ESMX 111050Z AUTO 23008KT 9999 NCD 25/14 Q1025=
202208111020 METAR ESMX 111020Z AUTO 25007KT 220V300 9999 NCD 24/14 Q1025=
202208110950 METAR ESMX 110950Z AUTO 23008KT 180V260 9999 NCD 24/14 Q1025=
202208110920 METAR ESMX 110920Z AUTO 23006KT 180V260 9999 NCD 24/15 Q1025=
202208110850 METAR ESMX 110850Z AUTO 26007KT 240V310 9999 NCD 23/14 Q1026=
202208110820 METAR ESMX 110820Z 25007KT 220V290 CAVOK 22/14 Q1026=
202208110750 METAR ESMX 110750Z 25007KT CAVOK 21/14 Q1026=
202208110720 METAR ESMX 110720Z 26006KT CAVOK 20/13 Q1026=
202208110650 METAR ESMX 110650Z 25004KT CAVOK 19/14 Q1026=
202208110620 METAR ESMX 110620Z 28003KT CAVOK 18/13 Q1026=
202208110550 METAR COR ESMX 110550Z 25004KT CAVOK 17/13 Q1026=
202208110520 METAR ESMX 110520Z 23003KT CAVOK 15/13 Q1026=
202208110450 METAR ESMX 110450Z 23004KT CAVOK 13/12 Q1026=
202208110420 METAR ESMX 110420Z AUTO 23004KT 9999 NCD 12/12 Q1026=
202208110350 METAR COR ESMX 110350Z 23004KT CAVOK 11/11 Q1026=
202208110320 METAR ESMX 110320Z AUTO 23004KT 9999 NCD 12/11 Q1026=
202208110250 METAR ESMX 110250Z AUTO 18003KT 9999 NCD 11/11 Q1026=
202208110220 METAR ESMX 110220Z AUTO 23004KT 9999 NCD 13/11 Q1026=
202208110150 METAR ESMX 110150Z AUTO 24004KT 9999 NCD 12/11 Q1026=
202208110120 METAR ESMX 110120Z AUTO 25004KT 9999 NCD 12/11 Q1026=
202208110050 METAR ESMX 110050Z AUTO 24003KT 9999 NCD 13/12 Q1026=
202208110020 METAR ESMX 110020Z AUTO 25003KT 9999 NCD 13/12 Q1026=
202208102350 METAR ESMX 102350Z 24005KT CAVOK 12/12 Q1026=
202208102320 METAR ESMX 102320Z 19004KT CAVOK 12/12 Q1026=
202208102250 METAR ESMX 102250Z AUTO 17005KT 9999 NCD 14/12 Q1026=
202208102220 METAR ESMX 102220Z 25003KT CAVOK 14/12 Q1026=
202208102150 METAR ESMX 102150Z 24003KT CAVOK 15/12 Q1026=
202208102120 METAR ESMX 102120Z 23005KT CAVOK 15/12 Q1026=
202208102050 METAR ESMX 102050Z 22004KT CAVOK 16/12 Q1026=
202208102020 METAR ESMX 102020Z 23003KT CAVOK 17/12 Q1026=
202208101950 METAR ESMX 101950Z 23004KT CAVOK 17/12 Q1026=
202208101920 METAR ESMX 101920Z 25004KT CAVOK 18/12 Q1026=
202208101850 METAR ESMX 101850Z 26005KT CAVOK 20/12 Q1026=
202208101820 METAR ESMX 101820Z 27005KT CAVOK 21/13 Q1026=
202208101750 METAR ESMX 101750Z 27006KT CAVOK 22/13 Q1026=
202208101720 METAR ESMX 101720Z AUTO 26007KT 230V290 9999 NCD 22/13 Q1026=
202208101650 METAR ESMX 101650Z AUTO 25007KT 220V290 9999 NCD 23/12 Q1026=
202208101620 METAR ESMX 101620Z AUTO 28008KT 240V340 9999 NCD 23/12 Q1026=
202208101550 METAR ESMX 101550Z AUTO 27008KT 240V300 9999 NCD 24/13 Q1026=
202208101520 METAR ESMX 101520Z 26007KT 220V290 9999 FEW047 24/13 Q1026=
202208101450 METAR ESMX 101450Z 24007KT 210V280 9999 FEW048 25/13 Q1027=
202208101420 METAR ESMX 101420Z 24006KT 210V320 9999 FEW047 24/13 Q1027=
202208101350 METAR ESMX 101350Z VRB07KT 9999 FEW046 23/13 Q1027=
202208101320 METAR ESMX 101320Z 25007KT 210V280 CAVOK 24/13 Q1027=
202208101250 METAR ESMX 101250Z 22008KT 190V260 9999 BKN045 22/12 Q1027=
202208101220 METAR ESMX 101220Z 25008KT 220V280 9999 SCT043 24/13 Q1027=
202208101150 METAR ESMX 101150Z AUTO 23008KT 190V270 9999 SCT041/// 23/12 Q1027=
202208101120 METAR ESMX 101120Z AUTO 24007KT 200V270 9999 BKN040/// 22/13 Q1028=
202208101050 METAR ESMX 101050Z AUTO 24005KT 200V300 9999 FEW036/// 22/13 Q1028=
202208101020 METAR ESMX 101020Z AUTO 23007KT 200V260 9999 SCT034/// 22/14 Q1028=
202208100950 METAR ESMX 100950Z AUTO 24007KT 9999 BKN030/// 21/14 Q1028=
202208100920 METAR ESMX 100920Z AUTO 22007KT 180V270 9999 BKN026/// 20/13 Q1028=
202208100850 METAR ESMX 100850Z 22004KT 190V300 9999 SCT022 19/14 Q1029=
202208100820 METAR ESMX 100820Z 28005KT 9999 BKN017 18/14 Q1029=
202208100750 METAR ESMX 100750Z 29006KT 260V330 9999 FEW014 18/14 Q1029=
202208100720 METAR ESMX 100720Z 29005KT 260V320 CAVOK 17/14 Q1029=
202208100650 METAR COR ESMX 100650Z 30005KT CAVOK 17/14 Q1029=
202208100620 METAR ESMX 100620Z AUTO 29004KT 9999 NCD 16/14 Q1029=
202208100550 METAR ESMX 100550Z AUTO 27002KT 9999 NCD 15/14 Q1029=
202208100520 METAR ESMX 100520Z AUTO VRB02KT 9999 NCD 13/13 Q1029=
202208100450 METAR ESMX 100450Z AUTO 00000KT 8000 NCD 12/12 Q1029=
202208100420 METAR ESMX 100420Z AUTO 19002KT 9999 NCD 10/10 Q1029=
202208100350 METAR ESMX 100350Z AUTO 26002KT 8000 BR NCD 10/10 Q1029=
202208100320 METAR ESMX 100320Z AUTO 25002KT 9999 NCD 09/09 Q1029=
202208100250 METAR ESMX 100250Z AUTO 25003KT 9999 NCD 10/10 Q1028=
202208100220 METAR ESMX 100220Z AUTO 26003KT 9999 NCD 09/09 Q1028=
202208100150 METAR ESMX 100150Z AUTO 26003KT 9999 NCD 11/11 Q1028=
202208100120 METAR ESMX 100120Z AUTO 17003KT 9999 NCD 10/10 Q1028=
202208100050 METAR ESMX 100050Z AUTO 23002KT 9999 NCD 10/10 Q1028=
202208100020 METAR ESMX 100020Z AUTO 23002KT 9999 NCD 11/11 Q1028=
202208092350 METAR ESMX 092350Z 17002KT CAVOK 12/11 Q1028=
202208092320 METAR ESMX 092320Z 25003KT CAVOK 11/11 Q1028=
202208092250 METAR ESMX 092250Z 26003KT CAVOK 13/12 Q1028=
202208092220 METAR ESMX 092220Z AUTO 27003KT 9999 NCD 13/12 Q1028=
202208092150 METAR ESMX 092150Z 27002KT CAVOK 14/12 Q1028=
202208092120 METAR ESMX 092120Z AUTO 26002KT 9999 NCD 15/12 Q1028=
202208092050 METAR ESMX 092050Z 28004KT CAVOK 16/12 Q1028=
202208092020 METAR ESMX 092020Z 27004KT CAVOK 16/12 Q1028=
202208091950 METAR ESMX 091950Z 28005KT CAVOK 14/13 Q1028=
202208091920 METAR ESMX 091920Z AUTO 21002KT 9999 NCD 15/12 Q1028=
202208091850 METAR ESMX 091850Z AUTO 00000KT 9999 NCD 17/12 Q1028=
202208091820 METAR ESMX 091820Z AUTO 29003KT 9999 NCD 19/11 Q1028=
202208091750 METAR ESMX 091750Z AUTO 27003KT 9999 NCD 20/11 Q1027=
202208091720 METAR ESMX 091720Z AUTO 28004KT 9999 NCD 22/11 Q1027=
202208091650 METAR ESMX 091650Z AUTO 29006KT 9999 NCD 22/11 Q1027=
202208091620 METAR ESMX 091620Z AUTO 30006KT 9999 NCD 23/11 Q1028=
202208091550 METAR ESMX 091550Z AUTO 27006KT 9999 FEW053/// 23/11 Q1028=
202208091520 METAR ESMX 091520Z AUTO 26004KT 220V310 9999 FEW049/// 24/12 Q1028=
202208091450 METAR ESMX 091450Z AUTO VRB03KT 9999 FEW049/// 23/11 Q1028=
202208091420 METAR ESMX 091420Z AUTO 23004KT 9999 FEW047/// 23/12 Q1028=
202208091350 METAR ESMX 091350Z AUTO 26004KT 190V330 9999 FEW044/// 23/13 Q1028=
202208091320 METAR ESMX 091320Z 29003KT 240V320 9999 FEW044 23/13 Q1028=
202208091250 METAR ESMX 091250Z 27004KT 230V340 9999 SCT038 22/13 Q1028=
202208091220 METAR ESMX 091220Z 29005KT 220V020 9999 SCT038 22/13 Q1028=
202208091150 METAR ESMX 091150Z 27004KT 230V320 9999 SCT038 22/14 Q1028=
202208091120 METAR ESMX 091120Z 31004KT 280V340 9999 SCT036 21/14 Q1029=
202208091050 METAR ESMX 091050Z 30007KT 9999 SCT034 20/14 Q1029=
202208091020 METAR ESMX 091020Z 21004KT 170V240 9999 SCT033 21/13 Q1029=
202208090950 METAR ESMX 090950Z AUTO VRB03KT 9999 NCD 21/13 Q1029=
202208090920 METAR ESMX 090920Z AUTO 30002KT 9999 NCD 20/12 Q1029=
202208090850 METAR ESMX 090850Z AUTO VRB02KT 9999 NCD 20/15 Q1029=
202208090820 METAR ESMX 090820Z AUTO 03002KT 9999 NCD 19/13 Q1029=
202208090750 METAR ESMX 090750Z AUTO 04003KT 9999 NCD 18/15 Q1029=
202208090720 METAR ESMX 090720Z AUTO 02002KT 9999 NCD 18/15 Q1028=
202208090650 METAR ESMX 090650Z AUTO 07003KT 9999 NCD 17/15 Q1028=
202208090620 METAR ESMX 090620Z AUTO VRB03KT 9999 NCD 17/15 Q1028=
202208090550 METAR ESMX 090550Z AUTO 01003KT 9999 NCD 15/15 Q1028=
202208090520 METAR ESMX 090520Z AUTO 00000KT 9999 NCD 14/14 Q1028=
202208090450 METAR ESMX 090450Z AUTO 00000KT 9999 NCD 12/12 Q1028=
202208090420 METAR ESMX 090420Z AUTO 00000KT 0400 R01/0700U R19/P2000N FG FEW068/// 10/10 Q1028=
202208090350 METAR ESMX 090350Z AUTO 00000KT 0200 R01/0600N R19/0350N BCFG SCT068/// 10/10 Q1028=
202208090320 METAR ESMX 090320Z AUTO 29002KT 9999 FEW068/// 11/11 Q1028=
202208090250 METAR ESMX 090250Z AUTO 28001KT 3100 BCFG FEW086/// 11/11 Q1027=
202208090220 METAR ESMX 090220Z AUTO 00000KT 6000 BCFG BKN086/// 12/12 Q1027=
202208090150 METAR ESMX 090150Z AUTO 26002KT 0500 R01/P2000D R19/P2000N BCFG SCT086/// 13/13 Q1027=
202208090120 METAR ESMX 090120Z AUTO 25002KT 6000 BCFG OVC086/// 11/11 Q1027=
202208090050 METAR ESMX 090050Z AUTO 29002KT 0750 R01/P2000N R19/P2000N OVC086/// 12/12 Q1027=
202208090020 METAR ESMX 090020Z AUTO 00000KT 1200 R01/P2000N R19/P2000N OVC088/// 11/11 Q1027=
202208082350 METAR ESMX 082350Z AUTO 00000KT 0200 R01/0750N R19/1600U FG SCT090/// 12/12 Q1027=
202208082320 METAR ESMX 082320Z 00000KT 2000 BCFG SCT090 13/13 Q1027=
202208082250 METAR ESMX 082250Z 19002KT 3000 BR BKN090 13/13 Q1027=
202208082220 METAR ESMX 082220Z 00000KT 3000 BR BKN090 14/14 Q1027=
202208082150 METAR ESMX 082150Z 00000KT 6000 BR BKN090 15/15 Q1027=
202208082120 METAR ESMX 082120Z 00000KT CAVOK 15/15 Q1026=
202208082050 METAR ESMX 082050Z 29001KT CAVOK 15/15 Q1026=
202208082020 METAR ESMX 082020Z 22002KT 9999 FEW030 BKN055 BKN090 15/15 Q1026=
202208081950 METAR ESMX 081950Z 29002KT 9999 FEW030 BKN055 BKN090 15/15 Q1026=
202208081920 METAR ESMX 081920Z AUTO 28003KT 9999 OVC061/// 15/15 Q1026=
202208081850 METAR ESMX 081850Z AUTO 24002KT 9999 FEW015/// SCT032/// OVC061/// 16/16 Q1026=
202208081820 METAR ESMX 081820Z AUTO VRB02KT 9999 FEW059/// BKN072/// OVC084/// 16/16 Q1025=
202208081750 METAR ESMX 081750Z AUTO 04004KT 330V100 9999 OVC074/// 16/16 Q1025=
202208081720 METAR ESMX 081720Z AUTO 26004KT 9999 FEW057/// BKN070/// 16/15 Q1025=
202208081650 METAR ESMX 081650Z AUTO 23004KT 9999 FEW047/// BKN068/// BKN086/// 17/15 Q1025=
202208081620 METAR ESMX 081620Z AUTO 21003KT 9999 -RA SCT066/// BKN086/// 16/15 Q1025=
202208081550 METAR ESMX 081550Z 29005KT 9999 -RA SCT022CB BKN047 16/15 Q1025 RERA=
202208081520 METAR ESMX 081520Z 32007KT 290V350 4900 SHRA SCT022CB BKN047 16/15 Q1025=
202208081450 METAR ESMX 081450Z 21008KT 9999 FEW017 SCT027CB BKN028 20/14 Q1025=
202208081420 METAR ESMX 081420Z 21008KT 9999 FEW035CB BKN068 BKN094 19/14 Q1025=
202208081350 METAR ESMX 081350Z 21010KT 9999 BKN031 BKN096 19/13 Q1024=
202208081320 METAR ESMX 081320Z 17006KT 9999 BKN036 BKN096 19/13 Q1024=
202208081250 METAR ESMX 081250Z 00000KT 9999 BKN044 19/12 Q1024=
202208081220 METAR COR ESMX 081220Z 30003KT 250V360 9999 BKN044 19/13 Q1024=
202208081150 METAR ESMX 081150Z AUTO 34003KT 9999 OVC070/// 19/13 Q1024=
202208081120 METAR ESMX 081120Z AUTO 29004KT 240V330 9999 BKN043/// OVC070/// 18/12 Q1024=
202208081050 METAR ESMX 081050Z AUTO 31005KT 260V010 9999 SCT026/// OVC034/// 18/12 Q1024=
202208081020 METAR ESMX 081020Z AUTO 21005KT 160V240 9999 SCT026/// BKN035/// OVC076/// 18/13 Q1024=
202208080950 METAR ESMX 080950Z AUTO 25004KT 200V290 9999 FEW019/// OVC074/// 18/13 Q1024=
202208080920 METAR ESMX 080920Z AUTO 24006KT 200V270 9999 BKN019/// BKN031/// OVC070/// 18/13 Q1024=
202208080850 METAR ESMX 080850Z AUTO 24006KT 9999 BKN020/// BKN038/// OVC088/// 17/13 Q1024=
202208080820 METAR ESMX 080820Z 23005KT 200V270 9999 FEW017 SCT023 BKN061 17/13 Q1024=
202208080750 METAR ESMX 080750Z 25005KT 9999 BKN010 16/13 Q1024=
202208080720 METAR COR ESMX 080720Z 24005KT 9999 BKN009 15/13 Q1024=
202208080650 METAR ESMX 080650Z 21006KT 9999 FEW007 SCT010 BKN019 14/13 Q1024=
202208080620 METAR ESMX 080620Z AUTO 24006KT 9999 SCT007/// BKN033/// OVC038/// 14/13 Q1024=
202208080550 METAR ESMX 080550Z AUTO 22006KT 9999 SCT007/// OVC037/// 14/13 Q1024=
202208080520 METAR ESMX 080520Z 22006KT 9999 SCT005 BKN041 14/13 Q1023=
202208080450 METAR ESMX 080450Z 21005KT 9999 BKN042 13/13 Q1023=
202208080420 METAR ESMX 080420Z 20006KT 9999 BKN048 13/13 Q1023=
202208080350 METAR COR ESMX 080350Z 20006KT 9999 BKN044 13/13 Q1023=
202208080320 METAR ESMX 080320Z AUTO 20004KT 9999 FEW038/// BKN076/// 13/13 Q1023=
202208080250 METAR ESMX 080250Z AUTO 21005KT 9999 OVC034/// 13/13 Q1023 REDZ=
202208080220 METAR ESMX 080220Z AUTO 19005KT 7000 -DZ FEW003/// BKN035/// OVC053/// 13/13 Q1023=
202208080150 METAR ESMX 080150Z AUTO 19005KT 9999 FEW040/// OVC049/// 13/13 Q1023=
202208080120 METAR ESMX 080120Z AUTO 20005KT 9999 BKN049/// OVC068/// 13/13 Q1023=
202208080050 METAR ESMX 080050Z AUTO 21004KT 170V230 9999 FEW006/// SCT048/// BKN066/// 13/13 Q1023=
202208080020 METAR ESMX 080020Z AUTO 22003KT 9999 FEW009/// SCT034/// OVC044/// 13/13 Q1023=
202208072350 METAR ESMX 072350Z AUTO 22003KT 9999 FEW006/// OVC012/// 13/13 Q1023=
202208072320 METAR ESMX 072320Z AUTO 20003KT 9999 SCT022/// BKN034/// OVC051/// 13/13 Q1022=
202208072250 METAR ESMX 072250Z AUTO 22003KT 9999 FEW008/// SCT011/// OVC024/// 13/13 Q1022=
202208072220 METAR ESMX 072220Z AUTO 22004KT 9999 FEW008/// SCT011/// OVC019/// 13/13 Q1022=
202208072150 METAR ESMX 072150Z AUTO 21004KT 9999 FEW005/// SCT009/// BKN022/// 13/13 Q1022=
202208072120 METAR ESMX 072120Z AUTO 19005KT 9999 SCT043/// OVC062/// 13/12 Q1022=
202208072050 METAR ESMX 072050Z AUTO 22004KT 9999 SCT038/// OVC064/// 13/12 Q1022=
202208072020 METAR ESMX 072020Z 19005KT 9999 -DZ BKN033 BKN053 13/12 Q1022=
202208071950 METAR ESMX 071950Z 23005KT 9999 -RA SCT016 BKN029 BKN044 14/12 Q1022=
202208071920 METAR ESMX 071920Z 23007KT 9999 SCT007 BKN018 BKN023 14/11 Q1022=
202208071850 METAR ESMX 071850Z 23005KT 9999 BKN027 15/10 Q1022=
202208071820 METAR ESMX 071820Z VRB03KT 9999 SCT032 BKN039 BKN059 15/09 Q1022=
202208071750 METAR ESMX 071750Z 25003KT 9999 SCT045 BKN053 15/09 Q1022=
202208071720 METAR ESMX 071720Z 27005KT 9999 SCT041 BKN051 16/09 Q1022=
202208071650 METAR ESMX 071650Z 26007KT 210V290 9999 SCT042 BKN070 16/08 Q1022=
202208071620 METAR ESMX 071620Z 25007KT 210V290 9999 SCT039 BKN072 BKN090 16/08 Q1022=
202208071550 METAR ESMX 071550Z 24006KT 9999 BKN041 16/10 Q1022=
202208071520 METAR ESMX 071520Z 22007KT 9999 BKN033 BKN053 17/10 Q1022=
202208071450 METAR ESMX 071450Z 24007KT 9999 SCT034 BKN053 BKN084 17/11 Q1022=
202208071420 METAR ESMX 071420Z 22008KT 9999 FEW025 SCT038 BKN049 16/11 Q1022=
202208071350 METAR ESMX 071350Z 19009KT 9999 SCT029 BKN045 OVC061 17/11 Q1022=
202208071320 METAR ESMX 071320Z AUTO 20009KT 9999 SCT028/// OVC061/// 16/10 Q1022=
202208071250 METAR ESMX 071250Z 22007KT 9999 BKN034 OVC046 15/10 Q1022=
202208071220 METAR ESMX 071220Z 21010KT 190V260 9999 FEW039 SCT072 OVC088 16/09 Q1022=
202208071150 METAR ESMX 071150Z 23010KT 9999 FEW038 BKN070 17/08 Q1023=
202208071120 METAR ESMX 071120Z 24010KT CAVOK 16/07 Q1022=
202208071050 METAR ESMX 071050Z 25010KT 220V280 9999 FEW037 SCT074 BKN140 17/07 Q1022=
202208071020 METAR ESMX 071020Z 24014KT 9999 FEW037 BKN110 BKN140 18/09 Q1023=
202208070950 METAR ESMX 070950Z 23012KT 190V260 9999 SCT036 BKN110 BKN140 17/09 Q1023=
202208070920 METAR ESMX 070920Z 22008KT 190V250 9999 FEW029 SCT040 BKN051 16/09 Q1023=
202208070850 METAR ESMX 070850Z 25006KT 200V290 9999 FEW024 SCT038 BKN051 16/10 Q1023=
202208070820 METAR ESMX 070820Z 27008KT 9999 BKN048 15/10 Q1023=
202208070750 METAR ESMX 070750Z 26009KT 220V290 9999 FEW017 SCT034 14/11 Q1023=
202208070720 METAR ESMX 070720Z 25010KT 210V280 9999 BKN017 15/11 Q1023=
202208070650 METAR ESMX 070650Z 23010KT 9999 BKN015 14/11 Q1023=
202208070620 METAR ESMX 070620Z 24008KT 210V280 CAVOK 14/11 Q1023=
202208070550 METAR ESMX 070550Z 22007KT 180V250 CAVOK 13/11 Q1023=
202208070520 METAR ESMX 070520Z 22006KT CAVOK 12/11 Q1023=
202208070450 METAR ESMX 070450Z AUTO 22006KT 9999 NCD 11/10 Q1023=
202208070420 METAR ESMX 070420Z 22005KT CAVOK 09/09 Q1022=
202208070350 METAR COR ESMX 070350Z 23005KT CAVOK 09/09 Q1022=
202208070320 METAR ESMX 070320Z AUTO 23005KT 9999 NCD 09/09 Q1022=
202208070250 METAR ESMX 070250Z AUTO 22004KT 9999 NCD 09/09 Q1022=
202208070220 METAR ESMX 070220Z AUTO 24005KT 9999 NCD 10/10 Q1022=
202208070150 METAR ESMX 070150Z AUTO 23005KT 9999 NCD 10/10 Q1022=
202208070120 METAR ESMX 070120Z AUTO 24006KT 9999 NCD 11/10 Q1022=
202208070050 METAR ESMX 070050Z AUTO 25005KT 9999 NCD 11/10 Q1022=
202208070020 METAR ESMX 070020Z AUTO 25005KT 9999 NCD 11/09 Q1022=
202208062350 METAR ESMX 062350Z AUTO 25005KT 230V300 9999 NCD 11/09 Q1022=
202208062320 METAR ESMX 062320Z AUTO 26006KT 230V290 9999 NCD 11/09 Q1022=
202208062250 METAR ESMX 062250Z AUTO 26007KT 9999 NCD 12/09 Q1022=
202208062220 METAR ESMX 062220Z AUTO 26008KT 9999 NCD 12/09 Q1022=
202208062150 METAR ESMX 062150Z AUTO 26007KT 9999 NCD 12/09 Q1022=
202208062120 METAR ESMX 062120Z AUTO 25007KT 9999 NCD 12/09 Q1022=
202208062050 METAR ESMX 062050Z AUTO 24006KT 9999 NCD 12/09 Q1021=
202208062020 METAR ESMX 062020Z AUTO 26008KT 9999 NCD 13/09 Q1021=
202208061950 METAR ESMX 061950Z AUTO 25008KT 9999 NCD 13/09 Q1021=
202208061920 METAR ESMX 061920Z AUTO 25007KT 9999 NCD 13/10 Q1021=
202208061850 METAR ESMX 061850Z AUTO 24007KT 9999 FEW044/// 14/10 Q1021=
202208061820 METAR ESMX 061820Z AUTO 26009KT 9999 FEW055/// 15/09 Q1021=
202208061750 METAR ESMX 061750Z AUTO 25009KT 9999 SCT055/// 16/10 Q1021=
202208061720 METAR ESMX 061720Z AUTO 25009KT 9999 NCD 16/11 Q1020=
202208061650 METAR ESMX 061650Z AUTO 26008KT 230V290 9999 FEW030/// 16/11 Q1020=
202208061620 METAR ESMX 061620Z AUTO 25010KT 9999 SCT076/// 16/11 Q1020=
202208061550 METAR ESMX 061550Z AUTO 26009KT 9999 FEW045/// BKN062/// BKN190/// 15/10 Q1020=
202208061520 METAR ESMX 061520Z AUTO 26010KT 220V290 9999 FEW037/// OVC070/// 17/09 Q1020=
202208061450 METAR ESMX 061450Z AUTO 26014KT 240V300 9999 BKN040/// OVC066/// 17/09 Q1020=
202208061420 METAR ESMX 061420Z AUTO 23015KT 9999 BKN037/// OVC061/// 18/09 Q1019=
202208061350 METAR ESMX 061350Z AUTO 26013G24KT 230V300 9999 BKN039/// OVC068/// 17/09 Q1019=
202208061320 METAR ESMX 061320Z AUTO 26012KT 210V300 9999 FEW038/// SCT049/// 18/10 Q1019=
202208061250 METAR ESMX 061250Z AUTO 24013KT 210V280 9999 SCT044/// BKN061/// OVC076/// 17/09 Q1019=
202208061220 METAR ESMX 061220Z AUTO 25014KT 210V290 9999 BKN045/// OVC072/// 18/09 Q1019=
202208061150 METAR ESMX 061150Z AUTO 26014KT 9999 SCT042/// 18/09 Q1019=
202208061120 METAR ESMX 061120Z AUTO 24013KT 210V280 9999 SCT042/// 17/09 Q1019=
202208061050 METAR ESMX 061050Z AUTO 27013KT 230V300 9999 BKN055/// 17/07 Q1019=
202208061020 METAR ESMX 061020Z AUTO 26013G25KT 230V290 9999 FEW045/// SCT055/// 17/08 Q1019=
202208060950 METAR ESMX 060950Z AUTO 26013KT 210V290 9999 SCT045/// 16/07 Q1019=
202208060920 METAR ESMX 060920Z AUTO 26014KT 230V300 9999 SCT045/// 17/08 Q1018=
202208060850 METAR ESMX 060850Z AUTO 26016G27KT 230V290 9999 BKN039/// 17/08 Q1018=
202208060820 METAR ESMX 060820Z AUTO 27013KT 230V300 9999 SCT034/// 16/09 Q1018=
202208060750 METAR ESMX 060750Z AUTO 25014KT 9999 BKN032/// 15/09 Q1018=
202208060720 METAR ESMX 060720Z AUTO 27011KT 230V300 9999 BKN029/// 15/08 Q1017=
202208060650 METAR ESMX 060650Z AUTO 26012KT 9999 SCT026/// 14/09 Q1017=
202208060620 METAR ESMX 060620Z AUTO 25011KT 230V300 9999 FEW023/// 14/10 Q1017=
202208060550 METAR ESMX 060550Z AUTO 24008KT 200V280 9999 NCD 13/11 Q1017=
202208060520 METAR ESMX 060520Z AUTO 23008KT 9999 NCD 12/11 Q1016=
202208060450 METAR ESMX 060450Z AUTO 22008KT 9999 NCD 11/10 Q1016=
202208060420 METAR ESMX 060420Z AUTO 23007KT 9999 NCD 10/10 Q1016=
202208060350 METAR ESMX 060350Z AUTO 21007KT 9999 NCD 10/10 Q1016=
202208060320 METAR ESMX 060320Z AUTO 22007KT 9999 NCD 10/10 Q1015=
202208060250 METAR ESMX 060250Z AUTO 21007KT 9999 NCD 10/10 Q1015=
202208060220 METAR ESMX 060220Z AUTO 21006KT 9999 NCD 10/09 Q1015=
202208060150 METAR ESMX 060150Z AUTO 22008KT 9999 NCD 10/09 Q1015=
202208060120 METAR ESMX 060120Z AUTO 22008KT 9999 NCD 10/10 Q1015=
202208060050 METAR ESMX 060050Z AUTO 22008KT 9999 NCD 10/10 Q1015=
202208060020 METAR ESMX 060020Z AUTO 22007KT 9999 NCD 10/10 Q1015=
202208052350 METAR ESMX 052350Z AUTO 22006KT 9999 NCD 10/10 Q1015=
202208052320 METAR ESMX 052320Z AUTO 20007KT 9999 NCD 11/10 Q1015=
202208052250 METAR ESMX 052250Z AUTO 22006KT 9999 NCD 11/10 Q1015=
202208052220 METAR ESMX 052220Z AUTO 22007KT 9999 NCD 11/10 Q1014=
202208052150 METAR ESMX 052150Z AUTO 22007KT 9999 NCD 11/10 Q1014=
202208052120 METAR ESMX 052120Z AUTO 22007KT 9999 NCD 11/10 Q1014=
202208052050 METAR ESMX 052050Z AUTO 22007KT 9999 FEW049/// 11/11 Q1014=
202208052020 METAR ESMX 052020Z AUTO 20006KT 9999 NCD 12/10 Q1014=
202208051950 METAR ESMX 051950Z AUTO 23004KT 9999 NCD 12/10 Q1014=
202208051920 METAR ESMX 051920Z AUTO 22005KT 9999 NCD 13/11 Q1014=
202208051850 METAR ESMX 051850Z AUTO 25005KT 9999 SCT100/// BKN140/// 14/12 Q1014=
202208051820 METAR ESMX 051820Z 25007KT 230V290 CAVOK 15/12 Q1013=
202208051750 METAR ESMX 051750Z 24006KT CAVOK 15/12 Q1013=
202208051720 METAR COR ESMX 051720Z 25005KT CAVOK 16/12 Q1013=
202208051650 METAR ESMX 051650Z 26007KT CAVOK 16/13 Q1013=
202208051620 METAR ESMX 051620Z 25009KT 9999 FEW024 BKN070 17/14 Q1013=
202208051550 METAR COR ESMX 051550Z 22005KT 9999 FEW025 17/15 Q1013=
202208051520 METAR ESMX 051520Z 25005KT 9999 -RA FEW002 BKN090 17/15 Q1013=
202208051450 METAR ESMX 051450Z 27006KT 9999 -RA FEW020 18/15 Q1012=
202208051420 METAR ESMX 051420Z 24007KT 210V280 CAVOK 19/15 Q1012=
202208051350 METAR ESMX 051350Z AUTO 26007KT 9999 FEW190/// SCT220/// 18/15 Q1012=
202208051320 METAR ESMX 051320Z 26007KT 9999 BKN012 18/16 Q1012=
202208051250 METAR ESMX 051250Z AUTO 26006KT 9999 BKN010/// BKN180/// 18/16 Q1012=
202208051220 METAR ESMX 051220Z 22006KT 200V260 9999 SCT006 18/17 Q1012=
202208051150 METAR ESMX 051150Z AUTO 25005KT 9999 FEW010/// BKN023/// BKN160/// 17/17 Q1012=
202208051120 METAR ESMX 051120Z AUTO 27006KT 9999 -RA FEW003/// OVC007/// 17/17 Q1012 REDZ=
202208051050 METAR ESMX 051050Z AUTO 23005KT 210V270 9999 OVC003/// 17/17 Q1012=
202208051020 METAR ESMX 051020Z AUTO 26005KT 9999 -DZ OVC002/// 18/18 Q1012=
202208050950 METAR ESMX 050950Z AUTO VRB02KT 8000 RA FEW001/// BKN004/// OVC094/// 18/18 Q1012=
202208050920 METAR ESMX 050920Z AUTO VRB03KT 9999 -RA SCT003/// OVC094/// 18/18 Q1012 RESHRA=
202208050850 METAR ESMX 050850Z AUTO 30003KT 200V330 6000 RA SCT001/// BKN005/// OVC055/// 18/18 Q1012=
202208050820 METAR ESMX 050820Z AUTO 25005KT 9999 DZ SCT007/// BKN009/// OVC011/// 19/19 Q1012=
202208050750 METAR COR ESMX 050750Z 27005KT 9999 BKN009 19/19 Q1012=
202208050720 METAR ESMX 050720Z AUTO 32003KT 9999 BKN007/// OVC009/// 19/19 Q1011=
202208050650 METAR ESMX 050650Z AUTO VRB02KT 9999 BKN005/// OVC007/// 19/19 Q1011=
202208050620 METAR ESMX 050620Z AUTO 23003KT 190V290 9999 OVC003/// 19/19 Q1012=
202208050550 METAR ESMX 050550Z AUTO 19003KT 150V210 9999 BKN004/// OVC005/// 18/18 Q1012=
202208050520 METAR ESMX 050520Z 21005KT 7000 BKN003 18/18 Q1012=
202208050450 METAR ESMX 050450Z 22004KT 6000 BR BKN003 18/18 Q1012=
202208050420 METAR ESMX 050420Z 22005KT 160V270 CAVOK 18/18 Q1012=
202208050350 METAR COR ESMX 050350Z 17006KT CAVOK 18/18 Q1011=
202208050320 METAR ESMX 050320Z AUTO 16005KT 9999 FEW098/// 18/18 Q1011=
202208050250 METAR ESMX 050250Z AUTO 16005KT 7000 NCD 18/18 Q1011=
202208050220 METAR ESMX 050220Z AUTO 16005KT 2900 NCD 18/18 Q1011=
202208050150 METAR ESMX 050150Z AUTO 16004KT 9999 NCD 18/18 Q1011=
202208050120 METAR ESMX 050120Z AUTO 16004KT 8000 BCFG SCT110/// 18/18 Q1011=
202208050050 METAR ESMX 050050Z AUTO 00000KT 0300 R01/P2000D R19/P2000N BCFG SCT120/// 18/18 Q1011 RERA=
202208050020 METAR ESMX 050020Z AUTO VRB02KT 9999 FEW062/// SCT094/// 19/19 Q1012=
202208042350 METAR ESMX 042350Z 16004KT 9999 -RA FEW040CB BKN086 19/19 Q1013=
202208042320 METAR ESMX 042320Z VRB01KT 9999 RA FEW040CB BKN086 19/19 Q1013=
202208042250 METAR ESMX 042250Z 25004KT 210V290 9999 -RA FEW035CB SCT073 19/18 Q1013=
202208042220 METAR ESMX 042220Z 23007KT 9999 -RA FEW035CB SCT080 20/18 Q1013=
202208042150 METAR ESMX 042150Z 18005KT 9999 -RA FEW035CB BKN080 20/18 Q1013 RERA=
202208042120 METAR ESMX 042120Z 21003KT 9999 FEW035CB BKN080 19/19 Q1013=
202208042050 METAR ESMX 042050Z 20009KT 9999 -RA FEW040CB BKN080 20/18 Q1014=
202208042020 METAR ESMX 042020Z 25007KT 9999 -DZ FEW020 BKN080 BKN130 23/16 Q1013=
202208041950 METAR ESMX 041950Z 14008KT 110V170 9999 -DZ SCT092 BKN110 BKN130 25/15 Q1012=
202208041920 METAR ESMX 041920Z 16006KT CAVOK 25/15 Q1012=
202208041850 METAR ESMX 041850Z 16007KT CAVOK 26/15 Q1012=
202208041820 METAR ESMX 041820Z 16007KT CAVOK 27/15 Q1012=
202208041750 METAR ESMX 041750Z 16008KT CAVOK 27/14 Q1012=
202208041720 METAR ESMX 041720Z 16009KT CAVOK 28/14 Q1012=
202208041650 METAR ESMX 041650Z 16010KT CAVOK 29/15 Q1012=
202208041620 METAR ESMX 041620Z 17011KT CAVOK 30/15 Q1012=
202208041550 METAR ESMX 041550Z 17010KT 140V200 CAVOK 29/15 Q1012=
202208041520 METAR ESMX 041520Z 19013KT 150V210 CAVOK 31/15 Q1012=
202208041450 METAR ESMX 041450Z 19013KT CAVOK 31/15 Q1013=
202208041420 METAR ESMX 041420Z 20013KT CAVOK 32/15 Q1013=
202208041350 METAR ESMX 041350Z 19016KT CAVOK 31/15 Q1013=
202208041320 METAR ESMX 041320Z 20014KT CAVOK 32/15 Q1013=
202208041250 METAR ESMX 041250Z 20010KT 160V230 CAVOK 30/16 Q1013=
202208041220 METAR ESMX 041220Z 18008KT 130V220 CAVOK 31/18 Q1014=
202208041150 METAR ESMX 041150Z 18009KT 130V210 CAVOK 30/17 Q1014=
202208041120 METAR COR ESMX 041120Z 18011KT CAVOK 29/17 Q1014=
202208041050 METAR ESMX 041050Z AUTO 16007KT 070V170 9999 NCD 28/18 Q1014=
202208041020 METAR ESMX 041020Z 16007KT 100V180 CAVOK 27/18 Q1015=
202208040950 METAR ESMX 040950Z 15006KT 100V200 CAVOK 26/18 Q1015=
202208040920 METAR ESMX 040920Z 16005KT CAVOK 26/19 Q1015=
202208040850 METAR ESMX 040850Z 17004KT CAVOK 24/18 Q1015=
202208040820 METAR ESMX 040820Z 16005KT 110V210 CAVOK 24/18 Q1015=
202208040750 METAR ESMX 040750Z VRB02KT CAVOK 23/18 Q1015=
202208040720 METAR ESMX 040720Z VRB03KT CAVOK 23/18 Q1015=
202208040650 METAR ESMX 040650Z 20002KT CAVOK 22/18 Q1015=
202208040620 METAR ESMX 040620Z VRB01KT CAVOK 21/18 Q1015=
202208040550 METAR COR ESMX 040550Z VRB01KT CAVOK 20/18 Q1016=
202208040520 METAR ESMX 040520Z 19003KT CAVOK 19/18 Q1015=
202208040450 METAR ESMX 040450Z AUTO 18003KT 9999 FEW100/// 18/18 Q1016=
202208040420 METAR ESMX 040420Z 16003KT CAVOK 16/16 Q1015=
202208040350 METAR COR ESMX 040350Z 16003KT CAVOK 16/16 Q1015=
202208040320 METAR ESMX 040320Z AUTO 16004KT 9999 NCD 16/16 Q1015=
202208040250 METAR ESMX 040250Z AUTO 20004KT 9999 NCD 16/16 Q1015=
202208040220 METAR ESMX 040220Z AUTO 20003KT 9999 NCD 16/16 Q1015=
202208040150 METAR ESMX 040150Z AUTO 20005KT 9999 NCD 16/16 Q1015=
202208040120 METAR ESMX 040120Z AUTO 20003KT 9999 NCD 16/16 Q1015=
202208040050 METAR ESMX 040050Z AUTO 20003KT 9999 NCD 17/16 Q1015=
202208040020 METAR ESMX 040020Z AUTO 17005KT 9999 NCD 18/17 Q1015=
202208032350 METAR ESMX 032350Z AUTO 20005KT 9999 NCD 18/17 Q1015=
202208032320 METAR ESMX 032320Z 20005KT 9999 FEW033 18/16 Q1015=
202208032250 METAR ESMX 032250Z 20005KT 9999 FEW037 20/16 Q1015=
202208032220 METAR ESMX 032220Z 19005KT 9999 SCT037 20/16 Q1015=
202208032150 METAR ESMX 032150Z 19005KT 9999 SCT039 BKN140 20/16 Q1015=
202208032120 METAR ESMX 032120Z 18006KT 9999 BKN044 BKN059 21/16 Q1014=
202208032050 METAR ESMX 032050Z 20005KT 9999 BKN045 BKN070 22/16 Q1014=
202208032020 METAR ESMX 032020Z 20005KT 9999 BKN047 23/16 Q1014=
202208031950 METAR ESMX 031950Z 17005KT 9999 BKN047 22/16 Q1014=
202208031920 METAR ESMX 031920Z 17006KT 9999 BKN048 23/16 Q1014=
202208031850 METAR ESMX 031850Z 17006KT CAVOK 24/15 Q1014=
202208031820 METAR ESMX 031820Z 17007KT CAVOK 24/16 Q1014=
202208031750 METAR ESMX 031750Z 17007KT 140V200 CAVOK 24/16 Q1013=
202208031720 METAR ESMX 031720Z AUTO 17008KT 9999 OVC051/// 24/16 Q1013=
202208031650 METAR ESMX 031650Z AUTO 17007KT 9999 OVC053/// 25/15 Q1013=
202208031620 METAR ESMX 031620Z AUTO 16007KT 9999 OVC051/// 25/15 Q1013=
202208031550 METAR ESMX 031550Z AUTO 20007KT 9999 OVC049/// 25/16 Q1013=
202208031520 METAR ESMX 031520Z 18007KT CAVOK 26/16 Q1013=
202208031450 METAR ESMX 031450Z AUTO 19010KT 9999 BKN059/// BKN074/// 26/16 Q1013=
202208031420 METAR ESMX 031420Z 19012KT CAVOK 26/15 Q1013=
202208031350 METAR ESMX 031350Z 19011KT CAVOK 26/15 Q1013=
202208031320 METAR ESMX 031320Z 18013KT CAVOK 26/14 Q1013=
202208031250 METAR ESMX 031250Z 20014KT 160V220 CAVOK 28/15 Q1013=
202208031220 METAR ESMX 031220Z 19015KT CAVOK 27/14 Q1014=
202208031150 METAR ESMX 031150Z AUTO 20014KT 150V210 9999 OVC051/// 26/15 Q1014=
202208031120 METAR ESMX 031120Z AUTO 18011KT 9999 OVC049/// 26/15 Q1014=
202208031050 METAR ESMX 031050Z AUTO 20013KT 9999 BKN051/// OVC064/// 26/15 Q1014=
202208031020 METAR ESMX 031020Z AUTO 19014KT 9999 BKN062/// 25/14 Q1014=
202208030950 METAR ESMX 030950Z AUTO 19013KT 150V210 9999 OVC059/// 25/14 Q1014=
202208030920 METAR ESMX 030920Z AUTO 19014KT 9999 SCT057/// BKN130/// 25/15 Q1014=
202208030850 METAR ESMX 030850Z 18011KT 9999 SCT038 24/16 Q1015=
202208030820 METAR ESMX 030820Z 19011KT 9999 FEW034 22/15 Q1015=
202208030750 METAR ESMX 030750Z 17008KT 9999 SCT032 21/15 Q1015=
202208030720 METAR ESMX 030720Z 17007KT 110V210 9999 BKN029 19/15 Q1015=
202208030650 METAR COR ESMX 030650Z 17007KT 9999 FEW017 BKN026 18/15 Q1015=
202208030620 METAR ESMX 030620Z AUTO 19006KT 9999 OVC018/// 18/15 Q1015=
202208030550 METAR ESMX 030550Z AUTO 18006KT 9999 OVC018/// 17/15 Q1015=
202208030520 METAR ESMX 030520Z AUTO 17007KT 9999 SCT005/// BKN009/// OVC012/// 16/15 Q1015=
202208030450 METAR ESMX 030450Z AUTO 17006KT 9999 FEW008/// OVC010/// 16/14 Q1015=
202208030420 METAR ESMX 030420Z AUTO 18006KT 9999 FEW007/// OVC010/// 16/14 Q1015=
202208030350 METAR ESMX 030350Z AUTO 18008KT 9999 OVC009/// 16/14 Q1015=
202208030320 METAR ESMX 030320Z AUTO 19008KT 9999 FEW008/// OVC011/// 15/14 Q1014=
202208030250 METAR ESMX 030250Z AUTO 20010KT 9999 OVC013/// 16/13 Q1015=
202208030220 METAR ESMX 030220Z AUTO 18006KT 9999 OVC015/// 16/13 Q1015=
202208030150 METAR ESMX 030150Z AUTO 19007KT 9999 OVC016/// 15/12 Q1015=
202208030120 METAR ESMX 030120Z AUTO 20008KT 9999 OVC013/// 15/12 Q1015=
202208030050 METAR ESMX 030050Z AUTO 19009KT 9999 OVC013/// 15/11 Q1015=
202208030020 METAR ESMX 030020Z AUTO 19009KT 9999 OVC015/// 15/11 Q1015=
202208022350 METAR ESMX 022350Z 19011KT 9999 OVC013 15/11 Q1015=
202208022320 METAR ESMX 022320Z AUTO 19010KT 9999 OVC013/// 16/10 Q1015=
202208022250 METAR COR ESMX 022250Z 20010KT 9999 FEW011 OVC022 16/09 Q1015=
202208022220 METAR ESMX 022220Z AUTO 21010KT 9999 FEW006/// SCT009/// OVC035/// 16/10 Q1015=
202208022150 METAR ESMX 022150Z AUTO 20008KT 9999 OVC036/// 16/09 Q1015=
202208022120 METAR ESMX 022120Z AUTO 22008KT 9999 OVC041/// 16/08 Q1015=
202208022050 METAR COR ESMX 022050Z 20005KT 9999 FEW030 BKN047 17/07 Q1015=
202208022020 METAR ESMX 022020Z 21005KT CAVOK 16/08 Q1015=
202208021950 METAR COR ESMX 021950Z 21005KT 9999 -RA BKN062 17/08 Q1015=
202208021920 METAR ESMX 021920Z AUTO 21004KT 9999 -DZ FEW066/// OVC098/// 17/08 Q1015 REDZ=
202208021850 METAR ESMX 021850Z AUTO 17005KT 9999 OVC098/// 18/07 Q1015=
202208021820 METAR ESMX 021820Z AUTO 21005KT 9999 OVC100/// 18/08 Q1015=
202208021750 METAR ESMX 021750Z AUTO 22005KT 9999 OVC100/// 19/09 Q1015=
202208021720 METAR ESMX 021720Z AUTO 20005KT 9999 SCT110/// 19/09 Q1015=
202208021650 METAR ESMX 021650Z AUTO 20008KT 9999 SCT120/// 20/10 Q1015=
202208021620 METAR ESMX 021620Z AUTO 19009KT 9999 SCT100/// 20/09 Q1015=
202208021550 METAR ESMX 021550Z AUTO 21009KT 9999 OVC100/// 21/09 Q1015=
202208021520 METAR ESMX 021520Z AUTO 21008KT 9999 BKN100/// OVC130/// 21/10 Q1015=
202208021450 METAR ESMX 021450Z AUTO 19009KT 9999 FEW120/// SCT170/// 21/10 Q1015=
202208021420 METAR ESMX 021420Z AUTO 21009KT 160V230 9999 FEW140/// 20/10 Q1015=
202208021350 METAR ESMX 021350Z AUTO 19010KT 9999 FEW210/// 21/10 Q1015=
202208021320 METAR ESMX 021320Z 21010KT CAVOK 21/10 Q1016=
202208021250 METAR ESMX 021250Z 20009KT CAVOK 20/10 Q1016=
202208021220 METAR ESMX 021220Z 22009KT 190V260 CAVOK 21/11 Q1016=
202208021150 METAR COR ESMX 021150Z 20010KT 170V240 CAVOK 20/10 Q1016=
202208021120 METAR ESMX 021120Z AUTO 23008KT 9999 FEW170/// SCT200/// 20/10 Q1016=
202208021050 METAR ESMX 021050Z AUTO 20008KT 140V230 9999 FEW160/// 20/11 Q1016=
202208021020 METAR ESMX 021020Z AUTO 23008KT 9999 FEW200/// 19/08 Q1016=
202208020950 METAR ESMX 020950Z AUTO 21008KT 9999 FEW190/// 19/10 Q1016=
202208020920 METAR ESMX 020920Z AUTO 23006KT 200V270 9999 FEW190/// 18/11 Q1016=
202208020850 METAR ESMX 020850Z AUTO 25005KT 9999 FEW160/// SCT190/// 17/11 Q1016=
202208020820 METAR ESMX 020820Z AUTO 24006KT 9999 FEW190/// 18/11 Q1016=
202208020750 METAR ESMX 020750Z AUTO 22003KT 9999 FEW190/// 17/12 Q1016=
202208020720 METAR ESMX 020720Z AUTO 25004KT 210V290 9999 FEW210/// 16/12 Q1016=
202208020650 METAR ESMX 020650Z AUTO 26005KT 210V290 9999 OVC008/// 15/13 Q1016=
202208020620 METAR ESMX 020620Z AUTO 29006KT 9999 OVC005/// 14/13 Q1016=
202208020550 METAR ESMX 020550Z AUTO 28004KT 9999 OVC002/// 12/12 Q1016=
202208020520 METAR ESMX 020520Z AUTO 27004KT 1200 R01/1400D R19/P2000N OVC002/// 12/12 Q1016=
202208020450 METAR ESMX 020450Z AUTO 24002KT 1300 R01/1400N R19/P2000N BR OVC003/// 11/11 Q1015=
202208020420 METAR ESMX 020420Z AUTO 26004KT 9999 OVC002/// 10/10 Q1015=
202208020350 METAR ESMX 020350Z AUTO 26005KT 9999 SCT004/// OVC006/// 10/10 Q1015=
202208020320 METAR ESMX 020320Z AUTO 25005KT 9999 VV006 09/09 Q1015=
202208020250 METAR ESMX 020250Z AUTO 25005KT 9999 NCD 09/09 Q1015=
202208020220 METAR ESMX 020220Z AUTO 24005KT 9999 NCD 09/09 Q1015=
202208020150 METAR ESMX 020150Z AUTO 23005KT 9999 NCD 09/09 Q1015=
202208020120 METAR ESMX 020120Z AUTO 24006KT 9999 NCD 09/09 Q1015=
202208020050 METAR ESMX 020050Z AUTO 25005KT 9999 NCD 09/09 Q1015=
202208020020 METAR ESMX 020020Z AUTO 25005KT 9999 NCD 09/08 Q1014=
202208012350 METAR ESMX 012350Z 24004KT CAVOK 10/09 Q1014=
202208012320 METAR ESMX 012320Z 25004KT CAVOK 10/09 Q1015=
202208012250 METAR ESMX 012250Z AUTO 26004KT 9999 NCD 11/09 Q1014=
202208012220 METAR ESMX 012220Z AUTO 26004KT 9999 NCD 11/09 Q1014=
202208012150 METAR ESMX 012150Z AUTO 24004KT 9999 NCD 12/09 Q1014=
202208012120 METAR ESMX 012120Z 25005KT CAVOK 12/10 Q1014=
202208012050 METAR ESMX 012050Z 24004KT CAVOK 13/10 Q1014=
202208012020 METAR ESMX 012020Z 25005KT CAVOK 13/09 Q1014=
202208011950 METAR ESMX 011950Z 25005KT CAVOK 14/09 Q1014=
202208011920 METAR ESMX 011920Z AUTO 25006KT 9999 NCD 15/09 Q1013=
202208011850 METAR ESMX 011850Z AUTO 25007KT 9999 NCD 16/09 Q1013=
202208011820 METAR ESMX 011820Z AUTO 24007KT 9999 NCD 17/09 Q1013=
202208011750 METAR ESMX 011750Z AUTO 26008KT 9999 NCD 18/09 Q1013=
202208011720 METAR ESMX 011720Z AUTO 26009KT 9999 FEW036/// 19/11 Q1012=
202208011650 METAR ESMX 011650Z AUTO 24006KT 9999 BKN032/// 20/14 Q1012=
202208011620 METAR ESMX 011620Z AUTO 23008KT 9999 SCT029/// 19/15 Q1012=
202208011550 METAR ESMX 011550Z 24007KT 220V290 9999 SCT028 BKN045 20/17 Q1012=
202208011520 METAR ESMX 011520Z 23005KT 9999 FEW013 SCT033 BKN044 19/18 Q1012 RERA=
202208011450 METAR ESMX 011450Z 26009KT 9999 -SHRA FEW012 SCT019 BKN030 18/16 Q1012=
202208011420 METAR ESMX 011420Z 22008KT 190V260 9999 SCT020 BKN040 20/16 Q1012=
202208011350 METAR ESMX 011350Z 21007KT 9999 BKN040 19/16 Q1012 REDZ=
202208011320 METAR ESMX 011320Z 23009KT 200V280 9999 SCT025 BKN039 20/15 Q1012=
202208011250 METAR ESMX 011250Z 22010KT 9999 BKN043 21/14 Q1012=
202208011220 METAR ESMX 011220Z 23008KT 200V260 9999 BKN044 22/13 Q1012=
