##########################################################
# Query made at 04/19/2024 22:28:49 UTC
# Time interval: from 11/01/2022 12:00  to 11/30/2022 12:59  UTC
##########################################################

##########################################################
# ESMX, Vaxjo (Sweden)
# WMO index: 02641. WIGOS ID: 0-20000-0-02648
# Latitude 56-51N. Longitude 014-50E. Altitude 199 m.
##########################################################

202211301250 METAR ESMX 301250Z 04008KT 9999 FEW012 BKN039 04/02 Q1030=
202211301220 METAR ESMX 301220Z 05007KT 020V080 9999 FEW012 SCT040 04/02 Q1030=
202211301150 METAR ESMX 301150Z 03006KT 360V070 9999 SCT010 04/02 Q1030=
202211301120 METAR ESMX 301120Z 04006KT 9999 SCT009 03/02 Q1029=
202211301050 METAR ESMX 301050Z 03005KT 9999 SCT009 03/02 Q1030=
202211300920 METAR ESMX 300920Z 04004KT 020V080 9999 BKN007 02/02 Q1029=
202211300850 METAR ESMX 300850Z 04005KT 360V080 9999 BKN007 02/02 Q1029=
202211300820 METAR ESMX 300820Z 05005KT 020V090 9999 BKN006 02/02 Q1029=
202211300750 METAR ESMX 300750Z 05006KT 020V100 9999 BKN007 02/02 Q1029=
202211300720 METAR ESMX 300720Z 04006KT 9999 SCT008 BKN036 02/02 Q1029=
202211300650 METAR ESMX 300650Z 04004KT 020V100 9999 BKN039 02/02 Q1029=
202211300620 METAR ESMX 300620Z 04003KT CAVOK 01/01 Q1029=
202211300550 METAR ESMX 300550Z 04005KT 010V070 9999 FEW008 BKN160 02/02 Q1028=
202211300520 METAR ESMX 300520Z 05005KT 020V080 9999 SCT006 BKN036 02/02 Q1028=
202211300450 METAR COR ESMX 300450Z 05004KT 360V090 9999 BKN006 02/02 Q1028=
202211300420 METAR ESMX 300420Z AUTO 06005KT 030V100 9999 OVC006/// 02/02 Q1028=
202211300350 METAR ESMX 300350Z AUTO 08005KT 030V110 9999 OVC007/// 02/02 Q1028=
202211300320 METAR ESMX 300320Z AUTO 08004KT 350V110 9999 OVC006/// 02/02 Q1028=
202211300250 METAR ESMX 300250Z AUTO 06004KT 020V100 9999 OVC006/// 02/02 Q1028=
202211300220 METAR ESMX 300220Z AUTO 05005KT 340V100 9999 OVC005/// 02/02 Q1028=
202211300150 METAR ESMX 300150Z AUTO 07005KT 030V110 9999 BKN006/// BKN018/// OVC046/// 02/02 Q1028=
202211300120 METAR ESMX 300120Z AUTO 03003KT 340V110 9999 SCT005/// BKN007/// OVC018/// 02/02 Q1028=
202211300050 METAR ESMX 300050Z 07006KT 020V110 9999 BKN006 02/02 Q1028=
202211300020 METAR ESMX 300020Z 06004KT 030V100 9999 BKN006 02/02 Q1027=
202211292350 METAR ESMX 292350Z 06004KT 020V100 9999 BKN007 02/02 Q1027=
202211292320 METAR ESMX 292320Z 05005KT 020V090 9999 SCT007 BKN036 02/02 Q1027=
202211292250 METAR ESMX 292250Z 06004KT 020V100 9999 BKN007 02/02 Q1027=
202211292220 METAR ESMX 292220Z 06006KT 020V110 9999 SCT007 BKN033 02/02 Q1027=
202211292150 METAR ESMX 292150Z 07005KT 030V110 9999 BKN007 03/02 Q1027=
202211292120 METAR ESMX 292120Z 04005KT 310V080 9999 OVC008 03/02 Q1027=
202211292050 METAR ESMX 292050Z 07003KT 030V100 9999 FEW007 BKN010 03/03 Q1027=
202211292020 METAR ESMX 292020Z 06003KT 030V100 9999 FEW009 BKN023 03/02 Q1027=
202211291950 METAR ESMX 291950Z 07004KT 030V100 9999 BKN042 03/02 Q1027=
202211291920 METAR ESMX 291920Z 05004KT 010V100 9999 FEW019 BKN040 03/02 Q1027=
202211291850 METAR ESMX 291850Z AUTO 06004KT 010V090 9999 SCT022/// OVC040/// 03/03 Q1027=
202211291820 METAR ESMX 291820Z AUTO 06004KT 020V100 9999 BKN025/// OVC039/// 03/02 Q1027 RESHUP=
202211291750 METAR ESMX 291750Z 07004KT 030V110 9999 R01///// R19/P2000N BKN026 OVC034 03/03 Q1026=
202211291720 METAR ESMX 291720Z 06003KT 030V100 9999 R01///// R19/P2000N OVC037 03/03 Q1026=
202211291650 METAR ESMX 291650Z 09004KT 020V190 9999 R01///// R19/P2000N FEW009 BKN017 03/03 Q1026=
202211291620 METAR COR ESMX 291620Z 09003KT 040V110 9999 BKN018 04/03 Q1026=
202211291550 METAR ESMX 291550Z VRB03KT 9999 BKN033 04/02 Q1026=
202211291520 METAR ESMX 291520Z 08004KT 030V110 9999 BKN030 04/03 Q1026=
202211291450 METAR ESMX 291450Z 07003KT 030V110 9999 BKN036 04/03 Q1025=
202211291420 METAR ESMX 291420Z 08004KT 030V110 9999 R01///// R19/P2000N OVC034 04/03 Q1025=
202211291350 METAR ESMX 291350Z 08003KT 030V110 9999 R01///// R19/P2000N SCT026 BKN034 04/03 Q1025=
202211291320 METAR ESMX 291320Z 10004KT 040V130 9999 SCT011 BKN026 04/03 Q1025=
202211291250 METAR ESMX 291250Z VRB04KT 9999 R01///// R19/P2000N SCT009 BKN026 04/03 Q1025=
202211291220 METAR ESMX 291220Z 09003KT 9999 OVC009 04/03 Q1025=
202211291150 METAR ESMX 291150Z 07004KT 020V100 9999 SCT010 BKN035 04/03 Q1025=
202211291120 METAR ESMX 291120Z 07004KT 030V110 9999 FEW011 BKN023 04/03 Q1025=
202211291050 METAR ESMX 291050Z 07004KT 030V100 9999 SCT022 BKN030 04/02 Q1025=
202211291020 METAR ESMX 291020Z 09004KT 030V110 9999 BKN036 04/02 Q1025=
202211290950 METAR ESMX 290950Z VRB04KT 9999 BKN035 04/02 Q1024=
202211290920 METAR ESMX 290920Z 09004KT 030V110 9999 BKN035 04/02 Q1024=
202211290850 METAR ESMX 290850Z 08005KT 030V110 9999 BKN035 04/03 Q1024=
202211290820 METAR COR ESMX 290820Z 08005KT 040V110 9999 BKN039 04/03 Q1024=
202211290750 METAR ESMX 290750Z 06004KT 9999 BKN034 04/03 Q1024=
202211290720 METAR ESMX 290720Z 06004KT 020V110 9999 BKN031 04/03 Q1024=
202211290650 METAR ESMX 290650Z 07003KT 030V100 9999 BKN044 04/03 Q1024=
202211290620 METAR ESMX 290620Z 07003KT 020V100 9999 OVC039 04/03 Q1023=
202211290550 METAR ESMX 290550Z 06004KT 030V110 9999 BKN034 04/03 Q1023=
202211290520 METAR ESMX 290520Z 09003KT 050V110 9999 FEW006 BKN038 04/03 Q1023=
202211290450 METAR COR ESMX 290450Z 09004KT 020V110 9999 SCT008 BKN024 04/03 Q1023=
202211290420 METAR ESMX 290420Z AUTO 08004KT 030V110 9999 SCT006/// BKN011/// BKN019/// 04/04 Q1023=
202211290350 METAR ESMX 290350Z AUTO 06004KT 010V100 9999 BKN005/// OVC041/// 04/04 Q1023=
202211290320 METAR ESMX 290320Z AUTO 06004KT 030V090 9999 OVC005/// 04/04 Q1023=
202211290250 METAR ESMX 290250Z AUTO 06004KT 9999 OVC005/// 04/04 Q1022=
202211290220 METAR ESMX 290220Z AUTO 07003KT 020V110 9999 OVC005/// 04/04 Q1022=
202211290150 METAR ESMX 290150Z AUTO 06003KT 010V110 9999 OVC005/// 04/03 Q1022=
202211290120 METAR ESMX 290120Z AUTO 06003KT 350V110 9999 OVC005/// 03/03 Q1022=
202211290050 METAR ESMX 290050Z 05005KT 9999 FEW005 BKN049 03/03 Q1022=
202211290020 METAR ESMX 290020Z 06005KT 030V100 9999 BKN048 03/03 Q1022=
202211282350 METAR ESMX 282350Z 06004KT 030V100 9999 FEW006 SCT045 03/03 Q1022=
202211282320 METAR ESMX 282320Z 06005KT 9999 FEW006 BKN045 03/03 Q1022=
202211282250 METAR ESMX 282250Z 06005KT 030V110 CAVOK 03/03 Q1022=
202211282220 METAR ESMX 282220Z 06004KT 020V110 9999 FEW006 03/03 Q1023=
202211282150 METAR ESMX 282150Z 06003KT 020V100 9999 FEW020 03/03 Q1023=
202211282120 METAR ESMX 282120Z 06004KT 010V100 9999 SCT020 03/03 Q1023=
202211282050 METAR ESMX 282050Z 06004KT 020V100 9999 BKN016 03/03 Q1022=
202211282020 METAR ESMX 282020Z 06004KT 020V100 9999 BKN014 03/03 Q1022=
202211281950 METAR ESMX 281950Z 08003KT 010V110 9999 SCT010 03/03 Q1022=
202211281920 METAR ESMX 281920Z 08005KT 030V110 9999 FEW008 SCT033 04/03 Q1022=
202211281850 METAR ESMX 281850Z 07005KT 020V110 9999 BKN008 04/03 Q1022=
202211281820 METAR ESMX 281820Z 08005KT 030V110 9999 FEW007 BKN033 04/03 Q1022=
202211281750 METAR ESMX 281750Z 07006KT 030V130 9999 FEW015 BKN032 04/03 Q1022=
202211281720 METAR ESMX 281720Z 08004KT 020V110 9999 FEW014 SCT033 04/03 Q1022=
202211281650 METAR ESMX 281650Z 09005KT 040V110 9999 SCT010 BKN031 04/03 Q1022=
202211281620 METAR ESMX 281620Z 10004KT 030V110 9999 FEW011 BKN029 04/03 Q1022=
202211281550 METAR ESMX 281550Z 08005KT 020V120 9999 SCT017 BKN047 04/03 Q1022=
202211281520 METAR ESMX 281520Z AUTO 09004KT 340V120 9999 OVC047/// 04/03 Q1022=
202211281450 METAR ESMX 281450Z 10005KT 340V150 9999 FEW012 BKN026 05/03 Q1022=
202211281420 METAR ESMX 281420Z AUTO 10004KT 010V170 9999 R01///// R19/P2000N BKN012/// OVC028/// 05/04 Q1022=
202211281350 METAR ESMX 281350Z 08004KT 020V120 9999 BKN012 05/04 Q1022=
202211281320 METAR ESMX 281320Z 09006KT 030V120 9999 BKN012 05/04 Q1022=
202211281250 METAR ESMX 281250Z 10005KT 040V130 9999 BKN013 05/04 Q1022=
202211281220 METAR ESMX 281220Z 11006KT 060V150 9999 BKN012 05/04 Q1022=
202211281150 METAR ESMX 281150Z 10006KT 050V150 9999 R01///// R19/P2000N BKN012 05/04 Q1022=
202211281120 METAR ESMX 281120Z 10005KT 060V160 9999 BKN049 05/04 Q1022=
202211281050 METAR ESMX 281050Z 11005KT 050V130 9999 BKN009 05/04 Q1022=
202211281020 METAR ESMX 281020Z 11005KT 010V120 9999 BKN009 05/04 Q1022=
202211280950 METAR ESMX 280950Z 11004KT 020V140 9999 BKN010 05/04 Q1022=
202211280920 METAR ESMX 280920Z 11004KT 9999 SCT007 BKN010 04/04 Q1023=
202211280850 METAR ESMX 280850Z 09004KT 340V120 9999 BKN008 04/04 Q1022=
202211280820 METAR COR ESMX 280820Z 11005KT 050V140 9999 BKN009 05/04 Q1022=
202211280750 METAR ESMX 280750Z 11004KT 050V140 9999 BKN009 05/04 Q1022=
202211280720 METAR COR ESMX 280720Z 11005KT 070V140 9999 BKN009 04/04 Q1022=
202211280650 METAR ESMX 280650Z AUTO 11005KT 070V140 9999 FEW008/// SCT013/// BKN031/// 04/04 Q1022=
202211280620 METAR COR ESMX 280620Z 12005KT 9999 SCT009 BKN013 05/04 Q1022=
202211280550 METAR ESMX 280550Z 11005KT 9999 OVC007 05/04 Q1022=
202211280520 METAR ESMX 280520Z 12005KT 060V150 9999 OVC006 05/05 Q1022=
202211280450 METAR COR ESMX 280450Z 12006KT 080V150 9999 OVC006 05/04 Q1022=
202211280420 METAR ESMX 280420Z AUTO 12005KT 9999 R01///// R19/P2000N OVC006/// 05/04 Q1022=
202211280350 METAR ESMX 280350Z AUTO 11004KT 060V130 9999 R01///// R19/P2000N OVC005/// 04/04 Q1022=
202211280320 METAR ESMX 280320Z AUTO 12005KT 080V150 9999 R01///// R19/P2000N OVC004/// 05/05 Q1022=
202211280250 METAR ESMX 280250Z AUTO 12006KT 070V150 9999 R01///// R19/P2000N OVC004/// 05/05 Q1022=
202211280220 METAR ESMX 280220Z AUTO 13005KT 080V140 9999 R01///// R19/P2000N OVC004/// 05/05 Q1022 RESHUP=
202211280150 METAR ESMX 280150Z AUTO 12005KT 060V150 9999 OVC003/// 05/05 Q1023=
202211280120 METAR ESMX 280120Z AUTO 11005KT 070V150 9999 OVC004/// 05/05 Q1023=
202211280050 METAR ESMX 280050Z AUTO 12007KT 070V180 9999 OVC004/// 05/05 Q1023=
202211280020 METAR ESMX 280020Z AUTO 13007KT 080V160 9999 OVC004/// 05/05 Q1023=
202211272350 METAR ESMX 272350Z AUTO 13006KT 080V160 9999 OVC004/// 04/04 Q1023=
202211272320 METAR ESMX 272320Z AUTO 11005KT 9999 OVC003/// 04/04 Q1023=
202211272250 METAR ESMX 272250Z AUTO 11005KT 070V170 9999 OVC003/// 04/04 Q1023=
202211272220 METAR ESMX 272220Z AUTO 12005KT 070V180 9999 OVC003/// 04/04 Q1023=
202211272150 METAR ESMX 272150Z AUTO 12005KT 7000 BR OVC002/// 04/04 Q1023=
202211272120 METAR ESMX 272120Z AUTO 13005KT 5000 BR OVC002/// 04/04 Q1023=
202211272050 METAR ESMX 272050Z AUTO 12006KT 080V150 1900 BR OVC001/// 03/03 Q1023=
202211272020 METAR ESMX 272020Z AUTO 12005KT 060V160 1400 R01/P2000N R19/P2000N BR OVC001/// 03/03 Q1024=
202211271950 METAR ESMX 271950Z AUTO 14004KT 100V160 4400 BR OVC002/// 03/03 Q1023=
202211271920 METAR ESMX 271920Z AUTO 13006KT 100V170 7000 BR OVC003/// 04/04 Q1023=
202211271850 METAR ESMX 271850Z AUTO 14006KT 080V160 6000 BR OVC003/// 03/03 Q1023=
202211271820 METAR ESMX 271820Z AUTO 14006KT 110V170 7000 BR OVC003/// 03/03 Q1023=
202211271750 METAR ESMX 271750Z AUTO 13005KT 090V180 9999 BR OVC003/// 04/04 Q1023=
202211271720 METAR ESMX 271720Z AUTO 11005KT 070V150 9999 OVC003/// 04/04 Q1024=
202211271650 METAR ESMX 271650Z AUTO 12005KT 7000 R01///// R19/P2000N OVC002/// 04/04 Q1024=
202211271620 METAR ESMX 271620Z AUTO 12005KT 9000 BR OVC003/// 04/04 Q1024=
202211271550 METAR ESMX 271550Z 13005KT 9999 OVC003 04/04 Q1025=
202211271520 METAR ESMX 271520Z 14004KT 090V170 9999 OVC003 04/04 Q1025=
202211271450 METAR ESMX 271450Z 14004KT 090V170 9999 OVC004 04/04 Q1025=
202211271420 METAR COR ESMX 271420Z 12003KT 9999 OVC004 04/04 Q1025=
202211271350 METAR ESMX 271350Z 11004KT 090V150 9999 OVC004 04/04 Q1025=
202211271320 METAR ESMX 271320Z VRB03KT 9000 OVC003 04/04 Q1025=
202211271250 METAR ESMX 271250Z 15003KT 110V180 7000 BR OVC002 04/04 Q1025=
202211271220 METAR ESMX 271220Z 17005KT 5000 BR OVC002 04/04 Q1025=
202211271150 METAR COR ESMX 271150Z 18005KT 5000 BR OVC002 04/04 Q1026=
202211271120 METAR ESMX 271120Z AUTO 16006KT 3600 R01///// R19/P2000N BR OVC001/// 04/04 Q1026=
202211271050 METAR ESMX 271050Z AUTO 16005KT 120V200 6000 R01///// R19/P2000N BR OVC002/// 04/04 Q1026=
202211271020 METAR ESMX 271020Z AUTO 18004KT 5000 BR OVC002/// 04/04 Q1026=
202211270950 METAR ESMX 270950Z AUTO 18004KT 4700 BR OVC002/// 03/03 Q1026=
202211270920 METAR ESMX 270920Z AUTO 14003KT 100V190 9999 OVC003/// 03/03 Q1027=
202211270850 METAR ESMX 270850Z AUTO 21003KT 9999 OVC005/// 03/03 Q1026=
202211270820 METAR ESMX 270820Z AUTO 21003KT 9000 R01///// R19/P2000N OVC005/// 03/03 Q1026=
202211270750 METAR ESMX 270750Z AUTO 21002KT 9000 R01///// R19/P2000N OVC005/// 02/02 Q1027=
202211270720 METAR ESMX 270720Z AUTO 21003KT 9999 OVC006/// 02/02 Q1027=
202211270650 METAR ESMX 270650Z AUTO 21003KT 9999 FEW005/// OVC008/// 02/02 Q1027=
202211270620 METAR ESMX 270620Z AUTO 21003KT 9999 OVC007/// 03/03 Q1027=
202211270550 METAR ESMX 270550Z AUTO 21003KT 9999 R01///// R19/P2000N OVC006/// 03/03 Q1027=
202211270520 METAR ESMX 270520Z AUTO 21003KT 9999 FEW003/// OVC006/// 03/03 Q1027=
202211270450 METAR ESMX 270450Z AUTO VRB02KT 9999 R01///// R19/P2000N SCT003/// OVC006/// 02/02 Q1026=
202211270420 METAR ESMX 270420Z AUTO VRB02KT 9999 R01///// R19/P2000N BKN003/// OVC005/// 02/02 Q1027=
202211270350 METAR ESMX 270350Z AUTO VRB03KT 9999 R01///// R19/P2000N FEW002/// OVC008/// 02/02 Q1027=
202211270320 METAR ESMX 270320Z AUTO 00000KT 6000 R01///// R19/P2000N BKN002/// OVC005/// 02/02 Q1027=
202211270250 METAR ESMX 270250Z AUTO 21002KT 9999 R01///// R19/P2000N FEW005/// BKN010/// OVC013/// 02/02 Q1027=
202211270220 METAR ESMX 270220Z AUTO 00000KT 9999 R01///// R19/P2000N FEW002/// OVC006/// 02/02 Q1027=
202211270150 METAR ESMX 270150Z AUTO 00000KT 8000 R01///// R19/P2000N BKN002/// OVC009/// 02/02 Q1027=
202211270120 METAR ESMX 270120Z AUTO 00000KT 9999 R01///// R19/P2000N BKN001/// OVC009/// 02/02 Q1028=
202211270050 METAR ESMX 270050Z AUTO 00000KT 5000 R01///// R19/P2000N OVC001/// 02/02 Q1027=
202211270020 METAR ESMX 270020Z AUTO VRB02KT 4400 OVC001/// 02/02 Q1027=
202211262350 METAR ESMX 262350Z AUTO 00000KT 1800 OVC001/// 02/02 Q1027=
202211262320 METAR ESMX 262320Z AUTO 21002KT 2300 OVC001/// 02/02 Q1028=
202211262250 METAR ESMX 262250Z AUTO 00000KT 1100 R01/P2000N R19/P2000N BKN001/// OVC013/// 02/02 Q1028=
202211262220 METAR ESMX 262220Z AUTO 00000KT 6000 SCT002/// BKN004/// OVC036/// 02/02 Q1028=
202211262150 METAR ESMX 262150Z AUTO VRB02KT 4500 FEW002/// SCT017/// OVC035/// 02/02 Q1028=
202211262120 METAR ESMX 262120Z AUTO 21002KT 7000 FEW002/// BKN017/// OVC035/// 02/02 Q1028=
202211262050 METAR ESMX 262050Z AUTO 21002KT 8000 FEW002/// OVC033/// 03/03 Q1028=
202211262020 METAR ESMX 262020Z AUTO 15003KT 130V200 8000 OVC032/// 03/03 Q1028=
202211261950 METAR ESMX 261950Z AUTO 23001KT 9000 SCT013/// OVC033/// 03/03 Q1028=
202211261920 METAR ESMX 261920Z AUTO 19002KT 9000 BKN012/// OVC036/// 02/02 Q1027=
202211261850 METAR ESMX 261850Z AUTO 00000KT 9000 OVC038/// 02/02 Q1027=
202211261820 METAR ESMX 261820Z AUTO VRB01KT 9000 FEW006/// OVC039/// 02/02 Q1027=
202211261750 METAR ESMX 261750Z AUTO 00000KT 4500 FEW006/// BKN044/// OVC051/// 02/02 Q1027=
202211261720 METAR ESMX 261720Z AUTO 23002KT 9000 SCT005/// OVC051/// 02/02 Q1027=
202211261650 METAR ESMX 261650Z AUTO 15002KT 9999 BKN005/// OVC042/// 02/02 Q1027=
202211261620 METAR ESMX 261620Z AUTO VRB03KT 9999 OVC042/// 03/03 Q1027=
202211261550 METAR ESMX 261550Z AUTO VRB01KT 9999 OVC041/// 03/03 Q1027=
202211261520 METAR ESMX 261520Z AUTO VRB02KT 9999 FEW009/// OVC040/// 04/03 Q1027=
202211261450 METAR ESMX 261450Z AUTO 08002KT 9999 FEW008/// OVC041/// 04/03 Q1027=
202211261420 METAR ESMX 261420Z AUTO 00000KT 9999 BKN008/// OVC045/// 04/03 Q1027=
202211261350 METAR ESMX 261350Z AUTO 00000KT 9999 R01///// R19/P2000N FEW008/// OVC055/// 04/03 Q1027=
202211261320 METAR ESMX 261320Z AUTO 24003KT 9999 OVC053/// 05/03 Q1027=
202211261250 METAR ESMX 261250Z AUTO 25003KT 9999 R01///// R19/P2000N OVC062/// 05/03 Q1027=
202211261220 METAR ESMX 261220Z AUTO VRB01KT 9999 R01///// R19/P2000N SCT008/// OVC080/// 05/03 Q1026=
202211261150 METAR ESMX 261150Z AUTO VRB01KT 9999 R01///// R19/P2000N BKN007/// OVC059/// 05/03 Q1027=
202211261120 METAR ESMX 261120Z AUTO 23002KT 9999 R01///// R19/P2000N SCT007/// OVC059/// 05/04 Q1026=
202211261050 METAR ESMX 261050Z AUTO VRB01KT 9999 R01///// R19/P2000N FEW006/// OVC057/// 04/03 Q1026=
202211261020 METAR ESMX 261020Z AUTO VRB03KT 9999 R01///// R19/P2000N FEW005/// OVC053/// 04/03 Q1026=
202211260950 METAR ESMX 260950Z AUTO VRB01KT 9999 R01///// R19/P2000N FEW004/// OVC051/// 04/03 Q1026=
202211260920 METAR ESMX 260920Z AUTO 00000KT 9999 R01///// R19/P2000N BKN004/// OVC021/// 04/03 Q1026=
202211260850 METAR ESMX 260850Z AUTO 00000KT 9999 R01///// R19/P2000N FEW004/// BKN011/// OVC044/// 03/03 Q1026=
202211260820 METAR ESMX 260820Z AUTO 00000KT 9999 R01///// R19/P2000N SCT005/// BKN008/// OVC010/// 03/03 Q1025=
202211260750 METAR ESMX 260750Z AUTO VRB01KT 9999 R01///// R19/P2000N OVC004/// 03/03 Q1025=
202211260720 METAR ESMX 260720Z AUTO VRB03KT 9999 R01///// R19/P2000N BKN003/// OVC005/// 03/03 Q1025=
202211260650 METAR ESMX 260650Z AUTO 26004KT 9999 R01///// R19/P2000N OVC005/// 02/02 Q1025=
202211260620 METAR ESMX 260620Z AUTO VRB03KT 9999 R01///// R19/P2000N FEW004/// OVC047/// 02/02 Q1024=
202211260550 METAR ESMX 260550Z AUTO 09004KT 060V120 9999 R01///// R19/P2000N OVC046/// 02/02 Q1024=
202211260520 METAR ESMX 260520Z AUTO VRB03KT 9999 R01///// R19/P2000N OVC046/// 02/02 Q1024=
202211260450 METAR ESMX 260450Z AUTO 00000KT 9000 R01///// R19/P2000N FEW003/// OVC046/// 02/02 Q1024=
202211260420 METAR ESMX 260420Z AUTO 00000KT 8000 R01///// R19/P2000N OVC003/// 02/02 Q1023=
202211260350 METAR ESMX 260350Z AUTO 00000KT 7000 R01///// R19/P2000N BKN003/// OVC046/// 02/02 Q1023=
202211260320 METAR ESMX 260320Z AUTO VRB01KT 7000 R01///// R19/P2000N BKN003/// OVC047/// 02/02 Q1023=
202211260250 METAR ESMX 260250Z AUTO 00000KT 9999 R01///// R19/P2000N SCT003/// OVC048/// 02/02 Q1023=
202211260220 METAR ESMX 260220Z AUTO VRB02KT 9999 R01///// R19/P2000N BKN003/// OVC047/// 03/03 Q1023=
202211260150 METAR ESMX 260150Z AUTO 03003KT 9999 R01///// R19/P2000N OVC003/// 03/03 Q1023=
202211260120 METAR ESMX 260120Z AUTO 03003KT 9999 R01///// R19/P2000N OVC003/// 03/03 Q1022=
202211260050 METAR ESMX 260050Z AUTO 04003KT 010V070 9999 R01///// R19/P2000N OVC003/// 03/03 Q1022=
202211260020 METAR ESMX 260020Z AUTO 02003KT 9999 R01///// R19/P2000N OVC003/// 03/03 Q1022=
202211252350 METAR ESMX 252350Z AUTO 04003KT 9999 R01///// R19/P2000N OVC003/// 03/03 Q1022=
202211252320 METAR ESMX 252320Z AUTO 34001KT 9999 R01///// R19/P2000N OVC004/// 02/02 Q1022=
202211252250 METAR ESMX 252250Z AUTO VRB02KT 9999 R01///// R19/P2000N BKN004/// OVC020/// 03/03 Q1022=
202211252220 METAR ESMX 252220Z AUTO 04003KT 9999 R01///// R19/P2000N SCT005/// OVC020/// 03/03 Q1022=
202211252150 METAR ESMX 252150Z AUTO VRB02KT 9999 R01///// R19/P2000N OVC005/// 03/03 Q1022=
202211252120 METAR ESMX 252120Z AUTO VRB02KT 9999 R01///// R19/P2000N OVC005/// 03/03 Q1021=
202211252050 METAR ESMX 252050Z AUTO 04003KT 9999 R01///// R19/P2000N OVC005/// 03/03 Q1021=
202211252020 METAR ESMX 252020Z AUTO VRB03KT 9999 R01///// R19/P2000N SCT005/// OVC019/// 03/03 Q1021=
202211251950 METAR ESMX 251950Z AUTO VRB03KT 9999 R01///// R19/P2000N FEW006/// BKN017/// OVC022/// 03/03 Q1021=
202211251920 METAR ESMX 251920Z AUTO 07002KT 9999 R01///// R19/P2000N FEW006/// SCT008/// OVC020/// 03/03 Q1021=
202211251850 METAR ESMX 251850Z AUTO VRB03KT 9999 R01///// R19/P2000N OVC021/// 03/03 Q1020=
202211251820 METAR ESMX 251820Z AUTO VRB03KT 9999 R01///// R19/P2000N OVC021/// 03/03 Q1020=
202211251750 METAR ESMX 251750Z VRB03KT 9999 FEW007 BKN020 03/03 Q1020=
202211251720 METAR ESMX 251720Z VRB03KT 9999 SCT007 BKN021 03/03 Q1020=
202211251650 METAR ESMX 251650Z 08004KT 020V110 9999 FEW006 BKN021 03/03 Q1020=
202211251620 METAR ESMX 251620Z VRB03KT 9999 BKN022 03/03 Q1020=
202211251550 METAR ESMX 251550Z 07004KT 340V120 9999 BKN022 03/02 Q1019=
202211251520 METAR ESMX 251520Z 07004KT 030V110 9999 BKN020 03/02 Q1019=
202211251450 METAR COR ESMX 251450Z 08003KT 030V110 9999 BKN020 03/02 Q1019=
202211251420 METAR ESMX 251420Z 07004KT 020V110 9999 BKN021 04/02 Q1019=
202211251350 METAR ESMX 251350Z 08004KT 030V110 9999 BKN020 04/02 Q1019=
202211251320 METAR ESMX 251320Z 11003KT 050V110 9999 BKN019 04/02 Q1019=
202211251250 METAR ESMX 251250Z 10004KT 010V130 9999 FEW015 BKN020 04/02 Q1019=
202211251220 METAR ESMX 251220Z VRB03KT 9999 FEW013 BKN020 04/02 Q1019=
202211251150 METAR ESMX 251150Z 08004KT 010V110 9999 FEW011 BKN021 04/02 Q1019=
202211251120 METAR ESMX 251120Z 09003KT 9999 BKN020 03/02 Q1019=
202211251050 METAR ESMX 251050Z 10003KT 9999 BKN020 03/02 Q1019=
202211251020 METAR ESMX 251020Z 09003KT 9999 BKN018 03/02 Q1019=
202211250950 METAR ESMX 250950Z 09003KT 040V150 9999 BKN019 03/02 Q1018=
202211250920 METAR ESMX 250920Z VRB03KT 9999 BKN018 02/02 Q1018=
202211250850 METAR ESMX 250850Z VRB02KT 9999 BKN017 02/02 Q1018=
202211250820 METAR ESMX 250820Z VRB02KT 9999 FEW017 SCT043 02/01 Q1018=
202211250750 METAR ESMX 250750Z 09003KT 020V110 9999 FEW015 SCT043 02/01 Q1018=
202211250720 METAR ESMX 250720Z VRB03KT 9999 FEW015 BKN042 02/02 Q1018=
202211250650 METAR ESMX 250650Z 08004KT 9999 BKN042 02/02 Q1017=
202211250620 METAR ESMX 250620Z 08005KT 030V110 9999 FEW007 SCT016 BKN043 02/02 Q1017=
202211250550 METAR COR ESMX 250550Z 07005KT 030V100 9999 SCT007 BKN015 02/02 Q1017=
202211250520 METAR ESMX 250520Z AUTO 07003KT 020V110 9999 R01///// R19/P2000N BKN007/// BKN008/// OVC012/// 02/02 Q1017=
202211250450 METAR ESMX 250450Z AUTO 08004KT 020V110 9999 R01///// R19/P2000N BKN007/// OVC009/// 02/02 Q1017=
202211250420 METAR ESMX 250420Z AUTO 09003KT 040V110 9999 R01///// R19/P2000N BKN007/// OVC009/// 02/02 Q1017=
202211250350 METAR ESMX 250350Z AUTO 09004KT 030V140 9999 R01///// R19/P2000N OVC008/// 03/02 Q1017=
202211250320 METAR ESMX 250320Z AUTO VRB03KT 9999 R01///// R19/P2000N OVC007/// 03/02 Q1017=
202211250250 METAR ESMX 250250Z AUTO 10004KT 050V120 9999 R01///// R19/P2000N OVC009/// 03/02 Q1017=
202211250220 METAR ESMX 250220Z AUTO 10003KT 050V120 9999 R01///// R19/P2000N BKN006/// OVC009/// 03/02 Q1016=
202211250150 METAR ESMX 250150Z AUTO 11004KT 060V170 9999 R01///// R19/P2000N OVC005/// 03/03 Q1016=
202211250120 METAR ESMX 250120Z AUTO 09003KT 340V150 9999 R01///// R19/P2000N OVC005/// 03/03 Q1016=
202211250050 METAR ESMX 250050Z 10004KT 070V160 9999 R01///// R19/P2000N OVC005 03/03 Q1016=
202211250020 METAR ESMX 250020Z VRB03KT 9999 R01///// R19/P2000N OVC005 03/03 Q1016=
202211242350 METAR ESMX 242350Z AUTO 09004KT 9999 R01///// R19/P2000N OVC006/// 03/03 Q1016=
202211242320 METAR ESMX 242320Z AUTO 09003KT 020V110 9999 R01///// R19/P2000N OVC006/// 03/03 Q1016=
202211242250 METAR ESMX 242250Z AUTO 10003KT 9999 R01///// R19/P2000N OVC006/// 03/03 Q1016=
202211242220 METAR ESMX 242220Z AUTO 09003KT 040V110 9999 R01///// R19/P2000N OVC006/// 03/03 Q1016=
202211242150 METAR ESMX 242150Z 11003KT 9999 R01///// R19/P2000N OVC006 03/03 Q1016=
202211242120 METAR ESMX 242120Z VRB03KT 9999 R01///// R19/P2000N OVC004 03/03 Q1015=
202211242050 METAR COR ESMX 242050Z 10003KT 8000 R01///// R19/P2000N OVC003 03/03 Q1015=
202211242020 METAR ESMX 242020Z AUTO 11005KT 6000 R01///// R19/P2000N OVC003/// 03/03 Q1015=
202211241950 METAR ESMX 241950Z AUTO 09005KT 030V120 9000 R01///// R19/P2000N OVC003/// 03/03 Q1015=
202211241920 METAR ESMX 241920Z AUTO 07005KT 030V120 9999 R01///// R19/P2000N OVC004/// 03/03 Q1014=
202211241850 METAR ESMX 241850Z AUTO 09004KT 340V130 9999 R01///// R19/P2000N OVC004/// 03/03 Q1014=
202211241820 METAR ESMX 241820Z AUTO 12003KT 9999 R01///// R19/P2000N OVC004/// 04/04 Q1014=
202211241750 METAR ESMX 241750Z 10004KT 7000 R01///// R19/P2000N BR OVC003 04/04 Q1014=
202211241720 METAR ESMX 241720Z 09004KT 050V110 5000 R01///// R19/P2000N -DZ OVC003 04/04 Q1014=
202211241650 METAR ESMX 241650Z 10004KT 050V110 4500 R01///// R19/P2000N -DZ OVC003 04/04 Q1014=
202211241620 METAR ESMX 241620Z 10004KT 050V120 3800 R01///// R19/P2000N -DZ OVC003 04/04 Q1013=
202211241550 METAR ESMX 241550Z 11004KT 060V120 3400 R01///// R19/P2000N -DZ BKN003 04/04 Q1013=
202211241520 METAR ESMX 241520Z 11004KT 9000 OVC005 04/04 Q1013=
202211241450 METAR ESMX 241450Z 10003KT 9000 OVC005 04/04 Q1013=
202211241420 METAR ESMX 241420Z VRB02KT 9000 OVC005 04/04 Q1012=
202211241350 METAR ESMX 241350Z 10003KT 040V110 9000 OVC005 04/04 Q1012=
202211241320 METAR ESMX 241320Z 10003KT 9000 OVC005 04/04 Q1012=
202211241250 METAR ESMX 241250Z 11004KT 050V120 9000 OVC005 04/04 Q1012=
202211241220 METAR ESMX 241220Z 11003KT 9999 OVC006 04/04 Q1012=
202211241150 METAR ESMX 241150Z 11004KT 9999 BKN007 04/04 Q1012=
202211241120 METAR ESMX 241120Z AUTO 10004KT 9999 R01///// R19/P2000N OVC007/// 04/03 Q1012=
202211241050 METAR ESMX 241050Z 07003KT 010V120 9999 OVC008 04/03 Q1011=
202211241020 METAR ESMX 241020Z 09004KT 030V110 9999 OVC008 04/03 Q1011=
202211240950 METAR ESMX 240950Z 11004KT 9999 OVC007 03/03 Q1011=
202211240920 METAR ESMX 240920Z 12003KT 070V170 9999 OVC006 03/03 Q1011=
202211240850 METAR ESMX 240850Z 09003KT 050V110 9999 OVC006 03/03 Q1011=
202211240820 METAR ESMX 240820Z 09003KT 020V110 9999 OVC006 03/03 Q1011=
202211240750 METAR ESMX 240750Z VRB03KT 9999 OVC006 03/03 Q1011=
202211240720 METAR ESMX 240720Z VRB03KT 9999 OVC005 03/03 Q1010=
202211240650 METAR ESMX 240650Z 11003KT 9999 OVC005 03/03 Q1010=
202211240620 METAR ESMX 240620Z 10004KT 040V110 9999 OVC006 03/03 Q1010=
202211240550 METAR ESMX 240550Z 11005KT 9999 OVC006 03/03 Q1010=
202211240520 METAR ESMX 240520Z 11006KT 050V140 9999 OVC006 03/03 Q1009=
202211240450 METAR COR ESMX 240450Z 11004KT 9999 OVC005 03/03 Q1009=
202211240420 METAR ESMX 240420Z AUTO 11004KT 9999 OVC044/// 03/03 Q1009=
202211240350 METAR ESMX 240350Z AUTO 08006KT 030V110 9000 BR BKN005/// OVC043/// 03/03 Q1009=
202211240320 METAR ESMX 240320Z AUTO 11004KT 8000 BR OVC006/// 03/02 Q1009 REDZ=
202211240250 METAR ESMX 240250Z AUTO 10005KT 050V150 8000 BR SCT006/// OVC043/// 02/02 Q1009=
202211240220 METAR ESMX 240220Z AUTO 11005KT 020V160 8000 BR BKN006/// OVC043/// 03/03 Q1009 REUP=
202211240150 METAR ESMX 240150Z AUTO 09004KT 050V120 7000 BR BKN005/// OVC024/// 03/03 Q1009=
202211240120 METAR ESMX 240120Z AUTO 09004KT 040V110 5000 BR OVC004/// 03/03 Q1009=
202211240050 METAR ESMX 240050Z 08005KT 030V130 5000 BR BKN005 OVC021 03/03 Q1009=
202211240020 METAR COR ESMX 240020Z 09003KT 030V110 4000 BR OVC004 03/03 Q1009=
202211232350 METAR COR ESMX 232350Z 10004KT 4800 BR OVC004 03/03 Q1009=
202211232320 METAR ESMX 232320Z AUTO 10003KT 3600 -DZ OVC005/// 03/03 Q1009=
202211232250 METAR ESMX 232250Z 11004KT 3500 -DZ OVC005 03/03 Q1009=
202211232220 METAR ESMX 232220Z AUTO 11003KT 5000 -DZ OVC005/// 03/03 Q1009=
202211232150 METAR ESMX 232150Z 09004KT 030V110 5000 -RA OVC005 03/03 Q1008=
202211232120 METAR ESMX 232120Z 09003KT 030V200 5000 -DZ OVC005 03/03 Q1008=
202211232050 METAR ESMX 232050Z 11004KT 060V150 5000 -DZ OVC005 03/03 Q1008=
202211232020 METAR ESMX 232020Z AUTO 11004KT 4200 DZ OVC004/// 03/03 Q1008=
202211231950 METAR ESMX 231950Z AUTO 11004KT 3700 DZ OVC004/// 03/03 Q1008=
202211231920 METAR ESMX 231920Z AUTO 11003KT 060V120 4300 DZ OVC004/// 03/03 Q1008=
202211231850 METAR ESMX 231850Z AUTO 10004KT 030V110 4100 DZ OVC004/// 03/03 Q1008=
202211231820 METAR ESMX 231820Z 11004KT 3400 DZ BR FEW002 OVC005 03/03 Q1008=
202211231750 METAR ESMX 231750Z 10003KT 5000 DZ BR OVC005 03/03 Q1008=
202211231720 METAR ESMX 231720Z 09004KT 030V150 7000 -RA BR OVC005 03/03 Q1008=
202211231650 METAR ESMX 231650Z 11004KT 050V110 6000 BR OVC004 03/03 Q1007=
202211231620 METAR ESMX 231620Z 12004KT 070V160 6000 -DZ BR OVC004 03/03 Q1008=
202211231550 METAR ESMX 231550Z VRB04KT 5000 DZ BR FEW002 OVC004 03/03 Q1007=
202211231520 METAR ESMX 231520Z 11004KT 060V160 4500 DZ BR OVC004 03/03 Q1007=
202211231450 METAR ESMX 231450Z 10003KT 030V170 6000 -DZ BR OVC004 03/03 Q1007=
202211231420 METAR ESMX 231420Z 10004KT 050V140 4300 DZ OVC004 03/03 Q1007=
202211231350 METAR ESMX 231350Z 09005KT 020V130 4600 DZ OVC003 03/03 Q1007=
202211231320 METAR ESMX 231320Z 10004KT 030V120 3200 DZ OVC002 03/03 Q1007=
202211231250 METAR ESMX 231250Z 09004KT 030V120 3500 DZ OVC003 03/03 Q1007=
202211231220 METAR ESMX 231220Z 10005KT 3500 -DZ OVC003 03/03 Q1007=
202211231150 METAR ESMX 231150Z 09004KT 340V150 3000 -RADZ OVC003 03/03 Q1007=
202211231120 METAR ESMX 231120Z 09006KT 050V150 4000 -RA OVC004 03/03 Q1006=
202211231050 METAR ESMX 231050Z 10005KT 360V160 5000 DZ SCT002 OVC004 03/03 Q1007=
202211231020 METAR ESMX 231020Z 09005KT 350V150 4000 -DZ OVC004 03/03 Q1006=
202211230950 METAR ESMX 230950Z 09005KT 030V120 5000 -DZ OVC004 03/03 Q1007=
202211230920 METAR ESMX 230920Z 09006KT 020V160 6000 BKN005 03/02 Q1006=
202211230850 METAR ESMX 230850Z 09006KT 050V120 9999 BKN007 03/02 Q1006=
202211230820 METAR ESMX 230820Z 09006KT 030V120 9999 -DZ BKN006 03/02 Q1007=
202211230750 METAR ESMX 230750Z 09006KT 030V120 5000 -DZ BKN005 03/02 Q1006=
202211230720 METAR ESMX 230720Z 09006KT 050V120 9999 BKN008 03/02 Q1006=
202211230650 METAR ESMX 230650Z 10005KT 360V130 9999 -DZ BKN008 03/02 Q1006=
202211230620 METAR ESMX 230620Z 10005KT 020V190 9999 -DZ BKN009 03/02 Q1006=
202211230550 METAR ESMX 230550Z 09007KT 020V140 9999 BKN009 03/02 Q1006=
202211230520 METAR ESMX 230520Z 09007KT 030V130 9999 BKN010 03/02 Q1006=
202211230450 METAR ESMX 230450Z 10007KT 010V180 9999 BKN010 03/02 Q1006=
202211230420 METAR ESMX 230420Z AUTO 11006KT 340V150 9999 OVC010/// 03/02 Q1006=
202211230350 METAR ESMX 230350Z AUTO 10008KT 060V160 9999 OVC009/// 03/02 Q1006=
202211230320 METAR ESMX 230320Z AUTO VRB06KT 9999 OVC009/// 03/02 Q1006=
202211230250 METAR ESMX 230250Z AUTO 08007KT 030V120 9999 OVC009/// 03/02 Q1006=
202211230220 METAR ESMX 230220Z AUTO 10005KT 020V130 9999 OVC009/// 03/02 Q1006=
202211230150 METAR ESMX 230150Z AUTO 10005KT 020V130 9999 OVC009/// 03/02 Q1006=
202211230120 METAR ESMX 230120Z AUTO VRB04KT 9999 OVC009/// 03/02 Q1006=
202211230050 METAR ESMX 230050Z 08006KT 030V110 9999 BKN010 03/02 Q1006=
202211230020 METAR ESMX 230020Z 08005KT 030V110 9999 BKN010 03/02 Q1006=
202211222350 METAR ESMX 222350Z AUTO 08006KT 030V110 9999 FEW010/// BKN040/// 03/02 Q1006=
202211222320 METAR ESMX 222320Z AUTO 10005KT 030V130 9999 FEW010/// BKN038/// 03/02 Q1006=
202211222250 METAR ESMX 222250Z AUTO 08006KT 340V110 9999 FEW011/// SCT023/// BKN039/// 03/02 Q1006=
202211222220 METAR ESMX 222220Z AUTO 10006KT 050V120 9999 FEW010/// OVC040/// 03/02 Q1007=
202211222150 METAR ESMX 222150Z 10006KT 020V140 9999 BKN009 03/02 Q1006=
202211222120 METAR ESMX 222120Z 10006KT 020V150 9999 OVC009 03/02 Q1007=
202211222050 METAR COR ESMX 222050Z VRB05KT 9999 OVC008 03/02 Q1007=
202211222020 METAR ESMX 222020Z AUTO 10005KT 030V140 9999 OVC008/// 03/02 Q1007=
202211221950 METAR ESMX 221950Z AUTO 10006KT 030V140 8000 BR OVC007/// 03/02 Q1006=
202211221920 METAR ESMX 221920Z AUTO 09007KT 020V140 9000 BR OVC007/// 03/02 Q1006=
202211221850 METAR ESMX 221850Z AUTO 08005KT 030V110 9000 BR OVC007/// 02/02 Q1006=
202211221820 METAR ESMX 221820Z AUTO 07005KT 030V110 9999 FEW008/// SCT019/// BKN032/// 01/01 Q1006=
202211221750 METAR ESMX 221750Z 07004KT 030V110 9999 BKN045 01/01 Q1006=
202211221720 METAR ESMX 221720Z 06005KT 020V100 9999 FEW006 SCT040 01/01 Q1006=
202211221650 METAR ESMX 221650Z 07004KT 020V110 9999 SCT006 01/01 Q1006=
202211221620 METAR ESMX 221620Z 07005KT 020V110 9000 BKN006 01/01 Q1006=
202211221550 METAR ESMX 221550Z 07007KT 030V110 9999 SCT008 01/01 Q1006=
202211221520 METAR ESMX 221520Z 07007KT 040V100 9999 SCT037 01/01 Q1006=
202211221450 METAR ESMX 221450Z 07005KT 040V100 9999 SCT038 01/01 Q1006=
202211221420 METAR ESMX 221420Z 06006KT 020V100 9999 SCT037 01/00 Q1006=
202211221350 METAR ESMX 221350Z 07005KT 020V110 9999 FEW030 SCT035 01/00 Q1006=
202211221320 METAR ESMX 221320Z 07004KT 030V110 9999 SCT036 02/00 Q1006=
202211221250 METAR ESMX 221250Z 07004KT 020V110 9999 FEW025 01/00 Q1006=
202211221220 METAR ESMX 221220Z 07004KT 030V110 9999 SCT023 01/00 Q1006=
202211221150 METAR ESMX 221150Z 09004KT 360V120 9999 FEW026 02/00 Q1006=
202211221120 METAR ESMX 221120Z 11004KT 9999 FEW020 02/00 Q1006=
202211221050 METAR ESMX 221050Z 10004KT 040V150 CAVOK 02/00 Q1006=
202211221020 METAR ESMX 221020Z 10004KT 050V110 CAVOK 02/00 Q1006=
202211220950 METAR ESMX 220950Z 11004KT CAVOK 02/00 Q1006=
202211220920 METAR ESMX 220920Z 12004KT 060V160 9999 SCT036 BKN160 01/01 Q1006=
202211220850 METAR ESMX 220850Z 11004KT 060V150 9999 FEW007 BKN024 01/01 Q1006=
202211220820 METAR ESMX 220820Z 11003KT 030V190 9999 BKN006 01/01 Q1006=
202211220750 METAR ESMX 220750Z 10004KT 050V110 9999 OVC003 01/01 Q1005=
202211220720 METAR ESMX 220720Z VRB03KT 9999 OVC002 00/00 Q1005=
202211220650 METAR ESMX 220650Z 13004KT 080V170 9999 OVC003 00/00 Q1005=
202211220620 METAR ESMX 220620Z 14003KT 9999 -SN OVC003 00/00 Q1005=
202211220550 METAR ESMX 220550Z 11004KT 070V160 9999 OVC002 M00/M00 Q1005=
202211220520 METAR ESMX 220520Z 14003KT 1000 R01/P2000N R19/P2000N FZFG OVC001 M00/M00 Q1005=
202211220450 METAR COR ESMX 220450Z 12004KT 0500 R01/1300N R19/P1700D FZFG VV002 M01/M01 Q1004=
202211220420 METAR ESMX 220420Z AUTO 13005KT 1200 R01/P2000N R19/P2000N FZUP OVC001/// M01/M01 Q1004 REUP=
202211220350 METAR ESMX 220350Z AUTO 13005KT 9999 OVC003/// M01/M01 Q1004 RESHUP=
202211220320 METAR ESMX 220320Z AUTO 12004KT 9999 OVC003/// M01/M01 Q1004 RESG REFZUP=
202211220250 METAR ESMX 220250Z AUTO 11003KT 9999 OVC002/// M01/M01 Q1004=
202211220220 METAR ESMX 220220Z AUTO 15003KT 9999 OVC002/// M01/M01 Q1004=
202211220150 METAR ESMX 220150Z AUTO 15002KT 9999 OVC003/// M01/M01 Q1003=
202211220120 METAR ESMX 220120Z AUTO 17003KT 9999 OVC003/// M02/M02 Q1003=
202211220050 METAR ESMX 220050Z 17003KT 9999 OVC005 M01/M01 Q1003=
202211220020 METAR COR ESMX 220020Z 17003KT 9999 OVC006 M01/M01 Q1003=
202211212350 METAR ESMX 212350Z AUTO 14004KT 090V170 9999 OVC007/// M01/M01 Q1003=
202211212320 METAR ESMX 212320Z 17003KT 9999 BKN007 M01/M01 Q1002=
202211212250 METAR ESMX 212250Z 14004KT 100V190 9999 BKN007 M01/M01 Q1002=
202211212220 METAR ESMX 212220Z 17004KT 9999 OVC010 M01/M02 Q1002=
202211212150 METAR ESMX 212150Z 19003KT 9999 BKN008 M01/M01 Q1002=
202211212120 METAR ESMX 212120Z 16006KT 130V190 9999 BKN006 M01/M01 Q1002=
202211212050 METAR ESMX 212050Z 16004KT 9999 BKN007 M01/M01 Q1002=
202211212020 METAR ESMX 212020Z 17005KT 9999 SCT002 BKN004 M01/M01 Q1001=
202211211950 METAR ESMX 211950Z VRB03KT 4200 -DZ BKN002 OVC004 M01/M01 Q1001=
202211211920 METAR ESMX 211920Z VRB02KT 9999 -SN BKN005 M01/M01 Q1001=
202211211850 METAR ESMX 211850Z 13003KT 6000 -SN BR FEW002 BKN005 M01/M01 Q1001=
202211211820 METAR ESMX 211820Z 09003KT 020V160 3300 -SN BR FEW001 SCT005 BKN007 M01/M01 Q1001=
202211211750 METAR ESMX 211750Z 09004KT 040V120 0400 R01/1300N R19/1100N SN BR VV008 M01/M01 Q1001=
202211211720 METAR ESMX 211720Z 08004KT 030V110 1000 R01/P2000N R19/P2000N -SN BR VV008 M01/M01 Q1001=
202211211650 METAR ESMX 211650Z 08004KT 030V110 1300 R01/P2000N R19/P2000N -SN BR VV008 M01/M01 Q1001=
202211211620 METAR ESMX 211620Z 08006KT 040V110 9999 -SN BKN006 M01/M02 Q1001=
202211211550 METAR ESMX 211550Z 07005KT 020V100 9999 BKN006 M01/M01 Q1001=
202211211520 METAR ESMX 211520Z 08005KT 020V130 9999 BKN007 M01/M01 Q1001=
202211211450 METAR ESMX 211450Z 08006KT 040V110 9999 BKN007 M01/M01 Q1001=
202211211420 METAR ESMX 211420Z 08006KT 9999 BKN009 M01/M01 Q1001=
202211211350 METAR ESMX 211350Z 08004KT 020V110 9999 BKN009 M01/M02 Q1001=
202211211320 METAR ESMX 211320Z AUTO 12004KT 070V140 9999 OVC008/// M01/M02 Q1001=
202211211250 METAR ESMX 211250Z 08004KT 030V110 9999 BKN008 M01/M02 Q1001=
202211211220 METAR ESMX 211220Z 06003KT 340V110 9999 BKN008 M01/M02 Q1001=
202211211150 METAR ESMX 211150Z 10004KT 9999 BKN007 M01/M02 Q1001=
202211211120 METAR ESMX 211120Z 09004KT 050V110 9999 BKN006 M01/M02 Q1001=
202211211050 METAR ESMX 211050Z 07004KT 020V140 9999 BKN006 M01/M01 Q1002=
202211211020 METAR ESMX 211020Z 08004KT 030V110 9999 BKN005 M01/M02 Q1002=
202211210950 METAR ESMX 210950Z 07003KT 350V120 9999 BKN004 M02/M02 Q1002=
202211210920 METAR ESMX 210920Z 09004KT 030V150 9999 BKN003 M03/M03 Q1002=
202211210850 METAR ESMX 210850Z 07004KT 030V140 9000 BKN002 M03/M03 Q1002=
202211210820 METAR ESMX 210820Z 10004KT 6000 BKN002 M04/M04 Q1002=
202211210750 METAR ESMX 210750Z 07005KT 030V110 9999 SCT005 M04/M05 Q1002=
202211210720 METAR ESMX 210720Z 14003KT 9999 FEW004 M05/M05 Q1001=
202211210650 METAR ESMX 210650Z 10003KT 050V160 9999 FEW004 M05/M05 Q1001=
202211210620 METAR ESMX 210620Z 14003KT 9999 BKN004 M04/M04 Q1001=
202211210550 METAR ESMX 210550Z 14003KT 9999 BKN004 M04/M04 Q1001=
202211210520 METAR ESMX 210520Z 14004KT 9999 SCT004 M04/M04 Q1001=
202211210450 METAR ESMX 210450Z 14004KT 9999 BKN004 M03/M04 Q1001=
202211210420 METAR ESMX 210420Z AUTO 13005KT 9999 -FZDZ OVC003/// M03/M03 Q1001=
202211210350 METAR ESMX 210350Z AUTO 16004KT 6000 -FZDZ OVC003/// M02/M03 Q1001=
202211210320 METAR ESMX 210320Z AUTO 15005KT 6000 -FZDZ OVC004/// M02/M03 Q1000 REFZUP=
202211210250 METAR ESMX 210250Z AUTO 14005KT 100V170 5000 -FZDZ OVC004/// M02/M02 Q1000=
202211210220 METAR ESMX 210220Z AUTO 16005KT 4800 -FZDZ OVC004/// M02/M02 Q1000=
202211210150 METAR ESMX 210150Z AUTO 18006KT 9000 -FZDZ BKN004/// OVC005/// M02/M02 Q1000=
202211210120 METAR ESMX 210120Z AUTO 18005KT 6000 FZUP FEW013/// BKN026/// OVC057/// M02/M02 Q1000=
202211210050 METAR ESMX 210050Z AUTO 18004KT 5000 -SN SCT004/// BKN026/// OVC041/// M02/M02 Q1000 REFZUP=
202211210020 METAR ESMX 210020Z AUTO 19004KT 6000 FZUP FEW006/// SCT025/// OVC057/// M02/M02 Q1001=
202211202350 METAR ESMX 202350Z AUTO 19005KT 4800 FZUP OVC003/// M02/M02 Q1001=
202211202320 METAR ESMX 202320Z AUTO 21005KT 7000 -SN BKN003/// BKN005/// OVC051/// M02/M02 Q1001=
202211202250 METAR ESMX 202250Z AUTO 17004KT 4800 -FZDZ ///041 M02/M02 Q1001 REFZUP=
202211202220 METAR ESMX 202220Z AUTO 23003KT 8000 -FZDZ ///042 M02/M02 Q1001 REFZUP=
202211202150 METAR ESMX 202150Z AUTO 23003KT 6000 FZUP ///038 M02/M02 Q1002 REFZUP RESG=
202211202120 METAR ESMX 202120Z AUTO 23003KT 4700 FZUP ///026 M02/M02 Q1002=
202211202050 METAR ESMX 202050Z AUTO 23003KT 4900 -SN ///032 M02/M02 Q1002=
202211202020 METAR ESMX 202020Z 23003KT 6000 -SN BR FEW007 SCT020 OVC040 M02/M02 Q1002=
202211201950 METAR ESMX 201950Z 23003KT 4300 -SN BR VV032 M02/M02 Q1003=
202211201920 METAR ESMX 201920Z 23003KT 3100 -SN BR VV029 M02/M02 Q1003=
202211201850 METAR ESMX 201850Z 24003KT 9000 -SN BR BKN004 M02/M02 Q1003=
202211201820 METAR ESMX 201820Z 25003KT 8000 -SN BR FEW022 BKN033 M02/M02 Q1004=
202211201750 METAR ESMX 201750Z 24004KT 5000 -SN BR SCT005 BKN008 M02/M02 Q1004=
202211201720 METAR ESMX 201720Z 24003KT 6000 -SN BR FEW004 BKN010 M02/M02 Q1004=
202211201650 METAR ESMX 201650Z 22003KT 5000 SN BR BKN006 M02/M02 Q1005=
202211201620 METAR ESMX 201620Z AUTO 23002KT 7000 -FZDZ FEW012/// OVC022/// M02/M02 Q1005 REFZUP=
202211201550 METAR ESMX 201550Z 23003KT 4600 -SN BR BKN008 M02/M02 Q1005=
202211201520 METAR ESMX 201520Z 25002KT 3500 -SN BR BKN012 M02/M02 Q1006=
202211201450 METAR ESMX 201450Z 29003KT 2100 -SN BR VV012 M02/M02 Q1006=
202211201420 METAR ESMX 201420Z 33004KT 1900 -SN BR FEW001 BKN015 OVC051 M01/M03 Q1007=
202211201350 METAR ESMX 201350Z 33004KT 9999 FEW013 BKN055 M01/M03 Q1007=
202211201320 METAR ESMX 201320Z 35005KT 9999 FEW032 M01/M03 Q1007=
202211201250 METAR ESMX 201250Z 33005KT CAVOK M01/M04 Q1007=
202211201220 METAR ESMX 201220Z 36005KT CAVOK M01/M03 Q1008=
202211201150 METAR ESMX 201150Z 35006KT CAVOK M01/M03 Q1008=
202211201120 METAR ESMX 201120Z 35005KT CAVOK M01/M03 Q1008=
202211201050 METAR ESMX 201050Z AUTO 02005KT 9999 FEW053/// M01/M03 Q1009=
202211201020 METAR ESMX 201020Z AUTO 02004KT 350V050 9999 SCT010/// BKN055/// OVC066/// M01/M03 Q1009=
202211200950 METAR ESMX 200950Z AUTO 02005KT 9999 SCT051/// M01/M03 Q1009=
202211200920 METAR ESMX 200920Z AUTO 01005KT 9999 SCT010/// BKN046/// OVC061/// M01/M03 Q1010=
202211200850 METAR ESMX 200850Z AUTO 36006KT 9999 FEW008/// BKN009/// OVC068/// M02/M03 Q1010=
202211200820 METAR ESMX 200820Z AUTO 01006KT 9999 BKN008/// OVC062/// M02/M03 Q1010=
202211200750 METAR ESMX 200750Z AUTO 01006KT 9999 FEW009/// OVC064/// M02/M03 Q1010=
202211200720 METAR ESMX 200720Z AUTO 01007KT 9999 SCT009/// OVC061/// M02/M03 Q1011=
202211200650 METAR ESMX 200650Z AUTO 01008KT 9999 BKN008/// OVC012/// M02/M03 Q1011=
202211200620 METAR ESMX 200620Z AUTO 02008KT 9999 OVC009/// M02/M03 Q1011=
202211200550 METAR ESMX 200550Z AUTO 01007KT 9999 FEW009/// SCT010/// M02/M03 Q1011=
202211200520 METAR ESMX 200520Z AUTO 01008KT 330V030 9999 BKN009/// M02/M03 Q1011=
202211200450 METAR ESMX 200450Z AUTO 01007KT 9999 FEW010/// SCT014/// BKN031/// M02/M03 Q1012=
202211200420 METAR ESMX 200420Z AUTO 02007KT 9999 FEW013/// BKN029/// M02/M04 Q1012=
202211200350 METAR ESMX 200350Z AUTO 02009KT 9999 SCT012/// M02/M04 Q1012=
202211200320 METAR ESMX 200320Z AUTO 03009KT 9999 FEW015/// M02/M03 Q1012=
202211200250 METAR ESMX 200250Z AUTO 03010KT 9999 BKN011/// M02/M03 Q1012=
202211200220 METAR ESMX 200220Z AUTO 03008KT 9999 BKN011/// BKN016/// M02/M03 Q1012=
202211200150 METAR ESMX 200150Z AUTO 03008KT 9999 FEW011/// M02/M03 Q1012=
202211200120 METAR ESMX 200120Z AUTO 03008KT 340V050 9999 SCT009/// BKN098/// M02/M03 Q1012=
202211200050 METAR ESMX 200050Z AUTO 03007KT 9999 BKN009/// BKN013/// OVC098/// M02/M03 Q1013=
202211200020 METAR ESMX 200020Z AUTO 03010KT 9999 SCT009/// M02/M03 Q1013=
202211192350 METAR ESMX 192350Z AUTO 04009KT 9999 BKN009/// M02/M03 Q1013=
202211192320 METAR ESMX 192320Z AUTO 04008KT 9999 BKN009/// M02/M03 Q1013 RESHUP REFZUP=
202211192250 METAR ESMX 192250Z AUTO 04008KT 9999 SCT009/// BKN012/// M02/M03 Q1013=
202211192220 METAR ESMX 192220Z AUTO 04009KT 020V080 9999 FEW013/// BKN017/// M01/M03 Q1013=
202211192150 METAR ESMX 192150Z AUTO 04009KT 9999 FEW008/// SCT015/// M01/M03 Q1013 REFZUP=
202211192120 METAR ESMX 192120Z AUTO 03007KT 350V060 9999 FEW040/// SCT055/// BKN068/// M01/M03 Q1013=
202211192050 METAR ESMX 192050Z AUTO 05007KT 020V080 9999 SCT051/// BKN070/// M01/M02 Q1013=
202211192020 METAR ESMX 192020Z AUTO 05005KT 010V120 9999 FEW036/// M01/M03 Q1013=
202211191950 METAR ESMX 191950Z AUTO VRB05KT 9999 FEW009/// SCT014/// BKN032/// M01/M02 Q1013=
202211191920 METAR ESMX 191920Z AUTO 07006KT 030V110 9999 -SN FEW004/// BKN009/// OVC015/// M00/M01 Q1012 REFZUP=
202211191850 METAR ESMX 191850Z AUTO 03007KT 5000 -PL BKN002/// BKN008/// OVC009/// M01/M01 Q1012 REFZUP=
202211191820 METAR ESMX 191820Z AUTO 04008KT 9999 BKN010/// BKN059/// OVC130/// M01/M02 Q1012=
202211191750 METAR ESMX 191750Z AUTO 03007KT 9999 BKN010/// BKN074/// M01/M02 Q1011=
202211191720 METAR ESMX 191720Z AUTO 04006KT 9999 FEW015/// SCT032/// BKN076/// M00/M01 Q1011=
202211191650 METAR ESMX 191650Z AUTO 04010KT 010V080 1700 -SN BKN001/// OVC009/// M01/M01 Q1011=
202211191620 METAR ESMX 191620Z AUTO 02010KT 2000 -SN BKN002/// OVC021/// M00/M01 Q1011=
202211191550 METAR ESMX 191550Z AUTO 02013KT 350V050 2800 -SN VV019 M00/M02 Q1011=
202211191520 METAR ESMX 191520Z AUTO 36013KT 9999 -FZDZ BKN012/// OVC016/// M00/M02 Q1011 REFZUP=
202211191450 METAR ESMX 191450Z AUTO 35014KT 9999 FZUP BKN013/// BKN021/// OVC030/// M00/M02 Q1011=
202211191420 METAR ESMX 191420Z AUTO 36014KT 9999 BKN014/// M00/M02 Q1011=
202211191350 METAR ESMX 191350Z 35014KT 9999 -DZ BKN011 M00/M02 Q1011=
202211191320 METAR ESMX 191320Z 35014KT 9999 BKN015 00/M02 Q1011=
202211191250 METAR ESMX 191250Z 36015KT 9999 BKN018 00/M02 Q1012=
202211191220 METAR ESMX 191220Z 02015KT 9999 BKN018 00/M03 Q1012=
202211191150 METAR ESMX 191150Z 01015KT 9999 BKN016 01/M02 Q1012=
202211191120 METAR ESMX 191120Z 36017KT 9999 BKN018 01/M02 Q1012=
202211191050 METAR ESMX 191050Z AUTO 36016KT 9999 UP BKN016/// OVC021/// 01/M02 Q1012 REDZ=
202211191020 METAR ESMX 191020Z AUTO 36016KT 9999 OVC016/// 01/M02 Q1013=
202211190950 METAR ESMX 190950Z AUTO 36015KT 9999 UP SCT013/// OVC018/// 00/M02 Q1013=
202211190920 METAR ESMX 190920Z AUTO 01014KT 9999 -SN BKN014/// OVC018/// M00/M02 Q1013 REUP REFZUP RESHUP=
202211190850 METAR ESMX 190850Z AUTO 36014KT 9999 -DZ OVC015/// 00/M02 Q1013 RESG=
202211190820 METAR ESMX 190820Z AUTO 02016KT 9999 -SN BKN017/// OVC021/// M00/M02 Q1013 RESG REFZUP=
202211190750 METAR ESMX 190750Z AUTO 36015KT 9999 BKN019/// BKN051/// OVC064/// M00/M03 Q1013=
202211190720 METAR ESMX 190720Z AUTO 36015KT 9999 FEW019/// M00/M03 Q1013=
202211190650 METAR ESMX 190650Z AUTO 36015KT 9999 FEW018/// BKN066/// M00/M03 Q1014=
202211190620 METAR ESMX 190620Z AUTO 35015KT 9999 SCT018/// BKN066/// M00/M03 Q1014=
202211190550 METAR ESMX 190550Z AUTO 35014KT 9999 FEW018/// M00/M03 Q1014=
202211190520 METAR ESMX 190520Z AUTO 35013KT 9999 FEW072/// M00/M03 Q1014=
202211190450 METAR ESMX 190450Z AUTO 01014KT 9999 FEW017/// SCT076/// M00/M03 Q1014=
202211190420 METAR ESMX 190420Z AUTO 36013KT 9999 NCD M00/M02 Q1014=
202211190350 METAR ESMX 190350Z AUTO 35014KT 9999 FEW039/// M01/M02 Q1015 RESHUP=
202211190320 METAR ESMX 190320Z AUTO 35014KT 9999 FEW015/// BKN042/// M01/M02 Q1015=
202211190250 METAR ESMX 190250Z AUTO 35013KT 9999 -SN SCT015/// OVC034/// M00/M02 Q1015 RESG=
202211190220 METAR ESMX 190220Z AUTO 36013KT 9999 SG FEW015/// OVC036/// M00/M02 Q1015 RESG=
202211190150 METAR ESMX 190150Z AUTO 01013KT 9999 -SN SCT014/// OVC038/// M00/M02 Q1015=
202211190120 METAR ESMX 190120Z AUTO 36013KT 9000 -PL SCT014/// BKN037/// OVC046/// M00/M02 Q1016=
202211190050 METAR ESMX 190050Z AUTO 35013KT 9999 -RASN BKN012/// BKN018/// OVC035/// M00/M01 Q1016 RESHUP RESN=
202211190020 METAR ESMX 190020Z AUTO 35013KT 9999 BKN013/// OVC015/// M00/M01 Q1016=
202211182350 METAR ESMX 182350Z AUTO 36013KT 9999 FZUP SCT014/// OVC036/// M00/M01 Q1016 RESHUP=
202211182320 METAR ESMX 182320Z AUTO 35012KT 9999 FEW008/// BKN012/// BKN019/// M00/M01 Q1016 REUP=
202211182250 METAR ESMX 182250Z AUTO 36011KT 9999 BKN011/// OVC017/// M00/M01 Q1016 RESHUP=
202211182220 METAR ESMX 182220Z AUTO 36011KT 9999 BR FEW002/// BKN009/// BKN012/// 00/M00 Q1016 RESHUP=
202211182150 METAR ESMX 182150Z AUTO 02011KT 9999 -RA FEW007/// BKN010/// BKN016/// 00/M00 Q1016 RESN=
202211182120 METAR ESMX 182120Z AUTO 01011KT 9999 UP FEW001/// SCT005/// BKN009/// 00/M00 Q1016=
202211182050 METAR ESMX 182050Z AUTO 02009KT 3100 -SN SCT002/// BKN005/// OVC014/// 01/00 Q1016=
202211182020 METAR ESMX 182020Z AUTO 01008KT 2500 -PL SCT002/// BKN005/// BKN017/// 00/M00 Q1016 REUP=
202211181950 METAR ESMX 181950Z AUTO 35008KT 9999 SCT007/// BKN038/// OVC049/// 00/M00 Q1016=
202211181920 METAR ESMX 181920Z AUTO 01008KT 9999 SCT007/// BKN041/// BKN051/// 00/M01 Q1016=
202211181850 METAR ESMX 181850Z AUTO 02008KT 9999 NCD M00/M01 Q1016=
202211181820 METAR ESMX 181820Z AUTO 02009KT 9999 FEW009/// 00/M01 Q1016=
202211181750 METAR ESMX 181750Z 02009KT CAVOK 00/M02 Q1016=
202211181720 METAR ESMX 181720Z 03006KT 9999 FEW042 00/M03 Q1016=
202211181650 METAR ESMX 181650Z 03006KT CAVOK 00/M04 Q1016=
202211181620 METAR ESMX 181620Z 04007KT CAVOK 01/M04 Q1016=
202211181550 METAR ESMX 181550Z 05005KT 020V110 CAVOK 01/M04 Q1015=
202211181520 METAR ESMX 181520Z 04009KT 020V080 CAVOK 01/M04 Q1015=
202211181450 METAR ESMX 181450Z 05008KT 010V090 CAVOK 01/M04 Q1015=
202211181420 METAR ESMX 181420Z 04010KT CAVOK 02/M04 Q1015=
202211181350 METAR ESMX 181350Z 04011KT 9999 SCT047 02/M04 Q1015=
202211181320 METAR ESMX 181320Z 05012KT 010V080 9999 SCT043 02/M04 Q1015=
202211181250 METAR ESMX 181250Z 05010KT 020V090 9999 SCT034 02/M03 Q1015=
202211181220 METAR ESMX 181220Z 06012G23KT 030V100 9999 BKN024 02/M02 Q1015=
202211181150 METAR ESMX 181150Z 04012KT 020V090 9999 BKN023 03/M01 Q1015 REDZ=
202211181120 METAR ESMX 181120Z AUTO 05011KT 020V080 9999 BKN025/// OVC047/// 03/M02 Q1015=
202211181050 METAR ESMX 181050Z 05011KT 020V100 9999 FEW027 SCT034 BKN043 03/M02 Q1015=
202211181020 METAR ESMX 181020Z 05009KT 020V080 9999 FEW018 03/M01 Q1014=
202211180950 METAR ESMX 180950Z 05009KT 020V100 9999 SCT047 02/M00 Q1014=
202211180920 METAR ESMX 180920Z 04009KT 9999 FEW027 BKN046 02/M00 Q1014=
202211180850 METAR ESMX 180850Z 03010KT 9999 FEW027 BKN046 02/M01 Q1014=
202211180820 METAR ESMX 180820Z AUTO 04009KT 9999 SCT048/// 02/M00 Q1014=
202211180750 METAR ESMX 180750Z 03008KT 9999 FEW035 BKN048 02/M00 Q1014=
202211180720 METAR ESMX 180720Z 03008KT 9999 FEW035 SCT048 02/00 Q1014=
202211180650 METAR ESMX 180650Z 04007KT 020V080 9999 FEW011 SCT048 02/00 Q1013=
202211180620 METAR ESMX 180620Z 06008KT 020V090 9999 FEW035 BKN047 02/00 Q1013=
202211180550 METAR ESMX 180550Z 05007KT 020V100 9999 SCT012 BKN045 02/01 Q1013=
202211180520 METAR ESMX 180520Z AUTO 04007KT 350V080 9999 FEW012/// BKN044/// 02/01 Q1013=
202211180450 METAR ESMX 180450Z AUTO 06008KT 020V090 9999 FEW012/// BKN047/// 02/01 Q1012=
202211180420 METAR ESMX 180420Z AUTO 06008KT 030V100 9999 FEW010/// SCT018/// OVC045/// 02/01 Q1012 RESHUP REUP=
202211180350 METAR ESMX 180350Z AUTO 06008KT 030V090 9999 FEW006/// SCT014/// BKN024/// 02/01 Q1012 REUP=
202211180320 METAR ESMX 180320Z AUTO 05009KT 020V080 9999 UP BKN010/// 02/01 Q1012=
202211180250 METAR ESMX 180250Z AUTO 06008KT 030V110 9999 FEW014/// 02/01 Q1011=
202211180220 METAR ESMX 180220Z AUTO 06008KT 030V100 9999 SCT011/// 02/01 Q1011=
202211180150 METAR ESMX 180150Z AUTO 06008KT 020V090 9999 FEW013/// SCT018/// 02/01 Q1011=
202211180120 METAR ESMX 180120Z AUTO 06009KT 020V090 9999 BKN012/// BKN022/// 02/01 Q1011=
202211180050 METAR ESMX 180050Z 06009KT 020V080 9999 FEW010 BKN014 02/01 Q1011 REDZ=
202211180020 METAR ESMX 180020Z 04007KT 340V150 9999 SCT010 BKN021 02/01 Q1011 REDZ=
202211172350 METAR ESMX 172350Z 04006KT 350V110 9999 FEW007 BKN009 02/01 Q1011=
202211172320 METAR ESMX 172320Z 06006KT 020V100 9999 BKN013 02/01 Q1011=
202211172250 METAR ESMX 172250Z 05006KT 9999 FEW017 02/01 Q1011=
202211172220 METAR ESMX 172220Z 04007KT CAVOK 01/01 Q1011=
202211172150 METAR ESMX 172150Z 03006KT 350V070 CAVOK 02/01 Q1011=
202211172120 METAR ESMX 172120Z 06007KT 030V100 9999 FEW030 02/01 Q1011=
202211172050 METAR ESMX 172050Z AUTO 06006KT 030V100 9999 FEW030/// 02/01 Q1011=
202211172020 METAR ESMX 172020Z AUTO 06008KT 020V090 9999 FEW011/// BKN032/// 02/01 Q1011=
202211171950 METAR ESMX 171950Z AUTO 05007KT 9999 -DZ SCT009/// BKN011/// BKN014/// 02/01 Q1011 RESHUP RERA=
202211171920 METAR ESMX 171920Z AUTO 06007KT 020V100 9999 FEW006/// BKN008/// OVC011/// 02/01 Q1011=
202211171850 METAR ESMX 171850Z AUTO 06005KT 020V100 9999 FEW005/// BKN009/// OVC014/// 02/01 Q1011 RESHUP REUP=
202211171820 METAR ESMX 171820Z AUTO 05006KT 020V120 9999 FEW006/// BKN013/// OVC019/// 03/00 Q1011 REUP=
202211171750 METAR ESMX 171750Z AUTO 06006KT 030V110 9999 BKN024/// OVC032/// 03/M01 Q1011=
202211171720 METAR ESMX 171720Z 08006KT 030V120 9999 BKN024 03/M01 Q1011=
202211171650 METAR ESMX 171650Z 07006KT 030V130 9999 BKN027 03/M01 Q1011=
202211171620 METAR ESMX 171620Z 07008KT 020V110 9999 BKN025 03/M01 Q1011=
202211171550 METAR ESMX 171550Z 08007KT 350V110 9999 BKN024 03/M00 Q1011=
202211171520 METAR ESMX 171520Z 07006KT 040V100 9999 BKN024 03/M00 Q1011=
202211171450 METAR ESMX 171450Z 07007KT 030V110 9999 BKN027 03/M01 Q1011=
202211171420 METAR ESMX 171420Z 07008KT 020V110 9999 BKN029 03/M00 Q1011=
202211171350 METAR ESMX 171350Z 07007KT 030V110 9999 SCT023 BKN029 04/00 Q1011=
202211171320 METAR ESMX 171320Z 08007KT 030V110 9999 BKN025 04/00 Q1011=
202211171250 METAR ESMX 171250Z 08007KT 030V110 9999 BKN027 04/M00 Q1011=
202211171220 METAR ESMX 171220Z 08006KT 030V120 9999 BKN025 04/M00 Q1012=
202211171150 METAR ESMX 171150Z 09006KT 030V140 9999 BKN025 04/M00 Q1012=
202211171120 METAR ESMX 171120Z 08007G17KT 030V130 9999 BKN026 04/M00 Q1012=
202211171050 METAR ESMX 171050Z 09009G21KT 050V130 9999 BKN026 04/M01 Q1012=
202211171020 METAR ESMX 171020Z 08006KT 030V120 9999 BKN029 04/01 Q1012=
202211170950 METAR ESMX 170950Z 07006KT 360V120 9999 FEW012 BKN030 03/02 Q1012=
202211170920 METAR ESMX 170920Z 07005KT 330V130 9999 SCT031 03/01 Q1012=
202211170850 METAR ESMX 170850Z 07006KT 360V120 9999 FEW013 BKN028 03/01 Q1012=
202211170820 METAR ESMX 170820Z 07007KT 030V120 9999 FEW011 BKN014 02/01 Q1012=
202211170750 METAR ESMX 170750Z 08006KT 030V110 CAVOK 02/01 Q1012=
202211170720 METAR ESMX 170720Z 07007KT 030V110 CAVOK 02/01 Q1012=
202211170650 METAR ESMX 170650Z AUTO 07007KT 040V110 9999 NCD 02/01 Q1012 RESHUP=
202211170620 METAR ESMX 170620Z 07007KT 030V110 9999 SCT023 BKN033 02/01 Q1012=
202211170550 METAR ESMX 170550Z AUTO 07007KT 020V120 9999 FEW025/// BKN035/// 02/01 Q1012=
202211170520 METAR ESMX 170520Z 07007KT 040V110 9999 SCT031 02/01 Q1012=
202211170450 METAR COR ESMX 170450Z 05006KT 030V110 9999 BKN031 02/01 Q1012=
202211170420 METAR ESMX 170420Z AUTO 06007KT 020V100 9999 OVC029/// 02/02 Q1012=
202211170350 METAR ESMX 170350Z AUTO 06005KT 020V100 9999 OVC030/// 02/02 Q1013=
202211170320 METAR ESMX 170320Z AUTO 07005KT 030V110 9999 BKN030/// 02/02 Q1013=
202211170250 METAR ESMX 170250Z AUTO 06006KT 030V100 9999 SCT030/// 02/02 Q1013=
202211170220 METAR ESMX 170220Z AUTO 07006KT 020V110 9999 BKN030/// 02/02 Q1013=
202211170150 METAR ESMX 170150Z AUTO 07006KT 030V100 9999 SCT031/// 02/02 Q1013=
202211170120 METAR ESMX 170120Z AUTO 07006KT 030V110 9999 FEW007/// 02/02 Q1014=
202211170050 METAR ESMX 170050Z 07005KT 010V100 9999 FEW030 02/02 Q1014=
202211170020 METAR ESMX 170020Z 07007KT 030V100 CAVOK 02/02 Q1014=
202211162350 METAR ESMX 162350Z 06006KT 9999 FEW030 02/02 Q1014=
202211162320 METAR ESMX 162320Z 06006KT 010V090 9999 FEW028 02/02 Q1015=
202211162250 METAR ESMX 162250Z 06006KT 020V080 9999 SCT029 03/02 Q1015=
202211162220 METAR ESMX 162220Z 07005KT 030V110 9999 BKN030 03/02 Q1015=
202211162150 METAR ESMX 162150Z 07006KT 030V110 9999 FEW010 SCT031 03/02 Q1015=
202211162120 METAR ESMX 162120Z 07006KT 020V100 9999 FEW005 SCT010 BKN026 03/03 Q1015=
202211162050 METAR ESMX 162050Z 07007KT 330V110 4400 SCT005 BKN008 03/03 Q1015=
202211162020 METAR ESMX 162020Z AUTO 08005KT 030V110 9000 DZ FEW006/// BKN009/// BKN012/// 03/03 Q1015 REDZ=
202211161950 METAR ESMX 161950Z AUTO 06005KT 320V110 9000 BKN006/// BKN010/// OVC020/// 03/03 Q1015 REDZ=
202211161920 METAR ESMX 161920Z AUTO 07005KT 030V110 9999 SCT005/// BKN009/// BKN012/// 03/03 Q1015=
202211161850 METAR ESMX 161850Z AUTO 08006KT 030V110 9999 -DZ SCT005/// BKN009/// BKN014/// 04/03 Q1015 REDZ REUP=
202211161820 METAR ESMX 161820Z AUTO 07006KT 360V110 9999 BKN011/// BKN015/// OVC024/// 04/02 Q1015=
202211161750 METAR ESMX 161750Z 08005KT 030V120 9999 SCT014 BKN019 04/02 Q1015=
202211161720 METAR ESMX 161720Z 08007KT 030V130 9999 FEW020 BKN029 04/02 Q1015=
202211161650 METAR ESMX 161650Z 09006KT 350V130 9999 FEW018 BKN024 04/02 Q1015=
202211161620 METAR ESMX 161620Z 07007KT 040V110 9999 BKN023 05/01 Q1015=
202211161550 METAR ESMX 161550Z 07007KT 030V110 9999 FEW035 05/00 Q1015=
202211161520 METAR ESMX 161520Z 08007KT 030V120 9999 FEW033 05/00 Q1015=
202211161450 METAR ESMX 161450Z 08005KT 020V120 9999 BKN032 05/00 Q1015=
202211161420 METAR ESMX 161420Z 08008G18KT 040V120 9999 BKN032 06/M00 Q1015=
202211161350 METAR ESMX 161350Z 09007KT 030V130 9999 BKN031 06/M00 Q1015=
202211161320 METAR ESMX 161320Z AUTO 09010G20KT 050V130 9999 BKN032/// 06/01 Q1015=
202211161250 METAR ESMX 161250Z AUTO 07010KT 020V110 9999 BKN033/// 06/00 Q1015=
202211161220 METAR ESMX 161220Z 08009KT 030V130 9999 BKN031 07/M00 Q1015=
202211161150 METAR ESMX 161150Z 09009KT 050V140 9999 BKN032 07/00 Q1015=
202211161120 METAR ESMX 161120Z 10007KT 050V170 9999 BKN027 07/01 Q1015=
202211161050 METAR ESMX 161050Z 08007KT 030V110 9999 BKN026 07/02 Q1015=
202211161020 METAR ESMX 161020Z 09007KT 030V140 9999 BKN029 07/02 Q1015=
202211160950 METAR ESMX 160950Z 09006KT 040V130 9999 BKN023 06/02 Q1015=
202211160920 METAR ESMX 160920Z 09007KT 040V120 9999 BKN024 06/02 Q1015=
202211160850 METAR ESMX 160850Z 08007KT 030V130 9999 BKN024 06/02 Q1015=
202211160820 METAR ESMX 160820Z 08009KT 010V110 9999 BKN026 06/02 Q1015=
202211160750 METAR ESMX 160750Z 07008KT 030V130 9999 BKN025 06/02 Q1015=
202211160720 METAR ESMX 160720Z 08009KT 030V110 9999 BKN020 06/03 Q1015=
202211160650 METAR ESMX 160650Z 08007KT 020V120 9999 OVC022 06/02 Q1015=
202211160620 METAR ESMX 160620Z 10004KT 050V130 9999 OVC018 05/03 Q1015=
202211160550 METAR ESMX 160550Z 08007KT 020V120 9999 OVC022 06/03 Q1015=
202211160520 METAR ESMX 160520Z 07007KT 020V110 9999 BKN023 06/03 Q1015=
202211160450 METAR ESMX 160450Z 07007KT 030V120 9999 BKN020 06/03 Q1015=
202211160420 METAR ESMX 160420Z AUTO 08006KT 010V110 9999 OVC028/// 06/03 Q1015=
202211160350 METAR ESMX 160350Z AUTO 08006KT 020V120 9999 OVC027/// 05/03 Q1015=
202211160320 METAR ESMX 160320Z AUTO 07006KT 030V100 9999 OVC029/// 05/03 Q1015=
202211160250 METAR ESMX 160250Z AUTO 07006KT 030V110 9999 SCT027/// BKN034/// 04/03 Q1015=
202211160220 METAR ESMX 160220Z AUTO 07006KT 030V110 9999 NCD 04/03 Q1016=
202211160150 METAR ESMX 160150Z AUTO 06005KT 010V100 9999 NCD 04/03 Q1016=
202211160120 METAR ESMX 160120Z AUTO 07006KT 030V110 9999 FEW030/// 05/03 Q1016=
202211160050 METAR ESMX 160050Z AUTO 06007KT 020V100 9999 FEW028/// 05/03 Q1016=
202211160020 METAR ESMX 160020Z 07007KT 020V120 9999 FEW023 BKN031 05/03 Q1016=
202211152350 METAR ESMX 152350Z 06006KT 010V130 9999 BKN026 06/03 Q1016=
202211152320 METAR ESMX 152320Z 07007KT 030V110 9999 BKN024 06/03 Q1017=
202211152250 METAR ESMX 152250Z 07007KT 010V110 9999 BKN024 06/02 Q1017=
202211152220 METAR ESMX 152220Z 07006KT 030V110 9999 BKN025 06/02 Q1017=
202211152150 METAR ESMX 152150Z 07007KT 360V120 9999 BKN022 06/02 Q1016=
202211152120 METAR ESMX 152120Z 08007KT 030V140 9999 FEW016 BKN024 06/03 Q1017=
202211152050 METAR ESMX 152050Z 07007KT 030V110 9999 SCT020 BKN027 06/03 Q1016=
202211152020 METAR ESMX 152020Z AUTO 08007KT 030V110 9999 FEW019/// OVC026/// 06/04 Q1017=
202211151950 METAR ESMX 151950Z AUTO 07007KT 020V100 9999 BKN017/// OVC023/// 06/04 Q1017=
202211151920 METAR ESMX 151920Z AUTO 07007KT 030V110 9999 BKN015/// OVC019/// 06/04 Q1017=
202211151850 METAR ESMX 151850Z AUTO 08008KT 030V110 9999 OVC023/// 06/04 Q1016=
202211151820 METAR ESMX 151820Z AUTO 06008KT 010V110 9999 FEW016/// OVC027/// 06/04 Q1016=
202211151750 METAR ESMX 151750Z AUTO 07005KT 020V110 9999 BKN016/// OVC030/// 06/04 Q1016=
202211151720 METAR ESMX 151720Z 06008KT 010V120 9999 BKN015 06/04 Q1016=
202211151650 METAR ESMX 151650Z 06007KT 030V110 9999 BKN013 06/05 Q1016=
202211151620 METAR ESMX 151620Z 06007KT 020V110 9999 FEW017 BKN028 06/04 Q1016=
202211151550 METAR ESMX 151550Z 07007KT 030V110 9999 BKN027 07/04 Q1016=
202211151520 METAR ESMX 151520Z 06008KT 020V100 9999 FEW013 BKN030 06/05 Q1016=
202211151450 METAR COR ESMX 151450Z 06013KT 030V100 9999 FEW007 BKN018 06/05 Q1016=
202211151420 METAR ESMX 151420Z 07007KT 030V130 9999 SCT007 BKN024 07/06 Q1016=
202211151350 METAR ESMX 151350Z 05009KT 360V090 9999 FEW006 BKN022 07/07 Q1016=
202211151320 METAR ESMX 151320Z 06009KT 020V130 4400 -DZ SCT005 BKN028 07/07 Q1016=
202211151250 METAR ESMX 151250Z 05007KT 020V110 9999 FEW005 BKN010 08/07 Q1016=
202211151220 METAR ESMX 151220Z 07008KT 030V110 7000 -RA SCT007 BKN018 08/07 Q1016=
202211151150 METAR ESMX 151150Z 08004KT 010V110 9999 BR FEW002 BKN007 08/07 Q1016=
202211151120 METAR ESMX 151120Z 08004KT 010V110 5000 BR SCT005 BKN011 08/07 Q1016=
202211151050 METAR ESMX 151050Z 08006KT 360V110 9000 BR SCT005 BKN016 08/07 Q1016=
202211151020 METAR ESMX 151020Z 12005KT 9999 FEW006 BKN018 08/06 Q1016=
202211150950 METAR ESMX 150950Z 11006KT 050V140 9999 BKN014 08/06 Q1016=
202211150920 METAR ESMX 150920Z 10005KT 030V130 9999 BKN015 08/06 Q1016=
202211150850 METAR ESMX 150850Z 08005KT 030V110 9999 BKN016 08/06 Q1016=
202211150820 METAR ESMX 150820Z 07005KT 020V100 9999 BKN012 08/06 Q1016=
202211150750 METAR ESMX 150750Z 08004KT 030V100 9999 BKN013 08/06 Q1016=
202211150720 METAR ESMX 150720Z 08005KT 030V110 9999 OVC016 08/06 Q1016=
202211150650 METAR ESMX 150650Z 06005KT 010V110 9999 OVC016 08/06 Q1015=
202211150620 METAR ESMX 150620Z 08004KT 030V100 9999 OVC015 08/06 Q1015=
202211150550 METAR ESMX 150550Z 06005KT 020V110 9999 OVC016 08/06 Q1015=
202211150520 METAR ESMX 150520Z 07006KT 030V100 9999 OVC016 08/06 Q1015=
202211150450 METAR ESMX 150450Z 07006KT 030V110 9999 FEW014 BKN018 08/06 Q1015=
202211150420 METAR ESMX 150420Z 05005KT 020V090 9999 BKN018 08/06 Q1015=
202211150350 METAR ESMX 150350Z 06004KT 020V100 9999 BKN017 08/06 Q1015=
202211150320 METAR ESMX 150320Z AUTO VRB03KT 9999 OVC013/// 08/06 Q1015=
202211150250 METAR ESMX 150250Z AUTO 08003KT 330V100 9999 OVC012/// 08/06 Q1015=
202211150220 METAR ESMX 150220Z AUTO 10002KT 9999 OVC014/// 08/06 Q1015=
202211150150 METAR ESMX 150150Z AUTO 10003KT 050V110 9999 OVC014/// 08/06 Q1016=
202211150120 METAR ESMX 150120Z 11003KT 9999 BKN014 08/06 Q1016=
202211150050 METAR ESMX 150050Z 11003KT 9999 BKN014 08/06 Q1016=
202211150020 METAR ESMX 150020Z 10003KT 9999 BKN013 08/06 Q1016=
202211142350 METAR ESMX 142350Z 09004KT 020V100 9999 BKN014 08/06 Q1017=
202211142320 METAR ESMX 142320Z 08003KT 030V100 9999 BKN013 08/06 Q1017=
202211142250 METAR ESMX 142250Z 11003KT 9999 BKN013 08/06 Q1017=
202211142220 METAR ESMX 142220Z 10003KT 9999 BKN012 08/06 Q1017=
202211142150 METAR ESMX 142150Z 11004KT 9999 BKN014 08/06 Q1018=
202211142120 METAR ESMX 142120Z 12003KT 9999 BKN015 08/05 Q1018=
202211142050 METAR ESMX 142050Z 11004KT 060V120 9999 BKN014 08/06 Q1018=
202211142020 METAR ESMX 142020Z 12005KT 9999 BKN013 08/06 Q1018=
202211141950 METAR ESMX 141950Z 11003KT 9999 BKN013 08/06 Q1019=
202211141920 METAR ESMX 141920Z 11005KT 9999 BKN015 08/06 Q1019=
202211141850 METAR ESMX 141850Z 12006KT 080V160 9999 BKN015 08/06 Q1019=
202211141820 METAR ESMX 141820Z 12004KT 9999 BKN015 09/06 Q1019=
202211141750 METAR ESMX 141750Z 12006KT 080V150 9999 BKN015 09/06 Q1020=
202211141720 METAR ESMX 141720Z 11005KT 060V120 9999 BKN014 09/07 Q1020=
202211141650 METAR ESMX 141650Z 11004KT 050V220 9999 BKN015 09/07 Q1020=
202211141620 METAR ESMX 141620Z 11003KT 9999 BKN015 09/06 Q1020=
202211141550 METAR ESMX 141550Z 13004KT 9999 BKN017 09/06 Q1020=
202211141520 METAR ESMX 141520Z 12004KT 9999 BKN017 09/06 Q1020=
202211141450 METAR ESMX 141450Z 14006KT 080V170 9999 BKN018 09/06 Q1020=
202211141420 METAR ESMX 141420Z 14005KT 9999 BKN018 09/06 Q1021=
202211141350 METAR ESMX 141350Z 13005KT 9999 BKN017 09/06 Q1021=
202211141320 METAR ESMX 141320Z 13006KT 060V170 9999 BKN018 10/06 Q1022=
202211141250 METAR ESMX 141250Z 11005KT 050V180 9999 BKN017 10/07 Q1022=
202211141220 METAR ESMX 141220Z 13004KT 060V190 9999 BKN017 10/07 Q1022=
202211141150 METAR COR ESMX 141150Z 16005KT 9999 BKN018 10/07 Q1022=
202211141120 METAR ESMX 141120Z 13006KT 080V160 9999 BKN018 10/07 Q1023=
202211141050 METAR ESMX 141050Z 13005KT 100V160 9999 BKN018 10/07 Q1023=
202211141020 METAR ESMX 141020Z 12004KT 060V140 9999 BKN019 10/07 Q1023=
202211140950 METAR ESMX 140950Z 11004KT 060V130 9999 OVC019 09/08 Q1024=
202211140920 METAR ESMX 140920Z AUTO 11003KT 9999 OVC018/// 09/08 Q1024=
202211140850 METAR ESMX 140850Z AUTO 11003KT 9999 OVC018/// 09/08 Q1024=
202211140820 METAR ESMX 140820Z 11003KT 9999 OVC016 09/08 Q1024=
202211140750 METAR ESMX 140750Z 11003KT 9999 OVC015 08/08 Q1024=
202211140720 METAR ESMX 140720Z 11002KT 9999 OVC016 08/08 Q1024=
202211140650 METAR ESMX 140650Z 11003KT 9999 OVC017 08/08 Q1025=
202211140620 METAR ESMX 140620Z AUTO VRB02KT 9999 OVC017/// 08/08 Q1025=
202211140550 METAR ESMX 140550Z VRB01KT 9999 OVC017 08/08 Q1025=
202211140520 METAR ESMX 140520Z 11002KT 9999 OVC016 07/07 Q1025=
202211140450 METAR COR ESMX 140450Z VRB02KT 9999 OVC014 07/07 Q1025=
202211140420 METAR ESMX 140420Z AUTO VRB02KT 9999 OVC015/// 07/07 Q1025=
202211140350 METAR ESMX 140350Z AUTO 11003KT 9999 OVC015/// 07/07 Q1026=
202211140320 METAR ESMX 140320Z AUTO 11003KT 9999 SCT002/// OVC015/// 07/07 Q1026=
202211140250 METAR ESMX 140250Z AUTO 11004KT 9999 BKN002/// OVC016/// 07/07 Q1026=
202211140220 METAR ESMX 140220Z AUTO 11003KT 9999 SCT003/// OVC016/// 06/06 Q1026=
202211140150 METAR ESMX 140150Z AUTO 11003KT 9999 OVC001/// 06/06 Q1027=
202211140120 METAR ESMX 140120Z AUTO 11001KT 9999 BKN002/// BKN006/// OVC012/// 06/06 Q1027=
202211140050 METAR ESMX 140050Z AUTO 11002KT 1600 BR OVC001/// 06/06 Q1027=
202211140020 METAR ESMX 140020Z AUTO 11001KT 1500 BR OVC001/// 06/06 Q1027=
202211132350 METAR ESMX 132350Z AUTO 11002KT 1200 R01/P2000N R19/P2000N BR OVC002/// 06/06 Q1028=
202211132320 METAR ESMX 132320Z AUTO 11003KT 4200 BR OVC002/// 06/06 Q1028=
202211132250 METAR ESMX 132250Z AUTO 12004KT 7000 BR OVC002/// 06/06 Q1028=
202211132220 METAR ESMX 132220Z AUTO 10004KT 040V140 4800 BR OVC002/// 06/06 Q1028=
202211132150 METAR ESMX 132150Z AUTO VRB03KT 5000 BR OVC002/// 06/06 Q1028=
202211132120 METAR ESMX 132120Z AUTO 11003KT 060V170 8000 BR OVC002/// 06/06 Q1028=
202211132050 METAR ESMX 132050Z AUTO 12004KT 6000 BR OVC002/// 07/07 Q1029=
202211132020 METAR ESMX 132020Z AUTO VRB03KT 9999 BKN003/// OVC004/// 07/07 Q1029=
202211131950 METAR ESMX 131950Z 10004KT 2500 BR BKN002 07/07 Q1029=
202211131920 METAR ESMX 131920Z 11004KT 2500 BR BKN002 07/07 Q1029=
202211131850 METAR ESMX 131850Z 11004KT 4000 BR BKN002 08/08 Q1029=
202211131820 METAR ESMX 131820Z 21003KT 9000 BKN003 08/08 Q1029=
202211131750 METAR ESMX 131750Z VRB02KT 9999 OVC004 08/08 Q1029=
202211131720 METAR ESMX 131720Z VRB02KT 9999 BKN005 09/08 Q1029=
202211131650 METAR ESMX 131650Z VRB02KT 9999 OVC005 09/08 Q1029=
202211131620 METAR ESMX 131620Z 21003KT 9999 OVC005 09/09 Q1029=
202211131550 METAR ESMX 131550Z 01003KT 340V040 9999 BKN004 09/09 Q1029=
202211131520 METAR ESMX 131520Z 22003KT 9000 OVC004 09/09 Q1029=
202211131450 METAR ESMX 131450Z 05003KT 020V080 5000 -RA OVC002 09/09 Q1029=
202211131420 METAR ESMX 131420Z 23004KT 9999 FEW002 OVC004 10/09 Q1029=
202211131350 METAR ESMX 131350Z 23004KT 9999 BKN005 10/09 Q1029=
202211131320 METAR ESMX 131320Z 23003KT 9999 OVC003 10/10 Q1029=
202211131250 METAR COR ESMX 131250Z VRB03KT 9999 OVC002 10/10 Q1029=
202211131220 METAR ESMX 131220Z 23003KT 6000 BR OVC002 10/10 Q1030=
202211131150 METAR COR ESMX 131150Z 23002KT 5000 BR OVC002 10/10 Q1030=
202211131120 METAR ESMX 131120Z AUTO 23001KT 3700 BR OVC002/// 10/10 Q1030=
202211131050 METAR ESMX 131050Z AUTO 23002KT 5000 BR OVC003/// 10/10 Q1030=
202211131020 METAR ESMX 131020Z AUTO VRB02KT 9999 OVC004/// 09/09 Q1030=
202211130950 METAR ESMX 130950Z AUTO VRB02KT 9999 OVC003/// 10/09 Q1030=
202211130920 METAR ESMX 130920Z AUTO VRB02KT 9999 OVC004/// 09/09 Q1030=
202211130850 METAR ESMX 130850Z AUTO 23002KT 9999 OVC005/// 09/09 Q1030=
202211130820 METAR ESMX 130820Z AUTO 33003KT 7000 BR OVC005/// 09/09 Q1030=
202211130750 METAR ESMX 130750Z AUTO 02002KT 9999 OVC005/// 09/09 Q1030=
202211130720 METAR ESMX 130720Z 36003KT 9999 BKN006 09/09 Q1030=
202211130650 METAR COR ESMX 130650Z 00000KT 9999 BKN006 09/09 Q1030=
202211130620 METAR ESMX 130620Z AUTO 35004KT 260V010 6000 BR OVC005/// 09/09 Q1030=
202211130550 METAR ESMX 130550Z AUTO 00000KT 4800 BR FEW002/// OVC005/// 09/09 Q1030=
202211130520 METAR ESMX 130520Z AUTO VRB02KT 9000 BKN003/// OVC007/// 09/09 Q1030=
202211130450 METAR ESMX 130450Z AUTO VRB02KT 9999 OVC007/// 09/09 Q1030=
202211130420 METAR ESMX 130420Z AUTO VRB01KT 9999 OVC008/// 09/09 Q1030=
202211130350 METAR ESMX 130350Z AUTO 30004KT 280V340 9999 OVC007/// 09/09 Q1030=
202211130320 METAR ESMX 130320Z AUTO 27004KT 240V300 9999 OVC006/// 09/09 Q1030=
202211130250 METAR ESMX 130250Z AUTO 27004KT 230V320 9999 OVC006/// 09/09 Q1030=
202211130220 METAR ESMX 130220Z AUTO 28004KT 9999 OVC006/// 09/09 Q1030=
202211130150 METAR ESMX 130150Z AUTO 29004KT 9999 OVC006/// 10/09 Q1030=
202211130120 METAR ESMX 130120Z AUTO 30004KT 9999 OVC006/// 10/09 Q1030=
202211130050 METAR ESMX 130050Z AUTO 31005KT 9999 OVC007/// 10/09 Q1030=
202211130020 METAR ESMX 130020Z AUTO 30003KT 9999 OVC007/// 10/09 Q1030=
202211122350 METAR ESMX 122350Z AUTO 28004KT 240V300 9999 OVC007/// 10/09 Q1030=
202211122320 METAR ESMX 122320Z AUTO 30003KT 9999 OVC008/// 10/09 Q1030=
202211122250 METAR ESMX 122250Z AUTO 31003KT 9999 OVC009/// 10/09 Q1030=
202211122220 METAR ESMX 122220Z AUTO 27003KT 9999 OVC009/// 10/09 Q1030=
202211122150 METAR ESMX 122150Z 26003KT 230V300 9999 BKN009 10/10 Q1031=
202211122120 METAR ESMX 122120Z 23002KT 9999 BKN009 09/09 Q1030=
202211122050 METAR COR ESMX 122050Z VRB02KT 9999 BKN010 09/09 Q1030=
202211122020 METAR ESMX 122020Z AUTO 28002KT 9999 FEW230/// 09/09 Q1030=
202211121950 METAR ESMX 121950Z AUTO 27003KT 9999 FEW230/// 10/09 Q1030=
202211121920 METAR ESMX 121920Z AUTO 28005KT 9999 NCD 10/09 Q1029=
202211121850 METAR ESMX 121850Z AUTO 28004KT 9999 FEW012/// 10/09 Q1030=
202211121820 METAR ESMX 121820Z AUTO 27006KT 240V300 9999 FEW013/// 11/10 Q1030=
202211121750 METAR ESMX 121750Z AUTO 28006KT 9999 OVC013/// 11/10 Q1030=
202211121720 METAR ESMX 121720Z AUTO 25003KT 9999 OVC014/// 10/10 Q1030=
202211121650 METAR ESMX 121650Z AUTO 00000KT 9999 BKN016/// 11/10 Q1030=
202211121620 METAR ESMX 121620Z AUTO 27004KT 230V300 9999 NCD 11/10 Q1029=
202211121550 METAR ESMX 121550Z AUTO 26007KT 9999 BKN017/// 12/10 Q1029=
202211121520 METAR ESMX 121520Z AUTO 25006KT 9999 OVC016/// 12/10 Q1029=
202211121450 METAR ESMX 121450Z AUTO 28005KT 250V320 9999 OVC017/// 13/10 Q1029=
202211121420 METAR ESMX 121420Z AUTO 27007KT 240V320 9999 OVC018/// 13/10 Q1029=
202211121350 METAR ESMX 121350Z AUTO 26009KT 240V300 9999 OVC017/// 13/10 Q1028=
202211121320 METAR ESMX 121320Z AUTO 26009KT 220V290 9999 OVC017/// 14/11 Q1028=
202211121250 METAR ESMX 121250Z AUTO 27009KT 9999 OVC017/// 14/11 Q1028=
202211121220 METAR ESMX 121220Z AUTO 26009KT 9999 BKN016/// OVC020/// 14/11 Q1028=
202211121150 METAR ESMX 121150Z AUTO 27010KT 240V300 9999 OVC015/// 14/12 Q1028=
202211121120 METAR ESMX 121120Z AUTO 27009KT 9999 OVC015/// 14/12 Q1027=
202211121050 METAR ESMX 121050Z AUTO 26010KT 230V290 9999 OVC014/// 14/12 Q1027=
202211121020 METAR ESMX 121020Z AUTO 25010KT 220V290 9999 OVC013/// 14/12 Q1027=
202211120950 METAR ESMX 120950Z AUTO 25010KT 220V300 9999 OVC011/// 14/12 Q1027=
202211120920 METAR ESMX 120920Z AUTO 26011KT 9999 OVC010/// 14/12 Q1026=
202211120850 METAR ESMX 120850Z AUTO 26011KT 230V300 9999 OVC008/// 13/12 Q1026=
202211120820 METAR ESMX 120820Z AUTO 27011KT 240V310 9999 OVC007/// 13/12 Q1025=
202211120750 METAR ESMX 120750Z AUTO 26011KT 230V290 9999 OVC007/// 13/12 Q1025=
202211120720 METAR ESMX 120720Z AUTO 26011KT 9999 OVC007/// 13/12 Q1024=
202211120650 METAR ESMX 120650Z AUTO 26011KT 9999 OVC006/// 13/12 Q1024=
202211120620 METAR ESMX 120620Z AUTO 25010KT 9999 OVC006/// 13/12 Q1023=
202211120550 METAR ESMX 120550Z AUTO 25011KT 9999 OVC006/// 13/12 Q1023=
202211120520 METAR ESMX 120520Z AUTO 25012KT 6000 BR OVC005/// 13/12 Q1023=
202211120450 METAR ESMX 120450Z AUTO 25012KT 9000 BR OVC006/// 13/12 Q1023=
202211120420 METAR ESMX 120420Z AUTO 25011KT 8000 BR OVC007/// 13/12 Q1022=
202211120350 METAR ESMX 120350Z AUTO 25012KT 9999 OVC009/// 13/12 Q1022=
202211120320 METAR ESMX 120320Z AUTO 25012KT 9999 OVC010/// 13/12 Q1022=
202211120250 METAR ESMX 120250Z AUTO 24011KT 210V270 9999 OVC011/// 13/12 Q1022=
202211120220 METAR ESMX 120220Z AUTO 26013KT 220V290 9999 OVC012/// 13/11 Q1022=
202211120150 METAR ESMX 120150Z AUTO 26012KT 9999 OVC014/// 13/11 Q1022=
202211120120 METAR ESMX 120120Z AUTO 26013KT 9999 OVC014/// 13/11 Q1022=
202211120050 METAR ESMX 120050Z AUTO 25014KT 220V280 9999 OVC014/// 13/11 Q1021=
202211120020 METAR ESMX 120020Z AUTO 26013KT 9999 OVC014/// 13/11 Q1021=
202211112350 METAR ESMX 112350Z AUTO 24012KT 9999 OVC014/// 13/11 Q1022=
202211112320 METAR ESMX 112320Z AUTO 25013KT 9999 OVC015/// 13/11 Q1021=
202211112250 METAR ESMX 112250Z AUTO 24012KT 9999 OVC014/// 13/11 Q1021=
202211112220 METAR ESMX 112220Z AUTO 24014KT 9999 BKN014/// OVC017/// 13/11 Q1021=
202211112150 METAR ESMX 112150Z AUTO 25013KT 9999 OVC015/// 13/11 Q1021=
202211112120 METAR ESMX 112120Z AUTO 25011KT 220V280 9999 OVC015/// 13/11 Q1021=
202211112050 METAR ESMX 112050Z AUTO 25012KT 9999 OVC015/// 13/11 Q1021=
202211112020 METAR ESMX 112020Z AUTO 24011KT 220V300 9999 OVC015/// 13/11 Q1021=
202211111950 METAR ESMX 111950Z AUTO 25011G23KT 9999 OVC017/// 13/11 Q1021=
202211111920 METAR ESMX 111920Z AUTO 24011KT 9999 OVC018/// 13/11 Q1021=
202211111850 METAR ESMX 111850Z AUTO 23012KT 200V260 9999 OVC018/// 13/11 Q1020=
202211111820 METAR ESMX 111820Z AUTO 24011KT 200V280 9999 OVC017/// 13/11 Q1021=
202211111750 METAR ESMX 111750Z 25012G24KT 9999 BKN017 13/11 Q1020=
202211111720 METAR ESMX 111720Z 25012KT 9999 BKN016 13/11 Q1020=
202211111650 METAR ESMX 111650Z 25013KT 9999 BKN015 13/11 Q1020=
202211111620 METAR ESMX 111620Z 25015KT 220V280 9999 BKN014 13/11 Q1020=
202211111550 METAR ESMX 111550Z 26015KT 200V290 9999 BKN011 13/11 Q1019=
202211111520 METAR ESMX 111520Z 25014G25KT 9999 BKN009 13/12 Q1019=
202211111450 METAR ESMX 111450Z 25015G25KT 220V280 9000 -DZ SCT006 BKN008 13/12 Q1019=
202211111420 METAR ESMX 111420Z 26014KT 9000 -DZ FEW006 BKN010 13/12 Q1019=
202211111350 METAR ESMX 111350Z 26016G28KT 220V280 9999 BKN011 13/12 Q1018=
202211111320 METAR ESMX 111320Z 24016KT 9999 BKN010 13/12 Q1018=
202211111250 METAR ESMX 111250Z 25012KT 9999 BKN010 13/12 Q1018=
202211111220 METAR ESMX 111220Z 25014G24KT 9999 -DZ BKN010 13/12 Q1018=
202211111150 METAR ESMX 111150Z 24014G26KT 210V270 9999 BKN011 13/12 Q1018=
202211111120 METAR ESMX 111120Z 24012G23KT 210V280 9999 BKN013 13/11 Q1018=
202211111050 METAR ESMX 111050Z 23014KT 200V280 9999 BKN013 13/11 Q1018=
202211111020 METAR ESMX 111020Z 25015KT 9999 BKN012 13/11 Q1017=
202211110950 METAR ESMX 110950Z 25014KT 9999 BKN012 13/11 Q1017=
202211110920 METAR ESMX 110920Z 24013G27KT 9999 BKN010 13/11 Q1017=
202211110850 METAR ESMX 110850Z AUTO 24013KT 9999 OVC010/// 13/12 Q1017=
202211110820 METAR ESMX 110820Z AUTO 24013G23KT 8000 BR OVC010/// 13/12 Q1017=
202211110750 METAR ESMX 110750Z AUTO 24012KT 9999 OVC011/// 13/11 Q1016=
202211110720 METAR ESMX 110720Z 24013KT 9999 BKN010 13/12 Q1016=
202211110650 METAR ESMX 110650Z 23012KT 200V260 9999 BKN010 13/12 Q1016=
202211110620 METAR ESMX 110620Z 24012KT 9999 BKN011 13/12 Q1015=
202211110550 METAR ESMX 110550Z 22014G25KT 180V250 9999 BKN011 13/11 Q1015=
202211110520 METAR ESMX 110520Z AUTO 23012KT 9999 OVC010/// 13/11 Q1015=
202211110450 METAR ESMX 110450Z AUTO 24013KT 9999 OVC010/// 13/11 Q1015=
202211110420 METAR ESMX 110420Z AUTO 24013KT 9999 OVC010/// 12/12 Q1015=
202211110350 METAR ESMX 110350Z AUTO 22013KT 9999 OVC009/// 12/12 Q1015=
202211110320 METAR ESMX 110320Z AUTO 22013G24KT 9999 OVC009/// 12/12 Q1015=
202211110250 METAR ESMX 110250Z AUTO 22014KT 9999 OVC009/// 12/12 Q1015=
202211110220 METAR ESMX 110220Z AUTO 22015KT 9999 OVC008/// 12/12 Q1015=
202211110150 METAR ESMX 110150Z AUTO 22013KT 9999 OVC008/// 12/12 Q1015=
202211110120 METAR ESMX 110120Z AUTO 21015KT 9999 BKN007/// OVC009/// 12/12 Q1015=
202211110050 METAR ESMX 110050Z 22012KT 7000 DZ OVC006 12/12 Q1016=
202211110020 METAR ESMX 110020Z 23012KT 8000 -DZ BR OVC005 12/12 Q1016=
202211102350 METAR ESMX 102350Z 22012KT 4500 DZ BR OVC005 12/12 Q1016=
202211102320 METAR ESMX 102320Z 22010KT 8000 BR FEW002 BKN005 12/12 Q1016=
202211102250 METAR ESMX 102250Z 22011KT 9999 OVC006 11/11 Q1016=
202211102220 METAR ESMX 102220Z 22010KT 9999 -DZ OVC007 12/11 Q1016=
202211102150 METAR ESMX 102150Z 22010KT 9999 BKN008 OVC011 12/11 Q1016=
202211102120 METAR ESMX 102120Z 21011KT 9999 OVC006 11/11 Q1016=
202211102050 METAR ESMX 102050Z 20011KT 8000 BR FEW002 OVC005 11/11 Q1016=
202211102020 METAR ESMX 102020Z AUTO 20011KT 6000 BR FEW002/// OVC005/// 11/11 Q1016=
202211101950 METAR ESMX 101950Z AUTO 22011KT 9999 OVC006/// 11/11 Q1016=
202211101920 METAR ESMX 101920Z AUTO 22011KT 7000 BR OVC004/// 11/11 Q1016=
202211101850 METAR ESMX 101850Z AUTO 22010KT 9999 OVC003/// 10/10 Q1016=
202211101820 METAR ESMX 101820Z AUTO 20010KT 9999 OVC003/// 10/10 Q1016=
202211101750 METAR ESMX 101750Z 20011KT 3800 -DZ BKN002 10/10 Q1016=
202211101720 METAR ESMX 101720Z 19010KT 2500 DZ SCT002 BKN005 BKN011 10/10 Q1016=
202211101650 METAR ESMX 101650Z 20010KT 9999 FEW012 SCT028 BKN041 10/09 Q1016=
202211101620 METAR ESMX 101620Z 19009KT 9999 SCT012 BKN017 BKN055 10/09 Q1016=
202211101550 METAR ESMX 101550Z 21008KT 9999 BKN014 BKN019 10/09 Q1016=
202211101520 METAR ESMX 101520Z 19008KT 9999 SCT016 BKN025 BKN031 10/09 Q1015=
202211101450 METAR ESMX 101450Z 21007KT 9999 SCT025 10/09 Q1016=
202211101420 METAR ESMX 101420Z 22008KT 9999 FEW018 10/09 Q1016=
202211101350 METAR ESMX 101350Z 24009KT 9999 SCT021 11/08 Q1015=
202211101320 METAR ESMX 101320Z 23010KT 9999 SCT019 11/09 Q1015=
202211101250 METAR ESMX 101250Z 24009KT 9999 BKN018 11/09 Q1014=
202211101220 METAR ESMX 101220Z 22009KT 9999 BKN016 11/09 Q1014=
202211101150 METAR ESMX 101150Z 24008KT 220V280 9999 BKN014 11/09 Q1014=
202211101120 METAR ESMX 101120Z 23010KT 9999 BKN014 11/09 Q1014=
202211101050 METAR ESMX 101050Z 25009KT 9999 SCT013 BKN019 BKN029 10/09 Q1014=
202211101020 METAR ESMX 101020Z 25009KT 9999 BKN011 11/09 Q1013=
202211100950 METAR ESMX 100950Z 25009KT 210V290 9999 BKN010 10/09 Q1013=
202211100920 METAR ESMX 100920Z 23008KT 9999 BKN010 10/09 Q1013=
202211100850 METAR ESMX 100850Z 23007KT 9999 FEW007 BKN009 10/09 Q1012=
202211100820 METAR ESMX 100820Z 25008KT 9999 FEW007 BKN011 10/09 Q1012=
202211100750 METAR ESMX 100750Z 25006KT 9999 FEW008 SCT010 BKN013 09/09 Q1011=
202211100720 METAR ESMX 100720Z 25005KT 9999 SCT008 09/09 Q1011=
202211100650 METAR ESMX 100650Z 25007KT 9999 BKN006 09/09 Q1010=
202211100620 METAR ESMX 100620Z 25005KT 9999 FEW005 BKN008 09/09 Q1010=
202211100550 METAR ESMX 100550Z 26006KT 9999 FEW007 BKN011 09/09 Q1009=
202211100520 METAR ESMX 100520Z 26007KT 9999 BKN005 09/09 Q1008=
202211100450 METAR ESMX 100450Z 24007KT 4000 DZ BKN005 09/09 Q1008=
202211100420 METAR ESMX 100420Z AUTO 24008KT 9999 -DZ OVC006/// 09/09 Q1007 RERA=
202211100350 METAR ESMX 100350Z AUTO 22009KT 9999 BKN005/// OVC009/// 09/09 Q1007 REDZ=
202211100320 METAR ESMX 100320Z AUTO 22008KT 9999 OVC005/// 09/09 Q1007=
202211100250 METAR ESMX 100250Z AUTO 20006KT 9999 BKN006/// OVC011/// 09/09 Q1006=
202211100220 METAR ESMX 100220Z AUTO 20007KT 7000 +DZ FEW006/// BKN010/// OVC018/// 10/09 Q1006 REDZ=
202211100150 METAR ESMX 100150Z AUTO 19007KT 9999 FEW005/// BKN009/// BKN014/// 10/09 Q1006 REDZ=
202211100120 METAR ESMX 100120Z AUTO 20006KT 9999 FEW008/// SCT010/// BKN012/// 10/09 Q1006=
202211100050 METAR ESMX 100050Z 19006KT 9999 FEW016 SCT027 BKN034 09/09 Q1006=
202211100020 METAR ESMX 100020Z 19007KT 9999 FEW008 SCT018 BKN041 09/09 Q1006=
202211092350 METAR ESMX 092350Z AUTO 19008KT 9999 FEW021/// SCT041/// OVC061/// 10/09 Q1006=
202211092320 METAR ESMX 092320Z 20008KT 9999 BKN013 OVC064 10/10 Q1006=
202211092250 METAR ESMX 092250Z 20007KT 9999 FEW014 OVC057 10/10 Q1006=
202211092220 METAR ESMX 092220Z 21007KT 9999 SCT024 OVC061 10/10 Q1006=
202211092150 METAR ESMX 092150Z 19007KT CAVOK 10/10 Q1006=
202211092120 METAR ESMX 092120Z 20008KT 9999 FEW016 OVC062 10/10 Q1006=
202211092050 METAR ESMX 092050Z 20008KT 9999 FEW012 BKN061 10/10 Q1006=
202211092020 METAR ESMX 092020Z 20007KT 9999 SCT013 OVC059 10/10 Q1006=
202211091950 METAR ESMX 091950Z 19007KT 9999 FEW014 BKN059 10/10 Q1006=
202211091920 METAR ESMX 091920Z 20006KT 9999 FEW014 BKN059 09/09 Q1005=
202211091850 METAR ESMX 091850Z 18007KT 9999 FEW015 BKN061 10/09 Q1005=
202211091820 METAR ESMX 091820Z 20008KT 9999 FEW023 BKN051 10/09 Q1005=
202211091750 METAR ESMX 091750Z 20008KT 9999 -RA FEW019 BKN044 10/10 Q1005=
202211091720 METAR ESMX 091720Z 19007KT 9999 FEW031 BKN059 10/10 Q1005=
202211091650 METAR ESMX 091650Z 18007KT 9999 FEW036 SCT059 10/10 Q1005=
202211091620 METAR ESMX 091620Z 17006KT 9999 -DZ SCT021 BKN037 11/10 Q1005=
202211091550 METAR ESMX 091550Z 19006KT 9999 FEW026 BKN059 10/09 Q1004=
202211091520 METAR ESMX 091520Z 19010KT 9999 FEW020 BKN037 11/10 Q1004=
202211091450 METAR ESMX 091450Z 21009KT 9999 SCT023 11/09 Q1004=
202211091420 METAR ESMX 091420Z 19009KT 9999 SCT021 12/10 Q1004=
202211091350 METAR ESMX 091350Z 20008KT 9999 BKN020 12/10 Q1004=
202211091320 METAR ESMX 091320Z 19010KT 9999 BKN020 12/10 Q1004=
202211091250 METAR ESMX 091250Z 20010KT 9999 BKN023 13/11 Q1004=
202211091220 METAR ESMX 091220Z 22011KT 9999 BKN016 12/10 Q1004=
202211091150 METAR ESMX 091150Z 22011KT 9999 BKN014 12/11 Q1004=
202211091120 METAR ESMX 091120Z AUTO 21008KT 9999 SCT013/// OVC048/// 12/11 Q1004=
202211091050 METAR ESMX 091050Z AUTO 19011KT 9999 OVC013/// 12/11 Q1004 REDZ=
202211091020 METAR ESMX 091020Z AUTO 21009KT 9999 FEW017/// SCT032/// BKN040/// 12/10 Q1004 REDZ=
202211090950 METAR ESMX 090950Z 18009KT 9999 SCT049 12/10 Q1004=
202211090920 METAR ESMX 090920Z 20009KT 9999 FEW037 SCT048 11/10 Q1004=
202211090850 METAR ESMX 090850Z 18009KT CAVOK 10/09 Q1004=
202211090820 METAR ESMX 090820Z 20008KT CAVOK 09/09 Q1004=
202211090750 METAR ESMX 090750Z 20007KT CAVOK 09/09 Q1004=
202211090720 METAR COR ESMX 090720Z 19007KT CAVOK 09/08 Q1004=
202211090650 METAR ESMX 090650Z 19007KT 9999 FEW029 09/08 Q1003=
202211090620 METAR ESMX 090620Z 19008KT 9999 SCT028 09/09 Q1003=
202211090550 METAR ESMX 090550Z 19007KT 9999 FEW037 09/08 Q1003=
202211090520 METAR ESMX 090520Z 18007KT 9999 SCT035 09/09 Q1003=
202211090450 METAR ESMX 090450Z 18007KT 9999 BKN029 09/09 Q1003=
202211090420 METAR ESMX 090420Z AUTO 18007KT 9999 OVC030/// 09/09 Q1003=
202211090350 METAR ESMX 090350Z AUTO 16007KT 9999 SCT033/// 09/09 Q1003=
202211090320 METAR ESMX 090320Z AUTO 17007KT 9999 NCD 09/09 Q1003=
202211090250 METAR ESMX 090250Z AUTO 17006KT 9999 NCD 09/09 Q1003=
202211090220 METAR ESMX 090220Z AUTO 18006KT 9999 NCD 09/09 Q1003=
202211090150 METAR ESMX 090150Z AUTO 18006KT 9999 NCD 10/09 Q1003=
202211090120 METAR ESMX 090120Z AUTO 18006KT 9999 NCD 10/09 Q1004=
202211090050 METAR ESMX 090050Z 19007KT 9999 SCT034 BKN053 10/09 Q1004=
202211090020 METAR ESMX 090020Z 19007KT CAVOK 09/09 Q1004=
202211082350 METAR ESMX 082350Z 19006KT CAVOK 10/09 Q1004=
202211082320 METAR ESMX 082320Z 18007KT CAVOK 10/09 Q1004=
202211082250 METAR ESMX 082250Z 19008KT CAVOK 10/09 Q1004=
202211082220 METAR ESMX 082220Z 18007KT CAVOK 10/10 Q1004=
202211082150 METAR ESMX 082150Z 18007KT CAVOK 10/10 Q1004=
202211082120 METAR ESMX 082120Z 18008KT CAVOK 10/10 Q1004=
202211082050 METAR ESMX 082050Z 16007KT CAVOK 10/10 Q1004=
202211082020 METAR ESMX 082020Z AUTO 17008KT 9999 -RA BKN066/// OVC076/// 10/10 Q1005=
202211081950 METAR ESMX 081950Z AUTO 17008KT 9999 FEW009/// OVC074/// 10/10 Q1005=
202211081920 METAR ESMX 081920Z AUTO 18008KT 9999 BKN080/// OVC098/// 10/10 Q1005=
202211081850 METAR ESMX 081850Z AUTO 16009KT 9999 BKN006/// OVC084/// 10/10 Q1005=
202211081820 METAR ESMX 081820Z 17007KT 9999 BKN007 10/10 Q1005=
202211081750 METAR ESMX 081750Z 17009KT 9999 BKN007 10/10 Q1005=
202211081720 METAR ESMX 081720Z 18010KT 9999 OVC006 11/10 Q1005=
202211081650 METAR ESMX 081650Z 17008KT 9999 BKN006 11/11 Q1005=
202211081620 METAR ESMX 081620Z 18007KT 9999 BKN006 11/11 Q1005=
202211081550 METAR ESMX 081550Z 18007KT 9999 BKN007 11/11 Q1005=
202211081520 METAR ESMX 081520Z 19008KT 9999 BKN008 OVC011 11/11 Q1005=
202211081450 METAR ESMX 081450Z 19008KT 9999 BKN007 12/11 Q1006=
202211081420 METAR ESMX 081420Z 18007KT 9999 BKN007 12/12 Q1006=
202211081350 METAR ESMX 081350Z 18008KT 9999 BKN006 12/12 Q1006=
202211081320 METAR ESMX 081320Z 19009KT 9999 BKN006 12/12 Q1006=
202211081250 METAR ESMX 081250Z 19008KT 9999 BKN005 12/12 Q1006=
202211081220 METAR COR ESMX 081220Z 20009KT 9000 BKN003 12/12 Q1006=
202211081150 METAR ESMX 081150Z 22010KT 7000 OVC003 12/12 Q1006=
202211081120 METAR ESMX 081120Z 20010KT 6000 OVC003 12/12 Q1006=
202211081050 METAR ESMX 081050Z AUTO 19010KT 9999 OVC004/// 12/12 Q1006 REDZ=
202211081020 METAR ESMX 081020Z AUTO 19009KT 7000 BR BKN004/// OVC010/// 12/12 Q1006 REDZ=
202211080950 METAR ESMX 080950Z 19008KT 3000 -DZ OVC004 12/12 Q1007=
202211080920 METAR ESMX 080920Z 21008KT 9999 BKN004 11/11 Q1006=
202211080850 METAR ESMX 080850Z 18007KT 9999 -RA OVC003 11/11 Q1006=
202211080820 METAR ESMX 080820Z 18006KT 4000 -RA OVC002 11/11 Q1006=
202211080750 METAR ESMX 080750Z 20006KT 4000 -DZ OVC002 11/11 Q1006=
202211080720 METAR ESMX 080720Z 20008KT 6000 OVC003 11/11 Q1006=
202211080650 METAR ESMX 080650Z 19007KT 5000 -DZ OVC003 11/11 Q1006=
202211080620 METAR ESMX 080620Z 21007KT 9999 BKN005 11/11 Q1006=
202211080550 METAR ESMX 080550Z 21007KT 9999 BKN004 11/11 Q1006=
202211080520 METAR ESMX 080520Z 21008KT 9999 BKN004 11/11 Q1006=
202211080450 METAR ESMX 080450Z 19008KT 8000 -DZ BKN004 11/11 Q1006=
202211080420 METAR ESMX 080420Z AUTO 19008KT 9999 OVC004/// 10/10 Q1006=
202211080350 METAR ESMX 080350Z AUTO 21008KT 9999 OVC005/// 10/10 Q1006=
202211080320 METAR ESMX 080320Z AUTO 22007KT 9999 OVC005/// 10/10 Q1006=
202211080250 METAR ESMX 080250Z AUTO 22008KT 9999 OVC005/// 10/10 Q1006=
202211080220 METAR ESMX 080220Z AUTO 21007KT 6000 BR OVC005/// 10/10 Q1006=
202211080150 METAR ESMX 080150Z AUTO 21008KT 9999 OVC005/// 10/10 Q1006=
202211080120 METAR ESMX 080120Z AUTO 22008KT 8000 BR OVC005/// 10/10 Q1006=
202211080050 METAR ESMX 080050Z 21008KT 9999 OVC006 10/09 Q1006=
202211080020 METAR ESMX 080020Z 21008KT 9999 FEW009 SCT011 BKN016 10/09 Q1005=
202211072350 METAR ESMX 072350Z 21008KT 9999 BKN013 09/09 Q1005=
202211072320 METAR ESMX 072320Z 21008KT 9999 BKN012 09/09 Q1005=
202211072250 METAR ESMX 072250Z 21009KT 9999 FEW018 OVC047 09/09 Q1005=
202211072220 METAR ESMX 072220Z 22010KT 9999 SCT014 OVC047 09/09 Q1005=
202211072150 METAR ESMX 072150Z 21009KT 9999 BKN014 OVC047 10/09 Q1005=
202211072120 METAR ESMX 072120Z 21009KT 9999 FEW009 BKN014 OVC048 10/09 Q1005=
202211072050 METAR ESMX 072050Z 21011KT 9999 SCT013 BKN029 OVC042 10/09 Q1005=
202211072020 METAR ESMX 072020Z 21010KT 9999 -RA BKN008 09/09 Q1004=
202211071950 METAR ESMX 071950Z 22009KT 9999 OVC008 09/09 Q1004=
202211071920 METAR ESMX 071920Z 22010KT 9999 BKN009 09/09 Q1004=
202211071850 METAR ESMX 071850Z 22012KT 9999 BKN010 10/09 Q1004=
202211071820 METAR ESMX 071820Z 22011KT 9999 BKN010 10/09 Q1003=
202211071750 METAR ESMX 071750Z 21011KT 9999 BKN010 10/09 Q1003=
202211071720 METAR ESMX 071720Z 22011KT 9999 BKN010 09/09 Q1003=
202211071650 METAR ESMX 071650Z 21011KT 9999 FEW007 BKN010 10/09 Q1003=
202211071620 METAR ESMX 071620Z 21011KT 9999 BKN010 10/09 Q1003=
202211071550 METAR ESMX 071550Z 22012KT 9999 BKN013 10/09 Q1003=
202211071520 METAR ESMX 071520Z 20012KT 9999 BKN011 10/09 Q1003=
202211071450 METAR ESMX 071450Z 20012KT 9999 BKN010 10/09 Q1003=
202211071420 METAR ESMX 071420Z 19012KT 9999 SCT010 BKN012 10/09 Q1002=
202211071350 METAR ESMX 071350Z 20012KT 9999 FEW010 BKN016 10/09 Q1002=
202211071320 METAR ESMX 071320Z 20013KT 9000 -RA SCT008 BKN010 10/10 Q1002=
202211071250 METAR ESMX 071250Z 19011KT 9999 -RA SCT009 BKN011 10/09 Q1002=
202211071220 METAR ESMX 071220Z 19012KT 9999 -DZ BKN008 10/09 Q1002=
202211071150 METAR ESMX 071150Z 19012KT 9999 BKN010 10/10 Q1003=
202211071120 METAR ESMX 071120Z 19014KT 8000 -RA BKN012 10/09 Q1003=
202211071050 METAR ESMX 071050Z 19014KT 9000 -DZ FEW007 BKN011 10/09 Q1003=
202211071020 METAR ESMX 071020Z 18010KT 9999 BKN009 09/09 Q1003=
202211070950 METAR ESMX 070950Z 18011KT 9999 BKN009 09/08 Q1003 RERA=
202211070920 METAR ESMX 070920Z 17009KT 9999 -DZ BKN010 09/08 Q1003=
202211070850 METAR ESMX 070850Z 18010KT 9999 BKN009 09/08 Q1003=
202211070820 METAR ESMX 070820Z 18012KT 9999 OVC008 08/08 Q1003=
202211070750 METAR ESMX 070750Z 17010KT 9999 FEW005 BKN009 08/07 Q1003=
202211070720 METAR ESMX 070720Z 17010KT 9999 FEW006 BKN009 BKN013 08/07 Q1003=
202211070650 METAR ESMX 070650Z 18011KT 9999 BKN013 08/07 Q1003=
202211070620 METAR ESMX 070620Z AUTO 18011KT 9999 BKN014/// OVC019/// 08/07 Q1003=
202211070550 METAR ESMX 070550Z 17010KT 120V190 9999 BKN014 08/07 Q1003=
202211070520 METAR ESMX 070520Z AUTO 17009KT 9999 SCT017/// BKN022/// OVC049/// 08/07 Q1003=
202211070450 METAR ESMX 070450Z 16007KT 120V190 9999 SCT014 BKN053 08/07 Q1003 REDZ=
202211070420 METAR ESMX 070420Z AUTO 17008KT 9999 FEW062/// BKN080/// OVC100/// 08/07 Q1003=
202211070350 METAR ESMX 070350Z AUTO 17009KT 9999 FEW015/// SCT068/// BKN088/// 08/07 Q1004=
202211070320 METAR ESMX 070320Z AUTO 17010KT 140V200 9999 BKN013/// OVC018/// 08/07 Q1004=
202211070250 METAR ESMX 070250Z AUTO 16009KT 9999 BKN012/// 08/07 Q1004=
202211070220 METAR ESMX 070220Z AUTO 17009KT 9999 BKN010/// 08/07 Q1005=
202211070150 METAR ESMX 070150Z AUTO 17009KT 9999 BKN010/// OVC012/// 08/08 Q1005=
202211070120 METAR ESMX 070120Z AUTO 17009KT 120V190 9999 OVC007/// 08/08 Q1006=
202211070050 METAR ESMX 070050Z AUTO 17008KT 9999 BKN007/// OVC009/// 08/08 Q1006=
202211070020 METAR ESMX 070020Z AUTO 15008KT 110V170 9999 OVC007/// 09/08 Q1006=
202211062350 METAR ESMX 062350Z AUTO 17007KT 9999 BKN007/// BKN009/// 09/09 Q1006=
202211062320 METAR ESMX 062320Z AUTO 16007KT 9999 SCT007/// BKN009/// BKN012/// 09/09 Q1007 RERA REDZ=
202211062250 METAR ESMX 062250Z AUTO 16008KT 9999 OVC006/// 09/09 Q1007 REDZ=
202211062220 METAR ESMX 062220Z AUTO 18008KT 9999 SCT002/// OVC005/// 09/09 Q1007=
202211062150 METAR ESMX 062150Z AUTO 18010KT 3100 BR OVC002/// 09/09 Q1007 REDZ=
202211062120 METAR ESMX 062120Z AUTO 19009KT 2100 -RA OVC002/// 09/09 Q1008=
202211062050 METAR ESMX 062050Z AUTO 17009KT 120V190 5000 BR OVC002/// 09/09 Q1008 REDZ=
202211062020 METAR ESMX 062020Z AUTO 17009KT 6000 BR OVC003/// 09/09 Q1008 REDZ=
202211061950 METAR ESMX 061950Z 17008KT 4800 BR OVC002 09/09 Q1008=
202211061920 METAR ESMX 061920Z 19008KT 7000 BR OVC003 09/09 Q1008=
202211061850 METAR ESMX 061850Z 17007KT 120V200 5000 BR OVC002 09/09 Q1008=
202211061820 METAR ESMX 061820Z 18007KT 7000 BR OVC004 09/09 Q1008=
202211061750 METAR ESMX 061750Z 18007KT 8000 BR OVC004 09/09 Q1008=
202211061720 METAR ESMX 061720Z AUTO 19008KT 160V220 9999 OVC006/// 09/09 Q1008=
202211061650 METAR ESMX 061650Z 18009KT 9999 OVC004 09/09 Q1008=
202211061620 METAR ESMX 061620Z 19011KT 7000 BR OVC003 09/09 Q1008=
202211061550 METAR ESMX 061550Z 21009KT 7000 BR OVC003 09/09 Q1008=
202211061520 METAR ESMX 061520Z 20010KT 9000 BR OVC003 09/09 Q1009=
202211061450 METAR ESMX 061450Z 19011KT 8000 BR OVC003 09/09 Q1009=
202211061420 METAR ESMX 061420Z 20010KT 7000 BR OVC003 09/09 Q1008=
202211061350 METAR ESMX 061350Z 19010KT 6000 BR BKN002 09/09 Q1008 REDZ=
202211061320 METAR ESMX 061320Z 19012KT 4600 BR BKN002 09/09 Q1008=
202211061250 METAR ESMX 061250Z 21012KT 5000 BR BKN003 09/09 Q1008=
202211061220 METAR ESMX 061220Z 19012KT 6000 DZ BKN003 09/09 Q1008 RESHRA=
202211061150 METAR ESMX 061150Z 19015KT 8000 BR BKN004 09/09 Q1008 REDZ=
202211061120 METAR ESMX 061120Z AUTO 20013KT 9999 OVC005/// 09/09 Q1008 REUP=
202211061050 METAR ESMX 061050Z 18013KT 9999 BKN006 09/08 Q1008=
202211061020 METAR ESMX 061020Z AUTO 19012KT 9999 OVC007/// 09/08 Q1008=
202211060950 METAR ESMX 060950Z 18012KT 9999 -RA BKN007 09/08 Q1009 RERA=
202211060920 METAR ESMX 060920Z AUTO 18011KT 9999 BKN007/// OVC009/// 08/08 Q1009=
202211060850 METAR ESMX 060850Z 18009KT 9000 -RA BKN007 08/08 Q1009=
202211060820 METAR ESMX 060820Z AUTO 17010KT 9999 -DZ OVC009/// 08/07 Q1009 RERA=
202211060750 METAR ESMX 060750Z 17009KT 9999 BKN009 08/07 Q1009 RERA=
202211060720 METAR ESMX 060720Z 18011KT 9999 -DZ BKN010 08/07 Q1009=
202211060650 METAR ESMX 060650Z AUTO 17011KT 9999 OVC010/// 08/07 Q1009=
202211060620 METAR ESMX 060620Z AUTO 18012KT 9999 BKN010/// OVC086/// 08/07 Q1010=
202211060550 METAR ESMX 060550Z AUTO 17009KT 9999 FEW010/// 08/07 Q1009=
202211060520 METAR ESMX 060520Z AUTO 18008KT 9999 BKN009/// 08/07 Q1010=
202211060450 METAR ESMX 060450Z AUTO 19012KT 9999 BKN009/// OVC014/// 08/07 Q1010=
202211060420 METAR ESMX 060420Z AUTO 19010KT 9999 SCT009/// BKN012/// OVC018/// 08/07 Q1010=
202211060350 METAR ESMX 060350Z AUTO 19010KT 9999 OVC009/// 08/08 Q1010=
202211060320 METAR ESMX 060320Z AUTO 21011KT 9999 BKN009/// BKN012/// OVC020/// 08/08 Q1010=
202211060250 METAR ESMX 060250Z AUTO 19010KT 9999 OVC010/// 08/08 Q1010=
202211060220 METAR ESMX 060220Z AUTO 19010KT 9999 OVC009/// 08/08 Q1011=
202211060150 METAR ESMX 060150Z AUTO 19009KT 9999 BKN008/// OVC011/// 08/08 Q1011=
202211060120 METAR ESMX 060120Z AUTO 20009KT 9999 OVC007/// 08/07 Q1011=
202211060050 METAR ESMX 060050Z AUTO 19009KT 9999 OVC007/// 08/07 Q1011=
202211060020 METAR ESMX 060020Z AUTO 20008KT 9999 OVC007/// 08/07 Q1011=
202211052350 METAR ESMX 052350Z AUTO 20009KT 9999 OVC006/// 08/07 Q1011=
202211052320 METAR ESMX 052320Z AUTO 20009KT 9999 OVC006/// 08/07 Q1011=
202211052250 METAR ESMX 052250Z AUTO 20010KT 9999 OVC005/// 07/07 Q1011=
202211052220 METAR ESMX 052220Z AUTO 20009KT 9999 OVC004/// 07/07 Q1011=
202211052150 METAR ESMX 052150Z 22010KT 9999 BKN004 07/07 Q1011=
202211052120 METAR COR ESMX 052120Z 22010KT 9999 BKN004 07/07 Q1011=
202211052050 METAR ESMX 052050Z AUTO 19008KT 9999 FEW009/// SCT047/// 06/06 Q1011=
202211052020 METAR ESMX 052020Z 20007KT CAVOK 06/06 Q1011=
202211051950 METAR ESMX 051950Z 21007KT CAVOK 07/07 Q1011=
202211051920 METAR ESMX 051920Z 19008KT 9999 BKN009 08/07 Q1011=
202211051850 METAR ESMX 051850Z 19008KT 9999 BKN009 08/08 Q1011=
202211051820 METAR ESMX 051820Z 20008KT 9000 BKN008 08/08 Q1011=
202211051750 METAR COR ESMX 051750Z 20007KT 9999 FEW009 BKN014 08/08 Q1011=
202211051720 METAR ESMX 051720Z AUTO 21009KT 9999 BKN013/// BKN023/// 08/07 Q1010=
202211051650 METAR ESMX 051650Z AUTO 20007KT 9999 OVC015/// 08/08 Q1010=
202211051620 METAR ESMX 051620Z AUTO 19008KT 9999 OVC016/// 08/08 Q1010=
202211051550 METAR ESMX 051550Z AUTO 20006KT 9999 FEW019/// SCT027/// 08/08 Q1010=
202211051520 METAR ESMX 051520Z AUTO 22007KT 9999 BKN018/// BKN045/// 09/08 Q1010=
202211051450 METAR ESMX 051450Z AUTO 22006KT 9999 FEW021/// BKN029/// 09/08 Q1009=
202211051420 METAR ESMX 051420Z AUTO 22007KT 9999 FEW041/// 09/08 Q1009=
202211051350 METAR ESMX 051350Z AUTO 21009KT 9999 FEW015/// 10/08 Q1009=
202211051320 METAR ESMX 051320Z AUTO 23008KT 200V260 9999 BKN016/// BKN022/// OVC039/// 10/08 Q1009=
202211051250 METAR ESMX 051250Z AUTO 22006KT 9999 BKN013/// 10/08 Q1009=
202211051220 METAR ESMX 051220Z AUTO 24009KT 9999 OVC010/// 09/08 Q1009=
202211051150 METAR ESMX 051150Z AUTO 24009KT 9999 SCT008/// OVC011/// 09/08 Q1009=
202211051120 METAR ESMX 051120Z AUTO 23007KT 9999 OVC008/// 09/08 Q1009=
202211051050 METAR ESMX 051050Z AUTO 21007KT 9999 OVC008/// 09/08 Q1008=
202211051020 METAR ESMX 051020Z AUTO 23007KT 9999 SCT006/// OVC024/// 09/08 Q1008=
202211050950 METAR ESMX 050950Z AUTO 21006KT 9999 FEW004/// OVC023/// 08/08 Q1008=
202211050920 METAR ESMX 050920Z AUTO 23005KT 9999 FEW002/// BKN004/// 08/08 Q1008=
202211050850 METAR ESMX 050850Z AUTO 16004KT 9999 FEW140/// 07/07 Q1008=
202211050820 METAR ESMX 050820Z AUTO 16004KT 9999 FEW130/// 07/07 Q1008=
202211050750 METAR ESMX 050750Z AUTO 19004KT 9999 SCT130/// 06/06 Q1008=
202211050720 METAR ESMX 050720Z AUTO 16003KT 9999 SCT130/// 06/06 Q1008=
202211050650 METAR ESMX 050650Z AUTO 16003KT 9999 FEW009/// 06/06 Q1008=
202211050620 METAR ESMX 050620Z AUTO 16003KT 9999 SCT014/// 06/06 Q1008=
202211050550 METAR ESMX 050550Z AUTO 16003KT 9999 SCT110/// 06/06 Q1008=
202211050520 METAR ESMX 050520Z AUTO 16003KT 9999 BKN098/// 06/06 Q1008=
202211050450 METAR ESMX 050450Z AUTO 16003KT 3000 OVC088/// 07/07 Q1007=
202211050420 METAR ESMX 050420Z AUTO 20002KT 0450 R01/P2000N R19/1700D BCFG FEW053/// OVC072/// 07/07 Q1007 RERA=
202211050350 METAR ESMX 050350Z AUTO 16001KT 0350 R01/P2000N R19/0750N SCT051/// 07/07 Q1008=
202211050320 METAR ESMX 050320Z AUTO 00000KT 0450 R01/P2000N R19/1200U -DZ FEW029/// 07/07 Q1007=
202211050250 METAR ESMX 050250Z AUTO 16001KT 1100 R01/P2000N R19/1500U -DZ BKN057/// 08/08 Q1008=
202211050220 METAR ESMX 050220Z AUTO 00000KT 0600 R01/P2000N R19/P2000N -DZ NCD 08/08 Q1008=
202211050150 METAR ESMX 050150Z AUTO 00000KT 4900 -RA ///030 08/08 Q1008=
202211050120 METAR ESMX 050120Z AUTO 21002KT 4800 -RA SCT041/// OVC051/// 09/09 Q1008=
202211050050 METAR ESMX 050050Z AUTO 16003KT 6000 -RA ///040 09/09 Q1008 REDZ=
202211050020 METAR ESMX 050020Z AUTO 16003KT 4800 -RA FEW007/// OVC016/// 09/09 Q1007 REDZ=
202211042350 METAR ESMX 042350Z AUTO 18003KT 5000 BR BKN007/// BKN057/// 09/09 Q1007=
202211042320 METAR ESMX 042320Z AUTO 18004KT 5000 BR BKN006/// OVC009/// 09/09 Q1007=
202211042250 METAR ESMX 042250Z AUTO 16004KT 4200 BR SCT002/// OVC004/// 09/09 Q1007=
202211042220 METAR ESMX 042220Z AUTO 15004KT 2100 BR OVC002/// 09/09 Q1007=
202211042150 METAR ESMX 042150Z AUTO 15005KT 1500 BR OVC001/// 09/09 Q1007=
202211042120 METAR ESMX 042120Z AUTO 15005KT 1300 R01/P2000N R19/P2000N BR OVC001/// 09/09 Q1007 REDZ=
202211042050 METAR ESMX 042050Z AUTO 15004KT 1800 BR OVC002/// 09/09 Q1007=
202211042020 METAR ESMX 042020Z AUTO 14005KT 110V180 1800 BR OVC002/// 09/09 Q1007=
202211041950 METAR ESMX 041950Z AUTO 14004KT 110V180 2100 -DZ OVC002/// 09/09 Q1007=
202211041920 METAR ESMX 041920Z AUTO 15004KT 110V180 3700 -DZ OVC003/// 09/09 Q1007=
202211041850 METAR ESMX 041850Z AUTO 15005KT 110V190 5000 BR OVC004/// 09/09 Q1007=
202211041820 METAR ESMX 041820Z AUTO 14005KT 7000 BR OVC006/// 10/09 Q1006=
202211041750 METAR ESMX 041750Z 15006KT 9999 OVC007 10/09 Q1006=
202211041720 METAR ESMX 041720Z 13006KT 9999 OVC007 10/09 Q1006=
202211041650 METAR ESMX 041650Z 16006KT 9999 OVC009 10/09 Q1006=
202211041620 METAR ESMX 041620Z 14006KT 080V190 9999 OVC010 10/09 Q1006=
202211041550 METAR ESMX 041550Z AUTO 13006KT 100V160 9999 OVC010/// 10/09 Q1006=
202211041520 METAR ESMX 041520Z 11006KT 060V150 9999 OVC010 10/09 Q1006=
202211041450 METAR ESMX 041450Z 13006KT 9999 OVC010 10/09 Q1006=
202211041420 METAR ESMX 041420Z 14007KT 9999 OVC011 10/09 Q1006=
202211041350 METAR ESMX 041350Z 11007KT 050V150 9999 OVC010 10/09 Q1005=
202211041320 METAR ESMX 041320Z 12006KT 070V180 9999 OVC011 10/09 Q1005=
202211041250 METAR ESMX 041250Z 13006KT 050V160 9999 OVC010 10/09 Q1005=
202211041220 METAR ESMX 041220Z 12006KT 080V150 9999 OVC011 10/09 Q1005=
202211041150 METAR COR ESMX 041150Z 12007KT 050V170 9999 OVC011 10/09 Q1006=
202211041120 METAR ESMX 041120Z 12006KT 080V160 9999 OVC012 11/09 Q1006=
202211041050 METAR ESMX 041050Z 13007KT 080V180 9999 OVC013 11/08 Q1006=
202211041020 METAR ESMX 041020Z 12007KT 070V170 9999 OVC013 11/09 Q1006=
202211040950 METAR ESMX 040950Z 12007KT 080V150 9999 OVC013 10/08 Q1005=
202211040920 METAR ESMX 040920Z 12008KT 070V150 9999 OVC013 10/08 Q1006=
202211040850 METAR COR ESMX 040850Z 12008KT 060V150 9999 OVC014 10/08 Q1006=
202211040820 METAR ESMX 040820Z AUTO VRB08KT 9999 OVC012/// 10/08 Q1006=
202211040750 METAR ESMX 040750Z AUTO 11008KT 010V160 9999 OVC012/// 10/08 Q1006=
202211040720 METAR ESMX 040720Z AUTO 11009KT 070V150 9999 OVC011/// 10/08 Q1006=
202211040650 METAR ESMX 040650Z 12006KT 060V180 9999 OVC010 09/08 Q1006=
202211040620 METAR COR ESMX 040620Z 11007KT 070V160 9999 OVC010 09/08 Q1006=
202211040550 METAR COR ESMX 040550Z 12007KT 080V160 9999 OVC010 09/07 Q1006=
202211040520 METAR ESMX 040520Z AUTO 12006KT 060V150 9999 OVC010/// 08/07 Q1006=
202211040450 METAR ESMX 040450Z AUTO 11006KT 050V130 9999 SCT011/// 08/07 Q1006=
202211040420 METAR ESMX 040420Z AUTO 11006KT 040V150 9999 FEW011/// 08/07 Q1006=
202211040350 METAR ESMX 040350Z AUTO 12006KT 080V150 9999 NCD 08/07 Q1006=
202211040320 METAR ESMX 040320Z AUTO 11006KT 070V150 9999 NCD 08/07 Q1007=
202211040250 METAR ESMX 040250Z AUTO 12006KT 070V150 9999 SCT220/// 08/07 Q1007=
202211040220 METAR ESMX 040220Z AUTO 12006KT 070V160 9999 SCT140/// 08/07 Q1007=
202211040150 METAR ESMX 040150Z AUTO 12006KT 9999 OVC140/// 08/07 Q1007=
202211040120 METAR ESMX 040120Z AUTO 12006KT 060V160 9999 BKN140/// 08/07 Q1008=
202211040050 METAR ESMX 040050Z AUTO 14007KT 110V180 9999 BKN140/// 08/07 Q1008=
202211040020 METAR ESMX 040020Z 11006KT 070V140 CAVOK 08/07 Q1008=
202211032350 METAR ESMX 032350Z 12006KT 070V170 9999 FEW019 08/07 Q1009=
202211032320 METAR ESMX 032320Z 12005KT 9999 SCT019 08/08 Q1009=
202211032250 METAR ESMX 032250Z 12005KT 060V190 9999 FEW017 08/08 Q1009=
202211032220 METAR ESMX 032220Z 14004KT CAVOK 08/07 Q1009=
202211032150 METAR ESMX 032150Z 14005KT CAVOK 08/07 Q1009=
202211032120 METAR COR ESMX 032120Z 13005KT 080V170 FEW007 08/08 Q1009=
202211032050 METAR ESMX 032050Z 14005KT 080V160 CAVOK 08/08 Q1010=
202211032020 METAR ESMX 032020Z AUTO 14006KT 120V180 9999 NCD 08/08 Q1010=
202211031950 METAR ESMX 031950Z AUTO 14005KT 110V180 9999 NCD 08/08 Q1010=
202211031920 METAR ESMX 031920Z AUTO 15006KT 9999 NCD 08/08 Q1010=
202211031850 METAR ESMX 031850Z AUTO 16006KT 9999 SCT007/// 09/08 Q1010=
202211031820 METAR ESMX 031820Z AUTO 14006KT 110V190 9999 FEW007/// 08/08 Q1011=
202211031750 METAR ESMX 031750Z 14007KT CAVOK 09/08 Q1011=
202211031720 METAR ESMX 031720Z 15006KT CAVOK 09/08 Q1011=
202211031650 METAR ESMX 031650Z 14007KT 110V170 CAVOK 09/08 Q1011=
202211031620 METAR ESMX 031620Z 14008KT CAVOK 09/08 Q1011=
202211031550 METAR ESMX 031550Z 15007KT CAVOK 09/08 Q1011=
202211031520 METAR ESMX 031520Z 14007KT 110V170 CAVOK 10/08 Q1012=
202211031450 METAR ESMX 031450Z 15009KT CAVOK 11/07 Q1012=
202211031420 METAR ESMX 031420Z 15008KT CAVOK 11/08 Q1012=
202211031350 METAR ESMX 031350Z AUTO 15008KT 110V170 9999 NCD 11/08 Q1012=
202211031320 METAR ESMX 031320Z 17010KT CAVOK 12/07 Q1012=
202211031250 METAR ESMX 031250Z AUTO 17010KT 9999 NCD 12/07 Q1012=
202211031220 METAR ESMX 031220Z 17010KT CAVOK 12/07 Q1013=
202211031150 METAR ESMX 031150Z 17010KT 130V200 CAVOK 12/08 Q1013=
202211031120 METAR ESMX 031120Z 17010KT 110V200 CAVOK 12/08 Q1013=
202211031050 METAR COR ESMX 031050Z 17010KT 130V190 CAVOK 11/08 Q1014=
202211031020 METAR ESMX 031020Z 18010KT CAVOK 11/08 Q1014=
202211030950 METAR ESMX 030950Z 17008KT 140V200 CAVOK 10/08 Q1014=
202211030920 METAR ESMX 030920Z 15007KT 9999 FEW007 09/09 Q1014=
202211030850 METAR ESMX 030850Z 15008KT 120V190 9999 FEW007 09/08 Q1014=
202211030820 METAR ESMX 030820Z 15007KT 090V180 9999 BKN007 08/08 Q1015=
202211030750 METAR ESMX 030750Z 17008KT 9999 BKN006 08/08 Q1015=
202211030720 METAR ESMX 030720Z 17008KT 9999 BKN005 07/07 Q1015=
202211030650 METAR ESMX 030650Z 15005KT 9000 BR BKN004 07/07 Q1015=
202211030620 METAR ESMX 030620Z 18005KT 8000 BR BKN003 07/07 Q1015=
202211030550 METAR ESMX 030550Z 18007KT 8000 BR BKN003 07/07 Q1015=
202211030520 METAR ESMX 030520Z 18007KT 6000 BR BKN002 07/07 Q1015=
202211030450 METAR ESMX 030450Z 18007KT 7000 BR BKN003 07/07 Q1015=
202211030420 METAR ESMX 030420Z AUTO 18007KT 9999 OVC003/// 08/08 Q1015=
202211030350 METAR ESMX 030350Z AUTO 16005KT 120V200 9999 OVC004/// 08/08 Q1015=
202211030320 METAR ESMX 030320Z AUTO 21007KT 9999 OVC004/// 07/07 Q1015=
202211030250 METAR ESMX 030250Z AUTO 19008KT 9999 OVC003/// 07/07 Q1015=
202211030220 METAR ESMX 030220Z AUTO 20009KT 8000 BR OVC002/// 07/07 Q1015=
202211030150 METAR ESMX 030150Z AUTO 21006KT 6000 BR OVC001/// 07/07 Q1015=
202211030120 METAR ESMX 030120Z AUTO 22009KT 6000 BR BKN002/// OVC004/// 07/07 Q1015=
202211030050 METAR ESMX 030050Z AUTO 22007KT 9999 BKN003/// BKN005/// 07/07 Q1015=
202211030020 METAR ESMX 030020Z 22007KT 9999 SCT003 07/07 Q1015=
202211022350 METAR ESMX 022350Z 23006KT 9999 SCT004 BKN011 08/08 Q1015=
202211022320 METAR ESMX 022320Z 23005KT 9999 BKN010 07/07 Q1015=
202211022250 METAR ESMX 022250Z 23006KT 9999 BKN009 07/07 Q1015=
202211022220 METAR ESMX 022220Z 22006KT 9999 BKN009 07/07 Q1014=
202211022150 METAR ESMX 022150Z 23004KT 9999 SCT010 07/07 Q1014=
202211022120 METAR ESMX 022120Z 21005KT 9999 FEW014 BKN019 08/08 Q1014=
202211022050 METAR ESMX 022050Z 22007KT 9999 FEW011 BKN015 08/08 Q1014=
202211022020 METAR ESMX 022020Z 23006KT 9999 FEW011 BKN014 08/08 Q1013=
202211021950 METAR ESMX 021950Z AUTO 23005KT 9999 SCT008/// BKN010/// OVC037/// 09/09 Q1013=
202211021920 METAR ESMX 021920Z AUTO 23005KT 9999 BKN007/// OVC014/// 09/09 Q1013 RESHUP=
202211021850 METAR ESMX 021850Z AUTO 22007KT 9999 BR SCT009/// BKN016/// OVC048/// 09/09 Q1012 REUP RESHUP=
202211021820 METAR ESMX 021820Z AUTO 22006KT 9999 FEW021/// OVC037/// 08/08 Q1012=
202211021750 METAR ESMX 021750Z 22007KT 9999 BKN043 08/08 Q1012=
202211021720 METAR ESMX 021720Z 22007KT 9999 FEW014 BKN048 09/08 Q1012=
202211021650 METAR ESMX 021650Z 23008KT 9999 -DZ FEW007 SCT019 BKN057 09/09 Q1011=
202211021620 METAR ESMX 021620Z 18007KT 9999 -DZ SCT018 BKN037 10/09 Q1011=
202211021550 METAR ESMX 021550Z 18006KT 9999 SCT041 BKN053 10/09 Q1011=
202211021520 METAR ESMX 021520Z 19005KT 9999 FEW017 BKN055 10/09 Q1011=
202211021450 METAR ESMX 021450Z 19008KT 9999 FEW017 SCT035 10/09 Q1011=
202211021420 METAR COR ESMX 021420Z 18006KT 9999 SCT016 BKN035 11/10 Q1011=
202211021350 METAR ESMX 021350Z 18008KT 9999 SCT015 BKN047 11/10 Q1011=
202211021320 METAR ESMX 021320Z 18008KT 9999 SCT013 BKN040 11/10 Q1011=
202211021250 METAR ESMX 021250Z 18007KT 9999 SCT010 BKN020 11/10 Q1011=
202211021220 METAR ESMX 021220Z 19010KT 9999 SCT010 BKN015 11/10 Q1011=
202211021150 METAR ESMX 021150Z 18009KT 9999 BKN010 11/10 Q1011=
202211021120 METAR COR ESMX 021120Z 18010KT 9999 BKN010 11/10 Q1011=
202211021050 METAR ESMX 021050Z 17009KT 9999 -DZ BKN008 11/10 Q1011=
202211021020 METAR ESMX 021020Z 18008KT 9999 BKN008 11/10 Q1011=
202211020950 METAR ESMX 020950Z AUTO 17009KT 9999 BKN008/// OVC046/// 11/10 Q1011=
202211020920 METAR COR ESMX 020920Z 18007KT 9999 BKN007 10/10 Q1012=
202211020850 METAR ESMX 020850Z AUTO 17008KT 9999 SCT059/// OVC100/// 10/10 Q1012=
202211020820 METAR ESMX 020820Z 18008KT CAVOK 09/09 Q1012=
202211020750 METAR ESMX 020750Z 17007KT CAVOK 09/09 Q1012=
202211020720 METAR ESMX 020720Z AUTO 15006KT 120V190 9999 NCD 09/08 Q1012=
202211020650 METAR ESMX 020650Z AUTO 16006KT 9999 NCD 08/08 Q1012=
202211020620 METAR ESMX 020620Z AUTO 17007KT 9999 NCD 08/08 Q1012=
202211020550 METAR ESMX 020550Z 17006KT 8000 NSC 08/08 Q1012=
202211020520 METAR ESMX 020520Z 19005KT 7000 BR NSC 08/08 Q1012=
202211020450 METAR COR ESMX 020450Z 19004KT CAVOK 08/08 Q1012=
202211020420 METAR ESMX 020420Z AUTO 19005KT 9999 NCD 09/09 Q1012=
202211020350 METAR ESMX 020350Z AUTO 20004KT 9999 NCD 09/09 Q1013=
202211020320 METAR ESMX 020320Z AUTO 17005KT 9999 NCD 09/09 Q1013=
202211020250 METAR ESMX 020250Z AUTO 19007KT 9999 BKN047/// 09/09 Q1013=
202211020220 METAR ESMX 020220Z AUTO 20009KT 9999 OVC048/// 10/10 Q1013=
202211020150 METAR ESMX 020150Z AUTO 20008KT 9999 FEW038/// OVC048/// 10/10 Q1013=
202211020120 METAR ESMX 020120Z AUTO 20007KT 9999 BKN047/// 10/10 Q1013=
202211020050 METAR ESMX 020050Z 21007KT 9999 BKN034 10/10 Q1013=
202211020020 METAR ESMX 020020Z 20007KT 9999 BKN031 11/11 Q1013=
202211012350 METAR ESMX 012350Z 20007KT 9999 BKN040 11/11 Q1013=
202211012320 METAR ESMX 012320Z 20007KT 9000 BKN039 11/11 Q1013=
202211012250 METAR ESMX 012250Z 21006KT 9000 BKN039 11/11 Q1013=
202211012220 METAR ESMX 012220Z 21006KT 7000 BKN042 11/11 Q1013=
202211012150 METAR ESMX 012150Z 20006KT 7000 FEW005 BKN041 11/11 Q1013=
202211012120 METAR ESMX 012120Z 20007KT 6000 BKN005 11/11 Q1013=
202211012050 METAR ESMX 012050Z 22007KT 6000 BKN005 11/11 Q1013=
202211012020 METAR ESMX 012020Z 20008KT 7000 BKN005 11/11 Q1013=
202211011950 METAR ESMX 011950Z AUTO 22007KT 6000 BR BKN005/// BKN007/// OVC044/// 11/11 Q1013=
202211011920 METAR ESMX 011920Z AUTO 21007KT 8000 BR OVC005/// 11/11 Q1013=
202211011850 METAR ESMX 011850Z AUTO 20007KT 8000 BR OVC004/// 11/11 Q1013=
202211011820 METAR ESMX 011820Z AUTO 20007KT 9999 BKN003/// OVC005/// 11/11 Q1013=
202211011750 METAR ESMX 011750Z AUTO 18006KT 3500 BR OVC002/// 11/11 Q1013=
202211011720 METAR ESMX 011720Z 17006KT 3700 -DZ OVC002 11/11 Q1013=
202211011650 METAR ESMX 011650Z 17006KT 2600 -DZ OVC002 11/11 Q1013=
202211011620 METAR COR ESMX 011620Z 17006KT 2300 BR OVC002 11/11 Q1012=
202211011550 METAR ESMX 011550Z AUTO 15007KT 110V170 2700 BR OVC002/// 11/11 Q1012 RERA=
202211011520 METAR ESMX 011520Z 14006KT 100V170 4500 BR OVC002 11/11 Q1012=
202211011450 METAR ESMX 011450Z 14007KT 070V180 4000 BR OVC002 11/11 Q1012=
202211011420 METAR ESMX 011420Z 15007KT 7000 BR OVC003 11/11 Q1013=
202211011350 METAR COR ESMX 011350Z 17007KT 7000 OVC004 11/11 Q1013=
202211011320 METAR ESMX 011320Z 15007KT 120V180 9999 OVC003 11/11 Q1013=
202211011250 METAR ESMX 011250Z 12007KT 060V210 5000 BR OVC002 11/11 Q1013=
202211011220 METAR ESMX 011220Z 14008KT 110V170 5000 BR OVC002 11/11 Q1013=
