##########################################################
# Query made at 04/19/2024 22:25:50 UTC
# Time interval: from 05/01/2022 12:00  to 05/31/2022 12:59  UTC
##########################################################

##########################################################
# ESMX, Vaxjo (Sweden)
# WMO index: 02641. WIGOS ID: 0-20000-0-02648
# Latitude 56-51N. Longitude 014-50E. Altitude 199 m.
##########################################################

202205311250 METAR ESMX 311250Z 24006KT 200V270 9999 SCT032CB BKN044 15/08 Q1012=
202205311220 METAR ESMX 311220Z 22006KT 190V260 9999 -SHRA SCT037CB BKN057 15/09 Q1012=
202205311150 METAR ESMX 311150Z 26009KT 9999 -SHRA SCT037CB BKN057 13/08 Q1012=
202205311120 METAR COR ESMX 311120Z VRB03KT 9999 -SHRA FEW031CB BKN061 14/08 Q1012=
202205311050 METAR ESMX 311050Z 28008KT 240V320 9999 -SHRA FEW017 BKN031CB 13/08 Q1012=
202205311020 METAR ESMX 311020Z 23005KT 200V290 9999 -SHRA SCT017 SCT035CB 14/10 Q1012=
202205310950 METAR ESMX 310950Z 28006KT 9999 -SHRA BKN017 12/09 Q1012=
202205310920 METAR ESMX 310920Z 25006KT 9999 -SHRA BKN020 12/10 Q1012=
202205310850 METAR ESMX 310850Z 23005KT 9999 BKN020 13/08 Q1012=
202205310820 METAR ESMX 310820Z 23005KT 200V260 9999 -SHRA BKN014 11/09 Q1013=
202205310750 METAR ESMX 310750Z 31005KT 9999 BKN012 12/09 Q1013=
202205310720 METAR ESMX 310720Z 27003KT 230V320 9999 BKN008 11/09 Q1013=
202205310650 METAR ESMX 310650Z 27006KT 9999 BKN006 10/09 Q1013=
202205310620 METAR ESMX 310620Z AUTO 16004KT 9999 SCT004/// BKN038/// OVC047/// 10/09 Q1013=
202205310550 METAR ESMX 310550Z AUTO 16003KT 9999 FEW003/// SCT014/// OVC035/// 09/09 Q1013=
202205310520 METAR ESMX 310520Z AUTO 24003KT 9999 BKN002/// OVC034/// 09/09 Q1013=
202205310450 METAR ESMX 310450Z AUTO 25004KT 210V280 5000 BR OVC001/// 09/09 Q1013 REDZ=
202205310420 METAR ESMX 310420Z AUTO 24002KT 5000 BR BKN002/// OVC041/// 08/08 Q1013=
202205310350 METAR ESMX 310350Z AUTO 11003KT 7000 -DZ BKN039/// OVC051/// 08/08 Q1013 REUP=
202205310320 METAR ESMX 310320Z AUTO 11004KT 9999 SCT015/// BKN020/// OVC040/// 08/08 Q1013=
202205310250 METAR ESMX 310250Z AUTO 20004KT 9000 BR SCT021/// BKN031/// OVC064/// 07/07 Q1013=
202205310220 METAR ESMX 310220Z AUTO 10003KT 8000 BR FEW019/// BKN031/// BKN045/// 07/07 Q1013=
202205310150 METAR ESMX 310150Z AUTO 20002KT 8000 BR FEW018/// SCT024/// OVC038/// 07/07 Q1013=
202205310120 METAR ESMX 310120Z AUTO 00000KT 6000 FEW006/// BKN013/// OVC030/// 07/07 Q1013=
202205310050 METAR ESMX 310050Z AUTO 00000KT 4900 BCFG FEW007/// BKN014/// OVC036/// 06/06 Q1013=
202205310020 METAR ESMX 310020Z AUTO 00000KT 2200 BCFG SCT035/// OVC072/// 06/06 Q1013=
202205302350 METAR ESMX 302350Z 26001KT 2000 BR FEW007 SCT062 OVC088 05/05 Q1013=
202205302320 METAR ESMX 302320Z 00000KT 2000 R01/0550N R19/P2000D BCFG OVC059 05/05 Q1013=
202205302250 METAR ESMX 302250Z 00000KT 4000 BCFG SCT059 06/06 Q1013=
202205302220 METAR ESMX 302220Z 00000KT 0150 R01/0600N R19/0650N BCFG NSC 06/06 Q1013=
202205302150 METAR ESMX 302150Z 10003KT 9999 BR SCT047 BKN100 08/08 Q1013 REDZ=
202205302120 METAR ESMX 302120Z 28003KT 9999 SCT047 BKN082 08/08 Q1013=
202205302050 METAR ESMX 302050Z VRB02KT 9999 SCT047 BKN082 09/09 Q1013=
202205302020 METAR ESMX 302020Z 14002KT 9999 RA BKN044 10/09 Q1013 REDZ=
202205301950 METAR ESMX 301950Z VRB01KT 9999 BKN019 BKN150 10/09 Q1013=
202205301920 METAR ESMX 301920Z 00000KT 9999 FEW030 SCT041 10/09 Q1013=
202205301850 METAR ESMX 301850Z AUTO 00000KT 9999 FEW044/// 10/09 Q1013=
202205301820 METAR ESMX 301820Z AUTO 17003KT 9999 FEW048/// BKN100/// 11/08 Q1013=
202205301750 METAR ESMX 301750Z AUTO 17003KT 9999 FEW046/// SCT062/// BKN098/// 12/08 Q1013=
202205301720 METAR ESMX 301720Z AUTO 17002KT 9999 BKN039/// OVC049/// 12/07 Q1013=
202205301650 METAR ESMX 301650Z AUTO 12003KT 050V170 9999 FEW019/// OVC039/// 12/07 Q1013=
202205301620 METAR ESMX 301620Z AUTO 15005KT 9999 SCT043/// BKN150/// 12/08 Q1013=
202205301550 METAR ESMX 301550Z 15005KT 9999 SCT040 12/08 Q1013=
202205301520 METAR ESMX 301520Z 13005KT 100V170 9999 SCT021 BKN045 12/09 Q1013=
202205301450 METAR ESMX 301450Z 12005KT 070V150 9999 FEW022 SCT039 13/09 Q1013=
202205301420 METAR ESMX 301420Z 13003KT 060V170 9999 FEW015 SCT043 13/09 Q1013=
202205301350 METAR ESMX 301350Z 15005KT 9999 FEW013 13/09 Q1012=
202205301320 METAR ESMX 301320Z 16004KT 120V200 9999 -DZ FEW010 BKN040 12/11 Q1012=
202205301250 METAR ESMX 301250Z 12004KT 9999 -RA FEW012 BKN036 12/09 Q1012=
202205301220 METAR ESMX 301220Z 15006KT 120V190 9999 FEW021 SCT036 12/09 Q1012=
202205301150 METAR ESMX 301150Z 05004KT 020V080 9999 SCT014 12/10 Q1012=
202205301120 METAR ESMX 301120Z 04004KT 010V080 9999 -DZ FEW009 SCT037 12/11 Q1012=
202205301050 METAR ESMX 301050Z 07003KT 020V120 9999 -RA FEW010 SCT039 11/10 Q1012=
202205301020 METAR ESMX 301020Z 12003KT 030V160 9999 -RA FEW010 SCT033 10/09 Q1012=
202205300950 METAR ESMX 300950Z 11006KT 080V160 9000 -RA FEW010 BKN020 10/09 Q1012=
202205300920 METAR ESMX 300920Z 03004KT 360V070 7000 RA FEW029 BKN041 12/11 Q1012=
202205300850 METAR ESMX 300850Z 06005KT 020V100 7000 RA BKN041 11/10 Q1012=
202205300820 METAR ESMX 300820Z 11003KT 060V120 9999 BKN014 12/09 Q1012=
202205300750 METAR ESMX 300750Z 11003KT 050V130 9999 SCT010 BKN013 12/09 Q1012=
202205300720 METAR ESMX 300720Z 08004KT 9999 OVC009 11/10 Q1011=
202205300650 METAR ESMX 300650Z 06004KT 330V110 9999 OVC006 11/10 Q1011=
202205300620 METAR ESMX 300620Z AUTO 07004KT 020V110 9999 OVC006/// 11/10 Q1011=
202205300550 METAR ESMX 300550Z AUTO 08004KT 030V110 9999 OVC004/// 10/10 Q1011=
202205300520 METAR ESMX 300520Z 08004KT 9999 OVC004 10/10 Q1011=
202205300450 METAR ESMX 300450Z 11004KT 070V160 9999 OVC003 10/10 Q1011=
202205300420 METAR ESMX 300420Z 13003KT 080V180 7000 BR OVC003 10/10 Q1010=
202205300350 METAR ESMX 300350Z AUTO 13004KT 050V190 7000 BR OVC002/// 10/10 Q1010=
202205300320 METAR ESMX 300320Z AUTO 14004KT 5000 BR OVC001/// 09/09 Q1010=
202205300250 METAR ESMX 300250Z AUTO 14005KT 2000 BR OVC002/// 09/09 Q1010=
202205300220 METAR ESMX 300220Z AUTO 13005KT 8000 BR BKN004/// OVC005/// 09/09 Q1010=
202205300150 METAR ESMX 300150Z AUTO 14006KT 9999 FEW006/// OVC110/// 09/09 Q1009=
202205300120 METAR ESMX 300120Z AUTO 14005KT 9999 OVC110/// 10/09 Q1009=
202205300050 METAR ESMX 300050Z AUTO 16004KT 9999 FEW086/// OVC110/// 10/09 Q1009=
202205300020 METAR ESMX 300020Z AUTO 15005KT 9999 BKN110/// 11/08 Q1009=
202205292350 METAR ESMX 292350Z AUTO 13005KT 9999 SCT066/// BKN110/// 11/08 Q1009=
202205292320 METAR ESMX 292320Z AUTO 13004KT 070V140 9999 BKN064/// OVC082/// 12/08 Q1009=
202205292250 METAR ESMX 292250Z AUTO 14004KT 9999 OVC064/// 12/08 Q1009=
202205292220 METAR ESMX 292220Z AUTO 15005KT 9999 SCT064/// 12/08 Q1009=
202205292150 METAR ESMX 292150Z AUTO 15005KT 9999 FEW100/// 11/09 Q1009=
202205292120 METAR ESMX 292120Z AUTO 16005KT 9999 FEW086/// 13/07 Q1009=
202205292050 METAR ESMX 292050Z AUTO 15005KT 9999 BKN082/// 13/08 Q1009=
202205292020 METAR ESMX 292020Z AUTO 17005KT 9999 OVC082/// 14/07 Q1008=
202205291950 METAR ESMX 291950Z 21007KT CAVOK 14/07 Q1008=
202205291920 METAR ESMX 291920Z 18010KT CAVOK 15/07 Q1008=
202205291850 METAR ESMX 291850Z 13004KT 060V200 CAVOK 16/07 Q1007=
202205291820 METAR ESMX 291820Z 02006KT 340V090 CAVOK 18/02 Q1007=
202205291750 METAR ESMX 291750Z 32003KT CAVOK 18/02 Q1007=
202205291720 METAR ESMX 291720Z 31004KT CAVOK 17/01 Q1007=
202205291650 METAR ESMX 291650Z 02003KT 330V060 CAVOK 19/01 Q1007=
202205291620 METAR ESMX 291620Z 35003KT CAVOK 18/01 Q1007=
202205291550 METAR ESMX 291550Z VRB02KT CAVOK 18/01 Q1007=
202205291520 METAR ESMX 291520Z VRB02KT CAVOK 18/02 Q1007=
202205291450 METAR ESMX 291450Z 11003KT CAVOK 17/01 Q1007=
202205291420 METAR ESMX 291420Z 09003KT 030V100 CAVOK 17/02 Q1007=
202205291350 METAR ESMX 291350Z 36004KT 330V060 CAVOK 18/01 Q1007=
202205291320 METAR ESMX 291320Z 02004KT 290V050 CAVOK 17/01 Q1008=
202205291250 METAR ESMX 291250Z 36006KT 320V030 CAVOK 18/02 Q1008=
202205291220 METAR ESMX 291220Z VRB03KT CAVOK 17/03 Q1008=
202205291150 METAR ESMX 291150Z 36006KT 300V030 CAVOK 17/02 Q1008=
202205291120 METAR ESMX 291120Z 06006KT 010V080 CAVOK 16/01 Q1008=
202205291050 METAR ESMX 291050Z 36006KT 320V060 CAVOK 17/03 Q1008=
202205291020 METAR ESMX 291020Z 02006KT 350V060 CAVOK 16/01 Q1008=
202205290950 METAR ESMX 290950Z 03008KT 350V060 CAVOK 15/02 Q1008=
202205290920 METAR ESMX 290920Z 34006KT 300V030 CAVOK 15/02 Q1008=
202205290850 METAR ESMX 290850Z AUTO 01005KT 340V050 9999 NCD 15/02 Q1008=
202205290820 METAR ESMX 290820Z AUTO 36006KT 330V030 9999 NCD 15/03 Q1008=
202205290750 METAR ESMX 290750Z AUTO 33006KT 290V020 9999 NCD 14/04 Q1008=
202205290720 METAR ESMX 290720Z AUTO 34006KT 290V030 9999 NCD 13/04 Q1007=
202205290650 METAR ESMX 290650Z AUTO 02005KT 340V060 9999 NCD 12/05 Q1007=
202205290620 METAR ESMX 290620Z AUTO 34006KT 300V020 9999 NCD 11/05 Q1007=
202205290550 METAR ESMX 290550Z AUTO 36007KT 9999 NCD 11/05 Q1007=
202205290520 METAR ESMX 290520Z AUTO 02006KT 9999 NCD 10/06 Q1007=
202205290450 METAR ESMX 290450Z AUTO 02006KT 9999 NCD 10/06 Q1007=
202205290420 METAR ESMX 290420Z AUTO 33003KT 9999 NCD 09/06 Q1007=
202205290350 METAR ESMX 290350Z AUTO 31005KT 9999 NCD 06/06 Q1007=
202205290320 METAR ESMX 290320Z AUTO 31004KT 9999 NCD 05/05 Q1007=
202205290250 METAR ESMX 290250Z AUTO VRB02KT 9999 FEW066/// 06/06 Q1006=
202205290220 METAR ESMX 290220Z AUTO 31003KT 9999 BKN066/// 06/06 Q1006=
202205290150 METAR ESMX 290150Z AUTO 29004KT 9999 SCT066/// 06/06 Q1006=
202205290120 METAR ESMX 290120Z AUTO 22003KT 9999 NCD 07/07 Q1006=
202205290050 METAR ESMX 290050Z AUTO 22003KT 9999 NCD 07/07 Q1006=
202205290020 METAR ESMX 290020Z AUTO 22004KT 9999 BKN074/// 08/08 Q1006=
202205282350 METAR ESMX 282350Z AUTO 26004KT 9999 BKN076/// OVC110/// 08/08 Q1006=
202205282320 METAR ESMX 282320Z AUTO 22003KT 9999 OVC120/// 08/08 Q1006=
202205282250 METAR ESMX 282250Z AUTO 22004KT 9999 BKN120/// OVC150/// 07/07 Q1006=
202205282220 METAR ESMX 282220Z AUTO 22004KT 9999 SCT120/// BKN140/// 08/08 Q1006=
202205282150 METAR ESMX 282150Z AUTO 22004KT 9999 SCT082/// 09/08 Q1006=
202205282120 METAR ESMX 282120Z AUTO 21002KT 9999 FEW039/// OVC070/// 10/09 Q1006=
202205282050 METAR ESMX 282050Z AUTO 00000KT 9999 SCT032/// BKN047/// OVC080/// 10/09 Q1006 REDZ=
202205282020 METAR ESMX 282020Z AUTO 03006KT 9999 FEW014/// OVC037/// 11/09 Q1006=
202205281950 METAR ESMX 281950Z AUTO 27005KT 9999 BKN045/// OVC057/// 11/08 Q1006=
202205281920 METAR ESMX 281920Z AUTO 26004KT 9999 BKN048/// OVC061/// 11/08 Q1006=
202205281850 METAR ESMX 281850Z AUTO 27005KT 9999 FEW047/// BKN059/// 11/08 Q1006=
202205281820 METAR ESMX 281820Z AUTO 27006KT 9999 SCT051/// BKN062/// 12/08 Q1006=
202205281750 METAR ESMX 281750Z AUTO 27005KT 9999 FEW062/// SCT076/// BKN098/// 12/08 Q1005=
202205281720 METAR ESMX 281720Z AUTO 29005KT 9999 FEW045/// SCT078/// OVC096/// 12/08 Q1005=
202205281650 METAR ESMX 281650Z AUTO 31006KT 9999 BKN057/// OVC082/// 12/08 Q1005=
202205281620 METAR ESMX 281620Z AUTO 30007KT 270V330 9999 BKN055/// OVC086/// 12/08 Q1005=
202205281550 METAR ESMX 281550Z AUTO 31009KT 280V340 9999 BKN047/// OVC084/// 12/07 Q1005=
202205281520 METAR ESMX 281520Z AUTO 32010KT 280V350 9999 FEW028/// SCT051/// OVC088/// 12/07 Q1005=
202205281450 METAR ESMX 281450Z AUTO 31011KT 280V350 9999 SCT027/// BKN036/// OVC084/// 12/07 Q1005=
202205281420 METAR ESMX 281420Z AUTO 33010KT 9999 OVC038/// 12/07 Q1004=
202205281350 METAR ESMX 281350Z AUTO 31011KT 280V340 9999 FEW021/// SCT032/// BKN042/// 11/08 Q1004=
202205281320 METAR ESMX 281320Z AUTO 32011KT 290V360 9999 RA BKN023/// OVC036/// 11/08 Q1004 RERA=
202205281250 METAR ESMX 281250Z AUTO 31013KT 9999 FEW023/// BKN038/// OVC053/// 12/08 Q1004=
202205281220 METAR ESMX 281220Z AUTO 31012KT 280V350 9999 -RA FEW018/// BKN045/// BKN055/// 12/08 Q1004=
202205281150 METAR ESMX 281150Z AUTO 29010KT 9999 SCT020/// BKN035/// OVC057/// 13/08 Q1003=
202205281120 METAR ESMX 281120Z AUTO 31010KT 270V330 9999 FEW021/// OVC033/// 12/08 Q1003=
202205281050 METAR ESMX 281050Z AUTO 29010KT 270V350 9999 SCT018/// OVC045/// 12/08 Q1003=
202205281020 METAR ESMX 281020Z AUTO 31012KT 270V340 9999 OVC017/// 11/08 Q1003=
202205280950 METAR ESMX 280950Z AUTO 30010KT 9999 BKN014/// OVC020/// 11/08 Q1003=
202205280920 METAR ESMX 280920Z AUTO 32009KT 9999 BKN012/// OVC016/// 10/08 Q1002=
202205280850 METAR ESMX 280850Z AUTO 31011KT 280V350 9999 OVC011/// 09/08 Q1002=
202205280820 METAR ESMX 280820Z AUTO 31010KT 280V340 9999 OVC011/// 09/08 Q1002=
202205280750 METAR ESMX 280750Z AUTO 31009KT 280V350 9999 BKN010/// OVC013/// 09/08 Q1001=
202205280720 METAR ESMX 280720Z AUTO 31010KT 280V340 9999 OVC009/// 09/08 Q1001=
202205280650 METAR ESMX 280650Z AUTO 30008KT 270V340 9999 SCT010/// OVC015/// 09/09 Q1001 RERA=
202205280620 METAR ESMX 280620Z AUTO 31008KT 270V350 9999 FEW009/// SCT012/// OVC017/// 09/08 Q1000=
202205280550 METAR ESMX 280550Z AUTO 30007KT 9999 -DZ BKN009/// OVC013/// 08/08 Q1000=
202205280520 METAR ESMX 280520Z AUTO 30008KT 9999 -RA BKN007/// BKN009/// OVC010/// 08/08 Q1000=
202205280450 METAR ESMX 280450Z AUTO 30007KT 9999 -DZ BKN006/// OVC008/// 08/08 Q1000=
202205280420 METAR ESMX 280420Z AUTO 29006KT 9999 -DZ BKN006/// OVC010/// 07/07 Q0999=
202205280350 METAR ESMX 280350Z AUTO 28005KT 9999 -DZ FEW002/// SCT004/// OVC007/// 07/07 Q0999=
202205280320 METAR ESMX 280320Z AUTO 29006KT 4100 -DZ FEW002/// SCT005/// BKN010/// 07/07 Q0999 REUP=
202205280250 METAR ESMX 280250Z AUTO 29006KT 9999 BR FEW006/// BKN010/// OVC016/// 07/07 Q0999=
202205280220 METAR ESMX 280220Z AUTO 27005KT 9999 FEW011/// OVC033/// 07/07 Q0999=
202205280150 METAR ESMX 280150Z AUTO 23005KT 9999 FEW013/// SCT022/// BKN034/// 06/06 Q0999=
202205280120 METAR ESMX 280120Z AUTO 20005KT 9999 BKN014/// OVC018/// 07/06 Q0999=
202205280050 METAR ESMX 280050Z AUTO 20006KT 9999 BKN017/// BKN021/// 06/06 Q0999=
202205280020 METAR ESMX 280020Z AUTO 22006KT 9999 FEW027/// 06/05 Q0999=
202205272350 METAR ESMX 272350Z AUTO 21007KT 9999 SCT017/// BKN026/// 07/06 Q1000=
202205272320 METAR ESMX 272320Z AUTO 23007KT 9999 FEW035/// SCT055/// 06/05 Q1000=
202205272250 METAR ESMX 272250Z AUTO 25008KT 220V280 9999 -RA ///034 07/05 Q1001 REDZ REUP=
202205272220 METAR ESMX 272220Z AUTO 23007KT 9999 FEW020/// SCT034/// BKN059/// 07/06 Q1001=
202205272150 METAR ESMX 272150Z AUTO 23007KT 9999 SCT059/// BKN130/// 08/05 Q1001=
202205272120 METAR ESMX 272120Z AUTO 25008KT 9999 BKN130/// 08/05 Q1001=
202205272050 METAR ESMX 272050Z AUTO 25007KT 9999 SCT120/// 08/05 Q1001=
202205272020 METAR ESMX 272020Z AUTO 25009KT 9999 BKN130/// BKN150/// 08/05 Q1001=
202205271950 METAR ESMX 271950Z AUTO 25008KT 9999 SCT150/// 08/05 Q1001=
202205271920 METAR ESMX 271920Z AUTO 25009KT 9999 NCD 08/04 Q1001=
202205271850 METAR ESMX 271850Z AUTO 25011KT 9999 NCD 09/04 Q1001=
202205271820 METAR ESMX 271820Z 25012KT 9999 FEW044 11/04 Q1001=
202205271750 METAR ESMX 271750Z 25013KT 230V290 9999 FEW042 11/03 Q1001=
202205271720 METAR ESMX 271720Z 26014KT 9999 FEW041 12/03 Q1001=
202205271650 METAR ESMX 271650Z 25014KT 9999 FEW044 12/03 Q1001=
202205271620 METAR COR ESMX 271620Z 24012KT 9999 VCSH SCT045 13/03 Q1001=
202205271550 METAR COR ESMX 271550Z 27017KT 240V300 9999 VCSH SCT048 13/01 Q1001=
202205271520 METAR ESMX 271520Z 27016G27KT 9999 SCT048 14/03 Q1001=
202205271450 METAR ESMX 271450Z 27013KT 9999 SCT049 13/02 Q1001=
202205271420 METAR ESMX 271420Z 26014KT 9999 SCT048 13/02 Q1001=
202205271350 METAR ESMX 271350Z 26016KT 230V300 9999 SCT048 14/02 Q1001=
202205271320 METAR ESMX 271320Z 27016G28KT 230V300 9999 SCT049 15/03 Q1001=
202205271250 METAR ESMX 271250Z 28015G26KT 9999 SCT045 13/02 Q1001=
202205271220 METAR ESMX 271220Z 28014KT 250V320 9999 SCT045 13/03 Q1001=
202205271150 METAR ESMX 271150Z 26015G26KT 230V310 9999 SCT042 12/04 Q1002=
202205271120 METAR ESMX 271120Z 24013KT 210V280 9999 VCSH SCT040 14/03 Q1001=
202205271050 METAR ESMX 271050Z 26015KT 230V290 9999 VCSH SCT034 12/06 Q1002=
202205271020 METAR COR ESMX 271020Z 27011KT 9999 VCSH FEW039 BKN050 10/08 Q1002=
202205270950 METAR ESMX 270950Z 26016G27KT 230V290 9999 VCSH FEW028 SCT038 12/04 Q1002=
202205270920 METAR ESMX 270920Z 26013KT 230V290 9999 VCSH FEW022 SCT032 11/08 Q1002=
202205270850 METAR ESMX 270850Z 27014G24KT 9999 BKN016 10/07 Q1002=
202205270820 METAR ESMX 270820Z 28012KT 250V320 9999 VCSH SCT013 BKN041 10/08 Q1002=
202205270750 METAR ESMX 270750Z 27012G22KT 230V300 9999 SHRA FEW011 BKN015 10/08 Q1002=
202205270720 METAR ESMX 270720Z 26009KT 230V290 9999 -RA SCT010 BKN014 09/09 Q1001=
202205270650 METAR ESMX 270650Z AUTO 26008KT 9999 -DZ FEW003/// BKN013/// BKN017/// 09/08 Q1001=
202205270620 METAR ESMX 270620Z AUTO 25007KT 9999 SCT008/// BKN035/// 09/08 Q1001=
202205270550 METAR ESMX 270550Z 24007KT 9999 -RA FEW008 SCT015 BKN035 08/08 Q1002=
202205270520 METAR ESMX 270520Z 22007KT 9999 -RA FEW004 SCT015 BKN030 08/08 Q1002=
202205270450 METAR ESMX 270450Z 23010KT 5000 SHRA BKN004 07/07 Q1002=
202205270420 METAR COR ESMX 270420Z 20006KT 9999 BKN017 07/07 Q1002=
202205270350 METAR ESMX 270350Z 20006KT 9999 -RA FEW020 BKN038 07/07 Q1003=
202205270320 METAR ESMX 270320Z AUTO 21006KT 9999 BKN051/// 07/06 Q1003=
202205270250 METAR ESMX 270250Z AUTO 19005KT 9999 FEW055/// 05/05 Q1003=
202205270220 METAR ESMX 270220Z AUTO 22006KT 9999 SCT057/// 05/05 Q1004=
202205270150 METAR ESMX 270150Z AUTO 22006KT 9999 FEW022/// 05/04 Q1004=
202205270120 METAR ESMX 270120Z AUTO 22006KT 9999 FEW024/// 05/04 Q1005=
202205270050 METAR ESMX 270050Z AUTO 22006KT 9999 NCD 05/04 Q1005=
202205270020 METAR ESMX 270020Z AUTO 23005KT 9999 NCD 05/04 Q1005=
202205262350 METAR ESMX 262350Z AUTO 22006KT 9999 NCD 07/05 Q1006=
202205262320 METAR ESMX 262320Z AUTO 23007KT 9999 FEW024/// 07/05 Q1006=
202205262250 METAR ESMX 262250Z AUTO 24008KT 9999 SCT024/// 08/05 Q1006=
202205262220 METAR ESMX 262220Z AUTO 23006KT 200V270 9999 SCT030/// BKN046/// 08/05 Q1006=
202205262150 METAR ESMX 262150Z AUTO 25008KT 9999 SCT034/// BKN043/// 09/05 Q1006=
202205262120 METAR ESMX 262120Z AUTO 26008KT 9999 NCD 09/05 Q1007=
202205262050 METAR ESMX 262050Z AUTO 26011KT 230V290 9999 FEW037/// 09/04 Q1007=
202205262020 METAR ESMX 262020Z AUTO 26010KT 9999 SCT035/// BKN053/// 10/05 Q1007=
202205261950 METAR ESMX 261950Z AUTO 26009KT 9999 SCT040/// BKN053/// 10/05 Q1007=
202205261920 METAR ESMX 261920Z AUTO 26011KT 230V300 9999 FEW043/// SCT049/// 11/05 Q1007=
202205261850 METAR ESMX 261850Z AUTO 26012KT 9999 NCD 11/03 Q1006=
202205261820 METAR ESMX 261820Z 27013G26KT 9999 BKN045 12/03 Q1006=
202205261750 METAR ESMX 261750Z 25013G24KT 230V290 9999 BKN048 12/04 Q1006=
202205261720 METAR ESMX 261720Z 26016KT 9999 FEW047 BKN060 12/04 Q1006=
202205261650 METAR ESMX 261650Z 25016KT 210V280 9999 SCT046 BKN061 13/04 Q1006=
202205261620 METAR ESMX 261620Z 27017G28KT 9999 BKN047 14/04 Q1006=
202205261550 METAR ESMX 261550Z 25016G26KT 210V280 9999 BKN046 13/04 Q1006=
202205261520 METAR ESMX 261520Z 26017KT 230V290 9999 BKN048 15/05 Q1006=
202205261450 METAR ESMX 261450Z 24018G28KT 9999 BKN045 14/05 Q1006=
202205261420 METAR ESMX 261420Z 26019G33KT 240V300 9999 BKN043 15/05 Q1006=
202205261350 METAR ESMX 261350Z 25018KT 9999 BKN041 14/05 Q1005=
202205261320 METAR ESMX 261320Z 26017G31KT 230V290 9999 BKN037 13/06 Q1005=
202205261250 METAR ESMX 261250Z 26017G30KT 220V300 9999 BKN028 13/07 Q1005=
202205261220 METAR ESMX 261220Z AUTO 25017G30KT 200V280 9999 ///037 12/09 Q1005 REDZ=
202205261150 METAR ESMX 261150Z AUTO 26016G27KT 220V290 9999 SCT022/// BKN027/// 13/09 Q1005 REDZ=
202205261120 METAR ESMX 261120Z AUTO 26016G27KT 9999 SCT023/// 13/09 Q1005 RERA=
202205261050 METAR ESMX 261050Z AUTO 25014KT 220V300 9999 BKN020/// 14/11 Q1005=
202205261020 METAR ESMX 261020Z AUTO 25012KT 220V280 9999 -RA SCT016/// BKN023/// 12/10 Q1004=
202205260950 METAR ESMX 260950Z AUTO 25010KT 9999 FEW016/// SCT036/// BKN051/// 11/10 Q1004 RERA=
202205260920 METAR ESMX 260920Z AUTO 24012KT 210V280 9999 SCT015/// BKN021/// 13/10 Q1004=
202205260850 METAR ESMX 260850Z AUTO 25010KT 9999 FEW029/// SCT088/// 10/09 Q1004=
202205260820 METAR ESMX 260820Z AUTO 27016G28KT 240V300 9999 RA SCT019/// BKN032/// 12/09 Q1004 RERA=
202205260750 METAR ESMX 260750Z AUTO 26012KT 230V290 9999 SCT018/// BKN032/// 12/10 Q1004 RERA=
202205260720 METAR ESMX 260720Z 22009KT 9999 FEW009 SCT015 BKN020 12/11 Q1004=
202205260650 METAR ESMX 260650Z 24009KT 9999 -RA SCT010 BKN016 12/11 Q1004=
202205260620 METAR ESMX 260620Z 24009KT 9999 SHRA SCT005 BKN015 12/11 Q1004=
202205260550 METAR ESMX 260550Z 20010KT 9999 RA SCT007 BKN010 11/11 Q1004=
202205260520 METAR ESMX 260520Z AUTO 20009KT 9999 SCT006/// BKN008/// BKN010/// 11/10 Q1004=
202205260450 METAR ESMX 260450Z AUTO 18009KT 9999 -RA FEW001/// SCT006/// BKN009/// 10/10 Q1004=
202205260420 METAR ESMX 260420Z AUTO 18007KT 9999 -RA BKN006/// OVC017/// 09/09 Q1004=
202205260350 METAR ESMX 260350Z AUTO 17010KT 9999 -RA FEW007/// BKN025/// BKN041/// 09/09 Q1005=
202205260320 METAR ESMX 260320Z AUTO 17008KT 9999 -RA SCT033/// BKN039/// OVC053/// 09/09 Q1005=
202205260250 METAR ESMX 260250Z AUTO 20010KT 9999 -DZ BKN047/// OVC061/// 10/08 Q1005=
202205260220 METAR ESMX 260220Z AUTO 19010KT 9999 OVC078/// 10/09 Q1006=
202205260150 METAR ESMX 260150Z AUTO 19008KT 9999 FEW012/// SCT094/// BKN130/// 09/08 Q1006=
202205260120 METAR ESMX 260120Z AUTO 19009KT 9999 BKN096/// 09/08 Q1007=
202205260050 METAR ESMX 260050Z AUTO 20009KT 9999 BKN098/// BKN150/// 09/08 Q1007 REDZ=
202205260020 METAR ESMX 260020Z AUTO 18007KT 9999 FEW066/// OVC100/// 10/08 Q1008 REDZ=
202205252350 METAR ESMX 252350Z AUTO 20006KT 9999 OVC059/// 10/08 Q1008=
202205252320 METAR ESMX 252320Z AUTO 21007KT 9999 OVC086/// 10/08 Q1008=
202205252250 METAR ESMX 252250Z AUTO 20008KT 9999 OVC098/// 10/08 Q1009=
202205252220 METAR ESMX 252220Z AUTO 20008KT 9999 OVC110/// 10/08 Q1009=
202205252150 METAR ESMX 252150Z AUTO 20009KT 9999 SCT120/// 10/08 Q1009=
202205252120 METAR ESMX 252120Z AUTO 20007KT 9999 SCT110/// 10/09 Q1009=
202205252050 METAR ESMX 252050Z AUTO 20007KT 9999 SCT120/// 10/09 Q1009=
202205252020 METAR ESMX 252020Z AUTO 20007KT 9999 SCT130/// 10/09 Q1009=
202205251950 METAR ESMX 251950Z AUTO 18007KT 9999 NCD 10/08 Q1009=
202205251920 METAR ESMX 251920Z 19007KT CAVOK 11/08 Q1009=
202205251850 METAR ESMX 251850Z 22007KT CAVOK 12/08 Q1009=
202205251820 METAR ESMX 251820Z 21007KT CAVOK 12/07 Q1009=
202205251750 METAR ESMX 251750Z 20010KT CAVOK 13/07 Q1010=
202205251720 METAR ESMX 251720Z 21012KT CAVOK 13/08 Q1009=
202205251650 METAR ESMX 251650Z 23010KT CAVOK 15/05 Q1009=
202205251620 METAR ESMX 251620Z AUTO 24009KT 200V280 9999 SCT055/// BKN094/// 16/05 Q1009=
202205251550 METAR ESMX 251550Z 23011KT 200V260 CAVOK 16/05 Q1009=
202205251520 METAR ESMX 251520Z 24010KT CAVOK 16/04 Q1009=
202205251450 METAR ESMX 251450Z 25011KT 210V280 CAVOK 17/05 Q1009=
202205251420 METAR ESMX 251420Z 24010KT 220V280 CAVOK 17/05 Q1009=
202205251350 METAR ESMX 251350Z AUTO 25012KT 210V280 9999 FEW053/// 17/06 Q1009=
202205251320 METAR ESMX 251320Z AUTO 23013KT 200V260 9999 FEW047/// SCT057/// 18/07 Q1009=
202205251250 METAR ESMX 251250Z AUTO 24011KT 200V270 9999 FEW035/// SCT043/// 16/07 Q1009=
202205251220 METAR ESMX 251220Z AUTO 20011KT 9999 SCT040/// BKN059/// 16/10 Q1009=
202205251150 METAR ESMX 251150Z 21013KT 9999 -RA FEW031 SCT040 BKN055 13/09 Q1010=
202205251120 METAR ESMX 251120Z 20011KT 9999 -SHRA FEW031CB SCT051 BKN064 13/09 Q1010=
202205251050 METAR ESMX 251050Z 21012KT 9999 SCT030 BKN066 16/10 Q1010=
202205251020 METAR ESMX 251020Z 22012KT 9999 -RA SCT027 BKN039 13/08 Q1010=
202205250950 METAR ESMX 250950Z 21012KT 9999 FEW025 BKN055 14/08 Q1010=
202205250920 METAR ESMX 250920Z AUTO 22010KT 190V250 9999 SCT027/// OVC051/// 13/10 Q1010=
202205250850 METAR ESMX 250850Z AUTO 22010KT 9999 FEW017/// BKN023/// BKN051/// 14/10 Q1009=
202205250820 METAR ESMX 250820Z AUTO 22011KT 9999 SCT017/// BKN023/// OVC047/// 13/10 Q1009=
202205250750 METAR ESMX 250750Z AUTO 22010KT 190V280 9999 FEW014/// BKN018/// 13/10 Q1009=
202205250720 METAR ESMX 250720Z AUTO 23009KT 9999 OVC013/// 12/10 Q1009=
202205250650 METAR ESMX 250650Z AUTO 22008KT 9999 BKN012/// BKN016/// OVC020/// 12/10 Q1009=
202205250620 METAR ESMX 250620Z AUTO 23011KT 9999 SCT010/// BKN014/// 12/10 Q1009=
202205250550 METAR ESMX 250550Z AUTO 20010KT 9999 BKN009/// BKN012/// 11/10 Q1008=
202205250520 METAR ESMX 250520Z AUTO 20010KT 9999 BKN010/// OVC012/// 11/10 Q1008=
202205250450 METAR ESMX 250450Z AUTO 20010KT 9999 SCT008/// BKN011/// BKN014/// 11/10 Q1008=
202205250420 METAR ESMX 250420Z AUTO 22010KT 9999 BKN009/// BKN013/// OVC019/// 11/10 Q1008=
202205250350 METAR ESMX 250350Z AUTO 20009KT 9999 BKN013/// OVC017/// 10/10 Q1008=
202205250320 METAR ESMX 250320Z AUTO 22007KT 9999 SCT013/// BKN016/// 10/10 Q1008=
202205250250 METAR ESMX 250250Z AUTO 23009KT 9999 FEW006/// OVC009/// 11/10 Q1008=
202205250220 METAR ESMX 250220Z AUTO 22009KT 9999 SCT008/// BKN010/// OVC012/// 11/11 Q1008=
202205250150 METAR ESMX 250150Z AUTO 22007KT 9999 BKN007/// OVC011/// 11/11 Q1007=
202205250120 METAR ESMX 250120Z AUTO 20008KT 9999 BKN006/// BKN007/// OVC010/// 12/11 Q1007=
202205250050 METAR ESMX 250050Z AUTO 20008KT 8000 BR BKN004/// OVC007/// 12/12 Q1007=
202205250020 METAR ESMX 250020Z AUTO 18007KT 150V210 9000 BR SCT005/// BKN008/// OVC011/// 12/12 Q1007=
202205242350 METAR ESMX 242350Z 19006KT 9999 FEW003 OVC014 11/11 Q1007=
202205242320 METAR ESMX 242320Z 17006KT 9000 BKN002 12/12 Q1007=
202205242250 METAR ESMX 242250Z 18005KT 5000 BR BKN002 11/11 Q1006=
202205242220 METAR ESMX 242220Z 19005KT 9000 NSC 11/11 Q1006=
202205242150 METAR ESMX 242150Z 19004KT 9999 FEW005 12/12 Q1006=
202205242120 METAR ESMX 242120Z 19005KT 7000 FEW003 BKN036 12/12 Q1006=
202205242050 METAR ESMX 242050Z 19006KT 9000 -DZ BKN036 12/12 Q1006=
202205242020 METAR ESMX 242020Z 19005KT 9999 BKN040 12/12 Q1006=
202205241950 METAR ESMX 241950Z 18004KT 9999 SCT011 11/11 Q1006=
202205241920 METAR ESMX 241920Z AUTO 19005KT 9999 NCD 10/10 Q1005=
202205241850 METAR ESMX 241850Z AUTO 17004KT 9999 FEW005/// 11/11 Q1005=
202205241820 METAR ESMX 241820Z 19006KT 9999 BKN005 12/12 Q1005=
202205241750 METAR ESMX 241750Z 18006KT 8000 BKN005 12/12 Q1004=
202205241720 METAR ESMX 241720Z 18005KT 4300 -DZ BKN005 12/12 Q1004=
202205241650 METAR ESMX 241650Z AUTO 16006KT 130V200 5000 DZ OVC005/// 12/12 Q1004 RERA=
202205241620 METAR ESMX 241620Z AUTO 15005KT 9999 SCT005/// BKN008/// BKN010/// 12/12 Q1004=
202205241550 METAR ESMX 241550Z 15005KT 090V170 5000 -RA BKN005 12/12 Q1004=
202205241520 METAR ESMX 241520Z AUTO 16007KT 9999 -RA FEW001/// BKN005/// BKN009/// 12/12 Q1004=
202205241450 METAR ESMX 241450Z AUTO 14008KT 100V170 6000 -RA BKN006/// OVC009/// 12/12 Q1004 RERA=
202205241420 METAR ESMX 241420Z AUTO 14007KT 090V170 9999 OVC011/// 12/11 Q1004=
202205241350 METAR ESMX 241350Z AUTO 14008KT 100V170 9999 -RA BKN018/// OVC029/// 13/11 Q1003=
202205241320 METAR ESMX 241320Z AUTO 15009KT 9999 -DZ BKN031/// BKN044/// OVC055/// 13/11 Q1003 REDZ=
202205241250 METAR ESMX 241250Z 14007KT 110V170 9999 FEW040 BKN061 13/11 Q1003=
202205241220 METAR ESMX 241220Z 14010KT 100V170 7000 RA OVC061 14/10 Q1003=
202205241150 METAR ESMX 241150Z 15010KT 110V190 9999 SCT040 BKN062 16/08 Q1003=
202205241120 METAR ESMX 241120Z 15010KT 120V190 9999 FEW040 BKN092 16/08 Q1003=
202205241050 METAR ESMX 241050Z 14011KT 100V180 CAVOK 16/08 Q1003=
202205241020 METAR ESMX 241020Z 15011G23KT 100V180 9999 -RA FEW049 BKN096 17/07 Q1003=
202205240950 METAR ESMX 240950Z 14011KT 070V170 9999 -RA FEW049 BKN098 18/06 Q1003=
202205240920 METAR ESMX 240920Z 14010G22KT 080V170 CAVOK 19/07 Q1003=
202205240850 METAR ESMX 240850Z 13011G22KT 080V190 CAVOK 18/08 Q1003=
202205240820 METAR ESMX 240820Z 13011KT 350V170 CAVOK 17/08 Q1003=
202205240750 METAR ESMX 240750Z 13011KT 080V170 CAVOK 17/08 Q1003=
202205240720 METAR ESMX 240720Z 11010G21KT 070V160 CAVOK 17/08 Q1004=
202205240650 METAR ESMX 240650Z 13010G20KT 090V160 CAVOK 16/08 Q1004=
202205240620 METAR ESMX 240620Z 13008KT 080V170 CAVOK 14/07 Q1004=
202205240550 METAR ESMX 240550Z 12008KT 070V160 CAVOK 13/07 Q1004=
202205240520 METAR ESMX 240520Z AUTO 12007KT 070V160 9999 NCD 12/07 Q1004=
202205240450 METAR ESMX 240450Z AUTO 12007KT 070V170 9999 NCD 11/07 Q1004=
202205240420 METAR ESMX 240420Z AUTO 11005KT 070V140 9999 NCD 10/06 Q1005=
202205240350 METAR ESMX 240350Z AUTO 11005KT 050V180 9999 NCD 09/06 Q1005=
202205240320 METAR ESMX 240320Z AUTO 10006KT 010V160 9999 NCD 08/05 Q1005=
202205240250 METAR ESMX 240250Z AUTO VRB05KT 9999 NCD 08/05 Q1006=
202205240220 METAR ESMX 240220Z AUTO 11005KT 060V160 9999 NCD 08/05 Q1006=
202205240150 METAR ESMX 240150Z AUTO 12004KT 070V130 9999 NCD 07/05 Q1007=
202205240120 METAR ESMX 240120Z AUTO 11004KT 050V140 9999 NCD 08/05 Q1007=
202205240050 METAR ESMX 240050Z AUTO 11004KT 9999 NCD 08/05 Q1007=
202205240020 METAR ESMX 240020Z AUTO 11004KT 040V150 9999 NCD 08/05 Q1007=
202205232350 METAR ESMX 232350Z 13005KT 080V150 CAVOK 08/05 Q1008=
202205232320 METAR ESMX 232320Z 13005KT CAVOK 08/05 Q1008=
202205232250 METAR ESMX 232250Z 12005KT 060V140 CAVOK 08/05 Q1008=
202205232220 METAR ESMX 232220Z 12005KT 080V150 CAVOK 09/05 Q1009=
202205232150 METAR ESMX 232150Z 13005KT CAVOK 09/05 Q1009=
202205232120 METAR ESMX 232120Z 14006KT 100V170 CAVOK 10/04 Q1009=
202205232050 METAR ESMX 232050Z 13005KT CAVOK 11/06 Q1009=
202205232020 METAR ESMX 232020Z 13005KT CAVOK 12/07 Q1009=
202205231950 METAR ESMX 231950Z 14005KT 080V240 CAVOK 12/08 Q1009=
202205231920 METAR ESMX 231920Z AUTO 14007KT 110V170 9999 NCD 13/07 Q1009=
202205231850 METAR ESMX 231850Z AUTO 14006KT 090V170 9999 NCD 14/08 Q1009=
202205231820 METAR ESMX 231820Z AUTO 16008KT 9999 NCD 14/08 Q1009=
202205231750 METAR ESMX 231750Z AUTO 15009KT 120V180 9999 NCD 15/07 Q1009=
202205231720 METAR ESMX 231720Z AUTO 15009KT 120V190 9999 NCD 15/07 Q1009=
202205231650 METAR ESMX 231650Z 16009KT 120V190 CAVOK 16/08 Q1009=
202205231620 METAR ESMX 231620Z 17010KT 130V200 CAVOK 17/07 Q1009=
202205231550 METAR ESMX 231550Z 16009KT 120V190 9999 FEW038 17/07 Q1009=
202205231520 METAR ESMX 231520Z 16009KT 140V200 9999 FEW039 BKN070 17/08 Q1010=
202205231450 METAR ESMX 231450Z 15008KT 110V190 CAVOK 17/08 Q1010=
202205231420 METAR ESMX 231420Z AUTO 14007KT 080V170 9999 SCT068/// BKN180/// 16/08 Q1010=
202205231350 METAR ESMX 231350Z 15008KT 110V200 9999 FEW037 BKN072 17/09 Q1010=
202205231320 METAR ESMX 231320Z 16008KT 120V190 9999 FEW039 BKN064 16/09 Q1010=
202205231250 METAR ESMX 231250Z 17007KT CAVOK 16/09 Q1011=
202205231220 METAR ESMX 231220Z 14006KT 090V160 9999 SCT049 BKN068 15/09 Q1011=
202205231150 METAR ESMX 231150Z 13006KT 070V150 9999 SCT030 15/09 Q1011=
202205231120 METAR ESMX 231120Z 16006KT 110V180 9999 SCT030 16/08 Q1012=
202205231050 METAR ESMX 231050Z 16007KT 120V210 CAVOK 17/09 Q1012=
202205231020 METAR ESMX 231020Z 16008KT 110V190 9999 SCT027 BKN064 16/09 Q1012=
202205230950 METAR ESMX 230950Z 16006KT 9999 FEW026 BKN057 14/09 Q1012=
202205230920 METAR ESMX 230920Z 16005KT 110V200 9999 BKN028 14/10 Q1012=
202205230850 METAR ESMX 230850Z 14006KT 090V180 9999 FEW018 BKN044 15/10 Q1012=
202205230820 METAR ESMX 230820Z 15006KT 100V190 9999 SCT017 BKN038 15/11 Q1013=
202205230750 METAR ESMX 230750Z 14005KT 070V200 9999 BKN011 13/10 Q1013=
202205230720 METAR COR ESMX 230720Z 17005KT 9999 BKN009 13/10 Q1013=
202205230650 METAR ESMX 230650Z 16006KT 120V200 9999 BKN008 12/11 Q1013=
202205230620 METAR ESMX 230620Z 16004KT 9999 OVC006 11/11 Q1013=
202205230550 METAR ESMX 230550Z 15003KT 100V170 9999 OVC003 11/11 Q1013=
202205230520 METAR ESMX 230520Z 15003KT 5000 BR OVC001 10/10 Q1013=
202205230450 METAR ESMX 230450Z VRB03KT 0250 R01/0450N R19/0700N FG VV002 10/10 Q1013=
202205230420 METAR ESMX 230420Z 15003KT 0150 R01/0325N R19/0325N FG VV002 09/09 Q1013=
202205230350 METAR ESMX 230350Z VRB03KT 0100 R01/0300N R19/0325N FG VV001 09/09 Q1013=
202205230320 METAR ESMX 230320Z AUTO 15003KT 0150 R01/0350N R19/0375N FG VV001 09/09 Q1013=
202205230250 METAR ESMX 230250Z AUTO 16003KT 0100 R01/0375N R19/0325N FG VV001 09/09 Q1013=
202205230220 METAR ESMX 230220Z AUTO VRB02KT 0100 R01/0375N R19/0325N FG VV001 09/09 Q1013=
202205230150 METAR ESMX 230150Z AUTO 16002KT 0100 R01/0375N R19/P2000N FG BKN001/// 08/08 Q1013=
202205230120 METAR ESMX 230120Z AUTO 16003KT 0100 R01/1100U R19/0450N BCFG SCT078/// 08/08 Q1013=
202205230050 METAR ESMX 230050Z AUTO 00000KT 0400 R01/P2000N R19/1100N BCFG OVC078/// 09/09 Q1013=
202205230020 METAR ESMX 230020Z AUTO 16002KT 0300 R01/P2000N R19/0650N BCFG OVC080/// 09/09 Q1013=
202205222350 METAR ESMX 222350Z AUTO 16003KT 5000 FEW002/// OVC078/// 09/09 Q1014=
202205222320 METAR ESMX 222320Z AUTO 16002KT 1000 R01/1600U R19/P2000N BCFG OVC076/// 09/09 Q1014=
202205222250 METAR ESMX 222250Z AUTO 16002KT 0250 R01/1500U R19/1000U FG BKN078/// 08/08 Q1014=
202205222220 METAR ESMX 222220Z AUTO 13002KT 0250 R01/0600N R19/P2000N BCFG BKN005/// 09/09 Q1014=
202205222150 METAR ESMX 222150Z 00000KT 0500 R19/0500N BCFG NSC 08/08 Q1014=
202205222120 METAR ESMX 222120Z 00000KT 9000 BKN049 10/10 Q1014=
202205222050 METAR ESMX 222050Z 26003KT 9999 -RA SCT045 10/10 Q1014=
202205222020 METAR ESMX 222020Z 16003KT CAVOK 11/11 Q1013=
202205221950 METAR ESMX 221950Z VRB02KT CAVOK 11/11 Q1013=
202205221920 METAR ESMX 221920Z 18004KT 9999 FEW008 11/11 Q1013=
202205221850 METAR ESMX 221850Z 19004KT 9999 FEW008 11/11 Q1013=
202205221820 METAR ESMX 221820Z VRB01KT 9999 FEW008 13/11 Q1013=
202205221750 METAR ESMX 221750Z 00000KT 9999 FEW010 BKN049 12/11 Q1013 RERA=
202205221720 METAR ESMX 221720Z 00000KT 9999 SCT045 12/11 Q1013=
202205221650 METAR ESMX 221650Z 05001KT 9999 SCT037 12/11 Q1013=
202205221620 METAR ESMX 221620Z 04002KT 9999 -SHRA FEW015 SCT030 13/10 Q1013=
202205221550 METAR ESMX 221550Z 06004KT 020V080 9999 VCSH FEW037 BKN047 13/09 Q1013=
202205221520 METAR ESMX 221520Z 05005KT 9999 FEW029 SCT045 13/09 Q1013=
202205221450 METAR ESMX 221450Z 04005KT 9999 FEW025 13/10 Q1013=
202205221420 METAR ESMX 221420Z 36005KT 330V050 9999 FEW015 13/09 Q1014=
202205221350 METAR ESMX 221350Z 01005KT 9999 SCT025 14/11 Q1013=
202205221320 METAR ESMX 221320Z VRB02KT 9999 VCSH SCT024 13/10 Q1014=
202205221250 METAR ESMX 221250Z 08003KT 020V110 9999 VCSH SCT032 13/10 Q1013=
202205221220 METAR ESMX 221220Z 03006KT 9999 FEW005 BKN025CB 12/11 Q1013=
202205221150 METAR ESMX 221150Z 12003KT 9999 BKN024 13/08 Q1013=
202205221120 METAR ESMX 221120Z VRB04KT 9999 SCT022 BKN030 14/08 Q1013=
202205221050 METAR ESMX 221050Z 33004KT 290V050 9999 SCT022 BKN061 13/08 Q1013=
202205221020 METAR ESMX 221020Z VRB03KT 9999 SCT017 BKN064 14/08 Q1013=
202205220950 METAR ESMX 220950Z 27004KT 250V310 9999 FEW017 BKN059 13/09 Q1013=
202205220920 METAR ESMX 220920Z 27003KT 9999 FEW016 BKN031 12/10 Q1013=
202205220850 METAR ESMX 220850Z 28003KT 230V300 9999 FEW017 BKN035 12/09 Q1013=
202205220820 METAR ESMX 220820Z VRB02KT 9999 SCT014 BKN020 12/09 Q1013=
202205220750 METAR COR ESMX 220750Z 01003KT 290V060 9999 FEW011 SCT016 BKN037 12/08 Q1013=
202205220720 METAR ESMX 220720Z VRB03KT 9999 FEW008 BKN010 11/09 Q1013=
202205220650 METAR ESMX 220650Z 25003KT 210V300 9999 FEW006 BKN010 11/10 Q1013=
202205220620 METAR ESMX 220620Z 28003KT 9999 FEW004 BKN007 10/09 Q1013=
202205220550 METAR ESMX 220550Z 26003KT 9999 BKN006 10/09 Q1013=
202205220520 METAR ESMX 220520Z AUTO VRB03KT 9999 FEW008/// OVC094/// 10/09 Q1013=
202205220450 METAR ESMX 220450Z AUTO VRB02KT 9999 OVC094/// 09/09 Q1013=
202205220420 METAR ESMX 220420Z AUTO 26003KT 230V290 9999 FEW031/// OVC094/// 09/09 Q1013=
202205220350 METAR ESMX 220350Z AUTO VRB02KT 9999 FEW023/// BKN030/// OVC090/// 09/09 Q1013=
202205220320 METAR ESMX 220320Z AUTO 26004KT 9999 OVC024/// 09/09 Q1013=
202205220250 METAR ESMX 220250Z AUTO 28003KT 9999 SCT014/// BKN019/// OVC026/// 09/09 Q1013=
202205220220 METAR ESMX 220220Z AUTO VRB02KT 9999 OVC026/// 09/09 Q1013=
202205220150 METAR ESMX 220150Z AUTO VRB02KT 9999 OVC029/// 09/09 Q1013=
202205220120 METAR ESMX 220120Z AUTO 27003KT 9999 OVC029/// 09/09 Q1013=
202205220050 METAR ESMX 220050Z AUTO 18005KT 160V250 9999 OVC031/// 08/08 Q1013=
202205220020 METAR ESMX 220020Z AUTO VRB01KT 9999 OVC029/// 08/08 Q1013=
202205212350 METAR ESMX 212350Z AUTO 25004KT 9999 SCT005/// OVC027/// 08/08 Q1013=
202205212320 METAR ESMX 212320Z AUTO 20003KT 9999 -DZ BKN023/// OVC029/// 08/08 Q1013=
202205212250 METAR ESMX 212250Z AUTO 09003KT 5000 +DZ ///031 08/08 Q1013=
202205212220 METAR ESMX 212220Z AUTO 33004KT 5000 -RA FEW003/// BKN008/// BKN025/// 09/09 Q1013=
202205212150 METAR ESMX 212150Z AUTO 31005KT 9999 -DZ FEW008/// BKN011/// BKN023/// 09/09 Q1013 REDZ=
202205212120 METAR ESMX 212120Z AUTO 29004KT 9999 BKN019/// OVC032/// 09/09 Q1013 REDZ=
202205212050 METAR ESMX 212050Z AUTO 30004KT 9999 SCT018/// BKN023/// OVC031/// 09/09 Q1013=
202205212020 METAR ESMX 212020Z AUTO 30004KT 9999 FEW024/// OVC033/// 09/09 Q1012=
202205211950 METAR ESMX 211950Z AUTO 30003KT 9999 DZ FEW009/// OVC040/// 09/09 Q1012 RERA=
202205211920 METAR ESMX 211920Z AUTO 29004KT 9999 OVC048/// 09/09 Q1012=
202205211850 METAR ESMX 211850Z AUTO 00000KT 9999 -RA FEW022/// BKN039/// OVC051/// 10/10 Q1012=
202205211820 METAR ESMX 211820Z AUTO VRB02KT 9999 -DZ SCT005/// BKN024/// OVC036/// 10/10 Q1011=
202205211750 METAR ESMX 211750Z 03005KT 9999 VCSH FEW002 BKN008 10/10 Q1011=
202205211720 METAR ESMX 211720Z 01006KT 9999 VCSH FEW008CB BKN020 10/10 Q1011=
202205211650 METAR ESMX 211650Z 31005KT 270V340 9999 VCSH FEW027CB SCT035 BKN041 11/10 Q1011=
202205211620 METAR COR ESMX 211620Z 31006KT 9999 VCSH FEW005 BKN028 11/10 Q1011=
202205211550 METAR ESMX 211550Z 27005KT 240V300 9999 -DZ FEW014 SCT023 BKN053 12/10 Q1010=
202205211520 METAR ESMX 211520Z 32008KT 9999 FEW010 SCT039 BKN050 12/09 Q1010=
202205211450 METAR ESMX 211450Z 31005KT 280V340 9999 -DZ SCT010 BKN022 11/10 Q1010=
202205211420 METAR ESMX 211420Z 33007KT 9999 -RA SCT008 BKN020 11/10 Q1010=
202205211350 METAR ESMX 211350Z 32006KT 290V350 9999 -RA SCT008 BKN017 11/10 Q1010=
202205211320 METAR ESMX 211320Z 31006KT 9999 DZ SCT006 BKN020 10/10 Q1010=
202205211250 METAR ESMX 211250Z 30006KT 9999 -RA SCT007 BKN037 11/10 Q1009=
202205211220 METAR ESMX 211220Z 28003KT 9999 -RA SCT006 BKN040 11/10 Q1009=
202205211150 METAR ESMX 211150Z VRB02KT 9999 -RA SCT006 BKN040 11/10 Q1009=
202205211120 METAR ESMX 211120Z AUTO 03003KT 9999 -RA BKN041/// OVC055/// 11/10 Q1009=
202205211050 METAR ESMX 211050Z 33003KT 280V010 9999 -RA SCT010 BKN036 10/10 Q1009=
202205211020 METAR ESMX 211020Z VRB02KT 9000 -RA SCT006 OVC024 10/10 Q1009=
202205210950 METAR ESMX 210950Z 34005KT 300V010 8000 -RA BKN006 09/09 Q1009=
202205210920 METAR ESMX 210920Z VRB03KT 7000 RA BKN005 10/10 Q1008=
202205210850 METAR ESMX 210850Z 32003KT 9999 RA BKN006 10/10 Q1008=
202205210820 METAR ESMX 210820Z 32003KT 290V010 8000 -RA SCT006 BKN009 10/10 Q1008=
202205210750 METAR ESMX 210750Z 34003KT 300V010 9999 -RA BKN006 10/10 Q1008=
202205210720 METAR ESMX 210720Z 33004KT 270V360 9999 -RA BKN005 10/09 Q1008=
202205210650 METAR ESMX 210650Z 36004KT 9999 -RA BKN006 10/10 Q1008=
202205210620 METAR ESMX 210620Z 02004KT 9999 -RA SCT005 BKN030 10/09 Q1008=
202205210550 METAR ESMX 210550Z 03003KT 9000 -RA BKN005 09/09 Q1008=
202205210520 METAR ESMX 210520Z AUTO 02003KT 9999 -RA OVC047/// 09/09 Q1008=
202205210450 METAR ESMX 210450Z AUTO VRB02KT 7000 RA SCT011/// OVC046/// 09/09 Q1008=
202205210420 METAR ESMX 210420Z AUTO 00000KT 9000 RA SCT006/// BKN010/// OVC046/// 09/09 Q1008 RESHRA=
202205210350 METAR ESMX 210350Z AUTO VRB02KT 6000 RA FEW005/// SCT008/// OVC048/// 09/09 Q1008=
202205210320 METAR ESMX 210320Z AUTO 11004KT 070V140 8000 +RA FEW007/// SCT035/// OVC048/// 10/09 Q1008 REDZ=
202205210250 METAR ESMX 210250Z AUTO 06006KT 020V090 9999 SCT009/// BKN012/// OVC036/// 10/09 Q1008=
202205210220 METAR ESMX 210220Z AUTO 05009KT 9999 -RA BKN011/// OVC036/// 10/09 Q1007=
202205210150 METAR ESMX 210150Z AUTO VRB05KT 9999 OVC010/// 11/09 Q1008=
202205210120 METAR ESMX 210120Z AUTO 06007KT 030V110 8000 BKN010/// BKN034/// 11/09 Q1008=
202205210050 METAR ESMX 210050Z AUTO 04007KT 350V080 9999 FEW010/// OVC031/// 11/09 Q1008=
202205210020 METAR ESMX 210020Z AUTO 05007KT 020V090 9999 OVC030/// 12/10 Q1008=
202205202350 METAR ESMX 202350Z AUTO 05005KT 010V110 9999 SCT010/// OVC029/// 12/10 Q1009=
202205202320 METAR ESMX 202320Z AUTO 10004KT 040V160 9999 BKN011/// OVC025/// 12/10 Q1009=
202205202250 METAR ESMX 202250Z AUTO 09005KT 050V120 9999 BKN012/// OVC023/// 12/10 Q1009=
202205202220 METAR ESMX 202220Z AUTO 10004KT 050V140 9999 SCT014/// BKN023/// BKN032/// 13/10 Q1010=
202205202150 METAR ESMX 202150Z AUTO 11005KT 050V140 9999 BKN019/// OVC024/// 13/11 Q1010=
202205202120 METAR ESMX 202120Z AUTO 16004KT 9999 SCT023/// BKN028/// BKN035/// 14/10 Q1010=
202205202050 METAR ESMX 202050Z AUTO 24002KT 9999 OVC025/// 14/10 Q1011=
202205202020 METAR ESMX 202020Z AUTO 00000KT 9999 BKN030/// BKN040/// 14/11 Q1011=
202205201950 METAR ESMX 201950Z AUTO 26002KT 9999 BKN034/// 14/10 Q1011=
202205201920 METAR ESMX 201920Z AUTO 00000KT 9999 BKN036/// OVC045/// 14/10 Q1012=
202205201850 METAR ESMX 201850Z 25004KT 210V300 9999 SCT042 15/10 Q1012=
202205201820 METAR ESMX 201820Z 26005KT CAVOK 16/10 Q1012=
202205201750 METAR ESMX 201750Z 26007KT CAVOK 16/10 Q1012=
202205201720 METAR ESMX 201720Z 27007KT 230V300 CAVOK 17/10 Q1012=
202205201650 METAR ESMX 201650Z 27008KT CAVOK 18/10 Q1012=
202205201620 METAR ESMX 201620Z AUTO 28008KT 250V320 9999 NCD 18/10 Q1012=
202205201550 METAR ESMX 201550Z 28009KT 230V300 CAVOK 19/11 Q1013=
202205201520 METAR ESMX 201520Z 28008KT 250V310 CAVOK 19/10 Q1013=
202205201450 METAR ESMX 201450Z 28010KT 9999 BKN044 19/10 Q1013=
202205201420 METAR ESMX 201420Z 31007KT 270V340 9999 SCT038 BKN051 19/10 Q1013=
202205201350 METAR ESMX 201350Z 30008KT 260V340 9999 FEW037 BKN051 19/10 Q1014=
202205201320 METAR ESMX 201320Z 27009KT 220V320 9999 BKN038 18/10 Q1014=
202205201250 METAR ESMX 201250Z 28012KT 250V320 9999 BKN035 17/09 Q1014=
202205201220 METAR ESMX 201220Z 29010KT 9999 SCT029 BKN037 17/10 Q1014=
202205201150 METAR ESMX 201150Z 30011KT 260V330 9999 FEW030 BKN038 16/10 Q1014=
202205201120 METAR ESMX 201120Z 28011KT 250V310 9999 BKN031 17/11 Q1014=
202205201050 METAR ESMX 201050Z 27011KT 240V310 9999 BKN033 17/09 Q1014=
202205201020 METAR ESMX 201020Z 29009KT 250V310 9999 BKN034 17/10 Q1014=
202205200950 METAR ESMX 200950Z 29011KT 9999 BKN034 17/09 Q1014=
202205200920 METAR ESMX 200920Z 28012KT 9999 BKN030 17/10 Q1014=
202205200850 METAR ESMX 200850Z 29009KT 250V320 9999 BKN029 17/10 Q1014=
202205200820 METAR ESMX 200820Z 31008KT 260V340 9999 BKN026 16/10 Q1014=
202205200750 METAR ESMX 200750Z 28008KT 250V320 9999 BKN025 15/10 Q1014=
202205200720 METAR ESMX 200720Z 28009KT 250V310 9999 BKN026 15/09 Q1014=
202205200650 METAR ESMX 200650Z 28008KT 250V310 CAVOK 15/09 Q1014=
202205200620 METAR ESMX 200620Z 27009KT 240V310 9999 FEW022 14/09 Q1014=
202205200550 METAR ESMX 200550Z 28007KT 9999 FEW022 SCT035 13/10 Q1014=
202205200520 METAR ESMX 200520Z 30007KT 9999 BKN023 12/10 Q1013=
202205200450 METAR ESMX 200450Z 28005KT 9999 FEW027 BKN037 13/10 Q1013=
202205200420 METAR ESMX 200420Z 30006KT 9999 FEW016 SCT033 BKN049 12/10 Q1013=
202205200350 METAR ESMX 200350Z 29006KT 9999 FEW016 SCT053 12/10 Q1013=
202205200320 METAR ESMX 200320Z AUTO 29005KT 9999 FEW032/// 11/10 Q1013=
202205200250 METAR ESMX 200250Z AUTO 31005KT 9999 NCD 11/10 Q1013=
202205200220 METAR ESMX 200220Z AUTO 30005KT 9999 FEW100/// 11/10 Q1013=
202205200150 METAR ESMX 200150Z AUTO 29003KT 9999 OVC100/// 12/10 Q1013=
202205200120 METAR ESMX 200120Z AUTO VRB02KT 9999 BKN080/// 12/11 Q1013=
202205200050 METAR ESMX 200050Z AUTO 25003KT 9999 SCT057/// BKN076/// 12/11 Q1013 RERA=
202205200020 METAR ESMX 200020Z AUTO 25004KT 210V290 9999 BKN082/// 12/11 Q1014 REDZ=
202205192350 METAR ESMX 192350Z 26004KT CAVOK 13/11 Q1014=
202205192320 METAR ESMX 192320Z AUTO 35003KT 9999 FEW051/// OVC098/// 12/11 Q1014=
202205192250 METAR ESMX 192250Z AUTO 00000KT 9999 OVC100/// 12/10 Q1013=
202205192220 METAR ESMX 192220Z AUTO 00000KT 9999 BKN110/// 12/10 Q1013=
202205192150 METAR ESMX 192150Z AUTO 00000KT 9999 BKN110/// 12/10 Q1014=
202205192120 METAR ESMX 192120Z AUTO 00000KT 9999 FEW042/// SCT051/// 12/10 Q1014=
202205192050 METAR ESMX 192050Z AUTO 00000KT 9999 SCT044/// 12/09 Q1014=
202205192020 METAR ESMX 192020Z 35003KT 9999 FEW037 SCT051 14/10 Q1014=
202205191950 METAR COR ESMX 191950Z 31004KT 9999 SCT040 14/09 Q1015=
202205191920 METAR ESMX 191920Z AUTO 33006KT 9999 FEW044/// SCT062/// 15/09 Q1015=
202205191850 METAR ESMX 191850Z 31004KT CAVOK 17/09 Q1015=
202205191820 METAR ESMX 191820Z 31004KT 9999 FEW035 BKN064 18/09 Q1015=
202205191750 METAR ESMX 191750Z 26006KT 9999 -SHRA FEW035 BKN064 21/09 Q1015=
202205191720 METAR COR ESMX 191720Z 25003KT 9999 -SHRA FEW033 BKN074 21/10 Q1015=
202205191650 METAR ESMX 191650Z 21005KT CAVOK 22/09 Q1015=
202205191620 METAR ESMX 191620Z 21006KT CAVOK 23/08 Q1015=
202205191550 METAR ESMX 191550Z 23007KT CAVOK 23/07 Q1015=
202205191520 METAR ESMX 191520Z 24008KT CAVOK 24/07 Q1015=
202205191450 METAR ESMX 191450Z 23010KT 210V280 CAVOK 25/07 Q1015=
202205191420 METAR ESMX 191420Z 24008KT 200V280 CAVOK 24/09 Q1016=
202205191350 METAR ESMX 191350Z 25009KT 220V290 CAVOK 24/10 Q1016=
202205191320 METAR ESMX 191320Z 26010KT CAVOK 24/10 Q1016=
202205191250 METAR ESMX 191250Z 25011KT 210V280 CAVOK 25/09 Q1016=
202205191220 METAR ESMX 191220Z 22010KT CAVOK 25/11 Q1016=
202205191150 METAR ESMX 191150Z AUTO 22010KT 190V260 9999 FEW160/// 24/13 Q1016=
202205191120 METAR ESMX 191120Z 21010KT CAVOK 24/13 Q1016=
202205191050 METAR ESMX 191050Z 22011KT CAVOK 23/13 Q1017=
202205191020 METAR ESMX 191020Z 21010KT CAVOK 23/14 Q1017=
202205190950 METAR ESMX 190950Z 17007KT 120V210 CAVOK 22/14 Q1017=
202205190920 METAR ESMX 190920Z 19009KT 170V230 CAVOK 20/13 Q1017=
202205190850 METAR ESMX 190850Z 16006KT CAVOK 18/13 Q1017=
202205190820 METAR ESMX 190820Z VRB05KT CAVOK 16/12 Q1018=
202205190750 METAR ESMX 190750Z 17006KT 120V200 CAVOK 15/11 Q1018=
202205190720 METAR ESMX 190720Z 15006KT CAVOK 15/10 Q1018=
202205190650 METAR ESMX 190650Z 15004KT 120V190 CAVOK 14/10 Q1019=
202205190620 METAR ESMX 190620Z 15004KT 100V190 CAVOK 13/09 Q1019=
202205190550 METAR ESMX 190550Z 15003KT 090V210 CAVOK 12/08 Q1019 RERA=
202205190520 METAR ESMX 190520Z AUTO 18004KT 9999 FEW042/// SCT059/// BKN076/// 12/07 Q1019=
202205190450 METAR ESMX 190450Z AUTO VRB02KT 9999 FEW068/// SCT110/// 11/07 Q1019=
202205190420 METAR ESMX 190420Z AUTO 18002KT 9999 BKN068/// BKN086/// 10/06 Q1020=
202205190350 METAR ESMX 190350Z AUTO 00000KT 9999 FEW066/// BKN086/// 09/06 Q1020=
202205190320 METAR ESMX 190320Z AUTO 00000KT 9999 FEW088/// BKN100/// 08/05 Q1020=
202205190250 METAR ESMX 190250Z AUTO VRB02KT 9999 NCD 07/05 Q1020=
202205190220 METAR ESMX 190220Z AUTO 00000KT 9999 NCD 08/05 Q1020=
202205190150 METAR ESMX 190150Z AUTO VRB03KT 9999 SCT100/// 09/04 Q1020=
202205190120 METAR ESMX 190120Z AUTO VRB02KT 9999 BKN096/// 09/04 Q1021=
202205190050 METAR ESMX 190050Z AUTO 18002KT 9999 BKN098/// 09/04 Q1021=
202205190020 METAR ESMX 190020Z AUTO 18002KT 9999 BKN098/// 09/04 Q1021=
202205182350 METAR ESMX 182350Z 18003KT CAVOK 09/03 Q1022=
202205182320 METAR ESMX 182320Z 18004KT CAVOK 10/03 Q1022=
202205182250 METAR ESMX 182250Z AUTO 16004KT 9999 FEW110/// 10/03 Q1022=
202205182220 METAR ESMX 182220Z AUTO 18004KT 9999 SCT110/// 10/04 Q1022=
202205182150 METAR ESMX 182150Z AUTO 18005KT 9999 BKN110/// 11/03 Q1022=
202205182120 METAR ESMX 182120Z 18005KT CAVOK 11/02 Q1023=
202205182050 METAR ESMX 182050Z AUTO 18006KT 9999 OVC120/// 12/03 Q1023=
202205182020 METAR ESMX 182020Z 18007KT CAVOK 12/03 Q1023=
202205181950 METAR ESMX 181950Z AUTO 18006KT 9999 BKN140/// 12/03 Q1023=
202205181920 METAR ESMX 181920Z 18007KT CAVOK 13/03 Q1023=
202205181850 METAR COR ESMX 181850Z 18008KT CAVOK 14/04 Q1023=
202205181820 METAR ESMX 181820Z 18008KT CAVOK 15/03 Q1023=
202205181750 METAR ESMX 181750Z 18008KT CAVOK 15/03 Q1023=
202205181720 METAR ESMX 181720Z 18010KT CAVOK 16/02 Q1023=
202205181650 METAR ESMX 181650Z 19009KT 150V210 CAVOK 17/01 Q1023=
202205181620 METAR ESMX 181620Z 18009KT 150V210 CAVOK 18/01 Q1023=
202205181550 METAR ESMX 181550Z 18010KT CAVOK 18/M00 Q1024=
202205181520 METAR ESMX 181520Z 20010KT CAVOK 18/M00 Q1024=
202205181450 METAR ESMX 181450Z 19009KT 150V230 CAVOK 19/M01 Q1024=
202205181420 METAR ESMX 181420Z 22008KT 190V250 CAVOK 18/00 Q1024=
202205181350 METAR ESMX 181350Z 15008KT 110V190 CAVOK 17/01 Q1024=
202205181320 METAR ESMX 181320Z 16009KT 120V210 CAVOK 17/01 Q1025=
202205181250 METAR ESMX 181250Z 17008KT 120V200 CAVOK 18/01 Q1025=
202205181220 METAR ESMX 181220Z 16009KT 120V200 CAVOK 17/01 Q1025=
202205181150 METAR ESMX 181150Z 17008KT 120V200 CAVOK 17/01 Q1026=
202205181120 METAR ESMX 181120Z 15008KT 120V190 CAVOK 16/02 Q1026=
202205181050 METAR ESMX 181050Z 18008KT 140V220 CAVOK 16/01 Q1026=
202205181020 METAR ESMX 181020Z 18008KT 120V210 CAVOK 16/02 Q1027=
202205180950 METAR ESMX 180950Z 17008KT 140V210 CAVOK 15/02 Q1027=
202205180920 METAR ESMX 180920Z 17008KT 120V190 CAVOK 15/03 Q1027=
202205180850 METAR ESMX 180850Z 19007KT CAVOK 14/03 Q1027=
202205180820 METAR ESMX 180820Z 17007KT CAVOK 13/03 Q1028=
202205180750 METAR ESMX 180750Z 17008KT CAVOK 13/03 Q1028=
202205180720 METAR ESMX 180720Z 19008KT CAVOK 12/03 Q1028=
202205180650 METAR ESMX 180650Z 19007KT 160V220 CAVOK 11/02 Q1028=
202205180620 METAR ESMX 180620Z 20008KT CAVOK 10/02 Q1028=
202205180550 METAR ESMX 180550Z AUTO 19006KT 9999 NCD 09/05 Q1028=
202205180520 METAR ESMX 180520Z AUTO 19006KT 9999 NCD 08/06 Q1028=
202205180450 METAR ESMX 180450Z AUTO 19006KT 9999 NCD 07/06 Q1028=
202205180420 METAR ESMX 180420Z AUTO 16005KT 9999 FEW004/// 06/05 Q1028=
202205180350 METAR ESMX 180350Z AUTO 16003KT 9999 NCD 02/02 Q1028=
202205180320 METAR ESMX 180320Z AUTO 16003KT 9999 NCD 02/02 Q1028=
202205180250 METAR ESMX 180250Z AUTO 16004KT 9999 NCD 01/00 Q1028=
202205180220 METAR ESMX 180220Z AUTO 16004KT 9999 NCD 02/02 Q1028=
202205180150 METAR ESMX 180150Z AUTO 16004KT 9999 NCD 01/M00 Q1028=
202205180120 METAR ESMX 180120Z AUTO 16003KT 9999 NCD 02/01 Q1028=
202205180050 METAR ESMX 180050Z AUTO 16004KT 9999 NCD 03/01 Q1028=
202205180020 METAR ESMX 180020Z AUTO 16004KT 9999 NCD 05/01 Q1028=
202205172350 METAR ESMX 172350Z AUTO 15004KT 9999 NCD 03/00 Q1028=
202205172320 METAR ESMX 172320Z AUTO 17003KT 9999 NCD 05/M00 Q1028=
202205172250 METAR ESMX 172250Z AUTO 16004KT 9999 NCD 07/M00 Q1028=
202205172220 METAR ESMX 172220Z AUTO 15005KT 9999 NCD 07/M01 Q1027=
202205172150 METAR ESMX 172150Z AUTO 15004KT 9999 NCD 07/M01 Q1027=
202205172120 METAR ESMX 172120Z AUTO 15005KT 090V160 9999 NCD 08/M01 Q1027=
202205172050 METAR ESMX 172050Z AUTO 16006KT 9999 NCD 09/M01 Q1027=
202205172020 METAR ESMX 172020Z 14007KT 100V170 CAVOK 10/M01 Q1027=
202205171950 METAR ESMX 171950Z 14007KT 110V170 CAVOK 11/M01 Q1027=
202205171920 METAR ESMX 171920Z AUTO 14006KT 9999 NCD 11/M00 Q1026=
202205171850 METAR ESMX 171850Z AUTO 14007KT 100V180 9999 NCD 12/01 Q1026=
202205171820 METAR ESMX 171820Z AUTO 14007KT 090V170 9999 NCD 13/02 Q1025=
202205171750 METAR ESMX 171750Z AUTO 16009KT 110V190 9999 NCD 14/M00 Q1025=
202205171720 METAR ESMX 171720Z AUTO 18009KT 140V210 9999 NCD 15/00 Q1024=
202205171650 METAR ESMX 171650Z AUTO 18010KT 9999 NCD 16/02 Q1024=
202205171620 METAR ESMX 171620Z AUTO 14006G18KT 030V200 9999 NCD 17/02 Q1024=
202205171550 METAR ESMX 171550Z AUTO 35006KT 320V020 9999 NCD 18/M04 Q1024=
202205171520 METAR ESMX 171520Z AUTO 03004KT 350V080 9999 NCD 18/M05 Q1024=
202205171450 METAR ESMX 171450Z AUTO 05006KT 010V100 9999 NCD 18/M04 Q1024=
202205171420 METAR ESMX 171420Z AUTO VRB05KT 9999 NCD 18/M05 Q1024=
202205171350 METAR ESMX 171350Z AUTO 36004KT 310V050 9999 NCD 18/M04 Q1024=
202205171320 METAR ESMX 171320Z 04007KT 010V080 CAVOK 18/M03 Q1024=
202205171250 METAR ESMX 171250Z 08003KT 030V140 CAVOK 18/M03 Q1024=
202205171220 METAR ESMX 171220Z 03007KT 350V070 CAVOK 17/M03 Q1024=
202205171150 METAR ESMX 171150Z 06007KT 010V120 CAVOK 17/M02 Q1024=
202205171120 METAR ESMX 171120Z VRB06KT CAVOK 17/M00 Q1024=
202205171050 METAR ESMX 171050Z 03006KT 340V090 CAVOK 17/M02 Q1024=
202205171020 METAR ESMX 171020Z 34006KT 300V030 CAVOK 16/M01 Q1024=
202205170950 METAR ESMX 170950Z 35005KT 290V060 CAVOK 16/M02 Q1024=
202205170920 METAR ESMX 170920Z 03006KT 360V070 CAVOK 15/M00 Q1024=
202205170850 METAR ESMX 170850Z 04004KT CAVOK 15/00 Q1024=
202205170820 METAR ESMX 170820Z 02004KT CAVOK 14/M01 Q1024=
202205170750 METAR ESMX 170750Z 02003KT 330V050 CAVOK 14/M00 Q1024=
202205170720 METAR ESMX 170720Z 01004KT CAVOK 13/03 Q1024=
202205170650 METAR ESMX 170650Z 04003KT CAVOK 12/03 Q1024=
202205170620 METAR COR ESMX 170620Z 01004KT 340V050 CAVOK 11/04 Q1024=
202205170550 METAR ESMX 170550Z AUTO VRB02KT 9999 NCD 10/03 Q1023=
202205170520 METAR ESMX 170520Z AUTO 00000KT 9999 NCD 10/04 Q1023=
202205170450 METAR ESMX 170450Z AUTO 00000KT 9999 NCD 08/05 Q1023=
202205170420 METAR ESMX 170420Z AUTO 00000KT 9999 NCD 03/03 Q1023=
202205170350 METAR ESMX 170350Z AUTO 00000KT 9999 BCFG NCD 01/01 Q1023=
202205170320 METAR ESMX 170320Z AUTO 00000KT 9999 NCD 00/00 Q1023=
202205170250 METAR ESMX 170250Z AUTO 00000KT 9999 NCD M00/M00 Q1023=
202205170220 METAR ESMX 170220Z AUTO 00000KT 9999 NCD 00/00 Q1023=
202205170150 METAR ESMX 170150Z AUTO 00000KT 9999 NCD M00/M00 Q1023=
202205170120 METAR ESMX 170120Z AUTO 00000KT 9999 NCD 01/01 Q1023=
202205170050 METAR ESMX 170050Z AUTO VRB02KT 9999 NCD 01/01 Q1023=
202205170020 METAR ESMX 170020Z AUTO 00000KT 9999 NCD 02/01 Q1023=
202205162350 METAR ESMX 162350Z 00000KT CAVOK 02/01 Q1022=
202205162320 METAR ESMX 162320Z AUTO 12002KT 9999 NCD 03/02 Q1022=
202205162250 METAR ESMX 162250Z AUTO 12002KT 9999 NCD 04/03 Q1022=
202205162220 METAR ESMX 162220Z AUTO VRB02KT 9999 NCD 06/03 Q1022=
202205162150 METAR ESMX 162150Z AUTO VRB02KT 9999 NCD 07/02 Q1022=
202205162120 METAR ESMX 162120Z AUTO 11003KT 9999 NCD 08/02 Q1022=
202205162050 METAR ESMX 162050Z AUTO 13003KT 9999 NCD 09/02 Q1022=
202205162020 METAR ESMX 162020Z VRB06KT CAVOK 10/02 Q1021=
202205161950 METAR ESMX 161950Z 11007KT 070V140 CAVOK 11/03 Q1021=
202205161920 METAR ESMX 161920Z AUTO 10005KT 050V150 9999 NCD 13/04 Q1021=
202205161850 METAR ESMX 161850Z AUTO 01009KT 9999 NCD 15/01 Q1020=
202205161820 METAR ESMX 161820Z AUTO 02009KT 9999 NCD 16/02 Q1020=
202205161750 METAR ESMX 161750Z AUTO 01004KT 9999 NCD 16/03 Q1020=
202205161720 METAR ESMX 161720Z AUTO 01005KT 9999 NCD 17/03 Q1019=
202205161650 METAR ESMX 161650Z AUTO 02006KT 360V070 9999 NCD 17/02 Q1020=
202205161620 METAR ESMX 161620Z 36007KT CAVOK 18/02 Q1020=
202205161550 METAR ESMX 161550Z 36007KT 9999 NSC 18/02 Q1020=
202205161520 METAR ESMX 161520Z 01007KT 340V040 CAVOK 18/03 Q1020=
202205161450 METAR ESMX 161450Z 34008KT 300V010 CAVOK 19/03 Q1020=
202205161420 METAR ESMX 161420Z AUTO 34009KT 9999 NCD 18/02 Q1020=
202205161350 METAR ESMX 161350Z 01009KT CAVOK 18/02 Q1020=
202205161320 METAR ESMX 161320Z 35008KT CAVOK 18/03 Q1020=
202205161250 METAR ESMX 161250Z 35007KT 320V030 CAVOK 19/03 Q1020=
202205161220 METAR ESMX 161220Z 32005KT 280V020 CAVOK 19/04 Q1021=
202205161150 METAR ESMX 161150Z AUTO 35006KT 310V020 9999 BKN072/// 17/02 Q1021=
202205161120 METAR ESMX 161120Z 02005KT 330V090 9999 FEW062 SCT160 17/03 Q1021=
202205161050 METAR ESMX 161050Z 36007KT CAVOK 18/03 Q1021=
202205161020 METAR ESMX 161020Z 02008KT 340V050 CAVOK 17/04 Q1021=
202205160950 METAR ESMX 160950Z 01007KT 320V050 9999 FEW059 18/04 Q1021=
202205160920 METAR ESMX 160920Z 03004KT 340V070 CAVOK 17/04 Q1021=
202205160850 METAR ESMX 160850Z AUTO 36004KT 300V070 9999 NCD 16/03 Q1021=
202205160820 METAR ESMX 160820Z 34004KT 310V050 CAVOK 15/03 Q1021=
202205160750 METAR ESMX 160750Z 34004KT 300V050 CAVOK 14/05 Q1021=
202205160720 METAR ESMX 160720Z 33005KT 300V010 CAVOK 13/05 Q1021=
202205160650 METAR ESMX 160650Z 01005KT 350V050 CAVOK 13/04 Q1021=
202205160620 METAR ESMX 160620Z 35005KT CAVOK 12/04 Q1021=
202205160550 METAR ESMX 160550Z 35005KT CAVOK 11/05 Q1021=
202205160520 METAR ESMX 160520Z 01004KT CAVOK 09/05 Q1021=
202205160450 METAR ESMX 160450Z 00000KT CAVOK 06/05 Q1021=
202205160420 METAR ESMX 160420Z 00000KT CAVOK 02/01 Q1021=
202205160350 METAR ESMX 160350Z 00000KT CAVOK 01/00 Q1021=
202205160320 METAR ESMX 160320Z AUTO 00000KT 9999 FEW150/// 02/02 Q1021=
202205160250 METAR ESMX 160250Z AUTO 19002KT 9999 FEW150/// 02/01 Q1021=
202205160220 METAR ESMX 160220Z AUTO 17001KT 9999 NCD 02/01 Q1021=
202205160150 METAR ESMX 160150Z AUTO 20002KT 9999 NCD 03/02 Q1020=
202205160120 METAR ESMX 160120Z AUTO 00000KT 9999 NCD 03/02 Q1020=
202205160050 METAR ESMX 160050Z AUTO 18002KT 9999 NCD 03/02 Q1020=
202205160020 METAR ESMX 160020Z AUTO 00000KT 9999 NCD 03/01 Q1020=
202205152350 METAR ESMX 152350Z AUTO 00000KT 9999 NCD 03/02 Q1020=
202205152320 METAR ESMX 152320Z AUTO 00000KT 9999 NCD 04/02 Q1020=
202205152250 METAR ESMX 152250Z AUTO 20003KT 9999 NCD 03/01 Q1020=
202205152220 METAR ESMX 152220Z AUTO 17002KT 9999 NCD 04/01 Q1020=
202205152150 METAR ESMX 152150Z AUTO 20001KT 9999 NCD 05/03 Q1020=
202205152120 METAR ESMX 152120Z AUTO 00000KT 9999 FEW080/// 06/02 Q1020=
202205152050 METAR ESMX 152050Z AUTO 21001KT 9999 OVC078/// 07/03 Q1020=
202205152020 METAR ESMX 152020Z AUTO 00000KT 9999 BKN078/// 07/01 Q1020=
202205151950 METAR ESMX 151950Z AUTO 02001KT 9999 NCD 10/01 Q1019=
202205151920 METAR ESMX 151920Z 03006KT CAVOK 14/M00 Q1019=
202205151850 METAR ESMX 151850Z 03007KT CAVOK 15/M01 Q1019=
202205151820 METAR ESMX 151820Z 02007KT CAVOK 16/M00 Q1018=
202205151750 METAR ESMX 151750Z 36008KT 340V040 CAVOK 17/M01 Q1018=
202205151720 METAR ESMX 151720Z 35008KT CAVOK 18/M01 Q1018=
202205151650 METAR ESMX 151650Z 31008KT 280V350 CAVOK 18/M01 Q1018=
202205151620 METAR COR ESMX 151620Z 32008KT 270V350 CAVOK 18/M01 Q1018=
202205151550 METAR ESMX 151550Z 33008KT 290V360 CAVOK 18/M01 Q1018=
202205151520 METAR ESMX 151520Z 34009KT 300V010 CAVOK 19/M00 Q1018=
202205151450 METAR ESMX 151450Z 32008KT 280V360 CAVOK 19/M00 Q1018=
202205151420 METAR COR ESMX 151420Z 33009KT 280V010 CAVOK 18/M00 Q1018=
202205151350 METAR ESMX 151350Z 32010KT 280V350 CAVOK 18/M00 Q1018=
202205151320 METAR ESMX 151320Z 32009KT 280V360 CAVOK 18/01 Q1018=
202205151250 METAR ESMX 151250Z 35008KT 320V030 CAVOK 17/01 Q1018=
202205151220 METAR ESMX 151220Z 33009KT 290V020 CAVOK 16/02 Q1018=
202205151150 METAR ESMX 151150Z 30012KT CAVOK 17/02 Q1018=
202205151120 METAR ESMX 151120Z 29010KT CAVOK 17/02 Q1018=
202205151050 METAR ESMX 151050Z 30008KT 260V340 CAVOK 17/02 Q1018=
202205151020 METAR ESMX 151020Z 31010KT 280V340 CAVOK 16/02 Q1018=
202205150950 METAR ESMX 150950Z 33010KT 290V010 CAVOK 15/01 Q1018=
202205150920 METAR ESMX 150920Z 31011KT 270V340 9999 FEW048 15/03 Q1018=
202205150850 METAR ESMX 150850Z AUTO 29011KT 9999 NCD 14/03 Q1018=
202205150820 METAR ESMX 150820Z AUTO 30010KT 260V340 9999 NCD 14/03 Q1018=
202205150750 METAR ESMX 150750Z AUTO 31009KT 280V340 9999 FEW033/// 13/05 Q1018=
202205150720 METAR ESMX 150720Z AUTO 32010KT 9999 SCT030/// 12/05 Q1018=
202205150650 METAR ESMX 150650Z AUTO 30007KT 260V340 9999 NCD 11/05 Q1018=
202205150620 METAR ESMX 150620Z AUTO 27008KT 250V310 9999 NCD 11/06 Q1017=
202205150550 METAR ESMX 150550Z AUTO 28009KT 9999 NCD 10/07 Q1017=
202205150520 METAR ESMX 150520Z AUTO 27008KT 9999 NCD 09/07 Q1017=
202205150450 METAR ESMX 150450Z AUTO 28008KT 240V300 9999 NCD 08/07 Q1017=
202205150420 METAR ESMX 150420Z AUTO 28007KT 9999 FEW007/// 08/07 Q1017=
202205150350 METAR ESMX 150350Z AUTO 28006KT 9999 FEW006/// 07/07 Q1016=
202205150320 METAR ESMX 150320Z AUTO 28007KT 240V300 9999 FEW007/// 07/07 Q1016=
202205150250 METAR ESMX 150250Z AUTO 27006KT 9999 NCD 06/06 Q1016=
202205150220 METAR ESMX 150220Z AUTO 27007KT 9999 NCD 06/06 Q1016=
202205150150 METAR ESMX 150150Z AUTO 27007KT 9999 NCD 06/06 Q1016=
202205150120 METAR ESMX 150120Z AUTO 26008KT 9999 NCD 06/06 Q1015=
202205150050 METAR ESMX 150050Z AUTO 26007KT 9999 NCD 07/06 Q1015=
202205150020 METAR ESMX 150020Z AUTO 26008KT 9999 NCD 07/06 Q1015=
202205142350 METAR ESMX 142350Z AUTO 27008KT 9999 NCD 07/06 Q1015=
202205142320 METAR ESMX 142320Z AUTO 26008KT 9999 NCD 08/06 Q1015=
202205142250 METAR ESMX 142250Z AUTO 26008KT 9999 NCD 08/06 Q1015=
202205142220 METAR ESMX 142220Z AUTO 26008KT 9999 NCD 08/05 Q1015=
202205142150 METAR ESMX 142150Z AUTO 26008KT 9999 NCD 08/05 Q1015=
202205142120 METAR ESMX 142120Z AUTO 25008KT 9999 NCD 08/04 Q1015=
202205142050 METAR ESMX 142050Z AUTO 25006KT 9999 NCD 08/04 Q1015=
202205142020 METAR ESMX 142020Z AUTO 25006KT 9999 NCD 09/03 Q1014=
202205141950 METAR ESMX 141950Z AUTO 26007KT 9999 NCD 10/03 Q1014=
202205141920 METAR ESMX 141920Z AUTO 26006KT 9999 NCD 10/03 Q1014=
202205141850 METAR ESMX 141850Z AUTO 27010KT 9999 NCD 11/02 Q1013=
202205141820 METAR ESMX 141820Z AUTO 27008KT 9999 NCD 11/02 Q1013=
202205141750 METAR ESMX 141750Z AUTO 27008KT 210V300 9999 NCD 12/01 Q1013=
202205141720 METAR ESMX 141720Z AUTO 27012KT 240V300 9999 NCD 12/02 Q1012=
202205141650 METAR ESMX 141650Z AUTO 27012KT 9999 NCD 13/01 Q1012=
202205141620 METAR ESMX 141620Z AUTO 28014KT 250V330 9999 NCD 14/01 Q1012=
202205141550 METAR ESMX 141550Z AUTO 29014G25KT 260V330 9999 FEW051/// 14/02 Q1012=
202205141520 METAR ESMX 141520Z AUTO 27013KT 240V300 9999 SCT051/// 14/02 Q1011=
202205141450 METAR ESMX 141450Z AUTO 27015G27KT 9999 BKN049/// 14/03 Q1011=
202205141420 METAR ESMX 141420Z AUTO 25014KT 210V280 9999 BKN048/// 14/03 Q1011=
202205141350 METAR ESMX 141350Z AUTO 26013G24KT 210V290 9999 OVC046/// 14/04 Q1010=
202205141320 METAR ESMX 141320Z AUTO 27015KT 9999 BKN045/// 14/04 Q1010=
202205141250 METAR ESMX 141250Z AUTO 26015KT 9999 SCT041/// 14/04 Q1010=
202205141220 METAR ESMX 141220Z AUTO 26013KT 9999 BKN040/// 14/05 Q1010=
202205141150 METAR ESMX 141150Z AUTO 27014KT 9999 FEW033/// OVC044/// 13/06 Q1010=
202205141120 METAR ESMX 141120Z AUTO 26015KT 220V300 9999 BKN030/// OVC042/// 12/06 Q1009=
202205141050 METAR ESMX 141050Z AUTO 26013G24KT 220V300 9999 SCT031/// OVC038/// 13/06 Q1009=
202205141020 METAR ESMX 141020Z AUTO 27013KT 9999 SCT027/// OVC040/// 12/06 Q1009=
202205140950 METAR ESMX 140950Z AUTO 26011KT 9999 BKN028/// OVC037/// 12/07 Q1009=
202205140920 METAR ESMX 140920Z AUTO 26011KT 240V300 9999 SCT023/// OVC032/// 11/08 Q1009=
202205140850 METAR ESMX 140850Z AUTO 27011KT 230V290 9999 OVC017/// 11/08 Q1008 REDZ=
202205140820 METAR ESMX 140820Z AUTO 26010KT 220V290 9999 SCT014/// BKN017/// OVC023/// 11/08 Q1008=
202205140750 METAR ESMX 140750Z AUTO 26010KT 220V280 9999 SCT015/// BKN018/// OVC029/// 11/08 Q1008 REDZ=
202205140720 METAR ESMX 140720Z AUTO 25011KT 220V280 9000 BKN016/// BKN027/// OVC033/// 10/08 Q1008=
202205140650 METAR ESMX 140650Z AUTO 25011KT 9999 BKN017/// BKN022/// OVC033/// 11/08 Q1007=
202205140620 METAR ESMX 140620Z AUTO 26012KT 9999 BKN016/// OVC024/// 11/08 Q1007=
202205140550 METAR ESMX 140550Z AUTO 25009KT 210V280 9999 BKN018/// BKN022/// OVC026/// 10/08 Q1007=
202205140520 METAR ESMX 140520Z AUTO 26010KT 220V280 9999 BKN016/// BKN022/// OVC029/// 10/08 Q1007=
202205140450 METAR ESMX 140450Z AUTO 26010KT 9999 BKN012/// OVC016/// 10/09 Q1006=
202205140420 METAR ESMX 140420Z AUTO 25010KT 9999 -DZ BKN011/// OVC044/// 10/09 Q1006 REDZ=
202205140350 METAR ESMX 140350Z AUTO 26012KT 9999 BKN009/// BKN016/// OVC040/// 10/09 Q1006=
202205140320 METAR ESMX 140320Z AUTO 25010KT 9000 BR SCT008/// BKN011/// BKN016/// 10/09 Q1006 REDZ=
202205140250 METAR ESMX 140250Z AUTO 24010KT 9999 BKN010/// OVC012/// 10/09 Q1006 REDZ=
202205140220 METAR ESMX 140220Z AUTO 23010KT 9999 OVC011/// 09/09 Q1006 RERA=
202205140150 METAR ESMX 140150Z AUTO 23009KT 9999 OVC014/// 09/09 Q1006=
202205140120 METAR ESMX 140120Z AUTO 21007KT 9999 BKN016/// OVC025/// 09/09 Q1006=
202205140050 METAR ESMX 140050Z AUTO 23008KT 9999 -RA SCT016/// BKN031/// BKN044/// 09/09 Q1007=
202205140020 METAR ESMX 140020Z AUTO 22009KT 9999 SCT012/// BKN017/// BKN047/// 09/09 Q1007=
202205132350 METAR ESMX 132350Z AUTO 21009KT 9999 BKN014/// BKN023/// OVC061/// 09/09 Q1007=
202205132320 METAR ESMX 132320Z AUTO 23008KT 9999 DZ FEW018/// OVC044/// 09/09 Q1007=
202205132250 METAR ESMX 132250Z AUTO 22010KT 9999 -RA SCT015/// BKN041/// OVC053/// 10/09 Q1008 REDZ=
202205132220 METAR ESMX 132220Z AUTO 22009KT 9999 FEW016/// BKN029/// BKN066/// 10/08 Q1008=
202205132150 METAR ESMX 132150Z AUTO 23010KT 210V280 9999 BKN016/// OVC074/// 10/08 Q1009=
202205132120 METAR ESMX 132120Z AUTO 23010KT 9999 SCT018/// BKN027/// BKN048/// 10/08 Q1009=
202205132050 METAR ESMX 132050Z AUTO 22010KT 9999 SCT018/// BKN039/// BKN048/// 10/08 Q1009 REDZ=
202205132020 METAR ESMX 132020Z AUTO 23010KT 9999 DZ SCT020/// OVC055/// 10/08 Q1009=
202205131950 METAR ESMX 131950Z AUTO 23009KT 9999 FEW024/// OVC064/// 11/07 Q1009=
202205131920 METAR ESMX 131920Z AUTO 24008KT 9999 OVC062/// 11/07 Q1009 REDZ=
202205131850 METAR ESMX 131850Z AUTO 23007KT 170V250 9999 OVC062/// 11/07 Q1009=
202205131820 METAR ESMX 131820Z 24008KT 9999 FEW031 12/06 Q1009=
202205131750 METAR ESMX 131750Z 23010KT 200V260 9999 FEW031 12/06 Q1009=
202205131720 METAR ESMX 131720Z 23010KT 9999 SCT034 13/06 Q1009=
202205131650 METAR ESMX 131650Z 25009KT 9999 SCT035 13/06 Q1009=
202205131620 METAR ESMX 131620Z 25010KT 210V310 9999 BKN037 13/05 Q1009=
202205131550 METAR ESMX 131550Z 26012KT 200V290 9999 SCT036 14/05 Q1009=
202205131520 METAR ESMX 131520Z 24010KT 9999 SCT033 13/06 Q1009=
202205131450 METAR ESMX 131450Z 24012KT 210V270 9999 SCT034 13/05 Q1009=
202205131420 METAR ESMX 131420Z 23009KT 9999 BKN032 12/06 Q1009=
202205131350 METAR ESMX 131350Z 23010KT 9999 BKN029 14/06 Q1009=
202205131320 METAR ESMX 131320Z 22011KT 190V250 9999 FEW026 SCT039 13/06 Q1009=
202205131250 METAR ESMX 131250Z 21009KT 9999 FEW035 BKN041 10/07 Q1010=
202205131220 METAR ESMX 131220Z 23012KT 9999 -RA FEW030 BKN045 11/06 Q1010=
202205131150 METAR ESMX 131150Z 24011KT 9999 BKN041 12/04 Q1009=
202205131120 METAR ESMX 131120Z 25010KT 210V280 9999 BKN042 13/04 Q1009=
202205131050 METAR ESMX 131050Z 27011KT 9999 BKN041 13/04 Q1009=
202205131020 METAR ESMX 131020Z AUTO 26011KT 230V290 9999 BKN037/// BKN046/// 14/04 Q1010=
202205130950 METAR ESMX 130950Z AUTO 24010KT 200V280 9999 SCT042/// 13/05 Q1010=
202205130920 METAR ESMX 130920Z 25012KT 9999 FEW028 BKN047 12/05 Q1010=
202205130850 METAR ESMX 130850Z 23009KT 200V270 9999 BKN029 10/05 Q1010=
202205130820 METAR ESMX 130820Z 23010KT 9999 SCT027 BKN041 10/05 Q1010=
202205130750 METAR ESMX 130750Z 23010KT 9999 BKN024 11/06 Q1010=
202205130720 METAR ESMX 130720Z 23011KT 190V250 9999 BKN020 10/06 Q1010=
202205130650 METAR ESMX 130650Z AUTO 24010KT 9999 BKN018/// BKN110/// 10/06 Q1010=
202205130620 METAR COR ESMX 130620Z 23009KT 9999 BKN016 09/06 Q1009=
202205130550 METAR COR ESMX 130550Z 22008KT 9999 BKN016 09/06 Q1009=
202205130520 METAR ESMX 130520Z 23008KT 180V260 9999 FEW015 SCT023 BKN038 09/06 Q1009=
202205130450 METAR ESMX 130450Z 23007KT 9999 FEW022 BKN039 08/06 Q1009=
202205130420 METAR ESMX 130420Z 23005KT 9999 SCT015 BKN021 08/06 Q1009=
202205130350 METAR COR ESMX 130350Z 22005KT 9999 BKN024 08/06 Q1009=
202205130320 METAR ESMX 130320Z AUTO 24006KT 9999 FEW019/// BKN049/// 07/06 Q1009=
202205130250 METAR ESMX 130250Z AUTO 24005KT 9999 OVC019/// 07/06 Q1009=
202205130220 METAR ESMX 130220Z AUTO 23005KT 180V280 9999 OVC020/// 07/06 Q1010=
202205130150 METAR ESMX 130150Z AUTO 22005KT 9999 BKN022/// BKN053/// 07/06 Q1010=
202205130120 METAR ESMX 130120Z AUTO 22006KT 9999 SCT021/// BKN026/// OVC053/// 07/06 Q1010=
202205130050 METAR ESMX 130050Z AUTO 23004KT 9999 FEW020/// OVC051/// 07/06 Q1010=
202205130020 METAR ESMX 130020Z AUTO 23005KT 9999 OVC047/// 07/06 Q1010=
202205122350 METAR ESMX 122350Z 23006KT 9999 FEW046 06/06 Q1010=
202205122320 METAR COR ESMX 122320Z 22005KT 9999 FEW025 06/05 Q1010=
202205122250 METAR ESMX 122250Z 22006KT CAVOK 07/06 Q1010=
202205122220 METAR ESMX 122220Z 22008KT 9999 FEW025 08/06 Q1009=
202205122150 METAR ESMX 122150Z 23006KT 9999 FEW025 08/05 Q1010=
202205122120 METAR ESMX 122120Z 25009KT CAVOK 09/05 Q1009=
202205122050 METAR ESMX 122050Z 25009KT 9999 SCT031 09/05 Q1009=
202205122020 METAR ESMX 122020Z 26010KT 220V290 9999 FEW035 10/05 Q1009=
202205121950 METAR ESMX 121950Z 25011KT 210V280 9999 SCT043 10/04 Q1009=
202205121920 METAR ESMX 121920Z AUTO 26010KT 230V290 9999 FEW040/// 11/05 Q1009=
202205121850 METAR ESMX 121850Z AUTO 24009KT 9999 FEW042/// SCT072/// 11/05 Q1009=
202205121820 METAR ESMX 121820Z 24011KT 9999 BKN043 12/05 Q1009=
202205121750 METAR ESMX 121750Z 24011KT 210V280 9999 BKN042 12/05 Q1009=
202205121720 METAR ESMX 121720Z 25012KT 220V290 9999 BKN044 12/04 Q1008=
202205121650 METAR ESMX 121650Z 25012KT 220V290 9999 BKN044 12/04 Q1008=
202205121620 METAR ESMX 121620Z 26015KT 9999 BKN042 12/04 Q1008=
202205121550 METAR ESMX 121550Z 26016G26KT 9999 -SHRA SCT041 12/04 Q1008=
202205121520 METAR ESMX 121520Z 26019G31KT 220V280 9999 VCSH SCT042 13/04 Q1008=
202205121450 METAR ESMX 121450Z 26013KT 230V300 9999 BKN040 14/05 Q1008=
202205121420 METAR ESMX 121420Z 26014KT 9999 BKN040 12/04 Q1008=
202205121350 METAR ESMX 121350Z 26010KT 200V290 9999 BKN034 12/06 Q1008=
202205121320 METAR ESMX 121320Z 25011KT 9999 BKN041 11/07 Q1008 RESHRA=
202205121250 METAR ESMX 121250Z 25014KT 9999 VCSH BKN043 12/05 Q1007=
202205121220 METAR ESMX 121220Z 25019G35KT 220V280 9999 BKN045 14/04 Q1007=
202205121150 METAR ESMX 121150Z 27016G31KT 230V290 9999 BKN040 14/04 Q1007=
202205121120 METAR ESMX 121120Z 25017KT 210V270 9999 BKN035 13/05 Q1006=
202205121050 METAR ESMX 121050Z 26016G27KT 230V290 9999 BKN032 14/06 Q1006=
202205121020 METAR ESMX 121020Z 26015G26KT 230V290 9999 BKN034 13/06 Q1005=
202205120950 METAR ESMX 120950Z 24014G25KT 210V270 9999 FEW025 BKN031 12/06 Q1005=
202205120920 METAR ESMX 120920Z 26015KT 220V290 9999 SCT027 12/06 Q1005=
202205120850 METAR ESMX 120850Z 28016KT 9999 BKN030 11/05 Q1004=
202205120820 METAR ESMX 120820Z 26015KT 220V300 9999 BKN026 11/05 Q1004=
202205120750 METAR ESMX 120750Z 26017KT 230V290 9999 BKN025 11/06 Q1003=
202205120720 METAR ESMX 120720Z 27015G25KT 250V310 9999 BKN022 11/07 Q1003=
202205120650 METAR ESMX 120650Z 25011KT 210V290 9999 SCT019 11/08 Q1003=
202205120620 METAR ESMX 120620Z 25010KT 220V280 9999 SCT015 11/08 Q1002=
202205120550 METAR ESMX 120550Z 27010KT 9999 SCT013 BKN020 09/08 Q1002=
202205120520 METAR ESMX 120520Z AUTO 26011KT 9999 SCT014/// BKN022/// 10/08 Q1002=
202205120450 METAR ESMX 120450Z AUTO 27010KT 240V300 9999 SCT013/// BKN018/// OVC030/// 09/08 Q1001=
202205120420 METAR ESMX 120420Z AUTO 26009KT 9999 FEW009/// BKN010/// BKN012/// 09/08 Q1001=
202205120350 METAR ESMX 120350Z AUTO 24008KT 190V270 9999 FEW007/// SCT011/// BKN016/// 09/09 Q1001 REDZ=
202205120320 METAR ESMX 120320Z AUTO 23007KT 9999 DZ FEW005/// SCT008/// BKN037/// 09/09 Q1001=
202205120250 METAR ESMX 120250Z AUTO 22007KT 190V250 9999 DZ BKN005/// OVC009/// 09/09 Q1001=
202205120220 METAR ESMX 120220Z AUTO 23008KT 9999 -RA OVC005/// 09/09 Q1001 REDZ=
202205120150 METAR ESMX 120150Z AUTO 22009KT 5000 +DZ FEW002/// OVC005/// 09/09 Q1001=
202205120120 METAR ESMX 120120Z AUTO 22009KT 7000 DZ OVC006/// 09/09 Q1001=
202205120050 METAR ESMX 120050Z AUTO 22008KT 9999 OVC008/// 09/09 Q1001=
202205120020 METAR ESMX 120020Z AUTO 22008KT 9999 OVC008/// 09/09 Q1001=
202205112350 METAR ESMX 112350Z 22008KT 9999 BKN006 09/09 Q1001=
202205112320 METAR ESMX 112320Z 23009KT 9999 OVC007 09/09 Q1002=
202205112250 METAR ESMX 112250Z 22009KT 9999 BKN007 09/09 Q1002=
202205112220 METAR ESMX 112220Z 22007KT 9999 -DZ BKN008 10/09 Q1002=
202205112150 METAR ESMX 112150Z 23008KT 9999 -DZ BKN008 10/10 Q1003=
202205112120 METAR ESMX 112120Z 23007KT 9999 DZ OVC009 10/10 Q1003=
202205112050 METAR ESMX 112050Z 23007KT 9999 -DZ BKN008 10/10 Q1003=
202205112020 METAR ESMX 112020Z 22008KT 9999 -DZ FEW007 BKN009 10/10 Q1004=
202205111950 METAR ESMX 111950Z 22008KT 9999 -DZ SCT010 BKN014 10/10 Q1004=
202205111920 METAR ESMX 111920Z 21009KT 9999 -DZ FEW014 OVC039 10/10 Q1004=
202205111850 METAR ESMX 111850Z 23009KT 9999 -DZ SCT017 OVC035 10/10 Q1004=
202205111820 METAR ESMX 111820Z 23008KT 9999 -RA FEW064 11/10 Q1004=
202205111750 METAR ESMX 111750Z 23007KT 9999 FEW039 11/10 Q1004=
202205111720 METAR ESMX 111720Z 22008KT 9999 -RA FEW025 BKN047 11/11 Q1004=
202205111650 METAR ESMX 111650Z 21009KT 9999 -RA FEW021 BKN045 11/10 Q1004=
202205111620 METAR COR ESMX 111620Z 24008KT 8000 SHRA BKN025 12/11 Q1004=
202205111550 METAR ESMX 111550Z 22012KT 9999 VCSH FEW035 BKN045 14/09 Q1004=
202205111520 METAR ESMX 111520Z 21010KT 190V250 9999 -SHRA BKN044 15/08 Q1004=
202205111450 METAR ESMX 111450Z 22013KT 9999 BKN044 16/05 Q1004=
202205111420 METAR ESMX 111420Z 21016KT 9999 SCT051 BKN080 16/05 Q1004=
202205111350 METAR ESMX 111350Z 20016KT 9999 -SHRA SCT047 BKN080 16/05 Q1004=
202205111320 METAR ESMX 111320Z 20016KT CAVOK 17/06 Q1005=
202205111250 METAR ESMX 111250Z 19015KT 9999 SCT047 BKN120 17/06 Q1005=
202205111220 METAR ESMX 111220Z 19014KT 9999 SCT044 BKN120 17/07 Q1006=
202205111150 METAR ESMX 111150Z 19013KT 170V230 9999 SCT043 17/07 Q1006=
202205111120 METAR ESMX 111120Z 19010KT 9999 BKN041 16/07 Q1007=
202205111050 METAR ESMX 111050Z 19011KT 9999 BKN035 16/07 Q1007=
202205111020 METAR COR ESMX 111020Z 20012KT 9999 BKN034 15/07 Q1007=
202205110950 METAR ESMX 110950Z 21012KT 170V250 9999 BKN032 15/07 Q1008=
202205110920 METAR ESMX 110920Z 21011KT 9999 BKN027 15/08 Q1008=
202205110850 METAR ESMX 110850Z 20012KT 9999 BKN027 15/09 Q1008=
202205110820 METAR ESMX 110820Z 22010KT 9999 BKN023 14/09 Q1008=
202205110750 METAR ESMX 110750Z 21011KT 9999 SCT021 BKN025 14/09 Q1008=
202205110720 METAR ESMX 110720Z 22008KT 190V250 9999 SCT019 BKN180 13/09 Q1008=
202205110650 METAR ESMX 110650Z 23009KT 9999 BKN016 12/09 Q1008=
202205110620 METAR ESMX 110620Z 22008KT 190V250 9999 FEW012 12/09 Q1008=
202205110550 METAR ESMX 110550Z 23006KT 9999 SCT010 10/08 Q1009=
202205110520 METAR COR ESMX 110520Z 24006KT 9999 SCT010 10/08 Q1009=
202205110450 METAR ESMX 110450Z AUTO 24006KT 9999 BKN011/// OVC013/// 09/08 Q1009=
202205110420 METAR ESMX 110420Z AUTO 23007KT 9999 BKN012/// 09/08 Q1008=
202205110350 METAR ESMX 110350Z AUTO 24006KT 9999 FEW017/// 08/08 Q1008=
202205110320 METAR ESMX 110320Z AUTO 25006KT 9999 FEW013/// BKN017/// BKN020/// 09/08 Q1008=
202205110250 METAR ESMX 110250Z AUTO 25005KT 9999 BKN017/// 09/08 Q1008=
202205110220 METAR ESMX 110220Z AUTO 22004KT 9999 BKN014/// 08/08 Q1008=
202205110150 METAR ESMX 110150Z AUTO 23006KT 9999 FEW015/// 09/08 Q1008=
202205110120 METAR ESMX 110120Z AUTO 24005KT 9999 FEW016/// 09/09 Q1008=
202205110050 METAR ESMX 110050Z AUTO 25006KT 9999 SCT016/// BKN036/// 10/09 Q1008=
202205110020 METAR ESMX 110020Z AUTO 24007KT 9999 SCT015/// OVC049/// 11/10 Q1008=
202205102350 METAR ESMX 102350Z 22008KT 9999 BKN015 11/10 Q1008=
202205102320 METAR ESMX 102320Z 24009KT 200V260 9999 BKN014 12/10 Q1008=
202205102250 METAR ESMX 102250Z 24010KT 210V270 9999 BKN014 12/11 Q1008=
202205102220 METAR ESMX 102220Z 20012KT 9999 BKN014 13/11 Q1008=
202205102150 METAR ESMX 102150Z 19015KT 9999 -RA FEW017 BKN037 13/11 Q1008=
202205102120 METAR ESMX 102120Z AUTO 18014KT 9999 OVC042/// 13/12 Q1008 RERA=
202205102050 METAR ESMX 102050Z 18011KT 9999 -RA BKN070 13/12 Q1008=
202205102020 METAR ESMX 102020Z 18011KT 9999 FEW039 BKN098 13/12 Q1009=
202205101950 METAR ESMX 101950Z 16008KT 9999 FEW040 BKN098 13/12 Q1009=
202205101920 METAR ESMX 101920Z AUTO 16010KT 9999 -DZ FEW015/// SCT055/// 13/12 Q1010=
202205101850 METAR ESMX 101850Z AUTO 19009KT 9999 -RA OVC055/// 13/12 Q1010=
202205101820 METAR ESMX 101820Z AUTO 19010KT 9999 -RA FEW044/// BKN055/// 13/12 Q1011 REDZ=
202205101750 METAR ESMX 101750Z AUTO 21008KT 9999 DZ FEW061/// 14/13 Q1011=
202205101720 METAR ESMX 101720Z AUTO 18006KT 9999 -DZ FEW066/// 14/13 Q1011=
202205101650 METAR ESMX 101650Z AUTO 19007KT 9999 -DZ FEW031/// 14/13 Q1011=
202205101620 METAR ESMX 101620Z 21003KT 9999 -DZ BKN036 BKN190 14/13 Q1012=
202205101550 METAR ESMX 101550Z 21004KT 9999 DZ BKN037 OVC051 14/13 Q1012=
202205101520 METAR ESMX 101520Z 19005KT 9999 -RA SCT044 BKN210 15/12 Q1012 REDZ=
202205101450 METAR ESMX 101450Z 21006KT 9999 FEW044 15/12 Q1013 REDZ=
202205101420 METAR ESMX 101420Z 22006KT 9999 DZ BKN041 15/11 Q1013=
202205101350 METAR ESMX 101350Z 18009KT 9999 DZ BKN047 16/09 Q1013=
202205101320 METAR ESMX 101320Z 18011KT CAVOK 18/07 Q1013=
202205101250 METAR ESMX 101250Z 17013KT 140V200 CAVOK 18/07 Q1013=
202205101220 METAR ESMX 101220Z 17013KT CAVOK 19/07 Q1014=
202205101150 METAR ESMX 101150Z 17013KT 120V200 CAVOK 20/06 Q1014=
202205101120 METAR ESMX 101120Z 17013KT 140V200 CAVOK 20/06 Q1015=
202205101050 METAR ESMX 101050Z 17014KT CAVOK 19/06 Q1015=
202205101020 METAR ESMX 101020Z 17014KT CAVOK 19/06 Q1015=
202205100950 METAR ESMX 100950Z 17012KT CAVOK 18/06 Q1016=
202205100920 METAR ESMX 100920Z 18010KT 150V210 CAVOK 18/06 Q1016=
202205100850 METAR ESMX 100850Z 17009KT 120V200 CAVOK 17/06 Q1017=
202205100820 METAR ESMX 100820Z 17010KT 140V200 CAVOK 16/06 Q1017=
202205100750 METAR COR ESMX 100750Z 17010KT 130V190 CAVOK 15/06 Q1017=
202205100720 METAR ESMX 100720Z 17010KT CAVOK 14/05 Q1018=
202205100650 METAR ESMX 100650Z 17009KT CAVOK 13/05 Q1018=
202205100620 METAR ESMX 100620Z AUTO 17007KT 9999 NCD 11/05 Q1019=
202205100550 METAR COR ESMX 100550Z 16007KT CAVOK 09/04 Q1019=
202205100520 METAR ESMX 100520Z AUTO 16007KT 9999 FEW190/// 08/03 Q1019=
202205100450 METAR ESMX 100450Z AUTO 15007KT 120V180 9999 NCD 07/03 Q1019=
202205100420 METAR ESMX 100420Z AUTO 15007KT 9999 NCD 07/02 Q1020=
202205100350 METAR ESMX 100350Z AUTO 15007KT 9999 NCD 06/02 Q1020=
202205100320 METAR ESMX 100320Z AUTO 15007KT 9999 NCD 06/01 Q1021=
202205100250 METAR ESMX 100250Z AUTO 15006KT 120V190 9999 NCD 05/01 Q1021=
202205100220 METAR ESMX 100220Z AUTO 16006KT 9999 NCD 06/01 Q1022=
202205100150 METAR ESMX 100150Z AUTO 16006KT 9999 NCD 06/00 Q1022=
202205100120 METAR ESMX 100120Z AUTO 15006KT 9999 NCD 05/00 Q1022=
202205100050 METAR ESMX 100050Z AUTO 16007KT 9999 NCD 06/M00 Q1023=
202205100020 METAR ESMX 100020Z 17005KT CAVOK 06/M01 Q1024=
202205092350 METAR ESMX 092350Z 16006KT CAVOK 06/M01 Q1024=
202205092320 METAR ESMX 092320Z 16004KT CAVOK 06/M02 Q1024=
202205092250 METAR ESMX 092250Z 15004KT CAVOK 06/M02 Q1024=
202205092220 METAR ESMX 092220Z 16005KT 120V190 CAVOK 07/M02 Q1025=
202205092150 METAR ESMX 092150Z 17006KT CAVOK 08/M03 Q1025=
202205092120 METAR ESMX 092120Z 16007KT CAVOK 08/M02 Q1025=
202205092050 METAR ESMX 092050Z 17007KT CAVOK 08/M02 Q1025=
202205092020 METAR ESMX 092020Z 17007KT CAVOK 09/M02 Q1025=
202205091950 METAR ESMX 091950Z 17008KT CAVOK 10/M01 Q1026=
202205091920 METAR ESMX 091920Z 18008KT CAVOK 11/M01 Q1026=
202205091850 METAR ESMX 091850Z 17009KT CAVOK 11/M01 Q1026=
202205091820 METAR ESMX 091820Z 16010KT CAVOK 12/M01 Q1026=
202205091750 METAR ESMX 091750Z 17012KT CAVOK 13/M01 Q1026=
202205091720 METAR ESMX 091720Z 16011KT 130V190 CAVOK 14/M00 Q1026=
202205091650 METAR COR ESMX 091650Z 17011KT 130V200 CAVOK 15/01 Q1026=
202205091620 METAR ESMX 091620Z 16010KT CAVOK 15/01 Q1026=
202205091550 METAR ESMX 091550Z 15011KT 120V190 CAVOK 16/02 Q1027=
202205091520 METAR ESMX 091520Z 16009KT 080V200 CAVOK 16/02 Q1027=
202205091450 METAR ESMX 091450Z 16010KT 120V200 CAVOK 17/01 Q1027=
202205091420 METAR ESMX 091420Z 16010KT 110V190 CAVOK 16/01 Q1028=
202205091350 METAR ESMX 091350Z 18011KT CAVOK 17/02 Q1028=
202205091320 METAR ESMX 091320Z 18010KT CAVOK 17/01 Q1028=
202205091250 METAR ESMX 091250Z 19013KT 150V220 CAVOK 17/00 Q1029=
202205091220 METAR ESMX 091220Z 19010KT 140V230 CAVOK 17/M00 Q1029=
202205091150 METAR ESMX 091150Z 19012KT 160V220 CAVOK 17/00 Q1029=
202205091120 METAR ESMX 091120Z 18012KT 140V210 CAVOK 16/00 Q1030=
202205091050 METAR ESMX 091050Z 20010KT 130V230 CAVOK 15/M00 Q1030=
202205091020 METAR ESMX 091020Z 17011KT CAVOK 15/01 Q1030=
202205090950 METAR ESMX 090950Z 19012KT 150V220 CAVOK 14/01 Q1031=
202205090920 METAR ESMX 090920Z 19010KT 160V220 CAVOK 14/01 Q1031=
202205090850 METAR ESMX 090850Z 18010KT CAVOK 13/01 Q1031=
202205090820 METAR ESMX 090820Z 19012KT CAVOK 12/01 Q1031=
202205090750 METAR ESMX 090750Z 19012KT 160V220 CAVOK 11/01 Q1031=
202205090720 METAR ESMX 090720Z 18012KT CAVOK 10/01 Q1031=
202205090650 METAR ESMX 090650Z AUTO 18011KT 9999 NCD 10/01 Q1031=
202205090620 METAR ESMX 090620Z 19009KT CAVOK 09/03 Q1031=
202205090550 METAR ESMX 090550Z AUTO 18008KT 140V210 9999 NCD 08/04 Q1031=
202205090520 METAR ESMX 090520Z 17007KT CAVOK 07/04 Q1031=
202205090450 METAR ESMX 090450Z 16005KT CAVOK 06/04 Q1031=
202205090420 METAR ESMX 090420Z 16004KT CAVOK 05/03 Q1031=
202205090350 METAR ESMX 090350Z 16004KT CAVOK 05/03 Q1031=
202205090320 METAR ESMX 090320Z AUTO 16004KT 9999 NCD 05/03 Q1031=
202205090250 METAR ESMX 090250Z AUTO 16005KT 9999 NCD 05/02 Q1031=
202205090220 METAR ESMX 090220Z AUTO 17005KT 9999 NCD 05/02 Q1031=
202205090150 METAR ESMX 090150Z AUTO 16006KT 9999 NCD 05/02 Q1031=
202205090120 METAR ESMX 090120Z AUTO 16006KT 9999 NCD 05/02 Q1031=
202205090050 METAR ESMX 090050Z AUTO 17004KT 9999 NCD 05/02 Q1031=
202205090020 METAR ESMX 090020Z AUTO 17004KT 9999 NCD 04/02 Q1031=
202205082350 METAR ESMX 082350Z AUTO 18004KT 9999 NCD 05/02 Q1031=
202205082320 METAR ESMX 082320Z AUTO 19003KT 9999 NCD 01/01 Q1031=
202205082250 METAR ESMX 082250Z AUTO 19002KT 9999 NCD 01/01 Q1030=
202205082220 METAR ESMX 082220Z AUTO 00000KT 9999 NCD 01/01 Q1030=
202205082150 METAR ESMX 082150Z AUTO 16002KT 9999 NCD 03/03 Q1030=
202205082120 METAR ESMX 082120Z AUTO 19002KT 9999 NCD 05/03 Q1030=
202205082050 METAR ESMX 082050Z AUTO 19004KT 9999 NCD 05/04 Q1030=
202205082020 METAR ESMX 082020Z AUTO 19005KT 9999 NCD 05/04 Q1030=
202205081950 METAR ESMX 081950Z 18005KT CAVOK 08/06 Q1029=
202205081920 METAR ESMX 081920Z 19005KT CAVOK 07/06 Q1029=
202205081850 METAR ESMX 081850Z 18005KT CAVOK 09/06 Q1029=
202205081820 METAR ESMX 081820Z 19008KT 9999 FEW032 10/06 Q1028=
202205081750 METAR ESMX 081750Z 19009KT 9999 FEW032 11/07 Q1028=
202205081720 METAR ESMX 081720Z 17007KT 9999 FEW032 SCT072 12/05 Q1027=
202205081650 METAR ESMX 081650Z 16007KT 9999 -DZ BKN032 BKN072 12/05 Q1027=
202205081620 METAR ESMX 081620Z 14005KT 040V170 9999 FEW016 SCT049 BKN078 12/04 Q1027=
202205081550 METAR ESMX 081550Z 14005KT 9999 FEW036 OVC051 13/04 Q1027=
202205081520 METAR ESMX 081520Z 09005KT 060V140 9999 FEW041 SCT057 BKN090 14/04 Q1027=
202205081450 METAR ESMX 081450Z 07006KT 020V110 9999 SCT045 BKN064 14/05 Q1026=
202205081420 METAR ESMX 081420Z 03007KT 340V080 9999 SCT044 BKN064 16/04 Q1026=
202205081350 METAR ESMX 081350Z 01007KT 340V060 9999 SCT044 BKN064 15/03 Q1026=
202205081320 METAR ESMX 081320Z 34006KT 320V020 9999 SCT044 BKN064 14/03 Q1026=
202205081250 METAR ESMX 081250Z 01006KT 330V060 9999 SCT039 BKN060 14/03 Q1026=
202205081220 METAR ESMX 081220Z 34005KT 250V020 9999 FEW029CB SCT059 14/05 Q1026=
202205081150 METAR ESMX 081150Z 36008KT 9999 FEW029CB BKN061 BKN220 13/04 Q1026=
202205081120 METAR ESMX 081120Z 31003KT 260V360 9999 FEW029CB BKN055 BKN220 13/04 Q1025=
202205081050 METAR ESMX 081050Z 35007KT 320V020 9999 -DZ FEW030CB BKN062 13/04 Q1025=
202205081020 METAR ESMX 081020Z 36007KT 9999 FEW041TCU BKN082 13/05 Q1025=
202205080950 METAR ESMX 080950Z 13005KT 070V150 9999 FEW032 BKN082 14/05 Q1025=
202205080920 METAR ESMX 080920Z 04004KT 010V080 9999 FEW032 14/06 Q1025=
202205080850 METAR ESMX 080850Z AUTO VRB03KT 9999 SCT076/// 12/06 Q1024=
202205080820 METAR ESMX 080820Z AUTO 05005KT 360V080 9999 BKN070/// 12/06 Q1024=
202205080750 METAR ESMX 080750Z AUTO 05005KT 020V110 9999 OVC070/// 12/07 Q1024=
202205080720 METAR ESMX 080720Z AUTO 05005KT 020V080 9999 SCT068/// 10/07 Q1024=
202205080650 METAR ESMX 080650Z AUTO 05006KT 020V090 9999 FEW010/// SCT033/// BKN074/// 09/06 Q1024=
202205080620 METAR ESMX 080620Z AUTO 02006KT 340V070 9999 SCT007/// BKN070/// 09/07 Q1023=
202205080550 METAR ESMX 080550Z AUTO 06004KT 9999 SCT066/// BKN190/// 08/06 Q1023=
202205080520 METAR ESMX 080520Z AUTO 10003KT 060V170 9999 SCT072/// 07/06 Q1022=
202205080450 METAR ESMX 080450Z AUTO 08002KT 9999 SCT070/// 07/07 Q1022=
202205080420 METAR ESMX 080420Z AUTO VRB01KT 9999 SCT061/// OVC072/// 05/05 Q1022=
202205080350 METAR ESMX 080350Z AUTO VRB02KT 9999 BKN057/// OVC068/// 04/04 Q1022=
202205080320 METAR ESMX 080320Z AUTO 00000KT 9999 BKN066/// 03/03 Q1021=
202205080250 METAR ESMX 080250Z AUTO 00000KT 9999 BKN062/// 04/04 Q1021=
202205080220 METAR ESMX 080220Z AUTO 00000KT 9999 BKN064/// 05/04 Q1021=
202205080150 METAR ESMX 080150Z AUTO VRB03KT 9999 SCT059/// 05/05 Q1021=
202205080120 METAR ESMX 080120Z AUTO 08003KT 9999 BKN061/// 06/05 Q1021=
202205080050 METAR ESMX 080050Z AUTO 00000KT 9999 BKN064/// 05/04 Q1021=
202205080020 METAR ESMX 080020Z AUTO 00000KT 9999 OVC061/// 05/04 Q1021=
202205072350 METAR ESMX 072350Z AUTO 27004KT 9999 BKN062/// 05/04 Q1020=
202205072320 METAR ESMX 072320Z AUTO 26002KT 9999 NCD 04/03 Q1020=
202205072250 METAR ESMX 072250Z AUTO 00000KT 9999 NCD 05/04 Q1020=
202205072220 METAR ESMX 072220Z AUTO 26003KT 9999 NCD 06/04 Q1020=
202205072150 METAR ESMX 072150Z AUTO 27003KT 9999 NCD 08/04 Q1020=
202205072120 METAR ESMX 072120Z AUTO 27005KT 9999 NCD 08/04 Q1020=
202205072050 METAR ESMX 072050Z AUTO 26005KT 9999 NCD 08/04 Q1019=
202205072020 METAR ESMX 072020Z AUTO 25005KT 9999 NCD 08/04 Q1019=
202205071950 METAR ESMX 071950Z AUTO 25005KT 9999 NCD 09/04 Q1019=
202205071920 METAR ESMX 071920Z AUTO 26006KT 9999 NCD 10/04 Q1019=
202205071850 METAR ESMX 071850Z AUTO 26007KT 9999 NCD 11/04 Q1018=
202205071820 METAR ESMX 071820Z AUTO 25006KT 9999 NCD 12/04 Q1018=
202205071750 METAR ESMX 071750Z AUTO 25008KT 9999 NCD 13/03 Q1018=
202205071720 METAR ESMX 071720Z AUTO 24008KT 9999 NCD 14/03 Q1018=
202205071650 METAR ESMX 071650Z AUTO 25009KT 9999 NCD 14/03 Q1018=
202205071620 METAR ESMX 071620Z AUTO 25009KT 9999 FEW051/// 14/03 Q1018=
202205071550 METAR ESMX 071550Z AUTO 25008KT 220V290 9999 SCT049/// 15/03 Q1018=
202205071520 METAR ESMX 071520Z AUTO 24009KT 200V280 9999 FEW046/// 14/04 Q1018=
202205071450 METAR ESMX 071450Z AUTO 24010KT 9999 FEW044/// 16/04 Q1017=
202205071420 METAR ESMX 071420Z AUTO 26010KT 230V290 9999 SCT038/// 15/05 Q1018=
202205071350 METAR ESMX 071350Z AUTO 26010KT 200V290 9999 BKN037/// 15/05 Q1018=
202205071320 METAR ESMX 071320Z AUTO 24011KT 210V280 9999 SCT035/// BKN043/// 14/06 Q1018=
202205071250 METAR ESMX 071250Z AUTO 25011KT 9999 OVC034/// 13/06 Q1018=
202205071220 METAR ESMX 071220Z AUTO 25012KT 9999 BKN028/// OVC036/// 13/06 Q1018=
202205071150 METAR ESMX 071150Z AUTO 28011KT 9999 OVC035/// 13/06 Q1018=
202205071120 METAR ESMX 071120Z AUTO 27012KT 230V300 9999 OVC032/// 14/06 Q1017=
202205071050 METAR ESMX 071050Z AUTO 27013KT 240V310 9999 OVC032/// 14/06 Q1017=
202205071020 METAR ESMX 071020Z AUTO 27014KT 220V290 9999 BKN033/// 14/06 Q1017=
202205070950 METAR ESMX 070950Z AUTO 26014KT 9999 BKN033/// 14/06 Q1017=
202205070920 METAR ESMX 070920Z AUTO 29011KT 260V330 9999 BKN030/// OVC036/// 13/07 Q1017=
202205070850 METAR ESMX 070850Z AUTO 27011KT 9999 FEW021/// OVC028/// 13/06 Q1017=
202205070820 METAR ESMX 070820Z AUTO 26012KT 9999 BKN021/// OVC029/// 12/08 Q1017=
202205070750 METAR ESMX 070750Z AUTO 24010KT 200V280 9999 BKN019/// BKN023/// OVC028/// 12/08 Q1017=
202205070720 METAR ESMX 070720Z AUTO 25012KT 230V290 9999 OVC017/// 12/09 Q1016=
202205070650 METAR ESMX 070650Z AUTO 24011KT 9999 OVC019/// 12/09 Q1016=
202205070620 METAR ESMX 070620Z AUTO 23009KT 200V260 9999 FEW008/// BKN013/// BKN018/// 11/10 Q1016=
202205070550 METAR ESMX 070550Z AUTO 25009KT 4200 DZ BKN006/// OVC009/// 10/10 Q1016 REDZ=
202205070520 METAR ESMX 070520Z AUTO 24010KT 4500 BR FEW002/// OVC007/// 11/10 Q1016=
202205070450 METAR ESMX 070450Z AUTO 23010KT 9999 OVC009/// 11/10 Q1016=
202205070420 METAR ESMX 070420Z AUTO 23009KT 9999 BKN009/// OVC020/// 11/10 Q1016=
202205070350 METAR ESMX 070350Z AUTO 21008KT 9999 SCT010/// OVC055/// 10/10 Q1016=
202205070320 METAR ESMX 070320Z AUTO 21007KT 9999 BKN057/// 10/10 Q1016=
202205070250 METAR ESMX 070250Z AUTO 22007KT 9999 FEW044/// SCT068/// 10/10 Q1016=
202205070220 METAR ESMX 070220Z AUTO 20007KT 9999 DZ BKN039/// OVC062/// 10/10 Q1016 REDZ=
202205070150 METAR ESMX 070150Z AUTO 21007KT 9999 SCT042/// OVC057/// 11/10 Q1017 REDZ=
202205070120 METAR ESMX 070120Z AUTO 20006KT 9999 BKN048/// OVC066/// 11/10 Q1017=
202205070050 METAR ESMX 070050Z AUTO 22006KT 9000 FEW032/// BKN051/// OVC064/// 11/10 Q1017 REDZ=
202205070020 METAR ESMX 070020Z AUTO 22006KT 9000 BR SCT032/// BKN046/// OVC066/// 10/10 Q1017=
202205062350 METAR ESMX 062350Z AUTO 22007KT 8000 BR FEW005/// SCT038/// BKN044/// 11/10 Q1018=
202205062320 METAR ESMX 062320Z AUTO 22006KT 9999 BKN043/// OVC066/// 11/09 Q1018=
202205062250 METAR ESMX 062250Z AUTO 22006KT 9999 OVC068/// 11/09 Q1018=
202205062220 METAR ESMX 062220Z AUTO 23006KT 9999 OVC064/// 11/09 Q1018=
202205062150 METAR ESMX 062150Z AUTO 23006KT 9999 OVC062/// 11/09 Q1018=
202205062120 METAR ESMX 062120Z AUTO 21005KT 9999 OVC062/// 11/08 Q1019=
202205062050 METAR ESMX 062050Z AUTO 22005KT 9999 SCT031/// OVC061/// 11/08 Q1019=
202205062020 METAR ESMX 062020Z AUTO 25005KT 9999 FEW020/// BKN031/// OVC062/// 11/08 Q1019=
202205061950 METAR ESMX 061950Z AUTO 26005KT 9999 BKN025/// 12/08 Q1019=
202205061920 METAR ESMX 061920Z AUTO 25005KT 9999 OVC029/// 12/08 Q1019=
202205061850 METAR ESMX 061850Z AUTO 24006KT 200V280 9999 OVC029/// 12/08 Q1019=
202205061820 METAR ESMX 061820Z AUTO 26008KT 9999 OVC028/// 13/07 Q1019=
202205061750 METAR ESMX 061750Z AUTO 26009KT 230V310 9999 OVC028/// 13/07 Q1019=
202205061720 METAR ESMX 061720Z AUTO 27009KT 9999 OVC030/// 13/07 Q1019=
202205061650 METAR ESMX 061650Z AUTO 27010KT 240V300 9999 BKN034/// 14/06 Q1019=
202205061620 METAR ESMX 061620Z AUTO 26010KT 230V300 9999 OVC035/// 14/06 Q1019=
202205061550 METAR ESMX 061550Z AUTO 27010KT 230V300 9999 FEW037/// 14/06 Q1019=
202205061520 METAR ESMX 061520Z AUTO 27012KT 240V300 9999 SCT037/// 15/06 Q1019=
202205061450 METAR ESMX 061450Z AUTO 26009KT 210V310 9999 SCT037/// 15/06 Q1020=
202205061420 METAR ESMX 061420Z AUTO 24011KT 210V280 9999 BKN038/// 16/06 Q1020=
202205061350 METAR ESMX 061350Z AUTO 26011KT 9999 BKN038/// 16/06 Q1020=
202205061320 METAR ESMX 061320Z AUTO 26012KT 230V290 9999 BKN038/// 17/06 Q1020=
202205061250 METAR ESMX 061250Z AUTO 26011KT 9999 OVC038/// 16/06 Q1020=
202205061220 METAR ESMX 061220Z AUTO 28011KT 9999 BKN037/// 15/06 Q1020=
202205061150 METAR ESMX 061150Z 25010KT 200V300 9999 BKN037 15/05 Q1020=
202205061120 METAR ESMX 061120Z 23011KT 200V280 9999 BKN037 14/05 Q1020=
202205061050 METAR ESMX 061050Z 28009KT 240V330 9999 BKN036 15/06 Q1020=
202205061020 METAR ESMX 061020Z 29010KT 230V320 9999 SCT033 14/05 Q1020=
202205060950 METAR ESMX 060950Z 23008KT 170V290 9999 SCT031 13/05 Q1020=
202205060920 METAR ESMX 060920Z 24009KT 9999 SCT029 13/05 Q1020=
202205060850 METAR ESMX 060850Z 22008KT 170V290 9999 SCT028 13/06 Q1020=
202205060820 METAR ESMX 060820Z 25008KT 220V290 9999 SCT026 13/05 Q1020=
202205060750 METAR ESMX 060750Z 28006KT 230V320 9999 SCT021 12/06 Q1020=
202205060720 METAR ESMX 060720Z 28006KT 230V320 9999 SCT017 11/05 Q1020=
202205060650 METAR ESMX 060650Z 28007KT 250V310 9999 BKN014 09/05 Q1020=
202205060620 METAR ESMX 060620Z 25006KT 210V320 9999 BKN013 09/06 Q1020=
202205060550 METAR ESMX 060550Z 26007KT 9999 BKN012 08/05 Q1020=
202205060520 METAR ESMX 060520Z 28006KT 230V300 9999 BKN013 07/05 Q1020=
202205060450 METAR ESMX 060450Z 24003KT 9999 BKN015 07/05 Q1020=
202205060420 METAR ESMX 060420Z 22004KT 9999 BKN016 06/05 Q1020=
202205060350 METAR ESMX 060350Z 22005KT 9999 SCT018 06/05 Q1020=
202205060320 METAR ESMX 060320Z AUTO 24003KT 9999 OVC017/// 06/05 Q1020=
202205060250 METAR ESMX 060250Z AUTO 25004KT 9999 OVC017/// 07/05 Q1020=
202205060220 METAR ESMX 060220Z AUTO 25003KT 9999 FEW019/// 06/05 Q1020=
202205060150 METAR ESMX 060150Z AUTO 26005KT 9999 NCD 06/04 Q1020=
202205060120 METAR ESMX 060120Z AUTO 27006KT 9999 FEW030/// 08/05 Q1020=
202205060050 METAR ESMX 060050Z AUTO 26006KT 9999 BKN030/// 08/07 Q1020=
202205060020 METAR ESMX 060020Z AUTO 26007KT 9999 OVC032/// 09/08 Q1020=
202205052350 METAR ESMX 052350Z 23004KT 9999 FEW013 BKN034 09/08 Q1020=
202205052320 METAR ESMX 052320Z 24005KT 9999 FEW014 BKN039 09/08 Q1020=
202205052250 METAR ESMX 052250Z 21006KT 9999 FEW016 BKN037 10/08 Q1020=
202205052220 METAR ESMX 052220Z 20005KT 9999 BKN036 10/08 Q1020=
202205052150 METAR ESMX 052150Z 22006KT 9999 BKN039 10/08 Q1020=
202205052120 METAR ESMX 052120Z 23005KT 9999 BKN039 11/08 Q1020=
202205052050 METAR ESMX 052050Z 22005KT 190V260 9999 BKN037 11/07 Q1020=
202205052020 METAR ESMX 052020Z 23005KT 9999 FEW024 BKN035 11/07 Q1019=
202205051950 METAR ESMX 051950Z 24005KT 9999 SCT026 BKN031 11/07 Q1019=
202205051920 METAR ESMX 051920Z AUTO 21004KT 9999 SCT029/// BKN049/// 10/06 Q1019=
202205051850 METAR ESMX 051850Z AUTO 27004KT 9999 BKN049/// 11/06 Q1019=
202205051820 METAR ESMX 051820Z 30009KT 9999 FEW032 12/06 Q1019=
202205051750 METAR ESMX 051750Z 27008KT 9999 SCT034 13/06 Q1019=
202205051720 METAR ESMX 051720Z 26011KT 9999 FEW036 SCT044 14/05 Q1018=
202205051650 METAR ESMX 051650Z 28009KT 9999 BKN042 14/05 Q1018=
202205051620 METAR ESMX 051620Z 27008KT 250V310 9999 BKN043 14/05 Q1018=
202205051550 METAR ESMX 051550Z 28009KT 9999 BKN046 15/05 Q1018=
202205051520 METAR ESMX 051520Z 27008KT 240V310 9999 BKN045 15/05 Q1018=
202205051450 METAR ESMX 051450Z 27010KT 240V300 9999 BKN047 15/05 Q1018=
202205051420 METAR ESMX 051420Z 29010KT 250V330 9999 SCT047 16/05 Q1018=
202205051350 METAR ESMX 051350Z 30008KT 260V340 CAVOK 16/04 Q1017=
202205051320 METAR ESMX 051320Z 25009KT CAVOK 17/03 Q1017=
202205051250 METAR ESMX 051250Z 25007KT 200V290 CAVOK 16/03 Q1017=
202205051220 METAR ESMX 051220Z 30009KT CAVOK 15/02 Q1018=
202205051150 METAR ESMX 051150Z 27008KT 230V310 CAVOK 16/02 Q1017=
202205051120 METAR ESMX 051120Z 24008KT 210V280 9999 SCT047 15/03 Q1018=
202205051050 METAR ESMX 051050Z 27008KT 210V310 9999 SCT043 15/04 Q1018=
202205051020 METAR ESMX 051020Z 22006KT 180V280 9999 BKN040 14/05 Q1018=
202205050950 METAR ESMX 050950Z 24009KT 9999 SCT035 14/04 Q1018=
202205050920 METAR ESMX 050920Z 26007KT 240V310 9999 FEW030 14/05 Q1018=
202205050850 METAR ESMX 050850Z 29007KT 250V330 CAVOK 13/05 Q1018=
202205050820 METAR ESMX 050820Z 29006KT 260V330 CAVOK 12/05 Q1018=
202205050750 METAR ESMX 050750Z AUTO 24006KT 210V280 9999 NCD 12/05 Q1018=
202205050720 METAR ESMX 050720Z 25005KT 220V290 CAVOK 11/06 Q1018=
202205050650 METAR ESMX 050650Z 23005KT CAVOK 10/06 Q1018=
202205050620 METAR ESMX 050620Z 24005KT CAVOK 08/05 Q1017=
202205050550 METAR ESMX 050550Z 23004KT 200V260 CAVOK 07/04 Q1017=
202205050520 METAR COR ESMX 050520Z 19004KT CAVOK 06/04 Q1017=
202205050450 METAR ESMX 050450Z AUTO 19002KT 9999 FEW100/// 04/02 Q1017=
202205050420 METAR ESMX 050420Z AUTO 18001KT 9999 NCD 01/01 Q1017=
202205050350 METAR ESMX 050350Z AUTO 15002KT 9999 SCT110/// 01/01 Q1017=
202205050320 METAR ESMX 050320Z AUTO 16002KT 9999 FEW110/// 01/00 Q1017=
202205050250 METAR ESMX 050250Z AUTO 00000KT 9999 FEW130/// 00/00 Q1017=
202205050220 METAR ESMX 050220Z AUTO 00000KT 9999 SCT130/// 00/00 Q1017=
202205050150 METAR ESMX 050150Z AUTO 00000KT 9999 BKN120/// 00/00 Q1017=
202205050120 METAR ESMX 050120Z AUTO 00000KT 9999 NCD 01/00 Q1017=
202205050050 METAR ESMX 050050Z AUTO 22001KT 9999 NCD 01/M00 Q1017=
202205050020 METAR ESMX 050020Z AUTO 15003KT 9999 FEW078/// 03/01 Q1017=
202205042350 METAR ESMX 042350Z 14004KT CAVOK 04/02 Q1018=
202205042320 METAR ESMX 042320Z 16003KT CAVOK 04/02 Q1018=
202205042250 METAR ESMX 042250Z 16004KT CAVOK 07/02 Q1018=
202205042220 METAR ESMX 042220Z 16004KT CAVOK 07/02 Q1018=
202205042150 METAR ESMX 042150Z 16004KT CAVOK 07/02 Q1018=
202205042120 METAR ESMX 042120Z 16004KT CAVOK 08/02 Q1018=
202205042050 METAR ESMX 042050Z 16005KT CAVOK 08/03 Q1018=
202205042020 METAR ESMX 042020Z 17006KT CAVOK 08/03 Q1018=
202205041950 METAR ESMX 041950Z 17006KT CAVOK 09/03 Q1018=
202205041920 METAR ESMX 041920Z 16006KT CAVOK 09/03 Q1017=
202205041850 METAR ESMX 041850Z 18006KT CAVOK 10/02 Q1017=
202205041820 METAR ESMX 041820Z 17007KT CAVOK 11/02 Q1017=
202205041750 METAR ESMX 041750Z 18011KT CAVOK 11/02 Q1017=
202205041720 METAR ESMX 041720Z 19011KT CAVOK 12/03 Q1017=
202205041650 METAR ESMX 041650Z 17009KT 140V210 CAVOK 12/02 Q1017=
202205041620 METAR ESMX 041620Z 17009KT 140V210 CAVOK 13/02 Q1017=
202205041550 METAR ESMX 041550Z 17010KT 140V200 CAVOK 14/01 Q1017=
202205041520 METAR ESMX 041520Z 19011KT CAVOK 14/01 Q1017=
202205041450 METAR ESMX 041450Z 17011KT CAVOK 14/00 Q1017=
202205041420 METAR ESMX 041420Z 18012KT CAVOK 14/M01 Q1017=
202205041350 METAR ESMX 041350Z 17011KT 140V200 CAVOK 14/00 Q1018=
202205041320 METAR ESMX 041320Z 17009KT CAVOK 15/01 Q1018=
202205041250 METAR ESMX 041250Z 18008G20KT 150V230 CAVOK 15/00 Q1018=
202205041220 METAR ESMX 041220Z 17006KT 9999 FEW047 BKN066 14/01 Q1018=
202205041150 METAR ESMX 041150Z AUTO 15008KT 110V200 9999 SCT053/// BKN072/// 14/02 Q1018=
202205041120 METAR ESMX 041120Z 16009KT 130V200 9999 FEW045 BKN070 14/01 Q1018=
202205041050 METAR ESMX 041050Z 19011KT 140V220 9999 FEW045 SCT072 14/02 Q1019=
202205041020 METAR ESMX 041020Z 17009KT 110V210 CAVOK 14/02 Q1019=
202205040950 METAR ESMX 040950Z 16008KT CAVOK 13/02 Q1019=
202205040920 METAR ESMX 040920Z 16006KT CAVOK 12/04 Q1019=
202205040850 METAR ESMX 040850Z 13005KT 100V160 CAVOK 11/04 Q1019=
202205040820 METAR ESMX 040820Z 13004KT CAVOK 10/04 Q1019=
202205040750 METAR ESMX 040750Z 18005KT 120V220 CAVOK 10/04 Q1019=
202205040720 METAR ESMX 040720Z 14005KT 110V210 CAVOK 08/04 Q1019=
202205040650 METAR ESMX 040650Z 15005KT 110V190 CAVOK 07/04 Q1019=
202205040620 METAR ESMX 040620Z 14004KT 070V190 CAVOK 07/04 Q1019=
202205040550 METAR ESMX 040550Z 14006KT 110V190 CAVOK 06/04 Q1019=
202205040520 METAR ESMX 040520Z AUTO 13003KT 9999 OVC072/// 05/04 Q1019=
202205040450 METAR ESMX 040450Z AUTO 16003KT 9999 SCT006/// BKN072/// 04/03 Q1019=
202205040420 METAR ESMX 040420Z AUTO 16003KT 9999 FEW005/// BKN070/// 03/03 Q1019=
202205040350 METAR ESMX 040350Z AUTO 16004KT 9999 FEW005/// 03/03 Q1019=
202205040320 METAR ESMX 040320Z AUTO 16003KT 9999 NCD 03/03 Q1019=
202205040250 METAR ESMX 040250Z AUTO 16003KT 9999 NCD 02/02 Q1019=
202205040220 METAR ESMX 040220Z AUTO 13002KT 9999 NCD 01/00 Q1019=
202205040150 METAR ESMX 040150Z AUTO VRB02KT 9999 NCD 01/01 Q1019=
202205040120 METAR ESMX 040120Z AUTO 00000KT 9999 NCD 00/M00 Q1019=
202205040050 METAR ESMX 040050Z AUTO 00000KT 9999 NCD 01/00 Q1019=
202205040020 METAR ESMX 040020Z AUTO 16003KT 9999 NCD 01/00 Q1019=
202205032350 METAR ESMX 032350Z AUTO 16003KT 9999 NCD 01/01 Q1018=
202205032320 METAR ESMX 032320Z 00000KT CAVOK 01/00 Q1018=
202205032250 METAR ESMX 032250Z 16002KT CAVOK 02/00 Q1018=
202205032220 METAR ESMX 032220Z 16004KT CAVOK 03/01 Q1018=
202205032150 METAR ESMX 032150Z 17003KT CAVOK 04/01 Q1018=
202205032120 METAR ESMX 032120Z 17002KT CAVOK 04/01 Q1018=
202205032050 METAR ESMX 032050Z 20003KT CAVOK 04/01 Q1018=
202205032020 METAR ESMX 032020Z VRB03KT CAVOK 07/01 Q1017=
202205031950 METAR ESMX 031950Z VRB03KT CAVOK 07/01 Q1017=
202205031920 METAR ESMX 031920Z 17004KT CAVOK 09/01 Q1017=
202205031850 METAR ESMX 031850Z AUTO 15007KT 110V180 9999 NCD 09/01 Q1016=
202205031820 METAR ESMX 031820Z AUTO 19009KT 9999 NCD 11/02 Q1016=
202205031750 METAR ESMX 031750Z AUTO 06004KT 9999 NCD 13/M08 Q1016=
202205031720 METAR ESMX 031720Z AUTO 02008KT 9999 NCD 13/M08 Q1015=
202205031650 METAR ESMX 031650Z AUTO 35004KT 310V020 9999 NCD 14/M07 Q1015=
202205031620 METAR ESMX 031620Z AUTO 01005KT 310V050 9999 NCD 14/M07 Q1015=
202205031550 METAR ESMX 031550Z AUTO 35005KT 320V040 9999 NCD 14/M07 Q1015=
202205031520 METAR ESMX 031520Z AUTO 36007KT 300V030 9999 NCD 14/M07 Q1015=
202205031450 METAR ESMX 031450Z AUTO 36006KT 330V050 9999 NCD 14/M07 Q1015=
202205031420 METAR ESMX 031420Z AUTO 02008KT 350V050 9999 NCD 15/M06 Q1015=
202205031350 METAR ESMX 031350Z AUTO 04007KT 350V070 9999 NCD 15/M06 Q1015=
202205031320 METAR ESMX 031320Z 34006KT 310V020 CAVOK 14/M07 Q1016=
202205031250 METAR ESMX 031250Z 02006KT 340V080 CAVOK 14/M06 Q1016=
202205031220 METAR ESMX 031220Z 35006KT 300V030 CAVOK 14/M05 Q1016=
202205031150 METAR ESMX 031150Z 35005KT 290V050 CAVOK 13/M05 Q1016=
202205031120 METAR ESMX 031120Z 02005KT 320V040 CAVOK 13/M05 Q1016=
202205031050 METAR ESMX 031050Z 33005KT 280V020 CAVOK 13/M05 Q1016=
202205031020 METAR ESMX 031020Z 02005KT 340V070 CAVOK 12/M04 Q1016=
202205030950 METAR ESMX 030950Z 36006KT 320V030 CAVOK 11/M05 Q1016=
202205030920 METAR ESMX 030920Z 01007KT 320V030 CAVOK 11/M04 Q1016=
202205030850 METAR ESMX 030850Z 01009KT CAVOK 11/M03 Q1015=
202205030820 METAR ESMX 030820Z 03008KT 350V070 CAVOK 10/M01 Q1015=
202205030750 METAR ESMX 030750Z 01009KT 340V050 CAVOK 10/00 Q1015=
202205030720 METAR ESMX 030720Z 03010KT CAVOK 10/00 Q1014=
202205030650 METAR ESMX 030650Z 03012KT CAVOK 09/02 Q1014=
202205030620 METAR ESMX 030620Z 01009KT 340V060 CAVOK 09/04 Q1014=
202205030550 METAR ESMX 030550Z AUTO 02009KT 9999 BKN078/// 08/04 Q1013=
202205030520 METAR ESMX 030520Z AUTO 35007KT 9999 BKN076/// 08/07 Q1013=
202205030450 METAR ESMX 030450Z AUTO 34005KT 9999 FEW009/// 08/07 Q1013=
202205030420 METAR ESMX 030420Z AUTO 32004KT 9999 SCT010/// BKN070/// 07/07 Q1012=
202205030350 METAR ESMX 030350Z AUTO 29003KT 9999 FEW032/// BKN066/// 07/07 Q1012=
202205030320 METAR ESMX 030320Z AUTO 29004KT 9999 FEW009/// SCT031/// BKN051/// 08/08 Q1012 REDZ REUP=
202205030250 METAR ESMX 030250Z AUTO 31003KT 9999 FEW011/// SCT037/// OVC066/// 08/08 Q1012=
202205030220 METAR ESMX 030220Z AUTO 31004KT 260V340 8000 BR FEW010/// SCT014/// BKN020/// 08/08 Q1012 REUP=
202205030150 METAR ESMX 030150Z AUTO 29003KT 9000 BR OVC062/// 08/08 Q1011 RESHUP=
202205030120 METAR ESMX 030120Z AUTO 23005KT 210V270 9999 UP FEW006/// OVC053/// 08/08 Q1011 RERA=
202205030050 METAR ESMX 030050Z AUTO 24006KT 9000 BR OVC055/// 08/08 Q1011=
202205030020 METAR ESMX 030020Z AUTO VRB03KT 9999 BKN014/// OVC046/// 08/08 Q1011 REDZ=
202205022350 METAR ESMX 022350Z 27004KT 9000 -RA FEW008 BKN013 08/08 Q1011=
202205022320 METAR ESMX 022320Z 28004KT 250V320 5000 DZ FEW006 SCT009 BKN013 08/08 Q1012=
202205022250 METAR ESMX 022250Z 26004KT 200V280 9000 -RA SCT009 BKN011 09/08 Q1012=
202205022220 METAR ESMX 022220Z 25005KT 210V280 9999 -DZ BKN015 09/07 Q1012=
202205022150 METAR ESMX 022150Z 25005KT 9999 BKN019 09/07 Q1012=
202205022120 METAR ESMX 022120Z 26005KT 9999 -RA BKN015 09/07 Q1012=
202205022050 METAR COR ESMX 022050Z 24006KT 190V270 9999 -DZ BKN018 09/06 Q1012=
202205022020 METAR ESMX 022020Z 26008KT 9999 BKN023 09/06 Q1012=
202205021950 METAR ESMX 021950Z 23009KT 9999 BKN032 10/05 Q1012=
202205021920 METAR ESMX 021920Z AUTO 24008KT 9999 OVC031/// 10/05 Q1012=
202205021850 METAR ESMX 021850Z AUTO 25008KT 9999 FEW030/// BKN051/// 10/05 Q1012=
202205021820 METAR ESMX 021820Z AUTO 25008KT 9999 FEW032/// BKN053/// 10/04 Q1012=
202205021750 METAR ESMX 021750Z AUTO 26010KT 220V290 9999 SCT035/// OVC045/// 11/04 Q1012=
202205021720 METAR ESMX 021720Z AUTO 25010KT 210V280 9999 SCT033/// BKN048/// 11/04 Q1012=
202205021650 METAR ESMX 021650Z AUTO 26011KT 9999 SCT035/// OVC051/// 11/04 Q1012=
202205021620 METAR ESMX 021620Z AUTO 27010KT 9999 BKN039/// OVC048/// 11/03 Q1012=
202205021550 METAR ESMX 021550Z 26013KT 9999 BKN043 12/03 Q1012=
202205021520 METAR ESMX 021520Z 27014KT 9999 BKN043 13/03 Q1013=
202205021450 METAR ESMX 021450Z 25014KT 9999 BKN045 13/03 Q1013=
202205021420 METAR ESMX 021420Z 25013KT 220V290 9999 SCT049 15/02 Q1013=
202205021350 METAR ESMX 021350Z 24014G26KT CAVOK 14/01 Q1013=
202205021320 METAR ESMX 021320Z 27014KT 230V300 9999 FEW046 14/02 Q1014=
202205021250 METAR ESMX 021250Z 25013KT 220V290 9999 FEW047 14/02 Q1014=
202205021220 METAR ESMX 021220Z 25012KT 210V280 9999 FEW048 15/02 Q1014=
202205021150 METAR ESMX 021150Z 23014KT 9999 FEW048 14/01 Q1014=
202205021120 METAR ESMX 021120Z 25014G26KT 9999 FEW046 14/01 Q1015=
202205021050 METAR ESMX 021050Z 24014KT 200V260 CAVOK 14/02 Q1015=
202205021020 METAR ESMX 021020Z 23017KT 9999 FEW048 14/01 Q1015=
202205020950 METAR ESMX 020950Z 23015KT 210V280 9999 FEW046 14/02 Q1016=
202205020920 METAR ESMX 020920Z 24015KT 9999 BKN046 13/01 Q1016=
202205020850 METAR ESMX 020850Z 22016KT 9999 BKN042 13/02 Q1016=
202205020820 METAR ESMX 020820Z 22013KT 200V260 9999 BKN037 13/03 Q1017=
202205020750 METAR ESMX 020750Z 24010KT 210V270 9999 BKN034 11/05 Q1017=
202205020720 METAR ESMX 020720Z 22011KT 200V280 CAVOK 11/04 Q1017=
202205020650 METAR ESMX 020650Z 22009KT CAVOK 10/05 Q1018=
202205020620 METAR ESMX 020620Z 23010KT CAVOK 09/04 Q1018=
202205020550 METAR ESMX 020550Z 20008KT CAVOK 07/04 Q1018=
202205020520 METAR ESMX 020520Z 22007KT CAVOK 06/04 Q1018=
202205020450 METAR ESMX 020450Z 19005KT CAVOK 05/04 Q1019=
202205020420 METAR ESMX 020420Z 17006KT CAVOK 03/03 Q1019=
202205020350 METAR ESMX 020350Z 16005KT CAVOK 02/02 Q1019=
202205020320 METAR COR ESMX 020320Z 16004KT CAVOK 02/01 Q1019=
202205020250 METAR ESMX 020250Z AUTO 16004KT 9999 NCD 02/02 Q1019=
202205020220 METAR ESMX 020220Z AUTO 16004KT 9999 NCD 02/01 Q1020=
202205020150 METAR ESMX 020150Z AUTO 16004KT 9999 NCD 02/02 Q1020=
202205020120 METAR ESMX 020120Z AUTO 16004KT 9999 NCD 03/02 Q1020=
202205020050 METAR ESMX 020050Z AUTO 16005KT 9999 NCD 03/01 Q1020=
202205020020 METAR ESMX 020020Z AUTO 19005KT 9999 FEW066/// 04/01 Q1020=
202205012350 METAR ESMX 012350Z AUTO 16005KT 9999 BKN064/// 04/01 Q1020=
202205012320 METAR ESMX 012320Z AUTO 16004KT 9999 FEW061/// 03/M00 Q1021=
202205012250 METAR ESMX 012250Z AUTO 16005KT 9999 NCD 06/00 Q1021=
202205012220 METAR ESMX 012220Z AUTO 17005KT 9999 NCD 06/00 Q1021=
202205012150 METAR ESMX 012150Z AUTO 18006KT 9999 NCD 06/M00 Q1021=
202205012120 METAR ESMX 012120Z AUTO 17005KT 9999 NCD 08/M00 Q1021=
202205012050 METAR ESMX 012050Z AUTO 17006KT 9999 NCD 08/M00 Q1021=
202205012020 METAR ESMX 012020Z AUTO 16006KT 9999 NCD 09/00 Q1021=
202205011950 METAR ESMX 011950Z 17007KT CAVOK 10/01 Q1021=
202205011920 METAR ESMX 011920Z 15005KT CAVOK 11/01 Q1021=
202205011850 METAR ESMX 011850Z VRB02KT CAVOK 11/01 Q1021=
202205011820 METAR ESMX 011820Z VRB02KT CAVOK 11/00 Q1021=
202205011750 METAR ESMX 011750Z 05003KT CAVOK 12/M01 Q1021=
202205011720 METAR ESMX 011720Z 07002KT CAVOK 12/M01 Q1021=
202205011650 METAR ESMX 011650Z 12002KT CAVOK 13/M02 Q1021=
202205011620 METAR ESMX 011620Z VRB03KT CAVOK 13/M02 Q1021=
202205011550 METAR ESMX 011550Z VRB03KT CAVOK 13/M02 Q1021=
202205011520 METAR ESMX 011520Z VRB03KT CAVOK 13/M02 Q1021=
202205011450 METAR ESMX 011450Z 08003KT 030V100 CAVOK 13/M02 Q1021=
202205011420 METAR ESMX 011420Z 07004KT CAVOK 13/M02 Q1021=
202205011350 METAR ESMX 011350Z 03005KT 340V080 CAVOK 13/M02 Q1022=
202205011320 METAR ESMX 011320Z AUTO 36007KT 330V030 9999 BKN072/// 13/M02 Q1022=
202205011250 METAR ESMX 011250Z 03005KT 340V080 CAVOK 14/M02 Q1022=
202205011220 METAR ESMX 011220Z 35006KT 330V030 CAVOK 13/M01 Q1022=
