##########################################################
# Query made at 04/19/2024 22:25:24 UTC
# Time interval: from 04/01/2022 12:00  to 04/30/2022 12:59  UTC
##########################################################

##########################################################
# ESMX, Vaxjo (Sweden)
# WMO index: 02641. WIGOS ID: 0-20000-0-02648
# Latitude 56-51N. Longitude 014-50E. Altitude 199 m.
##########################################################

202204301250 METAR ESMX 301250Z AUTO VRB03KT 9999 OVC045/// 12/03 Q1022=
202204301220 METAR ESMX 301220Z AUTO 17006KT 110V210 9999 BKN076/// 12/03 Q1022=
202204301150 METAR ESMX 301150Z AUTO 21006KT 9999 SCT072/// 11/03 Q1022=
202204301120 METAR ESMX 301120Z AUTO 19005KT 150V240 9999 FEW047/// SCT072/// 13/03 Q1023=
202204301050 METAR ESMX 301050Z AUTO 26005KT 9999 FEW044/// BKN068/// 12/03 Q1023=
202204301020 METAR ESMX 301020Z AUTO 01005KT 320V080 9999 OVC062/// 13/01 Q1023=
202204300950 METAR ESMX 300950Z AUTO VRB04KT 9999 FEW061/// 12/01 Q1023=
202204300920 METAR ESMX 300920Z AUTO VRB03KT 9999 NCD 11/03 Q1023=
202204300850 METAR ESMX 300850Z AUTO 17004KT 100V230 9999 NCD 10/04 Q1024=
202204300820 METAR ESMX 300820Z AUTO 16006KT 110V190 9999 FEW035/// 09/05 Q1024=
202204300750 METAR ESMX 300750Z AUTO 16003KT 9999 NCD 08/05 Q1024=
202204300720 METAR ESMX 300720Z AUTO 12003KT 070V180 9999 FEW002/// SCT045/// 07/05 Q1024=
202204300650 METAR ESMX 300650Z AUTO VRB03KT 9999 OVC002/// 06/05 Q1024=
202204300620 METAR ESMX 300620Z AUTO 16002KT 4300 OVC001/// 04/04 Q1024=
202204300550 METAR ESMX 300550Z AUTO 15004KT 100V190 0550 R01/0750U R19/1000U FG OVC001/// 03/03 Q1024=
202204300520 METAR ESMX 300520Z AUTO 16004KT 0250 R01/0450U R19/0650N FG VV002 03/03 Q1024=
202204300450 METAR ESMX 300450Z AUTO 16004KT 0150 R01/0375N R19/0650N FG BKN001/// OVC002/// 04/04 Q1024=
202204300420 METAR ESMX 300420Z AUTO 16003KT 0200 R01/0450N R19/0450N FG OVC001/// 04/04 Q1024=
202204300350 METAR ESMX 300350Z AUTO 16004KT 1100 R01/P2000D R19/P2000N BR BKN002/// 03/03 Q1024=
202204300320 METAR ESMX 300320Z AUTO 16003KT 9999 BR NCD M00/M00 Q1024=
202204300250 METAR ESMX 300250Z AUTO 16003KT 9999 NCD M00/M00 Q1024=
202204300220 METAR ESMX 300220Z AUTO 00000KT 9999 NCD 00/00 Q1024=
202204300150 METAR ESMX 300150Z AUTO 00000KT 9999 NCD 00/00 Q1024=
202204300120 METAR ESMX 300120Z AUTO 00000KT 9999 NCD 01/01 Q1025=
202204300050 METAR ESMX 300050Z AUTO VRB02KT 9999 NCD 02/00 Q1025=
202204300020 METAR ESMX 300020Z AUTO VRB02KT 9999 FEW062/// 03/01 Q1025=
202204292350 METAR ESMX 292350Z AUTO VRB02KT 9999 OVC086/// 04/01 Q1025=
202204292320 METAR ESMX 292320Z AUTO 12003KT 090V150 9999 BKN082/// 05/01 Q1025=
202204292250 METAR ESMX 292250Z AUTO 16002KT 9999 FEW057/// BKN088/// 06/01 Q1025=
202204292220 METAR ESMX 292220Z AUTO VRB03KT 9999 SCT057/// BKN092/// 07/01 Q1025=
202204292150 METAR ESMX 292150Z AUTO 16003KT 9999 BKN053/// OVC090/// 09/01 Q1025=
202204292120 METAR ESMX 292120Z AUTO 16005KT 9999 FEW055/// SCT066/// OVC090/// 09/01 Q1025=
202204292050 METAR ESMX 292050Z AUTO 15007KT 9999 OVC057/// 10/01 Q1025=
202204292020 METAR ESMX 292020Z AUTO 15004KT 110V170 9999 OVC057/// 10/02 Q1025=
202204291950 METAR ESMX 291950Z AUTO 14004KT 9999 OVC059/// 10/02 Q1025=
202204291920 METAR ESMX 291920Z AUTO 15006KT 9999 OVC062/// 10/01 Q1025=
202204291850 METAR ESMX 291850Z AUTO 16006KT 9999 OVC064/// 11/M00 Q1025=
202204291820 METAR ESMX 291820Z AUTO 17007KT 9999 OVC062/// 11/M00 Q1024=
202204291750 METAR ESMX 291750Z AUTO 18006KT 9999 OVC064/// 12/M00 Q1024=
202204291720 METAR ESMX 291720Z AUTO 19006KT 9999 OVC068/// 12/M00 Q1024=
202204291650 METAR ESMX 291650Z AUTO 17008KT 140V210 9999 BKN068/// OVC092/// 12/M01 Q1024=
202204291620 METAR ESMX 291620Z AUTO 19005KT 9999 FEW057/// OVC070/// 13/M00 Q1024=
202204291550 METAR ESMX 291550Z AUTO 15004KT 110V190 9999 BKN076/// OVC096/// 13/M01 Q1025=
202204291520 METAR ESMX 291520Z AUTO 20005KT 9999 BKN070/// OVC090/// 13/M01 Q1025=
202204291450 METAR ESMX 291450Z 21003KT CAVOK 14/M02 Q1025=
202204291420 METAR COR ESMX 291420Z 18005KT 150V230 CAVOK 14/M01 Q1025=
202204291350 METAR ESMX 291350Z 20005KT CAVOK 14/M01 Q1025=
202204291320 METAR ESMX 291320Z 22006KT 200V280 CAVOK 14/M01 Q1026=
202204291250 METAR ESMX 291250Z 29005KT 250V320 CAVOK 14/M01 Q1026=
202204291220 METAR ESMX 291220Z 23004KT 170V290 CAVOK 13/M02 Q1026=
202204291150 METAR ESMX 291150Z AUTO 20003KT 9999 SCT062/// OVC082/// 14/M01 Q1026=
202204291120 METAR ESMX 291120Z VRB03KT CAVOK 13/M02 Q1027=
202204291050 METAR ESMX 291050Z 19004KT CAVOK 13/M02 Q1027=
202204291020 METAR ESMX 291020Z 21003KT CAVOK 13/M03 Q1027=
202204290950 METAR ESMX 290950Z 20003KT CAVOK 12/M02 Q1027=
202204290920 METAR ESMX 290920Z 20005KT CAVOK 12/M02 Q1027=
202204290850 METAR ESMX 290850Z 24004KT 200V290 CAVOK 12/M02 Q1027=
202204290820 METAR ESMX 290820Z VRB05KT CAVOK 12/M02 Q1027=
202204290750 METAR COR ESMX 290750Z 19003KT CAVOK 11/M01 Q1027=
202204290720 METAR ESMX 290720Z 22003KT CAVOK 11/01 Q1027=
202204290650 METAR ESMX 290650Z 23002KT CAVOK 10/02 Q1027=
202204290620 METAR ESMX 290620Z VRB02KT CAVOK 08/04 Q1027=
202204290550 METAR ESMX 290550Z 00000KT CAVOK 06/04 Q1027=
202204290520 METAR ESMX 290520Z 00000KT CAVOK 04/03 Q1027=
202204290450 METAR ESMX 290450Z 00000KT CAVOK 01/01 Q1027=
202204290420 METAR ESMX 290420Z 00000KT CAVOK M00/M00 Q1027=
202204290350 METAR ESMX 290350Z 21003KT CAVOK M01/M01 Q1027=
202204290320 METAR ESMX 290320Z AUTO 14001KT 9999 FEW074/// 00/00 Q1026=
202204290250 METAR ESMX 290250Z AUTO 20003KT 9999 FEW076/// M01/M01 Q1027=
202204290220 METAR ESMX 290220Z AUTO 00000KT 9999 BKN078/// 01/01 Q1027=
202204290150 METAR ESMX 290150Z AUTO 29001KT 9999 OVC078/// 01/01 Q1027=
202204290120 METAR ESMX 290120Z AUTO 00000KT 9999 BKN078/// 01/01 Q1027=
202204290050 METAR ESMX 290050Z 00000KT CAVOK 01/01 Q1027=
202204290020 METAR ESMX 290020Z 20001KT CAVOK 02/02 Q1027=
202204282350 METAR ESMX 282350Z 22002KT CAVOK 03/03 Q1026=
202204282320 METAR ESMX 282320Z 00000KT CAVOK 03/02 Q1027=
202204282250 METAR ESMX 282250Z 00000KT CAVOK 04/04 Q1027=
202204282220 METAR ESMX 282220Z 27002KT CAVOK 06/04 Q1026=
202204282150 METAR ESMX 282150Z 26002KT CAVOK 07/05 Q1026=
202204282120 METAR ESMX 282120Z AUTO 25003KT 9999 OVC059/// 07/04 Q1026=
202204282050 METAR ESMX 282050Z AUTO 22003KT 9999 SCT057/// OVC074/// 07/04 Q1026=
202204282020 METAR ESMX 282020Z AUTO 24003KT 230V340 9999 OVC066/// 06/04 Q1026=
202204281950 METAR ESMX 281950Z AUTO 17003KT 9999 FEW061/// OVC076/// 07/05 Q1026=
202204281920 METAR ESMX 281920Z AUTO 19002KT 9999 OVC066/// 07/05 Q1025 RESHUP RERA=
202204281850 METAR ESMX 281850Z 36004KT 9999 FEW025 BKN040 08/05 Q1025=
202204281820 METAR ESMX 281820Z 35012KT 9999 FEW025 OVC036 08/05 Q1025=
202204281750 METAR ESMX 281750Z 28006KT 250V320 9999 FEW043CB SCT062 OVC084 11/03 Q1024=
202204281720 METAR ESMX 281720Z 26007KT 220V290 9999 FEW046CB BKN090 11/02 Q1024=
202204281650 METAR ESMX 281650Z AUTO 27010KT 9999 BKN088/// 11/02 Q1024=
202204281620 METAR ESMX 281620Z 25010KT 210V280 9999 FEW043TCU SCT065 BKN085 12/02 Q1024=
202204281550 METAR ESMX 281550Z 24008KT 9999 FEW040TCU SCT065 BKN085 13/01 Q1024=
202204281520 METAR ESMX 281520Z 24010KT 200V280 9999 FEW040TCU SCT060 BKN076 13/M01 Q1024=
202204281450 METAR COR ESMX 281450Z 23008KT 200V280 9999 FEW040TCU BKN076 13/M01 Q1024=
202204281420 METAR ESMX 281420Z 25010KT 230V300 CAVOK 13/M03 Q1024=
202204281350 METAR ESMX 281350Z 25010KT 210V280 9999 FEW045TCU SCT065 14/M04 Q1024=
202204281320 METAR ESMX 281320Z 23011KT 200V280 9999 FEW045TCU SCT065 14/M03 Q1024=
202204281250 METAR ESMX 281250Z 25012KT 9999 FEW045TCU SCT070 14/M02 Q1025=
202204281220 METAR ESMX 281220Z 25010KT 210V280 9999 SCT045TCU BKN070 13/01 Q1025=
202204281150 METAR ESMX 281150Z 21011KT 190V250 9999 SCT045TCU BKN070 14/01 Q1025=
202204281120 METAR ESMX 281120Z 24010KT 9999 SCT045TCU 12/01 Q1025=
202204281050 METAR ESMX 281050Z 21011KT 9999 SCT045TCU 12/02 Q1025=
202204281020 METAR ESMX 281020Z 24008KT 9999 SCT039 12/03 Q1025=
202204280950 METAR ESMX 280950Z 22006KT 200V260 9999 SCT031 11/03 Q1026=
202204280920 METAR ESMX 280920Z 23007KT 190V270 9999 FEW019 10/05 Q1026=
202204280850 METAR ESMX 280850Z 20006KT 160V240 9999 FEW012 09/04 Q1026=
202204280820 METAR COR ESMX 280820Z 22005KT 9999 FEW012 07/04 Q1026=
202204280750 METAR ESMX 280750Z 25004KT 190V300 9999 FEW012 07/03 Q1026=
202204280720 METAR ESMX 280720Z 26005KT 210V300 9999 SCT011 06/03 Q1027=
202204280650 METAR ESMX 280650Z VRB04KT 9999 SCT011 05/03 Q1027=
202204280620 METAR ESMX 280620Z 17002KT 9999 SCT012 04/02 Q1027=
202204280550 METAR ESMX 280550Z 17005KT 9999 FEW009 SCT012 03/02 Q1027=
202204280520 METAR ESMX 280520Z AUTO 17004KT 9999 BKN011/// OVC062/// 02/01 Q1027=
202204280450 METAR ESMX 280450Z AUTO 14003KT 9999 BKN012/// OVC064/// 01/01 Q1026=
202204280420 METAR ESMX 280420Z AUTO 17003KT 9999 NCD M02/M02 Q1026=
202204280350 METAR ESMX 280350Z AUTO VRB01KT 9000 SCT070/// M02/M02 Q1026=
202204280320 METAR ESMX 280320Z AUTO 17002KT 9999 NCD M01/M01 Q1026=
202204280250 METAR ESMX 280250Z AUTO 17003KT 8000 NCD M01/M02 Q1026=
202204280220 METAR ESMX 280220Z AUTO 17001KT 9999 NCD M02/M02 Q1026=
202204280150 METAR ESMX 280150Z AUTO 17003KT 9999 NCD M00/M00 Q1026=
202204280120 METAR ESMX 280120Z AUTO 17003KT 9999 NCD M01/M01 Q1027=
202204280050 METAR ESMX 280050Z AUTO 16002KT 4500 BR NCD M01/M01 Q1027=
202204280020 METAR ESMX 280020Z 00000KT 0900 R01/P2000N R19/1700U NSC M00/M00 Q1027=
202204272350 METAR ESMX 272350Z 17004KT CAVOK 00/M00 Q1027=
202204272320 METAR ESMX 272320Z 16003KT CAVOK 01/01 Q1027=
202204272250 METAR ESMX 272250Z 19004KT CAVOK 01/01 Q1027=
202204272220 METAR ESMX 272220Z 19004KT CAVOK 02/01 Q1027=
202204272150 METAR ESMX 272150Z 17005KT 9999 FEW046 BKN068 02/01 Q1027=
202204272120 METAR ESMX 272120Z 17004KT 9999 BKN045 03/02 Q1027=
202204272050 METAR ESMX 272050Z 17004KT 9999 FEW041 BKN078 03/02 Q1027=
202204272020 METAR ESMX 272020Z 17003KT CAVOK 04/02 Q1027=
202204271950 METAR ESMX 271950Z 17004KT CAVOK 03/02 Q1027=
202204271920 METAR COR ESMX 271920Z 17003KT CAVOK 03/02 Q1027=
202204271850 METAR ESMX 271850Z 17003KT 9999 FEW015 BKN100 04/02 Q1026=
202204271820 METAR ESMX 271820Z 17004KT 9999 BKN015 04/02 Q1026=
202204271750 METAR COR ESMX 271750Z 17004KT 9999 FEW015 04/02 Q1026=
202204271720 METAR ESMX 271720Z 16004KT 130V200 9999 BKN015 05/02 Q1026=
202204271650 METAR ESMX 271650Z 17007KT 9999 BKN015 05/02 Q1026=
202204271620 METAR ESMX 271620Z 15007KT 110V170 9999 BKN016 05/03 Q1026=
202204271550 METAR ESMX 271550Z 17006KT 9999 BKN016 05/02 Q1026=
202204271520 METAR ESMX 271520Z 19007KT 9999 BKN016 05/02 Q1026=
202204271450 METAR ESMX 271450Z AUTO 17008KT 9999 BKN015/// OVC096/// 06/03 Q1026=
202204271420 METAR ESMX 271420Z AUTO 17007KT 140V200 9999 BKN015/// OVC088/// 05/02 Q1026=
202204271350 METAR ESMX 271350Z AUTO 17007KT 9999 -DZ BKN014/// BKN019/// OVC029/// 05/02 Q1026=
202204271320 METAR ESMX 271320Z 16004KT 120V200 9999 -RA BKN014 05/02 Q1027=
202204271250 METAR ESMX 271250Z 17005KT 9999 BKN012 04/02 Q1027=
202204271220 METAR ESMX 271220Z 17005KT 9999 -RA BKN011 05/02 Q1027=
202204271150 METAR ESMX 271150Z 17006KT 9999 -RA BKN011 04/03 Q1027=
202204271120 METAR ESMX 271120Z 15006KT 120V190 9999 -DZ BKN012 04/02 Q1027=
202204271050 METAR ESMX 271050Z 18007KT 9999 -RA FEW010 BKN014 05/02 Q1026=
202204271020 METAR ESMX 271020Z 17006KT 120V200 9999 -DZ BKN015 05/02 Q1026=
202204270950 METAR ESMX 270950Z 19007KT 9999 -DZ BKN016 05/02 Q1026=
202204270920 METAR ESMX 270920Z 16004KT 120V200 9999 -DZ BKN017 05/02 Q1026=
202204270850 METAR ESMX 270850Z 16004KT 9999 BKN014 05/02 Q1026=
202204270820 METAR ESMX 270820Z 18005KT 9999 SCT014 BKN034 05/01 Q1026=
202204270750 METAR ESMX 270750Z 17006KT 9999 SCT012 BKN036 05/02 Q1026=
202204270720 METAR ESMX 270720Z 17007KT 9999 SCT027 BKN036 05/01 Q1025=
202204270650 METAR ESMX 270650Z 13007KT 080V180 9999 BKN028 05/01 Q1025=
202204270620 METAR ESMX 270620Z 12004KT 9999 BKN027 04/01 Q1025=
202204270550 METAR ESMX 270550Z AUTO 10004KT 060V160 9999 OVC026/// 04/01 Q1025=
202204270520 METAR ESMX 270520Z AUTO 09004KT 9999 OVC024/// 04/02 Q1024=
202204270450 METAR ESMX 270450Z AUTO 10005KT 060V140 9999 OVC023/// 04/02 Q1024=
202204270420 METAR ESMX 270420Z AUTO VRB04KT 9999 OVC021/// 04/02 Q1023=
202204270350 METAR ESMX 270350Z AUTO 10005KT 050V150 9999 SCT009/// OVC019/// 04/03 Q1023=
202204270320 METAR ESMX 270320Z AUTO 12006KT 070V150 9999 -DZ OVC009/// 05/03 Q1023=
202204270250 METAR ESMX 270250Z AUTO 11005KT 070V160 9999 -DZ OVC007/// 05/04 Q1023=
202204270220 METAR ESMX 270220Z AUTO VRB03KT 9999 BKN008/// OVC015/// 05/04 Q1022=
202204270150 METAR ESMX 270150Z AUTO 10003KT 9999 -DZ FEW009/// BKN015/// OVC028/// 05/04 Q1022=
202204270120 METAR ESMX 270120Z AUTO 10004KT 030V140 9999 FEW009/// BKN013/// BKN025/// 06/05 Q1022 REUP=
202204270050 METAR ESMX 270050Z 17003KT 9999 OVC032 06/05 Q1021=
202204270020 METAR ESMX 270020Z 16002KT 9999 OVC033 06/05 Q1021=
202204262350 METAR ESMX 262350Z 00000KT 9999 OVC032 06/05 Q1021=
202204262320 METAR ESMX 262320Z 07002KT 9999 BKN031 06/04 Q1021=
202204262250 METAR ESMX 262250Z 12002KT 9999 FEW031 OVC062 06/04 Q1021=
202204262220 METAR ESMX 262220Z 12003KT CAVOK 06/04 Q1020=
202204262150 METAR ESMX 262150Z AUTO VRB02KT 9999 OVC059/// 07/04 Q1020=
202204262120 METAR ESMX 262120Z AUTO VRB03KT 9999 SCT055/// OVC086/// 07/04 Q1020=
202204262050 METAR ESMX 262050Z AUTO VRB02KT 9999 BKN055/// BKN078/// 07/05 Q1020=
202204262020 METAR ESMX 262020Z AUTO VRB02KT 9999 SCT053/// BKN076/// 07/05 Q1019 RESHUP RERA=
202204261950 METAR ESMX 261950Z AUTO VRB02KT 9999 BKN040/// OVC080/// 08/06 Q1019=
202204261920 METAR ESMX 261920Z AUTO VRB02KT 9999 OVC037/// 08/06 Q1019=
202204261850 METAR ESMX 261850Z AUTO 06003KT 9999 -RA FEW022/// OVC038/// 08/05 Q1019 RESHUP REUP=
202204261820 METAR ESMX 261820Z AUTO 08003KT 9999 SCT038/// BKN053/// OVC066/// 08/05 Q1019=
202204261750 METAR ESMX 261750Z AUTO 09003KT 060V120 9999 SCT059/// OVC078/// 08/06 Q1018=
202204261720 METAR ESMX 261720Z AUTO 08005KT 030V130 9999 SCT037/// BKN076/// 08/06 Q1018=
202204261650 METAR ESMX 261650Z AUTO 06005KT 9999 RA FEW003/// OVC039/// 09/06 Q1017 REDZ=
202204261620 METAR ESMX 261620Z AUTO 07004KT 030V110 9999 -DZ FEW031/// OVC043/// 10/04 Q1017=
202204261550 METAR ESMX 261550Z AUTO 08006KT 030V140 9999 BKN057/// OVC072/// 11/04 Q1017=
202204261520 METAR ESMX 261520Z AUTO 06007KT 030V100 9999 BKN062/// OVC082/// 11/04 Q1016=
202204261450 METAR ESMX 261450Z AUTO 07008KT 030V120 9999 OVC072/// 12/04 Q1016 REDZ=
202204261420 METAR ESMX 261420Z AUTO 03006KT 350V070 9999 FEW059/// BKN080/// BKN130/// 13/03 Q1016=
202204261350 METAR ESMX 261350Z 28004KT 250V040 9999 VCSH BKN057 13/03 Q1015=
202204261320 METAR ESMX 261320Z VRB03KT 9999 SCT062TCU BKN082 14/01 Q1015=
202204261250 METAR ESMX 261250Z 05004KT 010V110 9999 VCSH SCT065TCU 14/02 Q1015=
202204261220 METAR ESMX 261220Z 10003KT 060V150 9999 VCSH SCT064 13/02 Q1015=
202204261150 METAR ESMX 261150Z 02007KT 320V050 9999 VCSH SCT064 14/01 Q1015=
202204261120 METAR ESMX 261120Z 08003KT CAVOK 15/M00 Q1015=
202204261050 METAR ESMX 261050Z 34005KT 300V020 CAVOK 15/M00 Q1014=
202204261020 METAR ESMX 261020Z VRB02KT CAVOK 15/M00 Q1014=
202204260950 METAR ESMX 260950Z VRB04KT CAVOK 14/00 Q1015=
202204260920 METAR ESMX 260920Z VRB03KT CAVOK 14/00 Q1015=
202204260850 METAR ESMX 260850Z VRB03KT CAVOK 13/01 Q1015=
202204260820 METAR COR ESMX 260820Z 02003KT 330V060 CAVOK 12/01 Q1014=
202204260750 METAR ESMX 260750Z VRB02KT CAVOK 11/01 Q1014=
202204260720 METAR ESMX 260720Z VRB01KT CAVOK 09/01 Q1014=
202204260650 METAR ESMX 260650Z 36003KT CAVOK 07/01 Q1014=
202204260620 METAR ESMX 260620Z 01004KT CAVOK 06/01 Q1014=
202204260550 METAR COR ESMX 260550Z 35004KT CAVOK 05/02 Q1014=
202204260520 METAR ESMX 260520Z AUTO 00000KT 9999 SCT088/// 02/01 Q1014=
202204260450 METAR ESMX 260450Z AUTO 18002KT 9999 NCD 00/M01 Q1013=
202204260420 METAR ESMX 260420Z AUTO 18001KT 9999 NCD M01/M01 Q1013=
202204260350 METAR ESMX 260350Z AUTO 00000KT 9999 NCD M02/M02 Q1013=
202204260320 METAR ESMX 260320Z AUTO 18002KT 9999 NCD M01/M01 Q1013=
202204260250 METAR ESMX 260250Z AUTO 18001KT 9999 NCD M02/M02 Q1013=
202204260220 METAR ESMX 260220Z AUTO 00000KT 9999 NCD M01/M01 Q1013=
202204260150 METAR ESMX 260150Z AUTO 00000KT 9999 NCD M01/M01 Q1013=
202204260120 METAR ESMX 260120Z AUTO 18001KT 9999 NCD 00/M01 Q1013=
202204260050 METAR ESMX 260050Z 00000KT CAVOK M00/M01 Q1013=
202204260020 METAR ESMX 260020Z 00000KT CAVOK M01/M02 Q1013=
202204252350 METAR ESMX 252350Z 19002KT CAVOK 00/M00 Q1013=
202204252320 METAR ESMX 252320Z 00000KT CAVOK 01/M01 Q1013=
202204252250 METAR ESMX 252250Z 00000KT CAVOK M00/M02 Q1013=
202204252220 METAR COR ESMX 252220Z 23002KT CAVOK 01/M01 Q1013=
202204252150 METAR ESMX 252150Z AUTO 19002KT 9999 NCD 03/M00 Q1013=
202204252120 METAR ESMX 252120Z AUTO 18002KT 9999 NCD 02/M02 Q1012=
202204252050 METAR ESMX 252050Z AUTO 19003KT 9999 NCD 05/M02 Q1012=
202204252020 METAR ESMX 252020Z AUTO 20002KT 9999 NCD 03/M02 Q1012=
202204251950 METAR ESMX 251950Z AUTO 00000KT 9999 NCD 05/M02 Q1012=
202204251920 METAR ESMX 251920Z AUTO 00000KT 9999 NCD 06/M03 Q1012=
202204251850 METAR ESMX 251850Z AUTO 00000KT 9999 NCD 07/M03 Q1012=
202204251820 METAR ESMX 251820Z AUTO 33002KT 9999 NCD 10/M03 Q1012=
202204251750 METAR ESMX 251750Z AUTO 35005KT 9999 NCD 12/M04 Q1011=
202204251720 METAR ESMX 251720Z AUTO 35005KT 320V020 9999 NCD 13/M05 Q1011=
202204251650 METAR ESMX 251650Z AUTO 34006KT 9999 NCD 14/M05 Q1011=
202204251620 METAR ESMX 251620Z 31006KT CAVOK 14/M06 Q1011=
202204251550 METAR ESMX 251550Z 34005KT 290V020 CAVOK 14/M05 Q1011=
202204251520 METAR ESMX 251520Z 33007KT 290V010 CAVOK 14/M03 Q1011=
202204251450 METAR ESMX 251450Z 32006KT 270V030 CAVOK 14/M03 Q1011=
202204251420 METAR ESMX 251420Z 36007KT CAVOK 14/M03 Q1011=
202204251350 METAR ESMX 251350Z 01008KT CAVOK 14/M03 Q1011=
202204251320 METAR ESMX 251320Z 34007KT 290V010 CAVOK 14/M03 Q1011=
202204251250 METAR ESMX 251250Z 36006KT 330V060 CAVOK 13/M02 Q1011=
202204251220 METAR ESMX 251220Z 03006KT 340V050 CAVOK 13/M01 Q1012=
202204251150 METAR ESMX 251150Z 36006KT CAVOK 12/M01 Q1012=
202204251120 METAR ESMX 251120Z 04006KT 350V100 CAVOK 12/M00 Q1012=
202204251050 METAR ESMX 251050Z 03005KT CAVOK 11/M00 Q1012=
202204251020 METAR ESMX 251020Z 04004KT 330V080 CAVOK 10/00 Q1012=
202204250950 METAR COR ESMX 250950Z 01004KT 300V060 CAVOK 10/M00 Q1012=
202204250920 METAR ESMX 250920Z 02006KT 340V050 CAVOK 09/M01 Q1012=
202204250850 METAR ESMX 250850Z 36006KT CAVOK 08/M01 Q1012=
202204250820 METAR ESMX 250820Z 35006KT 320V020 CAVOK 08/M01 Q1012=
202204250750 METAR ESMX 250750Z 35008KT CAVOK 07/M01 Q1012=
202204250720 METAR ESMX 250720Z 36008KT CAVOK 06/M01 Q1012=
202204250650 METAR ESMX 250650Z 36009KT CAVOK 05/M01 Q1012=
202204250620 METAR ESMX 250620Z 36009KT CAVOK 04/M01 Q1012=
202204250550 METAR ESMX 250550Z 36009KT CAVOK 03/M01 Q1012=
202204250520 METAR ESMX 250520Z 01008KT CAVOK 02/M01 Q1012=
202204250450 METAR ESMX 250450Z 36008KT CAVOK 02/M01 Q1012=
202204250420 METAR ESMX 250420Z 01007KT CAVOK 01/M01 Q1012=
202204250350 METAR ESMX 250350Z 01006KT CAVOK 01/M01 Q1012=
202204250320 METAR ESMX 250320Z AUTO 01007KT 9999 NCD 01/M01 Q1012=
202204250250 METAR ESMX 250250Z AUTO 01007KT 9999 NCD 01/M01 Q1012=
202204250220 METAR ESMX 250220Z AUTO 01007KT 9999 NCD 01/M01 Q1013=
202204250150 METAR ESMX 250150Z AUTO 35006KT 9999 NCD 01/M01 Q1013=
202204250120 METAR ESMX 250120Z AUTO 36006KT 9999 NCD 01/M01 Q1013=
202204250050 METAR ESMX 250050Z AUTO 02006KT 9999 NCD 01/M01 Q1013=
202204250020 METAR ESMX 250020Z AUTO 35007KT 9999 NCD 02/M01 Q1013=
202204242350 METAR ESMX 242350Z AUTO 36007KT 9999 NCD 02/M01 Q1013=
202204242320 METAR ESMX 242320Z AUTO 35007KT 9999 NCD 02/M01 Q1013=
202204242250 METAR ESMX 242250Z AUTO 01004KT 9999 NCD 03/M01 Q1013=
202204242220 METAR ESMX 242220Z AUTO 03006KT 9999 NCD 03/M01 Q1013=
202204242150 METAR ESMX 242150Z AUTO 03007KT 9999 NCD 04/M01 Q1013=
202204242120 METAR ESMX 242120Z AUTO 01008KT 9999 NCD 05/M01 Q1013=
202204242050 METAR ESMX 242050Z AUTO 02008KT 9999 NCD 05/M01 Q1013=
202204242020 METAR ESMX 242020Z AUTO 01005KT 9999 NCD 04/M01 Q1014=
202204241950 METAR ESMX 241950Z 03005KT CAVOK 05/M01 Q1014=
202204241920 METAR ESMX 241920Z 04008KT 010V110 CAVOK 06/M01 Q1013=
202204241850 METAR ESMX 241850Z 04008KT CAVOK 07/M00 Q1013=
202204241820 METAR ESMX 241820Z 04010KT 010V070 CAVOK 07/M00 Q1013=
202204241750 METAR ESMX 241750Z 04011KT CAVOK 08/M00 Q1013=
202204241720 METAR ESMX 241720Z 03011KT CAVOK 09/M01 Q1013=
202204241650 METAR ESMX 241650Z 04009KT CAVOK 10/M01 Q1012=
202204241620 METAR ESMX 241620Z 04010KT 010V100 CAVOK 10/M02 Q1013=
202204241550 METAR ESMX 241550Z 04010KT CAVOK 11/M02 Q1013=
202204241520 METAR ESMX 241520Z 04012KT 020V080 CAVOK 11/M02 Q1013=
202204241450 METAR ESMX 241450Z 04010KT 010V080 CAVOK 11/M02 Q1013=
202204241420 METAR ESMX 241420Z 04012KT CAVOK 11/M02 Q1013=
202204241350 METAR ESMX 241350Z 05013KT CAVOK 11/M02 Q1013=
202204241320 METAR ESMX 241320Z 05012KT 020V100 CAVOK 11/M02 Q1013=
202204241250 METAR ESMX 241250Z 04014KT 020V080 CAVOK 12/M02 Q1013=
202204241220 METAR ESMX 241220Z 05014KT 020V080 CAVOK 11/M02 Q1013=
202204241150 METAR ESMX 241150Z AUTO 04014KT 9999 NCD 12/M02 Q1013=
202204241120 METAR ESMX 241120Z 03016KT CAVOK 11/M03 Q1013=
202204241050 METAR ESMX 241050Z 03015KT CAVOK 11/M03 Q1013=
202204241020 METAR ESMX 241020Z 02013KT 360V070 CAVOK 12/M02 Q1013=
202204240950 METAR ESMX 240950Z 03016G27KT 010V080 CAVOK 11/M02 Q1013=
202204240920 METAR ESMX 240920Z 05015KT CAVOK 12/M01 Q1013=
202204240850 METAR ESMX 240850Z 03015KT 010V070 CAVOK 10/M01 Q1013=
202204240820 METAR ESMX 240820Z AUTO 04017KT 9999 OVC078/// 08/M01 Q1013=
202204240750 METAR ESMX 240750Z AUTO 04011KT 9999 OVC072/// 07/00 Q1013=
202204240720 METAR ESMX 240720Z AUTO 04013KT 010V070 9999 SCT068/// 07/00 Q1013=
202204240650 METAR ESMX 240650Z AUTO 04014KT 9999 BKN092/// 07/01 Q1013=
202204240620 METAR ESMX 240620Z AUTO 03014KT 9999 BKN090/// 05/01 Q1013=
202204240550 METAR ESMX 240550Z AUTO 03013KT 9999 FEW066/// OVC082/// 05/01 Q1013=
202204240520 METAR ESMX 240520Z AUTO 03012KT 9999 BKN074/// OVC096/// 05/01 Q1013=
202204240450 METAR ESMX 240450Z AUTO 03011KT 9999 BKN074/// OVC088/// 05/01 Q1013=
202204240420 METAR ESMX 240420Z AUTO 02009KT 9999 BKN070/// OVC088/// 05/01 Q1013=
202204240350 METAR ESMX 240350Z AUTO 02010KT 9999 BKN098/// OVC110/// 05/01 Q1013=
202204240320 METAR ESMX 240320Z AUTO 02010KT 9999 SCT072/// OVC110/// 05/01 Q1013=
202204240250 METAR ESMX 240250Z AUTO 01010KT 9999 SCT092/// OVC110/// 05/01 Q1013=
202204240220 METAR ESMX 240220Z AUTO 01010KT 9999 BKN098/// OVC110/// 04/01 Q1013=
202204240150 METAR ESMX 240150Z AUTO 01010KT 9999 SCT100/// 05/01 Q1013=
202204240120 METAR ESMX 240120Z AUTO 01011KT 9999 NCD 05/01 Q1013=
202204240050 METAR ESMX 240050Z AUTO 01010KT 9999 NCD 05/00 Q1014=
202204240020 METAR ESMX 240020Z AUTO 01011KT 9999 FEW096/// 05/00 Q1014=
202204232350 METAR ESMX 232350Z AUTO 01011KT 9999 NCD 05/01 Q1014=
202204232320 METAR ESMX 232320Z AUTO 01012KT 9999 NCD 06/01 Q1014=
202204232250 METAR ESMX 232250Z AUTO 03011KT 9999 NCD 06/01 Q1014=
202204232220 METAR ESMX 232220Z AUTO 03013KT 9999 NCD 07/01 Q1014=
202204232150 METAR ESMX 232150Z AUTO 03012KT 9999 NCD 07/01 Q1014=
202204232120 METAR ESMX 232120Z AUTO 03012KT 9999 NCD 07/01 Q1014=
202204232050 METAR ESMX 232050Z AUTO 04011KT 9999 FEW110/// 07/01 Q1014=
202204232020 METAR ESMX 232020Z AUTO 03010KT 350V060 9999 NCD 07/01 Q1014=
202204231950 METAR ESMX 231950Z AUTO 02009KT 350V060 9999 NCD 08/02 Q1015=
202204231920 METAR ESMX 231920Z AUTO 04011KT 010V070 9999 NCD 08/02 Q1015=
202204231850 METAR ESMX 231850Z AUTO 04011KT 9999 FEW059/// 09/01 Q1015=
202204231820 METAR ESMX 231820Z AUTO 05011G22KT 9999 OVC059/// 10/02 Q1014=
202204231750 METAR ESMX 231750Z AUTO 05012KT 020V080 9999 OVC061/// 11/02 Q1014=
202204231720 METAR ESMX 231720Z AUTO 06008KT 9999 OVC061/// 12/02 Q1014=
202204231650 METAR ESMX 231650Z AUTO 06010KT 020V090 9999 BKN061/// 13/01 Q1014=
202204231620 METAR ESMX 231620Z AUTO 05009KT 360V100 9999 BKN061/// 13/01 Q1014=
202204231550 METAR ESMX 231550Z AUTO 07010KT 030V100 9999 SCT064/// 13/01 Q1014=
202204231520 METAR ESMX 231520Z AUTO 06008KT 020V100 9999 SCT064/// BKN092/// 14/01 Q1013=
202204231450 METAR ESMX 231450Z AUTO 04011KT 020V080 9999 BKN068/// BKN088/// 13/02 Q1014=
202204231420 METAR ESMX 231420Z AUTO 05010KT 020V080 9999 FEW055/// OVC078/// 13/01 Q1014=
202204231350 METAR ESMX 231350Z AUTO 04009KT 9999 SCT055/// BKN072/// 14/02 Q1014=
202204231320 METAR ESMX 231320Z AUTO 04010KT 010V070 9999 FEW057/// BKN070/// 15/01 Q1014=
202204231250 METAR ESMX 231250Z AUTO 02012KT 9999 FEW053/// 14/02 Q1014=
202204231220 METAR ESMX 231220Z AUTO 01010KT 9999 OVC055/// 14/01 Q1014=
202204231150 METAR ESMX 231150Z AUTO 05010KT 010V100 9999 FEW055/// SCT180/// 15/01 Q1014=
202204231120 METAR ESMX 231120Z AUTO 01010KT 340V050 9999 FEW055/// 15/01 Q1014=
202204231050 METAR ESMX 231050Z AUTO 02008KT 350V060 9999 NCD 14/00 Q1014=
202204231020 METAR ESMX 231020Z AUTO 02009KT 360V060 9999 NCD 13/01 Q1015=
202204230950 METAR ESMX 230950Z AUTO 02010KT 340V050 9999 NCD 12/01 Q1015=
202204230920 METAR ESMX 230920Z AUTO 01008KT 320V050 9999 NCD 12/01 Q1015=
202204230850 METAR ESMX 230850Z AUTO 35009KT 9999 NCD 11/02 Q1015=
202204230820 METAR ESMX 230820Z AUTO 35009KT 9999 NCD 10/01 Q1015=
202204230750 METAR ESMX 230750Z AUTO 01008KT 9999 NCD 09/01 Q1016=
202204230720 METAR ESMX 230720Z AUTO 01009KT 9999 NCD 08/01 Q1016=
202204230650 METAR ESMX 230650Z AUTO 02009KT 9999 NCD 07/02 Q1016=
202204230620 METAR ESMX 230620Z AUTO 01007KT 340V050 9999 NCD 06/01 Q1016=
202204230550 METAR ESMX 230550Z AUTO 01009KT 9999 NCD 05/01 Q1016=
202204230520 METAR ESMX 230520Z AUTO 01007KT 9999 NCD 04/01 Q1016=
202204230450 METAR ESMX 230450Z AUTO 02010KT 9999 NCD 04/01 Q1016=
202204230420 METAR ESMX 230420Z AUTO 02008KT 9999 NCD 04/01 Q1016=
202204230350 METAR ESMX 230350Z AUTO 03008KT 9999 NCD 04/01 Q1016=
202204230320 METAR ESMX 230320Z AUTO 01007KT 9999 NCD 04/01 Q1017=
202204230250 METAR ESMX 230250Z AUTO 03007KT 9999 NCD 04/01 Q1017=
202204230220 METAR ESMX 230220Z AUTO 01007KT 9999 NCD 04/01 Q1017=
202204230150 METAR ESMX 230150Z AUTO 02006KT 9999 NCD 04/01 Q1017=
202204230120 METAR ESMX 230120Z AUTO 01007KT 9999 NCD 04/01 Q1017=
202204230050 METAR ESMX 230050Z AUTO 36006KT 9999 NCD 04/01 Q1017=
202204230020 METAR ESMX 230020Z AUTO 03009KT 9999 NCD 05/01 Q1017=
202204222350 METAR ESMX 222350Z AUTO 02008KT 9999 NCD 05/01 Q1018=
202204222320 METAR ESMX 222320Z AUTO 02007KT 9999 NCD 06/01 Q1018=
202204222250 METAR ESMX 222250Z AUTO 02007KT 9999 NCD 06/01 Q1018=
202204222220 METAR ESMX 222220Z AUTO 04008KT 9999 NCD 07/02 Q1018=
202204222150 METAR ESMX 222150Z AUTO 03007KT 9999 NCD 07/02 Q1018=
202204222120 METAR ESMX 222120Z AUTO 03006KT 9999 NCD 08/02 Q1018=
202204222050 METAR ESMX 222050Z AUTO 04006KT 9999 NCD 09/02 Q1018=
202204222020 METAR ESMX 222020Z AUTO 04006KT 9999 NCD 09/02 Q1018=
202204221950 METAR ESMX 221950Z AUTO 04007KT 9999 NCD 10/03 Q1018=
202204221920 METAR ESMX 221920Z AUTO 05006KT 9999 NCD 11/03 Q1018=
202204221850 METAR ESMX 221850Z AUTO 03004KT 360V070 9999 NCD 11/03 Q1018=
202204221820 METAR ESMX 221820Z AUTO 05007KT 9999 NCD 12/03 Q1017=
202204221750 METAR ESMX 221750Z AUTO 04008KT 010V080 9999 NCD 13/03 Q1017=
202204221720 METAR ESMX 221720Z AUTO 06007KT 020V120 9999 NCD 14/04 Q1017=
202204221650 METAR ESMX 221650Z AUTO 07007KT 030V120 9999 FEW049/// 14/03 Q1017=
202204221620 METAR ESMX 221620Z AUTO 07008KT 040V110 9999 FEW051/// 15/03 Q1017=
202204221550 METAR ESMX 221550Z AUTO 06007KT 030V120 9999 FEW053/// 16/03 Q1017=
202204221520 METAR ESMX 221520Z AUTO 08009KT 040V120 9999 FEW053/// 16/03 Q1017=
202204221450 METAR ESMX 221450Z 05010KT 030V100 CAVOK 16/03 Q1017=
202204221420 METAR ESMX 221420Z 07008KT 040V110 CAVOK 16/04 Q1017=
202204221350 METAR ESMX 221350Z 06009KT 020V100 CAVOK 15/03 Q1017=
202204221320 METAR ESMX 221320Z 06008KT 020V100 CAVOK 16/03 Q1017=
202204221250 METAR ESMX 221250Z 04011KT CAVOK 17/03 Q1017=
202204221220 METAR ESMX 221220Z 06009KT 020V110 CAVOK 17/03 Q1017=
202204221150 METAR ESMX 221150Z 05011KT 020V100 CAVOK 17/02 Q1017=
202204221120 METAR ESMX 221120Z 04012KT CAVOK 16/03 Q1017=
202204221050 METAR ESMX 221050Z 07011KT CAVOK 16/03 Q1018=
202204221020 METAR ESMX 221020Z AUTO 05010KT 020V100 9999 NCD 16/03 Q1018=
202204220950 METAR ESMX 220950Z 06011KT 020V110 CAVOK 15/03 Q1018=
202204220920 METAR ESMX 220920Z 05012KT CAVOK 15/03 Q1018=
202204220850 METAR ESMX 220850Z 04011KT CAVOK 14/03 Q1018=
202204220820 METAR ESMX 220820Z 03010KT 010V070 CAVOK 12/03 Q1018=
202204220750 METAR ESMX 220750Z 04011KT CAVOK 11/03 Q1018=
202204220720 METAR ESMX 220720Z AUTO 01010KT 9999 NCD 10/03 Q1018=
202204220650 METAR ESMX 220650Z 04010KT CAVOK 09/03 Q1018=
202204220620 METAR ESMX 220620Z AUTO 02010KT 9999 NCD 08/03 Q1018=
202204220550 METAR ESMX 220550Z 01010KT CAVOK 07/02 Q1018=
202204220520 METAR ESMX 220520Z 01009KT CAVOK 06/02 Q1018=
202204220450 METAR ESMX 220450Z 02008KT CAVOK 05/02 Q1018=
202204220420 METAR ESMX 220420Z 03007KT CAVOK 05/01 Q1018=
202204220350 METAR ESMX 220350Z 03008KT CAVOK 05/01 Q1018=
202204220320 METAR ESMX 220320Z AUTO 03008KT 9999 NCD 05/01 Q1018=
202204220250 METAR ESMX 220250Z AUTO 01007KT 9999 NCD 05/01 Q1018=
202204220220 METAR ESMX 220220Z AUTO 03008KT 9999 NCD 05/01 Q1018=
202204220150 METAR ESMX 220150Z AUTO 03008KT 9999 NCD 06/01 Q1018=
202204220120 METAR ESMX 220120Z 02007KT CAVOK 05/01 Q1019=
202204220050 METAR ESMX 220050Z 03007KT CAVOK 06/01 Q1019=
202204220020 METAR ESMX 220020Z 02007KT CAVOK 06/01 Q1019=
202204212350 METAR ESMX 212350Z 03007KT CAVOK 06/01 Q1019=
202204212320 METAR ESMX 212320Z 03007KT CAVOK 06/01 Q1019=
202204212250 METAR ESMX 212250Z 03009KT CAVOK 07/01 Q1019=
202204212220 METAR ESMX 212220Z 04010KT CAVOK 07/01 Q1019=
202204212150 METAR ESMX 212150Z 03010KT CAVOK 07/01 Q1020=
202204212120 METAR ESMX 212120Z AUTO 03010KT 9999 NCD 08/01 Q1020=
202204212050 METAR ESMX 212050Z AUTO 03008KT 9999 NCD 08/01 Q1020=
202204212020 METAR ESMX 212020Z AUTO 03010KT 9999 NCD 08/01 Q1020=
202204211950 METAR ESMX 211950Z AUTO 04010KT 360V070 9999 NCD 09/01 Q1020=
202204211920 METAR ESMX 211920Z AUTO 03008KT 9999 NCD 10/01 Q1020=
202204211850 METAR ESMX 211850Z AUTO 04011KT 9999 NCD 10/01 Q1020=
202204211820 METAR ESMX 211820Z 05009KT 010V080 CAVOK 11/01 Q1020=
202204211750 METAR ESMX 211750Z 04012G23KT CAVOK 12/01 Q1020=
202204211720 METAR ESMX 211720Z 04013KT CAVOK 13/01 Q1019=
202204211650 METAR ESMX 211650Z 03014KT CAVOK 14/01 Q1019=
202204211620 METAR ESMX 211620Z 05010KT 020V080 CAVOK 15/01 Q1019=
202204211550 METAR ESMX 211550Z 03013KT CAVOK 15/00 Q1019=
202204211520 METAR ESMX 211520Z 04013KT 010V090 CAVOK 15/01 Q1019=
202204211450 METAR ESMX 211450Z 05012KT 020V080 CAVOK 16/01 Q1019=
202204211420 METAR ESMX 211420Z AUTO 04013KT 9999 NCD 16/00 Q1019=
202204211350 METAR ESMX 211350Z 05011KT 020V100 CAVOK 16/00 Q1019=
202204211320 METAR ESMX 211320Z 04013KT 020V090 CAVOK 16/01 Q1019=
202204211250 METAR ESMX 211250Z 06012KT 020V120 CAVOK 16/01 Q1019=
202204211220 METAR ESMX 211220Z 05012KT 020V090 CAVOK 16/01 Q1019=
202204211150 METAR ESMX 211150Z 04013KT 020V090 CAVOK 16/02 Q1019=
202204211120 METAR ESMX 211120Z 05012KT 020V080 CAVOK 16/02 Q1019=
202204211050 METAR ESMX 211050Z 06011KT 030V100 CAVOK 16/02 Q1019=
202204211020 METAR ESMX 211020Z 06013KT 020V080 CAVOK 16/02 Q1019=
202204210950 METAR ESMX 210950Z AUTO 04009KT 9999 FEW220/// 14/03 Q1020=
202204210920 METAR ESMX 210920Z 04011KT CAVOK 13/03 Q1020=
202204210850 METAR ESMX 210850Z 03012KT CAVOK 12/02 Q1020=
202204210820 METAR ESMX 210820Z 01010KT CAVOK 12/02 Q1019=
202204210750 METAR ESMX 210750Z 02010KT CAVOK 11/03 Q1020=
202204210720 METAR ESMX 210720Z 01010KT CAVOK 10/03 Q1019=
202204210650 METAR ESMX 210650Z 01009KT CAVOK 09/03 Q1019=
202204210620 METAR ESMX 210620Z 03008KT 360V060 CAVOK 08/03 Q1019=
202204210550 METAR ESMX 210550Z 02008KT CAVOK 06/02 Q1019=
202204210520 METAR COR ESMX 210520Z 02008KT CAVOK 06/02 Q1019=
202204210450 METAR ESMX 210450Z AUTO 02008KT 9999 NCD 05/02 Q1019=
202204210420 METAR ESMX 210420Z AUTO 01007KT 9999 NCD 04/02 Q1019=
202204210350 METAR ESMX 210350Z AUTO 01006KT 9999 NCD 04/01 Q1019=
202204210320 METAR ESMX 210320Z AUTO 02007KT 9999 NCD 04/01 Q1019=
202204210250 METAR ESMX 210250Z AUTO 02007KT 9999 NCD 04/01 Q1019=
202204210220 METAR ESMX 210220Z AUTO 02007KT 9999 NCD 04/01 Q1019=
202204210150 METAR ESMX 210150Z AUTO 01007KT 9999 NCD 03/01 Q1019=
202204210120 METAR ESMX 210120Z AUTO 03007KT 9999 NCD 05/01 Q1019=
202204210050 METAR ESMX 210050Z 03007KT CAVOK 05/01 Q1019=
202204210020 METAR ESMX 210020Z 03007KT CAVOK 05/01 Q1019=
202204202350 METAR ESMX 202350Z 01006KT CAVOK 05/01 Q1019=
202204202320 METAR ESMX 202320Z 03008KT CAVOK 06/00 Q1019=
202204202250 METAR ESMX 202250Z 02008KT CAVOK 06/00 Q1020=
202204202220 METAR ESMX 202220Z 03008KT CAVOK 06/00 Q1020=
202204202150 METAR ESMX 202150Z 03010KT CAVOK 06/00 Q1020=
202204202120 METAR ESMX 202120Z 03008KT CAVOK 07/M00 Q1020=
202204202050 METAR ESMX 202050Z 03008KT CAVOK 07/00 Q1020=
202204202020 METAR ESMX 202020Z 02008KT CAVOK 08/M00 Q1020=
202204201950 METAR ESMX 201950Z 03010KT CAVOK 08/M00 Q1020=
202204201920 METAR ESMX 201920Z 03010KT CAVOK 09/00 Q1020=
202204201850 METAR ESMX 201850Z 03011KT CAVOK 09/00 Q1020=
202204201820 METAR ESMX 201820Z 04013KT CAVOK 10/00 Q1020=
202204201750 METAR ESMX 201750Z 04010KT CAVOK 11/M00 Q1020=
202204201720 METAR ESMX 201720Z 02012KT CAVOK 12/M01 Q1020=
202204201650 METAR ESMX 201650Z 03012KT CAVOK 13/M02 Q1019=
202204201620 METAR ESMX 201620Z 03011KT 010V070 CAVOK 14/M02 Q1019=
202204201550 METAR ESMX 201550Z 04010KT CAVOK 14/M01 Q1019=
202204201520 METAR ESMX 201520Z 02011KT 350V060 CAVOK 14/01 Q1019=
202204201450 METAR ESMX 201450Z 02011KT CAVOK 15/00 Q1019=
202204201420 METAR ESMX 201420Z 03012KT 350V060 CAVOK 15/01 Q1019=
202204201350 METAR ESMX 201350Z 01012KT CAVOK 15/01 Q1019=
202204201320 METAR ESMX 201320Z 01012KT 340V050 CAVOK 15/02 Q1019=
202204201250 METAR ESMX 201250Z 03013KT 360V080 CAVOK 15/02 Q1019=
202204201220 METAR ESMX 201220Z 01012KT CAVOK 15/02 Q1020=
202204201150 METAR ESMX 201150Z 03011KT 350V060 9999 FEW040 14/02 Q1020=
202204201120 METAR ESMX 201120Z 03011KT 360V070 9999 FEW041 14/02 Q1020=
202204201050 METAR COR ESMX 201050Z 04010KT 360V070 9999 FEW040 14/03 Q1020=
202204201020 METAR ESMX 201020Z 01011KT 350V050 CAVOK 13/03 Q1020=
202204200950 METAR ESMX 200950Z 02010KT 340V060 CAVOK 12/03 Q1021=
202204200920 METAR ESMX 200920Z 04010KT 020V080 CAVOK 11/03 Q1021=
202204200850 METAR ESMX 200850Z AUTO 03011KT 9999 NCD 11/03 Q1021=
202204200820 METAR ESMX 200820Z 04011KT CAVOK 11/03 Q1021=
202204200750 METAR ESMX 200750Z 04010KT CAVOK 10/03 Q1021=
202204200720 METAR ESMX 200720Z 04010KT CAVOK 10/03 Q1021=
202204200650 METAR ESMX 200650Z 01010KT CAVOK 08/03 Q1021=
202204200620 METAR ESMX 200620Z 03009KT CAVOK 07/03 Q1021=
202204200550 METAR ESMX 200550Z AUTO 03010KT 9999 NCD 06/03 Q1021=
202204200520 METAR ESMX 200520Z AUTO 03010KT 9999 NCD 05/02 Q1021=
202204200450 METAR ESMX 200450Z AUTO 02006KT 9999 NCD 04/02 Q1021=
202204200420 METAR ESMX 200420Z AUTO 02007KT 9999 NCD 03/02 Q1021=
202204200350 METAR ESMX 200350Z AUTO 02007KT 9999 NCD 03/02 Q1021=
202204200320 METAR ESMX 200320Z AUTO 02007KT 9999 NCD 04/02 Q1021=
202204200250 METAR ESMX 200250Z AUTO 02007KT 9999 NCD 04/02 Q1021=
202204200220 METAR ESMX 200220Z AUTO 02007KT 9999 NCD 04/02 Q1021=
202204200150 METAR ESMX 200150Z AUTO 02006KT 9999 NCD 04/02 Q1021=
202204200120 METAR ESMX 200120Z 34005KT CAVOK 04/02 Q1021=
202204200050 METAR ESMX 200050Z 01007KT CAVOK 04/02 Q1021=
202204200020 METAR ESMX 200020Z 34005KT CAVOK 04/02 Q1021=
202204192350 METAR ESMX 192350Z 01006KT CAVOK 04/02 Q1021=
202204192320 METAR ESMX 192320Z 03005KT CAVOK 05/02 Q1021=
202204192250 METAR ESMX 192250Z 01004KT CAVOK 05/02 Q1022=
202204192220 METAR ESMX 192220Z 04005KT CAVOK 06/02 Q1022=
202204192150 METAR ESMX 192150Z AUTO 02003KT 9999 NCD 06/02 Q1022=
202204192120 METAR ESMX 192120Z AUTO 03003KT 340V060 9999 NCD 07/02 Q1022=
202204192050 METAR ESMX 192050Z AUTO 07004KT 020V090 9999 NCD 08/02 Q1022=
202204192020 METAR ESMX 192020Z AUTO 06006KT 9999 NCD 09/02 Q1021=
202204191950 METAR ESMX 191950Z AUTO 06006KT 030V100 9999 NCD 09/02 Q1021=
202204191920 METAR ESMX 191920Z AUTO 07005KT 030V100 9999 NCD 10/02 Q1021=
202204191850 METAR ESMX 191850Z AUTO 07004KT 030V100 9999 NCD 11/02 Q1021=
202204191820 METAR ESMX 191820Z AUTO 04005KT 010V080 9999 NCD 12/02 Q1020=
202204191750 METAR ESMX 191750Z AUTO 06006KT 9999 NCD 13/02 Q1020=
202204191720 METAR ESMX 191720Z AUTO 07005KT 030V110 9999 NCD 13/02 Q1020=
202204191650 METAR ESMX 191650Z AUTO 07005KT 010V120 9999 NCD 14/02 Q1019=
202204191620 METAR ESMX 191620Z AUTO 04006KT 360V100 9999 NCD 15/02 Q1019=
202204191550 METAR ESMX 191550Z AUTO 04008KT 010V080 9999 NCD 15/01 Q1019=
202204191520 METAR ESMX 191520Z AUTO 05006KT 020V110 9999 NCD 15/01 Q1019=
202204191450 METAR ESMX 191450Z AUTO 04008KT 020V080 9999 NCD 16/01 Q1019=
202204191420 METAR ESMX 191420Z 05008KT 020V080 CAVOK 16/01 Q1019=
202204191350 METAR ESMX 191350Z 05007KT 360V110 CAVOK 16/00 Q1019=
202204191320 METAR ESMX 191320Z 04008KT 010V080 CAVOK 16/00 Q1019=
202204191250 METAR ESMX 191250Z 05007KT 010V090 CAVOK 16/M00 Q1020=
202204191220 METAR ESMX 191220Z 08005KT 030V120 CAVOK 15/M01 Q1020=
202204191150 METAR ESMX 191150Z 04007KT 360V120 CAVOK 15/M01 Q1020=
202204191120 METAR ESMX 191120Z 05008KT 010V100 CAVOK 15/M01 Q1020=
202204191050 METAR ESMX 191050Z 06007KT 020V140 CAVOK 15/M01 Q1020=
202204191020 METAR ESMX 191020Z 05006KT 360V090 CAVOK 14/M02 Q1020=
202204190950 METAR ESMX 190950Z 04007KT 010V090 CAVOK 14/M03 Q1020=
202204190920 METAR ESMX 190920Z 07006KT 020V120 CAVOK 13/M01 Q1020=
202204190850 METAR ESMX 190850Z 04007KT 010V100 CAVOK 12/01 Q1020=
202204190820 METAR ESMX 190820Z 03005KT 340V110 CAVOK 11/01 Q1020=
202204190750 METAR ESMX 190750Z 04004KT 010V090 CAVOK 11/01 Q1020=
202204190720 METAR ESMX 190720Z 06005KT CAVOK 09/00 Q1020=
202204190650 METAR ESMX 190650Z 05004KT 020V090 CAVOK 09/01 Q1019=
202204190620 METAR ESMX 190620Z 10004KT 060V150 CAVOK 08/01 Q1019=
202204190550 METAR COR ESMX 190550Z 09003KT 030V130 CAVOK 08/01 Q1019=
202204190520 METAR ESMX 190520Z AUTO 15001KT 9999 NCD 06/03 Q1019=
202204190450 METAR ESMX 190450Z AUTO VRB02KT 9999 NCD 01/01 Q1019=
202204190420 METAR ESMX 190420Z AUTO 00000KT 9999 NCD 01/01 Q1019=
202204190350 METAR ESMX 190350Z AUTO 00000KT 9999 NCD 01/01 Q1019=
202204190320 METAR ESMX 190320Z AUTO 00000KT 9999 NCD 02/01 Q1018=
202204190250 METAR ESMX 190250Z AUTO 00000KT 9000 BR NCD 04/02 Q1018=
202204190220 METAR ESMX 190220Z AUTO 00000KT 9999 FEW140/// 04/02 Q1018=
202204190150 METAR ESMX 190150Z AUTO 16003KT 9999 BKN130/// 04/03 Q1018=
202204190120 METAR ESMX 190120Z AUTO VRB02KT 9999 NCD 04/03 Q1018=
202204190050 METAR ESMX 190050Z AUTO 00000KT 9999 FEW170/// 04/03 Q1018=
202204190020 METAR ESMX 190020Z AUTO 00000KT 9999 NCD 03/02 Q1018=
202204182350 METAR ESMX 182350Z AUTO 00000KT 9999 NCD 03/02 Q1018=
202204182320 METAR ESMX 182320Z AUTO 00000KT 9999 NCD 03/02 Q1018=
202204182250 METAR ESMX 182250Z AUTO VRB01KT 9999 BKN200/// 04/02 Q1019=
202204182220 METAR ESMX 182220Z AUTO 00000KT 9999 NCD 03/02 Q1019=
202204182150 METAR ESMX 182150Z AUTO 00000KT 9999 NCD 06/02 Q1019=
202204182120 METAR ESMX 182120Z AUTO 16003KT 9999 NCD 07/01 Q1019=
202204182050 METAR ESMX 182050Z AUTO 16004KT 9999 NCD 09/02 Q1019=
202204182020 METAR ESMX 182020Z AUTO 16006KT 9999 NCD 10/03 Q1019=
202204181950 METAR ESMX 181950Z AUTO 16006KT 9999 NCD 11/03 Q1019=
202204181920 METAR ESMX 181920Z 09003KT CAVOK 08/03 Q1019=
202204181850 METAR ESMX 181850Z 09003KT CAVOK 10/03 Q1019=
202204181820 METAR ESMX 181820Z 00000KT CAVOK 11/04 Q1019=
202204181750 METAR ESMX 181750Z 00000KT CAVOK 14/03 Q1019=
202204181720 METAR ESMX 181720Z VRB02KT CAVOK 15/02 Q1019=
202204181650 METAR ESMX 181650Z VRB03KT CAVOK 16/02 Q1019=
202204181620 METAR ESMX 181620Z 33004KT CAVOK 15/02 Q1019=
202204181550 METAR ESMX 181550Z 36003KT 300V020 CAVOK 15/01 Q1019=
202204181520 METAR ESMX 181520Z VRB03KT CAVOK 16/02 Q1019=
202204181450 METAR ESMX 181450Z 04004KT 330V140 CAVOK 16/02 Q1020=
202204181420 METAR ESMX 181420Z 14003KT CAVOK 16/01 Q1020=
202204181350 METAR ESMX 181350Z VRB03KT CAVOK 14/01 Q1020=
202204181320 METAR ESMX 181320Z 01004KT 270V060 CAVOK 15/01 Q1020=
202204181250 METAR ESMX 181250Z 05004KT 340V110 CAVOK 15/01 Q1021=
202204181220 METAR ESMX 181220Z 13003KT 090V170 CAVOK 16/02 Q1021=
202204181150 METAR ESMX 181150Z 05004KT 010V170 CAVOK 14/02 Q1022=
202204181120 METAR ESMX 181120Z VRB04KT CAVOK 15/02 Q1022=
202204181050 METAR ESMX 181050Z 13004KT 030V150 CAVOK 14/02 Q1022=
202204181020 METAR ESMX 181020Z 17003KT CAVOK 13/01 Q1022=
202204180950 METAR ESMX 180950Z 19005KT CAVOK 13/01 Q1022=
202204180920 METAR ESMX 180920Z 13003KT CAVOK 12/01 Q1023=
202204180850 METAR ESMX 180850Z 20003KT 170V240 CAVOK 11/00 Q1023=
202204180820 METAR ESMX 180820Z 19004KT 120V230 CAVOK 10/00 Q1023=
202204180750 METAR ESMX 180750Z 12003KT CAVOK 09/01 Q1023=
202204180720 METAR ESMX 180720Z VRB03KT CAVOK 08/02 Q1023=
202204180650 METAR ESMX 180650Z AUTO 16003KT 110V210 9999 NCD 07/02 Q1024=
202204180620 METAR ESMX 180620Z AUTO 12003KT 9999 NCD 06/01 Q1024=
202204180550 METAR ESMX 180550Z 13003KT CAVOK 04/02 Q1024=
202204180520 METAR ESMX 180520Z 00000KT CAVOK 01/01 Q1023=
202204180450 METAR ESMX 180450Z 00000KT CAVOK M01/M01 Q1024=
202204180420 METAR ESMX 180420Z 00000KT CAVOK M01/M01 Q1024=
202204180350 METAR COR ESMX 180350Z 00000KT CAVOK M01/M02 Q1024=
202204180320 METAR ESMX 180320Z AUTO 13002KT 9999 NCD 00/00 Q1024=
202204180250 METAR ESMX 180250Z AUTO 13002KT 9999 NCD M01/M01 Q1024=
202204180220 METAR ESMX 180220Z AUTO 00000KT 9999 NCD M00/M00 Q1024=
202204180150 METAR ESMX 180150Z AUTO 00000KT 9999 NCD M00/M01 Q1024=
202204180120 METAR ESMX 180120Z AUTO 00000KT 9999 NCD M00/M01 Q1024=
202204180050 METAR ESMX 180050Z AUTO 00000KT 9999 NCD 00/M00 Q1024=
202204180020 METAR ESMX 180020Z AUTO 13001KT 9999 NCD 00/M01 Q1024=
202204172350 METAR ESMX 172350Z AUTO 13001KT 9999 NCD 01/M00 Q1024=
202204172320 METAR ESMX 172320Z AUTO 00000KT 9999 NCD 02/M00 Q1025=
202204172250 METAR ESMX 172250Z AUTO 13003KT 9999 NCD 04/00 Q1025=
202204172220 METAR ESMX 172220Z AUTO 13004KT 8000 BR NCD 04/01 Q1025=
202204172150 METAR ESMX 172150Z AUTO 14004KT 9999 NCD 05/00 Q1025=
202204172120 METAR ESMX 172120Z 16003KT CAVOK 06/00 Q1025=
202204172050 METAR ESMX 172050Z 16005KT CAVOK 08/M00 Q1025=
202204172020 METAR ESMX 172020Z 15006KT CAVOK 08/00 Q1025=
202204171950 METAR ESMX 171950Z 15007KT CAVOK 09/00 Q1025=
202204171920 METAR ESMX 171920Z 14007KT CAVOK 10/01 Q1025=
202204171850 METAR ESMX 171850Z 18002KT CAVOK 08/00 Q1025=
202204171820 METAR ESMX 171820Z 27003KT CAVOK 10/00 Q1025=
202204171750 METAR ESMX 171750Z 29004KT CAVOK 13/M01 Q1025=
202204171720 METAR ESMX 171720Z 28003KT CAVOK 14/M02 Q1025=
202204171650 METAR ESMX 171650Z 28004KT 250V320 CAVOK 15/M02 Q1025=
202204171620 METAR ESMX 171620Z 35004KT 310V030 CAVOK 15/M03 Q1025=
202204171550 METAR ESMX 171550Z 35005KT 300V030 CAVOK 15/M03 Q1026=
202204171520 METAR ESMX 171520Z 35004KT 290V050 CAVOK 15/M04 Q1026=
202204171450 METAR ESMX 171450Z 01004KT 280V050 CAVOK 15/M03 Q1026=
202204171420 METAR ESMX 171420Z 33004KT 230V030 CAVOK 15/M04 Q1027=
202204171350 METAR ESMX 171350Z 05005KT 350V080 CAVOK 15/M03 Q1027=
202204171320 METAR ESMX 171320Z 02005KT 330V080 9999 NSC 14/M04 Q1027=
202204171250 METAR ESMX 171250Z VRB04KT 9999 BR NSC 15/M04 Q1028=
202204171220 METAR ESMX 171220Z 04005KT 350V080 CAVOK 14/M02 Q1028=
202204171150 METAR ESMX 171150Z VRB04KT CAVOK 14/M02 Q1028=
202204171120 METAR ESMX 171120Z 34004KT 300V050 CAVOK 13/M01 Q1028=
202204171050 METAR ESMX 171050Z 02004KT 300V080 CAVOK 12/M00 Q1029=
202204171020 METAR ESMX 171020Z VRB05KT CAVOK 12/01 Q1029=
202204170950 METAR ESMX 170950Z VRB04KT CAVOK 12/01 Q1029=
202204170920 METAR ESMX 170920Z 02004KT 280V090 CAVOK 11/02 Q1030=
202204170850 METAR ESMX 170850Z 36005KT 280V050 CAVOK 10/01 Q1030=
202204170820 METAR ESMX 170820Z AUTO 36007KT 9999 NCD 09/02 Q1030=
202204170750 METAR ESMX 170750Z AUTO 32007KT 280V350 9999 NCD 08/02 Q1030=
202204170720 METAR ESMX 170720Z AUTO 32008KT 290V350 9999 NCD 07/02 Q1030=
202204170650 METAR ESMX 170650Z AUTO 31008KT 280V340 9999 SCT120/// 06/02 Q1030=
202204170620 METAR ESMX 170620Z AUTO 29006KT 250V330 9999 BKN130/// 06/02 Q1031=
202204170550 METAR ESMX 170550Z AUTO 29005KT 250V310 9999 BKN130/// 04/02 Q1031=
202204170520 METAR ESMX 170520Z AUTO 29003KT 9999 OVC130/// 03/02 Q1031=
202204170450 METAR ESMX 170450Z AUTO 29002KT 9999 FEW130/// 02/01 Q1031=
202204170420 METAR ESMX 170420Z AUTO VRB03KT 9999 BKN110/// 02/01 Q1031=
202204170350 METAR ESMX 170350Z AUTO 30004KT 9999 OVC100/// 03/01 Q1031=
202204170320 METAR ESMX 170320Z AUTO 31003KT 9999 BKN110/// 04/01 Q1031=
202204170250 METAR ESMX 170250Z AUTO 29004KT 9999 OVC120/// 04/01 Q1031=
202204170220 METAR ESMX 170220Z AUTO 32005KT 9999 OVC110/// 04/01 Q1032=
202204170150 METAR ESMX 170150Z AUTO 33005KT 9999 OVC110/// 04/01 Q1032=
202204170120 METAR ESMX 170120Z AUTO 29005KT 9999 OVC120/// 04/01 Q1031=
202204170050 METAR ESMX 170050Z AUTO 31005KT 9999 OVC120/// 04/01 Q1032=
202204170020 METAR ESMX 170020Z AUTO 32004KT 9999 OVC120/// 05/01 Q1032=
202204162350 METAR ESMX 162350Z AUTO 32004KT 9999 OVC120/// 05/01 Q1032=
202204162320 METAR ESMX 162320Z AUTO 30005KT 9999 OVC120/// 05/00 Q1032=
202204162250 METAR ESMX 162250Z AUTO 31005KT 9999 OVC120/// 06/00 Q1032=
202204162220 METAR ESMX 162220Z AUTO 31006KT 9999 OVC120/// 06/00 Q1032=
202204162150 METAR ESMX 162150Z AUTO 31006KT 280V340 9999 BKN120/// 06/M00 Q1032=
202204162120 METAR ESMX 162120Z AUTO 29006KT 9999 NCD 06/M00 Q1032=
202204162050 METAR ESMX 162050Z AUTO 29007KT 9999 NCD 06/M00 Q1032=
202204162020 METAR ESMX 162020Z AUTO 28006KT 9999 NCD 07/M00 Q1032=
202204161950 METAR ESMX 161950Z AUTO 27007KT 9999 NCD 08/00 Q1032=
202204161920 METAR ESMX 161920Z AUTO 26007KT 9999 NCD 08/00 Q1032=
202204161850 METAR ESMX 161850Z AUTO 25006KT 9999 NCD 07/M01 Q1032=
202204161820 METAR ESMX 161820Z AUTO 25004KT 9999 NCD 07/M02 Q1032=
202204161750 METAR ESMX 161750Z AUTO 29004KT 9999 NCD 11/M03 Q1032=
202204161720 METAR ESMX 161720Z AUTO 30006KT 9999 NCD 12/M03 Q1032=
202204161650 METAR ESMX 161650Z AUTO 30005KT 250V320 9999 NCD 13/M04 Q1032=
202204161620 METAR ESMX 161620Z AUTO 29008KT 260V330 9999 NCD 13/M04 Q1032=
202204161550 METAR ESMX 161550Z AUTO 30008KT 9999 NCD 14/M03 Q1032=
202204161520 METAR ESMX 161520Z AUTO 30008G19KT 270V340 9999 NCD 14/M03 Q1032=
202204161450 METAR ESMX 161450Z AUTO 29008KT 250V320 9999 NCD 14/M03 Q1032=
202204161420 METAR ESMX 161420Z AUTO 27008KT 230V320 9999 FEW068/// 14/M03 Q1033=
202204161350 METAR ESMX 161350Z AUTO 30007KT 250V360 9999 NCD 14/M03 Q1033=
202204161320 METAR ESMX 161320Z AUTO 26005KT 220V340 9999 NCD 14/M03 Q1033=
202204161250 METAR ESMX 161250Z AUTO 01008KT 9999 NCD 13/M04 Q1034=
202204161220 METAR ESMX 161220Z AUTO 31009KT 290V360 9999 NCD 13/M05 Q1034=
202204161150 METAR ESMX 161150Z AUTO 33006KT 260V020 9999 NCD 13/M03 Q1034=
202204161120 METAR ESMX 161120Z AUTO 31007KT 260V020 9999 NCD 12/M04 Q1034=
202204161050 METAR ESMX 161050Z AUTO 35006KT 320V030 9999 NCD 12/M03 Q1035=
202204161020 METAR ESMX 161020Z AUTO 01007KT 320V030 9999 NCD 12/M02 Q1035=
202204160950 METAR ESMX 160950Z AUTO 34008KT 300V020 9999 NCD 12/M01 Q1035=
202204160920 METAR ESMX 160920Z AUTO 35009KT 9999 NCD 11/M02 Q1035=
202204160850 METAR ESMX 160850Z AUTO 34009KT 9999 NCD 11/M02 Q1035=
202204160820 METAR ESMX 160820Z AUTO 35009KT 9999 NCD 10/M02 Q1035=
202204160750 METAR ESMX 160750Z AUTO 33010KT 9999 NCD 09/M01 Q1035=
202204160720 METAR ESMX 160720Z AUTO 32004KT 280V070 9999 NCD 08/M01 Q1035=
202204160650 METAR ESMX 160650Z AUTO VRB03KT 9999 NCD 07/M00 Q1035=
202204160620 METAR ESMX 160620Z AUTO 31003KT 9999 NCD 04/M00 Q1035=
202204160550 METAR ESMX 160550Z AUTO 00000KT 9999 NCD 03/01 Q1035=
202204160520 METAR ESMX 160520Z AUTO 02002KT 9999 NCD M01/M01 Q1035=
202204160450 METAR ESMX 160450Z AUTO 00000KT 9999 NCD M03/M03 Q1035=
202204160420 METAR ESMX 160420Z AUTO 00000KT 9999 NCD M04/M05 Q1034=
202204160350 METAR ESMX 160350Z AUTO 00000KT 9999 NCD M04/M04 Q1034=
202204160320 METAR ESMX 160320Z AUTO 00000KT 9999 NCD M04/M05 Q1034=
202204160250 METAR ESMX 160250Z AUTO 00000KT 9999 NCD M04/M05 Q1034=
202204160220 METAR ESMX 160220Z AUTO 00000KT 9999 NCD M04/M04 Q1034=
202204160150 METAR ESMX 160150Z AUTO 00000KT 9999 NCD M03/M03 Q1034=
202204160120 METAR ESMX 160120Z AUTO 00000KT 9999 NCD M03/M03 Q1034=
202204160050 METAR ESMX 160050Z AUTO 19002KT 9999 NCD M03/M03 Q1034=
202204160020 METAR ESMX 160020Z AUTO 00000KT 9999 NCD M03/M03 Q1034=
202204152350 METAR ESMX 152350Z AUTO 00000KT 9999 NCD M03/M03 Q1034=
202204152320 METAR ESMX 152320Z AUTO 00000KT 9999 NCD M03/M03 Q1034=
202204152250 METAR ESMX 152250Z AUTO 00000KT 9999 NCD M02/M02 Q1034=
202204152220 METAR ESMX 152220Z AUTO 26002KT 9999 NCD M02/M02 Q1033=
202204152150 METAR ESMX 152150Z AUTO 00000KT 9999 NCD M02/M02 Q1033=
202204152120 METAR ESMX 152120Z AUTO 00000KT 9999 NCD M01/M01 Q1033=
202204152050 METAR ESMX 152050Z AUTO 00000KT 9999 NCD M01/M02 Q1033=
202204152020 METAR ESMX 152020Z AUTO 00000KT 9999 NCD M00/M01 Q1032=
202204151950 METAR ESMX 151950Z AUTO 00000KT 9999 NCD 00/M01 Q1032=
202204151920 METAR ESMX 151920Z AUTO 00000KT 9999 NCD 00/M02 Q1032=
202204151850 METAR ESMX 151850Z AUTO 34002KT 9999 NCD 03/M01 Q1032=
202204151820 METAR ESMX 151820Z AUTO 00000KT 9999 NCD 05/M02 Q1031=
202204151750 METAR ESMX 151750Z AUTO 02003KT 9999 NCD 07/M02 Q1031=
202204151720 METAR ESMX 151720Z AUTO 05007KT 9999 NCD 08/M02 Q1030=
202204151650 METAR ESMX 151650Z AUTO 05005KT 9999 NCD 09/M03 Q1030=
202204151620 METAR ESMX 151620Z AUTO 05005KT 360V100 9999 NCD 09/M03 Q1030=
202204151550 METAR ESMX 151550Z AUTO 04008KT 360V080 9999 SCT053/// 09/M02 Q1030=
202204151520 METAR ESMX 151520Z AUTO 04010KT 010V100 9999 SCT051/// 10/M02 Q1029=
202204151450 METAR ESMX 151450Z AUTO 04010KT 360V070 9999 FEW048/// 10/M02 Q1029=
202204151420 METAR ESMX 151420Z AUTO 04010KT 020V080 9999 FEW047/// 09/M03 Q1029=
202204151350 METAR ESMX 151350Z AUTO 04011KT 010V090 9999 SCT045/// 09/M01 Q1029=
202204151320 METAR ESMX 151320Z AUTO 01011KT 9999 FEW046/// 09/M02 Q1029=
202204151250 METAR ESMX 151250Z AUTO 01010KT 9999 FEW042/// 08/M01 Q1028=
202204151220 METAR ESMX 151220Z AUTO 01012KT 9999 SCT039/// 08/01 Q1028=
202204151150 METAR ESMX 151150Z AUTO 01010KT 9999 SCT037/// 08/01 Q1028=
202204151120 METAR ESMX 151120Z AUTO 04011KT 010V090 9999 BKN034/// 08/00 Q1028=
202204151050 METAR ESMX 151050Z AUTO 01011KT 9999 BKN031/// 06/01 Q1028=
202204151020 METAR ESMX 151020Z AUTO 02011KT 9999 SCT023/// OVC032/// 06/01 Q1027=
202204150950 METAR ESMX 150950Z AUTO 03011KT 9999 BKN025/// 06/01 Q1027=
202204150920 METAR ESMX 150920Z AUTO 03011KT 9999 OVC022/// 05/01 Q1027=
202204150850 METAR ESMX 150850Z AUTO 03012KT 9999 OVC014/// 04/01 Q1027=
202204150820 METAR ESMX 150820Z AUTO 04011KT 9999 OVC015/// 04/01 Q1026=
202204150750 METAR ESMX 150750Z AUTO 04012G22KT 9999 OVC014/// 04/01 Q1026=
202204150720 METAR ESMX 150720Z AUTO 04010KT 9999 BKN013/// OVC017/// 04/02 Q1025=
202204150650 METAR ESMX 150650Z AUTO 04013KT 9999 BKN011/// OVC015/// 04/02 Q1025=
202204150620 METAR ESMX 150620Z 03013KT 9999 BKN009 04/03 Q1024=
202204150550 METAR ESMX 150550Z 03012KT 9999 BKN010 OVC012 04/03 Q1023=
202204150520 METAR ESMX 150520Z 03012KT 9999 BKN010 04/03 Q1023=
202204150450 METAR ESMX 150450Z 02011KT 9999 BKN007 OVC009 04/03 Q1022=
202204150420 METAR ESMX 150420Z 03012KT 9999 BKN008 04/03 Q1022=
202204150350 METAR ESMX 150350Z 04012KT 9999 BKN007 04/03 Q1021=
202204150320 METAR ESMX 150320Z AUTO 03011KT 9999 FEW007/// BKN009/// OVC010/// 04/04 Q1021=
202204150250 METAR ESMX 150250Z AUTO 04011KT 9999 OVC006/// 04/04 Q1021=
202204150220 METAR ESMX 150220Z AUTO 03012KT 9999 -DZ OVC005/// 04/04 Q1020=
202204150150 METAR ESMX 150150Z AUTO 04008KT 020V080 9999 -RA BKN006/// BKN008/// OVC009/// 05/04 Q1020=
202204150120 METAR ESMX 150120Z AUTO 03010KT 9999 -DZ OVC006/// 05/05 Q1020 REDZ=
202204150050 METAR ESMX 150050Z AUTO 04010KT 9000 DZ OVC006/// 05/05 Q1020=
202204150020 METAR ESMX 150020Z AUTO 03009KT 010V070 9000 -DZ OVC006/// 05/05 Q1019=
202204142350 METAR ESMX 142350Z AUTO 04007KT 8000 -DZ BKN006/// OVC008/// 05/05 Q1019=
202204142320 METAR ESMX 142320Z AUTO 04010KT 9999 -RA SCT006/// OVC017/// 05/05 Q1019=
202204142250 METAR ESMX 142250Z AUTO 04009KT 9999 DZ SCT008/// OVC018/// 06/05 Q1018 RESHUP=
202204142220 METAR ESMX 142220Z AUTO 03008KT 9999 -DZ FEW005/// OVC008/// 06/06 Q1018 RESHUP REDZ=
202204142150 METAR ESMX 142150Z AUTO 06005KT 030V090 9999 OVC005/// 07/07 Q1018=
202204142120 METAR ESMX 142120Z AUTO 05007KT 020V080 9999 -DZ BKN005/// OVC006/// 07/07 Q1018=
202204142050 METAR ESMX 142050Z AUTO 01004KT 350V060 3100 DZ FEW002/// BKN005/// OVC007/// 08/08 Q1017=
202204142020 METAR ESMX 142020Z AUTO 36002KT 3400 -RA BKN006/// BKN008/// OVC009/// 08/08 Q1017=
202204141950 METAR ESMX 141950Z AUTO 34002KT 3800 RA BKN007/// OVC009/// 08/08 Q1017=
202204141920 METAR ESMX 141920Z AUTO 00000KT 5000 -DZ SCT006/// BKN008/// OVC011/// 08/08 Q1017 REDZ=
202204141850 METAR ESMX 141850Z VRB02KT 7000 FEW016 SCT020 BKN034 09/09 Q1016=
202204141820 METAR ESMX 141820Z 28002KT 6000 FEW041 SCT059 09/09 Q1016=
202204141750 METAR ESMX 141750Z 27003KT 8000 -RA BKN066 09/09 Q1016=
202204141720 METAR ESMX 141720Z 24004KT 7000 -DZ SCT062 BKN078 09/09 Q1016=
202204141650 METAR ESMX 141650Z AUTO 25004KT 210V280 9999 -DZ FEW021/// SCT059/// OVC076/// 10/09 Q1016=
202204141620 METAR ESMX 141620Z AUTO 28005KT 9999 -DZ SCT015/// BKN021/// OVC026/// 10/09 Q1016 RERA=
202204141550 METAR ESMX 141550Z 29006KT 9999 -RA BKN017 11/09 Q1015=
202204141520 METAR ESMX 141520Z 27005KT 240V300 9999 -RA FEW010 BKN016 11/09 Q1015=
202204141450 METAR COR ESMX 141450Z 28004KT 9999 FEW010 BKN013 11/09 Q1015=
202204141420 METAR COR ESMX 141420Z 27004KT 240V300 9000 -DZ FEW011 BKN020 10/09 Q1015=
202204141350 METAR ESMX 141350Z 25004KT 210V280 9999 BKN009 10/09 Q1015=
202204141320 METAR ESMX 141320Z 24004KT 200V270 8000 BR BKN007 10/09 Q1015=
202204141250 METAR ESMX 141250Z AUTO 23005KT 5000 BR SCT006/// BKN007/// BKN011/// 10/10 Q1015=
202204141220 METAR ESMX 141220Z 22005KT 5000 -DZ OVC003 10/10 Q1015=
202204141150 METAR ESMX 141150Z 23007KT 5000 -DZ OVC004 10/10 Q1015=
202204141120 METAR ESMX 141120Z 25006KT 7000 OVC005 10/10 Q1015=
202204141050 METAR ESMX 141050Z 24006KT 6000 OVC004 10/10 Q1015=
202204141020 METAR ESMX 141020Z 23006KT 5000 BR OVC002 10/10 Q1015=
202204140950 METAR ESMX 140950Z 21004KT 180V250 2100 BR OVC002 09/09 Q1015=
202204140920 METAR ESMX 140920Z 21006KT 2000 BR OVC002 09/09 Q1015=
202204140850 METAR COR ESMX 140850Z 18005KT 2000 BR VV002 09/09 Q1015=
202204140820 METAR ESMX 140820Z 18005KT 0800 R19/1000N FG VV002 08/08 Q1015=
202204140750 METAR ESMX 140750Z 17005KT 0400 R19/0600 FG VV002 07/07 Q1015=
202204140720 METAR ESMX 140720Z 17006KT 0200 R19/0325N FG VV002 07/07 Q1015=
202204140650 METAR ESMX 140650Z 16004KT 0200 R19/0300N FG VV002 07/07 Q1015=
202204140620 METAR ESMX 140620Z 18004KT 0250 R19/0450N FG VV002 06/06 Q1015=
202204140550 METAR ESMX 140550Z 16004KT 0300 R19/0500N FG VV002 06/06 Q1015=
202204140520 METAR ESMX 140520Z AUTO 16004KT 3400 BR OVC003/// 06/06 Q1015=
202204140450 METAR ESMX 140450Z AUTO 16003KT 5000 BR OVC005/// 05/05 Q1015=
202204140420 METAR ESMX 140420Z AUTO 16004KT 6000 BR OVC005/// 05/05 Q1015=
202204140350 METAR ESMX 140350Z AUTO 16002KT 6000 BR OVC006/// 05/05 Q1015=
202204140320 METAR ESMX 140320Z AUTO 19003KT 5000 BR BKN008/// 05/05 Q1015=
202204140250 METAR ESMX 140250Z AUTO 20003KT 6000 BR SCT009/// BKN029/// 05/05 Q1015 REDZ=
202204140220 METAR ESMX 140220Z AUTO 17002KT 9000 BR VV008 05/05 Q1015=
202204140150 METAR ESMX 140150Z AUTO 16003KT 9999 FEW026/// BKN072/// 05/05 Q1015 RESHUP REDZ=
202204140120 METAR ESMX 140120Z AUTO 16002KT 9999 SCT021/// OVC070/// 05/05 Q1015=
202204140050 METAR ESMX 140050Z VRB01KT 9999 OVC015 05/05 Q1015=
202204140020 METAR ESMX 140020Z VRB02KT 9999 -RA OVC021 05/05 Q1016=
202204132350 METAR ESMX 132350Z 00000KT 7000 -RA OVC064 05/05 Q1016=
202204132320 METAR ESMX 132320Z 16003KT 8000 RA OVC059 05/05 Q1016=
202204132250 METAR ESMX 132250Z 16003KT 6000 -RA FEW001 BKN029 05/04 Q1017=
202204132220 METAR ESMX 132220Z 17004KT 9999 RA BKN031 06/03 Q1017=
202204132150 METAR ESMX 132150Z 16003KT 9999 DZ BKN031 OVC047 07/01 Q1017=
202204132120 METAR ESMX 132120Z 16003KT 9999 -RA SCT033 BKN062 07/00 Q1017=
202204132050 METAR ESMX 132050Z AUTO 12004KT 9999 BKN039/// OVC062/// 07/00 Q1017=
202204132020 METAR ESMX 132020Z 15005KT 9999 -DZ FEW014 OVC051 08/M00 Q1017=
202204131950 METAR ESMX 131950Z 15006KT CAVOK 08/M01 Q1018=
202204131920 METAR ESMX 131920Z 14007KT 090V160 CAVOK 08/M01 Q1018=
202204131850 METAR ESMX 131850Z 14006KT CAVOK 09/M01 Q1018=
202204131820 METAR ESMX 131820Z 14006KT 100V160 CAVOK 09/M01 Q1018=
202204131750 METAR ESMX 131750Z 15007KT 110V180 CAVOK 10/M01 Q1018=
202204131720 METAR ESMX 131720Z 13007KT 090V170 CAVOK 10/M02 Q1018=
202204131650 METAR ESMX 131650Z 14007KT 100V170 CAVOK 10/M03 Q1018=
202204131620 METAR ESMX 131620Z 13008KT 080V160 CAVOK 11/M03 Q1018=
202204131550 METAR ESMX 131550Z 15008KT CAVOK 11/M03 Q1018=
202204131520 METAR ESMX 131520Z 13009KT 100V180 CAVOK 11/M04 Q1018=
202204131450 METAR ESMX 131450Z 16010KT 110V190 CAVOK 12/M03 Q1018=
202204131420 METAR ESMX 131420Z 14009KT 110V180 CAVOK 12/M03 Q1019=
202204131350 METAR ESMX 131350Z 13009KT 090V180 CAVOK 12/M03 Q1019=
202204131320 METAR ESMX 131320Z 14011KT 110V170 CAVOK 12/M04 Q1019=
202204131250 METAR ESMX 131250Z 14009KT 090V170 CAVOK 12/M03 Q1019=
202204131220 METAR ESMX 131220Z 15014KT 110V170 CAVOK 11/M02 Q1019=
202204131150 METAR ESMX 131150Z 13009KT 070V190 CAVOK 11/00 Q1020=
202204131120 METAR ESMX 131120Z 11007KT 050V150 CAVOK 10/00 Q1020=
202204131050 METAR ESMX 131050Z 13008KT 060V170 CAVOK 09/00 Q1021=
202204131020 METAR ESMX 131020Z 14006KT 080V170 CAVOK 08/M00 Q1021=
202204130950 METAR ESMX 130950Z 12005KT 050V180 CAVOK 08/M00 Q1021=
202204130920 METAR ESMX 130920Z 10005KT 050V140 CAVOK 07/00 Q1021=
202204130850 METAR ESMX 130850Z 11005KT 050V140 CAVOK 07/M00 Q1021=
202204130820 METAR ESMX 130820Z 10004KT 060V140 CAVOK 06/M00 Q1021=
202204130750 METAR ESMX 130750Z 12005KT CAVOK 05/M00 Q1021=
202204130720 METAR ESMX 130720Z 12006KT 080V150 CAVOK 05/M01 Q1021=
202204130650 METAR ESMX 130650Z 12006KT 060V170 CAVOK 04/M01 Q1021=
202204130620 METAR ESMX 130620Z 13006KT CAVOK 04/M01 Q1021=
202204130550 METAR COR ESMX 130550Z 13006KT 100V160 CAVOK 04/M02 Q1021=
202204130520 METAR ESMX 130520Z AUTO 12006KT 080V150 9999 OVC098/// 04/M02 Q1021=
202204130450 METAR ESMX 130450Z AUTO 11005KT 070V140 9999 OVC100/// 03/M02 Q1021=
202204130420 METAR ESMX 130420Z AUTO 11004KT 9999 NCD 03/M02 Q1021=
202204130350 METAR ESMX 130350Z AUTO 12003KT 9999 SCT100/// 03/M02 Q1021=
202204130320 METAR ESMX 130320Z AUTO 11004KT 060V120 9999 SCT100/// 03/M02 Q1021=
202204130250 METAR ESMX 130250Z AUTO VRB02KT 9999 BKN100/// 03/M03 Q1021=
202204130220 METAR ESMX 130220Z AUTO 08002KT 9999 OVC110/// 03/M03 Q1022=
202204130150 METAR ESMX 130150Z AUTO VRB03KT 9999 OVC110/// 03/M03 Q1022=
202204130120 METAR ESMX 130120Z AUTO 11003KT 050V170 9999 FEW090/// OVC110/// 03/M03 Q1022=
202204130050 METAR ESMX 130050Z 13003KT 080V170 CAVOK 04/M03 Q1022=
202204130020 METAR ESMX 130020Z 14005KT 100V170 CAVOK 04/M03 Q1022=
202204122350 METAR ESMX 122350Z 14005KT 110V170 CAVOK 04/M02 Q1022=
202204122320 METAR ESMX 122320Z 14005KT CAVOK 05/M02 Q1022=
202204122250 METAR ESMX 122250Z VRB03KT CAVOK 03/M02 Q1022=
202204122220 METAR ESMX 122220Z VRB02KT CAVOK 04/M02 Q1021=
202204122150 METAR ESMX 122150Z AUTO VRB02KT 9999 BKN100/// 04/M02 Q1021=
202204122120 METAR ESMX 122120Z AUTO 15003KT 9999 FEW098/// 05/M03 Q1021=
202204122050 METAR ESMX 122050Z AUTO 15004KT 9999 SCT100/// 06/M03 Q1021=
202204122020 METAR ESMX 122020Z AUTO 16004KT 9999 OVC098/// 06/M03 Q1021=
202204121950 METAR ESMX 121950Z AUTO 14005KT 9999 OVC100/// 07/M02 Q1021=
202204121920 METAR ESMX 121920Z AUTO 17005KT 9999 SCT120/// 06/M03 Q1021=
202204121850 METAR ESMX 121850Z AUTO 17006KT 9999 SCT130/// 07/M03 Q1021=
202204121820 METAR ESMX 121820Z AUTO 16006KT 9999 OVC120/// 08/M03 Q1021=
202204121750 METAR ESMX 121750Z AUTO 15008KT 9999 BKN100/// BKN130/// 08/M04 Q1021=
202204121720 METAR ESMX 121720Z AUTO 16008KT 120V190 9999 SCT100/// 09/M04 Q1021=
202204121650 METAR ESMX 121650Z AUTO 18005KT 150V210 9999 NCD 10/M04 Q1020=
202204121620 METAR ESMX 121620Z AUTO 18003KT 9999 NCD 11/M07 Q1020=
202204121550 METAR ESMX 121550Z AUTO 18003KT 9999 NCD 11/M08 Q1020=
202204121520 METAR ESMX 121520Z AUTO 18003KT 9999 SCT160/// 12/M09 Q1020=
202204121450 METAR ESMX 121450Z AUTO 14003KT 9999 FEW160/// 12/M09 Q1020=
202204121420 METAR ESMX 121420Z 22003KT CAVOK 12/M09 Q1020=
202204121350 METAR ESMX 121350Z 17005KT CAVOK 12/M08 Q1020=
202204121320 METAR ESMX 121320Z 33003KT 250V050 CAVOK 12/M09 Q1020=
202204121250 METAR ESMX 121250Z VRB02KT CAVOK 12/M09 Q1020=
202204121220 METAR ESMX 121220Z 34007KT 300V010 CAVOK 12/M08 Q1020=
202204121150 METAR ESMX 121150Z 32006KT 260V360 CAVOK 11/M08 Q1020=
202204121120 METAR ESMX 121120Z 34005KT 300V050 CAVOK 12/M08 Q1020=
202204121050 METAR ESMX 121050Z 02005KT 330V070 CAVOK 11/M08 Q1021=
202204121020 METAR ESMX 121020Z 04005KT 340V070 CAVOK 10/M08 Q1021=
202204120950 METAR ESMX 120950Z 34004KT 230V030 CAVOK 09/M08 Q1021=
202204120920 METAR ESMX 120920Z 35004KT 300V030 CAVOK 09/M08 Q1021=
202204120850 METAR ESMX 120850Z 07004KT 010V100 CAVOK 09/M09 Q1021=
202204120820 METAR ESMX 120820Z 09004KT 060V120 CAVOK 08/M04 Q1021=
202204120750 METAR ESMX 120750Z 03004KT CAVOK 07/M05 Q1021=
202204120720 METAR ESMX 120720Z 07004KT CAVOK 06/M03 Q1020=
202204120650 METAR ESMX 120650Z VRB02KT CAVOK 04/M02 Q1020=
202204120620 METAR ESMX 120620Z VRB02KT CAVOK 02/M01 Q1020=
202204120550 METAR ESMX 120550Z 35003KT CAVOK M00/M01 Q1020=
202204120520 METAR ESMX 120520Z AUTO 31001KT 9999 NCD M03/M03 Q1020=
202204120450 METAR ESMX 120450Z AUTO 00000KT 9999 NCD M05/M05 Q1019=
202204120420 METAR ESMX 120420Z AUTO 00000KT 9999 NCD M05/M05 Q1019=
202204120350 METAR ESMX 120350Z AUTO 00000KT 9999 NCD M06/M06 Q1019=
202204120320 METAR ESMX 120320Z AUTO 00000KT 9999 NCD M05/M05 Q1019=
202204120250 METAR ESMX 120250Z AUTO 00000KT 9999 NCD M05/M05 Q1019=
202204120220 METAR ESMX 120220Z AUTO 00000KT 9999 NCD M05/M05 Q1018=
202204120150 METAR ESMX 120150Z AUTO 00000KT 9999 NCD M04/M05 Q1018=
202204120120 METAR ESMX 120120Z 00000KT CAVOK M03/M04 Q1018=
202204120050 METAR ESMX 120050Z 20002KT CAVOK M04/M05 Q1018=
202204120020 METAR ESMX 120020Z 30003KT CAVOK M04/M05 Q1018=
202204112350 METAR ESMX 112350Z 22001KT CAVOK M03/M05 Q1018=
202204112320 METAR ESMX 112320Z 00000KT CAVOK M01/M04 Q1017=
202204112250 METAR ESMX 112250Z 00000KT CAVOK M00/M04 Q1017=
202204112220 METAR ESMX 112220Z 30001KT CAVOK 00/M04 Q1017=
202204112150 METAR ESMX 112150Z AUTO 29003KT 9999 NCD 00/M04 Q1017=
202204112120 METAR ESMX 112120Z AUTO 28003KT 9999 NCD 01/M04 Q1017=
202204112050 METAR ESMX 112050Z AUTO 29004KT 9999 NCD 02/M04 Q1016=
202204112020 METAR ESMX 112020Z AUTO 27005KT 9999 NCD 03/M05 Q1016=
202204111950 METAR ESMX 111950Z 27005KT CAVOK 03/M05 Q1016=
202204111920 METAR ESMX 111920Z 28005KT CAVOK 04/M05 Q1015=
202204111850 METAR ESMX 111850Z 28006KT CAVOK 05/M05 Q1015=
202204111820 METAR ESMX 111820Z 28006KT CAVOK 05/M06 Q1015=
202204111750 METAR ESMX 111750Z 27008KT CAVOK 07/M06 Q1014=
202204111720 METAR ESMX 111720Z 26010KT CAVOK 08/M06 Q1014=
202204111650 METAR ESMX 111650Z 26011KT CAVOK 09/M05 Q1013=
202204111620 METAR ESMX 111620Z 27011KT 220V300 CAVOK 10/M06 Q1013=
202204111550 METAR ESMX 111550Z 26010KT 220V300 CAVOK 11/M05 Q1012=
202204111520 METAR ESMX 111520Z 27008KT 240V310 CAVOK 10/M05 Q1012=
202204111450 METAR ESMX 111450Z 29008KT CAVOK 10/M05 Q1012=
202204111420 METAR ESMX 111420Z 25011KT 220V290 CAVOK 11/M05 Q1012=
202204111350 METAR ESMX 111350Z 28007KT CAVOK 10/M05 Q1012=
202204111320 METAR ESMX 111320Z AUTO 23009KT 200V280 9999 OVC080/// 11/M04 Q1012=
202204111250 METAR ESMX 111250Z 25011KT CAVOK 11/M03 Q1012=
202204111220 METAR ESMX 111220Z 26009KT 230V300 CAVOK 11/M02 Q1012=
202204111150 METAR ESMX 111150Z 27007KT 230V320 9999 FEW047 SCT059 10/M03 Q1012=
202204111120 METAR ESMX 111120Z 29009KT 260V320 9999 FEW045 10/M00 Q1012=
202204111050 METAR ESMX 111050Z 29009KT 9999 SCT044 09/M01 Q1012=
202204111020 METAR ESMX 111020Z 27010KT 230V310 9999 SCT042 09/M01 Q1012=
202204110950 METAR ESMX 110950Z 29009KT 240V330 9999 SCT038 08/M02 Q1012=
202204110920 METAR ESMX 110920Z 24010KT 200V270 9999 SCT035 07/M01 Q1012=
202204110850 METAR ESMX 110850Z 23009KT 9999 SCT019 07/00 Q1012=
202204110820 METAR ESMX 110820Z 24009KT 210V280 9999 SCT018 06/01 Q1012=
202204110750 METAR ESMX 110750Z 25007KT 230V290 9999 BKN008 05/02 Q1012=
202204110720 METAR ESMX 110720Z 26007KT 210V300 9999 BKN007 03/02 Q1012=
202204110650 METAR ESMX 110650Z 28007KT 9999 BKN005 03/02 Q1012=
202204110620 METAR ESMX 110620Z 24004KT 9999 BKN004 02/01 Q1012=
202204110550 METAR ESMX 110550Z 23003KT 9999 BKN004 01/01 Q1012=
202204110520 METAR ESMX 110520Z 23004KT 9999 BKN005 01/01 Q1011=
202204110450 METAR ESMX 110450Z 23005KT 9999 BKN005 01/01 Q1011=
202204110420 METAR ESMX 110420Z 23005KT 9999 BKN004 02/01 Q1011=
202204110350 METAR ESMX 110350Z 25007KT 9999 OVC004 01/01 Q1011=
202204110320 METAR ESMX 110320Z AUTO 25008KT 220V280 9999 OVC004/// 01/01 Q1011=
202204110250 METAR ESMX 110250Z AUTO 25008KT 9999 OVC005/// 01/01 Q1010=
202204110220 METAR ESMX 110220Z AUTO 25006KT 9999 BKN006/// OVC008/// 00/00 Q1010=
202204110150 METAR ESMX 110150Z AUTO 24006KT 9999 VV007 00/M00 Q1010=
202204110120 METAR ESMX 110120Z AUTO 25007KT 9999 NCD 00/M00 Q1010=
202204110050 METAR ESMX 110050Z AUTO 25007KT 9999 NCD 01/00 Q1010=
202204110020 METAR ESMX 110020Z AUTO 26007KT 9999 NCD 01/M00 Q1010=
202204102350 METAR ESMX 102350Z AUTO 25007KT 9999 NCD 01/M00 Q1010=
202204102320 METAR ESMX 102320Z AUTO 25006KT 9999 NCD 01/M00 Q1010=
202204102250 METAR ESMX 102250Z AUTO 23006KT 9999 NCD 00/M01 Q1009=
202204102220 METAR ESMX 102220Z AUTO 24006KT 9999 NCD 01/M01 Q1009=
202204102150 METAR ESMX 102150Z AUTO 24006KT 9999 NCD 01/M01 Q1009=
202204102120 METAR ESMX 102120Z AUTO 22006KT 9999 NCD 00/M02 Q1009=
202204102050 METAR ESMX 102050Z 23005KT CAVOK 02/M01 Q1009=
202204102020 METAR ESMX 102020Z 25008KT CAVOK 03/M01 Q1008=
202204101950 METAR ESMX 101950Z 24008KT CAVOK 03/M01 Q1008=
202204101920 METAR ESMX 101920Z 25008KT CAVOK 04/M02 Q1008=
202204101850 METAR ESMX 101850Z 23007KT CAVOK 04/M03 Q1007=
202204101820 METAR ESMX 101820Z 25007KT CAVOK 05/M04 Q1007=
202204101750 METAR ESMX 101750Z 26010KT 230V290 CAVOK 06/M04 Q1006=
202204101720 METAR ESMX 101720Z AUTO 27009KT 9999 BKN098/// 07/M04 Q1006=
202204101650 METAR ESMX 101650Z 26013KT CAVOK 08/M05 Q1005=
202204101620 METAR ESMX 101620Z 28013KT CAVOK 08/M05 Q1005=
202204101550 METAR ESMX 101550Z 27012KT 240V310 CAVOK 08/M04 Q1005=
202204101520 METAR ESMX 101520Z 27015KT 240V300 CAVOK 08/M03 Q1004=
202204101450 METAR ESMX 101450Z 27012KT CAVOK 08/M03 Q1004=
202204101420 METAR ESMX 101420Z 28014KT 240V300 CAVOK 08/M04 Q1004=
202204101350 METAR COR ESMX 101350Z 27015G25KT 250V310 CAVOK 08/M04 Q1003=
202204101320 METAR ESMX 101320Z 26016KT CAVOK 08/M04 Q1003=
202204101250 METAR ESMX 101250Z 26016KT CAVOK 09/M03 Q1002=
202204101220 METAR ESMX 101220Z 26015G26KT 220V290 CAVOK 09/M03 Q1002=
202204101150 METAR ESMX 101150Z 26013KT 230V290 9999 BKN049 08/M02 Q1002=
202204101120 METAR ESMX 101120Z 25012G24KT 190V270 9999 BKN049 09/M02 Q1002=
202204101050 METAR ESMX 101050Z 26014G27KT 240V310 9999 BKN047 09/M02 Q1002=
202204101020 METAR ESMX 101020Z 25013KT 9999 BKN043 08/M01 Q1001=
202204100950 METAR ESMX 100950Z 27012KT 9999 BKN043 08/M01 Q1001=
202204100920 METAR ESMX 100920Z 26012KT 220V300 9999 SCT036 07/M02 Q1001=
202204100850 METAR ESMX 100850Z AUTO 25014KT 9999 SCT034/// 07/M01 Q1001=
202204100820 METAR ESMX 100820Z AUTO 26012KT 230V290 9999 SCT028/// 07/M00 Q1000=
202204100750 METAR ESMX 100750Z AUTO 28012KT 240V300 9999 SCT025/// 05/M00 Q1000=
202204100720 METAR ESMX 100720Z AUTO 26012KT 9999 FEW022/// 05/M00 Q1000=
202204100650 METAR ESMX 100650Z AUTO 27011KT 9999 NCD 04/00 Q0999=
202204100620 METAR ESMX 100620Z AUTO 25010KT 220V290 9999 NCD 03/00 Q0999=
202204100550 METAR ESMX 100550Z AUTO 26010KT 9999 NCD 03/00 Q0999=
202204100520 METAR ESMX 100520Z AUTO 26010KT 9999 NCD 02/00 Q0998=
202204100450 METAR ESMX 100450Z AUTO 26010KT 9999 NCD 02/M00 Q0998=
202204100420 METAR ESMX 100420Z AUTO 26010KT 9999 NCD 01/M00 Q0998=
202204100350 METAR ESMX 100350Z AUTO 26009KT 9999 NCD 01/M00 Q0997=
202204100320 METAR ESMX 100320Z AUTO 26007KT 9999 NCD 01/M00 Q0997=
202204100250 METAR ESMX 100250Z AUTO 25009KT 9999 NCD 01/M00 Q0996=
202204100220 METAR ESMX 100220Z AUTO 25009KT 9999 NCD 01/M00 Q0996=
202204100150 METAR ESMX 100150Z AUTO 25009KT 9999 NCD 01/00 Q0996=
202204100120 METAR ESMX 100120Z AUTO 25008KT 9999 NCD 02/01 Q0996=
202204100050 METAR ESMX 100050Z AUTO 24007KT 9999 NCD 02/00 Q0996=
202204100020 METAR ESMX 100020Z AUTO 25009KT 9999 NCD 02/01 Q0995=
202204092350 METAR ESMX 092350Z AUTO 25008KT 9999 NCD 02/01 Q0995=
202204092320 METAR ESMX 092320Z AUTO 23008KT 9999 NCD 02/01 Q0995=
202204092250 METAR ESMX 092250Z AUTO 24008KT 9999 NCD 02/01 Q0995=
202204092220 METAR ESMX 092220Z AUTO 23008KT 9999 NCD 02/01 Q0995=
202204092150 METAR ESMX 092150Z AUTO 23009KT 9999 NCD 02/01 Q0994=
202204092120 METAR ESMX 092120Z AUTO 23008KT 9999 NCD 02/01 Q0994=
202204092050 METAR ESMX 092050Z AUTO 23009KT 9999 NCD 02/01 Q0994=
202204092020 METAR ESMX 092020Z AUTO 22009KT 9999 NCD 02/01 Q0994=
202204091950 METAR ESMX 091950Z AUTO 23009KT 9999 NCD 03/00 Q0994=
202204091920 METAR ESMX 091920Z AUTO 23009KT 9999 NCD 03/M00 Q0993=
202204091850 METAR ESMX 091850Z AUTO 22009KT 9999 NCD 03/M00 Q0993=
202204091820 METAR ESMX 091820Z AUTO 22009KT 9999 NCD 04/M01 Q0993=
202204091750 METAR ESMX 091750Z AUTO 24009KT 9999 NCD 04/M02 Q0992=
202204091720 METAR ESMX 091720Z AUTO 25011KT 9999 FEW044/// 05/M02 Q0992=
202204091650 METAR ESMX 091650Z AUTO 26009KT 230V290 9999 FEW086/// 05/M02 Q0992=
202204091620 METAR ESMX 091620Z AUTO 25014KT 210V280 9999 FEW046/// 06/M02 Q0992=
202204091550 METAR ESMX 091550Z AUTO 25015KT 9999 BKN051/// OVC074/// 07/M03 Q0991=
202204091520 METAR ESMX 091520Z AUTO 26016G28KT 9999 FEW048/// BKN068/// OVC086/// 07/M03 Q0991=
202204091450 METAR ESMX 091450Z AUTO 23017KT 210V270 9999 SCT047/// BKN068/// 06/M03 Q0991=
202204091420 METAR ESMX 091420Z AUTO 23017G28KT 9999 SCT048/// BKN066/// BKN084/// 07/M04 Q0990=
202204091350 METAR ESMX 091350Z AUTO 25017KT 220V290 9999 BKN064/// 07/M04 Q0990=
202204091320 METAR ESMX 091320Z AUTO 24016KT 9999 SCT055/// OVC070/// 06/M05 Q0990=
202204091250 METAR ESMX 091250Z AUTO 25014KT 9999 BKN055/// OVC068/// 07/M04 Q0990=
202204091220 METAR ESMX 091220Z AUTO 25017G27KT 220V290 9999 OVC055/// 06/M04 Q0989=
202204091150 METAR ESMX 091150Z AUTO 25017KT 9999 BKN053/// 06/M05 Q0989=
202204091120 METAR ESMX 091120Z AUTO 24015KT 210V280 9999 SCT053/// BKN064/// 06/M03 Q0989=
202204091050 METAR ESMX 091050Z AUTO 24014KT 210V280 9999 BKN055/// 05/M05 Q0988=
202204091020 METAR ESMX 091020Z AUTO 25014KT 230V290 9999 BKN049/// 06/M04 Q0988=
202204090950 METAR ESMX 090950Z AUTO 26015KT 9999 BKN049/// 05/M05 Q0988=
202204090920 METAR ESMX 090920Z AUTO 24014KT 9999 BKN049/// 05/M05 Q0988=
202204090850 METAR ESMX 090850Z AUTO 25014G25KT 9999 SCT045/// 04/M04 Q0988=
202204090820 METAR ESMX 090820Z AUTO 26013G24KT 220V280 9999 SCT034/// BKN055/// 04/M03 Q0987=
202204090750 METAR ESMX 090750Z AUTO 26015KT 9999 FEW030/// 03/M03 Q0987=
202204090720 METAR ESMX 090720Z AUTO 26011KT 210V280 9999 FEW040/// 03/M02 Q0987=
202204090650 METAR ESMX 090650Z AUTO 24009KT 9999 NCD 02/M01 Q0987=
202204090620 METAR ESMX 090620Z AUTO 24008KT 9999 NCD 01/M01 Q0986=
202204090550 METAR ESMX 090550Z AUTO 23009KT 9999 NCD 00/M03 Q0986=
202204090520 METAR ESMX 090520Z AUTO 23009KT 9999 NCD M01/M03 Q0986=
202204090450 METAR ESMX 090450Z AUTO 20009KT 9999 NCD M02/M03 Q0985=
202204090420 METAR ESMX 090420Z AUTO 22007KT 9999 NCD M03/M04 Q0985=
202204090350 METAR ESMX 090350Z AUTO 23006KT 9999 NCD M02/M03 Q0985=
202204090320 METAR ESMX 090320Z AUTO 23006KT 9999 FEW064/// M02/M02 Q0985=
202204090250 METAR ESMX 090250Z AUTO 24007KT 9999 NCD M01/M02 Q0985=
202204090220 METAR ESMX 090220Z AUTO 23007KT 9999 NCD M01/M02 Q0984 RESHUP=
202204090150 METAR ESMX 090150Z AUTO 22009KT 9999 FEW053/// SCT070/// M01/M01 Q0984 REFZUP=
202204090120 METAR ESMX 090120Z AUTO 21009KT 9999 FEW018/// M01/M01 Q0984=
202204090050 METAR ESMX 090050Z AUTO 19009KT 9999 NCD M01/M01 Q0984=
202204090020 METAR ESMX 090020Z AUTO 20009KT 9999 FEW057/// M01/M01 Q0984=
202204082350 METAR ESMX 082350Z AUTO 19009KT 9999 SCT030/// M01/M02 Q0984=
202204082320 METAR ESMX 082320Z AUTO 21008KT 9999 NCD M01/M02 Q0984=
202204082250 METAR ESMX 082250Z AUTO 22008KT 9999 NCD M01/M02 Q0984=
202204082220 METAR ESMX 082220Z AUTO 22008KT 9999 NCD M01/M02 Q0985=
202204082150 METAR ESMX 082150Z AUTO 20009KT 9999 NCD M01/M02 Q0985=
202204082120 METAR ESMX 082120Z AUTO 20007KT 9999 NCD M02/M03 Q0985=
202204082050 METAR ESMX 082050Z 20010KT CAVOK M01/M02 Q0985=
202204082020 METAR ESMX 082020Z 22009KT CAVOK M01/M02 Q0985=
202204081950 METAR ESMX 081950Z 22008KT 9999 FEW040 M00/M02 Q0985=
202204081920 METAR ESMX 081920Z 22008KT 9999 FEW037 M00/M01 Q0985=
202204081850 METAR ESMX 081850Z 22007KT 9999 FEW049 M00/M01 Q0985=
202204081820 METAR ESMX 081820Z 23006KT 9999 FEW049 00/M02 Q0984=
202204081750 METAR ESMX 081750Z 26008KT CAVOK 00/M02 Q0984=
202204081720 METAR ESMX 081720Z 26009KT 9999 FEW039 01/M02 Q0984=
202204081650 METAR ESMX 081650Z 28012KT 5000 -SHSN SCT025 BKN032 01/M02 Q0983=
202204081620 METAR ESMX 081620Z 26010KT 220V280 9999 VCSH FEW035 01/M01 Q0982=
202204081550 METAR COR ESMX 081550Z 28011KT 250V320 5000 -SN FEW014 BKN030 01/M01 Q0982=
202204081520 METAR ESMX 081520Z 29013KT 3000 SHSNRA FEW020 BKN028 02/M01 Q0981=
202204081450 METAR ESMX 081450Z 25013KT 220V280 9999 SCT036 03/M02 Q0981=
202204081420 METAR ESMX 081420Z 26011KT 230V290 9999 VCSH FEW033 SCT042 03/M03 Q0981=
202204081350 METAR ESMX 081350Z 25010G20KT 210V280 9999 VCSH BKN035 04/M01 Q0980=
202204081320 METAR ESMX 081320Z 24011KT 9999 -RA BKN035 03/M01 Q0980=
202204081250 METAR ESMX 081250Z 25013KT 9000 -SHSN SCT033 03/M01 Q0980=
202204081220 METAR ESMX 081220Z 26010KT 230V290 9999 -RA VCSH SCT026 02/M00 Q0980=
202204081150 METAR ESMX 081150Z 25013KT 210V280 4000 SHSNRA FEW009 BKN023 02/M01 Q0979=
202204081120 METAR ESMX 081120Z 24012KT 9999 VCSH FEW020 SCT026 02/M01 Q0979=
202204081050 METAR ESMX 081050Z 26012KT 9999 VCSH SCT010 BKN016 02/02 Q0979=
202204081020 METAR COR ESMX 081020Z 24011KT 210V300 9999 VCSH BKN025 02/M01 Q0978=
202204080950 METAR ESMX 080950Z 27014KT 9999 BKN023 03/M01 Q0978=
202204080920 METAR ESMX 080920Z 26011KT 220V290 9999 BKN021 03/M00 Q0978=
202204080850 METAR ESMX 080850Z 25014KT 9999 BKN018 03/01 Q0977=
202204080820 METAR ESMX 080820Z 26016KT 9999 BKN015 03/M00 Q0977=
202204080750 METAR ESMX 080750Z 26013KT 200V290 9999 BKN015 01/M00 Q0977=
202204080720 METAR ESMX 080720Z 26013KT 9999 -SN BKN013 01/M01 Q0976=
202204080650 METAR ESMX 080650Z 26011KT 230V290 9999 -RA FEW004 BKN009 00/M01 Q0976=
202204080620 METAR ESMX 080620Z 27012KT 9999 BKN013 00/M01 Q0975=
202204080550 METAR ESMX 080550Z 27013G24KT 9999 FEW008 BKN010 00/M01 Q0975=
202204080520 METAR ESMX 080520Z 27013KT 9999 -RA FEW007 BKN017 00/M00 Q0974=
202204080450 METAR ESMX 080450Z 27012KT 240V300 9999 VCSH FEW001 BKN012 00/M01 Q0974=
202204080420 METAR ESMX 080420Z 28011KT 9999 SHRASN FEW005CB BKN010 00/M00 Q0973=
202204080350 METAR ESMX 080350Z 28013KT 9999 BKN007 01/M00 Q0972=
202204080320 METAR ESMX 080320Z AUTO 29012KT 9999 -SN FEW002/// SCT007/// BKN009/// 01/00 Q0972 RERA=
202204080250 METAR ESMX 080250Z AUTO 27014KT 6000 -DZ SCT003/// BKN005/// OVC006/// 02/02 Q0970=
202204080220 METAR ESMX 080220Z 24008KT 9999 -RA OVC005 03/03 Q0969=
202204080150 METAR ESMX 080150Z 21009KT 7000 RA OVC006 02/02 Q0969=
202204080120 METAR ESMX 080120Z 23012KT 6000 RA OVC007 03/03 Q0968=
202204080050 METAR ESMX 080050Z AUTO 20009KT 5000 -DZ BKN006/// OVC009/// 04/03 Q0968 REUP=
202204080020 METAR COR ESMX 080020Z 20010KT 9999 -RA BKN007 04/03 Q0969=
202204072350 METAR ESMX 072350Z AUTO 20011KT 9999 OVC007/// 04/04 Q0969=
202204072320 METAR ESMX 072320Z 20009KT 160V230 9999 BKN008 04/04 Q0969=
202204072250 METAR COR ESMX 072250Z 21009KT 9999 BKN007 04/04 Q0969=
202204072220 METAR ESMX 072220Z AUTO 19011KT 9999 -DZ OVC007/// 04/04 Q0969 REUP REDZ=
202204072150 METAR ESMX 072150Z AUTO 20011KT 9999 OVC008/// 04/04 Q0969=
202204072120 METAR ESMX 072120Z AUTO 19012KT 9999 OVC009/// 04/04 Q0969=
202204072050 METAR ESMX 072050Z AUTO 20011KT 9999 OVC009/// 04/04 Q0969=
202204072020 METAR ESMX 072020Z AUTO 19011KT 9999 OVC007/// 05/04 Q0970=
202204071950 METAR ESMX 071950Z AUTO 19010KT 9999 BKN007/// OVC010/// 04/04 Q0970=
202204071920 METAR ESMX 071920Z AUTO 19013KT 9999 SCT007/// BKN009/// BKN011/// 04/04 Q0970 RESHUP=
202204071850 METAR ESMX 071850Z AUTO 18011KT 9999 OVC007/// 05/04 Q0970 REUP RESHUP=
202204071820 METAR ESMX 071820Z 20010KT 9999 BKN008 05/05 Q0970=
202204071750 METAR ESMX 071750Z 20009KT 9999 BKN009 05/04 Q0970=
202204071720 METAR ESMX 071720Z 22009KT 9999 SCT008 BKN011 05/04 Q0970=
202204071650 METAR ESMX 071650Z 22008KT 9999 BKN007 05/04 Q0970=
202204071620 METAR ESMX 071620Z AUTO 22011KT 9999 SCT007/// BKN009/// OVC027/// 05/04 Q0970=
202204071550 METAR ESMX 071550Z 21009KT 180V240 9999 SHRA SCT007 BKN012CB 05/05 Q0970=
202204071520 METAR ESMX 071520Z 23010KT 6000 SHRASN FEW001 BKN006CB 05/05 Q0970=
202204071450 METAR ESMX 071450Z 15008KT 120V190 7000 RA FEW002 BKN006 06/06 Q0970=
202204071420 METAR ESMX 071420Z 15008KT 120V180 9999 -RA FEW007 BKN012 07/06 Q0971=
202204071350 METAR ESMX 071350Z 16010KT 9999 -RA SCT005 BKN009 07/06 Q0972=
202204071320 METAR ESMX 071320Z 17010KT 9999 -RA BKN008 07/07 Q0973=
202204071250 METAR ESMX 071250Z 14009KT 110V170 9999 -DZ BKN005 07/07 Q0974=
202204071220 METAR ESMX 071220Z 14008KT 090V170 9999 -RA BKN006 07/07 Q0975=
202204071150 METAR ESMX 071150Z 15008KT 110V170 9999 -DZ BKN007 07/07 Q0975=
202204071120 METAR ESMX 071120Z 14008KT 110V170 9999 BKN006 06/06 Q0976=
202204071050 METAR ESMX 071050Z 15009KT 120V190 9000 -DZ BKN005 06/06 Q0977=
202204071020 METAR ESMX 071020Z 14008KT 090V180 9999 -DZ FEW002 BKN006 06/06 Q0978=
202204070950 METAR ESMX 070950Z 15008KT 7000 -DZ SCT002 BKN006 06/06 Q0978=
202204070920 METAR ESMX 070920Z 15008KT 110V180 9000 -RA SCT007 BKN013 06/05 Q0978=
202204070850 METAR ESMX 070850Z 17008KT 9000 -RA BKN007 06/05 Q0979=
202204070820 METAR ESMX 070820Z 17008KT 9000 -RA BKN007 06/06 Q0979=
202204070750 METAR ESMX 070750Z 18007KT 9000 -DZ BKN005 05/05 Q0980=
202204070720 METAR ESMX 070720Z 19008KT 8000 BKN005 06/05 Q0980=
202204070650 METAR ESMX 070650Z 19006KT 9999 BKN004 05/05 Q0980=
202204070620 METAR ESMX 070620Z 19007KT 9000 OVC004 05/05 Q0981=
202204070550 METAR ESMX 070550Z AUTO 21007KT 9999 BKN003/// BKN009/// OVC011/// 05/05 Q0981=
202204070520 METAR ESMX 070520Z AUTO 19005KT 4100 BR BKN003/// BKN004/// OVC013/// 05/05 Q0981=
202204070450 METAR ESMX 070450Z AUTO 19005KT 2800 DZ BKN003/// BKN005/// OVC007/// 04/04 Q0981=
202204070420 METAR ESMX 070420Z AUTO 20005KT 4900 -DZ OVC003/// 04/04 Q0981=
202204070350 METAR ESMX 070350Z AUTO 19005KT 8000 DZ SCT004/// BKN007/// OVC047/// 04/04 Q0981 REDZ=
202204070320 METAR ESMX 070320Z AUTO 18007KT 8000 -RA FEW005/// SCT013/// OVC028/// 04/04 Q0982=
202204070250 METAR ESMX 070250Z AUTO 19008KT 4300 -RA BKN004/// OVC008/// 05/05 Q0982=
202204070220 METAR ESMX 070220Z AUTO 19008KT 9999 DZ SCT006/// BKN010/// OVC046/// 05/05 Q0982=
202204070150 METAR ESMX 070150Z AUTO 19008KT 9999 BKN005/// OVC007/// 05/05 Q0983 REDZ=
202204070120 METAR ESMX 070120Z AUTO 20008KT 9999 -DZ BKN006/// OVC009/// 05/05 Q0983=
202204070050 METAR ESMX 070050Z 20008KT 9999 -RA BKN006 05/05 Q0983=
202204070020 METAR ESMX 070020Z 20009KT 9999 -RA SCT007 BKN010 05/05 Q0983=
202204062350 METAR ESMX 062350Z 21009KT 9999 BKN007 05/05 Q0984=
202204062320 METAR COR ESMX 062320Z 22010KT 9999 BKN005 05/05 Q0984=
202204062250 METAR COR ESMX 062250Z 22009KT 9000 -RA FEW005 BKN007 06/06 Q0984=
202204062220 METAR ESMX 062220Z AUTO 21011KT 9999 FEW002/// BKN006/// OVC015/// 06/06 Q0984=
202204062150 METAR ESMX 062150Z AUTO 21009KT 5000 RA FEW002/// SCT005/// BKN007/// 06/06 Q0984=
202204062120 METAR ESMX 062120Z AUTO 22010KT 9999 -RA FEW002/// SCT009/// BKN011/// 06/06 Q0984 REUP=
202204062050 METAR ESMX 062050Z AUTO 21011KT 9999 BKN010/// OVC018/// 06/05 Q0984=
202204062020 METAR ESMX 062020Z AUTO 22011KT 9999 OVC011/// 06/06 Q0984=
202204061950 METAR ESMX 061950Z 19010KT 9999 SCT010 BKN013 05/05 Q0984=
202204061920 METAR ESMX 061920Z 19005KT 8000 RA SCT013 BKN022 04/04 Q0985=
202204061850 METAR ESMX 061850Z 19003KT 3400 RA FEW015 BKN022 04/04 Q0985=
202204061820 METAR ESMX 061820Z 19004KT 5000 -RA FEW007 BKN010 04/04 Q0985=
202204061750 METAR ESMX 061750Z 19004KT 5000 -RA FEW002 BKN006 04/04 Q0985=
202204061720 METAR ESMX 061720Z 15005KT 130V200 1800 -RA BKN004 02/02 Q0985=
202204061650 METAR ESMX 061650Z 33006KT 2400 RA OVC002 02/02 Q0986=
202204061620 METAR ESMX 061620Z 15003KT 9999 OVC003 02/02 Q0986=
202204061550 METAR ESMX 061550Z 16006KT 9000 -DZ OVC003 02/02 Q0986=
202204061520 METAR ESMX 061520Z AUTO 16004KT 9999 OVC004/// 02/02 Q0986=
202204061450 METAR ESMX 061450Z 14005KT 090V190 5000 -RASN OVC004 01/01 Q0987=
202204061420 METAR ESMX 061420Z 14006KT 080V180 3700 -RASN OVC002 01/01 Q0987=
202204061350 METAR ESMX 061350Z 13007KT 060V150 2000 -SN VV008 01/01 Q0987=
202204061320 METAR ESMX 061320Z 12006KT 080V150 3000 -SN VV005 01/01 Q0988=
202204061250 METAR ESMX 061250Z AUTO 11004KT 070V140 1700 R01/1500U R19/1400U -SN BKN001/// OVC009/// 01/01 Q0989=
202204061220 METAR ESMX 061220Z 12005KT 070V140 1000 R01/0900N R19/0900N SN VV004 00/00 Q0990=
202204061150 METAR ESMX 061150Z AUTO 12005KT 070V140 1700 -RASN BKN001/// OVC021/// 00/00 Q0990 RERASN=
202204061120 METAR ESMX 061120Z 12005KT 060V150 1000 R01/1400D R19/1400D SN VV006 00/00 Q0991=
202204061050 METAR ESMX 061050Z 15005KT 110V170 3000 SN SCT002 BKN006 01/00 Q0991=
202204061020 METAR ESMX 061020Z 15006KT 120V190 6000 -SN SCT005 BKN019 01/01 Q0992=
202204060950 METAR ESMX 060950Z 19009KT 2000 -SN SCT001 BKN005 00/00 Q0992=
202204060920 METAR ESMX 060920Z 17007KT 3600 -RASN FEW002 BKN005 OVC022 01/01 Q0993 RERA=
202204060850 METAR ESMX 060850Z 17007KT 6000 -SN SCT006 BKN030 01/01 Q0993=
202204060820 METAR ESMX 060820Z 18005KT 9999 BKN004 BKN015 00/00 Q0993=
202204060750 METAR ESMX 060750Z 16004KT 120V190 9999 BKN005 M00/M00 Q0993=
202204060720 METAR ESMX 060720Z 20004KT 9999 BKN005 BKN088 M00/M00 Q0994=
202204060650 METAR ESMX 060650Z 15004KT 110V180 9999 BKN004 BKN088 M01/M01 Q0994=
202204060620 METAR ESMX 060620Z VRB03KT 9999 BKN004 BKN100 M01/M01 Q0994=
202204060550 METAR ESMX 060550Z 22003KT 9999 BKN002 M02/M02 Q0994=
202204060520 METAR ESMX 060520Z AUTO 22003KT 3900 OVC001/// M03/M03 Q0994=
202204060450 METAR ESMX 060450Z AUTO 00000KT 1800 R01/P2000N R19/1400U OVC001/// M03/M03 Q0994=
202204060420 METAR ESMX 060420Z AUTO 17003KT 0300 R01/0900N R19/0700N FZFG VV002 M04/M04 Q0995=
202204060350 METAR ESMX 060350Z AUTO 22003KT 0200 R01/0650N R19/0700N FZFG VV002 M03/M03 Q0995=
202204060320 METAR ESMX 060320Z AUTO 22003KT 0200 R01/0700N R19/0700N FZFG OVC001/// M03/M03 Q0995=
202204060250 METAR ESMX 060250Z AUTO 22004KT 0400 R01/1300D R19/1300D FZFG OVC001/// M03/M03 Q0995=
202204060220 METAR ESMX 060220Z AUTO 22005KT 9999 SCT002/// M04/M04 Q0995=
202204060150 METAR ESMX 060150Z AUTO 20003KT 2400 NCD M04/M04 Q0995=
202204060120 METAR ESMX 060120Z AUTO 22004KT 9999 NCD M04/M04 Q0995=
202204060050 METAR ESMX 060050Z 23005KT CAVOK M04/M04 Q0995=
202204060020 METAR ESMX 060020Z 23004KT CAVOK M03/M03 Q0995=
202204052350 METAR ESMX 052350Z 23005KT CAVOK M03/M03 Q0995=
202204052320 METAR ESMX 052320Z 23004KT CAVOK M03/M03 Q0995=
202204052250 METAR ESMX 052250Z 23005KT CAVOK M03/M04 Q0995=
202204052220 METAR COR ESMX 052220Z 25004KT CAVOK M03/M03 Q0995=
202204052150 METAR ESMX 052150Z AUTO 25004KT 9999 NCD M02/M03 Q0994=
202204052120 METAR ESMX 052120Z AUTO 24005KT 9999 FEW120/// M02/M03 Q0994=
202204052050 METAR ESMX 052050Z AUTO 25006KT 210V280 9999 FEW031/// SCT047/// BKN130/// M01/M02 Q0994 REFZUP RESHUP REFZRA=
202204052020 METAR ESMX 052020Z AUTO 25005KT 230V320 9999 FEW006/// SCT035/// OVC059/// M00/M02 Q0994=
202204051950 METAR ESMX 051950Z AUTO 31006KT 9000 -FZRA FEW008/// OVC033/// M00/M01 Q0994 RESHUP=
202204051920 METAR ESMX 051920Z AUTO 29005KT 9999 FZUP FEW005/// BKN013/// BKN096/// M00/M01 Q0994=
202204051850 METAR ESMX 051850Z AUTO 26007KT 230V290 9999 -RA SCT002/// BKN017/// BKN038/// 01/M02 Q0993 REUP=
202204051820 METAR ESMX 051820Z AUTO 26008KT 9999 SCT042/// BKN061/// BKN120/// 01/M03 Q0993=
202204051750 METAR ESMX 051750Z AUTO 23008KT 9999 NCD 01/M03 Q0993=
202204051720 METAR ESMX 051720Z AUTO 24010KT 9999 NCD 02/M02 Q0992=
202204051650 METAR ESMX 051650Z AUTO 23008KT 200V260 9999 NCD 02/M04 Q0992=
202204051620 METAR ESMX 051620Z AUTO 26011KT 9999 FEW064/// 03/M05 Q0992 RESHUP REUP=
202204051550 METAR ESMX 051550Z AUTO 26010KT 230V290 9999 BKN061/// 04/M06 Q0992=
202204051520 METAR ESMX 051520Z AUTO 26014KT 9999 BKN061/// 04/M06 Q0992=
202204051450 METAR ESMX 051450Z AUTO 25014KT 220V280 9999 BKN057/// 06/M07 Q0992=
202204051420 METAR ESMX 051420Z 26011KT 220V300 CAVOK 05/M08 Q0992=
202204051350 METAR ESMX 051350Z 26012KT 230V290 CAVOK 05/M07 Q0992=
202204051320 METAR ESMX 051320Z 26014KT CAVOK 07/M07 Q0992=
202204051250 METAR ESMX 051250Z 28011KT 240V310 CAVOK 06/M08 Q0992=
202204051220 METAR ESMX 051220Z 26013KT 240V300 CAVOK 06/M07 Q0992=
202204051150 METAR ESMX 051150Z 28012KT 240V320 CAVOK 05/M05 Q0992=
202204051120 METAR ESMX 051120Z 28012KT 9999 BKN045 05/M05 Q0992=
202204051050 METAR ESMX 051050Z AUTO 30010KT 260V330 9999 SCT045/// 03/M06 Q0992=
202204051020 METAR ESMX 051020Z 31012KT 9999 FEW042 03/M05 Q0992=
202204050950 METAR ESMX 050950Z 29009KT 260V330 9999 FEW029 SCT035 03/M04 Q0992=
202204050920 METAR ESMX 050920Z 28009KT 9999 FEW025 02/M02 Q0992=
202204050850 METAR ESMX 050850Z 29010KT 250V330 9999 FEW018 SCT024 01/M02 Q0992=
202204050820 METAR ESMX 050820Z 28010KT 9999 SCT020 00/M03 Q0991=
202204050750 METAR ESMX 050750Z 29011KT 260V330 9999 BKN022 M00/M03 Q0991=
202204050720 METAR ESMX 050720Z 29008KT 260V330 9999 BKN021 M00/M02 Q0991=
202204050650 METAR ESMX 050650Z 30008KT 260V330 9999 BKN019 M00/M03 Q0990=
202204050620 METAR ESMX 050620Z 29008KT 9999 FEW011 BKN016 BKN021 M01/M02 Q0990=
202204050550 METAR ESMX 050550Z 28006KT 240V310 9999 FEW015 SCT023 BKN030 M01/M02 Q0989=
202204050520 METAR ESMX 050520Z AUTO 30007KT 270V330 9999 FEW037/// M02/M03 Q0989=
202204050450 METAR ESMX 050450Z AUTO 31009KT 280V340 1000 R01/P2000N R19/1400N -SN FEW002/// SCT020/// BKN027/// M02/M03 Q0988=
202204050420 METAR ESMX 050420Z AUTO 32010KT 0600 R01/1700D R19/1500D SN SCT001/// BKN010/// OVC036/// M01/M01 Q0988=
202204050350 METAR ESMX 050350Z AUTO 30008KT 9999 FZUP FEW033/// SCT049/// BKN062/// M01/M01 Q0987 RESHUP=
202204050320 METAR ESMX 050320Z AUTO 29008KT 250V320 9999 FZUP FEW016/// SCT062/// BKN088/// M01/M02 Q0987=
202204050250 METAR ESMX 050250Z AUTO 29010KT 8000 -PL FEW017/// SCT029/// BKN057/// M01/M01 Q0986 RESHUP REUP=
202204050220 METAR ESMX 050220Z AUTO 30008KT 9999 FEW051/// SCT062/// BKN090/// M00/M01 Q0986 RESHUP=
202204050150 METAR ESMX 050150Z 30009KT 9999 FEW024 BKN036 M00/M01 Q0985=
202204050120 METAR ESMX 050120Z 31011KT 9999 -RASN FEW017 BKN027 M00/M01 Q0985=
202204050050 METAR COR ESMX 050050Z 31014KT 9999 -RASN BKN017 00/M01 Q0984=
202204050020 METAR ESMX 050020Z AUTO 29011KT 9999 FEW001/// SCT015/// BKN029/// 01/M00 Q0983 RESHUP=
202204042350 METAR COR ESMX 042350Z 30009KT 1800 -RASN BKN038 01/00 Q0983=
202204042320 METAR ESMX 042320Z AUTO 31014KT 280V340 1400 R01/P2000N R19/P2000N -SN FEW014/// BKN024/// OVC040/// 01/01 Q0982 REDZ REUP=
202204042250 METAR ESMX 042250Z AUTO 29013KT 9999 FEW005/// BKN012/// OVC017/// 02/01 Q0982=
202204042220 METAR ESMX 042220Z AUTO 28012KT 9999 OVC010/// 02/01 Q0981=
202204042150 METAR ESMX 042150Z AUTO 28010KT 9999 OVC011/// 02/02 Q0981=
202204042120 METAR ESMX 042120Z AUTO 28010KT 9999 BKN011/// OVC016/// 02/01 Q0980=
202204042050 METAR ESMX 042050Z AUTO 28010KT 9999 BKN010/// OVC013/// 02/01 Q0980=
202204042020 METAR ESMX 042020Z 28010KT 9999 BKN009 02/02 Q0980=
202204041950 METAR ESMX 041950Z 28013KT 9999 BKN009 02/02 Q0979=
202204041920 METAR ESMX 041920Z 29011KT 9999 BKN011 02/02 Q0979=
202204041850 METAR ESMX 041850Z 29013KT 9999 BKN012 03/02 Q0978=
202204041820 METAR ESMX 041820Z 29014G28KT 4200 -RA BKN006 04/04 Q0977=
202204041750 METAR ESMX 041750Z 26013KT 210V290 3500 RA BKN006 04/04 Q0976=
202204041720 METAR ESMX 041720Z 25015G26KT 3700 -RA BKN005 04/04 Q0976=
202204041650 METAR ESMX 041650Z 25012KT 9999 BKN008 05/04 Q0975=
202204041620 METAR ESMX 041620Z 22011KT 6000 -RA SCT005 BKN008 04/04 Q0975=
202204041550 METAR ESMX 041550Z 20014KT 9999 -RA BKN005 03/03 Q0976=
202204041520 METAR ESMX 041520Z 19016KT 7000 -RA BKN005 03/03 Q0976=
202204041450 METAR ESMX 041450Z 18017KT 9999 -RA BKN005 02/02 Q0977=
202204041420 METAR ESMX 041420Z 18016KT 5000 RASN BKN005 01/01 Q0978=
202204041350 METAR ESMX 041350Z 18016KT 4000 RASN SCT002 OVC005 01/01 Q0979=
202204041320 METAR ESMX 041320Z 18017KT 1200 R01/1600N R19/1200N SN BKN002 01/01 Q0980=
202204041250 METAR ESMX 041250Z 18017KT 2000 SN BKN005 01/01 Q0981=
202204041220 METAR ESMX 041220Z 18017G28KT 4200 RASN BKN005 02/02 Q0982=
202204041150 METAR ESMX 041150Z 18018G32KT 5000 -RA BKN006 03/02 Q0983=
202204041120 METAR ESMX 041120Z 18020KT 6000 -RA BKN007 OVC009 03/02 Q0985 REDZ=
202204041050 METAR ESMX 041050Z 19019KT 9999 DZ BKN009 03/02 Q0986=
202204041020 METAR ESMX 041020Z 19019KT 9999 -DZ BKN009 03/03 Q0987=
202204040950 METAR ESMX 040950Z 19016G26KT 9999 -DZ BKN009 03/03 Q0988=
202204040920 METAR ESMX 040920Z 19016KT 9999 -DZ BKN008 03/03 Q0989=
202204040850 METAR ESMX 040850Z 19016KT 9999 -DZ BKN008 03/03 Q0990=
202204040820 METAR ESMX 040820Z 19016KT 9999 -DZ BKN008 03/03 Q0991=
202204040750 METAR ESMX 040750Z 19014KT 9999 -DZ BKN007 03/02 Q0992=
202204040720 METAR ESMX 040720Z AUTO 21013KT 9999 -DZ OVC007/// 03/02 Q0993=
202204040650 METAR ESMX 040650Z 22011KT 9999 -DZ BKN006 BKN009 03/02 Q0994=
202204040620 METAR ESMX 040620Z 21011KT 4800 DZ BR BKN008 03/02 Q0995 REDZ=
202204040550 METAR ESMX 040550Z 22010KT 9999 BKN008 03/02 Q0995=
202204040520 METAR ESMX 040520Z 23010KT 9999 -DZ BKN007 03/03 Q0996 RERA=
202204040450 METAR ESMX 040450Z 23009KT 9999 DZ BKN007 BKN010 03/03 Q0996 RERA=
202204040420 METAR ESMX 040420Z 23009KT 9999 -RA BKN007 03/03 Q0997 REDZ=
202204040350 METAR ESMX 040350Z 24009KT 9999 DZ SCT008 BKN011 BKN020 03/03 Q0997=
202204040320 METAR ESMX 040320Z AUTO 25011KT 7000 DZ FEW007/// SCT010/// BKN013/// 03/03 Q0997 REDZ=
202204040250 METAR ESMX 040250Z AUTO 25010KT 210V280 6000 DZ BKN007/// OVC018/// 03/03 Q0998=
202204040220 METAR ESMX 040220Z AUTO 22009KT 7000 DZ BKN006/// BKN010/// OVC017/// 03/03 Q0998 REDZ=
202204040150 METAR ESMX 040150Z AUTO 22008KT 8000 DZ BKN004/// OVC007/// 03/03 Q0998=
202204040120 METAR ESMX 040120Z AUTO 21007KT 6000 DZ BKN005/// OVC008/// 03/03 Q0999 RESHRA=
202204040050 METAR ESMX 040050Z AUTO 21009KT 5000 -RA OVC003/// 03/03 Q1000 REDZ=
202204040020 METAR ESMX 040020Z AUTO 19009KT 5000 BR OVC003/// 02/02 Q1000=
202204032350 METAR ESMX 032350Z AUTO 19010KT 2200 DZ BKN002/// OVC005/// 02/02 Q1001=
202204032320 METAR ESMX 032320Z AUTO 19009KT 1900 DZ FEW002/// SCT005/// OVC013/// 02/02 Q1001=
202204032250 METAR ESMX 032250Z AUTO 22009KT 9999 BKN015/// OVC036/// 02/01 Q1002 RESHUP REUP=
202204032220 METAR ESMX 032220Z AUTO 20009KT 9999 FEW020/// OVC034/// 02/00 Q1002=
202204032150 METAR ESMX 032150Z AUTO 22007KT 9999 FEW021/// OVC029/// 02/M00 Q1003=
202204032120 METAR ESMX 032120Z AUTO 22007KT 9999 OVC033/// 01/M01 Q1003=
202204032050 METAR ESMX 032050Z AUTO 21007KT 9999 FEW033/// 01/M02 Q1004=
202204032020 METAR ESMX 032020Z AUTO 22008KT 9999 NCD 01/M02 Q1004=
202204031950 METAR ESMX 031950Z 20007KT 9999 FEW020 SCT040 01/M03 Q1005=
202204031920 METAR ESMX 031920Z 22008KT 9999 BKN039 01/M05 Q1005=
202204031850 METAR ESMX 031850Z 22006KT 9999 SCT034 BKN044 02/M06 Q1005=
202204031820 METAR ESMX 031820Z 23006KT CAVOK 01/M07 Q1006=
202204031750 METAR ESMX 031750Z 22006KT CAVOK 02/M07 Q1006=
202204031720 METAR ESMX 031720Z 24008KT 220V280 CAVOK 04/M07 Q1006=
202204031650 METAR ESMX 031650Z 26011KT CAVOK 05/M06 Q1006=
202204031620 METAR ESMX 031620Z 25009KT 9999 FEW047 BKN068 06/M06 Q1006=
202204031550 METAR ESMX 031550Z 25009KT 9999 FEW047 BKN068 06/M05 Q1007=
202204031520 METAR ESMX 031520Z 21011KT CAVOK 05/M04 Q1007=
202204031450 METAR ESMX 031450Z 22007KT CAVOK 06/M06 Q1007=
202204031420 METAR ESMX 031420Z 23011KT 200V260 CAVOK 06/M08 Q1008=
202204031350 METAR ESMX 031350Z 24009KT 200V290 CAVOK 08/M09 Q1008=
202204031320 METAR ESMX 031320Z 22008KT 190V250 CAVOK 07/M09 Q1009=
202204031250 METAR ESMX 031250Z 25007KT 200V300 CAVOK 08/M09 Q1009=
202204031220 METAR ESMX 031220Z 23009KT 190V310 CAVOK 07/M09 Q1009=
202204031150 METAR ESMX 031150Z 21009KT 180V240 CAVOK 07/M09 Q1010=
202204031120 METAR ESMX 031120Z 22008KT 170V280 CAVOK 05/M08 Q1010=
202204031050 METAR ESMX 031050Z 22008KT CAVOK 06/M07 Q1011=
202204031020 METAR ESMX 031020Z 23008KT CAVOK 06/M06 Q1011=
202204030950 METAR ESMX 030950Z 26006KT 220V290 CAVOK 05/M06 Q1012=
202204030920 METAR ESMX 030920Z 26007KT 230V300 CAVOK 04/M05 Q1012=
202204030850 METAR COR ESMX 030850Z 28008KT 230V330 CAVOK 04/M04 Q1012=
202204030820 METAR ESMX 030820Z AUTO 26008KT 230V290 9999 NCD 03/M04 Q1012=
202204030750 METAR ESMX 030750Z AUTO 25009KT 9999 NCD 02/M03 Q1012=
202204030720 METAR ESMX 030720Z AUTO 27007KT 9999 NCD 02/M03 Q1012=
202204030650 METAR ESMX 030650Z AUTO 25006KT 9999 NCD 01/M03 Q1013=
202204030620 METAR ESMX 030620Z AUTO 26006KT 9999 NCD M01/M04 Q1013=
202204030550 METAR ESMX 030550Z AUTO 26005KT 9999 NCD M03/M05 Q1013=
202204030520 METAR ESMX 030520Z AUTO 23003KT 9999 NCD M05/M07 Q1013=
202204030450 METAR ESMX 030450Z AUTO 26003KT 9999 NCD M07/M08 Q1013=
202204030420 METAR ESMX 030420Z AUTO 25004KT 9999 NCD M07/M08 Q1013=
202204030350 METAR ESMX 030350Z AUTO 25004KT 9999 NCD M07/M09 Q1013=
202204030320 METAR ESMX 030320Z AUTO 28002KT 9999 NCD M07/M09 Q1014=
202204030250 METAR ESMX 030250Z AUTO 27003KT 9999 NCD M06/M08 Q1014=
202204030220 METAR ESMX 030220Z AUTO 24002KT 9999 NCD M06/M09 Q1014=
202204030150 METAR ESMX 030150Z AUTO 30003KT 9999 NCD M06/M08 Q1014=
202204030120 METAR ESMX 030120Z AUTO 27003KT 9999 NCD M05/M09 Q1014=
202204030050 METAR ESMX 030050Z AUTO 29004KT 9999 NCD M04/M08 Q1014=
202204030020 METAR ESMX 030020Z AUTO 29004KT 9999 NCD M04/M09 Q1015=
202204022350 METAR ESMX 022350Z AUTO 29004KT 9999 NCD M03/M08 Q1015=
202204022320 METAR ESMX 022320Z AUTO 30004KT 9999 NCD M04/M09 Q1015=
202204022250 METAR ESMX 022250Z AUTO 30004KT 9999 NCD M03/M09 Q1015=
202204022220 METAR ESMX 022220Z AUTO 30005KT 9999 NCD M03/M09 Q1015=
202204022150 METAR ESMX 022150Z AUTO 28004KT 9999 NCD M03/M10 Q1015=
202204022120 METAR ESMX 022120Z AUTO 26005KT 9999 NCD M06/M09 Q1015=
202204022050 METAR ESMX 022050Z AUTO 24002KT 9999 NCD M05/M11 Q1015=
202204022020 METAR ESMX 022020Z AUTO 18002KT 9999 NCD M05/M10 Q1015=
202204021950 METAR ESMX 021950Z AUTO 23002KT 9999 NCD M04/M10 Q1015=
202204021920 METAR ESMX 021920Z AUTO 19002KT 9999 NCD M04/M10 Q1015=
202204021850 METAR ESMX 021850Z AUTO 20003KT 9999 NCD M03/M11 Q1015=
202204021820 METAR ESMX 021820Z AUTO 17002KT 9999 NCD M01/M11 Q1015=
202204021750 METAR ESMX 021750Z AUTO VRB01KT 9999 NCD 00/M11 Q1015=
202204021720 METAR ESMX 021720Z AUTO 30005KT 9999 FEW062/// 02/M11 Q1015=
202204021650 METAR ESMX 021650Z AUTO 31007KT 9999 BKN062/// 03/M11 Q1015=
202204021620 METAR ESMX 021620Z AUTO 32008KT 280V350 9999 SCT064/// 03/M12 Q1015=
202204021550 METAR ESMX 021550Z AUTO 35009KT 9999 FEW068/// 04/M12 Q1015=
202204021520 METAR ESMX 021520Z AUTO 02008KT 330V040 9999 BKN064/// 04/M11 Q1015=
202204021450 METAR ESMX 021450Z AUTO 33007KT 300V360 9999 SCT064/// 03/M12 Q1015=
202204021420 METAR ESMX 021420Z AUTO 32009KT 9999 BKN062/// 04/M10 Q1016=
202204021350 METAR ESMX 021350Z AUTO 36005KT 320V050 9999 BKN062/// 03/M10 Q1016=
202204021320 METAR ESMX 021320Z AUTO 34009KT 9999 OVC055/// 03/M09 Q1016=
202204021250 METAR ESMX 021250Z AUTO 01008KT 9999 OVC059/// 03/M10 Q1016=
202204021220 METAR ESMX 021220Z AUTO 34006KT 310V020 9999 OVC061/// 03/M10 Q1016=
202204021150 METAR ESMX 021150Z AUTO 01006KT 320V050 9999 OVC053/// 02/M10 Q1017=
202204021120 METAR ESMX 021120Z AUTO 34006KT 310V060 9999 FEW053/// BKN062/// 03/M10 Q1017=
202204021050 METAR ESMX 021050Z AUTO 35006KT 300V030 9999 OVC053/// 02/M10 Q1017=
202204021020 METAR ESMX 021020Z AUTO 34007KT 300V020 9999 BKN051/// 02/M10 Q1017=
202204020950 METAR ESMX 020950Z AUTO 35007KT 320V020 9999 NCD 03/M09 Q1018=
202204020920 METAR ESMX 020920Z AUTO 35008KT 330V030 9999 FEW038/// 02/M08 Q1018=
202204020850 METAR ESMX 020850Z AUTO 36008KT 9999 NCD 02/M07 Q1018=
202204020820 METAR ESMX 020820Z AUTO 35008KT 9999 NCD 01/M06 Q1018=
202204020750 METAR ESMX 020750Z AUTO 36008KT 9999 NCD 00/M05 Q1018=
202204020720 METAR ESMX 020720Z AUTO 03007KT 350V060 9999 NCD M00/M05 Q1018=
202204020650 METAR ESMX 020650Z AUTO 02007KT 9999 NCD M01/M05 Q1018=
202204020620 METAR ESMX 020620Z AUTO 36007KT 9999 NCD M02/M04 Q1018=
202204020550 METAR ESMX 020550Z AUTO 35006KT 9999 NCD M03/M04 Q1017=
202204020520 METAR ESMX 020520Z AUTO 34008KT 9999 NCD M04/M05 Q1017=
202204020450 METAR ESMX 020450Z AUTO 35006KT 9999 NCD M05/M06 Q1017=
202204020420 METAR ESMX 020420Z AUTO 35007KT 9999 NCD M05/M06 Q1017=
202204020350 METAR ESMX 020350Z AUTO 36006KT 9999 NCD M05/M06 Q1017=
202204020320 METAR ESMX 020320Z AUTO 35006KT 9999 NCD M05/M06 Q1017=
202204020250 METAR ESMX 020250Z AUTO 34007KT 9999 NCD M04/M06 Q1017=
202204020220 METAR ESMX 020220Z AUTO 36006KT 9999 NCD M04/M06 Q1017=
202204020150 METAR ESMX 020150Z AUTO 01006KT 9999 NCD M04/M05 Q1017=
202204020120 METAR ESMX 020120Z AUTO 36007KT 9999 NCD M04/M05 Q1016=
202204020050 METAR ESMX 020050Z AUTO 01006KT 9999 NCD M04/M05 Q1016=
202204020020 METAR ESMX 020020Z AUTO 01006KT 9999 NCD M03/M05 Q1016=
202204012350 METAR ESMX 012350Z AUTO 02006KT 9999 NCD M02/M05 Q1017=
202204012320 METAR ESMX 012320Z AUTO 03007KT 9999 NCD M02/M05 Q1017=
202204012250 METAR ESMX 012250Z AUTO 03007KT 9999 NCD M02/M05 Q1017=
202204012220 METAR ESMX 012220Z AUTO 02006KT 9999 NCD M02/M05 Q1017=
202204012150 METAR ESMX 012150Z AUTO 03006KT 9999 NCD M02/M06 Q1017=
202204012120 METAR ESMX 012120Z AUTO 04007KT 020V080 9999 NCD M01/M07 Q1017=
202204012050 METAR ESMX 012050Z AUTO 03005KT 010V070 9999 NCD M01/M07 Q1017=
202204012020 METAR ESMX 012020Z AUTO 05004KT 020V090 9999 NCD M01/M07 Q1017=
202204011950 METAR ESMX 011950Z AUTO 07004KT 030V100 9999 NCD M00/M08 Q1016=
202204011920 METAR ESMX 011920Z AUTO 06005KT 010V100 9999 NCD M00/M08 Q1016=
202204011850 METAR ESMX 011850Z AUTO 03005KT 350V070 9999 NCD 00/M08 Q1016=
202204011820 METAR ESMX 011820Z AUTO 05004KT 010V080 9999 NCD 01/M08 Q1015=
202204011750 METAR ESMX 011750Z AUTO 04006KT 010V070 9999 NCD 01/M08 Q1015=
202204011720 METAR ESMX 011720Z AUTO 03006KT 9999 NCD 01/M09 Q1015=
202204011650 METAR ESMX 011650Z AUTO 04007KT 010V080 9999 FEW049/// 02/M09 Q1015=
202204011620 METAR ESMX 011620Z AUTO 05005KT 010V090 9999 FEW043/// 03/M08 Q1014=
202204011550 METAR ESMX 011550Z AUTO 03008KT 360V070 9999 FEW057/// 03/M10 Q1014=
202204011520 METAR ESMX 011520Z AUTO 04013KT 9999 FEW026/// BKN049/// 03/M10 Q1014=
202204011450 METAR ESMX 011450Z AUTO 04008KT 360V100 9999 FEW055/// SCT082/// 04/M11 Q1014=
202204011420 METAR ESMX 011420Z AUTO 06009KT 030V100 9999 NCD 03/M09 Q1014=
202204011350 METAR ESMX 011350Z 03009KT 350V080 CAVOK 05/M09 Q1014=
202204011320 METAR ESMX 011320Z 04010KT 360V080 CAVOK 03/M10 Q1014=
202204011250 METAR ESMX 011250Z 03008KT CAVOK 04/M11 Q1014=
202204011220 METAR ESMX 011220Z 04007KT 010V100 CAVOK 05/M10 Q1014=
