##########################################################
# Query made at 04/19/2024 22:29:44 UTC
# Time interval: from 01/01/2023 12:00  to 01/31/2023 12:59  UTC
##########################################################

##########################################################
# ESMX, Vaxjo (Sweden)
# WMO index: 02641. WIGOS ID: 0-20000-0-02648
# Latitude 56-51N. Longitude 014-50E. Altitude 199 m.
##########################################################

202301311250 METAR ESMX 311250Z 22010KT 9000 -RA SCT010 BKN014 02/01 Q0999=
202301311220 METAR ESMX 311220Z 23009KT 9000 -RA FEW007 BKN015 02/01 Q1000=
202301311150 METAR ESMX 311150Z 21008KT 6000 -RASN FEW003 BKN018 01/00 Q1001=
202301311120 METAR ESMX 311120Z 23010KT 9999 BKN013 02/M00 Q1001=
202301311050 METAR ESMX 311050Z 22009KT 9999 BKN013 02/M00 Q1001=
202301311020 METAR ESMX 311020Z 22009KT 9999 SCT025 01/M01 Q1002=
202301310950 METAR ESMX 310950Z 20008KT 9999 SCT028 BKN120 00/M01 Q1002=
202301310920 METAR ESMX 310920Z 23007KT 9999 SCT031 BKN120 00/M02 Q1003=
202301310850 METAR ESMX 310850Z 21005KT CAVOK M00/M02 Q1004=
202301310820 METAR ESMX 310820Z 21007KT CAVOK M00/M02 Q1004=
202301310750 METAR ESMX 310750Z 24007KT CAVOK M01/M03 Q1004=
202301310720 METAR ESMX 310720Z 25007KT CAVOK M01/M04 Q1004=
202301310650 METAR ESMX 310650Z 27008KT CAVOK M01/M04 Q1004=
202301310620 METAR ESMX 310620Z 26008KT CAVOK M01/M04 Q1004=
202301310550 METAR ESMX 310550Z 27010KT CAVOK M01/M04 Q1004=
202301310520 METAR ESMX 310520Z 27010KT CAVOK M01/M04 Q1004=
202301310450 METAR ESMX 310450Z 27008KT CAVOK M01/M05 Q1004=
202301310420 METAR ESMX 310420Z AUTO 27007KT 9999 NCD M01/M05 Q1003=
202301310350 METAR ESMX 310350Z AUTO 26009KT 9999 NCD M01/M05 Q1003=
202301310320 METAR ESMX 310320Z AUTO 28010KT 9999 NCD M01/M05 Q1003=
202301310250 METAR ESMX 310250Z AUTO 28010KT 9999 NCD M00/M05 Q1003=
202301310220 METAR ESMX 310220Z AUTO 28010KT 9999 NCD M00/M05 Q1002=
202301310150 METAR ESMX 310150Z AUTO 29008KT 9999 NCD M00/M05 Q1002=
202301310120 METAR ESMX 310120Z AUTO 29009KT 9999 NCD 00/M05 Q1002=
202301310050 METAR ESMX 310050Z 29010KT CAVOK 01/M04 Q1002=
202301310020 METAR COR ESMX 310020Z 29011KT CAVOK 01/M04 Q1001=
202301302350 METAR ESMX 302350Z AUTO 29012KT 9999 NCD 01/M04 Q1001=
202301302320 METAR ESMX 302320Z AUTO 29011KT 9999 NCD 01/M04 Q1001=
202301302250 METAR ESMX 302250Z AUTO 29011KT 9999 NCD 01/M04 Q1000=
202301302220 METAR ESMX 302220Z AUTO 29012KT 9999 NCD 02/M04 Q1000=
202301302150 METAR ESMX 302150Z AUTO 29011KT 9999 NCD 02/M04 Q0999=
202301302120 METAR ESMX 302120Z 29011KT CAVOK 02/M04 Q0998=
202301302050 METAR ESMX 302050Z 29010KT CAVOK 02/M04 Q0998=
202301302020 METAR ESMX 302020Z 29012KT CAVOK 02/M03 Q0997=
202301301950 METAR ESMX 301950Z 29011KT CAVOK 02/M03 Q0996=
202301301920 METAR ESMX 301920Z 29011KT CAVOK 02/M03 Q0995=
202301301850 METAR ESMX 301850Z 29012KT CAVOK 03/M02 Q0995=
202301301820 METAR ESMX 301820Z 29012KT CAVOK 03/M02 Q0994=
202301301750 METAR ESMX 301750Z AUTO 29011KT 9999 NCD 03/M02 Q0994=
202301301720 METAR ESMX 301720Z 27010KT CAVOK 03/M01 Q0993=
202301301650 METAR ESMX 301650Z 28011KT CAVOK 03/M00 Q0992=
202301301620 METAR ESMX 301620Z AUTO 28012KT 9999 FEW120/// 03/M00 Q0992=
202301301550 METAR ESMX 301550Z 28012KT CAVOK 04/M00 Q0991=
202301301520 METAR ESMX 301520Z 28010KT 9999 FEW024 04/M00 Q0990=
202301301450 METAR ESMX 301450Z AUTO 28011KT 9999 NCD 04/00 Q0990=
202301301420 METAR ESMX 301420Z AUTO 27011KT 240V300 9999 SCT026/// 05/00 Q0989=
202301301350 METAR ESMX 301350Z 28014KT 9999 BKN025 05/01 Q0989=
202301301320 METAR ESMX 301320Z 27014KT 9999 BKN024 05/01 Q0988=
202301301250 METAR ESMX 301250Z 26014KT 9999 BKN024 05/01 Q0988=
202301301220 METAR ESMX 301220Z 26014KT 230V290 9999 BKN023 04/01 Q0987=
202301301150 METAR ESMX 301150Z 26014G28KT 220V280 9999 BKN021 04/01 Q0988=
202301301120 METAR ESMX 301120Z AUTO 26016KT 9999 OVC021/// 04/01 Q0987=
202301301050 METAR ESMX 301050Z 26014KT 210V290 9999 BKN021 04/01 Q0988=
202301301020 METAR ESMX 301020Z 25015KT 9999 BKN019 04/01 Q0988=
202301300950 METAR ESMX 300950Z 25013KT 9999 BKN016 04/01 Q0988=
202301300920 METAR ESMX 300920Z 24013KT 9999 BKN017 03/02 Q0988=
202301300850 METAR COR ESMX 300850Z 25012KT 210V290 9999 -RA BKN018 03/01 Q0988=
202301300820 METAR ESMX 300820Z 25012KT 220V280 9999 BKN016 03/01 Q0988=
202301300750 METAR ESMX 300750Z 25014KT 210V280 9999 BKN016 03/01 Q0988=
202301300720 METAR ESMX 300720Z 26012G23KT 9999 BKN020 03/01 Q0988=
202301300650 METAR ESMX 300650Z 25014G24KT 9999 BKN017 03/01 Q0988=
202301300620 METAR ESMX 300620Z 25012KT 9999 BKN016 03/01 Q0988=
202301300550 METAR ESMX 300550Z 25015KT 9999 BKN017 03/01 Q0988=
202301300520 METAR ESMX 300520Z 25015KT 9999 BKN018 03/01 Q0989=
202301300450 METAR ESMX 300450Z 27017KT 9999 BKN017 04/02 Q0989=
202301300420 METAR ESMX 300420Z AUTO 26017KT 9999 OVC016/// 04/02 Q0989=
202301300350 METAR ESMX 300350Z AUTO 26011KT 9999 BKN013/// OVC020/// 04/02 Q0989=
202301300320 METAR ESMX 300320Z AUTO 24011KT 210V270 9999 BKN012/// BKN018/// OVC027/// 04/03 Q0989=
202301300250 METAR ESMX 300250Z AUTO 25013G24KT 9999 OVC013/// 04/02 Q0990=
202301300220 METAR ESMX 300220Z AUTO 24015G26KT 9999 OVC011/// 04/03 Q0990=
202301300150 METAR ESMX 300150Z AUTO 25012KT 9999 FEW007/// SCT009/// BKN012/// 04/04 Q0990=
202301300120 METAR ESMX 300120Z AUTO 25014KT 6000 -RA SCT008/// BKN011/// OVC018/// 04/04 Q0991 REDZ=
202301300050 METAR ESMX 300050Z AUTO 22014G24KT 9999 DZ OVC007/// 05/04 Q0991=
202301300020 METAR ESMX 300020Z AUTO 23015KT 3800 DZ BKN005/// OVC006/// 04/04 Q0992 REDZ=
202301292350 METAR ESMX 292350Z AUTO 22016KT 3800 BR FEW002/// OVC004/// 04/04 Q0992 REDZ REUP=
202301292320 METAR ESMX 292320Z AUTO 23017KT 3600 BR FEW002/// OVC004/// 04/04 Q0994 REDZ=
202301292250 METAR ESMX 292250Z AUTO 23018KT 3700 BR FEW002/// BKN004/// OVC006/// 04/03 Q0995=
202301292220 METAR ESMX 292220Z AUTO 23018KT 9999 BKN008/// OVC009/// 04/03 Q0996=
202301292150 METAR ESMX 292150Z AUTO 23018G30KT 9999 -DZ BKN009/// OVC014/// 04/03 Q0997=
202301292120 METAR ESMX 292120Z 23017KT 9999 -RA OVC008 04/03 Q0998=
202301292050 METAR ESMX 292050Z 24017KT 9999 -RA OVC008 04/03 Q0999=
202301292020 METAR ESMX 292020Z 23015G27KT 9999 OVC007 04/03 Q1000=
202301291950 METAR COR ESMX 291950Z 23014KT 9999 OVC007 04/03 Q1000=
202301291920 METAR COR ESMX 291920Z 23015KT 190V260 9999 OVC007 04/03 Q1001=
202301291850 METAR ESMX 291850Z AUTO 23014KT 9999 OVC007/// 03/03 Q1001=
202301291820 METAR ESMX 291820Z AUTO 23013KT 9999 OVC008/// 04/03 Q1002=
202301291750 METAR ESMX 291750Z AUTO 22013KT 9999 OVC008/// 04/03 Q1003=
202301291720 METAR ESMX 291720Z AUTO 24013KT 9999 OVC009/// 04/03 Q1004=
202301291650 METAR ESMX 291650Z AUTO 23012KT 9999 OVC009/// 04/03 Q1004=
202301291620 METAR ESMX 291620Z AUTO 24013KT 9999 OVC007/// 03/03 Q1005=
202301291550 METAR ESMX 291550Z AUTO 25012KT 9999 OVC006/// 03/03 Q1006=
202301291520 METAR ESMX 291520Z 23013G24KT 9999 BKN007 03/03 Q1006=
202301291450 METAR ESMX 291450Z 25011KT 220V290 6000 BR OVC006 04/03 Q1007=
202301291420 METAR ESMX 291420Z 24011KT 7000 BR BKN007 04/03 Q1007=
202301291350 METAR ESMX 291350Z 25013KT 9999 BKN010 04/03 Q1007=
202301291320 METAR ESMX 291320Z 25013KT 9999 BKN009 04/03 Q1008=
202301291250 METAR ESMX 291250Z 25013G23KT 220V280 9999 BKN008 04/03 Q1008=
202301291220 METAR ESMX 291220Z 25011KT 7000 BR OVC006 04/04 Q1009=
202301291150 METAR ESMX 291150Z 25012KT 6000 -DZ BKN005 04/04 Q1009=
202301291120 METAR ESMX 291120Z 26013KT 9000 BKN006 04/04 Q1010=
202301291050 METAR COR ESMX 291050Z 25012KT 7000 BR OVC006 04/04 Q1010=
202301291020 METAR ESMX 291020Z AUTO 25011KT 5000 BR OVC005/// 04/04 Q1011=
202301290950 METAR ESMX 290950Z AUTO 25011KT 9999 OVC006/// 04/04 Q1011=
202301290920 METAR ESMX 290920Z AUTO 25009KT 220V290 4800 BR BKN005/// OVC007/// 04/04 Q1011=
202301290850 METAR ESMX 290850Z AUTO 25009KT 220V280 7000 BR BKN005/// OVC008/// 04/03 Q1012=
202301290820 METAR ESMX 290820Z AUTO 25009KT 6000 BR OVC005/// 03/03 Q1012 REDZ=
202301290750 METAR ESMX 290750Z AUTO 25007KT 220V290 5000 BR OVC005/// 03/03 Q1012=
202301290720 METAR ESMX 290720Z AUTO 25008KT 220V290 5000 BR BKN004/// OVC007/// 03/03 Q1012 RESHUP=
202301290650 METAR ESMX 290650Z AUTO 25007KT 220V280 4700 BR OVC003/// 03/03 Q1012 REUP=
202301290620 METAR ESMX 290620Z AUTO 25008KT 5000 BR OVC004/// 03/03 Q1012=
202301290550 METAR ESMX 290550Z AUTO 25007KT 220V280 5000 BR OVC003/// 03/03 Q1013=
202301290520 METAR ESMX 290520Z AUTO 24006KT 4200 BR OVC003/// 03/03 Q1013=
202301290450 METAR ESMX 290450Z AUTO 24006KT 4200 BR OVC003/// 03/03 Q1014=
202301290420 METAR ESMX 290420Z AUTO 22006KT 5000 BR BKN004/// OVC005/// 03/03 Q1014=
202301290350 METAR ESMX 290350Z AUTO 22006KT 7000 BR BKN005/// OVC011/// 03/03 Q1014=
202301290320 METAR ESMX 290320Z AUTO 25007KT 5000 BR BKN005/// BKN007/// OVC009/// 03/03 Q1015=
202301290250 METAR ESMX 290250Z AUTO 26006KT 230V290 9000 BR OVC005/// 03/03 Q1015=
202301290220 METAR ESMX 290220Z AUTO 23006KT 200V260 9999 BKN007/// OVC011/// 03/02 Q1015=
202301290150 METAR ESMX 290150Z AUTO 25006KT 9999 OVC011/// 03/02 Q1015=
202301290120 METAR ESMX 290120Z AUTO 24005KT 9999 BKN010/// OVC012/// 03/02 Q1015=
202301290050 METAR ESMX 290050Z AUTO 24006KT 9999 OVC009/// 02/02 Q1016=
202301290020 METAR ESMX 290020Z AUTO 25005KT 9999 BKN009/// OVC010/// 03/02 Q1016=
202301282350 METAR ESMX 282350Z AUTO 25005KT 9999 OVC009/// 03/02 Q1016=
202301282320 METAR ESMX 282320Z AUTO 25005KT 9999 OVC009/// 03/02 Q1017=
202301282250 METAR ESMX 282250Z AUTO 25005KT 9999 BKN010/// OVC012/// 03/02 Q1017=
202301282220 METAR ESMX 282220Z AUTO 25006KT 9999 OVC013/// 03/02 Q1017=
202301282150 METAR ESMX 282150Z AUTO 24005KT 9999 OVC011/// 02/02 Q1017=
202301282120 METAR ESMX 282120Z AUTO 25006KT 9999 FEW007/// BKN009/// OVC012/// 02/02 Q1017=
202301282050 METAR ESMX 282050Z AUTO 23006KT 9999 FEW004/// OVC012/// 02/02 Q1017=
202301282020 METAR ESMX 282020Z AUTO 23005KT 7000 BR FEW005/// SCT013/// OVC016/// 02/02 Q1017=
202301281950 METAR ESMX 281950Z AUTO 23005KT 7000 BR BKN005/// OVC020/// 02/02 Q1018=
202301281920 METAR ESMX 281920Z AUTO 23004KT 9000 BR OVC005/// 02/02 Q1018=
202301281850 METAR ESMX 281850Z AUTO 22003KT 9000 BR OVC003/// 02/02 Q1018=
202301281820 METAR ESMX 281820Z AUTO 23004KT 9999 OVC002/// 02/02 Q1018=
202301281750 METAR ESMX 281750Z AUTO 23005KT 9999 OVC003/// 02/02 Q1018=
202301281720 METAR ESMX 281720Z AUTO 22004KT 9999 BR OVC005/// 02/02 Q1018=
202301281650 METAR ESMX 281650Z AUTO 24005KT 9999 OVC004/// 02/02 Q1018=
202301281620 METAR ESMX 281620Z AUTO 20007KT 3800 BR OVC002/// 02/02 Q1018 REUP=
202301281550 METAR ESMX 281550Z AUTO 24006KT 2600 -DZ OVC002/// 01/01 Q1018 REUP=
202301281520 METAR ESMX 281520Z AUTO 23007KT 6000 BR OVC002/// 01/01 Q1018=
202301281450 METAR ESMX 281450Z AUTO 22008KT 3500 BR OVC002/// 01/01 Q1018=
202301281420 METAR ESMX 281420Z AUTO 23007KT 200V260 2000 BR OVC002/// 01/01 Q1019=
202301281350 METAR ESMX 281350Z AUTO 24009KT 3500 BR OVC002/// 01/01 Q1019=
202301281320 METAR ESMX 281320Z AUTO 23009KT 2600 BR OVC002/// 01/01 Q1019=
202301281250 METAR ESMX 281250Z AUTO 23008KT 4900 BR OVC002/// 01/01 Q1019=
202301281220 METAR ESMX 281220Z AUTO 23009KT 2900 BR OVC002/// 01/01 Q1020=
202301281150 METAR ESMX 281150Z AUTO 21008KT 3800 BR OVC002/// 00/00 Q1020=
202301281120 METAR ESMX 281120Z AUTO 21008KT 4700 BR OVC003/// 00/00 Q1020=
202301281050 METAR ESMX 281050Z AUTO 21008KT 6000 BR OVC002/// M00/M00 Q1020=
202301281020 METAR ESMX 281020Z AUTO 22008KT 190V250 6000 BR OVC003/// M00/M00 Q1021 REUP=
202301280950 METAR ESMX 280950Z AUTO 22009KT 8000 BR OVC004/// M01/M01 Q1021=
202301280920 METAR ESMX 280920Z AUTO 22009KT 9999 OVC005/// M01/M01 Q1022 REFZUP RESHUP REFZRA=
202301280850 METAR ESMX 280850Z AUTO 22008KT 9000 BR OVC005/// M01/M01 Q1022=
202301280820 METAR ESMX 280820Z AUTO 22008KT 9999 -FZDZ OVC004/// M02/M02 Q1022 REFZUP=
202301280750 METAR ESMX 280750Z AUTO 22008KT 9999 FZUP OVC004/// M02/M02 Q1022 REFZUP=
202301280720 METAR ESMX 280720Z AUTO 21008KT 9999 OVC004/// M03/M03 Q1022=
202301280650 METAR ESMX 280650Z AUTO 22007KT 9999 OVC004/// M03/M03 Q1022=
202301280620 METAR ESMX 280620Z AUTO 22008KT 9999 OVC003/// M03/M03 Q1022=
202301280550 METAR ESMX 280550Z AUTO 22006KT 9999 OVC002/// M04/M04 Q1023=
202301280520 METAR ESMX 280520Z AUTO 23006KT 9999 OVC004/// M04/M04 Q1023=
202301280450 METAR ESMX 280450Z AUTO 22006KT 9999 FEW010/// M05/M05 Q1023=
202301280420 METAR ESMX 280420Z AUTO 22006KT 9999 FEW002/// M04/M04 Q1023=
202301280350 METAR ESMX 280350Z AUTO 22006KT 5000 OVC001/// M04/M04 Q1024=
202301280320 METAR ESMX 280320Z AUTO 22007KT 1000 R01/P2000N R19/P2000N FZUP BKN002/// M04/M04 Q1024 REFZUP=
202301280250 METAR ESMX 280250Z AUTO 22006KT 9999 BKN002/// M05/M05 Q1024=
202301280220 METAR ESMX 280220Z AUTO 21006KT 9999 NCD M05/M05 Q1024=
202301280150 METAR ESMX 280150Z AUTO 21005KT 9999 NCD M06/M06 Q1025=
202301280120 METAR ESMX 280120Z AUTO 17005KT 9999 NCD M06/M06 Q1025=
202301280050 METAR ESMX 280050Z AUTO 14005KT 9999 NCD M06/M06 Q1026=
202301280020 METAR ESMX 280020Z AUTO 12005KT 9999 NCD M07/M07 Q1026=
202301272350 METAR ESMX 272350Z AUTO 12004KT 9999 NCD M07/M07 Q1026=
202301272320 METAR ESMX 272320Z AUTO 11004KT 9999 NCD M06/M06 Q1026=
202301272250 METAR ESMX 272250Z AUTO 11004KT 9999 NCD M07/M07 Q1026=
202301272220 METAR ESMX 272220Z AUTO 11004KT 9999 NCD M05/M06 Q1027=
202301272150 METAR ESMX 272150Z AUTO 11003KT 9999 NCD M06/M06 Q1027=
202301272120 METAR ESMX 272120Z AUTO 11003KT 9999 NCD M06/M06 Q1027=
202301272050 METAR ESMX 272050Z AUTO 11004KT 9999 NCD M05/M05 Q1027=
202301272020 METAR ESMX 272020Z AUTO 11003KT 9999 NCD M04/M04 Q1027=
202301271950 METAR ESMX 271950Z AUTO 11003KT 9999 NCD M06/M06 Q1027=
202301271920 METAR ESMX 271920Z AUTO 10003KT 9999 NCD M06/M07 Q1028=
202301271850 METAR ESMX 271850Z AUTO 00000KT 9999 NCD M06/M06 Q1028=
202301271820 METAR ESMX 271820Z AUTO 20002KT 9999 NCD M06/M06 Q1028=
202301271750 METAR ESMX 271750Z AUTO 20002KT 9999 NCD M05/M05 Q1028=
202301271720 METAR ESMX 271720Z AUTO 09003KT 9999 NCD M05/M05 Q1028=
202301271650 METAR ESMX 271650Z AUTO 00000KT 9999 NCD M04/M04 Q1028=
202301271620 METAR ESMX 271620Z AUTO 00000KT 9999 NCD M03/M03 Q1028=
202301271550 METAR ESMX 271550Z 09002KT CAVOK M03/M03 Q1028=
202301271520 METAR ESMX 271520Z 00000KT CAVOK M02/M03 Q1028=
202301271450 METAR ESMX 271450Z VRB03KT CAVOK 00/M03 Q1028=
202301271420 METAR ESMX 271420Z 03003KT CAVOK 01/M03 Q1028=
202301271350 METAR ESMX 271350Z 35005KT CAVOK 01/M03 Q1028=
202301271320 METAR ESMX 271320Z 36004KT CAVOK 02/M03 Q1028=
202301271250 METAR ESMX 271250Z 36005KT CAVOK 01/M03 Q1028=
202301271220 METAR ESMX 271220Z 01004KT CAVOK 01/M03 Q1028=
202301271150 METAR ESMX 271150Z 35004KT CAVOK 01/M03 Q1028=
202301271120 METAR ESMX 271120Z 36004KT CAVOK 00/M03 Q1029=
202301271050 METAR ESMX 271050Z 02004KT CAVOK M01/M03 Q1029=
202301271020 METAR ESMX 271020Z 35004KT CAVOK M01/M03 Q1029=
202301270950 METAR ESMX 270950Z 36004KT CAVOK M02/M03 Q1029=
202301270920 METAR COR ESMX 270920Z 36004KT CAVOK M02/M03 Q1029=
202301270850 METAR ESMX 270850Z 36004KT CAVOK M03/M04 Q1029=
202301270820 METAR ESMX 270820Z 02004KT CAVOK M04/M04 Q1029=
202301270750 METAR ESMX 270750Z 00000KT CAVOK M06/M06 Q1029=
202301270720 METAR ESMX 270720Z VRB02KT CAVOK M05/M06 Q1028=
202301270650 METAR ESMX 270650Z AUTO 32004KT 9999 NCD M05/M05 Q1028=
202301270620 METAR ESMX 270620Z AUTO 01004KT 9999 NCD M05/M05 Q1028=
202301270550 METAR ESMX 270550Z AUTO 34004KT 9999 NCD M05/M05 Q1028=
202301270520 METAR ESMX 270520Z AUTO 02003KT 9999 NCD M05/M05 Q1028=
202301270450 METAR ESMX 270450Z AUTO 36005KT 9999 NCD M04/M05 Q1028=
202301270420 METAR ESMX 270420Z AUTO 35004KT 9999 NCD M05/M05 Q1027=
202301270350 METAR ESMX 270350Z AUTO 36004KT 9999 NCD M04/M04 Q1027=
202301270320 METAR ESMX 270320Z AUTO 35003KT 9999 NCD M05/M05 Q1027=
202301270250 METAR ESMX 270250Z AUTO 36005KT 9999 NCD M04/M04 Q1027=
202301270220 METAR ESMX 270220Z AUTO 36006KT 9999 NCD M03/M03 Q1027=
202301270150 METAR ESMX 270150Z AUTO 35008KT 9999 NCD M03/M04 Q1027=
202301270120 METAR ESMX 270120Z AUTO 36006KT 9999 NCD M02/M03 Q1027=
202301270050 METAR ESMX 270050Z AUTO 35006KT 9999 NCD M03/M03 Q1027=
202301270020 METAR ESMX 270020Z 01007KT CAVOK M02/M03 Q1026=
202301262350 METAR ESMX 262350Z 01007KT CAVOK M01/M03 Q1026=
202301262320 METAR ESMX 262320Z 01007KT CAVOK M01/M02 Q1026=
202301262250 METAR ESMX 262250Z 02008KT CAVOK M01/M02 Q1026=
202301262220 METAR ESMX 262220Z 01008KT CAVOK M01/M02 Q1026=
202301262150 METAR ESMX 262150Z 02008KT CAVOK M01/M02 Q1026=
202301262120 METAR ESMX 262120Z 01009KT CAVOK M00/M02 Q1025=
202301262050 METAR ESMX 262050Z 01010KT CAVOK M00/M01 Q1025=
202301262020 METAR ESMX 262020Z AUTO 02010KT 9999 NCD 00/M01 Q1025=
202301261950 METAR ESMX 261950Z AUTO 02010KT 9999 NCD 01/M01 Q1025=
202301261920 METAR ESMX 261920Z AUTO 01010KT 9999 SCT015/// 01/M00 Q1025=
202301261850 METAR ESMX 261850Z AUTO 02011KT 9999 OVC016/// 02/M00 Q1024=
202301261820 METAR ESMX 261820Z AUTO 01012G23KT 9999 OVC017/// 02/00 Q1024=
202301261750 METAR ESMX 261750Z AUTO 02010KT 9999 BKN017/// BKN024/// 02/00 Q1023=
202301261720 METAR ESMX 261720Z AUTO 02012KT 9999 OVC020/// 02/01 Q1023=
202301261650 METAR ESMX 261650Z AUTO 01010KT 9999 FEW012/// SCT016/// OVC023/// 03/02 Q1023=
202301261620 METAR ESMX 261620Z AUTO 01010KT 9999 BKN008/// OVC011/// 03/02 Q1022=
202301261550 METAR ESMX 261550Z AUTO 01010KT 9999 OVC007/// 03/03 Q1022=
202301261520 METAR ESMX 261520Z AUTO 35012KT 8000 BR OVC005/// 03/03 Q1021=
202301261450 METAR ESMX 261450Z 35011KT 6000 BR FEW002 BKN005 04/04 Q1021=
202301261420 METAR ESMX 261420Z 01009KT 9999 BKN008 04/04 Q1020=
202301261350 METAR ESMX 261350Z 36011KT 9999 FEW010 BKN015 05/03 Q1020=
202301261320 METAR ESMX 261320Z 36010KT 9999 BKN012 05/04 Q1019=
202301261250 METAR ESMX 261250Z AUTO 01010KT 9999 BKN011/// BKN015/// OVC028/// 05/04 Q1019=
202301261220 METAR ESMX 261220Z 36007KT 9999 BKN006 04/04 Q1019=
202301261150 METAR ESMX 261150Z 34008KT 9999 BKN005 BKN007 04/04 Q1019=
202301261120 METAR ESMX 261120Z 33006KT 9999 BKN004 04/04 Q1019=
202301261050 METAR ESMX 261050Z 31005KT 290V350 9999 BKN003 03/03 Q1019=
202301261020 METAR ESMX 261020Z 31004KT 280V340 9999 BKN003 03/03 Q1019=
202301260950 METAR ESMX 260950Z 28004KT 9999 BKN002 02/02 Q1019=
202301260920 METAR ESMX 260920Z 27004KT 5000 BR OVC002 02/02 Q1019=
202301260850 METAR ESMX 260850Z 30003KT 0900 R01/1100U R19/1500U FG OVC001 02/02 Q1018=
202301260820 METAR ESMX 260820Z 28002KT 0450 R01/0800N R19/0800N FG OVC001 02/02 Q1018=
202301260750 METAR ESMX 260750Z VRB03KT 0450 R01/1000N R19/1000N FG OVC001 01/01 Q1018=
202301260720 METAR ESMX 260720Z 26002KT 0500 R01/1200N R19/1200N FG OVC002 01/01 Q1018=
202301260650 METAR ESMX 260650Z AUTO 24004KT 190V280 0500 R01/1300N R19/1500N FG OVC001/// 01/01 Q1018=
202301260620 METAR ESMX 260620Z AUTO 26003KT 0350 R01/0900N R19/1000N FG OVC001/// 01/01 Q1017=
202301260550 METAR ESMX 260550Z AUTO 25004KT 0300 R01/0900N R19/0900N FG OVC001/// 01/01 Q1017=
202301260520 METAR ESMX 260520Z AUTO 23005KT 0350 R01/1000N R19/1100D FG OVC001/// 01/01 Q1017=
202301260450 METAR ESMX 260450Z AUTO 25004KT 0500 R01/1300N R19/1600N FG OVC001/// 01/01 Q1017=
202301260420 METAR ESMX 260420Z AUTO 24005KT 0650 R01/1600N R19/P2000N FG OVC001/// 01/01 Q1017=
202301260350 METAR ESMX 260350Z AUTO 22005KT 0800 R01/P2000N R19/P2000N FG OVC001/// 01/01 Q1017=
202301260320 METAR ESMX 260320Z AUTO 22005KT 0800 R01/1900U R19/P2000N FG OVC001/// 01/01 Q1017=
202301260250 METAR ESMX 260250Z AUTO 21006KT 0650 R01/1600N R19/P2000N FG OVC001/// 00/00 Q1017=
202301260220 METAR ESMX 260220Z AUTO 21005KT 0600 R01/1600N R19/P2000N FG OVC001/// 00/00 Q1018=
202301260150 METAR ESMX 260150Z AUTO 21005KT 0600 R01/1500N R19/1700N FG OVC001/// 00/00 Q1018=
202301260120 METAR ESMX 260120Z AUTO 23005KT 0500 R01/1400N R19/1600N FG OVC001/// 00/00 Q1019=
202301260050 METAR ESMX 260050Z AUTO 22007KT 0500 R01/1300N R19/1500N FG OVC001/// 00/00 Q1018=
202301260020 METAR ESMX 260020Z 20006KT 0700 R19/1700N FG VV002 00/00 Q1019=
202301252350 METAR ESMX 252350Z 22005KT 1000 R19/P2000N BR OVC002 00/00 Q1019=
202301252320 METAR COR ESMX 252320Z 22006KT 1500 BR OVC002 00/00 Q1019=
202301252250 METAR ESMX 252250Z 22007KT 2500 BR OVC002 00/00 Q1019=
202301252220 METAR ESMX 252220Z 22008KT 2500 BR OVC002 00/00 Q1019=
202301252150 METAR ESMX 252150Z 21007KT 3500 BR OVC002 00/00 Q1019=
202301252120 METAR ESMX 252120Z 22008KT 3500 BR OVC002 00/00 Q1019=
202301252050 METAR ESMX 252050Z 21007KT 4000 BR OVC002 00/00 Q1020=
202301252020 METAR ESMX 252020Z AUTO 22008KT 2500 BR OVC002/// 00/00 Q1020=
202301251950 METAR ESMX 251950Z AUTO 22008KT 2600 BR OVC003/// 00/00 Q1020 REUP=
202301251920 METAR ESMX 251920Z AUTO 22008KT 180V250 2700 BR OVC002/// M00/M00 Q1020=
202301251850 METAR ESMX 251850Z AUTO 21009KT 2100 OVC002/// M00/M00 Q1020 REFZUP=
202301251820 METAR ESMX 251820Z AUTO 23008KT 1200 R01/P2000N R19/P2000N OVC001/// M00/M00 Q1021=
202301251750 METAR ESMX 251750Z AUTO 22007KT 0900 R01/P2000N R19/P2000N FZFG OVC001/// M00/M00 Q1021=
202301251720 METAR ESMX 251720Z AUTO 22009KT 0800 R01/P2000N R19/P2000N FZFG OVC001/// M00/M00 Q1021=
202301251650 METAR ESMX 251650Z 21009KT 1500 R01/P2000N R19/P2000N FZFG BKN002 M00/M00 Q1022=
202301251620 METAR ESMX 251620Z 23009KT 1500 R01/P2000D R19/P2000N FZFG BKN001 M00/M00 Q1022=
202301251550 METAR ESMX 251550Z 23008KT 2000 BR BKN002 M00/M00 Q1022=
202301251520 METAR ESMX 251520Z 23008KT 2700 BR BKN003 M00/M00 Q1023=
202301251450 METAR ESMX 251450Z 22009KT 4000 BR BKN003 00/M00 Q1023=
202301251420 METAR ESMX 251420Z AUTO 24008KT 4600 BR OVC004/// 00/M00 Q1023=
202301251250 METAR ESMX 251250Z 22009KT 7000 BR BKN005 00/00 Q1024=
202301251220 METAR ESMX 251220Z 22010KT 200V260 9999 BKN006 01/00 Q1024=
202301251150 METAR ESMX 251150Z 24010KT 6000 BR OVC006 01/00 Q1025=
202301251120 METAR ESMX 251120Z 22010KT 9999 BKN007 01/00 Q1026=
202301251050 METAR ESMX 251050Z 24009KT 9999 BKN007 01/00 Q1026=
202301251020 METAR ESMX 251020Z 24010KT 7000 OVC005 01/01 Q1026=
202301250950 METAR ESMX 250950Z AUTO 22010KT 7000 BR OVC004/// 01/01 Q1026=
202301250920 METAR ESMX 250920Z 23009KT 5000 BR OVC002 01/01 Q1027=
202301250850 METAR ESMX 250850Z 24009KT 2500 BR OVC002 01/01 Q1027=
202301250820 METAR ESMX 250820Z 24009KT 0900 R01/1900D R19/P2000N FG OVC002 01/01 Q1027=
202301250750 METAR ESMX 250750Z 23010KT 1500 BR OVC002 01/01 Q1028=
202301250720 METAR ESMX 250720Z 22008KT 2600 BR OVC002 01/01 Q1028=
202301250650 METAR COR ESMX 250650Z 23010KT 2200 BR VV002 01/01 Q1028=
202301250620 METAR ESMX 250620Z AUTO 23009KT 1700 BR OVC001/// 01/01 Q1029=
202301250550 METAR ESMX 250550Z AUTO 24009KT 1800 OVC001/// 01/01 Q1029=
202301250520 METAR ESMX 250520Z AUTO 24008KT 220V290 1500 OVC001/// 01/01 Q1029=
202301250450 METAR ESMX 250450Z AUTO 24009KT 0900 R01/P2000N R19/P2000N FG OVC001/// 01/01 Q1029=
202301250420 METAR ESMX 250420Z AUTO 24010KT 1300 R01/P2000N R19/P2000N OVC001/// 01/01 Q1029=
202301250350 METAR ESMX 250350Z AUTO 22008KT 180V250 0800 R01/1900N R19/P2000N FG OVC001/// 01/01 Q1029=
202301250320 METAR ESMX 250320Z AUTO 24008KT 1200 R01/P2000N R19/P2000N BR OVC001/// 01/01 Q1030=
202301250020 METAR ESMX 250020Z 24006KT 2500 BR OVC002 02/02 Q1032=
202301242350 METAR ESMX 242350Z 23008KT 200V260 3000 BR OVC002 02/02 Q1032=
202301242320 METAR ESMX 242320Z 23007KT 3000 BR OVC002 02/02 Q1032=
202301242250 METAR ESMX 242250Z 23007KT 200V270 2000 BR OVC002 02/02 Q1032=
202301242220 METAR ESMX 242220Z 24007KT 2500 BR OVC002 02/02 Q1033=
202301242150 METAR ESMX 242150Z 22008KT 190V250 2000 BR OVC002 02/02 Q1033=
202301242120 METAR ESMX 242120Z 23008KT 2000 BR BKN002 02/02 Q1033=
202301242050 METAR ESMX 242050Z 24008KT 3000 BR BKN002 02/02 Q1033=
202301242020 METAR ESMX 242020Z AUTO 24007KT 1800 BR OVC002/// 01/01 Q1034=
202301241950 METAR ESMX 241950Z AUTO 24007KT 1100 R01/P2000N R19/P2000N BR OVC002/// 01/01 Q1034=
202301241920 METAR ESMX 241920Z AUTO 23006KT 2600 BR OVC002/// 01/01 Q1034=
202301241850 METAR ESMX 241850Z AUTO 24006KT 2500 BR OVC002/// 01/01 Q1034=
202301241820 METAR ESMX 241820Z AUTO 23007KT 2600 BR BKN002/// OVC004/// 01/01 Q1034=
202301241750 METAR ESMX 241750Z AUTO 23008KT 8000 BR OVC004/// 01/01 Q1034=
202301241720 METAR ESMX 241720Z AUTO 24009KT 9000 BR OVC004/// 01/01 Q1035=
202301241650 METAR ESMX 241650Z AUTO 23010KT 200V270 9999 OVC005/// 01/01 Q1035=
202301241620 METAR ESMX 241620Z AUTO 25010KT 9999 OVC006/// 01/01 Q1035=
202301241550 METAR ESMX 241550Z AUTO 25008KT 210V280 9999 OVC006/// 02/01 Q1035=
202301241520 METAR ESMX 241520Z AUTO 25009KT 220V290 9999 OVC006/// 02/01 Q1034=
202301241450 METAR ESMX 241450Z 24009KT 200V270 9999 BKN006 02/01 Q1035=
202301241420 METAR ESMX 241420Z 24008KT 9999 BKN006 02/01 Q1035=
202301241350 METAR ESMX 241350Z 24007KT 9999 BKN007 02/01 Q1035=
202301241320 METAR ESMX 241320Z 23007KT 9999 BKN007 02/01 Q1035=
202301241250 METAR ESMX 241250Z 25007KT 220V280 9999 BKN007 02/01 Q1036=
202301241220 METAR ESMX 241220Z 24009KT 9999 BKN008 02/01 Q1036=
202301241150 METAR ESMX 241150Z 23009KT 9999 BKN008 02/00 Q1036=
202301241120 METAR ESMX 241120Z 23008KT 200V260 9999 BKN008 01/M00 Q1036=
202301241050 METAR COR ESMX 241050Z 23009KT 9999 BKN008 01/M00 Q1036=
202301241020 METAR ESMX 241020Z AUTO 25009KT 9999 OVC009/// 01/M01 Q1037=
202301240950 METAR ESMX 240950Z 26008KT 9999 BKN009 01/M01 Q1037=
202301240920 METAR COR ESMX 240920Z 22008KT 9999 BKN009 01/M01 Q1037=
202301240850 METAR ESMX 240850Z AUTO 23008KT 200V260 9999 OVC011/// 00/M01 Q1037=
202301240820 METAR ESMX 240820Z AUTO 23008KT 200V260 9999 OVC013/// 00/M02 Q1037=
202301240750 METAR ESMX 240750Z 24007KT 9999 BKN014 M00/M02 Q1037=
202301240720 METAR ESMX 240720Z 23007KT 200V260 9999 BKN013 M00/M02 Q1037=
202301240650 METAR COR ESMX 240650Z 24006KT 210V270 9999 BKN014 M00/M02 Q1037=
202301240620 METAR ESMX 240620Z AUTO 24006KT 9999 OVC015/// M00/M02 Q1037=
202301240550 METAR ESMX 240550Z AUTO 23006KT 9999 OVC016/// M00/M02 Q1037=
202301240520 METAR ESMX 240520Z AUTO 23006KT 9999 OVC016/// M00/M03 Q1037=
202301240450 METAR ESMX 240450Z AUTO 22007KT 9999 OVC015/// M01/M03 Q1037=
202301240420 METAR ESMX 240420Z AUTO 24007KT 9999 OVC014/// M01/M03 Q1037=
202301240350 METAR ESMX 240350Z AUTO 25007KT 9999 OVC014/// M01/M03 Q1037=
202301240320 METAR ESMX 240320Z AUTO 25006KT 220V290 9999 OVC014/// M01/M03 Q1038=
202301240250 METAR ESMX 240250Z AUTO 24007KT 9999 OVC014/// M01/M04 Q1038=
202301240220 METAR ESMX 240220Z AUTO 25007KT 9999 OVC015/// M01/M04 Q1038=
202301240150 METAR ESMX 240150Z AUTO 25007KT 9999 OVC015/// M02/M04 Q1038=
202301240120 METAR ESMX 240120Z AUTO 24007KT 220V280 9999 OVC015/// M02/M04 Q1038=
202301240050 METAR ESMX 240050Z 24007KT 9999 BKN015 M02/M04 Q1038=
202301240020 METAR ESMX 240020Z 25008KT 9999 BKN015 M02/M05 Q1038=
202301232350 METAR ESMX 232350Z 25007KT 200V280 9999 BKN014 M02/M05 Q1039=
202301232320 METAR ESMX 232320Z 25008KT 9999 BKN014 M02/M05 Q1038=
202301232250 METAR ESMX 232250Z 23007KT 200V260 9999 BKN015 M02/M05 Q1039=
202301232220 METAR ESMX 232220Z 26007KT 9999 BKN016 M02/M05 Q1039=
202301232150 METAR ESMX 232150Z 26008KT 220V290 9999 BKN016 M02/M05 Q1039=
202301232120 METAR ESMX 232120Z 27007KT 230V290 9999 BKN015 M02/M05 Q1039=
202301232050 METAR ESMX 232050Z 22008KT 9999 BKN015 M02/M05 Q1039=
202301232020 METAR ESMX 232020Z 24006KT 9999 BKN015 M02/M05 Q1039=
202301231950 METAR ESMX 231950Z 23005KT 9999 BKN015 M02/M05 Q1039=
202301231920 METAR ESMX 231920Z 25006KT 230V290 9999 BKN016 M02/M05 Q1040=
202301231850 METAR ESMX 231850Z 27005KT 230V290 9999 BKN015 M02/M05 Q1040=
202301231820 METAR ESMX 231820Z 27005KT 240V300 9999 BKN015 M02/M05 Q1040=
202301231750 METAR ESMX 231750Z 24003KT 9999 BKN015 M02/M05 Q1040=
202301231720 METAR ESMX 231720Z 23004KT 200V270 9999 BKN015 M03/M05 Q1039=
202301231650 METAR ESMX 231650Z 28006KT 9999 BKN014 M03/M05 Q1040=
202301231620 METAR ESMX 231620Z 25006KT 220V280 9999 BKN014 M02/M05 Q1039=
202301231550 METAR ESMX 231550Z 22007KT 9999 BKN015 M02/M05 Q1039=
202301231520 METAR ESMX 231520Z 21006KT 9999 BKN015 M02/M05 Q1039=
202301231450 METAR ESMX 231450Z 24005KT 210V280 9999 BKN015 M02/M05 Q1039=
202301231420 METAR ESMX 231420Z 22007KT 9999 BKN015 M02/M05 Q1039=
202301231350 METAR ESMX 231350Z 22006KT 9999 BKN015 M02/M05 Q1039=
202301231320 METAR ESMX 231320Z 21007KT 9999 BKN015 M02/M05 Q1039=
202301231250 METAR ESMX 231250Z 25006KT 220V280 9999 BKN015 M02/M05 Q1039=
202301231220 METAR ESMX 231220Z 25007KT 210V290 9999 BKN015 M02/M05 Q1039=
202301231150 METAR ESMX 231150Z 20006KT 9999 BKN015 M02/M05 Q1039=
202301231120 METAR ESMX 231120Z 21007KT 9999 BKN014 M02/M05 Q1040=
202301231050 METAR ESMX 231050Z 21004KT 9999 BKN014 M02/M05 Q1040=
202301231020 METAR ESMX 231020Z 23005KT 9999 BKN013 M02/M04 Q1040=
202301230950 METAR ESMX 230950Z 23003KT 160V270 9999 BKN013 M02/M05 Q1040=
202301230920 METAR ESMX 230920Z VRB03KT 9999 BKN013 M02/M05 Q1040=
202301230850 METAR ESMX 230850Z 26004KT 230V300 9999 BKN013 M02/M04 Q1040=
202301230820 METAR ESMX 230820Z VRB03KT 9999 BKN013 M02/M05 Q1040=
202301230750 METAR ESMX 230750Z 26003KT 210V290 9999 BKN013 M02/M04 Q1040=
202301230720 METAR ESMX 230720Z 22003KT 180V250 9999 BKN012 M02/M04 Q1040=
202301230650 METAR ESMX 230650Z 25003KT 210V320 9999 BKN012 M02/M04 Q1040=
202301230620 METAR ESMX 230620Z 17003KT 9999 BKN012 M02/M04 Q1039=
202301230550 METAR ESMX 230550Z 16004KT 9999 BKN011 M02/M04 Q1039=
202301230520 METAR ESMX 230520Z 15004KT 9999 BKN012 M02/M04 Q1039=
202301230450 METAR ESMX 230450Z AUTO 16004KT 130V200 9999 OVC012/// M02/M04 Q1039=
202301230420 METAR ESMX 230420Z AUTO 18004KT 9999 OVC012/// M02/M04 Q1039=
202301230350 METAR ESMX 230350Z AUTO 12004KT 9999 OVC012/// M02/M04 Q1039=
202301230320 METAR ESMX 230320Z AUTO VRB02KT 9999 OVC012/// M02/M04 Q1038=
202301230250 METAR ESMX 230250Z AUTO VRB01KT 9999 OVC012/// M01/M04 Q1039=
202301230220 METAR ESMX 230220Z AUTO VRB03KT 9999 OVC012/// M02/M04 Q1039=
202301230150 METAR ESMX 230150Z AUTO VRB01KT 9999 OVC012/// M01/M04 Q1039=
202301230120 METAR ESMX 230120Z AUTO 12003KT 9999 OVC012/// M01/M04 Q1039=
202301230050 METAR ESMX 230050Z AUTO VRB03KT 9999 OVC012/// M01/M04 Q1039=
202301230020 METAR ESMX 230020Z AUTO VRB03KT 9999 OVC012/// M01/M04 Q1039=
202301222350 METAR ESMX 222350Z AUTO VRB03KT 9999 OVC012/// M01/M04 Q1039=
202301222320 METAR ESMX 222320Z AUTO VRB03KT 9999 OVC012/// M01/M04 Q1039=
202301222250 METAR ESMX 222250Z AUTO 07003KT 9999 OVC012/// M01/M04 Q1038=
202301222220 METAR ESMX 222220Z AUTO 08004KT 030V110 9999 OVC011/// M02/M04 Q1038=
202301222150 METAR ESMX 222150Z AUTO VRB02KT 9999 OVC012/// M02/M04 Q1038=
202301222120 METAR ESMX 222120Z AUTO VRB02KT 9999 OVC011/// M02/M04 Q1038=
202301222050 METAR ESMX 222050Z AUTO 11004KT 9999 OVC011/// M02/M03 Q1038=
202301222020 METAR ESMX 222020Z AUTO 07003KT 010V170 9999 OVC011/// M02/M03 Q1039=
202301221950 METAR ESMX 221950Z AUTO 09004KT 040V120 9999 OVC011/// M02/M03 Q1038=
202301221920 METAR ESMX 221920Z AUTO 07004KT 030V100 9999 OVC011/// M02/M04 Q1038=
202301221850 METAR ESMX 221850Z AUTO 09005KT 030V120 9999 OVC011/// M02/M03 Q1038=
202301221820 METAR ESMX 221820Z AUTO 08004KT 040V110 9999 OVC011/// M02/M03 Q1038=
202301221750 METAR ESMX 221750Z AUTO 08003KT 030V110 9999 OVC011/// M01/M03 Q1038=
202301221720 METAR ESMX 221720Z AUTO 09005KT 020V130 9999 OVC011/// M01/M03 Q1037=
202301221650 METAR ESMX 221650Z AUTO 07005KT 020V160 9999 OVC011/// M01/M03 Q1037=
202301221620 METAR ESMX 221620Z AUTO 04005KT 360V080 9999 OVC011/// M01/M03 Q1037=
202301221550 METAR ESMX 221550Z AUTO 04005KT 350V080 9999 OVC011/// M01/M03 Q1037=
202301221520 METAR ESMX 221520Z 07004KT 010V120 9999 BKN011 M01/M03 Q1037=
202301221450 METAR ESMX 221450Z 04005KT 010V090 9999 BKN012 M01/M03 Q1037=
202301221420 METAR ESMX 221420Z 05005KT 020V080 9999 SCT013 M01/M03 Q1037=
202301221350 METAR ESMX 221350Z 03006KT 9999 FEW012 M01/M03 Q1037=
202301221320 METAR ESMX 221320Z 03007KT 9999 FEW012 M01/M03 Q1037=
202301221250 METAR ESMX 221250Z 04007KT 010V080 9999 SCT012 M01/M03 Q1037=
202301221220 METAR ESMX 221220Z 04007KT 010V070 9999 BKN011 M01/M03 Q1037=
202301221150 METAR ESMX 221150Z 04007KT 9999 BKN011 M01/M03 Q1037=
202301221120 METAR ESMX 221120Z AUTO 04007KT 9999 OVC010/// M01/M03 Q1037=
202301221050 METAR ESMX 221050Z AUTO 05006KT 9999 OVC010/// M01/M03 Q1037=
202301221020 METAR ESMX 221020Z AUTO 07006KT 020V110 9999 OVC009/// M01/M03 Q1038=
202301220950 METAR ESMX 220950Z AUTO 07005KT 010V120 9999 OVC009/// M02/M03 Q1038=
202301220920 METAR ESMX 220920Z AUTO 06006KT 020V100 9999 OVC009/// M02/M04 Q1038=
202301220850 METAR ESMX 220850Z AUTO 04006KT 010V070 9999 OVC008/// M02/M04 Q1037=
202301220820 METAR ESMX 220820Z AUTO 06006KT 020V100 9999 OVC008/// M02/M03 Q1037=
202301220750 METAR ESMX 220750Z AUTO 06006KT 030V090 9999 OVC008/// M02/M04 Q1037=
202301220720 METAR ESMX 220720Z AUTO 05006KT 010V100 9999 OVC007/// M03/M04 Q1037=
202301220650 METAR ESMX 220650Z AUTO 05008KT 9999 OVC007/// M03/M04 Q1036=
202301220620 METAR ESMX 220620Z AUTO 05006KT 020V100 9999 OVC007/// M03/M04 Q1036=
202301220550 METAR ESMX 220550Z AUTO 04008KT 9999 OVC007/// M03/M04 Q1036=
202301220520 METAR ESMX 220520Z AUTO 04009KT 9999 OVC007/// M03/M04 Q1036=
202301220450 METAR ESMX 220450Z AUTO 03008KT 9999 OVC007/// M03/M04 Q1036=
202301220420 METAR ESMX 220420Z AUTO 03007KT 9999 OVC007/// M02/M04 Q1036=
202301220350 METAR ESMX 220350Z AUTO 03008KT 360V060 9999 OVC007/// M02/M04 Q1036=
202301220320 METAR ESMX 220320Z AUTO 04008KT 9999 OVC008/// M02/M04 Q1036=
202301220250 METAR ESMX 220250Z AUTO 03010KT 9999 OVC008/// M02/M04 Q1036=
202301220220 METAR ESMX 220220Z AUTO 04009KT 010V070 9999 OVC008/// M02/M04 Q1036=
202301220150 METAR ESMX 220150Z AUTO 03009KT 9999 OVC009/// M02/M04 Q1036=
202301220120 METAR ESMX 220120Z AUTO 04008KT 9999 OVC008/// M02/M04 Q1036=
202301220050 METAR ESMX 220050Z AUTO 04009KT 360V070 9999 OVC008/// M02/M04 Q1036=
202301220020 METAR ESMX 220020Z AUTO 05006KT 020V100 9999 OVC009/// M02/M04 Q1036=
202301212350 METAR ESMX 212350Z AUTO 05008KT 9999 OVC009/// M03/M04 Q1037=
202301212320 METAR ESMX 212320Z AUTO 06005KT 030V120 9999 OVC008/// M02/M04 Q1037=
202301212250 METAR ESMX 212250Z AUTO 05007KT 020V100 9999 OVC008/// M02/M04 Q1037=
202301212220 METAR ESMX 212220Z AUTO 04007KT 9999 OVC008/// M02/M03 Q1037=
202301212150 METAR ESMX 212150Z AUTO 02007KT 9999 OVC008/// M02/M03 Q1036=
202301212120 METAR ESMX 212120Z AUTO 04009KT 010V080 9999 OVC008/// M02/M04 Q1036=
202301212050 METAR ESMX 212050Z AUTO 04008KT 9999 OVC008/// M02/M03 Q1036=
202301212020 METAR ESMX 212020Z AUTO 04009KT 9999 OVC008/// M02/M03 Q1036=
202301211950 METAR ESMX 211950Z AUTO 05008KT 9999 OVC007/// M02/M03 Q1036=
202301211920 METAR ESMX 211920Z AUTO 02010KT 9999 OVC007/// M02/M03 Q1036=
202301211850 METAR ESMX 211850Z AUTO 04009KT 9999 OVC007/// M02/M03 Q1035=
202301211820 METAR ESMX 211820Z AUTO 04009KT 9999 OVC006/// M02/M03 Q1035=
202301211750 METAR ESMX 211750Z AUTO 02011KT 9999 OVC007/// M02/M03 Q1035=
202301211720 METAR ESMX 211720Z AUTO 02009KT 330V050 9999 OVC007/// M02/M03 Q1035=
202301211650 METAR ESMX 211650Z AUTO 03009KT 9999 OVC007/// M02/M03 Q1035=
202301211620 METAR ESMX 211620Z AUTO 04008KT 010V070 9999 OVC007/// M02/M03 Q1035=
202301211550 METAR ESMX 211550Z AUTO 04009KT 9999 OVC007/// M02/M03 Q1035=
202301211520 METAR ESMX 211520Z AUTO 04008KT 010V080 9999 OVC007/// M02/M03 Q1035=
202301211450 METAR ESMX 211450Z AUTO 03007KT 9999 OVC007/// M02/M02 Q1034=
202301211420 METAR ESMX 211420Z AUTO 03007KT 9999 OVC006/// M02/M02 Q1034=
202301211350 METAR ESMX 211350Z AUTO 02006KT 350V080 9999 OVC005/// M02/M02 Q1034=
202301211320 METAR ESMX 211320Z AUTO 04006KT 350V070 9999 OVC005/// M02/M02 Q1034=
202301211250 METAR ESMX 211250Z AUTO 36008KT 9999 OVC004/// M02/M02 Q1034=
202301211220 METAR ESMX 211220Z AUTO 03008KT 9999 OVC004/// M02/M02 Q1034=
202301211150 METAR ESMX 211150Z AUTO 36009KT 9999 OVC003/// M02/M02 Q1034=
202301211120 METAR ESMX 211120Z AUTO 01007KT 9999 OVC003/// M02/M02 Q1034=
202301211050 METAR ESMX 211050Z AUTO 36008KT 9999 OVC002/// M02/M02 Q1034=
202301211020 METAR ESMX 211020Z AUTO 36007KT 9999 BR OVC002/// M02/M02 Q1034=
202301210950 METAR ESMX 210950Z AUTO 01007KT 7000 BR OVC001/// M02/M02 Q1034=
202301210920 METAR ESMX 210920Z AUTO 03007KT 2900 BR OVC001/// M02/M02 Q1034=
202301210850 METAR ESMX 210850Z AUTO 02007KT 7000 BR OVC001/// M02/M02 Q1033=
202301210820 METAR ESMX 210820Z AUTO 01007KT 9999 OVC003/// M02/M02 Q1033=
202301210750 METAR ESMX 210750Z AUTO 04005KT 9999 OVC004/// M01/M01 Q1033=
202301210720 METAR ESMX 210720Z AUTO 02003KT 8000 SCT003/// OVC006/// M02/M02 Q1033=
202301210650 METAR ESMX 210650Z AUTO VRB02KT 0400 R01/1100U R19/P2000N FZFG BKN002/// OVC007/// M02/M02 Q1032=
202301210620 METAR ESMX 210620Z AUTO 36003KT 0100 R01/0450N R19/0500N FZFG VV001 M01/M01 Q1031=
202301210550 METAR ESMX 210550Z AUTO 35003KT 0150 R01/0600N R19/0550N FZFG VV001 M01/M01 Q1031=
202301210520 METAR ESMX 210520Z AUTO 03003KT 0450 R01/1700U R19/1500D FZFG OVC001/// M01/M01 Q1031=
202301210450 METAR ESMX 210450Z AUTO 02003KT 0750 R01/P2000D R19/P2000N FZFG OVC001/// M01/M01 Q1030=
202301210420 METAR ESMX 210420Z AUTO 03005KT 2100 OVC001/// M00/M00 Q1030=
202301210350 METAR ESMX 210350Z AUTO 04005KT 2100 OVC001/// M00/M00 Q1030=
202301210320 METAR ESMX 210320Z AUTO 03005KT 010V090 0600 R01/1300U R19/1500U=
202301210250 METAR ESMX 210250Z AUTO 03005KT 0250 R01/0750N R19/1400U FZFG SCT001/// OVC002/// M00/M00 Q1029=
202301210220 METAR ESMX 210220Z AUTO 03005KT 360V060 0450 R01/1500N R19/1300N=
202301210150 METAR ESMX 210150Z AUTO 18004KT 9999 SCT042/// M00/M00 Q1028=
202301210120 METAR ESMX 210120Z AUTO 03004KT 9999 OVC042/// M00/M00 Q1028=
202301210050 METAR ESMX 210050Z AUTO 01004KT 9999 OVC041/// M00/M00 Q1027=
202301210020 METAR ESMX 210020Z AUTO 18003KT 2000 OVC041/// M00/M00 Q1027=
202301202350 METAR ESMX 202350Z AUTO 18002KT 3900 BKN041/// M00/M00 Q1026=
202301202320 METAR ESMX 202320Z AUTO 18003KT 9999 OVC040/// 00/00 Q1026=
202301202250 METAR ESMX 202250Z AUTO 02003KT 9999 OVC040/// 01/01 Q1026=
202301202220 METAR ESMX 202220Z AUTO 01003KT 9999 OVC040/// 01/01 Q1025=
202301202150 METAR ESMX 202150Z AUTO VRB02KT 9999 FEW013/// OVC040/// 01/01 Q1025=
202301202120 METAR ESMX 202120Z AUTO VRB02KT 9999 OVC039/// 01/01 Q1024=
202301202050 METAR ESMX 202050Z AUTO 18003KT 9999 FEW011/// OVC040/// 01/01 Q1024=
202301202020 METAR ESMX 202020Z AUTO 18003KT 9999 OVC039/// 01/01 Q1023=
202301201950 METAR ESMX 201950Z AUTO VRB02KT 9999 FEW010/// OVC040/// 01/01 Q1023=
202301201920 METAR ESMX 201920Z AUTO 01002KT 9999 OVC038/// 01/01 Q1022=
202301201850 METAR ESMX 201850Z AUTO 00000KT 9999 OVC037/// 01/01 Q1022=
202301201820 METAR ESMX 201820Z AUTO 18002KT 9999 OVC035/// 01/01 Q1021=
202301201750 METAR ESMX 201750Z AUTO VRB02KT 9999 OVC036/// 01/01 Q1020=
202301201720 METAR ESMX 201720Z AUTO 05002KT 9999 OVC039/// 01/01 Q1020=
202301201650 METAR ESMX 201650Z AUTO 04002KT 9999 FEW012/// SCT024/// OVC040/// 01/01 Q1019=
202301201620 METAR ESMX 201620Z AUTO 00000KT 9999 BKN011/// OVC042/// 00/00 Q1019=
202301201550 METAR ESMX 201550Z AUTO 18002KT 9999 FEW010/// OVC041/// 01/01 Q1018=
202301201520 METAR ESMX 201520Z AUTO VRB02KT 9999 SCT009/// OVC039/// 01/01 Q1017=
202301201450 METAR ESMX 201450Z VRB02KT 9999 SCT005 BKN007 02/01 Q1017=
202301201420 METAR ESMX 201420Z VRB02KT 9999 -DZ BKN009 02/01 Q1016=
202301201350 METAR ESMX 201350Z VRB02KT 9999 SCT009 BKN033 02/01 Q1016=
202301201320 METAR ESMX 201320Z 18003KT 9999 BKN009 02/01 Q1015=
202301201250 METAR ESMX 201250Z 18003KT 9999 BKN010 02/01 Q1015=
202301201220 METAR ESMX 201220Z 18003KT 9999 SCT011 BKN038 02/00 Q1014=
202301201150 METAR ESMX 201150Z VRB02KT 9999 FEW011 BKN037 02/00 Q1014=
202301201120 METAR ESMX 201120Z 18004KT 9999 SCT013 BKN037 02/00 Q1014=
202301201050 METAR ESMX 201050Z 18005KT 9999 FEW011 BKN036 02/00 Q1013=
202301201020 METAR ESMX 201020Z 19004KT 9999 BKN012 02/M00 Q1013=
202301200950 METAR ESMX 200950Z 17006KT 9999 BKN012 02/00 Q1012=
202301200920 METAR ESMX 200920Z 17004KT 9999 FEW012 BKN040 02/M00 Q1012=
202301200850 METAR COR ESMX 200850Z 17004KT 9999 BKN012 01/M00 Q1011=
202301200820 METAR ESMX 200820Z 18006KT 9999 BKN010 01/M00 Q1011=
202301200750 METAR ESMX 200750Z 17006KT 9999 BKN010 01/M00 Q1010=
202301200720 METAR ESMX 200720Z 19006KT 9999 BKN008 00/00 Q1010=
202301200650 METAR ESMX 200650Z AUTO 18006KT 9999 OVC007/// 00/M00 Q1009=
202301200620 METAR ESMX 200620Z AUTO 19006KT 9999 OVC007/// 00/00 Q1009=
202301200550 METAR ESMX 200550Z AUTO 19004KT 9999 BKN008/// BKN010/// OVC038/// 01/00 Q1008=
202301200520 METAR ESMX 200520Z AUTO 18005KT 9999 SCT007/// BKN009/// OVC038/// 01/00 Q1008=
202301200450 METAR ESMX 200450Z AUTO 19006KT 9999 BKN007/// OVC040/// 01/01 Q1007=
202301200420 METAR ESMX 200420Z AUTO 18005KT 9999 BKN009/// BKN015/// OVC038/// 01/01 Q1007=
202301200350 METAR ESMX 200350Z AUTO 16005KT 9999 FEW014/// OVC038/// 01/01 Q1006=
202301200320 METAR ESMX 200320Z AUTO 20005KT 9999 FEW008/// OVC039/// 01/01 Q1006=
202301200250 METAR ESMX 200250Z AUTO 20005KT 9999 BKN008/// OVC010/// 01/01 Q1006=
202301200220 METAR ESMX 200220Z AUTO 19007KT 9999 BKN009/// OVC011/// 01/01 Q1005=
202301200150 METAR ESMX 200150Z AUTO 17005KT 9999 BKN008/// OVC042/// 01/01 Q1005=
202301200120 METAR ESMX 200120Z AUTO 17006KT 9999 BKN008/// OVC044/// 01/01 Q1005=
202301200050 METAR ESMX 200050Z 17007KT 9999 BKN007 01/01 Q1004=
202301200020 METAR ESMX 200020Z 16008KT 9999 BKN007 01/01 Q1004=
202301192350 METAR ESMX 192350Z AUTO 17007KT 9999 OVC006/// 01/01 Q1004=
202301192320 METAR ESMX 192320Z AUTO 15008KT 9999 OVC006/// 01/01 Q1003=
202301192250 METAR ESMX 192250Z AUTO 16009KT 120V190 9999 OVC006/// 01/01 Q1003=
202301192220 METAR ESMX 192220Z AUTO 15008KT 9999 BKN006/// OVC008/// 01/01 Q1003=
202301192150 METAR ESMX 192150Z 17008KT 9000 -RASN BKN006 01/01 Q1002=
202301192120 METAR ESMX 192120Z 16008KT 4800 SNRA SCT002 OVC005 01/01 Q1002=
202301192050 METAR COR ESMX 192050Z 17008KT 8000 -SNRA OVC006 01/01 Q1002=
202301192020 METAR ESMX 192020Z AUTO 14008KT 6000 -RASN OVC006/// 01/01 Q1002=
202301191950 METAR ESMX 191950Z AUTO 15007KT 7000 -RA OVC004/// 01/01 Q1001=
202301191920 METAR ESMX 191920Z AUTO 15007KT 7000 -SN OVC004/// 01/01 Q1001=
202301191850 METAR ESMX 191850Z AUTO 15008KT 9999 -RA OVC005/// 01/01 Q1001 REDZ RESHUP RERA=
202301191820 METAR ESMX 191820Z AUTO 16007KT 9999 OVC005/// 01/01 Q1001=
202301191750 METAR ESMX 191750Z AUTO 15007KT 9999 -DZ OVC004/// 01/01 Q1001 REDZ=
202301191720 METAR ESMX 191720Z AUTO 14008KT 100V170 5000 -RA OVC003/// 01/01 Q1001=
202301191650 METAR ESMX 191650Z AUTO 14007KT 110V170 4900 -RA OVC006/// 01/01 Q1000=
202301191620 METAR ESMX 191620Z AUTO 14006KT 100V170 9000 -RA OVC006/// 01/01 Q1000=
202301191550 METAR ESMX 191550Z AUTO 13006KT 080V170 5000 -DZ BKN005/// OVC009/// 01/01 Q1000=
202301191520 METAR ESMX 191520Z AUTO 13005KT 9999 -RA BKN011/// OVC016/// 01/M00 Q1000=
202301191450 METAR ESMX 191450Z 15008KT 8000 -DZ FEW004 BKN010 01/00 Q1000=
202301191420 METAR ESMX 191420Z 14007KT 110V170 9999 -DZ BKN010 01/00 Q1000=
202301191350 METAR ESMX 191350Z 14007KT 110V170 9999 SCT012 BKN023 01/M00 Q1000=
202301191320 METAR ESMX 191320Z 14008KT 110V170 9999 BKN010 01/00 Q1000=
202301191250 METAR ESMX 191250Z 15007KT 9999 BKN010 01/00 Q1000=
202301191220 METAR ESMX 191220Z 14006KT 090V180 9999 BKN011 01/M00 Q1000=
202301191150 METAR ESMX 191150Z 14008KT 110V170 9999 SCT011 BKN020 01/M00 Q1000=
202301191120 METAR ESMX 191120Z 16007KT 9999 BKN014 01/M00 Q1000=
202301191050 METAR ESMX 191050Z 14007KT 110V200 9999 BKN018 01/M01 Q1000=
202301191020 METAR ESMX 191020Z 15007KT 110V190 9999 BKN017 01/M01 Q1000=
202301190950 METAR ESMX 190950Z 15007KT CAVOK 01/M01 Q1000=
202301190920 METAR ESMX 190920Z 14007KT 100V170 CAVOK 00/M01 Q1000=
202301190850 METAR ESMX 190850Z 14006KT 100V170 CAVOK M00/M01 Q0999=
202301190820 METAR ESMX 190820Z 15006KT CAVOK M01/M01 Q0999=
202301190750 METAR ESMX 190750Z 15006KT 120V190 CAVOK M01/M01 Q0999=
202301190720 METAR ESMX 190720Z 15006KT CAVOK M01/M01 Q0999=
202301190650 METAR ESMX 190650Z AUTO 15005KT 9999 NCD M01/M02 Q0999=
202301190620 METAR ESMX 190620Z AUTO 15005KT 9999 NCD M01/M01 Q0998=
202301190550 METAR ESMX 190550Z AUTO 16005KT 9999 NCD M01/M01 Q0998=
202301190520 METAR ESMX 190520Z AUTO 16005KT 9999 NCD M02/M02 Q0998=
202301190450 METAR ESMX 190450Z AUTO 18004KT 9999 NCD M02/M02 Q0998=
202301190420 METAR ESMX 190420Z AUTO 18004KT 9999 FEW008/// M01/M02 Q0998=
202301190350 METAR ESMX 190350Z AUTO 18004KT 9999 NCD M02/M02 Q0998=
202301190320 METAR ESMX 190320Z AUTO 18004KT 9999 SCT015/// M01/M02 Q0998=
202301190250 METAR ESMX 190250Z AUTO 18004KT 9999 SCT016/// BKN020/// M00/M02 Q0998=
202301190220 METAR ESMX 190220Z AUTO 18004KT 9999 BKN023/// M00/M02 Q0998=
202301190150 METAR ESMX 190150Z AUTO 18004KT 9999 OVC022/// 00/M02 Q0998=
202301190120 METAR ESMX 190120Z AUTO 18005KT 9999 OVC021/// 00/M02 Q0998=
202301190050 METAR ESMX 190050Z AUTO 21005KT 9999 OVC022/// 00/M02 Q0998=
202301190020 METAR ESMX 190020Z 17005KT 9999 FEW017 OVC024 00/M02 Q0998=
202301182350 METAR ESMX 182350Z AUTO 22008KT 9999 OVC017/// 00/M02 Q0997=
202301182320 METAR ESMX 182320Z AUTO 17004KT 9999 OVC018/// 00/M01 Q0997=
202301182250 METAR ESMX 182250Z AUTO 18004KT 9999 OVC019/// 00/M01 Q0997=
202301182220 METAR ESMX 182220Z 18003KT 9999 OVC019 01/M01 Q0997=
202301182150 METAR ESMX 182150Z 18003KT 9999 OVC018 01/M01 Q0997=
202301182120 METAR ESMX 182120Z 15003KT 120V190 9999 BKN016 01/M01 Q0996=
202301182050 METAR ESMX 182050Z 18003KT 9999 BKN017 01/M01 Q0996=
202301182020 METAR ESMX 182020Z AUTO 18004KT 9999 OVC019/// 01/M02 Q0996=
202301181950 METAR ESMX 181950Z AUTO 19005KT 9999 OVC019/// 01/M02 Q0996=
202301181920 METAR ESMX 181920Z AUTO 19004KT 9999 OVC019/// 01/M01 Q0996=
202301181850 METAR ESMX 181850Z AUTO 17006KT 9999 OVC020/// 01/M02 Q0996=
202301181820 METAR ESMX 181820Z AUTO 16005KT 9999 OVC022/// 01/M01 Q0996=
202301181750 METAR ESMX 181750Z AUTO 16005KT 9999 OVC021/// 01/M01 Q0995=
202301181720 METAR ESMX 181720Z AUTO 20004KT 9999 OVC019/// 01/M01 Q0995=
202301181650 METAR ESMX 181650Z AUTO 20004KT 9999 OVC018/// 01/M00 Q0995=
202301181620 METAR ESMX 181620Z 17004KT 140V200 9999 BKN019 01/M00 Q0995=
202301181550 METAR ESMX 181550Z 16004KT 120V220 9999 BKN020 01/M00 Q0994=
202301181520 METAR ESMX 181520Z 18005KT 9999 BKN020 01/M00 Q0994=
202301181450 METAR ESMX 181450Z 18006KT 9999 BKN018 01/M00 Q0994=
202301181420 METAR ESMX 181420Z 18007KT 9999 BKN020 01/M00 Q0993=
202301181350 METAR ESMX 181350Z 17007KT 9999 BKN022 01/M00 Q0993=
202301181320 METAR ESMX 181320Z 18008KT 9999 BKN020 01/M00 Q0993=
202301181250 METAR ESMX 181250Z 18008KT 9999 SCT011 BKN015 02/00 Q0993=
202301181220 METAR ESMX 181220Z 18010KT 9999 BKN011 02/00 Q0992=
202301181150 METAR ESMX 181150Z 19010KT 9999 BKN010 01/00 Q0992=
202301181120 METAR ESMX 181120Z 19010KT 9999 BKN012 02/00 Q0992=
202301181050 METAR ESMX 181050Z 21009KT 9999 BKN012 02/M00 Q0992=
202301181020 METAR ESMX 181020Z 19012KT 9999 FEW012 SCT034 01/M00 Q0991=
202301180950 METAR ESMX 180950Z 18013KT 9999 FEW011 SCT035 BKN066 01/M00 Q0991=
202301180920 METAR ESMX 180920Z 18012KT 9999 FEW013 BKN034 01/M00 Q0991=
202301180850 METAR ESMX 180850Z 18012KT 9999 SCT013 BKN027 01/M00 Q0990=
202301180820 METAR ESMX 180820Z 16011KT 9999 SCT013 BKN030 01/M00 Q0990=
202301180750 METAR ESMX 180750Z 17011KT 9999 SCT010 BKN035 01/M00 Q0989=
202301180720 METAR ESMX 180720Z 17010KT 9999 FEW012 BKN036 01/M00 Q0989=
202301180650 METAR ESMX 180650Z AUTO 16010KT 9999 FEW014/// OVC038/// 01/M00 Q0988=
202301180620 METAR ESMX 180620Z AUTO 17010KT 9999 SCT014/// OVC040/// 01/M00 Q0988=
202301180550 METAR ESMX 180550Z AUTO 17008KT 9999 SCT011/// OVC038/// 01/M00 Q0988 RESHUP REUP=
202301180520 METAR ESMX 180520Z AUTO 16009KT 9999 DZ FEW012/// SCT028/// OVC039/// 01/M00 Q0987 REDZ REUP=
202301180450 METAR ESMX 180450Z AUTO 16010KT 9999 OVC036/// 01/M00 Q0987=
202301180420 METAR ESMX 180420Z AUTO 17010KT 130V190 9999 OVC035/// 01/M00 Q0987=
202301180350 METAR ESMX 180350Z AUTO 17009KT 140V200 9999 FEW013/// BKN017/// BKN023/// 01/M00 Q0986=
202301180320 METAR ESMX 180320Z AUTO 18012KT 9999 BKN010/// OVC015/// 01/M00 Q0986=
202301180250 METAR ESMX 180250Z AUTO 17010KT 9999 SCT012/// BKN016/// OVC036/// 01/M00 Q0986=
202301180220 METAR ESMX 180220Z AUTO 17011KT 9999 BKN009/// BKN012/// OVC015/// 01/00 Q0986=
202301180150 METAR ESMX 180150Z AUTO 18011KT 9999 FEW002/// SCT005/// BKN007/// 01/00 Q0986=
202301180120 METAR ESMX 180120Z AUTO 19009KT 9999 -RA BKN006/// OVC009/// 01/01 Q0985 REDZ=
202301180050 METAR ESMX 180050Z 18011KT 5000 DZ SCT013 BKN024 01/00 Q0985=
202301180020 METAR ESMX 180020Z 18011KT 9999 BKN010 01/00 Q0984=
202301172350 METAR ESMX 172350Z AUTO 19010KT 9999 FEW001/// BKN009/// BKN015/// 01/01 Q0984 RESN=
202301172320 METAR ESMX 172320Z AUTO 19010KT 9999 FEW002/// BKN013/// OVC024/// 01/01 Q0984 RESHUP RERA=
202301172250 METAR ESMX 172250Z AUTO 19012KT 9999 FEW009/// OVC017/// 01/00 Q0984=
202301172220 METAR ESMX 172220Z 18011KT 9999 BKN010 01/01 Q0983=
202301172150 METAR ESMX 172150Z 18013KT 8000 -SNRA SCT002 BKN016 01/01 Q0983=
202301172120 METAR ESMX 172120Z 19013KT 6000 -SNRA BKN005 01/01 Q0982=
202301172050 METAR COR ESMX 172050Z 19011KT 6000 -SNRA BKN005 01/01 Q0982=
202301172020 METAR ESMX 172020Z AUTO 19013KT 9999 -SN BKN006/// OVC009/// 01/01 Q0981=
202301171950 METAR ESMX 171950Z AUTO 19013KT 9999 -DZ BKN007/// BKN009/// OVC012/// 02/01 Q0981=
202301171920 METAR ESMX 171920Z AUTO 20014KT 9999 -RA BKN008/// OVC011/// 02/01 Q0980=
202301171850 METAR ESMX 171850Z AUTO 17011KT 8000 -RA OVC006/// 02/02 Q0979=
202301171820 METAR ESMX 171820Z AUTO 16007KT 120V180 9999 BKN007/// OVC009/// 03/02 Q0979 RERA=
202301171750 METAR ESMX 171750Z AUTO 15006KT 110V180 9999 -RA BKN007/// BKN017/// OVC033/// 03/03 Q0979 REDZ REUP=
202301171720 METAR ESMX 171720Z AUTO 14007KT 9999 BKN006/// OVC009/// 03/02 Q0979=
202301171650 METAR ESMX 171650Z AUTO 13005KT 080V160 9999 OVC005/// 03/03 Q0978=
202301171620 METAR ESMX 171620Z AUTO 13005KT 9999 -RA OVC005/// 03/03 Q0978 RERA=
202301171550 METAR ESMX 171550Z AUTO 13005KT 080V140 8000 -RA OVC005/// 03/03 Q0978 REUP=
202301171520 METAR ESMX 171520Z AUTO 13004KT 060V140 9999 OVC005/// 03/03 Q0978=
202301171450 METAR ESMX 171450Z 14004KT 9999 -RA OVC004 02/02 Q0978=
202301171420 METAR ESMX 171420Z 11005KT 040V120 4500 -RASN OVC005 02/02 Q0978=
202301171350 METAR ESMX 171350Z 11006KT 070V140 5000 RASN BKN004 02/02 Q0978=
202301171320 METAR ESMX 171320Z 11005KT 030V130 9999 BKN005 02/02 Q0978 RERA=
202301171250 METAR ESMX 171250Z 10004KT 060V130 9999 BKN006 02/02 Q0979=
202301171220 METAR ESMX 171220Z 11005KT 030V150 9999 -RA BKN006 02/02 Q0979 REDZ=
202301171150 METAR COR ESMX 171150Z 11004KT 050V120 9999 -DZ BKN006 02/02 Q0979=
202301171120 METAR ESMX 171120Z 09005KT 030V120 8000 DZ OVC006 02/02 Q0979=
202301171050 METAR ESMX 171050Z 09006KT 030V120 9999 -DZ BKN006 02/02 Q0980=
202301171020 METAR ESMX 171020Z 08004KT 010V160 8000 -DZ OVC006 02/02 Q0980=
202301170950 METAR ESMX 170950Z 09006KT 050V130 8000 -RA OVC005 02/02 Q0981=
202301170920 METAR ESMX 170920Z 09006KT 050V130 9000 DZ OVC007 02/02 Q0981=
202301170850 METAR ESMX 170850Z 08007KT 030V130 9000 -RA OVC007 02/02 Q0981=
202301170820 METAR ESMX 170820Z 09005KT 050V130 9999 -DZ BKN007 02/02 Q0981=
202301170750 METAR ESMX 170750Z 10006KT 030V160 9999 OVC011 03/01 Q0981=
202301170720 METAR ESMX 170720Z 11008G19KT 020V160 9999 BKN011 03/01 Q0982=
202301170650 METAR ESMX 170650Z 11008KT 060V140 9999 BKN012 03/01 Q0982=
202301170620 METAR ESMX 170620Z 10009G20KT 060V150 9999 BKN013 03/00 Q0982=
202301170550 METAR ESMX 170550Z AUTO 09007KT 030V150 9999 OVC014/// 03/01 Q0982=
202301170520 METAR ESMX 170520Z AUTO 11006KT 050V140 9999 BKN015/// OVC020/// 03/01 Q0983=
202301170450 METAR ESMX 170450Z AUTO 11006KT 050V150 9999 BKN015/// OVC027/// 03/01 Q0983=
202301170420 METAR ESMX 170420Z AUTO 12007KT 050V140 9999 BKN016/// OVC027/// 03/01 Q0983=
202301170350 METAR ESMX 170350Z AUTO 12006KT 040V160 9999 SCT014/// BKN018/// OVC025/// 03/01 Q0984=
202301170320 METAR ESMX 170320Z AUTO 11007KT 070V150 9999 OVC014/// 03/01 Q0984=
202301170250 METAR ESMX 170250Z AUTO 11006KT 360V160 9999 BKN015/// OVC020/// 03/01 Q0984=
202301170220 METAR ESMX 170220Z AUTO 12007KT 080V160 9999 OVC014/// 03/01 Q0984=
202301170150 METAR ESMX 170150Z AUTO 12007KT 050V160 9999 BKN012/// OVC015/// 03/01 Q0984=
202301170120 METAR ESMX 170120Z AUTO 12008KT 080V150 9999 OVC012/// 03/01 Q0985=
202301170050 METAR ESMX 170050Z AUTO 12008KT 070V150 9999 BKN013/// 03/01 Q0985=
202301170020 METAR ESMX 170020Z 13007KT 030V160 9999 OVC012 03/01 Q0985=
202301162350 METAR ESMX 162350Z AUTO 12007KT 060V170 9999 OVC011/// 03/02 Q0986=
202301162320 METAR ESMX 162320Z AUTO 12006KT 080V150 9999 OVC011/// 03/02 Q0986=
202301162250 METAR ESMX 162250Z AUTO 12006KT 9999 BKN012/// OVC016/// 03/02 Q0986=
202301162220 METAR ESMX 162220Z AUTO 12006KT 080V140 9999 BKN014/// OVC023/// 03/02 Q0987=
202301162150 METAR ESMX 162150Z 13007KT 080V180 9999 BKN015 OVC018 03/02 Q0987=
202301162120 METAR ESMX 162120Z 14007KT 100V170 9999 BKN013 03/02 Q0987=
202301162050 METAR ESMX 162050Z 13006KT 080V160 9999 BKN013 03/02 Q0988=
202301162020 METAR ESMX 162020Z 12007KT 070V160 9999 SCT012 BKN014 03/02 Q0988=
202301161950 METAR ESMX 161950Z 13006KT 090V160 9999 SCT013 BKN026 03/02 Q0988=
202301161920 METAR ESMX 161920Z 13006KT 090V170 9999 FEW013 BKN026 03/02 Q0988=
202301161850 METAR COR ESMX 161850Z 14007KT 120V180 9999 SCT013 03/02 Q0989=
202301161820 METAR ESMX 161820Z 13006KT 9999 FEW011 OVC019 03/02 Q0989=
202301161750 METAR ESMX 161750Z 12005KT 9999 FEW010 OVC026 03/02 Q0989=
202301161720 METAR ESMX 161720Z 13007KT 080V170 9999 FEW009 BKN024 03/02 Q0989=
202301161650 METAR ESMX 161650Z 14006KT 9999 FEW023 SCT050 02/02 Q0989=
202301161620 METAR ESMX 161620Z 14006KT 100V170 9999 FEW011 SCT057 02/01 Q0989=
202301161550 METAR ESMX 161550Z 14005KT 100V170 9999 SCT012 02/01 Q0989=
202301161520 METAR ESMX 161520Z AUTO 14005KT 9999 BKN049/// 02/01 Q0989=
202301161450 METAR ESMX 161450Z 14004KT 9999 BKN048 03/01 Q0989=
202301161420 METAR ESMX 161420Z 15005KT 9999 NSC 03/01 Q0990=
202301161350 METAR ESMX 161350Z 17007KT 9999 FEW016 04/01 Q0990=
202301161320 METAR ESMX 161320Z 17007KT 9999 SCT016 04/02 Q0990=
202301161250 METAR ESMX 161250Z 18009KT 9999 SCT016 BKN029 04/02 Q0990=
202301161220 METAR ESMX 161220Z 18008KT 9999 SCT014 BKN026 04/02 Q0990=
202301161150 METAR ESMX 161150Z 18009KT 9999 SCT010 BKN016 04/03 Q0991=
202301161120 METAR ESMX 161120Z 20010KT 9999 SCT009 BKN010 04/02 Q0991=
202301161050 METAR ESMX 161050Z 21009KT 9999 FEW012 SCT017 03/02 Q0991=
202301161020 METAR ESMX 161020Z 20010KT 9999 -DZ SCT012 BKN019 03/02 Q0991=
202301160950 METAR ESMX 160950Z 19011KT 9999 BKN012 03/02 Q0991=
202301160920 METAR COR ESMX 160920Z 19011KT 9999 BKN010 OVC029 03/02 Q0991=
202301160850 METAR ESMX 160850Z 20010KT 9999 BKN010 03/02 Q0990=
202301160820 METAR ESMX 160820Z 22013KT 9999 BKN010 03/02 Q0990=
202301160750 METAR ESMX 160750Z 21012KT 9999 SCT009 BKN019 03/02 Q0989=
202301160720 METAR ESMX 160720Z 21011KT 9999 SCT015 03/02 Q0989=
202301160650 METAR ESMX 160650Z 22012KT 9999 FEW011 BKN016 03/02 Q0989=
202301160620 METAR ESMX 160620Z AUTO 22011KT 9999 BKN017/// OVC022/// 03/02 Q0988=
202301160550 METAR ESMX 160550Z AUTO 23011KT 9999 BKN019/// OVC024/// 03/02 Q0988=
202301160520 METAR ESMX 160520Z AUTO 21011KT 9999 SCT023/// BKN028/// 03/02 Q0987=
202301160450 METAR ESMX 160450Z AUTO 22013KT 9999 OVC029/// 04/02 Q0987=
202301160420 METAR ESMX 160420Z AUTO 22014KT 9999 FEW024/// OVC035/// 04/02 Q0986=
202301160350 METAR ESMX 160350Z AUTO 23013G24KT 9999 SCT024/// OVC035/// 04/02 Q0986=
202301160320 METAR ESMX 160320Z AUTO 23013KT 9999 SCT022/// OVC039/// 04/02 Q0986=
202301160250 METAR ESMX 160250Z AUTO 23014KT 9999 DZ SCT019/// BKN025/// OVC040/// 04/03 Q0985=
202301160220 METAR ESMX 160220Z AUTO 22014KT 200V270 9999 -DZ SCT022/// BKN041/// OVC049/// 04/03 Q0985=
202301160150 METAR ESMX 160150Z AUTO 23015KT 7000 FEW017/// SCT022/// BKN031/// 04/03 Q0985 RERA=
202301160120 METAR ESMX 160120Z AUTO 23015KT 9999 -RA BKN015/// BKN024/// OVC031/// 04/03 Q0984=
202301160050 METAR ESMX 160050Z AUTO 22014KT 5000 DZ SCT011/// BKN016/// BKN024/// 04/03 Q0984 RERA=
202301160020 METAR ESMX 160020Z AUTO 22015G25KT 9999 SCT016/// BKN020/// BKN026/// 04/03 Q0983=
202301152350 METAR ESMX 152350Z AUTO 24014KT 9999 SCT011/// BKN016/// BKN021/// 04/03 Q0983=
202301152320 METAR ESMX 152320Z AUTO 23014G26KT 9000 -RA BKN010/// BKN017/// OVC023/// 04/03 Q0982=
202301152250 METAR ESMX 152250Z AUTO 22015KT 190V260 8000 DZ BKN008/// BKN009/// OVC012/// 04/04 Q0981 RERA=
202301152220 METAR ESMX 152220Z AUTO 22015KT 6000 BR BKN008/// OVC012/// 04/04 Q0981=
202301152150 METAR ESMX 152150Z AUTO 21016KT 9999 -DZ SCT008/// BKN011/// OVC013/// 04/03 Q0981=
202301152120 METAR ESMX 152120Z AUTO 21016KT 9000 DZ BKN008/// OVC011/// 04/04 Q0980=
202301152050 METAR ESMX 152050Z 20017KT 9999 -RA BKN007 04/03 Q0980=
202301152020 METAR ESMX 152020Z 19018KT 8000 RA BKN007 OVC010 03/03 Q0980=
202301151950 METAR ESMX 151950Z 20017KT 5000 RA BKN007 OVC010 03/03 Q0980=
202301151920 METAR ESMX 151920Z AUTO 18019G31KT 5000 RA BKN008/// OVC018/// 03/03 Q0980=
202301151850 METAR ESMX 151850Z AUTO 17017KT 6000 -RA OVC008/// 03/03 Q0979 REDZ=
202301151820 METAR ESMX 151820Z AUTO 18017G27KT 9999 DZ OVC008/// 03/02 Q0980=
202301151750 METAR ESMX 151750Z AUTO 16016KT 7000 -RA SCT006/// BKN009/// OVC013/// 03/02 Q0980 RERA=
202301151720 METAR ESMX 151720Z AUTO 17015G27KT 9999 FEW006/// OVC010/// 03/02 Q0980=
202301151650 METAR ESMX 151650Z AUTO 18016KT 8000 -RA BKN007/// OVC021/// 03/02 Q0981=
202301151620 METAR ESMX 151620Z AUTO 18015KT 9999 -DZ BKN031/// OVC043/// 04/01 Q0982 REUP=
202301151550 METAR ESMX 151550Z AUTO 16013KT 120V190 9999 SCT036/// 04/00 Q0982=
202301151520 METAR ESMX 151520Z AUTO 18015KT 9999 BKN029/// BKN045/// 04/00 Q0983=
202301151450 METAR ESMX 151450Z 18014KT 9999 SCT034 BKN049 04/00 Q0984=
202301151420 METAR ESMX 151420Z 18014KT 9999 FEW029 BKN048 04/01 Q0984=
202301151350 METAR ESMX 151350Z 18014KT 9999 FEW020 BKN049 04/01 Q0984=
202301151320 METAR ESMX 151320Z 18016KT 9999 SCT025 04/02 Q0985=
202301151250 METAR ESMX 151250Z 18013KT 9999 FEW018 BKN020 04/02 Q0985=
202301151220 METAR ESMX 151220Z 19014KT 9999 FEW019 BKN023 04/02 Q0985=
202301151150 METAR ESMX 151150Z AUTO 20013KT 9999 BKN022/// BKN034/// OVC110/// 04/02 Q0985=
202301151120 METAR ESMX 151120Z AUTO 20017KT 9999 BKN020/// OVC035/// 04/02 Q0986=
202301151050 METAR ESMX 151050Z AUTO 19013KT 9999 BKN023/// OVC029/// 04/03 Q0986=
202301151020 METAR ESMX 151020Z AUTO 19014KT 9999 FEW015/// BKN030/// BKN043/// 04/03 Q0986=
202301150950 METAR ESMX 150950Z AUTO 19013KT 9999 OVC045/// 04/03 Q0986=
202301150920 METAR ESMX 150920Z AUTO 19013KT 9999 FEW020/// OVC045/// 04/03 Q0986=
202301150850 METAR ESMX 150850Z AUTO 19014KT 9999 SCT013/// BKN018/// OVC045/// 04/03 Q0986=
202301150820 METAR ESMX 150820Z AUTO 19015KT 9999 SCT012/// BKN018/// BKN027/// 04/03 Q0986=
202301150750 METAR ESMX 150750Z AUTO 20011KT 9999 SCT012/// BKN017/// OVC026/// 04/03 Q0986=
202301150720 METAR ESMX 150720Z AUTO 19012KT 9999 BKN016/// BKN033/// 04/03 Q0985=
202301150650 METAR ESMX 150650Z AUTO 20013KT 9999 FEW013/// BKN018/// BKN040/// 04/03 Q0985=
202301150620 METAR ESMX 150620Z AUTO 19012KT 9999 SCT009/// BKN012/// OVC015/// 04/03 Q0985=
202301150550 METAR ESMX 150550Z AUTO 20013KT 9999 BKN010/// OVC013/// 04/04 Q0985=
202301150520 METAR ESMX 150520Z AUTO 20013KT 9999 BKN009/// OVC012/// 04/04 Q0985=
202301150450 METAR ESMX 150450Z AUTO 20012KT 9999 BKN009/// BKN011/// OVC013/// 04/04 Q0985=
202301150420 METAR ESMX 150420Z AUTO 22012KT 9999 SCT009/// BKN013/// OVC027/// 04/04 Q0985=
202301150350 METAR ESMX 150350Z AUTO 21009KT 9999 BKN009/// BKN016/// OVC049/// 04/04 Q0985 REDZ=
202301150320 METAR ESMX 150320Z AUTO 21010KT 9999 FEW009/// SCT023/// BKN032/// 04/03 Q0985 REDZ=
202301150250 METAR ESMX 150250Z AUTO 25011G22KT 220V290 5000 +DZ FEW008/// SCT011/// BKN016/// 04/04 Q0985=
202301150220 METAR ESMX 150220Z AUTO 25011KT 5000 -RA SCT009/// BKN013/// BKN021/// 05/05 Q0985=
202301150150 METAR ESMX 150150Z AUTO 20014KT 5000 -RA BKN005/// BKN008/// OVC011/// 06/06 Q0984=
202301150120 METAR ESMX 150120Z AUTO 17011KT 9999 -RA FEW002/// OVC005/// 06/06 Q0984 REDZ=
202301150050 METAR ESMX 150050Z AUTO 18010KT 9999 DZ BKN006/// OVC008/// 05/05 Q0984=
202301150020 METAR ESMX 150020Z AUTO 17012KT 130V190 7000 RA FEW002/// OVC005/// 05/05 Q0985=
202301142350 METAR ESMX 142350Z AUTO 17011KT 140V200 9000 -RA OVC006/// 05/05 Q0985=
202301142320 METAR ESMX 142320Z AUTO 16014KT 140V200 6000 -RA BKN007/// OVC010/// 05/05 Q0986=
202301142250 METAR ESMX 142250Z AUTO 16013G24KT 5000 RA BKN006/// BKN008/// OVC009/// 05/05 Q0987=
202301142220 METAR ESMX 142220Z AUTO 15012KT 110V180 6000 -RA OVC005/// 04/04 Q0988 REDZ=
202301142150 METAR ESMX 142150Z AUTO 14010KT 080V180 8000 DZ OVC005/// 04/04 Q0989 REDZ=
202301142120 METAR ESMX 142120Z AUTO 14011KT 110V180 8000 DZ OVC006/// 03/03 Q0991=
202301142050 METAR ESMX 142050Z 16012KT 120V190 9999 -RA BKN008 04/03 Q0992=
202301142020 METAR ESMX 142020Z 15013KT 9999 -RA BKN010 04/03 Q0993=
202301141950 METAR ESMX 141950Z 16012KT 9999 -DZ BKN011 04/03 Q0994=
202301141920 METAR ESMX 141920Z 17010KT 140V200 9999 -DZ BKN010 05/04 Q0995=
202301141850 METAR ESMX 141850Z AUTO 16009KT 9999 BKN009/// OVC013/// 04/04 Q0996=
202301141820 METAR ESMX 141820Z AUTO 15008KT 120V180 9999 BKN009/// OVC013/// 04/03 Q0997=
202301141750 METAR ESMX 141750Z AUTO 17009KT 9999 OVC009/// 04/04 Q0997=
202301141720 METAR ESMX 141720Z AUTO 17008KT 9999 BKN009/// BKN012/// OVC015/// 04/04 Q0998=
202301141650 METAR ESMX 141650Z AUTO 16008KT 9999 BKN009/// BKN013/// 04/04 Q0999=
202301141620 METAR ESMX 141620Z AUTO 17009KT 140V200 9999 FEW002/// SCT005/// BKN007/// 04/04 Q0999=
202301141550 METAR ESMX 141550Z AUTO 19010KT 9999 -RA FEW005/// BKN008/// OVC022/// 04/04 Q1000 RESHUP REUP REDZ=
202301141520 METAR ESMX 141520Z AUTO 18008KT 9999 FEW008/// BKN010/// OVC025/// 04/04 Q1000=
202301141450 METAR ESMX 141450Z AUTO 18009KT 9999 FEW011/// OVC023/// 04/04 Q1001 RERA=
202301141420 METAR ESMX 141420Z AUTO 19010KT 9999 SCT008/// BKN028/// 04/04 Q1001 RERA=
202301141350 METAR ESMX 141350Z AUTO 22010KT 190V250 9999 FEW002/// SCT010/// BKN018/// 04/04 Q1001=
202301141320 METAR ESMX 141320Z AUTO 20009KT 9999 DZ ///031 05/04 Q1001 REDZ=
202301141250 METAR ESMX 141250Z AUTO 22009KT 9999 SCT011/// OVC017/// 05/04 Q1001 RESHUP RERA=
202301141220 METAR ESMX 141220Z AUTO 20012KT 9999 BKN009/// BKN015/// OVC024/// 05/04 Q1001=
202301141150 METAR ESMX 141150Z AUTO 22009KT 9999 FEW009/// SCT014/// BKN019/// 05/04 Q1001 RERA=
202301141120 METAR ESMX 141120Z AUTO 23010KT 3900 -DZ SCT011/// BKN017/// OVC027/// 04/04 Q1001 REUP RESHUP=
202301141050 METAR ESMX 141050Z AUTO 22010KT 9999 SCT012/// BKN018/// OVC036/// 05/04 Q1001=
202301141020 METAR ESMX 141020Z AUTO 23012KT 9999 BKN011/// OVC015/// 05/04 Q1002=
202301140950 METAR ESMX 140950Z 23010KT 9999 SCT011 BKN015 05/04 Q1001=
202301140920 METAR ESMX 140920Z 23009KT 9999 -RA SCT009 BKN014 05/04 Q1001=
202301140850 METAR ESMX 140850Z 22010KT 9999 BKN014 04/04 Q1001=
202301140820 METAR ESMX 140820Z 22011KT 9999 FEW013 BKN016 04/04 Q1000=
202301140750 METAR ESMX 140750Z 23010KT 9999 -DZ BKN015 04/03 Q1000=
202301140720 METAR ESMX 140720Z AUTO 22010KT 9999 FEW017/// OVC033/// 04/03 Q1000=
202301140650 METAR ESMX 140650Z AUTO 24011KT 200V270 9999 FEW016/// OVC027/// 04/03 Q0999=
202301140620 METAR ESMX 140620Z AUTO 23010KT 200V260 9999 FEW018/// SCT023/// OVC028/// 05/03 Q0999=
202301140550 METAR ESMX 140550Z AUTO 24010KT 210V280 9999 SCT009/// OVC024/// 04/04 Q0998=
202301140520 METAR ESMX 140520Z AUTO 26012KT 7000 BR FEW008/// SCT010/// BKN015/// 04/04 Q0998 REDZ REUP=
202301140450 METAR ESMX 140450Z AUTO 25013KT 9999 SCT007/// BKN010/// OVC012/// 05/04 Q0997 REDZ=
202301140420 METAR ESMX 140420Z AUTO 25013KT 9999 BKN008/// BKN010/// OVC013/// 05/04 Q0996=
202301140350 METAR ESMX 140350Z AUTO 24012KT 4300 BR VV010 05/05 Q0996=
202301140320 METAR ESMX 140320Z AUTO 24011KT 210V280 2200 DZ FEW002/// BKN005/// OVC008/// 05/05 Q0996 RERA=
202301140250 METAR ESMX 140250Z AUTO 25012KT 9999 -RA FEW002/// BKN005/// OVC008/// 05/05 Q0995 REDZ=
202301140220 METAR ESMX 140220Z AUTO 23011KT 3800 DZ FEW002/// BKN005/// OVC007/// 05/05 Q0994 REDZ=
202301140150 METAR ESMX 140150Z AUTO 22010KT 9000 BR OVC005/// 05/05 Q0994 RERA=
202301140120 METAR ESMX 140120Z AUTO 22011KT 9999 SCT006/// BKN009/// OVC014/// 05/05 Q0994=
202301140050 METAR ESMX 140050Z AUTO 19011KT 5000 -DZ OVC005/// 05/05 Q0993=
202301140020 METAR ESMX 140020Z AUTO 21011KT 8000 DZ BKN005/// OVC007/// 05/05 Q0993 RERA=
202301132350 METAR ESMX 132350Z AUTO 18011KT 7000 BR BKN005/// OVC007/// 05/05 Q0993 REDZ=
202301132320 METAR ESMX 132320Z AUTO 19010KT 9999 DZ OVC006/// 05/05 Q0993 RESHUP=
202301132250 METAR ESMX 132250Z AUTO 17010KT 3700 -DZ BKN005/// OVC007/// 05/05 Q0993 RESHUP REUP=
202301132220 METAR ESMX 132220Z AUTO 18011KT 9999 SCT006/// BKN009/// OVC025/// 05/05 Q0993 REDZ REUP=
202301132150 METAR ESMX 132150Z AUTO 18012KT 9999 FEW010/// BKN014/// BKN023/// 05/05 Q0993=
202301132120 METAR ESMX 132120Z AUTO 19014KT 9999 BKN009/// OVC027/// 06/05 Q0993=
202301132050 METAR ESMX 132050Z AUTO 19014KT 9999 BKN008/// OVC012/// 06/05 Q0993=
202301132020 METAR ESMX 132020Z AUTO 18014KT 9999 BKN007/// OVC009/// 06/05 Q0993=
202301131950 METAR ESMX 131950Z AUTO 19013KT 9999 -RA OVC006/// 06/05 Q0993 RERA=
202301131920 METAR ESMX 131920Z AUTO 18012KT 6000 DZ SCT006/// BKN009/// OVC010/// 05/05 Q0993 REDZ=
202301131850 METAR ESMX 131850Z AUTO 18015KT 7000 -RA BKN006/// BKN009/// OVC011/// 06/05 Q0993 RESHRA=
202301131820 METAR ESMX 131820Z AUTO 18013KT 9000 -DZ OVC006/// 06/05 Q0993=
202301131750 METAR ESMX 131750Z AUTO 17013KT 9999 SCT006/// BKN008/// OVC011/// 05/05 Q0993=
202301131720 METAR ESMX 131720Z AUTO 17012KT 9999 -RA BKN008/// OVC011/// 05/05 Q0993=
202301131650 METAR ESMX 131650Z AUTO 17014KT 130V190 9999 -RA BKN006/// OVC008/// 06/05 Q0993 RESHUP REDZ=
202301131620 METAR ESMX 131620Z AUTO 18012KT 7000 BR FEW005/// BKN007/// BKN009/// 06/05 Q0993 REDZ=
202301131550 METAR ESMX 131550Z AUTO 17011KT 9999 DZ BKN009/// OVC015/// 06/05 Q0993 REDZ=
202301131520 METAR ESMX 131520Z AUTO 18010KT 9999 -DZ BKN008/// OVC012/// 06/05 Q0994=
202301131450 METAR ESMX 131450Z 18011KT 9000 -DZ BKN009 OVC012 06/05 Q0994=
202301131420 METAR ESMX 131420Z 16011KT 140V200 8000 DZ BKN010 06/05 Q0994=
202301131350 METAR ESMX 131350Z 18010KT 9999 DZ BKN011 06/05 Q0994 RERA=
202301131320 METAR ESMX 131320Z 18010KT 9999 BKN013 06/05 Q0994 RERA=
202301131250 METAR ESMX 131250Z 17011KT 9999 FEW009 BKN014 06/05 Q0994=
202301131220 METAR ESMX 131220Z 19010KT 5000 -RA FEW005 BKN010 OVC013 06/05 Q0994 REDZ=
202301131150 METAR ESMX 131150Z 19011KT 9999 -RA BKN012 05/05 Q0994=
202301131120 METAR ESMX 131120Z 19013KT 9999 BKN013 06/05 Q0994=
202301131050 METAR ESMX 131050Z 19012KT 9999 BKN010 06/05 Q0994=
202301131020 METAR ESMX 131020Z 20012KT 9999 SCT010 BKN013 06/05 Q0995=
202301130950 METAR ESMX 130950Z 19012KT 9999 BKN010 OVC029 06/05 Q0995=
202301130920 METAR COR ESMX 130920Z 19011KT 9999 BKN010 06/05 Q0994=
202301130850 METAR ESMX 130850Z 20010KT 9999 FEW025 SCT038 05/05 Q0994=
202301130820 METAR ESMX 130820Z 19010KT 9999 SCT043 05/05 Q0994=
202301130750 METAR ESMX 130750Z 22009KT 9999 FEW009 SCT019 05/05 Q0994=
202301130720 METAR ESMX 130720Z 20008KT 9000 SCT010 BKN019 BKN049 06/06 Q0994=
202301130650 METAR ESMX 130650Z AUTO 22008KT 9999 FEW009/// SCT012/// BKN021/// 06/06 Q0993 REDZ=
202301130620 METAR ESMX 130620Z AUTO 23011KT 9999 DZ SCT008/// BKN013/// BKN036/// 07/06 Q0993 REUP REDZ=
202301130550 METAR ESMX 130550Z AUTO 20011KT 9999 SCT007/// BKN009/// BKN012/// 07/07 Q0993=
202301130520 METAR ESMX 130520Z AUTO 18009KT 9999 OVC004/// 07/07 Q0993=
202301130450 METAR ESMX 130450Z AUTO 18010KT 9999 OVC004/// 06/06 Q0993=
202301130420 METAR ESMX 130420Z AUTO 17009KT 8000 BR OVC002/// 06/06 Q0993 RERA=
202301130350 METAR ESMX 130350Z AUTO 15010KT 4900 DZ OVC002/// 05/05 Q0993=
202301130320 METAR ESMX 130320Z AUTO 15008KT 8000 -RA OVC003/// 05/05 Q0993=
202301130250 METAR ESMX 130250Z AUTO 15009KT 110V180 9999 -DZ OVC004/// 04/04 Q0993=
202301130220 METAR ESMX 130220Z AUTO 16008KT 9999 -RA OVC004/// 04/04 Q0994 REDZ=
202301130150 METAR ESMX 130150Z AUTO 15007KT 9999 -DZ OVC004/// 04/04 Q0994 REUP REDZ=
202301130120 METAR ESMX 130120Z AUTO 15006KT 9999 SCT005/// OVC013/// 03/03 Q0995=
202301130050 METAR ESMX 130050Z AUTO 14004KT 9999 BKN013/// OVC062/// 03/03 Q0995=
202301130020 METAR ESMX 130020Z 18004KT 9999 FEW009 OVC011 03/03 Q0996=
202301122350 METAR ESMX 122350Z 18005KT 9999 OVC008 03/03 Q0996=
202301122320 METAR ESMX 122320Z 18005KT 9999 OVC007 03/03 Q0996=
202301122250 METAR ESMX 122250Z 17004KT 130V190 9999 OVC008 03/03 Q0997=
202301122220 METAR ESMX 122220Z 22004KT 9999 SCT005 BKN007 03/03 Q0997=
202301122150 METAR ESMX 122150Z 22006KT 9999 BKN004 03/03 Q0997=
202301122120 METAR ESMX 122120Z 22005KT 9999 BKN005 03/03 Q0997=
202301122050 METAR ESMX 122050Z 23005KT 9999 BKN005 03/03 Q0997=
202301122020 METAR ESMX 122020Z AUTO 19003KT 9999 OVC006/// 03/03 Q0996=
202301121950 METAR ESMX 121950Z AUTO 29003KT 9999 OVC008/// 03/03 Q0996=
202301121920 METAR ESMX 121920Z AUTO 29005KT 240V310 9999 FEW005/// BKN007/// OVC009/// 04/04 Q0995=
202301121850 METAR ESMX 121850Z AUTO 31004KT 180V320 9999 SCT005/// OVC009/// 04/04 Q0995=
202301121820 METAR ESMX 121820Z AUTO 18004KT 9000 BR BKN003/// BKN007/// OVC008/// 04/04 Q0994 RERA=
202301121750 METAR ESMX 121750Z AUTO 18004KT 6000 BR BKN002/// OVC011/// 04/04 Q0994=
202301121720 METAR ESMX 121720Z AUTO 32003KT 3600 DZ BKN001/// OVC005/// 04/04 Q0993=
202301121650 METAR ESMX 121650Z AUTO 33003KT 2800 -DZ BKN001/// OVC006/// 04/04 Q0993=
202301121620 METAR ESMX 121620Z AUTO 18003KT 2200 DZ BKN002/// OVC004/// 04/04 Q0993 RESHUP REDZ=
202301121550 METAR ESMX 121550Z AUTO 01003KT 5000 BR BKN004/// BKN007/// OVC010/// 04/04 Q0993 REDZ=
202301121520 METAR ESMX 121520Z AUTO VRB01KT 5000 BR SCT007/// BKN010/// OVC017/// 04/04 Q0993=
202301121450 METAR ESMX 121450Z 18002KT 9000 -RA FEW006 BKN009 OVC012 04/04 Q0994=
202301121420 METAR ESMX 121420Z VRB02KT 9000 -RA BKN013 OVC021 04/04 Q0994=
202301121350 METAR ESMX 121350Z 18007KT 6000 -RA SCT008 BKN025 05/04 Q0995=
202301121320 METAR ESMX 121320Z 15005KT 6000 -RA FEW006 BKN009 OVC025 05/05 Q0995=
202301121250 METAR ESMX 121250Z 16006KT 8000 -RA BKN007 OVC032 05/05 Q0996 REDZ=
202301121220 METAR ESMX 121220Z 17007KT 8000 DZ BKN007 OVC010 05/05 Q0996=
202301121150 METAR ESMX 121150Z 19009KT 9999 BKN008 OVC012 05/05 Q0997=
202301121120 METAR ESMX 121120Z 18011KT 9999 -DZ BKN009 05/05 Q0997=
202301121050 METAR ESMX 121050Z 18010KT 9999 SCT007 BKN009 OVC011 05/04 Q0997=
202301121020 METAR ESMX 121020Z 19012KT 6000 -RA FEW002 OVC008 05/05 Q0998=
202301120950 METAR ESMX 120950Z 19012KT 9999 BKN009 OVC012 05/04 Q0998=
202301120920 METAR ESMX 120920Z 18012KT 9999 DZ BKN009 OVC028 05/04 Q0998=
202301120850 METAR ESMX 120850Z 19012KT 9999 FEW011 BKN026 05/04 Q0998=
202301120820 METAR ESMX 120820Z 19011KT 9999 FEW008 BKN019 OVC027 05/04 Q0998=
202301120750 METAR ESMX 120750Z 21013KT 9999 BKN007 OVC032 05/04 Q0997=
202301120720 METAR ESMX 120720Z 18013KT 9000 -RA FEW002 BKN006 05/05 Q0997=
202301120650 METAR ESMX 120650Z AUTO 19012KT 8000 DZ FEW002/// OVC006/// 05/05 Q0997=
202301120620 METAR ESMX 120620Z AUTO 18010KT 9999 -RA OVC006/// 05/04 Q0997=
202301120550 METAR ESMX 120550Z AUTO 18011KT 9999 -DZ OVC006/// 05/04 Q0998 REDZ=
202301120520 METAR ESMX 120520Z AUTO 17010KT 9999 OVC006/// 04/04 Q0998=
202301120450 METAR ESMX 120450Z AUTO 17012KT 9999 -DZ BKN007/// OVC009/// 04/04 Q0998 REDZ=
202301120420 METAR ESMX 120420Z AUTO 18012KT 9000 DZ OVC006/// 05/04 Q0999 REUP REDZ=
202301120350 METAR ESMX 120350Z AUTO 16008KT 9999 BKN008/// OVC011/// 05/04 Q0999=
202301120320 METAR ESMX 120320Z AUTO 17010KT 9999 OVC011/// 05/04 Q1000=
202301120250 METAR ESMX 120250Z AUTO 17008KT 9999 BKN012/// OVC016/// 05/04 Q1000=
202301120220 METAR ESMX 120220Z AUTO 19011KT 9999 OVC009/// 05/04 Q1001=
202301120150 METAR ESMX 120150Z AUTO 19011KT 9999 BKN007/// OVC009/// 05/04 Q1001 REUP=
202301120120 METAR ESMX 120120Z AUTO 18011KT 9999 -DZ BKN008/// OVC015/// 05/04 Q1001 REUP=
202301120050 METAR ESMX 120050Z 20008KT 9999 BKN008 04/04 Q1002=
202301120020 METAR ESMX 120020Z 18009KT 9999 BKN008 04/04 Q1002=
202301112350 METAR ESMX 112350Z 21009KT 9999 FEW009 BKN013 05/04 Q1002=
202301112320 METAR ESMX 112320Z 19009KT 9999 SCT008 BKN010 05/04 Q1002=
202301112250 METAR ESMX 112250Z 19010KT 9999 BKN009 05/05 Q1002=
202301112220 METAR ESMX 112220Z 21009KT 9999 BKN010 05/05 Q1002=
202301112150 METAR ESMX 112150Z 22009KT 9999 BKN009 05/05 Q1002=
202301112120 METAR ESMX 112120Z 20009KT 9999 BKN009 05/05 Q1002=
202301112050 METAR ESMX 112050Z 21007KT 9999 FEW006 BKN009 05/05 Q1003=
202301112020 METAR ESMX 112020Z AUTO 20009KT 9999 BKN006/// OVC010/// 05/05 Q1002=
202301111950 METAR ESMX 111950Z AUTO 21008KT 9999 OVC005/// 05/05 Q1002=
202301111920 METAR ESMX 111920Z AUTO 18008KT 9999 SCT006/// BKN008/// OVC031/// 06/06 Q1002=
202301111850 METAR ESMX 111850Z AUTO 20009KT 9999 SCT009/// BKN027/// 06/06 Q1002=
202301111820 METAR ESMX 111820Z AUTO 19008KT 9999 SCT011/// BKN015/// BKN029/// 06/06 Q1002=
202301111750 METAR ESMX 111750Z 19007KT 9999 FEW012 SCT030 06/06 Q1002=
202301111720 METAR ESMX 111720Z 21007KT 9999 FEW015 BKN029 06/06 Q1002=
202301111650 METAR ESMX 111650Z AUTO 22008KT 9999 FEW016/// OVC027/// 07/06 Q1002=
202301111620 METAR ESMX 111620Z 21009KT 9999 BKN006 OVC026 07/07 Q1002=
202301111550 METAR ESMX 111550Z 20007KT 9999 BKN006 OVC025 07/07 Q1002 REDZ=
202301111520 METAR ESMX 111520Z 19008KT 7000 OVC005 07/07 Q1002=
202301111450 METAR ESMX 111450Z 18008KT 9000 OVC005 07/07 Q1001=
202301111420 METAR ESMX 111420Z 19009KT 9000 OVC004 07/07 Q1001=
202301111350 METAR ESMX 111350Z 18009KT 7000 -DZ OVC005 07/07 Q1001=
202301111320 METAR ESMX 111320Z 19009KT 9999 OVC005 07/07 Q1001=
202301111250 METAR ESMX 111250Z 19010KT 9999 OVC003 06/06 Q1001=
202301111220 METAR ESMX 111220Z 19010KT 9000 OVC002 06/06 Q1001=
202301111150 METAR ESMX 111150Z 19014KT 8000 OVC003 06/06 Q1001=
202301111120 METAR ESMX 111120Z 19014KT 9000 OVC004 05/05 Q1001=
202301111050 METAR ESMX 111050Z 19012KT 6000 OVC003 05/05 Q1001=
202301111020 METAR ESMX 111020Z 18012KT 3400 BR OVC002 05/05 Q1001 REDZ=
202301110950 METAR ESMX 110950Z 17012KT 3800 BR BKN002 OVC004 05/05 Q1000=
202301110920 METAR ESMX 110920Z 17013KT 6000 OVC005 04/04 Q1000=
202301110850 METAR ESMX 110850Z 17014KT 9999 -RA OVC006 04/04 Q1000=
202301110820 METAR ESMX 110820Z 18014KT 9000 -RA BKN005 04/04 Q1000=
202301110750 METAR ESMX 110750Z 18014KT 8000 -DZ BR BKN005 04/04 Q1001=
202301110720 METAR ESMX 110720Z 17015KT 140V200 9999 -RA BKN006 04/04 Q1000=
202301110650 METAR ESMX 110650Z AUTO 17015KT 7000 -RA OVC006/// 04/04 Q1000=
202301110620 METAR ESMX 110620Z AUTO 17016KT 140V200 6000 -RA OVC007/// 04/03 Q1001=
202301110550 METAR ESMX 110550Z AUTO 17016G26KT 130V210 9999 DZ OVC006/// 04/03 Q1001=
202301110520 METAR ESMX 110520Z AUTO 17015G27KT 9999 DZ OVC007/// 04/03 Q1001 REDZ=
202301110450 METAR ESMX 110450Z AUTO 16014KT 9999 DZ BKN008/// BKN009/// OVC012/// 04/03 Q1002 REDZ=
202301110420 METAR ESMX 110420Z AUTO 17014KT 140V210 9999 DZ OVC011/// 04/03 Q1003 REUP=
202301110350 METAR ESMX 110350Z AUTO 17016KT 9999 OVC012/// 05/03 Q1003=
202301110320 METAR ESMX 110320Z AUTO 16013G24KT 120V190 9999 BKN012/// OVC059/// 05/03 Q1004=
202301110250 METAR ESMX 110250Z AUTO 17011KT 9999 OVC010/// 04/03 Q1005=
202301110220 METAR ESMX 110220Z AUTO 17012KT 9999 BKN010/// OVC013/// 04/03 Q1006=
202301110150 METAR ESMX 110150Z AUTO 16010KT 9999 OVC009/// 04/03 Q1007=
202301110120 METAR ESMX 110120Z AUTO 16010KT 9999 SCT009/// BKN028/// 04/03 Q1007=
202301110050 METAR ESMX 110050Z 17010KT 9999 BKN008 04/03 Q1008=
202301110020 METAR ESMX 110020Z 15009KT 9999 SCT007 OVC030 04/03 Q1008=
202301102350 METAR ESMX 102350Z 17009KT 9999 OVC031 04/04 Q1009=
202301102320 METAR ESMX 102320Z 17009KT 9999 FEW002 SCT009 OVC030 04/04 Q1009=
202301102250 METAR ESMX 102250Z 18009KT 9999 -RA FEW006 BKN008 04/04 Q1010=
202301102220 METAR ESMX 102220Z 17010KT 9999 -RA FEW004 BKN007 04/04 Q1010=
202301102150 METAR ESMX 102150Z AUTO 18009KT 9999 BR FEW005/// OVC008/// 04/04 Q1010 RESHUP REDZ=
202301102120 METAR ESMX 102120Z 19010KT 9999 FEW004 BKN007 04/04 Q1010=
202301102050 METAR ESMX 102050Z 19009KT 9999 OVC007 04/04 Q1010=
202301102020 METAR ESMX 102020Z AUTO 18008KT 9999 OVC007/// 04/04 Q1010=
202301101950 METAR ESMX 101950Z AUTO 18009KT 9999 OVC006/// 05/04 Q1011=
202301101920 METAR ESMX 101920Z AUTO 19009KT 9999 OVC006/// 05/05 Q1011=
202301101850 METAR ESMX 101850Z AUTO 18007KT 9999 BKN006/// OVC008/// 05/05 Q1011=
202301101820 METAR ESMX 101820Z AUTO 19009KT 9999 OVC006/// 05/05 Q1011=
202301101750 METAR ESMX 101750Z AUTO 19008KT 8000 -RA BKN005/// OVC031/// 05/05 Q1011 REDZ REUP=
202301101720 METAR ESMX 101720Z AUTO 18007KT 9999 BKN005/// OVC008/// 05/05 Q1011=
202301101650 METAR ESMX 101650Z AUTO 20008KT 9999 BKN007/// OVC010/// 05/05 Q1011=
202301101620 METAR ESMX 101620Z AUTO 21008KT 9999 FEW004/// BKN009/// BKN018/// 05/05 Q1011 REDZ=
202301101550 METAR ESMX 101550Z AUTO 20007KT 8000 DZ SCT007/// BKN023/// OVC035/// 05/05 Q1011 REUP REDZ=
202301101520 METAR ESMX 101520Z AUTO 20007KT 9999 FEW010/// OVC033/// 05/05 Q1011=
202301101450 METAR ESMX 101450Z 19006KT 9999 FEW010 BKN032 05/05 Q1011=
202301101420 METAR ESMX 101420Z 22005KT 9999 FEW015 BKN030 05/05 Q1011=
202301101350 METAR COR ESMX 101350Z 22007KT 9999 FEW008 SCT011 BKN030 05/05 Q1010=
202301101320 METAR ESMX 101320Z 21008KT 9999 FEW008 SCT031 06/05 Q1010=
202301101250 METAR ESMX 101250Z 22007KT 9999 FEW006 BKN030 06/05 Q1010=
202301101220 METAR ESMX 101220Z 21008KT 9000 -DZ SCT006 BKN029 05/05 Q1010=
202301101150 METAR ESMX 101150Z 21008KT 6000 BR FEW005 SCT009 BKN013 05/05 Q1009=
202301101120 METAR ESMX 101120Z 21007KT 9999 BKN007 05/05 Q1009=
202301101050 METAR ESMX 101050Z 22008KT 9999 SCT007 BKN009 05/05 Q1009=
202301101020 METAR ESMX 101020Z AUTO 20009KT 9999 BKN006/// BKN013/// OVC020/// 05/05 Q1009=
202301100950 METAR ESMX 100950Z 23007KT 9999 BKN006 05/05 Q1009=
202301100920 METAR ESMX 100920Z 22008KT 7000 SCT006 BKN008 05/05 Q1008=
202301100850 METAR ESMX 100850Z 22008KT 9000 BKN005 05/05 Q1008=
202301100820 METAR ESMX 100820Z 20007KT 8000 BKN005 OVC018 05/05 Q1008=
202301100750 METAR ESMX 100750Z 21008KT 8000 OVC005 05/05 Q1007=
202301100720 METAR ESMX 100720Z 21007KT 7000 BR BKN004 OVC005 05/05 Q1007=
202301100650 METAR ESMX 100650Z AUTO 21006KT 8000 BR BKN005/// OVC015/// 04/04 Q1006=
202301100620 METAR ESMX 100620Z AUTO 20007KT 9999 OVC005/// 04/04 Q1006=
202301100550 METAR ESMX 100550Z AUTO 20008KT 8000 BR OVC004/// 05/05 Q1005 REDZ=
202301100520 METAR ESMX 100520Z AUTO 21007KT 5000 BR OVC002/// 05/05 Q1005 RESHUP=
202301100450 METAR ESMX 100450Z AUTO 22007KT 6000 BR OVC004/// 05/05 Q1004 RESHUP=
202301100420 METAR ESMX 100420Z AUTO 22007KT 7000 BR OVC004/// 05/05 Q1004 RESHUP RERA=
202301100350 METAR ESMX 100350Z AUTO 22006KT 9999 OVC004/// 05/05 Q1004=
202301100320 METAR ESMX 100320Z AUTO 22006KT 6000 -RA BKN005/// OVC009/// 05/05 Q1003 REDZ=
202301100250 METAR ESMX 100250Z AUTO 23007KT 8000 -DZ OVC005/// 05/05 Q1003 REUP=
202301100220 METAR ESMX 100220Z 22007KT 5000 BR OVC004 05/05 Q1003=
202301100150 METAR ESMX 100150Z 23006KT 6000 -RA OVC004 05/05 Q1002=
202301100120 METAR COR ESMX 100120Z 20005KT 7000 BR BKN004 04/04 Q1002=
202301100050 METAR ESMX 100050Z 21006KT 6000 BR OVC002 04/04 Q1001=
202301100020 METAR COR ESMX 100020Z 23006KT 4000 BR OVC002 04/04 Q1001=
202301092350 METAR ESMX 092350Z AUTO 23006KT 8000 BR OVC003/// 04/04 Q1001=
202301092320 METAR ESMX 092320Z 23005KT 9999 OVC003 04/04 Q1001=
202301092250 METAR ESMX 092250Z 21005KT 9999 OVC004 04/04 Q1000=
202301092220 METAR ESMX 092220Z 23004KT 9999 OVC004 04/04 Q1000=
202301092150 METAR ESMX 092150Z 23005KT 9999 -RA OVC004 04/04 Q0999=
202301092120 METAR ESMX 092120Z 23006KT 9999 OVC004 04/04 Q0999=
202301092050 METAR ESMX 092050Z 23005KT 9999 OVC004 04/04 Q0999=
202301092020 METAR ESMX 092020Z 23006KT 8000 -DZ BKN004 04/04 Q0998=
202301091950 METAR ESMX 091950Z 21006KT 9999 BKN004 04/04 Q0998=
202301091920 METAR COR ESMX 091920Z 20006KT 9999 -DZ BKN005 04/04 Q0998=
202301091850 METAR ESMX 091850Z 19007KT 9999 BKN005 04/04 Q0997=
202301091820 METAR ESMX 091820Z 16006KT 9000 -RA BKN005 05/05 Q0997=
202301091750 METAR ESMX 091750Z 15005KT 120V180 7000 -RA BKN005 05/05 Q0997=
202301091720 METAR ESMX 091720Z 14005KT 080V170 3500 -RA BR BKN002 05/05 Q0996=
202301091650 METAR ESMX 091650Z 13005KT 080V170 2500 BR -RA BKN002 05/05 Q0996=
202301091620 METAR ESMX 091620Z 13005KT 060V180 7000 -RA BR BKN004 05/05 Q0996=
202301091550 METAR ESMX 091550Z 12004KT 090V150 9000 -RA BR BKN003 05/05 Q0996=
202301091520 METAR ESMX 091520Z 12004KT 060V130 3500 -RA BR BKN002 05/05 Q0996=
202301091450 METAR ESMX 091450Z 12005KT 060V150 1900 -RA OVC002 05/05 Q0996=
202301091420 METAR ESMX 091420Z 12004KT 010V190 5000 -DZ OVC004 05/05 Q0996=
202301091350 METAR ESMX 091350Z 13004KT 9000 BKN004 05/05 Q0996=
202301091320 METAR ESMX 091320Z 13005KT 100V190 6000 -RA OVC002 05/05 Q0996 REDZ=
202301091250 METAR ESMX 091250Z 13006KT 100V170 3500 -RA VV002 05/05 Q0996 RESHRA=
202301091220 METAR ESMX 091220Z 14006KT 1600 DZ VV002 05/05 Q0997 RERA=
202301091150 METAR ESMX 091150Z 13006KT 090V150 1600 BKN002 05/05 Q0996 RERA=
202301091120 METAR ESMX 091120Z 13005KT 080V180 1200 R01/1600U R19/P2000N VV002 05/05 Q0997=
202301091050 METAR ESMX 091050Z AUTO 14006KT 090V170 0800 R01/1300N R19/1700N FG OVC001/// 05/05 Q0997=
202301091020 METAR ESMX 091020Z 14006KT 110V170 2800 BR VV002 05/05 Q0997=
202301090950 METAR ESMX 090950Z 14005KT 1200 R01/P2000D R19/P2000N BR OVC002 05/05 Q0997=
202301090920 METAR ESMX 090920Z 13005KT 6000 BR OVC004 05/05 Q0997=
202301090850 METAR ESMX 090850Z 14006KT 080V160 7000 OVC005 05/05 Q0997=
202301090820 METAR ESMX 090820Z 14005KT 7000 OVC005 05/05 Q0997=
202301090750 METAR ESMX 090750Z 13005KT 9999 OVC006 05/05 Q0997=
202301090720 METAR ESMX 090720Z 15006KT 9999 BKN006 05/05 Q0997=
202301090650 METAR ESMX 090650Z 14005KT 110V180 7000 BR BKN003 05/05 Q0997=
202301090620 METAR ESMX 090620Z AUTO 15005KT 110V170 7000 BR OVC003/// 05/05 Q0997=
202301090550 METAR ESMX 090550Z AUTO 15005KT 7000 BR OVC003/// 05/05 Q0997=
202301090520 METAR ESMX 090520Z AUTO 14005KT 8000 OVC003/// 05/05 Q0997=
202301090450 METAR ESMX 090450Z AUTO 16005KT 2200 OVC001/// 05/05 Q0997=
202301090420 METAR ESMX 090420Z AUTO 17004KT 0800 R01/1900N R19/P2000N FG OVC001/// 05/05 Q0997=
202301090350 METAR ESMX 090350Z AUTO 14004KT 080V210 0500 R01/1300U R19/1400U FG SCT001/// OVC002/// 05/05 Q0997=
202301090320 METAR ESMX 090320Z AUTO 14004KT 110V170 0500 R01/1300U R19/1500U FG OVC001/// 05/05 Q0997=
202301090250 METAR ESMX 090250Z AUTO 14003KT 080V170 0550 R01/1500U R19/1400D FG VV002 05/05 Q0997=
202301090220 METAR ESMX 090220Z AUTO 17003KT 0700 R01/1700U R19/P2000N FG BKN001/// OVC003/// 05/05 Q0997=
202301090150 METAR ESMX 090150Z AUTO 19003KT 1200 R01/P2000N R19/P2000N BKN001/// OVC016/// 05/05 Q0998=
202301090120 METAR ESMX 090120Z AUTO 19006KT 1300 R01/P2000N R19/P2000N OVC001/// 05/05 Q0998=
202301090050 METAR ESMX 090050Z AUTO 18004KT 1100 R01/P2000N R19/P2000N OVC001/// 05/05 Q0998=
202301090020 METAR ESMX 090020Z AUTO 18004KT 0700 R01/P2000D R19/P2000N FG OVC001/// 05/05 Q0998=
202301082350 METAR ESMX 082350Z AUTO 18003KT 4300 OVC001/// 05/05 Q0998=
202301082320 METAR ESMX 082320Z 15005KT 110V170 0600 R01/1500U R19/1700U FG VV002 05/05 Q0998=
202301082250 METAR ESMX 082250Z 15004KT 0500 R01/1300N R19/1500U FG BKN001 OVC003 05/05 Q0999=
202301082220 METAR ESMX 082220Z 15003KT 0300 R01/1100D R19/0900N FG VV003 05/05 Q0999=
202301082150 METAR ESMX 082150Z AUTO 18004KT 0300 R01/0900N R19/1200D FG OVC001/// 05/05 Q0999=
202301082120 METAR ESMX 082120Z AUTO 15004KT 120V190 0650 R01/1800D R19/P2000N FG OVC001/// 05/05 Q0999=
202301082050 METAR ESMX 082050Z AUTO 18006KT 1900 OVC001/// 05/05 Q0999=
202301082020 METAR ESMX 082020Z AUTO 16005KT 0700 R01/1700U R19/1800N FG OVC001/// 05/05 Q0999=
202301081950 METAR ESMX 081950Z AUTO 16005KT 0800 R01/P2000N R19/P2000N FG OVC001/// 05/05 Q0999 REDZ=
202301081920 METAR ESMX 081920Z AUTO 16005KT 7000 BR OVC002/// 05/05 Q0999 RERA=
202301081850 METAR ESMX 081850Z AUTO 16005KT 9999 OVC002/// 05/05 Q0999=
202301081820 METAR ESMX 081820Z AUTO 17007KT 1900 +DZ OVC002/// 05/05 Q0999 RERA REDZ=
202301081750 METAR ESMX 081750Z AUTO 17006KT 2600 DZ OVC001/// 05/05 Q0999 REUP REDZ=
202301081720 METAR ESMX 081720Z AUTO 16005KT 9999 OVC002/// 05/05 Q0999 REDZ=
202301081650 METAR ESMX 081650Z AUTO 15004KT 9999 OVC003/// 05/05 Q0999 REDZ=
202301081620 METAR ESMX 081620Z AUTO 15004KT 9999 -RA OVC004/// 05/05 Q0999 REDZ=
202301081550 METAR ESMX 081550Z AUTO 16006KT 9999 DZ OVC004/// 05/05 Q1000=
202301081520 METAR ESMX 081520Z 16006KT 130V190 8000 -RA BKN004 05/05 Q1000=
202301081450 METAR ESMX 081450Z 17006KT 5000 -RA BKN003 05/05 Q1000=
202301081420 METAR ESMX 081420Z AUTO 16007KT 100V170 7000 -RA BKN004/// OVC005/// 05/05 Q1000=
202301081350 METAR ESMX 081350Z 16008KT 9000 DZ BKN004 05/05 Q1000=
202301081320 METAR ESMX 081320Z 15008KT 110V180 7000 -RA BKN003 05/05 Q1001 REDZ=
202301081250 METAR ESMX 081250Z 15008KT 110V170 9999 -DZ BKN004 05/05 Q1001 REDZ=
202301081220 METAR ESMX 081220Z 16008KT 9999 DZ BKN004 05/05 Q1001=
202301081150 METAR ESMX 081150Z AUTO 15008KT 110V170 5000 -RA OVC003/// 05/05 Q1001=
202301081120 METAR ESMX 081120Z AUTO 16008KT 9999 -RA OVC004/// 05/05 Q1002 REDZ=
202301081050 METAR ESMX 081050Z AUTO 15009KT 9000 -RA OVC003/// 05/05 Q1002 RERA=
202301081020 METAR ESMX 081020Z AUTO 15009KT 120V180 7000 BR OVC003/// 05/05 Q1002=
202301080950 METAR ESMX 080950Z AUTO 16008KT 8000 -DZ OVC003/// 05/05 Q1003=
202301080920 METAR ESMX 080920Z AUTO 15009KT 7000 DZ OVC003/// 05/05 Q1003 REDZ=
202301080850 METAR ESMX 080850Z AUTO 15008KT 8000 DZ OVC003/// 05/05 Q1003 REUP=
202301080820 METAR ESMX 080820Z AUTO 17008KT 8000 BR OVC004/// 05/05 Q1003=
202301080750 METAR ESMX 080750Z AUTO 15008KT 8000 BR OVC004/// 05/05 Q1003=
202301080720 METAR ESMX 080720Z AUTO 15009KT 8000 BR OVC004/// 06/06 Q1003=
202301080650 METAR ESMX 080650Z AUTO 17009KT 7000 BR OVC003/// 06/06 Q1003=
202301080620 METAR ESMX 080620Z AUTO 15010KT 120V190 8000 BR OVC004/// 06/06 Q1004=
202301080550 METAR ESMX 080550Z AUTO 17010KT 8000 BR OVC004/// 06/06 Q1004=
202301080520 METAR ESMX 080520Z AUTO 16008KT 6000 BR OVC003/// 06/06 Q1004=
202301080450 METAR ESMX 080450Z AUTO 16007KT 3000 BR OVC002/// 06/06 Q1004 REDZ=
202301080420 METAR ESMX 080420Z AUTO 15007KT 4300 BR OVC003/// 06/06 Q1004=
202301080350 METAR ESMX 080350Z AUTO 14007KT 110V180 5000 BR OVC003/// 05/05 Q1005 REUP=
202301080320 METAR ESMX 080320Z AUTO 15008KT 120V190 4700 UP OVC003/// 05/05 Q1005=
202301080250 METAR ESMX 080250Z AUTO 14007KT 4800 OVC003/// 05/05 Q1005=
202301080220 METAR ESMX 080220Z AUTO 14007KT 080V170 4700 OVC002/// 05/05 Q1006=
202301080150 METAR ESMX 080150Z AUTO 15007KT 0650 R01/1600U R19/P2000N FG BKN001/// OVC002/// 05/05 Q1006=
202301080120 METAR ESMX 080120Z AUTO 14007KT 100V180 0300 R01/0900N R19/1100N FG SCT001/// OVC002/// 05/05 Q1007=
202301080050 METAR ESMX 080050Z AUTO 14007KT 0300 R01/0800N R19/1100N FG VV002 05/05 Q1007=
202301080020 METAR ESMX 080020Z AUTO 14005KT 0250 R01/0750N R19/0900N FG VV002 05/05 Q1007=
202301072350 METAR ESMX 072350Z AUTO 14006KT 100V160 0200 R01/0700N R19/0900N FG VV002 05/05 Q1007=
202301072320 METAR ESMX 072320Z AUTO 14005KT 110V180 0250 R01/0800N R19/1000N FG VV002 05/05 Q1008=
202301072250 METAR ESMX 072250Z AUTO 14006KT 0200 R01/0650N R19/0900D FG VV002 04/04 Q1008=
202301072220 METAR ESMX 072220Z AUTO 16006KT 120V190 0550 R01/1700D R19/P2000N FG OVC001/// 04/04 Q1009 REDZ=
202301072150 METAR ESMX 072150Z AUTO 15006KT 2800 BR OVC001/// 04/04 Q1008=
202301072120 METAR ESMX 072120Z AUTO 14007KT 090V170 6000 BR OVC002/// 04/04 Q1009 REDZ=
202301072050 METAR ESMX 072050Z AUTO 15007KT 4800 DZ OVC002/// 04/04 Q1009=
202301072020 METAR ESMX 072020Z AUTO 14007KT 4400 DZ OVC002/// 04/04 Q1009=
202301071950 METAR ESMX 071950Z AUTO 14008KT 100V180 2500 +DZ OVC002/// 04/04 Q1009=
202301071920 METAR ESMX 071920Z AUTO 14008KT 100V170 2200 DZ OVC001/// 04/04 Q1009=
202301071850 METAR ESMX 071850Z AUTO 16007KT 1700 -RA OVC001/// 04/04 Q1010 REDZ RESHUP=
202301071820 METAR ESMX 071820Z AUTO 15007KT 3500 DZ OVC001/// 04/04 Q1010 RESHUP RERA=
202301071750 METAR ESMX 071750Z AUTO 14007KT 100V170 5000 BR OVC002/// 04/04 Q1010 REDZ=
202301071720 METAR ESMX 071720Z AUTO 14008KT 110V180 2300 DZ OVC001/// 03/03 Q1010=
202301071650 METAR ESMX 071650Z AUTO 14007KT 1000 R01/P2000N R19/P2000N -DZ OVC001/// 04/04 Q1010 REUP REDZ=
202301071620 METAR ESMX 071620Z AUTO 14007KT 080V160 0900 R01/P2000N R19/P2000N FG OVC001/// 03/03 Q1011=
202301071550 METAR ESMX 071550Z AUTO 13007KT 1400 R01/P2000N R19/P2000N BR OVC001/// 03/03 Q1011=
202301071520 METAR ESMX 071520Z AUTO 14005KT 1400 R01/P2000N R19/P2000N OVC001/// 03/03 Q1011=
202301071450 METAR ESMX 071450Z AUTO 14005KT 1700 OVC001/// 03/03 Q1012=
202301071420 METAR ESMX 071420Z AUTO 14004KT 100V180 1100 R01/1300U R19/1900N FG OVC001/// 03/03 Q1012=
202301071350 METAR ESMX 071350Z AUTO 16006KT 0350 R01/0650N R19/0800N FG OVC001/// 03/03 Q1012=
202301071320 METAR ESMX 071320Z AUTO 15006KT 110V170 0450 R01/0750N R19/1000N FG OVC001/// 03/03 Q1012=
202301071250 METAR ESMX 071250Z AUTO 15006KT 110V190 0900 R01/1200D R19/P2000N FG OVC001/// 03/03 Q1012=
202301071220 METAR ESMX 071220Z AUTO 15006KT 120V190 4100 BR OVC002/// 02/02 Q1012=
202301071150 METAR ESMX 071150Z AUTO 14005KT 100V170 4500 OVC001/// 02/02 Q1013=
202301071120 METAR ESMX 071120Z AUTO 13005KT 1300 R01/1400N R19/P2000N OVC001/// 02/02 Q1013=
202301071050 METAR ESMX 071050Z AUTO 13004KT 0450 R01/0700N R19/1300U FG OVC001/// 02/02 Q1013=
202301071020 METAR ESMX 071020Z AUTO 14003KT 110V180 0400 R01/0650N R19/1000N FG OVC001/// 02/02 Q1013=
202301070950 METAR ESMX 070950Z AUTO 14004KT 0350 R01/0600N R19/0800N FG BKN001/// OVC003/// 02/02 Q1013=
202301070920 METAR ESMX 070920Z AUTO 14004KT 0450 R01/0750N R19/0800N FG OVC001/// 02/02 Q1013=
202301070850 METAR ESMX 070850Z AUTO 14004KT 0450 R01/0800N R19/1100D FG OVC001/// 02/02 Q1014=
202301070820 METAR ESMX 070820Z AUTO 14005KT 0750 R01/1200N R19/1500U FG OVC001/// 01/01 Q1014=
202301070750 METAR ESMX 070750Z AUTO 14005KT 0800 R01/1400D R19/P2000N FG OVC001/// 01/01 Q1014=
202301070720 METAR ESMX 070720Z AUTO 16004KT 2400 BR OVC001/// 01/01 Q1013=
202301070650 METAR ESMX 070650Z AUTO 14004KT 2600 BR OVC001/// 01/01 Q1013=
202301070620 METAR ESMX 070620Z AUTO 14007KT 1000 R01/P2000N R19/P2000N OVC001/// 01/01 Q1013=
202301070550 METAR ESMX 070550Z AUTO 15004KT 1200 R01/P2000N R19/P2000N OVC001/// 01/01 Q1013=
202301070520 METAR ESMX 070520Z AUTO 15004KT 0800 R01/1800U R19/P2000N FG OVC001/// 01/01 Q1012=
202301070450 METAR ESMX 070450Z AUTO 14005KT 0700 R01/1700N R19/1800N FG OVC001/// 01/01 Q1012=
202301070420 METAR ESMX 070420Z AUTO 15005KT 120V190 0700 R01/1800D R19/P2000N FG OVC001/// 01/01 Q1013 REDZ=
202301070350 METAR ESMX 070350Z AUTO 15003KT 0650 R01/1800D R19/P2000N -RA OVC001/// 01/01 Q1013 REUP=
202301070320 METAR ESMX 070320Z AUTO 16006KT 0900 R01/P2000N R19/P2000N FG OVC001/// 01/01 Q1013 RERA=
202301070250 METAR ESMX 070250Z AUTO 16005KT 2200 OVC001/// 01/01 Q1012=
202301070220 METAR ESMX 070220Z AUTO 15006KT 2200 -RA OVC001/// 01/01 Q1013=
202301070150 METAR ESMX 070150Z AUTO 14005KT 0750 R01/1800N R19/P2000N -DZ OVC001/// 01/01 Q1013 REUP RESHUP REFZRA=
202301070120 METAR ESMX 070120Z AUTO 14005KT 1600 BR OVC002/// 01/01 Q1012=
202301070050 METAR ESMX 070050Z AUTO 15006KT 2700 -DZ OVC001/// 00/00 Q1012=
202301070020 METAR ESMX 070020Z AUTO 14004KT 080V170 2300 BR OVC001/// 00/00 Q1012 REUP RESHUP REFZRA=
202301062350 METAR ESMX 062350Z AUTO 14005KT 2600 -DZ OVC002/// 00/00 Q1012 REUP RESHUP REFZRA=
202301062320 METAR ESMX 062320Z AUTO 14005KT 100V170 4300 -RA OVC002/// 00/00 Q1012 REUP RESHUP REFZRA=
202301062250 METAR ESMX 062250Z AUTO 13004KT 9999 OVC003/// 00/00 Q1012=
202301062220 METAR ESMX 062220Z AUTO 12004KT 9999 -DZ OVC004/// 00/00 Q1012=
202301062150 METAR ESMX 062150Z AUTO 13004KT 9999 -DZ OVC004/// 00/M00 Q1012 REFZUP=
202301062120 METAR ESMX 062120Z AUTO 12003KT 030V180 9999 FZUP OVC004/// M00/M00 Q1012 REFZUP=
202301062050 METAR ESMX 062050Z AUTO 13004KT 4300 FZUP OVC004/// M00/M00 Q1012=
202301062020 METAR ESMX 062020Z AUTO 12003KT 6000 -FZDZ OVC005/// M00/M00 Q1011 REFZUP RESHUP=
202301061950 METAR ESMX 061950Z AUTO 10004KT 020V160 9999 FZUP OVC006/// M00/M00 Q1011 RESHUP REFZRA=
202301061920 METAR ESMX 061920Z AUTO 12004KT 9999 OVC006/// M00/M00 Q1011=
202301061850 METAR ESMX 061850Z AUTO 12005KT 9999 -FZDZ FEW002/// BKN005/// OVC008/// M00/M00 Q1011 RESHUP=
202301061820 METAR ESMX 061820Z AUTO 13005KT 2700 -SN BKN002/// OVC005/// M00/M01 Q1011 RESG=
202301061750 METAR ESMX 061750Z AUTO 13006KT 060V150 4100 -FZDZ FEW002/// OVC006/// M01/M01 Q1011=
202301061720 METAR ESMX 061720Z AUTO 12004KT 2400 -SN FEW002/// OVC006/// M01/M01 Q1011=
202301061650 METAR ESMX 061650Z 13005KT 3400 -SN BKN002 OVC006 M01/M01 Q1011=
202301061620 METAR ESMX 061620Z 11005KT 070V160 1900 -SN BKN002 M01/M01 Q1011=
202301061550 METAR ESMX 061550Z 12004KT 1400 R01/P2000N R19/P2000N -SN BKN002 BKN005 OVC011 M01/M01 Q1010=
202301061520 METAR ESMX 061520Z 12006KT 060V160 1000 R01/P2000N R19/P2000N -SN BKN001 BKN005 OVC011 M01/M02 Q1010=
202301061450 METAR ESMX 061450Z 12006KT 010V140 0500 R01/1200D R19/1200D SN VV002 M02/M02 Q1010=
202301061420 METAR ESMX 061420Z 12008KT 050V150 2000 PL BKN002 BKN019 M02/M02 Q1010=
202301061350 METAR ESMX 061350Z 13008KT 100V160 1000 R01/1400N R19/1400N -SN SCT003 BKN013 M02/M02 Q1010=
202301061320 METAR ESMX 061320Z 12010KT 080V160 1700 -SN SCT002 BKN009 OVC015 M02/M03 Q1010=
202301061250 METAR ESMX 061250Z AUTO 12009KT 070V160 1700 -PL SCT002/// BKN009/// OVC015/// M02/M03 Q1011=
202301061220 METAR ESMX 061220Z 11009G19KT 360V160 1000 R01/1300N R19/1100N -SN VV012 M02/M03 Q1012=
202301061150 METAR ESMX 061150Z 12010G21KT 060V170 2000 PL SCT002 BKN016 M02/M03 Q1012=
202301061120 METAR ESMX 061120Z AUTO 12011KT 060V170 1000 R01/1400U R19/1300N -SN VV012 M02/M03 Q1013=
202301061050 METAR ESMX 061050Z 12010G21KT 080V170 0800 R01/1200D R19/1300D SN VV013 M02/M03 Q1014=
202301061020 METAR ESMX 061020Z 12010KT 070V160 1600 -SN VV016 M02/M03 Q1015=
202301060950 METAR ESMX 060950Z AUTO 13011KT 080V160 5000 PL BKN015/// OVC020/// M02/M04 Q1016=
202301060920 METAR ESMX 060920Z AUTO 13009KT 060V170 9999 -SN BKN015/// OVC021/// M02/M04 Q1016 REFZUP RESHUP REFZRA=
202301060850 METAR ESMX 060850Z AUTO 12009KT 070V160 9999 BKN016/// OVC021/// M02/M05 Q1016=
202301060820 METAR ESMX 060820Z AUTO 12007KT 050V190 9999 -FZRA SCT021/// OVC029/// M02/M05 Q1017 REFZUP RESHUP REFZRA=
202301060750 METAR ESMX 060750Z AUTO 11007KT 060V160 9999 OVC028/// M03/M05 Q1017 REFZUP=
202301060720 METAR ESMX 060720Z AUTO 11008KT 070V160 8000 -SN OVC027/// M03/M05 Q1018 REFZUP=
202301060650 METAR ESMX 060650Z AUTO 12007KT 060V140 9999 OVC029/// M02/M06 Q1018=
202301060620 METAR ESMX 060620Z AUTO 12007KT 090V150 9999 OVC028/// M02/M06 Q1019=
202301060550 METAR ESMX 060550Z AUTO 12007KT 040V160 9999 OVC027/// M02/M05 Q1019=
202301060520 METAR ESMX 060520Z AUTO 12006KT 050V160 9999 OVC028/// M02/M05 Q1019=
202301060450 METAR ESMX 060450Z AUTO 12006KT 070V150 9999 BKN029/// OVC045/// M02/M05 Q1020=
202301060420 METAR ESMX 060420Z AUTO VRB05KT 9999 OVC048/// M03/M05 Q1020=
202301060350 METAR ESMX 060350Z AUTO 11005KT 060V140 9999 OVC049/// M03/M05 Q1020=
202301060320 METAR ESMX 060320Z AUTO 11005KT 070V160 9999 OVC051/// M03/M05 Q1020=
202301060250 METAR ESMX 060250Z AUTO 11004KT 050V150 9999 OVC053/// M03/M05 Q1021=
202301060220 METAR ESMX 060220Z AUTO 13003KT 080V170 9999 OVC053/// M03/M05 Q1021=
202301060150 METAR ESMX 060150Z AUTO 11003KT 9999 FEW026/// OVC055/// M03/M04 Q1021=
202301060120 METAR ESMX 060120Z AUTO 12004KT 9999 SCT025/// BKN055/// M03/M04 Q1021=
202301060050 METAR ESMX 060050Z AUTO 10004KT 050V120 9999 SCT028/// OVC057/// M03/M03 Q1021=
202301060020 METAR ESMX 060020Z AUTO 09003KT 040V110 9999 FEW009/// OVC027/// M02/M03 Q1021=
202301052350 METAR ESMX 052350Z AUTO 07004KT 030V110 9999 OVC026/// M02/M03 Q1021=
202301052320 METAR ESMX 052320Z AUTO 06004KT 020V080 9999 OVC026/// M03/M03 Q1021=
202301052250 METAR ESMX 052250Z 05004KT 010V080 9999 SCT029 M03/M03 Q1020=
202301052220 METAR ESMX 052220Z 05005KT 010V080 9999 BKN029 BKN059 M02/M04 Q1020=
202301052150 METAR ESMX 052150Z 04005KT 9999 BKN027 M02/M04 Q1020=
202301052120 METAR ESMX 052120Z 03005KT 9999 BKN027 M02/M04 Q1020=
202301052050 METAR ESMX 052050Z AUTO 06004KT 010V110 9999 OVC027/// M02/M04 Q1020=
202301052020 METAR ESMX 052020Z AUTO 06004KT 020V080 9999 OVC027/// M02/M04 Q1019=
202301051950 METAR ESMX 051950Z AUTO 03004KT 9999 BKN029/// M02/M04 Q1018=
202301051920 METAR ESMX 051920Z AUTO 05004KT 010V100 9999 SCT028/// OVC061/// M02/M04 Q1018=
202301051850 METAR ESMX 051850Z AUTO 03005KT 9999 FEW017/// OVC061/// M01/M04 Q1018=
202301051820 METAR ESMX 051820Z AUTO 03005KT 350V070 9999 SCT018/// BKN030/// BKN061/// M01/M04 Q1018=
202301051750 METAR ESMX 051750Z AUTO 03007KT 9999 BKN018/// OVC028/// M01/M04 Q1017=
202301051720 METAR ESMX 051720Z 04008KT 9999 FEW019 SCT022 M01/M04 Q1017=
202301051650 METAR ESMX 051650Z 03009KT 9999 BKN018 M01/M03 Q1016=
202301051620 METAR ESMX 051620Z 03011KT 9999 BKN017 M01/M03 Q1016=
202301051550 METAR COR ESMX 051550Z 03010KT 360V060 9999 -SN BKN017 M01/M03 Q1015=
202301051520 METAR ESMX 051520Z 03010KT 9999 BKN017 M01/M03 Q1015=
202301051450 METAR ESMX 051450Z 03012KT 360V060 9999 BKN016 M00/M03 Q1014=
202301051420 METAR ESMX 051420Z 03013KT 350V070 9999 BKN016 M00/M02 Q1013=
202301051350 METAR ESMX 051350Z 03013KT 9999 BKN013 M00/M02 Q1012=
202301051320 METAR ESMX 051320Z 03013KT 9999 SCT011 BKN014 00/M01 Q1011=
202301051250 METAR ESMX 051250Z 02012KT 9999 -DZ SCT009 BKN019 00/M01 Q1010=
202301051220 METAR ESMX 051220Z 02009KT 4200 -SN FEW002 SCT006 BKN009 01/00 Q1010=
202301051150 METAR ESMX 051150Z 03010KT 6000 -SN BKN010 OVC030 01/00 Q1008=
202301051120 METAR ESMX 051120Z 03009KT 350V060 5000 -SN FEW002 BKN011 01/00 Q1008=
202301051050 METAR ESMX 051050Z 03009KT 6000 -SN OVC013 01/00 Q1007=
202301051020 METAR ESMX 051020Z 03010KT 9999 BKN009 BKN012 01/00 Q1006=
202301050950 METAR ESMX 050950Z 04012KT 9999 FEW008 BKN012 01/00 Q1005=
202301050920 METAR ESMX 050920Z 03012KT 010V080 9000 -DZ FEW006 BKN010 01/00 Q1004=
202301050850 METAR ESMX 050850Z 03010KT 9000 -RASN SCT009 BKN012 01/01 Q1003=
202301050820 METAR ESMX 050820Z 03010KT 9999 SCT007 BKN010 01/01 Q1002=
202301050750 METAR ESMX 050750Z 04010KT 9999 -SN SCT008 BKN010 01/01 Q1001=
202301050720 METAR ESMX 050720Z 04010KT 9999 -DZ BKN008 01/01 Q1000=
202301050650 METAR ESMX 050650Z AUTO 03010KT 6000 -SN FEW006/// SCT008/// BKN009/// 01/01 Q0999=
202301050620 METAR ESMX 050620Z AUTO 04008KT 4800 -SN FEW007/// OVC014/// 01/01 Q0998=
202301050550 METAR ESMX 050550Z AUTO 04008KT 3500 -SN VV013 01/01 Q0998=
202301050520 METAR ESMX 050520Z AUTO 04008KT 2500 -SN VV011 01/01 Q0997=
202301050450 METAR ESMX 050450Z AUTO 04008KT 3700 -SN BKN005/// OVC010/// 01/01 Q0996=
202301050420 METAR ESMX 050420Z AUTO 04008KT 5000 -SN BKN004/// OVC017/// 01/01 Q0995=
202301050350 METAR ESMX 050350Z AUTO 05009KT 5000 -RA BKN004/// BKN014/// OVC036/// 01/01 Q0995 REDZ=
202301050320 METAR ESMX 050320Z AUTO 06009KT 9999 DZ OVC004/// 02/02 Q0994=
202301050250 METAR ESMX 050250Z AUTO 06006KT 020V080 9999 -RA OVC004/// 03/03 Q0994=
202301050220 METAR ESMX 050220Z AUTO 07005KT 030V100 7000 -RA BKN005/// OVC032/// 03/03 Q0994=
202301050150 METAR ESMX 050150Z AUTO 04006KT 350V070 8000 -RA OVC004/// 03/03 Q0994=
202301050120 METAR ESMX 050120Z AUTO VRB03KT 6000 -RA OVC003/// 03/03 Q0994=
202301050050 METAR ESMX 050050Z 05003KT 010V080 9999 DZ BKN003 03/03 Q0994=
202301050020 METAR ESMX 050020Z VRB04KT 5000 -RA BKN002 03/03 Q0994=
202301042350 METAR ESMX 042350Z AUTO 04003KT 010V080 3400 -RA OVC002/// 03/03 Q0994=
202301042320 METAR ESMX 042320Z 03004KT 010V070 6000 +DZ BKN002 03/03 Q0994=
202301042250 METAR ESMX 042250Z 35004KT 310V070 6000 -RA BKN002 03/03 Q0994=
202301042220 METAR ESMX 042220Z AUTO 04003KT 020V080 4900 -RA OVC001/// 03/03 Q0994=
202301042150 METAR ESMX 042150Z VRB02KT 4100 RA BKN002 03/03 Q0994 REDZ=
202301042120 METAR ESMX 042120Z VRB02KT 4300 DZ BKN002 03/03 Q0994 RERA REDZ=
202301042050 METAR ESMX 042050Z 02004KT 1200 R01/P2000N R19/P2000N DZ BKN002 04/04 Q0994 RERA=
202301042020 METAR ESMX 042020Z AUTO VRB03KT 0900 R01/P2000N R19/P2000N BR OVC001/// 04/04 Q0994 RERA=
202301041950 METAR ESMX 041950Z AUTO 36002KT 3900 -RA OVC001/// 04/04 Q0994 RESHRA=
202301041920 METAR ESMX 041920Z AUTO 00000KT 1800 RASN BKN001/// OVC003/// 04/04 Q0994=
202301041850 METAR ESMX 041850Z AUTO VRB01KT 3600 BR OVC001/// 04/04 Q0995 REDZ=
202301041820 METAR ESMX 041820Z AUTO VRB02KT 6000 -DZ OVC001/// 04/04 Q0995=
202301041750 METAR ESMX 041750Z AUTO 12004KT 1700 -RA OVC001/// 04/04 Q0995 REDZ=
202301041720 METAR ESMX 041720Z AUTO 12004KT 1800 DZ OVC001/// 04/04 Q0995 RERA=
202301041650 METAR ESMX 041650Z AUTO VRB02KT 5000 BR OVC001/// 04/04 Q0996 RERA=
202301041620 METAR ESMX 041620Z 11003KT 2500 BR VV002 04/04 Q0996=
202301041550 METAR ESMX 041550Z 14005KT 100V170 1900 BR VV002 04/04 Q0997=
202301041520 METAR ESMX 041520Z 13004KT 2400 -DZ BKN002 04/04 Q0997=
202301041450 METAR ESMX 041450Z 13005KT 5000 -DZ OVC003 04/04 Q0998=
202301041420 METAR ESMX 041420Z 14006KT 5000 -DZ OVC004 04/04 Q0998=
202301041350 METAR ESMX 041350Z 12006KT 090V160 8000 -RA OVC005 04/04 Q0999=
202301041320 METAR ESMX 041320Z 13006KT 5000 -RADZ BKN006 OVC008 04/04 Q1000=
202301041250 METAR ESMX 041250Z 13008KT 080V170 6000 -RADZ BKN006 OVC008 04/04 Q1000=
202301041220 METAR ESMX 041220Z 14007KT 5000 -RA OVC005 04/04 Q1002=
202301041150 METAR COR ESMX 041150Z 13006KT 7000 -RADZ FEW002 OVC004 04/04 Q1002=
202301041120 METAR ESMX 041120Z AUTO 13007KT 100V170 4800 -RA OVC006/// 04/04 Q1004=
202301041050 METAR ESMX 041050Z 15008KT 110V170 7000 -RADZ BKN005 OVC007 03/03 Q1005=
202301041020 METAR ESMX 041020Z 13007KT 100V160 7000 -RADZ OVC005 03/03 Q1006=
202301040950 METAR COR ESMX 040950Z 13007KT 090V170 7000 -RADZ OVC005 03/03 Q1006=
202301040920 METAR ESMX 040920Z 11007KT 070V160 7000 -RADZ OVC004 02/02 Q1007=
202301040850 METAR ESMX 040850Z 12007KT 060V150 6000 -SNRA OVC003 01/01 Q1009=
202301040820 METAR COR ESMX 040820Z 11006KT 070V150 3300 SN OVC002 01/01 Q1009=
202301040750 METAR COR ESMX 040750Z 12007KT 040V150 4700 -SN OVC003 01/01 Q1010=
202301040720 METAR ESMX 040720Z 13006KT 4000 -SNRA OVC003 01/01 Q1012=
202301040650 METAR COR ESMX 040650Z 13006KT 070V160 4400 -SNRA OVC003 01/01 Q1012=
202301040620 METAR ESMX 040620Z AUTO 13006KT 5000 -RASN OVC003/// 01/01 Q1013 RERA REDZ=
202301040550 METAR ESMX 040550Z AUTO 13006KT 100V160 9000 DZ OVC004/// 01/01 Q1014=
202301040520 METAR ESMX 040520Z AUTO 14006KT 100V160 6000 -RA OVC003/// 01/01 Q1015=
202301040450 METAR ESMX 040450Z AUTO 14006KT 5000 -RA BKN002/// OVC004/// 01/01 Q1016=
202301040420 METAR ESMX 040420Z AUTO 16005KT 6000 -DZ OVC001/// 01/01 Q1017 REDZ REUP=
202301040350 METAR ESMX 040350Z AUTO 14006KT 100V160 1400 R01/P2000N R19/P2000N OVC001/// 01/01 Q1018=
202301040320 METAR ESMX 040320Z AUTO 14005KT 110V170 1100 R01/P2000N R19/P2000N FG OVC001/// 01/01 Q1018=
202301040250 METAR ESMX 040250Z AUTO 16005KT 0350 R01/1000N R19/1100U FG BKN001/// OVC002/// 01/01 Q1019=
202301040220 METAR ESMX 040220Z AUTO 15005KT 110V170 0200 R01/0700N R19/0800N FG VV002 01/01 Q1019=
202301040150 METAR ESMX 040150Z AUTO 15004KT 0250 R01/0750N R19/0800N FG VV002 01/01 Q1020=
202301040120 METAR ESMX 040120Z AUTO 14004KT 110V170 0250 R01/0800N R19/0900D FG BKN001/// OVC002/// 01/01 Q1020=
202301040050 METAR ESMX 040050Z AUTO 15005KT 120V190 0400 R01/1100D R19/1300D FG OVC001/// 01/01 Q1021=
202301040020 METAR ESMX 040020Z 19004KT 0650 R19/1600N FG VV002 01/01 Q1021=
202301032350 METAR ESMX 032350Z 16004KT 0600 R19/1500U FG VV002 01/01 Q1021=
202301032320 METAR ESMX 032320Z 16004KT 140V200 0400 R19/0900N FG VV002 01/01 Q1022=
202301032250 METAR ESMX 032250Z 21004KT 0350 R19/0800D FG VV002 00/00 Q1022=
202301032220 METAR ESMX 032220Z 14003KT 0500 R19/1000N FG VV002 00/00 Q1022=
202301032150 METAR ESMX 032150Z 22003KT 0600 R19/1400N FG VV002 00/00 Q1022=
202301032120 METAR ESMX 032120Z 18001KT 0600 R19/1000D FG VV002 00/00 Q1022=
202301032050 METAR ESMX 032050Z VRB02KT 0700 R19/P2000N FZFG VV002 M00/M00 Q1022=
202301032020 METAR ESMX 032020Z AUTO 00000KT 1100 R01/P2000N R19/P2000N BR OVC001/// M00/M00 Q1022=
202301031950 METAR ESMX 031950Z AUTO VRB02KT 4900 BR OVC001/// M00/M00 Q1023=
202301031920 METAR ESMX 031920Z AUTO 23002KT 9999 BKN003/// OVC004/// M01/M01 Q1022=
202301031850 METAR ESMX 031850Z AUTO 23004KT 1100 R01/P2000N R19/P2000N BR FEW005/// SCT037/// M02/M02 Q1022=
202301031820 METAR ESMX 031820Z AUTO 23001KT 9999 BKN006/// M02/M02 Q1022=
202301031750 METAR ESMX 031750Z AUTO 00000KT 9999 NCD M02/M02 Q1022=
202301031720 METAR ESMX 031720Z AUTO 00000KT 9999 NCD M02/M02 Q1022=
202301031650 METAR ESMX 031650Z AUTO 00000KT 9999 NCD M01/M01 Q1022=
202301031620 METAR ESMX 031620Z AUTO 26003KT 9999 NCD M01/M01 Q1022=
202301031550 METAR ESMX 031550Z 27003KT CAVOK M01/M01 Q1022=
202301031520 METAR ESMX 031520Z 00000KT CAVOK M01/M01 Q1021=
202301031450 METAR ESMX 031450Z 28004KT CAVOK M00/M01 Q1021=
202301031420 METAR COR ESMX 031420Z 27004KT CAVOK 00/M00 Q1021=
202301031350 METAR ESMX 031350Z 27004KT 9999 FEW013 OVC057 01/M00 Q1021=
202301031320 METAR ESMX 031320Z 29007KT 9999 FEW009 SCT013 01/M01 Q1020=
202301031250 METAR ESMX 031250Z 26007KT 220V290 9999 SCT010 BKN048 01/M00 Q1020=
202301031220 METAR ESMX 031220Z 27007KT 9999 FEW011 SCT059 02/01 Q1020=
202301031150 METAR ESMX 031150Z 28007KT 220V310 9999 FEW006 BKN008 01/01 Q1019=
202301031120 METAR ESMX 031120Z AUTO 27008KT 9999 SCT006/// OVC009/// 01/00 Q1019=
202301031050 METAR ESMX 031050Z 28011KT 9999 BKN007 01/M00 Q1019=
202301031020 METAR ESMX 031020Z 27010KT 230V300 9999 FEW002 BKN005 01/M00 Q1019=
202301030950 METAR ESMX 030950Z 28007KT 9999 BKN007 01/01 Q1018=
202301030920 METAR ESMX 030920Z 27009KT 230V320 9999 BKN007 01/00 Q1018=
202301030850 METAR ESMX 030850Z 27009KT 230V290 9999 BKN006 01/01 Q1017=
202301030820 METAR ESMX 030820Z AUTO 29011KT 260V330 9999 OVC006/// 01/01 Q1017=
202301030750 METAR ESMX 030750Z 29007KT 260V320 9999 BKN007 01/01 Q1016=
202301030720 METAR ESMX 030720Z 28010KT 9999 BKN006 01/01 Q1016=
202301030650 METAR ESMX 030650Z AUTO 28008KT 9999 OVC006/// 01/01 Q1015=
202301030620 METAR ESMX 030620Z AUTO 28009KT 9999 OVC008/// 01/01 Q1014=
202301030550 METAR ESMX 030550Z AUTO 29010KT 9999 -RA FEW006/// BKN008/// OVC009/// 02/01 Q1014 RERA=
202301030520 METAR ESMX 030520Z AUTO 29010KT 9999 -DZ SCT007/// OVC010/// 02/02 Q1013 REDZ=
202301030450 METAR ESMX 030450Z AUTO 27012KT 9999 OVC005/// 03/03 Q1012 REUP=
202301030420 METAR ESMX 030420Z AUTO 26012KT 230V290 4900 UP OVC005/// 03/03 Q1012=
202301030350 METAR ESMX 030350Z AUTO 26010KT 6000 OVC005/// 03/03 Q1011=
202301030320 METAR ESMX 030320Z AUTO 26014G25KT 9999 BKN006/// BKN008/// OVC009/// 04/03 Q1011=
202301030250 METAR ESMX 030250Z AUTO 26012KT 9999 OVC007/// 04/04 Q1010=
202301030220 METAR ESMX 030220Z AUTO 25010KT 9999 SCT006/// OVC009/// 04/04 Q1010 RESHUP REUP=
202301030150 METAR ESMX 030150Z AUTO 24010KT 9999 BR OVC005/// 04/04 Q1010=
202301030120 METAR ESMX 030120Z 25011KT 9999 -RA BKN007 04/04 Q1009=
202301030050 METAR ESMX 030050Z 25010KT 9999 -RA SCT007 BKN009 05/04 Q1009=
202301030020 METAR ESMX 030020Z 25008KT 9999 -RA SCT010 BKN014 05/05 Q1009=
202301022350 METAR ESMX 022350Z 23009KT 200V260 9999 -DZ FEW007 BKN009 05/05 Q1009=
202301022320 METAR ESMX 022320Z 24008KT 9000 -RA BKN007 05/05 Q1009=
202301022250 METAR ESMX 022250Z 23007KT 9999 -RA SCT005 BKN011 05/05 Q1009=
202301022220 METAR ESMX 022220Z 24005KT 9000 -DZ BKN005 05/05 Q1009=
202301022150 METAR ESMX 022150Z 25007KT 9999 -DZ BKN005 05/05 Q1009=
202301022120 METAR ESMX 022120Z 26007KT 9999 -RA BKN005 05/05 Q1009=
202301022050 METAR ESMX 022050Z 26008KT 9000 FEW002 BKN004 05/05 Q1008=
202301022020 METAR ESMX 022020Z 27009KT 5000 -RA FEW002 BKN005 05/05 Q1008=
202301021950 METAR ESMX 021950Z 27008KT 9999 BKN006 05/05 Q1008=
202301021920 METAR ESMX 021920Z 28009KT 240V310 7000 BKN005 05/05 Q1007=
202301021850 METAR ESMX 021850Z 28008KT 9999 BKN007 05/05 Q1007=
202301021820 METAR ESMX 021820Z 28007KT 250V320 9999 SCT003 BKN007 05/05 Q1006=
202301021750 METAR ESMX 021750Z 28009KT 250V310 9999 BR SCT002 OVC004 05/05 Q1006=
202301021720 METAR ESMX 021720Z 29008KT 2500 BR OVC002 06/06 Q1005=
202301021650 METAR ESMX 021650Z 27008KT 1800 FG VV002 06/06 Q1005=
202301021620 METAR ESMX 021620Z 25005KT 0900 R01/P2000N R19/P2000N FG OVC001 06/06 Q1004=
202301021550 METAR ESMX 021550Z AUTO 11003KT 0650 R01/1600N R19/1700U FG BKN001/// OVC003/// 06/06 Q1004=
202301021520 METAR ESMX 021520Z VRB03KT 0600 R01/1500D R19/P2000N FG VV002 06/06 Q1004=
202301021450 METAR ESMX 021450Z 11003KT 1800 BR FEW001 OVC003 06/06 Q1004=
202301021420 METAR ESMX 021420Z 00000KT 2300 BR VV002 06/06 Q1004=
202301021350 METAR ESMX 021350Z VRB01KT 3600 BR BKN002 06/06 Q1004=
202301021320 METAR ESMX 021320Z 10003KT 2600 -RA OVC003 06/06 Q1005=
202301021250 METAR ESMX 021250Z VRB03KT 5000 BR OVC006 06/06 Q1005=
202301021220 METAR ESMX 021220Z 06005KT 020V090 5000 -DZ OVC002 06/06 Q1005=
202301021150 METAR ESMX 021150Z 06004KT 030V090 6000 -DZ BKN002 06/06 Q1006=
202301021120 METAR ESMX 021120Z VRB03KT 1700 -RA BKN002 06/06 Q1007=
202301021050 METAR ESMX 021050Z VRB03KT 6000 -RA BKN002 06/06 Q1007=
202301021020 METAR ESMX 021020Z VRB03KT 6000 -RA BKN002 06/06 Q1008=
202301020950 METAR ESMX 020950Z 09003KT 030V120 5000 -DZ FEW002 OVC040 06/06 Q1009=
202301020920 METAR COR ESMX 020920Z VRB03KT 5000 -DZRA BKN002 06/06 Q1009=
202301020850 METAR ESMX 020850Z 15002KT 4500 -DZ OVC002 06/06 Q1009=
202301020820 METAR ESMX 020820Z 15003KT 5000 -DZ OVC002 06/06 Q1009=
202301020750 METAR ESMX 020750Z 15003KT 5000 -DZ OVC002 06/06 Q1010=
202301020720 METAR COR ESMX 020720Z 15004KT 6000 BR OVC002 06/06 Q1010=
202301020650 METAR COR ESMX 020650Z 15004KT 5000 BR OVC002 06/06 Q1010=
202301020620 METAR ESMX 020620Z AUTO 15005KT 5000 BR OVC002/// 06/06 Q1010=
202301020550 METAR ESMX 020550Z AUTO 16005KT 4400 -DZ OVC002/// 06/06 Q1011 REDZ=
202301020520 METAR ESMX 020520Z AUTO 19006KT 6000 -DZ OVC003/// 07/07 Q1011 REUP=
202301020450 METAR ESMX 020450Z AUTO 18007KT 8000 BR OVC003/// 07/07 Q1011=
202301020420 METAR ESMX 020420Z AUTO 19008KT 8000 BR OVC004/// 07/07 Q1011=
202301020350 METAR ESMX 020350Z AUTO 19007KT 8000 BR OVC004/// 06/06 Q1011=
202301020320 METAR ESMX 020320Z AUTO 19008KT 8000 BR OVC004/// 06/06 Q1011=
202301020250 METAR ESMX 020250Z AUTO 20007KT 9000 BR OVC005/// 07/07 Q1011=
202301020220 METAR ESMX 020220Z AUTO 18008KT 9000 BR OVC005/// 07/07 Q1011=
202301020150 METAR ESMX 020150Z AUTO 17007KT 9000 BR BKN007/// OVC009/// 07/07 Q1011=
202301020120 METAR ESMX 020120Z AUTO 19006KT 9000 BR BKN007/// OVC009/// 07/07 Q1011=
202301020050 METAR ESMX 020050Z AUTO 19007KT 9999 BKN007/// BKN009/// OVC012/// 07/07 Q1012=
202301020020 METAR ESMX 020020Z AUTO 19007KT 9999 OVC008/// 07/07 Q1012=
202301012350 METAR ESMX 012350Z AUTO 20009KT 9000 BR BKN006/// BKN009/// OVC011/// 07/07 Q1012 REDZ=
202301012320 METAR ESMX 012320Z AUTO 19009KT 9999 BKN007/// BKN010/// OVC012/// 07/07 Q1012=
202301012250 METAR ESMX 012250Z AUTO 19010KT 6000 DZ FEW006/// OVC011/// 07/07 Q1012 REDZ=
202301012220 METAR ESMX 012220Z AUTO 20008KT 6000 BR FEW002/// SCT006/// BKN011/// 07/07 Q1011 REUP=
202301012150 METAR ESMX 012150Z AUTO 19009KT 9999 FEW010/// SCT015/// OVC039/// 07/07 Q1011=
202301012120 METAR ESMX 012120Z AUTO 19008KT 9999 FEW006/// OVC010/// 07/07 Q1011=
202301012050 METAR ESMX 012050Z 20006KT 9999 FEW007 BKN011 07/07 Q1010=
202301012020 METAR ESMX 012020Z 20007KT 9000 RA FEW011 BKN019 07/07 Q1010=
202301011950 METAR ESMX 011950Z 21008KT 9999 -RA FEW010 BKN014 07/07 Q1010=
202301011920 METAR ESMX 011920Z AUTO 21008KT 9999 FEW012/// OVC044/// 07/07 Q1010=
202301011850 METAR ESMX 011850Z AUTO 24009KT 9999 SCT012/// OVC044/// 07/07 Q1009 RERA=
202301011820 METAR ESMX 011820Z AUTO 23011KT 9999 BKN011/// OVC015/// 07/06 Q1009=
202301011750 METAR ESMX 011750Z AUTO 22009KT 9999 DZ FEW009/// BKN012/// BKN017/// 07/07 Q1009 REDZ=
202301011720 METAR ESMX 011720Z AUTO 22009KT 9999 DZ OVC010/// 07/07 Q1008 REUP=
202301011650 METAR ESMX 011650Z AUTO 22009KT 9999 OVC010/// 07/07 Q1008=
202301011620 METAR ESMX 011620Z AUTO 23009KT 210V270 9999 BKN011/// OVC016/// 07/07 Q1007=
202301011550 METAR ESMX 011550Z AUTO 25010KT 9999 BKN010/// BKN021/// OVC036/// 07/07 Q1007 RESHUP RERA=
202301011520 METAR ESMX 011520Z 25009KT 220V290 9000 SCT007 BKN013 07/07 Q1006=
202301011450 METAR ESMX 011450Z 24007KT 5000 -DZRA FEW007 BKN013 05/05 Q1005=
202301011420 METAR ESMX 011420Z 20005KT 5000 -DZRA BKN006 05/05 Q1004=
202301011350 METAR ESMX 011350Z 19005KT 150V210 9000 -RA BKN009 04/04 Q1003=
202301011320 METAR COR ESMX 011320Z VRB02KT 9000 -DZ OVC009 03/03 Q1003=
202301011250 METAR ESMX 011250Z AUTO VRB01KT 7000 -RA BKN003/// BKN009/// OVC012/// 03/03 Q1003=
202301011220 METAR ESMX 011220Z AUTO VRB01KT 5000 RA SCT003/// BKN005/// BKN011/// 03/03 Q1003=
