##########################################################
# Query made at 04/19/2024 22:31:06 UTC
# Time interval: from 04/01/2023 12:00  to 04/30/2023 12:59  UTC
##########################################################

##########################################################
# ESMX, Vaxjo (Sweden)
# WMO index: 02641. WIGOS ID: 0-20000-0-02648
# Latitude 56-51N. Longitude 014-50E. Altitude 199 m.
##########################################################

202304301250 METAR ESMX 301250Z 27012KT 250V320 CAVOK 12/M04 Q1017=
202304301220 METAR ESMX 301220Z AUTO 27011KT 9999 FEW062/// 11/M04 Q1017=
202304301150 METAR ESMX 301150Z 26011KT 240V330 CAVOK 12/M03 Q1017=
202304301120 METAR ESMX 301120Z 28011G21KT 250V320 CAVOK 09/M04 Q1017=
202304301050 METAR ESMX 301050Z 30012KT CAVOK 10/M04 Q1017=
202304301020 METAR ESMX 301020Z 28015KT CAVOK 10/M03 Q1018=
202304300950 METAR COR ESMX 300950Z 29011KT 250V330 CAVOK 09/M04 Q1017=
202304300920 METAR ESMX 300920Z AUTO 29011KT 240V330 9999 FEW049/// 09/M04 Q1017=
202304300850 METAR ESMX 300850Z AUTO 28012KT 240V320 9999 FEW047/// 08/M03 Q1017=
202304300820 METAR ESMX 300820Z AUTO 27011KT 230V300 9999 FEW045/// 08/M03 Q1017=
202304300750 METAR ESMX 300750Z AUTO 28013KT 240V320 9999 FEW046/// 07/M03 Q1017=
202304300720 METAR ESMX 300720Z AUTO 27010KT 9999 NCD 07/M03 Q1016=
202304300650 METAR ESMX 300650Z AUTO 29012KT 250V320 9999 NCD 07/M02 Q1016=
202304300620 METAR ESMX 300620Z AUTO 28009KT 9999 NCD 06/M01 Q1016=
202304300550 METAR ESMX 300550Z AUTO 27009KT 9999 NCD 05/00 Q1016=
202304300520 METAR ESMX 300520Z AUTO 26007KT 9999 NCD 04/01 Q1016=
202304300450 METAR ESMX 300450Z AUTO 26005KT 9999 NCD 03/00 Q1016=
202304300420 METAR ESMX 300420Z AUTO 26005KT 220V290 9999 NCD 01/M00 Q1015=
202304300350 METAR ESMX 300350Z AUTO 25004KT 9999 NCD 00/M00 Q1015=
202304300320 METAR ESMX 300320Z AUTO 25004KT 9999 NCD 00/M01 Q1015=
202304300250 METAR ESMX 300250Z AUTO 25004KT 9999 NCD 01/M00 Q1015=
202304300220 METAR ESMX 300220Z AUTO 25004KT 9999 NCD 01/M00 Q1014=
202304300150 METAR ESMX 300150Z AUTO 26004KT 9999 NCD 01/M00 Q1014=
202304300120 METAR ESMX 300120Z AUTO 25005KT 9999 NCD 02/00 Q1014=
202304300050 METAR ESMX 300050Z AUTO 26005KT 9999 NCD 02/00 Q1014=
202304300020 METAR ESMX 300020Z AUTO 23005KT 9999 NCD 02/00 Q1013=
202304292350 METAR ESMX 292350Z AUTO 25006KT 9999 NCD 03/00 Q1013=
202304292320 METAR ESMX 292320Z AUTO 25006KT 9999 NCD 03/M00 Q1013=
202304292250 METAR ESMX 292250Z AUTO 25006KT 9999 NCD 03/M00 Q1013=
202304292220 METAR ESMX 292220Z AUTO 26006KT 9999 NCD 04/M00 Q1013=
202304292150 METAR ESMX 292150Z AUTO 26008KT 9999 NCD 04/M01 Q1013=
202304292120 METAR ESMX 292120Z AUTO 25008KT 9999 NCD 05/M01 Q1012=
202304292050 METAR ESMX 292050Z AUTO 25008KT 9999 NCD 05/M01 Q1012=
202304292020 METAR ESMX 292020Z AUTO 25007KT 220V280 9999 NCD 05/M02 Q1012=
202304291950 METAR ESMX 291950Z AUTO 25006KT 9999 NCD 06/M02 Q1012=
202304291920 METAR ESMX 291920Z AUTO 25006KT 9999 NCD 06/M03 Q1012=
202304291850 METAR ESMX 291850Z AUTO 26007KT 220V280 9999 NCD 07/M03 Q1011=
202304291820 METAR ESMX 291820Z AUTO 27008KT 9999 NCD 07/M04 Q1011=
202304291750 METAR ESMX 291750Z AUTO 28012KT 9999 NCD 08/M03 Q1011=
202304291720 METAR ESMX 291720Z AUTO 28010KT 250V320 9999 FEW055/// 09/M02 Q1011=
202304291650 METAR ESMX 291650Z AUTO 29013KT 9999 FEW055/// 09/M03 Q1010=
202304291620 METAR ESMX 291620Z AUTO 27013KT 9999 SCT053/// 09/M03 Q1010=
202304291550 METAR ESMX 291550Z AUTO 26016KT 9999 SCT047/// BKN061/// 10/M02 Q1010=
202304291520 METAR ESMX 291520Z AUTO 26015KT 9999 SCT043/// BKN055/// 11/00 Q1010=
202304291450 METAR ESMX 291450Z AUTO 25015KT 220V290 9999 BKN043/// 11/M00 Q1010=
202304291420 METAR ESMX 291420Z AUTO 26014KT 230V290 9999 BKN040/// OVC051/// 11/02 Q1010=
202304291350 METAR ESMX 291350Z AUTO 25015KT 220V280 9999 BKN039/// OVC055/// 11/01 Q1010=
202304291320 METAR ESMX 291320Z AUTO 25013G24KT 220V280 9999 OVC049/// 11/01 Q1010=
202304291250 METAR ESMX 291250Z AUTO 26014G26KT 220V290 9999 BKN059/// 13/M01 Q1010=
202304291220 METAR ESMX 291220Z AUTO 24014G25KT 210V280 9999 FEW066/// BKN092/// 14/M02 Q1010=
202304291150 METAR ESMX 291150Z AUTO 23012KT 200V270 9999 BKN096/// 14/M03 Q1010=
202304291120 METAR ESMX 291120Z AUTO 21013KT 9999 FEW068/// SCT094/// 13/M04 Q1011=
202304291050 METAR ESMX 291050Z AUTO 22010KT 180V270 9999 FEW068/// 14/M04 Q1011=
202304291020 METAR ESMX 291020Z AUTO 18009KT 140V210 9999 OVC098/// 12/M04 Q1011=
202304290950 METAR ESMX 290950Z AUTO 22008KT 190V250 9999 OVC098/// 11/M04 Q1012=
202304290920 METAR ESMX 290920Z AUTO 22007KT 200V260 9999 OVC098/// 11/M05 Q1012=
202304290850 METAR ESMX 290850Z 22007KT CAVOK 10/M03 Q1012=
202304290820 METAR ESMX 290820Z 22007KT CAVOK 09/M02 Q1012=
202304290750 METAR ESMX 290750Z 16005KT 120V190 CAVOK 08/M02 Q1013=
202304290720 METAR ESMX 290720Z 16003KT CAVOK 07/M00 Q1013=
202304290650 METAR COR ESMX 290650Z VRB02KT CAVOK 06/02 Q1013=
202304290620 METAR ESMX 290620Z AUTO 00000KT 9999 OVC098/// 06/02 Q1013=
202304290550 METAR ESMX 290550Z AUTO 00000KT 9999 OVC100/// 05/01 Q1013=
202304290520 METAR ESMX 290520Z AUTO 00000KT 9999 FEW080/// OVC100/// 05/02 Q1013=
202304290450 METAR ESMX 290450Z AUTO 00000KT 9999 SCT084/// OVC100/// 04/01 Q1013=
202304290420 METAR ESMX 290420Z AUTO 00000KT 9999 OVC082/// 03/01 Q1013=
202304290350 METAR ESMX 290350Z AUTO 00000KT 9999 SCT082/// OVC100/// 02/00 Q1013=
202304290320 METAR ESMX 290320Z AUTO 00000KT 9999 OVC082/// 02/M00 Q1013=
202304290250 METAR ESMX 290250Z AUTO 00000KT 9999 SCT084/// OVC100/// 03/00 Q1014=
202304290220 METAR ESMX 290220Z AUTO 20002KT 9999 OVC084/// 03/M00 Q1014=
202304290150 METAR ESMX 290150Z AUTO 16004KT 9999 OVC086/// 04/M00 Q1014=
202304290120 METAR ESMX 290120Z AUTO 16005KT 9999 OVC090/// 04/M00 Q1014=
202304290050 METAR ESMX 290050Z AUTO 17006KT 9999 SCT090/// OVC140/// 05/M00 Q1014=
202304290020 METAR ESMX 290020Z AUTO 16005KT 9999 BKN094/// OVC120/// 05/00 Q1014=
202304282350 METAR ESMX 282350Z AUTO 15005KT 9999 SCT096/// OVC120/// 06/M00 Q1014=
202304282320 METAR ESMX 282320Z AUTO 17004KT 9999 OVC120/// 06/M01 Q1014=
202304282250 METAR ESMX 282250Z AUTO 16005KT 9999 FEW082/// OVC130/// 06/M01 Q1015=
202304282220 METAR ESMX 282220Z AUTO 16004KT 9999 BKN098/// OVC130/// 06/M01 Q1015=
202304282150 METAR ESMX 282150Z AUTO 16004KT 9999 OVC110/// 06/M01 Q1015=
202304282120 METAR ESMX 282120Z AUTO 17005KT 9999 SCT130/// BKN160/// 06/M01 Q1015=
202304282050 METAR ESMX 282050Z AUTO 18005KT 9999 OVC160/// 05/M01 Q1015=
202304282020 METAR ESMX 282020Z AUTO 18006KT 9999 BKN150/// 06/M00 Q1015=
202304281950 METAR ESMX 281950Z AUTO 17005KT 9999 FEW170/// 07/M00 Q1015=
202304281920 METAR ESMX 281920Z AUTO 18007KT 9999 SCT072/// BKN170/// 07/M00 Q1015=
202304281850 METAR ESMX 281850Z AUTO 18008KT 9999 BKN072/// 08/M01 Q1015=
202304281820 METAR ESMX 281820Z AUTO 19008KT 9999 NCD 08/M01 Q1014=
202304281750 METAR ESMX 281750Z AUTO 18008KT 9999 FEW072/// 10/M02 Q1014=
202304281720 METAR ESMX 281720Z AUTO 17004KT 130V200 9999 FEW074/// 11/M05 Q1014=
202304281650 METAR ESMX 281650Z AUTO 19004KT 9999 BKN074/// 11/M05 Q1014=
202304281620 METAR ESMX 281620Z AUTO 18006KT 9999 SCT072/// 12/M04 Q1015=
202304281550 METAR ESMX 281550Z AUTO 18008KT 9999 SCT074/// 12/M05 Q1015=
202304281520 METAR ESMX 281520Z AUTO VRB03KT 9999 FEW072/// 12/M05 Q1015=
202304281450 METAR ESMX 281450Z 19006KT CAVOK 11/M05 Q1015=
202304281420 METAR ESMX 281420Z AUTO 23005KT 180V290 9999 SCT074/// 12/M06 Q1015=
202304281350 METAR ESMX 281350Z 05005KT 350V080 CAVOK 13/M05 Q1015=
202304281320 METAR ESMX 281320Z 06007KT 020V120 CAVOK 12/M05 Q1015=
202304281250 METAR ESMX 281250Z 03005KT 350V080 CAVOK 12/M05 Q1016=
202304281220 METAR ESMX 281220Z VRB04KT CAVOK 11/M05 Q1016=
202304281150 METAR ESMX 281150Z 03005KT 350V060 CAVOK 10/M05 Q1016=
202304281120 METAR ESMX 281120Z 03003G14KT 320V080 CAVOK 10/M05 Q1016=
202304281050 METAR ESMX 281050Z VRB05KT CAVOK 10/M03 Q1016=
202304281020 METAR ESMX 281020Z 30006G19KT 270V340 CAVOK 11/M03 Q1016=
202304280950 METAR ESMX 280950Z 22005KT 170V290 CAVOK 10/M04 Q1016=
202304280920 METAR ESMX 280920Z 31006KT 280V350 9999 SCT049 09/M05 Q1016=
202304280850 METAR ESMX 280850Z 27006KT 200V320 9999 FEW031 SCT042 09/M00 Q1016=
202304280820 METAR ESMX 280820Z 29006KT 250V320 9999 FEW024 09/01 Q1016=
202304280750 METAR ESMX 280750Z 26005KT 220V330 9999 FEW016 07/02 Q1016=
202304280720 METAR ESMX 280720Z 28005KT 240V320 9999 FEW012 07/03 Q1016=
202304280650 METAR ESMX 280650Z 28005KT 210V320 9999 BKN011 06/03 Q1017=
202304280620 METAR ESMX 280620Z AUTO 24005KT 190V320 9999 OVC009/// 05/03 Q1016=
202304280550 METAR ESMX 280550Z AUTO 14003KT 9999 OVC008/// 03/03 Q1016=
202304280520 METAR ESMX 280520Z AUTO VRB04KT 9999 OVC007/// 02/02 Q1016=
202304280450 METAR ESMX 280450Z AUTO 22004KT 9999 OVC007/// 02/02 Q1016=
202304280420 METAR ESMX 280420Z AUTO 17004KT 9999 OVC009/// 01/01 Q1016=
202304280350 METAR ESMX 280350Z AUTO 14003KT 9999 FEW007/// OVC009/// 02/01 Q1016=
202304280320 METAR ESMX 280320Z AUTO 22003KT 9999 OVC009/// 01/01 Q1016=
202304280250 METAR ESMX 280250Z AUTO 22004KT 9999 OVC009/// 01/01 Q1016=
202304280220 METAR ESMX 280220Z AUTO 24004KT 9999 OVC010/// 02/02 Q1016=
202304280150 METAR ESMX 280150Z AUTO 24004KT 9999 OVC010/// 02/02 Q1016=
202304280120 METAR ESMX 280120Z AUTO 24006KT 9999 BKN010/// 01/01 Q1016=
202304280050 METAR ESMX 280050Z AUTO 23006KT 9999 FEW011/// 00/00 Q1015=
202304280020 METAR ESMX 280020Z AUTO 20005KT 9999 NCD M00/M00 Q1015=
202304272350 METAR ESMX 272350Z AUTO 21005KT 9999 NCD 00/M00 Q1015=
202304272320 METAR ESMX 272320Z 21006KT CAVOK 00/M00 Q1015=
202304272250 METAR ESMX 272250Z 23006KT CAVOK 01/M00 Q1015=
202304272220 METAR ESMX 272220Z 23005KT CAVOK 01/M00 Q1015=
202304272150 METAR ESMX 272150Z 23006KT CAVOK 01/M01 Q1015=
202304272120 METAR ESMX 272120Z 22005KT CAVOK 02/M01 Q1015=
202304272050 METAR ESMX 272050Z 23005KT CAVOK 02/M02 Q1015=
202304272020 METAR ESMX 272020Z 24005KT CAVOK 03/M01 Q1015=
202304271950 METAR ESMX 271950Z 24006KT CAVOK 04/M02 Q1014=
202304271920 METAR ESMX 271920Z AUTO 24005KT 9999 NCD 04/M02 Q1014=
202304271850 METAR ESMX 271850Z AUTO 25006KT 9999 SCT064/// 05/M03 Q1014=
202304271820 METAR ESMX 271820Z AUTO 25008KT 220V280 9999 NCD 06/M03 Q1014=
202304271750 METAR ESMX 271750Z AUTO 26008KT 9999 NCD 07/M03 Q1013=
202304271720 METAR ESMX 271720Z 26011KT 210V290 9999 FEW055CB 08/M04 Q1013=
202304271650 METAR ESMX 271650Z 27012KT 230V300 9999 SCT057CB 08/M04 Q1013=
202304271620 METAR ESMX 271620Z 27013KT 240V300 9999 VCSH BKN057CB 09/M04 Q1012=
202304271550 METAR ESMX 271550Z 27011KT 9999 VCSH FEW043 BKN060CB 09/M04 Q1012=
202304271520 METAR ESMX 271520Z 28013KT 250V330 9999 VCSH BKN055CB 08/M03 Q1012=
202304271450 METAR ESMX 271450Z 26012G23KT 210V280 9999 VCSH BKN057CB 09/M03 Q1012=
202304271420 METAR ESMX 271420Z 26013KT 220V280 9999 BKN055CB 09/M04 Q1011=
202304271350 METAR ESMX 271350Z 27013KT 9999 BKN055CB OVC068 09/M02 Q1011=
202304271320 METAR ESMX 271320Z 27010G23KT 230V310 9999 -RA FEW033 SCT055CB BKN086 08/M04 Q1011=
202304271250 METAR ESMX 271250Z 27010KT 230V300 9999 SCT055CB BKN100 09/M02 Q1011=
202304271220 METAR ESMX 271220Z 25010KT 200V290 9999 FEW051 SCT076CB 09/M01 Q1010=
202304271150 METAR ESMX 271150Z 26015KT 200V290 9999 FEW046 SCT057 BKN074CB 09/M03 Q1010=
202304271120 METAR ESMX 271120Z 33010KT 280V010 9999 -RA FEW005 BKN041 BKN066CB 05/M00 Q1010=
202304271050 METAR ESMX 271050Z 26010KT 220V290 9999 FEW005 SCT094CB BKN110CB 08/02 Q1010 RERA=
202304271020 METAR ESMX 271020Z 26017G33KT 8000 -RA FEW004 BKN041CB 03/01 Q1011=
202304270950 METAR ESMX 270950Z 25011KT 220V300 9999 BKN045 BKN074CB 07/M02 Q1010=
202304270920 METAR ESMX 270920Z 26011KT 9999 SCT043 BKN059CB 08/M04 Q1010=
202304270850 METAR ESMX 270850Z 28013KT 9999 FEW041 BKN057CB 07/M03 Q1010=
202304270820 METAR ESMX 270820Z 26009KT 220V310 9999 SCT030 BKN051CB 07/M01 Q1010=
202304270750 METAR COR ESMX 270750Z 25009KT 220V280 9999 VCSH SCT024 BKN033CB 05/M00 Q1010=
202304270720 METAR ESMX 270720Z 23008KT 200V290 9999 BKN020 05/01 Q1010=
202304270650 METAR ESMX 270650Z 23009KT 9999 BKN019 04/01 Q1010=
202304270620 METAR ESMX 270620Z 22008KT 9999 SCT015 BKN020 03/01 Q1010=
202304270550 METAR ESMX 270550Z 22008KT 9999 FEW017 03/01 Q1010=
202304270520 METAR ESMX 270520Z 23008KT CAVOK 03/00 Q1010=
202304270450 METAR ESMX 270450Z 22008KT CAVOK 02/00 Q1010=
202304270420 METAR ESMX 270420Z 22008KT CAVOK 01/M00 Q1010=
202304270350 METAR COR ESMX 270350Z 22008KT CAVOK 01/M00 Q1010=
202304270320 METAR ESMX 270320Z AUTO 22009KT 9999 NCD 01/M00 Q1009=
202304270250 METAR ESMX 270250Z AUTO 22009KT 9999 FEW022/// 01/M00 Q1009=
202304270220 METAR ESMX 270220Z AUTO 22008KT 9999 NCD 01/M00 Q1009=
202304270150 METAR ESMX 270150Z AUTO 22009KT 9999 NCD 01/M00 Q1009=
202304270120 METAR ESMX 270120Z AUTO 22008KT 9999 NCD 01/M00 Q1009=
202304270050 METAR ESMX 270050Z AUTO 22008KT 9999 NCD 01/M00 Q1009=
202304270020 METAR ESMX 270020Z AUTO 22007KT 9999 NCD 01/M00 Q1009=
202304262350 METAR ESMX 262350Z AUTO 22007KT 9999 NCD 01/M00 Q1009=
202304262320 METAR ESMX 262320Z 22007KT 9999 FEW025 01/M00 Q1009=
202304262250 METAR ESMX 262250Z AUTO 20008KT 9999 FEW023/// 01/M00 Q1009=
202304262220 METAR ESMX 262220Z 22008KT 9999 FEW035 01/M00 Q1009=
202304262150 METAR ESMX 262150Z 22008KT 9999 FEW025 01/M00 Q1009=
202304262120 METAR ESMX 262120Z 22007KT 9999 FEW024 01/M00 Q1009=
202304262050 METAR ESMX 262050Z 19007KT 9999 FEW024 01/M00 Q1009=
202304262020 METAR ESMX 262020Z 22005KT 9999 SCT026 02/M01 Q1009=
202304261950 METAR ESMX 261950Z 25005KT 220V290 9999 FEW004 SCT026 BKN066 04/M01 Q1009=
202304261920 METAR ESMX 261920Z 24005KT 9999 FEW008 SCT046 03/M01 Q1009=
202304261850 METAR ESMX 261850Z AUTO 24007KT 9999 SCT068/// 03/M01 Q1008=
202304261820 METAR ESMX 261820Z AUTO 24010KT 9999 FEW061/// 04/M01 Q1008=
202304261750 METAR ESMX 261750Z AUTO 23011KT 9999 FEW061/// 05/M01 Q1008=
202304261720 METAR ESMX 261720Z 26011KT 9999 FEW045CB 06/M04 Q1007=
202304261650 METAR ESMX 261650Z 24011G21KT 210V280 9999 FEW045CB SCT068 07/M05 Q1007=
202304261620 METAR ESMX 261620Z 25012KT 220V280 9999 FEW042CB SCT068 07/M03 Q1007=
202304261550 METAR ESMX 261550Z 25013KT 220V280 9999 FEW042CB SCT070 07/M02 Q1007=
202304261520 METAR ESMX 261520Z 28011KT 220V300 9999 FEW042CB SCT076 07/M03 Q1007=
202304261450 METAR ESMX 261450Z 23015KT 9999 FEW040CB BKN074 07/M03 Q1006=
202304261420 METAR ESMX 261420Z 26015KT 220V290 9999 FEW040CB SCT072 07/M02 Q1006=
202304261350 METAR ESMX 261350Z 25016KT 210V280 9999 SCT040 07/M01 Q1006=
202304261320 METAR ESMX 261320Z 27016KT 230V290 9999 BKN044 09/M02 Q1006=
202304261250 METAR ESMX 261250Z 29012KT 250V320 9999 SCT042 06/M00 Q1006 REDZ=
202304261220 METAR ESMX 261220Z 30015KT 9999 -RA SCT039 07/M01 Q1005=
202304261150 METAR ESMX 261150Z 26008KT 220V300 9999 SCT031 07/01 Q1005=
202304261120 METAR ESMX 261120Z AUTO 33016KT 9999 BKN030/// OVC072/// 06/01 Q1005=
202304261050 METAR ESMX 261050Z AUTO 28014G24KT 240V300 9000 -RA FEW024/// BKN038/// 04/01 Q1005 RESHUP REUP=
202304261020 METAR ESMX 261020Z 28010KT 230V320 9999 SCT034 08/01 Q1005=
202304260950 METAR COR ESMX 260950Z 28015KT 240V300 9999 VCSH FEW010 SCT029 BKN037 05/01 Q1005=
202304260920 METAR ESMX 260920Z 25011KT 210V290 9999 SCT026 BKN045 07/01 Q1004=
202304260850 METAR ESMX 260850Z 26013KT 230V300 9999 BKN020 07/02 Q1004=
202304260820 METAR ESMX 260820Z 23007KT 200V260 9999 FEW014 SCT051 06/04 Q1004=
202304260750 METAR ESMX 260750Z 26011G21KT 9999 FEW002 BKN017 04/03 Q1004 REDZ=
202304260720 METAR ESMX 260720Z 26008KT 220V290 9999 BKN015 06/02 Q1004=
202304260650 METAR ESMX 260650Z 25006KT 220V280 9999 SCT009 BKN012 05/03 Q1004=
202304260620 METAR ESMX 260620Z 25006KT 220V280 9999 SCT009 BKN022 05/03 Q1004=
202304260550 METAR COR ESMX 260550Z 26006KT 210V290 9999 SCT009 04/04 Q1004=
202304260520 METAR ESMX 260520Z 25005KT 9999 SCT020 04/03 Q1003=
202304260450 METAR ESMX 260450Z 26003KT 230V290 9999 SCT019 03/03 Q1003=
202304260420 METAR ESMX 260420Z VRB03KT CAVOK 02/02 Q1003=
202304260350 METAR ESMX 260350Z 27004KT 230V290 9999 FEW015 03/03 Q1003=
202304260320 METAR ESMX 260320Z AUTO 26005KT 230V290 9999 OVC084/// 03/03 Q1003=
202304260250 METAR ESMX 260250Z AUTO 25005KT 9999 OVC078/// 03/03 Q1003=
202304260220 METAR ESMX 260220Z AUTO 26004KT 9999 FEW014/// BKN057/// OVC080/// 03/03 Q1003=
202304260150 METAR ESMX 260150Z AUTO 25003KT 9999 BKN057/// OVC080/// 03/03 Q1003=
202304260120 METAR ESMX 260120Z AUTO 21003KT 9999 SCT014/// OVC080/// 03/03 Q1003=
202304260050 METAR ESMX 260050Z AUTO 23003KT 9999 FEW006/// BKN064/// OVC078/// 03/03 Q1002=
202304260020 METAR ESMX 260020Z AUTO 25004KT 220V280 9999 SCT007/// BKN012/// 04/04 Q1002=
202304252350 METAR ESMX 252350Z AUTO 25004KT 220V280 9999 FEW007/// SCT009/// BKN013/// 04/04 Q1002=
202304252320 METAR ESMX 252320Z 24004KT 220V280 9999 SCT007 BKN009 05/04 Q1002=
202304252250 METAR ESMX 252250Z 23003KT 9999 FEW009 SCT012 BKN016 04/04 Q1002=
202304252220 METAR ESMX 252220Z 23004KT 9999 SCT008 BKN016 05/04 Q1002=
202304252150 METAR ESMX 252150Z 21007KT 9999 SCT010 BKN015 BKN066 05/05 Q1002=
202304252120 METAR ESMX 252120Z 22008KT 9999 SCT012 BKN015 BKN064 06/05 Q1002=
202304252050 METAR ESMX 252050Z 21007KT 9999 FEW015 SCT032 BKN062 06/05 Q1002=
202304252020 METAR ESMX 252020Z 22006KT 9999 BKN030 06/05 Q1002=
202304251950 METAR ESMX 251950Z 22007KT 9999 BKN032 06/05 Q1002=
202304251920 METAR ESMX 251920Z AUTO 22007KT 9999 FEW014/// OVC032/// 06/05 Q1002=
202304251850 METAR ESMX 251850Z AUTO 22005KT 9999 SCT014/// OVC028/// 06/05 Q1002=
202304251820 METAR ESMX 251820Z AUTO 22005KT 190V250 9999 BKN013/// OVC025/// 06/05 Q1002=
202304251750 METAR ESMX 251750Z AUTO 23008KT 9999 BKN014/// OVC022/// 06/05 Q1001=
202304251720 METAR ESMX 251720Z 23009KT 9999 FEW005 BKN011 BKN017 06/05 Q1001=
202304251650 METAR ESMX 251650Z 22010KT 7000 BKN007 06/06 Q1001=
202304251620 METAR ESMX 251620Z 24009KT 9999 BKN007 07/07 Q1001=
202304251550 METAR ESMX 251550Z 25010KT 9000 -RA SCT005 BKN026 08/07 Q1001=
202304251520 METAR ESMX 251520Z 24007KT 200V260 9999 FEW014 09/07 Q1000=
202304251450 METAR ESMX 251450Z 25007KT 9999 FEW014 BKN029 09/07 Q1000=
202304251420 METAR ESMX 251420Z 25008KT 9999 FEW009 SCT015 09/08 Q1000=
202304251350 METAR ESMX 251350Z 25009KT 220V280 9999 -DZ FEW008 SCT012 08/08 Q1000=
202304251320 METAR ESMX 251320Z 23008KT 9999 FEW002 BKN024 09/08 Q1000=
202304251250 METAR ESMX 251250Z 22010KT 7000 DZ FEW006 SCT015 BKN024 09/09 Q0999=
202304251220 METAR ESMX 251220Z 20011KT 9999 DZ BKN012 BKN018 10/08 Q0999=
202304251150 METAR ESMX 251150Z 21011KT 9999 BKN012 10/08 Q0999=
202304251120 METAR ESMX 251120Z 21011KT 9999 FEW002 BKN011 10/08 Q0999=
202304251050 METAR ESMX 251050Z 21010KT 9999 SCT008 BKN010 09/08 Q0999=
202304251020 METAR ESMX 251020Z 20011KT 7000 BKN005 08/08 Q0999=
202304250950 METAR ESMX 250950Z 21010KT 9000 SCT005 BKN008 08/08 Q0999=
202304250920 METAR ESMX 250920Z 21009KT 9999 FEW004 BKN007 08/07 Q0998=
202304250850 METAR ESMX 250850Z 19012KT 8000 BKN006 08/08 Q0998=
202304250820 METAR ESMX 250820Z 21007KT 4000 BR FEW002 BKN005 08/07 Q0998=
202304250750 METAR ESMX 250750Z 18007KT 6000 FEW002 BKN004 07/07 Q0998=
202304250720 METAR ESMX 250720Z 17008KT 8000 BKN004 07/07 Q0997 REDZ=
202304250650 METAR ESMX 250650Z 16007KT 130V190 5000 -DZ FEW002 BKN005 07/07 Q0997=
202304250620 METAR COR ESMX 250620Z 16007KT 7000 BKN006 07/06 Q0997=
202304250550 METAR ESMX 250550Z 16009KT 9999 BKN011 07/06 Q0997=
202304250520 METAR ESMX 250520Z 16007KT 130V190 9999 BKN016 07/06 Q0997=
202304250450 METAR ESMX 250450Z 17007KT 9999 BKN009 08/07 Q0997=
202304250420 METAR ESMX 250420Z 14006KT 110V170 9999 FEW007 SCT012 BKN016 08/07 Q0997=
202304250350 METAR ESMX 250350Z 16007KT 9000 BKN006 08/07 Q0997=
202304250320 METAR ESMX 250320Z AUTO 16006KT 9000 BKN007/// OVC010/// 08/07 Q0997=
202304250250 METAR ESMX 250250Z AUTO 17006KT 9000 OVC006/// 08/08 Q0998=
202304250220 METAR ESMX 250220Z AUTO 16005KT 9999 OVC005/// 08/08 Q0998=
202304250150 METAR ESMX 250150Z AUTO 16006KT 9999 OVC005/// 08/08 Q0998=
202304250120 METAR ESMX 250120Z AUTO 16003KT 9999 OVC005/// 08/08 Q0998=
202304250050 METAR ESMX 250050Z AUTO 16007KT 9999 OVC004/// 08/08 Q0998=
202304250020 METAR ESMX 250020Z AUTO 16008KT 9999 OVC005/// 08/08 Q0998=
202304242350 METAR ESMX 242350Z 15004KT 9999 BKN005 08/08 Q0999=
202304242320 METAR ESMX 242320Z 16003KT 9999 BKN006 BKN034 08/08 Q0999=
202304242250 METAR ESMX 242250Z 14004KT 9999 BKN006 BKN031 08/08 Q0999=
202304242220 METAR ESMX 242220Z 17005KT 9999 -DZ BKN005 BKN007 08/08 Q0999 REDZ=
202304242150 METAR ESMX 242150Z 17007KT 9999 BKN004 OVC006 08/08 Q0999=
202304242120 METAR ESMX 242120Z 17006KT 6000 BKN004 08/08 Q1000=
202304242050 METAR ESMX 242050Z 14005KT 7000 BKN003 08/08 Q1000=
202304242020 METAR ESMX 242020Z 15003KT 110V170 4600 BR BKN002 08/08 Q1000=
202304241950 METAR ESMX 241950Z 15005KT 3300 BR BKN003 08/08 Q1000=
202304241920 METAR ESMX 241920Z 14006KT 7000 BR SCT003 BKN005 08/08 Q1000=
202304241850 METAR ESMX 241850Z 14005KT 9999 FEW006 BKN009 08/08 Q1000=
202304241820 METAR ESMX 241820Z 13004KT 9999 BKN012 OVC017 09/08 Q1000=
202304241750 METAR ESMX 241750Z 16003KT 9999 FEW010 BKN020 08/08 Q1000=
202304241720 METAR ESMX 241720Z 13004KT 080V170 9999 FEW002 BKN006 BKN009 09/09 Q1000 REDZ=
202304241650 METAR ESMX 241650Z 17009KT 9000 DZ FEW005 SCT018 BKN027 10/09 Q1000=
202304241620 METAR ESMX 241620Z 15007KT 100V200 9999 BKN026 12/07 Q1000=
202304241550 METAR ESMX 241550Z 13006KT 100V170 9999 BKN032 13/06 Q1000=
202304241520 METAR ESMX 241520Z 13008KT 090V160 9999 FEW033 BKN057 13/06 Q1000=
202304241450 METAR ESMX 241450Z 13004KT CAVOK 13/06 Q1000 REDZ=
202304241420 METAR ESMX 241420Z 13006KT 090V160 CAVOK 13/05 Q1000=
202304241350 METAR ESMX 241350Z 13006KT 050V150 9999 FEW046 BKN066 12/06 Q1000=
202304241320 METAR ESMX 241320Z 13006KT 070V150 9999 -RA SCT070 BKN098 13/06 Q1001=
202304241250 METAR ESMX 241250Z 14006KT 100V170 CAVOK 13/06 Q1001=
202304241220 METAR ESMX 241220Z 14007KT 080V160 CAVOK 13/06 Q1001=
202304241150 METAR ESMX 241150Z 12005KT CAVOK 12/06 Q1002=
202304241120 METAR ESMX 241120Z 12006KT 060V180 CAVOK 11/06 Q1002=
202304241050 METAR ESMX 241050Z 13007KT 080V170 9999 BKN019 11/07 Q1002=
202304241020 METAR ESMX 241020Z 14007KT 100V160 CAVOK 11/06 Q1002=
202304240950 METAR ESMX 240950Z 15007KT 100V170 CAVOK 10/06 Q1002=
202304240920 METAR ESMX 240920Z 13006KT 070V170 CAVOK 10/07 Q1003=
202304240850 METAR ESMX 240850Z 14008KT 110V170 CAVOK 09/07 Q1003=
202304240820 METAR ESMX 240820Z 13005KT 080V170 CAVOK 10/07 Q1003=
202304240750 METAR ESMX 240750Z 10005KT 050V140 CAVOK 09/08 Q1002=
202304240720 METAR ESMX 240720Z 12004KT 060V140 9000 SCT004 08/08 Q1003=
202304240650 METAR ESMX 240650Z 11003KT 030V200 6000 BKN003 06/06 Q1003=
202304240620 METAR ESMX 240620Z 18004KT 0600 R01/0650D R19/0900N FG VV002 05/05 Q1003=
202304240550 METAR ESMX 240550Z 15003KT 100V190 0300 R01/0650N R19/0650U FG VV002 05/05 Q1003=
202304240520 METAR ESMX 240520Z 18003KT 0200 R01/0450N R19/0550U FG VV002 04/04 Q1003=
202304240450 METAR COR ESMX 240450Z 18003KT 0150 R01/0450N R19/0700N FG VV002 04/04 Q1003=
202304240420 METAR ESMX 240420Z VRB03KT 0100 R01/0300N R19/0275N FG VV001 04/04 Q1003=
202304240350 METAR COR ESMX 240350Z 22003KT 0100 R01/0400N R19/0350N FG VV001 05/05 Q1003=
202304240320 METAR ESMX 240320Z AUTO 16003KT 0100 R01/0275N R19/0350N FG VV001 05/05 Q1004=
202304240250 METAR ESMX 240250Z AUTO VRB02KT 0100 R01/0300N R19/0450N FG VV001 05/05 Q1004=
202304240220 METAR ESMX 240220Z AUTO 22002KT 0100 R01/0300N R19/0550N FG VV001 05/05 Q1004=
202304240150 METAR ESMX 240150Z AUTO 22003KT 0100 R01/0375N R19/0500N FG VV001 05/05 Q1004=
202304240120 METAR ESMX 240120Z AUTO 23002KT 0100 R01/0375N R19/0400N FG VV001 05/05 Q1004=
202304240050 METAR ESMX 240050Z AUTO 00000KT 0050 R01/0450N R19/0200N FG VV001 04/04 Q1004=
202304240020 METAR ESMX 240020Z AUTO 00000KT 0150 R01/0650D R19/0650N FG VV001 04/04 Q1004=
202304232350 METAR ESMX 232350Z AUTO 00000KT 0050 R01/0400N R19/0275N FG VV001 03/03 Q1005=
202304232320 METAR ESMX 232320Z AUTO 20002KT 0200 R01/1100D R19/0700U FG VV001 03/03 Q1004=
202304232250 METAR ESMX 232250Z AUTO 00000KT 0050 R01/0175N R19/0200N FG VV001 04/04 Q1004=
202304232220 METAR ESMX 232220Z AUTO 23003KT 0050 R01/0400N R19/0250N BCFG VV001 04/04 Q1004=
202304232150 METAR ESMX 232150Z AUTO 23004KT 0150 R01/P2000N R19/0450N NCD 04/04 Q1004=
202304232120 METAR ESMX 232120Z AUTO 22003KT 0100 R01/0500N R19/0325N BCFG NCD 05/05 Q1004=
202304232050 METAR ESMX 232050Z AUTO 22005KT 0400 R01/P2000N R19/P2000D BR NCD 05/05 Q1004=
202304232020 METAR ESMX 232020Z AUTO 22004KT 9000 FEW012/// 06/06 Q1004=
202304231950 METAR ESMX 231950Z AUTO 24005KT 220V280 9999 NCD 07/07 Q1004=
202304231920 METAR ESMX 231920Z AUTO 25005KT 220V280 9999 FEW010/// SCT017/// BKN032/// 08/08 Q1004=
202304231850 METAR ESMX 231850Z AUTO 26003KT 9999 FEW011/// OVC030/// 09/09 Q1004=
202304231820 METAR ESMX 231820Z AUTO 25004KT 9999 FEW009/// SCT029/// OVC100/// 09/09 Q1004=
202304231750 METAR ESMX 231750Z AUTO 26006KT 230V290 9999 FEW009/// SCT015/// BKN021/// 09/09 Q1003=
202304231720 METAR ESMX 231720Z AUTO 24007KT 210V270 9999 BKN008/// BKN012/// OVC017/// 10/09 Q1003=
202304231650 METAR ESMX 231650Z AUTO 23007KT 200V270 9999 SCT008/// BKN014/// OVC022/// 10/10 Q1003=
202304231620 METAR ESMX 231620Z AUTO 25006KT 9999 FEW007/// SCT009/// OVC015/// 10/10 Q1003=
202304231550 METAR ESMX 231550Z AUTO 22005KT 9999 -RA BKN006/// OVC068/// 11/11 Q1003=
202304231520 METAR ESMX 231520Z 24007KT 9999 -RA BKN005 OVC009 11/11 Q1003=
202304231450 METAR ESMX 231450Z 23008KT 9999 -RA SCT005 BKN007 11/11 Q1003=
202304231420 METAR ESMX 231420Z 26009KT 9999 -RA SCT008 BKN011 11/10 Q1003 REDZ=
202304231350 METAR ESMX 231350Z 25010KT 9999 -DZ FEW014 BKN035 BKN051 12/11 Q1002=
202304231320 METAR ESMX 231320Z 22011KT 9999 -DZ BKN036 OVC046 14/08 Q1002=
202304231250 METAR ESMX 231250Z 23008KT 200V270 9999 BKN044 OVC057 15/07 Q1002=
202304231220 METAR ESMX 231220Z 17009KT CAVOK 16/06 Q1002=
202304231150 METAR ESMX 231150Z 17009KT 140V200 CAVOK 16/05 Q1002=
202304231120 METAR ESMX 231120Z 17011KT CAVOK 16/05 Q1002=
202304231050 METAR ESMX 231050Z 18013KT CAVOK 17/05 Q1002=
202304231020 METAR ESMX 231020Z 18011KT CAVOK 18/05 Q1002=
202304230950 METAR ESMX 230950Z 17011KT CAVOK 18/05 Q1003=
202304230920 METAR ESMX 230920Z 19013KT CAVOK 17/05 Q1003=
202304230850 METAR ESMX 230850Z AUTO 15011KT 120V180 9999 NCD 17/05 Q1003=
202304230820 METAR ESMX 230820Z AUTO 16009KT 130V190 9999 FEW098/// 16/05 Q1003=
202304230750 METAR ESMX 230750Z AUTO 14010KT 9999 SCT096/// 15/04 Q1003=
202304230720 METAR ESMX 230720Z AUTO 15007KT 9999 SCT098/// 13/04 Q1004=
202304230650 METAR ESMX 230650Z AUTO 14009KT 9999 NCD 12/04 Q1004=
202304230620 METAR ESMX 230620Z AUTO 14008KT 100V160 9999 FEW170/// 11/04 Q1004=
202304230550 METAR ESMX 230550Z AUTO 14009KT 100V160 9999 SCT190/// 09/04 Q1005=
202304230520 METAR ESMX 230520Z AUTO 13007KT 090V160 9999 FEW190/// 08/04 Q1005=
202304230450 METAR ESMX 230450Z AUTO 13006KT 9999 NCD 08/04 Q1005=
202304230420 METAR ESMX 230420Z AUTO 13005KT 9999 NCD 07/03 Q1005=
202304230350 METAR ESMX 230350Z AUTO 13005KT 9999 NCD 06/03 Q1006=
202304230320 METAR ESMX 230320Z AUTO 13005KT 9999 NCD 04/02 Q1006=
202304230250 METAR ESMX 230250Z AUTO 14004KT 9999 NCD 03/02 Q1007=
202304230220 METAR ESMX 230220Z AUTO 14003KT 9999 NCD 04/02 Q1007=
202304230150 METAR ESMX 230150Z AUTO 14003KT 9999 NCD 05/03 Q1007=
202304230120 METAR ESMX 230120Z AUTO 14004KT 9999 NCD 06/03 Q1008=
202304230050 METAR ESMX 230050Z AUTO 14004KT 100V160 9999 NCD 06/02 Q1008=
202304230020 METAR ESMX 230020Z AUTO 15005KT 9999 NCD 06/02 Q1009=
202304222350 METAR ESMX 222350Z AUTO 14005KT 9999 NCD 07/02 Q1009=
202304222320 METAR ESMX 222320Z AUTO 15006KT 9999 NCD 07/01 Q1009=
202304222250 METAR ESMX 222250Z AUTO 15006KT 9999 NCD 08/01 Q1010=
202304222220 METAR ESMX 222220Z AUTO 15005KT 9999 NCD 08/00 Q1010=
202304222150 METAR ESMX 222150Z AUTO 14006KT 110V170 9999 NCD 08/M00 Q1010=
202304222120 METAR ESMX 222120Z AUTO 16003KT 9999 NCD 08/M00 Q1010=
202304222050 METAR ESMX 222050Z AUTO 17005KT 9999 NCD 10/M01 Q1010=
202304222020 METAR ESMX 222020Z AUTO 16004KT 9999 NCD 10/00 Q1010=
202304221950 METAR ESMX 221950Z AUTO 16004KT 9999 NCD 10/M00 Q1011=
202304221920 METAR ESMX 221920Z 17006KT CAVOK 11/00 Q1011=
202304221850 METAR ESMX 221850Z 15007KT CAVOK 12/01 Q1011=
202304221820 METAR ESMX 221820Z 16007KT CAVOK 13/01 Q1011=
202304221750 METAR ESMX 221750Z AUTO 16008KT 9999 NCD 14/01 Q1011=
202304221720 METAR ESMX 221720Z AUTO 16009KT 9999 NCD 15/02 Q1011=
202304221650 METAR ESMX 221650Z AUTO 17011KT 9999 NCD 16/02 Q1011=
202304221620 METAR ESMX 221620Z AUTO 17010KT 9999 NCD 17/02 Q1011=
202304221550 METAR ESMX 221550Z AUTO 17010KT 120V200 9999 NCD 17/02 Q1011=
202304221520 METAR ESMX 221520Z AUTO 15010KT 9999 NCD 18/02 Q1011=
202304221450 METAR ESMX 221450Z AUTO 15010KT 110V180 9999 NCD 18/01 Q1012=
202304221420 METAR ESMX 221420Z AUTO 15010KT 9999 NCD 19/02 Q1012=
202304221350 METAR ESMX 221350Z AUTO 17010KT 130V220 9999 NCD 19/01 Q1012=
202304221320 METAR ESMX 221320Z AUTO 19009KT 150V210 9999 NCD 20/02 Q1012=
202304221250 METAR ESMX 221250Z AUTO 20010KT 170V240 9999 NCD 20/02 Q1013=
202304221220 METAR ESMX 221220Z AUTO 17007KT 120V220 9999 NCD 20/02 Q1013=
202304221150 METAR ESMX 221150Z AUTO 20008KT 180V240 9999 NCD 19/02 Q1013=
202304221120 METAR ESMX 221120Z AUTO 19008KT 150V250 9999 NCD 19/02 Q1014=
202304221050 METAR ESMX 221050Z AUTO VRB06KT 9999 NCD 18/02 Q1014=
202304221020 METAR ESMX 221020Z AUTO 19006KT 150V230 9999 NCD 18/02 Q1014=
202304220950 METAR ESMX 220950Z AUTO 16006KT 060V210 9999 NCD 17/02 Q1014=
202304220920 METAR ESMX 220920Z AUTO 13004KT 060V190 9999 NCD 17/02 Q1015=
202304220850 METAR ESMX 220850Z 19005KT 150V290 CAVOK 16/02 Q1015=
202304220820 METAR ESMX 220820Z 19007KT CAVOK 15/01 Q1015=
202304220750 METAR ESMX 220750Z 23004KT CAVOK 14/M00 Q1015=
202304220720 METAR ESMX 220720Z 23005KT 190V260 CAVOK 14/M01 Q1016=
202304220650 METAR ESMX 220650Z 19003KT CAVOK 12/M05 Q1016=
202304220620 METAR ESMX 220620Z AUTO 19002KT 9999 NCD 11/M04 Q1016=
202304220550 METAR ESMX 220550Z AUTO 00000KT 9999 NCD 10/01 Q1016=
202304220520 METAR ESMX 220520Z AUTO 00000KT 9999 NCD 05/02 Q1016=
202304220450 METAR ESMX 220450Z AUTO 00000KT 9999 NCD 01/M00 Q1016=
202304220420 METAR ESMX 220420Z AUTO 00000KT 9999 NCD 00/M01 Q1016=
202304220350 METAR ESMX 220350Z AUTO 00000KT 9999 NCD M00/M00 Q1017=
202304220320 METAR ESMX 220320Z AUTO 00000KT 9999 NCD M00/M01 Q1017=
202304220250 METAR ESMX 220250Z AUTO 00000KT 9999 NCD 00/M00 Q1017=
202304220220 METAR ESMX 220220Z AUTO 19002KT 9999 NCD 01/M00 Q1017=
202304220150 METAR ESMX 220150Z AUTO 19002KT 9999 NCD 02/01 Q1017=
202304220120 METAR ESMX 220120Z AUTO 19004KT 9999 NCD 05/01 Q1017=
202304220050 METAR ESMX 220050Z AUTO 19003KT 9999 NCD 04/M00 Q1017=
202304220020 METAR ESMX 220020Z AUTO 19003KT 9999 NCD 04/01 Q1018=
202304212350 METAR ESMX 212350Z AUTO 00000KT 9999 NCD 03/M00 Q1018=
202304212320 METAR ESMX 212320Z AUTO 19002KT 9999 NCD 05/00 Q1018=
202304212250 METAR ESMX 212250Z AUTO 19005KT 9999 NCD 08/00 Q1018=
202304212220 METAR ESMX 212220Z AUTO 19004KT 9999 NCD 07/01 Q1018=
202304212150 METAR ESMX 212150Z AUTO 00000KT 9999 NCD 06/00 Q1018=
202304212120 METAR ESMX 212120Z AUTO 00000KT 9999 NCD 08/00 Q1018=
202304212050 METAR ESMX 212050Z AUTO 19004KT 9999 NCD 09/00 Q1018=
202304212020 METAR ESMX 212020Z AUTO 18005KT 9999 NCD 10/00 Q1019=
202304211950 METAR ESMX 211950Z AUTO 18006KT 9999 NCD 11/00 Q1019=
202304211920 METAR ESMX 211920Z AUTO 18007KT 9999 NCD 12/01 Q1019=
202304211850 METAR ESMX 211850Z AUTO 18007KT 9999 NCD 13/01 Q1019=
202304211820 METAR ESMX 211820Z AUTO 21004KT 9999 NCD 15/01 Q1019=
202304211750 METAR ESMX 211750Z AUTO 17004KT 9999 NCD 16/00 Q1019=
202304211720 METAR ESMX 211720Z AUTO 17005KT 9999 NCD 17/00 Q1019=
202304211650 METAR ESMX 211650Z AUTO 17006KT 9999 NCD 18/00 Q1019=
202304211620 METAR ESMX 211620Z AUTO VRB03KT 9999 NCD 19/M00 Q1019=
202304211550 METAR ESMX 211550Z AUTO 01003KT 280V050 9999 NCD 19/M00 Q1020=
202304211520 METAR ESMX 211520Z AUTO 17003KT 9999 NCD 19/M01 Q1020=
202304211450 METAR ESMX 211450Z 36004KT 320V050 CAVOK 19/M01 Q1021=
202304211420 METAR ESMX 211420Z 36005KT 290V030 CAVOK 19/M01 Q1021=
202304211350 METAR ESMX 211350Z 35005KT 300V030 CAVOK 19/M01 Q1022=
202304211320 METAR ESMX 211320Z 01005KT 330V060 CAVOK 19/M02 Q1022=
202304211250 METAR ESMX 211250Z 35007KT 300V030 CAVOK 19/M02 Q1022=
202304211220 METAR ESMX 211220Z 34005KT 290V030 CAVOK 18/M02 Q1023=
202304211150 METAR ESMX 211150Z 34004KT 300V030 CAVOK 18/M02 Q1023=
202304211120 METAR ESMX 211120Z 33004KT 270V040 CAVOK 17/M04 Q1023=
202304211050 METAR ESMX 211050Z 06004KT 320V110 CAVOK 17/M04 Q1024=
202304211020 METAR ESMX 211020Z VRB04KT CAVOK 16/M04 Q1024=
202304210950 METAR ESMX 210950Z 33005KT 250V020 CAVOK 15/M03 Q1025=
202304210920 METAR ESMX 210920Z 04006KT 360V080 CAVOK 14/M04 Q1025=
202304210850 METAR ESMX 210850Z 06004KT 360V110 CAVOK 14/M03 Q1025=
202304210820 METAR ESMX 210820Z VRB03KT CAVOK 13/M04 Q1025=
202304210750 METAR ESMX 210750Z 04004KT 360V060 CAVOK 12/M02 Q1025=
202304210720 METAR ESMX 210720Z 35003KT 320V020 CAVOK 10/M00 Q1026=
202304210650 METAR ESMX 210650Z 14002KT CAVOK 09/01 Q1026=
202304210620 METAR ESMX 210620Z 14002KT CAVOK 07/01 Q1026=
202304210550 METAR ESMX 210550Z 34003KT CAVOK 05/02 Q1026=
202304210520 METAR ESMX 210520Z AUTO 14003KT 9999 NCD 03/02 Q1026=
202304210450 METAR ESMX 210450Z 14002KT CAVOK M00/M00 Q1027=
202304210420 METAR ESMX 210420Z 14003KT CAVOK M01/M01 Q1027=
202304210350 METAR ESMX 210350Z AUTO 14002KT 7000 NCD M01/M01 Q1027=
202304210320 METAR ESMX 210320Z AUTO 14002KT 9999 NCD M01/M01 Q1027=
202304210250 METAR ESMX 210250Z AUTO 14002KT 9999 NCD M02/M02 Q1027=
202304210220 METAR ESMX 210220Z AUTO 03001KT 9999 NCD M01/M01 Q1027=
202304210150 METAR ESMX 210150Z AUTO 00000KT 9999 NCD M01/M01 Q1027=
202304210120 METAR ESMX 210120Z AUTO 00000KT 9999 NCD M01/M01 Q1027=
202304210050 METAR ESMX 210050Z AUTO 00000KT 9999 NCD M00/M01 Q1027=
202304210020 METAR ESMX 210020Z AUTO 00000KT 9999 NCD 00/M00 Q1027=
202304202350 METAR ESMX 202350Z 14001KT CAVOK 01/01 Q1027=
202304202320 METAR ESMX 202320Z 00000KT CAVOK 01/00 Q1028=
202304202250 METAR ESMX 202250Z 14001KT CAVOK 02/01 Q1028=
202304202220 METAR ESMX 202220Z 00000KT CAVOK 02/00 Q1028=
202304202150 METAR ESMX 202150Z 02002KT CAVOK 02/M01 Q1028=
202304202120 METAR ESMX 202120Z VRB02KT CAVOK 03/M00 Q1028=
202304202050 METAR ESMX 202050Z VRB02KT CAVOK 04/00 Q1028=
202304202020 METAR ESMX 202020Z VRB01KT CAVOK 05/M01 Q1028=
202304201950 METAR ESMX 201950Z 07002KT CAVOK 07/M01 Q1028=
202304201920 METAR ESMX 201920Z VRB03KT CAVOK 09/M01 Q1028=
202304201850 METAR ESMX 201850Z 06003KT 030V090 CAVOK 11/M01 Q1028=
202304201820 METAR ESMX 201820Z AUTO 05003KT 010V080 9999 NCD 12/M02 Q1028=
202304201750 METAR ESMX 201750Z 06004KT CAVOK 13/M02 Q1028=
202304201720 METAR ESMX 201720Z 07004KT 030V110 CAVOK 14/M02 Q1028=
202304201650 METAR ESMX 201650Z 06006KT 030V090 CAVOK 15/M02 Q1027=
202304201620 METAR ESMX 201620Z 05007KT 020V080 CAVOK 16/M03 Q1028=
202304201550 METAR ESMX 201550Z 05008KT 020V080 CAVOK 17/M02 Q1028=
202304201520 METAR ESMX 201520Z 06006KT 010V100 CAVOK 17/M02 Q1028=
202304201450 METAR ESMX 201450Z 05008KT 010V090 CAVOK 17/M02 Q1028=
202304201420 METAR ESMX 201420Z 07007KT 030V110 CAVOK 17/M01 Q1028=
202304201350 METAR ESMX 201350Z 06009KT 010V100 CAVOK 17/M01 Q1028=
202304201320 METAR ESMX 201320Z 05009KT CAVOK 17/M01 Q1028=
202304201250 METAR ESMX 201250Z 04009KT 010V080 CAVOK 17/M02 Q1029=
202304201220 METAR ESMX 201220Z 07008KT 020V120 CAVOK 16/M02 Q1029=
202304201150 METAR ESMX 201150Z 06008KT 010V110 CAVOK 17/M02 Q1029=
202304201120 METAR ESMX 201120Z 04009KT 010V070 CAVOK 16/M02 Q1029=
202304201050 METAR ESMX 201050Z 04011KT 010V070 CAVOK 15/M02 Q1029=
202304201020 METAR ESMX 201020Z 05010KT 020V110 CAVOK 15/M02 Q1030=
202304200950 METAR ESMX 200950Z 04011KT CAVOK 15/M03 Q1030=
202304200920 METAR ESMX 200920Z 04011KT CAVOK 14/M03 Q1030=
202304200850 METAR ESMX 200850Z 04011KT CAVOK 13/M03 Q1030=
202304200820 METAR ESMX 200820Z 04009KT 010V070 CAVOK 12/M02 Q1030=
202304200750 METAR ESMX 200750Z 03009KT 010V070 CAVOK 10/M03 Q1030=
202304200720 METAR ESMX 200720Z 04009KT 010V070 CAVOK 09/M02 Q1030=
202304200650 METAR ESMX 200650Z 03011KT CAVOK 08/M02 Q1030=
202304200620 METAR ESMX 200620Z 03010KT CAVOK 07/M02 Q1029=
202304200550 METAR ESMX 200550Z 03009KT 010V070 CAVOK 05/M02 Q1029=
202304200520 METAR ESMX 200520Z AUTO 03009KT 9999 NCD 05/M02 Q1029=
202304200450 METAR ESMX 200450Z 03009KT CAVOK 04/M02 Q1029=
202304200420 METAR ESMX 200420Z 03008KT CAVOK 04/M03 Q1029=
202304200350 METAR ESMX 200350Z AUTO 03009KT 9999 NCD 03/M03 Q1029=
202304200320 METAR ESMX 200320Z AUTO 03011KT 9999 NCD 04/M03 Q1029=
202304200250 METAR ESMX 200250Z AUTO 03009KT 9999 NCD 04/M03 Q1029=
202304200220 METAR ESMX 200220Z AUTO 03011KT 9999 NCD 04/M03 Q1029=
202304200150 METAR ESMX 200150Z AUTO 03010KT 9999 NCD 04/M03 Q1030=
202304200120 METAR ESMX 200120Z AUTO 03009KT 9999 NCD 04/M03 Q1030=
202304200050 METAR ESMX 200050Z AUTO 03010KT 9999 NCD 04/M03 Q1030=
202304200020 METAR ESMX 200020Z AUTO 03010KT 9999 NCD 04/M03 Q1030=
202304192350 METAR ESMX 192350Z 03010KT CAVOK 04/M03 Q1030=
202304192320 METAR ESMX 192320Z 03010KT CAVOK 04/M03 Q1030=
202304192250 METAR ESMX 192250Z 03011KT CAVOK 04/M04 Q1031=
202304192220 METAR ESMX 192220Z 03011KT CAVOK 04/M04 Q1031=
202304192150 METAR ESMX 192150Z 03010KT CAVOK 04/M04 Q1031=
202304192120 METAR ESMX 192120Z 03010KT CAVOK 05/M04 Q1031=
202304192050 METAR ESMX 192050Z 03011KT CAVOK 05/M04 Q1031=
202304192020 METAR ESMX 192020Z 03012KT CAVOK 06/M05 Q1031=
202304191950 METAR ESMX 191950Z AUTO 04012KT 9999 NCD 06/M05 Q1031=
202304191920 METAR ESMX 191920Z 04012KT 010V070 CAVOK 07/M05 Q1031=
202304191850 METAR ESMX 191850Z AUTO 04013G24KT 9999 NCD 08/M05 Q1031=
202304191820 METAR ESMX 191820Z 04013KT CAVOK 08/M05 Q1031=
202304191750 METAR ESMX 191750Z 05013KT CAVOK 09/M05 Q1031=
202304191720 METAR ESMX 191720Z 02011KT 360V060 CAVOK 10/M05 Q1031=
202304191650 METAR ESMX 191650Z 04014KT 010V070 CAVOK 10/M06 Q1030=
202304191620 METAR ESMX 191620Z 04017KT 020V080 CAVOK 11/M06 Q1030=
202304191550 METAR ESMX 191550Z 03017KT 360V060 CAVOK 11/M06 Q1030=
202304191520 METAR ESMX 191520Z AUTO 04015KT 9999 NCD 11/M07 Q1030=
202304191450 METAR ESMX 191450Z 04016KT 020V080 CAVOK 12/M07 Q1031=
202304191420 METAR ESMX 191420Z 02015KT 350V050 CAVOK 12/M06 Q1031=
202304191350 METAR ESMX 191350Z 05014G24KT 010V100 CAVOK 12/M06 Q1031=
202304191320 METAR ESMX 191320Z 04017KT 010V070 CAVOK 12/M06 Q1031=
202304191250 METAR ESMX 191250Z 02016KT 350V060 CAVOK 13/M06 Q1031=
202304191220 METAR ESMX 191220Z 04015KT 010V070 CAVOK 13/M05 Q1031=
202304191150 METAR ESMX 191150Z 04014KT 010V070 CAVOK 13/M05 Q1031=
202304191120 METAR COR ESMX 191120Z 04014KT 010V080 CAVOK 12/M05 Q1031=
202304191050 METAR ESMX 191050Z 04015KT 020V080 CAVOK 12/M04 Q1032=
202304191020 METAR ESMX 191020Z 04016KT 010V080 CAVOK 12/M05 Q1032=
202304190950 METAR ESMX 190950Z 02014G26KT 360V060 CAVOK 11/M05 Q1032=
202304190920 METAR ESMX 190920Z 03015KT 350V060 CAVOK 11/M05 Q1032=
202304190850 METAR ESMX 190850Z 04016KT 010V070 CAVOK 10/M05 Q1032=
202304190820 METAR ESMX 190820Z 03014KT 010V070 CAVOK 10/M04 Q1032=
202304190750 METAR ESMX 190750Z 01011KT 350V050 CAVOK 09/M03 Q1033=
202304190720 METAR ESMX 190720Z 03011KT CAVOK 07/M02 Q1033=
202304190650 METAR ESMX 190650Z 03010KT 350V060 CAVOK 06/M02 Q1033=
202304190620 METAR ESMX 190620Z 03009KT 360V060 CAVOK 05/M02 Q1033=
202304190550 METAR ESMX 190550Z 02010KT 330V050 CAVOK 05/M01 Q1033=
202304190520 METAR ESMX 190520Z 01010KT CAVOK 04/M01 Q1033=
202304190450 METAR ESMX 190450Z 36010KT CAVOK 03/M01 Q1033=
202304190420 METAR ESMX 190420Z 36010KT CAVOK 02/M01 Q1033=
202304190350 METAR ESMX 190350Z 36008KT CAVOK 03/M01 Q1033=
202304190320 METAR ESMX 190320Z AUTO 01008KT 9999 NCD 02/M01 Q1033=
202304190250 METAR ESMX 190250Z AUTO 01009KT 9999 NCD 02/M01 Q1033=
202304190220 METAR ESMX 190220Z AUTO 01007KT 9999 NCD 03/M02 Q1033=
202304190150 METAR ESMX 190150Z AUTO 36008KT 9999 NCD 04/M02 Q1033=
202304190120 METAR ESMX 190120Z AUTO 35008KT 9999 NCD 02/M01 Q1033=
202304190050 METAR ESMX 190050Z AUTO 36008KT 9999 NCD 03/M01 Q1034=
202304190020 METAR ESMX 190020Z AUTO 36008KT 9999 NCD 03/M01 Q1034=
202304182350 METAR ESMX 182350Z 01008KT CAVOK 04/M01 Q1034=
202304182320 METAR ESMX 182320Z 36004KT CAVOK 02/M02 Q1034=
202304182250 METAR ESMX 182250Z AUTO 01006KT 9999 NCD 02/M02 Q1035=
202304182220 METAR ESMX 182220Z 02006KT CAVOK 04/M02 Q1035=
202304182150 METAR ESMX 182150Z 01005KT CAVOK 02/M02 Q1035=
202304182120 METAR ESMX 182120Z 35002KT CAVOK 01/M01 Q1035=
202304182050 METAR ESMX 182050Z 35002KT CAVOK 04/M02 Q1035=
202304182020 METAR ESMX 182020Z 36003KT CAVOK 04/M02 Q1035=
202304181950 METAR ESMX 181950Z VRB03KT CAVOK 06/M02 Q1035=
202304181920 METAR ESMX 181920Z AUTO 05002KT 9999 NCD 06/M02 Q1035=
202304181850 METAR ESMX 181850Z AUTO 02003KT 9999 NCD 08/M02 Q1035=
202304181820 METAR ESMX 181820Z 04004KT 010V080 CAVOK 09/M02 Q1034=
202304181750 METAR ESMX 181750Z AUTO 06005KT 030V110 9999 NCD 10/M03 Q1034=
202304181720 METAR ESMX 181720Z 05008KT 030V110 CAVOK 11/M03 Q1034=
202304181650 METAR ESMX 181650Z 04009KT 020V080 CAVOK 12/M04 Q1034=
202304181620 METAR ESMX 181620Z 05009KT 020V090 CAVOK 12/M04 Q1034=
202304181550 METAR ESMX 181550Z 04011KT 010V070 CAVOK 12/M04 Q1034=
202304181520 METAR ESMX 181520Z AUTO 03010KT 350V080 9999 NCD 13/M04 Q1034=
202304181450 METAR ESMX 181450Z AUTO 04012KT 9999 NCD 13/M03 Q1034=
202304181420 METAR ESMX 181420Z 04012KT 010V090 CAVOK 13/M04 Q1034=
202304181350 METAR ESMX 181350Z 04014KT 020V080 CAVOK 13/M04 Q1034=
202304181320 METAR ESMX 181320Z 05012KT 020V090 CAVOK 14/M03 Q1034=
202304181250 METAR ESMX 181250Z 04014KT 010V080 CAVOK 14/M03 Q1034=
202304181220 METAR ESMX 181220Z 04013KT 010V070 CAVOK 14/M03 Q1034=
202304181150 METAR ESMX 181150Z 03014KT CAVOK 13/M04 Q1034=
202304181120 METAR ESMX 181120Z 04014KT 010V070 CAVOK 14/M02 Q1034=
202304181050 METAR ESMX 181050Z 03013KT 010V070 CAVOK 13/M02 Q1034=
202304181020 METAR ESMX 181020Z 03013KT 360V060 CAVOK 13/M02 Q1034=
202304180950 METAR ESMX 180950Z 02013KT 350V050 CAVOK 12/M02 Q1034=
202304180920 METAR ESMX 180920Z 02013KT 350V050 CAVOK 11/M02 Q1034=
202304180850 METAR ESMX 180850Z 02012KT 340V050 CAVOK 11/M02 Q1034=
202304180820 METAR ESMX 180820Z 02011KT CAVOK 10/M02 Q1034=
202304180750 METAR ESMX 180750Z 01011KT 350V050 CAVOK 09/M02 Q1034=
202304180720 METAR ESMX 180720Z 03010KT CAVOK 08/M02 Q1034=
202304180650 METAR ESMX 180650Z 02010KT 350V050 CAVOK 06/M02 Q1034=
202304180620 METAR ESMX 180620Z 35008KT CAVOK 05/M02 Q1034=
202304180550 METAR ESMX 180550Z 36008KT CAVOK 04/M02 Q1034=
202304180520 METAR ESMX 180520Z 36007KT CAVOK 03/M03 Q1034=
202304180450 METAR ESMX 180450Z 01006KT CAVOK 01/M03 Q1034=
202304180420 METAR ESMX 180420Z 35005KT CAVOK M00/M04 Q1034=
202304180350 METAR ESMX 180350Z 35004KT CAVOK M00/M04 Q1034=
202304180320 METAR ESMX 180320Z AUTO 35003KT 9999 NCD M02/M05 Q1034=
202304180250 METAR ESMX 180250Z AUTO 35003KT 9999 NCD M01/M04 Q1034=
202304180220 METAR ESMX 180220Z AUTO 35005KT 9999 NCD M01/M04 Q1034=
202304180150 METAR ESMX 180150Z AUTO 35004KT 9999 NCD M01/M04 Q1034=
202304180120 METAR ESMX 180120Z AUTO 34004KT 9999 NCD 00/M04 Q1033=
202304180050 METAR ESMX 180050Z AUTO 35003KT 330V030 9999 NCD M00/M03 Q1033=
202304180020 METAR ESMX 180020Z AUTO 34003KT 9999 NCD M01/M04 Q1033=
202304172350 METAR ESMX 172350Z 35003KT CAVOK M02/M03 Q1033=
202304172320 METAR ESMX 172320Z 35002KT CAVOK M00/M04 Q1033=
202304172250 METAR ESMX 172250Z 01002KT CAVOK 02/M05 Q1033=
202304172220 METAR ESMX 172220Z 03004KT CAVOK 05/M05 Q1033=
202304172150 METAR ESMX 172150Z 04004KT CAVOK 05/M05 Q1033=
202304172120 METAR ESMX 172120Z 02005KT CAVOK 06/M05 Q1032=
202304172050 METAR ESMX 172050Z 01004KT CAVOK 04/M05 Q1032=
202304172020 METAR ESMX 172020Z 01002KT CAVOK 04/M05 Q1032=
202304171950 METAR ESMX 171950Z 34003KT CAVOK 04/M05 Q1032=
202304171920 METAR ESMX 171920Z 06003KT 030V090 CAVOK 07/M05 Q1032=
202304171850 METAR ESMX 171850Z 07004KT 040V100 CAVOK 09/M05 Q1032=
202304171820 METAR ESMX 171820Z AUTO 07005KT 040V100 9999 NCD 10/M05 Q1031=
202304171750 METAR ESMX 171750Z 05007KT 020V080 CAVOK 11/M06 Q1031=
202304171720 METAR ESMX 171720Z 05006KT 360V110 CAVOK 12/M06 Q1031=
202304171650 METAR ESMX 171650Z 05009KT 020V090 CAVOK 13/M05 Q1030=
202304171620 METAR ESMX 171620Z 03009KT 350V070 CAVOK 13/M06 Q1030=
202304171550 METAR ESMX 171550Z 05009KT 020V080 CAVOK 14/M06 Q1030=
202304171520 METAR ESMX 171520Z 04009KT CAVOK 14/M06 Q1030=
202304171450 METAR ESMX 171450Z 03010KT 350V070 CAVOK 14/M07 Q1030=
202304171420 METAR ESMX 171420Z 02009KT 350V060 CAVOK 14/M06 Q1030=
202304171350 METAR ESMX 171350Z 01008KT 320V080 CAVOK 14/M06 Q1030=
202304171320 METAR ESMX 171320Z 03009KT 360V070 CAVOK 14/M05 Q1030=
202304171250 METAR ESMX 171250Z 36008KT 320V050 CAVOK 14/M05 Q1030=
202304171220 METAR ESMX 171220Z 03009KT 360V070 CAVOK 13/M05 Q1030=
202304171150 METAR ESMX 171150Z 02007KT 330V070 CAVOK 13/M04 Q1030=
202304171120 METAR ESMX 171120Z 36008KT 300V080 CAVOK 12/M05 Q1030=
202304171050 METAR ESMX 171050Z 36009KT 320V030 CAVOK 12/M04 Q1030=
202304171020 METAR ESMX 171020Z 01010KT 340V050 CAVOK 12/M04 Q1030=
202304170950 METAR ESMX 170950Z 04010KT 010V070 CAVOK 11/M05 Q1030=
202304170920 METAR ESMX 170920Z 01010KT 340V040 CAVOK 10/M04 Q1030=
202304170850 METAR ESMX 170850Z 04009KT 010V070 CAVOK 10/M05 Q1029=
202304170820 METAR ESMX 170820Z 01009KT 340V050 CAVOK 09/M04 Q1029=
202304170750 METAR ESMX 170750Z 04008KT CAVOK 08/M04 Q1029=
202304170720 METAR ESMX 170720Z 01008KT 340V050 CAVOK 07/M04 Q1029=
202304170650 METAR ESMX 170650Z 03008KT 010V080 CAVOK 05/M03 Q1029=
202304170620 METAR ESMX 170620Z 01006KT CAVOK 04/M03 Q1028=
202304170550 METAR ESMX 170550Z 02006KT 340V080 CAVOK 03/M02 Q1028=
202304170520 METAR ESMX 170520Z 01006KT CAVOK 01/M01 Q1028=
202304170450 METAR ESMX 170450Z 02006KT CAVOK 01/M01 Q1028=
202304170420 METAR ESMX 170420Z 02006KT CAVOK 00/M02 Q1027=
202304170350 METAR ESMX 170350Z 35003KT CAVOK M02/M03 Q1027=
202304170320 METAR ESMX 170320Z 33003KT CAVOK M02/M03 Q1027=
202304170250 METAR ESMX 170250Z AUTO 01002KT 9999 NCD M01/M02 Q1026=
202304170220 METAR ESMX 170220Z AUTO 02003KT 9999 NCD 00/M01 Q1026=
202304170150 METAR ESMX 170150Z AUTO 01005KT 9999 NCD 01/M02 Q1026=
202304170120 METAR ESMX 170120Z AUTO 02006KT 9999 NCD 02/M01 Q1026=
202304170050 METAR ESMX 170050Z AUTO 02005KT 9999 NCD 02/M01 Q1026=
202304170020 METAR ESMX 170020Z AUTO 02005KT 9999 NCD 02/M01 Q1026=
202304162350 METAR ESMX 162350Z AUTO 01006KT 9999 NCD 02/M01 Q1026=
202304162320 METAR ESMX 162320Z AUTO 34004KT 9999 NCD 00/M01 Q1026=
202304162250 METAR ESMX 162250Z AUTO 01003KT 9999 NCD 03/M02 Q1026=
202304162220 METAR ESMX 162220Z AUTO 04005KT 9999 NCD 05/M03 Q1026=
202304162150 METAR ESMX 162150Z AUTO 03006KT 9999 NCD 05/M02 Q1026=
202304162120 METAR ESMX 162120Z AUTO 01003KT 9999 NCD 03/M02 Q1025=
202304162050 METAR ESMX 162050Z AUTO 36003KT 9999 NCD 03/M02 Q1025=
202304162020 METAR ESMX 162020Z AUTO 00000KT 9999 NCD 05/M03 Q1025=
202304161950 METAR ESMX 161950Z AUTO VRB03KT 9999 NCD 06/M03 Q1025=
202304161920 METAR ESMX 161920Z AUTO 04006KT 010V080 9999 NCD 08/M03 Q1025=
202304161850 METAR ESMX 161850Z AUTO 07004KT 030V100 9999 NCD 09/M02 Q1025=
202304161820 METAR ESMX 161820Z AUTO 06005KT 040V100 9999 NCD 10/M02 Q1024=
202304161750 METAR ESMX 161750Z AUTO 07004KT 030V110 9999 NCD 11/M01 Q1024=
202304161720 METAR ESMX 161720Z AUTO 05006KT 020V080 9999 NCD 12/M01 Q1023=
202304161650 METAR ESMX 161650Z 06006KT 020V090 CAVOK 13/M01 Q1023=
202304161620 METAR ESMX 161620Z 05007KT 020V080 CAVOK 13/M01 Q1023=
202304161550 METAR ESMX 161550Z 05009KT 020V100 CAVOK 14/M01 Q1023=
202304161520 METAR ESMX 161520Z AUTO 03007KT 360V070 9999 NCD 14/M01 Q1023=
202304161450 METAR ESMX 161450Z 02008KT 340V050 CAVOK 14/M01 Q1022=
202304161420 METAR ESMX 161420Z 02009KT 330V060 CAVOK 14/M00 Q1022=
202304161350 METAR ESMX 161350Z 02009KT 340V060 CAVOK 14/M01 Q1023=
202304161320 METAR ESMX 161320Z 36009KT 340V040 CAVOK 14/M00 Q1023=
202304161250 METAR ESMX 161250Z AUTO VRB09KT 9999 FEW160/// 14/M00 Q1023=
202304161220 METAR ESMX 161220Z AUTO 05008KT 020V080 9999 NCD 13/M00 Q1023=
202304161150 METAR ESMX 161150Z 04010KT 020V080 CAVOK 13/M01 Q1023=
202304161120 METAR ESMX 161120Z 03011KT 350V050 CAVOK 12/M01 Q1023=
202304161050 METAR ESMX 161050Z 03009KT 330V080 CAVOK 12/M01 Q1023=
202304161020 METAR ESMX 161020Z 36008KT CAVOK 11/M01 Q1023=
202304160950 METAR ESMX 160950Z 01008KT 340V050 CAVOK 10/M01 Q1023=
202304160920 METAR ESMX 160920Z AUTO 02009KT 9999 OVC130/// 10/M00 Q1023=
202304160850 METAR ESMX 160850Z AUTO 02008KT 9999 OVC120/// 09/00 Q1023=
202304160820 METAR ESMX 160820Z AUTO 01008KT 350V060 9999 FEW100/// OVC120/// 08/00 Q1022=
202304160750 METAR ESMX 160750Z AUTO 03007KT 9999 BKN098/// OVC120/// 07/00 Q1022=
202304160720 METAR ESMX 160720Z AUTO 02008KT 9999 OVC094/// 06/01 Q1022=
202304160650 METAR ESMX 160650Z AUTO 02008KT 9999 SCT066/// OVC092/// 05/01 Q1022=
202304160620 METAR ESMX 160620Z AUTO 02007KT 9999 -DZ OVC051/// 05/01 Q1022=
202304160550 METAR ESMX 160550Z AUTO 01007KT 9999 -DZ OVC080/// 05/01 Q1022 RESHUP REDZ=
202304160520 METAR ESMX 160520Z AUTO 03006KT 360V070 9999 OVC076/// 05/01 Q1022 REUP=
202304160450 METAR ESMX 160450Z AUTO 02008KT 9999 FEW057/// OVC076/// 05/01 Q1022=
202304160420 METAR ESMX 160420Z AUTO 02008KT 9999 OVC074/// 05/01 Q1022=
202304160350 METAR ESMX 160350Z AUTO 03009KT 9999 OVC074/// 05/01 Q1021=
202304160320 METAR ESMX 160320Z AUTO 02009KT 9999 BKN076/// OVC100/// 05/01 Q1021=
202304160250 METAR ESMX 160250Z AUTO 03009KT 9999 BKN078/// OVC110/// 05/01 Q1022=
202304160220 METAR ESMX 160220Z AUTO 03009KT 9999 SCT066/// OVC110/// 05/01 Q1022=
202304160150 METAR ESMX 160150Z AUTO 03008KT 9999 OVC062/// 05/01 Q1022=
202304160120 METAR ESMX 160120Z AUTO 03008KT 350V060 9999 OVC061/// 05/01 Q1022 RESHUP=
202304160050 METAR ESMX 160050Z AUTO 03009KT 9999 OVC057/// 05/01 Q1022 RESHUP REDZ=
202304160020 METAR ESMX 160020Z AUTO 03010KT 9999 OVC051/// 05/02 Q1022 REUP=
202304152350 METAR ESMX 152350Z AUTO 03010KT 9999 FEW034/// OVC044/// 05/02 Q1022=
202304152320 METAR ESMX 152320Z AUTO 02009KT 350V050 9999 OVC038/// 06/02 Q1022=
202304152250 METAR ESMX 152250Z AUTO 03012KT 9999 OVC042/// 06/02 Q1022=
202304152220 METAR ESMX 152220Z AUTO 03010KT 9999 FEW030/// OVC039/// 06/03 Q1021 RESHUP REUP=
202304152150 METAR ESMX 152150Z AUTO 03008KT 350V050 9999 BKN034/// OVC040/// 06/03 Q1021=
202304152120 METAR ESMX 152120Z AUTO 03008KT 9999 BKN025/// OVC032/// 07/03 Q1021=
202304152050 METAR ESMX 152050Z AUTO 03009KT 9999 OVC030/// 07/03 Q1021=
202304152020 METAR ESMX 152020Z AUTO 03007KT 350V060 9999 OVC034/// 07/04 Q1021=
202304151950 METAR ESMX 151950Z AUTO 04008KT 9999 OVC039/// 08/04 Q1021=
202304151920 METAR ESMX 151920Z AUTO 05007KT 010V080 9999 BKN033/// OVC040/// 08/04 Q1021=
202304151850 METAR ESMX 151850Z 05009KT 020V100 9999 BKN027 09/04 Q1020=
202304151820 METAR ESMX 151820Z 06007KT 030V090 9999 BKN026 09/04 Q1020=
202304151750 METAR ESMX 151750Z 04008KT 9999 BKN028 09/04 Q1020=
202304151720 METAR ESMX 151720Z AUTO 05010KT 020V080 9999 OVC027/// 09/04 Q1020=
202304151650 METAR ESMX 151650Z AUTO 05008KT 020V080 9999 OVC030/// 10/04 Q1019=
202304151620 METAR ESMX 151620Z AUTO 05009KT 020V080 9999 BKN032/// OVC043/// 10/04 Q1019=
202304151550 METAR ESMX 151550Z AUTO 07009KT 030V120 9999 OVC039/// 11/04 Q1019=
202304151520 METAR ESMX 151520Z AUTO 09007KT 010V120 9999 OVC036/// 11/04 Q1018=
202304151450 METAR ESMX 151450Z AUTO 07008KT 030V110 9999 BKN038/// OVC048/// 12/04 Q1018=
202304151420 METAR ESMX 151420Z AUTO 06009KT 010V120 9999 BKN044/// BKN088/// 12/04 Q1018=
202304151350 METAR ESMX 151350Z AUTO 06008KT 360V110 9999 BKN041/// OVC092/// 13/04 Q1017=
202304151320 METAR ESMX 151320Z AUTO 06008KT 020V100 9999 OVC094/// 13/04 Q1017=
202304151250 METAR ESMX 151250Z AUTO 06009KT 030V100 9999 OVC092/// 13/05 Q1017=
202304151220 METAR ESMX 151220Z AUTO 05010KT 360V080 9999 OVC090/// 12/05 Q1017=
202304151150 METAR ESMX 151150Z AUTO 06009KT 030V120 9999 SCT049/// OVC092/// 12/05 Q1017=
202304151120 METAR ESMX 151120Z AUTO 06011KT 030V100 9999 OVC049/// 13/05 Q1017=
202304151050 METAR ESMX 151050Z 06012KT 020V110 9999 FEW032 13/05 Q1017=
202304151020 METAR ESMX 151020Z 06011KT CAVOK 13/05 Q1017=
202304150950 METAR ESMX 150950Z 06008KT 030V110 CAVOK 11/05 Q1017=
202304150920 METAR ESMX 150920Z 06008KT 030V100 CAVOK 10/05 Q1016=
202304150850 METAR ESMX 150850Z 06009KT 030V100 9999 FEW030 12/05 Q1016=
202304150820 METAR ESMX 150820Z 07009KT 030V110 9999 FEW028 12/06 Q1016=
202304150750 METAR ESMX 150750Z 04009KT CAVOK 11/06 Q1016=
202304150720 METAR ESMX 150720Z 03009KT CAVOK 10/05 Q1016=
202304150650 METAR ESMX 150650Z 03009KT 360V060 CAVOK 09/05 Q1016=
202304150620 METAR ESMX 150620Z AUTO 03008KT 9999 NCD 08/05 Q1015=
202304150550 METAR ESMX 150550Z AUTO 05007KT 010V070 9999 NCD 08/05 Q1015=
202304150520 METAR ESMX 150520Z AUTO 05007KT 020V080 9999 FEW062/// 07/05 Q1015=
202304150450 METAR ESMX 150450Z AUTO 04007KT 020V080 9999 OVC055/// 07/06 Q1015=
202304150420 METAR ESMX 150420Z AUTO 04007KT 020V080 9999 OVC053/// 07/06 Q1015=
202304150350 METAR ESMX 150350Z AUTO 04007KT 020V080 9999 OVC053/// 07/06 Q1015=
202304150320 METAR ESMX 150320Z AUTO 04007KT 9999 OVC053/// 07/06 Q1015=
202304150250 METAR ESMX 150250Z AUTO 05007KT 020V080 9999 OVC051/// 07/06 Q1015=
202304150220 METAR ESMX 150220Z AUTO 05007KT 020V080 9999 OVC053/// 07/06 Q1015=
202304150150 METAR ESMX 150150Z AUTO 05006KT 020V080 9999 SCT031/// OVC053/// 07/06 Q1015=
202304150120 METAR ESMX 150120Z AUTO 05007KT 020V080 9999 OVC049/// 07/06 Q1014=
202304150050 METAR ESMX 150050Z AUTO 05007KT 020V080 9999 FEW009/// OVC053/// 07/06 Q1014=
202304150020 METAR ESMX 150020Z AUTO 05007KT 020V080 9999 FEW009/// SCT028/// OVC051/// 07/07 Q1014=
202304142350 METAR ESMX 142350Z AUTO 06008KT 020V090 9999 SCT008/// OVC025/// 08/07 Q1014=
202304142320 METAR ESMX 142320Z AUTO 06007KT 030V100 9999 OVC007/// 08/07 Q1014=
202304142250 METAR ESMX 142250Z AUTO 06007KT 020V100 9999 OVC007/// 08/07 Q1014=
202304142220 METAR ESMX 142220Z AUTO 06006KT 030V090 9999 OVC006/// 08/08 Q1014=
202304142150 METAR ESMX 142150Z AUTO 06006KT 020V090 9999 OVC005/// 08/08 Q1014=
202304142120 METAR ESMX 142120Z AUTO 05006KT 020V080 9999 OVC004/// 07/07 Q1014=
202304142050 METAR ESMX 142050Z AUTO 06005KT 030V100 7000 OVC003/// 07/07 Q1014=
202304142020 METAR ESMX 142020Z AUTO 06005KT 030V110 3900 BR OVC002/// 07/07 Q1014=
202304141950 METAR ESMX 141950Z AUTO 06006KT 030V110 3700 BR OVC002/// 07/07 Q1014=
202304141920 METAR ESMX 141920Z AUTO 05006KT 020V100 2600 BR OVC002/// 07/07 Q1014=
202304141850 METAR ESMX 141850Z AUTO 06007KT 030V100 3100 BR BKN002/// OVC004/// 07/07 Q1014=
202304141820 METAR ESMX 141820Z AUTO 06007KT 030V090 9999 OVC004/// 08/07 Q1014=
202304141750 METAR ESMX 141750Z AUTO 06007KT 020V080 7000 OVC004/// 08/08 Q1014=
202304141720 METAR ESMX 141720Z AUTO 06007KT 020V100 4500 BR OVC003/// 08/08 Q1013=
202304141650 METAR ESMX 141650Z AUTO 06007KT 2900 BR SCT002/// BKN006/// OVC008/// 08/08 Q1013=
202304141620 METAR ESMX 141620Z AUTO 06008KT 030V100 9999 OVC010/// 09/07 Q1013=
202304141550 METAR ESMX 141550Z AUTO 06007KT 010V110 9999 OVC013/// 09/07 Q1013=
202304141520 METAR ESMX 141520Z AUTO 06007KT 010V100 9999 OVC016/// 10/07 Q1013=
202304141450 METAR ESMX 141450Z AUTO 05008KT 9999 BKN021/// OVC026/// 10/07 Q1013=
202304141420 METAR ESMX 141420Z 04007KT 010V070 9999 BKN017 10/07 Q1012=
202304141350 METAR ESMX 141350Z 04008KT 9999 BKN019 OVC026 10/07 Q1012=
202304141320 METAR ESMX 141320Z 06006KT 020V110 9999 BKN022 11/07 Q1013=
202304141250 METAR ESMX 141250Z 07007KT 030V110 9999 BKN021 11/07 Q1013=
202304141220 METAR ESMX 141220Z 05007KT 020V100 9999 BKN017 11/07 Q1013=
202304141150 METAR ESMX 141150Z 05007KT 020V080 9999 BKN016 10/07 Q1013=
202304141120 METAR ESMX 141120Z 05007KT 9999 BKN016 10/07 Q1013=
202304141050 METAR ESMX 141050Z 04006KT 9999 FEW008 SCT011 BKN030 10/08 Q1013=
202304141020 METAR ESMX 141020Z 03008KT 9999 BKN006 09/08 Q1013=
202304140950 METAR ESMX 140950Z 04007KT 9999 BKN006 09/08 Q1013=
202304140920 METAR ESMX 140920Z 04006KT 9999 BKN008 09/08 Q1013=
202304140850 METAR ESMX 140850Z 03008KT 9999 BKN006 08/07 Q1012=
202304140820 METAR ESMX 140820Z 03007KT 9999 BKN006 08/07 Q1012=
202304140750 METAR ESMX 140750Z 03006KT 9999 -DZ SCT006 BKN008 07/07 Q1013=
202304140720 METAR ESMX 140720Z 04006KT 9999 -RA OVC005 07/07 Q1012=
202304140650 METAR ESMX 140650Z AUTO 01006KT 9999 DZ OVC005/// 08/07 Q1012 REUP=
202304140620 METAR ESMX 140620Z 03005KT 010V070 7000 OVC004 07/07 Q1012=
202304140550 METAR ESMX 140550Z 04005KT 010V070 6000 OVC003 07/07 Q1012=
202304140520 METAR ESMX 140520Z 02006KT 5000 BR BKN003 07/07 Q1012=
202304140450 METAR ESMX 140450Z 03005KT 6000 VV003 07/07 Q1012=
202304140420 METAR ESMX 140420Z 04004KT 8000 BR OVC004 07/07 Q1012=
202304140350 METAR COR ESMX 140350Z 02005KT 6000 BR OVC004 07/07 Q1012=
202304140320 METAR ESMX 140320Z AUTO 35003KT 6000 OVC005/// 07/07 Q1012=
202304140250 METAR ESMX 140250Z AUTO 34001KT 7000 OVC004/// 07/07 Q1012=
202304140220 METAR ESMX 140220Z AUTO 02002KT 7000 OVC003/// 07/07 Q1012=
202304140150 METAR ESMX 140150Z AUTO VRB01KT 7000 OVC004/// 07/07 Q1011=
202304140120 METAR ESMX 140120Z AUTO 04003KT 7000 OVC004/// 07/07 Q1011=
202304140050 METAR ESMX 140050Z AUTO VRB03KT 7000 OVC004/// 07/06 Q1011=
202304140020 METAR ESMX 140020Z AUTO 05002KT 7000 OVC005/// 06/06 Q1011=
202304132350 METAR ESMX 132350Z 05003KT 010V100 8000 BKN005 06/06 Q1011=
202304132320 METAR ESMX 132320Z VRB03KT 8000 BKN005 06/06 Q1011=
202304132250 METAR ESMX 132250Z VRB02KT 8000 BKN007 04/04 Q1011=
202304132220 METAR ESMX 132220Z VRB02KT 9000 FEW009 05/05 Q1010=
202304132150 METAR ESMX 132150Z 00000KT 9000 NSC 05/05 Q1010=
202304132120 METAR ESMX 132120Z 11002KT 9999 FEW049 06/05 Q1010=
202304132050 METAR ESMX 132050Z 11002KT 9999 FEW048 06/05 Q1010=
202304132020 METAR ESMX 132020Z VRB03KT 9999 FEW047 07/05 Q1010=
202304131950 METAR ESMX 131950Z 13003KT 9999 FEW042 08/05 Q1010=
202304131920 METAR ESMX 131920Z AUTO VRB03KT 9999 FEW041/// BKN100/// 08/05 Q1010=
202304131850 METAR ESMX 131850Z AUTO 12004KT 090V150 9999 BKN098/// 08/05 Q1010=
202304131820 METAR ESMX 131820Z AUTO 11004KT 060V140 9999 FEW030/// SCT076/// OVC098/// 09/04 Q1009=
202304131750 METAR ESMX 131750Z AUTO 13005KT 070V140 9999 SCT022/// BKN051/// OVC092/// 09/05 Q1009=
202304131720 METAR ESMX 131720Z 13005KT 090V160 9999 SCT024 BKN043 09/04 Q1008=
202304131650 METAR ESMX 131650Z 13005KT 9999 FEW025 BKN035 10/04 Q1008=
202304131620 METAR ESMX 131620Z 13007KT 090V160 9999 BKN037 10/04 Q1007=
202304131550 METAR ESMX 131550Z 13006KT 090V160 9999 BKN037 10/03 Q1007=
202304131520 METAR ESMX 131520Z 13007KT 080V200 9999 BKN039 10/03 Q1007=
202304131450 METAR ESMX 131450Z 13007KT 080V180 9999 BKN038 11/03 Q1006=
202304131420 METAR ESMX 131420Z 12009KT 070V160 9999 BKN040 11/03 Q1006=
202304131350 METAR ESMX 131350Z 14008KT 100V170 9999 BKN042 11/03 Q1006=
202304131320 METAR ESMX 131320Z 12008KT 070V150 9999 BKN042 11/03 Q1006=
202304131250 METAR ESMX 131250Z 12006KT 040V150 9999 BKN043 11/03 Q1006=
202304131220 METAR ESMX 131220Z 12008KT 080V160 9999 BKN048 11/03 Q1005=
202304131150 METAR ESMX 131150Z 13009KT 060V170 9999 BKN048 11/03 Q1005=
202304131120 METAR ESMX 131120Z 13010KT 080V170 9999 BKN044 11/03 Q1005=
202304131050 METAR ESMX 131050Z 13010KT 080V190 9999 BKN047 10/03 Q1004=
202304131020 METAR ESMX 131020Z 12010KT 070V160 9999 FEW030 10/04 Q1004=
202304130950 METAR ESMX 130950Z 11008KT 060V160 9999 FEW029 10/04 Q1004=
202304130920 METAR ESMX 130920Z 13010KT 090V160 CAVOK 10/04 Q1004=
202304130850 METAR ESMX 130850Z 13009KT 090V160 9999 FEW022 SCT061 BKN096 09/04 Q1004=
202304130820 METAR ESMX 130820Z 13007KT 090V170 9999 FEW019 BKN051 08/04 Q1004=
202304130750 METAR ESMX 130750Z 14008KT 100V170 9999 FEW034 SCT055 BKN078 08/04 Q1003=
202304130720 METAR ESMX 130720Z 12008KT 080V160 CAVOK 08/04 Q1003=
202304130650 METAR ESMX 130650Z 12007KT 070V170 CAVOK 07/04 Q1003=
202304130620 METAR ESMX 130620Z 10007KT 060V130 CAVOK 07/04 Q1002=
202304130550 METAR ESMX 130550Z 11007KT 020V140 CAVOK 06/05 Q1002=
202304130520 METAR ESMX 130520Z 11005KT 010V140 9999 FEW009 BKN096 06/05 Q1002=
202304130450 METAR ESMX 130450Z 11005KT 060V130 9999 BKN007 05/05 Q1002=
202304130420 METAR ESMX 130420Z 09005KT 040V120 9000 BKN007 05/05 Q1002=
202304130350 METAR ESMX 130350Z 10005KT 360V130 9999 BKN006 05/05 Q1002=
202304130320 METAR ESMX 130320Z AUTO 10004KT 030V120 9999 OVC007/// 05/05 Q1002=
202304130250 METAR ESMX 130250Z AUTO 11005KT 060V130 9999 OVC006/// 05/05 Q1002=
202304130220 METAR ESMX 130220Z AUTO 10003KT 050V120 9999 OVC006/// 05/05 Q1002=
202304130150 METAR ESMX 130150Z AUTO 09004KT 050V150 9999 OVC007/// 05/05 Q1002=
202304130120 METAR ESMX 130120Z AUTO 09003KT 030V110 9999 SCT009/// BKN110/// 05/05 Q1003=
202304130050 METAR ESMX 130050Z AUTO VRB03KT 9999 FEW008/// BKN016/// OVC025/// 05/05 Q1003=
202304130020 METAR ESMX 130020Z AUTO 07003KT 020V140 9999 BKN016/// OVC055/// 05/05 Q1003=
202304122350 METAR ESMX 122350Z 11003KT 9999 SCT008 05/05 Q1003=
202304122320 METAR ESMX 122320Z VRB03KT 9999 SCT009 05/05 Q1004=
202304122250 METAR COR ESMX 122250Z 09003KT 020V110 FEW010 05/04 Q1004=
202304122220 METAR ESMX 122220Z 07004KT 040V110 CAVOK 05/04 Q1004=
202304122150 METAR ESMX 122150Z VRB03KT CAVOK 05/04 Q1004=
202304122120 METAR ESMX 122120Z 09003KT 020V110 CAVOK 06/04 Q1004=
202304122050 METAR ESMX 122050Z 09005KT 050V120 CAVOK 06/04 Q1005=
202304122020 METAR ESMX 122020Z 12003KT 050V140 9999 FEW027 06/04 Q1005=
202304121950 METAR ESMX 121950Z 12004KT 080V150 9999 SCT027 07/04 Q1005=
202304121920 METAR ESMX 121920Z AUTO VRB05KT 9999 BKN053/// 07/03 Q1005=
202304121850 METAR ESMX 121850Z AUTO 12005KT 060V140 9999 BKN039/// BKN055/// 07/03 Q1005=
202304121820 METAR ESMX 121820Z AUTO 13006KT 080V150 9999 OVC037/// 08/03 Q1005=
202304121750 METAR ESMX 121750Z AUTO 11007KT 050V160 9999 BKN041/// OVC061/// 09/03 Q1005=
202304121720 METAR ESMX 121720Z 10007KT 050V150 9999 FEW032 10/03 Q1004=
202304121650 METAR ESMX 121650Z 14006KT 100V160 CAVOK 10/04 Q1004=
202304121620 METAR ESMX 121620Z 14007KT 100V170 CAVOK 10/04 Q1005=
202304121550 METAR ESMX 121550Z 12007KT 050V170 9999 FEW033 BKN045 11/04 Q1005=
202304121520 METAR COR ESMX 121520Z 13007KT 070V170 9999 BKN041 11/03 Q1005=
202304121450 METAR ESMX 121450Z 15007KT 110V170 9999 FEW038 11/03 Q1005=
202304121420 METAR ESMX 121420Z 16006KT 120V180 9999 SCT040 11/03 Q1005=
202304121350 METAR ESMX 121350Z 14006KT 070V180 CAVOK 11/03 Q1005=
202304121320 METAR ESMX 121320Z 14006KT 070V180 9999 BKN047 10/04 Q1006=
202304121250 METAR ESMX 121250Z 15005KT 9999 BKN032 10/04 Q1006=
202304121220 METAR ESMX 121220Z 07005KT 010V150 9999 BKN037 10/04 Q1006=
202304121150 METAR ESMX 121150Z 15008KT 110V190 9999 BKN028 10/03 Q1007=
202304121120 METAR ESMX 121120Z 16008KT 120V190 9999 BKN025 10/04 Q1007=
202304121050 METAR ESMX 121050Z 14005KT 9999 BKN021 10/04 Q1007=
202304121020 METAR ESMX 121020Z 15007KT 110V180 9999 SCT019 09/05 Q1007=
202304120950 METAR ESMX 120950Z 16007KT 130V190 9999 FEW012 BKN017 08/05 Q1007=
202304120920 METAR ESMX 120920Z 18006KT 140V220 9999 BKN013 08/06 Q1007=
202304120850 METAR ESMX 120850Z 13004KT 9999 BKN006 07/07 Q1007=
202304120820 METAR ESMX 120820Z VRB03KT 9999 BKN002 05/05 Q1007=
202304120750 METAR COR ESMX 120750Z VRB02KT 1600 BCFG VV002 05/05 Q1008=
202304120720 METAR COR ESMX 120720Z VRB03KT 0800 R01/1500N R19/0450N FG VV002 04/04 Q1008=
202304120650 METAR ESMX 120650Z 03003KT 0150 R01/0300N R19/0400U FG VV002 04/04 Q1008=
202304120620 METAR ESMX 120620Z VRB02KT 0150 R01/0250N R19/0400D FG VV002 04/04 Q1008=
202304120550 METAR ESMX 120550Z 18003KT 0150 R01/0500N R19/0400N FG VV002 03/03 Q1008=
202304120520 METAR ESMX 120520Z 18003KT 0150 R01/0300N R19/0375N FG VV002 03/03 Q1008=
202304120450 METAR ESMX 120450Z 18002KT 0150 R01/0400N R19/0450N FG VV002 03/03 Q1008=
202304120420 METAR ESMX 120420Z 18003KT 0150 R01/0400N R19/0450N FG VV002 03/03 Q1008=
202304120350 METAR ESMX 120350Z 03003KT 0150 R01/0500N R19/0600N FG VV002 03/03 Q1008=
202304120320 METAR ESMX 120320Z AUTO VRB02KT 0100 R01/0450N R19/0600N FG VV001 03/03 Q1008=
202304120250 METAR ESMX 120250Z AUTO 32001KT 0150 R01/0500N R19/0550N FG VV002 03/03 Q1008=
202304120220 METAR ESMX 120220Z AUTO VRB02KT 0100 R01/0350N R19/0375N FG VV002 03/03 Q1008=
202304120150 METAR ESMX 120150Z AUTO 18003KT 0050 R01/0275N R19/0300N FG VV002 03/03 Q1008=
202304120120 METAR ESMX 120120Z AUTO 18001KT 0100 R01/0375N R19/0650N FG OVC001/// 04/04 Q1008=
202304120050 METAR ESMX 120050Z VRB01KT 0500 R19/1400N FG VV002 03/03 Q1008=
202304120020 METAR ESMX 120020Z 22002KT 0250 R19/0275N FG VV002 03/03 Q1008=
202304112350 METAR ESMX 112350Z 00000KT 0150 R19/0250N FG VV002 04/04 Q1008=
202304112320 METAR ESMX 112320Z 26003KT 0250 R19/0400N FG VV002 04/04 Q1008=
202304112250 METAR ESMX 112250Z 18003KT 1000 R19/P1400N BCFG BKN002 03/03 Q1008=
202304112220 METAR ESMX 112220Z 18002KT 1000 R19/1400N PRFG FEW005 02/02 Q1008=
202304112150 METAR ESMX 112150Z 22002KT 3000 R19/1500N BR FEW019 05/05 Q1008=
202304112120 METAR ESMX 112120Z 18003KT 9999 SCT013 05/05 Q1008=
202304112050 METAR ESMX 112050Z 19003KT 9999 FEW014 BKN028 06/06 Q1008=
202304112020 METAR ESMX 112020Z 18003KT 9999 FEW022 06/06 Q1008=
202304111950 METAR ESMX 111950Z AUTO 18003KT 9999 -DZ SCT053/// BKN068/// OVC094/// 06/06 Q1007 REUP=
202304111920 METAR ESMX 111920Z AUTO 22003KT 9999 OVC049/// 06/06 Q1007=
202304111850 METAR ESMX 111850Z AUTO 24004KT 9999 SCT007/// BKN051/// OVC086/// 06/06 Q1007=
202304111820 METAR ESMX 111820Z AUTO 16008KT 9999 BKN008/// OVC012/// 07/07 Q1007=
202304111750 METAR ESMX 111750Z 17005KT 9999 BKN007 07/07 Q1006=
202304111720 METAR ESMX 111720Z 15007KT 9999 BKN008 07/06 Q1006=
202304111650 METAR ESMX 111650Z 16009KT 130V190 9999 BKN009 07/06 Q1006=
202304111620 METAR ESMX 111620Z 17009KT 9999 BKN009 08/07 Q1006=
202304111550 METAR ESMX 111550Z 16007KT 120V180 9999 BKN009 08/07 Q1006=
202304111520 METAR ESMX 111520Z 15009KT 9999 -DZ FEW014 BKN021 08/06 Q1005=
202304111450 METAR ESMX 111450Z 15009KT 120V180 9999 -DZ SCT017 BKN026 08/06 Q1005=
202304111420 METAR ESMX 111420Z 17010KT 9999 -DZ FEW019 SCT032 BKN040 09/06 Q1005=
202304111350 METAR ESMX 111350Z 17014KT 9999 SCT039 BKN057 10/05 Q1005=
202304111320 METAR ESMX 111320Z 17016KT 9999 SCT034 BKN055 10/05 Q1005=
202304111250 METAR ESMX 111250Z 15014KT 9999 BKN036 12/04 Q1004=
202304111220 METAR ESMX 111220Z 14011KT 100V170 9999 SCT034 BKN110 12/04 Q1004=
202304111150 METAR ESMX 111150Z 15012KT 120V190 9999 SCT035 BKN110 12/04 Q1004=
202304111120 METAR ESMX 111120Z 16010KT 120V190 9999 FEW034 12/04 Q1004=
202304111050 METAR ESMX 111050Z 15010KT 100V170 9999 FEW029 12/04 Q1004=
202304111020 METAR ESMX 111020Z 14010KT 090V160 9999 FEW030 12/04 Q1005=
202304110950 METAR ESMX 110950Z 15010KT 110V190 9999 FEW030 11/04 Q1005=
202304110920 METAR ESMX 110920Z 15011KT 120V180 9999 FEW027 11/04 Q1005=
202304110850 METAR ESMX 110850Z 14011KT 110V170 9999 FEW026 11/04 Q1005=
202304110820 METAR ESMX 110820Z 13009KT 100V170 CAVOK 10/05 Q1006=
202304110750 METAR ESMX 110750Z 14010KT CAVOK 09/05 Q1006=
202304110720 METAR ESMX 110720Z 14008KT 080V160 CAVOK 08/05 Q1006=
202304110650 METAR ESMX 110650Z 13007KT 080V150 CAVOK 07/05 Q1006=
202304110620 METAR ESMX 110620Z 13006KT 090V150 CAVOK 07/04 Q1006=
202304110550 METAR ESMX 110550Z 12006KT 070V170 CAVOK 06/04 Q1007=
202304110520 METAR ESMX 110520Z 11007KT 080V160 CAVOK 06/04 Q1007=
202304110450 METAR ESMX 110450Z 11007KT 080V140 CAVOK 05/03 Q1007=
202304110420 METAR ESMX 110420Z 12006KT 080V150 CAVOK 05/03 Q1008=
202304110350 METAR ESMX 110350Z 11006KT 070V150 9999 NSC 05/03 Q1008=
202304110320 METAR ESMX 110320Z AUTO 11007KT 070V160 9999 NCD 05/02 Q1009=
202304110250 METAR ESMX 110250Z AUTO 11005KT 080V150 9999 FEW140/// 05/02 Q1009=
202304110220 METAR ESMX 110220Z AUTO 13006KT 080V160 9999 NCD 05/01 Q1010=
202304110150 METAR ESMX 110150Z AUTO 12006KT 080V160 9999 FEW048/// 05/01 Q1010=
202304110120 METAR ESMX 110120Z AUTO 12007KT 060V160 9999 NCD 05/00 Q1011=
202304110050 METAR ESMX 110050Z AUTO 12006KT 080V160 9999 FEW049/// 04/M00 Q1012=
202304110020 METAR ESMX 110020Z AUTO 12006KT 070V160 9999 SCT051/// 04/M00 Q1013=
202304102350 METAR ESMX 102350Z AUTO 12006KT 090V150 9999 NCD 04/M00 Q1013=
202304102320 METAR ESMX 102320Z AUTO 13007KT 080V160 9999 FEW051/// 04/M01 Q1014=
202304102250 METAR ESMX 102250Z AUTO 13007KT 090V170 9999 FEW150/// 04/M01 Q1015=
202304102220 METAR ESMX 102220Z AUTO 13006KT 100V160 9999 FEW160/// 04/M01 Q1015=
202304102150 METAR ESMX 102150Z AUTO 12006KT 060V190 9999 BKN150/// 05/M01 Q1015=
202304102120 METAR ESMX 102120Z AUTO 13006KT 090V160 9999 BKN150/// 05/M02 Q1016=
202304102050 METAR ESMX 102050Z AUTO 12007KT 080V170 9999 BKN150/// OVC160/// 05/M01 Q1016=
202304102020 METAR ESMX 102020Z AUTO 12006KT 070V150 9999 NCD 05/M01 Q1017=
202304101950 METAR ESMX 101950Z AUTO 12007KT 080V150 9999 NCD 06/M01 Q1017=
202304101920 METAR ESMX 101920Z 12007KT 080V170 CAVOK 06/M00 Q1018=
202304101850 METAR ESMX 101850Z 12006KT 070V150 CAVOK 07/M00 Q1018=
202304101820 METAR ESMX 101820Z 12007KT 070V160 CAVOK 08/M00 Q1018=
202304101750 METAR ESMX 101750Z 12007KT 080V150 CAVOK 09/M01 Q1019=
202304101720 METAR ESMX 101720Z 14006KT 100V160 CAVOK 10/M02 Q1019=
202304101650 METAR ESMX 101650Z 15010KT CAVOK 11/M02 Q1019=
202304101620 METAR ESMX 101620Z 14009KT 100V180 CAVOK 11/M03 Q1020=
202304101550 METAR ESMX 101550Z 14008KT CAVOK 12/M02 Q1020=
202304101520 METAR ESMX 101520Z 14008KT 100V170 CAVOK 12/M02 Q1021=
202304101450 METAR ESMX 101450Z 16010KT 130V190 CAVOK 12/M03 Q1021=
202304101420 METAR ESMX 101420Z AUTO 15011KT 9999 NCD 13/M03 Q1021=
202304101350 METAR ESMX 101350Z AUTO 13008KT 100V170 9999 NCD 13/M04 Q1022=
202304101320 METAR ESMX 101320Z 14009KT 100V190 CAVOK 12/M04 Q1023=
202304101250 METAR ESMX 101250Z 14009KT 080V180 CAVOK 13/M05 Q1023=
202304101220 METAR ESMX 101220Z 13006KT 060V170 CAVOK 13/M04 Q1024=
202304101150 METAR ESMX 101150Z AUTO 14009KT 080V190 9999 NCD 12/M05 Q1024=
202304101120 METAR ESMX 101120Z AUTO 14009KT 110V190 9999 NCD 11/M04 Q1024=
202304101050 METAR ESMX 101050Z 14009KT 120V190 CAVOK 11/M06 Q1025=
202304101020 METAR ESMX 101020Z 15009KT CAVOK 10/M06 Q1025=
202304100950 METAR ESMX 100950Z AUTO 14008KT 100V170 9999 NCD 10/M04 Q1025=
202304100920 METAR ESMX 100920Z 15008KT 130V190 CAVOK 10/M04 Q1026=
202304100850 METAR ESMX 100850Z 15006KT CAVOK 09/M03 Q1026=
202304100820 METAR ESMX 100820Z 14006KT 080V170 CAVOK 08/M02 Q1026=
202304100750 METAR ESMX 100750Z AUTO 14007KT 110V180 9999 NCD 07/M02 Q1026=
202304100720 METAR ESMX 100720Z 14004KT CAVOK 07/M02 Q1027=
202304100650 METAR ESMX 100650Z 13003KT CAVOK 05/M01 Q1027=
202304100620 METAR ESMX 100620Z VRB02KT CAVOK 03/M01 Q1027=
202304100550 METAR ESMX 100550Z AUTO VRB02KT 9999 NCD 01/00 Q1027=
202304100520 METAR ESMX 100520Z 00000KT CAVOK M03/M03 Q1027=
202304100450 METAR ESMX 100450Z 13001KT CAVOK M04/M04 Q1027=
202304100420 METAR ESMX 100420Z 04002KT 9999 BCFG NSC M04/M04 Q1027=
202304100350 METAR ESMX 100350Z 00000KT 9999 R01/0650N R19/P2000N MIFG NSC M04/M04 Q1028=
202304100320 METAR ESMX 100320Z AUTO 35002KT 9999 NCD M05/M05 Q1028=
202304100250 METAR ESMX 100250Z AUTO 00000KT 9999 NCD M04/M04 Q1028=
202304100220 METAR ESMX 100220Z AUTO 00000KT 9999 NCD M04/M04 Q1028=
202304100150 METAR ESMX 100150Z AUTO 00000KT 9999 NCD M04/M04 Q1028=
202304100120 METAR ESMX 100120Z AUTO 00000KT 9999 NCD M03/M03 Q1028=
202304100050 METAR ESMX 100050Z AUTO 00000KT 9999 NCD M02/M02 Q1028=
202304100020 METAR ESMX 100020Z AUTO 00000KT 9999 NCD M02/M02 Q1028=
202304092350 METAR ESMX 092350Z AUTO 00000KT 9999 NCD M02/M02 Q1028=
202304092320 METAR ESMX 092320Z AUTO 00000KT 9999 NCD M02/M02 Q1028=
202304092250 METAR ESMX 092250Z AUTO 00000KT 9999 NCD M01/M02 Q1028=
202304092220 METAR ESMX 092220Z AUTO 00000KT 9999 NCD M00/M02 Q1028=
202304092150 METAR ESMX 092150Z AUTO 20002KT 9999 NCD 01/M02 Q1028=
202304092120 METAR ESMX 092120Z AUTO 13001KT 9999 NCD 02/M02 Q1028=
202304092050 METAR ESMX 092050Z AUTO 07003KT 040V100 9999 NCD 04/M02 Q1028=
202304092020 METAR ESMX 092020Z AUTO 06003KT 040V100 7000 NCD 05/M02 Q1028=
202304091950 METAR ESMX 091950Z AUTO VRB02KT 9000 NCD 05/M02 Q1028=
202304091920 METAR ESMX 091920Z AUTO 13003KT 9999 NCD 06/M02 Q1028=
202304091850 METAR ESMX 091850Z AUTO 12003KT 9000 NCD 08/M03 Q1028=
202304091820 METAR ESMX 091820Z AUTO 09003KT 040V110 3900 BR NCD 08/M02 Q1028=
202304091750 METAR ESMX 091750Z AUTO 09004KT 010V170 2400 BR NCD 09/M04 Q1027=
202304091720 METAR ESMX 091720Z AUTO 11004KT 070V130 9999 NCD 11/M07 Q1027=
202304091650 METAR ESMX 091650Z AUTO 01004KT 350V050 9999 NCD 12/M07 Q1027=
202304091620 METAR ESMX 091620Z AUTO 36004KT 9999 NCD 12/M08 Q1027=
202304091550 METAR ESMX 091550Z AUTO 35004KT 9999 NCD 12/M08 Q1027=
202304091520 METAR ESMX 091520Z 01006KT 340V050 CAVOK 12/M08 Q1027=
202304091450 METAR ESMX 091450Z 05005KT 010V090 CAVOK 12/M08 Q1027=
202304091420 METAR ESMX 091420Z 04004KT 360V110 CAVOK 13/M08 Q1027=
202304091350 METAR ESMX 091350Z 36005KT 300V050 CAVOK 12/M08 Q1028=
202304091320 METAR ESMX 091320Z 04005KT 350V090 CAVOK 12/M07 Q1028=
202304091250 METAR ESMX 091250Z 04005KT 350V110 CAVOK 12/M07 Q1028=
202304091220 METAR ESMX 091220Z 35007KT CAVOK 11/M07 Q1028=
202304091150 METAR ESMX 091150Z 04006KT 360V080 CAVOK 12/M06 Q1028=
202304091120 METAR ESMX 091120Z 35005KT 300V050 CAVOK 11/M07 Q1029=
202304091050 METAR ESMX 091050Z 03007KT 350V050 CAVOK 10/M07 Q1029=
202304091020 METAR ESMX 091020Z 04004KT 350V080 CAVOK 10/M06 Q1029=
202304090950 METAR ESMX 090950Z 05005KT 020V090 CAVOK 09/M06 Q1029=
202304090920 METAR ESMX 090920Z AUTO 01006KT 320V050 9999 NCD 08/M06 Q1029=
202304090850 METAR ESMX 090850Z AUTO 04006KT 010V070 9999 NCD 08/M06 Q1029=
202304090820 METAR ESMX 090820Z AUTO 36006KT 330V030 9999 NCD 07/M05 Q1029=
202304090750 METAR ESMX 090750Z AUTO 04005KT 010V080 9999 NCD 06/M05 Q1029=
202304090720 METAR ESMX 090720Z AUTO 36005KT 330V030 9999 NCD 05/M04 Q1029=
202304090650 METAR ESMX 090650Z AUTO 04004KT 010V070 9999 NCD 04/M02 Q1029=
202304090620 METAR ESMX 090620Z AUTO 36005KT 9999 NCD 02/M02 Q1029=
202304090550 METAR ESMX 090550Z AUTO 36005KT 9999 NCD 00/M01 Q1029=
202304090520 METAR ESMX 090520Z AUTO 36004KT 9999 NCD M02/M02 Q1029=
202304090450 METAR ESMX 090450Z AUTO VRB03KT 9999 NCD M04/M04 Q1029=
202304090420 METAR ESMX 090420Z AUTO 00000KT 9999 NCD M04/M04 Q1029=
202304090350 METAR ESMX 090350Z AUTO 00000KT 9999 NCD M03/M03 Q1029=
202304090320 METAR ESMX 090320Z AUTO 00000KT 9999 NCD M03/M03 Q1029=
202304090250 METAR ESMX 090250Z AUTO 00000KT 9999 NCD M03/M03 Q1029=
202304090220 METAR ESMX 090220Z AUTO 00000KT 9999 NCD M03/M03 Q1029=
202304090150 METAR ESMX 090150Z AUTO 00000KT 9999 SCT044/// M03/M03 Q1029=
202304090120 METAR ESMX 090120Z AUTO 02003KT 9999 BKN046/// M02/M02 Q1029=
202304090050 METAR ESMX 090050Z AUTO 00000KT 9999 NCD M02/M02 Q1029=
202304090020 METAR ESMX 090020Z AUTO 35002KT 9999 FEW062/// M00/M03 Q1029=
202304082350 METAR ESMX 082350Z AUTO 01004KT 9999 FEW061/// 01/M03 Q1029=
202304082320 METAR ESMX 082320Z AUTO 04004KT 9999 FEW051/// M00/M02 Q1029=
202304082250 METAR ESMX 082250Z AUTO 06004KT 9999 NCD 01/M02 Q1029=
202304082220 METAR ESMX 082220Z AUTO 00000KT 9999 NCD M00/M02 Q1030=
202304082150 METAR ESMX 082150Z AUTO VRB01KT 9999 SCT051/// 01/M01 Q1029=
202304082120 METAR ESMX 082120Z AUTO 09002KT 9999 NCD 03/M02 Q1030=
202304082050 METAR ESMX 082050Z AUTO 07002KT 9999 NCD 04/M02 Q1029=
202304082020 METAR ESMX 082020Z AUTO 07004KT 030V090 9999 FEW098/// 05/M01 Q1029=
202304081950 METAR ESMX 081950Z AUTO 06005KT 9999 NCD 06/M00 Q1029=
202304081920 METAR ESMX 081920Z AUTO 06006KT 030V090 9999 SCT098/// 07/01 Q1029=
202304081850 METAR ESMX 081850Z AUTO 03006KT 010V070 9999 BKN098/// 07/01 Q1029=
202304081820 METAR ESMX 081820Z AUTO 06005KT 030V100 9999 SCT098/// 08/02 Q1029=
202304081750 METAR ESMX 081750Z AUTO 04004KT 010V070 9999 NCD 09/02 Q1028=
202304081720 METAR ESMX 081720Z AUTO 04006KT 010V070 9999 FEW098/// 10/02 Q1028=
202304081650 METAR ESMX 081650Z AUTO 02006KT 9999 OVC098/// 11/02 Q1028=
202304081620 METAR ESMX 081620Z AUTO 02007KT 9999 OVC098/// 11/02 Q1028=
202304081550 METAR ESMX 081550Z AUTO 36008KT 9999 OVC098/// 11/03 Q1028=
202304081520 METAR ESMX 081520Z AUTO 34008KT 9999 OVC096/// 11/03 Q1028=
202304081450 METAR ESMX 081450Z AUTO 34011KT 9999 OVC098/// 11/03 Q1028=
202304081420 METAR ESMX 081420Z AUTO 36009KT 9999 OVC098/// 13/02 Q1028=
202304081350 METAR ESMX 081350Z AUTO 03009KT 360V070 9999 OVC098/// 13/01 Q1028=
202304081320 METAR ESMX 081320Z AUTO 36008KT 330V050 9999 OVC098/// 14/02 Q1028=
202304081250 METAR ESMX 081250Z AUTO 04008KT 010V080 9999 NCD 13/01 Q1028=
202304081220 METAR ESMX 081220Z AUTO 01009KT 9999 SCT098/// 12/02 Q1028=
202304081150 METAR ESMX 081150Z AUTO 34009KT 9999 OVC098/// 12/02 Q1028=
202304081120 METAR ESMX 081120Z AUTO 35009KT 9999 FEW051/// BKN098/// 12/02 Q1028=
202304081050 METAR ESMX 081050Z AUTO 36009KT 9999 OVC098/// 10/02 Q1029=
202304081020 METAR ESMX 081020Z AUTO 36010KT 9999 OVC098/// 09/02 Q1029=
202304080950 METAR ESMX 080950Z AUTO 35009KT 9999 OVC096/// 09/03 Q1029=
202304080920 METAR ESMX 080920Z AUTO 02009KT 360V060 9999 OVC098/// 09/03 Q1029=
202304080850 METAR ESMX 080850Z 02008KT 350V050 CAVOK 08/02 Q1029=
202304080820 METAR ESMX 080820Z 03007KT CAVOK 07/02 Q1029=
202304080750 METAR ESMX 080750Z 35008KT 9999 OVC094 06/02 Q1028=
202304080720 METAR ESMX 080720Z 02009KT 9999 FEW006 BKN094 04/02 Q1028=
202304080650 METAR ESMX 080650Z 01008KT 9999 FEW006 BKN094 04/01 Q1028=
202304080620 METAR ESMX 080620Z 02007KT 9999 SCT006 BKN094 02/02 Q1028=
202304080550 METAR ESMX 080550Z AUTO 03008KT 9999 OVC005/// 02/02 Q1028=
202304080520 METAR ESMX 080520Z AUTO 03008KT 9999 OVC004/// 02/02 Q1028=
202304080450 METAR ESMX 080450Z AUTO 01008KT 9999 OVC004/// 02/02 Q1028=
202304080420 METAR ESMX 080420Z AUTO 03008KT 9999 OVC004/// 02/02 Q1027=
202304080350 METAR ESMX 080350Z AUTO 02008KT 9999 OVC004/// 02/02 Q1027=
202304080320 METAR ESMX 080320Z AUTO 03009KT 9999 OVC004/// 02/02 Q1027=
202304080250 METAR ESMX 080250Z AUTO 03008KT 9999 OVC005/// 02/02 Q1027=
202304080220 METAR ESMX 080220Z AUTO 01006KT 9999 SCT006/// 02/01 Q1027=
202304080150 METAR ESMX 080150Z AUTO 02007KT 9999 BKN082/// 02/02 Q1027=
202304080120 METAR ESMX 080120Z AUTO 02007KT 9999 OVC082/// 02/02 Q1027=
202304080050 METAR ESMX 080050Z AUTO 04006KT 9999 BKN007/// OVC082/// 03/02 Q1027=
202304080020 METAR ESMX 080020Z AUTO 03008KT 9999 OVC008/// 02/02 Q1027=
202304072350 METAR ESMX 072350Z AUTO 03009KT 9999 SCT008/// OVC082/// 03/02 Q1027=
202304072320 METAR ESMX 072320Z AUTO 03009KT 350V060 9999 OVC008/// 03/02 Q1027=
202304072250 METAR ESMX 072250Z AUTO 03009KT 9999 OVC008/// 03/02 Q1027=
202304072220 METAR ESMX 072220Z AUTO 03009KT 9999 OVC008/// 03/02 Q1027=
202304072150 METAR ESMX 072150Z AUTO 03009KT 9999 OVC008/// 03/02 Q1027=
202304072120 METAR ESMX 072120Z AUTO 03009KT 9999 OVC008/// 03/02 Q1027=
202304072050 METAR ESMX 072050Z AUTO 03010KT 9999 OVC007/// 03/02 Q1027=
202304072020 METAR ESMX 072020Z AUTO 03008KT 9999 OVC007/// 03/02 Q1027=
202304071950 METAR ESMX 071950Z AUTO 03010KT 9999 OVC006/// 03/02 Q1027=
202304071920 METAR ESMX 071920Z AUTO 04009KT 9999 OVC006/// 03/02 Q1027=
202304071850 METAR ESMX 071850Z AUTO 04012KT 9999 OVC006/// 03/02 Q1026=
202304071820 METAR ESMX 071820Z AUTO 04012KT 9999 OVC006/// 03/02 Q1026=
202304071750 METAR ESMX 071750Z AUTO 03010KT 9999 OVC007/// 03/02 Q1026=
202304071720 METAR ESMX 071720Z AUTO 04011KT 9999 OVC008/// 03/02 Q1026=
202304071650 METAR ESMX 071650Z AUTO 04010KT 020V080 9999 OVC009/// 04/02 Q1025=
202304071620 METAR ESMX 071620Z AUTO 04010KT 020V080 9999 OVC010/// 04/02 Q1025=
202304071550 METAR ESMX 071550Z AUTO 03011KT 9999 OVC010/// 04/02 Q1025=
202304071520 METAR ESMX 071520Z AUTO 04010KT 9999 OVC011/// 04/02 Q1025=
202304071450 METAR ESMX 071450Z AUTO 05011KT 9999 OVC013/// 05/02 Q1025=
202304071420 METAR ESMX 071420Z AUTO 04013KT 9999 OVC014/// 05/02 Q1025=
202304071350 METAR ESMX 071350Z AUTO 04011KT 9999 OVC015/// 05/02 Q1025=
202304071320 METAR ESMX 071320Z AUTO 03009KT 340V050 9999 OVC016/// 05/01 Q1025=
202304071250 METAR ESMX 071250Z AUTO 03010KT 9999 OVC016/// 05/01 Q1025=
202304071220 METAR ESMX 071220Z AUTO 03011KT 9999 OVC017/// 05/01 Q1025=
202304071150 METAR ESMX 071150Z AUTO 03010KT 010V070 9999 BKN018/// OVC082/// 05/01 Q1025=
202304071120 METAR ESMX 071120Z AUTO 02009KT 9999 OVC018/// 05/01 Q1025=
202304071050 METAR ESMX 071050Z AUTO 03010KT 9999 BKN018/// OVC084/// 05/01 Q1025=
202304071020 METAR ESMX 071020Z AUTO 02008KT 350V050 9999 FEW039/// OVC082/// 04/01 Q1025=
202304070950 METAR ESMX 070950Z 02009KT 350V050 9999 FEW016 SCT041 04/00 Q1025=
202304070920 METAR COR ESMX 070920Z 02008KT 350V060 9999 FEW013 03/00 Q1025=
202304070850 METAR ESMX 070850Z 02008KT 360V060 9999 BKN011 03/00 Q1025=
202304070820 METAR ESMX 070820Z 03008KT 9999 BKN010 02/00 Q1024=
202304070750 METAR ESMX 070750Z 01008KT 9999 BKN009 01/00 Q1024=
202304070720 METAR ESMX 070720Z 36007KT 9999 BKN009 00/M00 Q1024=
202304070650 METAR ESMX 070650Z 01008KT CAVOK M00/M01 Q1024=
202304070620 METAR ESMX 070620Z 01007KT CAVOK M01/M01 Q1024=
202304070550 METAR ESMX 070550Z AUTO 35007KT 9999 OVC078/// M01/M01 Q1024=
202304070520 METAR ESMX 070520Z AUTO 35007KT 9999 FEW064/// OVC086/// M01/M02 Q1024=
202304070450 METAR ESMX 070450Z AUTO 35007KT 9999 FEW005/// OVC084/// M02/M02 Q1024=
202304070420 METAR ESMX 070420Z AUTO 36007KT 9999 BKN004/// OVC092/// M02/M02 Q1024=
202304070350 METAR ESMX 070350Z AUTO 01006KT 9999 OVC003/// M02/M02 Q1024=
202304070320 METAR ESMX 070320Z AUTO 03006KT 9999 OVC001/// M02/M02 Q1024=
202304070250 METAR ESMX 070250Z AUTO 03004KT 9999 BKN003/// M03/M03 Q1024=
202304070220 METAR ESMX 070220Z AUTO 02003KT 9999 SCT004/// M03/M03 Q1024=
202304070150 METAR ESMX 070150Z AUTO 03004KT 9999 NCD M02/M02 Q1024=
202304070120 METAR ESMX 070120Z AUTO 03005KT 9999 NCD M02/M02 Q1024=
202304070050 METAR ESMX 070050Z AUTO VRB03KT 9999 NCD M02/M02 Q1024=
202304070020 METAR ESMX 070020Z AUTO VRB03KT 9999 NCD M02/M03 Q1024=
202304062350 METAR ESMX 062350Z AUTO VRB03KT 9999 NCD M02/M02 Q1024=
202304062320 METAR ESMX 062320Z AUTO 04003KT 9999 NCD M03/M03 Q1024=
202304062250 METAR ESMX 062250Z AUTO 04001KT 9999 NCD M03/M03 Q1024=
202304062220 METAR ESMX 062220Z AUTO 14001KT 9999 NCD M02/M03 Q1024=
202304062150 METAR ESMX 062150Z AUTO 00000KT 9999 NCD M01/M03 Q1024=
202304062120 METAR ESMX 062120Z AUTO VRB02KT 9999 NCD M01/M03 Q1024=
202304062050 METAR ESMX 062050Z AUTO 14002KT 9999 NCD M00/M03 Q1024=
202304062020 METAR ESMX 062020Z AUTO VRB03KT 9999 NCD M00/M03 Q1024=
202304061950 METAR ESMX 061950Z AUTO 14003KT 9999 NCD 01/M03 Q1024=
202304061920 METAR ESMX 061920Z AUTO 14003KT 9999 NCD 01/M03 Q1023=
202304061850 METAR ESMX 061850Z AUTO 14004KT 9999 NCD 03/M03 Q1023=
202304061820 METAR ESMX 061820Z AUTO 14004KT 9999 NCD 04/M04 Q1023=
202304061750 METAR ESMX 061750Z AUTO 14004KT 9999 NCD 04/M04 Q1023=
202304061720 METAR ESMX 061720Z 14005KT 100V160 CAVOK 05/M04 Q1022=
202304061650 METAR ESMX 061650Z 14007KT 110V170 CAVOK 06/M04 Q1022=
202304061620 METAR ESMX 061620Z 15006KT 070V190 9999 SCT047 07/M04 Q1022=
202304061550 METAR COR ESMX 061550Z 14006KT 090V170 CAVOK 07/M04 Q1022=
202304061520 METAR ESMX 061520Z 14007KT 080V180 9999 SCT049 07/M04 Q1022=
202304061450 METAR ESMX 061450Z 12006KT 030V160 9999 SCT048 07/M04 Q1022=
202304061420 METAR ESMX 061420Z 15006KT 120V190 9999 BKN048 07/M04 Q1022=
202304061350 METAR ESMX 061350Z VRB06KT 9999 BKN047 07/M04 Q1023=
202304061320 METAR ESMX 061320Z 14006KT 090V170 9999 BKN043 07/M04 Q1023=
202304061250 METAR ESMX 061250Z 13008KT 080V170 9999 BKN039 07/M03 Q1023=
202304061220 METAR ESMX 061220Z 13006KT 070V160 9999 BKN036 06/M02 Q1023=
202304061150 METAR ESMX 061150Z VRB05KT 9999 BKN029 06/M00 Q1023=
202304061120 METAR COR ESMX 061120Z 14007KT 100V160 9999 BKN024 05/M01 Q1023=
202304061050 METAR ESMX 061050Z 10006KT 050V150 9999 BKN020 04/M00 Q1023=
202304061020 METAR ESMX 061020Z 13005KT 090V160 9999 BKN017 03/M00 Q1024=
202304060950 METAR ESMX 060950Z 14007KT 080V170 9999 BKN017 03/M00 Q1023=
202304060920 METAR ESMX 060920Z 13007KT 100V180 9999 BKN015 04/M01 Q1023=
202304060850 METAR ESMX 060850Z 14008KT 100V160 9999 BKN015 03/M01 Q1023=
202304060820 METAR ESMX 060820Z 13006KT 090V160 9999 SCT013 02/M00 Q1023=
202304060750 METAR ESMX 060750Z 14007KT 100V160 9999 BKN011 02/M00 Q1023=
202304060720 METAR ESMX 060720Z 14007KT 100V170 9999 BKN010 02/M00 Q1023=
202304060650 METAR ESMX 060650Z 14008KT 9999 SCT010 BKN028 01/00 Q1022=
202304060620 METAR COR ESMX 060620Z 14008KT 9000 -SN SCT010 BKN022 01/M00 Q1022=
202304060550 METAR ESMX 060550Z AUTO 14008KT 9999 -SN BKN009/// OVC021/// 01/M00 Q1022=
202304060520 METAR ESMX 060520Z AUTO 14007KT 9999 -SN BKN009/// OVC018/// 01/00 Q1022=
202304060450 METAR ESMX 060450Z AUTO 14008KT 9999 -DZ SCT011/// OVC016/// 01/00 Q1022 REUP=
202304060420 METAR ESMX 060420Z AUTO 14008KT 9999 -DZ BKN011/// OVC016/// 01/00 Q1021=
202304060350 METAR ESMX 060350Z AUTO 15008KT 9999 -DZ SCT002/// BKN005/// BKN009/// 01/00 Q1021=
202304060320 METAR ESMX 060320Z AUTO 15010KT 2500 -SN SCT002/// OVC006/// 01/00 Q1020 REUP=
202304060250 METAR ESMX 060250Z AUTO 14009KT 8000 UP FEW002/// OVC004/// 01/01 Q1020=
202304060220 METAR ESMX 060220Z AUTO 14008KT 080V160 6000 -RA OVC004/// 00/00 Q1020 REUP=
202304060150 METAR ESMX 060150Z AUTO 13007KT 100V170 7000 UP SCT002/// OVC004/// 00/00 Q1020=
202304060120 METAR ESMX 060120Z AUTO 13008KT 100V170 8000 UP OVC005/// 00/00 Q1019=
202304060050 METAR ESMX 060050Z AUTO 14006KT 090V160 8000 -SN FEW002/// OVC005/// M00/M00 Q1019 REFZUP=
202304060020 METAR ESMX 060020Z AUTO 12006KT 040V160 5000 -SN SCT002/// OVC005/// M00/M00 Q1019=
202304052350 METAR ESMX 052350Z 08005KT 040V120 2000 SN BKN002 M01/M01 Q1020=
202304052320 METAR COR ESMX 052320Z 07005KT 340V120 1000 R01/P2000N R19/P2000N SN BKN002 M01/M01 Q1020=
202304052250 METAR COR ESMX 052250Z 07004KT 030V100 1800 SN BKN002 M01/M01 Q1020=
202304052220 METAR COR ESMX 052220Z 08003KT 030V110 1800 SN BKN002 M01/M01 Q1020=
202304052150 METAR COR ESMX 052150Z 12004KT 080V140 2200 -SN BKN002 M01/M01 Q1020=
202304052120 METAR COR ESMX 052120Z VRB03KT 2400 -SN BKN002 M01/M01 Q1020=
202304052050 METAR COR ESMX 052050Z 10004KT 2000 -SN BKN002 M01/M01 Q1020=
202304052020 METAR ESMX 052020Z 11003KT 060V140 2400 SN BKN003 M01/M01 Q1020=
202304051950 METAR COR ESMX 051950Z 10003KT 060V150 2100 SN BKN002 M01/M01 Q1021=
202304051920 METAR ESMX 051920Z AUTO 11003KT 070V140 1700 -SN SCT001/// BKN009/// OVC023/// M01/M01 Q1021=
202304051850 METAR ESMX 051850Z AUTO VRB03KT 4100 FZUP FEW002/// SCT005/// BKN009/// M01/M01 Q1020=
202304051820 METAR ESMX 051820Z AUTO VRB02KT 4000 -SN SCT004/// BKN019/// BKN053/// M01/M01 Q1020 REFZUP=
202304051750 METAR ESMX 051750Z AUTO VRB03KT 4300 -SN BKN002/// OVC066/// M01/M01 Q1020=
202304051720 METAR ESMX 051720Z AUTO 35003KT 7000 -SN FEW002/// SCT005/// BKN008/// M01/M02 Q1020 REFZUP=
202304051650 METAR ESMX 051650Z AUTO VRB03KT 9999 FZUP SCT008/// BKN023/// OVC068/// M00/M01 Q1020=
202304051620 METAR ESMX 051620Z AUTO 02005KT 8000 FZUP FEW005/// SCT020/// BKN029/// M01/M01 Q1020=
202304051550 METAR ESMX 051550Z AUTO 02005KT 350V050 2000 -SN FEW002/// SCT005/// BKN013/// M01/M01 Q1021=
202304051520 METAR ESMX 051520Z AUTO 01007KT 1600 -SN VV017 M00/M01 Q1021=
202304051450 METAR ESMX 051450Z AUTO 36011KT 6000 -RA ///027/// 01/M03 Q1021 REUP=
202304051420 METAR ESMX 051420Z AUTO 02010KT 340V050 9999 FEW003/// BKN044/// OVC068/// 04/M09 Q1020=
202304051350 METAR ESMX 051350Z 35005KT 320V030 9999 FEW040 04/M11 Q1020=
202304051320 METAR ESMX 051320Z 05006KT 020V080 CAVOK 04/M11 Q1020=
202304051250 METAR ESMX 051250Z 07004KT 360V110 CAVOK 04/M11 Q1020=
202304051220 METAR ESMX 051220Z 06005KT 020V110 CAVOK 04/M12 Q1021=
202304051150 METAR ESMX 051150Z 02006KT 340V070 CAVOK 04/M13 Q1021=
202304051120 METAR ESMX 051120Z 06006KT 010V100 CAVOK 04/M11 Q1021=
202304051050 METAR ESMX 051050Z 03007KT 340V060 CAVOK 04/M10 Q1021=
202304051020 METAR ESMX 051020Z 04007KT 010V080 CAVOK 04/M09 Q1021=
202304050950 METAR ESMX 050950Z 05009KT 020V080 CAVOK 04/M08 Q1021=
202304050920 METAR ESMX 050920Z 04009KT 9999 FEW034 04/M06 Q1022=
202304050850 METAR ESMX 050850Z 02007KT 340V060 9999 FEW034 04/M05 Q1022=
202304050820 METAR ESMX 050820Z 01008KT 330V060 9999 FEW028 03/M05 Q1022=
202304050750 METAR ESMX 050750Z 36010KT 9999 FEW026 03/M03 Q1022=
202304050720 METAR ESMX 050720Z 35007KT CAVOK 02/M02 Q1022=
202304050650 METAR ESMX 050650Z 35006KT CAVOK 02/M02 Q1022=
202304050620 METAR ESMX 050620Z 36006KT CAVOK 01/M01 Q1022=
202304050550 METAR ESMX 050550Z AUTO 35006KT 9999 NCD M00/M01 Q1023=
202304050520 METAR ESMX 050520Z AUTO 33001KT 9999 NCD M03/M03 Q1023=
202304050450 METAR ESMX 050450Z AUTO 31002KT 9999 NCD M03/M03 Q1023=
202304050420 METAR ESMX 050420Z AUTO 31002KT 9999 BKN042/// M02/M03 Q1023=
202304050350 METAR ESMX 050350Z AUTO 30002KT 9999 SCT024/// BKN045/// M02/M02 Q1023=
202304050320 METAR ESMX 050320Z AUTO 29002KT 9999 OVC027/// M01/M02 Q1023=
202304050250 METAR ESMX 050250Z AUTO VRB02KT 9999 SCT033/// BKN046/// M02/M02 Q1023=
202304050220 METAR ESMX 050220Z AUTO VRB01KT 9999 OVC046/// M01/M02 Q1023=
202304050150 METAR ESMX 050150Z AUTO 24001KT 9999 OVC048/// M01/M02 Q1024=
202304050120 METAR ESMX 050120Z AUTO 00000KT 9999 OVC047/// M01/M02 Q1024=
202304050050 METAR ESMX 050050Z AUTO 00000KT 9999 OVC048/// M00/M02 Q1024=
202304050020 METAR ESMX 050020Z AUTO 00000KT 9999 OVC048/// M00/M02 Q1024=
202304042350 METAR ESMX 042350Z AUTO 00000KT 9999 OVC049/// M00/M02 Q1024=
202304042320 METAR ESMX 042320Z 00000KT 9999 OVC049 M00/M02 Q1025=
202304042250 METAR ESMX 042250Z 00000KT CAVOK M01/M03 Q1025=
202304042220 METAR ESMX 042220Z 02002KT CAVOK 00/M02 Q1025=
202304042150 METAR ESMX 042150Z 35002KT CAVOK M00/M03 Q1025=
202304042120 METAR ESMX 042120Z 02003KT CAVOK 01/M03 Q1025=
202304042050 METAR ESMX 042050Z 03002KT CAVOK 02/M03 Q1025=
202304042020 METAR ESMX 042020Z 03005KT CAVOK 02/M04 Q1025=
202304041950 METAR COR ESMX 041950Z 03005KT CAVOK 03/M04 Q1025=
202304041920 METAR ESMX 041920Z AUTO 01005KT 9999 FEW034/// OVC062/// 03/M03 Q1025=
202304041850 METAR ESMX 041850Z AUTO 01005KT 9999 SCT034/// OVC061/// 04/M03 Q1025=
202304041820 METAR ESMX 041820Z AUTO 01007KT 9999 BKN038/// OVC061/// 04/M04 Q1025=
202304041750 METAR ESMX 041750Z AUTO 02008KT 9999 SCT040/// OVC062/// 04/M04 Q1025 RESHUP REUP=
202304041720 METAR ESMX 041720Z AUTO 01008KT 9999 UP BKN049/// OVC062/// 05/M04 Q1025=
202304041650 METAR ESMX 041650Z AUTO 35006KT 9999 BKN042/// OVC059/// 05/M04 Q1025=
202304041620 METAR ESMX 041620Z AUTO 02005KT 330V070 9999 OVC049/// 05/M04 Q1025=
202304041550 METAR ESMX 041550Z AUTO 01010KT 9999 OVC051/// 06/M05 Q1025=
202304041520 METAR ESMX 041520Z AUTO 03007KT 350V050 9999 BKN051/// OVC064/// 06/M05 Q1025=
202304041450 METAR ESMX 041450Z AUTO 36008KT 9999 OVC066/// 06/M05 Q1025=
202304041420 METAR ESMX 041420Z AUTO 35008KT 9999 OVC070/// 07/M05 Q1025=
202304041350 METAR ESMX 041350Z 36010KT CAVOK 07/M05 Q1025=
202304041320 METAR ESMX 041320Z 01011KT CAVOK 06/M05 Q1025=
202304041250 METAR ESMX 041250Z 35011KT CAVOK 07/M05 Q1025=
202304041220 METAR ESMX 041220Z 01009KT 340V050 CAVOK 07/M06 Q1025=
202304041150 METAR ESMX 041150Z 36011KT 330V030 CAVOK 08/M06 Q1025=
202304041120 METAR ESMX 041120Z 01009KT 330V050 CAVOK 08/M06 Q1026=
202304041050 METAR ESMX 041050Z 01010KT 340V040 CAVOK 08/M06 Q1026=
202304041020 METAR ESMX 041020Z 34009KT 310V010 CAVOK 07/M06 Q1026=
202304040950 METAR ESMX 040950Z 34011KT 320V020 CAVOK 06/M06 Q1026=
202304040920 METAR ESMX 040920Z 34009KT 300V010 CAVOK 06/M07 Q1026=
202304040850 METAR ESMX 040850Z 32011KT 290V350 CAVOK 06/M07 Q1026=
202304040820 METAR ESMX 040820Z 34009KT 290V360 CAVOK 05/M07 Q1027=
202304040750 METAR ESMX 040750Z 30006KT 260V330 CAVOK 04/M05 Q1027=
202304040720 METAR ESMX 040720Z 27005KT 250V320 CAVOK 02/M06 Q1027=
202304040650 METAR ESMX 040650Z 30005KT CAVOK 01/M05 Q1027=
202304040620 METAR ESMX 040620Z 30004KT CAVOK M01/M05 Q1027=
202304040550 METAR ESMX 040550Z 00000KT CAVOK M02/M06 Q1027=
202304040520 METAR ESMX 040520Z 00000KT CAVOK M04/M05 Q1028=
202304040450 METAR ESMX 040450Z 00000KT CAVOK M05/M06 Q1028=
202304040420 METAR ESMX 040420Z 00000KT CAVOK M05/M06 Q1028=
202304040350 METAR ESMX 040350Z 19002KT CAVOK M06/M06 Q1028=
202304040320 METAR ESMX 040320Z AUTO 00000KT 9999 FEW150/// M06/M07 Q1028=
202304040250 METAR ESMX 040250Z AUTO 00000KT 9999 NCD M06/M07 Q1029=
202304040220 METAR ESMX 040220Z AUTO 00000KT 9999 NCD M07/M07 Q1029=
202304040150 METAR ESMX 040150Z AUTO 00000KT 9999 FEW140/// M07/M08 Q1029=
202304040120 METAR ESMX 040120Z AUTO 00000KT 9999 FEW140/// M06/M06 Q1029=
202304040050 METAR ESMX 040050Z AUTO 00000KT 9999 NCD M06/M07 Q1029=
202304040020 METAR ESMX 040020Z AUTO 00000KT 9999 NCD M06/M07 Q1030=
202304032350 METAR ESMX 032350Z 00000KT CAVOK M06/M06 Q1030=
202304032320 METAR ESMX 032320Z AUTO 00000KT 9999 NCD M06/M07 Q1030=
202304032250 METAR ESMX 032250Z AUTO 00000KT 9999 NCD M06/M08 Q1030=
202304032220 METAR ESMX 032220Z AUTO 00000KT 9999 NCD M05/M07 Q1030=
202304032150 METAR ESMX 032150Z AUTO 00000KT 9999 NCD M04/M07 Q1030=
202304032120 METAR ESMX 032120Z AUTO 00000KT 9999 NCD M05/M06 Q1031=
202304032050 METAR ESMX 032050Z AUTO 00000KT 9999 NCD M03/M06 Q1031=
202304032020 METAR ESMX 032020Z 00000KT CAVOK M04/M06 Q1031=
202304031950 METAR ESMX 031950Z AUTO 00000KT 9999 NCD M03/M06 Q1031=
202304031920 METAR ESMX 031920Z 00000KT CAVOK M02/M06 Q1031=
202304031850 METAR ESMX 031850Z 00000KT CAVOK M02/M08 Q1031=
202304031820 METAR ESMX 031820Z 00000KT CAVOK 01/M09 Q1031=
202304031750 METAR ESMX 031750Z 01005KT CAVOK 02/M10 Q1031=
202304031720 METAR ESMX 031720Z 34006KT CAVOK 03/M10 Q1031=
202304031650 METAR ESMX 031650Z 33007KT CAVOK 04/M10 Q1031=
202304031620 METAR ESMX 031620Z 34006KT 280V010 CAVOK 05/M10 Q1031=
202304031550 METAR COR ESMX 031550Z 35007KT 310V020 CAVOK 05/M10 Q1031=
202304031520 METAR COR ESMX 031520Z 01006KT CAVOK 05/M10 Q1032=
202304031450 METAR ESMX 031450Z AUTO 35007KT 9999 NCD 05/M10 Q1032=
202304031420 METAR ESMX 031420Z 35004KT 310V100 CAVOK 05/M10 Q1032=
202304031350 METAR ESMX 031350Z 02004KT 300V080 CAVOK 05/M10 Q1033=
202304031320 METAR ESMX 031320Z VRB05KT CAVOK 05/M10 Q1033=
202304031250 METAR ESMX 031250Z VRB05KT CAVOK 05/M11 Q1033=
202304031220 METAR ESMX 031220Z VRB05KT CAVOK 05/M09 Q1033=
202304031150 METAR ESMX 031150Z 33006KT 290V010 CAVOK 04/M11 Q1034=
202304031120 METAR ESMX 031120Z 01006KT 300V110 CAVOK 04/M10 Q1034=
202304031050 METAR ESMX 031050Z 36007KT 320V060 CAVOK 03/M10 Q1034=
202304031020 METAR ESMX 031020Z 01009KT 330V050 CAVOK 03/M10 Q1034=
202304030950 METAR ESMX 030950Z 02010KT 350V050 CAVOK 02/M10 Q1035=
202304030920 METAR ESMX 030920Z 36010KT CAVOK 01/M09 Q1035=
202304030850 METAR ESMX 030850Z 36006KT 320V030 CAVOK 00/M08 Q1035=
202304030820 METAR ESMX 030820Z AUTO 01007KT 9999 NCD M01/M07 Q1035=
202304030750 METAR ESMX 030750Z 35008KT CAVOK M01/M07 Q1035=
202304030720 METAR ESMX 030720Z 35007KT CAVOK M02/M07 Q1035=
202304030650 METAR ESMX 030650Z 36007KT 330V030 CAVOK M02/M07 Q1035=
202304030620 METAR ESMX 030620Z 35007KT CAVOK M03/M07 Q1035=
202304030550 METAR ESMX 030550Z AUTO 36007KT 9999 NCD M03/M07 Q1035=
202304030520 METAR ESMX 030520Z 36006KT CAVOK M04/M07 Q1035=
202304030450 METAR ESMX 030450Z 36007KT CAVOK M05/M07 Q1035=
202304030420 METAR ESMX 030420Z 36007KT CAVOK M05/M07 Q1034=
202304030350 METAR ESMX 030350Z 35006KT CAVOK M04/M07 Q1034=
202304030320 METAR ESMX 030320Z AUTO 35006KT 9999 NCD M05/M07 Q1034=
202304030250 METAR ESMX 030250Z AUTO 01006KT 9999 NCD M03/M06 Q1034=
202304030220 METAR ESMX 030220Z AUTO 35006KT 9999 NCD M04/M07 Q1034=
202304030150 METAR ESMX 030150Z AUTO 02006KT 9999 NCD M02/M07 Q1034=
202304030120 METAR ESMX 030120Z AUTO 02005KT 9999 NCD M03/M06 Q1034=
202304030050 METAR ESMX 030050Z AUTO 01006KT 9999 NCD M03/M05 Q1034=
202304030020 METAR ESMX 030020Z AUTO 36006KT 9999 NCD M03/M05 Q1034=
202304022350 METAR ESMX 022350Z AUTO 35003KT 9999 FEW025/// M04/M05 Q1034=
202304022320 METAR ESMX 022320Z AUTO 36003KT 9999 NCD M02/M04 Q1033=
202304022250 METAR ESMX 022250Z AUTO 01004KT 9999 NCD M02/M05 Q1033=
202304022220 METAR ESMX 022220Z AUTO 03004KT 9999 NCD M01/M05 Q1033=
202304022150 METAR ESMX 022150Z AUTO 03004KT 360V070 9999 NCD M01/M05 Q1033=
202304022120 METAR ESMX 022120Z AUTO 05004KT 010V090 9999 NCD 00/M05 Q1033=
202304022050 METAR ESMX 022050Z AUTO 06004KT 020V090 9999 NCD 00/M05 Q1033=
202304022020 METAR ESMX 022020Z AUTO 05005KT 020V100 9999 NCD 01/M05 Q1032=
202304021950 METAR ESMX 021950Z AUTO 04005KT 9999 NCD 02/M08 Q1032=
202304021920 METAR ESMX 021920Z AUTO 01007KT 9999 FEW062/// 02/M08 Q1032=
202304021850 METAR ESMX 021850Z AUTO 01007KT 9999 OVC062/// 03/M08 Q1031=
202304021820 METAR ESMX 021820Z AUTO 02006KT 9999 FEW064/// 02/M09 Q1031=
202304021750 METAR ESMX 021750Z AUTO 02007KT 9999 NCD 03/M09 Q1030=
202304021720 METAR ESMX 021720Z AUTO 03010KT 350V050 9999 FEW066/// 04/M09 Q1030=
202304021650 METAR ESMX 021650Z AUTO 03007KT 350V050 9999 NCD 05/M10 Q1030=
202304021620 METAR ESMX 021620Z AUTO 03010KT 9999 NCD 06/M10 Q1029=
202304021550 METAR ESMX 021550Z AUTO 03009KT 9999 NCD 06/M11 Q1029=
202304021520 METAR ESMX 021520Z 04010KT 010V070 CAVOK 06/M11 Q1029=
202304021450 METAR ESMX 021450Z 01009KT 340V050 CAVOK 06/M12 Q1029=
202304021420 METAR ESMX 021420Z 03010KT 350V050 CAVOK 06/M12 Q1029=
202304021350 METAR ESMX 021350Z 02009KT 340V060 CAVOK 06/M11 Q1028=
202304021320 METAR ESMX 021320Z 03007KT 340V100 CAVOK 06/M10 Q1028=
202304021250 METAR ESMX 021250Z 04009KT 350V100 CAVOK 06/M10 Q1028=
202304021220 METAR ESMX 021220Z 03010KT 350V050 CAVOK 06/M10 Q1028=
202304021150 METAR ESMX 021150Z 04009KT 010V100 CAVOK 06/M10 Q1028=
202304021120 METAR ESMX 021120Z 02010KT 350V060 CAVOK 05/M09 Q1027=
202304021050 METAR ESMX 021050Z 03011KT 350V090 CAVOK 05/M09 Q1027=
202304021020 METAR ESMX 021020Z 02010KT 350V060 CAVOK 05/M08 Q1027=
202304020950 METAR ESMX 020950Z 04013KT CAVOK 04/M09 Q1026=
202304020920 METAR ESMX 020920Z AUTO 04012KT 020V080 9999 NCD 04/M08 Q1026=
202304020850 METAR ESMX 020850Z AUTO 01011KT 350V050 9999 NCD 04/M07 Q1026=
202304020820 METAR ESMX 020820Z AUTO 01010KT 9999 NCD 02/M07 Q1025=
202304020750 METAR ESMX 020750Z AUTO 02009KT 340V050 9999 NCD 02/M07 Q1025=
202304020720 METAR ESMX 020720Z AUTO 36009KT 9999 NCD 00/M06 Q1024=
202304020650 METAR ESMX 020650Z AUTO 02009KT 350V050 9999 NCD M01/M07 Q1024=
202304020620 METAR ESMX 020620Z AUTO 01009KT 9999 NCD M01/M06 Q1024=
202304020550 METAR ESMX 020550Z AUTO 01009KT 9999 NCD M02/M07 Q1023=
202304020520 METAR ESMX 020520Z AUTO 01010KT 9999 NCD M03/M07 Q1023=
202304020450 METAR ESMX 020450Z AUTO 01009KT 9999 NCD M03/M07 Q1022=
202304020420 METAR ESMX 020420Z AUTO 02009KT 9999 NCD M03/M07 Q1022=
202304020350 METAR ESMX 020350Z AUTO 01009KT 9999 NCD M02/M06 Q1021=
202304020320 METAR ESMX 020320Z AUTO 02010KT 9999 NCD M02/M06 Q1021=
202304020250 METAR ESMX 020250Z AUTO 01009KT 9999 NCD M02/M06 Q1020=
202304020220 METAR ESMX 020220Z AUTO 01009KT 9999 NCD M02/M05 Q1020=
202304020150 METAR ESMX 020150Z AUTO 02010KT 9999 NCD M02/M05 Q1020=
202304020120 METAR ESMX 020120Z AUTO 01009KT 9999 NCD M01/M05 Q1019=
202304020050 METAR ESMX 020050Z AUTO 01010KT 9999 NCD M01/M05 Q1019=
202304020020 METAR ESMX 020020Z AUTO 01010KT 9999 NCD M01/M05 Q1019=
202304012350 METAR ESMX 012350Z AUTO 01010KT 9999 NCD M01/M04 Q1018=
202304012320 METAR ESMX 012320Z AUTO 01009KT 9999 NCD M01/M04 Q1018=
202304012250 METAR ESMX 012250Z AUTO 01009KT 9999 NCD M01/M03 Q1018=
202304012220 METAR ESMX 012220Z AUTO 36008KT 9999 NCD M01/M03 Q1018=
202304012150 METAR ESMX 012150Z AUTO 01007KT 9999 NCD M01/M03 Q1017=
202304012120 METAR ESMX 012120Z AUTO 01007KT 9999 NCD M01/M03 Q1017=
202304012050 METAR ESMX 012050Z AUTO 01006KT 9999 NCD M01/M03 Q1017=
202304012020 METAR ESMX 012020Z AUTO 01006KT 9999 NCD M00/M03 Q1016=
202304011950 METAR ESMX 011950Z AUTO 01007KT 9999 NCD M00/M03 Q1016=
202304011920 METAR ESMX 011920Z AUTO 36007KT 9999 NCD M00/M04 Q1015=
202304011850 METAR ESMX 011850Z AUTO 36006KT 9999 NCD 00/M05 Q1015=
202304011820 METAR ESMX 011820Z AUTO 02006KT 9999 NCD 01/M05 Q1014=
202304011750 METAR ESMX 011750Z AUTO 03009KT 9999 NCD 02/M06 Q1014=
202304011720 METAR ESMX 011720Z AUTO 04009KT 9999 NCD 03/M05 Q1014=
202304011650 METAR ESMX 011650Z AUTO 04012KT 9999 NCD 04/M05 Q1013=
202304011620 METAR ESMX 011620Z AUTO 03013KT 010V070 9999 NCD 04/M05 Q1013=
202304011550 METAR ESMX 011550Z AUTO 04013KT 010V070 9999 NCD 04/M05 Q1012=
202304011520 METAR ESMX 011520Z AUTO 04014KT 010V070 9999 NCD 04/M06 Q1012=
202304011450 METAR ESMX 011450Z AUTO 05014KT 9999 NCD 05/M06 Q1011=
202304011420 METAR ESMX 011420Z AUTO 02013KT 350V050 9999 NCD 05/M06 Q1011=
202304011350 METAR ESMX 011350Z AUTO 03015KT 010V080 9999 NCD 04/M05 Q1011=
202304011320 METAR ESMX 011320Z AUTO 03013KT 350V070 9999 NCD 04/M05 Q1010=
202304011250 METAR ESMX 011250Z AUTO 03015KT 9999 NCD 04/M05 Q1010=
202304011220 METAR ESMX 011220Z AUTO 04013KT 360V060 9999 NCD 04/M05 Q1010=
