##########################################################
# Query made at 04/19/2024 22:30:12 UTC
# Time interval: from 02/01/2023 12:00  to 02/28/2023 12:59  UTC
##########################################################

##########################################################
# ESMX, Vaxjo (Sweden)
# WMO index: 02641. WIGOS ID: 0-20000-0-02648
# Latitude 56-51N. Longitude 014-50E. Altitude 199 m.
##########################################################

202302281250 METAR ESMX 281250Z 29007KT CAVOK 08/01 Q1028=
202302281220 METAR ESMX 281220Z 29006KT 260V350 CAVOK 08/01 Q1028=
202302281150 METAR ESMX 281150Z 32006KT 290V350 CAVOK 08/01 Q1029=
202302281120 METAR ESMX 281120Z 28005KT 240V320 CAVOK 07/01 Q1029=
202302281050 METAR ESMX 281050Z 29006KT 250V320 CAVOK 07/02 Q1029=
202302281020 METAR ESMX 281020Z 28005KT CAVOK 06/01 Q1029=
202302280950 METAR ESMX 280950Z 28004KT 240V300 CAVOK 05/01 Q1029=
202302280920 METAR ESMX 280920Z 27004KT CAVOK 04/02 Q1029=
202302280850 METAR ESMX 280850Z 22003KT CAVOK 02/02 Q1029=
202302280820 METAR ESMX 280820Z 22003KT CAVOK 01/01 Q1029=
202302280750 METAR ESMX 280750Z 22002KT CAVOK M00/M00 Q1029=
202302280720 METAR ESMX 280720Z 22003KT CAVOK M02/M02 Q1029=
202302280650 METAR COR ESMX 280650Z 00000KT CAVOK M04/M04 Q1029=
202302280620 METAR ESMX 280620Z 22003KT CAVOK M03/M03 Q1029=
202302280550 METAR ESMX 280550Z 00000KT CAVOK M05/M05 Q1029=
202302280520 METAR ESMX 280520Z 22002KT CAVOK M04/M04 Q1029=
202302280450 METAR COR ESMX 280450Z 17002KT CAVOK M03/M03 Q1029=
202302280420 METAR ESMX 280420Z AUTO 22002KT 9999 NCD M03/M03 Q1029=
202302280350 METAR ESMX 280350Z AUTO 18002KT 8000 NCD M02/M02 Q1029=
202302280320 METAR ESMX 280320Z AUTO 00000KT 0400 R01/P2000N R19/P2000N BCFG NCD M03/M03 Q1029=
202302280250 METAR ESMX 280250Z AUTO 00000KT 1000 R01/P2000N R19/P2000N BR NCD M02/M02 Q1029=
202302280220 METAR ESMX 280220Z AUTO 22002KT 9000 NCD M01/M01 Q1029=
202302280150 METAR ESMX 280150Z AUTO 22005KT 9999 NCD M01/M01 Q1029=
202302280120 METAR ESMX 280120Z AUTO 24003KT 1200 R01/P2000N R19/1700N NCD M02/M02 Q1029=
202302280050 METAR ESMX 280050Z 00000KT 2000 R01/P2000D R19/0800U BCFG NSC M03/M03 Q1030=
202302280020 METAR ESMX 280020Z 29001KT 1000 R01/P2000N R19/0700N BCFG NSC M03/M03 Q1030=
202302272350 METAR COR ESMX 272350Z 24002KT 2000 R01/P2000N R19/1200U BCFG NSC M03/M03 Q1030=
202302272320 METAR ESMX 272320Z 00000KT 2500 R01/P1300N R19/0500N BCFG NSC M02/M02 Q1030=
202302272250 METAR ESMX 272250Z 23004KT 8000 R01/P2000N R19/P0550N BCFG NSC M01/M01 Q1030=
202302272220 METAR ESMX 272220Z 22004KT 8000 BCFG NSC M01/M01 Q1030=
202302272150 METAR ESMX 272150Z AUTO 22003KT 9999 NCD M01/M01 Q1030=
202302272120 METAR ESMX 272120Z 18002KT 4000 BCFG NSC M02/M02 Q1030=
202302272050 METAR ESMX 272050Z 00000KT 8000 NSC M02/M02 Q1030=
202302272020 METAR ESMX 272020Z 17002KT CAVOK M01/M01 Q1030=
202302271950 METAR ESMX 271950Z 25003KT CAVOK M01/M01 Q1030=
202302271920 METAR ESMX 271920Z 00000KT 9999 MIFG NSC M01/M01 Q1029=
202302271850 METAR ESMX 271850Z 17002KT CAVOK M00/M00 Q1029=
202302271820 METAR ESMX 271820Z 00000KT CAVOK M00/M00 Q1029=
202302271750 METAR ESMX 271750Z 00000KT CAVOK 01/01 Q1029=
202302271720 METAR ESMX 271720Z 27003KT CAVOK 01/01 Q1029=
202302271650 METAR ESMX 271650Z 29002KT CAVOK 03/02 Q1029=
202302271620 METAR ESMX 271620Z VRB02KT 9999 FEW046 BKN059 04/02 Q1029=
202302271550 METAR ESMX 271550Z 36002KT CAVOK 05/02 Q1029=
202302271520 METAR ESMX 271520Z 35003KT 9999 SCT019 05/02 Q1028=
202302271450 METAR ESMX 271450Z 01004KT 9999 BKN017 05/02 Q1028=
202302271420 METAR ESMX 271420Z 34005KT 9999 BKN018 05/02 Q1028=
202302271350 METAR ESMX 271350Z 01005KT 9999 BKN018 05/02 Q1028=
202302271320 METAR ESMX 271320Z 01004KT 9999 SCT019 05/02 Q1028=
202302271250 METAR ESMX 271250Z 36005KT CAVOK 04/01 Q1028=
202302271220 METAR ESMX 271220Z 32002KT 9999 SCT012 BKN016 03/01 Q1029=
202302271150 METAR ESMX 271150Z 36003KT 9999 SCT010 BKN014 03/00 Q1029=
202302271120 METAR ESMX 271120Z 34004KT 9999 SCT013 BKN017 03/00 Q1029=
202302271050 METAR ESMX 271050Z 35003KT 9999 BKN021 02/M00 Q1028=
202302271020 METAR ESMX 271020Z 36003KT 9999 BKN023 02/M01 Q1028=
202302270950 METAR ESMX 270950Z 01003KT 9999 FEW022 BKN062 02/M01 Q1028=
202302270920 METAR ESMX 270920Z VRB01KT CAVOK 02/M01 Q1027=
202302270850 METAR ESMX 270850Z 36003KT 9999 SCT028 00/M01 Q1027=
202302270820 METAR ESMX 270820Z VRB02KT 9999 FEW030 00/M02 Q1027=
202302270750 METAR ESMX 270750Z 00000KT 9999 BKN031 M01/M02 Q1027=
202302270720 METAR ESMX 270720Z 00000KT 9999 SCT032 BKN078 M02/M02 Q1026=
202302270650 METAR ESMX 270650Z 00000KT 9999 FEW036 BKN078 M02/M02 Q1026=
202302270620 METAR ESMX 270620Z 00000KT 9999 FEW036 BKN078 M03/M03 Q1026=
202302270550 METAR ESMX 270550Z 00000KT 9999 SCT034 BKN078 M03/M03 Q1026=
202302270520 METAR ESMX 270520Z 29004KT 9999 BKN034 BKN076 M03/M03 Q1026=
202302270450 METAR ESMX 270450Z 27002KT 9999 BKN032 M03/M03 Q1026=
202302270420 METAR ESMX 270420Z AUTO 00000KT 9999 OVC032/// M03/M03 Q1026=
202302270350 METAR ESMX 270350Z AUTO 24003KT 9999 BKN034/// OVC046/// M03/M04 Q1026=
202302270320 METAR ESMX 270320Z AUTO 16003KT 9999 OVC037/// M04/M04 Q1026=
202302270250 METAR ESMX 270250Z AUTO 27003KT 9999 FEW029/// OVC041/// M06/M06 Q1025=
202302270220 METAR ESMX 270220Z AUTO 33002KT 9999 SCT049/// BKN072/// M05/M05 Q1025=
202302270150 METAR ESMX 270150Z AUTO 30003KT 9999 BKN031/// M06/M07 Q1025=
202302270120 METAR ESMX 270120Z AUTO 32002KT 9999 FEW037/// M07/M07 Q1025=
202302270050 METAR ESMX 270050Z AUTO 30002KT 9999 NCD M06/M06 Q1025=
202302270020 METAR ESMX 270020Z AUTO 32002KT 9999 NCD M06/M06 Q1025=
202302262350 METAR ESMX 262350Z AUTO 31003KT 9999 NCD M05/M05 Q1024=
202302262320 METAR ESMX 262320Z AUTO 28002KT 9999 NCD M06/M06 Q1025=
202302262250 METAR ESMX 262250Z AUTO 30003KT 9999 NCD M06/M06 Q1024=
202302262220 METAR ESMX 262220Z AUTO 29002KT 9999 NCD M06/M06 Q1024=
202302262150 METAR ESMX 262150Z AUTO 29003KT 9999 NCD M06/M06 Q1024=
202302262120 METAR ESMX 262120Z AUTO 28002KT 9999 NCD M05/M05 Q1024=
202302262050 METAR ESMX 262050Z 29003KT CAVOK M05/M05 Q1024=
202302262020 METAR ESMX 262020Z 25002KT CAVOK M04/M04 Q1023=
202302261950 METAR ESMX 261950Z 29003KT CAVOK M04/M05 Q1023=
202302261920 METAR ESMX 261920Z 31002KT CAVOK M04/M04 Q1023=
202302261850 METAR ESMX 261850Z 33004KT CAVOK M02/M03 Q1023=
202302261820 METAR ESMX 261820Z 32004KT CAVOK M02/M03 Q1023=
202302261750 METAR ESMX 261750Z 34004KT CAVOK M02/M03 Q1023=
202302261720 METAR ESMX 261720Z 33004KT CAVOK M01/M03 Q1022=
202302261650 METAR ESMX 261650Z 33005KT CAVOK M00/M03 Q1022=
202302261620 METAR ESMX 261620Z 33007KT CAVOK 00/M03 Q1021=
202302261550 METAR ESMX 261550Z 33008KT 9999 FEW027 01/M03 Q1021=
202302261520 METAR ESMX 261520Z 33010KT 9999 FEW027 02/M03 Q1021=
202302261450 METAR ESMX 261450Z 34010KT 9999 FEW027 02/M03 Q1021=
202302261420 METAR ESMX 261420Z 33011KT 9999 SCT026 02/M03 Q1021=
202302261350 METAR ESMX 261350Z 34010KT 9999 SCT024 02/M02 Q1021=
202302261320 METAR ESMX 261320Z AUTO 33009KT 9999 FEW023/// 02/M03 Q1020=
202302261250 METAR ESMX 261250Z 32010KT 270V340 9999 SCT020 02/M02 Q1020=
202302261220 METAR ESMX 261220Z 32009KT 9999 FEW019 01/M02 Q1020=
202302261150 METAR ESMX 261150Z 33010KT CAVOK 01/M03 Q1020=
202302261120 METAR ESMX 261120Z 33011KT CAVOK 01/M03 Q1020=
202302261050 METAR ESMX 261050Z AUTO 34012KT 9999 NCD 00/M03 Q1020=
202302261020 METAR ESMX 261020Z AUTO 33011KT 9999 NCD M00/M03 Q1020=
202302260950 METAR ESMX 260950Z AUTO 34011KT 9999 NCD M01/M04 Q1020=
202302260920 METAR ESMX 260920Z AUTO 34012KT 300V360 9999 NCD M01/M04 Q1019=
202302260850 METAR ESMX 260850Z AUTO 34011KT 9999 NCD M02/M04 Q1019=
202302260820 METAR ESMX 260820Z AUTO 33009KT 9999 NCD M02/M04 Q1018=
202302260750 METAR ESMX 260750Z AUTO 32008KT 9999 NCD M03/M05 Q1018=
202302260720 METAR ESMX 260720Z AUTO 31006KT 9999 NCD M04/M05 Q1018=
202302260650 METAR ESMX 260650Z AUTO 32006KT 9999 NCD M06/M06 Q1018=
202302260620 METAR ESMX 260620Z AUTO 32006KT 9999 NCD M06/M07 Q1017=
202302260550 METAR ESMX 260550Z AUTO 32006KT 9999 NCD M05/M06 Q1017=
202302260520 METAR ESMX 260520Z AUTO 32006KT 9999 NCD M06/M07 Q1017=
202302260450 METAR ESMX 260450Z AUTO 32005KT 9999 SCT036/// M05/M06 Q1016=
202302260420 METAR ESMX 260420Z AUTO 31005KT 9999 SCT037/// M06/M07 Q1016=
202302260350 METAR ESMX 260350Z AUTO 31005KT 9999 NCD M07/M08 Q1016=
202302260320 METAR ESMX 260320Z AUTO 30007KT 9999 NCD M06/M07 Q1015=
202302260250 METAR ESMX 260250Z AUTO 31006KT 9999 NCD M06/M08 Q1015=
202302260220 METAR ESMX 260220Z AUTO 31006KT 9999 NCD M06/M08 Q1015=
202302260150 METAR ESMX 260150Z AUTO 33008KT 9999 NCD M05/M07 Q1015=
202302260120 METAR ESMX 260120Z AUTO 33008KT 9999 NCD M05/M07 Q1014=
202302260050 METAR ESMX 260050Z AUTO 32006KT 9999 NCD M05/M08 Q1014=
202302260020 METAR ESMX 260020Z AUTO 34008KT 9999 NCD M04/M07 Q1014=
202302252350 METAR ESMX 252350Z AUTO 35011KT 9999 NCD M04/M07 Q1013=
202302252320 METAR ESMX 252320Z AUTO 34011KT 9999 NCD M04/M07 Q1013=
202302252250 METAR ESMX 252250Z AUTO 34011KT 9999 NCD M04/M07 Q1013=
202302252220 METAR ESMX 252220Z AUTO 35011KT 9999 NCD M04/M07 Q1012=
202302252150 METAR ESMX 252150Z AUTO 34013KT 9999 NCD M03/M07 Q1012=
202302252120 METAR ESMX 252120Z AUTO 34012KT 9999 NCD M03/M07 Q1012=
202302252050 METAR ESMX 252050Z AUTO 34013KT 9999 NCD M03/M07 Q1011=
202302252020 METAR ESMX 252020Z AUTO 34012KT 9999 NCD M03/M06 Q1011=
202302251950 METAR ESMX 251950Z AUTO 34010KT 9999 NCD M03/M06 Q1011=
202302251920 METAR ESMX 251920Z AUTO 34010KT 9999 NCD M03/M05 Q1010=
202302251850 METAR ESMX 251850Z AUTO 34010KT 9999 NCD M03/M05 Q1010=
202302251820 METAR ESMX 251820Z 34009KT 9999 BKN040 M03/M04 Q1009=
202302251750 METAR ESMX 251750Z 34008KT 9999 BKN038 M02/M04 Q1009=
202302251720 METAR ESMX 251720Z 35009KT 9999 SCT037 M02/M04 Q1008=
202302251650 METAR ESMX 251650Z 36010KT 9999 BKN031 M02/M04 Q1008=
202302251620 METAR ESMX 251620Z AUTO 36012KT 9999 OVC031/// M02/M05 Q1007=
202302251550 METAR ESMX 251550Z AUTO 36013KT 9999 OVC028/// M02/M05 Q1007 RESHUP REFZUP=
202302251520 METAR ESMX 251520Z AUTO 01017KT 9999 OVC028/// M02/M05 Q1006 RESHUP REFZUP=
202302251450 METAR ESMX 251450Z AUTO 35016G27KT 9999 -FZDZ OVC023/// M02/M04 Q1006 REFZUP=
202302251420 METAR ESMX 251420Z AUTO 35015KT 9999 OVC023/// M02/M04 Q1005=
202302251350 METAR ESMX 251350Z AUTO 34016KT 9999 OVC026/// M01/M04 Q1004=
202302251320 METAR ESMX 251320Z AUTO 35016KT 9999 BKN020/// OVC027/// M01/M04 Q1004=
202302251250 METAR ESMX 251250Z AUTO 35016KT 9999 OVC020/// M01/M04 Q1004=
202302251220 METAR ESMX 251220Z AUTO 36017KT 9999 OVC018/// M01/M04 Q1003=
202302251150 METAR ESMX 251150Z AUTO 35014KT 9999 BKN018/// OVC024/// M01/M03 Q1003=
202302251120 METAR ESMX 251120Z AUTO 35015KT 9999 BKN016/// OVC023/// M02/M03 Q1002=
202302251050 METAR ESMX 251050Z AUTO 34014KT 9999 OVC016/// M01/M03 Q1002=
202302251020 METAR ESMX 251020Z AUTO 35014KT 9999 BKN017/// OVC022/// M02/M03 Q1001=
202302250950 METAR ESMX 250950Z AUTO 35016KT 9999 BKN016/// OVC035/// M02/M04 Q1001=
202302250920 METAR ESMX 250920Z AUTO 35016KT 9999 BKN014/// OVC017/// M02/M03 Q1001=
202302250850 METAR ESMX 250850Z AUTO 35014KT 9999 OVC014/// M02/M04 Q1000=
202302250820 METAR ESMX 250820Z AUTO 35014KT 9999 SG BKN013/// BKN019/// OVC035/// M02/M03 Q1000=
202302250750 METAR ESMX 250750Z AUTO 35015KT 9999 -SN BKN013/// OVC016/// M02/M03 Q0999=
202302250720 METAR ESMX 250720Z AUTO 35014KT 8000 -SN OVC013/// M02/M03 Q0999=
202302250650 METAR ESMX 250650Z AUTO 35015KT 9999 -FZDZ OVC012/// M02/M03 Q0998=
202302250620 METAR ESMX 250620Z AUTO 35015KT 9999 -SN BKN013/// OVC018/// M02/M03 Q0998 REFZUP RESHUP REFZRA=
202302250550 METAR ESMX 250550Z AUTO 35014KT 9999 OVC013/// M02/M03 Q0997=
202302250520 METAR ESMX 250520Z AUTO 35014KT 9999 -FZRA SCT013/// OVC017/// M02/M03 Q0997 REFZUP=
202302250450 METAR ESMX 250450Z AUTO 35014KT 9999 FZUP BKN016/// OVC023/// M02/M03 Q0996 REFZUP RESG=
202302250420 METAR ESMX 250420Z AUTO 35013KT 6000 SG FEW010/// SCT015/// BKN022/// M02/M03 Q0996 REFZUP=
202302250350 METAR ESMX 250350Z AUTO 35013KT 9000 -FZDZ ///020 M02/M03 Q0995=
202302250320 METAR ESMX 250320Z AUTO 36012KT 9999 -FZDZ SCT011/// BKN014/// OVC019/// M02/M03 Q0995=
202302250250 METAR ESMX 250250Z AUTO 35015KT 9999 -FZDZ FEW008/// BKN013/// OVC020/// M02/M03 Q0995 REFZUP RESHUP REFZRA=
202302250220 METAR ESMX 250220Z AUTO 01013KT 9999 SCT010/// OVC015/// M01/M02 Q0994 RESHUP RESN=
202302250150 METAR ESMX 250150Z AUTO 36014KT 9999 BKN013/// BKN053/// OVC074/// M01/M02 Q0994=
202302250120 METAR ESMX 250120Z AUTO 36014KT 9999 -RASN BKN012/// OVC021/// M01/M02 Q0994=
202302250050 METAR ESMX 250050Z AUTO 36013KT 6000 -SN SCT009/// BKN012/// OVC064/// M01/M01 Q0993=
202302250020 METAR ESMX 250020Z AUTO 01014KT 2200 -SN FEW002/// BKN021/// BKN032/// M01/M01 Q0993=
202302242350 METAR ESMX 242350Z AUTO 36013KT 5000 -SN SCT008/// BKN011/// BKN020/// M00/M01 Q0993=
202302242320 METAR ESMX 242320Z AUTO 01012KT 2700 -SN SCT008/// BKN012/// BKN021/// M00/M00 Q0993=
202302242250 METAR ESMX 242250Z AUTO 02011KT 1700 -SN SCT002/// BKN014/// OVC019/// M00/M00 Q0992=
202302242220 METAR ESMX 242220Z AUTO 02011KT 2100 -SN FEW002/// SCT006/// BKN009/// 00/00 Q0992=
202302242150 METAR ESMX 242150Z AUTO 02010KT 4200 -SN BKN006/// BKN019/// OVC033/// 00/00 Q0992=
202302242120 METAR ESMX 242120Z AUTO 02010KT 8000 SG FEW007/// BKN010/// BKN040/// 00/00 Q0991=
202302242050 METAR ESMX 242050Z AUTO 03012KT 4500 -SN ///038 00/00 Q0991=
202302242020 METAR ESMX 242020Z AUTO 02011KT 4000 -SN SCT006/// BKN013/// OVC030/// 00/00 Q0991=
202302241950 METAR ESMX 241950Z AUTO 03010KT 5000 -RASN BKN006/// OVC008/// 00/00 Q0990=
202302241920 METAR ESMX 241920Z AUTO 01009KT 3400 -SN FEW002/// BKN005/// BKN008/// 00/00 Q0990=
202302241850 METAR ESMX 241850Z 01008KT 2100 -SN BKN002 OVC017 01/01 Q0990=
202302241820 METAR ESMX 241820Z 02006KT 4500 -SN BKN002 01/01 Q0990=
202302241750 METAR ESMX 241750Z 03005KT 2200 -SN VV004 01/01 Q0989=
202302241720 METAR ESMX 241720Z 04005KT 2000 -SN VV010 01/01 Q0989=
202302241650 METAR ESMX 241650Z 15004KT 3200 -SN VV010 01/01 Q0989=
202302241620 METAR ESMX 241620Z 15004KT 2000 -SN VV010 01/01 Q0989=
202302241550 METAR ESMX 241550Z 15003KT 1800 -SN BKN002 BKN004 OVC011 01/01 Q0989=
202302241520 METAR ESMX 241520Z 15003KT 3100 -SN BKN002 BKN004 OVC011 01/01 Q0989=
202302241450 METAR ESMX 241450Z VRB03KT 3600 -RASN BKN002 BKN006 01/01 Q0989 RERASN=
202302241420 METAR ESMX 241420Z VRB03KT 4700 -RASN BKN003 01/01 Q0989=
202302241350 METAR ESMX 241350Z 11003KT 070V170 4600 -RASN BKN002 01/01 Q0989=
202302241320 METAR ESMX 241320Z 15004KT 3200 -SN OVC002 01/01 Q0990=
202302241250 METAR ESMX 241250Z 13005KT 3100 -SN OVC002 01/01 Q0990=
202302241220 METAR ESMX 241220Z 14005KT 100V160 3000 -SN VV002 01/01 Q0990=
202302241150 METAR ESMX 241150Z 15005KT 3200 -SN BKN002 01/01 Q0991=
202302241120 METAR ESMX 241120Z 14006KT 3700 -PL BKN002 01/01 Q0991=
202302241050 METAR ESMX 241050Z 14006KT 110V170 2600 SN OVC002 01/01 Q0992=
202302241020 METAR ESMX 241020Z 16006KT 2400 SN VV002 01/01 Q0992=
202302240950 METAR ESMX 240950Z AUTO 16007KT 3300 -SN OVC002/// 01/01 Q0993 RERASN=
202302240920 METAR ESMX 240920Z 15008KT 4000 SN VV002 01/01 Q0993=
202302240850 METAR ESMX 240850Z 15007KT 4700 -SN OVC003 01/01 Q0994=
202302240820 METAR ESMX 240820Z 17007KT 4600 -SN VV002 01/01 Q0994=
202302240750 METAR ESMX 240750Z 18006KT 4400 SN VV002 01/01 Q0995=
202302240720 METAR ESMX 240720Z 18007KT 5000 -SN VV002 01/01 Q0995=
202302240650 METAR ESMX 240650Z 19007KT 5000 -RASN VV002 01/01 Q0996=
202302240620 METAR ESMX 240620Z 19007KT 2700 -SN VV002 00/00 Q0996=
202302240550 METAR ESMX 240550Z 18007KT 3900 -SN OVC003 00/00 Q0997=
202302240520 METAR ESMX 240520Z AUTO 18006KT 3600 -SN BKN003/// BKN006/// OVC009/// 00/00 Q0997=
202302240450 METAR ESMX 240450Z AUTO 22005KT 4600 -RASN FEW012/// SCT040/// OVC049/// 00/00 Q0998 REUP=
202302240420 METAR ESMX 240420Z AUTO 20003KT 8000 UP FEW012/// OVC051/// 00/00 Q0998 REUP=
202302240350 METAR ESMX 240350Z AUTO 21003KT 190V250 9999 SCT007/// OVC013/// 00/00 Q0999=
202302240320 METAR ESMX 240320Z AUTO 26006KT 230V290 9999 BKN006/// OVC009/// 01/00 Q0999=
202302240250 METAR ESMX 240250Z AUTO 26006KT 9999 BKN008/// OVC011/// 01/01 Q1000=
202302240220 METAR ESMX 240220Z AUTO 27007KT 230V290 9999 FEW006/// SCT009/// BKN012/// 01/01 Q1000=
202302240150 METAR ESMX 240150Z AUTO 28007KT 9999 BKN006/// BKN011/// 02/02 Q1000=
202302240120 METAR ESMX 240120Z AUTO 26007KT 230V290 9999 SCT007/// BKN014/// 02/02 Q1000=
202302240050 METAR ESMX 240050Z 27006KT 9999 BKN004 03/03 Q1001=
202302240020 METAR ESMX 240020Z 26005KT 5000 OVC003 03/03 Q1001=
202302232350 METAR COR ESMX 232350Z 19005KT 4800 -DZ BKN002 OVC004 03/03 Q1002=
202302232320 METAR ESMX 232320Z AUTO 19004KT 1500 OVC001/// 03/03 Q1002=
202302232250 METAR COR ESMX 232250Z 19004KT 0800 R01/1900N R19/P2000N FG VV002 03/03 Q1002=
202302232220 METAR ESMX 232220Z AUTO 19004KT 0450 R01/1300N R19/1700N FG OVC001/// 03/03 Q1003=
202302232150 METAR ESMX 232150Z AUTO 19004KT 0900 R01/P2000N R19/P2000N FG OVC001/// 03/03 Q1003=
202302232120 METAR ESMX 232120Z 19004KT 1200 R01/P2000N R19/P2000N BR VV002 03/03 Q1004=
202302232050 METAR COR ESMX 232050Z 19003KT 0900 R01/P2000N R19/P2000N FG VV002 03/03 Q1004=
202302232020 METAR ESMX 232020Z 19003KT 0300 R01/0900N R19/1200U FG VV002 02/02 Q1004=
202302231950 METAR COR ESMX 231950Z 19003KT 0250 R01/0800N R19/0900N FG VV002 02/02 Q1005=
202302231920 METAR ESMX 231920Z AUTO 19003KT 0300 R01/0900N R19/1100D FG OVC001/// 02/02 Q1005=
202302231850 METAR COR ESMX 231850Z 19002KT 0400 R01/1100N R19/1300D FG VV002 02/02 Q1005=
202302231820 METAR ESMX 231820Z 19003KT 0750 R01/P2000D R19/P2000N FG OVC002 02/02 Q1005=
202302231750 METAR ESMX 231750Z 22003KT 1100 R01/P2000N R19/P2000N BR OVC002 02/02 Q1006=
202302231720 METAR ESMX 231720Z 21004KT 2300 BR OVC002 02/02 Q1006=
202302231650 METAR ESMX 231650Z 19003KT 2800 BR OVC002 02/02 Q1006=
202302231620 METAR ESMX 231620Z 19003KT 3600 BR OVC002 02/02 Q1006=
202302231550 METAR ESMX 231550Z 19003KT 5000 -RA OVC003 02/02 Q1007=
202302231520 METAR ESMX 231520Z AUTO 19004KT 6000 -DZ OVC002/// 02/02 Q1007 REDZ=
202302231450 METAR ESMX 231450Z 19005KT 6000 -RA VV002 02/02 Q1007=
202302231420 METAR ESMX 231420Z 19005KT 6000 DZ OVC003 02/02 Q1007=
202302231350 METAR ESMX 231350Z 19005KT 3200 DZ OVC003 02/02 Q1008=
202302231320 METAR ESMX 231320Z 19005KT 2600 -RA VV002 02/02 Q1008=
202302231250 METAR ESMX 231250Z 19006KT 2900 DZ OVC003 02/02 Q1008=
202302231220 METAR ESMX 231220Z 18007KT 150V210 9999 -DZ OVC005 02/02 Q1009=
202302231150 METAR ESMX 231150Z 19006KT 9999 OVC006 02/02 Q1009=
202302231120 METAR ESMX 231120Z 17007KT 9999 -RA OVC006 02/02 Q1009=
202302231050 METAR ESMX 231050Z 18010KT 9999 OVC007 02/01 Q1010=
202302231020 METAR ESMX 231020Z 18008KT 9999 OVC007 02/01 Q1010=
202302230950 METAR ESMX 230950Z 18009KT 9999 OVC008 02/01 Q1010=
202302230920 METAR ESMX 230920Z 17008KT 140V200 9999 OVC008 02/01 Q1010=
202302230850 METAR ESMX 230850Z 17009KT 9999 OVC008 01/01 Q1011=
202302230820 METAR ESMX 230820Z 17009KT 9999 OVC008 01/00 Q1011=
202302230750 METAR ESMX 230750Z 16008KT 9999 OVC007 01/00 Q1011=
202302230720 METAR ESMX 230720Z 17007KT 9999 OVC007 01/00 Q1012=
202302230650 METAR ESMX 230650Z 16006KT 9999 BKN008 01/00 Q1012=
202302230620 METAR ESMX 230620Z 17007KT 5000 -SNDZ BKN009 01/00 Q1012=
202302230550 METAR ESMX 230550Z 16007KT 7000 -SNRA BKN010 01/M00 Q1012=
202302230520 METAR ESMX 230520Z 15007KT 120V200 9999 -SN BKN011 01/M01 Q1012=
202302230450 METAR ESMX 230450Z 15006KT 9999 -SN BKN012 01/M01 Q1012=
202302230420 METAR ESMX 230420Z AUTO 15007KT 9999 OVC013/// 01/M01 Q1013=
202302230350 METAR ESMX 230350Z AUTO 14007KT 070V160 9999 OVC014/// 01/M01 Q1013=
202302230320 METAR ESMX 230320Z AUTO 15006KT 9999 OVC015/// 01/M02 Q1014=
202302230250 METAR ESMX 230250Z AUTO 14006KT 110V170 9999 OVC016/// 00/M02 Q1014=
202302230220 METAR ESMX 230220Z AUTO 14007KT 100V180 9999 BKN012/// OVC016/// 00/M02 Q1014=
202302230150 METAR ESMX 230150Z AUTO 15007KT 110V170 9999 OVC013/// 00/M02 Q1015=
202302230120 METAR ESMX 230120Z AUTO 14007KT 9999 OVC015/// 00/M03 Q1015=
202302230050 METAR ESMX 230050Z 14006KT 100V170 9999 BKN018 M00/M03 Q1016=
202302230020 METAR ESMX 230020Z 14007KT 090V170 9999 FEW017 OVC080 M00/M03 Q1016=
202302222350 METAR ESMX 222350Z AUTO 14007KT 100V170 9999 FEW017/// BKN074/// OVC120/// M00/M03 Q1016=
202302222320 METAR ESMX 222320Z AUTO 14007KT 100V170 9999 FEW074/// BKN120/// OVC140/// M00/M03 Q1017=
202302222250 METAR ESMX 222250Z AUTO 14007KT 9999 SCT074/// BKN098/// M00/M03 Q1017=
202302222220 METAR ESMX 222220Z AUTO 14007KT 100V190 9999 FEW018/// BKN074/// OVC098/// M00/M03 Q1017=
202302222150 METAR ESMX 222150Z AUTO 14007KT 110V170 9999 OVC017/// 00/M03 Q1017=
202302222120 METAR ESMX 222120Z 14006KT 110V170 9999 OVC017 00/M03 Q1017=
202302222050 METAR COR ESMX 222050Z 14007KT 110V170 9999 BKN017 00/M03 Q1018=
202302222020 METAR ESMX 222020Z AUTO 13007KT 9999 BKN016/// OVC019/// 00/M03 Q1018=
202302221950 METAR ESMX 221950Z 15006KT 9999 FEW010 BKN016 M00/M03 Q1018=
202302221920 METAR ESMX 221920Z 13005KT 9999 BKN015 00/M03 Q1018=
202302221850 METAR ESMX 221850Z AUTO 14006KT 100V170 9999 OVC014/// 00/M02 Q1018=
202302221820 METAR ESMX 221820Z 16005KT 9999 BKN014 00/M02 Q1018=
202302221750 METAR ESMX 221750Z 14006KT 110V170 9999 BKN014 00/M02 Q1018=
202302221720 METAR ESMX 221720Z 14007KT 100V170 9999 BKN015 00/M02 Q1018=
202302221650 METAR ESMX 221650Z 14007KT 9999 BKN017 01/M02 Q1018=
202302221620 METAR ESMX 221620Z 13007KT 070V160 9999 BKN020 01/M03 Q1018=
202302221550 METAR ESMX 221550Z 14005KT 9999 BKN022 01/M03 Q1018=
202302221520 METAR ESMX 221520Z 15004KT 9999 BKN022 01/M03 Q1018=
202302221450 METAR ESMX 221450Z 13005KT 9999 BKN023 01/M03 Q1018=
202302221420 METAR ESMX 221420Z 12005KT 070V190 9999 BKN027 01/M03 Q1018=
202302221350 METAR ESMX 221350Z 14006KT 100V170 9999 BKN026 01/M03 Q1019=
202302221320 METAR ESMX 221320Z 14005KT 9999 BKN023 01/M03 Q1019=
202302221250 METAR ESMX 221250Z 11005KT 060V130 9999 BKN030 02/M03 Q1019=
202302221220 METAR ESMX 221220Z 13005KT 9999 BKN029 01/M03 Q1019=
202302221150 METAR ESMX 221150Z 14005KT 9999 BKN029 01/M03 Q1019=
202302221120 METAR ESMX 221120Z 12005KT 070V150 9999 BKN029 01/M03 Q1019=
202302221050 METAR ESMX 221050Z 15005KT 9999 BKN024 01/M03 Q1019=
202302221020 METAR ESMX 221020Z 13004KT 9999 BKN028 00/M03 Q1019=
202302220950 METAR ESMX 220950Z 13004KT 9999 BKN030 00/M03 Q1019=
202302220920 METAR ESMX 220920Z 13004KT 9999 BKN029 M00/M03 Q1019=
202302220850 METAR ESMX 220850Z 12005KT 9999 BKN028 M01/M04 Q1019=
202302220820 METAR ESMX 220820Z AUTO 12004KT 070V130 9999 OVC027/// M01/M04 Q1019=
202302220750 METAR ESMX 220750Z 12005KT 050V130 9999 BKN027 M01/M04 Q1019=
202302220720 METAR ESMX 220720Z AUTO 12005KT 9999 OVC027/// M01/M04 Q1018=
202302220650 METAR ESMX 220650Z 11004KT 060V160 9999 BKN026 M01/M04 Q1018=
202302220620 METAR ESMX 220620Z AUTO 09004KT 050V140 9999 OVC025/// M02/M04 Q1018=
202302220550 METAR ESMX 220550Z VRB02KT 9999 BKN024 M02/M04 Q1018=
202302220520 METAR ESMX 220520Z 11002KT 9999 BKN023 M02/M04 Q1018=
202302220450 METAR ESMX 220450Z 07002KT 9999 BKN022 M02/M04 Q1018=
202302220420 METAR ESMX 220420Z AUTO 06001KT 9999 OVC023/// M03/M04 Q1018=
202302220350 METAR ESMX 220350Z AUTO 04002KT 9999 OVC023/// M03/M04 Q1017=
202302220320 METAR ESMX 220320Z AUTO 00000KT 9999 BKN023/// M05/M05 Q1017=
202302220250 METAR ESMX 220250Z AUTO 00000KT 9999 NCD M05/M05 Q1017=
202302220220 METAR ESMX 220220Z AUTO 07001KT 9999 NCD M05/M06 Q1017=
202302220150 METAR ESMX 220150Z AUTO 09002KT 9999 NCD M03/M05 Q1017=
202302220120 METAR ESMX 220120Z AUTO 11002KT 9999 NCD M03/M05 Q1017=
202302220050 METAR ESMX 220050Z 11002KT 9999 FEW022 M02/M06 Q1017=
202302220020 METAR ESMX 220020Z AUTO 07003KT 9999 BKN022/// M02/M06 Q1017=
202302212350 METAR ESMX 212350Z AUTO 07003KT 9999 OVC022/// M01/M05 Q1017=
202302212320 METAR ESMX 212320Z AUTO 10003KT 9999 OVC023/// M01/M05 Q1017=
202302212250 METAR ESMX 212250Z AUTO VRB03KT 9999 OVC023/// M01/M05 Q1016=
202302212220 METAR ESMX 212220Z AUTO 07003KT 020V130 9999 OVC024/// M01/M05 Q1016=
202302212150 METAR ESMX 212150Z 06004KT 9999 OVC024 M00/M06 Q1016=
202302212120 METAR ESMX 212120Z 06006KT 030V110 9999 BKN025 M00/M06 Q1016=
202302212050 METAR ESMX 212050Z 07005KT 020V120 9999 BKN025 M00/M05 Q1015=
202302212020 METAR ESMX 212020Z AUTO 04007KT 9999 OVC026/// M00/M05 Q1015=
202302211950 METAR ESMX 211950Z AUTO 05005KT 030V120 9999 OVC026/// 00/M05 Q1015=
202302211920 METAR ESMX 211920Z AUTO 03007KT 9999 OVC026/// 00/M05 Q1015=
202302211850 METAR ESMX 211850Z AUTO 03009KT 9999 OVC025/// 01/M04 Q1014=
202302211820 METAR ESMX 211820Z 36008KT 9999 BKN027 01/M03 Q1014=
202302211750 METAR ESMX 211750Z 02007KT 9999 BKN028 01/M04 Q1013=
202302211720 METAR ESMX 211720Z 35008KT 9999 BKN028 01/M04 Q1013=
202302211650 METAR ESMX 211650Z 01008KT 9999 BKN027 02/M04 Q1013=
202302211620 METAR ESMX 211620Z 35010KT 9999 BKN027 02/M04 Q1012=
202302211550 METAR ESMX 211550Z 01011KT 9999 BKN029 02/M04 Q1012=
202302211520 METAR ESMX 211520Z 35010KT 9999 BKN032 03/M03 Q1011=
202302211450 METAR ESMX 211450Z 01011KT 9999 SCT034 04/M04 Q1010=
202302211420 METAR ESMX 211420Z 36011KT 9999 FEW035 04/M04 Q1010=
202302211350 METAR ESMX 211350Z 34013KT 9999 FEW035 05/M03 Q1009=
202302211320 METAR ESMX 211320Z 35013KT 9999 FEW037 05/M03 Q1008=
202302211250 METAR COR ESMX 211250Z 34011KT 9999 FEW035 06/M02 Q1008=
202302211220 METAR ESMX 211220Z 35012KT 9999 SCT036 06/M01 Q1007=
202302211150 METAR ESMX 211150Z 33013KT 9999 SCT036 06/M02 Q1006=
202302211120 METAR ESMX 211120Z 31013KT 280V340 9999 SCT036 07/M01 Q1005=
202302211050 METAR ESMX 211050Z 31015KT 9999 SCT035 06/M01 Q1005=
202302211020 METAR ESMX 211020Z 32013KT CAVOK 07/M00 Q1004=
202302210950 METAR ESMX 210950Z 33013KT CAVOK 06/00 Q1003=
202302210920 METAR ESMX 210920Z 31015KT CAVOK 06/00 Q1003=
202302210850 METAR ESMX 210850Z 30011KT CAVOK 06/02 Q1002=
202302210820 METAR ESMX 210820Z 30010KT CAVOK 05/02 Q1002=
202302210750 METAR ESMX 210750Z 28010KT CAVOK 04/02 Q1001=
202302210720 METAR ESMX 210720Z 28010KT CAVOK 04/02 Q1001=
202302210650 METAR ESMX 210650Z 27009KT CAVOK 03/02 Q1000=
202302210620 METAR ESMX 210620Z 28010KT CAVOK 03/01 Q1000=
202302210550 METAR ESMX 210550Z 26009KT CAVOK 03/01 Q0999=
202302210520 METAR ESMX 210520Z 26009KT 230V290 CAVOK 04/02 Q0998=
202302210450 METAR COR ESMX 210450Z 27010KT 9999 FEW020 04/02 Q0998=
202302210420 METAR ESMX 210420Z AUTO 27010KT 9999 SCT022/// 05/02 Q0998=
202302210350 METAR ESMX 210350Z AUTO 27012KT 230V290 9999 BKN025/// 05/02 Q0997=
202302210320 METAR ESMX 210320Z AUTO 28013KT 9999 SCT027/// 05/01 Q0996=
202302210250 METAR ESMX 210250Z AUTO 28016KT 250V310 9999 BKN028/// BKN036/// 05/01 Q0996=
202302210220 METAR ESMX 210220Z AUTO 27014G25KT 9999 BKN027/// OVC037/// 05/02 Q0996=
202302210150 METAR ESMX 210150Z AUTO 27016G26KT 9999 BKN024/// OVC031/// 06/02 Q0995=
202302210120 METAR ESMX 210120Z AUTO 27014G24KT 9999 BKN024/// OVC034/// 05/02 Q0995=
202302210050 METAR ESMX 210050Z 26014G26KT 9999 OVC024 05/02 Q0994=
202302210020 METAR COR ESMX 210020Z 26016KT 220V280 9999 BKN025 05/02 Q0994=
202302202350 METAR ESMX 202350Z AUTO 26015G28KT 210V290 9999 BKN023/// OVC032/// 05/02 Q0994=
202302202320 METAR ESMX 202320Z AUTO 27016G28KT 9999 BKN021/// OVC031/// 05/02 Q0995=
202302202250 METAR ESMX 202250Z AUTO 26016KT 9999 OVC021/// 05/02 Q0994=
202302202220 METAR ESMX 202220Z AUTO 26016KT 9999 OVC020/// 05/02 Q0994=
202302202150 METAR ESMX 202150Z 26016KT 9999 BKN023 05/02 Q0994=
202302202120 METAR ESMX 202120Z 24014KT 9999 BKN025 05/02 Q0994=
202302202050 METAR ESMX 202050Z 26013KT 9999 BKN025 05/02 Q0995=
202302202020 METAR ESMX 202020Z 27014KT 9999 BKN024 05/02 Q0995=
202302201950 METAR COR ESMX 201950Z 26013KT 9999 BKN023 05/02 Q0995=
202302201920 METAR ESMX 201920Z 26013G25KT 9999 BKN026 05/02 Q0995=
202302201850 METAR ESMX 201850Z 26014KT 9999 SCT025 05/02 Q0995=
202302201820 METAR ESMX 201820Z 26012KT 9999 SCT026 05/02 Q0995=
202302201750 METAR ESMX 201750Z 27013KT 9999 FEW025 05/02 Q0994=
202302201720 METAR ESMX 201720Z 26013G24KT 9999 FEW034 05/02 Q0994=
202302201650 METAR ESMX 201650Z AUTO 27014KT 9999 FEW030/// 06/02 Q0994=
202302201620 METAR ESMX 201620Z 27014G29KT 9999 BKN028 06/02 Q0993=
202302201550 METAR ESMX 201550Z 25016G28KT 220V280 9999 BKN032 06/02 Q0993=
202302201520 METAR ESMX 201520Z 27017G29KT 9999 BKN034 06/02 Q0993=
202302201450 METAR ESMX 201450Z 26015KT 9999 BKN035 07/02 Q0993=
202302201420 METAR COR ESMX 201420Z 27017G29KT 9999 SCT034 SCT190 07/02 Q0992=
202302201350 METAR ESMX 201350Z AUTO 27017G29KT 9999 BKN032/// BKN180/// 07/03 Q0992=
202302201320 METAR ESMX 201320Z 27014KT 240V300 9999 SCT030 BKN210 07/04 Q0992=
202302201250 METAR ESMX 201250Z 27018KT 9999 BKN028 BKN038 07/04 Q0992=
202302201220 METAR ESMX 201220Z 26017KT 9999 SCT025 BKN034 BKN200 07/05 Q0992=
202302201150 METAR ESMX 201150Z 27018G31KT 9999 BKN017 BKN031 07/06 Q0992=
202302201120 METAR ESMX 201120Z 26018KT 9999 SCT011 BKN017 08/06 Q0992 REDZ=
202302201050 METAR ESMX 201050Z AUTO 26017KT 9999 SCT008/// BKN010/// OVC014/// 07/07 Q0992=
202302201020 METAR ESMX 201020Z 26014KT 5000 DZ BKN007 OVC014 07/07 Q0992=
202302200950 METAR COR ESMX 200950Z 25014KT 220V290 8000 DZ OVC006 07/07 Q0993=
202302200920 METAR ESMX 200920Z 25013KT 210V280 9999 -DZ BKN007 07/06 Q0993=
202302200850 METAR ESMX 200850Z 23014KT 200V260 9000 DZ OVC007 06/06 Q0993=
202302200820 METAR ESMX 200820Z 23014G27KT 200V260 9999 -RA BKN007 06/06 Q0993=
202302200750 METAR ESMX 200750Z 25014G26KT 210V290 8000 -RA BKN008 06/06 Q0994=
202302200720 METAR ESMX 200720Z 24014KT 9000 -RA FEW005 BKN009 06/05 Q0995=
202302200650 METAR ESMX 200650Z 22015KT 9999 -RA OVC005 04/04 Q0995=
202302200620 METAR ESMX 200620Z 20014KT 9000 RA BKN005 03/03 Q0996=
202302200550 METAR ESMX 200550Z 20015KT 9000 RA BKN005 03/03 Q0998=
202302200520 METAR ESMX 200520Z 19014KT 6000 -RA BKN005 02/02 Q0999=
202302200450 METAR ESMX 200450Z 19013KT 9000 -RA BKN005 02/02 Q1000=
202302200420 METAR ESMX 200420Z AUTO 19013KT 9999 -RA OVC006/// 02/02 Q1001=
202302200350 METAR ESMX 200350Z AUTO 19013KT 6000 -RA OVC005/// 02/02 Q1002=
202302200320 METAR ESMX 200320Z AUTO 19011KT 7000 -RA OVC006/// 02/02 Q1003 REDZ=
202302200250 METAR ESMX 200250Z AUTO 19010KT 7000 -RA OVC006/// 02/02 Q1005 REDZ=
202302200220 METAR ESMX 200220Z AUTO 20010KT 9999 -DZ OVC006/// 02/02 Q1005 REUP=
202302200150 METAR ESMX 200150Z AUTO 22009KT 9999 OVC007/// 02/02 Q1006=
202302200120 METAR ESMX 200120Z AUTO 21007KT 9999 BKN009/// OVC012/// 02/02 Q1007=
202302200050 METAR ESMX 200050Z AUTO 22007KT 9000 -DZ SCT009/// OVC021/// 02/02 Q1008 RERA=
202302200020 METAR ESMX 200020Z AUTO 22008KT 7000 -DZ FEW007/// BKN010/// BKN015/// 02/02 Q1009 REDZ REUP=
202302192350 METAR ESMX 192350Z AUTO 24007KT 9999 FEW009/// SCT016/// OVC031/// 03/02 Q1009=
202302192320 METAR ESMX 192320Z AUTO 25008KT 9999 SCT009/// BKN014/// OVC027/// 02/02 Q1010=
202302192250 METAR ESMX 192250Z AUTO 25008KT 9999 FEW010/// SCT013/// OVC029/// 02/02 Q1010=
202302192220 METAR ESMX 192220Z AUTO 25009KT 9999 SCT011/// OVC025/// 02/02 Q1010=
202302192150 METAR ESMX 192150Z AUTO 26009KT 9999 FEW012/// OVC022/// 03/02 Q1010=
202302192120 METAR ESMX 192120Z AUTO 26009KT 8000 -DZ BKN008/// OVC010/// 02/02 Q1010 RESHUP RERA=
202302192050 METAR ESMX 192050Z 25005KT 9999 BKN009 02/02 Q1010=
202302192020 METAR ESMX 192020Z 23003KT 7000 -SN BKN005 01/01 Q1011=
202302191950 METAR ESMX 191950Z 31002KT 7000 -SN BKN006 01/01 Q1011=
202302191920 METAR COR ESMX 191920Z 30003KT 4000 -SN BKN004 01/01 Q1011=
202302191850 METAR ESMX 191850Z AUTO 28004KT 240V300 2300 -SN FEW001/// BKN005/// OVC015/// 01/01 Q1011=
202302191820 METAR ESMX 191820Z AUTO 25003KT 3000 -SN SCT003/// BKN007/// OVC009/// 01/01 Q1011=
202302191750 METAR COR ESMX 191750Z VRB03KT 2600 -SN VV002 00/00 Q1011=
202302191720 METAR COR ESMX 191720Z 24003KT 2700 SN VV003 00/00 Q1011=
202302191650 METAR ESMX 191650Z 00000KT 2700 -SN VV015 M00/M00 Q1011=
202302191620 METAR ESMX 191620Z AUTO VRB02KT 1100 R01/P2000N R19/P2000N -SN VV012 M00/M00 Q1011=
202302191550 METAR ESMX 191550Z AUTO 28004KT 240V310 6000 -RA ///023 00/M01 Q1011=
202302191520 METAR ESMX 191520Z 28008KT 240V320 5000 SN BKN006 02/M04 Q1011=
202302191450 METAR ESMX 191450Z 28013KT 9999 FEW028 BKN048 02/M05 Q1011 RESN=
202302191420 METAR ESMX 191420Z 28013KT 250V330 CAVOK 03/M07 Q1011=
202302191350 METAR ESMX 191350Z 29013KT CAVOK 04/M07 Q1011=
202302191320 METAR ESMX 191320Z 28012KT 250V320 CAVOK 04/M08 Q1011=
202302191250 METAR ESMX 191250Z 28014KT 250V320 CAVOK 03/M08 Q1011=
202302191220 METAR ESMX 191220Z 30013KT 260V330 CAVOK 03/M07 Q1011=
202302191150 METAR ESMX 191150Z 28012KT CAVOK 03/M07 Q1011=
202302191120 METAR ESMX 191120Z 29010KT 260V340 CAVOK 03/M08 Q1011=
202302191050 METAR ESMX 191050Z 29011KT 260V330 CAVOK 02/M07 Q1011=
202302191020 METAR ESMX 191020Z 29009KT 260V330 CAVOK 01/M07 Q1011=
202302190950 METAR ESMX 190950Z 28011KT CAVOK 01/M06 Q1010=
202302190920 METAR ESMX 190920Z 29010KT CAVOK 00/M06 Q1010=
202302190850 METAR ESMX 190850Z 29009KT CAVOK M01/M05 Q1010=
202302190820 METAR ESMX 190820Z 30008KT CAVOK M01/M05 Q1010=
202302190750 METAR COR ESMX 190750Z 29007KT CAVOK M02/M05 Q1010=
202302190720 METAR ESMX 190720Z AUTO 28006KT 240V300 9999 NCD M03/M05 Q1009=
202302190650 METAR ESMX 190650Z AUTO 29007KT 9999 NCD M03/M05 Q1009=
202302190620 METAR ESMX 190620Z AUTO 29007KT 9999 NCD M03/M05 Q1009=
202302190550 METAR ESMX 190550Z AUTO 29006KT 9999 NCD M03/M05 Q1008=
202302190520 METAR ESMX 190520Z AUTO 28005KT 9999 NCD M03/M05 Q1008=
202302190450 METAR ESMX 190450Z AUTO 29007KT 9999 NCD M03/M05 Q1008=
202302190420 METAR ESMX 190420Z AUTO 27005KT 9999 NCD M03/M04 Q1008=
202302190350 METAR ESMX 190350Z AUTO 29005KT 9999 NCD M03/M04 Q1007=
202302190320 METAR ESMX 190320Z AUTO 28005KT 9999 NCD M02/M04 Q1007=
202302190250 METAR ESMX 190250Z AUTO 27005KT 9999 NCD M02/M03 Q1007=
202302190220 METAR ESMX 190220Z AUTO 28005KT 9999 NCD M02/M03 Q1007=
202302190150 METAR ESMX 190150Z AUTO 28005KT 9999 NCD M02/M03 Q1006=
202302190120 METAR ESMX 190120Z AUTO 26005KT 230V290 9999 NCD M02/M03 Q1006=
202302190050 METAR ESMX 190050Z AUTO 26005KT 9999 NCD M02/M03 Q1006=
202302190020 METAR ESMX 190020Z AUTO 26005KT 9999 NCD M02/M04 Q1006=
202302182350 METAR ESMX 182350Z AUTO 25005KT 9999 NCD M01/M03 Q1006=
202302182320 METAR ESMX 182320Z AUTO 26007KT 9999 NCD M01/M03 Q1006=
202302182250 METAR ESMX 182250Z AUTO 26005KT 9999 NCD M01/M03 Q1006=
202302182220 METAR ESMX 182220Z AUTO 28005KT 9999 NCD M01/M03 Q1006=
202302182150 METAR ESMX 182150Z AUTO 28006KT 9999 SCT051/// M00/M03 Q1006=
202302182120 METAR ESMX 182120Z AUTO 27006KT 9999 NCD M00/M03 Q1006=
202302182050 METAR ESMX 182050Z AUTO 28006KT 9999 NCD M00/M02 Q1005=
202302182020 METAR ESMX 182020Z AUTO 28005KT 9999 NCD 00/M02 Q1005=
202302181950 METAR ESMX 181950Z 27006KT CAVOK 01/M02 Q1005=
202302181920 METAR ESMX 181920Z 26006KT CAVOK 01/M02 Q1004=
202302181850 METAR ESMX 181850Z 26006KT CAVOK 01/M03 Q1004=
202302181820 METAR ESMX 181820Z AUTO 28006KT 9999 SCT042/// 02/M03 Q1004=
202302181750 METAR ESMX 181750Z AUTO 27006KT 9999 NCD 02/M03 Q1003=
202302181720 METAR ESMX 181720Z AUTO 27006KT 9999 NCD 03/M03 Q1003=
202302181650 METAR ESMX 181650Z AUTO 27006KT 9999 NCD 03/M03 Q1002=
202302181620 METAR ESMX 181620Z AUTO 28007KT 9999 NCD 04/M03 Q1002=
202302181550 METAR ESMX 181550Z AUTO 28008KT 9999 NCD 05/M03 Q1002=
202302181520 METAR ESMX 181520Z AUTO 29010KT 260V330 9999 NCD 06/M03 Q1001=
202302181450 METAR ESMX 181450Z AUTO 29009KT 250V320 9999 NCD 06/M02 Q1001=
202302181420 METAR ESMX 181420Z AUTO 29009KT 250V340 9999 FEW045/// 06/M03 Q1001=
202302181350 METAR ESMX 181350Z AUTO 29011KT 250V320 9999 FEW046/// 07/M03 Q1001=
202302181320 METAR ESMX 181320Z AUTO 29011KT 250V330 9999 NCD 07/M03 Q1000=
202302181250 METAR ESMX 181250Z AUTO 27013KT 9999 FEW043/// 07/M02 Q1000=
202302181220 METAR ESMX 181220Z AUTO 27012KT 9999 NCD 07/M02 Q1000=
202302181150 METAR ESMX 181150Z AUTO 27012KT 240V300 9999 NCD 07/M02 Q1000=
202302181120 METAR ESMX 181120Z AUTO 28014KT 230V310 9999 NCD 06/M02 Q1000=
202302181050 METAR ESMX 181050Z 29014KT 9999 FEW039 06/M01 Q1000=
202302181020 METAR ESMX 181020Z 29014KT 250V330 CAVOK 06/M01 Q1000=
202302180950 METAR ESMX 180950Z 29015KT CAVOK 05/M01 Q1000=
202302180920 METAR ESMX 180920Z 29016KT CAVOK 04/M01 Q1000=
202302180850 METAR ESMX 180850Z 29015KT CAVOK 04/M01 Q1000=
202302180820 METAR ESMX 180820Z AUTO 27014KT 250V310 9999 NCD 04/M01 Q1000=
202302180750 METAR ESMX 180750Z AUTO 28013G24KT 9999 NCD 03/M01 Q0999=
202302180720 METAR ESMX 180720Z AUTO 28013KT 9999 NCD 03/M02 Q0999=
202302180650 METAR ESMX 180650Z AUTO 29015KT 9999 NCD 03/M02 Q0999=
202302180620 METAR ESMX 180620Z AUTO 28014G25KT 9999 NCD 03/M02 Q0999=
202302180550 METAR ESMX 180550Z AUTO 27014KT 9999 NCD 03/M03 Q0999=
202302180520 METAR ESMX 180520Z AUTO 28015KT 9999 NCD 03/M03 Q0998=
202302180450 METAR ESMX 180450Z AUTO 27015KT 9999 NCD 03/M02 Q0998=
202302180420 METAR ESMX 180420Z AUTO 26015KT 9999 FEW047/// 04/M02 Q0997=
202302180350 METAR ESMX 180350Z AUTO 26016KT 9999 SCT043/// 04/M02 Q0996=
202302180320 METAR ESMX 180320Z AUTO 28017G28KT 230V300 9999 OVC042/// 05/M01 Q0995=
202302180250 METAR ESMX 180250Z AUTO 28017KT 9999 OVC041/// 05/M01 Q0995=
202302180220 METAR ESMX 180220Z AUTO 28017KT 9999 OVC037/// 05/M01 Q0994=
202302180150 METAR ESMX 180150Z AUTO 28019G29KT 9999 OVC036/// 05/M01 Q0993=
202302180120 METAR ESMX 180120Z AUTO 27019G31KT 9999 OVC036/// 05/M00 Q0992=
202302180050 METAR ESMX 180050Z AUTO 26019G34KT 230V310 9999 BKN034/// OVC046/// 05/00 Q0991 RESHUP=
202302180020 METAR ESMX 180020Z AUTO 27020G34KT 250V320 9999 DZ OVC033/// 05/02 Q0990 RESHUP REDZ=
202302172350 METAR ESMX 172350Z AUTO 26021G35KT 9999 OVC036/// 05/02 Q0989=
202302172320 METAR ESMX 172320Z AUTO 26018G30KT 9999 -DZ FEW025/// OVC040/// 05/03 Q0989=
202302172250 METAR ESMX 172250Z AUTO 27020G32KT 9999 -RA SCT018/// BKN027/// OVC037/// 05/03 Q0988 RERA RESHUP=
202302172220 METAR ESMX 172220Z AUTO 26020G33KT 9999 BKN017/// OVC033/// 05/04 Q0986=
202302172150 METAR ESMX 172150Z AUTO 26022G33KT 9999 OVC013/// 05/04 Q0985 RERA=
202302172120 METAR ESMX 172120Z AUTO 26021G33KT 240V300 9999 -DZ OVC011/// 05/04 Q0985=
202302172050 METAR ESMX 172050Z AUTO 25018G29KT 9000 -RA OVC010/// 05/04 Q0984 RERA REDZ=
202302172020 METAR ESMX 172020Z AUTO 26018G31KT 220V290 6000 BR SCT005/// OVC009/// 05/05 Q0984 REDZ=
202302171950 METAR ESMX 171950Z AUTO 23018G29KT 210V280 3900 DZ BKN005/// OVC009/// 05/05 Q0983=
202302171920 METAR ESMX 171920Z AUTO 23016G28KT 4200 DZ OVC005/// 05/05 Q0983 REDZ=
202302171850 METAR ESMX 171850Z AUTO 23018KT 3500 -RA BKN005/// OVC009/// 05/05 Q0983=
202302171820 METAR ESMX 171820Z 23018G30KT 5000 -RA BKN006 05/04 Q0984=
202302171750 METAR ESMX 171750Z 21019KT 6000 RA FEW006 BKN010 05/05 Q0985=
202302171720 METAR ESMX 171720Z 23016G28KT 9000 -RA SCT011 BKN016 06/05 Q0986=
202302171650 METAR ESMX 171650Z 22016G29KT 170V250 9999 FEW006 BKN014 06/05 Q0987=
202302171620 METAR ESMX 171620Z 23013KT 200V260 9000 RA FEW006 BKN013 07/06 Q0987=
202302171550 METAR ESMX 171550Z 23013G26KT 9999 BKN015 07/06 Q0988=
202302171520 METAR ESMX 171520Z 23011KT 9999 -DZ FEW003 BKN011 08/08 Q0988=
202302171450 METAR ESMX 171450Z 21014KT 9999 BKN004 08/08 Q0989=
202302171420 METAR ESMX 171420Z 21013KT 5000 -DZRA BKN004 07/07 Q0990=
202302171350 METAR ESMX 171350Z 19014KT 4000 -DZRA SCT002 BKN004 07/07 Q0991=
202302171320 METAR ESMX 171320Z 19013KT 7000 -DZ BKN005 07/07 Q0992=
202302171250 METAR ESMX 171250Z 17009KT 9999 DZ OVC004 06/06 Q0993=
202302171220 METAR ESMX 171220Z 17009KT 7000 DZ OVC004 06/06 Q0995=
202302171150 METAR ESMX 171150Z 17008KT 9000 -DZ BKN004 OVC013 06/06 Q0996=
202302171120 METAR ESMX 171120Z AUTO 17009KT 5000 -RA OVC003/// 06/06 Q0997 RERA=
202302171050 METAR ESMX 171050Z 18009KT 5000 -RA OVC003 05/05 Q0998=
202302171020 METAR ESMX 171020Z 17008KT 4000 -DZ VV002 05/05 Q0999=
202302170950 METAR ESMX 170950Z 17009KT 1400 -RADZ VV002 04/04 Q1000=
202302170920 METAR ESMX 170920Z 17009KT 0800 R01/1200N R19/1400D FG VV002 04/04 Q1001=
202302170850 METAR ESMX 170850Z 17009KT 0800 R01/1100D R19/1400D FG VV002 04/04 Q1002 REDZ=
202302170820 METAR ESMX 170820Z 17011KT 1300 R01/1700D R19/P2000N BR VV002 04/04 Q1003=
202302170750 METAR ESMX 170750Z 17010KT 1100 R01/1700D R19/P2000D BR VV002 03/03 Q1004=
202302170720 METAR ESMX 170720Z 16009KT 1200 R01/1700D R19/1900D BR VV002 03/03 Q1005 RERA REDZ=
202302170650 METAR ESMX 170650Z 15007KT 2400 BR VV002 03/03 Q1005=
202302170620 METAR ESMX 170620Z 14007KT 100V170 2100 -RA VV002 03/03 Q1006 REDZ=
202302170550 METAR ESMX 170550Z 15006KT 120V180 2300 DZ OVC002 03/03 Q1007=
202302170520 METAR ESMX 170520Z AUTO 17007KT 3200 -RA OVC003/// 03/03 Q1007=
202302170450 METAR ESMX 170450Z AUTO 18006KT 2500 -RA BKN004/// OVC005/// 03/03 Q1008 REDZ REUP=
202302170420 METAR ESMX 170420Z AUTO 17007KT 4300 BR OVC005/// 04/03 Q1009=
202302170350 METAR ESMX 170350Z AUTO 17006KT 4100 BR OVC005/// 04/03 Q1009=
202302170320 METAR ESMX 170320Z AUTO 18006KT 3600 BR OVC005/// 04/04 Q1009=
202302170250 METAR ESMX 170250Z AUTO 19008KT 3400 BR OVC004/// 04/04 Q1010=
202302170220 METAR ESMX 170220Z AUTO 18007KT 3100 BR OVC003/// 04/04 Q1010=
202302170150 METAR ESMX 170150Z AUTO 18007KT 2800 BR OVC003/// 04/04 Q1011=
202302170120 METAR ESMX 170120Z AUTO 19006KT 3100 BR OVC003/// 04/04 Q1011=
202302170050 METAR ESMX 170050Z AUTO 22008KT 3100 BR OVC002/// 04/04 Q1012=
202302170020 METAR ESMX 170020Z 19007KT 2200 BR OVC002 03/03 Q1012=
202302162350 METAR ESMX 162350Z 20006KT 3400 BR OVC004 03/03 Q1012=
202302162320 METAR ESMX 162320Z 21006KT 5000 BR BKN004 OVC015 04/03 Q1012=
202302162250 METAR ESMX 162250Z 22005KT 8000 BR OVC014 04/03 Q1013=
202302162220 METAR ESMX 162220Z 19003KT 9999 OVC015 04/03 Q1013=
202302162150 METAR ESMX 162150Z 22005KT 9999 OVC015 04/03 Q1014=
202302162120 METAR ESMX 162120Z 21004KT 9999 OVC016 04/03 Q1014=
202302162050 METAR ESMX 162050Z 22006KT 190V250 9999 OVC014 04/03 Q1014=
202302162020 METAR ESMX 162020Z 25005KT 8000 BR OVC013 04/03 Q1014=
202302161950 METAR ESMX 161950Z 23005KT 6000 BR OVC013 04/04 Q1014=
202302161920 METAR ESMX 161920Z 21004KT 4600 BR OVC013 04/04 Q1014=
202302161850 METAR ESMX 161850Z 21004KT 4300 BR FEW009 OVC014 04/04 Q1014=
202302161820 METAR ESMX 161820Z 23004KT 200V260 5000 BR BKN009 04/04 Q1014=
202302161750 METAR ESMX 161750Z 22004KT 170V250 4000 BR BKN011 04/04 Q1014=
202302161720 METAR ESMX 161720Z 25006KT 190V300 7000 BR BKN011 04/03 Q1014=
202302161650 METAR ESMX 161650Z 20004KT 5000 BR BKN014 04/04 Q1014=
202302161620 METAR ESMX 161620Z 24004KT 6000 BR SCT007 BKN013 04/04 Q1014=
202302161550 METAR ESMX 161550Z 25006KT 6000 BR BKN006 04/04 Q1015=
202302161520 METAR ESMX 161520Z 27005KT 240V310 4000 BR BKN005 04/04 Q1015=
202302161450 METAR COR ESMX 161450Z 25005KT 2000 BR VV002 04/04 Q1015=
202302161420 METAR ESMX 161420Z 24005KT 1100 R01/1500N R19/1800N BR VV002 04/04 Q1015=
202302161350 METAR ESMX 161350Z 22005KT 0900 R01/1200N R19/1400N FG VV002 04/04 Q1015=
202302161320 METAR ESMX 161320Z 23005KT 0900 R01/1100N R19/1300N FG VV002 03/03 Q1015=
202302161250 METAR ESMX 161250Z 24006KT 1400 R01/1500D R19/1900D BR VV002 03/03 Q1015=
202302161220 METAR ESMX 161220Z 23006KT 1700 BR VV002 03/03 Q1015=
202302161150 METAR ESMX 161150Z 24007KT 1300 R01/1400N R19/1900N VV002 03/03 Q1015=
202302161120 METAR COR ESMX 161120Z 23006KT 1200 R01/1400N R19/1500N VV002 03/03 Q1015=
202302161050 METAR ESMX 161050Z 23006KT 0700 R01/1000N R19/1400N FG VV002 02/02 Q1016=
202302161020 METAR ESMX 161020Z 22007KT 0500 R01/0800N R19/1100D FG VV002 02/02 Q1015=
202302160950 METAR ESMX 160950Z 23006KT 0900 R01/1100N R19/1400N FG VV002 02/02 Q1016=
202302160920 METAR ESMX 160920Z 24005KT 1000 R01/1000D R19/1400N FG VV002 02/02 Q1016=
202302160850 METAR ESMX 160850Z 25005KT 230V290 1100 R01/1300N R19/1500N BR VV002 02/02 Q1016=
202302160820 METAR ESMX 160820Z 23007KT 1200 R01/1400N R19/1500D BR VV002 02/02 Q1016=
202302160750 METAR ESMX 160750Z 24006KT 1200 R01/1500N R19/1900D BR VV002 01/01 Q1016=
202302160720 METAR ESMX 160720Z 21007KT 1000 R01/1700N R19/1900D FG VV002 01/01 Q1016=
202302160650 METAR ESMX 160650Z 21006KT 1000 R01/1800N R19/P2000N FG VV002 01/01 Q1016=
202302160620 METAR COR ESMX 160620Z 22007KT 1000 R01/P2000N R19/P2000N FG VV002 01/01 Q1016=
202302160550 METAR ESMX 160550Z 21007KT 2100 BR OVC002 01/01 Q1016=
202302160520 METAR COR ESMX 160520Z 23007KT 1000 R01/P2000N R19/P2000N FG VV002 01/01 Q1016=
202302160450 METAR COR ESMX 160450Z 23007KT 0700 R01/1500D R19/1400U FG VV002 01/01 Q1016=
202302160420 METAR ESMX 160420Z AUTO 23007KT 0500 R01/1300D R19/1700U FG OVC001/// 01/01 Q1017=
202302160350 METAR ESMX 160350Z AUTO 22009KT 0550 R01/1400D R19/1400N FG OVC001/// 02/02 Q1017=
202302160320 METAR ESMX 160320Z AUTO 22007KT 0350 R01/1000N R19/1000N FG BKN001/// OVC002/// 02/02 Q1017=
202302160250 METAR ESMX 160250Z AUTO 19007KT 0250 R01/0800N R19/0750N FG BKN001/// OVC002/// 02/02 Q1017=
202302160220 METAR ESMX 160220Z AUTO 19006KT 0250 R01/0750N R19/0750N FG VV002 02/02 Q1017=
202302160150 METAR ESMX 160150Z AUTO 18007KT 0250 R01/0800N R19/0750N FG VV002 02/02 Q1018=
202302160120 METAR ESMX 160120Z AUTO 18007KT 0250 R01/0800N R19/0800N FG VV002 02/02 Q1018=
202302160050 METAR ESMX 160050Z 19007KT 0350 R01/1200D R19/P2000D FG OVC002 02/02 Q1018=
202302160020 METAR ESMX 160020Z 18007KT 0650 R01/1700D R19/1900N FG OVC001 02/02 Q1018=
202302152350 METAR ESMX 152350Z 19007KT 1000 R01/P2000N R19/P2000N BR OVC002 03/03 Q1019=
202302152320 METAR ESMX 152320Z 21008KT 2100 BR OVC001 03/03 Q1019=
202302152250 METAR ESMX 152250Z AUTO 19008KT 1100 R01/P2000N R19/P2000N OVC001/// 03/03 Q1019=
202302152220 METAR ESMX 152220Z 21007KT 1100 R01/P2000N R19/P2000N BKN002 OVC004 03/03 Q1020=
202302152150 METAR ESMX 152150Z 22009KT 2600 BR OVC003 03/03 Q1020=
202302152120 METAR ESMX 152120Z 21007KT 2000 BR BKN002 03/03 Q1020=
202302152050 METAR ESMX 152050Z 20007KT 2600 BR OVC003 03/03 Q1020=
202302152020 METAR ESMX 152020Z 21006KT 2100 BR OVC003 03/03 Q1020=
202302151950 METAR ESMX 151950Z 21005KT 2200 BR OVC002 03/03 Q1021=
202302151920 METAR ESMX 151920Z 19005KT 2400 BR OVC002 03/03 Q1021=
202302151850 METAR ESMX 151850Z AUTO 22005KT 1900 BR BKN003/// OVC008/// 03/03 Q1021=
202302151820 METAR COR ESMX 151820Z 20005KT 2800 BR BKN003 03/03 Q1021=
202302151750 METAR ESMX 151750Z 22005KT 2400 BR BKN003 03/03 Q1022=
202302151720 METAR ESMX 151720Z 22004KT 3400 BR BKN004 03/03 Q1022=
202302151650 METAR ESMX 151650Z 18004KT 3800 BR BKN004 03/03 Q1022=
202302151620 METAR ESMX 151620Z 22004KT 4400 BR BKN006 OVC008 03/03 Q1023=
202302151550 METAR ESMX 151550Z 21004KT 4500 BR BKN005 OVC008 03/03 Q1023=
202302151520 METAR ESMX 151520Z 22004KT 5000 BR OVC003 03/03 Q1023=
202302151450 METAR COR ESMX 151450Z 22004KT 5000 BR OVC003 03/03 Q1023=
202302151420 METAR ESMX 151420Z 23005KT 3300 BR OVC004 03/03 Q1023=
202302151350 METAR ESMX 151350Z AUTO 23005KT 150V250 3800 BR OVC004/// 03/03 Q1024=
202302151320 METAR ESMX 151320Z 21004KT 2500 BR OVC002 02/02 Q1024=
202302151250 METAR ESMX 151250Z AUTO 20005KT 2300 BR OVC002/// 02/02 Q1024=
202302151220 METAR ESMX 151220Z 20006KT 4500 BR OVC002 02/02 Q1025=
202302151150 METAR ESMX 151150Z 22005KT 4500 BR OVC002 02/02 Q1025=
202302151120 METAR ESMX 151120Z 22004KT 5000 BR OVC003 01/01 Q1025=
202302151050 METAR ESMX 151050Z 21004KT 180V240 5000 BR OVC004 01/01 Q1025=
202302151020 METAR ESMX 151020Z 23004KT 5000 BR OVC004 01/01 Q1026=
202302150950 METAR ESMX 150950Z 23005KT 7000 BKN005 OVC007 01/01 Q1026=
202302150920 METAR ESMX 150920Z 23007KT 9000 OVC007 01/M00 Q1026=
202302150850 METAR ESMX 150850Z 22007KT 9999 OVC007 01/M00 Q1026=
202302150820 METAR ESMX 150820Z 22007KT 9999 OVC007 01/M00 Q1027=
202302150750 METAR ESMX 150750Z 21005KT 170V240 9999 OVC008 01/M00 Q1027=
202302150720 METAR ESMX 150720Z 22006KT 200V260 9999 OVC008 01/M00 Q1027=
202302150650 METAR ESMX 150650Z 22006KT 9999 OVC007 01/M00 Q1027=
202302150620 METAR ESMX 150620Z 22006KT 9999 BKN007 01/M00 Q1027=
202302150550 METAR ESMX 150550Z 21005KT 9999 BKN007 00/M00 Q1027=
202302150520 METAR ESMX 150520Z 24004KT 210V300 9999 BKN007 01/M00 Q1028=
202302150450 METAR ESMX 150450Z 23004KT 200V260 9999 BKN007 01/M00 Q1028=
202302150420 METAR ESMX 150420Z AUTO 23004KT 9999 OVC007/// 01/M00 Q1028=
202302150350 METAR ESMX 150350Z AUTO 22005KT 190V260 9999 OVC006/// 01/M00 Q1028=
202302150320 METAR ESMX 150320Z AUTO 27005KT 230V300 9999 OVC006/// 01/M00 Q1028=
202302150250 METAR ESMX 150250Z AUTO 24005KT 9999 OVC007/// 01/M00 Q1029=
202302150220 METAR ESMX 150220Z AUTO 24005KT 200V260 9999 OVC006/// 01/00 Q1029=
202302150150 METAR ESMX 150150Z AUTO 27006KT 9999 OVC007/// 01/00 Q1029=
202302150120 METAR ESMX 150120Z AUTO 27005KT 230V300 9999 OVC007/// 01/00 Q1030=
202302150050 METAR ESMX 150050Z 23005KT 9999 OVC007 01/00 Q1030=
202302150020 METAR ESMX 150020Z 25005KT 9999 OVC007 01/00 Q1030=
202302142350 METAR ESMX 142350Z 26005KT 9999 OVC007 01/00 Q1030=
202302142320 METAR ESMX 142320Z 24005KT 9999 OVC007 01/01 Q1030=
202302142250 METAR ESMX 142250Z 26005KT 9999 OVC009 01/00 Q1030=
202302142220 METAR ESMX 142220Z 26005KT 210V280 9999 OVC008 02/01 Q1031=
202302142150 METAR ESMX 142150Z 24005KT 230V290 9999 OVC008 02/01 Q1031=
202302142120 METAR ESMX 142120Z 26005KT 9999 OVC008 02/01 Q1031=
202302142050 METAR ESMX 142050Z 23006KT 9999 OVC008 02/01 Q1031=
202302142020 METAR ESMX 142020Z 27006KT 230V300 9999 OVC008 02/01 Q1031=
202302141950 METAR ESMX 141950Z 26005KT 230V310 9999 OVC008 02/01 Q1031=
202302141920 METAR ESMX 141920Z 26004KT 230V290 9999 OVC009 03/01 Q1031=
202302141850 METAR ESMX 141850Z AUTO 26007KT 230V290 9999 OVC009/// 03/01 Q1031=
202302141820 METAR ESMX 141820Z 24005KT 9999 BKN010 03/01 Q1031=
202302141750 METAR ESMX 141750Z 29005KT 9999 BKN011 03/01 Q1032=
202302141720 METAR ESMX 141720Z 28006KT 9999 BKN011 03/02 Q1032=
202302141650 METAR ESMX 141650Z 27005KT 9999 BKN011 04/02 Q1032=
202302141620 METAR ESMX 141620Z 27004KT 9999 BKN014 04/02 Q1032=
202302141550 METAR ESMX 141550Z 27005KT 9999 BKN014 04/02 Q1032=
202302141520 METAR ESMX 141520Z 28005KT 240V310 9999 BKN013 04/02 Q1032=
202302141450 METAR ESMX 141450Z 29003KT 240V310 9999 BKN013 04/02 Q1032=
202302141420 METAR ESMX 141420Z 28004KT 250V320 9999 BKN012 04/02 Q1032=
202302141350 METAR ESMX 141350Z 25004KT 230V290 9999 BKN011 04/02 Q1033=
202302141320 METAR ESMX 141320Z 28004KT 9999 BKN010 04/03 Q1033=
202302141250 METAR ESMX 141250Z 30004KT 250V340 9999 BKN009 04/03 Q1033=
202302141220 METAR ESMX 141220Z 26006KT 9999 BKN008 04/02 Q1033=
202302141150 METAR ESMX 141150Z 30006KT 260V340 9999 BKN007 04/03 Q1034=
202302141120 METAR ESMX 141120Z 31007KT 9999 BKN006 03/03 Q1034=
202302141050 METAR ESMX 141050Z 32006KT 290V360 9999 BKN003 02/02 Q1034=
202302141020 METAR ESMX 141020Z 28005KT 230V350 7000 BR BKN002 02/02 Q1034=
202302140950 METAR ESMX 140950Z 26007KT 4500 BR VV002 02/02 Q1034=
202302140920 METAR ESMX 140920Z 29007KT 4300 BR VV002 02/02 Q1034=
202302140850 METAR COR ESMX 140850Z 29004KT 250V320 3000 BR VV002 01/01 Q1034=
202302140820 METAR ESMX 140820Z 29004KT 260V330 1300 R01/1500U R19/1900N VV002 01/01 Q1034=
202302140750 METAR ESMX 140750Z 25005KT 220V280 0800 R01/1100D R19/1600U FG VV002 01/01 Q1034=
202302140720 METAR ESMX 140720Z 26005KT 0900 R19/1800N FG VV002 01/01 Q1034=
202302140650 METAR ESMX 140650Z 26005KT 230V300 1400 R19/P2000N BR VV002 01/01 Q1034=
202302140620 METAR ESMX 140620Z 25004KT 1500 R19/P2000N BR VV002 01/01 Q1033=
202302140550 METAR ESMX 140550Z 29005KT 1300 R19/P2000N BR VV002 01/01 Q1033=
202302140520 METAR ESMX 140520Z 28006KT 240V300 1500 R01/P2000N R19/P2000N VV002 01/01 Q1033=
202302140450 METAR ESMX 140450Z 29005KT 250V320 0900 R01/1900N R19/P2000N FG VV002 01/01 Q1033=
202302140420 METAR ESMX 140420Z AUTO 29004KT 0900 R01/P2000N R19/P2000N FG OVC001/// 01/01 Q1033=
202302140350 METAR ESMX 140350Z AUTO 27005KT 240V300 0600 R01/1600D R19/P2000N FG OVC001/// 01/01 Q1033=
202302140320 METAR ESMX 140320Z AUTO 28005KT 0650 R01/1600U R19/1900D FG OVC001/// 01/01 Q1033=
202302140250 METAR ESMX 140250Z AUTO 29006KT 0800 R01/1800U R19/P2000N FG OVC001/// 01/01 Q1033=
202302140220 METAR ESMX 140220Z AUTO 29006KT 1100 R01/P2000N R19/P2000N OVC001/// 01/01 Q1033=
202302140150 METAR ESMX 140150Z AUTO 30006KT 1200 R01/P2000N R19/P2000N OVC001/// 01/01 Q1033=
202302140120 METAR ESMX 140120Z AUTO 29005KT 0550 R01/1400D R19/P2000N FG OVC001/// 01/01 Q1033=
202302140050 METAR ESMX 140050Z 26006KT 0450 R01/1200N R19/P2000N FG OVC002 01/01 Q1033=
202302140020 METAR ESMX 140020Z 29005KT 260V320 0600 R01/1800D R19/P2000N FG OVC002 01/01 Q1033=
202302132350 METAR ESMX 132350Z AUTO 31006KT 280V350 1300 R01/P2000N R19/P2000N BR OVC001/// 01/01 Q1033=
202302132320 METAR ESMX 132320Z 31005KT 290V350 1900 BR OVC002 02/02 Q1033=
202302132250 METAR ESMX 132250Z 29006KT 2100 BR OVC002 02/02 Q1033=
202302132220 METAR ESMX 132220Z 30005KT 260V330 1000 R01/P2000N R19/P2000N FG OVC001 02/02 Q1033=
202302132150 METAR ESMX 132150Z 27007KT 1200 R01/P2000N R19/P2000N BR BKN002 02/02 Q1032=
202302132120 METAR ESMX 132120Z 26004KT CAVOK 02/02 Q1032=
202302132050 METAR ESMX 132050Z AUTO 26004KT 9999 NCD 02/02 Q1032=
202302132020 METAR ESMX 132020Z 26004KT 210V280 CAVOK 03/03 Q1032=
202302131950 METAR ESMX 131950Z AUTO 26005KT 9999 NCD 03/03 Q1032=
202302131920 METAR ESMX 131920Z 27005KT CAVOK 04/03 Q1031=
202302131850 METAR ESMX 131850Z 27005KT CAVOK 04/03 Q1031=
202302131820 METAR ESMX 131820Z 26006KT CAVOK 04/03 Q1031=
202302131750 METAR ESMX 131750Z 26005KT CAVOK 04/03 Q1031=
202302131720 METAR ESMX 131720Z 26004KT CAVOK 05/03 Q1031=
202302131650 METAR ESMX 131650Z 26005KT CAVOK 05/03 Q1030=
202302131620 METAR ESMX 131620Z 27005KT CAVOK 06/03 Q1030=
202302131550 METAR ESMX 131550Z 27005KT CAVOK 07/03 Q1030=
202302131520 METAR ESMX 131520Z 25005KT 230V290 CAVOK 07/04 Q1030=
202302131450 METAR ESMX 131450Z 27008KT CAVOK 08/04 Q1030=
202302131420 METAR ESMX 131420Z 28010KT 9999 FEW018 08/04 Q1029=
202302131350 METAR ESMX 131350Z 29010KT 9999 FEW018 08/04 Q1029=
202302131320 METAR ESMX 131320Z 29009KT 250V320 9999 FEW018 08/04 Q1029=
202302131250 METAR ESMX 131250Z 26011KT 9999 FEW018 08/04 Q1029=
202302131220 METAR ESMX 131220Z 25010KT 210V290 9999 FEW018 08/04 Q1029=
202302131150 METAR ESMX 131150Z 29009KT 9999 FEW018 07/04 Q1029=
202302131120 METAR ESMX 131120Z 27010KT 9999 SCT016 08/04 Q1029=
202302131050 METAR ESMX 131050Z 29011KT 9999 SCT015 07/03 Q1029=
202302131020 METAR COR ESMX 131020Z 27010KT 9999 BKN013 06/04 Q1029=
202302130950 METAR ESMX 130950Z 27010KT 240V310 9999 BKN012 06/03 Q1029=
202302130920 METAR ESMX 130920Z 28008KT 9999 BKN011 05/03 Q1029=
202302130850 METAR ESMX 130850Z 28010KT 250V330 9999 BKN009 05/03 Q1029=
202302130820 METAR ESMX 130820Z 28010KT 9999 BKN009 05/03 Q1029=
202302130750 METAR ESMX 130750Z 28009KT 240V300 9999 BKN009 04/03 Q1028=
202302130720 METAR ESMX 130720Z 27010KT 9999 BKN010 05/03 Q1028=
202302130650 METAR ESMX 130650Z 28011KT 9999 BKN011 05/03 Q1028=
202302130620 METAR ESMX 130620Z 28011KT 250V320 9999 BKN012 05/03 Q1028=
202302130550 METAR ESMX 130550Z 26011KT 230V290 9999 BKN015 05/03 Q1028=
202302130520 METAR COR ESMX 130520Z 26010KT 9999 BKN015 05/04 Q1028=
202302130450 METAR COR ESMX 130450Z 27010KT 9999 BKN014 05/04 Q1028=
202302130420 METAR ESMX 130420Z AUTO 27007KT 240V300 9999 OVC013/// 05/04 Q1028=
202302130350 METAR ESMX 130350Z AUTO 28009KT 9999 OVC013/// 05/04 Q1028=
202302130320 METAR ESMX 130320Z AUTO 28009KT 9999 OVC010/// 05/04 Q1028=
202302130250 METAR ESMX 130250Z AUTO 26008KT 9999 OVC009/// 05/04 Q1028=
202302130220 METAR ESMX 130220Z AUTO 27009KT 9999 OVC008/// 05/04 Q1028=
202302130150 METAR ESMX 130150Z AUTO 26009KT 230V290 9999 OVC008/// 05/04 Q1028=
202302130120 METAR ESMX 130120Z AUTO 26008KT 230V300 9999 OVC007/// 05/04 Q1028=
202302130050 METAR ESMX 130050Z AUTO 26008KT 230V290 9999 OVC006/// 05/04 Q1028=
202302130020 METAR ESMX 130020Z AUTO 26008KT 9999 OVC005/// 05/04 Q1029=
202302122350 METAR ESMX 122350Z AUTO 25008KT 220V290 9999 OVC006/// 05/04 Q1029=
202302122320 METAR ESMX 122320Z AUTO 26008KT 230V290 9999 OVC006/// 05/04 Q1029=
202302122250 METAR ESMX 122250Z AUTO 26009KT 230V290 9999 OVC006/// 05/04 Q1029=
202302122220 METAR ESMX 122220Z AUTO 28008KT 9999 OVC006/// 05/05 Q1029=
202302122150 METAR ESMX 122150Z AUTO 28009KT 260V320 9999 OVC007/// 05/04 Q1029=
202302122120 METAR ESMX 122120Z AUTO 28011KT 9999 OVC008/// 05/05 Q1029=
202302122050 METAR ESMX 122050Z 28009KT 250V320 9999 BKN009 06/05 Q1029=
202302122020 METAR ESMX 122020Z 28010KT 240V310 9999 BKN010 06/05 Q1029=
202302121950 METAR ESMX 121950Z 28010KT 9999 BKN009 06/05 Q1029=
202302121920 METAR ESMX 121920Z 27008KT 9999 BKN010 05/05 Q1029=
202302121850 METAR ESMX 121850Z 26008KT 9999 FEW010 05/05 Q1029=
202302121820 METAR ESMX 121820Z 26008KT CAVOK 05/04 Q1029=
202302121750 METAR ESMX 121750Z 25007KT CAVOK 05/04 Q1029=
202302121720 METAR ESMX 121720Z 25007KT CAVOK 05/05 Q1029=
202302121650 METAR ESMX 121650Z 27006KT 9999 FEW012 05/05 Q1029=
202302121620 METAR ESMX 121620Z 27009KT 9999 BKN011 06/05 Q1028=
202302121550 METAR ESMX 121550Z 26010KT 9999 BKN012 06/05 Q1028=
202302121520 METAR ESMX 121520Z 27010KT 9999 BKN012 06/05 Q1028=
202302121450 METAR ESMX 121450Z 28010KT 240V310 9999 BKN012 07/05 Q1028=
202302121420 METAR ESMX 121420Z 27011KT 240V300 9999 BKN011 OVC015 06/05 Q1028=
202302121350 METAR ESMX 121350Z 26010KT 9999 BKN008 06/06 Q1028=
202302121320 METAR ESMX 121320Z 27009KT 9999 OVC006 06/06 Q1028=
202302121250 METAR ESMX 121250Z 26009KT 6000 BR OVC005 05/05 Q1028=
202302121220 METAR ESMX 121220Z 26008KT 6000 BR OVC004 05/05 Q1028=
202302121150 METAR ESMX 121150Z 26008KT 240V300 5000 BR OVC003 05/05 Q1029=
202302121120 METAR ESMX 121120Z 26008KT 220V280 5000 BR OVC002 05/05 Q1029=
202302121050 METAR COR ESMX 121050Z 25007KT 5000 BR OVC002 04/04 Q1029=
202302121020 METAR ESMX 121020Z AUTO 23008KT 2600 BR OVC001/// 04/04 Q1029=
202302120950 METAR ESMX 120950Z AUTO 23008KT 1700 BR OVC001/// 03/03 Q1029=
202302120920 METAR ESMX 120920Z AUTO 24007KT 1100 R01/1300U R19/1600N BR OVC001/// 03/03 Q1029=
202302120850 METAR ESMX 120850Z AUTO 21007KT 1200 R01/1300N R19/1900D OVC001/// 03/03 Q1029=
202302120820 METAR ESMX 120820Z AUTO 22004KT 180V260 1300 R01/1500U R19/1600N OVC001/// 02/02 Q1029=
202302120750 METAR ESMX 120750Z AUTO 23004KT 0700 R01/1000N R19/1100N FG OVC001/// 02/02 Q1030=
202302120720 METAR ESMX 120720Z AUTO 21005KT 0600 R01/1000N R19/1100N FG OVC001/// 02/02 Q1030=
202302120650 METAR ESMX 120650Z AUTO 20006KT 0650 R01/1400D R19/1500D FG OVC001/// 01/01 Q1029=
202302120620 METAR ESMX 120620Z AUTO 20006KT 0700 R01/1800U R19/1600U FG BKN001/// OVC003/// 01/01 Q1029=
202302120550 METAR ESMX 120550Z AUTO 21005KT 0200 R01/0750N R19/0650N FG VV003 01/01 Q1029=
202302120520 METAR ESMX 120520Z AUTO 19005KT 0200 R01/0700N R19/0700N FG VV002 01/01 Q1029=
202302120450 METAR ESMX 120450Z AUTO 19006KT 0200 R01/0700N R19/0750N FG FEW001/// OVC002/// 01/01 Q1029=
202302120420 METAR ESMX 120420Z AUTO 20006KT 0200 R01/0750N R19/0700N FG VV002 01/01 Q1029=
202302120350 METAR ESMX 120350Z AUTO 19006KT 0250 R01/0800N R19/0750N FG VV002 01/01 Q1029=
202302120320 METAR ESMX 120320Z AUTO 19006KT 0250 R01/0800D R19/0900N FG VV002 01/01 Q1029=
202302120250 METAR ESMX 120250Z AUTO 19007KT 0300 R01/0900N R19/0900N FG BKN001/// OVC002/// 01/01 Q1029=
202302120220 METAR ESMX 120220Z AUTO 20007KT 0250 R01/0800N R19/0800N FG BKN001/// OVC002/// 01/01 Q1029=
202302120150 METAR ESMX 120150Z AUTO 20007KT 0250 R01/0800N R19/0900D FG OVC001/// 01/01 Q1030=
202302120120 METAR ESMX 120120Z AUTO 19009KT 1200 R01/P2000N R19/P2000N BR BKN001/// OVC003/// 01/01 Q1030=
202302120050 METAR ESMX 120050Z AUTO 19008KT 9999 OVC001/// 01/01 Q1029=
202302120020 METAR ESMX 120020Z AUTO 18007KT 2100 OVC001/// 01/01 Q1029=
202302112350 METAR ESMX 112350Z AUTO 17007KT 0800 R01/1900N R19/P2000N FG OVC001/// 00/00 Q1029=
202302112320 METAR ESMX 112320Z AUTO 19008KT 0500 R01/1300N R19/1300U FG OVC001/// 00/00 Q1029=
202302112250 METAR ESMX 112250Z AUTO 18007KT 0450 R01/1300D R19/1600D FZFG BKN001/// M00/M00 Q1029=
202302112220 METAR ESMX 112220Z AUTO 14004KT 9999 NCD M00/M00 Q1029=
202302112150 METAR ESMX 112150Z AUTO 11004KT 9999 NCD M01/M01 Q1028=
202302112120 METAR ESMX 112120Z AUTO 11003KT 9999 NCD M02/M02 Q1028=
202302112050 METAR ESMX 112050Z AUTO 00000KT 9999 NCD M02/M03 Q1028=
202302112020 METAR ESMX 112020Z AUTO VRB03KT 9999 NCD M01/M02 Q1027=
202302111950 METAR ESMX 111950Z AUTO 19001KT 9999 NCD M02/M02 Q1027=
202302111920 METAR ESMX 111920Z AUTO 00000KT 9999 NCD M02/M02 Q1026=
202302111850 METAR ESMX 111850Z AUTO 00000KT 9999 NCD M01/M01 Q1026=
202302111820 METAR ESMX 111820Z AUTO 30001KT 9999 NCD 00/M01 Q1026=
202302111750 METAR ESMX 111750Z AUTO 00000KT 9999 NCD 01/M01 Q1025=
202302111720 METAR ESMX 111720Z AUTO 33002KT 9999 NCD 02/M01 Q1024=
202302111650 METAR ESMX 111650Z AUTO 34005KT 9999 NCD 04/M01 Q1023=
202302111620 METAR ESMX 111620Z AUTO 35007KT 9999 NCD 04/M01 Q1023=
202302111550 METAR ESMX 111550Z AUTO 33006KT 9999 NCD 06/M01 Q1022=
202302111520 METAR ESMX 111520Z AUTO 33006KT 9999 FEW190/// 06/01 Q1021=
202302111450 METAR ESMX 111450Z AUTO 35009KT 9999 NCD 07/00 Q1021=
202302111420 METAR ESMX 111420Z AUTO 34009KT 9999 NCD 08/01 Q1020=
202302111350 METAR ESMX 111350Z AUTO 34010KT 9999 NCD 08/01 Q1019=
202302111320 METAR ESMX 111320Z AUTO 33010KT 9999 NCD 09/01 Q1018=
202302111250 METAR ESMX 111250Z AUTO 31011KT 9999 NCD 09/02 Q1018=
202302111220 METAR ESMX 111220Z AUTO 32011KT 9999 FEW032/// 09/03 Q1017=
202302111150 METAR ESMX 111150Z AUTO 32013KT 9999 FEW030/// 09/03 Q1016=
202302111120 METAR ESMX 111120Z AUTO 31010KT 9999 FEW030/// 09/04 Q1016=
202302111050 METAR ESMX 111050Z AUTO 30013KT 9999 NCD 09/04 Q1015=
202302111020 METAR ESMX 111020Z AUTO 29011KT 250V320 9999 NCD 08/05 Q1014=
202302110950 METAR ESMX 110950Z AUTO 28012KT 9999 NCD 08/05 Q1013=
202302110920 METAR ESMX 110920Z AUTO 29013KT 9999 NCD 07/05 Q1013=
202302110850 METAR ESMX 110850Z AUTO 29013KT 250V320 9999 BKN013/// 07/05 Q1012=
202302110820 METAR ESMX 110820Z AUTO 28011KT 9999 OVC013/// 07/05 Q1011=
202302110750 METAR ESMX 110750Z AUTO 28012KT 9999 BKN013/// BKN017/// 07/05 Q1011=
202302110720 METAR ESMX 110720Z AUTO 26012KT 240V300 9999 BKN011/// OVC015/// 06/06 Q1010=
202302110650 METAR ESMX 110650Z AUTO 26013KT 9999 OVC009/// 06/06 Q1010=
202302110620 METAR ESMX 110620Z AUTO 26014KT 9999 OVC006/// 06/06 Q1010 REUP=
202302110550 METAR ESMX 110550Z AUTO 27013KT 7000 BR OVC006/// 06/06 Q1009=
202302110520 METAR ESMX 110520Z AUTO 26013G25KT 5000 BR BKN006/// OVC009/// 06/06 Q1009 REUP=
202302110450 METAR ESMX 110450Z AUTO 26014G26KT 230V290 6000 BR SCT006/// OVC009/// 06/06 Q1009=
202302110420 METAR ESMX 110420Z AUTO 26015KT 9999 OVC009/// 07/06 Q1009=
202302110350 METAR ESMX 110350Z AUTO 26015KT 220V280 9999 OVC008/// 06/06 Q1009=
202302110320 METAR ESMX 110320Z AUTO 25015G25KT 220V280 9999 OVC008/// 06/06 Q1009=
202302110250 METAR ESMX 110250Z AUTO 25015G25KT 9999 OVC006/// 06/06 Q1009=
202302110220 METAR ESMX 110220Z AUTO 26015KT 6000 BR OVC005/// 06/06 Q1009=
202302110150 METAR ESMX 110150Z AUTO 26014G29KT 6000 BR OVC004/// 06/06 Q1009=
202302110120 METAR ESMX 110120Z AUTO 25017G28KT 5000 BR OVC004/// 05/05 Q1010=
202302110050 METAR ESMX 110050Z AUTO 25014G25KT 5000 BR OVC004/// 05/05 Q1010=
202302110020 METAR ESMX 110020Z AUTO 23014KT 3900 BR BKN002/// OVC004/// 05/05 Q1010 REDZ=
202302102350 METAR ESMX 102350Z AUTO 24014KT 3700 BR OVC002/// 04/04 Q1011=
202302102320 METAR ESMX 102320Z AUTO 24015KT 200V260 2500 -DZ SCT002/// OVC004/// 04/04 Q1011=
202302102250 METAR ESMX 102250Z AUTO 23015KT 2300 -RA BKN002/// OVC004/// 04/04 Q1012 REDZ REUP=
202302102220 METAR ESMX 102220Z AUTO 23014KT 210V280 3400 UP FEW002/// OVC004/// 04/04 Q1012=
202302102150 METAR ESMX 102150Z AUTO 22014KT 2900 BR OVC003/// 03/03 Q1013 REDZ=
202302102120 METAR ESMX 102120Z AUTO 23015KT 3300 BR OVC003/// 03/03 Q1013=
202302102050 METAR ESMX 102050Z AUTO 22014KT 3500 BR FEW002/// OVC004/// 03/03 Q1014=
202302102020 METAR ESMX 102020Z AUTO 22013KT 4500 -DZ OVC005/// 03/03 Q1015 REDZ=
202302101950 METAR ESMX 101950Z AUTO 22011KT 9000 DZ OVC006/// 03/03 Q1016=
202302101920 METAR ESMX 101920Z AUTO 22012KT 9999 DZ OVC005/// 03/03 Q1016 REDZ=
202302101850 METAR ESMX 101850Z AUTO 21013KT 7000 DZ OVC004/// 03/03 Q1017=
202302101820 METAR ESMX 101820Z 19013KT 6000 DZ OVC005 02/02 Q1018=
202302101750 METAR ESMX 101750Z 20009KT 9000 -RA BKN008 02/01 Q1019=
202302101720 METAR ESMX 101720Z 20009KT 5000 -RASN FEW002 BKN010 01/00 Q1020=
202302101650 METAR ESMX 101650Z AUTO 21010KT 6000 -RA SCT015/// BKN028/// OVC053/// 02/M00 Q1020 REDZ REUP=
202302101620 METAR ESMX 101620Z 22008KT 9999 SCT025 BKN042 02/M02 Q1021=
202302101550 METAR ESMX 101550Z AUTO 22008KT 9999 BKN025/// OVC031/// 02/M03 Q1021=
202302101520 METAR ESMX 101520Z 21007KT 9999 FEW046 02/M04 Q1022=
202302101450 METAR ESMX 101450Z AUTO 24008KT 9999 NCD 03/M04 Q1022=
202302101420 METAR ESMX 101420Z 25009KT 200V270 CAVOK 03/M05 Q1022=
202302101350 METAR ESMX 101350Z 25010KT 220V280 9999 FEW040 04/M05 Q1022=
202302101320 METAR ESMX 101320Z AUTO 25008KT 210V280 9999 NCD 04/M04 Q1022=
202302101250 METAR ESMX 101250Z 26010KT 220V280 9999 FEW044 03/M03 Q1023=
202302101220 METAR ESMX 101220Z 27010KT 9999 SCT034 04/M03 Q1023=
202302101150 METAR ESMX 101150Z 27010KT 230V320 9999 FEW037 SCT046 04/M03 Q1023=
202302101120 METAR ESMX 101120Z 28010KT 240V310 9999 BKN036 03/M04 Q1023=
202302101050 METAR ESMX 101050Z 26009KT 230V290 9999 SCT034 03/M04 Q1023=
202302101020 METAR ESMX 101020Z 29010KT 250V320 CAVOK 03/M04 Q1023=
202302100950 METAR ESMX 100950Z 28011KT CAVOK 03/M04 Q1023=
202302100920 METAR ESMX 100920Z 28010KT 240V310 CAVOK 02/M03 Q1023=
202302100850 METAR ESMX 100850Z 26009KT CAVOK 02/M03 Q1023=
202302100820 METAR ESMX 100820Z 26008KT 220V290 CAVOK 01/M03 Q1022=
202302100750 METAR ESMX 100750Z 28008KT CAVOK 00/M03 Q1022=
202302100720 METAR ESMX 100720Z AUTO 27007KT 230V300 9999 NCD 00/M03 Q1022=
202302100650 METAR ESMX 100650Z 27008KT 250V310 CAVOK 00/M03 Q1021=
202302100620 METAR ESMX 100620Z 27011KT CAVOK 01/M03 Q1020=
202302100550 METAR ESMX 100550Z 29010KT CAVOK 01/M02 Q1020=
202302100520 METAR ESMX 100520Z AUTO 26009KT 9999 NCD 01/M02 Q1020=
202302100450 METAR ESMX 100450Z AUTO 26008KT 240V300 9999 NCD 01/M02 Q1019=
202302100420 METAR ESMX 100420Z AUTO 27012KT 240V320 9999 NCD 01/M02 Q1019=
202302100350 METAR ESMX 100350Z AUTO 26013KT 230V290 9999 NCD 02/M01 Q1018=
202302100320 METAR ESMX 100320Z AUTO 27010KT 9999 NCD 02/M01 Q1018=
202302100250 METAR ESMX 100250Z AUTO 27012KT 9999 NCD 02/M01 Q1018=
202302100220 METAR ESMX 100220Z AUTO 27013KT 9999 NCD 02/M00 Q1018=
202302100150 METAR ESMX 100150Z AUTO 27013KT 9999 FEW019/// 02/M00 Q1017=
202302100120 METAR ESMX 100120Z AUTO 27012KT 9999 FEW024/// SCT059/// 02/M00 Q1017=
202302100050 METAR ESMX 100050Z AUTO 27016G29KT 9999 -DZ FEW009/// SCT016/// BKN022/// 02/M00 Q1017 REUP=
202302100020 METAR ESMX 100020Z 25015KT 9999 SCT016 BKN024 03/01 Q1017=
202302092350 METAR ESMX 092350Z 25013G24KT 9999 SCT012 BKN016 03/02 Q1016=
202302092320 METAR ESMX 092320Z 23013G25KT 9999 BKN011 03/02 Q1016=
202302092250 METAR ESMX 092250Z 23013G23KT 200V270 9999 BKN014 03/02 Q1016=
202302092220 METAR ESMX 092220Z 22014KT 9999 BKN015 03/02 Q1016=
202302092150 METAR ESMX 092150Z 22013KT 9999 BKN015 03/01 Q1016=
202302092120 METAR ESMX 092120Z 22015KT 9999 BKN015 03/01 Q1016=
202302092050 METAR ESMX 092050Z 22013KT 9999 SCT012 BKN015 03/02 Q1017=
202302092020 METAR ESMX 092020Z 22012KT 9000 BKN007 02/02 Q1018=
202302091950 METAR ESMX 091950Z AUTO 22011KT 5000 BR BKN004/// OVC005/// 02/02 Q1018=
202302091920 METAR ESMX 091920Z 21013KT 5000 BR OVC003 02/02 Q1018=
202302091850 METAR ESMX 091850Z AUTO 21013KT 3700 BR OVC003/// 02/01 Q1019=
202302091820 METAR ESMX 091820Z 21012KT 5000 BR OVC003 01/01 Q1018=
202302091750 METAR ESMX 091750Z 22012KT 190V250 3500 BR OVC002 01/01 Q1019=
202302091720 METAR ESMX 091720Z 22012KT 3000 BR OVC003 01/01 Q1019=
202302091650 METAR ESMX 091650Z 21011KT 5000 OVC004 01/01 Q1019=
202302091620 METAR ESMX 091620Z 22011KT 5000 OVC005 01/00 Q1019=
202302091550 METAR ESMX 091550Z 22011KT 7000 OVC005 01/00 Q1019=
202302091520 METAR ESMX 091520Z 20010KT 8000 BR BKN009 01/M00 Q1020=
202302091450 METAR ESMX 091450Z 20012KT 6000 BR BKN012 01/M00 Q1020=
202302091420 METAR ESMX 091420Z 22011KT 3000 SN VV019 01/M01 Q1020=
202302091350 METAR ESMX 091350Z 20011KT 9999 -RASN BKN013 01/M01 Q1020=
202302091320 METAR ESMX 091320Z 21011KT 9999 BKN014 01/M02 Q1020=
202302091250 METAR ESMX 091250Z 20014KT 9999 BKN014 01/M02 Q1020=
202302091220 METAR ESMX 091220Z 21013KT 9999 BKN015 00/M02 Q1021=
202302091150 METAR ESMX 091150Z 19013KT 9999 BKN017 00/M02 Q1021=
202302091120 METAR COR ESMX 091120Z 20011KT 9999 BKN019 00/M02 Q1022=
202302091050 METAR COR ESMX 091050Z 20013KT 9999 BKN021 00/M02 Q1022=
202302091020 METAR ESMX 091020Z 19014KT 9999 FEW021 BKN110 00/M03 Q1022=
202302090950 METAR ESMX 090950Z 20012KT CAVOK M00/M03 Q1023=
202302090920 METAR ESMX 090920Z 19013KT CAVOK M00/M03 Q1022=
202302090850 METAR ESMX 090850Z 18010KT CAVOK M01/M03 Q1023=
202302090820 METAR ESMX 090820Z 18011KT 140V210 CAVOK M02/M03 Q1023=
202302090750 METAR ESMX 090750Z 18011KT CAVOK M02/M03 Q1023=
202302090720 METAR COR ESMX 090720Z 18011KT CAVOK M02/M04 Q1023=
202302090650 METAR ESMX 090650Z 18011KT CAVOK M02/M04 Q1024=
202302090620 METAR ESMX 090620Z 18011KT CAVOK M02/M04 Q1024=
202302090550 METAR ESMX 090550Z 18012KT CAVOK M02/M04 Q1024=
202302090520 METAR ESMX 090520Z 19011KT CAVOK M02/M04 Q1024=
202302090450 METAR ESMX 090450Z 20012KT CAVOK M02/M03 Q1025=
202302090420 METAR ESMX 090420Z AUTO 19013KT 9999 NCD M02/M03 Q1025=
202302090350 METAR ESMX 090350Z AUTO 19014KT 9999 NCD M02/M03 Q1025=
202302090320 METAR ESMX 090320Z AUTO 19015KT 9999 NCD M02/M03 Q1025=
202302090250 METAR ESMX 090250Z AUTO 19015KT 9999 NCD M02/M03 Q1026=
202302090220 METAR ESMX 090220Z AUTO 19015KT 9999 NCD M01/M03 Q1026=
202302090150 METAR ESMX 090150Z AUTO 19014KT 9999 NCD M01/M03 Q1027=
202302090120 METAR ESMX 090120Z AUTO 19014KT 9999 NCD M01/M03 Q1028=
202302090050 METAR ESMX 090050Z AUTO 19014KT 9999 NCD M01/M02 Q1028=
202302090020 METAR ESMX 090020Z 19014KT CAVOK M01/M02 Q1029=
202302082350 METAR ESMX 082350Z 19014KT CAVOK M01/M02 Q1030=
202302082320 METAR ESMX 082320Z 19013KT CAVOK M01/M02 Q1030=
202302082250 METAR ESMX 082250Z 19013KT CAVOK M01/M02 Q1030=
202302082220 METAR ESMX 082220Z 19012KT CAVOK M01/M02 Q1031=
202302082150 METAR ESMX 082150Z 19013KT CAVOK M01/M03 Q1031=
202302082120 METAR ESMX 082120Z 19012KT CAVOK M01/M03 Q1031=
202302082050 METAR ESMX 082050Z 20012KT CAVOK M00/M02 Q1032=
202302082020 METAR ESMX 082020Z 19013KT CAVOK M00/M03 Q1032=
202302081950 METAR ESMX 081950Z AUTO 18012KT 9999 BKN180/// OVC200/// M00/M03 Q1032=
202302081920 METAR ESMX 081920Z AUTO 19010KT 9999 OVC190/// M00/M03 Q1033=
202302081850 METAR ESMX 081850Z AUTO 18011KT 9999 BKN190/// 00/M03 Q1033=
202302081820 METAR ESMX 081820Z 18009KT CAVOK 00/M02 Q1033=
202302081750 METAR ESMX 081750Z 18008KT CAVOK 00/M01 Q1033=
202302081720 METAR ESMX 081720Z 19008KT CAVOK 01/M01 Q1034=
202302081650 METAR ESMX 081650Z 18009KT CAVOK 01/M01 Q1034=
202302081620 METAR ESMX 081620Z 18007KT CAVOK 01/M01 Q1034=
202302081550 METAR ESMX 081550Z 19008KT CAVOK 01/M00 Q1035=
202302081520 METAR ESMX 081520Z 17007KT CAVOK 01/00 Q1035=
202302081450 METAR ESMX 081450Z 18007KT 9999 FEW007 OVC190 01/M00 Q1035=
202302081420 METAR ESMX 081420Z 18008KT 9999 SCT007 OVC190 02/00 Q1036=
202302081350 METAR ESMX 081350Z 19007KT 9999 BKN006 02/01 Q1036=
202302081320 METAR ESMX 081320Z 22008KT 6000 BR BKN003 01/01 Q1036=
202302081250 METAR ESMX 081250Z 21009KT 6000 BR BKN002 01/01 Q1037=
202302081220 METAR ESMX 081220Z 21008KT 6000 BR BKN003 01/01 Q1037=
202302081150 METAR ESMX 081150Z 22007KT 5000 BR OVC002 01/01 Q1037=
202302081120 METAR ESMX 081120Z 21006KT 190V250 5000 BR OVC002 01/01 Q1037=
202302081050 METAR ESMX 081050Z 23007KT 2800 BR OVC002 01/01 Q1037=
202302081020 METAR ESMX 081020Z 22010KT 2000 BKN002 01/01 Q1037=
202302080950 METAR ESMX 080950Z 23009KT 2100 BR VV002 01/01 Q1037=
202302080920 METAR ESMX 080920Z 22010KT 1300 R01/1100N R19/P2000N BR VV002 01/01 Q1037=
202302080850 METAR ESMX 080850Z 22009KT 1100 R01/1400N R19/1800U BR VV002 01/01 Q1037=
202302080820 METAR ESMX 080820Z 23008KT 1200 R01/1400D R19/1800U BR VV002 01/01 Q1037=
202302080750 METAR COR ESMX 080750Z 21009KT 0900 R01/1000N R19/1300N FG VV002 01/01 Q1037=
202302080720 METAR COR ESMX 080720Z 22008KT 1000 R01/1400D R19/1700D FG VV002 01/01 Q1037=
202302080650 METAR COR ESMX 080650Z 22008KT 0900 R01/1600U R19/1900N FG VV002 01/01 Q1038=
202302080620 METAR ESMX 080620Z AUTO 22008KT 0700 R01/1600D R19/1800N FG OVC001/// 01/01 Q1037=
202302080550 METAR ESMX 080550Z AUTO 22008KT 0500 R01/1300N R19/1400U FG OVC001/// 01/01 Q1037=
202302080520 METAR ESMX 080520Z 25006KT 0650 R01/1600D R19/P2000D FG VV002 01/01 Q1037=
202302080450 METAR COR ESMX 080450Z 23007KT 0600 R01/1500N R19/1800N FG VV002 01/01 Q1037=
202302080420 METAR ESMX 080420Z AUTO 22008KT 0500 R01/1300N R19/1600N FG OVC001/// 01/01 Q1037=
202302080350 METAR ESMX 080350Z AUTO 22008KT 0450 R01/1200N R19/1500N FG OVC001/// 01/01 Q1037=
202302080320 METAR ESMX 080320Z AUTO 21008KT 0450 R01/1300N R19/1500N FG OVC001/// 01/01 Q1037=
202302080250 METAR ESMX 080250Z AUTO 22007KT 0500 R01/1300N R19/1500N FG OVC001/// 01/01 Q1037=
202302080220 METAR ESMX 080220Z AUTO 22007KT 0550 R01/1400N R19/1500N FG OVC001/// 01/01 Q1037=
202302080150 METAR ESMX 080150Z AUTO 22008KT 0700 R01/1700N R19/P2000N FG OVC001/// 01/01 Q1037=
202302080120 METAR ESMX 080120Z AUTO 22008KT 0700 R01/1700N R19/1800N FG OVC001/// 01/01 Q1037=
202302080050 METAR ESMX 080050Z 21008KT 0600 R19/1400U FG VV002 01/01 Q1037=
202302080020 METAR ESMX 080020Z 20008KT 0500 R19/1100N FG VV002 01/01 Q1037=
202302072350 METAR ESMX 072350Z 22007KT 0500 R19/1200N FG VV002 01/01 Q1037=
202302072320 METAR ESMX 072320Z 22007KT 0600 R19/1300N FG VV002 01/01 Q1037=
202302072250 METAR ESMX 072250Z 22007KT 0700 R19/1600D FG VV002 01/01 Q1037=
202302072220 METAR ESMX 072220Z 22006KT 0900 R19/P2000N FG VV002 01/01 Q1037=
202302072150 METAR ESMX 072150Z 23006KT 210V270 2000 BR VV002 01/01 Q1036=
202302072120 METAR ESMX 072120Z 24006KT 2500 BR VV002 01/01 Q1036=
202302072050 METAR ESMX 072050Z 24006KT 3000 BR OVC002 01/01 Q1036=
202302072020 METAR ESMX 072020Z 24006KT 2000 BR OVC002 01/01 Q1036=
202302071950 METAR ESMX 071950Z AUTO 24006KT 1300 R01/P2000N R19/P2000N BR OVC001/// 01/01 Q1036=
202302071920 METAR ESMX 071920Z AUTO 22007KT 1800 BR OVC002/// 01/01 Q1036=
202302071850 METAR ESMX 071850Z AUTO 23006KT 5000 BR OVC003/// 01/01 Q1036=
202302071820 METAR ESMX 071820Z 23006KT 9999 BKN004 01/01 Q1037=
202302071750 METAR ESMX 071750Z 22007KT 9999 BKN005 BKN009 01/01 Q1037=
202302071720 METAR ESMX 071720Z 21005KT 9999 BKN004 01/01 Q1037=
202302071650 METAR ESMX 071650Z 23006KT 9999 BKN004 01/01 Q1036=
202302071620 METAR ESMX 071620Z 24007KT 9999 BKN003 01/01 Q1036=
202302071550 METAR ESMX 071550Z 24007KT 4800 BR BKN002 00/00 Q1036=
202302071520 METAR ESMX 071520Z 25006KT 220V290 6000 BR BKN003 01/01 Q1036=
202302071450 METAR ESMX 071450Z 26007KT 230V290 2300 BR BKN002 00/00 Q1036=
202302071420 METAR ESMX 071420Z 23006KT 3200 BR BKN002 00/00 Q1037=
202302071350 METAR ESMX 071350Z 23006KT 190V250 1900 BR BKN002 00/00 Q1037=
202302071320 METAR ESMX 071320Z 23006KT 200V260 2000 BR BKN002 00/00 Q1037=
202302071250 METAR ESMX 071250Z AUTO 23004KT 1000 R01/1100N R19/1300N OVC001/// 00/00 Q1037=
202302071220 METAR ESMX 071220Z 22004KT 1700 BR BKN002 M00/M00 Q1037=
202302071150 METAR ESMX 071150Z AUTO 21005KT 0600 R01/0800N R19/0900N FZFG OVC001/// M00/M00 Q1037=
202302071120 METAR ESMX 071120Z AUTO 23005KT 0800 R01/1000N R19/1100N FZFG OVC001/// M00/M00 Q1037=
202302071050 METAR ESMX 071050Z 23006KT 2300 R01/1100N R19/1300N BR BKN002 M01/M01 Q1037=
202302071020 METAR ESMX 071020Z 23006KT 2300 BR BKN001 M01/M01 Q1037=
202302070950 METAR ESMX 070950Z 22005KT 3000 BR BKN002 M01/M01 Q1037=
202302070920 METAR ESMX 070920Z 23005KT 3000 BR BKN002 M01/M01 Q1037=
202302070850 METAR ESMX 070850Z 24004KT 3900 BR BKN003 M01/M01 Q1037=
202302070820 METAR ESMX 070820Z 24005KT 3500 BR BKN003 M02/M02 Q1037=
202302070750 METAR ESMX 070750Z 23005KT 4000 BR BKN002 M02/M02 Q1037=
202302070720 METAR ESMX 070720Z 21003KT 2200 BKN002 M02/M02 Q1037=
202302070650 METAR ESMX 070650Z 21003KT 1500 R01/1900N R19/P2000N BKN002 M03/M03 Q1037=
202302070620 METAR ESMX 070620Z 21004KT 0650 R01/1600D R19/P2000N FZFG VV002 M03/M03 Q1037=
202302070550 METAR ESMX 070550Z 23003KT 0700 R01/1900N R19/1900N FZFG VV002 M03/M03 Q1037=
202302070520 METAR COR ESMX 070520Z VRB03KT 0500 R01/1100N R19/1400U FZFG VV002 M04/M04 Q1038=
202302070450 METAR COR ESMX 070450Z 23003KT 0500 R01/0900N R19/P2000N FZFG VV002 M05/M05 Q1038=
202302070420 METAR ESMX 070420Z AUTO 22003KT 0200 R01/0700N R19/P2000N FZFG OVC001/// M05/M05 Q1038=
202302070350 METAR ESMX 070350Z AUTO 22003KT 0250 R01/0800N R19/1000D FZFG OVC001/// M05/M05 Q1038=
202302070320 METAR ESMX 070320Z AUTO VRB03KT 0250 R01/1800D R19/0750N -FZRA OVC001/// M05/M05 Q1038 RESG REFZUP RESHUP=
202302070250 METAR ESMX 070250Z AUTO 28005KT 0200 R01/0800D R19/0650N FZFG OVC001/// M06/M06 Q1038=
202302070220 METAR ESMX 070220Z AUTO 26004KT 0400 R01/P2000D R19/P2000D FZFG OVC001/// M07/M07 Q1038 RESG=
202302070150 METAR ESMX 070150Z AUTO 26005KT 0350 R01/1000N R19/P2000N -SN FEW003/// SCT004/// M06/M06 Q1038 RESG REFZUP RESHUP=
202302070120 METAR ESMX 070120Z AUTO 24003KT 220V280 9999 NCD M06/M07 Q1038=
202302070050 METAR ESMX 070050Z AUTO 24003KT 9999 NCD M07/M07 Q1038=
202302070020 METAR ESMX 070020Z 23003KT CAVOK M07/M07 Q1038=
202302062350 METAR ESMX 062350Z 23003KT CAVOK M07/M08 Q1038=
202302062320 METAR ESMX 062320Z 23002KT CAVOK M08/M09 Q1038=
202302062250 METAR ESMX 062250Z 00000KT 9000 R19/1500D BCFG NSC M09/M09 Q1039=
202302062220 METAR ESMX 062220Z 16001KT CAVOK M07/M07 Q1039=
202302062150 METAR ESMX 062150Z 00000KT CAVOK M07/M07 Q1039=
202302062120 METAR ESMX 062120Z 16002KT CAVOK M06/M07 Q1039=
202302062050 METAR ESMX 062050Z 23002KT 9000 R19/1300U BCFG NSC M06/M06 Q1038=
202302062020 METAR ESMX 062020Z 00000KT 2500 BCFG NSC M06/M06 Q1039=
202302061950 METAR ESMX 061950Z VRB02KT 9000 MIFG NSC M04/M04 Q1039=
202302061920 METAR ESMX 061920Z 23005KT CAVOK M05/M05 Q1039=
202302061850 METAR ESMX 061850Z 24003KT CAVOK M04/M04 Q1039=
202302061820 METAR ESMX 061820Z 24004KT CAVOK M04/M04 Q1039=
202302061750 METAR ESMX 061750Z 21005KT CAVOK M03/M03 Q1039=
202302061720 METAR ESMX 061720Z 18003KT CAVOK M03/M03 Q1039=
202302061650 METAR ESMX 061650Z 21004KT CAVOK M04/M04 Q1039=
202302061620 METAR ESMX 061620Z 21002KT CAVOK M03/M03 Q1039=
202302061550 METAR ESMX 061550Z AUTO 19002KT 9999 NCD M03/M03 Q1039=
202302061520 METAR ESMX 061520Z 00000KT CAVOK M01/M02 Q1039=
202302061450 METAR ESMX 061450Z 22003KT CAVOK M01/M02 Q1039=
202302061420 METAR ESMX 061420Z 21003KT CAVOK M00/M02 Q1039=
202302061350 METAR ESMX 061350Z VRB03KT CAVOK M00/M02 Q1039=
202302061320 METAR ESMX 061320Z 21004KT CAVOK M00/M03 Q1039=
202302061250 METAR ESMX 061250Z 23003KT CAVOK M00/M03 Q1039=
202302061220 METAR ESMX 061220Z 23004KT CAVOK M00/M03 Q1039=
202302061150 METAR ESMX 061150Z 21004KT CAVOK 00/M03 Q1039=
202302061120 METAR ESMX 061120Z 00000KT CAVOK 02/M03 Q1039=
202302061050 METAR ESMX 061050Z AUTO 00000KT 9999 NCD M00/M02 Q1039=
202302061020 METAR ESMX 061020Z 23002KT 5000 BR BKN003 M03/M04 Q1039=
202302060950 METAR ESMX 060950Z 00000KT 4000 BR BKN002 M04/M04 Q1039=
202302060920 METAR ESMX 060920Z VRB01KT 3000 BR BKN002 M04/M04 Q1039=
202302060850 METAR ESMX 060850Z VRB03KT 3000 BR BKN002 M04/M04 Q1039=
202302060820 METAR ESMX 060820Z 32005KT 270V340 7000 OVC002 M04/M04 Q1039=
202302060750 METAR ESMX 060750Z 33005KT 290V350 3000 BR OVC002 M04/M04 Q1039=
202302060720 METAR ESMX 060720Z 31004KT 280V340 5000 BR OVC002 M04/M04 Q1038=
202302060650 METAR ESMX 060650Z 30005KT 270V340 6000 OVC002 M03/M04 Q1038=
202302060620 METAR ESMX 060620Z 31004KT 270V340 9000 OVC002 M03/M03 Q1038=
202302060550 METAR ESMX 060550Z 31003KT 8000 OVC002 M03/M03 Q1038=
202302060520 METAR ESMX 060520Z 31004KT 280V350 9999 OVC003 M03/M03 Q1037=
202302060450 METAR ESMX 060450Z 36006KT 9999 BKN003 M03/M03 Q1037=
202302060420 METAR ESMX 060420Z AUTO 31005KT 9999 OVC004/// M03/M03 Q1037=
202302060350 METAR ESMX 060350Z AUTO 34006KT 9999 OVC005/// M03/M03 Q1037=
202302060320 METAR ESMX 060320Z AUTO 34008KT 9999 OVC005/// M02/M03 Q1037=
202302060250 METAR ESMX 060250Z AUTO 33006KT 9999 OVC006/// M02/M03 Q1037=
202302060220 METAR ESMX 060220Z AUTO 32006KT 9999 OVC007/// M02/M03 Q1036=
202302060150 METAR ESMX 060150Z AUTO 33008KT 300V010 9999 OVC007/// M02/M02 Q1036=
202302060120 METAR ESMX 060120Z AUTO 32006KT 290V350 9999 OVC007/// M02/M02 Q1037=
202302060050 METAR ESMX 060050Z AUTO 34007KT 9999 OVC006/// M02/M02 Q1037=
202302060020 METAR ESMX 060020Z AUTO 33009KT 9999 OVC004/// M02/M02 Q1037=
202302052350 METAR ESMX 052350Z AUTO 32008KT 9999 OVC004/// M02/M02 Q1036=
202302052320 METAR ESMX 052320Z AUTO 31007KT 9999 OVC005/// M02/M02 Q1037=
202302052250 METAR ESMX 052250Z AUTO 32006KT 9999 OVC006/// M01/M02 Q1036=
202302052220 METAR ESMX 052220Z AUTO 31007KT 9999 OVC007/// M01/M02 Q1036=
202302052150 METAR ESMX 052150Z AUTO 31008KT 280V340 9999 OVC006/// M01/M01 Q1036=
202302052120 METAR ESMX 052120Z 31003KT 9999 BKN006 BKN011 OVC014 M01/M02 Q1036=
202302052050 METAR ESMX 052050Z 30005KT 9999 FEW006 BKN016 M01/M02 Q1036=
202302052020 METAR ESMX 052020Z 30003KT 270V330 9999 -SN FEW005 OVC019 M02/M02 Q1036=
202302051950 METAR ESMX 051950Z VRB03KT 5000 -SN BKN004 OVC021 M02/M02 Q1036=
202302051920 METAR ESMX 051920Z 26004KT 230V290 9999 -FZRA SCT005 BKN019 BKN023 M02/M02 Q1035 REFZRA=
202302051850 METAR ESMX 051850Z 24004KT 9999 FEW006 OVC017 M02/M02 Q1035=
202302051820 METAR ESMX 051820Z 24005KT 6000 -SN FEW006 BKN020 BKN026 M02/M02 Q1035=
202302051750 METAR ESMX 051750Z 23004KT 1700 -SN VV012 M02/M02 Q1035=
202302051720 METAR ESMX 051720Z 21003KT 2000 -SN VV012 M02/M02 Q1035=
202302051650 METAR ESMX 051650Z 19004KT 9000 -SN BKN018 M01/M02 Q1035=
202302051620 METAR ESMX 051620Z 22003KT 9999 -SN BKN017 M01/M02 Q1034=
202302051550 METAR ESMX 051550Z 19005KT 9000 -SN FEW010 BKN044 M01/M02 Q1034=
202302051520 METAR ESMX 051520Z 18005KT 9999 FEW030 BKN042 M01/M02 Q1034=
202302051450 METAR ESMX 051450Z 21006KT 9000 -SN BKN042 M01/M02 Q1034=
202302051420 METAR ESMX 051420Z 19007KT 9999 -SN FEW010 BKN045 M01/M03 Q1034=
202302051350 METAR ESMX 051350Z 21006KT 170V240 9999 FEW011 SCT032 M01/M03 Q1034=
202302051320 METAR ESMX 051320Z 22007KT 9999 FEW012 M01/M03 Q1034=
202302051250 METAR ESMX 051250Z 22008KT 9999 FEW011 M01/M03 Q1034=
202302051220 METAR ESMX 051220Z 22007KT CAVOK M01/M03 Q1034=
202302051150 METAR ESMX 051150Z 20007KT CAVOK M01/M03 Q1034=
202302051120 METAR ESMX 051120Z 18007KT CAVOK M02/M03 Q1034=
202302051050 METAR ESMX 051050Z AUTO 19007KT 9999 OVC088/// M02/M04 Q1034=
202302051020 METAR ESMX 051020Z AUTO 20006KT 9999 OVC092/// M02/M04 Q1035=
202302050950 METAR ESMX 050950Z AUTO 20006KT 9999 OVC088/// M03/M04 Q1034=
202302050920 METAR ESMX 050920Z AUTO 20005KT 9999 OVC092/// M03/M04 Q1035=
202302050850 METAR ESMX 050850Z AUTO 19006KT 9999 BKN100/// M04/M05 Q1035=
202302050820 METAR ESMX 050820Z AUTO 19005KT 9999 OVC100/// M04/M05 Q1035=
202302050750 METAR ESMX 050750Z AUTO 18005KT 9999 OVC100/// M05/M05 Q1035=
202302050720 METAR ESMX 050720Z AUTO 17003KT 9999 OVC100/// M06/M06 Q1035=
202302050650 METAR ESMX 050650Z AUTO 15003KT 9999 OVC110/// M06/M07 Q1035=
202302050620 METAR ESMX 050620Z AUTO 17004KT 9999 BKN110/// M06/M07 Q1035=
202302050550 METAR ESMX 050550Z AUTO 17005KT 9999 BKN120/// M06/M07 Q1035=
202302050520 METAR ESMX 050520Z AUTO 19004KT 9999 OVC120/// M07/M08 Q1035=
202302050450 METAR ESMX 050450Z AUTO 19004KT 9999 OVC110/// M07/M08 Q1035=
202302050420 METAR ESMX 050420Z AUTO 18005KT 9999 OVC120/// M07/M07 Q1035=
202302050350 METAR ESMX 050350Z AUTO 18005KT 9999 OVC120/// M07/M07 Q1035=
202302050320 METAR ESMX 050320Z AUTO 22004KT 9999 FEW120/// OVC140/// M09/M09 Q1036=
202302050250 METAR ESMX 050250Z AUTO 20002KT 9999 OVC140/// M10/M11 Q1036=
202302050220 METAR ESMX 050220Z AUTO 00000KT 9999 OVC140/// M10/M11 Q1036=
202302050150 METAR ESMX 050150Z AUTO 00000KT 9999 OVC130/// M11/M12 Q1036=
202302050120 METAR ESMX 050120Z AUTO 00000KT 9999 OVC140/// M12/M13 Q1037=
202302050050 METAR ESMX 050050Z AUTO 00000KT 9999 OVC140/// M13/M14 Q1037=
202302050020 METAR ESMX 050020Z AUTO 00000KT 9999 OVC140/// M14/M16 Q1038=
202302042350 METAR ESMX 042350Z AUTO 00000KT 9999 SCT140/// M13/M14 Q1038=
202302042320 METAR ESMX 042320Z AUTO 00000KT 9999 NCD M13/M14 Q1038=
202302042250 METAR ESMX 042250Z AUTO 16002KT 9999 BKN140/// M10/M10 Q1038=
202302042220 METAR ESMX 042220Z AUTO 15002KT 9999 OVC150/// M12/M13 Q1038=
202302042150 METAR ESMX 042150Z AUTO 00000KT 9999 SCT160/// M13/M14 Q1038=
202302042120 METAR ESMX 042120Z AUTO 19002KT 9999 NCD M14/M15 Q1039=
202302042050 METAR ESMX 042050Z AUTO 18002KT 9999 NCD M13/M14 Q1039=
202302042020 METAR ESMX 042020Z AUTO 00000KT 9999 NCD M12/M13 Q1039=
202302041950 METAR ESMX 041950Z AUTO 20003KT 9999 NCD M12/M13 Q1039=
202302041920 METAR ESMX 041920Z AUTO 00000KT 9999 BCFG NCD M11/M12 Q1038=
202302041850 METAR ESMX 041850Z AUTO 17001KT 2600 NCD M12/M13 Q1039=
202302041820 METAR ESMX 041820Z AUTO 00000KT 0500 R01/P2000N R19/P2000N NCD M12/M13 Q1039=
202302041750 METAR ESMX 041750Z AUTO 28003KT 9999 NCD M10/M11 Q1039=
202302041720 METAR ESMX 041720Z AUTO 00000KT 9999 NCD M11/M11 Q1039=
202302041650 METAR ESMX 041650Z AUTO VRB02KT 9999 NCD M08/M09 Q1039=
202302041620 METAR ESMX 041620Z AUTO 32003KT 9999 NCD M07/M08 Q1038=
202302041550 METAR ESMX 041550Z AUTO 31004KT 9999 NCD M07/M08 Q1038=
202302041520 METAR ESMX 041520Z AUTO 31005KT 9999 NCD M05/M08 Q1038=
202302041450 METAR ESMX 041450Z AUTO 34005KT 9999 NCD M04/M08 Q1038=
202302041420 METAR ESMX 041420Z AUTO 33005KT 9999 NCD M04/M08 Q1038=
202302041350 METAR ESMX 041350Z AUTO 35007KT 9999 NCD M03/M08 Q1038=
202302041320 METAR ESMX 041320Z AUTO 34006KT 9999 NCD M03/M07 Q1038=
202302041250 METAR ESMX 041250Z AUTO 34007KT 9999 NCD M03/M08 Q1038=
202302041220 METAR ESMX 041220Z AUTO 34008KT 9999 NCD M03/M07 Q1037=
202302041150 METAR ESMX 041150Z AUTO 35009KT 9999 NCD M04/M07 Q1037=
202302041120 METAR ESMX 041120Z AUTO 34009KT 9999 NCD M04/M07 Q1037=
202302041050 METAR ESMX 041050Z AUTO 35009KT 9999 NCD M04/M07 Q1037=
202302041020 METAR ESMX 041020Z AUTO 34009KT 9999 NCD M05/M08 Q1037=
202302040950 METAR ESMX 040950Z AUTO 34010KT 9999 NCD M05/M08 Q1036=
202302040920 METAR ESMX 040920Z AUTO 35009KT 9999 NCD M05/M08 Q1036=
202302040850 METAR ESMX 040850Z AUTO 35009KT 9999 NCD M06/M08 Q1036=
202302040820 METAR ESMX 040820Z AUTO 34008KT 9999 NCD M07/M09 Q1035=
202302040750 METAR ESMX 040750Z AUTO 34008KT 9999 NCD M08/M09 Q1035=
202302040720 METAR ESMX 040720Z AUTO 33007KT 9999 NCD M08/M09 Q1034=
202302040650 METAR ESMX 040650Z AUTO 35010KT 9999 NCD M07/M08 Q1034=
202302040620 METAR ESMX 040620Z AUTO 34009KT 9999 NCD M08/M09 Q1033=
202302040550 METAR ESMX 040550Z AUTO 32006KT 9999 NCD M08/M09 Q1033=
202302040520 METAR ESMX 040520Z AUTO 31007KT 9999 NCD M07/M08 Q1033=
202302040450 METAR ESMX 040450Z AUTO 31006KT 9999 NCD M08/M09 Q1032=
202302040420 METAR ESMX 040420Z AUTO 32006KT 9999 NCD M07/M08 Q1032=
202302040350 METAR ESMX 040350Z AUTO 34009KT 9999 NCD M06/M08 Q1031=
202302040320 METAR ESMX 040320Z AUTO 33008KT 9999 NCD M06/M08 Q1031=
202302040250 METAR ESMX 040250Z AUTO 35010KT 9999 NCD M05/M07 Q1030=
202302040220 METAR ESMX 040220Z AUTO 35010KT 9999 NCD M04/M07 Q1029=
202302040150 METAR ESMX 040150Z AUTO 02009KT 9999 NCD M04/M06 Q1029=
202302040120 METAR ESMX 040120Z AUTO 02011KT 9999 SCT025/// M03/M06 Q1028=
202302040050 METAR ESMX 040050Z 02012KT 9999 FEW014 SCT027 M03/M05 Q1027=
202302040020 METAR ESMX 040020Z AUTO 02011KT 9999 BKN016/// OVC021/// M02/M04 Q1027=
202302032350 METAR ESMX 032350Z AUTO 02012KT 9999 BKN014/// OVC019/// M02/M04 Q1026=
202302032320 METAR ESMX 032320Z 01010KT 9999 SCT013 BKN019 M01/M03 Q1025=
202302032250 METAR ESMX 032250Z 35010KT 9999 BKN013 M01/M02 Q1024=
202302032220 METAR COR ESMX 032220Z 34009KT 9999 BKN013 M01/M02 Q1024=
202302032150 METAR ESMX 032150Z AUTO 01011KT 9999 OVC012/// M02/M03 Q1023=
202302032120 METAR ESMX 032120Z AUTO 01010KT 9999 FEW011/// M02/M03 Q1022=
202302032050 METAR ESMX 032050Z 01009KT CAVOK M02/M03 Q1021=
202302032020 METAR ESMX 032020Z 01009KT CAVOK M02/M03 Q1020=
202302031950 METAR ESMX 031950Z 02008KT CAVOK M01/M02 Q1019=
202302031920 METAR ESMX 031920Z 03009KT 9999 FEW015 M01/M02 Q1018=
202302031850 METAR ESMX 031850Z 03010KT 9999 BKN014 M00/M02 Q1017=
202302031820 METAR ESMX 031820Z 03010KT 9999 -SN BKN013 M00/M01 Q1016=
202302031750 METAR COR ESMX 031750Z 03012KT 9999 -SN BKN008 M00/M01 Q1015=
202302031720 METAR ESMX 031720Z 02011KT 2700 -SN BKN002 M00/M00 Q1014=
202302031650 METAR COR ESMX 031650Z 03011KT 9999 -SN FEW004 SCT042 00/M00 Q1013=
202302031620 METAR ESMX 031620Z AUTO 02009KT 9999 SCT016/// OVC055/// 00/M01 Q1012=
202302031550 METAR COR ESMX 031550Z 03008KT CAVOK 00/M01 Q1010=
202302031520 METAR ESMX 031520Z 04008KT 020V080 CAVOK 00/M01 Q1009=
202302031450 METAR ESMX 031450Z 06008KT 020V100 9999 FEW014 BKN045 00/M01 Q1008=
202302031420 METAR ESMX 031420Z 05008KT 020V100 9999 FEW010 BKN016 00/M01 Q1008=
202302031350 METAR COR ESMX 031350Z 06007KT 030V120 5000 BR FEW011 BKN015 00/M01 Q1007=
202302031320 METAR ESMX 031320Z 07010G21KT 020V120 9999 SCT012 BKN017 00/M01 Q1005=
202302031250 METAR ESMX 031250Z 07009G20KT 030V130 9000 FEW008 BKN011 00/M00 Q1005=
202302031220 METAR ESMX 031220Z 07007KT 030V120 5000 -SN BKN006 00/00 Q1003=
202302031150 METAR COR ESMX 031150Z 08007KT 030V120 5000 -SN BKN009 00/00 Q1003=
202302031120 METAR ESMX 031120Z 07008KT 030V120 3600 -SN BKN006 00/00 Q1002=
202302031050 METAR COR ESMX 031050Z 07007KT 020V120 3000 -SN BKN006 00/00 Q1002=
202302031020 METAR ESMX 031020Z 09007KT 030V140 0600 R01/1000N R19/0800N SN VV006 00/00 Q1002=
202302030950 METAR ESMX 030950Z 09008KT 040V150 1000 R01/1200N R19/P1800D -SN BR BKN005 00/00 Q1001=
202302030920 METAR ESMX 030920Z 11007KT 060V150 5000 -SN BKN005 00/00 Q1001=
202302030850 METAR ESMX 030850Z 11007KT 070V160 2000 -SN BKN005 M00/M00 Q1001=
202302030820 METAR ESMX 030820Z 11007KT 030V160 0800 R01/1200U R19/1000D -SN BR VV005 M00/M00 Q1002=
202302030750 METAR COR ESMX 030750Z 11007KT 060V150 0700 R01/0900N R19/0900N SN VV004 M00/M00 Q1002=
202302030720 METAR COR ESMX 030720Z 12007KT 070V140 0800 R01/1500N R19/1400D -SN VV005 M01/M01 Q1003=
202302030650 METAR ESMX 030650Z 10006KT 050V170 1100 R19/1700 -SN VV005 M01/M01 Q1004=
202302030620 METAR ESMX 030620Z 13006KT 070V150 1500 -SN VV005 M01/M01 Q1005=
202302030550 METAR ESMX 030550Z 13006KT 100V170 6000 -SN BKN005 M01/M01 Q1006=
202302030520 METAR ESMX 030520Z AUTO 13005KT 6000 FEW006/// SCT039/// OVC051/// M02/M02 Q1007=
202302030450 METAR ESMX 030450Z AUTO 14005KT 6000 ///048 M02/M02 Q1008=
202302030420 METAR ESMX 030420Z AUTO 15006KT 9999 SCT011/// BKN013/// OVC066/// M02/M03 Q1009=
202302030350 METAR ESMX 030350Z AUTO 15006KT 090V180 9999 SCT006/// OVC070/// M02/M03 Q1010=
202302030320 METAR ESMX 030320Z AUTO 16006KT 9999 OVC080/// M02/M03 Q1010=
202302030250 METAR ESMX 030250Z AUTO 15006KT 9999 OVC082/// M03/M03 Q1011=
202302030220 METAR ESMX 030220Z AUTO 16006KT 9999 OVC088/// M03/M03 Q1012=
202302030150 METAR ESMX 030150Z AUTO 15005KT 9999 OVC098/// M03/M03 Q1012=
202302030120 METAR ESMX 030120Z AUTO 17004KT 9999 BKN100/// M03/M04 Q1013=
202302030050 METAR ESMX 030050Z 18004KT CAVOK M03/M04 Q1014=
202302030020 METAR ESMX 030020Z AUTO 18004KT 9999 NCD M04/M04 Q1014=
202302022350 METAR ESMX 022350Z AUTO 22003KT 9999 NCD M04/M04 Q1015=
202302022320 METAR ESMX 022320Z 19004KT CAVOK M04/M05 Q1016=
202302022250 METAR ESMX 022250Z 23004KT CAVOK M05/M05 Q1017=
202302022220 METAR ESMX 022220Z 23002KT CAVOK M06/M06 Q1016=
202302022150 METAR ESMX 022150Z 23003KT CAVOK M05/M05 Q1017=
202302022120 METAR ESMX 022120Z 17003KT CAVOK M05/M06 Q1017=
202302022050 METAR ESMX 022050Z 23003KT CAVOK M06/M07 Q1017=
202302022020 METAR ESMX 022020Z 19003KT CAVOK M07/M07 Q1017=
202302021950 METAR ESMX 021950Z AUTO 16002KT 9999 NCD M05/M05 Q1017=
202302021920 METAR ESMX 021920Z AUTO 23001KT 9999 NCD M05/M05 Q1017=
202302021850 METAR ESMX 021850Z AUTO 23003KT 9999 NCD M05/M06 Q1017=
202302021820 METAR ESMX 021820Z 00000KT CAVOK M05/M06 Q1017=
202302021750 METAR ESMX 021750Z 30002KT CAVOK M04/M05 Q1017=
202302021720 METAR ESMX 021720Z 28002KT CAVOK M03/M05 Q1017=
202302021650 METAR ESMX 021650Z 27003KT CAVOK M04/M05 Q1017=
202302021620 METAR ESMX 021620Z 29003KT CAVOK M02/M05 Q1017=
202302021550 METAR ESMX 021550Z 31005KT CAVOK M02/M06 Q1016=
202302021520 METAR ESMX 021520Z 31005KT 250V340 CAVOK M01/M05 Q1015=
202302021450 METAR ESMX 021450Z 33007KT 290V350 CAVOK M00/M05 Q1015=
202302021420 METAR ESMX 021420Z 32008KT 280V350 CAVOK 01/M05 Q1015=
202302021350 METAR ESMX 021350Z 31009KT 280V340 CAVOK 01/M05 Q1014=
202302021320 METAR ESMX 021320Z 32008KT CAVOK 01/M04 Q1014=
202302021250 METAR ESMX 021250Z 32010KT CAVOK 01/M05 Q1014=
202302021220 METAR ESMX 021220Z 33008KT 9999 FEW018 00/M05 Q1013=
202302021150 METAR ESMX 021150Z 31008KT 9999 FEW019 00/M04 Q1013=
202302021120 METAR ESMX 021120Z 31008KT 280V340 9999 FEW018 00/M04 Q1013=
202302021050 METAR ESMX 021050Z 34010KT 9999 FEW018 M01/M05 Q1012=
202302021020 METAR ESMX 021020Z 31010KT 9999 SCT017 M01/M04 Q1012=
202302020950 METAR ESMX 020950Z 33012KT 9999 BKN016 M02/M05 Q1011=
202302020920 METAR ESMX 020920Z 31010KT 9999 BKN015 M01/M04 Q1011=
202302020850 METAR ESMX 020850Z 35009KT 9999 BKN016 M01/M04 Q1010=
202302020820 METAR ESMX 020820Z 32010KT 9999 BKN015 M01/M04 Q1010=
202302020750 METAR ESMX 020750Z 34011KT 9999 BKN017 M01/M04 Q1009=
202302020720 METAR COR ESMX 020720Z 33011KT 300V360 9999 BKN018 M01/M04 Q1008=
202302020650 METAR ESMX 020650Z 32008KT 9999 BKN018 M02/M04 Q1008=
202302020620 METAR ESMX 020620Z 33010KT 9999 SCT019 M02/M04 Q1007=
202302020550 METAR ESMX 020550Z 32010KT 280V350 9999 SCT019 M01/M04 Q1006=
202302020520 METAR ESMX 020520Z 34010KT 9999 SCT020 M01/M04 Q1006=
202302020450 METAR ESMX 020450Z 34013KT 9999 BKN019 OVC024 M01/M04 Q1005=
202302020420 METAR ESMX 020420Z AUTO 34015KT 9999 OVC023/// M01/M04 Q1005=
202302020350 METAR ESMX 020350Z AUTO 34014KT 9999 OVC025/// M00/M03 Q1004=
202302020320 METAR ESMX 020320Z AUTO 34011KT 9999 BKN012/// OVC029/// M00/M02 Q1003=
202302020250 METAR ESMX 020250Z AUTO 34010KT 9999 SCT012/// OVC033/// 00/M01 Q1002=
202302020220 METAR ESMX 020220Z AUTO 35012KT 9999 FEW010/// BKN014/// BKN018/// 00/M01 Q1001=
202302020150 METAR ESMX 020150Z AUTO 35012KT 9999 BKN010/// BKN016/// OVC031/// 01/M00 Q1001=
202302020120 METAR ESMX 020120Z AUTO 34010KT 9999 BKN009/// OVC012/// 01/00 Q1000=
202302020050 METAR ESMX 020050Z AUTO 34008KT 9999 BKN008/// OVC025/// 01/01 Q1000=
202302020020 METAR ESMX 020020Z 35009KT 9999 BKN007 BKN009 01/01 Q0999=
202302012350 METAR ESMX 012350Z 35010KT 9999 BKN005 02/02 Q0998=
202302012320 METAR ESMX 012320Z 35008KT 9999 BKN003 02/02 Q0997=
202302012250 METAR ESMX 012250Z 21002KT 7000 BR BKN002 01/01 Q0997 REDZ=
202302012220 METAR ESMX 012220Z 00000KT 6000 -DZ SCT002 BKN004 01/01 Q0996 REDZ=
202302012150 METAR ESMX 012150Z 00000KT 2000 BR BKN002 BKN004 01/01 Q0996 REDZ=
202302012120 METAR COR ESMX 012120Z 20002KT 3500 BR BKN002 01/01 Q0995=
202302012050 METAR ESMX 012050Z 21003KT 2900 BR SCT002 BKN005 BKN008 01/01 Q0995 REDZ=
202302012020 METAR ESMX 012020Z 21003KT 2000 -DZ BKN004 BKN010 02/02 Q0995 REDZ=
202302011950 METAR ESMX 011950Z 21005KT 9999 BKN004 02/02 Q0994=
202302011920 METAR ESMX 011920Z 22003KT 9999 -DZ BKN004 02/02 Q0994=
202302011850 METAR ESMX 011850Z 19003KT 9999 BKN005 02/02 Q0994 REDZ=
202302011820 METAR ESMX 011820Z 23004KT 2300 -DZ FEW002 BKN005 OVC008 02/02 Q0994 REDZ=
202302011750 METAR ESMX 011750Z 23004KT 200V260 9999 BKN006 03/02 Q0994=
202302011720 METAR ESMX 011720Z 23007KT 200V270 9999 BKN007 03/02 Q0994=
202302011650 METAR ESMX 011650Z 23006KT 9999 BKN007 03/02 Q0994=
202302011620 METAR ESMX 011620Z 23007KT 9999 BKN010 03/02 Q0994=
202302011550 METAR ESMX 011550Z 22006KT 9999 FEW011 BKN014 03/02 Q0994=
202302011520 METAR ESMX 011520Z 23007KT 200V260 9999 FEW013 BKN016 03/02 Q0994=
202302011450 METAR ESMX 011450Z 24006KT 9999 FEW013 BKN018 03/02 Q0994=
202302011420 METAR ESMX 011420Z 25007KT 9999 BKN017 04/02 Q0994=
202302011350 METAR ESMX 011350Z 25010KT 210V280 9999 BKN017 04/02 Q0994=
202302011320 METAR ESMX 011320Z AUTO 23010KT 200V260 9999 FEW016/// OVC037/// 04/02 Q0994=
202302011250 METAR ESMX 011250Z 26009KT 230V290 9999 -RA SCT012 BKN036 03/02 Q0994=
202302011220 METAR ESMX 011220Z 26010KT 220V290 9999 SCT022 BKN030 04/01 Q0994=
