##########################################################
# Query made at 04/19/2024 22:35:36 UTC
# Time interval: from 12/01/2023 12:00  to 12/31/2023 12:59  UTC
##########################################################

##########################################################
# ESMX, Vaxjo (Sweden)
# WMO index: 02641. WIGOS ID: 0-20000-0-02648
# Latitude 56-51N. Longitude 014-50E. Altitude 199 m.
##########################################################

202312311250 METAR ESMX 311250Z AUTO 09005KT 350V150 9999 -DZ OVC008/// 01/01 Q1010=
202312311220 METAR ESMX 311220Z AUTO 09006KT 020V140 6000 -RA FEW002/// OVC008/// 01/01 Q1010=
202312311150 METAR ESMX 311150Z AUTO 09006KT 010V140 9999 OVC007/// 01/01 Q1010 RESN=
202312311120 METAR ESMX 311120Z AUTO 10005KT 040V140 9999 OVC008/// 01/01 Q1010=
202312311050 METAR ESMX 311050Z AUTO VRB05KT 9000 -SN OVC007/// 01/01 Q1011=
202312311020 METAR ESMX 311020Z AUTO 09005KT 340V140 4200 -SN OVC006/// 01/01 Q1011=
202312310950 METAR ESMX 310950Z AUTO 09004KT 010V150 7000 -DZ OVC005/// 00/00 Q1011=
202312310920 METAR ESMX 310920Z AUTO 08005KT 030V140 3400 -SN SCT002/// OVC005/// 00/00 Q1011=
202312310850 METAR ESMX 310850Z AUTO 09004KT 030V130 2400 -SN SCT002/// OVC005/// 00/00 Q1011=
202312310820 METAR ESMX 310820Z AUTO 10005KT 010V140 7000 -SN OVC005/// 00/00 Q1011=
202312310750 METAR ESMX 310750Z AUTO 09004KT 350V130 9999 -DZ OVC005/// 00/00 Q1011 REUP=
202312310720 METAR ESMX 310720Z AUTO 09004KT 050V130 4600 -SN OVC005/// 00/00 Q1011 REUP=
202312310650 METAR ESMX 310650Z AUTO 11004KT 010V140 9999 -DZ OVC004/// 01/01 Q1011 RESHUP RERA=
202312310620 METAR ESMX 310620Z AUTO 08005KT 020V140 8000 OVC003/// 01/01 Q1010 RESHUP=
202312310550 METAR ESMX 310550Z AUTO 09004KT 050V140 7000 -RA OVC003/// 01/01 Q1010=
202312310520 METAR ESMX 310520Z AUTO 08004KT 030V130 3600 -RASN OVC003/// 01/01 Q1010 RERA=
202312310450 METAR ESMX 310450Z AUTO 07005KT 030V120 4400 BR OVC003/// 01/01 Q1010=
202312310420 METAR ESMX 310420Z AUTO 07005KT 020V110 3500 -DZ OVC003/// 01/01 Q1010=
202312310350 METAR ESMX 310350Z AUTO 20003KT 4100 -RA OVC002/// 02/02 Q1010=
202312310320 METAR ESMX 310320Z AUTO 10003KT 070V140 5000 DZ OVC002/// 02/02 Q1009=
202312310250 METAR ESMX 310250Z AUTO VRB02KT 4400 DZ OVC002/// 02/02 Q1009 REUP=
202312310220 METAR ESMX 310220Z AUTO 20003KT 3800 BR OVC002/// 02/02 Q1009=
202312310150 METAR ESMX 310150Z AUTO 13003KT 3800 BR BKN002/// OVC016/// 02/02 Q1009=
202312310120 METAR ESMX 310120Z AUTO VRB02KT 6000 BKN002/// OVC015/// 02/02 Q1009=
202312310050 METAR ESMX 310050Z AUTO 12001KT 6000 OVC002/// 02/02 Q1009=
202312310020 METAR ESMX 310020Z AUTO 05002KT 6000 BKN002/// OVC015/// 02/02 Q1009=
202312302350 METAR ESMX 302350Z AUTO 17003KT 7000 SCT002/// BKN012/// OVC025/// 02/02 Q1009=
202312302320 METAR ESMX 302320Z AUTO 17003KT 6000 OVC002/// 02/02 Q1008=
202312302250 METAR ESMX 302250Z AUTO 21004KT 9999 OVC003/// 02/02 Q1008=
202312302220 METAR ESMX 302220Z AUTO 18002KT 9999 BKN004/// BKN008/// OVC022/// 02/02 Q1008=
202312302150 METAR ESMX 302150Z AUTO 21004KT 9999 SCT006/// OVC023/// 02/02 Q1007=
202312302120 METAR ESMX 302120Z AUTO 19005KT 9999 FEW006/// OVC022/// 02/02 Q1007=
202312302050 METAR ESMX 302050Z AUTO 21006KT 7000 FEW003/// OVC023/// 02/02 Q1007=
202312302020 METAR ESMX 302020Z AUTO 19005KT 6000 SCT008/// OVC024/// 02/02 Q1006=
202312301950 METAR ESMX 301950Z AUTO 20005KT 9999 FEW005/// SCT009/// OVC022/// 02/02 Q1006=
202312301920 METAR ESMX 301920Z AUTO 21006KT 9999 FEW006/// OVC022/// 02/02 Q1006=
202312301850 METAR ESMX 301850Z AUTO 21005KT 9999 VV008 02/02 Q1006=
202312301820 METAR ESMX 301820Z AUTO 21005KT 9999 OVC008/// 03/03 Q1005=
202312301750 METAR ESMX 301750Z AUTO 20004KT 9999 BKN008/// OVC013/// 03/03 Q1005=
202312301720 METAR ESMX 301720Z AUTO 21003KT 9999 BKN008/// OVC016/// 03/03 Q1004=
202312301650 METAR ESMX 301650Z AUTO 22004KT 190V250 9999 SCT009/// BKN012/// OVC016/// 03/03 Q1004=
202312301620 METAR ESMX 301620Z AUTO 22004KT 9999 BKN008/// OVC017/// 03/03 Q1004=
202312301550 METAR ESMX 301550Z AUTO 22005KT 9999 OVC007/// 03/03 Q1003=
202312301520 METAR ESMX 301520Z AUTO 24004KT 210V270 9999 BKN009/// OVC012/// 03/03 Q1003=
202312301450 METAR ESMX 301450Z AUTO 24005KT 220V280 9999 BKN010/// OVC013/// 03/03 Q1003=
202312301420 METAR ESMX 301420Z AUTO 25006KT 210V280 9999 OVC010/// 04/03 Q1002=
202312301350 METAR ESMX 301350Z AUTO 25006KT 210V280 9999 OVC012/// 04/03 Q1002=
202312301320 METAR ESMX 301320Z AUTO 24006KT 9999 OVC011/// 04/03 Q1001 REUP=
202312301250 METAR ESMX 301250Z AUTO 25009KT 9999 BKN010/// OVC013/// 04/03 Q1001=
202312301220 METAR ESMX 301220Z AUTO 25006KT 220V290 9999 BKN010/// BKN014/// OVC017/// 04/03 Q1001=
202312301150 METAR ESMX 301150Z AUTO 25007KT 9999 BKN010/// OVC014/// 04/03 Q1001=
202312301120 METAR ESMX 301120Z AUTO 25007KT 9999 BKN009/// OVC013/// 04/03 Q1001=
202312301050 METAR ESMX 301050Z AUTO 25006KT 9999 BKN009/// OVC015/// 04/03 Q1000=
202312301020 METAR ESMX 301020Z AUTO 26007KT 9999 SCT009/// OVC013/// 03/03 Q1000=
202312300950 METAR ESMX 300950Z AUTO 26006KT 9999 BKN008/// OVC010/// 03/03 Q1000 REUP REDZ=
202312300920 METAR ESMX 300920Z AUTO 24007KT 9999 BKN008/// OVC014/// 03/03 Q0999=
202312300850 METAR ESMX 300850Z AUTO 24006KT 9999 BKN009/// OVC013/// 03/03 Q0999=
202312300820 METAR ESMX 300820Z AUTO 23006KT 9999 SCT008/// BKN014/// OVC017/// 03/03 Q0998 RESHUP=
202312300750 METAR ESMX 300750Z AUTO 25006KT 210V280 9999 OVC008/// 03/03 Q0998 REUP=
202312300720 METAR ESMX 300720Z AUTO 25006KT 220V280 9999 SCT007/// BKN010/// BKN014/// 03/03 Q0997=
202312300650 METAR ESMX 300650Z AUTO 24005KT 210V270 9999 SCT008/// BKN012/// OVC016/// 03/03 Q0997=
202312300620 METAR ESMX 300620Z AUTO 24005KT 210V270 9999 FEW013/// SCT017/// OVC026/// 03/03 Q0996=
202312300550 METAR ESMX 300550Z AUTO 24006KT 200V280 9999 BKN008/// OVC022/// 03/03 Q0996=
202312300520 METAR ESMX 300520Z AUTO 23006KT 9999 SCT007/// BKN010/// OVC031/// 03/03 Q0996=
202312300450 METAR ESMX 300450Z AUTO 24006KT 9999 BKN007/// BKN010/// OVC019/// 03/03 Q0995=
202312300420 METAR ESMX 300420Z AUTO 24005KT 200V270 9999 SCT007/// BKN009/// BKN014/// 03/03 Q0995=
202312300350 METAR ESMX 300350Z AUTO 23007KT 200V260 9999 FEW008/// SCT022/// 03/03 Q0995=
202312300320 METAR ESMX 300320Z AUTO 22007KT 9999 FEW009/// SCT022/// BKN029/// 03/03 Q0995=
202312300250 METAR ESMX 300250Z AUTO 23007KT 9999 SCT010/// BKN014/// 03/03 Q0995=
202312300220 METAR ESMX 300220Z AUTO 23006KT 9999 BKN009/// 03/03 Q0994=
202312300150 METAR ESMX 300150Z AUTO 24005KT 9999 BKN010/// OVC019/// 04/03 Q0994=
202312300120 METAR ESMX 300120Z AUTO 23008KT 210V280 9999 BKN007/// BKN012/// 04/04 Q0994=
202312300050 METAR ESMX 300050Z AUTO 25008KT 220V280 8000 BKN009/// OVC025/// 04/04 Q0994=
202312300020 METAR ESMX 300020Z AUTO 25010KT 9999 -RA SCT009/// BKN014/// BKN018/// 04/04 Q0994=
202312292350 METAR ESMX 292350Z AUTO 23009KT 6000 -RA SCT007/// BKN009/// BKN015/// 04/04 Q0994 RESHUP REUP=
202312292320 METAR ESMX 292320Z AUTO 25011KT 230V290 9000 FEW005/// OVC010/// 04/04 Q0993=
202312292250 METAR ESMX 292250Z AUTO 25011KT 210V280 9999 BKN006/// OVC009/// 05/04 Q0993 REUP REDZ=
202312292220 METAR ESMX 292220Z AUTO 26010KT 230V290 9999 FEW007/// OVC009/// 05/04 Q0992=
202312292150 METAR ESMX 292150Z AUTO 24009KT 9999 BKN004/// BKN007/// OVC009/// 05/05 Q0992 REDZ=
202312292120 METAR ESMX 292120Z AUTO 23007KT 5000 -DZ FEW002/// OVC006/// 04/04 Q0992 RESHUP REDZ=
202312292050 METAR ESMX 292050Z AUTO 22007KT 9999 BKN005/// OVC007/// 04/04 Q0992 REDZ=
202312292020 METAR ESMX 292020Z AUTO 21005KT 3900 -DZ BKN005/// OVC009/// 04/04 Q0991 REDZ=
202312291950 METAR ESMX 291950Z AUTO 21009KT 9999 DZ SCT008/// BKN010/// BKN013/// 04/04 Q0991 RESHUP=
202312291920 METAR ESMX 291920Z AUTO 20012KT 9000 DZ BKN008/// OVC011/// 04/04 Q0991 RESHUP=
202312291850 METAR ESMX 291850Z AUTO 19011KT 8000 SCT007/// BKN009/// OVC012/// 05/04 Q0991=
202312291820 METAR ESMX 291820Z AUTO 19010KT 9999 -DZ FEW007/// OVC010/// 05/05 Q0991 REDZ=
202312291750 METAR ESMX 291750Z AUTO 19011KT 9000 DZ SCT009/// BKN014/// OVC019/// 05/05 Q0991=
202312291720 METAR ESMX 291720Z AUTO 19011KT 7000 -DZ FEW008/// BKN013/// OVC018/// 05/05 Q0991=
202312291650 METAR ESMX 291650Z AUTO 21010KT 4600 DZ FEW003/// SCT009/// BKN014/// 05/05 Q0992=
202312291620 METAR ESMX 291620Z AUTO 19011KT 9000 SCT013/// BKN020/// OVC038/// 05/05 Q0992 RERA=
202312291550 METAR ESMX 291550Z 20010KT 8000 -RA SCT013 BKN019 BKN027 05/05 Q0992=
202312291520 METAR ESMX 291520Z 21010KT 9999 BKN010 BKN019 05/05 Q0992=
202312291450 METAR ESMX 291450Z 21009KT 9000 -DZ FEW007 BKN012 BKN020 05/05 Q0992=
202312291420 METAR ESMX 291420Z 22013KT 7000 RA FEW004 BKN006 BKN010 05/05 Q0992=
202312291350 METAR ESMX 291350Z 21011KT 6000 DZ SCT009 BKN012 BKN020 05/05 Q0992=
202312291320 METAR ESMX 291320Z 22010KT 9999 BKN007 BKN012 05/05 Q0992=
202312291250 METAR ESMX 291250Z 22011KT 9999 -RA FEW006 BKN009 BKN012 06/05 Q0992=
202312291220 METAR ESMX 291220Z 22010KT 7000 DZ BKN006 BKN011 06/05 Q0992=
202312291150 METAR ESMX 291150Z 22009KT 8000 DZ BKN007 BKN012 05/05 Q0992=
202312291120 METAR ESMX 291120Z AUTO 21009KT 8000 -RA BKN008/// BKN017/// OVC024/// 05/05 Q0992 RESHRA=
202312291050 METAR ESMX 291050Z AUTO 22011KT 9999 -RA SCT005/// BKN008/// OVC011/// 05/05 Q0992=
202312291020 METAR ESMX 291020Z AUTO 21009KT 9999 BKN006/// OVC009/// 05/05 Q0992 RESHUP REDZ=
202312290950 METAR ESMX 290950Z AUTO 20009KT 9999 BKN007/// OVC010/// 05/05 Q0992=
202312290920 METAR ESMX 290920Z AUTO 22008KT 7000 DZ SCT008/// BKN012/// OVC017/// 05/05 Q0992=
202312290850 METAR ESMX 290850Z AUTO 22012KT 9999 -RA BKN007/// OVC010/// 05/05 Q0992=
202312290820 METAR ESMX 290820Z AUTO 21009KT 9999 -RA FEW002/// SCT006/// BKN011/// 05/05 Q0992=
202312290750 METAR ESMX 290750Z AUTO 21008KT 160V250 1300 R01/P2000N R19/P2000N -RA FEW002/// SCT005/// BKN008/// 05/05 Q0992 RESHUP REUP=
202312290720 METAR ESMX 290720Z AUTO 18009KT 9999 SCT007/// OVC015/// 05/05 Q0992 REUP RESHUP=
202312290650 METAR ESMX 290650Z AUTO 19008KT 9999 FEW007/// BKN010/// OVC024/// 05/05 Q0992=
202312290620 METAR ESMX 290620Z AUTO 22008KT 9999 BKN006/// OVC008/// 05/05 Q0992=
202312290550 METAR ESMX 290550Z AUTO 21008KT 9999 BKN008/// BKN011/// OVC014/// 04/04 Q0992=
202312290520 METAR ESMX 290520Z AUTO 21009KT 9999 SCT009/// BKN023/// OVC041/// 05/05 Q0992=
202312290450 METAR ESMX 290450Z AUTO 23010KT 9999 BKN010/// OVC013/// 05/05 Q0993=
202312290420 METAR ESMX 290420Z AUTO 22010KT 9999 FEW008/// SCT010/// OVC015/// 05/05 Q0993=
202312290350 METAR ESMX 290350Z AUTO 22009KT 9999 OVC009/// 06/06 Q0993=
202312290320 METAR ESMX 290320Z AUTO 23008KT 8000 SCT006/// BKN009/// BKN014/// 06/06 Q0993 RERA=
202312290250 METAR ESMX 290250Z AUTO 22010KT 9999 -RA FEW002/// BKN005/// BKN007/// 06/06 Q0993 RERA RESHUP=
202312290220 METAR ESMX 290220Z AUTO 21008KT 9999 SCT005/// BKN009/// OVC013/// 06/06 Q0993=
202312290150 METAR ESMX 290150Z AUTO 20008KT 9999 -RA FEW009/// BKN018/// BKN027/// 06/06 Q0993=
202312290120 METAR ESMX 290120Z AUTO 21011KT 9999 SCT011/// BKN018/// OVC038/// 06/06 Q0994=
202312290050 METAR ESMX 290050Z 20016KT 9999 -RA SCT009 BKN013 06/05 Q0994=
202312290020 METAR ESMX 290020Z 18012KT 6000 RA BKN004 06/06 Q0995=
202312282350 METAR ESMX 282350Z 16009KT 7000 -RA OVC004 06/06 Q0995=
202312282320 METAR ESMX 282320Z 16009KT 9999 BKN003 05/05 Q0996=
202312282250 METAR ESMX 282250Z 18009KT 9000 -RA FEW004 BKN027 05/05 Q0997=
202312282220 METAR ESMX 282220Z 19011KT 9999 OVC003 05/05 Q0997=
202312282150 METAR ESMX 282150Z 19009KT 7000 OVC003 05/05 Q0997=
202312282120 METAR ESMX 282120Z 18008KT 7000 BR OVC003 04/04 Q0998=
202312282050 METAR ESMX 282050Z 21008KT 7000 BR BKN004 04/04 Q0998=
202312282020 METAR ESMX 282020Z AUTO 20008KT 9999 BKN005/// OVC021/// 04/04 Q0998=
202312281950 METAR ESMX 281950Z AUTO 20009KT 9999 BKN005/// BKN006/// OVC010/// 04/04 Q0998=
202312281920 METAR ESMX 281920Z 19009KT 9999 FEW007 SCT010 BKN013 04/04 Q0999=
202312281850 METAR COR ESMX 281850Z 22008KT 9999 FEW010 BKN026 04/04 Q0999=
202312281820 METAR ESMX 281820Z 22009KT 9999 BKN009 04/04 Q0998=
202312281750 METAR ESMX 281750Z 23008KT 9999 BKN008 BKN011 04/04 Q0998=
202312281720 METAR ESMX 281720Z 23008KT 9999 SCT007 BKN009 BKN022 05/05 Q0998=
202312281650 METAR ESMX 281650Z AUTO 24009KT 200V260 8000 OVC007/// 05/05 Q0998=
202312281620 METAR ESMX 281620Z 24009KT 200V260 9999 BKN006 05/05 Q0997=
202312281550 METAR ESMX 281550Z 24009KT 4100 -RA BKN004 BKN007 05/05 Q0997=
202312281520 METAR ESMX 281520Z 23011KT 9999 BKN009 BKN014 05/05 Q0997=
202312281450 METAR ESMX 281450Z 21012KT 9999 -RA BKN006 BKN009 05/05 Q0996=
202312281420 METAR ESMX 281420Z 21012KT 9999 -DZ BKN009 BKN018 05/05 Q0996=
202312281350 METAR ESMX 281350Z 20013KT 9999 -RA BKN008 BKN018 05/05 Q0995=
202312281320 METAR ESMX 281320Z 20010KT 9000 -RA BKN004 BKN023 04/04 Q0995=
202312281250 METAR ESMX 281250Z 21015KT 9000 DZ BKN007 BKN013 05/05 Q0995=
202312281220 METAR ESMX 281220Z 19013KT 9999 BKN008 BKN024 05/05 Q0996=
202312281150 METAR ESMX 281150Z 19015KT 9999 BKN006 05/05 Q0996=
202312281120 METAR ESMX 281120Z AUTO 19014KT 9999 -DZ OVC006/// 05/05 Q0996 RERA=
202312281050 METAR ESMX 281050Z AUTO 19016KT 9999 BKN006/// OVC009/// 05/05 Q0997=
202312281020 METAR ESMX 281020Z AUTO 18015KT 7000 -RA OVC004/// 05/05 Q0997 RERA=
202312280950 METAR ESMX 280950Z AUTO 17010KT 8000 -RA OVC003/// 04/04 Q0997 REUP=
202312280920 METAR ESMX 280920Z AUTO 17012KT 5000 OVC002/// 03/03 Q0998=
202312280850 METAR ESMX 280850Z AUTO 17010KT 0600 R01/1100U R19/1100U FG OVC001/// 03/03 Q0998=
202312280820 METAR ESMX 280820Z AUTO 17010KT 0400 R01/0800N R19/1000N FG OVC001/// 02/02 Q0998=
202312280750 METAR ESMX 280750Z AUTO 17009KT 140V200 0650 R01/1600D R19/P2000D FG OVC001/// 02/02 Q0999=
202312280720 METAR ESMX 280720Z AUTO 17009KT 1900 BR OVC001/// 02/02 Q0999=
202312280650 METAR ESMX 280650Z AUTO 16009KT 130V190 4400 BR OVC003/// 01/01 Q0999 RERA=
202312280620 METAR ESMX 280620Z AUTO 16010KT 130V190 9999 OVC003/// 01/01 Q1000=
202312280550 METAR ESMX 280550Z AUTO 15010KT 6000 -RA OVC003/// 01/01 Q1000 REUP=
202312280520 METAR ESMX 280520Z AUTO 14011KT 4100 UP BKN002/// OVC003/// 01/01 Q1000=
202312280450 METAR ESMX 280450Z AUTO 14011KT 2400 -SN BKN002/// OVC005/// 00/00 Q1001=
202312280420 METAR ESMX 280420Z AUTO 14011KT 6000 -SN BKN002/// OVC005/// 00/00 Q1001=
202312280350 METAR ESMX 280350Z AUTO 14009KT 090V180 2100 -SN OVC001/// M00/M00 Q1002=
202312280320 METAR ESMX 280320Z AUTO 13008KT 070V160 0800 R01/P2000N R19/P2000N SN OVC002/// M00/M00 Q1003=
202312280250 METAR ESMX 280250Z AUTO VRB08KT 1000 R01/P2000N R19/P2000N -SN SCT002/// BKN006/// OVC011/// M01/M01 Q1004=
202312280220 METAR ESMX 280220Z AUTO 12008KT 070V160 0800 R01/P2000N R19/P2000N -SN BKN002/// OVC016/// M02/M02 Q1005=
202312280150 METAR ESMX 280150Z AUTO 11007KT 050V140 1900 -SN BKN002/// BKN011/// OVC020/// M02/M02 Q1006 RESN=
202312280120 METAR ESMX 280120Z AUTO 10006KT 060V160 1000 R01/P2000N R19/P2000N -SN VV018 M02/M03 Q1008=
202312280050 METAR ESMX 280050Z 12007KT 070V150 2100 -SN VV022 M03/M03 Q1009=
202312280020 METAR ESMX 280020Z 13006KT 090V160 2100 -SN VV016 M03/M04 Q1010=
202312272350 METAR ESMX 272350Z 11006KT 060V180 9999 FEW031 BKN049 M03/M05 Q1011=
202312272320 METAR ESMX 272320Z AUTO 10005KT 060V140 9999 SCT057/// OVC074/// M03/M05 Q1011=
202312272250 METAR ESMX 272250Z AUTO 12004KT 080V140 9999 OVC090/// M03/M04 Q1012=
202312272220 METAR ESMX 272220Z AUTO 10004KT 040V120 9999 OVC088/// M03/M04 Q1012=
202312272150 METAR ESMX 272150Z 13003KT CAVOK M04/M04 Q1013=
202312272120 METAR ESMX 272120Z 19003KT CAVOK M04/M04 Q1014=
202312272050 METAR ESMX 272050Z 20002KT CAVOK M04/M04 Q1014=
202312272020 METAR ESMX 272020Z 15002KT CAVOK M05/M05 Q1014=
202312271950 METAR ESMX 271950Z 00000KT CAVOK M07/M07 Q1015=
202312271920 METAR ESMX 271920Z 00000KT CAVOK M06/M06 Q1015=
202312271850 METAR ESMX 271850Z 19002KT CAVOK M07/M07 Q1015=
202312271820 METAR ESMX 271820Z 00000KT CAVOK M07/M07 Q1015=
202312271750 METAR ESMX 271750Z 19002KT CAVOK M07/M07 Q1016=
202312271720 METAR ESMX 271720Z 18002KT CAVOK M06/M06 Q1016=
202312271650 METAR ESMX 271650Z 18001KT CAVOK M06/M06 Q1016=
202312271620 METAR ESMX 271620Z 21002KT CAVOK M05/M05 Q1016=
202312271550 METAR ESMX 271550Z 00000KT CAVOK M05/M05 Q1016=
202312271520 METAR ESMX 271520Z 21002KT CAVOK M04/M04 Q1016=
202312271450 METAR ESMX 271450Z 27003KT CAVOK M04/M04 Q1017=
202312271420 METAR ESMX 271420Z 30003KT CAVOK M02/M03 Q1016=
202312271350 METAR ESMX 271350Z 32004KT CAVOK M02/M04 Q1016=
202312271320 METAR ESMX 271320Z 23003KT CAVOK M01/M04 Q1016=
202312271250 METAR ESMX 271250Z 31006KT CAVOK M01/M03 Q1016=
202312271220 METAR ESMX 271220Z 30006KT CAVOK M01/M03 Q1016=
202312271150 METAR ESMX 271150Z 32009KT CAVOK M00/M03 Q1016=
202312271120 METAR ESMX 271120Z AUTO 29006KT 250V330 9999 NCD M01/M03 Q1016=
202312271050 METAR ESMX 271050Z AUTO 28004KT 250V320 9999 NCD M01/M03 Q1015=
202312271020 METAR ESMX 271020Z AUTO 31006KT 280V340 9999 NCD M01/M03 Q1015=
202312270950 METAR ESMX 270950Z AUTO 30005KT 260V330 9999 NCD M01/M03 Q1015=
202312270920 METAR ESMX 270920Z AUTO 29005KT 9999 NCD M02/M03 Q1014=
202312270850 METAR ESMX 270850Z AUTO 29004KT 260V340 9999 NCD M02/M03 Q1014=
202312270820 METAR ESMX 270820Z 27005KT CAVOK M02/M03 Q1013=
202312270750 METAR ESMX 270750Z 28006KT CAVOK M02/M03 Q1013=
202312270720 METAR ESMX 270720Z AUTO 29006KT 260V320 9999 NCD M02/M02 Q1012=
202312270650 METAR ESMX 270650Z 29006KT 270V330 CAVOK M02/M02 Q1011=
202312270620 METAR ESMX 270620Z 28005KT 250V320 CAVOK M02/M02 Q1010=
202312270550 METAR ESMX 270550Z 27005KT 240V300 CAVOK M02/M02 Q1010=
202312270520 METAR ESMX 270520Z 26004KT CAVOK M01/M01 Q1009=
202312270450 METAR ESMX 270450Z 25006KT CAVOK M02/M02 Q1009=
202312270420 METAR ESMX 270420Z 28003KT CAVOK M02/M02 Q1008=
202312270350 METAR ESMX 270350Z 25005KT 220V280 CAVOK M01/M01 Q1008=
202312270320 METAR ESMX 270320Z AUTO 26004KT 9999 NCD M01/M01 Q1008=
202312270250 METAR ESMX 270250Z AUTO 25004KT 9999 NCD M01/M01 Q1007=
202312270220 METAR ESMX 270220Z AUTO 25007KT 9999 NCD M00/M01 Q1007=
202312270150 METAR ESMX 270150Z AUTO 26007KT 9999 NCD M00/M00 Q1007=
202312270120 METAR ESMX 270120Z AUTO 26006KT 9999 NCD M00/M00 Q1006=
202312270050 METAR ESMX 270050Z AUTO 26007KT 9999 NCD 00/00 Q1005=
202312270020 METAR ESMX 270020Z AUTO 26007KT 9999 NCD 00/00 Q1005=
202312262350 METAR ESMX 262350Z AUTO 29007KT 9999 FEW008/// 01/01 Q1004=
202312262320 METAR ESMX 262320Z AUTO 28009KT 260V330 9999 BKN007/// OVC009/// 01/01 Q1003=
202312262250 METAR ESMX 262250Z AUTO 28010KT 9999 OVC005/// 01/01 Q1002=
202312262220 METAR ESMX 262220Z AUTO 26009KT 9999 OVC005/// 02/02 Q1002=
202312262150 METAR ESMX 262150Z AUTO 27007KT 9999 SCT006/// BKN008/// 01/01 Q1001=
202312262120 METAR ESMX 262120Z AUTO 27007KT 240V300 9999 BKN007/// 02/02 Q1001=
202312262050 METAR ESMX 262050Z AUTO 27007KT 5000 -RA BKN006/// OVC017/// 02/02 Q1000=
202312262020 METAR ESMX 262020Z 26010KT 5000 -RA BKN008 BKN010 OVC025 02/02 Q0999 REDZ=
202312261950 METAR ESMX 261950Z 25009KT 9999 BKN007 02/02 Q0999=
202312261920 METAR ESMX 261920Z 25007KT 9999 OVC008 02/02 Q0999=
202312261850 METAR ESMX 261850Z AUTO 25006KT 9999 OVC008/// 02/02 Q0999=
202312261820 METAR ESMX 261820Z AUTO 25007KT 9999 FEW008/// BKN011/// BKN029/// 02/02 Q0999=
202312261750 METAR ESMX 261750Z AUTO 25008KT 9999 BKN009/// BKN030/// OVC140/// 02/02 Q0998=
202312261720 METAR ESMX 261720Z AUTO 25006KT 9999 OVC027/// 02/01 Q0998=
202312261650 METAR ESMX 261650Z AUTO 25005KT 220V280 9999 SCT007/// BKN009/// OVC025/// 02/02 Q0998=
202312261620 METAR ESMX 261620Z AUTO 25005KT 210V280 9999 BKN006/// OVC008/// 02/02 Q0997=
202312261550 METAR ESMX 261550Z 25006KT 9999 BKN007 BKN009 OVC011 01/01 Q0997=
202312261520 METAR ESMX 261520Z 23005KT 9999 SCT008 BKN010 BKN020 01/01 Q0997=
202312261450 METAR ESMX 261450Z 23007KT 9999 FEW004 OVC006 01/01 Q0997=
202312261420 METAR ESMX 261420Z 26006KT 230V290 9999 BKN002 01/01 Q0996=
202312261350 METAR ESMX 261350Z 25006KT 210V280 2000 BR BKN002 01/01 Q0996=
202312261320 METAR ESMX 261320Z 26005KT 230V290 3800 BR BKN003 01/01 Q0996=
202312261250 METAR ESMX 261250Z 29006KT 9999 BKN004 01/01 Q0995=
202312261220 METAR ESMX 261220Z 29008KT 9999 BKN004 01/01 Q0995=
202312261150 METAR ESMX 261150Z 29009KT 9999 BKN004 01/01 Q0994=
202312261120 METAR ESMX 261120Z AUTO 28008KT 9999 BKN004/// OVC059/// 01/01 Q0994=
202312261050 METAR ESMX 261050Z AUTO 28005KT 9999 OVC053/// 01/01 Q0993=
202312261020 METAR ESMX 261020Z AUTO 29004KT 9999 FEW042/// SCT055/// 00/00 Q0993=
202312260950 METAR ESMX 260950Z AUTO 31004KT 280V340 9999 FEW005/// SCT010/// OVC041/// 01/01 Q0992=
202312260920 METAR ESMX 260920Z AUTO 33006KT 9999 -DZ BKN004/// OVC005/// 00/00 Q0991 RESHUP=
202312260850 METAR ESMX 260850Z AUTO 34005KT 9999 -DZ BKN003/// OVC014/// 00/00 Q0990 REUP=
202312260820 METAR ESMX 260820Z AUTO 02004KT 9999 -SN SCT017/// OVC023/// 01/01 Q0990=
202312260750 METAR ESMX 260750Z AUTO 04004KT 2100 -SN OVC002/// 00/00 Q0989=
202312260720 METAR ESMX 260720Z AUTO 03004KT 0750 R01/P2000N R19/1900N -SN SCT001/// BKN006/// OVC008/// 00/00 Q0989=
202312260650 METAR ESMX 260650Z AUTO 04004KT 0350 R01/1000D R19/1300N +SN VV001 00/00 Q0989=
202312260620 METAR ESMX 260620Z AUTO 14003KT 0350 R01/1500D R19/1500N +SN VV006 00/00 Q0989=
202312260550 METAR ESMX 260550Z AUTO 14004KT 110V170 0900 R01/P2000N R19/P2000N SN VV012 01/01 Q0990=
202312260520 METAR ESMX 260520Z AUTO 14005KT 4100 -SN OVC002/// 01/01 Q0990=
202312260450 METAR ESMX 260450Z AUTO 14006KT 3500 -SN OVC002/// 01/01 Q0991 RESHUP=
202312260420 METAR ESMX 260420Z AUTO 16006KT 9999 UP OVC003/// 01/01 Q0991 REDZ=
202312260350 METAR ESMX 260350Z AUTO 17006KT 9999 OVC004/// 01/01 Q0992=
202312260320 METAR ESMX 260320Z AUTO 18007KT 9999 -RA FEW005/// SCT018/// BKN046/// 01/01 Q0992=
202312260250 METAR ESMX 260250Z AUTO 20008KT 6000 -RA BKN007/// BKN013/// OVC017/// 01/01 Q0993=
202312260220 METAR ESMX 260220Z AUTO 20006KT 7000 -RA BKN008/// OVC013/// 01/01 Q0993 REUP=
202312260150 METAR ESMX 260150Z AUTO 19005KT 9999 BKN009/// OVC080/// 01/01 Q0993=
202312260120 METAR ESMX 260120Z AUTO 17005KT 9999 BKN098/// 01/01 Q0994=
202312260050 METAR ESMX 260050Z AUTO 22004KT 9999 FEW130/// 01/01 Q0994=
202312260020 METAR ESMX 260020Z AUTO 23005KT 9999 FEW011/// 00/00 Q0994=
202312252350 METAR ESMX 252350Z AUTO 22005KT 9999 NCD 00/00 Q0994=
202312252320 METAR ESMX 252320Z AUTO 22006KT 9999 BKN012/// OVC020/// 02/01 Q0994=
202312252250 METAR ESMX 252250Z AUTO 23006KT 9999 BKN025/// 02/01 Q0994=
202312252220 METAR ESMX 252220Z AUTO 24007KT 210V280 9999 BKN023/// BKN035/// 02/01 Q0994=
202312252150 METAR ESMX 252150Z AUTO 25008KT 220V280 9999 SCT023/// 02/01 Q0994=
202312252120 METAR ESMX 252120Z AUTO 23008KT 9999 NCD 02/01 Q0994=
202312252050 METAR ESMX 252050Z AUTO 26009KT 9999 FEW034/// 02/01 Q0994=
202312252020 METAR ESMX 252020Z AUTO 25008KT 230V290 9999 BKN036/// 02/01 Q0993=
202312251950 METAR ESMX 251950Z AUTO 25008KT 9999 SCT032/// 01/01 Q0993=
202312251920 METAR ESMX 251920Z AUTO 26007KT 9999 FEW020/// OVC036/// 02/01 Q0993=
202312251850 METAR ESMX 251850Z AUTO 27009KT 240V300 9999 SCT010/// BKN016/// BKN045/// 02/01 Q0993=
202312251820 METAR ESMX 251820Z AUTO 26010KT 230V290 9999 SCT046/// 02/01 Q0992=
202312251750 METAR ESMX 251750Z AUTO 28011KT 9999 OVC046/// 02/00 Q0992=
202312251720 METAR ESMX 251720Z AUTO 27011KT 9999 BKN048/// 02/00 Q0991=
202312251650 METAR ESMX 251650Z AUTO 27011KT 9999 OVC047/// 02/00 Q0990=
202312251620 METAR ESMX 251620Z AUTO 28013KT 9999 OVC045/// 03/01 Q0990=
202312251550 METAR ESMX 251550Z AUTO 28016KT 9999 SCT032/// OVC047/// 03/02 Q0989 REDZ=
202312251520 METAR ESMX 251520Z AUTO 29015G27KT 250V310 6000 DZ ///021/// 03/02 Q0988 REUP=
202312251450 METAR ESMX 251450Z AUTO 27015KT 9999 OVC032/// 04/00 Q0987=
202312251420 METAR ESMX 251420Z AUTO 27015KT 9999 OVC036/// 04/00 Q0986=
202312251350 METAR ESMX 251350Z AUTO 27014KT 240V300 9999 OVC035/// 04/01 Q0986=
202312251320 METAR ESMX 251320Z AUTO 26015G28KT 9000 -DZ SCT024/// OVC041/// 04/02 Q0985 REUP REDZ=
202312251250 METAR ESMX 251250Z AUTO 27017KT 9999 BKN021/// OVC040/// 05/02 Q0984=
202312251220 METAR ESMX 251220Z AUTO 26014G25KT 220V290 9999 BKN023/// OVC035/// 05/03 Q0983=
202312251150 METAR ESMX 251150Z AUTO 25014KT 210V280 9999 BKN020/// OVC027/// 05/03 Q0983=
202312251120 METAR ESMX 251120Z AUTO 26017G29KT 9999 SCT017/// OVC024/// 05/03 Q0982=
202312251050 METAR ESMX 251050Z AUTO 26017G27KT 210V280 9999 FEW005/// SCT011/// OVC017/// 05/04 Q0982 RESHUP RERA=
202312251020 METAR ESMX 251020Z AUTO 26016G28KT 9999 BKN009/// OVC013/// 05/04 Q0981=
202312250950 METAR ESMX 250950Z AUTO 26017G31KT 9000 -DZ BKN007/// OVC009/// 05/05 Q0980=
202312250920 METAR ESMX 250920Z AUTO 24014G26KT 210V270 4300 DZ BKN005/// OVC008/// 05/05 Q0980=
202312250850 METAR ESMX 250850Z AUTO 24012KT 3500 DZ BKN005/// OVC008/// 04/04 Q0979=
202312250820 METAR ESMX 250820Z AUTO 23014KT 200V260 7000 DZ OVC006/// 04/04 Q0979=
202312250750 METAR ESMX 250750Z AUTO 22014KT 6000 -RA SCT007/// BKN009/// OVC017/// 04/03 Q0979=
202312250720 METAR ESMX 250720Z AUTO 23014KT 3100 -RA FEW002/// OVC010/// 04/03 Q0979=
202312250650 METAR ESMX 250650Z AUTO 23015G28KT 210V270 7000 OVC012/// 04/03 Q0979=
202312250620 METAR ESMX 250620Z AUTO 23014KT 4000 DZ FEW002/// BKN014/// OVC017/// 04/03 Q0979=
202312250550 METAR ESMX 250550Z AUTO 24014G24KT 8000 -DZ FEW005/// BKN017/// OVC059/// 04/03 Q0979 REUP REDZ=
202312250520 METAR ESMX 250520Z AUTO 25014KT 9999 BKN016/// OVC057/// 04/03 Q0979=
202312250450 METAR ESMX 250450Z AUTO 25013KT 220V290 9999 SCT015/// OVC022/// 05/04 Q0979 RESHUP RERA=
202312250420 METAR ESMX 250420Z AUTO 26014G25KT 9999 SCT015/// BKN023/// OVC094/// 05/04 Q0979=
202312250350 METAR ESMX 250350Z AUTO 24011KT 210V280 6000 RA FEW008/// SCT011/// BKN015/// 05/05 Q0979=
202312250320 METAR ESMX 250320Z AUTO 25012G24KT 9999 SCT010/// BKN026/// BKN061/// 05/05 Q0979=
202312250250 METAR ESMX 250250Z AUTO 23012KT 8000 -RA BKN007/// BKN009/// OVC012/// 06/05 Q0979 REDZ RESHUP=
202312250220 METAR ESMX 250220Z AUTO 23009KT 9999 -DZ OVC007/// 05/05 Q0979 RESHUP RERA=
202312250150 METAR ESMX 250150Z AUTO 25009KT 9999 BKN008/// OVC011/// 06/05 Q0979=
202312250120 METAR ESMX 250120Z AUTO 25012KT 9999 -RA BKN010/// OVC014/// 06/05 Q0980 RERA=
202312250050 METAR ESMX 250050Z AUTO 25010KT 210V280 9000 -DZ FEW005/// BKN009/// OVC034/// 05/05 Q0980=
202312250020 METAR ESMX 250020Z AUTO 25010KT 220V280 9000 -RA BKN006/// OVC008/// 05/05 Q0980 REDZ=
202312242350 METAR ESMX 242350Z AUTO 25009KT 210V280 5000 BR FEW002/// OVC005/// 05/05 Q0980 RESHUP=
202312242320 METAR ESMX 242320Z AUTO 25011KT 3800 BR OVC007/// 05/05 Q0979 REUP=
202312242250 METAR ESMX 242250Z AUTO 27012KT 240V310 9999 BKN005/// OVC010/// 05/05 Q0979=
202312242220 METAR ESMX 242220Z AUTO 26014KT 230V290 9999 OVC011/// 05/05 Q0979=
202312242150 METAR ESMX 242150Z AUTO 26015KT 9999 BKN011/// OVC014/// 06/05 Q0979=
202312242120 METAR ESMX 242120Z AUTO 27014KT 9999 BKN014/// OVC021/// 06/05 Q0979=
202312242050 METAR ESMX 242050Z AUTO 25014KT 9999 FEW007/// BKN012/// OVC018/// 06/05 Q0978=
202312242020 METAR ESMX 242020Z AUTO 25012KT 9000 SCT006/// BKN007/// OVC009/// 06/06 Q0978=
202312241950 METAR ESMX 241950Z AUTO 23012G23KT 9999 FEW002/// SCT003/// OVC006/// 05/05 Q0978 REDZ=
202312241920 METAR ESMX 241920Z AUTO 21008KT 5000 BR OVC001/// 04/04 Q0978=
202312241850 METAR ESMX 241850Z AUTO 21010KT 4000 BR OVC001/// 03/03 Q0978=
202312241820 METAR ESMX 241820Z AUTO 19011KT 9999 -DZ OVC002/// 03/03 Q0978=
202312241750 METAR ESMX 241750Z AUTO 17010KT 3400 -DZ OVC002/// 02/02 Q0979=
202312241720 METAR ESMX 241720Z AUTO 16009KT 4400 DZ OVC002/// 02/02 Q0979=
202312241650 METAR ESMX 241650Z AUTO 16009KT 130V190 6000 -RA OVC002/// 01/01 Q0980 REDZ REUP RESHUP=
202312241620 METAR ESMX 241620Z AUTO 15011KT 120V180 3700 BR OVC003/// 01/01 Q0981=
202312241550 METAR ESMX 241550Z AUTO 15009KT 2200 -DZ OVC002/// 01/01 Q0983=
202312241520 METAR ESMX 241520Z AUTO 15010KT 3200 -DZ OVC002/// 01/01 Q0983=
202312241450 METAR ESMX 241450Z AUTO 15009KT 3800 -DZ OVC002/// 01/01 Q0985=
202312241420 METAR ESMX 241420Z AUTO 14008KT 3500 -DZ OVC002/// 00/00 Q0986=
202312241350 METAR ESMX 241350Z AUTO 14007KT 3800 -FZDZ OVC002/// M00/M00 Q0987=
202312241320 METAR ESMX 241320Z AUTO 13006KT 100V160 2500 -FZDZ OVC002/// M00/M00 Q0988=
202312241250 METAR ESMX 241250Z AUTO 14005KT 100V160 1800 -FZDZ OVC001/// M01/M01 Q0989 REFZUP=
202312241220 METAR ESMX 241220Z AUTO 14006KT 0900 R01/1300U R19/1700U FZFG OVC001/// M01/M01 Q0989=
202312241150 METAR ESMX 241150Z AUTO 14006KT 0650 R01/1200N R19/1200D FZFG OVC001/// M02/M02 Q0990 REUP=
202312241120 METAR ESMX 241120Z AUTO 15005KT 3100 BR OVC002/// M02/M02 Q0991 REFZUP=
202312241050 METAR ESMX 241050Z AUTO 16005KT 5000 BR BKN002/// OVC004/// M02/M02 Q0992=
202312241020 METAR ESMX 241020Z AUTO 16005KT 9999 OVC004/// M02/M03 Q0992=
202312240950 METAR ESMX 240950Z AUTO 15005KT 9999 BKN004/// OVC014/// M03/M03 Q0993=
202312240920 METAR ESMX 240920Z AUTO 21002KT 9999 FEW016/// BKN062/// BKN096/// M04/M04 Q0993=
202312240850 METAR ESMX 240850Z AUTO 00000KT 9999 FEW022/// BKN068/// OVC094/// M04/M05 Q0994=
202312240820 METAR ESMX 240820Z AUTO 17002KT 9999 OVC100/// M05/M05 Q0994=
202312240750 METAR ESMX 240750Z AUTO 21002KT 9999 BKN100/// M05/M05 Q0994=
202312240720 METAR ESMX 240720Z AUTO 21004KT 9999 OVC100/// M05/M06 Q0994=
202312240650 METAR ESMX 240650Z AUTO 18003KT 9999 BKN110/// M06/M07 Q0995=
202312240620 METAR ESMX 240620Z AUTO 14002KT 9999 OVC110/// M07/M07 Q0995=
202312240550 METAR ESMX 240550Z AUTO 13001KT 9999 BKN100/// M07/M08 Q0995=
202312240520 METAR ESMX 240520Z AUTO 13001KT 9999 SCT110/// M07/M07 Q0995=
202312240450 METAR ESMX 240450Z AUTO 00000KT 9999 FEW120/// M07/M08 Q0995=
202312240420 METAR ESMX 240420Z AUTO 22003KT 9999 NCD M08/M09 Q0995=
202312240350 METAR ESMX 240350Z AUTO 14002KT 9999 NCD M08/M08 Q0996=
202312240320 METAR ESMX 240320Z AUTO 21001KT 9999 NCD M07/M07 Q0996=
202312240250 METAR ESMX 240250Z AUTO 23003KT 9999 NCD M07/M08 Q0995=
202312240220 METAR ESMX 240220Z AUTO 23004KT 9999 NCD M06/M08 Q0995=
202312240150 METAR ESMX 240150Z AUTO 24004KT 210V280 9999 NCD M07/M08 Q0995=
202312240120 METAR ESMX 240120Z AUTO 21004KT 9999 NCD M07/M08 Q0995=
202312240050 METAR ESMX 240050Z AUTO 24004KT 9999 NCD M07/M08 Q0995=
202312240020 METAR ESMX 240020Z AUTO 26007KT 9999 NCD M06/M08 Q0995=
202312232350 METAR ESMX 232350Z AUTO 26008KT 9999 NCD M06/M09 Q0995=
202312232320 METAR ESMX 232320Z AUTO 27005KT 9999 NCD M06/M09 Q0995=
202312232250 METAR ESMX 232250Z AUTO 27005KT 9999 NCD M06/M09 Q0995=
202312232220 METAR ESMX 232220Z AUTO 27007KT 9999 NCD M06/M09 Q0995=
202312232150 METAR ESMX 232150Z AUTO 26005KT 240V300 9999 NCD M06/M09 Q0995=
202312232120 METAR ESMX 232120Z AUTO 29007KT 260V320 9999 NCD M06/M09 Q0994=
202312232050 METAR ESMX 232050Z AUTO 26005KT 230V290 9999 NCD M06/M09 Q0994=
202312232020 METAR ESMX 232020Z AUTO 26005KT 230V290 9999 NCD M06/M09 Q0994=
202312231950 METAR ESMX 231950Z AUTO 28007KT 9999 NCD M05/M08 Q0994=
202312231920 METAR ESMX 231920Z AUTO 29008KT 9999 NCD M05/M08 Q0994=
202312231850 METAR ESMX 231850Z AUTO 28009KT 9999 NCD M05/M08 Q0993=
202312231820 METAR ESMX 231820Z AUTO 27007KT 9999 NCD M05/M08 Q0993=
202312231750 METAR ESMX 231750Z AUTO 29008KT 9999 NCD M05/M07 Q0992=
202312231720 METAR ESMX 231720Z AUTO 29008KT 9999 NCD M05/M07 Q0992=
202312231650 METAR ESMX 231650Z AUTO 30008KT 9999 NCD M04/M07 Q0992=
202312231620 METAR ESMX 231620Z AUTO 30009KT 9999 NCD M04/M07 Q0992=
202312231550 METAR ESMX 231550Z AUTO 29009KT 9999 NCD M04/M07 Q0991=
202312231520 METAR ESMX 231520Z AUTO 29010KT 9999 NCD M04/M07 Q0991=
202312231450 METAR ESMX 231450Z AUTO 29008KT 9999 NCD M04/M07 Q0990=
202312231420 METAR ESMX 231420Z AUTO 29009KT 9999 NCD M03/M07 Q0990=
202312231350 METAR ESMX 231350Z AUTO 29008KT 9999 NCD M03/M07 Q0989=
202312231320 METAR ESMX 231320Z AUTO 28009KT 250V310 9999 NCD M03/M07 Q0989=
202312231250 METAR ESMX 231250Z AUTO 28009KT 9999 NCD M03/M07 Q0989=
202312231220 METAR ESMX 231220Z AUTO 29010KT 9999 NCD M03/M07 Q0988=
202312231150 METAR ESMX 231150Z AUTO 29009KT 260V320 9999 NCD M03/M07 Q0988=
202312231120 METAR ESMX 231120Z AUTO 29009KT 9999 NCD M03/M07 Q0988=
202312231050 METAR ESMX 231050Z AUTO 30009KT 9999 NCD M04/M07 Q0988=
202312231020 METAR ESMX 231020Z AUTO 29010KT 9999 NCD M04/M07 Q0988=
202312230950 METAR ESMX 230950Z AUTO 30009KT 9999 FEW014/// M05/M07 Q0988=
202312230920 METAR ESMX 230920Z AUTO 30010KT 9999 SCT013/// M05/M07 Q0988=
202312230850 METAR ESMX 230850Z AUTO 30010KT 9999 OVC012/// M05/M07 Q0987=
202312230820 METAR ESMX 230820Z AUTO 30009KT 270V330 9999 OVC012/// M05/M07 Q0987=
202312230750 METAR ESMX 230750Z AUTO 29009KT 250V320 9999 OVC014/// M05/M07 Q0987=
202312230720 METAR ESMX 230720Z AUTO 30011KT 9999 SCT014/// M05/M07 Q0986=
202312230650 METAR ESMX 230650Z AUTO 29011KT 9999 FEW130/// M05/M07 Q0986=
202312230620 METAR ESMX 230620Z AUTO 29010KT 9999 FEW130/// M05/M07 Q0986=
202312230550 METAR ESMX 230550Z AUTO 29011KT 9999 NCD M05/M07 Q0986=
202312230520 METAR ESMX 230520Z AUTO 29011KT 260V320 9999 NCD M05/M07 Q0985=
202312230450 METAR ESMX 230450Z AUTO 29011KT 9999 NCD M04/M07 Q0985=
202312230420 METAR ESMX 230420Z AUTO 28011KT 240V320 9999 NCD M04/M07 Q0985=
202312230350 METAR ESMX 230350Z AUTO 29012KT 9999 NCD M04/M07 Q0984=
202312230320 METAR ESMX 230320Z AUTO 29012KT 9999 NCD M04/M07 Q0984=
202312230250 METAR ESMX 230250Z AUTO 30012KT 9999 NCD M04/M06 Q0984=
202312230220 METAR ESMX 230220Z AUTO 29014KT 9999 FEW017/// M04/M06 Q0983=
202312230150 METAR ESMX 230150Z AUTO 29013KT 9999 SCT018/// M03/M06 Q0983=
202312230120 METAR ESMX 230120Z AUTO 30014KT 9999 BKN017/// M03/M05 Q0983=
202312230050 METAR ESMX 230050Z AUTO 30015KT 9999 OVC017/// M02/M05 Q0983=
202312230020 METAR ESMX 230020Z AUTO 31016G31KT 280V340 9999 SQ OVC016/// M02/M05 Q0982=
202312222350 METAR ESMX 222350Z AUTO 30014KT 9999 OVC015/// M02/M05 Q0982=
202312222320 METAR ESMX 222320Z AUTO 29017G27KT 250V310 9999 OVC014/// M02/M04 Q0981=
202312222250 METAR ESMX 222250Z AUTO 30017KT 260V320 9999 OVC015/// M02/M04 Q0981=
202312222220 METAR ESMX 222220Z AUTO 30015KT 280V340 9999 OVC017/// M02/M04 Q0980=
202312222150 METAR ESMX 222150Z AUTO 30018G30KT 9999 OVC018/// M02/M04 Q0980=
202312222120 METAR ESMX 222120Z AUTO 30014G26KT 9999 OVC018/// M01/M04 Q0980=
202312222050 METAR ESMX 222050Z AUTO 30014G25KT 9999 OVC018/// M01/M04 Q0979=
202312222020 METAR ESMX 222020Z AUTO 30014G26KT 9999 OVC018/// M02/M04 Q0979=
202312221950 METAR ESMX 221950Z AUTO 29016KT 260V320 9999 OVC017/// M02/M04 Q0979=
202312221920 METAR ESMX 221920Z AUTO 30014KT 280V340 9999 OVC017/// M02/M04 Q0979=
202312221850 METAR ESMX 221850Z AUTO 30015KT 9999 OVC016/// M02/M04 Q0978=
202312221820 METAR ESMX 221820Z AUTO 29015KT 250V320 9999 OVC017/// M01/M04 Q0978=
202312221750 METAR ESMX 221750Z AUTO 30014KT 260V340 9999 OVC017/// M01/M03 Q0978=
202312221720 METAR ESMX 221720Z AUTO 30015KT 270V330 9999 OVC017/// M01/M03 Q0978=
202312221650 METAR ESMX 221650Z AUTO 30014KT 9999 OVC016/// M01/M03 Q0977 RESHUP REFZUP=
202312221620 METAR ESMX 221620Z AUTO 30015KT 9999 OVC016/// M01/M03 Q0977=
202312221550 METAR ESMX 221550Z 29014KT 260V330 9999 BKN018 OVC025 M01/M03 Q0977=
202312221520 METAR ESMX 221520Z 30013KT 9999 SCT018 BKN034 OVC045 M01/M03 Q0976=
202312221450 METAR ESMX 221450Z 30013KT 280V340 9999 BKN016 M00/M02 Q0976=
202312221420 METAR ESMX 221420Z 30013KT 9999 -FZDZ BKN016 M00/M02 Q0976 REFZRA=
202312221350 METAR ESMX 221350Z 30016KT 270V330 9999 BKN014 M00/M02 Q0975=
202312221320 METAR ESMX 221320Z 31016KT 9999 -FZDZ OVC014 M00/M02 Q0975=
202312221250 METAR ESMX 221250Z 30018G30KT 9999 BKN012 M00/M02 Q0975 RESN=
202312221220 METAR ESMX 221220Z 31016G27KT 280V350 9999 -SN BKN012 OVC017 00/M01 Q0974=
202312221150 METAR ESMX 221150Z 30015KT 270V330 9000 UP BKN013 BKN016 00/M01 Q0974=
202312221120 METAR ESMX 221120Z 31016G26KT 9999 -DZ BKN013 BKN016 OVC019 00/M01 Q0973 REDZ=
202312221050 METAR ESMX 221050Z 30017KT 270V330 9999 BKN012 OVC017 00/M01 Q0973=
202312221020 METAR ESMX 221020Z 30017KT 9999 -RA BKN013 BKN020 OVC028 01/M00 Q0972=
202312220950 METAR ESMX 220950Z 30018KT 9999 -RA BKN013 OVC018 01/M00 Q0971=
202312220920 METAR ESMX 220920Z AUTO 31018G33KT 9999 -DZ SQ BKN012/// BKN015/// OVC018/// 01/M00 Q0970=
202312220850 METAR ESMX 220850Z 30017G27KT 7000 -DZ SCT011 BKN015 OVC023 01/00 Q0970=
202312220820 METAR ESMX 220820Z 31014G25KT 7000 -RA BKN010 BKN014 OVC022 01/00 Q0969=
202312220750 METAR ESMX 220750Z 30015KT 9000 -DZ BKN011 BKN015 OVC029 01/00 Q0968=
202312220720 METAR ESMX 220720Z 30014KT 4400 -SN SCT009 BKN017 OVC022 00/00 Q0967=
202312220650 METAR ESMX 220650Z 30014KT 260V330 3600 -SN FEW009 SCT016 BKN023 M00/M00 Q0966=
202312220620 METAR ESMX 220620Z 28013KT 260V320 3000 -SN VV025 M00/M00 Q0966=
202312220550 METAR ESMX 220550Z 29014KT 260V320 4000 -SN VV015 M01/M01 Q0965=
202312220520 METAR ESMX 220520Z 29014KT 2100 -PL SCT013 BKN028 OVC064 M01/M01 Q0965=
202312220450 METAR ESMX 220450Z AUTO 29014KT 260V320 1500 -SN VV012 M01/M01 Q0964=
202312220420 METAR ESMX 220420Z AUTO 28014KT 250V320 1100 R01/P2000N R19/P2000N -SN VV010 M01/M01 Q0964=
202312220320 METAR ESMX 220320Z 27014KT 6000 -SNRA BKN006 M01/M01 Q0963=
202312220250 METAR ESMX 220250Z 27013KT 4500 -RASN BKN005 M01/M01 Q0963=
202312220220 METAR ESMX 220220Z 28014KT 4000 -SNRA BKN005 M01/M01 Q0963=
202312220150 METAR ESMX 220150Z 28013KT 5000 -SNRA BKN005 M01/M01 Q0963=
202312220120 METAR ESMX 220120Z 28013KT 250V310 3500 -SNRA BKN005 M00/M01 Q0963=
202312220050 METAR ESMX 220050Z 27012KT 5000 -RASN FEW006 BKN009 M00/M01 Q0963=
202312220020 METAR ESMX 220020Z 28014KT 9999 FEW006 BKN011 00/M01 Q0962=
202312212350 METAR ESMX 212350Z 28012KT 9999 -RASN BKN010 00/M01 Q0962=
202312212320 METAR ESMX 212320Z 27012KT 240V300 9999 FEW005 BKN009 01/M00 Q0962=
202312212250 METAR ESMX 212250Z 28011KT 9999 -RASN FEW006 BKN008 01/00 Q0962=
202312212220 METAR ESMX 212220Z 27011KT 9999 -RASN SCT004 BKN008 01/01 Q0962=
202312212150 METAR ESMX 212150Z 25006KT 210V280 9999 BKN005 02/02 Q0961=
202312212120 METAR ESMX 212120Z 26007KT 230V300 9000 BKN005 02/02 Q0961=
202312212050 METAR ESMX 212050Z 23006KT 8000 BKN003 02/02 Q0961=
202312212020 METAR ESMX 212020Z 22008KT 3000 BR FEW002 BKN005 02/02 Q0961=
202312211950 METAR ESMX 211950Z 22009KT 9000 -DZ BKN005 02/02 Q0961=
202312211920 METAR ESMX 211920Z 22009KT 9000 FEW007 BKN010 03/02 Q0961=
202312211850 METAR ESMX 211850Z 22009KT 9999 BKN010 03/02 Q0961=
202312211820 METAR ESMX 211820Z AUTO 22008KT 9999 FEW014/// OVC039/// 03/02 Q0962=
202312211750 METAR ESMX 211750Z 23010KT 9999 BKN011 03/03 Q0962=
202312211720 METAR ESMX 211720Z 25010KT 210V280 6000 -DZ FEW008 BKN012 BKN016 04/03 Q0962=
202312211650 METAR ESMX 211650Z 23011KT 9999 BKN010 BKN013 04/03 Q0962=
202312211620 METAR ESMX 211620Z 25012KT 200V280 9999 -RA FEW009 BKN015 04/04 Q0962=
202312211550 METAR ESMX 211550Z 22011KT 9999 SCT008 BKN012 05/04 Q0962=
202312211520 METAR ESMX 211520Z 23010KT 200V270 9999 SCT007 BKN012 05/04 Q0963=
202312211450 METAR COR ESMX 211450Z 23008KT 8000 RA BKN005 BKN008 04/04 Q0963=
202312211420 METAR COR ESMX 211420Z 21008KT 180V240 8000 -DZ BKN005 BKN008 04/04 Q0963=
202312211350 METAR ESMX 211350Z 23010KT 8000 -RA FEW005 BKN008 BKN032 04/04 Q0964=
202312211320 METAR ESMX 211320Z 18009KT 9000 DZ BKN003 03/03 Q0964=
202312211250 METAR ESMX 211250Z 16009KT 5000 -RA BKN003 03/03 Q0965=
202312211220 METAR ESMX 211220Z 14010KT 9999 -DZ BKN003 02/02 Q0966=
202312211150 METAR ESMX 211150Z 14009KT 9000 -RA BKN003 01/01 Q0967=
202312211120 METAR ESMX 211120Z 14010KT 6000 -SN BKN003 BKN005 01/01 Q0969=
202312211050 METAR COR ESMX 211050Z 15010KT 6000 -SN BKN003 BKN025 01/01 Q0970=
202312211020 METAR ESMX 211020Z AUTO 14011KT 1300 R01/P2000N R19/P2000D -SN ///////// 01/01 Q0971=
202312210950 METAR ESMX 210950Z AUTO 14010KT 110V170 1700 -SN ///////// 01/01 Q0973=
202312210920 METAR ESMX 210920Z AUTO 14009KT 1000 R01/1700N R19/P2000N -SN ///////// 01/01 Q0975=
202312210850 METAR ESMX 210850Z AUTO 14008KT 2000 -SN ///////// 01/01 Q0977=
202312210820 METAR ESMX 210820Z AUTO 15009KT 4000 -PL ///////// 01/01 Q0978=
202312210750 METAR ESMX 210750Z AUTO 17010KT 7000 -SN OVC004/// 01/01 Q0980 REUP=
202312210720 METAR ESMX 210720Z AUTO 17011KT 9999 OVC006/// 01/01 Q0981=
202312210650 METAR ESMX 210650Z AUTO 17010KT 9999 BKN007/// OVC009/// 01/01 Q0982=
202312210620 METAR ESMX 210620Z AUTO 18009KT 9999 BKN008/// BKN010/// 01/01 Q0983=
202312210550 METAR ESMX 210550Z AUTO 21009KT 9999 BKN011/// BKN015/// OVC020/// 01/01 Q0984=
202312210520 METAR ESMX 210520Z AUTO 19009KT 9999 SCT007/// OVC011/// 02/01 Q0985=
202312210450 METAR ESMX 210450Z AUTO 20008KT 9999 SCT009/// BKN012/// OVC029/// 02/02 Q0985=
202312210420 METAR ESMX 210420Z AUTO 21010KT 9999 FEW009/// SCT011/// BKN015/// 02/02 Q0986=
202312210350 METAR ESMX 210350Z AUTO 22008KT 9999 FEW008/// SCT010/// BKN012/// 02/02 Q0987=
202312210320 METAR ESMX 210320Z AUTO 22008KT 9999 SCT008/// BKN011/// OVC014/// 02/02 Q0988 RESHUP REUP=
202312210250 METAR ESMX 210250Z AUTO 21008KT 9999 -DZ BKN010/// OVC013/// 02/01 Q0988 REUP=
202312210220 METAR ESMX 210220Z AUTO 24008KT 9999 BKN010/// OVC013/// 02/01 Q0988=
202312210150 METAR ESMX 210150Z AUTO 22009KT 9999 BKN013/// OVC020/// 02/01 Q0988=
202312210120 METAR ESMX 210120Z 22007KT 9999 SCT016 BKN022 02/01 Q0989=
202312210050 METAR ESMX 210050Z 22006KT 9999 BKN025 01/01 Q0989=
202312210020 METAR ESMX 210020Z 21006KT 9999 BKN026 01/01 Q0990=
202312202350 METAR ESMX 202350Z 22006KT 9999 SCT017 BKN030 01/01 Q0990=
202312202320 METAR ESMX 202320Z 22006KT 9999 BKN031 01/01 Q0990=
202312202250 METAR ESMX 202250Z 23006KT 200V260 9999 FEW027 BKN036 02/01 Q0991=
202312202220 METAR ESMX 202220Z 23007KT 9999 FEW020 BKN028 01/01 Q0991=
202312202150 METAR ESMX 202150Z 22007KT 9999 FEW018 01/00 Q0991=
202312202120 METAR ESMX 202120Z 25006KT 9999 SCT010 01/00 Q0991=
202312202050 METAR ESMX 202050Z 26008KT 9999 BKN011 01/01 Q0991=
202312202020 METAR ESMX 202020Z 25008KT 220V280 9999 BKN011 02/01 Q0991=
202312201950 METAR ESMX 201950Z 26009KT 240V300 9999 BKN011 02/01 Q0991=
202312201920 METAR ESMX 201920Z 26010KT 9999 BKN012 02/01 Q0991=
202312201850 METAR ESMX 201850Z 26009KT 220V290 9999 BKN012 02/01 Q0991=
202312201820 METAR ESMX 201820Z 25009KT 9999 BKN012 02/01 Q0991=
202312201750 METAR ESMX 201750Z 25009KT 210V280 9999 BKN012 02/01 Q0991=
202312201720 METAR COR ESMX 201720Z 23009KT 9999 BKN012 BKN038 02/01 Q0991=
202312201650 METAR ESMX 201650Z 24007KT 9999 BKN013 02/01 Q0991=
202312201620 METAR ESMX 201620Z 24009KT 9999 SCT012 BKN039 02/01 Q0991=
202312201550 METAR ESMX 201550Z 24009KT 9999 SCT011 BKN020 02/02 Q0991=
202312201520 METAR ESMX 201520Z 23007KT 9999 FEW011 BKN017 02/02 Q0991=
202312201450 METAR ESMX 201450Z 25008KT 9999 BKN012 BKN032 02/02 Q0991=
202312201420 METAR ESMX 201420Z 25008KT 220V280 9999 SCT010 BKN013 03/02 Q0991=
202312201350 METAR ESMX 201350Z 26009KT 9999 SCT009 BKN013 BKN018 03/02 Q0991=
202312201320 METAR ESMX 201320Z 25007KT 210V280 9999 BKN009 BKN015 03/03 Q0991=
202312201250 METAR ESMX 201250Z 23008KT 7000 -RA BKN006 BKN011 03/03 Q0991=
202312201220 METAR ESMX 201220Z 24007KT 9999 FEW011 SCT014 BKN018 03/03 Q0992=
202312201150 METAR ESMX 201150Z 24008KT 9999 BKN009 BKN013 03/03 Q0992=
202312201120 METAR ESMX 201120Z 22008KT 9999 DZ SCT008 BKN011 03/03 Q0992 RERA=
202312201050 METAR ESMX 201050Z 23009KT 9000 SCT004 BKN008 03/03 Q0993=
202312201020 METAR ESMX 201020Z 23010KT 7000 -DZ BKN005 03/03 Q0993=
202312200950 METAR ESMX 200950Z 22010KT 9999 BKN004 03/03 Q0993=
202312200920 METAR ESMX 200920Z 22010KT 7000 -RA OVC005 03/03 Q0994=
202312200850 METAR ESMX 200850Z 22010KT 9999 -RA OVC005 03/03 Q0994=
202312200820 METAR ESMX 200820Z 22010KT 9999 -RA BKN006 03/03 Q0994=
202312200750 METAR ESMX 200750Z 22010KT 7000 -RA BKN006 03/03 Q0994=
202312200720 METAR ESMX 200720Z 22011KT 4800 -RA BKN004 03/03 Q0994=
202312200650 METAR ESMX 200650Z 20012KT 5000 -RA OVC005 03/03 Q0994=
202312200620 METAR ESMX 200620Z AUTO 20011KT 7000 -RA OVC005/// 03/03 Q0995=
202312200550 METAR ESMX 200550Z 21011KT 7000 -RA OVC005 03/03 Q0995=
202312200520 METAR ESMX 200520Z 19011KT 8000 OVC005 03/03 Q0996=
202312200450 METAR ESMX 200450Z 19009KT 9999 -RA FEW002 BKN004 03/03 Q0996=
202312200420 METAR ESMX 200420Z 20008KT 9999 OVC004 03/03 Q0997=
202312200350 METAR ESMX 200350Z AUTO 20010KT 9999 OVC004/// 03/03 Q0997=
202312200320 METAR ESMX 200320Z AUTO 22009KT 9999 OVC005/// 03/03 Q0998 RESHUP=
202312200250 METAR ESMX 200250Z AUTO 21010KT 9999 FEW007/// SCT010/// BKN024/// 02/02 Q0998 RERA=
202312200220 METAR ESMX 200220Z AUTO 22009KT 9999 BKN008/// BKN015/// 03/02 Q0998 REUP=
202312200150 METAR ESMX 200150Z AUTO 23010KT 200V260 9999 OVC007/// 03/03 Q0999=
202312200120 METAR ESMX 200120Z 23009KT 9999 BKN008 03/02 Q0999=
202312200050 METAR ESMX 200050Z 24008KT 9999 BKN008 03/02 Q1000=
202312200020 METAR ESMX 200020Z 24009KT 210V280 9999 BKN008 03/02 Q1000=
202312192350 METAR ESMX 192350Z 23010KT 9999 BKN008 03/02 Q1000=
202312192320 METAR ESMX 192320Z 25009KT 230V290 9999 BKN009 03/02 Q1000=
202312192250 METAR ESMX 192250Z 25009KT 9999 BKN009 03/02 Q1001=
202312192220 METAR ESMX 192220Z 24009KT 9999 FEW009 BKN030 03/02 Q1001=
202312192150 METAR ESMX 192150Z 24009KT 210V280 9999 SCT008 BKN026 02/02 Q1001=
202312192120 METAR ESMX 192120Z 23008KT 9999 SCT008 BKN026 02/02 Q1001=
202312192050 METAR ESMX 192050Z 25009KT 9999 SCT008 02/02 Q1001=
202312192020 METAR ESMX 192020Z AUTO 25009KT 210V280 9999 VV009 02/02 Q1001=
202312191950 METAR ESMX 191950Z AUTO 25009KT 9999 OVC009/// 02/02 Q1001=
202312191920 METAR ESMX 191920Z AUTO 25010KT 220V280 9999 VV008 02/02 Q1001=
202312191850 METAR ESMX 191850Z AUTO 25011KT 9999 OVC010/// 03/02 Q1001=
202312191820 METAR ESMX 191820Z AUTO 25008KT 200V270 9999 VV009 02/02 Q1002=
202312191750 METAR ESMX 191750Z AUTO 25008KT 210V270 9999 VV009 02/02 Q1002=
202312191720 METAR ESMX 191720Z AUTO 25007KT 210V280 9999 NCD 03/02 Q1002=
202312191650 METAR ESMX 191650Z AUTO 25006KT 220V280 9999 NCD 03/02 Q1002=
202312191620 METAR ESMX 191620Z AUTO 26008KT 9999 BKN019/// 04/02 Q1002=
202312191550 METAR ESMX 191550Z AUTO 26008KT 9999 SCT019/// 04/02 Q1003=
202312191520 METAR ESMX 191520Z AUTO 26009KT 9999 SCT018/// BKN025/// 04/02 Q1003=
202312191450 METAR ESMX 191450Z 26008KT 9999 SCT018 04/03 Q1003=
202312191420 METAR ESMX 191420Z 25009KT 220V280 9999 BKN019 05/02 Q1003=
202312191350 METAR ESMX 191350Z 25009KT 210V290 9999 BKN021 05/03 Q1003=
202312191320 METAR ESMX 191320Z AUTO 25010KT 210V280 9999 SCT022/// BKN027/// 05/03 Q1003=
202312191250 METAR ESMX 191250Z AUTO 24011KT 9999 SCT018/// OVC025/// 05/03 Q1004=
202312191220 METAR ESMX 191220Z AUTO 26010KT 9999 BKN019/// OVC024/// 05/03 Q1004=
202312191150 METAR ESMX 191150Z 26013KT 9999 BKN017 05/03 Q1004=
202312191120 METAR ESMX 191120Z 25012KT 230V290 9999 BKN016 06/04 Q1004=
202312191050 METAR ESMX 191050Z 25013KT 200V280 9999 BKN015 06/04 Q1005=
202312191020 METAR ESMX 191020Z 25013KT 9999 BKN015 06/04 Q1005=
202312190950 METAR ESMX 190950Z 23011KT 200V260 9999 BKN017 06/04 Q1005=
202312190920 METAR ESMX 190920Z 25011KT 220V280 9999 BKN017 06/04 Q1006=
202312190850 METAR ESMX 190850Z 25014KT 9999 BKN017 06/04 Q1006=
202312190820 METAR ESMX 190820Z 26012KT 9999 BKN017 06/04 Q1006=
202312190750 METAR ESMX 190750Z 25013KT 9999 BKN016 06/05 Q1005=
202312190720 METAR ESMX 190720Z 26013KT 230V290 9999 BKN015 07/05 Q1005=
202312190650 METAR ESMX 190650Z 25011KT 9999 BKN016 07/05 Q1005=
202312190620 METAR ESMX 190620Z 26013KT 230V290 9999 OVC014 07/06 Q1005=
202312190550 METAR ESMX 190550Z 26015KT 230V290 9999 OVC011 07/06 Q1005=
202312190520 METAR ESMX 190520Z 26016KT 9999 OVC011 07/06 Q1005=
202312190450 METAR ESMX 190450Z AUTO 26015KT 230V290 9999 OVC012/// 07/06 Q1005=
202312190420 METAR ESMX 190420Z AUTO 26014G25KT 9999 OVC012/// 08/06 Q1005=
202312190350 METAR ESMX 190350Z AUTO 26014KT 230V290 9999 OVC013/// 08/07 Q1004=
202312190320 METAR ESMX 190320Z AUTO 26016G26KT 230V290 9999 OVC012/// 08/07 Q1004=
202312190250 METAR ESMX 190250Z AUTO 25015G26KT 220V280 9999 SCT007/// BKN009/// OVC012/// 08/07 Q1004=
202312190220 METAR ESMX 190220Z AUTO 25015G26KT 9999 OVC006/// 08/08 Q1004 REUP=
202312190150 METAR ESMX 190150Z AUTO 23015KT 200V260 5000 BR FEW003/// BKN005/// OVC006/// 08/08 Q1004=
202312190120 METAR ESMX 190120Z 22015KT 200V260 9999 BKN006 08/08 Q1004=
202312190050 METAR ESMX 190050Z 22014KT 5000 -DZ BKN004 08/08 Q1005=
202312190020 METAR ESMX 190020Z 21012KT 190V250 3000 -RA SCT002 BKN004 08/08 Q1005=
202312182350 METAR COR ESMX 182350Z 23014KT 4500 BR -DZ BKN005 08/08 Q1005=
202312182320 METAR ESMX 182320Z 22013KT 4000 -RADZ BKN004 08/08 Q1006=
202312182250 METAR ESMX 182250Z 23013KT 3000 DZ OVC003 08/08 Q1007=
202312182220 METAR ESMX 182220Z 22013KT 5000 -DZ FEW002 BKN005 07/07 Q1007=
202312182150 METAR ESMX 182150Z 22013KT 4000 -RA BKN005 08/08 Q1008=
202312182120 METAR ESMX 182120Z 23013KT 4000 -RA BKN005 08/08 Q1009=
202312182050 METAR ESMX 182050Z 22014KT 8000 -RA BKN006 08/08 Q1009=
202312182020 METAR ESMX 182020Z 23012KT 190V250 9999 -RA BKN004 08/08 Q1010=
202312181950 METAR ESMX 181950Z 21010KT 9999 OVC003 08/08 Q1010=
202312181920 METAR ESMX 181920Z 23011KT 9000 OVC002 08/08 Q1011=
202312181850 METAR ESMX 181850Z 23011KT 9000 OVC002 07/07 Q1011=
202312181820 METAR ESMX 181820Z 21010KT 4000 BR OVC002 08/08 Q1012=
202312181750 METAR ESMX 181750Z 21008KT 2000 BR OVC002 08/08 Q1012=
202312181720 METAR ESMX 181720Z 22008KT 190V250 2100 BR -RA OVC002 08/08 Q1013=
202312181650 METAR ESMX 181650Z 22008KT 1900 BR OVC002 08/08 Q1014=
202312181620 METAR ESMX 181620Z 23008KT 2000 BR OVC003 08/08 Q1014=
202312181550 METAR ESMX 181550Z 22007KT 190V250 2700 BR BKN003 07/07 Q1015=
202312181520 METAR ESMX 181520Z AUTO 25008KT 3700 BR OVC004/// 07/07 Q1015=
202312181450 METAR ESMX 181450Z 25010G22KT 6000 BR OVC003 07/07 Q1015=
202312181420 METAR ESMX 181420Z 25010KT 220V280 3900 BR BKN003 07/07 Q1015=
202312181350 METAR ESMX 181350Z 24008KT 210V270 3300 BR OVC003 08/08 Q1015=
202312181320 METAR ESMX 181320Z 26009KT 6000 BR OVC003 08/08 Q1015=
202312181250 METAR ESMX 181250Z 26011KT 8000 BR OVC003 08/08 Q1015=
202312181220 METAR ESMX 181220Z 26009KT 230V290 5000 BR BKN003 08/08 Q1016=
202312181150 METAR ESMX 181150Z 26010KT 5000 BR BKN003 08/08 Q1016=
202312181120 METAR ESMX 181120Z 26009KT 210V280 4500 BR OVC003 07/07 Q1016=
202312181050 METAR ESMX 181050Z AUTO 25009KT 200V280 6000 OVC003/// 08/08 Q1016=
202312181020 METAR ESMX 181020Z 23009KT 200V260 5000 BR OVC003 08/08 Q1016=
202312180950 METAR ESMX 180950Z 25009KT 210V270 5000 BR BKN003 08/08 Q1016=
202312180920 METAR ESMX 180920Z 25009KT 210V290 5000 BR BKN002 08/08 Q1016=
202312180850 METAR ESMX 180850Z 26011KT 3000 BR BKN002 08/08 Q1016=
202312180820 METAR ESMX 180820Z 25009KT 3000 BR BKN002 07/07 Q1016=
202312180750 METAR ESMX 180750Z 25010KT 2500 BR BKN002 07/07 Q1015=
202312180720 METAR ESMX 180720Z 25008KT 6000 -DZ BKN002 07/07 Q1015=
202312180650 METAR ESMX 180650Z 25008KT 2000 DZ BKN002 07/07 Q1015=
202312180620 METAR ESMX 180620Z 25009KT 2000 DZ BKN002 07/07 Q1015=
202312180550 METAR ESMX 180550Z 25009KT 4000 -DZ BKN002 07/07 Q1015=
202312180520 METAR ESMX 180520Z 26010KT 210V290 5000 -DZ BKN003 07/07 Q1014=
202312180450 METAR ESMX 180450Z 26012KT 6000 -DZ BKN003 07/07 Q1014=
202312180420 METAR ESMX 180420Z AUTO 26014KT 9999 OVC004/// 07/07 Q1014=
202312180350 METAR ESMX 180350Z AUTO 25014KT 220V280 9999 OVC004/// 07/07 Q1013=
202312180320 METAR ESMX 180320Z AUTO 25015G28KT 9999 OVC005/// 07/07 Q1013=
202312180250 METAR ESMX 180250Z AUTO 25014KT 9999 -DZ OVC006/// 07/07 Q1014=
202312180220 METAR ESMX 180220Z AUTO 25013KT 9999 DZ OVC005/// 07/07 Q1014=
202312180150 METAR ESMX 180150Z AUTO 25014G24KT 210V280 9999 -DZ OVC005/// 07/07 Q1014 RERA=
202312180120 METAR ESMX 180120Z AUTO 25013KT 9999 OVC004/// 07/07 Q1014=
202312180050 METAR ESMX 180050Z AUTO 25012KT 220V280 7000 -DZ OVC003/// 07/07 Q1014 REUP=
202312180020 METAR ESMX 180020Z AUTO 25013KT 220V280 6000 OVC003/// 07/07 Q1014=
202312172350 METAR ESMX 172350Z AUTO 25012G23KT 220V280 4500 BR OVC002/// 07/07 Q1014=
202312172320 METAR ESMX 172320Z AUTO 25012KT 210V280 3800 BR OVC003/// 07/07 Q1014=
202312172250 METAR ESMX 172250Z AUTO 25011KT 9999 OVC004/// 07/07 Q1014=
202312172220 METAR ESMX 172220Z AUTO 25014KT 9999 OVC004/// 07/07 Q1015=
202312172150 METAR ESMX 172150Z AUTO 25014G24KT 210V290 9999 OVC004/// 07/07 Q1015=
202312172120 METAR ESMX 172120Z AUTO 25010KT 210V280 9999 OVC003/// 07/07 Q1015=
202312172050 METAR ESMX 172050Z AUTO 25012KT 2700 BR OVC002/// 07/07 Q1014=
202312172020 METAR ESMX 172020Z AUTO 23014KT 3000 BR OVC002/// 07/07 Q1014=
202312171950 METAR ESMX 171950Z AUTO 25015KT 3700 BR BKN003/// OVC004/// 07/07 Q1014=
202312171920 METAR ESMX 171920Z AUTO 25016KT 3900 BR FEW002/// OVC004/// 07/07 Q1014=
202312171850 METAR ESMX 171850Z AUTO 25014KT 220V280 8000 OVC005/// 07/07 Q1014=
202312171820 METAR ESMX 171820Z AUTO 24012G25KT 210V270 8000 OVC005/// 07/07 Q1014=
202312171750 METAR ESMX 171750Z 25014KT 210V280 5000 BR BKN004 07/07 Q1014=
202312171720 METAR ESMX 171720Z 24013G23KT 7000 BR BKN004 07/07 Q1015=
202312171650 METAR ESMX 171650Z 24014G25KT 210V270 6000 BR BKN004 07/07 Q1014=
202312171620 METAR ESMX 171620Z 23013KT 6000 DZ BKN004 07/07 Q1015=
202312171550 METAR ESMX 171550Z AUTO 25014KT 4100 BR FEW002/// OVC005/// 07/07 Q1015 REDZ=
202312171520 METAR ESMX 171520Z AUTO 23012KT 200V280 2600 DZ BKN002/// OVC004/// 07/07 Q1015=
202312171450 METAR ESMX 171450Z AUTO 23012KT 3300 -DZ SCT003/// OVC004/// 07/07 Q1016=
202312171420 METAR ESMX 171420Z AUTO 25012KT 210V280 2800 BR OVC003/// 07/07 Q1016 RESHUP REDZ=
202312171350 METAR ESMX 171350Z AUTO 24014KT 220V280 3900 BR OVC003/// 07/07 Q1016=
202312171320 METAR ESMX 171320Z AUTO 24013G23KT 210V270 6000 OVC003/// 07/07 Q1016 RESHUP REDZ=
202312171250 METAR ESMX 171250Z AUTO 23013KT 190V250 4500 BR OVC003/// 07/07 Q1017=
202312171220 METAR ESMX 171220Z AUTO 23012KT 200V260 4500 BR OVC003/// 08/08 Q1017 REDZ=
202312171150 METAR ESMX 171150Z AUTO 23014KT 4100 BR OVC003/// 08/08 Q1018 REUP=
202312171120 METAR ESMX 171120Z AUTO 24014KT 3700 BR OVC003/// 08/08 Q1018=
202312171050 METAR ESMX 171050Z AUTO 24014KT 210V270 4600 BR OVC003/// 08/08 Q1018=
202312171020 METAR ESMX 171020Z AUTO 24013KT 2400 BR OVC002/// 07/07 Q1018 REDZ=
202312170950 METAR ESMX 170950Z AUTO 22012KT 3500 BR OVC002/// 07/07 Q1018=
202312170920 METAR ESMX 170920Z AUTO 22012KT 3500 BR OVC002/// 07/07 Q1019=
202312170850 METAR ESMX 170850Z AUTO 23012KT 2800 BR OVC003/// 07/07 Q1019=
202312170820 METAR ESMX 170820Z AUTO 22010KT 6000 -RA OVC003/// 07/07 Q1020 REDZ=
202312170750 METAR ESMX 170750Z AUTO 23009KT 2700 DZ OVC003/// 07/07 Q1019=
202312170720 METAR ESMX 170720Z AUTO 24010KT 210V270 8000 DZ OVC003/// 08/08 Q1020 REUP=
202312170650 METAR ESMX 170650Z AUTO 25010KT 220V280 6000 OVC003/// 08/08 Q1019=
202312170620 METAR ESMX 170620Z AUTO 25011KT 6000 OVC003/// 07/07 Q1019=
202312170550 METAR ESMX 170550Z AUTO 25010KT 220V280 5000 BR OVC004/// 08/08 Q1019=
202312170520 METAR ESMX 170520Z AUTO 24010KT 220V280 6000 OVC004/// 08/08 Q1019=
202312170450 METAR ESMX 170450Z AUTO 26010KT 6000 OVC005/// 08/08 Q1019=
202312170420 METAR ESMX 170420Z AUTO 26011KT 7000 OVC005/// 08/08 Q1019=
202312170350 METAR ESMX 170350Z AUTO 26012G23KT 230V290 4300 BR OVC004/// 08/08 Q1019=
202312170320 METAR ESMX 170320Z AUTO 26011KT 220V290 6000 BKN005/// OVC007/// 08/08 Q1019=
202312170250 METAR ESMX 170250Z AUTO 26012KT 9999 OVC007/// 08/08 Q1019=
202312170220 METAR ESMX 170220Z AUTO 26011KT 210V290 9999 OVC007/// 08/08 Q1019=
202312170150 METAR ESMX 170150Z AUTO 27012KT 9999 OVC008/// 08/08 Q1018=
202312170120 METAR ESMX 170120Z AUTO 26011KT 230V290 9999 OVC008/// 08/07 Q1018=
202312170050 METAR ESMX 170050Z AUTO 28012G23KT 240V300 9999 OVC008/// 08/08 Q1017=
202312170020 METAR ESMX 170020Z AUTO 27016G28KT 230V290 9999 OVC008/// 08/08 Q1017=
202312162350 METAR ESMX 162350Z AUTO 26015G26KT 9999 OVC008/// 08/08 Q1017=
202312162320 METAR ESMX 162320Z AUTO 26016G27KT 9999 OVC007/// 08/08 Q1017=
202312162250 METAR ESMX 162250Z AUTO 26014G27KT 9999 OVC006/// 08/08 Q1017=
202312162220 METAR ESMX 162220Z AUTO 26014KT 9999 OVC006/// 08/08 Q1016=
202312162150 METAR ESMX 162150Z AUTO 24013KT 210V280 9999 OVC006/// 08/08 Q1016=
202312162120 METAR ESMX 162120Z AUTO 26013G24KT 9999 OVC005/// 08/08 Q1017=
202312162050 METAR ESMX 162050Z AUTO 26013KT 210V290 9999 OVC005/// 08/08 Q1017=
202312162020 METAR ESMX 162020Z AUTO 25012KT 210V280 8000 OVC004/// 07/07 Q1017=
202312161950 METAR ESMX 161950Z AUTO 25013KT 220V280 4300 BR OVC004/// 07/07 Q1017=
202312161920 METAR ESMX 161920Z AUTO 25012KT 200V280 6000 OVC005/// 07/07 Q1017=
202312161850 METAR ESMX 161850Z AUTO 25013G26KT 220V280 5000 BR OVC005/// 08/07 Q1017=
202312161820 METAR ESMX 161820Z AUTO 25013G25KT 8000 OVC005/// 07/07 Q1017=
202312161750 METAR ESMX 161750Z AUTO 23013KT 200V260 8000 OVC004/// 07/07 Q1017=
202312161720 METAR ESMX 161720Z AUTO 24015KT 5000 BR SCT003/// OVC004/// 08/08 Q1017=
202312161650 METAR ESMX 161650Z AUTO 23015KT 210V270 4100 BR OVC003/// 07/07 Q1017=
202312161620 METAR ESMX 161620Z AUTO 24012G25KT 4300 BR OVC004/// 07/07 Q1018=
202312161550 METAR ESMX 161550Z AUTO 23011KT 7000 OVC005/// 07/07 Q1018=
202312161520 METAR ESMX 161520Z AUTO 24011KT 8000 OVC005/// 07/07 Q1019=
202312161450 METAR ESMX 161450Z AUTO 25013G24KT 5000 BR OVC004/// 07/07 Q1019=
202312161420 METAR ESMX 161420Z AUTO 23011KT 3400 BR FEW003/// OVC004/// 07/07 Q1019=
202312161350 METAR ESMX 161350Z AUTO 25014KT 210V280 5000 BR BKN003/// OVC005/// 07/07 Q1019=
202312161320 METAR ESMX 161320Z AUTO 23011KT 190V270 3500 BR OVC003/// 07/07 Q1020 REDZ=
202312161250 METAR ESMX 161250Z AUTO 22013KT 2200 BR OVC002/// 06/06 Q1020=
202312161220 METAR ESMX 161220Z AUTO 23011KT 2800 BR OVC002/// 06/06 Q1020=
202312161150 METAR ESMX 161150Z AUTO 23011KT 2700 -DZ OVC002/// 06/06 Q1021=
202312161120 METAR ESMX 161120Z AUTO 22011KT 1900 -RA OVC002/// 06/06 Q1021 RESHUP REDZ=
202312161050 METAR ESMX 161050Z AUTO 23010KT 2700 BR OVC002/// 06/06 Q1022=
202312161020 METAR ESMX 161020Z AUTO 23010KT 2300 -DZ OVC002/// 06/06 Q1022 REUP=
202312160950 METAR ESMX 160950Z AUTO 22010KT 2000 UP OVC002/// 05/05 Q1023=
202312160920 METAR ESMX 160920Z AUTO 21011KT 2100 BR OVC002/// 05/05 Q1023 REDZ=
202312160850 METAR ESMX 160850Z AUTO 21009KT 2600 BR OVC002/// 05/05 Q1023=
202312160820 METAR ESMX 160820Z AUTO 23010KT 200V260 2800 BR OVC002/// 05/05 Q1023=
202312160750 METAR ESMX 160750Z AUTO 21008KT 1900 -DZ OVC002/// 05/05 Q1024 REUP REDZ=
202312160720 METAR ESMX 160720Z AUTO 24010KT 5000 BR OVC002/// 05/05 Q1024=
202312160650 METAR ESMX 160650Z AUTO 24010KT 4400 BR OVC002/// 05/05 Q1024 REDZ=
202312160620 METAR ESMX 160620Z AUTO 24010KT 7000 OVC003/// 05/05 Q1024=
202312160550 METAR ESMX 160550Z AUTO 24008KT 210V270 5000 BR OVC003/// 05/05 Q1024 REUP=
202312160520 METAR ESMX 160520Z AUTO 24007KT 8000 OVC004/// 05/05 Q1024=
202312160450 METAR ESMX 160450Z AUTO 25007KT 6000 OVC003/// 04/04 Q1024=
202312160420 METAR ESMX 160420Z AUTO 26010KT 7000 OVC004/// 04/04 Q1025=
202312160350 METAR ESMX 160350Z AUTO 26010KT 9999 OVC005/// 04/04 Q1025=
202312160320 METAR ESMX 160320Z AUTO 25011KT 9999 OVC005/// 04/04 Q1025=
202312160250 METAR ESMX 160250Z AUTO 25010KT 9999 OVC005/// 04/04 Q1024=
202312160220 METAR ESMX 160220Z AUTO 26007KT 9999 OVC004/// 04/04 Q1025=
202312160150 METAR ESMX 160150Z AUTO 26009KT 230V290 9999 OVC005/// 04/04 Q1025=
202312160120 METAR ESMX 160120Z AUTO 25009KT 9999 OVC006/// 04/04 Q1024=
202312160050 METAR ESMX 160050Z AUTO 25010KT 210V280 9999 OVC007/// 04/04 Q1025=
202312160020 METAR ESMX 160020Z AUTO 24008KT 9999 OVC007/// 04/04 Q1025=
202312152350 METAR ESMX 152350Z AUTO 24009KT 9999 OVC007/// 04/04 Q1024=
202312152320 METAR ESMX 152320Z AUTO 26008KT 220V290 9999 OVC007/// 04/04 Q1024=
202312152250 METAR ESMX 152250Z AUTO 26008KT 9999 OVC007/// 04/04 Q1024=
202312152220 METAR ESMX 152220Z AUTO 26008KT 230V290 9999 OVC007/// 04/04 Q1024=
202312152150 METAR ESMX 152150Z AUTO 25009KT 9999 OVC006/// 04/04 Q1024=
202312152120 METAR ESMX 152120Z AUTO 25007KT 210V270 9999 OVC007/// 04/04 Q1024=
202312152050 METAR ESMX 152050Z AUTO 24008KT 9999 OVC008/// 04/04 Q1024=
202312152020 METAR ESMX 152020Z AUTO 26009KT 9999 OVC007/// 04/04 Q1024=
202312151950 METAR ESMX 151950Z AUTO 25010KT 9999 BKN007/// OVC009/// 04/04 Q1023=
202312151920 METAR ESMX 151920Z AUTO 25009KT 9999 BKN005/// OVC009/// 04/04 Q1024=
202312151850 METAR ESMX 151850Z AUTO 25009KT 6000 OVC003/// 04/04 Q1023=
202312151820 METAR ESMX 151820Z AUTO 26009KT 8000 OVC003/// 04/04 Q1023=
202312151750 METAR ESMX 151750Z AUTO 26009KT 230V290 9999 OVC003/// 03/03 Q1023=
202312151720 METAR ESMX 151720Z AUTO 26008KT 230V290 5000 BR OVC002/// 03/03 Q1023=
202312151650 METAR ESMX 151650Z AUTO 24008KT 210V270 3200 BR OVC002/// 03/03 Q1023=
202312151620 METAR ESMX 151620Z AUTO 25009KT 1800 BR OVC002/// 03/03 Q1023=
202312151550 METAR ESMX 151550Z 26010KT 1700 BR VV002 03/03 Q1023=
202312151520 METAR ESMX 151520Z 26010KT 220V280 3400 BR VV002 03/03 Q1022=
202312151450 METAR COR ESMX 151450Z 26008KT 6000 BR BKN003 03/03 Q1023=
202312151420 METAR ESMX 151420Z 25008KT 5000 BR VV002 03/03 Q1022=
202312151350 METAR ESMX 151350Z 25006KT 210V280 3000 BR VV002 03/03 Q1022=
202312151320 METAR ESMX 151320Z 26006KT 2000 R01/1900D R19/P2000N BR VV002 03/03 Q1022=
202312151250 METAR ESMX 151250Z 25008KT 200V280 4000 BR VV002 02/02 Q1022=
202312151220 METAR ESMX 151220Z 22006KT 4000 BR VV002 02/02 Q1022=
202312151150 METAR COR ESMX 151150Z 23006KT 4000 R01/1800D R19/P2000D BR VV002 02/02 Q1022=
202312151120 METAR COR ESMX 151120Z 22005KT 5000 BR VV002 01/01 Q1022=
202312151050 METAR ESMX 151050Z 23007KT 1100 R19/1500N BR VV002 01/01 Q1022=
202312151020 METAR ESMX 151020Z 23007KT 0550 R19/1200N FG VV002 01/01 Q1022=
202312150950 METAR ESMX 150950Z 24005KT 210V270 0800 R19/1100N FG VV002 00/00 Q1021=
202312150920 METAR ESMX 150920Z 22008KT 0500 R19/0800N FG VV002 00/00 Q1021=
202312150850 METAR ESMX 150850Z 22009KT 0500 R19/0700N FZFG VV002 M00/M00 Q1021=
202312150820 METAR COR ESMX 150820Z 20008KT 0700 R19/0900N FZFG VV002 M01/M01 Q1021=
202312150750 METAR ESMX 150750Z 18006KT 0500 R19/0900N FZFG VV002 M01/M01 Q1021=
202312150720 METAR ESMX 150720Z 16004KT 0800 R19/1700D FZFG VV002 M01/M01 Q1021=
202312150650 METAR ESMX 150650Z 18004KT 1500 R19/P2000N BR OVC002 M02/M02 Q1021=
202312150620 METAR ESMX 150620Z 18005KT 2000 BR BKN002 M02/M02 Q1021=
202312150550 METAR ESMX 150550Z 19005KT 9000 FEW003 BKN006 M02/M02 Q1021=
202312150520 METAR ESMX 150520Z AUTO 19004KT 9999 SCT014/// OVC019/// M02/M02 Q1021=
202312150450 METAR ESMX 150450Z AUTO 19005KT 9999 BKN021/// BKN035/// OVC094/// M03/M03 Q1021=
202312150420 METAR ESMX 150420Z AUTO 21004KT 9999 SCT024/// OVC032/// M03/M03 Q1021=
202312150350 METAR ESMX 150350Z AUTO 23004KT 9999 OVC031/// M03/M03 Q1021=
202312150320 METAR ESMX 150320Z AUTO 21004KT 9999 BKN033/// M04/M04 Q1021 RESHUP REFZUP=
202312150250 METAR ESMX 150250Z AUTO VRB02KT 9999 SCT023/// OVC032/// M03/M03 Q1021=
202312150220 METAR ESMX 150220Z AUTO 21002KT 9999 OVC023/// M03/M03 Q1021=
202312150150 METAR ESMX 150150Z AUTO 26002KT 9999 SCT007/// BKN014/// OVC026/// M03/M03 Q1021 REFZUP RESHUP=
202312150120 METAR ESMX 150120Z 25002KT 9999 -SN BKN007 M03/M03 Q1020=
202312150050 METAR ESMX 150050Z 29001KT 9999 BKN005 M03/M03 Q1020=
202312150020 METAR COR ESMX 150020Z VRB01KT 9999 -SN BKN007 M03/M03 Q1020=
202312142350 METAR ESMX 142350Z 22001KT 6000 FEW005 BKN011 M03/M03 Q1020=
202312142320 METAR ESMX 142320Z 21002KT 9999 -SN BKN011 M02/M04 Q1020=
202312142250 METAR ESMX 142250Z AUTO 16002KT 9999 BKN011/// OVC023/// M02/M04 Q1019=
202312142220 METAR ESMX 142220Z 17003KT 140V200 9999 BKN015 M02/M04 Q1019=
202312142150 METAR ESMX 142150Z 16004KT 9999 OVC017 M02/M04 Q1019=
202312142120 METAR ESMX 142120Z 20003KT 9999 BKN021 M03/M04 Q1019=
202312142050 METAR ESMX 142050Z AUTO 16002KT 9999 OVC028/// M03/M04 Q1019=
202312142020 METAR ESMX 142020Z 21002KT 9999 BKN022 M03/M04 Q1020=
202312141950 METAR ESMX 141950Z AUTO 21003KT 9999 FEW022/// OVC030/// M03/M04 Q1019=
202312141920 METAR ESMX 141920Z VRB03KT 9999 BKN024 M03/M04 Q1019=
202312141850 METAR ESMX 141850Z 16003KT 9999 OVC024 M03/M04 Q1019=
202312141820 METAR ESMX 141820Z 00000KT 9999 OVC024 M03/M04 Q1019=
202312141750 METAR ESMX 141750Z 22001KT 9999 BKN024 M03/M04 Q1019=
202312141720 METAR ESMX 141720Z 20002KT 9999 BKN026 M03/M04 Q1019=
202312141650 METAR COR ESMX 141650Z 21001KT 9999 BKN027 M03/M04 Q1019=
202312141620 METAR ESMX 141620Z 22002KT 9999 BKN030 M03/M04 Q1018=
202312141550 METAR ESMX 141550Z 23002KT 9999 BKN030 M03/M04 Q1018=
202312141520 METAR ESMX 141520Z 25002KT 9999 BKN030 M03/M05 Q1018=
202312141450 METAR ESMX 141450Z 25003KT 9999 BKN029 M03/M05 Q1018=
202312141420 METAR ESMX 141420Z VRB02KT 9999 BKN029 M02/M05 Q1017=
202312141350 METAR ESMX 141350Z VRB03KT 9999 BKN026 M02/M06 Q1017=
202312141320 METAR ESMX 141320Z 21003KT 9999 BKN023 M02/M05 Q1017=
202312141250 METAR ESMX 141250Z 00000KT 9999 BKN022 M02/M06 Q1017=
202312141220 METAR ESMX 141220Z 21002KT 9999 BKN021 M02/M06 Q1017=
202312141150 METAR ESMX 141150Z VRB03KT 9999 BKN021 M02/M06 Q1017=
202312141120 METAR ESMX 141120Z 36003KT 9999 BKN021 M03/M05 Q1017=
202312141050 METAR ESMX 141050Z VRB02KT 9999 BKN022 M03/M05 Q1017=
202312141020 METAR ESMX 141020Z 36004KT 9999 BKN021 M03/M05 Q1016=
202312140950 METAR ESMX 140950Z 02005KT 9999 BKN022 M03/M05 Q1016=
202312140920 METAR ESMX 140920Z 35004KT 9999 BKN022 M03/M05 Q1016=
202312140850 METAR ESMX 140850Z 36005KT 9999 BKN023 M03/M05 Q1016=
202312140820 METAR ESMX 140820Z 01007KT 9999 BKN023 M03/M05 Q1016=
202312140750 METAR ESMX 140750Z 35006KT 9999 BKN024 M03/M05 Q1016=
202312140720 METAR ESMX 140720Z 35007KT 9999 BKN025 M03/M05 Q1015=
202312140650 METAR ESMX 140650Z 35005KT 9999 BKN025 M03/M05 Q1015=
202312140620 METAR ESMX 140620Z 01006KT 9999 BKN025 M03/M05 Q1014=
202312140550 METAR ESMX 140550Z 35006KT 9999 BKN026 M03/M05 Q1014=
202312140520 METAR ESMX 140520Z 36006KT 9999 BKN028 M03/M05 Q1014=
202312140450 METAR ESMX 140450Z 35006KT 9999 BKN029 M03/M05 Q1014=
202312140420 METAR ESMX 140420Z AUTO 36005KT 9999 OVC029/// M03/M05 Q1014=
202312140350 METAR ESMX 140350Z AUTO 01006KT 9999 OVC030/// M03/M05 Q1014=
202312140320 METAR ESMX 140320Z AUTO 01006KT 9999 OVC031/// M03/M05 Q1014=
202312140250 METAR ESMX 140250Z AUTO 01006KT 9999 OVC030/// M03/M05 Q1014=
202312140220 METAR ESMX 140220Z AUTO 03005KT 350V050 9999 FEW011/// OVC030/// M03/M05 Q1014=
202312140150 METAR ESMX 140150Z AUTO 03005KT 010V070 9999 BKN011/// OVC030/// M03/M05 Q1014=
202312140120 METAR ESMX 140120Z 04007KT 9999 BKN010 M03/M05 Q1013=
202312140050 METAR ESMX 140050Z 03008KT 9999 FEW012 OVC029 M03/M05 Q1013=
202312140020 METAR ESMX 140020Z AUTO 03009KT 9999 FEW011/// OVC029/// M03/M05 Q1013=
202312132350 METAR ESMX 132350Z 36007KT 9999 BKN011 M03/M05 Q1013=
202312132320 METAR ESMX 132320Z AUTO 01007KT 9999 FEW010/// OVC028/// M03/M05 Q1013=
202312132250 METAR ESMX 132250Z AUTO 02008KT 350V050 9999 BKN009/// OVC024/// M03/M04 Q1013=
202312132220 METAR ESMX 132220Z 03008KT 360V060 9999 OVC008 M03/M04 Q1013=
202312132150 METAR ESMX 132150Z 03008KT 9999 OVC008 M03/M04 Q1012=
202312132120 METAR ESMX 132120Z 04008KT 9999 OVC008 M03/M04 Q1012=
202312132050 METAR ESMX 132050Z 04009KT 9999 OVC008 M03/M04 Q1012=
202312132020 METAR ESMX 132020Z 03009KT 9999 BKN008 M03/M04 Q1012=
202312131950 METAR ESMX 131950Z 03010KT 9999 OVC009 M03/M04 Q1011=
202312131920 METAR ESMX 131920Z 02007KT 350V060 9999 OVC009 M03/M04 Q1011=
202312131850 METAR ESMX 131850Z 02009KT 9999 OVC009 M03/M04 Q1011=
202312131820 METAR ESMX 131820Z 02007KT 9999 OVC009 M03/M04 Q1011=
202312131750 METAR ESMX 131750Z 02007KT 350V050 9999 OVC009 M03/M04 Q1010=
202312131720 METAR ESMX 131720Z 03008KT 9999 BKN009 M03/M04 Q1010=
202312131650 METAR ESMX 131650Z 03008KT 9999 BKN009 M03/M04 Q1010=
202312131620 METAR ESMX 131620Z 03006KT 9999 BKN009 M03/M04 Q1010=
202312131550 METAR ESMX 131550Z 02008KT 9999 BKN009 M03/M04 Q1010=
202312131520 METAR ESMX 131520Z 03009KT 9999 -SN BKN008 M03/M04 Q1009=
202312131450 METAR ESMX 131450Z 03009KT 9999 BKN007 M03/M04 Q1009=
202312131420 METAR ESMX 131420Z 03008KT 9999 BKN008 M03/M04 Q1009=
202312131350 METAR ESMX 131350Z 03008KT 010V070 9999 BKN007 M03/M04 Q1009=
202312131320 METAR ESMX 131320Z 03009KT 9999 BKN007 M03/M04 Q1009=
202312131250 METAR ESMX 131250Z 03007KT 9000 BKN006 M03/M04 Q1009=
202312131220 METAR ESMX 131220Z 03007KT 9999 BKN006 M03/M04 Q1008=
202312131150 METAR ESMX 131150Z 02008KT 350V050 9000 BKN006 M03/M04 Q1008=
202312131120 METAR ESMX 131120Z 02007KT 350V050 9999 BKN006 M03/M04 Q1008=
202312131050 METAR ESMX 131050Z 03007KT 9999 BKN007 M03/M04 Q1008=
202312131020 METAR ESMX 131020Z 03009KT 9999 BKN008 M03/M04 Q1008=
202312130950 METAR ESMX 130950Z 01009KT 350V050 9999 BKN008 M03/M04 Q1008=
202312130920 METAR ESMX 130920Z 03008KT 360V060 9999 BKN007 M03/M04 Q1008=
202312130850 METAR ESMX 130850Z 04008KT 9999 BKN007 M03/M04 Q1008=
202312130820 METAR ESMX 130820Z 05006KT 020V090 9999 BKN008 M03/M04 Q1008=
202312130750 METAR ESMX 130750Z 04005KT 350V100 9999 BKN009 M03/M05 Q1008=
202312130720 METAR ESMX 130720Z 04007KT 010V080 9999 BKN010 M03/M05 Q1008=
202312130650 METAR ESMX 130650Z 04007KT 9999 BKN011 M03/M05 Q1007=
202312130620 METAR ESMX 130620Z 02006KT 350V050 9999 BKN010 BKN027 M03/M05 Q1007=
202312130550 METAR ESMX 130550Z 05006KT 020V080 9999 BKN009 BKN029 M03/M05 Q1007=
202312130520 METAR ESMX 130520Z 01006KT 9999 BKN010 BKN027 M03/M05 Q1007=
202312130450 METAR ESMX 130450Z 01006KT 9999 BKN010 BKN027 M03/M05 Q1007=
202312130420 METAR ESMX 130420Z 01006KT 9999 FEW010 BKN028 M03/M04 Q1007=
202312130350 METAR ESMX 130350Z AUTO 03007KT 9999 SCT010/// OVC028/// M03/M04 Q1007 RESHUP REFZUP REFZRA=
202312130320 METAR ESMX 130320Z AUTO 03006KT 340V080 9999 BKN011/// OVC028/// M03/M04 Q1007 REFZUP RESHUP REFZRA=
202312130250 METAR ESMX 130250Z AUTO 03006KT 9999 BKN011/// OVC013/// M03/M04 Q1007 REFZUP RESHUP REFZRA=
202312130220 METAR ESMX 130220Z AUTO 03005KT 350V060 9999 FZUP BKN011/// OVC014/// M03/M04 Q1007 RESHUP=
202312130150 METAR ESMX 130150Z 04005KT 010V070 9999 BKN011 M03/M05 Q1007=
202312130120 METAR ESMX 130120Z 03004KT 350V070 9999 SCT013 OVC030 M03/M05 Q1008=
202312130050 METAR ESMX 130050Z 04005KT 9999 FEW012 OVC030 M03/M05 Q1008=
202312130020 METAR ESMX 130020Z 04004KT 010V070 9999 SCT013 BKN017 M03/M05 Q1008=
202312122350 METAR ESMX 122350Z 02005KT 9999 BKN013 M03/M05 Q1008=
202312122320 METAR ESMX 122320Z 02004KT 340V060 9999 BKN010 M02/M04 Q1008=
202312122250 METAR ESMX 122250Z 04005KT 010V080 9999 BKN009 M02/M04 Q1008=
202312122220 METAR ESMX 122220Z 03005KT 360V070 9999 BKN009 M02/M04 Q1008=
202312122150 METAR ESMX 122150Z 02004KT 350V060 9999 BKN009 M02/M04 Q1008=
202312122120 METAR ESMX 122120Z 03006KT 9999 BKN009 M02/M03 Q1008=
202312122050 METAR ESMX 122050Z 04005KT 010V070 9999 BKN008 M02/M03 Q1008=
202312122020 METAR ESMX 122020Z 01004KT 9999 -SN BKN007 M02/M03 Q1008=
202312121950 METAR ESMX 121950Z 03006KT 350V050 9999 -SN BKN008 M02/M03 Q1008=
202312121920 METAR ESMX 121920Z 01007KT 9999 BKN008 M02/M03 Q1008=
202312121850 METAR ESMX 121850Z 36006KT 9999 -SN BKN009 M02/M03 Q1008=
202312121820 METAR ESMX 121820Z 01005KT 9999 BKN009 M02/M03 Q1008=
202312121750 METAR ESMX 121750Z 01005KT 9999 -SN BKN009 M02/M03 Q1008=
202312121720 METAR ESMX 121720Z 01005KT 9999 -SN SCT009 BKN027 M02/M03 Q1008=
202312121650 METAR ESMX 121650Z 02004KT 350V050 9999 -SN BKN009 M02/M03 Q1008=
202312121620 METAR ESMX 121620Z 01005KT 9999 BKN009 M02/M03 Q1008=
202312121550 METAR ESMX 121550Z 01006KT 9999 BKN009 M02/M03 Q1008=
202312121520 METAR ESMX 121520Z 35005KT 9999 BKN010 OVC017 M02/M03 Q1008=
202312121450 METAR ESMX 121450Z 35005KT 9999 BKN010 M01/M03 Q1008=
202312121420 METAR ESMX 121420Z 01005KT 9999 -SN BKN011 M01/M03 Q1008=
202312121350 METAR ESMX 121350Z 36005KT 9999 -SN SCT012 BKN021 M01/M03 Q1008=
202312121320 METAR ESMX 121320Z 36006KT 9999 -SN BKN009 M01/M03 Q1008=
202312121250 METAR ESMX 121250Z 36007KT 9999 -SN BKN010 M01/M02 Q1008=
202312121220 METAR ESMX 121220Z 36007KT 9999 BKN009 M01/M02 Q1008=
202312121150 METAR ESMX 121150Z 01006KT 9999 SCT007 BKN011 M01/M02 Q1008=
202312121120 METAR ESMX 121120Z 35007KT 9999 -SN BKN008 M01/M02 Q1008=
202312121050 METAR ESMX 121050Z 36006KT 9999 -SN SCT007 BKN012 M01/M02 Q1008=
202312121020 METAR ESMX 121020Z 35009KT 9999 -FZDZ OVC007 M01/M02 Q1008 REFZRA=
202312120950 METAR ESMX 120950Z 33007KT 9999 BKN007 M01/M01 Q1008=
202312120920 METAR ESMX 120920Z 34006KT 9999 BKN008 OVC011 M01/M01 Q1008 RESN=
202312120850 METAR ESMX 120850Z 01005KT 9999 SCT010 BKN014 M01/M02 Q1008=
202312120820 METAR ESMX 120820Z 36007KT 9999 BKN015 M01/M02 Q1008=
202312120750 METAR ESMX 120750Z 02006KT 9999 BKN016 M01/M02 Q1008=
202312120720 METAR ESMX 120720Z 01006KT 9999 FEW012 BKN016 M01/M02 Q1008=
202312120650 METAR ESMX 120650Z 02006KT 9999 BKN012 OVC016 M00/M02 Q1007=
202312120620 METAR ESMX 120620Z 01007KT 9999 BKN012 M00/M02 Q1007 RESN=
202312120550 METAR ESMX 120550Z 01009KT 340V040 9999 BKN010 M00/M02 Q1007 RESN=
202312120520 METAR ESMX 120520Z 01009KT 9999 BKN010 M00/M01 Q1006=
202312120450 METAR ESMX 120450Z 01008KT 9999 BKN011 M00/M01 Q1006=
202312120420 METAR ESMX 120420Z AUTO 01008KT 9999 OVC011/// M00/M01 Q1006=
202312120350 METAR ESMX 120350Z AUTO 02008KT 9999 OVC012/// M00/M01 Q1006=
202312120320 METAR ESMX 120320Z AUTO 36009KT 9999 OVC011/// M00/M01 Q1006 REFZUP=
202312120250 METAR ESMX 120250Z AUTO 36007KT 9999 FEW010/// BKN015/// OVC023/// M00/M01 Q1006=
202312120220 METAR ESMX 120220Z AUTO 03008KT 9999 BKN016/// OVC026/// M00/M01 Q1006=
202312120150 METAR ESMX 120150Z 03009KT 9999 SCT002 BKN014 M00/M01 Q1005=
202312120120 METAR ESMX 120120Z 03009KT 8000 -SN BKN002 M00/M00 Q1005=
202312120050 METAR ESMX 120050Z 01008KT 9999 BKN013 00/M01 Q1005=
202312120020 METAR ESMX 120020Z 01009KT 2400 -SN FEW002 BKN007 00/M00 Q1004=
202312112350 METAR ESMX 112350Z AUTO 03009KT 9999 -DZ FEW013/// OVC023/// 00/M01 Q1004=
202312112320 METAR ESMX 112320Z 03010KT 7000 -SN BKN012 00/M00 Q1004=
202312112250 METAR ESMX 112250Z AUTO 03009KT 7000 -SN FEW008/// SCT015/// BKN025/// 00/M00 Q1004=
202312112220 METAR ESMX 112220Z 01009KT 9000 -SN BKN009 00/M00 Q1003=
202312112150 METAR ESMX 112150Z 02010KT 7000 -SN OVC009 01/M00 Q1002=
202312112120 METAR ESMX 112120Z 02009KT 9999 -SN BKN008 01/00 Q1002=
202312112050 METAR ESMX 112050Z AUTO 03009KT 9999 -RA OVC009/// 01/00 Q1002=
202312112020 METAR ESMX 112020Z 03009KT 9999 -SN BKN009 01/00 Q1001=
202312111950 METAR ESMX 111950Z 03009KT 9999 -SN OVC010 01/M00 Q1001=
202312111920 METAR ESMX 111920Z 03009KT 9999 -SN OVC011 01/M00 Q1001=
202312111850 METAR ESMX 111850Z 03009KT 9999 OVC011 01/M00 Q1000=
202312111820 METAR ESMX 111820Z 03009KT 9999 OVC010 01/M00 Q1000=
202312111750 METAR ESMX 111750Z 04010KT 9999 BKN011 01/M00 Q1000=
202312111720 METAR ESMX 111720Z 03009KT 9999 -DZ FEW006 BKN009 BKN012 01/00 Q1000=
202312111650 METAR ESMX 111650Z 04009KT 9999 -DZ BKN010 01/00 Q0999=
202312111620 METAR ESMX 111620Z 04009KT 9999 BKN010 01/00 Q0999=
202312111550 METAR ESMX 111550Z 04008KT 3600 -SN FEW002 BKN009 BKN018 01/01 Q0999 RERA=
202312111520 METAR ESMX 111520Z 04008KT 010V080 9999 BKN010 01/00 Q0999=
202312111450 METAR ESMX 111450Z AUTO 04008KT 9999 OVC010/// 01/00 Q0999 RESHUP=
202312111420 METAR ESMX 111420Z 04009KT 9999 BKN010 01/01 Q0998=
202312111350 METAR ESMX 111350Z 04008KT 9999 -RA BKN009 01/01 Q0998=
202312111320 METAR ESMX 111320Z 04008KT 9999 BKN009 01/01 Q0998=
202312111250 METAR ESMX 111250Z 04008KT 9999 -DZ BKN009 01/01 Q0997=
202312111220 METAR ESMX 111220Z 05009KT 9999 -DZ BKN007 OVC009 02/01 Q0997=
202312111150 METAR ESMX 111150Z 04008KT 010V070 9999 BKN007 02/01 Q0997=
202312111120 METAR ESMX 111120Z 03008KT 9999 -DZ BKN006 02/02 Q0997=
202312111050 METAR ESMX 111050Z 04008KT 020V080 9999 -DZ BKN005 02/02 Q0997 RERA=
202312111020 METAR ESMX 111020Z 05008KT 020V080 9999 BKN005 02/02 Q0997=
202312110950 METAR ESMX 110950Z 04008KT 9999 -DZ BKN005 02/02 Q0997=
202312110920 METAR ESMX 110920Z 04007KT 020V080 9999 -DZ BKN006 01/01 Q0997=
202312110850 METAR ESMX 110850Z 04008KT 020V080 9999 -RASN BKN005 01/01 Q0997=
202312110820 METAR ESMX 110820Z 03006KT 350V070 9999 -RASN BKN005 01/01 Q0997=
202312110750 METAR ESMX 110750Z 03007KT 360V070 9999 -RASN BKN006 01/01 Q0997=
202312110720 METAR ESMX 110720Z 03006KT 360V080 9999 -RA BKN006 01/01 Q0996=
202312110650 METAR ESMX 110650Z 06007KT 030V100 9999 -RASN BKN006 01/01 Q0996=
202312110620 METAR ESMX 110620Z 06007KT 020V110 9999 -SNRA BKN005 01/01 Q0996=
202312110550 METAR ESMX 110550Z 05006KT 020V080 9999 -SNRA BKN005 01/01 Q0996=
202312110520 METAR ESMX 110520Z 06006KT 020V110 9999 -RASN BKN005 01/01 Q0996=
202312110450 METAR ESMX 110450Z 06006KT 020V100 9999 -SNRA BKN005 01/01 Q0997=
202312110420 METAR ESMX 110420Z AUTO 07007KT 030V110 9999 -DZ OVC005/// 01/01 Q0997 REUP RESHUP=
202312110350 METAR ESMX 110350Z AUTO 07005KT 030V110 9999 OVC004/// 01/01 Q0997=
202312110320 METAR ESMX 110320Z AUTO 06005KT 030V110 6000 OVC003/// 01/01 Q0997=
202312110250 METAR ESMX 110250Z AUTO 06006KT 010V110 7000 OVC003/// 01/01 Q0997=
202312110220 METAR ESMX 110220Z AUTO 07005KT 010V120 9999 OVC005/// 01/01 Q0998=
202312110150 METAR ESMX 110150Z AUTO 07005KT 010V140 9999 OVC004/// 01/01 Q0998=
202312110120 METAR ESMX 110120Z AUTO 07005KT 030V120 5000 BR OVC004/// 01/01 Q0998 REDZ=
202312110050 METAR ESMX 110050Z AUTO 07005KT 020V130 9000 OVC004/// 01/01 Q0998=
202312110020 METAR ESMX 110020Z AUTO 08005KT 030V140 9999 OVC005/// 01/01 Q0999=
202312102350 METAR ESMX 102350Z AUTO 07005KT 020V120 8000 -RA OVC004/// 01/01 Q0999=
202312102320 METAR ESMX 102320Z AUTO 07004KT 030V110 6000 -SN OVC004/// 01/01 Q0999=
202312102250 METAR ESMX 102250Z 06005KT 030V100 7000 -SN BKN004 01/01 Q1000=
202312102220 METAR ESMX 102220Z 07005KT 030V120 7000 -RA BKN005 01/01 Q1000=
202312102150 METAR COR ESMX 102150Z 07004KT 030V110 8000 -RA BKN005 01/01 Q1000=
202312102120 METAR ESMX 102120Z AUTO 07005KT 020V120 7000 -RA OVC005/// 01/01 Q1001 RERA=
202312102050 METAR ESMX 102050Z AUTO 08005KT 030V120 9999 RA OVC005/// 01/01 Q1001=
202312102020 METAR ESMX 102020Z AUTO 07004KT 030V120 9999 -RA OVC006/// 01/01 Q1002=
202312101950 METAR ESMX 101950Z AUTO 07004KT 030V130 9999 -RA OVC006/// 01/01 Q1002=
202312101920 METAR ESMX 101920Z 07005KT 020V120 9999 -RASN BKN005 01/01 Q1002=
202312101850 METAR ESMX 101850Z 07005KT 020V100 9999 -RASN BKN005 01/01 Q1003=
202312101820 METAR ESMX 101820Z 07005KT 030V100 9999 -RASN BKN004 01/01 Q1003=
202312101750 METAR ESMX 101750Z 04006KT 010V090 9999 -RASN BKN004 01/01 Q1003=
202312101720 METAR ESMX 101720Z 05005KT 010V100 9999 -RASN BKN005 01/01 Q1003=
202312101650 METAR ESMX 101650Z 06006KT 020V090 9999 -RASN BKN005 01/01 Q1004=
202312101620 METAR ESMX 101620Z AUTO 06008KT 030V090 9999 -RA OVC005/// 01/01 Q1004=
202312101550 METAR ESMX 101550Z AUTO 06007KT 020V100 9999 -DZ OVC005/// 01/01 Q1004=
202312101520 METAR ESMX 101520Z 06007KT 030V100 8000 -RASN BKN005 01/01 Q1005=
202312101450 METAR ESMX 101450Z 06006KT 020V100 9000 -RA BKN005 01/01 Q1005=
202312101420 METAR ESMX 101420Z AUTO 06006KT 010V110 6000 -RASN OVC005/// 01/01 Q1005 RERA=
202312101350 METAR ESMX 101350Z AUTO 06007KT 6000 -RA OVC005/// 01/01 Q1005=
202312101320 METAR ESMX 101320Z AUTO 06007KT 030V100 7000 -RA OVC005/// 01/01 Q1005=
202312101250 METAR ESMX 101250Z AUTO 06006KT 030V100 9999 -RA OVC005/// 01/01 Q1005 REUP=
202312101220 METAR ESMX 101220Z AUTO 07006KT 020V100 8000 OVC004/// 01/01 Q1005=
202312101150 METAR ESMX 101150Z AUTO 06006KT 030V100 7000 OVC004/// 02/02 Q1005=
202312101120 METAR ESMX 101120Z AUTO 08005KT 350V150 7000 OVC004/// 02/02 Q1005=
202312101050 METAR ESMX 101050Z AUTO 08006KT 030V140 6000 OVC004/// 02/02 Q1005=
202312101020 METAR ESMX 101020Z AUTO 09005KT 040V140 4200 BR OVC004/// 02/02 Q1005=
202312100950 METAR ESMX 100950Z AUTO 09005KT 020V150 7000 OVC004/// 01/01 Q1005=
202312100920 METAR ESMX 100920Z AUTO 09006KT 030V140 6000 OVC004/// 01/01 Q1006=
202312100850 METAR ESMX 100850Z AUTO 09006KT 030V140 5000 BR OVC003/// 01/01 Q1005=
202312100820 METAR ESMX 100820Z AUTO 08006KT 350V130 3600 BR OVC002/// 01/01 Q1005=
202312100750 METAR ESMX 100750Z AUTO 08007KT 040V120 2600 BR OVC002/// 01/01 Q1005=
202312100720 METAR ESMX 100720Z AUTO 07005KT 030V110 4200 BR OVC002/// 01/01 Q1005=
202312100650 METAR ESMX 100650Z AUTO 07005KT 030V130 6000 OVC003/// 01/01 Q1005=
202312100620 METAR ESMX 100620Z AUTO 07006KT 020V100 7000 OVC003/// 01/01 Q1005=
202312100550 METAR ESMX 100550Z AUTO 07005KT 030V110 5000 BR OVC003/// 01/01 Q1005=
202312100520 METAR ESMX 100520Z AUTO 07005KT 030V120 6000 OVC003/// 01/01 Q1005=
202312100450 METAR ESMX 100450Z AUTO 07004KT 020V110 7000 OVC005/// 01/01 Q1005=
202312100420 METAR ESMX 100420Z AUTO 07005KT 030V110 5000 BR OVC005/// 01/01 Q1005=
202312100350 METAR ESMX 100350Z AUTO 07004KT 030V120 6000 OVC005/// 01/01 Q1005=
202312100320 METAR ESMX 100320Z AUTO 07004KT 030V120 5000 BR OVC004/// 00/00 Q1005=
202312100250 METAR ESMX 100250Z AUTO 07004KT 030V100 6000 BKN006/// OVC008/// 00/00 Q1005=
202312100220 METAR ESMX 100220Z AUTO 07005KT 040V100 7000 SCT008/// OVC013/// 00/00 Q1005=
202312100150 METAR ESMX 100150Z AUTO 07005KT 030V120 6000 FEW008/// OVC013/// 00/00 Q1005=
202312100120 METAR ESMX 100120Z AUTO 07005KT 020V110 6000 BKN006/// OVC013/// 00/00 Q1005=
202312100050 METAR ESMX 100050Z AUTO 08004KT 020V120 6000 OVC006/// 00/00 Q1005=
202312100020 METAR ESMX 100020Z AUTO 08005KT 030V110 6000 OVC005/// M00/M00 Q1005=
202312092350 METAR ESMX 092350Z AUTO 08005KT 030V120 5000 BR OVC004/// M00/M00 Q1005=
202312092320 METAR ESMX 092320Z AUTO 07005KT 040V140 4400 BR OVC004/// M00/M00 Q1005=
202312092250 METAR ESMX 092250Z AUTO 07007KT 040V100 3600 BR OVC003/// M00/M00 Q1005=
202312092220 METAR ESMX 092220Z AUTO 07006KT 020V120 2300 BR OVC002/// M00/M00 Q1005=
202312092150 METAR ESMX 092150Z AUTO 09004KT 030V140 1700 BR OVC002/// M00/M00 Q1006=
202312092120 METAR ESMX 092120Z AUTO 10005KT 050V160 1500 BR OVC002/// M00/M00 Q1006=
202312092050 METAR ESMX 092050Z AUTO 10005KT 030V140 1500 BR OVC002/// M00/M00 Q1006=
202312092020 METAR ESMX 092020Z AUTO 11006KT 050V140 2100 BR OVC003/// M00/M00 Q1006=
202312091950 METAR ESMX 091950Z AUTO 11006KT 050V150 2700 BR OVC003/// M00/M00 Q1006=
202312091920 METAR ESMX 091920Z AUTO 11007KT 050V170 3900 BR OVC004/// M00/M00 Q1006=
202312091850 METAR ESMX 091850Z AUTO 13006KT 080V150 4600 BR OVC004/// M00/M00 Q1007 REFZRA=
202312091820 METAR ESMX 091820Z AUTO 12005KT 040V150 5000 BR OVC005/// 00/M00 Q1007=
202312091750 METAR ESMX 091750Z AUTO 11006KT 080V160 3300 BR OVC003/// 00/00 Q1007 REUP=
202312091720 METAR ESMX 091720Z AUTO 11006KT 060V150 2300 BR OVC003/// 00/00 Q1007=
202312091650 METAR ESMX 091650Z AUTO 11007KT 060V150 2300 BR OVC003/// 00/00 Q1008=
202312091620 METAR ESMX 091620Z AUTO 11007KT 050V160 2200 BR OVC003/// 00/00 Q1008=
202312091550 METAR ESMX 091550Z AUTO 12007KT 080V170 2900 BR OVC004/// 00/00 Q1008=
202312091520 METAR ESMX 091520Z AUTO 12006KT 070V150 3200 BR OVC004/// 00/00 Q1008=
202312091450 METAR ESMX 091450Z AUTO 12006KT 050V140 2600 BR OVC003/// 00/00 Q1009=
202312091420 METAR ESMX 091420Z AUTO 12006KT 050V170 1700 BR OVC002/// 00/00 Q1009=
202312091350 METAR ESMX 091350Z AUTO 12006KT 060V160 1800 BR OVC002/// 00/00 Q1009=
202312091320 METAR ESMX 091320Z AUTO 12006KT 070V160 1300 R01/P2000N R19/P2000N BR OVC002/// 00/00 Q1009=
202312091250 METAR ESMX 091250Z AUTO 12006KT 070V160 1500 BR OVC002/// 00/00 Q1010=
202312091220 METAR ESMX 091220Z AUTO 12006KT 060V150 1200 R01/1900N R19/P2000N BR OVC002/// 00/00 Q1010=
202312091150 METAR ESMX 091150Z AUTO 14006KT 100V160 1900 BR OVC003/// 00/00 Q1010 REDZ=
202312091120 METAR ESMX 091120Z AUTO 14006KT 100V160 3300 BR OVC004/// 01/00 Q1011=
202312091050 METAR ESMX 091050Z AUTO 13005KT 090V180 3200 BR OVC004/// 01/01 Q1011=
202312091020 METAR ESMX 091020Z AUTO 13005KT 090V160 2600 -DZ OVC005/// 01/01 Q1011 RESHUP=
202312090950 METAR ESMX 090950Z AUTO 13005KT 2600 UP OVC006/// 01/01 Q1012 REDZ=
202312090920 METAR ESMX 090920Z AUTO 13005KT 070V150 4600 BR BKN003/// OVC005/// 01/01 Q1012=
202312090850 METAR ESMX 090850Z AUTO 12005KT 050V140 2700 DZ OVC002/// 01/01 Q1012=
202312090820 METAR ESMX 090820Z AUTO 10004KT 050V150 2200 DZ OVC003/// 01/01 Q1012=
202312090750 METAR ESMX 090750Z AUTO 11004KT 060V200 2900 DZ OVC004/// 01/01 Q1012=
202312090720 METAR ESMX 090720Z AUTO 11004KT 070V160 2700 -RA OVC003/// 01/01 Q1012 REDZ=
202312090650 METAR ESMX 090650Z AUTO 11004KT 070V150 2400 -DZ OVC003/// 01/01 Q1013 RESHUP REDZ=
202312090620 METAR ESMX 090620Z AUTO 12004KT 080V140 3400 BR OVC003/// 01/01 Q1013=
202312090550 METAR ESMX 090550Z AUTO 12004KT 080V180 4800 -DZ OVC004/// 01/01 Q1013 RESHUP REUP=
202312090520 METAR ESMX 090520Z AUTO 13005KT 070V160 5000 BR OVC005/// 01/01 Q1013=
202312090450 METAR ESMX 090450Z AUTO 11005KT 050V190 8000 BKN005/// OVC007/// 01/01 Q1013=
202312090420 METAR ESMX 090420Z AUTO 12006KT 080V160 8000 BKN006/// OVC008/// 01/01 Q1013 REDZ=
202312090350 METAR ESMX 090350Z AUTO 12006KT 050V150 7000 OVC005/// 01/01 Q1013=
202312090320 METAR ESMX 090320Z AUTO 11005KT 070V180 5000 BR OVC004/// 01/01 Q1013=
202312090250 METAR ESMX 090250Z AUTO 12005KT 080V150 5000 -RA OVC004/// 01/01 Q1013=
202312090220 METAR ESMX 090220Z AUTO VRB04KT 4200 -RASN BKN004/// OVC005/// 01/01 Q1014=
202312090150 METAR ESMX 090150Z AUTO 11005KT 060V140 2500 -SN OVC004/// 01/01 Q1014 RESHUP=
202312090120 METAR ESMX 090120Z AUTO 12006KT 060V140 3400 UP OVC003/// 01/01 Q1014=
202312090050 METAR ESMX 090050Z AUTO 12005KT 060V160 2800 -DZ OVC003/// 01/01 Q1014=
202312090020 METAR ESMX 090020Z AUTO 11006KT 050V150 2600 -DZ OVC003/// 01/01 Q1014=
202312082350 METAR ESMX 082350Z AUTO 10006KT 350V140 4400 -DZ OVC004/// 01/01 Q1014=
202312082320 METAR ESMX 082320Z AUTO 11004KT 050V140 5000 -RA FEW002/// BKN005/// OVC007/// 01/01 Q1015=
202312082250 METAR ESMX 082250Z AUTO VRB03KT 3300 -SN FEW002/// OVC005/// 01/01 Q1015=
202312082220 METAR ESMX 082220Z AUTO 12004KT 060V140 2600 -PL BKN002/// OVC004/// 01/01 Q1015=
202312082150 METAR ESMX 082150Z AUTO 12006KT 070V150 1700 -SN OVC002/// 01/01 Q1015=
202312082120 METAR ESMX 082120Z AUTO 11006KT 060V140 1700 -SN OVC002/// 01/01 Q1015=
202312082050 METAR ESMX 082050Z AUTO 12006KT 080V160 2200 -PL OVC003/// 01/01 Q1015 RESHUP REDZ=
202312082020 METAR ESMX 082020Z AUTO 12007KT 060V160 2500 BR OVC003/// 01/01 Q1015=
202312081950 METAR ESMX 081950Z AUTO 11007KT 070V160 3400 -DZ OVC003/// 01/01 Q1015 REUP=
202312081920 METAR ESMX 081920Z AUTO 11006KT 040V150 3100 BR BKN003/// OVC005/// 01/01 Q1016=
202312081850 METAR ESMX 081850Z AUTO 11005KT 070V140 2600 BR OVC003/// 01/01 Q1015=
202312081820 METAR ESMX 081820Z AUTO 12006KT 070V140 3300 BR OVC003/// 01/01 Q1016=
202312081750 METAR ESMX 081750Z AUTO 10005KT 010V140 2800 BR OVC003/// 01/01 Q1015=
202312081720 METAR ESMX 081720Z AUTO 10004KT 010V140 2600 BR OVC003/// 01/01 Q1016=
202312081650 METAR ESMX 081650Z AUTO 11004KT 060V140 2600 BR OVC003/// 01/01 Q1016=
202312081620 METAR ESMX 081620Z AUTO 11004KT 050V120 2100 BR OVC003/// 01/01 Q1016=
202312081550 METAR ESMX 081550Z AUTO 11003KT 070V140 2200 BR OVC002/// 01/01 Q1016=
202312081520 METAR ESMX 081520Z 09004KT 050V120 3000 BR OVC003 01/01 Q1016=
202312081450 METAR ESMX 081450Z 10004KT 030V150 3000 BR OVC003 01/01 Q1016=
202312081420 METAR ESMX 081420Z VRB03KT 3000 BR OVC003 01/01 Q1016=
202312081350 METAR ESMX 081350Z 10003KT 060V150 2500 BR OVC002 01/01 Q1016=
202312081320 METAR ESMX 081320Z 11003KT 070V160 2500 BR OVC002 01/01 Q1016=
202312081250 METAR ESMX 081250Z 19003KT 2500 BR OVC002 01/01 Q1016=
202312081220 METAR ESMX 081220Z VRB02KT 3000 BR OVC002 01/01 Q1016=
202312081150 METAR ESMX 081150Z VRB02KT 3000 BR OVC002 01/01 Q1016=
202312081120 METAR ESMX 081120Z VRB02KT 5000 BR OVC002 01/01 Q1017=
202312081050 METAR ESMX 081050Z 06003KT 3500 BR OVC002 01/01 Q1017=
202312081020 METAR ESMX 081020Z VRB03KT 3400 BR OVC002 01/01 Q1017=
202312080950 METAR ESMX 080950Z AUTO VRB02KT 3300 BR OVC002/// 01/01 Q1017 RESHUP=
202312080920 METAR ESMX 080920Z AUTO VRB03KT 2400 BR OVC002/// 01/01 Q1017 REUP=
202312080850 METAR ESMX 080850Z VRB03KT 1900 FG OVC001 00/00 Q1017=
202312080820 METAR ESMX 080820Z VRB02KT 0900 R01/1500U R19/P2000N FG OVC001 00/00 Q1017=
202312080750 METAR ESMX 080750Z 03002KT 1100 R01/P2000N R19/P2000N OVC001 M00/M00 Q1017=
202312080720 METAR ESMX 080720Z 01002KT 0550 R01/1600D R19/P2000N FZFG BKN001 OVC003 M00/M00 Q1017=
202312080650 METAR ESMX 080650Z 35002KT 0650 R01/1800D R19/P2000N FZFG BKN001 OVC003 M00/M00 Q1017=
202312080620 METAR ESMX 080620Z AUTO 00000KT 1200 R01/P2000N R19/P2000N OVC001/// M00/M00 Q1017=
202312080550 METAR ESMX 080550Z 04002KT 0650 R01/1800N R19/P2000N FZFG OVC001 M00/M00 Q1017=
202312080520 METAR ESMX 080520Z 00000KT 0300 R01/1000U R19/1900N FZFG OVC001 M00/M00 Q1017=
202312080450 METAR ESMX 080450Z AUTO 00000KT 0350 R01/1100N R19/1200N FZFG OVC001/// M00/M00 Q1017=
202312080420 METAR ESMX 080420Z AUTO VRB01KT 0400 R01/1200N R19/P2000N FZFG BKN001/// OVC003/// M00/M00 Q1017=
202312080350 METAR ESMX 080350Z AUTO 00000KT 0250 R01/0900N R19/1600N FZFG VV004 M00/M00 Q1017=
202312080320 METAR ESMX 080320Z AUTO 03002KT 0300 R01/1000D R19/1000N FZFG VV003 M00/M00 Q1017 RESHUP REFZUP=
202312080250 METAR ESMX 080250Z AUTO 35002KT 0150 R01/0550N R19/0600N FZFG VV002 M00/M00 Q1017=
202312080220 METAR ESMX 080220Z AUTO 00000KT 0150 R01/0600N R19/0650N FZFG VV003 M00/M00 Q1018=
202312080150 METAR ESMX 080150Z AUTO 00000KT 0150 R01/0600N R19/0650N FZFG VV003 M00/M00 Q1017=
202312080120 METAR ESMX 080120Z 00000KT 0200 R01/0650N R19/0600N FG VV002 M00/M00 Q1017=
202312080050 METAR ESMX 080050Z 00000KT 0200 R01/0550N R19/0700N FG VV002 M00/M00 Q1017=
202312080020 METAR ESMX 080020Z 00000KT 0200 R01/0550N R19/0600N FG VV002 M00/M00 Q1017=
202312072350 METAR COR ESMX 072350Z 00000KT 0200 R01/0600N R19/0600N FG VV002 M00/M00 Q1018=
202312072320 METAR ESMX 072320Z 00000KT 0200 R01/0650D R19/0650N FG VV004 M00/M00 Q1018=
202312072250 METAR ESMX 072250Z AUTO 00000KT 0150 R01/0650N R19/0650N FZFG VV003 M00/M00 Q1018=
202312072220 METAR ESMX 072220Z 00000KT 0200 R01/0700N R19/0750N FG VV002 M00/M00 Q1018=
202312072150 METAR COR ESMX 072150Z 02003KT 0200 R01/0650N R19/0650N FG VV002 M00/M00 Q1017=
202312072120 METAR ESMX 072120Z 36002KT 0200 R01/0550N R19/0600N FG VV002 M00/M00 Q1018=
202312072050 METAR ESMX 072050Z 00000KT 0400 R01/0800N R19/0750N FG VV002 M00/M00 Q1018=
202312072020 METAR ESMX 072020Z AUTO 04002KT 0300 R01/0900N R19/1200D FZFG OVC001/// M00/M00 Q1018=
202312071950 METAR ESMX 071950Z AUTO VRB01KT 0450 R01/P2000D R19/P2000N FZFG OVC002/// M00/M00 Q1019=
202312071920 METAR ESMX 071920Z 00000KT 7000 BKN003 M00/M00 Q1018=
202312071850 METAR ESMX 071850Z 00000KT 9999 BKN003 M00/M00 Q1018=
202312071820 METAR ESMX 071820Z 00000KT 9999 BKN004 M00/M00 Q1018=
202312071750 METAR ESMX 071750Z VRB02KT 8000 BR BKN005 M00/M00 Q1018=
202312071720 METAR ESMX 071720Z VRB02KT 8000 FEW003 BKN011 M00/M00 Q1018=
202312071650 METAR ESMX 071650Z 00000KT 5000 -SN BR BKN003 M00/M00 Q1018=
202312071620 METAR ESMX 071620Z VRB01KT 8000 -SN SCT005 BKN022 M00/M00 Q1018=
202312071550 METAR ESMX 071550Z VRB02KT 5000 -SN BKN005 M00/M00 Q1018=
202312071520 METAR ESMX 071520Z VRB02KT 4000 -SN SCT005 BKN009 00/00 Q1018=
202312071450 METAR ESMX 071450Z VRB02KT 6000 -SN BKN008 00/00 Q1018=
202312071420 METAR ESMX 071420Z 03002KT 9999 -SN BKN007 00/00 Q1018=
202312071350 METAR COR ESMX 071350Z 03001KT 9999 BKN007 00/00 Q1018=
202312071320 METAR ESMX 071320Z 03002KT 7000 -SN BKN005 00/00 Q1018=
202312071250 METAR ESMX 071250Z VRB02KT 7000 -SN BKN006 01/01 Q1018=
202312071220 METAR ESMX 071220Z VRB02KT 7000 -SN BKN005 01/00 Q1018=
202312071150 METAR ESMX 071150Z VRB03KT 4500 -SN OVC004 01/01 Q1018=
202312071120 METAR ESMX 071120Z VRB03KT 3800 -SN BKN004 01/01 Q1018=
202312071050 METAR ESMX 071050Z 06004KT 020V100 2300 -SN VV009 00/00 Q1018=
202312071020 METAR ESMX 071020Z 03003KT 350V080 2200 -SN SCT004 BKN013 00/00 Q1019=
202312070950 METAR ESMX 070950Z 04004KT 3600 -SN VV011 00/00 Q1019=
202312070920 METAR ESMX 070920Z 04004KT 2500 -SN VV017 M00/M00 Q1019=
202312070850 METAR ESMX 070850Z 03004KT 360V080 1700 -SN VV014 M00/M00 Q1019=
202312070820 METAR ESMX 070820Z 04005KT 010V070 2100 -SN VV017 M00/M00 Q1019=
202312070750 METAR ESMX 070750Z 02003KT 350V060 5000 -SN FEW004 BKN020 M00/M00 Q1019=
202312070720 METAR ESMX 070720Z 04004KT 350V080 4000 SN FEW004 BKN017 M00/M00 Q1019=
202312070650 METAR ESMX 070650Z 03003KT 360V100 2200 SN VV017 M00/M00 Q1019=
202312070620 METAR ESMX 070620Z 03004KT 360V070 2200 -SN VV011 M00/M00 Q1019=
202312070550 METAR ESMX 070550Z 03003KT 340V080 1800 SN SCT004 BKN008 M00/M00 Q1019=
202312070520 METAR ESMX 070520Z 05004KT 010V100 2300 -SN FEW005 BKN011 M00/M00 Q1019=
202312070450 METAR COR ESMX 070450Z 03004KT 350V070 1700 R01/P2000N R19/P2000N -SN VV007 M01/M01 Q1019=
202312070420 METAR ESMX 070420Z AUTO 04005KT 1300 R01/P2000N R19/P2000N -SN VV014 M01/M01 Q1019=
202312070350 METAR ESMX 070350Z AUTO 04004KT 020V080 1600 -SN VV013 M01/M01 Q1019=
202312070320 METAR ESMX 070320Z AUTO 05004KT 020V080 1600 -SN VV018 M01/M01 Q1019=
202312070250 METAR ESMX 070250Z AUTO 05005KT 020V080 2000 -SN VV014 M01/M01 Q1019=
202312070220 METAR ESMX 070220Z AUTO 06004KT 030V090 1600 -SN VV011 M01/M01 Q1019=
202312070150 METAR ESMX 070150Z AUTO 06004KT 2200 -PL FEW002/// BKN013/// OVC019/// M01/M01 Q1019=
202312070120 METAR ESMX 070120Z 02005KT 350V050 6000 -SN BKN012 M01/M01 Q1019=
202312070050 METAR ESMX 070050Z 02005KT 5000 -SN FEW002 SCT006 BKN012 M01/M02 Q1019=
202312070020 METAR ESMX 070020Z 01006KT 5000 -SN BKN012 M01/M02 Q1019=
202312062350 METAR ESMX 062350Z 03005KT 9999 BKN012 M01/M02 Q1019=
202312062320 METAR ESMX 062320Z 04006KT 010V080 9999 -SN BKN013 M01/M02 Q1019=
202312062250 METAR ESMX 062250Z 05007KT 020V080 9999 BKN013 M00/M01 Q1019=
202312062220 METAR COR ESMX 062220Z 05006KT 9999 -SN BKN010 M00/M01 Q1019=
202312062150 METAR ESMX 062150Z 05006KT 020V080 8000 SCT019 BKN024 M01/M01 Q1019=
202312062120 METAR ESMX 062120Z 06007KT 030V090 5000 -SN SCT012 BKN026 M00/M01 Q1019=
202312062050 METAR ESMX 062050Z 04006KT 010V080 5000 -SN BKN011 M00/M01 Q1019=
202312062020 METAR ESMX 062020Z AUTO 05006KT 020V080 9999 OVC011/// M00/M02 Q1019=
202312061950 METAR ESMX 061950Z AUTO 04006KT 340V080 9999 OVC012/// M00/M02 Q1019=
202312061920 METAR ESMX 061920Z AUTO 06007KT 020V090 9999 BKN014/// OVC018/// M00/M02 Q1019 REFZUP=
202312061850 METAR ESMX 061850Z AUTO 06006KT 030V100 9999 FZUP BKN021/// OVC026/// M01/M02 Q1019=
202312061820 METAR ESMX 061820Z 06006KT 040V100 5000 -SN BKN025 M01/M02 Q1019=
202312061750 METAR ESMX 061750Z 06006KT 020V110 5000 -SN BKN025 M01/M02 Q1019=
202312061720 METAR ESMX 061720Z 07006KT 030V110 9000 -SN FEW019 BKN028 M00/M02 Q1019=
202312061650 METAR ESMX 061650Z 05007KT 010V090 9000 -SN FEW021 BKN036 M00/M02 Q1019=
202312061620 METAR ESMX 061620Z 07007KT 020V110 7000 -SN SCT017 BKN040 M00/M02 Q1018=
202312061550 METAR ESMX 061550Z 07007KT 020V110 9999 FEW019 BKN039 M00/M02 Q1018=
202312061520 METAR ESMX 061520Z 07006KT 020V120 9999 BKN036 M00/M02 Q1018=
202312061450 METAR ESMX 061450Z 06006KT 030V100 9999 FEW012 BKN035 M00/M01 Q1018=
202312061420 METAR ESMX 061420Z 06006KT 010V090 9999 FEW010 BKN015 M00/M01 Q1018=
202312061350 METAR ESMX 061350Z 06006KT 010V080 9999 SCT010 BKN034 M00/M01 Q1018=
202312061320 METAR ESMX 061320Z 06007KT 030V090 9999 -SN FEW006 BKN012 M01/M02 Q1018=
202312061250 METAR ESMX 061250Z 05008KT 020V080 7000 -SN SCT006 BKN010 M01/M02 Q1018=
202312061220 METAR ESMX 061220Z 06007KT 030V090 9000 -SN BKN012 M01/M02 Q1018=
202312061150 METAR ESMX 061150Z 06009KT 030V100 9000 -SN SCT013 BKN017 M01/M02 Q1018=
202312061120 METAR ESMX 061120Z 07009KT 9999 -SN FEW011 BKN014 M00/M03 Q1018=
202312061050 METAR ESMX 061050Z 06010KT 030V110 9000 -SN FEW006 BKN015 M01/M03 Q1018=
202312061020 METAR ESMX 061020Z 06009KT 010V110 9999 BKN015 M01/M03 Q1019=
202312060950 METAR ESMX 060950Z 06009KT 030V090 9999 BKN018 M01/M03 Q1019=
202312060920 METAR ESMX 060920Z 06008KT 030V100 9999 BKN018 M01/M04 Q1019=
202312060850 METAR ESMX 060850Z 06009KT 020V100 9999 BKN027 M01/M04 Q1019=
202312060820 METAR ESMX 060820Z 04008KT 010V080 9999 BKN027 M01/M04 Q1019=
202312060750 METAR ESMX 060750Z 06007KT 030V100 9999 BKN030 M01/M04 Q1018=
202312060720 METAR ESMX 060720Z 04008KT 010V080 9999 OVC039 M01/M04 Q1018=
202312060650 METAR ESMX 060650Z 06008KT 010V090 9999 OVC036 M01/M04 Q1018=
202312060620 METAR ESMX 060620Z 07006KT 010V110 9999 OVC035 M01/M04 Q1018=
202312060550 METAR ESMX 060550Z 07007KT 030V110 9999 BKN037 M01/M04 Q1018=
202312060520 METAR ESMX 060520Z 06007KT 030V100 9999 FEW029 OVC043 M01/M04 Q1018=
202312060450 METAR ESMX 060450Z 07007KT 020V110 9999 FEW031 OVC041 M01/M04 Q1018=
202312060420 METAR ESMX 060420Z AUTO 07007KT 030V100 9999 FEW030/// OVC040/// M01/M04 Q1018=
202312060350 METAR ESMX 060350Z AUTO 06006KT 010V140 9999 BKN032/// OVC042/// M01/M04 Q1018=
202312060320 METAR ESMX 060320Z AUTO 06006KT 030V110 9999 BKN030/// OVC044/// M02/M04 Q1018=
202312060250 METAR ESMX 060250Z AUTO 07006KT 030V120 9999 OVC029/// M01/M04 Q1018=
202312060220 METAR ESMX 060220Z AUTO 06005KT 020V110 9999 BKN030/// OVC041/// M01/M03 Q1018=
202312060150 METAR ESMX 060150Z AUTO 07006KT 010V120 9999 FEW031/// OVC041/// M02/M03 Q1018=
202312060120 METAR ESMX 060120Z AUTO 07005KT 030V110 9999 BKN031/// OVC042/// M02/M03 Q1018=
202312060050 METAR ESMX 060050Z 07006KT 030V110 9999 BKN033 M01/M03 Q1018=
202312060020 METAR ESMX 060020Z 06006KT 020V080 9999 BKN034 M01/M03 Q1018=
202312052350 METAR ESMX 052350Z 06005KT 9999 BKN033 M02/M03 Q1018=
202312052320 METAR ESMX 052320Z 07006KT 030V110 9999 BKN030 M02/M03 Q1018=
202312052250 METAR ESMX 052250Z 07004KT 350V110 9999 BKN038 M02/M03 Q1018=
202312052220 METAR ESMX 052220Z 06005KT 020V100 9999 FEW031 BKN042 M02/M03 Q1018=
202312052150 METAR ESMX 052150Z 08004KT 020V120 9999 FEW027 BKN042 M02/M02 Q1018=
202312052120 METAR ESMX 052120Z 09004KT 040V130 9999 BKN041 M01/M02 Q1018=
202312052050 METAR ESMX 052050Z 07004KT 360V110 9999 FEW022 SCT041 M02/M02 Q1018=
202312052020 METAR ESMX 052020Z 07004KT 020V100 9999 FEW002 SCT038 M01/M02 Q1018=
202312051950 METAR ESMX 051950Z 06005KT 030V110 9999 BKN020 BKN038 M01/M02 Q1018=
202312051920 METAR COR ESMX 051920Z 07003KT 030V100 9999 SCT023 BKN037 M01/M02 Q1018=
202312051850 METAR ESMX 051850Z 07004KT 010V110 9999 BKN008 BKN018 M01/M01 Q1018=
202312051820 METAR ESMX 051820Z 07005KT 020V110 9999 BKN008 M01/M01 Q1018=
202312051750 METAR ESMX 051750Z 08004KT 020V120 9999 BKN008 M01/M01 Q1018=
202312051720 METAR ESMX 051720Z 07004KT 020V110 9999 BKN008 M01/M01 Q1018=
202312051650 METAR ESMX 051650Z 08004KT 020V110 9999 BKN007 M01/M01 Q1017=
202312051620 METAR ESMX 051620Z 08005KT 030V120 9999 BKN007 M01/M01 Q1017=
202312051550 METAR ESMX 051550Z 07004KT 030V110 9999 BKN007 M01/M01 Q1017=
202312051520 METAR ESMX 051520Z AUTO VRB03KT 9999 OVC007/// M01/M01 Q1017=
202312051450 METAR ESMX 051450Z AUTO 07003KT 030V140 9999 BKN008/// OVC038/// M01/M01 Q1017=
202312051420 METAR ESMX 051420Z AUTO 08003KT 030V140 9999 BKN007/// OVC038/// M01/M01 Q1017=
202312051350 METAR ESMX 051350Z AUTO VRB03KT 9999 OVC007/// M01/M01 Q1017=
202312051320 METAR ESMX 051320Z AUTO 07003KT 010V120 9999 BKN005/// OVC007/// M02/M02 Q1017=
202312051250 METAR ESMX 051250Z AUTO VRB02KT 9999 BKN004/// OVC006/// M02/M02 Q1017=
202312051220 METAR ESMX 051220Z VRB03KT 9999 BKN006 M03/M03 Q1017=
202312051150 METAR ESMX 051150Z VRB02KT 9999 BKN006 M03/M03 Q1017=
202312051120 METAR ESMX 051120Z 05003KT 9999 FEW007 M03/M03 Q1017=
202312051050 METAR ESMX 051050Z VRB03KT 9999 SCT032 M03/M03 Q1017=
202312051020 METAR ESMX 051020Z 03003KT 9999 SCT030 M06/M06 Q1017=
202312050950 METAR ESMX 050950Z VRB02KT 9999 FEW006 SCT029 M04/M05 Q1017=
202312050920 METAR ESMX 050920Z VRB02KT 9999 SCT029 M05/M06 Q1017=
202312050850 METAR ESMX 050850Z 04003KT 9999 FEW030 M06/M06 Q1017=
202312050820 METAR ESMX 050820Z 03002KT 9999 SCT029 M08/M08 Q1017=
202312050750 METAR ESMX 050750Z 04002KT 9999 FEW009 SCT028 M08/M09 Q1017=
202312050720 METAR ESMX 050720Z 04002KT 9999 FEW026 M09/M09 Q1016=
202312050650 METAR ESMX 050650Z 04002KT CAVOK M09/M09 Q1016=
202312050620 METAR ESMX 050620Z 06003KT CAVOK M08/M09 Q1016=
202312050550 METAR ESMX 050550Z 04003KT CAVOK M07/M07 Q1016=
202312050520 METAR ESMX 050520Z 03003KT CAVOK M06/M07 Q1016=
202312050450 METAR ESMX 050450Z 03003KT CAVOK M06/M07 Q1016=
202312050420 METAR ESMX 050420Z AUTO 04003KT 9999 FEW018/// M06/M06 Q1016=
202312050350 METAR ESMX 050350Z AUTO 03003KT 9999 OVC015/// M05/M06 Q1016=
202312050320 METAR ESMX 050320Z AUTO 04003KT 010V070 9999 OVC015/// M06/M06 Q1016=
202312050250 METAR ESMX 050250Z AUTO VRB02KT 9999 OVC015/// M07/M07 Q1016=
202312050220 METAR ESMX 050220Z AUTO 04002KT 9999 OVC017/// M07/M08 Q1016=
202312050150 METAR ESMX 050150Z AUTO 02002KT 9999 OVC019/// M08/M08 Q1016=
202312050120 METAR ESMX 050120Z 01003KT 9999 BKN021 M09/M10 Q1016=
202312050050 METAR ESMX 050050Z 02002KT 9999 FEW022 M09/M10 Q1016=
202312050020 METAR ESMX 050020Z AUTO 00000KT 9999 NCD M11/M12 Q1016=
202312042350 METAR ESMX 042350Z 05002KT 9999 SCT022 M10/M11 Q1016=
202312042320 METAR ESMX 042320Z 02002KT 9999 BKN022 M09/M10 Q1016=
202312042250 METAR ESMX 042250Z 00000KT 9999 BKN023 M09/M10 Q1016=
202312042220 METAR ESMX 042220Z 05002KT 7000 BR NSC M10/M10 Q1016=
202312042150 METAR ESMX 042150Z 04003KT 7000 BKN021 M08/M09 Q1016=
202312042120 METAR ESMX 042120Z AUTO VRB02KT 5000 BR BKN020/// M10/M11 Q1016=
202312042050 METAR ESMX 042050Z 06001KT 8000 R01/P2000N R19/P2000N SCT019 M09/M10 Q1016=
202312042020 METAR ESMX 042020Z AUTO 09002KT 3000 BKN003/// M09/M10 Q1016=
202312041950 METAR ESMX 041950Z AUTO 05002KT 0300 R01/P2000N R19/P2000N BCFG SCT004/// M08/M08 Q1016=
202312041920 METAR ESMX 041920Z AUTO 05002KT 9999 BKN004/// OVC005/// M06/M06 Q1016=
202312041850 METAR ESMX 041850Z AUTO VRB02KT 9999 OVC004/// M05/M06 Q1016=
202312041820 METAR ESMX 041820Z 00000KT 9999 BKN005 M05/M06 Q1016=
202312041750 METAR ESMX 041750Z 17001KT 9999 BKN007 M05/M06 Q1017=
202312041720 METAR ESMX 041720Z 18003KT 9999 BKN009 M05/M06 Q1017=
202312041650 METAR ESMX 041650Z AUTO 19003KT 9999 OVC011/// M07/M08 Q1016=
202312041620 METAR ESMX 041620Z 20004KT 9999 BKN031 M07/M08 Q1016=
202312041550 METAR ESMX 041550Z 19003KT 9999 BKN032 M07/M07 Q1016=
202312041520 METAR ESMX 041520Z AUTO 13001KT 9999 BKN033/// OVC040/// M06/M07 Q1016=
202312041450 METAR ESMX 041450Z AUTO 16002KT 9999 OVC032/// M05/M06 Q1016=
202312041420 METAR ESMX 041420Z AUTO VRB02KT 9999 SCT031/// OVC041/// M04/M07 Q1016=
202312041350 METAR ESMX 041350Z AUTO 11001KT 9999 OVC041/// M04/M07 Q1016=
202312041320 METAR ESMX 041320Z AUTO 03002KT 9999 BKN028/// OVC043/// M04/M06 Q1017=
202312041250 METAR ESMX 041250Z AUTO VRB02KT 9999 SCT028/// OVC040/// M04/M06 Q1017=
202312041220 METAR ESMX 041220Z 18002KT 9999 BKN028 M05/M07 Q1017=
202312041150 METAR ESMX 041150Z 00000KT 9999 -SN BKN034 M05/M07 Q1017=
202312041120 METAR ESMX 041120Z 19002KT 9999 -SN FEW032 BKN038 M05/M07 Q1017=
202312041050 METAR ESMX 041050Z 00000KT 9999 BKN042 M06/M07 Q1017=
202312041020 METAR ESMX 041020Z 25001KT 9999 -SN BKN041 M06/M07 Q1017=
202312040950 METAR ESMX 040950Z 00000KT 9000 -SN FEW034 BKN043 M06/M08 Q1017=
202312040920 METAR ESMX 040920Z 25002KT 9999 BKN042 M07/M08 Q1017=
202312040850 METAR ESMX 040850Z 20003KT 9999 BKN040 M08/M08 Q1017=
202312040820 METAR ESMX 040820Z 19003KT 9999 BKN039 M08/M09 Q1017=
202312040750 METAR ESMX 040750Z 16003KT 9999 BKN041 M08/M09 Q1017=
202312040720 METAR ESMX 040720Z 21002KT 9999 FEW030 BKN041 M09/M09 Q1017=
202312040650 METAR ESMX 040650Z 21002KT 9999 SCT031 M08/M09 Q1017=
202312040620 METAR ESMX 040620Z 20003KT 9000 -SN NSC M08/M09 Q1017=
202312040550 METAR ESMX 040550Z 23004KT 9999 -SN BKN049 M08/M09 Q1017=
202312040520 METAR ESMX 040520Z 00000KT 9999 BKN049 M08/M09 Q1017=
202312040450 METAR ESMX 040450Z AUTO 26001KT 3500 SG OVC049/// M08/M09 Q1017=
202312040420 METAR ESMX 040420Z AUTO 26003KT 8000 -SN OVC049/// M08/M09 Q1017=
202312040350 METAR ESMX 040350Z AUTO 26002KT 5000 -SN OVC049/// M08/M09 Q1017=
202312040320 METAR ESMX 040320Z AUTO 26001KT 5000 OVC048/// M08/M09 Q1017=
202312040250 METAR ESMX 040250Z AUTO 26003KT 1400 R01/P2000N R19/P2000N -FZRA OVC046/// M08/M09 Q1017 RESG=
202312040220 METAR ESMX 040220Z AUTO 25003KT 210V270 0900 R01/P2000N R19/P2000N SG SCT005/// OVC044/// M08/M09 Q1017=
202312040150 METAR ESMX 040150Z AUTO VRB03KT 1200 R01/P2000N R19/P2000N SG OVC004/// M08/M09 Q1018=
202312040120 METAR ESMX 040120Z AUTO 23004KT 9999 -FZDZ SCT004/// OVC049/// M08/M08 Q1018 REFZUP=
202312040050 METAR ESMX 040050Z AUTO 25004KT 9999 FEW006/// OVC047/// M08/M08 Q1017=
202312040020 METAR ESMX 040020Z AUTO 25004KT 9999 OVC005/// M08/M08 Q1018 RESG=
202312032350 METAR ESMX 032350Z AUTO VRB03KT 9999 OVC004/// M08/M08 Q1017=
202312032320 METAR ESMX 032320Z AUTO 24003KT 210V290 9999 OVC004/// M08/M08 Q1018=
202312032250 METAR ESMX 032250Z AUTO 26004KT 9999 OVC005/// M08/M08 Q1018=
202312032220 METAR ESMX 032220Z AUTO 29004KT 9999 OVC005/// M08/M08 Q1018=
202312032150 METAR ESMX 032150Z AUTO 31004KT 260V330 9999 OVC006/// M07/M08 Q1018=
202312032120 METAR ESMX 032120Z AUTO 32005KT 9999 OVC007/// M07/M08 Q1018=
202312032050 METAR ESMX 032050Z AUTO 30004KT 9999 OVC008/// M07/M08 Q1018=
202312032020 METAR ESMX 032020Z AUTO 29005KT 260V320 9999 OVC008/// M07/M08 Q1018=
202312031950 METAR ESMX 031950Z AUTO 29003KT 9999 OVC008/// M06/M07 Q1018=
202312031920 METAR ESMX 031920Z AUTO 29005KT 9999 OVC007/// M06/M07 Q1018=
202312031850 METAR ESMX 031850Z AUTO 34006KT 320V030 9999 OVC008/// M06/M07 Q1018=
202312031820 METAR ESMX 031820Z 33008KT 9999 BKN007 M06/M07 Q1018=
202312031750 METAR ESMX 031750Z 32005KT 9999 BKN008 M06/M07 Q1018=
202312031720 METAR ESMX 031720Z 30005KT 9999 BKN008 M05/M06 Q1018=
202312031650 METAR ESMX 031650Z 33007KT 9999 BKN007 M05/M06 Q1017=
202312031620 METAR ESMX 031620Z 32007KT 290V350 9999 BKN007 M05/M06 Q1018=
202312031550 METAR ESMX 031550Z 32005KT 290V360 9999 BKN007 M05/M06 Q1018=
202312031520 METAR ESMX 031520Z 33007KT 9999 BKN008 M05/M06 Q1017=
202312031450 METAR ESMX 031450Z 30007KT 9999 BKN008 M05/M06 Q1017=
202312031420 METAR ESMX 031420Z 31006KT 9999 BKN009 M05/M06 Q1017=
202312031350 METAR ESMX 031350Z 30006KT 270V330 9999 BKN008 M05/M06 Q1017=
202312031320 METAR ESMX 031320Z 31008KT 280V340 9999 BKN008 M05/M06 Q1017=
202312031250 METAR ESMX 031250Z 30005KT 270V330 9999 SCT010 M05/M07 Q1016=
202312031220 METAR ESMX 031220Z 28004KT 9999 SCT011 M05/M06 Q1016=
202312031150 METAR ESMX 031150Z 28004KT 9999 FEW010 M05/M07 Q1016=
202312031120 METAR ESMX 031120Z 30006KT 9999 FEW011 M05/M07 Q1016=
202312031050 METAR ESMX 031050Z 29005KT 9999 FEW010 M06/M07 Q1016=
202312031020 METAR ESMX 031020Z 30005KT 9999 FEW008 M07/M08 Q1016=
202312030950 METAR ESMX 030950Z 27004KT 9999 FEW008 M08/M09 Q1016=
202312030920 METAR ESMX 030920Z 29004KT 260V330 9999 FEW007 M08/M09 Q1016=
202312030850 METAR ESMX 030850Z 33005KT 9999 FEW008 M07/M08 Q1016=
202312030820 METAR ESMX 030820Z 30004KT 9999 FEW049 M09/M10 Q1015=
202312030750 METAR ESMX 030750Z 30005KT CAVOK M09/M10 Q1015=
202312030720 METAR ESMX 030720Z 34007KT CAVOK M08/M09 Q1015=
202312030650 METAR ESMX 030650Z 35007KT CAVOK M07/M08 Q1015=
202312030620 METAR ESMX 030620Z AUTO 35008KT 9999 OVC082/// M06/M08 Q1015=
202312030550 METAR ESMX 030550Z AUTO 34007KT 9999 FEW046/// OVC080/// M06/M08 Q1015=
202312030520 METAR ESMX 030520Z AUTO 35007KT 9999 OVC080/// M06/M07 Q1014=
202312030450 METAR ESMX 030450Z AUTO 35007KT 9999 OVC082/// M06/M07 Q1014=
202312030420 METAR ESMX 030420Z AUTO 36006KT 9999 OVC082/// M06/M07 Q1014=
202312030350 METAR ESMX 030350Z AUTO 35008KT 9999 OVC082/// M06/M07 Q1014=
202312030320 METAR ESMX 030320Z AUTO 36007KT 9999 BKN046/// OVC084/// M05/M07 Q1014=
202312030250 METAR ESMX 030250Z AUTO 35009KT 9999 OVC084/// M05/M07 Q1014=
202312030220 METAR ESMX 030220Z AUTO 35009KT 9999 FEW064/// OVC084/// M05/M06 Q1014=
202312030150 METAR ESMX 030150Z AUTO 35009KT 9999 FEW042/// OVC084/// M05/M06 Q1013=
202312030120 METAR ESMX 030120Z AUTO 35009KT 9999 SCT039/// OVC080/// M05/M06 Q1013=
202312030050 METAR ESMX 030050Z AUTO 35009KT 9999 SCT053/// OVC078/// M05/M06 Q1013 RESHUP REFZUP REFZRA=
202312030020 METAR ESMX 030020Z AUTO 35007KT 9999 FEW031/// OVC078/// M05/M06 Q1013=
202312022350 METAR ESMX 022350Z AUTO 02007KT 9999 -FZDZ FEW035/// OVC078/// M05/M06 Q1013=
202312022320 METAR ESMX 022320Z 36009KT 9999 -SN FEW008 BKN050 M04/M05 Q1012=
202312022250 METAR ESMX 022250Z 36009KT 9000 -SN OVC051 M04/M05 Q1012=
202312022220 METAR ESMX 022220Z AUTO 02009KT 3500 -SN ///041/// M04/M05 Q1012=
202312022150 METAR COR ESMX 022150Z 02008KT 5000 SN FEW023 BKN040 M04/M05 Q1012=
202312022120 METAR ESMX 022120Z AUTO 02009KT 9999 -FZRA OVC042/// M04/M05 Q1012 REFZUP=
202312022050 METAR ESMX 022050Z AUTO 02009KT 9999 FZUP OVC041/// M04/M05 Q1011=
202312022020 METAR ESMX 022020Z 02008KT 9999 -SN FEW007 SCT032 BKN045 M04/M05 Q1011=
202312021950 METAR ESMX 021950Z AUTO 01009KT 6000 -SN SCT038/// OVC049/// M04/M04 Q1011=
202312021920 METAR ESMX 021920Z 36008KT 4100 -SN VV040 M04/M04 Q1011=
202312021850 METAR ESMX 021850Z AUTO 01007KT 3300 -SN ///032/// M04/M04 Q1011=
202312021820 METAR ESMX 021820Z 02008KT 350V050 3600 -SN SCT002 BKN011 M04/M04 Q1011=
202312021750 METAR ESMX 021750Z 01008KT 3100 SN SCT002 BKN006 M03/M04 Q1010=
202312021720 METAR ESMX 021720Z 01008KT 2300 -SN SCT002 BKN008 M03/M04 Q1010=
202312021650 METAR ESMX 021650Z 03007KT 2600 SN BKN002 M03/M04 Q1010=
202312021620 METAR ESMX 021620Z 01006KT 4300 SN SCT002 BKN005 M03/M04 Q1010=
202312021550 METAR ESMX 021550Z AUTO 01006KT 2600 -SN SCT002/// BKN006/// OVC020/// M03/M04 Q1009=
202312021520 METAR ESMX 021520Z 36007KT 6000 -SN BKN002 OVC011 M03/M04 Q1009=
202312021450 METAR ESMX 021450Z AUTO 01006KT 1800 -SN BKN001/// BKN008/// OVC013/// M03/M04 Q1009=
202312021420 METAR ESMX 021420Z AUTO 36007KT 7000 FZUP SCT002/// OVC014/// M03/M04 Q1009=
202312021350 METAR ESMX 021350Z AUTO 01007KT 3200 -SN BKN002/// OVC005/// M03/M04 Q1009=
202312021320 METAR ESMX 021320Z AUTO 36005KT 4000 -SN BKN002/// OVC007/// M03/M04 Q1009=
202312021250 METAR ESMX 021250Z AUTO 01005KT 9999 -FZDZ OVC008/// M03/M04 Q1009=
202312021220 METAR ESMX 021220Z 36005KT 9999 -SN OVC008 M03/M04 Q1008=
202312021150 METAR ESMX 021150Z 01004KT 9999 -SN OVC008 M03/M04 Q1009=
202312021120 METAR ESMX 021120Z 01003KT 350V060 9999 -SN OVC008 M03/M04 Q1009=
202312021050 METAR ESMX 021050Z 01004KT 9999 -SN OVC009 M03/M04 Q1009=
202312021020 METAR ESMX 021020Z AUTO 01004KT 9999 -FZDZ OVC008/// M03/M04 Q1009 REFZUP RESHUP REFZRA=
202312020950 METAR ESMX 020950Z AUTO 01003KT 340V040 9999 OVC008/// M03/M04 Q1009 RESHUP=
202312020920 METAR ESMX 020920Z AUTO 03003KT 350V060 9999 -FZDZ OVC008/// M03/M04 Q1009=
202312020850 METAR ESMX 020850Z AUTO 36003KT 9999 -FZDZ OVC007/// M03/M04 Q1008=
202312020820 METAR ESMX 020820Z AUTO 36003KT 9999 -FZDZ OVC007/// M03/M04 Q1008=
202312020750 METAR ESMX 020750Z AUTO 01004KT 9999 -FZDZ OVC007/// M03/M04 Q1008=
202312020720 METAR ESMX 020720Z AUTO 01004KT 9999 -FZDZ OVC006/// M03/M04 Q1007=
202312020650 METAR ESMX 020650Z AUTO 36004KT 9999 -FZDZ BKN006/// OVC009/// M03/M04 Q1007=
202312020620 METAR ESMX 020620Z AUTO 36004KT 9999 -FZDZ OVC006/// M03/M04 Q1007=
202312020550 METAR ESMX 020550Z AUTO 01004KT 9999 -FZDZ OVC005/// M03/M04 Q1007 REFZUP RESHUP=
202312020520 METAR ESMX 020520Z AUTO 36004KT 9999 OVC006/// M03/M04 Q1007=
202312020450 METAR ESMX 020450Z AUTO 36004KT 330V050 9999 OVC006/// M03/M04 Q1007=
202312020420 METAR ESMX 020420Z AUTO 35005KT 9999 OVC006/// M03/M04 Q1007=
202312020350 METAR ESMX 020350Z AUTO 35006KT 9999 OVC007/// M03/M04 Q1007=
202312020320 METAR ESMX 020320Z AUTO 35005KT 9999 OVC006/// M03/M04 Q1007=
202312020250 METAR ESMX 020250Z AUTO VRB02KT 9999 BKN006/// OVC011/// M03/M04 Q1007=
202312020220 METAR ESMX 020220Z AUTO 36004KT 9999 BKN007/// OVC009/// M03/M04 Q1007=
202312020150 METAR ESMX 020150Z AUTO 35005KT 9999 OVC008/// M03/M04 Q1007=
202312020120 METAR ESMX 020120Z AUTO 36005KT 9999 OVC007/// M03/M04 Q1007=
202312020050 METAR ESMX 020050Z AUTO 36006KT 9999 OVC007/// M03/M04 Q1007=
202312020020 METAR ESMX 020020Z AUTO 36006KT 9999 OVC007/// M03/M04 Q1007=
202312012350 METAR ESMX 012350Z AUTO 36007KT 9999 OVC007/// M03/M04 Q1007=
202312012320 METAR ESMX 012320Z AUTO 36005KT 9999 OVC007/// M03/M04 Q1007=
202312012250 METAR ESMX 012250Z AUTO 36004KT 340V050 9999 OVC008/// M03/M04 Q1007=
202312012220 METAR ESMX 012220Z AUTO 01003KT 9999 OVC009/// M03/M04 Q1007=
202312012150 METAR ESMX 012150Z AUTO 02004KT 350V060 9999 OVC009/// M03/M04 Q1007=
202312012120 METAR ESMX 012120Z AUTO 36005KT 330V030 9999 OVC010/// M03/M04 Q1007=
202312012050 METAR ESMX 012050Z AUTO 03007KT 9999 OVC010/// M03/M04 Q1007=
202312012020 METAR ESMX 012020Z AUTO 35009KT 9999 OVC009/// M03/M04 Q1007=
202312011950 METAR ESMX 011950Z AUTO 35007KT 9999 OVC009/// M03/M04 Q1007=
202312011920 METAR ESMX 011920Z AUTO 34008KT 9999 OVC010/// M03/M04 Q1006=
202312011850 METAR ESMX 011850Z AUTO 35009KT 9999 OVC010/// M03/M04 Q1006=
202312011820 METAR ESMX 011820Z AUTO 35010KT 9999 BKN008/// OVC013/// M03/M04 Q1006=
202312011750 METAR ESMX 011750Z AUTO 35010KT 9999 BKN008/// OVC019/// M03/M04 Q1006=
202312011720 METAR ESMX 011720Z AUTO 35008KT 9999 OVC007/// M03/M04 Q1006=
202312011650 METAR ESMX 011650Z AUTO 01008KT 9999 OVC008/// M03/M04 Q1006=
202312011620 METAR ESMX 011620Z AUTO 02008KT 9999 OVC009/// M03/M04 Q1006=
202312011550 METAR ESMX 011550Z AUTO 01010KT 9999 OVC008/// M03/M04 Q1006=
202312011520 METAR ESMX 011520Z 36010KT 9999 OVC008 M03/M04 Q1006=
202312011450 METAR ESMX 011450Z 02008KT 350V050 9999 BKN007 M03/M04 Q1006=
202312011420 METAR ESMX 011420Z 02009KT 9999 OVC008 M03/M04 Q1006=
202312011350 METAR ESMX 011350Z 36010KT 9999 OVC010 M03/M04 Q1005=
202312011320 METAR ESMX 011320Z 36010KT 9999 BKN009 M03/M04 Q1005=
202312011250 METAR ESMX 011250Z 35009KT 9999 BKN009 M03/M04 Q1005=
202312011220 METAR ESMX 011220Z 36010KT 9999 BKN009 M03/M04 Q1005=
