##########################################################
# Query made at 04/19/2024 22:35:08 UTC
# Time interval: from 11/01/2023 12:00  to 11/30/2023 12:59  UTC
##########################################################

##########################################################
# ESMX, Vaxjo (Sweden)
# WMO index: 02641. WIGOS ID: 0-20000-0-02648
# Latitude 56-51N. Longitude 014-50E. Altitude 199 m.
##########################################################

202311301250 METAR ESMX 301250Z 02009KT 350V050 9999 BKN008 M02/M03 Q1004=
202311301220 METAR ESMX 301220Z 01009KT 350V050 9999 BKN008 M02/M04 Q1004=
202311301150 METAR ESMX 301150Z 01010KT 330V040 9999 BKN008 M03/M04 Q1004=
202311301120 METAR ESMX 301120Z 01008KT 9999 BKN008 M03/M04 Q1004=
202311301050 METAR ESMX 301050Z 01008KT 9999 BKN008 M03/M04 Q1004=
202311301020 METAR ESMX 301020Z 36006KT 9999 BKN007 M04/M04 Q1004=
202311300950 METAR ESMX 300950Z 36007KT 9999 BKN006 M04/M05 Q1004=
202311300920 METAR ESMX 300920Z 01007KT 9999 BKN005 M05/M05 Q1005=
202311300850 METAR ESMX 300850Z 36006KT 9999 BKN003 M05/M06 Q1004=
202311300820 METAR ESMX 300820Z 01007KT 9999 OVC002 M06/M06 Q1004=
202311300750 METAR ESMX 300750Z 01007KT 9999 OVC003 M06/M06 Q1004=
202311300720 METAR ESMX 300720Z 01009KT 9000 OVC003 M06/M06 Q1004=
202311300650 METAR ESMX 300650Z 02007KT 350V050 9999 OVC003 M06/M07 Q1004=
202311300620 METAR ESMX 300620Z 36008KT 9999 SCT005 M07/M07 Q1004=
202311300550 METAR ESMX 300550Z 36006KT CAVOK M07/M08 Q1004=
202311300520 METAR ESMX 300520Z 36006KT CAVOK M07/M08 Q1003=
202311300450 METAR ESMX 300450Z AUTO 02007KT 9999 NCD M06/M07 Q1003=
202311300420 METAR ESMX 300420Z AUTO 02008KT 9999 NCD M06/M07 Q1004=
202311300350 METAR ESMX 300350Z AUTO 02005KT 340V060 9999 NCD M06/M07 Q1004=
202311300320 METAR ESMX 300320Z AUTO 02007KT 9999 NCD M06/M06 Q1004=
202311300250 METAR ESMX 300250Z AUTO 03008KT 9999 NCD M06/M06 Q1003=
202311300220 METAR ESMX 300220Z AUTO 03009KT 9999 NCD M06/M06 Q1004=
202311300150 METAR ESMX 300150Z AUTO 04007KT 9999 FEW064/// SCT120/// M06/M06 Q1004 REFZUP RESHUP=
202311300120 METAR ESMX 300120Z AUTO 04009KT 9999 -FZDZ BKN053/// BKN072/// OVC130/// M05/M06 Q1004=
202311300050 METAR ESMX 300050Z 04008KT 9999 -SN FEW007 SCT032 BKN051 M05/M06 Q1004=
202311300020 METAR ESMX 300020Z 04010KT 9999 -SN FEW027 BKN049 M04/M06 Q1004=
202311292350 METAR ESMX 292350Z 04007KT 9999 FEW025 BKN045 M04/M06 Q1004=
202311292320 METAR ESMX 292320Z 04007KT 9999 FEW003 BKN022 M04/M05 Q1003=
202311292250 METAR COR ESMX 292250Z 05007KT 9999 -SN FEW004 BKN027 M04/M05 Q1003=
202311292220 METAR ESMX 292220Z 05009KT 020V080 9999 -SN BKN046 M04/M05 Q1003=
202311292150 METAR ESMX 292150Z AUTO 05008KT 020V100 9999 FZUP OVC049/// M04/M05 Q1003 RESHUP REUP=
202311292120 METAR ESMX 292120Z 06009KT 030V100 CAVOK M04/M05 Q1003=
202311292050 METAR ESMX 292050Z 06007KT 020V100 9999 SCT021 BKN041 M04/M05 Q1003=
202311292020 METAR ESMX 292020Z AUTO 07008KT 030V100 9999 -SN SCT029/// OVC051/// M04/M05 Q1003=
202311291950 METAR ESMX 291950Z AUTO 06008KT 020V110 7000 -SN SCT003/// BKN012/// OVC036/// M04/M05 Q1003=
202311291920 METAR ESMX 291920Z AUTO 06009KT 030V090 2600 -SN FEW004/// SCT012/// BKN021/// M04/M05 Q1002=
202311291850 METAR ESMX 291850Z 06009KT 030V100 4000 -SN VV033 M05/M06 Q1002=
202311291820 METAR ESMX 291820Z 06008KT 030V090 9000 -SN FEW013 BKN027 M04/M06 Q1002=
202311291750 METAR COR ESMX 291750Z 05007KT 010V090 4700 SN SCT013 BKN028 M05/M06 Q1002=
202311291720 METAR ESMX 291720Z 05008KT 360V080 4000 -SN FEW005 SCT019 BKN035 M05/M06 Q1002=
202311291650 METAR ESMX 291650Z 05008KT 020V090 9999 -SN FEW022 SCT044 M05/M06 Q1002=
202311291620 METAR ESMX 291620Z 04006KT 9000 SN BKN047 M06/M07 Q1002=
202311291550 METAR ESMX 291550Z 04007KT 010V080 6000 -SN SCT037 M06/M07 Q1002=
202311291520 METAR ESMX 291520Z 04007KT 5000 SN BKN049 M06/M07 Q1001=
202311291450 METAR ESMX 291450Z 05006KT 020V080 9000 -SN SCT030 M06/M07 Q1001=
202311291420 METAR ESMX 291420Z 05005KT 010V080 9999 -SN SCT033 M06/M07 Q1001=
202311291350 METAR ESMX 291350Z 07004KT 040V100 9000 -SN FEW010 BKN049 M06/M07 Q1001=
202311291320 METAR ESMX 291320Z 08004KT 020V120 9000 -SN SCT011 M06/M07 Q1001=
202311291250 METAR ESMX 291250Z 09005KT 060V130 9000 -SN SCT010 M06/M07 Q1001=
202311291220 METAR ESMX 291220Z 09003KT 010V160 9999 -SN SCT005 M06/M07 Q1001=
202311291150 METAR ESMX 291150Z 12004KT 9000 -SN SCT009 M05/M07 Q1001=
202311291120 METAR ESMX 291120Z 12004KT 6000 -SN SCT004 M06/M08 Q1000=
202311291050 METAR ESMX 291050Z 12005KT 090V160 7000 -SN SCT006 M07/M08 Q1000=
202311291020 METAR ESMX 291020Z 13005KT 080V170 5000 -SN BKN040 M07/M08 Q1000=
202311290950 METAR ESMX 290950Z 13004KT 090V160 6000 -SN BKN037 M07/M08 Q1000=
202311290920 METAR ESMX 290920Z 14003KT 100V170 6000 -SN BKN025 M07/M08 Q1000=
202311290850 METAR ESMX 290850Z 14005KT 110V170 8000 -SN BKN023 M08/M09 Q1000=
202311290820 METAR ESMX 290820Z 14004KT 6000 -SN SCT023 M08/M09 Q1000=
202311290750 METAR ESMX 290750Z 20003KT 7000 -SN SCT040 M09/M09 Q1000=
202311290720 METAR COR ESMX 290720Z 21002KT 9999 -SN BKN038 M09/M10 Q1000=
202311290650 METAR COR ESMX 290650Z 19003KT 9000 -SN FEW005 SCT012 M11/M11 Q0999=
202311290620 METAR ESMX 290620Z 19001KT 9000 -SN SCT014 M10/M11 Q0999=
202311290550 METAR ESMX 290550Z 19003KT 9999 SCT010 M10/M11 Q0999=
202311290520 METAR ESMX 290520Z 21002KT 9999 SCT045 M10/M11 Q0999=
202311290450 METAR ESMX 290450Z 23003KT CAVOK M10/M11 Q0999=
202311290420 METAR ESMX 290420Z AUTO 22003KT 9999 SG NCD M10/M11 Q0999=
202311290350 METAR ESMX 290350Z AUTO 22002KT 1200 R01/P2000N R19/P2000N SG SCT019/// BKN044/// M10/M10 Q0999=
202311290320 METAR ESMX 290320Z AUTO 21002KT 1200 R01/P2000N R19/P2000N -SN FEW002/// OVC061/// M09/M10 Q1000 RESG=
202311290250 METAR ESMX 290250Z AUTO 22002KT 0900 R01/P2000N R19/P2000N SG SCT001/// BKN066/// OVC080/// M09/M10 Q1000=
202311290220 METAR ESMX 290220Z AUTO 22002KT 0900 R01/P2000N R19/P2000N -SN BKN001/// OVC096/// M09/M10 Q1000 RESG=
202311290150 METAR ESMX 290150Z AUTO 21003KT 0550 R01/P2000N R19/1500U SG OVC098/// M09/M10 Q1000=
202311290120 METAR ESMX 290120Z AUTO 21001KT 0550 R01/P2000N R19/1800D SG OVC098/// M09/M10 Q1000=
202311290050 METAR ESMX 290050Z 22003KT 3500 R01/P2000N R19/P2000N -SN SCT045 M10/M11 Q1000=
202311290020 METAR ESMX 290020Z 24003KT 9999 -SN FEW039 M10/M11 Q1000=
202311282350 METAR ESMX 282350Z 26003KT 9999 -SN NSC M10/M11 Q1000=
202311282320 METAR ESMX 282320Z 25003KT 9999 -SN NSC M09/M10 Q1000=
202311282250 METAR ESMX 282250Z 24004KT CAVOK M09/M10 Q1000=
202311282220 METAR ESMX 282220Z 26003KT CAVOK M09/M09 Q1000=
202311282150 METAR ESMX 282150Z 26004KT 230V290 9999 -SN FEW004 BKN053 M08/M09 Q1000=
202311282120 METAR ESMX 282120Z 25004KT 6000 -SN BKN030 M08/M09 Q1000=
202311282050 METAR ESMX 282050Z 27003KT 9999 -SN NSC M08/M09 Q1000=
202311282020 METAR COR ESMX 282020Z 27004KT 9999 -SN FEW029 SCT035 M08/M09 Q1000=
202311281950 METAR ESMX 281950Z 29006KT 8000 -FZDZ VV020 M07/M09 Q1000=
202311281920 METAR ESMX 281920Z 29006KT 260V320 7000 SG VV038 M07/M09 Q1000=
202311281850 METAR ESMX 281850Z 30005KT 270V330 9999 -SN FEW015 SCT038 M07/M09 Q1000=
202311281820 METAR ESMX 281820Z 30006KT 270V330 9999 BKN015 BKN045 M07/M09 Q1000=
202311281750 METAR ESMX 281750Z 30007KT 280V340 9999 SG BKN016 M07/M08 Q1000=
202311281720 METAR ESMX 281720Z 29005KT 9999 BKN017 M07/M08 Q1000=
202311281650 METAR ESMX 281650Z 30005KT 9999 -SN BKN013 M06/M08 Q0999=
202311281620 METAR COR ESMX 281620Z 30006KT 280V340 9999 -SN BKN012 M06/M08 Q0999=
202311281550 METAR ESMX 281550Z 31008KT 9999 SCT035 M06/M08 Q0999=
202311281520 METAR ESMX 281520Z 31007KT 280V340 9999 -SN BKN040 M06/M08 Q0999=
202311281450 METAR ESMX 281450Z 30007KT 280V340 9999 -SN FEW017 BKN031 M06/M08 Q0999=
202311281420 METAR ESMX 281420Z 31007KT 9999 -SN SCT013 BKN028 M06/M08 Q1000=
202311281350 METAR ESMX 281350Z 31008KT 9999 -SN BKN013 M06/M08 Q1000=
202311281320 METAR ESMX 281320Z 31007KT 280V340 9999 -SN BKN013 M06/M08 Q1000=
202311281250 METAR ESMX 281250Z 31008KT 9999 -SN BKN012 M06/M08 Q1000=
202311281220 METAR ESMX 281220Z 32009KT 9999 -SN BKN012 M06/M08 Q1000=
202311281150 METAR ESMX 281150Z 31008KT 9999 -SN BKN013 M06/M08 Q1000=
202311281120 METAR ESMX 281120Z 31008KT 9999 -SN FEW013 SCT025 BKN049 M07/M08 Q1000=
202311281050 METAR ESMX 281050Z 32007KT 6000 -SN FEW005 BKN015 M07/M08 Q1000=
202311281020 METAR ESMX 281020Z 30006KT 9999 -SN FEW005 BKN014 M07/M09 Q1001=
202311280950 METAR ESMX 280950Z 32007KT 290V350 9999 -SN FEW009 BKN014 M08/M09 Q1001=
202311280920 METAR ESMX 280920Z 32007KT 9999 -SN BKN009 M08/M09 Q1001=
202311280850 METAR ESMX 280850Z 30007KT 9999 BKN009 M09/M10 Q1001=
202311280820 METAR ESMX 280820Z 30006KT 280V340 9999 -SN SCT010 M10/M11 Q1002=
202311280750 METAR ESMX 280750Z 31005KT 9000 -SN FEW010 SCT022 M10/M11 Q1002=
202311280720 METAR COR ESMX 280720Z 31006KT 6000 -SN SCT009 BKN020 M11/M12 Q1002=
202311280650 METAR ESMX 280650Z 32007KT 9999 FEW010 BKN038 M10/M12 Q1002=
202311280620 METAR ESMX 280620Z 30007KT 9999 -SN FEW010 SCT028 BKN036 M11/M12 Q1003=
202311280550 METAR ESMX 280550Z 30006KT 9999 FEW009 M10/M12 Q1003=
202311280520 METAR ESMX 280520Z 33010KT CAVOK M10/M12 Q1003=
202311280450 METAR ESMX 280450Z 33010KT CAVOK M10/M11 Q1004=
202311280420 METAR ESMX 280420Z AUTO 34010KT 9999 NCD M10/M11 Q1004=
202311280350 METAR ESMX 280350Z AUTO 35012KT 9999 NCD M09/M11 Q1004=
202311280320 METAR ESMX 280320Z AUTO 35010KT 9999 NCD M09/M11 Q1005=
202311280250 METAR ESMX 280250Z AUTO 35011KT 9999 NCD M09/M11 Q1005=
202311280220 METAR ESMX 280220Z AUTO 36012KT 9999 NCD M08/M10 Q1005=
202311280150 METAR ESMX 280150Z AUTO 36011KT 9999 NCD M08/M10 Q1005=
202311280120 METAR ESMX 280120Z 36012KT 9999 FEW013 M08/M10 Q1006=
202311280050 METAR ESMX 280050Z 35011KT 9999 SCT011 M08/M10 Q1006=
202311280020 METAR ESMX 280020Z 36010KT CAVOK M08/M09 Q1006=
202311272350 METAR ESMX 272350Z 36011KT 9999 FEW011 M08/M09 Q1006=
202311272320 METAR ESMX 272320Z 36010KT 9999 SCT009 M08/M09 Q1006=
202311272250 METAR ESMX 272250Z 01012KT 9999 SCT009 M08/M09 Q1006=
202311272220 METAR ESMX 272220Z 02012KT 9999 FEW009 M08/M09 Q1006=
202311272150 METAR ESMX 272150Z 01012KT 9999 FEW010 M08/M09 Q1007=
202311272120 METAR COR ESMX 272120Z 01012KT CAVOK M08/M09 Q1007=
202311272050 METAR ESMX 272050Z 01010KT CAVOK M07/M09 Q1007=
202311272020 METAR ESMX 272020Z AUTO 01011KT 9999 OVC080/// M07/M09 Q1007=
202311271950 METAR ESMX 271950Z AUTO 01012KT 9999 OVC080/// M07/M09 Q1007=
202311271920 METAR ESMX 271920Z AUTO 01012KT 9999 OVC080/// M06/M09 Q1007=
202311271850 METAR ESMX 271850Z AUTO 01010KT 9999 SCT018/// OVC078/// M06/M09 Q1008=
202311271820 METAR ESMX 271820Z 01011KT 9999 BKN018 M06/M08 Q1008=
202311271750 METAR ESMX 271750Z 02011KT 9999 BKN017 M05/M08 Q1008=
202311271720 METAR ESMX 271720Z 02012KT 350V050 9999 -SN BKN012 M05/M07 Q1008=
202311271650 METAR ESMX 271650Z 04010KT 9000 -SN BKN010 M04/M06 Q1008=
202311271620 METAR ESMX 271620Z 01010KT 8000 -SN FEW009 BKN012 M04/M05 Q1008=
202311271550 METAR ESMX 271550Z 01009KT 8000 -SN BKN009 M04/M05 Q1008=
202311271520 METAR ESMX 271520Z 03009KT 5000 -SN SCT015 BKN028 M04/M05 Q1008=
202311271450 METAR ESMX 271450Z 03012KT 9000 -SN SCT012 BKN015 M04/M05 Q1008=
202311271420 METAR ESMX 271420Z 03010KT 4000 -SN BKN012 M03/M04 Q1008=
202311271350 METAR ESMX 271350Z 03012KT 7000 -SN SCT012 BKN016 M03/M05 Q1008=
202311271320 METAR ESMX 271320Z 01009KT 9000 -SN BKN010 M02/M04 Q1008=
202311271250 METAR ESMX 271250Z 03009KT 9999 -SN OVC011 M02/M04 Q1008=
202311271220 METAR ESMX 271220Z 03008KT 9999 -SN BKN011 M02/M04 Q1009=
202311271150 METAR ESMX 271150Z 03007KT 350V060 9999 -SN BKN010 M02/M04 Q1009=
202311271120 METAR ESMX 271120Z 03007KT 340V060 9999 BKN009 M02/M04 Q1009=
202311271050 METAR ESMX 271050Z 03008KT 9999 BKN009 M03/M04 Q1009=
202311271020 METAR ESMX 271020Z 36007KT 9999 BKN009 M03/M04 Q1009=
202311270950 METAR ESMX 270950Z 01008KT 9999 BKN009 M03/M05 Q1009=
202311270920 METAR ESMX 270920Z 36008KT 9999 BKN008 M04/M05 Q1009=
202311270850 METAR ESMX 270850Z 03009KT 350V050 9999 BKN007 M04/M05 Q1010=
202311270820 METAR ESMX 270820Z 03008KT 9999 BKN006 M04/M05 Q1009=
202311270750 METAR ESMX 270750Z 36008KT 9999 BKN005 M04/M05 Q1009=
202311270720 METAR ESMX 270720Z 36009KT 9999 BKN003 M05/M05 Q1009=
202311270650 METAR ESMX 270650Z 03007KT 9999 BKN004 M05/M05 Q1009=
202311270620 METAR ESMX 270620Z 36009KT 340V040 9999 BKN004 M05/M05 Q1009=
202311270550 METAR ESMX 270550Z 35008KT 9999 BKN005 M05/M05 Q1009=
202311270520 METAR ESMX 270520Z 03008KT 350V060 9999 BKN005 M05/M05 Q1009=
202311270450 METAR ESMX 270450Z 02007KT 9999 BKN005 M05/M05 Q1009=
202311270420 METAR ESMX 270420Z AUTO 03006KT 9999 OVC005/// M05/M05 Q1009=
202311270350 METAR ESMX 270350Z AUTO 04006KT 9999 OVC005/// M05/M05 Q1009=
202311270320 METAR ESMX 270320Z AUTO 01007KT 9999 OVC005/// M05/M05 Q1009=
202311270250 METAR ESMX 270250Z AUTO 03007KT 9999 OVC004/// M04/M05 Q1009=
202311270220 METAR ESMX 270220Z AUTO 02007KT 9999 OVC004/// M04/M05 Q1009=
202311270150 METAR ESMX 270150Z AUTO 02005KT 9999 OVC004/// M05/M05 Q1009=
202311270120 METAR ESMX 270120Z AUTO 36006KT 340V040 9999 OVC005/// M05/M05 Q1009=
202311270050 METAR ESMX 270050Z AUTO 35007KT 320V020 9999 OVC005/// M05/M05 Q1009=
202311270020 METAR ESMX 270020Z AUTO 02005KT 350V060 9999 OVC006/// M05/M06 Q1009=
202311262350 METAR ESMX 262350Z AUTO 02007KT 350V050 9999 OVC007/// M05/M06 Q1009=
202311262320 METAR ESMX 262320Z AUTO 01007KT 340V040 9999 OVC007/// M05/M06 Q1009=
202311262250 METAR ESMX 262250Z AUTO 03007KT 9999 OVC007/// M04/M05 Q1009=
202311262220 METAR ESMX 262220Z AUTO 35007KT 9999 OVC007/// M04/M05 Q1009=
202311262150 METAR ESMX 262150Z AUTO 01005KT 9999 OVC008/// M04/M05 Q1009=
202311262120 METAR ESMX 262120Z AUTO 36005KT 9999 OVC008/// M04/M05 Q1009=
202311262050 METAR ESMX 262050Z AUTO 04005KT 010V080 9999 OVC008/// M04/M05 Q1009=
202311262020 METAR ESMX 262020Z AUTO 04007KT 010V070 9999 OVC009/// M04/M05 Q1009=
202311261950 METAR ESMX 261950Z AUTO 35007KT 9999 OVC010/// M04/M05 Q1009=
202311261920 METAR ESMX 261920Z AUTO 02006KT 9999 OVC012/// M04/M05 Q1009=
202311261850 METAR ESMX 261850Z AUTO 36008KT 9999 BKN015/// M04/M06 Q1009=
202311261820 METAR ESMX 261820Z AUTO 34007KT 9999 NCD M05/M06 Q1009=
202311261750 METAR ESMX 261750Z 33007KT CAVOK M05/M06 Q1008=
202311261720 METAR ESMX 261720Z 32006KT CAVOK M05/M06 Q1008=
202311261650 METAR ESMX 261650Z 29004KT 9999 FEW016 M04/M06 Q1008=
202311261620 METAR ESMX 261620Z 29004KT 9999 SCT017 M03/M05 Q1008=
202311261550 METAR ESMX 261550Z 29004KT 9999 BKN017 M02/M05 Q1008=
202311261520 METAR ESMX 261520Z 29003KT 260V320 9999 BKN016 M02/M05 Q1008=
202311261450 METAR ESMX 261450Z 30004KT 9999 BKN016 M02/M05 Q1008=
202311261420 METAR ESMX 261420Z 30004KT 260V340 9999 BKN015 M02/M05 Q1007=
202311261350 METAR ESMX 261350Z 31006KT 270V340 9999 BKN014 M02/M05 Q1007=
202311261320 METAR ESMX 261320Z 31007KT 9999 BKN014 M02/M05 Q1007=
202311261250 METAR ESMX 261250Z 31007KT 280V350 9999 BKN014 M02/M05 Q1007=
202311261220 METAR ESMX 261220Z AUTO 31007KT 290V350 9999 OVC013/// M02/M05 Q1007=
202311261150 METAR ESMX 261150Z AUTO 32008KT 290V350 9999 OVC013/// M03/M05 Q1007=
202311261120 METAR ESMX 261120Z AUTO 33010KT 300V360 9999 OVC013/// M03/M05 Q1007=
202311261050 METAR ESMX 261050Z AUTO 32009KT 290V350 9999 OVC013/// M03/M05 Q1007=
202311261020 METAR ESMX 261020Z AUTO 32008KT 9999 OVC012/// M03/M05 Q1007=
202311260950 METAR ESMX 260950Z AUTO 30005KT 9999 OVC012/// M04/M06 Q1007=
202311260920 METAR ESMX 260920Z AUTO 28005KT 9999 OVC014/// M05/M06 Q1007=
202311260850 METAR ESMX 260850Z AUTO 26006KT 9999 OVC014/// M06/M07 Q1007=
202311260820 METAR ESMX 260820Z AUTO 27005KT 9999 OVC015/// M06/M07 Q1007=
202311260750 METAR ESMX 260750Z AUTO 30004KT 9999 FEW016/// M07/M08 Q1007=
202311260720 METAR ESMX 260720Z AUTO 27006KT 9999 SCT015/// M07/M07 Q1007=
202311260650 METAR ESMX 260650Z AUTO 27004KT 9999 FEW010/// M06/M07 Q1007=
202311260620 METAR ESMX 260620Z AUTO 30008KT 280V340 9999 OVC010/// M05/M06 Q1007=
202311260550 METAR ESMX 260550Z AUTO 31009KT 9999 OVC009/// M05/M06 Q1007=
202311260520 METAR ESMX 260520Z AUTO 31008KT 9999 OVC009/// M05/M06 Q1007=
202311260450 METAR ESMX 260450Z AUTO 33008KT 9999 OVC008/// M05/M06 Q1006=
202311260420 METAR ESMX 260420Z AUTO 32008KT 9999 OVC008/// M05/M06 Q1006=
202311260350 METAR ESMX 260350Z AUTO 32008KT 9999 OVC007/// M05/M06 Q1006=
202311260320 METAR ESMX 260320Z AUTO 30007KT 9999 OVC008/// M05/M06 Q1006=
202311260250 METAR ESMX 260250Z AUTO 31008KT 9999 OVC008/// M05/M06 Q1006=
202311260220 METAR ESMX 260220Z AUTO 31008KT 9999 OVC008/// M06/M07 Q1006=
202311260150 METAR ESMX 260150Z AUTO 30007KT 9999 SCT009/// M07/M08 Q1006=
202311260120 METAR ESMX 260120Z AUTO 30007KT 9999 NCD M08/M09 Q1006=
202311260050 METAR ESMX 260050Z AUTO 30006KT 9999 NCD M08/M09 Q1006=
202311260020 METAR ESMX 260020Z AUTO 30006KT 9999 NCD M08/M09 Q1006=
202311252350 METAR ESMX 252350Z AUTO 29005KT 9999 NCD M08/M09 Q1006=
202311252320 METAR ESMX 252320Z AUTO 30005KT 9999 NCD M08/M09 Q1006=
202311252250 METAR ESMX 252250Z AUTO 28006KT 9999 NCD M08/M09 Q1006=
202311252220 METAR ESMX 252220Z AUTO 28005KT 9999 NCD M08/M09 Q1006=
202311252150 METAR ESMX 252150Z AUTO 27004KT 9999 NCD M08/M09 Q1007=
202311252120 METAR ESMX 252120Z AUTO 30005KT 9999 NCD M08/M09 Q1007=
202311252050 METAR ESMX 252050Z AUTO 30005KT 9999 NCD M08/M09 Q1006=
202311252020 METAR ESMX 252020Z AUTO 31005KT 9999 NCD M07/M09 Q1006=
202311251950 METAR ESMX 251950Z AUTO 30006KT 9999 NCD M07/M09 Q1006=
202311251920 METAR ESMX 251920Z AUTO 30006KT 9999 NCD M07/M09 Q1006=
202311251850 METAR ESMX 251850Z AUTO 31008KT 9999 NCD M06/M09 Q1006=
202311251820 METAR ESMX 251820Z AUTO 30006KT 9999 NCD M06/M09 Q1006=
202311251750 METAR ESMX 251750Z AUTO 34011KT 9999 NCD M05/M09 Q1006=
202311251720 METAR ESMX 251720Z AUTO 33011KT 9999 NCD M05/M10 Q1005=
202311251650 METAR ESMX 251650Z AUTO 34013KT 9999 SCT025/// M04/M10 Q1005=
202311251620 METAR ESMX 251620Z AUTO 33010KT 9999 SCT027/// M04/M09 Q1005=
202311251550 METAR ESMX 251550Z AUTO 33013KT 9999 BKN028/// M04/M08 Q1004=
202311251520 METAR ESMX 251520Z AUTO 33010KT 300V360 9999 BKN030/// M03/M08 Q1004=
202311251450 METAR ESMX 251450Z AUTO 33010KT 280V360 9999 SCT032/// M03/M08 Q1004=
202311251420 METAR ESMX 251420Z AUTO 35010KT 9999 FEW030/// M03/M08 Q1004=
202311251350 METAR ESMX 251350Z AUTO 34010KT 9999 NCD M03/M08 Q1004=
202311251320 METAR ESMX 251320Z AUTO 35012KT 9999 FEW040/// M02/M09 Q1003=
202311251250 METAR ESMX 251250Z AUTO 01010KT 9999 SCT033/// M02/M08 Q1003=
202311251220 METAR ESMX 251220Z AUTO 35011KT 9999 SCT035/// M02/M09 Q1003=
202311251150 METAR ESMX 251150Z AUTO 36011KT 320V020 9999 FEW037/// M02/M09 Q1003=
202311251120 METAR ESMX 251120Z AUTO 35012KT 9999 FEW032/// M02/M09 Q1003=
202311251050 METAR ESMX 251050Z AUTO 01012KT 9999 BKN033/// M02/M09 Q1003=
202311251020 METAR ESMX 251020Z AUTO 02014KT 350V050 9999 FEW034/// M02/M09 Q1003=
202311250950 METAR ESMX 250950Z AUTO 01011KT 9999 NCD M02/M09 Q1002=
202311250920 METAR ESMX 250920Z AUTO 01013KT 9999 FEW029/// M02/M08 Q1002=
202311250850 METAR ESMX 250850Z AUTO 35016KT 9999 OVC028/// M02/M07 Q1002=
202311250820 METAR ESMX 250820Z AUTO 35012KT 9999 OVC026/// M02/M07 Q1001=
202311250750 METAR ESMX 250750Z AUTO 01013KT 340V050 9999 SCT029/// M02/M07 Q1001=
202311250720 METAR ESMX 250720Z AUTO 36015KT 9999 BKN024/// M02/M07 Q1000=
202311250650 METAR ESMX 250650Z AUTO 35013KT 9999 BKN028/// M02/M05 Q1000=
202311250620 METAR ESMX 250620Z AUTO 35013KT 9999 OVC031/// M01/M05 Q0999=
202311250550 METAR ESMX 250550Z AUTO 35010KT 9999 BKN025/// M01/M04 Q0999=
202311250520 METAR ESMX 250520Z 35009KT 9999 FEW020 M01/M04 Q0998=
202311250450 METAR ESMX 250450Z AUTO 01010KT 9999 OVC098/// M01/M04 Q0998=
202311250420 METAR ESMX 250420Z AUTO 36012KT 9999 FEW021/// SCT029/// OVC100/// M01/M04 Q0998=
202311250350 METAR ESMX 250350Z AUTO 36010KT 9999 FEW003/// SCT017/// OVC035/// M01/M02 Q0997=
202311250320 METAR ESMX 250320Z AUTO 34006KT 9999 -FZDZ FEW002/// SCT006/// BKN009/// M01/M01 Q0997 REFZUP=
202311250250 METAR ESMX 250250Z AUTO 33005KT 9999 FEW008/// SCT012/// OVC018/// M01/M02 Q0997=
202311250220 METAR ESMX 250220Z AUTO 31005KT 9999 OVC029/// M01/M03 Q0996=
202311250150 METAR ESMX 250150Z AUTO 31006KT 280V340 9999 OVC030/// M01/M03 Q0996=
202311250120 METAR ESMX 250120Z AUTO 30006KT 9999 OVC030/// M00/M03 Q0996=
202311250050 METAR ESMX 250050Z AUTO 30008KT 9999 OVC027/// M00/M03 Q0996=
202311250020 METAR ESMX 250020Z AUTO 31008KT 9999 OVC026/// M01/M03 Q0996=
202311242350 METAR ESMX 242350Z AUTO 29005KT 9999 OVC024/// M02/M04 Q0996=
202311242320 METAR ESMX 242320Z AUTO 30004KT 9999 OVC024/// M02/M04 Q0995=
202311242250 METAR ESMX 242250Z AUTO 30006KT 9999 SCT024/// M02/M04 Q0995=
202311242220 METAR ESMX 242220Z AUTO 31006KT 9999 BKN028/// M01/M04 Q0995=
202311242150 METAR ESMX 242150Z 31006KT 9999 FEW033 M02/M04 Q0994=
202311242120 METAR ESMX 242120Z 31006KT 9999 BKN034 BKN041 M02/M04 Q0994=
202311242050 METAR ESMX 242050Z 31007KT 9999 BKN032 M01/M04 Q0994=
202311242020 METAR ESMX 242020Z AUTO 33009KT 9999 FEW036/// M01/M04 Q0994=
202311241950 METAR ESMX 241950Z 33013KT 300V010 9999 BKN039 M00/M04 Q0993=
202311241920 METAR ESMX 241920Z AUTO 34013KT 9999 BKN041/// OVC053/// M00/M04 Q0993 REFZUP=
202311241850 METAR ESMX 241850Z AUTO 34017G29KT 9999 SCT025/// OVC036/// M00/M04 Q0993=
202311241820 METAR ESMX 241820Z AUTO 34016KT 310V010 9999 OVC027/// 00/M04 Q0993=
202311241750 METAR ESMX 241750Z AUTO 34015KT 300V360 9999 OVC027/// 00/M03 Q0992=
202311241720 METAR ESMX 241720Z AUTO 33014KT 9999 OVC024/// M00/M03 Q0992=
202311241650 METAR ESMX 241650Z AUTO 32009KT 9999 BKN023/// M01/M04 Q0991=
202311241620 METAR ESMX 241620Z AUTO 32008KT 9999 NCD M01/M04 Q0991=
202311241550 METAR ESMX 241550Z AUTO 32007KT 9999 NCD M01/M04 Q0990=
202311241520 METAR ESMX 241520Z 31007KT CAVOK M00/M04 Q0990=
202311241450 METAR ESMX 241450Z 32007KT CAVOK M00/M04 Q0989=
202311241420 METAR ESMX 241420Z 32006KT CAVOK M00/M04 Q0989=
202311241350 METAR ESMX 241350Z 31009KT CAVOK 01/M04 Q0989=
202311241320 METAR ESMX 241320Z 31006KT CAVOK 01/M03 Q0988=
202311241250 METAR ESMX 241250Z 31006KT CAVOK 01/M03 Q0988=
202311241220 METAR ESMX 241220Z 31006KT 280V340 CAVOK 01/M03 Q0988=
202311241150 METAR ESMX 241150Z 30006KT CAVOK 01/M02 Q0988=
202311241120 METAR ESMX 241120Z 30004KT 270V340 CAVOK 00/M02 Q0988=
202311241050 METAR ESMX 241050Z AUTO 28004KT 240V300 9999 FEW140/// 00/M03 Q0988=
202311241020 METAR ESMX 241020Z 27004KT 240V300 CAVOK 00/M03 Q0987=
202311240950 METAR ESMX 240950Z 26006KT CAVOK 00/M03 Q0987=
202311240920 METAR ESMX 240920Z 24004KT CAVOK M00/M04 Q0987=
202311240850 METAR ESMX 240850Z 25005KT CAVOK M00/M04 Q0987=
202311240820 METAR ESMX 240820Z 25005KT 210V270 CAVOK M01/M04 Q0987=
202311240750 METAR ESMX 240750Z 27005KT CAVOK M01/M04 Q0988=
202311240720 METAR ESMX 240720Z 28005KT CAVOK M01/M04 Q0988=
202311240650 METAR ESMX 240650Z 28006KT CAVOK M01/M04 Q0988=
202311240620 METAR ESMX 240620Z 27006KT 240V300 CAVOK M01/M03 Q0988=
202311240550 METAR ESMX 240550Z 27005KT CAVOK M01/M03 Q0988=
202311240520 METAR ESMX 240520Z AUTO 28005KT 240V320 9999 NCD M01/M02 Q0988=
202311240450 METAR ESMX 240450Z AUTO 30008KT 270V330 9999 NCD M00/M01 Q0988=
202311240420 METAR ESMX 240420Z AUTO 30010KT 270V330 9999 SCT015/// BKN020/// M00/M01 Q0988 RESHUP RESN=
202311240350 METAR ESMX 240350Z AUTO 30012KT 9999 BKN015/// OVC041/// M00/M01 Q0988 RESHUP=
202311240320 METAR ESMX 240320Z AUTO 30012KT 260V320 2100 -SN FEW001/// BKN018/// BKN030/// 00/M00 Q0988=
202311240250 METAR ESMX 240250Z AUTO 30012KT 2400 -SN FEW013/// SCT036/// BKN051/// 01/M01 Q0988 REUP=
202311240220 METAR ESMX 240220Z AUTO 29011KT 9999 BKN074/// 01/M02 Q0987=
202311240150 METAR ESMX 240150Z AUTO 29009KT 9999 FEW130/// 01/M02 Q0987=
202311240120 METAR ESMX 240120Z AUTO 28009KT 9999 BKN130/// 01/M02 Q0987=
202311240050 METAR ESMX 240050Z AUTO 28009KT 9999 NCD 01/M02 Q0987=
202311240020 METAR ESMX 240020Z 29008KT 260V320 CAVOK 02/M01 Q0987=
202311232350 METAR ESMX 232350Z 29008KT CAVOK 02/M01 Q0987=
202311232320 METAR ESMX 232320Z 29010KT 260V320 9999 FEW037 02/M01 Q0987=
202311232250 METAR ESMX 232250Z 30008KT 260V340 9999 FEW037 03/M00 Q0987=
202311232220 METAR ESMX 232220Z 29010KT 260V320 9999 FEW037 03/M00 Q0986=
202311232150 METAR ESMX 232150Z 29011KT 9999 SCT037 03/M00 Q0986=
202311232120 METAR ESMX 232120Z 28011KT 250V310 9999 BKN037 04/M00 Q0986=
202311232050 METAR ESMX 232050Z 29013KT 9999 BKN041 04/00 Q0986=
202311232020 METAR ESMX 232020Z 28012KT 260V320 9999 BKN043 04/01 Q0985=
202311231950 METAR ESMX 231950Z 28012G23KT 9999 FEW046 04/01 Q0985=
202311231920 METAR ESMX 231920Z 28012KT 9999 FEW019 04/02 Q0985=
202311231850 METAR ESMX 231850Z AUTO 28011KT 250V310 9999 SCT020/// BKN039/// 04/02 Q0985 RESHUP=
202311231820 METAR ESMX 231820Z 27012KT 9999 BKN027 OVC037 05/01 Q0984=
202311231750 METAR ESMX 231750Z 27013KT 240V300 9999 SCT024 BKN049 05/02 Q0984 REDZ=
202311231720 METAR ESMX 231720Z 27013KT 9999 SCT027 BKN049 06/02 Q0985=
202311231650 METAR ESMX 231650Z 27014KT 240V300 9999 BKN027 BKN038 06/02 Q0985=
202311231620 METAR ESMX 231620Z 26014G25KT 9999 FEW026 SCT042 06/02 Q0985=
202311231550 METAR ESMX 231550Z 26014KT 9999 SCT028 SCT140 06/03 Q0985=
202311231520 METAR ESMX 231520Z 26013G28KT 9999 FEW028 SCT042 BKN120 07/03 Q0985=
202311231450 METAR ESMX 231450Z 26016G30KT 9999 FEW028 SCT042 BKN100 07/03 Q0986=
202311231420 METAR ESMX 231420Z 26017KT 230V290 9999 SCT029 BKN100 07/03 Q0985=
202311231350 METAR ESMX 231350Z 27016G26KT 9999 BKN025 07/04 Q0986=
202311231320 METAR ESMX 231320Z 27016G27KT 240V300 9999 BKN023 07/04 Q0987=
202311231250 METAR ESMX 231250Z 26015KT 220V280 9999 -RA FEW003 BKN022 08/05 Q0987=
202311231220 METAR ESMX 231220Z 26017KT 230V300 9999 BKN021 08/05 Q0988=
202311231150 METAR ESMX 231150Z 26015G27KT 9999 -RA BKN021 08/06 Q0988=
202311231120 METAR ESMX 231120Z 26014G27KT 230V290 9999 BKN018 08/06 Q0988=
202311231050 METAR ESMX 231050Z 26016KT 9999 BKN017 08/06 Q0989=
202311231020 METAR ESMX 231020Z 27014KT 9999 BKN017 08/06 Q0990=
202311230950 METAR ESMX 230950Z 26016KT 9999 BKN015 08/06 Q0990=
202311230920 METAR COR ESMX 230920Z 26016G26KT 9999 BKN015 08/06 Q0991=
202311230850 METAR ESMX 230850Z 26014KT 230V290 9999 BKN015 08/06 Q0991=
202311230820 METAR ESMX 230820Z 26013KT 9999 -RA BKN012 08/07 Q0992=
202311230750 METAR ESMX 230750Z 27015KT 230V290 9999 -DZ BKN015 08/07 Q0992=
202311230720 METAR ESMX 230720Z 27015G28KT 9000 -RA BKN012 08/07 Q0992=
202311230650 METAR COR ESMX 230650Z 27014KT 240V300 9999 -RA BKN012 08/08 Q0992=
202311230620 METAR ESMX 230620Z 26014G28KT 230V290 9999 -RA BKN009 08/08 Q0992=
202311230550 METAR ESMX 230550Z 28015G27KT 250V310 9999 -RA FEW006 SCT015 BKN031 08/08 Q0993=
202311230520 METAR ESMX 230520Z 27018G35KT 240V310 9000 RA FEW006 BKN040 09/07 Q0993=
202311230450 METAR ESMX 230450Z AUTO 27012KT 230V300 1500 RASN FEW004/// BKN009/// BKN025/// 09/09 Q0993 RESHUP=
202311230420 METAR ESMX 230420Z AUTO 26015G25KT 220V290 8000 UP BKN007/// OVC016/// 09/09 Q0994=
202311230350 METAR ESMX 230350Z AUTO 26014KT 3900 -DZ SCT007/// BKN013/// OVC017/// 09/09 Q0994=
202311230320 METAR ESMX 230320Z AUTO 25013G25KT 220V280 3900 -DZ FEW006/// BKN008/// BKN011/// 09/09 Q0995 RERA=
202311230250 METAR ESMX 230250Z AUTO 25013KT 210V280 7000 -RA BKN006/// BKN012/// OVC019/// 09/09 Q0995=
202311230220 METAR ESMX 230220Z AUTO 23011KT 5000 -DZ FEW003/// SCT006/// OVC010/// 07/07 Q0996=
202311230150 METAR ESMX 230150Z AUTO 23009KT 3400 DZ VV005 06/06 Q0997 RERA=
202311230120 METAR ESMX 230120Z AUTO 23012KT 3800 BR OVC003/// 05/05 Q0997=
202311230050 METAR ESMX 230050Z 22015KT 4000 -RA BR BKN003 04/04 Q0998 REDZ=
202311230020 METAR ESMX 230020Z AUTO 21016G26KT 8000 OVC004/// 04/04 Q0999=
202311222350 METAR ESMX 222350Z AUTO 22018KT 5000 -RA OVC004/// 04/04 Q0999 REDZ=
202311222320 METAR ESMX 222320Z AUTO 22018KT 8000 -DZ OVC005/// 03/03 Q1000 REDZ=
202311222250 METAR ESMX 222250Z 22019KT 9999 -DZ BKN006 03/03 Q1001=
202311222220 METAR ESMX 222220Z 22019G33KT 9000 -DZ BKN005 03/03 Q1002=
202311222150 METAR ESMX 222150Z 21020G31KT 8000 -RA BKN005 02/02 Q1003=
202311222120 METAR ESMX 222120Z 22020G31KT 190V250 7000 BKN005 02/02 Q1004 REDZ=
202311222050 METAR ESMX 222050Z 21021G31KT 9999 BKN007 02/01 Q1005 REDZ=
202311222020 METAR ESMX 222020Z 20020G30KT 9999 BKN008 01/01 Q1006=
202311221950 METAR ESMX 221950Z 21021KT 9999 -DZ BKN009 01/00 Q1007=
202311221920 METAR ESMX 221920Z 20022KT 9999 -RA BKN009 01/00 Q1008=
202311221850 METAR ESMX 221850Z 20022G32KT 9999 -RA BKN009 01/00 Q1009=
202311221820 METAR ESMX 221820Z 20022KT 9000 -RASN BKN010 01/00 Q1010 REDZ=
202311221750 METAR ESMX 221750Z 20020G31KT 9999 -DZ BKN012 01/00 Q1011 REDZ=
202311221720 METAR ESMX 221720Z 21020G32KT 9999 BKN016 02/00 Q1012=
202311221650 METAR ESMX 221650Z 20017KT 9999 BKN018 02/M00 Q1013=
202311221620 METAR ESMX 221620Z 21017KT 9999 -DZ BKN019 BKN022 02/M00 Q1014=
202311221550 METAR ESMX 221550Z 20016G26KT 9999 -RASN BKN016 OVC043 01/00 Q1015=
202311221520 METAR ESMX 221520Z 20016KT 9999 -RASN BKN010 BKN014 BKN021 01/01 Q1016=
202311221450 METAR ESMX 221450Z 20014KT 5000 -SN BKN011 BKN021 01/01 Q1017=
202311221420 METAR ESMX 221420Z 21016KT 9999 -RA FEW013 BKN049 02/00 Q1018 REDZ=
202311221350 METAR ESMX 221350Z 21015KT 9999 SCT015 02/M00 Q1018=
202311221320 METAR ESMX 221320Z 20013KT 9999 FEW017 01/M01 Q1019=
202311221250 METAR ESMX 221250Z 19013KT CAVOK 01/M01 Q1019=
202311221220 METAR ESMX 221220Z 19011KT CAVOK 01/M01 Q1020=
202311221150 METAR ESMX 221150Z 19012KT CAVOK 00/M01 Q1021=
202311221120 METAR ESMX 221120Z 19012KT CAVOK 00/M01 Q1022=
202311221050 METAR ESMX 221050Z 19010KT CAVOK M00/M01 Q1023=
202311221020 METAR ESMX 221020Z 19010KT 9999 SCT008 M00/M01 Q1023=
202311220950 METAR ESMX 220950Z 19010KT 9999 SCT008 M00/M01 Q1024=
202311220920 METAR COR ESMX 220920Z 19010KT 9999 BKN007 M01/M01 Q1025=
202311220850 METAR ESMX 220850Z 19009KT 9999 SCT007 M01/M01 Q1025=
202311220820 METAR ESMX 220820Z 18008KT 9999 BKN006 M01/M01 Q1026=
202311220750 METAR ESMX 220750Z 17003KT 9999 FEW010 M01/M02 Q1026=
202311220720 METAR ESMX 220720Z 15003KT 110V170 9999 FEW010 M01/M02 Q1026=
202311220650 METAR ESMX 220650Z 21005KT 9999 FEW006 BKN009 M01/M02 Q1027=
202311220620 METAR ESMX 220620Z 24005KT 200V290 9999 BKN006 M01/M02 Q1026=
202311220550 METAR ESMX 220550Z 23005KT 9999 BKN006 M01/M02 Q1027=
202311220520 METAR ESMX 220520Z 25006KT 9999 BKN006 M01/M01 Q1026=
202311220450 METAR ESMX 220450Z 25003KT 220V280 9999 BKN007 M01/M02 Q1027=
202311220420 METAR COR ESMX 220420Z 24004KT 9999 BKN007 M00/M01 Q1027=
202311220350 METAR ESMX 220350Z AUTO 27004KT 9999 OVC009/// M00/M01 Q1027=
202311220320 METAR ESMX 220320Z AUTO 23002KT 9999 OVC010/// M00/M01 Q1027=
202311220250 METAR ESMX 220250Z AUTO VRB02KT 9999 OVC010/// M00/M01 Q1027=
202311220220 METAR ESMX 220220Z AUTO VRB02KT 9999 OVC010/// M00/M01 Q1027=
202311220150 METAR ESMX 220150Z AUTO 00000KT 9999 OVC010/// 00/M01 Q1027=
202311220120 METAR ESMX 220120Z AUTO 00000KT 9999 OVC010/// 00/M01 Q1027=
202311220050 METAR ESMX 220050Z AUTO VRB02KT 9999 BKN009/// OVC011/// 00/M01 Q1027=
202311220020 METAR ESMX 220020Z 04005KT 9999 OVC009 00/M01 Q1027=
202311212350 METAR ESMX 212350Z 01006KT 350V050 9999 BKN011 00/M01 Q1027=
202311212320 METAR ESMX 212320Z 36004KT 340V040 9999 BKN010 00/M01 Q1027=
202311212250 METAR ESMX 212250Z 36006KT 340V040 9999 BKN011 00/M01 Q1028=
202311212220 METAR ESMX 212220Z 02005KT 350V060 9999 -DZ BKN011 OVC014 00/M01 Q1027 RESN=
202311212150 METAR ESMX 212150Z 01006KT 9999 FEW007 SCT010 BKN014 00/M00 Q1027 RESN=
202311212120 METAR ESMX 212120Z 02006KT 9999 SCT009 BKN017 00/M00 Q1027=
202311212050 METAR ESMX 212050Z 02006KT 9999 SCT006 BKN020 M00/M00 Q1027=
202311212020 METAR ESMX 212020Z AUTO 02005KT 9999 -DZ FEW006/// BKN022/// 00/M00 Q1027 RESHUP RESN=
202311211950 METAR ESMX 211950Z AUTO 01006KT 9999 SCT009/// BKN017/// 00/M00 Q1027 RESHUP=
202311211920 METAR ESMX 211920Z 02007KT 3900 -SN FEW011 BKN017 BKN025 00/00 Q1027 RESN=
202311211850 METAR ESMX 211850Z AUTO 36008KT 9999 SCT018/// BKN024/// 00/M00 Q1026=
202311211820 METAR ESMX 211820Z 36006KT 9999 FEW005 BKN016 01/00 Q1026=
202311211750 METAR ESMX 211750Z 01006KT 9999 -DZ BKN004 BKN006 01/00 Q1026 RESN=
202311211720 METAR ESMX 211720Z 02006KT 9999 SCT006 BKN013 01/00 Q1025=
202311211650 METAR ESMX 211650Z 01006KT 9999 -SN FEW007 SCT010 BKN022 01/00 Q1025=
202311211620 METAR ESMX 211620Z 01006KT 9999 BKN019 01/00 Q1025=
202311211550 METAR ESMX 211550Z 02006KT 9999 SCT012 BKN019 01/00 Q1024=
202311211520 METAR ESMX 211520Z 02006KT 9999 BKN015 01/M00 Q1024=
202311211450 METAR ESMX 211450Z 03008KT 9999 FEW010 BKN015 01/M00 Q1023=
202311211420 METAR ESMX 211420Z 02007KT 9999 SCT010 BKN017 02/00 Q1023=
202311211350 METAR ESMX 211350Z 02006KT 9999 BKN015 02/00 Q1023=
202311211320 METAR ESMX 211320Z 01008KT 9999 BKN011 02/01 Q1023=
202311211250 METAR ESMX 211250Z 02009KT 9999 BKN011 02/01 Q1023=
202311211220 METAR ESMX 211220Z 35007KT 9999 BKN010 02/01 Q1022=
202311211150 METAR ESMX 211150Z 36008KT 9999 BKN009 02/01 Q1022=
202311211120 METAR ESMX 211120Z 01006KT 9999 BKN009 02/01 Q1022=
202311211050 METAR ESMX 211050Z 01006KT 9999 BKN008 02/01 Q1022=
202311211020 METAR ESMX 211020Z 36007KT 9999 SCT008 02/01 Q1021=
202311210950 METAR ESMX 210950Z 01005KT 9999 FEW007 BKN078 02/01 Q1021=
202311210920 METAR ESMX 210920Z AUTO VRB03KT 9999 FEW055/// OVC078/// 02/01 Q1021=
202311210850 METAR ESMX 210850Z 04005KT 9999 FEW006 BKN076 02/01 Q1020=
202311210820 METAR ESMX 210820Z 03005KT 9999 SCT006 BKN076 02/01 Q1020=
202311210750 METAR ESMX 210750Z 02004KT 350V060 9999 SCT006 BKN076 01/01 Q1020=
202311210720 METAR COR ESMX 210720Z 05004KT 010V080 9999 FEW010 BKN074 01/01 Q1020=
202311210650 METAR ESMX 210650Z 06004KT 030V100 9999 BKN005 01/01 Q1019=
202311210620 METAR ESMX 210620Z 04007KT 010V080 9999 BKN006 01/01 Q1019=
202311210550 METAR ESMX 210550Z 04006KT 9999 OVC005 01/01 Q1018=
202311210520 METAR ESMX 210520Z 03005KT 9999 BKN006 01/01 Q1018=
202311210450 METAR ESMX 210450Z 02004KT 350V050 9999 BKN006 01/01 Q1018=
202311210420 METAR ESMX 210420Z AUTO 03007KT 9999 OVC006/// 02/01 Q1017=
202311210350 METAR ESMX 210350Z AUTO 03007KT 9999 BKN007/// BKN009/// OVC062/// 02/02 Q1017=
202311210320 METAR ESMX 210320Z AUTO 02005KT 9999 BKN007/// OVC029/// 02/02 Q1016=
202311210250 METAR ESMX 210250Z AUTO 04006KT 9999 -RA BKN007/// OVC023/// 02/02 Q1016=
202311210220 METAR ESMX 210220Z AUTO 03006KT 9999 OVC007/// 02/02 Q1016 REDZ REUP=
202311210150 METAR ESMX 210150Z AUTO 04006KT 9999 OVC007/// 02/01 Q1015=
202311210120 METAR ESMX 210120Z AUTO 03006KT 9999 OVC007/// 02/01 Q1015=
202311210050 METAR ESMX 210050Z 04006KT 010V070 9999 BKN007 02/01 Q1015=
202311210020 METAR ESMX 210020Z 03007KT 9999 BKN007 02/01 Q1014=
202311202350 METAR ESMX 202350Z 04007KT 360V070 9999 BKN007 BKN055 02/02 Q1014=
202311202320 METAR ESMX 202320Z 01007KT 9999 BKN007 02/02 Q1014=
202311202250 METAR ESMX 202250Z 01007KT 9999 BKN007 BKN055 02/02 Q1014=
202311202220 METAR ESMX 202220Z 02007KT 9999 BKN006 BKN051 02/02 Q1014=
202311202150 METAR ESMX 202150Z 03006KT 9999 BKN006 OVC008 02/02 Q1013=
202311202120 METAR ESMX 202120Z 02006KT 9999 BKN007 BKN051 02/02 Q1013=
202311202050 METAR ESMX 202050Z 02006KT 9999 SCT007 BKN028 BKN051 02/02 Q1013=
202311202020 METAR ESMX 202020Z AUTO 03005KT 360V060 9999 SCT007/// BKN009/// OVC053/// 02/02 Q1013=
202311201950 METAR ESMX 201950Z AUTO 03006KT 9999 OVC006/// 02/02 Q1012=
202311201920 METAR ESMX 201920Z AUTO 04005KT 010V080 9999 BKN007/// OVC051/// 02/02 Q1012=
202311201850 METAR ESMX 201850Z AUTO 06005KT 020V090 9999 BKN006/// OVC011/// 02/02 Q1012=
202311201820 METAR ESMX 201820Z 06006KT 020V090 8000 -DZ BKN006 02/02 Q1012 REDZ=
202311201750 METAR ESMX 201750Z 05005KT 020V080 6000 DZ BKN006 02/02 Q1011 REDZ=
202311201720 METAR ESMX 201720Z 06006KT 030V110 9999 OVC007 03/02 Q1011=
202311201650 METAR ESMX 201650Z 06006KT 010V100 9999 BKN008 03/02 Q1011=
202311201620 METAR ESMX 201620Z 05006KT 020V090 9999 OVC008 03/02 Q1010=
202311201550 METAR ESMX 201550Z 04006KT 9999 OVC009 03/02 Q1010=
202311201520 METAR ESMX 201520Z 03007KT 9999 BKN008 03/02 Q1010=
202311201450 METAR ESMX 201450Z 03006KT 9999 BKN009 03/02 Q1010=
202311201420 METAR ESMX 201420Z 04007KT 9999 BKN009 03/02 Q1009=
202311201350 METAR ESMX 201350Z 03007KT 9999 BKN009 03/02 Q1009=
202311201320 METAR ESMX 201320Z 04008KT 9999 BKN009 03/02 Q1009=
202311201250 METAR ESMX 201250Z 06006KT 020V100 9999 BKN011 04/02 Q1009=
202311201220 METAR ESMX 201220Z 04007KT 9999 BKN010 04/02 Q1009=
202311201150 METAR ESMX 201150Z 05006KT 020V090 9999 BKN009 03/02 Q1009=
202311201120 METAR ESMX 201120Z 06006KT 020V100 9999 BKN008 03/02 Q1009=
202311201050 METAR ESMX 201050Z 06007KT 030V100 9999 BKN008 03/02 Q1009=
202311201020 METAR COR ESMX 201020Z 06006KT 020V090 9999 BKN009 BKN024 03/02 Q1009=
202311200950 METAR ESMX 200950Z 05007KT 9999 BKN008 03/02 Q1009=
202311200920 METAR ESMX 200920Z 05006KT 360V080 9999 BKN007 03/02 Q1009=
202311200850 METAR ESMX 200850Z 05006KT 010V080 9999 BKN007 BKN016 03/02 Q1009=
202311200820 METAR ESMX 200820Z 05007KT 020V080 9999 BKN006 02/02 Q1009=
202311200750 METAR ESMX 200750Z 06005KT 020V080 9999 BKN007 02/02 Q1009=
202311200720 METAR ESMX 200720Z 04005KT 360V100 9999 BKN007 02/02 Q1008=
202311200650 METAR ESMX 200650Z 06005KT 030V110 9999 BKN007 02/02 Q1008=
202311200620 METAR ESMX 200620Z 05005KT 020V100 9999 BKN007 02/01 Q1008=
202311200550 METAR ESMX 200550Z 06005KT 020V110 9999 BKN007 BKN040 02/01 Q1007=
202311200520 METAR ESMX 200520Z 06006KT 010V100 9999 BKN008 BKN039 02/01 Q1007=
202311200450 METAR ESMX 200450Z 06007KT 030V090 9999 FEW007 BKN038 02/01 Q1007=
202311200420 METAR ESMX 200420Z AUTO 05006KT 010V080 9999 SCT007/// OVC038/// 02/01 Q1007=
202311200350 METAR ESMX 200350Z AUTO 06006KT 9999 SCT008/// OVC038/// 02/01 Q1007=
202311200320 METAR ESMX 200320Z AUTO 06003KT 030V100 9999 FEW008/// OVC038/// 02/01 Q1007=
202311200250 METAR ESMX 200250Z AUTO 06004KT 020V100 9999 FEW008/// OVC038/// 02/01 Q1007=
202311200220 METAR ESMX 200220Z AUTO 04004KT 330V120 9999 OVC039/// 02/01 Q1007=
202311200150 METAR ESMX 200150Z AUTO 06004KT 030V110 9999 OVC038/// 02/01 Q1007=
202311200120 METAR ESMX 200120Z AUTO 07003KT 020V110 9999 OVC039/// 02/01 Q1007=
202311200050 METAR ESMX 200050Z AUTO 06005KT 020V100 9999 OVC039/// 02/01 Q1007=
202311200020 METAR ESMX 200020Z AUTO VRB05KT 9999 SCT012/// OVC039/// 02/01 Q1007=
202311192350 METAR ESMX 192350Z AUTO 07005KT 010V110 9999 SCT013/// OVC037/// 02/01 Q1007=
202311192320 METAR ESMX 192320Z AUTO 07005KT 040V120 9999 FEW013/// OVC032/// 02/00 Q1007=
202311192250 METAR ESMX 192250Z AUTO 06005KT 030V100 9999 FEW020/// OVC028/// 02/00 Q1007=
202311192220 METAR ESMX 192220Z AUTO 07005KT 030V100 9999 OVC030/// 02/00 Q1006=
202311192150 METAR ESMX 192150Z AUTO 07005KT 020V110 9999 FEW019/// OVC035/// 02/00 Q1006=
202311192120 METAR ESMX 192120Z AUTO 07006KT 020V150 9999 SCT020/// OVC031/// 02/00 Q1006=
202311192050 METAR ESMX 192050Z AUTO 07006KT 020V110 9999 SCT022/// OVC028/// 02/M00 Q1006=
202311192020 METAR ESMX 192020Z AUTO 08006KT 040V120 9999 -DZ FEW008/// OVC024/// 02/M00 Q1007 REUP=
202311191950 METAR ESMX 191950Z AUTO 08007KT 050V120 9999 OVC028/// 03/M01 Q1006=
202311191920 METAR ESMX 191920Z AUTO 09006KT 040V150 9999 OVC029/// 02/M01 Q1006=
202311191850 METAR ESMX 191850Z AUTO 10005KT 020V150 9999 OVC029/// 02/M01 Q1006=
202311191820 METAR ESMX 191820Z AUTO 08005KT 040V120 9999 FEW033/// OVC080/// 02/M01 Q1006=
202311191750 METAR ESMX 191750Z 09005KT 040V200 9999 FEW035 02/M00 Q1006=
202311191720 METAR ESMX 191720Z 09005KT 020V120 9999 BKN033 02/M00 Q1006=
202311191650 METAR ESMX 191650Z 08005KT 340V130 9999 FEW019 BKN034 02/M00 Q1006=
202311191620 METAR ESMX 191620Z 11006KT 030V150 9999 BKN029 BKN037 02/M01 Q1006=
202311191550 METAR ESMX 191550Z AUTO 10006KT 030V150 9999 FEW019/// OVC029/// 02/M00 Q1006=
202311191520 METAR ESMX 191520Z AUTO 10005KT 020V160 9999 BKN023/// OVC029/// 02/M00 Q1006=
202311191450 METAR ESMX 191450Z AUTO 10006KT 040V140 9999 SCT026/// BKN090/// 02/M01 Q1006=
202311191420 METAR ESMX 191420Z AUTO 11007KT 040V150 9999 SCT025/// BKN094/// 02/M01 Q1006=
202311191350 METAR ESMX 191350Z AUTO 11006KT 070V150 9999 FEW021/// SCT094/// 02/M01 Q1006=
202311191320 METAR ESMX 191320Z AUTO 11007KT 030V160 9999 SCT022/// 02/M00 Q1006=
202311191250 METAR ESMX 191250Z AUTO 13007KT 080V180 9999 BKN021/// 03/M00 Q1007=
202311191220 METAR ESMX 191220Z AUTO 13007KT 060V160 9999 FEW019/// 03/M00 Q1007=
202311191150 METAR ESMX 191150Z AUTO 12008KT 070V160 9999 FEW017/// BKN072/// 03/00 Q1007=
202311191120 METAR ESMX 191120Z AUTO 11007KT 040V150 9999 OVC072/// 03/01 Q1008=
202311191050 METAR ESMX 191050Z AUTO 11007KT 070V160 9999 OVC110/// 03/01 Q1008=
202311191020 METAR ESMX 191020Z AUTO 13007KT 080V160 9999 BKN110/// OVC190/// 03/01 Q1008=
202311190950 METAR ESMX 190950Z AUTO 12007KT 070V160 9999 OVC047/// 03/01 Q1008=
202311190920 METAR ESMX 190920Z AUTO 12006KT 060V170 9999 OVC040/// 02/01 Q1009=
202311190850 METAR ESMX 190850Z AUTO 13006KT 090V160 9999 FEW009/// OVC038/// 02/02 Q1009=
202311190820 METAR ESMX 190820Z AUTO 12006KT 050V180 9999 BKN008/// OVC013/// 02/02 Q1009 RESHUP REUP=
202311190750 METAR ESMX 190750Z AUTO 12005KT 070V160 9999 -RA SCT006/// BKN014/// OVC044/// 02/02 Q1009 REUP=
202311190720 METAR ESMX 190720Z AUTO 12004KT 060V140 9999 BKN005/// OVC007/// 01/01 Q1010=
202311190650 METAR ESMX 190650Z AUTO 10004KT 050V170 9999 OVC005/// 01/01 Q1010=
202311190620 METAR ESMX 190620Z AUTO 10004KT 050V160 9999 OVC004/// 01/01 Q1010=
202311190550 METAR ESMX 190550Z AUTO 09003KT 350V130 9999 OVC003/// 01/01 Q1010 REUP RESHUP=
202311190520 METAR ESMX 190520Z AUTO 10003KT 040V120 9999 UP OVC003/// 01/01 Q1011 RESHUP=
202311190450 METAR ESMX 190450Z AUTO 08004KT 030V140 8000 -DZ OVC003/// 00/00 Q1011 REUP RESHUP=
202311190420 METAR ESMX 190420Z AUTO 10004KT 060V130 9999 FZUP OVC005/// M00/M00 Q1012=
202311190350 METAR ESMX 190350Z AUTO 09004KT 050V160 9999 BKN006/// OVC009/// M00/M00 Q1012=
202311190320 METAR ESMX 190320Z AUTO 09004KT 050V130 9999 BKN006/// BKN014/// OVC018/// M01/M01 Q1013 RESHUP=
202311190250 METAR ESMX 190250Z AUTO VRB03KT 9999 SCT009/// OVC013/// M01/M01 Q1013 REFZUP=
202311190220 METAR ESMX 190220Z AUTO 09003KT 030V120 9999 BKN014/// OVC023/// M01/M01 Q1014=
202311190150 METAR ESMX 190150Z AUTO 08003KT 010V120 9999 FEW016/// OVC023/// M01/M01 Q1015=
202311190120 METAR ESMX 190120Z AUTO VRB03KT 9999 BKN027/// M02/M02 Q1015=
202311190050 METAR ESMX 190050Z AUTO 09003KT 060V140 9999 FEW027/// M02/M02 Q1016=
202311190020 METAR ESMX 190020Z AUTO 08003KT 040V120 9999 NCD M03/M03 Q1016=
202311182350 METAR ESMX 182350Z AUTO 11003KT 070V140 9999 NCD M03/M03 Q1017=
202311182320 METAR ESMX 182320Z AUTO VRB02KT 9999 NCD M04/M04 Q1018=
202311182250 METAR ESMX 182250Z AUTO 00000KT 9999 NCD M06/M06 Q1018=
202311182220 METAR ESMX 182220Z AUTO VRB02KT 9999 NCD M04/M04 Q1018=
202311182150 METAR ESMX 182150Z AUTO 13002KT 9999 NCD M06/M06 Q1019=
202311182120 METAR ESMX 182120Z AUTO 13003KT 9999 NCD M05/M05 Q1020=
202311182050 METAR ESMX 182050Z AUTO 12003KT 9999 NCD M04/M04 Q1020=
202311182020 METAR ESMX 182020Z AUTO VRB01KT 9999 NCD M04/M04 Q1020=
202311181950 METAR ESMX 181950Z AUTO 15002KT 9999 NCD M05/M05 Q1021=
202311181920 METAR ESMX 181920Z AUTO 11002KT 9999 NCD M04/M04 Q1021=
202311181850 METAR ESMX 181850Z AUTO 20001KT 9999 NCD M04/M04 Q1021=
202311181820 METAR ESMX 181820Z AUTO 00000KT 9999 NCD M05/M05 Q1021=
202311181750 METAR ESMX 181750Z AUTO 00000KT 9999 NCD M04/M04 Q1021=
202311181720 METAR ESMX 181720Z AUTO 08003KT 9999 NCD M03/M03 Q1021=
202311181650 METAR ESMX 181650Z AUTO 00000KT 9999 NCD M04/M04 Q1022=
202311181620 METAR ESMX 181620Z AUTO 07002KT 9999 NCD M02/M02 Q1022=
202311181550 METAR ESMX 181550Z AUTO 08001KT 9999 NCD M02/M02 Q1022=
202311181520 METAR ESMX 181520Z AUTO 06002KT 9999 NCD M01/M01 Q1022=
202311181450 METAR ESMX 181450Z AUTO 03004KT 9999 NCD M00/M01 Q1022=
202311181420 METAR ESMX 181420Z AUTO 01004KT 9999 NCD 00/M01 Q1023=
202311181350 METAR ESMX 181350Z AUTO 35005KT 9999 NCD 01/M01 Q1023=
202311181320 METAR ESMX 181320Z AUTO VRB02KT 9999 NCD 03/M05 Q1023=
202311181250 METAR ESMX 181250Z AUTO 00000KT 9999 NCD 04/M05 Q1023=
202311181220 METAR ESMX 181220Z AUTO 00000KT 9999 NCD 03/M04 Q1023=
202311181150 METAR ESMX 181150Z AUTO VRB02KT 9999 NCD 03/M05 Q1024=
202311181120 METAR ESMX 181120Z AUTO 33003KT 290V030 9999 NCD 03/M04 Q1024=
202311181050 METAR ESMX 181050Z AUTO 32003KT 280V020 9999 NCD 03/M04 Q1023=
202311181020 METAR ESMX 181020Z AUTO VRB03KT 9999 NCD 02/M03 Q1023=
202311180950 METAR ESMX 180950Z AUTO 01004KT 9999 NCD 02/M02 Q1024=
202311180920 METAR ESMX 180920Z AUTO 30003KT 9999 NCD 02/M04 Q1024=
202311180850 METAR ESMX 180850Z AUTO 00000KT 9999 NCD 01/M01 Q1024=
202311180820 METAR ESMX 180820Z AUTO 00000KT 9999 NCD 00/00 Q1024=
202311180750 METAR ESMX 180750Z AUTO 00000KT 9999 NCD M02/M02 Q1023=
202311180720 METAR ESMX 180720Z AUTO 00000KT 9999 NCD M02/M02 Q1023=
202311180650 METAR ESMX 180650Z AUTO 00000KT 9999 SCT038/// M02/M02 Q1023=
202311180620 METAR ESMX 180620Z AUTO 00000KT 9999 OVC038/// M01/M01 Q1023=
202311180550 METAR ESMX 180550Z AUTO 00000KT 9999 OVC039/// M01/M01 Q1023=
202311180520 METAR ESMX 180520Z AUTO 27002KT 9999 OVC039/// M01/M01 Q1023=
202311180450 METAR ESMX 180450Z AUTO 00000KT 9999 OVC039/// M00/M01 Q1023=
202311180420 METAR ESMX 180420Z AUTO 04004KT 9999 OVC040/// 00/M01 Q1023=
202311180350 METAR ESMX 180350Z AUTO 01005KT 350V050 9999 OVC040/// 00/M01 Q1023=
202311180320 METAR ESMX 180320Z AUTO 34004KT 9999 OVC041/// 00/M01 Q1023=
202311180250 METAR ESMX 180250Z AUTO 33005KT 9999 OVC040/// 00/M01 Q1023=
202311180220 METAR ESMX 180220Z AUTO 35005KT 320V020 9999 OVC040/// 01/M01 Q1023=
202311180150 METAR ESMX 180150Z AUTO 35005KT 9999 OVC038/// 01/M01 Q1023=
202311180120 METAR ESMX 180120Z AUTO 01006KT 9999 OVC037/// 01/M00 Q1023=
202311180050 METAR ESMX 180050Z AUTO 35006KT 9999 OVC038/// 01/M00 Q1023=
202311180020 METAR ESMX 180020Z AUTO 01007KT 9999 OVC037/// 01/M00 Q1022=
202311172350 METAR ESMX 172350Z AUTO 36006KT 9999 FEW009/// OVC038/// 01/00 Q1022=
202311172320 METAR ESMX 172320Z AUTO 01006KT 350V050 9999 FEW013/// OVC036/// 01/00 Q1022=
202311172250 METAR ESMX 172250Z AUTO 02005KT 9999 OVC036/// 01/00 Q1022=
202311172220 METAR ESMX 172220Z AUTO 01005KT 9999 BKN009/// OVC036/// 01/00 Q1022=
202311172150 METAR ESMX 172150Z AUTO 01007KT 9999 SCT009/// OVC012/// 01/00 Q1022=
202311172120 METAR ESMX 172120Z AUTO 01006KT 9999 SCT010/// OVC036/// 01/00 Q1022=
202311172050 METAR ESMX 172050Z AUTO 01005KT 9999 BKN009/// OVC037/// 01/00 Q1022=
202311172020 METAR ESMX 172020Z AUTO 01006KT 9999 FEW009/// SCT011/// OVC037/// 01/00 Q1021=
202311171950 METAR ESMX 171950Z AUTO 01006KT 9999 FEW009/// SCT012/// OVC035/// 01/00 Q1021=
202311171920 METAR ESMX 171920Z AUTO 03006KT 9999 OVC037/// 01/M00 Q1021=
202311171850 METAR ESMX 171850Z AUTO 02007KT 350V050 9999 FEW014/// OVC035/// 01/M00 Q1021=
202311171820 METAR ESMX 171820Z AUTO 03006KT 9999 OVC038/// 01/M00 Q1021=
202311171750 METAR ESMX 171750Z AUTO 02005KT 9999 OVC039/// 01/M00 Q1020=
202311171720 METAR ESMX 171720Z AUTO 03006KT 360V060 9999 FEW012/// OVC039/// 01/M00 Q1020=
202311171650 METAR ESMX 171650Z AUTO 03008KT 9999 SCT012/// OVC036/// 01/M00 Q1020=
202311171620 METAR ESMX 171620Z AUTO 03009KT 010V070 9999 FEW011/// OVC037/// 02/M00 Q1020=
202311171550 METAR ESMX 171550Z AUTO 03010KT 360V060 9999 OVC035/// 02/M01 Q1019=
202311171520 METAR ESMX 171520Z 02008KT 9999 FEW016 BKN037 02/M01 Q1019=
202311171450 METAR ESMX 171450Z 03008KT 360V060 9999 SCT016 BKN039 02/M01 Q1019=
202311171420 METAR ESMX 171420Z 04009KT 010V070 9999 BKN015 BKN037 02/M00 Q1019=
202311171350 METAR ESMX 171350Z 03010KT 010V080 9999 BKN016 BKN038 02/M00 Q1018=
202311171320 METAR ESMX 171320Z 03008KT 010V070 9999 FEW015 SCT024 BKN031 03/00 Q1018=
202311171250 METAR ESMX 171250Z 04010KT 9999 BKN015 BKN044 03/00 Q1018=
202311171220 METAR ESMX 171220Z 04008KT 010V080 9999 BKN015 BKN030 03/00 Q1018=
202311171150 METAR ESMX 171150Z 05010KT 030V100 9999 BKN014 BKN033 03/01 Q1017=
202311171120 METAR ESMX 171120Z 05010KT 020V080 9999 BKN013 BKN047 03/01 Q1017=
202311171050 METAR ESMX 171050Z 04012KT 9999 BKN012 BKN045 03/01 Q1017=
202311171020 METAR ESMX 171020Z 03009KT 360V070 9999 FEW015 BKN045 03/01 Q1017=
202311170950 METAR ESMX 170950Z 05010KT 010V080 9999 BKN045 03/01 Q1017=
202311170920 METAR ESMX 170920Z 04008KT 020V090 9999 FEW015 03/01 Q1016=
202311170850 METAR ESMX 170850Z AUTO 04009KT 9999 BKN045/// OVC140/// 03/02 Q1016 RERA=
202311170820 METAR ESMX 170820Z AUTO 03005KT 360V070 9999 FEW009/// BKN013/// OVC019/// 02/02 Q1016=
202311170750 METAR ESMX 170750Z 05007KT 9999 -RA SCT007 BKN017 BKN022 02/02 Q1016 REDZ=
202311170720 METAR ESMX 170720Z 05008KT 020V100 9999 SCT007 BKN017 02/02 Q1015=
202311170650 METAR ESMX 170650Z AUTO 05008KT 020V080 9999 SCT009/// BKN019/// OVC048/// 02/02 Q1015 REUP=
202311170620 METAR ESMX 170620Z 04006KT 010V080 9999 SCT007 BKN010 03/02 Q1015 REDZ=
202311170550 METAR ESMX 170550Z 04006KT 010V080 9999 FEW007 BKN011 OVC015 03/02 Q1015 REDZ=
202311170520 METAR ESMX 170520Z 03007KT 9999 BKN006 BKN009 02/02 Q1014=
202311170450 METAR ESMX 170450Z AUTO 03007KT 9999 BKN007/// OVC009/// 02/02 Q1014=
202311170420 METAR ESMX 170420Z AUTO 01007KT 9999 BKN007/// OVC011/// 02/02 Q1014 REUP=
202311170350 METAR ESMX 170350Z AUTO 03009KT 010V070 9999 BKN006/// BKN008/// OVC012/// 02/02 Q1014=
202311170320 METAR ESMX 170320Z AUTO 03010KT 9999 BKN006/// BKN008/// OVC015/// 02/02 Q1013=
202311170250 METAR ESMX 170250Z AUTO 03010KT 9999 OVC006/// 02/02 Q1013=
202311170220 METAR ESMX 170220Z AUTO 03008KT 360V060 9999 BKN006/// OVC011/// 02/02 Q1013=
202311170150 METAR ESMX 170150Z AUTO 03009KT 9999 OVC005/// 02/02 Q1013=
202311170120 METAR ESMX 170120Z AUTO 04008KT 9999 -DZ OVC005/// 02/02 Q1013 REUP RESHUP=
202311170050 METAR ESMX 170050Z 04009KT 010V070 9999 OVC006 02/02 Q1013=
202311170020 METAR ESMX 170020Z 02009KT 9999 BKN006 02/02 Q1013=
202311162350 METAR ESMX 162350Z 03010KT 9999 BKN006 02/02 Q1012=
202311162320 METAR ESMX 162320Z 04010KT 9999 OVC007 02/02 Q1012=
202311162250 METAR ESMX 162250Z 03010KT 9999 OVC006 02/02 Q1012=
202311162220 METAR COR ESMX 162220Z 04010KT 9999 OVC007 02/02 Q1012=
202311162150 METAR ESMX 162150Z 04011KT 9999 OVC006 02/02 Q1012=
202311162120 METAR ESMX 162120Z 04011KT 9999 -DZ OVC006 02/02 Q1012=
202311162050 METAR ESMX 162050Z 04011KT 9999 OVC006 02/02 Q1012=
202311162020 METAR ESMX 162020Z 04013KT 9999 -RA OVC007 02/02 Q1012=
202311161950 METAR ESMX 161950Z 04013KT 9999 -DZ OVC007 02/02 Q1012=
202311161920 METAR ESMX 161920Z 04011KT 9999 OVC007 02/02 Q1012=
202311161850 METAR ESMX 161850Z 04011KT 9999 -DZ OVC006 02/02 Q1012=
202311161820 METAR ESMX 161820Z 04012KT 9999 -DZ OVC006 02/02 Q1012=
202311161750 METAR ESMX 161750Z 04012KT 9999 BKN006 02/02 Q1012=
202311161720 METAR ESMX 161720Z 03010KT 9999 BKN005 02/02 Q1011=
202311161650 METAR ESMX 161650Z 04012KT 9999 -RA BKN005 02/02 Q1011=
202311161620 METAR ESMX 161620Z AUTO 04012KT 9999 DZ OVC005/// 02/02 Q1011=
202311161550 METAR ESMX 161550Z 04012KT 9999 -RASN BKN006 02/02 Q1011 REDZ=
202311161520 METAR ESMX 161520Z 04012KT 9999 BKN006 02/02 Q1011=
202311161450 METAR ESMX 161450Z 04011KT 9999 BKN005 02/02 Q1011=
202311161420 METAR ESMX 161420Z 04013KT 9999 -DZ OVC005 02/02 Q1011=
202311161350 METAR ESMX 161350Z 04009KT 9999 BKN005 02/02 Q1011=
202311161320 METAR ESMX 161320Z 04011KT 010V070 9999 BKN004 02/02 Q1011=
202311161250 METAR ESMX 161250Z 03010KT 9999 BKN005 02/02 Q1011=
202311161220 METAR ESMX 161220Z 04009KT 9999 -RA BKN005 02/02 Q1012=
202311161150 METAR ESMX 161150Z 05009KT 020V080 9000 -SNRA BKN006 02/02 Q1012=
202311161120 METAR ESMX 161120Z 06009KT 030V100 9000 -RA BKN006 02/02 Q1012=
202311161050 METAR ESMX 161050Z 05010KT 9999 -RA BKN007 02/02 Q1012=
202311161020 METAR ESMX 161020Z 05010KT 020V080 9999 -RA BKN006 BKN015 02/02 Q1012=
202311160950 METAR ESMX 160950Z 06010KT 020V100 9999 -RASN BKN007 02/02 Q1012=
202311160920 METAR ESMX 160920Z 04010KT 010V080 9000 -RA BKN007 02/02 Q1012=
202311160850 METAR ESMX 160850Z 06009KT 030V090 9999 -RA BKN006 02/02 Q1012=
202311160820 METAR ESMX 160820Z 06010KT 020V090 9999 -RASN BKN006 02/02 Q1012=
202311160750 METAR ESMX 160750Z 04009KT 340V090 9999 -RA BKN006 02/01 Q1012=
202311160720 METAR ESMX 160720Z 06009KT 030V100 9999 BKN006 02/01 Q1012=
202311160650 METAR ESMX 160650Z 06010KT 030V090 9999 BKN006 02/01 Q1012=
202311160620 METAR ESMX 160620Z 05008KT 030V090 9999 BKN007 01/01 Q1013=
202311160550 METAR ESMX 160550Z 06008KT 020V090 9999 BKN007 01/01 Q1013=
202311160520 METAR ESMX 160520Z 06007KT 030V090 9999 SCT007 BKN021 01/01 Q1013=
202311160450 METAR ESMX 160450Z 05006KT 020V080 9999 FEW008 BKN021 01/01 Q1013=
202311160420 METAR ESMX 160420Z AUTO 05006KT 020V090 9999 SCT007/// OVC019/// 01/00 Q1013 RERA=
202311160350 METAR ESMX 160350Z AUTO 06006KT 030V110 9999 -RA OVC012/// 01/00 Q1013 REUP=
202311160320 METAR ESMX 160320Z AUTO 07005KT 030V100 9999 BKN013/// OVC019/// 01/00 Q1014=
202311160250 METAR ESMX 160250Z AUTO 08004KT 030V110 9999 OVC020/// 01/00 Q1014=
202311160220 METAR ESMX 160220Z AUTO VRB03KT 9999 FEW010/// OVC021/// 01/00 Q1014=
202311160150 METAR ESMX 160150Z AUTO 12004KT 070V160 9999 FEW007/// OVC022/// 00/00 Q1014=
202311160120 METAR ESMX 160120Z AUTO VRB03KT 9999 FEW006/// BKN023/// OVC100/// 00/00 Q1014=
202311160050 METAR ESMX 160050Z 08003KT 350V160 9999 OVC005 00/00 Q1014=
202311160020 METAR ESMX 160020Z 05004KT 360V090 9999 OVC004 00/00 Q1014=
202311152350 METAR ESMX 152350Z VRB02KT 7000 BR OVC003 M00/M00 Q1014=
202311152320 METAR ESMX 152320Z 12003KT 5000 BR OVC003 M00/M00 Q1014=
202311152250 METAR ESMX 152250Z 10003KT 9999 OVC003 M00/M00 Q1014=
202311152220 METAR ESMX 152220Z VRB03KT 9999 OVC004 M00/M00 Q1014=
202311152150 METAR ESMX 152150Z VRB02KT 9999 OVC004 M00/M00 Q1014=
202311152120 METAR ESMX 152120Z 05003KT 360V110 9999 OVC004 M00/M00 Q1014=
202311152050 METAR ESMX 152050Z 07004KT 040V110 9999 OVC004 M00/M00 Q1013=
202311152020 METAR ESMX 152020Z 07005KT 030V090 9999 OVC004 M00/M01 Q1013=
202311151950 METAR ESMX 151950Z AUTO 05005KT 020V080 9999 OVC004/// M00/M01 Q1014=
202311151920 METAR ESMX 151920Z 06005KT 9999 OVC004 M00/M00 Q1013=
202311151850 METAR ESMX 151850Z 06003KT 020V110 9999 OVC004 M00/M00 Q1013=
202311151820 METAR ESMX 151820Z 05004KT 010V110 9999 OVC004 M00/M00 Q1013=
202311151750 METAR ESMX 151750Z 03004KT 010V070 9999 OVC004 00/M00 Q1013=
202311151720 METAR ESMX 151720Z 03006KT 9999 BKN004 M00/M00 Q1013=
202311151650 METAR ESMX 151650Z 04005KT 010V070 9999 BKN005 00/M00 Q1013=
202311151620 METAR ESMX 151620Z 04004KT 360V070 9999 BKN006 01/00 Q1013=
202311151550 METAR ESMX 151550Z 01004KT 330V030 9999 BKN007 01/00 Q1012=
202311151520 METAR ESMX 151520Z 35005KT 330V060 9999 BKN008 01/00 Q1012=
202311151450 METAR ESMX 151450Z 35005KT 330V040 9999 BKN009 02/00 Q1012=
202311151420 METAR ESMX 151420Z 04006KT 9999 BKN008 02/00 Q1011=
202311151350 METAR ESMX 151350Z 04005KT 010V070 9999 BKN007 02/00 Q1011=
202311151320 METAR ESMX 151320Z 05006KT 9999 BKN007 02/00 Q1011=
202311151250 METAR ESMX 151250Z 02006KT 340V050 9999 BKN008 02/00 Q1011=
202311151220 METAR ESMX 151220Z 03005KT 360V070 9999 BKN008 02/01 Q1010=
202311151150 METAR ESMX 151150Z 36006KT 9999 BKN008 02/01 Q1010=
202311151120 METAR ESMX 151120Z 36006KT 9999 BKN009 03/01 Q1010=
202311151050 METAR ESMX 151050Z 36007KT 9999 BKN009 02/01 Q1010=
202311151020 METAR ESMX 151020Z 36007KT 9999 BKN008 02/01 Q1010=
202311150950 METAR ESMX 150950Z 35007KT 9999 BKN008 02/01 Q1009=
202311150920 METAR ESMX 150920Z 01007KT 9999 BKN008 01/00 Q1009=
202311150850 METAR ESMX 150850Z 01008KT 9999 FEW008 BKN025 02/01 Q1009=
202311150820 METAR ESMX 150820Z 02008KT 9999 FEW008 SCT010 BKN023 01/00 Q1008=
202311150750 METAR ESMX 150750Z 36007KT 9999 BKN008 BKN020 01/01 Q1008=
202311150720 METAR ESMX 150720Z 01007KT 9999 BKN008 BKN019 01/00 Q1007=
202311150650 METAR ESMX 150650Z 35009KT 9999 BKN008 BKN019 01/00 Q1007=
202311150620 METAR ESMX 150620Z 01008KT 9999 BKN009 01/01 Q1007=
202311150550 METAR ESMX 150550Z 01008KT 9999 BKN009 01/01 Q1006=
202311150520 METAR ESMX 150520Z 03009KT 360V060 9999 BKN009 02/01 Q1006=
202311150450 METAR ESMX 150450Z 03010KT 9999 BKN008 02/01 Q1005=
202311150420 METAR ESMX 150420Z 02008KT 9999 BKN007 02/01 Q1005=
202311150350 METAR ESMX 150350Z AUTO 01010KT 9999 OVC007/// 01/01 Q1005=
202311150320 METAR ESMX 150320Z AUTO 36010KT 9999 OVC007/// 02/01 Q1005=
202311150250 METAR ESMX 150250Z AUTO 02010KT 9999 OVC007/// 02/01 Q1004=
202311150220 METAR ESMX 150220Z AUTO 36009KT 9999 OVC007/// 02/01 Q1004=
202311150150 METAR ESMX 150150Z AUTO 02011KT 350V060 9999 OVC007/// 02/01 Q1004=
202311150120 METAR ESMX 150120Z AUTO 01010KT 9999 OVC007/// 02/01 Q1003=
202311150050 METAR ESMX 150050Z 01011KT 9999 OVC007 02/01 Q1003=
202311150020 METAR ESMX 150020Z 01013KT 9999 OVC008 02/01 Q1002=
202311142350 METAR ESMX 142350Z 01010KT 9999 OVC008 02/01 Q1002=
202311142320 METAR ESMX 142320Z 01010KT 9999 BKN009 02/01 Q1002=
202311142250 METAR ESMX 142250Z AUTO 03011KT 360V060 9999 OVC011/// 03/01 Q1002=
202311142220 METAR ESMX 142220Z 01011KT 9999 OVC010 03/01 Q1001=
202311142150 METAR ESMX 142150Z 03012KT 9999 OVC009 03/02 Q1001=
202311142120 METAR ESMX 142120Z 03011KT 9999 OVC009 03/02 Q1000=
202311142050 METAR ESMX 142050Z 03011KT 010V070 9999 OVC009 03/02 Q1000=
202311142020 METAR ESMX 142020Z 02010KT 9999 OVC009 03/02 Q1000=
202311141950 METAR ESMX 141950Z AUTO 03012KT 010V070 9999 OVC009/// 03/02 Q1000=
202311141920 METAR ESMX 141920Z 03011KT 9999 OVC010 04/02 Q0999=
202311141850 METAR ESMX 141850Z AUTO 03010KT 9999 OVC010/// 04/02 Q0999=
202311141820 METAR ESMX 141820Z 04010KT 9999 OVC015 04/02 Q0999=
202311141750 METAR ESMX 141750Z 04011KT 9999 BKN014 04/02 Q0999=
202311141720 METAR ESMX 141720Z 04011KT 9999 -DZ OVC014 04/02 Q0998=
202311141650 METAR ESMX 141650Z 03010KT 010V080 9999 OVC013 04/02 Q0998=
202311141620 METAR ESMX 141620Z 03009KT 9999 OVC013 04/02 Q0998=
202311141550 METAR ESMX 141550Z AUTO 03010KT 360V060 9999 OVC013/// 04/02 Q0998=
202311141520 METAR ESMX 141520Z AUTO 04011KT 010V080 9999 OVC014/// 04/02 Q0997=
202311141450 METAR ESMX 141450Z AUTO 04012KT 010V080 9999 OVC014/// 04/02 Q0997=
202311141420 METAR ESMX 141420Z AUTO 04011KT 010V070 9999 BKN015/// OVC024/// 04/02 Q0996=
202311141350 METAR ESMX 141350Z AUTO 04013KT 9999 BKN015/// OVC024/// 04/02 Q0996=
202311141320 METAR ESMX 141320Z 04011KT 020V080 9999 BKN012 03/02 Q0996=
202311141250 METAR ESMX 141250Z 04012KT 010V070 9999 BKN013 03/02 Q0996=
202311141220 METAR ESMX 141220Z 04011KT 350V070 9999 BKN012 03/02 Q0996=
202311141150 METAR ESMX 141150Z 04012G22KT 020V080 9999 BKN010 03/02 Q0996=
202311141120 METAR ESMX 141120Z 05010KT 020V090 9999 BKN009 03/02 Q0996=
202311141050 METAR ESMX 141050Z AUTO 05012KT 020V090 9999 OVC009/// 03/02 Q0996=
202311141020 METAR ESMX 141020Z 06011KT 020V100 9999 BKN009 03/02 Q0996=
202311140950 METAR ESMX 140950Z 06011KT 030V100 9999 BKN009 03/02 Q0996=
202311140920 METAR ESMX 140920Z 06010KT 020V120 9999 BKN009 03/02 Q0996=
202311140850 METAR ESMX 140850Z 06011KT 030V100 9999 BKN008 02/02 Q0996=
202311140820 METAR ESMX 140820Z 06010KT 030V090 9999 BKN008 02/02 Q0996=
202311140750 METAR ESMX 140750Z 06010KT 010V090 9999 BKN008 02/02 Q0996=
202311140720 METAR ESMX 140720Z 06010KT 020V090 9999 BKN008 02/01 Q0996=
202311140650 METAR ESMX 140650Z 06011KT 030V100 9999 BKN008 02/01 Q0996=
202311140620 METAR ESMX 140620Z 05011KT 030V090 9999 BKN009 02/01 Q0995=
202311140550 METAR ESMX 140550Z 05009KT 030V090 9999 BKN008 02/01 Q0996=
202311140520 METAR ESMX 140520Z 06008KT 040V100 9999 BKN007 02/01 Q0996=
202311140450 METAR ESMX 140450Z 06010KT 020V090 9999 BKN007 02/01 Q0996=
202311140420 METAR ESMX 140420Z AUTO 06010KT 030V090 9999 // OVC007/// 02/01 Q0996=
202311140350 METAR ESMX 140350Z AUTO 06009KT 020V100 9999 // OVC007/// 02/01 Q0996=
202311140320 METAR ESMX 140320Z AUTO VRB07KT 9999 // OVC007/// 01/01 Q0996=
202311140250 METAR ESMX 140250Z AUTO 06007KT 030V090 9999 // OVC007/// 01/01 Q0996=
202311140220 METAR ESMX 140220Z AUTO 06007KT 020V110 9999 // FEW002/// BKN006/// OVC009/// 01/01 Q0997=
202311140150 METAR ESMX 140150Z AUTO 06008KT 020V090 2600 // SCT002/// OVC005/// 01/01 Q0997=
202311140120 METAR ESMX 140120Z AUTO 05008KT 350V100 9999 // OVC005/// 01/01 Q0997=
202311140050 METAR ESMX 140050Z 05007KT 020V080 9999 OVC004 00/00 Q0998=
202311140020 METAR COR ESMX 140020Z 05007KT 010V140 9999 OVC003 00/00 Q0998=
202311132350 METAR ESMX 132350Z 07006KT 010V110 9999 OVC002 M00/M00 Q0998=
202311132320 METAR ESMX 132320Z 07007KT 030V110 9999 OVC003 M00/M00 Q0998=
202311132250 METAR ESMX 132250Z AUTO 06008KT 020V090 9999 // OVC003/// M00/M00 Q0999=
202311132220 METAR ESMX 132220Z 04008KT 010V080 9999 OVC002 M00/M00 Q0999=
202311132150 METAR ESMX 132150Z 05007KT 360V090 9000 OVC002 M00/M00 Q0999=
202311132120 METAR ESMX 132120Z 07006KT 030V120 9999 OVC002 M00/M00 Q1000=
202311132050 METAR ESMX 132050Z 06006KT 020V090 7000 OVC002 M00/M00 Q1000=
202311132020 METAR ESMX 132020Z 07007KT 030V110 9999 OVC003 M00/M00 Q1001=
202311131950 METAR ESMX 131950Z 08006KT 030V110 9999 OVC003 M00/M00 Q1001=
202311131920 METAR ESMX 131920Z AUTO 11003KT 060V160 9999 // OVC003/// M00/M00 Q1002=
202311131850 METAR ESMX 131850Z AUTO VRB02KT 9999 // OVC003/// M01/M01 Q1002=
202311131820 METAR ESMX 131820Z 05005KT 010V100 6000 OVC002 M01/M01 Q1002=
202311131750 METAR ESMX 131750Z AUTO 05005KT 010V080 2000 // OVC001/// M01/M01 Q1002=
202311131720 METAR ESMX 131720Z 05004KT 020V080 1500 R01/P2000N R19/P2000N FG VV002 M01/M01 Q1003=
202311131650 METAR ESMX 131650Z 17004KT 0800 R01/1800D R19/P2000N FG VV002 M00/M00 Q1003=
202311131620 METAR ESMX 131620Z VRB03KT 0800 R01/1200N R19/1400D FG VV002 M00/M00 Q1004=
202311131550 METAR ESMX 131550Z VRB02KT 0400 R01/1200U R19/1700D FG VV002 00/00 Q1004=
202311131520 METAR ESMX 131520Z 09003KT 050V140 0300 R01/1000D R19/1500D FG VV002 00/00 Q1004=
202311131450 METAR ESMX 131450Z 18004KT 0350 R01/0900N R19/1000N FG VV002 00/00 Q1004=
202311131420 METAR ESMX 131420Z 20002KT 0350 R01/1100N R19/0900N FG VV002 00/00 Q1005=
202311131350 METAR ESMX 131350Z VRB03KT 0800 R01/0600N R19/1200U FG VV002 01/01 Q1005=
202311131320 METAR ESMX 131320Z 20004KT 1000 R01/P2000N R19/1700D FG BKN002 00/00 Q1005=
202311131250 METAR ESMX 131250Z 20002KT 6000 BR VV002 01/01 Q1006=
202311131220 METAR ESMX 131220Z VRB03KT 2000 BR VV001 01/01 Q1006=
202311131150 METAR ESMX 131150Z 33003KT 290V360 1700 R01/P2000D R19/1300N BR VV002 01/01 Q1006=
202311131120 METAR ESMX 131120Z VRB02KT 1000 R01/P2000D R19/1900D FG VV002 01/01 Q1007=
202311131050 METAR ESMX 131050Z VRB02KT 0600 R01/1100N R19/1100D FG VV002 00/00 Q1007=
202311131020 METAR ESMX 131020Z VRB03KT 0800 R19/1400D FG VV002 00/00 Q1007=
202311130950 METAR ESMX 130950Z VRB03KT 0500 R19/1100D FG VV002 00/00 Q1008=
202311130920 METAR ESMX 130920Z VRB03KT 0500 R19/1200U FG VV002 00/00 Q1007=
202311130850 METAR ESMX 130850Z VRB03KT 1300 R19/P2000N BR VV002 00/00 Q1007=
202311130820 METAR ESMX 130820Z VRB03KT 0600 R19/1600U FG VV002 00/00 Q1007=
202311130750 METAR ESMX 130750Z VRB03KT 0550 R19/1200N FZFG VV002 M00/M00 Q1007=
202311130720 METAR ESMX 130720Z 29003KT 260V320 0500 R19/1100N FZFG VV002 M00/M00 Q1007=
202311130650 METAR ESMX 130650Z 28003KT 240V320 0350 R19/0900N FG VV002 00/00 Q1007=
202311130620 METAR ESMX 130620Z 33004KT 300V360 2000 R19/P2000N BCFG VV002 00/00 Q1007=
202311130550 METAR ESMX 130550Z 31003KT 0800 R19/P2000N BCFG VV002 00/00 Q1007=
202311130520 METAR ESMX 130520Z 32005KT 3000 BR VV002 00/00 Q1007=
202311130450 METAR ESMX 130450Z 01004KT 0500 R19/P2000N PRFG VV002 01/01 Q1007=
202311130420 METAR ESMX 130420Z AUTO 36005KT 0600 R01/P2000D R19/P2000N // BKN001/// OVC003/// 01/01 Q1007=
202311130350 METAR ESMX 130350Z AUTO 01006KT 2300 // OVC001/// 01/01 Q1007=
202311130320 METAR ESMX 130320Z AUTO 34006KT 300V360 0700 R01/P2000D R19/P2000N // OVC001/// 01/01 Q1007=
202311130250 METAR ESMX 130250Z AUTO 35006KT 320V020 0500 R01/P2000N R19/P2000D // BKN001/// OVC003/// 02/02 Q1007=
202311130220 METAR ESMX 130220Z AUTO 35005KT 1300 R01/P2000N R19/P2000N // OVC001/// 02/02 Q1007=
202311130150 METAR ESMX 130150Z AUTO 33005KT 290V010 9999 // OVC002/// 03/03 Q1007=
202311130120 METAR ESMX 130120Z AUTO 36007KT 9999 // BKN003/// OVC004/// 02/02 Q1007=
202311130050 METAR ESMX 130050Z AUTO 35006KT 9999 // BKN005/// OVC007/// 03/03 Q1007=
202311130020 METAR ESMX 130020Z AUTO 34006KT 9999 // OVC005/// 04/04 Q1007=
202311122350 METAR ESMX 122350Z AUTO 35006KT 9999 // BKN006/// OVC015/// 04/04 Q1007=
202311122320 METAR ESMX 122320Z AUTO 34005KT 9999 // SCT006/// OVC016/// 04/04 Q1007=
202311122250 METAR ESMX 122250Z AUTO 34002KT 9999 // FEW005/// BKN013/// OVC019/// 04/04 Q1007=
202311122220 METAR ESMX 122220Z AUTO 11001KT 9999 // FEW007/// BKN011/// OVC027/// 03/03 Q1007=
202311122150 METAR ESMX 122150Z AUTO 09002KT 9999 // SCT030/// OVC068/// 03/03 Q1007=
202311122120 METAR ESMX 122120Z AUTO 00000KT 9000 // FEW004/// BKN009/// OVC026/// 03/03 Q1007=
202311122050 METAR ESMX 122050Z AUTO 00000KT 0350 R01/1100N R19/P2000N // FEW004/// BKN026/// OVC068/// 03/03 Q1006=
202311122020 METAR ESMX 122020Z AUTO 00000KT 9999 // OVC027/// 03/03 Q1007=
202311121950 METAR ESMX 121950Z AUTO 00000KT 9999 // BKN027/// OVC068/// 04/04 Q1006=
202311121920 METAR ESMX 121920Z AUTO 00000KT 9999 // SCT030/// OVC066/// 04/04 Q1006=
202311121850 METAR ESMX 121850Z AUTO 00000KT 9999 // OVC066/// 04/04 Q1006=
202311121820 METAR ESMX 121820Z AUTO 00000KT 9999 // OVC064/// 04/04 Q1006=
202311121750 METAR ESMX 121750Z 00000KT 9999 FEW006 04/04 Q1006=
202311121720 METAR ESMX 121720Z 00000KT CAVOK 04/04 Q1006=
202311121650 METAR ESMX 121650Z 20001KT CAVOK 04/04 Q1006=
202311121620 METAR COR ESMX 121620Z 00000KT CAVOK 05/05 Q1006=
202311121550 METAR ESMX 121550Z AUTO 00000KT 9999 // OVC064/// 04/04 Q1006=
202311121520 METAR ESMX 121520Z AUTO 03003KT 9999 // OVC064/// 06/05 Q1006=
202311121450 METAR ESMX 121450Z AUTO VRB03KT 9999 // FEW053/// OVC066/// 06/05 Q1006=
202311121420 METAR ESMX 121420Z AUTO 05003KT 360V080 9999 // FEW053/// OVC066/// 06/05 Q1006=
202311121350 METAR ESMX 121350Z AUTO 04005KT 020V080 9999 // FEW012/// SCT020/// BKN026/// 06/05 Q1006=
202311121320 METAR ESMX 121320Z AUTO 01005KT 9999 // SCT014/// OVC064/// 07/05 Q1005=
202311121250 METAR ESMX 121250Z AUTO 03003KT 310V070 9999 // OVC064/// 07/06 Q1005=
202311121220 METAR ESMX 121220Z AUTO VRB01KT 9999 // OVC066/// 06/05 Q1006=
202311121150 METAR ESMX 121150Z AUTO 01005KT 9999 // FEW007/// OVC068/// 06/05 Q1005=
202311121120 METAR ESMX 121120Z AUTO 36005KT 9999 // SCT006/// OVC066/// 06/05 Q1005=
202311121050 METAR ESMX 121050Z AUTO 35005KT 9999 // FEW006/// OVC066/// 06/06 Q1005=
202311121020 METAR ESMX 121020Z AUTO 01004KT 340V050 9999 // FEW006/// OVC066/// 06/05 Q1005=
202311120950 METAR ESMX 120950Z AUTO 02005KT 360V060 9999 // FEW006/// OVC064/// 06/05 Q1005=
202311120920 METAR ESMX 120920Z AUTO 03004KT 9999 // OVC064/// 06/05 Q1005=
202311120850 METAR ESMX 120850Z AUTO 03004KT 9999 // FEW006/// OVC064/// 05/05 Q1005=
202311120820 METAR ESMX 120820Z AUTO 02003KT 350V060 9999 // OVC064/// 05/05 Q1005=
202311120750 METAR ESMX 120750Z AUTO 04004KT 9999 // OVC064/// 05/05 Q1005=
202311120720 METAR ESMX 120720Z AUTO 00000KT 9999 // OVC064/// 04/04 Q1005=
202311120650 METAR ESMX 120650Z AUTO VRB01KT 9999 // OVC064/// 04/04 Q1005=
202311120620 METAR ESMX 120620Z AUTO 19003KT 9999 // OVC064/// 04/04 Q1005=
202311120550 METAR ESMX 120550Z AUTO 00000KT 8000 // OVC064/// 04/04 Q1005=
202311120520 METAR ESMX 120520Z AUTO 02003KT 9999 // OVC064/// 04/04 Q1004=
202311120450 METAR ESMX 120450Z AUTO 04004KT 9999 // OVC059/// 05/05 Q1004=
202311120420 METAR ESMX 120420Z AUTO VRB02KT 9999 // OVC059/// 04/04 Q1004=
202311120350 METAR ESMX 120350Z AUTO 04003KT 9999 // OVC055/// 04/04 Q1004=
202311120320 METAR ESMX 120320Z AUTO 04003KT 9999 // OVC055/// 04/04 Q1004=
202311120250 METAR ESMX 120250Z AUTO 03003KT 8000 // OVC051/// 04/04 Q1004=
202311120220 METAR ESMX 120220Z AUTO 03003KT 9999 // OVC055/// 04/04 Q1004=
202311120150 METAR ESMX 120150Z AUTO 04003KT 9999 // SCT048/// OVC059/// 04/04 Q1004=
202311120120 METAR ESMX 120120Z AUTO 04004KT 9999 // SCT047/// OVC064/// 04/04 Q1004=
202311120050 METAR ESMX 120050Z AUTO 03003KT 9999 // OVC064/// 03/03 Q1004=
202311120020 METAR ESMX 120020Z AUTO 05002KT 9999 // OVC062/// 04/04 Q1004=
202311112350 METAR ESMX 112350Z AUTO 00000KT 9999 // OVC062/// 04/04 Q1004=
202311112320 METAR ESMX 112320Z AUTO 00000KT 8000 // OVC062/// 04/04 Q1004=
202311112250 METAR ESMX 112250Z AUTO 00000KT 9999 // OVC062/// 04/04 Q1004=
202311112220 METAR ESMX 112220Z AUTO 25002KT 9999 // OVC061/// 04/04 Q1004=
202311112150 METAR ESMX 112150Z AUTO 03003KT 9999 // OVC057/// 05/05 Q1004=
202311112120 METAR ESMX 112120Z AUTO VRB02KT 9999 // OVC057/// 05/04 Q1005=
202311112050 METAR ESMX 112050Z AUTO 02003KT 9999 // OVC059/// 05/05 Q1004=
202311112020 METAR ESMX 112020Z AUTO 04003KT 9999 // OVC057/// 05/04 Q1004=
202311111950 METAR ESMX 111950Z AUTO 05004KT 9999 // OVC057/// 05/04 Q1004=
202311111920 METAR ESMX 111920Z AUTO VRB03KT 9999 // OVC055/// 05/04 Q1004=
202311111850 METAR ESMX 111850Z AUTO VRB03KT 9999 // OVC053/// 05/05 Q1004=
202311111820 METAR ESMX 111820Z AUTO 11003KT 070V140 9999 // OVC051/// 06/04 Q1004=
202311111750 METAR ESMX 111750Z AUTO VRB03KT 9999 // OVC051/// 06/05 Q1004=
202311111720 METAR ESMX 111720Z AUTO VRB02KT 9999 // OVC051/// 06/05 Q1003=
202311111650 METAR ESMX 111650Z AUTO 08003KT 050V130 9999 // OVC051/// 06/06 Q1003=
202311111620 METAR ESMX 111620Z AUTO VRB02KT 9999 // OVC051/// 07/06 Q1003=
202311111550 METAR ESMX 111550Z AUTO VRB02KT 9999 // OVC051/// 06/06 Q1003=
202311111520 METAR ESMX 111520Z AUTO 09002KT 9999 // OVC051/// 07/06 Q1003=
202311111450 METAR ESMX 111450Z AUTO VRB03KT 9999 // FEW016/// OVC049/// 07/06 Q1002=
202311111420 METAR ESMX 111420Z AUTO VRB02KT 9999 // FEW016/// OVC049/// 07/06 Q1002=
202311111350 METAR ESMX 111350Z AUTO 16002KT 9999 // OVC049/// 08/06 Q1002=
202311111320 METAR ESMX 111320Z AUTO VRB02KT 9999 // OVC049/// 08/06 Q1002=
202311111250 METAR ESMX 111250Z AUTO VRB02KT 9999 // OVC049/// 08/06 Q1002=
202311111220 METAR ESMX 111220Z AUTO VRB02KT 9999 // OVC051/// 08/06 Q1002=
202311111150 METAR ESMX 111150Z AUTO 16002KT 9999 // OVC051/// 07/06 Q1002=
202311111120 METAR ESMX 111120Z AUTO 16002KT 9999 // OVC049/// 07/06 Q1001=
202311111050 METAR ESMX 111050Z AUTO 00000KT 9999 // OVC047/// 07/06 Q1001=
202311111020 METAR ESMX 111020Z AUTO VRB02KT 9999 // BKN004/// BKN012/// OVC045/// 06/06 Q1001=
202311110950 METAR ESMX 110950Z AUTO 16003KT 9999 // OVC003/// 06/06 Q1001=
202311110920 METAR ESMX 110920Z AUTO 16002KT 9999 // OVC003/// 06/06 Q1001=
202311110850 METAR ESMX 110850Z AUTO 24003KT 9999 // SCT003/// OVC045/// 05/05 Q1001=
202311110820 METAR ESMX 110820Z AUTO 00000KT 9999 // FEW003/// OVC044/// 05/05 Q1001=
202311110750 METAR ESMX 110750Z AUTO 16003KT 9000 // SCT003/// OVC044/// 05/05 Q1000=
202311110720 METAR ESMX 110720Z AUTO 16002KT 8000 // BKN003/// OVC045/// 05/05 Q1000=
202311110650 METAR ESMX 110650Z AUTO 14003KT 9000 // OVC003/// 05/05 Q1000=
202311110620 METAR ESMX 110620Z AUTO 16003KT 6000 // OVC002/// 05/05 Q1000=
202311110550 METAR ESMX 110550Z AUTO 15003KT 4900 // OVC002/// 05/05 Q0999=
202311110520 METAR ESMX 110520Z AUTO 18003KT 2000 // OVC001/// 05/05 Q0999=
202311110450 METAR ESMX 110450Z AUTO 18004KT 1400 R01/P2000N R19/P2000N // BKN001/// OVC003/// 05/05 Q0999=
202311110420 METAR ESMX 110420Z AUTO 18003KT 0300 R01/1300U R19/1100N // VV002 05/05 Q0999=
202311110350 METAR ESMX 110350Z AUTO 17004KT 0250 R01/0800N R19/0900N // SCT001/// OVC003/// 05/05 Q0999=
202311110320 METAR ESMX 110320Z AUTO 18005KT 0300 R01/1000N R19/1200D // OVC001/// 05/05 Q0999=
202311110250 METAR ESMX 110250Z AUTO 18005KT 0650 R01/1700D R19/P2000N // OVC001/// 05/05 Q0998=
202311110220 METAR ESMX 110220Z AUTO 18004KT 120V200 1800 BR OVC002/// 05/05 Q0998=
202311110150 METAR ESMX 110150Z AUTO 18004KT 9000 OVC003/// 05/05 Q0998=
202311110120 METAR ESMX 110120Z AUTO 15005KT 9999 OVC003/// 05/05 Q0998=
202311110050 METAR ESMX 110050Z AUTO 16004KT 9999 OVC003/// 05/05 Q0998=
202311110020 METAR ESMX 110020Z AUTO 19005KT 7000 OVC003/// 04/04 Q0998=
202311102350 METAR ESMX 102350Z AUTO 18009KT 9999 OVC004/// 05/05 Q0998=
202311102320 METAR ESMX 102320Z AUTO 18007KT 9999 OVC004/// 06/06 Q0998=
202311102250 METAR ESMX 102250Z AUTO 17007KT 9999 OVC005/// 06/06 Q0998=
202311102220 METAR ESMX 102220Z AUTO 17007KT 9999 OVC005/// 06/06 Q0998 REDZ REUP=
202311102150 METAR ESMX 102150Z AUTO 17007KT 9999 BKN006/// BKN008/// OVC009/// 06/06 Q0997=
202311102120 METAR ESMX 102120Z AUTO 15007KT 9999 BKN006/// OVC044/// 06/06 Q0997=
202311102050 METAR ESMX 102050Z AUTO 17006KT 9999 SCT007/// OVC044/// 06/06 Q0997=
202311102020 METAR ESMX 102020Z AUTO 18007KT 9999 OVC042/// 06/06 Q0997=
202311101950 METAR ESMX 101950Z AUTO 17008KT 9999 SCT007/// OVC042/// 06/06 Q0997=
202311101920 METAR ESMX 101920Z AUTO 18009KT 9999 SCT007/// OVC042/// 06/06 Q0997=
202311101850 METAR ESMX 101850Z AUTO 16007KT 9999 OVC007/// 06/06 Q0997=
202311101820 METAR ESMX 101820Z AUTO 16007KT 9999 OVC007/// 06/06 Q0997=
202311101750 METAR ESMX 101750Z AUTO 16008KT 9999 BKN008/// BKN010/// OVC043/// 06/06 Q0997=
202311101720 METAR ESMX 101720Z AUTO 17008KT 9999 SCT008/// BKN030/// OVC044/// 06/06 Q0996 RESHUP REUP=
202311101650 METAR ESMX 101650Z AUTO 16008KT 9999 UP BKN009/// OVC038/// 06/06 Q0996 RESHUP=
202311101620 METAR ESMX 101620Z AUTO 17009KT 9999 FEW010/// BKN040/// 06/06 Q0996=
202311101550 METAR ESMX 101550Z AUTO 16007KT 9999 BKN010/// OVC013/// 06/06 Q0996=
202311101520 METAR ESMX 101520Z 18009KT 9999 BKN013 07/06 Q0996=
202311101450 METAR ESMX 101450Z 16007KT 9999 BKN011 07/06 Q0995=
202311101420 METAR ESMX 101420Z 17008KT 9999 BKN012 07/06 Q0995=
202311101350 METAR ESMX 101350Z 16008KT 9999 BKN013 07/06 Q0995=
202311101320 METAR ESMX 101320Z 16007KT 9999 -DZ FEW011 BKN015 07/06 Q0995=
202311101250 METAR ESMX 101250Z 18010KT 9999 FEW014 BKN022 07/06 Q0995=
202311101220 METAR ESMX 101220Z 17008KT 9999 FEW011 BKN025 08/07 Q0995=
202311101150 METAR ESMX 101150Z 19011KT 9999 FEW010 BKN019 08/06 Q0995=
202311101120 METAR ESMX 101120Z 18010KT 9999 FEW010 BKN014 08/07 Q0995=
202311101050 METAR ESMX 101050Z 17012KT 9999 FEW006 BKN010 08/07 Q0995=
202311101020 METAR ESMX 101020Z 14007KT 9000 -RA BKN009 08/07 Q0995=
202311100950 METAR ESMX 100950Z 14006KT 110V170 9999 -DZ BKN007 08/07 Q0995=
202311100920 METAR ESMX 100920Z 15005KT 110V170 9999 BKN007 07/07 Q0995=
202311100850 METAR ESMX 100850Z 15005KT 9000 SCT006 BKN018 07/07 Q0995=
202311100820 METAR ESMX 100820Z 15004KT 9999 SCT007 BKN010 07/07 Q0996=
202311100750 METAR ESMX 100750Z 16005KT 9999 FEW006 SCT011 BKN022 07/07 Q0995=
202311100720 METAR ESMX 100720Z 17004KT 9999 FEW006 BKN024 07/07 Q0995=
202311100650 METAR ESMX 100650Z 17007KT 9999 SCT004 BKN006 07/07 Q0995=
202311100620 METAR ESMX 100620Z 17005KT 9999 BKN003 07/07 Q0995 REDZ=
202311100550 METAR ESMX 100550Z 18004KT 9000 BKN003 07/07 Q0995=
202311100520 METAR COR ESMX 100520Z 17004KT 5000 BR -DZ BKN003 07/07 Q0995=
202311100450 METAR ESMX 100450Z AUTO 17005KT 9999 BKN014/// OVC017/// 06/06 Q0995=
202311100420 METAR ESMX 100420Z AUTO 18006KT 9999 BKN006/// OVC017/// 06/06 Q0995=
202311100350 METAR ESMX 100350Z AUTO 18007KT 9999 FEW006/// OVC015/// 06/07 Q0995=
202311100320 METAR ESMX 100320Z AUTO 17006KT 9999 BKN013/// 06/06 Q0995=
202311100250 METAR ESMX 100250Z AUTO 19008KT 9999 SCT007/// OVC011/// 07/06 Q0995=
202311100220 METAR ESMX 100220Z AUTO 20009KT 9999 BKN007/// OVC009/// 07/07 Q0995=
202311100150 METAR ESMX 100150Z AUTO 19010KT 9999 BKN007/// OVC010/// 07/07 Q0995=
202311100120 METAR ESMX 100120Z AUTO 19011KT 6000 SCT004/// BKN006/// OVC007/// 07/07 Q0995=
202311100050 METAR ESMX 100050Z 19010KT 9999 BKN007 BKN009 08/08 Q0995=
202311100020 METAR ESMX 100020Z 17010KT 9999 BKN007 BKN027 08/08 Q0995=
202311092350 METAR ESMX 092350Z 17008KT 9999 BKN006 08/08 Q0996=
202311092320 METAR ESMX 092320Z 16009KT 9999 BKN005 08/08 Q0996=
202311092250 METAR ESMX 092250Z 16008KT 7000 BKN003 08/08 Q0996=
202311092220 METAR ESMX 092220Z 16007KT 9999 BKN003 08/08 Q0996=
202311092150 METAR ESMX 092150Z 16007KT 4300 DZ BKN004 08/08 Q0996=
202311092120 METAR ESMX 092120Z 17007KT 9999 BKN004 09/09 Q0996=
202311092050 METAR ESMX 092050Z 17008KT 9000 BKN003 08/08 Q0996=
202311092020 METAR ESMX 092020Z AUTO 16006KT 3600 DZ OVC002/// 08/08 Q0996 REUP=
202311091950 METAR ESMX 091950Z AUTO 17007KT 4000 BR OVC003/// 08/08 Q0996=
202311091920 METAR ESMX 091920Z AUTO 17009KT 9999 OVC003/// 08/08 Q0996=
202311091850 METAR ESMX 091850Z AUTO 17008KT 9999 OVC003/// 08/08 Q0996=
202311091820 METAR ESMX 091820Z 16008KT 3700 BR BKN002 08/08 Q0997=
202311091750 METAR ESMX 091750Z 16009KT 4500 -DZ BKN003 08/08 Q0997=
202311091720 METAR ESMX 091720Z 16009KT 9999 BKN003 08/08 Q0997=
202311091650 METAR ESMX 091650Z 16008KT 4500 BR BKN003 08/08 Q0997=
202311091620 METAR ESMX 091620Z 16008KT 6000 BKN003 08/08 Q0997 REDZ=
202311091550 METAR ESMX 091550Z 16008KT 5000 DZ VV002 08/08 Q0997=
202311091520 METAR ESMX 091520Z 15008KT 5000 -DZ BKN003 08/08 Q0997=
202311091450 METAR ESMX 091450Z 16007KT 6000 -RADZ BKN003 08/08 Q0997=
202311091420 METAR ESMX 091420Z 16008KT 9000 -RA BKN003 08/08 Q0997=
202311091350 METAR ESMX 091350Z 15008KT 9000 -RA BKN004 08/08 Q0997=
202311091320 METAR ESMX 091320Z 15008KT 7000 -DZRA BKN004 08/08 Q0998=
202311091250 METAR ESMX 091250Z 15008KT 7000 -DZ BKN004 08/08 Q0998=
202311091220 METAR ESMX 091220Z 15009KT 9000 -RA BKN005 08/08 Q0998=
202311091150 METAR ESMX 091150Z 15008KT 9000 RA BKN004 08/08 Q0999=
202311091120 METAR ESMX 091120Z 16009KT 9000 -RA BKN005 08/08 Q0999=
202311091050 METAR ESMX 091050Z AUTO 16009KT 130V190 9999 UP BKN003/// OVC005/// 08/08 Q0999 REDZ=
202311091020 METAR ESMX 091020Z 16009KT 120V190 5000 BR OVC003 08/08 Q0999=
202311090950 METAR ESMX 090950Z 15009KT 5000 -DZ OVC002 07/07 Q1000=
202311090920 METAR ESMX 090920Z 16009KT 110V180 3500 BR OVC002 07/07 Q1000=
202311090850 METAR ESMX 090850Z 16009KT 5000 BR OVC002 07/07 Q1000=
202311090820 METAR ESMX 090820Z 16008KT 3000 BR OVC002 07/07 Q1000=
202311090750 METAR ESMX 090750Z 16009KT 4000 BR OVC003 07/07 Q1000=
202311090720 METAR ESMX 090720Z 16010KT 9000 BKN003 07/07 Q1000=
202311090650 METAR ESMX 090650Z 16010KT 7000 BKN003 07/07 Q1000=
202311090620 METAR ESMX 090620Z 16010KT 4000 BR BKN002 07/07 Q1000=
202311090550 METAR ESMX 090550Z 16008KT 6000 -DZ BKN004 07/07 Q1001=
202311090520 METAR ESMX 090520Z 15007KT 5000 RADZ BKN003 07/07 Q1001=
202311090450 METAR ESMX 090450Z 15008KT 6000 -RA BKN004 07/07 Q1001=
202311090420 METAR ESMX 090420Z AUTO 14007KT 8000 -RA OVC004/// 07/07 Q1001=
202311090350 METAR ESMX 090350Z AUTO 15008KT 7000 -RA OVC004/// 07/07 Q1002=
202311090320 METAR ESMX 090320Z AUTO 15007KT 9000 RA OVC006/// 07/07 Q1002 REDZ REUP=
202311090250 METAR ESMX 090250Z AUTO 15006KT 9999 OVC007/// 07/07 Q1002=
202311090220 METAR ESMX 090220Z AUTO 15006KT 110V170 9999 SCT008/// BKN009/// OVC013/// 07/07 Q1003=
202311090150 METAR ESMX 090150Z AUTO 15006KT 9999 FEW006/// OVC014/// 07/07 Q1003=
202311090120 METAR ESMX 090120Z AUTO 15006KT 120V190 9999 BKN007/// OVC015/// 07/07 Q1003=
202311090050 METAR ESMX 090050Z 16006KT 9999 FEW006 BKN018 07/07 Q1004=
202311090020 METAR ESMX 090020Z 17005KT 9999 FEW008 BKN016 07/07 Q1004=
202311082350 METAR ESMX 082350Z 18005KT 9999 BKN009 BKN016 07/07 Q1004=
202311082320 METAR ESMX 082320Z 21008KT 9999 BKN007 BKN011 07/07 Q1004=
202311082250 METAR ESMX 082250Z 19008KT 9999 BKN017 BKN020 07/07 Q1004=
202311082220 METAR ESMX 082220Z 19008KT 9999 BKN019 BKN041 07/07 Q1004=
202311082150 METAR ESMX 082150Z 19006KT 9999 FEW007 BKN037 07/07 Q1004=
202311082120 METAR ESMX 082120Z 19006KT 9999 SCT007 BKN017 07/07 Q1004=
202311082050 METAR ESMX 082050Z 18006KT 9999 FEW017 SCT030 BKN044 07/07 Q1004=
202311082020 METAR ESMX 082020Z 21007KT 9999 -RA BKN036 07/07 Q1004=
202311081950 METAR ESMX 081950Z 19006KT 9999 -RA FEW003 BKN036 BKN051 07/07 Q1004=
202311081920 METAR COR ESMX 081920Z 19005KT 9999 SCT011 BKN026 BKN038 06/06 Q1004=
202311081850 METAR ESMX 081850Z 19005KT 9999 BKN004 BKN040 07/07 Q1004=
202311081820 METAR ESMX 081820Z 22004KT 9999 SCT004 BKN011 BKN038 07/07 Q1004=
202311081750 METAR ESMX 081750Z 22005KT 9999 SCT005 BKN010 BKN016 07/07 Q1003=
202311081720 METAR ESMX 081720Z 22005KT 9999 -DZ BKN008 OVC010 07/07 Q1003=
202311081650 METAR ESMX 081650Z 22006KT 9999 -RA BKN005 BKN044 07/07 Q1003=
202311081620 METAR ESMX 081620Z 20004KT 9999 SCT004 BKN010 07/07 Q1003=
202311081550 METAR ESMX 081550Z 22005KT 180V250 9999 SCT006 BKN010 BKN030 08/08 Q1003 REDZ=
202311081520 METAR COR ESMX 081520Z 21005KT 8000 -RA SCT005 BKN011 BKN035 08/08 Q1003=
202311081450 METAR ESMX 081450Z 19006KT 9999 BKN012 08/08 Q1003=
202311081420 METAR ESMX 081420Z 18006KT 9999 FEW009 BKN013 08/08 Q1002=
202311081350 METAR ESMX 081350Z 19005KT 9999 SCT021 BKN045 08/08 Q1002=
202311081320 METAR COR ESMX 081320Z 21006KT 9999 FEW010 BKN024 08/08 Q1002=
202311081250 METAR ESMX 081250Z 19007KT 9999 BKN007 08/08 Q1002=
202311081220 METAR ESMX 081220Z 21006KT 9999 BKN007 09/08 Q1002=
202311081150 METAR ESMX 081150Z 21006KT 9999 BKN006 08/08 Q1002=
202311081120 METAR ESMX 081120Z 19008KT 9999 BKN007 08/08 Q1002=
202311081050 METAR ESMX 081050Z AUTO 19009KT 9999 BKN007/// OVC009/// 08/08 Q1002=
202311081020 METAR ESMX 081020Z 18008KT 9000 BKN006 08/08 Q1002=
202311080950 METAR ESMX 080950Z 18007KT 9999 -RA BKN007 08/08 Q1002=
202311080920 METAR ESMX 080920Z 19009KT 8000 -RA BKN006 08/08 Q1002=
202311080850 METAR ESMX 080850Z 17009KT 9999 BKN005 08/08 Q1002=
202311080820 METAR ESMX 080820Z 18009KT 9000 BKN005 07/07 Q1002=
202311080750 METAR ESMX 080750Z 19008KT 9999 BKN006 07/07 Q1002=
202311080720 METAR ESMX 080720Z 18009KT 9000 -RA BKN006 07/07 Q1002=
202311080650 METAR ESMX 080650Z 18007KT 9999 BKN006 07/07 Q1002=
202311080620 METAR ESMX 080620Z 17008KT 9999 BKN006 07/07 Q1002=
202311080550 METAR ESMX 080550Z 17007KT 9999 BKN005 07/07 Q1002=
202311080520 METAR ESMX 080520Z 18007KT 9999 BKN006 07/07 Q1002=
202311080450 METAR COR ESMX 080450Z 19006KT 9999 BKN004 07/07 Q1002=
202311080420 METAR ESMX 080420Z AUTO 17007KT 9999 BKN006/// BKN008/// OVC012/// 07/07 Q1002=
202311080350 METAR ESMX 080350Z AUTO 18008KT 9999 -RA BKN006/// OVC021/// 07/07 Q1002 RESHUP REUP=
202311080320 METAR ESMX 080320Z AUTO 19007KT 9999 FEW010/// SCT014/// OVC023/// 07/07 Q1002=
202311080250 METAR ESMX 080250Z AUTO 19008KT 160V220 9999 FEW010/// BKN014/// OVC022/// 08/08 Q1002=
202311080220 METAR ESMX 080220Z AUTO 18008KT 9999 SCT007/// BKN013/// OVC018/// 08/08 Q1002 RESHUP REUP=
202311080150 METAR ESMX 080150Z AUTO 18008KT 9999 FEW010/// SCT017/// BKN021/// 08/08 Q1002=
202311080120 METAR ESMX 080120Z AUTO 19008KT 9999 FEW006/// SCT012/// BKN021/// 08/08 Q1002=
202311080050 METAR ESMX 080050Z 19007KT 9999 SCT005 BKN024 08/08 Q1002=
202311080020 METAR ESMX 080020Z 21007KT 9999 BKN006 BKN011 08/08 Q1003=
202311072350 METAR ESMX 072350Z AUTO 19007KT 9999 ///////// 08/08 Q1003 RESHUP=
202311072320 METAR ESMX 072320Z 19007KT 9999 BKN003 BKN021 08/08 Q1003=
202311072250 METAR ESMX 072250Z 20008KT 9999 SCT005 BKN024 08/08 Q1003=
202311072220 METAR ESMX 072220Z 19009KT 9999 BKN004 BKN006 08/08 Q1003=
202311072150 METAR COR ESMX 072150Z 18008KT 9999 BKN004 BKN006 08/08 Q1002=
202311072120 METAR ESMX 072120Z 19005KT 9999 BKN004 BKN015 08/08 Q1003=
202311072050 METAR ESMX 072050Z 19006KT 9999 BKN004 BKN030 08/08 Q1003=
202311072020 METAR ESMX 072020Z AUTO 21004KT 9999 ///////// 08/08 Q1003=
202311071950 METAR ESMX 071950Z AUTO 17004KT 9999 ///////// 07/07 Q1003=
202311071920 METAR ESMX 071920Z AUTO 22003KT 9999 -RA ///////// 07/07 Q1003 RERASN RESHRA=
202311071850 METAR ESMX 071850Z AUTO 20011KT 1500 RASN ///////// 07/06 Q1003=
202311071820 METAR ESMX 071820Z 21007KT 9999 DZ FEW004 BKN039 08/08 Q1002=
202311071750 METAR ESMX 071750Z 19007KT 9999 -RA BKN004 BKN044 08/08 Q1002=
202311071720 METAR ESMX 071720Z 20006KT 9999 BKN004 07/07 Q1002=
202311071650 METAR ESMX 071650Z 19005KT 9999 -RA SCT006 BKN010 07/07 Q1002=
202311071620 METAR ESMX 071620Z 21005KT 9999 FEW010 BKN021 07/07 Q1002=
202311071550 METAR ESMX 071550Z 20005KT 9999 -RA FEW006 BKN009 08/08 Q1002=
202311071520 METAR ESMX 071520Z AUTO 23006KT 9999 ///////// 08/08 Q1002=
202311071450 METAR ESMX 071450Z 20007KT 9999 -RA FEW017 BKN042 08/08 Q1002=
202311071420 METAR ESMX 071420Z 22006KT 9999 FEW012 BKN031 08/07 Q1002=
202311071350 METAR ESMX 071350Z 24007KT 210V270 9999 BKN011 09/08 Q1001=
202311071320 METAR ESMX 071320Z 21007KT 9999 BKN012 09/08 Q1001=
202311071250 METAR ESMX 071250Z 21007KT 9999 BKN012 09/08 Q1001=
202311071220 METAR ESMX 071220Z AUTO 21008KT 190V250 9999 ///////// 09/08 Q1001=
202311071150 METAR ESMX 071150Z 22008KT 9999 BKN010 09/08 Q1001=
202311071120 METAR ESMX 071120Z 21009KT 9999 BKN009 09/08 Q1001=
202311071050 METAR ESMX 071050Z 21009KT 9999 BKN007 09/08 Q1000=
202311071020 METAR COR ESMX 071020Z 21010KT 9000 BKN006 09/09 Q1000=
202311070950 METAR ESMX 070950Z 20008KT 9000 -RA BKN004 09/08 Q1000=
202311070920 METAR ESMX 070920Z 20008KT 9999 BKN005 08/08 Q1000=
202311070850 METAR ESMX 070850Z 19008KT 9999 BKN005 08/08 Q1000=
202311070820 METAR ESMX 070820Z 19009KT 9999 SCT005 BKN023 08/08 Q1000=
202311070750 METAR ESMX 070750Z 19008KT 9999 BKN005 08/08 Q1000=
202311070720 METAR ESMX 070720Z 19007KT 9999 SCT005 BKN017 08/08 Q1000=
202311070650 METAR ESMX 070650Z 20007KT 9999 SCT005 BKN030 08/08 Q0999=
202311070620 METAR ESMX 070620Z 20007KT 9999 BKN004 08/08 Q0999=
202311070550 METAR ESMX 070550Z 20006KT 9999 BKN004 08/08 Q0999=
202311070520 METAR ESMX 070520Z 21007KT 9999 BKN003 08/08 Q0999 RERA=
202311070450 METAR COR ESMX 070450Z 21006KT 9999 BKN003 08/08 Q0999=
202311070420 METAR ESMX 070420Z AUTO 21006KT 9999 ///////// 08/08 Q0998 REDZ REUP=
202311070350 METAR ESMX 070350Z AUTO 21007KT 9999 ///////// 08/08 Q0998=
202311070320 METAR ESMX 070320Z AUTO 20007KT 9999 ///////// 07/07 Q0998=
202311070250 METAR ESMX 070250Z AUTO 20007KT 9999 ///////// 08/08 Q0998=
202311070220 METAR ESMX 070220Z AUTO 20009KT 9999 ///////// 08/08 Q0998=
202311070150 METAR ESMX 070150Z AUTO 19007KT 9999 ///////// 08/08 Q0998=
202311070120 METAR ESMX 070120Z AUTO 19007KT 9999 ///////// 08/08 Q0998=
202311070050 METAR ESMX 070050Z 21008KT 9999 FEW008 BKN020 08/08 Q0998=
202311070020 METAR ESMX 070020Z 19009KT 9999 BKN005 BKN049 08/08 Q0997=
202311062350 METAR ESMX 062350Z 19007KT 9999 BKN005 BKN009 08/08 Q0997=
202311062320 METAR ESMX 062320Z 20007KT 9999 FEW006 BKN051 08/08 Q0997=
202311062250 METAR ESMX 062250Z 19009KT 9999 BKN006 08/08 Q0997=
202311061820 METAR ESMX 061820Z 20009KT 9999 FEW008 BKN011 BKN018 09/09 Q0994=
202311061750 METAR ESMX 061750Z 22009KT 9999 FEW010 BKN017 09/09 Q0994 RERA=
202311061720 METAR ESMX 061720Z 21009KT 180V240 9999 BKN009 09/09 Q0994 RERA=
202311061650 METAR ESMX 061650Z 22007KT 9999 DZ BKN006 09/09 Q0994=
202311061620 METAR ESMX 061620Z 23007KT 9999 BKN006 09/09 Q0993=
202311061550 METAR ESMX 061550Z 23005KT 6000 DZ BKN005 09/09 Q0993 RERA=
202311061520 METAR ESMX 061520Z 23005KT 9999 SHRA FEW006CB BKN010 09/09 Q0993=
202311061450 METAR ESMX 061450Z 18008G24KT 160V250 4000 SHRA SCT002CB BKN005 09/09 Q0992=
202311061420 METAR ESMX 061420Z 16005KT 7000 -RA SCT005 BKN010 09/09 Q0992=
202311061350 METAR ESMX 061350Z 18005KT 8000 -RA SCT005 BKN018 09/09 Q0992=
202311061320 METAR ESMX 061320Z 20004KT 9999 SCT007 BKN017 09/09 Q0991=
202311061250 METAR ESMX 061250Z 18004KT 9999 BKN007 09/09 Q0991=
202311061220 METAR ESMX 061220Z 18005KT 9999 BKN007 09/09 Q0991=
202311061150 METAR ESMX 061150Z 18004KT 9999 BKN005 09/09 Q0991=
202311061120 METAR ESMX 061120Z 18006KT 9999 BKN003 09/09 Q0990=
202311061050 METAR ESMX 061050Z 18004KT 9999 BKN005 09/09 Q0990=
202311061020 METAR ESMX 061020Z 18005KT 9999 BKN003 09/09 Q0990=
202311060950 METAR ESMX 060950Z 00000KT 9999 BKN003 09/09 Q0989=
202311060920 METAR ESMX 060920Z 14003KT 9000 BKN002 08/08 Q0989=
202311060850 METAR ESMX 060850Z VRB03KT 9999 BKN002 08/08 Q0989=
202311060820 METAR ESMX 060820Z 04003KT 6000 BKN002 08/08 Q0988=
202311060750 METAR COR ESMX 060750Z 00000KT 6000 BKN002 08/08 Q0988=
202311060720 METAR ESMX 060720Z 00000KT 5000 -DZ OVC002 08/08 Q0988=
202311060650 METAR ESMX 060650Z 35002KT 3000 BR OVC002 07/07 Q0987=
202311060620 METAR ESMX 060620Z 35002KT 5000 -DZ BR OVC002 07/07 Q0987=
202311060550 METAR ESMX 060550Z 34002KT 5000 BR -DZ OVC002 07/07 Q0986=
202311060520 METAR ESMX 060520Z 03003KT 7000 OVC002 07/07 Q0986=
202311060450 METAR ESMX 060450Z VRB03KT 3500 BR OVC002 07/07 Q0986=
202311060420 METAR ESMX 060420Z AUTO 03002KT 7000 OVC002/// 07/07 Q0986=
202311060350 METAR ESMX 060350Z AUTO 04003KT 2700 BR OVC002/// 07/07 Q0985=
202311060320 METAR ESMX 060320Z AUTO 05003KT 7000 OVC002/// 08/08 Q0985=
202311060250 METAR ESMX 060250Z AUTO VRB02KT 8000 OVC003/// 08/08 Q0985=
202311060220 METAR ESMX 060220Z AUTO VRB02KT 8000 OVC003/// 08/08 Q0984=
202311060150 METAR ESMX 060150Z AUTO 13002KT 7000 OVC002/// 08/08 Q0984=
202311060120 METAR ESMX 060120Z AUTO 00000KT 6000 OVC002/// 08/08 Q0984 REDZ=
202311060050 METAR ESMX 060050Z AUTO 13002KT 4200 BR OVC002/// 08/08 Q0984=
202311060020 METAR ESMX 060020Z AUTO VRB02KT 2200 BR OVC002/// 08/08 Q0984 REDZ=
202311052350 METAR ESMX 052350Z AUTO VRB02KT 3300 DZ OVC002/// 08/08 Q0983 REUP=
202311052320 METAR ESMX 052320Z AUTO VRB02KT 4200 BR OVC002/// 08/08 Q0983 REDZ=
202311052250 METAR ESMX 052250Z AUTO VRB02KT 5000 BR OVC003/// 08/08 Q0983=
202311052220 METAR ESMX 052220Z AUTO VRB01KT 7000 OVC003/// 08/08 Q0983=
202311052150 METAR ESMX 052150Z AUTO VRB02KT 3800 -RA OVC003/// 08/08 Q0983 RERA=
202311052120 METAR ESMX 052120Z AUTO 12003KT 080V170 8000 OVC003/// 08/08 Q0983=
202311052050 METAR ESMX 052050Z AUTO 11003KT 7000 -DZ BKN003/// OVC005/// 08/08 Q0982 REDZ REUP=
202311052020 METAR ESMX 052020Z AUTO VRB03KT 6000 OVC003/// 08/08 Q0982=
202311051950 METAR ESMX 051950Z AUTO VRB03KT 6000 OVC002/// 08/08 Q0982=
202311051920 METAR ESMX 051920Z AUTO 13003KT 4200 BR OVC003/// 08/08 Q0982=
202311051850 METAR ESMX 051850Z AUTO 13003KT 090V170 5000 BR OVC003/// 08/08 Q0982=
202311051820 METAR ESMX 051820Z AUTO 14004KT 4400 BR OVC002/// 08/08 Q0981 REUP=
202311051750 METAR ESMX 051750Z AUTO 14004KT 110V170 4700 BR OVC002/// 08/08 Q0981=
202311051720 METAR ESMX 051720Z 14005KT 2000 BR BKN002 08/08 Q0981 REDZ=
202311051650 METAR ESMX 051650Z 12005KT 050V150 2200 BR BKN002 07/07 Q0981=
202311051620 METAR ESMX 051620Z 13005KT 050V150 2300 BR BKN002 07/07 Q0981 REDZ=
202311051550 METAR ESMX 051550Z 11004KT 060V140 3500 DZ BKN002 07/07 Q0980=
202311051520 METAR ESMX 051520Z 11004KT 070V140 3900 DZ BKN003 07/07 Q0980 REDZ=
202311051450 METAR ESMX 051450Z 08003KT 030V140 3700 BR BKN003 07/07 Q0980 REDZ=
202311051420 METAR ESMX 051420Z 09004KT 040V140 3800 BR BKN004 07/07 Q0980 REDZ=
202311051350 METAR ESMX 051350Z AUTO 09004KT 050V120 5000 BR BKN005/// OVC008/// 07/07 Q0980=
202311051320 METAR ESMX 051320Z 09004KT 030V120 4000 -DZ SCT003 BKN006 OVC011 07/07 Q0980=
202311051250 METAR ESMX 051250Z AUTO 19004KT 9999 DZ OVC012/// 07/07 Q0980=
202311051220 METAR ESMX 051220Z 10003KT 050V130 9999 -RA BKN010 BKN015 07/07 Q0980=
202311051150 METAR ESMX 051150Z 13004KT 070V150 9999 -RA BKN011 07/07 Q0980 REDZ=
202311051120 METAR ESMX 051120Z 11003KT 010V160 9999 DZ BKN012 08/06 Q0979 RERA=
202311051050 METAR ESMX 051050Z 11004KT 040V160 9999 BKN012 08/06 Q0979=
202311051020 METAR ESMX 051020Z 11005KT 030V190 9999 BKN012 08/06 Q0979=
202311050950 METAR ESMX 050950Z 11004KT 070V160 9999 BKN013 08/06 Q0980=
202311050920 METAR ESMX 050920Z 12005KT 050V150 9999 BKN012 BKN017 08/06 Q0980=
202311050850 METAR ESMX 050850Z AUTO 11005KT 060V140 9999 BKN013/// OVC018/// 08/06 Q0980=
202311050820 METAR ESMX 050820Z AUTO VRB07KT 9999 BKN011/// BKN017/// OVC020/// 07/06 Q0980=
202311050750 METAR ESMX 050750Z AUTO 12006KT 070V150 9999 BKN011/// OVC015/// 07/06 Q0980=
202311050720 METAR ESMX 050720Z AUTO 11005KT 020V160 9999 BKN012/// BKN016/// OVC080/// 07/06 Q0980=
202311050650 METAR ESMX 050650Z AUTO 10006KT 050V150 9999 OVC015/// 07/06 Q0980=
202311050620 METAR ESMX 050620Z AUTO 10006KT 030V140 9999 BKN011/// OVC016/// 07/06 Q0981=
202311050550 METAR ESMX 050550Z AUTO 13007KT 070V160 9999 OVC010/// 07/06 Q0981=
202311050520 METAR ESMX 050520Z AUTO 12006KT 050V160 9999 OVC010/// 07/06 Q0981=
202311050450 METAR ESMX 050450Z AUTO 12006KT 080V160 9999 OVC009/// 07/06 Q0981=
202311050420 METAR ESMX 050420Z AUTO 12006KT 070V230 9999 OVC009/// 07/06 Q0981=
202311050350 METAR ESMX 050350Z AUTO 11007KT 070V150 9999 OVC008/// 07/07 Q0981=
202311050320 METAR ESMX 050320Z AUTO 12007KT 060V170 9999 OVC007/// 07/07 Q0982=
202311050250 METAR ESMX 050250Z AUTO 11006KT 060V150 9999 BKN008/// OVC044/// 07/07 Q0982=
202311050220 METAR ESMX 050220Z AUTO 11006KT 070V170 9999 BKN008/// BKN041/// 07/06 Q0982=
202311050150 METAR ESMX 050150Z AUTO 12005KT 070V200 9999 OVC008/// 07/06 Q0983=
202311050120 METAR ESMX 050120Z AUTO 13005KT 060V150 9999 BKN009/// OVC013/// 07/06 Q0983=
202311050050 METAR ESMX 050050Z AUTO 11004KT 030V190 9999 FEW012/// BKN034/// 06/06 Q0983=
202311050020 METAR ESMX 050020Z AUTO 11004KT 060V150 9999 SCT010/// OVC036/// 06/06 Q0983=
202311042350 METAR ESMX 042350Z AUTO 13005KT 9999 FEW011/// OVC034/// 07/06 Q0984=
202311042320 METAR ESMX 042320Z AUTO 12003KT 060V180 9999 OVC036/// 07/06 Q0984=
202311042250 METAR ESMX 042250Z AUTO 11004KT 080V150 9999 OVC032/// 07/06 Q0984=
202311042220 METAR ESMX 042220Z AUTO 13005KT 100V170 9999 FEW023/// OVC034/// 07/06 Q0985=
202311042150 METAR ESMX 042150Z AUTO 13005KT 090V170 9999 FEW008/// OVC033/// 07/06 Q0985=
202311042120 METAR ESMX 042120Z AUTO 13005KT 070V160 9999 FEW006/// SCT008/// OVC033/// 06/06 Q0985=
202311042050 METAR ESMX 042050Z AUTO 14006KT 100V170 9999 OVC032/// 06/06 Q0985=
202311042020 METAR ESMX 042020Z AUTO 14006KT 9999 OVC033/// 06/06 Q0985=
202311041950 METAR ESMX 041950Z AUTO 14006KT 9999 OVC034/// 07/06 Q0985=
202311041920 METAR ESMX 041920Z AUTO 14006KT 9999 OVC034/// 06/06 Q0985=
202311041850 METAR ESMX 041850Z AUTO 15005KT 9999 OVC032/// 07/06 Q0985=
202311041820 METAR ESMX 041820Z AUTO 16006KT 9999 OVC027/// 07/06 Q0986=
202311041750 METAR ESMX 041750Z AUTO 17008KT 9999 FEW014/// OVC020/// 07/06 Q0986=
202311041720 METAR ESMX 041720Z AUTO 17007KT 9999 OVC015/// 07/06 Q0985=
202311041650 METAR ESMX 041650Z AUTO 19006KT 9999 SCT015/// OVC020/// 07/06 Q0985=
202311041620 METAR ESMX 041620Z AUTO 17011KT 9999 FEW010/// OVC013/// 07/06 Q0985=
202311041550 METAR ESMX 041550Z AUTO 17007KT 9999 BKN008/// OVC011/// 07/07 Q0985=
202311041520 METAR ESMX 041520Z AUTO 19008KT 9999 FEW007/// SCT009/// OVC013/// 08/08 Q0985=
202311041450 METAR ESMX 041450Z AUTO 19009KT 9999 BKN004/// BKN006/// OVC012/// 08/08 Q0985 RESHUP REDZ=
202311041420 METAR ESMX 041420Z AUTO 21007KT 8000 SCT004/// BKN007/// OVC009/// 08/08 Q0984=
202311041350 METAR ESMX 041350Z AUTO 21010KT 5000 BR OVC005/// 08/08 Q0984 REDZ REUP=
202311041320 METAR ESMX 041320Z AUTO 20007KT 9000 OVC004/// 08/08 Q0984=
202311041250 METAR ESMX 041250Z AUTO 21009KT 9000 OVC004/// 08/08 Q0984=
202311041220 METAR ESMX 041220Z AUTO 20008KT 9999 BKN004/// OVC006/// 08/08 Q0983 RESHUP RERA=
202311041150 METAR ESMX 041150Z AUTO 22008KT 9999 OVC005/// 08/08 Q0983=
202311041120 METAR ESMX 041120Z AUTO 22007KT 9999 -RA OVC004/// 08/08 Q0983 REDZ REUP=
202311041050 METAR ESMX 041050Z AUTO 22006KT 5000 BR OVC002/// 08/08 Q0983=
202311041020 METAR ESMX 041020Z AUTO 21006KT 1300 R01/1700N R19/P2000N BR OVC001/// 08/08 Q0983=
202311040950 METAR ESMX 040950Z AUTO 21004KT 2300 BR OVC001/// 07/07 Q0983 RERA=
202311040920 METAR ESMX 040920Z AUTO 22004KT 3800 BR OVC001/// 07/07 Q0983 REDZ=
202311040850 METAR ESMX 040850Z 25003KT 210V280 1800 -RA BKN002 06/06 Q0983=
202311040820 METAR ESMX 040820Z 26003KT 230V300 2100 BR BKN002 06/06 Q0983=
202311040750 METAR ESMX 040750Z AUTO 26003KT 9999 OVC001/// 06/06 Q0983=
202311040720 METAR ESMX 040720Z 26004KT 4900 BKN002 05/05 Q0983=
202311040650 METAR ESMX 040650Z AUTO 23004KT 0900 R01/P2000D R19/P2000N OVC001/// 05/05 Q0983=
202311040620 METAR ESMX 040620Z VRB02KT 6000 BR BKN002 05/05 Q0983=
202311040550 METAR ESMX 040550Z 26004KT 0550 R01/1600U R19/P2000N FG VV002 05/05 Q0983=
202311040520 METAR ESMX 040520Z AUTO 24003KT 0250 R01/0900U R19/1000N FG OVC001/// 05/05 Q0983=
202311040450 METAR ESMX 040450Z AUTO VRB02KT 0250 R01/1000N R19/0800N FG OVC001/// 05/05 Q0983=
202311040420 METAR ESMX 040420Z AUTO 27005KT 0300 R01/1000N R19/1200N FG BKN001/// 05/05 Q0983=
202311040350 METAR ESMX 040350Z AUTO 27003KT 0250 R01/1000U R19/1000U FG OVC001/// 05/05 Q0983=
202311040320 METAR ESMX 040320Z AUTO 26004KT 0100 R01/0450N R19/0600N FG VV002 05/05 Q0983=
202311040250 METAR ESMX 040250Z AUTO 26001KT 0100 R01/0400N R19/0650N FG OVC001/// 05/05 Q0984=
202311040220 METAR ESMX 040220Z AUTO VRB01KT 0150 R01/0600N R19/0750N FG OVC001/// 05/05 Q0984=
202311040150 METAR ESMX 040150Z AUTO 16002KT 0250 R01/0900D R19/0700N FG OVC001/// 05/05 Q0984=
202311040120 METAR ESMX 040120Z AUTO 16002KT 0250 R01/0900D R19/1000D FG OVC001/// 05/05 Q0984=
202311040050 METAR ESMX 040050Z VRB02KT 0200 R01/0800N R19/0900N FG VV002 06/06 Q0984=
202311040020 METAR ESMX 040020Z VRB02KT 0100 R01/0400N R19/0500N FG FEW001 BKN002 06/06 Q0985=
202311032350 METAR ESMX 032350Z 00000KT 0100 R01/0450N R19/0550N FG VV002 06/06 Q0985=
202311032320 METAR ESMX 032320Z AUTO 33002KT 0200 R01/0750N R19/0650N FG VV002 06/06 Q0985=
202311032250 METAR ESMX 032250Z AUTO 00000KT 0100 R01/0500N R19/0550N FG VV002 06/06 Q0985=
202311032220 METAR ESMX 032220Z AUTO 21003KT 0150 R01/0550N R19/0550N FG VV001 07/07 Q0986=
202311032150 METAR ESMX 032150Z AUTO 20003KT 0200 R01/0650N R19/0900D FG OVC001/// 07/07 Q0986=
202311032120 METAR ESMX 032120Z AUTO 22003KT 0500 R01/1700D R19/P2000N FG OVC002/// 07/07 Q0986=
202311032050 METAR ESMX 032050Z AUTO 00000KT 0200 R01/1100U R19/0700N FG BKN003/// 06/06 Q0986=
202311032020 METAR ESMX 032020Z AUTO 16002KT 0500 R01/P2000N R19/1500D BR FEW004/// SCT012/// BKN015/// 07/07 Q0986=
202311031950 METAR ESMX 031950Z AUTO 16003KT 6000 BKN012/// 08/08 Q0986=
202311031920 METAR ESMX 031920Z AUTO 16003KT 6000 NCD 07/07 Q0986=
202311031850 METAR ESMX 031850Z AUTO 16003KT 2000 SCT006/// 07/07 Q0986=
202311031820 METAR ESMX 031820Z AUTO 16003KT 0300 R01/P2000N R19/1200U FG SCT006/// 07/07 Q0986=
202311031750 METAR ESMX 031750Z AUTO 16002KT 0550 R01/P2000N R19/1400U BR SCT006/// BKN008/// 08/08 Q0986=
202311031720 METAR ESMX 031720Z AUTO 16003KT 0250 R01/P2000N R19/1100N BR BKN007/// BKN009/// 07/07 Q0986=
202311031650 METAR ESMX 031650Z AUTO 15002KT 0350 R01/P2000N R19/1400N BR NCD 08/08 Q0986=
202311031620 METAR ESMX 031620Z AUTO 16003KT 9999 FEW013/// 08/08 Q0986=
202311031550 METAR ESMX 031550Z AUTO 16003KT 9999 FEW012/// BKN015/// 09/09 Q0986=
202311031520 METAR ESMX 031520Z 14004KT 100V170 9999 FEW007 BKN009 BKN012 09/09 Q0986=
202311031450 METAR ESMX 031450Z 14005KT 9999 FEW009 SCT015 10/09 Q0986=
202311031420 METAR ESMX 031420Z 16004KT 9999 SCT009 BKN017 10/10 Q0986=
202311031350 METAR ESMX 031350Z 14005KT 9999 FEW005 SCT009 BKN018 10/10 Q0985=
202311031320 METAR ESMX 031320Z 14005KT 110V170 9999 BKN005 10/10 Q0985=
202311031250 METAR ESMX 031250Z 15005KT 9999 BKN004 10/10 Q0985=
202311031220 METAR ESMX 031220Z 16006KT 9000 BKN004 10/10 Q0985=
202311031150 METAR ESMX 031150Z 14005KT 110V170 6000 BKN003 10/10 Q0985=
202311031120 METAR ESMX 031120Z 15005KT 110V170 3600 BR BKN003 10/10 Q0984=
202311031050 METAR ESMX 031050Z 14004KT 9999 BKN003 10/10 Q0984=
202311031020 METAR ESMX 031020Z 14004KT 9999 BKN004 10/10 Q0985=
202311030950 METAR ESMX 030950Z 14007KT 9999 BKN004 10/10 Q0985=
202311030920 METAR ESMX 030920Z 11006KT 070V150 9999 BKN005 09/09 Q0985=
202311030850 METAR ESMX 030850Z 13004KT 070V170 9999 BKN004 09/09 Q0984=
202311030820 METAR ESMX 030820Z 09005KT 030V150 9000 DZ BKN004 09/09 Q0984=
202311030750 METAR ESMX 030750Z 12005KT 060V150 9999 DZ BKN005 09/09 Q0985=
202311030720 METAR ESMX 030720Z 12005KT 030V150 9000 -RA BKN005 09/09 Q0985=
202311030650 METAR ESMX 030650Z 12005KT 060V200 9000 -RA BKN005 09/09 Q0985=
202311030620 METAR ESMX 030620Z 11004KT 030V150 9999 -RA BKN005 09/09 Q0985=
202311030550 METAR ESMX 030550Z VRB05KT 8000 -RA FEW002 BKN006 09/09 Q0985=
202311030520 METAR ESMX 030520Z 11004KT 060V160 9000 -RA BKN006 09/09 Q0985=
202311030450 METAR ESMX 030450Z AUTO 07005KT 020V120 9999 -DZ OVC007/// 09/09 Q0985=
202311030420 METAR ESMX 030420Z AUTO 11005KT 070V160 9999 OVC008/// 09/09 Q0986=
202311030350 METAR ESMX 030350Z AUTO 12006KT 080V160 9999 OVC008/// 09/09 Q0987=
202311030320 METAR ESMX 030320Z AUTO 11004KT 060V140 9999 SCT009/// BKN110/// BKN190/// 09/09 Q0986=
202311030250 METAR ESMX 030250Z AUTO 09003KT 020V150 9999 SCT008/// BKN062/// BKN096/// 09/09 Q0986 REDZ=
202311030220 METAR ESMX 030220Z AUTO 10006KT 040V140 9999 OVC008/// 10/09 Q0987=
202311030150 METAR ESMX 030150Z AUTO 09006KT 040V150 9999 OVC008/// 10/09 Q0987=
202311030120 METAR ESMX 030120Z AUTO 09004KT 040V140 9999 OVC008/// 10/09 Q0987=
202311030050 METAR ESMX 030050Z 09004KT 020V190 9999 BKN008 10/09 Q0988=
202311030020 METAR ESMX 030020Z 09005KT 050V140 9999 BKN008 09/09 Q0988=
202311022350 METAR ESMX 022350Z 10004KT 050V160 9999 BKN008 09/09 Q0989=
202311022320 METAR ESMX 022320Z 09004KT 030V150 9999 BKN008 09/09 Q0989=
202311022250 METAR ESMX 022250Z 08004KT 340V130 9999 BKN008 09/09 Q0989=
202311022220 METAR ESMX 022220Z 10003KT 360V160 9999 SCT008 BKN024 09/09 Q0990=
202311022150 METAR ESMX 022150Z 10004KT 060V140 9999 BKN009 09/09 Q0990=
202311022120 METAR ESMX 022120Z 11006KT 050V150 9999 SCT010 BKN032 10/09 Q0990=
202311022050 METAR ESMX 022050Z 11006KT 050V140 9999 BKN009 10/09 Q0991=
202311022020 METAR ESMX 022020Z 11006KT 030V160 9999 BKN009 10/09 Q0991=
202311021950 METAR ESMX 021950Z VRB06KT 9999 BKN009 10/09 Q0991=
202311021920 METAR ESMX 021920Z 11005KT 050V150 9999 BKN009 09/09 Q0991=
202311021850 METAR ESMX 021850Z 10007KT 050V160 9999 BKN008 09/09 Q0991=
202311021820 METAR ESMX 021820Z 10006KT 050V150 9999 BKN008 09/09 Q0991=
202311021750 METAR ESMX 021750Z 10006KT 050V150 9999 BKN008 09/09 Q0992=
202311021720 METAR ESMX 021720Z 11006KT 060V140 9999 BKN008 09/09 Q0992=
202311021650 METAR ESMX 021650Z 11006KT 050V150 9999 BKN008 09/09 Q0992=
202311021620 METAR ESMX 021620Z 11005KT 060V140 9999 BKN009 09/09 Q0992=
202311021550 METAR ESMX 021550Z 10005KT 060V140 9999 BKN007 09/09 Q0992=
202311021520 METAR ESMX 021520Z 10005KT 050V140 9999 BKN008 09/09 Q0992=
202311021450 METAR ESMX 021450Z 11006KT 060V150 9999 BKN008 10/09 Q0993=
202311021420 METAR ESMX 021420Z 11006KT 030V150 9999 BKN009 10/09 Q0993=
202311021350 METAR ESMX 021350Z VRB05KT 9999 BKN008 10/10 Q0993=
202311021320 METAR ESMX 021320Z 11005KT 070V160 9999 BKN008 BKN011 10/10 Q0993=
202311021250 METAR ESMX 021250Z 12006KT 060V170 9999 BKN008 10/09 Q0993=
202311021220 METAR ESMX 021220Z 12006KT 070V160 9999 BKN007 10/10 Q0993=
202311021150 METAR ESMX 021150Z 12007KT 070V150 9999 BKN006 10/10 Q0994=
202311021120 METAR ESMX 021120Z 13007KT 100V160 9999 BKN006 10/10 Q0994=
202311021050 METAR ESMX 021050Z 13006KT 070V170 9999 BKN005 09/09 Q0994=
202311021020 METAR ESMX 021020Z AUTO 13007KT 090V160 8000 OVC004/// 09/09 Q0995=
202311020950 METAR ESMX 020950Z AUTO 13008KT 090V160 4700 OVC002/// 09/09 Q0995=
202311020920 METAR ESMX 020920Z AUTO 12006KT 070V160 1000 R01/1200U R19/1400U FG OVC001/// 09/09 Q0995=
202311020850 METAR ESMX 020850Z AUTO 12005KT 080V150 0350 R01/0750N R19/0900N FG BKN001/// OVC002/// 09/09 Q0995=
202311020820 METAR ESMX 020820Z AUTO 13005KT 100V160 0300 R01/0700N R19/0900N FG BKN001/// OVC002/// 09/09 Q0995=
202311020750 METAR ESMX 020750Z AUTO 13006KT 100V170 0350 R01/0800N R19/1000N FG OVC001/// 08/08 Q0996=
202311020720 METAR ESMX 020720Z AUTO 12006KT 080V160 0500 R01/1000N R19/1500N FG OVC001/// 08/08 Q0996=
202311020650 METAR ESMX 020650Z AUTO 13005KT 080V150 0450 R01/1000N R19/1500N FG OVC001/// 08/08 Q0996=
202311020620 METAR ESMX 020620Z AUTO 13005KT 080V170 0300 R01/0900N R19/1300N FG SCT001/// OVC002/// 08/08 Q0996=
202311020550 METAR ESMX 020550Z AUTO 14005KT 100V160 0300 R01/0900N R19/1100N FG VV002 08/08 Q0996=
202311020520 METAR ESMX 020520Z AUTO 13006KT 090V160 0300 R01/1000N R19/1400N FG BKN001/// OVC002/// 07/07 Q0996=
202311020450 METAR ESMX 020450Z AUTO 14005KT 0500 R01/1500D R19/P2000N FG OVC001/// 07/07 Q0996=
202311020420 METAR ESMX 020420Z AUTO 13005KT 080V140 0900 R01/P2000N R19/P2000N FG OVC001/// 06/06 Q0997=
202311020350 METAR ESMX 020350Z AUTO 12005KT 070V170 0550 R01/1600U R19/P2000N FG OVC001/// 06/06 Q0997=
202311020320 METAR ESMX 020320Z AUTO 12006KT 080V150 0550 R01/1600N R19/P2000N FG OVC001/// 06/06 Q0997=
202311020250 METAR ESMX 020250Z AUTO 12005KT 070V160 0550 R01/1600D R19/P2000N FG OVC001/// 06/06 Q0997=
202311020220 METAR ESMX 020220Z AUTO 12005KT 060V150 1200 R01/P2000N R19/P2000N BR OVC001/// 05/05 Q0998=
202311020150 METAR ESMX 020150Z AUTO 13007KT 080V150 1600 BR OVC002/// 05/05 Q0998=
202311020120 METAR ESMX 020120Z AUTO 12005KT 070V140 4600 BR OVC003/// 05/05 Q0998=
202311020050 METAR ESMX 020050Z 11006KT 070V150 9999 BKN003 04/04 Q0999=
202311020020 METAR ESMX 020020Z 11006KT 050V150 7000 BKN003 04/04 Q0999=
202311012350 METAR ESMX 012350Z 12006KT 080V140 9000 -RA BKN004 03/03 Q1000=
202311012320 METAR ESMX 012320Z 11005KT 070V150 9000 -DZ BKN003 03/03 Q1000=
202311012250 METAR ESMX 012250Z 12005KT 060V140 5000 -RADZ BKN003 02/02 Q1000=
202311012220 METAR ESMX 012220Z 11005KT 060V160 6000 -RA BKN005 02/02 Q1001=
202311012150 METAR ESMX 012150Z 10005KT 030V150 6000 -RA FEW006 BKN009 02/02 Q1001=
202311012120 METAR ESMX 012120Z 10004KT 030V140 9000 -DZ BKN011 02/01 Q1002=
202311012050 METAR ESMX 012050Z VRB03KT 9999 SCT014 BKN028 01/01 Q1002=
202311012020 METAR ESMX 012020Z VRB03KT 9999 BKN006 01/01 Q1003=
202311011950 METAR ESMX 011950Z 10003KT 050V220 9999 BKN005 01/01 Q1003=
202311011920 METAR ESMX 011920Z 12004KT 060V170 9999 BKN004 01/01 Q1003=
202311011850 METAR ESMX 011850Z 11004KT 070V190 9999 BKN004 01/01 Q1003=
202311011820 METAR ESMX 011820Z 12004KT 9999 BKN004 01/01 Q1003=
202311011750 METAR ESMX 011750Z 11003KT 070V150 9999 BKN005 01/00 Q1004=
202311011720 METAR ESMX 011720Z 13005KT 100V170 9999 BKN005 01/00 Q1004=
202311011650 METAR ESMX 011650Z 15004KT 9999 BKN006 01/01 Q1004=
202311011620 METAR ESMX 011620Z AUTO VRB02KT 9999 OVC006/// 01/01 Q1004=
202311011550 METAR ESMX 011550Z AUTO 19004KT 9999 OVC007/// 01/00 Q1004=
202311011520 METAR ESMX 011520Z AUTO 17003KT 100V220 9999 OVC006/// 01/00 Q1004=
202311011450 METAR ESMX 011450Z AUTO VRB03KT 9999 OVC007/// 01/00 Q1004=
202311011420 METAR ESMX 011420Z AUTO 21004KT 9999 OVC007/// 01/00 Q1004=
202311011350 METAR ESMX 011350Z AUTO 22004KT 170V250 9999 OVC007/// 01/00 Q1004=
202311011320 METAR ESMX 011320Z AUTO 22003KT 190V250 9999 OVC007/// 02/01 Q1005=
202311011250 METAR ESMX 011250Z AUTO 23006KT 190V260 9999 OVC008/// 01/00 Q1005=
202311011220 METAR ESMX 011220Z AUTO 22005KT 9999 OVC008/// 02/01 Q1005=
