##########################################################
# Query made at 04/19/2024 22:33:15 UTC
# Time interval: from 08/01/2023 12:00  to 08/31/2023 12:59  UTC
##########################################################

##########################################################
# ESMX, Vaxjo (Sweden)
# WMO index: 02641. WIGOS ID: 0-20000-0-02648
# Latitude 56-51N. Longitude 014-50E. Altitude 199 m.
##########################################################

202308311250 METAR ESMX 311250Z VRB03KT 9999 DZ BKN006 15/14 Q1006=
202308311220 METAR ESMX 311220Z VRB02KT 9999 -RA SCT006 BKN062 15/14 Q1006=
202308311150 METAR ESMX 311150Z 15003KT 9999 -RA FEW003 SCT031 BKN066 15/14 Q1006=
202308311120 METAR ESMX 311120Z VRB02KT 9000 RA FEW002 SCT008 BKN020 15/14 Q1006 REDZ=
202308311050 METAR ESMX 311050Z 09004KT 050V130 9999 -RA SCT014 BKN018 16/14 Q1005=
202308311020 METAR ESMX 311020Z VRB02KT 9999 -DZ BKN035 17/13 Q1005=
202308310950 METAR ESMX 310950Z VRB03KT 9999 SCT038 BKN048 17/13 Q1005=
202308310920 METAR ESMX 310920Z VRB01KT 9999 FEW033 17/13 Q1005=
202308310850 METAR ESMX 310850Z 00000KT 9999 -DZ FEW048 16/14 Q1006=
202308310820 METAR ESMX 310820Z VRB01KT CAVOK 16/14 Q1006=
202308310750 METAR ESMX 310750Z VRB02KT CAVOK 16/14 Q1005=
202308310720 METAR ESMX 310720Z VRB02KT CAVOK 15/14 Q1005=
202308310650 METAR ESMX 310650Z VRB02KT CAVOK 15/14 Q1005=
202308310620 METAR ESMX 310620Z VRB01KT 9999 SCT003 15/15 Q1005=
202308310550 METAR ESMX 310550Z 03003KT 8000 VV002 14/14 Q1005=
202308310520 METAR ESMX 310520Z 00000KT 6000 BCFG VV002 13/13 Q1005=
202308310450 METAR COR ESMX 310450Z 00000KT 0800 R01/1600D R19/P2000N BCFG VV002 12/12 Q1005=
202308310420 METAR ESMX 310420Z 00000KT 0500 R01/0325N R19/P2000N BCFG VV002 11/11 Q1005=
202308310350 METAR COR ESMX 310350Z 00000KT 0700 FG VV002 11/11 Q1005=
202308310320 METAR ESMX 310320Z AUTO 00000KT 9999 BCFG FEW120/// OVC150/// 11/11 Q1005=
202308310250 METAR ESMX 310250Z AUTO 00000KT 0600 R01/P2000N R19/P2000N BR SCT004/// BKN120/// OVC140/// 12/12 Q1005=
202308310220 METAR ESMX 310220Z AUTO 00000KT 9999 FEW004/// BKN120/// OVC140/// 12/12 Q1005=
202308310150 METAR ESMX 310150Z AUTO 00000KT 9999 FEW038/// BKN098/// OVC140/// 12/12 Q1005=
202308310120 METAR ESMX 310120Z AUTO 20001KT 9999 FEW036/// OVC098/// 12/12 Q1006=
202308310050 METAR ESMX 310050Z AUTO 00000KT 9999 FEW064/// BKN098/// OVC140/// 12/12 Q1006=
202308310020 METAR ESMX 310020Z AUTO 00000KT 2700 BCFG BKN062/// OVC130/// 13/13 Q1006=
202308302350 METAR ESMX 302350Z AUTO 00000KT 3100 OVC130/// 13/13 Q1005=
202308302320 METAR COR ESMX 302320Z 00000KT CAVOK 13/13 Q1005=
202308302250 METAR ESMX 302250Z AUTO 00000KT 0450 R01/P2000N R19/1600D OVC130/// 13/13 Q1006=
202308302220 METAR ESMX 302220Z AUTO 00000KT 9999 BKN098/// OVC130/// 13/13 Q1006=
202308302150 METAR ESMX 302150Z AUTO 18002KT 9999 OVC098/// 14/14 Q1006=
202308302120 METAR ESMX 302120Z AUTO 18005KT 9999 OVC100/// 14/14 Q1006=
202308302050 METAR ESMX 302050Z 18004KT CAVOK 15/14 Q1006=
202308302020 METAR ESMX 302020Z 18004KT CAVOK 15/14 Q1006=
202308301950 METAR ESMX 301950Z VRB03KT CAVOK 15/14 Q1006=
202308301920 METAR ESMX 301920Z AUTO 11003KT 9999 OVC098/// 15/14 Q1006=
202308301850 METAR ESMX 301850Z AUTO 00000KT 9999 OVC100/// 15/14 Q1006=
202308301820 METAR ESMX 301820Z AUTO 00000KT 9999 OVC098/// 15/14 Q1006=
202308301750 METAR ESMX 301750Z 30002KT CAVOK 16/14 Q1006=
202308301720 METAR ESMX 301720Z 30003KT CAVOK 17/13 Q1006=
202308301650 METAR ESMX 301650Z 30003KT CAVOK 17/13 Q1006=
202308301620 METAR ESMX 301620Z 30002KT CAVOK 18/13 Q1006=
202308301550 METAR ESMX 301550Z 34003KT CAVOK 18/12 Q1006=
202308301520 METAR ESMX 301520Z 29004KT CAVOK 18/11 Q1006=
202308301450 METAR ESMX 301450Z 33004KT 300V360 CAVOK 18/11 Q1006=
202308301420 METAR ESMX 301420Z 34003KT 300V020 CAVOK 18/11 Q1006=
202308301350 METAR ESMX 301350Z 32003KT 290V360 CAVOK 18/12 Q1006=
202308301320 METAR ESMX 301320Z 36004KT CAVOK 18/11 Q1006=
202308301250 METAR ESMX 301250Z 33005KT 9999 BKN034 18/12 Q1006=
202308301220 METAR ESMX 301220Z 03003KT 330V080 9999 FEW043 18/12 Q1006=
202308301150 METAR ESMX 301150Z 03004KT 350V080 9999 SCT041 18/11 Q1006=
202308301120 METAR ESMX 301120Z 02005KT 340V050 9999 SCT031 BKN042 18/11 Q1006=
202308301050 METAR ESMX 301050Z 34004KT 270V010 9999 FEW036 18/12 Q1006=
202308301020 METAR ESMX 301020Z 04005KT 360V060 9999 SCT029 18/11 Q1006=
202308300950 METAR ESMX 300950Z 02004KT 350V050 9999 FEW027 17/12 Q1006=
202308300920 METAR ESMX 300920Z VRB03KT CAVOK 17/11 Q1006=
202308300850 METAR ESMX 300850Z VRB03KT CAVOK 16/12 Q1006=
202308300820 METAR COR ESMX 300820Z 01004KT 330V040 CAVOK 16/12 Q1006=
202308300750 METAR ESMX 300750Z 01004KT 310V060 CAVOK 16/13 Q1006=
202308300720 METAR ESMX 300720Z VRB03KT CAVOK 15/12 Q1006=
202308300650 METAR ESMX 300650Z 34004KT 9999 FEW033 BKN098 14/12 Q1006=
202308300620 METAR ESMX 300620Z 35004KT 9999 FEW033 OVC098 14/12 Q1006=
202308300550 METAR ESMX 300550Z 34005KT 9999 BKN034 14/13 Q1006=
202308300520 METAR ESMX 300520Z 35003KT 9999 FEW032 OVC098 13/13 Q1006=
202308300450 METAR ESMX 300450Z AUTO VRB03KT 9999 SCT032/// OVC098/// 13/12 Q1006=
202308300420 METAR ESMX 300420Z 33005KT CAVOK 12/12 Q1006=
202308300350 METAR COR ESMX 300350Z 34006KT CAVOK 12/12 Q1006=
202308300320 METAR ESMX 300320Z AUTO 34004KT 9999 OVC098/// 13/12 Q1006=
202308300250 METAR ESMX 300250Z AUTO 34005KT 9999 OVC098/// 13/12 Q1006=
202308300220 METAR ESMX 300220Z AUTO 35004KT 9999 OVC098/// 13/12 Q1007=
202308300150 METAR ESMX 300150Z AUTO 33005KT 9999 OVC100/// 13/12 Q1007=
202308300120 METAR ESMX 300120Z AUTO 32004KT 9999 OVC100/// 13/12 Q1007=
202308300050 METAR ESMX 300050Z AUTO 34003KT 9999 FEW034/// OVC100/// 12/12 Q1007=
202308300020 METAR ESMX 300020Z 34003KT 9999 FEW033 12/12 Q1007=
202308292350 METAR ESMX 292350Z 34001KT 9999 FEW035 12/12 Q1008=
202308292320 METAR ESMX 292320Z 00000KT 9999 SCT037 12/12 Q1008=
202308292250 METAR ESMX 292250Z 34001KT CAVOK 12/12 Q1008=
202308292220 METAR ESMX 292220Z 00000KT CAVOK 12/12 Q1008=
202308292150 METAR ESMX 292150Z 00000KT CAVOK 13/13 Q1008=
202308292120 METAR ESMX 292120Z 00000KT CAVOK 13/13 Q1008=
202308292050 METAR ESMX 292050Z 00000KT CAVOK 13/13 Q1008=
202308292020 METAR ESMX 292020Z 34001KT CAVOK 13/13 Q1008=
202308291950 METAR ESMX 291950Z 00000KT CAVOK 13/13 Q1009=
202308291920 METAR ESMX 291920Z AUTO 34002KT 9999 BKN120/// OVC180/// 13/13 Q1009=
202308291850 METAR ESMX 291850Z 00000KT CAVOK 13/13 Q1009=
202308291820 METAR ESMX 291820Z AUTO 34002KT 9999 OVC120/// 14/13 Q1009=
202308291750 METAR ESMX 291750Z AUTO 27002KT 9999 OVC120/// 15/13 Q1009=
202308291720 METAR ESMX 291720Z AUTO VRB01KT 9999 OVC130/// 15/13 Q1009=
202308291650 METAR ESMX 291650Z VRB02KT CAVOK 15/13 Q1009=
202308291620 METAR ESMX 291620Z 24001KT CAVOK 16/13 Q1009=
202308291550 METAR ESMX 291550Z VRB02KT CAVOK 16/12 Q1009=
202308291520 METAR ESMX 291520Z 26003KT CAVOK 17/12 Q1009=
202308291450 METAR ESMX 291450Z 28004KT 230V300 CAVOK 17/12 Q1009=
202308291420 METAR ESMX 291420Z 30004KT CAVOK 17/12 Q1009=
202308291350 METAR ESMX 291350Z 30003KT 260V340 CAVOK 17/12 Q1009=
202308291320 METAR ESMX 291320Z 27003KT 230V310 9999 FEW028 17/11 Q1009=
202308291250 METAR ESMX 291250Z 32004KT 290V360 9999 FEW029 17/12 Q1009=
202308291220 METAR ESMX 291220Z 32004KT 270V350 9999 BKN029 17/11 Q1010=
202308291150 METAR ESMX 291150Z 28005KT 9999 FEW029 17/11 Q1010=
202308291120 METAR ESMX 291120Z 28004KT 250V320 9999 SCT026 17/12 Q1010=
202308291050 METAR ESMX 291050Z 28005KT 250V340 9999 FEW024 17/12 Q1010=
202308291020 METAR ESMX 291020Z 29006KT 260V340 9999 FEW022 17/12 Q1010=
202308290950 METAR ESMX 290950Z 29007KT 260V320 9999 SCT020 16/13 Q1010=
202308290920 METAR ESMX 290920Z 30004KT 260V340 9999 FEW014 BKN016 16/12 Q1010=
202308290850 METAR ESMX 290850Z 30006KT 250V340 9999 FEW010 SCT015 16/13 Q1010=
202308290820 METAR ESMX 290820Z 30006KT 260V330 9999 SCT007 BKN010 15/13 Q1010=
202308290750 METAR ESMX 290750Z 29003KT 240V330 9999 FEW004 BKN006 14/14 Q1010=
202308290720 METAR ESMX 290720Z 28003KT 230V300 9999 BKN003 13/13 Q1010=
202308290650 METAR ESMX 290650Z VRB03KT 0650 R01/1300D R19/1100N FG VV002 11/11 Q1010=
202308290620 METAR ESMX 290620Z 22003KT 0900 R01/P2000N R19/0650N FG VV002 11/11 Q1010=
202308290550 METAR ESMX 290550Z 22002KT 0800 R01/0900U R19/1900D FG VV002 10/10 Q1010=
202308290520 METAR ESMX 290520Z 22003KT 0900 R01/0900U R19/0900U FG VV002 09/09 Q1010=
202308290450 METAR ESMX 290450Z 20003KT 0200 R01/0300N R19/0550N FG VV002 09/09 Q1010=
202308290420 METAR ESMX 290420Z 17003KT 0300 R01/0400N R19/0650N FG VV002 08/08 Q1010=
202308290350 METAR ESMX 290350Z 17003KT 0300 R01/0500N R19/1600D FG VV002 09/09 Q1010=
202308290320 METAR ESMX 290320Z AUTO 19002KT 0200 R01/1400N R19/0650N BCFG BKN001/// 08/08 Q1010=
202308290250 METAR ESMX 290250Z AUTO 19003KT 0200 R01/1500U R19/0450N BCFG VV001 09/09 Q1010=
202308290220 METAR ESMX 290220Z AUTO 23005KT 0350 R01/P2000N R19/1200N VV001 09/09 Q1010=
202308290150 METAR ESMX 290150Z AUTO 21005KT 0350 R01/P2000N R19/P2000N BR NCD 10/10 Q1010=
202308290120 METAR ESMX 290120Z AUTO 21005KT 8000 NCD 09/09 Q1010=
202308290050 METAR ESMX 290050Z AUTO 21004KT 2900 BR NCD 10/10 Q1010=
202308290020 METAR ESMX 290020Z AUTO 22004KT 3200 NCD 10/10 Q1010=
202308282350 METAR ESMX 282350Z 21003KT 9000 R01/P2000N R19/1300N BR NSC 11/11 Q1010=
202308282320 METAR ESMX 282320Z 18003KT 3000 R19/P1500N BCFG NSC 11/11 Q1010=
202308282250 METAR ESMX 282250Z 21003KT CAVOK 11/11 Q1010=
202308282220 METAR ESMX 282220Z 21004KT CAVOK 12/12 Q1010=
202308282150 METAR ESMX 282150Z 22004KT CAVOK 11/11 Q1010=
202308282120 METAR ESMX 282120Z 22004KT CAVOK 11/11 Q1010=
202308282050 METAR ESMX 282050Z 22004KT CAVOK 12/11 Q1010=
202308282020 METAR ESMX 282020Z 22004KT CAVOK 12/12 Q1009=
202308281950 METAR ESMX 281950Z 22005KT CAVOK 12/12 Q1009=
202308281920 METAR ESMX 281920Z 22005KT CAVOK 12/12 Q1009=
202308281850 METAR ESMX 281850Z AUTO 22004KT 9999 NCD 13/12 Q1009=
202308281820 METAR ESMX 281820Z AUTO 23004KT 9999 FEW027/// 14/12 Q1009=
202308281750 METAR ESMX 281750Z AUTO 24005KT 9999 NCD 15/12 Q1008=
202308281720 METAR ESMX 281720Z 25006KT 9999 FEW030 16/12 Q1008=
202308281650 METAR ESMX 281650Z 24007KT 220V280 9999 SCT028 18/13 Q1008=
202308281620 METAR ESMX 281620Z 25006KT 230V290 9999 SCT025 18/13 Q1007=
202308281550 METAR ESMX 281550Z 24006KT 190V280 9999 FEW028 SCT034 18/13 Q1007=
202308281520 METAR ESMX 281520Z 23007KT 210V270 9999 SCT029 BKN048 17/14 Q1007=
202308281450 METAR ESMX 281450Z 23007KT 210V280 CAVOK 18/13 Q1007=
202308281420 METAR ESMX 281420Z 21009KT 9999 FEW026 SCT088 17/13 Q1007=
202308281350 METAR ESMX 281350Z 23008KT 9999 FEW025 18/13 Q1007=
202308281320 METAR ESMX 281320Z 23009KT 9999 FEW025 SCT070 18/13 Q1007=
202308281250 METAR ESMX 281250Z 23009KT 9999 -SHRA FEW025 BKN060 18/13 Q1007=
202308281220 METAR ESMX 281220Z 20008KT 170V230 9999 FEW027 BKN060 17/13 Q1007=
202308281150 METAR ESMX 281150Z AUTO 22007KT 9999 FEW053/// BKN076/// 17/13 Q1007=
202308281120 METAR ESMX 281120Z 26007KT 220V300 9999 FEW027 SCT043 18/12 Q1006=
202308281050 METAR ESMX 281050Z 24008KT 210V280 9999 FEW022 BKN037 17/12 Q1006=
202308281020 METAR ESMX 281020Z 22007KT 190V250 9999 FEW022 SCT033 17/12 Q1006=
202308280950 METAR ESMX 280950Z 24009KT 200V280 9999 FEW017 SCT028 17/13 Q1006=
202308280920 METAR ESMX 280920Z 20008KT 9999 BKN017 BKN023 17/13 Q1006=
202308280850 METAR ESMX 280850Z 22006KT 9999 BKN011 16/13 Q1006=
202308280820 METAR ESMX 280820Z 23007KT 9999 BKN009 BKN012 15/13 Q1006=
202308280750 METAR ESMX 280750Z 19008KT 9999 BKN008 BKN009 15/14 Q1006=
202308280720 METAR ESMX 280720Z 21008KT 9999 SCT007 14/13 Q1006=
202308280650 METAR ESMX 280650Z 18007KT 9999 FEW007 14/12 Q1005=
202308280620 METAR ESMX 280620Z 17006KT CAVOK 13/13 Q1006=
202308280550 METAR ESMX 280550Z 17006KT 9999 FEW034 12/12 Q1005=
202308280520 METAR ESMX 280520Z 14005KT CAVOK 12/12 Q1005=
202308280450 METAR ESMX 280450Z 12003KT CAVOK 12/12 Q1005=
202308280420 METAR ESMX 280420Z 12004KT CAVOK 12/12 Q1005=
202308280350 METAR ESMX 280350Z 13003KT 080V160 CAVOK 12/12 Q1006=
202308280320 METAR ESMX 280320Z AUTO 10004KT 050V140 9999 -RA FEW004/// OVC068/// 13/13 Q1006=
202308280250 METAR ESMX 280250Z AUTO 09004KT 8000 RA OVC066/// 13/13 Q1006=
202308280220 METAR ESMX 280220Z AUTO 22002KT 4800 RA SCT002/// OVC061/// 12/12 Q1007=
202308280150 METAR ESMX 280150Z AUTO 00000KT 2200 RA SCT002/// BKN048/// OVC066/// 12/12 Q1007=
202308280120 METAR ESMX 280120Z AUTO 01003KT 4300 +RA FEW002/// OVC064/// 12/12 Q1007=
202308280050 METAR ESMX 280050Z AUTO VRB02KT 6000 RA BKN001/// OVC031/// 13/13 Q1007=
202308280020 METAR ESMX 280020Z AUTO 31005KT 280V350 9999 -RA FEW002/// SCT006/// BKN009/// 14/14 Q1006 REDZ=
202308272350 METAR ESMX 272350Z AUTO 04003KT 9999 -DZ SCT015/// BKN023/// OVC066/// 14/14 Q1007=
202308272320 METAR ESMX 272320Z AUTO 18003KT 9999 DZ FEW012/// OVC064/// 14/14 Q1007=
202308272250 METAR ESMX 272250Z AUTO 27004KT 9999 -RA FEW004/// SCT013/// BKN020/// 14/14 Q1007 REDZ=
202308272220 METAR ESMX 272220Z AUTO VRB03KT 9999 -RA FEW005/// SCT009/// OVC059/// 15/15 Q1007 REDZ=
202308272150 METAR ESMX 272150Z AUTO 16006KT 9999 SCT005/// BKN013/// BKN024/// 15/15 Q1007=
202308272120 METAR ESMX 272120Z AUTO 16006KT 9999 BKN005/// OVC006/// 15/15 Q1008=
202308272050 METAR ESMX 272050Z AUTO 15006KT 9999 FEW007/// OVC064/// 16/15 Q1008=
202308272020 METAR ESMX 272020Z AUTO 14006KT 9999 OVC059/// 16/15 Q1008=
202308271950 METAR ESMX 271950Z AUTO 14006KT 9999 SCT059/// BKN098/// 16/15 Q1008=
202308271920 METAR ESMX 271920Z AUTO 15005KT 9999 NCD 16/15 Q1008=
202308271850 METAR ESMX 271850Z AUTO 15005KT 9999 NCD 16/15 Q1008=
202308271820 METAR ESMX 271820Z AUTO 15005KT 9999 BKN100/// 17/15 Q1008=
202308271750 METAR ESMX 271750Z AUTO 16006KT 9999 SCT098/// BKN110/// 17/15 Q1008=
202308271720 METAR ESMX 271720Z AUTO 15008KT 9999 FEW098/// BKN120/// 17/15 Q1008=
202308271650 METAR ESMX 271650Z 16006KT 9999 FEW041 18/15 Q1008=
202308271620 METAR ESMX 271620Z 16006KT 9999 FEW041 18/14 Q1009=
202308271550 METAR ESMX 271550Z 17006KT 9999 FEW041 18/14 Q1008=
202308271520 METAR ESMX 271520Z 16006KT 9999 FEW026 BKN190 18/14 Q1008=
202308271450 METAR ESMX 271450Z 16006KT 9999 FEW026 BKN190 18/14 Q1009=
202308271420 METAR ESMX 271420Z 16007KT 9999 SCT028 BKN190 18/14 Q1009=
202308271350 METAR ESMX 271350Z 16008KT 130V190 9999 SCT032 BKN044 19/13 Q1009=
202308271320 METAR ESMX 271320Z 18009KT 130V210 9999 SCT032 BKN042 19/13 Q1009=
202308271250 METAR ESMX 271250Z 18006KT 9999 FEW033 SCT039 BKN150 19/13 Q1009=
202308271220 METAR ESMX 271220Z 20008KT 170V250 9999 FEW033 SCT039 BKN150 19/13 Q1009=
202308271150 METAR ESMX 271150Z 20009KT 9999 BKN030 19/12 Q1009=
202308271120 METAR ESMX 271120Z 21009KT 9999 SCT030 19/13 Q1009=
202308271050 METAR ESMX 271050Z 20011KT 9999 FEW028 19/13 Q1010=
202308271020 METAR ESMX 271020Z 17011KT 9999 SCT025 BKN032 18/13 Q1010=
202308270950 METAR ESMX 270950Z AUTO 18009KT 160V220 9999 SCT023/// BKN033/// 18/13 Q1009=
202308270920 METAR ESMX 270920Z AUTO 21010KT 9999 SCT022/// 17/14 Q1010=
202308270850 METAR ESMX 270850Z AUTO 20008KT 9999 FEW015/// SCT021/// 17/14 Q1010=
202308270820 METAR ESMX 270820Z 19006KT 160V230 9999 SCT010 BKN013 BKN019 17/14 Q1010=
202308270750 METAR ESMX 270750Z 21007KT 9999 SCT008 BKN010 16/15 Q1010=
202308270720 METAR ESMX 270720Z 19007KT 9999 BKN006 15/14 Q1010=
202308270650 METAR ESMX 270650Z 19008KT 9999 BKN005 BKN007 14/14 Q1009=
202308270620 METAR ESMX 270620Z 18007KT 9999 BKN006 BKN020 14/14 Q1009=
202308270550 METAR ESMX 270550Z 17006KT 9999 SCT002 BKN004 BKN029 13/13 Q1009=
202308270520 METAR ESMX 270520Z AUTO 16005KT 4200 OVC001/// 13/13 Q1010=
202308270450 METAR ESMX 270450Z AUTO 20003KT 1600 OVC001/// 12/12 Q1009=
202308270420 METAR ESMX 270420Z AUTO 20005KT 0500 R01/1100N R19/1400D FG OVC001/// 12/12 Q1009=
202308270350 METAR ESMX 270350Z AUTO 19006KT 2400 OVC001/// 13/13 Q1009=
202308270320 METAR ESMX 270320Z AUTO 22004KT 0250 R01/P2000N R19/0900N BCFG BKN003/// 12/12 Q1008=
202308270250 METAR ESMX 270250Z AUTO 22003KT 5000 BR BKN004/// OVC009/// 12/12 Q1008=
202308270220 METAR ESMX 270220Z AUTO 22005KT 9999 OVC004/// 13/13 Q1009=
202308270150 METAR ESMX 270150Z AUTO 22006KT 9999 OVC004/// 13/13 Q1009=
202308270120 METAR ESMX 270120Z AUTO 22008KT 9999 OVC004/// 13/13 Q1008=
202308270050 METAR ESMX 270050Z AUTO 22006KT 9999 FEW004/// 13/13 Q1009=
202308270020 METAR ESMX 270020Z AUTO 22006KT 9999 NCD 13/13 Q1009=
202308262350 METAR ESMX 262350Z AUTO 22005KT 9999 FEW021/// SCT044/// 13/13 Q1009=
202308262320 METAR ESMX 262320Z AUTO 21007KT 160V230 9000 DZ FEW005/// SCT009/// BKN036/// 14/14 Q1009=
202308262250 METAR ESMX 262250Z AUTO 22006KT 9999 FEW026/// BKN037/// OVC047/// 14/14 Q1009 REDZ=
202308262220 METAR ESMX 262220Z AUTO 22006KT 9999 OVC035/// 14/14 Q1009=
202308262150 METAR ESMX 262150Z AUTO 23005KT 9999 FEW008/// OVC033/// 15/15 Q1008=
202308262120 METAR ESMX 262120Z AUTO 23006KT 9999 BKN035/// 14/14 Q1008=
202308262050 METAR ESMX 262050Z AUTO 22007KT 9999 FEW038/// 14/14 Q1008=
202308262020 METAR ESMX 262020Z AUTO 22007KT 9999 FEW010/// BKN038/// 15/15 Q1008=
202308261950 METAR ESMX 261950Z AUTO 22004KT 9999 SCT013/// BKN059/// 15/15 Q1008=
202308261920 METAR ESMX 261920Z AUTO 24004KT 9999 FEW009/// BKN013/// BKN028/// 15/15 Q1007=
202308261850 METAR ESMX 261850Z AUTO 22006KT 9999 BKN011/// 16/16 Q1007=
202308261820 METAR ESMX 261820Z AUTO 25007KT 9999 FEW013/// SCT016/// BKN037/// 16/15 Q1007=
202308261750 METAR ESMX 261750Z AUTO 21010KT 9999 BKN015/// 17/16 Q1006=
202308261720 METAR ESMX 261720Z AUTO 20009KT 170V240 9999 NCD 18/16 Q1006=
202308261650 METAR ESMX 261650Z AUTO 21013KT 9999 FEW029/// 18/16 Q1006=
202308261620 METAR ESMX 261620Z AUTO 21008KT 9999 FEW026/// SCT037/// BKN053/// 19/16 Q1005=
202308261550 METAR ESMX 261550Z 19013KT 9999 SCT018 21/15 Q1005=
202308261520 METAR ESMX 261520Z 16010KT 9999 SCT017 21/18 Q1005=
202308261450 METAR ESMX 261450Z 15010KT 110V170 9999 SCT012 21/19 Q1005=
202308261420 METAR ESMX 261420Z 14009KT 9999 SCT011 20/19 Q1004=
202308261350 METAR ESMX 261350Z 14010KT 110V170 9999 BKN007 20/19 Q1005=
202308261320 METAR ESMX 261320Z 13007KT 090V160 9000 BKN006 19/19 Q1005=
202308261250 METAR ESMX 261250Z AUTO 14006KT 100V170 8000 OVC003/// 19/18 Q1005=
202308261220 METAR ESMX 261220Z AUTO 13005KT 090V150 5000 BR OVC002/// 17/17 Q1005 REDZ=
202308261150 METAR ESMX 261150Z AUTO 14005KT 110V170 4700 BR OVC003/// 17/17 Q1006=
202308261120 METAR ESMX 261120Z AUTO 14006KT 9000 OVC003/// 17/17 Q1006=
202308261050 METAR ESMX 261050Z AUTO VRB03KT 6000 DZ SCT002/// OVC003/// 16/16 Q1006=
202308261020 METAR ESMX 261020Z AUTO 18006KT 120V230 8000 -RA FEW002/// OVC003/// 16/16 Q1006=
202308260950 METAR ESMX 260950Z AUTO 11005KT 060V140 4800 +RA BKN001/// OVC004/// 15/15 Q1006 RERA=
202308260920 METAR ESMX 260920Z AUTO 10004KT 050V130 9999 OVC004/// 15/15 Q1006=
202308260850 METAR ESMX 260850Z 07006KT 040V120 9000 RA FEW002 BKN003 15/15 Q1006=
202308260820 METAR ESMX 260820Z 05005KT 010V100 9000 DZ BKN003 15/15 Q1006=
202308260750 METAR ESMX 260750Z 05006KT 020V080 9000 RA BKN004 15/15 Q1006=
202308260720 METAR ESMX 260720Z 03005KT 9999 BKN005 15/15 Q1007=
202308260650 METAR ESMX 260650Z AUTO 02003KT 340V060 9999 OVC005/// 15/15 Q1007=
202308260620 METAR ESMX 260620Z AUTO 03004KT 9999 -RA OVC005/// 14/14 Q1007 RERA REDZ=
202308260550 METAR ESMX 260550Z AUTO VRB03KT 9999 -DZ BKN004/// OVC008/// 14/14 Q1007=
202308260520 METAR ESMX 260520Z AUTO 04003KT 020V080 9999 SCT004/// BKN009/// OVC098/// 14/14 Q1007=
202308260450 METAR ESMX 260450Z AUTO 04005KT 010V090 9999 BKN003/// OVC130/// 14/14 Q1007=
202308260420 METAR ESMX 260420Z AUTO VRB03KT 9999 OVC004/// 13/13 Q1007=
202308260350 METAR ESMX 260350Z AUTO 03004KT 9999 BKN005/// OVC100/// 14/14 Q1007=
202308260320 METAR ESMX 260320Z AUTO 11002KT 7000 -DZ BKN003/// OVC005/// 14/14 Q1008=
202308260250 METAR ESMX 260250Z AUTO 11002KT 3300 BR SCT002/// BKN005/// OVC098/// 14/14 Q1007=
202308260220 METAR ESMX 260220Z AUTO 10002KT 1200 R01/P2000N R19/P2000N OVC001/// 14/14 Q1008=
202308260150 METAR ESMX 260150Z AUTO VRB02KT 9999 OVC002/// 14/14 Q1008=
202308260120 METAR ESMX 260120Z AUTO 03004KT 9999 OVC002/// 14/14 Q1008=
202308260050 METAR ESMX 260050Z AUTO 22002KT 0700 R01/1900N R19/P2000N FG OVC003/// 14/14 Q1008=
202308260020 METAR ESMX 260020Z AUTO 00000KT 0450 R01/1300D R19/P2000N FG OVC003/// 14/14 Q1008=
202308252350 METAR ESMX 252350Z AUTO 00000KT 0450 R01/1600D R19/P2000N FG OVC002/// 14/14 Q1008=
202308252320 METAR ESMX 252320Z AUTO 33004KT 0150 R01/0650N R19/1000U FG OVC002/// 14/14 Q1008=
202308252250 METAR ESMX 252250Z AUTO 03004KT 0150 R01/0650D R19/0700N FG OVC002/// 15/15 Q1008=
202308252220 METAR ESMX 252220Z AUTO 34003KT 0450 R01/1600U R19/P2000N FG SCT002/// BKN004/// OVC210/// 14/14 Q1008=
202308252150 METAR ESMX 252150Z AUTO 00000KT 0100 R01/0400N R19/1200U FG OVC004/// 14/14 Q1008=
202308252120 METAR ESMX 252120Z AUTO 00000KT 1200 R01/P2000N R19/P2000N FEW005/// SCT021/// BKN031/// 15/15 Q1008=
202308252050 METAR ESMX 252050Z AUTO 00000KT 4600 BKN005/// OVC031/// 15/15 Q1008=
202308252020 METAR ESMX 252020Z AUTO 00000KT 9999 OVC005/// 15/15 Q1008=
202308251950 METAR ESMX 251950Z AUTO 00000KT 9999 OVC005/// 15/15 Q1008=
202308251920 METAR ESMX 251920Z AUTO VRB03KT 9999 OVC004/// 15/15 Q1008 RERA=
202308251850 METAR ESMX 251850Z AUTO VRB02KT 9999 BKN004/// OVC007/// 15/15 Q1008=
202308251820 METAR ESMX 251820Z AUTO VRB02KT 6000 -DZ BKN003/// BKN004/// OVC006/// 15/15 Q1007=
202308251750 METAR ESMX 251750Z AUTO 32004KT 1500 DZ OVC002/// 16/16 Q1008=
202308251720 METAR ESMX 251720Z AUTO 33003KT 290V350 0750 R01/1400N R19/1800N FG OVC001/// 16/16 Q1007=
202308251650 METAR ESMX 251650Z AUTO VRB03KT 1300 R01/P2000N R19/P2000N BR OVC002/// 16/16 Q1007=
202308251620 METAR ESMX 251620Z AUTO 31003KT 4200 BR OVC002/// 16/16 Q1007=
202308251550 METAR ESMX 251550Z AUTO VRB01KT 5000 BR OVC002/// 16/16 Q1007=
202308251520 METAR ESMX 251520Z AUTO VRB01KT 6000 OVC002/// 16/16 Q1007=
202308251450 METAR ESMX 251450Z AUTO VRB02KT 6000 OVC002/// 16/16 Q1007 REDZ=
202308251420 METAR ESMX 251420Z VRB02KT 5000 BR OVC003 15/15 Q1007=
202308251350 METAR ESMX 251350Z VRB02KT 7000 VV003 15/15 Q1007=
202308251320 METAR ESMX 251320Z VRB03KT 5000 -DZ OVC003 15/15 Q1007=
202308251250 METAR ESMX 251250Z AUTO 08003KT 020V110 4300 -RA OVC002/// 15/15 Q1007=
202308251220 METAR ESMX 251220Z AUTO 10004KT 070V150 8000 OVC003/// 15/15 Q1007=
202308251150 METAR ESMX 251150Z AUTO 10004KT 020V140 6000 DZ FEW001/// OVC004/// 14/14 Q1007=
202308251120 METAR ESMX 251120Z AUTO 12004KT 040V140 7000 DZ OVC005/// 14/14 Q1008=
202308251050 METAR ESMX 251050Z AUTO 12004KT 040V140 9999 OVC006/// 14/14 Q1008=
202308251020 METAR ESMX 251020Z AUTO 11004KT 010V150 9999 -RA SCT002/// OVC004/// 14/14 Q1008=
202308250950 METAR ESMX 250950Z 12005KT 070V200 6000 RA BKN003 14/14 Q1008=
202308250920 METAR ESMX 250920Z 11005KT 060V140 9000 -DZ SCT002 BKN004 14/14 Q1008=
202308250850 METAR ESMX 250850Z 11006KT 060V140 8000 RA SCT002 BKN007 14/14 Q1008=
202308250820 METAR ESMX 250820Z 09006KT 060V140 7000 -RA BKN003 13/13 Q1008=
202308250750 METAR ESMX 250750Z 08004KT 030V150 5000 RA BKN003 13/13 Q1008=
202308250720 METAR ESMX 250720Z 11003KT 060V140 6000 RA BKN002 13/13 Q1009=
202308250650 METAR ESMX 250650Z 11004KT 050V170 9999 -RA SCT040 13/13 Q1009=
202308250620 METAR ESMX 250620Z 13004KT 080V170 9000 RA NSC 13/13 Q1009=
202308250550 METAR ESMX 250550Z 14005KT 9999 RA NSC 13/13 Q1010=
202308250520 METAR ESMX 250520Z 13005KT 9000 RA NSC 13/13 Q1010=
202308250450 METAR ESMX 250450Z 00000KT 9999 -RA NSC 13/13 Q1010=
202308250420 METAR ESMX 250420Z VRB02KT CAVOK 13/12 Q1010=
202308250350 METAR ESMX 250350Z 21003KT CAVOK 13/12 Q1010=
202308250320 METAR ESMX 250320Z AUTO 21003KT 9999 OVC084/// 12/12 Q1011=
202308250250 METAR ESMX 250250Z AUTO 21001KT 9999 -RA OVC094/// 11/11 Q1011 REDZ=
202308250220 METAR ESMX 250220Z AUTO 19002KT 9999 BKN098/// 11/11 Q1011=
202308250150 METAR ESMX 250150Z AUTO 17002KT 9999 -RA SCT100/// 11/11 Q1011=
202308250120 METAR ESMX 250120Z AUTO 00000KT 9999 FEW140/// SCT180/// 10/10 Q1011=
202308250050 METAR ESMX 250050Z AUTO 00000KT 9999 BKN190/// 10/09 Q1012=
202308250020 METAR ESMX 250020Z AUTO 00000KT 9999 FEW170/// OVC190/// 09/09 Q1012=
202308242350 METAR ESMX 242350Z 00000KT CAVOK 10/10 Q1012=
202308242320 METAR ESMX 242320Z 22003KT CAVOK 09/09 Q1012=
202308242250 METAR COR ESMX 242250Z 00000KT CAVOK 10/10 Q1013=
202308242220 METAR ESMX 242220Z AUTO 22001KT 9999 FEW140/// 10/10 Q1013=
202308242150 METAR ESMX 242150Z AUTO 22002KT 9999 BKN140/// 12/12 Q1013=
202308242120 METAR ESMX 242120Z 18003KT CAVOK 12/11 Q1013=
202308242050 METAR ESMX 242050Z 23003KT CAVOK 13/12 Q1013=
202308242020 METAR ESMX 242020Z 23003KT CAVOK 13/12 Q1013=
202308241950 METAR ESMX 241950Z 20003KT CAVOK 13/12 Q1013=
202308241920 METAR ESMX 241920Z VRB02KT CAVOK 14/12 Q1014=
202308241850 METAR ESMX 241850Z AUTO 25003KT 9999 NCD 14/11 Q1014=
202308241820 METAR ESMX 241820Z AUTO 26003KT 9999 NCD 15/11 Q1014=
202308241750 METAR ESMX 241750Z AUTO 24004KT 9999 NCD 15/11 Q1014=
202308241720 METAR ESMX 241720Z 24005KT CAVOK 17/11 Q1014=
202308241650 METAR ESMX 241650Z 26004KT CAVOK 18/11 Q1014=
202308241620 METAR ESMX 241620Z 27006KT 240V300 CAVOK 19/10 Q1014=
202308241550 METAR ESMX 241550Z 27007KT 240V300 CAVOK 19/11 Q1014=
202308241520 METAR ESMX 241520Z 28006KT 250V310 9999 FEW037 19/11 Q1014=
202308241450 METAR ESMX 241450Z 24008KT 210V270 9999 FEW037 20/10 Q1014=
202308241420 METAR ESMX 241420Z 23009KT 200V270 9999 FEW039 20/11 Q1014=
202308241350 METAR ESMX 241350Z 24010KT 210V270 9999 FEW036 20/11 Q1014=
202308241320 METAR ESMX 241320Z 27009KT 240V300 9999 BKN036 19/11 Q1014=
202308241250 METAR ESMX 241250Z 23010KT 9999 BKN036 20/12 Q1014=
202308241220 METAR ESMX 241220Z 22012KT 9999 FEW033 21/12 Q1015=
202308241150 METAR ESMX 241150Z 22009KT 190V250 9999 BKN034 20/12 Q1014=
202308241120 METAR ESMX 241120Z 22011KT 190V250 9999 FEW033 20/13 Q1014=
202308241050 METAR ESMX 241050Z 26009KT 210V290 9999 SCT031 19/12 Q1015=
202308241020 METAR ESMX 241020Z 25011KT 210V270 9999 BKN029 19/13 Q1015=
202308240950 METAR ESMX 240950Z 26009KT 210V300 9999 SCT029 17/13 Q1015=
202308240920 METAR COR ESMX 240920Z 21011KT 9999 SCT025 19/13 Q1015=
202308240850 METAR ESMX 240850Z 23009KT 210V280 9999 SCT026 18/13 Q1015=
202308240820 METAR ESMX 240820Z 23008KT 190V260 9999 BKN017 16/13 Q1015=
202308240750 METAR ESMX 240750Z 24009KT 210V280 9999 FEW013 BKN017 17/14 Q1015=
202308240720 METAR ESMX 240720Z 24009KT 210V280 9999 BKN011 BKN017 16/14 Q1015=
202308240650 METAR COR ESMX 240650Z 24008KT 210V280 9999 SCT005 BKN008 16/15 Q1015=
202308240620 METAR ESMX 240620Z 22005KT 200V270 9999 BKN006 BKN030 15/15 Q1015=
202308240550 METAR ESMX 240550Z 21006KT 9999 BKN003 15/15 Q1015=
202308240520 METAR ESMX 240520Z 19005KT 8000 VV002 14/14 Q1015=
202308240450 METAR ESMX 240450Z 22004KT 1000 R01/1500N R19/1300D FG OVC002 14/14 Q1015=
202308240420 METAR ESMX 240420Z 21003KT 0400 R01/0900N R19/P2000N FG VV002 14/14 Q1015=
202308240350 METAR COR ESMX 240350Z VRB01KT 1500 R01/P2000N R19/P2000N BR VV002 13/13 Q1015=
202308240320 METAR ESMX 240320Z AUTO 00000KT 0500 R01/1500N R19/P2000N BCFG BKN003/// 13/13 Q1015=
202308240250 METAR ESMX 240250Z AUTO 22003KT 0250 R01/P2000N R19/0600N BR SCT004/// 13/13 Q1015=
202308240220 METAR ESMX 240220Z AUTO 22003KT 9999 BKN004/// 13/13 Q1015=
202308240150 METAR ESMX 240150Z AUTO 25005KT 210V280 9999 OVC005/// 14/14 Q1015=
202308240120 METAR ESMX 240120Z AUTO 24004KT 200V270 9999 SCT006/// BKN009/// 14/14 Q1015=
202308240050 METAR ESMX 240050Z AUTO 25004KT 230V290 0250 R01/1100U R19/P2000N FG BKN002/// OVC004/// 14/14 Q1015=
202308240020 METAR ESMX 240020Z AUTO 22004KT 0250 R01/1400D R19/1000N FG BKN003/// OVC005/// 14/14 Q1015=
202308232350 METAR ESMX 232350Z AUTO 22005KT 8000 SCT002/// BKN005/// 14/14 Q1015=
202308232320 METAR ESMX 232320Z 22006KT CAVOK 14/14 Q1015=
202308232250 METAR ESMX 232250Z 22004KT CAVOK 13/13 Q1015=
202308232220 METAR ESMX 232220Z 22004KT CAVOK 13/13 Q1015=
202308232150 METAR ESMX 232150Z 22003KT CAVOK 14/14 Q1015=
202308232120 METAR ESMX 232120Z 23004KT CAVOK 14/14 Q1015=
202308232050 METAR COR ESMX 232050Z 23004KT CAVOK 14/14 Q1016=
202308232020 METAR ESMX 232020Z 22004KT CAVOK 15/15 Q1015=
202308231950 METAR ESMX 231950Z 24004KT CAVOK 15/14 Q1015=
202308231920 METAR ESMX 231920Z 22005KT CAVOK 16/15 Q1015=
202308231850 METAR ESMX 231850Z AUTO 23005KT 9999 OVC088/// 16/14 Q1015=
202308231820 METAR ESMX 231820Z AUTO 25006KT 9999 SCT074/// BKN180/// 17/14 Q1015=
202308231750 METAR ESMX 231750Z AUTO 25006KT 210V280 9999 OVC082/// 17/14 Q1015=
202308231720 METAR ESMX 231720Z 26007KT CAVOK 18/14 Q1015=
202308231650 METAR ESMX 231650Z 25008KT 9999 FEW035 BKN082 18/14 Q1015=
202308231620 METAR ESMX 231620Z 25008KT 220V280 9999 SCT034 19/13 Q1015=
202308231550 METAR COR ESMX 231550Z 26008KT 9999 FEW035 19/13 Q1015=
202308231520 METAR ESMX 231520Z AUTO 25008KT 9999 FEW039/// SCT200/// 20/13 Q1015=
202308231450 METAR ESMX 231450Z AUTO 25008KT 210V280 9999 FEW046/// 21/13 Q1015=
202308231420 METAR ESMX 231420Z AUTO 23010KT 200V260 9999 FEW038/// 21/13 Q1015=
202308231350 METAR ESMX 231350Z AUTO 27008KT 230V310 9999 SCT037/// BKN059/// 20/14 Q1015=
202308231320 METAR ESMX 231320Z AUTO 18006KT 140V240 9999 FEW041/// 20/15 Q1015=
202308231250 METAR ESMX 231250Z AUTO 19003KT 9999 -RA FEW002/// SCT027/// OVC051/// 19/16 Q1015=
202308231220 METAR ESMX 231220Z AUTO 21008KT 9999 FEW064/// SCT086/// BKN096/// 20/16 Q1016=
202308231150 METAR ESMX 231150Z AUTO 19008KT 9999 OVC068/// 18/15 Q1016=
202308231120 METAR ESMX 231120Z AUTO 21008KT 9999 BKN062/// BKN094/// 19/15 Q1016=
202308231050 METAR ESMX 231050Z AUTO 22007KT 9999 SCT028/// OVC066/// 19/15 Q1016=
202308231020 METAR ESMX 231020Z AUTO 21006KT 170V250 9999 FEW026/// SCT032/// BKN066/// 20/15 Q1016=
202308230950 METAR ESMX 230950Z AUTO 23007KT 180V280 9999 BKN023/// BKN032/// 19/15 Q1016=
202308230920 METAR ESMX 230920Z AUTO 24005KT 200V280 9999 FEW013/// SCT016/// BKN019/// 19/15 Q1016=
202308230850 METAR ESMX 230850Z 24005KT 200V280 9999 SCT009 BKN012 18/16 Q1017=
202308230820 METAR ESMX 230820Z 27003KT 240V320 9999 BKN004 17/16 Q1017=
202308230750 METAR ESMX 230750Z 26005KT 230V290 9999 BKN003 BKN004 16/16 Q1016=
202308230720 METAR ESMX 230720Z 15003KT 6000 VV002 15/15 Q1016=
202308230650 METAR ESMX 230650Z 15003KT 1800 BR VV002 14/14 Q1016=
202308230620 METAR ESMX 230620Z 15003KT 1700 BR VV002 13/13 Q1016=
202308230550 METAR ESMX 230550Z 20003KT 170V230 1000 R01/1300U R19/1200U FG VV002 13/13 Q1016=
202308230520 METAR ESMX 230520Z 19003KT 0100 R01/0450N R19/0325N FG VV002 13/13 Q1016=
202308230450 METAR ESMX 230450Z VRB03KT 0100 R01/0250N R19/0250N FG VV002 13/13 Q1016=
202308230420 METAR ESMX 230420Z 22004KT 0050 R01/0175N R19/0200N FG VV002 13/13 Q1016=
202308230350 METAR ESMX 230350Z 21004KT 0100 R01/0400N R19/0400N FG VV002 12/12 Q1016=
202308230320 METAR ESMX 230320Z AUTO 21003KT 0050 R01/0275N R19/0550N FG VV002 12/12 Q1016=
202308230250 METAR ESMX 230250Z AUTO 19003KT 0100 R01/0275N R19/0400D FG VV002 13/13 Q1016=
202308230220 METAR ESMX 230220Z AUTO 21004KT 0200 R01/0650N R19/0800D FG VV002 13/13 Q1016=
202308230150 METAR ESMX 230150Z AUTO 21004KT 0350 R01/P2000N R19/1400N FG FEW001/// BKN002/// OVC003/// 13/13 Q1016=
202308230120 METAR ESMX 230120Z AUTO 18003KT 0200 R01/0650N R19/P2000N FG SCT001/// 12/12 Q1016=
202308230050 METAR ESMX 230050Z AUTO 21002KT 1700 BCFG NCD 10/10 Q1016=
202308230020 METAR ESMX 230020Z AUTO 21003KT 0200 R01/0450N R19/P2000N BCFG NCD 10/10 Q1016=
202308222350 METAR ESMX 222350Z AUTO 21001KT 0200 R01/P2000N R19/P2000N BCFG NCD 11/11 Q1017=
202308222320 METAR ESMX 222320Z 21003KT 9000 R01/1100N R19/P2000N BCFG NSC 11/11 Q1017=
202308222250 METAR ESMX 222250Z AUTO 17003KT 9999 FG NCD 11/11 Q1017=
202308222220 METAR ESMX 222220Z 21002KT CAVOK 12/12 Q1017=
202308222150 METAR ESMX 222150Z 19002KT CAVOK 13/13 Q1017=
202308222120 METAR ESMX 222120Z 23003KT CAVOK 13/13 Q1017=
202308222050 METAR ESMX 222050Z VRB02KT CAVOK 14/13 Q1017=
202308222020 METAR ESMX 222020Z 25004KT CAVOK 15/13 Q1017=
202308221950 METAR ESMX 221950Z 24004KT CAVOK 15/13 Q1017=
202308221920 METAR ESMX 221920Z AUTO 25004KT 9999 NCD 15/13 Q1017=
202308221850 METAR ESMX 221850Z AUTO 26005KT 9999 NCD 16/13 Q1017=
202308221820 METAR ESMX 221820Z AUTO 26006KT 9999 NCD 17/13 Q1016=
202308221750 METAR ESMX 221750Z 26007KT 230V290 CAVOK 18/13 Q1016=
202308221720 METAR ESMX 221720Z 26009KT 9999 FEW032 19/13 Q1016=
202308221650 METAR ESMX 221650Z 24008KT 210V280 9999 FEW038 20/12 Q1016=
202308221620 METAR ESMX 221620Z 26008KT 9999 FEW044 20/12 Q1016=
202308221550 METAR COR ESMX 221550Z 27007KT 210V300 9999 FEW045 20/13 Q1016=
202308221520 METAR ESMX 221520Z AUTO 25009KT 230V290 9999 FEW042/// 21/12 Q1016=
202308221450 METAR ESMX 221450Z AUTO 25008KT 9999 FEW036/// 21/13 Q1016=
202308221420 METAR ESMX 221420Z AUTO 26009KT 9999 FEW037/// 21/12 Q1016=
202308221350 METAR ESMX 221350Z AUTO 27009KT 240V310 9999 FEW098/// 21/13 Q1016=
202308221320 METAR ESMX 221320Z AUTO 29010KT 9999 SCT039/// BKN098/// 20/12 Q1016=
202308221250 METAR ESMX 221250Z AUTO 24010KT 9999 SCT036/// BKN120/// 21/13 Q1016=
202308221220 METAR ESMX 221220Z AUTO 25010KT 220V290 9999 SCT037/// OVC110/// 20/12 Q1016=
202308221150 METAR ESMX 221150Z 25009KT 210V280 9999 FEW031 20/13 Q1016=
202308221120 METAR ESMX 221120Z 26009KT 220V300 9999 FEW030 20/14 Q1017=
202308221050 METAR ESMX 221050Z 26008KT CAVOK 19/13 Q1017=
202308221020 METAR ESMX 221020Z 26010KT 9999 FEW033 19/13 Q1017=
202308220950 METAR ESMX 220950Z 26012KT 230V290 9999 FEW031 19/12 Q1017=
202308220920 METAR ESMX 220920Z 26010KT 220V290 9999 SCT027 19/13 Q1017=
202308220850 METAR ESMX 220850Z 26011KT 9999 BKN024 19/14 Q1017=
202308220820 METAR ESMX 220820Z 25009KT 210V280 9999 SCT015 18/15 Q1017=
202308220750 METAR ESMX 220750Z 23008KT 210V270 9999 FEW009 SCT013 17/15 Q1017=
202308220720 METAR ESMX 220720Z 23007KT 9999 BKN006 17/16 Q1017=
202308220650 METAR ESMX 220650Z 23009KT 9999 BKN005 17/16 Q1017=
202308220620 METAR COR ESMX 220620Z 23009KT 9000 BKN003 16/16 Q1017=
202308220550 METAR ESMX 220550Z 23007KT 9999 FEW011 15/15 Q1017=
202308220520 METAR ESMX 220520Z 22006KT 9000 NSC 14/14 Q1017=
202308220450 METAR ESMX 220450Z 21004KT 9000 NSC 14/14 Q1017=
202308220420 METAR ESMX 220420Z 21005KT 8000 NSC 13/13 Q1017=
202308220350 METAR ESMX 220350Z 21005KT 9000 NSC 13/13 Q1018=
202308220320 METAR ESMX 220320Z AUTO 21005KT 9999 FEW210/// 13/13 Q1018=
202308220250 METAR ESMX 220250Z AUTO 22006KT 9999 FEW220/// 12/12 Q1018=
202308220220 METAR ESMX 220220Z AUTO 21005KT 6000 NCD 13/13 Q1018=
202308220150 METAR ESMX 220150Z AUTO 21003KT 0250 R01/P2000N R19/1000N BCFG NCD 12/12 Q1018=
202308220120 METAR ESMX 220120Z AUTO 20004KT 0250 R01/1100U R19/1000D BCFG NCD 11/11 Q1018=
202308220050 METAR ESMX 220050Z AUTO 17003KT 0300 R01/1200D R19/P2000N BCFG NCD 12/12 Q1018=
202308220020 METAR ESMX 220020Z AUTO 18003KT 0300 R01/P2000N R19/P2000N BCFG NCD 12/12 Q1019=
202308212350 METAR ESMX 212350Z 23002KT 0200 R01/P2000N R19/0750D BCFG NSC 13/13 Q1019=
202308212320 METAR ESMX 212320Z 23004KT 0400 R01/P2000N R19/1400U BCFG NSC 13/13 Q1019=
202308212250 METAR ESMX 212250Z 22005KT 8000 BCFG NSC 13/13 Q1019=
202308212220 METAR ESMX 212220Z 22006KT CAVOK 13/13 Q1019=
202308212150 METAR ESMX 212150Z 22006KT CAVOK 14/14 Q1019=
202308212120 METAR ESMX 212120Z 22005KT CAVOK 14/14 Q1019=
202308212050 METAR ESMX 212050Z 22006KT CAVOK 14/14 Q1019=
202308212020 METAR ESMX 212020Z 22006KT CAVOK 15/14 Q1019=
202308211950 METAR ESMX 211950Z 22006KT CAVOK 15/14 Q1019=
202308211920 METAR ESMX 211920Z AUTO 22005KT 9999 NCD 14/13 Q1019=
202308211850 METAR ESMX 211850Z AUTO 22005KT 9999 NCD 15/13 Q1019=
202308211820 METAR ESMX 211820Z 24005KT 9999 NSC 16/13 Q1019=
202308211750 METAR ESMX 211750Z 25007KT 9999 FEW030 18/13 Q1019=
202308211720 METAR ESMX 211720Z 26006KT 9999 FEW030 18/13 Q1019=
202308211650 METAR ESMX 211650Z 26009KT 230V290 9999 SCT039 19/13 Q1019=
202308211620 METAR ESMX 211620Z 25010KT 210V290 9999 FEW033 SCT059 19/13 Q1019=
202308211550 METAR ESMX 211550Z 26010KT 230V290 9999 FEW037 20/13 Q1019=
202308211520 METAR ESMX 211520Z 26009KT 9999 FEW037 20/13 Q1019=
202308211450 METAR ESMX 211450Z 26011KT 210V290 9999 FEW040 21/12 Q1019=
202308211420 METAR ESMX 211420Z 24011KT 210V280 9999 SCT035 21/13 Q1019=
202308211350 METAR ESMX 211350Z 26010KT 9999 FEW035 20/13 Q1019=
202308211320 METAR ESMX 211320Z 24011KT 9999 SCT036 20/13 Q1019=
202308211250 METAR ESMX 211250Z 27011KT 230V300 9999 FEW036 21/14 Q1019=
202308211220 METAR ESMX 211220Z AUTO 27009KT 210V320 9999 FEW036/// 20/13 Q1019=
202308211150 METAR ESMX 211150Z AUTO 27009KT 230V300 9999 FEW032/// 21/13 Q1019=
202308211120 METAR ESMX 211120Z AUTO 27008KT 240V320 9999 FEW030/// SCT210/// 20/13 Q1019=
202308211050 METAR ESMX 211050Z AUTO 26009KT 210V320 9999 BKN032/// BKN062/// 19/13 Q1019=
202308211020 METAR ESMX 211020Z AUTO 23011KT 200V260 9999 SCT032/// 20/14 Q1019=
202308210950 METAR ESMX 210950Z AUTO 26009KT 230V290 9999 FEW028/// SCT051/// 19/13 Q1019=
202308210920 METAR ESMX 210920Z AUTO 27007KT 210V320 9999 NCD 19/13 Q1019=
202308210850 METAR ESMX 210850Z 28010KT 250V310 9999 SCT019 19/14 Q1020=
202308210820 METAR ESMX 210820Z 25007KT 210V300 9999 SCT016 18/15 Q1020=
202308210750 METAR ESMX 210750Z 28007KT 250V310 9999 BKN013 18/15 Q1019=
202308210720 METAR ESMX 210720Z 26008KT 230V290 9999 FEW006 BKN010 17/15 Q1019=
202308210650 METAR ESMX 210650Z 27007KT 9999 BKN004 16/16 Q1019=
202308210620 METAR ESMX 210620Z 27006KT 8000 BKN002 15/15 Q1019=
202308210550 METAR ESMX 210550Z 22004KT 6000 BKN002 15/15 Q1019=
202308210520 METAR ESMX 210520Z 22004KT 2000 BR OVC002 14/14 Q1019=
202308210450 METAR ESMX 210450Z 22004KT 3000 BCFG SCT002 14/14 Q1019=
202308210420 METAR ESMX 210420Z 22003KT 3500 BR FEW003 SCT034 14/14 Q1019=
202308210350 METAR ESMX 210350Z AUTO 27004KT 6000 BKN035/// OVC061/// 14/14 Q1019=
202308210320 METAR ESMX 210320Z AUTO 27002KT 3500 BR SCT041/// BKN059/// OVC084/// 14/14 Q1019=
202308210250 METAR ESMX 210250Z AUTO 00000KT 3900 BR FEW003/// SCT041/// BKN062/// 14/14 Q1019=
202308210220 METAR ESMX 210220Z AUTO 23003KT 9999 FEW004/// BKN078/// OVC094/// 13/13 Q1020=
202308210150 METAR ESMX 210150Z AUTO VRB02KT 9999 OVC004/// 13/13 Q1020=
202308210120 METAR ESMX 210120Z AUTO 26003KT 9999 OVC006/// 14/14 Q1020=
202308210050 METAR ESMX 210050Z AUTO 26004KT 9999 SCT006/// 15/15 Q1020=
202308210020 METAR ESMX 210020Z AUTO 25005KT 220V280 9999 OVC008/// 16/15 Q1020=
202308202350 METAR ESMX 202350Z AUTO 27003KT 240V300 9999 OVC010/// 16/16 Q1020=
202308202320 METAR ESMX 202320Z AUTO 26003KT 9999 OVC011/// 16/15 Q1020=
202308202250 METAR ESMX 202250Z AUTO 27004KT 9999 OVC013/// 16/15 Q1020=
202308202220 METAR ESMX 202220Z AUTO 27004KT 9999 OVC014/// 16/15 Q1020=
202308202150 METAR ESMX 202150Z AUTO 27004KT 9999 OVC012/// 16/15 Q1020=
202308202120 METAR ESMX 202120Z AUTO 27004KT 240V320 9999 BKN011/// OVC014/// 16/15 Q1020=
202308202050 METAR ESMX 202050Z AUTO 24004KT 210V280 9999 SCT015/// 15/15 Q1020=
202308202020 METAR ESMX 202020Z AUTO 24005KT 9999 OVC014/// 15/15 Q1020=
202308201950 METAR ESMX 201950Z AUTO 23003KT 5000 SCT013/// 15/15 Q1020=
202308201920 METAR ESMX 201920Z AUTO 22003KT 9999 FEW012/// 16/16 Q1020=
202308201850 METAR ESMX 201850Z AUTO 25004KT 220V290 9999 FEW012/// 17/16 Q1020=
202308201820 METAR ESMX 201820Z AUTO 27005KT 9999 SCT011/// BKN023/// 18/17 Q1020=
202308201750 METAR ESMX 201750Z AUTO 24007KT 9999 SCT011/// BKN022/// BKN029/// 18/17 Q1020=
202308201720 METAR ESMX 201720Z 25009KT 9999 FEW009 BKN015 19/17 Q1019=
202308201650 METAR ESMX 201650Z 22006KT 9999 SCT021 20/18 Q1019=
202308201620 METAR ESMX 201620Z 22006KT CAVOK 22/18 Q1019=
202308201550 METAR ESMX 201550Z 22007KT 190V250 9999 SCT018 22/18 Q1019=
202308201520 METAR ESMX 201520Z 23007KT 9999 SCT018 22/18 Q1019=
202308201450 METAR ESMX 201450Z 25005KT 220V290 9999 BKN016 23/18 Q1020=
202308201420 METAR ESMX 201420Z 24004KT 210V290 9999 SCT014 BKN020 22/19 Q1020=
202308201350 METAR ESMX 201350Z 21003KT 9999 BKN013 21/19 Q1020=
202308201320 METAR ESMX 201320Z 21002KT 9999 BKN014 21/18 Q1020=
202308201250 METAR ESMX 201250Z 21002KT 9999 BKN015 21/19 Q1020=
202308201220 METAR ESMX 201220Z 34005KT 9999 FEW019 BKN027 21/19 Q1020=
202308201150 METAR ESMX 201150Z VRB03KT 9999 BKN010 22/19 Q1020=
202308201120 METAR ESMX 201120Z 21003KT 9999 SCT008 BKN012 BKN015 21/19 Q1020=
202308201050 METAR ESMX 201050Z 20004KT 160V220 9999 BKN005 OVC008 20/19 Q1020=
202308201020 METAR ESMX 201020Z 21004KT 9999 BKN005 19/19 Q1020=
202308200950 METAR ESMX 200950Z 22005KT 8000 BKN004 19/19 Q1020=
202308200920 METAR ESMX 200920Z 17006KT 9000 BKN005 19/19 Q1020=
202308200850 METAR ESMX 200850Z 16004KT 9999 BKN005 BKN007 19/18 Q1020=
202308200820 METAR ESMX 200820Z 14004KT 8000 BKN003 18/18 Q1020=
202308200750 METAR ESMX 200750Z 14005KT 100V160 2400 BR VV002 18/18 Q1020=
202308200720 METAR ESMX 200720Z 15004KT 120V190 2300 BR VV002 17/17 Q1020=
202308200650 METAR ESMX 200650Z 14005KT 110V170 4100 BR VV002 17/17 Q1020 REDZ=
202308200620 METAR ESMX 200620Z 13003KT 2600 BR VV002 17/17 Q1020=
202308200550 METAR ESMX 200550Z 11003KT 4500 BR VV002 17/17 Q1020=
202308200520 METAR ESMX 200520Z AUTO VRB03KT 3500 -DZ OVC003/// 17/17 Q1020=
202308200450 METAR ESMX 200450Z AUTO 11003KT 070V130 6000 -DZ OVC002/// 17/17 Q1020 RERA=
202308200420 METAR ESMX 200420Z AUTO 09005KT 050V120 4200 BR OVC002/// 17/17 Q1019=
202308200350 METAR ESMX 200350Z AUTO 08005KT 030V120 1800 -RA OVC001/// 17/17 Q1019 REDZ=
202308200320 METAR ESMX 200320Z AUTO 11005KT 070V200 1500 -DZ OVC001/// 17/17 Q1020=
202308200250 METAR ESMX 200250Z AUTO VRB03KT 2400 DZ OVC002/// 17/17 Q1020=
202308200220 METAR ESMX 200220Z AUTO 12003KT 3300 BR OVC002/// 17/17 Q1021=
202308200150 METAR ESMX 200150Z AUTO 08004KT 030V130 2800 BR OVC002/// 17/17 Q1020=
202308200120 METAR ESMX 200120Z AUTO 08004KT 040V120 4300 BR OVC002/// 17/17 Q1020=
202308200050 METAR ESMX 200050Z AUTO 09005KT 030V120 9999 OVC003/// 17/17 Q1020=
202308200020 METAR ESMX 200020Z AUTO 07003KT 010V110 5000 BR OVC002/// 17/17 Q1020=
202308192350 METAR ESMX 192350Z AUTO 06004KT 350V110 4400 BR OVC002/// 17/17 Q1021=
202308192320 METAR ESMX 192320Z AUTO 07005KT 020V120 9999 OVC004/// 17/17 Q1021=
202308192250 METAR ESMX 192250Z AUTO 08004KT 030V120 9999 OVC005/// 17/17 Q1021=
202308192220 METAR ESMX 192220Z AUTO 07005KT 030V110 9999 OVC005/// 17/17 Q1021=
202308192150 METAR ESMX 192150Z AUTO 07006KT 030V120 9999 OVC005/// 17/17 Q1021=
202308192050 METAR ESMX 192050Z AUTO VRB06KT 9999 OVC006/// 17/17 Q1021=
202308192020 METAR ESMX 192020Z AUTO 08006KT 040V120 9999 OVC006/// 18/17 Q1022=
202308191950 METAR ESMX 191950Z AUTO 09004KT 050V130 9999 OVC007/// 18/17 Q1022=
202308191920 METAR ESMX 191920Z AUTO 05007KT 010V100 9999 OVC009/// 18/17 Q1022=
202308191850 METAR ESMX 191850Z AUTO 07007KT 040V100 9999 FEW010/// 18/17 Q1022=
202308191820 METAR ESMX 191820Z AUTO 05007KT 010V080 9999 NCD 19/17 Q1022=
202308191750 METAR ESMX 191750Z AUTO 05007KT 020V080 9999 NCD 20/18 Q1022=
202308191720 METAR ESMX 191720Z AUTO 06006KT 020V100 9999 NCD 22/18 Q1021=
202308191650 METAR ESMX 191650Z AUTO 06007KT 020V090 9999 NCD 22/18 Q1021=
202308191620 METAR ESMX 191620Z AUTO 06006KT 020V090 9999 SCT092/// 22/18 Q1021=
202308191550 METAR ESMX 191550Z AUTO 05006KT 010V080 9999 BKN094/// 23/19 Q1021=
202308191520 METAR ESMX 191520Z AUTO 06006KT 030V090 9999 FEW098/// 23/18 Q1021=
202308191450 METAR ESMX 191450Z AUTO 06007KT 010V100 9999 NCD 23/18 Q1022=
202308191420 METAR ESMX 191420Z AUTO 05007KT 020V100 9999 BKN021/// 23/19 Q1022=
202308191350 METAR ESMX 191350Z AUTO 03007KT 9999 SCT019/// 23/18 Q1022=
202308191320 METAR ESMX 191320Z AUTO 07006KT 020V140 9999 FEW018/// 23/18 Q1022=
202308191250 METAR ESMX 191250Z AUTO 06008KT 030V100 9999 SCT016/// 22/18 Q1022=
202308191220 METAR ESMX 191220Z AUTO 05009KT 020V090 9999 OVC015/// 22/18 Q1022=
202308191150 METAR ESMX 191150Z AUTO 05008KT 020V080 9999 OVC015/// 21/18 Q1022=
202308191120 METAR ESMX 191120Z AUTO 05008KT 020V110 9999 OVC014/// 21/18 Q1022=
202308191050 METAR ESMX 191050Z AUTO 06008KT 030V090 9999 OVC013/// 21/18 Q1022=
202308191020 METAR ESMX 191020Z AUTO 05008KT 010V090 9999 OVC012/// 20/18 Q1022=
202308190950 METAR ESMX 190950Z AUTO 05007KT 020V100 9999 OVC011/// 20/18 Q1023=
202308190920 METAR ESMX 190920Z AUTO 06008KT 020V100 9999 OVC010/// 20/18 Q1022=
202308190850 METAR ESMX 190850Z 06007KT 030V100 9999 BKN010 19/17 Q1022=
202308190820 METAR ESMX 190820Z 07007KT 360V110 9999 BKN010 19/17 Q1022=
202308190750 METAR ESMX 190750Z 07006KT 030V110 9999 BKN009 19/17 Q1022=
202308190720 METAR ESMX 190720Z 06006KT 030V110 9999 BKN007 18/17 Q1022=
202308190650 METAR ESMX 190650Z 06006KT 030V100 9999 BKN007 18/17 Q1022=
202308190620 METAR ESMX 190620Z 07007KT 020V140 9999 BKN006 18/17 Q1022=
202308190550 METAR ESMX 190550Z 06007KT 020V100 9999 BKN006 17/17 Q1022=
202308190520 METAR ESMX 190520Z 07007KT 010V100 9999 BKN006 17/17 Q1022=
202308190450 METAR ESMX 190450Z 06007KT 010V100 9999 BKN005 17/17 Q1022=
202308190420 METAR ESMX 190420Z AUTO 06007KT 030V110 9999 OVC005/// 17/17 Q1022=
202308190350 METAR ESMX 190350Z AUTO 06005KT 340V100 9999 OVC005/// 17/17 Q1022=
202308190320 METAR ESMX 190320Z AUTO 06005KT 030V090 9999 OVC004/// 17/17 Q1022=
202308190250 METAR ESMX 190250Z AUTO 05005KT 020V090 9999 OVC005/// 17/17 Q1022=
202308190220 METAR ESMX 190220Z AUTO 04005KT 360V060 9999 OVC005/// 17/17 Q1022=
202308190150 METAR ESMX 190150Z AUTO 04006KT 9999 OVC005/// 17/17 Q1022=
202308190120 METAR ESMX 190120Z AUTO 04007KT 9999 OVC005/// 17/17 Q1022=
202308190050 METAR ESMX 190050Z 04006KT 020V080 9999 BKN004 17/17 Q1022=
202308190020 METAR ESMX 190020Z 04007KT 020V080 9999 BKN003 17/17 Q1023=
202308182350 METAR ESMX 182350Z 05005KT 020V090 9999 BKN004 17/17 Q1023=
202308182320 METAR COR ESMX 182320Z 06007KT 030V100 9999 BKN005 17/17 Q1023=
202308182250 METAR ESMX 182250Z 05006KT 020V110 9999 BKN007 18/17 Q1023=
202308182220 METAR ESMX 182220Z 05006KT 010V090 9999 BKN008 18/17 Q1023=
202308182150 METAR ESMX 182150Z AUTO 05007KT 010V080 9999 OVC010/// 18/16 Q1023=
202308182120 METAR ESMX 182120Z AUTO 06007KT 360V100 9999 OVC012/// 18/16 Q1023=
202308182050 METAR ESMX 182050Z AUTO 06006KT 030V120 9999 OVC012/// 18/16 Q1023=
202308182020 METAR ESMX 182020Z AUTO 06008KT 030V100 9999 OVC013/// 18/16 Q1023=
202308181950 METAR ESMX 181950Z AUTO 05007KT 010V080 9999 OVC015/// 18/16 Q1023=
202308181920 METAR ESMX 181920Z AUTO 06007KT 010V100 9999 OVC017/// 18/16 Q1023=
202308181850 METAR ESMX 181850Z AUTO 06006KT 030V090 9999 FEW019/// OVC035/// 19/16 Q1023=
202308181820 METAR ESMX 181820Z AUTO 06006KT 020V100 9999 OVC035/// 19/16 Q1023=
202308181750 METAR ESMX 181750Z AUTO 05006KT 020V080 9999 BKN035/// OVC110/// 20/15 Q1023=
202308181720 METAR ESMX 181720Z AUTO 03005KT 350V080 9999 BKN110/// 20/15 Q1023=
202308181650 METAR ESMX 181650Z AUTO 04006KT 360V070 9999 FEW040/// 19/15 Q1023=
202308181620 METAR ESMX 181620Z AUTO 05008KT 020V080 9999 OVC039/// 20/15 Q1023=
202308181550 METAR ESMX 181550Z AUTO 06008KT 9999 BKN041/// OVC048/// 20/14 Q1023=
202308181520 METAR ESMX 181520Z 06008KT 030V110 9999 BKN039 20/14 Q1023=
202308181450 METAR ESMX 181450Z 04010KT 9999 FEW030 BKN040 22/14 Q1023=
202308181420 METAR ESMX 181420Z 06006KT 020V120 9999 FEW032 SCT042 21/15 Q1024=
202308181350 METAR ESMX 181350Z 05009KT 9999 FEW043 BKN061 22/15 Q1024=
202308181320 METAR ESMX 181320Z 06009KT 030V110 9999 FEW033 BKN059 21/15 Q1023=
202308181250 METAR ESMX 181250Z 06007KT 030V100 9999 BKN039 21/15 Q1023=
202308181220 METAR ESMX 181220Z AUTO 05007KT 020V080 9999 OVC036/// 21/15 Q1023=
202308181150 METAR ESMX 181150Z AUTO 04009KT 9999 BKN034/// 22/15 Q1023=
202308181120 METAR ESMX 181120Z AUTO 05009KT 020V090 9999 OVC031/// 22/16 Q1023=
202308181050 METAR ESMX 181050Z AUTO 04009KT 020V090 9999 BKN029/// 22/16 Q1023=
202308181020 METAR ESMX 181020Z AUTO 03009KT 010V070 9999 FEW027/// 21/16 Q1024=
202308180950 METAR ESMX 180950Z 02008KT 350V060 9999 FEW024 BKN082 20/15 Q1024=
202308180920 METAR ESMX 180920Z AUTO 03010KT 9999 SCT084/// BKN098/// 20/16 Q1024=
202308180850 METAR ESMX 180850Z 03011KT 9999 FEW019 BKN072 19/15 Q1024=
202308180820 METAR ESMX 180820Z 03009KT 9999 FEW016 BKN078 19/15 Q1024=
202308180750 METAR ESMX 180750Z AUTO 03008KT 9999 BKN013/// BKN090/// 17/15 Q1024=
202308180720 METAR ESMX 180720Z 04010KT 9999 BKN013 17/15 Q1024=
202308180650 METAR ESMX 180650Z 05010KT 9999 BKN012 17/15 Q1024=
202308180620 METAR ESMX 180620Z 05007KT 010V110 9999 BKN011 17/15 Q1024=
202308180550 METAR ESMX 180550Z 03008KT 360V070 9999 BKN008 17/15 Q1024=
202308180520 METAR ESMX 180520Z 03006KT 9999 BKN007 16/15 Q1024=
202308180450 METAR ESMX 180450Z 02007KT 340V050 9999 BKN006 16/15 Q1025=
202308180420 METAR ESMX 180420Z 03007KT 010V070 9999 OVC005 15/15 Q1025=
202308180350 METAR ESMX 180350Z 03008KT 9999 OVC005 15/15 Q1025=
202308180320 METAR ESMX 180320Z AUTO 03007KT 010V070 9999 OVC005/// 15/15 Q1025=
202308180250 METAR ESMX 180250Z AUTO 04007KT 9999 FEW007/// OVC120/// 15/15 Q1025=
202308180220 METAR ESMX 180220Z AUTO 03005KT 9999 OVC110/// 15/15 Q1025=
202308180150 METAR ESMX 180150Z AUTO 03005KT 9999 OVC130/// 15/15 Q1025=
202308180120 METAR ESMX 180120Z AUTO 05004KT 010V080 9999 FEW076/// BKN140/// 15/15 Q1025=
202308180050 METAR ESMX 180050Z AUTO 04006KT 020V080 9999 -RA OVC100/// 15/14 Q1025=
202308180020 METAR ESMX 180020Z AUTO 03006KT 9999 BKN110/// BKN130/// 15/14 Q1025=
202308172350 METAR ESMX 172350Z AUTO 03006KT 9999 -DZ BKN110/// OVC150/// 15/14 Q1025=
202308172320 METAR ESMX 172320Z 04006KT CAVOK 16/14 Q1025=
202308172250 METAR ESMX 172250Z VRB03KT CAVOK 16/14 Q1025=
202308172220 METAR ESMX 172220Z 06004KT 020V080 CAVOK 16/14 Q1025=
202308172150 METAR ESMX 172150Z 06004KT CAVOK 16/14 Q1025=
202308172120 METAR ESMX 172120Z VRB03KT 9999 FEW038 16/15 Q1025=
202308172050 METAR ESMX 172050Z VRB03KT 9999 SCT038 16/15 Q1025=
202308172020 METAR ESMX 172020Z VRB02KT 9999 FEW047 16/15 Q1025=
202308171950 METAR ESMX 171950Z VRB03KT 9999 SCT031 17/15 Q1025=
202308171920 METAR ESMX 171920Z AUTO 07004KT 040V110 9999 BKN030/// OVC170/// 18/15 Q1025=
202308171850 METAR ESMX 171850Z AUTO 03005KT 350V050 9999 FEW030/// BKN038/// OVC160/// 18/15 Q1024=
202308171820 METAR ESMX 171820Z AUTO 35003KT 9999 FEW038/// OVC190/// 18/15 Q1024=
202308171750 METAR ESMX 171750Z AUTO 34005KT 9999 BKN190/// 19/15 Q1024=
202308171720 METAR ESMX 171720Z AUTO 35007KT 9999 FEW180/// 19/14 Q1024=
202308171650 METAR ESMX 171650Z 35004KT CAVOK 20/14 Q1024=
202308171620 METAR ESMX 171620Z 34005KT CAVOK 20/14 Q1024=
202308171550 METAR ESMX 171550Z 35005KT CAVOK 20/14 Q1024=
202308171520 METAR ESMX 171520Z 35006KT 320V020 CAVOK 20/14 Q1024=
202308171450 METAR ESMX 171450Z 36005KT 320V030 9999 FEW035 21/13 Q1025=
202308171420 METAR ESMX 171420Z 01006KT 330V030 9999 FEW034 20/14 Q1024=
202308171350 METAR ESMX 171350Z 32004KT 280V020 9999 FEW033 20/13 Q1025=
202308171320 METAR ESMX 171320Z 01005KT 330V050 CAVOK 20/12 Q1024=
202308171250 METAR ESMX 171250Z 01005KT CAVOK 20/13 Q1025=
202308171220 METAR ESMX 171220Z 28003KT 240V340 CAVOK 20/13 Q1025=
202308171150 METAR ESMX 171150Z 35005KT 270V020 CAVOK 20/13 Q1025=
202308171120 METAR ESMX 171120Z VRB01KT 9999 BKN031 20/13 Q1025=
202308171050 METAR ESMX 171050Z 01004KT 330V070 9999 SCT027 19/13 Q1025=
202308171020 METAR ESMX 171020Z 35004KT 310V020 9999 BKN025 20/13 Q1025=
202308170950 METAR ESMX 170950Z VRB02KT 9999 BKN026 18/13 Q1025=
202308170920 METAR ESMX 170920Z 32005KT 260V010 9999 BKN023 18/13 Q1025=
202308170850 METAR ESMX 170850Z 29005KT 250V330 9999 BKN023 17/12 Q1025=
202308170820 METAR ESMX 170820Z 32004KT 280V350 9999 SCT022 17/12 Q1025=
202308170750 METAR ESMX 170750Z 29005KT 240V310 9999 BKN021 16/13 Q1025=
202308170720 METAR ESMX 170720Z 33004KT 290V360 9999 BKN022 16/14 Q1025=
202308170650 METAR ESMX 170650Z 01003KT 340V040 9999 BKN023 15/15 Q1024=
202308170620 METAR ESMX 170620Z 22002KT 9999 BKN023 14/14 Q1024=
202308170550 METAR ESMX 170550Z VRB02KT 9999 BKN003 BKN024 14/14 Q1024=
202308170520 METAR ESMX 170520Z 22002KT 6000 BR VV002 14/14 Q1024=
202308170450 METAR ESMX 170450Z 00000KT 0200 R01/0400N R19/P2000D FG VV002 13/13 Q1024=
202308170420 METAR ESMX 170420Z 00000KT 0500 R01/0550N R19/1200N FG VV002 11/11 Q1023=
202308170350 METAR ESMX 170350Z AUTO 19002KT 0050 R01/0250N R19/0200N FG BKN002/// OVC004/// 11/11 Q1023=
202308170320 METAR ESMX 170320Z AUTO 00000KT 0100 R01/0400U R19/0800D FG SCT001/// 11/11 Q1023=
202308170250 METAR ESMX 170250Z AUTO 23003KT 0250 R01/P2000D R19/0600N BCFG NCD 10/10 Q1023=
202308170220 METAR ESMX 170220Z AUTO 22001KT 0150 R01/0450N R19/0800N FG FEW001/// 10/10 Q1023=
202308170150 METAR ESMX 170150Z AUTO 18003KT 0100 R01/0250N R19/P2000N FG NCD 11/11 Q1023=
202308170120 METAR ESMX 170120Z AUTO 21002KT 0200 R01/P2000D R19/1200D BCFG FEW011/// 12/12 Q1023=
202308170050 METAR ESMX 170050Z AUTO 19002KT 0200 R01/1700D R19/P2000N FG NCD 12/12 Q1022=
202308170020 METAR ESMX 170020Z AUTO 00000KT 9999 BKN010/// 13/13 Q1022=
202308162350 METAR COR ESMX 162350Z 25003KT 9000 NSC 13/13 Q1022=
202308162320 METAR ESMX 162320Z 23004KT 9999 SCT049 13/13 Q1022=
202308162250 METAR ESMX 162250Z 21005KT CAVOK 14/14 Q1022=
202308162220 METAR ESMX 162220Z 20005KT CAVOK 14/14 Q1022=
202308162150 METAR ESMX 162150Z 20005KT CAVOK 14/14 Q1022=
202308162120 METAR ESMX 162120Z 20005KT CAVOK 14/14 Q1022=
202308162050 METAR ESMX 162050Z 22004KT CAVOK 13/13 Q1022=
202308162020 METAR ESMX 162020Z 22003KT CAVOK 14/14 Q1021=
202308161950 METAR ESMX 161950Z 22003KT CAVOK 15/14 Q1021=
202308161920 METAR ESMX 161920Z 22004KT CAVOK 16/14 Q1021=
202308161850 METAR ESMX 161850Z AUTO 23004KT 9999 OVC051/// 17/14 Q1021=
202308161820 METAR ESMX 161820Z AUTO 25004KT 220V280 9999 OVC048/// 17/14 Q1021=
202308161750 METAR ESMX 161750Z AUTO 27005KT 240V300 9999 OVC047/// 18/14 Q1021=
202308161720 METAR ESMX 161720Z AUTO 25007KT 220V280 9999 FEW026/// OVC046/// 18/13 Q1021=
202308161650 METAR ESMX 161650Z AUTO 25007KT 210V280 9999 OVC045/// 18/14 Q1020=
202308161620 METAR ESMX 161620Z AUTO 27006KT 240V310 9999 OVC043/// 19/14 Q1020=
202308161550 METAR ESMX 161550Z AUTO 25006KT 220V290 9999 OVC037/// 19/13 Q1020=
202308161520 METAR ESMX 161520Z AUTO 24008KT 9999 FEW030/// BKN042/// 20/13 Q1020=
202308161450 METAR ESMX 161450Z AUTO 26007KT 230V290 9999 BKN032/// 19/13 Q1020=
202308161420 METAR ESMX 161420Z AUTO 26008KT 230V290 9999 SCT025/// OVC042/// 19/14 Q1020=
202308161350 METAR ESMX 161350Z AUTO 25009KT 210V280 9999 FEW030/// OVC043/// 20/14 Q1020=
202308161320 METAR ESMX 161320Z AUTO 25008KT 200V280 9999 SCT030/// OVC043/// 20/14 Q1020=
202308161250 METAR ESMX 161250Z AUTO 23009KT 200V260 9999 OVC044/// 20/13 Q1020=
202308161220 METAR ESMX 161220Z AUTO 24009KT 220V280 9999 OVC038/// 20/14 Q1020=
202308161150 METAR ESMX 161150Z AUTO 22011KT 190V250 9999 OVC036/// 21/14 Q1020=
202308161120 METAR ESMX 161120Z AUTO 23010KT 200V260 9999 BKN034/// 21/14 Q1020=
202308161050 METAR ESMX 161050Z AUTO 22009KT 190V260 9999 BKN031/// 20/14 Q1019=
202308161020 METAR ESMX 161020Z AUTO 24010KT 210V270 9999 BKN029/// 19/13 Q1019=
202308160950 METAR ESMX 160950Z 22010KT 190V250 9999 BKN027 20/14 Q1019=
202308160920 METAR ESMX 160920Z 22008KT 200V270 9999 BKN025 18/14 Q1019=
202308160850 METAR ESMX 160850Z 22010KT 9999 SCT022 19/14 Q1019=
202308160820 METAR ESMX 160820Z 23009KT 190V270 9999 BKN017 17/14 Q1019=
202308160750 METAR ESMX 160750Z 23009KT 200V260 9999 FEW012 SCT015 BKN019 17/15 Q1019=
202308160720 METAR ESMX 160720Z 27007KT 9999 SCT010 BKN014 16/14 Q1019=
202308160650 METAR ESMX 160650Z 24007KT 200V280 9999 BKN009 BKN013 16/14 Q1019=
202308160620 METAR ESMX 160620Z 24004KT 210V290 9999 BKN005 16/15 Q1018=
202308160550 METAR ESMX 160550Z AUTO 23003KT 9999 OVC005/// 15/15 Q1018=
202308160520 METAR ESMX 160520Z AUTO 23003KT 9999 BKN006/// 14/14 Q1018=
202308160450 METAR ESMX 160450Z AUTO 17003KT 9999 FEW001/// 14/14 Q1018=
202308160420 METAR ESMX 160420Z AUTO 22003KT 7000 FEW004/// 14/14 Q1018=
202308160350 METAR ESMX 160350Z AUTO 23003KT 8000 OVC002/// 14/14 Q1017=
202308160320 METAR ESMX 160320Z AUTO 24004KT 1900 BR OVC001/// 15/15 Q1017=
202308160250 METAR ESMX 160250Z AUTO 24004KT 9999 BKN003/// BKN005/// OVC006/// 15/15 Q1017=
202308160220 METAR ESMX 160220Z AUTO 23005KT 9999 FEW007/// BKN009/// OVC170/// 15/15 Q1017=
202308160150 METAR ESMX 160150Z AUTO 22005KT 9999 SCT170/// 15/15 Q1017=
202308160120 METAR ESMX 160120Z AUTO 22007KT 9999 NCD 16/15 Q1017=
202308160050 METAR ESMX 160050Z AUTO 21007KT 9999 FEW220/// 16/15 Q1017=
202308160020 METAR ESMX 160020Z 22007KT CAVOK 17/16 Q1017=
202308152350 METAR ESMX 152350Z 23007KT 9999 FEW028 17/16 Q1016=
202308152320 METAR ESMX 152320Z 22006KT 9999 FEW028 SCT034 18/18 Q1016=
202308152250 METAR ESMX 152250Z 22006KT 9000 FEW003 SCT034 19/19 Q1016=
202308152220 METAR ESMX 152220Z 19006KT 8000 BKN003 19/19 Q1016=
202308152150 METAR ESMX 152150Z 17005KT 5000 BKN002 19/19 Q1016=
202308152120 METAR ESMX 152120Z 18005KT 1400 R19/1700N BR OVC002 19/19 Q1016=
202308152050 METAR ESMX 152050Z 16004KT 0900 R19/1700N FG OVC002 19/19 Q1016=
202308152020 METAR ESMX 152020Z 16004KT 0400 R19/0700N FG VV002 19/19 Q1016=
202308151950 METAR ESMX 151950Z 16004KT 0500 R19/1400U FG VV002 19/19 Q1016=
202308151920 METAR ESMX 151920Z AUTO 16005KT 1100 R01/P2000N R19/P2000N BR OVC002/// 20/20 Q1016=
202308151850 METAR ESMX 151850Z AUTO 20005KT 6000 BKN003/// 20/20 Q1015=
202308151820 METAR ESMX 151820Z AUTO 15004KT 9999 NCD 20/20 Q1015=
202308151750 METAR ESMX 151750Z AUTO 20005KT 9999 FEW009/// 20/20 Q1015=
202308151720 METAR ESMX 151720Z AUTO 20006KT 9999 FEW006/// OVC009/// 21/21 Q1015=
202308151650 METAR ESMX 151650Z AUTO 19008KT 9999 BKN006/// OVC008/// 21/21 Q1015=
202308151620 METAR ESMX 151620Z AUTO 19008KT 9999 FEW009/// SCT020/// OVC064/// 20/20 Q1014=
202308151550 METAR ESMX 151550Z AUTO 17009KT 9999 -RA FEW003/// SCT055/// BKN072/// 20/20 Q1014=
202308151520 METAR ESMX 151520Z AUTO 16013KT 9999 -RA FEW002/// SCT017/// BKN034/// 21/20 Q1014=
202308151450 METAR ESMX 151450Z AUTO 16010KT 9999 -RA FEW042/// SCT057/// OVC100/// 24/19 Q1014=
202308151420 METAR ESMX 151420Z AUTO 16009KT 9999 FEW098/// BKN140/// 24/20 Q1013=
202308151350 METAR ESMX 151350Z AUTO 16009KT 9999 FEW051/// BKN070/// BKN160/// 25/20 Q1014=
202308151320 METAR ESMX 151320Z AUTO 16011KT 9999 FEW051/// BKN072/// OVC110/// 25/19 Q1014=
202308151250 METAR ESMX 151250Z AUTO 17010KT 140V200 9999 FEW055/// BKN070/// OVC200/// 25/19 Q1014=
202308151220 METAR ESMX 151220Z AUTO 15010KT 9999 FEW047/// BKN057/// OVC074/// 25/19 Q1014=
202308151150 METAR ESMX 151150Z AUTO 18010KT 130V200 9999 FEW061/// SCT076/// BKN100/// 26/19 Q1014=
202308151120 METAR ESMX 151120Z AUTO 16009KT 9999 FEW061/// 26/19 Q1014=
202308151050 METAR ESMX 151050Z AUTO 15011KT 130V190 9999 FEW150/// 26/18 Q1014=
202308151020 METAR ESMX 151020Z AUTO 15011KT 110V170 9999 FEW061/// 25/18 Q1015=
202308150950 METAR ESMX 150950Z AUTO 15010KT 120V180 9999 ///////// 25/17 Q1015=
202308150920 METAR ESMX 150920Z AUTO 14006KT 100V170 9999 BKN041/// 24/17 Q1015=
202308150850 METAR ESMX 150850Z AUTO 13006KT 060V210 9999 SCT047/// 23/18 Q1015=
202308150820 METAR ESMX 150820Z AUTO 11005KT 070V140 9999 FEW053/// SCT084/// 21/17 Q1015=
202308150750 METAR ESMX 150750Z AUTO VRB03KT 9999 OVC055/// 18/18 Q1016 RERA=
202308150720 METAR ESMX 150720Z AUTO 12003KT 070V140 9999 BKN057/// 19/17 Q1016=
202308150650 METAR ESMX 150650Z AUTO 14003KT 9999 BKN055/// OVC066/// 18/16 Q1016=
202308150620 METAR ESMX 150620Z AUTO 16002KT 9999 BKN055/// 17/16 Q1016=
202308150550 METAR ESMX 150550Z AUTO VRB02KT 9999 BKN048/// BKN059/// 16/16 Q1016=
202308150520 METAR ESMX 150520Z AUTO 00000KT 9999 FEW055/// 15/15 Q1016=
202308150450 METAR ESMX 150450Z AUTO 16001KT 9999 FEW150/// 14/14 Q1016=
202308150420 METAR ESMX 150420Z AUTO 00000KT 9999 FEW150/// 12/12 Q1016=
202308150350 METAR ESMX 150350Z AUTO 00000KT 5000 BCFG FEW055/// 11/11 Q1016=
202308150320 METAR ESMX 150320Z AUTO 00000KT 0900 R01/1600N R19/P2000N BCFG FEW055/// 11/11 Q1016=
202308150250 METAR ESMX 150250Z AUTO 00000KT 9999 FEW210/// 11/11 Q1016=
202308150220 METAR ESMX 150220Z AUTO 00000KT 9999 BKN210/// 12/12 Q1016=
202308150150 METAR ESMX 150150Z AUTO VRB01KT 9999 BKN200/// 12/12 Q1016=
202308150120 METAR ESMX 150120Z AUTO VRB01KT 9000 NCD 12/12 Q1016=
202308150050 METAR ESMX 150050Z AUTO 00000KT 1500 BR NCD 12/12 Q1017=
202308150020 METAR ESMX 150020Z AUTO 00000KT 9999 NCD 12/12 Q1017=
202308142350 METAR COR ESMX 142350Z 00000KT 9999 MIFG NSC 13/13 Q1017=
202308142320 METAR ESMX 142320Z 00000KT CAVOK 14/14 Q1017=
202308142250 METAR ESMX 142250Z VRB02KT CAVOK 15/15 Q1017=
202308142220 METAR ESMX 142220Z VRB02KT CAVOK 15/14 Q1017=
202308142150 METAR ESMX 142150Z 16003KT CAVOK 16/15 Q1017=
202308142120 METAR ESMX 142120Z VRB03KT CAVOK 16/15 Q1017=
202308142050 METAR ESMX 142050Z 16003KT CAVOK 16/15 Q1017=
202308142020 METAR ESMX 142020Z 17005KT CAVOK 18/15 Q1018=
202308141950 METAR ESMX 141950Z 16005KT CAVOK 19/15 Q1018=
202308141920 METAR ESMX 141920Z AUTO 15006KT 9999 SCT062/// 20/15 Q1018=
202308141850 METAR ESMX 141850Z AUTO 16007KT 9999 BKN059/// 21/15 Q1018=
202308141820 METAR ESMX 141820Z AUTO 16006KT 9999 SCT049/// 21/15 Q1017=
202308141750 METAR ESMX 141750Z 16004KT 9999 SCT047 21/16 Q1017=
202308141720 METAR ESMX 141720Z 20003KT 9999 SCT045 21/16 Q1017=
202308141650 METAR ESMX 141650Z 17007KT 9999 SCT048 22/15 Q1017=
202308141620 METAR ESMX 141620Z 16006KT 9999 SCT045 22/15 Q1017=
202308141550 METAR ESMX 141550Z 16009KT CAVOK 23/15 Q1017=
202308141520 METAR ESMX 141520Z 18009KT CAVOK 24/15 Q1017=
202308141450 METAR ESMX 141450Z 18007KT 140V200 CAVOK 23/15 Q1017=
202308141420 METAR ESMX 141420Z 15009KT CAVOK 23/15 Q1017=
202308141350 METAR ESMX 141350Z 15009KT CAVOK 23/15 Q1017=
202308141320 METAR ESMX 141320Z 17010KT 9999 SCT048 23/15 Q1017=
202308141250 METAR ESMX 141250Z 18008KT 9999 SCT048 23/15 Q1017=
202308141220 METAR ESMX 141220Z AUTO 16009KT 130V190 9999 FEW053/// 24/14 Q1017=
202308141150 METAR ESMX 141150Z AUTO 17010KT 140V200 9999 // FEW041/// SCT053/// 24/15 Q1017=
202308141120 METAR ESMX 141120Z AUTO 17009KT 9999 SCT039/// 24/15 Q1017=
202308141050 METAR ESMX 141050Z AUTO 15009KT 120V190 9999 BKN036/// 23/15 Q1017=
202308141020 METAR ESMX 141020Z AUTO 15008KT 110V170 9999 FEW098/// SCT190/// 22/15 Q1018=
202308140950 METAR ESMX 140950Z AUTO 15008KT 120V190 9999 FEW033/// SCT098/// 21/14 Q1018=
202308140920 METAR ESMX 140920Z 17009KT 120V200 9999 SCT033 22/15 Q1018=
202308140850 METAR ESMX 140850Z 17007KT 100V200 CAVOK 22/15 Q1018=
202308140820 METAR ESMX 140820Z 16006KT 120V200 CAVOK 21/15 Q1018=
202308140750 METAR ESMX 140750Z 19007KT CAVOK 20/15 Q1018=
202308140720 METAR ESMX 140720Z 19007KT CAVOK 19/15 Q1018=
202308140650 METAR ESMX 140650Z 20006KT CAVOK 18/16 Q1018=
202308140620 METAR ESMX 140620Z 18005KT CAVOK 17/16 Q1017=
202308140550 METAR ESMX 140550Z 17004KT CAVOK 16/15 Q1017=
202308140520 METAR ESMX 140520Z 18004KT CAVOK 15/15 Q1017=
202308140450 METAR ESMX 140450Z 21005KT CAVOK 14/14 Q1017=
202308140420 METAR ESMX 140420Z 18004KT CAVOK 13/13 Q1017=
202308140350 METAR ESMX 140350Z 18004KT CAVOK 13/13 Q1017=
202308140320 METAR ESMX 140320Z AUTO 19005KT 9999 FEW026/// SCT038/// 14/14 Q1017=
202308140250 METAR ESMX 140250Z AUTO 22005KT 9999 SCT028/// 14/14 Q1017=
202308140220 METAR ESMX 140220Z AUTO 19005KT 9999 SCT028/// 14/14 Q1017=
202308140150 METAR ESMX 140150Z AUTO 20005KT 9999 NCD 14/14 Q1017=
202308140120 METAR ESMX 140120Z AUTO 20004KT 9999 FEW031/// 14/14 Q1017=
202308140050 METAR ESMX 140050Z AUTO 22003KT 9999 FEW030/// BKN200/// 12/12 Q1017=
202308140020 METAR ESMX 140020Z AUTO 22004KT 9999 FEW031/// BKN210/// 13/13 Q1017=
202308132350 METAR ESMX 132350Z AUTO 22003KT 1000 R01/P2000N R19/P2000N BR SCT210/// 13/13 Q1017=
202308132320 METAR ESMX 132320Z AUTO 00000KT 1900 BR FEW220/// 13/13 Q1016=
202308132250 METAR ESMX 132250Z AUTO 22003KT 9999 FEW023/// 13/13 Q1017=
202308132220 METAR ESMX 132220Z AUTO 22002KT 9999 FEW023/// 14/14 Q1017=
202308132150 METAR ESMX 132150Z AUTO 23002KT 9999 FEW026/// 14/14 Q1016=
202308132120 METAR ESMX 132120Z AUTO 23002KT 9999 FEW028/// SCT040/// BKN200/// 15/15 Q1016=
202308132050 METAR ESMX 132050Z AUTO 16002KT 9999 BKN029/// 15/15 Q1016=
202308132020 METAR ESMX 132020Z AUTO 23002KT 9999 FEW031/// 15/15 Q1016=
202308131950 METAR ESMX 131950Z AUTO 00000KT 9999 NCD 15/15 Q1016=
202308131920 METAR ESMX 131920Z AUTO 24002KT 9999 -RA FEW034/// SCT045/// 16/16 Q1016=
202308131850 METAR ESMX 131850Z AUTO 25003KT 9999 BKN037/// 17/16 Q1016=
202308131820 METAR ESMX 131820Z AUTO 18002KT 9999 NCD 18/15 Q1016=
202308131750 METAR ESMX 131750Z AUTO 23003KT 9999 NCD 19/15 Q1015=
202308131720 METAR ESMX 131720Z AUTO 25004KT 220V290 9999 NCD 20/14 Q1015=
202308131650 METAR ESMX 131650Z AUTO 28005KT 9999 NCD 21/14 Q1015=
202308131620 METAR ESMX 131620Z AUTO 27007KT 230V290 9999 SCT039/// 21/14 Q1015=
202308131550 METAR ESMX 131550Z AUTO 26007KT 9999 SCT038/// 22/14 Q1015=
202308131520 METAR ESMX 131520Z 28008KT 240V300 9999 SCT040 21/13 Q1015=
202308131450 METAR ESMX 131450Z 25008KT 230V290 9999 SCT039 21/13 Q1015=
202308131420 METAR ESMX 131420Z 26008KT 230V290 9999 SCT040 20/12 Q1015=
202308131350 METAR ESMX 131350Z 25009KT 9999 SCT041 22/13 Q1015=
202308131320 METAR ESMX 131320Z AUTO 27009KT 240V300 9999 BKN040/// 21/12 Q1015=
202308131250 METAR ESMX 131250Z AUTO 22010KT 9999 BKN037/// 21/13 Q1015=
202308131220 METAR ESMX 131220Z 25008KT 220V280 9999 SCT035 BKN045 20/13 Q1015=
202308131150 METAR ESMX 131150Z 26008KT 230V290 9999 SCT032 BKN044 20/14 Q1015=
202308131120 METAR ESMX 131120Z 23010KT 200V260 9999 SCT032 BKN042 21/14 Q1015=
202308131050 METAR ESMX 131050Z 23010KT 200V260 9999 SCT033 20/14 Q1014=
202308131020 METAR ESMX 131020Z 22011KT 200V260 9999 SCT024 20/15 Q1014=
202308130950 METAR ESMX 130950Z 24009KT 210V270 9999 SCT029 19/14 Q1014=
202308130920 METAR ESMX 130920Z AUTO 24009KT 9999 FEW022/// SCT030/// 19/15 Q1014=
202308130850 METAR ESMX 130850Z AUTO 25008KT 210V280 9999 SCT020/// 18/15 Q1014=
202308130820 METAR ESMX 130820Z 22007KT 9999 BKN021 18/15 Q1014=
202308130750 METAR ESMX 130750Z AUTO 23008KT 200V260 9999 SCT012/// OVC024/// 19/17 Q1014=
202308130720 METAR ESMX 130720Z 25007KT 9999 FEW006 SCT009 BKN011 18/16 Q1013=
202308130650 METAR ESMX 130650Z 22005KT 9999 BKN004 OVC006 17/17 Q1013=
202308130620 METAR ESMX 130620Z 20004KT 7000 BKN003 16/16 Q1013=
202308130550 METAR ESMX 130550Z 22003KT 9999 BKN004 16/16 Q1013=
202308130520 METAR ESMX 130520Z AUTO 23003KT 9999 OVC003/// 16/16 Q1013=
202308130450 METAR ESMX 130450Z AUTO 25006KT 220V280 8000 OVC003/// 15/15 Q1013=
202308130420 METAR ESMX 130420Z AUTO 27006KT 9999 OVC003/// 15/15 Q1012=
202308130350 METAR ESMX 130350Z AUTO 25005KT 9999 OVC004/// 15/15 Q1012=
202308130320 METAR ESMX 130320Z AUTO 25007KT 210V280 9999 OVC005/// 15/15 Q1012=
202308130250 METAR ESMX 130250Z AUTO 25008KT 220V280 9999 BKN006/// 15/15 Q1012=
202308130220 METAR ESMX 130220Z AUTO 25008KT 9999 BKN007/// 15/15 Q1012=
202308130150 METAR ESMX 130150Z AUTO 25008KT 9999 FEW007/// BKN009/// BKN013/// 16/16 Q1011=
202308130120 METAR ESMX 130120Z AUTO 24009KT 9999 BKN007/// OVC009/// 17/17 Q1011=
202308130050 METAR ESMX 130050Z AUTO 22011KT 9999 SCT004/// BKN007/// OVC009/// 17/17 Q1011 REDZ=
202308130020 METAR ESMX 130020Z AUTO 19011KT 6000 OVC004/// 17/17 Q1011=
202308122350 METAR ESMX 122350Z 15009KT 9999 SCT005 BKN009 17/17 Q1011=
202308122320 METAR ESMX 122320Z 13006KT 100V160 9999 SCT006 BKN020 OVC030 16/16 Q1011=
202308122250 METAR ESMX 122250Z 13006KT 080V160 9999 -RA FEW024 OVC041 16/16 Q1011=
202308122220 METAR ESMX 122220Z 12005KT 080V160 9999 FEW026 SCT035 BKN046 16/16 Q1011=
202308122150 METAR ESMX 122150Z 12005KT 070V160 9000 DZ FEW013 BKN041 16/16 Q1012=
202308122120 METAR ESMX 122120Z AUTO 09005KT 060V130 9999 -RA BKN074/// OVC092/// 16/16 Q1013=
202308122050 METAR ESMX 122050Z AUTO VRB03KT 9999 -RA BKN068/// OVC094/// 16/16 Q1013=
202308122020 METAR ESMX 122020Z AUTO 13003KT 080V160 9000 RA OVC055/// 16/16 Q1013 RESHRA=
202308121950 METAR ESMX 121950Z AUTO 15007KT 9999 RA BKN043/// OVC059/// 18/15 Q1014=
202308121920 METAR ESMX 121920Z AUTO 13006KT 100V170 9999 -RA BKN057/// OVC086/// 20/15 Q1014 REDZ=
202308121850 METAR ESMX 121850Z AUTO 14007KT 090V160 9999 BKN074/// OVC098/// 20/14 Q1013=
202308121820 METAR ESMX 121820Z AUTO 14008KT 100V170 9999 SCT064/// OVC100/// 20/14 Q1014=
202308121750 METAR ESMX 121750Z AUTO 14006KT 080V160 9999 FEW066/// BKN110/// 21/15 Q1014=
202308121720 METAR ESMX 121720Z AUTO 13006KT 100V160 9999 OVC061/// 21/15 Q1014=
202308121650 METAR ESMX 121650Z AUTO 14006KT 090V170 9999 SCT061/// BKN110/// 21/15 Q1014=
202308121620 METAR ESMX 121620Z AUTO 16006KT 9999 BKN110/// 22/15 Q1015=
202308121550 METAR ESMX 121550Z AUTO 15007KT 9999 FEW059/// SCT070/// BKN098/// 23/15 Q1015=
202308121520 METAR ESMX 121520Z AUTO 16007KT 130V190 9999 OVC059/// 23/15 Q1015=
202308121450 METAR ESMX 121450Z AUTO 16007KT 9999 BKN059/// OVC066/// 23/15 Q1015=
202308121420 METAR ESMX 121420Z AUTO 17009KT 120V190 9999 BKN062/// 23/15 Q1016=
202308121350 METAR ESMX 121350Z AUTO 16009KT 130V190 9999 BKN098/// OVC180/// 23/15 Q1016=
202308121320 METAR ESMX 121320Z AUTO 16007KT 9999 BKN090/// BKN170/// 23/16 Q1016=
202308121250 METAR ESMX 121250Z AUTO 17009KT 9999 BKN096/// 22/15 Q1017=
202308121220 METAR ESMX 121220Z AUTO 15011KT 9999 BKN086/// 22/15 Q1017=
202308121150 METAR ESMX 121150Z AUTO 16010KT 120V190 9999 SCT082/// 22/15 Q1017=
202308121120 METAR ESMX 121120Z AUTO 15011KT 130V190 9999 FEW080/// BKN120/// 22/15 Q1017=
202308121050 METAR ESMX 121050Z AUTO 16009KT 9999 SCT080/// OVC110/// 20/15 Q1018=
202308121020 METAR ESMX 121020Z AUTO 17011KT 9999 OVC088/// 20/14 Q1018=
202308120950 METAR ESMX 120950Z AUTO 18010KT 9999 FEW080/// BKN110/// 21/14 Q1018=
202308120920 METAR ESMX 120920Z AUTO 17008KT 130V190 9999 FEW061/// BKN110/// 20/15 Q1018=
202308120850 METAR ESMX 120850Z 16008KT 9999 -RA FEW027 19/15 Q1018=
202308120820 METAR ESMX 120820Z 18008KT 140V200 CAVOK 19/15 Q1018=
202308120750 METAR ESMX 120750Z 15007KT 110V170 CAVOK 19/15 Q1018=
202308120720 METAR ESMX 120720Z 17007KT CAVOK 18/15 Q1018=
202308120650 METAR COR ESMX 120650Z 16006KT 130V190 CAVOK 17/14 Q1018=
202308120620 METAR ESMX 120620Z AUTO 16006KT 9999 OVC059/// 16/14 Q1018=
202308120550 METAR ESMX 120550Z AUTO 15006KT 110V170 9999 OVC057/// 15/14 Q1018=
202308120520 METAR ESMX 120520Z AUTO 15007KT 9999 BKN059/// 15/13 Q1018=
202308120450 METAR ESMX 120450Z AUTO 15007KT 9999 BKN061/// 15/14 Q1018=
202308120420 METAR ESMX 120420Z AUTO 15006KT 9999 SCT048/// 15/14 Q1018=
202308120350 METAR ESMX 120350Z AUTO 15007KT 9999 SCT051/// 15/14 Q1018=
202308120320 METAR ESMX 120320Z AUTO 17006KT 9999 OVC055/// 15/14 Q1019=
202308120250 METAR ESMX 120250Z AUTO 17006KT 9999 OVC061/// 15/15 Q1019=
202308120220 METAR ESMX 120220Z AUTO 15005KT 9999 SCT043/// OVC061/// 15/15 Q1019=
202308120150 METAR ESMX 120150Z AUTO 17005KT 9999 OVC042/// 15/15 Q1019=
202308120120 METAR ESMX 120120Z AUTO 17005KT 9999 BKN044/// 15/15 Q1019=
202308120050 METAR ESMX 120050Z AUTO 16006KT 9999 OVC064/// 15/15 Q1019=
202308120020 METAR ESMX 120020Z AUTO 16005KT 9999 SCT046/// BKN061/// OVC140/// 15/15 Q1019=
202308112350 METAR ESMX 112350Z AUTO 14004KT 9999 BKN140/// 15/15 Q1019=
202308112320 METAR ESMX 112320Z AUTO 16003KT 9999 BKN130/// 15/14 Q1019=
202308112250 METAR ESMX 112250Z AUTO 20005KT 9999 SCT037/// OVC130/// 16/15 Q1019=
202308112220 METAR ESMX 112220Z AUTO 17005KT 9999 OVC036/// 16/14 Q1020=
202308112150 METAR ESMX 112150Z AUTO 20004KT 9999 OVC035/// 15/14 Q1020=
202308112120 METAR ESMX 112120Z AUTO 16005KT 9999 OVC034/// 16/14 Q1020=
202308112050 METAR ESMX 112050Z AUTO 21004KT 9999 OVC035/// 15/14 Q1020=
202308112020 METAR ESMX 112020Z AUTO 19005KT 9999 OVC033/// 15/13 Q1020=
202308111950 METAR ESMX 111950Z AUTO 20005KT 9999 OVC030/// 15/13 Q1020=
202308111920 METAR ESMX 111920Z AUTO 22004KT 9999 OVC034/// 16/13 Q1020=
202308111850 METAR ESMX 111850Z AUTO 20003KT 9999 OVC035/// 16/12 Q1019=
202308111820 METAR ESMX 111820Z AUTO 22003KT 9999 BKN038/// 15/12 Q1019=
202308111750 METAR ESMX 111750Z AUTO 22003KT 9999 FEW039/// 17/11 Q1019=
202308111720 METAR ESMX 111720Z AUTO 24006KT 220V280 9999 FEW039/// 18/11 Q1019=
202308111650 METAR ESMX 111650Z 25007KT 210V290 CAVOK 18/10 Q1019=
202308111620 METAR ESMX 111620Z 24007KT 200V270 CAVOK 19/08 Q1019=
202308111550 METAR ESMX 111550Z 22010KT CAVOK 19/07 Q1019=
202308111520 METAR ESMX 111520Z 22008KT CAVOK 19/07 Q1019=
202308111450 METAR ESMX 111450Z 24010KT 210V270 CAVOK 19/08 Q1019=
202308111420 METAR ESMX 111420Z 23008KT 200V270 CAVOK 19/09 Q1019=
202308111350 METAR ESMX 111350Z 20009KT 170V250 9999 SCT042 19/09 Q1019=
202308111320 METAR ESMX 111320Z 23008KT 190V270 9999 BKN038 18/09 Q1019=
202308111250 METAR ESMX 111250Z 22005KT 9999 BKN031 17/11 Q1019=
202308111220 METAR ESMX 111220Z AUTO 21005KT 190V260 9999 SCT037/// 18/11 Q1019=
202308111150 METAR ESMX 111150Z AUTO 24008KT 9999 BKN033/// 17/10 Q1019=
202308111120 METAR ESMX 111120Z AUTO 22006KT 190V250 9999 FEW016/// BKN023/// OVC033/// 16/09 Q1019=
202308111050 METAR ESMX 111050Z AUTO 20007KT 9999 BKN024/// OVC032/// 15/12 Q1019=
202308111020 METAR ESMX 111020Z AUTO 20007KT 9999 SCT014/// OVC032/// 14/11 Q1019=
202308110950 METAR ESMX 110950Z 19006KT 9999 FEW015 BKN032 14/11 Q1019=
202308110920 METAR ESMX 110920Z 20007KT 9999 BKN012 BKN022 13/11 Q1019=
202308110850 METAR ESMX 110850Z 22006KT 9999 FEW010 BKN032 13/11 Q1018=
202308110820 METAR ESMX 110820Z 23007KT 9999 FEW006 BKN012 BKN025 13/11 Q1018=
202308110750 METAR ESMX 110750Z 20008KT 9999 BKN011 BKN019 13/11 Q1018=
202308110720 METAR ESMX 110720Z 19006KT 9999 SCT010 BKN014 12/11 Q1018=
202308110650 METAR ESMX 110650Z 17006KT 9999 BKN009 BKN016 12/11 Q1018=
202308110620 METAR ESMX 110620Z 21005KT 9999 BKN008 BKN038 12/11 Q1018=
202308110550 METAR ESMX 110550Z 18004KT 9999 FEW008 BKN040 12/11 Q1018=
202308110520 METAR ESMX 110520Z 21004KT 9999 BKN018 BKN024 11/11 Q1017=
202308110450 METAR ESMX 110450Z 21004KT 9999 BKN021 BKN028 11/11 Q1017=
202308110420 METAR ESMX 110420Z 21003KT 9999 FEW018 BKN026 BKN039 11/11 Q1017=
202308110350 METAR ESMX 110350Z 20004KT 9999 SCT019 BKN038 11/10 Q1017=
202308110320 METAR ESMX 110320Z AUTO 21005KT 9999 FEW031/// OVC039/// 10/10 Q1017=
202308110250 METAR ESMX 110250Z AUTO 21004KT 9999 FEW024/// OVC041/// 10/10 Q1017=
202308110220 METAR ESMX 110220Z AUTO 22005KT 9999 OVC043/// 11/10 Q1017=
202308110150 METAR ESMX 110150Z AUTO 22005KT 9999 BKN016/// OVC042/// 11/10 Q1017=
202308110120 METAR ESMX 110120Z AUTO 20005KT 9999 FEW017/// SCT025/// OVC034/// 11/11 Q1017=
202308110050 METAR ESMX 110050Z AUTO 20006KT 9999 FEW025/// SCT037/// OVC046/// 11/11 Q1017=
202308110020 METAR ESMX 110020Z AUTO 18005KT 9999 OVC028/// 11/11 Q1017=
202308102350 METAR ESMX 102350Z AUTO 19006KT 9999 SCT021/// OVC034/// 11/10 Q1017=
202308102320 METAR ESMX 102320Z 17005KT 9999 BKN027 BKN053 11/10 Q1017=
202308102250 METAR ESMX 102250Z 19006KT 9999 SCT019 BKN053 11/10 Q1017=
202308102220 METAR ESMX 102220Z 19006KT 9999 SCT042 BKN053 11/10 Q1017=
202308102150 METAR ESMX 102150Z 22005KT 9999 SCT043 BKN051 11/11 Q1017=
202308102120 METAR ESMX 102120Z 22005KT 9999 SCT043 BKN051 12/11 Q1017=
202308102050 METAR ESMX 102050Z 22007KT 9999 SCT043 BKN053 12/11 Q1016=
202308102020 METAR ESMX 102020Z 22007KT 9999 BKN047 12/11 Q1016=
202308101950 METAR ESMX 101950Z 22007KT 9999 BKN040 12/11 Q1016=
202308101920 METAR ESMX 101920Z 22006KT 9999 SCT036 OVC059 12/11 Q1016=
202308101850 METAR ESMX 101850Z 23007KT 9999 FEW040 BKN059 12/11 Q1016=
202308101820 METAR ESMX 101820Z 23007KT 9999 FEW040 BKN059 12/11 Q1016=
202308101750 METAR ESMX 101750Z 25008KT 220V280 9999 FEW045 BKN068 13/11 Q1016=
202308101720 METAR ESMX 101720Z 22007KT 190V250 9999 FEW045 BKN068 14/12 Q1015=
202308101650 METAR ESMX 101650Z 23007KT 9999 FEW023 SCT044 BKN066 14/12 Q1015=
202308101620 METAR ESMX 101620Z 22007KT 9999 SCT024 BKN051 BKN066 13/13 Q1015=
202308101550 METAR ESMX 101550Z 21009KT 9999 FEW024 BKN043 BKN062 13/13 Q1015 REDZ=
202308101520 METAR ESMX 101520Z 23006KT 9999 FEW031 BKN061 14/12 Q1014=
202308101450 METAR ESMX 101450Z 26005KT 220V300 9999 DZ FEW007 SCT031 BKN039 13/12 Q1014=
202308101420 METAR ESMX 101420Z 25005KT 220V300 9999 SCT033 BKN051 BKN061 14/13 Q1014=
202308101350 METAR ESMX 101350Z 25004KT 210V280 9999 -RA BKN030TCU BKN053 13/12 Q1014=
202308101320 METAR ESMX 101320Z 24005KT 210V280 9999 FEW018 BKN025 14/12 Q1014=
202308101250 METAR ESMX 101250Z 26005KT 230V330 9999 FEW026 BKN057 13/12 Q1014 RERA=
202308101220 METAR ESMX 101220Z 23010KT 9999 DZ BKN023 BKN038 14/12 Q1013 RERA=
202308101150 METAR ESMX 101150Z 23007KT 9999 FEW026 BKN044 14/12 Q1013 REDZ=
202308101120 METAR ESMX 101120Z 22011KT 190V250 9000 DZ SCT019 BKN037 14/12 Q1013=
202308101050 METAR ESMX 101050Z 21010KT 180V250 9999 SCT018 BKN042 15/12 Q1013=
202308101020 METAR COR ESMX 101020Z 22011KT 9999 SCT018 BKN033 14/12 Q1013=
202308100950 METAR ESMX 100950Z 24010KT 9999 SCT016 BKN028 13/12 Q1012=
202308100920 METAR ESMX 100920Z AUTO 23010KT 9999 -RA BKN016/// BKN024/// OVC035/// 14/12 Q1012=
202308100850 METAR ESMX 100850Z AUTO 23010KT 9999 FEW014/// SCT031/// BKN140/// 14/12 Q1012=
202308100820 METAR ESMX 100820Z AUTO 22010KT 9999 BKN011/// BKN013/// OVC032/// 13/12 Q1012=
202308100750 METAR ESMX 100750Z AUTO 22009KT 9999 OVC009/// 13/12 Q1012=
202308100720 METAR ESMX 100720Z AUTO 21008KT 9999 BKN008/// OVC010/// 12/12 Q1012=
202308100650 METAR ESMX 100650Z AUTO 22008KT 9999 BKN006/// OVC008/// 12/12 Q1012=
202308100620 METAR ESMX 100620Z AUTO 22008KT 7000 BKN006/// BKN008/// OVC010/// 11/11 Q1011=
202308100550 METAR ESMX 100550Z AUTO 23009KT 4000 BR BKN006/// BKN009/// OVC024/// 11/11 Q1011=
202308100520 METAR ESMX 100520Z AUTO 22008KT 9999 BKN006/// OVC010/// 11/11 Q1011=
202308100450 METAR ESMX 100450Z AUTO 22009KT 9999 SCT005/// BKN007/// OVC009/// 11/11 Q1011 REDZ=
202308100420 METAR ESMX 100420Z AUTO 22010KT 9999 BKN007/// BKN014/// OVC023/// 11/11 Q1011=
202308100350 METAR ESMX 100350Z AUTO 22009KT 3800 BR BKN004/// OVC018/// 11/11 Q1011 REDZ=
202308100320 METAR ESMX 100320Z AUTO 22009KT 9999 BKN006/// OVC026/// 11/11 Q1011=
202308100250 METAR ESMX 100250Z AUTO 21009KT 8000 BKN007/// OVC010/// 11/11 Q1011 REDZ=
202308100220 METAR ESMX 100220Z AUTO 22009KT 9999 BKN008/// BKN010/// OVC031/// 11/11 Q1011=
202308100150 METAR ESMX 100150Z AUTO 22009KT 9999 BKN007/// BKN012/// OVC029/// 11/11 Q1011=
202308100120 METAR ESMX 100120Z AUTO 22010KT 9999 BKN006/// OVC012/// 11/11 Q1010=
202308100050 METAR ESMX 100050Z AUTO 22010KT 9999 BKN007/// OVC010/// 11/11 Q1010=
202308100020 METAR ESMX 100020Z AUTO 22010KT 9999 BKN007/// BKN010/// OVC014/// 11/11 Q1010=
202308092350 METAR ESMX 092350Z 22009KT 9999 SCT007 BKN009 OVC014 11/11 Q1010=
202308092320 METAR ESMX 092320Z AUTO 20008KT 9999 BKN007/// OVC013/// 11/11 Q1010=
202308092250 METAR ESMX 092250Z AUTO 21011KT 4500 BR BKN008/// OVC013/// 11/11 Q1010 REDZ=
202308092220 METAR ESMX 092220Z AUTO 20009KT 9999 BKN009/// BKN016/// OVC024/// 11/11 Q1010=
202308092150 METAR ESMX 092150Z 21008KT 9999 FEW005 SCT009 BKN014 11/11 Q1010=
202308092120 METAR ESMX 092120Z AUTO 22008KT 9999 FEW008/// SCT011/// BKN015/// 11/11 Q1010=
202308092050 METAR ESMX 092050Z 22010KT 9999 FEW002 BKN009 OVC023 11/11 Q1009 REDZ=
202308092020 METAR ESMX 092020Z 22009KT 9999 SCT011 BKN016 12/11 Q1009=
202308091950 METAR ESMX 091950Z 20008KT 9999 BKN015 BKN043 OVC055 12/11 Q1009=
202308091920 METAR ESMX 091920Z AUTO 23009KT 9999 FEW011/// BKN014/// BKN019/// 12/11 Q1009=
202308091850 METAR ESMX 091850Z AUTO 22010KT 9999 BKN016/// OVC030/// 12/11 Q1008=
202308091820 METAR ESMX 091820Z AUTO 22009KT 9999 FEW015/// SCT019/// BKN026/// 12/12 Q1008=
202308091750 METAR ESMX 091750Z AUTO 22008KT 9999 DZ BKN014/// BKN021/// OVC030/// 12/12 Q1008 RERA=
202308091720 METAR ESMX 091720Z AUTO 22008KT 9999 FEW007/// SCT014/// BKN019/// 12/12 Q1007=
202308091650 METAR ESMX 091650Z AUTO 22009KT 190V250 5000 -RA FEW007/// BKN016/// BKN024/// 12/12 Q1007=
202308091620 METAR ESMX 091620Z AUTO 22011KT 7000 -RA SCT009/// BKN016/// OVC022/// 12/12 Q1007 RERA=
202308091550 METAR ESMX 091550Z AUTO 21012KT 4700 BR SCT008/// BKN012/// BKN019/// 13/12 Q1006=
202308091520 METAR ESMX 091520Z AUTO 20012KT 3700 -RA FEW008/// BKN011/// OVC017/// 13/12 Q1006 RERA=
202308091450 METAR ESMX 091450Z AUTO 21012KT 9999 FEW009/// BKN013/// BKN041/// 13/12 Q1006=
202308091420 METAR ESMX 091420Z AUTO 20011KT 6000 DZ SCT011/// BKN029/// BKN047/// 12/12 Q1006=
202308091350 METAR ESMX 091350Z AUTO 20013KT 9000 -RA BKN009/// BKN019/// OVC160/// 13/12 Q1005 RERA=
202308091320 METAR ESMX 091320Z AUTO 19013KT 6000 SCT008/// BKN011/// BKN015/// 13/12 Q1005=
202308091250 METAR ESMX 091250Z AUTO 19014KT 9999 BKN009/// OVC012/// 13/12 Q1005=
202308091220 METAR ESMX 091220Z AUTO 21011KT 9999 FEW007/// BKN017/// BKN049/// 12/12 Q1004=
202308091150 METAR ESMX 091150Z AUTO 19013KT 7000 -RA SCT008/// BKN011/// BKN014/// 12/12 Q1004 RERA=
202308091120 METAR ESMX 091120Z AUTO 18014KT 9999 -DZ BKN008/// BKN017/// OVC024/// 12/12 Q1004=
202308091050 METAR ESMX 091050Z AUTO 18014KT 8000 -RA BKN007/// BKN010/// OVC015/// 12/12 Q1003 REDZ=
202308091020 METAR ESMX 091020Z AUTO 18012KT 6000 DZ SCT007/// BKN009/// BKN019/// 12/11 Q1003=
202308090950 METAR ESMX 090950Z AUTO 18015KT 7000 -RA BKN009/// OVC022/// 11/11 Q1003=
202308090920 METAR ESMX 090920Z AUTO 19015KT 3300 -RA FEW005/// BKN009/// OVC014/// 11/11 Q1003=
202308090850 METAR ESMX 090850Z AUTO 18016KT 5000 -DZ BKN007/// BKN010/// OVC016/// 11/11 Q1002=
202308090820 METAR ESMX 090820Z 18014KT 9999 -DZ BKN008 BKN012 11/11 Q1002=
202308090750 METAR ESMX 090750Z 17015KT 9999 -RA SCT009 BKN010 BKN016 11/11 Q1002=
202308090720 METAR ESMX 090720Z 17016KT 9999 -RA BKN008 11/10 Q1001=
202308090650 METAR ESMX 090650Z 18015KT 9999 -RA BKN009 BKN012 11/10 Q1001=
202308090620 METAR ESMX 090620Z 18015KT 9999 -DZ SCT009 BKN013 11/10 Q1001=
202308090550 METAR ESMX 090550Z 18014KT 9999 -DZ BKN009 BKN012 11/10 Q1001=
202308090520 METAR ESMX 090520Z AUTO 18013KT 9999 -DZ BKN009/// OVC013/// 10/10 Q1001=
202308090450 METAR ESMX 090450Z AUTO 18013KT 9999 -RA SCT008/// BKN010/// OVC022/// 10/10 Q1000=
202308090420 METAR ESMX 090420Z AUTO 18014KT 9999 -RA BKN008/// BKN010/// OVC017/// 10/10 Q1000=
202308090350 METAR ESMX 090350Z AUTO 18012KT 9999 -RA BKN008/// BKN030/// OVC040/// 10/10 Q1000 REDZ=
202308090320 METAR ESMX 090320Z AUTO 17012KT 9999 DZ SCT009/// BKN041/// OVC053/// 10/10 Q1000=
202308090250 METAR ESMX 090250Z AUTO 17013KT 9999 DZ BKN008/// BKN019/// OVC037/// 10/10 Q1000=
202308090220 METAR ESMX 090220Z AUTO 17013KT 9999 DZ SCT009/// BKN029/// OVC041/// 10/10 Q1000=
202308090150 METAR ESMX 090150Z AUTO 17012KT 9999 -RA BKN008/// BKN021/// OVC037/// 10/10 Q1000=
202308090120 METAR ESMX 090120Z AUTO 18012KT 9999 -RA ///038/// 10/10 Q0999=
202308090050 METAR ESMX 090050Z AUTO 18013KT 9999 -RA SCT009/// BKN014/// BKN032/// 10/10 Q0999 REDZ=
202308090020 METAR ESMX 090020Z AUTO 18014KT 9999 DZ BKN008/// BKN012/// OVC015/// 10/10 Q0999=
202308082350 METAR ESMX 082350Z 19013KT 9999 -RA SCT009 BKN014 BKN033 10/10 Q0999=
202308082320 METAR ESMX 082320Z AUTO 19015KT 9999 -RA SCT009/// BKN011/// BKN015/// 10/10 Q0999 REDZ=
202308082250 METAR ESMX 082250Z 19014KT 9999 DZ FEW009 BKN013 OVC023 10/10 Q0999=
202308082220 METAR ESMX 082220Z AUTO 19015KT 9999 -RA BKN013/// OVC017/// 10/10 Q0998 REDZ=
202308082150 METAR ESMX 082150Z 20014KT 170V230 9999 OVC011 11/10 Q0998 REDZ=
202308082120 METAR ESMX 082120Z 19014KT 9999 BKN012 BKN015 OVC019 11/10 Q0998=
202308082050 METAR ESMX 082050Z 19016KT 9999 BKN010 BKN013 OVC017 11/10 Q0997=
202308082020 METAR ESMX 082020Z 19015KT 9000 -DZ BKN009 BKN012 OVC021 11/10 Q0997=
202308081950 METAR ESMX 081950Z 18015KT 9999 SCT016 BKN027 BKN049 11/11 Q0997=
202308081920 METAR ESMX 081920Z AUTO 19015KT 9000 -RA SCT019/// BKN027/// 11/10 Q0997 RERA=
202308081850 METAR ESMX 081850Z AUTO 19015KT 9999 FEW023/// SCT031/// BKN044/// 11/10 Q0997=
202308081820 METAR ESMX 081820Z AUTO 19013KT 9999 -RA FEW016/// BKN036/// BKN047/// 11/10 Q0997=
202308081750 METAR ESMX 081750Z AUTO 20016KT 9999 -RA BKN057/// 12/10 Q0996=
202308081720 METAR ESMX 081720Z AUTO 20017KT 9999 -RA BKN045/// 13/11 Q0996=
202308081650 METAR ESMX 081650Z AUTO 21017G28KT 9999 FEW022/// SCT057/// 13/10 Q0995=
202308081620 METAR ESMX 081620Z AUTO 21018KT 9999 FEW045/// SCT088/// 13/10 Q0995 RERA=
202308081550 METAR ESMX 081550Z AUTO 22018KT 9999 FEW024/// SCT047/// BKN076/// 13/11 Q0995 REDZ=
202308081520 METAR ESMX 081520Z AUTO 20018KT 9999 FEW024/// SCT040/// BKN049/// 13/10 Q0994=
202308081450 METAR ESMX 081450Z AUTO 20019G30KT 9999 FEW020/// SCT028/// BKN039/// 13/11 Q0994 REDZ=
202308081420 METAR ESMX 081420Z AUTO 21019KT 9999 SCT020/// BKN026/// BKN032/// 13/11 Q0993=
202308081350 METAR ESMX 081350Z AUTO 21017G30KT 170V230 9999 SCT015/// BKN028/// BKN150/// 13/12 Q0993=
202308081320 METAR ESMX 081320Z AUTO 22019G31KT 9999 -RA SCT014/// BKN025/// BKN042/// 12/11 Q0993 RERA=
202308081250 METAR ESMX 081250Z AUTO 21017KT 9000 SCT011/// BKN022/// BKN032/// 12/12 Q0992=
202308081220 METAR ESMX 081220Z AUTO 21021KT 8000 DZ SCT017/// OVC028/// 12/11 Q0992=
202308081150 METAR ESMX 081150Z AUTO 22019G31KT 190V250 9999 -DZ SCT022/// BKN032/// OVC053/// 12/11 Q0991=
202308081120 METAR ESMX 081120Z AUTO 23019G30KT 9999 -RA SCT014/// BKN030/// OVC210/// 12/11 Q0991=
202308081050 METAR ESMX 081050Z AUTO 21018G34KT 6000 -DZ SCT019/// BKN024/// OVC030/// 12/11 Q0990=
202308081020 METAR ESMX 081020Z AUTO 23019G32KT 9999 BKN024/// 13/10 Q0990=
202308080950 METAR ESMX 080950Z AUTO 23020G30KT 9999 BKN018/// BKN024/// OVC031/// 13/11 Q0990=
202308080920 METAR ESMX 080920Z AUTO 23018KT 200V260 9999 BKN016/// OVC025/// 13/11 Q0989=
202308080850 METAR ESMX 080850Z AUTO 23018KT 8000 -RA FEW010/// OVC019/// 12/11 Q0989 REDZ=
202308080820 METAR ESMX 080820Z AUTO 22014G25KT 190V260 3600 BR FEW007/// BKN011/// BKN016/// 12/12 Q0989 REDZ=
202308080750 METAR ESMX 080750Z AUTO 23015KT 200V280 9999 OVC014/// 12/11 Q0989=
202308080720 METAR ESMX 080720Z AUTO 22016G27KT 8000 OVC012/// 12/11 Q0989=
202308080650 METAR ESMX 080650Z AUTO 23014KT 9999 OVC013/// 12/11 Q0989=
202308080620 METAR ESMX 080620Z AUTO 23014KT 9999 BKN012/// OVC016/// 12/11 Q0989=
202308080550 METAR ESMX 080550Z AUTO 22013KT 200V260 9999 FEW009/// BKN012/// OVC015/// 12/11 Q0989=
202308080520 METAR ESMX 080520Z AUTO 24013KT 6000 FEW007/// OVC011/// 12/11 Q0989 REDZ=
202308080450 METAR ESMX 080450Z AUTO 23013G23KT 210V280 9999 FEW006/// OVC011/// 12/11 Q0989=
202308080420 METAR ESMX 080420Z AUTO 23012KT 9999 OVC011/// 12/11 Q0989=
202308080350 METAR ESMX 080350Z AUTO 23014KT 9999 OVC010/// 12/11 Q0989=
202308080320 METAR ESMX 080320Z AUTO 24011G22KT 9999 SCT008/// OVC011/// 12/12 Q0989=
202308080250 METAR ESMX 080250Z AUTO 23012KT 200V260 9999 FEW006/// BKN009/// OVC016/// 12/12 Q0989=
202308080220 METAR ESMX 080220Z AUTO 24012KT 210V280 3800 -RA SCT006/// BKN009/// BKN011/// 12/12 Q0989=
202308080150 METAR ESMX 080150Z AUTO 23014G25KT 4200 BR VV010 13/12 Q0989=
202308080120 METAR ESMX 080120Z AUTO 23011KT 3600 DZ BKN011/// 13/13 Q0989=
202308080050 METAR ESMX 080050Z AUTO 24013KT 220V280 3800 BR VV011 13/13 Q0989=
202308080020 METAR ESMX 080020Z AUTO 24013KT 3600 BR VV011 13/13 Q0989=
202308072350 METAR ESMX 072350Z AUTO 24010G21KT 200V260 3900 DZ FEW010/// SCT014/// 13/13 Q0989=
202308072320 METAR ESMX 072320Z AUTO 24010G24KT 210V270 4400 -DZ VV011 14/14 Q0989=
202308072250 METAR ESMX 072250Z 24011KT 7000 SCT009 BKN012 14/14 Q0989 REDZ=
202308072220 METAR ESMX 072220Z 22009KT 200V260 5000 DZ SCT006 BKN010 OVC018 14/14 Q0989=
202308072150 METAR ESMX 072150Z 23010KT 4200 DZ BKN012 14/14 Q0989=
202308072120 METAR ESMX 072120Z 24011KT 3400 +DZ FEW006 OVC009 14/14 Q0990=
202308072050 METAR ESMX 072050Z 25011KT 4000 +DZ FEW006 OVC009 14/14 Q0990=
202308072020 METAR ESMX 072020Z 25009KT 220V280 4500 DZ BR BKN009 14/14 Q0990 REDZ=
202308071950 METAR ESMX 071950Z 24010KT 210V270 6000 FEW007 BKN009 14/14 Q0989=
202308071920 METAR ESMX 071920Z 24010KT 3700 BR FEW002 BKN005 BKN013 14/14 Q0989 REDZ=
202308071850 METAR ESMX 071850Z 25010KT 210V280 4200 DZ FEW002 SCT005 BKN014 15/15 Q0989=
202308071820 METAR ESMX 071820Z 25003KT 9999 FEW008 BKN017 16/16 Q0989=
202308071750 METAR ESMX 071750Z VRB03KT 4100 SCT009 BKN014 16/16 Q0989=
202308071720 METAR ESMX 071720Z VRB04KT 5000 BR SCT007 BKN014 BKN020 16/16 Q0989=
202308071650 METAR ESMX 071650Z 35004KT 320V020 9000 -RA FEW008 SCT014 BKN018 16/16 Q0989 REDZ=
202308071620 METAR ESMX 071620Z 04004KT 340V080 9999 FEW008 BKN012 17/16 Q0989=
202308071550 METAR ESMX 071550Z 05003KT 350V090 9999 SCT006 BKN015 BKN021 16/16 Q0989=
202308071520 METAR ESMX 071520Z 05007KT 010V080 7000 -RA SCT003 OVC020 16/16 Q0989=
202308071450 METAR ESMX 071450Z VRB02KT 7000 BR BKN012 17/16 Q0989=
202308071420 METAR COR ESMX 071420Z 06004KT 030V090 4000 DZ FEW003 BKN012 16/16 Q0989=
202308071350 METAR ESMX 071350Z 04006KT 010V090 9999 -RA SCT013 BKN022 17/16 Q0989=
202308071320 METAR ESMX 071320Z 05008KT 010V100 9999 -RA SCT016 BKN029 18/15 Q0989=
202308071250 METAR ESMX 071250Z 05006KT 020V110 9999 SCT017 BKN023 18/15 Q0989=
202308071220 METAR ESMX 071220Z AUTO 03005KT 360V080 9999 BKN017/// OVC039/// 18/15 Q0989=
202308071150 METAR ESMX 071150Z AUTO 06006KT 020V110 9999 -DZ SCT018/// OVC031/// 17/15 Q0989=
202308071120 METAR ESMX 071120Z AUTO VRB06KT 9999 SCT017/// BKN025/// OVC033/// 18/15 Q0989=
202308071050 METAR ESMX 071050Z AUTO 07007KT 040V120 9999 FEW013/// BKN027/// OVC035/// 18/15 Q0989=
202308071020 METAR ESMX 071020Z AUTO 06008KT 010V100 9999 FEW009/// SCT015/// OVC022/// 17/16 Q0989=
202308070950 METAR ESMX 070950Z AUTO 08005KT 020V160 9999 FEW006/// BKN015/// BKN031/// 17/16 Q0989 REDZ=
202308070920 METAR ESMX 070920Z AUTO 08006KT 010V120 7000 FEW006/// SCT010/// BKN017/// 16/16 Q0989 REDZ=
202308070850 METAR ESMX 070850Z 09007KT 040V140 9999 FEW006 BKN009 17/16 Q0989=
202308070820 METAR ESMX 070820Z 09007KT 040V130 9999 BKN010 17/16 Q0989=
202308070750 METAR ESMX 070750Z 07009KT 030V110 9999 BKN013 18/16 Q0989=
202308070720 METAR ESMX 070720Z 05006KT 360V100 9999 SCT009 BKN013 18/17 Q0989=
202308070650 METAR ESMX 070650Z 05005KT 350V110 9999 BKN010 18/17 Q0989=
202308070620 METAR ESMX 070620Z 07005KT 020V120 9999 BKN009 18/17 Q0989=
202308070550 METAR ESMX 070550Z 08004KT 030V120 9999 BKN009 18/18 Q0990=
202308070520 METAR ESMX 070520Z 07006KT 020V110 9999 BKN008 18/18 Q0990=
202308070450 METAR ESMX 070450Z AUTO 04004KT 010V070 9999 BKN010/// BKN014/// OVC018/// 18/18 Q0990=
202308070420 METAR ESMX 070420Z 03004KT 360V070 9999 BKN007 18/18 Q0990=
202308070350 METAR ESMX 070350Z AUTO 04005KT 9999 OVC009/// 18/18 Q0990=
202308070320 METAR ESMX 070320Z AUTO 04005KT 9000 SCT003/// BKN006/// OVC009/// 17/17 Q0990=
202308070250 METAR ESMX 070250Z AUTO 04006KT 010V070 6000 OVC002/// 17/17 Q0990=
202308070220 METAR ESMX 070220Z AUTO 03007KT 2300 BR OVC002/// 17/17 Q0991=
202308070150 METAR ESMX 070150Z AUTO 01006KT 350V050 4700 BR OVC002/// 17/17 Q0991=
202308070120 METAR ESMX 070120Z AUTO 02006KT 8000 OVC002/// 16/16 Q0992=
202308070050 METAR ESMX 070050Z AUTO 36007KT 9999 OVC003/// 16/16 Q0992=
202308070020 METAR ESMX 070020Z AUTO 02010KT 9999 OVC003/// 16/16 Q0992=
202308062350 METAR ESMX 062350Z AUTO 01010KT 9999 OVC004/// 15/15 Q0992=
202308062320 METAR ESMX 062320Z AUTO 35010KT 9999 OVC004/// 15/15 Q0993=
202308062250 METAR ESMX 062250Z AUTO 35010KT 9999 OVC005/// 15/15 Q0994=
202308062220 METAR ESMX 062220Z AUTO 35011KT 9999 -DZ FEW002/// OVC006/// 15/15 Q0994=
202308062150 METAR ESMX 062150Z AUTO 02012KT 9000 RA SCT002/// BKN004/// OVC006/// 14/14 Q0994=
202308062120 METAR ESMX 062120Z AUTO 35013KT 7000 RA FEW002/// OVC006/// 14/14 Q0995 RESHRA=
202308062050 METAR ESMX 062050Z AUTO 35012KT 9999 -RA OVC006/// 14/14 Q0995 RERA=
202308062020 METAR ESMX 062020Z AUTO 35012KT 9999 OVC007/// 14/14 Q0996=
202308061950 METAR ESMX 061950Z AUTO 35012KT 9999 DZ BKN006/// OVC009/// 14/14 Q0997=
202308061920 METAR ESMX 061920Z AUTO 35011KT 9999 -RA OVC007/// 14/14 Q0998 RERA=
202308061850 METAR ESMX 061850Z AUTO 34013KT 9999 OVC007/// 14/14 Q0998 RERA=
202308061820 METAR ESMX 061820Z AUTO 34014KT 8000 -RA FEW001/// BKN006/// OVC015/// 13/13 Q0998=
202308061750 METAR ESMX 061750Z AUTO 35011KT 9999 -RA FEW001/// OVC007/// 13/13 Q0999=
202308061720 METAR ESMX 061720Z AUTO 34015KT 9999 -RA OVC008/// 13/13 Q1000 REDZ=
202308061650 METAR ESMX 061650Z AUTO 34015KT 9999 OVC007/// 13/13 Q1000=
202308061620 METAR ESMX 061620Z AUTO 34013KT 5000 DZ OVC006/// 13/13 Q1001 RERA=
202308061550 METAR ESMX 061550Z AUTO 34014KT 9999 BKN007/// OVC012/// 13/13 Q1002=
202308061520 METAR ESMX 061520Z 33013KT 9999 RA BKN002 13/13 Q1002=
202308061450 METAR ESMX 061450Z 34014KT 9000 RA TS SCT002 BKN006 13/13 Q1003=
202308061420 METAR ESMX 061420Z AUTO 34014KT 6000 RA SCT002/// BKN008/// OVC022/// 13/13 Q1003=
202308061350 METAR ESMX 061350Z 35016KT 7000 -RA SCT007 BKN023 14/13 Q1004=
202308061320 METAR ESMX 061320Z 35015KT 8000 DZ SCT006 BKN031 14/14 Q1005=
202308061250 METAR ESMX 061250Z 34014KT 9999 -DZ SCT008 OVC043 14/14 Q1005=
202308061220 METAR ESMX 061220Z 34013KT 9000 -RA FEW009 BKN053 14/14 Q1006=
202308061150 METAR ESMX 061150Z AUTO 34011KT 9999 RA FEW008/// OVC061/// 14/14 Q1006=
202308061120 METAR ESMX 061120Z 35011KT 9999 -RA SCT013 OVC066 15/14 Q1007=
202308061050 METAR COR ESMX 061050Z 35010KT 9999 RA SCT012 OVC070 15/14 Q1007=
202308061020 METAR ESMX 061020Z 02009KT 9999 -RA FEW017 OVC084 15/14 Q1008=
202308060950 METAR ESMX 060950Z AUTO 01008KT 9999 -RA FEW018/// SCT048/// BKN074/// 15/14 Q1008=
202308060920 METAR ESMX 060920Z AUTO 02008KT 340V050 9999 -RA FEW022/// BKN078/// OVC096/// 16/13 Q1008=
202308060850 METAR ESMX 060850Z AUTO 03010KT 9999 OVC100/// 16/13 Q1008=
202308060820 METAR ESMX 060820Z 03010KT CAVOK 16/13 Q1008=
202308060750 METAR ESMX 060750Z 02007KT CAVOK 15/13 Q1009=
202308060720 METAR ESMX 060720Z 03008KT CAVOK 15/13 Q1009=
202308060650 METAR ESMX 060650Z 02008KT CAVOK 14/12 Q1009=
202308060620 METAR ESMX 060620Z 03008KT CAVOK 14/12 Q1009=
202308060550 METAR COR ESMX 060550Z 01005KT CAVOK 13/12 Q1009=
202308060520 METAR ESMX 060520Z AUTO 02005KT 9999 BKN140/// 13/12 Q1010=
202308060450 METAR ESMX 060450Z AUTO 36005KT 9999 FEW150/// BKN210/// 12/12 Q1010=
202308060420 METAR ESMX 060420Z AUTO 01005KT 9999 BKN160/// 12/12 Q1010=
202308060350 METAR ESMX 060350Z AUTO 02004KT 9999 SCT160/// 11/11 Q1011=
202308060320 METAR ESMX 060320Z AUTO 36002KT 9999 NCD 10/10 Q1011=
202308060250 METAR ESMX 060250Z AUTO 02002KT 6000 BCFG NCD 10/10 Q1011=
202308060220 METAR ESMX 060220Z AUTO 22002KT 0200 R01/P2000N R19/1100N NCD 11/11 Q1011=
202308060150 METAR ESMX 060150Z AUTO 22002KT 0650 R01/P2000N R19/1800N BR NCD 10/10 Q1011=
202308060120 METAR ESMX 060120Z AUTO VRB02KT 0250 R01/P2000N R19/0900N NCD 09/09 Q1011=
202308060050 METAR ESMX 060050Z AUTO 00000KT 2600 NCD 09/09 Q1011=
202308060020 METAR ESMX 060020Z AUTO 22001KT 2100 BR FEW004/// 10/10 Q1012=
202308052350 METAR ESMX 052350Z AUTO 00000KT 9999 NCD 10/10 Q1012=
202308052320 METAR ESMX 052320Z AUTO 17003KT 9999 NCD 10/10 Q1012=
202308052250 METAR ESMX 052250Z AUTO 00000KT 9999 NCD 10/10 Q1012=
202308052220 METAR ESMX 052220Z AUTO 00000KT 9999 NCD 10/10 Q1012=
202308052150 METAR ESMX 052150Z AUTO 00000KT 9999 NCD 11/11 Q1012=
202308052120 METAR ESMX 052120Z AUTO 00000KT 9999 NCD 11/11 Q1012=
202308052050 METAR ESMX 052050Z AUTO 00000KT 9999 NCD 11/10 Q1013=
202308052020 METAR ESMX 052020Z AUTO 17002KT 9999 NCD 12/12 Q1012=
202308051950 METAR ESMX 051950Z AUTO 00000KT 9999 -RA NCD 13/12 Q1012=
202308051920 METAR ESMX 051920Z AUTO 00000KT 9999 NCD 13/12 Q1012=
202308051850 METAR ESMX 051850Z AUTO 00000KT 9999 NCD 15/12 Q1012=
202308051820 METAR ESMX 051820Z AUTO 33002KT 9999 NCD 17/13 Q1012=
202308051750 METAR ESMX 051750Z AUTO VRB03KT 9999 NCD 17/11 Q1012=
202308051720 METAR ESMX 051720Z AUTO VRB03KT 9999 NCD 18/11 Q1012=
202308051650 METAR ESMX 051650Z AUTO 27004KT 190V320 9999 FEW041/// SCT210/// 18/10 Q1012=
202308051620 METAR ESMX 051620Z AUTO 29005KT 9999 BKN038/// 18/11 Q1012=
202308051550 METAR ESMX 051550Z 26005KT 9999 SCT036 18/11 Q1012=
202308051520 METAR ESMX 051520Z 27007KT 220V290 9999 SCT037 19/10 Q1012=
202308051450 METAR ESMX 051450Z 24007KT 200V290 9999 SCT040 18/11 Q1012=
202308051420 METAR ESMX 051420Z 27007KT 240V300 9999 SCT040 19/11 Q1012=
202308051350 METAR ESMX 051350Z 23008KT 9999 BKN043 20/10 Q1012=
202308051320 METAR ESMX 051320Z 23006KT 170V300 9999 SCT039 BKN048 19/10 Q1012=
202308051250 METAR ESMX 051250Z 26005KT 220V300 9999 SCT039 18/10 Q1012=
202308051220 METAR ESMX 051220Z 22006KT 160V270 9999 BKN040 19/11 Q1012=
202308051150 METAR ESMX 051150Z AUTO 20007KT 160V240 9999 FEW032/// OVC041/// 18/11 Q1012=
202308051120 METAR ESMX 051120Z AUTO 24006KT 210V280 9999 SCT032/// OVC039/// 17/11 Q1012=
202308051050 METAR ESMX 051050Z AUTO 20007KT 9999 OVC034/// 16/09 Q1012=
202308051020 METAR ESMX 051020Z AUTO 23009KT 200V270 9999 OVC036/// 16/11 Q1012=
202308050950 METAR ESMX 050950Z AUTO 25010KT 210V280 9999 BKN023/// OVC039/// 15/11 Q1012=
202308050920 METAR ESMX 050920Z AUTO 21010KT 9999 SCT026/// OVC040/// 16/11 Q1012=
202308050850 METAR ESMX 050850Z 22011KT 9999 SCT023 BKN038 16/11 Q1012=
202308050820 METAR ESMX 050820Z 23010KT 9999 FEW019 SCT024 BKN041 16/12 Q1012=
202308050750 METAR ESMX 050750Z 20011KT 9999 BKN042 15/12 Q1012=
202308050720 METAR ESMX 050720Z AUTO 19010KT 9999 OVC040/// 15/12 Q1012=
202308050650 METAR ESMX 050650Z 21008KT 9999 BKN038 14/13 Q1012=
202308050620 METAR ESMX 050620Z AUTO 20007KT 9999 OVC038/// 14/13 Q1011=
202308050550 METAR ESMX 050550Z AUTO 21007KT 9999 OVC037/// 13/12 Q1011=
202308050520 METAR ESMX 050520Z AUTO 19007KT 9999 OVC040/// 13/12 Q1011=
202308050450 METAR ESMX 050450Z AUTO 21007KT 9999 OVC039/// 13/12 Q1011=
202308050420 METAR ESMX 050420Z AUTO 19007KT 9999 FEW021/// OVC039/// 12/12 Q1011=
202308050350 METAR ESMX 050350Z AUTO 21006KT 9999 OVC041/// 12/12 Q1011=
202308050320 METAR ESMX 050320Z AUTO 20005KT 9999 BKN042/// 11/11 Q1011=
202308050250 METAR ESMX 050250Z AUTO 18005KT 9999 OVC040/// 12/12 Q1011=
202308050220 METAR ESMX 050220Z AUTO 18006KT 9999 OVC040/// 12/12 Q1011=
202308050150 METAR ESMX 050150Z AUTO 17006KT 9999 OVC039/// 12/12 Q1011=
202308050120 METAR ESMX 050120Z AUTO 18006KT 9999 BKN037/// 12/12 Q1010=
202308050050 METAR ESMX 050050Z AUTO 19004KT 9999 FEW036/// 12/12 Q1010=
202308050020 METAR ESMX 050020Z AUTO 20005KT 9999 OVC037/// 12/12 Q1010=
202308042350 METAR ESMX 042350Z AUTO 18007KT 9999 OVC037/// 13/12 Q1011=
202308042320 METAR ESMX 042320Z AUTO 21005KT 9999 OVC036/// 13/13 Q1010=
202308042250 METAR ESMX 042250Z AUTO 18007KT 9999 OVC037/// 13/13 Q1010=
202308042220 METAR ESMX 042220Z AUTO 19004KT 9999 OVC038/// 14/13 Q1010=
202308042150 METAR ESMX 042150Z AUTO 18005KT 9999 BKN040/// 14/13 Q1010=
202308042120 METAR ESMX 042120Z AUTO 20005KT 9999 FEW029/// BKN041/// 15/13 Q1010=
202308042050 METAR ESMX 042050Z AUTO 22007KT 9999 OVC040/// 15/13 Q1010=
202308042020 METAR ESMX 042020Z AUTO 22008KT 9999 FEW016/// SCT032/// OVC044/// 16/13 Q1010=
202308041950 METAR ESMX 041950Z AUTO 20006KT 9999 FEW008/// BKN018/// OVC049/// 16/13 Q1009=
202308041920 METAR ESMX 041920Z AUTO 19006KT 9999 FEW035/// OVC046/// 16/13 Q1009=
202308041850 METAR ESMX 041850Z AUTO 23006KT 9999 FEW034/// OVC045/// 16/13 Q1009=
202308041820 METAR ESMX 041820Z AUTO 22006KT 200V260 9999 OVC043/// 16/13 Q1009=
202308041750 METAR ESMX 041750Z AUTO 22009KT 190V250 9999 FEW028/// OVC042/// 17/13 Q1009=
202308041720 METAR ESMX 041720Z AUTO 23009KT 9999 SCT029/// OVC045/// 17/13 Q1008=
202308041650 METAR ESMX 041650Z AUTO 23009KT 9999 SCT036/// OVC046/// 18/12 Q1008=
202308041620 METAR ESMX 041620Z AUTO 24008KT 9999 OVC045/// 18/13 Q1008=
202308041550 METAR ESMX 041550Z AUTO 23009KT 9999 OVC043/// 18/13 Q1008=
202308041520 METAR ESMX 041520Z AUTO 25009KT 210V280 9999 FEW031/// OVC044/// 19/13 Q1007=
202308041450 METAR ESMX 041450Z AUTO 24009KT 9999 OVC043/// 19/13 Q1007=
202308041420 METAR ESMX 041420Z AUTO 23009KT 9999 FEW029/// OVC041/// 19/13 Q1007=
202308041350 METAR ESMX 041350Z AUTO 23009KT 9999 FEW030/// OVC039/// 19/14 Q1006=
202308041320 METAR ESMX 041320Z AUTO 23011KT 9999 OVC035/// 19/13 Q1006=
202308041250 METAR ESMX 041250Z AUTO 22011KT 200V260 9999 OVC033/// 20/13 Q1006=
202308041220 METAR ESMX 041220Z AUTO 24009KT 9999 OVC031/// 20/13 Q1006=
202308041150 METAR ESMX 041150Z AUTO 21012KT 9999 OVC030/// 19/14 Q1006=
202308041120 METAR ESMX 041120Z AUTO 24012KT 210V280 9999 OVC028/// 19/14 Q1005=
202308041050 METAR ESMX 041050Z AUTO 23011KT 200V280 9999 OVC028/// 20/14 Q1005=
202308041020 METAR ESMX 041020Z AUTO 22010KT 200V260 9999 OVC025/// 19/14 Q1005=
202308040950 METAR COR ESMX 040950Z 22011KT 190V250 9999 BKN020 19/14 Q1004=
202308040920 METAR ESMX 040920Z AUTO 22011KT 190V250 9999 BKN023/// 19/14 Q1004=
202308040850 METAR ESMX 040850Z 24010KT 210V280 9999 BKN020 19/14 Q1004=
202308040820 METAR ESMX 040820Z 25009KT 9999 BKN017 18/14 Q1003=
202308040750 METAR ESMX 040750Z 25010KT 220V280 9999 BKN014 17/14 Q1003=
202308040720 METAR ESMX 040720Z 26010KT 230V290 9999 BKN013 17/14 Q1002=
202308040650 METAR ESMX 040650Z AUTO 26011KT 220V290 9999 OVC012/// 16/14 Q1002=
202308040620 METAR ESMX 040620Z 24008KT 200V280 9999 BKN010 16/14 Q1002=
202308040550 METAR ESMX 040550Z 26010KT 9999 BKN009 15/14 Q1001=
202308040520 METAR ESMX 040520Z 26010KT 9999 BKN006 15/14 Q1001=
202308040450 METAR ESMX 040450Z 26009KT 9999 BKN006 15/15 Q1000=
202308040420 METAR ESMX 040420Z 26007KT 9999 OVC005 15/15 Q1000=
202308040350 METAR ESMX 040350Z 25007KT 9999 OVC005 14/14 Q1000=
202308040320 METAR ESMX 040320Z AUTO 27006KT 9999 BKN006/// 14/14 Q1000=
202308040250 METAR ESMX 040250Z AUTO 26006KT 9999 FEW008/// 14/14 Q0999=
202308040220 METAR ESMX 040220Z AUTO 26007KT 9999 BKN007/// 15/15 Q0999=
202308040150 METAR ESMX 040150Z AUTO 26010KT 210V280 9999 OVC005/// 15/15 Q0999=
202308040120 METAR ESMX 040120Z AUTO 26008KT 200V280 9999 SCT005/// OVC130/// 15/15 Q0998=
202308040050 METAR ESMX 040050Z AUTO 25006KT 9999 FEW090/// OVC130/// 15/15 Q0998=
202308040020 METAR ESMX 040020Z AUTO 24005KT 9999 SCT120/// 14/14 Q0998=
202308032350 METAR ESMX 032350Z AUTO 25006KT 9999 FEW120/// 15/15 Q0998=
202308032320 METAR ESMX 032320Z 25006KT 210V280 9999 SCT008 BKN120 15/15 Q0997=
202308032250 METAR ESMX 032250Z 26005KT 230V290 9999 SCT008 BKN120 15/15 Q0997=
202308032220 METAR ESMX 032220Z 26006KT 9999 BKN008 BKN010 OVC110 16/15 Q0997=
202308032150 METAR ESMX 032150Z 27005KT 9999 BKN008 OVC010 16/15 Q0997=
202308032120 METAR ESMX 032120Z 26006KT 9999 BKN008 15/15 Q0996=
202308032050 METAR ESMX 032050Z 26005KT 9999 BKN007 BKN057 15/15 Q0996=
202308032020 METAR ESMX 032020Z 27006KT 9999 SCT007 BKN053 15/15 Q0996=
202308031950 METAR ESMX 031950Z 28006KT 9999 FEW008 BKN045 15/15 Q0995=
202308031920 METAR ESMX 031920Z AUTO 29006KT 9999 FEW009/// BKN039/// OVC047/// 16/15 Q0995=
202308031850 METAR ESMX 031850Z AUTO 27005KT 9999 FEW015/// SCT018/// OVC038/// 16/16 Q0995=
202308031820 METAR ESMX 031820Z AUTO 25005KT 9999 SCT012/// BKN025/// 16/16 Q0994=
202308031750 METAR ESMX 031750Z AUTO 28006KT 5000 DZ FEW003/// SCT024/// BKN032/// 16/16 Q0994=
202308031720 METAR ESMX 031720Z AUTO 30006KT 9999 DZ SCT017/// OVC024/// 17/15 Q0993=
202308031650 METAR ESMX 031650Z AUTO 25007KT 9999 FEW019/// BKN035/// 18/15 Q0993=
202308031620 METAR ESMX 031620Z 25008KT 9999 BKN025 BKN038 19/15 Q0992=
202308031550 METAR ESMX 031550Z 24009KT 220V280 9999 BKN023 20/14 Q0992=
202308031520 METAR ESMX 031520Z 24009KT 210V280 9999 FEW024 SCT038 20/15 Q0992=
202308031450 METAR ESMX 031450Z 24009KT 220V280 9999 SCT026 BKN037 20/15 Q0992=
202308031420 METAR COR ESMX 031420Z 23010KT 9999 BKN024 BKN036 20/15 Q0992=
202308031350 METAR ESMX 031350Z 22012KT 9999 BKN022 BKN031 21/16 Q0991=
202308031320 METAR ESMX 031320Z 19012KT 9999 BKN021 BKN029 21/15 Q0991=
202308031250 METAR ESMX 031250Z 23010KT 9999 FEW018 SCT043 21/16 Q0991=
202308031220 METAR ESMX 031220Z 23008KT 200V280 9999 SCT015 BKN035 19/16 Q0991=
202308031150 METAR ESMX 031150Z 23009KT 9999 FEW010 BKN061 19/17 Q0991=
202308031120 METAR COR ESMX 031120Z 20010KT 7000 -RA FEW005 SCT042 BKN055 17/17 Q0991=
202308031050 METAR ESMX 031050Z 21010KT 9999 -RA FEW015 BKN034 17/17 Q0990=
202308031020 METAR ESMX 031020Z 24009KT 9999 SCT014 BKN028 20/17 Q0990=
202308030950 METAR COR ESMX 030950Z 22009KT 9999 SCT009 BKN028 18/16 Q0990=
202308030920 METAR ESMX 030920Z AUTO 22008KT 9999 SCT011/// BKN016/// BKN021/// 18/17 Q0990=
202308030850 METAR ESMX 030850Z AUTO 21009KT 9999 SCT009/// BKN011/// BKN021/// 17/17 Q0989=
202308030820 METAR ESMX 030820Z AUTO 22010KT 9999 BKN009/// OVC020/// 18/17 Q0989=
202308030750 METAR ESMX 030750Z AUTO 17008KT 9999 BKN006/// OVC014/// 17/17 Q0989=
202308030720 METAR ESMX 030720Z AUTO 14004KT 9999 BKN004/// OVC007/// 16/16 Q0989=
202308030650 METAR ESMX 030650Z AUTO VRB03KT 9000 -DZ OVC005/// 16/16 Q0989=
202308030620 METAR ESMX 030620Z AUTO VRB03KT 9999 -DZ FEW002/// BKN005/// OVC007/// 15/15 Q0989 REDZ=
202308030550 METAR ESMX 030550Z AUTO 07003KT 030V120 5000 +DZ SCT004/// BKN009/// OVC010/// 15/15 Q0989 REDZ=
202308030520 METAR ESMX 030520Z AUTO 04005KT 010V100 7000 DZ SCT002/// BKN003/// OVC017/// 15/15 Q0989=
202308030450 METAR ESMX 030450Z AUTO 04007KT 6000 -RA SCT004/// BKN028/// OVC037/// 15/15 Q0989=
202308030420 METAR ESMX 030420Z AUTO 04008KT 8000 +DZ FEW002/// OVC005/// 15/15 Q0990=
202308030350 METAR ESMX 030350Z AUTO 06008KT 020V090 9999 -RA SCT005/// BKN007/// BKN009/// 15/15 Q0990=
202308030320 METAR ESMX 030320Z AUTO 05007KT 020V080 9000 RA FEW002/// BKN007/// BKN041/// 15/15 Q0990 RESHRA=
202308030250 METAR ESMX 030250Z AUTO 05007KT 7000 RA FEW002/// BKN006/// OVC011/// 15/15 Q0991=
202308030220 METAR ESMX 030220Z AUTO 04006KT 020V080 9999 BKN006/// OVC008/// 15/15 Q0991=
202308030150 METAR ESMX 030150Z AUTO 05005KT 020V080 9999 -RA OVC005/// 15/15 Q0992=
202308030120 METAR ESMX 030120Z AUTO 05005KT 9000 RA BKN004/// OVC006/// 15/15 Q0992=
202308030050 METAR ESMX 030050Z AUTO 07005KT 030V120 9999 RA BKN006/// BKN008/// OVC011/// 15/15 Q0993=
202308030020 METAR ESMX 030020Z AUTO 06004KT 020V110 9000 -RA FEW003/// BKN012/// OVC074/// 15/15 Q0993=
202308022350 METAR ESMX 022350Z 08003KT 360V120 9999 -RA BKN034 BKN044 OVC055 15/15 Q0994=
202308022320 METAR ESMX 022320Z AUTO VRB03KT 9999 SCT059/// BKN082/// OVC140/// 15/15 Q0994=
202308022250 METAR ESMX 022250Z AUTO VRB03KT 9999 SCT076/// BKN150/// 14/14 Q0994=
202308022220 METAR ESMX 022220Z 11004KT 060V140 9999 FEW011 SCT140 14/14 Q0995=
202308022150 METAR ESMX 022150Z AUTO 12004KT 080V170 9999 BKN140/// BKN170/// 15/14 Q0995=
202308022120 METAR ESMX 022120Z 13005KT 090V160 CAVOK 15/14 Q0995=
202308022050 METAR ESMX 022050Z AUTO 14005KT 9999 FEW074/// BKN200/// 16/14 Q0995=
202308022020 METAR ESMX 022020Z 14006KT 100V160 CAVOK 16/14 Q0995=
202308021950 METAR ESMX 021950Z 14006KT CAVOK 16/15 Q0995=
202308021920 METAR ESMX 021920Z AUTO 15006KT 9999 FEW066/// 17/15 Q0995=
202308021850 METAR ESMX 021850Z AUTO 15007KT 9999 BKN061/// BKN088/// 17/15 Q0995=
202308021820 METAR ESMX 021820Z AUTO 16006KT 9999 BKN055/// 18/15 Q0995=
202308021750 METAR ESMX 021750Z AUTO 17009KT 9999 BKN051/// 18/14 Q0995=
202308021720 METAR ESMX 021720Z AUTO 16008KT 9999 NCD 18/14 Q0995=
202308021650 METAR ESMX 021650Z AUTO 17009KT 140V200 9999 SCT055/// BKN098/// 19/14 Q0995=
202308021620 METAR ESMX 021620Z AUTO 18009KT 9999 OVC096/// 20/14 Q0995=
202308021550 METAR ESMX 021550Z AUTO 18007KT 9999 SCT038/// OVC090/// 20/14 Q0995=
202308021520 METAR ESMX 021520Z AUTO 20007KT 9999 SCT038/// BKN046/// 21/13 Q0995=
202308021450 METAR ESMX 021450Z AUTO 18007KT 160V220 9999 BKN036/// 20/14 Q0995=
202308021420 METAR ESMX 021420Z AUTO 20006KT 9999 FEW037/// SCT068/// BKN084/// 21/13 Q0995=
202308021350 METAR ESMX 021350Z AUTO 24007KT 210V290 9999 FEW031/// BKN086/// 20/14 Q0995=
202308021320 METAR ESMX 021320Z AUTO 24007KT 210V290 9999 FEW029/// SCT037/// 20/13 Q0995=
202308021250 METAR ESMX 021250Z AUTO 27005KT 210V330 9999 FEW031/// BKN074/// 20/14 Q0995=
202308021220 METAR ESMX 021220Z AUTO 27007KT 9999 FEW018/// SCT032/// BKN049/// 19/14 Q0995=
202308021150 METAR ESMX 021150Z AUTO 28009KT 9999 FEW011/// SCT025/// BKN033/// 18/15 Q0995=
202308021120 METAR ESMX 021120Z AUTO 27009KT 9999 FEW002/// BKN029/// BKN039/// 18/15 Q0995=
202308021050 METAR ESMX 021050Z AUTO 24009KT 210V280 9999 FEW018/// BKN031/// OVC046/// 19/15 Q0994=
202308021020 METAR ESMX 021020Z 24008KT 9999 SCT023 BKN048 18/15 Q0994=
202308020950 METAR ESMX 020950Z 23010KT 9999 SCT014 BKN020 17/15 Q0994=
202308020920 METAR ESMX 020920Z 25007KT 220V280 9999 SCT009 BKN011 BKN048 17/15 Q0994=
202308020850 METAR ESMX 020850Z AUTO 22008KT 9999 BKN008/// BKN011/// OVC021/// 15/15 Q0994 REDZ=
202308020820 METAR ESMX 020820Z 22007KT 190V260 9999 SCT011 BKN024 17/16 Q0994=
202308020750 METAR ESMX 020750Z 23007KT 9999 SCT008 BKN011 16/15 Q0994=
202308020720 METAR ESMX 020720Z 22006KT 9999 BKN005 BKN013 OVC026 15/15 Q0994=
202308020650 METAR ESMX 020650Z 21006KT 170V230 9999 SCT005 BKN006 BKN008 15/15 Q0994 REDZ=
202308020620 METAR ESMX 020620Z 21006KT 9999 BKN005 14/14 Q0993 REDZ=
202308020550 METAR COR ESMX 020550Z 20005KT 160V220 5000 VV002 14/14 Q0993=
202308020520 METAR ESMX 020520Z AUTO 18005KT 0350 R01/0900N R19/0750N FG BKN001/// OVC002/// 14/14 Q0993=
202308020450 METAR ESMX 020450Z AUTO 21006KT 0250 R01/0650N R19/0750N FG SCT001/// OVC002/// 14/14 Q0993=
202308020420 METAR ESMX 020420Z AUTO 18005KT 0250 R01/0650N R19/0750N FG OVC001/// 14/14 Q0993=
202308020350 METAR ESMX 020350Z AUTO 19005KT 0250 R01/0600N R19/1300D FG OVC001/// 14/14 Q0993=
202308020320 METAR ESMX 020320Z AUTO 22004KT 0450 R01/1100N R19/P2000N FG OVC002/// 14/14 Q0993=
202308020250 METAR ESMX 020250Z AUTO 22004KT 1900 BR OVC003/// 14/14 Q0993=
202308020220 METAR ESMX 020220Z AUTO 20006KT 8000 OVC003/// 14/14 Q0994=
202308020150 METAR ESMX 020150Z AUTO 23007KT 9999 BKN003/// OVC005/// 14/14 Q0994=
202308020120 METAR ESMX 020120Z AUTO 24004KT 9999 BKN005/// BKN007/// 14/14 Q0994=
202308020050 METAR ESMX 020050Z AUTO 21005KT 9999 OVC005/// 14/14 Q0994=
202308020020 METAR ESMX 020020Z AUTO 22006KT 9999 OVC005/// 14/14 Q0994=
202308012350 METAR ESMX 012350Z AUTO 23007KT 9999 OVC005/// 14/14 Q0994=
202308012320 METAR ESMX 012320Z 23006KT 9999 BKN007 15/15 Q0994=
202308012250 METAR ESMX 012250Z 21005KT 9999 SCT008 BKN098 15/15 Q0993=
202308012220 METAR ESMX 012220Z 22006KT 9999 BKN004 15/15 Q0993=
202308012150 METAR ESMX 012150Z 19005KT 9999 FEW004 BKN006 BKN088 15/15 Q0993=
202308012120 METAR ESMX 012120Z 20006KT 9999 SCT005 BKN084 15/15 Q0993=
202308012050 METAR ESMX 012050Z 22004KT 9999 FEW004 SCT053 BKN074 15/15 Q0993 RERA=
202308012020 METAR ESMX 012020Z 22003KT 9999 DZ FEW007 BKN055 BKN074 15/15 Q0993=
202308011950 METAR ESMX 011950Z 24006KT 9999 -DZ FEW046 SCT061 BKN076 15/15 Q0993=
202308011920 METAR ESMX 011920Z AUTO 23003KT 9999 DZ FEW040/// OVC066/// 16/16 Q0993=
202308011850 METAR ESMX 011850Z AUTO 23003KT 9999 -RA FEW011/// BKN033/// BKN066/// 16/16 Q0993=
202308011820 METAR ESMX 011820Z AUTO 23005KT 9999 BKN007/// OVC045/// 16/16 Q0993 RERA=
202308011750 METAR ESMX 011750Z AUTO 24004KT 9999 SCT009/// BKN018/// OVC039/// 16/16 Q0993=
202308011720 METAR ESMX 011720Z AUTO 22004KT 9999 -RA SCT006/// BKN009/// OVC014/// 17/16 Q0993 RERA=
202308011650 METAR ESMX 011650Z AUTO VRB02KT 6000 RA FEW014/// BKN018/// BKN042/// 17/17 Q0993=
202308011620 METAR ESMX 011620Z AUTO 34004KT 300V020 9999 -RA SCT022/// BKN031/// BKN061/// 17/17 Q0993 RERA=
202308011550 METAR ESMX 011550Z AUTO 19005KT 9999 SCT022/// OVC038/// 17/16 Q0993 RERA=
202308011520 METAR ESMX 011520Z AUTO 02004KT 9999 BKN023/// OVC043/// 18/16 Q0993=
202308011450 METAR ESMX 011450Z AUTO VRB02KT 9999 FEW023/// BKN036/// BKN045/// 18/16 Q0993 RERA=
202308011420 METAR ESMX 011420Z AUTO 04004KT 360V110 9999 FEW017/// OVC049/// 19/15 Q0993=
202308011350 METAR ESMX 011350Z AUTO 04006KT 020V100 9999 FEW017/// OVC051/// 19/15 Q0993=
202308011320 METAR ESMX 011320Z AUTO 07005KT 020V120 9999 SCT017/// BKN040/// OVC051/// 18/15 Q0993=
202308011250 METAR ESMX 011250Z AUTO 09003KT 030V120 9999 OVC044/// 18/15 Q0993=
202308011220 METAR ESMX 011220Z AUTO 08004KT 030V110 9999 OVC041/// 18/15 Q0993=
