##########################################################
# Query made at 04/19/2024 22:32:45 UTC
# Time interval: from 07/01/2023 12:00  to 07/31/2023 12:59  UTC
##########################################################

##########################################################
# ESMX, Vaxjo (Sweden)
# WMO index: 02641. WIGOS ID: 0-20000-0-02648
# Latitude 56-51N. Longitude 014-50E. Altitude 199 m.
##########################################################

202307311250 METAR ESMX 311250Z 21006KT 9999 RA SCT030 BKN055 15/13 Q1003=
202307311220 METAR ESMX 311220Z 18009KT 9999 -RA BKN064 16/13 Q1003=
202307311150 METAR ESMX 311150Z AUTO 16011KT 9999 FEW025/// SCT035/// BKN061/// 17/12 Q1002=
202307311120 METAR ESMX 311120Z AUTO 18013KT 9999 SCT028/// BKN110/// 19/12 Q1002=
202307311050 METAR ESMX 311050Z AUTO 14010KT 110V170 9999 BKN025/// OVC074/// 17/13 Q1003=
202307311020 METAR ESMX 311020Z AUTO 15008KT 120V190 9999 FEW030/// BKN062/// BKN086/// 17/11 Q1003=
202307310950 METAR ESMX 310950Z AUTO 19006KT 160V230 9999 SCT029/// BKN080/// 18/11 Q1003=
202307310920 METAR ESMX 310920Z AUTO 18009KT 9999 FEW051/// SCT076/// 18/12 Q1003=
202307310850 METAR ESMX 310850Z 19010KT 9999 SCT017 16/12 Q1003=
202307310820 METAR ESMX 310820Z AUTO 18010KT 9999 SCT018/// 16/13 Q1003=
202307310750 METAR ESMX 310750Z 18009KT 9999 SCT011 BKN019 15/13 Q1004=
202307310720 METAR ESMX 310720Z 19009KT 9999 SCT010 BKN018 14/13 Q1004=
202307310650 METAR ESMX 310650Z 19008KT 9999 BKN006 14/13 Q1004=
202307310620 METAR ESMX 310620Z 19008KT 9999 BKN004 13/13 Q1004=
202307310550 METAR ESMX 310550Z AUTO 21008KT 9999 OVC004/// 13/13 Q1004=
202307310520 METAR ESMX 310520Z 22006KT 9999 BKN003 13/13 Q1004=
202307310450 METAR ESMX 310450Z 19007KT 5000 VV002 12/12 Q1004=
202307310420 METAR ESMX 310420Z 20007KT 0350 R01/0700N R19/1200D FG VV002 12/12 Q1004=
202307310350 METAR ESMX 310350Z 20006KT 8000 OVC002 12/12 Q1004=
202307310320 METAR ESMX 310320Z AUTO 22007KT 6000 OVC002/// 12/12 Q1004=
202307310250 METAR ESMX 310250Z AUTO 22007KT 9999 OVC003/// 12/12 Q1004=
202307310220 METAR ESMX 310220Z AUTO 22006KT 9999 BKN004/// 12/12 Q1004=
202307310150 METAR ESMX 310150Z AUTO 18005KT 9999 FEW005/// 12/12 Q1004=
202307310120 METAR ESMX 310120Z AUTO 22005KT 9999 BKN005/// OVC072/// 12/12 Q1004=
202307310050 METAR ESMX 310050Z AUTO 22006KT 9999 BKN072/// OVC088/// 13/13 Q1004=
202307310020 METAR ESMX 310020Z AUTO 21006KT 9999 BKN070/// OVC084/// 13/13 Q1005=
202307302350 METAR ESMX 302350Z AUTO 22005KT 9999 FEW048/// OVC080/// 13/13 Q1005=
202307302320 METAR ESMX 302320Z AUTO 21007KT 9999 FEW036/// OVC084/// 13/13 Q1005=
202307302250 METAR ESMX 302250Z AUTO 18005KT 9999 OVC086/// 13/13 Q1005=
202307302220 METAR ESMX 302220Z AUTO 16004KT 9999 BKN090/// BKN100/// 13/13 Q1005=
202307302150 METAR ESMX 302150Z AUTO 19005KT 9999 FEW090/// BKN120/// 13/13 Q1005=
202307302120 METAR ESMX 302120Z AUTO 16005KT 9999 FEW080/// BKN140/// 14/13 Q1004=
202307302050 METAR ESMX 302050Z AUTO 20004KT 9999 FEW078/// 13/13 Q1004=
202307302020 METAR ESMX 302020Z AUTO 22004KT 9999 -RA FEW027/// SCT062/// BKN088/// 13/13 Q1005=
202307301950 METAR ESMX 301950Z AUTO 22004KT 9999 -RA FEW033/// BKN074/// 13/13 Q1005=
202307301920 METAR ESMX 301920Z AUTO 25008KT 9999 -RA FEW001/// OVC066/// 14/12 Q1005 RERA=
202307301850 METAR ESMX 301850Z AUTO 21022KT 8000 +RA SQ FEW002/// BKN043/// OVC072/// 15/13 Q1005=
202307301820 METAR ESMX 301820Z AUTO 24006KT 9999 SCT043/// 19/11 Q1004=
202307301750 METAR ESMX 301750Z AUTO 24006KT 210V270 9999 FEW084/// 20/11 Q1004=
202307301720 METAR ESMX 301720Z AUTO 21008KT 9999 SCT047/// BKN190/// 20/11 Q1004=
202307301650 METAR ESMX 301650Z AUTO 22008KT 9999 FEW190/// 20/11 Q1004=
202307301620 METAR ESMX 301620Z AUTO 22010KT 9999 NCD 20/11 Q1004=
202307301550 METAR ESMX 301550Z AUTO 19011KT 9999 FEW044/// SCT096/// 21/12 Q1004=
202307301520 METAR ESMX 301520Z 22010KT 9999 SCT048 22/11 Q1004=
202307301450 METAR ESMX 301450Z 21011KT CAVOK 21/11 Q1004=
202307301420 METAR ESMX 301420Z 23010KT CAVOK 22/11 Q1004=
202307301350 METAR ESMX 301350Z 24011KT 210V280 CAVOK 22/11 Q1004=
202307301320 METAR ESMX 301320Z 24011KT 210V290 CAVOK 22/09 Q1004=
202307301250 METAR ESMX 301250Z AUTO 25010KT 200V280 9999 NCD 22/11 Q1004=
202307301220 METAR ESMX 301220Z 25009KT 210V290 9999 SCT039 22/11 Q1004=
202307301150 METAR ESMX 301150Z 25009KT 200V280 9999 FEW040 SCT051 22/12 Q1005=
202307301120 METAR ESMX 301120Z 24010KT 200V260 9999 SCT040 21/10 Q1004=
202307301050 METAR ESMX 301050Z 21011KT 9999 SCT036 22/11 Q1004=
202307301020 METAR ESMX 301020Z 23010KT 200V260 9999 SCT036 21/13 Q1004=
202307300950 METAR ESMX 300950Z AUTO 23009KT 200V260 9999 FEW031/// 22/14 Q1004=
202307300920 METAR ESMX 300920Z AUTO 22009KT 190V250 9999 FEW041/// SCT092/// 20/13 Q1004=
202307300850 METAR ESMX 300850Z AUTO 22009KT 200V260 9999 SCT027/// BKN096/// 19/14 Q1004=
202307300820 METAR ESMX 300820Z 24009KT 190V280 9999 SCT026 BKN042 20/14 Q1004=
202307300750 METAR ESMX 300750Z 22008KT 200V260 9999 SCT024 BKN100 19/14 Q1004=
202307300720 METAR ESMX 300720Z 24010KT 210V280 9999 BKN015 19/14 Q1004=
202307300650 METAR ESMX 300650Z 25008KT 9999 SCT013 BKN033 17/15 Q1004=
202307300620 METAR ESMX 300620Z 25008KT 9999 SCT011 BKN016 17/15 Q1004=
202307300550 METAR ESMX 300550Z 23006KT 200V260 9999 SCT011 BKN016 17/15 Q1004=
202307300520 METAR ESMX 300520Z AUTO 24005KT 210V270 9999 BKN010/// OVC013/// 17/15 Q1004=
202307300450 METAR ESMX 300450Z AUTO 24005KT 220V280 9999 FEW008/// BKN012/// OVC094/// 16/15 Q1004=
202307300420 METAR ESMX 300420Z AUTO 24005KT 220V280 9999 BKN009/// OVC013/// 16/16 Q1004=
202307300350 METAR ESMX 300350Z AUTO 22004KT 9999 FEW010/// BKN016/// BKN130/// 16/16 Q1004=
202307300320 METAR ESMX 300320Z AUTO 20004KT 9999 FEW008/// SCT021/// BKN026/// 16/16 Q1003=
202307300250 METAR ESMX 300250Z AUTO 23004KT 9999 SCT008/// BKN012/// BKN015/// 16/16 Q1003=
202307300220 METAR ESMX 300220Z AUTO 23005KT 200V260 9999 FEW008/// OVC012/// 17/16 Q1003=
202307300150 METAR ESMX 300150Z AUTO 22006KT 9999 BKN006/// OVC010/// 17/17 Q1003=
202307300120 METAR ESMX 300120Z AUTO 21004KT 9999 BKN007/// OVC034/// 17/17 Q1003=
202307300050 METAR ESMX 300050Z AUTO 21004KT 9999 SCT007/// OVC032/// 17/17 Q1003=
202307300020 METAR ESMX 300020Z AUTO 17003KT 9999 BKN007/// OVC009/// 17/17 Q1003=
202307292350 METAR ESMX 292350Z AUTO 20004KT 9999 -DZ SCT005/// BKN007/// BKN035/// 17/17 Q1003=
202307292320 METAR ESMX 292320Z AUTO 18006KT 9999 OVC006/// 17/17 Q1003=
202307292250 METAR ESMX 292250Z AUTO 17006KT 9999 OVC006/// 17/17 Q1003=
202307292220 METAR ESMX 292220Z AUTO 17006KT 9999 OVC007/// 17/17 Q1003=
202307292150 METAR ESMX 292150Z AUTO 17005KT 9999 BKN008/// OVC010/// 17/16 Q1003=
202307292120 METAR ESMX 292120Z AUTO 17005KT 9999 BKN011/// OVC019/// 18/16 Q1003=
202307292050 METAR ESMX 292050Z AUTO 16006KT 9999 SCT012/// BKN025/// 18/16 Q1004=
202307292020 METAR ESMX 292020Z AUTO 16006KT 130V190 9999 BKN094/// 18/16 Q1004=
202307291950 METAR ESMX 291950Z AUTO 16006KT 9999 SCT098/// OVC160/// 18/15 Q1003=
202307291920 METAR ESMX 291920Z AUTO 15005KT 9999 SCT098/// OVC140/// 18/15 Q1003=
202307291850 METAR ESMX 291850Z AUTO 16004KT 9999 FEW048/// SCT150/// 19/14 Q1003=
202307291820 METAR ESMX 291820Z AUTO 17005KT 9999 FEW051/// SCT160/// 19/14 Q1004=
202307291750 METAR ESMX 291750Z AUTO 15006KT 9999 FEW078/// 19/14 Q1003=
202307291720 METAR ESMX 291720Z AUTO 16006KT 130V190 9999 SCT094/// 20/14 Q1003=
202307291650 METAR ESMX 291650Z AUTO 17010KT 9999 BKN076/// OVC096/// 20/14 Q1004=
202307291620 METAR ESMX 291620Z AUTO 18005KT 9999 OVC072/// 21/15 Q1004=
202307291550 METAR ESMX 291550Z AUTO 19008KT 9999 OVC070/// 21/15 Q1004=
202307291520 METAR ESMX 291520Z AUTO 18009KT 9999 BKN078/// 21/14 Q1004=
202307291450 METAR ESMX 291450Z AUTO 15007KT 9999 FEW059/// OVC084/// 21/13 Q1004=
202307291420 METAR ESMX 291420Z AUTO 16008KT 9999 FEW045/// SCT078/// OVC098/// 21/12 Q1004=
202307291350 METAR ESMX 291350Z AUTO 15008KT 9999 SCT047/// BKN086/// BKN100/// 22/12 Q1004=
202307291320 METAR ESMX 291320Z AUTO 17009KT 140V210 9999 FEW043/// BKN096/// OVC160/// 22/12 Q1004=
202307291250 METAR ESMX 291250Z AUTO 18007KT 9999 BKN043/// 22/12 Q1004=
202307291220 METAR ESMX 291220Z AUTO 16008KT 120V200 9999 SCT045/// 21/12 Q1005=
202307291150 METAR ESMX 291150Z AUTO 18010KT 150V210 9999 FEW046/// SCT057/// 22/11 Q1005=
202307291120 METAR ESMX 291120Z AUTO 18009KT 120V210 9999 SCT046/// BKN061/// 22/12 Q1005=
202307291050 METAR ESMX 291050Z AUTO 16009KT 120V200 9999 SCT046/// BKN064/// BKN090/// 22/11 Q1005=
202307291020 METAR ESMX 291020Z AUTO 17009KT 120V210 9999 FEW047/// OVC066/// 22/11 Q1005=
202307290950 METAR ESMX 290950Z AUTO 19008KT 9999 SCT068/// BKN092/// 21/10 Q1005=
202307290920 METAR ESMX 290920Z AUTO 16007KT 140V230 9999 FEW074/// 21/09 Q1005=
202307290850 METAR ESMX 290850Z 17007KT CAVOK 21/10 Q1006=
202307290820 METAR ESMX 290820Z AUTO 20006KT 9999 NCD 20/11 Q1006=
202307290750 METAR ESMX 290750Z 21005KT 170V230 CAVOK 19/11 Q1006=
202307290720 METAR ESMX 290720Z 19004KT 150V240 CAVOK 18/11 Q1006=
202307290650 METAR ESMX 290650Z 22003KT CAVOK 17/13 Q1006=
202307290620 METAR ESMX 290620Z AUTO 22002KT 9999 NCD 16/13 Q1006=
202307290550 METAR ESMX 290550Z AUTO 22003KT 9999 NCD 15/13 Q1006=
202307290520 METAR ESMX 290520Z 22002KT CAVOK 13/13 Q1006=
202307290450 METAR ESMX 290450Z VRB02KT CAVOK 12/12 Q1006=
202307290420 METAR ESMX 290420Z 19003KT CAVOK 11/11 Q1006=
202307290350 METAR ESMX 290350Z AUTO 19003KT 7000 NCD 11/11 Q1006=
202307290320 METAR ESMX 290320Z AUTO 22003KT 9999 NCD 10/10 Q1006=
202307290250 METAR ESMX 290250Z AUTO 24004KT 9999 NCD 10/10 Q1006=
202307290220 METAR ESMX 290220Z AUTO 24003KT 9999 NCD 10/10 Q1006=
202307290150 METAR ESMX 290150Z AUTO 24003KT 220V280 9999 NCD 11/11 Q1006=
202307290120 METAR ESMX 290120Z AUTO 24006KT 9999 NCD 11/11 Q1006=
202307290050 METAR ESMX 290050Z AUTO 25004KT 9999 NCD 11/11 Q1006=
202307290020 METAR ESMX 290020Z 26005KT CAVOK 11/11 Q1006=
202307282350 METAR ESMX 282350Z AUTO 25003KT 9999 NCD 11/11 Q1006=
202307282320 METAR ESMX 282320Z 27003KT CAVOK 11/11 Q1006=
202307282250 METAR ESMX 282250Z 27004KT CAVOK 11/11 Q1006=
202307282220 METAR ESMX 282220Z AUTO 26004KT 9999 NCD 10/10 Q1006=
202307282150 METAR ESMX 282150Z AUTO 26004KT 9999 SCT036/// 11/11 Q1006=
202307282120 METAR ESMX 282120Z AUTO 26005KT 9999 NCD 11/11 Q1006=
202307282050 METAR ESMX 282050Z AUTO 26004KT 9999 NCD 12/12 Q1005=
202307282020 METAR ESMX 282020Z AUTO 26004KT 9999 NCD 12/12 Q1005=
202307281950 METAR ESMX 281950Z AUTO 27003KT 9999 NCD 13/12 Q1005=
202307281920 METAR ESMX 281920Z AUTO 31003KT 9999 SCT049/// 16/11 Q1005=
202307281850 METAR ESMX 281850Z AUTO 34006KT 310V010 9999 SCT046/// BKN062/// OVC086/// 17/11 Q1005=
202307281820 METAR ESMX 281820Z AUTO 36004KT 9999 SCT044/// BKN082/// 17/12 Q1005=
202307281750 METAR ESMX 281750Z AUTO 36006KT 9999 SCT059/// BKN084/// 18/13 Q1004=
202307281720 METAR ESMX 281720Z AUTO 03007KT 9999 SCT057/// OVC084/// 18/12 Q1004=
202307281650 METAR ESMX 281650Z AUTO 02006KT 9999 OVC061/// 19/12 Q1004=
202307281620 METAR ESMX 281620Z AUTO 01006KT 340V040 9999 SCT057/// BKN076/// 20/12 Q1004=
202307281550 METAR ESMX 281550Z AUTO 01007KT 330V030 9999 BKN055/// 20/12 Q1004=
202307281520 METAR ESMX 281520Z AUTO 35008KT 320V040 9999 SCT057/// 21/11 Q1004=
202307281450 METAR ESMX 281450Z AUTO 28007KT 240V320 9999 FEW057/// 21/09 Q1004=
202307281420 METAR ESMX 281420Z AUTO 29008KT 260V320 9999 FEW062/// 21/08 Q1004=
202307281350 METAR ESMX 281350Z AUTO 27008KT 240V310 9999 NCD 22/10 Q1003=
202307281320 METAR ESMX 281320Z AUTO 27008KT 210V300 9999 FEW046/// 22/10 Q1003=
202307281250 METAR ESMX 281250Z AUTO 27008KT 230V310 9999 SCT048/// BKN068/// 21/10 Q1003=
202307281220 METAR ESMX 281220Z AUTO 27006KT 210V330 9999 SCT043/// 20/09 Q1003=
202307281150 METAR ESMX 281150Z AUTO 32009KT 9999 FEW042/// 20/10 Q1003=
202307281120 METAR ESMX 281120Z AUTO 29008KT 260V320 9999 FEW039/// 19/11 Q1003=
202307281050 METAR ESMX 281050Z AUTO 30005KT 240V010 9999 FEW039/// 20/11 Q1003=
202307281020 METAR ESMX 281020Z AUTO 30007KT 260V330 9999 NCD 20/11 Q1003=
202307280950 METAR ESMX 280950Z 26006KT 230V310 9999 BKN034 19/10 Q1003=
202307280920 METAR ESMX 280920Z 30006KT 9999 SCT033 18/12 Q1003=
202307280850 METAR ESMX 280850Z 23005KT 200V290 9999 SCT037 18/11 Q1003=
202307280820 METAR ESMX 280820Z 29005KT 230V340 9999 FEW019 SCT024 18/12 Q1003=
202307280750 METAR ESMX 280750Z VRB02KT 9999 SCT015 18/12 Q1003=
202307280720 METAR ESMX 280720Z 02003KT 320V050 9999 SCT009 16/13 Q1003=
202307280650 METAR ESMX 280650Z AUTO VRB03KT 9999 NCD 15/13 Q1003=
202307280620 METAR ESMX 280620Z VRB02KT 9999 FEW005 14/14 Q1003=
202307280550 METAR ESMX 280550Z 35003KT 320V020 9999 BKN003 13/13 Q1003=
202307280520 METAR ESMX 280520Z VRB02KT 5000 BCFG VV004 12/12 Q1003=
202307280450 METAR ESMX 280450Z 00000KT 0100 R01/0325N R19/0175N FG VV002 10/10 Q1003=
202307280420 METAR ESMX 280420Z 00000KT 4500 BCFG FEW030 08/08 Q1003=
202307280350 METAR ESMX 280350Z 00000KT 6000 BCFG FEW030 07/07 Q1003=
202307280320 METAR ESMX 280320Z AUTO 00000KT 0200 R01/1200N R19/0400N BCFG NCD 07/07 Q1003=
202307280250 METAR ESMX 280250Z AUTO 00000KT 9999 BCFG NCD 07/07 Q1003=
202307280220 METAR ESMX 280220Z AUTO 14003KT 1100 R01/P2000N R19/P2000N BCFG NCD 09/09 Q1003=
202307280150 METAR ESMX 280150Z AUTO 00000KT 0200 R01/P2000N R19/1000N BCFG NCD 08/08 Q1003=
202307280120 METAR ESMX 280120Z AUTO 17003KT 8000 NCD 08/08 Q1003=
202307280050 METAR ESMX 280050Z AUTO 18004KT 0550 R01/1800N R19/P2000N BCFG NCD 09/09 Q1003=
202307280020 METAR ESMX 280020Z AUTO 00000KT 9999 NCD 10/10 Q1003=
202307272350 METAR ESMX 272350Z 17004KT CAVOK 10/10 Q1003=
202307272320 METAR ESMX 272320Z 18005KT CAVOK 10/10 Q1003=
202307272250 METAR ESMX 272250Z 17004KT CAVOK 10/10 Q1003=
202307272220 METAR COR ESMX 272220Z 17004KT CAVOK 11/11 Q1003=
202307272150 METAR ESMX 272150Z 19003KT CAVOK 12/11 Q1004=
202307272120 METAR ESMX 272120Z 18004KT CAVOK 14/12 Q1004=
202307272050 METAR ESMX 272050Z 17005KT 9999 FEW049 SCT059 13/11 Q1004=
202307272020 METAR ESMX 272020Z 17003KT CAVOK 13/11 Q1004=
202307271950 METAR ESMX 271950Z 17004KT CAVOK 13/11 Q1004=
202307271920 METAR ESMX 271920Z AUTO 17004KT 9999 BKN092/// 14/11 Q1004=
202307271850 METAR ESMX 271850Z AUTO 23003KT 210V270 9999 FEW031/// SCT082/// 15/11 Q1004=
202307271820 METAR ESMX 271820Z AUTO 24006KT 9999 FEW082/// 16/11 Q1003=
202307271750 METAR ESMX 271750Z AUTO 24006KT 9999 FEW041/// 17/10 Q1003=
202307271720 METAR ESMX 271720Z AUTO 25009KT 9999 FEW043/// 17/09 Q1003=
202307271650 METAR ESMX 271650Z 23008KT 9999 FEW045 18/09 Q1003=
202307271620 METAR ESMX 271620Z 24010KT 9999 FEW047 SCT074 19/08 Q1003=
202307271550 METAR ESMX 271550Z 24010KT 9999 SCT049 BKN074 19/08 Q1003=
202307271520 METAR ESMX 271520Z 20011KT 170V230 9999 SCT041 BKN072 18/11 Q1003=
202307271450 METAR ESMX 271450Z 23010KT 200V260 9999 FEW035CB BKN049 OVC068 18/11 Q1003=
202307271420 METAR ESMX 271420Z AUTO 21011KT 180V240 9999 FEW028/// SCT035/// BKN044/// 19/12 Q1003=
202307271350 METAR ESMX 271350Z 23007KT 210V280 9999 SCT018 BKN076 17/12 Q1003 RERA=
202307271320 METAR ESMX 271320Z 26007KT 210V310 9999 BKN026 16/13 Q1003=
202307271250 METAR ESMX 271250Z 26007KT 9999 FEW030CB SCT061 BKN074 16/13 Q1004 RERA=
202307271220 METAR ESMX 271220Z 21006KT 170V250 9999 FEW032CB SCT038 BKN061 18/12 Q1003=
202307271150 METAR ESMX 271150Z 23010KT 200V260 9999 FEW032 BKN038 BKN061 17/10 Q1003=
202307271120 METAR ESMX 271120Z 21012KT 9999 SCT035 BKN047 BKN068 18/10 Q1004=
202307271050 METAR ESMX 271050Z 20010KT 170V230 9999 SCT034 BKN044 BKN066 18/10 Q1004=
202307271020 METAR ESMX 271020Z 21008KT 9999 FEW027 SCT036 BKN046 17/10 Q1004=
202307270950 METAR ESMX 270950Z 19009KT 150V210 9999 SCT026 BKN047 16/11 Q1004=
202307270920 METAR ESMX 270920Z AUTO 19010KT 9999 BKN025/// OVC084/// 16/11 Q1004=
202307270850 METAR ESMX 270850Z AUTO 19012KT 9999 SCT020/// OVC080/// 16/10 Q1004=
202307270820 METAR ESMX 270820Z AUTO 22014KT 9999 -RA FEW018/// BKN022/// BKN029/// 15/10 Q1004=
202307270750 METAR ESMX 270750Z AUTO 20010KT 9999 BKN018/// BKN021/// OVC220/// 15/11 Q1004=
202307270720 METAR ESMX 270720Z AUTO 19010KT 9999 BKN014/// BKN080/// 14/12 Q1004=
202307270650 METAR ESMX 270650Z AUTO 20010KT 9999 BKN013/// OVC061/// 13/12 Q1004=
202307270620 METAR ESMX 270620Z AUTO 18009KT 9999 FEW012/// BKN035/// OVC045/// 13/12 Q1004 REDZ=
202307270550 METAR ESMX 270550Z AUTO 18009KT 9999 FEW011/// OVC034/// 12/11 Q1004 REDZ=
202307270520 METAR ESMX 270520Z AUTO 18010KT 7000 -DZ FEW005/// BKN036/// OVC044/// 12/11 Q1004=
202307270450 METAR ESMX 270450Z AUTO 19009KT 9999 BKN028/// BKN038/// OVC062/// 12/11 Q1004=
202307270420 METAR ESMX 270420Z AUTO 19009KT 9999 SCT023/// BKN033/// OVC048/// 12/11 Q1004=
202307270350 METAR ESMX 270350Z AUTO 18008KT 9999 BKN034/// OVC043/// 11/11 Q1004=
202307270320 METAR ESMX 270320Z AUTO 19007KT 9999 SCT031/// BKN040/// BKN051/// 11/10 Q1004=
202307270250 METAR ESMX 270250Z AUTO 19007KT 9999 BKN061/// 10/10 Q1005=
202307270220 METAR ESMX 270220Z AUTO 18007KT 9999 BKN051/// OVC070/// 10/10 Q1005=
202307270150 METAR ESMX 270150Z AUTO 17007KT 9999 SCT062/// 10/09 Q1005=
202307270120 METAR ESMX 270120Z AUTO 17007KT 9999 SCT061/// BKN150/// 10/09 Q1005=
202307270050 METAR ESMX 270050Z AUTO 18006KT 9999 BKN059/// BKN068/// OVC120/// 11/09 Q1005=
202307270020 METAR ESMX 270020Z AUTO 18006KT 9999 BKN048/// OVC200/// 11/10 Q1005=
202307262350 METAR ESMX 262350Z 21006KT CAVOK 10/09 Q1005=
202307262320 METAR ESMX 262320Z 21006KT 9999 BKN038 11/09 Q1005=
202307262250 METAR ESMX 262250Z 22007KT 9999 FEW021 OVC031 11/10 Q1006=
202307262220 METAR ESMX 262220Z 22008KT 9999 -DZ BKN027 11/10 Q1006=
202307262150 METAR ESMX 262150Z 22005KT 9999 FEW049 10/09 Q1005=
202307262120 METAR ESMX 262120Z 22006KT CAVOK 11/10 Q1006=
202307262050 METAR ESMX 262050Z 22006KT CAVOK 11/10 Q1006=
202307262020 METAR ESMX 262020Z 22006KT CAVOK 11/10 Q1006=
202307261950 METAR ESMX 261950Z 22006KT CAVOK 12/10 Q1006=
202307261920 METAR ESMX 261920Z AUTO 22007KT 9999 OVC057/// 13/10 Q1006=
202307261850 METAR ESMX 261850Z AUTO 24011KT 9999 FEW022/// OVC046/// 13/09 Q1006=
202307261820 METAR ESMX 261820Z AUTO 22008KT 9999 SCT046/// 14/08 Q1005=
202307261750 METAR ESMX 261750Z AUTO 24010KT 9999 FEW037/// SCT059/// 16/07 Q1005=
202307261720 METAR ESMX 261720Z AUTO 22010KT 9999 FEW038/// SCT048/// 16/08 Q1004=
202307261650 METAR ESMX 261650Z AUTO 22008KT 9999 SCT042/// 17/09 Q1004=
202307261620 METAR ESMX 261620Z AUTO 21011KT 190V250 9999 FEW043/// SCT080/// 18/08 Q1004=
202307261550 METAR ESMX 261550Z AUTO 23011KT 9999 BKN068/// 17/07 Q1004=
202307261520 METAR ESMX 261520Z AUTO 22012KT 200V260 9999 FEW049/// SCT061/// 18/08 Q1004=
202307261450 METAR ESMX 261450Z AUTO 24011KT 210V270 9999 SCT048/// 18/07 Q1004=
202307261420 METAR ESMX 261420Z AUTO 24011KT 210V270 9999 FEW048/// SCT066/// 19/08 Q1004=
202307261350 METAR ESMX 261350Z AUTO 22012KT 180V250 9999 BKN045/// 18/09 Q1004=
202307261320 METAR ESMX 261320Z AUTO 19009KT 9999 FEW037/// SCT088/// 17/09 Q1004=
202307261250 METAR ESMX 261250Z AUTO 21010KT 190V260 9999 SCT038/// BKN076/// 18/09 Q1004=
202307261220 METAR ESMX 261220Z AUTO 20011KT 9999 FEW029/// BKN070/// BKN098/// 17/10 Q1004=
202307261150 METAR ESMX 261150Z AUTO 23012KT 200V260 9999 FEW026/// BKN070/// BKN088/// 18/10 Q1004=
202307261120 METAR ESMX 261120Z AUTO 20015KT 9999 -DZ FEW044/// BKN076/// 16/10 Q1004 REDZ=
202307261050 METAR ESMX 261050Z AUTO 21011KT 9999 FEW070/// SCT086/// 16/10 Q1004=
202307261020 METAR ESMX 261020Z AUTO 23010KT 190V260 9999 -RA FEW034/// BKN070/// 16/10 Q1004 RERA=
202307260950 METAR ESMX 260950Z AUTO 27005KT 240V310 9999 SCT040/// OVC064/// 15/11 Q1004=
202307260920 METAR ESMX 260920Z AUTO 25008KT 220V280 9999 FEW035/// OVC057/// 16/09 Q1003=
202307260850 METAR ESMX 260850Z 25009KT 210V280 9999 FEW033 SCT047 17/08 Q1003=
202307260820 METAR ESMX 260820Z 24008KT 9999 FEW028 SCT047 16/10 Q1003=
202307260750 METAR ESMX 260750Z 24008KT 160V270 9999 SCT026 BKN048 16/10 Q1003=
202307260720 METAR ESMX 260720Z 26009KT 9999 BKN021 15/10 Q1003=
202307260650 METAR ESMX 260650Z 26011KT 220V280 9999 BKN019 14/10 Q1003=
202307260620 METAR ESMX 260620Z 26010KT 210V280 9999 SCT015 14/11 Q1003=
202307260550 METAR ESMX 260550Z AUTO 24007KT 210V270 9999 NCD 13/11 Q1003=
202307260520 METAR ESMX 260520Z AUTO 23007KT 9999 FEW038/// 12/11 Q1002=
202307260450 METAR ESMX 260450Z AUTO 23006KT 9999 NCD 11/11 Q1002=
202307260420 METAR ESMX 260420Z AUTO 22006KT 9999 NCD 10/10 Q1002=
202307260350 METAR ESMX 260350Z AUTO 22006KT 9999 NCD 10/10 Q1002=
202307260320 METAR ESMX 260320Z AUTO 22006KT 9999 NCD 09/09 Q1002=
202307260250 METAR ESMX 260250Z AUTO 22006KT 9999 NCD 09/09 Q1002=
202307260220 METAR ESMX 260220Z AUTO 19006KT 9999 NCD 10/10 Q1002=
202307260150 METAR ESMX 260150Z AUTO 22005KT 9999 NCD 10/10 Q1002=
202307260120 METAR ESMX 260120Z AUTO 22005KT 9999 NCD 10/10 Q1002=
202307260050 METAR ESMX 260050Z AUTO 22005KT 9999 NCD 10/10 Q1002=
202307260020 METAR ESMX 260020Z AUTO 22005KT 9999 NCD 10/10 Q1001=
202307252350 METAR ESMX 252350Z 23005KT 9999 FEW024 11/11 Q1001=
202307252320 METAR ESMX 252320Z 22005KT CAVOK 11/10 Q1001=
202307252250 METAR ESMX 252250Z 22005KT CAVOK 11/10 Q1001=
202307252220 METAR ESMX 252220Z 23005KT CAVOK 11/11 Q1001=
202307252150 METAR ESMX 252150Z 22006KT CAVOK 12/11 Q1001=
202307252120 METAR ESMX 252120Z 23005KT CAVOK 13/11 Q1001=
202307252050 METAR ESMX 252050Z 22005KT CAVOK 13/11 Q1001=
202307252020 METAR ESMX 252020Z 23004KT CAVOK 13/10 Q1000=
202307251950 METAR ESMX 251950Z 22006KT CAVOK 14/10 Q1000=
202307251920 METAR ESMX 251920Z AUTO 24005KT 9999 FEW080/// 14/10 Q1000=
202307251850 METAR ESMX 251850Z AUTO 25008KT 9999 OVC076/// 15/10 Q1000=
202307251820 METAR ESMX 251820Z AUTO 25010KT 210V290 9999 FEW049/// BKN070/// 16/10 Q1000=
202307251750 METAR ESMX 251750Z AUTO 25007KT 220V290 9999 NCD 16/10 Q0999=
202307251720 METAR ESMX 251720Z AUTO 24012KT 9999 FEW037/// 17/10 Q0999=
202307251650 METAR ESMX 251650Z AUTO 24009KT 210V290 9999 FEW040/// 18/11 Q0999=
202307251620 METAR ESMX 251620Z AUTO 26012KT 9999 FEW043/// 19/09 Q0999=
202307251550 METAR ESMX 251550Z AUTO 26011KT 9999 FEW074/// 19/10 Q0999=
202307251520 METAR ESMX 251520Z AUTO 27012KT 9999 SCT045/// BKN074/// 20/09 Q0999=
202307251450 METAR ESMX 251450Z AUTO 24012KT 210V280 9999 FEW048/// 20/08 Q0999=
202307251420 METAR ESMX 251420Z AUTO 27012KT 9999 FEW044/// BKN070/// 20/09 Q0999=
202307251350 METAR ESMX 251350Z AUTO 22011KT 9999 BKN043/// BKN057/// 20/10 Q0999=
202307251320 METAR ESMX 251320Z AUTO 25011KT 220V280 9999 FEW043/// 20/09 Q0998=
202307251250 METAR ESMX 251250Z AUTO 26012KT 210V290 9999 SCT043/// 20/10 Q0998=
202307251220 METAR ESMX 251220Z AUTO 28010KT 9999 BKN062/// 20/09 Q0998=
202307251150 METAR ESMX 251150Z AUTO 24013KT 9999 FEW038/// BKN064/// 19/09 Q0998=
202307251120 METAR ESMX 251120Z AUTO 24011KT 9999 FEW037/// BKN059/// BKN200/// 18/10 Q0998=
202307251050 METAR ESMX 251050Z AUTO 25011KT 220V280 9999 BKN044/// 18/10 Q0998=
202307251020 METAR ESMX 251020Z AUTO 23012KT 200V280 9999 SCT041/// 19/11 Q0998=
202307250950 METAR ESMX 250950Z AUTO 24012KT 210V280 9999 FEW034/// BKN044/// 20/12 Q0998=
202307250920 METAR ESMX 250920Z AUTO 26010KT 9999 FEW036/// 18/12 Q0997=
202307250850 METAR ESMX 250850Z AUTO 25010KT 220V280 9999 BKN031/// 19/12 Q0997=
202307250820 METAR ESMX 250820Z AUTO 26010KT 220V290 9999 SCT024/// BKN035/// 18/13 Q0997=
202307250750 METAR ESMX 250750Z AUTO 24010KT 210V270 9999 SCT022/// BKN029/// 17/13 Q0997=
202307250720 METAR ESMX 250720Z AUTO 26008KT 230V290 9999 SCT019/// BKN027/// 16/13 Q0997=
202307250650 METAR ESMX 250650Z AUTO 25010KT 9999 FEW016/// SCT022/// BKN026/// 16/13 Q0997=
202307250620 METAR ESMX 250620Z AUTO 24006KT 210V280 9999 SCT010/// 15/14 Q0997=
202307250550 METAR ESMX 250550Z AUTO 24007KT 210V290 9999 BKN009/// OVC012/// 15/14 Q0997=
202307250520 METAR ESMX 250520Z AUTO 22005KT 9999 BKN007/// OVC062/// 14/14 Q0997=
202307250450 METAR ESMX 250450Z AUTO 24005KT 9999 FEW007/// BKN078/// 14/13 Q0997=
202307250420 METAR ESMX 250420Z AUTO 23003KT 9999 -DZ OVC086/// 13/13 Q0996=
202307250350 METAR ESMX 250350Z AUTO 23003KT 9999 FEW009/// SCT084/// OVC110/// 13/13 Q0996=
202307250320 METAR ESMX 250320Z AUTO 25003KT 220V280 9999 BKN078/// OVC130/// 13/13 Q0996=
202307250250 METAR ESMX 250250Z AUTO 23003KT 9999 OVC110/// 13/13 Q0996=
202307250220 METAR ESMX 250220Z AUTO 24004KT 220V290 9999 OVC110/// 13/13 Q0996=
202307250150 METAR ESMX 250150Z AUTO 23004KT 9999 OVC120/// 13/13 Q0996=
202307250120 METAR ESMX 250120Z AUTO 26003KT 9999 SCT088/// BKN120/// 14/13 Q0996=
202307250050 METAR ESMX 250050Z AUTO 26004KT 9999 SCT014/// OVC066/// 14/14 Q0996=
202307250020 METAR ESMX 250020Z AUTO 20005KT 9999 FEW027/// BKN034/// BKN082/// 14/14 Q0996=
202307242350 METAR ESMX 242350Z 20004KT 9999 SCT021 BKN068 14/14 Q0996=
202307242320 METAR ESMX 242320Z 18005KT 9999 FEW013 SCT023 OVC062 15/15 Q0996=
202307242250 METAR ESMX 242250Z AUTO 21005KT 9999 -RA FEW023/// SCT059/// BKN074/// 15/15 Q0996=
202307242220 METAR ESMX 242220Z 20006KT 9999 -RA FEW022 BKN049 16/14 Q0996=
202307242150 METAR ESMX 242150Z AUTO 19004KT 9999 OVC053/// 15/14 Q0996=
202307242120 METAR ESMX 242120Z 19004KT 9999 FEW047 13/13 Q0996=
202307242050 METAR ESMX 242050Z 19004KT 9999 FEW032 13/13 Q0996=
202307242020 METAR ESMX 242020Z 19005KT 9999 FEW034 15/14 Q0997=
202307241950 METAR ESMX 241950Z 19004KT 9999 FEW034 17/14 Q0997=
202307241920 METAR ESMX 241920Z 18006KT 9999 SCT033 17/14 Q0997=
202307241850 METAR ESMX 241850Z 19005KT CAVOK 17/14 Q0997=
202307241820 METAR ESMX 241820Z 20008KT 9999 FEW037 18/14 Q0996=
202307241750 METAR ESMX 241750Z 20006KT 9999 FEW039 19/14 Q0997=
202307241720 METAR ESMX 241720Z 21010KT 9999 SCT048 19/14 Q0997=
202307241650 METAR ESMX 241650Z 22010KT 9999 SCT048 20/14 Q0997=
202307241620 METAR ESMX 241620Z 21011KT 9999 BKN047 19/14 Q0997=
202307241550 METAR ESMX 241550Z 22010KT 190V250 9999 BKN048 20/15 Q0997=
202307241520 METAR ESMX 241520Z 23010KT 9999 BKN045 20/14 Q0997=
202307241450 METAR ESMX 241450Z 22012KT 9999 FEW024 BKN046 20/15 Q0997=
202307241420 METAR ESMX 241420Z 23009KT 9999 SCT029 BKN043 19/16 Q0997=
202307241350 METAR ESMX 241350Z 23010KT 210V270 9999 BKN021 20/17 Q0997=
202307241320 METAR ESMX 241320Z 21011KT 9999 SCT019 BKN048 19/16 Q0998=
202307241250 METAR ESMX 241250Z 20009KT 170V230 9999 -DZ SCT010 BKN042 19/17 Q0998=
202307241220 METAR ESMX 241220Z AUTO 21008KT 170V240 8000 -RA FEW002/// SCT017/// BKN026/// 18/17 Q0998 RERA=
202307241150 METAR ESMX 241150Z AUTO 19014KT 9999 FEW008/// SCT068/// BKN090/// 19/17 Q0998=
202307241120 METAR ESMX 241120Z AUTO 16011KT 120V180 9000 +RA BKN019/// BKN039/// OVC051/// 18/17 Q0998 REDZ=
202307241050 METAR ESMX 241050Z AUTO 15011KT 9999 SCT020/// BKN066/// 18/17 Q0998=
202307241020 METAR ESMX 241020Z AUTO 15010KT 9999 SCT011/// BKN051/// 19/17 Q0998=
202307240950 METAR ESMX 240950Z AUTO 17009KT 9999 FEW001/// BKN007/// BKN017/// 18/17 Q0999=
202307240920 METAR ESMX 240920Z AUTO 15007KT 9999 DZ SCT016/// BKN026/// OVC040/// 18/17 Q0999=
202307240850 METAR ESMX 240850Z 17009KT 9999 -DZ SCT014 BKN055 18/16 Q0999=
202307240820 METAR ESMX 240820Z 17009KT 9999 SCT009 BKN020 18/16 Q0999=
202307240750 METAR ESMX 240750Z 16010KT 9999 BKN010 18/16 Q0999=
202307240720 METAR ESMX 240720Z 16008KT 9999 BKN009 17/16 Q0999=
202307240650 METAR ESMX 240650Z 17008KT 9999 -DZ BKN008 17/16 Q1000=
202307240620 METAR ESMX 240620Z 17007KT 9999 BKN006 17/16 Q1000=
202307240550 METAR ESMX 240550Z 17007KT 9999 BKN006 16/16 Q1000=
202307240520 METAR ESMX 240520Z 16007KT 9999 -DZ BKN006 16/16 Q1000=
202307240450 METAR ESMX 240450Z 16008KT 9999 -DZ BKN006 16/16 Q1000=
202307240420 METAR ESMX 240420Z 16007KT 9999 -DZ BKN006 16/16 Q1000=
202307240350 METAR ESMX 240350Z 16006KT 9999 -DZ BKN005 15/15 Q1000=
202307240320 METAR ESMX 240320Z AUTO 16006KT 9999 FEW006/// BKN009/// BKN013/// 15/15 Q1000=
202307240250 METAR ESMX 240250Z AUTO 16006KT 9999 BKN005/// BKN017/// OVC140/// 15/15 Q1000=
202307240220 METAR ESMX 240220Z AUTO 16007KT 9999 OVC004/// 15/15 Q1001=
202307240150 METAR ESMX 240150Z AUTO 15007KT 9000 OVC003/// 15/15 Q1001 RERA=
202307240120 METAR ESMX 240120Z AUTO 14007KT 6000 -RA BKN002/// OVC004/// 15/15 Q1001 REDZ=
202307240050 METAR ESMX 240050Z AUTO 14006KT 100V170 5000 DZ OVC003/// 14/14 Q1001 RERA RESHRA=
202307240020 METAR ESMX 240020Z AUTO 15006KT 110V170 5000 -RA OVC003/// 14/14 Q1001=
202307232350 METAR ESMX 232350Z AUTO 13004KT 070V150 9999 +DZ OVC004/// 14/14 Q1002=
202307232320 METAR ESMX 232320Z AUTO 12004KT 070V140 9999 -RA SCT002/// BKN004/// OVC027/// 14/14 Q1002=
202307232250 METAR ESMX 232250Z AUTO 15004KT 3700 +RA SCT001/// BKN005/// OVC006/// 14/14 Q1003 REDZ=
202307232220 METAR ESMX 232220Z AUTO 14005KT 100V170 9999 OVC005/// 14/14 Q1003=
202307232150 METAR ESMX 232150Z AUTO 15006KT 9999 -RA OVC005/// 15/14 Q1003=
202307232120 METAR ESMX 232120Z AUTO 15007KT 9999 -RA BKN006/// OVC008/// 15/14 Q1003 RERA=
202307232050 METAR ESMX 232050Z AUTO 15005KT 9999 BKN007/// OVC059/// 15/14 Q1003=
202307232020 METAR ESMX 232020Z AUTO 13005KT 070V190 9999 -RA BKN009/// OVC072/// 15/14 Q1004=
202307231950 METAR ESMX 231950Z AUTO 15006KT 9999 -DZ SCT011/// BKN015/// BKN036/// 15/14 Q1004 REDZ=
202307231920 METAR ESMX 231920Z AUTO 15007KT 110V180 9999 -DZ FEW011/// BKN040/// BKN068/// 15/14 Q1004=
202307231850 METAR ESMX 231850Z AUTO 15006KT 9999 SCT012/// BKN051/// OVC098/// 15/14 Q1004=
202307231820 METAR ESMX 231820Z AUTO 16007KT 9999 FEW012/// SCT045/// OVC057/// 16/13 Q1004=
202307231750 METAR ESMX 231750Z AUTO 16008KT 9999 SCT044/// OVC061/// 16/13 Q1004=
202307231720 METAR ESMX 231720Z AUTO 16007KT 9999 OVC048/// 16/13 Q1004=
202307231650 METAR ESMX 231650Z AUTO 19009KT 9999 -DZ FEW044/// OVC059/// 16/13 Q1005=
202307231620 METAR ESMX 231620Z AUTO 17008KT 9999 FEW049/// OVC068/// 16/12 Q1005=
202307231550 METAR ESMX 231550Z 17009KT 9999 BKN044 17/12 Q1005=
202307231520 METAR ESMX 231520Z 17010KT 9999 BKN041 17/12 Q1005=
202307231450 METAR ESMX 231450Z 19010KT 9999 FEW031 BKN047 17/12 Q1005=
202307231420 METAR ESMX 231420Z 19011KT 9999 FEW031 BKN053 18/11 Q1005=
202307231350 METAR ESMX 231350Z 19010KT 9999 SCT036 BKN062 18/12 Q1005=
202307231320 METAR ESMX 231320Z 19008KT 9999 BKN039 BKN046 BKN078 19/10 Q1005=
202307231250 METAR ESMX 231250Z 15009KT 130V190 9999 SCT044 BKN059 BKN088 19/10 Q1005=
202307231220 METAR ESMX 231220Z 17008KT 140V210 9999 SCT039 BKN074 BKN180 19/10 Q1006=
202307231150 METAR ESMX 231150Z 18008KT 9999 SCT039 OVC074 19/10 Q1006=
202307231120 METAR ESMX 231120Z 21009KT 170V230 9999 SCT046 BKN074 19/11 Q1006=
202307231050 METAR ESMX 231050Z 19007KT 130V220 9999 BKN041 OVC061 19/10 Q1006=
202307231020 METAR ESMX 231020Z 19008KT 150V230 9999 BKN037 BKN053 19/10 Q1006=
202307230950 METAR ESMX 230950Z AUTO 22005KT 9999 FEW038/// 19/10 Q1006=
202307230920 METAR ESMX 230920Z AUTO VRB04KT 9999 SCT046/// 17/10 Q1006=
202307230850 METAR ESMX 230850Z AUTO 20006KT 9999 FEW027/// BKN041/// 18/10 Q1006=
202307230820 METAR ESMX 230820Z 19005KT 9999 SCT018 16/11 Q1006=
202307230750 METAR ESMX 230750Z AUTO VRB03KT 9999 SCT017/// 16/11 Q1006=
202307230720 METAR ESMX 230720Z 20004KT 150V240 9999 BKN009 15/12 Q1007=
202307230650 METAR ESMX 230650Z 22003KT 180V260 9999 BKN006 13/11 Q1007=
202307230620 METAR ESMX 230620Z 18004KT 9999 BKN006 13/12 Q1007=
202307230550 METAR ESMX 230550Z 18004KT 9999 FEW002 SCT005 13/12 Q1007=
202307230520 METAR ESMX 230520Z AUTO 15003KT 9999 OVC003/// 11/11 Q1007=
202307230450 METAR ESMX 230450Z AUTO 17005KT 9999 OVC003/// 11/11 Q1007=
202307230420 METAR ESMX 230420Z AUTO 18004KT 9999 BKN002/// OVC120/// 11/11 Q1007=
202307230350 METAR ESMX 230350Z AUTO 18003KT 9999 OVC003/// 11/11 Q1007=
202307230320 METAR ESMX 230320Z AUTO 19003KT 9999 FEW068/// OVC130/// 10/10 Q1007=
202307230250 METAR ESMX 230250Z AUTO 17003KT 9999 FEW004/// SCT070/// OVC130/// 10/10 Q1007=
202307230220 METAR ESMX 230220Z AUTO 18004KT 9999 SCT064/// 09/09 Q1007=
202307230150 METAR ESMX 230150Z AUTO 21003KT 0300 R01/P2000N R19/1100N BR SCT062/// 09/09 Q1008=
202307230120 METAR ESMX 230120Z AUTO 21003KT 0300 R01/P2000N R19/1400D BR FEW160/// 09/09 Q1008=
202307230050 METAR ESMX 230050Z AUTO 21004KT 1900 SCT160/// 10/10 Q1008=
202307230020 METAR ESMX 230020Z AUTO 18003KT 9999 NCD 10/10 Q1008=
202307222350 METAR ESMX 222350Z AUTO 20006KT 9999 NCD 10/10 Q1008=
202307222320 METAR ESMX 222320Z AUTO 21005KT 9999 NCD 09/09 Q1008=
202307222250 METAR ESMX 222250Z AUTO 21005KT 9999 NCD 10/10 Q1008=
202307222220 METAR ESMX 222220Z AUTO 21005KT 9999 NCD 10/10 Q1008=
202307222150 METAR ESMX 222150Z AUTO 21006KT 9999 NCD 11/10 Q1008=
202307222120 METAR ESMX 222120Z AUTO 22006KT 9999 BKN082/// 11/09 Q1008=
202307222050 METAR ESMX 222050Z AUTO 22006KT 9999 BKN082/// 12/10 Q1008=
202307222020 METAR ESMX 222020Z AUTO 22005KT 9999 BKN082/// 12/09 Q1008=
202307221950 METAR ESMX 221950Z AUTO 23008KT 9999 NCD 13/09 Q1008=
202307221920 METAR ESMX 221920Z AUTO 22006KT 9999 FEW068/// 13/08 Q1008=
202307221850 METAR ESMX 221850Z AUTO 21009KT 170V230 9999 NCD 15/08 Q1008=
202307221820 METAR ESMX 221820Z AUTO 23004KT 9999 FEW076/// 15/09 Q1008=
202307221750 METAR ESMX 221750Z AUTO 23006KT 9999 FEW066/// 15/08 Q1008=
202307221720 METAR ESMX 221720Z AUTO 24008KT 9999 SCT072/// 16/08 Q1008=
202307221650 METAR ESMX 221650Z AUTO 24008KT 220V280 9999 OVC066/// 17/08 Q1008=
202307221620 METAR ESMX 221620Z AUTO 25009KT 210V280 9999 FEW068/// 16/08 Q1008=
202307221550 METAR ESMX 221550Z AUTO 25010KT 220V280 9999 SCT042/// BKN061/// 17/08 Q1008=
202307221520 METAR ESMX 221520Z AUTO 24010KT 210V280 9999 SCT046/// BKN064/// 17/08 Q1008=
202307221450 METAR ESMX 221450Z AUTO 24013KT 220V280 9999 SCT044/// OVC062/// 18/07 Q1007=
202307221420 METAR ESMX 221420Z AUTO 24010KT 210V270 9999 BKN064/// 18/09 Q1007=
202307221350 METAR ESMX 221350Z AUTO 26012KT 220V290 9999 SCT045/// BKN059/// 18/08 Q1007=
202307221320 METAR ESMX 221320Z AUTO 26012KT 230V290 9999 SCT037/// 18/08 Q1007=
202307221250 METAR ESMX 221250Z AUTO 26009KT 220V290 9999 FEW030/// SCT051/// BKN068/// 16/12 Q1007 RERA=
202307221220 METAR ESMX 221220Z AUTO 25009KT 210V290 9999 FEW020/// 18/11 Q1007=
202307221150 METAR ESMX 221150Z AUTO 24008KT 210V280 9999 SCT022/// 17/11 Q1007=
202307221120 METAR ESMX 221120Z AUTO 23007KT 210V280 9999 FEW064/// SCT180/// 17/12 Q1007=
202307221050 METAR ESMX 221050Z AUTO 23008KT 9999 -DZ FEW010/// SCT051/// BKN070/// 15/13 Q1007 RERA=
202307221020 METAR ESMX 221020Z AUTO 26007KT 230V290 8000 RA OVC059/// 13/12 Q1007=
202307220950 METAR ESMX 220950Z AUTO 24007KT 210V290 9999 FEW025/// BKN066/// 16/10 Q1007=
202307220920 METAR ESMX 220920Z AUTO 25006KT 220V280 9999 SCT026/// BKN044/// OVC064/// 16/11 Q1007=
202307220850 METAR ESMX 220850Z 28005KT 240V320 9999 FEW014 SCT024 BKN076 15/10 Q1007=
202307220820 METAR ESMX 220820Z 26005KT 220V300 9999 BKN014 OVC076 15/11 Q1007=
202307220750 METAR ESMX 220750Z 21007KT 9999 FEW010 SCT055 BKN076 15/12 Q1007=
202307220720 METAR ESMX 220720Z 22006KT 9999 FEW010 SCT051 BKN074 14/12 Q1007=
202307220650 METAR ESMX 220650Z 19006KT 9999 FEW015 BKN074 14/12 Q1007=
202307220620 METAR ESMX 220620Z AUTO 19005KT 9999 FEW059/// OVC074/// 13/12 Q1007=
202307220550 METAR ESMX 220550Z AUTO 18004KT 9999 OVC076/// 12/11 Q1007=
202307220520 METAR ESMX 220520Z AUTO 19005KT 9999 BKN061/// OVC080/// 12/11 Q1007=
202307220450 METAR ESMX 220450Z AUTO 14003KT 080V180 9999 SCT057/// OVC082/// 12/11 Q1006=
202307220420 METAR ESMX 220420Z AUTO 19003KT 9999 BKN064/// 11/11 Q1007=
202307220350 METAR ESMX 220350Z AUTO 17002KT 9999 OVC061/// 11/10 Q1007=
202307220320 METAR ESMX 220320Z AUTO 19004KT 9999 -RA FEW005/// OVC057/// 11/10 Q1007 REDZ=
202307220250 METAR ESMX 220250Z AUTO 20005KT 9999 BKN043/// BKN080/// OVC110/// 11/11 Q1007=
202307220220 METAR ESMX 220220Z AUTO 20002KT 9999 FEW047/// SCT078/// BKN110/// 09/09 Q1007=
202307220150 METAR ESMX 220150Z AUTO 21004KT 9999 BKN072/// BKN120/// 09/09 Q1007=
202307220120 METAR ESMX 220120Z AUTO 19003KT 9999 BKN066/// OVC130/// 09/09 Q1007=
202307220050 METAR ESMX 220050Z AUTO 15004KT 9999 BKN061/// 09/09 Q1008=
202307220020 METAR ESMX 220020Z AUTO 22003KT 9999 FEW059/// 08/08 Q1008=
202307212350 METAR ESMX 212350Z AUTO 22003KT 9999 FEW053/// 08/08 Q1008=
202307212320 METAR ESMX 212320Z AUTO 18003KT 9999 NCD 08/08 Q1008=
202307212250 METAR ESMX 212250Z AUTO 22004KT 9999 NCD 09/08 Q1008=
202307212220 METAR ESMX 212220Z AUTO 22005KT 9999 NCD 10/09 Q1008=
202307212150 METAR ESMX 212150Z AUTO 22004KT 9999 NCD 10/09 Q1008=
202307212120 METAR ESMX 212120Z AUTO 22005KT 9999 NCD 10/08 Q1008=
202307212050 METAR ESMX 212050Z AUTO 22004KT 9999 NCD 10/09 Q1008=
202307212020 METAR ESMX 212020Z AUTO 22005KT 9999 NCD 10/08 Q1008=
202307211950 METAR ESMX 211950Z AUTO 18004KT 9999 NCD 12/09 Q1008=
202307211920 METAR ESMX 211920Z AUTO 22003KT 9999 NCD 13/09 Q1008=
202307211850 METAR ESMX 211850Z AUTO 24004KT 9999 NCD 14/09 Q1007=
202307211820 METAR ESMX 211820Z AUTO 24008KT 9999 NCD 15/09 Q1007=
202307211750 METAR ESMX 211750Z AUTO 24008KT 220V290 9999 NCD 16/08 Q1007=
202307211720 METAR ESMX 211720Z AUTO 22011KT 190V250 9999 SCT039/// 17/08 Q1007=
202307211650 METAR ESMX 211650Z 23010KT 200V260 CAVOK 16/08 Q1007=
202307211620 METAR ESMX 211620Z 25010KT 9999 BKN047 16/08 Q1007=
202307211550 METAR ESMX 211550Z 24010KT 200V270 9999 BKN038 17/09 Q1007=
202307211520 METAR ESMX 211520Z 23011KT 200V260 9999 SCT039 17/09 Q1007=
202307211450 METAR ESMX 211450Z AUTO 25012KT 210V270 9999 NCD 18/09 Q1007=
202307211420 METAR ESMX 211420Z 26011KT 230V290 9999 SCT039 17/09 Q1007=
202307211350 METAR ESMX 211350Z 25011G22KT 210V310 9999 SCT033 17/09 Q1007=
202307211320 METAR ESMX 211320Z 25012KT 220V280 9999 SCT033 BKN045 17/11 Q1007=
202307211250 METAR ESMX 211250Z 22010KT 190V250 CAVOK 17/11 Q1007=
202307211220 METAR ESMX 211220Z AUTO 22009KT 190V250 9999 FEW066/// 17/11 Q1007 RERA=
202307211150 METAR ESMX 211150Z AUTO 24009KT 9999 FEW029/// OVC057/// 15/11 Q1007=
202307211120 METAR ESMX 211120Z AUTO 24011KT 210V280 9999 BKN033/// BKN057/// OVC070/// 17/11 Q1007=
202307211050 METAR ESMX 211050Z AUTO 28006KT 250V310 9999 FEW034/// SCT053/// BKN070/// 15/11 Q1007 RERA=
202307211020 METAR ESMX 211020Z AUTO 25010KT 190V290 9999 -RA BKN036/// OVC068/// 15/10 Q1007=
202307210950 METAR ESMX 210950Z 24011KT 9999 BKN029 BKN040 OVC066 15/10 Q1007=
202307210920 METAR ESMX 210920Z 24008KT 210V310 9999 FEW029 BKN061 16/10 Q1007=
202307210850 METAR ESMX 210850Z 25007KT 9999 FEW024 SCT043 BKN057 15/10 Q1007=
202307210820 METAR ESMX 210820Z 25009KT 220V290 9999 SCT021 BKN051 15/10 Q1007=
202307210750 METAR ESMX 210750Z AUTO 24008KT 210V270 9999 FEW018/// SCT038/// OVC049/// 14/11 Q1007=
202307210720 METAR ESMX 210720Z AUTO 24009KT 9999 SCT016/// OVC051/// 14/11 Q1007=
202307210650 METAR ESMX 210650Z AUTO 23009KT 9999 FEW006/// BKN015/// BKN037/// 13/11 Q1007=
202307210620 METAR ESMX 210620Z 23009KT 9999 FEW016 BKN040 BKN048 13/10 Q1007=
202307210550 METAR ESMX 210550Z 22009KT 9999 FEW018 SCT028 BKN043 13/10 Q1007=
202307210520 METAR ESMX 210520Z 23008KT 9999 FEW017 SCT022 BKN041 12/10 Q1006=
202307210450 METAR ESMX 210450Z 22008KT 9999 FEW024 BKN041 12/10 Q1006=
202307210420 METAR ESMX 210420Z 22008KT 9999 -RA FEW019 SCT027 OVC037 12/10 Q1006=
202307210350 METAR ESMX 210350Z 22007KT 9999 BKN038 12/10 Q1006=
202307210320 METAR ESMX 210320Z AUTO 22006KT 9999 OVC039/// 12/10 Q1006=
202307210250 METAR ESMX 210250Z AUTO 22005KT 9999 OVC038/// 11/10 Q1006=
202307210220 METAR ESMX 210220Z AUTO 22005KT 9999 OVC036/// 12/10 Q1006=
202307210150 METAR ESMX 210150Z AUTO 22006KT 190V250 9999 OVC037/// 11/10 Q1006=
202307210120 METAR ESMX 210120Z AUTO 23006KT 9999 BKN042/// 11/10 Q1006=
202307210050 METAR ESMX 210050Z AUTO 23006KT 9999 FEW046/// 11/10 Q1006=
202307210020 METAR ESMX 210020Z AUTO 22005KT 9999 FEW020/// 11/10 Q1006=
202307202350 METAR ESMX 202350Z AUTO 23005KT 9999 FEW053/// 12/10 Q1006=
202307202320 METAR ESMX 202320Z 23004KT 9999 FEW020 BKN053 12/11 Q1007=
202307202250 METAR ESMX 202250Z 24006KT CAVOK 12/11 Q1007=
202307202220 METAR ESMX 202220Z AUTO 25007KT 220V280 9999 BKN055/// 13/11 Q1007=
202307202150 METAR ESMX 202150Z AUTO 25007KT 9999 BKN023/// OVC051/// 13/11 Q1007=
202307202120 METAR ESMX 202120Z AUTO 25006KT 9999 OVC045/// 13/11 Q1007=
202307202050 METAR ESMX 202050Z 25006KT CAVOK 13/11 Q1007=
202307202020 METAR ESMX 202020Z 26005KT 9999 BKN045 13/11 Q1006=
202307201950 METAR COR ESMX 201950Z 26009KT 9999 FEW025 BKN042 14/11 Q1006=
202307201920 METAR ESMX 201920Z AUTO 26008KT 9999 SCT024/// BKN034/// BKN059/// 14/11 Q1006 REDZ=
202307201850 METAR ESMX 201850Z AUTO 26007KT 9999 FEW023/// 15/12 Q1006=
202307201820 METAR ESMX 201820Z AUTO 26009KT 9999 BKN026/// BKN038/// OVC110/// 15/11 Q1006=
202307201750 METAR ESMX 201750Z AUTO 26010KT 9999 FEW025/// BKN110/// 16/12 Q1005=
202307201720 METAR ESMX 201720Z AUTO 25008KT 220V280 9999 SCT028/// 16/12 Q1005=
202307201650 METAR ESMX 201650Z 25011KT 210V280 9999 FEW020 SCT028 16/12 Q1005=
202307201620 METAR ESMX 201620Z 26010KT 230V290 9999 FEW022 SCT029 16/13 Q1005=
202307201550 METAR ESMX 201550Z 26009KT 9999 FEW030CB SCT070 16/13 Q1005=
202307201520 METAR ESMX 201520Z 26009KT 9999 FEW030CB SCT070 16/14 Q1005=
202307201450 METAR ESMX 201450Z 30008KT 260V330 9999 -RA FEW030CB BKN036 BKN094 14/13 Q1006=
202307201420 METAR ESMX 201420Z 27009KT 220V330 4100 RA SCT020 BKN036 BKN062 14/13 Q1006=
202307201350 METAR ESMX 201350Z 26007KT 220V300 9999 FEW032 SCT047 BKN066 16/12 Q1005=
202307201320 METAR ESMX 201320Z 24011KT 210V270 9999 -RA FEW014 BKN031 OVC070 16/11 Q1005=
202307201250 METAR ESMX 201250Z 26012KT 230V290 9999 FEW031 BKN068 17/11 Q1005=
202307201220 METAR ESMX 201220Z 25015KT 220V290 9999 FEW035 SCT062 18/11 Q1005=
202307201150 METAR ESMX 201150Z 23009KT 210V270 9999 FEW023 FEW030CB SCT066 17/11 Q1005=
202307201120 METAR ESMX 201120Z 25010KT 220V290 9999 FEW023 FEW030CB SCT066 16/11 Q1005=
202307201050 METAR ESMX 201050Z 26009KT 210V300 9999 FEW023 FEW030CB SCT059 15/12 Q1005=
202307201020 METAR ESMX 201020Z 23007KT 200V280 9999 FEW029CB SCT059 15/12 Q1005 RERA=
202307200950 METAR ESMX 200950Z AUTO 23008KT 200V260 9999 SCT082/// 15/12 Q1006=
202307200920 METAR ESMX 200920Z AUTO 26008KT 230V290 9999 BKN059/// BKN200/// 13/13 Q1006=
202307200850 METAR ESMX 200850Z AUTO 26012KT 220V290 9999 RA FEW001/// SCT041/// OVC059/// 12/11 Q1006=
202307200820 METAR ESMX 200820Z 23008KT 9999 FEW024CB SCT033 BKN055 12/12 Q1006 RERA=
202307200750 METAR ESMX 200750Z 26009KT 9999 -RA FEW020 SCT031 OVC055 14/11 Q1006=
202307200720 METAR ESMX 200720Z AUTO 23011KT 200V270 9999 BKN018/// OVC051/// 15/11 Q1005=
202307200650 METAR ESMX 200650Z 24009KT 210V270 9999 BKN017 14/11 Q1006=
202307200620 METAR ESMX 200620Z 23007KT 9999 SCT015 BKN019 OVC061 14/11 Q1006=
202307200550 METAR ESMX 200550Z 21007KT 9999 FEW030 BKN057 13/11 Q1006=
202307200520 METAR ESMX 200520Z 22006KT 9999 FEW031 12/11 Q1006=
202307200450 METAR ESMX 200450Z 22006KT 9999 FEW025 11/10 Q1006=
202307200420 METAR ESMX 200420Z 21005KT 9999 FEW025 10/09 Q1006=
202307200350 METAR ESMX 200350Z 22007KT 9999 FEW190 10/09 Q1006=
202307200320 METAR ESMX 200320Z AUTO 22006KT 9999 BKN066/// 10/10 Q1006=
202307200250 METAR ESMX 200250Z AUTO 22005KT 9999 BKN066/// OVC190/// 09/09 Q1006=
202307200220 METAR ESMX 200220Z AUTO 22006KT 9999 OVC190/// 09/09 Q1006=
202307200150 METAR ESMX 200150Z AUTO 22006KT 9999 FEW062/// BKN190/// 09/09 Q1006=
202307200120 METAR ESMX 200120Z AUTO 20005KT 9999 SCT061/// 10/09 Q1006=
202307200050 METAR ESMX 200050Z AUTO 22005KT 9999 NCD 08/08 Q1006=
202307200020 METAR ESMX 200020Z AUTO 22005KT 9999 NCD 09/08 Q1007=
202307192350 METAR ESMX 192350Z AUTO 22005KT 9999 NCD 09/08 Q1007=
202307192320 METAR ESMX 192320Z 22005KT CAVOK 09/09 Q1007=
202307192250 METAR ESMX 192250Z 22005KT CAVOK 10/08 Q1007=
202307192220 METAR ESMX 192220Z AUTO 22005KT 9999 NCD 10/09 Q1007=
202307192150 METAR ESMX 192150Z AUTO 22006KT 9999 NCD 10/08 Q1007=
202307192120 METAR COR ESMX 192120Z 22005KT CAVOK 10/08 Q1007=
202307192050 METAR ESMX 192050Z 22004KT 190V250 CAVOK 11/08 Q1007=
202307192020 METAR ESMX 192020Z 22005KT CAVOK 12/08 Q1007=
202307191950 METAR COR ESMX 191950Z 24004KT CAVOK 12/08 Q1007=
202307191920 METAR ESMX 191920Z AUTO 24004KT 9999 NCD 13/08 Q1007=
202307191850 METAR ESMX 191850Z AUTO 26007KT 9999 NCD 14/08 Q1007=
202307191820 METAR ESMX 191820Z AUTO 27010KT 9999 NCD 15/07 Q1007=
202307191750 METAR ESMX 191750Z AUTO 27014KT 9999 FEW048/// 16/07 Q1007=
202307191720 METAR ESMX 191720Z AUTO 26010KT 220V290 9999 FEW049/// 17/07 Q1007=
202307191650 METAR ESMX 191650Z AUTO 28011KT 9999 NCD 17/06 Q1007=
202307191620 METAR ESMX 191620Z AUTO 26013KT 240V300 9999 FEW057/// 18/07 Q1007=
202307191550 METAR ESMX 191550Z AUTO 26012KT 220V300 9999 NCD 18/06 Q1007=
202307191520 METAR ESMX 191520Z AUTO 28011KT 250V320 9999 SCT053/// 18/07 Q1007=
202307191450 METAR ESMX 191450Z AUTO 27013KT 230V300 9999 FEW051/// SCT062/// 18/07 Q1007=
202307191420 METAR ESMX 191420Z AUTO 26011KT 210V310 9999 FEW053/// 18/07 Q1007=
202307191350 METAR ESMX 191350Z AUTO 27013KT 240V300 9999 FEW053/// BKN068/// 19/07 Q1007=
202307191320 METAR ESMX 191320Z AUTO 26012KT 230V290 9999 FEW051/// SCT062/// 19/07 Q1007=
202307191250 METAR ESMX 191250Z AUTO 26011KT 220V300 9999 SCT053/// BKN068/// 19/08 Q1007=
202307191220 METAR ESMX 191220Z AUTO 27012KT 9999 FEW042/// SCT064/// 18/08 Q1007=
202307191150 METAR ESMX 191150Z AUTO 26012KT 230V290 9999 FEW042/// SCT062/// 18/10 Q1007=
202307191120 METAR ESMX 191120Z AUTO 26010KT 220V300 9999 SCT044/// BKN059/// 18/09 Q1007=
202307191050 METAR ESMX 191050Z AUTO 26010KT 230V300 9999 SCT039/// BKN059/// 18/09 Q1007=
202307191020 METAR ESMX 191020Z AUTO 24012KT 210V270 9999 FEW037/// BKN055/// BKN180/// 17/09 Q1008=
202307190950 METAR ESMX 190950Z AUTO 25011KT 210V280 9999 FEW029/// SCT037/// BKN049/// 16/09 Q1008=
202307190920 METAR ESMX 190920Z AUTO 25013KT 9999 SCT030/// BKN042/// BKN053/// 15/10 Q1008=
202307190850 METAR ESMX 190850Z 26012KT 220V290 9999 SCT028 BKN042 OVC130 16/10 Q1008=
202307190820 METAR ESMX 190820Z 25010KT 210V290 9999 BKN026 BKN041 OVC170 15/10 Q1008=
202307190750 METAR ESMX 190750Z 25008KT 210V280 9999 SCT020 OVC120 14/10 Q1008=
202307190720 METAR ESMX 190720Z 23010KT 200V270 9999 BKN017 OVC120 14/10 Q1008=
202307190650 METAR ESMX 190650Z 22009KT 180V250 9999 BKN015 OVC120 13/11 Q1009=
202307190620 METAR ESMX 190620Z AUTO 23007KT 200V260 9999 FEW014/// BKN110/// 13/11 Q1009=
202307190550 METAR ESMX 190550Z AUTO 23006KT 200V270 9999 BKN130/// 12/11 Q1009=
202307190520 METAR ESMX 190520Z AUTO 23006KT 9999 OVC130/// 12/11 Q1009=
202307190450 METAR ESMX 190450Z AUTO 25007KT 220V280 9999 SCT140/// 12/11 Q1009=
202307190420 METAR ESMX 190420Z AUTO 23006KT 9999 NCD 11/10 Q1009=
202307190350 METAR ESMX 190350Z AUTO 22004KT 9999 NCD 10/10 Q1009=
202307190320 METAR ESMX 190320Z AUTO 23005KT 9999 NCD 10/10 Q1009=
202307190250 METAR ESMX 190250Z AUTO 22006KT 9999 NCD 09/09 Q1009=
202307190220 METAR ESMX 190220Z AUTO 21005KT 9999 NCD 09/09 Q1010=
202307190150 METAR ESMX 190150Z AUTO 22005KT 9999 SCT042/// 10/10 Q1010=
202307190120 METAR ESMX 190120Z AUTO 23005KT 9999 NCD 10/10 Q1010=
202307190050 METAR ESMX 190050Z AUTO 22005KT 9999 NCD 10/10 Q1010=
202307190020 METAR ESMX 190020Z AUTO 23006KT 9999 NCD 10/10 Q1010=
202307182350 METAR ESMX 182350Z 22007KT CAVOK 10/10 Q1011=
202307182320 METAR ESMX 182320Z AUTO 22006KT 9999 NCD 11/10 Q1011=
202307182250 METAR COR ESMX 182250Z 22005KT CAVOK 11/10 Q1011=
202307182220 METAR ESMX 182220Z AUTO 23004KT 9999 NCD 11/09 Q1011=
202307182150 METAR ESMX 182150Z AUTO 25004KT 220V280 9999 NCD 12/09 Q1011=
202307182120 METAR ESMX 182120Z AUTO 25006KT 210V290 9999 SCT061/// 13/10 Q1011=
202307182050 METAR COR ESMX 182050Z 23003KT 9999 FEW028 13/11 Q1011=
202307182020 METAR ESMX 182020Z 23004KT 9999 SCT029 14/11 Q1011=
202307181950 METAR COR ESMX 181950Z 22006KT 9999 BKN029 14/11 Q1011=
202307181920 METAR ESMX 181920Z AUTO 21007KT 9999 FEW032/// SCT061/// 14/10 Q1011=
202307181850 METAR ESMX 181850Z AUTO 24008KT 9999 BKN036/// 15/10 Q1011=
202307181820 METAR ESMX 181820Z AUTO 23008KT 9999 SCT033/// BKN043/// 16/10 Q1011=
202307181750 METAR ESMX 181750Z AUTO 26011KT 220V290 9999 BKN036/// BKN048/// 16/09 Q1011=
202307181720 METAR ESMX 181720Z AUTO 24009KT 200V270 9999 FEW037/// SCT053/// BKN068/// 17/10 Q1011=
202307181650 METAR ESMX 181650Z AUTO 25009KT 210V280 9999 FEW038/// BKN057/// 17/10 Q1012=
202307181620 METAR ESMX 181620Z AUTO 25009KT 220V290 9999 SCT038/// BKN049/// OVC062/// 17/10 Q1012=
202307181550 METAR ESMX 181550Z AUTO 24010KT 9999 SCT040/// BKN061/// 17/10 Q1012=
202307181520 METAR ESMX 181520Z AUTO 24010KT 200V270 9999 FEW035/// OVC074/// 17/11 Q1012=
202307181450 METAR ESMX 181450Z AUTO 24013KT 210V280 9999 FEW043/// SCT055/// 17/09 Q1012=
202307181420 METAR ESMX 181420Z AUTO 27013G27KT 240V300 9999 SCT042/// BKN053/// 17/09 Q1012=
202307181350 METAR ESMX 181350Z AUTO 27013KT 9999 FEW033/// BKN048/// BKN082/// 17/11 Q1012=
202307181320 METAR ESMX 181320Z AUTO 26016KT 230V300 9999 SCT033/// BKN066/// BKN090/// 17/10 Q1012=
202307181250 METAR ESMX 181250Z AUTO 24015G25KT 210V270 9999 SCT035/// BKN057/// BKN074/// 16/10 Q1012=
202307181220 METAR ESMX 181220Z AUTO 26015KT 220V290 9999 SCT037/// BKN048/// 17/09 Q1012=
202307181150 METAR ESMX 181150Z AUTO 27017KT 240V300 9999 FEW031/// SCT045/// 18/10 Q1012=
202307181120 METAR ESMX 181120Z AUTO 25016G29KT 9999 SCT037/// 18/11 Q1012=
202307181050 METAR ESMX 181050Z AUTO 25016G26KT 220V280 9999 FEW029/// SCT038/// 18/10 Q1012=
202307181020 METAR ESMX 181020Z AUTO 26016G27KT 9999 BKN033/// BKN055/// 17/11 Q1012=
202307180950 METAR ESMX 180950Z AUTO 26013KT 230V300 9999 FEW031/// SCT043/// BKN062/// 16/10 Q1012 REDZ=
202307180920 METAR ESMX 180920Z AUTO 26011KT 9999 SCT029/// BKN035/// BKN059/// 16/11 Q1012=
202307180850 METAR ESMX 180850Z AUTO 26012KT 230V290 9999 -RA SCT026/// BKN057/// 15/10 Q1012=
202307180820 METAR ESMX 180820Z AUTO 26012KT 230V290 9999 FEW007/// SCT027/// OVC059/// 15/12 Q1013=
202307180750 METAR ESMX 180750Z AUTO 24011KT 210V280 9999 SCT026/// BKN053/// 15/11 Q1012=
202307180720 METAR ESMX 180720Z AUTO 25011KT 210V290 9999 BKN019/// 15/11 Q1012=
202307180650 METAR ESMX 180650Z AUTO 26012KT 230V290 9999 SCT018/// BKN026/// OVC057/// 15/11 Q1012=
202307180620 METAR ESMX 180620Z AUTO 26012KT 9999 BKN020/// BKN027/// OVC031/// 15/11 Q1012=
202307180550 METAR ESMX 180550Z AUTO 25010KT 220V290 9999 SCT016/// BKN021/// OVC028/// 14/11 Q1012=
202307180520 METAR ESMX 180520Z AUTO 23008KT 190V260 9999 BKN014/// BKN020/// OVC061/// 14/12 Q1012=
202307180450 METAR ESMX 180450Z AUTO 24009KT 210V280 9999 FEW013/// SCT021/// BKN028/// 13/12 Q1012=
202307180420 METAR ESMX 180420Z AUTO 22009KT 9999 FEW011/// SCT017/// BKN023/// 13/11 Q1011=
202307180350 METAR ESMX 180350Z AUTO 24009KT 210V270 9999 BKN021/// OVC026/// 13/12 Q1012=
202307180320 METAR ESMX 180320Z AUTO 23007KT 200V260 9999 BKN019/// 13/12 Q1012=
202307180250 METAR ESMX 180250Z AUTO 23008KT 200V260 9999 FEW010/// BKN018/// 12/12 Q1011=
202307180220 METAR ESMX 180220Z AUTO 24008KT 9999 FEW011/// SCT017/// BKN021/// 12/12 Q1011=
202307180150 METAR ESMX 180150Z AUTO 23008KT 9999 FEW013/// SCT020/// BKN029/// 12/12 Q1011=
202307180120 METAR ESMX 180120Z AUTO 23008KT 200V260 9999 SCT019/// BKN051/// 12/12 Q1011=
202307180050 METAR ESMX 180050Z AUTO 23008KT 9999 NCD 12/11 Q1011=
202307180020 METAR ESMX 180020Z AUTO 24009KT 9999 FEW013/// SCT024/// 13/12 Q1012=
202307172350 METAR ESMX 172350Z 22008KT 9999 FEW014 SCT022 13/12 Q1011=
202307172320 METAR ESMX 172320Z AUTO 22008KT 9999 SCT014/// 13/12 Q1011=
202307172250 METAR ESMX 172250Z AUTO 22008KT 9999 NCD 13/12 Q1011=
202307172220 METAR ESMX 172220Z AUTO 22009KT 9999 FEW070/// 12/12 Q1011=
202307172150 METAR ESMX 172150Z AUTO 23007KT 9999 NCD 12/11 Q1011=
202307172120 METAR ESMX 172120Z 22008KT CAVOK 12/11 Q1011=
202307172050 METAR ESMX 172050Z 21008KT CAVOK 13/12 Q1011=
202307172020 METAR ESMX 172020Z 22009KT CAVOK 13/12 Q1011=
202307171950 METAR ESMX 171950Z 22009KT CAVOK 14/12 Q1011=
202307171920 METAR ESMX 171920Z AUTO 24009KT 9999 NCD 15/12 Q1011=
202307171850 METAR ESMX 171850Z AUTO 24009KT 220V280 9999 FEW120/// 15/11 Q1011 RERA=
202307171820 METAR ESMX 171820Z AUTO 24007KT 210V270 9999 FEW061/// BKN082/// 16/12 Q1011 RERA=
202307171750 METAR ESMX 171750Z AUTO 25008KT 9999 BKN045/// 17/12 Q1011 RESHRA=
202307171720 METAR ESMX 171720Z 24010KT 210V280 CAVOK 19/11 Q1010=
202307171650 METAR ESMX 171650Z 23014KT 9999 SCT043 20/10 Q1010=
202307171620 METAR ESMX 171620Z 22012KT 9999 SCT042 20/11 Q1010=
202307171550 METAR ESMX 171550Z 23012KT 9999 SCT038 20/12 Q1010=
202307171520 METAR ESMX 171520Z 24010KT 210V280 9999 SCT034 20/12 Q1010=
202307171450 METAR ESMX 171450Z 29006KT 260V320 9999 FEW039 SCT084 19/13 Q1011=
202307171420 METAR ESMX 171420Z 28010KT 250V310 9999 FEW037CB SCT046 BKN066 17/13 Q1011=
202307171350 METAR ESMX 171350Z 25009KT 210V280 9999 FEW035CB SCT074 19/15 Q1011=
202307171320 METAR ESMX 171320Z 23010KT 9999 SCT035CB BKN076 17/14 Q1011=
202307171250 METAR ESMX 171250Z AUTO 24008KT 9999 FEW003/// SCT042/// OVC072/// 16/14 Q1011 RERA=
202307171220 METAR ESMX 171220Z 19015KT 9999 SCT045CB BKN061 19/13 Q1011=
202307171150 METAR ESMX 171150Z AUTO 21014KT 9999 BKN043/// 21/12 Q1011=
202307171120 METAR ESMX 171120Z AUTO 20015KT 9999 FEW034/// 21/12 Q1011=
202307171050 METAR ESMX 171050Z AUTO 19018KT 9999 FEW100/// SCT140/// 20/12 Q1011=
202307171020 METAR ESMX 171020Z AUTO 19017KT 9999 SCT098/// BKN150/// 18/12 Q1011=
202307170950 METAR ESMX 170950Z AUTO 21014KT 9999 BKN034/// BKN048/// OVC160/// 19/12 Q1011=
202307170920 METAR ESMX 170920Z AUTO 19013KT 160V220 9999 BKN029/// BKN059/// 20/13 Q1011=
202307170850 METAR ESMX 170850Z 20013KT 9999 FEW035 SCT061 BKN120 20/13 Q1011=
202307170820 METAR ESMX 170820Z 22014KT 9999 FEW030CB BKN210 19/13 Q1011=
202307170750 METAR ESMX 170750Z 21014KT 9999 SCT027 BKN130 19/13 Q1012=
202307170720 METAR ESMX 170720Z AUTO 21015KT 9999 SCT023/// BKN032/// BKN130/// 19/14 Q1012=
202307170650 METAR ESMX 170650Z 19014KT 9999 SCT021 18/14 Q1012=
202307170620 METAR ESMX 170620Z 19011KT 9999 FEW015 17/14 Q1012=
202307170550 METAR ESMX 170550Z 19012KT CAVOK 16/13 Q1012=
202307170520 METAR ESMX 170520Z 19011KT CAVOK 15/13 Q1013=
202307170450 METAR ESMX 170450Z 18009KT CAVOK 14/13 Q1012=
202307170420 METAR ESMX 170420Z 18008KT CAVOK 14/13 Q1012=
202307170350 METAR ESMX 170350Z 18008KT CAVOK 14/13 Q1012=
202307170320 METAR ESMX 170320Z AUTO 17008KT 9999 NCD 14/13 Q1012=
202307170250 METAR ESMX 170250Z AUTO 19008KT 9999 NCD 13/13 Q1012=
202307170220 METAR ESMX 170220Z AUTO 17009KT 9999 NCD 14/13 Q1012=
202307170150 METAR ESMX 170150Z AUTO 18008KT 9999 NCD 13/13 Q1012=
202307170120 METAR ESMX 170120Z AUTO 18008KT 9999 NCD 14/13 Q1012=
202307170050 METAR ESMX 170050Z AUTO 18008KT 9999 NCD 14/13 Q1012=
202307170020 METAR ESMX 170020Z AUTO 18007KT 9999 NCD 14/13 Q1012=
202307162350 METAR ESMX 162350Z AUTO 17007KT 9999 NCD 14/13 Q1012=
202307162320 METAR ESMX 162320Z AUTO 18007KT 9999 FEW033/// 14/13 Q1012=
202307162250 METAR ESMX 162250Z AUTO 17008KT 9999 SCT062/// 15/14 Q1012=
202307162220 METAR ESMX 162220Z AUTO 17007KT 9999 BKN055/// 15/14 Q1012=
202307162150 METAR ESMX 162150Z AUTO 20007KT 9999 SCT051/// 14/14 Q1012=
202307162120 METAR ESMX 162120Z AUTO 21006KT 9999 FEW064/// 14/14 Q1012=
202307162050 METAR ESMX 162050Z AUTO 19008KT 9999 NCD 15/14 Q1012=
202307162020 METAR ESMX 162020Z AUTO 19007KT 9999 NCD 15/14 Q1012=
202307161950 METAR ESMX 161950Z AUTO 19007KT 9999 FEW080/// 14/14 Q1012=
202307161920 METAR ESMX 161920Z AUTO 20008KT 9999 SCT064/// 15/14 Q1012=
202307161850 METAR ESMX 161850Z AUTO 27014KT 9999 RA SQ FEW026/// SCT038/// BKN051/// 17/13 Q1012=
202307161820 METAR ESMX 161820Z AUTO 22007KT 9999 NCD 18/13 Q1011=
202307161750 METAR ESMX 161750Z AUTO 21011KT 180V250 9999 SCT094/// 18/13 Q1011=
202307161720 METAR ESMX 161720Z AUTO 22009KT 190V250 9999 SCT096/// 18/13 Q1011=
202307161650 METAR ESMX 161650Z AUTO 24009KT 210V280 9999 SCT098/// 18/13 Q1011=
202307161620 METAR ESMX 161620Z AUTO 25016G30KT 9999 -RA BKN046/// 17/13 Q1011 REDZ=
202307161550 METAR ESMX 161550Z AUTO 22013KT 9999 FEW045/// BKN086/// 22/12 Q1010=
202307161520 METAR ESMX 161520Z 22013KT 9999 FEW044CB SCT088 22/12 Q1010=
202307161450 METAR ESMX 161450Z 23012KT 9999 FEW050CB BKN084 21/13 Q1010=
202307161420 METAR ESMX 161420Z 21016KT 9999 FEW046CB BKN076 22/12 Q1009=
202307161350 METAR ESMX 161350Z 22015KT 9999 SCT046 BKN076 23/13 Q1009=
202307161320 METAR ESMX 161320Z 21015KT 180V250 9999 SCT047 BKN070 23/13 Q1009=
202307161250 METAR ESMX 161250Z 22015KT 180V240 9999 SCT048 23/13 Q1009=
202307161220 METAR ESMX 161220Z 22016KT 180V250 9999 SCT045 23/13 Q1009=
202307161150 METAR ESMX 161150Z 22014KT 9999 SCT037 BKN053 21/14 Q1009=
202307161120 METAR ESMX 161120Z 21013KT 9999 SCT035 BKN048 20/14 Q1009=
202307161050 METAR ESMX 161050Z 20015KT 170V230 9999 SCT025 20/15 Q1009=
202307161020 METAR ESMX 161020Z 20012KT 9999 SCT020 BKN027 19/15 Q1008=
202307160950 METAR ESMX 160950Z AUTO 19013KT 9999 SCT018/// 19/16 Q1008=
202307160920 METAR ESMX 160920Z AUTO 18011KT 9999 SCT130/// 19/16 Q1008=
202307160850 METAR ESMX 160850Z AUTO 19010KT 9999 FEW007/// BKN120/// 17/16 Q1008=
202307160820 METAR ESMX 160820Z AUTO 19007KT 9999 -DZ BKN088/// 17/16 Q1008=
202307160750 METAR ESMX 160750Z 21008KT 170V230 7000 RA BKN072 16/16 Q1008=
202307160720 METAR ESMX 160720Z 24006KT 6000 RA BKN084 16/16 Q1007=
202307160650 METAR ESMX 160650Z 26006KT 9999 -RA BKN007 16/16 Q1007=
202307160620 METAR ESMX 160620Z 24005KT 220V280 9999 -RA BKN006 17/17 Q1007=
202307160550 METAR COR ESMX 160550Z 26010KT 9999 -RA SCT002 BKN006 17/17 Q1007=
202307160520 METAR ESMX 160520Z AUTO 23005KT 6000 +RA FEW004/// BKN055/// OVC074/// 18/18 Q1006=
202307160450 METAR ESMX 160450Z AUTO 21005KT 9999 -RA FEW007/// SCT018/// BKN024/// 18/17 Q1006=
202307160420 METAR ESMX 160420Z AUTO 19006KT 9999 BKN078/// 18/17 Q1005=
202307160350 METAR ESMX 160350Z AUTO 15007KT 9999 SCT098/// BKN130/// 19/17 Q1005=
202307160320 METAR ESMX 160320Z AUTO 14007KT 9999 BKN120/// 18/16 Q1005=
202307160250 METAR ESMX 160250Z AUTO 15008KT 9999 FEW120/// 18/16 Q1005=
202307160220 METAR ESMX 160220Z AUTO 14008KT 9999 FEW045/// SCT098/// 18/17 Q1005=
202307160150 METAR ESMX 160150Z AUTO 14007KT 9999 SCT074/// BKN120/// 18/17 Q1006 RERA=
202307160120 METAR ESMX 160120Z AUTO 14006KT 9999 SCT074/// BKN096/// 18/16 Q1006 RERA=
202307160050 METAR ESMX 160050Z AUTO 13005KT 090V190 9999 FEW028/// SCT066/// BKN086/// 18/16 Q1007=
202307160020 METAR ESMX 160020Z AUTO 14009KT 9999 -RA SCT068/// OVC094/// 18/16 Q1007 RERA=
202307152350 METAR ESMX 152350Z AUTO 14005KT 9999 BKN074/// OVC094/// 18/15 Q1007 RERA=
202307152320 METAR ESMX 152320Z AUTO 13006KT 9999 OVC072/// 18/15 Q1008=
202307152250 METAR ESMX 152250Z 14007KT 9999 DZ OVC086 19/14 Q1008=
202307152220 METAR ESMX 152220Z 15010KT 9999 -RA BKN090 BKN140 OVC160 19/14 Q1008=
202307152150 METAR ESMX 152150Z 13009KT 100V170 CAVOK 19/13 Q1008=
202307152120 METAR ESMX 152120Z AUTO 13008KT 080V160 9999 FEW180/// 19/13 Q1008=
202307152050 METAR ESMX 152050Z AUTO 14008KT 100V160 9999 BKN100/// 20/13 Q1008=
202307152020 METAR ESMX 152020Z AUTO 13009KT 080V160 9999 BKN096/// OVC120/// 20/13 Q1008=
202307151950 METAR ESMX 151950Z AUTO 13008KT 080V170 9999 FEW080/// OVC110/// 20/13 Q1009=
202307151920 METAR ESMX 151920Z AUTO 14008KT 9999 OVC082/// 21/13 Q1009=
202307151850 METAR ESMX 151850Z AUTO 14007KT 100V160 9999 FEW086/// 21/13 Q1009=
202307151820 METAR ESMX 151820Z AUTO 13007KT 090V170 9999 FEW120/// 22/13 Q1009=
202307151750 METAR ESMX 151750Z AUTO 12009KT 070V170 9999 NCD 22/13 Q1009=
202307151720 METAR ESMX 151720Z AUTO 15008KT 110V180 9999 NCD 23/13 Q1010=
202307151650 METAR ESMX 151650Z AUTO 14012KT 090V160 9999 NCD 23/13 Q1010=
202307151620 METAR ESMX 151620Z AUTO 14010KT 110V170 9999 NCD 24/13 Q1010=
202307151550 METAR ESMX 151550Z AUTO 14010KT 100V180 9999 FEW170/// 24/12 Q1010=
202307151520 METAR ESMX 151520Z AUTO 14012KT 110V170 9999 FEW110/// 24/12 Q1010=
202307151450 METAR ESMX 151450Z AUTO 14010KT 110V170 9999 NCD 23/12 Q1011=
202307151420 METAR ESMX 151420Z AUTO 14010KT 070V160 9999 FEW098/// SCT230/// 24/13 Q1011=
202307151350 METAR ESMX 151350Z AUTO 14013KT 110V170 9999 SCT100/// BKN210/// 23/12 Q1011=
202307151320 METAR ESMX 151320Z AUTO 14009G21KT 080V180 9999 OVC100/// 23/12 Q1011=
202307151250 METAR ESMX 151250Z AUTO 13008KT 080V160 9999 OVC100/// 23/12 Q1012=
202307151220 METAR ESMX 151220Z AUTO 14012KT 080V160 9999 OVC098/// 22/12 Q1012=
202307151150 METAR ESMX 151150Z AUTO 14010KT 100V170 9999 BKN100/// OVC140/// 22/11 Q1012=
202307151120 METAR ESMX 151120Z AUTO 12008KT 080V160 9999 BKN098/// BKN130/// 22/11 Q1012=
202307151050 METAR ESMX 151050Z AUTO 13008KT 080V160 9999 BKN110/// 21/12 Q1012=
202307151020 METAR ESMX 151020Z AUTO 14008KT 100V160 9999 OVC100/// 21/12 Q1013=
202307150950 METAR ESMX 150950Z AUTO 12007KT 080V160 9999 OVC096/// 19/12 Q1013=
202307150920 METAR ESMX 150920Z AUTO 12007KT 070V160 9999 OVC086/// 19/11 Q1013=
202307150850 METAR ESMX 150850Z 14007KT 090V170 CAVOK 18/12 Q1013=
202307150820 METAR ESMX 150820Z 12006KT 070V170 CAVOK 16/12 Q1013=
202307150750 METAR ESMX 150750Z 11004KT 070V140 CAVOK 16/12 Q1014=
202307150720 METAR ESMX 150720Z 13006KT 090V150 CAVOK 15/12 Q1014=
202307150650 METAR COR ESMX 150650Z 13004KT 060V190 CAVOK 15/11 Q1014=
202307150620 METAR ESMX 150620Z AUTO 11003KT 050V130 9999 OVC078/// 15/11 Q1014=
202307150550 METAR ESMX 150550Z AUTO 12003KT 080V140 9999 SCT061/// OVC082/// 14/12 Q1014=
202307150520 METAR ESMX 150520Z AUTO 11003KT 060V160 9999 BKN086/// BKN210/// 14/12 Q1014=
202307150450 METAR ESMX 150450Z AUTO 16004KT 9999 OVC064/// 13/12 Q1014=
202307150420 METAR ESMX 150420Z AUTO 21004KT 9999 -DZ OVC070/// 13/12 Q1014=
202307150350 METAR ESMX 150350Z AUTO 21003KT 9999 OVC070/// 12/12 Q1014=
202307150320 METAR ESMX 150320Z AUTO 21003KT 9999 OVC078/// 12/12 Q1014=
202307150250 METAR ESMX 150250Z AUTO 22003KT 9999 OVC084/// 11/11 Q1014=
202307150220 METAR ESMX 150220Z AUTO 00000KT 9999 BKN084/// 09/09 Q1014=
202307150150 METAR ESMX 150150Z AUTO 00000KT 9999 SCT084/// 08/08 Q1014=
202307150120 METAR ESMX 150120Z AUTO 19003KT 9999 NCD 10/10 Q1014=
202307150050 METAR ESMX 150050Z AUTO 00000KT 9999 NCD 08/08 Q1014=
202307150020 METAR ESMX 150020Z AUTO VRB01KT 9999 NCD 09/09 Q1014=
202307142350 METAR ESMX 142350Z AUTO 00000KT 9999 NCD 10/10 Q1014=
202307142320 METAR ESMX 142320Z AUTO 22003KT 9999 NCD 10/10 Q1015=
202307142250 METAR ESMX 142250Z AUTO 22003KT 9999 NCD 11/11 Q1015=
202307142220 METAR ESMX 142220Z AUTO 22005KT 9999 NCD 10/10 Q1015=
202307142150 METAR ESMX 142150Z AUTO 22005KT 9999 NCD 11/10 Q1015=
202307142120 METAR ESMX 142120Z AUTO 22004KT 9999 NCD 12/10 Q1015=
202307142050 METAR ESMX 142050Z AUTO 22004KT 9999 NCD 11/10 Q1014=
202307142020 METAR ESMX 142020Z AUTO 22003KT 9999 NCD 13/10 Q1014=
202307141950 METAR ESMX 141950Z AUTO 22003KT 9999 NCD 14/10 Q1014=
202307141920 METAR ESMX 141920Z AUTO 22003KT 9999 NCD 15/10 Q1014=
202307141850 METAR ESMX 141850Z AUTO 23003KT 9999 NCD 17/09 Q1014=
202307141820 METAR ESMX 141820Z AUTO 25005KT 220V280 9999 NCD 18/09 Q1014=
202307141750 METAR ESMX 141750Z AUTO 24006KT 9999 NCD 19/08 Q1014=
202307141720 METAR ESMX 141720Z AUTO 24009KT 9999 NCD 19/07 Q1014=
202307141650 METAR ESMX 141650Z AUTO 24009KT 220V280 9999 NCD 20/07 Q1014=
202307141620 METAR ESMX 141620Z AUTO 25008KT 230V290 9999 NCD 20/09 Q1013=
202307141550 METAR ESMX 141550Z AUTO 24010KT 210V280 9999 SCT048/// 21/09 Q1014=
202307141520 METAR ESMX 141520Z AUTO 29009KT 260V320 9999 NCD 20/11 Q1014=
202307141450 METAR ESMX 141450Z AUTO 27008KT 230V300 9999 OVC080/// 21/11 Q1014=
202307141420 METAR ESMX 141420Z AUTO 27010KT 230V290 9999 SCT045/// OVC078/// 20/11 Q1014=
202307141350 METAR ESMX 141350Z AUTO 23009KT 200V260 9999 FEW041/// SCT059/// BKN076/// 20/11 Q1014=
202307141320 METAR ESMX 141320Z AUTO 24008KT 210V280 9999 FEW036/// BKN080/// OVC200/// 19/11 Q1014=
202307141250 METAR ESMX 141250Z AUTO 23010KT 9999 FEW037/// OVC078/// 20/12 Q1014=
202307141220 METAR ESMX 141220Z AUTO 24011KT 220V280 9999 SCT066/// OVC078/// 19/11 Q1014=
202307141150 METAR ESMX 141150Z AUTO 25011KT 9999 SCT040/// BKN066/// BKN170/// 19/11 Q1014=
202307141120 METAR ESMX 141120Z AUTO 28011KT 9999 FEW041/// BKN064/// 19/12 Q1014=
202307141050 METAR ESMX 141050Z AUTO 22010KT 190V280 9999 SCT039/// BKN059/// 19/11 Q1014=
202307141020 METAR ESMX 141020Z AUTO 23011KT 9999 BKN035/// OVC053/// 19/12 Q1014=
202307140950 METAR ESMX 140950Z 26009KT 200V290 9999 SCT033 BKN051 18/11 Q1014=
202307140920 METAR ESMX 140920Z 26010KT 210V310 9999 SCT033 BKN047 19/12 Q1014=
202307140850 METAR COR ESMX 140850Z 24011KT 210V270 9999 BKN035 17/11 Q1014=
202307140820 METAR ESMX 140820Z 27011KT 240V300 9999 BKN032 18/11 Q1014=
202307140750 METAR ESMX 140750Z 27010KT 210V310 9999 BKN029 17/11 Q1014=
202307140720 METAR ESMX 140720Z 26010KT 230V300 9999 BKN025 17/11 Q1014=
202307140650 METAR ESMX 140650Z 25009KT 210V280 9999 BKN020 16/12 Q1013=
202307140620 METAR ESMX 140620Z 26009KT 9999 BKN016 15/12 Q1013=
202307140550 METAR ESMX 140550Z 27009KT 9999 BKN013 15/12 Q1013=
202307140520 METAR COR ESMX 140520Z 25008KT 220V280 9999 SCT011 14/13 Q1013=
202307140450 METAR ESMX 140450Z 22006KT 200V260 CAVOK 13/13 Q1013=
202307140420 METAR ESMX 140420Z 22005KT CAVOK 13/12 Q1013=
202307140350 METAR COR ESMX 140350Z 22005KT CAVOK 12/12 Q1013=
202307140320 METAR ESMX 140320Z AUTO 20005KT 9999 NCD 11/11 Q1013=
202307140250 METAR ESMX 140250Z AUTO 22005KT 1600 NCD 11/11 Q1012=
202307140220 METAR ESMX 140220Z AUTO 18004KT 4900 BR NCD 11/11 Q1012=
202307140150 METAR ESMX 140150Z AUTO 22004KT 9999 NCD 11/11 Q1012=
202307140120 METAR ESMX 140120Z AUTO 22005KT 9999 FEW032/// 11/11 Q1012=
202307140050 METAR ESMX 140050Z AUTO 22005KT 9999 SCT022/// 12/12 Q1012=
202307140020 METAR ESMX 140020Z AUTO 22006KT 9999 FEW025/// 12/12 Q1012=
202307132350 METAR ESMX 132350Z 18006KT 8000 SCT029 12/12 Q1012=
202307132320 METAR ESMX 132320Z 22004KT CAVOK 12/12 Q1012=
202307132250 METAR ESMX 132250Z 21005KT CAVOK 13/13 Q1012=
202307132220 METAR ESMX 132220Z 22006KT CAVOK 13/13 Q1012=
202307132150 METAR ESMX 132150Z 23006KT CAVOK 14/13 Q1011=
202307132120 METAR ESMX 132120Z 23007KT CAVOK 14/13 Q1011=
202307132050 METAR ESMX 132050Z 21006KT CAVOK 14/13 Q1011=
202307132020 METAR ESMX 132020Z 20006KT CAVOK 15/14 Q1011=
202307131950 METAR ESMX 131950Z 21006KT CAVOK 15/13 Q1011=
202307131920 METAR ESMX 131920Z AUTO 20007KT 9999 NCD 15/13 Q1010=
202307131850 METAR ESMX 131850Z AUTO 19008KT 9999 NCD 16/13 Q1010=
202307131820 METAR ESMX 131820Z AUTO 20011KT 9999 SCT039/// 17/14 Q1010=
202307131750 METAR ESMX 131750Z AUTO 20011KT 170V240 9999 FEW074/// 18/14 Q1010=
202307131720 METAR ESMX 131720Z AUTO 22010KT 9999 SCT070/// 19/11 Q1010=
202307131650 METAR ESMX 131650Z 23010KT 9999 BKN042 20/11 Q1010=
202307131620 METAR ESMX 131620Z 22010KT 9999 BKN046 20/11 Q1010=
202307131550 METAR ESMX 131550Z 18011KT 9999 SCT028 BKN049 19/15 Q1010=
202307131520 METAR ESMX 131520Z 17011KT CAVOK 20/15 Q1010=
202307131450 METAR ESMX 131450Z 19010KT 9999 BKN040 19/15 Q1010=
202307131420 METAR ESMX 131420Z 18012KT 9999 FEW040 SCT140 19/14 Q1010=
202307131350 METAR ESMX 131350Z 17009KT 9999 SCT037CB BKN110 19/15 Q1010=
202307131320 METAR ESMX 131320Z 18011KT 9999 FEW029CB BKN078 19/13 Q1010=
202307131250 METAR ESMX 131250Z 18013KT 9999 FEW027CB BKN076 19/14 Q1010=
202307131220 METAR ESMX 131220Z 19012KT 9999 FEW033CB BKN074 19/14 Q1010=
202307131150 METAR ESMX 131150Z 21012KT 9999 FEW033CB BKN070 19/13 Q1010=
202307131120 METAR ESMX 131120Z 22013KT 190V250 9999 FEW035CB BKN051 20/13 Q1010=
202307131050 METAR ESMX 131050Z 22011KT 180V250 9999 FEW030CB BKN072 20/13 Q1010=
202307131020 METAR ESMX 131020Z 22008KT 9999 -SHRA FEW028CB BKN044 17/13 Q1010=
202307130950 METAR ESMX 130950Z 23012KT 9999 BKN031 18/12 Q1010=
202307130920 METAR ESMX 130920Z AUTO 23011KT 9999 FEW026/// SCT200/// 19/13 Q1010=
202307130850 METAR ESMX 130850Z AUTO 20010KT 9999 FEW022/// SCT029/// 18/14 Q1010=
202307130820 METAR ESMX 130820Z AUTO 22011KT 9999 SCT018/// 17/14 Q1010=
202307130750 METAR ESMX 130750Z AUTO 20010KT 9999 SCT017/// OVC044/// 17/14 Q1010=
202307130720 METAR ESMX 130720Z AUTO 21010KT 9999 BKN017/// BKN023/// 17/13 Q1010=
202307130650 METAR ESMX 130650Z AUTO 22009KT 9999 SCT013/// 17/13 Q1010=
202307130620 METAR ESMX 130620Z AUTO 22010KT 9999 FEW009/// BKN013/// 16/14 Q1009=
202307130550 METAR ESMX 130550Z AUTO 22008KT 9999 BKN009/// BKN015/// 15/14 Q1009=
202307130520 METAR ESMX 130520Z AUTO 22008KT 9999 FEW006/// SCT013/// 15/14 Q1009=
202307130450 METAR ESMX 130450Z AUTO 20007KT 9999 NCD 15/14 Q1009=
202307130420 METAR ESMX 130420Z AUTO 23007KT 9999 FEW006/// 14/14 Q1009=
202307130350 METAR ESMX 130350Z AUTO 23006KT 9999 BKN007/// 14/14 Q1009=
202307130320 METAR ESMX 130320Z AUTO 22005KT 9999 SCT007/// BKN009/// OVC013/// 14/14 Q1009=
202307130250 METAR ESMX 130250Z AUTO 23004KT 9999 BKN004/// BKN008/// OVC014/// 14/14 Q1009=
202307130220 METAR ESMX 130220Z AUTO 23004KT 9999 SCT004/// BKN007/// OVC009/// 14/14 Q1008=
202307130150 METAR ESMX 130150Z AUTO 23005KT 9999 OVC003/// 14/14 Q1008=
202307130120 METAR ESMX 130120Z AUTO 22005KT 5000 BR OVC004/// 14/14 Q1008=
202307130050 METAR ESMX 130050Z AUTO 19004KT 6000 BKN004/// OVC006/// 13/13 Q1008=
202307130020 METAR ESMX 130020Z AUTO 22004KT 9000 FEW005/// BKN076/// 14/14 Q1008=
202307122350 METAR ESMX 122350Z 22005KT 9999 FEW009 14/14 Q1008=
202307122320 METAR ESMX 122320Z 22005KT CAVOK 14/14 Q1008=
202307122250 METAR COR ESMX 122250Z 22006KT 9999 FEW014 14/14 Q1008=
202307122220 METAR COR ESMX 122220Z 22005KT SCT014 14/14 Q1008=
202307122150 METAR ESMX 122150Z 20006KT CAVOK 14/14 Q1008=
202307122120 METAR ESMX 122120Z 22005KT CAVOK 14/14 Q1007=
202307122050 METAR ESMX 122050Z 22005KT CAVOK 15/15 Q1007=
202307122020 METAR ESMX 122020Z 21005KT CAVOK 15/14 Q1007=
202307121950 METAR ESMX 121950Z 22005KT CAVOK 16/15 Q1007=
202307121920 METAR ESMX 121920Z AUTO 22004KT 9999 NCD 16/15 Q1007=
202307121850 METAR ESMX 121850Z AUTO 23004KT 200V260 9999 NCD 17/15 Q1006=
202307121820 METAR ESMX 121820Z AUTO 23006KT 9999 NCD 17/15 Q1006=
202307121750 METAR ESMX 121750Z AUTO 24007KT 9999 NCD 18/15 Q1006=
202307121720 METAR ESMX 121720Z AUTO 24008KT 210V270 9999 FEW018/// 18/15 Q1006=
202307121650 METAR ESMX 121650Z AUTO 25010KT 220V280 9999 SCT015/// BKN030/// 19/16 Q1005=
202307121620 METAR ESMX 121620Z AUTO 23009KT 9999 SCT016/// BKN082/// 19/17 Q1005=
202307121550 METAR ESMX 121550Z AUTO 22007KT 9999 FEW010/// SCT016/// 19/17 Q1005=
202307121520 METAR ESMX 121520Z AUTO 24006KT 220V280 9999 -RA SCT009/// BKN053/// OVC120/// 18/18 Q1005 RERA=
202307121450 METAR ESMX 121450Z AUTO 23006KT 200V290 9999 SCT009/// BKN016/// 18/18 Q1005=
202307121420 METAR ESMX 121420Z AUTO 21005KT 9999 -DZ SCT017/// OVC082/// 17/17 Q1005=
202307121350 METAR ESMX 121350Z AUTO 22010KT 7000 -RA SCT002/// BKN006/// OVC068/// 17/17 Q1005=
202307121320 METAR ESMX 121320Z AUTO 13007KT 070V160 7000 RA OVC001/// 17/17 Q1004=
202307121250 METAR ESMX 121250Z AUTO 11004KT 060V160 3200 +RA OVC001/// 17/17 Q1004=
202307121220 METAR ESMX 121220Z AUTO 11004KT 040V130 7000 RA SCT002/// BKN020/// BKN028/// 17/17 Q1005=
202307121150 METAR ESMX 121150Z AUTO 12003KT 070V160 8000 -RA SCT003/// BKN024/// BKN041/// 17/17 Q1005=
202307121120 METAR ESMX 121120Z AUTO 09004KT 030V130 7000 -RA FEW006/// SCT051/// OVC064/// 17/17 Q1005=
202307121050 METAR ESMX 121050Z AUTO 11004KT 060V140 9999 -RA FEW006/// OVC076/// 17/17 Q1006=
202307121020 METAR ESMX 121020Z AUTO VRB03KT 9999 -RA OVC082/// 17/17 Q1006=
202307120950 METAR ESMX 120950Z AUTO 12005KT 080V150 9999 -RA FEW002/// SCT024/// BKN070/// 17/17 Q1006=
202307120920 METAR ESMX 120920Z AUTO 13007KT 080V160 9999 -RA OVC070/// 18/16 Q1007=
202307120850 METAR ESMX 120850Z 12006KT 080V150 9999 FEW017 SCT023 18/16 Q1007=
202307120820 METAR ESMX 120820Z 14004KT 110V190 9999 FEW018 18/15 Q1007=
202307120750 METAR ESMX 120750Z 19008KT 150V220 CAVOK 18/15 Q1008=
202307120720 METAR ESMX 120720Z 13006KT 090V160 CAVOK 18/14 Q1007=
202307120650 METAR ESMX 120650Z 12006KT 070V160 CAVOK 18/14 Q1007=
202307120620 METAR ESMX 120620Z 12007KT 040V150 CAVOK 17/14 Q1007=
202307120550 METAR COR ESMX 120550Z 13007KT 060V160 CAVOK 17/14 Q1008=
202307120520 METAR ESMX 120520Z AUTO 12006KT 080V160 9999 NCD 17/14 Q1008=
202307120450 METAR ESMX 120450Z AUTO 12006KT 9999 BKN064/// 16/14 Q1009=
202307120420 METAR ESMX 120420Z AUTO 12007KT 9999 FEW009/// BKN064/// 16/14 Q1009=
202307120350 METAR ESMX 120350Z AUTO 11005KT 050V140 9999 BKN008/// OVC064/// 15/14 Q1010=
202307120320 METAR ESMX 120320Z AUTO 12004KT 070V160 9999 BKN008/// OVC096/// 15/14 Q1010=
202307120250 METAR ESMX 120250Z AUTO 11004KT 070V160 9999 BKN009/// OVC098/// 15/14 Q1010=
202307120220 METAR ESMX 120220Z AUTO 13004KT 060V170 9999 FEW009/// BKN064/// BKN098/// 16/15 Q1010=
202307120150 METAR ESMX 120150Z AUTO 14004KT 9999 FEW009/// BKN064/// OVC080/// 16/15 Q1011=
202307120120 METAR ESMX 120120Z AUTO 13008KT 9999 SCT064/// BKN096/// OVC110/// 16/15 Q1011=
202307120050 METAR ESMX 120050Z AUTO 13007KT 100V160 9999 SCT064/// OVC094/// 16/15 Q1011=
202307120020 METAR ESMX 120020Z AUTO 13007KT 090V160 9999 SCT076/// OVC098/// 16/15 Q1011=
202307112350 METAR ESMX 112350Z 16007KT 130V190 CAVOK 16/14 Q1012=
202307112320 METAR ESMX 112320Z 14007KT 100V160 CAVOK 16/14 Q1012=
202307112250 METAR ESMX 112250Z 15008KT 110V170 CAVOK 16/14 Q1012=
202307112220 METAR ESMX 112220Z 13007KT 100V160 CAVOK 16/14 Q1012=
202307112150 METAR ESMX 112150Z 14006KT 100V160 CAVOK 17/13 Q1013=
202307112120 METAR ESMX 112120Z 14007KT CAVOK 17/14 Q1013=
202307112050 METAR ESMX 112050Z 14009KT CAVOK 18/14 Q1013=
202307112020 METAR ESMX 112020Z 15009KT CAVOK 18/14 Q1014=
202307111950 METAR ESMX 111950Z 15006KT CAVOK 19/14 Q1014=
202307111920 METAR ESMX 111920Z AUTO 15008KT 9999 SCT078/// BKN140/// 19/14 Q1014=
202307111850 METAR ESMX 111850Z AUTO 16008KT 120V190 9999 BKN070/// OVC086/// 20/15 Q1014=
202307111820 METAR ESMX 111820Z AUTO 16008KT 9999 OVC082/// 20/15 Q1014=
202307111750 METAR ESMX 111750Z AUTO 16007KT 9999 SCT084/// BKN190/// 21/14 Q1014=
202307111720 METAR ESMX 111720Z AUTO 17009KT 9999 SCT100/// 21/14 Q1014=
202307111650 METAR ESMX 111650Z AUTO 17009KT 9999 BKN100/// OVC200/// 21/14 Q1014=
202307111620 METAR ESMX 111620Z 17008KT CAVOK 22/13 Q1014=
202307111550 METAR ESMX 111550Z 20007KT 9999 FEW045 22/12 Q1014=
202307111520 METAR ESMX 111520Z AUTO 18008KT 9999 SCT047/// BKN061/// 22/12 Q1014=
202307111450 METAR ESMX 111450Z AUTO 21007KT 150V240 9999 FEW045/// SCT064/// 24/13 Q1015=
202307111420 METAR ESMX 111420Z AUTO 20006KT 9999 BKN044/// 23/13 Q1015=
202307111350 METAR ESMX 111350Z AUTO 18006KT 150V250 9999 SCT042/// 23/13 Q1015=
202307111320 METAR ESMX 111320Z AUTO 18007KT 140V230 9999 SCT047/// BKN064/// 22/13 Q1015=
202307111250 METAR ESMX 111250Z AUTO VRB03KT 9999 FEW059/// 21/12 Q1015=
202307111220 METAR ESMX 111220Z AUTO 20005KT 9999 FEW041/// SCT055/// 22/13 Q1016=
202307111150 METAR ESMX 111150Z AUTO 18005KT 130V230 9999 SCT037/// BKN047/// 21/14 Q1016=
202307111120 METAR ESMX 111120Z AUTO 18005KT 9999 FEW036/// SCT190/// 21/13 Q1016=
202307111050 METAR ESMX 111050Z AUTO 21005KT 9999 BKN036/// 20/13 Q1016=
202307111020 METAR ESMX 111020Z AUTO 17004KT 080V230 9999 BKN032/// 20/14 Q1016=
202307110950 METAR ESMX 110950Z AUTO 20004KT 9999 FEW032/// 20/13 Q1016=
202307110920 METAR ESMX 110920Z AUTO 22005KT 9999 FEW023/// 19/14 Q1016=
202307110850 METAR ESMX 110850Z AUTO 21005KT 9999 FEW017/// 19/14 Q1016=
202307110820 METAR ESMX 110820Z AUTO 18005KT 150V220 9999 FEW010/// SCT018/// BKN027/// 19/15 Q1016=
202307110750 METAR ESMX 110750Z AUTO 15004KT 9999 SCT009/// BKN013/// BKN020/// 19/16 Q1016=
202307110720 METAR ESMX 110720Z AUTO 16004KT 9999 FEW005/// BKN010/// OVC013/// 18/16 Q1016=
202307110650 METAR ESMX 110650Z AUTO 17005KT 9999 BKN004/// OVC017/// 16/16 Q1016=
202307110620 METAR ESMX 110620Z AUTO 16005KT 9999 BKN004/// OVC017/// 15/15 Q1016 REDZ=
202307110550 METAR ESMX 110550Z AUTO 16005KT 9999 FEW003/// BKN005/// OVC024/// 15/15 Q1016=
202307110520 METAR ESMX 110520Z AUTO 16006KT 4500 DZ BKN003/// OVC005/// 15/15 Q1016=
202307110450 METAR ESMX 110450Z AUTO 14005KT 4500 +DZ BKN005/// OVC010/// 15/15 Q1016 REDZ=
202307110420 METAR ESMX 110420Z AUTO 14007KT 8000 -DZ SCT006/// OVC010/// 14/14 Q1016=
202307110350 METAR ESMX 110350Z AUTO 14006KT 8000 DZ FEW001/// BKN006/// OVC011/// 14/14 Q1016=
202307110320 METAR ESMX 110320Z AUTO 14005KT 110V170 8000 -DZ BKN002/// BKN003/// OVC005/// 14/14 Q1016=
202307110250 METAR ESMX 110250Z AUTO 14006KT 3200 -RA BKN001/// OVC005/// 14/14 Q1016=
202307110220 METAR ESMX 110220Z AUTO 14008KT 110V170 4800 RA SCT002/// BKN008/// OVC014/// 15/15 Q1016 REDZ=
202307110150 METAR ESMX 110150Z AUTO 15008KT 9999 OVC013/// 15/15 Q1017=
202307110120 METAR ESMX 110120Z AUTO 15006KT 9999 FEW007/// BKN012/// OVC026/// 15/15 Q1017=
202307110050 METAR ESMX 110050Z AUTO 15006KT 9999 BKN006/// OVC022/// 15/15 Q1017=
202307110020 METAR ESMX 110020Z AUTO 14005KT 9999 BKN007/// OVC023/// 15/15 Q1017=
202307102350 METAR ESMX 102350Z 16004KT 9999 FEW007 SCT016 BKN026 15/15 Q1017=
202307102320 METAR ESMX 102320Z 16005KT 9999 BKN015 16/15 Q1017=
202307102250 METAR ESMX 102250Z 16004KT 9999 SCT017 BKN047 16/15 Q1017=
202307102220 METAR ESMX 102220Z 14005KT 110V170 9999 BKN047 16/15 Q1017=
202307102150 METAR ESMX 102150Z 14005KT 9999 -RA FEW044 16/15 Q1017=
202307102120 METAR ESMX 102120Z 17004KT 9999 SCT046 17/15 Q1017=
202307102050 METAR ESMX 102050Z 19004KT 9999 -RA BKN048 16/14 Q1017=
202307102020 METAR ESMX 102020Z 18004KT 9999 BKN046 16/14 Q1017=
202307101950 METAR ESMX 101950Z VRB03KT 9999 SCT045 16/14 Q1017=
202307101920 METAR ESMX 101920Z AUTO 17004KT 9999 FEW048/// BKN072/// OVC094/// 17/14 Q1017=
202307101850 METAR ESMX 101850Z AUTO 19004KT 9999 BKN049/// OVC072/// 17/14 Q1017=
202307101820 METAR ESMX 101820Z AUTO 16007KT 9999 -RA OVC086/// 18/13 Q1017 REDZ=
202307101750 METAR ESMX 101750Z AUTO 17007KT 9999 OVC086/// 19/13 Q1017 REDZ=
202307101720 METAR ESMX 101720Z 15007KT CAVOK 19/13 Q1017=
202307101650 METAR ESMX 101650Z 15008KT 100V170 CAVOK 20/12 Q1017=
202307101620 METAR ESMX 101620Z 16010KT CAVOK 20/12 Q1017=
202307101550 METAR ESMX 101550Z 14009KT 100V160 CAVOK 21/11 Q1017=
202307101520 METAR ESMX 101520Z 16009KT CAVOK 21/11 Q1017=
202307101450 METAR ESMX 101450Z 16010KT CAVOK 22/11 Q1018=
202307101420 METAR ESMX 101420Z 16011KT 130V190 CAVOK 23/11 Q1018=
202307101350 METAR ESMX 101350Z 16010KT CAVOK 22/11 Q1018=
202307101320 METAR ESMX 101320Z AUTO 17011KT 9999 BKN140/// 22/12 Q1018=
202307101250 METAR ESMX 101250Z 17013KT CAVOK 23/13 Q1018=
202307101220 METAR ESMX 101220Z AUTO 17011KT 9999 SCT053/// BKN190/// 25/12 Q1018=
202307101150 METAR ESMX 101150Z AUTO 14008KT 080V180 9999 SCT053/// BKN200/// 24/13 Q1018=
202307101120 METAR ESMX 101120Z AUTO 14008KT 100V180 9999 FEW160/// SCT200/// 25/12 Q1018=
202307101050 METAR ESMX 101050Z AUTO 15009KT 120V190 9999 FEW190/// SCT210/// 24/12 Q1018=
202307101020 METAR ESMX 101020Z AUTO 16009KT 130V190 9999 SCT210/// 25/12 Q1018=
202307100950 METAR ESMX 100950Z AUTO 14009KT 100V190 9999 NCD 24/12 Q1018=
202307100920 METAR ESMX 100920Z AUTO 13008KT 070V160 9999 NCD 24/13 Q1019=
202307100850 METAR ESMX 100850Z 14007KT 100V170 CAVOK 23/13 Q1019=
202307100820 METAR ESMX 100820Z 14006KT 070V170 CAVOK 21/13 Q1019=
202307100750 METAR ESMX 100750Z 14006KT 080V170 CAVOK 21/13 Q1020=
202307100720 METAR ESMX 100720Z 14006KT 100V170 CAVOK 20/13 Q1020=
202307100650 METAR ESMX 100650Z 15006KT CAVOK 19/14 Q1020=
202307100620 METAR ESMX 100620Z 17006KT 130V200 CAVOK 18/14 Q1020=
202307100550 METAR ESMX 100550Z 15006KT 130V190 CAVOK 18/14 Q1020=
202307100520 METAR ESMX 100520Z 16006KT CAVOK 18/13 Q1020=
202307100450 METAR COR ESMX 100450Z 15005KT CAVOK 17/13 Q1020=
202307100420 METAR ESMX 100420Z 16004KT CAVOK 17/13 Q1020=
202307100350 METAR ESMX 100350Z 15002KT CAVOK 16/14 Q1020=
202307100320 METAR ESMX 100320Z AUTO 15001KT 9999 NCD 14/14 Q1020=
202307100250 METAR ESMX 100250Z AUTO 15003KT 9999 NCD 13/13 Q1020=
202307100220 METAR ESMX 100220Z AUTO 00000KT 9999 NCD 13/12 Q1020=
202307100150 METAR ESMX 100150Z AUTO 15003KT 9999 NCD 14/13 Q1020=
202307100120 METAR ESMX 100120Z AUTO 14005KT 9999 NCD 15/13 Q1020=
202307100050 METAR ESMX 100050Z AUTO 15004KT 9999 NCD 16/12 Q1020=
202307100020 METAR ESMX 100020Z AUTO 15006KT 9999 NCD 17/12 Q1020=
202307092350 METAR ESMX 092350Z AUTO 14005KT 9999 NCD 17/12 Q1021=
202307092320 METAR ESMX 092320Z AUTO 15006KT 9999 NCD 17/14 Q1021=
202307092250 METAR ESMX 092250Z AUTO 15005KT 9999 FEW098/// 18/13 Q1021=
202307092220 METAR ESMX 092220Z AUTO 15006KT 9999 NCD 19/13 Q1021=
202307092150 METAR ESMX 092150Z AUTO 16005KT 9999 NCD 20/14 Q1021=
202307092120 METAR ESMX 092120Z AUTO 16006KT 9999 NCD 21/13 Q1021=
202307092050 METAR ESMX 092050Z AUTO 19007KT 9999 NCD 21/13 Q1020=
202307092020 METAR ESMX 092020Z AUTO 14005KT 9999 FEW094/// 22/14 Q1020=
202307091950 METAR ESMX 091950Z AUTO 14003KT 9999 FEW078/// 22/14 Q1020=
202307091920 METAR ESMX 091920Z AUTO 11003KT 9999 NCD 23/14 Q1020=
202307091850 METAR ESMX 091850Z AUTO 11004KT 070V140 9999 NCD 24/14 Q1020=
202307091820 METAR ESMX 091820Z AUTO 36004KT 9999 NCD 25/13 Q1020=
202307091750 METAR ESMX 091750Z AUTO 31004KT 9999 FEW086/// 27/11 Q1020=
202307091720 METAR ESMX 091720Z AUTO 29004KT 250V310 9999 FEW082/// 27/10 Q1020=
202307091650 METAR ESMX 091650Z AUTO 35004KT 300V010 9999 NCD 27/09 Q1020=
202307091620 METAR ESMX 091620Z AUTO VRB03KT 9999 NCD 27/10 Q1020=
202307091550 METAR ESMX 091550Z VRB03KT CAVOK 26/09 Q1020=
202307091520 METAR ESMX 091520Z 32003KT CAVOK 26/09 Q1021=
202307091450 METAR ESMX 091450Z 29003KT 240V320 CAVOK 27/10 Q1021=
202307091420 METAR ESMX 091420Z 26004KT 200V310 CAVOK 27/09 Q1021=
202307091350 METAR ESMX 091350Z 32006KT 230V360 CAVOK 27/09 Q1021=
202307091320 METAR ESMX 091320Z 29004KT 240V350 CAVOK 27/09 Q1021=
202307091250 METAR ESMX 091250Z 27004KT 240V320 CAVOK 26/11 Q1021=
202307091220 METAR ESMX 091220Z 23003KT 140V300 CAVOK 26/10 Q1022=
202307091150 METAR ESMX 091150Z 36003KT 320V090 CAVOK 26/10 Q1022=
202307091120 METAR ESMX 091120Z 36004KT 290V050 CAVOK 26/11 Q1022=
202307091050 METAR ESMX 091050Z 31004KT 210V020 CAVOK 26/11 Q1022=
202307091020 METAR ESMX 091020Z 01004KT 300V050 CAVOK 25/10 Q1022=
202307090950 METAR ESMX 090950Z AUTO 03004KT 320V120 9999 NCD 25/11 Q1022=
202307090920 METAR ESMX 090920Z AUTO VRB04KT 9999 NCD 25/12 Q1022=
202307090850 METAR ESMX 090850Z AUTO 32003KT 230V030 9999 NCD 24/12 Q1022=
202307090820 METAR ESMX 090820Z 02004KT 330V060 CAVOK 23/13 Q1022=
202307090750 METAR ESMX 090750Z 35003KT 290V040 CAVOK 23/13 Q1022=
202307090720 METAR ESMX 090720Z 36003KT 320V020 CAVOK 22/13 Q1023=
202307090650 METAR ESMX 090650Z 35004KT CAVOK 21/13 Q1022=
202307090620 METAR ESMX 090620Z 35004KT 320V020 CAVOK 20/13 Q1022=
202307090550 METAR ESMX 090550Z 36004KT CAVOK 19/13 Q1022=
202307090520 METAR ESMX 090520Z AUTO 01005KT 9999 NCD 18/13 Q1022=
202307090450 METAR ESMX 090450Z AUTO 35003KT 9999 NCD 18/14 Q1022=
202307090420 METAR ESMX 090420Z AUTO 00000KT 9999 FEW100/// 17/15 Q1022=
202307090350 METAR ESMX 090350Z AUTO 00000KT 9999 SCT098/// 13/13 Q1022=
202307090320 METAR ESMX 090320Z AUTO 00000KT 9999 FEW098/// 12/12 Q1022=
202307090250 METAR ESMX 090250Z AUTO 00000KT 9999 NCD 11/11 Q1022=
202307090220 METAR ESMX 090220Z AUTO 00000KT 9999 NCD 11/11 Q1022=
202307090150 METAR ESMX 090150Z AUTO 00000KT 9999 NCD 11/11 Q1022=
202307090120 METAR ESMX 090120Z AUTO 00000KT 9999 NCD 12/11 Q1022=
202307090050 METAR ESMX 090050Z AUTO 27003KT 9999 NCD 12/11 Q1022=
202307090020 METAR ESMX 090020Z AUTO 00000KT 9999 NCD 13/13 Q1022=
202307082350 METAR ESMX 082350Z AUTO 00000KT 9999 NCD 14/13 Q1022=
202307082320 METAR ESMX 082320Z AUTO 01002KT 9999 NCD 15/13 Q1022=
202307082250 METAR ESMX 082250Z AUTO VRB03KT 9999 FEW092/// SCT120/// 16/13 Q1022=
202307082220 METAR ESMX 082220Z AUTO 28004KT 9999 OVC088/// 18/13 Q1022=
202307082150 METAR ESMX 082150Z AUTO 28005KT 9999 OVC090/// 18/13 Q1022=
202307082120 METAR ESMX 082120Z AUTO 27004KT 9999 OVC094/// 19/13 Q1022=
202307082050 METAR ESMX 082050Z AUTO 24004KT 9999 SCT098/// 18/13 Q1021=
202307082020 METAR ESMX 082020Z AUTO 25003KT 9999 SCT100/// 19/13 Q1021=
202307081950 METAR ESMX 081950Z AUTO 25003KT 9999 OVC100/// 19/14 Q1021=
202307081920 METAR ESMX 081920Z AUTO 31003KT 9999 OVC096/// 21/13 Q1021=
202307081850 METAR ESMX 081850Z AUTO 33004KT 9999 OVC096/// 23/13 Q1021=
202307081820 METAR ESMX 081820Z AUTO 35004KT 9999 BKN094/// OVC100/// 23/13 Q1021=
202307081750 METAR ESMX 081750Z AUTO VRB03KT 9999 FEW094/// OVC100/// 23/13 Q1021=
202307081720 METAR ESMX 081720Z AUTO 34004KT 9999 OVC110/// 23/13 Q1021=
202307081650 METAR ESMX 081650Z AUTO 33005KT 310V010 9999 BKN084/// OVC110/// 24/12 Q1021=
202307081620 METAR ESMX 081620Z AUTO 27005KT 9999 FEW061/// BKN088/// BKN100/// 24/11 Q1021=
202307081550 METAR ESMX 081550Z 30006KT 230V360 CAVOK 25/11 Q1021=
202307081520 METAR ESMX 081520Z 28005KT 220V320 CAVOK 24/12 Q1021=
202307081450 METAR ESMX 081450Z 29006KT 240V330 CAVOK 25/12 Q1021=
202307081420 METAR ESMX 081420Z 29006KT 250V330 CAVOK 25/12 Q1021=
202307081350 METAR ESMX 081350Z 28007KT 240V320 CAVOK 25/12 Q1021=
202307081320 METAR ESMX 081320Z 30008KT 260V340 CAVOK 26/13 Q1021=
202307081250 METAR ESMX 081250Z 29007KT 250V330 CAVOK 24/12 Q1022=
202307081220 METAR ESMX 081220Z AUTO 31006KT 260V360 9999 BKN130/// 24/11 Q1022=
202307081150 METAR ESMX 081150Z AUTO 29007KT 250V330 9999 FEW051/// BKN130/// 24/12 Q1022=
202307081120 METAR ESMX 081120Z AUTO 02005KT 290V070 9999 SCT049/// 23/12 Q1022=
202307081050 METAR ESMX 081050Z AUTO 30007KT 240V340 9999 SCT046/// 23/12 Q1022=
202307081020 METAR ESMX 081020Z AUTO 29007KT 260V330 9999 NCD 23/12 Q1022=
202307080950 METAR ESMX 080950Z 29007KT 230V330 CAVOK 22/13 Q1022=
202307080920 METAR ESMX 080920Z 30006KT 250V330 CAVOK 22/12 Q1022=
202307080850 METAR ESMX 080850Z 30005KT 240V340 CAVOK 21/13 Q1022=
202307080820 METAR ESMX 080820Z 26005KT 210V310 CAVOK 20/14 Q1022=
202307080750 METAR ESMX 080750Z 24006KT 210V270 CAVOK 19/14 Q1022=
202307080720 METAR ESMX 080720Z 23005KT CAVOK 18/14 Q1022=
202307080650 METAR ESMX 080650Z 29004KT 250V330 CAVOK 17/13 Q1022=
202307080620 METAR ESMX 080620Z AUTO 30004KT 240V350 9999 BKN150/// 18/13 Q1022=
202307080550 METAR ESMX 080550Z AUTO 29005KT 260V340 9999 NCD 16/13 Q1022=
202307080520 METAR ESMX 080520Z AUTO 29005KT 250V330 9999 FEW140/// 15/13 Q1022=
202307080450 METAR ESMX 080450Z AUTO 29005KT 260V320 9999 BKN140/// 15/13 Q1022=
202307080420 METAR ESMX 080420Z AUTO 27005KT 240V300 9999 NCD 14/12 Q1022=
202307080350 METAR ESMX 080350Z AUTO 26005KT 9999 SCT180/// 13/12 Q1021=
202307080320 METAR ESMX 080320Z AUTO 26004KT 9999 NCD 11/11 Q1022=
202307080250 METAR ESMX 080250Z AUTO 24004KT 9999 FEW190/// 10/10 Q1022=
202307080220 METAR ESMX 080220Z AUTO 22003KT 9999 FEW140/// 11/11 Q1022=
202307080150 METAR ESMX 080150Z AUTO 22004KT 9999 SCT140/// 11/11 Q1022=
202307080120 METAR ESMX 080120Z AUTO 22005KT 9999 NCD 11/11 Q1022=
202307080050 METAR ESMX 080050Z AUTO 20004KT 9999 NCD 11/11 Q1022=
202307080020 METAR ESMX 080020Z AUTO 18004KT 160V240 9999 NCD 12/11 Q1022=
202307072350 METAR ESMX 072350Z AUTO 23004KT 9999 NCD 12/11 Q1022=
202307072320 METAR ESMX 072320Z AUTO 26004KT 9999 NCD 12/11 Q1022=
202307072250 METAR ESMX 072250Z AUTO 26004KT 9999 NCD 13/11 Q1022=
202307072220 METAR ESMX 072220Z AUTO 27004KT 9999 NCD 13/11 Q1022=
202307072150 METAR ESMX 072150Z AUTO 28004KT 9999 NCD 14/11 Q1022=
202307072120 METAR ESMX 072120Z AUTO 27004KT 9999 NCD 15/11 Q1022=
202307072050 METAR ESMX 072050Z AUTO 26005KT 9999 FEW190/// 14/11 Q1022=
202307072020 METAR ESMX 072020Z AUTO 25004KT 9999 NCD 15/11 Q1021=
202307071950 METAR ESMX 071950Z AUTO 25004KT 9999 NCD 16/10 Q1021=
202307071920 METAR ESMX 071920Z AUTO 27005KT 9999 NCD 17/10 Q1021=
202307071850 METAR ESMX 071850Z AUTO 28006KT 9999 NCD 18/10 Q1021=
202307071820 METAR ESMX 071820Z AUTO 27007KT 9999 NCD 19/10 Q1021=
202307071750 METAR ESMX 071750Z AUTO 25007KT 210V280 9999 NCD 19/10 Q1020=
202307071720 METAR ESMX 071720Z AUTO 26008KT 230V300 9999 FEW055/// 20/10 Q1020=
202307071650 METAR ESMX 071650Z AUTO 26009KT 230V300 9999 FEW045/// SCT057/// 20/10 Q1020=
202307071620 METAR ESMX 071620Z AUTO 28011KT 240V300 9999 SCT053/// 21/10 Q1020=
202307071550 METAR ESMX 071550Z AUTO 25009KT 220V290 9999 SCT047/// 20/10 Q1020=
202307071520 METAR ESMX 071520Z AUTO 28009KT 250V310 9999 FEW049/// SCT062/// 20/09 Q1020=
202307071450 METAR ESMX 071450Z AUTO 27012KT 240V300 9999 SCT051/// OVC061/// 21/08 Q1020=
202307071420 METAR ESMX 071420Z AUTO 28011KT 250V310 9999 FEW049/// BKN061/// 21/09 Q1020=
202307071350 METAR ESMX 071350Z AUTO 26011KT 230V290 9999 SCT057/// 20/09 Q1020=
202307071320 METAR ESMX 071320Z AUTO 28011KT 9999 FEW049/// SCT062/// 20/10 Q1020=
202307071250 METAR ESMX 071250Z AUTO 28010KT 220V300 9999 FEW048/// SCT061/// 19/09 Q1020=
202307071220 METAR ESMX 071220Z AUTO 26012KT 220V290 9999 BKN053/// 21/10 Q1020=
202307071150 METAR ESMX 071150Z AUTO 25013KT 230V290 9999 SCT049/// 21/10 Q1020=
202307071120 METAR ESMX 071120Z 26011KT 9999 SCT046 BKN059 19/10 Q1020=
202307071050 METAR ESMX 071050Z 23012KT 200V260 9999 BKN048 19/11 Q1020=
202307071020 METAR ESMX 071020Z 22013KT 190V260 9999 BKN041 19/10 Q1020=
202307070950 METAR ESMX 070950Z 25011KT 220V290 9999 BKN041 19/10 Q1020=
202307070920 METAR ESMX 070920Z 24012KT 190V280 9999 SCT038 BKN051 19/11 Q1019=
202307070850 METAR ESMX 070850Z 24011KT 210V280 9999 SCT032 BKN043 19/12 Q1019=
202307070820 METAR ESMX 070820Z 25011KT 220V280 9999 SCT025 17/11 Q1019=
202307070750 METAR ESMX 070750Z 23011KT 210V270 9999 SCT025 17/11 Q1019=
202307070720 METAR ESMX 070720Z 25011KT 220V280 9999 FEW016 BKN023 17/12 Q1019=
202307070650 METAR ESMX 070650Z 24008KT 220V280 9999 BKN015 BKN026 15/12 Q1019=
202307070620 METAR ESMX 070620Z 25010KT 210V290 9999 BKN013 14/12 Q1019=
202307070550 METAR ESMX 070550Z 24009KT 210V270 9999 BKN011 14/13 Q1019=
202307070520 METAR ESMX 070520Z 23009KT 200V260 9999 BKN010 14/13 Q1018=
202307070450 METAR ESMX 070450Z 23007KT CAVOK 13/12 Q1018=
202307070420 METAR ESMX 070420Z 23007KT CAVOK 12/12 Q1018=
202307070350 METAR ESMX 070350Z 22006KT CAVOK 11/11 Q1018=
202307070320 METAR ESMX 070320Z AUTO 22006KT 9999 NCD 11/11 Q1018=
202307070250 METAR ESMX 070250Z AUTO 22006KT 9999 NCD 10/10 Q1017=
202307070220 METAR ESMX 070220Z AUTO 20006KT 9999 NCD 10/10 Q1017=
202307070150 METAR ESMX 070150Z AUTO 19007KT 9999 NCD 10/10 Q1017=
202307070120 METAR ESMX 070120Z AUTO 22007KT 9999 NCD 11/11 Q1017=
202307070050 METAR ESMX 070050Z AUTO 22007KT 9999 NCD 11/11 Q1017=
202307070020 METAR ESMX 070020Z AUTO 22007KT 9999 NCD 11/11 Q1017=
202307062350 METAR ESMX 062350Z 22008KT CAVOK 12/12 Q1017=
202307062320 METAR ESMX 062320Z AUTO 21008KT 9999 NCD 12/12 Q1017=
202307062250 METAR COR ESMX 062250Z 23007KT CAVOK 12/12 Q1017=
202307062220 METAR ESMX 062220Z AUTO 22008KT 9999 NCD 12/12 Q1016=
202307062150 METAR ESMX 062150Z 22007KT CAVOK 12/12 Q1016=
202307062120 METAR ESMX 062120Z AUTO 22006KT 9999 NCD 12/11 Q1016=
202307062050 METAR ESMX 062050Z AUTO 22008KT 9999 NCD 13/12 Q1016=
202307062020 METAR ESMX 062020Z 22008KT CAVOK 13/12 Q1015=
202307061950 METAR COR ESMX 061950Z 20006KT CAVOK 13/12 Q1015=
202307061920 METAR ESMX 061920Z AUTO 22006KT 9999 NCD 14/12 Q1015=
202307061850 METAR ESMX 061850Z AUTO 22007KT 9999 NCD 15/12 Q1014=
202307061820 METAR ESMX 061820Z AUTO 22010KT 9999 NCD 15/12 Q1014=
202307061750 METAR ESMX 061750Z AUTO 22008KT 9999 FEW059/// 16/13 Q1014=
202307061720 METAR ESMX 061720Z AUTO 24006KT 9999 FEW076/// 16/14 Q1014=
202307061650 METAR ESMX 061650Z AUTO 24004KT 9999 FEW068/// BKN110/// 15/13 Q1014=
202307061620 METAR ESMX 061620Z 26010KT 7000 SHRA SCT031CB 14/12 Q1014=
202307061550 METAR ESMX 061550Z 24007KT 220V290 9999 FEW040 17/11 Q1013=
202307061520 METAR ESMX 061520Z 24010KT 210V280 9999 VCSH SCT040 16/11 Q1013=
202307061450 METAR ESMX 061450Z 24010KT 220V280 9999 BKN034 16/11 Q1013=
202307061420 METAR ESMX 061420Z 22016KT 190V250 9999 BKN033 17/11 Q1012=
202307061350 METAR ESMX 061350Z 21014KT 190V250 9999 VCSH SCT030 17/11 Q1012=
202307061320 METAR ESMX 061320Z 22012KT 9999 VCSH SCT030 16/12 Q1012=
202307061250 METAR ESMX 061250Z 23011KT 200V260 9999 -RA SCT020 BKN029 14/12 Q1012=
202307061220 METAR ESMX 061220Z 20010KT 9999 FEW011 BKN016 14/13 Q1012=
202307061150 METAR ESMX 061150Z AUTO 21012KT 5000 BR FEW007/// SCT009/// BKN012/// 13/13 Q1012=
202307061120 METAR ESMX 061120Z 22012KT 7000 BKN008 13/13 Q1011=
202307061050 METAR ESMX 061050Z 20012KT 5000 -RADZ BKN010 13/13 Q1011=
202307061020 METAR ESMX 061020Z 21014KT 4500 -RA BKN008 13/13 Q1010=
202307060950 METAR ESMX 060950Z 20015KT 6000 FEW007 BKN011 13/13 Q1010=
202307060920 METAR ESMX 060920Z AUTO 20015KT 160V230 9999 SCT011/// BKN016/// 14/13 Q1009=
202307060850 METAR ESMX 060850Z AUTO 20011KT 9000 FEW008/// SCT011/// 14/13 Q1009=
202307060820 METAR ESMX 060820Z AUTO 20013KT 2600 -RA VV011 13/13 Q1009 REDZ=
202307060750 METAR ESMX 060750Z AUTO 18013KT 2200 -RA BKN007/// OVC010/// 13/13 Q1009 REDZ=
202307060720 METAR ESMX 060720Z AUTO 20013KT 7000 DZ FEW005/// BKN009/// BKN013/// 13/13 Q1008=
202307060650 METAR ESMX 060650Z AUTO 19012KT 9999 BKN011/// BKN017/// OVC021/// 14/13 Q1008=
202307060620 METAR ESMX 060620Z AUTO 18013KT 9999 BKN012/// BKN015/// OVC018/// 14/12 Q1007 REDZ=
202307060550 METAR ESMX 060550Z AUTO 18014KT 9999 FEW007/// BKN014/// BKN022/// 14/12 Q1007=
202307060520 METAR ESMX 060520Z AUTO 17010KT 8000 FEW002/// BKN013/// BKN017/// 13/12 Q1007 REDZ=
202307060450 METAR ESMX 060450Z AUTO 17010KT 9999 BKN014/// OVC027/// 14/12 Q1007=
202307060420 METAR ESMX 060420Z AUTO 17009KT 9999 BKN013/// OVC020/// 13/12 Q1007=
202307060350 METAR ESMX 060350Z AUTO 16009KT 9999 SCT014/// OVC022/// 13/12 Q1007=
202307060320 METAR ESMX 060320Z AUTO 17009KT 9999 FEW006/// BKN016/// BKN024/// 13/12 Q1007=
202307060250 METAR ESMX 060250Z AUTO 16008KT 9999 -RA BKN017/// OVC022/// 13/12 Q1007=
202307060220 METAR ESMX 060220Z AUTO 17009KT 9999 BKN020/// OVC026/// 14/11 Q1007=
202307060150 METAR ESMX 060150Z AUTO 17011KT 9999 BKN018/// OVC048/// 14/12 Q1007=
202307060120 METAR ESMX 060120Z AUTO 16010KT 9999 SCT022/// BKN028/// OVC051/// 14/11 Q1007=
202307060050 METAR ESMX 060050Z AUTO 16010KT 9999 SCT049/// 14/11 Q1007=
202307060020 METAR ESMX 060020Z AUTO 16010KT 9999 FEW023/// BKN061/// BKN200/// 14/12 Q1007=
202307052350 METAR ESMX 052350Z 17008KT CAVOK 14/12 Q1007=
202307052320 METAR COR ESMX 052320Z 14009KT CAVOK 14/13 Q1007=
202307052250 METAR COR ESMX 052250Z 13005KT 080V160 CAVOK 13/13 Q1007=
202307052220 METAR ESMX 052220Z AUTO 13005KT 9999 FEW070/// 14/13 Q1008=
202307052150 METAR ESMX 052150Z 14008KT CAVOK 14/13 Q1008=
202307052120 METAR ESMX 052120Z AUTO 15008KT 9999 BKN064/// 14/13 Q1008=
202307052050 METAR COR ESMX 052050Z 14008KT 9999 FEW014 15/13 Q1008=
202307052020 METAR ESMX 052020Z 13006KT 070V170 9999 SCT015 BKN017 15/13 Q1008=
202307051950 METAR COR ESMX 051950Z 14006KT 080V160 9999 BKN018 15/13 Q1008=
202307051920 METAR ESMX 051920Z AUTO 12006KT 080V150 9999 BKN078/// OVC098/// 15/12 Q1008=
202307051850 METAR ESMX 051850Z AUTO 13006KT 080V160 9999 OVC094/// 14/12 Q1008=
202307051820 METAR ESMX 051820Z AUTO 10005KT 050V150 9999 FEW043/// OVC098/// 14/11 Q1008=
202307051750 METAR ESMX 051750Z AUTO 11005KT 020V160 9999 BKN039/// BKN051/// 14/12 Q1008=
202307051720 METAR ESMX 051720Z AUTO 10006KT 050V140 9999 FEW021/// BKN033/// OVC051/// 14/12 Q1008=
202307051650 METAR ESMX 051650Z AUTO 12004KT 050V170 9999 FEW003/// BKN028/// OVC035/// 14/12 Q1009=
202307051620 METAR ESMX 051620Z AUTO 14009KT 110V170 9000 -RA FEW002/// SCT017/// OVC035/// 15/11 Q1009 REDZ=
202307051550 METAR ESMX 051550Z AUTO 11003KT 050V150 9999 -DZ FEW030/// OVC040/// 16/13 Q1009=
202307051520 METAR ESMX 051520Z AUTO 11004KT 080V140 9999 OVC055/// 16/13 Q1009=
202307051450 METAR ESMX 051450Z AUTO 10005KT 050V140 9999 OVC078/// 15/13 Q1009=
202307051420 METAR ESMX 051420Z AUTO 10005KT 070V140 9999 -DZ OVC080/// 15/13 Q1010=
202307051350 METAR ESMX 051350Z 11004KT 050V150 9000 -RA NSC 15/13 Q1010=
202307051320 METAR ESMX 051320Z VRB03KT 9999 -DZ NSC 16/12 Q1010=
202307051250 METAR ESMX 051250Z 17006KT 110V180 9999 -DZ NSC 17/11 Q1010=
202307051220 METAR ESMX 051220Z AUTO 16009KT 9999 -RA FEW033/// BKN068/// OVC094/// 17/11 Q1011=
202307051150 METAR ESMX 051150Z AUTO 17010KT 140V200 9999 -RA FEW035/// OVC098/// 18/10 Q1010=
202307051120 METAR ESMX 051120Z AUTO 15008KT 140V200 9999 BKN098/// 18/09 Q1010=
202307051050 METAR ESMX 051050Z AUTO 17010KT 130V190 9999 BKN035/// 18/10 Q1011=
202307051020 METAR ESMX 051020Z AUTO 19008KT 9999 FEW034/// SCT170/// 19/11 Q1011=
202307050950 METAR ESMX 050950Z AUTO 20010KT 160V230 9999 ///////// 18/11 Q1011=
202307050920 METAR ESMX 050920Z AUTO 18008KT 140V210 9999 ///////// 17/11 Q1011=
202307050850 METAR ESMX 050850Z AUTO 20008KT 170V240 9999 ///////// 16/11 Q1011=
202307050820 METAR ESMX 050820Z 17010KT 150V210 9999 BKN018 16/11 Q1011=
202307050750 METAR COR ESMX 050750Z 18011KT 150V210 9999 BKN015 16/13 Q1011=
202307050720 METAR ESMX 050720Z 21007KT 9999 BKN014 15/12 Q1011=
202307050650 METAR ESMX 050650Z 20007KT 9999 SCT011 BKN018 14/12 Q1011=
202307050620 METAR ESMX 050620Z 22008KT 9999 BKN009 13/12 Q1011=
202307050550 METAR ESMX 050550Z 19007KT 160V220 9999 BKN007 13/12 Q1010=
202307050520 METAR ESMX 050520Z AUTO 21008KT 9999 BKN007/// OVC019/// 12/12 Q1010=
202307050450 METAR ESMX 050450Z AUTO 19008KT 9999 SCT008/// 12/12 Q1010=
202307050420 METAR ESMX 050420Z AUTO 20007KT 9999 NCD 12/11 Q1010=
202307050350 METAR ESMX 050350Z AUTO 21007KT 9999 NCD 11/11 Q1010=
202307050320 METAR ESMX 050320Z AUTO 22008KT 9999 NCD 11/11 Q1009=
202307050250 METAR ESMX 050250Z AUTO 22007KT 9999 NCD 11/11 Q1009=
202307050220 METAR ESMX 050220Z AUTO 22007KT 9999 NCD 11/11 Q1009=
202307050150 METAR ESMX 050150Z AUTO 22006KT 9999 FEW020/// 11/11 Q1009=
202307050120 METAR ESMX 050120Z AUTO 22006KT 9999 FEW014/// SCT018/// 12/12 Q1009=
202307050050 METAR ESMX 050050Z AUTO 23008KT 9999 -RA SCT011/// BKN016/// OVC044/// 13/13 Q1009=
202307050020 METAR ESMX 050020Z AUTO 22006KT 9999 SCT014/// BKN018/// BKN034/// 12/12 Q1008=
202307042350 METAR ESMX 042350Z 22007KT 9999 FEW010 BKN039 12/12 Q1008=
202307042320 METAR ESMX 042320Z 22008KT 7000 FEW005 BKN013 BKN027 12/12 Q1008=
202307042250 METAR ESMX 042250Z AUTO 22008KT 9999 FEW007/// BKN011/// BKN016/// 12/12 Q1008=
202307042220 METAR ESMX 042220Z AUTO 22008KT 9999 SCT007/// BKN011/// OVC015/// 12/12 Q1007=
202307042150 METAR ESMX 042150Z AUTO 22008KT 9999 OVC008/// 12/12 Q1007=
202307042120 METAR ESMX 042120Z AUTO 22010KT 9999 RA SCT010/// BKN014/// BKN023/// 12/12 Q1007 REDZ=
202307042050 METAR ESMX 042050Z 23012KT 9999 -RA BKN018 13/11 Q1006=
202307042020 METAR ESMX 042020Z 22011KT 9999 SCT023 BKN049 13/11 Q1006=
202307041950 METAR COR ESMX 041950Z 23007KT 9999 -RA FEW003 BKN029 13/11 Q1006=
202307041920 METAR ESMX 041920Z AUTO 20010KT 170V230 9999 BKN033/// BKN080/// 14/09 Q1006=
202307041850 METAR ESMX 041850Z AUTO 22011KT 9999 FEW074/// 14/09 Q1005=
202307041820 METAR ESMX 041820Z AUTO 19010KT 9999 FEW039/// BKN059/// 14/11 Q1005=
202307041750 METAR ESMX 041750Z AUTO 18009KT 9999 NCD 13/11 Q1005=
202307041720 METAR ESMX 041720Z AUTO 19012KT 9999 SCT030/// 14/10 Q1005=
202307041650 METAR ESMX 041650Z AUTO 20010KT 9999 BKN027/// BKN043/// 15/11 Q1005=
202307041620 METAR ESMX 041620Z AUTO 23009KT 190V260 9999 FEW029/// BKN049/// BKN068/// 15/11 Q1005=
202307041550 METAR ESMX 041550Z AUTO 20010KT 9999 FEW180/// 16/10 Q1005=
202307041520 METAR ESMX 041520Z AUTO 22010KT 9999 FEW140/// 14/10 Q1005=
202307041450 METAR ESMX 041450Z AUTO 25009KT 210V280 9999 FEW039/// BKN059/// BKN150/// 14/10 Q1005 RESHRA=
202307041420 METAR ESMX 041420Z AUTO 23017KT 200V260 9999 SCT043/// BKN061/// 16/08 Q1004=
202307041350 METAR ESMX 041350Z AUTO 22015G27KT 190V260 9999 BKN038/// BKN057/// 18/09 Q1004=
202307041320 METAR ESMX 041320Z AUTO 21018G28KT 190V250 9999 FEW037/// SCT160/// BKN210/// 17/10 Q1004=
202307041250 METAR ESMX 041250Z AUTO 23016KT 200V270 9999 BKN110/// 16/09 Q1004=
202307041220 METAR ESMX 041220Z AUTO 23018KT 9999 FEW059/// 16/10 Q1004 RERA=
202307041150 METAR ESMX 041150Z AUTO 21013G26KT 9999 SCT051/// 15/12 Q1003 RERA=
202307041120 METAR ESMX 041120Z AUTO 20014KT 170V230 9999 FEW029/// 15/12 Q1003=
202307041050 METAR ESMX 041050Z AUTO 20015KT 170V230 9999 SCT026/// BKN066/// 15/12 Q1003=
202307041020 METAR ESMX 041020Z AUTO 21015G25KT 9999 FEW020/// SCT037/// BKN057/// 13/11 Q1003 RERA=
202307040950 METAR ESMX 040950Z AUTO 23014KT 9999 -RA FEW017/// SCT031/// BKN053/// 14/11 Q1002=
202307040920 METAR ESMX 040920Z AUTO 23011KT 9999 BKN018/// BKN024/// OVC074/// 14/11 Q1002=
202307040850 METAR ESMX 040850Z AUTO 23011KT 9999 SCT019/// BKN049/// BKN059/// 13/11 Q1002=
202307040820 METAR ESMX 040820Z AUTO 23009KT 9999 SCT014/// BKN040/// BKN051/// 13/11 Q1002=
202307040750 METAR ESMX 040750Z AUTO 26008KT 230V290 9999 SCT011/// BKN034/// BKN064/// 13/12 Q1001=
202307040720 METAR ESMX 040720Z AUTO 23007KT 210V290 9999 FEW007/// BKN012/// OVC057/// 12/11 Q1001=
202307040650 METAR ESMX 040650Z AUTO 20004KT 9999 SCT007/// BKN018/// OVC048/// 12/11 Q1000 RERA=
202307040620 METAR ESMX 040620Z AUTO 20006KT 170V230 9999 FEW008/// BKN018/// BKN046/// 11/11 Q1001=
202307040550 METAR ESMX 040550Z AUTO 18006KT 7000 -RA FEW005/// SCT027/// BKN036/// 11/11 Q1001 RERA=
202307040520 METAR ESMX 040520Z AUTO 19008KT 9999 FEW012/// SCT031/// BKN042/// 11/11 Q1001=
202307040450 METAR ESMX 040450Z AUTO 20010KT 9999 RA BKN009/// OVC055/// 11/11 Q1001=
202307040420 METAR ESMX 040420Z AUTO 19009KT 9999 -RA SCT012/// OVC061/// 11/11 Q1001 REDZ=
202307040350 METAR ESMX 040350Z AUTO 19009KT 9999 FEW019/// 10/10 Q1001=
202307040320 METAR ESMX 040320Z AUTO 18008KT 9999 NCD 10/10 Q1001=
202307040250 METAR ESMX 040250Z AUTO 19008KT 9999 SCT055/// 10/09 Q1002=
202307040220 METAR ESMX 040220Z AUTO 19008KT 9999 FEW008/// SCT061/// 09/09 Q1002=
202307040150 METAR ESMX 040150Z AUTO 20009KT 9999 FEW009/// SCT013/// BKN059/// 10/09 Q1002=
202307040120 METAR ESMX 040120Z AUTO 19009KT 9999 FEW098/// 09/09 Q1002=
202307040050 METAR ESMX 040050Z AUTO 19009KT 9999 SCT084/// 09/09 Q1002=
202307040020 METAR ESMX 040020Z AUTO 19010KT 9999 FEW026/// 09/09 Q1002=
202307032350 METAR ESMX 032350Z 19010KT 9999 FEW029 SCT059 09/09 Q1002=
202307032320 METAR COR ESMX 032320Z 19010KT 9999 SCT032 09/09 Q1002=
202307032250 METAR ESMX 032250Z AUTO 19009KT 9999 NCD 09/09 Q1002=
202307032220 METAR ESMX 032220Z AUTO 19008KT 9999 NCD 09/09 Q1002=
202307032150 METAR ESMX 032150Z AUTO 19008KT 9999 NCD 10/09 Q1002=
202307032120 METAR ESMX 032120Z AUTO 19009KT 9999 NCD 10/09 Q1002=
202307032050 METAR ESMX 032050Z AUTO 19010KT 9999 NCD 10/09 Q1002=
202307032020 METAR ESMX 032020Z 19010KT CAVOK 10/09 Q1002=
202307031950 METAR COR ESMX 031950Z 19010KT CAVOK 11/10 Q1001=
202307031920 METAR COR ESMX 031920Z 21008KT CAVOK 11/10 Q1001=
202307031850 METAR ESMX 031850Z AUTO 21008KT 9999 FEW057/// 11/10 Q1001=
202307031820 METAR ESMX 031820Z AUTO 25008KT 9999 FEW033/// BKN051/// OVC070/// 11/09 Q1001=
202307031750 METAR ESMX 031750Z AUTO 23011KT 9999 SCT051/// BKN130/// 14/10 Q1001=
202307031720 METAR ESMX 031720Z 24011KT 9999 SCT048 14/09 Q1001=
202307031650 METAR ESMX 031650Z 23013KT 200V260 9999 SCT042 14/11 Q1001=
202307031620 METAR ESMX 031620Z 22013KT 9999 SCT043 15/11 Q1000=
202307031550 METAR ESMX 031550Z 22013KT 9999 SHRA FEW047CB BKN180 14/12 Q1000=
202307031520 METAR ESMX 031520Z 22010KT 9999 SHRA FEW035CB SCT062 BKN098 14/13 Q1000=
202307031450 METAR ESMX 031450Z 23018G29KT 200V270 9999 SHRA SCT038CB BKN061 17/09 Q0999=
202307031420 METAR ESMX 031420Z 22017G27KT 9999 SCT036CB 17/09 Q0999=
202307031350 METAR ESMX 031350Z 24019KT 9999 FEW045CB SCT120 17/09 Q0999=
202307031320 METAR ESMX 031320Z 22017G29KT 190V250 9999 FEW045CB SCT120 16/11 Q0999=
202307031250 METAR COR ESMX 031250Z 23018G28KT 9999 SHRA FEW045CB SCT120 13/11 Q0999=
202307031220 METAR ESMX 031220Z AUTO 22014KT 190V260 9999 FEW038/// 16/11 Q0998=
202307031150 METAR ESMX 031150Z AUTO 22019G30KT 190V250 9999 -RA BKN042/// 16/09 Q0998=
202307031120 METAR ESMX 031120Z AUTO 22017KT 9999 BKN043/// 17/09 Q0997=
202307031050 METAR ESMX 031050Z AUTO 23018G29KT 210V280 9999 BKN038/// 17/08 Q0997=
202307031020 METAR ESMX 031020Z AUTO 25016KT 220V280 9999 SCT039/// BKN066/// 16/10 Q0997=
202307030950 METAR ESMX 030950Z AUTO 25011KT 220V290 9999 FEW053/// SCT190/// 15/11 Q0997=
202307030920 METAR ESMX 030920Z AUTO 24008KT 210V280 9999 FEW030/// SCT057/// 13/11 Q0997=
202307030850 METAR ESMX 030850Z 24010KT 210V270 9999 SHRA FEW026CB BKN037 12/11 Q0996=
202307030820 METAR COR ESMX 030820Z 23015G27KT 200V260 9999 +SHRA TS SCT025CB BKN039 14/11 Q0996=
202307030750 METAR ESMX 030750Z 21018KT 9999 SCT021CB BKN027 15/11 Q0996=
202307030720 METAR ESMX 030720Z 22016KT 190V250 9999 SCT016CB BKN029 14/11 Q0996=
202307030650 METAR ESMX 030650Z 22014KT 9999 SCT016CB BKN029 14/12 Q0996=
202307030620 METAR ESMX 030620Z 21015G26KT 9999 SHRA BKN016CB 12/11 Q0996=
202307030550 METAR ESMX 030550Z 21015KT 9999 BKN017 14/11 Q0996=
202307030520 METAR ESMX 030520Z 22014KT 9999 BKN013 13/11 Q0996=
202307030450 METAR ESMX 030450Z 21013KT 9999 BKN012 12/11 Q0996=
202307030420 METAR ESMX 030420Z 21010KT 170V240 9999 BKN011 12/11 Q0996=
202307030350 METAR ESMX 030350Z 20011KT 9999 FEW013 SCT028 BKN062 11/11 Q0996=
202307030320 METAR ESMX 030320Z AUTO 19013KT 9999 FEW012/// 11/11 Q0996=
202307030250 METAR ESMX 030250Z AUTO 20012KT 9999 SCT034/// 11/10 Q0996=
202307030220 METAR ESMX 030220Z AUTO 22011KT 9999 FEW012/// SCT062/// 11/10 Q0996=
202307030150 METAR ESMX 030150Z AUTO 22012KT 9999 FEW015/// BKN031/// 11/10 Q0996=
202307030120 METAR ESMX 030120Z AUTO 22011KT 9999 FEW033/// 11/10 Q0996=
202307030050 METAR ESMX 030050Z AUTO 21011KT 9999 BKN029/// 11/11 Q0996=
202307030020 METAR ESMX 030020Z AUTO 20011KT 9999 BKN031/// 11/10 Q0996=
202307022350 METAR ESMX 022350Z AUTO 22011KT 9999 BKN031/// 11/11 Q0996=
202307022320 METAR ESMX 022320Z AUTO 22010KT 9999 SCT030/// BKN039/// 12/11 Q0996=
202307022250 METAR ESMX 022250Z AUTO 22009KT 9999 SCT027/// BKN035/// BKN068/// 12/11 Q0997=
202307022220 METAR ESMX 022220Z AUTO 21009KT 9999 FEW019/// BKN029/// BKN040/// 12/11 Q0997 RERA=
202307022150 METAR ESMX 022150Z AUTO 21009KT 9999 FEW024/// SCT039/// OVC051/// 12/11 Q0997=
202307022120 METAR ESMX 022120Z AUTO 23011KT 9999 -RA FEW024/// SCT048/// OVC062/// 12/11 Q0997=
202307022050 METAR ESMX 022050Z AUTO 24013KT 9999 -RA BKN020/// BKN053/// OVC066/// 12/11 Q0997 REDZ=
202307022020 METAR ESMX 022020Z AUTO 23009KT 9999 -DZ FEW007/// BKN024/// BKN034/// 13/11 Q0997=
202307021950 METAR ESMX 021950Z AUTO 22011KT 9999 SCT028/// OVC047/// 13/11 Q0997=
202307021920 METAR ESMX 021920Z AUTO 22013KT 190V250 9999 SCT024/// OVC044/// 13/11 Q0997=
202307021850 METAR ESMX 021850Z AUTO 24013KT 9999 BKN028/// 14/11 Q0997=
202307021820 METAR ESMX 021820Z AUTO 22013KT 200V260 9999 SCT030/// 14/11 Q0997=
202307021750 METAR ESMX 021750Z AUTO 24010KT 210V270 9999 NCD 14/12 Q0997=
202307021720 METAR ESMX 021720Z AUTO 23012KT 190V260 9999 SCT020/// BKN084/// 14/12 Q0997 RERA=
202307021650 METAR ESMX 021650Z AUTO 26006KT 230V300 9999 FEW027/// BKN051/// BKN066/// 13/12 Q0997=
202307021620 METAR ESMX 021620Z AUTO 24013KT 200V280 9999 RA FEW002/// SCT029/// BKN036/// 14/10 Q0997=
202307021550 METAR ESMX 021550Z AUTO 25013G23KT 220V280 9999 FEW029/// 16/11 Q0996=
202307021520 METAR ESMX 021520Z 24012KT 9999 FEW032 16/11 Q0996=
202307021450 METAR ESMX 021450Z 23017G29KT 9999 SHRA SCT035CB BKN057 17/11 Q0996=
202307021420 METAR ESMX 021420Z 23013KT 9999 SCT029CB BKN035 17/12 Q0995=
202307021350 METAR ESMX 021350Z 24013KT 9999 FEW043CB 17/10 Q0995=
202307021320 METAR ESMX 021320Z 23013KT 200V260 9999 FEW043CB SCT088 16/11 Q0995=
202307021250 METAR ESMX 021250Z 24008KT 210V280 9999 SHRA FEW034CB BKN043 16/13 Q0995=
202307021220 METAR ESMX 021220Z 25012KT 9999 SHRA SCT034CB BKN049 17/11 Q0995=
202307021150 METAR ESMX 021150Z 23011KT 200V260 9999 SHRA FEW026CB BKN046 16/13 Q0994=
202307021120 METAR ESMX 021120Z 26007KT 9999 SHRA FEW024CB BKN057 15/13 Q0995=
202307021050 METAR ESMX 021050Z 24015KT 200V280 9999 SHRA SCT029CB BKN037 17/11 Q0994=
202307021020 METAR ESMX 021020Z 23011KT 9999 SCT022 BKN046 17/13 Q0994=
202307020950 METAR ESMX 020950Z 24009KT 200V270 9999 FEW018 SCT027 BKN064 16/12 Q0994=
202307020920 METAR ESMX 020920Z 24010KT 9999 FEW016 SCT033 BKN064 16/14 Q0994=
202307020850 METAR ESMX 020850Z 25012KT 220V280 9999 -SHRA FEW025CB BKN047 15/13 Q0994=
202307020820 METAR ESMX 020820Z 22010KT 9999 SHRA SCT019CB BKN048 14/14 Q0994=
202307020750 METAR ESMX 020750Z 23009KT 200V260 9999 -SHRA FEW024CB BKN034 15/13 Q0994=
202307020720 METAR ESMX 020720Z 26009KT 9999 SHRA FEW015CB BKN028 14/13 Q0994=
202307020650 METAR COR ESMX 020650Z 24011KT 200V260 9999 SHRA SCT014CB BKN024 16/13 Q0994=
202307020620 METAR ESMX 020620Z 23009KT 9999 -SHRA SCT010 BKN016 15/14 Q0994=
202307020550 METAR ESMX 020550Z 21009KT 9999 BKN009 15/15 Q0994=
202307020520 METAR ESMX 020520Z AUTO 22010KT 9999 SCT009/// BKN013/// BKN017/// 15/14 Q0994=
202307020450 METAR ESMX 020450Z AUTO 22009KT 9999 SCT008/// BKN013/// BKN036/// 15/14 Q0994=
202307020420 METAR ESMX 020420Z AUTO 22009KT 9999 SCT009/// BKN014/// OVC039/// 15/15 Q0994=
202307020350 METAR ESMX 020350Z AUTO 20009KT 9999 BKN009/// OVC013/// 15/15 Q0994=
202307020320 METAR ESMX 020320Z AUTO 20008KT 9999 FEW009/// SCT013/// BKN019/// 15/15 Q0994=
202307020250 METAR ESMX 020250Z AUTO 21008KT 9999 FEW006/// SCT011/// BKN018/// 15/15 Q0994=
202307020220 METAR ESMX 020220Z AUTO 22008KT 200V260 9000 DZ OVC051/// 15/15 Q0994=
202307020150 METAR ESMX 020150Z AUTO 24009KT 7000 -RA SCT007/// OVC049/// 15/15 Q0995=
202307020120 METAR ESMX 020120Z AUTO 21007KT 9999 BKN007/// BKN011/// OVC014/// 15/15 Q0995=
202307020050 METAR ESMX 020050Z AUTO 22007KT 9999 SCT006/// BKN018/// BKN026/// 15/15 Q0995=
202307020020 METAR ESMX 020020Z AUTO 21008KT 9999 BKN007/// BKN200/// 15/15 Q0995=
202307012350 METAR ESMX 012350Z AUTO 22009KT 9999 BKN007/// OVC009/// 15/15 Q0995=
202307012320 METAR ESMX 012320Z AUTO 22010KT 9999 BKN009/// OVC012/// 15/15 Q0995=
202307012250 METAR ESMX 012250Z AUTO 19011KT 9999 OVC005/// 16/16 Q0995=
202307012220 METAR ESMX 012220Z AUTO 17010KT 9999 SCT001/// OVC005/// 16/16 Q0995 RESHRA RERA=
202307012150 METAR ESMX 012150Z AUTO 17008KT 4300 +RA SCT002/// OVC004/// 15/15 Q0996 RESHRA REDZ=
202307012120 METAR ESMX 012120Z AUTO 17009KT 9999 OVC005/// 15/15 Q0996=
202307012050 METAR ESMX 012050Z AUTO 18008KT 9999 OVC005/// 15/15 Q0996=
202307012020 METAR ESMX 012020Z AUTO 17007KT 9999 OVC005/// 15/15 Q0997=
202307011950 METAR ESMX 011950Z AUTO 16008KT 9999 OVC006/// 15/15 Q0997=
202307011920 METAR ESMX 011920Z AUTO 17008KT 9999 OVC009/// 15/15 Q0997=
202307011850 METAR ESMX 011850Z AUTO 17007KT 9999 DZ OVC009/// 15/15 Q0997=
202307011820 METAR ESMX 011820Z AUTO 18008KT 9999 -RA OVC009/// 15/15 Q0997 REDZ=
202307011750 METAR ESMX 011750Z AUTO 17009KT 9999 BKN010/// OVC013/// 15/14 Q0998=
202307011720 METAR ESMX 011720Z AUTO 17006KT 9999 OVC012/// 15/14 Q0998=
202307011650 METAR ESMX 011650Z AUTO 17008KT 9999 FEW007/// OVC010/// 15/14 Q0998=
202307011620 METAR ESMX 011620Z AUTO 17010KT 6000 FEW007/// BKN012/// BKN015/// 15/14 Q0998=
202307011550 METAR ESMX 011550Z AUTO 18012KT 9999 BKN019/// OVC025/// 16/14 Q0999=
202307011520 METAR ESMX 011520Z AUTO 17008KT 9999 SCT016/// OVC024/// 16/14 Q0999=
202307011450 METAR ESMX 011450Z AUTO 17006KT 9999 -DZ OVC019/// 16/14 Q0999 REDZ=
202307011420 METAR ESMX 011420Z AUTO 17004KT 9999 OVC021/// 15/14 Q1000 REDZ=
202307011350 METAR ESMX 011350Z AUTO 17005KT 9999 BKN025/// OVC032/// 15/14 Q1000=
202307011320 METAR ESMX 011320Z AUTO 19010KT 7000 -RA OVC022/// 15/14 Q1000 REDZ=
202307011250 METAR ESMX 011250Z AUTO 17007KT 9999 FEW015/// SCT021/// BKN025/// 15/14 Q1000 REDZ=
202307011220 METAR ESMX 011220Z AUTO 18005KT 9999 SCT020/// BKN027/// 15/14 Q1000=
