##########################################################
# Query made at 04/19/2024 22:34:32 UTC
# Time interval: from 10/01/2023 12:00  to 10/31/2023 12:59  UTC
##########################################################

##########################################################
# ESMX, Vaxjo (Sweden)
# WMO index: 02641. WIGOS ID: 0-20000-0-02648
# Latitude 56-51N. Longitude 014-50E. Altitude 199 m.
##########################################################

202310311250 METAR ESMX 311250Z 01008KT 9999 -RA BKN006 BKN012 09/09 Q0991=
202310311220 METAR ESMX 311220Z 35007KT 9999 DZ BKN005 BKN013 09/09 Q0991=
202310311150 METAR ESMX 311150Z 35006KT 9999 -RA BKN003 BKN007 09/09 Q0991=
202310311120 METAR ESMX 311120Z 35005KT 9999 -RA BKN004 BKN018 09/09 Q0991=
202310311050 METAR ESMX 311050Z 36005KT 9999 -RA BKN003 09/09 Q0991=
202310311020 METAR ESMX 311020Z 01004KT 9999 -RA SCT002 BKN008 09/09 Q0992=
202310310950 METAR ESMX 310950Z 01005KT 9000 DZ BKN002 08/08 Q0992=
202310310920 METAR ESMX 310920Z VRB03KT 9000 -RA BKN002 08/08 Q0992=
202310310850 METAR ESMX 310850Z 36004KT 8000 -RA VV002 08/08 Q0993=
202310310820 METAR ESMX 310820Z 36004KT 8000 DZ VV003 08/08 Q0993=
202310310750 METAR ESMX 310750Z 01004KT 8000 -RA BKN002 08/08 Q0993=
202310310720 METAR ESMX 310720Z 02004KT 5000 -RA BKN002 07/07 Q0994=
202310310650 METAR ESMX 310650Z VRB03KT 4000 -DZ VV002 07/07 Q0994=
202310310620 METAR ESMX 310620Z VRB02KT 3000 -DZ VV002 07/07 Q0994=
202310310550 METAR ESMX 310550Z 00000KT 1500 BR -DZ VV002 07/07 Q0995=
202310310520 METAR ESMX 310520Z 00000KT 0600 R01/1100N R19/P2000N -DZ VV002 07/07 Q0995=
202310310450 METAR COR ESMX 310450Z 00000KT 0800 R01/1300N R19/P2000N FG VV002 07/07 Q0995=
202310310420 METAR ESMX 310420Z AUTO 00000KT 0650 R01/1800D R19/P2000N FG OVC001/// 07/07 Q0995=
202310310350 METAR ESMX 310350Z AUTO VRB01KT 0650 R01/P2000D R19/P2000N FG BKN001/// OVC003/// 07/07 Q0995=
202310310320 METAR ESMX 310320Z AUTO VRB01KT 0500 R01/1500U R19/P2000D FG BKN001/// OVC003/// 07/07 Q0996=
202310310250 METAR ESMX 310250Z AUTO 15004KT 0250 R01/0800N R19/0900N FG OVC001/// 07/07 Q0996=
202310310220 METAR ESMX 310220Z AUTO 14003KT 110V180 0250 R01/1000N R19/0900N FG BKN001/// OVC003/// 07/07 Q0996=
202310310150 METAR ESMX 310150Z AUTO 16005KT 0300 R01/1000N R19/1300U FG OVC001/// 07/07 Q0997=
202310310120 METAR ESMX 310120Z AUTO 17004KT 140V200 0900 R01/P2000N R19/P2000N BR OVC002/// 07/07 Q0997=
202310310050 METAR ESMX 310050Z 18006KT 8000 BKN003 07/07 Q0997=
202310310020 METAR ESMX 310020Z 18007KT 9000 BKN004 07/07 Q0997=
202310302350 METAR ESMX 302350Z 17007KT 9999 BKN004 08/08 Q0997=
202310302320 METAR ESMX 302320Z 18006KT 9999 SCT007 08/08 Q0998=
202310302250 METAR ESMX 302250Z 17007KT 9999 SCT006 08/08 Q0998=
202310302220 METAR ESMX 302220Z 18007KT 9999 FEW008 08/08 Q0998=
202310302150 METAR ESMX 302150Z 18009KT 9999 FEW008 08/08 Q0998=
202310302120 METAR ESMX 302120Z 18010KT 9999 BKN008 09/09 Q0998=
202310302050 METAR ESMX 302050Z 18012KT 9999 BKN009 09/09 Q0998=
202310302020 METAR ESMX 302020Z 18013KT 9999 BKN010 10/09 Q0998=
202310301950 METAR ESMX 301950Z 18011KT 9999 BKN011 10/09 Q0998=
202310301920 METAR ESMX 301920Z 18011KT 9999 BKN009 10/09 Q0998=
202310301850 METAR ESMX 301850Z 17011KT 9999 BKN008 10/09 Q0998=
202310301820 METAR ESMX 301820Z 17011KT 9999 BKN008 09/09 Q0998=
202310301750 METAR ESMX 301750Z 17010KT 9999 SCT008 09/09 Q0998=
202310301720 METAR ESMX 301720Z 16010KT 9999 BKN016 09/09 Q0998=
202310301650 METAR ESMX 301650Z 15009KT 9999 BKN020 09/09 Q0998=
202310301620 METAR ESMX 301620Z 16010KT 9999 BKN029 10/09 Q0998=
202310301550 METAR ESMX 301550Z 16010KT 9999 BKN030 10/10 Q0998=
202310301520 METAR ESMX 301520Z 17010KT 9999 BKN029 10/10 Q0998=
202310301450 METAR ESMX 301450Z 16008KT 9999 FEW012 SCT038 10/10 Q0997=
202310301420 METAR ESMX 301420Z 18007KT 9999 SCT015 BKN023 11/10 Q0998=
202310301350 METAR ESMX 301350Z 19009KT 9999 SCT015 BKN025 11/10 Q0998=
202310301320 METAR ESMX 301320Z 19009KT 9999 BKN016 11/10 Q0998=
202310301250 METAR ESMX 301250Z 19009KT 9999 SCT009 BKN013 11/10 Q0998=
202310301220 METAR ESMX 301220Z 20008KT 9999 SCT011 BKN024 11/11 Q0997=
202310301150 METAR ESMX 301150Z 20009KT 9999 BKN010 11/11 Q0997=
202310301120 METAR ESMX 301120Z 20008KT 9999 SCT007 BKN013 11/10 Q0997=
202310301050 METAR ESMX 301050Z 22008KT 9999 BKN006 BKN017 11/11 Q0997=
202310301020 METAR ESMX 301020Z 22006KT 9999 BKN007 10/10 Q0997=
202310300950 METAR ESMX 300950Z 21006KT 9999 -RA BKN005 BKN011 09/09 Q0997=
202310300920 METAR ESMX 300920Z 20005KT 170V230 5000 -RA BKN002 BKN033 09/09 Q0997=
202310300850 METAR ESMX 300850Z 16004KT 3900 RA BKN003 08/08 Q0996=
202310300820 METAR ESMX 300820Z AUTO 15004KT 7000 -RA OVC002/// 08/08 Q0996 REDZ=
202310300750 METAR ESMX 300750Z 15004KT 4100 BR BKN002 07/07 Q0996 REDZ=
202310300720 METAR ESMX 300720Z 16004KT 7000 BKN003 BKN034 07/07 Q0995=
202310300650 METAR ESMX 300650Z 14003KT 1000 R01/P2000N R19/1400U VV002 07/07 Q0995=
202310300620 METAR ESMX 300620Z 16003KT 0550 R01/1700D R19/P2000N FG VV002 06/06 Q0995=
202310300550 METAR ESMX 300550Z 14003KT 0900 R01/P2000N R19/P2000N BR BKN002 06/06 Q0994=
202310300520 METAR ESMX 300520Z 15003KT 9999 BKN004 BKN008 06/06 Q0994=
202310300450 METAR ESMX 300450Z 14004KT 9999 BKN002 BKN008 06/06 Q0994=
202310300420 METAR ESMX 300420Z AUTO 15003KT 9999 SCT002/// BKN020/// BKN066/// 05/05 Q0994=
202310300350 METAR ESMX 300350Z AUTO 16001KT 9999 DZ SCT003/// BKN013/// BKN019/// 06/06 Q0994=
202310300320 METAR ESMX 300320Z AUTO 00000KT 8000 -DZ BKN002/// OVC009/// 06/06 Q0994=
202310300250 METAR ESMX 300250Z AUTO 00000KT 9999 -RA SCT002/// OVC043/// 05/05 Q0994=
202310300220 METAR ESMX 300220Z AUTO 17003KT 7000 -RA OVC002/// 06/06 Q0994=
202310300150 METAR ESMX 300150Z AUTO 30001KT 3300 RA OVC002/// 05/05 Q0994=
202310300120 METAR ESMX 300120Z AUTO VRB02KT 1700 -RA OVC001/// 05/05 Q0993=
202310300050 METAR ESMX 300050Z AUTO 01003KT 0550 R01/1500N R19/P2000N -RA OVC001/// 05/05 Q0993 REUP=
202310300020 METAR ESMX 300020Z AUTO 04002KT 0400 R01/1200N R19/1600N FG OVC001/// 05/05 Q0993=
202310292350 METAR ESMX 292350Z AUTO 04003KT 350V100 0450 R01/1300N R19/1600N FG OVC001/// 05/05 Q0993=
202310292320 METAR ESMX 292320Z AUTO 00000KT 0550 R01/1500N R19/P2000D FG OVC001/// 05/05 Q0993=
202310292250 METAR ESMX 292250Z AUTO VRB02KT 0800 R01/P2000N R19/P2000N FG OVC001/// 05/05 Q0994 REDZ=
202310292220 METAR ESMX 292220Z AUTO 00000KT 2000 BR OVC002/// 05/05 Q0994 RESHUP REDZ=
202310292150 METAR ESMX 292150Z AUTO 00000KT 9999 OVC003/// 05/05 Q0994=
202310292120 METAR ESMX 292120Z AUTO VRB03KT 9999 OVC003/// 05/05 Q0994=
202310292050 METAR ESMX 292050Z AUTO VRB03KT 9999 OVC003/// 05/05 Q0994 RESHUP REDZ=
202310292020 METAR ESMX 292020Z AUTO VRB02KT 9999 OVC003/// 05/05 Q0994 REDZ=
202310291950 METAR ESMX 291950Z AUTO VRB02KT 9999 DZ OVC004/// 05/05 Q0994 REUP=
202310291920 METAR ESMX 291920Z AUTO VRB02KT 9999 OVC005/// 05/05 Q0994=
202310291850 METAR ESMX 291850Z AUTO VRB03KT 9999 OVC006/// 05/05 Q0994=
202310291820 METAR ESMX 291820Z AUTO 06004KT 340V120 9999 -DZ OVC005/// 05/05 Q0995 RESHUP REDZ=
202310291750 METAR ESMX 291750Z 09007KT 050V120 9999 BKN007 05/05 Q0995=
202310291720 METAR ESMX 291720Z VRB06KT 9999 BKN007 04/04 Q0995=
202310291650 METAR ESMX 291650Z 11005KT 050V180 8000 -RA BKN006 04/04 Q0995=
202310291620 METAR ESMX 291620Z VRB05KT 2600 RA BKN006 04/04 Q0995=
202310291550 METAR ESMX 291550Z 08008KT 030V140 9999 +RA BKN006 04/04 Q0995=
202310291520 METAR ESMX 291520Z 08007KT 030V140 9999 -DZ BKN007 03/03 Q0995 RERA=
202310291450 METAR ESMX 291450Z 07008KT 030V140 9000 -RA BKN007 03/03 Q0996=
202310291420 METAR ESMX 291420Z 08009KT 030V140 9999 -RA BKN008 OVC012 03/03 Q0996=
202310291350 METAR ESMX 291350Z 07008KT 350V150 7000 -RA BKN009 BKN016 03/03 Q0997=
202310291320 METAR ESMX 291320Z VRB07G17KT 5000 -RA BKN010 OVC019 03/03 Q0998=
202310291250 METAR ESMX 291250Z 10009G20KT 050V180 7000 -RA BKN010 04/04 Q0998=
202310291220 METAR ESMX 291220Z 10009KT 030V150 9999 -RA BKN010 OVC014 04/04 Q0998=
202310291150 METAR ESMX 291150Z 10009KT 050V160 9000 -RA BKN012 OVC017 05/04 Q0998=
202310291120 METAR ESMX 291120Z 10009G26KT 030V140 9999 -RA BKN012 OVC015 05/05 Q0999=
202310291050 METAR ESMX 291050Z 10009KT 030V160 9999 -RA BKN013 OVC018 05/05 Q1000=
202310291020 METAR ESMX 291020Z 10008KT 030V160 9999 -RA BKN015 05/05 Q1001=
202310290950 METAR ESMX 290950Z 10007G17KT 050V210 9999 -RA BKN013 BKN040 OVC048 05/05 Q1001 REDZ=
202310290920 METAR ESMX 290920Z 10008KT 020V150 9999 -DZ BKN012 BKN015 OVC022 06/04 Q1002=
202310290850 METAR ESMX 290850Z 10007KT 030V150 9999 BKN009 05/04 Q1002=
202310290820 METAR ESMX 290820Z AUTO 10007KT 010V150 9999 OVC008/// 05/04 Q1003=
202310290750 METAR ESMX 290750Z AUTO 09006KT 040V150 9999 OVC008/// 05/04 Q1003=
202310290720 METAR ESMX 290720Z AUTO 09006KT 350V150 9999 OVC007/// 04/04 Q1003=
202310290650 METAR ESMX 290650Z AUTO 08007KT 030V120 9999 OVC007/// 04/04 Q1003=
202310290620 METAR ESMX 290620Z AUTO VRB06KT 9999 OVC009/// 04/03 Q1004=
202310290550 METAR ESMX 290550Z AUTO 09005KT 020V160 9999 FEW009/// SCT016/// OVC030/// 04/03 Q1004=
202310290520 METAR ESMX 290520Z AUTO 08005KT 010V120 9999 FEW009/// BKN020/// OVC029/// 03/03 Q1004=
202310290450 METAR ESMX 290450Z AUTO 09006KT 030V140 9999 SCT009/// BKN024/// OVC034/// 03/03 Q1005=
202310290420 METAR ESMX 290420Z AUTO 11006KT 050V210 9999 SCT009/// OVC017/// 03/03 Q1005=
202310290350 METAR ESMX 290350Z AUTO 10006KT 050V140 9999 SCT008/// OVC019/// 03/03 Q1005=
202310290320 METAR ESMX 290320Z AUTO 10005KT 040V170 9999 FEW009/// OVC019/// 03/03 Q1005=
202310290250 METAR ESMX 290250Z AUTO 10004KT 020V140 9999 BKN007/// OVC020/// 03/03 Q1005=
202310290220 METAR ESMX 290220Z AUTO 09004KT 030V140 9999 BKN005/// OVC020/// 03/03 Q1005=
202310290150 METAR ESMX 290150Z AUTO 08004KT 350V160 9000 DZ BKN006/// BKN024/// OVC042/// 02/02 Q1005=
202310290120 METAR ESMX 290120Z AUTO 08006KT 030V130 9999 -DZ SCT008/// BKN026/// BKN037/// 02/02 Q1006=
202310290050 METAR ESMX 290050Z AUTO 07006KT 030V100 9999 -DZ BKN007/// OVC038/// 02/02 Q1006 REUP=
202310290020 METAR ESMX 290020Z AUTO 06006KT 030V110 9999 FEW007/// OVC036/// 02/02 Q1006=
202310282350 METAR ESMX 282350Z AUTO 06005KT 030V100 9999 BKN007/// OVC037/// 02/02 Q1007=
202310282320 METAR ESMX 282320Z AUTO 03005KT 9999 OVC008/// 02/02 Q1007=
202310282250 METAR ESMX 282250Z AUTO VRB03KT 9999 BKN007/// 02/01 Q1007=
202310282220 METAR ESMX 282220Z AUTO VRB03KT 9999 NCD 02/02 Q1006=
202310282150 METAR ESMX 282150Z AUTO VRB04KT 9999 FEW008/// BKN110/// 02/02 Q1007=
202310282120 METAR ESMX 282120Z AUTO VRB02KT 9999 FEW007/// OVC025/// 03/02 Q1007=
202310282050 METAR ESMX 282050Z AUTO 06005KT 020V100 9999 OVC007/// 03/03 Q1006=
202310282020 METAR ESMX 282020Z AUTO VRB03KT 9999 OVC007/// 03/03 Q1006=
202310281950 METAR ESMX 281950Z AUTO 08005KT 020V120 9999 OVC006/// 03/03 Q1006=
202310281920 METAR ESMX 281920Z AUTO 07004KT 350V160 9999 OVC006/// 03/03 Q1006=
202310281850 METAR ESMX 281850Z AUTO 09004KT 050V140 9999 OVC006/// 03/03 Q1006=
202310281820 METAR ESMX 281820Z AUTO 07004KT 020V120 9999 OVC006/// 03/03 Q1006=
202310281750 METAR ESMX 281750Z AUTO 08005KT 030V120 9999 OVC006/// 03/03 Q1006=
202310281720 METAR ESMX 281720Z AUTO 06004KT 010V110 9999 OVC007/// 04/03 Q1005=
202310281650 METAR ESMX 281650Z AUTO 04004KT 010V080 9999 FEW007/// OVC036/// 04/04 Q1005=
202310281620 METAR ESMX 281620Z AUTO 04004KT 010V070 9999 SCT007/// OVC036/// 04/04 Q1005=
202310281550 METAR ESMX 281550Z AUTO 07004KT 040V110 9999 SCT007/// BKN010/// BKN036/// 04/04 Q1005=
202310281520 METAR ESMX 281520Z AUTO 04004KT 020V080 9999 FEW014/// SCT016/// OVC033/// 04/04 Q1005=
202310281450 METAR ESMX 281450Z AUTO 04003KT 010V080 9999 SCT013/// BKN031/// OVC037/// 04/04 Q1005=
202310281420 METAR ESMX 281420Z AUTO 05003KT 010V090 9999 SCT008/// OVC013/// 04/03 Q1005=
202310281350 METAR ESMX 281350Z AUTO 07003KT 010V140 9999 OVC007/// 04/04 Q1005=
202310281320 METAR ESMX 281320Z AUTO 05004KT 010V080 9999 BKN008/// OVC009/// 04/04 Q1004=
202310281250 METAR ESMX 281250Z AUTO 04006KT 010V070 9999 OVC008/// 04/04 Q1004=
202310281220 METAR ESMX 281220Z AUTO 04004KT 360V080 9999 OVC008/// 04/03 Q1004=
202310281150 METAR ESMX 281150Z AUTO 06004KT 030V110 9999 SCT007/// BKN010/// OVC014/// 04/04 Q1004=
202310281120 METAR ESMX 281120Z AUTO 05003KT 010V100 9999 BKN008/// OVC011/// 04/03 Q1004=
202310281050 METAR ESMX 281050Z AUTO 05005KT 010V080 9999 BKN007/// OVC011/// 04/04 Q1004=
202310281020 METAR ESMX 281020Z AUTO 05003KT 010V110 9999 BKN008/// OVC011/// 04/04 Q1004=
202310280950 METAR ESMX 280950Z AUTO 05003KT 010V080 9999 BKN008/// OVC011/// 04/03 Q1004=
202310280920 METAR ESMX 280920Z AUTO 03003KT 010V080 9999 BKN008/// OVC010/// 04/04 Q1003=
202310280850 METAR ESMX 280850Z 04005KT 010V070 9999 BKN007 04/03 Q1003=
202310280820 METAR ESMX 280820Z AUTO 05004KT 010V110 9999 BKN005/// OVC007/// 04/03 Q1003=
202310280750 METAR ESMX 280750Z 03005KT 360V060 9999 BKN006 03/03 Q1003=
202310280720 METAR ESMX 280720Z VRB04KT 9999 BKN006 03/03 Q1002=
202310280650 METAR ESMX 280650Z 06005KT 020V090 9999 BKN006 03/03 Q1002=
202310280620 METAR ESMX 280620Z 03004KT 360V070 9999 BKN004 03/03 Q1002=
202310280550 METAR ESMX 280550Z AUTO VRB03KT 9999 OVC005/// 03/03 Q1001 RERA=
202310280520 METAR ESMX 280520Z AUTO 03004KT 350V080 9999 OVC005/// 03/03 Q1001=
202310280450 METAR ESMX 280450Z AUTO 03004KT 010V080 9999 -DZ OVC005/// 03/03 Q1001=
202310280420 METAR ESMX 280420Z AUTO 04003KT 360V080 9999 -RA BKN006/// OVC008/// 03/03 Q1001=
202310280350 METAR ESMX 280350Z AUTO 03007KT 6000 RA BKN006/// OVC008/// 02/02 Q1001=
202310280320 METAR ESMX 280320Z AUTO 01006KT 7000 -RA OVC005/// 03/03 Q1001 REDZ=
202310280250 METAR ESMX 280250Z AUTO 01006KT 9999 DZ BKN005/// OVC009/// 03/03 Q1001=
202310280220 METAR ESMX 280220Z AUTO 01005KT 340V040 9999 -RA OVC005/// 03/03 Q1001=
202310280150 METAR ESMX 280150Z AUTO 01006KT 9000 -RA OVC006/// 03/03 Q1001 REDZ=
202310280120 METAR ESMX 280120Z AUTO 01006KT 350V050 9999 DZ OVC006/// 03/03 Q1001=
202310280050 METAR ESMX 280050Z AUTO 02005KT 9999 DZ OVC006/// 03/03 Q1001=
202310280020 METAR ESMX 280020Z AUTO 01006KT 9999 -DZ OVC006/// 03/03 Q1001 RESHUP REUP=
202310272350 METAR ESMX 272350Z AUTO 01007KT 9999 OVC006/// 03/02 Q1001 RESHUP REUP=
202310272320 METAR ESMX 272320Z AUTO 01006KT 9999 OVC006/// 03/02 Q1001=
202310272250 METAR ESMX 272250Z AUTO 01007KT 9999 OVC007/// 03/02 Q1001=
202310272220 METAR ESMX 272220Z AUTO 01007KT 9999 OVC007/// 03/02 Q1000=
202310272150 METAR ESMX 272150Z AUTO 01007KT 9999 OVC006/// 03/02 Q1001=
202310272120 METAR ESMX 272120Z 01008KT 9999 BKN007 03/03 Q1000=
202310272050 METAR ESMX 272050Z AUTO 01007KT 9999 BKN007/// OVC009/// 03/03 Q1000=
202310272020 METAR ESMX 272020Z AUTO 01006KT 9999 OVC007/// 03/03 Q1000 RESHUP=
202310271950 METAR ESMX 271950Z AUTO 03006KT 9999 OVC005/// 03/03 Q1000 REUP=
202310271920 METAR ESMX 271920Z 01007KT 9999 BKN004 03/03 Q1000=
202310271850 METAR ESMX 271850Z 01008KT 340V040 9999 BKN005 03/03 Q1000=
202310271820 METAR ESMX 271820Z AUTO 01008KT 9999 OVC003/// 03/03 Q1000=
202310271750 METAR ESMX 271750Z AUTO 01009KT 6000 OVC003/// 03/03 Q1000=
202310271720 METAR ESMX 271720Z AUTO 01009KT 350V050 6000 OVC005/// 03/03 Q1000 RESHUP REUP=
202310271650 METAR ESMX 271650Z AUTO 01009KT 4000 BR OVC003/// 03/03 Q0999=
202310271620 METAR ESMX 271620Z 01008KT 6000 BKN003 03/03 Q0999 REDZ=
202310271550 METAR ESMX 271550Z 01008KT 5000 BR BKN003 03/03 Q1000=
202310271520 METAR ESMX 271520Z 01007KT 4100 BR BKN003 OVC004 03/03 Q1000=
202310271450 METAR ESMX 271450Z 01008KT 6000 -DZ FEW002 BKN005 OVC007 04/03 Q0999 REDZ=
202310271420 METAR ESMX 271420Z 02007KT 350V060 9999 BKN007 04/03 Q0999 REDZ=
202310271350 METAR ESMX 271350Z 02007KT 9999 -DZ BKN007 04/03 Q0999=
202310271320 METAR ESMX 271320Z 02009KT 350V050 9999 BKN009 04/03 Q0999=
202310271250 METAR ESMX 271250Z 02008KT 340V050 9999 BKN009 04/03 Q0999=
202310271220 METAR ESMX 271220Z 01008KT 350V050 9999 BKN009 04/03 Q0999=
202310271150 METAR ESMX 271150Z 04008KT 360V060 9999 BKN009 04/03 Q0999=
202310271120 METAR ESMX 271120Z 02008KT 340V050 9999 BKN009 04/03 Q0999=
202310271050 METAR ESMX 271050Z 02010KT 350V050 9999 BKN009 04/03 Q0999=
202310271020 METAR ESMX 271020Z 01009KT 9999 BKN009 04/03 Q0999=
202310270950 METAR ESMX 270950Z 03008KT 010V070 9999 BKN009 04/03 Q1000=
202310270920 METAR ESMX 270920Z 01009KT 9999 BKN008 04/03 Q0999=
202310270850 METAR ESMX 270850Z 02008KT 350V060 9999 BKN007 04/03 Q0999=
202310270820 METAR ESMX 270820Z 03009KT 360V060 9999 BKN008 04/03 Q0999=
202310270750 METAR ESMX 270750Z 01008KT 9999 BKN007 04/03 Q0999=
202310270720 METAR ESMX 270720Z 03008KT 360V060 9999 BKN006 03/03 Q0999=
202310270650 METAR ESMX 270650Z 01008KT 9999 BKN006 04/03 Q0999=
202310270620 METAR ESMX 270620Z 01009KT 9999 BKN006 03/03 Q0999=
202310270550 METAR ESMX 270550Z 02010KT 9999 BKN007 04/03 Q0999=
202310270520 METAR ESMX 270520Z 01009KT 9999 BKN008 04/03 Q0999=
202310270450 METAR ESMX 270450Z 01010KT 9999 BKN008 04/03 Q0999=
202310270420 METAR COR ESMX 270420Z 01009KT 9999 BKN008 04/03 Q0999=
202310270350 METAR ESMX 270350Z AUTO 01008KT 9999 SCT008/// BKN010/// BKN012/// 04/03 Q0999=
202310270320 METAR ESMX 270320Z AUTO 01008KT 9999 BKN008/// BKN011/// OVC019/// 04/04 Q0999=
202310270250 METAR ESMX 270250Z AUTO 02007KT 9999 BKN008/// OVC021/// 04/04 Q0999=
202310270220 METAR ESMX 270220Z AUTO 02007KT 360V060 9999 FEW005/// OVC009/// 04/04 Q0999 RESHUP REUP=
202310270150 METAR ESMX 270150Z AUTO 02007KT 360V060 9000 OVC006/// 04/04 Q0999=
202310270120 METAR ESMX 270120Z AUTO 02008KT 320V040 9999 SCT006/// OVC008/// 05/04 Q0999=
202310270050 METAR ESMX 270050Z AUTO 02007KT 350V060 9999 OVC008/// 05/04 Q0999=
202310270020 METAR ESMX 270020Z AUTO 03007KT 350V060 9999 OVC007/// 05/04 Q0999=
202310262350 METAR ESMX 262350Z AUTO 03005KT 350V080 9000 OVC005/// 05/05 Q0999=
202310262320 METAR ESMX 262320Z 04007KT 010V070 9999 BKN006 05/04 Q0999=
202310262250 METAR ESMX 262250Z 03006KT 350V060 9999 SCT005 BKN008 BKN010 05/04 Q0999=
202310262220 METAR ESMX 262220Z 03006KT 9999 BKN010 BKN013 05/04 Q1000=
202310262150 METAR ESMX 262150Z 04006KT 010V080 9999 BKN009 BKN013 OVC017 05/05 Q1000=
202310262120 METAR ESMX 262120Z 02007KT 340V060 9999 BKN008 OVC010 05/05 Q1000=
202310262050 METAR ESMX 262050Z 02006KT 9999 FEW005 SCT007 BKN009 05/05 Q1000=
202310262020 METAR ESMX 262020Z 04006KT 9999 FEW004 BKN007 BKN013 05/05 Q1000=
202310261950 METAR ESMX 261950Z 03006KT 340V070 9999 BKN008 BKN010 05/05 Q1000=
202310261920 METAR ESMX 261920Z AUTO 04006KT 9999 BKN010/// OVC014/// 06/05 Q1000=
202310261850 METAR ESMX 261850Z AUTO 04007KT 9999 FEW006/// SCT008/// BKN010/// 05/05 Q1000=
202310261820 METAR ESMX 261820Z AUTO 05007KT 030V090 9999 BKN004/// OVC008/// 05/05 Q1000=
202310261750 METAR ESMX 261750Z AUTO 04007KT 010V070 9999 BKN004/// BKN006/// OVC008/// 06/05 Q1000=
202310261720 METAR ESMX 261720Z 04008KT 9999 BKN008 06/05 Q1000=
202310261650 METAR ESMX 261650Z 04007KT 010V080 9999 BKN009 06/05 Q1000=
202310261620 METAR ESMX 261620Z 03008KT 9999 BKN009 BKN012 06/05 Q1000=
202310261550 METAR ESMX 261550Z 04006KT 9999 FEW006 BKN009 BKN014 06/05 Q1000 REDZ=
202310261520 METAR ESMX 261520Z 03007KT 010V070 9999 -DZ BKN005 BKN007 06/05 Q1000=
202310261450 METAR ESMX 261450Z 04009KT 010V070 9999 BKN006 06/05 Q1000=
202310261420 METAR COR ESMX 261420Z 02008KT 350V050 9999 FEW005 BKN009 06/05 Q1000=
202310261350 METAR ESMX 261350Z 04007KT 010V100 9999 BKN010 06/05 Q1000=
202310261320 METAR ESMX 261320Z 04009KT 9999 FEW007 BKN013 06/06 Q1000=
202310261250 METAR ESMX 261250Z 05007KT 020V090 9999 BKN006 06/06 Q1000=
202310261220 METAR ESMX 261220Z 06007KT 030V090 9999 SCT006 BKN008 BKN010 06/06 Q1000=
202310261150 METAR ESMX 261150Z 05006KT 020V080 9999 SCT007 BKN009 BKN012 06/06 Q1000=
202310261120 METAR ESMX 261120Z 04006KT 360V150 9999 BKN005 BKN007 06/06 Q1001=
202310261050 METAR ESMX 261050Z 01008KT 350V050 9999 -DZ BKN005 05/05 Q1001=
202310261020 METAR ESMX 261020Z 03009KT 350V060 9999 BKN005 05/05 Q1001=
202310260950 METAR ESMX 260950Z 03009KT 6000 BKN003 05/05 Q1001=
202310260920 METAR ESMX 260920Z 02007KT 340V040 8000 -DZ BKN003 05/05 Q1001=
202310260850 METAR ESMX 260850Z AUTO 03009KT 9999 -DZ OVC003/// 05/05 Q1001=
202310260820 METAR ESMX 260820Z 03009KT 6000 BKN003 05/05 Q1001=
202310260750 METAR ESMX 260750Z 03009KT 7000 -DZ BKN004 05/05 Q1001=
202310260720 METAR ESMX 260720Z AUTO 03009KT 6000 -RA OVC005/// 05/05 Q1001 REDZ=
202310260650 METAR ESMX 260650Z 03009KT 350V050 9999 BKN005 05/05 Q1001=
202310260620 METAR ESMX 260620Z 03008KT 9999 BKN006 05/05 Q1001=
202310260550 METAR ESMX 260550Z 04011KT 9999 BKN006 05/05 Q1001=
202310260520 METAR ESMX 260520Z 04008KT 9999 BKN006 05/05 Q1001=
202310260450 METAR ESMX 260450Z 04007KT 010V070 9999 -DZ BKN006 05/05 Q1002=
202310260420 METAR ESMX 260420Z 04006KT 9000 -DZ BKN006 05/05 Q1002=
202310260350 METAR ESMX 260350Z 05006KT 020V090 9000 -DZ BKN006 05/05 Q1002=
202310260320 METAR COR ESMX 260320Z 04008KT 360V070 9999 -DZ BKN007 05/05 Q1002=
202310260250 METAR ESMX 260250Z AUTO 06009KT 020V100 9999 -DZ BKN007/// OVC009/// 05/05 Q1002 REDZ=
202310260220 METAR ESMX 260220Z AUTO 05009KT 020V080 9999 -RA OVC006/// 05/05 Q1003=
202310260150 METAR ESMX 260150Z AUTO 05008KT 9999 -DZ OVC005/// 05/05 Q1003=
202310260120 METAR ESMX 260120Z AUTO 04008KT 9999 -DZ OVC005/// 05/05 Q1003=
202310260050 METAR ESMX 260050Z AUTO 04008KT 9999 -DZ OVC003/// 05/05 Q1003=
202310260020 METAR ESMX 260020Z AUTO 04008KT 010V070 6000 -DZ OVC003/// 05/05 Q1003=
202310252350 METAR ESMX 252350Z 04008KT 360V080 8000 -RA BKN004 05/05 Q1003=
202310252320 METAR ESMX 252320Z 04008KT 020V090 9999 BKN005 05/05 Q1004=
202310252250 METAR ESMX 252250Z 05008KT 010V080 9999 BKN007 05/05 Q1004=
202310252220 METAR COR ESMX 252220Z 05008KT 020V140 9999 BKN008 05/05 Q1004=
202310252150 METAR ESMX 252150Z 04009KT 010V080 9999 BKN005 05/05 Q1004=
202310252120 METAR ESMX 252120Z 04007KT 010V100 9999 BKN006 BKN008 05/05 Q1004=
202310252050 METAR ESMX 252050Z 04008KT 010V090 9999 BKN007 BKN009 06/05 Q1005=
202310252020 METAR ESMX 252020Z 04009KT 010V090 7000 BR BKN006 06/06 Q1005=
202310251950 METAR ESMX 251950Z 05008KT 030V090 6000 -DZ BKN005 06/06 Q1005=
202310251920 METAR ESMX 251920Z AUTO 06009KT 030V090 9000 -DZ BKN006/// OVC008/// 06/06 Q1005=
202310251850 METAR ESMX 251850Z AUTO 05008KT 020V090 9999 -DZ BKN008/// OVC009/// 06/06 Q1005 REUP=
202310251820 METAR ESMX 251820Z AUTO 05008KT 020V080 9999 BKN009/// BKN010/// OVC018/// 06/06 Q1005=
202310251750 METAR ESMX 251750Z AUTO 05008KT 020V090 9999 BKN009/// OVC016/// 06/06 Q1005=
202310251720 METAR ESMX 251720Z 05008KT 020V090 9999 -DZ SCT006 BKN008 BKN011 06/06 Q1005=
202310251650 METAR ESMX 251650Z 06008KT 020V080 9999 DZ BKN007 BKN009 06/06 Q1005=
202310251620 METAR ESMX 251620Z 05008KT 020V080 9999 -RA BKN006 BKN009 06/06 Q1005=
202310251550 METAR ESMX 251550Z 05007KT 020V080 7000 -RA BKN006 06/06 Q1005=
202310251520 METAR ESMX 251520Z 04007KT 9999 -DZ BKN005 06/06 Q1005=
202310251450 METAR ESMX 251450Z 03007KT 010V070 8000 -DZ BKN005 06/06 Q1005=
202310251420 METAR ESMX 251420Z 04008KT 010V080 9000 -DZ BKN005 06/06 Q1006=
202310251350 METAR ESMX 251350Z 05010KT 360V100 9999 BKN006 07/06 Q1006=
202310251320 METAR ESMX 251320Z 05009KT 030V100 9999 BKN006 07/06 Q1006=
202310251250 METAR ESMX 251250Z 06009KT 020V080 9000 BKN005 07/06 Q1006=
202310251220 METAR ESMX 251220Z 06008KT 020V100 8000 BKN005 07/07 Q1006=
202310251150 METAR ESMX 251150Z 06009KT 020V100 9999 BKN006 07/06 Q1006=
202310251120 METAR ESMX 251120Z 06009KT 030V090 9999 SCT005 BKN008 07/06 Q1006=
202310251050 METAR ESMX 251050Z 06010KT 020V090 9999 FEW006 BKN008 07/06 Q1006=
202310251020 METAR ESMX 251020Z AUTO 05010KT 020V080 9999 OVC009/// 07/07 Q1006=
202310250950 METAR ESMX 250950Z 05010KT 020V080 9999 BKN008 07/07 Q1006=
202310250920 METAR ESMX 250920Z 05010KT 020V090 9999 BKN008 07/07 Q1007=
202310250850 METAR ESMX 250850Z 05009KT 020V080 9999 -DZ BKN007 07/07 Q1007=
202310250820 METAR ESMX 250820Z 05008KT 020V080 9999 -DZ BKN007 07/07 Q1007=
202310250750 METAR ESMX 250750Z 04008KT 020V080 9999 -DZ BKN006 06/06 Q1007=
202310250720 METAR ESMX 250720Z 05008KT 020V080 9999 -RA BKN006 06/06 Q1007=
202310250650 METAR ESMX 250650Z 05008KT 020V090 9999 -RA BKN006 06/06 Q1007=
202310250620 METAR COR ESMX 250620Z 05008KT 010V080 9999 -RA BKN008 06/06 Q1007=
202310250550 METAR ESMX 250550Z 06009KT 020V080 9999 -DZ BKN011 06/05 Q1007=
202310250520 METAR ESMX 250520Z 06009KT 020V100 9999 -RA BKN010 06/05 Q1007=
202310250450 METAR ESMX 250450Z 07007KT 030V100 9999 BKN009 06/06 Q1007=
202310250420 METAR ESMX 250420Z 06008KT 030V110 9999 BKN007 06/06 Q1007=
202310250350 METAR COR ESMX 250350Z 05008KT 010V080 9999 BKN006 06/06 Q1007=
202310250320 METAR ESMX 250320Z AUTO 06008KT 020V100 9999 BKN006/// OVC009/// 06/06 Q1007=
202310250250 METAR ESMX 250250Z AUTO 06009KT 030V100 9999 OVC009/// 06/05 Q1008=
202310250220 METAR ESMX 250220Z AUTO 05007KT 010V110 9999 OVC012/// 07/05 Q1008=
202310250150 METAR ESMX 250150Z AUTO 07007KT 340V130 9999 OVC013/// 07/05 Q1008=
202310250120 METAR ESMX 250120Z AUTO 07009KT 030V110 9999 BKN013/// OVC022/// 07/05 Q1008=
202310250050 METAR ESMX 250050Z AUTO 07007KT 020V130 9999 OVC013/// 07/05 Q1009=
202310250020 METAR ESMX 250020Z AUTO 06008KT 020V110 9999 OVC013/// 06/05 Q1009=
202310242350 METAR ESMX 242350Z 05008KT 010V100 9999 BKN013 06/05 Q1009=
202310242320 METAR ESMX 242320Z 05008KT 020V090 9999 BKN013 06/05 Q1009=
202310242250 METAR ESMX 242250Z 06010KT 030V090 9999 BKN013 06/05 Q1010=
202310242220 METAR ESMX 242220Z 06009KT 030V100 9999 BKN013 06/05 Q1010=
202310242150 METAR ESMX 242150Z 06008KT 010V100 9999 BKN013 06/05 Q1010=
202310242120 METAR ESMX 242120Z 06009KT 030V110 9999 BKN013 06/05 Q1010=
202310242050 METAR ESMX 242050Z 05009KT 010V100 9999 BKN012 06/05 Q1010=
202310242020 METAR ESMX 242020Z 05010KT 010V100 9999 BKN012 06/05 Q1010=
202310241950 METAR ESMX 241950Z 06008KT 020V130 9999 BKN011 06/05 Q1010=
202310241920 METAR ESMX 241920Z AUTO 07008KT 020V110 9999 OVC012/// 06/04 Q1011=
202310241850 METAR ESMX 241850Z AUTO 05009KT 360V090 9999 OVC013/// 06/04 Q1011=
202310241820 METAR ESMX 241820Z AUTO 05009KT 010V100 9999 OVC013/// 06/04 Q1011=
202310241750 METAR ESMX 241750Z AUTO 05010KT 010V100 9999 OVC010/// 06/05 Q1011=
202310241720 METAR ESMX 241720Z 04010KT 010V100 9999 BKN010 06/05 Q1012=
202310241650 METAR ESMX 241650Z 06010KT 030V100 9999 BKN009 06/05 Q1012=
202310241620 METAR ESMX 241620Z 06009KT 030V090 9999 BKN009 06/05 Q1012=
202310241550 METAR ESMX 241550Z 05008KT 320V100 9999 BKN011 06/05 Q1012=
202310241520 METAR ESMX 241520Z 05009KT 010V120 9999 BKN013 07/05 Q1013=
202310241450 METAR ESMX 241450Z 07008KT 030V130 9999 BKN013 07/05 Q1013=
202310241420 METAR ESMX 241420Z 07007KT 020V120 9999 BKN011 07/05 Q1013=
202310241350 METAR ESMX 241350Z 07008KT 030V110 9999 FEW008 BKN011 07/05 Q1013=
202310241320 METAR ESMX 241320Z 05008KT 010V100 9999 BKN009 07/06 Q1013=
202310241150 METAR ESMX 241150Z 06008KT 020V100 9999 OVC008 07/06 Q1013=
202310241120 METAR ESMX 241120Z 06009KT 020V090 9999 BKN007 07/06 Q1013=
202310241050 METAR ESMX 241050Z 05008KT 030V100 9999 BKN007 07/06 Q1013=
202310241020 METAR ESMX 241020Z 05008KT 010V100 9999 BKN007 07/06 Q1014=
202310240950 METAR ESMX 240950Z 05007KT 020V110 9999 BKN007 07/07 Q1014=
202310240920 METAR ESMX 240920Z 05008KT 020V110 9999 BKN009 07/07 Q1014=
202310240850 METAR ESMX 240850Z 05007KT 010V090 9999 BKN008 07/07 Q1014=
202310240820 METAR ESMX 240820Z 05007KT 010V100 9999 BKN007 07/07 Q1014=
202310240750 METAR ESMX 240750Z 05007KT 350V100 9999 BKN008 07/07 Q1014=
202310240720 METAR ESMX 240720Z 06007KT 330V100 9999 BKN008 07/07 Q1014=
202310240650 METAR ESMX 240650Z VRB06KT 9999 BKN007 07/07 Q1014=
202310240620 METAR ESMX 240620Z 04006KT 010V090 9999 BKN007 07/07 Q1014=
202310240550 METAR ESMX 240550Z 05006KT 020V090 9999 BKN007 07/07 Q1013=
202310240520 METAR ESMX 240520Z 04005KT 360V080 9999 BKN007 07/07 Q1013=
202310240450 METAR ESMX 240450Z 03005KT 350V070 9999 BKN006 07/07 Q1013=
202310240420 METAR ESMX 240420Z 04004KT 010V100 9999 BKN006 07/07 Q1013=
202310240350 METAR ESMX 240350Z AUTO 05004KT 340V100 9999 BKN007/// OVC009/// 08/08 Q1013=
202310240320 METAR ESMX 240320Z AUTO 06004KT 020V100 9999 OVC005/// 08/08 Q1013=
202310240250 METAR ESMX 240250Z AUTO 05004KT 020V080 9999 OVC005/// 08/08 Q1013=
202310240220 METAR ESMX 240220Z AUTO 05003KT 340V100 9999 OVC005/// 08/08 Q1013=
202310240150 METAR ESMX 240150Z AUTO 04003KT 350V080 2100 BR OVC002/// 08/08 Q1013 REUP REDZ=
202310240120 METAR ESMX 240120Z AUTO VRB02KT 2300 OVC001/// 07/07 Q1013=
202310240050 METAR ESMX 240050Z AUTO 00000KT 9999 OVC003/// 07/07 Q1013=
202310240020 METAR ESMX 240020Z AUTO 00000KT 9999 FEW004/// BKN010/// OVC014/// 07/07 Q1013=
202310232350 METAR ESMX 232350Z 00000KT 9999 FEW003 BKN014 07/07 Q1013=
202310232320 METAR ESMX 232320Z 21002KT 9999 SCT003 BKN014 07/07 Q1013=
202310232250 METAR ESMX 232250Z 00000KT 9999 SCT002 BKN013 06/06 Q1013=
202310232220 METAR ESMX 232220Z 00000KT 9999 BKN002 BKN019 06/06 Q1013=
202310232150 METAR ESMX 232150Z 00000KT 9999 BKN003 BKN021 05/05 Q1012=
202310232120 METAR ESMX 232120Z 34002KT 9999 BKN024 05/05 Q1012=
202310232050 METAR ESMX 232050Z 21003KT 9999 BKN027 06/06 Q1012=
202310232020 METAR ESMX 232020Z 00000KT 9999 BKN028 04/04 Q1012=
202310231950 METAR ESMX 231950Z 22004KT 9999 BKN028 03/03 Q1012=
202310231920 METAR COR ESMX 231920Z 00000KT 9999 R01/P2000N R19/P2000N BCFG BKN028 03/03 Q1012=
202310231850 METAR ESMX 231850Z AUTO 00000KT 0600 R01/1700N R19/P2000N BCFG FEW057/// 04/04 Q1012=
202310231820 METAR ESMX 231820Z AUTO 00000KT 0350 R01/1900N R19/P2000N BCFG NCD 04/04 Q1012=
202310231750 METAR ESMX 231750Z AUTO 00000KT 9999 NCD 04/04 Q1012=
202310231720 METAR ESMX 231720Z 22002KT CAVOK 06/06 Q1011=
202310231650 METAR ESMX 231650Z 18003KT CAVOK 07/06 Q1011=
202310231620 METAR ESMX 231620Z 19003KT 9999 FEW021 07/07 Q1011=
202310231550 METAR ESMX 231550Z 22002KT CAVOK 08/07 Q1011=
202310231520 METAR ESMX 231520Z 20003KT CAVOK 10/07 Q1011=
202310231450 METAR ESMX 231450Z 23004KT 9999 FEW021 11/07 Q1011=
202310231420 METAR ESMX 231420Z 23005KT 9999 FEW021 11/07 Q1011=
202310231350 METAR ESMX 231350Z 22003KT 190V280 9999 FEW033 SCT060 12/07 Q1011=
202310231320 METAR ESMX 231320Z 21005KT 9999 SCT035 10/08 Q1011=
202310231220 METAR ESMX 231220Z 22009KT 9999 SCT018 OVC032 12/08 Q1010=
202310231050 METAR ESMX 231050Z 21008KT 9999 BKN013 10/08 Q1010=
202310231020 METAR ESMX 231020Z 22007KT 190V250 9999 SCT010 BKN012 10/08 Q1010=
202310230950 METAR ESMX 230950Z 23007KT 9999 BKN009 10/09 Q1010=
202310230920 METAR ESMX 230920Z 22008KT 190V250 9999 BKN009 10/09 Q1010=
202310230850 METAR ESMX 230850Z 23007KT 9999 BKN008 10/09 Q1010=
202310230820 METAR ESMX 230820Z 23006KT 9999 BKN007 10/10 Q1010=
202310230750 METAR ESMX 230750Z 23006KT 9999 BKN007 10/10 Q1009=
202310230720 METAR ESMX 230720Z 23005KT 200V260 9999 SCT007 09/09 Q1009=
202310230650 METAR ESMX 230650Z 22007KT 9999 BKN008 09/09 Q1009=
202310230620 METAR ESMX 230620Z 21005KT 190V250 9999 BKN008 09/09 Q1008=
202310230550 METAR ESMX 230550Z 21004KT 9999 BKN007 09/09 Q1008=
202310230520 METAR ESMX 230520Z 20004KT 180V260 9999 BKN008 09/09 Q1008=
202310230450 METAR ESMX 230450Z 23005KT 200V260 9999 SCT007 BKN043 09/09 Q1008=
202310230420 METAR ESMX 230420Z 23005KT 9999 BKN008 09/09 Q1007=
202310230350 METAR ESMX 230350Z AUTO 22007KT 9999 BKN007/// OVC009/// 09/09 Q1007=
202310230320 METAR ESMX 230320Z AUTO 23005KT 9999 OVC008/// 10/10 Q1007=
202310230250 METAR ESMX 230250Z AUTO 25006KT 9999 FEW008/// SCT021/// BKN025/// 10/10 Q1007=
202310230220 METAR ESMX 230220Z AUTO 25009KT 9999 SCT005/// BKN010/// 10/10 Q1007=
202310230150 METAR ESMX 230150Z AUTO 21006KT 170V250 3700 -DZ SCT003/// BKN004/// OVC009/// 10/10 Q1007=
202310230120 METAR ESMX 230120Z AUTO 15005KT 3900 -RA BKN002/// OVC006/// 09/09 Q1006 REDZ=
202310230050 METAR ESMX 230050Z AUTO 14005KT 2500 BR OVC002/// 09/09 Q1006 REDZ=
202310230020 METAR ESMX 230020Z AUTO 14005KT 3800 -DZ OVC002/// 09/09 Q1006=
202310222350 METAR ESMX 222350Z AUTO 13004KT 100V160 4500 -RA OVC002/// 09/09 Q1006 RERA=
202310222320 METAR ESMX 222320Z AUTO 13004KT 110V170 2500 BR OVC002/// 09/09 Q1006=
202310222250 METAR ESMX 222250Z AUTO 14006KT 1900 -RA OVC002/// 09/09 Q1006 REDZ=
202310222220 METAR ESMX 222220Z AUTO 13004KT 060V160 4500 BR OVC003/// 09/09 Q1006=
202310222150 METAR ESMX 222150Z AUTO 12004KT 070V170 8000 OVC003/// 09/09 Q1006=
202310222120 METAR ESMX 222120Z AUTO 12004KT 070V160 8000 OVC003/// 09/09 Q1007=
202310222050 METAR ESMX 222050Z AUTO 13003KT 070V160 9000 OVC003/// 09/09 Q1007=
202310222020 METAR ESMX 222020Z AUTO 13004KT 090V160 7000 OVC003/// 09/09 Q1007 REDZ=
202310221950 METAR ESMX 221950Z AUTO 11003KT 050V160 8000 OVC003/// 09/09 Q1007=
202310221920 METAR ESMX 221920Z AUTO 13004KT 080V160 4400 BR OVC002/// 09/09 Q1007 REDZ=
202310221850 METAR ESMX 221850Z AUTO 13003KT 060V160 2500 DZ BKN002/// OVC004/// 09/09 Q1007=
202310221820 METAR ESMX 221820Z AUTO 15004KT 110V170 9999 OVC004/// 10/10 Q1007=
202310221750 METAR ESMX 221750Z AUTO 10003KT 060V180 9999 OVC005/// 10/10 Q1007=
202310221720 METAR ESMX 221720Z AUTO VRB04KT 9999 OVC005/// 10/10 Q1007=
202310221650 METAR ESMX 221650Z VRB03KT 9999 BKN004 10/10 Q1007=
202310221620 METAR ESMX 221620Z VRB03KT 9999 OVC004 10/10 Q1007=
202310221550 METAR ESMX 221550Z VRB03KT 9999 BKN005 10/10 Q1007=
202310221520 METAR ESMX 221520Z VRB02KT 9999 OVC004 10/10 Q1007=
202310221450 METAR ESMX 221450Z VRB03KT 9999 OVC004 10/10 Q1007=
202310221420 METAR ESMX 221420Z VRB03KT 9999 BKN003 10/10 Q1007=
202310221350 METAR ESMX 221350Z 12004KT 050V150 9999 BKN003 10/10 Q1007=
202310221320 METAR ESMX 221320Z VRB03KT 9999 BKN003 10/10 Q1007=
202310221250 METAR ESMX 221250Z 14004KT 080V180 9999 BKN003 10/09 Q1007=
202310221220 METAR ESMX 221220Z 14005KT 100V170 9999 OVC004 10/09 Q1007=
202310221150 METAR ESMX 221150Z 11003KT 060V150 9999 BKN004 10/09 Q1007=
202310221120 METAR ESMX 221120Z 12005KT 060V160 9999 BKN005 10/09 Q1007=
202310221050 METAR ESMX 221050Z 12003KT 070V190 9999 BKN005 10/09 Q1007=
202310221020 METAR ESMX 221020Z VRB03KT 9999 BKN005 10/09 Q1007=
202310220950 METAR COR ESMX 220950Z 06003KT 020V100 9999 BKN004 09/09 Q1007=
202310220920 METAR ESMX 220920Z AUTO VRB03KT 9999 OVC004/// 09/09 Q1007=
202310220850 METAR ESMX 220850Z AUTO VRB03KT 9999 OVC004/// 08/08 Q1007=
202310220820 METAR ESMX 220820Z AUTO VRB03KT 9999 OVC004/// 08/08 Q1007=
202310220750 METAR ESMX 220750Z AUTO VRB02KT 9999 OVC003/// 08/08 Q1007=
202310220720 METAR ESMX 220720Z AUTO VRB02KT 9999 OVC003/// 07/07 Q1007=
202310220650 METAR ESMX 220650Z AUTO VRB02KT 7000 OVC003/// 07/07 Q1007=
202310220620 METAR ESMX 220620Z AUTO 06003KT 030V100 6000 OVC003/// 07/07 Q1006=
202310220550 METAR ESMX 220550Z AUTO VRB02KT 5000 BR OVC002/// 07/07 Q1006=
202310220520 METAR ESMX 220520Z AUTO 04003KT 010V080 3700 BR OVC002/// 07/07 Q1006=
202310220450 METAR ESMX 220450Z AUTO VRB03KT 3700 BR OVC002/// 07/07 Q1006=
202310220420 METAR ESMX 220420Z AUTO VRB03KT 2800 BR OVC002/// 07/07 Q1006=
202310220350 METAR ESMX 220350Z AUTO 06003KT 020V100 4000 BR OVC003/// 07/07 Q1006=
202310220320 METAR ESMX 220320Z AUTO 05003KT 010V100 4500 BR OVC002/// 07/07 Q1006=
202310220250 METAR ESMX 220250Z AUTO 04004KT 010V080 3200 BR OVC002/// 07/07 Q1005=
202310220220 METAR ESMX 220220Z AUTO 04004KT 360V090 3600 BR OVC004/// 06/06 Q1005=
202310220150 METAR ESMX 220150Z AUTO 03003KT 350V070 9999 OVC003/// 06/06 Q1005=
202310220120 METAR ESMX 220120Z AUTO VRB04KT 5000 BR OVC003/// 06/06 Q1005 REUP=
202310220050 METAR ESMX 220050Z AUTO 03004KT 360V070 9999 UP OVC003/// 06/06 Q1005 REDZ=
202310220020 METAR ESMX 220020Z AUTO 04004KT 360V120 8000 OVC002/// 06/06 Q1005=
202310212350 METAR ESMX 212350Z AUTO 04004KT 010V090 8000 OVC003/// 06/06 Q1005 REDZ REUP=
202310212320 METAR ESMX 212320Z AUTO 04004KT 350V100 9999 OVC003/// 06/06 Q1005=
202310212250 METAR ESMX 212250Z AUTO 04004KT 360V100 9999 OVC004/// 06/06 Q1005=
202310212220 METAR ESMX 212220Z AUTO 05004KT 020V090 9999 OVC004/// 06/06 Q1005 REUP=
202310212150 METAR ESMX 212150Z AUTO 05005KT 020V090 9999 OVC004/// 06/06 Q1005=
202310212120 METAR ESMX 212120Z AUTO 05006KT 010V070 9999 OVC004/// 06/06 Q1005=
202310212050 METAR ESMX 212050Z AUTO 04005KT 350V070 9999 OVC004/// 06/06 Q1005=
202310212020 METAR ESMX 212020Z AUTO 05006KT 020V080 9999 OVC004/// 06/06 Q1005=
202310211950 METAR ESMX 211950Z AUTO 03005KT 350V080 9999 OVC004/// 06/06 Q1005=
202310211920 METAR ESMX 211920Z AUTO 05006KT 020V080 7000 OVC003/// 06/06 Q1005=
202310211850 METAR ESMX 211850Z AUTO 04006KT 010V070 8000 OVC004/// 06/06 Q1004=
202310211820 METAR ESMX 211820Z AUTO 05006KT 030V090 9999 OVC004/// 05/05 Q1004=
202310211750 METAR ESMX 211750Z AUTO 05005KT 360V100 9999 OVC004/// 05/05 Q1004=
202310211720 METAR ESMX 211720Z AUTO 06008KT 030V090 9999 OVC004/// 05/05 Q1004=
202310211650 METAR ESMX 211650Z AUTO 04007KT 010V080 9000 OVC004/// 05/05 Q1004=
202310211620 METAR ESMX 211620Z AUTO 05007KT 020V100 9999 BKN005/// OVC007/// 06/05 Q1004=
202310211550 METAR ESMX 211550Z AUTO 06008KT 020V110 9999 OVC008/// 06/05 Q1003=
202310211520 METAR ESMX 211520Z AUTO 07009KT 020V110 9999 OVC007/// 06/05 Q1003=
202310211450 METAR ESMX 211450Z AUTO 06008KT 020V110 9999 OVC006/// 05/05 Q1003=
202310211420 METAR ESMX 211420Z AUTO 05010KT 020V080 9999 OVC005/// 05/05 Q1003=
202310211350 METAR ESMX 211350Z AUTO 06008KT 020V100 8000 OVC005/// 05/05 Q1003=
202310211320 METAR ESMX 211320Z AUTO 06008KT 030V100 9999 OVC006/// 05/05 Q1003=
202310211250 METAR ESMX 211250Z AUTO 04010KT 010V080 9999 OVC005/// 05/04 Q1003=
202310211220 METAR ESMX 211220Z AUTO 06010KT 030V090 9999 OVC006/// 05/04 Q1003=
202310211150 METAR ESMX 211150Z AUTO 05010KT 020V080 9999 OVC007/// 04/04 Q1003=
202310211120 METAR ESMX 211120Z AUTO 06009KT 020V110 9999 OVC008/// 04/03 Q1003=
202310211050 METAR ESMX 211050Z AUTO 06010KT 030V100 9999 OVC006/// 04/03 Q1003=
202310211020 METAR ESMX 211020Z AUTO 06010G23KT 010V120 9999 BKN007/// OVC008/// 03/03 Q1003=
202310210950 METAR ESMX 210950Z AUTO 06012G23KT 030V090 9999 OVC008/// 03/03 Q1003=
202310210920 METAR ESMX 210920Z AUTO 06012KT 020V090 9999 -DZ BKN008/// OVC011/// 03/03 Q1003 RESHUP RERA=
202310210850 METAR ESMX 210850Z 07010KT 030V100 9999 BKN009 OVC012 03/03 Q1003=
202310210820 METAR ESMX 210820Z 06011KT 030V100 9999 -RA BKN010 OVC021 03/03 Q1003=
202310210750 METAR ESMX 210750Z 07011KT 030V110 7000 -RA BKN008 OVC011 03/03 Q1003=
202310210720 METAR ESMX 210720Z 07010KT 030V110 9000 -RA BKN009 BKN012 OVC018 03/03 Q1003=
202310210650 METAR ESMX 210650Z 07010G21KT 020V110 7000 -RA BKN009 03/03 Q1003=
202310210620 METAR ESMX 210620Z 05012G23KT 010V120 8000 DZ SCT008 BKN010 OVC021 03/03 Q1002=
202310210550 METAR ESMX 210550Z 05012KT 020V100 7000 -RA FEW007 SCT009 BKN011 03/03 Q1002=
202310210520 METAR ESMX 210520Z AUTO 06010KT 020V110 7000 -RA BKN009/// BKN012/// OVC020/// 03/03 Q1002=
202310210450 METAR ESMX 210450Z AUTO 06012G25KT 030V100 9999 -RA BKN009/// BKN012/// OVC021/// 03/03 Q1002=
202310210420 METAR ESMX 210420Z AUTO 06012G26KT 020V100 9999 -RA BKN008/// OVC010/// 03/03 Q1002=
202310210350 METAR ESMX 210350Z AUTO 06012KT 030V100 8000 -RA FEW007/// BKN009/// OVC019/// 03/03 Q1002=
202310210320 METAR ESMX 210320Z AUTO 06013KT 020V090 8000 -RA BKN009/// BKN011/// OVC018/// 03/03 Q1002=
202310210250 METAR ESMX 210250Z AUTO 06013KT 030V100 7000 -RA BKN010/// BKN013/// OVC017/// 03/03 Q1002=
202310210220 METAR ESMX 210220Z AUTO 06012KT 030V110 8000 -RA BKN010/// BKN016/// OVC020/// 03/03 Q1003=
202310210150 METAR ESMX 210150Z AUTO 05013G25KT 020V110 6000 -RA SCT011/// BKN017/// OVC021/// 04/03 Q1003=
202310210120 METAR ESMX 210120Z AUTO 07014G25KT 020V100 8000 -RA BKN015/// OVC022/// 04/03 Q1003=
202310210050 METAR ESMX 210050Z AUTO 07015G27KT 030V140 9999 -RA FEW013/// BKN019/// OVC024/// 04/02 Q1002=
202310210020 METAR ESMX 210020Z AUTO 06016G29KT 030V090 9999 BKN019/// OVC026/// 05/02 Q1002 REDZ=
202310202350 METAR ESMX 202350Z AUTO 05014G26KT 320V110 9999 OVC017/// 05/02 Q1003 RESHUP REDZ=
202310202320 METAR ESMX 202320Z AUTO 07015G30KT 030V100 9999 BKN016/// OVC021/// 05/02 Q1003 REUP=
202310202250 METAR ESMX 202250Z AUTO 07016G29KT 030V100 9999 OVC018/// 05/02 Q1004=
202310202220 METAR ESMX 202220Z AUTO 06015G27KT 020V100 9999 BKN017/// OVC022/// 05/02 Q1004=
202310202150 METAR ESMX 202150Z AUTO 05013G26KT 350V110 9999 BKN019/// OVC140/// 05/02 Q1004=
202310202120 METAR ESMX 202120Z AUTO 07014G29KT 030V110 9999 OVC018/// 04/02 Q1005 RESHUP RERA=
202310202050 METAR ESMX 202050Z AUTO 05013G26KT 020V100 9999 OVC017/// 04/02 Q1005=
202310202020 METAR ESMX 202020Z AUTO 07012G22KT 020V110 9999 SQ OVC014/// 04/03 Q1005=
202310201950 METAR ESMX 201950Z AUTO 07013G23KT 030V100 9999 BKN014/// OVC020/// 04/02 Q1005 RESHUP REDZ=
202310201920 METAR ESMX 201920Z AUTO 05014G29KT 010V100 9999 OVC016/// 04/02 Q1005=
202310201850 METAR ESMX 201850Z AUTO 05015G29KT 010V080 9999 -DZ OVC017/// 04/02 Q1005 RESHUP RERA=
202310201820 METAR ESMX 201820Z AUTO 05012G26KT 010V100 9000 FEW012/// OVC017/// 04/02 Q1005 RESHUP=
202310201750 METAR ESMX 201750Z AUTO 04012G25KT 350V080 9999 OVC018/// 04/02 Q1005 RESHUP REUP=
202310201720 METAR ESMX 201720Z AUTO 06015G31KT 030V110 9999 BKN017/// OVC024/// 04/02 Q1006 RESHUP REDZ=
202310201650 METAR ESMX 201650Z AUTO 06015G30KT 350V100 9999 OVC017/// 04/02 Q1006=
202310201620 METAR ESMX 201620Z AUTO 06014KT 030V100 9999 -DZ OVC016/// 04/02 Q1006=
202310201550 METAR ESMX 201550Z AUTO 06015G27KT 030V100 9999 -DZ BKN016/// OVC023/// 04/02 Q1006 REUP=
202310201520 METAR ESMX 201520Z 06015G27KT 020V100 9999 BKN016 BKN022 OVC160 04/02 Q1006=
202310201450 METAR ESMX 201450Z AUTO 06014G27KT 030V100 9999 SCT014/// BKN020/// BKN026/// 04/02 Q1006 REUP=
202310201420 METAR ESMX 201420Z 06013G24KT 020V100 9999 BKN021 BKN170 04/02 Q1007=
202310201350 METAR ESMX 201350Z 06014G24KT 030V110 9999 BKN019 04/02 Q1007=
202310201320 METAR ESMX 201320Z 07012KT 030V100 9999 -DZ FEW010 BKN013 BKN026 03/03 Q1007 RERA=
202310201250 METAR ESMX 201250Z 06010G22KT 030V110 9999 FEW009 SCT018 BKN170 04/02 Q1007 RERA=
202310201220 METAR ESMX 201220Z 07012KT 030V100 9999 FEW007 SCT022 BKN043 03/02 Q1007=
202310201150 METAR ESMX 201150Z 06013KT 030V100 9999 -RA FEW006 BKN034 BKN049 04/02 Q1007=
202310201120 METAR ESMX 201120Z 07011G23KT 020V120 9999 DZ FEW017 BKN027 BKN047 04/02 Q1007=
202310201050 METAR ESMX 201050Z 07012G24KT 030V110 9999 BKN019 BKN027 04/02 Q1007=
202310201020 METAR ESMX 201020Z 06011KT 020V110 9999 FEW006 BKN015 04/02 Q1007=
202310200950 METAR ESMX 200950Z 06010KT 030V120 9999 FEW008 SCT015 BKN021 03/03 Q1007=
202310200920 METAR ESMX 200920Z 06013G23KT 030V100 9999 SHRASN SCT006 BKN020 03/02 Q1007=
202310200850 METAR ESMX 200850Z 05012G23KT 010V100 7000 SHRASN FEW005CB BKN016 03/01 Q1007=
202310200820 METAR ESMX 200820Z 06012G27KT 030V100 9999 BKN018 03/01 Q1007=
202310200750 METAR ESMX 200750Z 05011KT 020V100 9999 BKN011 03/02 Q1007=
202310200720 METAR ESMX 200720Z 04010KT 020V100 9999 BKN008 02/01 Q1007=
202310200650 METAR ESMX 200650Z 05009KT 010V080 9999 BKN008 02/01 Q1008=
202310200620 METAR ESMX 200620Z 04010KT 9999 BKN006 02/01 Q1008=
202310200550 METAR ESMX 200550Z 04012KT 9999 BKN009 02/01 Q1008=
202310200520 METAR ESMX 200520Z 05011KT 020V080 9999 BKN009 02/01 Q1008=
202310200450 METAR ESMX 200450Z 04012KT 9999 BKN009 02/01 Q1008=
202310200420 METAR ESMX 200420Z 04013KT 020V090 9999 BKN010 02/00 Q1008=
202310200350 METAR ESMX 200350Z 04012KT 9999 OVC008 02/01 Q1008=
202310200320 METAR ESMX 200320Z 03013G23KT 010V070 9999 OVC008 02/00 Q1008=
202310200250 METAR COR ESMX 200250Z 03012KT 9999 OVC008 01/00 Q1008=
202310200220 METAR ESMX 200220Z AUTO 03014G24KT 9999 OVC010/// 01/M00 Q1008=
202310200150 METAR ESMX 200150Z AUTO 03013KT 9999 SCT013/// BKN027/// 01/M01 Q1009=
202310200120 METAR ESMX 200120Z AUTO 03014KT 9999 FEW034/// 01/M00 Q1009=
202310200050 METAR ESMX 200050Z AUTO 03013KT 9999 BKN010/// 01/M00 Q1009=
202310200020 METAR ESMX 200020Z 04014KT 9999 BKN009 01/00 Q1009=
202310192350 METAR ESMX 192350Z 03012KT 9999 BKN009 01/00 Q1009=
202310192320 METAR ESMX 192320Z 03012KT 9999 BKN006 01/01 Q1009=
202310192250 METAR ESMX 192250Z 03013KT 9999 BKN007 01/00 Q1010=
202310192220 METAR ESMX 192220Z 03012KT 9999 BKN009 01/00 Q1010=
202310192150 METAR ESMX 192150Z 04013KT 9999 BKN009 01/00 Q1010=
202310192120 METAR ESMX 192120Z 03012KT 010V070 9999 BKN011 02/M00 Q1010=
202310192050 METAR ESMX 192050Z 04011KT 020V080 9999 BKN012 02/M00 Q1010 RESN=
202310192020 METAR ESMX 192020Z 04011KT 020V080 9999 BKN014 02/M01 Q1010=
202310191950 METAR ESMX 191950Z 04011KT 9999 BKN016 02/M01 Q1010=
202310191920 METAR ESMX 191920Z 04011KT 010V070 9999 BKN018 02/M01 Q1010=
202310191850 METAR ESMX 191850Z 04012KT 020V080 9999 SCT020 02/M01 Q1010=
202310191820 METAR ESMX 191820Z 05013KT 020V090 9999 SCT018 02/M01 Q1011=
202310191750 METAR ESMX 191750Z 04016KT 010V070 9999 SCT018 02/M00 Q1010=
202310191720 METAR ESMX 191720Z 04014KT 9999 FEW019 02/M01 Q1010=
202310191650 METAR ESMX 191650Z 04014KT 9999 SCT018 02/M00 Q1010=
202310191620 METAR ESMX 191620Z 04013KT 9999 BKN018 BKN045 03/M00 Q1010=
202310191550 METAR ESMX 191550Z 04015KT 020V080 9999 BKN018 03/00 Q1010=
202310191520 METAR ESMX 191520Z 04012KT 020V080 9999 SCT015 BKN024 03/01 Q1010=
202310191450 METAR ESMX 191450Z 05012KT 020V080 9999 BKN017 BKN048 04/01 Q1010=
202310191420 METAR ESMX 191420Z 05010KT 020V100 9999 BKN015 BKN027 04/01 Q1011=
202310191350 METAR COR ESMX 191350Z 05011KT 020V090 9999 BKN016 BKN020 04/01 Q1011=
202310191320 METAR ESMX 191320Z 06012KT 020V100 9999 UP FEW009 BKN018 04/01 Q1011=
202310191250 METAR ESMX 191250Z 04010KT 350V070 9999 BKN017 BKN023 04/01 Q1011=
202310191220 METAR ESMX 191220Z 04015KT 9999 SCT014 BKN023 04/01 Q1011=
202310191150 METAR ESMX 191150Z 04012KT 9999 BKN020 05/01 Q1011=
202310191120 METAR ESMX 191120Z 05011KT 020V080 9999 BKN021 BKN026 05/00 Q1011=
202310191050 METAR ESMX 191050Z 05012KT 020V100 9999 BKN019 04/M00 Q1012=
202310191020 METAR ESMX 191020Z 05011KT 020V080 9999 SCT016 04/M00 Q1012=
202310190950 METAR COR ESMX 190950Z 05010KT 010V080 9999 BKN013 03/01 Q1012=
202310190920 METAR ESMX 190920Z 05011KT 020V080 9999 BKN012 03/01 Q1012=
202310190850 METAR ESMX 190850Z 06010KT 020V100 9999 BKN009 03/01 Q1013=
202310190820 METAR ESMX 190820Z 05010KT 020V110 9999 BKN009 03/02 Q1012=
202310190750 METAR ESMX 190750Z AUTO 05011KT 020V090 9999 OVC008/// 03/02 Q1012=
202310190720 METAR ESMX 190720Z 05009KT 020V100 9999 BKN008 03/02 Q1012=
202310190650 METAR ESMX 190650Z 04010KT 9999 FEW009 BKN180 03/01 Q1012=
202310190620 METAR ESMX 190620Z 05010KT 020V080 CAVOK 03/01 Q1012=
202310190550 METAR ESMX 190550Z AUTO 04010KT 020V080 9999 OVC200/// 03/01 Q1012=
202310190520 METAR ESMX 190520Z 05009KT 010V080 CAVOK 03/01 Q1012=
202310190450 METAR ESMX 190450Z 04007KT 340V070 CAVOK 02/01 Q1012=
202310190420 METAR ESMX 190420Z 05007KT 010V090 CAVOK 02/01 Q1013=
202310190350 METAR COR ESMX 190350Z 05007KT CAVOK 02/01 Q1013=
202310190320 METAR ESMX 190320Z AUTO 05006KT 030V110 9999 SCT064/// 02/01 Q1013=
202310190250 METAR ESMX 190250Z AUTO 05006KT 9999 NCD 02/00 Q1013=
202310190220 METAR ESMX 190220Z AUTO 05005KT 020V090 9999 NCD 02/01 Q1013=
202310190150 METAR ESMX 190150Z AUTO 06005KT 030V090 9999 NCD 02/01 Q1014=
202310190120 METAR ESMX 190120Z AUTO 06006KT 020V090 9999 NCD 02/01 Q1014=
202310190050 METAR ESMX 190050Z AUTO 04005KT 360V090 9999 NCD 03/01 Q1014=
202310190020 METAR ESMX 190020Z AUTO 03005KT 360V080 9999 NCD 03/01 Q1014=
202310182350 METAR ESMX 182350Z AUTO 06006KT 020V090 9999 NCD 03/01 Q1014=
202310182320 METAR ESMX 182320Z 06006KT 030V090 CAVOK 03/01 Q1015=
202310182250 METAR ESMX 182250Z 04004KT 350V080 CAVOK 03/02 Q1015=
202310182220 METAR ESMX 182220Z 07004KT 030V100 CAVOK 03/02 Q1015=
202310182150 METAR ESMX 182150Z 05005KT 010V080 CAVOK 04/02 Q1015=
202310182120 METAR ESMX 182120Z 04004KT 010V090 9999 FEW045 04/02 Q1015=
202310182050 METAR ESMX 182050Z 06005KT 360V090 9999 SCT045 04/02 Q1015=
202310182020 METAR ESMX 182020Z 04005KT 360V080 CAVOK 04/02 Q1015=
202310181950 METAR ESMX 181950Z 04006KT 350V100 9999 FEW038 05/02 Q1015=
202310181920 METAR ESMX 181920Z 07004KT 030V110 9999 SCT038 05/02 Q1015=
202310181850 METAR ESMX 181850Z 07005KT 030V110 9999 BKN034 05/02 Q1015=
202310181820 METAR ESMX 181820Z AUTO 03004KT 340V070 9999 OVC033/// 05/02 Q1015=
202310181750 METAR ESMX 181750Z 04006KT 9999 FEW020 BKN030 05/02 Q1015=
202310181720 METAR ESMX 181720Z AUTO 05007KT 020V080 9999 OVC019/// 05/02 Q1015=
202310181650 METAR ESMX 181650Z 05007KT 020V080 9999 BKN017 05/02 Q1015=
202310181620 METAR ESMX 181620Z 06007KT 030V090 9999 BKN018 05/02 Q1015=
202310181550 METAR ESMX 181550Z 05008KT 020V090 9999 BKN021 06/02 Q1015=
202310181520 METAR ESMX 181520Z 05007KT 020V080 9999 BKN021 07/03 Q1015=
202310181450 METAR ESMX 181450Z 05008KT 9999 BKN022 07/03 Q1014=
202310181420 METAR ESMX 181420Z 01007KT 340V050 9999 BKN022 08/04 Q1014=
202310181350 METAR ESMX 181350Z 01007KT 350V050 9999 SCT021 08/04 Q1014=
202310181320 METAR ESMX 181320Z 03010KT 9999 SCT023 08/04 Q1014=
202310181250 METAR ESMX 181250Z 03008KT 350V060 9999 SCT025 09/04 Q1014=
202310181220 METAR ESMX 181220Z 36008KT 9999 SCT026 10/05 Q1014=
202310181150 METAR ESMX 181150Z 36008KT 340V040 9999 SCT026 10/04 Q1014=
202310181120 METAR ESMX 181120Z 36007KT 9999 SCT025 10/05 Q1014=
202310181050 METAR ESMX 181050Z 36005KT CAVOK 10/04 Q1014=
202310181020 METAR ESMX 181020Z AUTO 36006KT 9999 NCD 09/04 Q1014=
202310180950 METAR ESMX 180950Z AUTO 36007KT 330V030 9999 NCD 09/04 Q1014=
202310180920 METAR ESMX 180920Z 01007KT CAVOK 08/04 Q1014=
202310180850 METAR ESMX 180850Z 36007KT CAVOK 08/05 Q1014=
202310180820 METAR ESMX 180820Z 35006KT CAVOK 07/05 Q1014=
202310180750 METAR ESMX 180750Z 30004KT 270V340 CAVOK 07/05 Q1014=
202310180720 METAR ESMX 180720Z 32004KT CAVOK 06/06 Q1013=
202310180650 METAR ESMX 180650Z 30004KT CAVOK 04/04 Q1013=
202310180620 METAR ESMX 180620Z 31004KT CAVOK 03/03 Q1013=
202310180550 METAR ESMX 180550Z VRB02KT 7000 R01/P2000N R19/1300U BCFG NSC 04/04 Q1012=
202310180520 METAR ESMX 180520Z 28002KT 2200 R01/P2000N R19/P2000N BCFG NSC 05/05 Q1012=
202310180450 METAR ESMX 180450Z 29004KT 9999 SCT005 06/06 Q1012=
202310180420 METAR ESMX 180420Z 29006KT 9999 FEW003 BKN005 07/07 Q1012=
202310180350 METAR ESMX 180350Z 27006KT 210V310 9999 FEW003 BKN005 07/07 Q1012=
202310180320 METAR ESMX 180320Z AUTO VRB02KT 3400 SCT007/// BKN010/// 07/07 Q1011=
202310180250 METAR ESMX 180250Z AUTO 28005KT 9999 BKN010/// 07/07 Q1011=
202310180220 METAR ESMX 180220Z AUTO 27005KT 9999 OVC009/// 07/07 Q1011=
202310180150 METAR ESMX 180150Z AUTO 26004KT 9999 BKN008/// 07/07 Q1012=
202310180120 METAR ESMX 180120Z AUTO 27003KT 9999 FEW006/// SCT010/// 07/07 Q1012=
202310180050 METAR ESMX 180050Z AUTO 25004KT 220V280 9999 FEW009/// 08/08 Q1011=
202310180020 METAR ESMX 180020Z AUTO 26005KT 9999 BKN029/// OVC057/// 09/08 Q1012=
202310172350 METAR ESMX 172350Z AUTO 24007KT 9999 FEW009/// BKN055/// 09/08 Q1011=
202310172320 METAR ESMX 172320Z 25007KT 9999 FEW011 BKN027 09/09 Q1011=
202310172250 METAR ESMX 172250Z 25007KT 9999 BKN008 09/09 Q1011=
202310172220 METAR ESMX 172220Z 25007KT 220V280 9999 BKN009 09/08 Q1011=
202310172150 METAR ESMX 172150Z 25007KT 9999 FEW010 BKN013 09/08 Q1011=
202310172120 METAR ESMX 172120Z 24007KT 9999 BKN013 09/08 Q1012 REDZ=
202310172050 METAR ESMX 172050Z 25006KT 9999 FEW005 BKN013 09/07 Q1012=
202310172020 METAR ESMX 172020Z 24007KT 210V270 9999 BKN015 09/07 Q1012=
202310171950 METAR ESMX 171950Z 25008KT 210V280 9999 BKN016 09/07 Q1012=
202310171920 METAR ESMX 171920Z 25008KT 220V280 9999 BKN019 09/06 Q1012=
202310171850 METAR ESMX 171850Z 25010KT 220V280 9999 SCT021 BKN038 09/06 Q1012=
202310171820 METAR ESMX 171820Z AUTO 24010KT 9999 BKN038/// 09/06 Q1012=
202310171750 METAR COR ESMX 171750Z 24012KT 9999 SCT039 09/06 Q1012=
202310171720 METAR ESMX 171720Z 24010KT 9999 SCT020 BKN039 09/07 Q1012=
202310171650 METAR ESMX 171650Z 24010KT 200V280 9999 BKN019 09/06 Q1013=
202310171620 METAR ESMX 171620Z 25009KT 210V280 9999 BKN022 09/06 Q1013=
202310171550 METAR ESMX 171550Z 25010KT 9999 SCT020 BKN037 10/06 Q1013=
202310171520 METAR ESMX 171520Z 25012KT 210V280 9999 SCT024 BKN035 10/06 Q1013=
202310171450 METAR ESMX 171450Z 25010KT 9999 BKN035 10/05 Q1013=
202310171420 METAR ESMX 171420Z AUTO 25010KT 9999 BKN035/// 10/06 Q1013=
202310171350 METAR ESMX 171350Z AUTO 25013KT 220V280 9999 BKN035/// 10/05 Q1013=
202310171320 METAR ESMX 171320Z AUTO 26013G24KT 220V300 9999 BKN029/// OVC037/// 11/05 Q1013=
202310171250 METAR ESMX 171250Z AUTO 25011KT 230V290 9999 OVC029/// 11/05 Q1014=
202310171220 METAR ESMX 171220Z AUTO 26013KT 9999 BKN031/// 12/06 Q1014=
202310171150 METAR ESMX 171150Z AUTO 25015KT 9999 OVC030/// 11/06 Q1014=
202310171120 METAR ESMX 171120Z 26012KT 220V300 9999 SCT029 12/07 Q1014=
202310171050 METAR ESMX 171050Z 24010KT 200V280 9999 BKN022 10/06 Q1014=
202310171020 METAR ESMX 171020Z 25012KT 210V280 9999 BKN014 10/07 Q1015=
202310170950 METAR ESMX 170950Z 26011KT 9999 BKN013 10/08 Q1015=
202310170920 METAR ESMX 170920Z AUTO 26009KT 9999 OVC010/// 10/08 Q1015=
202310170850 METAR ESMX 170850Z AUTO 26008KT 9999 SCT009/// BKN013/// 09/08 Q1015=
202310170820 METAR ESMX 170820Z 25009KT 9999 BKN006 08/08 Q1015=
202310170750 METAR ESMX 170750Z 25005KT 9999 BKN006 07/07 Q1015=
202310170720 METAR ESMX 170720Z 23007KT 9999 SCT006 06/06 Q1015=
202310170650 METAR ESMX 170650Z 23007KT 9999 FEW015 04/04 Q1015=
202310170620 METAR ESMX 170620Z 22007KT 9999 SCT020 03/03 Q1015=
202310170550 METAR ESMX 170550Z 22006KT 9999 BKN021 03/03 Q1015=
202310170520 METAR ESMX 170520Z AUTO 22004KT 9999 SCT021/// 02/02 Q1015=
202310170450 METAR ESMX 170450Z 22005KT CAVOK 02/02 Q1015=
202310170420 METAR ESMX 170420Z 23003KT CAVOK 02/02 Q1015=
202310170350 METAR ESMX 170350Z 19004KT CAVOK 01/01 Q1015=
202310170320 METAR ESMX 170320Z 21005KT CAVOK 01/01 Q1015=
202310170250 METAR ESMX 170250Z 21005KT CAVOK 01/01 Q1015=
202310170220 METAR ESMX 170220Z 22006KT CAVOK 00/00 Q1015=
202310170150 METAR ESMX 170150Z 20003KT CAVOK 01/01 Q1016=
202310170120 METAR ESMX 170120Z 22004KT CAVOK 02/01 Q1016=
202310170050 METAR ESMX 170050Z 24006KT 210V280 CAVOK 02/01 Q1016=
202310170020 METAR ESMX 170020Z 23005KT CAVOK 00/00 Q1016=
202310162350 METAR ESMX 162350Z 00000KT CAVOK M00/M00 Q1016=
202310162320 METAR ESMX 162320Z 16003KT CAVOK M00/M00 Q1016=
202310162250 METAR ESMX 162250Z 18003KT CAVOK M00/M00 Q1016=
202310162220 METAR ESMX 162220Z 00000KT CAVOK 01/01 Q1016=
202310162150 METAR ESMX 162150Z 22004KT CAVOK 01/01 Q1016=
202310162120 METAR ESMX 162120Z 21005KT CAVOK M01/M01 Q1016=
202310162050 METAR ESMX 162050Z 19003KT CAVOK 02/01 Q1016=
202310162020 METAR ESMX 162020Z 25005KT CAVOK 02/00 Q1016=
202310161950 METAR ESMX 161950Z 27005KT CAVOK 02/00 Q1016=
202310161920 METAR ESMX 161920Z 26005KT CAVOK 03/00 Q1016=
202310161850 METAR ESMX 161850Z 25006KT 210V290 CAVOK 03/M00 Q1016=
202310161820 METAR ESMX 161820Z 25004KT 220V280 CAVOK 03/M01 Q1016=
202310161750 METAR ESMX 161750Z AUTO 25004KT 9999 NCD 03/M01 Q1016=
202310161720 METAR ESMX 161720Z 26004KT CAVOK 04/M01 Q1016=
202310161650 METAR ESMX 161650Z 25004KT CAVOK 05/M01 Q1015=
202310161620 METAR ESMX 161620Z 25004KT CAVOK 05/M01 Q1015=
202310161550 METAR ESMX 161550Z 26004KT CAVOK 07/M01 Q1015=
202310161520 METAR ESMX 161520Z 27005KT CAVOK 08/M00 Q1015=
202310161450 METAR ESMX 161450Z 26007KT CAVOK 09/M00 Q1015=
202310161420 METAR ESMX 161420Z 26008KT 230V290 CAVOK 09/M01 Q1015=
202310161350 METAR ESMX 161350Z 27008KT 240V320 CAVOK 10/M01 Q1015=
202310161320 METAR ESMX 161320Z 30007KT 250V350 CAVOK 10/M00 Q1014=
202310161250 METAR ESMX 161250Z 29008KT 250V320 CAVOK 10/M00 Q1014=
202310161220 METAR ESMX 161220Z 31009KT 270V340 CAVOK 10/M01 Q1014=
202310161150 METAR ESMX 161150Z 30010KT 280V340 CAVOK 09/M01 Q1014=
202310161120 METAR ESMX 161120Z 32008KT 290V360 CAVOK 10/M01 Q1014=
202310161050 METAR ESMX 161050Z 29005KT 250V350 CAVOK 09/01 Q1014=
202310161020 METAR ESMX 161020Z 31005KT 260V340 CAVOK 08/01 Q1014=
202310160950 METAR ESMX 160950Z 32005KT 280V350 CAVOK 08/01 Q1014=
202310160920 METAR ESMX 160920Z 32004KT 290V350 CAVOK 07/02 Q1013=
202310160850 METAR ESMX 160850Z 30003KT 260V340 CAVOK 06/02 Q1013=
202310160820 METAR ESMX 160820Z VRB03KT CAVOK 04/02 Q1013=
202310160750 METAR ESMX 160750Z VRB02KT CAVOK 03/02 Q1012=
202310160720 METAR ESMX 160720Z VRB02KT CAVOK 01/01 Q1012=
202310160650 METAR ESMX 160650Z 00000KT CAVOK M01/M01 Q1012=
202310160620 METAR ESMX 160620Z 00000KT CAVOK M02/M02 Q1011=
202310160550 METAR ESMX 160550Z VRB02KT CAVOK M03/M03 Q1011=
202310160520 METAR ESMX 160520Z VRB03KT CAVOK M02/M02 Q1011=
202310160450 METAR ESMX 160450Z VRB01KT CAVOK M02/M02 Q1011=
202310160420 METAR ESMX 160420Z 19002KT CAVOK M00/M00 Q1010=
202310160350 METAR COR ESMX 160350Z 20003KT CAVOK M02/M02 Q1010=
202310160320 METAR ESMX 160320Z AUTO 22003KT 9999 NCD M00/M00 Q1010=
202310160250 METAR ESMX 160250Z AUTO 20002KT 9999 NCD M01/M01 Q1010=
202310160220 METAR ESMX 160220Z AUTO 22002KT 9999 NCD 00/00 Q1010=
202310160150 METAR ESMX 160150Z AUTO 00000KT 9999 NCD M00/M00 Q1009=
202310160120 METAR ESMX 160120Z AUTO 25003KT 9999 NCD 01/01 Q1009=
202310160050 METAR ESMX 160050Z AUTO 00000KT 9999 FEW160/// 01/01 Q1009=
202310160020 METAR ESMX 160020Z AUTO VRB02KT 9999 NCD 01/01 Q1009=
202310152350 METAR ESMX 152350Z AUTO 26004KT 9999 NCD 02/02 Q1008=
202310152320 METAR ESMX 152320Z AUTO 25004KT 220V280 9999 NCD 02/02 Q1008=
202310152250 METAR ESMX 152250Z AUTO 25004KT 9999 NCD 02/02 Q1008=
202310152220 METAR ESMX 152220Z AUTO 25004KT 9999 NCD 02/01 Q1008=
202310152150 METAR ESMX 152150Z AUTO 25004KT 9999 NCD 02/02 Q1008=
202310152120 METAR ESMX 152120Z AUTO 26004KT 9999 NCD 03/02 Q1008=
202310152050 METAR ESMX 152050Z AUTO 23003KT 9999 NCD 03/02 Q1008=
202310152020 METAR ESMX 152020Z AUTO 25005KT 9999 NCD 03/02 Q1007=
202310151950 METAR ESMX 151950Z AUTO 25004KT 9999 NCD 03/01 Q1007=
202310151920 METAR ESMX 151920Z AUTO 25005KT 9999 NCD 04/01 Q1007=
202310151850 METAR ESMX 151850Z AUTO 26006KT 9999 NCD 05/01 Q1007=
202310151820 METAR ESMX 151820Z AUTO 25005KT 9999 NCD 04/01 Q1006=
202310151750 METAR ESMX 151750Z AUTO 23002KT 9999 NCD 04/01 Q1006=
202310151720 METAR ESMX 151720Z AUTO 26004KT 9999 NCD 05/01 Q1006=
202310151650 METAR ESMX 151650Z 27004KT CAVOK 07/01 Q1006=
202310151620 METAR ESMX 151620Z 27005KT CAVOK 07/01 Q1005=
202310151550 METAR ESMX 151550Z 29006KT CAVOK 08/01 Q1005=
202310151520 METAR ESMX 151520Z 31009KT CAVOK 09/01 Q1004=
202310151450 METAR ESMX 151450Z 30010KT 270V330 CAVOK 10/01 Q1004=
202310151420 METAR ESMX 151420Z 29009KT 260V320 9999 FEW049 11/02 Q1003=
202310151350 METAR ESMX 151350Z 27007KT 9999 SCT046 10/03 Q1003=
202310151320 METAR ESMX 151320Z 26007KT 220V290 9999 SCT042 11/04 Q1002=
202310151250 METAR ESMX 151250Z 29008KT 260V330 9999 SCT041 11/03 Q1002=
202310151220 METAR ESMX 151220Z 29009KT 9999 FEW031 BKN059 11/05 Q1002=
202310151150 METAR ESMX 151150Z 27010KT 240V310 9999 FEW027 BKN062 12/04 Q1001=
202310151120 METAR ESMX 151120Z 28009KT 240V310 9999 SCT042 11/06 Q1001=
202310151050 METAR ESMX 151050Z 28008KT 260V320 9999 FEW025 SCT082 11/06 Q1001=
202310151020 METAR ESMX 151020Z 28008KT 250V320 9999 SCT022 BKN084 10/06 Q1001=
202310150950 METAR ESMX 150950Z 28009KT 9999 FEW023 SCT086 10/07 Q1000=
202310150920 METAR ESMX 150920Z AUTO 26008KT 9999 FEW088/// 10/07 Q1000=
202310150850 METAR ESMX 150850Z AUTO 25008KT 9999 SCT080/// 09/07 Q1000=
202310150820 METAR ESMX 150820Z AUTO 25008KT 9999 OVC070/// 08/07 Q0999=
202310150750 METAR ESMX 150750Z AUTO 25007KT 210V290 9999 OVC066/// 08/07 Q0999=
202310150720 METAR ESMX 150720Z AUTO 24008KT 9999 FEW043/// BKN055/// OVC068/// 07/07 Q0998 RESHUP=
202310150650 METAR ESMX 150650Z AUTO 25007KT 210V270 9999 BKN011/// BKN037/// OVC046/// 07/06 Q0998 RESHUP=
202310150620 METAR ESMX 150620Z AUTO 26007KT 230V290 9999 SCT021/// BKN030/// BKN037/// 07/06 Q0997=
202310150550 METAR ESMX 150550Z AUTO 25009KT 9999 FEW011/// 07/06 Q0997=
202310150520 METAR ESMX 150520Z AUTO 24010KT 210V270 9999 NCD 07/06 Q0996=
202310150450 METAR ESMX 150450Z AUTO 24010KT 9999 NCD 07/06 Q0996=
202310150420 METAR ESMX 150420Z AUTO 25009KT 220V280 9999 BKN055/// 07/06 Q0996=
202310150350 METAR ESMX 150350Z AUTO 25011KT 9999 OVC053/// 07/06 Q0995=
202310150320 METAR ESMX 150320Z AUTO 25012G23KT 9999 OVC046/// 07/07 Q0995 RESHUP REDZ=
202310150250 METAR ESMX 150250Z AUTO 26009KT 9999 FEW005/// SCT013/// BKN024/// 08/07 Q0995=
202310150220 METAR ESMX 150220Z AUTO 25011KT 210V290 9999 -DZ FEW014/// BKN019/// 08/07 Q0994=
202310150150 METAR ESMX 150150Z AUTO 25011KT 9999 -DZ BKN014/// BKN022/// 08/07 Q0994 RESHUP REDZ=
202310150120 METAR ESMX 150120Z AUTO 25011KT 210V280 9999 BKN014/// BKN021/// 08/07 Q0994=
202310150050 METAR ESMX 150050Z AUTO 25013KT 210V280 9999 -RA FEW010/// BKN014/// BKN028/// 08/07 Q0993=
202310150020 METAR ESMX 150020Z AUTO 24010KT 200V280 9999 -RA ///039/// 07/07 Q0993=
202310142350 METAR ESMX 142350Z AUTO 22016KT 9999 FEW010/// SCT021/// BKN053/// 07/06 Q0993 RERA=
202310142320 METAR ESMX 142320Z AUTO 22016KT 6000 RA ///028/// 08/07 Q0992 REUP=
202310142250 METAR ESMX 142250Z AUTO 23018G29KT 200V270 9999 BKN018/// OVC029/// 08/06 Q0992=
202310142220 METAR ESMX 142220Z AUTO 23018G30KT 180V250 9999 OVC019/// 08/06 Q0992 RESHUP=
202310142150 METAR ESMX 142150Z AUTO 23016G30KT 9999 BKN015/// BKN019/// OVC024/// 08/06 Q0993 REUP RESHUP=
202310142120 METAR ESMX 142120Z AUTO 22016G28KT 190V250 9999 BKN015/// BKN020/// 08/06 Q0993=
202310142050 METAR ESMX 142050Z AUTO 23017G28KT 9999 FEW014/// SCT027/// 07/06 Q0993=
202310142020 METAR ESMX 142020Z AUTO 23015KT 9999 FEW021/// 07/06 Q0993=
202310141950 METAR ESMX 141950Z AUTO 23015KT 9999 FEW024/// 07/06 Q0993=
202310141920 METAR ESMX 141920Z AUTO 23018KT 9999 FEW016/// 07/06 Q0994 RESHUP REDZ=
202310141850 METAR ESMX 141850Z AUTO 22015KT 9999 SCT025/// 08/06 Q0994=
202310141820 METAR ESMX 141820Z AUTO 22016G26KT 9999 FEW019/// SCT030/// 08/06 Q0994 REUP=
202310141750 METAR ESMX 141750Z AUTO 21016G27KT 9999 FEW025/// 08/06 Q0994=
202310141720 METAR ESMX 141720Z AUTO 22017G29KT 9999 FEW031/// SCT049/// 08/06 Q0994=
202310141650 METAR ESMX 141650Z AUTO 22015KT 9999 -RA FEW020/// SCT030/// 08/06 Q0994 RERA=
202310141620 METAR ESMX 141620Z AUTO 22016G33KT 190V270 9999 ///031/// 09/05 Q0994=
202310141550 METAR ESMX 141550Z AUTO 24015KT 9999 -DZ BKN035/// BKN055/// 09/06 Q0994=
202310141520 METAR ESMX 141520Z AUTO 22017KT 9999 FEW028/// SCT046/// 09/05 Q0993=
202310141450 METAR ESMX 141450Z 23016KT 200V260 9999 SCT030 10/05 Q0993=
202310141420 METAR COR ESMX 141420Z 24014G27KT 200V260 9999 SHRA BKN033CB 10/06 Q0993=
202310141350 METAR ESMX 141350Z 23017G27KT 200V260 9999 FEW017 SCT048CB 10/06 Q0993=
202310141320 METAR ESMX 141320Z 24021G35KT 9999 SCT039 11/05 Q0993=
202310141250 METAR ESMX 141250Z 24021G38KT 9999 SCT038 11/05 Q0993=
202310141220 METAR ESMX 141220Z AUTO 23018G31KT 9999 -DZ SCT036/// BKN053/// 10/05 Q0993=
202310141150 METAR ESMX 141150Z AUTO 23018KT 200V270 9999 FEW044/// 11/06 Q0992=
202310141120 METAR ESMX 141120Z AUTO 25015G30KT 210V270 9999 OVC036/// 10/05 Q0992 RERA=
202310141050 METAR ESMX 141050Z 22020KT 9999 -RA BKN034 11/06 Q0992=
202310141020 METAR ESMX 141020Z AUTO 23016G26KT 200V260 9999 FEW031/// SCT055/// 11/06 Q0992=
202310140950 METAR ESMX 140950Z AUTO 23016G28KT 9999 SCT027/// BKN043/// 10/07 Q0992=
202310140920 METAR ESMX 140920Z AUTO 24015G26KT 9999 -DZ BKN025/// OVC033/// 10/07 Q0992=
202310140850 METAR ESMX 140850Z 24014KT 9999 BKN023 10/07 Q0991=
202310140820 METAR ESMX 140820Z 23013KT 9999 BKN019 10/08 Q0991=
202310140750 METAR ESMX 140750Z 23012KT 9999 FEW018 10/08 Q0991=
202310140720 METAR ESMX 140720Z 22011KT CAVOK 09/08 Q0990=
202310140650 METAR ESMX 140650Z 22009KT CAVOK 08/08 Q0990=
202310140620 METAR ESMX 140620Z AUTO 22009KT 9999 NCD 08/08 Q0990=
202310140550 METAR ESMX 140550Z AUTO 24009KT 9999 NCD 08/08 Q0989=
202310140520 METAR ESMX 140520Z AUTO 24009KT 9999 NCD 09/08 Q0989=
202310140450 METAR ESMX 140450Z AUTO 26010KT 9999 FEW008/// SCT030/// 09/09 Q0989 RERA=
202310140420 METAR ESMX 140420Z AUTO 24006KT 210V270 9999 FEW012/// BKN032/// OVC048/// 10/10 Q0988=
202310140350 METAR ESMX 140350Z AUTO 23008KT 200V260 9999 -RA FEW012/// SCT022/// BKN059/// 10/10 Q0988=
202310140320 METAR ESMX 140320Z AUTO 22006KT 9999 -RA BKN053/// OVC066/// 10/10 Q0988=
202310140250 METAR ESMX 140250Z AUTO 24007KT 210V270 9999 -RA OVC061/// 10/10 Q0989 RESHRA=
202310140220 METAR ESMX 140220Z AUTO 25007KT 210V280 9999 -RA OVC061/// 10/10 Q0988=
202310140150 METAR ESMX 140150Z AUTO 26008KT 230V300 9999 -RA FEW024/// OVC064/// 11/10 Q0988 REDZ=
202310140120 METAR ESMX 140120Z AUTO 27015G28KT 230V320 6000 DZ FEW004/// SCT010/// BKN018/// 12/12 Q0988=
202310140050 METAR ESMX 140050Z AUTO 21011KT 9999 SCT009/// BKN013/// OVC019/// 13/13 Q0988=
202310140020 METAR ESMX 140020Z AUTO 21008KT 180V240 9999 FEW008/// SCT011/// BKN017/// 14/14 Q0988=
202310132350 METAR ESMX 132350Z AUTO 23008KT 3900 +DZ FEW002/// SCT005/// BKN010/// 14/14 Q0989 RERA=
202310132320 METAR ESMX 132320Z AUTO 22010G20KT 9000 -RA SCT011/// BKN018/// BKN024/// 14/14 Q0989 REDZ=
202310132250 METAR ESMX 132250Z AUTO 22010KT 9999 FEW007/// SCT010/// BKN015/// 14/14 Q0989=
202310132220 METAR ESMX 132220Z AUTO 23009KT 9999 BKN010/// 15/14 Q0989=
202310132150 METAR ESMX 132150Z AUTO 22009KT 9999 SCT011/// BKN016/// BKN047/// 15/15 Q0989=
202310132120 METAR ESMX 132120Z AUTO 22010KT 9999 BKN009/// BKN012/// OVC018/// 15/15 Q0989 REDZ=
202310132050 METAR ESMX 132050Z AUTO 23011KT 9999 BKN011/// OVC018/// 15/15 Q0990=
202310132020 METAR ESMX 132020Z AUTO 23011KT 9999 SCT011/// BKN019/// 15/15 Q0989 REDZ=
202310131950 METAR ESMX 131950Z AUTO 23013KT 190V260 9999 FEW007/// SCT011/// BKN018/// 16/15 Q0989=
202310131920 METAR ESMX 131920Z AUTO 21016KT 6000 DZ VV018 16/16 Q0989=
202310131850 METAR ESMX 131850Z AUTO 20018KT 9000 -DZ BKN009/// OVC015/// 16/16 Q0989=
202310131820 METAR ESMX 131820Z AUTO 20018KT 7000 DZ FEW009/// SCT012/// OVC018/// 16/16 Q0989 RERA=
202310131750 METAR ESMX 131750Z AUTO 21018KT 6000 -DZ BKN007/// BKN009/// OVC015/// 16/16 Q0990 REDZ=
202310131720 METAR ESMX 131720Z AUTO 18017KT 6000 DZ BKN006/// OVC011/// 15/15 Q0990=
202310131650 METAR ESMX 131650Z AUTO 17015KT 4700 +DZ FEW002/// BKN005/// OVC012/// 14/14 Q0990 REDZ=
202310131620 METAR ESMX 131620Z AUTO 17014KT 5000 +DZ BKN005/// OVC010/// 14/14 Q0991=
202310131550 METAR ESMX 131550Z AUTO 16013KT 6000 -RA FEW002/// BKN004/// OVC007/// 13/13 Q0992 REDZ=
202310131520 METAR ESMX 131520Z AUTO 16012KT 9000 -DZ OVC003/// 13/13 Q0993=
202310131450 METAR ESMX 131450Z AUTO 15010KT 5000 DZ OVC003/// 12/12 Q0993=
202310131420 METAR ESMX 131420Z 14009KT 9999 -RA BKN003 11/11 Q0995=
202310131350 METAR ESMX 131350Z 14010KT 9999 -RA OVC004 11/11 Q0996=
202310131320 METAR ESMX 131320Z 14010KT 9999 -RA FEW002 OVC004 10/10 Q0997=
202310131250 METAR ESMX 131250Z 14010KT 9999 DZ OVC004 10/10 Q0999=
202310131220 METAR ESMX 131220Z 14009KT 7000 DZ OVC004 09/09 Q1000=
202310131150 METAR ESMX 131150Z 14008KT 090V160 6000 -RA FEW002 OVC005 09/09 Q1001=
202310131120 METAR ESMX 131120Z 13008KT 100V160 5000 -RA FEW002 BKN005 08/08 Q1002=
202310131050 METAR ESMX 131050Z 14009KT 100V170 7000 -RA FEW003 SCT005 BKN010 09/07 Q1003=
202310131020 METAR ESMX 131020Z 14009KT 9999 FEW006 BKN019 09/06 Q1004=
202310130950 METAR ESMX 130950Z 14009KT 110V170 9999 FEW013 BKN025 09/06 Q1006=
202310130920 METAR ESMX 130920Z 15006KT 110V170 9999 BKN027 08/06 Q1006=
202310130850 METAR ESMX 130850Z 15006KT 9999 BKN026 08/06 Q1007=
202310130820 METAR ESMX 130820Z 15007KT 9999 BKN030 08/05 Q1007=
202310130750 METAR ESMX 130750Z 17006KT 9999 SCT032 08/05 Q1008=
202310130720 METAR ESMX 130720Z 17005KT 9999 SCT034 07/05 Q1008=
202310130650 METAR ESMX 130650Z 18007KT 9999 BKN035 06/05 Q1008=
202310130620 METAR ESMX 130620Z 18007KT 9999 BKN035 05/05 Q1008=
202310130550 METAR ESMX 130550Z 19007KT 9999 BKN033 05/05 Q1009=
202310130520 METAR ESMX 130520Z 21007KT 9999 BKN031 05/05 Q1009=
202310130450 METAR ESMX 130450Z 20007KT 9999 BKN030 05/05 Q1009=
202310130420 METAR ESMX 130420Z AUTO 19007KT 9999 FEW029/// 04/04 Q1009=
202310130350 METAR ESMX 130350Z AUTO 19007KT 9999 NCD 04/04 Q1009=
202310130320 METAR ESMX 130320Z AUTO 19007KT 9999 NCD 04/04 Q1009=
202310130250 METAR ESMX 130250Z AUTO 21008KT 9999 NCD 04/04 Q1009=
202310130220 METAR ESMX 130220Z AUTO 22008KT 9999 NCD 05/05 Q1010=
202310130150 METAR ESMX 130150Z AUTO 22008KT 9999 NCD 05/05 Q1009=
202310130120 METAR ESMX 130120Z AUTO 22006KT 9999 NCD 04/04 Q1009=
202310130050 METAR ESMX 130050Z AUTO 21004KT 9999 FEW035/// 05/04 Q1009=
202310130020 METAR ESMX 130020Z AUTO 21005KT 9999 BKN035/// 05/05 Q1010=
202310122350 METAR ESMX 122350Z 20005KT 9999 BKN034 05/05 Q1010=
202310122320 METAR ESMX 122320Z 22005KT 9999 SCT035 06/05 Q1010=
202310122250 METAR ESMX 122250Z 21006KT CAVOK 05/05 Q1009=
202310122220 METAR ESMX 122220Z 22006KT CAVOK 06/05 Q1009=
202310122150 METAR ESMX 122150Z 22007KT CAVOK 06/05 Q1009=
202310122120 METAR ESMX 122120Z 21006KT CAVOK 06/05 Q1009=
202310122050 METAR ESMX 122050Z 19007KT CAVOK 05/05 Q1009=
202310122020 METAR ESMX 122020Z 22006KT CAVOK 07/05 Q1009=
202310121950 METAR ESMX 121950Z AUTO 23007KT 9999 NCD 07/05 Q1008=
202310121920 METAR ESMX 121920Z AUTO 24006KT 9999 NCD 07/05 Q1008=
202310121850 METAR ESMX 121850Z AUTO 24006KT 210V270 9999 NCD 07/05 Q1008=
202310121820 METAR ESMX 121820Z AUTO 22004KT 9999 NCD 07/04 Q1008=
202310121750 METAR ESMX 121750Z AUTO 25004KT 210V290 9999 NCD 08/04 Q1007=
202310121720 METAR ESMX 121720Z 26006KT 230V290 CAVOK 09/04 Q1006=
202310121650 METAR ESMX 121650Z 27008KT 220V290 CAVOK 09/04 Q1006=
202310121620 METAR ESMX 121620Z 27011KT 9999 SCT039 10/03 Q1006=
202310121550 METAR ESMX 121550Z 26014KT 9999 SCT041 11/03 Q1005=
202310121520 METAR ESMX 121520Z AUTO 26014KT 230V300 9999 SCT043/// 11/04 Q1005=
202310121450 METAR ESMX 121450Z 26015G25KT 230V290 9999 SCT042 11/03 Q1004=
202310121420 METAR ESMX 121420Z 26018KT 240V300 9999 SCT047 12/04 Q1004=
202310121350 METAR ESMX 121350Z 27018G30KT 9999 SCT043 12/03 Q1004=
202310121320 METAR ESMX 121320Z 26014G25KT 9999 SCT044 13/04 Q1003=
202310121250 METAR ESMX 121250Z 26018G29KT 9999 SCT043 13/03 Q1003=
202310121220 METAR ESMX 121220Z 26019KT 230V290 9999 SCT042 13/04 Q1002=
202310121150 METAR ESMX 121150Z 26016KT 230V290 9999 SCT039 13/05 Q1002=
202310121120 METAR ESMX 121120Z 26020G31KT 9999 BKN035 12/04 Q1002=
202310121050 METAR ESMX 121050Z 26020G33KT 9999 BKN035 13/06 Q1002=
202310121020 METAR ESMX 121020Z 26017G27KT 230V290 9999 BKN035 12/06 Q1002=
202310120950 METAR ESMX 120950Z 25017G28KT 9999 BKN031 12/06 Q1001=
202310120920 METAR ESMX 120920Z 26016G27KT 230V290 9999 BKN026 12/07 Q1001=
202310120850 METAR ESMX 120850Z 25017KT 210V280 9999 BKN024 11/07 Q1001=
202310120820 METAR ESMX 120820Z 24015G27KT 210V270 9999 BKN022 11/07 Q1001=
202310120750 METAR ESMX 120750Z 25015KT 9999 SCT022 11/07 Q1001=
202310120720 METAR ESMX 120720Z 25012KT 210V280 9999 SCT021 10/07 Q1000=
202310120650 METAR ESMX 120650Z 25013KT 220V280 9999 FEW019 10/07 Q1000=
202310120620 METAR ESMX 120620Z 25015KT 220V280 9999 SCT022 09/07 Q0999=
202310120550 METAR ESMX 120550Z 24013G24KT 210V270 9999 SCT020 09/07 Q0999=
202310120520 METAR ESMX 120520Z 25014KT 210V270 9999 BKN019 09/07 Q0998=
202310120450 METAR ESMX 120450Z 23012KT 200V260 9999 BKN020 09/07 Q0998=
202310120420 METAR ESMX 120420Z 24013G24KT 9999 BKN018 09/07 Q0998=
202310120350 METAR ESMX 120350Z AUTO 25013G24KT 210V280 9999 BKN018/// 09/07 Q0997=
202310120320 METAR ESMX 120320Z AUTO 24015G26KT 200V260 9999 OVC017/// 09/07 Q0997=
202310120250 METAR ESMX 120250Z AUTO 25014G26KT 220V280 9999 SCT018/// BKN024/// 10/07 Q0997=
202310120220 METAR ESMX 120220Z AUTO 24016KT 9999 FEW022/// SCT029/// 09/07 Q0997=
202310120150 METAR ESMX 120150Z AUTO 25014G25KT 220V280 9999 FEW022/// SCT034/// 09/07 Q0997=
202310120120 METAR ESMX 120120Z AUTO 24016KT 210V280 9999 FEW031/// 09/07 Q0997=
202310120050 METAR ESMX 120050Z AUTO 23015KT 9999 SCT047/// 09/06 Q0997=
202310120020 METAR ESMX 120020Z AUTO 23013KT 200V260 9999 FEW040/// 09/06 Q0997=
202310112350 METAR ESMX 112350Z AUTO 24013KT 9999 NCD 09/06 Q0997=
202310112320 METAR ESMX 112320Z 24012KT CAVOK 10/06 Q0997=
202310112250 METAR ESMX 112250Z 24012KT 210V270 CAVOK 10/07 Q0997=
202310112220 METAR COR ESMX 112220Z 23014KT CAVOK 10/07 Q0997=
202310112150 METAR ESMX 112150Z 24012KT CAVOK 10/07 Q0997=
202310112120 METAR ESMX 112120Z 22014KT 190V250 CAVOK 10/07 Q0997=
202310112050 METAR ESMX 112050Z 23014KT 9999 FEW028 SCT043 10/08 Q0998=
202310112020 METAR ESMX 112020Z 22011KT CAVOK 10/07 Q0998=
202310111950 METAR ESMX 111950Z AUTO 22013KT 9999 NCD 10/07 Q0998=
202310111920 METAR ESMX 111920Z AUTO 23010KT 210V270 9999 NCD 10/07 Q0998=
202310111850 METAR ESMX 111850Z AUTO 24010KT 9999 NCD 10/07 Q0998=
202310111820 METAR ESMX 111820Z AUTO 22012KT 9999 NCD 10/07 Q0998=
202310111750 METAR ESMX 111750Z AUTO 25010KT 210V280 9999 NCD 10/08 Q0998=
202310111720 METAR ESMX 111720Z 24010KT 210V270 9999 FEW019 BKN025 11/09 Q0998=
202310111650 METAR ESMX 111650Z 22010KT 9999 SCT039 11/09 Q0998=
202310111620 METAR ESMX 111620Z 22010KT 9999 SCT040 11/09 Q0997=
202310111550 METAR ESMX 111550Z 23010KT 200V280 9999 FEW043 11/09 Q0997=
202310111520 METAR ESMX 111520Z 24010KT 210V270 9999 FEW043 11/09 Q0997=
202310111450 METAR ESMX 111450Z 26014KT 230V290 9999 FEW009 BKN031 13/10 Q0997=
202310111420 METAR ESMX 111420Z 23014KT 200V260 9000 -RA BKN011 14/14 Q0996=
202310111350 METAR ESMX 111350Z 23013KT 200V270 9999 BKN016 15/14 Q0996=
202310111320 METAR ESMX 111320Z 25017G30KT 9999 FEW008 SCT017 15/14 Q0996=
202310111250 METAR ESMX 111250Z 21016KT 6000 SHRA FEW014 BKN023 15/15 Q0996=
202310111220 METAR ESMX 111220Z 22017G27KT 9999 -RA BKN021 16/14 Q0996=
202310111150 METAR ESMX 111150Z 23018G30KT 9999 BKN020 17/14 Q0996=
202310111120 METAR ESMX 111120Z 22016KT 9999 BKN018 17/14 Q0996=
202310111050 METAR ESMX 111050Z 23017KT 9999 BKN017 17/15 Q0997=
202310111020 METAR ESMX 111020Z 23015KT 200V260 9999 BKN014 16/15 Q0997=
202310110950 METAR ESMX 110950Z 22016KT 9999 BKN013 16/15 Q0997=
202310110920 METAR ESMX 110920Z 22015KT 9999 BKN013 BKN016 16/15 Q0997=
202310110850 METAR ESMX 110850Z 22013KT 9999 BKN013 16/15 Q0998=
202310110820 METAR ESMX 110820Z 22014G24KT 9999 BKN011 16/15 Q0998=
202310110750 METAR ESMX 110750Z AUTO 22014KT 9999 OVC008/// 15/15 Q0998=
202310110720 METAR ESMX 110720Z 21015KT 8000 BKN007 15/15 Q0998=
202310110650 METAR ESMX 110650Z AUTO 20014KT 8000 OVC009/// 15/15 Q0999=
202310110620 METAR ESMX 110620Z 20014KT 6000 BKN007 15/15 Q0999=
202310110550 METAR ESMX 110550Z 19014KT 6000 BKN008 OVC010 15/15 Q0999=
202310110520 METAR ESMX 110520Z 20013KT 5000 BR BKN008 BKN012 OVC015 15/14 Q1000=
202310110450 METAR ESMX 110450Z 20013KT 5000 BR SCT008 BKN010 BKN015 14/14 Q1000=
202310110420 METAR ESMX 110420Z 21013KT 4800 BR BKN008 14/14 Q1000=
202310110350 METAR ESMX 110350Z 20015KT 4900 BR BKN008 BKN014 14/14 Q1001=
202310110320 METAR ESMX 110320Z AUTO 20014KT 5000 BR BKN008/// BKN012/// OVC023/// 14/14 Q1001=
202310110250 METAR ESMX 110250Z AUTO 20013KT 5000 BR BKN006/// BKN009/// OVC014/// 14/14 Q1002 REDZ=
202310110220 METAR ESMX 110220Z AUTO 20011KT 5000 BR BKN006/// OVC084/// 14/14 Q1002=
202310110150 METAR ESMX 110150Z AUTO 19013KT 6000 FEW007/// BKN084/// 14/14 Q1002 REDZ=
202310110120 METAR ESMX 110120Z AUTO 19012KT 5000 DZ BKN006/// BKN011/// 14/14 Q1003=
202310110050 METAR ESMX 110050Z AUTO 19015KT 6000 BKN006/// OVC007/// 14/14 Q1004 REDZ=
202310110020 METAR ESMX 110020Z AUTO 19015KT 6000 BKN005/// BKN007/// OVC009/// 14/14 Q1004=
202310102350 METAR ESMX 102350Z 18012KT 5000 -RA BKN004 13/13 Q1005=
202310102320 METAR ESMX 102320Z 19013KT 5000 BR BKN003 13/13 Q1006 REDZ=
202310102250 METAR ESMX 102250Z 19013KT 3000 -DZ BKN002 13/13 Q1006=
202310102220 METAR ESMX 102220Z 19012KT 1500 BR BKN002 13/13 Q1006 REDZ=
202310102150 METAR ESMX 102150Z 19012KT 2500 BR BKN002 12/12 Q1007=
202310102120 METAR ESMX 102120Z 21011KT 9999 BKN003 12/12 Q1007 RERA=
202310102050 METAR ESMX 102050Z 19013KT 9999 DZ BKN003 12/12 Q1008=
202310102020 METAR ESMX 102020Z 18014KT 9999 -RA BKN005 11/11 Q1008=
202310101950 METAR ESMX 101950Z AUTO 18013KT 9999 -RA OVC005/// 11/11 Q1008=
202310101920 METAR ESMX 101920Z AUTO 17012KT 4300 DZ BKN006/// OVC008/// 11/11 Q1009=
202310101850 METAR ESMX 101850Z AUTO 18014KT 9999 -RA BKN008/// BKN014/// OVC023/// 11/11 Q1009 REDZ=
202310101820 METAR ESMX 101820Z AUTO 18011KT 9999 DZ BKN023/// OVC030/// 11/11 Q1010=
202310101750 METAR ESMX 101750Z AUTO 18012KT 9999 -RA FEW011/// BKN022/// OVC027/// 11/10 Q1010 REDZ=
202310101720 METAR ESMX 101720Z 18009KT 9999 FEW017 BKN028 11/09 Q1010=
202310101650 METAR COR ESMX 101650Z 18009KT 9999 FEW032 BKN041 11/09 Q1010=
202310101620 METAR ESMX 101620Z 18009KT 9999 -DZ FEW031 SCT038 BKN059 11/09 Q1011=
202310101550 METAR ESMX 101550Z 19008KT 9999 BKN041 BKN068 OVC082 12/08 Q1011=
202310101520 METAR ESMX 101520Z 18008KT 9999 FEW031 BKN096 12/08 Q1011=
202310101450 METAR ESMX 101450Z 19008KT 9999 BKN035 12/09 Q1012=
202310101420 METAR ESMX 101420Z 19008KT 9999 BKN036 12/09 Q1012=
202310101350 METAR ESMX 101350Z 20007KT 9999 FEW026 BKN037 12/08 Q1013=
202310101320 METAR ESMX 101320Z 22008KT 9999 FEW027 BKN038 12/08 Q1013=
202310101250 METAR ESMX 101250Z AUTO 21007KT 9999 OVC035/// 12/08 Q1013=
202310101220 METAR ESMX 101220Z 21010KT 9999 BKN031 12/08 Q1014=
202310101150 METAR ESMX 101150Z 20008KT 9999 FEW025 BKN035 12/08 Q1014=
202310101120 METAR ESMX 101120Z 23005KT 210V270 9999 BKN032 11/08 Q1014=
202310101050 METAR ESMX 101050Z 20009KT 170V230 9999 SCT011 BKN023 OVC030 11/08 Q1015=
202310101020 METAR ESMX 101020Z 20008KT 9999 SCT009 BKN013 BKN030 10/08 Q1015=
202310100950 METAR ESMX 100950Z 19007KT 9999 BKN006 09/08 Q1015=
202310100920 METAR ESMX 100920Z 20006KT 170V230 9999 BKN005 OVC032 09/09 Q1015=
202310100850 METAR ESMX 100850Z 21005KT 7000 BKN002 08/08 Q1015=
202310100820 METAR ESMX 100820Z 22006KT 0800 R01/1000N R19/0900N FG VV002 07/07 Q1016=
202310100750 METAR ESMX 100750Z 21006KT 0350 R01/0500N R19/0600N FG VV002 07/07 Q1016=
202310100720 METAR ESMX 100720Z 20005KT 0500 R01/0650N R19/P2000N FG OVC002 06/06 Q1016=
202310100650 METAR COR ESMX 100650Z 21004KT 5000 BKN002 06/06 Q1016=
202310100620 METAR ESMX 100620Z 15003KT 1300 R01/P2000N R19/1700U BR BKN002 05/05 Q1015=
202310100550 METAR ESMX 100550Z 21004KT 0900 R01/1700U R19/1800D FG VV002 05/05 Q1015=
202310100520 METAR ESMX 100520Z 22005KT 0400 R01/1000N R19/0650N FG VV002 05/05 Q1015=
202310100450 METAR ESMX 100450Z 21005KT 5000 BR BKN003 05/05 Q1015=
202310100420 METAR ESMX 100420Z 21006KT 2000 BR BKN002 06/06 Q1015=
202310100350 METAR ESMX 100350Z 20004KT 9999 SCT004 BKN041 05/05 Q1015=
202310100320 METAR ESMX 100320Z AUTO 21004KT 9999 OVC042/// 05/05 Q1016=
202310100250 METAR ESMX 100250Z AUTO 22003KT 9999 FEW023/// OVC042/// 05/05 Q1016=
202310100220 METAR ESMX 100220Z AUTO 22003KT 9999 FEW021/// SCT031/// OVC039/// 05/05 Q1016=
202310100150 METAR ESMX 100150Z AUTO 22005KT 9999 BKN022/// OVC036/// 05/05 Q1016=
202310100120 METAR ESMX 100120Z AUTO 22004KT 9999 SCT022/// BKN036/// 05/05 Q1016=
202310100050 METAR ESMX 100050Z AUTO 21005KT 9999 OVC034/// 04/04 Q1016=
202310100020 METAR ESMX 100020Z AUTO 21004KT 9999 BKN029/// 05/05 Q1016=
202310092350 METAR ESMX 092350Z 20003KT 9999 SCT031 04/04 Q1016=
202310092320 METAR ESMX 092320Z 19003KT 9999 FEW033 05/05 Q1016=
202310092250 METAR ESMX 092250Z 23003KT CAVOK 05/05 Q1016=
202310092220 METAR ESMX 092220Z 23005KT CAVOK 04/04 Q1016=
202310092150 METAR ESMX 092150Z 22004KT CAVOK 04/04 Q1016=
202310092120 METAR COR ESMX 092120Z 24004KT CAVOK 03/03 Q1017=
202310092050 METAR ESMX 092050Z 24004KT CAVOK 04/04 Q1016=
202310092020 METAR ESMX 092020Z 23004KT CAVOK 03/03 Q1016=
202310091950 METAR COR ESMX 091950Z 21001KT CAVOK 03/02 Q1016=
202310091920 METAR ESMX 091920Z AUTO 23004KT 9999 FEW110/// 03/02 Q1016=
202310091850 METAR ESMX 091850Z AUTO 23004KT 9999 FEW110/// 03/02 Q1016=
202310091820 METAR ESMX 091820Z AUTO 22004KT 9999 NCD 04/03 Q1016=
202310091750 METAR ESMX 091750Z AUTO 22005KT 9999 FEW170/// 04/02 Q1016=
202310091720 METAR ESMX 091720Z 22004KT CAVOK 04/03 Q1016=
202310091650 METAR ESMX 091650Z 22003KT CAVOK 06/03 Q1016=
202310091620 METAR ESMX 091620Z 25003KT 210V270 9999 FEW040 08/03 Q1016=
202310091550 METAR ESMX 091550Z 26003KT 9999 FEW040 10/02 Q1016=
202310091520 METAR ESMX 091520Z 25005KT 9999 FEW043 10/02 Q1016=
202310091450 METAR ESMX 091450Z 25005KT 210V280 CAVOK 11/02 Q1015=
202310091420 METAR ESMX 091420Z 28006KT 250V320 9999 FEW040 11/02 Q1015=
202310091350 METAR ESMX 091350Z 28007KT 260V320 CAVOK 11/01 Q1015=
202310091320 METAR ESMX 091320Z 24006KT 210V270 9999 FEW041 11/01 Q1015=
202310091250 METAR ESMX 091250Z 26008KT 9999 FEW041 11/02 Q1016=
202310091220 METAR ESMX 091220Z 28006KT 240V320 9999 FEW035 12/03 Q1016=
202310091150 METAR ESMX 091150Z 30007KT 270V340 9999 FEW035 11/02 Q1016=
202310091120 METAR ESMX 091120Z 26006KT 210V290 9999 FEW034 12/04 Q1016=
202310091050 METAR ESMX 091050Z 29005KT 240V320 9999 SCT028 11/04 Q1016=
202310091020 METAR ESMX 091020Z 27006KT 230V310 9999 SCT028 10/04 Q1016=
202310090950 METAR ESMX 090950Z 25005KT 210V290 9999 FEW031 10/04 Q1016=
202310090920 METAR ESMX 090920Z 23005KT 9999 FEW031 10/04 Q1016=
202310090850 METAR ESMX 090850Z 24004KT 9999 SCT031 08/05 Q1016=
202310090820 METAR ESMX 090820Z 22003KT 190V260 9999 FEW038 07/04 Q1016=
202310090750 METAR ESMX 090750Z 19003KT 150V210 9999 FEW038 06/03 Q1017=
202310090720 METAR ESMX 090720Z 20003KT 9999 FEW039 06/04 Q1016=
202310090650 METAR ESMX 090650Z 20003KT 9999 FEW041 04/03 Q1016=
202310090620 METAR ESMX 090620Z 00000KT 9999 FEW040 01/01 Q1017=
202310090550 METAR COR ESMX 090550Z 22002KT CAVOK 00/M00 Q1017=
202310090520 METAR ESMX 090520Z 20004KT CAVOK 03/02 Q1016=
202310090450 METAR ESMX 090450Z 17004KT 9999 FEW036 03/02 Q1016=
202310090420 METAR ESMX 090420Z 18002KT 9999 BKN035 01/01 Q1017=
202310090350 METAR ESMX 090350Z 19003KT 9999 BKN035 02/02 Q1017=
202310090320 METAR ESMX 090320Z AUTO 16003KT 9999 SCT028/// 03/02 Q1017=
202310090250 METAR ESMX 090250Z AUTO 00000KT 9999 SCT029/// BKN034/// 03/02 Q1018=
202310090220 METAR ESMX 090220Z AUTO 15003KT 9999 BKN034/// OVC100/// 03/02 Q1018=
202310090150 METAR ESMX 090150Z AUTO 17003KT 9999 OVC035/// 03/02 Q1019=
202310090120 METAR ESMX 090120Z AUTO 22005KT 9999 BKN036/// OVC140/// 02/01 Q1019=
202310090050 METAR ESMX 090050Z AUTO 21004KT 9999 FEW045/// BKN140/// 02/01 Q1020=
202310090020 METAR ESMX 090020Z AUTO 18003KT 9999 BKN150/// 02/00 Q1020=
202310082350 METAR ESMX 082350Z AUTO 19003KT 9999 BKN160/// 02/00 Q1020=
202310082320 METAR ESMX 082320Z AUTO 00000KT 9999 OVC180/// 00/M00 Q1020=
202310082250 METAR ESMX 082250Z AUTO 28002KT 9999 BKN180/// 01/00 Q1021=
202310082220 METAR ESMX 082220Z AUTO 25004KT 9999 FEW160/// M00/M01 Q1021=
202310082150 METAR ESMX 082150Z AUTO 25004KT 9999 NCD 00/M01 Q1021=
202310082120 METAR ESMX 082120Z AUTO 24003KT 9999 NCD 01/M01 Q1021=
202310082050 METAR ESMX 082050Z AUTO 25003KT 9999 NCD 02/M01 Q1022=
202310082020 METAR ESMX 082020Z AUTO 26004KT 9999 NCD 03/M01 Q1022=
202310081950 METAR ESMX 081950Z AUTO 26004KT 9999 NCD 02/M01 Q1022=
202310081920 METAR ESMX 081920Z AUTO 23003KT 9999 NCD 02/M02 Q1022=
202310081850 METAR ESMX 081850Z AUTO 24004KT 9999 NCD 02/M02 Q1022=
202310081820 METAR ESMX 081820Z AUTO 27003KT 9999 NCD 03/M00 Q1023=
202310081750 METAR ESMX 081750Z AUTO VRB03KT 9999 NCD 03/M01 Q1023=
202310081720 METAR ESMX 081720Z AUTO 26003KT 9999 NCD 04/M01 Q1023=
202310081650 METAR ESMX 081650Z 27004KT CAVOK 05/M01 Q1023=
202310081620 METAR ESMX 081620Z 28004KT 260V320 CAVOK 06/M01 Q1023=
202310081550 METAR ESMX 081550Z 29008KT 260V320 CAVOK 08/M01 Q1023=
202310081520 METAR ESMX 081520Z 29008KT 260V320 CAVOK 08/M01 Q1023=
202310081450 METAR ESMX 081450Z 29009G20KT CAVOK 09/M01 Q1023=
202310081420 METAR ESMX 081420Z 30009KT 260V330 CAVOK 09/M01 Q1023=
202310081350 METAR ESMX 081350Z 30011KT 270V340 CAVOK 10/M01 Q1023=
202310081320 METAR ESMX 081320Z 28009KT 240V310 CAVOK 10/M01 Q1023=
202310081250 METAR ESMX 081250Z 30011KT 280V350 CAVOK 10/M01 Q1023=
202310081220 METAR ESMX 081220Z 30011KT 270V330 CAVOK 10/M01 Q1022=
202310081150 METAR ESMX 081150Z 30011KT 270V350 CAVOK 09/M01 Q1022=
202310081120 METAR ESMX 081120Z 32010KT 290V350 CAVOK 09/M00 Q1023=
202310081050 METAR ESMX 081050Z 31011KT 280V340 CAVOK 09/M01 Q1022=
202310081020 METAR ESMX 081020Z 33011KT CAVOK 08/M01 Q1022=
202310080950 METAR ESMX 080950Z 31011KT 280V010 CAVOK 08/M00 Q1022=
202310080920 METAR ESMX 080920Z 31013KT CAVOK 07/M00 Q1022=
202310080850 METAR ESMX 080850Z 32010KT 280V340 CAVOK 06/M00 Q1021=
202310080820 METAR ESMX 080820Z 31010KT 280V340 CAVOK 06/M00 Q1021=
202310080750 METAR ESMX 080750Z AUTO 31010KT 280V340 9999 NCD 05/M00 Q1021=
202310080720 METAR ESMX 080720Z AUTO 31009KT 270V330 9999 NCD 04/M00 Q1021=
202310080650 METAR ESMX 080650Z AUTO 31008KT 9999 NCD 03/M00 Q1020=
202310080620 METAR ESMX 080620Z AUTO 29007KT 260V330 9999 NCD 02/M01 Q1020=
202310080550 METAR ESMX 080550Z AUTO 30008KT 9999 NCD 01/M01 Q1019=
202310080520 METAR ESMX 080520Z AUTO 29008KT 9999 NCD 01/M01 Q1019=
202310080450 METAR ESMX 080450Z AUTO 29007KT 9999 NCD 01/M01 Q1019=
202310080420 METAR ESMX 080420Z AUTO 29006KT 9999 NCD 01/M01 Q1019=
202310080350 METAR ESMX 080350Z AUTO 29005KT 9999 NCD 01/M01 Q1018=
202310080320 METAR ESMX 080320Z AUTO 30007KT 9999 NCD 02/M01 Q1018=
202310080250 METAR ESMX 080250Z AUTO 29007KT 9999 NCD 01/M01 Q1018=
202310080220 METAR ESMX 080220Z AUTO 28005KT 9999 NCD 01/M01 Q1017=
202310080150 METAR ESMX 080150Z AUTO 27004KT 9999 NCD 01/M01 Q1017=
202310080120 METAR ESMX 080120Z AUTO 27004KT 9999 NCD 02/M01 Q1017=
202310080050 METAR ESMX 080050Z AUTO 29005KT 9999 NCD 02/M01 Q1017=
202310080020 METAR ESMX 080020Z AUTO 32007KT 9999 NCD 02/M00 Q1016=
202310072350 METAR ESMX 072350Z AUTO 30006KT 9999 NCD 02/M00 Q1016=
202310072320 METAR ESMX 072320Z AUTO 28005KT 9999 NCD 02/M00 Q1016=
202310072250 METAR ESMX 072250Z AUTO 30005KT 9999 NCD 02/M00 Q1016=
202310072220 METAR ESMX 072220Z AUTO 29006KT 9999 NCD 02/M00 Q1015=
202310072150 METAR ESMX 072150Z AUTO 30006KT 9999 NCD 03/00 Q1015=
202310072120 METAR ESMX 072120Z AUTO 29005KT 9999 NCD 03/00 Q1015=
202310072050 METAR ESMX 072050Z AUTO 28006KT 9999 NCD 03/00 Q1015=
202310072020 METAR ESMX 072020Z AUTO 29005KT 9999 NCD 04/00 Q1014=
202310071950 METAR ESMX 071950Z AUTO 29004KT 9999 NCD 04/00 Q1014=
202310071920 METAR ESMX 071920Z AUTO 30006KT 9999 NCD 04/00 Q1013=
202310071850 METAR ESMX 071850Z AUTO 30005KT 9999 NCD 05/00 Q1013=
202310071820 METAR ESMX 071820Z AUTO 30006KT 9999 NCD 05/00 Q1013=
202310071750 METAR ESMX 071750Z AUTO 30007KT 280V340 9999 BKN210/// 06/01 Q1013=
202310071720 METAR ESMX 071720Z AUTO 30007KT 9999 OVC200/// 07/02 Q1013=
202310071650 METAR ESMX 071650Z AUTO 30005KT 260V330 9999 BKN180/// 07/02 Q1012=
202310071620 METAR ESMX 071620Z AUTO 29005KT 9999 BKN200/// 07/01 Q1012=
202310071550 METAR ESMX 071550Z AUTO 29005KT 260V330 9999 FEW170/// SCT200/// 08/01 Q1011=
202310071520 METAR ESMX 071520Z AUTO 31009KT 9999 FEW140/// 09/01 Q1011=
202310071450 METAR ESMX 071450Z AUTO 30010KT 9999 FEW045/// 10/01 Q1011=
202310071420 METAR ESMX 071420Z AUTO 29010KT 260V330 9999 SCT160/// 10/01 Q1011=
202310071350 METAR ESMX 071350Z AUTO 29009KT 260V320 9999 FEW220/// 10/01 Q1011=
202310071320 METAR ESMX 071320Z AUTO 28009KT 260V320 9999 BKN220/// 10/02 Q1010=
202310071250 METAR ESMX 071250Z AUTO 29009KT 260V340 9999 FEW047/// SCT200/// 10/01 Q1010=
202310071220 METAR ESMX 071220Z AUTO 32010KT 280V340 9999 SCT086/// 11/M00 Q1010=
202310071150 METAR ESMX 071150Z AUTO 32010KT 290V360 9999 FEW200/// 11/00 Q1010=
202310071120 METAR ESMX 071120Z AUTO 31009KT 270V350 9999 FEW084/// 11/01 Q1009=
202310071050 METAR ESMX 071050Z AUTO 32009KT 280V360 9999 FEW084/// 10/01 Q1009=
202310071020 METAR ESMX 071020Z AUTO 33010KT 9999 BKN086/// 10/01 Q1009=
202310070950 METAR ESMX 070950Z AUTO 31012KT 280V340 9999 BKN084/// 10/00 Q1009=
202310070920 METAR ESMX 070920Z 30012KT 270V330 CAVOK 09/00 Q1009=
202310070850 METAR ESMX 070850Z 32012KT CAVOK 09/01 Q1008=
202310070820 METAR ESMX 070820Z 31013KT CAVOK 08/02 Q1007=
202310070750 METAR ESMX 070750Z 31013KT 280V340 CAVOK 08/02 Q1007=
202310070720 METAR ESMX 070720Z 31014G24KT 280V340 CAVOK 07/03 Q1006=
202310070650 METAR ESMX 070650Z AUTO 30012KT 9999 NCD 07/04 Q1006=
202310070620 METAR ESMX 070620Z AUTO 29011KT 9999 NCD 06/04 Q1005=
202310070550 METAR ESMX 070550Z 29011KT 260V320 9999 FEW019 06/04 Q1004=
202310070520 METAR ESMX 070520Z 30012KT 9999 FEW019 06/04 Q1004=
202310070450 METAR ESMX 070450Z 31012KT 270V340 9999 FEW019 06/04 Q1003=
202310070420 METAR ESMX 070420Z 31012G23KT 270V330 9999 BKN020 07/05 Q1002=
202310070350 METAR ESMX 070350Z AUTO 33018KT 300V360 9999 FEW014/// BKN019/// 07/05 Q1001=
202310070320 METAR ESMX 070320Z AUTO 31017KT 9999 BKN014/// 10/08 Q1000=
202310070250 METAR ESMX 070250Z AUTO 29013KT 240V320 7000 -RA SCT011/// BKN015/// OVC025/// 12/12 Q0999 REDZ=
202310070220 METAR ESMX 070220Z AUTO 28012KT 250V320 9999 BKN013/// BKN016/// OVC021/// 13/11 Q0998=
202310070150 METAR ESMX 070150Z AUTO 28014G24KT 240V300 9999 FEW005/// BKN011/// BKN015/// 13/12 Q0997=
202310070120 METAR ESMX 070120Z 26013KT 9999 BKN011 OVC016 12/11 Q0997=
202310070050 METAR ESMX 070050Z 26015KT 8000 BKN013 BKN019 12/11 Q0997 REDZ=
202310070020 METAR ESMX 070020Z 26016G28KT 230V290 7000 BKN016 BKN028 13/11 Q0997=
202310062350 METAR ESMX 062350Z 26014G33KT 230V290 9999 SCT016 BKN023 13/12 Q0997=
202310062320 METAR ESMX 062320Z AUTO 26015KT 210V300 6000 DZ FEW006/// SCT016/// BKN024/// 13/12 Q0997=
202310062250 METAR ESMX 062250Z 26013G24KT 230V290 9999 -DZ BKN025 BKN036 13/11 Q0997 REDZ=
202310062220 METAR ESMX 062220Z AUTO 25017G28KT 9999 BKN025/// BKN036/// 14/11 Q0997=
202310062150 METAR ESMX 062150Z 25014G24KT 9999 BKN023 BKN030 14/11 Q0997=
202310062120 METAR ESMX 062120Z AUTO 25015G27KT 9999 BKN023/// OVC029/// 14/11 Q0998=
202310062050 METAR ESMX 062050Z AUTO 24014G24KT 200V270 9999 FEW024/// 14/11 Q0998=
202310062020 METAR ESMX 062020Z AUTO 24012KT 210V280 9999 SCT026/// BKN051/// 14/12 Q0998=
202310061950 METAR ESMX 061950Z AUTO 26014G25KT 230V320 9999 SCT026/// BKN034/// 15/12 Q0999=
202310061920 METAR ESMX 061920Z AUTO 24014KT 210V270 9999 BKN024/// OVC051/// 15/12 Q0999=
202310061850 METAR ESMX 061850Z AUTO 24013G25KT 9999 SCT022/// BKN031/// OVC055/// 15/12 Q1000=
202310061820 METAR ESMX 061820Z AUTO 23010KT 190V260 9999 -DZ BKN019/// BKN024/// OVC043/// 15/13 Q1000=
202310061750 METAR ESMX 061750Z AUTO 24012KT 210V280 9999 BKN018/// BKN024/// OVC032/// 15/13 Q1000=
202310061720 METAR ESMX 061720Z AUTO 23012KT 9999 SCT022/// BKN039/// BKN047/// 15/14 Q1001=
202310061650 METAR ESMX 061650Z AUTO 23012KT 9999 DZ FEW022/// SCT028/// BKN049/// 15/13 Q1002=
202310061620 METAR ESMX 061620Z AUTO 22015KT 9999 SCT018/// BKN027/// BKN051/// 15/14 Q1002=
202310061550 METAR ESMX 061550Z AUTO 22015G28KT 9999 SCT016/// BKN024/// OVC051/// 15/14 Q1002=
202310061520 METAR ESMX 061520Z AUTO 23014KT 9999 SCT015/// BKN026/// OVC035/// 15/14 Q1003=
202310061450 METAR ESMX 061450Z AUTO 22015KT 9999 BKN013/// OVC023/// 15/14 Q1003=
202310061420 METAR ESMX 061420Z 22014G24KT 9999 BKN011 BKN018 OVC024 15/14 Q1004 RERA=
202310061350 METAR ESMX 061350Z 22013KT 9999 BKN011 BKN017 15/14 Q1005=
202310061320 METAR ESMX 061320Z 21015KT 9999 FEW010 SCT025 14/14 Q1005 REDZ=
202310061250 METAR ESMX 061250Z 21015KT 9999 FEW009 SCT200 15/14 Q1006 REDZ=
202310061220 METAR ESMX 061220Z 20014KT 170V230 4000 -DZ VV011 14/14 Q1006 REDZ=
202310061150 METAR ESMX 061150Z 21013KT 3000 BR BKN004 14/14 Q1007 REDZ=
202310061120 METAR ESMX 061120Z 19015KT 4500 BR BKN004 13/13 Q1008 REDZ=
202310061050 METAR ESMX 061050Z 19014KT 4500 BR BKN003 13/13 Q1008=
202310061020 METAR ESMX 061020Z 17012KT 3900 BR BKN003 12/12 Q1009=
202310060950 METAR ESMX 060950Z 16012KT 3300 -DZ BKN004 11/11 Q1010=
202310060920 METAR ESMX 060920Z 16011KT 5000 DZ BKN004 10/10 Q1011=
202310060850 METAR ESMX 060850Z 16012KT 6000 RA SCT002 BKN005 10/10 Q1011=
202310060820 METAR ESMX 060820Z 16010KT 9000 DZ SCT008 BKN019 10/09 Q1012=
202310060750 METAR ESMX 060750Z 17011KT 9000 -RA FEW007 BKN028 10/09 Q1013=
202310060720 METAR ESMX 060720Z 16009KT 9999 -RA BKN031 BKN049 10/10 Q1014=
202310060650 METAR ESMX 060650Z 15006KT 9999 -DZ SCT004 BKN008 BKN046 10/10 Q1014=
202310060620 METAR ESMX 060620Z 16006KT 9999 SCT004 09/09 Q1015=
202310060550 METAR ESMX 060550Z 18005KT 9999 -DZ FEW004 BKN064 09/09 Q1015=
202310060520 METAR ESMX 060520Z 18006KT 9999 -RA FEW006 SCT044 09/09 Q1016=
202310060450 METAR ESMX 060450Z 18007KT 9999 -RA SCT020 BKN048 09/09 Q1016=
202310060420 METAR ESMX 060420Z 17005KT 9999 SCT014 08/08 Q1016 RERA=
202310060350 METAR ESMX 060350Z AUTO 20005KT 9999 FEW012/// SCT016/// BKN049/// 08/08 Q1017=
202310060320 METAR ESMX 060320Z AUTO 20004KT 9999 FEW002/// SCT007/// BKN018/// 08/08 Q1017 RESHUP REUP=
202310060250 METAR ESMX 060250Z AUTO 16005KT 9999 SCT028/// OVC036/// 08/08 Q1017=
202310060220 METAR ESMX 060220Z AUTO 15003KT 9999 BKN035/// OVC047/// 07/07 Q1018=
202310060150 METAR ESMX 060150Z AUTO 21003KT 9999 BKN120/// 06/06 Q1018=
202310060120 METAR ESMX 060120Z AUTO 21004KT 9999 BKN140/// 06/06 Q1018=
202310060050 METAR ESMX 060050Z AUTO 21004KT 1400 R01/P2000N R19/P2000N BKN130/// 06/06 Q1018=
202310060020 METAR ESMX 060020Z AUTO 21004KT 7000 NCD 06/06 Q1018=
202310052350 METAR ESMX 052350Z AUTO 21004KT 9999 NCD 07/07 Q1018=
202310052320 METAR ESMX 052320Z 21004KT CAVOK 07/07 Q1018=
202310052250 METAR ESMX 052250Z 21003KT 7000 BR NSC 06/06 Q1018=
202310052220 METAR ESMX 052220Z 22003KT 8000 MIFG NSC 06/06 Q1018=
202310052150 METAR ESMX 052150Z 22004KT CAVOK 06/06 Q1018=
202310052120 METAR ESMX 052120Z 23004KT CAVOK 06/06 Q1018=
202310052050 METAR ESMX 052050Z 22005KT 9999 FEW028 06/06 Q1018=
202310052020 METAR ESMX 052020Z 24003KT 220V280 9999 FEW028 05/05 Q1018=
202310051950 METAR ESMX 051950Z 24003KT 9999 FEW028 05/05 Q1018=
202310051920 METAR ESMX 051920Z AUTO 25003KT 9999 FEW028/// 04/04 Q1018=
202310051850 METAR ESMX 051850Z AUTO 23003KT 9999 FEW030/// 06/06 Q1017=
202310051820 METAR ESMX 051820Z AUTO 19002KT 9999 NCD 06/06 Q1017=
202310051750 METAR ESMX 051750Z AUTO 17002KT 9999 NCD 07/07 Q1017=
202310051720 METAR ESMX 051720Z VRB02KT 9999 FEW030 08/08 Q1016=
202310051650 METAR ESMX 051650Z VRB02KT 9999 FEW036 09/08 Q1016=
202310051620 METAR ESMX 051620Z 28005KT 9999 FEW036 11/08 Q1016=
202310051550 METAR ESMX 051550Z 28006KT 9999 SCT037 12/08 Q1015=
202310051520 METAR ESMX 051520Z 27007KT 240V300 CAVOK 13/08 Q1015=
202310051450 METAR ESMX 051450Z 28007KT CAVOK 13/08 Q1014=
202310051420 METAR ESMX 051420Z 29008KT CAVOK 12/08 Q1014=
202310051350 METAR ESMX 051350Z 29009KT 260V320 CAVOK 13/08 Q1013=
202310051320 METAR ESMX 051320Z 32009KT 280V340 9999 FEW027 12/08 Q1013=
202310051250 METAR ESMX 051250Z 30011KT 270V330 9999 BKN027 BKN034 12/07 Q1013=
202310051220 METAR ESMX 051220Z 33010KT 290V350 9999 BKN025 13/08 Q1012=
202310051150 METAR ESMX 051150Z 32009KT 280V350 9999 SCT025 BKN035 12/08 Q1012=
202310051120 METAR ESMX 051120Z 31011KT 9999 SCT025 BKN034 12/07 Q1011=
202310051050 METAR ESMX 051050Z 31013KT 9999 BKN027 12/07 Q1011=
202310051020 METAR ESMX 051020Z 31011KT 280V340 9999 BKN024 12/08 Q1010=
202310050950 METAR ESMX 050950Z 32010KT 290V360 9999 BKN023 11/07 Q1010=
202310050920 METAR ESMX 050920Z 30011KT 9999 BKN022 11/07 Q1009=
202310050850 METAR ESMX 050850Z 30012KT 270V340 9999 SCT020 11/08 Q1008=
202310050820 METAR ESMX 050820Z 31013KT 280V340 9999 BKN018 11/08 Q1008=
202310050750 METAR ESMX 050750Z 29015KT 260V330 9999 BKN014 10/09 Q1007=
202310050720 METAR ESMX 050720Z 28013KT 240V320 9999 BKN015 11/09 Q1006=
202310050650 METAR ESMX 050650Z 27013KT 9999 BKN015 11/09 Q1005=
202310050620 METAR COR ESMX 050620Z 27012G24KT 240V300 9999 BKN014 11/10 Q1005=
202310050550 METAR ESMX 050550Z 26014KT 9000 -RA BKN014 11/10 Q1004=
202310050520 METAR ESMX 050520Z 26010G22KT 230V300 9999 BKN016 11/10 Q1004=
202310050450 METAR ESMX 050450Z 25012KT 9999 -DZ SCT017 BKN021 11/10 Q1004=
202310050420 METAR ESMX 050420Z 25013G23KT 9999 BKN014 11/10 Q1004=
202310050350 METAR ESMX 050350Z 23011KT 9999 BKN014 12/11 Q1004=
202310050320 METAR COR ESMX 050320Z 24010KT 9999 BKN012 12/11 Q1004=
202310050250 METAR ESMX 050250Z AUTO 22012KT 9999 FEW009/// SCT014/// BKN020/// 12/12 Q1005=
202310050220 METAR ESMX 050220Z AUTO 21014KT 180V240 9999 FEW007/// BKN010/// BKN019/// 12/12 Q1005=
202310050150 METAR ESMX 050150Z AUTO 21013KT 9999 BKN010/// BKN053/// 12/12 Q1005=
202310050120 METAR ESMX 050120Z AUTO 19016KT 7000 -RA SQ FEW007/// BKN018/// BKN027/// 12/12 Q1006=
202310050050 METAR ESMX 050050Z AUTO 19014KT 9999 RA BKN007/// BKN016/// OVC040/// 12/12 Q1006=
202310050020 METAR ESMX 050020Z AUTO 20011KT 9999 -RA FEW035/// BKN047/// OVC061/// 12/12 Q1007=
202310042350 METAR ESMX 042350Z AUTO 20011KT 9999 -RA FEW009/// SCT020/// OVC047/// 12/12 Q1008=
202310042320 METAR ESMX 042320Z 19010KT 9000 -RA BKN007 BKN023 OVC045 12/12 Q1009 REDZ=
202310042250 METAR ESMX 042250Z 20010KT 9999 DZ SCT008 BKN016 BKN024 12/12 Q1009=
202310042220 METAR ESMX 042220Z 22011KT 9999 DZ FEW005 SCT030 BKN051 11/11 Q1010=
202310042150 METAR ESMX 042150Z 19008KT 9999 +RA SCT006 BKN012 BKN021 11/11 Q1010=
202310042120 METAR ESMX 042120Z 19008KT 9999 -RA FEW006 BKN017 BKN051 11/11 Q1010=
202310042050 METAR ESMX 042050Z 20009KT 9999 -RA BKN006 11/11 Q1011 REDZ=
202310042020 METAR ESMX 042020Z 21008KT 9000 DZ FEW007 BKN013 BKN030 11/11 Q1011=
202310041950 METAR ESMX 041950Z 22008KT 9999 DZ FEW008 BKN016 BKN022 11/11 Q1012=
202310041920 METAR ESMX 041920Z AUTO 20008KT 9999 BKN014/// BKN021/// OVC068/// 11/11 Q1012=
202310041850 METAR ESMX 041850Z AUTO 21008KT 9999 BKN014/// BKN040/// 11/10 Q1012=
202310041820 METAR ESMX 041820Z 22007KT 9999 BKN015 11/10 Q1012=
202310041750 METAR ESMX 041750Z AUTO 22007KT 9999 SCT017/// BKN030/// 11/10 Q1012=
202310041720 METAR ESMX 041720Z 22008KT 9999 FEW034 SCT045 11/09 Q1012=
202310041650 METAR ESMX 041650Z 23007KT 9999 FEW040 11/08 Q1012=
202310041620 METAR ESMX 041620Z 23008KT 200V260 9999 FEW031 12/08 Q1012=
202310041550 METAR ESMX 041550Z 24009KT 9999 FEW033 13/08 Q1012=
202310041520 METAR ESMX 041520Z 25011KT 210V280 9999 FEW030 13/09 Q1012=
202310041450 METAR ESMX 041450Z 26010KT 230V290 9999 FEW031 14/09 Q1012=
202310041420 METAR ESMX 041420Z 25012G23KT 9999 FEW031 13/09 Q1012=
202310041350 METAR ESMX 041350Z 26013G24KT 220V290 9999 FEW031 13/09 Q1011=
202310041320 METAR ESMX 041320Z 26016KT 9999 VCSH FEW031 12/08 Q1011=
202310041250 METAR ESMX 041250Z 26014KT 9999 VCSH FEW031 13/08 Q1011=
202310041220 METAR ESMX 041220Z 27017G29KT 9999 SCT032 14/08 Q1011=
202310041150 METAR ESMX 041150Z 26017G30KT 9999 VCSH SCT031 15/08 Q1010=
202310041120 METAR ESMX 041120Z 26017G29KT 230V300 9999 SCT032 14/09 Q1010=
202310041050 METAR ESMX 041050Z 26015G25KT 230V300 9999 SCT032 14/09 Q1010=
202310041020 METAR ESMX 041020Z 26016G29KT 230V300 9999 SCT029 14/09 Q1010=
202310040950 METAR ESMX 040950Z 25016G27KT 190V290 9999 BKN026 BKN034 14/10 Q1009=
202310040920 METAR ESMX 040920Z 25014G25KT 9999 BKN022 BKN037 13/10 Q1009=
202310040850 METAR ESMX 040850Z 25014G29KT 210V280 9999 BKN023 BKN032 13/10 Q1009=
202310040820 METAR ESMX 040820Z 26013KT 230V290 9999 BKN020 BKN026 12/10 Q1009=
202310040750 METAR ESMX 040750Z 25011KT 9999 BKN018 BKN024 12/10 Q1008=
202310040720 METAR ESMX 040720Z 23011KT 9999 BKN015 12/10 Q1008=
202310040650 METAR ESMX 040650Z 25011KT 210V280 9999 BKN015 BKN022 11/10 Q1008=
202310040620 METAR ESMX 040620Z 25010KT 9999 SCT014 BKN020 11/10 Q1008=
202310040550 METAR ESMX 040550Z 25009KT 220V280 9000 DZ FEW004 BKN010 BKN019 11/11 Q1007=
202310040520 METAR ESMX 040520Z 22009KT 200V260 8000 FEW005 BKN013 11/11 Q1007 REDZ=
202310040450 METAR ESMX 040450Z 23010KT 9999 DZ SCT006 BKN012 11/11 Q1007=
202310040420 METAR ESMX 040420Z 23010KT 200V260 9999 BKN012 BKN018 11/11 Q1007=
202310040350 METAR ESMX 040350Z 24010KT 210V270 9999 SCT011 BKN015 11/11 Q1006=
202310040320 METAR ESMX 040320Z AUTO 24011KT 220V280 9999 BKN013/// BKN018/// 11/11 Q1007=
202310040250 METAR ESMX 040250Z AUTO 25009KT 210V270 9999 BKN019/// BKN024/// 11/11 Q1006=
202310040220 METAR ESMX 040220Z AUTO 24008KT 9999 FEW009/// SCT024/// 10/10 Q1006=
202310040150 METAR ESMX 040150Z AUTO 23009KT 9999 FEW009/// SCT013/// BKN020/// 10/10 Q1006=
202310040120 METAR ESMX 040120Z AUTO 22009KT 9999 FEW010/// 10/10 Q1006=
202310040050 METAR ESMX 040050Z AUTO 24008KT 9999 BKN012/// OVC015/// 10/10 Q1006=
202310040020 METAR ESMX 040020Z AUTO 25008KT 9999 FEW017/// 10/10 Q1006=
202310032350 METAR ESMX 032350Z AUTO 25009KT 210V270 9999 SCT009/// BKN012/// BKN015/// 10/10 Q1006=
202310032320 METAR ESMX 032320Z 23008KT 200V260 9999 FEW009 SCT015 BKN019 10/10 Q1005=
202310032250 METAR ESMX 032250Z 25008KT 210V270 9999 BKN007 10/10 Q1005=
202310032220 METAR ESMX 032220Z 25008KT 9999 BKN006 10/10 Q1005=
202310032150 METAR ESMX 032150Z 23006KT 9999 BKN006 10/10 Q1005=
202310032120 METAR ESMX 032120Z 24006KT 9999 SCT007 BKN013 BKN036 09/09 Q1005=
202310032050 METAR ESMX 032050Z 26006KT 9999 SCT009 BKN045 09/09 Q1005=
202310032020 METAR ESMX 032020Z 26006KT 240V300 9999 SCT014 BKN045 09/09 Q1004=
202310031950 METAR ESMX 031950Z 27009KT 230V290 9999 SCT009 BKN013 BKN019 10/09 Q1004=
202310031920 METAR ESMX 031920Z AUTO 28010KT 250V310 9999 SCT008/// OVC020/// 10/10 Q1004=
202310031850 METAR ESMX 031850Z AUTO 28011KT 9999 BKN007/// OVC009/// 10/10 Q1003=
202310031820 METAR ESMX 031820Z 30011KT 270V330 9999 SCT006 BKN008 BKN014 10/10 Q1002=
202310031750 METAR ESMX 031750Z AUTO 30011KT 260V320 9999 -RA SCT007/// BKN011/// BKN015/// 10/10 Q1001=
202310031720 METAR ESMX 031720Z 29012KT 260V320 3100 DZ BKN005 BKN008 11/11 Q1000=
202310031650 METAR ESMX 031650Z 29015KT 260V320 2800 DZ BKN004 BKN006 BKN086 12/12 Q0999 RERA=
202310031620 METAR ESMX 031620Z 31009KT 9999 BKN005 BKN062 14/14 Q0998=
202310031550 METAR ESMX 031550Z 32006KT 9999 FEW003 SCT025 BKN059 14/14 Q0997 REDZ=
202310031520 METAR ESMX 031520Z 30006KT 9000 DZ FEW002 BKN005 BKN030 15/15 Q0996=
202310031450 METAR ESMX 031450Z 22008KT 5000 DZ BKN004 BKN012 16/16 Q0996=
202310031420 METAR ESMX 031420Z 22009KT 7000 -DZ BKN030 16/16 Q0996=
202310031350 METAR ESMX 031350Z 21010KT 4000 DZ BKN006 BKN009 16/16 Q0996=
202310031320 METAR ESMX 031320Z 22010KT 9000 BKN010 BKN016 17/16 Q0997 RERA=
202310031250 METAR ESMX 031250Z 20011KT 9000 BKN012 BKN016 17/17 Q0996 RERA=
202310031220 METAR ESMX 031220Z 19010KT 9000 FEW002 BKN013 BKN026 17/17 Q0997=
202310031150 METAR COR ESMX 031150Z 17012KT 6000 TSRA SCT008 BKN013 BKN051 17/17 Q0998=
202310031120 METAR ESMX 031120Z 17011KT 8000 BKN008 17/17 Q0998=
202310031050 METAR ESMX 031050Z 15010KT 120V180 6000 BKN007 17/17 Q0999=
202310031020 METAR ESMX 031020Z 15010KT 5000 BR BKN005 17/17 Q1000 REDZ=
202310030950 METAR ESMX 030950Z 16009KT 120V190 6000 BKN003 16/16 Q1001=
202310030920 METAR ESMX 030920Z 15008KT 6000 OVC003 16/16 Q1002=
202310030850 METAR ESMX 030850Z 16008KT 8000 OVC003 15/15 Q1003=
202310030820 METAR ESMX 030820Z 14007KT 9000 -DZ OVC003 15/15 Q1003=
202310030750 METAR ESMX 030750Z 14007KT 9000 -DZ OVC002 14/14 Q1004=
202310030720 METAR ESMX 030720Z 14004KT 8000 -RA OVC003 13/13 Q1005=
202310030650 METAR ESMX 030650Z VRB03KT 9000 -RA FEW002 BKN005 13/13 Q1006=
202310030620 METAR ESMX 030620Z 14004KT 110V190 8000 -RA FEW003 BKN009 13/13 Q1007=
202310030550 METAR ESMX 030550Z 20003KT 9000 -RA SCT003 BKN015 13/13 Q1007=
202310030520 METAR ESMX 030520Z 22002KT 8000 -RA SCT002 BKN013 13/13 Q1008=
202310030450 METAR ESMX 030450Z VRB03KT 7000 -RA SCT002 BKN023 13/13 Q1008=
202310030420 METAR ESMX 030420Z 22002KT 5000 -RA SCT002 BKN023 13/13 Q1009=
202310030350 METAR ESMX 030350Z 15002KT 5000 RA BKN003 13/13 Q1010=
202310030320 METAR ESMX 030320Z AUTO 16002KT 4800 BR OVC004/// 14/14 Q1010=
202310030250 METAR ESMX 030250Z AUTO 22003KT 5000 BR SCT006/// BKN009/// BKN036/// 13/13 Q1011=
202310030220 METAR ESMX 030220Z AUTO 22002KT 6000 BKN003/// BKN006/// OVC009/// 13/13 Q1011=
202310030150 METAR ESMX 030150Z AUTO 22002KT 2800 BR FEW002/// SCT004/// OVC009/// 13/13 Q1011=
202310030120 METAR ESMX 030120Z AUTO 18003KT 2400 BR BKN003/// OVC011/// 13/13 Q1011=
202310030050 METAR ESMX 030050Z AUTO 23004KT 8000 OVC002/// 13/13 Q1012=
202310030020 METAR ESMX 030020Z AUTO 22006KT 2900 OVC001/// 14/14 Q1012=
202310022350 METAR ESMX 022350Z AUTO 21006KT 0650 R01/P2000D R19/P2000N FG OVC001/// 14/14 Q1012=
202310022320 METAR ESMX 022320Z 21005KT 0450 R01/P2000N R19/1300N BKN002 14/14 Q1013=
202310022250 METAR ESMX 022250Z 21004KT 0300 R01/P2000N R19/1000D SCT002 13/13 Q1013=
202310022220 METAR ESMX 022220Z 21005KT 0250 R01/1800N R19/0900N FG VV002 13/13 Q1013=
202310022150 METAR ESMX 022150Z 21005KT 5000 BR SCT036 13/13 Q1013=
202310022120 METAR ESMX 022120Z AUTO 21004KT 8000 NCD 13/13 Q1013=
202310022050 METAR ESMX 022050Z 18003KT 9999 BKN036 14/14 Q1013 REDZ=
202310022020 METAR ESMX 022020Z 23003KT 190V260 5000 +DZ FEW002 BKN021 BKN032 14/14 Q1014=
202310021950 METAR ESMX 021950Z 24003KT 3800 +DZ SCT002 BKN021 BKN032 14/14 Q1014=
202310021920 METAR ESMX 021920Z 21005KT 9999 FEW018 SCT029 BKN051 14/14 Q1014=
202310021850 METAR ESMX 021850Z 19005KT 9999 SCT048 14/14 Q1014=
202310021820 METAR ESMX 021820Z 21006KT 9999 BKN048 14/14 Q1014=
202310021750 METAR ESMX 021750Z 21006KT CAVOK 15/14 Q1014=
202310021720 METAR ESMX 021720Z 20005KT CAVOK 14/14 Q1014=
202310021650 METAR ESMX 021650Z 20004KT CAVOK 15/15 Q1014 RERA=
202310021620 METAR ESMX 021620Z 23004KT 9999 FEW021 16/15 Q1014=
202310021550 METAR ESMX 021550Z 24006KT 210V280 9999 SCT021 17/15 Q1014=
202310021520 METAR ESMX 021520Z 24007KT 9999 SCT026 BKN077 17/15 Q1014=
202310021450 METAR ESMX 021450Z 24007KT 9999 FEW016 BKN074 18/16 Q1014=
202310021420 METAR ESMX 021420Z 25009KT 9999 FEW014 SCT032 BKN074 17/16 Q1014=
202310021350 METAR ESMX 021350Z 26008KT 220V320 9999 FEW003 SCT010 BKN032 17/17 Q1014 REDZ=
202310021320 METAR ESMX 021320Z 22009KT 9999 BKN009 17/17 Q1014=
202310021250 METAR ESMX 021250Z 19012KT 9999 BKN008 17/17 Q1014=
202310021220 METAR ESMX 021220Z 18010KT 9999 BKN009 17/17 Q1014=
202310021150 METAR ESMX 021150Z 21007KT 9999 BKN008 17/16 Q1015=
202310021120 METAR ESMX 021120Z 20007KT 9999 BKN009 16/16 Q1015=
202310021050 METAR ESMX 021050Z 22008KT 9999 BKN006 16/16 Q1015=
202310021020 METAR ESMX 021020Z 19010KT 9999 BKN005 16/16 Q1015=
202310020950 METAR ESMX 020950Z 21010KT 9999 BKN004 16/16 Q1015=
202310020920 METAR ESMX 020920Z 20009KT 9999 BKN004 15/15 Q1016=
202310020850 METAR ESMX 020850Z 19010KT 9999 BKN004 15/15 Q1016 REDZ=
202310020820 METAR ESMX 020820Z 18009KT 7000 BKN004 BKN006 15/15 Q1016=
202310020750 METAR ESMX 020750Z 18008KT 5000 -RA BKN003 15/15 Q1016=
202310020720 METAR ESMX 020720Z 18010KT 9999 BKN003 14/14 Q1016=
202310020650 METAR ESMX 020650Z 18008KT 9999 VV002 14/14 Q1016=
202310020620 METAR ESMX 020620Z 19008KT 8000 VV002 14/14 Q1016=
202310020550 METAR ESMX 020550Z 20006KT 4000 BR VV002 13/13 Q1016 REDZ=
202310020520 METAR ESMX 020520Z 18006KT 4000 VV002 13/13 Q1016=
202310020450 METAR ESMX 020450Z 18006KT 4000 VV002 13/13 Q1016=
202310020420 METAR ESMX 020420Z 18005KT 1100 R01/P2000N R19/P2000N VV002 13/13 Q1016=
202310020350 METAR ESMX 020350Z 19005KT 1000 R01/P2000N R19/P2000N FG VV002 12/12 Q1016 RERA=
202310020320 METAR ESMX 020320Z AUTO 17005KT 1200 R01/P2000N R19/P2000N -RA OVC001/// 12/12 Q1017 REDZ=
202310020250 METAR ESMX 020250Z AUTO 18006KT 1500 BR OVC001/// 12/12 Q1017=
202310020220 METAR ESMX 020220Z AUTO 16005KT 3800 BR OVC002/// 11/11 Q1017=
202310020150 METAR ESMX 020150Z AUTO 17003KT 9999 OVC003/// 11/11 Q1017=
202310020120 METAR ESMX 020120Z AUTO VRB03KT 9999 BKN006/// OVC008/// 10/10 Q1017=
202310020050 METAR ESMX 020050Z AUTO 20003KT 9999 OVC009/// 09/09 Q1017=
202310020020 METAR ESMX 020020Z AUTO 15003KT 2300 BR NCD 07/07 Q1018=
202310012350 METAR ESMX 012350Z AUTO 20003KT 9000 NCD 09/09 Q1018=
202310012320 METAR ESMX 012320Z AUTO 16002KT 9999 SCT042/// 07/07 Q1018=
202310012250 METAR ESMX 012250Z AUTO 20003KT 8000 NCD 08/08 Q1018=
202310012220 METAR ESMX 012220Z AUTO 18005KT 9999 NCD 09/09 Q1018=
202310012150 METAR ESMX 012150Z AUTO 21005KT 9999 NCD 09/09 Q1018=
202310012120 METAR ESMX 012120Z AUTO 18004KT 1200 R01/P2000N R19/P2000N NCD 09/09 Q1018=
202310012050 METAR ESMX 012050Z AUTO 21004KT 9999 NCD 07/07 Q1018=
202310012020 METAR ESMX 012020Z AUTO 21005KT 9999 NCD 08/08 Q1018=
202310011950 METAR ESMX 011950Z AUTO 21003KT 9999 NCD 08/08 Q1019=
202310011920 METAR ESMX 011920Z AUTO 19003KT 9999 NCD 09/09 Q1019=
202310011850 METAR ESMX 011850Z AUTO 21005KT 9999 NCD 09/08 Q1019=
202310011820 METAR ESMX 011820Z AUTO 19004KT 9999 NCD 08/07 Q1018=
202310011750 METAR ESMX 011750Z AUTO 18004KT 9999 NCD 11/09 Q1018=
202310011720 METAR ESMX 011720Z AUTO 21003KT 9999 NCD 11/09 Q1018=
202310011650 METAR ESMX 011650Z 22003KT 190V250 CAVOK 12/09 Q1018=
202310011620 METAR ESMX 011620Z 26005KT CAVOK 13/09 Q1018=
202310011550 METAR ESMX 011550Z 25006KT 210V290 9999 FEW034 14/09 Q1018=
202310011520 METAR ESMX 011520Z 28007KT 230V310 9999 FEW033 15/09 Q1018=
202310011450 METAR ESMX 011450Z 25005KT 230V290 9999 SCT031 14/09 Q1018=
202310011420 METAR ESMX 011420Z 26010KT 220V300 9999 SCT030 15/09 Q1018=
202310011350 METAR ESMX 011350Z 27010KT 240V300 9999 SCT030 BKN038 16/09 Q1018=
202310011320 METAR ESMX 011320Z 26010KT 9999 FEW029 SCT039 15/09 Q1018=
202310011250 METAR ESMX 011250Z 26010KT 230V290 9999 BKN029 15/10 Q1018=
202310011220 METAR ESMX 011220Z 27008KT 210V300 9999 SCT036 15/10 Q1018=
