##########################################################
# Query made at 04/19/2024 22:31:34 UTC
# Time interval: from 05/01/2023 12:00  to 05/31/2023 12:59  UTC
##########################################################

##########################################################
# ESMX, Vaxjo (Sweden)
# WMO index: 02641. WIGOS ID: 0-20000-0-02648
# Latitude 56-51N. Longitude 014-50E. Altitude 199 m.
##########################################################

202305311250 METAR ESMX 311250Z 26010KT 220V300 CAVOK 23/09 Q1016=
202305311220 METAR ESMX 311220Z 27011KT 240V310 CAVOK 23/09 Q1017=
202305311150 METAR ESMX 311150Z 30010KT 240V330 CAVOK 23/09 Q1017=
202305311120 METAR ESMX 311120Z 29010KT 250V320 CAVOK 23/10 Q1017=
202305311050 METAR ESMX 311050Z 26009KT 210V300 CAVOK 22/08 Q1017=
202305311020 METAR ESMX 311020Z 25010KT 210V290 CAVOK 22/09 Q1018=
202305310950 METAR ESMX 310950Z 24008KT 200V300 CAVOK 21/09 Q1018=
202305310920 METAR ESMX 310920Z 27009KT 230V310 CAVOK 20/07 Q1018=
202305310850 METAR ESMX 310850Z 27010KT 240V300 CAVOK 20/07 Q1018=
202305310820 METAR ESMX 310820Z 28010KT CAVOK 19/06 Q1019=
202305310750 METAR ESMX 310750Z 25009KT CAVOK 19/07 Q1019=
202305310720 METAR ESMX 310720Z 26011KT 230V290 CAVOK 18/06 Q1019=
202305310650 METAR ESMX 310650Z 23012KT CAVOK 17/09 Q1020=
202305310620 METAR ESMX 310620Z 24011KT CAVOK 16/08 Q1020=
202305310550 METAR ESMX 310550Z 24009KT CAVOK 14/08 Q1020=
202305310520 METAR ESMX 310520Z 23008KT 200V280 CAVOK 13/09 Q1021=
202305310450 METAR ESMX 310450Z 22007KT CAVOK 12/09 Q1021=
202305310420 METAR ESMX 310420Z 22005KT CAVOK 10/07 Q1022=
202305310350 METAR COR ESMX 310350Z 22004KT CAVOK 09/06 Q1022=
202305310320 METAR ESMX 310320Z AUTO 22004KT 9999 NCD 09/05 Q1022=
202305310250 METAR ESMX 310250Z AUTO 22006KT 9999 NCD 09/05 Q1022=
202305310220 METAR ESMX 310220Z AUTO 18005KT 9999 NCD 08/04 Q1023=
202305310150 METAR ESMX 310150Z AUTO 22005KT 9999 NCD 09/05 Q1023=
202305310120 METAR ESMX 310120Z AUTO 22006KT 9999 NCD 09/06 Q1023=
202305310050 METAR ESMX 310050Z AUTO 22005KT 9999 NCD 09/06 Q1023=
202305310020 METAR ESMX 310020Z AUTO 22006KT 9999 NCD 09/05 Q1023=
202305302350 METAR ESMX 302350Z AUTO 22005KT 9999 NCD 10/06 Q1023=
202305302320 METAR ESMX 302320Z 23004KT CAVOK 11/06 Q1024=
202305302250 METAR ESMX 302250Z AUTO 23004KT 9999 NCD 11/06 Q1024=
202305302220 METAR ESMX 302220Z AUTO 25004KT 9999 NCD 12/06 Q1024=
202305302150 METAR ESMX 302150Z AUTO 25005KT 220V280 9999 NCD 12/06 Q1024=
202305302120 METAR ESMX 302120Z AUTO 26005KT 230V290 9999 NCD 15/06 Q1024=
202305302050 METAR ESMX 302050Z AUTO 28007KT 9999 NCD 16/06 Q1024=
202305302020 METAR ESMX 302020Z 27006KT CAVOK 16/06 Q1024=
202305301950 METAR ESMX 301950Z 25005KT 220V280 CAVOK 17/05 Q1024=
202305301920 METAR ESMX 301920Z 26002KT CAVOK 17/04 Q1024=
202305301850 METAR ESMX 301850Z AUTO 27004KT 9999 NCD 19/03 Q1024=
202305301820 METAR ESMX 301820Z AUTO 28005KT 9999 NCD 20/02 Q1024=
202305301750 METAR ESMX 301750Z 26006KT 220V290 CAVOK 21/02 Q1024=
202305301720 METAR ESMX 301720Z 25006KT 220V280 CAVOK 22/02 Q1024=
202305301650 METAR ESMX 301650Z 23004KT 190V320 CAVOK 22/02 Q1024=
202305301620 METAR COR ESMX 301620Z 01005KT 330V030 CAVOK 21/01 Q1025=
202305301550 METAR ESMX 301550Z 02006KT 350V070 CAVOK 22/M01 Q1025=
202305301520 METAR ESMX 301520Z 35007KT 320V030 CAVOK 22/01 Q1025=
202305301450 METAR ESMX 301450Z 35009KT 300V020 CAVOK 22/02 Q1025=
202305301420 METAR ESMX 301420Z 33005KT 270V030 CAVOK 21/01 Q1025=
202305301350 METAR ESMX 301350Z 34008KT 320V030 CAVOK 22/03 Q1025=
202305301320 METAR ESMX 301320Z 02008KT 340V050 CAVOK 21/02 Q1025=
202305301250 METAR ESMX 301250Z 03006KT 300V060 CAVOK 21/02 Q1025=
202305301220 METAR ESMX 301220Z 02006KT 340V060 CAVOK 21/02 Q1025=
202305301150 METAR ESMX 301150Z 36005G25KT 280V080 CAVOK 20/02 Q1025=
202305301120 METAR ESMX 301120Z 01004KT 290V100 CAVOK 20/02 Q1025=
202305301050 METAR ESMX 301050Z 36005KT 270V050 CAVOK 19/02 Q1025=
202305301020 METAR ESMX 301020Z 01006KT 320V080 CAVOK 19/02 Q1025=
202305300950 METAR ESMX 300950Z 35006KT 310V070 CAVOK 18/04 Q1025=
202305300920 METAR ESMX 300920Z 01007KT 330V060 CAVOK 18/03 Q1025=
202305300850 METAR ESMX 300850Z 01006KT 330V070 CAVOK 17/03 Q1025=
202305300820 METAR ESMX 300820Z 03010KT CAVOK 17/03 Q1025=
202305300750 METAR ESMX 300750Z 36008KT 330V050 CAVOK 16/04 Q1025=
202305300720 METAR ESMX 300720Z 35008KT CAVOK 15/04 Q1025=
202305300650 METAR ESMX 300650Z 01009KT 320V040 CAVOK 15/04 Q1024=
202305300620 METAR ESMX 300620Z 01008KT CAVOK 14/04 Q1024=
202305300550 METAR ESMX 300550Z 36006KT CAVOK 13/05 Q1024=
202305300520 METAR ESMX 300520Z AUTO 36006KT 330V030 9999 NCD 12/04 Q1024=
202305300450 METAR ESMX 300450Z 35008KT CAVOK 11/04 Q1023=
202305300420 METAR ESMX 300420Z 36007KT CAVOK 09/03 Q1023=
202305300350 METAR ESMX 300350Z 35005KT CAVOK 08/03 Q1023=
202305300320 METAR ESMX 300320Z AUTO 35007KT 9999 NCD 07/03 Q1022=
202305300250 METAR ESMX 300250Z AUTO 35007KT 9999 NCD 05/01 Q1022=
202305300220 METAR ESMX 300220Z AUTO 35007KT 9999 NCD 06/02 Q1022=
202305300150 METAR ESMX 300150Z AUTO 34005KT 9999 NCD 04/01 Q1022=
202305300120 METAR ESMX 300120Z AUTO 31004KT 9999 NCD 05/02 Q1021=
202305300050 METAR ESMX 300050Z AUTO 31004KT 9999 NCD 06/01 Q1021=
202305300020 METAR ESMX 300020Z AUTO 31004KT 9999 NCD 05/02 Q1021=
202305292350 METAR ESMX 292350Z 33004KT CAVOK 06/02 Q1021=
202305292320 METAR COR ESMX 292320Z 32003KT 280V010 CAVOK 07/02 Q1021=
202305292250 METAR COR ESMX 292250Z 32003KT CAVOK 08/02 Q1020=
202305292220 METAR ESMX 292220Z AUTO 30005KT 9999 NCD 09/02 Q1020=
202305292150 METAR ESMX 292150Z AUTO 30005KT 9999 NCD 10/02 Q1020=
202305292120 METAR ESMX 292120Z AUTO 29005KT 9999 NCD 11/02 Q1020=
202305292050 METAR ESMX 292050Z AUTO 30005KT 9999 NCD 12/01 Q1020=
202305292020 METAR ESMX 292020Z 30005KT 270V330 CAVOK 13/02 Q1020=
202305291950 METAR ESMX 291950Z 29007KT CAVOK 14/02 Q1019=
202305291920 METAR ESMX 291920Z AUTO 29009KT 250V320 9999 NCD 15/02 Q1019=
202305291850 METAR ESMX 291850Z AUTO 28008KT 250V320 9999 NCD 16/03 Q1019=
202305291820 METAR ESMX 291820Z AUTO 25008KT 220V280 9999 NCD 17/04 Q1018=
202305291750 METAR ESMX 291750Z AUTO 28007KT 250V310 9999 NCD 18/01 Q1018=
202305291720 METAR ESMX 291720Z 26010KT 230V290 CAVOK 19/01 Q1018=
202305291650 METAR ESMX 291650Z 28009KT 260V320 CAVOK 19/01 Q1018=
202305291620 METAR ESMX 291620Z 30007KT 270V330 CAVOK 20/02 Q1018=
202305291550 METAR ESMX 291550Z 24005KT 200V330 CAVOK 20/02 Q1019=
202305291520 METAR ESMX 291520Z 27006KT 220V310 CAVOK 20/01 Q1019=
202305291450 METAR ESMX 291450Z 28006KT 230V350 CAVOK 20/01 Q1019=
202305291420 METAR ESMX 291420Z 26008KT 220V320 CAVOK 20/01 Q1019=
202305291350 METAR ESMX 291350Z 27008KT 230V300 CAVOK 20/02 Q1019=
202305291320 METAR ESMX 291320Z 32006KT 290V360 CAVOK 19/01 Q1019=
202305291250 METAR ESMX 291250Z VRB05KT CAVOK 20/02 Q1020=
202305291220 METAR ESMX 291220Z VRB04KT CAVOK 18/02 Q1020=
202305291150 METAR ESMX 291150Z 01005KT 310V050 CAVOK 19/01 Q1020=
202305291120 METAR ESMX 291120Z 03005KT 330V110 CAVOK 19/02 Q1020=
202305291050 METAR ESMX 291050Z 36007KT 330V040 CAVOK 18/02 Q1020=
202305291020 METAR ESMX 291020Z 31005KT 250V020 CAVOK 18/02 Q1020=
202305290950 METAR ESMX 290950Z 32006KT 290V350 CAVOK 18/02 Q1020=
202305290920 METAR ESMX 290920Z 32006KT 280V350 CAVOK 17/02 Q1020=
202305290850 METAR ESMX 290850Z 31005KT 250V030 CAVOK 16/03 Q1020=
202305290820 METAR ESMX 290820Z 25004KT 190V340 CAVOK 16/05 Q1020=
202305290750 METAR ESMX 290750Z 25005KT 220V290 CAVOK 15/06 Q1020=
202305290720 METAR ESMX 290720Z 23004KT 220V300 CAVOK 14/06 Q1020=
202305290650 METAR ESMX 290650Z 28003KT 220V330 CAVOK 13/07 Q1020=
202305290620 METAR ESMX 290620Z 24004KT 180V310 CAVOK 12/07 Q1020=
202305290550 METAR ESMX 290550Z 27003KT 230V310 CAVOK 11/08 Q1020=
202305290520 METAR ESMX 290520Z 27005KT CAVOK 10/07 Q1020=
202305290450 METAR ESMX 290450Z 26004KT CAVOK 09/07 Q1020=
202305290420 METAR ESMX 290420Z 26003KT CAVOK 07/07 Q1020=
202305290350 METAR COR ESMX 290350Z 24003KT CAVOK 06/06 Q1020=
202305290320 METAR ESMX 290320Z AUTO VRB02KT 9999 NCD 05/05 Q1019=
202305290250 METAR ESMX 290250Z AUTO 27003KT 9999 NCD 05/05 Q1019=
202305290220 METAR ESMX 290220Z AUTO 22004KT 9999 NCD 04/04 Q1019=
202305290150 METAR ESMX 290150Z AUTO 28003KT 9999 NCD 04/03 Q1019=
202305290120 METAR ESMX 290120Z AUTO 22003KT 9999 NCD 05/05 Q1019=
202305290050 METAR ESMX 290050Z AUTO 24002KT 9999 NCD 06/04 Q1019=
202305290020 METAR ESMX 290020Z AUTO VRB03KT 9999 NCD 08/05 Q1019=
202305282350 METAR ESMX 282350Z AUTO 26003KT 230V300 9999 NCD 08/05 Q1019=
202305282320 METAR ESMX 282320Z AUTO 26004KT 9999 NCD 08/04 Q1019=
202305282250 METAR ESMX 282250Z AUTO 26004KT 230V290 9999 NCD 08/04 Q1019=
202305282220 METAR ESMX 282220Z AUTO 27004KT 9999 NCD 08/04 Q1019=
202305282150 METAR ESMX 282150Z AUTO 27005KT 9999 NCD 09/04 Q1019=
202305282120 METAR ESMX 282120Z AUTO 27005KT 9999 NCD 09/04 Q1019=
202305282050 METAR ESMX 282050Z AUTO 26004KT 9999 NCD 09/04 Q1019=
202305282020 METAR ESMX 282020Z AUTO 26004KT 9999 NCD 09/04 Q1019=
202305281950 METAR ESMX 281950Z AUTO 24004KT 9999 NCD 09/04 Q1019=
202305281920 METAR ESMX 281920Z AUTO 26004KT 9999 NCD 11/04 Q1019=
202305281850 METAR ESMX 281850Z 26006KT 230V290 CAVOK 13/04 Q1018=
202305281820 METAR ESMX 281820Z 27007KT 240V310 CAVOK 14/04 Q1018=
202305281750 METAR ESMX 281750Z 27007KT 9999 FEW048 14/04 Q1018=
202305281720 METAR ESMX 281720Z 26010KT 230V300 9999 FEW048 15/04 Q1018=
202305281650 METAR ESMX 281650Z 27009KT 240V320 9999 FEW048 15/04 Q1018=
202305281620 METAR ESMX 281620Z 27011KT 220V300 CAVOK 16/04 Q1018=
202305281550 METAR ESMX 281550Z 27010KT 210V310 CAVOK 15/04 Q1018=
202305281520 METAR ESMX 281520Z 26012KT 200V290 CAVOK 16/04 Q1018=
202305281450 METAR ESMX 281450Z 28014KT CAVOK 16/03 Q1018=
202305281420 METAR ESMX 281420Z 27012KT 240V310 CAVOK 16/03 Q1018=
202305281350 METAR ESMX 281350Z 24013KT CAVOK 17/04 Q1018=
202305281320 METAR ESMX 281320Z 27010KT 230V300 CAVOK 16/03 Q1018=
202305281250 METAR ESMX 281250Z 26012KT 230V290 CAVOK 18/04 Q1018=
202305281220 METAR ESMX 281220Z 25012KT 210V290 CAVOK 17/03 Q1018=
202305281150 METAR ESMX 281150Z 24014KT 200V280 CAVOK 18/04 Q1018=
202305281120 METAR ESMX 281120Z 26012KT 220V280 9999 SCT047 16/05 Q1018=
202305281050 METAR ESMX 281050Z 26013KT 230V300 9999 SCT045 17/05 Q1018=
202305281020 METAR ESMX 281020Z 26012KT 220V290 9999 SCT045 17/05 Q1018=
202305280950 METAR ESMX 280950Z 26009KT 220V290 9999 SCT038 15/07 Q1018=
202305280920 METAR ESMX 280920Z AUTO 25009KT 210V280 9999 SCT033/// BKN051/// 15/07 Q1018=
202305280850 METAR ESMX 280850Z AUTO 25010KT 210V280 9999 SCT034/// OVC053/// 15/07 Q1019=
202305280820 METAR ESMX 280820Z AUTO 26010KT 220V310 9999 SCT028/// BKN053/// 14/07 Q1019=
202305280750 METAR ESMX 280750Z AUTO 26010KT 230V300 9999 SCT016/// BKN022/// BKN028/// 14/09 Q1019=
202305280720 METAR ESMX 280720Z AUTO 23009KT 200V270 9999 BKN015/// OVC064/// 13/09 Q1019=
202305280650 METAR ESMX 280650Z AUTO 24007KT 210V280 9999 BKN014/// OVC061/// 11/09 Q1019=
202305280620 METAR ESMX 280620Z AUTO 24006KT 9999 OVC015/// 11/09 Q1019=
202305280550 METAR ESMX 280550Z AUTO 23008KT 9999 FEW015/// BKN066/// BKN130/// 11/09 Q1019=
202305280520 METAR ESMX 280520Z AUTO 22006KT 9999 BKN130/// 10/09 Q1019=
202305280450 METAR ESMX 280450Z AUTO 22006KT 9999 BKN140/// 10/09 Q1019=
202305280420 METAR ESMX 280420Z AUTO 23006KT 9999 BKN150/// 09/08 Q1019=
202305280350 METAR ESMX 280350Z AUTO 22006KT 9999 FEW130/// BKN170/// 08/08 Q1019=
202305280320 METAR ESMX 280320Z AUTO 21006KT 9999 OVC160/// 08/07 Q1019=
202305280250 METAR ESMX 280250Z AUTO 19006KT 9999 SCT150/// OVC170/// 08/08 Q1019=
202305280220 METAR ESMX 280220Z AUTO 19005KT 9999 SCT150/// BKN170/// 07/07 Q1019=
202305280150 METAR ESMX 280150Z AUTO 19006KT 9999 FEW170/// 07/06 Q1020=
202305280120 METAR ESMX 280120Z AUTO 19006KT 9999 NCD 07/06 Q1020=
202305280050 METAR ESMX 280050Z AUTO 19005KT 9999 NCD 07/06 Q1020=
202305280020 METAR ESMX 280020Z AUTO 20005KT 9999 NCD 08/06 Q1020=
202305272350 METAR ESMX 272350Z AUTO 20005KT 9999 NCD 07/05 Q1020=
202305272320 METAR ESMX 272320Z AUTO 22005KT 9999 NCD 07/05 Q1021=
202305272250 METAR ESMX 272250Z AUTO 18005KT 9999 NCD 09/05 Q1021=
202305272220 METAR ESMX 272220Z AUTO 18006KT 9999 NCD 10/05 Q1021=
202305272150 METAR ESMX 272150Z AUTO 22005KT 9999 NCD 10/05 Q1021=
202305272120 METAR ESMX 272120Z AUTO 22004KT 9999 NCD 10/05 Q1022=
202305272050 METAR ESMX 272050Z AUTO 22004KT 9999 NCD 11/05 Q1022=
202305272020 METAR ESMX 272020Z AUTO 22005KT 9999 NCD 11/05 Q1022=
202305271950 METAR ESMX 271950Z AUTO 23004KT 9999 NCD 12/04 Q1022=
202305271920 METAR ESMX 271920Z AUTO 24006KT 9999 NCD 14/04 Q1022=
202305271850 METAR ESMX 271850Z AUTO 26007KT 9999 NCD 15/03 Q1022=
202305271820 METAR ESMX 271820Z AUTO 27009KT 9999 NCD 16/04 Q1022=
202305271750 METAR ESMX 271750Z AUTO 27007KT 9999 NCD 18/04 Q1022=
202305271720 METAR ESMX 271720Z AUTO 26008KT 220V290 9999 NCD 19/04 Q1022=
202305271650 METAR ESMX 271650Z AUTO 26007KT 9999 NCD 19/03 Q1022=
202305271620 METAR ESMX 271620Z AUTO 23008KT 180V290 9999 NCD 20/04 Q1022=
202305271550 METAR ESMX 271550Z AUTO 21010KT 9999 NCD 20/03 Q1022=
202305271520 METAR ESMX 271520Z AUTO 21008KT 190V250 9999 NCD 21/02 Q1023=
202305271450 METAR ESMX 271450Z AUTO 21009KT 9999 NCD 20/02 Q1023=
202305271420 METAR ESMX 271420Z AUTO 19008KT 160V230 9999 NCD 20/01 Q1023=
202305271350 METAR ESMX 271350Z AUTO 21008KT 160V250 9999 NCD 21/03 Q1024=
202305271320 METAR ESMX 271320Z AUTO 20010KT 170V230 9999 NCD 20/02 Q1024=
202305271250 METAR ESMX 271250Z AUTO 21007KT 160V280 9999 NCD 20/01 Q1024=
202305271220 METAR ESMX 271220Z AUTO 22009KT 190V250 9999 NCD 21/02 Q1025=
202305271150 METAR ESMX 271150Z AUTO 23007KT 190V270 9999 NCD 19/02 Q1025=
202305271120 METAR ESMX 271120Z AUTO 20008KT 120V260 9999 FEW200/// 20/02 Q1025=
202305271050 METAR ESMX 271050Z AUTO 22008KT 170V280 9999 FEW170/// 19/03 Q1026=
202305271020 METAR ESMX 271020Z AUTO 20010KT 160V240 9999 NCD 19/02 Q1026=
202305270950 METAR ESMX 270950Z AUTO 21010KT 9999 NCD 18/01 Q1026=
202305270920 METAR ESMX 270920Z 22010KT 180V250 CAVOK 18/03 Q1027=
202305270850 METAR ESMX 270850Z 23008KT 180V270 CAVOK 17/03 Q1027=
202305270820 METAR ESMX 270820Z 21008KT CAVOK 16/03 Q1027=
202305270750 METAR ESMX 270750Z 22006KT 210V280 CAVOK 16/03 Q1027=
202305270720 METAR ESMX 270720Z 23005KT CAVOK 15/03 Q1028=
202305270650 METAR ESMX 270650Z 18004KT 150V240 CAVOK 14/05 Q1027=
202305270620 METAR ESMX 270620Z 22002KT CAVOK 13/05 Q1027=
202305270550 METAR ESMX 270550Z VRB02KT CAVOK 12/05 Q1027=
202305270520 METAR ESMX 270520Z 00000KT CAVOK 12/05 Q1027=
202305270450 METAR ESMX 270450Z 23001KT CAVOK 08/05 Q1027=
202305270420 METAR ESMX 270420Z AUTO 20001KT 9999 NCD 06/05 Q1027=
202305270350 METAR ESMX 270350Z AUTO 18002KT 9999 NCD 03/02 Q1027=
202305270320 METAR ESMX 270320Z AUTO 00000KT 9999 NCD 02/01 Q1027=
202305270250 METAR ESMX 270250Z AUTO 00000KT 9999 NCD 02/02 Q1027=
202305270220 METAR ESMX 270220Z AUTO 19002KT 9999 NCD 01/01 Q1027=
202305270150 METAR ESMX 270150Z AUTO 17002KT 9999 NCD 03/01 Q1027=
202305270120 METAR ESMX 270120Z 19002KT CAVOK 02/01 Q1027=
202305270050 METAR ESMX 270050Z 18003KT CAVOK 03/02 Q1027=
202305270020 METAR ESMX 270020Z 00000KT CAVOK 03/03 Q1027=
202305262350 METAR ESMX 262350Z 00000KT CAVOK 04/02 Q1027=
202305262320 METAR ESMX 262320Z 18001KT CAVOK 05/02 Q1027=
202305262250 METAR COR ESMX 262250Z 00000KT CAVOK 07/03 Q1027=
202305262220 METAR ESMX 262220Z AUTO 28005KT 9999 NCD 06/02 Q1026=
202305262150 METAR ESMX 262150Z AUTO VRB02KT 9999 NCD 06/01 Q1026=
202305262120 METAR ESMX 262120Z AUTO 22003KT 9999 NCD 06/01 Q1026=
202305262050 METAR ESMX 262050Z AUTO 25003KT 9999 NCD 07/03 Q1026=
202305262020 METAR ESMX 262020Z AUTO VRB02KT 9999 NCD 08/02 Q1026=
202305261950 METAR ESMX 261950Z AUTO 03004KT 9999 NCD 10/02 Q1025=
202305261920 METAR ESMX 261920Z AUTO 04005KT 9999 NCD 13/01 Q1025=
202305261850 METAR ESMX 261850Z AUTO 03004KT 010V070 9999 NCD 14/01 Q1025=
202305261820 METAR ESMX 261820Z AUTO 33004KT 9999 NCD 15/01 Q1024=
202305261750 METAR ESMX 261750Z AUTO 34005KT 9999 NCD 16/00 Q1024=
202305261720 METAR ESMX 261720Z 33008KT CAVOK 16/M00 Q1024=
202305261650 METAR ESMX 261650Z 34008KT CAVOK 17/M01 Q1024=
202305261620 METAR ESMX 261620Z 34009KT CAVOK 17/M02 Q1024=
202305261550 METAR ESMX 261550Z 34010KT CAVOK 17/M01 Q1024=
202305261520 METAR ESMX 261520Z 34010KT 310V010 CAVOK 17/M01 Q1024=
202305261450 METAR ESMX 261450Z 33009KT 290V010 CAVOK 17/M00 Q1023=
202305261420 METAR ESMX 261420Z 35007KT 320V020 CAVOK 17/M00 Q1023=
202305261350 METAR ESMX 261350Z 30009KT 270V350 CAVOK 18/01 Q1023=
202305261320 METAR ESMX 261320Z 33009G19KT 290V010 CAVOK 17/01 Q1023=
202305261250 METAR ESMX 261250Z 31009KT 260V340 CAVOK 16/00 Q1023=
202305261220 METAR ESMX 261220Z 27010KT CAVOK 17/01 Q1023=
202305261150 METAR ESMX 261150Z 32012KT 290V350 CAVOK 17/01 Q1023=
202305261120 METAR ESMX 261120Z 30010KT 260V340 CAVOK 17/03 Q1023=
202305261050 METAR ESMX 261050Z 30012KT 260V330 CAVOK 15/01 Q1023=
202305261020 METAR ESMX 261020Z 31011KT 280V340 CAVOK 15/02 Q1023=
202305260950 METAR ESMX 260950Z 30010KT 260V350 CAVOK 15/02 Q1023=
202305260920 METAR ESMX 260920Z 30010KT 250V330 9999 FEW047 15/02 Q1023=
202305260850 METAR ESMX 260850Z 30011KT 270V340 9999 FEW042 14/04 Q1022=
202305260820 METAR ESMX 260820Z 28011KT 250V310 CAVOK 13/04 Q1022=
202305260750 METAR ESMX 260750Z 31010KT 280V360 CAVOK 13/03 Q1022=
202305260720 METAR ESMX 260720Z 31010KT 260V350 CAVOK 12/03 Q1022=
202305260650 METAR ESMX 260650Z 30011KT 260V330 CAVOK 12/04 Q1022=
202305260620 METAR ESMX 260620Z 30009KT 260V330 CAVOK 11/05 Q1022=
202305260550 METAR COR ESMX 260550Z 28007KT 230V340 CAVOK 10/06 Q1022=
202305260520 METAR ESMX 260520Z 27006KT 230V290 CAVOK 09/06 Q1022=
202305260450 METAR ESMX 260450Z 26007KT 230V290 CAVOK 08/06 Q1021=
202305260420 METAR ESMX 260420Z 26005KT CAVOK 07/06 Q1021=
202305260350 METAR COR ESMX 260350Z 26005KT CAVOK 07/06 Q1021=
202305260320 METAR ESMX 260320Z AUTO 26006KT 230V290 9999 NCD 07/06 Q1021=
202305260250 METAR ESMX 260250Z AUTO 26006KT 9999 NCD 07/06 Q1021=
202305260220 METAR ESMX 260220Z AUTO 26007KT 9999 NCD 07/06 Q1021=
202305260150 METAR ESMX 260150Z AUTO 25006KT 9999 NCD 07/06 Q1021=
202305260120 METAR ESMX 260120Z AUTO 24006KT 9999 NCD 07/06 Q1021=
202305260050 METAR ESMX 260050Z AUTO 24005KT 9999 NCD 06/05 Q1021=
202305260020 METAR ESMX 260020Z 23005KT CAVOK 06/04 Q1021=
202305252350 METAR ESMX 252350Z 23005KT CAVOK 07/04 Q1021=
202305252320 METAR ESMX 252320Z 22005KT CAVOK 07/03 Q1021=
202305252250 METAR ESMX 252250Z AUTO 25005KT 9999 NCD 08/03 Q1021=
202305252220 METAR ESMX 252220Z 26005KT CAVOK 08/02 Q1021=
202305252150 METAR ESMX 252150Z 27006KT CAVOK 09/02 Q1022=
202305252120 METAR ESMX 252120Z 27006KT CAVOK 10/01 Q1022=
202305252050 METAR ESMX 252050Z 28005KT CAVOK 10/01 Q1021=
202305252020 METAR ESMX 252020Z 28007KT CAVOK 11/01 Q1021=
202305251950 METAR ESMX 251950Z 28007KT CAVOK 12/01 Q1021=
202305251920 METAR ESMX 251920Z AUTO 27009KT 9999 NCD 13/01 Q1021=
202305251850 METAR ESMX 251850Z AUTO 27009KT 9999 NCD 14/02 Q1021=
202305251820 METAR ESMX 251820Z AUTO 29010KT 9999 NCD 15/02 Q1021=
202305251750 METAR ESMX 251750Z AUTO 28010KT 9999 NCD 17/02 Q1021=
202305251720 METAR ESMX 251720Z 29010KT 260V320 CAVOK 18/02 Q1020=
202305251650 METAR ESMX 251650Z 29009KT 250V320 CAVOK 18/02 Q1020=
202305251620 METAR ESMX 251620Z 28009KT 250V310 CAVOK 19/00 Q1020=
202305251550 METAR ESMX 251550Z 28010KT 250V310 CAVOK 19/00 Q1020=
202305251520 METAR ESMX 251520Z 30009KT 270V330 CAVOK 20/01 Q1020=
202305251450 METAR ESMX 251450Z 29010KT 250V340 CAVOK 20/M00 Q1020=
202305251420 METAR ESMX 251420Z 27010KT 230V300 CAVOK 19/M00 Q1020=
202305251350 METAR ESMX 251350Z 27009KT 240V320 CAVOK 20/01 Q1020=
202305251320 METAR ESMX 251320Z 31010KT 290V350 CAVOK 20/02 Q1020=
202305251250 METAR ESMX 251250Z 32010KT 290V350 CAVOK 20/01 Q1020=
202305251220 METAR ESMX 251220Z 29009KT 270V330 CAVOK 20/01 Q1020=
202305251150 METAR ESMX 251150Z 32009KT 260V350 CAVOK 20/01 Q1020=
202305251120 METAR ESMX 251120Z 28010KT 240V330 CAVOK 19/02 Q1020=
202305251050 METAR ESMX 251050Z 30010KT 280V340 CAVOK 19/04 Q1020=
202305251020 METAR ESMX 251020Z 28008KT 240V330 CAVOK 19/05 Q1020=
202305250950 METAR ESMX 250950Z 30009KT 250V340 CAVOK 18/06 Q1020=
202305250920 METAR ESMX 250920Z 29009KT 260V330 9999 FEW038 17/07 Q1020=
202305250850 METAR ESMX 250850Z 30009KT 9999 FEW027 16/08 Q1020=
202305250820 METAR ESMX 250820Z 29008KT 240V330 9999 FEW024 16/09 Q1020=
202305250750 METAR ESMX 250750Z 30008KT 270V340 9999 BKN019 15/10 Q1019=
202305250720 METAR ESMX 250720Z 29007KT 250V320 9999 BKN015 14/11 Q1019=
202305250650 METAR ESMX 250650Z AUTO 31006KT 280V350 9999 BKN012/// OVC015/// 13/10 Q1019=
202305250620 METAR ESMX 250620Z AUTO 30008KT 250V350 9999 OVC009/// 12/10 Q1019=
202305250550 METAR ESMX 250550Z AUTO 29006KT 260V320 9999 OVC009/// 12/11 Q1019=
202305250520 METAR ESMX 250520Z AUTO 26007KT 9999 OVC007/// 11/11 Q1019=
202305250450 METAR ESMX 250450Z AUTO 25007KT 210V280 9999 OVC007/// 11/10 Q1019=
202305250420 METAR ESMX 250420Z AUTO 25007KT 210V290 9999 OVC007/// 11/10 Q1019=
202305250350 METAR ESMX 250350Z AUTO 24007KT 220V290 9999 OVC007/// 11/10 Q1018=
202305250320 METAR ESMX 250320Z AUTO 24006KT 9999 OVC008/// 10/10 Q1018=
202305250250 METAR ESMX 250250Z AUTO 21006KT 9000 OVC007/// 10/10 Q1018=
202305250220 METAR ESMX 250220Z AUTO 22006KT 8000 FEW004/// BKN130/// OVC170/// 10/10 Q1018=
202305250150 METAR ESMX 250150Z AUTO 23003KT 9999 BKN004/// BKN210/// 09/09 Q1019=
202305250120 METAR ESMX 250120Z AUTO 23004KT 9999 SCT140/// 10/10 Q1019=
202305250050 METAR ESMX 250050Z AUTO 23004KT 9999 SCT140/// 10/10 Q1019=
202305250020 METAR ESMX 250020Z AUTO 23004KT 9999 FEW180/// 11/11 Q1019=
202305242350 METAR ESMX 242350Z 23004KT CAVOK 11/11 Q1019=
202305242320 METAR ESMX 242320Z 24004KT CAVOK 12/11 Q1019=
202305242250 METAR ESMX 242250Z 23005KT CAVOK 12/11 Q1019=
202305242220 METAR ESMX 242220Z 25006KT CAVOK 13/10 Q1019=
202305242150 METAR ESMX 242150Z 24005KT CAVOK 13/10 Q1019=
202305242120 METAR ESMX 242120Z 24006KT CAVOK 14/10 Q1018=
202305242050 METAR ESMX 242050Z 25005KT CAVOK 15/10 Q1018=
202305242020 METAR ESMX 242020Z 24007KT 210V270 CAVOK 16/10 Q1018=
202305241950 METAR ESMX 241950Z 23007KT CAVOK 17/10 Q1018=
202305241920 METAR ESMX 241920Z AUTO 24006KT 200V260 9999 NCD 17/10 Q1018=
202305241850 METAR ESMX 241850Z AUTO 25008KT 9999 FEW062/// 19/11 Q1018=
202305241820 METAR ESMX 241820Z AUTO 24008KT 220V280 9999 NCD 19/11 Q1018=
202305241750 METAR ESMX 241750Z 27008KT 230V300 CAVOK 20/11 Q1017=
202305241720 METAR ESMX 241720Z 27010KT CAVOK 21/11 Q1017=
202305241650 METAR ESMX 241650Z 22010KT CAVOK 23/10 Q1017=
202305241620 METAR ESMX 241620Z AUTO 22010KT 9999 NCD 23/09 Q1017=
202305241550 METAR ESMX 241550Z AUTO 22009KT 9999 NCD 24/08 Q1017=
202305241520 METAR ESMX 241520Z AUTO 20014KT 9999 BKN082/// 24/09 Q1017=
202305241450 METAR ESMX 241450Z AUTO 22011KT 190V250 9999 BKN068/// BKN096/// 25/09 Q1017=
202305241420 METAR ESMX 241420Z AUTO 19010KT 170V230 9999 BKN066/// 24/09 Q1017=
202305241350 METAR ESMX 241350Z AUTO 16006KT 130V210 9999 FEW070/// OVC096/// 23/07 Q1017=
202305241320 METAR ESMX 241320Z AUTO 12003KT 020V170 9999 OVC090/// 23/08 Q1017=
202305241250 METAR ESMX 241250Z 17005KT 130V210 CAVOK 23/08 Q1017=
202305241220 METAR ESMX 241220Z 15006KT 120V180 CAVOK 23/08 Q1018=
202305241150 METAR ESMX 241150Z 21006KT 130V260 CAVOK 24/09 Q1018=
202305241120 METAR ESMX 241120Z 18006KT 130V220 CAVOK 23/08 Q1018=
202305241050 METAR ESMX 241050Z 17007KT CAVOK 23/08 Q1018=
202305241020 METAR ESMX 241020Z 17009KT 140V200 CAVOK 23/07 Q1018=
202305240950 METAR ESMX 240950Z 17007KT 120V200 CAVOK 23/08 Q1018=
202305240920 METAR ESMX 240920Z 18005KT 120V220 CAVOK 22/08 Q1018=
202305240850 METAR ESMX 240850Z 14006KT 110V210 CAVOK 21/08 Q1018=
202305240820 METAR ESMX 240820Z 14004KT CAVOK 21/08 Q1017=
202305240750 METAR ESMX 240750Z 12004KT CAVOK 20/08 Q1017=
202305240720 METAR ESMX 240720Z VRB02KT CAVOK 19/09 Q1017=
202305240650 METAR ESMX 240650Z VRB03KT CAVOK 18/09 Q1017=
202305240620 METAR ESMX 240620Z AUTO VRB03KT 9999 NCD 16/09 Q1017=
202305240550 METAR ESMX 240550Z 03003KT 330V090 CAVOK 15/09 Q1016=
202305240520 METAR ESMX 240520Z 03004KT 350V060 CAVOK 14/08 Q1016=
202305240450 METAR ESMX 240450Z 04004KT CAVOK 14/08 Q1016=
202305240420 METAR ESMX 240420Z 02004KT CAVOK 12/09 Q1016=
202305240350 METAR ESMX 240350Z 01003KT CAVOK 10/08 Q1016=
202305240320 METAR ESMX 240320Z AUTO 03003KT 9999 FEW100/// 09/07 Q1016=
202305240250 METAR ESMX 240250Z AUTO 36004KT 9999 FEW082/// 09/06 Q1016=
202305240220 METAR ESMX 240220Z AUTO VRB02KT 9999 SCT110/// 10/07 Q1016=
202305240150 METAR ESMX 240150Z AUTO 06003KT 9999 FEW082/// OVC110/// 11/07 Q1016=
202305240120 METAR ESMX 240120Z AUTO VRB02KT 9999 OVC074/// 11/07 Q1016=
202305240050 METAR ESMX 240050Z AUTO 04005KT 9999 OVC072/// 12/07 Q1015=
202305240020 METAR ESMX 240020Z AUTO 00000KT 9999 SCT066/// BKN110/// 09/07 Q1015=
202305232350 METAR ESMX 232350Z 00000KT CAVOK 09/07 Q1015=
202305232320 METAR ESMX 232320Z VRB02KT CAVOK 09/06 Q1015=
202305232250 METAR ESMX 232250Z 03004KT CAVOK 11/06 Q1015=
202305232220 METAR ESMX 232220Z 03004KT CAVOK 12/07 Q1015=
202305232150 METAR ESMX 232150Z 07003KT CAVOK 13/07 Q1015=
202305232120 METAR ESMX 232120Z 12002KT CAVOK 14/07 Q1014=
202305232050 METAR ESMX 232050Z 12003KT CAVOK 15/06 Q1014=
202305232020 METAR ESMX 232020Z 12003KT CAVOK 15/06 Q1014=
202305231950 METAR ESMX 231950Z 12002KT CAVOK 16/07 Q1014=
202305231920 METAR ESMX 231920Z AUTO 12003KT 9999 BKN057/// OVC066/// 16/06 Q1013=
202305231850 METAR ESMX 231850Z 12003KT CAVOK 17/07 Q1013=
202305231820 METAR ESMX 231820Z AUTO 11003KT 050V120 9999 SCT130/// 18/07 Q1013=
202305231750 METAR ESMX 231750Z 10003KT 050V120 CAVOK 18/07 Q1012=
202305231720 METAR ESMX 231720Z 09004KT 040V110 CAVOK 19/07 Q1012=
202305231650 METAR ESMX 231650Z 10005KT 060V150 CAVOK 19/08 Q1012=
202305231620 METAR ESMX 231620Z 07005KT 020V110 CAVOK 18/08 Q1012=
202305231550 METAR ESMX 231550Z 06006KT 020V130 9999 FEW045 BKN074 17/08 Q1012=
202305231520 METAR COR ESMX 231520Z 06006KT 030V100 CAVOK 17/08 Q1012=
202305231450 METAR ESMX 231450Z 13005KT 070V170 9999 -RA FEW057 OVC078 18/08 Q1013=
202305231420 METAR ESMX 231420Z AUTO 11004KT 060V130 9999 -DZ SCT057/// OVC078/// 18/08 Q1012=
202305231350 METAR ESMX 231350Z 12003KT 9999 FEW072CB BKN096 18/09 Q1012=
202305231320 METAR ESMX 231320Z VRB02KT 9999 FEW039CB OVC080 17/09 Q1012=
202305231250 METAR ESMX 231250Z 12004KT 100V170 9999 FEW047CB BKN080 OVC200 18/07 Q1013 RERA=
202305231220 METAR ESMX 231220Z 14004KT 090V160 9999 BKN070CB OVC190 17/08 Q1013=
202305231150 METAR ESMX 231150Z 15005KT 100V180 9999 FEW051CB BKN076 17/07 Q1013=
202305231120 METAR ESMX 231120Z 16008KT 9999 -RA BKN072 16/08 Q1013=
202305231050 METAR ESMX 231050Z 15008KT CAVOK 18/05 Q1013=
202305231020 METAR ESMX 231020Z 15010KT 120V180 CAVOK 18/04 Q1013=
202305230950 METAR ESMX 230950Z 14008KT 070V200 CAVOK 18/03 Q1013=
202305230920 METAR COR ESMX 230920Z 12007KT 070V150 CAVOK 18/04 Q1013=
202305230850 METAR ESMX 230850Z 14006KT 100V160 CAVOK 17/04 Q1013=
202305230820 METAR ESMX 230820Z 12006KT 060V160 CAVOK 17/04 Q1013=
202305230550 METAR ESMX 230550Z VRB03KT CAVOK 13/05 Q1014=
202305230520 METAR ESMX 230520Z 14003KT CAVOK 12/04 Q1014=
202305230450 METAR ESMX 230450Z 14002KT CAVOK 11/05 Q1014=
202305230420 METAR ESMX 230420Z VRB02KT CAVOK 09/05 Q1014=
202305230350 METAR ESMX 230350Z AUTO VRB02KT 9999 NCD 07/05 Q1015=
202305230320 METAR ESMX 230320Z AUTO 05002KT 9999 NCD 06/06 Q1015=
202305230250 METAR ESMX 230250Z AUTO VRB01KT 9999 NCD 06/05 Q1015=
202305230220 METAR ESMX 230220Z AUTO 00000KT 9999 NCD 06/05 Q1015=
202305230150 METAR ESMX 230150Z AUTO 00000KT 9999 NCD 06/05 Q1016=
202305230120 METAR ESMX 230120Z AUTO 00000KT 9999 NCD 06/04 Q1016=
202305230050 METAR ESMX 230050Z AUTO 00000KT 9999 NCD 06/05 Q1016=
202305230020 METAR ESMX 230020Z AUTO 00000KT 9999 NCD 06/06 Q1016=
202305222350 METAR ESMX 222350Z 00000KT CAVOK 06/05 Q1017=
202305222320 METAR ESMX 222320Z 00000KT CAVOK 07/05 Q1017=
202305222250 METAR ESMX 222250Z 14002KT CAVOK 09/06 Q1017=
202305222220 METAR ESMX 222220Z 00000KT CAVOK 09/05 Q1018=
202305222150 METAR ESMX 222150Z 00000KT CAVOK 11/05 Q1018=
202305222120 METAR ESMX 222120Z 13004KT 100V170 CAVOK 14/05 Q1018=
202305222050 METAR ESMX 222050Z AUTO 15004KT 9999 NCD 15/05 Q1018=
202305222020 METAR ESMX 222020Z 15004KT CAVOK 16/05 Q1018=
202305221950 METAR ESMX 221950Z 14005KT 110V170 CAVOK 17/05 Q1018=
202305221920 METAR ESMX 221920Z 15005KT CAVOK 17/05 Q1018=
202305221850 METAR ESMX 221850Z AUTO 14005KT 9999 NCD 18/05 Q1018=
202305221820 METAR ESMX 221820Z 14008KT 110V170 CAVOK 19/04 Q1018=
202305221750 METAR ESMX 221750Z 14009KT CAVOK 20/04 Q1018=
202305221720 METAR ESMX 221720Z 14007KT CAVOK 21/04 Q1018=
202305221650 METAR ESMX 221650Z 14009KT 080V160 CAVOK 22/04 Q1018=
202305221620 METAR ESMX 221620Z 14010KT 110V170 CAVOK 22/03 Q1018=
202305221550 METAR ESMX 221550Z 16007KT CAVOK 22/03 Q1019=
202305221520 METAR COR ESMX 221520Z 16008KT CAVOK 23/03 Q1019=
202305221450 METAR ESMX 221450Z AUTO 15006KT 100V160 9999 NCD 23/02 Q1019=
202305221420 METAR ESMX 221420Z 16007KT 100V200 CAVOK 24/03 Q1019=
202305221350 METAR ESMX 221350Z 15006KT 090V180 CAVOK 23/03 Q1019=
202305221320 METAR ESMX 221320Z 17008KT CAVOK 23/03 Q1020=
202305221250 METAR ESMX 221250Z 13007KT 090V160 CAVOK 23/03 Q1020=
202305221220 METAR ESMX 221220Z 13007KT 090V160 CAVOK 23/03 Q1020=
202305221150 METAR ESMX 221150Z VRB06KT CAVOK 23/03 Q1020=
202305221120 METAR ESMX 221120Z 16005G15KT 100V220 CAVOK 23/04 Q1021=
202305221050 METAR ESMX 221050Z 14007KT 110V180 CAVOK 23/04 Q1021=
202305221020 METAR ESMX 221020Z 10006KT 040V160 CAVOK 23/04 Q1021=
202305220950 METAR ESMX 220950Z 14007KT 080V190 CAVOK 22/04 Q1022=
202305220920 METAR ESMX 220920Z 14007KT 080V170 CAVOK 22/04 Q1022=
202305220850 METAR ESMX 220850Z 12006KT 070V160 CAVOK 21/05 Q1022=
202305220820 METAR ESMX 220820Z 05006KT 360V100 CAVOK 20/06 Q1022=
202305220750 METAR ESMX 220750Z 03005KT 010V110 CAVOK 19/06 Q1023=
202305220720 METAR ESMX 220720Z 05006KT 020V100 CAVOK 19/06 Q1023=
202305220650 METAR ESMX 220650Z 36004KT CAVOK 17/07 Q1023=
202305220620 METAR ESMX 220620Z 35004KT CAVOK 16/07 Q1023=
202305220550 METAR ESMX 220550Z 35003KT 330V030 CAVOK 15/08 Q1023=
202305220520 METAR ESMX 220520Z 01003KT 330V030 CAVOK 14/07 Q1023=
202305220450 METAR ESMX 220450Z 02003KT CAVOK 13/08 Q1023=
202305220420 METAR ESMX 220420Z VRB02KT CAVOK 12/07 Q1023=
202305220350 METAR ESMX 220350Z 04004KT CAVOK 12/07 Q1024=
202305220320 METAR ESMX 220320Z AUTO 04004KT 9999 FEW130/// BKN140/// 11/07 Q1024=
202305220250 METAR ESMX 220250Z AUTO 04004KT 9999 OVC130/// 10/07 Q1024=
202305220220 METAR ESMX 220220Z AUTO 02004KT 9999 OVC140/// 10/07 Q1024=
202305220150 METAR ESMX 220150Z AUTO VRB02KT 9999 OVC140/// 11/06 Q1024=
202305220120 METAR ESMX 220120Z AUTO VRB01KT 9999 OVC140/// 12/06 Q1024=
202305220050 METAR ESMX 220050Z AUTO 12002KT 9999 OVC140/// 12/05 Q1024=
202305220020 METAR ESMX 220020Z AUTO 12003KT 9999 OVC140/// 12/05 Q1024=
202305212350 METAR ESMX 212350Z AUTO 11003KT 080V160 9999 OVC140/// 13/05 Q1024=
202305212320 METAR ESMX 212320Z AUTO 11004KT 9999 OVC130/// 13/05 Q1025=
202305212250 METAR ESMX 212250Z AUTO 12005KT 080V140 9999 OVC130/// 13/06 Q1025=
202305212220 METAR ESMX 212220Z AUTO 11004KT 090V150 9999 OVC130/// 13/07 Q1025=
202305212150 METAR ESMX 212150Z AUTO 13004KT 9999 SCT130/// 13/08 Q1025=
202305212120 METAR ESMX 212120Z AUTO VRB03KT 9999 NCD 14/08 Q1025=
202305212050 METAR ESMX 212050Z AUTO 13003KT 9999 SCT140/// 15/08 Q1024=
202305212020 METAR ESMX 212020Z AUTO 14003KT 9999 FEW150/// 16/08 Q1024=
202305211950 METAR ESMX 211950Z AUTO 13003KT 9999 FEW130/// 17/08 Q1024=
202305211920 METAR ESMX 211920Z AUTO 12003KT 040V200 9999 BKN150/// 18/09 Q1024=
202305211850 METAR ESMX 211850Z AUTO 13003KT 080V160 9999 NCD 18/09 Q1024=
202305211820 METAR ESMX 211820Z AUTO 12004KT 070V140 9999 NCD 19/09 Q1024=
202305211750 METAR ESMX 211750Z AUTO 11005KT 060V140 9999 NCD 20/09 Q1024=
202305211720 METAR ESMX 211720Z AUTO 09006KT 050V130 9999 FEW150/// 21/10 Q1023=
202305211650 METAR ESMX 211650Z 12006KT 020V160 9999 FEW039 SCT055 22/11 Q1023=
202305211620 METAR ESMX 211620Z 13005KT 080V170 9999 SCT039 BKN055 22/11 Q1023=
202305211550 METAR ESMX 211550Z 08005KT 010V130 9999 SCT039 BKN055 23/11 Q1023=
202305211520 METAR ESMX 211520Z AUTO 07007KT 020V130 9999 BKN062/// OVC080/// 23/11 Q1024=
202305211450 METAR ESMX 211450Z 09005G18KT 050V140 CAVOK 24/10 Q1024=
202305211420 METAR ESMX 211420Z 10007KT 040V160 CAVOK 24/10 Q1024=
202305211350 METAR ESMX 211350Z 12006KT 060V190 CAVOK 24/09 Q1024=
202305211320 METAR ESMX 211320Z 09007KT 040V140 CAVOK 23/09 Q1024=
202305211250 METAR ESMX 211250Z AUTO 13005KT 060V230 9999 SCT059/// 23/09 Q1024=
202305211220 METAR ESMX 211220Z 13007KT 070V190 CAVOK 24/10 Q1024=
202305211150 METAR ESMX 211150Z 13007KT 070V170 CAVOK 23/09 Q1024=
202305211120 METAR ESMX 211120Z 14006KT 100V180 CAVOK 23/10 Q1025=
202305211050 METAR ESMX 211050Z 14006KT 070V160 CAVOK 22/09 Q1025=
202305211020 METAR ESMX 211020Z 11006KT 040V160 CAVOK 22/09 Q1025=
202305210950 METAR ESMX 210950Z 12006KT 060V160 CAVOK 23/09 Q1025=
202305210920 METAR ESMX 210920Z AUTO 07005KT 020V150 9999 FEW057/// SCT190/// 22/08 Q1025=
202305210850 METAR ESMX 210850Z AUTO 05005KT 360V110 9999 FEW130/// 21/07 Q1025=
202305210820 METAR ESMX 210820Z AUTO 03006KT 010V080 9999 BKN053/// 20/08 Q1025=
202305210750 METAR ESMX 210750Z AUTO 04005KT 010V070 9999 SCT051/// 18/08 Q1026=
202305210720 METAR ESMX 210720Z AUTO 04005KT 020V080 9999 OVC051/// 18/07 Q1026=
202305210650 METAR ESMX 210650Z AUTO 04005KT 010V070 9999 BKN049/// OVC130/// 16/08 Q1026=
202305210620 METAR ESMX 210620Z AUTO 04005KT 9999 BKN048/// OVC130/// 15/07 Q1026=
202305210550 METAR ESMX 210550Z AUTO 04006KT 9999 OVC048/// 14/06 Q1026=
202305210520 METAR ESMX 210520Z AUTO 03005KT 9999 OVC047/// 13/07 Q1026=
202305210450 METAR ESMX 210450Z AUTO 04004KT 020V080 9999 OVC046/// 12/06 Q1026=
202305210420 METAR ESMX 210420Z AUTO 03005KT 9999 BKN045/// 12/05 Q1026=
202305210350 METAR ESMX 210350Z AUTO 02004KT 9999 FEW046/// 11/05 Q1026=
202305210320 METAR ESMX 210320Z AUTO 03004KT 9999 BKN045/// 11/05 Q1026=
202305210250 METAR ESMX 210250Z AUTO 02003KT 9999 BKN046/// 11/05 Q1026=
202305210220 METAR ESMX 210220Z AUTO 04003KT 9999 OVC045/// 11/05 Q1026=
202305210150 METAR ESMX 210150Z AUTO 04004KT 020V080 9999 OVC047/// 11/05 Q1027=
202305210120 METAR ESMX 210120Z AUTO 03004KT 9999 OVC047/// 11/05 Q1027=
202305210050 METAR ESMX 210050Z AUTO 04003KT 9999 OVC048/// 11/05 Q1027=
202305210020 METAR ESMX 210020Z AUTO 04004KT 360V080 9999 OVC046/// 11/05 Q1027=
202305202350 METAR ESMX 202350Z AUTO 06003KT 030V100 9999 OVC044/// 11/04 Q1027=
202305202320 METAR ESMX 202320Z AUTO VRB02KT 9999 BKN043/// 09/05 Q1028=
202305202250 METAR ESMX 202250Z AUTO VRB03KT 9999 NCD 09/04 Q1028=
202305202220 METAR ESMX 202220Z AUTO 09003KT 030V120 9999 FEW051/// 10/04 Q1028=
202305202150 METAR ESMX 202150Z AUTO 08003KT 020V120 9999 FEW051/// 11/05 Q1028=
202305202120 METAR ESMX 202120Z AUTO VRB03KT 9999 NCD 11/04 Q1028=
202305202050 METAR ESMX 202050Z AUTO VRB02KT 9999 NCD 12/04 Q1028=
202305202020 METAR ESMX 202020Z AUTO VRB03KT 9999 FEW059/// 12/04 Q1028=
202305201950 METAR ESMX 201950Z AUTO 12003KT 080V190 9999 NCD 14/04 Q1028=
202305201920 METAR ESMX 201920Z AUTO 12003KT 060V140 9999 NCD 14/04 Q1028=
202305201850 METAR ESMX 201850Z AUTO 11004KT 050V130 9999 NCD 15/04 Q1028=
202305201820 METAR ESMX 201820Z AUTO 11005KT 050V140 9999 NCD 16/03 Q1028=
202305201750 METAR ESMX 201750Z AUTO 12006KT 080V150 9999 SCT066/// 17/03 Q1028=
202305201720 METAR ESMX 201720Z AUTO 13005KT 070V140 9999 NCD 18/03 Q1028=
202305201650 METAR ESMX 201650Z AUTO 13006KT 070V160 9999 FEW072/// 18/03 Q1028=
202305201620 METAR ESMX 201620Z AUTO 14006KT 100V160 9999 FEW076/// 19/03 Q1028=
202305201550 METAR ESMX 201550Z AUTO 15007KT 090V180 9999 FEW068/// 19/02 Q1028=
202305201520 METAR ESMX 201520Z AUTO 17008KT 9999 BKN070/// 19/00 Q1028=
202305201450 METAR ESMX 201450Z AUTO 14009KT 090V180 9999 SCT072/// 19/M00 Q1028=
202305201420 METAR ESMX 201420Z AUTO 15006KT 9999 NCD 20/M01 Q1028=
202305201350 METAR ESMX 201350Z AUTO 08006KT 020V140 9999 NCD 20/M02 Q1028=
202305201320 METAR ESMX 201320Z AUTO 07005KT 330V110 9999 NCD 20/M03 Q1029=
202305201250 METAR ESMX 201250Z AUTO 07005KT 010V150 9999 NCD 20/M03 Q1029=
202305201220 METAR ESMX 201220Z AUTO 08005KT 010V180 9999 FEW066/// 19/M03 Q1029=
202305201150 METAR ESMX 201150Z AUTO 35004KT 300V060 9999 NCD 18/M03 Q1029=
202305201120 METAR ESMX 201120Z AUTO 04004KT 350V100 9999 NCD 18/M02 Q1030=
202305201050 METAR ESMX 201050Z AUTO 05005KT 330V100 9999 NCD 17/M01 Q1030=
202305201020 METAR ESMX 201020Z AUTO 33006KT 290V020 9999 NCD 17/M00 Q1030=
202305200950 METAR ESMX 200950Z AUTO 17004KT 9999 NCD 16/M00 Q1031=
202305200920 METAR ESMX 200920Z AUTO 36005KT 320V080 9999 NCD 16/01 Q1031=
202305200850 METAR ESMX 200850Z 17004KT CAVOK 15/01 Q1031=
202305200820 METAR ESMX 200820Z AUTO 16006KT 9999 NCD 15/01 Q1031=
202305200750 METAR ESMX 200750Z 05003KT 350V100 CAVOK 14/02 Q1031=
202305200720 METAR ESMX 200720Z 06003KT 020V170 CAVOK 14/03 Q1031=
202305200650 METAR ESMX 200650Z 17003KT CAVOK 12/02 Q1031=
202305200620 METAR ESMX 200620Z 17002KT CAVOK 12/01 Q1031=
202305200550 METAR ESMX 200550Z AUTO 17002KT 9999 FEW160/// 11/02 Q1031=
202305200520 METAR ESMX 200520Z AUTO VRB02KT 9999 FEW140/// SCT160/// 10/04 Q1031=
202305200450 METAR ESMX 200450Z AUTO 00000KT 9999 OVC150/// 08/06 Q1031=
202305200420 METAR ESMX 200420Z AUTO 00000KT 9999 OVC140/// 05/04 Q1031=
202305200350 METAR ESMX 200350Z AUTO 00000KT 9999 OVC140/// 03/03 Q1031=
202305200320 METAR ESMX 200320Z AUTO 16001KT 9999 BKN130/// BKN160/// 03/03 Q1031=
202305200250 METAR ESMX 200250Z AUTO 00000KT 9999 SCT160/// 02/02 Q1031=
202305200220 METAR ESMX 200220Z AUTO 00000KT 9999 NCD 02/02 Q1031=
202305200150 METAR ESMX 200150Z AUTO 00000KT 9999 NCD 03/03 Q1031=
202305200120 METAR ESMX 200120Z AUTO 17003KT 9999 NCD 04/03 Q1031=
202305200050 METAR ESMX 200050Z AUTO 17003KT 9999 NCD 05/03 Q1031=
202305200020 METAR ESMX 200020Z AUTO 17002KT 9999 NCD 06/02 Q1031=
202305192350 METAR ESMX 192350Z AUTO 18003KT 9999 NCD 07/02 Q1031=
202305192320 METAR ESMX 192320Z AUTO 16004KT 9999 FEW170/// 09/02 Q1031=
202305192250 METAR ESMX 192250Z AUTO 15004KT 9999 FEW170/// 09/03 Q1031=
202305192220 METAR ESMX 192220Z AUTO 17004KT 9999 NCD 09/03 Q1031=
202305192150 METAR ESMX 192150Z AUTO 18006KT 9999 NCD 09/03 Q1031=
202305192120 METAR ESMX 192120Z AUTO 17006KT 9999 NCD 10/03 Q1031=
202305192050 METAR ESMX 192050Z AUTO 16006KT 9999 NCD 11/02 Q1030=
202305192020 METAR ESMX 192020Z AUTO 16005KT 9999 NCD 11/01 Q1030=
202305191950 METAR ESMX 191950Z AUTO 16005KT 9999 NCD 12/M01 Q1030=
202305191920 METAR ESMX 191920Z AUTO 16007KT 9999 NCD 13/M02 Q1030=
202305191850 METAR ESMX 191850Z AUTO 17008KT 9999 NCD 14/M01 Q1030=
202305191820 METAR ESMX 191820Z AUTO 16011KT 9999 NCD 15/01 Q1029=
202305191750 METAR ESMX 191750Z AUTO 15011KT 9999 NCD 17/02 Q1029=
202305191720 METAR ESMX 191720Z AUTO 21004KT 9999 NCD 18/02 Q1029=
202305191650 METAR ESMX 191650Z 23005KT CAVOK 19/02 Q1028=
202305191620 METAR ESMX 191620Z 18006KT CAVOK 19/02 Q1028=
202305191550 METAR ESMX 191550Z VRB02KT CAVOK 19/01 Q1028=
202305191520 METAR ESMX 191520Z 16004KT 110V250 CAVOK 20/01 Q1029=
202305191450 METAR ESMX 191450Z VRB04KT CAVOK 19/M00 Q1029=
202305191420 METAR ESMX 191420Z 16004KT 110V280 CAVOK 19/00 Q1029=
202305191350 METAR ESMX 191350Z VRB04KT CAVOK 19/01 Q1029=
202305191320 METAR ESMX 191320Z VRB04KT CAVOK 19/M00 Q1029=
202305191250 METAR ESMX 191250Z 06005KT 350V110 CAVOK 19/01 Q1029=
202305191220 METAR ESMX 191220Z VRB03KT CAVOK 19/02 Q1029=
202305191150 METAR ESMX 191150Z 18006KT 120V200 CAVOK 18/03 Q1030=
202305191120 METAR ESMX 191120Z VRB05KT CAVOK 18/03 Q1030=
202305191050 METAR ESMX 191050Z 17006KT 110V230 CAVOK 17/02 Q1030=
202305191020 METAR ESMX 191020Z 15006KT 100V190 CAVOK 17/04 Q1030=
202305190950 METAR ESMX 190950Z 17005KT 110V240 CAVOK 16/05 Q1030=
202305190920 METAR ESMX 190920Z 18007KT 140V210 CAVOK 16/06 Q1030=
202305190850 METAR ESMX 190850Z 18006KT 150V210 CAVOK 15/06 Q1030=
202305190820 METAR ESMX 190820Z 16006KT 120V200 CAVOK 14/07 Q1030=
202305190750 METAR ESMX 190750Z 14006KT 110V190 CAVOK 13/07 Q1030=
202305190720 METAR ESMX 190720Z 16006KT 110V190 CAVOK 12/07 Q1030=
202305190650 METAR COR ESMX 190650Z 18004KT CAVOK 12/07 Q1030=
202305190620 METAR ESMX 190620Z AUTO 19003KT 9999 NCD 12/08 Q1030=
202305190550 METAR ESMX 190550Z AUTO VRB03KT 9999 FEW001/// 10/08 Q1030=
202305190520 METAR ESMX 190520Z AUTO 33003KT 300V010 2100 BR OVC001/// 08/08 Q1030=
202305190450 METAR ESMX 190450Z AUTO VRB02KT 9999 VV001 08/07 Q1030=
202305190420 METAR ESMX 190420Z AUTO 00000KT 9999 NCD 04/04 Q1030=
202305190350 METAR ESMX 190350Z AUTO 00000KT 9999 NCD 02/02 Q1030=
202305190320 METAR ESMX 190320Z AUTO 00000KT 9999 NCD 01/01 Q1030=
202305190250 METAR ESMX 190250Z AUTO 00000KT 1600 BR NCD 02/02 Q1029=
202305190220 METAR ESMX 190220Z AUTO 00000KT 9999 NCD 01/01 Q1029=
202305190150 METAR ESMX 190150Z AUTO 00000KT 9999 NCD 02/02 Q1029=
202305190120 METAR ESMX 190120Z AUTO 00000KT 9999 NCD 03/03 Q1029=
202305190050 METAR ESMX 190050Z AUTO 00000KT 9999 NCD 03/03 Q1029=
202305190020 METAR ESMX 190020Z AUTO 18002KT 9999 NCD 05/04 Q1029=
202305182350 METAR ESMX 182350Z AUTO 18002KT 9999 NCD 05/05 Q1029=
202305182320 METAR ESMX 182320Z AUTO 18002KT 9999 NCD 04/03 Q1029=
202305182250 METAR ESMX 182250Z AUTO 19004KT 9999 NCD 07/05 Q1029=
202305182220 METAR ESMX 182220Z AUTO 19005KT 9999 NCD 07/05 Q1029=
202305182150 METAR ESMX 182150Z AUTO 18006KT 9999 NCD 08/05 Q1029=
202305182120 METAR ESMX 182120Z AUTO 18006KT 9999 NCD 10/05 Q1028=
202305182050 METAR ESMX 182050Z AUTO 16007KT 9999 NCD 11/05 Q1028=
202305182020 METAR ESMX 182020Z AUTO 16008KT 9999 NCD 12/05 Q1028=
202305181950 METAR ESMX 181950Z AUTO 18006KT 9999 NCD 12/05 Q1028=
202305181920 METAR ESMX 181920Z AUTO 00000KT 9999 NCD 09/05 Q1028=
202305181850 METAR ESMX 181850Z AUTO 08002KT 9999 NCD 12/04 Q1027=
202305181820 METAR ESMX 181820Z AUTO 07003KT 9999 NCD 15/03 Q1027=
202305181750 METAR ESMX 181750Z AUTO 04003KT 350V080 9999 NCD 16/02 Q1027=
202305181720 METAR ESMX 181720Z AUTO 07003KT 010V140 9999 NCD 16/02 Q1027=
202305181650 METAR ESMX 181650Z 19003KT CAVOK 16/02 Q1027=
202305181620 METAR ESMX 181620Z AUTO 01005KT 340V060 9999 NCD 16/02 Q1027=
202305181550 METAR ESMX 181550Z 05004KT 360V120 CAVOK 16/01 Q1027=
202305181520 METAR ESMX 181520Z 03005KT 350V080 CAVOK 16/01 Q1027=
202305181450 METAR ESMX 181450Z 03006KT 360V060 CAVOK 16/01 Q1027=
202305181420 METAR ESMX 181420Z 05005KT 360V100 CAVOK 16/00 Q1027=
202305181350 METAR ESMX 181350Z 04006KT 340V080 CAVOK 15/01 Q1027=
202305181320 METAR ESMX 181320Z 20004KT 140V210 CAVOK 16/01 Q1027=
202305181250 METAR ESMX 181250Z 05006KT 360V140 CAVOK 16/02 Q1027=
202305181220 METAR ESMX 181220Z 20004KT CAVOK 14/01 Q1027=
202305181150 METAR ESMX 181150Z 26005KT 170V320 CAVOK 14/02 Q1027=
202305181120 METAR ESMX 181120Z 30004KT 260V020 CAVOK 14/02 Q1027=
202305181050 METAR ESMX 181050Z 32003KT 240V030 9999 FEW044 13/02 Q1027=
202305181020 METAR ESMX 181020Z 23003KT 220V290 9999 FEW035 12/03 Q1027=
202305180950 METAR ESMX 180950Z 27005KT 220V300 9999 FEW033 12/02 Q1027=
202305180920 METAR ESMX 180920Z 22005KT 170V290 9999 FEW033 11/03 Q1027=
202305180850 METAR ESMX 180850Z 22005KT 170V260 9999 FEW028 10/03 Q1027=
202305180820 METAR ESMX 180820Z AUTO 28004KT 220V350 9999 BKN027/// 11/03 Q1027=
202305180750 METAR ESMX 180750Z AUTO 25005KT 220V280 9999 BKN025/// 09/03 Q1027=
202305180720 METAR ESMX 180720Z AUTO 29006KT 250V330 9999 SCT020/// 09/04 Q1027=
202305180650 METAR ESMX 180650Z AUTO VRB06KT 9999 OVC019/// 08/03 Q1026=
202305180620 METAR ESMX 180620Z AUTO 23007KT 190V260 9999 BKN017/// 08/04 Q1026=
202305180550 METAR ESMX 180550Z AUTO 22004KT 180V280 9999 FEW015/// 07/05 Q1026=
202305180520 METAR ESMX 180520Z AUTO 21004KT 190V250 9999 NCD 06/05 Q1026=
202305180450 METAR ESMX 180450Z AUTO 23003KT 9999 NCD 05/05 Q1025=
202305180420 METAR ESMX 180420Z AUTO 23004KT 9999 NCD 04/04 Q1025=
202305180350 METAR ESMX 180350Z AUTO 23004KT 9999 NCD 02/02 Q1025=
202305180320 METAR ESMX 180320Z AUTO 23003KT 9999 NCD 00/00 Q1025=
202305180250 METAR ESMX 180250Z AUTO 23003KT 9999 NCD 01/01 Q1024=
202305180220 METAR ESMX 180220Z AUTO 23002KT 9999 NCD 00/M00 Q1024=
202305180150 METAR ESMX 180150Z AUTO 19002KT 9999 NCD 01/01 Q1024=
202305180120 METAR ESMX 180120Z AUTO 00000KT 9999 NCD 02/02 Q1024=
202305180050 METAR ESMX 180050Z AUTO 00000KT 9999 NCD 02/02 Q1024=
202305180020 METAR ESMX 180020Z AUTO 26004KT 9999 NCD 04/02 Q1024=
202305172350 METAR ESMX 172350Z AUTO 25005KT 9999 NCD 04/02 Q1023=
202305172320 METAR ESMX 172320Z AUTO 25005KT 220V280 9999 NCD 05/02 Q1023=
202305172250 METAR ESMX 172250Z AUTO 25005KT 9999 NCD 05/02 Q1023=
202305172220 METAR ESMX 172220Z AUTO 24006KT 210V270 9999 NCD 05/02 Q1023=
202305172150 METAR ESMX 172150Z AUTO 23005KT 9999 NCD 04/01 Q1023=
202305172120 METAR ESMX 172120Z AUTO 22006KT 9999 NCD 05/01 Q1022=
202305172050 METAR ESMX 172050Z AUTO 23005KT 9999 NCD 05/01 Q1022=
202305172020 METAR ESMX 172020Z AUTO 23005KT 9999 NCD 06/01 Q1021=
202305171950 METAR ESMX 171950Z AUTO 21004KT 9999 NCD 06/00 Q1021=
202305171920 METAR ESMX 171920Z AUTO 23004KT 9999 NCD 08/00 Q1021=
202305171850 METAR ESMX 171850Z AUTO 25005KT 9999 NCD 09/00 Q1021=
202305171820 METAR ESMX 171820Z AUTO 26007KT 9999 NCD 10/00 Q1020=
202305171750 METAR ESMX 171750Z AUTO 27008KT 230V290 9999 NCD 11/00 Q1020=
202305171720 METAR ESMX 171720Z AUTO 29008KT 9999 NCD 12/M00 Q1019=
202305171650 METAR ESMX 171650Z AUTO 27009KT 240V300 9999 NCD 12/00 Q1019=
202305171620 METAR ESMX 171620Z AUTO 28011KT 250V320 9999 NCD 12/01 Q1018=
202305171550 METAR ESMX 171550Z AUTO 28009KT 9999 FEW066/// 12/02 Q1018=
202305171520 METAR ESMX 171520Z AUTO 29010KT 9999 SCT042/// BKN061/// 11/02 Q1018=
202305171450 METAR ESMX 171450Z 28011KT 250V330 9999 VCSH SCT041 10/02 Q1018=
202305171420 METAR ESMX 171420Z 29012KT 240V340 9999 SCT025 11/02 Q1017=
202305171350 METAR ESMX 171350Z 31012KT 290V350 9999 SCT025 BKN047 09/03 Q1017=
202305171320 METAR ESMX 171320Z 31014KT 280V340 9999 SCT019 BKN026 08/03 Q1017=
202305171250 METAR ESMX 171250Z 30014KT 260V340 9999 BKN014 BKN035 07/04 Q1017=
202305171220 METAR ESMX 171220Z 29015KT 250V320 9999 BKN020 BKN042 08/04 Q1016 REDZ=
202305171150 METAR ESMX 171150Z 29017KT 270V330 9999 BKN019 BKN029 07/03 Q1015 RERA=
202305171120 METAR ESMX 171120Z 29013KT 260V320 9999 BKN019 BKN034 07/03 Q1014=
202305171050 METAR ESMX 171050Z 28013KT 250V320 9999 FEW020 SCT029 BKN039 07/04 Q1013=
202305171020 METAR ESMX 171020Z 28015KT 9999 -DZ BKN022 BKN034 07/04 Q1013=
202305170950 METAR ESMX 170950Z 30013G24KT 270V330 9999 FEW023 BKN037 08/05 Q1012 RERA=
202305170920 METAR ESMX 170920Z 30013G28KT 250V340 9999 FEW016 BKN022 07/06 Q1011=
202305170850 METAR ESMX 170850Z 23014KT 210V270 9999 -RA SCT028 BKN037 BKN046 08/05 Q1011=
202305170820 METAR ESMX 170820Z 23014KT 9999 BKN035 BKN049 10/02 Q1010=
202305170750 METAR ESMX 170750Z 23012KT 200V260 9999 BKN038 09/01 Q1010=
202305170720 METAR ESMX 170720Z 24013KT 210V270 9999 FEW039 BKN041 10/02 Q1010=
202305170650 METAR ESMX 170650Z 25013KT 210V280 9999 FEW033 09/02 Q1009=
202305170620 METAR ESMX 170620Z 25013KT 200V280 9999 BKN029 08/03 Q1009=
202305170550 METAR ESMX 170550Z 25013KT 9999 SCT025 08/04 Q1009=
202305170520 METAR ESMX 170520Z 24012KT CAVOK 08/04 Q1008=
202305170450 METAR ESMX 170450Z 25012KT 220V280 CAVOK 08/05 Q1008=
202305162350 METAR ESMX 162350Z AUTO 20005KT 9999 -DZ OVC010/// 09/09 Q1006=
202305162320 METAR ESMX 162320Z AUTO 20007KT 9999 RA BKN010/// OVC037/// 09/09 Q1007 REDZ=
202305162250 METAR ESMX 162250Z 21007KT 9999 -DZ SCT013 BKN023 OVC034 10/08 Q1007=
202305162220 METAR ESMX 162220Z 22009KT 9999 FEW013 SCT024 BKN035 10/08 Q1007=
202305162150 METAR ESMX 162150Z 22008KT 9999 BKN023 BKN047 10/08 Q1007=
202305162120 METAR ESMX 162120Z 23006KT 9999 FEW013 BKN047 10/08 Q1007=
202305162050 METAR ESMX 162050Z 23007KT 9999 FEW013 BKN046 10/08 Q1008=
202305162020 METAR ESMX 162020Z 23006KT 9999 SCT013 BKN049 10/08 Q1008=
202305161950 METAR ESMX 161950Z 23008KT 9999 BKN014 BKN049 11/09 Q1008=
202305161920 METAR ESMX 161920Z 23008KT 9999 FEW015 BKN096 11/09 Q1008=
202305161850 METAR ESMX 161850Z AUTO 23010KT 9999 OVC016/// 11/09 Q1008=
202305161820 METAR ESMX 161820Z AUTO 23009KT 9999 OVC018/// 12/09 Q1008=
202305161750 METAR ESMX 161750Z AUTO 23011KT 9999 OVC018/// 12/09 Q1008=
202305161720 METAR ESMX 161720Z 23010KT 9999 FEW019 SCT025 BKN072 13/10 Q1007=
202305161650 METAR ESMX 161650Z 23010KT 9999 BKN025 14/10 Q1007=
202305161620 METAR ESMX 161620Z 23010KT 9999 SCT029 BKN035 14/10 Q1007=
202305161550 METAR ESMX 161550Z 24010KT 9999 FEW028 BKN046 15/09 Q1007=
202305161520 METAR ESMX 161520Z 24014KT 9999 BKN026 16/10 Q1007=
202305161450 METAR ESMX 161450Z 23010KT 9999 SCT027 16/11 Q1007=
202305161420 METAR ESMX 161420Z 26008KT 220V290 9999 FEW023 BKN086 16/11 Q1007=
202305161350 METAR ESMX 161350Z 26008KT 230V290 9999 FEW020 15/11 Q1007=
202305161320 METAR ESMX 161320Z 25009KT 9999 SCT020 15/12 Q1007=
202305161250 METAR ESMX 161250Z 27009KT 9999 BKN021 15/11 Q1007=
202305161220 METAR ESMX 161220Z 27010KT 240V300 9999 SCT021 17/11 Q1006=
202305161150 METAR ESMX 161150Z 27010KT 220V290 9999 SCT022 16/11 Q1006=
202305161120 METAR ESMX 161120Z 27010KT 240V300 CAVOK 16/11 Q1006=
202305161050 METAR ESMX 161050Z 28010KT 250V310 9999 FEW018 16/11 Q1006=
202305161020 METAR ESMX 161020Z 27010KT 240V300 9999 SCT020 BKN055 16/12 Q1006=
202305160950 METAR ESMX 160950Z 28010KT 250V320 9999 SCT020 16/12 Q1006=
202305160920 METAR ESMX 160920Z 28008KT 240V320 9999 FEW046 15/12 Q1006=
202305160850 METAR ESMX 160850Z 28008KT 9999 FEW047 14/12 Q1006=
202305160820 METAR ESMX 160820Z 29006KT CAVOK 15/12 Q1006=
202305160750 METAR ESMX 160750Z 28005KT 250V310 CAVOK 13/12 Q1006=
202305160720 METAR ESMX 160720Z 28005KT 250V310 CAVOK 12/12 Q1006 REDZ=
202305160650 METAR ESMX 160650Z 29006KT 260V320 CAVOK 12/12 Q1006=
202305160620 METAR ESMX 160620Z 29006KT 260V320 9999 -DZ BKN057 12/12 Q1006=
202305160550 METAR ESMX 160550Z 29006KT 9999 -RA NSC 11/11 Q1006=
202305160520 METAR ESMX 160520Z 31005KT 9999 -RA NSC 11/11 Q1006=
202305160450 METAR ESMX 160450Z 31006KT 9999 -RA NSC 11/11 Q1006=
202305160420 METAR ESMX 160420Z 31006KT 9000 -RA BKN051 11/11 Q1006=
202305160350 METAR ESMX 160350Z AUTO 31006KT 9999 DZ SCT001/// BKN051/// 11/11 Q1006=
202305160320 METAR ESMX 160320Z AUTO 31006KT 9000 -RA ///025/// 11/11 Q1006=
202305160250 METAR ESMX 160250Z AUTO 30006KT 9999 -RA SCT037/// OVC053/// 11/11 Q1006=
202305160220 METAR ESMX 160220Z AUTO 30006KT 9999 -RA SCT036/// BKN048/// OVC057/// 11/11 Q1006=
202305160150 METAR ESMX 160150Z AUTO 29006KT 9999 RA OVC041/// 11/11 Q1007=
202305160120 METAR ESMX 160120Z AUTO 30003KT 9000 -RA OVC053/// 10/10 Q1007=
202305160050 METAR ESMX 160050Z AUTO 29002KT 8000 -RA OVC055/// 11/11 Q1007 REDZ=
202305160020 METAR ESMX 160020Z AUTO 00000KT 9999 DZ OVC062/// 10/10 Q1007=
202305152350 METAR ESMX 152350Z 00000KT 9999 -DZ BKN064 11/11 Q1007=
202305152320 METAR ESMX 152320Z 26001KT 8000 -DZ BKN064 10/10 Q1008=
202305152250 METAR ESMX 152250Z 05002KT 9999 -RA FEW049 BKN066 11/11 Q1008=
202305152220 METAR ESMX 152220Z VRB03KT 9999 -RA BKN062 12/11 Q1009=
202305152150 METAR ESMX 152150Z 04002KT 9999 -DZ BKN059 12/11 Q1009=
202305152120 METAR ESMX 152120Z VRB03KT CAVOK 12/11 Q1010=
202305152050 METAR ESMX 152050Z VRB03KT 9999 FEW047 SCT064 12/10 Q1010=
202305152020 METAR ESMX 152020Z 05004KT 010V080 9999 SCT047 BKN064 13/11 Q1010=
202305151950 METAR ESMX 151950Z 03004KT CAVOK 12/11 Q1010=
202305151920 METAR ESMX 151920Z AUTO 36004KT 9999 BKN053/// OVC074/// 12/11 Q1010=
202305151850 METAR ESMX 151850Z AUTO 33006KT 9999 BKN080/// OVC110/// 12/11 Q1010=
202305151820 METAR ESMX 151820Z AUTO 34006KT 9999 OVC100/// 13/11 Q1010=
202305151750 METAR ESMX 151750Z AUTO 22003KT 9999 BKN098/// 12/11 Q1010=
202305151720 METAR ESMX 151720Z 19008KT 9999 SCT064CB BKN080 13/11 Q1010=
202305151650 METAR ESMX 151650Z 18012KT 9999 -RA SCT061CB 14/11 Q1010=
202305151620 METAR ESMX 151620Z 28005KT 9999 -SHRA SCT070CB 15/10 Q1010=
202305151550 METAR ESMX 151550Z 30003KT 240V360 9999 -SHRA FEW029 SCT055CB 14/11 Q1010=
202305151520 METAR ESMX 151520Z 08006G18KT 030V120 9999 -SHRA SCT070CB 18/10 Q1010=
202305151450 METAR ESMX 151450Z VRB03KT 9999 -RA FEW076 21/05 Q1010=
202305151420 METAR ESMX 151420Z 12004KT 050V130 CAVOK 21/04 Q1010=
202305151350 METAR ESMX 151350Z 14007KT 100V160 CAVOK 20/04 Q1010=
202305151320 METAR ESMX 151320Z 14005KT 080V170 CAVOK 21/05 Q1011=
202305151250 METAR ESMX 151250Z 11006KT 040V140 9999 FEW050CB BKN098 20/05 Q1011=
202305151220 METAR ESMX 151220Z 07008KT 030V120 9999 FEW050CB BKN088 BKN098 21/06 Q1011=
202305151150 METAR ESMX 151150Z 09008KT 020V140 9999 FEW051CB BKN084 BKN098 21/06 Q1011=
202305151120 METAR ESMX 151120Z 09006KT 030V140 9999 FEW051CB BKN084 BKN098 20/06 Q1012=
202305151050 METAR ESMX 151050Z 09005KT 040V140 CAVOK 20/06 Q1012=
202305151020 METAR ESMX 151020Z 09007KT 020V130 CAVOK 20/06 Q1012=
202305150950 METAR COR ESMX 150950Z 09008KT 020V150 CAVOK 21/06 Q1012=
202305150920 METAR ESMX 150920Z 11008KT 060V160 CAVOK 20/06 Q1013=
202305150850 METAR COR ESMX 150850Z 11007KT 030V140 CAVOK 19/06 Q1013=
202305150820 METAR ESMX 150820Z 10004KT 050V120 CAVOK 19/08 Q1013=
202305150750 METAR ESMX 150750Z 03004KT 010V110 CAVOK 16/09 Q1013=
202305150720 METAR ESMX 150720Z 35003KT CAVOK 15/09 Q1013=
202305150650 METAR ESMX 150650Z 04004KT 360V070 CAVOK 15/08 Q1014=
202305150620 METAR ESMX 150620Z 04005KT CAVOK 13/08 Q1014=
202305150550 METAR COR ESMX 150550Z 05004KT 020V080 CAVOK 12/08 Q1014=
202305150520 METAR ESMX 150520Z 02004KT 350V050 CAVOK 12/07 Q1014=
202305150450 METAR ESMX 150450Z 02005KT CAVOK 11/07 Q1015=
202305150420 METAR ESMX 150420Z 02005KT CAVOK 11/06 Q1015=
202305150350 METAR COR ESMX 150350Z 01005KT CAVOK 10/07 Q1015=
202305150320 METAR ESMX 150320Z AUTO 01004KT 9999 OVC100/// 09/06 Q1015=
202305150250 METAR ESMX 150250Z AUTO 06004KT 030V110 9999 BKN094/// 10/06 Q1016=
202305150220 METAR ESMX 150220Z AUTO 36003KT 9999 SCT094/// BKN110/// 08/07 Q1016=
202305150150 METAR ESMX 150150Z AUTO 02001KT 9999 BKN100/// 08/07 Q1016=
202305150120 METAR ESMX 150120Z AUTO 12002KT 9999 SCT090/// 09/06 Q1017=
202305150050 METAR ESMX 150050Z AUTO 12002KT 9999 OVC092/// 10/07 Q1017=
202305150020 METAR ESMX 150020Z AUTO VRB02KT 9999 BKN098/// 07/07 Q1017=
202305142350 METAR ESMX 142350Z AUTO 04002KT 9999 NCD 05/05 Q1017=
202305142320 METAR ESMX 142320Z AUTO VRB02KT 9999 NCD 07/07 Q1017=
202305142250 METAR ESMX 142250Z AUTO 11001KT 9999 NCD 07/07 Q1018=
202305142220 METAR ESMX 142220Z AUTO 00000KT 9999 FEW150/// 07/07 Q1018=
202305142150 METAR ESMX 142150Z AUTO 00000KT 9999 FEW140/// 07/07 Q1018=
202305142120 METAR ESMX 142120Z AUTO 11002KT 9999 NCD 07/07 Q1019=
202305142050 METAR ESMX 142050Z AUTO 00000KT 9999 NCD 08/07 Q1019=
202305142020 METAR ESMX 142020Z AUTO 00000KT 9999 NCD 10/07 Q1019=
202305141950 METAR ESMX 141950Z AUTO 04004KT 9999 NCD 13/07 Q1019=
202305141920 METAR ESMX 141920Z AUTO 04005KT 9999 NCD 14/07 Q1019=
202305141850 METAR ESMX 141850Z AUTO 05004KT 360V080 9999 NCD 14/08 Q1019=
202305141820 METAR ESMX 141820Z AUTO 06005KT 9999 NCD 15/08 Q1019=
202305141750 METAR ESMX 141750Z AUTO 04005KT 9999 SCT080/// 16/08 Q1019=
202305141720 METAR ESMX 141720Z AUTO 06006KT 030V090 9999 FEW046/// SCT080/// 16/08 Q1019=
202305141650 METAR ESMX 141650Z 04006KT 350V070 9999 FEW038CB BKN076 19/04 Q1019 RESHRA=
202305141620 METAR ESMX 141620Z 03007KT 340V100 9999 TS FEW057 SCT078 18/06 Q1019=
202305141550 METAR COR ESMX 141550Z 10007KT 060V170 9999 TS SCT037 BKN110 20/02 Q1019=
202305141520 METAR ESMX 141520Z 22010KT CAVOK 19/03 Q1019=
202305141450 METAR ESMX 141450Z 22006KT CAVOK 20/05 Q1020=
202305141420 METAR ESMX 141420Z 23010KT 180V260 CAVOK 20/04 Q1020=
202305141350 METAR ESMX 141350Z 14009KT 080V170 CAVOK 22/02 Q1020=
202305141320 METAR ESMX 141320Z 15008G20KT 080V180 CAVOK 22/01 Q1020=
202305141250 METAR ESMX 141250Z 14007KT CAVOK 23/01 Q1020=
202305141220 METAR ESMX 141220Z 13008KT 070V170 CAVOK 22/01 Q1021=
202305141150 METAR ESMX 141150Z 15008KT 110V170 CAVOK 21/01 Q1021=
202305141120 METAR ESMX 141120Z 14008KT 110V190 CAVOK 21/02 Q1022=
202305141050 METAR ESMX 141050Z 14009KT 080V180 CAVOK 21/02 Q1022=
202305141020 METAR ESMX 141020Z 15009KT 070V180 CAVOK 22/02 Q1022=
202305140950 METAR ESMX 140950Z 12007KT 070V180 CAVOK 22/01 Q1022=
202305140920 METAR ESMX 140920Z AUTO 13008KT 030V170 9999 FEW120/// SCT140/// 22/01 Q1023=
202305140850 METAR ESMX 140850Z AUTO 14007KT 100V170 9999 NCD 21/01 Q1023=
202305140820 METAR ESMX 140820Z AUTO 10006KT 040V150 9999 SCT140/// 21/01 Q1023=
202305140750 METAR ESMX 140750Z AUTO 13005KT 080V170 9999 NCD 20/01 Q1023=
202305140720 METAR ESMX 140720Z AUTO 13003KT 060V140 9999 NCD 19/02 Q1024=
202305140650 METAR ESMX 140650Z AUTO 12003KT 9999 NCD 17/04 Q1024=
202305140620 METAR ESMX 140620Z AUTO 19002KT 9999 NCD 16/04 Q1024=
202305140550 METAR ESMX 140550Z AUTO VRB03KT 9999 NCD 15/04 Q1024=
202305140520 METAR ESMX 140520Z AUTO VRB03KT 9999 FEW120/// 14/04 Q1024=
202305140450 METAR ESMX 140450Z AUTO VRB02KT 9999 OVC130/// 11/06 Q1024=
202305140420 METAR ESMX 140420Z AUTO 02004KT 9999 BKN110/// 10/06 Q1024=
202305140350 METAR ESMX 140350Z AUTO 19001KT 9999 SCT100/// BKN130/// 08/07 Q1025=
202305140320 METAR ESMX 140320Z AUTO 19002KT 9999 FEW100/// SCT120/// 07/07 Q1024=
202305140250 METAR ESMX 140250Z AUTO 02003KT 9999 BKN100/// OVC120/// 06/05 Q1025=
202305140220 METAR ESMX 140220Z AUTO 02002KT 9999 OVC110/// 07/06 Q1025=
202305140150 METAR ESMX 140150Z AUTO 00000KT 9999 OVC110/// 05/05 Q1025=
202305140120 METAR ESMX 140120Z AUTO 36002KT 9999 BKN110/// 05/04 Q1025=
202305140050 METAR ESMX 140050Z AUTO 00000KT 9999 BKN100/// 05/05 Q1025=
202305140020 METAR ESMX 140020Z AUTO 00000KT 9999 BKN098/// 06/05 Q1025=
202305132350 METAR ESMX 132350Z AUTO 00000KT 9999 SCT098/// 04/03 Q1025=
202305132320 METAR ESMX 132320Z AUTO 00000KT 9999 NCD 05/03 Q1025=
202305132250 METAR ESMX 132250Z AUTO 00000KT 9999 NCD 05/03 Q1025=
202305132220 METAR ESMX 132220Z AUTO 00000KT 9999 NCD 06/03 Q1025=
202305132150 METAR ESMX 132150Z AUTO 00000KT 9999 NCD 07/03 Q1025=
202305132120 METAR ESMX 132120Z AUTO 00000KT 9999 NCD 08/03 Q1025=
202305132050 METAR ESMX 132050Z AUTO 00000KT 9999 NCD 10/02 Q1026=
202305132020 METAR ESMX 132020Z AUTO 18003KT 9999 NCD 13/01 Q1025=
202305131950 METAR ESMX 131950Z AUTO 19005KT 9999 NCD 16/01 Q1025=
202305131920 METAR ESMX 131920Z AUTO 17005KT 9999 NCD 16/00 Q1025=
202305131850 METAR ESMX 131850Z AUTO 17006KT 9999 NCD 18/M00 Q1025=
202305131820 METAR ESMX 131820Z AUTO 16007KT 9999 NCD 19/M00 Q1025=
202305131750 METAR ESMX 131750Z AUTO 17007KT 9999 NCD 20/M01 Q1025=
202305131720 METAR ESMX 131720Z AUTO 18008KT 9999 NCD 20/M01 Q1025=
202305131650 METAR ESMX 131650Z AUTO 17009KT 9999 NCD 21/M02 Q1025=
202305131620 METAR ESMX 131620Z AUTO 17010KT 9999 NCD 21/M02 Q1025=
202305131550 METAR ESMX 131550Z AUTO 18010KT 9999 NCD 21/M02 Q1025=
202305131520 METAR ESMX 131520Z AUTO 17008KT 140V200 9999 NCD 22/M01 Q1025=
202305131450 METAR ESMX 131450Z AUTO 16008KT 120V190 9999 NCD 21/M01 Q1025=
202305131420 METAR ESMX 131420Z AUTO 20009KT 170V230 9999 FEW094/// 21/M01 Q1025=
202305131350 METAR ESMX 131350Z AUTO 16008KT 130V210 9999 NCD 22/M01 Q1025=
202305131320 METAR ESMX 131320Z AUTO 16008KT 120V210 9999 NCD 22/M01 Q1026=
202305131250 METAR ESMX 131250Z AUTO 18009KT 130V210 9999 NCD 22/M01 Q1026=
202305131220 METAR ESMX 131220Z AUTO 18010KT 120V210 9999 FEW004/// 22/M01 Q1026=
202305131150 METAR ESMX 131150Z AUTO 18009KT 140V220 9999 FEW005/// 22/01 Q1026=
202305131120 METAR ESMX 131120Z AUTO 18011KT 150V230 9999 FEW003/// SCT084/// 22/M00 Q1026=
202305131050 METAR ESMX 131050Z AUTO 19008G19KT 150V230 9999 NCD 22/00 Q1026=
202305131020 METAR ESMX 131020Z AUTO 14008KT 090V190 9999 FEW086/// 21/00 Q1026=
202305130950 METAR ESMX 130950Z AUTO 21009KT 170V240 9999 FEW004/// 21/01 Q1026=
202305130920 METAR ESMX 130920Z AUTO 19008G20KT 130V230 9999 FEW078/// 21/01 Q1027=
202305130850 METAR ESMX 130850Z 16007KT 120V210 CAVOK 19/02 Q1027=
202305130820 METAR ESMX 130820Z 14005KT 070V170 CAVOK 18/03 Q1027=
202305130750 METAR ESMX 130750Z 19006KT 150V210 CAVOK 17/03 Q1027=
202305130720 METAR ESMX 130720Z 16004KT 130V190 CAVOK 16/02 Q1027=
202305130650 METAR COR ESMX 130650Z 14004KT CAVOK 15/02 Q1027=
202305130620 METAR ESMX 130620Z AUTO 13005KT 080V140 9999 NCD 14/02 Q1026=
202305130550 METAR ESMX 130550Z AUTO 17003KT 9999 NCD 14/02 Q1026=
202305130520 METAR ESMX 130520Z AUTO 17003KT 9999 NCD 12/02 Q1026=
202305130450 METAR ESMX 130450Z AUTO 17003KT 9999 NCD 09/05 Q1026=
202305130420 METAR ESMX 130420Z AUTO 00000KT 9999 NCD 05/04 Q1026=
202305130350 METAR ESMX 130350Z AUTO 17001KT 9999 NCD 03/03 Q1026=
202305130320 METAR ESMX 130320Z AUTO 00000KT 9999 NCD 01/01 Q1026=
202305130250 METAR ESMX 130250Z AUTO 00000KT 9999 NCD 02/02 Q1026=
202305130220 METAR ESMX 130220Z AUTO 00000KT 9999 NCD 01/01 Q1026=
202305130150 METAR ESMX 130150Z AUTO 00000KT 9999 NCD 02/01 Q1026=
202305130120 METAR ESMX 130120Z AUTO 00000KT 9999 NCD 03/03 Q1026=
202305130050 METAR ESMX 130050Z AUTO 00000KT 9999 NCD 03/02 Q1026=
202305130020 METAR ESMX 130020Z AUTO 00000KT 9999 NCD 03/01 Q1026=
202305122350 METAR ESMX 122350Z AUTO 00000KT 9999 NCD 03/02 Q1027=
202305122320 METAR ESMX 122320Z AUTO 00000KT 9999 NCD 05/02 Q1027=
202305122250 METAR ESMX 122250Z AUTO 00000KT 9999 NCD 07/02 Q1027=
202305122220 METAR ESMX 122220Z AUTO 18002KT 9999 NCD 06/02 Q1026=
202305122150 METAR ESMX 122150Z AUTO 00000KT 9999 NCD 08/02 Q1026=
202305122120 METAR ESMX 122120Z AUTO 17003KT 9999 NCD 08/01 Q1026=
202305122050 METAR ESMX 122050Z AUTO 17003KT 9999 NCD 10/02 Q1026=
202305122020 METAR ESMX 122020Z AUTO 15004KT 9999 NCD 14/01 Q1026=
202305121950 METAR ESMX 121950Z AUTO 16005KT 9999 NCD 15/01 Q1026=
202305121920 METAR ESMX 121920Z AUTO 17006KT 9999 NCD 15/00 Q1026=
202305121850 METAR ESMX 121850Z AUTO 16008KT 9999 NCD 17/01 Q1025=
202305121820 METAR ESMX 121820Z AUTO 15008KT 110V180 9999 NCD 18/00 Q1025=
202305121750 METAR ESMX 121750Z AUTO 14009KT 110V170 9999 NCD 19/00 Q1024=
202305121720 METAR ESMX 121720Z AUTO 14008KT 9999 NCD 19/00 Q1024=
202305121650 METAR ESMX 121650Z AUTO 18009KT 9999 NCD 20/00 Q1024=
202305121620 METAR ESMX 121620Z AUTO 16007KT 9999 NCD 21/00 Q1024=
202305121550 METAR ESMX 121550Z AUTO 16008KT 130V190 9999 NCD 21/00 Q1024=
202305121520 METAR ESMX 121520Z AUTO 19006KT 140V210 9999 NCD 22/00 Q1024=
202305121450 METAR ESMX 121450Z 16007KT 120V220 CAVOK 22/00 Q1024=
202305121420 METAR ESMX 121420Z 15006KT 100V160 CAVOK 22/01 Q1024=
202305121350 METAR ESMX 121350Z VRB04KT CAVOK 22/00 Q1024=
202305121320 METAR ESMX 121320Z 17006KT 140V210 CAVOK 21/01 Q1025=
202305121250 METAR ESMX 121250Z 14006KT CAVOK 22/M00 Q1025=
202305121220 METAR ESMX 121220Z 14006KT CAVOK 21/M00 Q1025=
202305121150 METAR ESMX 121150Z 17006G22KT 100V220 CAVOK 21/01 Q1025=
202305121120 METAR ESMX 121120Z 16007KT 110V200 CAVOK 20/M00 Q1025=
202305121050 METAR ESMX 121050Z AUTO 14006KT 080V190 9999 NCD 20/M00 Q1025=
202305121020 METAR ESMX 121020Z 19005KT CAVOK 20/02 Q1025=
202305120950 METAR ESMX 120950Z 14006KT 080V200 CAVOK 19/M00 Q1025=
202305120920 METAR ESMX 120920Z 15008KT 100V190 CAVOK 19/00 Q1025=
202305120850 METAR ESMX 120850Z 14007KT 110V170 CAVOK 19/00 Q1025=
202305120820 METAR ESMX 120820Z 13005KT CAVOK 19/01 Q1025=
202305120750 METAR ESMX 120750Z VRB02KT CAVOK 17/04 Q1025=
202305120720 METAR ESMX 120720Z VRB03KT CAVOK 15/04 Q1025=
202305120650 METAR ESMX 120650Z 06003KT 020V110 CAVOK 14/04 Q1025=
202305120620 METAR ESMX 120620Z 05004KT 030V110 CAVOK 13/03 Q1025=
202305120550 METAR ESMX 120550Z 06004KT 360V100 CAVOK 11/03 Q1025=
202305120520 METAR ESMX 120520Z 07004KT 030V110 CAVOK 11/03 Q1025=
202305120450 METAR ESMX 120450Z VRB03KT CAVOK 08/02 Q1025=
202305120420 METAR ESMX 120420Z 01003KT CAVOK 05/02 Q1024=
202305120350 METAR ESMX 120350Z 01003KT CAVOK 03/01 Q1024=
202305120320 METAR ESMX 120320Z AUTO 03003KT 9999 NCD 03/01 Q1024=
202305120250 METAR ESMX 120250Z AUTO 03002KT 9999 NCD 02/01 Q1024=
202305120220 METAR ESMX 120220Z AUTO VRB02KT 9999 NCD 02/00 Q1024=
202305120150 METAR ESMX 120150Z AUTO 05002KT 9999 NCD 02/01 Q1024=
202305120120 METAR ESMX 120120Z AUTO VRB01KT 9999 NCD 02/00 Q1024=
202305120050 METAR ESMX 120050Z AUTO 02003KT 9999 NCD 04/01 Q1024=
202305120020 METAR ESMX 120020Z AUTO 02002KT 9999 NCD 05/01 Q1024=
202305112350 METAR ESMX 112350Z 09002KT CAVOK 04/00 Q1024=
202305112320 METAR ESMX 112320Z VRB02KT CAVOK 04/00 Q1024=
202305112250 METAR ESMX 112250Z 00000KT CAVOK 05/01 Q1024=
202305112220 METAR ESMX 112220Z VRB02KT CAVOK 07/00 Q1024=
202305112150 METAR ESMX 112150Z 11003KT CAVOK 08/00 Q1024=
202305112120 METAR ESMX 112120Z 11002KT CAVOK 09/00 Q1023=
202305112050 METAR ESMX 112050Z 12003KT CAVOK 11/M00 Q1023=
202305112020 METAR ESMX 112020Z 12004KT 080V170 CAVOK 12/M00 Q1023=
202305111950 METAR ESMX 111950Z 13004KT 080V150 CAVOK 13/M00 Q1023=
202305111920 METAR ESMX 111920Z 12004KT 050V170 CAVOK 14/M00 Q1022=
202305111850 METAR ESMX 111850Z 13005KT CAVOK 15/00 Q1022=
202305111820 METAR ESMX 111820Z AUTO 14007KT 090V160 9999 NCD 16/00 Q1022=
202305111750 METAR ESMX 111750Z AUTO 13007KT 030V170 9999 NCD 17/01 Q1021=
202305111720 METAR ESMX 111720Z 14007KT 100V180 CAVOK 18/00 Q1021=
202305111650 METAR ESMX 111650Z 14008KT 080V170 CAVOK 19/00 Q1021=
202305111620 METAR ESMX 111620Z 17007KT 130V200 CAVOK 19/00 Q1021=
202305111550 METAR ESMX 111550Z 14008KT 080V180 CAVOK 19/00 Q1020=
202305111520 METAR ESMX 111520Z 16009KT 120V190 CAVOK 20/00 Q1020=
202305111450 METAR ESMX 111450Z 17009KT 100V210 CAVOK 20/01 Q1020=
202305111420 METAR ESMX 111420Z 17010KT CAVOK 20/02 Q1020=
202305111350 METAR ESMX 111350Z 17009KT 120V200 CAVOK 20/01 Q1020=
202305111320 METAR ESMX 111320Z 16010KT 140V210 CAVOK 20/02 Q1020=
202305111250 METAR ESMX 111250Z 14009KT 070V190 CAVOK 21/02 Q1020=
202305111220 METAR ESMX 111220Z 16011KT CAVOK 20/02 Q1020=
202305111150 METAR ESMX 111150Z 17010KT CAVOK 20/02 Q1020=
202305111120 METAR ESMX 111120Z 15010KT CAVOK 20/03 Q1020=
202305111050 METAR ESMX 111050Z 14010KT 080V190 CAVOK 20/03 Q1020=
202305111020 METAR ESMX 111020Z 14008KT 070V170 CAVOK 19/03 Q1020=
202305110950 METAR ESMX 110950Z 13010KT 060V160 CAVOK 19/04 Q1020=
202305110920 METAR ESMX 110920Z 13008KT 080V170 CAVOK 18/04 Q1020=
202305110850 METAR ESMX 110850Z 14008KT 110V170 CAVOK 18/04 Q1020=
202305110820 METAR ESMX 110820Z 15006KT CAVOK 17/04 Q1020=
202305110750 METAR ESMX 110750Z 14007KT 110V170 CAVOK 16/03 Q1020=
202305110720 METAR ESMX 110720Z 13006KT 090V170 CAVOK 15/03 Q1020=
202305110650 METAR ESMX 110650Z 14007KT 100V170 CAVOK 14/03 Q1019=
202305110620 METAR ESMX 110620Z 14007KT 080V180 CAVOK 13/02 Q1019=
202305110550 METAR ESMX 110550Z 14006KT 090V160 CAVOK 12/02 Q1019=
202305110520 METAR ESMX 110520Z 12007KT 080V150 CAVOK 11/02 Q1019=
202305110450 METAR ESMX 110450Z 12006KT 080V160 CAVOK 10/02 Q1019=
202305110420 METAR ESMX 110420Z 13005KT CAVOK 09/02 Q1019=
202305110350 METAR ESMX 110350Z 11005KT 080V150 CAVOK 08/02 Q1019=
202305110320 METAR ESMX 110320Z AUTO 11004KT 070V140 9999 NCD 08/02 Q1019=
202305110250 METAR ESMX 110250Z AUTO 11004KT 080V140 9999 NCD 08/02 Q1018=
202305110220 METAR ESMX 110220Z AUTO 12004KT 080V160 9999 NCD 08/02 Q1018=
202305110150 METAR ESMX 110150Z AUTO 12004KT 070V160 9999 NCD 08/01 Q1018=
202305110120 METAR ESMX 110120Z AUTO 12004KT 080V160 9999 NCD 08/01 Q1018=
202305110050 METAR ESMX 110050Z AUTO 12004KT 080V150 9999 NCD 09/01 Q1018=
202305110020 METAR ESMX 110020Z AUTO 12004KT 090V160 9999 NCD 09/01 Q1018=
202305102350 METAR ESMX 102350Z 12004KT 070V170 CAVOK 09/01 Q1018=
202305102320 METAR ESMX 102320Z 11005KT 070V140 CAVOK 09/01 Q1018=
202305102250 METAR ESMX 102250Z 12004KT 070V180 CAVOK 09/01 Q1018=
202305102220 METAR ESMX 102220Z 12004KT 080V160 CAVOK 09/00 Q1018=
202305102150 METAR ESMX 102150Z 11004KT 060V150 CAVOK 09/00 Q1018=
202305102120 METAR ESMX 102120Z 10003KT 060V160 CAVOK 10/M00 Q1018=
202305102050 METAR ESMX 102050Z 12004KT 060V140 CAVOK 11/M00 Q1018=
202305102020 METAR ESMX 102020Z 11004KT 060V130 CAVOK 11/M00 Q1018=
202305101950 METAR ESMX 101950Z VRB04KT CAVOK 12/00 Q1018=
202305101920 METAR ESMX 101920Z 11004KT 050V170 CAVOK 13/M00 Q1017=
202305101850 METAR ESMX 101850Z 12005KT 030V170 CAVOK 14/M00 Q1017=
202305101820 METAR ESMX 101820Z AUTO 11007KT 080V170 9999 NCD 15/M00 Q1017=
202305101750 METAR ESMX 101750Z AUTO 12006KT 060V160 9999 NCD 15/M00 Q1017=
202305101720 METAR ESMX 101720Z 13007KT 070V160 CAVOK 16/00 Q1017=
202305101650 METAR ESMX 101650Z 14010KT 100V160 CAVOK 17/00 Q1017=
202305101620 METAR ESMX 101620Z 15011KT 110V180 CAVOK 17/01 Q1017=
202305101550 METAR ESMX 101550Z 15010KT 100V170 CAVOK 17/00 Q1017=
202305101520 METAR ESMX 101520Z 14012KT 090V170 CAVOK 17/M00 Q1017=
202305101450 METAR ESMX 101450Z 14012KT 100V170 CAVOK 18/M01 Q1016=
202305101420 METAR ESMX 101420Z AUTO 15012KT 100V180 9999 NCD 17/M01 Q1016=
202305101350 METAR ESMX 101350Z 13012G26KT 080V170 CAVOK 18/M01 Q1017=
202305101320 METAR ESMX 101320Z AUTO 12010G20KT 040V170 9999 NCD 18/M02 Q1016=
202305101250 METAR ESMX 101250Z 12011KT 060V150 CAVOK 18/M04 Q1016=
202305101220 METAR ESMX 101220Z 13011G21KT 060V170 CAVOK 18/M03 Q1017=
202305101150 METAR ESMX 101150Z 13012KT 080V170 CAVOK 18/M03 Q1016=
202305101120 METAR ESMX 101120Z 14014KT 100V160 CAVOK 18/M04 Q1017=
202305101050 METAR ESMX 101050Z 16012KT 110V190 CAVOK 17/M03 Q1017=
202305101020 METAR ESMX 101020Z 14013KT 100V170 CAVOK 17/M03 Q1017=
202305100950 METAR ESMX 100950Z 14015G27KT 100V170 CAVOK 17/M02 Q1017=
202305100920 METAR ESMX 100920Z 14014KT 080V170 CAVOK 17/M02 Q1017=
202305100850 METAR ESMX 100850Z 13013G24KT 080V170 CAVOK 16/M02 Q1017=
202305100820 METAR ESMX 100820Z 14013G24KT 110V180 CAVOK 16/M01 Q1017=
202305100750 METAR ESMX 100750Z 15011G26KT 100V210 CAVOK 15/M00 Q1017=
202305100720 METAR ESMX 100720Z 14011KT 110V180 CAVOK 15/M00 Q1017=
202305100650 METAR ESMX 100650Z 14010KT 100V160 CAVOK 14/01 Q1017=
202305100620 METAR ESMX 100620Z 14010KT 100V170 CAVOK 13/01 Q1017=
202305100550 METAR ESMX 100550Z 14008KT 110V170 CAVOK 12/01 Q1017=
202305100520 METAR ESMX 100520Z 13007KT CAVOK 11/01 Q1017=
202305100450 METAR ESMX 100450Z 13006KT CAVOK 09/02 Q1017=
202305100420 METAR ESMX 100420Z 13005KT 080V160 CAVOK 09/01 Q1017=
202305100350 METAR ESMX 100350Z 14004KT CAVOK 08/02 Q1017=
202305100320 METAR ESMX 100320Z AUTO 13005KT 9999 NCD 07/02 Q1017=
202305100250 METAR ESMX 100250Z AUTO 13005KT 9999 NCD 06/02 Q1017=
202305100220 METAR ESMX 100220Z AUTO 13005KT 9999 NCD 07/02 Q1018=
202305100150 METAR ESMX 100150Z AUTO 12004KT 080V160 9999 NCD 07/02 Q1018=
202305100120 METAR ESMX 100120Z AUTO 12003KT 080V150 9999 NCD 06/02 Q1018=
202305100050 METAR ESMX 100050Z AUTO 13004KT 100V170 9999 NCD 07/02 Q1018=
202305100020 METAR ESMX 100020Z AUTO 13005KT 9999 NCD 07/02 Q1018=
202305092350 METAR ESMX 092350Z 13006KT 100V160 CAVOK 08/02 Q1018=
202305092320 METAR ESMX 092320Z 13004KT 070V140 CAVOK 07/02 Q1018=
202305092250 METAR ESMX 092250Z 12005KT 080V140 CAVOK 08/02 Q1018=
202305092220 METAR ESMX 092220Z 13004KT CAVOK 08/02 Q1018=
202305092150 METAR ESMX 092150Z 13005KT 080V150 CAVOK 09/01 Q1018=
202305092120 METAR ESMX 092120Z 12004KT 070V140 CAVOK 09/01 Q1018=
202305092050 METAR ESMX 092050Z 11004KT 060V170 CAVOK 09/01 Q1019=
202305092020 METAR ESMX 092020Z 12004KT 080V140 CAVOK 10/00 Q1019=
202305091950 METAR ESMX 091950Z 12005KT 070V170 CAVOK 11/00 Q1019=
202305091920 METAR ESMX 091920Z 13005KT 080V150 CAVOK 12/00 Q1019=
202305091850 METAR ESMX 091850Z AUTO 13007G17KT 080V160 9999 NCD 13/M00 Q1019=
202305091820 METAR ESMX 091820Z AUTO 14008KT 9999 NCD 13/M01 Q1019=
202305091750 METAR ESMX 091750Z AUTO 15011KT 9999 NCD 14/M01 Q1019=
202305091720 METAR ESMX 091720Z 16013KT CAVOK 15/M01 Q1019=
202305091650 METAR ESMX 091650Z 16013KT CAVOK 15/M01 Q1020=
202305091620 METAR ESMX 091620Z 15013KT 120V190 CAVOK 16/M02 Q1020=
202305091550 METAR ESMX 091550Z 17016KT CAVOK 16/M02 Q1020=
202305091520 METAR ESMX 091520Z 16016KT CAVOK 16/M02 Q1021=
202305091450 METAR ESMX 091450Z 16015KT CAVOK 15/M02 Q1021=
202305091420 METAR ESMX 091420Z AUTO 15015KT 9999 NCD 16/M02 Q1021=
202305091350 METAR ESMX 091350Z AUTO 15017KT 9999 NCD 16/M03 Q1021=
202305091320 METAR ESMX 091320Z 15016KT CAVOK 16/M03 Q1022=
202305091250 METAR ESMX 091250Z 15014KT 130V190 CAVOK 16/M02 Q1022=
202305091220 METAR ESMX 091220Z 16014KT 130V190 CAVOK 16/M02 Q1022=
202305091150 METAR ESMX 091150Z AUTO 15017KT 9999 NCD 16/M03 Q1022=
202305091120 METAR ESMX 091120Z 15016KT 110V170 CAVOK 16/M02 Q1023=
202305091050 METAR ESMX 091050Z 15016KT 120V180 CAVOK 16/M01 Q1023=
202305091020 METAR ESMX 091020Z 15015KT 120V190 CAVOK 15/M01 Q1023=
202305090950 METAR ESMX 090950Z 15016KT 110V170 CAVOK 15/M00 Q1023=
202305090920 METAR ESMX 090920Z 15013KT 120V190 CAVOK 15/00 Q1023=
202305090850 METAR ESMX 090850Z 15012KT 110V170 CAVOK 15/02 Q1023=
202305090820 METAR ESMX 090820Z 16012KT 120V180 CAVOK 15/02 Q1024=
202305090750 METAR ESMX 090750Z 17017KT CAVOK 14/02 Q1024=
202305090720 METAR ESMX 090720Z 17010KT 120V190 CAVOK 13/03 Q1024=
202305090650 METAR ESMX 090650Z 16010KT 120V200 CAVOK 12/03 Q1025=
202305090620 METAR ESMX 090620Z 16008KT 120V180 CAVOK 11/03 Q1025=
202305090550 METAR ESMX 090550Z 15006KT 110V190 CAVOK 10/03 Q1025=
202305090520 METAR ESMX 090520Z 15007KT CAVOK 09/03 Q1025=
202305090450 METAR ESMX 090450Z 15006KT CAVOK 08/02 Q1025=
202305090420 METAR ESMX 090420Z 15007KT CAVOK 06/02 Q1025=
202305090350 METAR ESMX 090350Z 15004KT CAVOK 02/01 Q1025=
202305090320 METAR ESMX 090320Z AUTO 16004KT 9999 NCD 00/M00 Q1025=
202305090250 METAR ESMX 090250Z AUTO 16003KT 9999 NCD M01/M02 Q1025=
202305090220 METAR ESMX 090220Z AUTO 16003KT 9999 NCD M00/M00 Q1026=
202305090150 METAR ESMX 090150Z AUTO 00000KT 9999 NCD M00/M00 Q1026=
202305090120 METAR ESMX 090120Z AUTO 16002KT 9999 NCD 01/M00 Q1026=
202305090050 METAR ESMX 090050Z AUTO 00000KT 9999 NCD 01/00 Q1026=
202305090020 METAR ESMX 090020Z AUTO 16002KT 9999 NCD 03/01 Q1026=
202305082350 METAR ESMX 082350Z 16003KT CAVOK 05/01 Q1027=
202305082320 METAR ESMX 082320Z 17005KT CAVOK 07/01 Q1027=
202305082250 METAR ESMX 082250Z 16006KT CAVOK 07/02 Q1027=
202305082220 METAR ESMX 082220Z 16005KT CAVOK 08/02 Q1027=
202305082150 METAR ESMX 082150Z 17005KT CAVOK 08/02 Q1027=
202305082120 METAR ESMX 082120Z 17004KT CAVOK 09/02 Q1027=
202305082050 METAR ESMX 082050Z 16005KT CAVOK 09/01 Q1027=
202305082020 METAR ESMX 082020Z 16006KT CAVOK 10/01 Q1027=
202305081950 METAR ESMX 081950Z 16008KT CAVOK 11/00 Q1027=
202305081920 METAR ESMX 081920Z 16007KT CAVOK 12/M00 Q1027=
202305081850 METAR ESMX 081850Z AUTO 18007KT 9999 NCD 13/M00 Q1027=
202305081820 METAR ESMX 081820Z AUTO 17009KT 9999 NCD 14/M01 Q1027=
202305081750 METAR ESMX 081750Z 16011KT CAVOK 15/M01 Q1027=
202305081720 METAR ESMX 081720Z 17011KT CAVOK 15/M02 Q1027=
202305081650 METAR ESMX 081650Z 16010KT 120V180 CAVOK 16/M01 Q1027=
202305081620 METAR ESMX 081620Z 16010KT 130V210 CAVOK 17/M01 Q1027=
202305081550 METAR ESMX 081550Z 17010KT 130V190 CAVOK 17/M00 Q1027=
202305081520 METAR ESMX 081520Z 15009KT 120V190 CAVOK 18/M01 Q1027=
202305081450 METAR ESMX 081450Z 17009KT 120V190 CAVOK 18/M00 Q1027=
202305081420 METAR ESMX 081420Z 17009KT 140V200 CAVOK 18/M01 Q1028=
202305081350 METAR ESMX 081350Z 16009KT 080V210 CAVOK 18/00 Q1028=
202305081320 METAR ESMX 081320Z 19006KT 140V260 CAVOK 18/M01 Q1028=
202305081250 METAR ESMX 081250Z 16006KT CAVOK 17/M00 Q1028=
202305081220 METAR ESMX 081220Z 13008KT 080V170 CAVOK 17/M00 Q1029=
202305081150 METAR ESMX 081150Z 13005KT 030V200 CAVOK 17/M01 Q1029=
202305081120 METAR ESMX 081120Z 19007KT CAVOK 17/M01 Q1029=
202305081050 METAR ESMX 081050Z 14010KT 100V190 CAVOK 16/M02 Q1029=
202305081020 METAR ESMX 081020Z 17007KT 100V240 CAVOK 16/M01 Q1029=
202305080950 METAR ESMX 080950Z 12006KT 080V140 CAVOK 15/M02 Q1030=
202305080920 METAR ESMX 080920Z 15006KT 110V200 CAVOK 14/M02 Q1030=
202305080850 METAR ESMX 080850Z 15006KT 130V200 CAVOK 13/M02 Q1030=
202305080820 METAR ESMX 080820Z 14005KT CAVOK 12/M02 Q1030=
202305080750 METAR ESMX 080750Z 11005KT 060V120 CAVOK 11/M01 Q1030=
202305080720 METAR ESMX 080720Z 17004KT 110V200 CAVOK 10/M02 Q1030=
202305080650 METAR ESMX 080650Z 14005KT 100V160 CAVOK 09/M03 Q1030=
202305080620 METAR ESMX 080620Z 15004KT CAVOK 09/M02 Q1030=
202305080550 METAR ESMX 080550Z 15003KT CAVOK 07/M00 Q1030=
202305080520 METAR ESMX 080520Z 15003KT CAVOK 06/01 Q1030=
202305080450 METAR ESMX 080450Z 15001KT CAVOK 03/01 Q1030=
202305080420 METAR ESMX 080420Z 34002KT CAVOK M01/M02 Q1030=
202305080350 METAR COR ESMX 080350Z 15002KT CAVOK M01/M01 Q1030=
202305080320 METAR ESMX 080320Z AUTO 00000KT 9999 R01///// R19/P2000N // NCD M03/M03 Q1030=
202305080250 METAR ESMX 080250Z AUTO 00000KT 9999 R01///// R19/P2000N // NCD M03/M03 Q1030=
202305080220 METAR ESMX 080220Z AUTO 00000KT 9999 R01///// R19/P2000N // NCD M02/M03 Q1030=
202305080150 METAR ESMX 080150Z AUTO 00000KT 9999 R01///// R19/P2000N // NCD M02/M03 Q1030=
202305080120 METAR ESMX 080120Z AUTO 15002KT 9999 R01///// R19/P2000N // NCD M01/M03 Q1030=
202305080050 METAR ESMX 080050Z AUTO 00000KT 9999 R01///// R19/P2000N // NCD M00/M03 Q1030=
202305080020 METAR ESMX 080020Z AUTO VRB03KT 9999 R01///// R19/P2000N // NCD M00/M03 Q1030=
202305072350 METAR ESMX 072350Z AUTO 15002KT 9999 R01///// R19/P2000N // NCD 01/M02 Q1030=
202305072320 METAR ESMX 072320Z AUTO 15002KT 9999 R01///// R19/P2000N // NCD 00/M03 Q1030=
202305072250 METAR ESMX 072250Z AUTO 15004KT 9999 R01///// R19/P2000N // NCD 02/M03 Q1030=
202305072220 METAR ESMX 072220Z AUTO 15004KT 9999 R01///// R19/P2000N // NCD 05/M03 Q1030=
202305072150 METAR ESMX 072150Z AUTO 15003KT 9999 R01///// R19/P2000N // NCD 06/M03 Q1030=
202305072120 METAR ESMX 072120Z AUTO 15005KT 9999 R01///// R19/P2000N // NCD 07/M03 Q1030=
202305072050 METAR ESMX 072050Z AUTO 15005KT 9999 R01///// R19/P2000N // NCD 07/M02 Q1029=
202305072020 METAR ESMX 072020Z AUTO 15005KT 9999 R01///// R19/P2000N // NCD 08/M02 Q1029=
202305071950 METAR ESMX 071950Z AUTO 14006KT 110V170 9999 R01///// R19/P2000N // NCD 09/M02 Q1029=
202305071920 METAR ESMX 071920Z AUTO 15008KT 9999 R01///// R19/P2000N // NCD 10/M02 Q1029=
202305071850 METAR ESMX 071850Z AUTO 16008KT 9999 R01///// R19/P2000N // NCD 11/M03 Q1028=
202305071820 METAR ESMX 071820Z AUTO 16008KT 9999 R01///// R19/P2000N // NCD 12/M03 Q1028=
202305071750 METAR ESMX 071750Z AUTO 17009KT 9999 R01///// R19/P2000N // NCD 13/M03 Q1028=
202305071720 METAR ESMX 071720Z 18011KT CAVOK 14/M02 Q1028=
202305071650 METAR ESMX 071650Z 18011KT CAVOK 14/M02 Q1027=
202305071620 METAR ESMX 071620Z 18010KT CAVOK 15/M02 Q1027=
202305071550 METAR ESMX 071550Z 17008KT 120V210 CAVOK 15/M02 Q1027=
202305071520 METAR ESMX 071520Z 18008KT CAVOK 15/M02 Q1027=
202305071450 METAR ESMX 071450Z 15008KT 100V200 CAVOK 16/M02 Q1027=
202305071420 METAR ESMX 071420Z 16006KT 110V210 CAVOK 15/M02 Q1027=
202305071350 METAR ESMX 071350Z 13007KT 070V190 CAVOK 15/M02 Q1027=
202305071320 METAR ESMX 071320Z 15008KT 110V180 CAVOK 15/M03 Q1028=
202305071250 METAR ESMX 071250Z VRB07KT CAVOK 15/M03 Q1028=
202305071220 METAR ESMX 071220Z 19006KT 140V260 CAVOK 15/M02 Q1028=
202305071150 METAR ESMX 071150Z 16008KT 090V200 CAVOK 15/M02 Q1028=
202305071120 METAR ESMX 071120Z 16008KT 080V200 CAVOK 14/M02 Q1028=
202305071050 METAR ESMX 071050Z 16008KT 140V200 CAVOK 14/M03 Q1028=
202305071020 METAR ESMX 071020Z 17009KT 140V210 CAVOK 13/M03 Q1028=
202305070950 METAR COR ESMX 070950Z VRB06KT CAVOK 13/M01 Q1028=
202305070920 METAR ESMX 070920Z AUTO 15008KT 030V200 9999 R01///// R19/P2000N // NCD 13/M02 Q1028=
202305070850 METAR ESMX 070850Z 10006KT 030V160 CAVOK 12/M02 Q1028=
202305070820 METAR ESMX 070820Z VRB04KT CAVOK 11/M00 Q1028=
202305070750 METAR ESMX 070750Z 04006KT 010V080 CAVOK 09/M00 Q1028=
202305070720 METAR ESMX 070720Z 04006KT 010V070 CAVOK 08/01 Q1028=
202305070650 METAR ESMX 070650Z VRB04KT CAVOK 07/01 Q1028=
202305070620 METAR ESMX 070620Z AUTO 05006KT 030V100 9999 R01///// R19/P2000N // NCD 06/M00 Q1028=
202305070550 METAR ESMX 070550Z AUTO 05006KT 030V090 9999 R01///// R19/P2000N // NCD 05/M00 Q1028=
202305070520 METAR ESMX 070520Z AUTO 03005KT 010V070 9999 R01///// R19/P2000N // NCD 04/M00 Q1028=
202305070450 METAR ESMX 070450Z AUTO 04004KT 010V080 9999 R01///// R19/P2000N // NCD 03/M01 Q1028=
202305070420 METAR ESMX 070420Z AUTO 03005KT 9999 R01///// R19/P2000N // NCD 01/M01 Q1028=
202305070350 METAR ESMX 070350Z AUTO 03005KT 9999 R01///// R19/P2000N // NCD 01/M01 Q1028=
202305070320 METAR ESMX 070320Z AUTO 04005KT 9999 R01///// R19/P2000N // NCD 01/M01 Q1028=
202305070250 METAR ESMX 070250Z AUTO 04005KT 9999 R01///// R19/P2000N // NCD 01/M01 Q1028=
202305070220 METAR ESMX 070220Z AUTO 06005KT 020V100 9999 R01///// R19/P2000N // NCD 00/M02 Q1028=
202305070150 METAR ESMX 070150Z AUTO 05005KT 9999 R01///// R19/P2000N // NCD 01/M01 Q1028=
202305070120 METAR ESMX 070120Z AUTO 03004KT 360V070 9999 R01///// R19/P2000N // NCD 01/M02 Q1028=
202305070050 METAR ESMX 070050Z AUTO 07003KT 040V100 9999 R01///// R19/P2000N // NCD 01/M02 Q1028=
202305070020 METAR ESMX 070020Z AUTO 07004KT 030V100 9999 R01///// R19/P2000N // NCD 01/M02 Q1028=
202305062350 METAR ESMX 062350Z AUTO 07004KT 020V100 9999 R01///// R19/P2000N // NCD 01/M03 Q1028=
202305062320 METAR ESMX 062320Z AUTO 08003KT 050V140 9999 R01///// R19/P2000N // NCD 01/M03 Q1028=
202305062250 METAR ESMX 062250Z AUTO 07003KT 030V110 9999 R01///// R19/P2000N // NCD 01/M03 Q1028=
202305062220 METAR ESMX 062220Z AUTO 09003KT 040V130 9999 R01///// R19/P2000N // NCD 01/M03 Q1028=
202305062150 METAR ESMX 062150Z AUTO 08004KT 350V120 9999 R01///// R19/P2000N // NCD 02/M04 Q1028=
202305062120 METAR ESMX 062120Z AUTO 09003KT 020V130 9999 R01///// R19/P2000N // NCD 02/M04 Q1028=
202305062050 METAR ESMX 062050Z AUTO 08003KT 030V110 9999 R01///// R19/P2000N // NCD 02/M04 Q1028=
202305062020 METAR ESMX 062020Z AUTO 09003KT 030V150 9999 R01///// R19/P2000N // NCD 03/M04 Q1028=
202305061950 METAR ESMX 061950Z AUTO 10004KT 040V140 9999 R01///// R19/P2000N // NCD 04/M05 Q1028=
202305061920 METAR ESMX 061920Z AUTO 08004KT 030V150 9999 R01///// R19/P2000N // NCD 05/M05 Q1028=
202305061850 METAR ESMX 061850Z AUTO 08006KT 040V120 9999 R01///// R19/P2000N // NCD 06/M06 Q1027=
202305061820 METAR ESMX 061820Z AUTO 05007KT 360V110 9999 R01///// R19/P2000N // NCD 07/M06 Q1027=
202305061750 METAR ESMX 061750Z AUTO 07006KT 360V120 9999 R01///// R19/P2000N // NCD 08/M05 Q1027=
202305061720 METAR ESMX 061720Z AUTO 09006KT 040V140 9999 R01///// R19/P2000N // NCD 08/M05 Q1027=
202305061650 METAR ESMX 061650Z AUTO 06007KT 360V150 9999 R01///// R19/P2000N // NCD 09/M06 Q1027=
202305061620 METAR ESMX 061620Z AUTO 10006KT 050V130 9999 R01///// R19/P2000N // NCD 09/M06 Q1027=
202305061550 METAR ESMX 061550Z AUTO 10006KT 040V150 9999 R01///// R19/P2000N // NCD 10/M07 Q1027=
202305061520 METAR ESMX 061520Z AUTO 09006KT 030V140 9999 R01///// R19/P2000N // NCD 10/M06 Q1027=
202305061450 METAR ESMX 061450Z AUTO 08008KT 030V120 9999 R01///// R19/P2000N // NCD 10/M05 Q1027=
202305061420 METAR ESMX 061420Z AUTO 07008KT 030V140 9999 R01///// R19/P2000N // NCD 10/M06 Q1027=
202305061350 METAR ESMX 061350Z AUTO 08007KT 030V140 9999 R01///// R19/P2000N // NCD 11/M05 Q1027=
202305061320 METAR ESMX 061320Z AUTO 07008KT 020V120 9999 R01///// R19/P2000N // NCD 11/M05 Q1027=
202305061250 METAR ESMX 061250Z AUTO 09007KT 040V140 9999 R01///// R19/P2000N // NCD 11/M04 Q1027=
202305061220 METAR ESMX 061220Z AUTO 07009KT 030V110 9999 R01///// R19/P2000N // NCD 11/M04 Q1027=
202305061150 METAR ESMX 061150Z AUTO 08008KT 010V140 9999 R01///// R19/P2000N // NCD 10/M04 Q1027=
202305061120 METAR ESMX 061120Z AUTO 07009KT 020V120 9999 R01///// R19/P2000N // NCD 11/M04 Q1027=
202305061050 METAR ESMX 061050Z AUTO 10009KT 040V150 9999 R01///// R19/P2000N // NCD 10/M04 Q1027=
202305061020 METAR ESMX 061020Z AUTO 08008KT 030V150 9999 R01///// R19/P2000N // NCD 10/M03 Q1027=
202305060950 METAR ESMX 060950Z AUTO 10007KT 050V130 9999 R01///// R19/P2000N // NCD 09/M03 Q1028=
202305060920 METAR ESMX 060920Z AUTO 07008KT 020V120 9999 R01///// R19/P2000N // FEW043/// 08/M03 Q1028=
202305060850 METAR ESMX 060850Z 11008KT 050V140 9999 FEW039 09/M02 Q1028=
202305060820 METAR ESMX 060820Z VRB08KT 9999 FEW035 08/M02 Q1028=
202305060750 METAR ESMX 060750Z 12008KT 070V150 CAVOK 07/M01 Q1028=
202305060720 METAR ESMX 060720Z VRB07KT CAVOK 07/M01 Q1028=
202305060650 METAR COR ESMX 060650Z 08007KT 030V140 CAVOK 06/M02 Q1028=
202305060620 METAR ESMX 060620Z AUTO 08008KT 030V120 4200 BR NCD 05/M01 Q1028=
202305060550 METAR ESMX 060550Z AUTO 09007KT 050V130 9000 NCD 04/M01 Q1028=
202305060520 METAR ESMX 060520Z AUTO 07006KT 350V140 5000 BR NCD 03/M01 Q1028=
202305060450 METAR ESMX 060450Z AUTO 07006KT 020V120 9000 NCD 02/M01 Q1028=
202305060420 METAR ESMX 060420Z AUTO 07006KT 030V120 9999 NCD 01/M01 Q1028=
202305060350 METAR ESMX 060350Z AUTO 07007KT 030V110 9999 NCD 01/M02 Q1028=
202305060320 METAR ESMX 060320Z AUTO 06006KT 020V110 9999 NCD 00/M02 Q1028=
202305060250 METAR ESMX 060250Z AUTO 06005KT 030V110 9999 FEW019/// 00/M02 Q1028=
202305060220 METAR ESMX 060220Z AUTO 08005KT 020V120 9999 SCT019/// 00/M03 Q1028=
202305060150 METAR ESMX 060150Z AUTO 08005KT 020V140 9999 NCD 00/M03 Q1028=
202305060120 METAR ESMX 060120Z AUTO 08006KT 010V160 9999 NCD 00/M04 Q1028=
202305060050 METAR ESMX 060050Z AUTO 07005KT 020V130 9999 NCD 00/M03 Q1028=
202305060020 METAR ESMX 060020Z AUTO 07005KT 010V120 9999 NCD 00/M03 Q1028=
202305052350 METAR ESMX 052350Z AUTO 07006KT 020V100 9999 NCD 00/M03 Q1028=
202305052320 METAR ESMX 052320Z AUTO 06006KT 030V100 9999 NCD 01/M03 Q1028=
202305052250 METAR ESMX 052250Z AUTO 07004KT 020V110 9999 NCD 01/M03 Q1028=
202305052220 METAR ESMX 052220Z AUTO 07004KT 350V140 9999 NCD 01/M03 Q1029=
202305052150 METAR ESMX 052150Z AUTO 07005KT 030V110 9999 NCD 01/M03 Q1029=
202305052120 METAR ESMX 052120Z AUTO 10004KT 050V160 9999 NCD 02/M03 Q1029=
202305052050 METAR ESMX 052050Z AUTO 09004KT 050V120 9999 NCD 02/M04 Q1029=
202305052020 METAR ESMX 052020Z AUTO 10004KT 060V120 9999 NCD 03/M04 Q1029=
202305051950 METAR ESMX 051950Z AUTO 09006KT 040V130 9999 NCD 03/M04 Q1029=
202305051920 METAR ESMX 051920Z AUTO 09006KT 030V150 9999 NCD 04/M04 Q1029=
202305051850 METAR ESMX 051850Z AUTO 10006KT 030V130 9999 NCD 05/M05 Q1029=
202305051820 METAR ESMX 051820Z AUTO 11007KT 050V150 9999 NCD 05/M05 Q1029=
202305051750 METAR ESMX 051750Z AUTO 08006KT 030V130 9999 NCD 06/M06 Q1029=
202305051720 METAR ESMX 051720Z AUTO 09007KT 030V140 9999 NCD 07/M06 Q1028=
202305051650 METAR ESMX 051650Z AUTO 09008KT 020V130 9999 NCD 07/M06 Q1028=
202305051620 METAR ESMX 051620Z AUTO 10008KT 050V150 9999 NCD 08/M07 Q1029=
202305051550 METAR ESMX 051550Z AUTO 06008KT 020V100 9999 NCD 09/M07 Q1028=
202305051520 METAR ESMX 051520Z AUTO 06010KT 030V110 9999 NCD 08/M08 Q1029=
202305051450 METAR ESMX 051450Z 08008KT 010V170 CAVOK 09/M09 Q1029=
202305051420 METAR ESMX 051420Z 08008KT 030V140 CAVOK 09/M08 Q1029=
202305051350 METAR ESMX 051350Z 09008KT 010V140 CAVOK 09/M07 Q1029=
202305051320 METAR ESMX 051320Z 10008KT 050V150 CAVOK 10/M07 Q1029=
202305051250 METAR ESMX 051250Z 10008KT 050V150 CAVOK 09/M07 Q1029=
202305051220 METAR ESMX 051220Z 09009KT 040V160 CAVOK 09/M07 Q1030=
202305051150 METAR ESMX 051150Z 07009KT 010V140 CAVOK 09/M06 Q1030=
202305051120 METAR ESMX 051120Z 08009KT 030V140 CAVOK 09/M07 Q1030=
202305051050 METAR ESMX 051050Z 06010KT 020V120 CAVOK 09/M06 Q1030=
202305051020 METAR ESMX 051020Z 08009KT 020V150 CAVOK 09/M06 Q1030=
202305050950 METAR ESMX 050950Z 07009KT 020V130 CAVOK 08/M05 Q1031=
202305050920 METAR ESMX 050920Z 09008KT 010V140 CAVOK 07/M07 Q1031=
202305050850 METAR ESMX 050850Z 07008KT 020V110 CAVOK 07/M06 Q1031=
202305050820 METAR ESMX 050820Z 07009KT 030V110 CAVOK 07/M07 Q1031=
202305050750 METAR ESMX 050750Z 07008KT 020V120 CAVOK 06/M06 Q1031=
202305050720 METAR ESMX 050720Z 08007KT 020V140 CAVOK 05/M06 Q1031=
202305050650 METAR ESMX 050650Z 08008KT 050V130 CAVOK 05/M04 Q1031=
202305050620 METAR ESMX 050620Z 09006KT 050V130 CAVOK 04/M03 Q1031=
202305050550 METAR ESMX 050550Z 09007KT 040V140 CAVOK 03/M02 Q1030=
202305050520 METAR ESMX 050520Z 07006KT 020V120 CAVOK 03/M01 Q1030=
202305050450 METAR ESMX 050450Z 08005KT 020V120 CAVOK 02/M01 Q1030=
202305050420 METAR ESMX 050420Z VRB03KT CAVOK 01/M00 Q1030=
202305050350 METAR ESMX 050350Z 06003KT 020V100 CAVOK 00/00 Q1030=
202305050320 METAR ESMX 050320Z AUTO VRB03KT 9999 NCD 00/00 Q1030=
202305050250 METAR ESMX 050250Z AUTO VRB03KT 9999 NCD 00/00 Q1030=
202305050220 METAR ESMX 050220Z AUTO VRB02KT 9999 NCD 00/M00 Q1030=
202305050150 METAR ESMX 050150Z AUTO 06003KT 020V090 9999 NCD 00/M00 Q1030=
202305050120 METAR ESMX 050120Z AUTO 06003KT 030V100 9999 NCD 01/M00 Q1029=
202305050050 METAR ESMX 050050Z AUTO VRB02KT 9999 NCD 00/M01 Q1029=
202305050020 METAR ESMX 050020Z AUTO 07004KT 030V120 9999 NCD 01/M01 Q1029=
202305042350 METAR ESMX 042350Z AUTO 06005KT 030V100 9999 NCD 02/M01 Q1029=
202305042320 METAR COR ESMX 042320Z 07004KT 030V110 CAVOK 02/M01 Q1029=
202305042250 METAR ESMX 042250Z AUTO 07004KT 020V110 9999 NCD 02/M00 Q1029=
202305042220 METAR ESMX 042220Z AUTO 07004KT 020V110 9999 NCD 02/01 Q1029=
202305042150 METAR ESMX 042150Z AUTO 07003KT 010V110 9999 NCD 03/01 Q1029=
202305042120 METAR ESMX 042120Z AUTO VRB03KT 9999 NCD 03/01 Q1029=
202305042050 METAR ESMX 042050Z VRB03KT CAVOK 03/01 Q1029=
202305042020 METAR ESMX 042020Z VRB02KT CAVOK 04/02 Q1028=
202305041950 METAR ESMX 041950Z VRB03KT CAVOK 04/02 Q1028=
202305041920 METAR ESMX 041920Z VRB03KT CAVOK 05/03 Q1028=
202305041850 METAR ESMX 041850Z AUTO 11003KT 9999 SCT092/// 05/03 Q1028=
202305041820 METAR ESMX 041820Z AUTO 11004KT 060V160 9999 BKN084/// 05/03 Q1027=
202305041750 METAR ESMX 041750Z AUTO 11005KT 060V130 9999 BKN076/// 05/03 Q1027=
202305041720 METAR ESMX 041720Z 11006KT 050V150 9999 VCSH FEW027 BKN037 06/04 Q1027=
202305041650 METAR ESMX 041650Z 07008KT 030V110 9999 SCT024 BKN042 07/02 Q1027=
202305041620 METAR ESMX 041620Z 12006KT 070V140 9999 VCSH FEW026 08/03 Q1026=
202305041550 METAR ESMX 041550Z 07007KT 020V130 9999 SCT036 09/03 Q1026=
202305041520 METAR ESMX 041520Z 14006KT 070V170 9999 VCSH FEW038 10/03 Q1026 RESHRA=
202305041450 METAR ESMX 041450Z 15008KT 9999 VCSH FEW032 SCT057 10/02 Q1026=
202305041420 METAR ESMX 041420Z 14008KT 9999 VCSH SCT060 10/02 Q1026=
202305041350 METAR ESMX 041350Z 01007KT 330V040 CAVOK 12/M03 Q1026=
202305041320 METAR ESMX 041320Z 04010KT CAVOK 12/M02 Q1026=
202305041250 METAR ESMX 041250Z 02009KT 340V060 CAVOK 12/M03 Q1026=
202305041220 METAR ESMX 041220Z 01010KT 340V040 CAVOK 11/M03 Q1026=
202305041150 METAR ESMX 041150Z 02013KT 350V050 CAVOK 12/M04 Q1026=
202305041120 METAR ESMX 041120Z 35009KT 320V020 CAVOK 13/M03 Q1026=
202305041050 METAR ESMX 041050Z 02008KT 320V060 CAVOK 13/M03 Q1027=
202305041020 METAR ESMX 041020Z 35009KT 300V050 CAVOK 12/M03 Q1027=
202305040950 METAR ESMX 040950Z 36007KT 320V050 CAVOK 12/M03 Q1027=
202305040920 METAR ESMX 040920Z 36009KT 310V060 CAVOK 11/M02 Q1027=
202305040850 METAR ESMX 040850Z 01009KT 340V040 CAVOK 11/M01 Q1027=
202305040820 METAR ESMX 040820Z 01009KT 340V050 CAVOK 10/M01 Q1027=
202305040750 METAR ESMX 040750Z 02008KT 340V060 CAVOK 10/M02 Q1027=
202305040720 METAR ESMX 040720Z 05008KT 010V090 CAVOK 09/M01 Q1027=
202305040650 METAR ESMX 040650Z 05007KT 010V090 CAVOK 09/M01 Q1027=
202305040620 METAR ESMX 040620Z 02007KT 350V060 CAVOK 08/00 Q1026=
202305040550 METAR ESMX 040550Z 03009KT CAVOK 07/00 Q1026=
202305040520 METAR ESMX 040520Z 02007KT 350V050 CAVOK 06/00 Q1026=
202305040450 METAR ESMX 040450Z 35007KT CAVOK 04/02 Q1026=
202305040420 METAR ESMX 040420Z 02004KT CAVOK 03/01 Q1026=
202305040350 METAR ESMX 040350Z 02005KT CAVOK 03/01 Q1026=
202305040320 METAR ESMX 040320Z AUTO 02005KT 9999 NCD 01/00 Q1026=
202305040250 METAR ESMX 040250Z AUTO 36002KT 9999 NCD M00/M01 Q1025=
202305040220 METAR ESMX 040220Z AUTO 36003KT 9999 NCD 01/00 Q1025=
202305040150 METAR ESMX 040150Z AUTO 02003KT 9999 NCD 01/M00 Q1025=
202305040120 METAR ESMX 040120Z AUTO 36003KT 9999 FEW066/// 02/01 Q1025=
202305040050 METAR ESMX 040050Z AUTO 01004KT 9999 SCT064/// 01/01 Q1025=
202305040020 METAR ESMX 040020Z 36002KT CAVOK M00/M00 Q1025=
202305032350 METAR ESMX 032350Z 00000KT CAVOK M00/M00 Q1025=
202305032320 METAR ESMX 032320Z AUTO 00000KT 9999 NCD 01/00 Q1025=
202305032250 METAR ESMX 032250Z AUTO 00000KT 9999 NCD 01/01 Q1025=
202305032220 METAR ESMX 032220Z AUTO 00000KT 9999 BKN057/// 01/M00 Q1025=
202305032150 METAR ESMX 032150Z AUTO VRB02KT 9999 BKN057/// 04/01 Q1025=
202305032120 METAR ESMX 032120Z AUTO 26002KT 9999 NCD 03/01 Q1025=
202305032050 METAR ESMX 032050Z AUTO 25005KT 9999 FEW059/// SCT072/// 06/02 Q1025=
202305032020 METAR ESMX 032020Z 27003KT 240V320 CAVOK 07/02 Q1025=
202305031950 METAR COR ESMX 031950Z 25003KT CAVOK 07/03 Q1025=
202305031920 METAR COR ESMX 031920Z 25002KT CAVOK 07/02 Q1025=
202305031850 METAR ESMX 031850Z AUTO 31004KT 9999 BKN059/// 09/01 Q1024=
202305031820 METAR ESMX 031820Z AUTO 24005KT 220V290 9999 -DZ BKN059/// OVC070/// 10/02 Q1024 RERA=
202305031750 METAR ESMX 031750Z AUTO 03005KT 350V060 9999 FEW017/// SCT048/// BKN061/// 10/03 Q1024=
202305031720 METAR ESMX 031720Z 31008KT 260V340 9999 FEW062CB BKN094 12/00 Q1024=
202305031650 METAR ESMX 031650Z 29008KT 230V330 9999 FEW062CB BKN094 12/M01 Q1024=
202305031620 METAR ESMX 031620Z 28008KT 250V320 9999 FEW055CB BKN070 14/M00 Q1024=
202305031550 METAR ESMX 031550Z 26005KT 230V300 9999 FEW050CB BKN070 14/M02 Q1024=
202305031520 METAR ESMX 031520Z 30006KT 270V330 9999 SCT070TCU BKN090 13/M02 Q1024=
202305031450 METAR ESMX 031450Z 30005KT 260V330 9999 SCT070TCU 13/M03 Q1024=
202305031420 METAR ESMX 031420Z 29005KT 240V340 9999 SCT068TCU 13/M03 Q1024=
202305031350 METAR ESMX 031350Z 32006KT CAVOK 13/M04 Q1024=
202305031320 METAR ESMX 031320Z 27005KT 230V320 CAVOK 13/M03 Q1024=
202305031250 METAR ESMX 031250Z 34007KT 300V020 CAVOK 13/M01 Q1024=
202305031220 METAR ESMX 031220Z 26009KT CAVOK 15/M02 Q1024=
202305031150 METAR ESMX 031150Z 26008KT 230V300 CAVOK 14/M02 Q1024=
202305031120 METAR ESMX 031120Z 31008KT 280V340 CAVOK 12/M02 Q1024=
202305031050 METAR ESMX 031050Z 32010KT 280V340 CAVOK 12/M03 Q1024=
202305031020 METAR ESMX 031020Z 30008KT 260V330 CAVOK 13/M01 Q1024=
202305030950 METAR ESMX 030950Z 29009KT 240V340 CAVOK 13/M03 Q1024=
202305030920 METAR ESMX 030920Z 31009KT 260V330 9999 FEW043 11/M02 Q1024=
202305030850 METAR ESMX 030850Z 29007KT 240V010 9999 FEW039 SCT043 11/01 Q1024=
202305030820 METAR ESMX 030820Z 28003KT 220V340 9999 FEW029 11/03 Q1024=
202305030750 METAR ESMX 030750Z 28004KT 220V020 CAVOK 10/04 Q1024=
202305030720 METAR ESMX 030720Z 30005KT 250V340 9999 FEW014 09/04 Q1024=
202305030650 METAR ESMX 030650Z 29006KT 260V320 9999 SCT011 07/04 Q1024=
202305030620 METAR ESMX 030620Z 26005KT 230V300 9999 BKN009 06/04 Q1023=
202305030550 METAR ESMX 030550Z 27007KT 9999 BKN006 05/04 Q1023=
202305030520 METAR ESMX 030520Z 26005KT 230V300 9999 BKN003 04/04 Q1023=
202305030450 METAR ESMX 030450Z 26005KT 9000 OVC002 03/03 Q1023=
202305030420 METAR ESMX 030420Z 27005KT 240V310 5000 BR OVC002 03/03 Q1022=
202305030350 METAR ESMX 030350Z AUTO 28006KT 2200 BR OVC002/// 03/03 Q1022=
202305030320 METAR ESMX 030320Z AUTO 25003KT 210V320 9999 OVC003/// 02/02 Q1022=
202305030250 METAR ESMX 030250Z AUTO 25004KT 9999 FEW003/// BKN005/// 01/01 Q1022=
202305030220 METAR ESMX 030220Z AUTO 25004KT 9999 NCD 01/01 Q1022=
202305030150 METAR ESMX 030150Z AUTO 25005KT 9999 NCD 01/00 Q1022=
202305030120 METAR ESMX 030120Z AUTO 25004KT 9999 NCD 01/00 Q1022=
202305030050 METAR ESMX 030050Z AUTO 24004KT 9999 NCD 01/M00 Q1022=
202305030020 METAR ESMX 030020Z AUTO 24003KT 9999 NCD 01/M01 Q1022=
202305022350 METAR ESMX 022350Z 24004KT CAVOK 01/M02 Q1021=
202305022320 METAR ESMX 022320Z AUTO 24002KT 9999 NCD 02/M01 Q1022=
202305022250 METAR ESMX 022250Z AUTO 24003KT 9999 NCD 02/M02 Q1021=
202305022220 METAR ESMX 022220Z AUTO 26004KT 9999 NCD 03/M02 Q1021=
202305022150 METAR ESMX 022150Z AUTO 26006KT 9999 NCD 04/M02 Q1021=
202305022120 METAR ESMX 022120Z AUTO 26006KT 9999 NCD 05/M02 Q1021=
202305022050 METAR ESMX 022050Z 26006KT CAVOK 06/M04 Q1021=
202305022020 METAR ESMX 022020Z 26006KT CAVOK 07/M03 Q1020=
202305021950 METAR COR ESMX 021950Z 27007KT CAVOK 07/M03 Q1020=
202305021920 METAR ESMX 021920Z AUTO 27006KT 9999 SCT072/// 08/M03 Q1020=
202305021850 METAR ESMX 021850Z AUTO 29004KT 9999 OVC082/// 08/M03 Q1019=
202305021820 METAR ESMX 021820Z AUTO 30006KT 260V320 9999 OVC076/// 10/M03 Q1019=
202305021750 METAR ESMX 021750Z AUTO 30005KT 270V330 9999 OVC074/// 10/M04 Q1019=
202305021720 METAR ESMX 021720Z 31006KT 280V340 CAVOK 11/M04 Q1019=
202305021650 METAR ESMX 021650Z 31010KT CAVOK 11/M05 Q1018=
202305021620 METAR ESMX 021620Z 32007KT CAVOK 11/M04 Q1018=
202305021550 METAR ESMX 021550Z 31009KT CAVOK 12/M04 Q1018=
202305021520 METAR ESMX 021520Z 30010KT CAVOK 12/M04 Q1018=
202305021450 METAR ESMX 021450Z 30011KT 270V330 CAVOK 12/M05 Q1018=
202305021420 METAR COR ESMX 021420Z 31012KT 250V340 CAVOK 12/M06 Q1018=
202305021350 METAR ESMX 021350Z 30011KT 270V330 CAVOK 12/M06 Q1017=
202305021320 METAR ESMX 021320Z 30011KT 260V340 CAVOK 12/M06 Q1017=
202305021250 METAR ESMX 021250Z 33012KT 280V360 CAVOK 11/M05 Q1017=
202305021220 METAR ESMX 021220Z 28011KT 240V320 CAVOK 12/M04 Q1017=
202305021150 METAR ESMX 021150Z 33010KT CAVOK 12/M04 Q1016=
202305021120 METAR ESMX 021120Z VRB10KT CAVOK 11/M04 Q1016=
202305021050 METAR ESMX 021050Z 31011KT 260V350 CAVOK 10/M03 Q1016=
202305021020 METAR ESMX 021020Z 32011KT 280V350 CAVOK 10/M04 Q1015=
202305020950 METAR ESMX 020950Z 33012KT 290V010 CAVOK 11/M05 Q1015=
202305020920 METAR ESMX 020920Z 32013KT 9999 FEW049 09/M04 Q1015=
202305020850 METAR ESMX 020850Z 32011KT 290V350 9999 SCT045 10/M02 Q1014=
202305020820 METAR ESMX 020820Z 32011KT 290V350 9999 FEW035 08/M02 Q1014=
202305020750 METAR ESMX 020750Z 33013KT 9999 FEW036 08/M00 Q1013=
202305020720 METAR ESMX 020720Z 33011KT 290V360 9999 SCT025 08/01 Q1013=
202305020650 METAR ESMX 020650Z 32010KT 9999 SCT022 06/01 Q1012=
202305020620 METAR ESMX 020620Z 33011KT 9999 SCT021 06/01 Q1012=
202305020550 METAR ESMX 020550Z 32009KT 280V340 9999 BKN019 05/01 Q1011=
202305020520 METAR ESMX 020520Z 32012KT 9999 BKN019 05/01 Q1011=
202305020450 METAR ESMX 020450Z 31014KT 270V330 9999 BKN012 05/02 Q1010=
202305020420 METAR ESMX 020420Z 30011KT 9999 BKN010 05/03 Q1010=
202305020350 METAR ESMX 020350Z 31012KT 9999 BKN009 06/05 Q1009=
202305020320 METAR ESMX 020320Z AUTO 27009KT 250V320 9999 -DZ BKN013/// OVC017/// 07/06 Q1009 REUP=
202305020250 METAR ESMX 020250Z AUTO 27010KT 9999 BKN013/// OVC016/// 08/06 Q1008=
202305020220 METAR ESMX 020220Z AUTO 26010KT 9999 SCT012/// BKN021/// BKN026/// 08/06 Q1008=
202305020150 METAR ESMX 020150Z AUTO 25011KT 210V280 9999 OVC009/// 09/07 Q1008=
202305020120 METAR ESMX 020120Z AUTO 22009KT 9999 OVC009/// 09/08 Q1008 REUP=
202305020050 METAR ESMX 020050Z AUTO 22009KT 9999 OVC009/// 09/08 Q1008=
202305020020 METAR ESMX 020020Z AUTO 22009KT 9999 OVC011/// 09/07 Q1008=
202305012350 METAR ESMX 012350Z AUTO 21009KT 9999 FEW008/// OVC011/// 09/06 Q1008=
202305012320 METAR ESMX 012320Z AUTO 22010KT 9999 OVC015/// 09/04 Q1008 REDZ=
202305012250 METAR ESMX 012250Z AUTO 20010KT 9999 BKN016/// OVC037/// 09/03 Q1008=
202305012220 METAR ESMX 012220Z AUTO 21011KT 9999 BKN037/// BKN051/// OVC110/// 09/02 Q1008=
202305012150 METAR ESMX 012150Z AUTO 20010KT 9999 SCT057/// BKN110/// 09/02 Q1009=
202305012120 METAR ESMX 012120Z AUTO 20011KT 9999 FEW059/// 09/02 Q1009=
202305012050 METAR ESMX 012050Z AUTO 20011KT 9999 BKN040/// OVC062/// 10/01 Q1009=
202305012020 METAR ESMX 012020Z AUTO 18010KT 9999 OVC041/// 10/01 Q1009=
202305011950 METAR ESMX 011950Z AUTO 19009KT 9999 SCT046/// 10/01 Q1009=
202305011920 METAR ESMX 011920Z AUTO 19009KT 9999 NCD 10/00 Q1009=
202305011850 METAR ESMX 011850Z 18010KT CAVOK 11/M01 Q1009=
202305011820 METAR ESMX 011820Z 19010KT CAVOK 12/M01 Q1010=
202305011750 METAR ESMX 011750Z 19010KT CAVOK 12/M01 Q1010=
202305011720 METAR ESMX 011720Z 19012KT CAVOK 13/M00 Q1010=
202305011650 METAR ESMX 011650Z 21011KT CAVOK 14/00 Q1010=
202305011620 METAR ESMX 011620Z 20016KT CAVOK 14/00 Q1010=
202305011550 METAR ESMX 011550Z 21015KT CAVOK 14/01 Q1010=
202305011520 METAR ESMX 011520Z 19017KT CAVOK 15/03 Q1010=
202305011450 METAR ESMX 011450Z 19017KT CAVOK 15/04 Q1011=
202305011420 METAR ESMX 011420Z 19016KT CAVOK 16/04 Q1011=
202305011350 METAR ESMX 011350Z 20016KT 170V230 9999 BKN047 15/04 Q1012=
202305011320 METAR ESMX 011320Z 18013KT 140V200 9999 BKN047 15/04 Q1012=
202305011250 METAR ESMX 011250Z 19015KT 9999 BKN047 14/04 Q1012=
202305011220 METAR ESMX 011220Z 20015KT 9999 FEW048 14/04 Q1013=
