##########################################################
# Query made at 04/19/2024 22:33:47 UTC
# Time interval: from 09/01/2023 12:00  to 09/30/2023 12:59  UTC
##########################################################

##########################################################
# ESMX, Vaxjo (Sweden)
# WMO index: 02641. WIGOS ID: 0-20000-0-02648
# Latitude 56-51N. Longitude 014-50E. Altitude 199 m.
##########################################################

202309301250 METAR ESMX 301250Z AUTO 24012KT 9999 FEW026/// BKN048/// 14/11 Q1015=
202309301220 METAR ESMX 301220Z AUTO 26010KT 9999 FEW009/// BKN046/// 14/11 Q1015=
202309301150 METAR ESMX 301150Z AUTO 24015KT 9999 SCT028/// BKN037/// OVC051/// 15/10 Q1015=
202309301120 METAR ESMX 301120Z AUTO 27014G24KT 9999 SCT051/// 15/10 Q1015=
202309301050 METAR ESMX 301050Z AUTO 27017G27KT 230V300 9999 SCT031/// BKN053/// 15/10 Q1015=
202309301020 METAR ESMX 301020Z AUTO 25015G29KT 230V290 9999 BKN027/// BKN043/// 15/10 Q1015=
202309300950 METAR ESMX 300950Z AUTO 25016KT 9999 BKN029/// 16/11 Q1014=
202309300920 METAR ESMX 300920Z AUTO 26013G25KT 210V290 9999 SCT021/// 15/12 Q1014=
202309300850 METAR ESMX 300850Z 25013KT 220V280 9999 VCSH SCT016 14/12 Q1014=
202309300820 METAR ESMX 300820Z 24013KT 220V280 9999 VCSH BKN016 15/12 Q1014=
202309300750 METAR ESMX 300750Z 23011G24KT 200V270 9999 BKN015 14/12 Q1014=
202309300720 METAR ESMX 300720Z 23010KT 200V260 9999 FEW015 14/12 Q1014=
202309300650 METAR COR ESMX 300650Z 23010KT 9999 FEW020 BKN048 13/12 Q1014=
202309300620 METAR ESMX 300620Z AUTO 23007KT 9999 SCT051/// 12/12 Q1014=
202309300550 METAR ESMX 300550Z AUTO 22006KT 9999 NCD 11/11 Q1014=
202309300520 METAR ESMX 300520Z AUTO 22007KT 9999 SCT009/// BKN051/// 11/11 Q1014=
202309300450 METAR ESMX 300450Z AUTO 24008KT 9999 OVC010/// 12/12 Q1013=
202309300420 METAR ESMX 300420Z AUTO 22006KT 9999 BKN014/// OVC019/// 12/12 Q1013=
202309300350 METAR ESMX 300350Z AUTO 23006KT 9999 SCT017/// 12/12 Q1013=
202309300320 METAR ESMX 300320Z AUTO 23008KT 9999 FEW043/// 11/11 Q1013=
202309300250 METAR ESMX 300250Z AUTO 22007KT 9999 BKN042/// 12/12 Q1013=
202309300220 METAR ESMX 300220Z AUTO 22007KT 9999 BKN042/// 11/11 Q1013=
202309300150 METAR ESMX 300150Z AUTO 22007KT 9999 BKN041/// 12/12 Q1013=
202309300120 METAR ESMX 300120Z AUTO 24006KT 9999 NCD 11/11 Q1013=
202309300050 METAR ESMX 300050Z AUTO 25007KT 230V290 9999 NCD 12/11 Q1013=
202309300020 METAR ESMX 300020Z AUTO 26008KT 9999 NCD 12/12 Q1012=
202309292350 METAR ESMX 292350Z AUTO 26008KT 9999 FEW015/// 12/12 Q1012=
202309292320 METAR ESMX 292320Z AUTO 26007KT 240V300 9999 BKN012/// BKN020/// OVC024/// 13/13 Q1012=
202309292250 METAR ESMX 292250Z AUTO 27009KT 9999 BKN016/// 13/13 Q1012=
202309292220 METAR ESMX 292220Z AUTO 26011KT 230V290 9999 FEW012/// SCT017/// OVC025/// 14/13 Q1012=
202309292150 METAR ESMX 292150Z AUTO 26013KT 230V290 9999 FEW011/// BKN014/// OVC019/// 15/14 Q1011=
202309292120 METAR ESMX 292120Z AUTO 25010KT 210V280 9999 -RA FEW005/// SCT009/// BKN012/// 16/15 Q1010=
202309292050 METAR ESMX 292050Z AUTO 21010KT 9000 FEW002/// BKN005/// OVC008/// 15/15 Q1010=
202309292020 METAR ESMX 292020Z AUTO 19010KT 5000 RA SCT002/// BKN007/// OVC012/// 15/15 Q1010=
202309291950 METAR ESMX 291950Z AUTO 19011KT 9999 FEW008/// SCT010/// OVC014/// 15/15 Q1010=
202309291920 METAR ESMX 291920Z AUTO 19013KT 9999 FEW008/// SCT010/// OVC019/// 16/15 Q1010=
202309291850 METAR ESMX 291850Z AUTO 19012KT 9999 -DZ BKN010/// BKN026/// OVC041/// 16/16 Q1010=
202309291820 METAR ESMX 291820Z AUTO 19010KT 6000 +RA FEW002/// OVC024/// 16/16 Q1011 RERA=
202309291750 METAR ESMX 291750Z AUTO 17009KT 9999 FEW014/// BKN026/// 16/16 Q1011 RERA RESHRA=
202309291720 METAR ESMX 291720Z AUTO 17010KT 9999 SCT029/// BKN070/// BKN100/// 17/15 Q1011=
202309291650 METAR ESMX 291650Z 16010KT 9999 SCT024 BKN045 17/15 Q1011=
202309291620 METAR ESMX 291620Z 17009KT 9999 BKN027 18/15 Q1011=
202309291550 METAR ESMX 291550Z 17007KT 9999 SCT026 18/15 Q1011=
202309291520 METAR ESMX 291520Z 18008KT 9999 SCT029 BKN042 18/15 Q1011=
202309291450 METAR ESMX 291450Z 18009KT 9999 SCT032 18/14 Q1012=
202309291420 METAR ESMX 291420Z 17010KT 9999 SCT033 19/14 Q1012=
202309291350 METAR ESMX 291350Z 20008KT 170V230 9999 SCT028 19/14 Q1012=
202309291320 METAR ESMX 291320Z 22009KT 9999 SCT029 19/14 Q1013=
202309291250 METAR COR ESMX 291250Z 21010KT 190V250 CAVOK 19/14 Q1013=
202309291220 METAR ESMX 291220Z 22009KT CAVOK 19/14 Q1013=
202309291150 METAR ESMX 291150Z 19011KT 9999 FEW016 BKN100 18/15 Q1013=
202309291120 METAR ESMX 291120Z 18011KT 9999 SCT011 BKN130 18/15 Q1013=
202309291050 METAR ESMX 291050Z 19011KT 9999 BKN011 BKN150 17/15 Q1014=
202309291020 METAR ESMX 291020Z 18007KT 9999 BKN012 BKN100 OVC140 17/15 Q1014=
202309290950 METAR ESMX 290950Z 16007KT 120V200 9999 BKN015 BKN046 OVC140 16/15 Q1014=
202309290920 METAR ESMX 290920Z 15005KT 9999 BKN017 BKN051 16/14 Q1014=
202309290850 METAR ESMX 290850Z 16005KT 9999 BKN019 16/14 Q1014=
202309290820 METAR ESMX 290820Z 15004KT 9999 BKN024 15/14 Q1015=
202309290750 METAR ESMX 290750Z 19005KT 9999 BKN026 15/15 Q1015=
202309290720 METAR ESMX 290720Z AUTO 18005KT 9999 OVC026/// 15/14 Q1015=
202309290650 METAR ESMX 290650Z 17006KT 9999 BKN028 OVC033 14/14 Q1015=
202309290620 METAR ESMX 290620Z AUTO 17006KT 9999 OVC031/// 14/14 Q1015=
202309290550 METAR ESMX 290550Z 18006KT 9999 BKN039 14/14 Q1015=
202309290520 METAR ESMX 290520Z 18006KT 9999 BKN046 14/14 Q1015=
202309290450 METAR ESMX 290450Z 18006KT 9000 BR NSC 14/14 Q1015=
202309290420 METAR ESMX 290420Z AUTO 17006KT 9999 FEW180/// 14/14 Q1015=
202309290350 METAR ESMX 290350Z AUTO 17007KT 9999 BKN038/// OVC180/// 14/14 Q1015=
202309290320 METAR ESMX 290320Z AUTO 17006KT 9999 FEW190/// 14/14 Q1015=
202309290250 METAR ESMX 290250Z AUTO 15005KT 9999 FEW033/// 13/13 Q1016=
202309290220 METAR ESMX 290220Z AUTO 20004KT 9999 NCD 13/13 Q1016=
202309290150 METAR ESMX 290150Z AUTO 16004KT 9999 NCD 13/13 Q1016=
202309290120 METAR ESMX 290120Z AUTO 17005KT 9999 SCT031/// 14/14 Q1016=
202309290050 METAR ESMX 290050Z AUTO 17004KT 9999 BKN030/// 14/14 Q1016=
202309290020 METAR ESMX 290020Z AUTO 17005KT 9999 OVC029/// 14/14 Q1016=
202309282350 METAR ESMX 282350Z 18005KT 9999 BKN029 14/14 Q1016=
202309282320 METAR ESMX 282320Z 18005KT 9999 SCT032 13/13 Q1016=
202309282250 METAR ESMX 282250Z 18005KT 9999 SCT031 14/14 Q1016=
202309282220 METAR ESMX 282220Z 19005KT CAVOK 14/14 Q1016=
202309282150 METAR ESMX 282150Z 19006KT 9999 FEW035 15/14 Q1016=
202309282120 METAR ESMX 282120Z 21005KT 9999 BKN031 15/15 Q1016=
202309282050 METAR ESMX 282050Z 20005KT 9999 BKN028 16/15 Q1016=
202309282020 METAR ESMX 282020Z 19006KT CAVOK 15/15 Q1016=
202309281950 METAR ESMX 281950Z AUTO 18005KT 9999 NCD 15/15 Q1016=
202309281920 METAR ESMX 281920Z AUTO 21003KT 9999 FEW033/// 16/15 Q1016=
202309281850 METAR ESMX 281850Z AUTO 24004KT 9999 FEW030/// 16/15 Q1016=
202309281820 METAR ESMX 281820Z AUTO 24007KT 220V290 9999 OVC027/// 18/16 Q1016=
202309281750 METAR ESMX 281750Z AUTO 20005KT 9999 OVC017/// 18/17 Q1015=
202309281720 METAR ESMX 281720Z 16006KT 9999 SCT024 BKN030 18/16 Q1015=
202309281650 METAR ESMX 281650Z 16006KT CAVOK 19/16 Q1015=
202309281620 METAR ESMX 281620Z 16006KT 9999 FEW041 20/17 Q1015=
202309281550 METAR ESMX 281550Z 17006KT 9999 FEW041 21/17 Q1015=
202309281520 METAR ESMX 281520Z 17007KT 9999 FEW043 21/17 Q1015=
202309281450 METAR ESMX 281450Z 16008KT 9999 FEW046 21/16 Q1015=
202309281420 METAR ESMX 281420Z 17010KT CAVOK 22/16 Q1015=
202309281350 METAR ESMX 281350Z 16009KT 130V190 CAVOK 22/16 Q1015=
202309281320 METAR ESMX 281320Z 16008KT CAVOK 21/16 Q1015=
202309281250 METAR ESMX 281250Z 16007KT CAVOK 21/16 Q1015=
202309281220 METAR ESMX 281220Z 17008KT CAVOK 21/16 Q1015=
202309281150 METAR ESMX 281150Z 15007KT CAVOK 21/16 Q1015=
202309281120 METAR ESMX 281120Z 15006KT 110V170 CAVOK 21/16 Q1015=
202309281050 METAR ESMX 281050Z 14005KT 100V170 CAVOK 20/16 Q1016=
202309281020 METAR ESMX 281020Z 16006KT 9999 FEW008 19/16 Q1016=
202309280950 METAR ESMX 280950Z 14005KT 100V170 9000 BKN007 18/17 Q1016=
202309280920 METAR ESMX 280920Z 14007KT 8000 BKN005 17/16 Q1016=
202309280850 METAR ESMX 280850Z 14007KT 080V170 5000 BR BKN004 16/16 Q1016=
202309280820 METAR ESMX 280820Z 14007KT 110V170 3000 BR OVC003 16/16 Q1017=
202309280750 METAR ESMX 280750Z 13006KT 010V150 2000 BR OVC002 15/15 Q1017=
202309280720 METAR ESMX 280720Z 13006KT 080V160 2000 BR OVC002 15/15 Q1017=
202309280650 METAR ESMX 280650Z 13006KT 090V160 2500 BR OVC002 15/15 Q1017=
202309280620 METAR ESMX 280620Z 12005KT 3000 BR OVC003 15/15 Q1017=
202309280550 METAR ESMX 280550Z 11005KT 070V160 2500 BR OVC003 15/15 Q1017=
202309280520 METAR ESMX 280520Z 12004KT 070V130 2500 BR VV003 14/14 Q1017=
202309280450 METAR ESMX 280450Z 14004KT 100V160 2000 BR OVC002 14/14 Q1017=
202309280420 METAR ESMX 280420Z 16003KT 1600 BR BKN003 14/14 Q1018=
202309280350 METAR COR ESMX 280350Z VRB02KT 2000 BCFG NSC 12/12 Q1018=
202309280320 METAR ESMX 280320Z AUTO VRB02KT 0200 R01/1000U R19/1200N FG NCD 10/10 Q1018=
202309280250 METAR ESMX 280250Z AUTO VRB01KT 0050 R01/0600N R19/0250N FG NCD 11/11 Q1018=
202309280220 METAR ESMX 280220Z AUTO 16002KT 0150 R01/0400N R19/0600N FG FEW002/// 12/12 Q1018=
202309280150 METAR ESMX 280150Z AUTO 16004KT 0250 R01/1000D R19/0700N FG FEW002/// 13/13 Q1019=
202309280120 METAR ESMX 280120Z AUTO 17005KT 2600 NCD 13/13 Q1019=
202309280050 METAR ESMX 280050Z AUTO 19003KT 0100 R01/P2000N R19/0400N BCFG NCD 12/12 Q1019=
202309280020 METAR ESMX 280020Z AUTO 19003KT 1300 R01/P2000N R19/P2000N NCD 13/13 Q1019=
202309272350 METAR ESMX 272350Z 19004KT 3500 R01/1500N R19/P2000N FG NSC 12/12 Q1019=
202309272320 METAR ESMX 272320Z 00000KT 2500 R01/P2000N R19/1300 BCFG NSC 12/12 Q1020=
202309272250 METAR ESMX 272250Z 00000KT 2500 R01/P2000N R19/P2000N BCFG NSC 13/13 Q1020=
202309272220 METAR COR ESMX 272220Z VRB02KT 7000 R01/1700D R19/P2000N BCFG NSC 12/12 Q1020=
202309272150 METAR ESMX 272150Z 00000KT 5000 BR NSC 12/12 Q1020=
202309272120 METAR ESMX 272120Z 00000KT CAVOK 13/13 Q1020=
202309272050 METAR ESMX 272050Z 00000KT CAVOK 13/13 Q1020=
202309272020 METAR ESMX 272020Z 19002KT CAVOK 14/14 Q1020=
202309271950 METAR ESMX 271950Z AUTO 19003KT 9999 FEW220/// 14/13 Q1020=
202309271920 METAR ESMX 271920Z AUTO 20003KT 9999 NCD 14/14 Q1020=
202309271850 METAR ESMX 271850Z AUTO 16002KT 7000 NCD 14/14 Q1021=
202309271820 METAR ESMX 271820Z AUTO 20002KT 9999 NCD 15/15 Q1021=
202309271750 METAR ESMX 271750Z AUTO 19003KT 9999 NCD 15/15 Q1020=
202309271720 METAR ESMX 271720Z 15004KT CAVOK 17/16 Q1020 RERA=
202309271650 METAR ESMX 271650Z 17004KT CAVOK 18/16 Q1020=
202309271620 METAR ESMX 271620Z 19003KT CAVOK 18/16 Q1020=
202309271550 METAR ESMX 271550Z 16004KT CAVOK 19/16 Q1020=
202309271520 METAR ESMX 271520Z 19005KT CAVOK 19/16 Q1020=
202309271450 METAR ESMX 271450Z 18005KT CAVOK 20/15 Q1020=
202309271420 METAR ESMX 271420Z 20007KT CAVOK 20/15 Q1020=
202309271350 METAR ESMX 271350Z 21007KT CAVOK 21/15 Q1020=
202309271320 METAR ESMX 271320Z 21009KT 9999 FEW034 21/14 Q1020=
202309271250 METAR ESMX 271250Z 21010KT 9999 FEW028 21/15 Q1020=
202309271220 METAR ESMX 271220Z 20010KT 9999 FEW026 21/15 Q1021=
202309271150 METAR ESMX 271150Z 19009KT 9999 SCT020 20/16 Q1021=
202309271120 METAR ESMX 271120Z 21008KT 9999 SCT016 20/16 Q1021=
202309271050 METAR ESMX 271050Z 19008KT 170V230 9999 SCT011 19/16 Q1021=
202309271020 METAR ESMX 271020Z 18009KT 9999 SCT007 BKN011 18/16 Q1021=
202309270950 METAR ESMX 270950Z 21009KT 9999 SCT004 OVC007 17/16 Q1021=
202309270920 METAR ESMX 270920Z 19006KT 8000 BR SCT002 OVC004 16/16 Q1021=
202309270850 METAR ESMX 270850Z 16004KT 3400 OVC001 15/15 Q1021=
202309270820 METAR ESMX 270820Z 14005KT 0800 R01/1000N R19/1100N FG OVC001 14/14 Q1021=
202309270750 METAR ESMX 270750Z 16006KT 0300 R01/0600N R19/0700N FG BKN001 OVC002 14/14 Q1021=
202309270720 METAR ESMX 270720Z 15004KT 0200 R01/0400N R19/0500U FG VV002 14/14 Q1020=
202309270650 METAR ESMX 270650Z 19004KT 0150 R01/0375N R19/0400N FG VV002 13/13 Q1021=
202309270620 METAR ESMX 270620Z 15004KT 0150 R01/0400N R19/0400N FG VV002 13/13 Q1021=
202309270550 METAR COR ESMX 270550Z 15005KT 0150 R01/0375N R19/0400N FG VV002 13/13 Q1021=
202309270520 METAR ESMX 270520Z 19005KT 0150 R01/0450N R19/0500N FG VV002 13/13 Q1021=
202309270450 METAR ESMX 270450Z 15005KT 0100 R01/0450N R19/0450N FG VV002 14/14 Q1021=
202309270420 METAR ESMX 270420Z 19004KT 0100 R01/0400N R19/0450N FG VV002 14/14 Q1021=
202309270350 METAR ESMX 270350Z 14003KT 0200 R01/0700N R19/0650N FG VV002 14/14 Q1021=
202309270320 METAR ESMX 270320Z AUTO 14004KT 0200 R01/0800N R19/1100D -RA OVC001/// 14/14 Q1021=
202309270250 METAR ESMX 270250Z AUTO 14004KT 0600 R01/1700D R19/P2000N FG OVC002/// 13/13 Q1021=
202309270220 METAR ESMX 270220Z AUTO 14003KT 6000 BKN003/// OVC180/// 13/13 Q1021=
202309270150 METAR ESMX 270150Z AUTO 14003KT 7000 OVC003/// 13/13 Q1021=
202309270120 METAR ESMX 270120Z AUTO VRB03KT 7000 BKN003/// OVC044/// 13/13 Q1021=
202309270050 METAR ESMX 270050Z AUTO VRB02KT 8000 BKN003/// OVC035/// 13/13 Q1022=
202309270020 METAR ESMX 270020Z AUTO 14003KT 8000 SCT003/// OVC036/// 13/13 Q1022=
202309262350 METAR ESMX 262350Z AUTO 14002KT 6000 BKN003/// OVC035/// 13/13 Q1022=
202309262320 METAR ESMX 262320Z VRB03KT 7000 BKN003 13/13 Q1022=
202309262250 METAR ESMX 262250Z 14003KT 5000 BR BKN003 13/13 Q1022=
202309262220 METAR ESMX 262220Z 14005KT 9999 BKN003 13/13 Q1023=
202309262150 METAR ESMX 262150Z 14005KT 100V160 CAVOK 14/14 Q1023=
202309262120 METAR ESMX 262120Z 15004KT CAVOK 13/13 Q1023=
202309262050 METAR ESMX 262050Z 15004KT CAVOK 13/13 Q1023=
202309262020 METAR ESMX 262020Z 13003KT 080V160 CAVOK 13/13 Q1023=
202309261950 METAR ESMX 261950Z AUTO 15003KT 9999 NCD 13/13 Q1023=
202309261920 METAR ESMX 261920Z AUTO 15003KT 9999 NCD 13/13 Q1023=
202309261850 METAR ESMX 261850Z AUTO 15003KT 9999 NCD 12/12 Q1023=
202309261820 METAR ESMX 261820Z AUTO VRB03KT 9999 NCD 13/13 Q1023=
202309261750 METAR ESMX 261750Z AUTO 15003KT 9999 NCD 15/15 Q1023=
202309261720 METAR ESMX 261720Z 15005KT CAVOK 16/14 Q1023=
202309261650 METAR ESMX 261650Z 15003KT CAVOK 16/15 Q1023=
202309261620 METAR ESMX 261620Z 16004KT CAVOK 17/15 Q1023=
202309261550 METAR COR ESMX 261550Z 15004KT 9999 FEW048 18/15 Q1023=
202309261520 METAR ESMX 261520Z 15005KT 9999 FEW026 19/14 Q1023=
202309261450 METAR ESMX 261450Z VRB03KT 9999 FEW026 20/15 Q1024=
202309261420 METAR ESMX 261420Z 15004KT 100V190 9999 FEW030 19/15 Q1024=
202309261350 METAR ESMX 261350Z 15004KT 110V200 9999 FEW044 20/15 Q1024=
202309261320 METAR ESMX 261320Z 16004KT 120V190 9999 FEW023 19/15 Q1024=
202309261250 METAR ESMX 261250Z 16006KT 9999 FEW025 19/14 Q1025=
202309261220 METAR ESMX 261220Z 15006KT 120V180 9999 SCT042 19/14 Q1025=
202309261150 METAR ESMX 261150Z 15005KT 110V170 9999 SCT043 19/13 Q1025=
202309261120 METAR ESMX 261120Z 15006KT 9999 SCT041 19/14 Q1025=
202309261050 METAR ESMX 261050Z 16007KT 9999 SCT041 19/14 Q1025=
202309261020 METAR ESMX 261020Z 15005KT 9999 SCT041 17/14 Q1025=
202309260950 METAR ESMX 260950Z 16004KT CAVOK 17/14 Q1026=
202309260920 METAR ESMX 260920Z VRB02KT 9999 BKN001 14/14 Q1026=
202309260850 METAR ESMX 260850Z VRB03KT 8000 BR OVC001 13/13 Q1026=
202309260820 METAR ESMX 260820Z 16002KT 0650 R01/1100U R19/1100U FG VV002 12/12 Q1026=
202309260750 METAR ESMX 260750Z VRB02KT 0150 R01/0375N R19/0325N FG VV002 12/12 Q1025=
202309260720 METAR ESMX 260720Z VRB02KT 0150 R01/0250N R19/0275N FG VV002 11/11 Q1025=
202309260650 METAR ESMX 260650Z VRB02KT 0100 R01/0250N R19/0300N FG VV001 11/11 Q1025=
202309260620 METAR ESMX 260620Z 00000KT 0100 R01/0250N R19/0400N FG VV001 11/11 Q1026=
202309260550 METAR ESMX 260550Z 15002KT 0150 R01/0400N R19/0450N FG VV001 11/11 Q1025=
202309260520 METAR ESMX 260520Z 16003KT 0150 R01/0375N R19/0400N FG VV002 11/11 Q1025=
202309260450 METAR ESMX 260450Z 14003KT 110V170 0100 R01/0450N R19/0550N FG VV002 11/11 Q1025=
202309260420 METAR ESMX 260420Z 14003KT 0100 R01/0400N R19/0500N FG VV002 11/11 Q1025=
202309260350 METAR COR ESMX 260350Z VRB03KT 0150 R01/0500N R19/0550N FG VV002 11/11 Q1025=
202309260320 METAR ESMX 260320Z AUTO 16003KT 0150 R01/0550N R19/0700N FG VV002 11/11 Q1025=
202309260250 METAR ESMX 260250Z AUTO 17003KT 0350 R01/1100N R19/1100D FG VV003 12/12 Q1025=
202309260220 METAR ESMX 260220Z AUTO 17005KT 0250 R01/0800N R19/0900D FG VV002 12/12 Q1025=
202309260150 METAR ESMX 260150Z AUTO 17005KT 0450 R01/P2000N R19/1800D OVC001/// 12/12 Q1025=
202309260120 METAR ESMX 260120Z AUTO 17006KT 0550 R01/1500U R19/P2000N FG OVC001/// 12/12 Q1025=
202309260050 METAR ESMX 260050Z AUTO 17006KT 140V200 0300 R01/0900N R19/1200N FG OVC001/// 12/12 Q1026=
202309260020 METAR ESMX 260020Z AUTO 17006KT 0550 R01/1600U R19/P2000N FG OVC001/// 12/12 Q1026=
202309252350 METAR ESMX 252350Z 17005KT 2000 R01/P2000N R19/P2000N VV002 12/12 Q1026=
202309252320 METAR ESMX 252320Z 17005KT 2600 R01/P2000N R19/P2000N VV002 12/12 Q1026=
202309252250 METAR ESMX 252250Z 15006KT 2100 BR VV002 12/12 Q1025=
202309252220 METAR ESMX 252220Z 15005KT 4600 BR BKN003 12/12 Q1026=
202309252150 METAR ESMX 252150Z 16005KT 8000 FEW004 12/12 Q1026=
202309252120 METAR ESMX 252120Z 16006KT CAVOK 12/12 Q1026=
202309252050 METAR ESMX 252050Z 17006KT CAVOK 12/12 Q1026=
202309252020 METAR ESMX 252020Z 17006KT CAVOK 12/12 Q1026=
202309251950 METAR ESMX 251950Z 17007KT CAVOK 13/12 Q1026=
202309251920 METAR ESMX 251920Z AUTO 16008KT 9999 NCD 13/12 Q1026=
202309251850 METAR ESMX 251850Z AUTO 17007KT 9999 NCD 13/12 Q1026=
202309251820 METAR ESMX 251820Z AUTO 16007KT 9999 NCD 13/12 Q1025=
202309251750 METAR ESMX 251750Z AUTO 17007KT 9999 NCD 13/12 Q1025=
202309251720 METAR ESMX 251720Z 16007KT CAVOK 14/12 Q1025=
202309251650 METAR ESMX 251650Z 16008KT CAVOK 14/12 Q1025=
202309251620 METAR COR ESMX 251620Z 17009KT CAVOK 15/11 Q1025=
202309251550 METAR ESMX 251550Z 16010KT 9999 FEW030 15/11 Q1025=
202309251520 METAR ESMX 251520Z AUTO 17010KT 9999 NCD 16/11 Q1025=
202309251450 METAR ESMX 251450Z 17011KT 9999 FEW029 SCT150 16/11 Q1025=
202309251420 METAR ESMX 251420Z 17010KT 9999 FEW027 16/11 Q1025=
202309251350 METAR ESMX 251350Z 17011KT 9999 FEW031 SCT190 16/11 Q1025=
202309251320 METAR ESMX 251320Z 17012KT 9999 SCT034 17/11 Q1026=
202309251250 METAR ESMX 251250Z 15010KT 9999 BKN032 17/10 Q1026=
202309251220 METAR ESMX 251220Z 17012KT 9999 BKN034 17/10 Q1026=
202309251150 METAR ESMX 251150Z 17012KT 9999 BKN033 17/11 Q1026=
202309251120 METAR ESMX 251120Z 18014KT 9999 SCT037 17/10 Q1026=
202309251050 METAR ESMX 251050Z 18014KT 9999 BKN031 16/10 Q1027=
202309251020 METAR ESMX 251020Z 18016KT 9999 SCT029 17/10 Q1027=
202309250950 METAR ESMX 250950Z 18014KT 140V200 9999 SCT023 17/12 Q1026=
202309250920 METAR ESMX 250920Z 17011KT 9999 FEW020 16/13 Q1026=
202309250850 METAR ESMX 250850Z 17010KT 9999 SCT041 15/13 Q1026=
202309250820 METAR ESMX 250820Z 15007KT 9999 BKN040 13/13 Q1027=
202309250750 METAR ESMX 250750Z 15006KT 9999 BKN041 12/12 Q1027=
202309250720 METAR ESMX 250720Z 15006KT 9999 SCT040 11/11 Q1027=
202309250650 METAR ESMX 250650Z 16005KT 9999 FEW003 10/10 Q1027=
202309250620 METAR ESMX 250620Z 16006KT CAVOK 10/10 Q1027=
202309250550 METAR ESMX 250550Z 17005KT CAVOK 09/09 Q1027=
202309250520 METAR ESMX 250520Z 17005KT CAVOK 09/09 Q1027=
202309250450 METAR ESMX 250450Z 17005KT CAVOK 09/09 Q1027=
202309250420 METAR ESMX 250420Z 16005KT CAVOK 09/09 Q1027=
202309250350 METAR COR ESMX 250350Z 16005KT CAVOK 09/08 Q1027=
202309250320 METAR ESMX 250320Z AUTO 16005KT 9999 NCD 09/08 Q1027=
202309250250 METAR ESMX 250250Z AUTO 15005KT 9999 NCD 08/08 Q1027=
202309250220 METAR ESMX 250220Z AUTO 16005KT 9999 NCD 08/08 Q1027=
202309250150 METAR ESMX 250150Z AUTO 16004KT 9999 NCD 08/08 Q1027=
202309250120 METAR ESMX 250120Z AUTO 15005KT 9999 NCD 08/08 Q1027=
202309250050 METAR ESMX 250050Z AUTO 17005KT 9999 NCD 09/09 Q1027=
202309250020 METAR ESMX 250020Z AUTO 14006KT 9999 NCD 09/09 Q1027=
202309242350 METAR ESMX 242350Z AUTO 15005KT 9999 NCD 08/08 Q1027=
202309242320 METAR ESMX 242320Z AUTO 15004KT 9999 NCD 08/08 Q1027=
202309242250 METAR ESMX 242250Z AUTO 17004KT 9999 NCD 08/08 Q1027=
202309242220 METAR ESMX 242220Z AUTO 19003KT 9999 NCD 06/06 Q1027=
202309242150 METAR ESMX 242150Z AUTO 17003KT 9999 NCD 07/07 Q1027=
202309242120 METAR ESMX 242120Z AUTO 18004KT 9999 NCD 06/06 Q1027=
202309242050 METAR ESMX 242050Z AUTO 17003KT 9999 NCD 06/06 Q1027=
202309242020 METAR ESMX 242020Z AUTO 16003KT 9999 NCD 07/07 Q1027=
202309241950 METAR ESMX 241950Z AUTO 16003KT 9999 NCD 07/07 Q1027=
202309241920 METAR ESMX 241920Z AUTO 21004KT 9999 NCD 09/07 Q1027=
202309241850 METAR ESMX 241850Z AUTO 22004KT 9999 NCD 09/07 Q1027=
202309241820 METAR ESMX 241820Z AUTO 22004KT 9999 NCD 09/08 Q1026=
202309241750 METAR ESMX 241750Z AUTO 22004KT 9999 NCD 09/08 Q1026=
202309241720 METAR ESMX 241720Z AUTO 19004KT 9999 NCD 08/07 Q1025=
202309241650 METAR ESMX 241650Z 21003KT CAVOK 12/08 Q1025=
202309241620 METAR ESMX 241620Z 22004KT 9999 FEW043 13/08 Q1025=
202309241550 METAR ESMX 241550Z 23004KT 180V270 9999 SCT045 14/07 Q1025=
202309241520 METAR ESMX 241520Z 28007KT 9999 SCT041 15/07 Q1024=
202309241450 METAR ESMX 241450Z 28006KT 240V310 9999 BKN040 14/07 Q1024=
202309241420 METAR ESMX 241420Z 27007KT 240V300 9999 FEW043 15/07 Q1024=
202309241350 METAR ESMX 241350Z 26009KT 220V290 9999 BKN042 16/07 Q1024=
202309241320 METAR ESMX 241320Z 27009KT 240V300 9999 BKN042 15/07 Q1023=
202309241250 METAR ESMX 241250Z 25008KT 220V290 9999 BKN039 15/07 Q1023=
202309241220 METAR ESMX 241220Z 26009KT 230V290 9999 BKN041 14/08 Q1023=
202309241150 METAR ESMX 241150Z 28009KT 9999 BKN044 14/07 Q1023=
202309241120 METAR ESMX 241120Z 26010KT 220V290 9999 BKN042 14/07 Q1023=
202309241050 METAR ESMX 241050Z 27012KT 9999 BKN041 14/07 Q1022=
202309241020 METAR ESMX 241020Z 26011KT 210V290 9999 BKN041 15/07 Q1022=
202309240950 METAR ESMX 240950Z 26010KT 220V290 9999 SCT035 15/08 Q1022=
202309240920 METAR ESMX 240920Z 27010KT 230V300 9999 FEW025 BKN030 14/09 Q1021=
202309240850 METAR ESMX 240850Z 25010KT 230V290 9999 SCT025 14/09 Q1021=
202309240820 METAR ESMX 240820Z 26009KT 230V290 9999 FEW012 13/10 Q1021=
202309240750 METAR ESMX 240750Z 24007KT 200V280 CAVOK 13/10 Q1021=
202309240720 METAR ESMX 240720Z 23006KT CAVOK 12/11 Q1020=
202309240650 METAR ESMX 240650Z 23006KT CAVOK 11/11 Q1019=
202309240620 METAR ESMX 240620Z 22007KT CAVOK 10/10 Q1019=
202309240550 METAR ESMX 240550Z AUTO 22007KT 9999 NCD 09/09 Q1019=
202309240520 METAR ESMX 240520Z AUTO 22005KT 9999 FEW051/// 09/09 Q1018=
202309240450 METAR ESMX 240450Z AUTO 22007KT 9999 OVC048/// 09/09 Q1018 REUP=
202309240420 METAR ESMX 240420Z AUTO 20006KT 9999 NCD 08/08 Q1017=
202309240350 METAR ESMX 240350Z AUTO 21006KT 9999 NCD 08/08 Q1017=
202309240320 METAR ESMX 240320Z AUTO 22006KT 9999 FEW034/// 09/09 Q1016=
202309240250 METAR ESMX 240250Z AUTO 22005KT 9999 NCD 08/08 Q1016=
202309240220 METAR ESMX 240220Z AUTO 22006KT 9999 NCD 09/09 Q1016=
202309240150 METAR ESMX 240150Z AUTO 20005KT 9999 NCD 09/09 Q1016=
202309240120 METAR ESMX 240120Z AUTO 22006KT 9999 NCD 09/09 Q1015=
202309240050 METAR ESMX 240050Z AUTO 20005KT 9999 NCD 10/10 Q1015=
202309240020 METAR ESMX 240020Z AUTO 22006KT 9999 FEW059/// 10/10 Q1015=
202309232350 METAR ESMX 232350Z AUTO 22005KT 9999 FEW042/// OVC057/// 10/10 Q1014=
202309232320 METAR ESMX 232320Z AUTO 22005KT 8000 SCT029/// BKN042/// BKN051/// 10/10 Q1014 REDZ=
202309232250 METAR ESMX 232250Z AUTO 22006KT 9999 FEW049/// 10/10 Q1014=
202309232220 METAR ESMX 232220Z AUTO 20006KT 9999 FEW026/// SCT062/// 10/10 Q1014=
202309232150 METAR ESMX 232150Z AUTO 21006KT 9999 SCT044/// 10/10 Q1013=
202309232120 METAR ESMX 232120Z AUTO 19006KT 9999 NCD 10/10 Q1013=
202309232050 METAR ESMX 232050Z AUTO 22005KT 9000 FEW004/// 10/10 Q1013=
202309232020 METAR ESMX 232020Z AUTO 22005KT 9999 FEW004/// 11/11 Q1012=
202309231950 METAR ESMX 231950Z AUTO 23005KT 9999 NCD 11/11 Q1012=
202309231920 METAR ESMX 231920Z AUTO 22005KT 9999 NCD 11/11 Q1012=
202309231850 METAR ESMX 231850Z AUTO 22007KT 9999 FEW010/// 11/11 Q1011=
202309231820 METAR ESMX 231820Z AUTO 22007KT 9999 FEW015/// 11/11 Q1011=
202309231750 METAR ESMX 231750Z AUTO 21006KT 9999 FEW022/// 11/11 Q1011=
202309231720 METAR ESMX 231720Z AUTO 20005KT 9999 FEW024/// 12/12 Q1010=
202309231650 METAR ESMX 231650Z AUTO 20005KT 9999 SCT064/// 12/12 Q1010=
202309231620 METAR ESMX 231620Z AUTO 18006KT 9999 SCT086/// 13/12 Q1010=
202309231550 METAR ESMX 231550Z 20003KT 170V230 9999 FEW014 BKN082 13/12 Q1009=
202309231520 METAR ESMX 231520Z 24007KT 9999 FEW014 BKN064 OVC078 14/12 Q1009=
202309231450 METAR ESMX 231450Z 22005KT 9999 -RA FEW014 BKN064 OVC078 14/14 Q1009 RERA=
202309231420 METAR ESMX 231420Z AUTO 20005KT 9999 BKN068/// 14/14 Q1008=
202309231350 METAR ESMX 231350Z 18009KT 9999 -RA FEW030CB BKN040 14/13 Q1008=
202309231320 METAR ESMX 231320Z 18008KT 9999 -RA FEW043CB BKN070 13/12 Q1008=
202309231250 METAR ESMX 231250Z 20009KT 9999 -RA FEW006 BKN033 OVC061 13/13 Q1008 REDZ=
202309231220 METAR ESMX 231220Z 21009KT 180V240 9999 -RA SCT035 BKN061 BKN088 17/11 Q1007=
202309231150 METAR ESMX 231150Z 19011KT 9999 BKN034 18/10 Q1007=
202309231120 METAR ESMX 231120Z 18012KT 160V230 9999 SCT032 BKN043 17/11 Q1007=
202309231050 METAR ESMX 231050Z AUTO 23009KT 9999 FEW031/// 18/12 Q1007=
202309231020 METAR ESMX 231020Z AUTO 21010KT 180V270 9999 FEW061/// 17/12 Q1007=
202309230950 METAR ESMX 230950Z AUTO 22006KT 9999 SCT023/// 17/13 Q1007=
202309230920 METAR ESMX 230920Z AUTO 21008KT 9999 FEW016/// BKN021/// 16/13 Q1007=
202309230850 METAR ESMX 230850Z 17006KT 130V190 9999 BKN007 16/14 Q1007=
202309230820 METAR ESMX 230820Z 18007KT 9999 BKN004 BKN007 14/14 Q1007=
202309230750 METAR ESMX 230750Z 17006KT 6000 BKN003 13/13 Q1007=
202309230720 METAR ESMX 230720Z 17005KT 3500 OVC002 13/13 Q1007=
202309230650 METAR ESMX 230650Z 19005KT 0300 R01/0900N R19/0800N FG VV002 12/12 Q1006=
202309230620 METAR ESMX 230620Z AUTO 18005KT 0150 R01/0375N R19/0375N FG VV002 12/12 Q1006=
202309230550 METAR ESMX 230550Z AUTO 20003KT 1700 OVC001/// 12/12 Q1006=
202309230520 METAR ESMX 230520Z AUTO 20004KT 0200 R01/0800N R19/1300N FG FEW001/// BKN076/// 11/11 Q1006=
202309230450 METAR ESMX 230450Z AUTO 20004KT 0100 R01/P2000N R19/0325D BR FEW001/// 11/11 Q1005=
202309230420 METAR ESMX 230420Z AUTO 20003KT 0150 R01/P2000N R19/0500D BR NCD 11/11 Q1005=
202309230350 METAR ESMX 230350Z AUTO 20003KT 0250 R01/P2000N R19/1700N BR NCD 12/12 Q1005=
202309230320 METAR ESMX 230320Z AUTO 20004KT 1200 R01/P2000N R19/P2000N BR NCD 12/12 Q1005=
202309230250 METAR ESMX 230250Z AUTO 21004KT 4000 BR NCD 12/12 Q1005=
202309230220 METAR ESMX 230220Z AUTO 21005KT 4300 BR FEW064/// 12/12 Q1005=
202309230150 METAR ESMX 230150Z AUTO 18005KT 6000 BKN066/// 12/12 Q1005=
202309230120 METAR ESMX 230120Z AUTO 21004KT 7000 SCT051/// 12/12 Q1004=
202309230050 METAR ESMX 230050Z AUTO 21005KT 9000 BKN049/// 13/13 Q1004=
202309230020 METAR ESMX 230020Z AUTO 20005KT 5000 BR SCT046/// 13/13 Q1004=
202309222350 METAR ESMX 222350Z AUTO 17005KT 6000 NCD 13/13 Q1004=
202309222320 METAR ESMX 222320Z AUTO 21004KT 7000 NCD 13/13 Q1004=
202309222250 METAR ESMX 222250Z AUTO 22006KT 9999 FEW072/// 13/13 Q1003=
202309222220 METAR ESMX 222220Z AUTO 21007KT 9999 OVC066/// 14/14 Q1003=
202309222150 METAR ESMX 222150Z AUTO 21008KT 9999 OVC059/// 14/14 Q1004=
202309222120 METAR ESMX 222120Z AUTO 20008KT 9999 FEW032/// BKN051/// BKN068/// 14/14 Q1003 REDZ=
202309222050 METAR ESMX 222050Z AUTO 20007KT 9999 DZ FEW002/// SCT024/// OVC068/// 14/14 Q1003=
202309222020 METAR ESMX 222020Z AUTO 20006KT 9999 FEW027/// OVC070/// 14/14 Q1003=
202309221950 METAR ESMX 221950Z AUTO 19006KT 9999 FEW072/// SCT140/// 14/13 Q1003=
202309221920 METAR ESMX 221920Z AUTO 20006KT 9999 OVC130/// 14/13 Q1003=
202309221850 METAR ESMX 221850Z AUTO 19007KT 9999 FEW021/// BKN130/// 14/13 Q1003=
202309221820 METAR ESMX 221820Z AUTO 18007KT 9999 FEW019/// SCT025/// OVC130/// 15/13 Q1003=
202309221750 METAR ESMX 221750Z AUTO 18005KT 9999 SCT130/// 15/14 Q1002=
202309221720 METAR ESMX 221720Z AUTO 20005KT 9999 BKN130/// 15/13 Q1002=
202309221650 METAR ESMX 221650Z AUTO 21004KT 9999 FEW019/// BKN055/// 16/14 Q1002=
202309221620 METAR ESMX 221620Z AUTO 20008KT 9999 NCD 16/14 Q1002=
202309221550 METAR ESMX 221550Z AUTO 23008KT 9999 FEW021/// BKN047/// 17/14 Q1001=
202309221520 METAR ESMX 221520Z AUTO 22010KT 9999 SCT020/// BKN028/// BKN039/// 17/14 Q1001=
202309221450 METAR ESMX 221450Z AUTO 21011KT 9999 FEW026/// 18/14 Q1000=
202309221420 METAR ESMX 221420Z 21012KT 9999 SCT025 BKN210 18/14 Q1000=
202309221350 METAR ESMX 221350Z 19012KT 9999 SCT025 BKN210 19/15 Q1000=
202309221320 METAR ESMX 221320Z 20012KT 9999 SCT028 SCT210 19/15 Q0999=
202309221250 METAR ESMX 221250Z 20012KT 170V230 9999 FEW023 SCT030 BKN042 20/15 Q0999=
202309221220 METAR ESMX 221220Z AUTO 20013KT 9999 SCT020/// BKN044/// 19/15 Q0999=
202309221150 METAR ESMX 221150Z 18012KT 9999 BKN018 BKN038 OVC051 20/16 Q0998=
202309221120 METAR ESMX 221120Z AUTO 18011KT 9999 BKN015/// BKN022/// OVC110/// 20/17 Q0998=
202309221050 METAR ESMX 221050Z 17011KT 9999 -DZ SCT014 BKN023 OVC096 19/17 Q0998=
202309221020 METAR ESMX 221020Z 16009KT 9999 FEW013 SCT053 OVC086 19/17 Q0997=
202309220950 METAR ESMX 220950Z AUTO 16008KT 9999 FEW013/// BKN051/// OVC070/// 19/17 Q0998=
202309220920 METAR ESMX 220920Z 15007KT 9999 FEW012 SCT140 19/16 Q0997=
202309220850 METAR ESMX 220850Z 14008KT 110V170 9999 FEW049 SCT160 18/16 Q0997=
202309220820 METAR ESMX 220820Z 16008KT CAVOK 18/16 Q0997=
202309220750 METAR ESMX 220750Z 14009KT CAVOK 18/16 Q0997=
202309220720 METAR ESMX 220720Z 14009KT CAVOK 17/16 Q0997=
202309220650 METAR ESMX 220650Z AUTO 15009KT 130V190 9999 FEW051/// SCT082/// BKN160/// 17/15 Q0997=
202309220620 METAR ESMX 220620Z 14009KT 110V180 CAVOK 17/15 Q0997=
202309220550 METAR ESMX 220550Z 14008KT CAVOK 17/15 Q0997=
202309220520 METAR ESMX 220520Z 14007KT 080V160 CAVOK 17/15 Q0997=
202309220450 METAR ESMX 220450Z 14007KT CAVOK 16/15 Q0998=
202309220420 METAR ESMX 220420Z 14007KT 110V170 CAVOK 16/15 Q0997=
202309220350 METAR ESMX 220350Z 14006KT CAVOK 16/15 Q0998=
202309220320 METAR ESMX 220320Z AUTO 14007KT 9999 NCD 16/15 Q0998=
202309220250 METAR ESMX 220250Z AUTO 14008KT 9999 FEW200/// 16/15 Q0998=
202309220220 METAR ESMX 220220Z AUTO 13006KT 090V160 9999 NCD 16/15 Q0998=
202309220150 METAR ESMX 220150Z AUTO 13006KT 090V160 9999 NCD 16/15 Q0999=
202309220120 METAR ESMX 220120Z AUTO 13005KT 100V160 9999 SCT210/// 16/15 Q0999=
202309220050 METAR ESMX 220050Z AUTO 12004KT 360V160 9999 SCT210/// 16/15 Q0999=
202309220020 METAR ESMX 220020Z 12004KT 070V150 CAVOK 16/15 Q1000=
202309212350 METAR ESMX 212350Z 11004KT 070V150 CAVOK 16/15 Q1000=
202309212320 METAR ESMX 212320Z 14004KT CAVOK 16/15 Q1000=
202309212250 METAR ESMX 212250Z AUTO 13004KT 090V150 9999 FEW220/// 16/15 Q1001=
202309212220 METAR ESMX 212220Z 12003KT 070V150 CAVOK 15/15 Q1001=
202309212150 METAR ESMX 212150Z AUTO 11004KT 060V150 9999 NCD 15/15 Q1001=
202309212120 METAR ESMX 212120Z 13004KT CAVOK 15/15 Q1002=
202309212050 METAR ESMX 212050Z 12004KT 080V180 CAVOK 16/15 Q1002=
202309212020 METAR ESMX 212020Z 13003KT 080V140 CAVOK 16/15 Q1002=
202309211950 METAR ESMX 211950Z 13004KT CAVOK 17/16 Q1003=
202309211920 METAR ESMX 211920Z 13005KT 080V160 CAVOK 17/15 Q1003=
202309211850 METAR ESMX 211850Z 14006KT CAVOK 17/15 Q1003=
202309211820 METAR ESMX 211820Z 13006KT 100V160 CAVOK 17/15 Q1003=
202309211750 METAR ESMX 211750Z 15006KT CAVOK 18/15 Q1003=
202309211720 METAR ESMX 211720Z 14007KT CAVOK 19/15 Q1003=
202309211650 METAR ESMX 211650Z 14008KT CAVOK 19/14 Q1003=
202309211620 METAR ESMX 211620Z 15009KT 110V170 CAVOK 20/14 Q1003=
202309211550 METAR ESMX 211550Z 15008KT CAVOK 21/14 Q1003=
202309211520 METAR ESMX 211520Z 16009KT CAVOK 22/14 Q1003=
202309211450 METAR ESMX 211450Z 15012KT CAVOK 22/14 Q1003=
202309211420 METAR ESMX 211420Z 15011KT CAVOK 22/14 Q1003=
202309211350 METAR ESMX 211350Z 16011KT CAVOK 22/14 Q1003=
202309211320 METAR ESMX 211320Z 17011KT 140V200 CAVOK 23/14 Q1003=
202309211250 METAR ESMX 211250Z 16009KT 130V190 CAVOK 23/15 Q1003=
202309211220 METAR ESMX 211220Z 15012KT CAVOK 22/15 Q1003=
202309211150 METAR ESMX 211150Z 15008KT 100V190 CAVOK 22/15 Q1004=
202309211120 METAR ESMX 211120Z 15008KT 110V180 CAVOK 21/16 Q1004=
202309211050 METAR ESMX 211050Z 15009KT 110V170 CAVOK 20/15 Q1004=
202309211020 METAR ESMX 211020Z 15010KT CAVOK 20/15 Q1004=
202309210950 METAR ESMX 210950Z 15010KT CAVOK 20/15 Q1004=
202309210920 METAR ESMX 210920Z 17010KT 130V190 CAVOK 20/16 Q1004=
202309210850 METAR ESMX 210850Z 15011KT CAVOK 19/16 Q1004=
202309210820 METAR ESMX 210820Z 15010KT CAVOK 19/16 Q1004=
202309210750 METAR ESMX 210750Z 15009KT 120V180 CAVOK 18/16 Q1004=
202309210720 METAR ESMX 210720Z 14010KT CAVOK 16/16 Q1004=
202309210650 METAR ESMX 210650Z 15008KT 9999 SCT004 16/16 Q1004=
202309210620 METAR ESMX 210620Z 15008KT 9000 BKN004 15/15 Q1004=
202309210550 METAR ESMX 210550Z 15008KT 9000 BKN003 15/15 Q1004=
202309210520 METAR ESMX 210520Z 16006KT 9999 SCT004 15/15 Q1004=
202309210450 METAR ESMX 210450Z 14007KT 9999 FEW003 14/14 Q1004=
202309210420 METAR ESMX 210420Z 15005KT 9999 FEW033 14/14 Q1005=
202309210350 METAR COR ESMX 210350Z 15005KT 120V180 9999 SCT033 15/15 Q1004=
202309210320 METAR ESMX 210320Z AUTO 16005KT 9999 SCT034/// 15/15 Q1004=
202309210250 METAR ESMX 210250Z AUTO 16005KT 9999 BKN210/// 15/15 Q1005=
202309210220 METAR ESMX 210220Z AUTO 16007KT 130V190 9999 FEW190/// 15/15 Q1005=
202309210150 METAR ESMX 210150Z AUTO 14008KT 9999 BKN180/// 15/15 Q1005=
202309210120 METAR ESMX 210120Z AUTO 14008KT 9999 NCD 15/15 Q1005=
202309210050 METAR ESMX 210050Z AUTO 15007KT 9999 SCT042/// 15/15 Q1006=
202309210020 METAR ESMX 210020Z AUTO 16007KT 9999 BKN042/// OVC120/// 15/15 Q1006=
202309202350 METAR ESMX 202350Z 16008KT 9999 SCT041 OVC130 16/15 Q1006=
202309202320 METAR ESMX 202320Z AUTO 15006KT 9999 SCT041/// BKN160/// 16/15 Q1006=
202309202250 METAR ESMX 202250Z AUTO 17006KT 9999 FEW038/// BKN140/// OVC170/// 16/15 Q1006=
202309202220 METAR ESMX 202220Z AUTO 17007KT 9999 OVC037/// 16/15 Q1006=
202309202150 METAR ESMX 202150Z 17008KT 9999 BKN043 16/15 Q1006=
202309202120 METAR ESMX 202120Z 18007KT 9999 OVC039 17/15 Q1006=
202309202050 METAR ESMX 202050Z 19009KT 9999 OVC039 17/15 Q1006=
202309202020 METAR ESMX 202020Z 19011KT 9999 BKN039 17/15 Q1007=
202309201950 METAR ESMX 201950Z 18011KT 9999 OVC034 17/15 Q1006=
202309201920 METAR ESMX 201920Z 19011KT 9999 OVC033 17/16 Q1006=
202309201850 METAR ESMX 201850Z 18010KT 9999 OVC032 17/16 Q1006=
202309201820 METAR ESMX 201820Z 18011KT 9999 FEW016 BKN035 17/16 Q1006=
202309201750 METAR ESMX 201750Z 19013KT 9999 FEW020 BKN035 17/16 Q1006=
202309201720 METAR ESMX 201720Z 18012KT 9999 FEW018 OVC035 18/16 Q1006=
202309201650 METAR ESMX 201650Z 19011KT 9999 BKN019 BKN044 18/16 Q1005=
202309201620 METAR ESMX 201620Z 19012KT 9999 BKN018 BKN027 18/16 Q1005=
202309201550 METAR ESMX 201550Z 19013KT 9999 BKN020 BKN030 18/16 Q1005=
202309201520 METAR ESMX 201520Z 21012KT 9999 BKN020 BKN028 19/16 Q1005=
202309201450 METAR ESMX 201450Z 20011KT 9999 SCT020 BKN045 19/16 Q1005=
202309201420 METAR ESMX 201420Z 21014KT 9999 BKN020 19/16 Q1005=
202309201350 METAR ESMX 201350Z 21011KT 9999 BKN022 BKN032 18/16 Q1004=
202309201320 METAR ESMX 201320Z 21012KT 9999 SCT021 BKN026 19/16 Q1004=
202309201250 METAR COR ESMX 201250Z 23011KT 9999 BKN019 BKN030 19/16 Q1004=
202309201220 METAR ESMX 201220Z 21012KT 9999 BKN024 19/16 Q1004=
202309201150 METAR ESMX 201150Z 21011KT 150V240 9999 BKN020 19/17 Q1003=
202309201120 METAR ESMX 201120Z 22007KT 9999 FEW004 BKN030 18/17 Q1003=
202309201050 METAR ESMX 201050Z 22012KT 9999 FEW003 BKN017 BKN029 18/16 Q1003=
202309201020 METAR ESMX 201020Z 21013G23KT 170V240 9999 BKN016 BKN023 18/16 Q1003=
202309200950 METAR ESMX 200950Z 21014KT 170V240 9999 BKN013 BKN051 18/16 Q1003=
202309200920 METAR COR ESMX 200920Z 23014KT 9999 FEW013 BKN017 18/16 Q1002=
202309200850 METAR ESMX 200850Z 22012KT 9999 BKN012 17/17 Q1002=
202309200820 METAR ESMX 200820Z 22012KT 8000 -DZ BKN011 17/16 Q1002=
202309200750 METAR ESMX 200750Z 22013KT 9999 BKN010 17/17 Q1002=
202309200720 METAR ESMX 200720Z 21014KT 9000 BR -DZ BKN007 16/16 Q1001=
202309200650 METAR ESMX 200650Z 20013KT 9999 BKN007 16/16 Q1001=
202309200620 METAR ESMX 200620Z 20013KT 9999 BKN007 16/16 Q1000=
202309200550 METAR ESMX 200550Z 20013KT 9999 BKN007 16/16 Q1000=
202309200520 METAR ESMX 200520Z 20014KT 9000 BKN007 16/16 Q1000=
202309200450 METAR ESMX 200450Z 20013KT 9000 BKN007 16/16 Q0999=
202309200420 METAR ESMX 200420Z 20016KT 4000 -DZ BKN007 16/16 Q0999=
202309200350 METAR COR ESMX 200350Z 20014KT 7000 BKN009 16/16 Q0999=
202309200320 METAR ESMX 200320Z AUTO 20015KT 3500 -RA VV009 16/16 Q0999=
202309200250 METAR ESMX 200250Z AUTO 20016KT 4200 BR VV009 16/16 Q0999 REDZ=
202309200220 METAR ESMX 200220Z AUTO 20015KT 4000 BR VV008 16/16 Q0999=
202309200150 METAR ESMX 200150Z AUTO 21015KT 5000 BR FEW001/// BKN008/// 16/16 Q0999=
202309200120 METAR ESMX 200120Z AUTO 20016KT 4400 -DZ VV008 15/15 Q0999=
202309200050 METAR ESMX 200050Z AUTO 20015KT 4300 BR FEW001/// SCT007/// BKN010/// 15/15 Q0998 REDZ=
202309200020 METAR ESMX 200020Z AUTO 21015KT 3600 DZ SCT006/// BKN008/// OVC011/// 15/15 Q0998=
202309192350 METAR ESMX 192350Z 20017G28KT 9999 OVC009 16/15 Q0998=
202309192320 METAR ESMX 192320Z 20018G28KT 9000 -RA BKN008 15/15 Q0998=
202309192250 METAR ESMX 192250Z 21018KT 5000 -RA OVC007 15/15 Q0998 RERA=
202309192220 METAR COR ESMX 192220Z 19019KT 8000 BR OVC007 14/14 Q0998=
202309192150 METAR ESMX 192150Z 19019KT 7000 BR FEW002 OVC007 14/14 Q0998=
202309192120 METAR ESMX 192120Z AUTO 18021KT 4800 DZ FEW002/// SCT006/// BKN011/// 14/14 Q0998=
202309192050 METAR ESMX 192050Z 19021G31KT 9999 SCT006 BKN015 14/13 Q0998=
202309192020 METAR ESMX 192020Z 19023G33KT 9999 FEW011 BKN018 14/12 Q0998=
202309191950 METAR ESMX 191950Z 18024G34KT 9999 -RA FEW008 BKN026 14/12 Q0998=
202309191920 METAR ESMX 191920Z 18023KT 9999 FEW031 SCT053 BKN100 14/12 Q0998=
202309191850 METAR ESMX 191850Z 17017KT 9999 -RA SCT043 BKN055 13/12 Q0998=
202309191820 METAR ESMX 191820Z 18014KT 9999 BKN040 13/12 Q0999=
202309191750 METAR ESMX 191750Z AUTO 19015KT 9999 BKN009/// OVC053/// 13/12 Q1000=
202309191720 METAR ESMX 191720Z 18013KT 7000 DZ FEW006 SCT028 BKN041 13/12 Q1000=
202309191650 METAR ESMX 191650Z 20010KT 9999 DZ FEW026 BKN055 13/12 Q1000=
202309191620 METAR ESMX 191620Z 21008KT 9999 BKN027 BKN041 13/11 Q1001=
202309191550 METAR ESMX 191550Z 20008KT 9999 -DZ SCT033 BKN046 14/11 Q1001=
202309191520 METAR ESMX 191520Z AUTO 19007KT 9999 BKN068/// 14/11 Q1001=
202309191450 METAR ESMX 191450Z 21008KT CAVOK 14/11 Q1001=
202309191420 METAR ESMX 191420Z 23009KT 200V270 CAVOK 14/11 Q1001=
202309191350 METAR ESMX 191350Z 24008KT 200V280 9999 FEW002 SCT036 BKN051 13/11 Q1001=
202309191320 METAR ESMX 191320Z 23009KT 9999 FEW033 SCT045 13/11 Q1001 RERA=
202309191250 METAR ESMX 191250Z 23016KT 9999 -SHRA FEW026 BKN051CB 12/10 Q1001=
202309191220 METAR ESMX 191220Z 21016KT CAVOK 15/12 Q1000=
202309191150 METAR ESMX 191150Z 20013KT 170V230 CAVOK 14/12 Q1000=
202309191120 METAR ESMX 191120Z 21009KT 9999 FEW033 BKN064 12/11 Q1000=
202309191050 METAR ESMX 191050Z 21014KT 9999 -SHRA FEW037CB 12/11 Q1001=
202309191020 METAR ESMX 191020Z 25013KT 210V280 9999 VCSH SCT033 14/10 Q1000=
202309190950 METAR ESMX 190950Z 22017KT 190V250 9999 VCSH SCT031 17/10 Q0999=
202309190920 METAR ESMX 190920Z 22012KT 9999 SCT028 17/12 Q0999=
202309190850 METAR ESMX 190850Z 20017KT 180V240 9999 SCT024 17/12 Q0999=
202309190820 METAR ESMX 190820Z 22015KT 9999 BKN024 17/13 Q0999=
202309190750 METAR ESMX 190750Z 22014KT 190V250 9999 BKN017 16/14 Q0999=
202309190720 METAR ESMX 190720Z 21014KT 180V240 9999 BKN015 17/15 Q0999=
202309190650 METAR ESMX 190650Z 19014KT 170V230 9999 BKN011 16/15 Q0999=
202309190620 METAR ESMX 190620Z 20013KT 9999 BKN011 16/16 Q0998=
202309190550 METAR ESMX 190550Z 18011KT 9999 -RA BKN010 16/16 Q0998=
202309190520 METAR ESMX 190520Z 18013KT 9999 -RA BKN010 16/16 Q0998=
202309190450 METAR ESMX 190450Z 18012KT 9999 SCT008 BKN010 17/16 Q0998=
202309190420 METAR ESMX 190420Z 18012KT 9999 SCT008 BKN011 17/17 Q0999=
202309190350 METAR COR ESMX 190350Z 16009KT 9999 BKN006 17/17 Q0998=
202309190320 METAR ESMX 190320Z AUTO 17010KT 9999 FEW036/// 17/17 Q0999=
202309190250 METAR ESMX 190250Z AUTO 17009KT 9999 FEW006/// 17/17 Q0999=
202309190220 METAR ESMX 190220Z AUTO 17008KT 9999 NCD 17/17 Q0999=
202309190150 METAR ESMX 190150Z AUTO 16008KT 9999 FEW007/// 17/17 Q1000=
202309190120 METAR ESMX 190120Z AUTO 16007KT 9999 FEW024/// BKN038/// 17/17 Q1000=
202309190050 METAR ESMX 190050Z AUTO 16006KT 9999 FEW033/// 17/17 Q1000=
202309190020 METAR ESMX 190020Z AUTO 15005KT 9000 FEW035/// 17/17 Q1000=
202309182350 METAR ESMX 182350Z 15005KT 7000 BR FEW057 SCT090 BKN180 17/17 Q1001=
202309182320 METAR ESMX 182320Z 15006KT 9999 FEW048 BKN098 17/17 Q1001=
202309182250 METAR ESMX 182250Z 15006KT 110V170 9999 BKN040 17/17 Q1001=
202309182220 METAR ESMX 182220Z 15006KT 110V180 9999 BKN040 18/17 Q1002=
202309182150 METAR ESMX 182150Z AUTO 14007KT 9999 FEW053/// 18/17 Q1002=
202309182120 METAR ESMX 182120Z 14004KT 100V160 9999 SCT048 SCT070 18/17 Q1002=
202309182050 METAR ESMX 182050Z 12004KT 080V160 CAVOK 17/17 Q1003=
202309182020 METAR ESMX 182020Z 14003KT 9999 -RA BKN074 17/17 Q1003=
202309181950 METAR ESMX 181950Z 13005KT 100V170 9999 -RA FEW047 BKN098 18/17 Q1004=
202309181920 METAR ESMX 181920Z 14007KT 080V170 9999 DZ FEW008 SCT050 BKN100 18/17 Q1005=
202309181850 METAR ESMX 181850Z 12006KT 080V180 9999 -DZ FEW009 BKN100 18/17 Q1005=
202309181820 METAR COR ESMX 181820Z 13006KT 060V160 CAVOK 18/17 Q1005=
202309181750 METAR ESMX 181750Z 14006KT 100V160 9999 FEW010 18/17 Q1006=
202309181720 METAR ESMX 181720Z 12006KT 050V160 9999 SCT011 18/17 Q1006=
202309181650 METAR ESMX 181650Z 12006KT 040V150 9999 SCT011 BKN096 18/17 Q1006=
202309181620 METAR ESMX 181620Z 12006KT 070V150 9999 SCT012 18/17 Q1007=
202309181550 METAR COR ESMX 181550Z 12006KT 070V160 9999 SCT013 18/17 Q1007=
202309181520 METAR ESMX 181520Z 10007KT 060V150 9999 BKN014 19/17 Q1007=
202309181450 METAR ESMX 181450Z 12009KT 060V160 9999 BKN013 19/17 Q1008=
202309181420 METAR ESMX 181420Z 12008KT 080V160 9999 BKN012 19/17 Q1009=
202309181350 METAR ESMX 181350Z 11008KT 040V160 9999 BKN013 19/16 Q1009=
202309181320 METAR ESMX 181320Z 11006KT 040V160 9999 BKN012 19/16 Q1010=
202309181250 METAR ESMX 181250Z 11007KT 080V150 9999 BKN010 18/16 Q1010=
202309181220 METAR ESMX 181220Z 10006KT 050V160 9999 BKN009 18/16 Q1011=
202309181150 METAR ESMX 181150Z 10007KT 050V150 9999 BKN007 17/16 Q1011=
202309181120 METAR ESMX 181120Z 11006KT 050V150 9999 BKN006 16/16 Q1011=
202309181050 METAR ESMX 181050Z 10006KT 030V160 9999 BKN005 16/15 Q1012=
202309181020 METAR ESMX 181020Z VRB06KT 9999 BKN006 16/15 Q1012=
202309180950 METAR ESMX 180950Z 11008KT 070V160 9999 BKN008 16/15 Q1013=
202309180920 METAR ESMX 180920Z VRB06KT 9999 BKN009 16/14 Q1013=
202309180850 METAR ESMX 180850Z 11007KT 050V140 9999 BKN010 15/14 Q1013=
202309180820 METAR ESMX 180820Z VRB07KT 9999 BKN011 15/14 Q1014=
202309180750 METAR ESMX 180750Z 10008KT 050V160 9999 BKN012 15/13 Q1014=
202309180720 METAR ESMX 180720Z 10008KT 050V140 9999 BKN013 15/13 Q1014=
202309180650 METAR ESMX 180650Z 09008KT 010V130 9999 BKN012 14/13 Q1015=
202309180620 METAR ESMX 180620Z 10008KT 060V140 9999 BKN012 14/12 Q1015=
202309180550 METAR ESMX 180550Z 09006KT 030V130 9999 BKN013 14/12 Q1016=
202309180520 METAR ESMX 180520Z 09006KT 030V130 9999 BKN013 13/12 Q1016=
202309180450 METAR ESMX 180450Z 09007KT 050V140 9999 BKN013 14/12 Q1017=
202309180420 METAR ESMX 180420Z 10008KT 330V140 9999 BKN013 14/12 Q1017=
202309180350 METAR ESMX 180350Z 10008KT 040V140 9999 BKN014 14/12 Q1017=
202309180320 METAR ESMX 180320Z AUTO 10006KT 010V140 9999 OVC013/// 14/12 Q1018=
202309180250 METAR ESMX 180250Z AUTO 10005KT 020V160 9999 BKN012/// OVC020/// 14/13 Q1018=
202309180220 METAR ESMX 180220Z AUTO 10005KT 020V150 9999 BKN011/// BKN016/// OVC019/// 14/13 Q1018=
202309180150 METAR ESMX 180150Z AUTO 11005KT 060V140 9999 BKN012/// 14/13 Q1019=
202309180120 METAR ESMX 180120Z AUTO VRB05KT 9999 BKN013/// OVC019/// 14/13 Q1019=
202309180050 METAR ESMX 180050Z AUTO 11007KT 050V150 9999 BKN011/// OVC015/// 14/13 Q1019=
202309180020 METAR ESMX 180020Z AUTO 10006KT 040V140 9999 OVC010/// 14/13 Q1019=
202309172350 METAR ESMX 172350Z AUTO 09005KT 030V130 9999 OVC009/// 14/13 Q1020=
202309172320 METAR ESMX 172320Z AUTO 09006KT 030V140 9999 OVC009/// 14/13 Q1020=
202309172250 METAR ESMX 172250Z AUTO 10003KT 050V130 9999 OVC008/// 14/13 Q1020=
202309172220 METAR ESMX 172220Z AUTO 08004KT 340V150 9999 OVC007/// 13/13 Q1020=
202309172150 METAR ESMX 172150Z AUTO 08005KT 030V110 9999 OVC008/// 13/13 Q1020=
202309172120 METAR ESMX 172120Z AUTO 07005KT 020V110 9999 NCD 12/12 Q1021=
202309172050 METAR ESMX 172050Z AUTO 07005KT 030V100 9999 NCD 12/12 Q1021=
202309172020 METAR ESMX 172020Z AUTO 07005KT 030V100 9999 NCD 13/12 Q1021=
202309171950 METAR ESMX 171950Z AUTO 08004KT 020V120 9999 FEW022/// 13/12 Q1021=
202309171920 METAR ESMX 171920Z AUTO 06005KT 020V110 9999 NCD 13/12 Q1021=
202309171850 METAR ESMX 171850Z AUTO 07006KT 030V120 9999 SCT024/// 14/12 Q1021=
202309171820 METAR ESMX 171820Z AUTO 07006KT 010V160 9999 SCT012/// OVC023/// 14/13 Q1021=
202309171750 METAR ESMX 171750Z AUTO 09005KT 030V140 9999 BKN014/// OVC024/// 15/13 Q1021=
202309171720 METAR ESMX 171720Z AUTO 08005KT 030V120 9999 SCT015/// OVC022/// 16/14 Q1021=
202309171650 METAR ESMX 171650Z 08006KT 350V110 9999 BKN021 17/14 Q1020=
202309171620 METAR ESMX 171620Z 07007KT 030V120 9999 SCT022 17/14 Q1020=
202309171550 METAR ESMX 171550Z 06008KT 030V100 9999 SCT043 18/14 Q1020=
202309171520 METAR ESMX 171520Z 04009KT 9999 SCT047 19/15 Q1020=
202309171450 METAR ESMX 171450Z 02009KT 350V050 9999 SCT045 20/15 Q1020=
202309171420 METAR ESMX 171420Z 36009KT 9999 SCT048 20/15 Q1020=
202309171350 METAR ESMX 171350Z 35008KT 9999 SCT038 21/15 Q1020=
202309171320 METAR ESMX 171320Z 36008KT 9999 FEW031 21/15 Q1020=
202309171250 METAR ESMX 171250Z AUTO 03009KT 9999 NCD 21/15 Q1019=
202309171220 METAR ESMX 171220Z 35007KT CAVOK 20/14 Q1020=
202309171150 METAR ESMX 171150Z 35007KT 9999 FEW018 20/14 Q1020=
202309171120 METAR ESMX 171120Z 03006KT 330V080 9999 FEW018 20/14 Q1020=
202309171050 METAR ESMX 171050Z 35006KT 320V020 9999 SCT017 20/15 Q1020=
202309171020 METAR ESMX 171020Z 34005KT 310V010 9999 SCT017 19/15 Q1020=
202309170950 METAR ESMX 170950Z 01005KT 330V050 9999 FEW010 18/14 Q1020=
202309170920 METAR ESMX 170920Z 35005KT 320V020 9999 FEW010 17/14 Q1019=
202309170850 METAR ESMX 170850Z VRB04KT 9999 FEW008 17/14 Q1019=
202309170820 METAR ESMX 170820Z 15004KT 9999 SCT005 15/15 Q1019=
202309170750 METAR ESMX 170750Z VRB02KT 0600 R01/1400U R19/1300D FG VV002 13/13 Q1019=
202309170720 METAR ESMX 170720Z 36003KT 0150 R01/0400N R19/0350N FG VV001 12/12 Q1019=
202309170650 METAR ESMX 170650Z VRB01KT 0200 R01/0450N R19/0400D FG VV002 11/11 Q1018=
202309170620 METAR ESMX 170620Z 19002KT 0150 R01/0325N R19/0375N FG VV002 11/11 Q1018=
202309170550 METAR ESMX 170550Z VRB02KT 0100 R01/0175N R19/0325N BCFG VV001 09/09 Q1018=
202309170520 METAR ESMX 170520Z AUTO VRB01KT 0150 R01/1200D R19/0375N BCFG BKN001/// 09/09 Q1018=
202309170450 METAR ESMX 170450Z AUTO 20001KT 0050 R01/P2000N R19/0150N BCFG OVC001/// 08/08 Q1017=
202309170420 METAR ESMX 170420Z AUTO 19003KT 0100 R01/0450N R19/1000D BCFG OVC001/// 09/09 Q1017=
202309170350 METAR ESMX 170350Z AUTO 20002KT 0100 R01/0600N R19/0375N FG SCT002/// 09/09 Q1017=
202309170320 METAR ESMX 170320Z AUTO 00000KT 0100 R01/0600N R19/0250N BCFG NCD 08/08 Q1017=
202309170250 METAR ESMX 170250Z AUTO 00000KT 0150 R01/1200D R19/0400N BCFG NCD 08/08 Q1017=
202309170220 METAR ESMX 170220Z AUTO 00000KT 9000 BCFG NCD 10/10 Q1017=
202309170150 METAR ESMX 170150Z AUTO 18002KT 9999 FEW036/// SCT049/// OVC066/// 11/11 Q1017=
202309170120 METAR ESMX 170120Z AUTO 20001KT 9999 BKN051/// OVC062/// 11/11 Q1017=
202309170050 METAR ESMX 170050Z AUTO 00000KT 9999 OVC061/// 11/11 Q1017=
202309170020 METAR ESMX 170020Z AUTO 00000KT 9999 OVC062/// 11/11 Q1017=
202309162350 METAR ESMX 162350Z AUTO 00000KT 1500 BCFG FEW064/// BKN150/// 09/09 Q1016=
202309162320 METAR ESMX 162320Z AUTO VRB01KT 0200 R01/0800U R19/P2000N BCFG FEW150/// 10/10 Q1016=
202309162250 METAR ESMX 162250Z AUTO 00000KT 0250 R01/P2000N R19/1200N BR NCD 11/11 Q1017=
202309162220 METAR ESMX 162220Z AUTO 00000KT 9999 NCD 12/12 Q1017=
202309162150 METAR ESMX 162150Z AUTO 15004KT 9999 SCT062/// 14/13 Q1017=
202309162120 METAR ESMX 162120Z AUTO 16003KT 9999 OVC061/// 14/13 Q1017=
202309162050 METAR ESMX 162050Z AUTO 15004KT 9999 OVC059/// 15/13 Q1017=
202309162020 METAR ESMX 162020Z AUTO 15005KT 9999 OVC059/// 15/13 Q1017=
202309161950 METAR ESMX 161950Z AUTO 16006KT 9999 BKN059/// 15/13 Q1018=
202309161920 METAR ESMX 161920Z AUTO 15007KT 9999 OVC059/// 16/14 Q1018=
202309161850 METAR ESMX 161850Z AUTO 16007KT 9999 OVC057/// 16/13 Q1018=
202309161820 METAR ESMX 161820Z AUTO 16006KT 9999 BKN057/// 16/13 Q1018=
202309161750 METAR ESMX 161750Z AUTO 15005KT 9999 OVC057/// 16/12 Q1018=
202309161720 METAR ESMX 161720Z AUTO 16005KT 9999 OVC055/// 17/12 Q1017=
202309161650 METAR ESMX 161650Z AUTO 16006KT 9999 OVC055/// 17/12 Q1017=
202309161620 METAR ESMX 161620Z AUTO 18007KT 9999 OVC055/// 18/11 Q1018=
202309161550 METAR ESMX 161550Z AUTO 17008KT 9999 SCT055/// 19/11 Q1018=
202309161520 METAR ESMX 161520Z AUTO 17009KT 9999 BKN055/// 19/11 Q1018=
202309161450 METAR ESMX 161450Z AUTO 17009KT 140V200 9999 NCD 19/10 Q1018=
202309161420 METAR ESMX 161420Z AUTO 17008KT 140V200 9999 NCD 20/10 Q1018=
202309161350 METAR ESMX 161350Z AUTO 17009KT 9999 NCD 20/10 Q1019=
202309161320 METAR ESMX 161320Z AUTO 18009KT 9999 NCD 20/10 Q1019=
202309161250 METAR ESMX 161250Z AUTO 16007KT 130V190 9999 FEW044/// 20/10 Q1019=
202309161220 METAR ESMX 161220Z AUTO 16010KT 9999 NCD 19/10 Q1020=
202309161150 METAR ESMX 161150Z AUTO 16009KT 120V180 9999 NCD 20/10 Q1020=
202309161120 METAR ESMX 161120Z AUTO 15009KT 100V180 9999 SCT041/// 20/11 Q1020=
202309161050 METAR ESMX 161050Z AUTO 15009KT 110V170 9999 SCT040/// 20/11 Q1021=
202309161020 METAR ESMX 161020Z AUTO 14009KT 100V200 9999 FEW038/// 20/11 Q1021=
202309160950 METAR ESMX 160950Z AUTO 15007KT 100V180 9999 FEW036/// 19/11 Q1021=
202309160920 METAR ESMX 160920Z AUTO 15008KT 110V180 9999 NCD 19/12 Q1021=
202309160850 METAR ESMX 160850Z 14007KT 100V160 CAVOK 18/13 Q1021=
202309160820 METAR ESMX 160820Z 16007KT CAVOK 17/13 Q1021=
202309160750 METAR ESMX 160750Z 15008KT 110V180 9999 FEW048 16/14 Q1022=
202309160720 METAR ESMX 160720Z 14008KT 9999 FEW048 16/14 Q1021=
202309160650 METAR ESMX 160650Z 14009KT 110V170 9999 SCT048 15/14 Q1022=
202309160620 METAR ESMX 160620Z 14008KT 9999 FEW006 BKN047 15/14 Q1022=
202309160550 METAR ESMX 160550Z AUTO 14008KT 9999 BKN048/// 14/14 Q1022=
202309160520 METAR ESMX 160520Z 14007KT 9999 FEW007 SCT046 14/14 Q1022=
202309160450 METAR ESMX 160450Z 14007KT 9999 FEW006 SCT046 14/14 Q1022=
202309160420 METAR ESMX 160420Z AUTO 14007KT 9999 OVC046/// 14/14 Q1022=
202309160350 METAR ESMX 160350Z AUTO 14007KT 9999 OVC045/// 14/14 Q1022=
202309160320 METAR ESMX 160320Z AUTO 15007KT 9999 BKN044/// 14/14 Q1022=
202309160250 METAR ESMX 160250Z AUTO 15007KT 9999 BKN042/// 14/14 Q1022=
202309160220 METAR ESMX 160220Z AUTO 15007KT 9999 BKN042/// 14/14 Q1022=
202309160150 METAR ESMX 160150Z AUTO 14007KT 9999 BKN040/// 13/13 Q1022=
202309160120 METAR ESMX 160120Z AUTO 14006KT 9999 BKN039/// 13/13 Q1022=
202309160050 METAR ESMX 160050Z AUTO 14006KT 9999 SCT037/// 13/13 Q1023=
202309160020 METAR ESMX 160020Z 14006KT 110V170 9999 BKN036 13/13 Q1023=
202309152350 METAR ESMX 152350Z 14005KT 110V170 9999 BKN036 13/13 Q1023=
202309152320 METAR ESMX 152320Z 14005KT 9999 BKN035 13/13 Q1023=
202309152250 METAR ESMX 152250Z 14006KT 9999 BKN034 13/13 Q1023=
202309152220 METAR ESMX 152220Z AUTO 14006KT 9999 SCT034/// 13/13 Q1023=
202309152150 METAR ESMX 152150Z AUTO 14005KT 9999 NCD 13/13 Q1023=
202309152120 METAR ESMX 152120Z AUTO 15005KT 9999 NCD 13/12 Q1023=
202309152050 METAR ESMX 152050Z AUTO 15005KT 9999 BKN032/// 13/12 Q1023=
202309152020 METAR ESMX 152020Z AUTO 15006KT 9999 OVC034/// 14/12 Q1023=
202309151950 METAR ESMX 151950Z AUTO 16004KT 9999 SCT034/// 13/12 Q1023=
202309151920 METAR ESMX 151920Z AUTO 15006KT 9999 NCD 13/12 Q1023=
202309151850 METAR ESMX 151850Z AUTO 16005KT 9999 NCD 14/11 Q1023=
202309151820 METAR ESMX 151820Z AUTO 16007KT 9999 NCD 14/11 Q1023=
202309151750 METAR ESMX 151750Z AUTO 16008KT 9999 NCD 15/11 Q1023=
202309151720 METAR ESMX 151720Z AUTO 16007KT 9999 NCD 15/11 Q1023=
202309151650 METAR ESMX 151650Z AUTO 16007KT 9999 NCD 16/11 Q1023=
202309151620 METAR ESMX 151620Z AUTO 16007KT 9999 NCD 17/10 Q1023=
202309151550 METAR ESMX 151550Z AUTO 16009KT 9999 FEW100/// 17/09 Q1023=
202309151520 METAR ESMX 151520Z AUTO 16008KT 9999 FEW100/// 18/10 Q1023=
202309151450 METAR ESMX 151450Z AUTO 15009KT 9999 SCT098/// 18/10 Q1023=
202309151420 METAR ESMX 151420Z 19007KT 160V220 9999 FEW035 18/11 Q1023=
202309151350 METAR ESMX 151350Z 16007KT 120V190 9999 FEW035 18/11 Q1023=
202309151320 METAR ESMX 151320Z 18008KT 9999 FEW035 BKN098 18/10 Q1023=
202309151250 METAR ESMX 151250Z 19007KT 160V220 9999 FEW032 BKN098 18/11 Q1023=
202309151220 METAR ESMX 151220Z 20007KT 150V220 9999 FEW033 BKN086 18/11 Q1024=
202309151150 METAR ESMX 151150Z 17006KT 130V220 9999 SCT033 BKN092 17/10 Q1024=
202309151120 METAR ESMX 151120Z 17010KT 130V190 9999 FEW030 BKN088 18/12 Q1024=
202309151050 METAR ESMX 151050Z 19008KT 9999 SCT030 BKN088 18/11 Q1024=
202309151020 METAR ESMX 151020Z 17010KT 130V210 9999 SCT030 OVC088 17/11 Q1024=
202309150950 METAR ESMX 150950Z 18008KT 150V210 9999 SCT024 BKN088 17/11 Q1024=
202309150920 METAR ESMX 150920Z 18009KT 9999 FEW020 BKN088 16/11 Q1024=
202309150850 METAR ESMX 150850Z 17005KT CAVOK 15/12 Q1024=
202309150820 METAR ESMX 150820Z 18005KT 140V210 CAVOK 15/11 Q1024=
202309150750 METAR ESMX 150750Z 16004KT 130V190 CAVOK 14/12 Q1024=
202309150720 METAR ESMX 150720Z 14003KT 9999 FEW002 14/12 Q1024=
202309150650 METAR ESMX 150650Z 18001KT 9999 FEW002 12/12 Q1024=
202309150620 METAR ESMX 150620Z 00000KT 0100 R01/0150N R19/0600N FG NSC 10/10 Q1024=
202309150550 METAR ESMX 150550Z AUTO 00000KT 0200 R01/P2000N R19/0275N VV001 07/07 Q1024=
202309150520 METAR ESMX 150520Z 00000KT 0300 R01/0750U R19/0650U BCFG NSC 05/05 Q1024=
202309150450 METAR ESMX 150450Z 17002KT 0300 R01/0500N R19/0275N BCFG NSC 06/06 Q1023=
202309150420 METAR ESMX 150420Z 18001KT 0250 R01/1800D R19/1500U BCFG BKN001 05/05 Q1023=
202309150350 METAR ESMX 150350Z AUTO 18002KT 0150 R01/P2000N R19/0400N BCFG SCT001/// 07/07 Q1023=
202309150320 METAR ESMX 150320Z AUTO 00000KT 0100 R01/P2000N R19/0450U BCFG NCD 08/08 Q1023=
202309150250 METAR ESMX 150250Z AUTO 18002KT 0150 R01/0400N R19/P2000D BCFG FEW002/// BKN100/// 09/09 Q1023=
202309150220 METAR ESMX 150220Z AUTO 18003KT 4000 BR FEW038/// OVC100/// 09/09 Q1023=
202309150150 METAR ESMX 150150Z AUTO 00000KT 1800 BR BKN039/// 07/07 Q1023=
202309150120 METAR ESMX 150120Z AUTO 00000KT 9999 SCT033/// OVC040/// 07/07 Q1023=
202309150050 METAR ESMX 150050Z AUTO VRB01KT 1700 BCFG SCT026/// BKN040/// 07/07 Q1023=
202309150020 METAR ESMX 150020Z AUTO 19002KT 0550 R01/P2000N R19/P2000N BCFG NCD 06/06 Q1023=
202309142350 METAR ESMX 142350Z AUTO 16001KT 0250 R01/1400D R19/P2000N BCFG NCD 07/07 Q1023=
202309142320 METAR ESMX 142320Z 18003KT 9000 NSC 08/08 Q1022=
202309142250 METAR ESMX 142250Z 18003KT 9000 NSC 08/08 Q1023=
202309142220 METAR ESMX 142220Z 16002KT CAVOK 09/09 Q1023=
202309142150 METAR ESMX 142150Z 18002KT CAVOK 10/10 Q1023=
202309142120 METAR ESMX 142120Z 18004KT 9999 FEW047 11/11 Q1022=
202309142050 METAR COR ESMX 142050Z 18004KT 9999 FEW037 12/12 Q1022=
202309142020 METAR ESMX 142020Z 18004KT 9999 SCT036 13/12 Q1022=
202309141950 METAR ESMX 141950Z 17006KT 9999 FEW025 SCT038 12/12 Q1022=
202309141920 METAR ESMX 141920Z 18007KT 9999 SCT043 13/12 Q1022=
202309141850 METAR ESMX 141850Z 18005KT CAVOK 13/11 Q1022=
202309141820 METAR COR ESMX 141820Z 21002KT CAVOK 11/10 Q1021=
202309141750 METAR ESMX 141750Z 22003KT CAVOK 11/10 Q1022=
202309141720 METAR ESMX 141720Z 22003KT CAVOK 13/10 Q1021=
202309141650 METAR ESMX 141650Z 22004KT 9999 FEW043 16/10 Q1021=
202309141620 METAR ESMX 141620Z 23003KT 9999 FEW042 17/10 Q1021=
202309141550 METAR ESMX 141550Z 24006KT 220V280 9999 FEW042 17/09 Q1021=
202309141520 METAR ESMX 141520Z 21004KT 9999 SCT040 18/09 Q1021=
202309141450 METAR ESMX 141450Z 24005KT 200V270 9999 BKN040 18/09 Q1021=
202309141420 METAR ESMX 141420Z 21006KT 9999 BKN044 18/10 Q1021=
202309141350 METAR ESMX 141350Z 20005KT 160V240 9999 BKN042 18/10 Q1021=
202309141320 METAR ESMX 141320Z 18006KT 150V240 9999 SCT040 18/10 Q1021=
202309141250 METAR ESMX 141250Z 20005KT 9999 SCT039 OVC130 19/10 Q1021=
202309141220 METAR ESMX 141220Z 19005KT 9999 FEW035 SCT062 18/10 Q1021=
202309141150 METAR ESMX 141150Z VRB03KT 9999 SCT032 BKN051 18/10 Q1021=
202309141120 METAR ESMX 141120Z 20005KT 9999 FEW033 17/10 Q1022=
202309141050 METAR ESMX 141050Z VRB03KT 9999 SCT030 17/10 Q1021=
202309141020 METAR ESMX 141020Z 18004KT 9999 FEW026 17/11 Q1021=
202309140950 METAR ESMX 140950Z 18004KT 120V230 9999 FEW025 16/09 Q1021=
202309140920 METAR ESMX 140920Z 18002KT CAVOK 16/12 Q1021=
202309140850 METAR ESMX 140850Z 18003KT CAVOK 15/11 Q1021=
202309140820 METAR ESMX 140820Z 20004KT CAVOK 15/12 Q1021=
202309140750 METAR ESMX 140750Z 20002KT CAVOK 13/12 Q1021=
202309140720 METAR ESMX 140720Z 20003KT CAVOK 13/12 Q1020=
202309140650 METAR ESMX 140650Z 03003KT CAVOK 12/12 Q1020=
202309140620 METAR ESMX 140620Z 08003KT CAVOK 11/11 Q1020=
202309140550 METAR ESMX 140550Z 08003KT CAVOK 10/10 Q1020=
202309140520 METAR ESMX 140520Z 08003KT 9000 R01/0700D R19/0900N BCFG NSC 07/07 Q1020=
202309140450 METAR ESMX 140450Z 02003KT 330V030 0100 R01/0200N R19/1000N BCFG SCT002 07/07 Q1020=
202309140420 METAR ESMX 140420Z 32003KT 0150 R01/0375N R19/0650N BCFG VV002 09/09 Q1019=
202309140350 METAR COR ESMX 140350Z VRB02KT 0150 R01/0400N R19/0500N FG VV002 06/06 Q1019=
202309140320 METAR ESMX 140320Z AUTO 02003KT 0050 R01/0125N R19/0900U BCFG SCT004/// 07/07 Q1019=
202309140250 METAR ESMX 140250Z AUTO 36002KT 0050 R01/0225N R19/0400N BCFG FEW004/// 05/05 Q1019=
202309140220 METAR ESMX 140220Z AUTO 02002KT 0100 R01/0600N R19/0700N BCFG FEW003/// 08/08 Q1018=
202309140150 METAR ESMX 140150Z AUTO 35003KT 0050 R01/0200N R19/P2000N BCFG FEW003/// 07/07 Q1018=
202309140120 METAR ESMX 140120Z AUTO 33003KT 0250 R01/1900N R19/P2000N BCFG NCD 07/07 Q1018=
202309140050 METAR ESMX 140050Z AUTO 35004KT 7000 BCFG FEW005/// 08/08 Q1018=
202309140020 METAR ESMX 140020Z AUTO 35003KT 0200 R01/0800D R19/P2000N BCFG NCD 09/09 Q1018=
202309132350 METAR ESMX 132350Z AUTO 34005KT 0700 R01/1800N R19/P2000N BCFG NCD 10/10 Q1018=
202309132320 METAR COR ESMX 132320Z 35007KT 9999 FEW019 10/10 Q1017=
202309132250 METAR ESMX 132250Z 32003KT 300V030 CAVOK 11/11 Q1017=
202309132220 METAR ESMX 132220Z 33004KT 290V360 9999 FEW017 11/11 Q1017=
202309132150 METAR ESMX 132150Z 31005KT CAVOK 10/10 Q1017=
202309132120 METAR ESMX 132120Z 32005KT CAVOK 10/10 Q1016=
202309132050 METAR ESMX 132050Z 30005KT CAVOK 12/12 Q1016=
202309132020 METAR ESMX 132020Z 33006KT CAVOK 12/12 Q1016=
202309131950 METAR ESMX 131950Z 34005KT CAVOK 12/11 Q1015=
202309131920 METAR ESMX 131920Z 31006KT CAVOK 13/12 Q1015=
202309131850 METAR ESMX 131850Z AUTO 32007KT 9999 FEW140/// SCT210/// 13/12 Q1015=
202309131820 METAR ESMX 131820Z 32006KT CAVOK 13/11 Q1014=
202309131750 METAR ESMX 131750Z AUTO 30005KT 9999 BKN140/// 14/12 Q1014=
202309131720 METAR ESMX 131720Z 31006KT 9999 FEW030 15/12 Q1014=
202309131650 METAR ESMX 131650Z 31005KT 9999 FEW030 15/12 Q1013=
202309131620 METAR ESMX 131620Z 31005KT 280V340 9999 FEW030 16/12 Q1014=
202309131550 METAR ESMX 131550Z 34006KT CAVOK 17/12 Q1013 RERA=
202309131520 METAR ESMX 131520Z 32007KT 290V350 9999 FEW025 17/13 Q1013=
202309131450 METAR ESMX 131450Z 33006KT 290V350 CAVOK 17/13 Q1013=
202309131420 METAR ESMX 131420Z 33008KT CAVOK 17/12 Q1013=
202309131350 METAR ESMX 131350Z 36005KT 310V020 CAVOK 17/12 Q1013=
202309131320 METAR ESMX 131320Z 35006KT 320V020 CAVOK 17/12 Q1012=
202309131250 METAR ESMX 131250Z 34006KT 300V010 CAVOK 17/12 Q1012=
202309131220 METAR ESMX 131220Z 34007KT 310V010 CAVOK 17/12 Q1012=
202309131150 METAR ESMX 131150Z 31006KT CAVOK 16/13 Q1012=
202309131120 METAR ESMX 131120Z 33004KT 310V020 CAVOK 16/12 Q1012=
202309131050 METAR ESMX 131050Z 34004KT CAVOK 16/12 Q1012=
202309131020 METAR COR ESMX 131020Z 33005KT 9999 SCT046 16/12 Q1012=
202309130950 METAR ESMX 130950Z 32004KT 280V340 9999 FEW045 16/13 Q1012=
202309130920 METAR ESMX 130920Z 30005KT CAVOK 16/13 Q1012=
202309130850 METAR ESMX 130850Z 31005KT 280V340 CAVOK 16/13 Q1012=
202309130820 METAR ESMX 130820Z 33003KT 290V360 CAVOK 16/13 Q1012=
202309130750 METAR ESMX 130750Z VRB03KT 9999 SCT045 15/13 Q1012=
202309130720 METAR ESMX 130720Z AUTO 30004KT 270V330 9999 OVC047/// 15/14 Q1012=
202309130650 METAR ESMX 130650Z 32003KT 290V350 9999 BKN046 15/14 Q1012=
202309130620 METAR ESMX 130620Z 32003KT 9999 FEW047 15/14 Q1012=
202309130550 METAR ESMX 130550Z 32004KT CAVOK 14/14 Q1011=
202309130520 METAR ESMX 130520Z VRB02KT CAVOK 13/13 Q1012=
202309130450 METAR ESMX 130450Z 35002KT CAVOK 13/13 Q1012=
202309130420 METAR ESMX 130420Z 00000KT CAVOK 13/13 Q1012=
202309130350 METAR ESMX 130350Z AUTO 00000KT 9999 OVC084/// 12/12 Q1012=
202309130320 METAR ESMX 130320Z AUTO 29002KT 9999 FEW084/// 11/11 Q1012=
202309130250 METAR ESMX 130250Z AUTO 32002KT 4500 BR FEW034/// 12/12 Q1012=
202309130220 METAR ESMX 130220Z AUTO 28003KT 9999 NCD 13/13 Q1012=
202309130150 METAR ESMX 130150Z AUTO 29004KT 9999 BKN033/// 15/14 Q1012=
202309130120 METAR ESMX 130120Z AUTO 30004KT 9999 OVC027/// 15/14 Q1012=
202309130050 METAR ESMX 130050Z AUTO 30004KT 9999 OVC027/// 16/14 Q1012=
202309130020 METAR ESMX 130020Z AUTO 30005KT 9999 FEW011/// SCT015/// OVC028/// 16/15 Q1012=
202309122350 METAR ESMX 122350Z 30005KT 270V330 9999 BKN012 16/16 Q1012=
202309122320 METAR ESMX 122320Z 25003KT 210V280 9999 BKN012 17/17 Q1012=
202309122250 METAR ESMX 122250Z 26004KT 9999 SCT013 BKN017 17/17 Q1012=
202309122220 METAR ESMX 122220Z VRB03KT 9999 FEW008 BKN017 17/17 Q1012=
202309122150 METAR ESMX 122150Z 23003KT 9999 SCT009 BKN040 17/17 Q1012=
202309122120 METAR ESMX 122120Z 21004KT 9999 SCT010 BKN048 17/17 Q1012=
202309122050 METAR ESMX 122050Z 21004KT CAVOK 17/17 Q1012=
202309122020 METAR ESMX 122020Z VRB02KT 9999 FEW020 17/17 Q1012=
202309121950 METAR ESMX 121950Z 21004KT 9999 FEW020 17/17 Q1012=
202309121920 METAR ESMX 121920Z 23004KT 9999 SCT020 17/17 Q1012=
202309121850 METAR ESMX 121850Z 24005KT 9999 SCT018 17/17 Q1012=
202309121820 METAR ESMX 121820Z 22004KT 9999 FEW019 18/17 Q1011=
202309121750 METAR ESMX 121750Z AUTO 22003KT 9999 +RA SCT047/// OVC062/// 18/17 Q1011=
202309121720 METAR ESMX 121720Z AUTO 22004KT 9999 BKN046/// OVC068/// 19/17 Q1011=
202309121650 METAR ESMX 121650Z 22005KT 9999 SCT045 19/18 Q1011=
202309121620 METAR ESMX 121620Z 23004KT 200V260 9999 FEW015 SCT024 20/18 Q1011=
202309121550 METAR COR ESMX 121550Z 22006KT 9999 SCT014 BKN035 20/18 Q1011=
202309121520 METAR ESMX 121520Z 23005KT 9999 FEW013 BKN072 20/18 Q1011=
202309121450 METAR ESMX 121450Z 22005KT 9999 FEW011 SCT068 BKN092 20/18 Q1011=
202309121420 METAR ESMX 121420Z 19005KT 9999 FEW036 BKN098 20/19 Q1011=
202309121350 METAR ESMX 121350Z 19006KT 9999 FEW016 SCT033 BKN098 19/19 Q1011=
202309121320 METAR ESMX 121320Z 22005KT 190V260 9999 -RA FEW014 BKN028 19/18 Q1011=
202309121250 METAR ESMX 121250Z 19006KT 9999 -RA BKN014 20/18 Q1011=
202309121220 METAR ESMX 121220Z 18006KT 9999 FEW013 BKN018 20/18 Q1011=
202309121150 METAR ESMX 121150Z 21004KT 9999 SCT009 BKN015 19/18 Q1011=
202309121120 METAR ESMX 121120Z 22005KT 9999 BKN010 19/18 Q1011=
202309121050 METAR ESMX 121050Z 22004KT 190V250 9999 BKN008 19/18 Q1011=
202309121020 METAR COR ESMX 121020Z 23004KT 8000 BKN007 19/18 Q1011=
202309120950 METAR ESMX 120950Z 20003KT 160V230 6000 BKN003 BKN005 18/18 Q1011=
202309120920 METAR ESMX 120920Z 17004KT 3300 VV002 17/17 Q1011=
202309120850 METAR ESMX 120850Z 19004KT 2000 -DZ VV002 16/16 Q1011=
202309120820 METAR ESMX 120820Z 17004KT 0450 R01/0800N R19/1000N FG VV002 16/16 Q1011=
202309120750 METAR ESMX 120750Z VRB02KT 0350 R01/0650N R19/0800N FG VV002 15/15 Q1011=
202309120720 METAR ESMX 120720Z 19003KT 0500 R01/1000D R19/1000D FG VV002 15/15 Q1011=
202309120650 METAR ESMX 120650Z 16003KT 1000 R01/1500U R19/P2000N VV002 15/15 Q1011=
202309120620 METAR ESMX 120620Z VRB03KT 1100 R01/1500D R19/1600U VV002 15/15 Q1011=
202309120550 METAR ESMX 120550Z 18003KT 0400 R01/0750N R19/0900U FG VV002 15/15 Q1011=
202309120520 METAR ESMX 120520Z 17004KT 0450 R01/0900N R19/1400D FG VV002 14/14 Q1010=
202309120450 METAR ESMX 120450Z 18006KT 0650 R01/1400N R19/1800D FG VV002 15/15 Q1010=
202309120420 METAR ESMX 120420Z 18006KT 0350 R01/1000N R19/P2000D FG VV002 15/15 Q1011=
202309120350 METAR ESMX 120350Z 17005KT 3300 BR BKN002 15/15 Q1011=
202309120320 METAR ESMX 120320Z AUTO 20006KT 3400 BR OVC003/// 15/15 Q1011=
202309120250 METAR ESMX 120250Z AUTO 17006KT 6000 OVC004/// 15/15 Q1011=
202309120220 METAR ESMX 120220Z AUTO 19005KT 7000 OVC004/// 15/15 Q1011=
202309120150 METAR ESMX 120150Z AUTO 19008KT 7000 OVC005/// 15/15 Q1011=
202309120120 METAR ESMX 120120Z AUTO 20006KT 7000 OVC005/// 16/16 Q1011=
202309120050 METAR ESMX 120050Z AUTO 18007KT 7000 FEW002/// OVC005/// 16/16 Q1011=
202309120020 METAR ESMX 120020Z AUTO 18006KT 0700 R01/P2000N R19/1800N OVC001/// 16/16 Q1011=
202309112350 METAR ESMX 112350Z 21006KT 0400 R19/0750N FG VV002 16/16 Q1011=
202309112320 METAR ESMX 112320Z 19005KT 0300 R19/0900N FG VV002 16/16 Q1011=
202309112250 METAR ESMX 112250Z 18006KT 0300 R19/0600N FG VV002 16/16 Q1011=
202309112220 METAR ESMX 112220Z 17005KT 5000 BR BKN003 16/16 Q1011=
202309112150 METAR ESMX 112150Z 19004KT 8000 NSC 14/14 Q1012=
202309112120 METAR ESMX 112120Z 16005KT 9000 NSC 17/17 Q1011=
202309112050 METAR ESMX 112050Z 20004KT 9000 NSC 15/15 Q1012=
202309112020 METAR ESMX 112020Z 16006KT CAVOK 18/18 Q1011=
202309111950 METAR ESMX 111950Z 18005KT CAVOK 18/17 Q1012=
202309111920 METAR ESMX 111920Z 17003KT CAVOK 17/16 Q1012=
202309111850 METAR ESMX 111850Z 24004KT CAVOK 19/17 Q1012=
202309111820 METAR ESMX 111820Z 16006KT CAVOK 21/17 Q1012=
202309111750 METAR ESMX 111750Z AUTO 16006KT 9999 NCD 21/18 Q1011=
202309111720 METAR ESMX 111720Z 15004KT CAVOK 21/19 Q1012=
202309111650 METAR ESMX 111650Z 17004KT CAVOK 23/18 Q1012=
202309111620 METAR ESMX 111620Z 16004KT CAVOK 24/19 Q1012=
202309111550 METAR ESMX 111550Z 15005KT CAVOK 24/18 Q1012=
202309111520 METAR ESMX 111520Z 15005KT 110V170 CAVOK 24/18 Q1012=
202309111450 METAR ESMX 111450Z 15006KT 110V170 CAVOK 24/18 Q1012=
202309111420 METAR ESMX 111420Z 14006KT 110V170 CAVOK 24/18 Q1013=
202309111350 METAR ESMX 111350Z 13006KT 100V160 CAVOK 23/18 Q1013=
202309111320 METAR ESMX 111320Z 14005KT 110V170 CAVOK 23/18 Q1013=
202309111250 METAR ESMX 111250Z 13004KT 080V170 CAVOK 22/18 Q1014=
202309111220 METAR ESMX 111220Z 15004KT CAVOK 22/18 Q1014=
202309111150 METAR ESMX 111150Z 15004KT CAVOK 21/18 Q1014=
202309111120 METAR ESMX 111120Z 15004KT CAVOK 21/18 Q1014=
202309111050 METAR ESMX 111050Z 15003KT 100V220 9999 BKN010 20/17 Q1014=
202309111020 METAR ESMX 111020Z VRB02KT 9999 BKN007 19/17 Q1014=
202309110950 METAR ESMX 110950Z VRB03KT 9999 BKN005 18/17 Q1015=
202309110920 METAR ESMX 110920Z 17004KT 140V200 5000 BR OVC004 17/17 Q1015=
202309110850 METAR ESMX 110850Z 17004KT 130V220 6000 OVC003 16/16 Q1015=
202309110820 METAR COR ESMX 110820Z 19003KT 150V210 5000 BR OVC002 16/16 Q1015=
202309110750 METAR ESMX 110750Z 21002KT 0650 R01/1300N R19/1200D FG VV002 16/16 Q1015=
202309110720 METAR ESMX 110720Z VRB01KT 0250 R01/0700N R19/0500N FG VV002 15/15 Q1015=
202309110650 METAR ESMX 110650Z 00000KT 0250 R01/0400N R19/0375N FG VV001 15/15 Q1015=
202309110620 METAR ESMX 110620Z 00000KT 0250 R01/0275N R19/0800N FG VV002 15/15 Q1015=
202309110550 METAR ESMX 110550Z 00000KT 0250 R01/0450D R19/0900U FG VV002 15/15 Q1015=
202309110520 METAR ESMX 110520Z 23002KT 0500 R01/P2000N R19/1400N FG VV002 15/15 Q1015=
202309110450 METAR ESMX 110450Z VRB02KT 1300 BR OVC002 15/15 Q1015=
202309110420 METAR ESMX 110420Z 00000KT 1300 BR OVC002 15/15 Q1015=
202309110350 METAR COR ESMX 110350Z VRB02KT 1100 R01/P2000N R19/P2000N BR OVC002 15/15 Q1015=
202309110320 METAR ESMX 110320Z AUTO VRB03KT 1400 R01/P2000N R19/P2000N BR OVC002/// 15/15 Q1016=
202309110250 METAR ESMX 110250Z AUTO 31003KT 1500 OVC002/// 15/15 Q1016=
202309110220 METAR ESMX 110220Z AUTO 36004KT 1700 OVC001/// 15/15 Q1016=
202309110150 METAR ESMX 110150Z AUTO 28003KT 250V310 0500 R01/1400D R19/P2000N FG OVC001/// 15/15 Q1016=
202309110120 METAR ESMX 110120Z AUTO 30004KT 270V340 0300 R01/1000N R19/P2000N FG OVC001/// 15/15 Q1016=
202309110050 METAR ESMX 110050Z AUTO 33004KT 290V360 0350 R01/1000U R19/1500D FG OVC001/// 15/15 Q1016=
202309110020 METAR ESMX 110020Z AUTO 29004KT 270V340 0300 R01/1100D R19/P2000N FG OVC001/// 16/16 Q1016=
202309102350 METAR ESMX 102350Z AUTO 29004KT 260V330 0250 R01/0800N R19/1200N FG OVC001/// 16/16 Q1016=
202309102320 METAR ESMX 102320Z AUTO 29006KT 260V320 0200 R01/0700N R19/1500N FG BKN001/// 16/16 Q1016=
202309102250 METAR ESMX 102250Z AUTO 28003KT 3600 BR NCD 14/14 Q1016=
202309102220 METAR ESMX 102220Z AUTO 25004KT 5000 BR NCD 14/14 Q1016=
202309102150 METAR ESMX 102150Z AUTO 28003KT 5000 BR NCD 15/15 Q1016=
202309102120 METAR ESMX 102120Z AUTO 26003KT 9000 NCD 16/16 Q1016=
202309102050 METAR ESMX 102050Z AUTO 26004KT 9999 NCD 16/16 Q1017=
202309102020 METAR ESMX 102020Z AUTO 24004KT 9999 NCD 16/16 Q1017=
202309101950 METAR ESMX 101950Z AUTO 25004KT 9999 NCD 17/17 Q1017=
202309101920 METAR ESMX 101920Z AUTO 26004KT 9999 NCD 18/17 Q1016=
202309101850 METAR ESMX 101850Z AUTO 26004KT 9999 NCD 18/17 Q1016=
202309101820 METAR ESMX 101820Z AUTO 26004KT 9999 NCD 19/17 Q1016=
202309101750 METAR ESMX 101750Z AUTO 26003KT 9999 -RA NCD 19/18 Q1016=
202309101720 METAR ESMX 101720Z AUTO 27004KT 9999 NCD 21/18 Q1016=
202309101650 METAR ESMX 101650Z 27004KT CAVOK 23/18 Q1016=
202309101620 METAR ESMX 101620Z 27005KT 240V300 CAVOK 24/17 Q1016=
202309101550 METAR ESMX 101550Z 28006KT CAVOK 24/18 Q1016=
202309101520 METAR ESMX 101520Z 27005KT 240V300 9999 FEW036 25/17 Q1016=
202309101450 METAR ESMX 101450Z AUTO 26006KT 9999 NCD 25/17 Q1016=
202309101420 METAR ESMX 101420Z 29006KT 260V330 9999 FEW036 25/18 Q1016=
202309101350 METAR ESMX 101350Z 32005KT 280V350 9999 FEW038 25/17 Q1016=
202309101320 METAR ESMX 101320Z 28007KT 230V310 9999 SCT036 25/17 Q1016=
202309101250 METAR ESMX 101250Z 24009KT 210V280 9999 SCT037 25/17 Q1016=
202309101220 METAR ESMX 101220Z 28007KT 240V330 9999 FEW036 25/17 Q1016=
202309101150 METAR ESMX 101150Z 29007KT 210V320 9999 FEW038 24/17 Q1016=
202309101120 METAR ESMX 101120Z 28007KT 240V300 9999 FEW039 24/16 Q1016=
202309101050 METAR ESMX 101050Z 29007KT 240V320 9999 FEW039 24/16 Q1016=
202309101020 METAR ESMX 101020Z 29004KT 230V340 CAVOK 24/17 Q1016=
202309100950 METAR ESMX 100950Z 16002KT CAVOK 23/17 Q1017=
202309100920 METAR ESMX 100920Z VRB02KT 9999 FEW042 23/18 Q1017=
202309100850 METAR COR ESMX 100850Z VRB01KT CAVOK 22/18 Q1017=
202309100820 METAR ESMX 100820Z VRB01KT CAVOK 19/17 Q1017=
202309100750 METAR ESMX 100750Z 00000KT CAVOK 16/16 Q1017=
202309100720 METAR ESMX 100720Z 00000KT 1300 R01/1200U R19/1600N NSC 15/15 Q1017=
202309100650 METAR ESMX 100650Z 00000KT 0100 R01/0200N R19/0400N FG VV001 14/14 Q1017=
202309100620 METAR COR ESMX 100620Z 21002KT 0050 R01/0125N R19/0125N FG VV001 12/12 Q1017=
202309100550 METAR COR ESMX 100550Z 00000KT 0050 R01/0200N R19/0125N FG VV001 11/11 Q1016=
202309100520 METAR ESMX 100520Z AUTO 00000KT 0050 R01/0100N R19/0175N BCFG VV001 10/10 Q1016=
202309100450 METAR ESMX 100450Z AUTO 00000KT 0150 R01/0500N R19/0400N BCFG FEW001/// 09/09 Q1016=
202309100420 METAR ESMX 100420Z AUTO 18002KT 0050 R01/0225N R19/0125N FG NCD 09/09 Q1016=
202309100350 METAR ESMX 100350Z AUTO 18001KT 0050 R01/0175N R19/0300N FG NCD 09/09 Q1016=
202309100320 METAR ESMX 100320Z AUTO 00000KT 0100 R01/0350N R19/0325N BCFG NCD 09/09 Q1016=
202309100250 METAR ESMX 100250Z AUTO 00000KT 0050 R01/0275N R19/0375N FG FEW001/// 09/09 Q1016=
202309100220 METAR ESMX 100220Z AUTO 00000KT 0050 R01/0325N R19/0175N BCFG NCD 10/10 Q1017=
202309100150 METAR ESMX 100150Z AUTO 00000KT 0050 R01/0225N R19/0400N BCFG NCD 11/11 Q1017=
202309100120 METAR ESMX 100120Z AUTO 16002KT 0050 R01/0250N R19/0400N BCFG NCD 11/11 Q1017=
202309100050 METAR ESMX 100050Z AUTO 00000KT 0100 R01/0225N R19/P2000D BCFG NCD 10/10 Q1017=
202309100020 METAR ESMX 100020Z AUTO 00000KT 0050 R01/0225N R19/0400N BCFG NCD 11/11 Q1017=
202309092350 METAR ESMX 092350Z AUTO 16001KT 0100 R01/0375D R19/P2000N BCFG NCD 11/11 Q1018=
202309092320 METAR ESMX 092320Z AUTO 00000KT 0100 R01/0350N R19/0400N BCFG NCD 13/13 Q1018=
202309092250 METAR ESMX 092250Z AUTO 00000KT 0150 R01/0900D R19/0450U BCFG NCD 14/14 Q1018=
202309092220 METAR ESMX 092220Z AUTO 16004KT 9999 NCD 14/14 Q1018=
202309092150 METAR ESMX 092150Z AUTO 17005KT 9999 NCD 16/15 Q1018=
202309092120 METAR ESMX 092120Z AUTO 16006KT 9999 NCD 16/16 Q1018=
202309092050 METAR ESMX 092050Z AUTO 17005KT 9999 NCD 17/16 Q1018=
202309092020 METAR ESMX 092020Z AUTO 17005KT 9999 NCD 17/15 Q1018=
202309091950 METAR ESMX 091950Z AUTO 16005KT 9999 NCD 18/15 Q1018=
202309091920 METAR ESMX 091920Z AUTO 16005KT 9999 NCD 18/15 Q1018=
202309091850 METAR ESMX 091850Z AUTO 16007KT 9999 NCD 19/15 Q1018=
202309091820 METAR ESMX 091820Z AUTO 15006KT 9999 NCD 20/15 Q1018=
202309091750 METAR ESMX 091750Z AUTO 16006KT 9999 NCD 21/15 Q1018=
202309091720 METAR ESMX 091720Z AUTO 16006KT 9999 NCD 22/15 Q1018=
202309091650 METAR ESMX 091650Z AUTO 16007KT 9999 NCD 23/15 Q1018=
202309091620 METAR ESMX 091620Z AUTO 16007KT 9999 NCD 24/15 Q1018=
202309091550 METAR ESMX 091550Z AUTO 17007KT 9999 NCD 24/15 Q1018=
202309091520 METAR ESMX 091520Z AUTO 16009KT 9999 NCD 24/14 Q1018=
202309091450 METAR ESMX 091450Z AUTO 17008KT 9999 NCD 25/15 Q1018=
202309091420 METAR ESMX 091420Z AUTO 17010KT 9999 NCD 25/15 Q1019=
202309091350 METAR ESMX 091350Z AUTO 15009KT 9999 NCD 25/16 Q1019=
202309091320 METAR ESMX 091320Z AUTO 15008KT 9999 NCD 25/16 Q1019=
202309091250 METAR ESMX 091250Z AUTO 16009KT 130V190 9999 NCD 25/16 Q1019=
202309091220 METAR ESMX 091220Z AUTO 17008KT 110V200 9999 NCD 25/17 Q1019=
202309091150 METAR ESMX 091150Z AUTO 17008KT 140V200 9999 FEW190/// 25/16 Q1019=
202309091120 METAR ESMX 091120Z AUTO 17008KT 130V200 9999 FEW210/// 24/17 Q1020=
202309091050 METAR ESMX 091050Z AUTO 16007KT 120V210 9999 FEW190/// 24/17 Q1020=
202309091020 METAR ESMX 091020Z AUTO 15006KT 110V180 9999 NCD 23/17 Q1020=
202309090950 METAR ESMX 090950Z AUTO 15007KT 9999 FEW160/// 23/17 Q1020=
202309090920 METAR ESMX 090920Z AUTO 16006KT 130V190 9999 NCD 22/16 Q1020=
202309090850 METAR ESMX 090850Z AUTO 15007KT 9999 NCD 21/16 Q1020=
202309090820 METAR ESMX 090820Z 17005KT CAVOK 20/16 Q1020=
202309090750 METAR ESMX 090750Z VRB02KT CAVOK 19/16 Q1020=
202309090720 METAR ESMX 090720Z VRB02KT CAVOK 17/16 Q1020=
202309090650 METAR ESMX 090650Z 00000KT CAVOK 17/17 Q1020=
202309090620 METAR ESMX 090620Z AUTO 00000KT 9999 NCD 14/14 Q1020=
202309090550 METAR ESMX 090550Z AUTO 00000KT 7000 BCFG NCD 12/12 Q1020=
202309090520 METAR ESMX 090520Z AUTO 00000KT 0150 R01/0700N R19/0400N BCFG NCD 10/10 Q1020=
202309090450 METAR ESMX 090450Z AUTO 00000KT 4400 BCFG NCD 09/09 Q1020=
202309090420 METAR ESMX 090420Z AUTO 00000KT 0050 R01/0275D R19/0600N BCFG NCD 10/10 Q1020=
202309090350 METAR ESMX 090350Z AUTO 18003KT 0100 R01/0400N R19/1100D FG SCT001/// 11/11 Q1020=
202309090320 METAR ESMX 090320Z AUTO 00000KT 0100 R01/0350N R19/0450N FG VV001 11/11 Q1020=
202309090250 METAR ESMX 090250Z AUTO 00000KT 0100 R01/0550U R19/0350N FG VV001 10/10 Q1021=
202309090220 METAR ESMX 090220Z AUTO 00000KT 0150 R01/0650N R19/0450N FG VV001 10/10 Q1021=
202309090150 METAR ESMX 090150Z AUTO 00000KT 0100 R01/0350N R19/0400N FG VV001 11/11 Q1021=
202309090120 METAR ESMX 090120Z AUTO 00000KT 0100 R01/0350N R19/0600N FG VV001 12/12 Q1021=
202309090050 METAR ESMX 090050Z AUTO 00000KT 0050 R01/0400N R19/0250N BCFG OVC001/// 12/12 Q1021=
202309090020 METAR ESMX 090020Z AUTO 18001KT 0150 R01/0550N R19/1000N FG NCD 11/11 Q1021=
202309082350 METAR ESMX 082350Z AUTO 00000KT 0100 R01/0500U R19/0600N BCFG NCD 12/12 Q1021=
202309082320 METAR ESMX 082320Z AUTO 00000KT 0100 R01/0750D R19/1200D BCFG NCD 12/12 Q1021=
202309082250 METAR ESMX 082250Z AUTO 00000KT 0100 R01/0350U R19/P2000N FG NCD 12/12 Q1021=
202309082220 METAR ESMX 082220Z AUTO 00000KT 0200 R01/P2000N R19/1500D BCFG NCD 12/12 Q1021=
202309082150 METAR ESMX 082150Z AUTO 00000KT 0250 R01/P2000N R19/1200D NCD 14/14 Q1021=
202309082120 METAR ESMX 082120Z AUTO 00000KT 3700 BR NCD 14/14 Q1021=
202309082050 METAR ESMX 082050Z AUTO 20003KT 9999 NCD 14/14 Q1021=
202309082020 METAR ESMX 082020Z AUTO 20002KT 9999 NCD 15/15 Q1021=
202309081950 METAR ESMX 081950Z AUTO 18002KT 9999 NCD 15/15 Q1021=
202309081920 METAR ESMX 081920Z AUTO 17003KT 9999 NCD 16/16 Q1021=
202309081850 METAR ESMX 081850Z AUTO 00000KT 9999 NCD 16/16 Q1021=
202309081820 METAR ESMX 081820Z AUTO 00000KT 9999 NCD 17/17 Q1021=
202309081750 METAR ESMX 081750Z AUTO 00000KT 9999 -DZ NCD 18/17 Q1021=
202309081720 METAR ESMX 081720Z AUTO 00000KT 9999 NCD 19/18 Q1021=
202309081650 METAR ESMX 081650Z 20002KT CAVOK 20/18 Q1021=
202309081620 METAR ESMX 081620Z 00000KT CAVOK 23/17 Q1022=
202309081550 METAR ESMX 081550Z 20002KT CAVOK 23/16 Q1022=
202309081520 METAR COR ESMX 081520Z 18003KT 130V210 CAVOK 23/15 Q1022=
202309081450 METAR ESMX 081450Z 16003KT CAVOK 25/14 Q1022=
202309081420 METAR ESMX 081420Z 19003KT 140V250 CAVOK 25/14 Q1022=
202309081350 METAR ESMX 081350Z VRB03KT CAVOK 24/13 Q1022=
202309081320 METAR ESMX 081320Z 21005KT 160V240 CAVOK 24/12 Q1022=
202309081250 METAR ESMX 081250Z 17005KT 140V210 CAVOK 24/10 Q1023=
202309081220 METAR ESMX 081220Z 20004KT CAVOK 24/11 Q1023=
202309081150 METAR ESMX 081150Z 20003KT CAVOK 23/14 Q1023=
202309081120 METAR ESMX 081120Z 20003KT CAVOK 23/15 Q1023=
202309081050 METAR ESMX 081050Z VRB02KT CAVOK 22/16 Q1023=
202309081020 METAR ESMX 081020Z 20002KT CAVOK 20/16 Q1024=
202309080950 METAR ESMX 080950Z 21003KT 9999 FEW002 19/16 Q1024=
202309080920 METAR ESMX 080920Z 21003KT 210V280 9999 FEW001 BKN003 16/16 Q1024=
202309080850 METAR ESMX 080850Z 20003KT 1400 R01/P2000N R19/1500N FEW001 OVC002 16/16 Q1024=
202309080820 METAR ESMX 080820Z 00000KT 0400 R01/0750N R19/0650U FG VV002 15/15 Q1024=
202309080750 METAR ESMX 080750Z 00000KT 0200 R01/0400N R19/0375N FG VV002 15/15 Q1024=
202309080720 METAR ESMX 080720Z 00000KT 0100 R01/0300N R19/0250N FG VV001 14/14 Q1024=
202309080650 METAR ESMX 080650Z VRB01KT 0100 R01/0200N R19/0275N FG VV001 13/13 Q1024=
202309080620 METAR ESMX 080620Z VRB01KT 0100 R01/0175N R19/0250N FG VV001 13/13 Q1024=
202309080550 METAR ESMX 080550Z 00000KT 0050 R01/0150N R19/0150N FG VV001 13/13 Q1024=
202309080520 METAR ESMX 080520Z VRB02KT 0050 R01/0150N R19/0150N FG VV001 13/13 Q1024=
202309080450 METAR ESMX 080450Z 22001KT 0050 R01/0350D R19/0150N FG VV001 12/12 Q1024=
202309080420 METAR ESMX 080420Z 00000KT 0100 R01/0225N R19/0375N FG VV001 12/12 Q1024=
202309080350 METAR ESMX 080350Z AUTO 00000KT 0100 R01/0500N R19/0375N FG VV002 12/12 Q1025=
202309080320 METAR ESMX 080320Z AUTO 00000KT 0100 R01/0400N R19/0400N FG VV002 11/11 Q1025=
202309080250 METAR ESMX 080250Z AUTO 00000KT 0200 R01/0600D R19/0900N FG BKN001/// OVC003/// 11/11 Q1025=
202309080220 METAR ESMX 080220Z AUTO 00000KT 9999 BCFG BKN003/// OVC005/// 10/10 Q1025=
202309080150 METAR ESMX 080150Z AUTO 00000KT 0300 R01/P2000N R19/P2000D BCFG NCD 09/09 Q1025=
202309080120 METAR ESMX 080120Z AUTO 00000KT 0150 R01/1900N R19/0600N BCFG NCD 09/09 Q1025=
202309080050 METAR ESMX 080050Z AUTO 00000KT 0250 R01/1000N R19/P2000N BCFG NCD 10/10 Q1026=
202309080020 METAR ESMX 080020Z AUTO 20001KT 0150 R01/P2000N R19/1300D BCFG NCD 10/10 Q1026=
202309072350 METAR ESMX 072350Z AUTO 20003KT 0600 R01/P2000N R19/P2000D BCFG NCD 11/11 Q1026=
202309072320 METAR ESMX 072320Z 20001KT 9999 BCFG NSC 11/11 Q1026=
202309072250 METAR ESMX 072250Z 00000KT 8000 BCFG NSC 11/11 Q1026=
202309072220 METAR ESMX 072220Z 20003KT CAVOK 11/11 Q1026=
202309072150 METAR ESMX 072150Z 18002KT 2000 R01/0750N R19/1900D BCFG NSC 12/12 Q1026=
202309072120 METAR ESMX 072120Z 17002KT CAVOK 12/12 Q1026=
202309072050 METAR ESMX 072050Z 20002KT CAVOK 13/13 Q1026=
202309072020 METAR ESMX 072020Z 20002KT CAVOK 13/13 Q1027=
202309071950 METAR ESMX 071950Z AUTO 20002KT 0250 R01/P2000D R19/P2000N BCFG NCD 14/14 Q1027=
202309071920 METAR ESMX 071920Z AUTO 20003KT 9999 NCD 14/14 Q1027=
202309071850 METAR ESMX 071850Z AUTO 18003KT 9999 NCD 15/14 Q1027=
202309071820 METAR ESMX 071820Z AUTO 00000KT 9999 NCD 15/15 Q1027=
202309071750 METAR ESMX 071750Z AUTO 00000KT 9999 NCD 16/15 Q1027=
202309071720 METAR ESMX 071720Z AUTO 17004KT 9999 NCD 19/16 Q1027=
202309071650 METAR ESMX 071650Z 20005KT CAVOK 19/16 Q1027=
202309071620 METAR ESMX 071620Z 19008KT CAVOK 20/16 Q1027=
202309071550 METAR ESMX 071550Z 18008KT CAVOK 21/16 Q1027=
202309071520 METAR ESMX 071520Z 20008KT 9999 FEW026 21/16 Q1027=
202309071450 METAR ESMX 071450Z 19008KT 150V220 9999 SCT027 22/16 Q1027=
202309071420 METAR ESMX 071420Z 16006KT 130V200 9999 SCT028 22/16 Q1027=
202309071350 METAR ESMX 071350Z 16008KT 090V200 9999 SCT028 21/15 Q1028=
202309071320 METAR ESMX 071320Z 18007KT 140V200 9999 SCT026 21/15 Q1028=
202309071250 METAR ESMX 071250Z 17005KT 130V210 9999 BKN024 21/15 Q1028=
202309071220 METAR ESMX 071220Z 18008KT 9999 BKN023 22/16 Q1028=
202309071150 METAR ESMX 071150Z 18006KT 140V220 9999 BKN020 20/16 Q1028=
202309071120 METAR ESMX 071120Z 17006KT 110V210 9999 SCT017 20/16 Q1029=
202309071050 METAR COR ESMX 071050Z 19006KT 9999 FEW015 20/16 Q1029=
202309071020 METAR ESMX 071020Z 16007KT 120V190 9999 SCT010 BKN013 19/15 Q1029=
202309070950 METAR ESMX 070950Z 15005KT 110V170 9999 BKN011 18/16 Q1029=
202309070920 METAR ESMX 070920Z 14005KT 070V170 9999 BKN010 17/15 Q1029=
202309070850 METAR ESMX 070850Z 16007KT 110V210 9999 SCT013 17/15 Q1029=
202309070820 METAR COR ESMX 070820Z 17006KT 9999 FEW013 18/15 Q1029=
202309070750 METAR ESMX 070750Z 13004KT 080V170 9999 FEW014 17/14 Q1029=
202309070720 METAR COR ESMX 070720Z 13005KT 080V170 9999 FEW014 16/13 Q1029=
202309070650 METAR ESMX 070650Z 13003KT CAVOK 15/13 Q1029=
202309070620 METAR ESMX 070620Z 11004KT CAVOK 13/13 Q1029=
202309070550 METAR ESMX 070550Z VRB02KT CAVOK 12/12 Q1029=
202309070520 METAR ESMX 070520Z VRB01KT CAVOK 10/10 Q1029=
202309070450 METAR ESMX 070450Z VRB01KT CAVOK 08/08 Q1029=
202309070420 METAR ESMX 070420Z 00000KT 0150 R01/0375N R19/P2000N BCFG NSC 08/08 Q1029=
202309070350 METAR ESMX 070350Z 00000KT 0250 R01/1100N R19/P2000N BCFG NSC 09/09 Q1029=
202309070320 METAR ESMX 070320Z AUTO VRB01KT 0900 R01/P2000N R19/P2000N BCFG NCD 09/09 Q1029=
202309070250 METAR ESMX 070250Z AUTO 12002KT 9999 NCD 11/11 Q1029=
202309070220 METAR ESMX 070220Z AUTO 10004KT 070V140 9999 NCD 12/12 Q1029=
202309070150 METAR ESMX 070150Z AUTO 10003KT 050V160 9999 NCD 12/12 Q1029=
202309070120 METAR ESMX 070120Z AUTO 14002KT 7000 BCFG SCT003/// 11/11 Q1029=
202309070050 METAR ESMX 070050Z AUTO 00000KT 0900 R01/P2000N R19/P2000N BCFG FEW004/// 10/10 Q1029=
202309070020 METAR ESMX 070020Z AUTO 14002KT 7000 NCD 12/12 Q1029=
202309062350 METAR ESMX 062350Z VRB02KT CAVOK 12/12 Q1029=
202309062320 METAR ESMX 062320Z 14002KT CAVOK 12/12 Q1029=
202309062250 METAR ESMX 062250Z VRB02KT CAVOK 13/13 Q1029=
202309062220 METAR ESMX 062220Z 14002KT 9999 FEW038 14/13 Q1028=
202309062150 METAR ESMX 062150Z 14004KT 9999 BKN038 15/14 Q1028=
202309062120 METAR ESMX 062120Z 14004KT 100V170 9999 BKN038 15/14 Q1028=
202309062050 METAR ESMX 062050Z 13004KT 080V170 9999 SCT013 BKN037 15/14 Q1028=
202309062020 METAR ESMX 062020Z 16004KT 9999 BKN013 16/14 Q1028=
202309061950 METAR ESMX 061950Z AUTO 14004KT 9999 OVC015/// 16/15 Q1028=
202309061920 METAR ESMX 061920Z AUTO 14003KT 9999 OVC015/// 16/15 Q1028=
202309061850 METAR ESMX 061850Z AUTO 15005KT 9999 OVC015/// 17/15 Q1028=
202309061820 METAR ESMX 061820Z AUTO 12004KT 080V140 9999 SCT017/// BKN039/// 16/15 Q1027=
202309061750 METAR ESMX 061750Z AUTO 12004KT 060V160 9999 NCD 16/15 Q1027=
202309061720 METAR ESMX 061720Z 11004KT 060V160 CAVOK 18/15 Q1027=
202309061650 METAR ESMX 061650Z 14004KT 9999 FEW020 19/15 Q1027=
202309061620 METAR ESMX 061620Z 13005KT 070V160 9999 FEW020 19/15 Q1027=
202309061550 METAR ESMX 061550Z 13006KT 090V160 9999 FEW020 20/16 Q1027=
202309061520 METAR ESMX 061520Z 13005KT 070V170 9999 FEW019 20/16 Q1027=
202309061450 METAR COR ESMX 061450Z 13005KT 050V160 9999 SCT019 20/15 Q1027=
202309061420 METAR ESMX 061420Z 15007KT 080V180 9999 BKN018 20/15 Q1027=
202309061350 METAR ESMX 061350Z 14006KT 090V150 9999 BKN019 20/16 Q1027=
202309061320 METAR ESMX 061320Z 15006KT 120V190 9999 BKN018 20/16 Q1027=
202309061250 METAR ESMX 061250Z 06005KT 330V110 9999 BKN017 19/16 Q1027=
202309061220 METAR ESMX 061220Z 07005KT 030V110 9999 BKN016 19/16 Q1027=
202309061150 METAR ESMX 061150Z 06007KT 030V110 9999 BKN015 19/15 Q1027=
202309061120 METAR ESMX 061120Z 07006KT 030V120 9999 BKN016 19/16 Q1026=
202309061050 METAR ESMX 061050Z 06006KT 020V120 9999 BKN016 19/16 Q1026=
202309061020 METAR ESMX 061020Z 04007KT 020V080 9999 BKN015 19/16 Q1026=
202309060950 METAR ESMX 060950Z 07004KT 020V140 9999 BKN014 19/16 Q1026=
202309060920 METAR ESMX 060920Z 12004KT 040V130 9999 BKN015 18/16 Q1026=
202309060850 METAR ESMX 060850Z 08004KT 040V120 9999 BKN009 17/16 Q1026=
202309060820 METAR ESMX 060820Z 09004KT 040V120 9999 BKN007 16/16 Q1026=
202309060750 METAR ESMX 060750Z 07004KT 020V140 9999 BKN005 16/15 Q1025=
202309060720 METAR ESMX 060720Z 08007KT 020V140 9000 BKN003 15/15 Q1025=
202309060650 METAR ESMX 060650Z 05005KT 020V090 9999 BKN006 15/15 Q1025=
202309060620 METAR ESMX 060620Z VRB03KT 9999 FEW005 SCT009 14/14 Q1024=
202309060550 METAR ESMX 060550Z 03005KT 350V080 9000 SCT003 BKN005 13/13 Q1024=
202309060520 METAR ESMX 060520Z 01006KT 0400 R19/0650N FG VV002 13/13 Q1024=
202309060450 METAR ESMX 060450Z 01005KT 0350 R19/0600N BCFG VV002 13/13 Q1023=
202309060420 METAR ESMX 060420Z 03004KT 2000 R01/P2000N R19/P2000N BCFG BKN003 11/11 Q1023=
202309060350 METAR ESMX 060350Z AUTO 00000KT 0100 R01/0500D R19/0400N BCFG NCD 10/10 Q1023=
202309060320 METAR ESMX 060320Z AUTO 00000KT 0100 R01/0400N R19/0275N BCFG NCD 09/09 Q1023=
202309060250 METAR ESMX 060250Z AUTO VRB02KT 0300 R01/1200N R19/P2000N BCFG NCD 10/10 Q1022=
202309060220 METAR ESMX 060220Z AUTO 26002KT 9000 BCFG NCD 09/09 Q1022=
202309060150 METAR ESMX 060150Z AUTO 00000KT 0350 R01/1100N R19/P2000N BCFG NCD 10/10 Q1022=
202309060120 METAR ESMX 060120Z AUTO 23003KT 9999 NCD 11/11 Q1022=
202309060050 METAR ESMX 060050Z AUTO 23003KT 0350 R01/P2000N R19/P2000D NCD 11/11 Q1022=
202309060020 METAR ESMX 060020Z AUTO 22003KT 9000 NCD 11/11 Q1021=
202309052350 METAR ESMX 052350Z 16003KT CAVOK 13/13 Q1022=
202309052320 METAR ESMX 052320Z 24004KT CAVOK 12/12 Q1022=
202309052250 METAR ESMX 052250Z 21005KT CAVOK 12/12 Q1021=
202309052220 METAR ESMX 052220Z 21004KT CAVOK 13/13 Q1021=
202309052150 METAR ESMX 052150Z 21003KT CAVOK 13/13 Q1021=
202309052120 METAR ESMX 052120Z VRB02KT CAVOK 12/12 Q1021=
202309052050 METAR ESMX 052050Z VRB02KT CAVOK 14/13 Q1021=
202309052020 METAR ESMX 052020Z 23002KT CAVOK 14/13 Q1021=
202309051950 METAR ESMX 051950Z AUTO 22003KT 9999 NCD 13/12 Q1021=
202309051920 METAR ESMX 051920Z AUTO 22004KT 9999 NCD 15/13 Q1020=
202309051850 METAR ESMX 051850Z AUTO 22006KT 9999 NCD 16/13 Q1020=
202309051820 METAR ESMX 051820Z AUTO 23005KT 9999 NCD 16/13 Q1020=
202309051750 METAR ESMX 051750Z AUTO 24006KT 9999 NCD 17/13 Q1020=
202309051720 METAR ESMX 051720Z AUTO 26007KT 9999 NCD 19/13 Q1020=
202309051650 METAR ESMX 051650Z 26008KT 230V300 CAVOK 20/12 Q1020=
202309051620 METAR ESMX 051620Z 26006KT 230V290 CAVOK 21/12 Q1020=
202309051550 METAR ESMX 051550Z 26009KT CAVOK 21/12 Q1020=
202309051520 METAR ESMX 051520Z 24010KT 210V270 CAVOK 22/12 Q1020=
202309051450 METAR ESMX 051450Z 26009KT 230V300 CAVOK 22/13 Q1020=
202309051420 METAR ESMX 051420Z 23010KT 200V260 CAVOK 22/13 Q1020=
202309051350 METAR ESMX 051350Z 26010KT 230V290 CAVOK 22/13 Q1020=
202309051320 METAR ESMX 051320Z 26012KT 220V280 CAVOK 23/13 Q1020=
202309051250 METAR ESMX 051250Z 24011KT 210V270 CAVOK 22/14 Q1021=
202309051220 METAR ESMX 051220Z 24013KT 210V270 CAVOK 22/14 Q1021=
202309051150 METAR ESMX 051150Z 26013KT 220V280 9999 FEW035 22/14 Q1021=
202309051120 METAR ESMX 051120Z AUTO 24011KT 200V280 9999 NCD 22/15 Q1021=
202309051050 METAR ESMX 051050Z 24011KT 210V290 9999 FEW030 22/15 Q1021=
202309051020 METAR ESMX 051020Z 26009KT 220V300 9999 FEW028 21/15 Q1022=
202309050950 METAR ESMX 050950Z 25011KT 9999 FEW026 21/15 Q1022=
202309050920 METAR ESMX 050920Z 25010KT 210V280 9999 FEW023 20/15 Q1022=
202309050850 METAR ESMX 050850Z 23010KT 9999 FEW021 19/15 Q1022=
202309050820 METAR ESMX 050820Z 23010KT 210V270 CAVOK 19/15 Q1022=
202309050750 METAR ESMX 050750Z 25008KT 210V280 CAVOK 18/15 Q1022=
202309050720 METAR ESMX 050720Z 24007KT 200V260 CAVOK 17/15 Q1022=
202309050650 METAR ESMX 050650Z 23006KT 190V250 9999 FEW006 16/15 Q1022=
202309050620 METAR ESMX 050620Z 23006KT CAVOK 15/15 Q1022=
202309050550 METAR ESMX 050550Z 23006KT CAVOK 14/14 Q1022=
202309050520 METAR ESMX 050520Z 21006KT CAVOK 13/13 Q1022=
202309050450 METAR ESMX 050450Z 23005KT CAVOK 13/13 Q1022=
202309050420 METAR ESMX 050420Z 21005KT CAVOK 12/12 Q1022=
202309050350 METAR COR ESMX 050350Z 20006KT 7000 BR NSC 12/12 Q1022=
202309050320 METAR ESMX 050320Z AUTO 21004KT 3200 BR NCD 12/12 Q1022=
202309050250 METAR ESMX 050250Z AUTO 19006KT 3600 BR NCD 12/12 Q1022=
202309050220 METAR ESMX 050220Z AUTO 18007KT 6000 NCD 13/13 Q1023=
202309050150 METAR ESMX 050150Z AUTO 21006KT 5000 BR NCD 12/12 Q1023=
202309050120 METAR ESMX 050120Z AUTO 20006KT 7000 NCD 13/13 Q1023=
202309050050 METAR ESMX 050050Z AUTO 22005KT 6000 NCD 13/13 Q1023=
202309050020 METAR ESMX 050020Z AUTO 18006KT 2400 BR NCD 13/13 Q1023=
202309042350 METAR ESMX 042350Z 22004KT 5000 BR NSC 13/13 Q1023=
202309042320 METAR ESMX 042320Z 22005KT CAVOK 13/13 Q1023=
202309042250 METAR ESMX 042250Z 22005KT CAVOK 14/14 Q1023=
202309042220 METAR ESMX 042220Z 22005KT CAVOK 14/14 Q1024=
202309042150 METAR ESMX 042150Z 22005KT CAVOK 15/15 Q1024=
202309042120 METAR ESMX 042120Z 22006KT CAVOK 16/15 Q1024=
202309042050 METAR ESMX 042050Z 23007KT 200V260 CAVOK 16/15 Q1024=
202309042020 METAR ESMX 042020Z 23007KT CAVOK 16/16 Q1024=
202309041950 METAR ESMX 041950Z 22006KT CAVOK 16/15 Q1024=
202309041920 METAR ESMX 041920Z 22006KT CAVOK 16/15 Q1024=
202309041850 METAR ESMX 041850Z AUTO 20006KT 9999 NCD 16/15 Q1024=
202309041820 METAR ESMX 041820Z AUTO 22005KT 9999 NCD 17/15 Q1024=
202309041750 METAR ESMX 041750Z AUTO 23004KT 9999 NCD 17/15 Q1024=
202309041720 METAR ESMX 041720Z 24005KT 200V260 CAVOK 19/15 Q1024=
202309041650 METAR ESMX 041650Z 24008KT CAVOK 20/15 Q1024=
202309041620 METAR ESMX 041620Z 25007KT CAVOK 21/15 Q1024=
202309041550 METAR ESMX 041550Z 26009KT CAVOK 22/15 Q1024=
202309041520 METAR ESMX 041520Z 26007KT 230V290 CAVOK 22/15 Q1024=
202309041450 METAR ESMX 041450Z 26009KT CAVOK 22/16 Q1024=
202309041420 METAR ESMX 041420Z 27008KT 9999 FEW024 21/16 Q1024=
202309041350 METAR ESMX 041350Z 28008KT 240V320 9999 SCT022 21/16 Q1025=
202309041320 METAR ESMX 041320Z 26008KT 230V300 9999 BKN021 21/16 Q1025=
202309041250 METAR ESMX 041250Z 25008KT 200V280 9999 BKN020 20/16 Q1025=
202309041220 METAR ESMX 041220Z 24007KT 200V280 9999 BKN016 19/16 Q1025=
202309041150 METAR ESMX 041150Z 23008KT 9999 BKN014 19/16 Q1025=
202309041120 METAR ESMX 041120Z 23009KT 9999 BKN015 19/16 Q1025=
202309041050 METAR COR ESMX 041050Z 23009KT 9999 BKN015 19/16 Q1025=
202309041020 METAR ESMX 041020Z AUTO 23008KT 200V300 9999 BKN017/// 19/16 Q1025=
202309040950 METAR ESMX 040950Z AUTO 25010KT 230V290 9999 BKN016/// 19/16 Q1025=
202309040920 METAR ESMX 040920Z 27008KT 230V300 9999 BKN014 19/16 Q1025=
202309040850 METAR ESMX 040850Z 26008KT 220V300 9999 BKN014 18/16 Q1024=
202309040820 METAR ESMX 040820Z 26007KT 240V300 9999 BKN011 18/16 Q1024=
202309040750 METAR ESMX 040750Z AUTO 25008KT 220V290 9999 OVC010/// 17/16 Q1024=
202309040720 METAR ESMX 040720Z 27006KT 230V320 9999 OVC009 17/15 Q1024=
202309040650 METAR ESMX 040650Z 27008KT 240V320 9999 BKN007 17/15 Q1023=
202309040620 METAR ESMX 040620Z 25009KT 170V290 9999 OVC008 16/15 Q1023=
202309040550 METAR ESMX 040550Z 26009KT 9999 OVC007 16/15 Q1023=
202309040520 METAR ESMX 040520Z 26007KT 9999 OVC008 16/15 Q1023=
202309040450 METAR ESMX 040450Z 28006KT 230V320 9999 OVC007 16/15 Q1023=
202309040420 METAR ESMX 040420Z 27007KT 9999 OVC008 16/15 Q1023=
202309040350 METAR COR ESMX 040350Z 25009KT 230V290 9999 BKN010 16/15 Q1023=
202309040320 METAR ESMX 040320Z AUTO 26008KT 9999 BKN010/// OVC013/// 16/15 Q1023=
202309040250 METAR ESMX 040250Z AUTO 26007KT 9999 BKN010/// OVC013/// 16/15 Q1023=
202309040220 METAR ESMX 040220Z AUTO 26010KT 230V290 9999 OVC011/// 16/15 Q1023=
202309040150 METAR ESMX 040150Z AUTO 25008KT 9999 BKN011/// OVC016/// 16/15 Q1023=
202309040120 METAR ESMX 040120Z AUTO 25006KT 220V290 9999 BKN010/// OVC012/// 16/15 Q1023=
202309040050 METAR ESMX 040050Z AUTO 23006KT 9999 SCT010/// BKN015/// OVC086/// 16/15 Q1023=
202309040020 METAR ESMX 040020Z AUTO 23007KT 9999 SCT010/// OVC088/// 15/15 Q1023=
202309032350 METAR ESMX 032350Z AUTO 23008KT 9999 SCT010/// BKN016/// 15/15 Q1022=
202309032320 METAR ESMX 032320Z AUTO 22009KT 9999 BKN010/// OVC031/// 15/15 Q1022=
202309032250 METAR ESMX 032250Z AUTO 22008KT 9999 OVC032/// 15/14 Q1022=
202309032220 METAR ESMX 032220Z AUTO 22007KT 9999 FEW015/// OVC037/// 15/14 Q1023=
202309032150 METAR ESMX 032150Z AUTO 22007KT 9999 OVC036/// 15/14 Q1023=
202309032120 METAR ESMX 032120Z AUTO 22007KT 9999 FEW018/// OVC045/// 15/13 Q1023=
202309032050 METAR ESMX 032050Z AUTO 22007KT 9999 SCT018/// OVC051/// 15/13 Q1023=
202309032020 METAR ESMX 032020Z AUTO 23006KT 9999 FEW020/// OVC053/// 15/13 Q1023=
202309031950 METAR ESMX 031950Z AUTO 23005KT 9999 OVC055/// 15/12 Q1023=
202309031920 METAR ESMX 031920Z AUTO 25005KT 220V280 9999 FEW049/// OVC061/// 15/12 Q1023=
202309031850 METAR ESMX 031850Z AUTO 24005KT 210V290 9999 BKN046/// OVC070/// 15/13 Q1023=
202309031820 METAR ESMX 031820Z AUTO 25006KT 9999 BKN041/// OVC074/// 15/13 Q1023=
202309031750 METAR ESMX 031750Z AUTO 24006KT 9999 BKN053/// OVC074/// 16/13 Q1023=
202309031720 METAR ESMX 031720Z AUTO 26007KT 230V290 9999 BKN061/// OVC080/// 16/14 Q1023=
202309031650 METAR ESMX 031650Z AUTO 25006KT 210V280 9999 OVC055/// 16/14 Q1023=
202309031620 METAR ESMX 031620Z 26009KT 9999 FEW022 SCT048 17/14 Q1023=
202309031550 METAR ESMX 031550Z 24005KT 200V270 CAVOK 17/14 Q1023=
202309031520 METAR ESMX 031520Z 25006KT 220V280 CAVOK 17/14 Q1023=
202309031450 METAR ESMX 031450Z 26009KT 9999 FEW022 17/14 Q1023=
202309031420 METAR ESMX 031420Z 26008KT 9999 FEW026 18/14 Q1022=
202309031350 METAR ESMX 031350Z 26008KT 9999 -DZ SCT026 18/14 Q1022=
202309031320 METAR ESMX 031320Z 25008KT 9999 SCT025 18/13 Q1022=
202309031250 METAR ESMX 031250Z 25007KT 9999 SCT026 19/14 Q1022=
202309031220 METAR ESMX 031220Z 26008KT 230V300 9999 SCT024 18/13 Q1022=
202309031150 METAR ESMX 031150Z 22006KT 9999 FEW022 19/14 Q1021=
202309031120 METAR ESMX 031120Z 23006KT 9999 SCT022 18/13 Q1021=
202309031050 METAR ESMX 031050Z 27006KT 220V300 9999 SCT024 18/13 Q1021=
202309031020 METAR ESMX 031020Z 26005KT 220V320 CAVOK 19/13 Q1021=
202309030950 METAR ESMX 030950Z 25004KT 200V300 CAVOK 17/13 Q1021=
202309030920 METAR COR ESMX 030920Z 25006KT 9999 FEW023 17/13 Q1021=
202309030850 METAR ESMX 030850Z 22004KT 160V300 9999 FEW019 17/12 Q1021=
202309030820 METAR ESMX 030820Z 30005KT 260V330 9999 SCT019 16/12 Q1020=
202309030750 METAR COR ESMX 030750Z 27005KT 220V300 CAVOK 16/12 Q1020=
202309030720 METAR ESMX 030720Z 27007KT 240V300 9999 BKN026 15/12 Q1020=
202309030650 METAR ESMX 030650Z 23006KT 9999 FEW027 14/12 Q1020=
202309030620 METAR ESMX 030620Z 23005KT 9999 SCT027 13/13 Q1020=
202309030550 METAR COR ESMX 030550Z 23005KT 9999 BKN027 12/12 Q1020=
202309030520 METAR ESMX 030520Z AUTO 23003KT 9999 OVC025/// 12/12 Q1019=
202309030450 METAR ESMX 030450Z AUTO 25004KT 9999 OVC026/// 11/11 Q1019=
202309030420 METAR ESMX 030420Z AUTO 23005KT 9999 BKN028/// 11/11 Q1019=
202309030350 METAR ESMX 030350Z AUTO 22006KT 9999 NCD 11/11 Q1019=
202309030320 METAR ESMX 030320Z AUTO 22007KT 9999 NCD 11/11 Q1019=
202309030250 METAR ESMX 030250Z AUTO 22009KT 9999 NCD 12/11 Q1018=
202309030220 METAR ESMX 030220Z AUTO 24006KT 210V280 9999 OVC028/// 12/11 Q1018=
202309030150 METAR ESMX 030150Z AUTO 24006KT 210V280 9999 BKN029/// 12/11 Q1018=
202309030120 METAR ESMX 030120Z 23008KT 9999 FEW015 SCT021 12/11 Q1018=
202309030050 METAR ESMX 030050Z 26005KT 9999 BKN021 12/12 Q1018=
202309030020 METAR ESMX 030020Z 26006KT 9999 FEW014 BKN021 13/11 Q1018=
202309022350 METAR ESMX 022350Z 26005KT 9999 BKN023 12/11 Q1018=
202309022320 METAR ESMX 022320Z 21003KT 9999 BKN025 12/12 Q1018=
202309022250 METAR ESMX 022250Z 24003KT 220V280 9999 BKN027 12/11 Q1018=
202309022220 METAR ESMX 022220Z 23003KT 210V270 9999 SCT027 12/11 Q1018=
202309022150 METAR ESMX 022150Z VRB03KT 9999 SCT028 12/11 Q1018=
202309022120 METAR ESMX 022120Z 23003KT 200V280 9999 SCT028 12/11 Q1018=
202309022050 METAR ESMX 022050Z 22004KT 9999 FEW026 12/11 Q1018=
202309022020 METAR ESMX 022020Z 22004KT 9999 SCT024 12/11 Q1018=
202309021950 METAR ESMX 021950Z 23005KT CAVOK 13/11 Q1018=
202309021920 METAR ESMX 021920Z 23005KT 9999 FEW026 13/11 Q1018=
202309021850 METAR ESMX 021850Z 20004KT 9999 FEW026 14/11 Q1017=
202309021820 METAR ESMX 021820Z 25005KT 210V290 9999 FEW029 15/11 Q1017=
202309021750 METAR ESMX 021750Z AUTO 25007KT 230V290 9999 FEW028/// 15/11 Q1017=
202309021720 METAR ESMX 021720Z AUTO 26008KT 230V290 9999 BKN028/// 16/12 Q1017=
202309021650 METAR ESMX 021650Z AUTO 25009KT 9999 NCD 17/12 Q1017=
202309021620 METAR ESMX 021620Z AUTO 24009KT 210V270 9999 NCD 18/12 Q1017=
202309021550 METAR ESMX 021550Z AUTO 25010KT 210V280 9999 NCD 19/12 Q1017=
202309021520 METAR ESMX 021520Z AUTO 26011KT 220V290 9999 NCD 20/11 Q1016=
202309021450 METAR ESMX 021450Z AUTO 25011KT 220V300 9999 NCD 20/11 Q1016=
202309021420 METAR ESMX 021420Z AUTO 27010KT 9999 NCD 21/11 Q1016=
202309021350 METAR ESMX 021350Z AUTO 25011KT 230V300 9999 NCD 21/12 Q1016=
202309021320 METAR ESMX 021320Z AUTO 24010KT 9999 BKN041/// 21/13 Q1016=
202309021250 METAR ESMX 021250Z AUTO 23010KT 200V260 9999 SCT040/// 21/12 Q1016=
202309021220 METAR ESMX 021220Z AUTO 25010KT 220V280 9999 FEW040/// 21/12 Q1016=
202309021150 METAR ESMX 021150Z AUTO 26010KT 9999 NCD 21/13 Q1016=
202309021120 METAR ESMX 021120Z AUTO 24010KT 210V300 9999 NCD 21/13 Q1016=
202309021050 METAR ESMX 021050Z AUTO 25012KT 220V280 9999 NCD 20/12 Q1016=
202309021020 METAR ESMX 021020Z AUTO 24010KT 200V280 9999 NCD 20/13 Q1015=
202309020950 METAR ESMX 020950Z AUTO 26010KT 9999 NCD 20/12 Q1015=
202309020920 METAR ESMX 020920Z AUTO 27010KT 9999 NCD 20/13 Q1015=
202309020850 METAR ESMX 020850Z 26009KT 230V290 CAVOK 19/13 Q1015=
202309020820 METAR ESMX 020820Z 25007KT CAVOK 18/14 Q1015=
202309020750 METAR ESMX 020750Z 24006KT 210V280 CAVOK 16/14 Q1014=
202309020720 METAR ESMX 020720Z 26006KT 220V290 9999 FEW005 15/14 Q1014=
202309020650 METAR COR ESMX 020650Z 25007KT 220V280 9999 FEW005 14/14 Q1014=
202309020620 METAR ESMX 020620Z AUTO 24005KT 9999 NCD 13/13 Q1014=
202309020550 METAR ESMX 020550Z AUTO 25004KT 210V290 9999 BKN003/// 13/13 Q1014=
202309020520 METAR ESMX 020520Z AUTO 24003KT 220V280 9999 BKN003/// 12/12 Q1014=
202309020450 METAR ESMX 020450Z AUTO 21004KT 9999 OVC003/// 11/11 Q1013=
202309020420 METAR ESMX 020420Z AUTO 25003KT 9999 BKN002/// 11/11 Q1013=
202309020350 METAR ESMX 020350Z AUTO 26004KT 9999 FEW003/// 11/11 Q1013=
202309020320 METAR ESMX 020320Z AUTO 25003KT 200V280 9999 FEW003/// 11/11 Q1013=
202309020250 METAR ESMX 020250Z AUTO 26003KT 220V290 9999 BKN003/// 12/12 Q1013=
202309020220 METAR ESMX 020220Z AUTO 26005KT 230V290 8000 OVC001/// 12/12 Q1012=
202309020150 METAR ESMX 020150Z AUTO 27007KT 0550 R01/1700D R19/P2000N FG SCT002/// BKN003/// 12/12 Q1012=
202309020120 METAR ESMX 020120Z AUTO 26004KT 9999 NCD 11/11 Q1012=
202309020050 METAR ESMX 020050Z AUTO 26003KT 9999 NCD 12/12 Q1012=
202309020020 METAR ESMX 020020Z AUTO 26005KT 9999 BKN074/// 12/12 Q1012=
202309012350 METAR ESMX 012350Z AUTO 27005KT 9999 BKN076/// 12/12 Q1011=
202309012320 METAR ESMX 012320Z AUTO 27005KT 9999 NCD 13/13 Q1011=
202309012250 METAR ESMX 012250Z AUTO 27004KT 9999 BKN100/// 13/13 Q1011=
202309012220 METAR ESMX 012220Z AUTO 27004KT 9999 FEW082/// OVC100/// 13/13 Q1011=
202309012150 METAR ESMX 012150Z AUTO 28005KT 9999 OVC096/// 14/13 Q1011=
202309012120 METAR ESMX 012120Z AUTO 27005KT 9999 OVC082/// 14/14 Q1010=
202309012050 METAR ESMX 012050Z AUTO 27006KT 9999 FEW053/// BKN092/// 14/14 Q1010=
202309012020 METAR ESMX 012020Z AUTO 26006KT 9999 BKN076/// OVC110/// 14/14 Q1010=
202309011950 METAR ESMX 011950Z AUTO 26004KT 9999 SCT059/// OVC082/// 14/14 Q1010=
202309011920 METAR ESMX 011920Z AUTO 26004KT 230V290 9999 OVC059/// 14/14 Q1010=
202309011850 METAR ESMX 011850Z AUTO 27005KT 9999 BKN055/// OVC068/// 15/14 Q1010=
202309011820 METAR ESMX 011820Z AUTO 28004KT 9999 FEW002/// BKN051/// OVC062/// 15/14 Q1010 REDZ=
202309011750 METAR ESMX 011750Z AUTO 28007KT 240V310 9999 -RA FEW029/// BKN057/// 15/13 Q1009=
202309011720 METAR ESMX 011720Z AUTO 26008KT 9999 FEW032/// BKN057/// 16/13 Q1009=
202309011650 METAR ESMX 011650Z AUTO 26007KT 230V290 9999 FEW027/// OVC076/// 17/14 Q1008=
202309011620 METAR ESMX 011620Z AUTO 26005KT 230V290 9999 FEW041/// BKN078/// OVC130/// 17/15 Q1008=
202309011550 METAR ESMX 011550Z AUTO 28006KT 9999 BKN130/// 17/15 Q1008=
202309011520 METAR ESMX 011520Z AUTO 27006KT 9999 BKN130/// BKN180/// 17/15 Q1008=
202309011450 METAR ESMX 011450Z AUTO 28007KT 240V300 9999 FEW084/// BKN120/// BKN160/// 17/14 Q1008=
202309011420 METAR ESMX 011420Z 28009KT 250V320 9999 FEW014 17/14 Q1008=
202309011350 METAR ESMX 011350Z 27010KT 9999 FEW014 17/15 Q1008=
202309011320 METAR ESMX 011320Z 26008KT 9999 FEW025 BKN059 16/15 Q1008=
202309011250 METAR COR ESMX 011250Z 29010KT 9999 -RA FEW015 BKN053 16/15 Q1008=
202309011220 METAR ESMX 011220Z 28010KT 250V310 9999 -RA SCT016 BKN040 17/14 Q1008=
