##########################################################
# Query made at 04/19/2024 22:32:04 UTC
# Time interval: from 06/01/2023 12:00  to 06/30/2023 12:59  UTC
##########################################################

##########################################################
# ESMX, Vaxjo (Sweden)
# WMO index: 02641. WIGOS ID: 0-20000-0-02648
# Latitude 56-51N. Longitude 014-50E. Altitude 199 m.
##########################################################

202306301250 METAR ESMX 301250Z AUTO 28011KT 240V300 9999 FEW042/// 19/10 Q1006=
202306301220 METAR ESMX 301220Z AUTO 27010KT 240V300 9999 FEW034/// 20/11 Q1006=
202306301150 METAR ESMX 301150Z 27010KT 230V300 9999 SCT030 18/11 Q1006=
202306301120 METAR ESMX 301120Z 28008KT 240V310 9999 BKN026 17/12 Q1007=
202306301050 METAR ESMX 301050Z 24009KT 200V280 9999 BKN023 18/13 Q1007=
202306301020 METAR ESMX 301020Z 26008KT 220V290 9999 BKN019 17/13 Q1007=
202306300950 METAR ESMX 300950Z 27008KT 230V300 9999 SCT012 BKN017 16/14 Q1007=
202306300920 METAR ESMX 300920Z 26007KT 9999 SCT008 BKN018 16/14 Q1007=
202306300850 METAR ESMX 300850Z 25008KT 9999 FEW006 BKN011 16/15 Q1007=
202306300820 METAR ESMX 300820Z 25007KT 220V280 9999 SCT005 BKN008 16/15 Q1007=
202306300750 METAR ESMX 300750Z 25009KT 210V280 9999 FEW002 BKN006 16/16 Q1007=
202306300720 METAR ESMX 300720Z 23007KT 8000 -RA BKN006 17/17 Q1007=
202306300650 METAR ESMX 300650Z AUTO 25007KT 220V280 9999 SCT005/// BKN011/// OVC037/// 18/17 Q1006=
202306300620 METAR ESMX 300620Z 19007KT 6000 -RA BKN006 18/18 Q1006=
202306300550 METAR ESMX 300550Z 19008KT 7000 -RA BKN007 18/18 Q1006=
202306300520 METAR ESMX 300520Z 18007KT 9000 BR BKN007 BKN022 18/18 Q1006=
202306300450 METAR ESMX 300450Z 17007KT 9000 BKN024 18/17 Q1007=
202306300420 METAR ESMX 300420Z 18007KT 9000 BR BKN029 18/17 Q1007=
202306300350 METAR COR ESMX 300350Z 18005KT 9000 BR NSC 18/17 Q1007=
202306300320 METAR ESMX 300320Z AUTO 18006KT 7000 FEW057/// SCT090/// BKN120/// 17/17 Q1007=
202306300250 METAR ESMX 300250Z AUTO 17006KT 9000 BKN120/// 17/17 Q1007=
202306300220 METAR ESMX 300220Z AUTO 16004KT 9999 FEW017/// SCT023/// OVC064/// 17/17 Q1007=
202306300150 METAR ESMX 300150Z AUTO 22004KT 9999 FEW024/// OVC059/// 17/17 Q1008=
202306300120 METAR ESMX 300120Z AUTO 22004KT 9999 OVC059/// 16/16 Q1008=
202306300050 METAR ESMX 300050Z AUTO 16003KT 9999 OVC061/// 16/16 Q1008=
202306300020 METAR ESMX 300020Z AUTO 23003KT 3700 BR SCT062/// 16/16 Q1008=
202306292350 METAR ESMX 292350Z AUTO 23003KT 9999 FEW160/// 16/16 Q1008=
202306292320 METAR ESMX 292320Z 23003KT CAVOK 16/16 Q1009=
202306292250 METAR ESMX 292250Z 23004KT CAVOK 16/16 Q1009=
202306292220 METAR ESMX 292220Z 22003KT CAVOK 17/17 Q1009=
202306292150 METAR ESMX 292150Z 21004KT CAVOK 17/17 Q1009=
202306292120 METAR ESMX 292120Z 23004KT CAVOK 17/16 Q1009=
202306292050 METAR ESMX 292050Z 23003KT CAVOK 18/16 Q1010=
202306292020 METAR ESMX 292020Z 20004KT 9999 FEW020 18/16 Q1010=
202306291950 METAR ESMX 291950Z 23003KT CAVOK 18/16 Q1010=
202306291920 METAR ESMX 291920Z 26003KT CAVOK 19/16 Q1010=
202306291850 METAR ESMX 291850Z AUTO 25003KT 9999 NCD 19/16 Q1010=
202306291820 METAR ESMX 291820Z AUTO 25004KT 9999 OVC059/// 20/16 Q1010=
202306291750 METAR ESMX 291750Z AUTO 26004KT 230V290 9999 BKN057/// 20/16 Q1010=
202306291720 METAR ESMX 291720Z AUTO 26007KT 220V290 9999 FEW022/// SCT076/// 21/16 Q1010=
202306291650 METAR ESMX 291650Z AUTO 26006KT 230V310 9999 FEW055/// SCT078/// 21/16 Q1010=
202306291620 METAR ESMX 291620Z 26006KT 220V290 9999 SCT025 21/15 Q1010=
202306291550 METAR ESMX 291550Z 25007KT 9999 SCT024 22/16 Q1010=
202306291520 METAR ESMX 291520Z 25007KT 220V280 9999 BKN027 23/16 Q1010=
202306291450 METAR ESMX 291450Z AUTO 27009KT 9999 FEW027/// SCT180/// 23/16 Q1011=
202306291420 METAR COR ESMX 291420Z 25007KT 190V290 CAVOK 22/15 Q1011=
202306291350 METAR COR ESMX 291350Z 26008KT CAVOK 22/15 Q1011=
202306291320 METAR ESMX 291320Z 26007KT 220V290 CAVOK 22/14 Q1011=
202306291250 METAR ESMX 291250Z AUTO 26008KT 230V290 9999 OVC055/// 22/14 Q1011=
202306291220 METAR ESMX 291220Z 30007KT 260V330 9999 BKN043 23/14 Q1012=
202306291150 METAR ESMX 291150Z 28007KT 240V310 9999 BKN045 23/15 Q1012=
202306291120 METAR ESMX 291120Z 26008KT 140V310 9999 SCT047 23/12 Q1012=
202306291050 METAR ESMX 291050Z 30007KT 9999 BKN045 22/12 Q1012=
202306291020 METAR ESMX 291020Z 30005KT 250V330 9999 BKN042 22/12 Q1012=
202306290950 METAR ESMX 290950Z 26005KT 220V320 9999 SCT038 22/13 Q1012=
202306290920 METAR ESMX 290920Z 27006KT 230V320 9999 SCT035 21/12 Q1012=
202306290850 METAR ESMX 290850Z 27006KT 210V320 9999 SCT034 21/13 Q1013=
202306290820 METAR ESMX 290820Z 27006KT 240V320 CAVOK 21/13 Q1013=
202306290750 METAR ESMX 290750Z 29006KT 240V330 CAVOK 21/13 Q1013=
202306290720 METAR ESMX 290720Z 31008KT 250V360 CAVOK 20/13 Q1013=
202306290650 METAR ESMX 290650Z 29007KT 250V330 CAVOK 19/14 Q1013=
202306290620 METAR ESMX 290620Z 28005KT 230V320 CAVOK 18/14 Q1013=
202306290550 METAR ESMX 290550Z AUTO 30006KT 260V340 9999 BKN180/// 18/14 Q1013=
202306290520 METAR ESMX 290520Z 28004KT 240V320 CAVOK 17/13 Q1013=
202306290450 METAR ESMX 290450Z VRB03KT CAVOK 16/12 Q1013=
202306290420 METAR COR ESMX 290420Z VRB02KT CAVOK 15/13 Q1013=
202306290350 METAR ESMX 290350Z 24002KT CAVOK 13/12 Q1013=
202306290320 METAR ESMX 290320Z AUTO 27003KT 9999 NCD 12/11 Q1013=
202306290250 METAR ESMX 290250Z AUTO 29004KT 9999 NCD 13/12 Q1013=
202306290220 METAR ESMX 290220Z AUTO 30004KT 260V320 9999 NCD 13/12 Q1013=
202306290150 METAR ESMX 290150Z AUTO 30003KT 270V330 9999 NCD 14/13 Q1013=
202306290120 METAR ESMX 290120Z AUTO 29003KT 260V330 9999 NCD 14/13 Q1013=
202306290050 METAR ESMX 290050Z AUTO 28004KT 250V310 9999 NCD 15/14 Q1013=
202306290020 METAR ESMX 290020Z AUTO 26005KT 9999 NCD 15/15 Q1013=
202306282350 METAR ESMX 282350Z 26004KT CAVOK 16/15 Q1013=
202306282320 METAR ESMX 282320Z 26005KT CAVOK 16/14 Q1013=
202306282250 METAR ESMX 282250Z 26005KT CAVOK 17/15 Q1013=
202306282220 METAR ESMX 282220Z 25005KT CAVOK 17/14 Q1013=
202306282150 METAR ESMX 282150Z 25005KT CAVOK 17/14 Q1013=
202306282120 METAR ESMX 282120Z 25005KT CAVOK 18/15 Q1013=
202306282050 METAR ESMX 282050Z 26005KT CAVOK 19/15 Q1013=
202306282020 METAR ESMX 282020Z 26007KT CAVOK 20/15 Q1013=
202306281950 METAR ESMX 281950Z 26007KT CAVOK 21/15 Q1013=
202306281920 METAR ESMX 281920Z AUTO 27007KT 9999 NCD 22/15 Q1013=
202306281850 METAR ESMX 281850Z AUTO 29007KT 9999 NCD 23/15 Q1012=
202306281820 METAR ESMX 281820Z AUTO 27007KT 240V300 9999 NCD 24/13 Q1012=
202306281750 METAR ESMX 281750Z AUTO 29008KT 260V320 9999 SCT061/// BKN098/// 25/11 Q1012=
202306281720 METAR ESMX 281720Z AUTO 23002KT 9999 BKN066/// OVC088/// 25/11 Q1012=
202306281650 METAR ESMX 281650Z AUTO VRB03KT 9999 BKN070/// OVC098/// 24/13 Q1012=
202306281620 METAR ESMX 281620Z AUTO 24005KT 220V280 9999 SCT066/// 26/13 Q1012=
202306281550 METAR ESMX 281550Z AUTO 28006KT 240V300 9999 NCD 26/12 Q1012=
202306281520 METAR ESMX 281520Z AUTO 25008KT 210V280 9999 FEW062/// SCT100/// 26/12 Q1012=
202306281450 METAR ESMX 281450Z AUTO 24009KT 210V280 9999 BKN061/// BKN076/// OVC090/// 26/12 Q1012=
202306281420 METAR ESMX 281420Z AUTO 26006KT 220V290 9999 BKN061/// 26/11 Q1012=
202306281350 METAR ESMX 281350Z AUTO VRB03KT 9999 NCD 25/11 Q1012=
202306281320 METAR ESMX 281320Z AUTO 25004KT 220V300 9999 NCD 25/13 Q1012=
202306281250 METAR ESMX 281250Z AUTO 28004KT 9999 NCD 26/12 Q1012=
202306281220 METAR ESMX 281220Z AUTO 01005KT 260V040 9999 NCD 25/12 Q1012=
202306281150 METAR ESMX 281150Z AUTO 35004KT 290V050 9999 NCD 24/12 Q1012=
202306281120 METAR ESMX 281120Z AUTO 02004KT 330V080 9999 NCD 24/13 Q1012=
202306281050 METAR ESMX 281050Z 01005KT 330V060 CAVOK 24/13 Q1013=
202306281020 METAR ESMX 281020Z 34006KT 300V020 9999 FEW039 24/13 Q1013=
202306280950 METAR ESMX 280950Z 34005KT 270V030 9999 FEW035 23/14 Q1013=
202306280920 METAR ESMX 280920Z AUTO 35006KT 300V030 9999 NCD 22/14 Q1013=
202306280850 METAR ESMX 280850Z 34006KT 300V020 CAVOK 21/15 Q1012=
202306280820 METAR ESMX 280820Z 04007KT 010V070 CAVOK 21/15 Q1012=
202306280750 METAR ESMX 280750Z 01006KT 320V050 CAVOK 20/15 Q1012=
202306280720 METAR ESMX 280720Z 03007KT 350V070 CAVOK 20/15 Q1012=
202306280650 METAR ESMX 280650Z 36006KT 330V030 CAVOK 19/15 Q1012=
202306280620 METAR ESMX 280620Z 35006KT CAVOK 18/15 Q1012=
202306280550 METAR COR ESMX 280550Z 36006KT CAVOK 17/15 Q1012=
202306280520 METAR ESMX 280520Z AUTO 35005KT 9999 NCD 16/16 Q1012=
202306280450 METAR ESMX 280450Z AUTO 01007KT 9999 BKN003/// 15/15 Q1011=
202306280420 METAR ESMX 280420Z AUTO 01006KT 2800 BR OVC001/// 15/15 Q1011=
202306280350 METAR ESMX 280350Z AUTO 03007KT 350V050 1900 OVC002/// 15/15 Q1011=
202306280320 METAR ESMX 280320Z AUTO 35006KT 9999 BKN003/// BKN005/// 14/14 Q1011=
202306280250 METAR ESMX 280250Z AUTO 33004KT 0600 R01/1000D R19/P2000N BCFG FEW004/// 13/13 Q1011=
202306280220 METAR ESMX 280220Z AUTO 33004KT 0200 R01/0375N R19/P2000N FG NCD 13/13 Q1010=
202306280150 METAR ESMX 280150Z AUTO 35004KT 9000 NCD 13/13 Q1010=
202306280120 METAR ESMX 280120Z AUTO 01004KT 9000 BCFG NCD 14/14 Q1010=
202306280050 METAR ESMX 280050Z AUTO 32004KT 9999 BCFG NCD 14/14 Q1010=
202306280020 METAR ESMX 280020Z AUTO 31003KT 270V330 0350 R01/1200N R19/P2000N BCFG NCD 13/13 Q1010=
202306272350 METAR ESMX 272350Z 34005KT 8000 R01/1700N R19/P2000N BCFG NSC 13/13 Q1010=
202306272320 METAR ESMX 272320Z VRB02KT 2000 R19/P2000N BCFG NSC 13/13 Q1009=
202306272250 METAR ESMX 272250Z 32005KT 5000 BCFG NSC 13/13 Q1009=
202306272220 METAR ESMX 272220Z 30003KT 7000 BCFG NSC 13/13 Q1009=
202306272150 METAR ESMX 272150Z 31004KT 5000 BCFG NSC 14/14 Q1009=
202306272120 METAR ESMX 272120Z 31003KT CAVOK 14/14 Q1009=
202306272050 METAR ESMX 272050Z 29003KT CAVOK 15/15 Q1009=
202306272020 METAR ESMX 272020Z 30004KT CAVOK 15/15 Q1009=
202306271950 METAR ESMX 271950Z 29004KT 9999 FEW016 15/15 Q1008=
202306271920 METAR ESMX 271920Z 30003KT CAVOK 16/15 Q1008=
202306271850 METAR ESMX 271850Z AUTO 29004KT 9999 SCT110/// 16/15 Q1008=
202306271820 METAR ESMX 271820Z AUTO 30005KT 260V330 9999 BKN110/// 16/15 Q1008=
202306271750 METAR ESMX 271750Z AUTO 30007KT 9999 FEW220/// 17/15 Q1008=
202306271720 METAR ESMX 271720Z AUTO 29006KT 9999 FEW012/// BKN076/// BKN094/// 17/16 Q1008=
202306271650 METAR ESMX 271650Z AUTO 28007KT 250V310 9999 FEW009/// OVC070/// 16/16 Q1008=
202306271620 METAR ESMX 271620Z AUTO 27004KT 9999 -DZ OVC068/// 16/15 Q1008=
202306271550 METAR ESMX 271550Z AUTO 29004KT 9999 -DZ FEW059/// OVC074/// 15/15 Q1008=
202306271520 METAR ESMX 271520Z AUTO 27004KT 9999 -DZ OVC072/// 15/15 Q1008=
202306271450 METAR ESMX 271450Z AUTO 28004KT 260V320 9999 -RA BKN076/// 15/15 Q1008=
202306271420 METAR ESMX 271420Z AUTO 29005KT 9999 -DZ FEW026/// SCT072/// BKN160/// 15/15 Q1008=
202306271350 METAR ESMX 271350Z 35010KT 5000 RA FEW001 SCT022 BKN047 14/14 Q1008 RESHRA=
202306271320 METAR ESMX 271320Z 29007KT 240V320 4000 SHRA FEW022 BKN039 18/13 Q1007=
202306271250 METAR COR ESMX 271250Z 27008KT 9999 FEW022 BKN098 18/14 Q1007=
202306271220 METAR ESMX 271220Z AUTO 28010KT 240V310 9999 FEW020/// BKN120/// 18/13 Q1007=
202306271150 METAR ESMX 271150Z AUTO 26008KT 220V310 9999 FEW018/// SCT120/// BKN180/// 18/14 Q1007=
202306271120 METAR ESMX 271120Z AUTO 28008KT 250V330 9999 FEW018/// BKN120/// 18/14 Q1007=
202306271050 METAR ESMX 271050Z AUTO 26008KT 220V320 9999 SCT016/// BKN029/// BKN074/// 17/14 Q1007=
202306271020 METAR ESMX 271020Z AUTO 28008KT 250V340 9999 BKN015/// BKN049/// OVC120/// 17/14 Q1007=
202306270950 METAR ESMX 270950Z AUTO 28007KT 250V310 9999 FEW015/// SCT035/// BKN053/// 17/14 Q1007=
202306270920 METAR ESMX 270920Z AUTO 27007KT 230V300 9999 FEW015/// SCT030/// OVC049/// 16/14 Q1007=
202306270850 METAR ESMX 270850Z AUTO 27008KT 240V300 9999 BKN009/// BKN014/// OVC030/// 15/14 Q1007=
202306270820 METAR ESMX 270820Z AUTO 26007KT 220V290 9999 SCT010/// BKN028/// OVC045/// 15/15 Q1007=
202306270750 METAR ESMX 270750Z AUTO 28006KT 240V310 9999 SCT010/// OVC025/// 15/15 Q1007 REDZ=
202306270720 METAR ESMX 270720Z AUTO 27007KT 220V290 9999 DZ FEW008/// SCT011/// BKN015/// 15/14 Q1007=
202306270650 METAR ESMX 270650Z AUTO 28006KT 240V310 9999 BKN008/// OVC019/// 15/14 Q1007=
202306270620 METAR ESMX 270620Z AUTO 27006KT 230V290 9999 BKN007/// 15/15 Q1007=
202306270550 METAR ESMX 270550Z AUTO 28006KT 230V320 9999 FEW006/// SCT008/// BKN011/// 15/14 Q1007=
202306270520 METAR ESMX 270520Z AUTO 28005KT 250V320 9999 BKN007/// 14/14 Q1006=
202306270450 METAR ESMX 270450Z AUTO 24005KT 9999 SCT005/// 14/14 Q1007=
202306270420 METAR ESMX 270420Z AUTO 28005KT 240V310 9999 FEW031/// 14/14 Q1007 REDZ=
202306270350 METAR ESMX 270350Z AUTO 24004KT 9999 FEW026/// SCT059/// 14/14 Q1007=
202306270320 METAR ESMX 270320Z AUTO 20006KT 9999 FEW047/// 13/13 Q1007=
202306270250 METAR ESMX 270250Z AUTO VRB02KT 9999 FEW046/// 13/13 Q1007=
202306270220 METAR ESMX 270220Z AUTO 29004KT 250V310 9999 SCT010/// BKN046/// 13/13 Q1007=
202306270150 METAR ESMX 270150Z AUTO 26003KT 210V330 9999 -RA FEW009/// SCT035/// BKN062/// 14/14 Q1008=
202306270120 METAR ESMX 270120Z AUTO 31004KT 280V350 9999 -RA BKN008/// OVC074/// 14/14 Q1008=
202306270050 METAR ESMX 270050Z AUTO 34009KT 280V010 9999 -RA FEW008/// OVC064/// 14/14 Q1008=
202306270020 METAR ESMX 270020Z AUTO 02011KT 9000 RA FEW003/// OVC062/// 14/14 Q1008 RESHRA=
202306262350 METAR ESMX 262350Z 34009KT 9000 RA BKN049 14/14 Q1008=
202306262320 METAR ESMX 262320Z 30010KT 270V330 6000 SHRA FEW002 SCT010 BKN035CB 14/14 Q1008 RETS=
202306262250 METAR ESMX 262250Z 07004KT 040V100 9999 FEW035 SCT043 16/16 Q1007=
202306262220 METAR ESMX 262220Z 08003KT 040V110 9999 -RA BKN068 16/16 Q1007=
202306262150 METAR ESMX 262150Z AUTO 06004KT 020V110 9999 -RA OVC084/// 16/16 Q1008=
202306262120 METAR ESMX 262120Z 04004KT 010V070 9999 -RA SCT005 16/16 Q1008=
202306262050 METAR ESMX 262050Z 22003KT 9000 RA BKN006 16/16 Q1009=
202306262020 METAR ESMX 262020Z 00000KT 6000 RA SCT008 BKN027 16/16 Q1009=
202306261950 METAR COR ESMX 261950Z 22002KT 6000 RA FEW005 BKN022 16/16 Q1009=
202306261920 METAR ESMX 261920Z VRB01KT 5000 RA SCT006 BKN019 17/17 Q1009=
202306261850 METAR ESMX 261850Z 22003KT 9999 -DZ BKN006 17/17 Q1010=
202306261820 METAR ESMX 261820Z 25005KT 200V280 5000 SHRA SCT020 BKN040CB 17/17 Q1010=
202306261750 METAR ESMX 261750Z 18012KT 9999 VCSH BKN038 21/13 Q1009=
202306261720 METAR ESMX 261720Z 15008KT 9999 FEW049 22/13 Q1009=
202306261650 METAR ESMX 261650Z 15010KT CAVOK 23/13 Q1009=
202306261620 METAR ESMX 261620Z 16011KT 130V190 CAVOK 23/11 Q1009=
202306261550 METAR ESMX 261550Z 16011KT CAVOK 24/10 Q1009=
202306261520 METAR ESMX 261520Z 16010KT CAVOK 24/09 Q1010=
202306261450 METAR ESMX 261450Z 16011KT CAVOK 26/06 Q1010=
202306261420 METAR ESMX 261420Z 16010KT 130V190 CAVOK 26/08 Q1010=
202306261350 METAR ESMX 261350Z 15013KT 130V190 CAVOK 27/08 Q1010=
202306261320 METAR ESMX 261320Z 18013KT 140V200 CAVOK 28/08 Q1011=
202306261250 METAR ESMX 261250Z 17010KT 140V200 CAVOK 28/09 Q1011=
202306261220 METAR COR ESMX 261220Z 16010KT CAVOK 28/10 Q1011=
202306261150 METAR ESMX 261150Z 15010KT 110V200 CAVOK 28/09 Q1012=
202306261120 METAR ESMX 261120Z 17010KT 140V200 CAVOK 27/10 Q1012=
202306261050 METAR ESMX 261050Z 20010KT CAVOK 28/09 Q1012=
202306261020 METAR ESMX 261020Z AUTO 15008KT 110V260 9999 FEW057/// 27/13 Q1012=
202306260950 METAR ESMX 260950Z 14006KT 060V170 CAVOK 26/13 Q1013=
202306260920 METAR ESMX 260920Z 13005KT 050V170 CAVOK 26/13 Q1013=
202306260850 METAR ESMX 260850Z 16006KT 110V200 CAVOK 26/12 Q1013=
202306260820 METAR ESMX 260820Z 18004KT CAVOK 25/12 Q1013=
202306260750 METAR ESMX 260750Z 18004KT 100V260 CAVOK 25/12 Q1014=
202306260720 METAR ESMX 260720Z 13004KT 080V170 CAVOK 25/13 Q1014=
202306260650 METAR ESMX 260650Z 16002KT CAVOK 24/14 Q1014=
202306260620 METAR ESMX 260620Z 00000KT CAVOK 23/14 Q1014=
202306260550 METAR ESMX 260550Z 16001KT CAVOK 21/15 Q1014=
202306260520 METAR ESMX 260520Z 00000KT CAVOK 21/14 Q1015=
202306260450 METAR ESMX 260450Z 00000KT CAVOK 19/14 Q1015=
202306260420 METAR ESMX 260420Z 00000KT CAVOK 18/14 Q1015=
202306260350 METAR COR ESMX 260350Z 16002KT CAVOK 15/14 Q1015=
202306260320 METAR ESMX 260320Z AUTO 16002KT 9999 NCD 13/13 Q1015=
202306260250 METAR ESMX 260250Z AUTO 00000KT 9999 NCD 13/12 Q1015=
202306260220 METAR ESMX 260220Z AUTO 19003KT 9999 NCD 13/13 Q1015=
202306260150 METAR ESMX 260150Z AUTO 18002KT 9999 NCD 14/13 Q1015=
202306260120 METAR ESMX 260120Z AUTO VRB01KT 9999 NCD 13/13 Q1016=
202306260050 METAR ESMX 260050Z AUTO 16002KT 9999 NCD 14/13 Q1016=
202306260020 METAR ESMX 260020Z AUTO 17002KT 9999 NCD 14/13 Q1016=
202306252350 METAR ESMX 252350Z AUTO 16003KT 9999 NCD 15/13 Q1016=
202306252320 METAR ESMX 252320Z AUTO 18004KT 9999 NCD 16/13 Q1016=
202306252250 METAR ESMX 252250Z AUTO 18004KT 9999 NCD 18/14 Q1016=
202306252220 METAR ESMX 252220Z AUTO 18004KT 9999 NCD 18/14 Q1016=
202306252150 METAR ESMX 252150Z AUTO 16004KT 9999 NCD 17/13 Q1016=
202306252120 METAR ESMX 252120Z AUTO 16005KT 9999 NCD 18/14 Q1016=
202306252050 METAR ESMX 252050Z AUTO 16005KT 9999 NCD 20/13 Q1016=
202306252020 METAR ESMX 252020Z AUTO 16007KT 9999 FEW076/// 21/13 Q1016=
202306251950 METAR ESMX 251950Z AUTO 14005KT 9999 NCD 22/14 Q1016=
202306251920 METAR ESMX 251920Z AUTO 18004KT 9999 FEW076/// 22/14 Q1016=
202306251850 METAR ESMX 251850Z AUTO 16004KT 9999 NCD 22/14 Q1016=
202306251820 METAR ESMX 251820Z AUTO 17005KT 9999 NCD 24/14 Q1016=
202306251750 METAR ESMX 251750Z AUTO 16007KT 9999 FEW100/// 24/14 Q1016=
202306251720 METAR ESMX 251720Z AUTO 16006KT 9999 BKN100/// 25/14 Q1016=
202306251650 METAR ESMX 251650Z AUTO 03003KT 330V070 9999 BKN098/// 26/12 Q1016=
202306251620 METAR ESMX 251620Z AUTO 36006KT 330V030 9999 FEW100/// BKN150/// 25/13 Q1016=
202306251550 METAR ESMX 251550Z AUTO 33005KT 280V010 9999 BKN100/// 27/12 Q1016=
202306251520 METAR ESMX 251520Z AUTO 31008KT 9999 -RA FEW061/// OVC098/// 26/12 Q1017=
202306251450 METAR ESMX 251450Z 26004KT 220V300 CAVOK 27/10 Q1017=
202306251420 METAR ESMX 251420Z 30006KT 250V340 CAVOK 28/10 Q1017=
202306251350 METAR ESMX 251350Z 31004KT 220V030 CAVOK 28/10 Q1017=
202306251320 METAR ESMX 251320Z 36006KT 300V030 CAVOK 28/10 Q1017=
202306251250 METAR ESMX 251250Z 35006KT CAVOK 27/10 Q1018=
202306251220 METAR ESMX 251220Z 06005KT 350V110 CAVOK 28/10 Q1018=
202306251150 METAR ESMX 251150Z 35006KT 300V020 CAVOK 27/11 Q1018=
202306251120 METAR ESMX 251120Z 02004KT 320V110 CAVOK 26/11 Q1018=
202306251050 METAR ESMX 251050Z 32004KT 260V030 CAVOK 26/12 Q1018=
202306251020 METAR ESMX 251020Z 34005KT 280V030 CAVOK 26/13 Q1019=
202306250950 METAR ESMX 250950Z VRB04KT CAVOK 25/13 Q1019=
202306250920 METAR ESMX 250920Z VRB04KT CAVOK 25/13 Q1019=
202306250850 METAR ESMX 250850Z 32003KT 250V030 CAVOK 24/12 Q1019=
202306250820 METAR ESMX 250820Z 04004KT 330V070 CAVOK 23/14 Q1019=
202306250750 METAR ESMX 250750Z 03004KT 330V080 CAVOK 22/14 Q1019=
202306250720 METAR ESMX 250720Z VRB03KT CAVOK 21/14 Q1019=
202306250650 METAR ESMX 250650Z 36004KT 330V050 CAVOK 20/14 Q1019=
202306250620 METAR ESMX 250620Z 35005KT 310V020 CAVOK 19/14 Q1020=
202306250550 METAR COR ESMX 250550Z 33004KT 300V010 CAVOK 18/14 Q1020=
202306250520 METAR ESMX 250520Z AUTO 31005KT 280V350 9999 NCD 17/13 Q1020=
202306250450 METAR ESMX 250450Z AUTO 31004KT 280V340 9999 NCD 16/13 Q1020=
202306250420 METAR ESMX 250420Z AUTO 30004KT 270V330 9999 NCD 15/13 Q1020=
202306250350 METAR ESMX 250350Z AUTO 26004KT 9999 NCD 13/12 Q1020=
202306250320 METAR ESMX 250320Z AUTO 25002KT 9999 NCD 10/10 Q1020=
202306250250 METAR ESMX 250250Z AUTO 24002KT 9999 NCD 10/10 Q1019=
202306250220 METAR ESMX 250220Z AUTO VRB01KT 9999 NCD 10/10 Q1019=
202306250150 METAR ESMX 250150Z AUTO 25002KT 9999 NCD 10/09 Q1020=
202306250120 METAR ESMX 250120Z 27003KT CAVOK 11/11 Q1020=
202306250050 METAR ESMX 250050Z 23001KT CAVOK 13/11 Q1020=
202306250020 METAR ESMX 250020Z 24003KT CAVOK 12/11 Q1020=
202306242350 METAR ESMX 242350Z 30003KT 280V340 CAVOK 14/12 Q1020=
202306242320 METAR ESMX 242320Z 29004KT 250V310 CAVOK 15/11 Q1020=
202306242250 METAR ESMX 242250Z 28005KT CAVOK 15/12 Q1020=
202306242220 METAR ESMX 242220Z 28005KT CAVOK 16/11 Q1020=
202306242150 METAR ESMX 242150Z 27005KT CAVOK 16/11 Q1020=
202306242120 METAR ESMX 242120Z AUTO 25006KT 220V280 9999 NCD 17/11 Q1019=
202306242050 METAR ESMX 242050Z AUTO 26005KT 9999 NCD 17/11 Q1019=
202306242020 METAR ESMX 242020Z AUTO 26004KT 9999 NCD 18/11 Q1019=
202306241950 METAR ESMX 241950Z AUTO 26004KT 230V290 9999 NCD 19/11 Q1019=
202306241920 METAR ESMX 241920Z AUTO 27006KT 9999 NCD 20/11 Q1019=
202306241850 METAR ESMX 241850Z AUTO 27007KT 9999 NCD 21/11 Q1019=
202306241820 METAR ESMX 241820Z AUTO 28008KT 240V300 9999 SCT072/// 22/10 Q1019=
202306241750 METAR ESMX 241750Z AUTO 27008KT 240V300 9999 NCD 23/11 Q1019=
202306241720 METAR ESMX 241720Z AUTO 27009KT 230V300 9999 NCD 23/11 Q1019=
202306241650 METAR ESMX 241650Z AUTO 30009KT 260V330 9999 NCD 23/11 Q1019=
202306241620 METAR ESMX 241620Z AUTO 27009KT 9999 NCD 23/11 Q1019=
202306241550 METAR ESMX 241550Z AUTO 26010KT 9999 BKN150/// 23/11 Q1019=
202306241520 METAR ESMX 241520Z AUTO 28010KT 9999 FEW055/// OVC150/// 25/11 Q1019=
202306241450 METAR ESMX 241450Z AUTO 27009KT 220V300 9999 OVC150/// 25/11 Q1019=
202306241420 METAR ESMX 241420Z AUTO 26009KT 230V290 9999 OVC150/// 24/11 Q1019=
202306241350 METAR ESMX 241350Z AUTO 23007KT 200V280 9999 BKN150/// 25/12 Q1019=
202306241320 METAR ESMX 241320Z AUTO 28006KT 180V330 9999 FEW057/// 25/11 Q1019=
202306241250 METAR ESMX 241250Z AUTO 32005KT 250V010 9999 SCT057/// 26/11 Q1019=
202306241220 METAR ESMX 241220Z AUTO 28005KT 240V320 9999 SCT055/// 23/11 Q1019=
202306241150 METAR ESMX 241150Z AUTO 30004KT 230V010 9999 FEW055/// 24/12 Q1019=
202306241120 METAR ESMX 241120Z AUTO 28005KT 240V020 9999 NCD 23/12 Q1019=
202306241050 METAR ESMX 241050Z AUTO 27005KT 220V330 9999 NCD 23/11 Q1019=
202306241020 METAR ESMX 241020Z AUTO 28005KT 220V010 9999 NCD 23/12 Q1019=
202306240950 METAR ESMX 240950Z AUTO VRB05KT 9999 FEW180/// 22/13 Q1019=
202306240920 METAR ESMX 240920Z AUTO VRB05KT 9999 FEW190/// 21/12 Q1019=
202306240850 METAR ESMX 240850Z 26006KT 200V290 CAVOK 21/13 Q1020=
202306240820 METAR ESMX 240820Z 29007KT 260V330 CAVOK 20/13 Q1020=
202306240750 METAR ESMX 240750Z 29007KT 250V340 CAVOK 20/13 Q1020=
202306240720 METAR ESMX 240720Z 29007KT CAVOK 18/13 Q1020=
202306240650 METAR COR ESMX 240650Z 31007KT 280V340 CAVOK 18/13 Q1019=
202306240620 METAR ESMX 240620Z AUTO 27006KT 9999 NCD 16/13 Q1020=
202306240550 METAR ESMX 240550Z AUTO 27006KT 9999 NCD 16/12 Q1019=
202306240520 METAR ESMX 240520Z AUTO 26006KT 9999 NCD 15/12 Q1019=
202306240450 METAR ESMX 240450Z AUTO 27005KT 9999 NCD 15/11 Q1019=
202306240420 METAR ESMX 240420Z AUTO 30004KT 260V330 9999 NCD 14/11 Q1019=
202306240350 METAR ESMX 240350Z AUTO 29003KT 260V320 9999 NCD 13/11 Q1019=
202306240320 METAR ESMX 240320Z AUTO 26004KT 9999 NCD 12/10 Q1019=
202306240250 METAR ESMX 240250Z AUTO 23003KT 9999 NCD 09/08 Q1019=
202306240220 METAR ESMX 240220Z AUTO 34001KT 9999 NCD 10/10 Q1019=
202306240150 METAR ESMX 240150Z AUTO VRB03KT 9999 NCD 11/10 Q1019=
202306240120 METAR ESMX 240120Z AUTO 27003KT 9999 NCD 10/08 Q1019=
202306240050 METAR ESMX 240050Z AUTO 25003KT 9999 NCD 12/09 Q1019=
202306240020 METAR ESMX 240020Z AUTO 26004KT 9999 NCD 12/09 Q1018=
202306232350 METAR ESMX 232350Z AUTO 29005KT 9999 NCD 14/09 Q1018=
202306232320 METAR ESMX 232320Z AUTO 28005KT 250V310 9999 NCD 15/10 Q1018=
202306232250 METAR ESMX 232250Z AUTO 29006KT 9999 NCD 15/10 Q1018=
202306232220 METAR ESMX 232220Z AUTO 27005KT 240V300 9999 NCD 15/10 Q1018=
202306232150 METAR ESMX 232150Z AUTO 27006KT 9999 NCD 16/11 Q1018=
202306232120 METAR ESMX 232120Z AUTO 25006KT 9999 NCD 16/11 Q1017=
202306232050 METAR ESMX 232050Z AUTO 26005KT 9999 NCD 17/10 Q1017=
202306232020 METAR ESMX 232020Z AUTO 27005KT 9999 NCD 18/10 Q1017=
202306231950 METAR ESMX 231950Z AUTO 27006KT 9999 NCD 19/10 Q1017=
202306231920 METAR ESMX 231920Z AUTO 26006KT 9999 NCD 20/10 Q1016=
202306231850 METAR ESMX 231850Z AUTO 29008KT 9999 NCD 21/10 Q1016=
202306231820 METAR ESMX 231820Z AUTO 29009KT 9999 NCD 22/10 Q1016=
202306231750 METAR ESMX 231750Z AUTO 27009KT 9999 NCD 22/10 Q1016=
202306231720 METAR ESMX 231720Z 30009KT 270V340 CAVOK 22/09 Q1016=
202306231650 METAR ESMX 231650Z 31009KT CAVOK 23/09 Q1016=
202306231620 METAR ESMX 231620Z 30010KT CAVOK 23/08 Q1016=
202306231550 METAR ESMX 231550Z 30009KT 260V010 CAVOK 25/09 Q1016=
202306231520 METAR COR ESMX 231520Z 29011KT 260V320 CAVOK 24/09 Q1015=
202306231450 METAR ESMX 231450Z AUTO 28007KT 230V320 9999 NCD 25/09 Q1015=
202306231420 METAR ESMX 231420Z VRB07KT CAVOK 25/09 Q1015=
202306231350 METAR ESMX 231350Z VRB07KT CAVOK 26/09 Q1015=
202306231320 METAR ESMX 231320Z 26006KT 220V290 CAVOK 25/09 Q1015=
202306231250 METAR ESMX 231250Z AUTO 24007KT 200V300 9999 NCD 25/09 Q1015=
202306231220 METAR ESMX 231220Z 26006KT 220V310 CAVOK 25/09 Q1015=
202306231150 METAR ESMX 231150Z 31009KT 280V340 CAVOK 24/09 Q1015=
202306231120 METAR ESMX 231120Z 26007KT 220V320 CAVOK 24/10 Q1015=
202306231050 METAR ESMX 231050Z 30008KT 260V360 CAVOK 23/10 Q1015=
202306231020 METAR ESMX 231020Z 30009KT 250V330 CAVOK 23/09 Q1015=
202306230950 METAR ESMX 230950Z 29008KT 230V350 CAVOK 23/09 Q1015=
202306230920 METAR ESMX 230920Z 27008KT 240V320 CAVOK 21/10 Q1015=
202306230850 METAR ESMX 230850Z 29009KT 260V330 CAVOK 21/10 Q1015=
202306230820 METAR ESMX 230820Z 28010KT 260V330 CAVOK 21/10 Q1015=
202306230750 METAR ESMX 230750Z 30010KT CAVOK 20/10 Q1015=
202306230720 METAR ESMX 230720Z AUTO 29008KT 260V330 9999 NCD 19/10 Q1015=
202306230650 METAR ESMX 230650Z 27007KT 230V300 CAVOK 19/13 Q1015=
202306230620 METAR ESMX 230620Z AUTO 28006KT 240V310 9999 NCD 18/14 Q1015=
202306230550 METAR ESMX 230550Z 29007KT 260V320 CAVOK 17/14 Q1015=
202306230520 METAR ESMX 230520Z AUTO 28006KT 240V310 9999 FEW180/// 16/13 Q1015=
202306230450 METAR ESMX 230450Z 26004KT CAVOK 15/13 Q1015=
202306230420 METAR ESMX 230420Z 26004KT 230V290 CAVOK 14/12 Q1015=
202306230350 METAR ESMX 230350Z 26005KT CAVOK 14/12 Q1015=
202306230320 METAR ESMX 230320Z AUTO 25005KT 220V280 9999 NCD 14/12 Q1015=
202306230250 METAR ESMX 230250Z AUTO 24006KT 9999 NCD 13/12 Q1015=
202306230220 METAR ESMX 230220Z AUTO 25005KT 9999 NCD 12/11 Q1015=
202306230150 METAR ESMX 230150Z AUTO 25003KT 9999 NCD 12/11 Q1015=
202306230120 METAR ESMX 230120Z AUTO 22001KT 9999 NCD 13/12 Q1015=
202306230050 METAR ESMX 230050Z AUTO 23005KT 9999 NCD 13/12 Q1015=
202306230020 METAR ESMX 230020Z AUTO 25005KT 9999 NCD 13/12 Q1015=
202306222350 METAR ESMX 222350Z AUTO 24003KT 9999 NCD 13/12 Q1015=
202306222320 METAR ESMX 222320Z AUTO 25004KT 9999 NCD 13/13 Q1016=
202306222250 METAR ESMX 222250Z AUTO 25004KT 9999 NCD 14/13 Q1016=
202306222220 METAR ESMX 222220Z AUTO 26003KT 9999 NCD 15/13 Q1016=
202306222150 METAR ESMX 222150Z AUTO 26003KT 9999 NCD 15/13 Q1016=
202306222120 METAR ESMX 222120Z AUTO 26004KT 9999 NCD 16/13 Q1016=
202306222050 METAR ESMX 222050Z AUTO 25004KT 220V280 9999 NCD 17/13 Q1016=
202306222020 METAR ESMX 222020Z AUTO 25005KT 9999 NCD 18/13 Q1016=
202306221950 METAR ESMX 221950Z AUTO 26006KT 9999 NCD 19/13 Q1016=
202306221920 METAR ESMX 221920Z AUTO 27007KT 9999 NCD 19/12 Q1016=
202306221850 METAR ESMX 221850Z AUTO 27007KT 220V290 9999 NCD 20/12 Q1016=
202306221820 METAR ESMX 221820Z AUTO 27007KT 9999 NCD 21/12 Q1016=
202306221750 METAR ESMX 221750Z AUTO 26006KT 230V300 9999 FEW045/// 21/12 Q1016=
202306221720 METAR ESMX 221720Z AUTO 25008KT 220V280 9999 FEW048/// 22/11 Q1016=
202306221650 METAR ESMX 221650Z 27008KT 230V310 CAVOK 22/11 Q1016=
202306221620 METAR ESMX 221620Z 27008KT 220V320 9999 SCT048 23/12 Q1016=
202306221550 METAR ESMX 221550Z 26012KT 230V290 9999 SCT049 24/12 Q1016=
202306221520 METAR ESMX 221520Z 26010KT 220V290 9999 SCT048 24/11 Q1016=
202306221450 METAR ESMX 221450Z 27010KT 9999 SCT049 24/11 Q1016=
202306221420 METAR ESMX 221420Z 25011KT 210V280 9999 SCT048 24/12 Q1017=
202306221350 METAR ESMX 221350Z 25011KT 200V290 9999 SCT048 23/12 Q1017=
202306221320 METAR ESMX 221320Z 25010KT 9999 FEW048 23/11 Q1017=
202306221250 METAR ESMX 221250Z 26012KT 230V300 9999 SCT048 24/12 Q1017=
202306221220 METAR COR ESMX 221220Z 28012KT 240V300 9999 SCT048 24/12 Q1017=
202306221150 METAR ESMX 221150Z AUTO 28011KT 250V310 9999 SCT047/// 23/11 Q1017=
202306221120 METAR ESMX 221120Z 26011KT 220V290 9999 SCT043 24/12 Q1017=
202306221050 METAR ESMX 221050Z 26011KT 230V300 9999 FEW041 23/12 Q1017=
202306221020 METAR ESMX 221020Z 27012KT 240V300 9999 FEW036 22/12 Q1017=
202306220950 METAR ESMX 220950Z 26012KT 230V290 9999 FEW036 22/13 Q1017=
202306220920 METAR ESMX 220920Z 25011KT 210V290 9999 FEW032 22/13 Q1017=
202306220850 METAR ESMX 220850Z 24010KT 210V290 9999 FEW031 22/13 Q1017=
202306220820 METAR ESMX 220820Z 26010KT 210V300 9999 FEW029 21/13 Q1017=
202306220750 METAR ESMX 220750Z 25011KT 230V290 9999 FEW024 20/13 Q1017=
202306220720 METAR ESMX 220720Z 26009KT 220V300 9999 FEW024 20/13 Q1017=
202306220650 METAR ESMX 220650Z 27011KT 240V300 9999 SCT022 19/13 Q1017=
202306220620 METAR ESMX 220620Z 28009KT 240V320 9999 SCT021 18/13 Q1017=
202306220550 METAR ESMX 220550Z 26009KT 9999 BKN019 17/13 Q1017=
202306220520 METAR ESMX 220520Z 28008KT 240V310 9999 BKN020 17/13 Q1017=
202306220450 METAR ESMX 220450Z 27009KT 240V300 9999 BKN018 17/13 Q1017=
202306220420 METAR ESMX 220420Z 27008KT 9999 BKN019 16/13 Q1017=
202306220350 METAR ESMX 220350Z 27007KT 230V290 9999 BKN020 16/13 Q1016=
202306220320 METAR ESMX 220320Z AUTO 26007KT 190V290 9999 OVC021/// 16/13 Q1016=
202306220250 METAR ESMX 220250Z AUTO 27007KT 240V300 9999 BKN022/// 16/13 Q1016=
202306220220 METAR ESMX 220220Z AUTO 28007KT 240V320 9999 OVC023/// 16/13 Q1016=
202306220150 METAR ESMX 220150Z AUTO 28009KT 250V320 9999 OVC022/// 17/13 Q1016=
202306220120 METAR ESMX 220120Z AUTO 27009KT 9999 OVC019/// 17/13 Q1016=
202306220050 METAR ESMX 220050Z AUTO 27006KT 9999 OVC025/// 17/14 Q1016=
202306220020 METAR ESMX 220020Z AUTO 27008KT 220V300 9999 FEW015/// OVC026/// 16/14 Q1016=
202306212350 METAR ESMX 212350Z AUTO 26008KT 9999 BKN014/// OVC025/// 17/15 Q1015=
202306212320 METAR ESMX 212320Z 25007KT 9999 FEW014 SCT022 BKN028 17/16 Q1015=
202306212250 METAR ESMX 212250Z AUTO 24006KT 210V270 9999 BKN013/// OVC020/// 17/16 Q1015=
202306212220 METAR ESMX 212220Z AUTO 25006KT 220V280 9999 BKN013/// 17/16 Q1015=
202306212150 METAR ESMX 212150Z AUTO 25006KT 9999 NCD 17/16 Q1015=
202306212120 METAR ESMX 212120Z AUTO 27007KT 240V300 9999 NCD 18/16 Q1015=
202306212050 METAR ESMX 212050Z AUTO 26007KT 220V290 9999 SCT014/// 19/17 Q1015=
202306212020 METAR ESMX 212020Z 23007KT 9999 SCT014 BKN024 OVC034 19/18 Q1014=
202306211950 METAR COR ESMX 211950Z 23008KT 9999 BKN015 20/18 Q1014=
202306211920 METAR ESMX 211920Z AUTO 24008KT 9999 SCT015/// 20/18 Q1014=
202306211850 METAR ESMX 211850Z AUTO 25008KT 9999 SCT017/// BKN021/// OVC047/// 21/18 Q1013=
202306211820 METAR ESMX 211820Z AUTO 24009KT 210V290 9999 SCT016/// OVC044/// 21/18 Q1013=
202306211750 METAR ESMX 211750Z AUTO 24009KT 200V270 9999 SCT016/// BKN029/// OVC040/// 21/18 Q1013=
202306211720 METAR COR ESMX 211720Z 23009KT 9999 BKN019 22/19 Q1013=
202306211650 METAR ESMX 211650Z 17010KT 9999 FEW024 SCT043 22/18 Q1013=
202306211620 METAR ESMX 211620Z 17008KT 140V200 9999 -DZ FEW045CB BKN180 23/18 Q1013=
202306211550 METAR ESMX 211550Z 15007KT 9999 FEW030 SCT045 BKN130 23/18 Q1013=
202306211520 METAR ESMX 211520Z 16007KT 120V180 9999 SCT030 BKN045 BKN130 23/17 Q1013=
202306211450 METAR ESMX 211450Z 15009KT 120V200 9999 SCT028 BKN120 OVC230 23/17 Q1013=
202306211420 METAR ESMX 211420Z 15008KT 110V180 9999 FEW028 SCT040 23/17 Q1013=
202306211350 METAR ESMX 211350Z 15006KT 110V180 9999 FEW028 BKN040 23/16 Q1013=
202306211320 METAR ESMX 211320Z 13008KT 080V170 9999 BKN047 23/16 Q1013=
202306211250 METAR ESMX 211250Z 14008KT 090V170 CAVOK 24/16 Q1013=
202306211220 METAR ESMX 211220Z VRB07KT CAVOK 22/16 Q1013=
202306211150 METAR ESMX 211150Z 11008KT 070V150 CAVOK 22/15 Q1013=
202306211120 METAR ESMX 211120Z 14008KT 100V170 CAVOK 22/15 Q1013=
202306211050 METAR ESMX 211050Z 13008KT 050V170 CAVOK 23/15 Q1013=
202306211020 METAR ESMX 211020Z 12006KT 070V160 CAVOK 22/14 Q1013=
202306210950 METAR ESMX 210950Z 11005KT 060V190 CAVOK 21/14 Q1013=
202306210920 METAR ESMX 210920Z 09004KT 030V130 CAVOK 21/14 Q1013=
202306210850 METAR ESMX 210850Z 10004KT 050V130 CAVOK 20/13 Q1013=
202306210820 METAR ESMX 210820Z 09005KT 050V130 CAVOK 20/13 Q1014=
202306210750 METAR ESMX 210750Z 11005KT 050V140 9999 FEW023 19/13 Q1014=
202306210720 METAR ESMX 210720Z 12005KT 070V140 CAVOK 19/13 Q1014=
202306210650 METAR ESMX 210650Z 11005KT 070V150 CAVOK 19/13 Q1014=
202306210620 METAR ESMX 210620Z 12004KT 070V140 CAVOK 18/14 Q1014=
202306210550 METAR ESMX 210550Z 10003KT 050V180 CAVOK 17/14 Q1014=
202306210520 METAR ESMX 210520Z 09004KT 050V140 9999 -RA NSC 17/14 Q1014=
202306210450 METAR ESMX 210450Z 10004KT 040V140 CAVOK 17/14 Q1015=
202306210420 METAR ESMX 210420Z 12005KT 070V150 CAVOK 17/14 Q1015=
202306210350 METAR ESMX 210350Z 11004KT 050V140 CAVOK 17/14 Q1015=
202306210320 METAR ESMX 210320Z AUTO 11004KT 060V180 9999 OVC084/// 17/14 Q1015=
202306210250 METAR ESMX 210250Z AUTO 12003KT 060V160 9999 OVC082/// 16/14 Q1015=
202306210220 METAR ESMX 210220Z AUTO 10004KT 060V130 9999 OVC068/// 16/14 Q1015=
202306210150 METAR ESMX 210150Z AUTO 09005KT 060V130 9999 BKN070/// 16/14 Q1015=
202306210120 METAR ESMX 210120Z AUTO 07005KT 030V110 9999 BKN066/// 16/14 Q1015=
202306210050 METAR ESMX 210050Z AUTO 08003KT 020V110 9999 FEW066/// 15/14 Q1016=
202306210020 METAR ESMX 210020Z AUTO 13003KT 9999 FEW210/// 16/14 Q1016=
202306202350 METAR ESMX 202350Z AUTO 14003KT 9999 ///////// 17/14 Q1016=
202306202320 METAR ESMX 202320Z 14004KT CAVOK 17/13 Q1016=
202306202250 METAR COR ESMX 202250Z 15005KT CAVOK 18/13 Q1016=
202306202220 METAR ESMX 202220Z AUTO 15002KT 9999 SCT066/// 18/13 Q1016=
202306202150 METAR ESMX 202150Z 14004KT 100V170 CAVOK 19/13 Q1016=
202306202120 METAR ESMX 202120Z 12003KT 060V170 CAVOK 19/14 Q1016=
202306202050 METAR ESMX 202050Z 15004KT CAVOK 20/14 Q1016=
202306202020 METAR ESMX 202020Z 14005KT CAVOK 21/14 Q1016=
202306201950 METAR ESMX 201950Z 16006KT CAVOK 22/14 Q1016=
202306201920 METAR ESMX 201920Z AUTO 15007KT 9999 NCD 22/15 Q1016=
202306201850 METAR ESMX 201850Z AUTO 16006KT 9999 FEW062/// 23/15 Q1015=
202306201820 METAR ESMX 201820Z AUTO 17007KT 9999 NCD 23/14 Q1015=
202306201750 METAR ESMX 201750Z AUTO 18007KT 9999 NCD 24/14 Q1015=
202306201720 METAR ESMX 201720Z 17006KT CAVOK 24/14 Q1015=
202306201650 METAR ESMX 201650Z 16008KT CAVOK 25/13 Q1016=
202306201620 METAR ESMX 201620Z 17007KT CAVOK 25/13 Q1016=
202306201550 METAR ESMX 201550Z 17008KT 140V200 CAVOK 26/13 Q1016=
202306201520 METAR ESMX 201520Z 16008KT CAVOK 25/13 Q1016=
202306201450 METAR ESMX 201450Z 17009KT 140V200 CAVOK 26/13 Q1016=
202306201420 METAR ESMX 201420Z 17008KT 150V210 CAVOK 27/14 Q1016=
202306201350 METAR ESMX 201350Z 19009KT 150V210 CAVOK 26/14 Q1016=
202306201320 METAR ESMX 201320Z 16008KT 130V200 9999 SCT047 26/14 Q1016=
202306201250 METAR ESMX 201250Z 17008KT 130V200 CAVOK 26/14 Q1016=
202306201220 METAR ESMX 201220Z 18007KT 120V220 CAVOK 25/14 Q1016=
202306201150 METAR ESMX 201150Z 17008KT 140V200 CAVOK 25/14 Q1016=
202306201120 METAR ESMX 201120Z 16007KT 110V210 9999 FEW044 25/14 Q1016=
202306201050 METAR ESMX 201050Z 14007KT 080V190 9999 FEW044 25/13 Q1017=
202306201020 METAR ESMX 201020Z 16006KT 070V210 9999 FEW042 25/14 Q1017=
202306200950 METAR ESMX 200950Z 17009KT CAVOK 24/14 Q1017=
202306200920 METAR ESMX 200920Z 18006KT CAVOK 23/15 Q1017=
202306200850 METAR ESMX 200850Z 16005KT 100V210 CAVOK 22/15 Q1017=
202306200820 METAR ESMX 200820Z 13005KT 080V190 CAVOK 22/15 Q1017=
202306200750 METAR ESMX 200750Z 12005KT 060V170 CAVOK 21/14 Q1017=
202306200720 METAR ESMX 200720Z 13004KT 050V190 CAVOK 20/15 Q1017=
202306200650 METAR ESMX 200650Z 17004KT 150V210 9999 FEW009 18/15 Q1017=
202306200620 METAR ESMX 200620Z 14005KT 090V190 9999 BKN009 18/15 Q1017=
202306200550 METAR ESMX 200550Z 16004KT 9999 BKN007 16/15 Q1016=
202306200520 METAR ESMX 200520Z 14004KT 100V190 9999 BKN007 16/15 Q1016=
202306200450 METAR ESMX 200450Z AUTO 12004KT 030V140 9999 // OVC006/// 16/15 Q1016=
202306200420 METAR ESMX 200420Z 13004KT 9999 BKN006 15/15 Q1016=
202306200350 METAR COR ESMX 200350Z 10003KT 060V170 9999 BKN005 15/15 Q1016=
202306200320 METAR ESMX 200320Z AUTO 13003KT 070V170 9999 // OVC005/// 15/15 Q1016=
202306200250 METAR ESMX 200250Z AUTO 12003KT 080V170 9999 // OVC005/// 15/15 Q1016=
202306200220 METAR ESMX 200220Z AUTO 15004KT 9999 BKN004/// OVC006/// 15/15 Q1016=
202306200150 METAR ESMX 200150Z AUTO 12004KT 070V160 8000 OVC004/// 15/15 Q1016=
202306200120 METAR ESMX 200120Z AUTO 10003KT 060V170 9999 OVC005/// 15/15 Q1016=
202306200050 METAR ESMX 200050Z AUTO VRB02KT 9999 OVC005/// 16/15 Q1016=
202306200020 METAR ESMX 200020Z AUTO 14003KT 9999 BKN005/// OVC094/// 15/15 Q1016=
202306192350 METAR ESMX 192350Z 12003KT 060V140 9999 BKN006 16/15 Q1016=
202306192320 METAR ESMX 192320Z 12003KT 9999 FEW007 BKN100 16/15 Q1016=
202306192250 METAR ESMX 192250Z AUTO 11003KT 070V200 9999 FEW008/// SCT160/// 16/15 Q1016=
202306192220 METAR ESMX 192220Z AUTO VRB03KT 9999 FEW098/// SCT180/// 17/15 Q1016=
202306192150 METAR ESMX 192150Z AUTO 14004KT 070V170 9999 BKN094/// OVC190/// 17/16 Q1016=
202306192120 METAR ESMX 192120Z 13004KT 070V170 9999 BKN018 OVC098 18/15 Q1016=
202306192050 METAR ESMX 192050Z 14004KT 100V160 9999 FEW020 BKN180 18/15 Q1016=
202306192020 METAR ESMX 192020Z AUTO 15003KT 9999 FEW190/// 18/15 Q1016=
202306191950 METAR COR ESMX 191950Z 14005KT 110V170 CAVOK 19/15 Q1015=
202306191920 METAR ESMX 191920Z AUTO 13005KT 080V160 9999 FEW190/// 20/15 Q1015=
202306191850 METAR ESMX 191850Z AUTO 14005KT 110V170 9999 NCD 21/15 Q1015=
202306191820 METAR ESMX 191820Z 14006KT CAVOK 21/15 Q1015=
202306191750 METAR ESMX 191750Z 16007KT 110V190 CAVOK 21/15 Q1015=
202306191720 METAR ESMX 191720Z 16007KT 120V190 CAVOK 22/14 Q1015=
202306191650 METAR ESMX 191650Z 14005KT CAVOK 22/14 Q1014=
202306191620 METAR ESMX 191620Z 17005KT CAVOK 21/14 Q1014=
202306191550 METAR COR ESMX 191550Z 15007KT 120V180 FEW035 22/14 Q1015=
202306191520 METAR ESMX 191520Z 16009KT 110V180 9999 FEW035 22/14 Q1015=
202306191450 METAR ESMX 191450Z 17008KT 9999 FEW039 22/14 Q1015=
202306191420 METAR ESMX 191420Z 16007KT CAVOK 23/14 Q1014=
202306191350 METAR ESMX 191350Z 14007KT 100V160 CAVOK 22/13 Q1014=
202306191320 METAR ESMX 191320Z 15008KT 9999 FEW039 BKN080 22/13 Q1014=
202306191250 METAR ESMX 191250Z 15008KT 100V180 9999 BKN037 22/14 Q1014=
202306191220 METAR ESMX 191220Z 18008KT 140V210 9999 SCT036 BKN048 23/13 Q1014=
202306191150 METAR ESMX 191150Z 16006KT 9999 FEW033 BKN072 23/13 Q1014=
202306191120 METAR ESMX 191120Z 15007KT 100V190 9999 FEW033 SCT045 BKN064 22/14 Q1015=
202306191050 METAR ESMX 191050Z 15007KT 100V200 9999 BKN034 22/13 Q1015=
202306191020 METAR ESMX 191020Z 13006KT 110V170 9999 BKN031 21/13 Q1015=
202306190950 METAR ESMX 190950Z 13005KT 070V160 9999 BKN030 21/13 Q1015=
202306190920 METAR ESMX 190920Z 17004KT 120V250 9999 SCT029 BKN037 21/14 Q1015=
202306190850 METAR ESMX 190850Z VRB03KT 9999 BKN028 21/14 Q1015=
202306190820 METAR ESMX 190820Z 18005KT 9999 BKN024 BKN066 20/14 Q1015=
202306190750 METAR ESMX 190750Z 18005KT 140V200 9999 BKN017 18/14 Q1015=
202306190720 METAR ESMX 190720Z VRB03KT 9999 BKN012 18/15 Q1015=
202306190650 METAR ESMX 190650Z 08003KT 010V150 9999 BKN010 16/14 Q1015=
202306190620 METAR ESMX 190620Z 07004KT 030V190 9999 BKN009 16/14 Q1015=
202306190550 METAR ESMX 190550Z 09003KT 010V150 9999 BKN008 16/14 Q1014=
202306190520 METAR ESMX 190520Z 12004KT 070V140 9999 OVC007 15/14 Q1014=
202306190450 METAR ESMX 190450Z 13003KT 9999 OVC007 15/14 Q1014=
202306190420 METAR ESMX 190420Z 12004KT 080V160 9999 OVC006 14/14 Q1014=
202306190350 METAR COR ESMX 190350Z 14004KT 9999 BKN006 15/14 Q1014=
202306190320 METAR ESMX 190320Z AUTO 14005KT 110V180 9999 OVC005/// 15/14 Q1014=
202306190250 METAR ESMX 190250Z AUTO 15004KT 9999 OVC004/// 15/14 Q1014=
202306190220 METAR ESMX 190220Z AUTO 12004KT 080V190 9999 OVC004/// 15/14 Q1014=
202306190150 METAR ESMX 190150Z AUTO 14005KT 8000 OVC003/// 15/15 Q1014=
202306190120 METAR ESMX 190120Z AUTO 15006KT 9999 OVC005/// 15/15 Q1014=
202306190050 METAR ESMX 190050Z AUTO 16003KT 9999 FEW006/// SCT042/// BKN049/// 15/15 Q1014=
202306190020 METAR ESMX 190020Z AUTO 16004KT 9999 SCT027/// OVC041/// 16/15 Q1014=
202306182350 METAR ESMX 182350Z AUTO 15005KT 9999 SCT028/// BKN034/// OVC062/// 16/15 Q1014=
202306182320 METAR ESMX 182320Z AUTO 13005KT 9999 BKN028/// OVC055/// 16/15 Q1014=
202306182250 METAR ESMX 182250Z AUTO 16002KT 9999 BKN029/// BKN053/// OVC072/// 16/16 Q1014=
202306182220 METAR ESMX 182220Z AUTO 16004KT 9999 BKN026/// OVC070/// 17/15 Q1014=
202306182150 METAR ESMX 182150Z AUTO 16005KT 9999 SCT026/// OVC040/// 17/15 Q1014=
202306182120 METAR ESMX 182120Z AUTO 14005KT 100V170 9999 BKN026/// OVC037/// 17/15 Q1014=
202306182050 METAR ESMX 182050Z AUTO 14005KT 9999 BKN019/// BKN066/// 18/15 Q1014=
202306182020 METAR ESMX 182020Z AUTO 11003KT 9999 SCT020/// BKN028/// 18/15 Q1013=
202306181950 METAR ESMX 181950Z AUTO 01005KT 9999 BKN026/// BKN041/// 18/16 Q1013=
202306181920 METAR ESMX 181920Z AUTO 01005KT 9999 FEW025/// SCT070/// 19/15 Q1013=
202306181850 METAR ESMX 181850Z AUTO 04006KT 9999 BKN024/// 19/15 Q1013=
202306181820 METAR ESMX 181820Z AUTO 04006KT 9999 FEW028/// 20/15 Q1012=
202306181750 METAR ESMX 181750Z AUTO 01006KT 340V050 9999 FEW027/// BKN070/// BKN210/// 21/15 Q1012=
202306181720 METAR ESMX 181720Z 03006KT 320V110 9999 FEW025 BKN068 20/15 Q1012=
202306181650 METAR ESMX 181650Z 08003KT 030V120 9999 BKN026 20/15 Q1012=
202306181620 METAR ESMX 181620Z 11003KT 050V120 9999 FEW028 BKN040 20/15 Q1012=
202306181550 METAR ESMX 181550Z 01008KT 350V050 9999 SCT024 21/15 Q1012=
202306181520 METAR ESMX 181520Z 02008KT 350V050 9999 SCT028 20/14 Q1012=
202306181450 METAR ESMX 181450Z 02007KT 340V040 9999 FEW028 BKN064 20/15 Q1012=
202306181420 METAR ESMX 181420Z 01009KT 9999 BKN062 21/15 Q1012=
202306181350 METAR ESMX 181350Z 01009KT 340V050 9999 FEW018 BKN061 20/15 Q1012=
202306181320 METAR ESMX 181320Z 02009KT 340V050 9999 FEW019 SCT026 20/16 Q1012=
202306181250 METAR COR ESMX 181250Z 03008KT 340V070 9999 FEW014 SCT061 20/16 Q1012=
202306181220 METAR ESMX 181220Z 36008KT 330V030 9999 FEW013 BKN061 20/16 Q1012=
202306181150 METAR ESMX 181150Z 04007KT 020V110 9999 FEW011 BKN055 19/16 Q1012=
202306181120 METAR COR ESMX 181120Z 02008KT 9999 FEW012 BKN053 19/16 Q1013=
202306181050 METAR ESMX 181050Z 36005KT 330V050 9999 FEW012 SCT020 BKN051 19/16 Q1013=
202306181020 METAR ESMX 181020Z 34005KT 310V010 9999 FEW009 SCT014 BKN049 19/16 Q1013=
202306180950 METAR ESMX 180950Z AUTO VRB03KT 9999 SCT010/// OVC048/// 19/16 Q1013=
202306180920 METAR ESMX 180920Z VRB02KT 9999 SCT009 BKN011 18/16 Q1013=
202306180850 METAR ESMX 180850Z VRB02KT 9999 FEW009 BKN013 17/16 Q1013=
202306180820 METAR ESMX 180820Z 13003KT 9999 SCT007 BKN010 17/16 Q1013=
202306180750 METAR ESMX 180750Z 13003KT 9999 FEW007 SCT010 BKN016 17/16 Q1013=
202306180720 METAR ESMX 180720Z 12003KT 9999 SCT007 BKN010 16/16 Q1013=
202306180650 METAR ESMX 180650Z 07004KT 030V110 9999 SCT007 BKN009 16/16 Q1012 REDZ=
202306180620 METAR ESMX 180620Z 04005KT 360V070 9999 SCT006 BKN009 16/16 Q1012=
202306180550 METAR ESMX 180550Z 03005KT 340V080 9000 FEW005 BKN008 16/16 Q1012=
202306180520 METAR ESMX 180520Z 03004KT 360V060 6000 DZ BKN007 16/16 Q1012=
202306180450 METAR ESMX 180450Z 05003KT 020V100 6000 DZ BKN006 15/15 Q1012=
202306180420 METAR ESMX 180420Z 03005KT 7000 BKN005 15/15 Q1012=
202306180350 METAR ESMX 180350Z 03006KT 9999 BKN005 15/15 Q1012=
202306180320 METAR ESMX 180320Z AUTO 03006KT 9999 OVC006/// 15/15 Q1012=
202306180250 METAR ESMX 180250Z AUTO 03008KT 9999 OVC005/// 15/15 Q1012=
202306180220 METAR ESMX 180220Z AUTO 02007KT 6000 BKN005/// BKN008/// OVC010/// 15/15 Q1012=
202306180150 METAR ESMX 180150Z AUTO 34008KT 8000 BKN005/// BKN009/// OVC012/// 15/15 Q1012 RERA=
202306180120 METAR ESMX 180120Z AUTO 35009KT 9000 FEW001/// BKN004/// BKN006/// 14/14 Q1012=
202306180050 METAR ESMX 180050Z AUTO 34007KT 6000 -RA BKN001/// OVC005/// 14/14 Q1012 REDZ=
202306180020 METAR ESMX 180020Z AUTO 34006KT 7000 -RA BKN006/// OVC008/// 14/14 Q1013=
202306172350 METAR ESMX 172350Z AUTO 33008KT 9999 -RA BKN006/// BKN015/// OVC019/// 14/14 Q1013 RERA=
202306172320 METAR ESMX 172320Z AUTO 34007KT 9999 BKN019/// OVC025/// 14/14 Q1013 RERA=
202306172250 METAR ESMX 172250Z AUTO 31005KT 9999 OVC032/// 14/14 Q1013=
202306172220 METAR ESMX 172220Z AUTO 29005KT 260V330 9999 -RA BKN036/// OVC046/// 14/13 Q1013=
202306172150 METAR ESMX 172150Z AUTO VRB02KT 9999 -RA OVC043/// 14/13 Q1014=
202306172120 METAR ESMX 172120Z AUTO 31003KT 9999 -DZ OVC036/// 14/13 Q1014=
202306172050 METAR ESMX 172050Z AUTO 34006KT 9999 -RA BKN039/// OVC061/// 14/13 Q1014=
202306172020 METAR ESMX 172020Z AUTO 02010KT 9999 DZ BKN047/// OVC062/// 16/12 Q1014 RERA=
202306171950 METAR ESMX 171950Z AUTO 02009KT 9999 BKN057/// OVC074/// 16/12 Q1014=
202306171920 METAR ESMX 171920Z AUTO 32007KT 9999 -RA OVC076/// 16/12 Q1013=
202306171850 METAR ESMX 171850Z AUTO 32008KT 9999 -RA FEW057/// OVC080/// 17/12 Q1013 REDZ=
202306171820 METAR ESMX 171820Z AUTO 30005KT 9999 -DZ FEW041/// BKN080/// 17/14 Q1013 RERA=
202306171750 METAR ESMX 171750Z AUTO 29004KT 260V320 9999 -DZ FEW040/// BKN078/// 17/14 Q1014=
202306171720 METAR ESMX 171720Z AUTO 30004KT 9999 -RA FEW053/// BKN076/// 18/15 Q1014 RERA=
202306171650 METAR ESMX 171650Z AUTO 30003KT 270V350 9999 SCT080/// 19/16 Q1014=
202306171620 METAR ESMX 171620Z AUTO 22002KT 9999 -RA FEW049/// BKN068/// OVC084/// 18/16 Q1014=
202306171550 METAR ESMX 171550Z VRB03KT 9999 FEW016 SCT061 BKN080 19/15 Q1014=
202306171520 METAR ESMX 171520Z 30004KT 9999 FEW016 SCT061 BKN080 19/13 Q1014=
202306171450 METAR ESMX 171450Z 28004KT 250V310 CAVOK 20/13 Q1014=
202306171420 METAR ESMX 171420Z 26007KT CAVOK 20/13 Q1014=
202306171350 METAR ESMX 171350Z 26007KT 220V280 CAVOK 20/13 Q1014=
202306171320 METAR ESMX 171320Z 25007KT 220V280 CAVOK 21/14 Q1014=
202306171250 METAR ESMX 171250Z 25006KT 220V280 9999 FEW012 SCT090 BKN180 21/14 Q1014=
202306171220 METAR ESMX 171220Z AUTO 24005KT 220V280 9999 FEW012/// SCT045/// BKN080/// 20/13 Q1014=
202306171150 METAR ESMX 171150Z 26007KT 220V290 CAVOK 20/13 Q1015=
202306171120 METAR ESMX 171120Z AUTO 23006KT 200V260 9999 SCT090/// BKN110/// BKN160/// 20/13 Q1015=
202306171050 METAR ESMX 171050Z 18004KT CAVOK 20/12 Q1015=
202306171020 METAR ESMX 171020Z 16005KT CAVOK 20/12 Q1015=
202306170950 METAR ESMX 170950Z 21003KT 150V260 CAVOK 19/13 Q1015=
202306170920 METAR ESMX 170920Z 13004KT CAVOK 20/13 Q1015=
202306170850 METAR ESMX 170850Z 10003KT 060V160 CAVOK 18/13 Q1015=
202306170820 METAR ESMX 170820Z VRB02KT CAVOK 17/14 Q1015=
202306170750 METAR ESMX 170750Z VRB03KT CAVOK 17/13 Q1015=
202306170720 METAR ESMX 170720Z 07003KT 010V110 CAVOK 18/13 Q1015=
202306170650 METAR ESMX 170650Z 04005KT CAVOK 17/13 Q1015=
202306170620 METAR ESMX 170620Z AUTO 03006KT 9999 SCT076/// 17/13 Q1015=
202306170550 METAR ESMX 170550Z AUTO 04006KT 010V070 9999 FEW078/// SCT100/// 17/13 Q1014=
202306170520 METAR ESMX 170520Z AUTO 03006KT 9999 FEW072/// BKN100/// 16/13 Q1014=
202306170450 METAR ESMX 170450Z AUTO 35004KT 320V020 9999 NCD 17/13 Q1014=
202306170420 METAR ESMX 170420Z AUTO 36003KT 340V040 9999 BKN100/// 16/14 Q1014=
202306170350 METAR ESMX 170350Z AUTO 00000KT 9999 FEW100/// 14/14 Q1014=
202306170320 METAR ESMX 170320Z AUTO 36004KT 9999 FEW100/// 12/12 Q1014=
202306170250 METAR ESMX 170250Z AUTO 00000KT 9999 BKN096/// 11/11 Q1014=
202306170220 METAR ESMX 170220Z AUTO 19002KT 2200 BCFG FEW078/// SCT096/// 12/12 Q1014=
202306170150 METAR ESMX 170150Z AUTO 00000KT 0150 R01/1300N R19/P2000N BCFG FEW098/// 10/10 Q1014=
202306170120 METAR ESMX 170120Z AUTO 00000KT 9999 BCFG FEW098/// 10/10 Q1014=
202306170050 METAR ESMX 170050Z AUTO 00000KT 9999 BCFG FEW098/// 10/10 Q1014=
202306170020 METAR ESMX 170020Z AUTO 00000KT 0200 R01/1600D R19/P2000N BCFG NCD 11/11 Q1014=
202306162350 METAR ESMX 162350Z AUTO 00000KT 9999 BCFG NCD 11/11 Q1015=
202306162320 METAR ESMX 162320Z AUTO 00000KT 1500 BR NCD 12/12 Q1015=
202306162250 METAR ESMX 162250Z AUTO 00000KT 7000 BCFG SCT094/// 12/12 Q1015=
202306162220 METAR ESMX 162220Z AUTO 00000KT 9999 BCFG NCD 12/12 Q1015=
202306162150 METAR ESMX 162150Z AUTO 00000KT 2000 BR SCT074/// 13/13 Q1015=
202306162120 METAR ESMX 162120Z AUTO 19003KT 9999 NCD 14/14 Q1015=
202306162050 METAR ESMX 162050Z AUTO 18003KT 9999 FEW082/// 15/15 Q1015=
202306162020 METAR ESMX 162020Z AUTO 19003KT 9999 FEW078/// 16/15 Q1015=
202306161950 METAR ESMX 161950Z AUTO 19003KT 9999 NCD 16/15 Q1015=
202306161920 METAR ESMX 161920Z AUTO 00000KT 9999 NCD 18/14 Q1015=
202306161850 METAR ESMX 161850Z AUTO 00000KT 9999 NCD 20/15 Q1015=
202306161820 METAR ESMX 161820Z AUTO VRB02KT 9999 NCD 21/13 Q1014=
202306161750 METAR ESMX 161750Z AUTO VRB02KT 9999 NCD 21/13 Q1014=
202306161720 METAR ESMX 161720Z AUTO 19002KT 9999 NCD 20/14 Q1014=
202306161650 METAR ESMX 161650Z AUTO 19003KT 9999 FEW029/// BKN092/// 19/15 Q1014=
202306161620 METAR ESMX 161620Z AUTO 17008KT 140V200 9999 RA FEW057/// SCT110/// 22/13 Q1014=
202306161550 METAR ESMX 161550Z AUTO 20008KT 9999 FEW062/// SCT078/// 20/13 Q1015=
202306161520 METAR ESMX 161520Z AUTO 17006KT 9999 ///////// 21/13 Q1015=
202306161450 METAR ESMX 161450Z 10004KT 040V130 9999 FEW051CB SCT190 21/13 Q1014=
202306161420 METAR ESMX 161420Z 02009KT 350V050 9999 SCT075CB 23/13 Q1014=
202306161350 METAR ESMX 161350Z 03006KT 340V060 9999 SCT075CB 21/13 Q1015=
202306161320 METAR ESMX 161320Z VRB07KT CAVOK 20/13 Q1015=
202306161250 METAR ESMX 161250Z 06008KT 020V100 9999 -RA SCT059CB BKN072 20/12 Q1015=
202306161220 METAR ESMX 161220Z 04013KT 9999 SCT059CB BKN072 22/11 Q1015=
202306161150 METAR ESMX 161150Z 04012KT 9999 SCT065CB BKN092 25/10 Q1015=
202306161120 METAR COR ESMX 161120Z 03010KT 010V070 9999 SCT065CB BKN092 23/10 Q1015=
202306161050 METAR ESMX 161050Z 35007KT 320V020 9999 FEW066CB SCT100 25/09 Q1015=
202306161020 METAR ESMX 161020Z 02006KT 330V060 CAVOK 24/09 Q1015=
202306160950 METAR ESMX 160950Z 02006KT 340V050 CAVOK 24/09 Q1015=
202306160920 METAR ESMX 160920Z 02007KT 340V070 CAVOK 22/08 Q1016=
202306160850 METAR ESMX 160850Z 04007KT 010V070 CAVOK 21/10 Q1016=
202306160820 METAR ESMX 160820Z 02005KT 340V060 CAVOK 19/11 Q1016=
202306160750 METAR ESMX 160750Z 02005KT 350V050 CAVOK 18/11 Q1016=
202306160720 METAR ESMX 160720Z 34005KT 300V360 CAVOK 18/11 Q1016=
202306160650 METAR ESMX 160650Z 33005KT CAVOK 17/11 Q1016=
202306160620 METAR ESMX 160620Z 14003KT CAVOK 17/11 Q1016=
202306160550 METAR ESMX 160550Z 14001KT CAVOK 16/11 Q1016=
202306160520 METAR ESMX 160520Z VRB01KT CAVOK 16/11 Q1016=
202306160450 METAR ESMX 160450Z 14003KT CAVOK 16/11 Q1016=
202306160420 METAR ESMX 160420Z 36006KT CAVOK 14/12 Q1016=
202306160350 METAR ESMX 160350Z 14002KT CAVOK 13/11 Q1016=
202306160320 METAR ESMX 160320Z AUTO 00000KT 9999 NCD 13/11 Q1016=
202306160250 METAR ESMX 160250Z AUTO 18002KT 9999 FEW190/// 11/10 Q1016=
202306160220 METAR ESMX 160220Z AUTO 00000KT 9999 SCT180/// 11/09 Q1016=
202306160150 METAR ESMX 160150Z AUTO 00000KT 9999 FEW180/// 11/10 Q1016=
202306160120 METAR ESMX 160120Z AUTO 00000KT 9999 FEW160/// 12/10 Q1016=
202306160050 METAR ESMX 160050Z AUTO 14003KT 9999 SCT150/// 13/10 Q1017=
202306160020 METAR ESMX 160020Z AUTO 00000KT 9999 FEW210/// 12/10 Q1017=
202306152350 METAR ESMX 152350Z AUTO 21003KT 9999 NCD 12/10 Q1017=
202306152320 METAR ESMX 152320Z 12004KT CAVOK 13/10 Q1017=
202306152250 METAR COR ESMX 152250Z 19002KT CAVOK 12/10 Q1017=
202306152220 METAR ESMX 152220Z AUTO VRB01KT 9999 FEW160/// 14/09 Q1017=
202306152150 METAR ESMX 152150Z AUTO VRB02KT 9999 NCD 15/10 Q1018=
202306152120 METAR ESMX 152120Z AUTO 12003KT 9999 NCD 17/10 Q1018=
202306152050 METAR ESMX 152050Z AUTO 15005KT 9999 NCD 19/10 Q1018=
202306152020 METAR ESMX 152020Z 13006KT 100V160 CAVOK 20/10 Q1018=
202306151950 METAR COR ESMX 151950Z 14005KT 100V160 CAVOK 21/09 Q1018=
202306151920 METAR ESMX 151920Z AUTO 11006KT 070V150 9999 NCD 22/07 Q1018=
202306151850 METAR ESMX 151850Z AUTO 12007KT 030V160 9999 NCD 24/07 Q1017=
202306151820 METAR ESMX 151820Z AUTO 13003KT 9999 FEW100/// 24/08 Q1017=
202306151750 METAR ESMX 151750Z VRB01KT CAVOK 25/06 Q1017=
202306151720 METAR ESMX 151720Z 13003KT CAVOK 26/05 Q1017=
202306151650 METAR ESMX 151650Z VRB03KT CAVOK 26/06 Q1017=
202306151620 METAR ESMX 151620Z 14003KT 100V230 CAVOK 26/05 Q1017=
202306151550 METAR ESMX 151550Z 15006KT 120V190 CAVOK 25/05 Q1017=
202306151520 METAR ESMX 151520Z 20002KT CAVOK 25/05 Q1018=
202306151450 METAR ESMX 151450Z 21003KT CAVOK 25/05 Q1018=
202306151420 METAR ESMX 151420Z VRB02KT CAVOK 25/04 Q1018=
202306151350 METAR ESMX 151350Z 02004KT 320V070 CAVOK 26/05 Q1018=
202306151320 METAR ESMX 151320Z 29004KT 240V330 CAVOK 25/05 Q1018=
202306151250 METAR ESMX 151250Z VRB04KT CAVOK 26/05 Q1019=
202306151220 METAR ESMX 151220Z VRB02KT CAVOK 25/04 Q1019=
202306151150 METAR ESMX 151150Z VRB04KT CAVOK 26/05 Q1019=
202306151120 METAR ESMX 151120Z 01005KT 330V050 CAVOK 25/05 Q1019=
202306151050 METAR ESMX 151050Z 36005KT 330V030 CAVOK 25/05 Q1020=
202306151020 METAR ESMX 151020Z VRB04KT CAVOK 24/05 Q1020=
202306150950 METAR ESMX 150950Z 01005KT 320V060 CAVOK 24/06 Q1020=
202306150920 METAR ESMX 150920Z 35006KT 310V050 CAVOK 23/06 Q1020=
202306150850 METAR ESMX 150850Z 01005KT 330V050 CAVOK 22/07 Q1020=
202306150820 METAR ESMX 150820Z 34006KT 310V010 9999 OVC150 22/08 Q1020=
202306150750 METAR ESMX 150750Z 35004KT 320V020 CAVOK 21/09 Q1021=
202306150720 METAR ESMX 150720Z 01005KT 330V060 CAVOK 20/08 Q1021=
202306150650 METAR ESMX 150650Z 16004KT CAVOK 19/09 Q1021=
202306150620 METAR ESMX 150620Z 17004KT CAVOK 18/09 Q1021=
202306150550 METAR ESMX 150550Z 17003KT CAVOK 17/09 Q1021=
202306150520 METAR ESMX 150520Z 17004KT CAVOK 17/11 Q1021=
202306150450 METAR ESMX 150450Z 17002KT CAVOK 15/12 Q1021=
202306150420 METAR ESMX 150420Z 29002KT CAVOK 15/11 Q1021=
202306150350 METAR ESMX 150350Z 00000KT CAVOK 11/09 Q1020=
202306150320 METAR ESMX 150320Z AUTO 00000KT 9999 FEW200/// 09/07 Q1020=
202306150250 METAR ESMX 150250Z AUTO 00000KT 9999 BKN200/// 08/06 Q1020=
202306150220 METAR ESMX 150220Z AUTO 00000KT 9999 FEW210/// 09/07 Q1020=
202306150150 METAR ESMX 150150Z AUTO 00000KT 9999 NCD 09/07 Q1020=
202306150120 METAR ESMX 150120Z AUTO 00000KT 9999 SCT098/// BKN190/// 09/06 Q1020=
202306150050 METAR ESMX 150050Z AUTO 00000KT 9999 FEW100/// 10/06 Q1020=
202306150020 METAR ESMX 150020Z AUTO 00000KT 9999 FEW088/// 11/06 Q1021=
202306142350 METAR ESMX 142350Z AUTO 00000KT 9999 FEW088/// 11/06 Q1021=
202306142320 METAR ESMX 142320Z 00000KT CAVOK 13/07 Q1021=
202306142250 METAR ESMX 142250Z AUTO 00000KT 9999 OVC090/// 13/07 Q1021=
202306142220 METAR ESMX 142220Z AUTO 19002KT 9999 BKN090/// 14/06 Q1021=
202306142150 METAR ESMX 142150Z AUTO 17004KT 9999 OVC090/// 16/05 Q1021=
202306142120 METAR ESMX 142120Z 17005KT CAVOK 15/05 Q1021=
202306142050 METAR ESMX 142050Z AUTO 17005KT 9999 FEW096/// 16/05 Q1021=
202306142020 METAR ESMX 142020Z 16006KT CAVOK 19/06 Q1021=
202306141950 METAR COR ESMX 141950Z 16007KT CAVOK 20/06 Q1021=
202306141920 METAR ESMX 141920Z AUTO 16007KT 9999 BKN086/// OVC100/// 21/07 Q1021=
202306141850 METAR ESMX 141850Z AUTO 16007KT 9999 OVC088/// 22/07 Q1020=
202306141820 METAR ESMX 141820Z AUTO 15007KT 090V180 9999 OVC098/// 24/07 Q1020=
202306141750 METAR ESMX 141750Z AUTO 08006KT 030V120 9999 BKN096/// 25/03 Q1020=
202306141720 METAR ESMX 141720Z AUTO 07008KT 020V120 9999 BKN094/// 25/03 Q1020=
202306141650 METAR ESMX 141650Z 06007KT 020V110 CAVOK 26/03 Q1020=
202306141620 METAR ESMX 141620Z 05007KT 020V090 CAVOK 27/01 Q1020=
202306141550 METAR ESMX 141550Z 04007KT CAVOK 26/01 Q1020=
202306141520 METAR ESMX 141520Z 05008KT 020V100 CAVOK 27/01 Q1020=
202306141450 METAR ESMX 141450Z 34007KT 290V030 CAVOK 27/01 Q1020=
202306141420 METAR ESMX 141420Z 32005KT 250V050 CAVOK 27/02 Q1020=
202306141350 METAR ESMX 141350Z 36005KT 280V050 CAVOK 26/02 Q1020=
202306141320 METAR ESMX 141320Z 35004KT 210V020 CAVOK 26/03 Q1021=
202306141250 METAR ESMX 141250Z 04004KT 330V110 CAVOK 26/04 Q1021=
202306141220 METAR ESMX 141220Z VRB03KT CAVOK 25/04 Q1021=
202306141150 METAR ESMX 141150Z VRB04KT 9999 FEW190 25/04 Q1021=
202306141120 METAR ESMX 141120Z 04005KT 320V070 CAVOK 24/03 Q1022=
202306141050 METAR ESMX 141050Z 06004KT 320V110 CAVOK 23/04 Q1022=
202306141020 METAR ESMX 141020Z VRB05KT CAVOK 24/04 Q1022=
202306140950 METAR ESMX 140950Z 02004KT 330V050 CAVOK 23/05 Q1022=
202306140920 METAR ESMX 140920Z 35005KT 280V080 CAVOK 23/05 Q1022=
202306140850 METAR ESMX 140850Z 05004KT 350V110 CAVOK 22/04 Q1023=
202306140820 METAR ESMX 140820Z 06004KT 020V110 CAVOK 21/03 Q1022=
202306140750 METAR ESMX 140750Z VRB03KT CAVOK 20/06 Q1023=
202306140720 METAR ESMX 140720Z VRB03KT CAVOK 20/06 Q1023=
202306140650 METAR ESMX 140650Z 18003KT CAVOK 19/07 Q1022=
202306140620 METAR ESMX 140620Z VRB03KT CAVOK 18/07 Q1023=
202306140550 METAR ESMX 140550Z 18004KT CAVOK 17/08 Q1023=
202306140520 METAR ESMX 140520Z AUTO 01003KT 9999 NCD 16/09 Q1023=
202306140450 METAR ESMX 140450Z AUTO VRB02KT 9999 NCD 15/11 Q1023=
202306140420 METAR ESMX 140420Z AUTO 00000KT 9999 NCD 14/10 Q1023=
202306140350 METAR ESMX 140350Z AUTO 00000KT 9999 NCD 08/07 Q1023=
202306140320 METAR ESMX 140320Z AUTO 19002KT 9999 NCD 06/05 Q1022=
202306140250 METAR ESMX 140250Z AUTO 00000KT 9999 NCD 05/04 Q1022=
202306140220 METAR ESMX 140220Z AUTO 00000KT 9999 NCD 05/04 Q1022=
202306140150 METAR ESMX 140150Z AUTO 00000KT 9999 NCD 05/05 Q1022=
202306140120 METAR ESMX 140120Z AUTO 00000KT 9999 NCD 05/04 Q1022=
202306140050 METAR ESMX 140050Z AUTO 19002KT 9999 NCD 06/05 Q1022=
202306140020 METAR ESMX 140020Z AUTO 19002KT 9999 NCD 07/05 Q1022=
202306132350 METAR ESMX 132350Z 00000KT CAVOK 07/05 Q1022=
202306132320 METAR ESMX 132320Z 17001KT CAVOK 09/06 Q1022=
202306132250 METAR ESMX 132250Z AUTO 18003KT 9999 NCD 08/06 Q1022=
202306132220 METAR ESMX 132220Z AUTO 18003KT 9999 NCD 10/06 Q1022=
202306132150 METAR ESMX 132150Z AUTO 18002KT 9999 NCD 11/06 Q1022=
202306132120 METAR ESMX 132120Z 18002KT CAVOK 12/06 Q1022=
202306132050 METAR ESMX 132050Z 18004KT CAVOK 15/06 Q1022=
202306132020 METAR ESMX 132020Z 18005KT CAVOK 15/06 Q1021=
202306131950 METAR ESMX 131950Z 18004KT CAVOK 18/06 Q1021=
202306131920 METAR ESMX 131920Z AUTO 17006KT 9999 NCD 18/05 Q1021=
202306131850 METAR ESMX 131850Z AUTO 17006KT 9999 NCD 20/05 Q1021=
202306131820 METAR ESMX 131820Z AUTO 18009KT 9999 NCD 21/05 Q1021=
202306131750 METAR COR ESMX 131750Z 16007KT CAVOK 22/05 Q1021=
202306131720 METAR ESMX 131720Z 17011KT 140V200 CAVOK 22/06 Q1021=
202306131650 METAR ESMX 131650Z 17010KT CAVOK 23/06 Q1020=
202306131620 METAR ESMX 131620Z 15006KT 100V190 CAVOK 24/04 Q1020=
202306131550 METAR ESMX 131550Z 14006KT 100V190 CAVOK 24/04 Q1020=
202306131520 METAR ESMX 131520Z 18008KT 140V210 CAVOK 24/04 Q1020=
202306131450 METAR ESMX 131450Z 15007KT 050V210 CAVOK 25/04 Q1020=
202306131420 METAR ESMX 131420Z 13005KT 100V160 CAVOK 24/02 Q1020=
202306131350 METAR ESMX 131350Z 35005KT 310V020 CAVOK 25/03 Q1020=
202306131320 METAR ESMX 131320Z 35007KT 330V030 CAVOK 25/03 Q1021=
202306131250 METAR ESMX 131250Z 36006KT 300V060 CAVOK 24/03 Q1021=
202306131220 METAR ESMX 131220Z 03006KT 340V100 CAVOK 24/02 Q1021=
202306131150 METAR ESMX 131150Z 01007KT 340V090 CAVOK 24/02 Q1021=
202306131120 METAR ESMX 131120Z 35007KT 320V020 CAVOK 23/03 Q1021=
202306131050 METAR ESMX 131050Z 35006KT 300V040 CAVOK 22/03 Q1022=
202306131020 METAR ESMX 131020Z 34008KT CAVOK 22/03 Q1022=
202306130950 METAR ESMX 130950Z VRB04KT CAVOK 21/03 Q1022=
202306130920 METAR ESMX 130920Z AUTO 34005KT 290V050 9999 NCD 21/04 Q1022=
202306130850 METAR ESMX 130850Z 07004KT 020V100 CAVOK 20/03 Q1023=
202306130820 METAR ESMX 130820Z 34005KT 260V010 CAVOK 19/03 Q1023=
202306130750 METAR ESMX 130750Z 34005KT 230V030 CAVOK 19/02 Q1023=
202306130720 METAR ESMX 130720Z 34004KT 250V050 CAVOK 18/02 Q1023=
202306130650 METAR ESMX 130650Z 35004KT 330V040 CAVOK 17/06 Q1023=
202306130620 METAR ESMX 130620Z 36004KT CAVOK 16/06 Q1023=
202306130550 METAR ESMX 130550Z 35004KT 320V020 CAVOK 15/08 Q1023=
202306130520 METAR ESMX 130520Z 34003KT CAVOK 14/09 Q1023=
202306130450 METAR ESMX 130450Z 01004KT CAVOK 13/09 Q1023=
202306130420 METAR ESMX 130420Z VRB02KT CAVOK 10/08 Q1023=
202306130350 METAR COR ESMX 130350Z 00000KT CAVOK 07/05 Q1023=
202306130320 METAR ESMX 130320Z AUTO 00000KT 9999 NCD 04/03 Q1023=
202306130250 METAR ESMX 130250Z AUTO 00000KT 9999 NCD 03/02 Q1023=
202306130220 METAR ESMX 130220Z AUTO 00000KT 9999 NCD 03/02 Q1023=
202306130150 METAR ESMX 130150Z AUTO 00000KT 9999 NCD 04/03 Q1023=
202306130120 METAR ESMX 130120Z AUTO 00000KT 9999 NCD 04/02 Q1023=
202306130050 METAR ESMX 130050Z AUTO 00000KT 9999 NCD 05/03 Q1023=
202306130020 METAR ESMX 130020Z AUTO 00000KT 9999 NCD 05/03 Q1023=
202306122350 METAR ESMX 122350Z 14002KT CAVOK 06/02 Q1023=
202306122320 METAR ESMX 122320Z 00000KT CAVOK 08/03 Q1024=
202306122250 METAR ESMX 122250Z 14002KT CAVOK 09/03 Q1024=
202306122220 METAR ESMX 122220Z 00000KT CAVOK 09/03 Q1024=
202306122150 METAR ESMX 122150Z 14003KT CAVOK 11/02 Q1024=
202306122120 METAR ESMX 122120Z 14004KT CAVOK 15/02 Q1024=
202306122050 METAR ESMX 122050Z 15004KT CAVOK 15/03 Q1024=
202306122020 METAR ESMX 122020Z 15005KT CAVOK 16/03 Q1024=
202306121950 METAR ESMX 121950Z 13006KT 080V160 CAVOK 17/03 Q1024=
202306121920 METAR ESMX 121920Z 15007KT CAVOK 19/02 Q1023=
202306121850 METAR ESMX 121850Z 14008KT CAVOK 20/02 Q1023=
202306121820 METAR ESMX 121820Z 15008KT 130V190 CAVOK 21/02 Q1023=
202306121750 METAR ESMX 121750Z 13007KT 070V160 CAVOK 21/02 Q1023=
202306121720 METAR ESMX 121720Z 14008KT 100V170 CAVOK 22/03 Q1023=
202306121650 METAR ESMX 121650Z 13005KT 080V140 CAVOK 23/02 Q1023=
202306121620 METAR ESMX 121620Z VRB03KT CAVOK 24/03 Q1023=
202306121550 METAR ESMX 121550Z 15003KT CAVOK 24/03 Q1023=
202306121520 METAR ESMX 121520Z 12006KT 060V170 CAVOK 23/03 Q1023=
202306121450 METAR ESMX 121450Z 16006KT 100V190 CAVOK 23/02 Q1023=
202306121420 METAR ESMX 121420Z 18006KT CAVOK 23/02 Q1024=
202306121350 METAR ESMX 121350Z 14007KT 080V190 CAVOK 24/03 Q1024=
202306121320 METAR ESMX 121320Z VRB06KT CAVOK 23/02 Q1024=
202306121250 METAR ESMX 121250Z 19007KT 140V230 CAVOK 23/01 Q1024=
202306121220 METAR ESMX 121220Z 17007KT 120V200 CAVOK 23/02 Q1024=
202306121150 METAR ESMX 121150Z AUTO 17006KT 100V250 9999 NCD 23/01 Q1025=
202306121120 METAR ESMX 121120Z 17009KT 120V190 CAVOK 22/00 Q1025=
202306121050 METAR ESMX 121050Z AUTO 14007KT 080V180 9999 NCD 22/01 Q1025=
202306121020 METAR ESMX 121020Z 17008KT 120V190 CAVOK 21/01 Q1025=
202306120950 METAR ESMX 120950Z 15006KT 100V190 CAVOK 21/00 Q1026=
202306120920 METAR ESMX 120920Z VRB07KT CAVOK 21/01 Q1026=
202306120850 METAR ESMX 120850Z 14007KT 100V190 CAVOK 20/01 Q1026=
202306120820 METAR ESMX 120820Z 14008KT 090V170 CAVOK 20/01 Q1026=
202306120750 METAR ESMX 120750Z 12006KT 020V170 CAVOK 19/01 Q1026=
202306120720 METAR ESMX 120720Z 04005KT 010V070 CAVOK 18/06 Q1026=
202306120650 METAR ESMX 120650Z 05004KT 350V110 CAVOK 17/07 Q1026=
202306120620 METAR ESMX 120620Z 08004KT 030V110 CAVOK 16/07 Q1026=
202306120550 METAR ESMX 120550Z 04004KT 010V100 CAVOK 15/07 Q1026=
202306120520 METAR ESMX 120520Z 06005KT 020V090 CAVOK 14/07 Q1026=
202306120450 METAR ESMX 120450Z 06005KT 030V090 CAVOK 12/07 Q1026=
202306120420 METAR ESMX 120420Z 04004KT CAVOK 12/08 Q1026=
202306120350 METAR ESMX 120350Z 04004KT CAVOK 08/07 Q1026=
202306120320 METAR ESMX 120320Z AUTO 04004KT 9999 NCD 06/06 Q1026=
202306120250 METAR ESMX 120250Z AUTO 00000KT 9999 NCD 04/04 Q1026=
202306120220 METAR ESMX 120220Z AUTO 00000KT 9999 NCD 03/02 Q1027=
202306120150 METAR ESMX 120150Z AUTO VRB02KT 9999 NCD 03/01 Q1027=
202306120120 METAR ESMX 120120Z AUTO VRB03KT 9999 NCD 04/03 Q1027=
202306120050 METAR ESMX 120050Z AUTO VRB03KT 9999 NCD 06/04 Q1027=
202306120020 METAR ESMX 120020Z AUTO 10002KT 9999 NCD 07/04 Q1027=
202306112350 METAR ESMX 112350Z AUTO VRB02KT 9999 NCD 08/03 Q1027=
202306112320 METAR ESMX 112320Z AUTO VRB02KT 9999 NCD 08/03 Q1027=
202306112250 METAR ESMX 112250Z AUTO 12003KT 9999 NCD 10/02 Q1027=
202306112220 METAR ESMX 112220Z AUTO 11003KT 070V130 9999 NCD 10/02 Q1027=
202306112150 METAR ESMX 112150Z AUTO 11003KT 070V150 9999 NCD 11/02 Q1027=
202306112120 METAR ESMX 112120Z AUTO 12005KT 080V160 9999 NCD 13/02 Q1027=
202306112050 METAR ESMX 112050Z AUTO 12003KT 060V140 9999 NCD 13/02 Q1026=
202306112020 METAR ESMX 112020Z 12005KT 030V160 CAVOK 14/02 Q1026=
202306111950 METAR ESMX 111950Z 12005KT 080V160 CAVOK 15/03 Q1026=
202306111920 METAR ESMX 111920Z 12006KT 080V160 CAVOK 16/03 Q1026=
202306111850 METAR ESMX 111850Z 13005KT 080V190 CAVOK 18/02 Q1026=
202306111820 METAR ESMX 111820Z 14007KT 100V160 CAVOK 18/02 Q1026=
202306111750 METAR ESMX 111750Z 13006KT 080V140 CAVOK 19/02 Q1026=
202306111720 METAR ESMX 111720Z 11006KT 060V160 CAVOK 20/02 Q1026=
202306111650 METAR ESMX 111650Z 14005KT 090V170 CAVOK 20/01 Q1026=
202306111620 METAR ESMX 111620Z 08005KT 020V130 CAVOK 21/01 Q1026=
202306111550 METAR ESMX 111550Z 08006KT 030V140 CAVOK 21/01 Q1026=
202306111520 METAR ESMX 111520Z 08006KT 030V140 CAVOK 21/01 Q1026=
202306111450 METAR ESMX 111450Z 10006KT 050V160 CAVOK 21/00 Q1026=
202306111420 METAR ESMX 111420Z 11006KT 070V160 CAVOK 21/01 Q1026=
202306111350 METAR ESMX 111350Z 14007KT 060V170 CAVOK 21/02 Q1026=
202306111320 METAR ESMX 111320Z 12007KT 040V160 CAVOK 21/02 Q1027=
202306111250 METAR ESMX 111250Z 13008KT 060V170 CAVOK 21/03 Q1027=
202306111220 METAR ESMX 111220Z 13008KT 080V160 CAVOK 21/02 Q1027=
202306111150 METAR ESMX 111150Z 13008KT 060V190 CAVOK 21/03 Q1027=
202306111120 METAR ESMX 111120Z 11006KT 350V150 CAVOK 21/03 Q1027=
202306111050 METAR ESMX 111050Z 09008KT 030V160 CAVOK 21/04 Q1027=
202306111020 METAR ESMX 111020Z 06008KT 010V120 CAVOK 21/04 Q1027=
202306110950 METAR ESMX 110950Z 13007KT 080V160 CAVOK 20/04 Q1027=
202306110920 METAR ESMX 110920Z 07006KT 010V140 CAVOK 20/04 Q1027=
202306110850 METAR ESMX 110850Z AUTO 12006KT 350V150 9999 FEW200/// 19/04 Q1028=
202306110820 METAR ESMX 110820Z 11006KT 050V150 CAVOK 18/04 Q1028=
202306110750 METAR ESMX 110750Z 08005KT 010V120 CAVOK 17/05 Q1028=
202306110720 METAR ESMX 110720Z 04007KT 020V080 CAVOK 17/06 Q1028=
202306110650 METAR ESMX 110650Z 07006KT 030V150 CAVOK 16/07 Q1028=
202306110620 METAR ESMX 110620Z AUTO 07004KT 340V140 9999 NCD 16/07 Q1028=
202306110550 METAR ESMX 110550Z 06004KT 020V140 CAVOK 14/08 Q1028=
202306110520 METAR ESMX 110520Z AUTO 05004KT 010V110 9999 NCD 13/07 Q1028=
202306110450 METAR ESMX 110450Z AUTO 04005KT 010V080 9999 NCD 12/07 Q1028=
202306110420 METAR ESMX 110420Z AUTO 04005KT 020V080 9999 NCD 11/07 Q1028=
202306110350 METAR ESMX 110350Z AUTO 05006KT 020V080 9999 NCD 10/07 Q1028=
202306110320 METAR ESMX 110320Z AUTO 06003KT 010V110 9999 NCD 09/06 Q1028=
202306110250 METAR ESMX 110250Z AUTO 05005KT 010V110 9999 NCD 09/06 Q1028=
202306110220 METAR ESMX 110220Z AUTO 07004KT 020V110 9999 NCD 09/06 Q1028=
202306110150 METAR ESMX 110150Z AUTO 04005KT 340V090 9999 NCD 09/06 Q1028=
202306110120 METAR ESMX 110120Z AUTO 06004KT 020V090 9999 NCD 09/06 Q1028=
202306110050 METAR ESMX 110050Z AUTO 06005KT 030V100 9999 NCD 10/06 Q1028=
202306110020 METAR ESMX 110020Z 06005KT 030V100 CAVOK 10/06 Q1028=
202306102350 METAR ESMX 102350Z 06005KT 030V090 CAVOK 10/05 Q1028=
202306102320 METAR ESMX 102320Z 06005KT 030V110 CAVOK 11/05 Q1028=
202306102250 METAR ESMX 102250Z 06005KT CAVOK 11/05 Q1028=
202306102220 METAR ESMX 102220Z 06005KT 030V090 CAVOK 11/04 Q1028=
202306102150 METAR ESMX 102150Z 06004KT 020V090 CAVOK 11/04 Q1028=
202306102120 METAR ESMX 102120Z AUTO 07004KT 9999 NCD 11/04 Q1028=
202306102050 METAR ESMX 102050Z AUTO 07004KT 050V110 9999 NCD 12/04 Q1028=
202306102020 METAR ESMX 102020Z AUTO 06005KT 010V100 9999 NCD 13/03 Q1028=
202306101950 METAR ESMX 101950Z AUTO 07005KT 030V110 9999 NCD 14/02 Q1028=
202306101920 METAR ESMX 101920Z AUTO 08006KT 030V130 9999 NCD 15/02 Q1027=
202306101850 METAR ESMX 101850Z AUTO 07007KT 030V110 9999 NCD 16/02 Q1027=
202306101820 METAR ESMX 101820Z AUTO 09005KT 050V140 9999 NCD 17/01 Q1027=
202306101750 METAR ESMX 101750Z AUTO 08006KT 030V120 9999 NCD 17/01 Q1026=
202306101720 METAR ESMX 101720Z AUTO 08006KT 360V130 9999 NCD 18/00 Q1026=
202306101650 METAR ESMX 101650Z AUTO 07007KT 030V120 9999 NCD 19/M00 Q1026=
202306101620 METAR ESMX 101620Z AUTO 09007KT 030V140 9999 NCD 19/M01 Q1026=
202306101550 METAR ESMX 101550Z AUTO 09007KT 040V150 9999 NCD 20/M01 Q1026=
202306101520 METAR ESMX 101520Z AUTO 08008KT 030V120 9999 NCD 20/M00 Q1026=
202306101450 METAR ESMX 101450Z AUTO 08007KT 030V120 9999 NCD 20/00 Q1026=
202306101420 METAR ESMX 101420Z AUTO 09008KT 040V120 9999 NCD 20/02 Q1026=
202306101350 METAR ESMX 101350Z AUTO 07007KT 030V120 9999 NCD 21/03 Q1026=
202306101320 METAR ESMX 101320Z AUTO 09007KT 050V140 9999 NCD 21/02 Q1026=
202306101250 METAR ESMX 101250Z AUTO 08006KT 020V150 9999 NCD 21/02 Q1026=
202306101220 METAR ESMX 101220Z AUTO 09007KT 040V140 9999 FEW200/// 21/03 Q1026=
202306101150 METAR ESMX 101150Z AUTO 10007KT 050V150 9999 NCD 21/03 Q1026=
202306101120 METAR ESMX 101120Z AUTO 09008KT 030V150 9999 NCD 20/03 Q1027=
202306101050 METAR ESMX 101050Z AUTO 08009KT 030V130 9999 NCD 20/04 Q1027=
202306101020 METAR ESMX 101020Z AUTO VRB08KT 9999 NCD 19/04 Q1027=
202306100950 METAR ESMX 100950Z AUTO 05010KT 020V110 9999 NCD 19/05 Q1027=
202306100920 METAR ESMX 100920Z AUTO 06010KT 020V110 9999 NCD 18/04 Q1027=
202306100850 METAR ESMX 100850Z 07007KT 350V150 CAVOK 18/03 Q1027=
202306100820 METAR ESMX 100820Z 06008KT 020V100 CAVOK 18/03 Q1027=
202306100750 METAR ESMX 100750Z 05010KT 030V110 CAVOK 17/04 Q1027=
202306100720 METAR ESMX 100720Z 05008KT 010V100 CAVOK 16/05 Q1027=
202306100650 METAR ESMX 100650Z 04008KT 020V080 CAVOK 15/06 Q1026=
202306100620 METAR ESMX 100620Z AUTO 04007KT 020V080 9999 NCD 14/06 Q1026=
202306100550 METAR ESMX 100550Z AUTO 06007KT 030V100 9999 NCD 13/06 Q1026=
202306100520 METAR ESMX 100520Z 04007KT 020V090 CAVOK 12/07 Q1026=
202306100450 METAR ESMX 100450Z 04008KT 020V080 CAVOK 10/07 Q1026=
202306100420 METAR COR ESMX 100420Z 05007KT 020V080 CAVOK 10/07 Q1026=
202306100350 METAR ESMX 100350Z AUTO 04008KT 9999 NCD 09/07 Q1026=
202306100320 METAR ESMX 100320Z AUTO 04008KT 020V080 9999 NCD 09/07 Q1026=
202306100250 METAR ESMX 100250Z AUTO 04009KT 010V070 9999 NCD 08/06 Q1026=
202306100220 METAR ESMX 100220Z AUTO 04007KT 020V090 9999 NCD 08/06 Q1026=
202306100150 METAR ESMX 100150Z AUTO 05007KT 020V080 9999 NCD 08/06 Q1026=
202306100120 METAR ESMX 100120Z 05006KT 010V080 CAVOK 09/06 Q1026=
202306100050 METAR ESMX 100050Z 04007KT CAVOK 09/07 Q1025=
202306100020 METAR ESMX 100020Z 04007KT 010V080 CAVOK 09/06 Q1026=
202306092350 METAR ESMX 092350Z 04007KT 010V070 CAVOK 09/06 Q1026=
202306092320 METAR ESMX 092320Z 05007KT 020V100 CAVOK 10/04 Q1026=
202306092250 METAR ESMX 092250Z 06008KT 030V100 CAVOK 10/02 Q1025=
202306092220 METAR ESMX 092220Z 04007KT 340V070 CAVOK 11/02 Q1025=
202306092150 METAR ESMX 092150Z AUTO 03008KT 360V080 9999 NCD 12/01 Q1025=
202306092120 METAR ESMX 092120Z AUTO 05008KT 020V080 9999 NCD 12/01 Q1025=
202306092050 METAR ESMX 092050Z AUTO 06007KT 9999 NCD 13/02 Q1025=
202306092020 METAR ESMX 092020Z AUTO 06006KT 020V110 9999 NCD 13/02 Q1025=
202306091950 METAR ESMX 091950Z AUTO VRB06KT 9999 NCD 14/02 Q1025=
202306091920 METAR ESMX 091920Z AUTO 08005KT 030V120 9999 NCD 14/02 Q1024=
202306091850 METAR ESMX 091850Z AUTO 07007KT 030V110 9999 NCD 15/01 Q1024=
202306091820 METAR ESMX 091820Z AUTO 07008KT 040V120 9999 NCD 16/01 Q1024=
202306091750 METAR ESMX 091750Z AUTO 07007KT 020V120 9999 NCD 16/01 Q1024=
202306091720 METAR ESMX 091720Z AUTO 07006KT 020V110 9999 NCD 17/01 Q1023=
202306091650 METAR ESMX 091650Z AUTO 06008KT 360V120 9999 NCD 18/01 Q1023=
202306091620 METAR ESMX 091620Z AUTO 07007KT 020V130 9999 NCD 18/03 Q1023=
202306091550 METAR ESMX 091550Z AUTO 07008KT 020V120 9999 NCD 19/04 Q1023=
202306091520 METAR ESMX 091520Z AUTO VRB08KT 9999 NCD 19/05 Q1023=
202306091450 METAR ESMX 091450Z 06009KT 020V110 CAVOK 19/05 Q1023=
202306091420 METAR ESMX 091420Z 06008KT 020V150 CAVOK 20/05 Q1023=
202306091350 METAR ESMX 091350Z 06010KT 030V090 CAVOK 20/05 Q1023=
202306091320 METAR ESMX 091320Z 07009KT 030V120 CAVOK 20/05 Q1023=
202306091250 METAR ESMX 091250Z 05011KT 020V100 CAVOK 20/04 Q1023=
202306091220 METAR ESMX 091220Z 06010KT 030V120 CAVOK 20/04 Q1023=
202306091150 METAR ESMX 091150Z 09008KT 030V140 CAVOK 19/03 Q1023=
202306091120 METAR ESMX 091120Z 08011KT 040V100 CAVOK 19/03 Q1023=
202306091050 METAR ESMX 091050Z 04009KT 360V090 CAVOK 19/04 Q1023=
202306091020 METAR ESMX 091020Z 05011KT 020V090 CAVOK 19/04 Q1023=
202306090950 METAR ESMX 090950Z 06010KT 030V100 CAVOK 19/04 Q1023=
202306090920 METAR ESMX 090920Z 04010KT 350V080 CAVOK 18/04 Q1023=
202306090850 METAR ESMX 090850Z 04011KT 020V080 CAVOK 17/03 Q1023=
202306090820 METAR ESMX 090820Z 04010KT CAVOK 17/04 Q1023=
202306090750 METAR ESMX 090750Z 06010KT 020V110 CAVOK 16/04 Q1023=
202306090720 METAR ESMX 090720Z 06010KT 020V100 CAVOK 15/03 Q1022=
202306090650 METAR ESMX 090650Z 06009KT 030V100 CAVOK 15/04 Q1022=
202306090620 METAR ESMX 090620Z 05010KT 020V100 CAVOK 14/03 Q1022=
202306090550 METAR ESMX 090550Z 06008KT 020V100 CAVOK 12/03 Q1022=
202306090520 METAR ESMX 090520Z 05009KT 020V090 CAVOK 12/04 Q1022=
202306090450 METAR ESMX 090450Z 06009KT 020V100 CAVOK 12/04 Q1022=
202306090420 METAR ESMX 090420Z 06008KT 020V110 CAVOK 11/04 Q1022=
202306090350 METAR ESMX 090350Z AUTO 06008KT 030V110 9999 SCT096/// 11/04 Q1022=
202306090320 METAR ESMX 090320Z AUTO 06006KT 340V100 9999 FEW094/// 10/04 Q1021=
202306090250 METAR ESMX 090250Z AUTO 06007KT 030V100 9999 NCD 10/04 Q1021=
202306090220 METAR ESMX 090220Z AUTO 05008KT 340V100 9999 NCD 10/05 Q1021=
202306090150 METAR ESMX 090150Z AUTO 06008KT 9999 NCD 10/05 Q1021=
202306090120 METAR ESMX 090120Z AUTO 05008KT 010V090 9999 NCD 11/06 Q1021=
202306090050 METAR ESMX 090050Z AUTO 06008KT 030V100 9999 NCD 11/07 Q1020=
202306090020 METAR ESMX 090020Z AUTO 05008KT 350V080 9999 FEW017/// 11/08 Q1020=
202306082350 METAR ESMX 082350Z 05008KT 010V100 9999 BKN016 12/08 Q1020=
202306082320 METAR ESMX 082320Z 07008KT 030V100 9999 BKN016 12/08 Q1020=
202306082250 METAR ESMX 082250Z 06010KT 020V110 9999 BKN015 12/09 Q1020=
202306082220 METAR ESMX 082220Z 06011KT 030V100 9999 BKN015 12/10 Q1020=
202306082150 METAR ESMX 082150Z 06011KT 030V110 9999 BKN014 13/10 Q1019=
202306082120 METAR ESMX 082120Z 06010KT 030V090 CAVOK 13/10 Q1019=
202306082050 METAR ESMX 082050Z 06012KT 030V100 CAVOK 14/10 Q1018=
202306082020 METAR ESMX 082020Z 05013KT CAVOK 16/11 Q1018=
202306081950 METAR ESMX 081950Z 03013KT CAVOK 18/12 Q1017=
202306081920 METAR ESMX 081920Z AUTO 02011KT 9999 NCD 21/11 Q1016=
202306081850 METAR ESMX 081850Z AUTO 19007KT 9999 NCD 23/09 Q1015=
202306081820 METAR ESMX 081820Z AUTO 33002KT 9999 NCD 25/07 Q1015=
202306081750 METAR ESMX 081750Z VRB03KT CAVOK 26/05 Q1015=
202306081720 METAR ESMX 081720Z VRB02KT CAVOK 26/04 Q1015=
202306081650 METAR ESMX 081650Z VRB02KT CAVOK 26/04 Q1015=
202306081620 METAR ESMX 081620Z VRB03KT CAVOK 27/05 Q1015=
202306081550 METAR ESMX 081550Z 22004KT 220V280 CAVOK 27/03 Q1015=
202306081520 METAR ESMX 081520Z 15005KT 120V210 CAVOK 27/03 Q1015=
202306081450 METAR ESMX 081450Z VRB03KT CAVOK 27/03 Q1016=
202306081420 METAR ESMX 081420Z 26004KT 220V340 CAVOK 27/03 Q1016=
202306081350 METAR ESMX 081350Z 24004KT 190V320 CAVOK 27/03 Q1016=
202306081320 METAR ESMX 081320Z 20008KT 170V230 CAVOK 27/04 Q1016=
202306081250 METAR ESMX 081250Z 17004KT 080V250 CAVOK 26/07 Q1016=
202306081220 METAR ESMX 081220Z 21007KT 190V250 CAVOK 26/07 Q1016=
202306081150 METAR ESMX 081150Z 23006KT 210V310 CAVOK 25/05 Q1016=
202306081120 METAR ESMX 081120Z 23005KT 200V280 CAVOK 25/07 Q1017=
202306081050 METAR ESMX 081050Z 22007KT CAVOK 25/09 Q1017=
202306081020 METAR ESMX 081020Z 18008KT 150V240 CAVOK 24/08 Q1017=
202306080950 METAR ESMX 080950Z AUTO 21005KT 9999 NCD 24/08 Q1017=
202306080920 METAR ESMX 080920Z AUTO VRB03KT 9999 NCD 24/09 Q1017=
202306080850 METAR ESMX 080850Z 26005KT 220V320 CAVOK 23/09 Q1017=
202306080820 METAR ESMX 080820Z 22005KT CAVOK 22/08 Q1018=
202306080750 METAR ESMX 080750Z 24004KT 220V310 CAVOK 22/08 Q1018=
202306080720 METAR ESMX 080720Z 28003KT 220V330 CAVOK 21/09 Q1018=
202306080650 METAR ESMX 080650Z 30004KT 250V340 CAVOK 20/08 Q1018=
202306080620 METAR ESMX 080620Z 17003KT CAVOK 19/09 Q1018=
202306080550 METAR ESMX 080550Z VRB02KT CAVOK 17/09 Q1018=
202306080520 METAR ESMX 080520Z 00000KT CAVOK 17/10 Q1018=
202306080450 METAR ESMX 080450Z 22002KT CAVOK 16/11 Q1018=
202306080420 METAR ESMX 080420Z 00000KT CAVOK 15/10 Q1018=
202306080350 METAR ESMX 080350Z 00000KT CAVOK 09/08 Q1018=
202306080320 METAR ESMX 080320Z AUTO 00000KT 9999 NCD 08/07 Q1018=
202306080250 METAR ESMX 080250Z AUTO 17002KT 9999 NCD 08/07 Q1018=
202306080220 METAR ESMX 080220Z AUTO 17003KT 9999 NCD 09/07 Q1018=
202306080150 METAR ESMX 080150Z AUTO 20001KT 9999 NCD 09/07 Q1018=
202306080120 METAR ESMX 080120Z AUTO 17002KT 9999 NCD 09/07 Q1018=
202306080050 METAR ESMX 080050Z AUTO 17002KT 9999 NCD 10/07 Q1018=
202306080020 METAR ESMX 080020Z AUTO 20003KT 9999 NCD 11/07 Q1018=
202306072350 METAR ESMX 072350Z 17003KT CAVOK 12/07 Q1018=
202306072320 METAR ESMX 072320Z 18002KT CAVOK 13/07 Q1018=
202306072250 METAR ESMX 072250Z 17005KT CAVOK 14/07 Q1018=
202306072220 METAR ESMX 072220Z 19006KT CAVOK 15/07 Q1018=
202306072150 METAR ESMX 072150Z 18005KT CAVOK 17/07 Q1018=
202306072120 METAR ESMX 072120Z 19006KT CAVOK 16/06 Q1018=
202306072050 METAR ESMX 072050Z 16007KT CAVOK 20/06 Q1018=
202306072020 METAR ESMX 072020Z 15008KT CAVOK 20/05 Q1018=
202306071950 METAR ESMX 071950Z 21006KT CAVOK 21/05 Q1018=
202306071920 METAR ESMX 071920Z AUTO 18011KT 9999 NCD 21/04 Q1018=
202306071850 METAR ESMX 071850Z AUTO 15006KT 9999 FEW090/// 24/05 Q1017=
202306071820 METAR ESMX 071820Z AUTO 05004KT 010V120 9999 OVC088/// 25/07 Q1017=
202306071750 METAR ESMX 071750Z AUTO 11004KT 050V170 9999 OVC084/// 25/09 Q1017=
202306071720 METAR ESMX 071720Z 10005KT 050V140 CAVOK 26/05 Q1017=
202306071650 METAR ESMX 071650Z 17004KT 100V240 CAVOK 26/05 Q1017=
202306071620 METAR ESMX 071620Z 21004KT CAVOK 26/06 Q1017=
202306071550 METAR ESMX 071550Z 26004KT 230V350 CAVOK 26/06 Q1018=
202306071520 METAR ESMX 071520Z AUTO 20005KT 150V230 9999 NCD 26/06 Q1018=
202306071450 METAR ESMX 071450Z AUTO 16005KT 150V240 9999 NCD 27/06 Q1018=
202306071420 METAR ESMX 071420Z AUTO 17005KT 120V210 9999 NCD 26/06 Q1018=
202306071350 METAR ESMX 071350Z AUTO 17007KT 100V240 9999 NCD 26/06 Q1018=
202306071320 METAR ESMX 071320Z AUTO 16008KT 9999 FEW078/// 26/05 Q1019=
202306071250 METAR ESMX 071250Z AUTO 15005KT 070V210 9999 NCD 25/07 Q1019=
202306071220 METAR ESMX 071220Z AUTO 19005KT 9999 NCD 26/07 Q1019=
202306071150 METAR ESMX 071150Z AUTO 19005KT 120V250 9999 NCD 25/05 Q1019=
202306071120 METAR ESMX 071120Z AUTO 17006KT 120V210 9999 NCD 25/06 Q1019=
202306071050 METAR ESMX 071050Z 22004KT 190V270 CAVOK 25/07 Q1019=
202306071020 METAR ESMX 071020Z 17005KT CAVOK 25/07 Q1019=
202306070950 METAR ESMX 070950Z VRB04KT CAVOK 24/08 Q1020=
202306070920 METAR ESMX 070920Z 13003KT 050V160 CAVOK 23/08 Q1020=
202306070850 METAR ESMX 070850Z 23005KT 190V260 CAVOK 23/08 Q1020=
202306070820 METAR ESMX 070820Z 18005KT 130V260 CAVOK 23/08 Q1020=
202306070750 METAR ESMX 070750Z AUTO 19005KT 140V260 9999 NCD 22/07 Q1020=
202306070720 METAR ESMX 070720Z AUTO 21003KT 9999 NCD 21/09 Q1020=
202306070650 METAR ESMX 070650Z VRB03KT CAVOK 20/10 Q1020=
202306070620 METAR ESMX 070620Z 03004KT CAVOK 18/10 Q1019=
202306070550 METAR COR ESMX 070550Z 05003KT 010V090 CAVOK 18/09 Q1019=
202306070520 METAR ESMX 070520Z AUTO VRB01KT 9999 NCD 17/10 Q1019=
202306070450 METAR ESMX 070450Z AUTO 00000KT 9999 NCD 16/09 Q1019=
202306070420 METAR ESMX 070420Z 00000KT CAVOK 13/09 Q1019=
202306070350 METAR COR ESMX 070350Z 28002KT CAVOK 10/08 Q1019=
202306070320 METAR ESMX 070320Z AUTO 00000KT 9999 NCD 08/06 Q1019=
202306070250 METAR ESMX 070250Z AUTO 00000KT 9999 NCD 07/06 Q1019=
202306070220 METAR ESMX 070220Z AUTO 28002KT 9999 NCD 08/06 Q1019=
202306070150 METAR ESMX 070150Z AUTO 00000KT 9999 NCD 09/07 Q1019=
202306070120 METAR ESMX 070120Z AUTO 00000KT 9999 NCD 08/06 Q1019=
202306070050 METAR ESMX 070050Z AUTO 00000KT 9999 NCD 09/07 Q1019=
202306070020 METAR ESMX 070020Z AUTO 26004KT 9999 NCD 10/07 Q1019=
202306062350 METAR ESMX 062350Z AUTO 26003KT 9999 NCD 11/07 Q1019=
202306062320 METAR ESMX 062320Z AUTO 18003KT 9999 NCD 11/07 Q1019=
202306062250 METAR ESMX 062250Z AUTO 00000KT 9999 NCD 11/06 Q1019=
202306062220 METAR ESMX 062220Z AUTO 34002KT 9999 NCD 14/07 Q1019=
202306062150 METAR ESMX 062150Z AUTO 25003KT 9999 NCD 14/07 Q1019=
202306062120 METAR ESMX 062120Z AUTO 25004KT 220V280 9999 NCD 16/07 Q1019=
202306062050 METAR ESMX 062050Z 24005KT CAVOK 17/07 Q1019=
202306062020 METAR ESMX 062020Z 24004KT CAVOK 17/08 Q1019=
202306061950 METAR ESMX 061950Z 25004KT CAVOK 19/08 Q1018=
202306061920 METAR ESMX 061920Z 26005KT CAVOK 20/08 Q1018=
202306061850 METAR ESMX 061850Z 28006KT CAVOK 21/08 Q1018=
202306061820 METAR ESMX 061820Z 31007KT CAVOK 22/08 Q1018=
202306061750 METAR ESMX 061750Z 30007KT 260V330 CAVOK 23/08 Q1018=
202306061720 METAR ESMX 061720Z 28007KT 240V300 CAVOK 23/09 Q1017=
202306061650 METAR ESMX 061650Z 26006KT 220V310 CAVOK 24/08 Q1017=
202306061620 METAR ESMX 061620Z 28006KT 220V330 CAVOK 25/07 Q1017=
202306061550 METAR ESMX 061550Z 25004KT 220V280 CAVOK 23/08 Q1017=
202306061520 METAR ESMX 061520Z 25005KT 140V290 CAVOK 25/05 Q1017=
202306061450 METAR ESMX 061450Z 21009KT 180V240 CAVOK 25/07 Q1018=
202306061420 METAR ESMX 061420Z VRB06KT CAVOK 25/07 Q1018=
202306061350 METAR ESMX 061350Z 26006KT 210V320 CAVOK 25/07 Q1018=
202306061320 METAR ESMX 061320Z AUTO 20005KT 150V240 9999 NCD 24/06 Q1018=
202306061250 METAR ESMX 061250Z AUTO 25007KT 220V300 9999 NCD 24/07 Q1019=
202306061220 METAR COR ESMX 061220Z 27007KT 210V320 CAVOK 24/08 Q1019=
202306061150 METAR ESMX 061150Z 22008KT 180V250 CAVOK 24/08 Q1019=
202306061120 METAR ESMX 061120Z 20009KT 170V230 CAVOK 24/08 Q1019=
202306061050 METAR ESMX 061050Z 21007KT 120V270 CAVOK 23/07 Q1019=
202306061020 METAR ESMX 061020Z 22009KT 190V260 CAVOK 23/08 Q1019=
202306060950 METAR ESMX 060950Z 25006KT 210V310 CAVOK 22/08 Q1019=
202306060920 METAR ESMX 060920Z 21006KT 180V240 CAVOK 22/08 Q1020=
202306060850 METAR ESMX 060850Z 27008KT 240V300 CAVOK 21/08 Q1020=
202306060820 METAR ESMX 060820Z 23005KT 190V260 CAVOK 21/08 Q1020=
202306060750 METAR ESMX 060750Z 25004KT 210V310 CAVOK 20/06 Q1020=
202306060720 METAR ESMX 060720Z AUTO 22005KT 9999 NCD 20/05 Q1020=
202306060650 METAR ESMX 060650Z 20003KT CAVOK 19/08 Q1020=
202306060620 METAR ESMX 060620Z AUTO VRB03KT 9999 NCD 19/09 Q1020=
202306060550 METAR ESMX 060550Z 20003KT CAVOK 17/09 Q1020=
202306060520 METAR ESMX 060520Z AUTO 20002KT 9999 NCD 15/09 Q1020=
202306060450 METAR ESMX 060450Z 20001KT CAVOK 14/09 Q1020=
202306060420 METAR ESMX 060420Z 00000KT CAVOK 12/09 Q1020=
202306060350 METAR ESMX 060350Z 00000KT CAVOK 08/07 Q1020=
202306060320 METAR ESMX 060320Z AUTO 00000KT 9999 NCD 07/06 Q1020=
202306060250 METAR ESMX 060250Z AUTO 18001KT 9999 NCD 07/06 Q1020=
202306060220 METAR ESMX 060220Z AUTO 19002KT 9999 NCD 07/06 Q1020=
202306060150 METAR ESMX 060150Z AUTO 17001KT 9999 NCD 07/06 Q1020=
202306060120 METAR ESMX 060120Z AUTO 18002KT 9999 NCD 08/06 Q1020=
202306060050 METAR ESMX 060050Z AUTO 18001KT 9999 NCD 09/06 Q1020=
202306060020 METAR ESMX 060020Z AUTO 20002KT 9999 NCD 09/07 Q1020=
202306052350 METAR ESMX 052350Z AUTO 18001KT 9999 NCD 10/07 Q1020=
202306052320 METAR ESMX 052320Z AUTO 20002KT 9999 NCD 10/07 Q1020=
202306052250 METAR ESMX 052250Z AUTO 20003KT 9999 NCD 12/08 Q1020=
202306052220 METAR ESMX 052220Z AUTO 20004KT 9999 NCD 13/08 Q1020=
202306052150 METAR ESMX 052150Z AUTO 20005KT 9999 NCD 13/08 Q1020=
202306052120 METAR ESMX 052120Z AUTO 20004KT 9999 NCD 14/08 Q1020=
202306052050 METAR ESMX 052050Z AUTO 20005KT 9999 NCD 15/08 Q1020=
202306052020 METAR ESMX 052020Z AUTO 20006KT 9999 BKN074/// 16/08 Q1020=
202306051950 METAR ESMX 051950Z AUTO 18008KT 9999 SCT078/// 18/08 Q1020=
202306051920 METAR ESMX 051920Z AUTO 20008KT 9999 FEW076/// 19/08 Q1019=
202306051850 METAR ESMX 051850Z AUTO 20009KT 9999 BKN080/// 20/08 Q1019=
202306051820 METAR ESMX 051820Z AUTO 22007KT 9999 BKN086/// 22/07 Q1019=
202306051750 METAR ESMX 051750Z 17008KT CAVOK 22/09 Q1019=
202306051720 METAR ESMX 051720Z 19007KT CAVOK 22/08 Q1019=
202306051650 METAR ESMX 051650Z 23004KT 220V280 CAVOK 24/06 Q1019=
202306051620 METAR ESMX 051620Z 32005KT 270V010 CAVOK 22/05 Q1019=
202306051550 METAR ESMX 051550Z 21005KT 180V240 CAVOK 23/04 Q1019=
202306051520 METAR ESMX 051520Z 25004KT 220V310 CAVOK 24/05 Q1020=
202306051450 METAR ESMX 051450Z 22007G18KT 170V280 CAVOK 24/05 Q1020=
202306051420 METAR ESMX 051420Z 24008KT 190V280 CAVOK 24/04 Q1020=
202306051350 METAR ESMX 051350Z 24005KT 200V280 CAVOK 24/05 Q1020=
202306051320 METAR ESMX 051320Z 27006KT 210V340 CAVOK 23/05 Q1020=
202306051250 METAR ESMX 051250Z 32004KT 260V020 CAVOK 23/04 Q1021=
202306051220 METAR ESMX 051220Z AUTO VRB04KT 9999 FEW190/// 24/04 Q1021=
202306051150 METAR ESMX 051150Z AUTO 24003KT 220V320 9999 NCD 23/04 Q1021=
202306051120 METAR ESMX 051120Z AUTO 27006KT 160V310 9999 NCD 23/05 Q1021=
202306051050 METAR ESMX 051050Z AUTO 00000KT 9999 NCD 22/05 Q1021=
202306051020 METAR ESMX 051020Z AUTO VRB04KT 9999 NCD 22/04 Q1022=
202306050950 METAR ESMX 050950Z 01005KT 300V070 CAVOK 21/05 Q1022=
202306050920 METAR ESMX 050920Z 36005KT 280V060 CAVOK 21/06 Q1022=
202306050850 METAR ESMX 050850Z 36004KT 240V050 CAVOK 20/06 Q1022=
202306050820 METAR ESMX 050820Z VRB03KT CAVOK 20/07 Q1022=
202306050750 METAR ESMX 050750Z 26004KT 230V320 CAVOK 19/08 Q1022=
202306050720 METAR ESMX 050720Z 01003KT 300V060 CAVOK 18/07 Q1022=
202306050650 METAR ESMX 050650Z 30004KT 260V340 CAVOK 16/07 Q1022=
202306050620 METAR ESMX 050620Z 32003KT 260V020 CAVOK 15/10 Q1022=
202306050550 METAR ESMX 050550Z VRB02KT CAVOK 14/10 Q1022=
202306050520 METAR ESMX 050520Z 02003KT CAVOK 14/11 Q1022=
202306050450 METAR ESMX 050450Z 00000KT CAVOK 13/10 Q1022=
202306050420 METAR ESMX 050420Z VRB02KT CAVOK 10/09 Q1022=
202306050350 METAR ESMX 050350Z 35001KT CAVOK 07/07 Q1022=
202306050320 METAR ESMX 050320Z AUTO 00000KT 9999 NCD 06/06 Q1022=
202306050250 METAR ESMX 050250Z AUTO 00000KT 9999 NCD 05/05 Q1022=
202306050220 METAR ESMX 050220Z AUTO 18001KT 9999 NCD 05/05 Q1022=
202306050150 METAR ESMX 050150Z AUTO 00000KT 9999 NCD 05/05 Q1022=
202306050120 METAR ESMX 050120Z AUTO 00000KT 9999 // NCD 06/06 Q1022=
202306050050 METAR ESMX 050050Z AUTO 00000KT 9999 NCD 07/07 Q1022=
202306050020 METAR ESMX 050020Z AUTO VRB01KT 9999 NCD 08/07 Q1022=
202306042350 METAR ESMX 042350Z AUTO VRB02KT 9999 NCD 09/08 Q1022=
202306042320 METAR ESMX 042320Z AUTO 08004KT 9999 NCD 11/09 Q1022=
202306042250 METAR ESMX 042250Z AUTO 06002KT 9999 NCD 11/09 Q1022=
202306042220 METAR ESMX 042220Z AUTO VRB03KT 9999 NCD 13/09 Q1022=
202306042150 METAR ESMX 042150Z AUTO 04004KT 020V080 9999 NCD 14/09 Q1022=
202306042120 METAR ESMX 042120Z AUTO 04006KT 020V080 9999 NCD 15/09 Q1022=
202306042050 METAR ESMX 042050Z AUTO 05006KT 9999 NCD 16/09 Q1021=
202306042020 METAR ESMX 042020Z AUTO 03004KT 320V060 9999 NCD 16/10 Q1021=
202306041950 METAR ESMX 041950Z AUTO 28005KT 250V310 9999 NCD 17/11 Q1021=
202306041920 METAR ESMX 041920Z AUTO 29007KT 9999 FEW072/// 18/11 Q1020=
202306041850 METAR ESMX 041850Z AUTO 24004KT 9999 OVC072/// 19/08 Q1020=
202306041820 METAR ESMX 041820Z AUTO 22004KT 9999 OVC076/// 20/08 Q1020=
202306041750 METAR ESMX 041750Z AUTO 23003KT 9999 FEW082/// 21/08 Q1020=
202306041720 METAR ESMX 041720Z 26004KT CAVOK 20/08 Q1020=
202306041650 METAR ESMX 041650Z 27005KT 240V330 CAVOK 21/07 Q1020=
202306041620 METAR ESMX 041620Z 27007KT CAVOK 23/07 Q1020=
202306041550 METAR ESMX 041550Z 28004KT 240V320 CAVOK 21/07 Q1020=
202306041520 METAR ESMX 041520Z 25005KT 190V310 CAVOK 22/06 Q1020=
202306041450 METAR ESMX 041450Z VRB03KT CAVOK 22/07 Q1020=
202306041420 METAR ESMX 041420Z VRB02KT CAVOK 21/06 Q1020=
202306041350 METAR ESMX 041350Z 27004KT 200V320 CAVOK 20/06 Q1020=
202306041320 METAR ESMX 041320Z VRB03KT CAVOK 21/07 Q1020=
202306041250 METAR ESMX 041250Z VRB03KT CAVOK 20/07 Q1020=
202306041220 METAR ESMX 041220Z AUTO 27005KT 240V300 9999 NCD 20/07 Q1020=
202306041150 METAR ESMX 041150Z VRB03KT CAVOK 19/07 Q1020=
202306041120 METAR ESMX 041120Z 23005KT 9999 SCT049 20/07 Q1020=
202306041050 METAR ESMX 041050Z 23004G17KT 220V300 9999 SCT049 20/06 Q1020=
202306041020 METAR ESMX 041020Z VRB04KT 9999 SCT047 18/06 Q1020=
202306040950 METAR ESMX 040950Z VRB03KT 9999 FEW045 18/06 Q1020=
202306040920 METAR ESMX 040920Z AUTO 28004G20KT 250V360 9999 FEW042/// 17/07 Q1020=
202306040850 METAR ESMX 040850Z AUTO 27004KT 220V030 9999 SCT042/// 17/06 Q1021=
202306040820 METAR ESMX 040820Z AUTO VRB03KT 9999 FEW040/// 16/06 Q1020=
202306040750 METAR ESMX 040750Z AUTO 30003KT 230V360 9999 NCD 16/08 Q1020=
202306040720 METAR ESMX 040720Z AUTO 31004KT 280V010 9999 NCD 16/09 Q1020=
202306040650 METAR ESMX 040650Z AUTO 23005KT 9999 NCD 14/09 Q1020=
202306040620 METAR ESMX 040620Z AUTO 29005KT 260V320 9999 NCD 14/09 Q1020=
202306040550 METAR ESMX 040550Z AUTO 22003KT 9999 NCD 13/08 Q1020=
202306040520 METAR ESMX 040520Z AUTO VRB03KT 9999 NCD 11/07 Q1020=
202306040450 METAR ESMX 040450Z AUTO 22004KT 9999 NCD 10/07 Q1020=
202306040420 METAR ESMX 040420Z AUTO 22003KT 9999 NCD 09/07 Q1020=
202306040350 METAR ESMX 040350Z AUTO 22004KT 9999 NCD 07/06 Q1020=
202306040320 METAR ESMX 040320Z AUTO 22004KT 9999 NCD 07/05 Q1020=
202306040250 METAR ESMX 040250Z AUTO 22005KT 9999 NCD 07/05 Q1020=
202306040220 METAR ESMX 040220Z AUTO 22005KT 9999 NCD 08/05 Q1020=
202306040150 METAR ESMX 040150Z AUTO 22005KT 9999 NCD 07/04 Q1020=
202306040120 METAR ESMX 040120Z AUTO 22005KT 9999 NCD 08/04 Q1020=
202306040050 METAR ESMX 040050Z AUTO 23004KT 9999 NCD 08/04 Q1020=
202306040020 METAR ESMX 040020Z AUTO 22005KT 9999 NCD 08/03 Q1021=
202306032350 METAR ESMX 032350Z AUTO 22005KT 9999 NCD 09/03 Q1021=
202306032320 METAR ESMX 032320Z AUTO 22005KT 9999 NCD 09/03 Q1021=
202306032250 METAR ESMX 032250Z AUTO 22003KT 9999 NCD 10/03 Q1021=
202306032220 METAR ESMX 032220Z AUTO 23004KT 9999 NCD 10/03 Q1021=
202306032150 METAR ESMX 032150Z AUTO 22004KT 9999 NCD 10/03 Q1021=
202306032120 METAR ESMX 032120Z AUTO 22005KT 9999 NCD 11/02 Q1021=
202306032050 METAR ESMX 032050Z AUTO 25004KT 9999 NCD 12/03 Q1020=
202306032020 METAR ESMX 032020Z AUTO 25005KT 9999 NCD 13/03 Q1020=
202306031950 METAR ESMX 031950Z AUTO 25006KT 9999 NCD 14/03 Q1020=
202306031920 METAR ESMX 031920Z AUTO 26007KT 9999 NCD 15/04 Q1020=
202306031850 METAR ESMX 031850Z AUTO 22006KT 9999 FEW074/// 16/05 Q1020=
202306031820 METAR ESMX 031820Z AUTO 22008KT 190V250 9999 OVC072/// 18/04 Q1020=
202306031750 METAR ESMX 031750Z AUTO 25007KT 220V280 9999 BKN078/// 18/03 Q1020=
202306031720 METAR ESMX 031720Z AUTO 22006KT 200V260 9999 BKN078/// 17/02 Q1020=
202306031650 METAR ESMX 031650Z AUTO 25007KT 210V280 9999 SCT078/// 18/01 Q1020=
202306031620 METAR ESMX 031620Z AUTO 23007KT 170V280 9999 BKN078/// 19/01 Q1020=
202306031550 METAR ESMX 031550Z 24007KT 210V300 CAVOK 20/01 Q1021=
202306031520 METAR ESMX 031520Z 23007KT 170V270 CAVOK 19/M00 Q1021=
202306031450 METAR ESMX 031450Z 23007KT 210V270 CAVOK 20/01 Q1021=
202306031420 METAR ESMX 031420Z 21006KT 150V240 CAVOK 20/M00 Q1021=
202306031350 METAR ESMX 031350Z 22008KT 180V270 CAVOK 20/00 Q1021=
202306031320 METAR ESMX 031320Z 30004KT 220V010 CAVOK 20/01 Q1022=
202306031250 METAR ESMX 031250Z 22006KT 150V260 CAVOK 19/M00 Q1022=
202306031220 METAR ESMX 031220Z 25005KT 210V360 CAVOK 19/00 Q1022=
202306031150 METAR ESMX 031150Z AUTO 21007KT 140V300 9999 BKN072/// 18/M00 Q1022=
202306031120 METAR ESMX 031120Z AUTO 26007KT 210V320 9999 SCT110/// 19/01 Q1023=
202306031050 METAR ESMX 031050Z VRB04G15KT CAVOK 17/00 Q1023=
202306031020 METAR ESMX 031020Z 28005KT 220V010 CAVOK 17/M00 Q1023=
202306030950 METAR ESMX 030950Z 29005KT 240V340 CAVOK 16/01 Q1023=
202306030920 METAR ESMX 030920Z VRB03KT CAVOK 16/01 Q1023=
202306030850 METAR ESMX 030850Z 32004KT 250V020 CAVOK 15/03 Q1024=
202306030820 METAR ESMX 030820Z 29003KT 230V350 CAVOK 14/03 Q1024=
202306030750 METAR ESMX 030750Z 36004KT 300V050 CAVOK 14/03 Q1024=
202306030720 METAR ESMX 030720Z 28004KT 250V330 CAVOK 14/02 Q1024=
202306030650 METAR ESMX 030650Z AUTO VRB03KT 9999 BKN120/// 13/02 Q1024=
202306030620 METAR ESMX 030620Z AUTO VRB02KT 9999 BKN110/// 13/03 Q1024=
202306030550 METAR ESMX 030550Z AUTO 19002KT 9999 NCD 11/05 Q1024=
202306030520 METAR ESMX 030520Z AUTO VRB02KT 9999 NCD 09/07 Q1024=
202306030450 METAR ESMX 030450Z AUTO 00000KT 9999 NCD 08/07 Q1024=
202306030420 METAR ESMX 030420Z AUTO 00000KT 9999 FEW110/// 07/07 Q1024=
202306030350 METAR ESMX 030350Z AUTO 00000KT 9999 FEW110/// 03/03 Q1024=
202306030320 METAR ESMX 030320Z AUTO 19002KT 9999 NCD 02/02 Q1024=
202306030250 METAR ESMX 030250Z AUTO 19004KT 9999 NCD 01/01 Q1023=
202306030220 METAR ESMX 030220Z AUTO 00000KT 2700 NCD 01/01 Q1023=
202306030150 METAR ESMX 030150Z AUTO 00000KT 2500 NCD 01/01 Q1023=
202306030120 METAR ESMX 030120Z AUTO 00000KT 9999 NCD 02/02 Q1023=
202306030050 METAR ESMX 030050Z AUTO 00000KT 9999 NCD 04/04 Q1023=
202306030020 METAR ESMX 030020Z AUTO 18004KT 9999 NCD 04/04 Q1023=
202306022350 METAR ESMX 022350Z AUTO 19004KT 9999 NCD 05/05 Q1023=
202306022320 METAR ESMX 022320Z AUTO 18005KT 9999 NCD 06/05 Q1023=
202306022250 METAR ESMX 022250Z AUTO 18007KT 9999 NCD 07/05 Q1024=
202306022220 METAR ESMX 022220Z AUTO 17007KT 9999 NCD 08/06 Q1023=
202306022150 METAR ESMX 022150Z AUTO 17006KT 9999 NCD 08/06 Q1024=
202306022120 METAR ESMX 022120Z AUTO 19005KT 9999 SCT066/// 09/06 Q1024=
202306022050 METAR ESMX 022050Z AUTO 18008KT 9999 OVC066/// 10/06 Q1023=
202306022020 METAR ESMX 022020Z AUTO 19007KT 9999 SCT066/// 09/04 Q1023=
202306021950 METAR ESMX 021950Z AUTO 00000KT 9999 NCD 08/01 Q1023=
202306021920 METAR ESMX 021920Z AUTO 35003KT 9999 NCD 11/00 Q1023=
202306021850 METAR ESMX 021850Z AUTO 36004KT 9999 NCD 13/M01 Q1023=
202306021820 METAR ESMX 021820Z AUTO 34004KT 9999 NCD 14/M01 Q1022=
202306021750 METAR ESMX 021750Z AUTO 03005KT 360V080 9999 NCD 14/M01 Q1022=
202306021720 METAR ESMX 021720Z AUTO 01005KT 9999 FEW070/// 15/M02 Q1022=
202306021650 METAR ESMX 021650Z 35005KT 280V030 CAVOK 15/M02 Q1022=
202306021620 METAR ESMX 021620Z 33006KT 290V010 CAVOK 15/M02 Q1022=
202306021550 METAR ESMX 021550Z 32006KT 270V010 CAVOK 15/M02 Q1022=
202306021520 METAR ESMX 021520Z 36007KT 310V050 CAVOK 15/M01 Q1022=
202306021450 METAR ESMX 021450Z 35008KT 320V020 CAVOK 16/M02 Q1022=
202306021420 METAR ESMX 021420Z 36008KT 320V030 CAVOK 15/M02 Q1022=
202306021350 METAR ESMX 021350Z 31006KT 260V010 CAVOK 14/M02 Q1022=
202306021320 METAR ESMX 021320Z 33009KT 300V360 CAVOK 14/M02 Q1022=
202306021250 METAR ESMX 021250Z 35009KT CAVOK 15/M01 Q1022=
202306021220 METAR ESMX 021220Z 33008KT 300V360 CAVOK 15/M02 Q1022=
202306021150 METAR ESMX 021150Z 34007KT 300V020 CAVOK 14/M01 Q1022=
202306021120 METAR ESMX 021120Z 36008KT CAVOK 14/M01 Q1022=
202306021050 METAR ESMX 021050Z 35007KT 320V030 CAVOK 14/M02 Q1022=
202306021020 METAR ESMX 021020Z 36008KT CAVOK 13/M01 Q1022=
202306020950 METAR ESMX 020950Z 36009KT CAVOK 12/M01 Q1022=
202306020920 METAR ESMX 020920Z 34009KT 280V010 CAVOK 12/M01 Q1022=
202306020850 METAR ESMX 020850Z 34010KT 310V030 CAVOK 13/M01 Q1022=
202306020820 METAR ESMX 020820Z 02011KT 310V040 CAVOK 13/M01 Q1022=
202306020750 METAR ESMX 020750Z 01008KT 330V030 CAVOK 12/M01 Q1022=
202306020720 METAR ESMX 020720Z 36009KT CAVOK 11/M01 Q1022=
202306020650 METAR ESMX 020650Z 36009KT 330V030 CAVOK 11/M00 Q1021=
202306020620 METAR ESMX 020620Z 01009KT CAVOK 10/M01 Q1021=
202306020550 METAR ESMX 020550Z 01010KT CAVOK 10/M01 Q1021=
202306020520 METAR ESMX 020520Z AUTO 03011KT 350V050 9999 NCD 09/M00 Q1021=
202306020450 METAR ESMX 020450Z AUTO 36012KT 9999 NCD 09/M00 Q1021=
202306020420 METAR ESMX 020420Z 35011KT CAVOK 08/01 Q1021=
202306020350 METAR ESMX 020350Z 34008KT CAVOK 07/03 Q1020=
202306020320 METAR ESMX 020320Z AUTO VRB03KT 9999 NCD 04/03 Q1020=
202306020250 METAR ESMX 020250Z AUTO 31005KT 9999 NCD 04/02 Q1020=
202306020220 METAR ESMX 020220Z AUTO 13004KT 9999 NCD 03/02 Q1020=
202306020150 METAR ESMX 020150Z AUTO 13002KT 9999 NCD 03/01 Q1020=
202306020120 METAR ESMX 020120Z AUTO 13003KT 9999 NCD 01/00 Q1019=
202306020050 METAR ESMX 020050Z AUTO 13003KT 9999 NCD 03/01 Q1019=
202306020020 METAR ESMX 020020Z AUTO 00000KT 9999 SCT066/// 04/02 Q1020=
202306012350 METAR ESMX 012350Z 00000KT CAVOK 04/02 Q1019=
202306012320 METAR COR ESMX 012320Z 00000KT CAVOK 04/02 Q1019=
202306012250 METAR COR ESMX 012250Z 00000KT CAVOK 05/02 Q1019=
202306012220 METAR ESMX 012220Z AUTO 12001KT 9999 NCD 07/02 Q1019=
202306012150 METAR ESMX 012150Z AUTO 10002KT 9999 SCT059/// 09/01 Q1019=
202306012120 METAR ESMX 012120Z AUTO 09004KT 040V120 9999 OVC049/// 10/02 Q1019=
202306012050 METAR ESMX 012050Z AUTO 08004KT 350V130 9999 OVC055/// 10/02 Q1019=
202306012020 METAR ESMX 012020Z 08004KT 030V160 CAVOK 10/03 Q1018=
202306011950 METAR ESMX 011950Z AUTO VRB04KT 9999 OVC057/// 11/03 Q1018=
202306011920 METAR ESMX 011920Z AUTO 10004KT 040V130 9999 OVC062/// 11/04 Q1017=
202306011850 METAR ESMX 011850Z AUTO 08005KT 040V120 9999 FEW051/// OVC061/// 11/04 Q1017=
202306011820 METAR ESMX 011820Z AUTO 11006KT 040V140 9999 FEW046/// OVC066/// 12/05 Q1017=
202306011750 METAR ESMX 011750Z AUTO 11005KT 060V140 9999 OVC064/// 13/05 Q1016=
202306011720 METAR ESMX 011720Z 10004KT 050V120 CAVOK 13/05 Q1016=
202306011650 METAR ESMX 011650Z 11007KT 060V150 CAVOK 13/05 Q1016=
202306011620 METAR ESMX 011620Z 09006KT 040V140 CAVOK 14/06 Q1016=
202306011550 METAR ESMX 011550Z 04010KT CAVOK 16/02 Q1016=
202306011520 METAR ESMX 011520Z 01011KT CAVOK 17/03 Q1015=
202306011450 METAR ESMX 011450Z 02010KT 350V060 CAVOK 17/03 Q1015=
202306011420 METAR ESMX 011420Z 02010KT 340V050 CAVOK 17/03 Q1015=
202306011350 METAR ESMX 011350Z 02010KT 350V060 CAVOK 18/04 Q1015=
202306011320 METAR ESMX 011320Z 04011KT 010V080 CAVOK 18/04 Q1015=
202306011250 METAR ESMX 011250Z 36012KT CAVOK 18/04 Q1014=
202306011220 METAR ESMX 011220Z 35010KT CAVOK 18/05 Q1014=
