##########################################################
# Query made at 04/19/2024 22:50:01 UTC
# Time interval: from 03/01/2005 12:00  to 03/31/2005 12:59  UTC
##########################################################

##########################################################
# KATL, Atlanta, Hartsfield - Jackson Atlanta International Airport (United States)
# WMO index: 72219. WIGOS ID: 0-20000-0-72219
# Latitude 33-38-59N. Longitude 084-25-00W. Altitude 312 m.
##########################################################

200503311256 SPECI KATL 311256Z 35015G20KT 1SM +TSRA BR BKN008 BKN023 OVC035 16/16 A2998 RMK AO2 SFC VIS 2 P0002=
200503311256 SPECI KATL 311256Z 35015G20KT 1SM +TSRA BR BKN008 BKN023 OVC035 16/16 A2998 RMK AO2 SFC VIS 2 P0002=
200503311251 METAR KATL 311251Z 35013KT 1SM TSRA BR FEW023 OVC033CB 16/16 A2997 RMK AO2 SFC VIS 3 TSE20B37 PRESRR SLP145 OCNL LTGCG TS N-NE AND W-N MOV NE P0019 T01610156=
200503311238 SPECI KATL 311238Z 09007KT 2SM TSRA BR BKN030 BKN036CB OVC080 16/15 A2994 RMK AO2 SFC VIS 3 TSE20B37 OCNL LTGCG TS N-NE MOV NE P0007=
200503311238 SPECI KATL 311238Z 09007KT 2SM TSRA BR BKN030 BKN036CB OVC080 16/15 A2994 RMK AO2 SFC VIS 3 TSE20B37 OCNL LTGCG TS N-NE MOV NE P0007=
200503311226 SPECI KATL 311226Z 12008KT 6SM -RA BR BKN033 OVC080 16/15 A2993 RMK AO2 TSE20 P0005=
200503311226 SPECI KATL 311226Z 12008KT 6SM -RA BR BKN033 OVC080 16/15 A2993 RMK AO2 TSE20 P0005=
200503311151 METAR KATL 311151Z 14008KT 6SM -TSRA BR SCT038 BKN060CB OVC095 16/15 A2993 RMK AO2 TSB04RAB16 SLP130 OCNL LTGCG TS S-NW MOV NE P0005 60033 70033 T01610150 10183 20156 53008=
200503311105 SPECI KATL 311105Z 14007KT 9SM TS FEW003 OVC080CB 16/15 A2992 RMK AO2 TSB04 OCNL LTGCG TS SE-SW MOV NE=
200503311105 SPECI KATL 311105Z 14007KT 9SM TS FEW003 OVC080CB 16/15 A2992 RMK AO2 TSB04 OCNL LTGCG TS SE-SW MOV NE=
200503311051 METAR KATL 311051Z 15009KT 6SM BR FEW003 OVC085 16/15 A2990 RMK AO2 RAE38 SLP119 P0003 T01560150=
200503311036 SPECI KATL 311036Z 15010KT 6SM -RA BR SCT003 OVC090 16/15 A2990 RMK AO2 P0003=
200503311036 SPECI KATL 311036Z 15010KT 6SM -RA BR SCT003 OVC090 16/15 A2990 RMK AO2 P0003=
200503311012 SPECI KATL 311012Z 15010KT 1 1/2SM -RA BR BKN003 BKN041 OVC095 16/15 A2991 RMK AO2 SFC VIS 3 P0003=
200503311012 SPECI KATL 311012Z 15010KT 1 1/2SM -RA BR BKN003 BKN041 OVC095 16/15 A2991 RMK AO2 SFC VIS 3 P0003=
200503310958 SPECI KATL 310958Z 15009KT 1 1/2SM -RA BR SCT003 BKN046 OVC095 16/15 A2992 RMK AO2 SFC VIS 3 P0002=
200503310958 SPECI KATL 310958Z 15009KT 1 1/2SM -RA BR SCT003 BKN046 OVC095 16/15 A2992 RMK AO2 SFC VIS 3 P0002=
200503310951 METAR KATL 310951Z 13007KT 1 1/2SM -RA BR SCT049 OVC095 16/15 A2992 RMK AO2 SFC VIS 4 SLP125 P0002 T01560150=
200503310851 METAR KATL 310851Z 12006KT 6SM -RA BR BKN047 OVC110 16/15 A2991 RMK AO2 PRESFR SLP121 P0012 60023 T01560150 58017=
200503310832 SPECI KATL 310832Z 09007KT 7SM -RA OVC040 16/15 A2994 RMK AO2 P0011=
200503310832 SPECI KATL 310832Z 09007KT 7SM -RA OVC040 16/15 A2994 RMK AO2 P0011=
200503310751 METAR KATL 310751Z 24008KT 6SM -RA BR OVC028 16/14 A3001 RMK AO2 SLP155 P0011 T01610144=
200503310721 SPECI KATL 310721Z 25010KT 7SM -RA BKN026 BKN049 OVC090 17/13 A3000 RMK AO2 P0005=
200503310721 SPECI KATL 310721Z 25010KT 7SM -RA BKN026 BKN049 OVC090 17/13 A3000 RMK AO2 P0005=
200503310651 METAR KATL 310651Z 23010KT 10SM -RA BKN050 BKN060 OVC110 18/12 A2999 RMK AO2 RAB40 SLP149 P0000 T01830117=
200503310551 METAR KATL 310551Z 19004KT 10SM FEW130 SCT150 BKN250 18/11 A2996 RMK AO2 SLP138 T01780106 10233 20178 56002=
200503310451 METAR KATL 310451Z 18007KT 10SM FEW090 SCT150 BKN250 18/11 A2996 RMK AO2 SLP138 T01830106 402500106=
200503310351 METAR KATL 310351Z 18008KT 10SM FEW070 BKN200 19/10 A2996 RMK AO2 SLP137 T01890100=
200503310251 METAR KATL 310251Z 17009KT 10SM FEW060 BKN250 20/09 A2996 RMK AO2 SLP141 T02000089 50008=
200503310151 METAR KATL 310151Z 16006KT 10SM SCT060 BKN200 21/06 A2997 RMK AO2 SLP143 T02060061=
200503310051 METAR KATL 310051Z 18005KT 10SM SCT060 BKN200 21/06 A2996 RMK AO2 SLP139 T02110061=
200503302351 METAR KATL 302351Z 17006KT 10SM SCT070 SCT200 BKN250 23/05 A2994 RMK AO2 SLP133 T02330050 10250 20222 53007=
200503302251 METAR KATL 302251Z 18008KT 10SM FEW200 BKN250 24/04 A2993 RMK AO2 SLP129 T02390044=
200503302151 METAR KATL 302151Z 13005KT 10SM FEW200 BKN300 25/04 A2991 RMK AO2 SLP124 T02500044=
200503302051 METAR KATL 302051Z 15007KT 10SM FEW200 BKN300 24/06 A2992 RMK AO2 SLP125 T02440056 58019=
200503301951 METAR KATL 301951Z 17005KT 10SM FEW200 SCT300 24/06 A2994 RMK AO2 SLP132 T02440061=
200503301851 METAR KATL 301851Z 19010G14KT 10SM FEW200 SCT300 24/06 A2995 RMK AO2 SLP137 T02390061=
200503301751 METAR KATL 301751Z 18006KT 10SM FEW200 SCT300 22/08 A2997 RMK AO2 SLP145 T02220078 10222 20106 58019=
200503301651 METAR KATL 301651Z 18006KT 10SM FEW200 SCT300 21/08 A2999 RMK AO2 SLP150 T02110078=
200503301551 METAR KATL 301551Z 18007KT 10SM FEW200 SCT300 19/07 A3002 RMK AO2 SLP161 T01940072=
200503301451 METAR KATL 301451Z 27012KT 10SM FEW150 BKN200 BKN300 18/08 A3003 RMK AO2 SLP166 T01780078 51021=
200503301351 METAR KATL 301351Z 25006KT 10SM SCT150 BKN200 BKN250 16/07 A3002 RMK AO2 SLP162 T01560067=
200503301251 METAR KATL 301251Z 00000KT 8SM SCT150 BKN200 BKN250 13/08 A3000 RMK AO2 SLP154 T01280078=
200503301151 METAR KATL 301151Z 00000KT 10SM SCT150 BKN200 BKN250 11/07 A2997 RMK AO2 SLP145 T01060067 10150 20106 53022=
200503301051 METAR KATL 301051Z 00000KT 10SM SCT150 BKN200 BKN250 11/07 A2994 RMK AO2 SLP137 T01110067=
200503300951 METAR KATL 300951Z 00000KT 10SM FEW130 SCT200 BKN250 11/07 A2991 RMK AO2 SLP125 T01110067=
200503300851 METAR KATL 300851Z 00000KT 10SM FEW200 BKN250 12/06 A2990 RMK AO2 SLP122 T01220061 58010=
200503300751 METAR KATL 300751Z 00000KT 10SM FEW200 BKN250 12/07 A2992 RMK AO2 SLP127 T01220067=
200503300651 METAR KATL 300651Z 00000KT 10SM FEW200 BKN250 14/05 A2993 RMK AO2 SLP129 T01440050=
200503300551 METAR KATL 300551Z 00000KT 10SM FEW130 SCT200 BKN250 15/05 A2993 RMK AO2 SLP132 T01500050 10222 20139 51011=
200503300451 METAR KATL 300451Z 00000KT 10SM FEW150 SCT200 15/05 A2992 RMK AO2 SLP129 T01500050 402330067=
200503300351 METAR KATL 300351Z 22003KT 10SM FEW130 SCT200 16/04 A2991 RMK AO2 SLP126 T01560044=
200503300251 METAR KATL 300251Z COR 00000KT 10SM FEW130 SCT200 SCT250 16/04 A2990 RMK AO2 SLP123 T01610039 50005=
200503300151 METAR KATL 300151Z 00000KT 10SM FEW150 SCT200 BKN250 17/04 A2990 RMK AO2 SLP123 T01720044=
200503300051 METAR KATL 300051Z 00000KT 10SM FEW200 SCT250 19/03 A2989 RMK AO2 SLP118 T01890033=
200503292351 METAR KATL 292351Z VRB04KT 10SM FEW200 SCT250 BKN270 22/M01 A2988 RMK AO2 SLP117 T02221006 10233 20200 53003=
200503292251 METAR KATL 292251Z 26006KT 10SM FEW200 SCT240 BKN270 22/01 A2988 RMK AO2 SLP115 T02220011=
200503292151 METAR KATL 292151Z 27005KT 10SM FEW200 SCT240 BKN270 23/02 A2987 RMK AO2 SLP112 T02330022=
200503292051 METAR KATL 292051Z VRB03KT 10SM FEW200 SCT240 BKN270 23/02 A2987 RMK AO2 SLP114 T02280017 56022=
200503291951 METAR KATL 291951Z 32011KT 10SM BKN270 22/02 A2989 RMK AO2 SLP119 T02170022=
200503291851 METAR KATL 291851Z 30008KT 10SM BKN270 21/04 A2991 RMK AO2 SLP127 T02110044=
200503291751 METAR KATL 291751Z 30011KT 10SM BKN270 20/06 A2994 RMK AO2 SLP137 T02000061 10200 20072 50000=
200503291651 METAR KATL 291651Z 30012KT 10SM FEW270 18/06 A2996 RMK AO2 SLP141 T01830056=
200503291551 METAR KATL 291551Z 31012KT 10SM SCT270 16/06 A2996 RMK AO2 SLP146 T01610056=
200503291451 METAR KATL 291451Z 33014KT 10SM BKN270 14/05 A2994 RMK AO2 SLP139 T01440050 51014=
200503291351 METAR KATL 291351Z 32012KT 10SM SCT230 12/05 A2993 RMK AO2 SLP136 T01220050=
200503291251 METAR KATL 291251Z 29010KT 10SM FEW230 09/04 A2991 RMK AO2 SLP131 T00940044=
200503291151 METAR KATL 291151Z 29010KT 10SM SCT230 07/04 A2990 RMK AO2 SLP128 70003 T00720039 10089 20067 53021=
200503291051 METAR KATL 291051Z 29009KT 10SM FEW210 07/04 A2987 RMK AO2 SLP117 T00720044=
200503290951 METAR KATL 290951Z 28010KT 10SM CLR 07/04 A2985 RMK AO2 SLP112 T00720044=
200503290851 METAR KATL 290851Z 26009KT 10SM CLR 08/05 A2984 RMK AO2 SLP106 T00780050 53007=
200503290751 METAR KATL 290751Z 26007KT 10SM CLR 08/05 A2983 RMK AO2 SLP105 T00780050=
200503290651 METAR KATL 290651Z 26009KT 10SM CLR 08/05 A2982 RMK AO2 SLP100 T00830050=
200503290551 METAR KATL 290551Z 28008KT 10SM FEW040 09/06 A2981 RMK AO2 SLP098 T00890056 10106 20078 53013=
200503290451 METAR KATL 290451Z 29012KT 10SM BKN040 10/06 A2979 RMK AO2 SLP090 T01000061 401780067=
200503290351 METAR KATL 290351Z 28015G18KT 10SM OVC038 09/06 A2978 RMK AO2 SLP086 T00940061=
200503290251 METAR KATL 290251Z 27010KT 10SM OVC038 09/06 A2977 RMK AO2 SLP084 T00890056 51020=
200503290151 METAR KATL 290151Z 28012KT 10SM OVC040 09/06 A2976 RMK AO2 SLP079 T00890056=
200503290051 METAR KATL 290051Z 31013G19KT 10SM SCT024 OVC036 08/05 A2973 RMK AO2 SLP070 T00830050=
200503282351 METAR KATL 282351Z 28013KT 10SM OVC020 08/04 A2971 RMK AO2 SLP064 60000 T00780044 10078 20067 53018=
200503282251 METAR KATL 282251Z 29018G23KT 10SM OVC022 08/04 A2969 RMK AO2 SLP055 T00780039=
200503282151 METAR KATL 282151Z 28014KT 10SM OVC018 07/04 A2968 RMK AO2 SLP051 T00720039=
200503282051 METAR KATL 282051Z 27015G19KT 10SM BKN018 OVC026 07/04 A2966 RMK AO2 RAE32 SLP044 P0000 60000 T00720044 51018=
200503282023 SPECI KATL 282023Z 26016G21KT 7SM -RA BKN016 OVC022 07/04 A2965 RMK AO2 P0000=
200503282023 SPECI KATL 282023Z 26016G21KT 7SM -RA BKN016 OVC022 07/04 A2965 RMK AO2 P0000=
200503281951 METAR KATL 281951Z 27016G21KT 10SM -RA OVC014 07/04 A2964 RMK AO2 RAB19 SLP038 P0000 T00670044=
200503281859 SPECI KATL 281859Z 27019G24KT 10SM OVC016 07/04 A2963 RMK AO2=
200503281859 SPECI KATL 281859Z 27019G24KT 10SM OVC016 07/04 A2963 RMK AO2=
200503281851 METAR KATL 281851Z 27018G24KT 10SM OVC014 07/04 A2963 RMK AO2 SLP033 T00720044=
200503281751 METAR KATL 281751Z 26016G25KT 10SM BKN017 BKN024 OVC031 07/05 A2960 RMK AO2 PK WND 26028/1731 RAE12 SLP024 P0001 60003 T00720050 10089 20072 51011=
200503281651 METAR KATL 281651Z 26013G19KT 6SM -RA BR BKN016 OVC023 07/06 A2960 RMK AO2 SLP023 P0000 T00720056=
200503281551 METAR KATL 281551Z 25012KT 8SM -RA SCT016 BKN021 OVC027 08/06 A2959 RMK AO2 SLP018 P0001 T00780056=
200503281451 METAR KATL 281451Z 24011G20KT 10SM -RA BKN018 OVC026 08/06 A2957 RMK AO2 SLP012 P0001 60001 T00780056 51009=
200503281351 METAR KATL 281351Z 24011G20KT 10SM -RA BKN020 OVC025 08/05 A2957 RMK AO2 RAB1258 SLP011 P0000 T00780050=
200503281338 SPECI KATL 281338Z 23017G21KT 10SM -RA BKN021 OVC030 08/05 A2956 RMK AO2 RAB1258 P0000=
200503281338 SPECI KATL 281338Z 23017G21KT 10SM -RA BKN021 OVC030 08/05 A2956 RMK AO2 RAB1258 P0000=
200503281314 SPECI KATL 281314Z 25015G21KT 10SM -RA SCT016 SCT025 OVC032 08/05 A2956 RMK AO2 RAB1258 P0000=
200503281314 SPECI KATL 281314Z 25015G21KT 10SM -RA SCT016 SCT025 OVC032 08/05 A2956 RMK AO2 RAB1258 P0000=
200503281251 METAR KATL 281251Z 24014G20KT 10SM SCT016 BKN022 OVC055 08/06 A2956 RMK AO2 RAE13B30E51 SLP009 P0000 T00780056=
200503281151 METAR KATL 281151Z 24010G23KT 10SM -RA FEW019 OVC025 08/06 A2954 RMK AO2 RAB04E19B38 SLP002 P0000 60000 70234 T00830056 10144 20083 51007=
200503281051 METAR KATL 281051Z 25011G16KT 10SM BKN021 OVC029 09/06 A2954 RMK AO2 SLP002 T00890061=
200503281042 SPECI KATL 281042Z 24010G19KT 10SM SCT021 BKN029 OVC034 09/06 A2954 RMK AO2=
200503281042 SPECI KATL 281042Z 24010G19KT 10SM SCT021 BKN029 OVC034 09/06 A2954 RMK AO2=
200503281002 SPECI KATL 281002Z 25013G21KT 10SM FEW017 SCT027 OVC046 09/07 A2954 RMK AO2=
200503281002 SPECI KATL 281002Z 25013G21KT 10SM FEW017 SCT027 OVC046 09/07 A2954 RMK AO2=
200503280951 METAR KATL 280951Z 25012G18KT 10SM SCT017 BKN026 OVC047 09/07 A2953 RMK AO2 RAB24E47 SLP998 P0000 T00940067=
200503280851 METAR KATL 280851Z 23011G22KT 10SM SCT023 BKN038 OVC046 11/07 A2952 RMK AO2 SLP993 T01110072 58004=
200503280824 SPECI KATL 280824Z 25013G18KT 10SM SCT018 BKN024 OVC032 12/08 A2952 RMK AO2=
200503280824 SPECI KATL 280824Z 25013G18KT 10SM SCT018 BKN024 OVC032 12/08 A2952 RMK AO2=
200503280751 METAR KATL 280751Z 25009KT 10SM FEW027 BKN050 12/08 A2953 RMK AO2 SLP995 T01170083=
200503280734 SPECI KATL 280734Z 25008KT 10SM SCT025 BKN055 12/08 A2953 RMK AO2=
200503280734 SPECI KATL 280734Z 25008KT 10SM SCT025 BKN055 12/08 A2953 RMK AO2=
200503280651 METAR KATL 280651Z 24008KT 10SM BKN022 13/09 A2954 RMK AO2 SLP001 T01280094=
200503280551 METAR KATL 280551Z 24017G24KT 10SM SCT033 14/13 A2953 RMK AO2 PK WND 24028/0508 SLP996 60099 T01440128 10183 20144 55001=
200503280531 SPECI KATL 280531Z 24014KT 10SM SCT021 SCT035 16/14 A2952 RMK AO2 PK WND 24028/0508=
200503280531 SPECI KATL 280531Z 24014KT 10SM SCT021 SCT035 16/14 A2952 RMK AO2 PK WND 24028/0508=
200503280451 METAR KATL 280451Z 23014G20KT 8SM FEW008 BKN017 OVC110 18/17 A2951 RMK AO2 WSHFT 0428 RAB02E46 SLP985 P0006 T01780172 401940156=
200503280444 SPECI KATL 280444Z 23013G22KT 10SM -RA SCT005 BKN008 OVC018 18/18 A2950 RMK AO2 WSHFT 0428 RAB02 P0006=
200503280444 SPECI KATL 280444Z 23013G22KT 10SM -RA SCT005 BKN008 OVC018 18/18 A2950 RMK AO2 WSHFT 0428 RAB02 P0006=
200503280351 METAR KATL 280351Z 15011KT 8SM SCT005 BKN008 OVC018 17/17 A2951 RMK AO2 RAE36 CIG 007V010 SLP986 P0001 T01670167=
200503280251 METAR KATL 280251Z 14011G18KT 8SM -RA BKN008 OVC013 17/17 A2954 RMK AO2 CIG 005V011 SLP997 P0007 60092 T01670167 58013=
200503280151 METAR KATL 280151Z 12012KT 5SM RA BR OVC008 16/16 A2955 RMK AO2 TSE0057 CIG 005V013 SLP003 LTG DSNT N P0032 T01610161=
200503280105 SPECI KATL 280105Z 12016G21KT 1 3/4SM R09R/4000VP6000FT +RA BR SCT005 BKN011 OVC028 17/16 A2958 RMK AO2 VIS 1V5 TSE0057 P0021=
200503280105 SPECI KATL 280105Z 12016G21KT 1 3/4SM R09R/4000VP6000FT +RA BR SCT005 BKN011 OVC028 17/16 A2958 RMK AO2 VIS 1V5 TSE0057 P0021=
200503280059 SPECI KATL 280059Z 13010G18KT 2SM R09R/4000VP6000FT +RA BR BKN005 BKN011 OVC021 16/16 A2959 RMK AO2 TSE57 P0009=
200503280059 SPECI KATL 280059Z 13010G18KT 2SM R09R/4000VP6000FT +RA BR BKN005 BKN011 OVC021 16/16 A2959 RMK AO2 TSE57 P0009=
200503280056 SPECI KATL 280056Z 12013G18KT 3SM R09R/4000VP6000FT TSRA BR SCT007 BKN011 OVC036 16/16 A2958 RMK AO2 P0000=
200503280056 SPECI KATL 280056Z 12013G18KT 3SM R09R/4000VP6000FT TSRA BR SCT007 BKN011 OVC036 16/16 A2958 RMK AO2 P0000=
200503280051 METAR KATL 280051Z 13010G19KT 8SM -TSRA SCT009 BKN027CB OVC060 16/16 A2958 RMK AO2 SLP012 CONS LTGICCG TS OHD MOV NE P0053 T01610156=
200503280041 SPECI KATL 280041Z 12013G19KT 8SM -TSRA SCT009 BKN027CB OVC060 17/16 A2957 RMK AO2 CONS LTGICCG TS OHD MOV NE P0051=
200503280041 SPECI KATL 280041Z 12013G19KT 8SM -TSRA SCT009 BKN027CB OVC060 17/16 A2957 RMK AO2 CONS LTGICCG TS OHD MOV NE P0051=
200503280026 SPECI KATL 280026Z 10014G20KT 2 1/2SM R09R/6000VP6000FT +TSRA BR SCT009 BKN027 OVC060 16/16 A2958 RMK AO2 CONS LTGICCG TS OHD MOV NE P0042=
200503280026 SPECI KATL 280026Z 10014G20KT 2 1/2SM R09R/6000VP6000FT +TSRA BR SCT009 BKN027 OVC060 16/16 A2958 RMK AO2 CONS LTGICCG TS OHD MOV NE P0042=
200503280006 SPECI KATL 280006Z 10013KT 2 1/2SM -TSRA BR BKN007 BKN047 OVC060 16/16 A2961 RMK AO2 SFC VIS 4 CONS LTGICCG TS OHD MOV NE P0031=
200503280006 SPECI KATL 280006Z 10013KT 2 1/2SM -TSRA BR BKN007 BKN047 OVC060 16/16 A2961 RMK AO2 SFC VIS 4 CONS LTGICCG TS OHD MOV NE P0031=
200503272351 METAR KATL 272351Z 10018G25KT 1SM R09R/3000VP6000FT +TSRA BR OVC007CB 16/16 A2958 RMK AO2 TWR VIS 2 1/2 TSB17 PRESFR SLP011 CONS LTGICCG TS NW MOV NE P0045 60135 T01610156 10194 20161 58042=
200503272344 SPECI KATL 272344Z 09013G20KT 2SM R09R/4500VP6000FT +TSRA BR OVC007CB 17/16 A2963 RMK AO2 TWR VIS 2 1/2 TSB17 FRQ LTGICCG TS NW MOV NE P0025=
200503272344 SPECI KATL 272344Z 09013G20KT 2SM R09R/4500VP6000FT +TSRA BR OVC007CB 17/16 A2963 RMK AO2 TWR VIS 2 1/2 TSB17 FRQ LTGICCG TS NW MOV NE P0025=
200503272327 SPECI KATL 272327Z 10010KT 5SM +TSRA BR OVC007CB 17/16 A2962 RMK AO2 TSB17 FRQ LTGICCG TS NW MOV NE P0007=
200503272327 SPECI KATL 272327Z 10010KT 5SM +TSRA BR OVC007CB 17/16 A2962 RMK AO2 TSB17 FRQ LTGICCG TS NW MOV NE P0007=
200503272318 SPECI KATL 272318Z 10011KT 2 1/2SM -TSRA OVC007CB 17/16 A2964 RMK AO2 SFC VIS 10 TSB17 FRQ LTGICCG TS NW MOV NE P0003=
200503272318 SPECI KATL 272318Z 10011KT 2 1/2SM -TSRA OVC007CB 17/16 A2964 RMK AO2 SFC VIS 10 TSB17 FRQ LTGICCG TS NW MOV NE P0003=
200503272251 METAR KATL 272251Z 12012G16KT 2 1/2SM -RA BR BKN007 OVC010 17/16 A2965 RMK AO2 SFC VIS 3 SLP037 P0008 T01670161=
200503272151 METAR KATL 272151Z 09010G16KT 8SM -RA BKN007 BKN012 OVC090 17/16 A2965 RMK AO2 SLP037 P0019 T01670161=
200503272051 METAR KATL 272051Z 11010KT 2 1/2SM RA BR OVC007 17/17 A2970 RMK AO2 PK WND 12026/2023 WSHFT 2019 SFC VIS 3 TSB23E51 SLP054 P0042 60063 T01720167 55016=
200503272039 SPECI KATL 272039Z 13011G17KT 2 1/2SM TSRA OVC007 17/17 A2971 RMK AO2 PK WND 12026/2023 WSHFT 2019 SFC VIS 3 TSB23 OCNL LTGCA TS OVHD MOV NE P0038=
200503272039 SPECI KATL 272039Z 13011G17KT 2 1/2SM TSRA OVC007 17/17 A2971 RMK AO2 PK WND 12026/2023 WSHFT 2019 SFC VIS 3 TSB23 OCNL LTGCA TS OVHD MOV NE P0038=
200503272028 SPECI KATL 272028Z 13012G26KT 2SM R09R/4000VP6000FT +TSRA OVC007 17/16 A2969 RMK AO2 PK WND 12026/2023 TSB23 OCNL LTGCA TS MOV NE P0035=
200503272028 SPECI KATL 272028Z 13012G26KT 2SM R09R/4000VP6000FT +TSRA OVC007 17/16 A2969 RMK AO2 PK WND 12026/2023 TSB23 OCNL LTGCA TS MOV NE P0035=
200503272023 SPECI KATL 272023Z 12020G26KT 1/2SM R09R/2600VP6000FT +TSRA BKN004 OVC007 17/16 A2970 RMK AO2 PK WND 12026/2023 TWR VIS 1 TSB23 OCNL LTGCA P0027=
200503272023 SPECI KATL 272023Z 12020G26KT 1/2SM R09R/2600VP6000FT +TSRA BKN004 OVC007 17/16 A2970 RMK AO2 PK WND 12026/2023 TWR VIS 1 TSB23 OCNL LTGCA P0027=
200503272019 SPECI KATL 272019Z 14016G22KT 1/2SM R09R/2600VP6000FT +RA BR OVC004 17/17 A2973 RMK AO2 SFC VIS 3/4 VIS 1/4V4 P0004=
200503272019 SPECI KATL 272019Z 14016G22KT 1/2SM R09R/2600VP6000FT +RA BR OVC004 17/17 A2973 RMK AO2 SFC VIS 3/4 VIS 1/4V4 P0004=
200503271951 METAR KATL 271951Z 11013KT 3SM -RA BR BKN006 OVC013 17/16 A2968 RMK AO2 SFC VIS 5 CIG 004V009 SLP045 P0021 T01670161=
200503271933 SPECI KATL 271933Z 07010KT 1 1/2SM -RA BR BKN006 BKN009 OVC022 17/16 A2971 RMK AO2 SFC VIS 3 P0020=
200503271933 SPECI KATL 271933Z 07010KT 1 1/2SM -RA BR BKN006 BKN009 OVC022 17/16 A2971 RMK AO2 SFC VIS 3 P0020=
200503271919 SPECI KATL 271919Z 07006KT 1 1/2SM RA BR FEW006 SCT014 OVC020 17/16 A2970 RMK AO2 SFC VIS 2 P0018=
200503271919 SPECI KATL 271919Z 07006KT 1 1/2SM RA BR FEW006 SCT014 OVC020 17/16 A2970 RMK AO2 SFC VIS 2 P0018=
200503271905 SPECI KATL 271905Z 11016KT 1 1/2SM R09R/5500VP6000FT -RA BR OVC020 17/16 A2970 RMK AO2 SFC VIS 2 PRESFR P0003=
200503271905 SPECI KATL 271905Z 11016KT 1 1/2SM R09R/5500VP6000FT -RA BR OVC020 17/16 A2970 RMK AO2 SFC VIS 2 PRESFR P0003=
200503271851 METAR KATL 271851Z 08013KT 10SM -RA OVC018 17/16 A2972 RMK AO2 RAB12 SLP059 P0000 T01670156=
200503271751 METAR KATL 271751Z 09007KT 10SM OVC018 19/16 A2975 RMK AO2 SLP069 T01940156 10194 20161 58017=
200503271651 METAR KATL 271651Z 11007KT 10SM OVC016 19/16 A2978 RMK AO2 SLP078 T01940161=
200503271558 SPECI KATL 271558Z 12010KT 10SM OVC011 18/16 A2980 RMK AO2=
200503271558 SPECI KATL 271558Z 12010KT 10SM OVC011 18/16 A2980 RMK AO2=
200503271551 METAR KATL 271551Z 10012KT 10SM BKN009 OVC013 18/16 A2980 RMK AO2 SLP087 T01780156=
200503271451 METAR KATL 271451Z 11011KT 10SM OVC007 17/16 A2980 RMK AO2 SLP087 T01670156 51008=
200503271351 METAR KATL 271351Z 10009KT 10SM OVC007 16/15 A2979 RMK AO2 CIG 006V010 SLP083 T01610150=
200503271251 METAR KATL 271251Z 11012KT 10SM BKN009 OVC012 16/15 A2980 RMK AO2 CIG 006V010 SLP083 T01610150=
200503271151 METAR KATL 271151Z 10012KT 10SM BKN009 OVC130 16/14 A2978 RMK AO2 RAB1053E03 SLP077 P0000 60044 70058 T01610144 10167 20156 55000=
200503271057 SPECI KATL 271057Z 09013KT 10SM -RA BKN009 OVC013 16/15 A2976 RMK AO2 RAB53 CIG 007V011 P0000=
200503271057 SPECI KATL 271057Z 09013KT 10SM -RA BKN009 OVC013 16/15 A2976 RMK AO2 RAB53 CIG 007V011 P0000=
200503271051 METAR KATL 271051Z 09013G18KT 10SM BKN011 OVC095 16/15 A2976 RMK AO2 RAB12E27 CIG 007V016 SLP072 P0000 T01610150=
200503270951 METAR KATL 270951Z 10014KT 10SM BKN006 OVC010 16/15 A2977 RMK AO2 RAE21 CIG 003V008 SLP074 P0003 T01610150=
200503270937 SPECI KATL 270937Z 11014KT 10SM OVC006 16/15 A2976 RMK AO2 RAE21 CIG 003V010 P0003=
200503270937 SPECI KATL 270937Z 11014KT 10SM OVC006 16/15 A2976 RMK AO2 RAE21 CIG 003V010 P0003=
200503270851 METAR KATL 270851Z 11018G23KT 6SM RA BR BKN003 OVC007 16/16 A2978 RMK AO2 PRESFR SLP077 P0013 60041 T01610156 58025=
200503270751 METAR KATL 270751Z 10008KT 5SM RA BR OVC007 17/16 A2987 RMK AO2 CIG 004V010 SLP108 P0018 T01670161=
200503270651 METAR KATL 270651Z 12010KT 6SM RA BR OVC005 17/16 A2984 RMK AO2 CIG 004V009 SLP098 P0010 T01670156=
200503270554 SPECI KATL 270554Z 09009KT 5SM -RA BR OVC005 17/16 A2985 RMK AO2 CIG 004V011 P0000=
200503270554 SPECI KATL 270554Z 09009KT 5SM -RA BR OVC005 17/16 A2985 RMK AO2 CIG 004V011 P0000=
200503270551 METAR KATL 270551Z 10010KT 5SM -RA BR BKN014 OVC019 17/16 A2986 RMK AO2 SLP103 P0009 60014 T01670161 10233 20167 56014=
200503270509 SPECI KATL 270509Z 09010KT 8SM -RA BKN014 OVC019 17/16 A2984 RMK AO2 P0000=
200503270509 SPECI KATL 270509Z 09010KT 8SM -RA BKN014 OVC019 17/16 A2984 RMK AO2 P0000=
200503270451 METAR KATL 270451Z 10014G18KT 6SM -RA BR SCT017 OVC022 17/16 A2986 RMK AO2 RAB0356 SLP104 P0005 T01720156 402670117=
200503270406 SPECI KATL 270406Z 10008KT 10SM -RA BKN026 BKN033 OVC110 19/14 A2989 RMK AO2 RAB0356 PRESRR P0000=
200503270406 SPECI KATL 270406Z 10008KT 10SM -RA BKN026 BKN033 OVC110 19/14 A2989 RMK AO2 RAB0356 PRESRR P0000=
200503270351 METAR KATL 270351Z 09009G18KT 10SM FEW028 BKN033 BKN110 19/14 A2985 RMK AO2 SLP102 T01940144=
200503270251 METAR KATL 270251Z 13012KT 10SM SCT034 BKN110 20/14 A2990 RMK AO2 SLP118 T02000144 51024=
200503270151 METAR KATL 270151Z 12010KT 10SM FEW080 SCT110 OVC200 21/13 A2989 RMK AO2 SLP115 T02060133=
200503270051 METAR KATL 270051Z 12009G19KT 10SM BKN200 22/12 A2985 RMK AO2 SLP104 T02220122=
200503262351 METAR KATL 262351Z 11010KT 10SM SCT110 BKN200 23/08 A2983 RMK AO2 SLP094 T02330083 10267 20233 58020=
200503262251 METAR KATL 262251Z 13008KT 10SM SCT085 BKN100 25/08 A2986 RMK AO2 SLP107 T02500083=
200503262151 METAR KATL 262151Z 13009KT 10SM BKN085 BKN100 26/07 A2988 RMK AO2 SLP112 T02560072=
200503262051 METAR KATL 262051Z 16008KT 10SM SCT085 BKN100 26/07 A2989 RMK AO2 SLP114 T02560072 56027=
200503261951 METAR KATL 261951Z 07006KT 10SM SCT080 SCT130 26/08 A2990 RMK AO2 SLP118 T02610078=
200503261851 METAR KATL 261851Z 11008KT 10SM SCT070 SCT130 26/09 A2994 RMK AO2 SLP131 T02560094=
200503261751 METAR KATL 261751Z 10004KT 10SM FEW050 SCT130 24/09 A2997 RMK AO2 SLP141 T02440094 10244 20128 58008=
200503261651 METAR KATL 261651Z VRB03KT 10SM SCT200 23/09 A2998 RMK AO2 SLP146 T02330094=
200503261551 METAR KATL 261551Z 08005KT 10SM BKN200 21/11 A3000 RMK AO2 SLP151 T02110106 $=
200503261451 METAR KATL 261451Z 06005KT 9SM BKN180 18/11 A2999 RMK AO2 SLP151 T01830106 51019 $=
200503261351 METAR KATL 261351Z 05007KT 8SM FEW150 BKN180 16/10 A2998 RMK AO2 SLP148 T01610100 $=
200503261251 METAR KATL 261251Z 07008KT 8SM BKN180 13/09 A2995 RMK AO2 SLP138 T01330094 $=
200503261151 METAR KATL 261151Z 06008KT 10SM SCT200 13/09 A2994 RMK AO2 SLP132 T01280089 10161 20117 53017 $=
200503261051 METAR KATL 261051Z 30004KT 10SM CLR 12/08 A2992 RMK AO2 SLP126 T01220083 $=
200503260951 METAR KATL 260951Z 00000KT 10SM CLR 14/08 A2988 RMK AO2 SLP113 T01390083 $=
200503260851 METAR KATL 260851Z 00000KT 10SM CLR 13/08 A2988 RMK AO2 SLP113 T01330083 56005 $=
200503260751 METAR KATL 260751Z 00000KT 10SM CLR 13/09 A2989 RMK AO2 SLP113 T01330089 $=
200503260651 METAR KATL 260651Z 00000KT 10SM CLR 14/08 A2989 RMK AO2 SLP115 T01440078 $=
200503260551 METAR KATL 260551Z 00000KT 10SM CLR 16/07 A2990 RMK AO2 SLP118 T01610072 10239 20156 58003 $=
200503260451 METAR KATL 260451Z 20003KT 10SM CLR 17/08 A2991 RMK AO2 SLP121 T01670078 402610117 $=
200503260351 METAR KATL 260351Z 10SM CLR 18/07 A2991 RMK AO2 SLP121 T01830067 $=
200503260251 METAR KATL 260251Z 30005KT 10SM FEW250 19/06 A2991 RMK AO2 SLP122 T01940061 53024=
200503260151 METAR KATL 260151Z 30006KT 10SM FEW250 21/06 A2988 RMK AO2 SLP115 T02060061=
200503260051 METAR KATL 260051Z 32005KT 10SM FEW250 22/04 A2985 RMK AO2 SLP105 T02220039=
200503252351 METAR KATL 252351Z 24004KT 10SM FEW250 24/04 A2983 RMK AO2 SLP097 T02390039 10261 20228 53003=
200503252251 METAR KATL 252251Z 26006KT 10SM FEW085 SCT250 25/05 A2982 RMK AO2 SLP092 T02500050=
200503252151 METAR KATL 252151Z 23010KT 10SM FEW085 SCT250 26/04 A2982 RMK AO2 SLP091 T02560044=
200503252051 METAR KATL 252051Z 20007KT 10SM FEW250 25/06 A2982 RMK AO2 SLP094 T02500061 58019=
200503251951 METAR KATL 251951Z 09004KT 10SM FEW250 25/07 A2985 RMK AO2 SLP101 T02500067=
200503251851 METAR KATL 251851Z VRB03KT 10SM FEW065 24/07 A2987 RMK AO2 SLP109 T02390072=
200503251751 METAR KATL 251751Z 00000KT 10SM FEW250 23/08 A2988 RMK AO2 SLP114 T02330078 10233 20122 58017=
200503251651 METAR KATL 251651Z 18004KT 10SM FEW090 22/08 A2991 RMK AO2 SLP123 T02170083=
200503251551 METAR KATL 251551Z VRB04KT 10SM FEW075 SCT090 20/08 A2992 RMK AO2 SLP127 T02000083=
200503251451 METAR KATL 251451Z 09004KT 10SM BKN090 17/08 A2993 RMK AO2 SLP133 T01670078 58002=
200503251351 METAR KATL 251351Z 08010KT 9SM BKN080 BKN130 BKN210 14/07 A2994 RMK AO2 SLP136 T01440072=
200503251251 METAR KATL 251251Z 06007KT 10SM BKN080 BKN130 13/07 A2994 RMK AO2 SLP137 T01280067=
200503251151 METAR KATL 251151Z 02008KT 9SM SCT120 SCT210 SCT250 12/06 A2994 RMK AO2 SLP135 T01220061 10144 20117 50002=
200503251051 METAR KATL 251051Z 05005KT 10SM SCT120 BKN210 BKN250 12/07 A2994 RMK AO2 SLP137 T01170067=
200503250951 METAR KATL 250951Z 03005KT 10SM SCT120 BKN210 BKN250 13/06 A2996 RMK AO2 SLP140 T01330061=
200503250851 METAR KATL 250851Z 05005KT 10SM SCT130 BKN200 BKN250 13/06 A2993 RMK AO2 SLP133 T01280061 53000=
200503250751 METAR KATL 250751Z 07004KT 10SM BKN130 BKN210 12/06 A2993 RMK AO2 SLP132 T01220061=
200503250651 METAR KATL 250651Z 08005KT 10SM BKN130 BKN210 13/06 A2992 RMK AO2 SLP128 T01280061=
200503250551 METAR KATL 250551Z 07006KT 10SM SCT100 SCT200 13/06 A2993 RMK AO2 SLP133 T01330061 10200 20128 58014 $=
200503250451 METAR KATL 250451Z 08006KT 10SM CLR 14/06 A2995 RMK AO2 SLP139 T01440061 402110067=
200503250351 METAR KATL 250351Z 10003KT 10SM CLR 16/06 A2996 RMK AO2 SLP143 T01610056=
200503250251 METAR KATL 250251Z 02005KT 10SM CLR 17/05 A2997 RMK AO2 SLP147 T01670050 50005=
200503250151 METAR KATL 250151Z 31003KT 10SM FEW250 17/04 A2999 RMK AO2 SLP153 T01720044=
200503250051 METAR KATL 250051Z 34005KT 10SM FEW200 SCT250 18/05 A2997 RMK AO2 SLP150 T01780050=
200503242351 METAR KATL 242351Z 28004KT 10SM FEW200 SCT250 20/04 A2996 RMK AO2 SLP143 T02000039 10211 20167 53001=
200503242251 METAR KATL 242251Z 28005KT 10SM FEW200 SCT250 BKN300 21/04 A2995 RMK AO2 SLP142 T02060044=
200503242151 METAR KATL 242151Z 28005KT 10SM FEW200 SCT250 BKN300 21/05 A2995 RMK AO2 SLP140 T02110050=
200503242051 METAR KATL 242051Z VRB05KT 10SM FEW200 SCT250 BKN300 20/06 A2995 RMK AO2 SLP141 T02000056 58016=
200503241951 METAR KATL 241951Z VRB04KT 10SM FEW200 BKN250 BKN300 20/06 A2997 RMK AO2 SLP146 T02000061=
200503241851 METAR KATL 241851Z VRB05KT 10SM FEW200 BKN250 BKN300 19/06 A2999 RMK AO2 SLP154 T01890061=
200503241751 METAR KATL 241751Z 31008KT 10SM FEW200 BKN250 BKN300 17/07 A3000 RMK AO2 SLP159 T01670067 10167 20067 58011=
200503241651 METAR KATL 241651Z 28006KT 10SM FEW200 BKN250 BKN300 15/06 A3002 RMK AO2 SLP164 T01500061=
200503241551 METAR KATL 241551Z 30007KT 10SM FEW180 BKN250 BKN300 13/06 A3004 RMK AO2 SLP171 T01280061=
200503241451 METAR KATL 241451Z VRB04KT 10SM FEW180 BKN250 BKN300 12/06 A3004 RMK AO2 SLP171 T01170061 51014=
200503241351 METAR KATL 241351Z 34009KT 10SM FEW020 SCT210 BKN250 10/06 A3002 RMK AO2 SLP167 T01000061=
200503241251 METAR KATL 241251Z 30007KT 10SM SCT210 BKN250 08/05 A3001 RMK AO2 SLP163 T00780050=
200503241151 METAR KATL 241151Z 28006KT 10SM SCT210 BKN250 07/04 A2999 RMK AO2 SLP158 T00670044 10111 20067 53017=
200503241051 METAR KATL 241051Z 28007KT 10SM SCT210 07/05 A2997 RMK AO2 SLP149 T00670050=
200503240951 METAR KATL 240951Z 30006KT 10SM SCT210 07/05 A2994 RMK AO2 SLP139 T00720050=
200503240851 METAR KATL 240851Z 30007KT 10SM FEW035 SCT210 08/05 A2994 RMK AO2 SLP138 T00830050 50001=
200503240751 METAR KATL 240751Z 28008KT 10SM FEW035 SCT210 09/06 A2995 RMK AO2 SLP139 T00890056=
200503240651 METAR KATL 240651Z 29010KT 10SM FEW035 10/06 A2994 RMK AO2 SLP136 T01000056=
200503240551 METAR KATL 240551Z 30009KT 10SM FEW035 11/06 A2994 RMK AO2 SLP136 T01110061 10150 20111 51011=
200503240451 METAR KATL 240451Z 30007KT 10SM BKN039 12/07 A2994 RMK AO2 SLP135 T01170072 401940094=
200503240351 METAR KATL 240351Z 29007KT 10SM BKN044 12/07 A2992 RMK AO2 SLP130 T01220072=
200503240251 METAR KATL 240251Z COR 28007KT 10SM SCT050 12/07 A2991 RMK AO2 SLP126 T01220072 53024=
200503240151 METAR KATL 240151Z 30008KT 10SM OVC048 14/08 A2988 RMK AO2 SLP115 T01390078=
200503240051 METAR KATL 240051Z 30009KT 10SM OVC050 14/08 A2986 RMK AO2 SLP110 T01440078=
200503232351 METAR KATL 232351Z 28007KT 10SM SCT055 15/07 A2984 RMK AO2 SLP102 T01500067 10194 20150 53014=
200503232251 METAR KATL 232251Z 28013KT 10SM SCT050 17/07 A2982 RMK AO2 SLP095 T01670067=
200503232151 METAR KATL 232151Z 29011G19KT 10SM SCT050 18/08 A2980 RMK AO2 SLP090 T01780078=
200503232051 METAR KATL 232051Z 29015KT 10SM FEW050 18/08 A2979 RMK AO2 SLP086 T01830083 53009=
200503231951 METAR KATL 231951Z 28012G22KT 10SM FEW045 18/08 A2978 RMK AO2 SLP081 T01830083=
200503231851 METAR KATL 231851Z 24016G21KT 10SM SCT050 19/08 A2977 RMK AO2 SLP079 T01890083 $=
200503231751 METAR KATL 231751Z 24012G21KT 10SM FEW045 SCT055 19/08 A2977 RMK AO2 SLP076 T01940083 10194 20100 58002 $=
200503231651 METAR KATL 231651Z 25011KT 10SM SCT025 BKN040 BKN050 18/11 A2977 RMK AO2 SLP080 T01780106 $=
200503231607 SPECI KATL 231607Z 26008KT 10SM FEW010 SCT014 BKN020 16/12 A2978 RMK AO2 $=
200503231607 SPECI KATL 231607Z 26008KT 10SM FEW010 SCT014 BKN020 16/12 A2978 RMK AO2 $=
200503231551 METAR KATL 231551Z 22007KT 10SM SCT006 BKN013 BKN020 16/13 A2979 RMK AO2 SLP085 T01560128 $=
200503231451 METAR KATL 231451Z 21010KT 10SM SCT009 14/12 A2977 RMK AO2 SLP080 T01440122 50009 $=
200503231411 SPECI KATL 231411Z 20004KT 10SM SCT015 13/12 A2977 RMK AO2 $=
200503231411 SPECI KATL 231411Z 20004KT 10SM SCT015 13/12 A2977 RMK AO2 $=
200503231351 METAR KATL 231351Z 21004KT 10SM BKN020 12/11 A2977 RMK AO2 SLP082 T01220111=
200503231251 METAR KATL 231251Z 00000KT 10SM FEW002 SCT032 11/11 A2976 RMK AO2 SLP077 T01060106=
200503231151 METAR KATL 231151Z 00000KT 10SM BKN032 BKN060 10/09 A2974 RMK AO2 SLP073 60048 70109 T01000094 10106 20094 53005=
200503231051 METAR KATL 231051Z 00000KT 10SM FEW004 SCT036 BKN060 BKN150 10/09 A2973 RMK AO2 RAE0954 SLP068 P0000 T01000094=
200503231029 SPECI KATL 231029Z 11004KT 6SM BR BKN004 OVC070 10/10 A2973 RMK AO2 RAE0954 P0000=
200503231029 SPECI KATL 231029Z 11004KT 6SM BR BKN004 OVC070 10/10 A2973 RMK AO2 RAE0954 P0000=
200503230951 METAR KATL 230951Z 10005KT 6SM -RA BR FEW030 BKN060 OVC085 11/10 A2970 RMK AO2 SLP058 P0011 T01060100=
200503230930 SPECI KATL 230930Z 06006KT 6SM -RA BR SCT028 BKN050 OVC085 11/10 A2970 RMK AO2 P0010=
200503230930 SPECI KATL 230930Z 06006KT 6SM -RA BR SCT028 BKN050 OVC085 11/10 A2970 RMK AO2 P0010=
200503230910 SPECI KATL 230910Z 35006KT 4SM RA BR FEW004 BKN021 OVC042 10/10 A2971 RMK AO2 P0007=
200503230910 SPECI KATL 230910Z 35006KT 4SM RA BR FEW004 BKN021 OVC042 10/10 A2971 RMK AO2 P0007=
200503230851 METAR KATL 230851Z COR 01004KT 4SM RA BR FEW006 SCT018 OVC042 10/10 A2973 RMK AO2 TSE24 SLP066 P0027 60037 T01000100 58002=
200503230830 SPECI KATL 230830Z 04007KT 3SM RA BR SCT006 OVC018 10/09 A2973 RMK AO2 TWR VIS 4 TSE24 P0023=
200503230830 SPECI KATL 230830Z 04007KT 3SM RA BR SCT006 OVC018 10/09 A2973 RMK AO2 TWR VIS 4 TSE24 P0023=
200503230819 SPECI KATL 230819Z 00000KT 4SM TSRA BR FEW006 BKN016CB OVC041 10/10 A2975 RMK AO2 OCNL LTGIC NE-SW TS NE-SW MOV NE P0020=
200503230819 SPECI KATL 230819Z 00000KT 4SM TSRA BR FEW006 BKN016CB OVC041 10/10 A2975 RMK AO2 OCNL LTGIC NE-SW TS NE-SW MOV NE P0020=
200503230809 SPECI KATL 230809Z 36004KT 2SM TSRA BR FEW006 BKN016CB OVC041 10/09 A2975 RMK AO2 TWR VIS 4 OCNL LTGIC NE-SW TS NE-SW MOV NE P0017=
200503230809 SPECI KATL 230809Z 36004KT 2SM TSRA BR FEW006 BKN016CB OVC041 10/09 A2975 RMK AO2 TWR VIS 4 OCNL LTGIC NE-SW TS NE-SW MOV NE P0017=
200503230751 METAR KATL 230751Z 34006G14KT 2 1/2SM +TSRA BR BKN001 BKN009 OVC019CB 10/09 A2977 RMK AO2 TWR VIS 4 TSB34RAB26 SLP080 OCNL LTGIC SW-NE TS VC SW-NE MOV NE P0010 T01000094=
200503230737 SPECI KATL 230737Z VRB04KT 1/2SM R09R/2800V4500FT -TSRA FG OVC001CB 10/09 A2972 RMK AO2 TSB34RAB26 OCNL LTGIC SW-NE TS SW-NE MOV NE P0001=
200503230737 SPECI KATL 230737Z VRB04KT 1/2SM R09R/2800V4500FT -TSRA FG OVC001CB 10/09 A2972 RMK AO2 TSB34RAB26 OCNL LTGIC SW-NE TS SW-NE MOV NE P0001=
200503230651 METAR KATL 230651Z VRB05KT 1/2SM R09R/5500VP6000FT FG OVC001 09/09 A2970 RMK AO2 SLP056 T00940094=
200503230551 METAR KATL 230551Z 09010KT 1/2SM R09R/2800V4000FT FG OVC001 09/09 A2973 RMK AO2 SLP068 T00940094 10100 20094 58033=
200503230514 SPECI KATL 230514Z 07008KT 1/2SM R09R/1600V3000FT FG VV001 09/09 A2978 RMK AO2=
200503230514 SPECI KATL 230514Z 07008KT 1/2SM R09R/1600V3000FT FG VV001 09/09 A2978 RMK AO2=
200503230451 METAR KATL 230451Z 09011KT 1/4SM R09R/1600V2200FT FG VV001 09/09 A2979 RMK AO2 TWR VIS 1/2 SLP089 T00940094 401440089=
200503230436 SPECI KATL 230436Z 09007KT 1/4SM R09R/1600V1800FT FG VV001 09/09 A2981 RMK AO2 TWR VIS 1/2=
200503230436 SPECI KATL 230436Z 09007KT 1/4SM R09R/1600V1800FT FG VV001 09/09 A2981 RMK AO2 TWR VIS 1/2=
200503230424 SPECI KATL 230424Z 09007KT 1/4SM R09R/1600V3500FT FG VV001 09/09 A2982 RMK AO2 TWR VIS 1/2=
200503230424 SPECI KATL 230424Z 09007KT 1/4SM R09R/1600V3500FT FG VV001 09/09 A2982 RMK AO2 TWR VIS 1/2=
200503230415 SPECI KATL 230415Z 09008KT 1/4SM R09R/1800V2200FT FG VV001 09/09 A2982 RMK AO2 TWR VIS 1/2=
200503230415 SPECI KATL 230415Z 09008KT 1/4SM R09R/1800V2200FT FG VV001 09/09 A2982 RMK AO2 TWR VIS 1/2=
200503230351 METAR KATL 230351Z 08007KT 1/2SM R09R/2200V2600FT FG VV001 09/09 A2982 RMK AO2 SLP099 T00940094=
200503230332 SPECI KATL 230332Z 08008KT 1/2SM R09R/2400V3500FT FG VV001 09/09 A2982 RMK AO2=
200503230332 SPECI KATL 230332Z 08008KT 1/2SM R09R/2400V3500FT FG VV001 09/09 A2982 RMK AO2=
200503230251 METAR KATL 230251Z 08009KT 1/2SM R09R/3000V4500FT FG OVC002 09/09 A2983 RMK AO2 SLP103 T00940094 58008=
200503230209 SPECI KATL 230209Z 09009KT 3/4SM BR OVC002 09/09 A2985 RMK AO2 SFC VIS 1 3/4=
200503230209 SPECI KATL 230209Z 09009KT 3/4SM BR OVC002 09/09 A2985 RMK AO2 SFC VIS 1 3/4=
200503230151 METAR KATL 230151Z 07010KT 1 1/2SM BR OVC004 10/09 A2986 RMK AO2 SFC VIS 3 SLP110 T01000089=
200503230126 SPECI KATL 230126Z 08009KT 3SM BR OVC004 09/09 A2985 RMK AO2 SFC VIS 4=
200503230126 SPECI KATL 230126Z 08009KT 3SM BR OVC004 09/09 A2985 RMK AO2 SFC VIS 4=
200503230051 METAR KATL 230051Z 08012KT 6SM BR OVC006 10/09 A2985 RMK AO2 SLP108 T01000089=
200503222351 METAR KATL 222351Z 08012KT 5SM BR OVC006 10/09 A2986 RMK AO2 SLP111 60059 T01000089 10128 20100 55004=
200503222251 METAR KATL 222251Z 08013KT 5SM BR BKN006 BKN026 OVC050 10/09 A2985 RMK AO2 SLP107 T01000089=
200503222151 METAR KATL 222151Z 07019G24KT 6SM BR BKN006 BKN028 OVC050 11/09 A2984 RMK AO2 RAE07 SLP106 P0000 T01060094=
200503222051 METAR KATL 222051Z 02015KT 4SM -RA BR BKN006 BKN012 OVC044 11/10 A2987 RMK AO2 SLP116 LTG DSNT E AND SW CB DSNT E AND SW MOV ENE P0006 60059 T01110100 55007=
200503222013 SPECI KATL 222013Z 02012KT 6SM -RA BR BKN006 BKN012 OVC050 12/11 A2990 RMK AO2 LTG DSNT NE-E-SE-S CB DSNT NE-E-SE-S MOV ENE P0003=
200503222013 SPECI KATL 222013Z 02012KT 6SM -RA BR BKN006 BKN012 OVC050 12/11 A2990 RMK AO2 LTG DSNT NE-E-SE-S CB DSNT NE-E-SE-S MOV ENE P0003=
200503221958 SPECI KATL 221958Z 03013KT 2 1/2SM RA BR FEW006 BKN012 OVC060 12/11 A2988 RMK AO2 SFC VIS 4 PRESRR LTG DSNT NE-E-SE-S CB DSNT NE-E-SE-S MOV ENE P0002=
200503221958 SPECI KATL 221958Z 03013KT 2 1/2SM RA BR FEW006 BKN012 OVC060 12/11 A2988 RMK AO2 SFC VIS 4 PRESRR LTG DSNT NE-E-SE-S CB DSNT NE-E-SE-S MOV ENE P0002=
200503221951 METAR KATL 221951Z 03016KT 2 1/2SM -RA BR BKN008 BKN020 OVC060 12/11 A2987 RMK AO2 SFC VIS 4 TSB20E49 SLP114 LTG DSNT NE-E-SE-S TS MOV ENE CB DSNT NE-E-SE-S P0043 T01170106=
200503221934 SPECI KATL 221934Z 05017KT 1SM R09R/2200VP6000FT +TSRA BR OVC006CB 12/11 A2988 RMK AO2 TSB20 OCNL LTGICCG TS OHD-NE-E-SE MOV NE CB OHD-NE-E-SE MOV NE P0040=
200503221934 SPECI KATL 221934Z 05017KT 1SM R09R/2200VP6000FT +TSRA BR OVC006CB 12/11 A2988 RMK AO2 TSB20 OCNL LTGICCG TS OHD-NE-E-SE MOV NE CB OHD-NE-E-SE MOV NE P0040=
200503221930 SPECI KATL 221930Z 04008KT 1SM R09R/2200VP6000FT +TSRA BR OVC006CB 12/11 A2989 RMK AO2 TSB20 PRESRR OCNL LTGICCG TS OHD MOV NE CB OHD MOV NE P0026=
200503221930 SPECI KATL 221930Z 04008KT 1SM R09R/2200VP6000FT +TSRA BR OVC006CB 12/11 A2989 RMK AO2 TSB20 PRESRR OCNL LTGICCG TS OHD MOV NE CB OHD MOV NE P0026=
200503221923 SPECI KATL 221923Z 34012KT 1 1/2SM R09R/4000VP6000FT +TSRA BR OVC006CB 12/11 A2988 RMK AO2 TSB20 OCNL LTGICCG TS OHD MOV NE CB OHD MOV NE P0008=
200503221923 SPECI KATL 221923Z 34012KT 1 1/2SM R09R/4000VP6000FT +TSRA BR OVC006CB 12/11 A2988 RMK AO2 TSB20 OCNL LTGICCG TS OHD MOV NE CB OHD MOV NE P0008=
200503221921 SPECI KATL 221921Z 36012KT 1 1/2SM +TSRA BR OVC006CB 12/11 A2988 RMK AO2 SFC VIS 2 TSB20 OCNL LTGICCG TS VC SW MOV NE CB VC SW MOV NE P0006=
200503221921 SPECI KATL 221921Z 36012KT 1 1/2SM +TSRA BR OVC006CB 12/11 A2988 RMK AO2 SFC VIS 2 TSB20 OCNL LTGICCG TS VC SW MOV NE CB VC SW MOV NE P0006=
200503221912 SPECI KATL 221912Z 05012KT 2 1/2SM RA BR OVC006 12/11 A2987 RMK AO2 SFC VIS 3 LTG DSNT SE AND SW-W CB DSNT SE AND SW-W MOV NE P0002=
200503221912 SPECI KATL 221912Z 05012KT 2 1/2SM RA BR OVC006 12/11 A2987 RMK AO2 SFC VIS 3 LTG DSNT SE AND SW-W CB DSNT SE AND SW-W MOV NE P0002=
200503221851 METAR KATL 221851Z 05013KT 1 1/2SM -RA BR OVC006 12/11 A2988 RMK AO2 SFC VIS 4 CIG 005V011 SLP119 LTG DSNT SE AND SW-W CB DSNT SE AND=
200503221833 SPECI KATL 221833Z 07015G22KT 1 1/2SM -RA BR OVC008 12/11 A2986 RMK AO2 SFC VIS 2 1/2 CIG 006V012 LTG DSNT S AND W CB DSNT S AND W MOV NE P0009=
200503221833 SPECI KATL 221833Z 07015G22KT 1 1/2SM -RA BR OVC008 12/11 A2986 RMK AO2 SFC VIS 2 1/2 CIG 006V012 LTG DSNT S AND W CB DSNT S AND W MOV NE P0009=
200503221751 METAR KATL 221751Z 08016KT 1 1/2SM -RA BR OVC010 13/11 A2989 RMK AO2 SFC VIS 3 RAB18 SLP123 LTG DSNT SE-NW CB DSNT SE-NW MOV NE P0002 60002 T01280111 10144 20111 58032=
200503221744 SPECI KATL 221744Z 07017KT 1 1/2SM -RA BR OVC010 13/11 A2988 RMK AO2 SFC VIS 3 RAB18 LTG DSNT SE-NW CB DSNT SE-NW MOV NE P0001 $=
200503221744 SPECI KATL 221744Z 07017KT 1 1/2SM -RA BR OVC010 13/11 A2988 RMK AO2 SFC VIS 3 RAB18 LTG DSNT SE-NW CB DSNT SE-NW MOV NE P0001 $=
200503221651 METAR KATL 221651Z 08016G20KT 6SM HZ OVC012 14/11 A2992 RMK AO2 SLP131 T01390106 $=
200503221551 METAR KATL 221551Z 09014KT 6SM HZ OVC012 14/11 A2997 RMK AO2 SLP148 T01390106=
200503221451 METAR KATL 221451Z 09013KT 6SM HZ OVC010 13/09 A2999 RMK AO2 SLP156 T01280094 53008=
200503221351 METAR KATL 221351Z 09010KT 6SM HZ OVC010 12/09 A2998 RMK AO2 SLP153 T01220089=
200503221251 METAR KATL 221251Z 09012KT 7SM OVC010 12/08 A2997 RMK AO2 SLP148 T01170078=
200503221151 METAR KATL 221151Z 08012KT 9SM OVC012 11/07 A2997 RMK AO2 SLP148 T01110072 10111 20089 55000=
200503221051 METAR KATL 221051Z 08010KT 9SM OVC014 11/07 A2997 RMK AO2 SLP148 T01110072=
200503221024 SPECI KATL 221024Z 08010KT 9SM OVC014 11/07 A2996 RMK AO2=
200503221024 SPECI KATL 221024Z 08010KT 9SM OVC014 11/07 A2996 RMK AO2=
200503220951 METAR KATL 220951Z 08012KT 10SM OVC017 11/06 A2996 RMK AO2 SLP143 T01060061=
200503220918 SPECI KATL 220918Z 08011KT 10SM BKN017 OVC047 11/06 A2997 RMK AO2=
200503220918 SPECI KATL 220918Z 08011KT 10SM BKN017 OVC047 11/06 A2997 RMK AO2=
200503220851 METAR KATL 220851Z 08010KT 10SM SCT047 BKN060 10/06 A2997 RMK AO2 SLP147 T01000056 55006=
200503220751 METAR KATL 220751Z 08008KT 10SM FEW050 09/05 A2996 RMK AO2 SLP143 T00890050=
200503220651 METAR KATL 220651Z 07009KT 10SM FEW050 SCT055 10/04 A2997 RMK AO2 SLP145 T01000044=
200503220551 METAR KATL 220551Z 09008KT 10SM BKN050 BKN200 11/04 A2999 RMK AO2 SLP153 T01060044 10144 20100 58005=
200503220451 METAR KATL 220451Z 08010KT 10SM FEW095 BKN200 10/04 A3000 RMK AO2 SLP157 T01000039 401890100=
200503220351 METAR KATL 220351Z 08010KT 10SM BKN150 12/04 A3000 RMK AO2 SLP156 T01170039=
200503220251 METAR KATL 220251Z 08009KT 10SM SCT085 BKN150 13/04 A3000 RMK AO2 SLP158 T01280039 51005=
200503220151 METAR KATL 220151Z 08008KT 10SM BKN080 13/04 A3000 RMK AO2 SLP157 T01280039=
200503220051 METAR KATL 220051Z 06009KT 10SM FEW047 BKN060 OVC070 14/04 A3000 RMK AO2 SLP156 T01390039=
200503212351 METAR KATL 212351Z 07010KT 10SM OVC050 14/04 A2999 RMK AO2 RAE41 SLP153 P0000 60000 T01440039 10189 20139 53012=
200503212251 METAR KATL 212251Z 10006KT 10SM -RA OVC065 16/02 A2998 RMK AO2 RAE01B48 SLP150 P0000 T01610022=
200503212151 METAR KATL 212151Z 09010KT 10SM -RA BKN065 BKN075 OVC150 17/02 A2996 RMK AO2 RAB40 SLP142 P0000 T01720017=
200503212051 METAR KATL 212051Z 13007KT 10SM FEW065 BKN085 OVC150 18/01 A2995 RMK AO2 SLP139 BINOVC T01780011 56014=
200503211951 METAR KATL 211951Z 08010KT 10SM FEW050 BKN100 BKN150 BKN240 18/01 A2996 RMK AO2 SLP142 ACSL NW-N T01830011 $=
200503211851 METAR KATL 211851Z VRB06KT 10SM FEW065 BKN085 BKN150 BKN240 18/02 A2997 RMK AO2 SLP145 T01830017=
200503211751 METAR KATL 211751Z 07010KT 10SM SCT075 SCT090 BKN150 BKN240 17/01 A2999 RMK AO2 SLP154 60000 T01720011 10172 20117 58017=
200503211651 METAR KATL 211651Z 10008KT 10SM BKN065 BKN090 OVC150 16/01 A3003 RMK AO2 SLP166 T01610011=
200503211551 METAR KATL 211551Z 09007KT 10SM FEW070 BKN090 BKN150 16/02 A3004 RMK AO2 SLP171 T01560022=
200503211451 METAR KATL 211451Z 10005KT 10SM BKN070 OVC130 13/03 A3004 RMK AO2 SLP172 60000 T01330028 53011=
200503211351 METAR KATL 211351Z 02007KT 9SM BKN060 OVC130 13/03 A3003 RMK AO2 RAB13E29 SLP166 P0000 T01330028=
200503211251 METAR KATL 211251Z 00000KT 10SM BKN070 OVC150 12/05 A3002 RMK AO2 SLP164 T01220050=
200503211151 METAR KATL 211151Z 07003KT 10SM OVC080 12/04 A3001 RMK AO2 SLP161 60000 T01220039 10128 20111 53006=
200503211051 METAR KATL 211051Z 36010KT 10SM OVC085 13/03 A3000 RMK AO2 SLP158 T01280033=
200503210951 METAR KATL 210951Z 01005KT 10SM FEW070 OVC090 12/05 A3000 RMK AO2 RAE0853B26E36 SLP155 P0000 T01220050=
200503210851 METAR KATL 210851Z 35003KT 10SM -RA OVC080 12/05 A2999 RMK AO2 RAB26 SLP154 P0000 60000 T01220050 58012=
200503210751 METAR KATL 210751Z 00000KT 10SM OVC085 12/04 A3001 RMK AO2 SLP159 T01170044=
200503210651 METAR KATL 210651Z 28003KT 10SM OVC095 12/03 A3002 RMK AO2 SLP165 T01170033=
200503210551 METAR KATL 210551Z 00000KT 10SM FEW110 BKN200 12/03 A3003 RMK AO2 SLP166 T01220033 10156 20122 55001=
200503210451 METAR KATL 210451Z 22004KT 10SM FEW110 13/03 A3002 RMK AO2 SLP164 T01280033 401830056=
200503210351 METAR KATL 210351Z 34004KT 10SM OVC110 14/02 A3002 RMK AO2 SLP166 T01390017=
200503210251 METAR KATL 210251Z 30004KT 10SM SCT120 BKN180 14/02 A3003 RMK AO2 SLP169 T01440017 53001=
200503210151 METAR KATL 210151Z 32005KT 10SM BKN110 15/02 A3003 RMK AO2 SLP169 T01500022=
200503210051 METAR KATL 210051Z 30003KT 10SM SCT120 BKN180 16/02 A3003 RMK AO2 SLP167 T01560017=
200503202351 METAR KATL 202351Z 31006KT 10SM BKN120 BKN230 16/02 A3003 RMK AO2 SLP169 T01560017 10183 20156 55000=
200503202251 METAR KATL 202251Z 32006KT 10SM SCT130 BKN250 17/01 A3002 RMK AO2 SLP166 T01670011=
200503202151 METAR KATL 202151Z VRB05KT 10SM SCT130 BKN230 18/01 A3001 RMK AO2 SLP163 T01780006=
200503202051 METAR KATL 202051Z 33007KT 10SM BKN130 BKN230 18/01 A3003 RMK AO2 SLP167 T01780011 56021=
200503201951 METAR KATL 201951Z 29008KT 10SM BKN130 OVC230 18/02 A3003 RMK AO2 SLP169 T01780022=
200503201851 METAR KATL 201851Z 31009KT 10SM OVC230 18/02 A3006 RMK AO2 SLP179 T01780022=
200503201751 METAR KATL 201751Z VRB04KT 10SM OVC250 17/03 A3009 RMK AO2 SLP188 T01670033 10172 20061 58010=
200503201651 METAR KATL 201651Z 31004KT 10SM OVC250 16/04 A3011 RMK AO2 SLP194 T01560039=
200503201551 METAR KATL 201551Z 32006KT 10SM OVC250 14/07 A3012 RMK AO2 SLP201 T01390072=
200503201451 METAR KATL 201451Z 28006KT 7SM BKN250 11/07 A3012 RMK AO2 SLP200 T01110072 51012=
200503201351 METAR KATL 201351Z 29008KT 5SM BR BKN250 09/08 A3012 RMK AO2 SLP199 T00940078=
200503201251 METAR KATL 201251Z 27004KT 6SM BR FEW250 08/07 A3010 RMK AO2 SLP195 T00830072=
200503201151 METAR KATL 201151Z 27004KT 6SM BR SCT250 06/06 A3008 RMK AO2 SLP189 T00610056 10100 20056 52012=
200503201051 METAR KATL 201051Z 22004KT 9SM CLR 06/04 A3007 RMK AO2 SLP185 T00560044=
200503200951 METAR KATL 200951Z 27003KT 7SM CLR 07/06 A3006 RMK AO2 SLP179 T00720056=
200503200851 METAR KATL 200851Z 29003KT 9SM CLR 08/06 A3005 RMK AO2 SLP175 T00830056 58004=
200503200751 METAR KATL 200751Z 26004KT 8SM CLR 08/05 A3006 RMK AO2 SLP180 T00780050=
200503200651 METAR KATL 200651Z 28003KT 10SM CLR 08/04 A3006 RMK AO2 SLP181 T00830044=
200503200551 METAR KATL 200551Z 00000KT 10SM CLR 10/05 A3006 RMK AO2 SLP180 T01000050 10133 20100 57003=
200503200451 METAR KATL 200451Z 29004KT 10SM BKN250 11/05 A3006 RMK AO2 SLP180 T01060050 401440028=
200503200351 METAR KATL 200351Z 00000KT 9SM SCT050 11/06 A3007 RMK AO2 SLP182 T01060056=
200503200251 METAR KATL 200251Z 00000KT 10SM BKN045 12/05 A3007 RMK AO2 SLP183 T01170050 51008=
200503200151 METAR KATL 200151Z 00000KT 10SM BKN065 12/04 A3006 RMK AO2 SLP182 T01170044=
200503200051 METAR KATL 200051Z 27003KT 10SM SCT050 13/04 A3005 RMK AO2 SLP180 T01280039=
200503192351 METAR KATL 192351Z 27003KT 10SM SCT055 OVC075 13/03 A3005 RMK AO2 SLP178 T01280033 10144 20122 51002=
200503192251 METAR KATL 192251Z 22003KT 10SM BKN080 13/03 A3004 RMK AO2 SLP177 T01330028=
200503192151 METAR KATL 192151Z 24007KT 10SM SCT060 BKN065 14/02 A3005 RMK AO2 SLP177 T01390022=
200503192051 METAR KATL 192051Z 17008KT 10SM BKN085 OVC200 13/02 A3004 RMK AO2 PRESFR SLP175 T01330022 58027=
200503191951 METAR KATL 191951Z 23006KT 10SM SCT046 BKN090 OVC200 13/03 A3007 RMK AO2 SLP185 T01330028=
200503191851 METAR KATL 191851Z 24006KT 10SM BKN043 OVC200 13/03 A3011 RMK AO2 SLP196 T01330033=
200503191751 METAR KATL 191751Z 23008KT 10SM SCT038 BKN110 13/03 A3012 RMK AO2 SLP202 T01280033 10128 20028 50003=
200503191651 METAR KATL 191651Z 20007KT 10SM FEW110 OVC230 11/03 A3013 RMK AO2 SLP204 T01110033=
200503191551 METAR KATL 191551Z 19007KT 10SM FEW110 OVC230 10/03 A3013 RMK AO2 SLP206 T01000033=
200503191451 METAR KATL 191451Z 20007KT 10SM OVC250 09/03 A3012 RMK AO2 SLP201 T00890033 53009=
200503191351 METAR KATL 191351Z 15003KT 8SM BKN250 08/04 A3009 RMK AO2 SLP193 T00780039=
200503191251 METAR KATL 191251Z 00000KT 8SM BKN250 05/03 A3010 RMK AO2 SLP195 T00500028 $=
200503191151 METAR KATL 191151Z 00000KT 8SM BKN250 03/02 A3009 RMK AO2 SLP192 T00280017 10061 20028 51007=
200503191051 METAR KATL 191051Z 00000KT 8SM CLR 04/02 A3008 RMK AO2 SLP190 T00390017=
200503190951 METAR KATL 190951Z 27003KT 9SM CLR 04/02 A3007 RMK AO2 SLP185 T00440022=
200503190851 METAR KATL 190851Z 27004KT 8SM CLR 04/02 A3006 RMK AO2 SLP183 T00440022 53004=
200503190751 METAR KATL 190751Z 25004KT 9SM CLR 04/02 A3006 RMK AO2 SLP183 T00440022=
200503190651 METAR KATL 190651Z 15003KT 10SM CLR 05/03 A3005 RMK AO2 SLP178 T00500028=
200503190551 METAR KATL 190551Z 00000KT 10SM CLR 06/02 A3005 RMK AO2 SLP180 T00560022 10111 20056 56006=
200503190451 METAR KATL 190451Z 00000KT 10SM FEW250 07/02 A3005 RMK AO2 SLP179 T00670022 401280006=
200503190351 METAR KATL 190351Z 00000KT 10SM FEW250 07/02 A3007 RMK AO2 SLP186 T00720022=
200503190251 METAR KATL 190251Z 00000KT 10SM FEW250 08/02 A3007 RMK AO2 SLP187 T00830022 51019=
200503190151 METAR KATL 190151Z 00000KT 10SM FEW200 SCT250 09/02 A3006 RMK AO2 SLP183 T00890017=
200503190051 METAR KATL 190051Z 18003KT 10SM SCT200 SCT250 10/02 A3004 RMK AO2 SLP176 T01000017=
200503182351 METAR KATL 182351Z 14004KT 10SM SCT200 SCT250 11/00 A3001 RMK AO2 SLP168 T01110000 10128 20100 51006=
200503182251 METAR KATL 182251Z 14006KT 10SM FEW055 SCT200 SCT250 12/M01 A3001 RMK AO2 SLP165 T01221006=
200503182151 METAR KATL 182151Z 12007KT 10SM FEW055 SCT200 SCT250 13/M01 A3001 RMK AO2 SLP165 T01281011=
200503182051 METAR KATL 182051Z 14007KT 10SM FEW055 SCT200 BKN250 12/M02 A2999 RMK AO2 SLP161 T01221017 56014=
200503181951 METAR KATL 181951Z 13008KT 10SM FEW050 SCT200 BKN250 12/M01 A3000 RMK AO2 SLP160 T01221011=
200503181851 METAR KATL 181851Z 12009KT 10SM FEW045 SCT200 BKN250 12/00 A3001 RMK AO2 SLP164 T01220000=
200503181751 METAR KATL 181751Z 08010KT 10SM FEW045 SCT200 SCT250 10/01 A3004 RMK AO2 SLP175 T01000006 10106 20011 58006=
200503181651 METAR KATL 181651Z 08008KT 10SM SCT040 SCT200 SCT250 09/01 A3008 RMK AO2 SLP189 T00940011=
200503181551 METAR KATL 181551Z 07011KT 10SM FEW030 SCT200 BKN250 08/01 A3006 RMK AO2 SLP184 T00830006=
200503181451 METAR KATL 181451Z 06013KT 10SM FEW025 SCT200 SCT250 06/00 A3006 RMK AO2 SLP184 T00610000 51017=
200503181351 METAR KATL 181351Z 07009KT 10SM FEW025 SCT130 SCT210 04/00 A3005 RMK AO2 SLP182 T00440000=
200503181251 METAR KATL 181251Z 09009KT 10SM CLR 03/00 A3002 RMK AO2 SLP172 T00280000=
200503181151 METAR KATL 181151Z 07005KT 10SM CLR 01/M01 A3000 RMK AO2 SLP168 T00111006 10039 20006 53002=
200503181051 METAR KATL 181051Z 08007KT 10SM CLR 01/M01 A2999 RMK AO2 SLP164 T00111006=
200503180951 METAR KATL 180951Z 04007KT 9SM SCT070 03/00 A2999 RMK AO2 SLP162 T00280000=
200503180851 METAR KATL 180851Z 03009KT 9SM BKN070 OVC130 03/00 A3000 RMK AO2 SLP165 T00330000 50001=
200503180751 METAR KATL 180751Z 03007KT 9SM OVC070 04/00 A3001 RMK AO2 SLP167 T00390000=
200503180651 METAR KATL 180651Z 02008KT 9SM OVC070 04/01 A3000 RMK AO2 SLP167 T00390006=
200503180551 METAR KATL 180551Z 04007KT 9SM FEW027 OVC065 04/01 A3000 RMK AO2 SLP164 T00390006 10039 20033 53001=
200503180542 SPECI KATL 180542Z 04007KT 9SM SCT027 OVC065 04/01 A2999 RMK AO2=
200503180542 SPECI KATL 180542Z 04007KT 9SM SCT027 OVC065 04/01 A2999 RMK AO2=
200503180451 METAR KATL 180451Z 04007KT 9SM OVC027 04/01 A2999 RMK AO2 SLP162 T00390006 400440033=
200503180351 METAR KATL 180351Z 07009KT 10SM SCT018 OVC027 04/01 A2999 RMK AO2 SLP162 T00390006=
200503180251 METAR KATL 180251Z 07009KT 9SM OVC021 04/01 A2999 RMK AO2 SLP162 T00390006 51012=
200503180151 METAR KATL 180151Z 08009KT 9SM OVC021 03/01 A2999 RMK AO2 SLP161 T00330011=
200503180051 METAR KATL 180051Z 09008KT 10SM OVC018 04/01 A2998 RMK AO2 SLP160 T00390011=
200503172351 METAR KATL 172351Z 07011KT 8SM OVC016 03/01 A2996 RMK AO2 SLP150 60000 T00330011 10039 20033 53015=
200503172251 METAR KATL 172251Z 07011KT 6SM BR OVC014 03/01 A2994 RMK AO2 SLP145 T00330011=
200503172151 METAR KATL 172151Z 05011KT 7SM FEW010 BKN012 OVC015 04/01 A2991 RMK AO2 SLP136 T00390011=
200503172051 METAR KATL 172051Z 04013KT 6SM BR OVC010 03/01 A2991 RMK AO2 SLP134 60000 T00330011 56005=
200503172020 SPECI KATL 172020Z 07011KT 6SM BR OVC010 03/01 A2990 RMK AO2=
200503172020 SPECI KATL 172020Z 07011KT 6SM BR OVC010 03/01 A2990 RMK AO2=
200503171951 METAR KATL 171951Z 04011KT 6SM BR OVC009 03/01 A2991 RMK AO2 DZE43 SLP135 P0000 T00330011=
200503171905 SPECI KATL 171905Z 04011KT 4SM -DZ BR OVC007 03/02 A2990 RMK AO2 P0000=
200503171905 SPECI KATL 171905Z 04011KT 4SM -DZ BR OVC007 03/02 A2990 RMK AO2 P0000=
200503171851 METAR KATL 171851Z 04013KT 6SM -DZ BR OVC010 03/02 A2991 RMK AO2 DZB48 CIG 007V012 SLP134 P0000 T00330017=
200503171751 METAR KATL 171751Z 07012KT 9SM BKN010 BKN015 OVC018 03/01 A2992 RMK AO2 DZE41 SLP139 P0000 60000 T00330011 10039 20033 56002=
200503171651 METAR KATL 171651Z 08012KT 020V090 8SM -DZ FEW009 BKN014 OVC020 03/01 A2993 RMK AO2 DZB42 SLP140 P0000 T00330011=
200503171614 SPECI KATL 171614Z 07014KT 6SM BR FEW009 BKN014 OVC020 03/02 A2991 RMK AO2=
200503171614 SPECI KATL 171614Z 07014KT 6SM BR FEW009 BKN014 OVC020 03/02 A2991 RMK AO2=
200503171551 METAR KATL 171551Z 07013KT 6SM BR BKN010 BKN015 OVC020 03/02 A2992 RMK AO2 DZE11 SLP137 P0000 T00330022=
200503171536 SPECI KATL 171536Z 06016KT 6SM BR BKN010 BKN015 OVC026 03/02 A2991 RMK AO2 DZE11 CIG 007V011 PRESFR P0000=
200503171536 SPECI KATL 171536Z 06016KT 6SM BR BKN010 BKN015 OVC026 03/02 A2991 RMK AO2 DZE11 CIG 007V011 PRESFR P0000=
200503171524 SPECI KATL 171524Z 08011KT 6SM BR SCT008 BKN016 OVC026 04/03 A2993 RMK AO2 DZE11 P0000=
200503171524 SPECI KATL 171524Z 08011KT 6SM BR SCT008 BKN016 OVC026 04/03 A2993 RMK AO2 DZE11 P0000=
200503171511 SPECI KATL 171511Z 07013KT 6SM BR BKN008 BKN012 OVC017 03/02 A2993 RMK AO2 DZE11 CIG 006V011 P0000=
200503171511 SPECI KATL 171511Z 07013KT 6SM BR BKN008 BKN012 OVC017 03/02 A2993 RMK AO2 DZE11 CIG 006V011 P0000=
200503171451 METAR KATL 171451Z 07011KT 1 1/2SM -DZ BR FEW005 BKN008 OVC022 03/02 A2993 RMK AO2 SFC VIS 3 RAE47DZB47 SLP141 DZE19RAB19 P0000 60000 T00330022 50015=
200503171351 METAR KATL 171351Z 07010KT 1 1/2SM -RA BR BKN008 OVC014 03/02 A2995 RMK AO2 CIG 005V011 SLP146 DZE19RAB19 P0000 T00330022=
200503171317 SPECI KATL 171317Z 08013KT 1 1/2SM -DZ BR BKN008 OVC014 03/02 A2993 RMK AO2 SFC VIS 2 1/2 CIG 004V010 P0000=
200503171317 SPECI KATL 171317Z 08013KT 1 1/2SM -DZ BR BKN008 OVC014 03/02 A2993 RMK AO2 SFC VIS 2 1/2 CIG 004V010 P0000=
200503171251 METAR KATL 171251Z 08012KT 2 1/2SM -DZ BR OVC008 03/03 A2992 RMK AO2 DZB48 CIG 006V012 SLP136 P0000 T00330028=
200503171223 SPECI KATL 171223Z 07014KT 2 1/2SM BR OVC008 03/02 A2989 RMK AO2 SFC VIS 3 CIG 007V012=
200503171223 SPECI KATL 171223Z 07014KT 2 1/2SM BR OVC008 03/02 A2989 RMK AO2 SFC VIS 3 CIG 007V012=
200503171151 METAR KATL 171151Z 05012KT 6SM BR BKN008 OVC016 04/03 A2989 RMK AO2 CIG 006V010 SLP125 60001 70033 T00390028 10044 20033 53013=
200503171143 SPECI KATL 171143Z 05012KT 10SM BKN008 OVC016 04/03 A2988 RMK AO2 CIG 006V011=
200503171143 SPECI KATL 171143Z 05012KT 10SM BKN008 OVC016 04/03 A2988 RMK AO2 CIG 006V011=
200503171135 SPECI KATL 171135Z 07012KT 10SM BKN010 OVC016 04/02 A2988 RMK AO2 CIG 007V014=
200503171135 SPECI KATL 171135Z 07012KT 10SM BKN010 OVC016 04/02 A2988 RMK AO2 CIG 007V014=
200503171051 METAR KATL 171051Z 05011KT 10SM OVC006 04/03 A2985 RMK AO2 RAE39 CIG 005V009 SLP114 P0000 T00390028=
200503170951 METAR KATL 170951Z 08007KT 3SM -RA BR OVC006 04/03 A2985 RMK AO2 SFC VIS 4 RAB34 CIG 004V011 SLP115 P0000 T00390028=
200503170851 METAR KATL 170851Z 08012KT 3SM BR BKN008 OVC013 04/03 A2985 RMK AO2 RAE05 CIG 005V011 SLP112 P0000 60001 T00390028 58004=
200503170759 SPECI KATL 170759Z 10009KT 3SM -RA BR BKN008 OVC012 04/03 A2987 RMK AO2 SFC VIS 4 CIG 005V009 P0000=
200503170759 SPECI KATL 170759Z 10009KT 3SM -RA BR BKN008 OVC012 04/03 A2987 RMK AO2 SFC VIS 4 CIG 005V009 P0000=
200503170751 METAR KATL 170751Z 09009KT 3SM -RA BR OVC010 04/03 A2987 RMK AO2 SFC VIS 4 CIG 006V014 SLP121 P0001 T00390028=
200503170716 SPECI KATL 170716Z 07010KT 3SM -RA BR BKN006 OVC010 04/03 A2985 RMK AO2 SFC VIS 5 CIG 004V010 P0000=
200503170716 SPECI KATL 170716Z 07010KT 3SM -RA BR BKN006 OVC010 04/03 A2985 RMK AO2 SFC VIS 5 CIG 004V010 P0000=
200503170706 SPECI KATL 170706Z 07012KT 3SM BR OVC010 04/03 A2985 RMK AO2 SFC VIS 4 RAE0657 CIG 004V012 P0000=
200503170706 SPECI KATL 170706Z 07012KT 3SM BR OVC010 04/03 A2985 RMK AO2 SFC VIS 4 RAE0657 CIG 004V012 P0000=
200503170651 METAR KATL 170651Z 07012KT 3SM -RA BR BKN005 OVC010 04/03 A2986 RMK AO2 SFC VIS 4 RAB0555 CIG 004V009 SLP115 P0000 T00390033=
200503170551 METAR KATL 170551Z 08012KT 3SM BR BKN010 OVC013 04/03 A2986 RMK AO2 SFC VIS 5 CIG 006V012 SLP115 60000 T00440033 10056 20044 55007=
200503170515 SPECI KATL 170515Z 08015KT 3SM BR OVC010 04/03 A2985 RMK AO2 SFC VIS 5=
200503170515 SPECI KATL 170515Z 08015KT 3SM BR OVC010 04/03 A2985 RMK AO2 SFC VIS 5=
200503170451 METAR KATL 170451Z 08018KT 2SM BR OVC010 04/03 A2984 RMK AO2 SFC VIS 2 1/2 RAB0355E06 CIG 006V015 SLP108 P0000 T00440033 401000044=
200503170351 METAR KATL 170351Z 07011KT 2SM BR OVC006 04/04 A2988 RMK AO2 SFC VIS 2 1/2 CIG 004V011 SLP122 T00440039=
200503170342 SPECI KATL 170342Z 07010KT 2 1/2SM BR BKN008 OVC013 04/04 A2988 RMK AO2 CIG 005V010=
200503170342 SPECI KATL 170342Z 07010KT 2 1/2SM BR BKN008 OVC013 04/04 A2988 RMK AO2 CIG 005V010=
200503170335 SPECI KATL 170335Z 07010KT 9SM BKN010 OVC019 04/04 A2988 RMK AO2 CIG 006V012=
200503170335 SPECI KATL 170335Z 07010KT 9SM BKN010 OVC019 04/04 A2988 RMK AO2 CIG 006V012=
200503170251 METAR KATL 170251Z 07013KT 7SM BKN008 OVC015 05/04 A2988 RMK AO2 CIG 005V012 SLP123 60000 T00500039 51003=
200503170209 SPECI KATL 170209Z 06013KT 7SM BKN008 BKN015 OVC020 05/04 A2988 RMK AO2 CIG 007V013=
200503170209 SPECI KATL 170209Z 06013KT 7SM BKN008 BKN015 OVC020 05/04 A2988 RMK AO2 CIG 007V013=
200503170151 METAR KATL 170151Z 07014KT 6SM BR BKN010 BKN013 OVC020 05/04 A2988 RMK AO2 CIG 006V012 SLP122 T00500039=
200503170051 METAR KATL 170051Z 07012KT 8SM BKN011 OVC017 05/04 A2988 RMK AO2 RAE01 SLP121 P0000 T00500039=
200503170022 SPECI KATL 170022Z 07014KT 8SM BKN010 OVC015 05/04 A2988 RMK AO2 RAE01 CIG 006V013 P0000=
200503170022 SPECI KATL 170022Z 07014KT 8SM BKN010 OVC015 05/04 A2988 RMK AO2 RAE01 CIG 006V013 P0000=
200503162351 METAR KATL 162351Z 05013KT 6SM -RA BR OVC007 06/04 A2987=
200503162314 SPECI KATL 162314Z 07013KT 6SM BR BKN009 BKN016 OVC030 06/04 A2985 RMK AO2 RAE14 P0001=
200503162314 SPECI KATL 162314Z 07013KT 6SM BR BKN009 BKN016 OVC030 06/04 A2985 RMK AO2 RAE14 P0001=
200503162307 SPECI KATL 162307Z 07013KT 6SM -RA BR BKN011 OVC019 06/04 A2985 RMK AO2 CIG 007V013 P0001=
200503162307 SPECI KATL 162307Z 07013KT 6SM -RA BR BKN011 OVC019 06/04 A2985 RMK AO2 CIG 007V013 P0001=
200503162251 METAR KATL 162251Z 06015KT 2 1/2SM -RA BR BKN011 OVC018 06/04 A2985 RMK AO2 SFC VIS 5 SLP113 P0002 T00560044=
200503162230 SPECI KATL 162230Z 07013KT 2 1/2SM -RA BR BKN009 OVC015 06/04 A2985 RMK AO2 SFC VIS 5 CIG 006V013 P0001=
200503162230 SPECI KATL 162230Z 07013KT 2 1/2SM -RA BR BKN009 OVC015 06/04 A2985 RMK AO2 SFC VIS 5 CIG 006V013 P0001=
200503162223 SPECI KATL 162223Z 06013KT 2 1/2SM -RA BR SCT007 OVC015 06/04 A2984 RMK AO2 SFC VIS 5 P0001=
200503162223 SPECI KATL 162223Z 06013KT 2 1/2SM -RA BR SCT007 OVC015 06/04 A2984 RMK AO2 SFC VIS 5 P0001=
200503162203 SPECI KATL 162203Z 06013KT 2 1/2SM -RA SCT007 OVC015 06/04 A2985 RMK AO2 SFC VIS 9 P0000=
200503162203 SPECI KATL 162203Z 06013KT 2 1/2SM -RA SCT007 OVC015 06/04 A2985 RMK AO2 SFC VIS 9 P0000=
200503162151 METAR KATL 162151Z 06017G21KT 2 1/2SM -RA BR BKN009 BKN013 OVC017 06/04 A2984 RMK AO2 SFC VIS 4 CIG 005V011 SLP110 P0003 T00560044=
200503162051 METAR KATL 162051Z 06015KT 2 1/2SM -RA BR BKN007 BKN011 OVC017 06/05 A2985 RMK AO2 SFC VIS 4 DZE1959RAB1959 SLP114 P0001 60004 T00610050 56009=
200503162033 SPECI KATL 162033Z 06013KT 2 1/2SM BR BKN007 BKN011 OVC017 06/05 A2984 RMK AO2 SFC VIS 4 DZE1959RAB1959E33 P0001=
200503162033 SPECI KATL 162033Z 06013KT 2 1/2SM BR BKN007 BKN011 OVC017 06/05 A2984 RMK AO2 SFC VIS 4 DZE1959RAB1959E33 P0001=
200503161959 SPECI KATL 161959Z 06016KT 1 1/2SM R09R/5500VP6000FT -RA BR BKN007 OVC014 06/05 A2985 RMK AO2 SFC VIS 2 DZE59RAB59 CIG 005V010 P0001=
200503161959 SPECI KATL 161959Z 06016KT 1 1/2SM R09R/5500VP6000FT -RA BR BKN007 OVC014 06/05 A2985 RMK AO2 SFC VIS 2 DZE59RAB59 CIG 005V010 P0001=
200503161951 METAR KATL 161951Z 06013KT 2SM R09R/6000VP6000FT -DZ BR BKN007 OVC014 06/05 A2986 RMK AO2 RAE36DZB43 CIG 005V010 SLP114 P0000 T00610050=
200503161851 METAR KATL 161851Z 07017KT 2SM -RA BR FEW007 BKN009 OVC015 06/05 A2986 RMK AO2 SFC VIS 3 RAB07 SLP116 P0003 T00610050=
200503161813 SPECI KATL 161813Z 07017KT 2SM -RA BR FEW007 BKN009 OVC015 06/05 A2987 RMK AO2 SFC VIS 3 RAB07 P0000=
200503161751 METAR KATL 161751Z 06015KT 8SM OVC009 06/05 A2988 RMK AO2 RAE04 SLP122 P0000 60022 T00610050 10067 20061 58005=
200503161712 SPECI KATL 161712Z 06016KT 6SM BR BKN007 OVC012 06/06 A2986 RMK AO2 RAE04 CIG 005V008 P0000=
200503161712 SPECI KATL 161712Z 06016KT 6SM BR BKN007 OVC012 06/06 A2986 RMK AO2 RAE04 CIG 005V008 P0000=
200503161651 METAR KATL 161651Z 07018KT 3SM -RA BR BKN007 BKN012 OVC018 07/06 A2988 RMK AO2 SFC VIS 5 PRESFR SLP120 P0011 T00670056=
200503161623 SPECI KATL 161623Z 07016KT 2 1/2SM RA BR OVC009 06/06 A2992 RMK AO2 SFC VIS 3 CIG 006V013 P0007=
200503161623 SPECI KATL 161623Z 07016KT 2 1/2SM RA BR OVC009 06/06 A2992 RMK AO2 SFC VIS 3 CIG 006V013 P0007=
200503161609 SPECI KATL 161609Z 07013KT 1 1/2SM RA BR BKN007 OVC011 06/06 A2992 RMK AO2 SFC VIS 2 1/2 CIG 006V010 P0002=
200503161609 SPECI KATL 161609Z 07013KT 1 1/2SM RA BR BKN007 OVC011 06/06 A2992 RMK AO2 SFC VIS 2 1/2 CIG 006V010 P0002=
200503161551 METAR KATL 161551Z 07015KT 6SM -RA BR FEW005 BKN007 OVC011 07/06 A2992 RMK AO2 SLP135 P0002 T00670056=
200503161451 METAR KATL 161451Z 07015KT 5SM -RA BR FEW005 BKN007 OVC010 07/06 A2990 RMK AO2 SLP126 P0001 60009 T00670056 58006=
200503161410 SPECI KATL 161410Z 08016KT 6SM -RA BR BKN007 BKN015 OVC030 07/06 A2990 RMK AO2 P0000=
200503161410 SPECI KATL 161410Z 08016KT 6SM -RA BR BKN007 BKN015 OVC030 07/06 A2990 RMK AO2 P0000=
200503161351 METAR KATL 161351Z 08013KT 2SM -RA BR OVC007 06/06 A2991 RMK AO2 CIG 005V013 SLP130 P0007 T00610056=
200503161251 METAR KATL 161251Z 08016KT 1 1/2SM -RA BR BKN007 OVC028 06/06 A2992 RMK AO2 CIG 005V012 SLP133 P0001 T00610056=
200503161151 METAR KATL 161151Z 08016G21KT 2SM -RA BR BKN007 OVC013 06/06 A2992 RMK AO2 SFC VIS 2 1/2 CIG 005V010 SLP132 P0002 60020 70028 T00610056 10089 20061 55004=
200503161051 METAR KATL 161051Z 05015KT 2SM -RA BR OVC007 07/06 A2991 RMK AO2 SFC VIS 3 CIG 005V011 SLP127 P0005 T00670056=
200503160951 METAR KATL 160951Z 05011KT 2SM -RA BR OVC007 07/06 A2991 RMK AO2 SFC VIS 3 CIG 005V011 SLP129 P0007 T00670061=
200503160944 SPECI KATL 160944Z 05014G19KT 2SM -RA BR BKN007 OVC012 07/06 A2992 RMK AO2 SFC VIS 3 CIG 006V010 P0007=
200503160944 SPECI KATL 160944Z 05014G19KT 2SM -RA BR BKN007 OVC012 07/06 A2992 RMK AO2 SFC VIS 3 CIG 006V010 P0007=
200503160930 SPECI KATL 160930Z 06015KT 3SM -RA BR BKN007 OVC019 07/06 A2992 RMK AO2 CIG 005V012 P0002=
200503160930 SPECI KATL 160930Z 06015KT 3SM -RA BR BKN007 OVC019 07/06 A2992 RMK AO2 CIG 005V012 P0002=
200503160913 SPECI KATL 160913Z 07011KT 4SM -RA BR SCT007 BKN019 OVC027 07/06 A2993 RMK AO2 P0001=
200503160913 SPECI KATL 160913Z 07011KT 4SM -RA BR SCT007 BKN019 OVC027 07/06 A2993 RMK AO2 P0001=
200503160851 METAR KATL 160851Z 07012KT 4SM RA BR OVC027 07/06 A2993 RMK AO2 SLP136 P0005 60006 T00720061 56022=
200503160751 METAR KATL 160751Z 06013KT 4SM RA BR OVC025 08/06 A2994 RMK AO2 SLP139 P0000 T00780061=
200503160651 METAR KATL 160651Z 06011KT 7SM -RA OVC027 08/07 A2997 RMK AO2 SLP148 P0001 T00830067=
200503160551 METAR KATL 160551Z 06012KT 7SM -RA BKN029 OVC049 09/07 A3000 RMK AO2 SLP159 P0005 60008 T00890072 10133 20089 58017=
200503160451 METAR KATL 160451Z 06008KT 6SM -RA OVC033 10/07 A3005 RMK AO2 SLP175 P0003 T01000067 401500044=
200503160351 METAR KATL 160351Z 09012KT 10SM -RA SCT033 OVC075 11/07 A3002 RMK AO2 RAB21 SLP167 P0000 T01060067=
200503160251 METAR KATL 160251Z 09010KT 10SM OVC035 12/05 A3005 RMK AO2 SLP176 60000 T01220050 55009=
200503160151 METAR KATL 160151Z 08012KT 10SM SCT039 OVC110 12/05 A3004 RMK AO2 SLP174 T01220050=
200503160051 METAR KATL 160051Z 08011KT 10SM FEW045 OVC090 13/06 A3006 RMK AO2 RAE11 PRESFR SLP181 P0000 T01280056=
200503152351 METAR KATL 152351Z 09010KT 10SM -RA OVC090 13/05 A3008 RMK AO2 RAB43 SLP186 P0000 60000 T01330050 10150 20133 53012=
200503152251 METAR KATL 152251Z 07011KT 10SM FEW120 SCT150 BKN180 OVC250 14/04 A3005 RMK AO2 SLP178 T01390044=
200503152151 METAR KATL 152151Z 08010KT 050V110 10SM FEW120 SCT150 BKN180 OVC230 15/04 A3004 RMK AO2 SLP175 VIRGA DSNT N T01500044=
200503152051 METAR KATL 152051Z 08008KT 10SM FEW120 BKN150 OVC180 15/04 A3004 RMK AO2 SLP173 T01500039 56021=
200503151951 METAR KATL 151951Z 13009KT 10SM FEW120 SCT150 BKN180 BKN230 15/04 A3006 RMK AO2 SLP179 T01500039=
200503151851 METAR KATL 151851Z 08006KT 10SM FEW065 BKN150 BKN230 14/03 A3008 RMK AO2 SLP188 T01440033=
200503151751 METAR KATL 151751Z 11008KT 10SM FEW100 SCT150 SCT230 13/04 A3010 RMK AO2 SLP195 T01330039 10144 20056 58022=
200503151651 METAR KATL 151651Z 09010KT 10SM FEW030 SCT100 SCT230 13/05 A3014 RMK AO2 SLP206 T01280050=
200503151608 SPECI KATL 151608Z 07012KT 10SM FEW025 SCT100 SCT230 11/05 A3016 RMK AO2=
200503151608 SPECI KATL 151608Z 07012KT 10SM FEW025 SCT100 SCT230 11/05 A3016 RMK AO2=
200503151551 METAR KATL 151551Z 08013KT 10SM BKN025 BKN120 BKN230 11/05 A3016 RMK AO2 SLP215 T01110050=
200503151530 SPECI KATL 151530Z 07013KT 10SM BKN025 BKN035 BKN120 BKN230 11/05 A3016 RMK AO2=
200503151530 SPECI KATL 151530Z 07013KT 10SM BKN025 BKN035 BKN120 BKN230 11/05 A3016 RMK AO2=
200503151451 METAR KATL 151451Z 06012KT 10SM FEW020 BKN035 BKN120 BKN230 10/04 A3017 RMK AO2 SLP217 T01000044 50015=
200503151351 METAR KATL 151351Z 05010KT 7SM FEW013 BKN030 OVC120 08/05 A3018 RMK AO2 SLP221 T00830050=
200503151327 SPECI KATL 151327Z 06010KT 7SM SCT013 OVC030 08/05 A3015 RMK AO2 BINOVC ALQDS=
200503151327 SPECI KATL 151327Z 06010KT 7SM SCT013 OVC030 08/05 A3015 RMK AO2 BINOVC ALQDS=
200503151251 METAR KATL 151251Z 08009KT 9SM FEW008 BKN015 OVC026 07/04 A3016 RMK AO2 SLP212 BINOVC ALQDS T00720039=
200503151234 SPECI KATL 151234Z 02006KT 10SM FEW006 BKN017 OVC026 07/01 A3015 RMK AO2=
200503151234 SPECI KATL 151234Z 02006KT 10SM FEW006 BKN017 OVC026 07/01 A3015 RMK AO2=
200503151226 SPECI KATL 151226Z 35006KT 10SM SCT010 BKN017 OVC026 07/01 A3015 RMK AO2=
200503151226 SPECI KATL 151226Z 35006KT 10SM SCT010 BKN017 OVC026 07/01 A3015 RMK AO2=
200503151151 METAR KATL 151151Z 35005KT 10SM OVC017 06/M01 A3013 RMK AO2 SLP203 T00611011 10083 20044 53029=
200503151138 SPECI KATL 151138Z 34005KT 10SM BKN017 BKN120 05/M01 A3012 RMK AO2=
200503151138 SPECI KATL 151138Z 34005KT 10SM BKN017 BKN120 05/M01 A3012 RMK AO2=
200503151051 METAR KATL 151051Z 32005KT 10SM FEW120 04/M02 A3009 RMK AO2 SLP190 T00441017=
200503150951 METAR KATL 150951Z 31005KT 10SM SCT016 05/M02 A3005 RMK AO2 SLP178 T00501017=
200503150851 METAR KATL 150851Z 36008KT 10SM BKN016 BKN150 07/M02 A3004 RMK AO2 SLP172 T00671022 58007=
200503150751 METAR KATL 150751Z 36007KT 10SM SCT150 07/M02 A3005 RMK AO2 SLP175 T00721022=
200503150651 METAR KATL 150651Z 36007KT 10SM FEW150 08/M02 A3005 RMK AO2 SLP178 T00781022=
200503150551 METAR KATL 150551Z 35008KT 10SM FEW150 08/M02 A3006 RMK AO2 SLP180 T00831017 10139 20083 53013=
200503150451 METAR KATL 150451Z 33008KT 10SM BKN150 09/M01 A3004 RMK AO2 SLP174 T00891011 401670089=
200503150351 METAR KATL 150351Z 34010KT 10SM SCT150 10/M01 A3003 RMK AO2 SLP171 T01001011=
200503150251 METAR KATL 150251Z 33010KT 10SM SCT150 11/M01 A3002 RMK AO2 SLP167 T01061011 51018=
200503150151 METAR KATL 150151Z 35008KT 10SM CLR 12/M01 A3001 RMK AO2 SLP163 T01221006=
200503150051 METAR KATL 150051Z 34011KT 10SM SCT070 BKN150 13/01 A2999 RMK AO2 SLP157 T01330006=
200503142351 METAR KATL 142351Z 32008KT 10SM SCT070 BKN150 14/01 A2996 RMK AO2 SLP147 T01390011 10167 20139 53015=
200503142251 METAR KATL 142251Z 33010KT 10SM FEW050 BKN070 16/02 A2993 RMK AO2 SLP133 T01610022=
200503142151 METAR KATL 142151Z 30012KT 10SM FEW050 BKN070 16/04 A2993 RMK AO2 SLP132 T01610044=
200503142051 METAR KATL 142051Z 34010KT 8SM FEW040 BKN070 16/07 A2992 RMK AO2 SLP129 T01610067 55003=
200503141951 METAR KATL 141951Z 35010KT 10SM FEW035 BKN070 16/07 A2991 RMK AO2 SLP126 T01610072=
200503141851 METAR KATL 141851Z 35011G15KT 9SM FEW025 BKN075 BKN150 15/07 A2991 RMK AO2 SLP127 T01500067=
200503141751 METAR KATL 141751Z VRB04KT 8SM FEW025 SCT050 BKN080 14/08 A2993 RMK AO2 SLP133 T01390078 10139 20089 51005=
200503141651 METAR KATL 141651Z 31007KT 8SM FEW050 BKN080 12/07 A2992 RMK AO2 SLP131 T01220072=
200503141551 METAR KATL 141551Z 32009KT 6SM HZ FEW027 SCT050 11/07 A2992 RMK AO2 SLP131 T01110072=
200503141451 METAR KATL 141451Z 32009KT 6SM HZ FEW009 SCT027 BKN055 09/07 A2991 RMK AO2 SLP128 T00940067 53018=
200503141434 SPECI KATL 141434Z 32011KT 6SM HZ FEW009 SCT027 OVC055 09/07 A2990 RMK AO2=
200503141434 SPECI KATL 141434Z 32011KT 6SM HZ FEW009 SCT027 OVC055 09/07 A2990 RMK AO2=
200503141427 SPECI KATL 141427Z 32012KT 6SM HZ SCT009 BKN027 BKN055 09/07 A2990 RMK AO2=
200503141427 SPECI KATL 141427Z 32012KT 6SM HZ SCT009 BKN027 BKN055 09/07 A2990 RMK AO2=
200503141351 METAR KATL 141351Z 33009KT 8SM BKN007 BKN017 09/07 A2989 RMK AO2 SLP119 T00890067=
200503141333 SPECI KATL 141333Z 33010KT 6SM BR BKN005 BKN017 09/07 A2988 RMK AO2=
200503141333 SPECI KATL 141333Z 33010KT 6SM BR BKN005 BKN017 09/07 A2988 RMK AO2=
200503141323 SPECI KATL 141323Z 32011KT 6SM BR SCT005 09/07 A2987 RMK AO2=
200503141323 SPECI KATL 141323Z 32011KT 6SM BR SCT005 09/07 A2987 RMK AO2=
200503141311 SPECI KATL 141311Z 32011KT 6SM BR BKN005 BKN019 09/08 A2986 RMK AO2=
200503141311 SPECI KATL 141311Z 32011KT 6SM BR BKN005 BKN019 09/08 A2986 RMK AO2=
200503141251 METAR KATL 141251Z 32010KT 8SM SCT005 BKN021 09/08 A2986 RMK AO2 SLP110 T00940078=
200503141205 SPECI KATL 141205Z 31011KT 6SM BR BKN005 OVC018 09/08 A2986 RMK AO2=
200503141205 SPECI KATL 141205Z 31011KT 6SM BR BKN005 OVC018 09/08 A2986 RMK AO2=
200503141151 METAR KATL 141151Z 31014KT 7SM SCT005 OVC018 09/08 A2986 RMK AO2 SLP108 60011 70011 T00890078 10156 20089 53027=
200503141051 METAR KATL 141051Z 31009KT 8SM BKN005 OVC015 10/09 A2984 RMK AO2 SLP100 T01000089=
200503141031 SPECI KATL 141031Z 30011KT 9SM BKN007 OVC015 10/09 A2983 RMK AO2=
200503141031 SPECI KATL 141031Z 30011KT 9SM BKN007 OVC015 10/09 A2983 RMK AO2=
200503140951 METAR KATL 140951Z 32011KT 10SM FEW008 OVC013 11/10 A2979 RMK AO2 SLP084 T01110100=
200503140939 SPECI KATL 140939Z 33010KT 10SM SCT006 OVC013 12/11 A2978 RMK AO2=
200503140939 SPECI KATL 140939Z 33010KT 10SM SCT006 OVC013 12/11 A2978 RMK AO2=
200503140922 SPECI KATL 140922Z 34009KT 10SM BKN006 OVC011 13/12 A2978 RMK AO2 CIG 004V009=
200503140922 SPECI KATL 140922Z 34009KT 10SM BKN006 OVC011 13/12 A2978 RMK AO2 CIG 004V009=
200503140858 SPECI KATL 140858Z 26005KT 10SM SCT007 BKN014 OVC037 14/13 A2977 RMK AO2=
200503140858 SPECI KATL 140858Z 26005KT 10SM SCT007 BKN014 OVC037 14/13 A2977 RMK AO2=
200503140851 METAR KATL 140851Z 28006KT 10SM FEW014 BKN024 OVC035 14/13 A2978 RMK AO2 RAE46 SLP077 P0000 60011 T01390133 58003=
200503140751 METAR KATL 140751Z 24007KT 10SM -RA SCT033 OVC090 14/13 A2979 RMK AO2 SLP081 P0011 T01440133=
200503140732 SPECI KATL 140732Z 23006KT 5SM RA BR BKN025 BKN033 OVC090 14/13 A2979 RMK AO2 PRESFR P0009=
200503140732 SPECI KATL 140732Z 23006KT 5SM RA BR BKN025 BKN033 OVC090 14/13 A2979 RMK AO2 PRESFR P0009=
200503140651 METAR KATL 140651Z 26006KT 10SM -RA FEW018 SCT025 OVC095 15/13 A2980 RMK AO2 TSE0557 SLP084 P0000 T01500133=
200503140628 SPECI KATL 140628Z 27007KT 10SM -RA BKN025 BKN033 OVC075 16/13 A2981 RMK AO2 TSE0557 P0000=
200503140628 SPECI KATL 140628Z 27007KT 10SM -RA BKN025 BKN033 OVC075 16/13 A2981 RMK AO2 TSE0557 P0000=
200503140603 SPECI KATL 140603Z 26006KT 10SM -RA SCT030 BKN050 OVC090 15/13 A2980 RMK AO2 TSE0557 P0000=
200503140603 SPECI KATL 140603Z 26006KT 10SM -RA SCT030 BKN050 OVC090 15/13 A2980 RMK AO2 TSE0557 P0000=
200503140551 METAR KATL 140551Z 22005KT 10SM -TSRA BKN055CB BKN075 OVC095 15/13 A2979 RMK AO2 TSB30RAB22 SLP081 FRQ LTGICCC TS S MOV E P0000 60000 T01500133 10217 20150 50014=
200503140531 SPECI KATL 140531Z 23008KT 10SM -TSRA BKN055CB BKN075 OVC095 16/13 A2980 RMK AO2 TSB30RAB22 FRQ LTGICCC TS S MOV SE P0000=
200503140531 SPECI KATL 140531Z 23008KT 10SM -TSRA BKN055CB BKN075 OVC095 16/13 A2980 RMK AO2 TSB30RAB22 FRQ LTGICCC TS S MOV SE P0000=
200503140451 METAR KATL 140451Z 25015KT 10SM BKN080 BKN100 17/11 A2980 RMK AO2 RAB16E34 SLP084 LTG DSNT SW P0000 T01670111 402440117=
200503140351 METAR KATL 140351Z 23009KT 10SM SCT120 BKN250 19/11 A2977 RMK AO2 SLP074 T01890106=
200503140251 METAR KATL 140251Z 22007KT 10SM SCT120 18/11 A2975 RMK AO2 SLP068 T01830106 52005=
200503140151 METAR KATL 140151Z 21006KT 10SM FEW070 19/11 A2973 RMK AO2 SLP064 T01890106=
200503140051 METAR KATL 140051Z 22006KT 10SM SCT055 SCT070 21/11 A2974 RMK AO2 SLP068 T02060106=
200503132351 METAR KATL 132351Z 21010KT 10SM SCT055TCU 22/10 A2973 RMK AO2 SLP063 TCU DSNT N-NE T02170100 10244 20217 53005=
200503132251 METAR KATL 132251Z 22010G16KT 10SM SCT055TCU 23/10 A2971 RMK AO2 SLP057 TCU DSNT N-NE T02280100=
200503132151 METAR KATL 132151Z 22013G20KT 10SM BKN060 BKN085 23/11 A2972 RMK AO2 SLP057 T02330106=
200503132051 METAR KATL 132051Z 22013KT 190V250 10SM SCT055 24/11 A2971 RMK AO2 SLP056 T02390111 56019=
200503131951 METAR KATL 131951Z 24010G22KT 10SM SCT050 24/11 A2971 RMK AO2 SLP055 T02390111=
200503131851 METAR KATL 131851Z 23008G16KT 10SM SCT048 23/11 A2974 RMK AO2 SLP064 T02280111=
200503131751 METAR KATL 131751Z 25010KT 10SM FEW060 23/11 A2977 RMK AO2 SLP075 T02280106 10228 20117 58014=
200503131651 METAR KATL 131651Z 24010KT 10SM CLR 21/09 A2980 RMK AO2 SLP085 T02060094=
200503131551 METAR KATL 131551Z 26011KT 10SM CLR 18/08 A2981 RMK AO2 SLP090 T01830083=
200503131451 METAR KATL 131451Z 25010KT 10SM CLR 16/07 A2981 RMK AO2 SLP091 T01610072 51008=
200503131351 METAR KATL 131351Z 25012KT 10SM CLR 14/06 A2981 RMK AO2 SLP092 T01440061=
200503131251 METAR KATL 131251Z 24010KT 10SM CLR 12/06 A2980 RMK AO2 SLP089 T01220061=
200503131151 METAR KATL 131151Z 23013G17KT 10SM CLR 12/06 A2979 RMK AO2 SLP084 T01170056 10161 20117 51011=
200503131051 METAR KATL 131051Z 23011G17KT 10SM FEW220 12/06 A2978 RMK AO2 SLP080 T01220056=
200503130951 METAR KATL 130951Z 23015KT 10SM FEW220 13/05 A2977 RMK AO2 SLP075 T01330050=
200503130851 METAR KATL 130851Z 23013KT 10SM CLR 14/04 A2976 RMK AO2 SLP070 T01390044 58003=
200503130751 METAR KATL 130751Z 24015G20KT 10SM CLR 14/04 A2977 RMK AO2 SLP074 T01440039=
200503130651 METAR KATL 130651Z 23011KT 10SM CLR 15/03 A2977 RMK AO2 SLP075 T01500033=
200503130551 METAR KATL 130551Z 23009G17KT 10SM CLR 16/03 A2977 RMK AO2 SLP074 T01560028 10211 20156 51008=
200503130451 METAR KATL 130451Z 22008KT 10SM CLR 17/02 A2976 RMK AO2 SLP074 T01670017 402390044=
200503130351 METAR KATL 130351Z 23014G18KT 10SM CLR 18/01 A2975 RMK AO2 SLP070 T01780006=
200503130251 METAR KATL 130251Z 23010G16KT 10SM CLR 18/01 A2974 RMK AO2 SLP068 T01780006 53006=
200503130151 METAR KATL 130151Z 22008KT 10SM CLR 18/01 A2973 RMK AO2 SLP064 T01780011=
200503130051 METAR KATL 130051Z 22007KT 10SM CLR 18/01 A2972 RMK AO2 SLP062 T01830006=
200503122351 METAR KATL 122351Z 23009KT 10SM CLR 21/M01 A2972 RMK AO2 SLP061 T02111011 10239 20206 53006=
200503122251 METAR KATL 122251Z 25016G23KT 10SM CLR 23/M02 A2971 RMK AO2 PK WND 26026/2201 SLP056 T02281017=
200503122151 METAR KATL 122151Z 25017G28KT 10SM FEW230 23/M02 A2970 RMK AO2 PK WND 25028/2149 SLP053 T02331017=
200503122051 METAR KATL 122051Z 25017G23KT 10SM FEW230 23/M02 A2970 RMK AO2 PK WND 23026/2007 SLP055 T02331017 55014=
200503121951 METAR KATL 121951Z 26012G25KT 10SM FEW230 23/M01 A2970 RMK AO2 SLP056 T02281011=
200503121851 METAR KATL 121851Z 24013G23KT 10SM FEW230 22/M01 A2972 RMK AO2 SLP062 T02221011=
200503121751 METAR KATL 121751Z 25013G21KT 10SM FEW200 21/M01 A2975 RMK AO2 PK WND 27026/1719 SLP071 T02111011 10211 20072 58007=
200503121651 METAR KATL 121651Z 24019G24KT 10SM CLR 19/M02 A2977 RMK AO2 PK WND 27026/1634 SLP080 T01891022=
200503121551 METAR KATL 121551Z 28016G21KT 10SM FEW200 17/M02 A2977 RMK AO2 SLP081 T01721017=
200503121451 METAR KATL 121451Z 25017G23KT 10SM FEW200 13/M03 A2977 RMK AO2 SLP081 T01281033 53007=
200503121351 METAR KATL 121351Z 24013G20KT 10SM FEW200 10/M04 A2975 RMK AO2 SLP078 T01001039=
200503121251 METAR KATL 121251Z 23014KT 10SM CLR 08/M04 A2975 RMK AO2 SLP075 T00781044=
200503121151 METAR KATL 121151Z 23015G23KT 10SM FEW200 07/M05 A2974 RMK AO2 SLP074 T00721050 10072 20044 56004=
200503121051 METAR KATL 121051Z 23016G25KT 10SM CLR 07/M05 A2975 RMK AO2 SLP075 T00671050=
200503120951 METAR KATL 120951Z 23016G23KT 10SM CLR 07/M05 A2975 RMK AO2 SLP075 T00671050=
200503120851 METAR KATL 120851Z 23010KT 10SM CLR 06/M05 A2976 RMK AO2 SLP078 T00561050 58024=
200503120751 METAR KATL 120751Z 23010KT 10SM CLR 05/M05 A2979 RMK AO2 SLP088 T00501050=
200503120651 METAR KATL 120651Z 23008KT 10SM CLR 05/M05 A2981 RMK AO2 SLP096 T00501050=
200503120551 METAR KATL 120551Z 24006KT 10SM CLR 05/M05 A2983 RMK AO2 SLP103 T00501050 10094 20044 58013=
200503120451 METAR KATL 120451Z 26006KT 10SM CLR 04/M04 A2986 RMK AO2 SLP113 T00441044 401560044=
200503120351 METAR KATL 120351Z 27006KT 10SM CLR 05/M05 A2988 RMK AO2 SLP120 T00501050=
200503120251 METAR KATL 120251Z 29007KT 10SM CLR 06/M05 A2987 RMK AO2 SLP117 T00561050 51033=
200503120151 METAR KATL 120151Z 30010KT 10SM CLR 07/M05 A2984 RMK AO2 SLP108 T00671050=
200503120051 METAR KATL 120051Z 31016G24KT 10SM FEW090 08/M05 A2980 RMK AO2 SLP096 T00781050=
200503112351 METAR KATL 112351Z 29016G25KT 10SM FEW080 09/M06 A2977 RMK AO2 SLP083 T00941056 10156 20094 53024=
200503112251 METAR KATL 112251Z 29025G30KT 10SM FEW080 11/M07 A2974 RMK AO2 PK WND 28035/2159 SLP073 T01111067=
200503112151 METAR KATL 112151Z 27021G31KT 10SM FEW090 13/M07 A2971 RMK AO2 PK WND 27036/2109 SLP063 T01281067=
200503112051 METAR KATL 112051Z 26020G33KT 10SM SCT090 13/M08 A2970 RMK AO2 PK WND 29036/2010 SLP058 T01281078 55003=
200503111951 METAR KATL 111951Z 26017G29KT 10SM SCT090 15/M06 A2967 RMK AO2 PK WND 24033/1933 SLP048 T01501061=
200503111851 METAR KATL 111851Z 27022G37KT 10SM SCT080 14/M06 A2968 RMK AO2 PK WND 28037/1848 SLP052 T01441056=
200503111751 METAR KATL 111751Z 26023G29KT 10SM FEW070 SCT150 14/M02 A2971 RMK AO2 PK WND 29029/1747 SLP060 T01441022 10150 20067 58019=
200503111651 METAR KATL 111651Z 25014G21KT 10SM SCT120 BKN210 13/M01 A2974 RMK AO2 PK WND 23028/1638 SLP071 T01281011=
200503111551 METAR KATL 111551Z 26014G23KT 10SM SCT120 BKN210 12/02 A2975 RMK AO2 SLP076 T01220017=
200503111451 METAR KATL 111451Z 26013KT 10SM SCT160 SCT210 12/01 A2976 RMK AO2 SLP080 T01170006 56010=
200503111351 METAR KATL 111351Z 25010KT 10SM BKN160 BKN210 10/01 A2977 RMK AO2 SLP082 T01000011=
200503111251 METAR KATL 111251Z 23007KT 10SM BKN120 BKN160 07/01 A2978 RMK AO2 SLP087 T00720006=
200503111151 METAR KATL 111151Z 22010KT 10SM BKN120 07/01 A2980 RMK AO2 SLP092 T00670006 10067 20044 58002=
200503111051 METAR KATL 111051Z 22006KT 10SM OVC120 06/01 A2981 RMK AO2 SLP096 T00610006=
200503110951 METAR KATL 110951Z 23007KT 10SM BKN120 06/00 A2980 RMK AO2 SLP094 T00610000=
200503110851 METAR KATL 110851Z 23008KT 10SM BKN120 06/00 A2980 RMK AO2 SLP094 T00560000 58020=
200503110751 METAR KATL 110751Z 23008KT 10SM BKN110 06/00 A2984 RMK AO2 SLP106 T00560000=
200503110651 METAR KATL 110651Z 23007KT 10SM BKN110 06/M01 A2986 RMK AO2 SLP113 T00561006=
200503110551 METAR KATL 110551Z 27007KT 10SM FEW095 04/M01 A2986 RMK AO2 SLP116 T00441006 10094 20044 50005=
200503110451 METAR KATL 110451Z 28008KT 10SM CLR 05/M01 A2987 RMK AO2 SLP120 T00501006 401220017=
200503110351 METAR KATL 110351Z 24006KT 10SM CLR 06/M01 A2985 RMK AO2 SLP112 T00561011=
200503110251 METAR KATL 110251Z 27008KT 10SM CLR 07/M01 A2985 RMK AO2 SLP112 T00671011 51007=
200503110151 METAR KATL 110151Z 24010KT 10SM CLR 08/M02 A2984 RMK AO2 SLP108 T00831017=
200503110051 METAR KATL 110051Z 25006KT 10SM CLR 09/M01 A2985 RMK AO2 SLP111 T00891011=
200503102351 METAR KATL 102351Z 25010KT 10SM CLR 09/M02 A2983 RMK AO2 SLP105 T00941017 10122 20089 55002=
200503102251 METAR KATL 102251Z 24012KT 10SM CLR 11/M02 A2983 RMK AO2 SLP104 T01061022=
200503102151 METAR KATL 102151Z 24008KT 10SM CLR 11/M02 A2982 RMK AO2 WSHFT 2054 SLP100 T01111022=
200503102114 SPECI KATL 102114Z 25009G16KT 10SM CLR 11/M03 A2983 RMK AO2 WSHFT 2054=
200503102114 SPECI KATL 102114Z 25009G16KT 10SM CLR 11/M03 A2983 RMK AO2 WSHFT 2054=
200503102051 METAR KATL 102051Z 21008G17KT 10SM CLR 11/M03 A2983 RMK AO2 SLP106 T01111028 56030=
200503101951 METAR KATL 101951Z 23010KT 10SM FEW050 SCT080 11/M04 A2986 RMK AO2 SLP115 T01111039=
200503101851 METAR KATL 101851Z 24010KT 10SM FEW050 11/M03 A2988 RMK AO2 SLP122 T01061028=
200503101751 METAR KATL 101751Z 27005KT 10SM FEW045 09/M01 A2992 RMK AO2 SLP138 T00891011 10089 20028 58011=
200503101651 METAR KATL 101651Z 26008KT 10SM FEW035 08/M01 A2994 RMK AO2 SLP142 T00831011=
200503101551 METAR KATL 101551Z 32012KT 10SM SCT035 06/M01 A2996 RMK AO2 SLP149 T00611011=
200503101532 SPECI KATL 101532Z 34010KT 10SM SCT029 BKN036 07/00 A2996 RMK AO2=
200503101532 SPECI KATL 101532Z 34010KT 10SM SCT029 BKN036 07/00 A2996 RMK AO2=
200503101507 SPECI KATL 101507Z 32009KT 10SM BKN027 BKN032 06/M01 A2996 RMK AO2=
200503101507 SPECI KATL 101507Z 32009KT 10SM BKN027 BKN032 06/M01 A2996 RMK AO2=
200503101451 METAR KATL 101451Z 32009KT 10SM SCT024 SCT030 06/00 A2996 RMK AO2 SLP150 T00560000 53012=
200503101417 SPECI KATL 101417Z 34009KT 10SM SCT017 SCT030 06/00 A2995 RMK AO2=
200503101417 SPECI KATL 101417Z 34009KT 10SM SCT017 SCT030 06/00 A2995 RMK AO2=
200503101351 METAR KATL 101351Z 31007KT 10SM BKN017 04/01 A2993 RMK AO2 SLP142 T00390006=
200503101328 SPECI KATL 101328Z 30005KT 10SM SCT030 03/01 A2992 RMK AO2=
200503101328 SPECI KATL 101328Z 30005KT 10SM SCT030 03/01 A2992 RMK AO2=
200503101251 METAR KATL 101251Z 30005KT 10SM OVC028 03/01 A2992 RMK AO2 SLP139 T00330006=
200503101151 METAR KATL 101151Z 27007KT 10SM OVC024 03/01 A2992 RMK AO2 SLP137 T00280006 10028 20017 53011=
200503101105 SPECI KATL 101105Z 28007KT 10SM SCT012 OVC022 03/01 A2991 RMK AO2=
200503101105 SPECI KATL 101105Z 28007KT 10SM SCT012 OVC022 03/01 A2991 RMK AO2=
200503101051 METAR KATL 101051Z 29008KT 10SM BKN012 OVC022 03/01 A2991 RMK AO2 SLP135 T00280006=
200503101038 SPECI KATL 101038Z 31008KT 10SM OVC010 03/01 A2991 RMK AO2=
200503101038 SPECI KATL 101038Z 31008KT 10SM OVC010 03/01 A2991 RMK AO2=
200503100951 METAR KATL 100951Z 31009KT 10SM OVC006 02/01 A2989 RMK AO2 SLP126 T00220006=
200503100851 METAR KATL 100851Z 30009KT 8SM OVC006 02/01 A2989 RMK AO2 SLP126 T00220006 56010=
200503100751 METAR KATL 100751Z 28005KT 8SM BKN008 02/01 A2989 RMK AO2 SLP127 T00170006=
200503100735 SPECI KATL 100735Z 32007KT 9SM BKN008 02/00 A2989 RMK AO2=
200503100735 SPECI KATL 100735Z 32007KT 9SM BKN008 02/00 A2989 RMK AO2=
200503100707 SPECI KATL 100707Z 32006KT 9SM SCT008 02/00 A2989 RMK AO2=
200503100707 SPECI KATL 100707Z 32006KT 9SM SCT008 02/00 A2989 RMK AO2=
200503100657 SPECI KATL 100657Z 31006KT 9SM BKN008 02/00 A2990 RMK AO2=
200503100657 SPECI KATL 100657Z 31006KT 9SM BKN008 02/00 A2990 RMK AO2=
200503100651 METAR KATL 100651Z 33006KT 9SM SCT010 02/00 A2990 RMK AO2 SLP130 T00220000=
200503100604 SPECI KATL 100604Z 32004KT 10SM SCT011 OVC060 03/01 A2991 RMK AO2=
200503100604 SPECI KATL 100604Z 32004KT 10SM SCT011 OVC060 03/01 A2991 RMK AO2=
200503100551 METAR KATL 100551Z 31005KT 10SM BKN011 BKN047 OVC060 03/01 A2992 RMK AO2 SLP137 T00280006 10056 20028 58002=
200503100542 SPECI KATL 100542Z 30007KT 10SM BKN011 OVC047 03/01 A2992 RMK AO2=
200503100542 SPECI KATL 100542Z 30007KT 10SM BKN011 OVC047 03/01 A2992 RMK AO2=
200503100507 SPECI KATL 100507Z 30007KT 10SM FEW019 BKN036 OVC047 03/00 A2992 RMK AO2=
200503100507 SPECI KATL 100507Z 30007KT 10SM FEW019 BKN036 OVC047 03/00 A2992 RMK AO2=
200503100451 METAR KATL 100451Z 31007KT 10SM BKN022 OVC032 03/00 A2992 RMK AO2 SLP138 T00280000 400831006=
200503100402 SPECI KATL 100402Z 30009KT 10SM BKN028 OVC035 03/M01 A2993 RMK AO2=
200503100402 SPECI KATL 100402Z 30009KT 10SM BKN028 OVC035 03/M01 A2993 RMK AO2=
200503100351 METAR KATL 100351Z 30009KT 10SM BKN030 OVC035 03/M01 A2993 RMK AO2 SLP140 T00331006=
200503100251 METAR KATL 100251Z 31006KT 10SM BKN041 OVC055 04/M02 A2993 RMK AO2 SLP139 T00391017 51009=
200503100151 METAR KATL 100151Z 30007KT 10SM OVC095 04/M02 A2992 RMK AO2 SLP136 T00441022=
200503100051 METAR KATL 100051Z 28008KT 10SM FEW060 OVC085 04/M02 A2991 RMK AO2 SLP136 T00441022=
200503092351 METAR KATL 092351Z 31008KT 10SM OVC060 06/M03 A2990 RMK AO2 SLP132 T00561033 10083 20056 53004=
200503092251 METAR KATL 092251Z 29008KT 10SM BKN050 OVC070 06/M05 A2988 RMK AO2 SLP126 T00611050=
200503092151 METAR KATL 092151Z 32006KT 10SM FEW050 SCT070 BKN090 OVC150 07/M06 A2988 RMK AO2 SLP123 T00671061=
200503092051 METAR KATL 092051Z 34005KT 10SM BKN065 BKN100 OVC150 07/M06 A2989 RMK AO2 SLP126 T00721056 56029=
200503091951 METAR KATL 091951Z 00000KT 10SM FEW050 SCT070 BKN100 OVC150 07/M07 A2991 RMK AO2 SLP134 T00671067=
200503091851 METAR KATL 091851Z 25003KT 10SM FEW055 SCT075 SCT110 OVC150 07/M06 A2992 RMK AO2 SLP138 T00721061=
200503091751 METAR KATL 091751Z 31004KT 10SM FEW055 SCT075 SCT110 OVC150 07/M06 A2998 RMK AO2 SLP157 T00671061 10072 21006 58012=
200503091651 METAR KATL 091651Z COR 35005G17KT 10SM FEW090 BKN150 OVC250 06/M06 A3000 RMK AO2 VIRGA NE-SE SLP164 T00611061=
200503091551 METAR KATL 091551Z 01009KT 10SM SCT090 SCT250 06/M06 A3000 RMK AO2 SLP165 T00611056=
200503091451 METAR KATL 091451Z 35009KT 10SM SCT180 BKN250 05/M05 A3001 RMK AO2 SLP169 T00501050 53001=
200503091351 METAR KATL 091351Z 35007KT 10SM OVC230 02/M05 A2999 RMK AO2 SLP165 T00221050=
200503091251 METAR KATL 091251Z 33010KT 10SM OVC250 01/M05 A2999 RMK AO2 SLP163 T00061050=
200503091151 METAR KATL 091151Z 31006KT 10SM BKN250 M01/M05 A3001 RMK AO2 SLP170 T10061050 10017 21006 53012=
200503091051 METAR KATL 091051Z 35005KT 10SM SCT250 00/M05 A2997 RMK AO2 SLP156 T00001050=
200503090951 METAR KATL 090951Z 31003KT 10SM SCT250 00/M06 A2997 RMK AO2 SLP154 T00001056=
200503090851 METAR KATL 090851Z 32006KT 10SM BKN250 01/M05 A2998 RMK AO2 SLP156 T00061050 55005=
200503090751 METAR KATL 090751Z 33009KT 10SM BKN250 01/M05 A2997 RMK AO2 SLP152 T00111050=
200503090651 METAR KATL 090651Z 32009G16KT 10SM BKN250 01/M04 A2999 RMK AO2 SLP161 T00111044=
200503090551 METAR KATL 090551Z 27007KT 10SM CLR 01/M04 A2999 RMK AO2 SLP162 T00111044 10056 20011 53005=
200503090451 METAR KATL 090451Z 26006KT 10SM CLR 02/M05 A2998 RMK AO2 SLP158 T00221050 401280017=
200503090351 METAR KATL 090351Z 27004KT 10SM CLR 03/M05 A2997 RMK AO2 SLP155 T00281050=
200503090251 METAR KATL 090251Z 28005KT 10SM CLR 03/M05 A2997 RMK AO2 SLP156 T00281050 51020=
200503090151 METAR KATL 090151Z 28005KT 10SM FEW150 03/M04 A2996 RMK AO2 SLP150 T00331044=
200503090051 METAR KATL 090051Z 29008KT 10SM FEW150 04/M05 A2994 RMK AO2 SLP145 T00441050=
200503082351 METAR KATL 082351Z 31011KT 10SM FEW150 06/M06 A2991 RMK AO2 SLP134 T00561056 10083 20056 53027=
200503082251 METAR KATL 082251Z 32017G21KT 10SM FEW050 SCT150 07/M06 A2988 RMK AO2 PK WND 30026/2213 SLP124 T00671056=
200503082151 METAR KATL 082151Z 31014KT 10SM FEW050 SCT250 08/M05 A2984 RMK AO2 SLP107 T00781050=
200503082051 METAR KATL 082051Z 29016G21KT 10SM FEW050 08/M04 A2983 RMK AO2 PK WND 32027/2015 SLP103 T00831039 53008=
200503081951 METAR KATL 081951Z 31018KT 10SM FEW050 08/M04 A2982 RMK AO2 PK WND 29028/1928 SLP097 T00781039=
200503081851 METAR KATL 081851Z 30019G23KT 10SM FEW050 07/M02 A2979 RMK AO2 PK WND 29027/1755 SLP090 T00721022=
200503081751 METAR KATL 081751Z 29018G27KT 10SM FEW040 07/M02 A2981 RMK AO2 PK WND 30029/1737 SLP094 T00671022 10067 20039 51014=
200503081651 METAR KATL 081651Z 31019G26KT 10SM FEW040 06/M03 A2981 RMK AO2 PK WND 29031/1612 SLP094 T00611028=
200503081551 METAR KATL 081551Z 31022G34KT 10SM BKN040 05/M03 A2979 RMK AO2 PK WND 32034/1550 SLP090 T00501028=
200503081451 METAR KATL 081451Z 32023G31KT 10SM BKN040 BKN070 04/M03 A2976 RMK AO2 PK WND 30033/1356 SLP081 T00441028 51052=
200503081351 METAR KATL 081351Z 31022G29KT 10SM BKN040 BKN200 04/M03 A2973 RMK AO2 PK WND 31038/1302 PRESRR SLP069 T00391033=
200503081309 SPECI KATL 081309Z 30028G38KT 10SM BKN030 BKN037 BKN200 04/M02 A2968 RMK AO2 PK WND 31038/1302 PRESRR $=
200503081309 SPECI KATL 081309Z 30028G38KT 10SM BKN030 BKN037 BKN200 04/M02 A2968 RMK AO2 PK WND 31038/1302 PRESRR $=
200503081251 METAR KATL 081251Z 31023G34KT 10SM BKN026 OVC032 04/M01 A2965 RMK AO2 PK WND 30038/1207 SLP043 T00391006 $=
200503081151 METAR KATL 081151Z 30025G39KT 10SM BKN024 BKN030 BKN060 OVC140 05/01 A2960 RMK AO2 PK WND 30039/1151 SLP026 60011 70103 T00500006 10128 20050 $=
200503081101 SPECI KATL 081101Z 32022G31KT 10SM FEW018 BKN026 OVC031 06/02 A2955 RMK AO2 PK WND 33031/1101 BINOVC ALQDS=
200503081101 SPECI KATL 081101Z 32022G31KT 10SM FEW018 BKN026 OVC031 06/02 A2955 RMK AO2 PK WND 33031/1101 BINOVC ALQDS=
200503081051 METAR KATL 081051Z 31023G41KT 10SM SCT018 BKN030 OVC040 06/02 A2954 RMK AO2 PK WND 32041/1045 WSHFT 0953 RAB0953E25 PRESRR SLP003 BINOVC ALQDS P0002 T00610022=
200503081013 SPECI KATL 081013Z 32019G31KT 10SM -RA BKN021 BKN031 BKN055 07/05 A2947 RMK AO2 PK WND 28035/0958 WSHFT 0953 RAB0953 P0002=
200503081013 SPECI KATL 081013Z 32019G31KT 10SM -RA BKN021 BKN031 BKN055 07/05 A2947 RMK AO2 PK WND 28035/0958 WSHFT 0953 RAB0953 P0002=
200503081004 SPECI KATL 081004Z 32027G35KT 5SM -RA BR BKN021 BKN031 BKN055 09/07 A2946 RMK AO2 PK WND 28035/0958 RAB0953 P0000=
200503081004 SPECI KATL 081004Z 32027G35KT 5SM -RA BR BKN021 BKN031 BKN055 09/07 A2946 RMK AO2 PK WND 28035/0958 RAB0953 P0000=
200503080951 METAR KATL 080951Z 26015G22KT 10SM SCT023 BKN044 OVC055 11/08 A2944 RMK AO2 SLP966 T01060083=
200503080858 SPECI KATL 080858Z 28014G21KT 10SM FEW014 SCT029 BKN055 OVC140 11/09 A2944 RMK AO2=
200503080858 SPECI KATL 080858Z 28014G21KT 10SM FEW014 SCT029 BKN055 OVC140 11/09 A2944 RMK AO2=
200503080851 METAR KATL 080851Z 28015G20KT 10SM BKN014 BKN024 BKN055 OVC140 12/09 A2943 RMK AO2 PK WND 24026/0819 RAE47 SLP962 P0001 60009 T01170089 56012=
200503080802 SPECI KATL 080802Z 24011G19KT 9SM -RA BKN014 BKN024 OVC031 13/11 A2943 RMK AO2 P0000=
200503080802 SPECI KATL 080802Z 24011G19KT 9SM -RA BKN014 BKN024 OVC031 13/11 A2943 RMK AO2 P0000=
200503080751 METAR KATL 080751Z 24013KT 10SM -RA SCT012 BKN020 OVC031 13/11 A2944 RMK AO2 SLP964 P0003 T01280111=
200503080741 SPECI KATL 080741Z 24015G20KT 10SM -RA SCT010 BKN018 OVC060 13/11 A2943 RMK AO2 P0002=
200503080741 SPECI KATL 080741Z 24015G20KT 10SM -RA SCT010 BKN018 OVC060 13/11 A2943 RMK AO2 P0002=
200503080725 SPECI KATL 080725Z 23013KT 10SM -RA SCT008 BKN049 OVC060 12/12 A2944 RMK AO2 P0002=
200503080725 SPECI KATL 080725Z 23013KT 10SM -RA SCT008 BKN049 OVC060 12/12 A2944 RMK AO2 P0002=
200503080708 SPECI KATL 080708Z 23007KT 10SM -RA SCT008 BKN013 OVC046 12/12 A2943 RMK AO2 PRESFR P0001=
200503080708 SPECI KATL 080708Z 23007KT 10SM -RA SCT008 BKN013 OVC046 12/12 A2943 RMK AO2 PRESFR P0001=
200503080651 METAR KATL 080651Z 23012KT 7SM -RA BKN008 BKN013 OVC035 13/12 A2945 RMK AO2 RAB0558 SLP967 P0005 T01280117=
200503080640 SPECI KATL 080640Z 24008KT 6SM -RA BR BKN008 BKN015 OVC055 12/12 A2946 RMK AO2 RAB0558 P0003=
200503080640 SPECI KATL 080640Z 24008KT 6SM -RA BR BKN008 BKN015 OVC055 12/12 A2946 RMK AO2 RAB0558 P0003=
200503080632 SPECI KATL 080632Z 24009KT 7SM -RA SCT008 BKN015 OVC034 13/12 A2946 RMK AO2 RAB0558 P0001=
200503080632 SPECI KATL 080632Z 24009KT 7SM -RA SCT008 BKN015 OVC034 13/12 A2946 RMK AO2 RAB0558 P0001=
200503080615 SPECI KATL 080615Z 24010KT 9SM -RA BKN010 BKN014 OVC055 13/12 A2946 RMK AO2 RAB0558 CIG 008V013 P0001=
200503080615 SPECI KATL 080615Z 24010KT 9SM -RA BKN010 BKN014 OVC055 13/12 A2946 RMK AO2 RAB0558 CIG 008V013 P0001=
200503080551 METAR KATL 080551Z 23012G17KT 10SM FEW025 SCT032 BKN070 OVC150 13/11 A2947 RMK AO2 RAE0453 SLP974 P0000 60086 T01280111 10133 20122 56045=
200503080451 METAR KATL 080451Z 20009KT 10SM -RA OVC038 12/12 A2951 RMK AO2 SLP989 P0000 T01220117 401940044=
200503080351 METAR KATL 080351Z 20005KT 10SM -RA SCT036 BKN050 OVC080 13/12 A2956 RMK AO2 PK WND 30027/0300 SLP005 P0031 T01280117=
200503080337 SPECI KATL 080337Z 20005KT 8SM -RA BKN038 OVC075 13/12 A2956 RMK AO2 PK WND 30027/0300 P0030=
200503080337 SPECI KATL 080337Z 20005KT 8SM -RA BKN038 OVC075 13/12 A2956 RMK AO2 PK WND 30027/0300 P0030=
200503080319 SPECI KATL 080319Z 25009G21KT 7SM -RA FEW012 BKN024 OVC070 12/11 A2959 RMK AO2 PK WND 30027/0300 PRESFR P0027=
200503080319 SPECI KATL 080319Z 25009G21KT 7SM -RA FEW012 BKN024 OVC070 12/11 A2959 RMK AO2 PK WND 30027/0300 PRESFR P0027=
200503080251 METAR KATL 080251Z 30011KT 1 1/2SM +RA BR BKN003 BKN013 OVC043 13/12 A2960 RMK AO2 SFC VIS 2 1/2 SLP022 P0028 60055 T01280122 55023=
200503080239 SPECI KATL 080239Z 31007KT 1 1/2SM +RA BR BKN003 BKN013 OVC043 12/12 A2960 RMK AO2 SFC VIS 1 3/4 P0021=
200503080239 SPECI KATL 080239Z 31007KT 1 1/2SM +RA BR BKN003 BKN013 OVC043 12/12 A2960 RMK AO2 SFC VIS 1 3/4 P0021=
200503080231 SPECI KATL 080231Z 24005KT 1 1/2SM RA BR SCT003 BKN013 OVC043 12/12 A2961 RMK AO2 SFC VIS 2 P0014=
200503080231 SPECI KATL 080231Z 24005KT 1 1/2SM RA BR SCT003 BKN013 OVC043 12/12 A2961 RMK AO2 SFC VIS 2 P0014=
200503080225 SPECI KATL 080225Z 24005KT 2SM RA BR FEW003 BKN022 OVC043 12/12 A2961 RMK AO2 TWR VIS 2 1/2 P0011=
200503080225 SPECI KATL 080225Z 24005KT 2SM RA BR FEW003 BKN022 OVC043 12/12 A2961 RMK AO2 TWR VIS 2 1/2 P0011=
200503080214 SPECI KATL 080214Z 27008KT 2 1/2SM -RA BR FEW012 BKN043 OVC050 12/12 A2961 RMK AO2 P0005=
200503080214 SPECI KATL 080214Z 27008KT 2 1/2SM -RA BR FEW012 BKN043 OVC050 12/12 A2961 RMK AO2 P0005=
200503080151 METAR KATL 080151Z 00000KT 6SM -RA BR OVC049 13/12 A2960 RMK AO2 SLP021 P0010 T01330122=
200503080114 SPECI KATL 080114Z 10003KT 3SM -RA BR BKN021 BKN048 OVC060 12/12 A2962 RMK AO2 SFC VIS 5 P0005=
200503080114 SPECI KATL 080114Z 10003KT 3SM -RA BR BKN021 BKN048 OVC060 12/12 A2962 RMK AO2 SFC VIS 5 P0005=
200503080051 METAR KATL 080051Z 00000KT 2 1/2SM RA BR SCT015 BKN034 OVC044 12/12 A2965 RMK AO2 TWR VIS 3 SLP040 P0017 T01220117=
200503072351 METAR KATL 072351Z 21004KT 5SM -RA BR SCT032 BKN060 OVC075 13/11 A2967 RMK AO2 SLP049 P0006 60006 T01330111 10194 20128 56024=
200503072251 METAR KATL 072251Z 22003KT 10SM -RA BKN055 OVC080 14/10 A2969 RMK AO2 SLP055 P0000 T01440100=
200503072200 SPECI KATL 072200Z 23008KT 10SM -RA FEW028 SCT065 BKN085 OVC150 16/09 A2972 RMK AO2 P0000=
200503072200 SPECI KATL 072200Z 23008KT 10SM -RA FEW028 SCT065 BKN085 OVC150 16/09 A2972 RMK AO2 P0000=
200503072151 METAR KATL 072151Z 23008KT 10SM -RA FEW020 SCT065 SCT090 OVC150 16/09 A2972 RMK AO2 PK WND 21026/2057 RAB04 SLP065 P0000 T01560089=
200503072051 METAR KATL 072051Z 22017G30KT 10SM BKN055 BKN085 OVC150 18/05 A2975 RMK AO2 PK WND 22030/2046 RAE02 SLP072 P0000 60000 T01780050 56035=
200503071951 METAR KATL 071951Z 21010KT 10SM -RA FEW050 BKN060 BKN080 OVC150 19/03 A2977 RMK AO2 RAB50 SLP080 SHRA DSNT NW-N P0000 T01890028=
200503071851 METAR KATL 071851Z 23013G22KT 10SM FEW075 BKN095 BKN150 BKN250 19/02 A2980 RMK AO2 SLP090 ACSL DSNT W SHRA DSNT NE AND NW T01890017=
200503071751 METAR KATL 071751Z 25011KT 10SM FEW065 SCT120 BKN150 BKN250 18/01 A2985 RMK AO2 SLP107 ACSL N-NE AND W-NW T01830006 10189 20050 58038=
200503071651 METAR KATL 071651Z 25011KT 10SM FEW100 BKN110 18/00 A2991 RMK AO2 SLP125 ACSL DSNT W T01780000=
200503071551 METAR KATL 071551Z 23010KT 10SM FEW090 SCT120 16/M01 A2993 RMK AO2 SLP132 T01611006=
200503071451 METAR KATL 071451Z 26015KT 10SM BKN110 15/00 A2997 RMK AO2 SLP147 T01500000 58002=
200503071351 METAR KATL 071351Z 23007KT 10SM BKN110 10/00 A2997 RMK AO2 SLP150 T01000000=
200503071251 METAR KATL 071251Z 22005KT 10SM SCT150 SCT230 06/M01 A2997 RMK AO2 SLP150 T00611006=
200503071151 METAR KATL 071151Z 00000KT 10SM FEW150 05/M01 A2997 RMK AO2 SLP153 T00501011 10078 20044 53002=
200503071051 METAR KATL 071051Z 00000KT 10SM CLR 05/M01 A2997 RMK AO2 SLP150 T00501011=
200503070951 METAR KATL 070951Z 25004KT 10SM CLR 06/M01 A2997 RMK AO2 SLP150 T00561011=
200503070851 METAR KATL 070851Z 00000KT 10SM CLR 07/M02 A2997 RMK AO2 SLP149 T00671017 58015=
200503070751 METAR KATL 070751Z 28003KT 9SM CLR 07/M02 A2999 RMK AO2 SLP155 T00671022=
200503070651 METAR KATL 070651Z 23003KT 7SM CLR 07/M02 A3001 RMK AO2 SLP162 T00671022=
200503070551 METAR KATL 070551Z 25004KT 10SM CLR 08/M02 A3001 RMK AO2 SLP164 T00781022 10133 20072 56017=
200503070451 METAR KATL 070451Z 26003KT 7SM CLR 08/M03 A3002 RMK AO2 SLP168 T00831028 401610022=
200503070351 METAR KATL 070351Z 27004KT 9SM CLR 10/M04 A3004 RMK AO2 SLP174 T01001039=
200503070251 METAR KATL 070251Z 27005KT 9SM CLR 11/M04 A3006 RMK AO2 SLP182 T01061044 58000=
200503070151 METAR KATL 070151Z 28005KT 7SM CLR 11/M04 A3007 RMK AO2 SLP184 T01111044=
200503070051 METAR KATL 070051Z 27004KT 8SM CLR 12/M04 A3007 RMK AO2 SLP186 T01221044=
200503062351 METAR KATL 062351Z 27005KT 10SM FEW120 BKN250 13/M05 A3007 RMK AO2 SLP185 T01281050 10161 20128 55009=
200503062251 METAR KATL 062251Z 27008KT 10SM FEW120 BKN250 15/M03 A3006 RMK AO2 SLP183 T01501033=
200503062151 METAR KATL 062151Z 28010KT 10SM FEW120 BKN250 16/M03 A3007 RMK AO2 SLP186 T01561033=
200503062051 METAR KATL 062051Z 31012KT 10SM BKN250 16/M03 A3009 RMK AO2 SLP191 T01611028 56026=
200503061951 METAR KATL 061951Z 27009KT 10SM BKN250 16/M03 A3010 RMK AO2 SLP194 T01561028=
200503061851 METAR KATL 061851Z 31011KT 10SM BKN250 15/M02 A3013 RMK AO2 SLP204 T01501017=
200503061751 METAR KATL 061751Z 27008KT 10SM BKN250 14/M02 A3017 RMK AO2 SLP218 T01391017 10144 20022 58010=
200503061651 METAR KATL 061651Z 28010KT 10SM BKN250 12/M01 A3019 RMK AO2 SLP226 T01221006=
200503061551 METAR KATL 061551Z 25007KT 220V280 10SM BKN250 11/M01 A3020 RMK AO2 SLP226 T01111006=
200503061451 METAR KATL 061451Z 25005KT 10SM BKN250 09/00 A3020 RMK AO2 SLP229 T00890000 51013=
200503061351 METAR KATL 061351Z 30003KT 9SM BKN250 06/00 A3020 RMK AO2 SLP228 T00560000=
200503061251 METAR KATL 061251Z 30005KT 8SM BKN250 03/M01 A3018 RMK AO2 SLP223 T00331006=
200503061151 METAR KATL 061151Z 29006KT 10SM SCT250 02/M02 A3016 RMK AO2 SLP217 T00221017 10072 20022 53008=
200503061051 METAR KATL 061051Z 31005KT 10SM SCT250 03/M02 A3014 RMK AO2 SLP209 T00281017=
200503060951 METAR KATL 060951Z 33005KT 10SM SCT250 04/M02 A3013 RMK AO2 SLP205 T00391017=
200503060851 METAR KATL 060851Z 33006KT 10SM SCT250 04/M02 A3014 RMK AO2 SLP206 T00441017 50000=
200503060751 METAR KATL 060751Z 35007KT 10SM SCT250 06/M02 A3014 RMK AO2 SLP206 T00611017=
200503060651 METAR KATL 060651Z 34010KT 10SM SCT250 07/M01 A3014 RMK AO2 SLP207 T00671011=
200503060551 METAR KATL 060551Z 35010KT 10SM FEW250 07/M01 A3014 RMK AO2 SLP205 T00721006 10139 20072 53007=
200503060451 METAR KATL 060451Z 33010KT 10SM FEW250 08/M01 A3012 RMK AO2 SLP200 T00831006 401890083=
200503060351 METAR KATL 060351Z 35014KT 10SM FEW250 09/M01 A3012 RMK AO2 SLP199 T00941011=
200503060251 METAR KATL 060251Z 35008KT 10SM CLR 10/M02 A3011 RMK AO2 SLP198 T01001022 53025=
200503060151 METAR KATL 060151Z 34011KT 10SM CLR 12/M03 A3009 RMK AO2 SLP190 T01171028=
200503060051 METAR KATL 060051Z 32012KT 10SM CLR 13/M03 A3006 RMK AO2 SLP181 T01281033=
200503052351 METAR KATL 052351Z 31016G24KT 10SM FEW070 SCT250 14/M04 A3004 RMK AO2 SLP172 T01391044 10183 20139 53032=
200503052251 METAR KATL 052251Z 31016G26KT 10SM SCT070 SCT250 16/M02 A3000 RMK AO2 PK WND 30030/2212 SLP158 T01561022=
200503052151 METAR KATL 052151Z 31020G28KT 10SM SCT090 BKN100 17/M01 A2996 RMK AO2 PK WND 31033/2140 SLP145 T01721011=
200503052051 METAR KATL 052051Z 29021G33KT 10SM SCT085 BKN100 18/M01 A2994 RMK AO2 PK WND 28038/2024 SLP137 T01781006 55005=
200503051951 METAR KATL 051951Z 30016G22KT 10SM BKN070 18/03 A2994 RMK AO2 PK WND 30032/1913 SLP137 T01780033=
200503051851 METAR KATL 051851Z 32017KT 10SM SCT060 BKN075 BKN095 17/03 A2994 RMK AO2 PK WND 29026/1835 SLP139 T01670033=
200503051751 METAR KATL 051751Z 27018G25KT 10SM BKN060 BKN070 18/06 A2996 RMK AO2 PK WND 27028/1710 SLP143 T01830056 10189 20100 58021=
200503051651 METAR KATL 051651Z 27016G21KT 10SM SCT050 SCT120 18/06 A2998 RMK AO2 SLP151 T01780061=
200503051551 METAR KATL 051551Z 25013KT 10SM FEW080 16/06 A3000 RMK AO2 SLP157 T01610061=
200503051451 METAR KATL 051451Z 27010KT 10SM FEW080 14/06 A3002 RMK AO2 SLP166 T01390061 50002=
200503051351 METAR KATL 051351Z 25015KT 10SM CLR 12/05 A3002 RMK AO2 SLP167 T01170050=
200503051251 METAR KATL 051251Z 24010KT 10SM BKN110 10/04 A3002 RMK AO2 SLP167 T01000044=
200503051151 METAR KATL 051151Z 25013KT 10SM SCT180 BKN250 11/04 A3002 RMK AO2 SLP164 T01060039 10106 20083 51012=
200503051051 METAR KATL 051051Z 26014KT 10SM FEW065 BKN090 BKN110 10/04 A3001 RMK AO2 SLP162 T01000039=
200503050951 METAR KATL 050951Z 24012KT 10SM BKN110 09/03 A2999 RMK AO2 SLP156 T00940033=
200503050851 METAR KATL 050851Z 23014KT 10SM BKN110 09/03 A2998 RMK AO2 SLP152 T00940028 56018=
200503050751 METAR KATL 050751Z 24010KT 10SM CLR 09/03 A3000 RMK AO2 SLP157 T00940028=
200503050651 METAR KATL 050651Z 23010KT 10SM CLR 09/03 A3001 RMK AO2 SLP163 T00940028=
200503050551 METAR KATL 050551Z 22007KT 10SM CLR 09/02 A3004 RMK AO2 SLP171 T00890022 10139 20089 58007=
200503050451 METAR KATL 050451Z 23011KT 10SM CLR 10/02 A3005 RMK AO2 SLP175 T01000017 401610017=
200503050351 METAR KATL 050351Z 23009KT 10SM CLR 10/01 A3006 RMK AO2 SLP180 T01000006=
200503050251 METAR KATL 050251Z 23005KT 10SM FEW200 11/M01 A3006 RMK AO2 SLP180 T01061006 51009=
200503050151 METAR KATL 050151Z 23007KT 10SM FEW120 SCT200 12/M01 A3005 RMK AO2 SLP179 T01171011=
200503050051 METAR KATL 050051Z 23006KT 10SM FEW080 SCT150 SCT200 12/M01 A3003 RMK AO2 SLP174 T01221006=
200503042351 METAR KATL 042351Z COR 23007KT 10SM FEW080 SCT110 SCT200 14/M01 A3003 RMK AO2 SLP171 T01391011 10161 20133 55001=
200503042251 METAR KATL 042251Z 22008KT 10SM FEW080 SCT110 SCT200 15/M01 A3002 RMK AO2 SLP169 T01501006=
200503042151 METAR KATL 042151Z 29011KT 10SM FEW060 SCT100 SCT200 16/M02 A3002 RMK AO2 SLP169 ACSL W-NW T01561017=
200503042051 METAR KATL 042051Z 29010KT 10SM FEW060 SCT100 SCT200 16/M01 A3003 RMK AO2 SLP171 ACSL W-NW T01561011 56022=
200503041951 METAR KATL 041951Z 24013KT 10SM FEW060 SCT200 16/M02 A3005 RMK AO2 SLP176 T01561017=
200503041851 METAR KATL 041851Z 23011KT 10SM FEW060 SCT200 14/M01 A3007 RMK AO2 SLP184 T01441011=
200503041751 METAR KATL 041751Z 28007KT 10SM FEW060 14/00 A3010 RMK AO2 SLP195 T01390000 10144 20022 58014=
200503041651 METAR KATL 041651Z 26011KT 10SM FEW060 13/M02 A3013 RMK AO2 SLP205 T01331017=
200503041551 METAR KATL 041551Z 25005KT 10SM CLR 12/02 A3014 RMK AO2 SLP210 T01170017=
200503041451 METAR KATL 041451Z 30008KT 10SM CLR 09/02 A3014 RMK AO2 SLP210 T00890017 51019=
200503041351 METAR KATL 041351Z 30007KT 10SM CLR 07/01 A3013 RMK AO2 SLP207 T00670006=
200503041251 METAR KATL 041251Z 28006KT 10SM CLR 03/M01 A3011 RMK AO2 SLP199 T00331011=
200503041151 METAR KATL 041151Z 27004KT 10SM FEW150 02/M02 A3008 RMK AO2 SLP192 T00221022 10039 20017 53007=
200503041051 METAR KATL 041051Z 26004KT 10SM CLR 02/M03 A3007 RMK AO2 SLP188 T00221028=
200503040951 METAR KATL 040951Z 26004KT 10SM CLR 02/M03 A3007 RMK AO2 SLP185 T00221033=
200503040851 METAR KATL 040851Z 00000KT 10SM CLR 03/M04 A3006 RMK AO2 SLP183 T00281039 58006=
200503040751 METAR KATL 040751Z 26005KT 10SM CLR 03/M04 A3007 RMK AO2 SLP186 T00331039=
200503040651 METAR KATL 040651Z 27005KT 10SM CLR 03/M04 A3008 RMK AO2 SLP189 T00331039=
200503040551 METAR KATL 040551Z 26006KT 10SM CLR 04/M04 A3008 RMK AO2 SLP190 T00391039 10106 20039 55001=
200503040451 METAR KATL 040451Z 25006KT 10SM CLR 05/M04 A3008 RMK AO2 SLP190 T00501039 401280011=
200503040351 METAR KATL 040351Z 24005KT 10SM FEW250 06/M04 A3008 RMK AO2 SLP191 T00611044=
200503040251 METAR KATL 040251Z 23008KT 10SM FEW250 07/M05 A3008 RMK AO2 SLP191 T00721050 51010=
200503040151 METAR KATL 040151Z 22005KT 10SM SCT250 08/M06 A3008 RMK AO2 SLP189 T00781061=
200503040051 METAR KATL 040051Z 23004KT 10SM FEW150 SCT250 08/M06 A3006 RMK AO2 SLP185 T00781061=
200503032351 METAR KATL 032351Z 32006KT 10SM FEW150 SCT180 SCT250 10/M08 A3005 RMK AO2 SLP180 T01001083 10128 20094 55001=
200503032251 METAR KATL 032251Z 32007KT 10SM FEW150 SCT180 BKN250 11/M08 A3004 RMK AO2 SLP177 T01111083=
200503032151 METAR KATL 032151Z 33007KT 10SM FEW150 SCT180 BKN240 12/M08 A3004 RMK AO2 SLP177 ACSL DSNT W-NW T01221083=
200503032051 METAR KATL 032051Z 30008KT 10SM FEW150 SCT180 BKN240 12/M08 A3005 RMK AO2 SLP180 ACSL DSNT SW-W-NW T01221083 56021=
200503031951 METAR KATL 031951Z VRB06KT 10SM FEW150 SCT180 BKN240 12/M08 A3006 RMK AO2 SLP184 ACSL DSNT SW T01171078=
200503031851 METAR KATL 031851Z VRB04KT 10SM FEW080 SCT150 SCT180 BKN240 11/M07 A3008 RMK AO2 SLP191 T01061072=
200503031751 METAR KATL 031751Z 36004KT 10SM FEW080 SCT150 BKN180 BKN240 09/M08 A3012 RMK AO2 SLP203 T00941078 10094 20011 58007=
200503031651 METAR KATL 031651Z 32008KT 10SM FEW080 SCT150 BKN180 BKN240 08/M07 A3014 RMK AO2 SLP210 T00781067=
200503031551 METAR KATL 031551Z VRB04KT 10SM SCT080 BKN150 OVC180 06/M06 A3015 RMK AO2 SLP214 T00561056=
200503031451 METAR KATL 031451Z 31005KT 10SM BKN100 BKN150 OVC180 04/M06 A3014 RMK AO2 SLP211 T00391061 53017=
200503031351 METAR KATL 031351Z 32005KT 10SM BKN130 OVC180 03/M07 A3012 RMK AO2 SLP207 T00281067=
200503031251 METAR KATL 031251Z 30005KT 10SM FEW130 OVC180 02/M06 A3010 RMK AO2 SLP198 T00171061=
200503031151 METAR KATL 031151Z 29006KT 10SM FEW150 BKN200 01/M07 A3009 RMK AO2 SLP195 T00111067 10033 20011 53004=
200503031051 METAR KATL 031051Z 27004KT 10SM OVC200 01/M07 A3008 RMK AO2 SLP192 T00111067=
200503030951 METAR KATL 030951Z 28004KT 10SM OVC200 02/M07 A3008 RMK AO2 SLP191 T00171067=
200503030851 METAR KATL 030851Z 31006KT 10SM OVC200 02/M06 A3007 RMK AO2 SLP188 T00171061 56006=
200503030751 METAR KATL 030751Z 30003KT 10SM SCT100 BKN200 03/M07 A3008 RMK AO2 SLP191 T00281067=
200503030651 METAR KATL 030651Z 33004KT 10SM OVC100 03/M06 A3008 RMK AO2 SLP192 T00281061=
200503030551 METAR KATL 030551Z 30006KT 10SM BKN100 OVC200 03/M06 A3009 RMK AO2 SLP195 T00281061 10061 20028 55003=
200503030451 METAR KATL 030451Z 31006KT 10SM SCT110 BKN250 03/M07 A3009 RMK AO2 SLP195 T00331067 400891033=
200503030351 METAR KATL 030351Z 30005KT 10SM FEW100 SCT120 BKN250 04/M07 A3010 RMK AO2 SLP200 T00391072=
200503030251 METAR KATL 030251Z 29005KT 10SM FEW120 SCT250 04/M08 A3010 RMK AO2 SLP200 T00441078 53009=
200503030151 METAR KATL 030151Z 30007KT 10SM SCT120 SCT250 05/M07 A3009 RMK AO2 SLP196 T00501072=
200503030051 METAR KATL 030051Z 30006KT 10SM FEW250 05/M08 A3008 RMK AO2 SLP195 T00501078=
200503022351 METAR KATL 022351Z 28007KT 10SM FEW250 06/M07 A3007 RMK AO2 SLP191 T00561072 10089 20056 55004=
200503022251 METAR KATL 022251Z 30012KT 10SM FEW250 08/M08 A3005 RMK AO2 SLP185 T00781078=
200503022151 METAR KATL 022151Z 30013G17KT 10SM FEW240 08/M08 A3006 RMK AO2 SLP186 T00831078=
200503022051 METAR KATL 022051Z 33012G19KT 10SM FEW240 09/M07 A3008 RMK AO2 SLP193 T00891072 56017=
200503021951 METAR KATL 021951Z 31012KT 10SM FEW240 07/M08 A3008 RMK AO2 SLP194 T00721078=
200503021851 METAR KATL 021851Z 28018G21KT 10SM FEW240 07/M07 A3010 RMK AO2 SLP201 T00671072=
200503021751 METAR KATL 021751Z 30015G22KT 10SM FEW200 SCT240 SCT280 06/M08 A3013 RMK AO2 SLP212 T00561078 10056 21033 58002=
200503021651 METAR KATL 021651Z 32015KT 10SM FEW200 SCT240 SCT280 04/M08 A3014 RMK AO2 SLP216 T00391083=
200503021551 METAR KATL 021551Z 32016G21KT 10SM FEW200 SCT240 BKN280 02/M08 A3014 RMK AO2 SLP217 T00221078=
200503021451 METAR KATL 021451Z 31014G21KT 10SM FEW200 SCT240 BKN280 01/M08 A3014 RMK AO2 SLP216 T00061078 51020=
200503021351 METAR KATL 021351Z 32012KT 10SM SCT200 BKN250 M01/M08 A3013 RMK AO2 SLP214 T10111078=
200503021251 METAR KATL 021251Z 29009KT 10SM FEW100 SCT200 M02/M08 A3011 RMK AO2 SLP208 T10221078=
200503021151 METAR KATL 021151Z 29009KT 10SM FEW060 M03/M08 A3008 RMK AO2 SLP196 T10331083 11017 21033 53003=
200503021051 METAR KATL 021051Z 30009KT 10SM CLR M03/M08 A3006 RMK AO2 SLP191 T10331083=
200503020951 METAR KATL 020951Z 29009KT 10SM CLR M03/M08 A3007 RMK AO2 SLP193 T10281083=
200503020851 METAR KATL 020851Z 29010KT 10SM CLR M03/M08 A3007 RMK AO2 SLP192 T10281083 58000=
200503020751 METAR KATL 020751Z 27007KT 10SM CLR M03/M08 A3008 RMK AO2 SLP196 T10281078=
200503020651 METAR KATL 020651Z 30009KT 10SM CLR M02/M08 A3008 RMK AO2 SLP193 T10221078=
200503020551 METAR KATL 020551Z 29009KT 10SM CLR M02/M08 A3007 RMK AO2 SLP191 T10171078 10011 21017 51007=
200503020451 METAR KATL 020451Z 28008KT 10SM CLR M02/M08 A3007 RMK AO2 SLP191 T10171078 400501017=
200503020351 METAR KATL 020351Z 29009KT 10SM CLR M01/M08 A3006 RMK AO2 SLP186 T10111078=
200503020251 METAR KATL 020251Z 28007KT 10SM CLR M01/M08 A3005 RMK AO2 SLP184 T10111078 51019=
200503020151 METAR KATL 020151Z 28009KT 10SM CLR 00/M08 A3003 RMK AO2 SLP179 T00001078=
200503020051 METAR KATL 020051Z 31009KT 10SM CLR 01/M08 A3002 RMK AO2 SLP173 T00061083=
200503012351 METAR KATL 012351Z 31012KT 10SM FEW049 01/M08 A2999 RMK AO2 SLP164 T00111083 10044 20011 53018=
200503012251 METAR KATL 012251Z 32018KT 10SM SCT049 02/M08 A2996 RMK AO2 SLP154 T00221083=
200503012151 METAR KATL 012151Z 28018G27KT 10SM FEW045 SCT055 03/M07 A2995 RMK AO2 PK WND 28027/2149 SLP148 T00331067=
200503012051 METAR KATL 012051Z 29016G24KT 10SM BKN050 03/M06 A2994 RMK AO2 PK WND 29027/2023 SLP145 T00281061 53016=
200503011951 METAR KATL 011951Z 30020G24KT 10SM BKN045 BKN060 04/M06 A2992 RMK AO2 PK WND 29031/1904 SLP139 T00391056=
200503011851 METAR KATL 011851Z 29020G29KT 10SM SCT045 BKN050 04/M05 A2990 RMK AO2 PK WND 29030/1823 SLP133 T00391050=
200503011751 METAR KATL 011751Z 28018G28KT 10SM SCT040 SCT050 04/M04 A2989 RMK AO2 PK WND 28028/1748 SLP127 T00441039 10050 20006 51010=
200503011651 METAR KATL 011651Z 29014G23KT 10SM BKN040 BKN050 03/M03 A2989 RMK AO2 PK WND 30028/1637 SLP125 T00331033=
200503011551 METAR KATL 011551Z 29022G27KT 10SM FEW035 BKN045 BKN055 03/M03 A2988 RMK AO2 PK WND 27029/1514 SLP122 SHSN DSNT NW-N T00331028=
200503011451 METAR KATL 011451Z 27013G22KT 10SM FEW025 BKN035 BKN050 03/M02 A2986 RMK AO2 SLP116 T00331022 53007=
200503011413 SPECI KATL 011413Z 26011KT 10SM SCT020 BKN025 BKN035 03/M01 A2985 RMK AO2=
200503011413 SPECI KATL 011413Z 26011KT 10SM SCT020 BKN025 BKN035 03/M01 A2985 RMK AO2=
200503011351 METAR KATL 011351Z 25014G19KT 10SM FEW014 SCT020 02/M01 A2985 RMK AO2 SLP115 T00221006=
200503011251 METAR KATL 011251Z 25006KT 10SM FEW015 SCT040 01/M01 A2984 RMK AO2 SLP110 T00111006=
200503011243 SPECI KATL 011243Z 25008KT 10SM FEW015 01/M01 A2984 RMK AO2=
200503011243 SPECI KATL 011243Z 25008KT 10SM FEW015 01/M01 A2984 RMK AO2=
200503011228 SPECI KATL 011228Z 25009KT 10SM FEW009 BKN015 01/M01 A2984 RMK AO2=
200503011228 SPECI KATL 011228Z 25009KT 10SM FEW009 BKN015 01/M01 A2984 RMK AO2=
Fallo de consulta: el error es SELECT command denied to user 'users'@'localhost' for table 'tafs_2005'
