##########################################################
# Query made at 04/19/2024 22:49:37 UTC
# Time interval: from 02/01/2005 12:00  to 02/28/2005 12:59  UTC
##########################################################

##########################################################
# KATL, Atlanta, Hartsfield - Jackson Atlanta International Airport (United States)
# WMO index: 72219. WIGOS ID: 0-20000-0-72219
# Latitude 33-38-59N. Longitude 084-25-00W. Altitude 312 m.
##########################################################

200502281251 METAR KATL 281251Z COR 15004KT 1 1/2SM R09R/6000VP6000FT -RA BR OVC007 04/03 A2970 RMK AO2 RAB41 CIG 003V009 SLP061 P0002 T00390033=
200502281218 SPECI KATL 281218Z 14003KT 2SM BR OVC005 04/03 A2969 RMK AO2 SFC VIS 3 CIG 004V009=
200502281218 SPECI KATL 281218Z 14003KT 2SM BR OVC005 04/03 A2969 RMK AO2 SFC VIS 3 CIG 004V009=
200502281151 METAR KATL 281151Z 12003KT 6SM BR OVC007 04/03 A2970 RMK AO2 CIG 005V009 SLP060 60004 70069 T00440033 10050 20044 53005=
200502281051 METAR KATL 281051Z 13006KT 10SM OVC007 04/03 A2968 RMK AO2 CIG 006V010 SLP054 T00440033=
200502280951 METAR KATL 280951Z 08007KT 10SM OVC009 04/03 A2968 RMK AO2 CIG 005V011 SLP054 T00440033=
200502280851 METAR KATL 280851Z 07007KT 4SM BR BKN009 OVC027 04/03 A2968 RMK AO2 CIG 006V014 SLP055 60004 T00440033 56023=
200502280824 SPECI KATL 280824Z 08007KT 5SM BR BKN007 OVC029 04/03 A2969 RMK AO2 CIG 004V011=
200502280824 SPECI KATL 280824Z 08007KT 5SM BR BKN007 OVC029 04/03 A2969 RMK AO2 CIG 004V011=
200502280751 METAR KATL 280751Z 08009KT 4SM BR FEW006 OVC033 04/04 A2969 RMK AO2 RAE05 SLP057 P0000 T00440039=
200502280702 SPECI KATL 280702Z 06008KT 4SM -RA BR FEW008 OVC040 05/04 A2972 RMK AO2 P0000=
200502280702 SPECI KATL 280702Z 06008KT 4SM -RA BR FEW008 OVC040 05/04 A2972 RMK AO2 P0000=
200502280651 METAR KATL 280651Z 04007KT 4SM -RA BR FEW008 BKN029 OVC042 05/04 A2971 RMK AO2 SLP066 P0004 T00500039=
200502280623 SPECI KATL 280623Z 01004KT 5SM -RA BR FEW010 BKN016 OVC028 05/03 A2975 RMK AO2 P0003=
200502280623 SPECI KATL 280623Z 01004KT 5SM -RA BR FEW010 BKN016 OVC028 05/03 A2975 RMK AO2 P0003=
200502280551 METAR KATL 280551Z 02007KT 5SM -RA BR BKN011 BKN014 OVC033 05/03 A2975 RMK AO2 CIG 008V012 SLP078 P0002 60049 T00500033 10061 20050 55022=
200502280523 SPECI KATL 280523Z 04004KT 7SM -RA SCT008 BKN013 OVC035 05/03 A2975 RMK AO2 P0001=
200502280523 SPECI KATL 280523Z 04004KT 7SM -RA SCT008 BKN013 OVC035 05/03 A2975 RMK AO2 P0001=
200502280451 METAR KATL 280451Z 05013KT 6SM -RA BR BKN008 BKN032 OVC085 05/04 A2973 RMK AO2 SLP070 P0009 T00500039 401000050=
200502280351 METAR KATL 280351Z 02007KT 2 1/2SM RA BR FEW007 OVC036 05/04 A2980 RMK AO2 SFC VIS 4 SLP096 P0024 T00500039=
200502280314 SPECI KATL 280314Z 02012KT 2SM RA BR FEW007 BKN014 OVC022 05/04 A2978 RMK AO2 SFC VIS 3 P0013=
200502280314 SPECI KATL 280314Z 02012KT 2SM RA BR FEW007 BKN014 OVC022 05/04 A2978 RMK AO2 SFC VIS 3 P0013=
200502280307 SPECI KATL 280307Z 01011KT 2SM R09R/6000VP6000FT RA BR BKN014 BKN020 OVC027 05/04 A2979 RMK AO2 P0010=
200502280307 SPECI KATL 280307Z 01011KT 2SM R09R/6000VP6000FT RA BR BKN014 BKN020 OVC027 05/04 A2979 RMK AO2 P0010=
200502280305 SPECI KATL 280305Z 01010KT 1 3/4SM R09R/4500VP6000FT +RA BR BKN012 BKN020 OVC027 05/04 A2979 RMK AO2 TWR VIS 2 P0009=
200502280305 SPECI KATL 280305Z 01010KT 1 3/4SM R09R/4500VP6000FT +RA BR BKN012 BKN020 OVC027 05/04 A2979 RMK AO2 TWR VIS 2 P0009=
200502280251 METAR KATL 280251Z 33006KT 2 1/2SM RA BR OVC012 05/04 A2982 RMK AO2 PRESRR SLP101 P0008 60014 T00500044 53014=
200502280151 METAR KATL 280151Z 06016KT 6SM -RA BR OVC014 05/04 A2974 RMK AO2 SLP076 P0003 T00500039=
200502280051 METAR KATL 280051Z 07016KT 8SM -RA OVC018 06/03 A2976 RMK AO2 SLP082 P0003 T00560033=
200502272351 METAR KATL 272351Z 06015KT 9SM -RA OVC016 06/03 A2978 RMK AO2 RAB33 SLP087 P0000 60004 T00610033 10067 20056 56017=
200502272251 METAR KATL 272251Z 06014KT 9SM BKN018 OVC024 06/03 A2978 RMK AO2 SLP088 T00610033=
200502272151 METAR KATL 272151Z 05016KT 8SM BKN018 OVC024 06/04 A2980 RMK AO2 PK WND 08033/2108 RAE07 SLP094 P0000 T00610039=
200502272051 METAR KATL 272051Z 08023G29KT 6SM -RA BR BKN021 OVC026 06/04 A2983 RMK AO2 PK WND 08029/2051 PRESFR SLP105 P0001 60004 T00560039 58057=
200502272027 SPECI KATL 272027Z 07019KT 5SM -RA BR BKN021 OVC035 06/04 A2988 RMK AO2 P0001=
200502272027 SPECI KATL 272027Z 07019KT 5SM -RA BR BKN021 OVC035 06/04 A2988 RMK AO2 P0001=
200502271951 METAR KATL 271951Z 07016KT 5SM -RA BR SCT025 BKN037 OVC060 06/04 A2991 RMK AO2 SLP133 P0002 T00610039=
200502271900 SPECI KATL 271900Z 07015KT 6SM -RA BR BKN048 OVC085 06/04 A2994 RMK AO2 PRESFR P0000=
200502271900 SPECI KATL 271900Z 07015KT 6SM -RA BR BKN048 OVC085 06/04 A2994 RMK AO2 PRESFR P0000=
200502271851 METAR KATL 271851Z 07017KT 6SM -RA BR BKN026 BKN045 OVC085 06/04 A2996 RMK AO2 SLP148 P0001 T00610044=
200502271751 METAR KATL 271751Z 07014KT 6SM -RA BR BKN020 BKN028 OVC070 07/04 A3000 RMK AO2 SLP163 P0003 60012 T00670044 10078 20061 58024=
200502271714 SPECI KATL 271714Z 07013KT 6SM -RA BR BKN028 OVC038 06/04 A3002 RMK AO2 P0002=
200502271714 SPECI KATL 271714Z 07013KT 6SM -RA BR BKN028 OVC038 06/04 A3002 RMK AO2 P0002=
200502271651 METAR KATL 271651Z 08013KT 5SM -RA BR OVC030 06/04 A3003 RMK AO2 SLP172 P0006 T00610039=
200502271551 METAR KATL 271551Z 09015G21KT 5SM -RA BKN030 BKN045 OVC055 06/03 A3006 RMK AO2 SLP182 P0003 T00610033=
200502271451 METAR KATL 271451Z 08015KT 8SM -RA SCT037 SCT046 BKN070 OVC140 07/03 A3008 RMK AO2 RAB40 SLP186 P0000 60000 T00720028 50006=
200502271351 METAR KATL 271351Z 08012G20KT 9SM FEW100 OVC140 08/03 A3008 RMK AO2 SLP187 T00780028=
200502271251 METAR KATL 271251Z 08012KT 8SM SCT110 OVC180 07/03 A3006 RMK AO2 SLP181 T00670028=
200502271151 METAR KATL 271151Z 08011KT 9SM OVC200 07/03 A3006 RMK AO2 SLP180 T00670028 10089 20067 58004=
200502271051 METAR KATL 271051Z 07009KT 10SM OVC200 07/03 A3007 RMK AO2 SLP186 T00670033=
200502270951 METAR KATL 270951Z 09009KT 10SM FEW095 OVC200 07/03 A3007 RMK AO2 SLP184 T00720033=
200502270851 METAR KATL 270851Z 08008KT 9SM OVC200 07/03 A3007 RMK AO2 SLP183 T00720033 58019=
200502270751 METAR KATL 270751Z 08009KT 10SM OVC200 08/04 A3010 RMK AO2 SLP194 T00780039=
200502270651 METAR KATL 270651Z 08008KT 10SM OVC250 08/04 A3011 RMK AO2 SLP196 T00780039=
200502270551 METAR KATL 270551Z 10007KT 10SM OVC250 09/04 A3013 RMK AO2 SLP204 T00890039 10128 20089 56005=
200502270451 METAR KATL 270451Z 11009KT 10SM OVC250 10/04 A3013 RMK AO2 SLP205 T01000039 401440028=
200502270351 METAR KATL 270351Z 10006KT 10SM OVC250 11/03 A3014 RMK AO2 SLP206 T01060033=
200502270251 METAR KATL 270251Z 11006KT 10SM OVC250 11/03 A3015 RMK AO2 SLP210 T01110028 53005=
200502270151 METAR KATL 270151Z 10005KT 10SM OVC250 12/03 A3014 RMK AO2 SLP208 T01170033=
200502270051 METAR KATL 270051Z 10006KT 10SM OVC250 12/03 A3014 RMK AO2 SLP208 T01170033=
200502262351 METAR KATL 262351Z 11007KT 10SM OVC250 13/02 A3013 RMK AO2 SLP206 T01280022 10144 20122 55004=
200502262251 METAR KATL 262251Z 13005KT 10SM OVC250 13/02 A3012 RMK AO2 SLP204 T01330017=
200502262151 METAR KATL 262151Z 14005KT 10SM OVC250 14/01 A3012 RMK AO2 SLP202 T01390011=
200502262051 METAR KATL 262051Z 16005KT 10SM OVC250 14/02 A3014 RMK AO2 SLP210 T01390017 55010=
200502261951 METAR KATL 261951Z 10007KT 10SM BKN250 14/01 A3013 RMK AO2 SLP204 T01390011=
200502261851 METAR KATL 261851Z 07008KT 10SM OVC250 14/04 A3014 RMK AO2 SLP207 T01390039=
200502261751 METAR KATL 261751Z 12006KT 10SM OVC250 12/03 A3017 RMK AO2 SLP220 T01220033 10128 20039 58005=
200502261651 METAR KATL 261651Z VRB04KT 10SM BKN250 12/03 A3020 RMK AO2 SLP228 T01170028=
200502261551 METAR KATL 261551Z VRB04KT 10SM SCT240 11/03 A3020 RMK AO2 SLP228 T01060028=
200502261451 METAR KATL 261451Z 11004KT 9SM FEW230 SCT250 08/01 A3019 RMK AO2 SLP225 T00780006 51018=
200502261351 METAR KATL 261351Z 07008KT 7SM SCT250 06/01 A3018 RMK AO2 SLP224 T00560006=
200502261251 METAR KATL 261251Z 04008KT 10SM BKN250 04/M02 A3016 RMK AO2 SLP216 T00441017=
200502261151 METAR KATL 261151Z 02005KT 10SM SCT250 04/M02 A3013 RMK AO2 SLP207 T00391017 10072 20028 51014=
200502261051 METAR KATL 261051Z 33005KT 10SM FEW250 03/M02 A3012 RMK AO2 SLP203 T00281017=
200502260951 METAR KATL 260951Z 34005KT 10SM SCT250 03/M02 A3011 RMK AO2 SLP199 T00331017=
200502260851 METAR KATL 260851Z 31006KT 10SM BKN250 03/M01 A3009 RMK AO2 SLP193 T00331011 58003=
200502260751 METAR KATL 260751Z 33004KT 10SM SCT250 06/M01 A3010 RMK AO2 SLP195 T00561011=
200502260651 METAR KATL 260651Z 31005KT 10SM FEW250 05/M01 A3011 RMK AO2 SLP198 T00501011=
200502260551 METAR KATL 260551Z 00000KT 10SM FEW250 07/M02 A3010 RMK AO2 SLP196 T00721017 10122 20067 53004=
200502260451 METAR KATL 260451Z 32003KT 10SM FEW250 07/M02 A3009 RMK AO2 SLP191 T00721017 401500028=
200502260351 METAR KATL 260351Z 36008KT 10SM FEW250 09/M02 A3009 RMK AO2 SLP191 T00891022=
200502260251 METAR KATL 260251Z 35008KT 10SM FEW250 09/M01 A3009 RMK AO2 SLP193 T00941011 52009=
200502260151 METAR KATL 260151Z 34008KT 10SM FEW250 10/M01 A3007 RMK AO2 SLP188 T01001006=
200502260051 METAR KATL 260051Z 32008KT 10SM FEW250 11/01 A3008 RMK AO2 SLP189 T01060011=
200502252351 METAR KATL 252351Z 32007KT 10SM FEW250 12/01 A3006 RMK AO2 SLP183 T01220006 10150 20106 53012=
200502252251 METAR KATL 252251Z 00000KT 10SM FEW250 14/01 A3004 RMK AO2 SLP175 T01390006=
200502252151 METAR KATL 252151Z 00000KT 10SM FEW250 14/01 A3003 RMK AO2 SLP170 T01440006=
200502252051 METAR KATL 252051Z 22005KT 10SM SCT250 14/02 A3003 RMK AO2 SLP169 T01440017 56018=
200502251951 METAR KATL 251951Z VRB03KT 10SM SCT250 13/04 A3003 RMK AO2 SLP172 T01330039=
200502251851 METAR KATL 251851Z 17003KT 10SM FEW029 12/03 A3005 RMK AO2 SLP178 T01220033=
200502251751 METAR KATL 251751Z 20003KT 10SM SCT024 11/04 A3008 RMK AO2 SLP189 T01060039 10111 20028 58004=
200502251651 METAR KATL 251651Z 00000KT 8SM FEW024 09/03 A3010 RMK AO2 SLP194 T00940033=
200502251551 METAR KATL 251551Z 07004KT 8SM BKN016 OVC024 08/02 A3011 RMK AO2 SLP200 T00780022=
200502251451 METAR KATL 251451Z 36007KT 8SM SCT018 BKN024 06/01 A3009 RMK AO2 SLP193 T00610011 52018=
200502251351 METAR KATL 251351Z 36010KT 10SM FEW024 SCT130 BKN210 BKN250 04/01 A3008 RMK AO2 SLP187 T00440006=
200502251251 METAR KATL 251251Z 34008KT 10SM SCT024 BKN130 BKN200 03/01 A3006 RMK AO2 SLP181 T00280006=
200502251151 METAR KATL 251151Z 34007KT 9SM SCT130 BKN200 03/00 A3004 RMK AO2 SLP175 70001 T00330000 10072 20033 53013=
200502251051 METAR KATL 251051Z 33011KT 9SM BKN200 04/01 A3003 RMK AO2 SLP169 T00390006=
200502250951 METAR KATL 250951Z 32010KT 10SM SCT120 OVC200 05/01 A3001 RMK AO2 SLP161 T00500011=
200502250851 METAR KATL 250851Z 32007KT 10SM OVC120 05/01 A3000 RMK AO2 SLP161 T00500011 53000=
200502250751 METAR KATL 250751Z 33011KT 10SM BKN110 06/02 A3000 RMK AO2 SLP160 T00560017=
200502250651 METAR KATL 250651Z 33009KT 10SM OVC120 06/02 A3000 RMK AO2 SLP158 T00610017=
200502250551 METAR KATL 250551Z 33008KT 10SM BKN120 BKN250 07/03 A3000 RMK AO2 SLP160 T00720028 10139 20072 53010=
200502250451 METAR KATL 250451Z 33013KT 10SM BKN110 08/02 A2998 RMK AO2 SLP153 T00830022 401560083=
200502250351 METAR KATL 250351Z 33012KT 10SM BKN200 10/05 A2998 RMK AO2 SLP151 T01000050=
200502250251 METAR KATL 250251Z 31012KT 10SM OVC200 11/07 A2997 RMK AO2 SLP149 T01110072 52013=
200502250151 METAR KATL 250151Z 30011KT 10SM OVC200 13/08 A2996 RMK AO2 SLP145 T01280083=
200502250051 METAR KATL 250051Z 27004KT 10SM BKN040 OVC150 13/09 A2994 RMK AO2 SLP137 T01330089=
200502242351 METAR KATL 242351Z 28005KT 10SM BKN040 OVC150 13/08 A2993 RMK AO2 SLP134 T01330083 10156 20133 53013=
200502242251 METAR KATL 242251Z 28010KT 10SM BKN038 OVC200 14/08 A2991 RMK AO2 SLP126 T01440083=
200502242151 METAR KATL 242151Z 30008KT 10SM FEW029 OVC038 16/09 A2989 RMK AO2 SLP118 BINOVC T01560094=
200502242126 SPECI KATL 242126Z 29005KT 10SM SCT029 OVC036 15/10 A2989 RMK AO2=
200502242126 SPECI KATL 242126Z 29005KT 10SM SCT029 OVC036 15/10 A2989 RMK AO2=
200502242119 SPECI KATL 242119Z 30007KT 10SM BKN029 OVC036 15/09 A2989 RMK AO2=
200502242119 SPECI KATL 242119Z 30007KT 10SM BKN029 OVC036 15/09 A2989 RMK AO2=
200502242051 METAR KATL 242051Z 28005KT 10SM BKN030 15/10 A2989 RMK AO2 SLP120 T01500100 55006=
200502241951 METAR KATL 241951Z 34008KT 8SM BKN025 15/10 A2989 RMK AO2 SLP119 T01500100=
200502241851 METAR KATL 241851Z 32007KT 7SM FEW015 BKN018 OVC020 14/11 A2989 RMK AO2 SLP121 T01440106=
200502241751 METAR KATL 241751Z 32008KT 7SM FEW012 BKN016 OVC020 14/11 A2991 RMK AO2 SLP126 60001 T01390111 10144 20128 50000=
200502241735 SPECI KATL 241735Z 32010KT 7SM OVC016 14/11 A2992 RMK AO2=
200502241735 SPECI KATL 241735Z 32010KT 7SM OVC016 14/11 A2992 RMK AO2=
200502241651 METAR KATL 241651Z 31008KT 7SM FEW009 BKN014 OVC100 14/12 A2992 RMK AO2 SLP131 T01390117=
200502241639 SPECI KATL 241639Z 31010KT 6SM R09R/4500VP6000FT BR SCT009 BKN016 OVC100 14/12 A2992 RMK AO2=
200502241639 SPECI KATL 241639Z 31010KT 6SM R09R/4500VP6000FT BR SCT009 BKN016 OVC100 14/12 A2992 RMK AO2=
200502241551 METAR KATL 241551Z 31008KT 5SM BR BKN005 BKN010 OVC030 14/13 A2992 RMK AO2 SLP128 T01390128=
200502241451 METAR KATL 241451Z 34008KT 3SM BR OVC005 13/12 A2991 RMK AO2 SFC VIS 5 SLP126 60001 T01330122 52019=
200502241438 SPECI KATL 241438Z 32010KT 2 1/2SM BR OVC005 13/12 A2990 RMK AO2 SFC VIS 5=
200502241438 SPECI KATL 241438Z 32010KT 2 1/2SM BR OVC005 13/12 A2990 RMK AO2 SFC VIS 5=
200502241421 SPECI KATL 241421Z 32009KT 2 1/2SM BR OVC003 13/12 A2989 RMK AO2 SFC VIS 5 CIG 001V006 $=
200502241421 SPECI KATL 241421Z 32009KT 2 1/2SM BR OVC003 13/12 A2989 RMK AO2 SFC VIS 5 CIG 001V006 $=
200502241351 METAR KATL 241351Z 32008KT 1 1/2SM BR OVC003 13/13 A2989 RMK AO2 SFC VIS 2 RAE48 SLP118 P0001 T01330128 $=
200502241251 METAR KATL 241251Z 00000KT 1 1/2SM -RA BR OVC003 13/13 A2987 RMK AO2 SFC VIS 3 RAE1152B44 SLP113 P0000 T01330128 $=
200502241234 SPECI KATL 241234Z 07006KT 1 1/2SM BR OVC003 13/13 A2987 RMK AO2 SFC VIS 3 RAE1152 CIG 001V006 $=
200502241234 SPECI KATL 241234Z 07006KT 1 1/2SM BR OVC003 13/13 A2987 RMK AO2 SFC VIS 3 RAE1152 CIG 001V006 $=
200502241227 SPECI KATL 241227Z 06006KT 1 1/2SM BR OVC005 13/13 A2986 RMK AO2 SFC VIS 3 RAE1152 CIG 001V007 $=
200502241227 SPECI KATL 241227Z 06006KT 1 1/2SM BR OVC005 13/13 A2986 RMK AO2 SFC VIS 3 RAE1152 CIG 001V007 $=
200502241151 METAR KATL 241151Z 06006KT 2 1/2SM -RA BR OVC005 13/13 A2985 RMK AO2 SFC VIS 3 RAE05B22 CIG 002V010 SLP105 P0003 60025 70189 T01330128 10144 20133 53005 $=
200502241051 METAR KATL 241051Z 00000KT 1 1/2SM -RA BR OVC001 14/14 A2984 RMK AO2 SFC VIS 2 SLP100 P0003 T01390139 $=
200502240951 METAR KATL 240951Z 14003KT 2SM -RA BR OVC001 14/14 A2983 RMK AO2 SFC VIS 3 RAB42 CIG 001V004 SLP096 P0000 T01440139 $=
200502240928 SPECI KATL 240928Z 13004KT 2SM BR OVC003 14/14 A2983 RMK AO2 SFC VIS 3 CIG 001V005 $=
200502240928 SPECI KATL 240928Z 13004KT 2SM BR OVC003 14/14 A2983 RMK AO2 SFC VIS 3 CIG 001V005 $=
200502240919 SPECI KATL 240919Z 13004KT 2SM BR OVC001 14/14 A2982 RMK AO2 SFC VIS 3 CIG 001V006 $=
200502240919 SPECI KATL 240919Z 13004KT 2SM BR OVC001 14/14 A2982 RMK AO2 SFC VIS 3 CIG 001V006 $=
200502240851 METAR KATL 240851Z 14003KT 2SM BR OVC003 14/14 A2984 RMK AO2 SFC VIS 3 RAE19 CIG 001V008 SLP098 P0001 60019 T01390139 58024 $=
200502240755 SPECI KATL 240755Z 00000KT 2SM -RA BR BKN003 BKN008 OVC035 14/14 A2986 RMK AO2 SFC VIS 3 P0000 $=
200502240755 SPECI KATL 240755Z 00000KT 2SM -RA BR BKN003 BKN008 OVC035 14/14 A2986 RMK AO2 SFC VIS 3 P0000 $=
200502240751 METAR KATL 240751Z 00000KT 2SM -RA BR SCT003 BKN018 OVC035 14/14 A2986 RMK AO2 SFC VIS 3 SLP107 P0010 T01440139 $=
200502240728 SPECI KATL 240728Z 18004KT 2SM -RA BR FEW006 BKN022 OVC043 14/14 A2987 RMK AO2 SFC VIS 3 P0006 $=
200502240728 SPECI KATL 240728Z 18004KT 2SM -RA BR FEW006 BKN022 OVC043 14/14 A2987 RMK AO2 SFC VIS 3 P0006 $=
200502240714 SPECI KATL 240714Z 18003KT 2SM -RA BR FEW011 BKN022 OVC034 14/14 A2988 RMK AO2 SFC VIS 3 P0004 $=
200502240714 SPECI KATL 240714Z 18003KT 2SM -RA BR FEW011 BKN022 OVC034 14/14 A2988 RMK AO2 SFC VIS 3 P0004 $=
200502240658 SPECI KATL 240658Z 16004KT 2SM RA BR SCT020 BKN030 OVC038 14/14 A2988 RMK AO2 SFC VIS 2 1/2 P0002 $=
200502240658 SPECI KATL 240658Z 16004KT 2SM RA BR SCT020 BKN030 OVC038 14/14 A2988 RMK AO2 SFC VIS 2 1/2 P0002 $=
200502240651 METAR KATL 240651Z 16005KT 3SM RA BR FEW022 BKN030 OVC034 14/14 A2989 RMK AO2 SLP117 P0008 T01440139 $=
200502240551 METAR KATL 240551Z 19005KT 7SM -RA FEW016 BKN055 OVC070 14/13 A2991 RMK AO2 SLP123 P0037 60164 T01440133 10194 20139 $=
200502240451 METAR KATL 240451Z 21005KT 2SM +RA BR SCT008 BKN015 OVC024CB 14/13 A2995 RMK AO2 TWR VIS 2 1/2 SLP138 CB ALQDS MOV NE TSE26 P0066 T01390133 402220072 $=
200502240435 SPECI KATL 240435Z 00000KT 2 1/2SM +RA BR SCT008 BKN015 OVC024CB 14/13 A2995 RMK AO2 LTG DSNT E CB ALQDS MOV NE TSE26 P0042 $=
200502240435 SPECI KATL 240435Z 00000KT 2 1/2SM +RA BR SCT008 BKN015 OVC024CB 14/13 A2995 RMK AO2 LTG DSNT E CB ALQDS MOV NE TSE26 P0042 $=
200502240351 METAR KATL 240351Z 01009KT 1 1/2SM +TSRA BR BKN008 BKN015 OVC024CB 14/14 A2994 RMK AO2 SFC VIS 2 SLP137 OCNL LTGICCCCG S-SW-W TS S-SW-W MOV NE P0026 T01440139 $=
200502240304 SPECI KATL 240304Z 04005KT 1 1/2SM R09R/5000VP6000FT +TSRA BR FEW011 BKN026CB OVC050 14/13 A2997 RMK AO2 SFC VIS 3 OCNL LTGICCCCG ALQDS TS ALQDS MOV NE P0001 $=
200502240304 SPECI KATL 240304Z 04005KT 1 1/2SM R09R/5000VP6000FT +TSRA BR FEW011 BKN026CB OVC050 14/13 A2997 RMK AO2 SFC VIS 3 OCNL LTGICCCCG ALQDS TS ALQDS MOV NE P0001 $=
200502240251 METAR KATL 240251Z 29008KT 1 1/2SM TSRA BR SCT011 BKN032CB OVC041 15/13 A2996 RMK AO2 SFC VIS 2 TSB01RAB0153 SLP143 OCNL LTGICCCCG ALQDS TS ALQDS MOV NE P0031 60035 T01500133 55005 $=
200502240242 SPECI KATL 240242Z 27009G19KT 1 3/4SM R09R/4000VP6000FT +TSRA BR BKN037CB BKN080 OVC120 14/13 A2997 RMK AO2 TSB01RAB0153 OCNL LTGICCCCG NE AND OHD-SW TS NE AND OHD-SW MOV NE P0025 $=
200502240242 SPECI KATL 240242Z 27009G19KT 1 3/4SM R09R/4000VP6000FT +TSRA BR BKN037CB BKN080 OVC120 14/13 A2997 RMK AO2 TSB01RAB0153 OCNL LTGICCCCG NE AND OHD-SW TS NE AND OHD-SW MOV NE P0025 $=
200502240207 SPECI KATL 240207Z 00000KT 4SM -TSRA FEW041 BKN050CB OVC100 15/12 A2995 RMK AO2 TSB01RAB0153 OCNL LTGICCCCG NE TS NE MOV NE P0004 $=
200502240207 SPECI KATL 240207Z 00000KT 4SM -TSRA FEW041 BKN050CB OVC100 15/12 A2995 RMK AO2 TSB01RAB0153 OCNL LTGICCCCG NE TS NE MOV NE P0004 $=
200502240151 METAR KATL 240151Z 10005KT 10SM SCT046CB BKN080 OVC150 16/12 A2994 RMK AO2 TSB0053E51RAB0058E46 SLP139 P0004 T01560117 $=
200502240054 SPECI KATL 240054Z 14006KT 10SM TS BKN060CB BKN075 OVC100 19/07 A2996 RMK AO2 TSB53 OCNL LTGICCCCG S-SW TS S-SW MOV NE=
200502240054 SPECI KATL 240054Z 14006KT 10SM TS BKN060CB BKN075 OVC100 19/07 A2996 RMK AO2 TSB53 OCNL LTGICCCCG S-SW TS S-SW MOV NE=
200502240051 METAR KATL 240051Z 12007KT 10SM BKN060 BKN075 OVC100 19/07 A2996 RMK AO2 SLP143 LTG DNST S-SW T01890072=
200502232351 METAR KATL 232351Z COR 12006KT 10SM SCT080 BKN150 OVC200 19/07 A2997 RMK AO2 SLP148 T01940072 10222 20194 55004 TSNO=
200502232251 METAR KATL 232251Z 12003KT 10SM FEW085 BKN150 OVC200 21/06 A2996 RMK AO2 SLP144 T02060056=
200502232151 METAR KATL 232151Z 19004KT 10SM FEW150 BKN180 BKN250 21/05 A2997 RMK AO2 SLP146 T02110050=
200502232051 METAR KATL 232051Z 00000KT 10SM FEW150 BKN250 BKN300 22/06 A2999 RMK AO2 SLP151 T02170056 56031=
200502231951 METAR KATL 231951Z 21007KT 10SM FEW150 BKN250 BKN300 22/07 A3001 RMK AO2 SLP160 T02170067=
200502231851 METAR KATL 231851Z 00000KT 10SM FEW180 BKN250 BKN300 21/07 A3004 RMK AO2 SLP168 T02060067=
200502231751 METAR KATL 231751Z 00000KT 10SM FEW180 BKN250 BKN300 19/05 A3008 RMK AO2 SLP183 T01940050 10194 20072 58020=
200502231651 METAR KATL 231651Z 00000KT 10SM FEW180 BKN250 BKN300 18/03 A3010 RMK AO2 SLP191 T01830028=
200502231551 METAR KATL 231551Z 00000KT 10SM FEW180 BKN250 BKN300 16/06 A3013 RMK AO2 SLP201 T01560061=
200502231451 METAR KATL 231451Z VRB03KT 10SM FEW180 SCT250 SCT300 12/06 A3014 RMK AO2 SLP205 T01220056 50004=
200502231351 METAR KATL 231351Z 33007KT 10SM SCT200 BKN250 09/05 A3014 RMK AO2 SLP207 T00890050=
200502231251 METAR KATL 231251Z 32007KT 10SM FEW150 SCT200 BKN250 07/04 A3013 RMK AO2 SLP203 T00720044=
200502231151 METAR KATL 231151Z 32006KT 10SM SCT200 07/04 A3013 RMK AO2 SLP202 T00720044 10133 20072 53009=
200502231051 METAR KATL 231051Z 31007KT 10SM FEW200 08/04 A3012 RMK AO2 SLP196 T00780044=
200502230951 METAR KATL 230951Z 32008KT 10SM FEW200 09/05 A3010 RMK AO2 SLP189 T00890050=
200502230851 METAR KATL 230851Z 31007KT 10SM FEW200 09/05 A3010 RMK AO2 SLP191 T00940050 58004=
200502230751 METAR KATL 230751Z 31007KT 10SM SCT200 11/05 A3011 RMK AO2 SLP194 T01110050=
200502230651 METAR KATL 230651Z 34008KT 10SM BKN200 12/06 A3012 RMK AO2 SLP195 T01220056=
200502230551 METAR KATL 230551Z 33008KT 10SM OVC200 13/09 A3012 RMK AO2 SLP195 T01330089 10194 20133 58003=
200502230451 METAR KATL 230451Z 30007KT 10SM FEW080 OVC200 14/10 A3012 RMK AO2 SLP197 T01390100 402220106=
200502230351 METAR KATL 230351Z 31007KT 10SM FEW080 OVC200 15/11 A3012 RMK AO2 SLP198 T01500106=
200502230251 METAR KATL 230251Z 30006KT 10SM OVC200 16/11 A3012 RMK AO2 SLP199 T01610106 51011=
200502230151 METAR KATL 230151Z 31005KT 10SM FEW150 OVC200 17/10 A3011 RMK AO2 SLP194 T01720100=
200502230051 METAR KATL 230051Z 33008KT 10SM FEW150 OVC200 18/10 A3010 RMK AO2 SLP192 T01780100=
200502222351 METAR KATL 222351Z 32005KT 10SM FEW050 BKN200 BKN250 19/10 A3009 RMK AO2 SLP187 T01890100 10222 20189 53008=
200502211951 METAR KATL 211951Z 25014G24KT 10SM FEW020 BKN025 OVC035 21/15 A2998 RMK AO2 SLP150 LTG DSNT N-NE-E CB DSNT N-NE-E MOV E T02060150 $=
200502211925 SPECI KATL 211925Z 24014G19KT 10SM FEW025 SCT035 SCT120 21/16 A2998 RMK AO2 LTG DSNT NE CB DSNT NE=
200502211925 SPECI KATL 211925Z 24014G19KT 10SM FEW025 SCT035 SCT120 21/16 A2998 RMK AO2 LTG DSNT NE CB DSNT NE=
200502211851 METAR KATL 211851Z 24010KT 9SM OVC024 19/15 A3000 RMK AO2 SLP157 LTG DSNT NE CB DSNT NE MOV E T01890150=
200502211751 METAR KATL 211751Z 24014G24KT 8SM BKN017 BKN022 OVC035 19/15 A3001 RMK AO2 RAE04 SLP161 LTG DSNT NW-N CB DSNT NW-N MOV E P0000 60000 T01890150 10189 20128 58008=
200502211744 SPECI KATL 211744Z 24019G22KT 8SM BKN017 BKN022 OVC035 19/15 A3002 RMK AO2 RAE04 LTG DSNT NW-N CB DSNT NW-N MOV E P0000=
200502211744 SPECI KATL 211744Z 24019G22KT 8SM BKN017 BKN022 OVC035 19/15 A3002 RMK AO2 RAE04 LTG DSNT NW-N CB DSNT NW-N MOV E P0000=
200502211722 SPECI KATL 211722Z 21016G23KT 8SM FEW012 SCT035 SCT120 SCT300 19/16 A3002 RMK AO2 RAE04 CB DSNT NW-N MOV E P0000=
200502211722 SPECI KATL 211722Z 21016G23KT 8SM FEW012 SCT035 SCT120 SCT300 19/16 A3002 RMK AO2 RAE04 CB DSNT NW-N MOV E P0000=
200502211705 SPECI KATL 211705Z 22011KT 6SM BR FEW013 BKN028 BKN035 18/16 A3003 RMK AO2 RAE04 P0000=
200502211705 SPECI KATL 211705Z 22011KT 6SM BR FEW013 BKN028 BKN035 18/16 A3003 RMK AO2 RAE04 P0000=
200502211651 METAR KATL 211651Z 23013G17KT 2 1/2SM -RA BR FEW013 BKN018 OVC030 17/16 A3004 RMK AO2 SFC VIS 4 RAE09B48DZB25E48 SLP172 P0000 T01720156=
200502211625 SPECI KATL 211625Z 23014G19KT 5SM -DZ BR BKN017 BKN023 OVC030 18/15 A3005 RMK AO2 RAE09DZB25 P0000=
200502211625 SPECI KATL 211625Z 23014G19KT 5SM -DZ BR BKN017 BKN023 OVC030 18/15 A3005 RMK AO2 RAE09DZB25 P0000=
200502211551 METAR KATL 211551Z 23014G20KT 6SM -RA BR OVC017 17/15 A3004 RMK AO2 RAB49 SLP172 P0000 T01720150=
200502211502 SPECI KATL 211502Z 22012KT 9SM BKN016 BKN021 OVC025 17/15 A3003 RMK AO2=
200502211502 SPECI KATL 211502Z 22012KT 9SM BKN016 BKN021 OVC025 17/15 A3003 RMK AO2=
200502211451 METAR KATL 211451Z 22011KT 8SM BKN014 BKN021 BKN027 17/15 A3004 RMK AO2 SLP170 T01670150 58001=
200502211351 METAR KATL 211351Z 23010KT 7SM BKN014 OVC019 16/15 A3005 RMK AO2 SLP173 T01610150=
200502211316 SPECI KATL 211316Z 23010G15KT 6SM BR BKN010 BKN014 OVC029 16/15 A3005 RMK AO2 CIG 008V013=
200502211316 SPECI KATL 211316Z 23010G15KT 6SM BR BKN010 BKN014 OVC029 16/15 A3005 RMK AO2 CIG 008V013=
200502211251 METAR KATL 211251Z 23009KT 5SM BR OVC009 16/15 A3004 RMK AO2 CIG 006V015 SLP171 T01560150=
200502211212 SPECI KATL 211212Z 22007KT 3SM BR SCT001 OVC006 14/13 A3004 RMK AO2 CIG 005V009=
200502211212 SPECI KATL 211212Z 22007KT 3SM BR SCT001 OVC006 14/13 A3004 RMK AO2 CIG 005V009=
200502211202 SPECI KATL 211202Z 21006KT 2SM BR BKN001 OVC006 13/13 A3004 RMK AO2=
200502211202 SPECI KATL 211202Z 21006KT 2SM BR BKN001 OVC006 13/13 A3004 RMK AO2=
200502211151 METAR KATL 211151Z 20007KT 1/2SM R09R/3000VP6000FT BR OVC001 13/12 A3004 RMK AO2 SFC VIS 3/4 RAE04B21E33 SLP171 P0000 60034 70092 T01280122 10128 20089 58009=
200502211115 SPECI KATL 211115Z 00000KT 1/4SM R09R/2200V2600FT FG VV001 11/11 A3005 RMK AO2 SFC VIS 1/2 RAE04 P0000=
200502211115 SPECI KATL 211115Z 00000KT 1/4SM R09R/2200V2600FT FG VV001 11/11 A3005 RMK AO2 SFC VIS 1/2 RAE04 P0000=
200502211051 METAR KATL 211051Z 00000KT 1/2SM R09R/2600V2800FT -RA FG OVC001 11/11 A3005 RMK AO2 RAB16 SLP176 P0002 T01110111=
200502210951 METAR KATL 210951Z 16005KT 1/2SM R09R/P6000FT BR OVC002 10/10 A3006 RMK AO2 SFC VIS 1 RAE50 SLP178 P0005 T01000100=
200502210923 SPECI KATL 210923Z 00000KT 1/2SM BR OVC004 10/10 A3007 RMK AO2 SFC VIS 2 RAE20 CIG 001V007 P0001=
200502210923 SPECI KATL 210923Z 00000KT 1/2SM BR OVC004 10/10 A3007 RMK AO2 SFC VIS 2 RAE20 CIG 001V007 P0001=
200502210851 METAR KATL 210851Z COR 13008KT 1/2SM R09R/6000VP6000FT -RA BR FEW004 BKN008 OVC014 10/09 A3007 RMK AO2 SFC VIS 1 CIG 007V010 SLP182 P0017 60027 T01000094 58016=
200502210751 METAR KATL 210751Z 08004KT 1/2SM R09R/P6000FT RA BR OVC003 09/09 A3009 RMK AO2 SFC VIS 1 CIG 002V006 SLP191 P0006 T00940094=
200502210722 SPECI KATL 210722Z 00000KT 1/2SM -RA BR BKN003 OVC013 09/09 A3010 RMK AO2 SFC VIS 2 1/2 CIG 001V006 P0004=
200502210722 SPECI KATL 210722Z 00000KT 1/2SM -RA BR BKN003 OVC013 09/09 A3010 RMK AO2 SFC VIS 2 1/2 CIG 001V006 P0004=
200502210715 SPECI KATL 210715Z 10003KT 1/2SM -RA BR BKN001 BKN006 OVC013 09/09 A3010 RMK AO2 SFC VIS 2 1/2 CIG 001V005 P0003=
200502210715 SPECI KATL 210715Z 10003KT 1/2SM -RA BR BKN001 BKN006 OVC013 09/09 A3010 RMK AO2 SFC VIS 2 1/2 CIG 001V005 P0003=
200502210651 METAR KATL 210651Z 11004KT 1/2SM R09R/P6000FT RA BR BKN003 OVC015 09/09 A3010 RMK AO2 SFC VIS 1 CIG 001V005 SLP193 P0004 T00890089=
200502210551 METAR KATL 210551Z 14004KT 1/2SM -RA BR OVC003 09/08 A3012 RMK AO2 SFC VIS 3 SLP199 P0008 60058 T00890083 10144 20083 58023=
200502210451 METAR KATL 210451Z 13008KT 1/2SM -RA BR OVC003 09/08 A3013 RMK AO2 SFC VIS 2 1/2 PRESFR SLP204 P0014 T00890083 401610078=
200502210401 SPECI KATL 210401Z 11009KT 1 1/2SM RA BR SCT005 BKN014 OVC034 08/08 A3016 RMK AO2 SFC VIS 2 1/2 PRESFR P0003=
200502210401 SPECI KATL 210401Z 11009KT 1 1/2SM RA BR SCT005 BKN014 OVC034 08/08 A3016 RMK AO2 SFC VIS 2 1/2 PRESFR P0003=
200502210356 SPECI KATL 210356Z 09008KT 1 1/2SM RA BR FEW005 BKN034 09/08 A3017 RMK AO2 SFC VIS 3 PRESFR P0001=
200502210356 SPECI KATL 210356Z 09008KT 1 1/2SM RA BR FEW005 BKN034 09/08 A3017 RMK AO2 SFC VIS 3 PRESFR P0001=
200502210351 METAR KATL 210351Z 07009KT 1 1/2SM RA BR BKN019 OVC040 09/08 A3018 RMK AO2 SFC VIS 3 SLP222 P0019 T00890078=
200502210319 SPECI KATL 210319Z 03009KT 1 1/2SM RA BR BKN019 OVC040 09/08 A3020 RMK AO2 SFC VIS 3 P0007=
200502210319 SPECI KATL 210319Z 03009KT 1 1/2SM RA BR BKN019 OVC040 09/08 A3020 RMK AO2 SFC VIS 3 P0007=
200502210251 METAR KATL 210251Z 05011KT 5SM RA BR BKN019 OVC040 09/08 A3018 RMK AO2 RAB0152 SLP223 P0017 60017 T00940083 53008=
200502210242 SPECI KATL 210242Z 05011KT 4SM -RA BR BKN019 OVC042 10/08 A3018 RMK AO2 RAB0152 P0015=
200502210242 SPECI KATL 210242Z 05011KT 4SM -RA BR BKN019 OVC042 10/08 A3018 RMK AO2 RAB0152 P0015=
200502210151 METAR KATL 210151Z 10006KT 10SM OVC040 14/07 A3016 RMK AO2 SLP215 T01390072=
200502210051 METAR KATL 210051Z 12007KT 10SM BKN046 OVC070 14/07 A3016 RMK AO2 SLP214 T01390067=
200502202351 METAR KATL 202351Z 13006KT 10SM BKN070 14/06 A3016 RMK AO2 SLP214 T01440061 10161 20117 55005=
200502202251 METAR KATL 202251Z 14008KT 10SM SCT055 OVC070 15/04 A3016 RMK AO2 SLP212 T01500039=
200502202151 METAR KATL 202151Z 19009KT 10SM BKN050 OVC100 16/01 A3017 RMK AO2 SLP216 T01560006=
200502202051 METAR KATL 202051Z 18010KT 10SM BKN095 OVC150 16/01 A3018 RMK AO2 SLP219 T01560006 56035=
200502201951 METAR KATL 201951Z 14007KT 10SM SCT090 BKN150 15/02 A3020 RMK AO2 SLP225 T01500022=
200502201851 METAR KATL 201851Z 12006KT 10SM BKN080 OVC150 14/02 A3024 RMK AO2 SLP241 T01390022=
200502201751 METAR KATL 201751Z 11007KT 10SM BKN080 OVC150 12/02 A3028 RMK AO2 SLP256 60000 T01170022 10122 20078 58021=
200502201651 METAR KATL 201651Z 10008KT 10SM OVC075 11/03 A3033 RMK AO2 SLP273 T01060033=
200502201551 METAR KATL 201551Z 08009KT 10SM BKN075 OVC140 10/04 A3035 RMK AO2 SLP281 T01000039=
200502201451 METAR KATL 201451Z 05010KT 10SM BKN070 OVC140 09/04 A3035 RMK AO2 SLP279 60000 T00890039 51010=
200502201351 METAR KATL 201351Z 07009KT 10SM OVC065 09/03 A3034 RMK AO2 SLP275 T00890028=
200502201251 METAR KATL 201251Z 06007KT 10SM OVC060 08/04 A3033 RMK AO2 RAB27E36 SLP272 P0000 T00780039=
200502201151 METAR KATL 201151Z 04007KT 10SM OVC060 09/02 A3032 RMK AO2 RAE39 SLP267 P0001 60001 70001 T00890022 10094 20083 53006=
200502201051 METAR KATL 201051Z 12003KT 10SM -RA OVC055 09/M01 A3030 RMK AO2 RAB02E21B43 SLP262 P0000 T00941006=
200502200951 METAR KATL 200951Z 13003KT 10SM OVC050 09/M01 A3029 RMK AO2 SLP259 T00941011=
200502200851 METAR KATL 200851Z 00000KT 10SM OVC055 09/00 A3030 RMK AO2 SLP261 T00940000 58005=
200502200751 METAR KATL 200751Z 00000KT 10SM OVC050 09/M02 A3031 RMK AO2 SLP264 T00941017=
200502200651 METAR KATL 200651Z 00000KT 10SM OVC055 09/M01 A3031 RMK AO2 SLP266 T00941006=
200502200551 METAR KATL 200551Z 00000KT 10SM OVC055 09/M02 A3031 RMK AO2 SLP266 T00941017 10117 20094 58008=
200502200451 METAR KATL 200451Z 17003KT 10SM OVC055 10/M02 A3033 RMK AO2 SLP271 T01001022 401330022=
200502200351 METAR KATL 200351Z 20003KT 10SM SCT120 10/M02 A3034 RMK AO2 SLP276 T01001017=
200502200251 METAR KATL 200251Z 00000KT 10SM BKN110 11/M03 A3034 RMK AO2 SLP277 T01061028 50002=
200502200151 METAR KATL 200151Z 21003KT 10SM BKN080 11/M02 A3035 RMK AO2 SLP280 T01061022=
200502200051 METAR KATL 200051Z 20004KT 10SM FEW075 BKN095 11/M02 A3034 RMK AO2 SLP280 T01061017=
200502192351 METAR KATL 192351Z 20004KT 10SM BKN080 BKN095 12/M03 A3033 RMK AO2 SLP275 T01171028 10133 20111 53005=
200502192251 METAR KATL 192251Z 24006KT 10SM BKN080 OVC150 12/M04 A3033 RMK AO2 SLP274 T01221044=
200502192151 METAR KATL 192151Z 24004KT 10SM BKN090 BKN150 13/M04 A3032 RMK AO2 SLP269 T01281044=
200502192051 METAR KATL 192051Z 26004KT 10SM SCT100 BKN180 13/M03 A3032 RMK AO2 SLP269 T01331033 56020=
200502191951 METAR KATL 191951Z 21005KT 10SM BKN100 BKN150 13/M04 A3033 RMK AO2 SLP275 T01281044=
200502191851 METAR KATL 191851Z 30007KT 10SM BKN095 BKN150 12/M04 A3036 RMK AO2 SLP283 T01171039=
200502191751 METAR KATL 191751Z VRB03KT 10SM BKN100 OVC150 11/M03 A3038 RMK AO2 SLP290 T01111028 10111 20022 58004=
200502191651 METAR KATL 191651Z 29004KT 10SM SCT100 BKN150 09/M03 A3040 RMK AO2 SLP300 T00891033=
200502191551 METAR KATL 191551Z 33005KT 10SM SCT100 BKN150 08/M03 A3041 RMK AO2 SLP302 T00781028=
200502191451 METAR KATL 191451Z 29007KT 10SM FEW110 BKN150 07/M03 A3039 RMK AO2 SLP296 T00721028 51022=
200502191351 METAR KATL 191351Z 28006KT 10SM BKN230 07/M03 A3037 RMK AO2 SLP290 T00721028=
200502191251 METAR KATL 191251Z 25003KT 10SM FEW060 SCT250 03/M04 A3035 RMK AO2 SLP283 T00281039=
200502191151 METAR KATL 191151Z 27003KT 10SM FEW060 SCT250 03/M05 A3032 RMK AO2 SLP274 T00331050 10056 20028 53008=
200502191051 METAR KATL 191051Z 27005KT 10SM CLR 03/M05 A3031 RMK AO2 SLP271 T00331050=
200502190951 METAR KATL 190951Z 27004KT 10SM CLR 04/M05 A3030 RMK AO2 SLP263 T00391050=
200502190851 METAR KATL 190851Z 23003KT 10SM CLR 03/M04 A3030 RMK AO2 SLP265 T00331044 53001=
200502190751 METAR KATL 190751Z 26004KT 10SM CLR 05/M06 A3030 RMK AO2 SLP262 T00501056=
200502190651 METAR KATL 190651Z 26005KT 10SM CLR 04/M06 A3030 RMK AO2 SLP265 T00441056=
200502190551 METAR KATL 190551Z 29005KT 10SM CLR 06/M06 A3030 RMK AO2 SLP264 T00561056 10089 20050 50001=
200502190451 METAR KATL 190451Z 25004KT 10SM CLR 06/M05 A3030 RMK AO2 SLP265 T00561050 401170000=
200502190351 METAR KATL 190351Z 00000KT 10SM FEW250 06/M04 A3030 RMK AO2 SLP265 T00561044=
200502190251 METAR KATL 190251Z 00000KT 10SM FEW200 06/M04 A3030 RMK AO2 SLP264 T00611039 53010=
200502190151 METAR KATL 190151Z 00000KT 10SM FEW200 07/M06 A3028 RMK AO2 SLP261 T00721056=
200502190051 METAR KATL 190051Z 00000KT 10SM FEW200 08/M07 A3027 RMK AO2 SLP258 T00781067=
200502182351 METAR KATL 182351Z VRB05KT 10SM FEW200 SCT250 09/M07 A3026 RMK AO2 SLP255 T00891072 10117 20083 53008=
200502182251 METAR KATL 182251Z 30010KT 10SM FEW200 SCT250 10/M07 A3025 RMK AO2 SLP250 T01001067=
200502182151 METAR KATL 182151Z 31009KT 10SM FEW200 SCT250 11/M07 A3024 RMK AO2 SLP244 T01061072=
200502182051 METAR KATL 182051Z 35007G15KT 10SM FEW250 11/M08 A3024 RMK AO2 SLP245 T01111078 56019=
200502181951 METAR KATL 181951Z 33013G21KT 10SM FEW200 SCT250 11/M07 A3024 RMK AO2 SLP246 T01111067=
200502181851 METAR KATL 181851Z 33017G20KT 10SM FEW200 BKN250 11/M07 A3026 RMK AO2 SLP253 T01061072=
200502181751 METAR KATL 181751Z 36015G21KT 10SM FEW200 BKN250 09/M07 A3030 RMK AO2 SLP265 T00941072 10100 20000 51002=
200502181651 METAR KATL 181651Z 35017G21KT 10SM FEW200 SCT250 09/M07 A3030 RMK AO2 SLP265 T00891072=
200502181551 METAR KATL 181551Z 36013G18KT 10SM FEW200 SCT250 07/M08 A3030 RMK AO2 SLP267 T00721083=
200502181451 METAR KATL 181451Z 36010KT 10SM FEW200 SCT250 04/M09 A3029 RMK AO2 SLP264 T00441094 51024=
200502181351 METAR KATL 181351Z 33006KT 10SM FEW150 SCT200 SCT250 02/M09 A3028 RMK AO2 SLP262 T00171094=
200502181251 METAR KATL 181251Z 32005KT 10SM FEW140 SCT210 SCT250 00/M10 A3025 RMK AO2 SLP251 T00001100=
200502181151 METAR KATL 181151Z 33009KT 10SM FEW210 00/M11 A3022 RMK AO2 SLP239 T00001106 10033 20000 53008=
200502181051 METAR KATL 181051Z 34012KT 10SM FEW210 01/M11 A3020 RMK AO2 SLP233 T00061106=
200502180951 METAR KATL 180951Z 33016G20KT 10SM CLR 01/M11 A3020 RMK AO2 SLP231 T00111106=
200502180851 METAR KATL 180851Z 32015G21KT 10SM CLR 02/M11 A3019 RMK AO2 SLP230 T00171106 53004=
200502180751 METAR KATL 180751Z 32018KT 10SM CLR 02/M11 A3018 RMK AO2 SLP225 T00221111=
200502180651 METAR KATL 180651Z 33014KT 10SM CLR 03/M11 A3019 RMK AO2 SLP227 T00281106=
200502180551 METAR KATL 180551Z 33007KT 10SM CLR 03/M10 A3018 RMK AO2 SLP226 T00281100 10083 20028 51004=
200502180451 METAR KATL 180451Z 33008KT 10SM CLR 03/M09 A3018 RMK AO2 SLP226 T00331094 401060033=
200502180351 METAR KATL 180351Z 32007KT 10SM CLR 04/M09 A3018 RMK AO2 SLP225 T00391089=
200502180251 METAR KATL 180251Z 30007KT 10SM SCT250 05/M08 A3017 RMK AO2 SLP222 T00501078 53017=
200502180151 METAR KATL 180151Z 30007KT 10SM FEW200 SCT250 06/M09 A3015 RMK AO2 SLP214 T00611089=
200502180051 METAR KATL 180051Z 32008KT 10SM FEW200 SCT250 07/M09 A3013 RMK AO2 SLP208 T00721094=
200502172351 METAR KATL 172351Z 32014KT 10SM FEW200 BKN250 08/M10 A3012 RMK AO2 SLP203 T00831100 10106 20083 53012=
200502172251 METAR KATL 172251Z 32013KT 10SM FEW200 BKN250 09/M08 A3010 RMK AO2 SLP197 T00941078=
200502172151 METAR KATL 172151Z 31016G19KT 10SM FEW100 SCT150 SCT200 10/M06 A3008 RMK AO2 SLP190 T01001061=
200502172051 METAR KATL 172051Z 33015G21KT 10SM FEW150 SCT200 10/M06 A3008 RMK AO2 SLP189 T01001061 56013=
200502171951 METAR KATL 171951Z 34015G18KT 10SM FEW150 SCT200 10/M06 A3009 RMK AO2 SLP192 T01001061=
200502171851 METAR KATL 171851Z 34015G20KT 10SM FEW150 BKN200 10/M06 A3010 RMK AO2 SLP195 T01001061=
200502171751 METAR KATL 171751Z 31014G19KT 10SM FEW150 SCT200 08/M06 A3012 RMK AO2 SLP202 T00831056 10089 20039 58005=
200502171651 METAR KATL 171651Z 34013G20KT 10SM FEW100 BKN150 BKN200 08/M06 A3014 RMK AO2 SLP209 T00781056=
200502171551 METAR KATL 171551Z 33018G22KT 10SM FEW100 BKN150 BKN180 06/M06 A3015 RMK AO2 PK WND 34027/1505 SLP212 T00611061=
200502171451 METAR KATL 171451Z 32017G21KT 10SM FEW100 BKN150 BKN180 05/M05 A3013 RMK AO2 SLP208 T00501050 51031=
200502171351 METAR KATL 171351Z 34013KT 10SM SCT160 BKN210 BKN250 04/M04 A3012 RMK AO2 SLP202 T00441039=
200502171251 METAR KATL 171251Z 32013KT 10SM SCT160 BKN210 BKN250 04/M02 A3008 RMK AO2 SLP190 T00441022=
200502171151 METAR KATL 171151Z 33013KT 10SM SCT160 BKN210 05/M02 A3004 RMK AO2 SLP174 T00501017 10078 20050 53019=
200502171051 METAR KATL 171051Z 33012G18KT 10SM SCT160 06/M01 A3002 RMK AO2 SLP164 T00561006=
200502170951 METAR KATL 170951Z 32010G17KT 10SM FEW160 06/M01 A2999 RMK AO2 SLP156 T00561006=
200502170851 METAR KATL 170851Z 31011KT 10SM FEW160 06/M01 A2998 RMK AO2 SLP151 T00611006 58003=
200502170751 METAR KATL 170751Z 32011KT 10SM FEW160 07/00 A2998 RMK AO2 SLP152 T00670000=
200502170651 METAR KATL 170651Z 32013KT 10SM FEW200 07/02 A2999 RMK AO2 SLP155 T00720017=
200502170551 METAR KATL 170551Z 33009KT 10SM CLR 08/03 A2999 RMK AO2 SLP154 T00780028 10144 20078 55001=
200502170451 METAR KATL 170451Z 32015KT 10SM FEW250 09/04 A2999 RMK AO2 SLP153 T00890039 402060089=
200502170351 METAR KATL 170351Z 33014G19KT 10SM FEW250 10/04 A2998 RMK AO2 SLP152 T01000044=
200502170251 METAR KATL 170251Z 31017KT 10SM FEW035 SCT060 11/06 A2999 RMK AO2 SLP156 T01060061 51016=
200502170151 METAR KATL 170151Z 32014KT 10SM FEW028 SCT060 12/07 A2998 RMK AO2 SLP152 T01170072=
200502170120 SPECI KATL 170120Z 32015KT 10SM SCT028 BKN039 BKN060 12/07 A2997 RMK AO2=
200502170120 SPECI KATL 170120Z 32015KT 10SM SCT028 BKN039 BKN060 12/07 A2997 RMK AO2=
200502170051 METAR KATL 170051Z 32013KT 10SM FEW022 OVC028 13/08 A2997 RMK AO2 SLP147 T01280078=
200502170039 SPECI KATL 170039Z 32011KT 10SM FEW022 BKN028 13/09 A2996 RMK AO2=
200502170039 SPECI KATL 170039Z 32011KT 10SM FEW022 BKN028 13/09 A2996 RMK AO2=
200502162351 METAR KATL 162351Z 33011KT 10SM FEW027 SCT035TCU BKN065 14/11 A2995 RMK AO2 WSHFT 2256 RAB2258E11 SLP138 TCU NE-E P0000 60000 T01440106 10206 20144 53018=
200502162316 SPECI KATL 162316Z 32013KT 10SM BKN027 BKN035TCU BKN065 17/12 A2993 RMK AO2 WSHFT 2256 RAB2258E11 TCU NE-E P0000=
200502162316 SPECI KATL 162316Z 32013KT 10SM BKN027 BKN035TCU BKN065 17/12 A2993 RMK AO2 WSHFT 2256 RAB2258E11 TCU NE-E P0000=
200502162309 SPECI KATL 162309Z 32016KT 10SM -RA BKN027 BKN035TCU BKN065 17/13 A2991 RMK AO2 RAB2258 TCU NE-E P0000=
200502162309 SPECI KATL 162309Z 32016KT 10SM -RA BKN027 BKN035TCU BKN065 17/13 A2991 RMK AO2 RAB2258 TCU NE-E P0000=
200502162251 METAR KATL 162251Z 25008KT 10SM FEW036TCU SCT045 BKN065 18/13 A2991 RMK AO2 SLP123 TCU N-NE-E T01830128=
200502162151 METAR KATL 162151Z 23011KT 10SM FEW035TCU SCT045 BKN065 19/12 A2989 RMK AO2 SLP119 TCU N-NE-E T01940122=
200502162051 METAR KATL 162051Z 25009KT 10SM SCT035TCU SCT045 BKN065 20/12 A2989 RMK AO2 SLP118 TCU N-NE-E T02000122 56018=
200502161951 METAR KATL 161951Z 29012KT 10SM FEW025 SCT035 BKN065 19/12 A2991 RMK AO2 SLP124 T01940122=
200502161851 METAR KATL 161851Z 27010KT 10SM SCT025 BKN030 BKN045 19/13 A2992 RMK AO2 SLP129 T01890128=
200502161827 SPECI KATL 161827Z 25011KT 10SM FEW020 BKN030 BKN050 19/13 A2993 RMK AO2=
200502161827 SPECI KATL 161827Z 25011KT 10SM FEW020 BKN030 BKN050 19/13 A2993 RMK AO2=
200502161751 METAR KATL 161751Z 25011KT 9SM BKN019 BKN024 BKN045 18/14 A2995 RMK AO2 SLP138 T01830139 10183 20139 58014=
200502161651 METAR KATL 161651Z 27009KT 9SM BKN017 BKN023 OVC030 18/13 A2997 RMK AO2 SLP147 BINOVC T01780133=
200502161551 METAR KATL 161551Z 25010G16KT 7SM FEW013 BKN015 OVC018 17/13 A2998 RMK AO2 SLP151 T01670133=
200502161451 METAR KATL 161451Z 23010G18KT 6SM BR FEW012 BKN015 OVC020 16/13 A2999 RMK AO2 SLP153 T01560133 53004=
200502161404 SPECI KATL 161404Z 23010KT 6SM BR FEW009 BKN011 BKN015 15/13 A2998 RMK AO2=
200502161404 SPECI KATL 161404Z 23010KT 6SM BR FEW009 BKN011 BKN015 15/13 A2998 RMK AO2=
200502161351 METAR KATL 161351Z 25009KT 5SM BR BKN009 OVC013 15/13 A2998 RMK AO2 CIG 007V011 SLP151 BINOVC ALQDS T01500133=
200502161251 METAR KATL 161251Z 23010KT 5SM BR BKN006 OVC013 14/13 A2998 RMK AO2 CIG 005V010 SLP149 T01440133=
200502161151 METAR KATL 161151Z 24009KT 3SM BR OVC006 14/13 A2998 RMK AO2 SLP149 T01390133 10139 20100 55004=
200502161051 METAR KATL 161051Z 23005KT 3SM BR OVC006 14/13 A2997 RMK AO2 SLP147 T01390128=
200502161022 SPECI KATL 161022Z 23007KT 3SM BR OVC006 14/13 A2998 RMK AO2 CIG 004V009=
200502161022 SPECI KATL 161022Z 23007KT 3SM BR OVC006 14/13 A2998 RMK AO2 CIG 004V009=
200502160951 METAR KATL 160951Z 23004KT 3SM BR OVC004 13/13 A2998 RMK AO2 CIG 003V009 SLP151 T01330133=
200502160851 METAR KATL 160851Z 26003KT 3SM BR OVC004 12/12 A2999 RMK AO2 SLP154 T01220122 56016=
200502160834 SPECI KATL 160834Z 00000KT 3SM BR OVC004 12/12 A2999 RMK AO2 CIG 003V007=
200502160834 SPECI KATL 160834Z 00000KT 3SM BR OVC004 12/12 A2999 RMK AO2 CIG 003V007=
200502160823 SPECI KATL 160823Z 21003KT 2SM BR OVC006 12/12 A2999 RMK AO2 SFC VIS 3=
200502160823 SPECI KATL 160823Z 21003KT 2SM BR OVC006 12/12 A2999 RMK AO2 SFC VIS 3=
200502160759 SPECI KATL 160759Z 19003KT 1/2SM R09R/3500V5500FT FG FEW001 OVC008 12/12 A2999 RMK AO2=
200502160759 SPECI KATL 160759Z 19003KT 1/2SM R09R/3500V5500FT FG FEW001 OVC008 12/12 A2999 RMK AO2=
200502160751 METAR KATL 160751Z 19004KT 1/4SM R09R/1800V3500FT FG FEW001 OVC008 12/12 A2999 RMK AO2 TWR VIS 1/2 SLP155 T01170117=
200502160739 SPECI KATL 160739Z 18003KT 1/4SM R09R/1400V2800FT FG SCT001 BKN005 OVC008 11/11 A3000 RMK AO2 TWR VIS 1/2=
200502160739 SPECI KATL 160739Z 18003KT 1/4SM R09R/1400V2800FT FG SCT001 BKN005 OVC008 11/11 A3000 RMK AO2 TWR VIS 1/2=
200502160722 SPECI KATL 160722Z 17004KT 1/4SM R09R/1600V1800FT FG SCT001 OVC008 12/12 A3000 RMK AO2 TWR VIS 1/2=
200502160722 SPECI KATL 160722Z 17004KT 1/4SM R09R/1600V1800FT FG SCT001 OVC008 12/12 A3000 RMK AO2 TWR VIS 1/2=
200502160711 SPECI KATL 160711Z 17005KT 1/4SM R09R/1800V5000FT FG BKN001 BKN026 11/11 A3000 RMK AO2 TWR VIS 1/2=
200502160711 SPECI KATL 160711Z 17005KT 1/4SM R09R/1800V5000FT FG BKN001 BKN026 11/11 A3000 RMK AO2 TWR VIS 1/2=
200502160657 SPECI KATL 160657Z 16005KT 1/2SM R09R/1600V2200FT FG BKN001 BKN026 12/11 A3001 RMK AO2=
200502160657 SPECI KATL 160657Z 16005KT 1/2SM R09R/1600V2200FT FG BKN001 BKN026 12/11 A3001 RMK AO2=
200502160651 METAR KATL 160651Z 17006KT 1/4SM R09R/1600VP6000FT FG BKN001 BKN026 11/11 A3002 RMK AO2 TWR VIS 1/2 SLP163 T01110111=
200502160644 SPECI KATL 160644Z 16004KT 1/2SM R09R/1600V4000FT FG SCT001 BKN026 11/11 A3002 RMK AO2 TWR VIS 4=
200502160644 SPECI KATL 160644Z 16004KT 1/2SM R09R/1600V4000FT FG SCT001 BKN026 11/11 A3002 RMK AO2 TWR VIS 4=
200502160637 SPECI KATL 160637Z 15004KT 1/2SM R09R/1800V6000FT FG BKN001 BKN026 11/11 A3002 RMK AO2 TWR VIS 4=
200502160637 SPECI KATL 160637Z 15004KT 1/2SM R09R/1800V6000FT FG BKN001 BKN026 11/11 A3002 RMK AO2 TWR VIS 4=
200502160628 SPECI KATL 160628Z 00000KT 1/4SM R09R/2200V5000FT FG BKN001 BKN026 11/11 A3003 RMK AO2 TWR VIS 4=
200502160628 SPECI KATL 160628Z 00000KT 1/4SM R09R/2200V5000FT FG BKN001 BKN026 11/11 A3003 RMK AO2 TWR VIS 4=
200502160619 SPECI KATL 160619Z 00000KT 3/4SM R09R/1600V2200FT BR BKN001 BKN026 10/10 A3003 RMK AO2 TWR VIS 4=
200502160619 SPECI KATL 160619Z 00000KT 3/4SM R09R/1600V2200FT BR BKN001 BKN026 10/10 A3003 RMK AO2 TWR VIS 4=
200502160611 SPECI KATL 160611Z 15003KT 1/2SM R09R/1600V2400FT FG BKN001 BKN026 11/11 A3003 RMK AO2 TWR VIS 4=
200502160611 SPECI KATL 160611Z 15003KT 1/2SM R09R/1600V2400FT FG BKN001 BKN026 11/11 A3003 RMK AO2 TWR VIS 4=
200502160602 SPECI KATL 160602Z 00000KT 1/4SM R09R/1200V2400FT FG BKN001 OVC026 10/10 A3003 RMK AO2 TWR VIS 4=
200502160602 SPECI KATL 160602Z 00000KT 1/4SM R09R/1200V2400FT FG BKN001 OVC026 10/10 A3003 RMK AO2 TWR VIS 4=
200502160551 METAR KATL 160551Z 00000KT 1/2SM R09R/1600V2000FT FG BKN001 BKN024 11/10 A3004 RMK AO2 TWR VIS 4 SLP171 T01060100 10133 20100 58009=
200502160540 SPECI KATL 160540Z 00000KT 1/4SM R09R/1400V2000FT FG FEW001 SCT026 10/09 A3004 RMK AO2 TWR VIS 4=
200502160540 SPECI KATL 160540Z 00000KT 1/4SM R09R/1400V2000FT FG FEW001 SCT026 10/09 A3004 RMK AO2 TWR VIS 4=
200502160538 SPECI KATL 160538Z 00000KT 1SM R09R/1200V1800FT BR FEW001 SCT026 10/10 A3004 RMK AO2 TWR VIS 4=
200502160538 SPECI KATL 160538Z 00000KT 1SM R09R/1200V1800FT BR FEW001 SCT026 10/10 A3004 RMK AO2 TWR VIS 4=
200502160511 SPECI KATL 160511Z 16003KT 1 1/4SM R09R/2800VP6000FT BR SCT001 SCT024 11/11 A3005 RMK AO2 TWR VIS 4=
200502160511 SPECI KATL 160511Z 16003KT 1 1/4SM R09R/2800VP6000FT BR SCT001 SCT024 11/11 A3005 RMK AO2 TWR VIS 4=
200502160504 SPECI KATL 160504Z 16003KT 1SM R09R/P6000FT BR SCT001 BKN026 11/11 A3005 RMK AO2 TWR VIS 4=
200502160504 SPECI KATL 160504Z 16003KT 1SM R09R/P6000FT BR SCT001 BKN026 11/11 A3005 RMK AO2 TWR VIS 4=
200502160451 METAR KATL 160451Z 00000KT 1/2SM R09R/3000VP6000FT FG BKN001 OVC026 11/11 A3006 RMK AO2 TWR VIS 4 SLP178 T01110106 401560083=
200502160438 SPECI KATL 160438Z 00000KT 1SM R09R/1600VP6000FT BR BKN001 BKN007 OVC026 11/11 A3006 RMK AO2 TWR VIS 2 1/2=
200502160438 SPECI KATL 160438Z 00000KT 1SM R09R/1600VP6000FT BR BKN001 BKN007 OVC026 11/11 A3006 RMK AO2 TWR VIS 2 1/2=
200502160431 SPECI KATL 160431Z 15003KT 1/4SM R09R/2000V6000FT FG BKN001 BKN007 OVC027 11/11 A3006 RMK AO2 TWR VIS 2 1/2=
200502160431 SPECI KATL 160431Z 15003KT 1/4SM R09R/2000V6000FT FG BKN001 BKN007 OVC027 11/11 A3006 RMK AO2 TWR VIS 2 1/2=
200502160409 SPECI KATL 160409Z 00000KT 1/4SM R09R/0600VP6000FT FG SCT001 OVC007 12/12 A3006 RMK AO2 TWR VIS 1/2=
200502160409 SPECI KATL 160409Z 00000KT 1/4SM R09R/0600VP6000FT FG SCT001 OVC007 12/12 A3006 RMK AO2 TWR VIS 1/2=
200502160351 METAR KATL 160351Z 00000KT 1/4SM R09R/0500V0600FT FG BKN001 BKN007 12/12 A3007 RMK AO2 TWR VIS 1/2 SLP182 T01170117=
200502160341 SPECI KATL 160341Z 14003KT 1SM R09R/0700V1000FT BR SCT001 BKN042 12/12 A3007 RMK AO2=
200502160341 SPECI KATL 160341Z 14003KT 1SM R09R/0700V1000FT BR SCT001 BKN042 12/12 A3007 RMK AO2=
200502160313 SPECI KATL 160313Z 13004KT 2SM BR SCT001 BKN042 12/12 A3006 RMK AO2 TWR VIS 2 1/2=
200502160313 SPECI KATL 160313Z 13004KT 2SM BR SCT001 BKN042 12/12 A3006 RMK AO2 TWR VIS 2 1/2=
200502160251 METAR KATL 160251Z 11004KT 1SM R09R/P6000FT BR OVC001 12/12 A3006 RMK AO2 SLP181 T01220122 53001=
200502160218 SPECI KATL 160218Z 11004KT 1 1/2SM BR OVC001 13/12 A3006 RMK AO2 SFC VIS 2=
200502160218 SPECI KATL 160218Z 11004KT 1 1/2SM BR OVC001 13/12 A3006 RMK AO2 SFC VIS 2=
200502160209 SPECI KATL 160209Z 12004KT 2SM BR OVC003 13/12 A3006 RMK AO2 SFC VIS 4=
200502160209 SPECI KATL 160209Z 12004KT 2SM BR OVC003 13/12 A3006 RMK AO2 SFC VIS 4=
200502160200 SPECI KATL 160200Z 11005KT 4SM BR BKN003 13/12 A3006 RMK AO2=
200502160200 SPECI KATL 160200Z 11005KT 4SM BR BKN003 13/12 A3006 RMK AO2=
200502160151 METAR KATL 160151Z 11005KT 4SM BR SCT003 BKN100 BKN150 13/12 A3006 RMK AO2 SLP180 T01280122=
200502160051 METAR KATL 160051Z 09005KT 6SM BR SCT007 SCT060 BKN100 BKN200 13/12 A3006 RMK AO2 SLP180 T01330122=
200502160009 SPECI KATL 160009Z 09007KT 7SM SCT007 BKN060 BKN100 BKN200 13/12 A3005 RMK AO2=
200502160009 SPECI KATL 160009Z 09007KT 7SM SCT007 BKN060 BKN100 BKN200 13/12 A3005 RMK AO2=
200502152351 METAR KATL 152351Z 10004KT 8SM SCT010 BKN060 BKN100 BKN200 13/12 A3006 RMK AO2 SLP180 T01330122 10156 20133 56004=
200502152251 METAR KATL 152251Z 10006KT 8SM SCT010 SCT100 BKN150 BKN200 14/12 A3006 RMK AO2 SLP180 T01440122=
200502152208 SPECI KATL 152208Z 09008KT 8SM FEW010 SCT100 BKN150 BKN200 14/12 A3006 RMK AO2=
200502152208 SPECI KATL 152208Z 09008KT 8SM FEW010 SCT100 BKN150 BKN200 14/12 A3006 RMK AO2=
200502152151 METAR KATL 152151Z 10007KT 9SM FEW015 SCT100 BKN180 BKN200 15/12 A3006 RMK AO2 SLP180 T01500122=
200502152051 METAR KATL 152051Z 10008KT 9SM FEW015 SCT100 BKN180 BKN200 16/13 A3007 RMK AO2 SLP183 VIRGA N-SE T01560128 56032=
200502151951 METAR KATL 151951Z 11008KT 10SM FEW015 SCT040 SCT100 OVC180 16/12 A3008 RMK AO2 SLP187 T01560122=
200502151851 METAR KATL 151851Z 11007KT 8SM FEW015 SCT040 SCT180 BKN200 16/12 A3012 RMK AO2 SLP200 T01560122=
200502151751 METAR KATL 151751Z 12005KT 6SM BR FEW008 SCT012 SCT040 OVC200 14/12 A3017 RMK AO2 SLP217 T01440122 10144 20083 58015=
200502151738 SPECI KATL 151738Z 12005KT 6SM BR BCFG SCT008 13/12 A3017 RMK AO2=
200502151738 SPECI KATL 151738Z 12005KT 6SM BR BCFG SCT008 13/12 A3017 RMK AO2=
200502151711 SPECI KATL 151711Z 09003KT 2 1/2SM BR BCFG SCT002 BKN005 OVC008 12/12 A3019 RMK AO2 SFC VIS 5=
200502151711 SPECI KATL 151711Z 09003KT 2 1/2SM BR BCFG SCT002 BKN005 OVC008 12/12 A3019 RMK AO2 SFC VIS 5=
200502151651 METAR KATL 151651Z 14003KT 1 1/2SM BR BCFG BKN002 OVC005 12/12 A3019 RMK AO2 SFC VIS 3 SLP225 T01170117=
200502151639 SPECI KATL 151639Z 14005KT 1 1/2SM R09R/4000VP6000FT BR OVC002 12/12 A3020 RMK AO2 SFC VIS 2=
200502151639 SPECI KATL 151639Z 14005KT 1 1/2SM R09R/4000VP6000FT BR OVC002 12/12 A3020 RMK AO2 SFC VIS 2=
200502151624 SPECI KATL 151624Z 13004KT 1/2SM R09R/1600V3000FT BR OVC002 12/11 A3020 RMK AO2 SFC VIS 1=
200502151624 SPECI KATL 151624Z 13004KT 1/2SM R09R/1600V3000FT BR OVC002 12/11 A3020 RMK AO2 SFC VIS 1=
200502151609 SPECI KATL 151609Z 14003KT 1/16SM R09R/1800V2400FT FG VV001 11/11 A3021 RMK AO2 SFC VIS 1/2=
200502151609 SPECI KATL 151609Z 14003KT 1/16SM R09R/1800V2400FT FG VV001 11/11 A3021 RMK AO2 SFC VIS 1/2=
200502151551 METAR KATL 151551Z 10004KT 1/16SM R09R/1200V1600FT FG VV001 11/10 A3021 RMK AO2 SFC VIS 1/2 SLP231 T01060100=
200502151536 SPECI KATL 151536Z 09005KT 1/16SM R09R/0800V1600FT FG VV001 10/10 A3020 RMK AO2 SFC VIS 1/2=
200502151536 SPECI KATL 151536Z 09005KT 1/16SM R09R/0800V1600FT FG VV001 10/10 A3020 RMK AO2 SFC VIS 1/2=
200502151508 SPECI KATL 151508Z 00000KT 1/16SM R09R/1800V2600FT FG VV001 09/09 A3021 RMK AO2 SFC VIS 1/2=
200502151508 SPECI KATL 151508Z 00000KT 1/16SM R09R/1800V2600FT FG VV001 09/09 A3021 RMK AO2 SFC VIS 1/2=
200502151451 METAR KATL 151451Z 00000KT 1/16SM R09R/0800V1000FT FG VV001 09/09 A3022 RMK AO2 SFC VIS 1/4 SLP234 T00890089 53018=
200502151351 METAR KATL 151351Z 14004KT 1/16SM R09R/0800V1000FT FG VV001 08/08 A3020 RMK AO2 SLP229 T00830083=
200502151251 METAR KATL 151251Z 00000KT 1/16SM R09R/0700V1000FT FG BKN001 OVC005 08/08 A3018 RMK AO2 SLP222 T00830083=
200502151151 METAR KATL 151151Z 00000KT 1/8SM R09R/1200V1600FT FG VV001 08/08 A3016 RMK AO2 SLP215 70012 T00830083 10089 20083 53016=
200502151051 METAR KATL 151051Z 04007KT 1/8SM R09R/1200FT FG VV001 09/08 A3013 RMK AO2 SLP204 T00890083=
200502150951 METAR KATL 150951Z 00000KT 1/8SM R09R/1000V1400FT FG VV001 09/09 A3013 RMK AO2 SLP204 T00890089=
200502150851 METAR KATL 150851Z 02004KT 1/8SM R09R/1000V1400FT FG VV001 09/09 A3012 RMK AO2 SLP199 T00890089 58008=
200502150751 METAR KATL 150751Z 00000KT 1/8SM R09R/0800V1000FT FG VV001 08/08 A3013 RMK AO2 SLP203 T00830083=
200502150651 METAR KATL 150651Z 00000KT 1/8SM R09R/1000V1800FT FG VV001 09/09 A3014 RMK AO2 SLP206 T00890089=
200502150551 METAR KATL 150551Z 09004KT 1/8SM R09R/1000V1200FT FG VV001 09/09 A3014 RMK AO2 SLP208 T00890089 10128 20089 58001=
200502150451 METAR KATL 150451Z 06004KT 1/8SM R09R/0800V1000FT FG BKN001 OVC005 09/09 A3015 RMK AO2 SLP210 T00940094 401610072=
200502150351 METAR KATL 150351Z 10003KT 1/8SM R09R/0800V1200FT FG VV001 11/11 A3015 RMK AO2 SLP211 T01060106=
200502150251 METAR KATL 150251Z 12003KT 1/8SM R09R/0800V1000FT FG BKN001 OVC005 11/11 A3014 RMK AO2 SLP209 T01060106 51027=
200502150151 METAR KATL 150151Z 10003KT 1/8SM R09R/0800V1200FT FG VV001 11/11 A3012 RMK AO2 TWR VIS 1/4 SLP201 T01110111=
200502150051 METAR KATL 150051Z 05005KT 1/8SM R09R/1000V1400FT FG VV001 12/12 A3009 RMK AO2 TWR VIS 1/4 SLP191 T01170117=
200502150003 SPECI KATL 150003Z 04007KT 1/8SM R09R/2400VP6000FT FG BKN001 OVC029 12/12 A3007 RMK AO2 TWR VIS 1/4=
200502150003 SPECI KATL 150003Z 04007KT 1/8SM R09R/2400VP6000FT FG BKN001 OVC029 12/12 A3007 RMK AO2 TWR VIS 1/4=
200502142351 METAR KATL 142351Z 05006KT 1/4SM R09R/P6000FT FG FEW020 SCT032 BKN045 12/12 A3006 RMK AO2 SLP181 60001 T01220117 10161 20106 53016=
200502142343 SPECI KATL 142343Z 06005KT 2 1/2SM BR FEW020 SCT032 BKN045 12/12 A3006 RMK AO2 SFC VIS 3=
200502142343 SPECI KATL 142343Z 06005KT 2 1/2SM BR FEW020 SCT032 BKN045 12/12 A3006 RMK AO2 SFC VIS 3=
200502142251 METAR KATL 142251Z 12004KT 4SM BR FEW020 SCT027 BKN042 14/13 A3004 RMK AO2 SLP174 T01440133=
200502142208 SPECI KATL 142208Z 09003KT 3SM BR SCT016 BKN037 BKN044 16/14 A3003 RMK AO2 SFC VIS 6=
200502142208 SPECI KATL 142208Z 09003KT 3SM BR SCT016 BKN037 BKN044 16/14 A3003 RMK AO2 SFC VIS 6=
200502142151 METAR KATL 142151Z 11003KT 3SM BR FEW013 BKN021 BKN041 16/13 A3003 RMK AO2 SFC VIS 6 SLP167 T01560133=
200502142126 SPECI KATL 142126Z 00000KT 2SM BR FEW016 SCT021 BKN034 15/13 A3002 RMK AO2 SFC VIS 4=
200502142126 SPECI KATL 142126Z 00000KT 2SM BR FEW016 SCT021 BKN034 15/13 A3002 RMK AO2 SFC VIS 4=
200502142059 SPECI KATL 142059Z 00000KT 2SM BR FEW016 BKN022 OVC033 14/13 A3001 RMK AO2 SFC VIS 2 1/2=
200502142059 SPECI KATL 142059Z 00000KT 2SM BR FEW016 BKN022 OVC033 14/13 A3001 RMK AO2 SFC VIS 2 1/2=
200502142051 METAR KATL 142051Z 00000KT 1/2SM BR BKN023 BKN034 OVC040 13/13 A3001 RMK AO2 SFC VIS 2 1/2 RAE10 SLP164 P0001 60001 T01330128 55004=
200502142007 SPECI KATL 142007Z 09004KT 1/2SM R09R/6000VP6000FT -RA BR BKN005 OVC016 12/12 A3001 RMK AO2 SFC VIS 1 1/2 P0000=
200502142007 SPECI KATL 142007Z 09004KT 1/2SM R09R/6000VP6000FT -RA BR BKN005 OVC016 12/12 A3001 RMK AO2 SFC VIS 1 1/2 P0000=
200502141951 METAR KATL 141951Z 09003KT 1SM -RA BR BKN005 OVC018 12/12 A3001 RMK AO2 SFC VIS 1 1/2 RAB36 SLP163 P0000 T01220117=
200502141909 SPECI KATL 141909Z 00000KT 1SM BR OVC003 12/12 A3002 RMK AO2 SFC VIS 2 1/2=
200502141909 SPECI KATL 141909Z 00000KT 1SM BR OVC003 12/12 A3002 RMK AO2 SFC VIS 2 1/2=
200502141851 METAR KATL 141851Z 00000KT 1SM BR OVC001 12/12 A3002 RMK AO2 SFC VIS 2 SLP166 T01220117=
200502141751 METAR KATL 141751Z 13003KT 1/8SM R09R/2400V3500FT FG OVC001 11/11 A3003 RMK AO2 SFC VIS 1/2 RAE35 SLP168 P0000 60011 T01060106 10106 20072 50004=
200502141651 METAR KATL 141651Z 00000KT 1/8SM R09R/2400V3000FT -RA FG OVC001 10/10 A3005 RMK AO2 SFC VIS 1/2 RAE1556B51 SLP176 P0000 T01000100=
200502141642 SPECI KATL 141642Z 16003KT 1/8SM R09R/2600V4000FT FG OVC001 09/09 A3004 RMK AO2 SFC VIS 1/2 RAE1556 P0000=
200502141642 SPECI KATL 141642Z 16003KT 1/8SM R09R/2600V4000FT FG OVC001 09/09 A3004 RMK AO2 SFC VIS 1/2 RAE1556 P0000=
200502141607 SPECI KATL 141607Z 18004KT 3/4SM R09R/5500VP6000FT BR OVC001 09/09 A3003 RMK AO2 SFC VIS 1 1/2 RAE1556 P0000=
200502141607 SPECI KATL 141607Z 18004KT 3/4SM R09R/5500VP6000FT BR OVC001 09/09 A3003 RMK AO2 SFC VIS 1 1/2 RAE1556 P0000=
200502141551 METAR KATL 141551Z 14003KT 1 1/2SM -RA BR OVC003 08/08 A3002 RMK AO2 SFC VIS 2 SLP168 P0001 T00830083=
200502141515 SPECI KATL 141515Z 15004KT 2 1/2SM -RA BR OVC003 08/08 A3001 RMK AO2 TWR VIS 3 P0000=
200502141515 SPECI KATL 141515Z 15004KT 2 1/2SM -RA BR OVC003 08/08 A3001 RMK AO2 TWR VIS 3 P0000=
200502141451 METAR KATL 141451Z VRB04KT 3SM -RA BR OVC005 08/07 A3001 RMK AO2 SFC VIS 4 CIG 003V007 SLP165 P0003 60010 T00780072 51014=
200502141427 SPECI KATL 141427Z 16008KT 1 1/2SM -RA BR OVC008 08/07 A3001 RMK AO2 SFC VIS 4 CIG 005V010 P0003=
200502141427 SPECI KATL 141427Z 16008KT 1 1/2SM -RA BR OVC008 08/07 A3001 RMK AO2 SFC VIS 4 CIG 005V010 P0003=
200502141359 SPECI KATL 141359Z 14006KT 1 1/2SM R09R/6000VP6000FT -RA BR OVC012 07/06 A3001 RMK AO2 P0002=
200502141359 SPECI KATL 141359Z 14006KT 1 1/2SM R09R/6000VP6000FT -RA BR OVC012 07/06 A3001 RMK AO2 P0002=
200502141351 METAR KATL 141351Z 13007KT 2SM R09R/6000VP6000FT -RA BR OVC012 07/06 A3001 RMK AO2 SLP163 P0003 T00720061=
200502141251 METAR KATL 141251Z 13007KT 6SM -RA BR OVC012 07/06 A2999 RMK AO2 SLP158 P0004 T00720061=
200502141220 SPECI KATL 141220Z 12007KT 8SM -RA OVC014 07/06 A2998 RMK AO2 P0003=
200502141220 SPECI KATL 141220Z 12007KT 8SM -RA OVC014 07/06 A2998 RMK AO2 P0003=
200502141151 METAR KATL 141151Z 13007KT 6SM -RA BR OVC016 08/06 A2997 RMK AO2 SLP151 P0005 60008 70008 T00780061 10100 20078 58009=
200502141129 SPECI KATL 141129Z 12008KT 7SM -RA BKN020 BKN030 OVC037 08/06 A2997 RMK AO2 P0002=
200502141129 SPECI KATL 141129Z 12008KT 7SM -RA BKN020 BKN030 OVC037 08/06 A2997 RMK AO2 P0002=
200502141116 SPECI KATL 141116Z 13008KT 7SM -RA SCT022 BKN030 OVC037 08/06 A2997 RMK AO2 P0001=
200502141116 SPECI KATL 141116Z 13008KT 7SM -RA SCT022 BKN030 OVC037 08/06 A2997 RMK AO2 P0001=
200502141051 METAR KATL 141051Z 12009KT 8SM -RA BKN022 OVC029 08/06 A2998 RMK AO2 SLP152 P0003 T00830056=
200502141037 SPECI KATL 141037Z 12008KT 8SM -RA BKN025 OVC041 08/05 A2999 RMK AO2 P0002=
200502141037 SPECI KATL 141037Z 12008KT 8SM -RA BKN025 OVC041 08/05 A2999 RMK AO2 P0002=
200502140951 METAR KATL 140951Z 11007KT 10SM -RA OVC046 09/04 A3000 RMK AO2 RAB22 SLP160 P0000 T00940044=
200502140851 METAR KATL 140851Z 09006KT 10SM OVC048 09/04 A3000 RMK AO2 SLP159 60000 T00940044 58016=
200502140751 METAR KATL 140751Z 09008KT 10SM OVC050 09/05 A3001 RMK AO2 RAE13 SLP163 P0000 T00940050=
200502140651 METAR KATL 140651Z 12007KT 10SM -RA OVC050 10/04 A3004 RMK AO2 RAB46 SLP173 P0000 T01000039=
200502140551 METAR KATL 140551Z 11006KT 10SM BKN050 10/04 A3005 RMK AO2 SLP175 T01000039 10117 20100 58012=
200502140451 METAR KATL 140451Z 10010KT 10SM OVC055 10/03 A3006 RMK AO2 SLP180 T01000033 401610072=
200502140351 METAR KATL 140351Z 11007KT 10SM FEW060 BKN075 11/04 A3008 RMK AO2 SLP188 T01060039=
200502140251 METAR KATL 140251Z 10007KT 10SM CLR 11/04 A3009 RMK AO2 SLP189 T01060039 50000=
200502140151 METAR KATL 140151Z 08008KT 10SM BKN060 OVC075 11/03 A3010 RMK AO2 SLP196 T01060033=
200502140051 METAR KATL 140051Z 09010KT 10SM SCT110 11/03 A3009 RMK AO2 SLP192 T01060033=
200502132351 METAR KATL 132351Z 09008KT 10SM FEW090 OVC110 12/04 A3009 RMK AO2 SLP188 60000 T01170044 10161 20117 53005=
200502132251 METAR KATL 132251Z 09005KT 10SM SCT090 OVC110 13/04 A3007 RMK AO2 RAB02E14 SLP185 P0000 T01330044=
200502132151 METAR KATL 132151Z 11007KT 10SM BKN100 OVC110 14/03 A3006 RMK AO2 RAE22 SLP180 P0000 T01440028=
200502132051 METAR KATL 132051Z 17006KT 10SM -RA FEW055 BKN080 OVC090 15/M01 A3007 RMK AO2 RAB15 SLP183 P0000 60000 T01501011 56014=
200502131951 METAR KATL 131951Z 16006KT 10SM BKN070 OVC090 16/M04 A3008 RMK AO2 SLP184 T01611044=
200502131851 METAR KATL 131851Z 11005KT 10SM BKN075 OVC090 16/03 A3009 RMK AO2 SLP189 T01560028=
200502131751 METAR KATL 131751Z 19005KT 10SM BKN070 OVC090 15/02 A3011 RMK AO2 SLP197 T01500017 10150 20083 58004=
200502131651 METAR KATL 131651Z 16006KT 10SM BKN070 OVC090 15/02 A3012 RMK AO2 SLP201 T01500022=
200502131551 METAR KATL 131551Z 19003KT 10SM BKN080 OVC090 13/02 A3013 RMK AO2 SLP204 T01280022=
200502131451 METAR KATL 131451Z 20004KT 10SM BKN075 OVC085 11/03 A3012 RMK AO2 SLP203 T01060028 53013=
200502131351 METAR KATL 131351Z 00000KT 10SM OVC060 09/03 A3010 RMK AO2 SLP196 T00890028=
200502131251 METAR KATL 131251Z 16003KT 10SM OVC055 08/03 A3009 RMK AO2 SLP192 T00830028=
200502131151 METAR KATL 131151Z 00000KT 10SM BKN070 OVC080 09/02 A3009 RMK AO2 RAB1055E04 SLP188 P0000 60000 T00890017 10089 20072 53004=
200502131051 METAR KATL 131051Z 00000KT 10SM OVC090 08/02 A3007 RMK AO2 SLP183 T00830017=
200502130951 METAR KATL 130951Z 00000KT 10SM OVC100 08/01 A3008 RMK AO2 SLP185 T00830011=
200502130851 METAR KATL 130851Z 23003KT 10SM FEW110 BKN200 08/01 A3007 RMK AO2 SLP184 T00780006 58003=
200502130751 METAR KATL 130751Z 23003KT 10SM SCT250 08/01 A3008 RMK AO2 SLP186 T00830006=
200502130651 METAR KATL 130651Z 24004KT 10SM BKN200 09/00 A3009 RMK AO2 SLP189 T00890000=
200502130551 METAR KATL 130551Z 23005KT 10SM BKN220 08/01 A3008 RMK AO2 SLP188 T00780006 10133 20078 58004=
200502130451 METAR KATL 130451Z 00000KT 10SM BKN250 08/00 A3009 RMK AO2 SLP189 T00830000 401670011=
200502130351 METAR KATL 130351Z 24004KT 10SM SCT250 09/M01 A3010 RMK AO2 SLP194 T00941006=
200502130251 METAR KATL 130251Z 23003KT 10SM CLR 09/00 A3009 RMK AO2 SLP193 T00940000 53005=
200502130151 METAR KATL 130151Z 00000KT 10SM CLR 11/M01 A3009 RMK AO2 SLP193 T01061011=
200502130051 METAR KATL 130051Z 29003KT 10SM FEW250 12/M03 A3008 RMK AO2 SLP191 T01221028=
200502122351 METAR KATL 122351Z 26006KT 10SM FEW150 BKN250 13/M02 A3008 RMK AO2 SLP189 T01281017 10167 20128 53007=
200502122251 METAR KATL 122251Z COR 26007KT 10SM SCT150 BKN250 15/M03 A3007 RMK AO2 SLP183 T01501028=
200502122151 METAR KATL 122151Z 26010KT 10SM FEW180 BKN250 16/M03 A3005 RMK AO2 SLP179 T01611033=
200502122051 METAR KATL 122051Z 29008KT 10SM BKN250 16/M03 A3006 RMK AO2 SLP180 T01611028 56024=
200502121951 METAR KATL 121951Z 30009KT 10SM OVC250 17/M02 A3007 RMK AO2 SLP183 T01671022=
200502121851 METAR KATL 121851Z 32012KT 10SM SCT200 OVC250 16/M03 A3009 RMK AO2 WSHFT 1834 SLP192 T01611028=
200502121751 METAR KATL 121751Z 31008KT 10SM FEW200 BKN250 14/M02 A3013 RMK AO2 SLP206 T01391017 10139 20011 58010=
200502121651 METAR KATL 121651Z 30010KT 10SM SCT200 BKN250 13/M01 A3016 RMK AO2 SLP215 T01281011=
200502121551 METAR KATL 121551Z 29010KT 10SM SCT200 BKN250 10/M03 A3016 RMK AO2 SLP218 T01001028=
200502121451 METAR KATL 121451Z 29009KT 10SM SCT200 SCT250 07/M03 A3016 RMK AO2 SLP219 T00671028 53010=
200502121351 METAR KATL 121351Z 28008KT 10SM FEW200 SCT250 04/M03 A3015 RMK AO2 SLP214 T00391033=
200502121251 METAR KATL 121251Z 27005KT 10SM FEW200 SCT250 01/M03 A3014 RMK AO2 SLP214 T00111033 $=
200502121151 METAR KATL 121151Z 27007KT 10SM CLR 01/M03 A3013 RMK AO2 SLP210 T00111033 10033 20011 53005=
200502121051 METAR KATL 121051Z 27006KT 10SM CLR 02/M03 A3013 RMK AO2 SLP208 T00171033=
200502120951 METAR KATL 120951Z 27007KT 10SM CLR 02/M03 A3012 RMK AO2 SLP204 T00171033=
200502120851 METAR KATL 120851Z 27008KT 10SM CLR 02/M03 A3012 RMK AO2 SLP204 T00221028 58006=
200502120751 METAR KATL 120751Z 26007KT 10SM CLR 03/M03 A3013 RMK AO2 SLP207 T00281028=
200502120651 METAR KATL 120651Z 27007KT 10SM CLR 02/M03 A3013 RMK AO2 SLP209 T00221033=
200502120551 METAR KATL 120551Z 28005KT 10SM SCT250 03/M03 A3014 RMK AO2 SLP211 T00331033 10067 20028 58009=
200502120451 METAR KATL 120451Z 27005KT 10SM FEW250 03/M03 A3015 RMK AO2 SLP216 T00331033 401001033=
200502120351 METAR KATL 120351Z 27006KT 10SM FEW250 04/M03 A3016 RMK AO2 SLP221 T00391033=
200502120251 METAR KATL 120251Z 27004KT 10SM FEW250 05/M04 A3016 RMK AO2 SLP222 T00501039 55001=
200502120151 METAR KATL 120151Z 27007KT 10SM FEW250 06/M04 A3016 RMK AO2 SLP223 T00561039=
200502120051 METAR KATL 120051Z 28008KT 10SM FEW250 05/M04 A3016 RMK AO2 SLP223 T00501039=
200502112351 METAR KATL 112351Z AUTO 27007KT 10SM FEW250 07/M04 A3017 RMK AO2 SLP224 T00671039 10100 20067 53006=
200502112251 METAR KATL 112251Z 28011KT 10SM FEW250 08/M04 A3016 RMK AO2 SLP220 T00831044=
200502112151 METAR KATL 112151Z 31013G20KT 10SM FEW250 09/M04 A3014 RMK AO2 SLP213 T00941044=
200502112051 METAR KATL 112051Z 31011KT 10SM FEW250 09/M04 A3015 RMK AO2 PK WND 28026/2024 SLP216 T00891044 55012=
200502111951 METAR KATL 111951Z 32018G23KT 10SM FEW250 08/M05 A3014 RMK AO2 SLP213 T00831050=
200502111851 METAR KATL 111851Z 30020KT 10SM FEW250 08/M06 A3015 RMK AO2 SLP218 T00781061=
200502111751 METAR KATL 111751Z 30017KT 10SM FEW250 07/M07 A3018 RMK AO2 SLP229 T00671067 10067 21033 58015=
200502111651 METAR KATL 111651Z 30015G21KT 10SM CLR 05/M07 A3021 RMK AO2 SLP238 T00501067=
200502111551 METAR KATL 111551Z 31014G18KT 10SM CLR 02/M07 A3023 RMK AO2 SLP247 T00221067=
200502111451 METAR KATL 111451Z 30017KT 10SM FEW250 00/M08 A3023 RMK AO2 SLP247 T00001078 50004=
200502111351 METAR KATL 111351Z 30010KT 10SM CLR M02/M07 A3023 RMK AO2 SLP248 T10221067=
200502111251 METAR KATL 111251Z 30011KT 10SM CLR M03/M07 A3023 RMK AO2 SLP246 T10331072=
200502111151 METAR KATL 111151Z 30009KT 10SM CLR M03/M07 A3022 RMK AO2 SLP243 T10331072 11011 21033 53012=
200502111051 METAR KATL 111051Z 31013KT 10SM CLR M03/M07 A3019 RMK AO2 SLP233 T10281072=
200502110951 METAR KATL 110951Z 31012KT 10SM CLR M03/M07 A3019 RMK AO2 SLP231 T10281072=
200502110851 METAR KATL 110851Z 31014G18KT 10SM CLR M02/M07 A3018 RMK AO2 SLP228 T10221072 50003=
200502110751 METAR KATL 110751Z 31014KT 10SM CLR M02/M07 A3019 RMK AO2 SLP231 T10171072=
200502110651 METAR KATL 110651Z 31013KT 10SM CLR M02/M07 A3018 RMK AO2 SLP227 T10171072=
200502110551 METAR KATL 110551Z 32015G18KT 10SM CLR M01/M07 A3017 RMK AO2 SLP226 T10111072 10022 21011 58005=
200502110451 METAR KATL 110451Z 31014KT 10SM CLR M01/M07 A3017 RMK AO2 SLP225 T10111072 401001011=
200502110351 METAR KATL 110351Z 31015KT 10SM FEW250 M01/M07 A3020 RMK AO2 SLP234 T10061072=
200502110251 METAR KATL 110251Z 31013KT 10SM FEW250 M01/M07 A3019 RMK AO2 SLP232 T10061067 51015=
200502110151 METAR KATL 110151Z 33014G18KT 10SM FEW050 00/M07 A3018 RMK AO2 SLP229 T00001067=
200502110051 METAR KATL 110051Z 32015G21KT 10SM FEW046 01/M07 A3017 RMK AO2 SLP223 T00111072=
200502102351 METAR KATL 102351Z 33016G23KT 10SM FEW046 02/M07 A3014 RMK AO2 PK WND 31027/2320 SLP216 T00221067 10072 20022 53030=
200502102251 METAR KATL 102251Z 30021G29KT 10SM FEW050 04/M06 A3010 RMK AO2 PK WND 29031/2224 SLP200 T00391061=
200502102151 METAR KATL 102151Z 32020G27KT 10SM FEW050 06/M06 A3007 RMK AO2 PK WND 32027/2143 SLP187 T00561061=
200502102051 METAR KATL 102051Z 31022G28KT 10SM FEW050 06/M06 A3005 RMK AO2 PK WND 29029/2037 SLP181 T00611056 55000=
200502101951 METAR KATL 101951Z 33021G30KT 10SM FEW050 06/M06 A3004 RMK AO2 PK WND 30030/1946 SLP177 T00611061=
200502101851 METAR KATL 101851Z 31017G27KT 10SM FEW050 07/M04 A3004 RMK AO2 PK WND 30028/1818 SLP177 T00671044=
200502101751 METAR KATL 101751Z 30018G28KT 10SM SCT045 06/M04 A3005 RMK AO2 PK WND 30028/1746 SLP180 T00561039 10061 20028 50003=
200502101651 METAR KATL 101651Z 30018G26KT 10SM SCT040 05/M03 A3007 RMK AO2 PK WND 29027/1606 SLP186 T00501028=
200502101551 METAR KATL 101551Z 31020G26KT 10SM SCT040 05/M02 A3007 RMK AO2 PK WND 32034/1503 SLP185 T00501022=
200502101451 METAR KATL 101451Z 30026G32KT 10SM FEW040 04/M04 A3004 RMK AO2 PK WND 31032/1450 SLP177 T00391039 51012=
200502101351 METAR KATL 101351Z 30015G22KT 10SM FEW035 SCT060 03/M03 A3004 RMK AO2 SLP175 T00331028=
200502101251 METAR KATL 101251Z 29013KT 10SM SCT037 03/M02 A3002 RMK AO2 PK WND 31027/1217 SLP169 T00331022=
200502101151 METAR KATL 101151Z 30015G25KT 10SM FEW037 03/M03 A3001 RMK AO2 SLP163 70039 T00331033 10089 20033 51011=
200502101051 METAR KATL 101051Z 31013KT 10SM BKN035 04/M01 A3000 RMK AO2 SLP160 T00391011=
200502100951 METAR KATL 100951Z 29015G20KT 10SM BKN033 04/M01 A2999 RMK AO2 SLP157 T00441011=
200502100851 METAR KATL 100851Z 30019G27KT 10SM FEW028 SCT034 05/00 A2997 RMK AO2 PK WND 29027/0847 SLP151 T00500000 53003=
200502100843 SPECI KATL 100843Z 29016G25KT 10SM SCT029 06/00 A2997 RMK AO2 PK WND 29027/0832=
200502100843 SPECI KATL 100843Z 29016G25KT 10SM SCT029 06/00 A2997 RMK AO2 PK WND 29027/0832=
200502100834 SPECI KATL 100834Z 30023G27KT 10SM BKN029 06/01 A2996 RMK AO2 PK WND 29027/0832=
200502100834 SPECI KATL 100834Z 30023G27KT 10SM BKN029 06/01 A2996 RMK AO2 PK WND 29027/0832=
200502100751 METAR KATL 100751Z 28011KT 10SM FEW032 07/02 A2996 RMK AO2 SLP145 T00670022=
200502100651 METAR KATL 100651Z 29013G24KT 10SM FEW032 08/02 A2998 RMK AO2 SLP152 T00780022=
200502100551 METAR KATL 100551Z 30011KT 10SM SCT021 SCT150 09/06 A2996 RMK AO2 SLP146 60013 T00890061 10150 20089 53008=
200502100529 SPECI KATL 100529Z 29016G20KT 10SM SCT021 SCT150 09/07 A2996 RMK AO2=
200502100529 SPECI KATL 100529Z 29016G20KT 10SM SCT021 SCT150 09/07 A2996 RMK AO2=
200502100526 SPECI KATL 100526Z 29012KT 10SM BKN021 09/07 A2996 RMK AO2=
200502100526 SPECI KATL 100526Z 29012KT 10SM BKN021 09/07 A2996 RMK AO2=
200502100451 METAR KATL 100451Z 30019KT 10SM FEW021 SCT200 10/07 A2994 RMK AO2 SLP139 T01000072 401560100=
200502100351 METAR KATL 100351Z 30012KT 10SM FEW200 11/09 A2994 RMK AO2 SLP137 T01110089=
200502100251 METAR KATL 100251Z 29010KT 10SM FEW018 SCT031 BKN250 12/10 A2994 RMK AO2 RAE0152 SLP138 60013 T01220100 51014=
200502100237 SPECI KATL 100237Z 29009KT 10SM SCT026 BKN033 12/11 A2994 RMK AO2 RAE0152=
200502100237 SPECI KATL 100237Z 29009KT 10SM SCT026 BKN033 12/11 A2994 RMK AO2 RAE0152=
200502100209 SPECI KATL 100209Z 30011KT 10SM FEW008 OVC026 13/11 A2993 RMK AO2 RAE0152=
200502100209 SPECI KATL 100209Z 30011KT 10SM FEW008 OVC026 13/11 A2993 RMK AO2 RAE0152=
200502100151 METAR KATL 100151Z 30013KT 8SM -RA SCT010 BKN015 OVC026 13/11 A2992 RMK AO2 RAB17 SLP133 P0000 T01330111=
200502100120 SPECI KATL 100120Z 29011KT 10SM -RA FEW008 BKN012 OVC027 14/13 A2992 RMK AO2 RAB17 P0000=
200502100120 SPECI KATL 100120Z 29011KT 10SM -RA FEW008 BKN012 OVC027 14/13 A2992 RMK AO2 RAB17 P0000=
200502100051 METAR KATL 100051Z 26006KT 7SM FEW012 BKN017 OVC046 14/13 A2992 RMK AO2 DZE05RAB05E23 SLP129 P0013 T01440133=
200502100022 SPECI KATL 100022Z 28007KT 4SM -RA BR FEW008 BKN017 OVC024 15/13 A2992 RMK AO2 DZE05RAB05 P0013=
200502100022 SPECI KATL 100022Z 28007KT 4SM -RA BR FEW008 BKN017 OVC024 15/13 A2992 RMK AO2 DZE05RAB05 P0013=
200502100004 SPECI KATL 100004Z 28005KT 7SM -DZ FEW008 BKN014 OVC024 15/14 A2991 RMK AO2 P0001=
200502100004 SPECI KATL 100004Z 28005KT 7SM -DZ FEW008 BKN014 OVC024 15/14 A2991 RMK AO2 P0001=
200502092351 METAR KATL 092351Z 20007KT 7SM -DZ SCT014 BKN022 OVC030 15/14 A2990 RMK AO2 SLP122 P0000 60001 T01500139 10156 20144 58008=
200502092333 SPECI KATL 092333Z 20007KT 7SM -DZ SCT022 BKN027 OVC050 15/14 A2990 RMK AO2 P0000=
200502092333 SPECI KATL 092333Z 20007KT 7SM -DZ SCT022 BKN027 OVC050 15/14 A2990 RMK AO2 P0000=
200502092322 SPECI KATL 092322Z 21008KT 7SM -DZ SCT024 BKN033 OVC080 15/14 A2990 RMK AO2 P0000=
200502092322 SPECI KATL 092322Z 21008KT 7SM -DZ SCT024 BKN033 OVC080 15/14 A2990 RMK AO2 P0000=
200502092315 SPECI KATL 092315Z 20006KT 7SM -DZ BKN024 BKN035 OVC055 15/14 A2990 RMK AO2 P0000=
200502092315 SPECI KATL 092315Z 20006KT 7SM -DZ BKN024 BKN035 OVC055 15/14 A2990 RMK AO2 P0000=
200502092251 METAR KATL 092251Z 21007KT 7SM -DZ FEW016 SCT029 OVC043 15/13 A2991 RMK AO2 SLP126 P0000 T01500133=
200502092151 METAR KATL 092151Z 21007KT 6SM -DZ BR BKN020 BKN030 OVC150 15/14 A2991 RMK AO2 RAB19E29DZB46 SLP127 P0000 T01500139=
200502092051 METAR KATL 092051Z 21009KT 10SM FEW009 BKN018 BKN028 OVC150 16/14 A2992 RMK AO2 SLP130 60001 T01560139 56011=
200502092027 SPECI KATL 092027Z 22007KT 10SM FEW009 BKN018 OVC030 16/14 A2992 RMK AO2=
200502092027 SPECI KATL 092027Z 22007KT 10SM FEW009 BKN018 OVC030 16/14 A2992 RMK AO2=
200502091951 METAR KATL 091951Z 21009KT 9SM FEW009 SCT014 BKN036 OVC150 15/14 A2992 RMK AO2 RAE1853 SLP132 P0001 T01500139=
200502091912 SPECI KATL 091912Z 23007KT 9SM SCT006 BKN012 OVC015 15/14 A2994 RMK AO2 RAE1853 P0001=
200502091912 SPECI KATL 091912Z 23007KT 9SM SCT006 BKN012 OVC015 15/14 A2994 RMK AO2 RAE1853 P0001=
200502091851 METAR KATL 091851Z 20008KT 9SM -RA OVC008 15/14 A2992 RMK AO2 CIG 006V011 SLP130 P0000 T01500139=
200502091751 METAR KATL 091751Z 20008KT 8SM -RA SCT004 BKN085 OVC150 15/14 A2995 RMK AO2 SLP142 P0001 60025 T01500139 10150 20122 58017=
200502091743 SPECI KATL 091743Z 21007KT 6SM BR SCT004 SCT018 BKN085 OVC150 15/14 A2996 RMK AO2 RAE42 P0001=
200502091743 SPECI KATL 091743Z 21007KT 6SM BR SCT004 SCT018 BKN085 OVC150 15/14 A2996 RMK AO2 RAE42 P0001=
200502091651 METAR KATL 091651Z 20005KT 5SM -RA BR FEW005 BKN025 OVC040 14/14 A2998 RMK AO2 SLP151 P0003 T01440139=
200502091551 METAR KATL 091551Z 23005KT 5SM -RA BR OVC005 14/14 A3000 RMK AO2 SLP158 P0003 T01440139=
200502091512 SPECI KATL 091512Z 20005KT 4SM -RA BR BKN003 BKN015 OVC060 13/13 A3000 RMK AO2 P0002=
200502091512 SPECI KATL 091512Z 20005KT 4SM -RA BR BKN003 BKN015 OVC060 13/13 A3000 RMK AO2 P0002=
200502091451 METAR KATL 091451Z 22004KT 5SM -RA BR FEW003 BKN005 OVC015 13/13 A3001 RMK AO2 SLP161 P0003 60018 T01330133 52009=
200502091434 SPECI KATL 091434Z 22004KT 5SM -RA BR FEW003 BKN005 OVC015 13/13 A3001 RMK AO2 P0002=
200502091434 SPECI KATL 091434Z 22004KT 5SM -RA BR FEW003 BKN005 OVC015 13/13 A3001 RMK AO2 P0002=
200502091431 SPECI KATL 091431Z 22005KT 3SM -RA BR FEW003 BKN005 OVC015 13/13 A3000 RMK AO2 SFC VIS 4 P0002=
200502091431 SPECI KATL 091431Z 22005KT 3SM -RA BR FEW003 BKN005 OVC015 13/13 A3000 RMK AO2 SFC VIS 4 P0002=
200502091405 SPECI KATL 091405Z 22004KT 3SM -RA BR OVC003 13/13 A3001 RMK AO2 SFC VIS 4 CIG 003V006 P0001=
200502091405 SPECI KATL 091405Z 22004KT 3SM -RA BR OVC003 13/13 A3001 RMK AO2 SFC VIS 4 CIG 003V006 P0001=
200502091351 METAR KATL 091351Z 00000KT 2SM -RA BR OVC003 12/12 A3000 RMK AO2 TWR VIS 3 CIG 002V007 SLP158 P0012 T01220122=
200502091339 SPECI KATL 091339Z 00000KT 1SM R09R/4000VP6000FT RA BR OVC003 13/13 A2999 RMK AO2 SFC VIS 1 1/4 CIG 001V007 P0010=
200502091339 SPECI KATL 091339Z 00000KT 1SM R09R/4000VP6000FT RA BR OVC003 13/13 A2999 RMK AO2 SFC VIS 1 1/4 CIG 001V007 P0010=
200502091251 METAR KATL 091251Z 00000KT 1SM -RA BR OVC001 12/12 A2999 RMK AO2 SFC VIS 1 1/4 RAB09 SLP154 P0003 T01220122=
200502091151 METAR KATL 091151Z 10003KT 1SM BR OVC001 12/12 A2998 RMK AO2 SFC VIS 1 1/4 SLP151 60007 70038 T01220117 10122 20117 56013=
200502091051 METAR KATL 091051Z 00000KT 1SM BR OVC003 12/12 A2998 RMK AO2 SFC VIS 1 1/2 RAE43 CIG 001V006 SLP153 P0006 T01220117=
200502091044 SPECI KATL 091044Z 10004KT 1SM BR OVC003 12/12 A2998 RMK AO2 SFC VIS 2 1/2 RAE43 CIG 001V006 P0006=
200502091044 SPECI KATL 091044Z 10004KT 1SM BR OVC003 12/12 A2998 RMK AO2 SFC VIS 2 1/2 RAE43 CIG 001V006 P0006=
200502091033 SPECI KATL 091033Z 00000KT 1/2SM R09R/6000VP6000FT -RA BR BKN001 OVC008 12/12 A2998 RMK AO2 SFC VIS 1 CIG 001V004 P0006=
200502091033 SPECI KATL 091033Z 00000KT 1/2SM R09R/6000VP6000FT -RA BR BKN001 OVC008 12/12 A2998 RMK AO2 SFC VIS 1 CIG 001V004 P0006=
200502090959 SPECI KATL 090959Z 08003KT 1/4SM R09R/2000V2600FT -RA FG VV001 12/12 A2999 RMK AO2 SFC VIS 1/2 P0001=
200502090959 SPECI KATL 090959Z 08003KT 1/4SM R09R/2000V2600FT -RA FG VV001 12/12 A2999 RMK AO2 SFC VIS 1/2 P0001=
200502090951 METAR KATL 090951Z 00000KT 1/4SM R09R/2000V2200FT -RA FG OVC002 12/12 A2999 RMK AO2 SFC VIS 1/2 RAB31 SLP154 P0000 T01220122=
200502090920 SPECI KATL 090920Z 09003KT 1/4SM R09R/2000V2400FT FG OVC002 12/12 A3000 RMK AO2 SFC VIS 1/2=
200502090920 SPECI KATL 090920Z 09003KT 1/4SM R09R/2000V2400FT FG OVC002 12/12 A3000 RMK AO2 SFC VIS 1/2=
200502090851 METAR KATL 090851Z 00000KT 1/2SM R09R/3500V6000FT BR OVC002 12/12 A3002 RMK AO2 SFC VIS 3/4 RAB0754E37 SLP164 P0000 60001 T01220122 56018=
200502090751 METAR KATL 090751Z 00000KT 1/2SM R09R/P6000FT BR OVC004 12/12 A3003 RMK AO2 SFC VIS 3/4 RAB14E37 CIG 002V007 SLP168 P0001 T01220122=
200502090738 SPECI KATL 090738Z 11003KT 1/4SM R09R/2000V5500FT FG FEW001 OVC004 12/12 A3003 RMK AO2 SFC VIS 1/2 RAB14E37 P0001=
200502090738 SPECI KATL 090738Z 11003KT 1/4SM R09R/2000V5500FT FG FEW001 OVC004 12/12 A3003 RMK AO2 SFC VIS 1/2 RAB14E37 P0001=
200502090728 SPECI KATL 090728Z 00000KT 1/4SM R09R/1800V2200FT -RA FG FEW001 OVC004 12/12 A3003 RMK AO2 SFC VIS 1/2 RAB14 P0001=
200502090728 SPECI KATL 090728Z 00000KT 1/4SM R09R/1800V2200FT -RA FG FEW001 OVC004 12/12 A3003 RMK AO2 SFC VIS 1/2 RAB14 P0001=
200502090651 METAR KATL 090651Z 09004KT 1/4SM R09R/3500V4500FT BR OVC002 12/12 A3004 RMK AO2 SFC VIS 3/4 CIG 001V006 SLP174 T01220117=
200502090628 SPECI KATL 090628Z 00000KT 1/4SM R09R/P6000FT BR OVC002 12/12 A3006 RMK AO2 SFC VIS 1 CIG 001V005=
200502090628 SPECI KATL 090628Z 00000KT 1/4SM R09R/P6000FT BR OVC002 12/12 A3006 RMK AO2 SFC VIS 1 CIG 001V005=
200502090551 METAR KATL 090551Z 00000KT 1 1/4SM R09R/4500VP6000FT BR OVC002 12/12 A3007 RMK AO2 TWR VIS 1 1/2 CIG 001V004 SLP183 60001 T01220117 10122 20122 56003=
200502090451 METAR KATL 090451Z 00000KT 1 1/2SM BR OVC002 12/12 A3007 RMK AO2 SFC VIS 2 1/2 CIG 001V005 SLP183 T01220122 401280094=
200502090443 SPECI KATL 090443Z 09003KT 1 1/2SM BR OVC002 12/12 A3007 RMK AO2 SFC VIS 2 1/2 CIG 001V005=
200502090443 SPECI KATL 090443Z 09003KT 1 1/2SM BR OVC002 12/12 A3007 RMK AO2 SFC VIS 2 1/2 CIG 001V005=
200502090351 METAR KATL 090351Z 00000KT 3/4SM BR OVC002 12/12 A3007 RMK AO2 SFC VIS 2 1/2 SLP183 T01220122=
200502090312 SPECI KATL 090312Z 09005KT 3/4SM BR OVC002 12/12 A3007 RMK AO2 SFC VIS 2 1/2=
200502090312 SPECI KATL 090312Z 09005KT 3/4SM BR OVC002 12/12 A3007 RMK AO2 SFC VIS 2 1/2=
200502090251 METAR KATL 090251Z 09005KT 1 1/2SM BR BKN002 OVC023 12/12 A3008 RMK AO2 SFC VIS 3 SLP187 60001 T01220117 58005=
200502090224 SPECI KATL 090224Z 09004KT 1 1/2SM BR OVC002 12/12 A3009 RMK AO2 SFC VIS 3=
200502090224 SPECI KATL 090224Z 09004KT 1 1/2SM BR OVC002 12/12 A3009 RMK AO2 SFC VIS 3=
200502090151 METAR KATL 090151Z COR 00000KT 3SM BR BKN004 OVC030 12/12 A3010 RMK AO2 SFC VIS 4 RAE0052 P0000 CIG 002V006 SLP193 T01220117=
200502090051 METAR KATL 090051Z 00000KT 3SM -RA BR OVC004 12/12 A3010 RMK AO2 SFC VIS 4 RAE2357B13 CIG 003V008 SLP195 P0001 T01220117=
200502090015 SPECI KATL 090015Z 00000KT 3SM -RA BR OVC004 12/12 A3011 RMK AO2 SFC VIS 4 RAE2357B13 CIG 001V009 P0000=
200502090015 SPECI KATL 090015Z 00000KT 3SM -RA BR OVC004 12/12 A3011 RMK AO2 SFC VIS 4 RAE2357B13 CIG 001V009 P0000=
200502090001 SPECI KATL 090001Z 00000KT 3SM BR FEW001 BKN007 OVC010 12/12 A3010 RMK AO2 RAE2357 P0000=
200502090001 SPECI KATL 090001Z 00000KT 3SM BR FEW001 BKN007 OVC010 12/12 A3010 RMK AO2 RAE2357 P0000=
200502082351 METAR KATL 082351Z 13006KT 1 1/2SM -RA BR SCT007 BKN010 OVC022 12/12 A3009 RMK AO2 SFC VIS 3 RAB16 CIG 008V013 SLP191 P0000 60028 T01220117 10122 20117 56004=
200502082343 SPECI KATL 082343Z 13003KT 1 1/2SM BR FEW003 BKN010 OVC022 12/12 A3010 RMK AO2 SFC VIS 3 RAB16E38 CIG 008V013 P0000=
200502082343 SPECI KATL 082343Z 13003KT 1 1/2SM BR FEW003 BKN010 OVC022 12/12 A3010 RMK AO2 SFC VIS 3 RAB16E38 CIG 008V013 P0000=
200502082328 SPECI KATL 082328Z 00000KT 1 1/2SM -RA BR FEW014 OVC022 12/12 A3010 RMK AO2 SFC VIS 3 RAB16 P0000=
200502082328 SPECI KATL 082328Z 00000KT 1 1/2SM -RA BR FEW014 OVC022 12/12 A3010 RMK AO2 SFC VIS 3 RAB16 P0000=
200502082312 SPECI KATL 082312Z 15003KT 3SM BR BKN024 OVC035 12/12 A3010 RMK AO2=
200502082312 SPECI KATL 082312Z 15003KT 3SM BR BKN024 OVC035 12/12 A3010 RMK AO2=
200502082251 METAR KATL 082251Z 00000KT 3SM BR SCT033 BKN045 OVC050 12/12 A3010 RMK AO2 SFC VIS 4 RAE46 SLP192 P0002 T01220117=
200502082240 SPECI KATL 082240Z 00000KT 3SM -RA BR SCT028 BKN033 OVC045 12/12 A3009 RMK AO2 SFC VIS 4 P0001=
200502082240 SPECI KATL 082240Z 00000KT 3SM -RA BR SCT028 BKN033 OVC045 12/12 A3009 RMK AO2 SFC VIS 4 P0001=
200502082211 SPECI KATL 082211Z 14003KT 3SM BR BKN028 BKN039 OVC050 12/12 A3010 RMK AO2 SFC VIS 5 RAE04 P0000=
200502082211 SPECI KATL 082211Z 14003KT 3SM BR BKN028 BKN039 OVC050 12/12 A3010 RMK AO2 SFC VIS 5 RAE04 P0000=
200502082151 METAR KATL 082151Z 00000KT 3SM -RA BR FEW010 BKN030 OVC050 12/12 A3010 RMK AO2 SFC VIS 4 SLP193 P0004 T01220117=
200502082058 SPECI KATL 082058Z 00000KT 1 1/2SM -RA BR FEW004 SCT014 OVC032 12/11 A3011 RMK AO2 SFC VIS 3 P0001=
200502082058 SPECI KATL 082058Z 00000KT 1 1/2SM -RA BR FEW004 SCT014 OVC032 12/11 A3011 RMK AO2 SFC VIS 3 P0001=
200502082051 METAR KATL 082051Z 00000KT 1SM R09R/5000VP6000FT RA BR FEW004 BKN014 OVC032 12/12 A3011 RMK AO2 SFC VIS 1 1/4 SLP196 VIS 1SM NE-S SHRA P0018 60022 T01170117 56018=
200502082029 SPECI KATL 082029Z 00000KT 1SM R09R/5000VP6000FT RA BR FEW004 SCT008 OVC030 12/11 A3011 RMK AO2 SFC VIS 1 1/2 P0008=
200502082029 SPECI KATL 082029Z 00000KT 1SM R09R/5000VP6000FT RA BR FEW004 SCT008 OVC030 12/11 A3011 RMK AO2 SFC VIS 1 1/2 P0008=
200502082008 SPECI KATL 082008Z 00000KT 1SM R09R/4500VP6000FT RA BR SCT004 BKN008 OVC018 12/12 A3012 RMK AO2 SFC VIS 1 1/2 P0003=
200502082008 SPECI KATL 082008Z 00000KT 1SM R09R/4500VP6000FT RA BR SCT004 BKN008 OVC018 12/12 A3012 RMK AO2 SFC VIS 1 1/2 P0003=
200502082001 SPECI KATL 082001Z 00000KT 1SM R09R/6000VP6000FT -RA BR BKN004 BKN008 OVC020 12/12 A3012 RMK AO2 SFC VIS 1 1/4 P0000=
200502082001 SPECI KATL 082001Z 00000KT 1SM R09R/6000VP6000FT -RA BR BKN004 BKN008 OVC020 12/12 A3012 RMK AO2 SFC VIS 1 1/4 P0000=
200502081958 SPECI KATL 081958Z 00000KT 1 1/2SM R09R/6000VP6000FT -RA BR BKN008 BKN020 OVC033 12/11 A3012 RMK AO2 P0000=
200502081958 SPECI KATL 081958Z 00000KT 1 1/2SM R09R/6000VP6000FT -RA BR BKN008 BKN020 OVC033 12/11 A3012 RMK AO2 P0000=
200502081951 METAR KATL 081951Z 00000KT 1 1/2SM -RA BR FEW008 SCT020 OVC030 12/11 A3012 RMK AO2 SFC VIS 2 RAE01B20 SLP201 P0003 T01220111=
200502081941 SPECI KATL 081941Z 00000KT 1 1/2SM R09R/5500VP6000FT -RA BR FEW008 SCT020 OVC030 12/11 A3012 RMK AO2 SFC VIS 2 RAE01B20 P0001=
200502081941 SPECI KATL 081941Z 00000KT 1 1/2SM R09R/5500VP6000FT -RA BR FEW008 SCT020 OVC030 12/11 A3012 RMK AO2 SFC VIS 2 RAE01B20 P0001=
200502081851 METAR KATL 081851Z 00000KT 1 1/2SM -RA BR SCT017 BKN030 OVC040 12/11 A3013 RMK AO2 SFC VIS 3 SLP205 P0001 T01220106=
200502081833 SPECI KATL 081833Z 00000KT 1SM R09R/5000VP6000FT -RA BR BKN017 BKN030 OVC040 12/11 A3015 RMK AO2 SFC VIS 2 P0000=
200502081833 SPECI KATL 081833Z 00000KT 1SM R09R/5000VP6000FT -RA BR BKN017 BKN030 OVC040 12/11 A3015 RMK AO2 SFC VIS 2 P0000=
200502081825 SPECI KATL 081825Z 00000KT 1 1/2SM -RA BR BKN027 OVC035 12/10 A3015 RMK AO2 SFC VIS 3 P0000=
200502081825 SPECI KATL 081825Z 00000KT 1 1/2SM -RA BR BKN027 OVC035 12/10 A3015 RMK AO2 SFC VIS 3 P0000=
200502081759 SPECI KATL 081759Z 00000KT 3SM -RA BR BKN029 BKN038 OVC050 12/09 A3016 RMK AO2 SFC VIS 5 P0000=
200502081759 SPECI KATL 081759Z 00000KT 3SM -RA BR BKN029 BKN038 OVC050 12/09 A3016 RMK AO2 SFC VIS 5 P0000=
200502081751 METAR KATL 081751Z 00000KT 8SM -RA SCT030 BKN040 OVC060 12/09 A3016 RMK AO2 RAB1656E10B43 SLP214 VIS LWR SE-S SHRA P0000 60002 T01170094 10128 20094 58007=
200502081704 SPECI KATL 081704Z 20004KT 6SM -RA HZ FEW020 BKN040 OVC060 12/09 A3017 RMK AO2 RAB1656 P0000=
200502081704 SPECI KATL 081704Z 20004KT 6SM -RA HZ FEW020 BKN040 OVC060 12/09 A3017 RMK AO2 RAB1656 P0000=
200502081651 METAR KATL 081651Z 00000KT 8SM FEW027 BKN038 OVC050 12/07 A3019 RMK AO2 SLP223 T01220072=
200502081551 METAR KATL 081551Z 00000KT 9SM OVC047 12/07 A3019 RMK AO2 RAE26 SLP224 P0000 T01170067=
200502081451 METAR KATL 081451Z 00000KT 8SM -RA FEW030 BKN045 OVC050 11/06 A3018 RMK AO2 RAB49 SLP222 P0000 60002 T01060061 53012=
200502081351 METAR KATL 081351Z 08004KT 10SM OVC050 10/05 A3016 RMK AO2 RAB06E46 SLP215 P0002 T01000050=
200502081251 METAR KATL 081251Z 07007KT 10SM FEW047 BKN070 OVC150 11/03 A3015 RMK AO2 SLP208 T01110028=
200502081151 METAR KATL 081151Z 00000KT 10SM OVC050 11/02 A3015 RMK AO2 SLP207 T01110017 10117 20100 55001=
200502081051 METAR KATL 081051Z 08004KT 10SM FEW040 OVC055 11/02 A3014 RMK AO2 SLP206 T01060017=
200502080951 METAR KATL 080951Z 09004KT 10SM OVC042 11/01 A3015 RMK AO2 SLP207 T01060011=
200502080851 METAR KATL 080851Z 08003KT 10SM OVC044 11/02 A3015 RMK AO2 SLP208 T01110017 56006=
200502080751 METAR KATL 080751Z 08003KT 10SM BKN080 OVC100 11/01 A3015 RMK AO2 SLP210 T01060006=
200502080651 METAR KATL 080651Z 07006KT 10SM OVC110 11/01 A3016 RMK AO2 SLP212 T01060006=
200502080551 METAR KATL 080551Z 10003KT 10SM SCT060 BKN110 BKN250 11/01 A3017 RMK AO2 SLP215 T01060011 10150 20106 57012=
200502080451 METAR KATL 080451Z 08006KT 10SM FEW050 SCT130 BKN250 11/01 A3018 RMK AO2 SLP220 T01060006 401780044=
200502080351 METAR KATL 080351Z 10004KT 10SM FEW100 SCT250 12/01 A3019 RMK AO2 SLP225 T01170006=
200502080251 METAR KATL 080251Z 12004KT 10SM CLR 13/M01 A3020 RMK AO2 SLP229 T01281006 53007=
200502080151 METAR KATL 080151Z 11005KT 10SM FEW120 BKN250 13/M01 A3018 RMK AO2 SLP222 T01331006=
200502080051 METAR KATL 080051Z 11009KT 10SM SCT120 BKN250 14/M01 A3018 RMK AO2 SLP221 T01441011=
200502072351 METAR KATL 072351Z 10006KT 10SM FEW060 BKN120 BKN250 15/M02 A3018 RMK AO2 SLP222 T01501017 10178 20144 58008=
200502072251 METAR KATL 072251Z 10007KT 10SM FEW050 BKN150 BKN250 16/M01 A3019 RMK AO2 SLP225 T01561011=
200502072151 METAR KATL 072151Z 13005KT 10SM FEW050 BKN150 BKN250 17/M01 A3020 RMK AO2 SLP226 T01671011=
200502072051 METAR KATL 072051Z 13007KT 10SM FEW055 BKN150 BKN250 17/M01 A3021 RMK AO2 SLP230 T01671011 56027=
200502071951 METAR KATL 071951Z 11003KT 10SM SCT055 SCT150 SCT250 17/M01 A3023 RMK AO2 SLP235 T01721011 $=
200502071851 METAR KATL 071851Z 14007KT 10SM FEW050 SCT150 SCT200 SCT250 16/M02 A3025 RMK AO2 SLP245 T01561022 $=
200502071751 METAR KATL 071751Z VRB05KT 10SM FEW100 SCT150 SCT200 BKN250 16/M02 A3029 RMK AO2 SLP257 T01561017 10156 20044 58017=
200502071651 METAR KATL 071651Z 13007KT 10SM FEW120 SCT150 BKN250 13/M01 A3033 RMK AO2 SLP270 T01331006 $=
200502071551 METAR KATL 071551Z 11006KT 10SM FEW120 BKN150 BKN250 11/M02 A3034 RMK AO2 SLP278 T01061017=
200502071451 METAR KATL 071451Z 10008KT 10SM BKN180 09/M03 A3034 RMK AO2 SLP277 T00891028 51008=
200502071351 METAR KATL 071351Z 09009KT 10SM BKN180 07/M03 A3033 RMK AO2 SLP273 T00721033=
200502071251 METAR KATL 071251Z 08009KT 10SM BKN180 07/M03 A3034 RMK AO2 SLP276 T00671033=
200502071151 METAR KATL 071151Z 09008KT 10SM FEW140 SCT250 04/M03 A3032 RMK AO2 SLP270 T00441033 10089 20044 55006=
200502071051 METAR KATL 071051Z 08010KT 10SM BKN140 06/M03 A3031 RMK AO2 SLP268 T00561033=
200502070951 METAR KATL 070951Z 09006KT 10SM FEW140 SCT250 07/M04 A3032 RMK AO2 SLP269 T00721039=
200502070851 METAR KATL 070851Z 08007KT 10SM SCT140 BKN250 06/M03 A3033 RMK AO2 SLP273 T00611033 56009=
200502070751 METAR KATL 070751Z 08006KT 10SM SCT140 BKN250 07/M03 A3034 RMK AO2 SLP276 T00721033=
200502070651 METAR KATL 070651Z 10007KT 10SM SCT140 BKN250 09/M04 A3035 RMK AO2 SLP279 T00891044=
200502070551 METAR KATL 070551Z 11008KT 10SM FEW140 BKN250 09/M05 A3036 RMK AO2 SLP283 T00891050 10117 20078 58003=
200502070451 METAR KATL 070451Z COR 10008KT 10SM SCT250 09/M05 A3038 RMK AO2 SLP288 T00941050 401610022=
200502070351 METAR KATL 070351Z 09007KT 10SM SCT250 08/M04 A3038 RMK AO2 SLP289 T00831044=
200502070251 METAR KATL 070251Z 09009KT 10SM SCT250 09/M04 A3037 RMK AO2 SLP286 T00941039 51010=
200502070151 METAR KATL 070151Z 10005KT 10SM BKN250 10/M03 A3037 RMK AO2 SLP288 T01001033=
200502070051 METAR KATL 070051Z 10006KT 10SM FEW150 BKN250 11/M04 A3035 RMK AO2 SLP281 T01111039=
200502062351 METAR KATL 062351Z 09009KT 10SM FEW150 SCT250 10/M02 A3034 RMK AO2 SLP279 T01001022 10161 20100 58006=
200502062251 METAR KATL 062251Z 09010KT 10SM FEW150 SCT250 12/M02 A3036 RMK AO2 SLP283 T01221022=
200502062151 METAR KATL 062151Z 09009KT 10SM SCT150 BKN200 16/M03 A3036 RMK AO2 SLP283 T01561028=
200502062051 METAR KATL 062051Z 11007KT 080V150 10SM FEW150 BKN200 16/M02 A3036 RMK AO2 SLP283 T01611022 56019=
200502061951 METAR KATL 061951Z 10009G14KT 10SM FEW180 BKN230 14/M03 A3037 RMK AO2 SLP287 T01441028=
200502061851 METAR KATL 061851Z 10009KT 10SM FEW180 BKN230 14/M02 A3040 RMK AO2 SLP296 T01441017=
200502061751 METAR KATL 061751Z 11008KT 10SM SCT230 BKN250 13/M02 A3042 RMK AO2 SLP303 T01331022 10133 20028 58008=
200502061651 METAR KATL 061651Z 09013KT 10SM BKN250 12/M01 A3044 RMK AO2 SLP311 T01171006=
200502061551 METAR KATL 061551Z 10012KT 10SM BKN250 10/M01 A3044 RMK AO2 SLP313 T01001006=
200502061451 METAR KATL 061451Z 11008KT 10SM SCT200 BKN250 09/00 A3044 RMK AO2 PRESRR SLP311 T00890000 53018=
200502061351 METAR KATL 061351Z 08010KT 10SM SCT180 BKN230 06/01 A3041 RMK AO2 SLP302 T00560006=
200502061251 METAR KATL 061251Z 07012KT 10SM FEW180 SCT250 04/M01 A3040 RMK AO2 SLP300 T00391006 $=
200502061151 METAR KATL 061151Z 08009KT 10SM FEW200 03/M01 A3039 RMK AO2 SLP294 T00281006 10061 20022 50012 $=
200502061051 METAR KATL 061051Z 09004KT 10SM SCT200 04/M01 A3039 RMK AO2 SLP295 T00391006 $=
200502060951 METAR KATL 060951Z 08009KT 10SM SCT200 03/M01 A3037 RMK AO2 SLP285 T00331006 $=
200502060851 METAR KATL 060851Z 08008KT 10SM CLR 03/M01 A3035 RMK AO2 SLP280 T00331006 50001 $=
200502060751 METAR KATL 060751Z 08004KT 10SM CLR 06/00 A3036 RMK AO2 SLP283 T00560000 $=
200502060651 METAR KATL 060651Z 07008KT 10SM CLR 06/01 A3034 RMK AO2 SLP275 T00560006 $=
200502060551 METAR KATL 060551Z 09007KT 10SM CLR 06/01 A3035 RMK AO2 SLP278 T00560006 10122 20056 50001 $=
200502060451 METAR KATL 060451Z 08004KT 7SM CLR 07/01 A3036 RMK AO2 SLP282 T00670006 401560017 $=
200502060351 METAR KATL 060351Z 08006KT 10SM CLR 08/01 A3035 RMK AO2 SLP281 T00780006 $=
200502060251 METAR KATL 060251Z 10003KT 10SM CLR 09/01 A3034 RMK AO2 SLP278 T00940011 53009 $=
200502060151 METAR KATL 060151Z 10004KT 10SM CLR 09/00 A3032 RMK AO2 SLP272 T00940000 $=
200502060051 METAR KATL 060051Z 10006KT 10SM FEW250 11/00 A3030 RMK AO2 SLP266 T01060000=
200502052351 METAR KATL 052351Z 10005KT 10SM SCT250 12/M01 A3032 RMK AO2 SLP270 T01221006 10156 20122 53006=
200502052251 METAR KATL 052251Z 10005KT 10SM SCT150 BKN250 13/00 A3030 RMK AO2 SLP263 T01330000=
200502052151 METAR KATL 052151Z 10008KT 10SM SCT240 15/M01 A3030 RMK AO2 SLP263 T01501006=
200502052051 METAR KATL 052051Z 13007KT 10SM SCT230 16/M02 A3030 RMK AO2 SLP262 T01561017 56022=
200502051951 METAR KATL 051951Z VRB04KT 10SM BKN240 15/M01 A3031 RMK AO2 SLP267 T01501011=
200502051851 METAR KATL 051851Z VRB05KT 10SM SCT230 14/M01 A3033 RMK AO2 SLP275 T01391011=
200502051751 METAR KATL 051751Z 03006KT 10SM SCT230 13/M01 A3036 RMK AO2 SLP286 T01281006 10128 20028 58005=
200502051651 METAR KATL 051651Z 09006KT 10SM SCT200 11/M01 A3039 RMK AO2 SLP294 T01111011=
200502051551 METAR KATL 051551Z 12005KT 10SM SCT200 10/M02 A3041 RMK AO2 SLP303 T01001017=
200502051451 METAR KATL 051451Z 09012KT 10SM SCT200 08/M01 A3038 RMK AO2 SLP291 T00831006 51018=
200502051351 METAR KATL 051351Z 07009KT 10SM BKN230 06/M01 A3037 RMK AO2 SLP288 T00611011=
200502051251 METAR KATL 051251Z 00000KT 10SM BKN200 03/M02 A3034 RMK AO2 SLP280 T00331017=
200502051151 METAR KATL 051151Z 07005KT 10SM BKN180 03/M02 A3032 RMK AO2 SLP274 T00331017 10050 20017 53007=
200502051051 METAR KATL 051051Z 06004KT 10SM SCT180 04/M02 A3032 RMK AO2 SLP270 T00441017 $=
200502050951 METAR KATL 050951Z 07007KT 10SM SCT180 03/M01 A3030 RMK AO2 SLP263 T00331011=
200502050851 METAR KATL 050851Z 04004KT 10SM SCT180 04/M01 A3030 RMK AO2 SLP264 T00391006 53006=
200502050751 METAR KATL 050751Z 02004KT 10SM FEW180 03/M01 A3029 RMK AO2 SLP262 T00331006=
200502050651 METAR KATL 050651Z 33005KT 10SM CLR 03/M01 A3029 RMK AO2 SLP262 T00331006=
200502050551 METAR KATL 050551Z 33003KT 10SM CLR 04/M01 A3028 RMK AO2 SLP259 T00441006 10094 20039 50002=
200502050451 METAR KATL 050451Z 33005KT 10SM CLR 05/M01 A3029 RMK AO2 SLP260 T00501006 401390000=
200502050351 METAR KATL 050351Z 31006KT 10SM CLR 04/00 A3028 RMK AO2 SLP259 T00440000=
200502050251 METAR KATL 050251Z 29006KT 10SM CLR 06/00 A3028 RMK AO2 SLP259 T00560000 53016=
200502050151 METAR KATL 050151Z 31009KT 10SM CLR 07/01 A3025 RMK AO2 SLP249 T00720006=
200502050051 METAR KATL 050051Z 33008KT 10SM CLR 08/00 A3023 RMK AO2 SLP243 T00780000=
200502042351 METAR KATL 042351Z 31008KT 10SM CLR 09/00 A3023 RMK AO2 SLP243 T00890000 10139 20089 53007=
200502042251 METAR KATL 042251Z 32009KT 10SM CLR 11/00 A3022 RMK AO2 SLP238 T01110000=
200502042151 METAR KATL 042151Z 31008KT 10SM CLR 13/00 A3021 RMK AO2 SLP235 T01280000=
200502042051 METAR KATL 042051Z 35007KT 10SM CLR 13/M01 A3021 RMK AO2 SLP234 T01281006 56020=
200502041951 METAR KATL 041951Z 32008KT 10SM CLR 12/01 A3023 RMK AO2 SLP239 T01220006=
200502041851 METAR KATL 041851Z VRB06KT 10SM CLR 12/01 A3024 RMK AO2 SLP244 T01220006=
200502041751 METAR KATL 041751Z 30006KT 10SM CLR 10/01 A3027 RMK AO2 SLP256 T01000011 10100 20000 58012=
200502041651 METAR KATL 041651Z 35006KT 10SM CLR 09/02 A3030 RMK AO2 SLP266 T00890017=
200502041551 METAR KATL 041551Z 34007KT 9SM CLR 07/01 A3032 RMK AO2 SLP273 T00670011=
200502041451 METAR KATL 041451Z 35009KT 8SM CLR 04/01 A3031 RMK AO2 SLP270 T00440006 53024=
200502041351 METAR KATL 041351Z 33008KT 6SM BR CLR 02/00 A3029 RMK AO2 SLP263 T00170000=
200502041251 METAR KATL 041251Z 31005KT 6SM BR CLR 00/M01 A3026 RMK AO2 SLP254 T00001011=
200502041151 METAR KATL 041151Z 32005KT 6SM BR CLR 01/M01 A3024 RMK AO2 SLP246 T00061006 10033 20006 53005=
200502041051 METAR KATL 041051Z 33008KT 6SM BR CLR 01/M01 A3022 RMK AO2 SLP242 T00061006=
200502040951 METAR KATL 040951Z 31007KT 6SM BR CLR 01/00 A3023 RMK AO2 SLP244 T00110000=
200502040851 METAR KATL 040851Z 32011KT 7SM CLR 02/01 A3022 RMK AO2 SLP241 T00170006 55001=
200502040751 METAR KATL 040751Z 31008KT 8SM CLR 02/01 A3021 RMK AO2 SLP238 T00220011=
200502040651 METAR KATL 040651Z 33009KT 8SM CLR 03/02 A3021 RMK AO2 SLP238 T00280017=
200502040551 METAR KATL 040551Z 33010KT 9SM CLR 03/02 A3023 RMK AO2 SLP242 T00330017 10061 20033 52002=
200502040451 METAR KATL 040451Z 33012KT 10SM CLR 04/02 A3023 RMK AO2 SLP244 T00390022 400610011=
200502040351 METAR KATL 040351Z 32009KT 10SM CLR 04/02 A3021 RMK AO2 SLP238 T00440022=
200502040251 METAR KATL 040251Z 33011KT 10SM FEW025 05/02 A3022 RMK AO2 SLP240 T00500022 50009=
200502040151 METAR KATL 040151Z 32010KT 10SM SCT025 06/03 A3022 RMK AO2 SLP240 T00560028=
200502040051 METAR KATL 040051Z 33013KT 10SM OVC025 06/03 A3020 RMK AO2 SLP233 T00560028=
200502032351 METAR KATL 032351Z 33010KT 10SM FEW019 BKN029 OVC035 06/03 A3019 RMK AO2 SLP230 T00560028 10061 20039 53008=
200502032336 SPECI KATL 032336Z 33009KT 10SM FEW019 BKN029 OVC035 06/03 A3019 RMK AO2=
200502032336 SPECI KATL 032336Z 33009KT 10SM FEW019 BKN029 OVC035 06/03 A3019 RMK AO2=
200502032304 SPECI KATL 032304Z 33010KT 10SM SCT023 BKN031 06/03 A3018 RMK AO2=
200502032304 SPECI KATL 032304Z 33010KT 10SM SCT023 BKN031 06/03 A3018 RMK AO2=
200502032251 METAR KATL 032251Z 32012KT 9SM BKN020 BKN025 06/03 A3018 RMK AO2 SLP226 T00560028=
200502032201 SPECI KATL 032201Z 31010KT 9SM OVC014 06/03 A3017 RMK AO2=
200502032201 SPECI KATL 032201Z 31010KT 9SM OVC014 06/03 A3017 RMK AO2=
200502032151 METAR KATL 032151Z 32010KT 8SM SCT012 OVC016 06/03 A3017 RMK AO2 SLP223 T00560033=
200502032119 SPECI KATL 032119Z 32011KT 8SM BKN011 OVC016 06/03 A3016 RMK AO2=
200502032119 SPECI KATL 032119Z 32011KT 8SM BKN011 OVC016 06/03 A3016 RMK AO2=
200502032051 METAR KATL 032051Z 29008KT 7SM OVC009 05/03 A3017 RMK AO2 SLP222 T00500033 56014=
200502031951 METAR KATL 031951Z 32009KT 6SM BR BKN009 OVC012 05/03 A3017 RMK AO2 SLP225 T00500033=
200502031851 METAR KATL 031851Z 34010KT 5SM BR OVC007 04/03 A3019 RMK AO2 SLP230 T00440033=
200502031751 METAR KATL 031751Z 35007KT 4SM BR OVC007 04/03 A3021 RMK AO2 SLP238 60000 T00390028 10039 20011 58004=
200502031651 METAR KATL 031651Z 35005KT 5SM BR OVC007 03/02 A3023 RMK AO2 SLP244 T00330022=
200502031551 METAR KATL 031551Z 05008KT 6SM BR OVC005 03/02 A3023 RMK AO2 SLP245 T00280017=
200502031451 METAR KATL 031451Z 04009KT 5SM BR OVC005 02/01 A3022 RMK AO2 SLP242 60000 T00220011 53009=
200502031351 METAR KATL 031351Z 07006KT 2 1/2SM BR OVC005 02/01 A3020 RMK AO2 CIG 004V009 SLP237 T00170011=
200502031343 SPECI KATL 031343Z 04008KT 3SM BR OVC005 02/01 A3020 RMK AO2=
200502031343 SPECI KATL 031343Z 04008KT 3SM BR OVC005 02/01 A3020 RMK AO2=
200502031321 SPECI KATL 031321Z 05008KT 2 1/2SM BR OVC005 02/01 A3021 RMK AO2 TWR VIS 3=
200502031321 SPECI KATL 031321Z 05008KT 2 1/2SM BR OVC005 02/01 A3021 RMK AO2 TWR VIS 3=
200502031251 METAR KATL 031251Z 04010KT 3SM BR OVC005 02/01 A3020 RMK AO2 RAB15E25 SLP237 P0000 T00170011=
200502031151 METAR KATL 031151Z 05009KT 2 1/2SM BR OVC005 02/01 A3020 RMK AO2 SFC VIS 3 RAE03 SLP234 P0000 60023 70097 T00170006 10017 20011 55003=
200502031051 METAR KATL 031051Z 07009KT 3SM -RA BR OVC005 01/01 A3018 RMK AO2 SFC VIS 4 CIG 004V009 SLP228 P0001 T00110006=
200502031027 SPECI KATL 031027Z 07009KT 2SM -RA BR BKN007 OVC033 01/01 A3017 RMK AO2 SFC VIS 3 CIG 004V008 P0000=
200502031027 SPECI KATL 031027Z 07009KT 2SM -RA BR BKN007 OVC033 01/01 A3017 RMK AO2 SFC VIS 3 CIG 004V008 P0000=
200502031011 SPECI KATL 031011Z 09012KT 2SM BR SCT007 OVC035 01/01 A3017 RMK AO2 SFC VIS 3 RAE08 P0000=
200502031011 SPECI KATL 031011Z 09012KT 2SM BR SCT007 OVC035 01/01 A3017 RMK AO2 SFC VIS 3 RAE08 P0000=
200502030951 METAR KATL 030951Z 09013KT 2SM -RA BR BKN007 BKN033 OVC040 01/01 A3018 RMK AO2 SFC VIS 3 SLP228 P0003 T00110006=
200502030851 METAR KATL 030851Z 03009KT 2SM -RA BR OVC007 01/01 A3021 RMK AO2 CIG 004V011 SLP236 P0005 60019 T00110006 53000=
200502030751 METAR KATL 030751Z 03013KT 2SM -RA BR BKN005 OVC011 02/01 A3020 RMK AO2 CIG 004V009 SLP233 P0008 T00170011=
200502030651 METAR KATL 030651Z 06010KT 2SM -RA BR OVC009 02/01 A3020 RMK AO2 CIG 004V013 SLP233 P0006 T00170011=
200502030551 METAR KATL 030551Z 08010KT 1 1/2SM RA BR OVC005 02/01 A3020 RMK AO2 SFC VIS 2 CIG 003V009 SLP236 P0007 60042 T00170011 10022 20017 58005=
200502030451 METAR KATL 030451Z 09012KT 1 1/2SM -RA BR OVC005 02/01 A3021 RMK AO2 SFC VIS 5 CIG 004V009 SLP237 P0006 T00170011 400610011=
200502030351 METAR KATL 030351Z 09011KT 1 1/2SM -RA BR OVC005 02/01 A3022 RMK AO2 SFC VIS 4 CIG 005V010 SLP242 P0005 T00220011=
200502030251 METAR KATL 030251Z 08012KT 1SM -RA BR BKN005 OVC011 02/01 A3022 RMK AO2 SFC VIS 3 SLP242 P0011 60024 T00170011 58007=
200502030151 METAR KATL 030151Z 09012KT 1 1/4SM -RA BR OVC005 02/01 A3022 RMK AO2 SFC VIS 3 SLP242 CIG 003V009 P0006 T00170011=
200502030051 METAR KATL 030051Z 10012KT 2 1/2SM -RA BR BKN005 OVC008 02/01 A3024 RMK AO2 SFC VIS 5 CIG 003V007 SLP249 P0007 T00170011=
200502022351 METAR KATL 022351Z 09012KT 2 1/2SM -RA BR OVC005 02/01 A3024 RMK AO2 SFC VIS 6 DZE17RAB17 SLP248 P0002 60002 T00170011 10028 20017 53000=
200502022333 SPECI KATL 022333Z 09011KT 2 1/2SM -RA BR OVC007 02/01 A3025 RMK AO2 SFC VIS 3 DZE17RAB17 CIG 004V010 P0002=
200502022333 SPECI KATL 022333Z 09011KT 2 1/2SM -RA BR OVC007 02/01 A3025 RMK AO2 SFC VIS 3 DZE17RAB17 CIG 004V010 P0002=
200502022251 METAR KATL 022251Z 08012KT 3SM -DZ BR OVC007 02/01 A3024 RMK AO2 SFC VIS 5 SLP249 P0000 T00220011=
200502022231 SPECI KATL 022231Z 09010KT 3SM -DZ BR OVC007 02/01 A3023 RMK AO2 SFC VIS 4 CIG 006V011 P0000=
200502022231 SPECI KATL 022231Z 09010KT 3SM -DZ BR OVC007 02/01 A3023 RMK AO2 SFC VIS 4 CIG 006V011 P0000=
200502022151 METAR KATL 022151Z 09013KT 4SM -DZ BR OVC010 02/01 A3023 RMK AO2 RAB10E23DZB48 SLP243 P0000 T00220006=
200502022051 METAR KATL 022051Z 09013G21KT 9SM BKN012 OVC015 03/01 A3024 RMK AO2 SLP246 T00280006 56023=
200502021951 METAR KATL 021951Z 10012G18KT 10SM OVC012 03/01 A3026 RMK AO2 SLP251 T00280006=
200502021851 METAR KATL 021851Z 09016G23KT 10SM OVC014 03/01 A3027 RMK AO2 SLP257 T00280006=
200502021751 METAR KATL 021751Z 09014KT 9SM FEW009 BKN012 OVC018 02/01 A3031 RMK AO2 PK WND 08029/1703 SLP270 60030 T00220006 10028 20011 58020=
200502021651 METAR KATL 021651Z 09016G19KT 8SM SCT008 BKN010 OVC015 02/01 A3033 RMK AO2 RAB1556E06 SLP278 P0000 T00220011=
200502021616 SPECI KATL 021616Z 10016G22KT 6SM BR BKN010 OVC015 02/01 A3033 RMK AO2 RAB1556E06 CIG 008V013 P0000=
200502021616 SPECI KATL 021616Z 10016G22KT 6SM BR BKN010 OVC015 02/01 A3033 RMK AO2 RAB1556E06 CIG 008V013 P0000=
200502021558 SPECI KATL 021558Z 10014G18KT 9SM -RA OVC008 02/01 A3037 RMK AO2 RAB56 CIG 006V011 P0000=
200502021558 SPECI KATL 021558Z 10014G18KT 9SM -RA OVC008 02/01 A3037 RMK AO2 RAB56 CIG 006V011 P0000=
200502021551 METAR KATL 021551Z 09013KT 5SM BR OVC010 02/01 A3037 RMK AO2 PK WND 11030/1534 RAE50 PRESRR SLP293 P0003 T00170006=
200502021451 METAR KATL 021451Z 08014KT 2 1/2SM -RA BR BKN009 OVC013 02/01 A3037 RMK AO2 SFC VIS 3 SLP291 P0013 60027 T00170006 53017=
200502021419 SPECI KATL 021419Z 08010KT 2 1/2SM RA BR BKN009 OVC037 01/01 A3038 RMK AO2 P0008=
200502021419 SPECI KATL 021419Z 08010KT 2 1/2SM RA BR BKN009 OVC037 01/01 A3038 RMK AO2 P0008=
200502021351 METAR KATL 021351Z 07016KT 2 1/2SM RA BR SCT009 OVC039 02/01 A3035 RMK AO2 SFC VIS 3 SLP285 P0007 T00170006=
200502021329 SPECI KATL 021329Z 07016KT 3SM -RA BR FEW009 OVC041 02/00 A3033 RMK AO2 SFC VIS 4 P0002=
200502021329 SPECI KATL 021329Z 07016KT 3SM -RA BR FEW009 OVC041 02/00 A3033 RMK AO2 SFC VIS 4 P0002=
200502021251 METAR KATL 021251Z 08016KT 6SM -RA BR OVC039 02/00 A3032 RMK AO2 SLP273 P0007 T00170000=
200502021151 METAR KATL 021151Z 08012KT 7SM -RA OVC037 03/M01 A3032 RMK AO2 SLP273 P0001 60002 70002 T00281006 10061 20028 53017=
200502021051 METAR KATL 021051Z 08016KT 10SM -RA OVC037 03/M01 A3026 RMK AO2 RAE0952B17 SLP252 P0001 T00331006=
200502020951 METAR KATL 020951Z 09011KT 10SM -RA OVC039 04/M01 A3027 RMK AO2 RAB0859 SLP257 P0000 T00441011=
200502020851 METAR KATL 020851Z 09012KT 10SM OVC039 05/M01 A3027 RMK AO2 RAB0754E09B31E46 SLP254 P0000 60000 T00501006 58013=
200502020751 METAR KATL 020751Z 09010KT 10SM BKN039 OVC055 06/M01 A3028 RMK AO2 SLP260 T00561006=
200502020651 METAR KATL 020651Z 09011KT 10SM BKN043 OVC060 06/M01 A3031 RMK AO2 SLP268 T00561006=
200502020551 METAR KATL 020551Z 10009KT 10SM OVC041 06/M01 A3030 RMK AO2 SLP267 T00561006 10061 20056 55007=
200502020451 METAR KATL 020451Z 10009KT 10SM OVC041 06/M01 A3030 RMK AO2 SLP266 T00561006 400610044=
200502020351 METAR KATL 020351Z 10008KT 10SM BKN039 OVC060 06/M01 A3031 RMK AO2 SLP268 T00561006=
200502020251 METAR KATL 020251Z 11007KT 10SM FEW039 OVC065 06/00 A3033 RMK AO2 SLP274 T00560000 50017=
200502020151 METAR KATL 020151Z 11004KT 10SM FEW039 OVC060 06/M01 A3035 RMK AO2 SLP281 T00611006=
200502020051 METAR KATL 020051Z 10004KT 10SM BKN060 06/M01 A3032 RMK AO2 SLP274 T00611006=
200502012351 METAR KATL 012351Z 09008KT 10SM FEW035 OVC065 06/M01 A3028 RMK AO2 SLP257 T00561006 10061 20050 58002=
200502012251 METAR KATL 012251Z 07008KT 10SM FEW037 OVC070 06/M01 A3029 RMK AO2 SLP264 T00611006=
200502012151 METAR KATL 012151Z 09006KT 10SM SCT065 BKN080 OVC100 06/M01 A3028 RMK AO2 SLP257 T00611006=
200502012051 METAR KATL 012051Z 10006KT 10SM FEW030 BKN070 OVC100 06/M01 A3028 RMK AO2 SLP259 T00611006 58003=
200502011951 METAR KATL 011951Z 10007KT 10SM SCT028 BKN040 OVC060 06/M01 A3028 RMK AO2 SLP259 T00561006=
200502011851 METAR KATL 011851Z 07011KT 10SM BKN045 BKN065 OVC100 06/M01 A3029 RMK AO2 SLP263 BINOVC DSNT N T00561011=
200502011751 METAR KATL 011751Z 09012KT 10SM FEW035 BKN065 OVC100 05/M01 A3029 RMK AO2 SLP262 60000 T00501006 10056 20044 58010=
200502011651 METAR KATL 011651Z 07010KT 10SM BKN045 BKN060 OVC100 05/M01 A3033 RMK AO2 RAE02B21E35 SLP275 P0000 T00501006=
200502011551 METAR KATL 011551Z 10006KT 10SM -RA FEW040 BKN060 OVC100 05/00 A3034 RMK AO2 RAB17 SLP279 P0000 T00500000=
200502011451 METAR KATL 011451Z 07011KT 10SM BKN050 BKN060 OVC100 05/M01 A3032 RMK AO2 RAE02 SLP272 P0000 60000 T00501011 51018=
200502011351 METAR KATL 011351Z 07011KT 10SM -RA FEW042 BKN050 OVC090 04/M01 A3030 RMK AO2 RAB36 SLP267 P0000 T00441011=
200502011251 METAR KATL 011251Z 08009KT 10SM OVC042 04/M02 A3030 RMK AO2 SLP265 T00441017=
Fallo de consulta: el error es SELECT command denied to user 'users'@'localhost' for table 'tafs_2005'
