##########################################################
# Query made at 04/19/2024 22:53:49 UTC
# Time interval: from 12/01/2005 12:00  to 12/31/2005 12:59  UTC
##########################################################

##########################################################
# KATL, Atlanta, Hartsfield - Jackson Atlanta International Airport (United States)
# WMO index: 72219. WIGOS ID: 0-20000-0-72219
# Latitude 33-38-59N. Longitude 084-25-00W. Altitude 312 m.
##########################################################

200512311251 METAR KATL 311251Z 30008KT 8SM SCT055 BKN070 11/09 A2992 RMK AO2 SLP131 T01060094=
200512311151 METAR KATL 311151Z 26008KT 9SM SCT014 SCT019 OVC031 11/10 A2989 RMK AO2 SLP123 60001 70001 T01110100 10117 20106 53016=
200512311125 SPECI KATL 311125Z 26006KT 9SM SCT006 BKN015 OVC029 12/11 A2988 RMK AO2=
200512311125 SPECI KATL 311125Z 26006KT 9SM SCT006 BKN015 OVC029 12/11 A2988 RMK AO2=
200512311051 METAR KATL 311051Z 26006KT 8SM OVC006 11/11 A2986 RMK AO2 SLP112 T01110106=
200512310951 METAR KATL 310951Z 23007KT 10SM OVC008 11/09 A2985 RMK AO2 CIG 007V013 SLP106 T01110094=
200512310948 SPECI KATL 310948Z 23008KT 10SM OVC008 11/09 A2985 RMK AO2 CIG 007V013=
200512310948 SPECI KATL 310948Z 23008KT 10SM OVC008 11/09 A2985 RMK AO2 CIG 007V013=
200512310851 METAR KATL 310851Z 24007KT 10SM OVC012 11/09 A2984 RMK AO2 RAE09 SLP104 P0001 60001 T01110089 58000=
200512310751 METAR KATL 310751Z 27008KT 10SM -RA OVC014 11/08 A2986 RMK AO2 RAB01E25B47 SLP111 P0000 T01060078=
200512310735 SPECI KATL 310735Z 29010KT 10SM OVC014 11/07 A2985 RMK AO2 RAB01E25 PRESRR P0000=
200512310735 SPECI KATL 310735Z 29010KT 10SM OVC014 11/07 A2985 RMK AO2 RAB01E25 PRESRR P0000=
200512310651 METAR KATL 310651Z 20010KT 10SM BKN021 OVC027 11/06 A2984 RMK AO2 SLP103 T01110061=
200512310619 SPECI KATL 310619Z 20010KT 10SM BKN024 BKN034 OVC100 11/05 A2984 RMK AO2=
200512310619 SPECI KATL 310619Z 20010KT 10SM BKN024 BKN034 OVC100 11/05 A2984 RMK AO2=
200512310551 METAR KATL 310551Z 20011KT 10SM OVC030 10/04 A2984 RMK AO2 SLP106 BINOVC T01000044 10106 20089 58011=
200512310451 METAR KATL 310451Z 20009KT 10SM FEW035 SCT045 BKN200 09/04 A2986 RMK AO2 SLP114 T00890039 401440006=
200512310351 METAR KATL 310351Z 19007KT 10SM FEW200 09/04 A2987 RMK AO2 SLP118 T00940039 $=
200512310251 METAR KATL 310251Z 18007KT 10SM SCT200 10/04 A2988 RMK AO2 SLP121 T01000039 50005=
200512310151 METAR KATL 310151Z 22006KT 10SM FEW200 BKN250 10/03 A2990 RMK AO2 SLP128 T01000028=
200512310051 METAR KATL 310051Z 19006KT 10SM FEW250 10/03 A2988 RMK AO2 SLP121 T01000028=
200512302351 METAR KATL 302351Z 16005KT 10SM FEW250 11/03 A2986 RMK AO2 SLP116 T01060028 10144 20106 58004=
200512302251 METAR KATL 302251Z 16003KT 10SM FEW180 SCT250 12/02 A2987 RMK AO2 SLP119 T01220022=
200512302151 METAR KATL 302151Z 19006KT 10SM FEW100 SCT250 BKN300 13/02 A2987 RMK AO2 SLP117 T01330017=
200512302051 METAR KATL 302051Z 24007KT 10SM FEW100 SCT200 SCT250 BKN300 14/02 A2987 RMK AO2 SLP119 T01440017 56024=
200512301951 METAR KATL 301951Z VRB03KT 10SM FEW200 SCT250 SCT300 13/02 A2988 RMK AO2 SLP122 T01330022=
200512301851 METAR KATL 301851Z 25007KT 10SM FEW200 SCT250 SCT300 13/04 A2992 RMK AO2 SLP134 T01280039=
200512301751 METAR KATL 301751Z 26007KT 10SM FEW100 SCT250 11/03 A2994 RMK AO2 SLP144 T01110033 10111 20017 58008=
200512301651 METAR KATL 301651Z 28008KT 9SM FEW250 08/03 A2997 RMK AO2 SLP154 T00830033=
200512301551 METAR KATL 301551Z 29005KT 6SM HZ FEW010 SCT250 06/03 A2998 RMK AO2 SLP159 T00560028=
200512301532 SPECI KATL 301532Z 28009KT 5SM BR SCT005 05/03 A2999 RMK AO2=
200512301532 SPECI KATL 301532Z 28009KT 5SM BR SCT005 05/03 A2999 RMK AO2=
200512301509 SPECI KATL 301509Z 29007KT 2 1/2SM BR BKN005 04/03 A2998 RMK AO2 SFC VIS 4=
200512301509 SPECI KATL 301509Z 29007KT 2 1/2SM BR BKN005 04/03 A2998 RMK AO2 SFC VIS 4=
200512301451 METAR KATL 301451Z 27008KT 1 1/2SM BR BKN003 03/03 A2997 RMK AO2 SFC VIS 3 SLP154 T00330028 51020=
200512301351 METAR KATL 301351Z 31009KT 1 1/2SM BR FEW001 OVC003 02/02 A2995 RMK AO2 SFC VIS 2 SLP148 BINOVC T00220017=
200512301251 METAR KATL 301251Z 30008KT 1 1/2SM BR OVC002 02/02 A2994 RMK AO2 SLP145 T00170017=
200512301220 SPECI KATL 301220Z 28007KT 1SM BR OVC002 02/01 A2993 RMK AO2 SFC VIS 1 3/4=
200512301220 SPECI KATL 301220Z 28007KT 1SM BR OVC002 02/01 A2993 RMK AO2 SFC VIS 1 3/4=
200512301207 SPECI KATL 301207Z 30007KT 1SM BR OVC001 02/01 A2992 RMK AO2 SFC VIS 2 1/2 BINOVC=
200512301207 SPECI KATL 301207Z 30007KT 1SM BR OVC001 02/01 A2992 RMK AO2 SFC VIS 2 1/2 BINOVC=
200512301151 METAR KATL 301151Z 29007KT 1 1/2SM BR FEW001 OVC002 02/01 A2991 RMK AO2 SFC VIS 2 1/2 SLP135 T00170011 10022 20006 53014=
200512301139 SPECI KATL 301139Z 30008KT 1 1/2SM BR OVC002 02/01 A2990 RMK AO2 SFC VIS 2 1/2=
200512301139 SPECI KATL 301139Z 30008KT 1 1/2SM BR OVC002 02/01 A2990 RMK AO2 SFC VIS 2 1/2=
200512301128 SPECI KATL 301128Z 30007KT 2 1/2SM BR OVC002 02/01 A2990 RMK AO2=
200512301128 SPECI KATL 301128Z 30007KT 2 1/2SM BR OVC002 02/01 A2990 RMK AO2=
200512301051 METAR KATL 301051Z 29006KT 3SM BR OVC004 02/01 A2989 RMK AO2 SLP129 T00170006=
200512301026 SPECI KATL 301026Z 28006KT 3SM BR BKN004 01/01 A2989 RMK AO2 SFC VIS 4=
200512301026 SPECI KATL 301026Z 28006KT 3SM BR BKN004 01/01 A2989 RMK AO2 SFC VIS 4=
200512301015 SPECI KATL 301015Z 31005KT 5SM BR BKN005 01/00 A2988 RMK AO2=
200512301015 SPECI KATL 301015Z 31005KT 5SM BR BKN005 01/00 A2988 RMK AO2=
200512300951 METAR KATL 300951Z 30005KT 5SM BR CLR 01/00 A2988 RMK AO2 SLP123 T00110000=
200512300851 METAR KATL 300851Z 29005KT 6SM BR CLR 01/00 A2987 RMK AO2 SLP119 T00110000 57001=
200512300751 METAR KATL 300751Z 30005KT 7SM CLR 01/01 A2987 RMK AO2 SLP120 T00110006=
200512300651 METAR KATL 300651Z 30006KT 7SM CLR 02/00 A2987 RMK AO2 SLP120 T00170000=
200512300551 METAR KATL 300551Z 32006KT 8SM CLR 02/01 A2987 RMK AO2 SLP120 T00220006 10050 20022 58004 $=
200512300451 METAR KATL 300451Z 30007KT 9SM FEW015 03/01 A2988 RMK AO2 SLP123 T00280006 401000028=
200512300404 SPECI KATL 300404Z 31007KT 9SM SCT014 03/01 A2988 RMK AO2=
200512300404 SPECI KATL 300404Z 31007KT 9SM SCT014 03/01 A2988 RMK AO2=
200512300351 METAR KATL 300351Z 31010KT 10SM BKN014 04/01 A2988 RMK AO2 SLP124 T00390011=
200512300347 SPECI KATL 300347Z 32010KT 9SM OVC014 04/01 A2988 RMK AO2=
200512300347 SPECI KATL 300347Z 32010KT 9SM OVC014 04/01 A2988 RMK AO2=
200512300251 METAR KATL 300251Z 31010KT 10SM OVC016 05/02 A2988 RMK AO2 SLP121 T00500017 53009=
200512300151 METAR KATL 300151Z 29010KT 10SM OVC016 05/02 A2986 RMK AO2 SLP117 T00500017=
200512300051 METAR KATL 300051Z 28009KT 9SM OVC018 05/02 A2986 RMK AO2 SLP116 T00500017=
200512292351 METAR KATL 292351Z 29010KT 10SM OVC018 06/02 A2985 RMK AO2 SLP112 T00560017 10089 20056 51022=
200512292251 METAR KATL 292251Z 29010KT 9SM BKN020 BKN250 06/02 A2983 RMK AO2 SLP106 T00610017=
200512292234 SPECI KATL 292234Z 29009KT 8SM BKN020 BKN250 06/02 A2982 RMK AO2=
200512292234 SPECI KATL 292234Z 29009KT 8SM BKN020 BKN250 06/02 A2982 RMK AO2=
200512292151 METAR KATL 292151Z 32011KT 8SM FEW022 SCT250 07/02 A2980 RMK AO2 SLP097 T00720022=
200512292051 METAR KATL 292051Z 29010KT 9SM BKN024 08/03 A2978 RMK AO2 SLP087 T00780028 53012=
200512291951 METAR KATL 291951Z 33011KT 10SM BKN024 08/02 A2976 RMK AO2 SLP080 T00780022=
200512291851 METAR KATL 291851Z 30013G17KT 9SM BKN024 08/03 A2975 RMK AO2 SLP075 T00830028=
200512291751 METAR KATL 291751Z 28011KT 9SM BKN022 09/03 A2974 RMK AO2 SLP073 T00890028 10089 20044 50009=
200512291651 METAR KATL 291651Z 30013KT 8SM BKN022 07/02 A2975 RMK AO2 SLP076 T00720022=
200512291551 METAR KATL 291551Z 30018KT 8SM BKN020 07/03 A2975 RMK AO2 SLP074 T00720028=
200512291451 METAR KATL 291451Z 30013KT 8SM BKN020 07/03 A2972 RMK AO2 SLP064 T00670028 53026=
200512291408 SPECI KATL 291408Z 29012KT 7SM BKN022 06/02 A2970 RMK AO2=
200512291408 SPECI KATL 291408Z 29012KT 7SM BKN022 06/02 A2970 RMK AO2=
200512291351 METAR KATL 291351Z 29010KT 7SM FEW020 05/02 A2969 RMK AO2 SLP055 T00500022=
200512291251 METAR KATL 291251Z 29009KT 6SM HZ FEW020 04/02 A2966 RMK AO2 SLP044 T00440017=
200512291151 METAR KATL 291151Z 28009KT 8SM FEW020 05/02 A2964 RMK AO2 SLP037 70009 T00500022 10094 20050 53012=
200512291051 METAR KATL 291051Z 27010KT 8SM CLR 06/03 A2961 RMK AO2 SLP029 T00560028=
200512290951 METAR KATL 290951Z 28007KT 9SM SCT120 SCT250 06/02 A2960 RMK AO2 SLP024 T00560022=
200512290851 METAR KATL 290851Z 28009KT 10SM FEW026 SCT120 SCT200 07/03 A2960 RMK AO2 SLP024 T00670028 50006 $=
200512290751 METAR KATL 290751Z 28008KT 10SM FEW026 SCT150 BKN200 07/03 A2961 RMK AO2 SLP025 T00720033=
200512290651 METAR KATL 290651Z 28013KT 10SM FEW030 SCT150 BKN200 08/03 A2960 RMK AO2 SLP024 T00830033=
200512290551 METAR KATL 290551Z 29012KT 10SM FEW035 SCT150 BKN200 09/04 A2958 RMK AO2 SLP017 T00940044 10133 20094 51006=
200512290451 METAR KATL 290451Z 30014G20KT 10SM FEW035 BKN150 11/05 A2958 RMK AO2 SLP015 T01060050 401440083=
200512290351 METAR KATL 290351Z 28012KT 10SM SCT100 11/06 A2958 RMK AO2 SLP017 T01110056=
200512290251 METAR KATL 290251Z 27009KT 10SM CLR 12/09 A2956 RMK AO2 SLP010 T01170094 53002=
200512290151 METAR KATL 290151Z 25009KT 10SM CLR 12/11 A2954 RMK AO2 SLP001 T01220106=
200512290051 METAR KATL 290051Z 21005KT 7SM CLR 12/12 A2955 RMK AO2 SLP005 T01220117=
200512290035 SPECI KATL 290035Z 21004KT 5SM R09R/1200V4000FT BCFG FEW001 SCT008 12/12 A2955 RMK AO2 VIS S-W 1=
200512290035 SPECI KATL 290035Z 21004KT 5SM R09R/1200V4000FT BCFG FEW001 SCT008 12/12 A2955 RMK AO2 VIS S-W 1=
200512290017 SPECI KATL 290017Z 19005KT 5SM R09R/0800V1400FT BCFG FEW001 SCT008 12/12 A2955 RMK AO2 VIS S-W 1=
200512290017 SPECI KATL 290017Z 19005KT 5SM R09R/0800V1400FT BCFG FEW001 SCT008 12/12 A2955 RMK AO2 VIS S-W 1=
200512282351 METAR KATL 282351Z 18003KT 5SM R09R/2600VP6000FT BR FEW002 SCT006 12/12 A2955 RMK AO2 SLP008 VIS S-W 1 60003 T01220122 10144 20122 56010=
200512282251 METAR KATL 282251Z 19004KT 5SM BR FEW005 SCT200 13/13 A2956 RMK AO2 SLP009 T01330128=
200512282151 METAR KATL 282151Z 18007KT 7SM FEW008 SCT150 BKN250 14/14 A2956 RMK AO2 SLP010 CB DSNT SW T01440139=
200512282136 SPECI KATL 282136Z 18008KT 5SM BR FEW008 SCT110 BKN150 BKN250 14/13 A2956 RMK AO2 CB DSNT E-SW=
200512282136 SPECI KATL 282136Z 18008KT 5SM BR FEW008 SCT110 BKN150 BKN250 14/13 A2956 RMK AO2 CB DSNT E-SW=
200512282113 SPECI KATL 282113Z 18005KT 1 1/2SM BR FEW008 SCT110 BKN150 BKN250 14/13 A2958 RMK AO2 SFC VIS 5 CBMAM OHD-N-NE CB DSNT SE AND DSNT SW-NW=
200512282113 SPECI KATL 282113Z 18005KT 1 1/2SM BR FEW008 SCT110 BKN150 BKN250 14/13 A2958 RMK AO2 SFC VIS 5 CBMAM OHD-N-NE CB DSNT SE AND DSNT SW-NW=
200512282051 METAR KATL 282051Z 19004KT 1 1/2SM BR OVC004 14/13 A2959 RMK AO2 SFC VIS 5 CIG 003V007 SLP018 60003 T01390133 56034=
200512281951 METAR KATL 281951Z 17005KT 1 1/2SM BR BKN002 OVC005 13/13 A2961 RMK AO2 SFC VIS 3 RAE29 SLP027 P0002 T01330128=
200512281851 METAR KATL 281851Z 18006KT 1 1/2SM -RA BR OVC002 13/12 A2965 RMK AO2 SFC VIS 2 1/2 RAB1758 SLP041 P0001 T01280122 $=
200512281814 SPECI KATL 281814Z 19008KT 1 1/2SM -RA BR OVC004 12/12 A2968 RMK AO2 SFC VIS 3 RAB1758 P0001 $=
200512281814 SPECI KATL 281814Z 19008KT 1 1/2SM -RA BR OVC004 12/12 A2968 RMK AO2 SFC VIS 3 RAB1758 P0001 $=
200512281751 METAR KATL 281751Z 19008KT 5SM BR OVC004 12/12 A2969 RMK AO2 RAB08E17 SLP053 P0000 60006 T01220122 10128 20089 58039=
200512281739 SPECI KATL 281739Z 18008KT 7SM OVC004 13/12 A2970 RMK AO2 RAB08E17 P0000=
200512281739 SPECI KATL 281739Z 18008KT 7SM OVC004 13/12 A2970 RMK AO2 RAB08E17 P0000=
200512281651 METAR KATL 281651Z 19009KT 7SM OVC006 12/12 A2974 RMK AO2 RAE11 SLP072 P0000 T01220117=
200512281621 SPECI KATL 281621Z 19009KT 6SM BR BKN006 OVC014 12/12 A2977 RMK AO2 RAE11 CIG 004V011 P0000=
200512281621 SPECI KATL 281621Z 19009KT 6SM BR BKN006 OVC014 12/12 A2977 RMK AO2 RAE11 CIG 004V011 P0000=
200512281551 METAR KATL 281551Z 18009KT 6SM -RA BR OVC004 12/11 A2979 RMK AO2 RAE26B49 SLP087 P0003 T01170111=
200512281505 SPECI KATL 281505Z 17011G17KT 5SM -RA BR OVC004 11/11 A2979 RMK AO2 P0002=
200512281505 SPECI KATL 281505Z 17011G17KT 5SM -RA BR OVC004 11/11 A2979 RMK AO2 P0002=
200512281451 METAR KATL 281451Z 19011KT 6SM -RA BR BKN006 OVC009 12/11 A2981 RMK AO2 TSB00E19RAB04 SLP093 P0003 60003 T01170106 56007=
200512281419 SPECI KATL 281419Z 19010KT 10SM -RA OVC006CB 12/11 A2981 RMK AO2 TSB00E19RAB04 TS MOV NE P0000=
200512281419 SPECI KATL 281419Z 19010KT 10SM -RA OVC006CB 12/11 A2981 RMK AO2 TSB00E19RAB04 TS MOV NE P0000=
200512281401 SPECI KATL 281401Z 19009KT 10SM TS OVC004CB 12/11 A2981 RMK AO2 TSB00 OCNL LTGIC TS W MOV NE=
200512281401 SPECI KATL 281401Z 19009KT 10SM TS OVC004CB 12/11 A2981 RMK AO2 TSB00 OCNL LTGIC TS W MOV NE=
200512281351 METAR KATL 281351Z 19010KT 10SM OVC004 11/10 A2982 RMK AO2 DZB12E44 SLP097 P0000 T01110100=
200512281312 SPECI KATL 281312Z 18010KT 10SM -DZ OVC004 11/09 A2981 RMK AO2 DZB12 CIG 004V010 P0000=
200512281312 SPECI KATL 281312Z 18010KT 10SM -DZ OVC004 11/09 A2981 RMK AO2 DZB12 CIG 004V010 P0000=
200512281251 METAR KATL 281251Z 17008KT 10SM BKN006 BKN040 OVC065 10/09 A2981 RMK AO2 SLP095 T01000089 $=
200512281154 SPECI KATL 281154Z 17008KT 10SM SCT006 OVC065 09/08 A2983 RMK AO2 $=
200512281154 SPECI KATL 281154Z 17008KT 10SM SCT006 OVC065 09/08 A2983 RMK AO2 $=
200512281151 METAR KATL 281151Z 17009KT 10SM FEW010 BKN065 OVC140 09/08 A2983 RMK AO2 SLP101 T00890078 10094 20083 56020 $=
200512281051 METAR KATL 281051Z 18008KT 10SM FEW010 BKN140 OVC200 09/07 A2985 RMK AO2 SLP108 T00890072=
200512280951 METAR KATL 280951Z 18008KT 10SM OVC140 09/07 A2986 RMK AO2 SLP110 T00890067=
200512280851 METAR KATL 280851Z 19008KT 10SM FEW010 BKN140 OVC200 09/06 A2989 RMK AO2 SLP121 T00890061 58010=
200512280828 SPECI KATL 280828Z 20007KT 10SM FEW010 BKN140 OVC200 09/06 A2990 RMK AO2=
200512280828 SPECI KATL 280828Z 20007KT 10SM FEW010 BKN140 OVC200 09/06 A2990 RMK AO2=
200512280819 SPECI KATL 280819Z 20008KT 10SM BKN010 BKN140 OVC200 09/06 A2990 RMK AO2=
200512280819 SPECI KATL 280819Z 20008KT 10SM BKN010 BKN140 OVC200 09/06 A2990 RMK AO2=
200512280751 METAR KATL 280751Z 20010KT 10SM BKN180 OVC250 09/05 A2990 RMK AO2 SLP126 T00890050=
200512280651 METAR KATL 280651Z 19008KT 10SM SCT180 OVC250 09/04 A2991 RMK AO2 SLP128 T00890039=
200512280551 METAR KATL 280551Z 19008KT 10SM FEW200 BKN250 09/03 A2992 RMK AO2 SLP131 T00940033 10122 20094 58013=
200512280451 METAR KATL 280451Z 20008KT 10SM FEW200 BKN250 10/03 A2994 RMK AO2 SLP137 T01000028 401671006=
200512280351 METAR KATL 280351Z 19006KT 10SM FEW200 BKN250 10/02 A2995 RMK AO2 SLP144 T01000022=
200512280251 METAR KATL 280251Z 20009KT 10SM BKN250 11/02 A2996 RMK AO2 SLP149 T01060022 55000=
200512280151 METAR KATL 280151Z 19009KT 10SM BKN250 11/03 A2996 RMK AO2 SLP149 T01110028=
200512280051 METAR KATL 280051Z 18009KT 10SM SCT250 12/03 A2996 RMK AO2 SLP148 T01220028=
200512272351 METAR KATL 272351Z 18004KT 10SM FEW200 12/03 A2996 RMK AO2 SLP150 T01170033 10167 20117 58005=
200512272251 METAR KATL 272251Z 19003KT 10SM FEW200 14/03 A2998 RMK AO2 SLP155 T01390028=
200512272151 METAR KATL 272151Z 21007KT 10SM FEW180 BKN220 BKN300 15/03 A2998 RMK AO2 SLP155 T01500028=
200512272051 METAR KATL 272051Z 19008KT 10SM FEW180 SCT220 BKN300 16/03 A2998 RMK AO2 SLP153 T01610033 56025=
200512271951 METAR KATL 271951Z 25005KT 10SM FEW180 BKN220 BKN300 16/02 A2999 RMK AO2 SLP159 T01610022=
200512271851 METAR KATL 271851Z 23014KT 10SM FEW060 SCT220 16/01 A3001 RMK AO2 SLP166 T01560006 $=
200512271751 METAR KATL 271751Z 25007KT 10SM FEW220 14/01 A3005 RMK AO2 SLP181 T01440006 10144 21006 58024=
200512271651 METAR KATL 271651Z 29006KT 10SM FEW220 12/03 A3009 RMK AO2 SLP195 T01220028=
200512271551 METAR KATL 271551Z 30005KT 10SM FEW220 08/02 A3013 RMK AO2 SLP207 T00830022=
200512271451 METAR KATL 271451Z 30005KT 9SM CLR 04/01 A3013 RMK AO2 SLP208 T00440011 52019=
200512271351 METAR KATL 271351Z 28006KT 8SM CLR 02/00 A3010 RMK AO2 SLP202 T00170000=
200512271251 METAR KATL 271251Z 28006KT 7SM CLR 00/M01 A3009 RMK AO2 SLP197 T00001011=
200512271151 METAR KATL 271151Z 31008KT 7SM CLR 00/M01 A3007 RMK AO2 SLP189 T00001011 10011 21006 53007 $=
200512271051 METAR KATL 271051Z 31007KT 6SM BR CLR M01/M01 A3005 RMK AO2 SLP184 T10061011 $=
200512270951 METAR KATL 270951Z 30010KT 6SM BR CLR 00/M01 A3005 RMK AO2 SLP182 T00001011 $=
200512270851 METAR KATL 270851Z 29008KT 7SM CLR 00/M01 A3005 RMK AO2 SLP181 T00001011 50002 $=
200512270751 METAR KATL 270751Z 29007KT 8SM CLR 00/M01 A3005 RMK AO2 SLP182 T00001011 $=
200512270651 METAR KATL 270651Z 29008KT 8SM FEW250 01/M01 A3005 RMK AO2 SLP182 T00061006 $=
200512270551 METAR KATL 270551Z 29007KT 9SM FEW250 01/M01 A3004 RMK AO2 SLP179 T00111006 10044 20011 56012 $=
200512270451 METAR KATL 270451Z 29006KT 10SM CLR 01/M01 A3005 RMK AO2 SLP181 T00111006 400830011 $=
200512270351 METAR KATL 270351Z 30008KT 10SM CLR 02/00 A3006 RMK AO2 SLP187 T00220000 $=
200512270251 METAR KATL 270251Z 30008KT 10SM CLR 02/00 A3007 RMK AO2 SLP191 T00220000 50001 $=
200512270151 METAR KATL 270151Z 30007KT 10SM FEW025 03/00 A3008 RMK AO2 SLP192 T00280000 $=
200512270051 METAR KATL 270051Z 30008KT 10SM FEW025 04/01 A3007 RMK AO2 SLP190 T00390006 $=
200512262351 METAR KATL 262351Z 30008KT 10SM CLR 04/01 A3007 RMK AO2 SLP188 T00440006 10083 20044 51017 $=
200512262251 METAR KATL 262251Z 29008KT 10SM CLR 05/00 A3006 RMK AO2 SLP185 T00500000 $=
200512262151 METAR KATL 262151Z 28010KT 10SM FEW200 07/01 A3004 RMK AO2 SLP176 T00670006 $=
200512262051 METAR KATL 262051Z 30012KT 10SM FEW120 SCT200 08/01 A3002 RMK AO2 SLP170 T00780006 53003 $=
200512261951 METAR KATL 261951Z 28011KT 10SM SCT028 07/01 A3001 RMK AO2 SLP166 T00720006 $=
200512261851 METAR KATL 261851Z 30014G18KT 10SM BKN026 07/01 A3000 RMK AO2 SLP162 T00720006 $=
200512261751 METAR KATL 261751Z 27011G19KT 10SM BKN025 06/01 A3001 RMK AO2 SLP168 T00610006 10061 20039 50005 $=
200512261651 METAR KATL 261651Z 29012KT 10SM BKN021 06/01 A3002 RMK AO2 SLP171 T00560006 $=
200512261551 METAR KATL 261551Z 32013KT 10SM OVC021 05/01 A3002 RMK AO2 SLP169 T00500006 $=
200512261451 METAR KATL 261451Z 30014G18KT 10SM OVC021 04/01 A2999 RMK AO2 SLP162 T00440006 52026 $=
200512261351 METAR KATL 261351Z 29012KT 9SM OVC021 04/01 A2997 RMK AO2 SLP154 T00390011 $=
200512261251 METAR KATL 261251Z 30014G19KT 9SM OVC016 04/01 A2994 RMK AO2 SLP142 T00390011 $=
200512261151 METAR KATL 261151Z 30011KT 9SM OVC012 04/02 A2991 RMK AO2 SLP134 70001 T00390017 10039 20033 53022 $=
200512261051 METAR KATL 261051Z 28012KT 9SM OVC012 04/02 A2989 RMK AO2 SLP125 T00390017 $=
200512260951 METAR KATL 260951Z 29011KT 9SM OVC014 04/01 A2986 RMK AO2 SLP114 T00390011 $=
200512260918 SPECI KATL 260918Z 29013G18KT 9SM OVC014 04/01 A2985 RMK AO2 $=
200512260918 SPECI KATL 260918Z 29013G18KT 9SM OVC014 04/01 A2985 RMK AO2 $=
200512260851 METAR KATL 260851Z 28013KT 9SM OVC016 04/01 A2985 RMK AO2 SLP111 T00390011 51010 $=
200512260751 METAR KATL 260751Z 28011KT 9SM BKN016 OVC021 04/01 A2984 RMK AO2 SLP108 T00390011 $=
200512260749 SPECI KATL 260749Z 28012KT 9SM OVC016 04/01 A2984 RMK AO2 $=
200512260749 SPECI KATL 260749Z 28012KT 9SM OVC016 04/01 A2984 RMK AO2 $=
200512260651 METAR KATL 260651Z 28015G20KT 9SM OVC010 03/02 A2982 RMK AO2 SLP101 T00330017 $=
200512260551 METAR KATL 260551Z 28016G24KT 9SM BKN010 OVC015 04/02 A2980 RMK AO2 SLP095 60000 T00390022 10072 20039 51012 $=
200512260533 SPECI KATL 260533Z 28013KT 9SM BKN012 OVC020 04/02 A2980 RMK AO2 $=
200512260533 SPECI KATL 260533Z 28013KT 9SM BKN012 OVC020 04/02 A2980 RMK AO2 $=
200512260451 METAR KATL 260451Z 26013G21KT 8SM SCT013 OVC026 04/02 A2979 RMK AO2 SLP089 T00440022 401000044 $=
200512260351 METAR KATL 260351Z 28011KT 9SM FEW008 BKN020 06/03 A2978 RMK AO2 RAE0259DZB02E24 SLP087 P0000 T00560033 $=
200512260326 SPECI KATL 260326Z 27014KT 7SM FEW008 SCT014 BKN020 06/04 A2977 RMK AO2 RAE0259DZB02E24 P0000 $=
200512260326 SPECI KATL 260326Z 27014KT 7SM FEW008 SCT014 BKN020 06/04 A2977 RMK AO2 RAE0259DZB02E24 P0000 $=
200512260251 METAR KATL 260251Z 27010G18KT 6SM -RA BR BKN008 OVC014 06/04 A2976 RMK AO2 DZE49RAB49 SLP081 P0000 60000 T00560044 51021 $=
200512260239 SPECI KATL 260239Z 25011KT 6SM -DZ BR BKN008 OVC014 06/04 A2976 RMK AO2 P0000 $=
200512260239 SPECI KATL 260239Z 25011KT 6SM -DZ BR BKN008 OVC014 06/04 A2976 RMK AO2 P0000 $=
200512260151 METAR KATL 260151Z 25010KT 8SM -DZ BKN012 OVC020 06/04 A2975 RMK AO2 RAE00DZB05 SLP076 PCPN VRY LGT P0000 T00610044 $=
200512260135 SPECI KATL 260135Z 25010KT 7SM -DZ BKN012 OVC020 07/05 A2974 RMK AO2 RAE00DZB05 PCPN VRY LGT P0000 $=
200512260135 SPECI KATL 260135Z 25010KT 7SM -DZ BKN012 OVC020 07/05 A2974 RMK AO2 RAE00DZB05 PCPN VRY LGT P0000 $=
200512260101 SPECI KATL 260101Z 25007KT 7SM FEW010 SCT014 OVC021 07/05 A2973 RMK AO2 RAE00 P0000 $=
200512260101 SPECI KATL 260101Z 25007KT 7SM FEW010 SCT014 OVC021 07/05 A2973 RMK AO2 RAE00 P0000 $=
200512260051 METAR KATL 260051Z 25008KT 5SM -RA BR BKN013 OVC020 07/05 A2973 RMK AO2 DZB08E51RAB51 SLP069 PCPN VRY LGT P0000 T00670050 $=
200512260009 SPECI KATL 260009Z 25010KT 7SM -DZ BKN024 BKN038 07/04 A2971 RMK AO2 DZB08 PCPN VRY LGT P0000 $=
200512260009 SPECI KATL 260009Z 25010KT 7SM -DZ BKN024 BKN038 07/04 A2971 RMK AO2 DZB08 PCPN VRY LGT P0000 $=
200512252351 METAR KATL 252351Z 26009KT 7SM SCT022 BKN038 07/04 A2970 RMK AO2 RAE2259B18E20DZB2259E41 SLP059 P0000 60001 T00720044 10100 20067 53016 $=
200512252341 SPECI KATL 252341Z 26008KT 7SM FEW025 SCT031 BKN041 07/04 A2970 RMK AO2 RAE2259B18E20DZB2259E41 P0000 $=
200512252341 SPECI KATL 252341Z 26008KT 7SM FEW025 SCT031 BKN041 07/04 A2970 RMK AO2 RAE2259B18E20DZB2259E41 P0000 $=
200512252304 SPECI KATL 252304Z 26008KT 7SM -DZ BKN022 OVC046 07/04 A2969 RMK AO2 RAE2259DZB2259 P0000 $=
200512252304 SPECI KATL 252304Z 26008KT 7SM -DZ BKN022 OVC046 07/04 A2969 RMK AO2 RAE2259DZB2259 P0000 $=
200512252251 METAR KATL 252251Z 27009KT 8SM -RA BKN033 BKN046 OVC080 07/04 A2968 RMK AO2 RAB49 SLP053 PCPN VRY LGT P0000 T00720044 $=
200512252151 METAR KATL 252151Z 26010KT 8SM BKN075 BKN180 08/04 A2967 RMK AO2 RAB2058E22 SLP047 P0001 T00780044 $=
200512252051 METAR KATL 252051Z 26008KT 9SM BKN046 BKN180 08/04 A2965 RMK AO2 SLP042 T00830039 53001 $=
200512251951 METAR KATL 251951Z 25013KT 9SM FEW025 BKN033 BKN180 09/04 A2964 RMK AO2 SLP039 T00890039 $=
200512251931 SPECI KATL 251931Z 26011G17KT 9SM FEW023 BKN028 BKN044 BKN180 09/04 A2964 RMK AO2 $=
200512251931 SPECI KATL 251931Z 26011G17KT 9SM FEW023 BKN028 BKN044 BKN180 09/04 A2964 RMK AO2 $=
200512251925 SPECI KATL 251925Z 26011KT 9SM SCT025 BKN030 OVC044 09/04 A2964 RMK AO2 $=
200512251925 SPECI KATL 251925Z 26011KT 9SM SCT025 BKN030 OVC044 09/04 A2964 RMK AO2 $=
200512251851 METAR KATL 251851Z 25011KT 9SM BKN025 BKN032 BKN180 09/04 A2963 RMK AO2 SLP035 T00940044 $=
200512251834 SPECI KATL 251834Z 26012KT 9SM SCT024 BKN029 OVC036 09/04 A2964 RMK AO2 $=
200512251834 SPECI KATL 251834Z 26012KT 9SM SCT024 BKN029 OVC036 09/04 A2964 RMK AO2 $=
200512251751 METAR KATL 251751Z 24013G22KT 9SM FEW022 SCT031 BKN049 BKN180 09/04 A2965 RMK AO2 SLP042 T00940044 10100 20083 58006 $=
200512251651 METAR KATL 251651Z 25012G18KT 9SM SCT022 BKN031 OVC042 09/05 A2966 RMK AO2 SLP046 T00940050 $=
200512251551 METAR KATL 251551Z 24010G16KT 9SM BKN016 BKN024 09/06 A2967 RMK AO2 SLP048 T00890061 $=
200512251451 METAR KATL 251451Z 24014G20KT 8SM SCT015 OVC025 09/07 A2965 RMK AO2 SLP043 T00890067 53022 $=
200512251436 SPECI KATL 251436Z 24012G18KT 8SM SCT013 SCT018 OVC027 09/07 A2964 RMK AO2 $=
200512251436 SPECI KATL 251436Z 24012G18KT 8SM SCT013 SCT018 OVC027 09/07 A2964 RMK AO2 $=
200512251416 SPECI KATL 251416Z 23011KT 8SM FEW007 OVC013 09/07 A2964 RMK AO2 $=
200512251416 SPECI KATL 251416Z 23011KT 8SM FEW007 OVC013 09/07 A2964 RMK AO2 $=
200512251351 METAR KATL 251351Z 23011G15KT 6SM BR BKN006 BKN010 BKN075 BKN180 09/08 A2963 RMK AO2 SLP034 T00890078 $=
200512251330 SPECI KATL 251330Z 22007KT 5SM BR BKN006 BKN010 BKN070 BKN180 09/08 A2962 RMK AO2 CIG 004V008 $=
200512251330 SPECI KATL 251330Z 22007KT 5SM BR BKN006 BKN010 BKN070 BKN180 09/08 A2962 RMK AO2 CIG 004V008 $=
200512251321 SPECI KATL 251321Z 23005KT 5SM BR SCT008 SCT180 08/08 A2961 RMK AO2 $=
200512251321 SPECI KATL 251321Z 23005KT 5SM BR SCT008 SCT180 08/08 A2961 RMK AO2 $=
200512251251 METAR KATL 251251Z 25007KT 9SM SCT012 09/08 A2960 RMK AO2 SLP026 T00890078 $=
200512251218 SPECI KATL 251218Z 25007KT 9SM FEW008 SCT016 09/08 A2960 RMK AO2=
200512251218 SPECI KATL 251218Z 25007KT 9SM FEW008 SCT016 09/08 A2960 RMK AO2=
200512251207 SPECI KATL 251207Z 26009KT 10SM FEW006 BKN016 09/08 A2959 RMK AO2=
200512251207 SPECI KATL 251207Z 26009KT 10SM FEW006 BKN016 09/08 A2959 RMK AO2=
200512251159 SPECI KATL 251159Z 25008KT 10SM SCT006 BKN011 OVC016 10/09 A2959 RMK AO2=
200512251159 SPECI KATL 251159Z 25008KT 10SM SCT006 BKN011 OVC016 10/09 A2959 RMK AO2=
200512251151 METAR KATL 251151Z COR 25011KT 10SM BKN006 BKN011 OVC016 10/09 A2959 RMK AO2 CIG 003V009 SLP020 60000 70028 T01000089 10100 20083 55004=
200512251144 SPECI KATL 251144Z 25011KT 10SM FEW001 BKN003 OVC009 10/09 A2959 RMK AO2 P0001=
200512251144 SPECI KATL 251144Z 25011KT 10SM FEW001 BKN003 OVC009 10/09 A2959 RMK AO2 P0001=
200512251131 SPECI KATL 251131Z 24008KT 3SM BR OVC003 10/09 A2958 RMK AO2 SFC VIS 5 CIG 001V007 P0001=
200512251131 SPECI KATL 251131Z 24008KT 3SM BR OVC003 10/09 A2958 RMK AO2 SFC VIS 5 CIG 001V007 P0001=
200512251105 SPECI KATL 251105Z 19005KT 1/2SM R09R/5500VP6000FT FG OVC001 09/09 A2958 RMK AO2=
200512251105 SPECI KATL 251105Z 19005KT 1/2SM R09R/5500VP6000FT FG OVC001 09/09 A2958 RMK AO2=
200512251051 METAR KATL 251051Z 16004KT 1/2SM R09R/P6000FT BR OVC003 10/09 A2958 RMK AO2 SFC VIS 1 RAB0952E01 CIG 001V007 SLP016 P0000 T01000094=
200512251038 SPECI KATL 251038Z 14004KT 1 1/2SM BR OVC003 10/09 A2957 RMK AO2 RAB0952E01 CIG 002V007 P0000=
200512251038 SPECI KATL 251038Z 14004KT 1 1/2SM BR OVC003 10/09 A2957 RMK AO2 RAB0952E01 CIG 002V007 P0000=
200512251020 SPECI KATL 251020Z 15003KT 3SM BR OVC005 10/09 A2958 RMK AO2 RAB0952E01 P0000=
200512251020 SPECI KATL 251020Z 15003KT 3SM BR OVC005 10/09 A2958 RMK AO2 RAB0952E01 P0000=
200512250951 METAR KATL 250951Z 00000KT 3SM BR OVC003 10/09 A2958 RMK AO2 RAB09E38 CIG 001V007 SLP017 P0000 T01000094=
200512250916 SPECI KATL 250916Z 29010KT 5SM -RA BR OVC003 10/09 A2960 RMK AO2 RAB09 CIG 001V008 P0000=
200512250916 SPECI KATL 250916Z 29010KT 5SM -RA BR OVC003 10/09 A2960 RMK AO2 RAB09 CIG 001V008 P0000=
200512250907 SPECI KATL 250907Z 29006KT 6SM BR BKN005 OVC024 10/09 A2960 RMK AO2 CIG 003V008=
200512250907 SPECI KATL 250907Z 29006KT 6SM BR BKN005 OVC024 10/09 A2960 RMK AO2 CIG 003V008=
200512250851 METAR KATL 250851Z 00000KT 6SM BR OVC003 10/10 A2960 RMK AO2 CIG 001V006 SLP022 60000 T01000100 55008=
200512250848 SPECI KATL 250848Z VRB03KT 7SM BKN003 OVC024 10/10 A2959 RMK AO2 CIG 001V006=
200512250848 SPECI KATL 250848Z VRB03KT 7SM BKN003 OVC024 10/10 A2959 RMK AO2 CIG 001V006=
200512250833 SPECI KATL 250833Z VRB06KT 4SM BR OVC001 10/09 A2959 RMK AO2=
200512250833 SPECI KATL 250833Z VRB06KT 4SM BR OVC001 10/09 A2959 RMK AO2=
200512250759 SPECI KATL 250759Z 15005KT 1/2SM BR OVC001 09/09 A2961 RMK AO2 SFC VIS 3=
200512250759 SPECI KATL 250759Z 15005KT 1/2SM BR OVC001 09/09 A2961 RMK AO2 SFC VIS 3=
200512250751 METAR KATL 250751Z 14005KT 1/2SM BR OVC003 09/09 A2961 RMK AO2 SFC VIS 3 SLP028 T00940089=
200512250737 SPECI KATL 250737Z 13005KT 5SM BR OVC003 09/09 A2962 RMK AO2=
200512250737 SPECI KATL 250737Z 13005KT 5SM BR OVC003 09/09 A2962 RMK AO2=
200512250712 SPECI KATL 250712Z 14004KT 5SM BR BKN005 BKN060 OVC120 09/09 A2963 RMK AO2=
200512250712 SPECI KATL 250712Z 14004KT 5SM BR BKN005 BKN060 OVC120 09/09 A2963 RMK AO2=
200512250651 METAR KATL 250651Z 12005KT 9SM FEW004 SCT060 SCT120 09/09 A2962 RMK AO2 RAE02 SLP029 P0000 T00940094=
200512250641 SPECI KATL 250641Z 12005KT 6SM BR FEW004 SCT070 09/09 A2962 RMK AO2 RAE02 P0000=
200512250641 SPECI KATL 250641Z 12005KT 6SM BR FEW004 SCT070 09/09 A2962 RMK AO2 RAE02 P0000=
200512250551 METAR KATL 250551Z 14009KT 4SM -RA BR FEW002 OVC004 08/08 A2966 RMK AO2 SLP044 P0006 60012 T00830083 10094 20078 58034=
200512250534 SPECI KATL 250534Z 11010KT 5SM -RA BR BKN004 OVC024 08/08 A2966 RMK AO2 PRESFR P0005=
200512250534 SPECI KATL 250534Z 11010KT 5SM -RA BR BKN004 OVC024 08/08 A2966 RMK AO2 PRESFR P0005=
200512250520 SPECI KATL 250520Z 12010KT 4SM -RA BR FEW004 BKN008 OVC037 08/07 A2969 RMK AO2 PRESFR P0003=
200512250520 SPECI KATL 250520Z 12010KT 4SM -RA BR FEW004 BKN008 OVC037 08/07 A2969 RMK AO2 PRESFR P0003=
200512250451 METAR KATL 250451Z COR 14010KT 5SM RA BR BKN012 OVC035 08/07 A2973 RMK AO2 SLP070 P0005 T00780067 401171017=
200512250427 SPECI KATL 250427Z 12008KT 8SM -RA OVC014 08/06 A2975 RMK AO2 P0002=
200512250427 SPECI KATL 250427Z 12008KT 8SM -RA OVC014 08/06 A2975 RMK AO2 P0002=
200512250351 METAR KATL 250351Z 11007KT 7SM -RA OVC018 09/06 A2975 RMK AO2 RAB0255 SLP078 P0001 T00890056=
200512250251 METAR KATL 250251Z 11009KT 10SM OVC022 09/04 A2976 RMK AO2 SLP081 T00890044 58017=
200512250151 METAR KATL 250151Z 12008KT 10SM OVC022 09/04 A2980 RMK AO2 SLP097 T00890039=
200512250051 METAR KATL 250051Z 12007KT 10SM OVC028 09/05 A2980 RMK AO2 SLP098 T00890050=
200512250038 SPECI KATL 250038Z 13007KT 10SM BKN028 OVC036 09/06 A2980 RMK AO2=
200512250038 SPECI KATL 250038Z 13007KT 10SM BKN028 OVC036 09/06 A2980 RMK AO2=
200512250019 SPECI KATL 250019Z 14005KT 10SM SCT029 OVC036 09/06 A2981 RMK AO2=
200512250019 SPECI KATL 250019Z 14005KT 10SM SCT029 OVC036 09/06 A2981 RMK AO2=
200512242358 SPECI KATL 242358Z 10007KT 7SM OVC029 08/07 A2981 RMK AO2=
200512242358 SPECI KATL 242358Z 10007KT 7SM OVC029 08/07 A2981 RMK AO2=
200512242351 METAR KATL 242351Z 09007KT 8SM BKN031 OVC042 08/07 A2981 RMK AO2 RAB15E44 SLP101 SHRA VC E P0003 60016 T00780067 10117 20078 56010=
200512242251 METAR KATL 242251Z 09006KT 8SM SCT039 OVC060 08/07 A2981 RMK AO2 RAE32 SLP101 P0013 T00830067=
200512242227 SPECI KATL 242227Z 09005KT 5SM -RA BR FEW019CB BKN030 OVC037 08/06 A2983 RMK AO2 CB SE AND VC NE P0013=
200512242227 SPECI KATL 242227Z 09005KT 5SM -RA BR FEW019CB BKN030 OVC037 08/06 A2983 RMK AO2 CB SE AND VC NE P0013=
200512242220 SPECI KATL 242220Z 12007KT 2SM +RA BR SCT023CB OVC031 08/06 A2983 RMK AO2 SFC VIS 3 CB VC NE VIS NE 2 1/2 P0010=
200512242220 SPECI KATL 242220Z 12007KT 2SM +RA BR SCT023CB OVC031 08/06 A2983 RMK AO2 SFC VIS 3 CB VC NE VIS NE 2 1/2 P0010=
200512242214 SPECI KATL 242214Z 14007KT 3SM RA BKN028CB OVC034 09/06 A2984 RMK AO2 CB VC N AND DSNT SE P0004=
200512242214 SPECI KATL 242214Z 14007KT 3SM RA BKN028CB OVC034 09/06 A2984 RMK AO2 CB VC N AND DSNT SE P0004=
200512242151 METAR KATL 242151Z COR 13007KT 6SM -RA OVC030 11/04 A2983 RMK AO2 RAB42 SLP106 P0000 T01060039=
200512242051 METAR KATL 242051Z 13007KT 9SM OVC032 11/02 A2984 RMK AO2 RAB13E23 SLP110 BKINOVC SW P0000 60000 T01110022 56027=
200512241951 METAR KATL 241951Z 15007KT 9SM OVC030 11/01 A2987 RMK AO2 SLP118 T01110011=
200512241851 METAR KATL 241851Z 15008KT 9SM BKN030 BKN049 BKN190 12/01 A2989 RMK AO2 SLP126 T01170006=
200512241751 METAR KATL 241751Z 17010KT 9SM BKN030 OVC042 11/01 A2993 RMK AO2 SLP138 T01060006 10111 21017 58030=
200512241651 METAR KATL 241651Z 15006KT 10SM FEW190 11/M01 A2995 RMK AO2 SLP145 T01061011=
200512241551 METAR KATL 241551Z 17008KT 9SM BKN042 BKN190 BKN230 08/M03 A3001 RMK AO2 SLP166 T00781028=
200512241451 METAR KATL 241451Z 13005KT 10SM FEW250 03/M03 A3002 RMK AO2 SLP171 T00331028 58001=
200512241351 METAR KATL 241351Z 00000KT 10SM FEW250 02/M03 A3003 RMK AO2 SLP176 T00171033=
200512241251 METAR KATL 241251Z 15003KT 8SM FEW250 M02/M05 A3003 RMK AO2 SLP177 T10171050=
200512241151 METAR KATL 241151Z 00000KT 9SM FEW250 M01/M05 A3002 RMK AO2 SLP173 T10061050 10033 21017 56008=
200512241051 METAR KATL 241051Z 00000KT 9SM CLR M01/M05 A3003 RMK AO2 SLP173 T10111050=
200512240951 METAR KATL 240951Z 00000KT 10SM CLR 01/M05 A3003 RMK AO2 SLP175 T00111050=
200512240851 METAR KATL 240851Z 00000KT 10SM CLR 00/M04 A3005 RMK AO2 SLP180 T00001044 53002=
200512240751 METAR KATL 240751Z 00000KT 10SM CLR 02/M05 A3005 RMK AO2 SLP178 T00171050=
200512240651 METAR KATL 240651Z 00000KT 10SM CLR 01/M04 A3004 RMK AO2 SLP178 T00111044=
200512240551 METAR KATL 240551Z 23004KT 10SM FEW200 03/M05 A3004 RMK AO2 SLP178 T00281050 10078 20017 58016=
200512240451 METAR KATL 240451Z 20003KT 10SM FEW200 02/M04 A3006 RMK AO2 SLP185 T00221044 401281028=
200512240351 METAR KATL 240351Z 23003KT 10SM SCT200 03/M04 A3008 RMK AO2 SLP193 T00331039=
200512240251 METAR KATL 240251Z 23003KT 10SM BKN200 05/M05 A3009 RMK AO2 SLP195 T00501050 50000=
200512240151 METAR KATL 240151Z 23004KT 10SM SCT200 BKN250 06/M04 A3010 RMK AO2 SLP198 T00561044=
200512240051 METAR KATL 240051Z 24004KT 10SM BKN250 07/M06 A3009 RMK AO2 SLP198 T00671061=
200512232351 METAR KATL 232351Z 22003KT 10SM BKN250 08/M07 A3009 RMK AO2 SLP197 T00781067 10128 20078 58001=
200512232251 METAR KATL 232251Z 23004KT 10SM FEW200 BKN250 10/M07 A3009 RMK AO2 SLP196 T01001067=
200512232151 METAR KATL 232151Z 21006KT 10SM BKN250 12/M08 A3009 RMK AO2 SLP195 T01171078=
200512232051 METAR KATL 232051Z 19004KT 10SM SCT200 13/M09 A3009 RMK AO2 SLP195 T01281089 56017=
200512231951 METAR KATL 231951Z VRB06KT 10SM SCT200 12/M07 A3010 RMK AO2 SLP196 T01221072 $=
200512231851 METAR KATL 231851Z 21007KT 10SM SCT200 12/M08 A3011 RMK AO2 SLP202 T01171078=
200512231751 METAR KATL 231751Z 19005KT 10SM FEW250 11/M07 A3014 RMK AO2 SLP212 T01061067 10106 21022 58029=
200512231651 METAR KATL 231651Z VRB06KT 10SM SCT250 08/M06 A3020 RMK AO2 SLP232 T00781061=
200512231551 METAR KATL 231551Z 30007KT 10SM FEW250 06/M04 A3023 RMK AO2 SLP242 T00561044=
200512231451 METAR KATL 231451Z 30005KT 10SM FEW250 03/M06 A3023 RMK AO2 SLP244 T00331056 53008=
200512231351 METAR KATL 231351Z 29003KT 10SM CLR 01/M06 A3022 RMK AO2 SLP242 T00111056=
200512231251 METAR KATL 231251Z 26004KT 10SM FEW250 M02/M07 A3022 RMK AO2 SLP241 T10171072=
200512231151 METAR KATL 231151Z 28004KT 10SM CLR M02/M07 A3021 RMK AO2 SLP237 T10221072 10006 21028 53000=
200512231051 METAR KATL 231051Z 29006KT 10SM CLR M02/M07 A3021 RMK AO2 SLP238 T10221072=
200512230951 METAR KATL 230951Z 29005KT 10SM CLR M01/M07 A3020 RMK AO2 SLP234 T10111072=
200512230851 METAR KATL 230851Z 28003KT 10SM CLR M01/M07 A3021 RMK AO2 SLP235 T10061072 56002=
200512230751 METAR KATL 230751Z 25004KT 10SM CLR M01/M07 A3021 RMK AO2 SLP237 T10061072=
200512230651 METAR KATL 230651Z 22003KT 10SM CLR M01/M06 A3021 RMK AO2 SLP235 T10111061=
200512230551 METAR KATL 230551Z 00000KT 10SM CLR 00/M06 A3021 RMK AO2 SLP237 T00001061 10061 20000 58012=
200512230451 METAR KATL 230451Z 19003KT 10SM CLR 01/M05 A3023 RMK AO2 SLP244 T00061050 401061044=
200512230351 METAR KATL 230351Z 00000KT 10SM CLR 03/M07 A3024 RMK AO2 SLP248 T00281067=
200512230251 METAR KATL 230251Z 22003KT 10SM CLR 04/M07 A3025 RMK AO2 SLP252 T00391067 50001=
200512230151 METAR KATL 230151Z 24003KT 10SM CLR 04/M07 A3026 RMK AO2 SLP256 T00441067=
200512230051 METAR KATL 230051Z 22003KT 10SM CLR 05/M07 A3026 RMK AO2 SLP256 T00501067=
200512222351 METAR KATL 222351Z 00000KT 10SM CLR 06/M06 A3025 RMK AO2 SLP251 T00611061 10106 20061 50001=
200512222251 METAR KATL 222251Z 00000KT 10SM CLR 08/M07 A3026 RMK AO2 SLP253 T00781072=
200512222151 METAR KATL 222151Z 18003KT 10SM CLR 09/M08 A3025 RMK AO2 SLP250 T00941078=
200512222051 METAR KATL 222051Z 20005KT 10SM CLR 10/M07 A3024 RMK AO2 SLP248 56014 T01001072=
200512221951 METAR KATL 221951Z 15006KT 10SM CLR 10/M07 A3023 RMK AO2 SLP245 T01001072 $=
200512221851 METAR KATL 221851Z 14004KT 10SM CLR 09/M07 A3025 RMK AO2 SLP251 T00941072 $=
200512221751 METAR KATL 221751Z 09005KT 10SM CLR 08/M07 A3028 RMK AO2 SLP260 T00831067 10083 21044 58020=
200512221651 METAR KATL 221651Z VRB03KT 10SM CLR 07/M07 A3032 RMK AO2 SLP274 T00671067=
200512221551 METAR KATL 221551Z 13004KT 9SM CLR 04/M07 A3033 RMK AO2 SLP279 T00441067=
200512221451 METAR KATL 221451Z VRB04KT 10SM CLR 03/M07 A3034 RMK AO2 SLP283 T00281067 53025=
200512221351 METAR KATL 221351Z 32003KT 10SM CLR M02/M08 A3031 RMK AO2 SLP276 T10171078=
200512221251 METAR KATL 221251Z 33005KT 10SM CLR M04/M08 A3028 RMK AO2 SLP267 T10441083=
200512221151 METAR KATL 221151Z 33007KT 10SM CLR M04/M08 A3026 RMK AO2 SLP259 T10391083 11017 21039 53005=
200512221051 METAR KATL 221051Z 33006KT 10SM CLR M04/M08 A3026 RMK AO2 SLP257 T10391083=
200512220951 METAR KATL 220951Z 34008KT 300V040 10SM CLR M03/M08 A3025 RMK AO2 SLP253 T10281083=
200512220851 METAR KATL 220851Z 32008KT 10SM CLR M03/M08 A3025 RMK AO2 SLP252 T10281083 58001=
200512220751 METAR KATL 220751Z 32007KT 10SM CLR M03/M08 A3026 RMK AO2 SLP257 T10281083=
200512220651 METAR KATL 220651Z 31004KT 10SM CLR M02/M09 A3026 RMK AO2 SLP255 T10221089=
200512220551 METAR KATL 220551Z 30005KT 10SM CLR M02/M09 A3025 RMK AO2 SLP253 T10171089 10017 21022 57007=
200512220451 METAR KATL 220451Z 31006KT 10SM CLR M02/M09 A3026 RMK AO2 SLP255 T10171089 400671017=
200512220351 METAR KATL 220351Z 31007KT 10SM CLR M01/M08 A3027 RMK AO2 SLP258 T10111083=
200512220251 METAR KATL 220251Z COR 31008KT 10SM CLR M01/M09 A3027 RMK AO2 SLP259 T10061089 51005=
200512220151 METAR KATL 220151Z 31007KT 10SM CLR M01/M09 A3027 RMK AO2 SLP260 T10061089=
200512220051 METAR KATL 220051Z 30005KT 10SM CLR 01/M10 A3026 RMK AO2 SLP257 T00061100=
200512212351 METAR KATL 212351Z 30008KT 10SM CLR 02/M11 A3026 RMK AO2 SLP257 52010 T00171106 10067 20017=
200512212251 METAR KATL 212251Z 31008KT 10SM CLR 03/M12 A3024 RMK AO2 SLP252 T00281117=
200512212151 METAR KATL 212151Z 31011KT 10SM CLR 05/M13 A3023 RMK AO2 SLP248 T00501133=
200512212051 METAR KATL 212051Z 29012KT 10SM CLR 06/M11 A3022 RMK AO2 SLP240 56003 T00561106=
200512211951 METAR KATL 211951Z 29012KT 10SM CLR 06/M10 A3022 RMK AO2 SLP240 T00611100=
200512211851 METAR KATL 211851Z 34009KT 10SM CLR 06/M09 A3022 RMK AO2 SLPNO T00611094=
200512211751 METAR KATL 211751Z 30011KT 10SM CLR 05/M09 A3023 RMK AO2 SLPNO SLP245 10050 21033 58010 T00501094=
200512211651 METAR KATL 211651Z 31008KT 10SM CLR 03/M10 A3027 RMK AO2 SLP255 T00301100=
200512211551 METAR KATL 211551Z 31008KT 10SM CLR 02/M11 A3028 RMK AO2 SLP264 T00171106=
200512211451 METAR KATL 211451Z 32008KT 10SM CLR M01/M11 A3027 RMK AO2 SLP262 T10061111 53018=
200512211351 METAR KATL 211351Z 31011KT 10SM FEW250 M02/M12 A3025 RMK AO2 SLP253 T10221117=
200512211251 METAR KATL 211251Z 33010KT 10SM SCT250 M03/M12 A3021 RMK AO2 SLP242 T10331117=
200512211151 METAR KATL 211151Z 32010KT 10SM SCT250 M03/M12 A3022 RMK AO2 SLP244 T10331117 10006 21033 53004=
200512211051 METAR KATL 211051Z 31013KT 10SM SCT250 M03/M12 A3022 RMK AO2 SLP243 T10281117=
200512210951 METAR KATL 210951Z 32011KT 10SM FEW150 SCT250 M02/M12 A3021 RMK AO2 SLP238 T10221117=
200512210851 METAR KATL 210851Z 31012KT 10SM FEW150 BKN250 M01/M12 A3021 RMK AO2 SLP236 T10111117 53001=
200512210751 METAR KATL 210751Z 31008KT 10SM SCT150 BKN250 M01/M12 A3020 RMK AO2 SLP235 T10111122=
200512210651 METAR KATL 210651Z 32012KT 10SM BKN150 OVC200 M01/M12 A3020 RMK AO2 SLP233 T10061122=
200512210551 METAR KATL 210551Z 31015KT 10SM OVC150 01/M13 A3020=
200512210451 METAR KATL 210451Z 31014KT 10SM BKN150 BKN200 01/M13 A3020 RMK AO2 SLP235 T00111128 400831033=
200512210351 METAR KATL 210351Z 32010KT 10SM BKN150 BKN200 01/M13 A3020 RMK AO2 SLP237 T00111128=
200512210251 METAR KATL 210251Z 31009KT 10SM BKN200 01/M12 A3022 RMK AO2 SLP243 T00111122 50002=
200512210151 METAR KATL 210151Z 33009KT 10SM BKN200 02/M12 A3022 RMK AO2 SLP243 T00171122=
200512210051 METAR KATL 210051Z 31009KT 10SM FEW200 02/M10 A3022 RMK AO2 SLP244 T00221100=
200512202351 METAR KATL 202351Z 31008KT 10SM FEW200 03/M09 A3021 RMK AO2 SLP240 T00281094 10083 20028 51003=
200512202251 METAR KATL 202251Z 31009KT 10SM FEW200 04/M10 A3021 RMK AO2 SLP240 T00391100=
200512202151 METAR KATL 202151Z 32011KT 10SM FEW150 SCT250 06/M11 A3021 RMK AO2 SLP239 T00611106=
200512202051 METAR KATL 202051Z 34008KT 10SM CLR 08/M06 A3020 RMK AO2 SLP235 T00781061 55008=
200512201951 METAR KATL 201951Z 30008KT 10SM FEW250 08/M06 A3020 RMK AO2 SLP234 T00781056=
200512201851 METAR KATL 201851Z 01007KT 10SM FEW250 07/M04 A3020 RMK AO2 SLP235 T00721044=
200512201751 METAR KATL 201751Z 36008KT 10SM FEW250 06/M04 A3023 RMK AO2 SLP243 T00561044 10061 21033 58024=
200512201651 METAR KATL 201651Z 36010KT 10SM FEW250 04/M05 A3027 RMK AO2 SLP259 T00391050=
200512201551 METAR KATL 201551Z 34009KT 10SM FEW018 BKN250 02/M06 A3030 RMK AO2 SLP268 T00221056=
200512201451 METAR KATL 201451Z 32009KT 10SM BKN016 BKN250 M01/M07 A3030 RMK AO2 SLP270 T10061067 53017=
200512201351 METAR KATL 201351Z 32009KT 9SM FEW250 M02/M07 A3028 RMK AO2 SLP263 T10221072=
200512201251 METAR KATL 201251Z 32009KT 9SM FEW250 M03/M07 A3026 RMK AO2 SLP256 T10331072=
200512201151 METAR KATL 201151Z 32009KT 10SM SCT250 M03/M07 A3025 RMK AO2 SLP252 T10331072 11011 21033 53001=
200512201051 METAR KATL 201051Z COR 32007KT 10SM SCT250 M03/M07 A3023 RMK AO2 SLP246 T10331072=
200512200951 METAR KATL 200951Z 31011KT 10SM SCT250 M03/M07 A3023 RMK AO2 SLP245 T10281072=
200512200851 METAR KATL 200851Z 32009KT 10SM SCT250 M02/M07 A3024 RMK AO2 SLP249 T10221072 56004=
200512200751 METAR KATL 200751Z 31009KT 10SM SCT250 M02/M07 A3025 RMK AO2 SLP252 T10221067=
200512200651 METAR KATL 200651Z 32008KT 10SM BKN250 M02/M07 A3024 RMK AO2 SLP247 T10171067=
200512200551 METAR KATL 200551Z 31011KT 10SM BKN250 M01/M06 A3026 RMK AO2 SLP252 T10111061 10044 21011 58014=
200512200451 METAR KATL 200451Z 31010KT 10SM BKN250 00/M06 A3028 RMK AO2 SLP261 T00001056 401000000=
200512200351 METAR KATL 200351Z 32012KT 10SM BKN250 01/M05 A3028 RMK AO2 SLP262 T00111050=
200512200251 METAR KATL 200251Z 32012KT 10SM BKN250 02/M04 A3030 RMK AO2 SLP268 T00171044 50006=
200512200151 METAR KATL 200151Z 31012KT 10SM BKN250 03/M04 A3031 RMK AO2 SLP270 T00281044=
200512200051 METAR KATL 200051Z 32011KT 10SM BKN250 04/M04 A3029 RMK AO2 SLP264 T00391044=
200512192351 METAR KATL 192351Z 33013KT 10SM BKN250 04/M05 A3028 RMK AO2 SLP263 T00441050 10100 20044 53003=
200512192251 METAR KATL 192251Z 32010KT 10SM SCT240 06/M06 A3027 RMK AO2 SLP258 T00611056=
200512192151 METAR KATL 192151Z 34014KT 10SM FEW240 08/M06 A3027 RMK AO2 SLP257 T00781061=
200512192051 METAR KATL 192051Z 29014KT 10SM FEW240 09/M06 A3027 RMK AO2 SLP256 T00891056 55010=
200512191951 METAR KATL 191951Z 30014G17KT 10SM FEW240 09/M07 A3027 RMK AO2 SLP255 T00941067=
200512191851 METAR KATL 191851Z 31014KT 10SM FEW240 09/M06 A3028 RMK AO2 SLP257 T00941056=
200512191751 METAR KATL 191751Z 31010KT 10SM FEW240 09/M04 A3030 RMK AO2 SLP267 T00941039 10094 20000 58018=
200512191651 METAR KATL 191651Z 31010KT 10SM FEW240 08/M03 A3033 RMK AO2 SLP276 T00831033=
200512191551 METAR KATL 191551Z 31009KT 10SM FEW240 07/M03 A3036 RMK AO2 SLP286 T00671028=
200512191451 METAR KATL 191451Z 31010KT 10SM FEW250 04/M03 A3036 RMK AO2 SLP285 T00441028 51008=
200512191351 METAR KATL 191351Z 32010KT 10SM FEW250 02/M03 A3035 RMK AO2 SLP281 T00221028=
200512191251 METAR KATL 191251Z 30004KT 10SM FEW250 01/M03 A3035 RMK AO2 SLP283 T00061028=
200512191151 METAR KATL 191151Z 31005KT 10SM CLR 00/M03 A3033 RMK AO2 SLP278 T00001028 10050 20000 53003=
200512191051 METAR KATL 191051Z 31005KT 10SM FEW200 01/M02 A3031 RMK AO2 SLP270 T00111022=
200512190951 METAR KATL 190951Z 00000KT 10SM FEW200 02/M02 A3032 RMK AO2 SLP274 T00171022=
200512190851 METAR KATL 190851Z 00000KT 10SM CLR 03/M02 A3032 RMK AO2 SLP273 T00281017 55005=
200512190751 METAR KATL 190751Z 00000KT 10SM CLR 03/M02 A3032 RMK AO2 SLP270 T00331017=
200512190651 METAR KATL 190651Z 00000KT 10SM CLR 04/M02 A3033 RMK AO2 SLP275 T00441017=
200512190551 METAR KATL 190551Z 31006KT 10SM SCT120 OVC200 04/M01 A3034 RMK AO2 SLP278 T00391011 10106 20039 56004=
200512190451 METAR KATL 190451Z 30003KT 10SM OVC200 07/00 A3034 RMK AO2 SLP278 T00720000 401330028=
200512190351 METAR KATL 190351Z 00000KT 10SM BKN200 06/M01 A3034 RMK AO2 SLP280 T00611006=
200512190251 METAR KATL 190251Z 00000KT 10SM BKN200 07/M01 A3035 RMK AO2 SLP284 T00721011 58001=
200512190151 METAR KATL 190151Z 00000KT 10SM BKN200 08/M02 A3036 RMK AO2 SLP286 T00831022=
200512190051 METAR KATL 190051Z 36006KT 10SM FEW200 10/M03 A3035 RMK AO2 SLP282 T01001033=
200512182351 METAR KATL 182351Z 00000KT 10SM FEW200 09/M02 A3035 RMK AO2 SLP284 T00941022 10133 20094 53007=
200512182251 METAR KATL 182251Z 34005KT 10SM SCT200 11/M05 A3034 RMK AO2 SLP279 T01111050=
200512182151 METAR KATL 182151Z 34005KT 10SM FEW110 BKN160 12/M03 A3034 RMK AO2 SLP277 T01171028=
200512182051 METAR KATL 182051Z 36003KT 10SM FEW110 BKN160 13/M02 A3033 RMK AO2 SLP275 T01281022 55006=
200512181951 METAR KATL 181951Z VRB05KT 10SM FEW110 BKN160 12/M02 A3033 RMK AO2 SLP273 T01221017=
200512181851 METAR KATL 181851Z 36004KT 10SM FEW160 12/M01 A3033 RMK AO2 SLP275 T01221006=
200512181751 METAR KATL 181751Z VRB06KT 10SM FEW160 11/M02 A3035 RMK AO2 SLP283 T01061017 10111 20039 58020=
200512181651 METAR KATL 181651Z 02007KT 10SM FEW160 09/M02 A3039 RMK AO2 SLP296 T00941022=
200512181551 METAR KATL 181551Z 06008KT 10SM FEW160 08/M02 A3041 RMK AO2 SLP302 T00781022=
200512181451 METAR KATL 181451Z 06012KT 10SM SCT160 06/M03 A3041 RMK AO2 SLP305 T00611028 51016=
200512181351 METAR KATL 181351Z 07009KT 10SM FEW080 SCT160 04/M03 A3040 RMK AO2 SLP300 T00441028=
200512181251 METAR KATL 181251Z 05007KT 10SM BKN041 BKN085 04/M02 A3039 RMK AO2 SLP297 T00391022=
200512181151 METAR KATL 181151Z 03007KT 10SM BKN042 OVC085 04/M01 A3037 RMK AO2 SLP289 60001 70002 T00391006 10039 20028 53003=
200512181051 METAR KATL 181051Z 07007KT 10SM SCT047 BKN055 03/00 A3034 RMK AO2 SLP282 T00330000=
200512180951 METAR KATL 180951Z 09007KT 10SM FEW046 BKN065 03/00 A3033 RMK AO2 RAE00 SLP278 P0000 T00330000=
200512180851 METAR KATL 180851Z 05009KT 6SM -RA OVC034 03/00 A3036 RMK AO2 RAB20 SLP286 P0000 60001 T00330000 50009=
200512180751 METAR KATL 180751Z 01012KT 10SM OVC032 04/00 A3037 RMK AO2 SLP288 T00390000=
200512180651 METAR KATL 180651Z 03010KT 10SM OVC034 03/01 A3036 RMK AO2 RAE13 SLP286 P0001 T00330006=
200512180551 METAR KATL 180551Z 08013KT 8SM -RA OVC036 03/01 A3033 RMK AO2 SLP277 P0000 60001 T00330011 10061 20033 58015=
200512180451 METAR KATL 180451Z 07011KT 10SM -RA BKN038 OVC090 03/01 A3036 RMK AO2 RAE19B43 SLP286 PCPN VRY LGT P0000 T00330006 400720028=
200512180351 METAR KATL 180351Z 08012KT 10SM -RA OVC075 04/01 A3036 RMK AO2 SLP288 P0001 T00390006=
200512180251 METAR KATL 180251Z 08012KT 10SM -RA OVC080 05/M01 A3037 RMK AO2 SLP292 P0000 60000 T00501006 50003=
200512180151 METAR KATL 180151Z 08013KT 10SM -RA BKN085 OVC120 06/M01 A3039 RMK AO2 RAB51 SLP296 PCPN VRY LGT P0000 T00561011=
200512180051 METAR KATL 180051Z 07009KT 10SM FEW095 OVC120 06/M01 A3039 RMK AO2 SLP297 T00561011=
200512172351 METAR KATL 172351Z 07011KT 10SM BKN120 OVC200 06/M01 A3037 RMK AO2 SLP289 T00611006 10072 20061 53012=
200512172251 METAR KATL 172251Z 07011KT 10SM FEW090 BKN120 OVC200 06/M01 A3034 RMK AO2 SLP279 T00611006=
200512172151 METAR KATL 172151Z 07011KT 9SM SCT120 OVC200 06/M01 A3033 RMK AO2 SLP277 T00611006=
200512172051 METAR KATL 172051Z 08011KT 9SM SCT120 OVC200 07/00 A3033 RMK AO2 SLP276 T00670000 55009=
200512171951 METAR KATL 171951Z 08012KT 9SM OVC200 07/00 A3031 RMK AO2 SLP269 T00720000=
200512171851 METAR KATL 171851Z 08010KT 9SM OVC200 07/01 A3034 RMK AO2 SLP280 T00720006=
200512171751 METAR KATL 171751Z 09013KT 9SM OVC200 07/M01 A3036 RMK AO2 PRESFR SLP286 T00671006 10067 20028 58010=
200512171651 METAR KATL 171651Z 11009KT 9SM OVC200 06/M02 A3038 RMK AO2 SLP294 T00611017=
200512171551 METAR KATL 171551Z 09012KT 9SM OVC200 05/M02 A3039 RMK AO2 SLP299 T00501017=
200512171451 METAR KATL 171451Z 07013KT 10SM OVC200 04/M02 A3039 RMK AO2 SLP297 T00441017 53020=
200512171351 METAR KATL 171351Z 05009KT 10SM BKN200 04/M03 A3036 RMK AO2 SLP289 T00391033=
200512171251 METAR KATL 171251Z 01008KT 10SM FEW150 BKN200 03/M04 A3034 RMK AO2 SLP281 T00331044=
200512171151 METAR KATL 171151Z 35006KT 10SM FEW150 BKN200 03/M05 A3033 RMK AO2 SLP277 T00331050 10033 20028 53012=
200512171051 METAR KATL 171051Z 34007KT 10SM BKN150 03/M05 A3032 RMK AO2 SLP274 T00281050=
200512170951 METAR KATL 170951Z 35006KT 10SM SCT090 03/M05 A3029 RMK AO2 SLP263 T00331050=
200512170851 METAR KATL 170851Z 34004KT 10SM OVC090 03/M05 A3029 RMK AO2 SLP263 T00331050 53014=
200512170751 METAR KATL 170751Z 34007KT 10SM OVC095 03/M05 A3026 RMK AO2 SLP251 T00331050=
200512170651 METAR KATL 170651Z 34009KT 10SM OVC110 03/M04 A3025 RMK AO2 SLP249 T00331044=
200512170551 METAR KATL 170551Z 33011KT 10SM BKN120 BKN190 BKN250 03/M04 A3025 RMK AO2 SLP249 T00331039 10044 20033 51011=
200512170451 METAR KATL 170451Z 32011KT 10SM BKN120 BKN190 BKN250 03/M03 A3025 RMK AO2 SLP249 T00331033 400781011 $=
200512170351 METAR KATL 170351Z 31007KT 10SM OVC120 03/M03 A3024 RMK AO2 SLP248 BKINOVC S T00331028=
200512170251 METAR KATL 170251Z 32005KT 10SM BKN120 BKN190 BKN250 04/M03 A3021 RMK AO2 SLP238 T00391033 51016=
200512170151 METAR KATL 170151Z 31006KT 10SM SCT120 BKN150 BKN180 BKN250 04/M03 A3020 RMK AO2 SLP236 T00391033=
200512170051 METAR KATL 170051Z 29004KT 10SM BKN150 BKN180 BKN250 04/M04 A3019 RMK AO2 SLP233 T00391039=
200512162351 METAR KATL 162351Z 32007KT 10SM BKN150 BKN180 BKN250 04/M04 A3017 RMK AO2 SLP223 T00441039 10078 20044 53012=
200512162251 METAR KATL 162251Z 32008KT 10SM BKN150 BKN180 BKN250 05/M04 A3015 RMK AO2 SLP217 T00501044=
200512162151 METAR KATL 162151Z 31010KT 10SM BKN150 BKN180 BKN250 06/M04 A3013 RMK AO2 SLP211 VIRGA DSNT N T00611039=
200512162051 METAR KATL 162051Z 33008KT 10SM FEW150 BKN180 BKN250 07/M04 A3013 RMK AO2 SLP209 T00671039 53010=
200512161951 METAR KATL 161951Z 28011KT 10SM FEW150 BKN180 BKN250 07/M03 A3012 RMK AO2 SLP206 T00721028=
200512161851 METAR KATL 161851Z 30011KT 10SM FEW200 BKN250 07/M03 A3010 RMK AO2 SLP200 T00721033=
200512161751 METAR KATL 161751Z 32008KT 10SM FEW200 BKN250 06/M04 A3010 RMK AO2 SLP198 T00611039 10067 21011 58002=
200512161651 METAR KATL 161651Z 32012KT 10SM FEW200 BKN250 06/M03 A3011 RMK AO2 SLP203 T00561033=
200512161551 METAR KATL 161551Z 29007KT 10SM FEW200 SCT250 04/M01 A3011 RMK AO2 SLP204 T00441006 $=
200512161451 METAR KATL 161451Z 30008KT 10SM FEW250 03/M01 A3010 RMK AO2 SLP201 T00281011 53035 $=
200512161351 METAR KATL 161351Z 27005KT 10SM FEW250 01/M02 A3006 RMK AO2 SLP187 T00061017=
200512161251 METAR KATL 161251Z 27006KT 10SM CLR M01/M02 A3003 RMK AO2 SLP176 T10061022=
200512161151 METAR KATL 161151Z 27006KT 10SM CLR M01/M02 A3000 RMK AO2 SLP167 70066 T10061022 10011 21006 53009=
200512161051 METAR KATL 161051Z 27006KT 10SM CLR 00/M02 A2997 RMK AO2 SLP158 T00001017=
200512160951 METAR KATL 160951Z 26004KT 9SM CLR 00/M01 A2998 RMK AO2 SLP159 T00001011=
200512160851 METAR KATL 160851Z 26005KT 9SM CLR 01/M01 A2997 RMK AO2 SLP156 T00061006 53006=
200512160751 METAR KATL 160751Z 26005KT 9SM CLR 01/M01 A2997 RMK AO2 SLP155 T00061006=
200512160651 METAR KATL 160651Z 27006KT 10SM CLR 01/M01 A2995 RMK AO2 SLP152 T00061006=
200512160551 METAR KATL 160551Z 28006KT 9SM CLR 01/00 A2995 RMK AO2 SLP151 T00060000 10044 20006 51009=
200512160451 METAR KATL 160451Z 27007KT 10SM CLR 02/01 A2995 RMK AO2 SLP150 T00170006 400441006=
200512160351 METAR KATL 160351Z 28008KT 10SM CLR 03/01 A2993 RMK AO2 SLP143 T00280011=
200512160251 METAR KATL 160251Z 27008KT 10SM CLR 03/02 A2992 RMK AO2 SLP140 T00330022 51024=
200512160151 METAR KATL 160151Z 28010KT 10SM FEW015 SCT040 04/03 A2990 RMK AO2 SLP134 T00390028=
200512160051 METAR KATL 160051Z 28008KT 7SM FEW005 OVC038 04/04 A2988 RMK AO2 SLP125 BINOVC T00440039=
200512160036 SPECI KATL 160036Z 29007KT 6SM BR FEW004 SCT012 OVC035 04/04 A2987 RMK AO2=
200512160036 SPECI KATL 160036Z 29007KT 6SM BR FEW004 SCT012 OVC035 04/04 A2987 RMK AO2=
200512160023 SPECI KATL 160023Z 28009KT 6SM BR SCT004 BKN010 OVC035 04/03 A2987 RMK AO2=
200512160023 SPECI KATL 160023Z 28009KT 6SM BR SCT004 BKN010 OVC035 04/03 A2987 RMK AO2=
200512152351 METAR KATL 152351Z 28009KT 5SM BR OVC004 03/03 A2985 RMK AO2 DZE44 SLP116 CIG 003V007 P0000 60004 T00330033 10033 20022 51024=
200512152324 SPECI KATL 152324Z 29005KT 2 1/2SM -DZ BR OVC004 03/03 A2984 RMK AO2 SFC VIS 4 CIG 003V007 P0000=
200512152324 SPECI KATL 152324Z 29005KT 2 1/2SM -DZ BR OVC004 03/03 A2984 RMK AO2 SFC VIS 4 CIG 003V007 P0000=
200512152251 METAR KATL 152251Z 29008KT 1 1/2SM -DZ BR OVC004 03/03 A2984 RMK AO2 SFC VIS 2 1/2 DZB50 SLP111 CIG 002V006 P0000 T00280028=
200512152230 SPECI KATL 152230Z 30009KT 1 1/2SM BR OVC003 03/02 A2983 RMK AO2 SFC VIS 2 1/2=
200512152230 SPECI KATL 152230Z 30009KT 1 1/2SM BR OVC003 03/02 A2983 RMK AO2 SFC VIS 2 1/2=
200512152151 METAR KATL 152151Z 31008KT 2 1/2SM BR OVC003 03/02 A2981 RMK AO2 SFC VIS 5 DZE43 SLP104 P0000 T00280022=
200512152116 SPECI KATL 152116Z 32007KT 2 1/2SM -DZ BR OVC003 03/02 A2979 RMK AO2 SFC VIS 5 P0000=
200512152116 SPECI KATL 152116Z 32007KT 2 1/2SM -DZ BR OVC003 03/02 A2979 RMK AO2 SFC VIS 5 P0000=
200512152051 METAR KATL 152051Z 34004KT 2 1/2SM -DZ BR OVC005 03/03 A2978 RMK AO2 SFC VIS 4 SLP092 P0000 60004 T00330028 53008=
200512152008 SPECI KATL 152008Z 03008KT 2 1/2SM -DZ BR BKN005 BKN009 OVC015 03/02 A2976 RMK AO2 SFC VIS 5 CIG 004V008 P0000=
200512152008 SPECI KATL 152008Z 03008KT 2 1/2SM -DZ BR BKN005 BKN009 OVC015 03/02 A2976 RMK AO2 SFC VIS 5 CIG 004V008 P0000=
200512151951 METAR KATL 151951Z 36008KT 1 1/2SM -DZ BR OVC004 03/02 A2976 RMK AO2 SFC VIS 3 RAE37DZB48 CIG 004V009 SLP084 P0001 T00280022=
200512151851 METAR KATL 151851Z 03008KT 1SM R09R/5500VP6000FT -RA BR OVC004 03/02 A2975 RMK AO2 SFC VIS 1 1/2 SLP084 P0003 T00280022=
200512151801 SPECI KATL 151801Z 07010KT 1SM R09R/5500V6000FT -RA BR BKN004 OVC007 02/02 A2975 RMK AO2 SFC VIS 1 1/2 P0001=
200512151801 SPECI KATL 151801Z 07010KT 1SM R09R/5500V6000FT -RA BR BKN004 OVC007 02/02 A2975 RMK AO2 SFC VIS 1 1/2 P0001=
200512151751 METAR KATL 151751Z 06009KT 1 1/2SM -RA BR OVC004 02/02 A2975 RMK AO2 SFC VIS 3 CIG 003V009 SLP083 P0013 60062 T00220022 10028 20000 58016=
200512151735 SPECI KATL 151735Z 07010KT 1 1/2SM -RA BR BKN004 OVC009 03/02 A2975 RMK AO2 SFC VIS 3 P0012=
200512151735 SPECI KATL 151735Z 07010KT 1 1/2SM -RA BR BKN004 OVC009 03/02 A2975 RMK AO2 SFC VIS 3 P0012=
200512151733 SPECI KATL 151733Z 06008KT 1SM -RA BR BKN004 OVC009 02/02 A2976 RMK AO2 SFC VIS 2 P0012=
200512151733 SPECI KATL 151733Z 06008KT 1SM -RA BR BKN004 OVC009 02/02 A2976 RMK AO2 SFC VIS 2 P0012=
200512151651 METAR KATL 151651Z 05008KT 1SM R09R/6000VP6000FT -RA BR OVC006 02/02 A2977 RMK AO2 SFC VIS 3 SLP089 P0007 T00220017=
200512151639 SPECI KATL 151639Z 06010KT 1/2SM R09R/5500VP6000FT -RA BR BKN004 OVC010 02/02 A2978 RMK AO2 SFC VIS 1 1/2 PRESFR P0003=
200512151639 SPECI KATL 151639Z 06010KT 1/2SM R09R/5500VP6000FT -RA BR BKN004 OVC010 02/02 A2978 RMK AO2 SFC VIS 1 1/2 PRESFR P0003=
200512151630 SPECI KATL 151630Z 08009KT 3/4SM -RA BR OVC004 02/02 A2980 RMK AO2 SFC VIS 2 1/2 CIG 002V008 P0002=
200512151630 SPECI KATL 151630Z 08009KT 3/4SM -RA BR OVC004 02/02 A2980 RMK AO2 SFC VIS 2 1/2 CIG 002V008 P0002=
200512151551 METAR KATL 151551Z 00000KT 1SM -RA BR OVC002 02/02 A2983 RMK AO2 SFC VIS 3 PRESRR SLP111 P0008 T00220022=
200512151455 SPECI KATL 151455Z 13007KT 1/2SM R09R/5500VP6000FT RA BR OVC002 02/02 A2980 RMK AO2 SFC VIS 1 P0002 $=
200512151455 SPECI KATL 151455Z 13007KT 1/2SM R09R/5500VP6000FT RA BR OVC002 02/02 A2980 RMK AO2 SFC VIS 1 P0002 $=
200512151451 METAR KATL 151451Z 12007KT 1SM R09R/6000VP6000FT -RA BR OVC002 02/02 A2980 RMK AO2 SFC VIS 1 1/2 SLP100 P0008 60034 T00170017 55016 $=
200512151430 SPECI KATL 151430Z 12008KT 1SM -RA BR OVC002 02/01 A2979 RMK AO2 SFC VIS 2 P0002 $=
200512151430 SPECI KATL 151430Z 12008KT 1SM -RA BR OVC002 02/01 A2979 RMK AO2 SFC VIS 2 P0002 $=
200512151351 METAR KATL 151351Z 10010KT 1 1/2SM -RA BR OVC002 01/01 A2979 RMK AO2 SFC VIS 6 SLP096 P0010 T00110006 $=
200512151251 METAR KATL 151251Z 09010KT 1 1/2SM RA BR OVC002 01/00 A2982 RMK AO2 SFC VIS 2 1/2 SLP105 P0016 T00060000 $=
200512151238 SPECI KATL 151238Z 08012KT 1 1/2SM RA BR OVC002 01/00 A2983 RMK AO2 SFC VIS 4 P0012 $=
200512151238 SPECI KATL 151238Z 08012KT 1 1/2SM RA BR OVC002 01/00 A2983 RMK AO2 SFC VIS 4 P0012 $=
200512151151 METAR KATL 151151Z 08012KT 3/4SM -RA BR OVC002 00/M01 A2985 RMK AO2 SFC VIS 3 RAB26FZRAE01 SLP116 TWRINC P0003 60032 70057 T00001006 10000 21006 56032 $=
200512151133 SPECI KATL 151133Z 08012KT 3/4SM -RA BR OVC002 00/00 A2986 RMK AO2 SFC VIS 2 RAB26FZRAE01 TWRINC P0001 $=
200512151133 SPECI KATL 151133Z 08012KT 3/4SM -RA BR OVC002 00/00 A2986 RMK AO2 SFC VIS 2 RAB26FZRAE01 TWRINC P0001 $=
200512151102 SPECI KATL 151102Z 08012KT 1SM BR OVC002 00/M01 A2986 RMK AO2 SFC VIS 6 FZRAE01 P0000 $=
200512151102 SPECI KATL 151102Z 08012KT 1SM BR OVC002 00/M01 A2986 RMK AO2 SFC VIS 6 FZRAE01 P0000 $=
200512151051 METAR KATL 151051Z 08013KT 1SM -FZRA BR OVC002 00/M01 A2986 RMK AO2 SFC VIS 3 SLP118 P0003 T00001006 $=
200512150951 METAR KATL 150951Z 09015KT 2SM -FZRA BR OVC004 00/M01 A2990 RMK AO2 SFC VIS 4 SLP135 P0005 T00001006 $=
200512150934 SPECI KATL 150934Z 08010KT 2SM -FZRA BR OVC004 00/M01 A2992 RMK AO2 SFC VIS 3 P0002 $=
200512150934 SPECI KATL 150934Z 08010KT 2SM -FZRA BR OVC004 00/M01 A2992 RMK AO2 SFC VIS 3 P0002 $=
200512150851 METAR KATL 150851Z 08013KT 7SM -FZRA BR OVC004 00/M01 A2995 RMK AO2 SLP149 P0008 60021 T00001011 58039 $=
200512150833 SPECI KATL 150833Z 08012KT 4SM FZRA BR OVC004 M01/M01 A2995 RMK AO2 P0006 $=
200512150833 SPECI KATL 150833Z 08012KT 4SM FZRA BR OVC004 M01/M01 A2995 RMK AO2 P0006 $=
200512150812 SPECI KATL 150812Z 08014KT 5SM FZRA BR OVC006 M01/M01 A2999 RMK AO2 P0003 $=
200512150812 SPECI KATL 150812Z 08014KT 5SM FZRA BR OVC006 M01/M01 A2999 RMK AO2 P0003 $=
200512150751 METAR KATL 150751Z 08014KT 5SM -FZRA BR OVC006 M01/M01 A3001 RMK AO2 SLP171 P0008 T10061011 $=
200512150726 SPECI KATL 150726Z 08012KT 4SM FZRA BR OVC006 M01/M01 A3002 RMK AO2 P0005 $=
200512150726 SPECI KATL 150726Z 08012KT 4SM FZRA BR OVC006 M01/M01 A3002 RMK AO2 P0005 $=
200512150651 METAR KATL 150651Z 08012KT 5SM -FZRA BR OVC006 M01/M02 A3002 RMK AO2 SLP175 P0005 T10061017 $=
200512150559 SPECI KATL 150559Z 08012KT 5SM -FZRA BR BKN008 OVC015 M01/M02 A3005 RMK AO2 P0001 $=
200512150559 SPECI KATL 150559Z 08012KT 5SM -FZRA BR BKN008 OVC015 M01/M02 A3005 RMK AO2 P0001 $=
200512150551 METAR KATL 150551Z 08012KT 5SM FZRA BR BKN008 BKN015 OVC035 M01/M02 A3006 RMK AO2 SLP188 P0009 60025 T10061017 10022 21006 58019 $=
200512150514 SPECI KATL 150514Z 08012KT 6SM -FZRA FEW008 BKN015 OVC050 M01/M02 A3010 RMK AO2 P0004 $=
200512150514 SPECI KATL 150514Z 08012KT 6SM -FZRA FEW008 BKN015 OVC050 M01/M02 A3010 RMK AO2 P0004 $=
200512150451 METAR KATL 150451Z 08012KT 7SM -FZRA FEW015 BKN045 OVC060 M01/M02 A3011 RMK AO2 SLP204 P0008 T10061022 400501006 $=
200512150438 SPECI KATL 150438Z 08012KT 6SM -FZRA BR SCT018 BKN035 OVC050 M01/M02 A3011 RMK AO2 P0007 $=
200512150438 SPECI KATL 150438Z 08012KT 6SM -FZRA BR SCT018 BKN035 OVC050 M01/M02 A3011 RMK AO2 P0007 $=
200512150412 SPECI KATL 150412Z 08012KT 5SM FZRA BR BKN018 BKN040 OVC070 M01/M02 A3013 RMK AO2 P0002 $=
200512150412 SPECI KATL 150412Z 08012KT 5SM FZRA BR BKN018 BKN040 OVC070 M01/M02 A3013 RMK AO2 P0002 $=
200512150401 SPECI KATL 150401Z 08012KT 9SM -FZRA BKN018 BKN045 OVC070 M01/M02 A3013 RMK AO2 P0001 $=
200512150401 SPECI KATL 150401Z 08012KT 9SM -FZRA BKN018 BKN045 OVC070 M01/M02 A3013 RMK AO2 P0001 $=
200512150351 METAR KATL 150351Z 08012KT 8SM -FZRA SCT020 BKN045 OVC070 M01/M02 A3012 RMK AO2 RAE00FZRAB00 SLP209 P0006 T10061017 $=
200512150301 SPECI KATL 150301Z 09010KT 8SM -FZRA OVC020 00/M03 A3013 RMK AO2 RAE00FZRAB00 P0001=
200512150301 SPECI KATL 150301Z 09010KT 8SM -FZRA OVC020 00/M03 A3013 RMK AO2 RAE00FZRAB00 P0001=
200512150251 METAR KATL 150251Z 09010KT 6SM -RA OVC020 01/M03 A3012 RMK AO2 RAB00 SLP209 P0002 60002 T00061033 55000=
200512150151 METAR KATL 150151Z 09012KT 10SM OVC025 02/M06 A3010 RMK AO2 SLP200 T00171061=
200512150051 METAR KATL 150051Z 09013G20KT 10SM BKN022 OVC050 02/M06 A3011 RMK AO2 SLP205 T00171056=
200512142351 METAR KATL 142351Z 09013KT 10SM BKN020 OVC055 02/M06 A3012 RMK AO2 SLP208 T00221056 10050 20022 58009=
200512142251 METAR KATL 142251Z 08016KT 10SM BKN023 OVC060 02/M05 A3014 RMK AO2 SLP215 T00221050=
200512142225 SPECI KATL 142225Z 09012KT 10SM BKN025 OVC060 03/M04 A3015 RMK AO2=
200512142225 SPECI KATL 142225Z 09012KT 10SM BKN025 OVC060 03/M04 A3015 RMK AO2=
200512142151 METAR KATL 142151Z 09015KT 10SM OVC055 03/M04 A3015 RMK AO2 SLP217 T00331044=
200512142051 METAR KATL 142051Z 09013KT 10SM BKN060 BKN070 OVC110 03/M04 A3015 RMK AO2 SLP217 T00331044 56023=
200512141951 METAR KATL 141951Z 08013KT 10SM BKN065 BKN110 OVC150 04/M04 A3018 RMK AO2 SLP226 T00391039=
200512141851 METAR KATL 141851Z 09009G16KT 10SM BKN080 BKN110 BKN150 OVC180 04/M04 A3019 RMK AO2 SLP231 T00441039=
200512141751 METAR KATL 141751Z 09011KT 10SM BKN080 BKN110 BKN150 OVC180 04/M04 A3022 RMK AO2 SLP240 BINOVC S T00441039 10050 20017 58022=
200512141651 METAR KATL 141651Z 11009KT 10SM BKN090 BKN110 BKN150 OVC180 03/M04 A3026 RMK AO2 SLP254 VIRGA DSNT E-S T00331039=
200512141551 METAR KATL 141551Z 10011KT 10SM SCT080 BKN100 BKN150 OVC180 03/M04 A3027 RMK AO2 SLP258 VIRGA NE AND OHD-W-N T00281039=
200512141451 METAR KATL 141451Z 10012KT 10SM BKN120 BKN150 BKN240 02/M04 A3029 RMK AO2 SLP265 VIRGA NW-N T00221039 50010=
200512141351 METAR KATL 141351Z 08009KT 10SM BKN120 OVC250 02/M03 A3031 RMK AO2 SLP271 T00221033=
200512141251 METAR KATL 141251Z 09010KT 10SM BKN120 OVC250 02/M03 A3028 RMK AO2 SLP261 T00171033=
200512141151 METAR KATL 141151Z 10010KT 10SM BKN140 OVC250 02/M03 A3026 RMK AO2 SLP253 T00171033 10044 20017 53012 $=
200512141051 METAR KATL 141051Z 11011KT 10SM SCT130 OVC200 02/M03 A3023 RMK AO2 SLP243 T00221033 $=
200512140951 METAR KATL 140951Z 12011KT 10SM SCT140 OVC200 03/M03 A3023 RMK AO2 SLP243 T00281028=
200512140851 METAR KATL 140851Z 10010KT 10SM SCT140 BKN200 03/M02 A3022 RMK AO2 SLP240 T00281022 51014=
200512140751 METAR KATL 140751Z 10010KT 10SM BKN140 BKN200 03/M02 A3021 RMK AO2 SLP236 T00281022=
200512140651 METAR KATL 140651Z 12007KT 10SM BKN140 OVC250 03/M02 A3021 RMK AO2 SLP234 T00331022=
200512140551 METAR KATL 140551Z 12006KT 10SM OVC140 04/M02 A3018 RMK AO2 SLP226 T00391022 10072 20017 53001=
200512140451 METAR KATL 140451Z 10006KT 10SM BKN140 BKN250 03/M03 A3018 RMK AO2 SLP225 T00281028 401000000=
200512140351 METAR KATL 140351Z 07009KT 10SM BKN250 02/M03 A3017 RMK AO2 SLP225 T00221028=
200512140251 METAR KATL 140251Z 07006KT 10SM BKN250 03/M03 A3018 RMK AO2 SLP226 T00281028 51005=
200512140151 METAR KATL 140151Z 01004KT 10SM SCT250 06/M04 A3018 RMK AO2 SLP225 T00561039=
200512140051 METAR KATL 140051Z 01006KT 10SM BKN250 07/M04 A3017 RMK AO2 SLP222 T00671039=
200512132351 METAR KATL 132351Z 34006KT 10SM FEW250 07/M04 A3016 RMK AO2 SLP221 T00721039 10100 20067 53003=
200512132251 METAR KATL 132251Z 28004KT 10SM SCT250 08/M04 A3015 RMK AO2 SLP214 T00781044=
200512132151 METAR KATL 132151Z 28003KT 10SM BKN250 09/M03 A3014 RMK AO2 SLP212 T00891033=
200512132051 METAR KATL 132051Z VRB04KT 10SM FEW250 09/M04 A3015 RMK AO2 SLP215 T00941039 53002=
200512131951 METAR KATL 131951Z 03005KT 10SM SCT250 10/M03 A3013 RMK AO2 SLP207 T01001033=
200512131851 METAR KATL 131851Z VRB04KT 10SM SCT250 09/M03 A3014 RMK AO2 SLP210 T00891028=
200512131751 METAR KATL 131751Z VRB05KT 10SM FEW250 08/M02 A3015 RMK AO2 SLP213 T00831022 10083 20000 58015=
200512131651 METAR KATL 131651Z 35006KT 10SM FEW250 07/M02 A3018 RMK AO2 SLP225 T00721022=
200512131551 METAR KATL 131551Z 35006KT 10SM FEW250 06/M02 A3020 RMK AO2 SLP231 T00561022=
200512131451 METAR KATL 131451Z 34009KT 10SM FEW180 04/M02 A3019 RMK AO2 SLP229 T00441022 53015=
200512131351 METAR KATL 131351Z 32011KT 10SM CLR 03/M03 A3017 RMK AO2 SLP221 T00281028=
200512131251 METAR KATL 131251Z 31005KT 10SM FEW060 00/M03 A3017 RMK AO2 SLP222 T00001033=
200512131151 METAR KATL 131151Z 33007KT 10SM FEW060 01/M03 A3015 RMK AO2 SLP214 T00061033 10033 20006 53016=
200512131051 METAR KATL 131051Z 34008KT 10SM CLR 02/M03 A3013 RMK AO2 SLP207 T00171028=
200512130951 METAR KATL 130951Z 33010KT 10SM CLR 02/M03 A3011 RMK AO2 SLP200 T00221028=
200512130851 METAR KATL 130851Z 34008KT 10SM CLR 02/M02 A3010 RMK AO2 SLP196 T00171022 50004=
200512130751 METAR KATL 130751Z 34005KT 10SM FEW060 02/M02 A3010 RMK AO2 SLP198 T00171022=
200512130651 METAR KATL 130651Z 30005KT 10SM FEW060 02/M02 A3009 RMK AO2 SLP192 T00221022=
200512130551 METAR KATL 130551Z 32007KT 10SM FEW060 03/M02 A3009 RMK AO2 SLP192 T00281017 10089 20028 51012=
200512130451 METAR KATL 130451Z 32008KT 10SM FEW060 03/M02 A3008 RMK AO2 SLP189 T00331017 401390011=
200512130351 METAR KATL 130351Z 33007KT 10SM FEW060 05/M02 A3006 RMK AO2 SLP184 T00501017=
200512130251 METAR KATL 130251Z 34007KT 10SM SCT055 06/M02 A3005 RMK AO2 SLP180 T00611017 51021=
200512130151 METAR KATL 130151Z 34007KT 10SM BKN060 07/M02 A3004 RMK AO2 SLP176 T00671017=
200512130051 METAR KATL 130051Z 34010KT 10SM FEW060 07/M01 A3002 RMK AO2 SLP170 T00721011=
200512122351 METAR KATL 122351Z 31013G19KT 10SM FEW050 09/M02 A2999 RMK AO2 SLP160 T00891017 10139 20083 53029=
200512122251 METAR KATL 122251Z 29014KT 10SM FEW055 10/M02 A2996 RMK AO2 SLP148 T01001022=
200512122151 METAR KATL 122151Z 31013G25KT 10SM FEW055 11/M02 A2992 RMK AO2 PK WND 28027/2103 SLP138 T01111022=
200512122051 METAR KATL 122051Z 29014G21KT 10SM FEW060 13/M02 A2990 RMK AO2 SLP127 T01281022 53002=
200512121951 METAR KATL 121951Z 29021G26KT 10SM FEW060 SCT230 13/M02 A2987 RMK AO2 PK WND 28026/1951 SLP118 T01331022=
200512121851 METAR KATL 121851Z 28011KT 10SM FEW055 SCT230 13/M01 A2988 RMK AO2 SLP119 T01331006=
200512121751 METAR KATL 121751Z 26011KT 10SM FEW050 SCT230 13/00 A2989 RMK AO2 SLP124 T01280000 10128 20011 58016=
200512121651 METAR KATL 121651Z 28011KT 10SM FEW230 11/M01 A2992 RMK AO2 SLP134 T01061006=
200512121551 METAR KATL 121551Z 25014KT 10SM FEW230 09/M01 A2994 RMK AO2 SLP143 T00941011=
200512121451 METAR KATL 121451Z 25009KT 10SM FEW200 08/M01 A2994 RMK AO2 SLP143 T00781011 53013=
200512121351 METAR KATL 121351Z 23007KT 10SM FEW200 04/M01 A2992 RMK AO2 SLP136 T00391006=
200512121251 METAR KATL 121251Z 23006KT 10SM FEW180 01/M02 A2990 RMK AO2 SLP132 T00111017=
200512121151 METAR KATL 121151Z 21007KT 10SM FEW250 01/M02 A2990 RMK AO2 SLP132 T00111017 10039 20011 58009=
200512121051 METAR KATL 121051Z 22006KT 10SM CLR 02/M02 A2992 RMK AO2 SLP138 T00171017=
200512120951 METAR KATL 120951Z 23005KT 10SM CLR 02/M01 A2993 RMK AO2 SLP139 T00221011=
200512120851 METAR KATL 120851Z 24007KT 10SM CLR 03/M01 A2993 RMK AO2 SLP140 T00281011 58005=
200512120751 METAR KATL 120751Z 26008KT 10SM SCT075 03/M01 A2994 RMK AO2 SLP144 T00331011=
200512120651 METAR KATL 120651Z 25007KT 10SM FEW180 03/M02 A2994 RMK AO2 SLP143 T00331017=
200512120551 METAR KATL 120551Z 24007KT 10SM CLR 03/M02 A2995 RMK AO2 SLP145 T00331017 10061 20022 56002=
200512120451 METAR KATL 120451Z 25006KT 10SM CLR 03/M02 A2995 RMK AO2 SLP146 T00331017 401000006=
200512120351 METAR KATL 120351Z 27005KT 10SM FEW080 03/M02 A2994 RMK AO2 SLP145 T00331017=
200512120251 METAR KATL 120251Z 26006KT 10SM CLR 03/M02 A2995 RMK AO2 SLP149 T00331017 55002=
200512120151 METAR KATL 120151Z 28004KT 10SM CLR 04/M02 A2994 RMK AO2 SLP146 T00441022=
200512120051 METAR KATL 120051Z 26005KT 10SM CLR 06/M02 A2995 RMK AO2 SLP149 T00561022=
200512112351 METAR KATL 112351Z 27005KT 10SM CLR 06/M02 A2996 RMK AO2 SLP151 T00561022 10100 20056 53015=
200512112251 METAR KATL 112251Z 28008KT 10SM CLR 07/M02 A2994 RMK AO2 SLP143 T00721022=
200512112151 METAR KATL 112151Z 28011KT 10SM CLR 09/M02 A2992 RMK AO2 SLP137 T00891022=
200512112051 METAR KATL 112051Z 29014KT 10SM FEW050 10/M02 A2991 RMK AO2 SLP133 T01001022 55010=
200512111951 METAR KATL 111951Z 27013KT 10SM FEW048 10/M02 A2991 RMK AO2 SLP131 T01001017=
200512111851 METAR KATL 111851Z 27013KT 10SM FEW047 09/M01 A2992 RMK AO2 SLP136 T00941011=
200512111751 METAR KATL 111751Z 28013G18KT 10SM FEW040 09/M01 A2994 RMK AO2 SLP144 T00891011 10089 20006 58011=
200512111651 METAR KATL 111651Z 31016KT 10SM FEW040 07/M01 A2996 RMK AO2 SLP150 T00721011=
200512111551 METAR KATL 111551Z 32011KT 10SM FEW028 07/M01 A2998 RMK AO2 SLP155 T00671006=
200512111451 METAR KATL 111451Z 29012KT 10SM FEW018 04/M01 A2998 RMK AO2 SLP156 T00441006 51007=
200512111351 METAR KATL 111351Z 27009KT 10SM CLR 02/M01 A2998 RMK AO2 SLP156 T00221006=
200512111251 METAR KATL 111251Z 26007KT 9SM FEW200 01/M01 A2996 RMK AO2 SLP153 T00061011=
200512111151 METAR KATL 111151Z 26009KT 10SM FEW200 01/M01 A2995 RMK AO2 SLP149 T00111011 10028 20011 53005=
200512111051 METAR KATL 111051Z 27008KT 10SM CLR 01/M01 A2994 RMK AO2 SLP144 T00111011=
200512110951 METAR KATL 110951Z 25009KT 10SM CLR 02/M01 A2994 RMK AO2 SLP142 T00171011=
200512110851 METAR KATL 110851Z 25007KT 10SM CLR 02/M02 A2994 RMK AO2 SLP143 T00171017 56009=
200512110751 METAR KATL 110751Z 27008KT 10SM CLR 02/M02 A2995 RMK AO2 SLP145 T00221017=
200512110651 METAR KATL 110651Z 28007KT 10SM CLR 02/M02 A2996 RMK AO2 SLP148 T00171017=
200512110551 METAR KATL 110551Z 27010KT 10SM CLR 03/M01 A2997 RMK AO2 SLP152 T00281011 10078 20028 56006=
200512110451 METAR KATL 110451Z 26011KT 10SM CLR 04/M01 A2997 RMK AO2 SLP152 T00391006 401171028=
200512110351 METAR KATL 110351Z 26008KT 10SM CLR 05/M01 A2998 RMK AO2 SLP156 T00501006=
200512110251 METAR KATL 110251Z 27007KT 10SM CLR 05/00 A2998 RMK AO2 SLP159 T00500000 55006=
200512110151 METAR KATL 110151Z 25010KT 10SM FEW250 07/01 A2998 RMK AO2 SLP158 T00670006=
200512110051 METAR KATL 110051Z 25009KT 10SM FEW250 07/00 A2999 RMK AO2 SLP163 T00720000=
200512102351 METAR KATL 102351Z 26010KT 10SM FEW250 08/M02 A3000 RMK AO2 SLP166 T00781017 10117 20078 58004=
200512102251 METAR KATL 102251Z 24007KT 10SM SCT036 SCT250 09/M06 A3001 RMK AO2 SLP168 T00891061=
200512102151 METAR KATL 102151Z 25009KT 10SM BKN040 10/M07 A3002 RMK AO2 SLP170 T01001067=
200512102051 METAR KATL 102051Z 24011G16KT 10SM BKN040 11/M07 A3002 RMK AO2 SLP170 T01061072 55018=
200512101951 METAR KATL 101951Z 22009KT 10SM FEW060 SCT080 11/M08 A3001 RMK AO2 SLP168 T01111078=
200512101851 METAR KATL 101851Z 21009KT 10SM SCT060 SCT095 11/M06 A3003 RMK AO2 SLP175 T01061061=
200512101751 METAR KATL 101751Z 19005KT 10SM FEW095 09/M06 A3007 RMK AO2 PRESFR SLP189 T00941056 10100 21022 58046=
200512101651 METAR KATL 101651Z 24008KT 10SM FEW048 08/M03 A3012 RMK AO2 SLP207 T00831033=
200512101551 METAR KATL 101551Z 17008KT 10SM FEW095 07/M02 A3017 RMK AO2 SLP222 T00671017 $=
200512101451 METAR KATL 101451Z 15004KT 10SM SCT250 03/M03 A3021 RMK AO2 SLP238 T00331033 53009=
200512101351 METAR KATL 101351Z 14005KT 5SM HZ FEW200 01/M04 A3018 RMK AO2 SLP228 T00061044=
200512101251 METAR KATL 101251Z 10004KT 10SM SCT200 M02/M06 A3018 RMK AO2 SLP230 T10221056=
200512101151 METAR KATL 101151Z 08004KT 10SM FEW200 M02/M06 A3018 RMK AO2 SLP230 T10171056 11011 21028 56000=
200512101051 METAR KATL 101051Z 07007KT 10SM CLR M02/M06 A3019 RMK AO2 SLP232 T10221061=
200512100951 METAR KATL 100951Z 09005KT 10SM CLR M02/M06 A3017 RMK AO2 SLP225 T10171061=
200512100851 METAR KATL 100851Z 07006KT 10SM CLR M03/M07 A3018 RMK AO2 SLP230 T10281067 58009=
200512100751 METAR KATL 100751Z 06003KT 10SM CLR M01/M07 A3019 RMK AO2 SLP232 T10111072=
200512100651 METAR KATL 100651Z 00000KT 10SM CLR M01/M07 A3021 RMK AO2 SLP237 T10111072=
200512100551 METAR KATL 100551Z 33004KT 10SM FEW250 M02/M07 A3021 RMK AO2 SLP239 T10221072 10017 21022 58006=
200512100451 METAR KATL 100451Z 33005KT 10SM SCT250 M02/M07 A3022 RMK AO2 SLP243 T10171072 400561017=
200512100351 METAR KATL 100351Z 31004KT 10SM BKN250 M01/M08 A3023 RMK AO2 SLP245 T10061078=
200512100251 METAR KATL 100251Z 32005KT 10SM BKN250 M01/M08 A3023 RMK AO2 SLP247 T10061078 58010=
200512100151 METAR KATL 100151Z 34008KT 10SM BKN250 01/M08 A3025 RMK AO2 SLP252 T00061078=
200512100051 METAR KATL 100051Z 35007KT 10SM FEW200 BKN250 01/M08 A3026 RMK AO2 SLP256 T00111078=
200512092351 METAR KATL 092351Z 33012KT 10SM FEW200 BKN250 02/M07 A3026 RMK AO2 SLP255 T00171072 10056 20017 50003=
200512092251 METAR KATL 092251Z 32010KT 10SM SCT200 BKN250 03/M07 A3026 RMK AO2 SLP254 T00281067=
200512092151 METAR KATL 092151Z 32010KT 10SM FEW180 BKN250 BKN300 04/M07 A3026=
200512092051 METAR KATL 092051Z 30011KT 10SM FEW180 BKN250 BKN300 05/M06 A3025 RMK AO2 SLP250 T00501061 55006=
200512091951 METAR KATL 091951Z 32015KT 10SM FEW180 BKN250 BKN300 06/M07 A3024 RMK AO2 SLP248 T00561072=
200512091851 METAR KATL 091851Z 30012KT 10SM FEW180 SCT250 BKN300 06/M07 A3025 RMK AO2 SLP250 T00561067=
200512091751 METAR KATL 091751Z 31010KT 10SM FEW180 SCT250 05/M05 A3027 RMK AO2 SLP257 T00501050 10050 20000 58010=
200512091651 METAR KATL 091651Z 32014KT 10SM FEW180 BKN250 04/M05 A3028 RMK AO2 SLP262 T00441050=
200512091551 METAR KATL 091551Z 30013KT 10SM FEW180 SCT250 03/M05 A3030 RMK AO2 SLP269 T00281050=
200512091451 METAR KATL 091451Z 32012KT 10SM FEW180 SCT250 02/M04 A3030 RMK AO2 SLP269 T00171044 51014=
200512091351 METAR KATL 091351Z 32019G23KT 10SM FEW150 SCT250 01/M04 A3028=
200512091251 METAR KATL 091251Z 32013KT 10SM FEW014 SCT250 01/M03 A3028 RMK AO2 SLP262 T00061028=
200512091151 METAR KATL 091151Z 31013G18KT 10SM FEW010 02/01 A3026 RMK AO2 SLP254 60001 70027 T00220006 10039 20022 53005 $=
200512091100 SPECI KATL 091100Z 31015KT 10SM SCT013 03/02 A3025 RMK AO2 $=
200512091100 SPECI KATL 091100Z 31015KT 10SM SCT013 03/02 A3025 RMK AO2 $=
200512091051 METAR KATL 091051Z 31014KT 10SM BKN013 03/03 A3025 RMK AO2 SLP249 T00330028 $=
200512091027 SPECI KATL 091027Z 32014KT 7SM FEW009 BKN012 04/03 A3023 RMK AO2 $=
200512091027 SPECI KATL 091027Z 32014KT 7SM FEW009 BKN012 04/03 A3023 RMK AO2 $=
200512090958 SPECI KATL 090958Z 31015G21KT 7SM FEW003 BKN007 OVC012 04/04 A3022 RMK AO2 CIG 006V010 $=
200512090958 SPECI KATL 090958Z 31015G21KT 7SM FEW003 BKN007 OVC012 04/04 A3022 RMK AO2 CIG 006V010 $=
200512090951 METAR KATL 090951Z 31013G19KT 3/4SM BR SCT001 BKN007 OVC046 04/04 A3022 RMK AO2 SFC VIS 6 SLP242 T00390039 $=
200512090851 METAR KATL 090851Z 30008KT 3/4SM R09R/P6000FT BR OVC001 03/03 A3024 RMK AO2 SFC VIS 1 SLP248 60001 T00330033 53001 $=
200512090808 SPECI KATL 090808Z 29007KT 1SM BR OVC001 03/03 A3025 RMK AO2 SFC VIS 3 $=
200512090808 SPECI KATL 090808Z 29007KT 1SM BR OVC001 03/03 A3025 RMK AO2 SFC VIS 3 $=
200512090805 SPECI KATL 090805Z 28006KT 2 1/2SM BR OVC001 03/03 A3024 RMK AO2 SFC VIS 3 $=
200512090805 SPECI KATL 090805Z 28006KT 2 1/2SM BR OVC001 03/03 A3024 RMK AO2 SFC VIS 3 $=
200512090751 METAR KATL 090751Z 27006KT 2 1/2SM BR FEW001 OVC003 03/03 A3024 RMK AO2 SFC VIS 5 RAE0653 SLP248 P0000 T00330033 $=
200512090728 SPECI KATL 090728Z 30004KT 2 1/2SM BR BKN003 BKN010 OVC026 03/03 A3024 RMK AO2 SFC VIS 5 RAE0653 CIG 002V006 P0000 $=
200512090728 SPECI KATL 090728Z 30004KT 2 1/2SM BR BKN003 BKN010 OVC026 03/03 A3024 RMK AO2 SFC VIS 5 RAE0653 CIG 002V006 P0000 $=
200512090717 SPECI KATL 090717Z 30004KT 2 1/2SM BR SCT003 BKN010 BKN026 03/03 A3024 RMK AO2 SFC VIS 6 RAE0653 P0000 $=
200512090717 SPECI KATL 090717Z 30004KT 2 1/2SM BR SCT003 BKN010 BKN026 03/03 A3024 RMK AO2 SFC VIS 6 RAE0653 P0000 $=
200512090651 METAR KATL 090651Z 00000KT 2 1/2SM -RA BR OVC003 03/01 A3023 RMK AO2 SFC VIS 5 RAE21B37 SLP244 P0001 T00280011 $=
200512090551 METAR KATL 090551Z 09004KT 2 1/2SM -RA BR BKN003 BKN008 OVC030 03/03 A3024 RMK AO2 SFC VIS 4 SLP247 P0003 60021 T00280028 10033 20022 58016 $=
200512090506 SPECI KATL 090506Z 08009KT 2 1/2SM -RA BR BKN004 OVC030 03/03 A3025 RMK AO2 SFC VIS 3 P0001 $=
200512090506 SPECI KATL 090506Z 08009KT 2 1/2SM -RA BR BKN004 OVC030 03/03 A3025 RMK AO2 SFC VIS 3 P0001 $=
200512090451 METAR KATL 090451Z 06008KT 2SM -RA BR FEW006 BKN024 OVC030 03/03 A3027 RMK AO2 TWR VIS 2 1/2 SLP256 P0006 T00280028 401110022 $=
200512090432 SPECI KATL 090432Z 04010KT 2 1/2SM -RA BR SCT006 OVC025 03/03 A3028 RMK AO2 SFC VIS 3 P0005 $=
200512090432 SPECI KATL 090432Z 04010KT 2 1/2SM -RA BR SCT006 OVC025 03/03 A3028 RMK AO2 SFC VIS 3 P0005 $=
200512090351 METAR KATL 090351Z 35009KT 2SM RA BR BKN006 OVC020 03/03 A3029 RMK AO2 TWR VIS 2 1/2 SLP263 CIG 004V010 P0003 T00280028 $=
200512090251 METAR KATL 090251Z 36005KT 2 1/2SM -RA BR BKN006 OVC015 03/03 A3029 RMK AO2 SFC VIS 4 SLP263 CIG OO4V010 P0008 60009 T00280028 50001 $=
200512090241 SPECI KATL 090241Z 34007KT 2 1/2SM -RA BR OVC006 03/03 A3030 RMK AO2 SFC VIS 4 CIG OO4V010 P0007 $=
200512090241 SPECI KATL 090241Z 34007KT 2 1/2SM -RA BR OVC006 03/03 A3030 RMK AO2 SFC VIS 4 CIG OO4V010 P0007 $=
200512090220 SPECI KATL 090220Z 36007KT 1 1/2SM R09R/6000VP6000FT -RA BR OVC005 03/02 A3030 RMK AO2 SFC VIS 2 1/2 CIG 003V009 P0004 $=
200512090220 SPECI KATL 090220Z 36007KT 1 1/2SM R09R/6000VP6000FT -RA BR OVC005 03/02 A3030 RMK AO2 SFC VIS 2 1/2 CIG 003V009 P0004 $=
200512090151 METAR KATL 090151Z 04006KT 1SM -RA BR OVC003 03/02 A3029 RMK AO2 SFC VIS 2 1/2 DZE22RAB22 SLP264 P0001 T00280022 $=
200512090051 METAR KATL 090051Z 10010KT 1/2SM -DZ BR OVC002 03/03 A3029 RMK AO2 SFC VIS 1 1/2 SLP262 P0000 T00280028 $=
200512090021 SPECI KATL 090021Z 09010KT 1/2SM -DZ BR OVC002 03/03 A3029 RMK AO2 SFC VIS 1 1/2 P0000 $=
200512090021 SPECI KATL 090021Z 09010KT 1/2SM -DZ BR OVC002 03/03 A3029 RMK AO2 SFC VIS 1 1/2 P0000 $=
200512082351 METAR KATL 082351Z 10014G19KT 1SM -DZ BR OVC002 03/03 A3029 RMK AO2 SFC VIS 2 SLP262 P0000 60002 T00280028 10039 20028 58005 $=
200512082251 METAR KATL 082251Z 10013KT 1 1/2SM -DZ BR OVC004 03/03 A3030 RMK AO2 SFC VIS 2 1/2 SLP265 P0000 T00330033 $=
200512082218 SPECI KATL 082218Z 09014KT 1 1/2SM -DZ BR OVC004 03/03 A3030 RMK AO2 SFC VIS 1 3/4 P0000 $=
200512082218 SPECI KATL 082218Z 09014KT 1 1/2SM -DZ BR OVC004 03/03 A3030 RMK AO2 SFC VIS 1 3/4 P0000 $=
200512082151 METAR KATL 082151Z 09013KT 2SM -DZ BR OVC004 04/03 A3032 RMK AO2 SLP271 P0000 T00390033 $=
200512082114 SPECI KATL 082114Z 08014G18KT 2SM -DZ BR OVC004 04/03 A3031 RMK AO2 SFC VIS 2 1/2 CIG 003V007 P0000=
200512082114 SPECI KATL 082114Z 08014G18KT 2SM -DZ BR OVC004 04/03 A3031 RMK AO2 SFC VIS 2 1/2 CIG 003V007 P0000=
200512082051 METAR KATL 082051Z 09015KT 2SM -DZ BR OVC006 04/03 A3030 RMK AO2 SFC VIS 4 RAE40DZB46 SLP266 P0000 60002 T00390033 58019=
200512082024 SPECI KATL 082024Z 10013G19KT 2SM -RA BR OVC006 04/03 A3030 RMK AO2 SFC VIS 2 1/2 CIG 004V010 P0000 $=
200512082024 SPECI KATL 082024Z 10013G19KT 2SM -RA BR OVC006 04/03 A3030 RMK AO2 SFC VIS 2 1/2 CIG 004V010 P0000 $=
200512082015 SPECI KATL 082015Z 09015KT 2SM -RA BR OVC004 04/03 A3031 RMK AO2 CIG 003V008 P0000 $=
200512082015 SPECI KATL 082015Z 09015KT 2SM -RA BR OVC004 04/03 A3031 RMK AO2 CIG 003V008 P0000 $=
200512081951 METAR KATL 081951Z 10009KT 1 1/2SM R09R/6000VP6000FT -RA BR BKN004 BKN012 OVC018 04/03 A3033 RMK AO2 TWR VIS 2 DZE30RAB30 SLP274 P0002 T00390033 $=
200512081934 SPECI KATL 081934Z 09011KT 1 1/2SM R09R/6000VP6000FT -RA BR OVC006 04/04 A3034 RMK AO2 TWR VIS 2 DZE30RAB30 CIG 004V009 P0001=
200512081934 SPECI KATL 081934Z 09011KT 1 1/2SM R09R/6000VP6000FT -RA BR OVC006 04/04 A3034 RMK AO2 TWR VIS 2 DZE30RAB30 CIG 004V009 P0001=
200512081851 METAR KATL 081851Z 09014G19KT 2SM -DZ BR OVC006 04/04 A3034 RMK AO2 DZB1752 CIG 004V009 SLP280 P0000 T00390039=
200512081815 SPECI KATL 081815Z 09015G22KT 2SM -DZ BR OVC008 04/04 A3035 RMK AO2 SFC VIS 3 DZB1752 CIG 005V010 P0000=
200512081815 SPECI KATL 081815Z 09015G22KT 2SM -DZ BR OVC008 04/04 A3035 RMK AO2 SFC VIS 3 DZB1752 CIG 005V010 P0000=
200512081751 METAR KATL 081751Z COR 09016G22KT 1 1/2SM -DZ BR OVC008 04/04 A3036 RMK AO2 SFC VIS 2 RAE50DZB52 CIG 004V009 SLP287 P0002 60003 T00390039 10067 20039 58022=
200512081716 SPECI KATL 081716Z 10013KT 1 1/2SM -RA BR BKN008 OVC018 04/03 A3039 RMK AO2 SFC VIS 1 3/4 P0002=
200512081716 SPECI KATL 081716Z 10013KT 1 1/2SM -RA BR BKN008 OVC018 04/03 A3039 RMK AO2 SFC VIS 1 3/4 P0002=
200512081651 METAR KATL 081651Z 09014G21KT 1 1/2SM R09R/5500VP6000FT -RA BR FEW008 SCT013 OVC018 04/03 A3041 RMK AO2 DZE49RAB49 PRESFR SLP305 P0001 T00390028=
200512081634 SPECI KATL 081634Z 08013KT 2 1/2SM -DZ BR OVC016 04/02 A3043 RMK AO2 P0000=
200512081634 SPECI KATL 081634Z 08013KT 2 1/2SM -DZ BR OVC016 04/02 A3043 RMK AO2 P0000=
200512081551 METAR KATL 081551Z 08014KT 7SM -DZ OVC018 05/02 A3043 RMK AO2 RAE41DZB41 SLP312 P0000 T00500017=
200512081451 METAR KATL 081451Z 10016G24KT 7SM -RA OVC020 06/01 A3043 RMK AO2 SLP309 P0000 60000 T00560011 53001=
200512081351 METAR KATL 081351Z 10015KT 10SM -RA SCT020 OVC028 06/M01 A3042 RMK AO2 RAE03B50 SLP306 P0000 T00611011=
200512081313 SPECI KATL 081313Z 09013G20KT 10SM OVC028 06/M02 A3043 RMK AO2 RAE03 P0000=
200512081313 SPECI KATL 081313Z 09013G20KT 10SM OVC028 06/M02 A3043 RMK AO2 RAE03 P0000=
200512081251 METAR KATL 081251Z 09015G21KT 10SM -RA BKN032 OVC100 06/M02 A3042 RMK AO2 RAB49 SLP307 PCPN VRY LGT P0000 T00611022=
200512081151 METAR KATL 081151Z 09014KT 10SM OVC036 07/M03 A3043 RMK AO2 SLP308 VIRGA OHD-SE-SW T00671033 10067 20061 53000 $=
200512081051 METAR KATL 081051Z 08014KT 10SM OVC038 07/M04 A3042 RMK AO2 SLP305 T00671039 $=
200512080951 METAR KATL 080951Z 08013KT 10SM OVC040 07/M03 A3042 RMK AO2 SLP305 T00671028 $=
200512080851 METAR KATL 080851Z 08012KT 10SM OVC040 07/M02 A3043 RMK AO2 SLP306 T00671022 58004 $=
200512080751 METAR KATL 080751Z 08012KT 10SM OVC040 07/M01 A3043 RMK AO2 SLP308 T00671011 $=
200512080651 METAR KATL 080651Z 08014KT 10SM BKN040 BKN070 OVC150 07/M02 A3044 RMK AO2 SLP311 T00671017 $=
200512080551 METAR KATL 080551Z 08013KT 10SM SCT035 BKN150 OVC200 06/M02 A3044 RMK AO2 SLP310 T00611017 10078 20061 50001 $=
200512080451 METAR KATL 080451Z 08012KT 10SM SCT040 BKN150 OVC200 06/M02 A3045 RMK AO2 SLP315 T00611022 401171017 $=
200512080351 METAR KATL 080351Z 08012KT 10SM FEW050 BKN150 OVC200 07/M03 A3044 RMK AO2 SLP313 T00671033 $=
200512080251 METAR KATL 080251Z 08011KT 10SM FEW048 BKN150 OVC200 06/M04 A3043 RMK AO2 SLP311 T00611039 50003 $=
200512080151 METAR KATL 080151Z 07012KT 10SM BKN150 BKN200 OVC250 07/M05 A3044 RMK AO2 SLP313 T00721050 $=
200512080051 METAR KATL 080051Z 08011KT 10SM BKN150 OVC200 07/M06 A3043 RMK AO2 SLP311 T00721056 $=
200512072351 METAR KATL 072351Z 08011KT 10SM SCT150 OVC200 08/M06 A3042 RMK AO2 SLP309 T00831061 10117 20083 51012 $=
200512072251 METAR KATL 072251Z 07009KT 10SM FEW120 BKN150 OVC200 09/M06 A3042 RMK AO2 SLP306 VIRGA NE-OHD-W T00891061=
200512072151 METAR KATL 072151Z 07011KT 10SM FEW100 BKN150 OVC180 09/M07 A3040 RMK AO2 SLP300 VIRGA OHD AND ALQDS T00941072=
200512072051 METAR KATL 072051Z 06009KT 10SM FEW100 BKN150 OVC180 11/M08 A3039 RMK AO2 SLP297 VIRGA OHD AND ALQDS T01061078 55005=
200512071951 METAR KATL 071951Z 08010KT 10SM FEW150 BKN180 OVC250 11/M08 A3038 RMK AO2 SLP294 T01061083=
200512071851 METAR KATL 071851Z 07009KT 10SM FEW150 SCT180 BKN250 11/M08 A3039 RMK AO2 SLP295 T01061083=
200512071751 METAR KATL 071751Z 08009KT 10SM FEW150 SCT180 BKN250 10/M08 A3040 RMK AO2 SLP301 T01001078 10100 20006 58014=
200512071651 METAR KATL 071651Z 05008KT 10SM FEW150 SCT180 SCT250 09/M07 A3044 RMK AO2 SLP314 T00941067=
200512071551 METAR KATL 071551Z 09010KT 10SM FEW150 SCT180 BKN250 07/M05 A3045 RMK AO2 SLP318 T00721050=
200512071451 METAR KATL 071451Z 09011KT 10SM FEW150 BKN180 BKN250 05/M06 A3045 RMK AO2 SLP318 T00501061 53021=
200512071351 METAR KATL 071351Z 05008KT 10SM SCT180 03/M06 A3042 RMK AO2 SLP308 T00331061=
200512071251 METAR KATL 071251Z 36004KT 10SM SCT200 01/M06 A3040 RMK AO2 SLP301 T00061061=
200512071151 METAR KATL 071151Z 36006KT 10SM SCT200 01/M06 A3038 RMK AO2 SLP295 T00111061 10017 21017 53016=
200512071051 METAR KATL 071051Z 34007KT 10SM SCT200 01/M06 A3036 RMK AO2 SLP288 T00061056=
200512070951 METAR KATL 070951Z 32007KT 10SM FEW200 M01/M05 A3034 RMK AO2 SLP282 T10111050=
200512070851 METAR KATL 070851Z 32004KT 10SM FEW200 M01/M04 A3033 RMK AO2 SLP279 T10061044 51007 $=
200512070751 METAR KATL 070751Z 33004KT 10SM BKN200 00/M05 A3033 RMK AO2 SLP276 T00001050=
200512070651 METAR KATL 070651Z 32005KT 10SM FEW180 SCT250 00/M04 A3032 RMK AO2 SLP274 T00001044=
200512070551 METAR KATL 070551Z 32005KT 10SM BKN200 01/M05 A3031 RMK AO2 SLP272 T00111050 10056 20011 50000=
200512070451 METAR KATL 070451Z 32004KT 10SM BKN200 02/M06 A3031 RMK AO2 SLP273 T00171056 400891028=
200512070351 METAR KATL 070351Z 33006KT 10SM BKN200 02/M06 A3031 RMK AO2 SLP273 T00221056=
200512070251 METAR KATL 070251Z 32005KT 10SM BKN250 02/M06 A3031 RMK AO2 SLP274 T00171056 52010=
200512070151 METAR KATL 070151Z 33005KT 10SM FEW200 BKN250 03/M06 A3031 RMK AO2 SLP271 T00331056=
200512070051 METAR KATL 070051Z 32004KT 10SM BKN200 04/M07 A3029 RMK AO2 SLP266 T00441072=
200512062351 METAR KATL 062351Z 31003KT 10SM FEW200 06/M07 A3028 RMK AO2 SLP264 T00561067 10089 20056 51017=
200512062251 METAR KATL 062251Z 31005KT 10SM FEW200 06/M07 A3027 RMK AO2 SLP260 T00561072=
200512062151 METAR KATL 062151Z 33007KT 10SM FEW220 07/M07 A3026 RMK AO2 SLP255 T00721067=
200512062051 METAR KATL 062051Z 32007KT 290V350 10SM FEW220 08/M08 A3023 RMK AO2 SLP244 T00831078 55006=
200512061951 METAR KATL 061951Z 30009KT 10SM FEW220 08/M08 A3023 RMK AO2 SLP244 T00831083=
200512061851 METAR KATL 061851Z 31009KT 10SM FEW220 08/M07 A3024 RMK AO2 SLP247 T00781072=
200512061751 METAR KATL 061751Z VRB04KT 10SM FEW220 07/M05 A3025 RMK AO2 SLP251 T00671050 10067 21028 58005=
200512061651 METAR KATL 061651Z 32008KT 10SM FEW220 06/M04 A3027 RMK AO2 SLP259 T00561044=
200512061551 METAR KATL 061551Z 30006KT 10SM FEW220 03/M03 A3028 RMK AO2 SLP263 T00331033=
200512061451 METAR KATL 061451Z 32007KT 9SM CLR 01/M04 A3027 RMK AO2 SLP258 T00061044 51026=
200512061351 METAR KATL 061351Z 31009KT 8SM CLR M02/M04 A3024 RMK AO2 SLP250 T10171044=
200512061251 METAR KATL 061251Z 31009KT 6SM BR CLR M03/M04 A3022 RMK AO2 SLP242 T10281044=
200512061151 METAR KATL 061151Z 31009KT 7SM CLR M03/M04 A3018 RMK AO2 SLP230 70027 T10281044 11006 21028 53020=
200512061051 METAR KATL 061051Z 31008KT 7SM CLR M03/M04 A3015 RMK AO2 SLP219 T10281044=
200512060951 METAR KATL 060951Z 32008KT 7SM CLR M02/M04 A3013 RMK AO2 SLP212 T10221044=
200512060851 METAR KATL 060851Z 33008KT 8SM CLR M02/M04 A3012 RMK AO2 SLP209 T10221039 53009=
200512060751 METAR KATL 060751Z 32009KT 8SM CLR M02/M04 A3011 RMK AO2 SLP206 T10171039=
200512060651 METAR KATL 060651Z 31009KT 8SM CLR M01/M03 A3010 RMK AO2 SLP199 T10111033=
200512060551 METAR KATL 060551Z 31010KT 10SM CLR M01/M03 A3009 RMK AO2 SLP198 T10061033 10044 21006 50008=
200512060451 METAR KATL 060451Z 31009KT 10SM CLR 00/M03 A3010 RMK AO2 SLP200 T00001028 401560000=
200512060351 METAR KATL 060351Z 32014KT 10SM FEW020 01/M02 A3010 RMK AO2 SLP198 T00111022=
200512060251 METAR KATL 060251Z 32015KT 10SM FEW020 02/M02 A3007 RMK AO2 SLP188 T00221017 51035=
200512060211 SPECI KATL 060211Z 31015KT 10SM SCT020 BKN250 03/M01 A3005 RMK AO2=
200512060211 SPECI KATL 060211Z 31015KT 10SM SCT020 BKN250 03/M01 A3005 RMK AO2=
200512060151 METAR KATL 060151Z 30017G24KT 10SM BKN020 03/M01 A3004 RMK AO2 PK WND 31026/0057 SLP175 T00331006=
200512060051 METAR KATL 060051Z 31021G25KT 10SM BKN018 04/01 A3001 RMK AO2 PK WND 32028/0035 SLP165 BINOVC T00390006=
200512060009 SPECI KATL 060009Z 32016G24KT 8SM FEW010 BKN015 OVC020 04/02 A2998 RMK AO2 PK WND 32026/2359 BINOVC=
200512060009 SPECI KATL 060009Z 32016G24KT 8SM FEW010 BKN015 OVC020 04/02 A2998 RMK AO2 PK WND 32026/2359 BINOVC=
200512052351 METAR KATL 052351Z 31024G27KT 7SM BKN010 OVC016 04/02 A2996 RMK AO2 PK WND 31027/2351 SLP150 BINOVC 60000 T00440022 10061 20044 53024=
200512052313 SPECI KATL 052313Z 31020G26KT 3SM BR BKN010 OVC016 05/03 A2994 RMK AO2 PK WND 31026/2311 SFC VIS 6=
200512052313 SPECI KATL 052313Z 31020G26KT 3SM BR BKN010 OVC016 05/03 A2994 RMK AO2 PK WND 31026/2311 SFC VIS 6=
200512052251 METAR KATL 052251Z 31012KT 3SM BR BKN009 OVC015 06/04 A2993 RMK AO2 SFC VIS 5 SLP138 T00560039=
200512052151 METAR KATL 052151Z 32011KT 3SM BR BKN008 OVC012 06/04 A2991 RMK AO2 SFC VIS 4 SLP130 T00560039=
200512052051 METAR KATL 052051Z 30010KT 2SM BR BKN008 BKN011 OVC040 05/04 A2989 RMK AO2 SFC VIS 4 DZE48 SLP124 P0000 60000 T00500039 53010=
200512052037 SPECI KATL 052037Z 31012KT 2SM -DZ BR OVC006 05/04 A2988 RMK AO2 SFC VIS 4 CIG 005V011 P0000=
200512052037 SPECI KATL 052037Z 31012KT 2SM -DZ BR OVC006 05/04 A2988 RMK AO2 SFC VIS 4 CIG 005V011 P0000=
200512051951 METAR KATL 051951Z 30015KT 1SM -DZ BR OVC006 05/04 A2986 RMK AO2 SFC VIS 2 1/2 RAB22E45DZB45 CIG 003V008 SLP115 P0000 T00500039=
200512051922 SPECI KATL 051922Z 30014KT 1 3/4SM -RA BR BKN003 OVC006 05/04 A2985 RMK AO2 TWR VIS 3 RAB22 P0000=
200512051922 SPECI KATL 051922Z 30014KT 1 3/4SM -RA BR BKN003 OVC006 05/04 A2985 RMK AO2 TWR VIS 3 RAB22 P0000=
200512051851 METAR KATL 051851Z 32012KT 3SM BR OVC003 06/05 A2985 RMK AO2 SFC VIS 4 SLP109 T00560050=
200512051825 SPECI KATL 051825Z 32010KT 3SM BR OVC003 06/05 A2986 RMK AO2 SFC VIS 4=
200512051825 SPECI KATL 051825Z 32010KT 3SM BR OVC003 06/05 A2986 RMK AO2 SFC VIS 4=
200512051751 METAR KATL 051751Z 28005KT 5SM BR OVC003 06/06 A2986 RMK AO2 WSHFT 1709 RAB1656E05 SLP113 P0000 60027 T00610056 10089 20061 58025=
200512051729 SPECI KATL 051729Z 34005KT 7SM OVC003 06/06 A2986 RMK AO2 WSHFT 1709 RAB1656E05 PRESFR P0000=
200512051729 SPECI KATL 051729Z 34005KT 7SM OVC003 06/06 A2986 RMK AO2 WSHFT 1709 RAB1656E05 PRESFR P0000=
200512051651 METAR KATL 051651Z 30004KT 6SM BR OVC003 06/06 A2989 RMK AO2 RAE33 PRESFR SLP124 P0001 T00610056=
200512051551 METAR KATL 051551Z 30011KT 4SM -RA BR OVC003 07/06 A2993 RMK AO2 SLP138 P0003 T00670061=
200512051451 METAR KATL 051451Z 31009KT 6SM -RA BR BKN003 BKN010 OVC039 07/06 A2993 RMK AO2 SLP138 P0005 60023 T00670061 52006=
200512051351 METAR KATL 051351Z 30008KT 5SM -RA BR BKN003 OVC014 07/07 A2993 RMK AO2 SLP135 P0004 T00720067=
200512051335 SPECI KATL 051335Z 30004KT 9SM -RA SCT003 SCT008 OVC014 07/07 A2993 RMK AO2 P0003=
200512051335 SPECI KATL 051335Z 30004KT 9SM -RA SCT003 SCT008 OVC014 07/07 A2993 RMK AO2 P0003=
200512051323 SPECI KATL 051323Z 31004KT 3SM -RA BR SCT003 BKN008 OVC095 07/07 A2992 RMK AO2 SFC VIS 6 P0003=
200512051323 SPECI KATL 051323Z 31004KT 3SM -RA BR SCT003 BKN008 OVC095 07/07 A2992 RMK AO2 SFC VIS 6 P0003=
200512051251 METAR KATL 051251Z 31006KT 2SM -RA BR BKN003 OVC034 08/07 A2992 RMK AO2 SFC VIS 6 RAB04 SLP133 P0014 T00780072 $=
200512051232 SPECI KATL 051232Z 32005KT 2SM RA BR OVC003 08/08 A2992 RMK AO2 SFC VIS 2 1/2 RAB04 P0011 $=
200512051232 SPECI KATL 051232Z 32005KT 2SM RA BR OVC003 08/08 A2992 RMK AO2 SFC VIS 2 1/2 RAB04 P0011 $=
200512051222 SPECI KATL 051222Z 31013KT 1 1/2SM +RA BR OVC001 08/08 A2993 RMK AO2 SFC VIS 2 RAB04 P0006 $=
200512051222 SPECI KATL 051222Z 31013KT 1 1/2SM +RA BR OVC001 08/08 A2993 RMK AO2 SFC VIS 2 RAB04 P0006 $=
200512051215 SPECI KATL 051215Z 32010KT 1/2SM -RA BR OVC001 08/08 A2992 RMK AO2 SFC VIS 2 1/2 RAB04 P0000 $=
200512051215 SPECI KATL 051215Z 32010KT 1/2SM -RA BR OVC001 08/08 A2992 RMK AO2 SFC VIS 2 1/2 RAB04 P0000 $=
200512051151 METAR KATL 051151Z 32007KT 1/4SM R09R/4000VP6000FT BR OVC001 09/09 A2992 RMK AO2 SFC VIS 3/4 RAE1056 SLP130 P0000 60008 70137 T00940089 10122 20094 55005 $=
200512051051 METAR KATL 051051Z 34004KT 1/4SM R09R/5000VP6000FT -RA BR OVC001 11/11 A2990 RMK AO2 SFC VIS 1 1/4 RAB48 SLP124 P0001 T01110111 $=
200512051012 SPECI KATL 051012Z 10003KT 1/4SM R09R/2600V4500FT BR OVC001 12/12 A2992 RMK AO2 SFC VIS 3/4 PNO $=
200512051012 SPECI KATL 051012Z 10003KT 1/4SM R09R/2600V4500FT BR OVC001 12/12 A2992 RMK AO2 SFC VIS 3/4 PNO $=
200512051005 SPECI KATL 051005Z 10003KT 3/4SM R09R/3500VP6000FT BR OVC001 12/12 A2992 RMK AO2 TWR VIS 1 1/2 PNO $=
200512051005 SPECI KATL 051005Z 10003KT 3/4SM R09R/3500VP6000FT BR OVC001 12/12 A2992 RMK AO2 TWR VIS 1 1/2 PNO $=
200512050951 METAR KATL 050951Z COR 10003KT 3/4SM BR 12/12 A2992 RMK AO2 SFC VIS 1 3/4 RAB11RAE50 SLP128 P0000 T01220117 $=
200512050851 METAR KATL 050851Z 10003KT 3/4SM BR OVC002 12/12 A2993 RMK AO2 SFC VIS 3 SLP132 60007 T01220117 56015=
200512050827 SPECI KATL 050827Z 12005KT 3/4SM BR OVC002 12/12 A2993 RMK AO2 SFC VIS 4=
200512050827 SPECI KATL 050827Z 12005KT 3/4SM BR OVC002 12/12 A2993 RMK AO2 SFC VIS 4=
200512050751 METAR KATL 050751Z 00000KT 2SM BR BKN004 BKN030 OVC038 12/11 A2995 RMK AO2 SFC VIS 5 RAE11 SLP138 P0000 T01170111=
200512050705 SPECI KATL 050705Z 00000KT 2SM -RA BR BKN004 BKN039 OVC055 12/12 A2996 RMK AO2 SFC VIS 5 P0000=
200512050705 SPECI KATL 050705Z 00000KT 2SM -RA BR BKN004 BKN039 OVC055 12/12 A2996 RMK AO2 SFC VIS 5 P0000=
200512050651 METAR KATL 050651Z 00000KT 2SM -RA BR FEW002 SCT017 OVC028 12/11 A2996 RMK AO2 SFC VIS 4 SLP141 P0007 T01170111=
200512050604 SPECI KATL 050604Z 03003KT 2SM RA BR FEW002 SCT017 OVC028 12/11 A2996 RMK AO2 SFC VIS 4 P0003=
200512050604 SPECI KATL 050604Z 03003KT 2SM RA BR FEW002 SCT017 OVC028 12/11 A2996 RMK AO2 SFC VIS 4 P0003=
200512050551 METAR KATL 050551Z VRB03KT 2SM RA BR SCT002 BKN033 OVC048 12/11 A2998 RMK AO2 SFC VIS 3 SLP149 P0029 60103 T01170111 10150 20111 50002=
200512050532 SPECI KATL 050532Z 14005KT 2SM RA BR SCT007 BKN033 OVC039 12/11 A2998 RMK AO2 SFC VIS 3 P0020=
200512050532 SPECI KATL 050532Z 14005KT 2SM RA BR SCT007 BKN033 OVC039 12/11 A2998 RMK AO2 SFC VIS 3 P0020=
200512050451 METAR KATL 050451Z 00000KT 2SM +RA BR FEW005 BKN027 OVC032 12/11 A2998 RMK AO2 SFC VIS 2 1/2 TSB13E29 SLP149 TS MOV E P0039 T01170111 402170067=
200512050429 SPECI KATL 050429Z VRB05KT 2SM +RA BR FEW007 OVC025 12/11 A2998 RMK AO2 SFC VIS 2 1/2 TSB13E29 TS MOV E P0028=
200512050429 SPECI KATL 050429Z VRB05KT 2SM +RA BR FEW007 OVC025 12/11 A2998 RMK AO2 SFC VIS 2 1/2 TSB13E29 TS MOV E P0028=
200512050415 SPECI KATL 050415Z 06007KT 2SM +TSRA BR BKN007CB BKN021 OVC028 12/11 A2998 RMK AO2 TSB13 OCNL LTGIC TS N-NE MOV NE P0017=
200512050415 SPECI KATL 050415Z 06007KT 2SM +TSRA BR BKN007CB BKN021 OVC028 12/11 A2998 RMK AO2 TSB13 OCNL LTGIC TS N-NE MOV NE P0017=
200512050351 METAR KATL 050351Z 02006KT 2SM +RA BR SCT005 BKN016 OVC025 12/11 A2998 RMK AO2 TSE29RAB0259 SLP150 TS DSPTD P0022 T01170111 $=
200512050330 SPECI KATL 050330Z 02009KT 3SM +RA BR SCT007 BKN025 OVC039 12/11 A2996 RMK AO2 TSE29RAB0259 TS DSPTD P0005=
200512050330 SPECI KATL 050330Z 02009KT 3SM +RA BR SCT007 BKN025 OVC039 12/11 A2996 RMK AO2 TSE29RAB0259 TS DSPTD P0005=
200512050323 SPECI KATL 050323Z 35006KT 6SM TSRA BR FEW007CB BKN025 BKN041 12/11 A2998 RMK AO2 RAB0259 OCNL LTGIC TS VC SW MOV NE P0003=
200512050323 SPECI KATL 050323Z 35006KT 6SM TSRA BR FEW007CB BKN025 BKN041 12/11 A2998 RMK AO2 RAB0259 OCNL LTGIC TS VC SW MOV NE P0003=
200512050251 METAR KATL 050251Z 03008KT 9SM TS FEW007CB BKN036 BKN049 12/11 A2997 RMK AO2 TSE27B47RAE41 SLP148 OCNL LTGIC TS VC NW MOV NE P0013 60013 T01220111 50007=
200512050227 SPECI KATL 050227Z 03010KT 4SM -RA BR SCT010 BKN030 12/11 A2998 RMK AO2 TSE27 TS DSPTD P0013=
200512050227 SPECI KATL 050227Z 03010KT 4SM -RA BR SCT010 BKN030 12/11 A2998 RMK AO2 TSE27 TS DSPTD P0013=
200512050151 METAR KATL 050151Z 34009KT 10SM -TSRA BKN010CB OVC029 14/12 A2998 RMK AO2 TSB37RAE04B47 SLP149 OCNL LTGIC TS NW MOV NE P0000 T01390117=
200512050138 SPECI KATL 050138Z 36008KT 10SM TS BKN010CB OVC029 14/12 A2997 RMK AO2 TSB37RAE04 OCNL LTGIC TS VC W-NW MOV NE P0000=
200512050138 SPECI KATL 050138Z 36008KT 10SM TS BKN010CB OVC029 14/12 A2997 RMK AO2 TSB37RAE04 OCNL LTGIC TS VC W-NW MOV NE P0000=
200512050126 SPECI KATL 050126Z 01012KT 10SM SCT008 BKN027 OVC036 14/13 A2997 RMK AO2 RAE04 P0000=
200512050126 SPECI KATL 050126Z 01012KT 10SM SCT008 BKN027 OVC036 14/13 A2997 RMK AO2 RAE04 P0000=
200512050112 SPECI KATL 050112Z 01011KT 10SM BKN008 BKN023 BKN036 14/13 A2997 RMK AO2 RAE04 P0000=
200512050112 SPECI KATL 050112Z 01011KT 10SM BKN008 BKN023 BKN036 14/13 A2997 RMK AO2 RAE04 P0000=
200512050051 METAR KATL 050051Z 01009KT 10SM -RA FEW006 SCT023 BKN042 14/13 A2997 RMK AO2 RAB48 SLP146 P0000 T01440128=
200512042351 METAR KATL 042351Z 01006KT 9SM SCT008 SCT075 15/13 A2995 RMK AO2 SLP139 60000 T01500133 10217 20150 51010=
200512042338 SPECI KATL 042338Z 03008KT 9SM SCT008 SCT047 SCT075 15/13 A2995 RMK AO2=
200512042338 SPECI KATL 042338Z 03008KT 9SM SCT008 SCT047 SCT075 15/13 A2995 RMK AO2=
200512042331 SPECI KATL 042331Z 03007KT 8SM BKN008 BKN047 15/13 A2994 RMK AO2=
200512042331 SPECI KATL 042331Z 03007KT 8SM BKN008 BKN047 15/13 A2994 RMK AO2=
200512042307 SPECI KATL 042307Z 34006KT 8SM FEW012 SCT024 BKN042 15/13 A2995 RMK AO2 CB DSPTD=
200512042307 SPECI KATL 042307Z 34006KT 8SM FEW012 SCT024 BKN042 15/13 A2995 RMK AO2 CB DSPTD=
200512042258 SPECI KATL 042258Z 33008KT 8SM FEW012CB BKN024 BKN070 16/14 A2995 RMK AO2 CB VC W-NW=
200512042258 SPECI KATL 042258Z 33008KT 8SM FEW012CB BKN024 BKN070 16/14 A2995 RMK AO2 CB VC W-NW=
200512042251 METAR KATL 042251Z 33009KT 8SM SCT024 BKN070 BKN095 16/14 A2994 RMK AO2 WSHFT 2203 TSB13E48RAB2153E47 SLP136 TS MOV E P0000 T01560139=
200512042222 SPECI KATL 042222Z 34013KT 7SM -TSRA FEW012CB BKN024 BKN090 17/16 A2994 RMK AO2 WSHFT 2203 TSB13RAB2153 OCNL LTGICCG TS SE MOV NE P0000=
200512042222 SPECI KATL 042222Z 34013KT 7SM -TSRA FEW012CB BKN024 BKN090 17/16 A2994 RMK AO2 WSHFT 2203 TSB13RAB2153 OCNL LTGICCG TS SE MOV NE P0000=
200512042215 SPECI KATL 042215Z 33013KT 7SM TS FEW014CB BKN026 OVC095 18/16 A2994 RMK AO2 TSB13RAB2153E03 OCNL LTGICCG TS VC SE MOV NE P0000=
200512042215 SPECI KATL 042215Z 33013KT 7SM TS FEW014CB BKN026 OVC095 18/16 A2994 RMK AO2 TSB13RAB2153E03 OCNL LTGICCG TS VC SE MOV NE P0000=
200512042151 METAR KATL 042151Z COR 25005KT 6SM HZ FEW044 BKN070 BKN085 19/16 A2993 RMK AO2 RAB29E50 SLP130 OCNL LTGCG DSNT N VCTS CB DSNT N MOV NE AND CB DSNT SW MOV NE P0000 T01940156=
200512042051 METAR KATL 042051Z VRB05KT 9SM FEW090 BKN150 BKN200 20/15 A2992 RMK AO2 SLP128 TCU DSNT SE MOV NE 60000 T02000150 56017=
200512041951 METAR KATL 041951Z 25006KT 9SM FEW037 BKN095 BKN150 BKN200 21/16 A2993 RMK AO2 SLP132 T02110156=
200512041851 METAR KATL 041851Z 23013G18KT 9SM FEW027 SCT036 BKN090 21/16 A2994 RMK AO2 RAE02 SLP136 VCSH P0000 T02110156=
200512041818 SPECI KATL 041818Z 23007KT 9SM FEW023 SCT029 BKN034 20/17 A2996 RMK AO2 RAE02 P0000=
200512041818 SPECI KATL 041818Z 23007KT 9SM FEW023 SCT029 BKN034 20/17 A2996 RMK AO2 RAE02 P0000=
200512041751 METAR KATL 041751Z 24007KT 4SM RA BR BKN017 BKN025 OVC029 19/17 A2997 RMK AO2 RAB44 SLP148 VCSH P0003 60026 T01890167 10200 20128 58010=
200512041651 METAR KATL 041651Z 24007KT 9SM BKN015 OVC022 19/16 A2999 RMK AO2 SLP156 BKINOVC E-SE AND S T01890161=
200512041616 SPECI KATL 041616Z 25008KT 9SM BKN011 BKN032 BKN150 19/16 A3001 RMK AO2=
200512041616 SPECI KATL 041616Z 25008KT 9SM BKN011 BKN032 BKN150 19/16 A3001 RMK AO2=
200512041551 METAR KATL 041551Z 20011KT 9SM FEW007 SCT032 BKN150 17/16 A3000 RMK AO2 SLP159 T01720156=
200512041451 METAR KATL 041451Z 20009KT 10SM FEW110 BKN150 14/14 A3000 RMK AO2 RAB1352E09 SLP161 TCU DSNT SE MOV E P0000 60023 T01440139 56002=
200512041351 METAR KATL 041351Z 21008KT 10SM BKN100 BKN150 BKN200 13/13 A3001 RMK AO2 RAE27 SLP162 P0001 T01330128=
200512041258 SPECI KATL 041258Z 21006KT 10SM -RA SCT060 OVC080 13/12 A2999 RMK AO2 P0000=
200512041258 SPECI KATL 041258Z 21006KT 10SM -RA SCT060 OVC080 13/12 A2999 RMK AO2 P0000=
200512041251 METAR KATL 041251Z 21007KT 8SM -RA FEW015 BKN023 OVC027 13/12 A3000 RMK AO2 SLP159 P0022 T01330122=
200512041151 METAR KATL 041151Z 30010KT 6SM -RA BR FEW015 BKN023 OVC027 13/11 A3001 RMK AO2 TSB27E46RAB24 SLP163 P0005 60005 70012 T01330111 10167 20078 53024=
200512041128 SPECI KATL 041128Z 35012G19KT 8SM -TSRA FEW015 BKN023CB OVC027 14/11 A3001 RMK AO2 TSB27RAB24 FRQ LTG CG TS N MOV S P0000=
200512041128 SPECI KATL 041128Z 35012G19KT 8SM -TSRA FEW015 BKN023CB OVC027 14/11 A3001 RMK AO2 TSB27RAB24 FRQ LTG CG TS N MOV S P0000=
200512041051 METAR KATL 041051Z 23011KT 8SM BKN023 OVC090 17/15 A2997 RMK AO2 SLP149 T01670150=
200512040951 METAR KATL 040951Z 23008KT 8SM BKN016 17/14 A2995 RMK AO2 SLP143 T01670144=
200512040927 SPECI KATL 040927Z 23008KT 10SM BKN016 17/14 A2995 RMK AO2=
200512040927 SPECI KATL 040927Z 23008KT 10SM BKN016 17/14 A2995 RMK AO2=
200512040851 METAR KATL 040851Z 21007KT 9SM OVC012 13/12 A2994 RMK AO2 SLP138 T01330117 55010=
200512040751 METAR KATL 040751Z 00000KT 10SM OVC012 09/06 A2993 RMK AO2 SLP140 T00890061=
200512040651 METAR KATL 040651Z 07003KT 10SM OVC012 08/06 A2995 RMK AO2 SLP145 T00830056=
200512040551 METAR KATL 040551Z 09004KT 10SM OVC012 08/04 A2997 RMK AO2 SLP152 T00780044 10078 20050 56016=
200512040451 METAR KATL 040451Z 10003KT 10SM OVC014 07/03 A2998 RMK AO2 SLP157 T00670033 400670000=
200512040438 SPECI KATL 040438Z 12005KT 10SM OVC014 06/03 A2998 RMK AO2=
200512040438 SPECI KATL 040438Z 12005KT 10SM OVC014 06/03 A2998 RMK AO2=
200512040351 METAR KATL 040351Z 12007KT 10SM OVC017 06/03 A2999 RMK AO2 SLP161 T00610028=
200512040251 METAR KATL 040251Z 12007KT 10SM OVC019 06/03 A3002 RMK AO2 SLP170 T00560028 58005=
200512040151 METAR KATL 040151Z 09007KT 10SM OVC021 06/03 A3003 RMK AO2 SLP174 T00560028=
200512040051 METAR KATL 040051Z 08009KT 9SM OVC025 05/03 A3003 RMK AO2 SLP176 T00500028=
200512032351 METAR KATL 032351Z 08008KT 8SM BKN029 OVC080 05/03 A3003 RMK AO2 SLP176 60004 T00500028 10061 20044 56001=
200512032251 METAR KATL 032251Z 08009KT 7SM SCT027 BKN055 BKN090 05/03 A3003 RMK AO2 SLP178 T00500033=
200512032233 SPECI KATL 032233Z 09008KT 7SM SCT025 BKN090 05/03 A3003 RMK AO2=
200512032233 SPECI KATL 032233Z 09008KT 7SM SCT025 BKN090 05/03 A3003 RMK AO2=
200512032151 METAR KATL 032151Z 08010KT 8SM OVC025 05/03 A3003 RMK AO2 SLP177 T00500033=
200512032051 METAR KATL 032051Z 08010KT 7SM OVC025 06/03 A3003 RMK AO2 RAB34E50 SLP177 P0002 60004 T00560028 55015=
200512031951 METAR KATL 031951Z 08009KT 9SM OVC023 06/02 A3003 RMK AO2 RAB04E35 SLP174 P0002 T00560022=
200512031930 SPECI KATL 031930Z 09009KT 5SM -RA OVC023 06/02 A3003 RMK AO2 RAB04 P0002=
200512031930 SPECI KATL 031930Z 09009KT 5SM -RA OVC023 06/02 A3003 RMK AO2 RAB04 P0002=
200512031924 SPECI KATL 031924Z 08009KT 1 1/2SM RA OVC023 06/01 A3004 RMK AO2 RAB04 P0002=
200512031924 SPECI KATL 031924Z 08009KT 1 1/2SM RA OVC023 06/01 A3004 RMK AO2 RAB04 P0002=
200512031851 METAR KATL 031851Z 10006KT 9SM OVC023 06/01 A3005 RMK AO2 SLP181 T00610006=
200512031751 METAR KATL 031751Z 09007KT 9SM OVC025 04/00 A3008 RMK AO2 RAB14E26 SLP192 P0000 60003 T00440000 10050 20011 58019=
200512031651 METAR KATL 031651Z 09007KT 8SM OVC025 04/M01 A3010 RMK AO2 RAB07E42 SLP200 P0003 T00391006=
200512031637 SPECI KATL 031637Z 10006KT 5SM -RA OVC027 04/M02 A3011 RMK AO2 RAB07 P0003=
200512031637 SPECI KATL 031637Z 10006KT 5SM -RA OVC027 04/M02 A3011 RMK AO2 RAB07 P0003=
200512031628 SPECI KATL 031628Z 12005KT 1 1/2SM RA OVC027 04/M03 A3012 RMK AO2 RAB07 SFC VIS 4 P0001=
200512031628 SPECI KATL 031628Z 12005KT 1 1/2SM RA OVC027 04/M03 A3012 RMK AO2 RAB07 SFC VIS 4 P0001=
200512031551 METAR KATL 031551Z 13006KT 8SM OVC029 04/M06 A3013 RMK AO2 SLP210 T00441061=
200512031530 SPECI KATL 031530Z 12005KT 8SM OVC029 04/M06 A3013 RMK AO2=
200512031530 SPECI KATL 031530Z 12005KT 8SM OVC029 04/M06 A3013 RMK AO2=
200512031451 METAR KATL 031451Z 12006KT 10SM OVC035 04/M07 A3014 RMK AO2 RAB1352E06 SLP211 P0000 60000 T00441072 51014=
200512031351 METAR KATL 031351Z 12005KT 7SM BKN033 03/M06 A3014 RMK AO2 SLP212 T00331061=
200512031251 METAR KATL 031251Z 00000KT 5SM HZ FEW035 BKN100 02/M06 A3011 RMK AO2 SLP204 T00221056=
200512031151 METAR KATL 031151Z 08005KT 10SM FEW095 SCT180 01/M06 A3009 RMK AO2 SLP197 T00111061 10022 20000 58012=
200512031051 METAR KATL 031051Z 13005KT 10SM FEW070 01/M05 A3010 RMK AO2 SLP198 T00061050=
200512030951 METAR KATL 030951Z 00000KT 10SM SCT250 01/M05 A3013 RMK AO2 SLP210 T00061050=
200512030851 METAR KATL 030851Z 00000KT 10SM SCT250 01/M05 A3013 RMK AO2 SLP209 T00061050 55000=
200512030751 METAR KATL 030751Z 00000KT 10SM SCT250 02/M07 A3012 RMK AO2 SLP204 T00171067=
200512030651 METAR KATL 030651Z 00000KT 10SM FEW250 01/M06 A3011 RMK AO2 SLP201 T00111061=
200512030551 METAR KATL 030551Z 00000KT 10SM FEW250 03/M08 A3013 RMK AO2 SLP208 T00281083 10056 20017 58006=
200512030451 METAR KATL 030451Z 00000KT 10SM CLR 03/M08 A3015 RMK AO2 SLP215 T00281078 401001011=
200512030351 METAR KATL 030351Z 00000KT 10SM CLR 03/M07 A3014 RMK AO2 SLP212 T00281067=
200512030251 METAR KATL 030251Z 30003KT 10SM FEW250 04/M09 A3015 RMK AO2 SLP216 T00441094 51005=
200512030151 METAR KATL 030151Z 29003KT 10SM FEW250 04/M08 A3014 RMK AO2 SLP215 T00391083=
200512030051 METAR KATL 030051Z 32005KT 10SM FEW250 04/M09 A3015 RMK AO2 SLP217 T00441094=
200512022351 METAR KATL 022351Z 30005KT 10SM FEW250 05/M09 A3013 RMK AO2 SLP211 T00501094 10100 20050 53002=
200512022251 METAR KATL 022251Z 29005KT 10SM FEW250 07/M10 A3013 RMK AO2 SLP208 T00721100=
200512022151 METAR KATL 022151Z 31006KT 10SM FEW250 08/M12 A3012 RMK AO2 SLP206 T00831117=
200512022051 METAR KATL 022051Z 26006KT 10SM FEW250 09/M10 A3012 RMK AO2 SLP207 T00941100 56010=
200512021951 METAR KATL 021951Z 31007KT 10SM FEW250 09/M11 A3013 RMK AO2 SLP208 T00941106=
200512021851 METAR KATL 021851Z 31009KT 10SM FEW250 09/M09 A3014 RMK AO2 SLP210 T00891089=
200512021751 METAR KATL 021751Z 34010KT 10SM FEW250 08/M08 A3016 RMK AO2 SLP216 T00781083 10078 21011 58017=
200512021651 METAR KATL 021651Z 32008KT 10SM FEW200 06/M08 A3019 RMK AO2 SLP231 T00561083=
200512021551 METAR KATL 021551Z 31009KT 10SM FEW200 04/M06 A3021 RMK AO2 SLP237 T00391061=
200512021451 METAR KATL 021451Z 31010KT 10SM FEW200 02/M06 A3021 RMK AO2 SLP236 T00221056 51017=
200512021351 METAR KATL 021351Z COR 33011KT 10SM FEW200 00/M06 A3019 RMK AO2 SLP232 T00001056=
200512021251 METAR KATL 021251Z 32009KT 10SM CLR M01/M05 A3017 RMK AO2 SLP225 T10111050=
200512021151 METAR KATL 021151Z 30010KT 10SM CLR M01/M05 A3016 RMK AO2 SLP220 T10111050 10028 21011 53023=
200512021051 METAR KATL 021051Z 29008KT 10SM CLR M01/M05 A3013 RMK AO2 SLP210 T10061050=
200512020951 METAR KATL 020951Z 28008KT 10SM CLR 00/M04 A3010 RMK AO2 SLP199 T00001044=
200512020851 METAR KATL 020851Z 28008KT 10SM CLR 00/M04 A3009 RMK AO2 SLP194 T00001044 51013=
200512020751 METAR KATL 020751Z 30010KT 10SM CLR 01/M04 A3008 RMK AO2 SLP189 T00111044=
200512020651 METAR KATL 020651Z 30011KT 10SM CLR 02/M04 A3006 RMK AO2 SLP183 T00171044=
200512020551 METAR KATL 020551Z 30014KT 10SM CLR 03/M04 A3005 RMK AO2 SLP178 T00281039 10067 20028 50009=
200512020451 METAR KATL 020451Z 30012KT 10SM CLR 04/M03 A3005 RMK AO2 SLP180 T00391033 401221006=
200512020351 METAR KATL 020351Z 30014KT 10SM CLR 05/M03 A3004 RMK AO2 SLP176 T00501028=
200512020251 METAR KATL 020251Z 30014G20KT 10SM CLR 05/M01 A3002 RMK AO2 SLP169 T00501006 53005=
200512020151 METAR KATL 020151Z 27012KT 10SM CLR 06/02 A3001 RMK AO2 SLP168 T00560017=
200512020051 METAR KATL 020051Z 26010KT 10SM CLR 06/02 A3001 RMK AO2 SLP168 T00610022=
200512012351 METAR KATL 012351Z 27011KT 10SM CLR 07/03 A3000 RMK AO2 SLP166 T00670028 10122 20067 53010=
200512012251 METAR KATL 012251Z 26009G18KT 10SM CLR 07/04 A2999 RMK AO2 SLP161 T00720039=
200512012220 SPECI KATL 012220Z 25012KT 10SM FEW020 SCT030 SCT050 08/04 A2997 RMK AO2=
200512012220 SPECI KATL 012220Z 25012KT 10SM FEW020 SCT030 SCT050 08/04 A2997 RMK AO2=
200512012151 METAR KATL 012151Z 26011G22KT 10SM BKN025 BKN040 BKN100 09/04 A2997 RMK AO2 PK WND 26026/2126 SLP154 T00890044=
200512012124 SPECI KATL 012124Z 27015G18KT 10SM OVC028 10/03 A2997 RMK AO2=
200512012124 SPECI KATL 012124Z 27015G18KT 10SM OVC028 10/03 A2997 RMK AO2=
200512012110 SPECI KATL 012110Z 27012G17KT 10SM OVC030 10/00 A2997 RMK AO2=
200512012110 SPECI KATL 012110Z 27012G17KT 10SM OVC030 10/00 A2997 RMK AO2=
200512012051 METAR KATL 012051Z 27012KT 10SM OVC030 10/M01 A2997 RMK AO2 SLP153 VIRGA OHD AND ALQDS T01001011 55007=
200512011951 METAR KATL 011951Z 26012G18KT 10SM BKN038 BKN070 OVC100 10/M03 A2996 RMK AO2 SLP151 VIRGA OHD AND ALQDS ACSL DSNT N-NE T01001033=
200512011851 METAR KATL 011851Z 26012KT 10SM BKN055 BKN075 OVC100 11/M05 A2997 RMK AO2 SLP154 VIRGA DSNT SW ACSL DSNT N-NE BINOVC DSNT S T01111050=
200512011751 METAR KATL 011751Z 25008KT 10SM FEW090 SCT100 BKN110 12/M07 A2999 RMK AO2 SLP159 VIRGA DSNT SW-NW T01171067 10122 21006 58018=
200512011651 METAR KATL 011651Z 28011KT 10SM BKN120 12/M04 A3003 RMK AO2 SLP172 T01171044=
200512011551 METAR KATL 011551Z 29008KT 10SM FEW090 09/M03 A3004 RMK AO2 SLP178 T00891028=
200512011451 METAR KATL 011451Z 29012KT 10SM CLR 06/M03 A3005 RMK AO2 SLP180 T00561033 53008=
200512011351 METAR KATL 011351Z 30006KT 10SM CLR 03/M04 A3003 RMK AO2 SLP174 T00281039=
200512011251 METAR KATL 011251Z 27005KT 10SM FEW150 00/M04 A3002 RMK AO2 SLP174 T00001044=
Fallo de consulta: el error es SELECT command denied to user 'users'@'localhost' for table 'tafs_2005'
