##########################################################
# Query made at 04/19/2024 22:51:41 UTC
# Time interval: from 07/01/2005 12:00  to 07/31/2005 12:59  UTC
##########################################################

##########################################################
# KATL, Atlanta, Hartsfield - Jackson Atlanta International Airport (United States)
# WMO index: 72219. WIGOS ID: 0-20000-0-72219
# Latitude 33-38-59N. Longitude 084-25-00W. Altitude 312 m.
##########################################################

200507311257 SPECI KATL 311257Z 08006KT 1SM BR BKN005 OVC010 22/21 A3016 RMK AO2 SFC VIS 3=
200507311257 SPECI KATL 311257Z 08006KT 1SM BR BKN005 OVC010 22/21 A3016 RMK AO2 SFC VIS 3=
200507311251 METAR KATL 311251Z 08007KT 2SM BR OVC003 22/21 A3016 RMK AO2 SFC VIS 4 SLP203 T02220211=
200507311213 SPECI KATL 311213Z 09007KT 2SM BR OVC003 22/21 A3016 RMK AO2 SFC VIS 4=
200507311213 SPECI KATL 311213Z 09007KT 2SM BR OVC003 22/21 A3016 RMK AO2 SFC VIS 4=
200507311158 SPECI KATL 311158Z 08008KT 2SM BR OVC005 22/21 A3015 RMK AO2 SFC VIS 4 CIG 003V008=
200507311158 SPECI KATL 311158Z 08008KT 2SM BR OVC005 22/21 A3015 RMK AO2 SFC VIS 4 CIG 003V008=
200507311151 METAR KATL 311151Z 09008KT 3SM BR OVC005 22/21 A3015 RMK AO2 SFC VIS 4 RAE13 SLP202 P0000 60000 70020 T02170211 10222 20217 53008=
200507311051 METAR KATL 311051Z 06007KT 7SM -RA BKN007 OVC011 22/21 A3015 RMK AO2 RAB27 SLP200 P0000 T02170211=
200507310951 METAR KATL 310951Z 08006KT 6SM BR BKN007 OVC013 22/21 A3013 RMK AO2 RAE0853 CIG 005V010 SLP194 P0000 T02170206=
200507310851 METAR KATL 310851Z 05005KT 8SM -RA SCT005 BKN013 22/21 A3013 RMK AO2 RAB30 SLP193 P0000 60000 T02170206 55001=
200507310836 SPECI KATL 310836Z 03005KT 8SM -RA SCT005 BKN013 22/21 A3013 RMK AO2 RAB30 P0000=
200507310836 SPECI KATL 310836Z 03005KT 8SM -RA SCT005 BKN013 22/21 A3013 RMK AO2 RAB30 P0000=
200507310751 METAR KATL 310751Z 06003KT 6SM BR SCT005 BKN120 OVC180 22/21 A3012 RMK AO2 SLP192 T02170206=
200507310651 METAR KATL 310651Z 05004KT 8SM FEW050 BKN120 22/21 A3012 RMK AO2 SLP191 T02170206=
200507310601 SPECI KATL 310601Z 08007KT 9SM SCT024 BKN036 22/21 A3013 RMK AO2=
200507310601 SPECI KATL 310601Z 08007KT 9SM SCT024 BKN036 22/21 A3013 RMK AO2=
200507310551 METAR KATL 310551Z 08007KT 10SM BKN022 OVC036 22/21 A3013 RMK AO2 SLP195 60007 T02170206 10244 20217 56008=
200507310516 SPECI KATL 310516Z 06007KT 7SM FEW005 SCT016 BKN029 22/21 A3013 RMK AO2=
200507310516 SPECI KATL 310516Z 06007KT 7SM FEW005 SCT016 BKN029 22/21 A3013 RMK AO2=
200507310451 METAR KATL 310451Z 08008KT 7SM FEW007 23/21 A3013 RMK AO2 RAE12 SLP195 P0001 T02280211 402560217=
200507310434 SPECI KATL 310434Z 07006KT 6SM BR FEW007 23/22 A3013 RMK AO2 RAE12 P0001=
200507310434 SPECI KATL 310434Z 07006KT 6SM BR FEW007 23/22 A3013 RMK AO2 RAE12 P0001=
200507310406 SPECI KATL 310406Z 08006KT 7SM -RA SCT010 SCT016 23/22 A3014 RMK AO2 P0001=
200507310406 SPECI KATL 310406Z 08006KT 7SM -RA SCT010 SCT016 23/22 A3014 RMK AO2 P0001=
200507310351 METAR KATL 310351Z 06007KT 5SM -RA BR BKN012 BKN018 OVC026 23/22 A3015 RMK AO2 SLP200 P0005 T02280217=
200507310320 SPECI KATL 310320Z 07006KT 6SM -RA BR FEW018 OVC026 23/22 A3015 RMK AO2 P0003=
200507310320 SPECI KATL 310320Z 07006KT 6SM -RA BR FEW018 OVC026 23/22 A3015 RMK AO2 P0003=
200507310251 METAR KATL 310251Z 00000KT 7SM -RA BKN044 BKN075 22/21 A3015 RMK AO2 SLP203 P0001 60001 T02220211 53006=
200507310204 SPECI KATL 310204Z 18005KT 9SM -RA SCT017 BKN023 OVC095 23/21 A3015 RMK AO2 P0000=
200507310204 SPECI KATL 310204Z 18005KT 9SM -RA SCT017 BKN023 OVC095 23/21 A3015 RMK AO2 P0000=
200507310151 METAR KATL 310151Z 15006KT 9SM -RA FEW019 BKN080 OVC100 24/21 A3015 RMK AO2 RAB35 SLP201 LTG DSNT S P0000 T02390211=
200507310051 METAR KATL 310051Z 04010KT 10SM SCT029 BKN070 BKN090 24/21 A3013 RMK AO2 RAB33E46 SLP193 P0000 T02390211=
200507310041 SPECI KATL 310041Z 05009KT 8SM -RA SCT029 SCT070 BKN095 24/21 A3013 RMK AO2 RAB33 P0000=
200507310041 SPECI KATL 310041Z 05009KT 8SM -RA SCT029 SCT070 BKN095 24/21 A3013 RMK AO2 RAB33 P0000=
200507302351 METAR KATL 302351Z 04007KT 9SM SCT017 BKN029 BKN050 24/21 A3014 RMK AO2 SLP196 60005 T02440211 10256 20228 53006=
200507302251 METAR KATL 302251Z 06006KT 10SM BKN017 BKN022 BKN150 25/21 A3013 RMK AO2 SLP194 T02500211=
200507302213 SPECI KATL 302213Z 03009KT 9SM BKN019 25/21 A3012 RMK AO2=
200507302213 SPECI KATL 302213Z 03009KT 9SM BKN019 25/21 A3012 RMK AO2=
200507302151 METAR KATL 302151Z 06009KT 10SM SCT017 25/21 A3011 RMK AO2 SLP189 T02500211=
200507302051 METAR KATL 302051Z 06007KT 10SM SCT013 BKN026 BKN120 24/21 A3012 RMK AO2 SLP190 60005 T02440211 58020=
200507302018 SPECI KATL 302018Z 05007KT 10SM SCT013 BKN018 OVC026 25/22 A3013 RMK AO2=
200507302018 SPECI KATL 302018Z 05007KT 10SM SCT013 BKN018 OVC026 25/22 A3013 RMK AO2=
200507301951 METAR KATL 301951Z 05009KT 7SM BKN011 BKN014 OVC040 24/22 A3014 RMK AO2 RAE04 SLP197 P0000 T02440217=
200507301851 METAR KATL 301851Z 06009KT 3SM -RA BR FEW008 BKN012 OVC040 23/22 A3017 RMK AO2 SFC VIS 5 SLP208 P0005 T02330217=
200507301839 SPECI KATL 301839Z 07010KT 2SM -RA BR SCT008 BKN011 OVC032 23/22 A3017 RMK AO2 SFC VIS 5 P0005=
200507301839 SPECI KATL 301839Z 07010KT 2SM -RA BR SCT008 BKN011 OVC032 23/22 A3017 RMK AO2 SFC VIS 5 P0005=
200507301751 METAR KATL 301751Z 08006KT 2SM RA BR BKN008 OVC014 23/22 A3018 RMK AO2 SFC VIS 4 CIG 006V010 SLP212 P0005 60008 T02280217 10228 20217 50000=
200507301743 SPECI KATL 301743Z 07008KT 2SM -RA BR BKN008 OVC014 23/21 A3018 RMK AO2 SFC VIS 4 CIG 006V011 P0003=
200507301743 SPECI KATL 301743Z 07008KT 2SM -RA BR BKN008 OVC014 23/21 A3018 RMK AO2 SFC VIS 4 CIG 006V011 P0003=
200507301732 SPECI KATL 301732Z 09007KT 2SM -RA BR SCT008 BKN013 OVC026 23/22 A3019 RMK AO2 SFC VIS 4 P0003=
200507301732 SPECI KATL 301732Z 09007KT 2SM -RA BR SCT008 BKN013 OVC026 23/22 A3019 RMK AO2 SFC VIS 4 P0003=
200507301719 SPECI KATL 301719Z 07008KT 2SM -RA BR SCT008 BKN017 OVC028 23/21 A3018 RMK AO2 SFC VIS 4 P0002=
200507301719 SPECI KATL 301719Z 07008KT 2SM -RA BR SCT008 BKN017 OVC028 23/21 A3018 RMK AO2 SFC VIS 4 P0002=
200507301651 METAR KATL 301651Z 07008KT 1 1/2SM -RA BR SCT008 BKN015 OVC028 23/21 A3019 RMK AO2 SFC VIS 2 RAB21 SLP214 P0002 T02280211=
200507301637 SPECI KATL 301637Z 07007KT 1 1/2SM -RA BR SCT010 OVC017 23/21 A3019 RMK AO2 SFC VIS 4 RAB21 P0000=
200507301637 SPECI KATL 301637Z 07007KT 1 1/2SM -RA BR SCT010 OVC017 23/21 A3019 RMK AO2 SFC VIS 4 RAB21 P0000=
200507301551 METAR KATL 301551Z 09007KT 3SM BKN010 OVC013 23/21 A3019 RMK AO2 SFC VIS 7 SLP215 T02280206=
200507301458 SPECI KATL 301458Z 08008KT 3SM BR BKN010 OVC013 23/21 A3018 RMK AO2 SFC VIS 6=
200507301458 SPECI KATL 301458Z 08008KT 3SM BR BKN010 OVC013 23/21 A3018 RMK AO2 SFC VIS 6=
200507301451 METAR KATL 301451Z 09007KT 3SM BR BKN008 OVC013 22/21 A3018 RMK AO2 SFC VIS 6 RAE1355 SLP212 P0000 60001 T02220211 51013=
200507301351 METAR KATL 301351Z 08007KT 3SM -RA BR OVC006 22/21 A3016 RMK AO2 SFC VIS 6 CIG 005V011 SLP207 P0000 T02220206=
200507301251 METAR KATL 301251Z 10007KT 3SM -RA BR OVC008 22/21 A3016 RMK AO2 SFC VIS 6 RAB38 CIG 005V010 SLP205 P0001 T02170206=
200507301151 METAR KATL 301151Z 06007KT 3SM OVC006 22/21 A3014 RMK AO2 SFC VIS 8 SLP197 70008 T02170206 10222 20217 53011=
200507301051 METAR KATL 301051Z 07008KT 8SM OVC008 22/21 A3012 RMK AO2 CIG 005V011 SLP189 T02170206=
200507300951 METAR KATL 300951Z 08009KT 8SM OVC006 22/21 A3011 RMK AO2 SLP188 T02170206=
200507300851 METAR KATL 300851Z 07010KT 9SM BKN006 OVC036 22/21 A3011 RMK AO2 SLP185 T02170206 55003=
200507300805 SPECI KATL 300805Z 08009KT 8SM OVC006 22/21 A3010 RMK AO2 CIG 004V008=
200507300805 SPECI KATL 300805Z 08009KT 8SM OVC006 22/21 A3010 RMK AO2 CIG 004V008=
200507300751 METAR KATL 300751Z 08009KT 7SM BKN004 OVC036 22/21 A3010 RMK AO2 SLP184 T02220211=
200507300651 METAR KATL 300651Z 06007KT 7SM BKN004 OVC036 22/21 A3011 RMK AO2 SLP187 T02220211=
200507300633 SPECI KATL 300633Z 07008KT 8SM BKN004 BKN038 OVC045 22/21 A3011 RMK AO2 CIG 004V009=
200507300633 SPECI KATL 300633Z 07008KT 8SM BKN004 BKN038 OVC045 22/21 A3011 RMK AO2 CIG 004V009=
200507300601 SPECI KATL 300601Z 09007KT 7SM FEW006 OVC036 22/21 A3011 RMK AO2=
200507300601 SPECI KATL 300601Z 09007KT 7SM FEW006 OVC036 22/21 A3011 RMK AO2=
200507300551 METAR KATL 300551Z 08009KT 7SM FEW014 OVC036 22/21 A3011 RMK AO2 RAE0456 SLP189 P0000 60007 T02220211 10244 20222 58004=
200507300537 SPECI KATL 300537Z 08008KT 8SM FEW007 SCT014 OVC034 23/21 A3012 RMK AO2 RAE0456 P0000=
200507300537 SPECI KATL 300537Z 08008KT 8SM FEW007 SCT014 OVC034 23/21 A3012 RMK AO2 RAE0456 P0000=
200507300521 SPECI KATL 300521Z 09008KT 8SM SCT014 OVC034 23/21 A3013 RMK AO2 RAE0456 P0000=
200507300521 SPECI KATL 300521Z 09008KT 8SM SCT014 OVC034 23/21 A3013 RMK AO2 RAE0456 P0000=
200507300451 METAR KATL 300451Z 09008KT 7SM -RA FEW008 BKN018 OVC040 23/22 A3013 RMK AO2 SLP195 PCPN VRY LGT P0000 T02280217 402830228=
200507300442 SPECI KATL 300442Z 09006KT 7SM -RA FEW008 BKN018 OVC040 23/22 A3014 RMK AO2 PCPN VRY LGT P0000=
200507300442 SPECI KATL 300442Z 09006KT 7SM -RA FEW008 BKN018 OVC040 23/22 A3014 RMK AO2 PCPN VRY LGT P0000=
200507300401 SPECI KATL 300401Z 12005KT 5SM -RA BR SCT006 BKN012 OVC040 23/22 A3013 RMK AO2 PCPN VRY LGT P0000=
200507300401 SPECI KATL 300401Z 12005KT 5SM -RA BR SCT006 BKN012 OVC040 23/22 A3013 RMK AO2 PCPN VRY LGT P0000=
200507300351 METAR KATL 300351Z 11004KT 5SM -RA BR SCT006 BKN025 OVC040 23/22 A3013 RMK AO2 RAE26B49 SLP195 PCPN VRY LGT P0000 T02330222=
200507300308 SPECI KATL 300308Z 11005KT 5SM -RA BR SCT006 BKN025 OVC040 23/22 A3013 RMK AO2 PCPN VRY LGT P0000=
200507300308 SPECI KATL 300308Z 11005KT 5SM -RA BR SCT006 BKN025 OVC040 23/22 A3013 RMK AO2 PCPN VRY LGT P0000=
200507300251 METAR KATL 300251Z 12004KT 5SM -RA BR BKN008 BKN020 OVC100 23/22 A3013 RMK AO2 RAE11B49 SLP193 PCPN VRY LGT P0000 60007 T02330222 53007=
200507300208 SPECI KATL 300208Z 09004KT 5SM -RA BR FEW008 SCT025 BKN100 OVC150 23/22 A3012 RMK AO2 P0000=
200507300208 SPECI KATL 300208Z 09004KT 5SM -RA BR FEW008 SCT025 BKN100 OVC150 23/22 A3012 RMK AO2 P0000=
200507300151 METAR KATL 300151Z 10006KT 2 1/2SM -RA BR FEW010 SCT025 BKN100 OVC150 23/22 A3011 RMK AO2 SFC VIS 5 SLP186 P0005 T02330222=
200507300124 SPECI KATL 300124Z 07008KT 2 1/2SM -RA BR BKN010 BKN025 OVC050 24/22 A3010 RMK AO2 SFC VIS 3 CIG 006V015 P0004=
200507300124 SPECI KATL 300124Z 07008KT 2 1/2SM -RA BR BKN010 BKN025 OVC050 24/22 A3010 RMK AO2 SFC VIS 3 CIG 006V015 P0004=
200507300051 METAR KATL 300051Z 07008KT 2 1/2SM -RA BR SCT012 BKN035 BKN120 OVC150 24/23 A3009 RMK AO2 SFC VIS 3 TSE26 SLP179 P0002 T02390228=
200507300026 SPECI KATL 300026Z 08008KT 2 1/2SM -RA BR FEW015 SCT035 BKN055 OVC140 24/22 A3010 RMK AO2 SFC VIS 4 TSE26 TS MOV SW P0001=
200507300026 SPECI KATL 300026Z 08008KT 2 1/2SM -RA BR FEW015 SCT035 BKN055 OVC140 24/22 A3010 RMK AO2 SFC VIS 4 TSE26 TS MOV SW P0001=
200507292351 METAR KATL 292351Z 07008KT 2 1/2SM -TSRA BR FEW015 SCT035CB BKN120 OVC150 24/22 A3010 RMK AO2 SFC VIS 4 TSB26RAB15 SLP185 FRQ LTGCGIC TS VC NW MOV SW P0001 60001 T02440222 10283 20244 53010=
200507292329 SPECI KATL 292329Z 08008KT 2 1/2SM -TSRA BR SCT015 BKN035CB BKN050 OVC140 24/22 A3010 RMK AO2 SFC VIS 3 TSB26RAB15 OCNL LTGCGIC TS VC NW-N MOV SW P0000=
200507292329 SPECI KATL 292329Z 08008KT 2 1/2SM -TSRA BR SCT015 BKN035CB BKN050 OVC140 24/22 A3010 RMK AO2 SFC VIS 3 TSB26RAB15 OCNL LTGCGIC TS VC NW-N MOV SW P0000=
200507292327 SPECI KATL 292327Z 08011KT 3SM -TSRA BR SCT015 BKN035CB BKN050 OVC140 24/22 A3010 RMK AO2 SFC VIS 4 TSB26RAB15 OCNL LTGCGIC TS VC=
200507292327 SPECI KATL 292327Z 08011KT 3SM -TSRA BR SCT015 BKN035CB BKN050 OVC140 24/22 A3010 RMK AO2 SFC VIS 4 TSB26RAB15 OCNL LTGCGIC TS VC NW-N MOV SW P0000=
200507292251 METAR KATL 292251Z 09011KT 3SM HZ FEW015 SCT035 BKN140 OVC200 26/22 A3008 RMK AO2 SFC VIS 4 SLP178 CB DSNT NE AND SW T02560222=
200507292207 SPECI KATL 292207Z 08010KT 5SM HZ SCT025 BKN032 BKN140 OVC200 26/22 A3008 RMK AO2 CB DSNT SW=
200507292207 SPECI KATL 292207Z 08010KT 5SM HZ SCT025 BKN032 BKN140 OVC200 26/22 A3008 RMK AO2 CB DSNT SW=
200507292151 METAR KATL 292151Z 08011KT 5SM HZ SCT020 BKN028 BKN150 OVC200 27/22 A3009 RMK AO2 SLP178 CB DSNT SW T02670222=
200507292051 METAR KATL 292051Z 06007KT 5SM HZ FEW020 SCT030 BKN150 OVC250 28/22 A3007 RMK AO2 SLP173 T02780222 56009=
200507292037 SPECI KATL 292037Z 06004KT 5SM HZ FEW020 BKN030 BKN150 BKN250 27/22 A3008 RMK AO2=
200507292037 SPECI KATL 292037Z 06004KT 5SM HZ FEW020 BKN030 BKN150 BKN250 27/22 A3008 RMK AO2=
200507291951 METAR KATL 291951Z 05009KT 5SM HZ BKN019 BKN150 BKN250 27/22 A3007 RMK AO2 SLP174 T02720222=
200507291906 SPECI KATL 291906Z 34010KT 4SM HZ FEW017 SCT023 SCT100 BKN250 27/22 A3008 RMK AO2=
200507291906 SPECI KATL 291906Z 34010KT 4SM HZ FEW017 SCT023 SCT100 BKN250 27/22 A3008 RMK AO2=
200507291851 METAR KATL 291851Z 01012KT 5SM HZ SCT017 BKN023 OVC033 27/22 A3009 RMK AO2 SLP178 T02670222=
200507291751 METAR KATL 291751Z 02009KT 4SM HZ OVC015 27/22 A3010 RMK AO2 SLP181 60000 T02670222 10267 20228 58005=
200507291651 METAR KATL 291651Z VRB03KT 5SM HZ OVC015 26/22 A3012 RMK AO2 SLP189 T02610222=
200507291551 METAR KATL 291551Z 07005KT 4SM HZ OVC012 26/22 A3012 RMK AO2 SLP187 T02560222=
200507291538 SPECI KATL 291538Z 10005KT 4SM HZ OVC012 25/22 A3012 RMK AO2=
200507291538 SPECI KATL 291538Z 10005KT 4SM HZ OVC012 25/22 A3012 RMK AO2=
200507291451 METAR KATL 291451Z 08006KT 4SM BR BKN009 OVC013 24/22 A3011 RMK AO2 RAB09E20 CIG 008V012 SLP188 P0000 60000 T02440222 51016=
200507291351 METAR KATL 291351Z 06007KT 4SM BR OVC007 24/22 A3010 RMK AO2 RAB1257E06 SLP184 P0000 T02390217=
200507291300 SPECI KATL 291300Z 08006KT 4SM -RA BR BKN007 BKN090 BKN150 OVC200 23/22 A3009 RMK AO2 RAB1257 P0000=
200507291300 SPECI KATL 291300Z 08006KT 4SM -RA BR BKN007 BKN090 BKN150 OVC200 23/22 A3009 RMK AO2 RAB1257 P0000=
200507291251 METAR KATL 291251Z 07006KT 4SM BR SCT007 BKN090 BKN150 OVC200 23/22 A3009 RMK AO2 RAB24E34 SLP178 P0000 T02330217=
200507291236 SPECI KATL 291236Z 06006KT 5SM BR SCT007 BKN090 BKN150 OVC200 23/22 A3008 RMK AO2 RAB24E34 P0000=
200507291236 SPECI KATL 291236Z 06006KT 5SM BR SCT007 BKN090 BKN150 OVC200 23/22 A3008 RMK AO2 RAB24E34 P0000=
200507291151 METAR KATL 291151Z 08007KT 4SM BR BKN150 OVC200 23/21 A3006 RMK AO2 SLP171 60000 T02280211 10256 20228 53007=
200507291051 METAR KATL 291051Z 09005KT 6SM BR FEW100 BKN150 OVC200 23/21 A3005 RMK AO2 SLP166 T02280211=
200507290951 METAR KATL 290951Z 07007KT 7SM BKN150 OVC200 23/21 A3005 RMK AO2 SLP165 T02330206=
200507290851 METAR KATL 290851Z 06007KT 7SM BKN150 OVC200 23/21 A3004 RMK AO2 RAB18E31 SLP163 P0000 60000 T02330206 50002=
200507290751 METAR KATL 290751Z 08006KT 7SM BKN150 OVC200 23/21 A3004 RMK AO2 SLP163 T02330211=
200507290651 METAR KATL 290651Z 07007KT 7SM FEW015 BKN150 OVC200 23/21 A3004 RMK AO2 SLP160 T02330211=
200507290619 SPECI KATL 290619Z 09009KT 6SM BR FEW008 SCT019 OVC150 24/22 A3004 RMK AO2=
200507290619 SPECI KATL 290619Z 09009KT 6SM BR FEW008 SCT019 OVC150 24/22 A3004 RMK AO2=
200507290611 SPECI KATL 290611Z 08010KT 5SM BR FEW008 BKN015 OVC150 24/22 A3004 RMK AO2=
200507290611 SPECI KATL 290611Z 08010KT 5SM BR FEW008 BKN015 OVC150 24/22 A3004 RMK AO2=
200507290551 METAR KATL 290551Z 06007KT 5SM HZ OVC015 26/23 A3003 RMK AO2 SLP158 T02560228 10272 20244 56009=
200507290536 SPECI KATL 290536Z 03005KT 5SM HZ BKN015 26/23 A3003 RMK AO2=
200507290536 SPECI KATL 290536Z 03005KT 5SM HZ BKN015 26/23 A3003 RMK AO2=
200507290451 METAR KATL 290451Z 00000KT 6SM BR FEW150 BKN250 24/22 A3004 RMK AO2 SLP160 T02440222 403220222=
200507290351 METAR KATL 290351Z 09003KT 7SM FEW150 BKN250 26/22 A3004 RMK AO2 SLP160 T02610217=
200507290251 METAR KATL 290251Z 31005KT 7SM SCT150 BKN250 26/23 A3006 RMK AO2 SLP168 T02560228 53016=
200507290151 METAR KATL 290151Z 30004KT 8SM BKN100 BKN250 26/22 A3005 RMK AO2 SLP164 T02610217=
200507290051 METAR KATL 290051Z 30005KT 9SM BKN140 BKN250 27/21 A3002 RMK AO2 SLP156 T02670211=
200507282351 METAR KATL 282351Z 23004KT 8SM FEW100 BKN140 OVC200 27/21 A3001 RMK AO2 SLP153 T02720211 10322 20261 53002=
200507282251 METAR KATL 282251Z 00000KT 8SM FEW100 BKN140 OVC200 27/21 A3000 RMK AO2 SLP149 T02670211=
200507282151 METAR KATL 282151Z 21007KT 7SM SCT035CB BKN055 OVC150 27/22 A3002 RMK AO2 TSE51 SLP155 TS MOV E T02670217=
200507282051 METAR KATL 282051Z 08011KT 6SM TS HZ SCT035CB BKN045 BKN150 BKN250 28/21 A3001 RMK AO2 TSB09 SLP151 CONS LTGICCG TS VC NE-SE MOV ENE CB DSNT N AND VC NE-SE AND DSNT S MOV ENE SHRA DSNT N AND VC NE-SE AND DSNT S T0=
200507282032 SPECI KATL 282032Z 36007KT 6SM TS HZ FEW045CB BKN060 BKN150 BKN250 29/21 A2999 RMK AO2 TSB09 CONS LTGICCG TS NE-E MOV ENE CB NE-E AND DSNT S MOV ENE TCU DSNT SE SHRA NE-E AND DSNT S=
200507282032 SPECI KATL 282032Z 36007KT 6SM TS HZ FEW045CB BKN060 BKN150 BKN250 29/21 A2999 RMK AO2 TSB09 CONS LTGICCG TS NE-E MOV ENE CB NE-E AND DSNT S MOV ENE TCU DSNT SE SHRA NE-E AND DSNT S=
200507282009 SPECI KATL 282009Z 22005KT 5SM TS HZ FEW045CB BKN055TCU BKN080 BKN250 31/22 A2998 RMK AO2 TSB09 FRQ LTGICCG TS NE MOV ENE CB NE MOV ENE TCU OHD AND ALQDS=
200507282009 SPECI KATL 282009Z 22005KT 5SM TS HZ FEW045CB BKN055TCU BKN080 BKN250 31/22 A2998 RMK AO2 TSB09 FRQ LTGICCG TS NE MOV ENE CB NE MOV ENE TCU OHD AND ALQDS=
200507281951 METAR KATL 281951Z 19006KT 4SM HZ BKN045TCU BKN150 BKN250 31/22 A2999 RMK AO2 SLP143 CB DSNT E AND W-NW TCU OHD AND ALQDS T03110217=
200507281851 METAR KATL 281851Z 21006KT 6SM HZ SCT043TCU SCT150 SCT250 32/22 A3000 RMK AO2 SLP148 TCU VC N-SE AND VC SW AND NW CB DSNT SE AND DSNT SW-NW T03170217=
200507281751 METAR KATL 281751Z 18006KT 6SM HZ FEW025TCU SCT150 BKN250 31/21 A3003 RMK AO2 SLP159 TCU OHD-N-SE T03060211 10311 20233 58002=
200507281651 METAR KATL 281651Z 23005KT 5SM HZ FEW030 SCT250 31/23 A3004 RMK AO2 SLP162 T03060228=
200507281551 METAR KATL 281551Z VRB03KT 6SM HZ FEW150 SCT250 SCT300 29/22 A3004 RMK AO2 SLP162 T02890222=
200507281451 METAR KATL 281451Z 26003KT 6SM HZ BKN250 BKN300 28/22 A3004 RMK AO2 SLP161 T02780222 50007 $=
200507281351 METAR KATL 281351Z 00000KT 8SM FEW150 SCT250 BKN300 26/22 A3004 RMK AO2 SLP162 T02610217=
200507281251 METAR KATL 281251Z 30004KT 7SM FEW250 24/21 A3003 RMK AO2 SLP159 T02440211=
200507281151 METAR KATL 281151Z 32006KT 6SM BR FEW210 SCT250 23/21 A3002 RMK AO2 SLP156 70001 T02330211 10239 20222 52018=
200507281051 METAR KATL 281051Z 31006KT 4SM BR FEW210 SCT250 23/21 A3000 RMK AO2 SLP149 T02280211=
200507280951 METAR KATL 280951Z 27004KT 5SM BR SCT250 23/21 A2998 RMK AO2 SLP139 T02280211=
200507280851 METAR KATL 280851Z 32003KT 6SM BR SCT250 23/21 A2996 RMK AO2 SLP134 T02330211 56006=
200507280751 METAR KATL 280751Z 27004KT 7SM BKN250 23/21 A2996 RMK AO2 SLP134 T02330211=
200507280651 METAR KATL 280651Z 00000KT 7SM BKN250 24/21 A2997 RMK AO2 SLP137 T02390211=
200507280551 METAR KATL 280551Z 30005KT 7SM BKN250 24/21 A2998 RMK AO2 SLP140 60000 T02390211 10267 20233 55008=
200507280451 METAR KATL 280451Z 00000KT 10SM BKN250 24/21 A2998 RMK AO2 SLP140 T02440206 403330239=
200507280351 METAR KATL 280351Z 01011KT 8SM FEW150 BKN250 26/21 A3000 RMK AO2 SLP145 T02560211=
200507280251 METAR KATL 280251Z 29010KT 7SM BKN050 BKN150 OVC200 26/22 A3001 RMK AO2 SLP149 LTG DSNT N-NE AND NW CB DSNT N-NE AND NW 60000 T02560217 53015=
200507280151 METAR KATL 280151Z 30007KT 7SM FEW100 SCT150 OVC200 26/22 A2998 RMK AO2 SLP141 LTG DSNT NW CB DSNT NW T02560217=
200507280051 METAR KATL 280051Z 23003KT 6SM HZ FEW100 BKN140 OVC200 25/22 A2996 RMK AO2 TSE07RAE07 SLP136 P0000 T02500217=
200507280008 SPECI KATL 280008Z 18005KT 7SM SCT100 BKN140 OVC200 24/22 A2997 RMK AO2 TSE07RAE07 TS DSIPTD P0000=
200507280008 SPECI KATL 280008Z 18005KT 7SM SCT100 BKN140 OVC200 24/22 A2997 RMK AO2 TSE07RAE07 TS DSIPTD P0000=
200507272351 METAR KATL 272351Z 07005KT 5SM -TSRA FEW040CB SCT080 BKN100 OVC150 25/22 A2996 RMK AO2 SLP135 FRQ LTGCGIC TS N-E MOV NE P0001 60001 T02500217 10333 20239 53009=
200507272251 METAR KATL 272251Z VRB04KT 5SM -TSRA BKN045CB BKN070 OVC200 29/22 A2994 RMK AO2 TSB28RAB28 SLP127 VIS NE-SE-S 2 FRQ LTGCG TS NE-SE-SW MOV STNRY P0000 T02940222=
200507272229 SPECI KATL 272229Z 26007KT 5SM -TSRA SCT045CB BKN070 OVC200 31/23 A2994 RMK AO2 TSB28RAB28 OCNL LTGCG TS NE MOV NE P0000=
200507272229 SPECI KATL 272229Z 26007KT 5SM -TSRA SCT045CB BKN070 OVC200 31/23 A2994 RMK AO2 TSB28RAB28 OCNL LTGCG TS NE MOV NE P0000=
200507272151 METAR KATL 272151Z 29009KT 5SM HZ SCT050TCU BKN070 33/22 A2994 RMK AO2 SLP124 TCU N-OHD-SE AND NW CB DSNT SW T03280222=
200507272051 METAR KATL 272051Z 26005KT 4SM HZ FEW045CB 33/22 A2993 RMK AO2 SLP123 CB NE MOV STNRY SHRA NE T03280222 56021=
200507271951 METAR KATL 271951Z 25008KT 4SM HZ FEW045 33/22 A2994 RMK AO2 SLP127 MDT CU E AND SW T03280217=
200507271851 METAR KATL 271851Z 28007KT 250V340 4SM HZ FEW040TCU 33/23 A2998 RMK AO2 SLP138 TCU E-S T03280228=
200507271751 METAR KATL 271751Z COR 30008KT 4SM HZ FEW040TCU 32/23 A3000 RMK AO2 SLP144 TCU S T03220233 10328 20261 58008 $=
200507271651 METAR KATL 271651Z VRB05KT 3SM HZ FEW035TCU 32/24 A3001 RMK AO2 SLP148 TCU S-SW T03220239=
200507271551 METAR KATL 271551Z 30008KT 3SM HZ FEW030 31/23 A3002 RMK AO2 SLP152 MDT CU N-SE T03110233=
200507271451 METAR KATL 271451Z 28005KT 3SM HZ FEW250 31/24 A3002 RMK AO2 SLP153 T03060244 51005=
200507271351 METAR KATL 271351Z 31007KT 3SM HZ SCT250 29/24 A3002 RMK AO2 SFC VIS 4 SLP152 T02940239=
200507271310 SPECI KATL 271310Z 29006KT 3SM HZ CLR 28/24 A3002 RMK AO2=
200507271310 SPECI KATL 271310Z 29006KT 3SM HZ CLR 28/24 A3002 RMK AO2=
200507271251 METAR KATL 271251Z 29005KT 1 1/2SM HZ CLR 28/24 A3002 RMK AO2 SFC VIS 2 SLP152 T02780239=
200507271151 METAR KATL 271151Z 00000KT 1 1/2SM HZ CLR 26/23 A3001 RMK AO2 SFC VIS 2 SLP148 T02610233 10272 20250 53004=
200507271051 METAR KATL 271051Z 31005KT 1 1/2SM BR CLR 26/23 A3000 RMK AO2 SFC VIS 2 SLP145 T02560233=
200507270951 METAR KATL 270951Z 32006KT 6SM HZ CLR 26/23 A3000 RMK AO2 SLP144 T02610233=
200507270851 METAR KATL 270851Z 31007KT 6SM BR CLR 26/24 A2999 RMK AO2 SLP143 T02610239 53002=
200507270751 METAR KATL 270751Z 29004KT 6SM BR CLR 26/24 A2998 RMK AO2 SLP140 T02610239=
200507270651 METAR KATL 270651Z 29004KT 6SM HZ CLR 27/24 A2999 RMK AO2 SLP141 T02670239=
200507270551 METAR KATL 270551Z 30004KT 6SM HZ CLR 27/24 A2999 RMK AO2 SLP142 T02670239 10317 20267 58002=
200507270451 METAR KATL 270451Z 27003KT 7SM CLR 28/24 A3000 RMK AO2 SLP144 T02780239 403440250=
200507270351 METAR KATL 270351Z 24004KT 8SM CLR 28/24 A2999 RMK AO2 SLP142 T02830239=
200507270251 METAR KATL 270251Z 26005KT 8SM CLR 28/23 A3000 RMK AO2 SLP144 T02830233 53006=
200507270151 METAR KATL 270151Z 25004KT 6SM HZ CLR 29/23 A2999 RMK AO2 SLP143 T02940228=
200507270051 METAR KATL 270051Z 24003KT 5SM HZ CLR 31/23 A2998 RMK AO2 SLP139 T03060228=
200507262351 METAR KATL 262351Z 26007KT 7SM FEW040 32/22 A2998 RMK AO2 SLP138 T03170222 10344 20311 55003=
200507262251 METAR KATL 262251Z 27007KT 6SM HZ FEW050 33/23 A2998 RMK AO2 SLP138 T03280228=
200507262151 METAR KATL 262151Z 26006KT 6SM HZ FEW050 33/22 A2998 RMK AO2 SLP138 T03330222=
200507262051 METAR KATL 262051Z 33005KT 5SM HZ FEW050 34/22 A2999 RMK AO2 SLP141 T03390217 57014=
200507261951 METAR KATL 261951Z 29007KT 6SM HZ FEW045 34/22 A3000 RMK AO2 SLP145 T03390217 $=
200507261851 METAR KATL 261851Z VRB04KT 8SM FEW050 34/22 A3002 RMK AO2 SLP151 T03440217=
200507261751 METAR KATL 261751Z 29008KT 8SM FEW040 33/22 A3003 RMK AO2 SLP155 T03330222 10333 20261 58005=
200507261651 METAR KATL 261651Z VRB04KT 7SM FEW040 SCT250 33/23 A3004 RMK AO2 SLP158 T03280233=
200507261551 METAR KATL 261551Z VRB05KT 6SM HZ FEW250 32/24 A3005 RMK AO2 SLP161 T03170239=
200507261451 METAR KATL 261451Z 32005KT 6SM HZ FEW250 31/23 A3004 RMK AO2 SLP160 T03110233 58000=
200507261351 METAR KATL 261351Z 32005KT 5SM HZ CLR 29/24 A3005 RMK AO2 SLP162 T02890239=
200507261251 METAR KATL 261251Z 29005KT 6SM HZ CLR 27/23 A3004 RMK AO2 SLP162 T02720233=
200507261151 METAR KATL 261151Z 34006KT 6SM HZ CLR 27/23 A3004 RMK AO2 SLP162 T02670228 10272 20250 53008=
200507261051 METAR KATL 261051Z 33006KT 6SM HZ CLR 26/23 A3003 RMK AO2 SLP157 T02560228=
200507260951 METAR KATL 260951Z 32007KT 5SM HZ CLR 26/23 A3002 RMK AO2 SLP153 T02610228=
200507260851 METAR KATL 260851Z 32005KT 6SM BR CLR 26/23 A3002 RMK AO2 SLP152 T02560233 55004=
200507260751 METAR KATL 260751Z 29005KT 6SM HZ CLR 26/23 A3001 RMK AO2 SLP149 T02610228=
200507260651 METAR KATL 260651Z 28004KT 5SM HZ CLR 26/23 A3001 RMK AO2 SLP148 T02610233=
200507260551 METAR KATL 260551Z 26004KT 4SM HZ CLR 27/23 A3003 RMK AO2 SLP156 T02720233 10311 20272 58008=
200507260451 METAR KATL 260451Z 28004KT 6SM HZ CLR 28/23 A3005 RMK AO2 SLP161 T02780233 403330239=
200507260351 METAR KATL 260351Z 26003KT 6SM HZ FEW050 28/23 A3006 RMK AO2 SLP165 T02830233=
200507260251 METAR KATL 260251Z 26005KT 7SM BKN050 BKN065 29/23 A3006 RMK AO2 SLP164 T02890233 53013=
200507260151 METAR KATL 260151Z 00000KT 8SM BKN045 BKN065 30/23 A3004 RMK AO2 SLP159 T03000233=
200507260051 METAR KATL 260051Z 27007KT 7SM SCT045TCU BKN070 BKN250 30/23 A3003 RMK AO2 SLP157 TCU OHD-E T03000233=
200507252351 METAR KATL 252351Z 26007KT 7SM SCT045TCU BKN060 31/23 A3002 RMK AO2 SLP152 TCU OHD-E T03110233 10333 20311 55005=
200507252251 METAR KATL 252251Z 21006KT 7SM SCT050 BKN075 32/22 A3001 RMK AO2 SLP151 MDT CU N-OHD-S T03220222 $=
200507252151 METAR KATL 252151Z 24006KT 7SM BKN050 BKN070 32/23 A3002 RMK AO2 SLP154 MDT CU N AND OHD-SW T03220228=
200507252051 METAR KATL 252051Z 28006KT 7SM BKN050 33/23 A3003 RMK AO2 SLP158 MDT CU OHD T03280228 56014=
200507251951 METAR KATL 251951Z 26006KT 6SM HZ SCT050 33/22 A3005 RMK AO2 SLP162 T03280222=
200507251851 METAR KATL 251851Z VRB05KT 6SM HZ FEW050 33/22 A3006 RMK AO2 SLP166 T03330222=
200507251751 METAR KATL 251751Z VRB03KT 7SM FEW045 32/21 A3007 RMK AO2 SLP171 T03220211 10328 20256 56011=
200507251651 METAR KATL 251651Z VRB04KT 7SM FEW040 SCT250 32/21 A3008 RMK AO2 SLP172 T03170211=
200507251551 METAR KATL 251551Z 00000KT 7SM FEW040 SCT250 31/22 A3010 RMK AO2 SLP178 T03110217=
200507251451 METAR KATL 251451Z 32006KT 7SM FEW250 31/22 A3011 RMK AO2 SLP182 T03060222 50005=
200507251351 METAR KATL 251351Z 33006KT 6SM HZ FEW230 29/22 A3011 RMK AO2 SLP183 T02890222=
200507251251 METAR KATL 251251Z 30003KT 5SM HZ FEW230 28/22 A3010 RMK AO2 SLP182 T02780222=
200507251151 METAR KATL 251151Z 32003KT 3SM HZ FEW180 SCT230 26/22 A3009 RMK AO2 SLP178 T02560222 10267 20239 53005=
200507251051 METAR KATL 251051Z 32003KT 3SM BR FEW180 SCT230 24/22 A3009 RMK AO2 SLP176 T02440222 $=
200507250951 METAR KATL 250951Z 32004KT 4SM BR FEW180 24/23 A3008 RMK AO2 SLP173 T02440228 $=
200507250851 METAR KATL 250851Z 00000KT 4SM BR SCT180 24/23 A3008 RMK AO2 SLP172 T02440228 56005 $=
200507250751 METAR KATL 250751Z 30005KT 4SM BR BKN180 24/23 A3007 RMK AO2 SLP172 T02440228 $=
200507250651 METAR KATL 250651Z 00000KT 6SM HZ SCT180 26/23 A3008 RMK AO2 SLP174 T02610228 $=
200507250551 METAR KATL 250551Z 00000KT 6SM HZ SCT180 27/22 A3009 RMK AO2 SLP176 T02670222 10306 20261 50003 $=
200507250451 METAR KATL 250451Z 00000KT 6SM HZ BKN180 27/22 A3010 RMK AO2 SLP179 T02720217 403220239 $=
200507250351 METAR KATL 250351Z 00000KT 6SM HZ OVC180 28/22 A3009 RMK AO2 SLP178 T02780222 $=
200507250251 METAR KATL 250251Z 00000KT 6SM HZ OVC150 28/21 A3008 RMK AO2 SLP174 T02830211 51005 $=
200507250151 METAR KATL 250151Z 33007KT 7SM OVC150 29/21 A3008 RMK AO2 SLP173 T02940206 $=
200507250051 METAR KATL 250051Z 34005KT 5SM HZ OVC150 30/20 A3007 RMK AO2 SLP170 T03000200 $=
200507242351 METAR KATL 242351Z 32007KT 5SM HZ FEW085 OVC150 31/20 A3006 RMK AO2 SLP168 T03060200 10322 20306 56010 $=
200507242251 METAR KATL 242251Z 33007KT 5SM HZ FEW085 OVC150 31/20 A3006 RMK AO2 SLP168 T03110200 $=
200507242151 METAR KATL 242151Z 31006KT 6SM HZ FEW085 OVC130 31/20 A3008 RMK AO2 SLP172 T03110200 $=
200507242051 METAR KATL 242051Z 30008KT 6SM HZ SCT085 OVC130 32/21 A3009 RMK AO2 SLP179 T03170206 58012 $=
200507241951 METAR KATL 241951Z 30006KT 7SM SCT046TCU BKN060 BKN300 32/21 A3011 RMK AO2 SLP185 TCU OHD-N T03170211 $=
200507241851 METAR KATL 241851Z VRB05KT 7SM SCT050 BKN300 32/22 A3012 RMK AO2 SLP189 T03220217 $=
200507241751 METAR KATL 241751Z VRB05KT 7SM FEW048 SCT300 32/22 A3013 RMK AO2 SLP191 T03170217 10317 20244 58004 $=
200507241651 METAR KATL 241651Z 36005KT 7SM SCT040 31/21 A3014 RMK AO2 SLP195 T03110211 $=
200507241551 METAR KATL 241551Z 19005KT 6SM HZ FEW038 BKN055 BKN300 29/21 A3015 RMK AO2 SLP198 T02940211 $=
200507241451 METAR KATL 241451Z 13003KT 6SM HZ FEW038 SCT300 29/22 A3014 RMK AO2 SLP196 T02890217 50005 $=
200507241351 METAR KATL 241351Z 05004KT 6SM HZ FEW032 SCT250 28/21 A3014 RMK AO2 SLP196 T02830211 $=
200507241251 METAR KATL 241251Z 09004KT 5SM HZ FEW022 SCT250 27/22 A3014 RMK AO2 SLP193 T02670217 $=
200507241151 METAR KATL 241151Z 07006KT 9SM FEW120 SCT180 BKN250 25/21 A3013 RMK AO2 SLP190 T02500211 10272 20239 53017 $=
200507241051 METAR KATL 241051Z 00000KT 6SM BR FEW120 SCT200 24/22 A3011 RMK AO2 SLP184 T02390217 $=
200507240951 METAR KATL 240951Z 01003KT 8SM FEW200 25/22 A3009 RMK AO2 SLP176 T02500217 $=
200507240851 METAR KATL 240851Z 00000KT 6SM BR SCT200 24/22 A3007 RMK AO2 SLP172 T02440222 56007 $=
200507240751 METAR KATL 240751Z 00000KT 8SM CLR 25/22 A3008 RMK AO2 SLP174 T02500217 $=
200507240651 METAR KATL 240651Z 00000KT 9SM FEW200 25/22 A3009 RMK AO2 SLP177 T02500217 $=
200507240551 METAR KATL 240551Z 00000KT 10SM SCT200 27/21 A3010 RMK AO2 SLP179 T02670211 10317 20267 50002 $=
200507240451 METAR KATL 240451Z 00000KT 10SM SCT200 27/21 A3010 RMK AO2 SLP180 T02670211 403280233 $=
200507240351 METAR KATL 240351Z 06005KT 10SM SCT200 28/20 A3009 RMK AO2 SLP178 T02830200 $=
200507240251 METAR KATL 240251Z 08004KT 10SM BKN200 29/21 A3009 RMK AO2 SLP177 T02890206 53010 $=
200507240151 METAR KATL 240151Z 10004KT 10SM BKN200 29/21 A3007 RMK AO2 SLP171 T02890211 $=
200507240051 METAR KATL 240051Z 04010KT 10SM FEW080 BKN250 31/21 A3006 RMK AO2 SLP167 T03060206 $=
200507232351 METAR KATL 232351Z 01006KT 10SM FEW050 BKN250 32/20 A3006 RMK AO2 SLP167 T03170200 10328 20306 55000 $=
200507232251 METAR KATL 232251Z 31006KT 10SM SCT050 32/21 A3005 RMK AO2 SLP164 T03170206 $=
200507232151 METAR KATL 232151Z 00000KT 10SM SCT055 32/20 A3005 RMK AO2 SLP164 T03220200 $=
200507232051 METAR KATL 232051Z VRB05KT 10SM SCT055 33/21 A3006 RMK AO2 SLP167 T03280206 56007 $=
200507231951 METAR KATL 231951Z 08006KT 10SM FEW060 SCT250 32/21 A3006 RMK AO2 SLP168 T03170206 $=
200507231851 METAR KATL 231851Z 06006KT 10SM SCT050 SCT200 SCT300 32/21 A3007 RMK AO2 SLP171 T03170211=
200507231751 METAR KATL 231751Z 06008KT 10SM FEW046 SCT200 SCT300 31/21 A3008 RMK AO2 SLP175 T03060206 10317 20239 58006=
200507231651 METAR KATL 231651Z 36005KT 10SM FEW040 SCT200 BKN300 31/19 A3009 RMK AO2 SLP177 T03110194=
200507231551 METAR KATL 231551Z 01005KT 10SM FEW040 SCT200 SCT300 29/20 A3010 RMK AO2 SLP182 T02940200=
200507231451 METAR KATL 231451Z 01008KT 10SM FEW200 SCT300 29/22 A3010 RMK AO2 SLP181 T02890217 51010=
200507231351 METAR KATL 231351Z 32007KT 10SM SCT200 BKN250 26/22 A3010 RMK AO2 SLP182 T02610217=
200507231251 METAR KATL 231251Z 32006KT 10SM SCT200 BKN250 26/22 A3008 RMK AO2 SLP177 T02560217=
200507231151 METAR KATL 231151Z 32009KT 10SM FEW200 SCT250 24/22 A3007 RMK AO2 SLP172 T02390217 10250 20233 53013=
200507231051 METAR KATL 231051Z 32009KT 10SM FEW200 SCT250 23/21 A3005 RMK AO2 SLP166 T02330211=
200507230951 METAR KATL 230951Z 33006KT 10SM CLR 23/21 A3004 RMK AO2 SLP161 T02330211=
200507230851 METAR KATL 230851Z 32006KT 10SM CLR 24/21 A3003 RMK AO2 SLP158 T02390211 56003=
200507230751 METAR KATL 230751Z 31006KT 10SM SCT200 24/21 A3004 RMK AO2 SLP159 T02440211=
200507230651 METAR KATL 230651Z 30006KT 10SM SCT200 24/21 A3004 RMK AO2 SLP159 T02440206=
200507230551 METAR KATL 230551Z 31007KT 10SM SCT200 26/21 A3004 RMK AO2 SLP161 T02560206 10306 20250 58002=
200507230451 METAR KATL 230451Z 30008KT 10SM SCT200 BKN250 26/21 A3005 RMK AO2 SLP163 T02560206 403280222=
200507230351 METAR KATL 230351Z 31007KT 10SM BKN250 26/21 A3004 RMK AO2 SLP161 T02610211=
200507230251 METAR KATL 230251Z 33008KT 10SM BKN250 28/21 A3005 RMK AO2 SLP163 T02780206 52010=
200507230151 METAR KATL 230151Z 31006KT 10SM BKN250 28/21 A3004 RMK AO2 SLP161 T02780206=
200507230051 METAR KATL 230051Z 31008KT 10SM SCT200 BKN250 29/20 A3002 RMK AO2 SLP156 T02890200=
200507222351 METAR KATL 222351Z 31011KT 10SM SCT200 BKN250 31/19 A3002 RMK AO2 SLP153 CB DSNT SE T03060194 10328 20306 55003=
200507222251 METAR KATL 222251Z 32013KT 10SM FEW045 BKN200 31/20 A3001 RMK AO2 SLP153 CB DSNT SE AND SW T03110200=
200507222151 METAR KATL 222151Z 31013KT 10SM FEW045TCU SCT250 32/21 A3001 RMK AO2 SLP151 TCU VC SE AND S CB DSNT E-SE AND SW T03170211=
200507222051 METAR KATL 222051Z 29013KT 10SM FEW045 32/21 A3002 RMK AO2 SLP156 CB DSNT NE-E AND SW MDT CU VC SE-SW T03220211 58009=
200507221951 METAR KATL 221951Z 30010KT 9SM FEW040 SCT150 SCT250 32/24 A3003 RMK AO2 SLP158 CB DSNT SW T03220239=
200507221851 METAR KATL 221851Z 27008KT 10SM FEW035TCU SCT150 32/23 A3005 RMK AO2 SLP164 TCU S T03170233=
200507221751 METAR KATL 221751Z 32006KT 10SM FEW035 SCT100 SCT250 32/23 A3005 RMK AO2 SLP165 T03170228 10317 20228 58014=
200507221651 METAR KATL 221651Z 34009KT 9SM FEW030TCU SCT150 SCT180 BKN250 31/23 A3008 RMK AO2 SLP176 TCU N-NE AND S T03110233=
200507221551 METAR KATL 221551Z 34008KT 9SM FEW025 SCT150 SCT180 BKN250 30/23 A3009 RMK AO2 SLP179 T03000233=
200507221451 METAR KATL 221451Z 33009KT 10SM FEW020 SCT150 SCT200 BKN250 28/23 A3010 RMK AO2 SLP181 T02780233 51008=
200507221351 METAR KATL 221351Z 31009KT 9SM FEW200 BKN250 26/23 A3009 RMK AO2 SLP180 T02610228=
200507221251 METAR KATL 221251Z 31010KT 8SM SCT180 BKN200 24/22 A3008 RMK AO2 SLP177 T02390217=
200507221151 METAR KATL 221151Z 26004KT 8SM BKN200 BKN250 23/21 A3007 RMK AO2 SLP174 70007 T02280211 10233 20222 53006=
200507221051 METAR KATL 221051Z 26005KT 8SM BKN200 BKN250 22/21 A3006 RMK AO2 SLP171 T02220211 $=
200507220951 METAR KATL 220951Z 28006KT 9SM BKN200 23/21 A3005 RMK AO2 SLP167 T02280211 $=
200507220851 METAR KATL 220851Z 28005KT 9SM BKN200 22/21 A3005 RMK AO2 SLP168 T02220211 55006 $=
200507220751 METAR KATL 220751Z 30006KT 8SM FEW200 23/21 A3005 RMK AO2 SLP166 T02280211 $=
200507220651 METAR KATL 220651Z 30004KT 9SM FEW200 23/21 A3005 RMK AO2 SLP164 T02280211 $=
200507220551 METAR KATL 220551Z 24004KT 8SM SCT200 23/22 A3007 RMK AO2 SLP171 60000 T02330217 10250 20233 58009 $=
200507220451 METAR KATL 220451Z 26004KT 10SM FEW200 BKN250 23/22 A3009 RMK AO2 SLP177 T02330222 403220222 $=
200507220351 METAR KATL 220351Z 24003KT 10SM FEW150 SCT200 BKN250 24/23 A3009 RMK AO2 SLP179 T02440228 $=
200507220251 METAR KATL 220251Z 27004KT 8SM FEW150 BKN200 OVC250 24/22 A3010 RMK AO2 SLP182 60000 T02390222 53009 $=
200507220151 METAR KATL 220151Z 27006KT 8SM FEW150 BKN200 BKN250 24/23 A3007 RMK AO2 SLP172 T02390228 $=
200507220051 METAR KATL 220051Z 25003KT 8SM FEW100 BKN150 OVC200 25/23 A3006 RMK AO2 RAE15 SLP170 P0000 T02500228 $=
200507212351 METAR KATL 212351Z 25003KT 9SM -RA SCT100 BKN140 OVC200 24/23 A3007 RMK AO2 SLP174 P0000 60007 T02440228 10322 20239 55003 $=
200507212251 METAR KATL 212251Z 32008KT 8SM -RA FEW050 BKN100 OVC150 24/22 A3007 RMK AO2 TSE10RAE10B49 SLP173 P0000 T02440222 $=
200507212210 SPECI KATL 212210Z 00000KT 8SM FEW040 SCT100 BKN150 OVC200 24/22 A3005 RMK AO2 TSE10RAE10 TS DSIPTD CB DSNT NW P0000 $=
200507212210 SPECI KATL 212210Z 00000KT 8SM FEW040 SCT100 BKN150 OVC200 24/22 A3005 RMK AO2 TSE10RAE10 TS DSIPTD CB DSNT NW P0000 $=
200507212151 METAR KATL 212151Z 26009KT 8SM -TSRA FEW020CB SCT040 BKN100 BKN150 OVC200 24/22 A3006 RMK AO2 RAB02 SLP170 OCNL LTGICCG TS W-NW NO MOV P0007 T02390217 $=
200507212111 SPECI KATL 212111Z 25012KT 10SM -TSRA SCT020CB SCT040TCU BKN050 BKN150 OVC250 24/22 A3009 RMK AO2 RAB02 VIS LWR SW-NW SHRA CONS LTGICCG TS NW MOV ESE CB NW MOV ESE TCU OHD-NW-N P0001 $=
200507212111 SPECI KATL 212111Z 25012KT 10SM -TSRA SCT020CB SCT040TCU BKN050 BKN150 OVC250 24/22 A3009 RMK AO2 RAB02 VIS LWR SW-NW SHRA CONS LTGICCG TS NW MOV ESE CB NW MOV ESE TCU OHD-NW-N P0001 $=
200507212101 SPECI KATL 212101Z 24009KT 10SM TS SCT020CB BKN040TCU BKN050 BKN150 OVC250 26/21 A3008 RMK AO2 CONS LTGICCG TS S-NW MOV ESE CB DSNT N-NE AND S-NW MOV ESE TCU OHD AND SE-SW-NW $=
200507212101 SPECI KATL 212101Z 24009KT 10SM TS SCT020CB BKN040TCU BKN050 BKN150 OVC250 26/21 A3008 RMK AO2 CONS LTGICCG TS S-NW MOV ESE CB DSNT N-NE AND S-NW MOV ESE TCU OHD AND SE-SW-NW $=
200507212051 METAR KATL 212051Z 19012G19KT 10SM TS SCT020CB BKN040 BKN150 OVC250 26/21 A3008 RMK AO2 TSE10B39RAB19E27 SLP177 CONS LTGICCG TS OHD-SW-W MOV SE CB OHD-SW-W MOV SE SHRA SW P0000 60000 T02560211 56012 $=
200507212039 SPECI KATL 212039Z 18009KT 9SM TS SCT025CB SCT045 BKN150 BKN250 26/21 A3008 RMK AO2 TSE10B39RAB19E27 CONS LTGICCG TS OHD-S-W MOV E CB DSNT SE-S AND OHD-S-W MOV E P0000 $=
200507212039 SPECI KATL 212039Z 18009KT 9SM TS SCT025CB SCT045 BKN150 BKN250 26/21 A3008 RMK AO2 TSE10B39RAB19E27 CONS LTGICCG TS OHD-S-W MOV E CB DSNT SE-S AND OHD-S-W MOV E P0000 $=
200507212011 SPECI KATL 212011Z 10010KT 10SM FEW025CB SCT070 BKN150 BKN250 27/21 A3007 RMK AO2 TSE10 LTG DSNT E-S TS MOV ESE CB DSNT E-S AND VC SW-NW MOV ESE $=
200507212011 SPECI KATL 212011Z 10010KT 10SM FEW025CB SCT070 BKN150 BKN250 27/21 A3007 RMK AO2 TSE10 LTG DSNT E-S TS MOV ESE CB DSNT E-S AND VC SW-NW MOV ESE $=
200507211951 METAR KATL 211951Z 09007KT 10SM TS FEW020CB SCT040TCU SCT070 BKN150 BKN250 28/21 A3008 RMK AO2 SLP177 FRQ LTGICCG TS VC E-S MOV ESE CB VC E-S MOV ESE TCU SW-NW SHRA VC E-S T02780206=
200507211929 SPECI KATL 211929Z 09012KT 8SM TS SCT040CB SCT050TCU BKN150 BKN250 28/22 A3008 RMK AO2 FRQ LTGICCG TS VC NE-S MOV ESE CB VC NE-S MOV ESE TCU SW-NW SHRA VC NE-S=
200507211929 SPECI KATL 211929Z 09012KT 8SM TS SCT040CB SCT050TCU BKN150 BKN250 28/22 A3008 RMK AO2 FRQ LTGICCG TS VC NE-S MOV ESE CB VC NE-S MOV ESE TCU SW-NW SHRA VC NE-S=
200507211907 SPECI KATL 211907Z 34009KT 9SM TS SCT040CB BKN150 BKN250 32/22 A3010 RMK AO2 VIS LWR NE-SE SHRA CONS LTGICCG TS VC NE-SE MOV E CB VC NE-SE AND DSNT SW MOV E TCU DSNT NW=
200507211907 SPECI KATL 211907Z 34009KT 9SM TS SCT040CB BKN150 BKN250 32/22 A3010 RMK AO2 VIS LWR NE-SE SHRA CONS LTGICCG TS VC NE-SE MOV E CB VC NE-SE AND DSNT SW MOV E TCU DSNT NW=
200507211851 METAR KATL 211851Z 33010KT 9SM TS SCT040CB SCT200 BKN250 32/22 A3009 RMK AO2 TSB28 SLP178 FRQ LTGICCG TS VC NE-SE MOV E TCU DSNT W-NW SHRA VC NE-SE T03170222=
200507211828 SPECI KATL 211828Z 29008KT 8SM TS FEW035CB SCT045TCU BKN200 BKN250 32/23 A3010 RMK AO2 TSB28 CONS LTGICCG TS VC N-NE MOV STNRY TCU N-NE-E-SE-S-SW=
200507211828 SPECI KATL 211828Z 29008KT 8SM TS FEW035CB SCT045TCU BKN200 BKN250 32/23 A3010 RMK AO2 TSB28 CONS LTGICCG TS VC N-NE MOV STNRY TCU N-NE-E-SE-S-SW=
200507211751 METAR KATL 211751Z COR VRB05KT 9SM SCT030TCU SCT200 BKN250 32/23 A3012 RMK AO2 SLP187 CB DSNT E AND SW TCU N-NE-E AND OHD-SW T03170233 10317 20239 58008=
200507211651 METAR KATL 211651Z 00000KT 8SM FEW030 SCT200 BKN250 31/23 A3013 RMK AO2 SLP194 T03060228=
200507211551 METAR KATL 211551Z VRB05KT 8SM FEW025 SCT200 BKN250 30/24 A3014 RMK AO2 SLP196 T03000239=
200507211451 METAR KATL 211451Z 31007KT 8SM FEW200 BKN250 BKN300 28/23 A3014 RMK AO2 SLP196 T02780228 51006=
200507211351 METAR KATL 211351Z 32005KT 8SM FEW200 BKN250 BKN300 27/23 A3014 RMK AO2 SLP194 T02720228 $=
200507211251 METAR KATL 211251Z 33008KT 8SM BKN230 BKN250 26/22 A3014 RMK AO2 SLP197 T02560222=
200507211151 METAR KATL 211151Z 32004KT 10SM BKN230 24/22 A3012 RMK AO2 SLP190 60000 70005 T02390217 10239 20222 53004=
200507211051 METAR KATL 211051Z 29006KT 10SM FEW180 SCT230 22/21 A3012 RMK AO2 SLP187 T02220211 $=
200507210951 METAR KATL 210951Z 27004KT 10SM FEW180 SCT230 22/21 A3011 RMK AO2 SLP184 T02220206 $=
200507210851 METAR KATL 210851Z 29006KT 9SM FEW180 SCT230 23/21 A3011 RMK AO2 SLP186 60000 T02280206 58004 $=
200507210751 METAR KATL 210751Z 25003KT 10SM SCT180 23/21 A3012 RMK AO2 SLP189 T02280206 $=
200507210651 METAR KATL 210651Z 20004KT 9SM FEW034 SCT060 SCT110 BKN180 23/21 A3012 RMK AO2 RAE41 SLP187 P0000 T02330206 $=
200507210551 METAR KATL 210551Z 26003KT 10SM -RA BKN070 BKN100 24/21 A3013 RMK AO2 TSE33RAB38 SLP190 P0000 60005 T02390206 10300 20239 58008 $=
200507210539 SPECI KATL 210539Z 32003KT 8SM -RA BKN060 BKN110 24/20 A3013 RMK AO2 TSE33RAB38 P0000 $=
200507210539 SPECI KATL 210539Z 32003KT 8SM -RA BKN060 BKN110 24/20 A3013 RMK AO2 TSE33RAB38 P0000 $=
200507210451 METAR KATL 210451Z 18004KT 10SM TS FEW035CB SCT080 BKN120 OVC150 24/20 A3017 RMK AO2 TSB22RAB19E48 SLP206 FRQ LTGICCG TS NE MOV SE P0005 T02390200 403170228 $=
200507210422 SPECI KATL 210422Z 19012G16KT 10SM -TSRA BKN035CB BKN060 OVC150 24/20 A3017 RMK AO2 TSB22RAB19 OCNL LTGICCG TS N-NE MOV SE P0000 $=
200507210422 SPECI KATL 210422Z 19012G16KT 10SM -TSRA BKN035CB BKN060 OVC150 24/20 A3017 RMK AO2 TSB22RAB19 OCNL LTGICCG TS N-NE MOV SE P0000 $=
200507210351 METAR KATL 210351Z 18007KT 10SM FEW020 BKN032 BKN100 OVC150 26/23 A3017 RMK AO2 SLP206 LTG DSNT SE-SW CB DSNT SE-SW T02560228 $=
200507210251 METAR KATL 210251Z 30006KT 10SM FEW100 BKN150 OVC200 27/21 A3015 RMK AO2 RAE12 SLP197 LTG DSNT SE-S CB DSNT SE-S P0000 60000 T02720211 51018 $=
200507210151 METAR KATL 210151Z 02005KT 10SM -RA FEW035 SCT070 BKN100 OVC150 28/22 A3013 RMK AO2 TSE43 SLP192 TS DSIPTD P0000 T02780222 $=
200507210143 SPECI KATL 210143Z VRB06KT 10SM -RA FEW035 SCT070 BKN100 OVC150 28/22 A3013 RMK AO2 TSE43 TS DSIPTD P0000 $=
200507210143 SPECI KATL 210143Z VRB06KT 10SM -RA FEW035 SCT070 BKN100 OVC150 28/22 A3013 RMK AO2 TSE43 TS DSIPTD P0000 $=
200507210051 METAR KATL 210051Z 35010KT 7SM -TSRA BKN035CB BKN060 BKN100 OVC150 28/23 A3013 RMK AO2 TSB28RAB34 SLP191 VIS E-S 2 FRQ LTGICCG TS E-S NO MOV P0000 T02830228 $=
200507210028 SPECI KATL 210028Z 31007KT 9SM TS SCT040CB BKN100 BKN150 BKN200 28/23 A3011 RMK AO2 TSB28 OCNL LTGCG TS SE-S NO MOV=
200507210028 SPECI KATL 210028Z 31007KT 9SM TS SCT040CB BKN100 BKN150 BKN200 28/23 A3011 RMK AO2 TSB28 OCNL LTGCG TS SE-S NO MOV=
200507202351 METAR KATL 202351Z 00000KT 9SM FEW045 SCT150 BKN200 BKN250 30/22 A3009 RMK AO2 TSB2256E29RAB2259E29 SLP180 CB DSNT NW P0000 60000 T03000217 10317 20283 53001=
200507202329 SPECI KATL 202329Z 00000KT 9SM FEW040 SCT150 BKN200 BKN250 30/22 A3008 RMK AO2 TSB2256E29RAB2259E29 TS DSIPTD CB DSNT NW P0000=
200507202329 SPECI KATL 202329Z 00000KT 9SM FEW040 SCT150 BKN200 BKN250 30/22 A3008 RMK AO2 TSB2256E29RAB2259E29 TS DSIPTD CB DSNT NW P0000=
200507202256 SPECI KATL 202256Z 28004KT 10SM TS FEW040CB SCT060 BKN150 BKN200 BKN250 31/22 A3008 RMK AO2 TSB56 FRQ LTGCG TS SE NO MOV=
200507202256 SPECI KATL 202256Z 28004KT 10SM TS FEW040CB SCT060 BKN150 BKN200 BKN250 31/22 A3008 RMK AO2 TSB56 FRQ LTGCG TS SE NO MOV=
200507202251 METAR KATL 202251Z 27005KT 10SM FEW040TCU SCT150 BKN200 BKN250 31/22 A3008 RMK AO2 SLP175 TCU OHD-SE T03110222=
200507202151 METAR KATL 202151Z COR VRB05KT 10SM FEW035 SCT150 BKN200 BKN250 31/22 A3008 RMK AO2 TSE14RAE39 SLP174 CB DSNT N-NE AND NW P0000 T03110222=
200507202115 SPECI KATL 202115Z 26004KT 10SM -RA FEW040 SCT090 BKN150 BKN250 31/23 A3008 RMK AO2 TSE14 TS DSIPTD CB DSNT N-NE AND SW P0000=
200507202115 SPECI KATL 202115Z 26004KT 10SM -RA FEW040 SCT090 BKN150 BKN250 31/23 A3008 RMK AO2 TSE14 TS DSIPTD CB DSNT N-NE AND SW P0000=
200507202051 METAR KATL 202051Z 00000KT 8SM -TSRA FEW040CB SCT050TCU BKN065 BKN250 30/22 A3009 RMK AO2 RAB49 SLP179 VIS N 2 VIS NE 3 FRQ LTGICCG TS N-NE MOV STNRY TCU SW P0000 60000 T03000222 56017=
200507202023 SPECI KATL 202023Z 09005KT 8SM TS SCT045CB BKN055 BKN075 BKN250 29/23 A3010 RMK AO2 CONS LTGICCG TS NE MOV STNRY=
200507202023 SPECI KATL 202023Z 09005KT 8SM TS SCT045CB BKN055 BKN075 BKN250 29/23 A3010 RMK AO2 CONS LTGICCG TS NE MOV STNRY=
200507201951 METAR KATL 201951Z 00000KT 10SM TS FEW043CB SCT060 31/21 A3011 RMK AO2 TSB50 SLP184 FRQ LTGICCG TS SE T03110206=
200507201851 METAR KATL 201851Z VRB05KT 10SM BKN040 BKN200 32/22 A3012 RMK AO2 SLP190 TCU DSNT N-E AND W-NW T03170222=
200507201751 METAR KATL 201751Z 00000KT 10SM BKN031 31/21 A3014 RMK AO2 SLP196 TCU DSNT N AND W-NW T03060211 10306 20233 58008=
200507201651 METAR KATL 201651Z 20004KT 10SM FEW029 BKN031 31/22 A3015 RMK AO2 SLP198 T03060222=
200507201551 METAR KATL 201551Z 00000KT 10SM FEW023 SCT039 SCT150 29/22 A3016 RMK AO2 SLP204 T02940222=
200507201451 METAR KATL 201451Z 28005KT 10SM FEW030 SCT150 28/23 A3017 RMK AO2 SLP206 T02780228 51008=
200507201351 METAR KATL 201351Z VRB05KT 10SM BKN210 27/23 A3016 RMK AO2 SLP204 T02670228=
200507201251 METAR KATL 201251Z 00000KT 8SM BKN210 24/22 A3016 RMK AO2 SLP202 T02440217 $=
200507201151 METAR KATL 201151Z 19003KT 8SM FEW150 BKN210 BKN250 23/22 A3014 RMK AO2 SLP198 70067 T02330217 10233 20228 53007 $=
200507201051 METAR KATL 201051Z 14003KT 10SM SCT150 BKN210 BKN250 23/22 A3013 RMK AO2 SLP193 T02280217 $=
200507200951 METAR KATL 200951Z 00000KT 10SM FEW030 BKN150 23/22 A3012 RMK AO2 SLP188 T02280217 $=
200507200851 METAR KATL 200851Z 00000KT 10SM FEW110 SCT150 BKN200 23/22 A3012 RMK AO2 SLP191 T02280217 57004 $=
200507200751 METAR KATL 200751Z 15004KT 10SM FEW110 BKN150 BKN200 23/22 A3013 RMK AO2 SLP192 T02280217 $=
200507200651 METAR KATL 200651Z 33003KT 10SM FEW110 SCT150 SCT200 23/22 A3013 RMK AO2 SLP193 T02280217 $=
200507200551 METAR KATL 200551Z 00000KT 10SM SCT110 OVC150 23/22 A3013 RMK AO2 SLP193 60007 T02280217 10244 20228 56004 $=
200507200451 METAR KATL 200451Z 14004KT 10SM BKN150 OVC200 24/22 A3014 RMK AO2 SLP194 T02390217 403170228 $=
200507200351 METAR KATL 200351Z 33007KT 10SM BKN140 OVC200 24/22 A3014 RMK AO2 RAE19 SLP194 P0000 T02390217 $=
200507200251 METAR KATL 200251Z 00000KT 10SM -RA FEW060 BKN120 OVC150 23/22 A3014 RMK AO2 RAB48 SLP198 P0000 60007 T02330217 53000 $=
200507200151 METAR KATL 200151Z 00000KT 10SM FEW050 BKN120 OVC150 23/22 A3013 RMK AO2 RAE51 SLP193 P0000 T02280217 $=
200507200051 METAR KATL 200051Z 21004KT 9SM -RA FEW060 BKN100 OVC150 23/22 A3012 RMK AO2 TSE48 SLP191 TS DSIPTD P0007 T02280217 $=
200507192351 METAR KATL 192351Z 18010KT 5SM R09R/5500VP6000FT TSRA BR FEW015 BKN035CB BKN050 OVC150 23/22 A3014 RMK AO2 TSB39RAB28 PRESRR SLP198 VIS S-W 2 OCNL LTGICCG TS SE-SW-W MOV NE P0019 60060 T02330222 10306 20233 53017=
200507192340 SPECI KATL 192340Z 24008KT 4SM R09R/4500VP6000FT -TSRA FEW015 SCT035CB BKN050 OVC150 24/22 A3013 RMK AO2 TSB39RAB28 OCNL LTGICCG TS SE-SW-W MOV NE P0006 $=
200507192340 SPECI KATL 192340Z 24008KT 4SM R09R/4500VP6000FT -TSRA FEW015 SCT035CB BKN050 OVC150 24/22 A3013 RMK AO2 TSB39RAB28 OCNL LTGICCG TS SE-SW-W MOV NE P0006 $=
200507192251 METAR KATL 192251Z 25007KT 10SM FEW050 SCT100 BKN150 OVC200 26/23 A3008 RMK AO2 SLP176 CB DSNT SE-SW T02610233 $=
200507192151 METAR KATL 192151Z 32003KT 10SM FEW040 SCT080 BKN150 OVC200 27/22 A3008 RMK AO2 SLP177 CB DSNT E AND S-SW TCU DSNT SE T02720222 $=
200507192135 SPECI KATL 192135Z 00000KT 10SM FEW025 SCT080 BKN150 OVC200 27/22 A3008 RMK AO2 $=
200507192135 SPECI KATL 192135Z 00000KT 10SM FEW025 SCT080 BKN150 OVC200 27/22 A3008 RMK AO2 $=
200507192051 METAR KATL 192051Z 00000KT 8SM BKN023 26/24 A3009 RMK AO2 RAE1953B10E38 SLP179 P0000 60041 T02560244 58009=
200507192001 SPECI KATL 192001Z 00000KT 8SM BKN023 26/24 A3009 RMK AO2 RAE1953 P0000 $=
200507192001 SPECI KATL 192001Z 00000KT 8SM BKN023 26/24 A3009 RMK AO2 RAE1953 P0000 $=
200507191951 METAR KATL 191951Z 00000KT 7SM -RA BKN023 23/22 A3009 RMK AO2 WSHFT 1838 TSE35 SLP179 TCU DSNT N P0022 T02330220 $=
200507191941 SPECI KATL 191941Z 12005KT 7SM -RA BKN019 BKN030 23/22 A3009 RMK AO2 WSHFT 1838 TSE35 OCNL LTCC TS VC NE MOV E P0022 $=
200507191941 SPECI KATL 191941Z 12005KT 7SM -RA BKN019 BKN030 23/22 A3009 RMK AO2 WSHFT 1838 TSE35 OCNL LTCC TS VC NE MOV E P0022 $=
200507191923 SPECI KATL 191923Z 21007KT 7SM R09R/5500VP6000FT -TSRA BKN028CB BKN037 OVC050 23/22 A3010 RMK AO2 WSHFT 1838 CONS LTGCGICCC TS OHD AND VC NE MOV E P0020=
200507191923 SPECI KATL 191923Z 21007KT 7SM R09R/5500VP6000FT -TSRA BKN028CB BKN037 OVC050 23/22 A3010 RMK AO2 WSHFT 1838 CONS LTGCGICCC TS OHD AND VC NE MOV E P0020=
200507191912 SPECI KATL 191912Z 20009KT 1 1/4SM R09R/4000VP6000FT +TSRA BR BKN028CB BKN037 OVC050 23/22 A3011 RMK AO2 WSHFT 1838 TWR VIS 2 1/2 CONS LTGCGICCC TS OHD AND VC NE MOV E P0013 $=
200507191912 SPECI KATL 191912Z 20009KT 1 1/4SM R09R/4000VP6000FT +TSRA BR BKN028CB BKN037 OVC050 23/22 A3011 RMK AO2 WSHFT 1838 TWR VIS 2 1/2 CONS LTGCGICCC TS OHD AND VC NE MOV E P0013 $=
200507191902 SPECI KATL 191902Z 20015G24KT 2 1/2SM R09R/5500VP6000FT TSRA BR BKN029CB BKN037 OVC050 24/22 A3013 RMK AO2 WSHFT 1838 SFC VIS 3 CONS LTGCGICCC TS OHD AND VC NE MOV E P0001=
200507191902 SPECI KATL 191902Z 20015G24KT 2 1/2SM R09R/5500VP6000FT TSRA BR BKN029CB BKN037 OVC050 24/22 A3013 RMK AO2 WSHFT 1838 SFC VIS 3 CONS LTGCGICCC TS OHD AND VC NE MOV E P0001=
200507191853 SPECI KATL 191853Z 17013G19KT 1SM +TSRA SCT029 BKN037 OVC055 26/22 A3012 RMK AO2 WSHFT 1838 SFC VIS 1 1/4 VIS 1/4V5 P0000=
200507191853 SPECI KATL 191853Z 17013G19KT 1SM +TSRA SCT029 BKN037 OVC055 26/22 A3012 RMK AO2 WSHFT 1838 SFC VIS 1 1/4 VIS 1/4V5 P0000=
200507191851 METAR KATL 191851Z 13010KT 090V180 1SM R09R/6000VP6000FT +TSRA SCT018CB BKN026 OVC046 26/22 A3013 RMK AO2 PK WND 07031/1832 WSHFT 1828 SFC VIS 1 1/2 VIS 1/4V5 TSB07RAB27 SLP191 CONS LTGCGICCC TS OHD AND VC NE MOV=
200507191830 SPECI KATL 191830Z 02019G26KT 1SM R09R/2800VP6000FT +TSRA BKN035CB BKN046 28/23 A3013 RMK AO2 PK WND 04026/1830 SFC VIS 4 TSB07RAB27 PRESRR CONS LTGCGICCC TS OHD AND VC NE MOV E P0000=
200507191830 SPECI KATL 191830Z 02019G26KT 1SM R09R/2800VP6000FT +TSRA BKN035CB BKN046 28/23 A3013 RMK AO2 PK WND 04026/1830 SFC VIS 4 TSB07RAB27 PRESRR CONS LTGCGICCC TS OHD AND VC NE MOV E P0000=
200507191809 SPECI KATL 191809Z 28010KT 10SM TS BKN036CB BKN046 28/23 A3011 RMK AO2 TSB07 FRQ LTGCG TS NE MOV E=
200507191809 SPECI KATL 191809Z 28010KT 10SM TS BKN036CB BKN046 28/23 A3011 RMK AO2 TSB07 FRQ LTGCG TS NE MOV E=
200507191751 METAR KATL 191751Z 31004KT 10SM BKN038 BKN044 BKN250 31/23 A3012 RMK AO2 SLP186 TCU DSNT ALL QUADS T03060228 10317 20239 58013=
200507191651 METAR KATL 191651Z VRB05KT 10SM BKN030 BKN250 31/23 A3014 RMK AO2 SLP195 TCU DSNT ALL QUADS T03110228=
200507191551 METAR KATL 191551Z 31004KT 10SM BKN250 30/23 A3016 RMK AO2 SLP201 T03000228=
200507191451 METAR KATL 191451Z 29004KT 10SM BKN250 28/23 A3016 RMK AO2 SLP200 T02780228=
200507191351 METAR KATL 191351Z COR 29008KT 10SM SCT250 27/22 A3014 RMK AO2 SLP177 T02720217 $=
200507191251 METAR KATL 191251Z 23005KT 10SM SCT150 BKN210 BKN250 26/22 A3014 RMK AO2 SLP197 T02560217 $=
200507191151 METAR KATL 191151Z 21004KT 9SM SCT150 BKN210 BKN250 24/22 A3013 RMK AO2 SLP192 T02390217 10244 20233 51007 $=
200507191051 METAR KATL 191051Z 28004KT 10SM FEW050 BKN150 BKN210 BKN250 23/21 A3012 RMK AO2 SLP190 T02330206 $=
200507190951 METAR KATL 190951Z 27003KT 10SM FEW050 BKN150 BKN250 24/21 A3012 RMK AO2 SLP188 T02390206 $=
200507190851 METAR KATL 190851Z 28004KT 10SM FEW050 SCT095 BKN150 24/21 A3011 RMK AO2 SLP183 T02390211 56007 $=
200507190751 METAR KATL 190751Z 28004KT 10SM FEW050 SCT095 BKN150 24/21 A3011 RMK AO2 SLP184 T02390211 $=
200507190651 METAR KATL 190651Z 00000KT 10SM SCT095 SCT150 BKN250 24/21 A3011 RMK AO2 SLP184 T02440211 $=
200507190551 METAR KATL 190551Z 30005KT 10SM FEW070 SCT150 BKN250 24/21 A3013 RMK AO2 SLP191 T02440211 10306 20239 53001 $=
200507190451 METAR KATL 190451Z 27004KT 10SM FEW070 SCT150 BKN250 24/21 A3013 RMK AO2 SLP191 T02390211 403220233 $=
200507190351 METAR KATL 190351Z 18005KT 10SM FEW150 BKN200 OVC250 25/21 A3013 RMK AO2 SLP190 T02500211 $=
200507190251 METAR KATL 190251Z 14005KT 10SM FEW150 SCT200 BKN250 26/21 A3013 RMK AO2 SLP191 T02560211 53013 $=
200507190151 METAR KATL 190151Z 20009KT 10SM FEW150 SCT200 BKN250 27/21 A3011 RMK AO2 SLP183 LTG DSNT SE CB DSNT SE T02670211 $=
200507190051 METAR KATL 190051Z 20007KT 10SM FEW040 SCT200 BKN250 28/22 A3009 RMK AO2 SLP178 CB DSNT SE AND W-NW TCU DSNT E T02780222 $=
200507182351 METAR KATL 182351Z 27005KT 10SM FEW045TCU SCT250 30/21 A3009 RMK AO2 SLP176 TCU VC NE AND SW CB DSNT NE AND S-SW T03000211 10322 20300 53000 $=
200507182251 METAR KATL 182251Z 29006KT 10SM FEW045 SCT250 31/21 A3007 RMK AO2 SLP171 CB DSNT N AND SW TCU DSNT NE AND SE-S T03110211 $=
200507182151 METAR KATL 182151Z 26007KT 10SM FEW045CB SCT250 32/20 A3008 RMK AO2 SLP173 CB NE-E AND DSNT SW MOV NE TCU VC NW T03170200=
200507182051 METAR KATL 182051Z 26004KT 7SM SCT046 SCT060 BKN150 32/22 A3008 RMK AO2 SLP176 T03170217 56022=
200507181951 METAR KATL 181951Z VRB04KT 10SM SCT048 SCT070 BKN150 32/21 A3009 RMK AO2 SLP179 T03170206=
200507181851 METAR KATL 181851Z VRB05KT 10SM SCT047 BKN150 32/21 A3012 RMK AO2 SLP188 T03170211=
200507181751 METAR KATL 181751Z 26008KT 10SM SCT045 BKN150 31/21 A3015 RMK AO2 SLP198 T03110211 10311 20250 58009=
200507181651 METAR KATL 181651Z 25008KT 9SM SCT037 BKN042 30/22 A3017 RMK AO2 SLP203 T03000217=
200507181551 METAR KATL 181551Z 28007KT 10SM FEW033 30/22 A3018 RMK AO2 SLP208 T03000217=
200507181451 METAR KATL 181451Z 28005KT 10SM SCT026 SCT200 29/23 A3018 RMK AO2 SLP207 T02890228 51010=
200507181351 METAR KATL 181351Z 31005KT 10SM FEW025 SCT200 BKN230 28/23 A3018 RMK AO2 SLP207 T02830228=
200507181251 METAR KATL 181251Z 28005KT 10SM FEW200 SCT230 27/23 A3017 RMK AO2 SLP206 T02670228=
200507181151 METAR KATL 181151Z 00000KT 7SM FEW200 SCT230 25/22 A3015 RMK AO2 SLP197 T02500222 10256 20233 53010=
200507181051 METAR KATL 181051Z 00000KT 6SM BR FEW200 SCT230 24/22 A3012 RMK AO2 SLP188 T02390217 $=
200507180951 METAR KATL 180951Z 00000KT 10SM FEW200 24/22 A3011 RMK AO2 SLP186 T02390217 $=
200507180851 METAR KATL 180851Z 00000KT 10SM FEW200 24/22 A3012 RMK AO2 SLP186 T02390217 58015 $=
200507180751 METAR KATL 180751Z 00000KT 10SM FEW200 24/22 A3013 RMK AO2 SLP191 T02440217 $=
200507180651 METAR KATL 180651Z 00000KT 10SM FEW200 25/22 A3015 RMK AO2 SLP197 T02500217 $=
200507180551 METAR KATL 180551Z 00000KT 10SM CLR 26/22 A3016 RMK AO2 SLP202 T02560217 10294 20256 50004 $=
200507180451 METAR KATL 180451Z 00000KT 10SM CLR 26/22 A3016 RMK AO2 SLP202 T02610217 403170228 $=
200507180351 METAR KATL 180351Z 00000KT 10SM CLR 26/22 A3016 RMK AO2 SLP202 T02610217 $=
200507180251 METAR KATL 180251Z 00000KT 10SM CLR 27/22 A3015 RMK AO2 SLP198 T02670217 51014 $=
200507180151 METAR KATL 180151Z 00000KT 10SM FEW090 SCT250 28/22 A3014 RMK AO2 SLP194 T02780217 $=
200507180051 METAR KATL 180051Z COR 26004KT 10SM FEW037 SCT100 SCT200 28/22 A3012 RMK AO2 TCU DSNT NE S LP188 T02780217 $=
200507172351 METAR KATL 172351Z 31003KT 10SM FEW038 SCT120 29/22 A3011 RMK AO2 SLP184 TCU DSNT NE AND SE AND S T02940222 10317 20289 55002 $=
200507172251 METAR KATL 172251Z 32004KT 10SM SCT042 SCT120 29/22 A3009 RMK AO2 SLP179 TCU DSNT NE AND SE AND S-SW T02940222 $=
200507172151 METAR KATL 172151Z COR 18006KT 10SM SCT044 31/21 A3010 RMK AO2 TCU DSNT NE AND SE AND S SLP183 T03060206 $=
200507172051 METAR KATL 172051Z COR 22003KT 10SM SCT047 BKN120 31/21 A3011 RMK AO2 TCU DSNT N AND SE AND W SLP185 T03110206 58022 $=
200507171951 METAR KATL 171951Z 23007KT 10SM SCT045 BKN070 BKN150 31/21 A3014 RMK AO2 SLP195 T03110211 $=
200507171851 METAR KATL 171851Z 27005KT 10SM BKN045TCU BKN150 31/22 A3016 RMK AO2 SLP201 TCU W-NW MOV N-NE T03110217 $=
200507171751 METAR KATL 171751Z 25007KT 10SM BKN038 BKN150 29/21 A3018 RMK AO2 SLP209 T02940211 10300 20233 58007 $=
200507171651 METAR KATL 171651Z VRB05KT 10SM BKN025 BKN150 29/22 A3020 RMK AO2 SLP215 T02890222 $=
200507171551 METAR KATL 171551Z 28005KT 10SM BKN030 BKN150 28/23 A3020 RMK AO2 SLP217 T02830228 $=
200507171451 METAR KATL 171451Z 29007KT 10SM FEW060 BKN150 27/22 A3020 RMK AO2 SLP216 T02670222 50006 $=
200507171351 METAR KATL 171351Z 26007KT 10SM FEW050 BKN160 26/22 A3020 RMK AO2 SLP217 T02610217 $=
200507171251 METAR KATL 171251Z 23004KT 10SM SCT150 BKN200 26/23 A3019 RMK AO2 SLP213 T02560228 $=
200507171151 METAR KATL 171151Z 22005KT 10SM SCT120 BKN200 23/22 A3018 RMK AO2 SLP210 70016 T02330222 10239 20228 53019 $=
200507171051 METAR KATL 171051Z 19004KT 6SM BR FEW012 SCT120 SCT200 23/22 A3016 RMK AO2 SLP205 T02280222 $=
200507171044 SPECI KATL 171044Z 20003KT 7SM FEW012 SCT120 SCT200 23/22 A3016 RMK AO2 $=
200507171044 SPECI KATL 171044Z 20003KT 7SM FEW012 SCT120 SCT200 23/22 A3016 RMK AO2 $=
200507170951 METAR KATL 170951Z 14004KT 10SM SCT200 23/22 A3014 RMK AO2 SLP194 T02330222 $=
200507170851 METAR KATL 170851Z 00000KT 10SM FEW120 24/22 A3012 RMK AO2 SLP190 T02390222 56008 $=
200507170751 METAR KATL 170751Z 00000KT 10SM FEW100 SCT200 23/22 A3013 RMK AO2 SLP193 T02330222 $=
200507170651 METAR KATL 170651Z 09003KT 10SM FEW049 SCT120 BKN200 23/22 A3014 RMK AO2 SLP195 T02330222 $=
200507170551 METAR KATL 170551Z 07004KT 10SM SCT120 BKN200 24/22 A3015 RMK AO2 SLP200 T02390222 10283 20239 56003 $=
200507170451 METAR KATL 170451Z 10003KT 10SM SCT100 BKN200 25/22 A3015 RMK AO2 SLP201 T02500222 402940217 $=
200507170351 METAR KATL 170351Z 00000KT 10SM SCT100 BKN200 26/22 A3015 RMK AO2 SLP200 T02560222=
200507170251 METAR KATL 170251Z 33005KT 10SM SCT085 SCT100 BKN200 26/22 A3016 RMK AO2 SLP203 LTG DSNT N T02560222 53016=
200507170151 METAR KATL 170151Z 21008KT 10SM SCT027 SCT100 BKN200 26/22 A3014 RMK AO2 SLP197 LTG DSNT N T02610222=
200507170051 METAR KATL 170051Z 20007KT 10SM SCT027 SCT100 BKN200 27/22 A3013 RMK AO2 SLP192 TCU DSNT N AND E AND W T02720222 $=
200507162351 METAR KATL 162351Z COR 18007KT 10SM SCT030 SCT100 BKN200 28/22 A3011 RMK AO2 SLP187 TCU DSNT NE AND SE 60016 T02830222 10294 20261 53002=
200507162251 METAR KATL 162251Z 21006KT 10SM SCT030 SCT100 BKN200 28/22 A3009 RMK AO2 SLP179 TCU DSNT ALL QUADS T02830217=
200507162151 METAR KATL 162151Z COR 22010KT 10SM FEW090 BKN180 28/22 A3010 RMK AO2 TCU DSNT ALL QUADS SLP182 T02830217=
200507162051 METAR KATL 162051Z 22005KT 10SM SCT024 SCT032 BKN043 29/21 A3011 RMK AO2 SLP185 60016 T02940206 58020=
200507161951 METAR KATL 161951Z 00000KT 10SM SCT027 SCT032TCU BKN043 28/23 A3013 RMK AO2 RAE04 SLP192 TCU NE-S AND NW P0004 T02830228 $=
200507161903 SPECI KATL 161903Z 00000KT 4SM -RA SCT008 BKN023 BKN055 27/22 A3014 RMK AO2 P0004 $=
200507161903 SPECI KATL 161903Z 00000KT 4SM -RA SCT008 BKN023 BKN055 27/22 A3014 RMK AO2 P0004 $=
200507161856 SPECI KATL 161856Z 00000KT 4SM R09R/3000VP6000FT -RA FEW008 SCT023 BKN055 26/22 A3015 RMK AO2 P0004 $=
200507161856 SPECI KATL 161856Z 00000KT 4SM R09R/3000VP6000FT -RA FEW008 SCT023 BKN055 26/22 A3015 RMK AO2 P0004 $=
200507161851 METAR KATL 161851Z 00000KT 7SM R09R/3000VP6000FT +RA SCT017 BKN023 BKN033TCU 26/23 A3015 RMK AO2 RAB1754E12B47 SLP200 TCU E-SE MOV E P0012 T02610228 $=
200507161751 METAR KATL 161751Z 00000KT 9SM SCT025 BKN029 27/22 A3017 RMK AO2 SLP207 T02720217 10272 20222 58005 $=
200507161651 METAR KATL 161651Z 00000KT 10SM SCT014 BKN031TCU BKN039 26/22 A3018 RMK AO2 SLP211 TCU SW MOV SE T02610222 $=
200507161643 SPECI KATL 161643Z 00000KT 10SM SCT014 BKN031 BKN039 26/22 A3018 RMK AO2 $=
200507161643 SPECI KATL 161643Z 00000KT 10SM SCT014 BKN031 BKN039 26/22 A3018 RMK AO2 $=
200507161619 SPECI KATL 161619Z 00000KT 10SM SCT012 BKN020 OVC031 25/22 A3019 RMK AO2 $=
200507161619 SPECI KATL 161619Z 00000KT 10SM SCT012 BKN020 OVC031 25/22 A3019 RMK AO2 $=
200507161551 METAR KATL 161551Z 00000KT 10SM BKN010 OVC014 24/22 A3019 RMK AO2 CIG 008V012 SLP214 T02440217 $=
200507161451 METAR KATL 161451Z 00000KT 10SM BKN008 OVC014 24/22 A3018 RMK AO2 SLP212 T02440222 51005 $=
200507161351 METAR KATL 161351Z 00000KT 10SM BKN006 OVC011 23/21 A3018 RMK AO2 SLP212 T02280211 $=
200507161342 SPECI KATL 161342Z 00000KT 9SM OVC006 23/21 A3018 RMK AO2 CIG 004V009 $=
200507161342 SPECI KATL 161342Z 00000KT 9SM OVC006 23/21 A3018 RMK AO2 CIG 004V009 $=
200507161318 SPECI KATL 161318Z 00000KT 8SM BKN004 OVC009 23/21 A3018 RMK AO2 $=
200507161318 SPECI KATL 161318Z 00000KT 8SM BKN004 OVC009 23/21 A3018 RMK AO2 $=
200507161251 METAR KATL 161251Z 00000KT 8SM BKN008 OVC012 23/21 A3018 RMK AO2 SLP211 T02280211 $=
200507161223 SPECI KATL 161223Z 00000KT 10SM OVC006 22/21 A3017 RMK AO2 CIG 004V009 $=
200507161223 SPECI KATL 161223Z 00000KT 10SM OVC006 22/21 A3017 RMK AO2 CIG 004V009 $=
200507161151 METAR KATL 161151Z 00000KT 8SM BKN004 OVC008 22/21 A3017 RMK AO2 SLP207 70027 T02220211 10222 20217 53019 $=
200507161051 METAR KATL 161051Z 00000KT 8SM BKN004 22/21 A3015 RMK AO2 SLP201 T02170211 $=
200507161018 SPECI KATL 161018Z 00000KT 9SM BKN004 22/21 A3013 RMK AO2 $=
200507161018 SPECI KATL 161018Z 00000KT 9SM BKN004 22/21 A3013 RMK AO2 $=
200507160951 METAR KATL 160951Z 00000KT 10SM BKN006 22/21 A3013 RMK AO2 SLP193 T02170206 $=
200507160851 METAR KATL 160851Z 00000KT 10SM BKN006 22/21 A3011 RMK AO2 SLP187 T02170206 53002 $=
200507160804 SPECI KATL 160804Z 00000KT 10SM BKN006 22/21 A3010 RMK AO2 $=
200507160804 SPECI KATL 160804Z 00000KT 10SM BKN006 22/21 A3010 RMK AO2 $=
200507160751 METAR KATL 160751Z 00000KT 10SM BKN004 22/21 A3009 RMK AO2 SLP182 T02220211 $=
200507160651 METAR KATL 160651Z 00000KT 10SM BKN004 22/21 A3009 RMK AO2 SLP181 T02170211 $=
200507160551 METAR KATL 160551Z 00000KT 10SM BKN004 22/21 A3010 RMK AO2 SLP184 T02170211 10233 20217 53003 $=
200507160526 SPECI KATL 160526Z 00000KT 10SM BKN004 22/21 A3010 RMK AO2 $=
200507160526 SPECI KATL 160526Z 00000KT 10SM BKN004 22/21 A3010 RMK AO2 $=
200507160511 SPECI KATL 160511Z 00000KT 10SM BKN006 22/21 A3010 RMK AO2 $=
200507160511 SPECI KATL 160511Z 00000KT 10SM BKN006 22/21 A3010 RMK AO2 $=
200507160451 METAR KATL 160451Z 00000KT 10SM FEW007 BKN200 22/21 A3009 RMK AO2 SLP180 T02170211 402890217 $=
200507160433 SPECI KATL 160433Z 00000KT 10SM SCT007 BKN200 22/21 A3009 RMK AO2 $=
200507160433 SPECI KATL 160433Z 00000KT 10SM SCT007 BKN200 22/21 A3009 RMK AO2 $=
200507160351 METAR KATL 160351Z 00000KT 10SM BKN007 OVC020 22/21 A3009 RMK AO2 SLP181 T02170211 $=
200507160310 SPECI KATL 160310Z 00000KT 10SM SCT008 BKN020 BKN200 22/21 A3009 RMK AO2 $=
200507160310 SPECI KATL 160310Z 00000KT 10SM SCT008 BKN020 BKN200 22/21 A3009 RMK AO2 $=
200507160251 METAR KATL 160251Z 00000KT 10SM FEW008 SCT060 BKN200 22/21 A3009 RMK AO2 SLP181 T02220211 51020 $=
200507160151 METAR KATL 160151Z 00000KT 10SM FEW008 OVC200 23/21 A3008 RMK AO2 SLP176 T02280211 $=
200507160051 METAR KATL 160051Z 00000KT 10SM FEW008 SCT150 BKN200 OVC250 23/21 A3005 RMK AO2 SLP169 T02280211 $=
200507152351 METAR KATL 152351Z 00000KT 10SM FEW008 SCT140 BKN200 OVC250 23/22 A3003 RMK AO2 SLP161 60027 T02330217 10289 20222 58005 $=
200507152305 SPECI KATL 152305Z 00000KT 10SM SCT008 BKN140 BKN200 OVC250 24/22 A3004 RMK AO2 $=
200507152305 SPECI KATL 152305Z 00000KT 10SM SCT008 BKN140 BKN200 OVC250 24/22 A3004 RMK AO2 $=
200507152251 METAR KATL 152251Z 00000KT 10SM SCT008 BKN015 BKN140 OVC200 23/22 A3003 RMK AO2 RAB15E34 SLP162 P0000 T02330217 $=
200507152218 SPECI KATL 152218Z 00000KT 10SM -RA BKN006 BKN015 OVC150 23/22 A3005 RMK AO2 RAB15 P0000=
200507152218 SPECI KATL 152218Z 00000KT 10SM -RA BKN006 BKN015 OVC150 23/22 A3005 RMK AO2 RAB15 P0000=
200507152151 METAR KATL 152151Z 00000KT 10SM FEW040 SCT100 BKN140 OVC200 23/22 A3005 RMK AO2 TSE09RAE42 SLP168 TCU DSNT NW P0005 T02330217=
200507152109 SPECI KATL 152109Z 00000KT 7SM -RA FEW010 SCT040 BKN070 OVC140 23/22 A3004 RMK AO2 TSE09 TS MOV NE P0002=
200507152109 SPECI KATL 152109Z 00000KT 7SM -RA FEW010 SCT040 BKN070 OVC140 23/22 A3004 RMK AO2 TSE09 TS MOV NE P0002=
200507152051 METAR KATL 152051Z 00000KT 5SM -TSRA BR BKN018 BKN035CB OVC046 23/22 A3005 RMK AO2 TSB05 SLP166 OCNL LTGCA TS OHD MOV NE-E P0020 60022 T02330217 53001=
200507152042 SPECI KATL 152042Z 00000KT 4SM -TSRA BR BKN018 BKN038CB OVC046 23/22 A3005 RMK AO2 TSB05 OCNL LTGCA TS OHD MOV NE-E P0019=
200507152042 SPECI KATL 152042Z 00000KT 4SM -TSRA BR BKN018 BKN038CB OVC046 23/22 A3005 RMK AO2 TSB05 OCNL LTGCA TS OHD MOV NE-E P0019=
200507152022 SPECI KATL 152022Z 00000KT 4SM -TSRA BR SCT016 BKN036CB OVC050 23/22 A3004 RMK AO2 TSB05 OCNL LTGCA TS OHD MOV NE-E P0014=
200507152022 SPECI KATL 152022Z 00000KT 4SM -TSRA BR SCT016 BKN036CB OVC050 23/22 A3004 RMK AO2 TSB05 OCNL LTGCA TS OHD MOV NE-E P0014=
200507152011 SPECI KATL 152011Z 00000KT 2 1/2SM R09R/6000VP6000FT +TSRA BR SCT014 BKN034CB OVC050 22/21 A3003 RMK AO2 TSB05 OCNL LTGCA TS OHD MOV NE-E P0012 $=
200507152011 SPECI KATL 152011Z 00000KT 2 1/2SM R09R/6000VP6000FT +TSRA BR SCT014 BKN034CB OVC050 22/21 A3003 RMK AO2 TSB05 OCNL LTGCA TS OHD MOV=
200507152001 SPECI KATL 152001Z 00000KT 2 1/2SM R09R/4000VP6000FT -RA BR SCT008 BKN037 OVC060 23/21 A3003 RMK AO2 P0004 $=
200507152001 SPECI KATL 152001Z 00000KT 2 1/2SM R09R/4000VP6000FT -RA BR SCT008 BKN037 OVC060 23/21 A3003 RMK AO2 P0004 $=
200507151954 SPECI KATL 151954Z 00000KT 1 3/4SM R09R/4000VP6000FT +RA BR FEW007 BKN037 OVC060 23/21 A3002 RMK AO2 P0003 $=
200507151954 SPECI KATL 151954Z 00000KT 1 3/4SM R09R/4000VP6000FT +RA BR FEW007 BKN037 OVC060 23/21 A3002 RMK AO2 P0003 $=
200507151951 METAR KATL 151951Z 26013G19KT 6SM R09R/5500VP6000FT RA BR SCT025 BKN037 OVC060 23/21 A3002 RMK AO2 RAB42 SLP158 P0002 T02330211 $=
200507151851 METAR KATL 151851Z 00000KT 10SM SCT030 BKN034 BKN046 28/21 A3002 RMK AO2 SLP156 T02830206=
200507151751 METAR KATL 151751Z 00000KT 8SM SCT027 BKN050 BKN060 27/21 A3004 RMK AO2 SLP163 T02670211 10272 20222 58009=
200507151651 METAR KATL 151651Z 00000KT 7SM SCT024 SCT028 BKN033 27/21 A3006 RMK AO2 SLP170 T02720211=
200507151635 SPECI KATL 151635Z 00000KT 7SM SCT024 SCT028 BKN033 27/22 A3006 RMK AO2=
200507151635 SPECI KATL 151635Z 00000KT 7SM SCT024 SCT028 BKN033 27/22 A3006 RMK AO2=
200507151551 METAR KATL 151551Z 00000KT 8SM BKN018 BKN025 26/21 A3007 RMK AO2 SLP173 T02610211=
200507151451 METAR KATL 151451Z 00000KT 8SM OVC016 24/21 A3007 RMK AO2 SLP173 T02440211 51007=
200507151351 METAR KATL 151351Z 00000KT 9SM OVC012 23/21 A3007 RMK AO2 SLP172 T02330206=
200507151306 SPECI KATL 151306Z 00000KT 10SM OVC010 23/21 A3006 RMK AO2 CIG 007V013=
200507151306 SPECI KATL 151306Z 00000KT 10SM OVC010 23/21 A3006 RMK AO2 CIG 007V013=
200507151251 METAR KATL 151251Z 00000KT 10SM OVC008 23/21 A3006 RMK AO2 CIG 007V012 SLP171 T02280206=
200507151151 METAR KATL 151151Z 00000KT 8SM BKN006 OVC010 22/21 A3005 RMK AO2 CIG 004V009 SLP166 70005 T02220206 10228 20217 53018=
200507151101 SPECI KATL 151101Z 00000KT 7SM BKN008 BKN012 BKN150 OVC230 22/21 A3003 RMK AO2 CIG 005V010 BINOVC ALQDS=
200507151101 SPECI KATL 151101Z 00000KT 7SM BKN008 BKN012 BKN150 OVC230 22/21 A3003 RMK AO2 CIG 005V010 BINOVC ALQDS=
200507151051 METAR KATL 151051Z 00000KT 9SM FEW006 SCT017 BKN150 OVC230 22/21 A3003 RMK AO2 SLP160 BINOVC ALQDS T02220206=
200507151032 SPECI KATL 151032Z 00000KT 10SM FEW006 SCT017 BKN150 OVC230 22/21 A3002 RMK AO2 BINOVD ALQDSS=
200507151032 SPECI KATL 151032Z 00000KT 10SM FEW006 SCT017 BKN150 OVC230 22/21 A3002 RMK AO2 BINOVD ALQDSS=
200507150951 METAR KATL 150951Z 00000KT 7SM FEW008 OVC015 22/21 A3000 RMK AO2 SLP150 BINOVC ALQDS T02220206 $=
200507150941 SPECI KATL 150941Z 00000KT 10SM FEW008 OVC015 22/21 A3000 RMK AO2 $=
200507150941 SPECI KATL 150941Z 00000KT 10SM FEW008 OVC015 22/21 A3000 RMK AO2 $=
200507150903 SPECI KATL 150903Z 00000KT 8SM SCT005 OVC011 22/21 A2999 RMK AO2 $=
200507150903 SPECI KATL 150903Z 00000KT 8SM SCT005 OVC011 22/21 A2999 RMK AO2 $=
200507150851 METAR KATL 150851Z 00000KT 8SM BKN005 OVC011 22/21 A2999 RMK AO2 CIG 004V008 SLP146 T02220211 53003 $=
200507150751 METAR KATL 150751Z 00000KT 9SM BKN007 22/21 A2998 RMK AO2 CIG 005V011 SLP144 T02220211 $=
200507150726 SPECI KATL 150726Z 00000KT 9SM FEW007 SCT018 22/21 A2998 RMK AO2 $=
200507150726 SPECI KATL 150726Z 00000KT 9SM FEW007 SCT018 22/21 A2998 RMK AO2 $=
200507150651 METAR KATL 150651Z 00000KT 10SM BKN007 OVC016 23/21 A2999 RMK AO2 CIG 006V011 SLP144 BINOVC ALQDS T02280211 $=
200507150551 METAR KATL 150551Z 00000KT 9SM BKN007 OVC012 23/21 A2998 RMK AO2 SLP142 T02280211 10250 20228 53002 $=
200507150543 SPECI KATL 150543Z 00000KT 9SM BKN007 OVC012 23/21 A2998 RMK AO2 CIG 005V009 $=
200507150543 SPECI KATL 150543Z 00000KT 9SM BKN007 OVC012 23/21 A2998 RMK AO2 CIG 005V009 $=
200507150451 METAR KATL 150451Z 00000KT 10SM FEW015 OVC200 23/21 A2998 RMK AO2 SLP142 T02280211 403060217 $=
200507150351 METAR KATL 150351Z 00000KT 10SM FEW015 OVC200 23/21 A2997 RMK AO2 SLP140 T02330211 $=
200507150319 SPECI KATL 150319Z 00000KT 10SM FEW015 BKN200 OVC250 23/21 A2997 RMK AO2 $=
200507150319 SPECI KATL 150319Z 00000KT 10SM FEW015 BKN200 OVC250 23/21 A2997 RMK AO2 $=
200507150251 METAR KATL 150251Z 00000KT 10SM BKN018 OVC025 23/21 A2998 RMK AO2 SLP142 BINOVC T02330211 51020 $=
200507150151 METAR KATL 150151Z 00000KT 10SM BKN018 OVC250 24/21 A2997 RMK AO2 SLP139 T02390206 $=
200507150123 SPECI KATL 150123Z 00000KT 10SM BKN020 BKN200 OVC250 24/21 A2997 RMK AO2 $=
200507150123 SPECI KATL 150123Z 00000KT 10SM BKN020 BKN200 OVC250 24/21 A2997 RMK AO2 $=
200507150051 METAR KATL 150051Z 00000KT 10SM FEW150 BKN200 OVC250 24/21 A2995 RMK AO2 SLP132 T02440206 $=
200507142351 METAR KATL 142351Z 00000KT 10SM FEW150 BKN200 BKN250 25/21 A2992 RMK AO2 SLP122 CB DSNT N-NE TCU DSNT NW 60005 T02500206 10306 20244 55000 $=
200507142251 METAR KATL 142251Z 00000KT 10SM FEW030 SCT250 27/21 A2992 RMK AO2 SLP123 CB DSNT NW-N TCU DSNT SE T02670206=
200507142151 METAR KATL 142151Z 00000KT 10SM FEW150 SCT200 SCT250 28/21 A2992 RMK AO2 SLP120 TCU DSNT NW T02780211=
200507142051 METAR KATL 142051Z 19010KT 8SM FEW040 BKN200 28/21 A2992 RMK AO2 RAE20 SLP121 P0002 60005 T02830206 58010=
200507142005 SPECI KATL 142005Z 02005KT 6SM -RA SCT018 BKN036 OVC070 25/22 A2994 RMK AO2 TCU DSNT S P0001=
200507142005 SPECI KATL 142005Z 02005KT 6SM -RA SCT018 BKN036 OVC070 25/22 A2994 RMK AO2 TCU DSNT S P0001=
200507141951 METAR KATL 141951Z 36011G22KT 1SM R09R/2200VP6000FT +RA BKN037 BKN048 BKN075 24/21 A2995 RMK AO2 SFC VIS 2 1/2 RAB46 SLP134 P0003 T02440211=
200507141851 METAR KATL 141851Z 18009KT 6SM HZ BKN040 BKN050 28/22 A2993 RMK AO2 SLP125 TCU DSNT E T02830217=
200507141751 METAR KATL 141751Z 00000KT 9SM SCT028 BKN032 BKN039 29/22 A2995 RMK AO2 SLP131 T02940217 10294 20222 58013=
200507141704 SPECI KATL 141704Z 00000KT 8SM SCT028 BKN035 28/22 A2997 RMK AO2=
200507141704 SPECI KATL 141704Z 00000KT 8SM SCT028 BKN035 28/22 A2997 RMK AO2=
200507141651 METAR KATL 141651Z 00000KT 8SM BKN026 BKN035 28/22 A2998 RMK AO2 SLP141 T02830222 $=
200507141616 SPECI KATL 141616Z 26005KT 8SM BKN021 BKN029 BKN180 28/22 A2999 RMK AO2=
200507141616 SPECI KATL 141616Z 26005KT 8SM BKN021 BKN029 BKN180 28/22 A2999 RMK AO2=
200507141551 METAR KATL 141551Z 00000KT 8SM FEW019 SCT040 BKN200 27/22 A2999 RMK AO2 SLP146 T02670222=
200507141451 METAR KATL 141451Z 25008KT 7SM FEW014 SCT040 BKN200 27/22 A2999 RMK AO2 SLP146 T02670222 51004=
200507141351 METAR KATL 141351Z 25009G15KT 8SM FEW012 BKN150 BKN250 24/22 A2999 RMK AO2 SLP146 T02440217=
200507141302 SPECI KATL 141302Z 24008KT 7SM BKN007 BKN040 BKN150 BKN210 OVC250 24/22 A2999 RMK AO2=
200507141302 SPECI KATL 141302Z 24008KT 7SM BKN007 BKN040 BKN150 BKN210 OVC250 24/22 A2999 RMK AO2=
200507141251 METAR KATL 141251Z 24005KT 6SM BR SCT007 BKN040 BKN150 BKN210 OVC250 23/22 A2999 RMK AO2 SLP146 T02330217=
200507141209 SPECI KATL 141209Z 23007KT 7SM BKN007 BKN150 BKN250 23/21 A2998 RMK AO2=
200507141209 SPECI KATL 141209Z 23007KT 7SM BKN007 BKN150 BKN250 23/21 A2998 RMK AO2=
200507141159 SPECI KATL 141159Z 24006KT 8SM SCT007 SCT043 BKN150 BKN250 23/21 A2998 RMK AO2=
200507141159 SPECI KATL 141159Z 24006KT 8SM SCT007 SCT043 BKN150 BKN250 23/21 A2998 RMK AO2=
200507141151 METAR KATL 141151Z 23008KT 9SM SCT043 BKN150 BKN250 22/21 A2998 RMK AO2 SLP143 70002 T02220211 10233 20217 53007=
200507141051 METAR KATL 141051Z 00000KT 10SM BKN150 BKN250 22/21 A2997 RMK AO2 SLP139 T02170206=
200507140951 METAR KATL 140951Z 00000KT 10SM FEW026 SCT070 22/20 A2996 RMK AO2 SLP136 T02220200=
200507140851 METAR KATL 140851Z 00000KT 10SM FEW032 SCT055 BKN070 22/21 A2996 RMK AO2 SLP135 T02220206 56000=
200507140816 SPECI KATL 140816Z 00000KT 9SM SCT006 SCT070 22/21 A2996 RMK AO2=
200507140816 SPECI KATL 140816Z 00000KT 9SM SCT006 SCT070 22/21 A2996 RMK AO2=
200507140751 METAR KATL 140751Z 00000KT 8SM BKN006 22/21 A2996 RMK AO2 SLP136 T02220211=
200507140658 SPECI KATL 140658Z 00000KT 10SM BKN008 BKN070 22/21 A2995 RMK AO2=
200507140658 SPECI KATL 140658Z 00000KT 10SM BKN008 BKN070 22/21 A2995 RMK AO2=
200507140651 METAR KATL 140651Z 00000KT 10SM SCT008 SCT030 SCT070 23/21 A2996 RMK AO2 SLP135 T02280211=
200507140636 SPECI KATL 140636Z 00000KT 10SM SCT010 BKN070 23/21 A2995 RMK AO2=
200507140636 SPECI KATL 140636Z 00000KT 10SM SCT010 BKN070 23/21 A2995 RMK AO2=
200507140602 SPECI KATL 140602Z 00000KT 10SM BKN020 BKN030 23/22 A2996 RMK AO2=
200507140602 SPECI KATL 140602Z 00000KT 10SM BKN020 BKN030 23/22 A2996 RMK AO2=
200507140551 METAR KATL 140551Z 00000KT 9SM FEW007 SCT024 BKN030 23/22 A2996 RMK AO2 SLP135 T02280217 10244 20228 56012=
200507140535 SPECI KATL 140535Z 00000KT 9SM SCT007 SCT025 23/22 A2996 RMK AO2=
200507140535 SPECI KATL 140535Z 00000KT 9SM SCT007 SCT025 23/22 A2996 RMK AO2=
200507140451 METAR KATL 140451Z 20005KT 8SM BKN005 OVC012 23/22 A2996 RMK AO2 SLP136 T02330222 402890217=
200507140401 SPECI KATL 140401Z 20009KT 9SM BKN003 OVC010 23/22 A2999 RMK AO2=
200507140401 SPECI KATL 140401Z 20009KT 9SM BKN003 OVC010 23/22 A2999 RMK AO2=
200507140351 METAR KATL 140351Z 18004KT 10SM BKN005 OVC012 23/22 A2999 RMK AO2 SLP144 T02330222=
200507140331 SPECI KATL 140331Z 00000KT 10SM FEW006 BKN012 BKN020 OVC250 23/22 A2999 RMK AO2=
200507140331 SPECI KATL 140331Z 00000KT 10SM FEW006 BKN012 BKN020 OVC250 23/22 A2999 RMK AO2=
200507140321 SPECI KATL 140321Z 18004KT 10SM BKN012 BKN020 OVC250 23/22 A3000 RMK AO2=
200507140321 SPECI KATL 140321Z 18004KT 10SM BKN012 BKN020 OVC250 23/22 A3000 RMK AO2=
200507140251 METAR KATL 140251Z 00000KT 9SM BKN015 BKN250 23/22 A3000 RMK AO2 SLP148 T02330222 53011=
200507140151 METAR KATL 140151Z 00000KT 10SM BKN250 23/22 A2998 RMK AO2 SLP144 T02330222=
200507140051 METAR KATL 140051Z 00000KT 8SM FEW010 SCT200 BKN250 24/22 A2996 RMK AO2 SLP137 T02390222=
200507132358 SPECI KATL 132358Z 00000KT 8SM SCT012 BKN150 BKN200 24/22 A2996 RMK AO2=
200507132358 SPECI KATL 132358Z 00000KT 8SM SCT012 BKN150 BKN200 24/22 A2996 RMK AO2=
200507132351 METAR KATL 132351Z 00000KT 8SM BKN012 BKN150 BKN200 24/22 A2996 RMK AO2 SLP136 60002 T02440222 10289 20233 55006=
200507132333 SPECI KATL 132333Z 17005KT 8SM BKN012 BKN150 BKN200 24/22 A2996 RMK AO2=
200507132333 SPECI KATL 132333Z 17005KT 8SM BKN012 BKN150 BKN200 24/22 A2996 RMK AO2=
200507132251 METAR KATL 132251Z COR 00000KT 6SM BR FEW080 BKN140 OVC200 24/22 A2995 RMK AO2 RAE38 SLP134 P0002 T02390222=
200507132151 METAR KATL 132151Z 23004KT 8SM -RA FEW015 SCT100 OVC140 24/22 A2997 RMK AO2 RAB31 SLP140 CB DSNT N-NE P0000 T02390217=
200507132051 METAR KATL 132051Z 20009KT 10SM FEW100 BKN150 BKN200 24/21 A2998 RMK AO2 SLP143 CB DSNT W-NW 60000 T02390206 55011=
200507131951 METAR KATL 131951Z 22006KT 10SM FEW090 BKN150 BKN200 24/21 A2997 RMK AO2 RAB00E26 SLP140 CB DSNT E-S-SW TCU DSNT W P0000 T02440206=
200507131851 METAR KATL 131851Z 26007KT 10SM FEW030 BKN150 BKN250 26/19 A2999 RMK AO2 SLP146 CB DSNT E AND SW TCU DSNT SE-S T02560189=
200507131758 SPECI KATL 131758Z 25009G14KT 6SM HZ SCT022 BKN030 29/22 A3001 RMK AO2=
200507131758 SPECI KATL 131758Z 25009G14KT 6SM HZ SCT022 BKN030 29/22 A3001 RMK AO2=
200507131751 METAR KATL 131751Z 24006KT 5SM HZ BKN020TCU BKN150 BKN250 28/23 A3001 RMK AO2 SLP153 CB DSNT NE AND DSNT W-N TCU OHD AND DSNT N-NE T02780228 10289 20228 58015=
200507131733 SPECI KATL 131733Z 24006KT 6SM HZ FEW020TCU SCT150 SCT250 29/23 A3002 RMK AO2 CB DSNT NE AND DSNT W-N TCU DSNT N AND VC S-SW=
200507131733 SPECI KATL 131733Z 24006KT 6SM HZ FEW020TCU SCT150 SCT250 29/23 A3002 RMK AO2 CB DSNT NE AND DSNT W-N TCU DSNT N AND VC S-SW=
200507131651 METAR KATL 131651Z 24008KT 6SM HZ BKN020TCU BKN030 BKN040 BKN150 27/22 A3004 RMK AO2 SLP163 CB DSNT SW-N TCU OHD-SW-NW T02720222=
200507131551 METAR KATL 131551Z VRB04KT 8SM FEW016 BKN023 OVC150 26/22 A3006 RMK AO2 SLP170 T02610222=
200507131509 SPECI KATL 131509Z 24005KT 8SM FEW013 SCT020 SCT090 BKN150 26/22 A3006 RMK AO2=
200507131509 SPECI KATL 131509Z 24005KT 8SM FEW013 SCT020 SCT090 BKN150 26/22 A3006 RMK AO2=
200507131451 METAR KATL 131451Z 25004KT 8SM FEW015 BKN020 BKN090 BKN150 25/22 A3006 RMK AO2 SLP170 T02500222 50004=
200507131400 SPECI KATL 131400Z 26010KT 8SM FEW009 SCT014 BKN150 25/22 A3006 RMK AO2=
200507131400 SPECI KATL 131400Z 26010KT 8SM FEW009 SCT014 BKN150 25/22 A3006 RMK AO2=
200507131351 METAR KATL 131351Z 25008KT 8SM SCT014 BKN150 25/22 A3006 RMK AO2 SLP170 T02500217=
200507131251 METAR KATL 131251Z 23005KT 6SM BR BKN005 BKN180 BKN230 24/22 A3005 RMK AO2 SLP167 T02390222=
200507131226 SPECI KATL 131226Z 24003KT 5SM BR OVC005 23/22 A3005 RMK AO2=
200507131226 SPECI KATL 131226Z 24003KT 5SM BR OVC005 23/22 A3005 RMK AO2=
200507131151 METAR KATL 131151Z 23004KT 4SM BR OVC003 23/22 A3005 RMK AO2 SLP165 70004 T02280217 10228 20217 53006=
200507131124 SPECI KATL 131124Z 00000KT 5SM BR OVC003 22/22 A3004 RMK AO2=
200507131124 SPECI KATL 131124Z 00000KT 5SM BR OVC003 22/22 A3004 RMK AO2=
200507131104 SPECI KATL 131104Z 00000KT 6SM BR BKN005 22/21 A3004 RMK AO2=
200507131104 SPECI KATL 131104Z 00000KT 6SM BR BKN005 22/21 A3004 RMK AO2=
200507131051 METAR KATL 131051Z 00000KT 6SM BR FEW030 SCT150 SCT230 22/21 A3004 RMK AO2 SLP162 T02220211=
200507130951 METAR KATL 130951Z 00000KT 8SM FEW230 22/21 A3003 RMK AO2 SLP159 T02220211=
200507130851 METAR KATL 130851Z 00000KT 10SM FEW100 SCT230 23/21 A3003 RMK AO2 SLP157 T02280211 56016=
200507130751 METAR KATL 130751Z 00000KT 10SM FEW100 22/21 A3004 RMK AO2 SLP162 T02220211=
200507130651 METAR KATL 130651Z 00000KT 10SM FEW100 23/22 A3005 RMK AO2 SLP166 T02280217=
200507130551 METAR KATL 130551Z 00000KT 10SM BKN095 23/21 A3007 RMK AO2 SLP174 T02280211 10239 20228 58007=
200507130451 METAR KATL 130451Z 00000KT 10SM BKN100 BKN250 23/21 A3009 RMK AO2 SLP178 T02280211 403000222=
200507130351 METAR KATL 130351Z 00000KT 10SM BKN250 23/21 A3009 RMK AO2 SLP178 T02280211=
200507130251 METAR KATL 130251Z 00000KT 10SM SCT250 23/21 A3010 RMK AO2 SLP182 T02280211 53003=
200507130151 METAR KATL 130151Z 20003KT 10SM FEW200 23/22 A3010 RMK AO2 SLP182 T02330217=
200507130051 METAR KATL 130051Z 14004KT 10SM FEW150 SCT200 SCT250 24/22 A3008 RMK AO2 SLP178 T02390217=
200507122351 METAR KATL 122351Z 19004KT 10SM FEW150 SCT200 BKN250 24/21 A3009 RMK AO2 SLP179 CB DSNT E-SE 60004 T02390211 10300 20228 58002=
200507122251 METAR KATL 122251Z 20005KT 10SM FEW100 BKN150 BKN200 BKN250 24/22 A3009 RMK AO2 TSE37RAE33 SLP179 CB DSNT NE-SE-S P0004 T02390217=
200507122238 SPECI KATL 122238Z 25006KT 10SM FEW030 SCT100 BKN150 BKN200 24/21 A3008 RMK AO2 TSE37RAE33 CB DSNT NE-SE-S TS MOV NE P0004=
200507122238 SPECI KATL 122238Z 25006KT 10SM FEW030 SCT100 BKN150 BKN200 24/21 A3008 RMK AO2 TSE37RAE33 CB DSNT NE-SE-S TS MOV NE P0004=
200507122151 METAR KATL 122151Z 26010G20KT 7SM -TSRA FEW020 SCT030CB BKN060 OVC250 24/20 A3010 RMK AO2 WSHFT 2110 TSB48RAB46 SLP183 OCNL LTGICCG TS SW-NW MOV NE CB NE-SE-SW-NW MOV NE P0000 T02390200=
200507122130 SPECI KATL 122130Z 30017KT 10SM BKN035CB BKN045TCU BKN070 BKN250 26/21 A3009 RMK AO2 WSHFT 2110 CB VC SW AND NW MOV NE TCU OHD-SE-SW-W SHRA VC SW AND NW=
200507122130 SPECI KATL 122130Z 30017KT 10SM BKN035CB BKN045TCU BKN070 BKN250 26/21 A3009 RMK AO2 WSHFT 2110 CB VC SW AND NW MOV NE TCU OHD-SE-SW-W SHRA VC SW AND NW=
200507122109 SPECI KATL 122109Z 21009KT 10SM BKN035CB BKN050 BKN065 BKN250 29/22 A3009 RMK AO2 CB OHD-NE AND DSNT SW-NW MOV NE TCU DSNT S-SW SHRA NE=
200507122109 SPECI KATL 122109Z 21009KT 10SM BKN035CB BKN050 BKN065 BKN250 29/22 A3009 RMK AO2 CB OHD-NE AND DSNT SW-NW MOV NE TCU DSNT S-SW SHRA NE=
200507122051 METAR KATL 122051Z 20008KT 10SM FEW035TCU SCT070 BKN250 29/22 A3009 RMK AO2 SLP179 LTG DSNT NW CB DSNT NW TCU S-NW SHRA DSNT NW T02890217 55009=
200507121951 METAR KATL 121951Z 20010KT 10SM FEW030TCU SCT050 SCT250 29/22 A3009 RMK AO2 SLP177 CB DSNT W-N TCU W AND NW T02890217=
200507121851 METAR KATL 121851Z 21008KT 10SM FEW030TCU SCT050 SCT250 29/22 A3010 RMK AO2 SLP181 CB DSNT NW-N TCU DSNT S-SW AND VC NW-N T02890222=
200507121751 METAR KATL 121751Z 18008KT 10SM SCT025TCU SCT050 SCT250 28/22 A3012 RMK AO2 SLP188 TCU ALQDS T02830217 10283 20228 58010 $=
200507121651 METAR KATL 121651Z 21010KT 10SM FEW025TCU BKN030 BKN040 BKN250 27/22 A3013 RMK AO2 SLP192 TCU SW AND NW T02720222 $=
200507121638 SPECI KATL 121638Z 18009KT 10SM FEW025 BKN030 BKN035 27/22 A3013 RMK AO2=
200507121638 SPECI KATL 121638Z 18009KT 10SM FEW025 BKN030 BKN035 27/22 A3013 RMK AO2=
200507121551 METAR KATL 121551Z 19007KT 10SM FEW020 BKN025 BKN035 27/22 A3015 RMK AO2 SLP198 CB DSNT NW T02670222=
200507121451 METAR KATL 121451Z 21008KT 8SM FEW012 BKN015 BKN020 25/22 A3015 RMK AO2 SLP200 T02500217 51010=
200507121358 SPECI KATL 121358Z 22007KT 8SM FEW009 BKN010 BKN020 24/22 A3015 RMK AO2=
200507121358 SPECI KATL 121358Z 22007KT 8SM FEW009 BKN010 BKN020 24/22 A3015 RMK AO2=
200507121351 METAR KATL 121351Z 21005KT 8SM BKN009 BKN011 BKN015 24/22 A3015 RMK AO2 SLP198 T02390217=
200507121334 SPECI KATL 121334Z 22008KT 8SM BKN009 BKN011 BKN015 24/22 A3014 RMK AO2=
200507121334 SPECI KATL 121334Z 22008KT 8SM BKN009 BKN011 BKN015 24/22 A3014 RMK AO2=
200507121314 SPECI KATL 121314Z 22005KT 3SM OVC009 24/22 A3014 RMK AO2 SFC VIS 8=
200507121314 SPECI KATL 121314Z 22005KT 3SM OVC009 24/22 A3014 RMK AO2 SFC VIS 8=
200507121251 METAR KATL 121251Z 22004KT 3SM BR OVC011 24/22 A3013 RMK AO2 SFC VIS 6 CIG 005V014 SLP195 T02390222=
200507121202 SPECI KATL 121202Z 22004KT 3SM BR OVC005 23/22 A3012 RMK AO2 SFC VIS 6 CIG 003V007=
200507121202 SPECI KATL 121202Z 22004KT 3SM BR OVC005 23/22 A3012 RMK AO2 SFC VIS 6 CIG 003V007=
200507121151 METAR KATL 121151Z 22004KT 3SM BR OVC003 23/22 A3012 RMK AO2 SFC VIS 6 SLP190 70148 T02280217 10239 20222 53019=
200507121143 SPECI KATL 121143Z 00000KT 3SM BR OVC003 23/22 A3012 RMK AO2 SFC VIS 5=
200507121143 SPECI KATL 121143Z 00000KT 3SM BR OVC003 23/22 A3012 RMK AO2 SFC VIS 5=
200507121111 SPECI KATL 121111Z 22006KT 2SM BR OVC003 23/22 A3011 RMK AO2 SFC VIS 5=
200507121111 SPECI KATL 121111Z 22006KT 2SM BR OVC003 23/22 A3011 RMK AO2 SFC VIS 5=
200507121051 METAR KATL 121051Z 21004KT 3SM BR OVC003 22/22 A3010 RMK AO2 SFC VIS 4 SLP182 T02220217=
200507121040 SPECI KATL 121040Z 20006KT 3SM BR OVC003 22/22 A3009 RMK AO2 SFC VIS 5=
200507121040 SPECI KATL 121040Z 20006KT 3SM BR OVC003 22/22 A3009 RMK AO2 SFC VIS 5=
200507120959 SPECI KATL 120959Z 00000KT 6SM BR SCT003 22/22 A3008 RMK AO2 $=
200507120959 SPECI KATL 120959Z 00000KT 6SM BR SCT003 22/22 A3008 RMK AO2 $=
200507120951 METAR KATL 120951Z 00000KT 6SM BR CLR 22/22 A3008 RMK AO2 SLP176 T02220217=
200507120851 METAR KATL 120851Z 00000KT 7SM CLR 23/22 A3006 RMK AO2 SLP170 T02280217 53001=
200507120751 METAR KATL 120751Z 00000KT 9SM CLR 23/22 A3006 RMK AO2 SLP170 T02280217=
200507120651 METAR KATL 120651Z 20006KT 10SM CLR 23/22 A3006 RMK AO2 SLP169 T02330222=
200507120551 METAR KATL 120551Z 18004KT 10SM SCT055 24/22 A3006 RMK AO2 SLP170 60000 T02390222 10261 20239 51006=
200507120451 METAR KATL 120451Z 19006KT 10SM FEW250 24/23 A3006 RMK AO2 SLP168 T02440228 402830222=
200507120351 METAR KATL 120351Z 20008KT 10SM FEW020 SCT035 SCT065 BKN250 25/23 A3005 RMK AO2 SLP167 T02500233=
200507120251 METAR KATL 120251Z 19007KT 10SM FEW035CB SCT065 BKN250 26/23 A3004 RMK AO2 RAB06E17 SLP163 CB VC NE-SE MOV NE P0000 60000 T02560228 53024=
200507120151 METAR KATL 120151Z 18005KT 10SM FEW022 BKN035 BKN050 BKN250 26/23 A3001 RMK AO2 SLP152 CB DSNT N AND NW T02560228=
200507120142 SPECI KATL 120142Z 18007KT 10SM SCT023 BKN032 BKN046 26/23 A3001 RMK AO2=
200507120142 SPECI KATL 120142Z 18007KT 10SM SCT023 BKN032 BKN046 26/23 A3001 RMK AO2=
200507120051 METAR KATL 120051Z 17010KT 10SM FEW035CB BKN090 BKN250 26/23 A2999 RMK AO2 SLP144 CB VC SW-W AND DSNT NW MOV NE T02610228=
200507112351 METAR KATL 112351Z 17011KT 10SM FEW025 SCT040 BKN085 BKN250 26/23 A2997 RMK AO2 RAB13E26 SLP138 CB DSNT W-NW TCU DSNT SE P0001 60014 T02610228 10283 20250 53006=
200507112251 METAR KATL 112251Z 16009G16KT 10SM FEW025 SCT080 BKN250 27/23 A2995 RMK AO2 SLP131 T02720233=
200507112151 METAR KATL 112151Z 16008KT 10SM FEW030 SCT055 BKN075 BKN250 26/23 A2995 RMK AO2 SLP132 TSB16E42RAB2059E38 CB DSNT NE-E P0012 T02560233=
200507112141 SPECI KATL 112141Z 16006KT 10SM BKN035CB BKN055 BKN200 26/24 A2995 RMK AO2 TSB16E38B39E41RAB2059E38 TS MOV NE P0012=
200507112141 SPECI KATL 112141Z 16006KT 10SM BKN035CB BKN055 BKN200 26/24 A2995 RMK AO2 TSB16E38B39E41RAB2059E38 TS MOV NE P0012=
200507112131 SPECI KATL 112131Z 19007KT 3SM R09R/2000VP6000FT TSRA BR FEW005 BKN035CB OVC055 26/24 A2996 RMK AO2 TWR VIS 4 TSB16RAB2059 OCNL LTGICCG TS N-E-SE MOV NE P0012=
200507112131 SPECI KATL 112131Z 19007KT 3SM R09R/2000VP6000FT TSRA BR FEW005 BKN035CB OVC055 26/24 A2996 RMK AO2 TWR VIS 4 TSB16RAB2059 OCNL LTGICCG TS N-E-SE MOV NE P0012=
200507112126 SPECI KATL 112126Z 19007KT 3/4SM R09R/2000VP6000FT +TSRA BR BKN005 BKN035CB OVC055 26/23 A2996 RMK AO2 TWR VIS 4 TSB16RAB2059 OCNL LTGICCG TS S-OHD-NW MOV NE P0005=
200507112126 SPECI KATL 112126Z 19007KT 3/4SM R09R/2000VP6000FT +TSRA BR BKN005 BKN035CB OVC055 26/23 A2996 RMK AO2 TWR VIS 4 TSB16RAB2059 OCNL LTGICCG TS S-OHD-NW MOV NE P0005=
200507112117 SPECI KATL 112117Z 17012KT 7SM -TSRA FEW025 BKN035CB OVC055 27/23 A2995 RMK AO2 TSB16RAB2059 OCNL LTGICCG TS S-SW MOV NE P0000=
200507112117 SPECI KATL 112117Z 17012KT 7SM -TSRA FEW025 BKN035CB OVC055 27/23 A2995 RMK AO2 TSB16RAB2059 OCNL LTGICCG TS S-SW MOV NE P0000=
200507112051 METAR KATL 112051Z 16006G16KT 10SM FEW030TCU BKN050 OVC070 28/22 A2995 RMK AO2 SLP131 TCU VC SE-SW SHRA DSNT SE-SW BINOVC E AND=
200507111951 METAR KATL 111951Z 16014G22KT 10SM FEW025 BKN035 BKN060 BKN250 28/22 A2995 RMK AO2 SLP133 CB DSNT E T02780217=
200507111928 SPECI KATL 111928Z 17011G22KT 10SM FEW025 BKN050 BKN070 BKN250 27/22 A2996 RMK AO2=
200507111928 SPECI KATL 111928Z 17011G22KT 10SM FEW025 BKN050 BKN070 BKN250 27/22 A2996 RMK AO2=
200507111851 METAR KATL 111851Z 17016G23KT 10SM FEW014 SCT020 BKN026 27/23 A2998 RMK AO2 RAE07 SLP140 P0001 T02720228=
200507111804 SPECI KATL 111804Z 14013G17KT 6SM -RA BR FEW008 BKN026 OVC038 25/23 A2998 RMK AO2 P0001=
200507111804 SPECI KATL 111804Z 14013G17KT 6SM -RA BR FEW008 BKN026 OVC038 25/23 A2998 RMK AO2 P0001=
200507111751 METAR KATL 111751Z 15012KT 1SM R09R/5000VP6000FT -RA BR BKN020CB BKN030 BKN060 25/23 A2999 RMK AO2 SFC VIS 4 RAB19 SLP145 CB OHD MOV N P0004 60134 T02500233 10267 20228 53005=
200507111738 SPECI KATL 111738Z 16014G21KT 1SM R09R/4500VP6000FT -RA BR BKN020CB BKN030 BKN060 26/23 A2999 RMK AO2 SFC VIS 3 RAB19 CB OHD MOV N P0000=
200507111738 SPECI KATL 111738Z 16014G21KT 1SM R09R/4500VP6000FT -RA BR BKN020CB BKN030 BKN060 26/23 A2999 RMK AO2 SFC VIS 3 RAB19 CB OHD MOV N P0000=
200507111723 SPECI KATL 111723Z 16017G24KT 2SM -RA BKN020CB BKN030 BKN060 26/23 A2998 RMK AO2 SFC VIS 4 RAB19 CB OHD MOV N P0000=
200507111723 SPECI KATL 111723Z 16017G24KT 2SM -RA BKN020CB BKN030 BKN060 26/23 A2998 RMK AO2 SFC VIS 4 RAB19 CB OHD MOV N P0000=
200507111651 METAR KATL 111651Z 14012G19KT 10SM BKN016CB BKN030 BKN060 25/22 A2998 RMK AO2 RAB15E48 SLP142 CB VC NW MOV N SHRA VC NW P0000 T02500222=
200507111551 METAR KATL 111551Z 15014G23KT 10SM BKN015 BKN030 BKN060 25/23 A2998 RMK AO2 RAE22 SLP143 P0000 T02500228=
200507111511 SPECI KATL 111511Z 15012G19KT 10SM BKN012 OVC019 24/22 A2997 RMK AO2 RAE00 P0000=
200507111511 SPECI KATL 111511Z 15012G19KT 10SM BKN012 OVC019 24/22 A2997 RMK AO2 RAE00 P0000=
200507111451 METAR KATL 111451Z 14011G19KT 9SM -RA FEW010 BKN020 BKN070 24/22 A2997 RMK AO2 RAB1357E19B51 SLP140 P0002 60130 T02440222 51020=
200507111435 SPECI KATL 111435Z 15014G24KT 8SM BKN013 BKN021 OVC033 24/23 A2997 RMK AO2 RAB1357E19 P0002=
200507111435 SPECI KATL 111435Z 15014G24KT 8SM BKN013 BKN021 OVC033 24/23 A2997 RMK AO2 RAB1357E19 P0002=
200507111434 SPECI KATL 111434Z 15011G24KT 1 1/2SM BR BKN013 BKN021 OVC033 24/23 A2997 RMK AO2 SFC VIS 3 RAB1357E19 P0002=
200507111434 SPECI KATL 111434Z 15011G24KT 1 1/2SM BR BKN013 BKN021 OVC033 24/23 A2997 RMK AO2 SFC VIS 3 RAB1357E19 P0002=
200507111427 SPECI KATL 111427Z 17017G24KT 1 1/2SM BR SCT012 BKN017 OVC027 24/22 A2997 RMK AO2 SFC VIS 3 RAB1357E19 P0002=
200507111427 SPECI KATL 111427Z 17017G24KT 1 1/2SM BR SCT012 BKN017 OVC027 24/22 A2997 RMK AO2 SFC VIS 3 RAB1357E19 P0002=
200507111414 SPECI KATL 111414Z 15013G20KT 1 1/2SM R09R/5500VP6000FT -RA BR BKN011 BKN019 OVC029 23/22 A2997 RMK AO2 SFC VIS 3 RAB1357 P0002=
200507111414 SPECI KATL 111414Z 15013G20KT 1 1/2SM R09R/5500VP6000FT -RA BR BKN011 BKN019 OVC029 23/22 A2997 RMK AO2 SFC VIS 3 RAB1357 P0002=
200507111407 SPECI KATL 111407Z 15016G22KT 1 1/2SM R09R/5500VP6000FT -RA BR SCT013 BKN017 OVC029 24/23 A2997 RMK AO2 SFC VIS 3 RAB1357 P0001=
200507111407 SPECI KATL 111407Z 15016G22KT 1 1/2SM R09R/5500VP6000FT -RA BR SCT013 BKN017 OVC029 24/23 A2997 RMK AO2 SFC VIS 3 RAB1357 P0001=
200507111400 SPECI KATL 111400Z AUTO 15017G22KT 9SM -RA BKN013 BKN020 OVC029 24/23 A2997 RMK AO2 RAB1357 P0000=
200507111400 SPECI KATL 111400Z AUTO 15017G22KT 9SM -RA BKN013 BKN020 OVC029 24/23 A2997 RMK AO2 RAB1357 P0000=
200507111351 METAR KATL 111351Z 15015G19KT 7SM SCT013 BKN017 OVC034 24/23 A2997 RMK AO2 TSE08RAB31E41 SLP139 P0000 T02390233=
200507111314 SPECI KATL 111314Z 15011G18KT 7SM FEW010 SCT034CB BKN046 BKN200 BKN250 24/23 A2995 RMK AO2 TSE08 CB N-SE MOV N=
200507111314 SPECI KATL 111314Z 15011G18KT 7SM FEW010 SCT034CB BKN046 BKN200 BKN250 24/23 A2995 RMK AO2 TSE08 CB N-SE MOV N=
200507111301 SPECI KATL 111301Z 16010G17KT 6SM TS BR BKN007 BKN017CB BKN028 BKN210 23/23 A2995 RMK AO2 OCNL LTG CGIC TS N-NE MOV N=
200507111301 SPECI KATL 111301Z 16010G17KT 6SM TS BR BKN007 BKN017CB BKN028 BKN210 23/23 A2995 RMK AO2 OCNL LTG CGIC TS N-NE MOV N=
200507111251 METAR KATL 111251Z 16011G16KT 2SM TS BR BKN007 BKN017CB BKN028 BKN210 23/23 A2995 RMK AO2 PK WND 15027/1153 WSHFT 1220 SFC VIS 6 TSB33RAE43 SLP135 OCNL LTG CGIC TS N-NE MOV N VIS NE-E 1 1/2 P0128 T02330228=
200507111240 SPECI KATL 111240Z 17013G21KT 1SM R09R/1600VP6000FT -TSRA BR BKN007 BKN017CB OVC028 23/23 A2995 RMK AO2 PK WND 15027/1153 WSHFT 1220 TWR VIS 2 TSB33 OCNL LTG CGIC TS OVHD MOV N P0128=
200507111240 SPECI KATL 111240Z 17013G21KT 1SM R09R/1600VP6000FT -TSRA BR BKN007 BKN017CB OVC028 23/23 A2995 RMK AO2 PK WND 15027/1153 WSHFT 1220 TWR VIS 2 TSB33 OCNL LTG CGIC TS OVHD MOV N P0128=
200507111234 SPECI KATL 111234Z 17015G23KT 1/4SM R09R/1600VP6000FT +TSRA FG BKN003 OVC007CB 23/23 A2994 RMK AO2 PK WND 15027/1153 WSHFT 1220 TWR VIS 1/2 TSB33 OCNL LTG CGIC TS OVHD MOV N P0124=
200507111234 SPECI KATL 111234Z 17015G23KT 1/4SM R09R/1600VP6000FT +TSRA FG BKN003 OVC007CB 23/23 A2994 RMK AO2 PK WND 15027/1153 WSHFT 1220 TWR VIS 1/2 TSB33 OCNL LTG CGIC TS OVHD MOV N P0124=
200507111230 SPECI KATL 111230Z 20016G24KT 170V230 1/4SM R09R/1800V5000FT +RA FG SCT003 BKN007 OVC017 23/23 A2994 RMK AO2 PK WND 15027/1153 TWR VIS 1/2 PRESRR P0082=
200507111230 SPECI KATL 111230Z 20016G24KT 170V230 1/4SM R09R/1800V5000FT +RA FG SCT003 BKN007 OVC017 23/23 A2994 RMK AO2 PK WND 15027/1153 TWR VIS 1/2 PRESRR P0082=
200507111220 SPECI KATL 111220Z 11010G25KT 1/2SM R09R/3500VP6000FT +RA BR SCT005 BKN012 OVC017 23/23 A2989 RMK AO2 PK WND 15027/1153 SFC VIS 1 PRESFR P0036=
200507111220 SPECI KATL 111220Z 11010G25KT 1/2SM R09R/3500VP6000FT +RA BR SCT005 BKN012 OVC017 23/23 A2989 RMK AO2 PK WND 15027/1153 SFC VIS 1 PRESFR P0036=
200507111151 METAR KATL 111151Z 13019G26KT 1/2SM R09R/6000VP6000FT RA BR SCT008 BKN016 OVC022 23/23 A2991 RMK AO2 PK WND 11029/1141 SFC VIS 1 1/2 SLP120 P0031 60263 70538 T02330228 10239 20222 53024=
200507111137 SPECI KATL 111137Z 12013G25KT 1/2SM R09R/4000VP6000FT +RA BR SCT006 BKN014 OVC021 23/23 A2991 RMK AO2 PK WND 14029/1053 SFC VIS 3/4 P0018=
200507111137 SPECI KATL 111137Z 12013G25KT 1/2SM R09R/4000VP6000FT +RA BR SCT006 BKN014 OVC021 23/23 A2991 RMK AO2 PK WND 14029/1053 SFC VIS 3/4 P0018=
200507111133 SPECI KATL 111133Z 13015G25KT 1SM R09R/4500VP6000FT +RA BR SCT008 BKN015 OVC023 23/23 A2991 RMK AO2 PK WND 14029/1053 SFC VIS 1 1/2 VIS 3/4V3 P0009=
200507111133 SPECI KATL 111133Z 13015G25KT 1SM R09R/4500VP6000FT +RA BR SCT008 BKN015 OVC023 23/23 A2991 RMK AO2 PK WND 14029/1053 SFC VIS 1 1/2 VIS 3/4V3 P0009=
200507111117 SPECI KATL 111117Z 14015G25KT 1 1/2SM -RA BR FEW010 BKN014 OVC024 23/23 A2990 RMK AO2 PK WND 14029/1053 SFC VIS 2 P0002 $=
200507111117 SPECI KATL 111117Z 14015G25KT 1 1/2SM -RA BR FEW010 BKN014 OVC024 23/23 A2990 RMK AO2 PK WND 14029/1053 SFC VIS 2 P0002 $=
200507111051 METAR KATL 111051Z 13020G32KT 1 1/2SM -RA BR SCT016 BKN023 OVC037 24/23 A2987 RMK AO2 PK WND 14032/1049 SFC VIS 2 RAB0952 SLP106 P0006 T02390228 $=
200507111030 SPECI KATL 111030Z 12015G26KT 3SM -RA BR SCT014 BKN024 OVC032 24/23 A2987 RMK AO2 PK WND 14026/1025 SFC VIS 6 RAB0952 P0005 $=
200507111030 SPECI KATL 111030Z 12015G26KT 3SM -RA BR SCT014 BKN024 OVC032 24/23 A2987 RMK AO2 PK WND 14026/1025 SFC VIS 6 RAB0952 P0005 $=
200507111017 SPECI KATL 111017Z 13016G25KT 2SM -RA BR BKN014 BKN022 OVC032 24/23 A2986 RMK AO2 PK WND 14026/1007 SFC VIS 4 RAB0952 P0004 $=
200507111017 SPECI KATL 111017Z 13016G25KT 2SM -RA BR BKN014 BKN022 OVC032 24/23 A2986 RMK AO2 PK WND 14026/1007 SFC VIS 4 RAB0952 P0004 $=
200507111010 SPECI KATL 111010Z 13018G26KT 4SM RA BR BKN014 BKN020 OVC029 24/23 A2987 RMK AO2 PK WND 14026/1007 RAB0952 P0001 $=
200507111010 SPECI KATL 111010Z 13018G26KT 4SM RA BR BKN014 BKN020 OVC029 24/23 A2987 RMK AO2 PK WND 14026/1007 RAB0952 P0001 $=
200507110951 METAR KATL 110951Z 13017G26KT 9SM SCT013 BKN019 OVC029 24/23 A2985 RMK AO2 PK WND 14034/0905 RAE47 SLP099 P0006 T02390228 $=
200507110927 SPECI KATL 110927Z 13017G26KT 10SM -RA BR SCT013 BKN020 OVC032 24/23 A2984 RMK AO2 PK WND 14034/0905 P0005 $=
200507110927 SPECI KATL 110927Z 13017G26KT 10SM -RA BR SCT013 BKN020 OVC032 24/23 A2984 RMK AO2 PK WND 14034/0905 P0005 $=
200507110859 SPECI KATL 110859Z 12019G33KT 4SM RA BR BKN012 BKN021 OVC031 24/23 A2984 RMK AO2 PK WND 12033/0852 P0001 $=
200507110859 SPECI KATL 110859Z 12019G33KT 4SM RA BR BKN012 BKN021 OVC031 24/23 A2984 RMK AO2 PK WND 12033/0852 P0001 $=
200507110851 METAR KATL 110851Z 13020G30KT 4SM RA BR SCT012 BKN019 OVC025 24/23 A2984 RMK AO2 PK WND 10030/0851 SLP094 P0016 60220 T02390228 58019 $=
200507110821 SPECI KATL 110821Z 13011G28KT 4SM -RA BR SCT012 BKN022 OVC050 24/23 A2985 RMK AO2 PK WND 13028/0814 P0003 $=
200507110821 SPECI KATL 110821Z 13011G28KT 4SM -RA BR SCT012 BKN022 OVC050 24/23 A2985 RMK AO2 PK WND 13028/0814 P0003 $=
200507110751 METAR KATL 110751Z COR 14018G24KT 3SM -RA BR SCT009 BKN019 OVC075 23/22 A2987 RMK AO2 SLP104 P0136 T02330222 $=
200507110710 SPECI KATL 110710Z 16012G17KT 1SM R09R/2600V5500FT +RA BR SCT002 BKN006 OVC015 23/23 A2989 RMK AO2 P0085 $=
200507110710 SPECI KATL 110710Z 16012G17KT 1SM R09R/2600V5500FT +RA BR SCT002 BKN006 OVC015 23/23 A2989 RMK AO2 P0085 $=
200507110702 SPECI KATL 110702Z 18010KT 3/4SM R09R/2600VP6000FT +RA BR BKN004 OVC010 23/23 A2988 RMK AO2 TWR VIS 1 P0044 $=
200507110702 SPECI KATL 110702Z 18010KT 3/4SM R09R/2600VP6000FT +RA BR BKN004 OVC010 23/23 A2988 RMK AO2 TWR VIS 1 P0044 $=
200507110651 METAR KATL 110651Z 13011G19KT 1SM R09R/4000VP6000FT +RA BR FEW004 BKN008 OVC014 23/23 A2988 RMK AO2 PK WND 14027/0632 SLP108 P0068 T02330228 $=
200507110637 SPECI KATL 110637Z 14015G27KT 1SM R09R/5500VP6000FT +RA BR BKN008 BKN015 OVC021 23/23 A2989 RMK AO2 PK WND 14027/0632 SFC VIS 2 P0024 $=
200507110637 SPECI KATL 110637Z 14015G27KT 1SM R09R/5500VP6000FT +RA BR BKN008 BKN015 OVC021 23/23 A2989 RMK AO2 PK WND 14027/0632 SFC VIS 2 P0024 $=
200507110553 SPECI KATL 110553Z 14012G18KT 110V180 1SM R09R/4500VP6000FT RA BR FEW007 BKN016 OVC036 23/23 A2989 RMK AO2 P0000 $=
200507110553 SPECI KATL 110553Z 14012G18KT 110V180 1SM R09R/4500VP6000FT RA BR FEW007 BKN016 OVC036 23/23 A2989 RMK AO2 P0000 $=
200507110551 METAR KATL 110551Z 15011G18KT 1SM R09R/4500VP6000FT RA BR BKN010 BKN020 OVC036 23/23 A2989 RMK AO2 SFC VIS 2 SLP114 P0060 60185 T02330228 10233 20211 56013 $=
200507110531 SPECI KATL 110531Z 11014G24KT 1SM +RA BR BKN013 BKN024 OVC035 23/22 A2988 RMK AO2 SFC VIS 1 1/2 P0021 $=
200507110531 SPECI KATL 110531Z 11014G24KT 1SM +RA BR BKN013 BKN024 OVC035 23/22 A2988 RMK AO2 SFC VIS 1 1/2 P0021 $=
200507110519 SPECI KATL 110519Z 11016G20KT 1SM +RA BR SCT014 BKN021 OVC035 23/22 A2990 RMK AO2 SFC VIS 1 1/2 P0009 $=
200507110519 SPECI KATL 110519Z 11016G20KT 1SM +RA BR SCT014 BKN021 OVC035 23/22 A2990 RMK AO2 SFC VIS 1 1/2 P0009 $=
200507110451 METAR KATL 110451Z 11016G31KT 6SM RA BR FEW008 BKN016 OVC050 23/22 A2991 RMK AO2 PK WND 08033/0359 SLP118 P0044 T02280222 402560211 $=
200507110437 SPECI KATL 110437Z 10017G24KT 2SM R09R/5000VP6000FT +RA BR BKN007 BKN011 OVC016 23/22 A2990 RMK AO2 PK WND 08033/0359 P0035 $=
200507110437 SPECI KATL 110437Z 10017G24KT 2SM R09R/5000VP6000FT +RA BR BKN007 BKN011 OVC016 23/22 A2990 RMK AO2 PK WND 08033/0359 P0035 $=
200507110429 SPECI KATL 110429Z 11015G27KT 1 3/4SM R09R/5000VP6000FT +RA BR SCT007 BKN014 OVC022 23/22 A2990 RMK AO2 PK WND 08033/0359 P0024 $=
200507110429 SPECI KATL 110429Z 11015G27KT 1 3/4SM R09R/5000VP6000FT +RA BR SCT007 BKN014 OVC022 23/22 A2990 RMK AO2 PK WND 08033/0359 P0024 $=
200507110419 SPECI KATL 110419Z 09018G27KT 2 1/2SM +RA BR SCT010 BKN014 OVC031 22/22 A2991 RMK AO2 PK WND 08033/0359 P0010 $=
200507110419 SPECI KATL 110419Z 09018G27KT 2 1/2SM +RA BR SCT010 BKN014 OVC031 22/22 A2991 RMK AO2 PK WND 08033/0359 P0010 $=
200507110415 SPECI KATL 110415Z 09019G32KT 5SM RA BR SCT011 BKN014 OVC031 22/22 A2991 RMK AO2 PK WND 08033/0359 P0006 $=
200507110415 SPECI KATL 110415Z 09019G32KT 5SM RA BR SCT011 BKN014 OVC031 22/22 A2991 RMK AO2 PK WND 08033/0359 P0006 $=
200507110351 METAR KATL 110351Z 08024G31KT 3SM RA BR FEW010 BKN015 OVC034 22/21 A2991 RMK AO2 PK WND 07032/0334 SLP120 P0017 T02170206 $=
200507110254 SPECI KATL 110254Z 09019G25KT 4SM +RA BR FEW008 BKN014 OVC030 22/21 A2993 RMK AO2 P0001 $=
200507110254 SPECI KATL 110254Z 09019G25KT 4SM +RA BR FEW008 BKN014 OVC030 22/21 A2993 RMK AO2 P0001 $=
200507110251 METAR KATL 110251Z 09019G25KT 5SM RA BR SCT010 BKN016 OVC030 22/21 A2993 RMK AO2 PK WND 08033/0204 SLP128 P0020 60064 T02170211 58010 $=
200507110151 METAR KATL 110151Z 09022G32KT 4SM RA BR FEW010 OVC016 21/20 A2994 RMK AO2 PK WND 08032/0143 SLP131 P0031 T02110200 $=
200507110138 SPECI KATL 110138Z 09018G27KT 3SM +RA BR FEW010 OVC016 21/20 A2995 RMK AO2 PK WND 09031/0121 P0025 $=
200507110138 SPECI KATL 110138Z 09018G27KT 3SM +RA BR FEW010 OVC016 21/20 A2995 RMK AO2 PK WND 09031/0121 P0025 $=
200507110118 SPECI KATL 110118Z 09021G30KT 3SM +RA BR BKN014 OVC021 22/21 A2995 RMK AO2 PK WND 09030/0116 P0014 $=
200507110118 SPECI KATL 110118Z 09021G30KT 3SM +RA BR BKN014 OVC021 22/21 A2995 RMK AO2 PK WND 09030/0116 P0014 $=
200507110103 SPECI KATL 110103Z 09018G25KT 4SM RA BR FEW011 OVC017 22/21 A2995 RMK AO2 P0005 $=
200507110103 SPECI KATL 110103Z 09018G25KT 4SM RA BR FEW011 OVC017 22/21 A2995 RMK AO2 P0005 $=
200507110051 METAR KATL 110051Z 10017G27KT 5SM RA BR BKN013 OVC021 22/21 A2996 RMK AO2 PK WND 07027/0049 SLP137 P0013 T02170206 $=
200507110005 SPECI KATL 110005Z 10012KT 7SM -RA FEW009 BKN013 OVC028 22/21 A2997 RMK AO2 P0003 $=
200507110005 SPECI KATL 110005Z 10012KT 7SM -RA FEW009 BKN013 OVC028 22/21 A2997 RMK AO2 P0003 $=
200507102351 METAR KATL 102351Z 09014G28KT 8SM -RA SCT013 BKN018 OVC039 22/21 A2996 RMK AO2 PK WND 08028/2348 SLP138 P0009 60090 T02170206 10256 20217 56009 $=
200507102302 SPECI KATL 102302Z 09016G23KT 2SM RA BR FEW009 SCT014 OVC021 22/21 A2997 RMK AO2 SFC VIS 4 P0002 $=
200507102302 SPECI KATL 102302Z 09016G23KT 2SM RA BR FEW009 SCT014 OVC021 22/21 A2997 RMK AO2 SFC VIS 4 P0002 $=
200507102251 METAR KATL 102251Z 09014G23KT 2SM RA BR SCT009 BKN014 OVC055 22/21 A2997 RMK AO2 PK WND 10032/2157 SFC VIS 4 SLP142 P0033 T02220211 $=
200507102225 SPECI KATL 102225Z 10014G20KT 2SM -RA BR FEW007 BKN020 OVC029 22/21 A2998 RMK AO2 PK WND 10032/2157 SFC VIS 5 P0027 $=
200507102225 SPECI KATL 102225Z 10014G20KT 2SM -RA BR FEW007 BKN020 OVC029 22/21 A2998 RMK AO2 PK WND 10032/2157 SFC VIS 5 P0027 $=
200507102220 SPECI KATL 102220Z 10015G20KT 1SM RA BR FEW007 BKN017 OVC029 23/21 A2999 RMK AO2 PK WND 10032/2157 SFC VIS 4 P0026 $=
200507102220 SPECI KATL 102220Z 10015G20KT 1SM RA BR FEW007 BKN017 OVC029 23/21 A2999 RMK AO2 PK WND 10032/2157 SFC VIS 4 P0026 $=
200507102203 SPECI KATL 102203Z 11012G32KT 1SM R09R/3500VP6000FT RA BR FEW006 BKN013 OVC025 23/22 A2999 RMK AO2 PK WND 10032/2157 P0020 $=
200507102203 SPECI KATL 102203Z 11012G32KT 1SM R09R/3500VP6000FT RA BR FEW006 BKN013 OVC025 23/22 A2999 RMK AO2 PK WND 10032/2157 P0020 $=
200507102157 SPECI KATL 102157Z 10023G32KT 1/4SM R09R/3500VP6000FT +RA BR FEW006 BKN016 OVC028 23/22 A2999 RMK AO2 PK WND 10032/2157 SFC VIS 1 P0013 $=
200507102157 SPECI KATL 102157Z 10023G32KT 1/4SM R09R/3500VP6000FT +RA BR FEW006 BKN016 OVC028 23/22 A2999 RMK AO2 PK WND 10032/2157 SFC VIS 1 P0013 $=
200507102151 METAR KATL 102151Z 12010KT 1SM R09R/5500VP6000FT +RA BR BKN016 BKN029 OVC045 23/22 A2998 RMK AO2 TWR VIS 1 1/2 SLP144 P0043 T02330222 $=
200507102140 SPECI KATL 102140Z 10016G24KT 1 1/2SM RA BR FEW009 BKN015 OVC048 23/21 A2999 RMK AO2 SFC VIS 2 1/2 P0035 $=
200507102140 SPECI KATL 102140Z 10016G24KT 1 1/2SM RA BR FEW009 BKN015 OVC048 23/21 A2999 RMK AO2 SFC VIS 2 1/2 P0035 $=
200507102131 SPECI KATL 102131Z 11016G25KT 090V150 1SM R09R/3500VP6000FT +RA BR SCT013 BKN018 OVC047 23/22 A2998 RMK AO2 TWR VIS 1 1/2 P0032 $=
200507102131 SPECI KATL 102131Z 11016G25KT 090V150 1SM R09R/3500VP6000FT +RA BR SCT013 BKN018 OVC047 23/22 A2998 RMK AO2 TWR VIS 1 1/2 P0032 $=
200507102124 SPECI KATL 102124Z 07020G25KT 1/2SM R09R/3500VP6000FT +RA BR FEW007 BKN012 OVC027 23/22 A2999 RMK AO2 SFC VIS 1 1/4 P0019 $=
200507102124 SPECI KATL 102124Z 07020G25KT 1/2SM R09R/3500VP6000FT +RA BR FEW007 BKN012 OVC027 23/22 A2999 RMK AO2 SFC VIS 1 1/4 P0019 $=
200507102116 SPECI KATL 102116Z 08015KT 1/2SM R09R/5000VP6000FT +RA BR SCT014 BKN019 OVC031 23/23 A3000 RMK AO2 SFC VIS 1 3/4 P0009 $=
200507102116 SPECI KATL 102116Z 08015KT 1/2SM R09R/5000VP6000FT +RA BR SCT014 BKN019 OVC031 23/23 A3000 RMK AO2 SFC VIS 1 3/4 P0009 $=
200507102108 SPECI KATL 102108Z 09013KT 2SM RA BR SCT018 BKN026 OVC032 24/22 A3000 RMK AO2 SFC VIS 3 P0004 $=
200507102108 SPECI KATL 102108Z 09013KT 2SM RA BR SCT018 BKN026 OVC032 24/22 A3000 RMK AO2 SFC VIS 3 P0004 $=
200507102051 METAR KATL 102051Z 08014KT 3SM -RA BR FEW008 BKN020 OVC045 24/22 A2999 RMK AO2 SLP147 P0005 60005 T02390222 57020 $=
200507101951 METAR KATL 101951Z 07015KT 10SM -RA BKN018 BKN035 OVC120 25/22 A3001 RMK AO2 PK WND 08026/1857 RAB43 SLP154 P0000 T02500217 $=
200507101851 METAR KATL 101851Z 07017G22KT 10SM BKN018 BKN035 OVC130 25/22 A3003 RMK AO2 SLP160 T02500217 $=
200507101751 METAR KATL 101751Z 08015KT 10SM BKN018 BKN028 BKN110 OVC140 25/22 A3005 RMK AO2 DZE17 SLP167 P0000 60000 T02500217 10250 20222 58012 $=
200507101732 SPECI KATL 101732Z 08014G20KT 10SM BKN016 BKN100 OVC160 25/22 A3006 RMK AO2 DZE17 P0000 $=
200507101732 SPECI KATL 101732Z 08014G20KT 10SM BKN016 BKN100 OVC160 25/22 A3006 RMK AO2 DZE17 P0000 $=
200507101651 METAR KATL 101651Z 07019KT 8SM -DZ BKN012 OVC020 24/22 A3007 RMK AO2 SLP172 P0000 T02440222 $=
200507101551 METAR KATL 101551Z 10013G18KT 6SM -DZ BR OVC011 24/22 A3010 RMK AO2 SLP185 P0000 T02390217 $=
200507101451 METAR KATL 101451Z 08013KT 2SM -DZ BR BKN007 OVC012 23/22 A3009 RMK AO2 SFC VIS 5 CIG 006V010 SLP180 P0000 60000 T02330217 50004 $=
200507101351 METAR KATL 101351Z 06013KT 1 1/2SM -DZ BR OVC005 23/22 A3009 RMK AO2 SFC VIS 5 DZB12E29B46RAB29E41 CIG 003V010 SLP182 P0000 T02280217 $=
200507101251 METAR KATL 101251Z 08013KT 1 1/2SM BR OVC005 23/22 A3010 RMK AO2 SFC VIS 4 SLP184 T02280217 $=
200507101230 SPECI KATL 101230Z 07013KT 1 1/2SM BR OVC005 22/22 A3009 RMK AO2 SFC VIS 4 $=
200507101230 SPECI KATL 101230Z 07013KT 1 1/2SM BR OVC005 22/22 A3009 RMK AO2 SFC VIS 4 $=
200507101151 METAR KATL 101151Z 06010KT 6SM BR OVC005 22/21 A3008 RMK AO2 CIG 005V010 SLP176 70004 T02220211 10228 20211 53003 $=
200507101051 METAR KATL 101051Z 07012KT 7SM BKN005 OVC014 22/21 A3006 RMK AO2 SLP170 T02220211 $=
200507100951 METAR KATL 100951Z 06010KT 9SM BKN005 OVC014 22/21 A3005 RMK AO2 SLP167 T02220211 $=
200507100851 METAR KATL 100851Z 08010KT 9SM BKN009 OVC014 22/21 A3007 RMK AO2 CIG 005V012 SLP170 T02220211 58003 $=
200507100751 METAR KATL 100751Z 07012KT 10SM BKN005 OVC015 22/21 A3008 RMK AO2 SLP176 T02170206 $=
200507100651 METAR KATL 100651Z 09009KT 10SM BKN007 OVC022 22/21 A3008 RMK AO2 SLP175 T02170206 $=
200507100626 SPECI KATL 100626Z 08008KT 10SM BKN007 BKN022 22/21 A3007 RMK AO2 CIG 004V008 $=
200507100626 SPECI KATL 100626Z 08008KT 10SM BKN007 BKN022 22/21 A3007 RMK AO2 CIG 004V008 $=
200507100619 SPECI KATL 100619Z 08011KT 10SM SCT007 BKN022 22/21 A3007 RMK AO2 $=
200507100619 SPECI KATL 100619Z 08011KT 10SM SCT007 BKN022 22/21 A3007 RMK AO2 $=
200507100551 METAR KATL 100551Z 08010KT 10SM FEW006 SCT025 22/21 A3008 RMK AO2 SLP174 60004 T02170206 10228 20217 50003 $=
200507100506 SPECI KATL 100506Z 07008KT 10SM FEW006 22/21 A3009 RMK AO2 $=
200507100506 SPECI KATL 100506Z 07008KT 10SM FEW006 22/21 A3009 RMK AO2 $=
200507100451 METAR KATL 100451Z 06008KT 10SM FEW060 SCT090 22/21 A3008 RMK AO2 SLP177 T02170206 403170217 $=
200507100434 SPECI KATL 100434Z 07011KT 10SM FEW006 22/21 A3009 RMK AO2 $=
200507100434 SPECI KATL 100434Z 07011KT 10SM FEW006 22/21 A3009 RMK AO2 $=
200507100351 METAR KATL 100351Z 07011KT 10SM BKN090 22/21 A3009 RMK AO2 SLP181 T02220206 $=
200507100251 METAR KATL 100251Z 21005KT 10SM OVC100 22/21 A3007 RMK AO2 RAE25 SLP171 P0001 60004 T02220206 58020 $=
200507100151 METAR KATL 100151Z 21007KT 10SM -RA BKN060 22/21 A3010 RMK AO2 SLP183 P0002 T02220206 $=
200507100051 METAR KATL 100051Z 09006KT 10SM -RA FEW047 BKN090 OVC110 22/21 A3013 RMK AO2 RAB12 SLP195 P0001 T02220206 $=
200507100034 SPECI KATL 100034Z 11008KT 10SM -RA SCT013 BKN037 OVC085 23/21 A3014 RMK AO2 RAB12 P0000 $=
200507100034 SPECI KATL 100034Z 11008KT 10SM -RA SCT013 BKN037 OVC085 23/21 A3014 RMK AO2 RAB12 P0000 $=
200507092351 METAR KATL 092351Z 11011G15KT 10SM BKN013 BKN085 OVC100 23/21 A3013 RMK AO2 PK WND 15027/2304 PRESRR SLP194 T02280206 10317 20228 53035 $=
200507092316 SPECI KATL 092316Z 14015G20KT 10SM BKN013 OVC065 23/21 A3009 RMK AO2 PK WND 15027/2304 $=
200507092316 SPECI KATL 092316Z 14015G20KT 10SM BKN013 OVC065 23/21 A3009 RMK AO2 PK WND 15027/2304 $=
200507092251 METAR KATL 092251Z 14012G23KT 10SM SCT017 SCT050 BKN090 24/21 A3006 RMK AO2 PK WND 12028/2214 SLP172 T02390206 $=
200507092151 METAR KATL 092151Z 09013KT 9SM SCT080TCU BKN150 29/22 A3003 RMK AO2 SLP160 TCU S-NW MOV NW T02890217 $=
200507092051 METAR KATL 092051Z 10009KT 10SM SCT035 BKN070TCU BKN210 29/22 A3002 RMK AO2 SLP156 TCU S-NW MOV NW T02940217 56021 $=
200507091951 METAR KATL 091951Z 10007KT 10SM FEW040 BKN050 BKN080 BKN210 31/21 A3004 RMK AO2 SLP162 T03060211 $=
200507091851 METAR KATL 091851Z 10009G16KT 10SM SCT040 BKN055 BKN250 30/21 A3006 RMK AO2 SLP167 T03000206 $=
200507091751 METAR KATL 091751Z 00000KT 10SM BKN038 BKN250 29/21 A3008 RMK AO2 SLP177 T02940206 10311 20228 58015 $=
200507091651 METAR KATL 091651Z 00000KT 10SM SCT031 SCT042 BKN055 29/22 A3011 RMK AO2 SLP185 T02940222 $=
200507091551 METAR KATL 091551Z 00000KT 10SM SCT025 SCT210 29/22 A3013 RMK AO2 SLP190 T02890217 $=
200507091451 METAR KATL 091451Z 00000KT 10SM FEW210 SCT250 27/21 A3013 RMK AO2 SLP192 T02720211 51014 $=
200507091351 METAR KATL 091351Z 00000KT 10SM FEW210 SCT250 26/21 A3013 RMK AO2 SLP190 T02560206 $=
200507091251 METAR KATL 091251Z 07003KT 10SM FEW250 24/19 A3011 RMK AO2 SLP185 T02440194 $=
200507091151 METAR KATL 091151Z 06003KT 10SM FEW250 23/19 A3009 RMK AO2 SLP178 T02280189 10233 20217 53008 $=
200507091051 METAR KATL 091051Z 05003KT 10SM FEW250 22/19 A3008 RMK AO2 SLP175 T02220189 $=
200507090951 METAR KATL 090951Z 00000KT 10SM CLR 22/19 A3007 RMK AO2 SLP171 T02170189 $=
200507090851 METAR KATL 090851Z 00000KT 10SM CLR 22/19 A3007 RMK AO2 SLP170 T02170189 56004 $=
200507090751 METAR KATL 090751Z 00000KT 10SM CLR 22/19 A3007 RMK AO2 SLP170 T02220189 $=
200507090651 METAR KATL 090651Z 00000KT 10SM FEW250 23/19 A3007 RMK AO2 SLP172 T02280189 $=
200507090551 METAR KATL 090551Z 00000KT 10SM SCT250 23/19 A3008 RMK AO2 SLP174 T02330194 10289 20233 51003 $=
200507090451 METAR KATL 090451Z 00000KT 10SM BKN250 25/19 A3008 RMK AO2 SLP174 T02500194 403110200 $=
200507090351 METAR KATL 090351Z 00000KT 10SM BKN250 26/19 A3008 RMK AO2 SLP175 T02560189 $=
200507090251 METAR KATL 090251Z 00000KT 10SM FEW250 27/18 A3007 RMK AO2 SLP171 T02670183 53018 $=
200507090151 METAR KATL 090151Z 00000KT 10SM FEW250 28/18 A3005 RMK AO2 SLP164 T02780183 $=
200507090051 METAR KATL 090051Z 00000KT 10SM FEW060 28/18 A3003 RMK AO2 SLP158 T02830183 $=
200507082351 METAR KATL 082351Z 00000KT 10SM FEW060 29/17 A3001 RMK AO2 SLP153 T02890172 10311 20289 55005 $=
200507082251 METAR KATL 082251Z 00000KT 10SM FEW050 30/17 A3001 RMK AO2 SLP151 T03000167 $=
200507082151 METAR KATL 082151Z 00000KT 10SM FEW050 SCT250 30/17 A3002 RMK AO2 SLP156 T03000172 $=
200507082051 METAR KATL 082051Z 00000KT 10SM FEW060 SCT180 31/16 A3003 RMK AO2 SLP157 T03060156 56015 $=
200507081951 METAR KATL 081951Z 00000KT 10SM FEW055 SCT180 SCT250 31/16 A3004 RMK AO2 SLP163 T03060156=
200507081851 METAR KATL 081851Z 00000KT 10SM FEW050 SCT180 SCT250 30/17 A3006 RMK AO2 SLP168 T03000172 $=
200507081751 METAR KATL 081751Z 00000KT 10SM FEW050 SCT180 SCT250 29/17 A3007 RMK AO2 SLP174 T02940172 10294 20217 50001=
200507081651 METAR KATL 081651Z 32004KT 10SM FEW040 SCT180 SCT250 28/18 A3008 RMK AO2 SLP177 T02830183=
200507081551 METAR KATL 081551Z 00000KT 10SM FEW035 SCT180 SCT250 27/18 A3009 RMK AO2 SLP179 T02720183=
200507081451 METAR KATL 081451Z 32003KT 10SM FEW030 SCT250 26/19 A3007 RMK AO2 SLP174 T02610189 53002=
200507081351 METAR KATL 081351Z 00000KT 10SM SCT250 25/19 A3007 RMK AO2 SLP173 T02500189=
200507081251 METAR KATL 081251Z 00000KT 10SM SCT200 SCT250 23/19 A3007 RMK AO2 SLP172 T02280194=
200507081151 METAR KATL 081151Z 00000KT 8SM SCT034 SCT150 BKN230 21/20 A3006 RMK AO2 SLP172 70002 T02110200 10217 20200 53016=
200507081051 METAR KATL 081051Z 00000KT 8SM FEW034 SCT150 BKN230 21/19 A3005 RMK AO2 SLP166 T02060189 $=
200507080951 METAR KATL 080951Z 00000KT 8SM FEW023 SCT036 SCT150 SCT230 21/19 A3003 RMK AO2 SLP161 T02060194 $=
200507080903 SPECI KATL 080903Z 00000KT 10SM SCT023 BKN036 21/19 A3002 RMK AO2 $=
200507080903 SPECI KATL 080903Z 00000KT 10SM SCT023 BKN036 21/19 A3002 RMK AO2 $=
200507080851 METAR KATL 080851Z 00000KT 10SM BKN023 OVC034 22/19 A3002 RMK AO2 SLP156 T02170194 53001 $=
200507080814 SPECI KATL 080814Z 00000KT 10SM BKN025 21/19 A3001 RMK AO2 $=
200507080814 SPECI KATL 080814Z 00000KT 10SM BKN025 21/19 A3001 RMK AO2 $=
200507080751 METAR KATL 080751Z 00000KT 10SM FEW027 SCT040 SCT150 21/19 A3000 RMK AO2 SLP152 T02060194 $=
200507080701 SPECI KATL 080701Z 00000KT 8SM SCT027 BKN037 21/19 A3000 RMK AO2 $=
200507080701 SPECI KATL 080701Z 00000KT 8SM SCT027 BKN037 21/19 A3000 RMK AO2 $=
200507080651 METAR KATL 080651Z 00000KT 9SM BKN027 BKN040 21/19 A3000 RMK AO2 SLP151 T02110194 $=
200507080610 SPECI KATL 080610Z 00000KT 8SM BKN027 BKN040 BKN048 21/19 A3001 RMK AO2 $=
200507080610 SPECI KATL 080610Z 00000KT 8SM BKN027 BKN040 BKN048 21/19 A3001 RMK AO2 $=
200507080551 METAR KATL 080551Z 00000KT 8SM FEW029 SCT040 BKN047 21/19 A3001 RMK AO2 SLP156 T02110194 10244 20211 50001 $=
200507080451 METAR KATL 080451Z 00000KT 10SM FEW250 21/19 A3002 RMK AO2 SLP157 T02110194 402440200 $=
200507080351 METAR KATL 080351Z 00000KT 10SM FEW250 22/19 A3001 RMK AO2 SLP156 T02170194 $=
200507080251 METAR KATL 080251Z 00000KT 10SM FEW030 SCT250 22/19 A3001 RMK AO2 SLP155 T02220194 53009=
200507080151 METAR KATL 080151Z 00000KT 10SM SCT250 23/19 A3000 RMK AO2 SLP150 T02280194=
200507080051 METAR KATL 080051Z 00000KT 10SM FEW030 SCT250 23/19 A2999 RMK AO2 SLP146 T02330194=
200507072351 METAR KATL 072351Z 00000KT 10SM FEW030 SCT250 24/19 A2998 RMK AO2 SLP144 60000 T02440189 10244 20222 53005=
200507072251 METAR KATL 072251Z 31004KT 10SM FEW025 SCT040 SCT250 24/19 A2997 RMK AO2 SLP141 T02390189=
200507072151 METAR KATL 072151Z 31009KT 10SM FEW020 OVC040 23/19 A2997 RMK AO2 SLP141 BINOVC N-NE AND NW T02330189=
200507072051 METAR KATL 072051Z 31013KT 10SM SCT015 BKN025 OVC040 23/19 A2997 RMK AO2 RAB00E09 SLP139 P0000 60000 T02280189 51007=
200507071951 METAR KATL 071951Z 27007KT 10SM FEW020 BKN025 BKN040 23/19 A2996 RMK AO2 SLP136 T02280189=
200507071926 SPECI KATL 071926Z 29009KT 10SM FEW025 SCT030 OVC038 23/19 A2996 RMK AO2=
200507071926 SPECI KATL 071926Z 29009KT 10SM FEW025 SCT030 OVC038 23/19 A2996 RMK AO2=
200507071851 METAR KATL 071851Z 27009KT 10SM FEW017 BKN025 OVC033 22/19 A2995 RMK AO2 SLP135 SHRA DSNT NE T02220189=
200507071751 METAR KATL 071751Z 24008KT 10SM FEW011 BKN028 OVC033 22/20 A2994 RMK AO2 RAE1654B11E24 SLP132 P0000 60002 T02220200 10228 20200 51007=
200507071658 SPECI KATL 071658Z 21007KT 7SM FEW008 BKN016 OVC035 22/21 A2994 RMK AO2 RAE54 P0000=
200507071658 SPECI KATL 071658Z 21007KT 7SM FEW008 BKN016 OVC035 22/21 A2994 RMK AO2 RAE54 P0000=
200507071651 METAR KATL 071651Z 21009KT 2 1/2SM -RA BR FEW006 SCT008 OVC014 21/21 A2994 RMK AO2 SFC VIS 4 RAE1554B36DZB05E36 SLP132 VIS NE 2 E 1 SE 1 S 2 SW 3 BINOVC NW P0001 T02110206=
200507071637 SPECI KATL 071637Z 21007KT 2 1/2SM -RA BR BKN008 OVC014 21/20 A2994 RMK AO2 SFC VIS 4 RAE1554B36DZB05E36 CIG 005V011 P0000=
200507071637 SPECI KATL 071637Z 21007KT 2 1/2SM -RA BR BKN008 OVC014 21/20 A2994 RMK AO2 SFC VIS 4 RAE1554B36DZB05E36 CIG 005V011 P0000=
200507071611 SPECI KATL 071611Z 21006KT 6SM -DZ BR FEW006 BKN008 OVC012 21/20 A2993 RMK AO2 RAE1554DZB05 P0000=
200507071611 SPECI KATL 071611Z 21006KT 6SM -DZ BR FEW006 BKN008 OVC012 21/20 A2993 RMK AO2 RAE1554DZB05 P0000=
200507071551 METAR KATL 071551Z 20005KT 2 1/2SM -RA BR BKN006 OVC012 21/20 A2993 RMK AO2 SFC VIS 3 RAE1452B50DZB1458E50 SLP128 P0000 T02060200=
200507071504 SPECI KATL 071504Z 20006KT 2 1/2SM -DZ BR BKN006 OVC012 21/20 A2993 RMK AO2 SFC VIS 4 RAE1452DZB1458 P0000=
200507071504 SPECI KATL 071504Z 20006KT 2 1/2SM -DZ BR BKN006 OVC012 21/20 A2993 RMK AO2 SFC VIS 4 RAE1452DZB1458 P0000=
200507071451 METAR KATL 071451Z 21008KT 1 1/2SM -RA BR BKN006 OVC012 21/19 A2992 RMK AO2 SFC VIS 2 DZE49RAB49 CIG 003V010 SLP125 P0001 60001 T02060194 51013=
200507071432 SPECI KATL 071432Z 21008KT 1 1/2SM R09R/5000VP6000FT -DZ BR BKN006 OVC011 20/19 A2992 RMK AO2 SFC VIS 3 CIG 004V009 P0001=
200507071432 SPECI KATL 071432Z 21008KT 1 1/2SM R09R/5000VP6000FT -DZ BR BKN006 OVC011 20/19 A2992 RMK AO2 SFC VIS 3 CIG 004V009 P0001=
200507071351 METAR KATL 071351Z 20007KT 3SM -DZ BR OVC006 21/19 A2991 RMK AO2 SFC VIS 4 DZB08 CIG 004V008 SLP122 P0000 T02060194=
200507071313 SPECI KATL 071313Z 20007KT 2 1/2SM -DZ BR OVC008 20/19 A2990 RMK AO2 SFC VIS 5 DZB08 CIG 004V012 P0000=
200507071313 SPECI KATL 071313Z 20007KT 2 1/2SM -DZ BR OVC008 20/19 A2990 RMK AO2 SFC VIS 5 DZB08 CIG 004V012 P0000=
200507071251 METAR KATL 071251Z 20007KT 10SM OVC008 21/19 A2990 RMK AO2 CIG 006V010 SLP118 T02060189=
200507071230 SPECI KATL 071230Z 20008KT 10SM OVC008 21/19 A2989 RMK AO2 CIG 006V012=
200507071230 SPECI KATL 071230Z 20008KT 10SM OVC008 21/19 A2989 RMK AO2 CIG 006V012=
200507071223 SPECI KATL 071223Z 20007KT 10SM OVC010 21/19 A2989 RMK AO2 CIG 006V014=
200507071223 SPECI KATL 071223Z 20007KT 10SM OVC010 21/19 A2989 RMK AO2 CIG 006V014=
200507071151 METAR KATL 071151Z 21008KT 10SM OVC008 20/19 A2988 RMK AO2 CIG 006V010 SLP111 60008 70522 T02000189 10228 20200 53011=
200507071130 SPECI KATL 071130Z 21008KT 10SM BKN009 OVC014 20/19 A2988 RMK AO2 CIG 006V012=
200507071130 SPECI KATL 071130Z 21008KT 10SM BKN009 OVC014 20/19 A2988 RMK AO2 CIG 006V012=
200507071057 SPECI KATL 071057Z 21008KT 10SM FEW008 OVC013 20/19 A2987 RMK AO2 $=
200507071057 SPECI KATL 071057Z 21008KT 10SM FEW008 OVC013 20/19 A2987 RMK AO2 $=
200507071051 METAR KATL 071051Z 20009G16KT 10SM BKN010 BKN015 OVC033 20/19 A2987 RMK AO2 RAE19 CIG 007V013 SLP107 P0000 T02000189 $=
200507071041 SPECI KATL 071041Z 21011G16KT 10SM BKN010 BKN015 OVC027 21/19 A2987 RMK AO2 RAE19 CIG 007V013 P0000 $=
200507071041 SPECI KATL 071041Z 21011G16KT 10SM BKN010 BKN015 OVC027 21/19 A2987 RMK AO2 RAE19 CIG 007V013 P0000 $=
200507071034 SPECI KATL 071034Z 21011KT 10SM BKN008 BKN013 OVC027 21/19 A2987 RMK AO2 RAE19 CIG 007V011 P0000 $=
200507071034 SPECI KATL 071034Z 21011KT 10SM BKN008 BKN013 OVC027 21/19 A2987 RMK AO2 RAE19 CIG 007V011 P0000 $=
200507071000 SPECI KATL 071000Z 23008KT 9SM -RA FEW008 SCT014 OVC027 21/19 A2986 RMK AO2 P0000 $=
200507071000 SPECI KATL 071000Z 23008KT 9SM -RA FEW008 SCT014 OVC027 21/19 A2986 RMK AO2 P0000 $=
200507070951 METAR KATL 070951Z 22008KT 6SM -RA BR SCT008 BKN014 OVC025 21/19 A2986 RMK AO2 SLP101 P0002 T02060194 $=
200507070939 SPECI KATL 070939Z 24008KT 6SM -RA BR BKN008 OVC014 21/20 A2986 RMK AO2 CIG 004V012 P0002 $=
200507070939 SPECI KATL 070939Z 24008KT 6SM -RA BR BKN008 OVC014 21/20 A2986 RMK AO2 CIG 004V012 P0002 $=
200507070929 SPECI KATL 070929Z 21006KT 8SM -RA SCT006 BKN012 OVC028 21/20 A2986 RMK AO2 P0001 $=
200507070929 SPECI KATL 070929Z 21006KT 8SM -RA SCT006 BKN012 OVC028 21/20 A2986 RMK AO2 P0001 $=
200507070901 SPECI KATL 070901Z 21007KT 6SM -RA BR FEW007 BKN027 OVC037 21/20 A2985 RMK AO2 P0000 $=
200507070901 SPECI KATL 070901Z 21007KT 6SM -RA BR FEW007 BKN027 OVC037 21/20 A2985 RMK AO2 P0000 $=
200507070851 METAR KATL 070851Z 21011KT 8SM -RA SCT011 BKN023 OVC060 22/20 A2985 RMK AO2 RAB35 SLP099 P0001 60006 T02170200 56011 $=
200507070821 SPECI KATL 070821Z 19007KT 10SM SCT020 BKN026 BKN031 22/21 A2985 RMK AO2 $=
200507070821 SPECI KATL 070821Z 19007KT 10SM SCT020 BKN026 BKN031 22/21 A2985 RMK AO2 $=
200507070751 METAR KATL 070751Z 20007KT 10SM SCT040 BKN047 BKN055 22/21 A2986 RMK AO2 RAE0659 SLP100 P0000 T02220206 $=
200507070704 SPECI KATL 070704Z 19008KT 10SM FEW011 BKN031 OVC040 23/21 A2986 RMK AO2 RAE0659 P0000 $=
200507070704 SPECI KATL 070704Z 19008KT 10SM FEW011 BKN031 OVC040 23/21 A2986 RMK AO2 RAE0659 P0000 $=
200507070651 METAR KATL 070651Z 19008G24KT 4SM -RA BR SCT010 BKN018 OVC036 22/21 A2987 RMK AO2 RAB19 SLP104 P0005 T02220211 $=
200507070644 SPECI KATL 070644Z 18017G24KT 150V210 1 1/2SM -RA BR FEW008 BKN016 OVC038 22/21 A2987 RMK AO2 TWR VIS 2 RAB19 P0002 $=
200507070644 SPECI KATL 070644Z 18017G24KT 150V210 1 1/2SM -RA BR FEW008 BKN016 OVC038 22/21 A2987 RMK AO2 TWR VIS 2 RAB19 P0002 $=
200507070642 SPECI KATL 070642Z 16015G20KT 130V200 2SM -RA BR FEW008 BKN014 OVC038 22/22 A2987 RMK AO2 SFC VIS 4 RAB19 P0002 $=
200507070642 SPECI KATL 070642Z 16015G20KT 130V200 2SM -RA BR FEW008 BKN014 OVC038 22/22 A2987 RMK AO2 SFC VIS 4 RAB19 P0002 $=
200507070602 SPECI KATL 070602Z 10007KT 7SM SCT007 BKN018 OVC028 21/21 A2988 RMK AO2 $=
200507070602 SPECI KATL 070602Z 10007KT 7SM SCT007 BKN018 OVC028 21/21 A2988 RMK AO2 $=
200507070551 METAR KATL 070551Z 09006KT 7SM BKN006 BKN010 OVC015 21/21 A2989 RMK AO2 RAB03E13 CIG 003V008 SLP111 P0000 60508 T02110206 10239 20194 58020 $=
200507070506 SPECI KATL 070506Z 07010KT 9SM -RA FEW006 OVC016 21/20 A2991 RMK AO2 RAB03 P0000 $=
200507070506 SPECI KATL 070506Z 07010KT 9SM -RA FEW006 OVC016 21/20 A2991 RMK AO2 RAB03 P0000 $=
200507070451 METAR KATL 070451Z 07011KT 10SM FEW006 BKN014 OVC020 21/20 A2991 RMK AO2 RAE11 SLP118 P0000 T02110200 402780194 $=
200507070351 METAR KATL 070351Z COR 08013KT 6SM -RA BR SCT004 BKN010 OVC040 21/21 A2994 RMK AO2 TSE48 SLP132 TS MOV NE P0010 T02110206 $=
200507070318 SPECI KATL 070318Z 08009KT 6SM -TSRA BR FEW004 BKN015 OVC040CB 21/21 A2994 RMK AO2 OCNL LTGICCG TS VC NE-SE AND SW-W MOV NE P0005 $=
200507070318 SPECI KATL 070318Z 08009KT 6SM -TSRA BR FEW004 BKN015 OVC040CB 21/21 A2994 RMK AO2 OCNL LTGICCG TS VC NE-SE AND SW-W MOV NE P0005 $=
200507070300 SPECI KATL 070300Z 09008KT 4SM TSRA BR SCT010 BKN018 OVC040CB 22/21 A2995 RMK AO2 OCNL LTGICCG TS NE-SE AND W-NW MOV NE P0004 $=
200507070300 SPECI KATL 070300Z 09008KT 4SM TSRA BR SCT010 BKN018 OVC040CB 22/21 A2995 RMK AO2 OCNL LTGICCG TS NE-SE AND W-NW MOV NE P0004 $=
200507070251 METAR KATL 070251Z 09004KT 7SM -TSRA BR BKN010 BKN020 OVC040CB 22/21 A2995 RMK AO2 WSHFT 0153 SLP133 OCNL LTGICCG TS VC NE-SE MOV NE P0029 60503 T02170206 55001 $=
200507070238 SPECI KATL 070238Z 00000KT 3SM TSRA BR BKN010 BKN025 OVC040CB 22/21 A2996 RMK AO2 WSHFT 0153 FRQ LTGICCG TS N-E-S AND VC NW MOV NE P0028 $=
200507070238 SPECI KATL 070238Z 00000KT 3SM TSRA BR BKN010 BKN025 OVC040CB 22/21 A2996 RMK AO2 WSHFT 0153 FRQ LTGICCG TS N-E-S AND VC NW MOV NE P0028 $=
200507070222 SPECI KATL 070222Z 23008KT 7SM -TSRA SCT010 BKN035CB OVC050 22/21 A2996 RMK AO2 WSHFT 0153 FRQ LTGICCG TS VC NE-SE AND W-N MOV NE P0017 $=
200507070222 SPECI KATL 070222Z 23008KT 7SM -TSRA SCT010 BKN035CB OVC050 22/21 A2996 RMK AO2 WSHFT 0153 FRQ LTGICCG TS VC NE-SE AND W-N MOV NE P0017 $=
200507070209 SPECI KATL 070209Z 14010G18KT 7SM -TSRA BKN010 BKN025 OVC040CB 22/21 A2993 RMK AO2 WSHFT 0153 FRQ LTGICCG TS NE-SE AND W-N MOV NE P0017 $=
200507070209 SPECI KATL 070209Z 14010G18KT 7SM -TSRA BKN010 BKN025 OVC040CB 22/21 A2993 RMK AO2 WSHFT 0153 FRQ LTGICCG TS NE-SE AND W-N MOV NE P0017 $=
200507070201 SPECI KATL 070201Z 16013G20KT 3SM TSRA BR SCT010 BKN025 OVC040CB 22/21 A2994 RMK AO2 FRQ LTGICCG TS E-OHD-W MOV NE P0017 $=
200507070201 SPECI KATL 070201Z 16013G20KT 3SM TSRA BR SCT010 BKN025 OVC040CB 22/21 A2994 RMK AO2 FRQ LTGICCG TS E-OHD-W MOV NE P0017 $=
200507070151 METAR KATL 070151Z 22007G22KT 150V140 1SM R09R/4500VP6000FT +TSRA BR BKN010 BKN025 OVC040CB 21/21 A2994 RMK AO2 WSHFT 0057 SLP129 CONS LTGICCG TS OHD-ALQDS MOV NE P0111 T02110206 $=
200507070122 SPECI KATL 070122Z 02018G25KT 1 1/2SM R09R/4500VP6000FT +TSRA BR SCT010 BKN025 OVC040CB 21/20 A2992 RMK AO2 WSHFT 0057 PRESFR CONS LTGICCG TS OHD-ALQDS MOV NE P0040 $=
200507070122 SPECI KATL 070122Z 02018G25KT 1 1/2SM R09R/4500VP6000FT +TSRA BR SCT010 BKN025 OVC040CB 21/20 A2992 RMK AO2 WSHFT 0057 PRESFR CONS LTGICCG TS OHD-ALQDS MOV NE P0040 $=
200507070114 SPECI KATL 070114Z 02019G24KT 2 1/2SM +TSRA BR FEW005 BKN025 OVC040CB 21/19 A2993 RMK AO2 WSHFT 0057 FRQ LTGICCG TS OHD-ALQDS MOV NE P0027 $=
200507070114 SPECI KATL 070114Z 02019G24KT 2 1/2SM +TSRA BR FEW005 BKN025 OVC040CB 21/19 A2993 RMK AO2 WSHFT 0057 FRQ LTGICCG TS OHD-ALQDS MOV NE P0027 $=
200507070057 SPECI KATL 070057Z 06014G23KT 010V090 2 1/2SM +TSRA BR SCT005 BKN020 OVC040CB 21/19 A2994 RMK AO2 OCNL LTGICCG TS OHD-ALQDS MOV NE P0003 $=
200507070057 SPECI KATL 070057Z 06014G23KT 010V090 2 1/2SM +TSRA BR SCT005 BKN020 OVC040CB 21/19 A2994 RMK AO2 OCNL LTGICCG TS OHD-ALQDS MOV NE P0003 $=
200507070051 METAR KATL 070051Z 36015G26KT 1 1/2SM R09R/2600VP6000FT +TSRA BR BKN005 OVC035CB 21/19 A2992 RMK AO2 PK WND 31040/0020 WSHFT 0005 TWR VIS 2 1/2 SLP126 OCNL LTGICCG TS OHD-ALQDS MOV NE P0358 T02060189 $=
200507070041 SPECI KATL 070041Z 36010G16KT 1/2SM R09R/2000V3500FT +TSRA FG BKN002 OVC035CB 21/20 A2994 RMK AO2 PK WND 31040/0020 WSHFT 0005 TWR VIS 1 1/2 CONS LTGICCG TS OHD-ALQDS MOV NE P0301 $=
200507070041 SPECI KATL 070041Z 36010G16KT 1/2SM R09R/2000V3500FT +TSRA FG BKN002 OVC035CB 21/20 A2994 RMK AO2 PK WND 31040/0020 WSHFT 0005 TWR VIS 1 1/2 CONS LTGICCG TS OHD-ALQDS MOV NE P0301 $=
200507070033 SPECI KATL 070033Z VRB05G19KT 1/4SM R09R/1600V2400FT +TSRA FG BKN002 OVC035CB 20/20 A2995 RMK AO2 PK WND 31040/0020 WSHFT 0005 TWR VIS 1 1/2 PRESRR CONS LTGICCG TS OHD-ALQDS MOV NE P0242 $=
200507070033 SPECI KATL 070033Z VRB05G19KT 1/4SM R09R/1600V2400FT +TSRA FG BKN002 OVC035CB 20/20 A2995 RMK AO2 PK WND 31040/0020 WSHFT 0005 TWR VIS 1 1/2 PRESRR CONS LTGICCG TS OHD-ALQDS MOV NE P0242 $=
200507070023 SPECI KATL 070023Z 31023G39KT 1/2SM R09R/1200V1800FT +TSRA FG BKN005 OVC035CB 19/19 A2986 RMK AO2 PK WND 31040/0020 WSHFT 0005 TWR VIS 1 1/2 CONS LTGICCG TS OHD-ALQDS MOV NE P0142 $=
200507070023 SPECI KATL 070023Z 31023G39KT 1/2SM R09R/1200V1800FT +TSRA FG BKN005 OVC035CB 19/19 A2986 RMK AO2 PK WND 31040/0020 WSHFT 0005 TWR VIS 1 1/2 CONS LTGICCG TS OHD-ALQDS MOV NE P0142 $=
200507070020 SPECI KATL 070020Z 32037KT 1/2SM R09R/1200V3000FT +TSRA FG BKN005 OVC035CB 20/19 A2984 RMK AO2 PK WND 31040/0020 WSHFT 0005 TWR VIS 1 1/2 PRESFR CONS LTGICCG TS OHD-ALQDS MOV NE P0115 $=
200507070020 SPECI KATL 070020Z 32037KT 1/2SM R09R/1200V3000FT +TSRA FG BKN005 OVC035CB 20/19 A2984 RMK AO2 PK WND 31040/0020 WSHFT 0005 TWR VIS 1 1/2 PRESFR CONS LTGICCG TS OHD-ALQDS MOV NE P0115 $=
200507070013 SPECI KATL 070013Z 02023KT 3/4SM R09R/2000V5000FT +TSRA BR BKN010 OVC035CB 23/22 A2992 RMK AO2 PK WND 01026/0013 TWR VIS 1 1/2 PRESFR CONS LTGICCG TS OHD-ALQDS MOV NE P0051 $=
200507070013 SPECI KATL 070013Z 02023KT 3/4SM R09R/2000V5000FT +TSRA BR BKN010 OVC035CB 23/22 A2992 RMK AO2 PK WND 01026/0013 TWR VIS 1 1/2 PRESFR CONS LTGICCG TS OHD-ALQDS MOV NE P0051 $=
200507070004 SPECI KATL 070004Z 05014KT 1 1/4SM R09R/4500VP6000FT +TSRA BR FEW010 BKN020 OVC035CB 23/22 A2994 RMK AO2 TWR VIS 2 1/2 CONS LTGICCG TS OHD-ALQDS MOV NE P0020 $=
200507070004 SPECI KATL 070004Z 05014KT 1 1/4SM R09R/4500VP6000FT +TSRA BR FEW010 BKN020 OVC035CB 23/22 A2994 RMK AO2 TWR VIS 2 1/2 CONS LTGICCG TS OHD-ALQDS MOV NE P0020 $=
200507062355 SPECI KATL 062355Z 06016KT 1 1/2SM +TSRA BR SCT020 BKN035CB OVC060 24/22 A2995 RMK AO2 TWR VIS 2 1/2 FRQ LTGICCG TS NE-OHD-SW MOV NE P0004 $=
200507062355 SPECI KATL 062355Z 06016KT 1 1/2SM +TSRA BR SCT020 BKN035CB OVC060 24/22 A2995 RMK AO2 TWR VIS 2 1/2 FRQ LTGICCG TS NE-OHD-SW MOV NE P0004 $=
200507062351 METAR KATL 062351Z 05014KT 2 1/2SM TSRA BR FEW020 BKN035CB OVC060 24/22 A2995 RMK AO2 TWR VIS 3 TSB27 SLP134 FRQ LTGICCG TS SW-OHD MOV NE P0005 6//// T02390217 10278 20239 56012 $=
200507062327 SPECI KATL 062327Z 05014KT 10SM -TSRA FEW050CB OVC100 24/21 A2993 RMK AO2 TSB27 OCNL LTGICCG TS VC SW MOV NE P0000 $=
200507062327 SPECI KATL 062327Z 05014KT 10SM -TSRA FEW050CB OVC100 24/21 A2993 RMK AO2 TSB27 OCNL LTGICCG TS VC SW MOV NE P0000 $=
200507062251 METAR KATL 062251Z 05014KT 10SM -RA BKN110 OVC150 25/21 A2995 RMK AO2 RAB38 SLP134 P0000 T02500211 $=
200507062151 METAR KATL 062151Z 07010KT 10SM FEW100 BKN140 OVC200 26/21 A2998 RMK AO2 SLP143 T02610206 $=
200507062051 METAR KATL 062051Z 07011KT 10SM FEW040 SCT090 SCT120 OVC150 27/19 A2999 RMK AO2 RAE48 SLP145 VIRGA OHD-NW BINOVC SE P0000 60000 T02670194 $=
200507061951 METAR KATL 061951Z 08007KT 10SM -RA FEW040 SCT090 SCT120 OVC150 27/19 A3001 RMK AO2 RAB49 SLP153 VIRGA NE-SE P0000 T02720189 $=
200507061851 METAR KATL 061851Z 07007KT 10SM FEW070 SCT120 BKN150 BKN250 28/20 A3001 RMK AO2 SLP154 T02780200=
200507061751 METAR KATL 061751Z 10004KT 10SM FEW090 BKN120 OVC150 26/21 A3005 RMK AO2 SLP166 60001 T02610206 10261 20211 56012=
200507061651 METAR KATL 061651Z 09004KT 10SM FEW090 BKN120 OVC150 26/21 A3006 RMK AO2 SLP170 T02560206=
200507061551 METAR KATL 061551Z 00000KT 10SM FEW050 SCT090 OVC150 25/19 A3007 RMK AO2 RAE10 SLP173 VIRGA SE-S P0000 T02500194=
200507061451 METAR KATL 061451Z 31008KT 10SM -RA FEW015 SCT040 SCT090 OVC150 23/21 A3009 RMK AO2 SLP180 P0000 60001 T02280211 50012=
200507061431 SPECI KATL 061431Z 32008KT 8SM -RA FEW020 SCT050 OVC150 22/21 A3008 RMK AO2 P0000=
200507061431 SPECI KATL 061431Z 32008KT 8SM -RA FEW020 SCT050 OVC150 22/21 A3008 RMK AO2 P0000=
200507061358 SPECI KATL 061358Z 31005KT 8SM -RA BKN020 BKN030 BKN050 OVC150 22/20 A3009 RMK AO2 P0000=
200507061358 SPECI KATL 061358Z 31005KT 8SM -RA BKN020 BKN030 BKN050 OVC150 22/20 A3009 RMK AO2 P0000=
200507061351 METAR KATL 061351Z 31004KT 9SM -RA FEW020 BKN040 BKN070 OVC150 22/20 A3009 RMK AO2 RAB27 SLP181 P0001 T02170200=
200507061251 METAR KATL 061251Z 30005KT 10SM FEW050 OVC150 22/20 A3008 RMK AO2 SLP176 T02170200=
200507061151 METAR KATL 061151Z 30003KT 10SM BKN150 BKN210 22/20 A3005 RMK AO2 SLP166 70024 T02170200 10217 20200 53014=
200507061051 METAR KATL 061051Z 00000KT 10SM BKN150 BKN210 21/19 A3003 RMK AO2 SLP160 T02060194=
200507060951 METAR KATL 060951Z 00000KT 10SM BKN150 21/19 A3001 RMK AO2 SLP152 T02060194=
200507060851 METAR KATL 060851Z COR 00000KT 10SM FEW030 BKN150 21/19 A3001 RMK AO2 SLP151 T02060194 55008=
200507060751 METAR KATL 060751Z 00000KT 10SM SCT150 21/20 A3000 RMK AO2 SLP149 T02110200=
200507060651 METAR KATL 060651Z 00000KT 10SM FEW100 SCT150 21/20 A3001 RMK AO2 SLP152 T02110200=
200507060551 METAR KATL 060551Z 00000KT 10SM FEW100 BKN150 22/20 A3003 RMK AO2 SLP158 60024 T02170200 10272 20211 58031=
200507060451 METAR KATL 060451Z 00000KT 10SM FEW100 BKN150 21/20 A3007 RMK AO2 RAE0357 SLP173 P0000 T02110200 403170211=
200507060351 METAR KATL 060351Z 28006KT 9SM -RA SCT035 BKN070 OVC100 22/20 A3010 RMK AO2 RAB0259 SLP184 P0014 T02170200=
200507060251 METAR KATL 060251Z 32009KT 10SM FEW020 BKN035 OVC070 22/20 A3012 RMK AO2 TSE51RAE51 SLP191 TS MOV E P0010 60010 T02220200 53022=
200507060151 METAR KATL 060151Z 30006KT 9SM -TSRA FEW020 SCT040CB OVC060 22/19 A3010 RMK AO2 WSHFT 0111 TSB07RAB29 SLP185 OCNL LTGIC TS NE-E AND VC W MOV E P0000 T02170194=
200507060131 SPECI KATL 060131Z 34014G19KT 5SM -TSRA SCT025 BKN035CB BKN120 OVC150 24/19 A3011 RMK AO2 WSHFT 0111 TSB07RAB29 PRESRR FRQ LTGIC TS W-N MOV E P0000=
200507060131 SPECI KATL 060131Z 34014G19KT 5SM -TSRA SCT025 BKN035CB BKN120 OVC150 24/19 A3011 RMK AO2 WSHFT 0111 TSB07RAB29 PRESRR FRQ LTGIC TS W-N MOV E P0000=
200507060107 SPECI KATL 060107Z 23005KT 10SM TS FEW040CB BKN065 BKN120 OVC150 27/22 A3008 RMK AO2 TSB07 FRQ LTGICCG TS VC W-N MOV E=
200507060107 SPECI KATL 060107Z 23005KT 10SM TS FEW040CB BKN065 BKN120 OVC150 27/22 A3008 RMK AO2 TSB07 FRQ LTGICCG TS VC W-N MOV E=
200507060051 METAR KATL 060051Z 23006KT 10SM FEW040 SCT065 BKN140 OVC200 27/22 A3007 RMK AO2 SLP171 LTG DSNT W-N CB DSNT W-N T02720222=
200507052351 METAR KATL 052351Z 22006KT 10SM FEW100 BKN140 BKN200 BKN250 27/22 A3006 RMK AO2 SLP169 CB DSNT NW-N T02720217 10317 20272 53002=
200507052251 METAR KATL 052251Z 22009G15KT 10SM FEW040 BKN140 BKN200 28/21 A3005 RMK AO2 SLP165 TCU DSNT NE T02780206=
200507052151 METAR KATL 052151Z 23009KT 10SM FEW040 BKN150 OVC250 28/21 A3005 RMK AO2 SLP165 TCU DSNT NE T02830206=
200507052051 METAR KATL 052051Z 20017KT 10SM FEW043 SCT150 BKN250 29/21 A3005 RMK AO2 SLP165 CB DSNT E AND NW SHRA DSNT NW T02890206 56018=
200507051951 METAR KATL 051951Z 24008KT 10SM FEW045TCU SCT150 BKN250 32/20 A3006 RMK AO2 SLP168 CB DSNT SE-SW TCU NE-SE AND DSNT SW-NW T03170200=
200507051851 METAR KATL 051851Z 25008KT 10SM FEW035CB SCT045TCU SCT150 BKN250 31/22 A3008 RMK AO2 SLP175 CB N MOV E TCU N-NE AND OHD-NW SHRA N T03110217=
200507051751 METAR KATL 051751Z 29007KT 10SM FEW035CB SCT045TCU BKN250 30/22 A3011 RMK AO2 SLP184 CB E MOV E TCU ALQDS SHRA E T03000217 10300 20233 58006=
200507051651 METAR KATL 051651Z VRB06KT 10SM SCT030TCU SCT250 29/22 A3013 RMK AO2 SLP191 TCU N-NE AND SW-W MDT CU ALQDS T02890217=
200507051551 METAR KATL 051551Z 28006KT 10SM SCT020TCU SCT250 28/23 A3014 RMK AO2 SLP194 TCU DSNT N-NE AND VC SW T02830228=
200507051451 METAR KATL 051451Z 25008KT 9SM FEW016 SCT150 SCT250 27/22 A3012 RMK AO2 SLP189 T02720222 50003=
200507051351 METAR KATL 051351Z 24009KT 8SM FEW014 SCT150 SCT250 26/22 A3012 RMK AO2 SLP191 T02610222=
200507051319 SPECI KATL 051319Z 23007KT 8SM SCT009 BKN150 BKN250 25/22 A3012 RMK AO2=
200507051319 SPECI KATL 051319Z 23007KT 8SM SCT009 BKN150 BKN250 25/22 A3012 RMK AO2=
200507051251 METAR KATL 051251Z 23006KT 6SM BR BKN007 BKN200 BKN250 24/22 A3012 RMK AO2 CIG 007V011 SLP191 T02440222=
200507051201 SPECI KATL 051201Z 22007KT 5SM BR SCT003 SCT007 BKN200 BKN250 23/22 A3012 RMK AO2 $=
200507051201 SPECI KATL 051201Z 22007KT 5SM BR SCT003 SCT007 BKN200 BKN250 23/22 A3012 RMK AO2 $=
200507051151 METAR KATL 051151Z 23007KT 5SM BR BKN003 BKN007 BKN200 BKN250 23/22 A3011 RMK AO2 SLP188 70006 T02330222 10233 20228 53010 $=
200507051142 SPECI KATL 051142Z 24006KT 2SM BR OVC003 23/22 A3011 RMK AO2 SFC VIS 3 CIG 001V005=
200507051142 SPECI KATL 051142Z 24006KT 2SM BR OVC003 23/22 A3011 RMK AO2 SFC VIS 3 CIG 001V005=
200507051122 SPECI KATL 051122Z 21004KT 1SM BR OVC001 23/22 A3011 RMK AO2 SFC VIS 2 1/2=
200507051122 SPECI KATL 051122Z 21004KT 1SM BR OVC001 23/22 A3011 RMK AO2 SFC VIS 2 1/2=
200507051105 SPECI KATL 051105Z 21004KT 1 1/2SM BR OVC003 23/22 A3011 RMK AO2 SFC VIS 2 1/2=
200507051105 SPECI KATL 051105Z 21004KT 1 1/2SM BR OVC003 23/22 A3011 RMK AO2 SFC VIS 2 1/2=
200507051051 METAR KATL 051051Z 20005KT 2SM BR BKN003 BKN230 23/22 A3011 RMK AO2 SFC VIS 3 SLP184 T02280222 $=
200507051035 SPECI KATL 051035Z 23004KT 2SM BR SCT003 SCT013 SCT032 BKN150 BKN230 23/22 A3009 RMK AO2 SFC VIS 4 $=
200507051035 SPECI KATL 051035Z 23004KT 2SM BR SCT003 SCT013 SCT032 BKN150 BKN230 23/22 A3009 RMK AO2 SFC VIS 4 $=
200507051023 SPECI KATL 051023Z 00000KT 5SM BR SCT003 SCT013 SCT032 BKN150 BKN230 23/22 A3009 RMK AO2 $=
200507051023 SPECI KATL 051023Z 00000KT 5SM BR SCT003 SCT013 SCT032 BKN150 BKN230 23/22 A3009 RMK AO2 $=
200507050951 METAR KATL 050951Z 00000KT 5SM BR FEW013 SCT032 SCT150 BKN230 23/22 A3009 RMK AO2 SLP179 T02280217 $=
200507050851 METAR KATL 050851Z 27004KT 6SM BR FEW020 SCT200 23/22 A3008 RMK AO2 SLP176 T02280217 56011 $=
200507050751 METAR KATL 050751Z 25006KT 6SM BR SCT200 23/22 A3009 RMK AO2 SLP177 T02330217 $=
200507050651 METAR KATL 050651Z 00000KT 6SM BR SCT200 23/22 A3010 RMK AO2 SLP182 T02280217 $=
200507050551 METAR KATL 050551Z 00000KT 6SM BR SCT200 23/22 A3012 RMK AO2 SLP189 60000 T02330217 10256 20228 58007 $=
200507050451 METAR KATL 050451Z 16003KT 3SM BR CLR 23/22 A3013 RMK AO2 SLP195 T02330217 403000222 $=
200507050351 METAR KATL 050351Z 00000KT 5SM BR FEW005 24/22 A3014 RMK AO2 SLP198 T02390222 $=
200507050251 METAR KATL 050251Z 00000KT 10SM SCT070 SCT110 24/21 A3014 RMK AO2 SLP198 60000 T02440211 51012 $=
200507050151 METAR KATL 050151Z 00000KT 10SM FEW019 24/22 A3014 RMK AO2 SLP197 T02440217 $=
200507050051 METAR KATL 050051Z COR 25006KT 10SM FEW040 SCT095 SCT130 25/22 A3013 RMK AO2 TSE11 RAB2353E14 SLP195 TS MOV E P0000 T02500222 $=
200507050014 SPECI KATL 050014Z 26005KT 9SM TS SCT023 SCT040 BKN130 OVC250 26/23 A3013 RMK AO2 TSE11B14RAB2353E14 TS MOV E P0000 $=
200507050014 SPECI KATL 050014Z 26005KT 9SM TS SCT023 SCT040 BKN130 OVC250 26/23 A3013 RMK AO2 TSE11B14RAB2353E14 TS MOV E P0000 $=
200507050010 SPECI KATL 050010Z 25005KT 8SM -TSRA SCT023 26/23 A3012 RMK AO2 RAB2353 P0000 $=
200507050010 SPECI KATL 050010Z 25005KT 8SM -TSRA SCT023 26/23 A3012 RMK AO2 RAB2353 P0000 $=
200507042351 METAR KATL 042351Z 25004KT 10SM TS SCT021 BKN041CB 26/23 A3010=
200507042251 METAR KATL 042251Z 21006KT 10SM SCT070 BKN130 BKN250 29/21 A3008 RMK AO2 SLP176 T02940211 $=
200507042151 METAR KATL 042151Z COR 15006KT 10SM SCT035 SCT130 BKN250 29/22 A3009 RMK AO2 SLP178 T02940217 $=
200507042051 METAR KATL 042051Z 18006KT 10SM SCT050 OVC130 29/21 A3009 RMK AO2 SLP177 T02940211 56020 $=
200507041951 METAR KATL 041951Z 23006KT 10SM BKN034 BKN180 30/21 A3010 RMK AO2 SLP180 T03000206 $=
200507041851 METAR KATL 041851Z 22003KT 10SM SCT026 BKN032 BKN041 29/21 A3012 RMK AO2 SLP189 T02890211 $=
200507041839 SPECI KATL 041839Z 00000KT 10SM SCT026 BKN032 BKN041 28/21 A3013 RMK AO2 $=
200507041839 SPECI KATL 041839Z 00000KT 10SM SCT026 BKN032 BKN041 28/21 A3013 RMK AO2 $=
200507041751 METAR KATL 041751Z 21003KT 10SM BKN021 BKN035 BKN041 27/22 A3015 RMK AO2 SLP199 T02720222 10278 20222 50004 $=
200507041738 SPECI KATL 041738Z VRB03KT 9SM BKN019 BKN038 28/22 A3015 RMK AO2 $=
200507041738 SPECI KATL 041738Z VRB03KT 9SM BKN019 BKN038 28/22 A3015 RMK AO2 $=
200507041731 SPECI KATL 041731Z 18003KT 9SM SCT019 BKN031 BKN039 27/22 A3015 RMK AO2 $=
200507041731 SPECI KATL 041731Z 18003KT 9SM SCT019 BKN031 BKN039 27/22 A3015 RMK AO2 $=
200507041651 METAR KATL 041651Z 00000KT 8SM BKN018 OVC020 26/22 A3015 RMK AO2 SLP201 T02560217 $=
200507041633 SPECI KATL 041633Z 00000KT 7SM OVC018 26/22 A3015 RMK AO2 $=
200507041633 SPECI KATL 041633Z 00000KT 7SM OVC018 26/22 A3015 RMK AO2 $=
200507041551 METAR KATL 041551Z 15003KT 7SM BKN010 OVC012 24/22 A3014 RMK AO2 SLP198 T02440217 $=
200507041451 METAR KATL 041451Z 00000KT 3SM BR BKN010 OVC012 24/22 A3013 RMK AO2 SFC VIS 5 SLP195 T02390217 51012 $=
200507041430 SPECI KATL 041430Z 00000KT 3SM HZ SCT007 OVC012 24/22 A3013 RMK AO2 SFC VIS 4 $=
200507041430 SPECI KATL 041430Z 00000KT 3SM HZ SCT007 OVC012 24/22 A3013 RMK AO2 SFC VIS 4 $=
200507041410 SPECI KATL 041410Z 00000KT 2SM BR OVC007 23/22 A3013 RMK AO2 SFC VIS 4 CIG 004V010 $=
200507041410 SPECI KATL 041410Z 00000KT 2SM BR OVC007 23/22 A3013 RMK AO2 SFC VIS 4 CIG 004V010 $=
200507041351 METAR KATL 041351Z 00000KT 2SM BR OVC004 23/22 A3013 RMK AO2 SFC VIS 3 CIG 002V008 SLP195 T02330217 $=
200507041325 SPECI KATL 041325Z 00000KT 1 1/2SM BR OVC002 23/22 A3013 RMK AO2 SFC VIS 2 1/2 $=
200507041325 SPECI KATL 041325Z 00000KT 1 1/2SM BR OVC002 23/22 A3013 RMK AO2 SFC VIS 2 1/2 $=
200507041251 METAR KATL 041251Z 07004KT 1/4SM R09R/5000VP6000FT BR OVC002 22/22 A3012 RMK AO2 SFC VIS 3/4 SLP191 T02220217 $=
200507041227 SPECI KATL 041227Z 00000KT 1/2SM R09R/P6000FT BR OVC004 23/22 A3011 RMK AO2 SFC VIS 3/4 $=
200507041227 SPECI KATL 041227Z 00000KT 1/2SM R09R/P6000FT BR OVC004 23/22 A3011 RMK AO2 SFC VIS 3/4 $=
200507041151 METAR KATL 041151Z 11005KT 1 1/2SM BR OVC004 22/22 A3010 RMK AO2 SFC VIS 2 SLP183 70007 T02220217 10228 20222 53015 $=
200507041051 METAR KATL 041051Z 00000KT 5SM BR OVC004 23/22 A3007 RMK AO2 SLP174 T02280217 $=
200507040951 METAR KATL 040951Z 11004KT 5SM BR OVC006 23/21 A3006 RMK AO2 SLP168 T02280211 $=
200507040851 METAR KATL 040851Z 08006KT 5SM BR BKN008 BKN180 23/21 A3005 RMK AO2 SLP165 T02280211 58000 $=
200507040751 METAR KATL 040751Z 09006KT 5SM BR OVC006 23/22 A3006 RMK AO2 CIG 004V008 SLP167 T02280217 $=
200507040740 SPECI KATL 040740Z 09007KT 4SM BR BKN006 BKN180 23/22 A3006 RMK AO2 CIG 004V008 $=
200507040740 SPECI KATL 040740Z 09007KT 4SM BR BKN006 BKN180 23/22 A3006 RMK AO2 CIG 004V008 $=
200507040651 METAR KATL 040651Z 08006KT 5SM BR FEW007 BKN180 23/22 A3006 RMK AO2 SLP167 T02280217 $=
200507040551 METAR KATL 040551Z 00000KT 7SM SCT007 BKN180 23/21 A3005 RMK AO2 SLP166 60000 T02280211 10267 20222 53002 $=
200507040541 SPECI KATL 040541Z 00000KT 7SM SCT007 BKN180 23/21 A3005 RMK AO2 $=
200507040541 SPECI KATL 040541Z 00000KT 7SM SCT007 BKN180 23/21 A3005 RMK AO2 $=
200507040510 SPECI KATL 040510Z 25003KT 7SM BKN007 OVC180 23/21 A3006 RMK AO2 $=
200507040510 SPECI KATL 040510Z 25003KT 7SM BKN007 OVC180 23/21 A3006 RMK AO2 $=
200507040451 METAR KATL 040451Z 00000KT 8SM FEW007 SCT100 SCT150 23/21 A3005 RMK AO2 SLP165 T02280206 403000228 $=
200507040351 METAR KATL 040351Z 12005KT 10SM FEW100 SCT150 23/21 A3004 RMK AO2 SLP163 T02280206 $=
200507040251 METAR KATL 040251Z 11006KT 9SM FEW100 BKN150 24/21 A3005 RMK AO2 SLP164 60000 T02390206 51021 $=
200507040151 METAR KATL 040151Z COR 12006KT 6SM BR SCT100 BKN150 24/23 A3002 RMK AO2 RAB0057E07 SLP154 P0000 T02440228 $=
200507040119 SPECI KATL 040119Z 00000KT 6SM BR FEW014 SCT021 BKN110 24/23 A3002 RMK AO2 RAB0057E07 P0000 $=
200507040119 SPECI KATL 040119Z 00000KT 6SM BR FEW014 SCT021 BKN110 24/23 A3002 RMK AO2 RAB0057E07 P0000 $=
200507040051 METAR KATL 040051Z 18003KT 5SM BR FEW011 BKN016 OVC024 26/23 A3002 RMK AO2 RAB28E41 SLP155 P0000 T02560233 $=
200507032351 METAR KATL 032351Z 06006KT 5SM HZ SCT022 BKN150 BKN240 27/24 A2998 RMK AO2 RAB01E51 SLP143 P0007 60007 T02670239 10300 20250 51009 $=
200507032329 SPECI KATL 032329Z 04008KT 4SM -RA BKN021 26/23 A2998 RMK AO2 RAB01 P0007 $=
200507032329 SPECI KATL 032329Z 04008KT 4SM -RA BKN021 26/23 A2998 RMK AO2 RAB01 P0007 $=
200507032322 SPECI KATL 032322Z 05011KT 2 1/2SM -RA OVC028 26/23 A2998 RMK AO2 RAB01 P0007 $=
200507032322 SPECI KATL 032322Z 05011KT 2 1/2SM -RA OVC028 26/23 A2998 RMK AO2 RAB01 P0007 $=
200507032313 SPECI KATL 032313Z 06011KT 2SM RA BKN030 26/23 A2999 RMK AO2 RAB01 P0003 $=
200507032313 SPECI KATL 032313Z 06011KT 2SM RA BKN030 26/23 A2999 RMK AO2 RAB01 P0003 $=
200507032251 METAR KATL 032251Z 05011KT 5SM HZ SCT045 SCT050 BKN100 28/22 A2998 RMK AO2 SLP141 T02780222 $=
200507032151 METAR KATL 032151Z 05005KT 7SM BKN031 BKN130 29/21 A2997 RMK AO2 SLP138 T02890211 $=
200507032051 METAR KATL 032051Z VRB05KT 9SM FEW040 BKN130 29/21 A2995 RMK AO2 SLP132 T02940206 58010 $=
200507031951 METAR KATL 031951Z 05009KT 10SM SCT080 BKN150 29/18 A2996 RMK AO2 SLP134 T02890183 $=
200507031851 METAR KATL 031851Z 01014KT 8SM BKN031TCU BKN047 27/19 A2998 RMK AO2 WSHFT 1809 TSB10E48 SLP142 TCU E-SE T02670189 $=
200507031829 SPECI KATL 031829Z 36009KT 10SM TS BKN031CB BKN070 26/19 A3000 RMK AO2 WSHFT 1809 TSB10 FRQ LTGCG TS OHD AND N-NE MOV E $=
200507031829 SPECI KATL 031829Z 36009KT 10SM TS BKN031CB BKN070 26/19 A3000 RMK AO2 WSHFT 1809 TSB10 FRQ LTGCG TS OHD AND N-NE MOV E $=
200507031816 SPECI KATL 031816Z 35012G22KT 9SM TS BKN031CB BKN070 26/19 A2999 RMK AO2 TSB10 FRQ LTGCG TS OHD AND N-NE MOV E $=
200507031816 SPECI KATL 031816Z 35012G22KT 9SM TS BKN031CB BKN070 26/19 A2999 RMK AO2 TSB10 FRQ LTGCG TS OHD AND N-NE MOV E $=
200507031751 METAR KATL 031751Z 14008KT 7SM SCT033TCU BKN060 BKN075 29/21 A2999 RMK AO2 SLP143 TCU N-E AND W-NW T02890211 10300 20239 58001 $=
200507031651 METAR KATL 031651Z 00000KT 7SM BKN040 BKN130 29/21 A3000 RMK AO2 SLP147 T02890211 $=
200507031551 METAR KATL 031551Z 00000KT 7SM SCT085 BKN130 27/22 A3000 RMK AO2 SLP148 T02720222 $=
200507031451 METAR KATL 031451Z 00000KT 9SM SCT090 OVC130 27/21 A2999 RMK AO2 SLP144 T02670211 51010 $=
200507031351 METAR KATL 031351Z 00000KT 8SM FEW016 BKN180 26/21 A2998 RMK AO2 SLP141 T02560211 $=
200507031251 METAR KATL 031251Z 23005KT 9SM BKN040 BKN050 BKN070 24/21 A2997 RMK AO2 SLP137 T02440206 $=
200507031151 METAR KATL 031151Z 27004KT 6SM HZ BKN180 24/21 A2996 RMK AO2 SLP133 70001 T02390211 10256 20233 51020 $=
200507031051 METAR KATL 031051Z 00000KT 5SM BR FEW120 BKN180 23/22 A2995 RMK AO2 SLP130 T02330217 $=
200507030951 METAR KATL 030951Z 20003KT 5SM BR SCT044 OVC120 24/22 A2993 RMK AO2 SLP122 T02390222 $=
200507030851 METAR KATL 030851Z 00000KT 5SM BR SCT006 BKN180 24/23 A2990 RMK AO2 SLP112 T02390228 55005 $=
200507030841 SPECI KATL 030841Z 00000KT 5SM BR SCT006 BKN180 24/23 A2989 RMK AO2 $=
200507030841 SPECI KATL 030841Z 00000KT 5SM BR SCT006 BKN180 24/23 A2989 RMK AO2 $=
200507030751 METAR KATL 030751Z 22003KT 5SM BR SCT120 BKN180 24/23 A2988 RMK AO2 SLP107 T02390228 $=
200507030651 METAR KATL 030651Z 00000KT 6SM HZ FEW075 BKN180 26/23 A2990 RMK AO2 SLP113 T02560228 $=
200507030551 METAR KATL 030551Z 00000KT 8SM SCT065 BKN180 26/22 A2991 RMK AO2 SLP117 60001 T02560222 10294 20256 50002 $=
200507030451 METAR KATL 030451Z 00000KT 8SM FEW050 BKN180 26/22 A2991 RMK AO2 SLP117 T02610222 403170211 $=
200507030351 METAR KATL 030351Z 02004KT 9SM SCT080 BKN120 26/23 A2991 RMK AO2 TSB04E22RAB14E42 SLP117 TS DSPTD P0001 T02560233 $=
200507030323 SPECI KATL 030323Z 33005KT 8SM -RA BKN045 BKN120 26/22 A2991 RMK AO2 TSB04E22RAB14 TS DSPTD P0000 $=
200507030323 SPECI KATL 030323Z 33005KT 8SM -RA BKN045 BKN120 26/22 A2991 RMK AO2 TSB04E22RAB14 TS DSPTD P0000 $=
200507030305 SPECI KATL 030305Z 00000KT 9SM TS SCT050CB BKN060 27/21 A2991 RMK AO2 TSB04 FREQ LTGICCG TS NW MOV SE $=
200507030305 SPECI KATL 030305Z 00000KT 9SM TS SCT050CB BKN060 27/21 A2991 RMK AO2 TSB04 FREQ LTGICCG TS NW MOV SE $=
200507030251 METAR KATL 030251Z COR 00000KT 10SM SCT050 BKN060 28/21 A2991 RMK AO2 SLP115 LTG DSNT NW T02780206 52019 $=
200507030151 METAR KATL 030151Z 15003KT 10SM SCT050 BKN060 29/21 A2988 RMK AO2 SLP107 T02890206 $=
200507030051 METAR KATL 030051Z 30003KT 9SM SCT040 SCT180 BKN250 28/21 A2987 RMK AO2 SLP104 T02830206 $=
200507022351 METAR KATL 022351Z 26005KT 10SM SCT040 SCT140 BKN250 29/19 A2985 RMK AO2 SLP096 T02940194 10317 20294 53001 $=
200507022251 METAR KATL 022251Z 27006KT 10SM SCT050 BKN250 31/20 A2983 RMK AO2 SLP090 T03060200 $=
200507022151 METAR KATL 022151Z 24008KT 10SM SCT050 SCT100 BKN250 31/20 A2984 RMK AO2 SLP094 T03110200 $=
200507022051 METAR KATL 022051Z 32007KT 10SM FEW050 SCT100 SCT250 32/19 A2985 RMK AO2 SLP095 T03170194 56018 $=
200507021951 METAR KATL 021951Z 26007KT 10SM FEW050 SCT200 32/19 A2985 RMK AO2 SLP098 T03170194 $=
200507021851 METAR KATL 021851Z 26008KT 6SM HZ FEW045 31/21 A2988 RMK AO2 SLP107 MDT CU DSNT SE-W AND DSNT NW-N T03110206 $=
200507021751 METAR KATL 021751Z VRB05KT 8SM SCT045TCU SCT200 31/21 A2990 RMK AO2 SLP113 TCU E AND NW MDT CU ALQDS T03110206 10311 20222 58001 $=
200507021651 METAR KATL 021651Z 33003KT 7SM FEW035 SCT200 30/20 A2991 RMK AO2 SLP116 VIS LWR E-S HZ T03000200 $=
200507021631 SPECI KATL 021631Z 00000KT 6SM HZ FEW035 SCT200 29/21 A2991 RMK AO2 $=
200507021631 SPECI KATL 021631Z 00000KT 6SM HZ FEW035 SCT200 29/21 A2991 RMK AO2 $=
200507021551 METAR KATL 021551Z 32007KT 5SM HZ FEW030 SCT150 SCT200 29/20 A2991 RMK AO2 SLP117 T02940200 $=
200507021451 METAR KATL 021451Z 28006KT 8SM FEW020 SCT100 SCT150 BKN200 27/22 A2990 RMK AO2 SLP115 T02720217 51009 $=
200507021351 METAR KATL 021351Z COR 32007KT 7SM FEW015 SCT100 SCT200 26/22 A2990 RMK AO2 SLP114 T02610222 $=
200507021251 METAR KATL 021251Z 30007KT 8SM BKN250 24/21 A2989 RMK AO2 SLP113 T02390211 $=
200507021151 METAR KATL 021151Z 29004KT 8SM BKN250 22/21 A2988 RMK AO2 SLP107 70049 T02220206 10228 20211 53008 $=
200507021051 METAR KATL 021051Z 29008KT 6SM BR SCT250 21/20 A2986 RMK AO2 SLP104 T02110200 $=
200507020951 METAR KATL 020951Z 28003KT 8SM FEW250 22/20 A2986 RMK AO2 SLP100 T02170200 $=
200507020851 METAR KATL 020851Z 27003KT 8SM SCT250 21/21 A2985 RMK AO2 SLP099 T02110206 55008=
200507020751 METAR KATL 020751Z 27003KT 6SM BR BKN250 22/21 A2985 RMK AO2 SLP096 T02170206=
200507020651 METAR KATL 020651Z 28005KT 6SM BR BKN250 22/21 A2986 RMK AO2 SLP101 T02220206=
200507020551 METAR KATL 020551Z 00000KT 6SM BR BKN250 22/21 A2988 RMK AO2 SLP105 T02220211 10256 20222 50000=
200507020451 METAR KATL 020451Z 28003KT 9SM FEW150 SCT250 22/21 A2988 RMK AO2 SLP107 T02220211 403280222=
200507020351 METAR KATL 020351Z 29006KT 9SM FEW150 SCT250 23/21 A2988 RMK AO2 SLP107 T02330211=
200507020251 METAR KATL 020251Z 31004KT 10SM FEW150 BKN250 24/21 A2987 RMK AO2 SLP105 T02390211 53002=
200507020151 METAR KATL 020151Z 26003KT 9SM FEW150 SCT200 BKN250 24/22 A2986 RMK AO2 SLP102 T02390217=
200507020051 METAR KATL 020051Z 26005KT 9SM SCT150 BKN200 BKN250 24/22 A2986 RMK AO2 SLP103 T02440217=
200507012351 METAR KATL 012351Z 00000KT 8SM FEW100 BKN150 OVC200 25/22 A2987 RMK AO2 SLP104 60049 T02500222 10328 20228 50010=
200507012251 METAR KATL 012251Z 28006KT 8SM FEW100 BKN150 OVC200 24/22 A2987 RMK AO2 TSE32RAE32 SLP105 P0000 T02440217=
200507012233 SPECI KATL 012233Z 26005KT 7SM FEW040 SCT100 OVC150 24/22 A2987 RMK AO2 TSE32RAE32 LTG DSNT SE-S CB DSNT SE-S TS MOV SE P0000=
200507012233 SPECI KATL 012233Z 26005KT 7SM FEW040 SCT100 OVC150 24/22 A2987 RMK AO2 TSE32RAE32 LTG DSNT SE-S CB DSNT SE-S TS MOV SE P0000=
200507012151 METAR KATL 012151Z 22005KT 7SM -TSRA FEW040CB BKN080 OVC150 24/23 A2985 RMK AO2 PK WND 29039/2112 SLP100 FRQ LTGICCG TS VC SE-SW MOV SE P0049 T02440228=
200507012136 SPECI KATL 012136Z 32005KT 4SM R09R/4500VP6000FT TSRA BR FEW010 BKN040CB OVC060 24/22 A2984 RMK AO2 PK WND 29039/2112 OCNL LTGICCG TS SE-SW MOV SE P0045=
200507012136 SPECI KATL 012136Z 32005KT 4SM R09R/4500VP6000FT TSRA BR FEW010 BKN040CB OVC060 24/22 A2984 RMK AO2 PK WND 29039/2112 OCNL LTGICCG TS SE-SW MOV SE P0045=
200507012129 SPECI KATL 012129Z 30008KT 2 1/2SM R09R/5500VP6000FT +TSRA BR FEW010 BKN040CB OVC060 23/21 A2984 RMK AO2 PK WND 29039/2112 OCNL LTGICCG TS OHD-ALQDS MOV SE P0041=
200507012129 SPECI KATL 012129Z 30008KT 2 1/2SM R09R/5500VP6000FT +TSRA BR FEW010 BKN040CB OVC060 23/21 A2984 RMK AO2 PK WND 29039/2112 OCNL LTGICCG TS OHD-ALQDS MOV SE P0041=
200507012119 SPECI KATL 012119Z 30012G39KT 1 1/2SM R09R/3000VP6000FT +TSRA FEW010 BKN040CB OVC060 24/17 A2986 RMK AO2 PK WND 29039/2112 FRQ LTGICCG TS E-OHD-W MOV SE P0023=
200507012119 SPECI KATL 012119Z 30012G39KT 1 1/2SM R09R/3000VP6000FT +TSRA FEW010 BKN040CB OVC060 24/17 A2986 RMK AO2 PK WND 29039/2112 FRQ LTGICCG TS E-OHD-W MOV SE P0023=
200507012116 SPECI KATL 012116Z 31019G39KT 2SM R09R/3000VP6000FT +TSRA BKN040CB BKN055 BKN250 24/17 A2986 RMK AO2 PK WND 29039/2112 PRESRR FRQ LTGICCG TS SW-NW-N AND E MOV SE P0016=
200507012116 SPECI KATL 012116Z 31019G39KT 2SM R09R/3000VP6000FT +TSRA BKN040CB BKN055 BKN250 24/17 A2986 RMK AO2 PK WND 29039/2112 PRESRR FRQ LTGICCG TS SW-NW-N AND E MOV SE P0016=
200507012051 METAR KATL 012051Z 32015G26KT 6SM -TSRA BLDU BKN040CB BKN050 BKN250 28/19 A2984 RMK AO2 PK WND 32026/2043 TSB36RAB51 SLP093 FRQ LTGICCG TS W-N MOV SE SHRA VC W-N P0000 60000 T02780194 56016=
200507012037 SPECI KATL 012037Z 30009KT 6SM TS HZ FEW040CB SCT050TCU BKN250 32/21 A2984 RMK AO2 TSB36 OCNL LTGICCG TS VC NW MOV SE TCU E-SE SHRA VC NW=
200507012037 SPECI KATL 012037Z 30009KT 6SM TS HZ FEW040CB SCT050TCU BKN250 32/21 A2984 RMK AO2 TSB36 OCNL LTGICCG TS VC NW MOV SE TCU E-SE SHRA VC NW=
200507011951 METAR KATL 011951Z COR 26010G14KT 7SM SCT055TCU SCT250 33/20 A2984 RMK AO2 SLP094 TCU N-NE AND SE-S T03280200=
200507011851 METAR KATL 011851Z 28005KT 5SM HZ FEW050TCU SCT250 32/21 A2986 RMK AO2 SLP100 TCU E AND NW MDT CU ALQDS T03220211=
200507011751 METAR KATL 011751Z 26006KT 6SM HZ FEW045TCU 32/21 A2989 RMK AO2 SLP108 TCU N T03170206 10322 20239 58014=
200507011651 METAR KATL 011651Z 29005KT 6SM HZ SCT035TCU 31/22 A2992 RMK AO2 SLP118 TCU NE-E AND NW T03110217=
200507011551 METAR KATL 011551Z 33007KT 6SM HZ FEW030 31/22 A2993 RMK AO2 SLP123 T03060222=
200507011451 METAR KATL 011451Z 31007KT 5SM HZ CLR 29/22 A2993 RMK AO2 SLP122 T02940222 51008=
200507011351 METAR KATL 011351Z 29003KT 5SM HZ FEW150 27/22 A2992 RMK AO2 SLP121 T02720222=
200507011251 METAR KATL 011251Z 29007KT 6SM HZ FEW150 SCT210 26/22 A2991 RMK AO2 SLP118 T02560217=
Fallo de consulta: el error es SELECT command denied to user 'users'@'localhost' for table 'tafs_2005'
