##########################################################
# Query made at 04/19/2024 22:53:26 UTC
# Time interval: from 11/01/2005 12:00  to 11/30/2005 12:59  UTC
##########################################################

##########################################################
# KATL, Atlanta, Hartsfield - Jackson Atlanta International Airport (United States)
# WMO index: 72219. WIGOS ID: 0-20000-0-72219
# Latitude 33-38-59N. Longitude 084-25-00W. Altitude 312 m.
##########################################################

200511301251 METAR KATL 301251Z 31015G20KT 10SM CLR 01/M04 A3006 RMK AO2 SLP186 T00111039=
200511301151 METAR KATL 301151Z 32012KT 10SM CLR 01/M04 A3005 RMK AO2 SLP180 T00111039 10044 20011 53010=
200511301051 METAR KATL 301051Z 32014KT 10SM CLR 02/M04 A3003 RMK AO2 SLP173 T00171039=
200511300951 METAR KATL 300951Z 33014KT 10SM CLR 02/M03 A3003 RMK AO2 SLP171 T00221028=
200511300851 METAR KATL 300851Z 31011KT 10SM CLR 03/M02 A3002 RMK AO2 SLP167 T00281022 50004=
200511300751 METAR KATL 300751Z 30012KT 10SM CLR 03/M02 A3002 RMK AO2 SLP167 T00331022=
200511300651 METAR KATL 300651Z 30013KT 10SM CLR 04/M02 A3001 RMK AO2 SLP163 T00391017=
200511300551 METAR KATL 300551Z 30012KT 10SM CLR 04/M01 A3000 RMK AO2 SLP162 T00441011 10106 20044 51001=
200511300451 METAR KATL 300451Z 29012KT 10SM CLR 05/M01 A3001 RMK AO2 SLP161 T00501011 401830050=
200511300351 METAR KATL 300351Z 30010G17KT 10SM CLR 06/M01 A3000 RMK AO2 SLP162 T00611006=
200511300251 METAR KATL 300251Z 30011KT 10SM CLR 07/00 A3000 RMK AO2 SLP160 T00670000 53013=
200511300151 METAR KATL 300151Z 29009KT 10SM CLR 08/01 A2998 RMK AO2 SLP155 T00780006=
200511300051 METAR KATL 300051Z 29012KT 10SM CLR 09/01 A2998 RMK AO2 SLP153 T00890006=
200511292351 METAR KATL 292351Z 27008KT 10SM CLR 11/02 A2996 RMK AO2 SLP146 T01060017 10172 20106 51020=
200511292251 METAR KATL 292251Z 27009KT 10SM CLR 12/02 A2994 RMK AO2 SLP141 T01220017=
200511292151 METAR KATL 292151Z 24011KT 10SM CLR 14/01 A2992 RMK AO2 SLP131 T01440006=
200511292051 METAR KATL 292051Z 24011KT 10SM FEW100 16/01 A2990 RMK AO2 SLP124 T01560006 55004=
200511291951 METAR KATL 291951Z 23016KT 10SM FEW100 16/00 A2989 RMK AO2 SLP121 T01610000=
200511291851 METAR KATL 291851Z 23013G21KT 10SM FEW100 17/00 A2990 RMK AO2 SLP121 T01670000=
200511291751 METAR KATL 291751Z 24015G21KT 10SM FEW100 SCT250 16/02 A2991 RMK AO2 SLP125 T01560022 10161 20106 58008 $=
200511291651 METAR KATL 291651Z 23011KT 10SM FEW100 16/04 A2993 RMK AO2 SLP130 ACC DSNT NE-SE T01560039=
200511291551 METAR KATL 291551Z 26011KT 10SM FEW100 14/07 A2994 RMK AO2 SLP136 T01390067=
200511291451 METAR KATL 291451Z 26008KT 10SM FEW070 BKN080 BKN100 12/07 A2994 RMK AO2 SLP135 T01220072 52024=
200511291351 METAR KATL 291351Z 26005KT 10SM FEW065 BKN095 12/09 A2991 RMK AO2 SLP124 T01170089=
200511291251 METAR KATL 291251Z 25005KT 10SM BKN060 OVC090 11/08 A2989 RMK AO2 SLP119 T01110083=
200511291151 METAR KATL 291151Z 25004KT 10SM OVC055 11/09 A2986 RMK AO2 SLP109 60035 70087 T01060089 10133 20106 53002=
200511291051 METAR KATL 291051Z 29003KT 10SM BKN048 BKN140 OVC200 11/08 A2984 RMK AO2 SLP102 T01060083=
200511290951 METAR KATL 290951Z 33004KT 10SM BKN030 OVC039 11/09 A2983 RMK AO2 RAE26 SLP100 P0002 T01060094=
200511290858 SPECI KATL 290858Z 30003KT 5SM RA BR FEW008 BKN030 OVC070 11/09 A2984 RMK AO2 P0002=
200511290858 SPECI KATL 290858Z 30003KT 5SM RA BR FEW008 BKN030 OVC070 11/09 A2984 RMK AO2 P0002=
200511290851 METAR KATL 290851Z 23006KT 3SM +RA BR BKN027 OVC033 11/09 A2986 RMK AO2 TWR VIS 4 TSB14E44RAE0756B12 PRESRR SLP108 TS MOV NE P0011 60033 T01060089 53016=
200511290816 SPECI KATL 290816Z 29004KT 9SM -TSRA OVC022CB 11/09 A2983 RMK AO2 TSB14RAE0756B12 FRQ LTGICCG TS E-SE AND VC W MOV NE P0000=
200511290816 SPECI KATL 290816Z 29004KT 9SM -TSRA OVC022CB 11/09 A2983 RMK AO2 TSB14RAE0756B12 FRQ LTGICCG TS E-SE AND VC W MOV NE P0000=
200511290751 METAR KATL 290751Z 00000KT 10SM -RA OVC020 11/09 A2983 RMK AO2 SLP100 P0002 T01060089=
200511290735 SPECI KATL 290735Z 29011KT 7SM -RA FEW009 OVC018 11/09 A2983 RMK AO2 P0002=
200511290735 SPECI KATL 290735Z 29011KT 7SM -RA FEW009 OVC018 11/09 A2983 RMK AO2 P0002=
200511290657 SPECI KATL 290657Z 27015G21KT 3SM -RA BR BKN004 OVC012 13/13 A2981 RMK AO2 TWR VIS 4 P0000=
200511290657 SPECI KATL 290657Z 27015G21KT 3SM -RA BR BKN004 OVC012 13/13 A2981 RMK AO2 TWR VIS 4 P0000=
200511290651 METAR KATL 290651Z 26004KT 3SM -RA BR SCT006 OVC010 13/13 A2980 RMK AO2 TWR VIS 4 TSB13E27RAB01 SLP089 TS MOV NE P0020 T01330128=
200511290629 SPECI KATL 290629Z 26015G23KT 6SM -RA BR SCT006 OVC010 14/13 A2982 RMK AO2 TSB13E27RAB01 CIG 007V013 TS MOV NE P0016=
200511290629 SPECI KATL 290629Z 26015G23KT 6SM -RA BR SCT006 OVC010 14/13 A2982 RMK AO2 TSB13E27RAB01 CIG 007V013 TS MOV NE P0016=
200511290620 SPECI KATL 290620Z 26012G18KT 3SM -TSRA BR BKN004 OVC010CB 16/15 A2981 RMK AO2 TWR VIS 4 TSB13RAB01 OCNL LTGIC TS N-NE MOV NE P0015=
200511290620 SPECI KATL 290620Z 26012G18KT 3SM -TSRA BR BKN004 OVC010CB 16/15 A2981 RMK AO2 TWR VIS 4 TSB13RAB01 OCNL LTGIC TS N-NE MOV NE P0015=
200511290617 SPECI KATL 290617Z 25010G18KT 2 1/2SM +TSRA BR OVC004CB 16/15 A2981 RMK AO2 TWR VIS 4 TSB13RAB01 OCNL LTGIC TS N-NE MOV NE P0013=
200511290617 SPECI KATL 290617Z 25010G18KT 2 1/2SM +TSRA BR OVC004CB 16/15 A2981 RMK AO2 TWR VIS 4 TSB13RAB01 OCNL LTGIC TS N-NE MOV NE P0013=
200511290614 SPECI KATL 290614Z 26008G18KT 1 3/4SM +TSRA BR OVC004CB 17/16 A2981 RMK AO2 TWR VIS 4 TSB13RAB01 OCNL LTGIC TS N-NE MOV NE P0009=
200511290614 SPECI KATL 290614Z 26008G18KT 1 3/4SM +TSRA BR OVC004CB 17/16 A2981 RMK AO2 TWR VIS 4 TSB13RAB01 OCNL LTGIC TS N-NE MOV NE P0009=
200511290610 SPECI KATL 290610Z 24010KT 1 3/4SM +RA BR OVC004 18/17 A2981 RMK AO2 TWR VIS 4 RAB01 P0005=
200511290610 SPECI KATL 290610Z 24010KT 1 3/4SM +RA BR OVC004 18/17 A2981 RMK AO2 TWR VIS 4 RAB01 P0005=
200511290607 SPECI KATL 290607Z 22010KT 2SM +RA BR OVC004 18/17 A2981 RMK AO2 TWR VIS 4 RAB01 P0002=
200511290607 SPECI KATL 290607Z 22010KT 2SM +RA BR OVC004 18/17 A2981 RMK AO2 TWR VIS 4 RAB01 P0002=
200511290551 METAR KATL 290551Z 19009KT 10SM OVC006 18/17 A2981 RMK AO2 RAB40E51 SLP090 P0000 60000 T01780167 10183 20178 56006=
200511290451 METAR KATL 290451Z 17011KT 10SM OVC008 18/17 A2981 RMK AO2 TSB24E47 SLP092 TS MOV NE LTG DSNT SW-NW CB DSNT SW-NW T01780167 401830100=
200511290424 SPECI KATL 290424Z 17012G18KT 120V190 10SM TS BKN010 OVC030CB 18/16 A2981 RMK AO2 TSB24 OCNL LTGIC TS VC NE-E MOV NE=
200511290424 SPECI KATL 290424Z 17012G18KT 120V190 10SM TS BKN010 OVC030CB 18/16 A2981 RMK AO2 TSB24 OCNL LTGIC TS VC NE-E MOV NE=
200511290351 METAR KATL 290351Z 17011G18KT 10SM OVC010 18/16 A2982 RMK AO2 RAB0253E01 CIG 009V013 SLP095 P0000 T01780161=
200511290251 METAR KATL 290251Z 16013G21KT 10SM OVC012 18/16 A2983 RMK AO2 SLP097 T01830161 52001=
200511290151 METAR KATL 290151Z 16013G17KT 10SM BKN014 OVC020 18/16 A2983 RMK AO2 SLP100 T01830161=
200511290051 METAR KATL 290051Z 16015G21KT 10SM OVC010 18/16 A2982 RMK AO2 SLP094 T01780161=
200511282351 METAR KATL 282351Z 15011G18KT 10SM OVC010 18/16 A2982 RMK AO2 RAB03E14 SLP096 CIG 008V014 P0000 60003 T01780161 10183 20150 55008=
200511282251 METAR KATL 282251Z 16012G23KT 10SM OVC012 18/16 A2981 RMK AO2 PK WND 15026/2241 RAE01B30E40 SLP093 CIG 009V014 BINOVC P0000 T01780161=
200511282215 SPECI KATL 282215Z 16018G24KT 10SM SCT015 BKN022 BKN120 BKN250 18/16 A2982 RMK AO2 RAE01 P0000=
200511282215 SPECI KATL 282215Z 16018G24KT 10SM SCT015 BKN022 BKN120 BKN250 18/16 A2982 RMK AO2 RAE01 P0000=
200511282151 METAR KATL 282151Z 14017G25KT 10SM -RA SCT015 BKN110 BKN150 BKN250 18/16 A2981 RMK AO2 RAB49 PRESFR SLP093 SCT015 V BKN P0000 T01830156=
200511282118 SPECI KATL 282118Z 16015G22KT 10SM OVC014 18/16 A2985 RMK AO2=
200511282118 SPECI KATL 282118Z 16015G22KT 10SM OVC014 18/16 A2985 RMK AO2=
200511282051 METAR KATL 282051Z 16014G25KT 10SM OVC019 18/16 A2985 RMK AO2 SLP105 60003 T01830156 56019=
200511282024 SPECI KATL 282024Z 15015G20KT 6SM BR BKN016 OVC023 18/16 A2984 RMK AO2=
200511282024 SPECI KATL 282024Z 15015G20KT 6SM BR BKN016 OVC023 18/16 A2984 RMK AO2=
200511281951 METAR KATL 281951Z 15012KT 6SM BR FEW005 BKN010 OVC015 17/16 A2986 RMK AO2 SLP108 BINOVC DSNT S-SW T01720161=
200511281942 SPECI KATL 281942Z 14010G16KT 1 1/2SM BR SCT005 OVC010 17/16 A2986 RMK AO2 SFC VIS 3=
200511281942 SPECI KATL 281942Z 14010G16KT 1 1/2SM BR SCT005 OVC010 17/16 A2986 RMK AO2 SFC VIS 3=
200511281931 SPECI KATL 281931Z 13008KT 1 1/2SM BR SCT003 OVC008 16/16 A2987 RMK AO2 SFC VIS 3 CIG 005V013=
200511281931 SPECI KATL 281931Z 13008KT 1 1/2SM BR SCT003 OVC008 16/16 A2987 RMK AO2 SFC VIS 3 CIG 005V013=
200511281855 SPECI KATL 281855Z 11007KT 3/4SM BR OVC003 16/15 A2989 RMK AO2 SFC VIS 3=
200511281855 SPECI KATL 281855Z 11007KT 3/4SM BR OVC003 16/15 A2989 RMK AO2 SFC VIS 3=
200511281851 METAR KATL 281851Z 12007KT 1 1/2SM BR OVC003 16/15 A2989 RMK AO2 SFC VIS 4 RAE17 SLP119 P0003 T01560150=
200511281751 METAR KATL 281751Z 12009KT 1 1/2SM -RA BR OVC003 15/14 A2991 RMK AO2 SFC VIS 3 RAB1653 SLP126 P0000 60049 T01500144 10150 20111 58019=
200511281714 SPECI KATL 281714Z 09006KT 1 1/2SM -RA BR OVC003 14/14 A2992 RMK AO2 SFC VIS 4 RAB1653 P0000=
200511281714 SPECI KATL 281714Z 09006KT 1 1/2SM -RA BR OVC003 14/14 A2992 RMK AO2 SFC VIS 4 RAB1653 P0000=
200511281705 SPECI KATL 281705Z 10005KT 1/2SM -RA BR OVC003 14/14 A2992 RMK AO2 SFC VIS 3 RAB1653 P0000=
200511281705 SPECI KATL 281705Z 10005KT 1/2SM -RA BR OVC003 14/14 A2992 RMK AO2 SFC VIS 3 RAB1653 P0000=
200511281651 METAR KATL 281651Z 10010KT 1 1/2SM BR OVC003 14/13 A2993 RMK AO2 SFC VIS 4 RAE11 SLP133 P0001 T01390133=
200511281551 METAR KATL 281551Z 10010KT 1 1/2SM -RA BR OVC003 13/13 A2995 RMK AO2 SFC VIS 4 SLP143 P0003 T01330128=
200511281535 SPECI KATL 281535Z 11009KT 1 1/2SM -RA BR OVC003 13/13 A2996 RMK AO2 SFC VIS 4 CIG 002V007 P0003=
200511281535 SPECI KATL 281535Z 11009KT 1 1/2SM -RA BR OVC003 13/13 A2996 RMK AO2 SFC VIS 4 CIG 002V007 P0003=
200511281451 METAR KATL 281451Z 09009KT 2SM R09R/4000VP6000FT RA BR OVC003 13/12 A2996 RMK AO2 SLP147 P0029 60045 T01280122 51015=
200511281351 METAR KATL 281351Z 13004KT 2SM -RA BR OVC003 12/12 A2996 RMK AO2 SFC VIS 4 SLP146 P0013 T01220122=
200511281334 SPECI KATL 281334Z 08010KT 1 1/2SM RA BR OVC003 12/12 A2993 RMK AO2 SFC VIS 4 CIG 001V005 P0009=
200511281334 SPECI KATL 281334Z 08010KT 1 1/2SM RA BR OVC003 12/12 A2993 RMK AO2 SFC VIS 4 CIG 001V005 P0009=
200511281312 SPECI KATL 281312Z 10009KT 1SM -RA BR OVC001 12/12 A2994 RMK AO2 SFC VIS 5 P0004=
200511281312 SPECI KATL 281312Z 10009KT 1SM -RA BR OVC001 12/12 A2994 RMK AO2 SFC VIS 5 P0004=
200511281251 METAR KATL 281251Z 11007KT 1/2SM R09R/3500V5500FT RA BR OVC001 12/12 A2994 RMK AO2 SFC VIS 1 RAB1159 SLP139 P0003 T01170117=
200511281218 SPECI KATL 281218Z 11011KT 080V140 1/2SM R09R/6000VP6000FT -RA BR OVC001 12/12 A2993 RMK AO2 SFC VIS 1 3/4 RAB1159 P0001=
200511281218 SPECI KATL 281218Z 11011KT 080V140 1/2SM R09R/6000VP6000FT -RA BR OVC001 12/12 A2993 RMK AO2 SFC VIS 1 3/4 RAB1159 P0001=
200511281151 METAR KATL 281151Z 10014KT 1/8SM R09R/3000V4000FT BR OVC001 11/11 A2992 RMK AO2 SFC VIS 3/4 SLP132 60005 70006 T01110111 10111 20100 56003 $=
200511281059 SPECI KATL 281059Z 10009KT 1/8SM R09R/2400V3000FT FG OVC001 11/11 A2992 RMK AO2 SFC VIS 1/4 $=
200511281059 SPECI KATL 281059Z 10009KT 1/8SM R09R/2400V3000FT FG OVC001 11/11 A2992 RMK AO2 SFC VIS 1/4 $=
200511281051 METAR KATL 281051Z 10009KT 1/4SM R09R/2200V2800FT FG VV001 11/11 A2992 RMK AO2 SFC VIS 1/2 SLP132 T01110106 $=
200511281035 SPECI KATL 281035Z 10012KT 1/4SM R09R/2200V3500FT FG VV001 11/11 A2991 RMK AO2 SFC VIS 1/2 $=
200511281035 SPECI KATL 281035Z 10012KT 1/4SM R09R/2200V3500FT FG VV001 11/11 A2991 RMK AO2 SFC VIS 1/2 $=
200511281021 SPECI KATL 281021Z 10011G17KT 1/4SM R09R/2000V2200FT FG VV001 11/11 A2990 RMK AO2 SFC VIS 1/2 $=
200511281021 SPECI KATL 281021Z 10011G17KT 1/4SM R09R/2000V2200FT FG VV001 11/11 A2990 RMK AO2 SFC VIS 1/2 $=
200511280951 METAR KATL 280951Z 10009KT 1/4SM R09R/2200V2400FT FG OVC001 11/11 A2992 RMK AO2 SFC VIS 1/2 SLP133 T01060106 $=
200511280851 METAR KATL 280851Z 09010KT 1/4SM R09R/5500VP6000FT BR OVC001 11/10 A2993 RMK AO2 SFC VIS 1 1/2 RAE27 PRESFR SLP134 P0002 60005 T01060100 58022 $=
200511280751 METAR KATL 280751Z 10010KT 1/4SM R09R/3500V5000FT -RA BR OVC001 10/10 A2997 RMK AO2 SFC VIS 1 1/4 RAE22B40 SLP151 P0001 T01000100 $=
200511280651 METAR KATL 280651Z 10010KT 1/4SM -RA BR OVC001 10/09 A2998 RMK AO2 SFC VIS 2 1/2 RAB24 SLP151 P0002 T01000094 $=
200511280551 METAR KATL 280551Z 09009KT 1/4SM R09R/4000V5000FT FG OVC001 10/09 A2999 RMK AO2 TWR VIS 3/4 SLP157 60001 T01000094 10106 20100 56001 $=
200511280541 SPECI KATL 280541Z 09010KT 1/2SM R09R/4500VP6000FT FG OVC001 10/09 A2999 RMK AO2 TWR VIS 3/4 $=
200511280541 SPECI KATL 280541Z 09010KT 1/2SM R09R/4500VP6000FT FG OVC001 10/09 A2999 RMK AO2 TWR VIS 3/4 $=
200511280516 SPECI KATL 280516Z 09010KT 3/4SM BR OVC002 10/09 A2999 RMK AO2 SFC VIS 2 1/2 $=
200511280516 SPECI KATL 280516Z 09010KT 3/4SM BR OVC002 10/09 A2999 RMK AO2 SFC VIS 2 1/2 $=
200511280451 METAR KATL 280451Z 10010KT 1SM BR OVC003 10/09 A2999 RMK AO2 SFC VIS 3 RAB0355E27 SLP158 P0001 T01000089 401170089 $=
200511280432 SPECI KATL 280432Z 09011KT 1SM BR OVC004 10/09 A3000 RMK AO2 SFC VIS 3 RAB0355E27 P0001 $=
200511280432 SPECI KATL 280432Z 09011KT 1SM BR OVC004 10/09 A3000 RMK AO2 SFC VIS 3 RAB0355E27 P0001 $=
200511280416 SPECI KATL 280416Z 09010KT 1SM BR OVC005 10/09 A3000 RMK AO2 SFC VIS 2 RAB0355RAEMM P0001=
200511280416 SPECI KATL 280416Z 09010KT 1SM BR OVC005 10/09 A3000 RMK AO2 SFC VIS 2 RAB0355RAEMM P0001=
200511280351 METAR KATL 280351Z 10009KT 6SM BR OVC006 10/08 A2999 RMK AO2 RAE0252 SLP157 T01000078=
200511280251 METAR KATL 280251Z 09012KT 7SM -RA OVC009 10/08 A3000 RMK AO2 SLP159 PCPN VRY LGT P0000 60000 T01000078 58001=
200511280204 SPECI KATL 280204Z 08012KT 7SM -RA OVC009 10/07 A3001 RMK AO2 PCPN VRY LGT P0000=
200511280151 METAR KATL 280151Z 08012KT 6SM -RA OVC011 10/07 A3002 RMK AO2 RAB50 SLP168 P0000 T01000072=
200511280051 METAR KATL 280051Z 09010KT 8SM OVC012 10/07 A3001 RMK AO2 SLP163 T01000067=
200511272351 METAR KATL 272351Z 09013KT 8SM OVC013 11/07 A3000 RMK AO2 SLP160 60000 T01060072 10117 20100 50003=
200511272251 METAR KATL 272251Z COR 09010KT 8SM OVC012 11/07 A3000 RMK AO2 SLP161 T01060067=
200511272151 METAR KATL 272151Z 10007KT 8SM OVC012 11/07 A3000 RMK AO2 SLP161 T01110072=
200511272051 METAR KATL 272051Z 09012KT 8SM OVC012 11/07 A2999 RMK AO2 SLP157 60000 T01110072 56030=
200511271951 METAR KATL 271951Z 10011KT 8SM OVC012 11/07 A3000 RMK AO2 SLP158 BKINOVC E-SE T01110072=
200511271851 METAR KATL 271851Z 09008KT 8SM OVC012 11/07 A3004 RMK AO2 RAE45 SLP174 P0000 T01060072=
200511271751 METAR KATL 271751Z 09005KT 8SM -RA OVC012 11/07 A3008 RMK AO2 RAB36 SLP187 P0000 60000 T01060072 10106 20089 56012=
200511271651 METAR KATL 271651Z 11009KT 8SM OVC012 10/06 A3009 RMK AO2 SLP190 T01000061=
200511271551 METAR KATL 271551Z 10012KT 8SM OVC012 09/06 A3010 RMK AO2 SLP196 T00940056=
200511271451 METAR KATL 271451Z 09011KT 8SM OVC012 09/05 A3012 RMK AO2 SLP200 T00890050 55000=
200511271351 METAR KATL 271351Z 09013KT 8SM OVC014 09/04 A3010 RMK AO2 SLP193 T00890044=
200511271251 METAR KATL 271251Z 09013KT 10SM OVC014 09/03 A3010 RMK AO2 SLP192 T00940033=
200511271151 METAR KATL 271151Z 10008KT 10SM OVC014 09/03 A3012 RMK AO2 SLP199 T00940028 10100 20089 55001=
200511271135 SPECI KATL 271135Z 11008KT 10SM OVC014 09/03 A3012 RMK AO2=
200511271135 SPECI KATL 271135Z 11008KT 10SM OVC014 09/03 A3012 RMK AO2=
200511271051 METAR KATL 271051Z 09009KT 10SM OVC016 09/03 A3011 RMK AO2 SLP196 T00940033=
200511271036 SPECI KATL 271036Z 10008KT 10SM OVC016 09/03 A3010 RMK AO2=
200511271036 SPECI KATL 271036Z 10008KT 10SM OVC016 09/03 A3010 RMK AO2=
200511270951 METAR KATL 270951Z 09010KT 8SM OVC014 09/04 A3011 RMK AO2 SLP196 T00890044=
200511270851 METAR KATL 270851Z 08011KT 6SM HZ OVC010 09/06 A3012 RMK AO2 SLP200 T00890056 56010=
200511270751 METAR KATL 270751Z 10009KT 10SM OVC010 09/06 A3013 RMK AO2 SLP203 T00940056=
200511270651 METAR KATL 270651Z 09011KT 10SM OVC012 09/04 A3014 RMK AO2 SLP208 T00940039=
200511270635 SPECI KATL 270635Z 09009KT 10SM OVC012 09/04 A3014 RMK AO2=
200511270635 SPECI KATL 270635Z 09009KT 10SM OVC012 09/04 A3014 RMK AO2=
200511270551 METAR KATL 270551Z 10010KT 10SM OVC017 10/04 A3015 RMK AO2 SLP211 T01000039 10117 20094 58011=
200511270521 SPECI KATL 270521Z 09008KT 10SM BKN019 09/04 A3016 RMK AO2=
200511270521 SPECI KATL 270521Z 09008KT 10SM BKN019 09/04 A3016 RMK AO2=
200511270451 METAR KATL 270451Z 09010KT 10SM FEW120 SCT180 BKN250 10/04 A3017 RMK AO2 SLP218 T01000039 401500022=
200511270351 METAR KATL 270351Z 10009KT 10SM FEW140 OVC180 10/04 A3018 RMK AO2 SLP221 T01000039=
200511270251 METAR KATL 270251Z 10009KT 10SM OVC180 11/04 A3019 RMK AO2 SLP224 T01060039 50001=
200511270151 METAR KATL 270151Z 09009KT 10SM BKN180 OVC250 11/03 A3019 RMK AO2 SLP228 T01110033=
200511270051 METAR KATL 270051Z 09008KT 10SM FEW090 OVC180 11/03 A3018 RMK AO2 SLP225 T01110033=
200511262351 METAR KATL 262351Z 10008KT 10SM BKN180 12/03 A3018 RMK AO2 SLP223 T01220033 10150 20117 53002=
200511262251 METAR KATL 262251Z 09008KT 10SM BKN180 OVC250 12/03 A3017 RMK AO2 SLP222 T01220033=
200511262151 METAR KATL 262151Z 10009KT 10SM SCT120 BKN180 BKN280 13/02 A3017 RMK AO2 SLP222 T01330022=
200511262051 METAR KATL 262051Z 09008KT 10SM BKN120 BKN180 BKN280 14/03 A3018 RMK AO2 SLP221 T01440028 56019=
200511261951 METAR KATL 261951Z 14007KT 10SM FEW050 BKN120 BKN180 BKN280 14/02 A3018 RMK AO2 SLP224 T01390022=
200511261851 METAR KATL 261851Z 12008KT 9SM SCT060 SCT120 BKN180 BKN280 14/03 A3020 RMK AO2 SLP231 T01440028=
200511261751 METAR KATL 261751Z VRB04KT 9SM FEW060 SCT180 BKN280 13/04 A3023 RMK AO2 SLP241 T01280044 10128 20039 58021=
200511261651 METAR KATL 261651Z 09004KT 9SM FEW060 SCT180 SCT280 11/04 A3027 RMK AO2 SLP255 T01060044=
200511261551 METAR KATL 261551Z 10006KT 9SM FEW060 SCT180 SCT280 09/04 A3029 RMK AO2 SLP262 T00940044=
200511261520 SPECI KATL 261520Z 09009KT 10SM SCT008 SCT180 08/04 A3030 RMK AO2=
200511261520 SPECI KATL 261520Z 09009KT 10SM SCT008 SCT180 08/04 A3030 RMK AO2=
200511261451 METAR KATL 261451Z 09010KT 8SM BKN006 BKN180 06/04 A3030 RMK AO2 SLP265 T00610039 51012=
200511261440 SPECI KATL 261440Z 09008KT 8SM OVC006 06/03 A3030 RMK AO2=
200511261440 SPECI KATL 261440Z 09008KT 8SM OVC006 06/03 A3030 RMK AO2=
200511261433 SPECI KATL 261433Z 10009KT 2 1/2SM OVC006 05/03 A3029 RMK AO2 SFC VIS 7=
200511261433 SPECI KATL 261433Z 10009KT 2 1/2SM OVC006 05/03 A3029 RMK AO2 SFC VIS 7=
200511261422 SPECI KATL 261422Z 10009KT 2 1/2SM BR OVC004 05/03 A3029 RMK AO2 SFC VIS 6 CIG 003V007=
200511261422 SPECI KATL 261422Z 10009KT 2 1/2SM BR OVC004 05/03 A3029 RMK AO2 SFC VIS 6 CIG 003V007=
200511261351 METAR KATL 261351Z 09008KT 1 1/2SM BR OVC002 04/04 A3028 RMK AO2 SFC VIS 3 SLP260 T00440039=
200511261339 SPECI KATL 261339Z 08010KT 1SM R09R/5000VP6000FT BR OVC002 04/04 A3029 RMK AO2 SFC VIS 1 3/4=
200511261339 SPECI KATL 261339Z 08010KT 1SM R09R/5000VP6000FT BR OVC002 04/04 A3029 RMK AO2 SFC VIS 1 3/4=
200511261318 SPECI KATL 261318Z 08008KT 1/4SM R09R/1800V3000FT FG OVC002 04/04 A3029 RMK AO2=
200511261318 SPECI KATL 261318Z 08008KT 1/4SM R09R/1800V3000FT FG OVC002 04/04 A3029 RMK AO2=
200511261302 SPECI KATL 261302Z 08009KT 1/4SM R09R/1400V1800FT FG OVC002 04/04 A3029 RMK AO2=
200511261302 SPECI KATL 261302Z 08009KT 1/4SM R09R/1400V1800FT FG OVC002 04/04 A3029 RMK AO2=
200511261251 METAR KATL 261251Z 08010KT 1/4SM R09R/1600V3000FT FG OVC002 04/03 A3029 RMK AO2 SLP262 T00440033=
200511261232 SPECI KATL 261232Z 08009KT 1/4SM R09R/2800VP6000FT BR OVC002 04/03 A3029 RMK AO2 SFC VIS 2=
200511261232 SPECI KATL 261232Z 08009KT 1/4SM R09R/2800VP6000FT BR OVC002 04/03 A3029 RMK AO2 SFC VIS 2=
200511261219 SPECI KATL 261219Z 06009KT 1/2SM BR OVC002 04/03 A3028 RMK AO2 SFC VIS 3=
200511261219 SPECI KATL 261219Z 06009KT 1/2SM BR OVC002 04/03 A3028 RMK AO2 SFC VIS 3=
200511261151 METAR KATL 261151Z 08009KT 1 1/2SM BR OVC004 04/03 A3026 RMK AO2 SFC VIS 4 SLP253 T00390028 10044 20022 51013=
200511261144 SPECI KATL 261144Z 08009KT 1 1/2SM BR OVC004 04/02 A3026 RMK AO2 SFC VIS 4=
200511261144 SPECI KATL 261144Z 08009KT 1 1/2SM BR OVC004 04/02 A3026 RMK AO2 SFC VIS 4=
200511261124 SPECI KATL 261124Z 08007KT 2 1/2SM BR OVC004 04/02 A3026 RMK AO2 SFC VIS 4=
200511261124 SPECI KATL 261124Z 08007KT 2 1/2SM BR OVC004 04/02 A3026 RMK AO2 SFC VIS 4=
200511261051 METAR KATL 261051Z 08007KT 10SM OVC004 03/01 A3025 RMK AO2 SLP249 T00330011=
200511261031 SPECI KATL 261031Z 09008KT 10SM BKN004 03/00 A3025 RMK AO2=
200511261031 SPECI KATL 261031Z 09008KT 10SM BKN004 03/00 A3025 RMK AO2=
200511261027 SPECI KATL 261027Z 08007KT 10SM SCT006 03/M01 A3024 RMK AO2=
200511261027 SPECI KATL 261027Z 08007KT 10SM SCT006 03/M01 A3024 RMK AO2=
200511260951 METAR KATL 260951Z 09006KT 10SM FEW250 02/M01 A3024 RMK AO2 SLP246 T00221011=
200511260851 METAR KATL 260851Z 06009KT 10SM CLR 03/M02 A3022 RMK AO2 SLP239 T00281017 50002=
200511260751 METAR KATL 260751Z 07006KT 10SM SCT250 03/M03 A3023 RMK AO2 SLP240 T00281028=
200511260651 METAR KATL 260651Z 08005KT 10SM BKN250 03/M03 A3022 RMK AO2 SLP237 T00331033=
200511260551 METAR KATL 260551Z 07007KT 10SM BKN250 04/M05 A3022 RMK AO2 SLP237 T00391050 10094 20039 56003=
200511260451 METAR KATL 260451Z 07005KT 10SM BKN250 04/M06 A3022 RMK AO2 SLP239 T00441056 401220022=
200511260351 METAR KATL 260351Z 06006KT 10SM FEW250 06/M07 A3022 RMK AO2 SLP238 T00561067=
200511260251 METAR KATL 260251Z 06007KT 10SM CLR 07/M07 A3023 RMK AO2 SLP241 T00671072 51008=
200511260151 METAR KATL 260151Z 07004KT 10SM CLR 08/M08 A3022 RMK AO2 SLP240 T00781078=
200511260051 METAR KATL 260051Z 01007KT 10SM FEW250 08/M08 A3022 RMK AO2 SLP237 T00831083=
200511252351 METAR KATL 252351Z 02008KT 10SM FEW250 09/M09 A3020 RMK AO2 SLP232 T00941089 10122 20089 53013=
200511252251 METAR KATL 252251Z 32003KT 10SM FEW250 11/M10 A3018 RMK AO2 SLP225 T01061100=
200511252151 METAR KATL 252151Z 25003KT 10SM FEW140 11/M09 A3017 RMK AO2 SLP220 T01061094=
200511252051 METAR KATL 252051Z 00000KT 10SM FEW140 12/M11 A3016 RMK AO2 SLP216 T01171106 55002=
200511251951 METAR KATL 251951Z VRB05KT 10SM FEW140 11/M09 A3015 RMK AO2 SLP212 T01111094=
200511251851 METAR KATL 251851Z 00000KT 10SM FEW140 10/M09 A3015 RMK AO2 SLP214 T01001094=
200511251751 METAR KATL 251751Z VRB04KT 10SM SCT140 09/M09 A3017 RMK AO2 SLP219 T00891094 10089 20022 58009=
200511251651 METAR KATL 251651Z 29004KT 10SM BKN140 07/M08 A3019 RMK AO2 SLP227 T00721083=
200511251551 METAR KATL 251551Z 32005KT 10SM BKN140 05/M08 A3020 RMK AO2 SLP228 T00501083=
200511251451 METAR KATL 251451Z 32007KT 10SM BKN140 03/M09 A3020 RMK AO2 SLP229 T00281089 52035=
200511251351 METAR KATL 251351Z 32006KT 10SM BKN140 02/M09 A3016 RMK AO2 SLP217 T00221094=
200511251251 METAR KATL 251251Z 34009KT 10SM BKN140 02/M09 A3013 RMK AO2 SLP206 T00221094=
200511251151 METAR KATL 251151Z 32007KT 10SM BKN120 02/M11 A3009 RMK AO2 SLP192 T00221106 10089 20022 52026=
200511251051 METAR KATL 251051Z 32010KT 10SM FEW130 SCT200 03/M11 A3006 RMK AO2 SLP182 T00281106=
200511250951 METAR KATL 250951Z 33007KT 10SM BKN130 BKN200 04/M11 A3004 RMK AO2 SLP172 T00391106=
200511250851 METAR KATL 250851Z 32008KT 10SM FEW130 SCT200 04/M10 A3001 RMK AO2 SLP163 T00441100 53019=
200511250751 METAR KATL 250751Z 35010KT 10SM SCT150 OVC200 06/M07 A2999 RMK AO2 SLP155 BINOVC T00611072=
200511250651 METAR KATL 250651Z 32014G20KT 10SM FEW150 SCT200 07/M08 A2997 RMK AO2 SLP147 T00721078=
200511250551 METAR KATL 250551Z 34010KT 10SM SCT150 BKN200 09/M04 A2995 RMK AO2 SLP141 T00891039 10144 20089 53020=
200511250451 METAR KATL 250451Z 32014KT 10SM FEW150 OVC200 10/M03 A2992 RMK AO2 SLP132 T01001033 402000083=
200511250351 METAR KATL 250351Z 31009KT 10SM BKN200 11/M02 A2991 RMK AO2 SLP127 T01111022=
200511250251 METAR KATL 250251Z 30010KT 10SM OVC200 12/M01 A2989 RMK AO2 SLP120 T01221011 53019=
200511250151 METAR KATL 250151Z 30013KT 10SM BKN200 13/01 A2986 RMK AO2 SLP112 T01330006=
200511250051 METAR KATL 250051Z 30012KT 10SM SCT250 13/01 A2985 RMK AO2 SLP110 T01330006=
200511242351 METAR KATL 242351Z 29012KT 10SM FEW250 14/00 A2983 RMK AO2 SLP102 T01440000 10200 20144 53026=
200511242251 METAR KATL 242251Z 29010KT 10SM FEW250 16/01 A2979 RMK AO2 SLP088 T01560006=
200511242151 METAR KATL 242151Z 28010KT 10SM CLR 18/01 A2976 RMK AO2 SLP077 T01780011=
200511242051 METAR KATL 242051Z 28018G22KT 10SM CLR 19/01 A2975 RMK AO2 SLP072 T01890006 51003=
200511241951 METAR KATL 241951Z 29014KT 10SM CLR 19/01 A2975 RMK AO2 PK WND 27026/1917 SLP072 T01940006=
200511241851 METAR KATL 241851Z 28016G22KT 10SM CLR 19/01 A2975 RMK AO2 PK WND 28026/1800 SLP071 T01890006=
200511241751 METAR KATL 241751Z 28017G22KT 10SM CLR 19/01 A2975 RMK AO2 SLP070 T01890011 10189 20083 58004=
200511241651 METAR KATL 241651Z 27017G24KT 10SM CLR 17/02 A2976 RMK AO2 SLP074 T01720022=
200511241551 METAR KATL 241551Z 29011KT 10SM CLR 16/04 A2977 RMK AO2 SLP079 T01610039=
200511241451 METAR KATL 241451Z 27010G17KT 10SM CLR 14/04 A2976 RMK AO2 SLP075 T01390039 51019=
200511241351 METAR KATL 241351Z 26010KT 10SM FEW250 12/04 A2975 RMK AO2 SLP074 T01170044=
200511241251 METAR KATL 241251Z 24006KT 10SM FEW250 09/04 A2972 RMK AO2 SLP066 T00890044=
200511241151 METAR KATL 241151Z 24006KT 10SM CLR 09/04 A2970 RMK AO2 SLP058 T00890039 10111 20089 53013=
200511241051 METAR KATL 241051Z 25008KT 10SM CLR 10/04 A2968 RMK AO2 SLP051 T01000044=
200511240951 METAR KATL 240951Z 25009KT 10SM FEW250 10/04 A2967 RMK AO2 SLP046 T01000044=
200511240851 METAR KATL 240851Z 25010KT 10SM FEW250 10/04 A2966 RMK AO2 SLP043 T01000044 58002=
200511240751 METAR KATL 240751Z 23011G18KT 10SM FEW250 11/04 A2967 RMK AO2 SLP046 T01060044=
200511240651 METAR KATL 240651Z 24014KT 10SM FEW250 11/04 A2967 RMK AO2 SLP045 T01060039=
200511240551 METAR KATL 240551Z 23014G24KT 10SM FEW250 11/03 A2967 RMK AO2 SLP046 T01110033 10122 20106 58012=
200511240451 METAR KATL 240451Z 24014G19KT 10SM CLR 11/03 A2969 RMK AO2 SLP054 T01060028 401331006=
200511240351 METAR KATL 240351Z 24011G18KT 10SM FEW150 11/02 A2970 RMK AO2 SLP059 T01060022=
200511240251 METAR KATL 240251Z 24012G18KT 10SM FEW150 11/02 A2970 RMK AO2 SLP060 T01110017 53002=
200511240151 METAR KATL 240151Z 23013G20KT 10SM FEW150 12/01 A2970 RMK AO2 SLP058 T01170011=
200511240051 METAR KATL 240051Z 22013G22KT 10SM CLR 11/01 A2969 RMK AO2 SLP057 T01110006=
200511232351 METAR KATL 232351Z 22010G18KT 10SM FEW150 11/00 A2970 RMK AO2 SLP060 T01110000 10133 20100 56008=
200511232251 METAR KATL 232251Z 23010KT 10SM FEW150 SCT250 12/M01 A2970 RMK AO2 SLP062 T01171006=
200511232151 METAR KATL 232151Z 22014KT 10SM FEW120 BKN150 BKN250 13/M01 A2969 RMK AO2 SLP058 T01281011=
200511232051 METAR KATL 232051Z 22013G20KT 10SM FEW120 BKN150 BKN250 13/M02 A2972 RMK AO2 SLP067 T01281017 56040=
200511231951 METAR KATL 231951Z 22013G18KT 10SM FEW120 BKN150 BKN250 13/M02 A2974 RMK AO2 SLP075 T01281022=
200511231851 METAR KATL 231851Z 22010KT 10SM FEW100 BKN150 BKN250 12/M04 A2979 RMK AO2 SLP093 T01171039=
200511231751 METAR KATL 231751Z 21009KT 10SM FEW100 SCT150 BKN200 BKN250 10/M04 A2984 RMK AO2 SLP109 T01001044 10106 21006 58032=
200511231651 METAR KATL 231651Z 21011G17KT 10SM FEW100 SCT200 SCT250 08/M04 A2988 RMK AO2 PRESFR SLP123 T00831044=
200511231551 METAR KATL 231551Z 25007KT 10SM SCT100 SCT200 BKN250 07/M04 A2993 RMK AO2 SLP141 T00721044=
200511231451 METAR KATL 231451Z 22005KT 10SM FEW100 SCT200 BKN250 05/M03 A2994 RMK AO2 SLP144 T00501033 50005=
200511231351 METAR KATL 231351Z 27005KT 10SM BKN100 BKN250 03/M02 A2995 RMK AO2 SLP148 T00331022=
200511231251 METAR KATL 231251Z 27007KT 10SM FEW090 SCT250 00/M03 A2995 RMK AO2 SLP148 T00001028=
200511231151 METAR KATL 231151Z 27004KT 10SM FEW090 SCT250 M01/M03 A2992 RMK AO2 SLP140 T10061033 10017 21006 51002=
200511231051 METAR KATL 231051Z 26005KT 10SM FEW250 00/M03 A2992 RMK AO2 SLP139 T00001028=
200511230951 METAR KATL 230951Z 28007KT 10SM SCT250 01/M03 A2993 RMK AO2 SLP140 T00061028=
200511230851 METAR KATL 230851Z 29005KT 10SM BKN250 01/M03 A2992 RMK AO2 SLP136 T00111028 50000=
200511230751 METAR KATL 230751Z 28007KT 10SM SCT250 01/M02 A2993 RMK AO2 SLP142 T00111022=
200511230651 METAR KATL 230651Z 24005KT 10SM SCT200 01/M02 A2992 RMK AO2 SLP137 T00111022=
200511230551 METAR KATL 230551Z 26006KT 10SM CLR 02/M02 A2992 RMK AO2 SLP136 T00171022 10056 20011 53002=
200511230451 METAR KATL 230451Z 27005KT 10SM CLR 02/M02 A2991 RMK AO2 SLP134 T00171022 400890017=
200511230351 METAR KATL 230351Z 28007KT 10SM CLR 02/M02 A2991 RMK AO2 SLP132 T00221022=
200511230251 METAR KATL 230251Z 27006KT 10SM CLR 03/M02 A2991 RMK AO2 SLP134 T00281022 51012=
200511230151 METAR KATL 230151Z 29008KT 10SM CLR 04/M02 A2991 RMK AO2 SLP132 T00391022=
200511230051 METAR KATL 230051Z 29011KT 10SM FEW045 04/M03 A2989 RMK AO2 SLP128 T00441028=
200511222351 METAR KATL 222351Z 29011KT 10SM FEW060 06/M03 A2987 RMK AO2 SLP121 T00561028 10089 20056 53020=
200511222251 METAR KATL 222251Z 30012KT 10SM FEW040 06/M02 A2985 RMK AO2 SLP112 T00611017=
200511222151 METAR KATL 222151Z 31010KT 10SM FEW045 SCT055 SCT065 07/M02 A2983 RMK AO2 SLP104 T00721017=
200511222051 METAR KATL 222051Z 31019G23KT 10SM FEW040 BKN050 BKN060 08/M02 A2981 RMK AO2 SLP099 T00781022 53006=
200511221951 METAR KATL 221951Z 30017G24KT 10SM FEW040 BKN050 BKN060 08/M02 A2980 RMK AO2 SLP094 T00781022=
200511221851 METAR KATL 221851Z 30017G26KT 10SM FEW040 BKN050 BKN060 08/M02 A2979 RMK AO2 PK WND 30026/1842 SLP091 T00831022=
200511221751 METAR KATL 221751Z 31019G29KT 10SM FEW030 SCT040 BKN050 07/M02 A2979 RMK AO2 PK WND 31029/1749 SLP093 T00721017 10083 20039 50007=
200511221651 METAR KATL 221651Z 31022G28KT 10SM SCT035 BKN045 08/01 A2979 RMK AO2 PK WND 30028/1649 SLP093 T00780006=
200511221551 METAR KATL 221551Z 31019G29KT 10SM SCT032 08/01 A2978 RMK AO2 PK WND 33029/1549 SLP088 SCT032 V BKN T00830011=
200511221527 SPECI KATL 221527Z 32016G26KT 10SM SCT030 BKN036 08/02 A2978 RMK AO2 PK WND 31026/1525=
200511221527 SPECI KATL 221527Z 32016G26KT 10SM SCT030 BKN036 08/02 A2978 RMK AO2 PK WND 31026/1525=
200511221451 METAR KATL 221451Z 29016G20KT 10SM FEW025 07/02 A2977 RMK AO2 SLP086 T00720017 51014=
200511221351 METAR KATL 221351Z 28012G18KT 10SM FEW020 06/02 A2977 RMK AO2 SLP085 T00560022=
200511221314 SPECI KATL 221314Z 27011KT 9SM SCT018 04/02 A2976 RMK AO2=
200511221314 SPECI KATL 221314Z 27011KT 9SM SCT018 04/02 A2976 RMK AO2=
200511221251 METAR KATL 221251Z 28012KT 9SM BKN018 04/02 A2976 RMK AO2 SLP080 T00440017=
200511221151 METAR KATL 221151Z 28011G18KT 10SM FEW028 SCT250 04/02 A2973 RMK AO2 SLP071 70102 T00390017 10056 20039 53014=
200511221051 METAR KATL 221051Z 28012KT 10SM FEW032 SCT250 04/02 A2971 RMK AO2 SLP066 T00440017=
200511220951 METAR KATL 220951Z 30013KT 10SM BKN032 BKN140 OVC250 05/02 A2969 RMK AO2 SLP057 T00500017=
200511220926 SPECI KATL 220926Z 29011G19KT 10SM SCT027 OVC032 06/02 A2969 RMK AO2=
200511220926 SPECI KATL 220926Z 29011G19KT 10SM SCT027 OVC032 06/02 A2969 RMK AO2=
200511220851 METAR KATL 220851Z 29013G18KT 10SM OVC025 06/02 A2969 RMK AO2 SLP055 T00560017 53008=
200511220751 METAR KATL 220751Z 31018G23KT 10SM OVC023 05/02 A2968 RMK AO2 SLP052 T00500017=
200511220651 METAR KATL 220651Z 30013KT 10SM FEW016 BKN022 OVC030 05/02 A2967 RMK AO2 PK WND 30026/0554 SLP049 T00500022=
200511220551 METAR KATL 220551Z 30017G26KT 10SM FEW015 BKN020 OVC030 05/02 A2966 RMK AO2 PK WND 30026/0549 SLP047 60010 T00500022 10067 20033 50009=
200511220451 METAR KATL 220451Z 29020G29KT 8SM FEW010 BKN015 OVC022 05/03 A2966 RMK AO2 PK WND 30029/0445 SLP047 T00500028 401170033=
200511220420 SPECI KATL 220420Z 30019G25KT 7SM OVC010 04/03 A2966 RMK AO2 PK WND 30028/0401 CIG OO8V014=
200511220420 SPECI KATL 220420Z 30019G25KT 7SM OVC010 04/03 A2966 RMK AO2 PK WND 30028/0401 CIG OO8V014=
200511220351 METAR KATL 220351Z 29020G27KT 7SM OVC008 04/03 A2965 RMK AO2 PK WND 31032/0314 RAE36 CIG 007V012 SLP044 P0000 T00390028=
200511220251 METAR KATL 220251Z 29025G30KT 9SM -RA FEW008 BKN012 OVC020 03/02 A2964 RMK AO2 PK WND 31036/0153 SNB24E51 SLP038 P0003 60010 T00330022 53038=
200511220151 METAR KATL 220151Z 30027G40KT 8SM -RA FEW008 BKN012 OVC020 05/03 A2957 RMK AO2 PK WND 32040/0149 SLP017 P0001 T00500028=
200511220051 METAR KATL 220051Z 30028G35KT 6SM -RA BR FEW008 BKN012 OVC020 06/04 A2954 RMK AO2 PK WND 31035/0045 SLP004 P0006 T00610044=
200511212351 METAR KATL 212351Z 30019G27KT 4SM -RA BR FEW008 BKN012 OVC020 07/06 A2952 RMK AO2 PK WND 29027/2344 SLP998 P0013 60067 T00670056 10100 20067 55000=
200511212317 SPECI KATL 212317Z 31016G23KT 1 1/2SM RA BR SCT008 BKN012 OVC020 07/06 A2951 RMK AO2 SFC VIS 3 P0006=
200511212317 SPECI KATL 212317Z 31016G23KT 1 1/2SM RA BR SCT008 BKN012 OVC020 07/06 A2951 RMK AO2 SFC VIS 3 P0006=
200511212251 METAR KATL 212251Z 30017G22KT 1 1/2SM RA BR FEW005 BKN009 OVC020 08/07 A2951 RMK AO2 SFC VIS 3 SLP993 P0013 T00780072=
200511212231 SPECI KATL 212231Z 29012KT 1 1/2SM RA BR SCT004 BKN008 OVC020 08/08 A2951 RMK AO2 SFC VIS 2 1/2 P0008=
200511212231 SPECI KATL 212231Z 29012KT 1 1/2SM RA BR SCT004 BKN008 OVC020 08/08 A2951 RMK AO2 SFC VIS 2 1/2 P0008=
200511212211 SPECI KATL 212211Z 31009KT 1 1/2SM -RA BR SCT007 BKN013 OVC020 09/08 A2950 RMK AO2 SFC VIS 3 P0003=
200511212211 SPECI KATL 212211Z 31009KT 1 1/2SM -RA BR SCT007 BKN013 OVC020 09/08 A2950 RMK AO2 SFC VIS 3 P0003=
200511212151 METAR KATL 212151Z 29011KT 1 1/2SM -RA BR OVC007 09/08 A2951 RMK AO2 SFC VIS 2 1/2 RAB31 CIG 006V010 SLP993 P0001 T00890083=
200511212051 METAR KATL 212051Z 32006KT 6SM BR OVC007 09/08 A2952 RMK AO2 RAE41 CIG 005V008 SLP998 P0006 60040 T00940083 58024=
200511212008 SPECI KATL 212008Z 34007KT 6SM -RA BR BKN007 OVC036 09/08 A2954 RMK AO2 P0000=
200511212008 SPECI KATL 212008Z 34007KT 6SM -RA BR BKN007 OVC036 09/08 A2954 RMK AO2 P0000=
200511211951 METAR KATL 211951Z 34010KT 6SM -RA BR FEW007 OVC036 09/08 A2954 RMK AO2 RAE01B26 SLP004 P0000 T00940083=
200511211851 METAR KATL 211851Z 32015KT 3SM -RA BR FEW007 SCT011 OVC050 09/08 A2958 RMK AO2 SFC VIS 6 PRESFR SLP017 CB DSNT NE-SE MOV NNE P0034 T00890078=
200511211827 SPECI KATL 211827Z 28017G20KT 3SM R09R/5500VP6000FT -RA BR SCT007 BKN013 OVC018 09/09 A2961 RMK AO2 SFC VIS 4 PRESFR LTG DSNT SE AND NW CB OHD AND DSNT SE AND NW MOV N P0033=
200511211827 SPECI KATL 211827Z 28017G20KT 3SM R09R/5500VP6000FT -RA BR SCT007 BKN013 OVC018 09/09 A2961 RMK AO2 SFC VIS 4 PRESFR LTG DSNT SE AND NW CB OHD AND DSNT SE AND NW MOV N P0033=
200511211823 SPECI KATL 211823Z 28014G22KT 3/4SM RA BR SCT004CB BKN009 OVC016 09/09 A2962 RMK AO2 SFC VIS 2 LTG DSNT SE AND NW CB OHD AND DSNT SE AND NW MOV N P0033=
200511211823 SPECI KATL 211823Z 28014G22KT 3/4SM RA BR SCT004CB BKN009 OVC016 09/09 A2962 RMK AO2 SFC VIS 2 LTG DSNT SE AND NW CB OHD AND DSNT SE AND NW MOV N P0033=
200511211816 SPECI KATL 211816Z 27017G24KT 3/4SM R09R/4500V6000FT +RA BR SCT004CB BKN009 OVC016 09/09 A2963 RMK AO2 SFC VIS 1 1/4 LTG DSNT SE AND NW CB OHD AND DSNT SE AND NW MOV N P0026=
200511211816 SPECI KATL 211816Z 27017G24KT 3/4SM R09R/4500V6000FT +RA BR SCT004CB BKN009 OVC016 09/09 A2963 RMK AO2 SFC VIS 1 1/4 LTG DSNT SE AND NW CB OHD AND DSNT SE AND NW MOV N P0026=
200511211807 SPECI KATL 211807Z 25018G25KT 3/4SM R09R/5000VP6000FT +RA BR BKN004CB BKN009 OVC016 09/09 A2964 RMK AO2 SFC VIS 1 1/2 PRESRR LTG DSNT S AND NW CB OHD AND DSNT S AND NW MOV N P0012=
200511211807 SPECI KATL 211807Z 25018G25KT 3/4SM R09R/5000VP6000FT +RA BR BKN004CB BKN009 OVC016 09/09 A2964 RMK AO2 SFC VIS 1 1/2 PRESRR LTG DSNT S AND NW CB OHD AND DSNT S AND NW MOV N P0012=
200511211751 METAR KATL 211751Z 27014KT 1SM R09R/4000VP6000FT +RA BR OVC004CB 09/09 A2960=
200511211742 SPECI KATL 211742Z VRB05KT 2SM -RA BR OVC004 10/09 A2960 RMK AO2 SFC VIS 5 RAE1652B27 CIG 003V006 LTG DSNT S-NW CB DSNT S-NW MOV N P0003=
200511211742 SPECI KATL 211742Z VRB05KT 2SM -RA BR OVC004 10/09 A2960 RMK AO2 SFC VIS 5 RAE1652B27 CIG 003V006 LTG DSNT S-NW CB DSNT S-NW MOV N P0003=
200511211651 METAR KATL 211651Z 01007KT 2SM -RA BR BKN009 OVC014 12/11 A2966 RMK AO2 SFC VIS 4 CIG 006V011 PRESFR SLP042 P0013 T01170106=
200511211632 SPECI KATL 211632Z 36006KT 2SM -RA BR SCT004 BKN010 OVC014 11/11 A2969 RMK AO2 SFC VIS 5 CIG 007V011 P0013=
200511211632 SPECI KATL 211632Z 36006KT 2SM -RA BR SCT004 BKN010 OVC014 11/11 A2969 RMK AO2 SFC VIS 5 CIG 007V011 P0013=
200511211623 SPECI KATL 211623Z 35004KT 2SM RA BR FEW004 BKN008 OVC014 11/11 A2970 RMK AO2 SFC VIS 2 1/2 CIG 007V012 PRESFR P0012=
200511211623 SPECI KATL 211623Z 35004KT 2SM RA BR FEW004 BKN008 OVC014 11/11 A2970 RMK AO2 SFC VIS 2 1/2 CIG 007V012 PRESFR P0012=
200511211603 SPECI KATL 211603Z 23003KT 1SM R09R/5500VP6000FT RA BR BKN002 OVC008 11/11 A2974 RMK AO2 SFC VIS 1 1/2 P0005=
200511211603 SPECI KATL 211603Z 23003KT 1SM R09R/5500VP6000FT RA BR BKN002 OVC008 11/11 A2974 RMK AO2 SFC VIS 1 1/2 P0005=
200511211551 METAR KATL 211551Z 26007KT 1/4SM R09R/4500V5500FT -RA BR OVC002 11/11 A2974 RMK AO2 SFC VIS 1 1/4 DZE44RAB44 SLP071 P0000 T01110106=
200511211505 SPECI KATL 211505Z 11010KT 1/4SM R09R/5500VP6000FT -DZ BR OVC002 11/11 A2974 RMK AO2 SFC VIS 1 P0000=
200511211505 SPECI KATL 211505Z 11010KT 1/4SM R09R/5500VP6000FT -DZ BR OVC002 11/11 A2974 RMK AO2 SFC VIS 1 P0000=
200511211451 METAR KATL 211451Z 09010KT 1/2SM -DZ BR OVC002 11/11 A2974 RMK AO2 SFC VIS 1 3/4 RAE27DZB27 SLP072 P0000 60001 T01110106 58028=
200511211409 SPECI KATL 211409Z 06011KT 1SM -RA BR OVC002 11/10 A2976 RMK AO2 SFC VIS 3 P0000=
200511211409 SPECI KATL 211409Z 06011KT 1SM -RA BR OVC002 11/10 A2976 RMK AO2 SFC VIS 3 P0000=
200511211351 METAR KATL 211351Z 07010KT 1 1/2SM -RA BR OVC002 11/10 A2977 RMK AO2 SFC VIS 4 DZE1259RAB1259 SLP080 P0001 T01060100=
200511211325 SPECI KATL 211325Z 07008KT 1 1/2SM -RA BR OVC002 11/10 A2980 RMK AO2 SFC VIS 4 DZE1259RAB1259 CIG 002V007 P0001=
200511211325 SPECI KATL 211325Z 07008KT 1 1/2SM -RA BR OVC002 11/10 A2980 RMK AO2 SFC VIS 4 DZE1259RAB1259 CIG 002V007 P0001=
200511211257 SPECI KATL 211257Z 08007KT 1SM -DZ BR OVC002 10/09 A2981 RMK AO2 SFC VIS 3 P0000=
200511211257 SPECI KATL 211257Z 08007KT 1SM -DZ BR OVC002 10/09 A2981 RMK AO2 SFC VIS 3 P0000=
200511211251 METAR KATL 211251Z 07007KT 1 1/2SM -DZ BR OVC002 10/09 A2981 RMK AO2 SFC VIS 3 SLP094 P0000 T01000094=
200511211240 SPECI KATL 211240Z 06007KT 1 1/2SM -DZ BR OVC002 10/09 A2981 RMK AO2 SFC VIS 3 P0000=
200511211240 SPECI KATL 211240Z 06007KT 1 1/2SM -DZ BR OVC002 10/09 A2981 RMK AO2 SFC VIS 3 P0000=
200511211151 METAR KATL 211151Z 07008KT 2 1/2SM -DZ BR OVC002 10/09 A2983 RMK AO2 SFC VIS 6 SLP101 P0000 60008 70062 T01000094 10100 20089 56025=
200511211051 METAR KATL 211051Z 04010KT 2 1/2SM -DZ OVC004 09/09 A2984 RMK AO2 SFC VIS 7 RAE25DZB43 PRESFR SLP104 P0001 T00940089=
200511210951 METAR KATL 210951Z 05010KT 2 1/2SM -RA OVC004 09/09 A2987 RMK AO2 SFC VIS 7 DZE0852RAB0852 PRESFR SLP115 P0003 T00940089=
200511210851 METAR KATL 210851Z 04009KT 2 1/2SM -DZ OVC004 09/09 A2991 RMK AO2 SFC VIS 7 RAE13DZB34 SLP126 P0000 60004 T00940089 58029=
200511210751 METAR KATL 210751Z 04011KT 2 1/2SM -RA OVC004 09/08 A2993 RMK AO2 SFC VIS 7 SLP136 P0001 T00940083=
200511210651 METAR KATL 210651Z 04009KT 2 1/2SM -RA OVC004 09/08 A2998 RMK AO2 SFC VIS 7 SLP151 P0003 T00940083=
200511210551 METAR KATL 210551Z 05010KT 2 1/2SM -RA BR OVC004 09/08 A2999 RMK AO2 SFC VIS 5 SLP157 P0007 60054 T00890083 10122 20089 58034=
200511210451 METAR KATL 210451Z 05009KT 2 1/2SM RA BR BKN006 OVC012 09/08 A3006 RMK AO2 SFC VIS 3 CIG 005V008 SLP178 P0017 T00890083 401500089=
200511210351 METAR KATL 210351Z 09007KT 2 1/2SM RA BR BKN007 OVC012 09/08 A3009 RMK AO2 SFC VIS 3 SLP191 P0012 T00890078=
200511210251 METAR KATL 210251Z 04014KT 5SM RA BR FEW006 OVC012 09/08 A3010 RMK AO2 SLP194 P0005 60018 T00940078 56014=
200511210241 SPECI KATL 210241Z 04011KT 8SM -RA BR FEW008 OVC012 09/08 A3010 RMK AO2 P0003=
200511210241 SPECI KATL 210241Z 04011KT 8SM -RA BR FEW008 OVC012 09/08 A3010 RMK AO2 P0003=
200511210219 SPECI KATL 210219Z 07008KT 8SM -RA OVC012 10/08 A3012 RMK AO2 P0001=
200511210219 SPECI KATL 210219Z 07008KT 8SM -RA OVC012 10/08 A3012 RMK AO2 P0001=
200511210151 METAR KATL 210151Z 07011KT 7SM -RA SCT014 BKN035 OVC090 10/08 A3010 RMK AO2 SLP196 P0005 T01000083=
200511210122 SPECI KATL 210122Z 06011KT 7SM -RA FEW014 BKN060 OVC085 11/08 A3011 RMK AO2 P0003=
200511210122 SPECI KATL 210122Z 06011KT 7SM -RA FEW014 BKN060 OVC085 11/08 A3011 RMK AO2 P0003=
200511210051 METAR KATL 210051Z 06009KT 7SM -RA OVC014 11/08 A3012 RMK AO2 SLP201 P0008 T01060078=
200511202351 METAR KATL 202351Z 06011KT 10SM -RA OVC018 12/07 A3014 RMK AO2 RAB33 SLP207 P0000 60000 T01220067 10150 20122 53005=
200511202251 METAR KATL 202251Z 07009KT 10SM OVC019 12/06 A3013 RMK AO2 SLP204 SHRA SE T01220056=
200511202219 SPECI KATL 202219Z 06008KT 9SM OVC017 12/06 A3013 RMK AO2=
200511202219 SPECI KATL 202219Z 06008KT 9SM OVC017 12/06 A3013 RMK AO2=
200511202151 METAR KATL 202151Z 09007KT 9SM OVC013 13/07 A3012 RMK AO2 SLP200 T01280067=
200511202140 SPECI KATL 202140Z 11007KT 9SM OVC013 13/07 A3012 RMK AO2=
200511202140 SPECI KATL 202140Z 11007KT 9SM OVC013 13/07 A3012 RMK AO2=
200511202051 METAR KATL 202051Z 08007KT 9SM OVC015 14/07 A3012 RMK AO2 SLP201 BKINOVC OHD T01440067 56022=
200511201951 METAR KATL 201951Z 09010KT 9SM BKN017 BKN130 BKN200 14/06 A3013 RMK AO2 SLP204 T01440061=
200511201851 METAR KATL 201851Z 10006KT 9SM OVC017 14/06 A3017 RMK AO2 SLP217 T01390061=
200511201751 METAR KATL 201751Z 07007KT 9SM OVC017 13/03 A3019 RMK AO2 SLP225 BKINOVC OHD AND SE AND S T01280033 10128 20094 58020=
200511201651 METAR KATL 201651Z 08010KT 9SM OVC017 12/03 A3023 RMK AO2 SLP236 T01220033=
200511201551 METAR KATL 201551Z 07011KT 9SM OVC015 11/03 A3025 RMK AO2 SLP244 T01110028=
200511201530 SPECI KATL 201530Z 09010KT 9SM OVC015 11/03 A3025 RMK AO2=
200511201530 SPECI KATL 201530Z 09010KT 9SM OVC015 11/03 A3025 RMK AO2=
200511201451 METAR KATL 201451Z 09010KT 9SM OVC013 11/02 A3025 RMK AO2 SLP245 T01060022 50005=
200511201429 SPECI KATL 201429Z 08010KT 9SM OVC013 11/02 A3025 RMK AO2=
200511201429 SPECI KATL 201429Z 08010KT 9SM OVC013 11/02 A3025 RMK AO2=
200511201351 METAR KATL 201351Z 08010KT 9SM OVC017 10/01 A3025 RMK AO2 SLP247 T01000011=
200511201324 SPECI KATL 201324Z 06010KT 9SM OVC015 10/M01 A3024 RMK AO2=
200511201324 SPECI KATL 201324Z 06010KT 9SM OVC015 10/M01 A3024 RMK AO2=
200511201251 METAR KATL 201251Z 08008KT 10SM OVC013 09/M03 A3024 RMK AO2 SLP241 T00941028=
200511201151 METAR KATL 201151Z 07009KT 10SM OVC015 09/M04 A3023 RMK AO2 SLP239 T00941044 10100 20089 56003=
200511201051 METAR KATL 201051Z 07009KT 10SM BKN017 09/M05 A3023 RMK AO2 SLP239 T00941050=
200511200951 METAR KATL 200951Z 07010KT 10SM OVC019 09/M05 A3024 RMK AO2 SLP240 T00941050=
200511200851 METAR KATL 200851Z 07009KT 10SM OVC019 09/M06 A3024 RMK AO2 SLP242 T00941056 58001=
200511200751 METAR KATL 200751Z 07008KT 10SM OVC019 09/M06 A3024 RMK AO2 SLP242 T00941056=
200511200724 SPECI KATL 200724Z 08007KT 10SM BKN019 OVC110 09/M06 A3024 RMK AO2=
200511200724 SPECI KATL 200724Z 08007KT 10SM BKN019 OVC110 09/M06 A3024 RMK AO2=
200511200651 METAR KATL 200651Z 07007KT 10SM BKN100 09/M06 A3025 RMK AO2 SLP244 T00891056=
200511200551 METAR KATL 200551Z 11007KT 10SM BKN110 10/M07 A3025 RMK AO2 SLP243 T01001072 10111 20100 58005=
200511200451 METAR KATL 200451Z 09011KT 10SM BKN110 10/M07 A3025 RMK AO2 SLP244 T01001067 401441006=
200511200351 METAR KATL 200351Z 09008KT 10SM FEW080 BKN100 10/M08 A3026 RMK AO2 SLP250 VIRGA N-E T01001078=
200511200251 METAR KATL 200251Z 09009KT 10SM OVC100 10/M08 A3026 RMK AO2 SLP251 T01001078 50002=
200511200151 METAR KATL 200151Z 09009KT 10SM BKN110 10/M07 A3027 RMK AO2 SLP254 T01001067=
200511200051 METAR KATL 200051Z 08008KT 10SM SCT080 BKN110 11/M07 A3026 RMK AO2 SLP253 T01061072=
200511192351 METAR KATL 192351Z 09005KT 10SM FEW040 BKN110 11/M08 A3026 RMK AO2 SLP251 VIRGA NW T01111083 10144 20111 51013=
200511192251 METAR KATL 192251Z 10005KT 10SM BKN120 BKN250 12/M09 A3024 RMK AO2 SLP245 VIRGA NW T01221089=
200511192151 METAR KATL 192151Z 00000KT 10SM BKN120 BKN150 BKN200 13/M11 A3023 RMK AO2 SLP242 T01331106=
200511192051 METAR KATL 192051Z VRB05KT 10SM SCT150 BKN200 14/M11 A3022 RMK AO2 SLP236 T01391106 55008=
200511191951 METAR KATL 191951Z 10008KT 10SM FEW150 SCT200 14/M12 A3022 RMK AO2 SLP236 T01391117=
200511191851 METAR KATL 191851Z 09008KT 10SM FEW150 SCT200 13/M11 A3023 RMK AO2 SLP240 T01331111=
200511191751 METAR KATL 191751Z 10010G16KT 10SM SCT150 BKN200 12/M09 A3025 RMK AO2 SLP245 T01171089 10122 21006 58028=
200511191651 METAR KATL 191651Z 08012KT 10SM FEW150 SCT200 11/M09 A3031 RMK AO2 SLP267 T01111089=
200511191551 METAR KATL 191551Z 10009KT 10SM FEW065 SCT200 09/M07 A3033 RMK AO2 SLP275 T00891072=
200511191451 METAR KATL 191451Z 08011KT 10SM SCT250 07/M06 A3033 RMK AO2 SLP275 T00671056 50015=
200511191351 METAR KATL 191351Z 09008KT 10SM FEW150 SCT250 04/M06 A3033 RMK AO2 SLP278 T00391056=
200511191251 METAR KATL 191251Z 09004KT 10SM BKN200 02/M05 A3032 RMK AO2 SLP272 T00171050=
200511191151 METAR KATL 191151Z 06004KT 10SM FEW200 00/M06 A3029 RMK AO2 SLP262 T00001061 10039 20000 53002=
200511191051 METAR KATL 191051Z 05007KT 10SM CLR 02/M07 A3028 RMK AO2 SLP260 T00171067=
200511190951 METAR KATL 190951Z 04007KT 10SM CLR 02/M07 A3027 RMK AO2 SLP256 T00171072=
200511190851 METAR KATL 190851Z 05006KT 10SM CLR 02/M07 A3028 RMK AO2 SLP259 T00221072 55003=
200511190751 METAR KATL 190751Z 08004KT 10SM CLR 02/M06 A3028 RMK AO2 SLP258 T00221056=
200511190651 METAR KATL 190651Z 08004KT 10SM CLR 03/M07 A3028 RMK AO2 SLP257 T00331067=
200511190551 METAR KATL 190551Z 10003KT 10SM CLR 04/M07 A3029 RMK AO2 SLP261 T00441072 10083 20039 58002=
200511190451 METAR KATL 190451Z 08004KT 10SM CLR 04/M07 A3030 RMK AO2 SLP265 T00391072 401171022=
200511190351 METAR KATL 190351Z 11003KT 10SM CLR 04/M07 A3030 RMK AO2 SLP267 T00391072=
200511190251 METAR KATL 190251Z 36008KT 10SM CLR 07/M12 A3030 RMK AO2 SLP264 T00721117 53004=
200511190151 METAR KATL 190151Z 36008KT 10SM CLR 07/M12 A3029 RMK AO2 SLP261 T00721117=
200511190051 METAR KATL 190051Z 35007KT 10SM CLR 08/M12 A3028 RMK AO2 SLP261 T00831117=
200511182351 METAR KATL 182351Z 33007KT 10SM CLR 08/M11 A3028 RMK AO2 SLP262 T00831106 10117 20083 55003=
200511182251 METAR KATL 182251Z 34008KT 10SM CLR 09/M10 A3028 RMK AO2 SLP261 T00891100=
200511182151 METAR KATL 182151Z 35008KT 10SM CLR 11/M09 A3028 RMK AO2 SLP261 T01061094=
200511182051 METAR KATL 182051Z VRB03KT 10SM CLR 11/M08 A3029 RMK AO2 SLP264 T01111083 56020=
200511181951 METAR KATL 181951Z 27004KT 10SM CLR 11/M09 A3031 RMK AO2 SLP269 T01111089=
200511181851 METAR KATL 181851Z VRB04KT 10SM CLR 11/M09 A3033 RMK AO2 SLP275 T01061089=
200511181751 METAR KATL 181751Z 04006KT 10SM CLR 09/M09 A3035 RMK AO2 SLP285 T00941094 10094 21017 58016=
200511181651 METAR KATL 181651Z 02005KT 10SM CLR 08/M11 A3039 RMK AO2 SLP297 T00831106=
200511181551 METAR KATL 181551Z 07006KT 10SM CLR 06/M10 A3041 RMK AO2 SLP304 T00611100=
200511181451 METAR KATL 181451Z 08009KT 10SM CLR 04/M09 A3040 RMK AO2 SLP302 T00441094 51016=
200511181351 METAR KATL 181351Z 05007KT 10SM FEW250 03/M07 A3039 RMK AO2 SLP300 T00331072=
200511181251 METAR KATL 181251Z 36005KT 10SM FEW250 00/M07 A3037 RMK AO2 SLP294 T00001067=
200511181151 METAR KATL 181151Z 33006KT 10SM CLR M02/M07 A3035 RMK AO2 SLP288 T10171072 10011 21022 53013=
200511181051 METAR KATL 181051Z 32007KT 10SM CLR M02/M07 A3034 RMK AO2 SLP283 T10171072=
200511180951 METAR KATL 180951Z 33005KT 10SM CLR M02/M07 A3031 RMK AO2 SLP273 T10171072=
200511180851 METAR KATL 180851Z 33007KT 10SM CLR M01/M08 A3031 RMK AO2 SLP273 T10111078 56002=
200511180751 METAR KATL 180751Z 33006KT 10SM CLR M01/M08 A3032 RMK AO2 SLP272 T10061083=
200511180651 METAR KATL 180651Z 33005KT 10SM CLR 00/M09 A3032 RMK AO2 SLP272 T00001089=
200511180551 METAR KATL 180551Z VRB04KT 10SM CLR M01/M08 A3032 RMK AO2 SLP275 T10061083 10039 21006 50001=
200511180451 METAR KATL 180451Z 35007KT 10SM CLR 01/M09 A3033 RMK AO2 SLP276 T00111089 400891006=
200511180351 METAR KATL 180351Z 33010KT 10SM CLR 02/M09 A3033 RMK AO2 SLP278 T00171094=
200511180251 METAR KATL 180251Z 33009KT 10SM CLR 02/M10 A3032 RMK AO2 SLP275 T00221100 53005=
200511180151 METAR KATL 180151Z 33010KT 10SM CLR 02/M10 A3030 RMK AO2 SLP271 T00221100=
200511180051 METAR KATL 180051Z 34010KT 10SM CLR 03/M11 A3031 RMK AO2 SLP274 T00331106=
200511172351 METAR KATL 172351Z 33013G21KT 10SM CLR 04/M10 A3030 RMK AO2 SLP270 T00391100 10089 20039 53006=
200511172251 METAR KATL 172251Z 32009KT 10SM CLR 05/M09 A3030 RMK AO2 SLP268 T00501094=
200511172151 METAR KATL 172151Z 32012KT 10SM CLR 07/M10 A3028 RMK AO2 SLP259 T00671100=
200511172051 METAR KATL 172051Z 35013KT 10SM CLR 08/M11 A3028 RMK AO2 SLP261 T00831106 56010=
200511171951 METAR KATL 171951Z 34012KT 10SM CLR 09/M09 A3029 RMK AO2 SLP264 T00891094=
200511171851 METAR KATL 171851Z 33013G18KT 10SM CLR 08/M09 A3031 RMK AO2 SLP268 T00831089=
200511171751 METAR KATL 171751Z 33011G20KT 10SM FEW250 08/M09 A3032 RMK AO2 SLP271 T00781094 10078 21006 58008=
200511171651 METAR KATL 171651Z 32011KT 10SM FEW250 06/M09 A3034 RMK AO2 SLP279 T00611089=
200511171551 METAR KATL 171551Z 32010KT 10SM FEW250 04/M08 A3035 RMK AO2 SLP285 T00441078=
200511171451 METAR KATL 171451Z 33011KT 10SM FEW250 03/M08 A3034 RMK AO2 SLP281 T00281078 53018=
200511171351 METAR KATL 171351Z 34012KT 10SM FEW250 01/M07 A3032 RMK AO2 SLP275 T00111072=
200511171251 METAR KATL 171251Z 32012KT 10SM FEW250 00/M07 A3030 RMK AO2 SLP267 T00001072=
200511171151 METAR KATL 171151Z 33012KT 10SM FEW250 00/M07 A3029 RMK AO2 SLP263 70002 T00001072 10039 20000 53016=
200511171051 METAR KATL 171051Z 32017G22KT 10SM CLR 01/M05 A3027 RMK AO2 SLP255 T00061050=
200511170951 METAR KATL 170951Z 33016G21KT 10SM CLR 02/M04 A3025 RMK AO2 SLP248 T00171044=
200511170851 METAR KATL 170851Z 33013KT 10SM FEW250 02/M04 A3024 RMK AO2 SLP244 T00171044 56002=
200511170751 METAR KATL 170751Z 33017G23KT 10SM FEW250 03/M04 A3024 RMK AO2 SLP245 T00281039=
200511170651 METAR KATL 170651Z 32015G22KT 10SM FEW250 03/M03 A3023 RMK AO2 SLP242 T00331033=
200511170551 METAR KATL 170551Z 33012KT 10SM FEW250 04/M03 A3024 RMK AO2 SLP245 T00391028 10072 20039 51005=
200511170451 METAR KATL 170451Z 33014G19KT 10SM FEW250 04/M03 A3024 RMK AO2 SLP243 T00441028 402000044=
200511170351 METAR KATL 170351Z 32012G19KT 10SM FEW250 05/M02 A3024 RMK AO2 SLP243 T00501022=
200511170251 METAR KATL 170251Z 32015KT 10SM FEW250 06/M02 A3023 RMK AO2 SLP239 T00561017 51008=
200511170151 METAR KATL 170151Z 32012G18KT 10SM SCT150 BKN250 06/M01 A3023 RMK AO2 SLP237 T00611006=
200511170051 METAR KATL 170051Z 31012KT 10SM BKN150 BKN250 07/00 A3022 RMK AO2 SLP235 T00670000=
200511162351 METAR KATL 162351Z 30009KT 10SM FEW150 SCT250 07/01 A3020 RMK AO2 SLP228 T00720006 10117 20072 53014=
200511162251 METAR KATL 162251Z 29014KT 10SM FEW150 BKN250 09/00 A3018 RMK AO2 SLP217 T00890000=
200511162151 METAR KATL 162151Z 30010KT 10SM FEW070 SCT150 BKN250 11/01 A3016 RMK AO2 SLP211 T01060006=
200511162051 METAR KATL 162051Z 30013KT 10SM FEW070 SCT150 SCT250 11/02 A3016 RMK AO2 SLP211 T01110022 53011=
200511161951 METAR KATL 161951Z 31015KT 10SM FEW025 SCT050 BKN070 BKN250 11/04 A3014 RMK AO2 SLP205 T01110039=
200511161851 METAR KATL 161851Z 29016KT 10SM FEW020 BKN050 BKN070 11/06 A3013 RMK AO2 SLP202 T01110056=
200511161829 SPECI KATL 161829Z 30013KT 10SM BKN018 OVC065 12/07 A3013 RMK AO2=
200511161829 SPECI KATL 161829Z 30013KT 10SM BKN018 OVC065 12/07 A3013 RMK AO2=
200511161816 SPECI KATL 161816Z 31015KT 10SM SCT018 OVC065 11/06 A3013 RMK AO2=
200511161816 SPECI KATL 161816Z 31015KT 10SM SCT018 OVC065 11/06 A3013 RMK AO2=
200511161751 METAR KATL 161751Z COR 31016G22KT 10SM BKN018 BKN044 OVC065 11/07 A3013 RMK AO2 SLP200 60002 T01110067 10183 20106 50001=
200511161736 SPECI KATL 161736Z 30015KT 10SM BKN018 BKN030 OVC042 11/07 A3014 RMK AO2=
200511161736 SPECI KATL 161736Z 30015KT 10SM BKN018 BKN030 OVC042 11/07 A3014 RMK AO2=
200511161725 SPECI KATL 161725Z 30014KT 10SM SCT015 BKN030 OVC042 11/07 A3014 RMK AO2=
200511161725 SPECI KATL 161725Z 30014KT 10SM SCT015 BKN030 OVC042 11/07 A3014 RMK AO2=
200511161651 METAR KATL 161651Z 31015KT 10SM FEW013 SCT015 OVC026 11/08 A3014 RMK AO2 RAB13E32 SLP203 P0000 T01110083=
200511161630 SPECI KATL 161630Z 30012KT 8SM -RA FEW010 SCT015 OVC024 12/08 A3013 RMK AO2 RAB13 P0000=
200511161630 SPECI KATL 161630Z 30012KT 8SM -RA FEW010 SCT015 OVC024 12/08 A3013 RMK AO2 RAB13 P0000=
200511161551 METAR KATL 161551Z 31011KT 7SM BKN010 BKN015 OVC024 11/09 A3014 RMK AO2 DZE12 SLP203 P0000 T01110094=
200511161522 SPECI KATL 161522Z 31010KT 7SM BKN012 OVC032 12/10 A3013 RMK AO2 DZE12 P0000=
200511161522 SPECI KATL 161522Z 31010KT 7SM BKN012 OVC032 12/10 A3013 RMK AO2 DZE12 P0000=
200511161451 METAR KATL 161451Z 31011KT 6SM -DZ BR BKN008 BKN014 OVC030 12/11 A3012 RMK AO2 DZE20B46RAB20E45 CIG 006V010 SLP198 P0001 60002 T01170106 53026=
200511161351 METAR KATL 161351Z 29014KT 3SM -DZ BR BKN006 OVC023 13/12 A3010 RMK AO2 WSHFT 1238 SFC VIS 4 DZB15 CIG 004V010 SLP189 P0000 T01280117=
200511161337 SPECI KATL 161337Z 29017KT 10SM -DZ BKN006 OVC023 13/12 A3009 RMK AO2 WSHFT 1238 DZB15 CIG 004V010 P0000=
200511161337 SPECI KATL 161337Z 29017KT 10SM -DZ BKN006 OVC023 13/12 A3009 RMK AO2 WSHFT 1238 DZB15 CIG 004V010 P0000=
200511161251 METAR KATL 161251Z 31015KT 10SM BKN008 BKN012 OVC022 14/13 A3006 RMK AO2 WSHFT 1230 DZE02RAB02E47 CIG 005V010 SLP174 P0001 T01440133=
200511161210 SPECI KATL 161210Z 23010KT 1 1/2SM -RA BR BKN006 OVC012 18/17 A3005 RMK AO2 SFC VIS 4 DZE02RAB02 P0000=
200511161210 SPECI KATL 161210Z 23010KT 1 1/2SM -RA BR BKN006 OVC012 18/17 A3005 RMK AO2 SFC VIS 4 DZE02RAB02 P0000=
200511161203 SPECI KATL 161203Z 24009KT 10SM -RA BKN006 OVC012 18/17 A3005 RMK AO2 DZE02RAB02 P0000=
200511161203 SPECI KATL 161203Z 24009KT 10SM -RA BKN006 OVC012 18/17 A3005 RMK AO2 DZE02RAB02 P0000=
200511161158 SPECI KATL 161158Z 24008KT 10SM -DZ SCT006 OVC012 18/17 A3005 RMK AO2 P0000=
200511161158 SPECI KATL 161158Z 24008KT 10SM -DZ SCT006 OVC012 18/17 A3005 RMK AO2 P0000=
200511161151 METAR KATL 161151Z 23009KT 6SM -DZ BR BKN006 OVC012 18/17 A3004 RMK AO2 TSB11E24RAE40DZB46 CIG 004V009 SLP167 TS MOV NE P0009 60029 70032 T01830172 10194 20183 51003=
200511161134 SPECI KATL 161134Z 20009KT 10SM -RA BKN006 BKN014 OVC022 18/18 A3003 RMK AO2 TSB11E24 TS MOV NE P0009=
200511161134 SPECI KATL 161134Z 20009KT 10SM -RA BKN006 BKN014 OVC022 18/18 A3003 RMK AO2 TSB11E24 TS MOV NE P0009=
200511161125 SPECI KATL 161125Z 20010KT 8SM -RA FEW006 SCT010 OVC020 18/18 A3002 RMK AO2 TSB11E24 TS MOV NE P0009=
200511161125 SPECI KATL 161125Z 20010KT 8SM -RA FEW006 SCT010 OVC020 18/18 A3002 RMK AO2 TSB11E24 TS MOV NE P0009=
200511161112 SPECI KATL 161112Z 18008KT 5SM -TSRA BR FEW006 OVC020CB 18/18 A3003 RMK AO2 TSB11 OCNL LTGIC TS OHD-SW MOV NE P0008=
200511161112 SPECI KATL 161112Z 18008KT 5SM -TSRA BR FEW006 OVC020CB 18/18 A3003 RMK AO2 TSB11 OCNL LTGIC TS OHD-SW MOV NE P0008=
200511161102 SPECI KATL 161102Z 18013KT 5SM RA BR FEW006 SCT010 OVC022 18/18 A3004 RMK AO2 P0003=
200511161102 SPECI KATL 161102Z 18013KT 5SM RA BR FEW006 SCT010 OVC022 18/18 A3004 RMK AO2 P0003=
200511161051 METAR KATL 161051Z 18012KT 5SM RA BR SCT006 BKN010 OVC017 18/18 A3004 RMK AO2 SLP165 P0016 T01830178=
200511160951 METAR KATL 160951Z 19011KT 5SM -RA BR BKN008 BKN012 OVC021 18/18 A3004 RMK AO2 RAB0856E14B41 SLP166 P0001 T01830178=
200511160906 SPECI KATL 160906Z 20007KT 8SM -RA BKN008 BKN013 OVC047 18/18 A3004 RMK AO2 RAB0856 CIG 005V010 P0000=
200511160906 SPECI KATL 160906Z 20007KT 8SM -RA BKN008 BKN013 OVC047 18/18 A3004 RMK AO2 RAB0856 CIG 005V010 P0000=
200511160851 METAR KATL 160851Z 18007KT 10SM BKN010 BKN030 OVC055 18/17 A3003 RMK AO2 RAE49 SLP163 P0001 60003 T01830172 58012=
200511160824 SPECI KATL 160824Z 19007KT 10SM FEW008 SCT028 OVC070 18/17 A3005 RMK AO2 RAE23 P0000=
200511160824 SPECI KATL 160824Z 19007KT 10SM FEW008 SCT028 OVC070 18/17 A3005 RMK AO2 RAE23 P0000=
200511160802 SPECI KATL 160802Z 19009KT 10SM -RA SCT008 BKN020 OVC080 19/17 A3006 RMK AO2 P0000=
200511160802 SPECI KATL 160802Z 19009KT 10SM -RA SCT008 BKN020 OVC080 19/17 A3006 RMK AO2 P0000=
200511160751 METAR KATL 160751Z 19009KT 8SM -RA BKN008 BKN060 OVC080 19/17 A3006 RMK AO2 SLP171 P0002 T01890172=
200511160731 SPECI KATL 160731Z 19009KT 8SM -RA BKN013 BKN065 OVC100 19/18 A3007 RMK AO2 P0002=
200511160731 SPECI KATL 160731Z 19009KT 8SM -RA BKN013 BKN065 OVC100 19/18 A3007 RMK AO2 P0002=
200511160728 SPECI KATL 160728Z 19010KT 7SM -RA BKN015 BKN065 OVC110 19/18 A3007 RMK AO2 P0002=
200511160728 SPECI KATL 160728Z 19010KT 7SM -RA BKN015 BKN065 OVC110 19/18 A3007 RMK AO2 P0002=
200511160651 METAR KATL 160651Z 19011G19KT 10SM -RA SCT018 BKN060 BKN120 OVC200 19/17 A3006 RMK AO2 RAB47 SLP174 P0000 T01890172=
200511160551 METAR KATL 160551Z 18010KT 10SM FEW030 BKN070 OVC085 19/17 A3007 RMK AO2 RAE48 SLP176 P0003 60003 T01940172 10217 20194 50001=
200511160451 METAR KATL 160451Z 18008KT 8SM -RA FEW030 BKN060 OVC075 20/16 A3008 RMK AO2 SLP178 P0000 T02000161 402500150=
200511160351 METAR KATL 160351Z 19009KT 10SM -RA FEW045 BKN060 OVC085 21/16 A3007 RMK AO2 RAB38 SLP177 P0000 T02060161=
200511160251 METAR KATL 160251Z 17007KT 10SM FEW045 BKN060 OVC080 21/15 A3007 RMK AO2 SLP176 MDT CU NW T02110150 53001=
200511160151 METAR KATL 160151Z 17008KT 10SM FEW050 OVC065 22/15 A3006=
200511160051 METAR KATL 160051Z 15007KT 10SM FEW045 BKN100 BKN250 21/15 A3005 RMK AO2 SLP171 MDT CU VC E-SE T02060150=
200511152351 METAR KATL 152351Z 15005KT 10SM FEW070 SCT250 22/15 A3007 RMK AO2 SLP176 T02170150 10250 20217 55001=
200511152251 METAR KATL 152251Z 16006KT 10SM FEW045 BKN070 BKN200 BKN250 23/14 A3006 RMK AO2 SLP174 T02280144=
200511152151 METAR KATL 152151Z 18005KT 10SM FEW047 SCT070 BKN250 24/14 A3006 RMK AO2 SLP173 T02390144=
200511152051 METAR KATL 152051Z 17009G15KT 10SM FEW040 BKN050 BKN070 BKN250 24/15 A3007 RMK AO2 SLP177 T02440150 56022=
200511151951 METAR KATL 151951Z 18013KT 10SM SCT040 BKN060 BKN150 BKN250 24/15 A3008 RMK AO2 SLP179 T02440150=
200511151851 METAR KATL 151851Z 18012G18KT 10SM BKN040 BKN050 BKN110 BKN250 24/15 A3011 RMK AO2 SLP188 T02390150=
200511151751 METAR KATL 151751Z 20012KT 10SM SCT030 SCT050 BKN110 BKN250 23/16 A3014 RMK AO2 SLP200 T02330156 10233 20150 58019=
200511151736 SPECI KATL 151736Z 19012KT 10SM BKN032 BKN090 BKN250 23/16 A3014 RMK AO2=
200511151736 SPECI KATL 151736Z 19012KT 10SM BKN032 BKN090 BKN250 23/16 A3014 RMK AO2=
200511151651 METAR KATL 151651Z 19008KT 10SM BKN025 BKN090 BKN250 22/16 A3017 RMK AO2 SLP211 T02220161=
200511151629 SPECI KATL 151629Z 19010KT 10SM SCT014 SCT080 BKN250 21/17 A3018 RMK AO2=
200511151629 SPECI KATL 151629Z 19010KT 10SM SCT014 SCT080 BKN250 21/17 A3018 RMK AO2=
200511151551 METAR KATL 151551Z 16006KT 6SM HZ OVC010 19/16 A3020 RMK AO2 SLP220 T01940161=
200511151531 SPECI KATL 151531Z 16007KT 6SM HZ OVC010 19/16 A3019 RMK AO2=
200511151531 SPECI KATL 151531Z 16007KT 6SM HZ OVC010 19/16 A3019 RMK AO2=
200511151451 METAR KATL 151451Z 16005KT 3SM BR BKN007 OVC016 18/16 A3020 RMK AO2 SFC VIS 5 CIG 006V011 SLP220 BINOVC W T01780156 50011=
200511151444 SPECI KATL 151444Z 15005KT 3SM BR BKN007 OVC018 17/16 A3020 RMK AO2 SFC VIS 5 CIG 006V011=
200511151444 SPECI KATL 151444Z 15005KT 3SM BR BKN007 OVC018 17/16 A3020 RMK AO2 SFC VIS 5 CIG 006V011=
200511151351 METAR KATL 151351Z 14004KT 2SM BR OVC005 16/15 A3020 RMK AO2 SFC VIS 3 CIG 004V009 SLP222 T01610150=
200511151338 SPECI KATL 151338Z 14006KT 2SM BR BKN005 OVC027 16/15 A3020 RMK AO2 SFC VIS 4=
200511151338 SPECI KATL 151338Z 14006KT 2SM BR BKN005 OVC027 16/15 A3020 RMK AO2 SFC VIS 4=
200511151323 SPECI KATL 151323Z 13005KT 3SM BR FEW007 BKN026 OVC060 16/14 A3019 RMK AO2 SFC VIS 6=
200511151323 SPECI KATL 151323Z 13005KT 3SM BR FEW007 BKN026 OVC060 16/14 A3019 RMK AO2 SFC VIS 6=
200511151311 SPECI KATL 151311Z 13006KT 6SM BR BKN026 BKN060 BKN140 OVC250 16/14 A3019 RMK AO2=
200511151311 SPECI KATL 151311Z 13006KT 6SM BR BKN026 BKN060 BKN140 OVC250 16/14 A3019 RMK AO2=
200511151251 METAR KATL 151251Z 13004KT 8SM SCT030 BKN050 BKN140 BKN250 16/14 A3018 RMK AO2 SLP217 T01560144=
200511151151 METAR KATL 151151Z 13006KT 9SM FEW044 BKN060 BKN140 BKN250 15/13 A3016 RMK AO2 SLP210 T01500133 10183 20150 51000=
200511151051 METAR KATL 151051Z 14005KT 10SM FEW060 SCT140 BKN250 16/13 A3016 RMK AO2 SLP209 T01560133=
200511150951 METAR KATL 150951Z 17006KT 10SM FEW060 SCT140 SCT250 16/13 A3017 RMK AO2 SLP210 T01610133=
200511150851 METAR KATL 150851Z 17006KT 10SM FEW060 SCT140 SCT250 17/13 A3016 RMK AO2 SLP207 T01670133 56004=
200511150751 METAR KATL 150751Z 16006KT 10SM OVC060 17/14 A3016 RMK AO2 SLP207 T01720139=
200511150651 METAR KATL 150651Z 15007KT 10SM FEW150 SCT250 17/14 A3016 RMK AO2 SLP207 T01670139=
200511150551 METAR KATL 150551Z 14005KT 10SM FEW200 BKN250 17/14 A3017 RMK AO2 SLP210 T01670139 10206 20167 58007=
200511150451 METAR KATL 150451Z 14007KT 10SM FEW200 BKN250 17/13 A3018 RMK AO2 SLP214 T01720133 402560150=
200511150351 METAR KATL 150351Z 13006KT 10SM FEW150 SCT200 BKN250 18/13 A3019 RMK AO2 SLP218 T01780128=
200511150251 METAR KATL 150251Z 13005KT 10SM FEW150 SCT200 BKN250 18/12 A3019 RMK AO2 SLP219 T01830122 51006=
200511150151 METAR KATL 150151Z 13003KT 10SM FEW200 SCT250 19/13 A3019 RMK AO2 SLP219 T01890128=
200511150051 METAR KATL 150051Z 13005KT 10SM SCT200 BKN250 20/13 A3018 RMK AO2 SLP215 T02000128=
200511142351 METAR KATL 142351Z 14005KT 10SM FEW060 BKN200 BKN250 21/13 A3018 RMK AO2 SLP213 T02060133 10256 20206 55000=
200511142251 METAR KATL 142251Z 14007KT 10SM FEW060 BKN200 OVC250 22/13 A3016 RMK AO2 SLP209 T02170128=
200511142151 METAR KATL 142151Z 17008KT 10SM FEW060 SCT100 BKN230 23/12 A3016 RMK AO2 SLP209 T02330122=
200511142051 METAR KATL 142051Z 16009KT 10SM FEW060 SCT090 BKN230 24/12 A3018 RMK AO2 SLP213 T02390117 56015=
200511141951 METAR KATL 141951Z 16009KT 9SM SCT055 BKN230 24/11 A3018 RMK AO2 SLP214 T02440111=
200511141851 METAR KATL 141851Z 18008KT 10SM SCT050 SCT070 SCT120 BKN230 24/12 A3020 RMK AO2 SLP219 T02440122=
200511141751 METAR KATL 141751Z 17008G14KT 10SM FEW050 SCT120 BKN230 25/13 A3022 RMK AO2 SLP228 T02500128 10250 20156 58020=
200511141651 METAR KATL 141651Z 21007KT 10SM FEW045 SCT070 SCT120 BKN230 24/13 A3025 RMK AO2 SLP237 T02440128=
200511141551 METAR KATL 141551Z 19007KT 10SM FEW070 SCT120 BKN230 23/14 A3027 RMK AO2 SLP246 T02280139=
200511141451 METAR KATL 141451Z 00000KT 10SM FEW014 BKN070 BKN140 BKN250 21/15 A3028 RMK AO2 SLP250 T02060150 51007=
200511141351 METAR KATL 141351Z 16006KT 7SM FEW012 BKN070 BKN140 BKN250 18/14 A3028 RMK AO2 SLP250 T01780139=
200511141251 METAR KATL 141251Z 00000KT 7SM FEW006 SCT050 BKN140 BKN250 17/13 A3027 RMK AO2 SLP247 T01670128=
200511141234 SPECI KATL 141234Z 00000KT 8SM BKN006 OVC050 16/13 A3027 RMK AO2=
200511141234 SPECI KATL 141234Z 00000KT 8SM BKN006 OVC050 16/13 A3027 RMK AO2=
200511141214 SPECI KATL 141214Z 16003KT 8SM FEW006 OVC048 16/13 A3027 RMK AO2=
200511141214 SPECI KATL 141214Z 16003KT 8SM FEW006 OVC048 16/13 A3027 RMK AO2=
200511141151 METAR KATL 141151Z 00000KT 10SM SCT046 BKN070 BKN140 BKN250 16/13 A3026 RMK AO2 SLP244 T01560128 10167 20150 53005=
200511141051 METAR KATL 141051Z 15003KT 10SM BKN070 BKN140 OVC250 16/13 A3025 RMK AO2 SLP240 T01610128=
200511140951 METAR KATL 140951Z 13004KT 10SM FEW048 OVC065 16/13 A3025 RMK AO2 SLP237 T01610133=
200511140851 METAR KATL 140851Z 10005KT 10SM SCT044 OVC060 16/14 A3025 RMK AO2 SLP237 T01560139 58000=
200511140751 METAR KATL 140751Z 00000KT 9SM OVC060 17/14 A3025 RMK AO2 SLP239 T01670139=
200511140651 METAR KATL 140651Z 08003KT 8SM OVC049 16/14 A3025 RMK AO2 SLP239 T01610144=
200511140551 METAR KATL 140551Z 06004KT 8SM FEW060 SCT110 16/14 A3025 RMK AO2 SLP239 T01610144 10189 20161 58007=
200511140451 METAR KATL 140451Z 07005KT 9SM SCT046 BKN060 BKN110 17/15 A3027 RMK AO2 SLP245 T01720150 402170100=
200511140351 METAR KATL 140351Z 07005KT 9SM FEW070 BKN110 17/15 A3027 RMK AO2 SLP246 T01670150=
200511140251 METAR KATL 140251Z 07004KT 10SM FEW060 SCT100 17/15 A3027 RMK AO2 SLP248 T01720150 53003=
200511140151 METAR KATL 140151Z 00000KT 10SM FEW080 17/15 A3026 RMK AO2 SLP246 T01720150=
200511140051 METAR KATL 140051Z 27003KT 10SM FEW038 SCT055 BKN070 18/15 A3026 RMK AO2 SLP245 T01830150=
200511132351 METAR KATL 132351Z 30007KT 10SM SCT035 BKN090 19/15 A3026 RMK AO2 SLP245 T01890150 10217 20189 53013=
200511132251 METAR KATL 132251Z 00000KT 10SM BKN037 BKN060 19/14 A3024 RMK AO2 SLP237 T01940144=
200511132151 METAR KATL 132151Z 18008KT 9SM BKN033 BKN043 BKN065 21/14 A3023 RMK AO2 SLP234 T02060139=
200511132051 METAR KATL 132051Z 19009KT 9SM BKN032 BKN041 BKN050 21/14 A3022 RMK AO2 SLP231 T02110139 56019=
200511132024 SPECI KATL 132024Z 18008KT 9SM BKN034 BKN046 BKN100 21/14 A3023 RMK AO2 TCU DSNT SW=
200511132024 SPECI KATL 132024Z 18008KT 9SM BKN034 BKN046 BKN100 21/14 A3023 RMK AO2 TCU DSNT SW=
200511131958 SPECI KATL 131958Z 17009KT 9SM BKN029 OVC060 22/14 A3023 RMK AO2 TCU DSNT SW=
200511131958 SPECI KATL 131958Z 17009KT 9SM BKN029 OVC060 22/14 A3023 RMK AO2 TCU DSNT SW=
200511131951 METAR KATL 131951Z 16012KT 9SM SCT029 BKN060 BKN100 22/14 A3023 RMK AO2 SLP234 T02170139=
200511131901 SPECI KATL 131901Z 19006KT 9SM SCT029 OVC060 20/14 A3026 RMK AO2=
200511131901 SPECI KATL 131901Z 19006KT 9SM SCT029 OVC060 20/14 A3026 RMK AO2=
200511131851 METAR KATL 131851Z 18007KT 9SM BKN029 OVC060 20/14 A3026 RMK AO2 SLP244 T02000139=
200511131824 SPECI KATL 131824Z 20008KT 9SM BKN027 OVC070 20/14 A3027 RMK AO2=
200511131824 SPECI KATL 131824Z 20008KT 9SM BKN027 OVC070 20/14 A3027 RMK AO2=
200511131751 METAR KATL 131751Z 18008KT 9SM BKN065 19/13 A3028 RMK AO2 SLP251 T01940133 10200 20106 58012=
200511131715 SPECI KATL 131715Z 18008KT 9SM FEW027 OVC060 18/13 A3030 RMK AO2=
200511131715 SPECI KATL 131715Z 18008KT 9SM FEW027 OVC060 18/13 A3030 RMK AO2=
200511131651 METAR KATL 131651Z 16007KT 9SM BKN027 OVC033 18/13 A3031 RMK AO2 SLP262 T01830128=
200511131641 SPECI KATL 131641Z 18008KT 9SM BKN025 OVC033 18/13 A3032 RMK AO2=
200511131641 SPECI KATL 131641Z 18008KT 9SM BKN025 OVC033 18/13 A3032 RMK AO2=
200511131551 METAR KATL 131551Z 20008KT 180V240 9SM FEW023 BKN060 BKN085 BKN140 18/12 A3032 RMK AO2 SLP266 T01780122=
200511131451 METAR KATL 131451Z 13005KT 10SM FEW021 SCT075 13/11 A3032 RMK AO2 SLP266 T01280111 51018=
200511131351 METAR KATL 131351Z 12005KT 8SM SCT023 BKN032 OVC065 12/11 A3031 RMK AO2 SLP263 T01170106=
200511131251 METAR KATL 131251Z 10003KT 8SM FEW120 SCT180 11/10 A3029 RMK AO2 SLP256 T01110100=
200511131151 METAR KATL 131151Z 11004KT 10SM FEW027 SCT120 11/09 A3026 RMK AO2 SLP247 T01060094 10133 20100 53003=
200511131051 METAR KATL 131051Z 09006KT 10SM FEW055 10/09 A3026 RMK AO2 SLP247 T01000089=
200511130951 METAR KATL 130951Z 11005KT 10SM SCT047 11/09 A3025=
200511130851 METAR KATL 130851Z 11005KT 10SM FEW055 12/09 A3025 RMK AO2 SLP243 T01170089 58006=
200511130751 METAR KATL 130751Z 11005KT 10SM SCT055 13/09 A3027 RMK AO2 SLP247 T01280089=
200511130651 METAR KATL 130651Z 12005KT 10SM BKN050 13/08 A3027 RMK AO2 SLP249 T01330083=
200511130551 METAR KATL 130551Z 12005KT 10SM OVC048 13/08 A3027 RMK AO2 SLP249 T01330078 10161 20128 53006=
200511130451 METAR KATL 130451Z 12005KT 10SM CLR 13/07 A3026 RMK AO2 SLP245 T01280072 402000044=
200511130351 METAR KATL 130351Z 11007KT 10SM CLR 14/07 A3025 RMK AO2 SLP242 T01390067=
200511130251 METAR KATL 130251Z 11009KT 10SM CLR 14/05 A3026 RMK AO2 SLP244 T01440050 53010=
200511130151 METAR KATL 130151Z 11007KT 10SM CLR 15/04 A3024 RMK AO2 SLP241 T01500044=
200511130051 METAR KATL 130051Z 11006KT 10SM CLR 15/05 A3023 RMK AO2 SLP238 T01500050=
200511122351 METAR KATL 122351Z 11006KT 10SM CLR 16/04 A3022 RMK AO2 SLP236 T01610039 10200 20161 53003=
200511122251 METAR KATL 122251Z 12003KT 10SM CLR 18/03 A3022 RMK AO2 SLP232 T01780033=
200511122151 METAR KATL 122151Z 13009KT 10SM CLR 19/03 A3020 RMK AO2 SLP226 T01890033=
200511122051 METAR KATL 122051Z 16007KT 10SM CLR 19/03 A3022 RMK AO2 SLP231 T01940033 55010=
200511121951 METAR KATL 121951Z 12007KT 10SM CLR 19/03 A3021 RMK AO2 SLP230 T01940028=
200511121851 METAR KATL 121851Z 14005KT 10SM CLR 19/01 A3023 RMK AO2 SLP234 T01940011=
200511121751 METAR KATL 121751Z 12009KT 10SM CLR 18/M01 A3025 RMK AO2 SLP241 T01831011 10183 20044 58014=
200511121651 METAR KATL 121651Z 12008KT 10SM CLR 17/00 A3028 RMK AO2 SLP251 T01670000=
200511121551 METAR KATL 121551Z 13007KT 10SM CLR 15/00 A3029 RMK AO2 SLP257 T01500000=
200511121451 METAR KATL 121451Z 13007KT 10SM CLR 13/00 A3029 RMK AO2 SLP257 T01280000 51013=
200511121351 METAR KATL 121351Z 09004KT 10SM CLR 09/00 A3028 RMK AO2 SLP256 T00940000=
200511121251 METAR KATL 121251Z 08004KT 10SM FEW250 06/M01 A3027 RMK AO2 SLP252 T00611006=
200511121151 METAR KATL 121151Z 09004KT 10SM FEW250 05/M01 A3025 RMK AO2 SLP245 T00501011 10089 20050 53017=
200511121051 METAR KATL 121051Z 10003KT 10SM CLR 07/M02 A3023 RMK AO2 SLP238 T00671022=
200511120951 METAR KATL 120951Z 00000KT 10SM CLR 07/M02 A3021 RMK AO2 SLP229 T00671017=
200511120851 METAR KATL 120851Z 13003KT 10SM CLR 07/M02 A3020 RMK AO2 SLP225 T00721022 56001=
200511120751 METAR KATL 120751Z 13003KT 10SM CLR 08/M03 A3020 RMK AO2 SLP226 T00831028=
200511120651 METAR KATL 120651Z 00000KT 10SM CLR 08/M02 A3019 RMK AO2 SLP224 T00831022=
200511120551 METAR KATL 120551Z 00000KT 10SM SCT250 09/M02 A3020 RMK AO2 SLP227 T00891022 10139 20089 55000=
200511120451 METAR KATL 120451Z 14003KT 10SM BKN250 10/M03 A3019 RMK AO2 SLP225 T01001028 401720044=
200511120351 METAR KATL 120351Z 14004KT 10SM BKN250 11/M03 A3020 RMK AO2 SLP225 T01061033=
200511120251 METAR KATL 120251Z 14004KT 10SM FEW250 12/M03 A3020 RMK AO2 SLP228 T01171033 50004=
200511120151 METAR KATL 120151Z 14003KT 10SM FEW250 12/M03 A3020 RMK AO2 SLP229 T01221033=
200511120051 METAR KATL 120051Z 14004KT 10SM FEW250 13/M04 A3020 RMK AO2 SLP227 T01281039=
200511112351 METAR KATL 112351Z 15004KT 10SM SCT250 14/M04 A3019 RMK AO2 SLP225 T01391044 10172 20139 51001=
200511112251 METAR KATL 112251Z 00000KT 10SM BKN250 15/M06 A3019 RMK AO2 SLP224 T01501061=
200511112151 METAR KATL 112151Z 15003KT 10SM SCT250 17/M07 A3019 RMK AO2 SLP223 T01671067=
200511112051 METAR KATL 112051Z 00000KT 10SM BKN250 17/M07 A3018 RMK AO2 SLP222 T01671072 56012=
200511111951 METAR KATL 111951Z 19004KT 10SM SCT250 17/M07 A3019 RMK AO2 SLP226 T01671072=
200511111851 METAR KATL 111851Z 00000KT 10SM SCT250 16/M07 A3020 RMK AO2 SLP229 T01611072=
200511111751 METAR KATL 111751Z 20003KT 10SM FEW250 14/M07 A3022 RMK AO2 SLP235 T01441067 10156 20050 58013=
200511111651 METAR KATL 111651Z 12006KT 10SM SCT250 14/M05 A3025 RMK AO2 SLP244 T01441050=
200511111551 METAR KATL 111551Z 13006KT 10SM FEW250 13/M05 A3027 RMK AO2 SLP250 T01331050=
200511111451 METAR KATL 111451Z 15007KT 10SM FEW250 12/M05 A3026 RMK AO2 SLP249 T01171050 51017=
200511111351 METAR KATL 111351Z 12005KT 10SM FEW250 10/M04 A3026 RMK AO2 SLP247 T01001039=
200511111251 METAR KATL 111251Z 00000KT 10SM FEW250 07/M02 A3023 RMK AO2 SLP241 T00671017=
200511111151 METAR KATL 111151Z COR 00000KT 10SM FEW250 05/M03 A3021 RMK AO2 SLP233 T00501028 10067 20044 53018=
200511111051 METAR KATL 111051Z 34003KT 10SM CLR 05/M03 A3019 RMK AO2 SLP225 T00501028=
200511110951 METAR KATL 110951Z 00000KT 10SM CLR 04/M03 A3017 RMK AO2 SLP218 T00441028=
200511110851 METAR KATL 110851Z 32004KT 10SM CLR 05/M03 A3016 RMK AO2 SLP212 T00501033 50003=
200511110751 METAR KATL 110751Z 33007KT 10SM FEW250 06/M03 A3016 RMK AO2 SLP214 T00611033=
200511110651 METAR KATL 110651Z 32007KT 10SM FEW250 06/M03 A3016 RMK AO2 SLP215 T00611033=
200511110551 METAR KATL 110551Z 33006KT 10SM FEW250 07/M04 A3015 RMK AO2 SLP209 T00671039 10128 20067 53005=
200511110451 METAR KATL 110451Z 31004KT 10SM FEW250 08/M04 A3014 RMK AO2 SLP208 T00781039 402060078=
200511110351 METAR KATL 110351Z 34006KT 10SM SCT250 09/M05 A3013 RMK AO2 SLP205 T00891050=
200511110251 METAR KATL 110251Z 32008KT 10SM BKN250 10/M06 A3013 RMK AO2 SLP203 T01001056 53007=
200511110151 METAR KATL 110151Z 32010KT 10SM BKN250 11/M06 A3011 RMK AO2 SLP197 T01061061=
200511110051 METAR KATL 110051Z 32010KT 10SM FEW250 11/M07 A3012 RMK AO2 SLP199 T01111067=
200511102351 METAR KATL 102351Z 32009KT 10SM FEW250 13/M08 A3011 RMK AO2 SLP196 T01281083 10183 20128 53008=
200511102251 METAR KATL 102251Z 32014KT 10SM SCT250 14/M09 A3010 RMK AO2 SLP193 T01391094=
200511102151 METAR KATL 102151Z 32014KT 10SM FEW200 SCT250 16/M11 A3008 RMK AO2 SLP184 T01611111=
200511102051 METAR KATL 102051Z 33015KT 10SM FEW200 17/M13 A3009 RMK AO2 SLP184 T01721128 55003=
200511101951 METAR KATL 101951Z 32016G22KT 10SM FEW200 18/M10 A3007 RMK AO2 SLP178 T01781100=
200511101851 METAR KATL 101851Z 35011G19KT 10SM FEW200 17/M09 A3008 RMK AO2 SLP182 T01721089=
200511101751 METAR KATL 101751Z 30015G20KT 10SM FEW200 17/M07 A3009 RMK AO2 SLP186 T01721067 10172 20106 58007=
200511101651 METAR KATL 101651Z 33016G21KT 10SM FEW200 SCT250 16/M05 A3012 RMK AO2 SLP193 T01561050=
200511101551 METAR KATL 101551Z 32012KT 10SM BKN200 13/M04 A3012 RMK AO2 SLP196 T01281039=
200511101451 METAR KATL 101451Z 31015KT 10SM FEW150 BKN200 BKN250 14/M03 A3011 RMK AO2 SLP194 T01391033 51019=
200511101351 METAR KATL 101351Z 32018G23KT 10SM SCT150 BKN250 11/M03 A3010 RMK AO2 PK WND 31026/1337 SLP190 T01111028=
200511101251 METAR KATL 101251Z 31018G22KT 10SM SCT150 SCT250 12/M02 A3008 RMK AO2 SLP184 T01171022=
200511101151 METAR KATL 101151Z 31014KT 10SM FEW060 SCT200 12/01 A3006 RMK AO2 SLP174 60000 T01220006 10200 20122 53016 $=
200511101051 METAR KATL 101051Z 31013KT 10SM FEW050 SCT250 13/02 A3003 RMK AO2 SLP165 T01330017 $=
200511101001 SPECI KATL 101001Z 32013KT 10SM FEW011 SCT016 SCT023 15/02 A3002 RMK AO2 $=
200511101001 SPECI KATL 101001Z 32013KT 10SM FEW011 SCT016 SCT023 15/02 A3002 RMK AO2 $=
200511100951 METAR KATL 100951Z 32015G27KT 10SM BKN014 OVC023 16/04 A3001 RMK AO2 PK WND 34028/0936 RAE00 SLP156 P0000 T01560039 $=
200511100932 SPECI KATL 100932Z 32012KT 10SM BKN014 BKN060 OVC070 17/15 A3001 RMK AO2 RAE00 P0000 $=
200511100932 SPECI KATL 100932Z 32012KT 10SM BKN014 BKN060 OVC070 17/15 A3001 RMK AO2 RAE00 P0000 $=
200511100908 SPECI KATL 100908Z 30007KT 10SM SCT022 BKN055 OVC070 17/14 A3000 RMK AO2 RAE00 P0000 $=
200511100908 SPECI KATL 100908Z 30007KT 10SM SCT022 BKN055 OVC070 17/14 A3000 RMK AO2 RAE00 P0000 $=
200511100851 METAR KATL 100851Z 29011KT 9SM -RA BKN027 OVC055 18/13 A3001 RMK AO2 RAB41 SLP155 P0000 60000 T01780133 53001 $=
200511100825 SPECI KATL 100825Z 27010KT 10SM BKN027 OVC055 19/13 A3000 RMK AO2 $=
200511100825 SPECI KATL 100825Z 27010KT 10SM BKN027 OVC055 19/13 A3000 RMK AO2 $=
200511100751 METAR KATL 100751Z 25009KT 10SM SCT050 SCT250 19/12 A2999 RMK AO2 SLP146 T01890122 $=
200511100651 METAR KATL 100651Z 24009KT 10SM FEW050 SCT250 19/12 A2999 RMK AO2 SLP146 T01940117 $=
200511100551 METAR KATL 100551Z 25012KT 10SM FEW150 BKN250 20/12 A3000 RMK AO2 SLP152 T02000122 10222 20194 56015=
200511100451 METAR KATL 100451Z 24010KT 10SM BKN250 21/12 A3002 RMK AO2 SLP156 T02060122 402670150=
200511100351 METAR KATL 100351Z 23009KT 10SM BKN250 20/12 A3003 RMK AO2 SLP160 T02000117=
200511100251 METAR KATL 100251Z 23007KT 10SM BKN250 20/13 A3005 RMK AO2 SLP168 T02000128 58007=
200511100151 METAR KATL 100151Z 22008KT 10SM FEW200 BKN250 21/13 A3006 RMK AO2 SLP173 T02060128=
200511100051 METAR KATL 100051Z 23007KT 10SM FEW200 BKN250 22/13 A3008 RMK AO2 SLP179 T02170128=
200511092351 METAR KATL 092351Z 23006KT 10SM FEW080 SCT200 BKN250 22/13 A3007 RMK AO2 SLP178 T02220128 10267 20222 51003=
200511092251 METAR KATL 092251Z 23004KT 10SM FEW080 SCT200 BKN250 23/12 A3007 RMK AO2 SLP176 T02330117=
200511092151 METAR KATL 092151Z 26007KT 10SM FEW080 SCT200 BKN250 25/12 A3007 RMK AO2 SLP174 T02500117=
200511092051 METAR KATL 092051Z 27007KT 10SM FEW070 SCT200 BKN250 26/12 A3006 RMK AO2 SLP172 T02560122 56021=
200511091951 METAR KATL 091951Z 27010KT 10SM FEW070 SCT200 BKN250 26/12 A3007 RMK AO2 SLP173 T02610117=
200511091851 METAR KATL 091851Z 29010KT 10SM FEW055 SCT150 SCT250 26/12 A3009 RMK AO2 SLP181 T02610122=
200511091751 METAR KATL 091751Z 25009KT 10SM FEW050 SCT200 SCT250 25/13 A3013 RMK AO2 SLP195 T02500128 10250 20150 58020=
200511091651 METAR KATL 091651Z 24010KT 10SM FEW045 SCT200 BKN250 24/13 A3016 RMK AO2 SLP206 T02440128=
200511091551 METAR KATL 091551Z 27010KT 10SM BKN250 24/13 A3019 RMK AO2 SLP214 T02440133=
200511091451 METAR KATL 091451Z 27010KT 10SM BKN250 23/14 A3019 RMK AO2 SLP215 T02280139 50009=
200511091351 METAR KATL 091351Z 22004KT 8SM FEW055 SCT250 18/14 A3020 RMK AO2 SLP219 T01830144=
200511091251 METAR KATL 091251Z 23003KT 8SM FEW055 SCT250 16/14 A3018 RMK AO2 SLP214 T01610139=
200511091151 METAR KATL 091151Z 00000KT 8SM FEW055 SCT250 16/13 A3016 RMK AO2 SLP208 T01560133 10183 20156 51008=
200511091051 METAR KATL 091051Z 23003KT 10SM FEW250 16/13 A3015 RMK AO2 SLP205 T01560133=
200511090951 METAR KATL 090951Z 28004KT 9SM SCT250 17/13 A3016 RMK AO2 SLP206 T01670133=
200511090851 METAR KATL 090851Z 24003KT 10SM SCT250 17/13 A3014 RMK AO2 SLP197 T01720133 58005=
200511090751 METAR KATL 090751Z 26007KT 10SM CLR SCT250 18/14 A3015 RMK AO2 SLP201 T01830139=
200511090651 METAR KATL 090651Z 24005KT 10SM FEW250 18/14 A3015 RMK AO2 SLP202 T01780139=
200511090551 METAR KATL 090551Z 24005KT 10SM FEW250 18/14 A3015 RMK AO2 SLP203 T01830139 10222 20183 58007=
200511090451 METAR KATL 090451Z 23005KT 10SM FEW250 19/14 A3016 RMK AO2 SLP206 T01890139 402780122=
200511090351 METAR KATL 090351Z 23005KT 10SM FEW050 19/14 A3017 RMK AO2 SLP210 T01940139=
200511090251 METAR KATL 090251Z 23004KT 10SM FEW055 21/14 A3017 RMK AO2 SLP211 T02060139 53003=
200511090151 METAR KATL 090151Z 00000KT 10SM FEW060 21/14 A3017 RMK AO2 SLP211 T02060139=
200511090051 METAR KATL 090051Z 00000KT 10SM FEW065 21/14 A3017 RMK AO2 SLP211 T02060139=
200511082351 METAR KATL 082351Z 23003KT 10SM FEW250 22/14 A3017 RMK AO2 SLP211 T02220139 10278 20222 53007=
200511082251 METAR KATL 082251Z 00000KT 10SM FEW050 SCT200 24/13 A3015 RMK AO2 SLP205 T02390133=
200511082151 METAR KATL 082151Z 23003KT 10SM FEW055 SCT150 SCT180 BKN250 26/13 A3014 RMK AO2 SLP201 T02560128=
200511082051 METAR KATL 082051Z 30003KT 10SM FEW055 SCT180 SCT200 BKN250 27/14 A3014 RMK AO2 SLP202 T02670139 56017=
200511081951 METAR KATL 081951Z 24006KT 10SM FEW055 SCT200 BKN250 27/14 A3015 RMK AO2 SLP204 T02720139=
200511081851 METAR KATL 081851Z COR VRB05KT 10SM FEW050 SCT180 SCT250 27/14 A3017 RMK AO2 SLP210 T02670144 $=
200511081751 METAR KATL 081751Z VRB03KT 10SM FEW040 SCT250 26/15 A3020 RMK AO2 SLP220 T02610150 10267 20122 58021 $=
200511081651 METAR KATL 081651Z 29008KT 10SM FEW040 SCT150 SCT250 26/16 A3023 RMK AO2 SLP232 T02560156 $=
200511081551 METAR KATL 081551Z 31007KT 10SM FEW150 SCT250 24/16 A3025 RMK AO2 SLP238 T02390156=
200511081451 METAR KATL 081451Z 30007KT 10SM FEW150 SCT250 23/16 A3026 RMK AO2 SLP241 T02280156 51005=
200511081351 METAR KATL 081351Z 25003KT 10SM FEW180 20/14 A3026 RMK AO2 SLP240 T02000139=
200511081251 METAR KATL 081251Z 27004KT 9SM FEW250 14/11 A3025 RMK AO2 SLP239 T01390111=
200511081151 METAR KATL 081151Z 28003KT 8SM FEW250 13/10 A3024 RMK AO2 SLP237 T01330100 10156 20133 53005=
200511081051 METAR KATL 081051Z 00000KT 7SM FEW250 14/10 A3023 RMK AO2 SLP234 T01390100=
200511080951 METAR KATL 080951Z 00000KT 10SM FEW250 14/10 A3023 RMK AO2 SLP232 T01390100=
200511080851 METAR KATL 080851Z 00000KT 10SM FEW250 14/10 A3023 RMK AO2 SLP231 T01390100 58004=
200511080751 METAR KATL 080751Z 30004KT 9SM FEW250 14/10 A3024 RMK AO2 SLP233 T01390100=
200511080651 METAR KATL 080651Z 00000KT 10SM FEW250 14/10 A3023 RMK AO2 SLP232 T01440100=
200511080551 METAR KATL 080551Z 29003KT 10SM FEW250 14/09 A3024 RMK AO2 SLP235 T01440094 10228 20139 58001=
200511080451 METAR KATL 080451Z 00000KT 10SM FEW250 16/10 A3024 RMK AO2 SLP236 T01560100 402610144=
200511080351 METAR KATL 080351Z 27003KT 10SM FEW250 17/09 A3025 RMK AO2 SLP238 T01670094=
200511080251 METAR KATL 080251Z 00000KT 10SM FEW250 17/09 A3024 RMK AO2 SLP237 T01720094 53005=
200511080151 METAR KATL 080151Z 19003KT 10SM SCT250 18/09 A3024 RMK AO2 SLP234 T01830094=
200511080051 METAR KATL 080051Z 00000KT 10SM SCT250 20/09 A3023 RMK AO2 SLP234 T02000094=
200511072351 METAR KATL 072351Z 02005KT 10SM SCT250 23/07 A3023 RMK AO2 SLP231 T02280072 10261 20228 53004=
200511072251 METAR KATL 072251Z 35006KT 10SM SCT250 23/07 A3022 RMK AO2 SLP227 T02330067=
200511072151 METAR KATL 072151Z 36006KT 10SM FEW250 25/07 A3022 RMK AO2 SLP226 T02500067=
200511072051 METAR KATL 072051Z 32009KT 10SM FEW070 SCT250 26/09 A3022 RMK AO2 SLP225 T02560089 56010=
200511071951 METAR KATL 071951Z 33008KT 10SM FEW060 SCT250 26/10 A3022 RMK AO2 SLP226 T02560100=
200511071851 METAR KATL 071851Z 26004KT 10SM FEW045 SCT250 24/12 A3023 RMK AO2 SLP230 T02440122=
200511071751 METAR KATL 071751Z VRB04KT 10SM FEW045 SCT250 24/13 A3025 RMK AO2 SLP236 T02440133 10250 20144 58013=
200511071651 METAR KATL 071651Z 33008KT 10SM FEW250 24/14 A3027 RMK AO2 SLP245 T02390144=
200511071551 METAR KATL 071551Z 33007KT 10SM FEW250 22/14 A3029 RMK AO2 SLP251 T02220139=
200511071451 METAR KATL 071451Z 29004KT 10SM FEW250 20/16 A3029 RMK AO2 SLP251 T02000156 51017=
200511071351 METAR KATL 071351Z 34008KT 6SM BR FEW250 18/16 A3028 RMK AO2 SLP248 T01780156=
200511071251 METAR KATL 071251Z 31007KT 6SM BR FEW250 16/15 A3026 RMK AO2 SLP243 T01560150=
200511071151 METAR KATL 071151Z 30005KT 4SM BR FEW006 SCT022 SCT250 15/14 A3023 RMK AO2 SLP234 T01500144 10167 20144 51015 $=
200511071051 METAR KATL 071051Z 30004KT 5SM BR FEW005 14/14 A3022 RMK AO2 SLP229 T01440144=
200511070951 METAR KATL 070951Z 30005KT 5SM BR FEW005 16/15 A3020 RMK AO2 SLP223 T01560150=
200511070939 SPECI KATL 070939Z 29005KT 5SM BR FEW005 16/15 A3020 RMK AO2=
200511070939 SPECI KATL 070939Z 29005KT 5SM BR FEW005 16/15 A3020 RMK AO2=
200511070851 METAR KATL 070851Z 29006KT 5SM BR CLR 16/16 A3019 RMK AO2 SLP217 T01610156 53005=
200511070751 METAR KATL 070751Z 28005KT 4SM BR CLR 16/16 A3019 RMK AO2 SLP216 T01610156=
200511070651 METAR KATL 070651Z 27006KT 4SM BR CLR 17/16 A3017 RMK AO2 SLP211 T01670161=
200511070551 METAR KATL 070551Z 27004KT 5SM BR CLR 17/16 A3017 RMK AO2 SLP211 T01670156 10200 20167 53003=
200511070451 METAR KATL 070451Z 26005KT 7SM CLR 17/16 A3017 RMK AO2 SLP210 T01670156 402390144=
200511070351 METAR KATL 070351Z 26005KT 8SM CLR 17/16 A3017 RMK AO2 SLP210 T01720161=
200511070251 METAR KATL 070251Z 24004KT 8SM CLR 17/16 A3016 RMK AO2 SLP210 T01720156 53015=
200511070151 METAR KATL 070151Z 24004KT 8SM CLR 18/16 A3015 RMK AO2 SLP205 T01780156=
200511070051 METAR KATL 070051Z 24003KT 9SM CLR 19/16 A3013 RMK AO2 SLP199 T01890161=
200511062351 METAR KATL 062351Z 24004KT 10SM CLR 20/16 A3012 RMK AO2 SLP195 T02000161 10239 20200 53008=
200511062251 METAR KATL 062251Z 26004KT 10SM FEW060 21/16 A3011 RMK AO2 SLP191 T02060161=
200511062151 METAR KATL 062151Z 27006KT 10SM BKN060 22/16 A3010 RMK AO2 SLP187 T02170161=
200511062051 METAR KATL 062051Z 24009KT 10SM BKN034 BKN060 BKN300 23/16 A3010 RMK AO2 SLP185 T02330156 55009=
200511061951 METAR KATL 061951Z 24007KT 9SM BKN038 BKN048 BKN300 23/16 A3009 RMK AO2 SLP184 T02330156=
200511061851 METAR KATL 061851Z 21009KT 9SM FEW029 SCT300 23/16 A3009 RMK AO2 SLP185 T02330156 $=
200511061751 METAR KATL 061751Z 22008KT 9SM FEW040 SCT110 BKN300 22/16 A3012 RMK AO2 RAB15E24 SLP196 P0000 60000 T02170161 10217 20144 58007 $=
200511061731 SPECI KATL 061731Z 22006KT 9SM FEW018 SCT024 BKN042 BKN300 21/16 A3014 RMK AO2 RAB15E24 P0000 $=
200511061731 SPECI KATL 061731Z 22006KT 9SM FEW018 SCT024 BKN042 BKN300 21/16 A3014 RMK AO2 RAB15E24 P0000 $=
200511061651 METAR KATL 061651Z 24011KT 9SM BKN015 BKN300 22/16 A3015 RMK AO2 SLP205 TCU S AND MDT CU ALQDS T02170161 $=
200511061603 SPECI KATL 061603Z 21012KT 9SM OVC011 20/17 A3014 RMK AO2 $=
200511061603 SPECI KATL 061603Z 21012KT 9SM OVC011 20/17 A3014 RMK AO2 $=
200511061551 METAR KATL 061551Z 21014G21KT 9SM OVC009 19/17 A3013 RMK AO2 CIG 007V012 SLP199 BKINOVC OHD-N-NE T01940167 $=
200511061451 METAR KATL 061451Z 19007KT 8SM OVC007 18/16 A3015 RMK AO2 CIG 005V011 SLP204 T01780156 51008 $=
200511061400 SPECI KATL 061400Z 21005KT 8SM BKN007 BKN065 17/14 A3015 RMK AO2 $=
200511061400 SPECI KATL 061400Z 21005KT 8SM BKN007 BKN065 17/14 A3015 RMK AO2 $=
200511061351 METAR KATL 061351Z 18005KT 9SM FEW005 BKN110 17/14 A3015 RMK AO2 SLP204 T01670144 $=
200511061332 SPECI KATL 061332Z 19005KT 9SM FEW005 BKN110 16/14 A3014 RMK AO2 $=
200511061332 SPECI KATL 061332Z 19005KT 9SM FEW005 BKN110 16/14 A3014 RMK AO2 $=
200511061251 METAR KATL 061251Z 00000KT 7SM FEW050 BKN110 15/13 A3012 RMK AO2 SLP197 T01500128 $=
200511061151 METAR KATL 061151Z 20003KT 10SM FEW065 BKN080 BKN110 15/13 A3012 RMK AO2 SLP196 T01500128 10161 20144 53013=
200511061051 METAR KATL 061051Z 00000KT 10SM BKN060 15/13 A3011 RMK AO2 SLP190 T01500128=
200511060951 METAR KATL 060951Z 20003KT 10SM SCT100 15/12 A3009 RMK AO2 SLP185 T01500122=
200511060851 METAR KATL 060851Z 18005KT 10SM SCT120 15/12 A3008 RMK AO2 SLP180 T01500122 58010=
200511060751 METAR KATL 060751Z 18003KT 10SM BKN090 16/12 A3010 RMK AO2 SLP185 T01610122=
200511060651 METAR KATL 060651Z 16003KT 8SM BKN095 16/12 A3010 RMK AO2 SLP187 T01560122=
200511060551 METAR KATL 060551Z 17005KT 10SM FEW110 16/12 A3011 RMK AO2 SLP190 T01560122 10200 20156 53000=
200511060451 METAR KATL 060451Z 13003KT 10SM FEW110 16/13 A3010 RMK AO2 SLP188 T01610128 402330128=
200511060351 METAR KATL 060351Z 18005KT 10SM CLR 17/13 A3011 RMK AO2 SLP194 T01670128=
200511060251 METAR KATL 060251Z 16006KT 10SM CLR 17/13 A3011 RMK AO2 SLP193 T01720128 51006=
200511060151 METAR KATL 060151Z 16006KT 9SM FEW110 19/13 A3011 RMK AO2 SLP192 T01890128=
200511060051 METAR KATL 060051Z 15005KT 10SM FEW110 SCT150 19/13 A3010 RMK AO2 SLP190 T01890128=
200511052351 METAR KATL 052351Z 15004KT 10SM FEW110 SCT150 20/13 A3009 RMK AO2 SLP187 T02000128 10233 20200 53004=
200511052251 METAR KATL 052251Z 13004KT 10SM FEW090 SCT140 SCT200 21/13 A3007 RMK AO2 SLP179 T02110128=
200511052151 METAR KATL 052151Z 14008KT 10SM SCT042 23/13 A3007 RMK AO2 SLP177 T02280128=
200511052051 METAR KATL 052051Z 14007KT 10SM SCT070 23/12 A3008 RMK AO2 SLP181 T02330122 56015=
200511051951 METAR KATL 051951Z 15007KT 9SM FEW070 BKN200 BKN230 23/13 A3009 RMK AO2 SLP184 T02330133=
200511051851 METAR KATL 051851Z 16007KT 9SM BKN070 BKN200 BKN230 23/13 A3010 RMK AO2 SLP189 T02330128=
200511051751 METAR KATL 051751Z 21010KT 9SM FEW200 BKN230 23/13 A3012 RMK AO2 SLP196 T02330128 10233 20128 58016=
200511051651 METAR KATL 051651Z 20007KT 8SM SCT030 BKN230 21/14 A3015 RMK AO2 SLP206 T02110139=
200511051551 METAR KATL 051551Z 22006KT 8SM SCT020 BKN044 BKN070 BKN230 19/14 A3017 RMK AO2 SLP212 T01890139=
200511051451 METAR KATL 051451Z 22003KT 7SM FEW050 BKN065 16/13 A3017 RMK AO2 SLP214 T01610133 51014=
200511051351 METAR KATL 051351Z 00000KT 8SM SCT050 BKN180 15/12 A3016 RMK AO2 SLP210 T01500117=
200511051251 METAR KATL 051251Z 18003KT 8SM FEW065 SCT180 BKN250 13/11 A3015 RMK AO2 SLP206 T01330111=
200511051151 METAR KATL 051151Z 00000KT 9SM FEW080 SCT180 13/11 A3013 RMK AO2 SLP199 T01330106 10144 20128 51004=
200511051051 METAR KATL 051051Z 00000KT 9SM BKN180 13/11 A3012 RMK AO2 SLP198 T01330106=
200511050951 METAR KATL 050951Z 00000KT 9SM SCT060 14/11 A3012 RMK AO2 SLP196 T01390111=
200511050851 METAR KATL 050851Z 00000KT 9SM BKN200 13/11 A3012 RMK AO2 SLP193 T01330111 50001=
200511050751 METAR KATL 050751Z 21004KT 9SM BKN200 14/11 A3012 RMK AO2 SLP194 T01390111=
200511050651 METAR KATL 050651Z 20003KT 10SM BKN200 14/11 A3012 RMK AO2 SLP193 T01390111=
200511050551 METAR KATL 050551Z 19004KT 10SM BKN250 14/12 A3011 RMK AO2 SLP193 T01440117 10189 20144 58006=
200511050451 METAR KATL 050451Z 21003KT 10SM FEW050 BKN250 14/12 A3012 RMK AO2 SLP195 T01440117 402390111=
200511050351 METAR KATL 050351Z 00000KT 8SM SCT048 BKN150 BKN250 15/12 A3013 RMK AO2 SLP197 T01500117=
200511050251 METAR KATL 050251Z 21005KT 9SM SCT045 SCT200 16/12 A3013 RMK AO2 SLP200 T01610117 51003=
200511050151 METAR KATL 050151Z 20006KT 10SM BKN200 17/12 A3013 RMK AO2 SLP201 T01720117=
200511050051 METAR KATL 050051Z 20005KT 10SM FEW050 OVC200 18/12 A3013 RMK AO2 SLP201 T01830117=
200511042351 METAR KATL 042351Z 20004KT 10SM FEW050 BKN200 19/12 A3012 RMK AO2 SLP198 T01890117 10239 20189 53001=
200511042251 METAR KATL 042251Z 19006KT 10SM FEW050 BKN200 20/11 A3012 RMK AO2 SLP195 T02000111=
200511042151 METAR KATL 042151Z 18005KT 10SM FEW050 BKN240 22/11 A3011 RMK AO2 SLP193 T02170111=
200511042051 METAR KATL 042051Z 20010KT 10SM FEW048 SCT240 23/11 A3012 RMK AO2 SLP196 T02280106 56014=
200511041951 METAR KATL 041951Z 23007KT 10SM SCT047 SCT240 23/11 A3013 RMK AO2 SLP198 T02280111=
200511041851 METAR KATL 041851Z 21008KT 10SM BKN045 BKN240 23/11 A3014 RMK AO2 SLP203 T02280111=
200511041751 METAR KATL 041751Z 25010KT 10SM SCT045 23/11 A3016 RMK AO2 SLP209 T02330111 10233 20128 58016=
200511041651 METAR KATL 041651Z 23010KT 10SM SCT045 23/11 A3019 RMK AO2 SLP218 T02330111=
200511041551 METAR KATL 041551Z 22010KT 10SM FEW045 SCT240 22/11 A3021 RMK AO2 SLP225 T02170111=
200511041451 METAR KATL 041451Z VRB04KT 9SM FEW040 19/12 A3021 RMK AO2 SLP227 T01890122 52005=
200511041351 METAR KATL 041351Z 20004KT 8SM SCT040 SCT250 14/11 A3021 RMK AO2 SLP227 T01440106=
200511041251 METAR KATL 041251Z 00000KT 8SM BKN042 BKN250 13/09 A3020 RMK AO2 SLP225 T01280089=
200511041151 METAR KATL 041151Z 00000KT 8SM OVC042 13/08 A3020 RMK AO2 SLP223 BINOVC T01280083 10139 20111 52002=
200511041051 METAR KATL 041051Z 00000KT 9SM OVC042 12/08 A3019 RMK AO2 SLP221 T01220083=
200511040951 METAR KATL 040951Z 00000KT 10SM BKN042 BKN250 12/08 A3019 RMK AO2 SLP220 T01220083=
200511040851 METAR KATL 040851Z 00000KT 10SM SCT042 BKN250 12/07 A3019 RMK AO2 SLP220 T01170072 56002=
200511040751 METAR KATL 040751Z 00000KT 10SM FEW250 12/07 A3019 RMK AO2 SLP219 T01220067=
200511040651 METAR KATL 040651Z 13003KT 10SM SCT250 13/07 A3019 RMK AO2 SLP218 T01280067=
200511040551 METAR KATL 040551Z 00000KT 10SM SCT250 13/07 A3020 RMK AO2 SLP221 T01330067 10183 20133 58012=
200511040451 METAR KATL 040451Z 15005KT 10SM BKN250 14/08 A3021 RMK AO2 SLP225 T01440078 402220078=
200511040351 METAR KATL 040351Z 15004KT 10SM BKN250 15/08 A3022 RMK AO2 SLP232 T01500078=
200511040251 METAR KATL 040251Z 16005KT 10SM BKN250 16/08 A3023 RMK AO2 SLP235 T01610078 53001=
200511040151 METAR KATL 040151Z 15004KT 10SM BKN250 16/09 A3023 RMK AO2 SLP235 T01610089=
200511040051 METAR KATL 040051Z 14005KT 10SM BKN250 17/10 A3023 RMK AO2 SLP236 T01670100=
200511032351 METAR KATL 032351Z 15004KT 10SM BKN250 18/09 A3023 RMK AO2 SLP236 T01830094 10222 20183 55002=
200511032151 METAR KATL 032151Z 17007KT 10SM SCT240 22/09 A3023 RMK AO2 SLP235 T02170089=
200511032051 METAR KATL 032051Z 17007KT 150V220 10SM SCT240 22/09 A3024 RMK AO2 SLP237 T02170089 56024=
200511031951 METAR KATL 031951Z 19008KT 10SM FEW240 22/08 A3026 RMK AO2 SLP242 T02170083 $=
200511031851 METAR KATL 031851Z VRB03KT 10SM FEW050 SCT240 22/08 A3028 RMK AO2 SLP250 T02170083 $=
200511031751 METAR KATL 031751Z 23006KT 10SM FEW050 21/09 A3031 RMK AO2 SLP261 T02110089 10211 20078 58018 $=
200511031651 METAR KATL 031651Z 18005KT 10SM CLR 20/09 A3034 RMK AO2 SLP274 T02000089=
200511031551 METAR KATL 031551Z 20007KT 9SM CLR 18/10 A3036 RMK AO2 SLP280 T01780100=
200511031451 METAR KATL 031451Z VRB04KT 9SM CLR 16/08 A3036 RMK AO2 SLP281 T01560083 51016=
200511031351 METAR KATL 031351Z 09005KT 10SM CLR 12/04 A3036 RMK AO2 SLP282 T01170044=
200511031251 METAR KATL 031251Z 07006KT 10SM CLR 09/04 A3034 RMK AO2 SLP277 T00890044=
200511031151 METAR KATL 031151Z 10003KT 10SM CLR 09/03 A3031 RMK AO2 SLP266 T00890033 10100 20089 53009=
200511031051 METAR KATL 031051Z 11003KT 10SM CLR 09/03 A3030 RMK AO2 SLP261 T00890033=
200511030951 METAR KATL 030951Z 00000KT 10SM CLR 09/03 A3030 RMK AO2 SLP257 T00890033=
200511030851 METAR KATL 030851Z 07003KT 9SM CLR 09/04 A3029 RMK AO2 SLP254 T00940039 53002=
200511030751 METAR KATL 030751Z 00000KT 8SM CLR 10/03 A3028 RMK AO2 SLP253 T01000033=
200511030651 METAR KATL 030651Z 00000KT 10SM CLR 10/03 A3028 RMK AO2 SLP252 T01000033=
200511030551 METAR KATL 030551Z 00000KT 10SM CLR 11/03 A3028 RMK AO2 SLP251 T01060033 10150 20100 50005=
200511030451 METAR KATL 030451Z 00000KT 10SM CLR 11/03 A3028 RMK AO2 SLP252 T01060028 402170094=
200511030351 METAR KATL 030351Z 31004KT 10SM CLR 11/03 A3027 RMK AO2 SLP248 T01110028=
200511030251 METAR KATL 030251Z 33005KT 10SM CLR 12/03 A3026 RMK AO2 SLP248 T01220028 51012=
200511030151 METAR KATL 030151Z 32006KT 10SM CLR 12/03 A3026 RMK AO2 SLP246 T01220028=
200511030051 METAR KATL 030051Z 32005KT 10SM CLR 14/03 A3024 RMK AO2 SLP240 T01390028=
200511022351 METAR KATL 022351Z 31007KT 10SM CLR 15/02 A3023 RMK AO2 SLP236 T01500017 10217 20150 53012=
200511022251 METAR KATL 022251Z 31006KT 10SM CLR 17/00 A3021 RMK AO2 SLP229 T01720000=
200511022151 METAR KATL 022151Z 31007KT 10SM CLR 20/M01 A3020 RMK AO2 SLP224 T02001006=
200511022051 METAR KATL 022051Z 33007KT 10SM CLR 21/M02 A3019 RMK AO2 SLP221 T02111017 55004=
200511021951 METAR KATL 021951Z 33007KT 10SM CLR 21/00 A3019 RMK AO2 SLP221 T02060000=
200511021851 METAR KATL 021851Z 04005KT 10SM CLR 21/M01 A3019 RMK AO2 SLP221 T02061006=
200511021751 METAR KATL 021751Z 35010G15KT 10SM CLR 21/00 A3021 RMK AO2 SLP225 T02060000 10206 20094 50003=
200511021651 METAR KATL 021651Z 35007KT 10SM CLR 19/01 A3022 RMK AO2 SLP232 T01940006=
200511021551 METAR KATL 021551Z 36012KT 10SM CLR 18/01 A3022 RMK AO2 SLP230 T01780011=
200511021451 METAR KATL 021451Z 34010KT 10SM CLR 14/06 A3020 RMK AO2 SLP224 T01440061 51030=
200511021351 METAR KATL 021351Z 33011KT 8SM CLR 12/08 A3017 RMK AO2 SLP217 T01170078=
200511021251 METAR KATL 021251Z 32008KT 5SM BR FEW006 10/08 A3014 RMK AO2 SLP204 T01000083=
200511021244 SPECI KATL 021244Z 32010KT 5SM BR FEW006 10/08 A3013 RMK AO2=
200511021244 SPECI KATL 021244Z 32010KT 5SM BR FEW006 10/08 A3013 RMK AO2=
200511021151 METAR KATL 021151Z 32012KT 3SM BR BKN006 11/09 A3011 RMK AO2 SFC VIS 4 SLP194 T01060089 10133 20106 51016=
200511021124 SPECI KATL 021124Z 31014KT 4SM BR BKN006 11/09 A3009 RMK AO2=
200511021124 SPECI KATL 021124Z 31014KT 4SM BR BKN006 11/09 A3009 RMK AO2=
200511021051 METAR KATL 021051Z 31009KT 7SM FEW250 11/10 A3009 RMK AO2 SLP188 T01110100=
200511020951 METAR KATL 020951Z 31010KT 8SM FEW200 12/11 A3008 RMK AO2 SLP182 T01170106=
200511020851 METAR KATL 020851Z 31010KT 8SM SCT200 12/11 A3006 RMK AO2 SLP175 T01220106 53002=
200511020751 METAR KATL 020751Z 32011KT 8SM BKN200 13/11 A3004 RMK AO2 SLP170 T01280111=
200511020651 METAR KATL 020651Z 31009KT 7SM BKN200 13/12 A3004 RMK AO2 SLP169 T01280117=
200511020551 METAR KATL 020551Z 32009KT 8SM BKN200 13/12 A3005 RMK AO2 SLP172 T01330122 10172 20133 58003=
200511020451 METAR KATL 020451Z 32008KT 10SM BKN200 14/12 A3007 RMK AO2 SLP177 T01390122 402220100=
200511020351 METAR KATL 020351Z 00000KT 10SM FEW150 BKN250 14/12 A3007 RMK AO2 SLP179 T01390122=
200511020251 METAR KATL 020251Z 32006KT 10SM FEW150 BKN250 14/12 A3006 RMK AO2 SLP177 T01440122 50005=
200511020151 METAR KATL 020151Z 28007KT 10SM FEW080 SCT150 BKN250 15/12 A3006 RMK AO2 SLP178 T01500122=
200511020051 METAR KATL 020051Z 28006KT 10SM SCT080 BKN150 OVC250 16/12 A3006 RMK AO2 SLP177 T01610117=
200511012351 METAR KATL 012351Z 29007KT 10SM SCT100 BKN150 OVC200 17/12 A3005 RMK AO2 SLP173 T01720117 10222 20172 53010=
200511012251 METAR KATL 012251Z 28007KT 10SM FEW065 SCT110 BKN200 18/12 A3003 RMK AO2 SLP165 T01780117=
200511012151 METAR KATL 012151Z 23004KT 10SM FEW065 SCT110 BKN200 20/08 A3001 RMK AO2 SLP160 T02000083=
200511012051 METAR KATL 012051Z 24008KT 10SM FEW065 SCT110 BKN200 21/09 A3001 RMK AO2 SLP159 T02110089 56015=
200511011951 METAR KATL 011951Z 25008KT 10SM FEW060 BKN070 OVC090 21/07 A3003 RMK AO2 SLP165 BINOVC E SHRA DSNT SW T02110072=
200511011851 METAR KATL 011851Z VRB05KT 10SM FEW055 SCT085 SCT200 22/08 A3004 RMK AO2 SLP168 T02220078=
200511011451 METAR KATL 011451Z 19008KT 8SM CLR 17/11 A3012 RMK AO2 SLP199 T01720111 53005=
200511011351 METAR KATL 011351Z VRB05KT 8SM FEW070 SCT250 15/11 A3012 RMK AO2 SLP199 T01500106=
200511011251 METAR KATL 011251Z 11005KT 7SM FEW070 SCT250 12/09 A3010 RMK AO2 SLP193 T01170089=
Fallo de consulta: el error es SELECT command denied to user 'users'@'localhost' for table 'tafs_2005'
