##########################################################
# Query made at 04/19/2024 22:52:08 UTC
# Time interval: from 08/01/2005 12:00  to 08/31/2005 12:59  UTC
##########################################################

##########################################################
# KATL, Atlanta, Hartsfield - Jackson Atlanta International Airport (United States)
# WMO index: 72219. WIGOS ID: 0-20000-0-72219
# Latitude 33-38-59N. Longitude 084-25-00W. Altitude 312 m.
##########################################################

200508311251 METAR KATL 311251Z 32008KT 7SM FEW250 23/20 A2991 RMK AO2 SLP118 T02280200=
200508311151 METAR KATL 311151Z 30005KT 7SM FEW200 SCT250 22/20 A2989 RMK AO2 SLP113 70012 T02170200 10233 20211 52015=
200508311051 METAR KATL 311051Z 28003KT 9SM FEW200 SCT250 21/19 A2987 RMK AO2 SLP107 T02110194=
200508310951 METAR KATL 310951Z 29004KT 8SM CLR 22/20 A2986 RMK AO2 SLP103 T02170200=
200508310851 METAR KATL 310851Z 30005KT 8SM CLR 22/21 A2985 RMK AO2 SLP096 T02220206 55002=
200508310751 METAR KATL 310751Z 28006KT 8SM CLR 22/21 A2984 RMK AO2 SLP095 T02220206=
200508310651 METAR KATL 310651Z 28006KT 9SM CLR 23/21 A2984 RMK AO2 SLP094 T02280211=
200508310551 METAR KATL 310551Z 27006KT 10SM FEW200 23/21 A2985 RMK AO2 SLP097 T02330211 10272 20233 51005=
200508310451 METAR KATL 310451Z 27007KT 10SM FEW045 24/21 A2985 RMK AO2 SLP097 T02390211 402940239=
200508310351 METAR KATL 310351Z 24006KT 10SM FEW045 25/21 A2985 RMK AO2 SLP096 T02500211=
200508310251 METAR KATL 310251Z 24006KT 10SM BKN045 BKN250 26/21 A2984 RMK AO2 SLP093 T02560211 53017=
200508310151 METAR KATL 310151Z 22007KT 10SM FEW250 26/22 A2982 RMK AO2 SLP087 T02560217=
200508310051 METAR KATL 310051Z 22007KT 10SM FEW060 SCT250 26/21 A2980 RMK AO2 SLP079 T02610211=
200508302351 METAR KATL 302351Z 23010KT 10SM SCT035TCU BKN065 BKN250 26/21 A2978 RMK AO2 SLP075 TCU OHD-W-NW T02610211 10294 20250 53016=
200508302251 METAR KATL 302251Z 22010G16KT 10SM FEW035 SCT060 SCT250 28/21 A2976 RMK AO2 SLP066 T02780206=
200508302151 METAR KATL 302151Z 23011G19KT 10SM SCT038 BKN060 BKN200 27/21 A2975 RMK AO2 PK WND 23026/2141 SLP063 T02670206=
200508302051 METAR KATL 302051Z 22016G20KT 10SM SCT040 SCT050 SCT240 28/21 A2973 RMK AO2 PK WND 23028/2000 SLP057 T02830206 53005=
200508301951 METAR KATL 301951Z 22018G26KT 10SM SCT035 SCT045 SCT240 29/21 A2972 RMK AO2 PK WND 20027/1904 SLP053 T02890206=
200508301851 METAR KATL 301851Z 21020G25KT 10SM BKN038 BKN048 BKN240 28/21 A2973 RMK AO2 PK WND 21034/1753 SLP055 T02830206=
200508301751 METAR KATL 301751Z 22019G29KT 10SM FEW030 SCT150 SCT240 BKN300 28/21 A2972 RMK AO2 PK WND 19029/1748 SLP052 60012 T02830206 10283 20244 58002=
200508301651 METAR KATL 301651Z 21016G24KT 10SM BKN038 BKN046 28/21 A2973 RMK AO2 PK WND 21028/1559 SLP055 T02780206=
200508301551 METAR KATL 301551Z 20021G30KT 10SM BKN035 BKN045 BKN250 27/21 A2973 RMK AO2 PK WND 20030/1544 SLP054 T02720206=
200508301458 SPECI KATL 301458Z 21014G23KT 10SM FEW025 BKN035 BKN250 26/22 A2973 RMK AO2=
200508301458 SPECI KATL 301458Z 21014G23KT 10SM FEW025 BKN035 BKN250 26/22 A2973 RMK AO2=
200508301451 METAR KATL 301451Z 20015G25KT 10SM BKN025 BKN035 BKN250 26/22 A2972 RMK AO2 PK WND 17029/1428 SLP055 60012 T02560217 53008=
200508301444 SPECI KATL 301444Z 20015G25KT 10SM SCT025 BKN030 BKN040 27/22 A2972 RMK AO2 PK WND 17029/1428=
200508301444 SPECI KATL 301444Z 20015G25KT 10SM SCT025 BKN030 BKN040 27/22 A2972 RMK AO2 PK WND 17029/1428=
200508301351 METAR KATL 301351Z 20015G26KT 10SM FEW015 BKN020 BKN040 25/23 A2972 RMK AO2 PK WND 21026/1345 RAE12 SLP052 BKN020 V SCT TCU DSNT E-S P0012 T02500228=
200508301309 SPECI KATL 301309Z 19014G19KT 8SM R09R/6000VP6000FT -RA SCT010 BKN017 BKN024 24/23 A2971 RMK AO2 P0012=
200508301309 SPECI KATL 301309Z 19014G19KT 8SM R09R/6000VP6000FT -RA SCT010 BKN017 BKN024 24/23 A2971 RMK AO2 P0012=
200508301307 SPECI KATL 301307Z 19016G19KT 2SM R09R/4000VP6000FT -RA BR FEW010 BKN015 OVC043 24/23 A2971 RMK AO2 TWR VIS 4 P0012=
200508301307 SPECI KATL 301307Z 19016G19KT 2SM R09R/4000VP6000FT -RA BR FEW010 BKN015 OVC043 24/23 A2971 RMK AO2 TWR VIS 4 P0012=
200508301258 SPECI KATL 301258Z 23009KT 1 3/4SM R09R/4500VP6000FT RA BR BKN012 OVC020 24/23 A2970 RMK AO2 TWR VIS 2 VIS 3/4V3 P0004=
200508301258 SPECI KATL 301258Z 23009KT 1 3/4SM R09R/4500VP6000FT RA BR BKN012 OVC020 24/23 A2970 RMK AO2 TWR VIS 2 VIS 3/4V3 P0004=
200508301253 SPECI KATL 301253Z 19012G20KT 2SM RA BR OVC014 24/23 A2970 RMK AO2 SFC VIS 3 P0002=
200508301253 SPECI KATL 301253Z 19012G20KT 2SM RA BR OVC014 24/23 A2970 RMK AO2 SFC VIS 3 P0002=
200508301251 METAR KATL 301251Z 18011G20KT 4SM RA BR BKN014 OVC020 25/23 A2970 RMK AO2 RAB44 SLP047 P0000 T02500228=
200508301231 SPECI KATL 301231Z 17014G18KT 10SM BKN014 BKN019 BKN150 BKN230 25/23 A2970 RMK AO2=
200508301231 SPECI KATL 301231Z 17014G18KT 10SM BKN014 BKN019 BKN150 BKN230 25/23 A2970 RMK AO2=
200508301151 METAR KATL 301151Z 18016G20KT 10SM SCT019 BKN024 BKN031 BKN150 BKN230 24/22 A2970 RMK AO2 SLP047 60010 70128 T02440222 10250 20244 53007=
200508301058 SPECI KATL 301058Z 18016G20KT 10SM BKN022 BKN036 OVC046 25/23 A2968 RMK AO2=
200508301058 SPECI KATL 301058Z 18016G20KT 10SM BKN022 BKN036 OVC046 25/23 A2968 RMK AO2=
200508301051 METAR KATL 301051Z 17013KT 10SM FEW017 BKN030 OVC037 25/23 A2968 RMK AO2 RAB0956E37 SLP041 P0000 T02500228=
200508300951 METAR KATL 300951Z 16012G22KT 10SM FEW017 BKN024 OVC034 24/23 A2967 RMK AO2 RAE09 SLP036 P0000 T02440228=
200508300851 METAR KATL 300851Z 16014G19KT 8SM -RA SCT012 BKN021 OVC033 24/23 A2968 RMK AO2 RAB07 SLP038 P0001 60010 T02440233 56009=
200508300800 SPECI KATL 300800Z 16010G18KT 10SM FEW015 BKN022 OVC039 24/23 A2968 RMK AO2=
200508300800 SPECI KATL 300800Z 16010G18KT 10SM FEW015 BKN022 OVC039 24/23 A2968 RMK AO2=
200508300751 METAR KATL 300751Z 16018G23KT 10SM FEW013 BKN030 OVC038 24/23 A2968 RMK AO2 RAE38 SLP039 P0008 T02440228=
200508300739 SPECI KATL 300739Z 16011G22KT 2SM BR FEW009 SCT017 BKN027 24/23 A2968 RMK AO2 SFC VIS 5 RAE38 P0007=
200508300739 SPECI KATL 300739Z 16011G22KT 2SM BR FEW009 SCT017 BKN027 24/23 A2968 RMK AO2 SFC VIS 5 RAE38 P0007=
200508300730 SPECI KATL 300730Z 17015G23KT 2SM -RA BR FEW009 BKN014 OVC031 24/23 A2968 RMK AO2 SFC VIS 5 P0007=
200508300730 SPECI KATL 300730Z 17015G23KT 2SM -RA BR FEW009 BKN014 OVC031 24/23 A2968 RMK AO2 SFC VIS 5 P0007=
200508300713 SPECI KATL 300713Z 16013G18KT 2SM R09R/5500VP6000FT +RA BR SCT015 OVC020 24/23 A2968 RMK AO2 SFC VIS 4 P0004=
200508300713 SPECI KATL 300713Z 16013G18KT 2SM R09R/5500VP6000FT +RA BR SCT015 OVC020 24/23 A2968 RMK AO2 SFC VIS 4 P0004=
200508300651 METAR KATL 300651Z 15013G23KT 10SM -RA BKN016 OVC022 25/23 A2969 RMK AO2 RAB00 SLP041 P0001 T02500228=
200508300600 SPECI KATL 300600Z 15014G24KT 10SM -RA OVC016 25/23 A2970 RMK AO2 RAB00 P0000=
200508300600 SPECI KATL 300600Z 15014G24KT 10SM -RA OVC016 25/23 A2970 RMK AO2 RAB00 P0000=
200508300551 METAR KATL 300551Z 14016G25KT 10SM BKN013 OVC019 25/23 A2970 RMK AO2 RAE10 SLP047 P0000 60008 T02500228 10250 20239 56012=
200508300451 METAR KATL 300451Z 13013G21KT 10SM -RA FEW008 BKN014 OVC030 24/23 A2971 RMK AO2 SLP050 P0005 T02440233 402940233=
200508300351 METAR KATL 300351Z 13018G26KT 10SM -RA SCT008 BKN014 OVC030 24/23 A2973 RMK AO2 PK WND 13026/0350 RAB16 SLP057 P0000 T02440233=
200508300314 SPECI KATL 300314Z 12015G21KT 10SM BKN007 BKN015 BKN040 OVC150 24/23 A2974 RMK AO2=
200508300314 SPECI KATL 300314Z 12015G21KT 10SM BKN007 BKN015 BKN040 OVC150 24/23 A2974 RMK AO2=
200508300251 METAR KATL 300251Z 11012G17KT 10SM FEW007 BKN015 BKN040 OVC150 24/23 A2974 RMK AO2 RAE27 SLP061 LTG DSNT NE-E CB DSNT NE-E P0003 60003 T02390228 56007=
200508300207 SPECI KATL 300207Z 11011KT 8SM -RA SCT010 BKN025 BKN050 OVC150 24/23 A2976 RMK AO2 P0001=
200508300207 SPECI KATL 300207Z 11011KT 8SM -RA SCT010 BKN025 BKN050 OVC150 24/23 A2976 RMK AO2 P0001=
200508300151 METAR KATL 300151Z 12012KT 10SM -RA BKN010 BKN035 BKN080 BKN150 OVC250 24/23 A2976 RMK AO2 TSE25RAB0056E22B51 SLP067 P0000 T02440228=
200508300126 SPECI KATL 300126Z 11009KT 10SM FEW008 SCT025 BKN040 BKN150 OVC250 24/23 A2975 RMK AO2 TSE25RAB0056E22 TS MOV N P0000=
200508300126 SPECI KATL 300126Z 11009KT 10SM FEW008 SCT025 BKN040 BKN150 OVC250 24/23 A2975 RMK AO2 TSE25RAB0056E22 TS MOV N P0000=
200508300103 SPECI KATL 300103Z 10012KT 10SM -TSRA SCT008 BKN020CB BKN050 OVC150 24/23 A2976 RMK AO2 RAB0056 OCNL LTGIC TS VC NE-E MOV N P0000=
200508300103 SPECI KATL 300103Z 10012KT 10SM -TSRA SCT008 BKN020CB BKN050 OVC150 24/23 A2976 RMK AO2 RAB0056 OCNL LTGIC TS VC NE-E MOV N P0000=
200508300051 METAR KATL 300051Z 09009G15KT 10SM TS BKN008 BKN020CB BKN050 OVC150 24/23 A2975 RMK AO2 TSB47RAE47 SLP063 OCNL LTGIC TS VC E-SE MOV N P0000 T02390228=
200508292357 SPECI KATL 292357Z 11012KT 6SM -RA BR FEW007 BKN014 BKN020CB OVC150 24/23 A2976 RMK AO2 CB NE-SE MOV NW P0000=
200508292357 SPECI KATL 292357Z 11012KT 6SM -RA BR FEW007 BKN014 BKN020CB OVC150 24/23 A2976 RMK AO2 CB NE-SE MOV NW P0000=
200508292351 METAR KATL 292351Z 10013KT 8SM -RA FEW007 SCT020 BKN060 OVC150 24/23 A2976 RMK AO2 TSE10RAE10B43 SLP069 TS MOV NW CB DSNT NE TCU DSNT N AND SE-SW P0000 60052 T02440233 10294 20239 58011=
200508292311 SPECI KATL 292311Z 11013KT 10SM FEW007 SCT020 BKN060 OVC150 24/23 A2978 RMK AO2 TSE10RAE10 TS MOV NW CB DSNT NE TCU DSNT N AND SE-SW P0000=
200508292311 SPECI KATL 292311Z 11013KT 10SM FEW007 SCT020 BKN060 OVC150 24/23 A2978 RMK AO2 TSE10RAE10 TS MOV NW CB DSNT NE TCU DSNT N AND SE-SW P0000=
200508292251 METAR KATL 292251Z COR 12014G24KT 7SM -TSRA SCT007 BKN020CB BKN080 OVC150 24/23 A2978 RMK AO2 TSE11B25 SLP076 OCNL LTGCGIC TS VC N-NE AND NW MOV NW P0085 T02440233=
200508292240 SPECI KATL 292240Z 10012G21KT 1/2SM R09R/2400VP6000FT +TSRA BR FEW005 BKN020CB OVC080 24/23 A2979 RMK AO2 SFC VIS 2 TSE11B25 VIS N-NE 1 OCNL LTGCGIC TS N-NE AND NW MOV NW P0026=
200508292240 SPECI KATL 292240Z 10012G21KT 1/2SM R09R/2400VP6000FT +TSRA BR FEW005 BKN020CB OVC080 24/23 A2979 RMK AO2 SFC VIS 2 TSE11B25 VIS N-NE 1 OCNL LTGCGIC TS N-NE AND NW MOV NW P0026=
200508292230 SPECI KATL 292230Z 09017G22KT 1/4SM R09R/2000VP6000FT +TSRA FG SCT005 BKN020CB BKN080 OVC150 24/23 A2980 RMK AO2 TWR VIS 1/2 TSE11B25 FRQ LTGCGIC TS E-OHD-S MOV P0003=
200508292230 SPECI KATL 292230Z 09017G22KT 1/4SM R09R/2000VP6000FT +TSRA FG SCT005 BKN020CB BKN080 OVC150 24/23 A2980 RMK AO2 TWR VIS 1/2 TSE11B25 FRQ LTGCGIC TS E-OHD-S MOV P0003=
200508292225 SPECI KATL 292225Z 07008KT 8SM -TSRA FEW005 BKN020CB BKN080 OVC150 24/23 A2977 RMK AO2 TSE11B25 PRESFR FRQ LTGCG TS E-S MOV NW TCU N-NE P0002=
200508292225 SPECI KATL 292225Z 07008KT 8SM -TSRA FEW005 BKN020CB BKN080 OVC150 24/23 A2977 RMK AO2 TSE11B25 PRESFR FRQ LTGCG TS E-S MOV NW TCU N-NE P0002=
200508292211 SPECI KATL 292211Z 09009KT 8SM -RA SCT012 BKN020CB BKN080 OVC150 24/23 A2979 RMK AO2 TSE11 TS MOV NW CB DSNT SE AND NW P0002=
200508292211 SPECI KATL 292211Z 09009KT 8SM -RA SCT012 BKN020CB BKN080 OVC150 24/23 A2979 RMK AO2 TSE11 TS MOV NW CB DSNT SE AND NW P0002=
200508292151 METAR KATL 292151Z 09006KT 7SM -TSRA FEW005 SCT020CB BKN080 OVC150 24/23 A2980 RMK AO2 TSB51RAB2054 SLP080 OCNL LTGCG TS N-NE MOV NW P0018 T02390233=
200508292125 SPECI KATL 292125Z 14012G24KT 100V170 1/2SM +RA BR BKN020CB BKN050 OVC120 24/23 A2978 RMK AO2 SFC VIS 1 1/2 RAB2054 CB N-OHD-SE MOV NW P0009=
200508292125 SPECI KATL 292125Z 14012G24KT 100V170 1/2SM +RA BR BKN020CB BKN050 OVC120 24/23 A2978 RMK AO2 SFC VIS 1 1/2 RAB2054 CB N-OHD-SE MOV NW P0009=
200508292116 SPECI KATL 292116Z 10008KT 1SM RA BR SCT020CB BKN050 BKN100 OVC150 24/23 A2978 RMK AO2 SFC VIS 3 RAB2054 CB NE-SE-S AND SW-W MOV NW P0004=
200508292116 SPECI KATL 292116Z 10008KT 1SM RA BR SCT020CB BKN050 BKN100 OVC150 24/23 A2978 RMK AO2 SFC VIS 3 RAB2054 CB NE-SE-S AND SW-W MOV NW P0004=
200508292103 SPECI KATL 292103Z 10011G24KT 6SM R09R/6000VP6000FT -RA BR FEW020CB BKN060 OVC150 24/23 A2979 RMK AO2 RAB2054 CB SE-OHD-NW MOV NW P0002=
200508292103 SPECI KATL 292103Z 10011G24KT 6SM R09R/6000VP6000FT -RA BR FEW020CB BKN060 OVC150 24/23 A2979 RMK AO2 RAB2054 CB SE-OHD-NW MOV NW P0002=
200508292058 SPECI KATL 292058Z 08016G24KT 1 1/2SM R09R/6000VP6000FT +RA BR BKN020CB BKN060 OVC150 24/23 A2979 RMK AO2 TWR VIS 1 3/4 RAB54 CB OHD-SE MOV NW P0000=
200508292058 SPECI KATL 292058Z 08016G24KT 1 1/2SM R09R/6000VP6000FT +RA BR BKN020CB BKN060 OVC150 24/23 A2979 RMK AO2 TWR VIS 1 3/4 RAB54 CB OHD-SE MOV NW P0000=
200508292051 METAR KATL 292051Z 10011KT 10SM FEW017 SCT030 SCT050 OVC150 25/23 A2980 RMK AO2 RAE40 SLP080 CB DSNT NE-SW AND DSNT NW MOV NNW P0001 60007 T02500233 55018=
200508291958 SPECI KATL 291958Z 12008KT 10SM -RA FEW020CB SCT040 BKN050 OVC150 27/24 A2980 RMK AO2 CB DSNT E-S AND VC SW-NW MOV NNW P0000=
200508291958 SPECI KATL 291958Z 12008KT 10SM -RA FEW020CB SCT040 BKN050 OVC150 27/24 A2980 RMK AO2 CB DSNT E-S AND VC SW-NW MOV NNW P0000=
200508291951 METAR KATL 291951Z 08008KT 9SM R09R/5000VP6000FT -RA BKN020CB BKN050 BKN085 OVC150 26/23 A2979 RMK AO2 RAB1857 SLP077 CB DSNT E-S AND OHD-SW-NW MOV N P0006 T02610233=
200508291851 METAR KATL 291851Z 10016G19KT 10SM FEW030CB SCT120 BKN150 OVC250 29/22 A2982 RMK AO2 SLP087 CB VC E AND S MOV NW SHRA VC E AND S T02890222=
200508291751 METAR KATL 291751Z 11016G21KT 10SM FEW025 SCT035 SCT150 BKN250 29/23 A2985 RMK AO2 SLP096 MDT CU SW AND NW T02940228 10294 20233 58019=
200508291654 SPECI KATL 291654Z 12010KT 10SM FEW020 BKN025 BKN045 BKN150 BKN250 28/22 A2988 RMK AO2=
200508291654 SPECI KATL 291654Z 12010KT 10SM FEW020 BKN025 BKN045 BKN150 BKN250 28/22 A2988 RMK AO2=
200508291651 METAR KATL 291651Z 09015KT 10SM FEW020 SCT030 BKN040 BKN150 BKN250 27/22 A2988 RMK AO2 SLP107 T02720222=
200508291624 SPECI KATL 291624Z 10012KT 10SM FEW017 SCT020 BKN040 BKN150 BKN250 27/22 A2989 RMK AO2=
200508291624 SPECI KATL 291624Z 10012KT 10SM FEW017 SCT020 BKN040 BKN150 BKN250 27/22 A2989 RMK AO2=
200508291551 METAR KATL 291551Z 12009KT 10SM BKN020 BKN025 OVC030 26/22 A2991 RMK AO2 SLP119 T02560217=
200508291451 METAR KATL 291451Z 11012G17KT 10SM BKN015 BKN021 BKN150 BKN250 26/22 A2991 RMK AO2 SLP117 T02560222 50002=
200508291351 METAR KATL 291351Z 12010KT 10SM SCT009 BKN015 BKN150 OVC250 24/22 A2991 RMK AO2 SLP119 T02440222=
200508291251 METAR KATL 291251Z 12009KT 8SM OVC006 24/22 A2990 RMK AO2 SLP115 T02390222=
200508291151 METAR KATL 291151Z 10007KT 8SM BKN008 BKN150 23/22 A2990 RMK AO2 CIG 006V011 SLP115 60000 70015 T02330222 10244 20233 53006=
200508291051 METAR KATL 291051Z 11008KT 9SM BKN008 BKN150 23/22 A2989 RMK AO2 SLP110 T02330222=
200508290951 METAR KATL 290951Z 11006KT 9SM BKN006 OVC120 24/22 A2988 RMK AO2 SLP107 T02390222=
200508290851 METAR KATL 290851Z 12007KT 9SM BKN006 24/23 A2988 RMK AO2 SLP109 60000 T02390228 58007=
200508290809 SPECI KATL 290809Z 12006KT 10SM BKN008 24/22 A2989 RMK AO2=
200508290809 SPECI KATL 290809Z 12006KT 10SM BKN008 24/22 A2989 RMK AO2=
200508290801 SPECI KATL 290801Z 11006KT 10SM SCT008 24/22 A2990 RMK AO2=
200508290801 SPECI KATL 290801Z 11006KT 10SM SCT008 24/22 A2990 RMK AO2=
200508290751 METAR KATL 290751Z 11007KT 10SM SCT120 BKN150 24/22 A2990 RMK AO2 RAB22E35 SLP112 P0000 T02390222=
200508290651 METAR KATL 290651Z 10008KT 10SM FEW100 BKN140 24/22 A2990 RMK AO2 SLP114 T02440222=
200508290551 METAR KATL 290551Z 09008KT 10SM BKN140 24/22 A2990 RMK AO2 SLP115 T02440222 10267 20244 58009=
200508290451 METAR KATL 290451Z 11006KT 10SM BKN140 24/22 A2991 RMK AO2 SLP118 T02440222 403000222=
200508290351 METAR KATL 290351Z 11006KT 10SM BKN130 25/22 A2993 RMK AO2 SLP124 T02500222=
200508290251 METAR KATL 290251Z 12006KT 10SM BKN130 25/22 A2993 RMK AO2 SLP125 T02500222 51009=
200508290151 METAR KATL 290151Z 12005KT 10SM BKN130 26/23 A2992 RMK AO2 SLP121 T02560228=
200508290051 METAR KATL 290051Z 10005KT 10SM FEW140 BKN180 26/23 A2992 RMK AO2 SLP122 T02610228=
200508282351 METAR KATL 282351Z 10005KT 10SM FEW010 BKN150 BKN180 27/22 A2990 RMK AO2 SLP116 60015 T02670222 10300 20239 53001=
200508282251 METAR KATL 282251Z 17005KT 9SM SCT130 SCT150 BKN200 27/23 A2990 RMK AO2 SLP114 T02670228=
200508282151 METAR KATL 282151Z 13006KT 9SM FEW018 SCT038CB BKN070 BKN250 26/23 A2989 RMK AO2 TSE18RAE45 SLP111 CB E AND NW MOV NW SHRA E AND NW P0015 T02610228=
200508282120 SPECI KATL 282120Z 18004KT 7SM -RA SCT022CB BKN046 BKN080 BKN250 25/23 A2990 RMK AO2 TSE18 TS MOV NW CB VC SW-NW MOV NW P0014=
200508282120 SPECI KATL 282120Z 18004KT 7SM -RA SCT022CB BKN046 BKN080 BKN250 25/23 A2990 RMK AO2 TSE18 TS MOV NW CB VC SW-NW MOV NW P0014=
200508282109 SPECI KATL 282109Z 16003KT 5SM R09R/5500VP6000FT -TSRA BR FEW010 BKN034CB BKN075 BKN250 24/23 A2990 RMK AO2 OCNL LTGICCG TS NW MOV NW P0014=
200508282109 SPECI KATL 282109Z 16003KT 5SM R09R/5500VP6000FT -TSRA BR FEW010 BKN034CB BKN075 BKN250 24/23 A2990 RMK AO2 OCNL LTGICCG TS NW MOV NW P0014=
200508282057 SPECI KATL 282057Z 14006G16KT 1 1/2SM R09R/4500VP6000FT +TSRA BR FEW010 BKN034CB BKN075 BKN250 24/22 A2990 RMK AO2 OCNL LTGICCG TS OHD-W MOV NW P0003=
200508282057 SPECI KATL 282057Z 14006G16KT 1 1/2SM R09R/4500VP6000FT +TSRA BR FEW010 BKN034CB BKN075 BKN250 24/22 A2990 RMK AO2 OCNL LTGICCG TS OHD-W MOV NW P0003=
200508282051 METAR KATL 282051Z 15012G21KT 6SM TSRA BKN038CB BKN075 BKN250 26/22 A2990 RMK AO2 TSB39RAB44 SLP115 OCNL LTGICCG TS SE-OHD-W MOV NW P0000 60000 T02560217 56015=
200508282040 SPECI KATL 282040Z 13009KT 10SM TS BKN038CB BKN075 BKN250 28/21 A2989 RMK AO2 TSB39 OCNL LTGICCG TS SE-OHD-W MOV NW=
200508282040 SPECI KATL 282040Z 13009KT 10SM TS BKN038CB BKN075 BKN250 28/21 A2989 RMK AO2 TSB39 OCNL LTGICCG TS SE-OHD-W MOV NW=
200508281951 METAR KATL 281951Z 09011KT 10SM SCT034CB SCT042TCU BKN070 BKN250 29/22 A2990 RMK AO2 SLP114 CB VC SE-SW-W MOV NW TCU ALQDS T02940217=
200508281851 METAR KATL 281851Z 10010KT 10SM SCT030TCU SCT050 BKN250 29/22 A2993 RMK AO2 SLP123 TCU S-SW AND VC SE CB DSNT SE-SW T02940217=
200508281751 METAR KATL 281751Z 10009KT 10SM SCT032TCU BKN060 BKN250 29/22 A2995 RMK AO2 SLP129 TCU ALQDS T02890217 10289 20228 58006=
200508281651 METAR KATL 281651Z 07008KT 10SM BKN022TCU BKN060 28/23 A2996 RMK AO2 SLP136 TCU OHD AND ALQDS T02830228=
200508281551 METAR KATL 281551Z 08010KT 10SM FEW012 BKN020 26/22 A2997 RMK AO2 SLP139 MDT CU OHD AND ALQDS T02610222=
200508281538 SPECI KATL 281538Z 11010KT 9SM BKN016 27/22 A2997 RMK AO2=
200508281538 SPECI KATL 281538Z 11010KT 9SM BKN016 27/22 A2997 RMK AO2=
200508281451 METAR KATL 281451Z 11007KT 8SM OVC012 26/22 A2996 RMK AO2 SLP136 BINOVC T02560222 51013 $=
200508281351 METAR KATL 281351Z 10007KT 9SM OVC010 24/22 A2995 RMK AO2 SLP132 BINOVC T02440222=
200508281325 SPECI KATL 281325Z 12007KT 3SM OVC005 24/22 A2995 RMK AO2 SFC VIS 9 CIG 004V009=
200508281325 SPECI KATL 281325Z 12007KT 3SM OVC005 24/22 A2995 RMK AO2 SFC VIS 9 CIG 004V009=
200508281301 SPECI KATL 281301Z 09007KT 1 1/2SM BR OVC005 23/22 A2995 RMK AO2 SFC VIS 5=
200508281301 SPECI KATL 281301Z 09007KT 1 1/2SM BR OVC005 23/22 A2995 RMK AO2 SFC VIS 5=
200508281251 METAR KATL 281251Z 08007KT 1SM BR OVC005 23/22 A2994 RMK AO2 SFC VIS 3 SLP130 T02330217=
200508281237 SPECI KATL 281237Z 08008KT 1SM BR BKN005 BKN010 23/22 A2994 RMK AO2 SFC VIS 5=
200508281237 SPECI KATL 281237Z 08008KT 1SM BR BKN005 BKN010 23/22 A2994 RMK AO2 SFC VIS 5=
200508281212 SPECI KATL 281212Z 06008KT 5SM BR BKN005 BKN030 BKN150 23/22 A2993 RMK AO2=
200508281212 SPECI KATL 281212Z 06008KT 5SM BR BKN005 BKN030 BKN150 23/22 A2993 RMK AO2=
200508281151 METAR KATL 281151Z 09004KT 10SM FEW005 SCT030 SCT150 23/21 A2993 RMK AO2 SLP123 T02280211 10239 20222 53011=
200508281051 METAR KATL 281051Z 08005KT 10SM FEW008 SCT037 SCT210 22/21 A2990 RMK AO2 SLP116 T02220211=
200508280951 METAR KATL 280951Z 08005KT 10SM SCT008 SCT037 22/21 A2989 RMK AO2 SLP111 T02220211=
200508280938 SPECI KATL 280938Z 08006KT 10SM FEW008 SCT037 22/21 A2989 RMK AO2=
200508280938 SPECI KATL 280938Z 08006KT 10SM FEW008 SCT037 22/21 A2989 RMK AO2=
200508280851 METAR KATL 280851Z 08006KT 10SM FEW037 23/21 A2989 RMK AO2 SLP111 T02280211 55012=
200508280751 METAR KATL 280751Z 08007KT 10SM FEW037 23/21 A2989 RMK AO2 SLP109 T02330211=
200508280651 METAR KATL 280651Z 07006KT 10SM FEW032 23/21 A2990 RMK AO2 SLP114 T02330206=
200508280551 METAR KATL 280551Z 07008KT 10SM FEW032 24/21 A2993 RMK AO2 SLP123 T02390206 10278 20239 56007=
200508280451 METAR KATL 280451Z 08006KT 10SM CLR 24/21 A2994 RMK AO2 SLP128 T02390211 403000200=
200508280351 METAR KATL 280351Z 08007KT 10SM CLR 24/21 A2993 RMK AO2 SLP126 T02440211=
200508280251 METAR KATL 280251Z 08006KT 10SM CLR 25/21 A2995 RMK AO2 SLP131 T02500211 53016=
200508280151 METAR KATL 280151Z 08008KT 10SM CLR 26/21 A2993 RMK AO2 SLP125 T02610206=
200508280051 METAR KATL 280051Z 09007KT 10SM FEW180 27/20 A2991 RMK AO2 SLP119 T02670200=
200508272351 METAR KATL 272351Z 10005KT 10SM FEW140 28/19 A2990 RMK AO2 SLP115 T02780194 10300 20278 55002=
200508272251 METAR KATL 272251Z 10007KT 10SM FEW042 28/19 A2989 RMK AO2 SLP113 T02830189=
200508272151 METAR KATL 272151Z 08007KT 10SM SCT055 SCT130 29/19 A2990 RMK AO2 SLP114 T02890194=
200508272051 METAR KATL 272051Z 09005KT 10SM SCT042 29/19 A2991 RMK AO2 SLP116 T02940194 56016=
200508271951 METAR KATL 271951Z 10004KT 10SM SCT043 29/19 A2992 RMK AO2 SLP122 T02940189=
200508271851 METAR KATL 271851Z 10005KT 10SM SCT038 29/21 A2993 RMK AO2 SLP126 T02940206=
200508271751 METAR KATL 271751Z VRB03KT 10SM SCT036 28/19 A2995 RMK AO2 SLP133 T02830194 10283 20211 58008=
200508271711 SPECI KATL 271711Z VRB03KT 10SM BKN030 BKN120 27/19 A2997 RMK AO2=
200508271711 SPECI KATL 271711Z VRB03KT 10SM BKN030 BKN120 27/19 A2997 RMK AO2=
200508271651 METAR KATL 271651Z 07006KT 10SM BKN026 BKN250 26/20 A2998 RMK AO2 SLP143 T02610200=
200508271551 METAR KATL 271551Z 06007KT 10SM BKN024 BKN140 BKN250 26/21 A2999 RMK AO2 SLP146 T02610206=
200508271451 METAR KATL 271451Z 10006KT 10SM BKN020 BKN140 BKN250 25/20 A2998 RMK AO2 SLP143 T02500200 50003=
200508271351 METAR KATL 271351Z 09008KT 10SM FEW032 SCT140 SCT250 24/19 A2998 RMK AO2 SLP143 T02390194=
200508271251 METAR KATL 271251Z 08006KT 10SM FEW050 SCT150 SCT210 SCT250 22/18 A2998 RMK AO2 SLP144 T02220178=
200508271151 METAR KATL 271151Z 05005KT 10SM FEW150 SCT210 BKN250 21/17 A2997 RMK AO2 SLP140 T02110172 10217 20200 53012=
200508271051 METAR KATL 271051Z 07007KT 10SM FEW150 SCT250 21/17 A2994 RMK AO2 SLP128 T02060167=
200508270951 METAR KATL 270951Z 06005KT 10SM CLR 21/17 A2993 RMK AO2 SLP127 T02060167=
200508270851 METAR KATL 270851Z 10005KT 10SM CLR 21/17 A2993 RMK AO2 SLP127 T02060172 56012=
200508270751 METAR KATL 270751Z 10004KT 10SM CLR 21/17 A2994 RMK AO2 SLP128 T02110172=
200508270651 METAR KATL 270651Z 08006KT 10SM CLR 21/18 A2995 RMK AO2 SLP133 T02110178=
200508270551 METAR KATL 270551Z 08007KT 7SM FEW250 22/18 A2997 RMK AO2 SLP140 T02170183 10256 20217 58008=
200508270451 METAR KATL 270451Z 06007KT 10SM FEW250 23/18 A2999 RMK AO2 SLP146 T02280178 402890206=
200508270351 METAR KATL 270351Z 07007KT 10SM FEW250 23/18 A3001 RMK AO2 SLP152 T02280178=
200508270251 METAR KATL 270251Z 09007KT 10SM FEW250 23/18 A3000 RMK AO2 SLP148 T02330178 53002=
200508270151 METAR KATL 270151Z 09007KT 10SM FEW250 24/18 A3000 RMK AO2 SLP148 T02390178=
200508270051 METAR KATL 270051Z 09007KT 10SM FEW250 24/17 A2999 RMK AO2 SLP145 T02440172=
200508262351 METAR KATL 262351Z 08009KT 9SM FEW250 26/18 A2999 RMK AO2 SLP147 T02560178 10289 20256 55003=
200508262251 METAR KATL 262251Z 09007KT 10SM FEW250 27/18 A2999 RMK AO2 SLP145 T02720178=
200508262151 METAR KATL 262151Z 09007KT 10SM FEW045 28/17 A2999 RMK AO2 SLP147 T02780172=
200508262051 METAR KATL 262051Z 09008KT 10SM FEW045 28/17 A3000 RMK AO2 SLP149 T02830172 56025=
200508261951 METAR KATL 261951Z 10006KT 9SM FEW045 SCT250 28/18 A3002 RMK AO2 SLP156 T02830183=
200508261851 METAR KATL 261851Z 09009KT 9SM FEW040 28/18 A3005 RMK AO2 SLP165 T02780178=
200508261751 METAR KATL 261751Z 08007KT 030V140 9SM FEW040 27/17 A3008 RMK AO2 SLP175 T02720172 10272 20211 58014=
200508261651 METAR KATL 261651Z 09009KT 9SM FEW035 27/17 A3009 RMK AO2 SLP180 T02670172=
200508261551 METAR KATL 261551Z 10007KT 9SM CLR 26/17 A3011 RMK AO2 SLP188 T02560172=
200508261451 METAR KATL 261451Z 09011KT 9SM FEW030 25/17 A3012 RMK AO2 SLP190 T02500172 51003=
200508261351 METAR KATL 261351Z 09012KT 8SM FEW250 24/18 A3011 RMK AO2 SLP188 T02390178=
200508261251 METAR KATL 261251Z 08009KT 6SM HZ SCT250 22/19 A3012 RMK AO2 SLP190 T02220189=
200508261151 METAR KATL 261151Z 08007KT 6SM BR SCT250 21/19 A3011 RMK AO2 SLP187 T02060189 10228 20206 53005=
200508261051 METAR KATL 261051Z 07008KT 7SM FEW250 21/19 A3010 RMK AO2 SLP182 T02060189=
200508260951 METAR KATL 260951Z 07006KT 7SM SCT250 21/19 A3010 RMK AO2 SLP184 T02110189=
200508260851 METAR KATL 260851Z 07007KT 7SM SCT250 21/19 A3009 RMK AO2 SLP182 T02110194 58011=
200508260751 METAR KATL 260751Z 08006KT 5SM BR SCT250 21/19 A3011 RMK AO2 SLP185 T02110194=
200508260651 METAR KATL 260651Z 10004KT 7SM FEW250 22/19 A3012 RMK AO2 SLP190 T02220189=
200508260551 METAR KATL 260551Z 11005KT 7SM FEW250 22/19 A3013 RMK AO2 SLP192 T02220189 10261 20222 56006=
200508260451 METAR KATL 260451Z VRB04KT 9SM FEW250 23/19 A3013 RMK AO2 SLP194 T02280194 402890228=
200508260351 METAR KATL 260351Z 12004KT 9SM FEW250 23/20 A3014 RMK AO2 SLP197 T02330200=
200508260251 METAR KATL 260251Z 11005KT 9SM FEW250 24/20 A3014 RMK AO2 SLP199 T02390200 51005=
200508260151 METAR KATL 260151Z 10008KT 10SM FEW120 25/20 A3014 RMK AO2 SLP198 T02500200=
200508260051 METAR KATL 260051Z 09008KT 10SM BKN110 26/21 A3014 RMK AO2 SLP195 T02560206=
200508252351 METAR KATL 252351Z 09011KT 8SM BKN110 BKN250 26/21 A3013 RMK AO2 SLP192 T02560206 10289 20256 53004=
200508252251 METAR KATL 252251Z 09014KT 8SM FEW030 SCT045 SCT120 BKN150 26/21 A3012 RMK AO2 SLP190 MDT CU VC SE-SW T02610211=
200508252151 METAR KATL 252151Z 08013KT 10SM FEW030 BKN120 BKN150 27/21 A3011 RMK AO2 SLP187 MDT CU S TCU DSNT NE-E AND SE T02720211=
200508252051 METAR KATL 252051Z 09011KT 9SM FEW040 SCT050 BKN060 28/22 A3012 RMK AO2 SLP187 CB DSNT NE AND NW TCU DSNT N AND SE-S MDT CU SW-NW T02780217 56020=
200508251951 METAR KATL 251951Z 09013KT 9SM FEW035 SCT045 SCT070 29/21 A3012 RMK AO2 SLP189 TCU DSNT NE-E MDT CU SE-SW T02890206=
200508251851 METAR KATL 251851Z 09012KT 10SM FEW030 SCT040 BKN070 28/21 A3015 RMK AO2 SLP200 TCU DSNT NE AND MDT CU SW-NW T02830211 $=
200508251751 METAR KATL 251751Z 07012G18KT 030V100 9SM SCT025 BKN040 BKN280 28/22 A3018 RMK AO2 SLP207 T02780217 10278 20239 58005=
200508251651 METAR KATL 251651Z 08010KT 8SM FEW017 SCT024 BKN030 26/21 A3019 RMK AO2 SLP213 T02610211=
200508251644 SPECI KATL 251644Z 08011KT 7SM FEW017 SCT024 OVC030 26/21 A3019 RMK AO2 BINOVC=
200508251644 SPECI KATL 251644Z 08011KT 7SM FEW017 SCT024 OVC030 26/21 A3019 RMK AO2 BINOVC=
200508251551 METAR KATL 251551Z 07011KT 7SM SCT013 OVC025 24/21 A3020 RMK AO2 SLP216 T02440211 $=
200508251522 SPECI KATL 251522Z 08010KT 6SM HZ BKN013 OVC021 24/21 A3019 RMK AO2=
200508251522 SPECI KATL 251522Z 08010KT 6SM HZ BKN013 OVC021 24/21 A3019 RMK AO2=
200508251451 METAR KATL 251451Z 07009KT 6SM HZ SCT015 OVC025 24/21 A3019 RMK AO2 SLP214 T02440211 51012=
200508251351 METAR KATL 251351Z 06012KT 3SM HZ SCT012 OVC025 24/22 A3018 RMK AO2 SFC VIS 5 SLP210 T02440217=
200508251305 SPECI KATL 251305Z 09011KT 3SM BR SCT011 BKN028 BKN035 BKN250 24/22 A3017 RMK AO2 SFC VIS 4=
200508251305 SPECI KATL 251305Z 09011KT 3SM BR SCT011 BKN028 BKN035 BKN250 24/22 A3017 RMK AO2 SFC VIS 4=
200508251258 SPECI KATL 251258Z 09009KT 3SM BR FEW011 SCT026 BKN032 BKN250 24/22 A3017 RMK AO2 SFC VIS 4=
200508251258 SPECI KATL 251258Z 09009KT 3SM BR FEW011 SCT026 BKN032 BKN250 24/22 A3017 RMK AO2 SFC VIS 4=
200508251251 METAR KATL 251251Z 09011KT 3SM BR FEW012 BKN027 BKN032 BKN250 24/22 A3017 RMK AO2 SFC VIS 4 SLP207 T02390217=
200508251151 METAR KATL 251151Z 08010KT 4SM BR FEW010 OVC025 24/22 A3015 RMK AO2 SLP200 70006 T02390217 10239 20233 53012=
200508251123 SPECI KATL 251123Z 08010KT 5SM BR SCT010 OVC025 23/22 A3015 RMK AO2=
200508251123 SPECI KATL 251123Z 08010KT 5SM BR SCT010 OVC025 23/22 A3015 RMK AO2=
200508251051 METAR KATL 251051Z 09010KT 5SM BR SCT010 BKN014 OVC050 23/22 A3013 RMK AO2 SLP193 T02330217 $=
200508250951 METAR KATL 250951Z 08007KT 5SM BR SCT010 OVC025 24/22 A3013 RMK AO2 SLP191 T02390222 $=
200508250931 SPECI KATL 250931Z 09010KT 6SM BR SCT025 BKN034 BKN250 24/22 A3012 RMK AO2 $=
200508250931 SPECI KATL 250931Z 09010KT 6SM BR SCT025 BKN034 BKN250 24/22 A3012 RMK AO2 $=
200508250851 METAR KATL 250851Z 09011KT 6SM BR BKN011 BKN027 BKN250 24/22 A3012 RMK AO2 SLP188 T02390217 55001 $=
200508250815 SPECI KATL 250815Z 09008KT 5SM BR BKN013 OVC021 24/22 A3012 RMK AO2 $=
200508250815 SPECI KATL 250815Z 09008KT 5SM BR BKN013 OVC021 24/22 A3012 RMK AO2 $=
200508250805 SPECI KATL 250805Z 09009KT 5SM BR SCT011 BKN016 OVC021 24/22 A3012 RMK AO2 $=
200508250805 SPECI KATL 250805Z 09009KT 5SM BR SCT011 BKN016 OVC021 24/22 A3012 RMK AO2 $=
200508250751 METAR KATL 250751Z 08009KT 4SM BR BKN007 OVC015 24/22 A3012 RMK AO2 CIG 005V011 SLP187 T02390222 $=
200508250651 METAR KATL 250651Z 08009KT 4SM BR BKN007 BKN250 24/23 A3011 RMK AO2 SLP185 T02390228 $=
200508250551 METAR KATL 250551Z 08009KT 4SM BR BKN015 BKN250 24/23 A3012 RMK AO2 SLP190 T02390228 10283 20239 50004=
200508250451 METAR KATL 250451Z 09006KT 5SM BR FEW250 24/23 A3012 RMK AO2 SLP190 T02440228 402940222=
200508250351 METAR KATL 250351Z 08009KT 6SM BR FEW250 25/23 A3011 RMK AO2 SLP187 T02500228=
200508250251 METAR KATL 250251Z 08011KT 6SM HZ FEW250 26/23 A3011 RMK AO2 SLP185 T02560228 51021=
200508250151 METAR KATL 250151Z 08007KT 6SM HZ FEW250 26/23 A3009 RMK AO2 SLP180 T02610228=
200508250051 METAR KATL 250051Z 09006KT 6SM HZ FEW250 27/23 A3008 RMK AO2 SLP174 T02670228=
200508242351 METAR KATL 242351Z 09008KT 5SM HZ FEW030TCU 28/22 A3004 RMK AO2 SLP164 TCU VC W 60006 T02830222 10294 20261 53006=
200508242251 METAR KATL 242251Z 12007KT 5SM HZ SCT030TCU SCT250 29/22 A3003 RMK AO2 SLP158 TCU N-NE AND OHD-SW T02890222=
200508242205 SPECI KATL 242205Z 09007KT 4SM HZ FEW030 28/22 A3003 RMK AO2=
200508242205 SPECI KATL 242205Z 09007KT 4SM HZ FEW030 28/22 A3003 RMK AO2=
200508242151 METAR KATL 242151Z 08010KT 2 1/2SM HZ FEW030 28/23 A3003 RMK AO2 SFC VIS 5 SLP158 MDT CU SW T02830228=
200508242051 METAR KATL 242051Z 10005KT 2 1/2SM BR FEW025 SCT250 29/23 A3003 RMK AO2 SFC VIS 4 SLP157 MDT CU NE AND NW 60006 T02940228 55012=
200508241951 METAR KATL 241951Z 09006KT 2 1/2SM BR FEW015 SCT030 SCT050 28/23 A3002 RMK AO2 SFC VIS 4 RAE38 SLP157 P0005 T02780233=
200508241909 SPECI KATL 241909Z 07007KT 2 1/2SM -RA BR SCT020CB BKN030 26/23 A3004 RMK AO2 SFC VIS 4 CB W MOV SSE SHRA W P0003=
200508241909 SPECI KATL 241909Z 07007KT 2 1/2SM -RA BR SCT020CB BKN030 26/23 A3004 RMK AO2 SFC VIS 4 CB W MOV SSE SHRA W P0003=
200508241858 SPECI KATL 241858Z 06009KT 2 1/2SM R09R/5500VP6000FT RA BKN020TCU OVC030 26/23 A3005 RMK AO2 TCU OHD P0001=
200508241858 SPECI KATL 241858Z 06009KT 2 1/2SM R09R/5500VP6000FT RA BKN020TCU OVC030 26/23 A3005 RMK AO2 TCU OHD P0001=
200508241851 METAR KATL 241851Z 05009KT 2 1/2SM -RA FEW012 BKN020TCU BKN040 27/23 A3005 RMK AO2 RAB36 SLP165 TCU OHD P0001 T02670233=
200508241751 METAR KATL 241751Z 16007KT 2 1/2SM HZ FEW015CB SCT030TCU 27/23 A3006 RMK AO2 SFC VIS 4 SLP170 CB N MOV SE TCU NE AND NW SHRA N T02720233 10272 20228 58002=
200508241726 SPECI KATL 241726Z VRB04KT 2 1/2SM HZ FEW016 SCT020 27/23 A3007 RMK AO2 SFC VIS 5=
200508241726 SPECI KATL 241726Z VRB04KT 2 1/2SM HZ FEW016 SCT020 27/23 A3007 RMK AO2 SFC VIS 5=
200508241703 SPECI KATL 241703Z 13005KT 2 1/2SM HZ BKN017 BKN033 26/23 A3007 RMK AO2 SFC VIS 4=
200508241703 SPECI KATL 241703Z 13005KT 2 1/2SM HZ BKN017 BKN033 26/23 A3007 RMK AO2 SFC VIS 4=
200508241651 METAR KATL 241651Z 17006KT 2 1/2SM HZ BKN013 BKN033 OVC060 26/23 A3007 RMK AO2 SFC VIS 4 SLP173 CB DSNT S BINOVC N T02560228=
200508241551 METAR KATL 241551Z VRB03KT 2 1/2SM HZ BKN011 BKN060 OVC120 26/23 A3007 RMK AO2 SFC VIS 4 SLP171 LTG DSNT S CB DSNT S BINOVC NW-N T02610228=
200508241451 METAR KATL 241451Z 07006KT 2 1/2SM HZ OVC009 25/22 A3007 RMK AO2 SFC VIS 4 SLP173 T02500222 52018=
200508241351 METAR KATL 241351Z 06005KT 2 1/2SM BR OVC007 24/22 A3005 RMK AO2 SFC VIS 5 CIG 006V011 SLP167 T02390217=
200508241251 METAR KATL 241251Z 09007KT 1 1/2SM BR OVC005 23/22 A3003 RMK AO2 SFC VIS 2 SLP160 T02330217=
200508241201 SPECI KATL 241201Z 08008KT 1 1/2SM BR OVC005 23/22 A3001 RMK AO2 SFC VIS 2=
200508241201 SPECI KATL 241201Z 08008KT 1 1/2SM BR OVC005 23/22 A3001 RMK AO2 SFC VIS 2=
200508241153 SPECI KATL 241153Z 06008KT 1 1/2SM BR OVC003 23/22 A3001 RMK AO2 SFC VIS 2=
200508241153 SPECI KATL 241153Z 06008KT 1 1/2SM BR OVC003 23/22 A3001 RMK AO2 SFC VIS 2=
200508241151 METAR KATL 241151Z 06007KT 1/2SM BR OVC003 23/22 A3001 RMK AO2 SFC VIS 1 1/2 SLP155 70296 T02280217 10228 20222 53016=
200508241051 METAR KATL 241051Z 06007KT 1/2SM R09R/P6000FT BR BKN003 BKN250 23/22 A3000 RMK AO2 SFC VIS 1 SLP149 T02280217=
200508240951 METAR KATL 240951Z 07006KT 1/2SM BR BKN003 BKN250 22/22 A2997 RMK AO2 SFC VIS 1 1/2 SLP138 T02220217=
200508240940 SPECI KATL 240940Z 08004KT 1/2SM BR FEW003 SCT024 BKN250 22/22 A2997 RMK AO2 SFC VIS 2 1/2=
200508240940 SPECI KATL 240940Z 08004KT 1/2SM BR FEW003 SCT024 BKN250 22/22 A2997 RMK AO2 SFC VIS 2 1/2=
200508240908 SPECI KATL 240908Z 08005KT 1 1/2SM BR FEW003 BKN250 23/22 A2996 RMK AO2 SFC VIS 2=
200508240908 SPECI KATL 240908Z 08005KT 1 1/2SM BR FEW003 BKN250 23/22 A2996 RMK AO2 SFC VIS 2=
200508240851 METAR KATL 240851Z 07006KT 1 1/2SM BR FEW003 BKN025 BKN250 23/22 A2996 RMK AO2 SFC VIS 2 SLP135 T02280217 58005=
200508240835 SPECI KATL 240835Z 05006KT 1/2SM BR SCT025 BKN250 23/22 A2997 RMK AO2 SFC VIS 2=
200508240835 SPECI KATL 240835Z 05006KT 1/2SM BR SCT025 BKN250 23/22 A2997 RMK AO2 SFC VIS 2=
200508240751 METAR KATL 240751Z 06005KT 6SM BR BKN034 BKN150 BKN250 23/22 A2997 RMK AO2 SLP138 T02280217=
200508240651 METAR KATL 240651Z 08003KT 6SM BR FEW150 SCT250 23/21 A2997 RMK AO2 SLP139 T02280211=
200508240551 METAR KATL 240551Z 09005KT 8SM FEW250 23/21 A2998 RMK AO2 SLP140 60002 T02280211 10256 20222 56006=
200508240451 METAR KATL 240451Z 34003KT 10SM FEW250 23/21 A2998 RMK AO2 SLP140 T02330206 403060222=
200508240351 METAR KATL 240351Z 00000KT 10SM FEW050 SCT100 BKN250 23/21 A2997 RMK AO2 SLP139 T02330206=
200508240251 METAR KATL 240251Z 14003KT 8SM BKN040 OVC055 23/22 A3000 RMK AO2 SLP148 BINOVC 60002 T02330217 52018=
200508240151 METAR KATL 240151Z 18004KT 8SM FEW035 SCT060 BKN120 BKN250 23/22 A2998 RMK AO2 SLP142 LTG DSNT SE-SW CB DSNT SE-SW T02330217=
200508240051 METAR KATL 240051Z 14006KT 6SM BR BKN040 BKN090 OVC150 24/22 A2996 RMK AO2 TSE07RAE17 SLP135 P0002 T02390222=
200508240007 SPECI KATL 240007Z 04008KT 5SM -RA FEW035 SCT050 BKN090 OVC150 24/22 A2994 RMK AO2 TSE07 TS DSIPTD P0002=
200508240007 SPECI KATL 240007Z 04008KT 5SM -RA FEW035 SCT050 BKN090 OVC150 24/22 A2994 RMK AO2 TSE07 TS DSIPTD P0002=
200508232356 SPECI KATL 232356Z 04008KT 2 1/2SM TSRA FEW015 BKN035CB OVC050 23/21 A2994 RMK AO2 SFC VIS 3 OCNL LTGIC TS OHD-ALQDS MOV SE P0002=
200508232356 SPECI KATL 232356Z 04008KT 2 1/2SM TSRA FEW015 BKN035CB OVC050 23/21 A2994 RMK AO2 SFC VIS 3 OCNL LTGIC TS OHD-ALQDS MOV SE P0002=
200508232351 METAR KATL 232351Z 03006KT 1SM TSRA FEW015 BKN035CB OVC050 22/21 A2994 RMK AO2 WSHFT 2303 SFC VIS 2 1/2 SLP130 OCNL LTGCGIC TS OHD-ALQDS MOV SE P0097 60293 T02220211 10306 20222 50006=
200508232318 SPECI KATL 232318Z 33012G20KT 1SM R09R/3500VP6000FT +TSRA SCT015 BKN035CB OVC050 23/21 A2995 RMK AO2 WSHFT 2303 SFC VIS 1 1/2 FRQ LTGCGIC TS SE-OHD-NW MOV SE P0025=
200508232318 SPECI KATL 232318Z 33012G20KT 1SM R09R/3500VP6000FT +TSRA SCT015 BKN035CB OVC050 23/21 A2995 RMK AO2 WSHFT 2303 SFC VIS 1 1/2 FRQ LTGCGIC TS SE-OHD-NW MOV SE P0025=
200508232251 METAR KATL 232251Z 08012KT 1/2SM R09R/5500VP6000FT +TSRA SCT015 BKN035CB OVC050 23/22 A2995 RMK AO2 PK WND 01028/2219 SFC VIS 1 TSB09RAB03 SLP132 OCNL LTGCGIC TS SE-OHD-NW MOV STNRY P0196 T02330217=
200508232243 SPECI KATL 232243Z 08013KT 1/2SM R09R/1800VP6000FT +TSRA BKN015 OVC035CB 24/21 A2995 RMK AO2 PK WND 01028/2219 TSB09RAB03 OCNL LTGCG TS OHD-SE MOV STNRY P0005=
200508232243 SPECI KATL 232243Z 08013KT 1/2SM R09R/1800VP6000FT +TSRA BKN015 OVC035CB 24/21 A2995 RMK AO2 PK WND 01028/2219 TSB09RAB03 OCNL LTGCG TS OHD-SE MOV STNRY P0005=
200508232215 SPECI KATL 232215Z 08008KT 1SM R09R/P6000FT +TSRA BKN015 OVC035CB 29/22 A2992 RMK AO2 TSB09RAB03 VIS E-S 2 OCNL LTGCG TS OHD-SE MOV STNRY P0000=
200508232215 SPECI KATL 232215Z 08008KT 1SM R09R/P6000FT +TSRA BKN015 OVC035CB 29/22 A2992 RMK AO2 TSB09RAB03 VIS E-S 2 OCNL LTGCG TS OHD-SE MOV STNRY P0000=
200508232209 SPECI KATL 232209Z 11007KT 4SM -TSRA FEW020 BKN035CB OVC050 29/22 A2992 RMK AO2 TSB09RAB03 VIS E-S 2 OCNL LTGCG TS OHD-SE MOV SE P0000=
200508232209 SPECI KATL 232209Z 11007KT 4SM -TSRA FEW020 BKN035CB OVC050 29/22 A2992 RMK AO2 TSB09RAB03 VIS E-S 2 OCNL LTGCG TS OHD-SE MOV SE P0000=
200508232151 METAR KATL 232151Z 18004KT 6SM HZ SCT035TCU BKN045 BKN250 30/22 A2991 RMK AO2 SLP118 TCU SE-OHD-W SHRA SE T03000222=
200508232051 METAR KATL 232051Z 19004KT 6SM HZ FEW035TCU SCT045 SCT095 SCT250 30/22 A2992 RMK AO2 SLP121 TCU SW MDT CU ALQDS 60001 T03000222 56017=
200508231951 METAR KATL 231951Z 14005KT 6SM HZ SCT030TCU BKN040 29/22 A2993 RMK AO2 RAE11 SLP124 TCU SW-NW P0001 T02940222=
200508231904 SPECI KATL 231904Z 21005KT 6SM -RA FEW006 BKN028TCU BKN060 29/23 A2995 RMK AO2 TCU N-E AND OHD-W P0001=
200508231904 SPECI KATL 231904Z 21005KT 6SM -RA FEW006 BKN028TCU BKN060 29/23 A2995 RMK AO2 TCU N-E AND OHD-W P0001=
200508231851 METAR KATL 231851Z 21006KT 6SM -RA SCT025TCU BKN030 BKN055 28/23 A2996 RMK AO2 RAB41 SLP134 TCU N-E AND OHD-W P0000 T02830228=
200508231751 METAR KATL 231751Z 00000KT 5SM HZ SCT025 SCT250 29/22 A2997 RMK AO2 SLP138 T02940222 10300 20228 58008=
200508231651 METAR KATL 231651Z VRB03KT 5SM HZ FEW020 SCT200 BKN250 28/22 A2999 RMK AO2 SLP145 T02830222=
200508231551 METAR KATL 231551Z VRB03KT 5SM HZ BKN018 BKN250 27/22 A3000 RMK AO2 SLP148 T02720222=
200508231451 METAR KATL 231451Z VRB04KT 6SM HZ SCT015 BKN250 26/22 A3000 RMK AO2 SLP148 T02560217 51012=
200508231351 METAR KATL 231351Z 14004KT 6SM HZ FEW015 SCT025 BKN250 24/21 A2999 RMK AO2 SLP144 T02390211=
200508231308 SPECI KATL 231308Z 13005KT 3SM BR FEW005 SCT018 OVC023 23/21 A2999 RMK AO2 SFC VIS 5=
200508231308 SPECI KATL 231308Z 13005KT 3SM BR FEW005 SCT018 OVC023 23/21 A2999 RMK AO2 SFC VIS 5=
200508231251 METAR KATL 231251Z 11005KT 5SM BR OVC023 23/21 A2998 RMK AO2 SLP142 BINOVC ALQDS T02280211=
200508231151 METAR KATL 231151Z 09004KT 8SM BKN021 BKN200 BKN250 23/21 A2996 RMK AO2 SLP134 T02280211 10233 20222 53011=
200508231051 METAR KATL 231051Z 03005KT 9SM SCT200 BKN250 23/21 A2994 RMK AO2 SLP129 T02330206=
200508230951 METAR KATL 230951Z 04003KT 10SM FEW010 SCT250 23/21 A2994 RMK AO2 SLP127 T02280206=
200508230851 METAR KATL 230851Z 07004KT 10SM FEW010 SCT250 23/21 A2993 RMK AO2 SLP121 T02280206 57005=
200508230751 METAR KATL 230751Z 05004KT 10SM FEW010 SCT250 23/21 A2993 RMK AO2 SLP122 T02280211=
200508230651 METAR KATL 230651Z 14003KT 10SM FEW030 SCT150 BKN250 23/21 A2994 RMK AO2 SLP126 T02280211=
200508230551 METAR KATL 230551Z 22006KT 10SM BKN250 23/21 A2994 RMK AO2 SLP127 60000 T02280206 10300 20222 58011=
200508230451 METAR KATL 230451Z 23005KT 10SM BKN250 23/21 A2995 RMK AO2 SLP130 T02280211 403390222=
200508230351 METAR KATL 230351Z VRB04KT 10SM FEW009 SCT045 BKN200 23/21 A2997 RMK AO2 TSB02E24 SLP137 T02280211=
200508230326 SPECI KATL 230326Z VRB05KT 10SM FEW010 SCT035 BKN050 OVC200 23/21 A2997 RMK AO2 TSB02E24 TS DSIPTD=
200508230326 SPECI KATL 230326Z VRB05KT 10SM FEW010 SCT035 BKN050 OVC200 23/21 A2997 RMK AO2 TSB02E24 TS DSIPTD=
200508230302 SPECI KATL 230302Z 15004KT 10SM TS FEW010 SCT035CB BKN050 OVC200 23/21 A2998 RMK AO2 TSB02 OCNL LTGIC TS VC SE MOV STNRY=
200508230302 SPECI KATL 230302Z 15004KT 10SM TS FEW010 SCT035CB BKN050 OVC200 23/21 A2998 RMK AO2 TSB02 OCNL LTGIC TS VC SE MOV STNRY=
200508230251 METAR KATL 230251Z 15006KT 10SM FEW035 BKN050 OVC200 23/21 A2998 RMK AO2 TSB07E51RAE17 SLP140 TS MOV SW OCNL LTG DSNT SW CB DSNT SW P0000 60000 T02330211 53035=
200508230207 SPECI KATL 230207Z 13008KT 9SM -TSRA FEW028CB BKN040 BKN055 OVC200 24/21 A2997 RMK AO2 TSB07 OCNL LTGIC TS SE-SW MOV SW P0000=
200508230207 SPECI KATL 230207Z 13008KT 9SM -TSRA FEW028CB BKN040 BKN055 OVC200 24/21 A2997 RMK AO2 TSB07 OCNL LTGIC TS SE-SW MOV SW P0000=
200508230151 METAR KATL 230151Z 11015G21KT 8SM -RA SCT028 BKN035 BKN055 BKN250 26/21 A2996 RMK AO2 WSHFT 0120 RAB48 SLP132 LTG DSNT SE CB DSNT SE P0000 T02560206=
200508230136 SPECI KATL 230136Z 10011KT 10SM BKN028 BKN040 BKN250 27/20 A2994 RMK AO2 WSHFT 0120=
200508230136 SPECI KATL 230136Z 10011KT 10SM BKN028 BKN040 BKN250 27/20 A2994 RMK AO2 WSHFT 0120=
200508230051 METAR KATL 230051Z 26003KT 10SM FEW150 BKN200 BKN250 29/23 A2989 RMK AO2 SLP108 LTG DSNT NE AND SE CB DSNT NE AND SE T02890228=
200508222351 METAR KATL 222351Z 30007KT 10SM FEW040 BKN200 BKN250 29/23 A2987 RMK AO2 SLP103 CB DSNT NE AND E-SE T02890228 10339 20289 58002=
200508222251 METAR KATL 222251Z 29008KT 10SM FEW040 BKN200 BKN250 31/22 A2988 RMK AO2 SLP106 CB DSNT NE AND E T03060217=
200508222151 METAR KATL 222151Z 30009KT 10SM FEW045TCU BKN200 BKN250 31/21 A2989 RMK AO2 SLP109 TCU VC SE AND DSNT N-NE T03110206=
200508222051 METAR KATL 222051Z 34008KT 10SM FEW050 SCT150 BKN200 BKN250 32/21 A2988 RMK AO2 SLP105 MDT CU SE AND SW T03220206 56026=
200508221951 METAR KATL 221951Z 34008KT 10SM FEW050 SCT150 SCT200 BKN300 33/21 A2989 RMK AO2 SLP110 CB DSNT S-SW T03280206=
200508221851 METAR KATL 221851Z 34009KT 10SM FEW050TCU SCT150 BKN250 33/21 A2992 RMK AO2 SLP118 CB DSNT SW-W TCU E-SE T03280206=
200508221751 METAR KATL 221751Z 34006KT 10SM FEW045TCU SCT150 SCT250 33/21 A2996 RMK AO2 SLP131 CB DSNT SW TCU N-SW SHRA DSNT SW T03330211 10333 20244 58004=
200508221651 METAR KATL 221651Z 29007KT 10SM FEW040 SCT150 SCT250 32/22 A2997 RMK AO2 SLP135 T03220222=
200508221551 METAR KATL 221551Z 31009KT 10SM FEW040 SCT150 SCT250 32/22 A2997 RMK AO2 SLP137 T03170217=
200508221451 METAR KATL 221451Z 30005KT 9SM FEW150 SCT200 31/23 A2997 RMK AO2 SLP136 T03060228 50005=
200508221351 METAR KATL 221351Z 32006KT 8SM SCT210 SCT250 28/23 A2997 RMK AO2 SLP137 T02830228=
200508221251 METAR KATL 221251Z 32004KT 9SM FEW150 SCT210 SCT250 26/22 A2996 RMK AO2 SLP133 T02610222=
200508221151 METAR KATL 221151Z 31004KT 9SM FEW150 SCT210 SCT250 24/22 A2996 RMK AO2 SLP132 T02440222 10267 20239 53001=
200508221051 METAR KATL 221051Z 30004KT 8SM FEW210 SCT250 24/22 A2995 RMK AO2 SLP131 T02390217=
200508220951 METAR KATL 220951Z 31005KT 9SM SCT250 24/22 A2995 RMK AO2 SLP129 T02440217=
200508220851 METAR KATL 220851Z 32004KT 9SM BKN250 25/22 A2995 RMK AO2 SLP130 T02500217 56010=
200508220751 METAR KATL 220751Z 32006KT 9SM BKN250 25/22 A2996 RMK AO2 SLP132 T02500217=
200508220651 METAR KATL 220651Z 31005KT 9SM BKN250 26/22 A2997 RMK AO2 SLP137 T02560217=
200508220551 METAR KATL 220551Z 33007KT 9SM BKN250 27/22 A2998 RMK AO2 SLP140 T02670217 10317 20261 55001=
200508220451 METAR KATL 220451Z 33004KT 10SM BKN250 27/22 A2998 RMK AO2 SLP139 T02720217 403440256=
200508220351 METAR KATL 220351Z 33005KT 10SM BKN200 28/22 A2998 RMK AO2 SLP137 T02780222=
200508220251 METAR KATL 220251Z 32008KT 10SM BKN200 28/23 A2999 RMK AO2 SLP141 T02830228 50004=
200508220151 METAR KATL 220151Z 32008KT 10SM SCT180 29/23 A2999 RMK AO2 SLP142 T02890233=
200508220051 METAR KATL 220051Z 33008KT 10SM BKN150 31/22 A2998 RMK AO2 SLP138 T03110222=
200508212351 METAR KATL 212351Z 32007KT 10SM FEW050 BKN140 32/22 A2997 RMK AO2 SLP138 T03170217 10344 20311 55002=
200508212251 METAR KATL 212251Z 31008KT 10SM FEW050TCU SCT200 33/22 A2997 RMK AO2 SLP135 TCU E MOV S T03280217=
200508212151 METAR KATL 212151Z 33007KT 290V010 10SM FEW050 SCT250 34/21 A2996 RMK AO2 SLP132 CB DSNT N NE SE-SW AND NW T03390206=
200508212051 METAR KATL 212051Z 31007KT 10SM FEW050TCU SCT250 34/21 A2998 RMK AO2 SLP139 TCU VC N CB DSNT E SE S-SW AND NW T03390211 58022=
200508211951 METAR KATL 211951Z 32010KT 10SM FEW050TCU SCT250 34/21 A3001 RMK AO2 SLP148 TCU SE AND VC E CB DSNT S-SW AND W T03390206=
200508211851 METAR KATL 211851Z 36011G15KT 10SM FEW048TCU SCT250 34/22 A3003 RMK AO2 SLP156 TCU N-NE AND VC S-SW-W T03390217=
200508211751 METAR KATL 211751Z 30009KT 10SM FEW046TCU SCT250 33/22 A3005 RMK AO2 SLP162 TCU N-NE-E MDT CU SE-S T03330222 10339 20256 58010=
200508211651 METAR KATL 211651Z 35011KT 10SM FEW044 SCT250 33/23 A3007 RMK AO2 SLP168 T03330228=
200508211551 METAR KATL 211551Z 35009KT 10SM SCT250 32/23 A3007 RMK AO2 SLP171 T03220233=
200508211451 METAR KATL 211451Z 30008KT 9SM SCT250 31/24 A3008 RMK AO2 SLP173 T03110239 51006=
200508211351 METAR KATL 211351Z 32010KT 7SM SCT250 29/24 A3007 RMK AO2 SLP171 T02940239=
200508211251 METAR KATL 211251Z 31008KT 6SM HZ SCT250 27/24 A3007 RMK AO2 SLP170 T02720239=
200508211151 METAR KATL 211151Z 31006KT 5SM BR SCT250 26/23 A3006 RMK AO2 SLP167 T02560233 10272 20256 51005=
200508211051 METAR KATL 211051Z 30007KT 6SM BR FEW250 26/23 A3006 RMK AO2 SLP167 T02560233=
200508210951 METAR KATL 210951Z 31006KT 7SM CLR 26/24 A3005 RMK AO2 SLP163 T02560239=
200508210851 METAR KATL 210851Z 28004KT 9SM CLR 26/24 A3005 RMK AO2 SLP161 T02560239 56008=
200508210751 METAR KATL 210751Z 28005KT 7SM CLR 26/24 A3005 RMK AO2 SLP163 T02560239=
200508210651 METAR KATL 210651Z 28003KT 7SM CLR 26/24 A3006 RMK AO2 SLP166 T02610239=
200508210551 METAR KATL 210551Z 26003KT 8SM CLR 27/24 A3007 RMK AO2 SLP170 T02670239 10306 20267 58006=
200508210451 METAR KATL 210451Z 29005KT 8SM BKN250 27/24 A3008 RMK AO2 SLP174 T02720244 403330239=
200508210351 METAR KATL 210351Z 30005KT 9SM BKN250 28/24 A3009 RMK AO2 SLP178 T02780244=
200508210251 METAR KATL 210251Z 27004KT 9SM BKN250 28/24 A3009 RMK AO2 SLP177 T02830244 51010=
200508210151 METAR KATL 210151Z 29005KT 10SM BKN250 29/24 A3009 RMK AO2 SLP177 T02890239=
200508210051 METAR KATL 210051Z 27006KT 10SM FEW050 BKN250 29/23 A3008 RMK AO2 SLP172 T02940233=
200508202351 METAR KATL 202351Z 27005KT 8SM FEW050 BKN250 31/23 A3006 RMK AO2 SLP166 T03060233 10333 20306 55000=
200508202251 METAR KATL 202251Z 28006KT 7SM FEW050 32/23 A3005 RMK AO2 SLP164 T03170233=
200508202151 METAR KATL 202151Z 28005KT 6SM HZ FEW050TCU 33/23 A3005 RMK AO2 SLP162 TCU N-E MOV SE-S T03280228=
200508202051 METAR KATL 202051Z 31007KT 290V350 5SM HZ FEW060 33/23 A3006 RMK AO2 SLP167 T03330228 56022=
200508201951 METAR KATL 201951Z 28007KT 6SM HZ SCT050TCU BKN110 33/23 A3008 RMK AO2 SLP173 TCU N-SE MOV SE-S T03280233=
200508201851 METAR KATL 201851Z 31006KT 6SM HZ FEW038TCU SCT250 33/23 A3010 RMK AO2 SLP179 TCU VC ALQDS T03280233=
200508201751 METAR KATL 201751Z 31008KT 5SM HZ SCT036TCU SCT250 32/23 A3012 RMK AO2 SLP189 TCU ALQDS T03220228 10322 20244 58012=
200508201651 METAR KATL 201651Z 34007KT 5SM HZ FEW032 SCT250 32/24 A3014 RMK AO2 SLP193 T03170239=
200508201551 METAR KATL 201551Z 32010KT 6SM HZ FEW028 SCT250 31/24 A3015 RMK AO2 SLP198 T03060244=
200508201451 METAR KATL 201451Z 31008KT 7SM FEW250 29/24 A3016 RMK AO2 SLP201 T02940244 52006=
200508201351 METAR KATL 201351Z 31009KT 7SM FEW250 28/24 A3015 RMK AO2 SLP198 T02830244=
200508201251 METAR KATL 201251Z 29006KT 7SM CLR 26/24 A3015 RMK AO2 SLP199 T02560239=
200508201151 METAR KATL 201151Z 29005KT 6SM BR CLR 24/23 A3014 RMK AO2 SLP196 T02440233 10250 20239 53016=
200508201051 METAR KATL 201051Z 26005KT 7SM FEW250 24/23 A3012 RMK AO2 SLP190 T02440233=
200508200951 METAR KATL 200951Z 27005KT 8SM SCT250 24/23 A3010 RMK AO2 SLP181 T02440233=
200508200851 METAR KATL 200851Z 24004KT 6SM BR CLR 24/23 A3009 RMK AO2 SLP179 T02440233 55001=
200508200801 SPECI KATL 200801Z 20004KT 4SM BR SCT004 24/24 A3009 RMK AO2=
200508200801 SPECI KATL 200801Z 20004KT 4SM BR SCT004 24/24 A3009 RMK AO2=
200508200751 METAR KATL 200751Z 21004KT 4SM BR FEW250 24/23 A3009 RMK AO2 SLP180 T02440233=
200508200651 METAR KATL 200651Z 28006KT 7SM BKN250 24/23 A3008 RMK AO2 SLP174 T02440233=
200508200551 METAR KATL 200551Z 25003KT 8SM BKN250 24/23 A3010 RMK AO2 SLP180 T02440228 10278 20244 50001=
200508200451 METAR KATL 200451Z 00000KT 7SM BKN250 25/23 A3011 RMK AO2 SLP183 T02500233 403170228=
200508200351 METAR KATL 200351Z 00000KT 9SM BKN250 26/23 A3011 RMK AO2 SLP184 T02610228=
200508200251 METAR KATL 200251Z 27004KT 8SM FEW150 BKN200 BKN250 26/23 A3009 RMK AO2 SLP180 T02610233 52004=
200508200151 METAR KATL 200151Z 19004KT 8SM CLR 27/24 A3009 RMK AO2 SLP179 T02670239=
200508200051 METAR KATL 200051Z 14003KT 8SM FEW030 SCT150 BKN200 BKN250 27/24 A3009 RMK AO2 SLP177 T02720239=
200508192351 METAR KATL 192351Z 10008KT 8SM FEW030 SCT150 BKN200 OVC250 28/24 A3008 RMK AO2 TSE2252 SLP177 60011 T02780244 10317 20267 51013=
200508192254 SPECI KATL 192254Z VRB03KT 10SM FEW030 SCT045 BKN200 BKN250 29/23 A3007 RMK AO2 TSE52 TS DSIPTD CB VC SW TCU E-SE VCSH SW=
200508192254 SPECI KATL 192254Z VRB03KT 10SM FEW030 SCT045 BKN200 BKN250 29/23 A3007 RMK AO2 TSE52 TS DSIPTD CB VC SW TCU E-SE VCSH SW=
200508192251 METAR KATL 192251Z 35004KT 10SM TS FEW030CB SCT045 BKN200 BKN250 29/23 A3007 RMK AO2 TSB35 SLP170 OCNL LTGCG TS VC W-NW MOV SE=
200508192235 SPECI KATL 192235Z VRB04KT 10SM TS FEW030CB SCT045 BKN200 BKN250 30/23 A3008 RMK AO2 TSB35 OCNL LTGCG TS VC W-NW MOV SE VCSH W-NW=
200508192235 SPECI KATL 192235Z VRB04KT 10SM TS FEW030CB SCT045 BKN200 BKN250 30/23 A3008 RMK AO2 TSB35 OCNL LTGCG TS VC W-NW MOV SE VCSH W-NW=
200508192151 METAR KATL 192151Z 15003KT 10SM FEW040 BKN200 BKN250 30/23 A3008 RMK AO2 SLP173 CB DSNT NW T03000228=
200508192051 METAR KATL 192051Z COR 20003KT 9SM FEW100 SCT150 BKN180 BKN250 29/22 A3005 RMK AO2 SLP163 CB DSNT N-NE-E AND DSNT SW AND NW CBMAM DSNT E 60011 T02890217 58016=
200508191951 METAR KATL 191951Z 14004KT 9SM FEW060 SCT100 BKN150 BKN250 27/22 A3007 RMK AO2 TSE07 SLP173 CB DSNT N AND DSNT E-SE MOV SE T02670217=
200508191907 SPECI KATL 191907Z 02007KT 10SM FEW030 SCT060 BKN100 BKN150 BKN250 27/21 A3008 RMK AO2 TSE07 LTG DSNT NE-SE TS MOV SE CB DSNT NE-SE AND DSNT NW MOV SE=
200508191907 SPECI KATL 191907Z 02007KT 10SM FEW030 SCT060 BKN100 BKN150 BKN250 27/21 A3008 RMK AO2 TSE07 LTG DSNT NE-SE TS MOV SE CB DSNT NE-SE AND DSNT NW MOV SE=
200508191851 METAR KATL 191851Z 31009KT 7SM TS FEW015CB BKN030 BKN060 28/21 A3009 RMK AO2 TSB34RAB20E49 SLP179 FRQ LTGICCG TS NE-SE MOV SE CB NE-SE AND DSNT NW MOV SE P0011 T02780206=
200508191842 SPECI KATL 191842Z 30012KT 6SM -TSRA FEW015CB BKN035 BKN060 28/21 A3009 RMK AO2 TSB34RAB20 FRQ LTGICCG TS NE-SE MOV SE CB NE-SE MOV SE P0011=
200508191842 SPECI KATL 191842Z 30012KT 6SM -TSRA FEW015CB BKN035 BKN060 28/21 A3009 RMK AO2 TSB34RAB20 FRQ LTGICCG TS NE-SE MOV SE CB NE-SE MOV SE P0011=
200508191834 SPECI KATL 191834Z 29011G20KT 2SM TSRA BKN015CB BKN035 BKN060 29/23 A3009 RMK AO2 TSB34RAB20 OCNL LTGICCG TS OHD MOV SE CB OHD MOV SE P0000=
200508191834 SPECI KATL 191834Z 29011G20KT 2SM TSRA BKN015CB BKN035 BKN060 29/23 A3009 RMK AO2 TSB34RAB20 OCNL LTGICCG TS OHD MOV SE CB OHD MOV SE P0000=
200508191827 SPECI KATL 191827Z 31010KT 6SM -RA FEW017CB BKN040 BKN060 30/23 A3009 RMK AO2 RAB20 VIS NW 1 N 2 SHRA CB OHD-W-N MOV SE P0000=
200508191827 SPECI KATL 191827Z 31010KT 6SM -RA FEW017CB BKN040 BKN060 30/23 A3009 RMK AO2 RAB20 VIS NW 1 N 2 SHRA CB OHD-W-N MOV SE P0000=
200508191751 METAR KATL 191751Z 29004KT 10SM FEW030CB SCT050TCU SCT100 31/24 A3010 RMK AO2 SLP179 CB DSNT SW-NW MOV SE TCU NE-W SHRA DSNT SW-NW T03110239 10311 20233 58010=
200508191721 SPECI KATL 191721Z 33008KT 9SM SCT028 SCT034 31/23 A3010 RMK AO2=
200508191721 SPECI KATL 191721Z 33008KT 9SM SCT028 SCT034 31/23 A3010 RMK AO2=
200508191651 METAR KATL 191651Z 28005KT 9SM SCT030TCU 31/24 A3012 RMK AO2 SLP186 TCU S-SW AND NW T03110244=
200508191551 METAR KATL 191551Z 28008KT 9SM FEW025 30/24 A3013 RMK AO2 SLP191 T03000244=
200508191451 METAR KATL 191451Z 29006KT 9SM FEW015 SCT150 28/24 A3013 RMK AO2 SLP191 T02830239 51008=
200508191351 METAR KATL 191351Z 27008KT 8SM CLR 27/23 A3012 RMK AO2 SLP190 T02670228=
200508191251 METAR KATL 191251Z COR 00000KT 7SM CLR 24/22 A3011 RMK AO2 SLP189 T02440222=
200508191151 METAR KATL 191151Z 00000KT 5SM BR FEW036 SCT044 SCT050 BKN200 BKN250 23/22 A3010 RMK AO2 SLP184 70006 T02330217 10244 20228 53019=
200508191051 METAR KATL 191051Z 00000KT 5SM BR SCT034 BKN200 BKN250 23/22 A3008 RMK AO2 SLP176 T02280217 $=
200508190951 METAR KATL 190951Z 00000KT 5SM BR SCT200 BKN250 23/22 A3006 RMK AO2 SLP169 T02280217 $=
200508190851 METAR KATL 190851Z 00000KT 5SM BR SCT200 BKN250 23/22 A3004 RMK AO2 SLP165 T02280217 55005 $=
200508190751 METAR KATL 190751Z 09004KT 5SM BR FEW040 SCT200 BKN250 23/22 A3004 RMK AO2 SLP161 T02280217 $=
200508190651 METAR KATL 190651Z 09003KT 5SM BR SCT200 BKN250 23/22 A3005 RMK AO2 SLP165 T02330222 $=
200508190551 METAR KATL 190551Z 00000KT 7SM SCT200 BKN250 24/22 A3006 RMK AO2 SLP168 T02390222 10256 20239 51001 $=
200508190451 METAR KATL 190451Z 00000KT 6SM BR BKN200 BKN250 24/22 A3006 RMK AO2 SLP167 T02390222 403220228 $=
200508190351 METAR KATL 190351Z 00000KT 6SM BR BKN200 BKN250 24/22 A3006 RMK AO2 SLP169 T02390222 $=
200508190251 METAR KATL 190251Z 00000KT 8SM FEW150 BKN200 BKN250 24/22 A3006 RMK AO2 SLP166 T02440217 51010 $=
200508190151 METAR KATL 190151Z 15003KT 8SM SCT150 BKN200 BKN250 24/22 A3005 RMK AO2 SLP166 T02440217 $=
200508190051 METAR KATL 190051Z 18004KT 5SM BR FEW004 BKN150 BKN200 OVC250 24/23 A3003 RMK AO2 SLP160 T02440233 $=
200508190043 SPECI KATL 190043Z 19007KT 4SM BR SCT003 BKN150 OVC200 24/23 A3003 RMK AO2 $=
200508190043 SPECI KATL 190043Z 19007KT 4SM BR SCT003 BKN150 OVC200 24/23 A3003 RMK AO2 $=
200508182351 METAR KATL 182351Z 16004KT 5SM BR SCT110 BKN150 OVC200 26/24 A3002 RMK AO2 SLP158 60006 T02560239 10322 20250 53006 $=
200508182251 METAR KATL 182251Z 00000KT 7SM SCT150 BKN200 OVC250 27/23 A3000 RMK AO2 RAE00 SLP148 P0000 T02670228 $=
200508182151 METAR KATL 182151Z 13004KT 6SM -RA BR FEW035 SCT060 BKN100 BKN150 BKN200 25/23 A3002 RMK AO2 TSE51 SLP156 TS MOV SE LTG DSNT SE CB DSNT SE P0001 T02500228 $=
200508182051 METAR KATL 182051Z 29005KT 6SM -TSRA SCT023CB BKN043 BKN065 BKN150 OVC250 25/21 A3000 RMK AO2 TSB02RAB31 SLP151 VIS LWR NE-S SHRA CONS LTGICCG TS NE-S MOV SE CB NE-S MOV SE P0005 60005 T02500211 55011 $=
200508182043 SPECI KATL 182043Z 18008KT 150V210 6SM R09R/5500VP6000FT -TSRA SCT028CB BKN045 BKN150 OVC250 26/23 A3001 RMK AO2 TSB02RAB31 PRESRR CONS LTGICCG TS NE-SW MOV SE CB NE-SW MOV SE P0003 $=
200508182043 SPECI KATL 182043Z 18008KT 150V210 6SM R09R/5500VP6000FT -TSRA SCT028CB BKN045 BKN150 OVC250 26/23 A3001 RMK AO2 TSB02RAB31 PRESRR CONS LTGICCG TS NE-SW MOV SE CB NE-SW MOV SE P0003 $=
200508182032 SPECI KATL 182032Z 26013G20KT 6SM -TSRA BKN045CB BKN085 OVC150 27/22 A2999 RMK AO2 TSB02RAB31 FRQ LTGICCG TS S-NW MOV E CB E-NW MOV E P0000 $=
200508182032 SPECI KATL 182032Z 26013G20KT 6SM -TSRA BKN045CB BKN085 OVC150 27/22 A2999 RMK AO2 TSB02RAB31 FRQ LTGICCG TS S-NW MOV E CB E-NW MOV E P0000 $=
200508182002 SPECI KATL 182002Z 26006KT 6SM TS HZ BKN045CB BKN055TCU BKN250 31/21 A2998 RMK AO2 TSB02 FRQ LTGICCG TS VC W-N MOV ESE CB DSNT E-SE AND VC W-N MOV ESE TCU OHD AND QLQDS $=
200508182002 SPECI KATL 182002Z 26006KT 6SM TS HZ BKN045CB BKN055TCU BKN250 31/21 A2998 RMK AO2 TSB02 FRQ LTGICCG TS VC W-N MOV ESE CB DSNT E-SE AND VC W-N MOV ESE TCU OHD AND QLQDS $=
200508181951 METAR KATL 181951Z 19006KT 6SM HZ FEW035CB BKN045TCU BKN250 32/22 A2999 RMK AO2 SLP142 LTG DSNT E-SE AND W-NW CB DSNT E-SE AND W-NW T03220217 $=
200508181851 METAR KATL 181851Z VRB03KT 6SM HZ FEW045 SCT200 32/21 A3001 RMK AO2 SLP151 CB DSNT W AND NW T03170211 $=
200508181751 METAR KATL 181751Z VRB05KT 6SM HZ FEW035TCU SCT045 SCT055 30/22 A3004 RMK AO2 SLP161 TCU NE-E AND SW-W T03000222 10311 20228 58007=
200508181651 METAR KATL 181651Z 30005KT 7SM SCT027TCU BKN034 BKN044 30/23 A3005 RMK AO2 SLP166 TCU NE-E AND SW-NW T03000233=
200508181551 METAR KATL 181551Z 00000KT 6SM HZ SCT025 SCT150 29/23 A3006 RMK AO2 SLP168 T02890228=
200508181451 METAR KATL 181451Z 23003KT 7SM FEW017 SCT100 SCT250 27/22 A3006 RMK AO2 SLP168 T02720222 53007=
200508181351 METAR KATL 181351Z 12004KT 6SM HZ FEW150 26/22 A3005 RMK AO2 SLP165 T02560217=
200508181251 METAR KATL 181251Z 13004KT 5SM HZ FEW012 SCT200 BKN250 24/21 A3004=
200508181151 METAR KATL 181151Z 09005KT 5SM BR FEW012 SCT200 BKN250 23/21 A3004 RMK AO2 SLP162 T02280211 10244 20228 53013=
200508181051 METAR KATL 181051Z 06005KT 7SM FEW200 SCT250 23/21 A3002 RMK AO2 SLP156 T02330211 $=
200508180951 METAR KATL 180951Z 00000KT 8SM SCT250 23/21 A3000 RMK AO2 SLP148 T02330211 $=
200508180851 METAR KATL 180851Z 00000KT 7SM FEW046 SCT150 SCT250 23/22 A3000 RMK AO2 SLP148 T02330217 58003 $=
200508180751 METAR KATL 180751Z 00000KT 6SM BR FEW150 SCT250 23/22 A3001 RMK AO2 SLP150 T02330217 $=
200508180651 METAR KATL 180651Z 11003KT 10SM FEW008 SCT250 23/21 A3001 RMK AO2 SLP150 T02330211 $=
200508180643 SPECI KATL 180643Z 11003KT 10SM FEW008 SCT250 23/21 A3001 RMK AO2 $=
200508180643 SPECI KATL 180643Z 11003KT 10SM FEW008 SCT250 23/21 A3001 RMK AO2 $=
200508180625 SPECI KATL 180625Z 11005KT 10SM BKN010 BKN250 24/21 A3000 RMK AO2 $=
200508180625 SPECI KATL 180625Z 11005KT 10SM BKN010 BKN250 24/21 A3000 RMK AO2 $=
200508180551 METAR KATL 180551Z 10005KT 10SM FEW150 BKN250 24/21 A3001 RMK AO2 SLP150 T02440211 10283 20239 58005 $=
200508180451 METAR KATL 180451Z 08003KT 10SM SCT150 BKN250 24/21 A3002 RMK AO2 SLP153 T02440206 403220222 $=
200508180351 METAR KATL 180351Z 08008KT 10SM BKN150 BKN200 OVC250 25/21 A3003 RMK AO2 WSHFT 0240 SLP157 T02500211 $=
200508180256 SPECI KATL 180256Z 06012KT 9SM FEW050 SCT150 BKN200 OVC250 27/22 A3002 RMK AO2 WSHFT 0240 LTG DSNT NE-E CB DSNT NE-E=
200508180256 SPECI KATL 180256Z 06012KT 9SM FEW050 SCT150 BKN200 OVC250 27/22 A3002 RMK AO2 WSHFT 0240 LTG DSNT NE-E CB DSNT NE-E=
200508180251 METAR KATL 180251Z 05011KT 9SM FEW040 SCT150 BKN200 OVC250 27/22 A3002 RMK AO2 SLP155 LTG DSNT NE-E CB DSNT NE-E T02720217 53016=
200508180151 METAR KATL 180151Z 29006KT 8SM FEW150 BKN200 BKN250 27/22 A3000 RMK AO2 SLP149 LTG DSNT NE-E CB DSNT NE-E T02720217=
200508180051 METAR KATL 180051Z 26006KT 7SM FEW150 SCT200 BKN250 27/21 A2998 RMK AO2 SLP141 LTG DSNT NE CB DSNT NE T02720211=
200508172351 METAR KATL 172351Z 23005KT 7SM FEW140 SCT200 BKN250 28/22 A2998 RMK AO2 SLP140 CB DSNT N-NE T02830217 10322 20283 53008=
200508172251 METAR KATL 172251Z 22005KT 7SM FEW040 SCT200 BKN250 29/22 A2996 RMK AO2 SLP133 TCU DSNT N T02890222=
200508172151 METAR KATL 172151Z 20005KT 7SM FEW045CB SCT200 SCT250 31/21 A2995 RMK AO2 SLP130 CB VC N-NE MOV STNRY T03060206=
200508172051 METAR KATL 172051Z 15006KT 7SM FEW035TCU SCT090 SCT150 BKN250 30/19 A2995 RMK AO2 TSE27 SLP131 CB DSNT SE-S TCU DSNT NE AND VC SW-NW T03000194=
200508172028 SPECI KATL 172028Z 15008KT 6SM HZ FEW035TCU SCT090 SCT150 30/21 A2996 RMK AO2 TSE27 LTG DSNT SE-S TS MOV S CB DSNT SE-S TCU W-N=
200508172028 SPECI KATL 172028Z 15008KT 6SM HZ FEW035TCU SCT090 SCT150 30/21 A2996 RMK AO2 TSE27 LTG DSNT SE-S TS MOV S CB DSNT SE-S TCU W-N=
200508171951 METAR KATL 171951Z 12006KT 6SM TS HZ FEW040CB SCT050TCU SCT090 SCT250 31/22 A2997 RMK AO2 TSB15 SLP137 VIS LWR E-S SHRA FRQ LTGICCG TS VC E-S MOV S CB VC E-S MOV S TCU SW-N T03110222 $=
200508171933 SPECI KATL 171933Z VRB06KT 6SM TS HZ FEW040CB SCT060 SCT090 32/22 A2998 RMK AO2 TSB15 VIS 1/2 SE SHRA FRQ LTGICCG TS VC SE MOV STNRY CB VC SE MOV STNRY=
200508171933 SPECI KATL 171933Z VRB06KT 6SM TS HZ FEW040CB SCT060 SCT090 32/22 A2998 RMK AO2 TSB15 VIS 1/2 SE SHRA FRQ LTGICCG TS VC SE MOV STNRY CB VC SE MOV STNRY=
200508171915 SPECI KATL 171915Z 30008KT 5SM TS HZ FEW040CB SCT060 BKN090 32/22 A2998 RMK AO2 TSB15 OCNL LTGIC TS VC SE MOV STNRY CB VC SE MOV STNRY=
200508171915 SPECI KATL 171915Z 30008KT 5SM TS HZ FEW040CB SCT060 BKN090 32/22 A2998 RMK AO2 TSB15 OCNL LTGIC TS VC SE MOV STNRY CB VC SE MOV STNRY=
200508171851 METAR KATL 171851Z VRB06KT 6SM HZ SCT040TCU BKN060 BKN090 31/23 A3000 RMK AO2 SLP146 TCU OHD-NE-S T03110228=
200508171751 METAR KATL 171751Z 28006KT 6SM HZ SCT038 32/22 A3002 RMK AO2 SLP155 MDT CU ALQDS T03170222 10317 20228 58007=
200508171651 METAR KATL 171651Z 33005KT 10SM FEW030 SCT150 SCT250 31/22 A3003 RMK AO2 SLP157 T03060222=
200508171551 METAR KATL 171551Z 36005KT 10SM FEW100 SCT150 30/22 A3004 RMK AO2 SLP160 T03000217=
200508171451 METAR KATL 171451Z COR 26005KT 9SM FEW100 FEW150 28/23 A3004 RMK AO2 SLP162 T02780228 51007=
200508171351 METAR KATL 171351Z 30007KT 8SM FEW150 SCT250 27/22 A3003 RMK AO2 SLP159 T02670222=
200508171251 METAR KATL 171251Z 31006KT 6SM HZ SCT200 SCT250 24/22 A3003 RMK AO2 SLP159 T02440217=
200508171151 METAR KATL 171151Z 30005KT 6SM BR SCT200 SCT250 23/21 A3002 RMK AO2 SLP157 70009 T02280211 10233 20222 53002=
200508171051 METAR KATL 171051Z 27003KT 5SM BR SCT200 BKN250 23/21 A3001 RMK AO2 SLP154 T02280211 $=
200508170951 METAR KATL 170951Z 27003KT 6SM BR SCT200 23/21 A3001 RMK AO2 SLP152 T02280211 $=
200508170851 METAR KATL 170851Z 29005KT 6SM BR SCT200 23/21 A3001 RMK AO2 SLP154 T02280211 58015 $=
200508170751 METAR KATL 170751Z 28004KT 5SM BR SCT200 23/21 A3003 RMK AO2 SLP159 T02280211 $=
200508170651 METAR KATL 170651Z 25004KT 8SM SCT200 23/21 A3005 RMK AO2 SLP165 T02280211 $=
200508170551 METAR KATL 170551Z 27003KT 6SM BR SCT200 23/21 A3006 RMK AO2 SLPNO T02280211 10267 20228 55002 $=
200508170451 METAR KATL 170451Z 28005KT 9SM FEW200 23/21 A3006 RMK AO2 SLP167 T02280211 403170228 $=
200508170351 METAR KATL 170351Z 24004KT 9SM FEW200 SCT250 24/21 A3006 RMK AO2 SLP169 T02390206=
200508170251 METAR KATL 170251Z 27003KT 10SM FEW150 SCT200 SCT250 24/21 A3007 RMK AO2 SLP170 T02390206 50007=
200508170151 METAR KATL 170151Z 27010KT 10SM SCT140 BKN200 BKN250 25/21 A3007 RMK AO2 SLP173 T02500211=
200508170051 METAR KATL 170051Z 26004KT 10SM SCT140 BKN200 BKN250 26/21 A3005 RMK AO2 SLP166 T02610211=
200508162351 METAR KATL 162351Z 27004KT 10SM BKN140 BKN200 BKN250 26/21 A3004 RMK AO2 SLP164 60009 T02610211 10289 20256 58003=
200508162251 METAR KATL 162251Z 27004KT 10SM SCT140 BKN200 OVC250 27/22 A3005 RMK AO2 SLP163 T02720217=
200508162151 METAR KATL 162151Z 06007KT 10SM FEW050 BKN150 OVC200 27/21 A3005 RMK AO2 SLP166 CB DSNT E-SE T02720211=
200508162051 METAR KATL 162051Z 00000KT 10SM FEW100 SCT150 BKN250 26/21 A3005 RMK AO2 WSHFT 1941 SLP167 CB DSNT NE AND SW 60009 T02610211=
200508162001 SPECI KATL 162001Z 30014KT 8SM SCT045 SCT100 BKN250 26/22 A3005 RMK AO2 WSHFT 1941 LTG DSNT N AND W CB DSNT N AND W=
200508162001 SPECI KATL 162001Z 30014KT 8SM SCT045 SCT100 BKN250 26/22 A3005 RMK AO2 WSHFT 1941 LTG DSNT N AND W CB DSNT N AND W=
200508161951 METAR KATL 161951Z 30014KT 9SM FEW050 SCT100 BKN250 27/23 A3006 RMK AO2 SLP167 LTG DSNT W-N CB DSNT W-N T02720228=
200508161851 METAR KATL 161851Z 00000KT 10SM FEW020 SCT060 BKN250 27/22 RMK AO2 TSB1751E25RAB1752E25 SLPNO CB DSNT S AND NW-N A3008 SLP141 P0009 T02670217 $=
200508161826 SPECI KATL 161826Z 27005KT 10SM FEW020 SCT035 SCT060 BKN250 27/22 RMK AO2 TSB1751E25RAB1752E25 TS DSIPT CB DSNT S-SW AND NW-N A3009 P0009 $=
200508161826 SPECI KATL 161826Z 27005KT 10SM FEW020 SCT035 SCT060 BKN250 27/22 RMK AO2 TSB1751E25RAB1752E25 TS DSIPT CB DSNT S-SW AND NW-N A3009 P0009 $=
200508161810 SPECI KATL 161810Z 02009G15KT 7SM R09R/5500VP6000FT TSRA BKN017CB BKN050 BKN080 27/22 RMK AO2 TSB1751RAB1752 FRQ LTGICCG TS N MOV W CB OHD-N MOV W P0003 $=
200508161810 SPECI KATL 161810Z 02009G15KT 7SM R09R/5500VP6000FT TSRA BKN017CB BKN050 BKN080 27/22 RMK AO2 TSB1751RAB1752 FRQ LTGICCG TS N MOV W CB OHD-N MOV W P0003 $=
200508161753 SPECI KATL 161753Z 04014G21KT 1SM -TSRA BKN017CB BKN050 OVC080 27/22 RMK AO2 TSB51RAB52 CONS LTGICCG TS OHD MOV STNRY P0003 RVRNO $=
200508161753 METAR KATL 161753Z COR 04014G21KT 1SM -TSRA BKN017CB BKN050 OVC080 27/22 RMK A3012 AO2 TSB51RAB52 CONS LTGICCG TS OHD MOV STNRY 10300 20250 57003 P0003 RVRNO $=
200508161716 SPECI KATL 161716Z 28006KT 8SM TS HZ FEW030CB SCT040TCU BKN060 BKN250 31/23 A3009 RMK AO2 TSB16 FRQ LTGICCG TS VC E-SW MOV STNRY CB VC E-SW MOV STNRY TCU N-NE AND DSNT NW SHRA VC E-SW=
200508161716 SPECI KATL 161716Z 28006KT 8SM TS HZ FEW030CB SCT040TCU BKN060 BKN250 31/23 A3009 RMK AO2 TSB16 FRQ LTGICCG TS VC E-SW MOV STNRY CB VC E-SW MOV STNRY TCU N-NE AND DSNT NW SHRA VC E-SW=
200508161651 METAR KATL 161651Z 27006KT 8SM SCT030TCU BKN060 BKN100 29/22 A3011 RMK AO2 SLP183 LTG DSNT S CB DSNT S TCU NE-SE AND DSNT NW T02890217=
200508161551 METAR KATL 161551Z 23007KT 6SM HZ BKN034TCU BKN060 BKN100 29/24 A3012 RMK AO2 SLP187 TCU SW-N T02940244=
200508161451 METAR KATL 161451Z VRB05KT 6SM HZ FEW030TCU SCT100 30/24 A3013 RMK AO2 SLP189 TCU N AND W T03000239 53007=
200508161351 METAR KATL 161351Z VRB03KT 5SM HZ CLR 29/23 A3012 RMK AO2 SLP188 T02940233=
200508161251 METAR KATL 161251Z 00000KT 6SM HZ FEW110 SCT200 26/23 A3011 RMK AO2 SLP184 T02610233=
200508161151 METAR KATL 161151Z 00000KT 6SM BR SCT110 BKN200 BKN250 25/23 A3011 RMK AO2 SLP184 T02500228 10267 20244 53005=
200508161051 METAR KATL 161051Z 13007KT 7SM SCT120 BKN200 26/23 A3010 RMK AO2 SLP180 T02610228=
200508160951 METAR KATL 160951Z 02004KT 8SM SCT200 26/22 A3009 RMK AO2 SLP175 T02610222=
200508160851 METAR KATL 160851Z 00000KT 7SM CLR 25/23 A3009 RMK AO2 SLP177 T02500228 56007=
200508160751 METAR KATL 160751Z 00000KT 8SM CLR 26/23 A3009 RMK AO2 SLP178 T02560228=
200508160651 METAR KATL 160651Z 31005KT 8SM FEW200 25/23 A3010 RMK AO2 SLP180 T02500228=
200508160551 METAR KATL 160551Z 00000KT 8SM FEW200 27/23 A3011 RMK AO2 SLP183 T02670228 10294 20261 58003=
200508160451 METAR KATL 160451Z 00000KT 10SM FEW200 27/23 A3012 RMK AO2 SLP187 T02670228 403330228=
200508160351 METAR KATL 160351Z 00000KT 10SM FEW200 28/23 A3012 RMK AO2 SLP188 T02780228=
200508160251 METAR KATL 160251Z 10003KT 10SM FEW200 29/22 A3012 RMK AO2 SLP186 T02890222 51016=
200508160151 METAR KATL 160151Z 00000KT 10SM FEW200 28/22 A3011 RMK AO2 SLP184 T02830217=
200508160051 METAR KATL 160051Z 00000KT 10SM FEW150 29/22 A3010 RMK AO2 SLP181 T02890217=
200508152351 METAR KATL 152351Z 00000KT 10SM FEW140 29/22 A3007 RMK AO2 SLP172 60000 T02890217 10333 20289 55001=
200508152251 METAR KATL 152251Z 07004KT 10SM FEW050CB SCT200 31/21 A3007 RMK AO2 RAB28E51 SLP171 CB VC SW AND NW MOV SW P0000 T03110211=
200508152151 METAR KATL 152151Z VRB04KT 10SM FEW050TCU SCT070 SCT250 33/21 A3007 RMK AO2 SLP171 TCU NE AND SW AND NW MDT CU SE T03280211=
200508152051 METAR KATL 152051Z 35008KT 10SM BKN055TCU BKN150 32/21 A3008 RMK AO2 SLP172 TCU OHD-N-SW T03220206 56018=
200508151951 METAR KATL 151951Z 00000KT 10SM FEW050TCU SCT150 32/21 A3009 RMK AO2 SLP177 TCU N-NE T03170211=
200508151851 METAR KATL 151851Z 07007KT 10SM FEW045 32/21 A3011 RMK AO2 SLP185 T03170206=
200508151751 METAR KATL 151751Z 07007KT 10SM FEW050 SCT200 SCT250 32/20 A3013 RMK AO2 SLP190 T03220200 10322 20233 58007=
200508151651 METAR KATL 151651Z 05007KT 10SM FEW045 32/22 A3013 RMK AO2 SLP192 T03220222=
200508151551 METAR KATL 151551Z 05004KT 10SM FEW040 31/22 A3015 RMK AO2 SLP198 T03110217=
200508151451 METAR KATL 151451Z 36008KT 330V030 10SM FEW230 30/22 A3015 RMK AO2 SLP198 T03000217 51009=
200508151351 METAR KATL 151351Z 34006KT 9SM FEW150 SCT230 28/22 A3014 RMK AO2 SLP197 T02780217=
200508151251 METAR KATL 151251Z 33004KT 8SM FEW150 SCT230 25/22 A3013 RMK AO2 SLP195 T02500222=
200508151151 METAR KATL 151151Z 29004KT 6SM BR FEW150 SCT230 23/22 A3012 RMK AO2 SLP190 70033 T02330222 10250 20228 53016=
200508151051 METAR KATL 151051Z 30006KT 8SM FEW150 SCT230 23/22 A3009 RMK AO2 SLP180 T02280217=
200508150951 METAR KATL 150951Z 28003KT 9SM CLR 23/21 A3008 RMK AO2 SLP175 T02280211=
200508150851 METAR KATL 150851Z 32004KT 10SM CLR 23/21 A3007 RMK AO2 SLP171 T02330211 55002=
200508150751 METAR KATL 150751Z 00000KT 10SM FEW150 23/21 A3006 RMK AO2 SLP168 T02330211=
200508150651 METAR KATL 150651Z 00000KT 10SM SCT150 24/21 A3006 RMK AO2 SLP167 T02440206=
200508150551 METAR KATL 150551Z 32004KT 10SM OVC150 24/21 A3008 RMK AO2 SLP174 BINOVC ALQDS 60033 T02390211 10267 20228 58001=
200508150451 METAR KATL 150451Z 30006KT 10SM BKN120 24/21 A3009 RMK AO2 SLP179 T02390211 403220217=
200508150351 METAR KATL 150351Z 00000KT 10SM BKN120 23/22 A3009 RMK AO2 RAE23 SLP178 P0000 T02330217=
200508150251 METAR KATL 150251Z 31007KT 10SM -RA SCT033 BKN110 24/22 A3008 RMK AO2 RAB29 SLP176 P0000 60033 T02390222 51016=
200508150151 METAR KATL 150151Z 28004KT 10SM OVC080 23/22 A3007 RMK AO2 TSE51RAE35 SLP174 P0001 T02330217=
200508150051 METAR KATL 150051Z VRB05G16KT 5SM R09R/4500VP6000FT -TSRA SCT011 BKN043CB OVC060 24/20 A3008 RMK AO2 SLP177 CONS LTGICCA TS ALQDS MOV SW-NW P0032 T02390200=
200508142351 METAR KATL 142351Z VRB05G14KT 7SM -TSRA BKN043CB BKN055 BKN130 27/19 A3003 RMK AO2 PK WND 07032/2327 WSHFT 2304 TSB2259RAB08 SLP161 OCNL LTGCGICCA TS OVHD AND SW-NW MOV S-NW P0000 60000 T02670194 10322 20244 53007=
200508142324 SPECI KATL 142324Z 06023G27KT 5SM TSRA BKN041CB BKN120 26/19 A3002 RMK AO2 PK WND 07027/2324 WSHFT 2304 TSB2259RAB08 OCNL LTGCGIC TS OVHD MOV SW-NW P0000=
200508142324 SPECI KATL 142324Z 06023G27KT 5SM TSRA BKN041CB BKN120 26/19 A3002 RMK AO2 PK WND 07027/2324 WSHFT 2304 TSB2259RAB08 OCNL LTGCGIC TS OVHD MOV SW-NW P0000=
200508142305 SPECI KATL 142305Z 05013G17KT 10SM TS BKN041CB BKN120 31/22 A3002 RMK AO2 TSB2259 OCNL LTGCGIC TS OVHD MOV SW=
200508142305 SPECI KATL 142305Z 05013G17KT 10SM TS BKN041CB BKN120 31/22 A3002 RMK AO2 TSB2259 OCNL LTGCGIC TS OVHD MOV SW=
200508142251 METAR KATL 142251Z 31008KT 10SM BKN041TCU BKN120 31/22 A3001 RMK AO2 SLP151 TCU OVHD MOV SW T03060217=
200508142151 METAR KATL 142151Z 32009KT 10SM SCT041TCU BKN150 31/22 A3001 RMK AO2 SLP152 TCU NE MOV SW T03110217=
200508142051 METAR KATL 142051Z 33007KT 10SM BKN048TCU 32/22 A3001 RMK AO2 SLP151 TCU NE-E MOV S-SW T03170217 58010=
200508141951 METAR KATL 141951Z 34008KT 300V010 10SM BKN043 31/22 A3003 RMK AO2 SLP158 T03110217=
200508141851 METAR KATL 141851Z 34008KT 10SM FEW042 SCT250 31/21 A3004 RMK AO2 SLP161 T03110211=
200508141751 METAR KATL 141751Z 34011KT 310V020 10SM FEW040 SCT250 31/21 A3004 RMK AO2 SLP162 T03060206 10306 20222 57011=
200508141651 METAR KATL 141651Z 32012KT 10SM FEW036 SCT250 29/21 A3006 RMK AO2 SLP168 T02940211=
200508141551 METAR KATL 141551Z 32010KT 9SM FEW026 SCT250 28/22 A3006 RMK AO2 SLP170 T02830217=
200508141451 METAR KATL 141451Z 30011KT 6SM HZ FEW016 SCT250 26/22 A3008 RMK AO2 SLP175 T02610217 51007=
200508141351 METAR KATL 141351Z 32008KT 5SM HZ SCT010 SCT250 24/22 A3007 RMK AO2 SLP174 T02440217=
200508141338 SPECI KATL 141338Z 32009KT 2SM BR SCT008 SCT250 24/22 A3008 RMK AO2 SFC VIS 3=
200508141338 SPECI KATL 141338Z 32009KT 2SM BR SCT008 SCT250 24/22 A3008 RMK AO2 SFC VIS 3=
200508141251 METAR KATL 141251Z 29010KT 2SM BR BKN005 BKN009 23/22 A3007 RMK AO2 SFC VIS 4 SLP172 T02330217=
200508141151 METAR KATL 141151Z 29008KT 2SM BR BKN005 BKN180 22/21 A3006 RMK AO2 SFC VIS 3 SLP168 T02220211 10222 20217 53016=
200508141142 SPECI KATL 141142Z 29008KT 2SM BR BKN005 BKN180 22/21 A3005 RMK AO2 SFC VIS 3=
200508141142 SPECI KATL 141142Z 29008KT 2SM BR BKN005 BKN180 22/21 A3005 RMK AO2 SFC VIS 3=
200508141131 SPECI KATL 141131Z 29008KT 2SM BR SCT005 SCT180 22/21 A3005 RMK AO2 SFC VIS 3=
200508141131 SPECI KATL 141131Z 29008KT 2SM BR SCT005 SCT180 22/21 A3005 RMK AO2 SFC VIS 3=
200508141051 METAR KATL 141051Z 32005KT 2SM BR BKN003 22/21 A3004 RMK AO2 SFC VIS 5 SLP163 T02170206=
200508141040 SPECI KATL 141040Z 31007KT 2SM BR BKN003 22/21 A3004 RMK AO2 SFC VIS 4=
200508141040 SPECI KATL 141040Z 31007KT 2SM BR BKN003 22/21 A3004 RMK AO2 SFC VIS 4=
200508140951 METAR KATL 140951Z 31008KT 6SM BR BKN005 22/21 A3001 RMK AO2 SLP154 T02170206=
200508140851 METAR KATL 140851Z 31009KT 6SM BR BKN005 22/21 A3001 RMK AO2 SLP152 T02170206 53001=
200508140751 METAR KATL 140751Z 29006KT 6SM BR BKN005 22/21 A2999 RMK AO2 SLP147 T02170206=
200508140651 METAR KATL 140651Z 31006KT 6SM BR BKN005 22/21 A3000 RMK AO2 SLP148 T02170211=
200508140551 METAR KATL 140551Z 31007KT 5SM BR BKN005 22/21 A3000 RMK AO2 SLP149 T02170211 10250 20217 58006=
200508140529 SPECI KATL 140529Z 29009KT 6SM BR BKN007 22/21 A3001 RMK AO2 CIG 004V008=
200508140529 SPECI KATL 140529Z 29009KT 6SM BR BKN007 22/21 A3001 RMK AO2 CIG 004V008=
200508140517 SPECI KATL 140517Z 28008KT 5SM BR SCT007 22/21 A3001 RMK AO2=
200508140517 SPECI KATL 140517Z 28008KT 5SM BR SCT007 22/21 A3001 RMK AO2=
200508140451 METAR KATL 140451Z 28006KT 6SM BR FEW020 SCT210 22/21 A3001 RMK AO2 SLP154 T02170211 403000217=
200508140351 METAR KATL 140351Z 30003KT 8SM FEW210 22/21 A3002 RMK AO2 SLP156 T02220211=
200508140251 METAR KATL 140251Z 27005KT 8SM FEW010 SCT050 SCT250 22/21 A3002 RMK AO2 SLP156 T02220211 53012=
200508140151 METAR KATL 140151Z 30006KT 9SM FEW010 BKN150 BKN210 BKN250 22/21 A3001 RMK AO2 SLP152 T02220211=
200508140051 METAR KATL 140051Z 29003KT 10SM FEW030 BKN150 BKN210 BKN250 23/21 A2998 RMK AO2 SLP144 T02280206=
200508132351 METAR KATL 132351Z 22006KT 10SM FEW030 SCT110 BKN150 BKN210 BKN250 24/21 A2999 RMK AO2 SLP145 60000 T02440206 10294 20222 50003=
200508132251 METAR KATL 132251Z 04004KT 10SM FEW026 SCT050 SCT110 BKN150 BKN250 24/21 A2999 RMK AO2 TSE32RAB00E09 SLP145 CB DSNT NE-SE P0000 T02440206=
200508132238 SPECI KATL 132238Z 01003KT 9SM FEW026 SCT050 SCT110 BKN150 BKN250 24/21 A2998 RMK AO2 TSE32RAB00E09 CB DSNT NE-SE P0000=
200508132238 SPECI KATL 132238Z 01003KT 9SM FEW026 SCT050 SCT110 BKN150 BKN250 24/21 A2998 RMK AO2 TSE32RAB00E09 CB DSNT NE-SE P0000=
200508132151 METAR KATL 132151Z 34011KT 6SM TS HZ SCT007 SCT026CB BKN050 BKN150 BKN250 23/20 A3000 RMK AO2 SLP152 FRQ LTGIC TS N-S MOV NE CB ALQDS MOV NE T02280200=
200508132051 METAR KATL 132051Z 28013G21KT 5SM TS HZ BKN026CB BKN050 BKN100 BKN250 25/21 A2998 RMK AO2 TSB10 SLP141 CONS LTGCGIC TS SW-NW AND VC N-NE MOV NE CB OHD AND ALQDS MOV NE T02500211 55011=
200508132011 SPECI KATL 132011Z 25004KT 6SM TS HZ SCT028CB BKN080 BKN250 29/22 A2996 RMK AO2 TSB10 OCNL LTGCGIC TS W MOV NE CB SW-NW MOV NE=
200508132011 SPECI KATL 132011Z 25004KT 6SM TS HZ SCT028CB BKN080 BKN250 29/22 A2996 RMK AO2 TSB10 OCNL LTGCGIC TS W MOV NE CB SW-NW MOV NE=
200508131951 METAR KATL 131951Z 20004KT 6SM HZ SCT028CB BKN040TCU BKN080 BKN250 29/22 A2997 RMK AO2 SLP139 CB SW-W AND VC NW MOV NE TCU NE E AND S T02890222=
200508131851 METAR KATL 131851Z 22003KT 6SM HZ SCT030CB BKN038TCU BKN075 BKN250 29/22 A3000 RMK AO2 SLP147 CB N AND SW-NW MOV N TCU S AND VC NE SHRA N T02890222=
200508131751 METAR KATL 131751Z 23005KT 8SM BKN032TCU BKN070 BKN250 29/22 A3001 RMK AO2 SLP152 TCU OHD AND ALQDS T02890217 10300 20222 58017=
200508131651 METAR KATL 131651Z 24005KT 7SM SCT028TCU 28/22 A3004 RMK AO2 SLP161 TCU E AND S MDT CU ALQDS T02830222=
200508131551 METAR KATL 131551Z VRB04KT 8SM SCT026 28/22 A3005 RMK AO2 SLP167 MDT CU OHD AND ALQDS T02830217=
200508131451 METAR KATL 131451Z 25004KT 7SM FEW018 28/23 A3006 RMK AO2 SLP170 T02780228 51005=
200508131351 METAR KATL 131351Z VRB04KT 5SM HZ FEW016 26/23 A3005 RMK AO2 SLP168 T02560228=
200508131251 METAR KATL 131251Z 32003KT 8SM CLR 24/22 A3005 RMK AO2 SLP168 T02390217=
200508131151 METAR KATL 131151Z 00000KT 6SM BR FEW250 22/21 A3005 RMK AO2 SLP165 70024 T02220211 10228 20217 51013=
200508131051 METAR KATL 131051Z 31004KT 5SM BR FEW250 22/21 A3004 RMK AO2 SLP164 T02170206=
200508130951 METAR KATL 130951Z 31004KT 7SM CLR 22/21 A3002 RMK AO2 SLP157 T02170206=
200508130851 METAR KATL 130851Z 00000KT 9SM CLR 22/21 A3001 RMK AO2 SLP150 T02220211 56008=
200508130751 METAR KATL 130751Z 00000KT 9SM CLR 22/21 A3001 RMK AO2 SLP150 T02220211=
200508130651 METAR KATL 130651Z 00000KT 9SM FEW250 23/21 A3001 RMK AO2 SLP150 T02280211=
200508130551 METAR KATL 130551Z 00000KT 9SM FEW250 22/21 A3003 RMK AO2 SLP159 60000 T02220211 10244 20222 56005=
200508130451 METAR KATL 130451Z 22004KT 7SM SCT250 23/22 A3004 RMK AO2 SLP163 T02280217 403110222=
200508130351 METAR KATL 130351Z 33005KT 8SM SCT250 23/21 A3003 RMK AO2 SLP158 T02280211=
200508130251 METAR KATL 130251Z 29006KT 8SM FEW150 SCT250 23/21 A3004 RMK AO2 SLP164 60000 T02280211 51011=
200508130151 METAR KATL 130151Z 24005KT 7SM SCT150 BKN200 BKN250 23/22 A3004 RMK AO2 RAE15 SLP163 P0000 T02280217=
200508130051 METAR KATL 130051Z 17005KT 6SM -RA BR FEW050 BKN140 OVC200 24/23 A3003 RMK AO2 RAB14 SLP161 P0000 T02390228=
200508122351 METAR KATL 122351Z 23004KT 6SM BR FEW120 BKN150 BKN200 24/22 A3001 RMK AO2 RAB2258E12 SLP153 CB DSNT NE-E P0000 60024 T02440222 10311 20233 58001=
200508122251 METAR KATL 122251Z 00000KT 6SM BR FEW060 SCT120 BKN150 OVC200 24/22 A3001 RMK AO2 WSHFT 2138 TSE51RAE2157B14E23 SLP153 TS MOV NE P0000 T02390217=
200508122154 SPECI KATL 122154Z 29009KT 6SM -TSRA FEW020 BKN035CB BKN060 OVC150 23/21 A3003 RMK AO2 WSHFT 2138 FRQ LTGCGIC TS NE AND VC NW MOV NE P0000=
200508122154 SPECI KATL 122154Z 29009KT 6SM -TSRA FEW020 BKN035CB BKN060 OVC150 23/21 A3003 RMK AO2 WSHFT 2138 FRQ LTGCGIC TS NE AND VC NW MOV NE P0000=
200508122151 METAR KATL 122151Z 30010KT 5SM -TSRA BR FEW020 BKN035CB BKN060 OVC150 23/21 A3003 RMK AO2 WSHFT 2132 TSB19RAB19 SLP160 FRQ LTGCGIC TS NE AND VC NW MOV NE P0024 T02330211=
200508122120 SPECI KATL 122120Z 24010KT 7SM -TSRA SCT040CB BKN060 BKN150 26/21 A3002 RMK AO2 TSB19RAB19 OCNL LTGCG TS S-SW MOV NE CB S-W-NW MOV NE TCU N-E-SE SHRA S-W-NW P0000=
200508122120 SPECI KATL 122120Z 24010KT 7SM -TSRA SCT040CB BKN060 BKN150 26/21 A3002 RMK AO2 TSB19RAB19 OCNL LTGCG TS S-SW MOV NE CB S-W-NW MOV NE TCU N-E-SE SHRA S-W-NW P0000=
200508122051 METAR KATL 122051Z 18003KT 7SM BKN050TCU BKN150 30/21 A3001 RMK AO2 SLP152 TCU N-E AND W-NW MOV NE-E T03000211 56018=
200508121951 METAR KATL 121951Z VRB04KT 8SM BKN033TCU BKN150 31/22 A3003 RMK AO2 SLP156 TCU N-E AND NW MOV NE-E T03060217=
200508121851 METAR KATL 121851Z 16004KT 9SM BKN055TCU BKN080 BKN150 30/22 A3005 RMK AO2 SLP164 TCU N-E MOV E T03000217=
200508121751 METAR KATL 121751Z 00000KT 10SM BKN035 BKN055 BKN080 29/22 A3007 RMK AO2 SLP171 T02890217 10294 20239 58016=
200508121651 METAR KATL 121651Z 15004KT 9SM SCT015 BKN037TCU BKN055 28/21 A3009 RMK AO2 SLP178 TCU N-E AND NW MOV NE T02830211=
200508121551 METAR KATL 121551Z 00000KT 8SM SCT015TCU BKN025 BKN055 28/22 A3011 RMK AO2 SLP185 TCU N AND NW MOV NE T02780222=
200508121451 METAR KATL 121451Z 29004KT 9SM BKN025TCU BKN050 27/23 A3012 RMK AO2 SLP188 TCU W-NW MOV N T02720233 51009=
200508121358 SPECI KATL 121358Z 00000KT 9SM BKN027 BKN033 26/22 A3012 RMK AO2=
200508121358 SPECI KATL 121358Z 00000KT 9SM BKN027 BKN033 26/22 A3012 RMK AO2=
200508121351 METAR KATL 121351Z 00000KT 9SM SCT024 BKN030 26/22 A3012 RMK AO2 SLP188 T02610217=
200508121251 METAR KATL 121251Z 18003KT 9SM FEW100 SCT150 SCT250 25/21 A3011 RMK AO2 SLP184 T02500211=
200508121151 METAR KATL 121151Z 09003KT 7SM FEW100 SCT150 SCT250 23/21 A3009 RMK AO2 SLP180 70013 T02330211 10239 20228 52011=
200508121051 METAR KATL 121051Z 08004KT 10SM FEW039 SCT100 SCT150 BKN210 BKN250 23/21 A3008 RMK AO2 SLP175 T02280206 $=
200508120951 METAR KATL 120951Z 08003KT 10SM FEW027 SCT039 SCT100 SCT150 23/21 A3007 RMK AO2 SLP171 T02280211 $=
200508120851 METAR KATL 120851Z 08004KT 10SM SCT041 SCT150 23/21 A3006 RMK AO2 SLP167 T02330211 55004=
200508120751 METAR KATL 120751Z 08003KT 10SM FEW020 SCT045 23/21 A3005 RMK AO2 SLP166 T02330206=
200508120651 METAR KATL 120651Z 00000KT 9SM FEW020 SCT150 23/22 A3006 RMK AO2 SLP167 T02330217=
200508120551 METAR KATL 120551Z 08005KT 10SM FEW020 SCT100 SCT200 23/21 A3007 RMK AO2 SLP171 T02330211 10267 20233 50000=
200508120451 METAR KATL 120451Z 00000KT 10SM FEW200 24/22 A3008 RMK AO2 SLP175 T02440217 403060211=
200508120351 METAR KATL 120351Z 00000KT 10SM FEW150 SCT250 24/22 A3008 RMK AO2 SLP176 T02440217=
200508120251 METAR KATL 120251Z 11004KT 10SM FEW200 24/22 A3007 RMK AO2 SLP172 T02440222 51011=
200508120151 METAR KATL 120151Z 11004KT 10SM FEW150 SCT250 26/22 A3006 RMK AO2 SLP170 T02560217=
200508120051 METAR KATL 120051Z 00000KT 10SM FEW040 SCT120 BKN200 25/22 A3005 RMK AO2 SLP166 LTG DSNT SE CB DSNT SE T02500222=
200508112351 METAR KATL 112351Z 21004KT 10SM FEW035CB SCT120 BKN200 BKN250 24/21 A3004 RMK AO2 TSB2256E50 SLP162 TS DSIPTD CB SE AND VC W AND DSNT E MOV W SHRA SE AND VC W 60013 T02440211 10306 20239 50001=
200508112257 SPECI KATL 112257Z 25004KT 10SM TS FEW035CB SCT045 BKN070 BKN200 27/22 A3004 RMK AO2 TSB56 OCNL LTGCG TS SE-S MOV STNRY CB SW MOV STNRY TCU NE AND W-NW SHRA SE-S AND SW=
200508112257 SPECI KATL 112257Z 25004KT 10SM TS FEW035CB SCT045 BKN070 BKN200 27/22 A3004 RMK AO2 TSB56 OCNL LTGCG TS SE-S MOV STNRY CB SW MOV STNRY TCU NE AND W-NW SHRA SE-S AND SW=
200508112251 METAR KATL 112251Z VRB03KT 9SM FEW035CB SCT045 BKN070 BKN200 27/22 A3004 RMK AO2 RAB20E41 SLP163 CB SE-SW MOV STNRY TCU NE AND W-NW SHRA SE-SW P0013 T02670217=
200508112233 SPECI KATL 112233Z 31007KT 7SM R09R/5500VP6000FT RA SCT035CB BKN045 BKN070 BKN250 26/22 A3003 RMK AO2 RAB20 VIS SW 2 1/2 CB SW-W MOV STNRY P0013=
200508112233 SPECI KATL 112233Z 31007KT 7SM R09R/5500VP6000FT RA SCT035CB BKN045 BKN070 BKN250 26/22 A3003 RMK AO2 RAB20 VIS SW 2 1/2 CB SW-W MOV STNRY P0013=
200508112230 SPECI KATL 112230Z 33007KT 2SM R09R/5500VP6000FT +RA BKN027 BKN041 OVC070 27/22 A3003 RMK AO2 RAB20 P0009=
200508112230 SPECI KATL 112230Z 33007KT 2SM R09R/5500VP6000FT +RA BKN027 BKN041 OVC070 27/22 A3003 RMK AO2 RAB20 P0009=
200508112151 METAR KATL 112151Z 34011KT 10SM FEW035CB SCT045 SCT070 BKN200 29/22 A3003 RMK AO2 TSB19E51 SLP159 TS MOV SW CB VC NE AND W-NW MOV SW TCU OHD-S T02890222=
200508112119 SPECI KATL 112119Z 17004KT 10SM TS FEW035CB SCT060 SCT250 29/21 A3003 RMK AO2 TSB19 OCNL LTGCG TS VC NW MOV SW TCU NE AND W-NW=
200508112119 SPECI KATL 112119Z 17004KT 10SM TS FEW035CB SCT060 SCT250 29/21 A3003 RMK AO2 TSB19 OCNL LTGCG TS VC NW MOV SW TCU NE AND W-NW=
200508112051 METAR KATL 112051Z 14006KT 10SM FEW035CB SCT045TCU SCT150 BKN250 29/21 A3003 RMK AO2 SLP160 CB VC NW AND DSNT NW-N-NE MOV SW TCU SW SHRA VC NW T02890211 58016=
200508111951 METAR KATL 111951Z 16007KT 10SM BKN040TCU BKN150 BKN250 30/21 A3005 RMK AO2 SLP164 CB DSNT NE TCU SE-N T03000206=
200508111851 METAR KATL 111851Z COR 10006KT 10SM FEW035TCU SCT150 SCT250 29/21 A3007 RMK AO2 SLP171 CB DSNT SW TCU SE-S AND W-NW SHRA DSNT SW T02940206=
200508111751 METAR KATL 111751Z VRB04KT 10SM SCT033TCU SCT150 30/22 A3008 RMK AO2 SLP175 TCU SW-NW T03000217 10300 20222 56013=
200508111651 METAR KATL 111651Z 09005KT 10SM SCT030 BKN150 BKN250 28/21 A3010 RMK AO2 SLP181 MDT CU N AND S-SW T02830211 $=
200508111551 METAR KATL 111551Z 11004KT 10SM FEW025 SCT095 BKN150 BKN250 27/21 A3011 RMK AO2 SLP184 T02720211=
200508111451 METAR KATL 111451Z 31003KT 8SM FEW017 SCT110 BKN150 26/22 A3012 RMK AO2 SLP190 T02610217 51013=
200508111351 METAR KATL 111351Z 29004KT 8SM FEW010 SCT110 BKN250 25/22 A3011 RMK AO2 SLP188 T02500222=
200508111251 METAR KATL 111251Z 29004KT 6SM BR FEW200 SCT230 BKN250 23/22 A3010 RMK AO2 SLP185 T02330217=
200508111151 METAR KATL 111151Z 32005KT 6SM BR FEW200 SCT230 BKN250 22/21 A3008 RMK AO2 SLP178 70170 T02220211 10228 20211 53014=
200508111051 METAR KATL 111051Z 00000KT 5SM BR FEW150 SCT200 BKN250 22/21 A3006 RMK AO2 SLP171 T02170206 $=
200508110951 METAR KATL 110951Z 00000KT 6SM BR FEW003 22/21 A3004 RMK AO2 SLP163 T02220211 $=
200508110851 METAR KATL 110851Z 36005KT 6SM BR FEW003 22/21 A3004 RMK AO2 SLP161 T02220211 58006 $=
200508110751 METAR KATL 110751Z 02005KT 5SM BR FEW003 22/21 A3005 RMK AO2 SLP164 T02220211 $=
200508110651 METAR KATL 110651Z 01005KT 1 1/2SM R09R/2600VP6000FT BR SCT001 SCT150 22/22 A3006 RMK AO2 SFC VIS 1 3/4 SLP169 T02220217 $=
200508110551 METAR KATL 110551Z 00000KT 3SM BR SCT001 SCT150 22/22 A3006 RMK AO2 SLP168 60003 T02220217 10233 20222 55006 $=
200508110540 SPECI KATL 110540Z 00000KT 3SM R09R/4000VP6000FT BR FEW001 22/22 A3006 RMK AO2 $=
200508110540 SPECI KATL 110540Z 00000KT 3SM R09R/4000VP6000FT BR FEW001 22/22 A3006 RMK AO2 $=
200508110451 METAR KATL 110451Z 00000KT 8SM FEW150 BKN200 23/21 A3005 RMK AO2 SLP167 T02280211 402830228 $=
200508110351 METAR KATL 110351Z 08003KT 8SM SCT150 BKN250 23/22 A3006 RMK AO2 SLP168 T02330217 $=
200508110251 METAR KATL 110251Z 00000KT 6SM BR FEW005 SCT100 BKN150 OVC200 23/22 A3008 RMK AO2 SLP174 60003 T02330222 53013 $=
200508110230 SPECI KATL 110230Z 00000KT 6SM BR FEW005 SCT100 BKN150 OVC200 23/22 A3007 RMK AO2 $=
200508110230 SPECI KATL 110230Z 00000KT 6SM BR FEW005 SCT100 BKN150 OVC200 23/22 A3007 RMK AO2 $=
200508110220 SPECI KATL 110220Z 02003KT 4SM BR SCT003 BKN008 BKN100 OVC150 23/22 A3007 RMK AO2 $=
200508110220 SPECI KATL 110220Z 02003KT 4SM BR SCT003 BKN008 BKN100 OVC150 23/22 A3007 RMK AO2 $=
200508110212 SPECI KATL 110212Z 00000KT 3SM BR BKN002 BKN008 OVC100 23/22 A3007 RMK AO2 $=
200508110212 SPECI KATL 110212Z 00000KT 3SM BR BKN002 BKN008 OVC100 23/22 A3007 RMK AO2 $=
200508110151 METAR KATL 110151Z 12004KT 1 1/2SM BR BKN002 BKN008 OVC080 23/23 A3006 RMK AO2 SFC VIS 2 RAE22 SLP169 P0000 T02330228 $=
200508110133 SPECI KATL 110133Z 15004KT 2SM BR BKN002 BKN085 OVC140 23/23 A3006 RMK AO2 RAE22 P0000 $=
200508110133 SPECI KATL 110133Z 15004KT 2SM BR BKN002 BKN085 OVC140 23/23 A3006 RMK AO2 RAE22 P0000 $=
200508110051 METAR KATL 110051Z 26003KT 5SM -RA BR FEW008 SCT020 BKN100 OVC140 23/22 A3004 RMK AO2 SLP163 P0003 T02330222 $=
200508102351 METAR KATL 102351Z 00000KT 5SM -RA BR FEW006 BKN015 OVC050 23/22 A3004 RMK AO2 TSE11 SLP162 P0014 60158 T02330217 10283 20228 50013 $=
200508102329 SPECI KATL 102329Z 21003KT 6SM -RA BR SCT014 BKN020 OVC050 23/22 A3003 RMK AO2 TSE11 P0012 $=
200508102329 SPECI KATL 102329Z 21003KT 6SM -RA BR SCT014 BKN020 OVC050 23/22 A3003 RMK AO2 TSE11 P0012 $=
200508102311 SPECI KATL 102311Z 00000KT 5SM -RA BR FEW010 BKN030 OVC050 23/21 A3003 RMK AO2 TSE11 TS DSIPTD P0011 $=
200508102311 SPECI KATL 102311Z 00000KT 5SM -RA BR FEW010 BKN030 OVC050 23/21 A3003 RMK AO2 TSE11 TS DSIPTD P0011 $=
200508102251 METAR KATL 102251Z 21006KT 2 1/2SM R09R/5000VP6000FT TSRA BR SCT010 BKN025CB OVC050 24/23 A3004 RMK AO2 SFC VIS 3 TSB26RAB04 SLP164 VIS S-W 1 1/2 OCNL LTGCGIC TS OHD-W MOV STNRY P0143 T02390228=
200508102230 SPECI KATL 102230Z 22007G15KT 1SM R09R/2000VP6000FT +TSRA BR SCT008 BKN020CB OVC050 24/22 A3003 RMK AO2 SFC VIS 1 1/2 TSB26RAB04 VIS S-NW 1/2 OCNL LTGCG TS OHD-W MOV STNRY P0064=
200508102230 SPECI KATL 102230Z 22007G15KT 1SM R09R/2000VP6000FT +TSRA BR SCT008 BKN020CB OVC050 24/22 A3003 RMK AO2 SFC VIS 1 1/2 TSB26RAB04 VIS S-NW 1/2 OCNL LTGCG TS OHD-W MOV STNRY P0064=
200508102226 SPECI KATL 102226Z 19006KT 2SM +TSRA BR SCT008 BKN020CB OVC050 24/23 A3003 RMK AO2 TSB26RAB04 VIS S-NW 1 OCNL LTGCG TS OHD-W MOV STNRY P0023=
200508102226 SPECI KATL 102226Z 19006KT 2SM +TSRA BR SCT008 BKN020CB OVC050 24/23 A3003 RMK AO2 TSB26RAB04 VIS S-NW 1 OCNL LTGCG TS OHD-W MOV STNRY P0023=
200508102222 SPECI KATL 102222Z VRB03KT 1 1/4SM +RA BR SCT008 BKN020 OVC050 25/23 A3003 RMK AO2 RAB04 P0002=
200508102222 SPECI KATL 102222Z VRB03KT 1 1/4SM +RA BR SCT008 BKN020 OVC050 25/23 A3003 RMK AO2 RAB04 P0002=
200508102211 SPECI KATL 102211Z 30008KT 5SM -RA BR SCT009 BKN016 OVC022 26/23 A3003 RMK AO2 RAB04 P0000=
200508102211 SPECI KATL 102211Z 30008KT 5SM -RA BR SCT009 BKN016 OVC022 26/23 A3003 RMK AO2 RAB04 P0000=
200508102151 METAR KATL 102151Z 30005KT 9SM BKN022 BKN150 OVC200 27/22 A3002 RMK AO2 SLP154 CB DSNT SW T02670222=
200508102051 METAR KATL 102051Z 04008KT 8SM FEW025 SCT150 BKN180 BKN250 27/21 A3000 RMK AO2 SLP148 CB DSNT SE-N TCU DSNT SE-S 60001 T02720211 56016=
200508101951 METAR KATL 101951Z 04007KT 7SM FEW100 SCT150 BKN180 BKN250 27/22 A3001 RMK AO2 RAE04 SLP152 CB DSNT SE AND SW AND NW P0000 T02720217=
200508101851 METAR KATL 101851Z 00000KT 7SM -RA FEW015 BKN035 BKN150 BKN250 26/22 A3003 RMK AO2 TSB07E49RAB1755 SLP158 LTG DSNT W AND N TS DSIPT CB DSNT SE-N TCU DSNT SE P0001 T02560222=
200508101807 SPECI KATL 101807Z 08007KT 5SM -TSRA SCT020CB BKN045 BKN050 BKN150 BKN250 26/23 A3004 RMK AO2 TSB07RAB1755 OCNL LTGICCG TS E-SE AND SW-W MOV E CB DSNT N AND E-SE AND SW-W MOV E P0000=
200508101807 SPECI KATL 101807Z 08007KT 5SM -TSRA SCT020CB BKN045 BKN050 BKN150 BKN250 26/23 A3004 RMK AO2 TSB07RAB1755 OCNL LTGICCG TS E-SE AND=
200508101751 METAR KATL 101751Z 08004KT 8SM FEW020CB SCT065 BKN150 BKN250 27/22 A3005 RMK AO2 SLP165 CB VC E AND SW MOV E 60009 T02720222 10278 20233 58006=
200508101651 METAR KATL 101651Z 04005KT 9SM SCT020TCU BKN060 BKN150 BKN250 28/21 A3006 RMK AO2 TSB19E37RAE30 SLP166 LTG DSNT NE TS MOV NE CB DSNT NE TCU E-SW P0002 T02780211=
200508101638 SPECI KATL 101638Z 36008KT 9SM SCT020TCU BKN060 BKN150 BKN250 27/22 A3006 RMK AO2 TSB19E37RAE30 LTG DSNT NE TS MOV NE CB DSNT NE TCU E-SW P0002=
200508101638 SPECI KATL 101638Z 36008KT 9SM SCT020TCU BKN060 BKN150 BKN250 27/22 A3006 RMK AO2 TSB19E37RAE30 LTG DSNT NE TS MOV NE CB DSNT NE TCU E-SW P0002=
200508101620 SPECI KATL 101620Z 35009KT 7SM -TSRA SCT011CB BKN030TCU BKN150 BKN250 27/23 A3006 RMK AO2 TSB19 VIS 2 NW SHRA OCNL LTGICCG TS NE AND NW MOV E CB NE AND NW MOV E TCU OHD-E-SE P0002=
200508101620 SPECI KATL 101620Z 35009KT 7SM -TSRA SCT011CB BKN030TCU BKN150 BKN250 27/23 A3006 RMK AO2 TSB19 VIS 2 NW SHRA OCNL LTGICCG TS NE AND NW MOV E CB NE AND NW MOV E TCU OHD-E-SE P0002=
200508101558 SPECI KATL 101558Z 31005KT 7SM -RA SCT011CB BKN030TCU BKN150 BKN250 26/23 A3007 RMK AO2 VIS 2 NW SHRA CB NE AND NW MOV E TCU E-SE P0002=
200508101558 SPECI KATL 101558Z 31005KT 7SM -RA SCT011CB BKN030TCU BKN150 BKN250 26/23 A3007 RMK AO2 VIS 2 NW SHRA CB NE AND NW MOV E TCU E-SE P0002=
200508101551 METAR KATL 101551Z 29005KT 6SM R09R/6000VP6000FT +RA FEW020CB SCT030TCU SCT100 BKN150 BKN250 26/23 A3007 RMK AO2 RAB44 SLP174 VIS SW 3 W 2 1/2 NW 2 SHRA CB W-N MOV E TCU SE P0007 T02610233=
200508101507 SPECI KATL 101507Z 15004KT 8SM FEW020CB SCT030TCU SCT100 BKN150 BKN250 27/22 A3007 RMK AO2 CB N MOV E TCU NW SHRA N $=
200508101507 SPECI KATL 101507Z 15004KT 8SM FEW020CB SCT030TCU SCT100 BKN150 BKN250 27/22 A3007 RMK AO2 CB N MOV E TCU NW SHRA N $=
200508101451 METAR KATL 101451Z 15004KT 8SM FEW020TCU SCT100 BKN150 BKN250 27/22 A3007 RMK AO2 SLP170 TCU NW-N T02720217 53004 $=
200508101351 METAR KATL 101351Z VRB03KT 8SM FEW020 SCT150 SCT250 26/22 A3006 RMK AO2 SLP169 T02610222 $=
200508101251 METAR KATL 101251Z 00000KT 7SM FEW160 SCT210 BKN250 25/22 A3005 RMK AO2 SLP165 T02500222=
200508101151 METAR KATL 101151Z 00000KT 7SM FEW007 SCT110 SCT160 SCT210 BKN250 23/22 A3005 RMK AO2 SLP167 70001 T02330217 10244 20228 51008=
200508101058 SPECI KATL 101058Z 08003KT 5SM BR SCT007 SCT110 BKN160 BKN210 BKN250 23/22 A3005 RMK AO2=
200508101058 SPECI KATL 101058Z 08003KT 5SM BR SCT007 SCT110 BKN160 BKN210 BKN250 23/22 A3005 RMK AO2=
200508101051 METAR KATL 101051Z 09005KT 6SM BR SCT110 BKN160 BKN210 OVC250 23/22 A3005 RMK AO2 SLP165 T02280217 $=
200508100951 METAR KATL 100951Z 07006KT 9SM BKN110 BKN250 23/22 A3004 RMK AO2 SLP161 T02330217 $=
200508100851 METAR KATL 100851Z 03006KT 8SM FEW020 BKN110 24/22 A3003 RMK AO2 SLP158 T02390217 55007 $=
200508100751 METAR KATL 100751Z 00000KT 10SM FEW014 SCT020 SCT090 SCT250 24/22 A3002 RMK AO2 SLP156 T02390217 $=
200508100651 METAR KATL 100651Z 03005KT 10SM FEW018 SCT090 SCT250 24/21 A3003 RMK AO2 SLP158 T02390211 $=
200508100551 METAR KATL 100551Z 09004KT 8SM FEW018 SCT090 OVC100 24/21 A3005 RMK AO2 SLP166 T02390211 10267 20239 50007 $=
200508100451 METAR KATL 100451Z 00000KT 9SM SCT100 BKN250 24/21 A3005 RMK AO2 SLP166 T02390211 402940222 $=
200508100351 METAR KATL 100351Z 11003KT 9SM FEW200 BKN250 24/21 A3004 RMK AO2 SLP164 T02440211 $=
200508100251 METAR KATL 100251Z 00000KT 9SM FEW150 SCT200 BKN250 25/22 A3003 RMK AO2 TSE25 SLP160 T02500217 50007 $=
200508100225 SPECI KATL 100225Z 00000KT 8SM FEW080 SCT150 BKN250 26/22 A3003 RMK AO2 TSE25 TS MOV W $=
200508100225 SPECI KATL 100225Z 00000KT 8SM FEW080 SCT150 BKN250 26/22 A3003 RMK AO2 TSE25 TS MOV W $=
200508100151 METAR KATL 100151Z 10005KT 8SM TS FEW030CB SCT080 BKN150 BKN250 25/22 A3003 RMK AO2 SLP161 FRQ LTGCGIC TS VC NW MOV W T02500222 $=
200508100051 METAR KATL 100051Z 13003KT 8SM TS FEW030CB SCT150 BKN200 BKN250 26/23 A3002 RMK AO2 TSB20 SLP157 OCNL LTGCGIC TS VC NW-N MOV W T02560233 $=
200508100020 SPECI KATL 100020Z 13005KT 8SM TS FEW030CB SCT150 BKN200 BKN250 26/23 A3002 RMK AO2 TSB20 OCNL LTGCG TS VC N MOV W TCU SE AND NW $=
200508100020 SPECI KATL 100020Z 13005KT 8SM TS FEW030CB SCT150 BKN200 BKN250 26/23 A3002 RMK AO2 TSB20 OCNL LTGCG TS VC N MOV W TCU SE AND NW $=
200508092351 METAR KATL 092351Z 00000KT 9SM CLR 27/22 A3001 RMK AO2 SLP151 T02670217 10294 20256 55004 $=
200508092251 METAR KATL 092251Z 17003KT 9SM FEW030TCU BKN200 OVC250 26/21 A3000 RMK AO2 SLP150 TCU VC NE AND SW-NW T02610211 $=
200508092151 METAR KATL 092151Z 08005KT 9SM SCT035CB BKN250 29/22 A3001 RMK AO2 SLP152 CB E-S MOV W T02890217 $=
200508092051 METAR KATL 092051Z 00000KT 8SM FEW030TCU SCT040 BKN250 28/22 A3002 RMK AO2 SLP155 CB DSNT E TCU E-SW T02780217 56019=
200508092032 SPECI KATL 092032Z 08005KT 8SM BKN028TCU BKN070 BKN250 28/22 A3003 RMK AO2 TCU E-SW=
200508092032 SPECI KATL 092032Z 08005KT 8SM BKN028TCU BKN070 BKN250 28/22 A3003 RMK AO2 TCU E-SW=
200508091951 METAR KATL 091951Z VRB03KT 8SM FEW025TCU SCT050 SCT150 BKN250 28/22 A3003 RMK AO2 SLP159 TCU E-S T02830217=
200508091851 METAR KATL 091851Z 09005KT 8SM FEW020 SCT050 SCT150 BKN250 27/22 A3006 RMK AO2 SLP168 T02720217 $=
200508091751 METAR KATL 091751Z VRB04KT 8SM FEW020 BKN030 BKN040 26/22 A3008 RMK AO2 RAB27E40 SLP176 CB DSNT NE TCU DSNT SE AND W SHRA DSNT NE P0001 60001 T02610222 10261 20222 58006 $=
200508091735 SPECI KATL 091735Z 13004KT 6SM -RA FEW015 BKN030 OVC040 26/22 A3008 RMK AO2 RAB27 BINOVC P0001=
200508091735 SPECI KATL 091735Z 13004KT 6SM -RA FEW015 BKN030 OVC040 26/22 A3008 RMK AO2 RAB27 BINOVC P0001=
200508091651 METAR KATL 091651Z 10005KT 6SM HZ FEW010 BKN020 BKN050 26/22 A3008 RMK AO2 RAB11E44 SLP178 P0000 T02560217=
200508091612 SPECI KATL 091612Z 09007KT 3SM -RA BR SCT010 BKN015 OVC025 24/22 A3010 RMK AO2 SFC VIS 5 RAB11 P0000=
200508091612 SPECI KATL 091612Z 09007KT 3SM -RA BR SCT010 BKN015 OVC025 24/22 A3010 RMK AO2 SFC VIS 5 RAB11 P0000=
200508091606 SPECI KATL 091606Z 09006KT 3SM HZ BKN011 BKN022 OVC026 24/22 A3010 RMK AO2 SFC VIS 6=
200508091606 SPECI KATL 091606Z 09006KT 3SM HZ BKN011 BKN022 OVC026 24/22 A3010 RMK AO2 SFC VIS 6=
200508091551 METAR KATL 091551Z 10007KT 6SM HZ FEW009 SCT015 OVC022 24/22 A3010 RMK AO2 SLP185 T02440217=
200508091534 SPECI KATL 091534Z 09007KT 6SM HZ FEW009 BKN018 BKN025 24/22 A3010 RMK AO2=
200508091534 SPECI KATL 091534Z 09007KT 6SM HZ FEW009 BKN018 BKN025 24/22 A3010 RMK AO2=
200508091451 METAR KATL 091451Z 09007KT 6SM BR BKN007 BKN014 OVC020 24/22 A3010 RMK AO2 SLP182 60000 T02390222 53008=
200508091351 METAR KATL 091351Z 08008KT 6SM BR OVC005 23/22 A3009 RMK AO2 SLP180 T02330217=
200508091304 SPECI KATL 091304Z 07010KT 6SM BR BKN005 OVC009 23/22 A3008 RMK AO2 CIG 003V008=
200508091304 SPECI KATL 091304Z 07010KT 6SM BR BKN005 OVC009 23/22 A3008 RMK AO2 CIG 003V008=
200508091251 METAR KATL 091251Z 07011KT 9SM BKN003 OVC009 23/22 A3007 RMK AO2 RAE30 CIG 003V006 SLP174 P0000 T02280217=
200508091238 SPECI KATL 091238Z 06008KT 7SM OVC003 22/22 A3007 RMK AO2 RAE30 P0000=
200508091238 SPECI KATL 091238Z 06008KT 7SM OVC003 22/22 A3007 RMK AO2 RAE30 P0000=
200508091151 METAR KATL 091151Z 05007KT 7SM -RA OVC005 23/22 A3007 RMK AO2 SLP174 P0001 60001 70006 T02280217 10228 20222 53007=
200508091051 METAR KATL 091051Z 07007KT 10SM -RA BKN005 BKN045 BKN120 22/22 A3007 RMK AO2 RAB04 SLP174 P0000 T02220217=
200508091019 SPECI KATL 091019Z 09004KT 10SM -RA BKN005 BKN012 BKN120 22/22 A3006 RMK AO2 RAB04 P0000=
200508091019 SPECI KATL 091019Z 09004KT 10SM -RA BKN005 BKN012 BKN120 22/22 A3006 RMK AO2 RAB04 P0000=
200508090951 METAR KATL 090951Z 10005KT 10SM SCT008 BKN012 BKN120 22/21 A3005 RMK AO2 SLP165 T02220211=
200508090940 SPECI KATL 090940Z 10003KT 10SM SCT008 BKN012 BKN120 22/21 A3004 RMK AO2=
200508090940 SPECI KATL 090940Z 10003KT 10SM SCT008 BKN012 BKN120 22/21 A3004 RMK AO2=
200508090905 SPECI KATL 090905Z 10005KT 10SM SCT008 SCT012 BKN120 22/21 A3005 RMK AO2=
200508090905 SPECI KATL 090905Z 10005KT 10SM SCT008 SCT012 BKN120 22/21 A3005 RMK AO2=
200508090851 METAR KATL 090851Z 10007KT 10SM BKN006 OVC013 22/22 A3005 RMK AO2 DZE0755RAB0755E36 CIG 003V009 SLP166 P0000 60000 T02220217 56004=
200508090824 SPECI KATL 090824Z 08006KT 8SM -RA BKN006 BKN010 OVC110 22/22 A3004 RMK AO2 DZE0755RAB0755 CIG 003V008 P0000=
200508090824 SPECI KATL 090824Z 08006KT 8SM -RA BKN006 BKN010 OVC110 22/22 A3004 RMK AO2 DZE0755RAB0755 CIG 003V008 P0000=
200508090751 METAR KATL 090751Z 09009KT 7SM -DZ OVC004 22/22 A3005 RMK AO2 DZB42 SLP166 P0000 T02220217=
200508090651 METAR KATL 090651Z 07010KT 9SM OVC004 22/22 A3006 RMK AO2 SLP169 T02220217=
200508090625 SPECI KATL 090625Z 08008KT 10SM OVC004 22/21 A3006 RMK AO2=
200508090625 SPECI KATL 090625Z 08008KT 10SM OVC004 22/21 A3006 RMK AO2=
200508090551 METAR KATL 090551Z 07009KT 10SM OVC006 23/21 A3006 RMK AO2 SLP170 T02280211 10244 20222 58000=
200508090451 METAR KATL 090451Z 09007KT 10SM OVC008 23/21 A3008 RMK AO2 CIG 006V010 SLP176 T02280211 402780222=
200508090418 SPECI KATL 090418Z 10006KT 10SM BKN008 OVC080 23/21 A3007 RMK AO2=
200508090418 SPECI KATL 090418Z 10006KT 10SM BKN008 OVC080 23/21 A3007 RMK AO2=
200508090351 METAR KATL 090351Z 09008KT 10SM OVC010 23/21 A3007 RMK AO2 SLP173 CIG 006V014 T02280211=
200508090337 SPECI KATL 090337Z 07010KT 10SM BKN008 BKN014 OVC075 23/21 A3007 RMK AO2=
200508090337 SPECI KATL 090337Z 07010KT 10SM BKN008 BKN014 OVC075 23/21 A3007 RMK AO2=
200508090325 SPECI KATL 090325Z 09009KT 10SM SCT008 BKN014 OVC075 23/22 A3007 RMK AO2=
200508090325 SPECI KATL 090325Z 09009KT 10SM SCT008 BKN014 OVC075 23/22 A3007 RMK AO2=
200508090251 METAR KATL 090251Z 07010KT 10SM FEW008 BKN065 OVC150 23/22 A3006 RMK AO2 SLP171 T02280217 51013=
200508090151 METAR KATL 090151Z 07009KT 10SM SCT010 BKN045 BKN080 OVC150 23/22 A3006 RMK AO2 SLP169 LTG DSNT SW CB DSNT SW T02330217=
200508090113 SPECI KATL 090113Z 07009KT 10SM SCT010 BKN035 BKN100 OVC150 23/22 A3004 RMK AO2 LTG DSNT SE-SW CB DSNT SE-SW=
200508090113 SPECI KATL 090113Z 07009KT 10SM SCT010 BKN035 BKN100 OVC150 23/22 A3004 RMK AO2 LTG DSNT SE-SW CB DSNT SE-SW=
200508090102 SPECI KATL 090102Z 08008KT 10SM BKN010 BKN035 OVC100 23/22 A3004 RMK AO2 LTG DSNT SE-SW CB DSNT SE-SW=
200508090102 SPECI KATL 090102Z 08008KT 10SM BKN010 BKN035 OVC100 23/22 A3004 RMK AO2 LTG DSNT SE-SW CB DSNT SE-SW=
200508090051 METAR KATL 090051Z 08009KT 10SM SCT012 BKN035 BKN100 OVC150 23/22 A3004 RMK AO2 SLP162 LTG DSNT SE-SW CB DSNT SE-SW T02330217=
200508082351 METAR KATL 082351Z 05012KT 10SM FEW015 SCT080 BKN100 BKN150 24/22 A3002 RMK AO2 SLP158 CB DSNT SE-SW AND NW-N 60005 T02440222 10278 20239 55000=
200508082251 METAR KATL 082251Z 07008KT 9SM FEW035 SCT080 BKN140 BKN200 26/22 A3001 RMK AO2 RAE07 SLP155 CB DSNT N-NE AND NW TCU DSNT SE-S P0000 T02560222 $=
200508082151 METAR KATL 082151Z 07010KT 6SM -RA FEW030 BKN055 OVC100 24/22 A3002 RMK AO2 TSB10E51RAB2057 SLP158 TS DSIPTD LTG DSNT NW CB DSNT NW P0002 T02440217=
200508082111 SPECI KATL 082111Z 07009KT 6SM -TSRA SCT030CB BKN065 OVC100 25/22 A3002 RMK AO2 TSB10RAB2057 OCNL LTGCGIC TS VC E-SE MOV E CB NW SHRA E-SE AND NW P0001=
200508082111 SPECI KATL 082111Z 07009KT 6SM -TSRA SCT030CB BKN065 OVC100 25/22 A3002 RMK AO2 TSB10RAB2057 OCNL LTGCGIC TS VC E-SE MOV E CB NW SHRA E-SE AND NW P0001=
200508082051 METAR KATL 082051Z 09005KT 9SM FEW025CB SCT040TCU BKN080 BKN250 26/22 A3002 RMK AO2 RAE1955 SLP158 CB VC E-SE AND SW-W MOV N TCU NW SHRA VC E-S-SE AND SW-W P0000 60003 T02560217 56012=
200508082017 SPECI KATL 082017Z 08004KT 9SM FEW020CB SCT050 SCT100 BKN150 BKN250 27/22 A3003 RMK AO2 RAE1955 CB VC E-SW MOV N SHRA VC E-SW P0000=
200508082017 SPECI KATL 082017Z 08004KT 9SM FEW020CB SCT050 SCT100 BKN150 BKN250 27/22 A3003 RMK AO2 RAE1955 CB VC E-SW MOV N SHRA VC E-SW P0000=
200508081951 METAR KATL 081951Z 06007KT 9SM -RA FEW018 SCT028 BKN085 BKN250 27/23 A3003 RMK AO2 RAB1859 SLP160 CB DSNT E-SW P0003 T02670228=
200508081851 METAR KATL 081851Z 06007KT 10SM FEW018CB SCT040 BKN150 BKN250 26/21 A3005 RMK AO2 SLP166 CB SW MOV N TCU DSNT E-S SHRA SW T02610211=
200508081751 METAR KATL 081751Z 05009KT 10SM FEW030TCU BKN040 BKN060 26/22 A3006 RMK AO2 RAB11E21 SLP169 CB DSNT E-SE AND DSNT NW TCU S-SW P0000 60000 T02610217 10272 20228 58012=
200508081730 SPECI KATL 081730Z 06009KT 10SM SCT032CB BKN045TCU BKN060 26/22 A3007 RMK AO2 RAB11E21 CB NW-N MOV N TCU E-SW P0000=
200508081730 SPECI KATL 081730Z 06009KT 10SM SCT032CB BKN045TCU BKN060 26/22 A3007 RMK AO2 RAB11E21 CB NW-N MOV N TCU E-SW P0000=
200508081651 METAR KATL 081651Z 05010KT 10SM SCT020CB BKN035TCU BKN065 26/22 A3007 RMK AO2 SLP175 CB NE MOV N TCU ALQDS SHRA NE T02560217=
200508081612 SPECI KATL 081612Z VRB04KT 9SM FEW017 SCT050 SCT100 SCT250 27/21 A3009 RMK AO2=
200508081612 SPECI KATL 081612Z VRB04KT 9SM FEW017 SCT050 SCT100 SCT250 27/21 A3009 RMK AO2=
200508081558 SPECI KATL 081558Z 08005KT 10SM BKN017 BKN022 BKN047 26/22 A3009 RMK AO2=
200508081558 SPECI KATL 081558Z 08005KT 10SM BKN017 BKN022 BKN047 26/22 A3009 RMK AO2=
200508081551 METAR KATL 081551Z 07006KT 10SM FEW015 SCT030 SCT050 SCT250 26/22 A3009 RMK AO2 SLP179 CB DSNT N-E TCU DSNT SW T02560217=
200508081517 SPECI KATL 081517Z 08007KT 10SM FEW010 BKN030 BKN040 25/22 A3009 RMK AO2=
200508081517 SPECI KATL 081517Z 08007KT 10SM FEW010 BKN030 BKN040 25/22 A3009 RMK AO2=
200508081451 METAR KATL 081451Z 08006KT 9SM FEW006 BKN011 BKN024 24/22 A3009 RMK AO2 SLP181 60000 T02390217 53009=
200508081442 SPECI KATL 081442Z 08006KT 10SM FEW006 BKN011 BKN024 24/22 A3009 RMK AO2=
200508081442 SPECI KATL 081442Z 08006KT 10SM FEW006 BKN011 BKN024 24/22 A3009 RMK AO2=
200508081403 SPECI KATL 081403Z 09007KT 6SM BR BKN006 BKN014 OVC020 23/22 A3007 RMK AO2=
200508081403 SPECI KATL 081403Z 09007KT 6SM BR BKN006 BKN014 OVC020 23/22 A3007 RMK AO2=
200508081351 METAR KATL 081351Z 08006KT 6SM BR FEW008 BKN014 OVC030 23/22 A3007 RMK AO2 RAE15 SLP176 P0000 T02330217=
200508081340 SPECI KATL 081340Z 08008KT 9SM FEW005 BKN010 BKN014 23/22 A3007 RMK AO2 RAE15 P0000=
200508081340 SPECI KATL 081340Z 08008KT 9SM FEW005 BKN010 BKN014 23/22 A3007 RMK AO2 RAE15 P0000=
200508081307 SPECI KATL 081307Z 09005KT 2SM -RA BR SCT007 BKN014 OVC028 23/22 A3008 RMK AO2 SFC VIS 6 P0000=
200508081307 SPECI KATL 081307Z 09005KT 2SM -RA BR SCT007 BKN014 OVC028 23/22 A3008 RMK AO2 SFC VIS 6 P0000=
200508081256 SPECI KATL 081256Z 10005KT 2SM -RA BR SCT005 BKN009 OVC028 23/22 A3008 RMK AO2 SFC VIS 6 P0000=
200508081256 SPECI KATL 081256Z 10005KT 2SM -RA BR SCT005 BKN009 OVC028 23/22 A3008 RMK AO2 SFC VIS 6 P0000=
200508081251 METAR KATL 081251Z 09005KT 2SM -RA BR SCT005 BKN018 OVC030 23/22 A3007 RMK AO2 SFC VIS 6 RAB05E17B47 SLP176 P0000 T02280217=
200508081159 SPECI KATL 081159Z 08006KT 2SM BR BKN007 OVC140 23/22 A3007 RMK AO2 SFC VIS 6=
200508081159 SPECI KATL 081159Z 08006KT 2SM BR BKN007 OVC140 23/22 A3007 RMK AO2 SFC VIS 6=
200508081151 METAR KATL 081151Z 09005KT 7SM BKN007 OVC140 23/22 A3007 RMK AO2 SLP173 70098 T02280217 10228 20222 51008=
200508081051 METAR KATL 081051Z 07005KT 8SM BKN007 OVC140 22/21 A3006 RMK AO2 SLP171 T02220211=
200508080951 METAR KATL 080951Z 09006KT 9SM BKN007 OVC140 22/21 A3005 RMK AO2 SLP167 T02220211=
200508080851 METAR KATL 080851Z 07008KT 9SM BKN007 OVC016 22/21 A3004 RMK AO2 SLP164 T02220211 55007=
200508080751 METAR KATL 080751Z 07009KT 8SM BKN007 OVC016 22/21 A3004 RMK AO2 SLP162 T02220211=
200508080651 METAR KATL 080651Z 07006KT 9SM BKN007 OVC016 22/21 A3005 RMK AO2 SLP168 T02220211=
200508080551 METAR KATL 080551Z 06008KT 10SM BKN007 OVC016 22/21 A3006 RMK AO2 SLP171 60000 T02220206 10228 20217 55005=
200508080451 METAR KATL 080451Z 07008KT 10SM BKN007 OVC011 22/21 A3006 RMK AO2 RAB0353E05 CIG 005V009 SLP169 P0000 T02220206 402670217=
200508080431 SPECI KATL 080431Z 09008KT 10SM BKN007 OVC011 22/21 A3006 RMK AO2 RAB0353E05 CIG 005V010 P0000=
200508080431 SPECI KATL 080431Z 09008KT 10SM BKN007 OVC011 22/21 A3006 RMK AO2 RAB0353E05 CIG 005V010 P0000=
200508080416 SPECI KATL 080416Z 09010KT 9SM BKN011 OVC035 22/21 A3006 RMK AO2 RAB0353E05 P0000=
200508080416 SPECI KATL 080416Z 09010KT 9SM BKN011 OVC035 22/21 A3006 RMK AO2 RAB0353E05 P0000=
200508080351 METAR KATL 080351Z 08010KT 8SM BKN007 BKN012 OVC035 22/21 A3007 RMK AO2 SLP173 T02220211=
200508080340 SPECI KATL 080340Z 09008KT 10SM BKN007 BKN012 OVC035 22/21 A3007 RMK AO2=
200508080340 SPECI KATL 080340Z 09008KT 10SM BKN007 BKN012 OVC035 22/21 A3007 RMK AO2=
200508080316 SPECI KATL 080316Z 10010KT 10SM BKN010 BKN012 OVC035 22/21 A3007 RMK AO2=
200508080316 SPECI KATL 080316Z 10010KT 10SM BKN010 BKN012 OVC035 22/21 A3007 RMK AO2=
200508080251 METAR KATL 080251Z 10008KT 10SM BKN008 BKN012 OVC035 22/21 A3008 RMK AO2 SLP176 T02220211 51015=
200508080151 METAR KATL 080151Z 08008KT 10SM BKN010 BKN012 OVC035 22/21 A3007 RMK AO2 SLP173 T02220211=
200508080131 SPECI KATL 080131Z 09008KT 10SM BKN008 BKN012 OVC035 22/21 A3006 RMK AO2=
200508080131 SPECI KATL 080131Z 09008KT 10SM BKN008 BKN012 OVC035 22/21 A3006 RMK AO2=
200508080051 METAR KATL 080051Z 09010KT 10SM BKN010 BKN018 BKN035 22/21 A3004 RMK AO2 SLP166 T02220206=
200508072353 SPECI KATL 072353Z 10007KT 10SM BKN010 BKN020 BKN025 23/21 A3003 RMK AO2=
200508072353 SPECI KATL 072353Z 10007KT 10SM BKN010 BKN020 BKN025 23/21 A3003 RMK AO2=
200508072351 METAR KATL 072351Z 10008KT 10SM SCT007 BKN042 BKN130 23/21 A3003 RMK AO2 SLP161 60098 T02280211 10267 20217 55004=
200508072336 SPECI KATL 072336Z 10008KT 10SM SCT007 BKN042 BKN130 23/21 A3004 RMK AO2=
200508072336 SPECI KATL 072336Z 10008KT 10SM SCT007 BKN042 BKN130 23/21 A3004 RMK AO2=
200508072251 METAR KATL 072251Z 06010KT 9SM BKN007 BKN050 BKN090 23/22 A3002 RMK AO2 RAE28 SLP159 P0001 T02280217=
200508072240 SPECI KATL 072240Z 06009KT 3SM BR BKN007 BKN050 BKN090 22/21 A3003 RMK AO2 RAE28 P0001=
200508072240 SPECI KATL 072240Z 06009KT 3SM BR BKN007 BKN050 BKN090 22/21 A3003 RMK AO2 RAE28 P0001=
200508072208 SPECI KATL 072208Z 06010KT 3SM BR BKN032 BKN047 BKN085 22/21 A3003 RMK AO2 RAE05 P0001=
200508072208 SPECI KATL 072208Z 06010KT 3SM BR BKN032 BKN047 BKN085 22/21 A3003 RMK AO2 RAE05 P0001=
200508072153 SPECI KATL 072153Z 05011KT 2 1/2SM -RA BR BKN032 BKN047 OVC085 22/21 A3004 RMK AO2 SFC VIS 4 P0001=
200508072153 SPECI KATL 072153Z 05011KT 2 1/2SM -RA BR BKN032 BKN047 OVC085 22/21 A3004 RMK AO2 SFC VIS 4 P0001=
200508072151 METAR KATL 072151Z 05011KT 2 1/2SM -RA BR SCT006 BKN014 OVC047 22/21 A3004 RMK AO2 SFC VIS 3 TSE15 SLP163 P0072 T02170206=
200508072138 SPECI KATL 072138Z 04010KT 1 1/2SM R09R/6000VP6000FT RA BR BKN006 BKN009 OVC020 22/21 A3004 RMK AO2 SFC VIS 2 TSE15 P0066=
200508072138 SPECI KATL 072138Z 04010KT 1 1/2SM R09R/6000VP6000FT RA BR BKN006 BKN009 OVC020 22/21 A3004 RMK AO2 SFC VIS 2 TSE15 P0066=
200508072121 SPECI KATL 072121Z 04012KT 1/2SM R09R/3500V6000FT +RA BR BKN006 BKN009 OVC020 22/21 A3004 RMK AO2 SFC VIS 1 TSE15 OCNL LTGIC TS OHD-ALQDS MOV N P0053=
200508072121 SPECI KATL 072121Z 04012KT 1/2SM R09R/3500V6000FT +RA BR BKN006 BKN009 OVC020 22/21 A3004 RMK AO2 SFC VIS 1 TSE15 OCNL LTGIC TS OHD-ALQDS MOV N P0053=
200508072051 METAR KATL 072051Z 03013G17KT 1/2SM R09R/4500VP6000FT +TSRA FG FEW006 BKN016CB OVC040 23/21 A3004 RMK AO2 TSB1957RAB15 SLP166 OCNL LTGIC TS OHD-ALQDS MOV N P0016 60025 T02280211 55005=
200508072044 SPECI KATL 072044Z 05012KT 1/2SM R09R/5000VP6000FT +TSRA FG FEW006 BKN016CB OVC040 23/22 A3004 RMK AO2 TSB1957RAB15 VIS W 2 OCNL LTGIC TS OHD-ALQDS MOV N P0012=
200508072044 SPECI KATL 072044Z 05012KT 1/2SM R09R/5000VP6000FT +TSRA FG FEW006 BKN016CB OVC040 23/22 A3004 RMK AO2 TSB1957RAB15 VIS W 2 OCNL LTGIC TS OHD-ALQDS MOV N P0012=
200508072040 SPECI KATL 072040Z 36009KT 2 1/2SM R09R/4500VP6000FT -TSRA BR FEW006 BKN016CB OVC040 23/22 A3004 RMK AO2 TSB1957RAB15 VIS N-NE 1/2 SE 3 OCNL LTGIC TS OHD-ALQDS MOV N P0011=
200508072040 SPECI KATL 072040Z 36009KT 2 1/2SM R09R/4500VP6000FT -TSRA BR FEW006 BKN016CB OVC040 23/22 A3004 RMK AO2 TSB1957RAB15 VIS N-NE 1/2 SE 3 OCNL LTGIC TS OHD-ALQDS MOV N P0011=
200508072036 SPECI KATL 072036Z 35010KT 1 1/2SM R09R/4500VP6000FT +TSRA BR FEW006 BKN016CB OVC040 23/22 A3004 RMK AO2 TSB1957RAB15 OCNL LTGCGIC TS OHD-ALQDS MOV N P0010=
200508072036 SPECI KATL 072036Z 35010KT 1 1/2SM R09R/4500VP6000FT +TSRA BR FEW006 BKN016CB OVC040 23/22 A3004 RMK AO2 TSB1957RAB15 OCNL LTGCGIC TS OHD-ALQDS MOV N P0010=
200508072028 SPECI KATL 072028Z 31008KT 2 1/2SM R09R/4500VP6000FT +TSRA BR FEW006 BKN016CB OVC040 23/21 A3004 RMK AO2 TSB1957RAB15 OCNL LTGCGIC TS OHD-ALQDS MOV N P0003=
200508072028 SPECI KATL 072028Z 31008KT 2 1/2SM R09R/4500VP6000FT +TSRA BR FEW006 BKN016CB OVC040 23/21 A3004 RMK AO2 TSB1957RAB15 OCNL LTGCGIC TS OHD-ALQDS MOV N P0003=
200508071958 SPECI KATL 071958Z 19003KT 10SM TS FEW008 SCT028CB BKN090 BKN140 BKN250 26/19 A3004 RMK AO2 TSB57 OCNL LTGCGIC TS S-SW AND VC E MOV N CB NW AND VC N-NE MOV N=
200508071958 SPECI KATL 071958Z 19003KT 10SM TS FEW008 SCT028CB BKN090 BKN140 BKN250 26/19 A3004 RMK AO2 TSB57 OCNL LTGCGIC TS S-SW AND VC E MOV N CB NW AND VC N-NE MOV N=
200508071951 METAR KATL 071951Z 00000KT 10SM SCT030CB SCT090 BKN140 BKN250 26/20 A3004 RMK AO2 TSB01E49RAE09 SLP162 TS MOV N CB VC ALQDS MOV N P0000 T02610200=
200508071902 SPECI KATL 071902Z VRB03KT 9SM -TSRA FEW016 SCT030CB BKN070 BKN130 BKN250 24/21 A3005 RMK AO2 TSB01 OCNL LTGCGIC TS NE MOV N CB OHD AND ALQDS MOV N P0000 $=
200508071902 SPECI KATL 071902Z VRB03KT 9SM -TSRA FEW016 SCT030CB BKN070 BKN130 BKN250 24/21 A3005 RMK AO2 TSB01 OCNL LTGCGIC TS NE MOV N CB OHD AND ALQDS MOV N P0000 $=
200508071851 METAR KATL 071851Z 18003KT 5SM -RA BR SCT022CB BKN070 BKN130 BKN250 23/21 A3005 RMK AO2 RAB1756 SLP169 CB OHD AND ALQDS MOV N P0009 T02330211 $=
200508071751 METAR KATL 071751Z VRB03KT 10SM SCT028CB BKN038TCU BKN130 OVC250 26/21 A3006 RMK AO2 SLP170 CB SE-S MOV NW TCU OHD AND ALQDS SHRA=
200508071651 METAR KATL 071651Z 09004KT 10SM SCT030CB BKN040TCU BKN140 OVC250 26/20 A3009 RMK AO2 SLP179 CB VC NW-N MOV NW TCU OHD AND ALQDS T02560200 $=
200508071626 SPECI KATL 071626Z VRB06KT 10SM BKN030 BKN130 BKN180 OVC250 26/20 A3010 RMK AO2 MDT CU OHD AND ALQDS=
200508071626 SPECI KATL 071626Z VRB06KT 10SM BKN030 BKN130 BKN180 OVC250 26/20 A3010 RMK AO2 MDT CU OHD AND ALQDS=
200508071551 METAR KATL 071551Z 12007KT 10SM BKN022 BKN130 BKN180 OVC250 26/20 A3010 RMK AO2 SLP184 MDT CU OHD AND ALQDS BINOVC T02560200=
200508071514 SPECI KATL 071514Z VRB05KT 10SM BKN020 BKN130 BKN180 OVC250 25/20 A3010 RMK AO2 MDT CU OHD AND ALQDS BINOVC=
200508071514 SPECI KATL 071514Z VRB05KT 10SM BKN020 BKN130 BKN180 OVC250 25/20 A3010 RMK AO2 MDT CU OHD AND ALQDS BINOVC=
200508071451 METAR KATL 071451Z 11006KT 10SM SCT016 BKN130 BKN180 BKN250 25/19 A3010 RMK AO2 SLP184 MDT CU ALQDS T02500194 51007=
200508071419 SPECI KATL 071419Z 10005KT 10SM SCT012 BKN028 BKN130 OVC200 24/20 A3010 RMK AO2=
200508071419 SPECI KATL 071419Z 10005KT 10SM SCT012 BKN028 BKN130 OVC200 24/20 A3010 RMK AO2=
200508071351 METAR KATL 071351Z 10005KT 10SM BKN012 OVC035 23/21 A3010 RMK AO2 SLP183 T02330206=
200508071251 METAR KATL 071251Z 09007KT 9SM BKN010 OVC023 23/21 A3009 RMK AO2 SLP181 T02280211=
200508071151 METAR KATL 071151Z 09006KT 8SM BKN008 22/21 A3008 RMK AO2 CIG 007V013 SLP176 60000 T02220206 10222 20217 51009=
200508071051 METAR KATL 071051Z 09006KT 9SM BKN008 OVC013 22/21 A3008 RMK AO2 CIG 006V012 SLP175 T02220206=
200508070951 METAR KATL 070951Z 12005KT 10SM BKN008 BKN011 OVC033 22/21 A3007 RMK AO2 SLP171 T02220206=
200508070851 METAR KATL 070851Z 10009KT 9SM BKN008 OVC015 22/21 A3005 RMK AO2 RAE42 CIG 005V012 SLP166 P0000 60000 T02170206 55009=
200508070828 SPECI KATL 070828Z 09009KT 5SM -RA BR BKN006 BKN013 OVC018 22/21 A3004 RMK AO2 CIG 005V010 P0000=
200508070828 SPECI KATL 070828Z 09009KT 5SM -RA BR BKN006 BKN013 OVC018 22/21 A3004 RMK AO2 CIG 005V010 P0000=
200508070802 SPECI KATL 070802Z 09010KT 5SM -RA BR SCT008 BKN019 OVC029 22/21 A3005 RMK AO2 P0000=
200508070802 SPECI KATL 070802Z 09010KT 5SM -RA BR SCT008 BKN019 OVC029 22/21 A3005 RMK AO2 P0000=
200508070751 METAR KATL 070751Z 08011KT 5SM -RA BR BKN008 OVC022 22/21 A3005 RMK AO2 RAB49 CIG 006V013 SLP164 P0000 T02220206=
200508070724 SPECI KATL 070724Z 09010KT 10SM BKN008 BKN019 OVC023 22/21 A3006 RMK AO2 CIG 007V013=
200508070724 SPECI KATL 070724Z 09010KT 10SM BKN008 BKN019 OVC023 22/21 A3006 RMK AO2 CIG 007V013=
200508070651 METAR KATL 070651Z 09009KT 10SM FEW008 BKN018 OVC025 22/20 A3006 RMK AO2 SLP170 T02220200=
200508070551 METAR KATL 070551Z 08011KT 10SM FEW009 OVC019 22/21 A3008 RMK AO2 SLP176 T02220206 10256 20222 58005=
200508070532 SPECI KATL 070532Z 08010KT 10SM SCT009 BKN015 OVC020 22/21 A3008 RMK AO2=
200508070532 SPECI KATL 070532Z 08010KT 10SM SCT009 BKN015 OVC020 22/21 A3008 RMK AO2=
200508070451 METAR KATL 070451Z 06009KT 10SM BKN010 BKN014 OVC110 23/20 A3010 RMK AO2 SLP182 T02280200 403000217=
200508070405 SPECI KATL 070405Z 05010KT 10SM BKN010 BKN014 BKN110 23/20 A3010 RMK AO2=
200508070405 SPECI KATL 070405Z 05010KT 10SM BKN010 BKN014 BKN110 23/20 A3010 RMK AO2=
200508070351 METAR KATL 070351Z 06010KT 10SM SCT040 BKN100 23/20 A3010 RMK AO2 SLP182 T02280200=
200508070251 METAR KATL 070251Z 07009KT 10SM BKN100 23/20 A3009 RMK AO2 SLP182 T02280200 53017=
200508070151 METAR KATL 070151Z 11009KT 10SM FEW040 BKN110 24/19 A3007 RMK AO2 SLP175 T02390194=
200508070051 METAR KATL 070051Z 10009KT 10SM SCT050 BKN085 OVC180 24/19 A3006 RMK AO2 SLP169 T02440194=
200508062351 METAR KATL 062351Z 12010KT 10SM BKN038TCU BKN049 OVC075 26/18 A3004 RMK AO2 RAB17E40 SLP164 TCU N-NE AND W-NW MOV NW P0000 60000 T02560183 10300 20256 53001=
200508062251 METAR KATL 062251Z 10007KT 10SM SCT040TCU BKN180 28/19 A3002 RMK AO2 SLP155 TCU E-SE AND W MOV NW T02830189=
200508062151 METAR KATL 062151Z 11007KT 060V140 10SM SCT040TCU BKN060 BKN180 29/19 A3002 RMK AO2 SLP157 TCU E-NW MOV NW T02890194=
200508062051 METAR KATL 062051Z COR 13008KT 10SM FEW048TCU SCT055 BKN180 29/18 A3004 RMK AO2 SLP161 TCU SE-W MOV E T02940183 58025=
200508061951 METAR KATL 061951Z 13009KT 10SM FEW050TCU SCT180 BKN250 30/18 A3007 RMK AO2 SLP171 CB DSNT NW TCU VC S T03000178=
200508061851 METAR KATL 061851Z 08009KT 10SM FEW045 SCT140 BKN180 BKN250 29/19 A3009 RMK AO2 SLP178 CB DSNT NW-N MDT CU E-SE AND VC W T02890189=
200508061751 METAR KATL 061751Z 09007KT 9SM SCT036 BKN140 BKN180 BKN250 28/19 A3012 RMK AO2 SLP187 T02830194 10294 20222 58008=
200508061651 METAR KATL 061651Z 09010G15KT 8SM SCT032 SCT140 BKN180 BKN250 28/21 A3013 RMK AO2 SLP192 T02830206=
200508061551 METAR KATL 061551Z VRB03KT 8SM FEW028 BKN140 BKN200 BKN250 27/21 A3014 RMK AO2 SLP195 T02720211=
200508061451 METAR KATL 061451Z 07008KT 6SM HZ BKN140 OVC200 24/21 A3014 RMK AO2 SLP197 T02440211 50002=
200508061351 METAR KATL 061351Z 09003KT 5SM HZ BKN140 OVC200 23/21 A3015 RMK AO2 SLP201 T02330206=
200508061251 METAR KATL 061251Z 09004KT 5SM HZ BKN180 OVC250 23/20 A3015 RMK AO2 SLP200 T02280200=
200508061151 METAR KATL 061151Z 08003KT 5SM HZ BKN180 22/19 A3014 RMK AO2 SLP195 T02220194 10233 20217 53009=
200508061051 METAR KATL 061051Z 08005KT 7SM BKN180 22/19 A3012 RMK AO2 SLP191 T02220189=
200508060951 METAR KATL 060951Z 06005KT 8SM SCT150 BKN200 22/19 A3012 RMK AO2 SLP188 T02220189=
200508060851 METAR KATL 060851Z 07005KT 8SM SCT180 BKN250 22/19 A3011 RMK AO2 SLP184 T02220189 58003=
200508060751 METAR KATL 060751Z 11004KT 8SM SCT180 BKN250 23/19 A3011 RMK AO2 SLP186 T02280189=
200508060651 METAR KATL 060651Z 08007KT 8SM SCT180 BKN250 23/19 A3012 RMK AO2 SLP187 T02280194=
200508060551 METAR KATL 060551Z 09005KT 6SM HZ SCT180 BKN250 23/19 A3012 RMK AO2 SLP187 T02330194 10272 20233 56001=
200508060451 METAR KATL 060451Z 08005KT 9SM SCT180 BKN250 24/19 A3012 RMK AO2 SLP188 T02440194 403110217=
200508060351 METAR KATL 060351Z 06005KT 7SM SCT180 BKN250 25/19 A3011 RMK AO2 SLP186 T02500194=
200508060251 METAR KATL 060251Z 08006KT 8SM FEW033 SCT180 BKN250 25/20 A3012 RMK AO2 SLP189 T02500200 53008=
200508060151 METAR KATL 060151Z 09005KT 8SM FEW100 BKN180 BKN250 26/19 A3011 RMK AO2 SLP184 T02560194=
200508060051 METAR KATL 060051Z 09004KT 8SM FEW080 SCT180 BKN250 26/20 A3010 RMK AO2 SLP183 T02610200=
200508052351 METAR KATL 052351Z 09004KT 7SM FEW100 SCT180 BKN250 27/19 A3009 RMK AO2 SLP181 T02720194 10311 20272 55003=
200508052251 METAR KATL 052251Z VRB04KT 8SM FEW038 SCT180 BKN250 27/19 A3009 RMK AO2 WSHFT 2133 TSE31 SLP178 CB DSNT SW T02720194=
200508052233 SPECI KATL 052233Z 10005KT 8SM FEW038TCU SCT100 BKN180 BKN250 27/19 A3008 RMK AO2 WSHFT 2133 TSE31 TS MOV SW CB DSNT SW TCU VC SW=
200508052233 SPECI KATL 052233Z 10005KT 8SM FEW038TCU SCT100 BKN180 BKN250 27/19 A3008 RMK AO2 WSHFT 2133 TSE31 TS MOV SW CB DSNT SW TCU VC SW=
200508052151 SPECI KATL 052151Z 06012KT 9SM TS SCT042CB BKN055 BKN110 BKN250 28/18 A3009 RMK AO2 WSHFT 2133 OCNL LTGCGICCA TS OHD-SW-W MOV SW CB VC NE-E MOV SW=
200508052151 SPECI KATL 052151Z 06012KT 9SM TS SCT042CB BKN055 BKN110 BKN250 28/18 A3009 RMK AO2 WSHFT 2133 OCNL LTGCGICCA TS OHD-SW-W MOV SW CB VC NE-E MOV SW=
200508052146 METAR KATL 052146Z 04014KT 9SM TS SCT042CB BKN050 BKN110 BKN250 28/18 A3009=
200508052051 METAR KATL 052051Z 16006KT 7SM FEW040TCU BKN200 BKN250 29/20 A3010 RMK AO2 SLP183 CB DSNT NE TCU NW T02940200 56016=
200508051951 METAR KATL 051951Z 13005KT 8SM FEW040 SCT060 SCT200 BKN250 30/19 A3010 RMK AO2 SLP183 CB DSNT NE AND NW MOV W T03000189=
200508051851 METAR KATL 051851Z 10008KT 8SM FEW045 SCT150 BKN250 31/18 A3013 RMK AO2 SLP191 CB DSNT NW-N T03060183=
200508051751 METAR KATL 051751Z 09006KT 8SM FEW045 BKN200 BKN250 30/19 A3015 RMK AO2 SLP199 CB DSNT N TCU DSNT NW T03000189 10306 20239 58007=
200508051651 METAR KATL 051651Z VRB06KT 8SM FEW150 SCT180 BKN250 30/19 A3016 RMK AO2 SLP203 T03000189=
200508051551 METAR KATL 051551Z 07005KT 9SM FEW070 SCT100 BKN250 29/18 A3018 RMK AO2 SLP209 T02940183=
200508051451 METAR KATL 051451Z VRB03KT 9SM FEW150 SCT200 BKN250 27/18 A3017 RMK AO2 SLP207 T02720178 51003=
200508051351 METAR KATL 051351Z 08006KT 8SM FEW100 SCT150 SCT250 26/18 A3017 RMK AO2 SLP206 T02610183=
200508051251 METAR KATL 051251Z 05005KT 6SM HZ BKN065 BKN100 26/18 A3017 RMK AO2 SLP205 T02560183=
200508051151 METAR KATL 051151Z COR 010004KT 4SM HZ SCT100 BKN180 24/19 A3016 RMK AO2 SLP204 60000 70000 T02390189 10239 20217 53010 PNO $=
200508051051 METAR KATL 051051Z 10005KT 6SM HZ SCT110 OVC150 23/20 A3015 RMK AO2 SLP200 T02280200=
200508050951 METAR KATL 050951Z 03003KT 8SM SCT070 OVC150 23/19 A3014 RMK AO2 SLP197 T02280189=
200508050851 METAR KATL 050851Z 00000KT 10SM SCT047 BKN055 BKN070 23/18 A3013 RMK AO2 SLP192 T02330183 56002=
200508050751 METAR KATL 050751Z 31004KT 8SM FEW045 OVC150 22/19 A3014 RMK AO2 SLP194 T02170194=
200508050651 METAR KATL 050651Z 00000KT 8SM OVC150 22/19 A3013 RMK AO2 SLP192 T02220189=
200508050551 METAR KATL 050551Z 00000KT 8SM OVC150 22/19 A3014 RMK AO2 SLP195 60000 T02220189 10294 20217 50006=
200508050451 METAR KATL 050451Z 26004KT 8SM FEW060 SCT100 BKN150 OVC200 22/19 A3015 RMK AO2 WSHFT 0351 TSE51RAB01E25 SLP199 TS MOV SW LTG DSNT=
200508050409 SPECI KATL 050409Z 02011G23KT 5SM -TSRA FEW020 BKN035CB OVC055 23/18 A3015 RMK AO2 WSHFT 0351 RAB01 VIS W-N 2 CONS LTGCGIC TS W-N MOV SW P0000=
200508050409 SPECI KATL 050409Z 02011G23KT 5SM -TSRA FEW020 BKN035CB OVC055 23/18 A3015 RMK AO2 WSHFT 0351 RAB01 VIS W-N 2 CONS LTGCGIC TS W-N MOV SW P0000=
200508050401 SPECI KATL 050401Z 02014G24KT 6SM -TSRA FEW025 BKN035CB OVC055 24/20 A3015 RMK AO2 WSHFT 0344 RAB01 VIS NW-NE 2 CONS LTGCGIC TS NE-OHD-W MOV SW P0000=
200508050401 SPECI KATL 050401Z 02014G24KT 6SM -TSRA FEW025 BKN035CB OVC055 24/20 A3015 RMK AO2 WSHFT 0344 RAB01 VIS NW-NE 2 CONS LTGCGIC TS NE-OHD-W MOV SW P0000=
200508050351 METAR KATL 050351Z 11015KT 7SM TS FEW025 SCT035CB BKN050 OVC250 25/19 A3016 RMK AO2 TSB29 PRESRR SLP200 FRQ LTGCGIC TS NW-NE-E MOV SW T02500189=
200508050330 SPECI KATL 050330Z 00000KT 8SM TS FEW040CB BKN055 BKN250 27/21 A3013 RMK AO2 TSB29 FRQ LTGCGIC TS VC NE AND DSNT SE MOV SW=
200508050330 SPECI KATL 050330Z 00000KT 8SM TS FEW040CB BKN055 BKN250 27/21 A3013 RMK AO2 TSB29 FRQ LTGCGIC TS VC NE AND DSNT SE MOV SW=
200508050251 METAR KATL 050251Z 00000KT 7SM SCT200 27/21 A3012 RMK AO2 SLP187 LTG DSNT NE AND SE CB DSNT NE AND SE T02720206 53013=
200508050151 METAR KATL 050151Z 00000KT 7SM SCT200 28/21 A3010 RMK AO2 SLP182 T02780206=
200508050051 METAR KATL 050051Z 18004KT 7SM FEW150 BKN200 28/20 A3009 RMK AO2 SLP179 T02830200=
200508042351 METAR KATL 042351Z 15005KT 7SM FEW200 29/19 A3008 RMK AO2 SLP175 T02940189 10328 20294 58002=
200508042251 METAR KATL 042251Z 13005KT 7SM FEW050 31/19 A3008 RMK AO2 SLP173 T03060189=
200508042151 METAR KATL 042151Z 14007KT 7SM FEW050 31/19 A3009 RMK AO2 SLP179 MDT CU W-NW T03110189=
200508042051 METAR KATL 042051Z 09010KT 7SM FEW060 SCT100 SCT150 32/17 A3009 RMK AO2 SLP177 MDT CU SE AND NW T03170172 56015=
200508041951 METAR KATL 041951Z 07007KT 7SM FEW060 SCT180 SCT250 32/18 A3010 RMK AO2 SLP181 MDT CU N-E T03220178=
200508041851 METAR KATL 041851Z 12006KT 6SM HZ FEW045 SCT180 SCT250 32/19 A3012 RMK AO2 SLP186 MDT CU ALQDS T03170189=
200508041751 METAR KATL 041751Z 09005KT 5SM HZ FEW045 30/19 A3013 RMK AO2 SLP192 MDT CU SE AND NW T03000194 10311 20244 58010=
200508041651 METAR KATL 041651Z 08009KT 5SM HZ FEW040TCU BKN050 30/20 A3015 RMK AO2 SLP197 TCU S-SW MDT CU ALQDS T03000200=
200508041551 METAR KATL 041551Z 08004KT 4SM HZ FEW035 SCT250 29/21 A3016 RMK AO2 SLP202 T02890206=
200508041451 METAR KATL 041451Z 04008KT 5SM HZ FEW035 SCT250 29/21 A3016 RMK AO2 SLP203 T02890206 51014=
200508041351 METAR KATL 041351Z 04007KT 3SM HZ FEW250 27/20 A3015 RMK AO2 SFC VIS 4 SLP199 T02720200=
200508041326 SPECI KATL 041326Z 09005KT 3SM HZ FEW250 27/21 A3015 RMK AO2 SFC VIS 3=
200508041326 SPECI KATL 041326Z 09005KT 3SM HZ FEW250 27/21 A3015 RMK AO2 SFC VIS 3=
200508041251 METAR KATL 041251Z 05006KT 2 1/2SM HZ BKN200 26/21 A3014 RMK AO2 SFC VIS 3 SLP196 T02610206=
200508041224 SPECI KATL 041224Z 05007KT 2 1/2SM HZ CLR 26/21 A3014 RMK AO2 SFC VIS 3=
200508041224 SPECI KATL 041224Z 05007KT 2 1/2SM HZ CLR 26/21 A3014 RMK AO2 SFC VIS 3=
200508041151 METAR KATL 041151Z 06006KT 4SM HZ BKN180 24/20 A3012 RMK AO2 SLP189 T02440200 10256 20233 53013=
200508041051 METAR KATL 041051Z 04004KT 4SM HZ BKN250 24/20 A3011 RMK AO2 SLP185 T02440200=
200508040951 METAR KATL 040951Z 00000KT 5SM HZ BKN230 24/21 A3009 RMK AO2 SLP179 T02440206=
200508040851 METAR KATL 040851Z 00000KT 5SM HZ BKN230 24/21 A3008 RMK AO2 SLP175 T02440206 53004=
200508040751 METAR KATL 040751Z 00000KT 5SM HZ BKN250 25/21 A3007 RMK AO2 SLP169 T02500206=
200508040651 METAR KATL 040651Z 00000KT 5SM HZ BKN250 25/21 A3007 RMK AO2 SLP171 T02500206=
200508040551 METAR KATL 040551Z 00000KT 5SM HZ BKN250 25/21 A3007 RMK AO2 SLP171 T02500206 10294 20250 58000=
200508040451 METAR KATL 040451Z 00000KT 8SM BKN250 26/21 A3008 RMK AO2 SLP173 T02610206 403110228=
200508040351 METAR KATL 040351Z 10004KT 9SM BKN250 27/20 A3007 RMK AO2 SLP171 T02670200=
200508040251 METAR KATL 040251Z 09006KT 9SM BKN250 27/19 A3007 RMK AO2 SLP173 T02670194 51013=
200508040151 METAR KATL 040151Z 09005KT 8SM BKN250 28/19 A3006 RMK AO2 SLP169 T02780194=
200508040051 METAR KATL 040051Z 09006KT 8SM BKN200 28/19 A3005 RMK AO2 SLP165 T02780189=
200508032351 METAR KATL 032351Z 10007KT 10SM BKN200 29/18 A3003 RMK AO2 SLP159 T02940183 10311 20289 53002=
200508032251 METAR KATL 032251Z 07008KT 10SM FEW050 SCT200 29/18 A3002 RMK AO2 SLP154 T02940178=
200508032151 METAR KATL 032151Z 09009KT 10SM FEW055 SCT200 31/17 A3003 RMK AO2 SLP157 T03060172=
200508032051 METAR KATL 032051Z 10009KT 10SM FEW055 SCT250 31/17 A3003 RMK AO2 SLP157 T03060172 56017=
200508031951 METAR KATL 031951Z 09008KT 10SM FEW055 31/17 A3004 RMK AO2 SLP163 T03060167=
200508031851 METAR KATL 031851Z 12006G14KT 10SM SCT055 31/17 A3006 RMK AO2 SLP168 T03060172=
200508031751 METAR KATL 031751Z 12007KT 10SM FEW050 SCT250 30/17 A3008 RMK AO2 SLP175 T03000167 10306 20233 58007 $=
200508031651 METAR KATL 031651Z VRB05KT 10SM FEW045 SCT250 29/18 A3009 RMK AO2 SLP178 T02890183 $=
200508031551 METAR KATL 031551Z 07004KT 9SM FEW040 SCT250 29/19 A3010 RMK AO2 SLP181 T02890189=
200508031451 METAR KATL 031451Z 09005KT 9SM FEW035 SCT250 28/18 A3010 RMK AO2 SLP182 T02780183 51007=
200508031351 METAR KATL 031351Z 09004KT 7SM FEW250 26/19 A3010 RMK AO2 SLP182 T02610194=
200508031251 METAR KATL 031251Z 05006KT 6SM HZ FEW230 25/19 A3009 RMK AO2 SLP178 T02500194=
200508031151 METAR KATL 031151Z 03005KT 5SM HZ SCT230 23/19 A3008 RMK AO2 SLP175 T02330189 10244 20228 53010=
200508031051 METAR KATL 031051Z 03007KT 6SM HZ FEW050 SCT230 23/19 A3007 RMK AO2 SLP171 T02280189 $=
200508030951 METAR KATL 030951Z 04007KT 6SM HZ FEW050 SCT150 23/19 A3005 RMK AO2 SLP165 T02280189 $=
200508030851 METAR KATL 030851Z 04008KT 6SM HZ FEW050 23/19 A3005 RMK AO2 SLP164 T02330189 56003 $=
200508030751 METAR KATL 030751Z 04007KT 6SM HZ CLR 23/19 A3005 RMK AO2 SLP164 T02330189 $=
200508030651 METAR KATL 030651Z 05005KT 6SM HZ CLR 24/19 A3005 RMK AO2 SLP165 T02390189 $=
200508030551 METAR KATL 030551Z 05005KT 6SM HZ CLR 24/19 A3006 RMK AO2 SLP166 T02390189 10278 20239 56002 $=
200508030451 METAR KATL 030451Z 06007KT 8SM FEW250 24/19 A3006 RMK AO2 SLP167 T02440194 403000217 $=
200508030351 METAR KATL 030351Z 06007KT 8SM SCT250 25/19 A3006 RMK AO2 SLP168 T02500194 $=
200508030251 METAR KATL 030251Z 08007KT 8SM BKN250 24/20 A3006 RMK AO2 SLP169 T02440200 53003 $=
200508030151 METAR KATL 030151Z 09005KT 8SM SCT250 26/20 A3005 RMK AO2 SLP167 T02560200 $=
200508030051 METAR KATL 030051Z 09006KT 8SM SCT200 BKN250 27/19 A3005 RMK AO2 SLP165 T02670194 $=
200508022351 METAR KATL 022351Z 09010KT 7SM SCT200 BKN250 28/19 A3005 RMK AO2 SLP165 T02780189 10300 20278 55000 $=
200508022251 METAR KATL 022251Z 07009KT 9SM FEW045 SCT200 BKN250 29/19 A3004 RMK AO2 SLP162 T02890189 $=
200508022151 METAR KATL 022151Z 06010KT 10SM FEW045 SCT070 BKN250 29/18 A3004 RMK AO2 SLP163 MDT CU OHD-SE AND SW-NW T02890183 $=
200508022051 METAR KATL 022051Z 09010KT 9SM FEW040 SCT060 BKN080 29/19 A3005 RMK AO2 SLP164 T02940194 56018 $=
200508021951 METAR KATL 021951Z 09012KT 10SM FEW040 BKN050 BKN080 28/19 A3007 RMK AO2 SLP171 T02830189 $=
200508021851 METAR KATL 021851Z 07010G16KT 10SM FEW040TCU SCT060 SCT150 29/19 A3008 RMK AO2 SLP176 TCU SE T02940189=
200508021751 METAR KATL 021751Z 07007KT 10SM FEW035TCU SCT150 29/19 A3010 RMK AO2 SLP184 TCU SE T02890189 10289 20222 58016=
200508021651 METAR KATL 021651Z 12009KT 10SM SCT035TCU SCT060 SCT150 SCT250 28/19 A3013 RMK AO2 SLP192 TCU NE-SW MDT CU ALQDS T02780194=
200508021551 METAR KATL 021551Z 08007KT 9SM SCT025 SCT035 SCT150 SCT250 27/20 A3014 RMK AO2 SLP198 MDT CU ALQDS T02720200=
200508021451 METAR KATL 021451Z 10007KT 10SM SCT025TCU BKN035 BKN120 BKN250 26/20 A3015 RMK AO2 SLP200 TCU E AND SW-W T02610200 51007=
200508021440 SPECI KATL 021440Z 10008KT 10SM SCT024 SCT035 BKN250 26/21 A3015 RMK AO2=
200508021440 SPECI KATL 021440Z 10008KT 10SM SCT024 SCT035 BKN250 26/21 A3015 RMK AO2=
200508021351 METAR KATL 021351Z 07009KT 10SM FEW015 SCT035 BKN250 25/21 A3015 RMK AO2 SLP200 T02500206=
200508021251 METAR KATL 021251Z 07010KT 8SM FEW030 SCT150 BKN230 23/21 A3014 RMK AO2 SLP197 T02330206=
200508021151 METAR KATL 021151Z 05008KT 8SM SCT065 SCT150 SCT230 22/20 A3013 RMK AO2 SLP194 T02220200 10228 20217 53014=
200508021051 METAR KATL 021051Z 05007KT 9SM SCT065 SCT150 BKN230 22/20 A3011 RMK AO2 SLP186 T02220200=
200508020951 METAR KATL 020951Z 05008KT 10SM BKN060 22/21 A3009 RMK AO2 SLP178 T02220206 $=
200508020851 METAR KATL 020851Z 05006KT 10SM OVC060 22/21 A3009 RMK AO2 SLP179 T02220206 56005 $=
200508020751 METAR KATL 020751Z 04007KT 10SM FEW030 BKN055 BKN150 22/21 A3009 RMK AO2 SLP180 T02220206 $=
200508020651 METAR KATL 020651Z 08006KT 9SM SCT150 22/21 A3009 RMK AO2 SLP180 T02170206 $=
200508020551 METAR KATL 020551Z 06006KT 10SM CLR SCT150 BKN250 22/21 A3010 RMK AO2 SLP186 60000 T02220206 10250 20222 56007 $=
200508020451 METAR KATL 020451Z 09006KT 10SM SCT150 BKN250 22/21 A3011 RMK AO2 SLP186 T02220206 402780222 $=
200508020351 METAR KATL 020351Z 11005KT 10SM FEW100 BKN150 BKN250 23/21 A3011 RMK AO2 SLP188 T02330206 $=
200508020251 METAR KATL 020251Z 12006KT 10SM BKN140 BKN250 24/21 A3012 RMK AO2 SLP191 60000 T02390206 51010 $=
200508020151 METAR KATL 020151Z 09004KT 10SM FEW100 OVC120 24/21 A3011 RMK AO2 RAE20 SLP189 BINOVC P0000 T02390206 $=
200508020051 METAR KATL 020051Z 12004KT 10SM -RA BKN100 BKN250 24/22 A3011 RMK AO2 RAB50 SLP186 PCPN VRY LGT P0000 T02390217 $=
200508012351 METAR KATL 012351Z 07017KT 10SM FEW030CB SCT050 BKN100 BKN250 25/19 A3009 RMK AO2 SLP181 CB VC NW-NE AND DSNT SE MOV E SHRA NW-NE AND SE T02500194 10278 20233 53004 $=
200508012251 METAR KATL 012251Z 14007KT 10SM FEW032TCU SCT045 BKN100 BKN250 27/22 A3007 RMK AO2 SLP175 TCU OHD-W-N CB DSNT NE-SE T02670217 $=
200508012151 METAR KATL 012151Z VRB05KT 10SM FEW030CB SCT070 SCT100 BKN250 27/21 A3007 RMK AO2 SLP174 CB VC N-NE AND NW MOV SW TCU DSNT E-SE SHRA N-NE T02720211 $=
200508012051 METAR KATL 012051Z 16006KT 10SM FEW025 SCT060 SCT095 27/21 A3008 RMK AO2 SLP176 CB DSNT SE AND NW MOV SW TCU DSNT N-E AND NW T02670211 58021 $=
200508011951 METAR KATL 011951Z 18007KT 150V220 10SM FEW030CB BKN040TCU BKN110 26/22 A3010 RMK AO2 SLP185 CB S MOV SW TCU OHD-N-E AND NW SHRA S T02610217 $=
200508011851 METAR KATL 011851Z 17005KT 10SM FEW020CB SCT045TCU BKN110 24/21 A3012 RMK AO2 SLP191 CB SW MOV SW TCU N-SE AND NW SHRA SW T02440211=
200508011751 METAR KATL 011751Z 15004KT 9SM FEW020CB SCT030TCU BKN040 BKN150 BKN250 23/21 A3014 RMK AO2 RAB07E43 SLP198 CB SE-S AND SW-W MOV W TCU NE SHRA SE-S AND SW-W P0000 60000 T02330206 10250 20228 58008=
200508011651 METAR KATL 011651Z 10006KT 10SM BKN017 BKN025 OVC050 24/21 A3016 RMK AO2 SLP205 T02440206=
200508011551 METAR KATL 011551Z 10006KT 10SM SCT015 BKN020 OVC040 24/20 A3017 RMK AO2 SLP207 T02440200=
200508011451 METAR KATL 011451Z 10008KT 10SM BKN015 BKN020 OVC080 24/20 A3017 RMK AO2 SLP207 T02390200 51010=
200508011419 SPECI KATL 011419Z 09011KT 10SM OVC016 23/21 A3017 RMK AO2=
200508011419 SPECI KATL 011419Z 09011KT 10SM OVC016 23/21 A3017 RMK AO2=
200508011351 METAR KATL 011351Z 09010KT 10SM BKN012 OVC080 23/21 A3017 RMK AO2 SLP206 T02330206=
200508011251 METAR KATL 011251Z 06009KT 10SM BKN010 OVC075 23/21 A3016 RMK AO2 SLP202 T02330206=
Fallo de consulta: el error es SELECT command denied to user 'users'@'localhost' for table 'tafs_2005'
