##########################################################
# Query made at 04/19/2024 22:52:37 UTC
# Time interval: from 09/01/2005 12:00  to 09/30/2005 12:59  UTC
##########################################################

##########################################################
# KATL, Atlanta, Hartsfield - Jackson Atlanta International Airport (United States)
# WMO index: 72219. WIGOS ID: 0-20000-0-72219
# Latitude 33-38-59N. Longitude 084-25-00W. Altitude 312 m.
##########################################################

200509301251 METAR KATL 301251Z 08010KT 10SM FEW250 19/12 A3009 RMK AO2 SLP182 T01890122=
200509301151 METAR KATL 301151Z 08010KT 10SM FEW250 17/13 A3006 RMK AO2 SLP174 70001 T01720133 10178 20167 53013=
200509301051 METAR KATL 301051Z 07008KT 10SM FEW250 17/14 A3004 RMK AO2 SLP167 T01720139=
200509300951 METAR KATL 300951Z 05008KT 10SM CLR 18/14 A3003 RMK AO2 SLP160 T01780144=
200509300851 METAR KATL 300851Z 03007KT 10SM CLR 17/14 A3002 RMK AO2 SLP158 T01720139 51004=
200509300751 METAR KATL 300751Z 36006KT 10SM CLR 17/13 A3002 RMK AO2 SLP159 T01670133=
200509300651 METAR KATL 300651Z 34006KT 10SM CLR 17/13 A3002 RMK AO2 SLP158 T01670133=
200509300551 METAR KATL 300551Z 33003KT 10SM CLR 17/14 A3001 RMK AO2 SLP155 T01670139 10228 20167 56001=
200509300451 METAR KATL 300451Z 33005KT 10SM CLR 17/14 A3001 RMK AO2 SLP153 T01720139 402940172=
200509300351 METAR KATL 300351Z 32007KT 10SM CLR 18/14 A3001 RMK AO2 SLP154 T01780139=
200509300251 METAR KATL 300251Z 32009KT 10SM CLR 18/13 A3001 RMK AO2 SLP155 T01830133 51012=
200509300151 METAR KATL 300151Z 32009KT 10SM CLR 20/14 A3001 RMK AO2 SLP152 T02000144=
200509300051 METAR KATL 300051Z 33011KT 10SM CLR 22/15 A2999 RMK AO2 SLP148 T02170150=
200509292351 METAR KATL 292351Z 33008KT 10SM CLR 23/17 A2998 RMK AO2 SLP144 60000 T02280167 10289 20228 53008=
200509292251 METAR KATL 292251Z 35010KT 10SM CLR 25/18 A2997 RMK AO2 SLP139 T02500178=
200509292151 METAR KATL 292151Z 32013KT 10SM FEW100 27/18 A2995 RMK AO2 SLP134 T02670183=
200509292051 METAR KATL 292051Z 33010KT 10SM FEW035 SCT080 SCT230 28/18 A2995 RMK AO2 SLP133 60000 T02830183 56017=
200509291951 METAR KATL 291951Z 32013KT 10SM FEW035 SCT080 28/19 A2997 RMK AO2 SLP137 TCU DSNT S ACSL DSNT NW T02830189=
200509291851 METAR KATL 291851Z 31011KT 10SM FEW040TCU SCT060 SCT100 28/19 A2997 RMK AO2 RAE1758 SLP139 CB DSNT SE-S TCU W-N P0000 T02830194=
200509291751 METAR KATL 291751Z 26003KT 9SM -RA FEW020 BKN040 BKN060 BKN230 26/21 A3000=
200509291724 SPECI KATL 291724Z 25009G19KT 8SM -RA SCT035TCU BKN040 BKN065 BKN230 25/20 A3000 RMK AO2 RAB19 VIS E AND SW LWR SHRA TCU E AND SW AND DSNT NW P0000=
200509291724 SPECI KATL 291724Z 25009G19KT 8SM -RA SCT035TCU BKN040 BKN065 BKN230 25/20 A3000 RMK AO2 RAB19 VIS E AND SW LWR SHRA TCU E AND SW AND DSNT NW P0000=
200509291717 SPECI KATL 291717Z 32014KT 10SM BKN030TCU BKN060 BKN230 27/19 A3000 RMK AO2 VIS LWR NE AND NW-N SHRA TCU NE AND OHD-W-NW-N=
200509291717 SPECI KATL 291717Z 32014KT 10SM BKN030TCU BKN060 BKN230 27/19 A3000 RMK AO2 VIS LWR NE AND NW-N SHRA TCU NE AND OHD-W-NW-N=
200509291710 SPECI KATL 291710Z 30011KT 10SM FEW030TCU BKN070 BKN250 28/19 A3001 RMK AO2 TCU W-N SHRA W-N=
200509291710 SPECI KATL 291710Z 30011KT 10SM FEW030TCU BKN070 BKN250 28/19 A3001 RMK AO2 TCU W-N SHRA W-N=
200509291651 METAR KATL 291651Z 26008KT 10SM FEW028 SCT070 BKN230 29/20 A3001 RMK AO2 SLP152 TCU DSNT NW-N T02940200=
200509291551 METAR KATL 291551Z 29009KT 10SM CLR SCT170 SCT230 28/21 A3002 RMK AO2 SLP156 T02780206=
200509291451 METAR KATL 291451Z 27008KT 9SM FEW020 SCT080 SCT250 26/21 A3003 RMK AO2 RAB13E23 SLP160 P0000 60000 T02610206 50008=
200509291351 METAR KATL 291351Z 26005KT 6SM HZ FEW015 SCT050 SCT080 SCT250 24/21 A3003 RMK AO2 SLP161 T02390206=
200509291251 METAR KATL 291251Z 25006KT 6SM BR FEW005 BKN065 BKN090 BKN250 21/20 A3003 RMK AO2 SLP159 ACC W-NW T02110200=
200509291240 SPECI KATL 291240Z 24004KT 5SM BR BKN005 BKN065 BKN140 BKN250 21/20 A3002 RMK AO2=
200509291240 SPECI KATL 291240Z 24004KT 5SM BR BKN005 BKN065 BKN140 BKN250 21/20 A3002 RMK AO2=
200509291151 METAR KATL 291151Z 20004KT 2 1/2SM BR OVC003 21/19 A3001 RMK AO2 SFC VIS 4 SLP153 T02060194 10222 20206 53003=
200509291133 SPECI KATL 291133Z 20006KT 2 1/2SM BR OVC003 21/19 A3000 RMK AO2 SFC VIS 5 TWRINC=
200509291133 SPECI KATL 291133Z 20006KT 2 1/2SM BR OVC003 21/19 A3000 RMK AO2 SFC VIS 5 TWRINC=
200509291059 SPECI KATL 291059Z 21004KT 6SM BR BKN004 BKN140 21/19 A2999 RMK AO2=
200509291059 SPECI KATL 291059Z 21004KT 6SM BR BKN004 BKN140 21/19 A2999 RMK AO2=
200509291051 METAR KATL 291051Z 23004KT 7SM BKN006 BKN140 21/19 A2999 RMK AO2 SLP146 T02060194=
200509290951 METAR KATL 290951Z 17007KT 150V210 6SM BR FEW006 BKN140 21/19 A2998 RMK AO2 SLP142 T02060194=
200509290851 METAR KATL 290851Z 17004KT 7SM FEW006 SCT100 SCT140 21/20 A3000 RMK AO2 SLP148 T02110200 58015=
200509290751 METAR KATL 290751Z 16004KT 6SM BR FEW008 SCT100 BKN140 22/20 A3002 RMK AO2 SLP154 T02170200=
200509290651 METAR KATL 290651Z 15006KT 6SM BR FEW010 SCT100 BKN140 22/20 A3003 RMK AO2 SLP159 T02170200=
200509290551 METAR KATL 290551Z 12003KT 7SM FEW025 SCT100 BKN140 22/20 A3004 RMK AO2 SLP163 T02220200 10244 20222 56001=
200509290459 SPECI KATL 290459Z 12004KT 9SM SCT025 BKN100 BKN150 23/20 A3004 RMK AO2=
200509290459 SPECI KATL 290459Z 12004KT 9SM SCT025 BKN100 BKN150 23/20 A3004 RMK AO2=
200509290451 METAR KATL 290451Z 11005KT 9SM BKN025 BKN050 BKN150 23/20 A3004 RMK AO2 SLP163 T02280200 402940217=
200509290442 SPECI KATL 290442Z 11005KT 9SM BKN025 BKN050 BKN150 23/20 A3005 RMK AO2=
200509290442 SPECI KATL 290442Z 11005KT 9SM BKN025 BKN050 BKN150 23/20 A3005 RMK AO2=
200509290351 METAR KATL 290351Z 11007KT 9SM FEW100 SCT150 23/20 A3004 RMK AO2 SLP163 T02280200=
200509290251 METAR KATL 290251Z 09006KT 10SM SCT060 BKN080 BKN150 23/21 A3004 RMK AO2 SLP164 T02280206 53014=
200509290151 METAR KATL 290151Z 09009KT 10SM FEW100 BKN150 23/21 A3003 RMK AO2 SLP161 T02330206=
200509290051 METAR KATL 290051Z 11008KT 10SM BKN100 BKN140 24/20 A3001 RMK AO2 SLP152 T02440200=
200509282351 METAR KATL 282351Z 08009KT 10SM FEW070 SCT140 24/20 A3000 RMK AO2 SLP151 T02390200 10294 20233 53001=
200509282251 METAR KATL 282251Z 11008KT 10SM FEW070 BKN140 26/19 A3000 RMK AO2 SLP151 T02560189=
200509282151 METAR KATL 282151Z 09010KT 9SM SCT035TCU BKN050 BKN150 26/20 A3000 RMK AO2 SLP148 TCU OHD-W CB DSNT E AND NW T02610200=
200509282051 METAR KATL 282051Z 12006KT 10SM FEW040TCU BKN060 BKN100 28/18 A3000 RMK AO2 SLP148 TCU SE AND SW-NW T02830183 56016=
200509281951 METAR KATL 281951Z VRB06KT 9SM FEW040 SCT060 SCT100 29/18 A3001 RMK AO2 SLP151 T02890183=
200509281851 METAR KATL 281851Z 16007KT 120V190 9SM FEW035 BKN050 BKN100 29/18 A3002 RMK AO2 SLP156 TCU DSNT N-NE-E AND DSNT SW T02890183=
200509281751 METAR KATL 281751Z 12009KT 9SM FEW030 SCT050 SCT100 28/19 A3005 RMK AO2 SLP165 T02830189 10283 20217 58011=
200509281651 METAR KATL 281651Z 12008KT 8SM SCT030 BKN040 BKN080 27/19 A3007 RMK AO2 SLP173 T02670194=
200509281551 METAR KATL 281551Z 12006KT 8SM SCT017 SCT045 SCT080 26/19 A3008 RMK AO2 SLP176 T02610194=
200509281451 METAR KATL 281451Z 12006KT 6SM HZ BKN015 BKN045 BKN180 24/20 A3008 RMK AO2 SLP178 T02440200 51015=
200509281351 METAR KATL 281351Z 11006KT 5SM HZ BKN010 BKN055 BKN150 BKN240 24/21 A3008 RMK AO2 SLP175 T02390206=
200509281251 METAR KATL 281251Z 09006KT 4SM BR SCT010 BKN032 BKN065 BKN130 23/21 A3006 RMK AO2 SLP170 VIS NE-SE 1 1/2 T02280206=
200509281151 METAR KATL 281151Z 09005KT 5SM BR SCT032 BKN065 BKN130 22/20 A3004 RMK AO2 SLP163 T02170200 10228 20217 51008=
200509281051 METAR KATL 281051Z 08008KT 8SM SCT060 OVC120 22/20 A3003 RMK AO2 SLP161 BINOVC T02170200=
200509280951 METAR KATL 280951Z 07005KT 9SM OVC100 22/20 A3002 RMK AO2 SLP155 T02220200=
200509280851 METAR KATL 280851Z 10005KT 10SM OVC095 23/20 A3001 RMK AO2 SLP153 T02280200 55002=
200509280751 METAR KATL 280751Z 12003KT 10SM FEW065 BKN085 BKN130 23/20 A3001 RMK AO2 SLP151 T02280200=
200509280651 METAR KATL 280651Z 00000KT 10SM BKN065 BKN090 BKN120 23/20 A3002 RMK AO2 SLP153 T02280200=
200509280551 METAR KATL 280551Z 11005KT 10SM BKN075 BKN120 23/20 A3002 RMK AO2 SLP155 T02280200 10250 20228 52001=
200509280451 METAR KATL 280451Z 10004KT 10SM FEW060 BKN130 23/20 A3002 RMK AO2 SLP154 T02330200 403000211=
200509280351 METAR KATL 280351Z 10004KT 10SM BKN050 BKN110 24/21 A3002 RMK AO2 SLP155 T02390206=
200509280251 METAR KATL 280251Z 11004KT 10SM SCT065 BKN090 BKN110 24/21 A3002 RMK AO2 SLP154 T02440206 51009=
200509280151 METAR KATL 280151Z 00000KT 10SM FEW070 OVC090 24/21 A3001 RMK AO2 SLP153 BINOVC T02440211=
200509280051 METAR KATL 280051Z 00000KT 10SM FEW045 SCT070 BKN090 OVC130 24/21 A3000 RMK AO2 SLP150 T02440206=
200509272351 METAR KATL 272351Z 19005KT 10SM BKN045 BKN070 OVC110 25/22 A2999 RMK AO2 SLP146 CB DSNT SW-W 60000 T02500217 10300 20250 53010=
200509272251 METAR KATL 272251Z 18005KT 10SM BKN040CB BKN060 26/20 A2997 RMK AO2 RAB34E51 SLP140 CB VC SW MOV W TCU ALQDS VCSH SW P0000 T02560200=
200509272151 METAR KATL 272151Z 06009KT 10SM FEW045TCU SCT070 29/18 A2996 RMK AO2 SLP135 TCU NE-OHD-SW AND NW T02940178=
200509272051 METAR KATL 272051Z 05010KT 10SM FEW040 SCT070 28/18 A2996 RMK AO2 SLP135 TCU DSNT NE AND DSNT SE-SW T02830183 56017=
200509271951 METAR KATL 271951Z 08006KT 10SM FEW035 SCT050 28/18 A2997 RMK AO2 SLP138 TCU DSNT E-SW AND DSNT NW T02830183=
200509271851 METAR KATL 271851Z 03007KT 10SM SCT035TCU 29/19 A2999 RMK AO2 SLP146 TCU N-NE-E AND SW-W-NW T02890189=
200509271751 METAR KATL 271751Z 10007KT 060V130 10SM SCT035TCU 28/19 A3001 RMK AO2 SLP152 TCU SE-NW MDT CU ALQDS T02780194 10289 20211 58005=
200509271651 METAR KATL 271651Z 06008KT 10SM FEW030 SCT050 BKN060 28/19 A3002 RMK AO2 SLP157 MDT CU NE-S T02780194=
200509271611 SPECI KATL 271611Z 07008KT 040V110 10SM BKN030 BKN040 BKN050 27/19 A3003 RMK AO2=
200509271611 SPECI KATL 271611Z 07008KT 040V110 10SM BKN030 BKN040 BKN050 27/19 A3003 RMK AO2=
200509271551 METAR KATL 271551Z 06007KT 10SM BKN026 BKN050 BKN100 26/19 A3003 RMK AO2 SLP160 T02610194=
200509271451 METAR KATL 271451Z 05008KT 10SM FEW025 SCT100 26/19 A3003 RMK AO2 SLP159 T02560194 51010=
200509271351 METAR KATL 271351Z 05007KT 8SM FEW045 24/19 A3002 RMK AO2 SLP157 T02440194=
200509271251 METAR KATL 271251Z 02010KT 5SM HZ FEW008 SCT045 22/19 A3001 RMK AO2 SLP153 T02220194=
200509271227 SPECI KATL 271227Z 02010KT 2SM BR SCT006 22/19 A3001 RMK AO2 SFC VIS 5=
200509271227 SPECI KATL 271227Z 02010KT 2SM BR SCT006 22/19 A3001 RMK AO2 SFC VIS 5=
200509271202 SPECI KATL 271202Z 02007KT 2SM BR OVC006 21/20 A3000 RMK AO2 SFC VIS 5=
200509271202 SPECI KATL 271202Z 02007KT 2SM BR OVC006 21/20 A3000 RMK AO2 SFC VIS 5=
200509271151 METAR KATL 271151Z 02007KT 2SM BR OVC004 21/19 A3000 RMK AO2 SFC VIS 4 SLP150 70004 T02110194 10222 20211 51016=
200509271127 SPECI KATL 271127Z 06006KT 2SM BR OVC003 21/20 A2999 RMK AO2 SFC VIS 5 TWRINC=
200509271127 SPECI KATL 271127Z 06006KT 2SM BR OVC003 21/20 A2999 RMK AO2 SFC VIS 5 TWRINC=
200509271051 METAR KATL 271051Z 05008KT 4SM BR OVC004 21/20 A2998 RMK AO2 SLP145 T02110200=
200509271044 SPECI KATL 271044Z 07004KT 4SM BR OVC004 21/20 A2998 RMK AO2=
200509271044 SPECI KATL 271044Z 07004KT 4SM BR OVC004 21/20 A2998 RMK AO2=
200509271034 SPECI KATL 271034Z 04005KT 7SM BKN006 22/20 A2998 RMK AO2=
200509271034 SPECI KATL 271034Z 04005KT 7SM BKN006 22/20 A2998 RMK AO2=
200509270951 METAR KATL 270951Z 01007KT 8SM FEW006 21/20 A2997 RMK AO2 SLP139 T02110200=
200509270851 METAR KATL 270851Z 34008KT 8SM FEW014 21/20 A2995 RMK AO2 SLP133 T02110200 57009=
200509270751 METAR KATL 270751Z 33004KT 9SM FEW018 21/20 A2996 RMK AO2 SLP135 T02110200=
200509270651 METAR KATL 270651Z 34004KT 10SM SCT018 22/21 A2997 RMK AO2 SLP139 T02170206=
200509270551 METAR KATL 270551Z 34004KT 10SM BKN018 22/20 A2998 RMK AO2 SLP142 T02220200 10233 20217 53001=
200509270533 SPECI KATL 270533Z 00000KT 10SM BKN018 22/20 A2998 RMK AO2=
200509270533 SPECI KATL 270533Z 00000KT 10SM BKN018 22/20 A2998 RMK AO2=
200509270451 METAR KATL 270451Z 00000KT 10SM FEW045 22/19 A2997 RMK AO2 SLP140 T02170194 402500211=
200509270423 SPECI KATL 270423Z 00000KT 10SM FEW025 BKN045 23/20 A2997 RMK AO2=
200509270423 SPECI KATL 270423Z 00000KT 10SM FEW025 BKN045 23/20 A2997 RMK AO2=
200509270351 METAR KATL 270351Z 32004KT 10SM BKN015 BKN032 OVC045 23/20 A2998 RMK AO2 SLP142 T02280200=
200509270304 SPECI KATL 270304Z 00000KT 10SM BKN015 OVC035 23/20 A2998 RMK AO2=
200509270304 SPECI KATL 270304Z 00000KT 10SM BKN015 OVC035 23/20 A2998 RMK AO2=
200509270251 METAR KATL 270251Z 00000KT 10SM SCT016 OVC035 23/20 A2997 RMK AO2 SLP141 T02280200 51006=
200509270151 METAR KATL 270151Z 00000KT 10SM BKN015 OVC022 23/20 A2997 RMK AO2 SLP141 T02280200=
200509270125 SPECI KATL 270125Z 19003KT 10SM SCT015 BKN022 OVC050 23/19 A2997 RMK AO2=
200509270125 SPECI KATL 270125Z 19003KT 10SM SCT015 BKN022 OVC050 23/19 A2997 RMK AO2=
200509270051 METAR KATL 270051Z 18005KT 10SM SCT018 BKN050 OVC065 23/19 A2996 RMK AO2 SLP138 T02280194=
200509262351 METAR KATL 262351Z 18003KT 10SM BKN018 OVC025 23/20 A2995 RMK AO2 SLP135 T02330200 10250 20233 53003=
200509262317 SPECI KATL 262317Z 00000KT 10SM BKN022 BKN030 OVC045 23/19 A2995 RMK AO2 BINOVC=
200509262317 SPECI KATL 262317Z 00000KT 10SM BKN022 BKN030 OVC045 23/19 A2995 RMK AO2 BINOVC=
200509262251 METAR KATL 262251Z 18004KT 10SM SCT020 BKN030 BKN045 24/19 A2994 RMK AO2 SLP131 T02390194=
200509262231 SPECI KATL 262231Z 18006KT 10SM SCT022 BKN030 OVC080 24/19 A2994 RMK AO2 BINOVC=
200509262231 SPECI KATL 262231Z 18006KT 10SM SCT022 BKN030 OVC080 24/19 A2994 RMK AO2 BINOVC=
200509262213 SPECI KATL 262213Z 18003KT 10SM BKN022 BKN030 OVC080 24/19 A2994 RMK AO2=
200509262213 SPECI KATL 262213Z 18003KT 10SM BKN022 BKN030 OVC080 24/19 A2994 RMK AO2=
200509262151 METAR KATL 262151Z 21005KT 10SM SCT026 BKN032 OVC080 24/19 A2994 RMK AO2 SLP130 T02390189=
200509262051 METAR KATL 262051Z 21009KT 10SM BKN025 BKN045 BKN070 OVC150 24/19 A2995 RMK AO2 SLP131 T02440189 56007=
200509262004 SPECI KATL 262004Z 18009KT 10SM BKN026 BKN047 BKN070 BKN150 25/19 A2995 RMK AO2=
200509262004 SPECI KATL 262004Z 18009KT 10SM BKN026 BKN047 BKN070 BKN150 25/19 A2995 RMK AO2=
200509261951 METAR KATL 261951Z 19011KT 10SM FEW030 BKN045 BKN070 BKN150 25/18 A2994 RMK AO2 SLP131 T02500183=
200509261920 SPECI KATL 261920Z 20012KT 10SM FEW027 BKN040 BKN070 BKN150 24/18 A2995 RMK AO2=
200509261920 SPECI KATL 261920Z 20012KT 10SM FEW027 BKN040 BKN070 BKN150 24/18 A2995 RMK AO2=
200509261851 METAR KATL 261851Z 19008KT 10SM BKN025 BKN040 BKN070 OVC150 24/18 A2995 RMK AO2 SLP134 T02440183=
200509261751 METAR KATL 261751Z 19009KT 10SM SCT018 BKN025 BKN090 BKN150 24/19 A2997 RMK AO2 SLP139 60004 T02390194 10239 20211 58011=
200509261551 METAR KATL 261551Z 19008KT 5SM -DZ BR SCT009 BKN015 BKN060 OVC150 22/21 A3000 RMK AO2 RAE44DZB44 SLP150 P0001 T02170206=
200509261504 SPECI KATL 261504Z 18007KT 5SM -RA BR FEW007 BKN015 OVC025 22/20 A3000 RMK AO2 P0001=
200509261504 SPECI KATL 261504Z 18007KT 5SM -RA BR FEW007 BKN015 OVC025 22/20 A3000 RMK AO2 P0001=
200509261451 METAR KATL 261451Z 17008KT 4SM -RA BR BKN012 BKN015 OVC025 22/20 A3000 RMK AO2 SLP150 P0002 60003 T02170200 53002=
200509261406 SPECI KATL 261406Z 18006KT 7SM -RA FEW010 BKN019 BKN035 OVC150 21/20 A3000 RMK AO2 P0001=
200509261406 SPECI KATL 261406Z 18006KT 7SM -RA FEW010 BKN019 BKN035 OVC150 21/20 A3000 RMK AO2 P0001=
200509261351 METAR KATL 261351Z 18007KT 8SM -RA SCT008 BKN035 BKN080 OVC140 21/20 A3000 RMK AO2 RAE04B32 SLP148 P0000 T02110200=
200509261254 SPECI KATL 261254Z 18005KT 9SM -RA BKN008 OVC045 21/19 A3000 RMK AO2 P0000=
200509261254 SPECI KATL 261254Z 18005KT 9SM -RA BKN008 OVC045 21/19 A3000 RMK AO2 P0000=
200509261251 METAR KATL 261251Z 17008KT 8SM -RA FEW008 BKN012 OVC050 21/19 A3000 RMK AO2 SLP148 P0001 T02110194=
200509261240 SPECI KATL 261240Z 15010KT 8SM -RA FEW008 BKN012 OVC050 21/19 A2999 RMK AO2 P0000=
200509261240 SPECI KATL 261240Z 15010KT 8SM -RA FEW008 BKN012 OVC050 21/19 A2999 RMK AO2 P0000=
200509261151 METAR KATL 261151Z 16009KT 10SM -RA FEW010 SCT030 BKN070 OVC140 21/19 A2999 RMK AO2 SLP147 P0001 60001 70001 T02110189 10250 20211 51003=
200509261051 METAR KATL 261051Z 16008KT 10SM -RA SCT040 OVC065 22/18 A2999 RMK AO2 RAB07 SLP147 P0000 T02170183=
200509260951 METAR KATL 260951Z 17006KT 10SM OVC065 22/18 A2999 RMK AO2 SLP144 T02220178=
200509260851 METAR KATL 260851Z 16008KT 10SM BKN065 OVC080 23/18 A2998 RMK AO2 SLP142 T02280178 56010=
200509260751 METAR KATL 260751Z 16007KT 10SM SCT050 BKN075 OVC140 23/17 A2999 RMK AO2 SLP146 T02330172=
200509260651 METAR KATL 260651Z 15009KT 10SM BKN055 OVC085 24/18 A3000 RMK AO2 SLP148 T02390178=
200509260551 METAR KATL 260551Z 15009KT 9SM BKN050 OVC065 25/18 A3002 RMK AO2 SLP153 T02500178 10267 20244 53001=
200509260451 METAR KATL 260451Z 17009G15KT 10SM SCT050 BKN070 OVC250 25/18 A3001 RMK AO2 SLP153 T02500178 402940211=
200509260351 METAR KATL 260351Z 16009KT 10SM FEW055 BKN070 OVC250 26/17 A3001 RMK AO2 SLP152 T02560172=
200509260251 METAR KATL 260251Z 14008KT 10SM SCT060 BKN120 BKN250 26/17 A3001 RMK AO2 SLP153 T02560172 56005=
200509260151 METAR KATL 260151Z 15010KT 10SM BKN060 BKN080 OVC250 26/17 A3002 RMK AO2 SLP156 T02610167=
200509260051 METAR KATL 260051Z 13007KT 10SM FEW060 SCT080 SCT120 BKN250 26/17 A3002 RMK AO2 SLP156 T02610167=
200509252351 METAR KATL 252351Z 14006KT 10SM SCT065 SCT120 BKN250 27/17 A3003 RMK AO2 SLP159 T02670167 10294 20267 55002=
200509252251 METAR KATL 252251Z 13009KT 10SM FEW060 SCT200 BKN250 28/16 A3000 RMK AO2 SLP151 T02780161=
200509252151 METAR KATL 252151Z 15012G18KT 10SM FEW050 SCT220 29/16 A3002 RMK AO2 SLP157 T02890161=
200509252051 METAR KATL 252051Z 13012G21KT 10SM SCT049 SCT060 BKN240 29/16 A3003 RMK AO2 SLP160 TCU DSNT NE T02940161 58023=
200509251951 METAR KATL 251951Z 16012G17KT 10SM SCT045 BKN060 BKN240 28/17 A3006 RMK AO2 SLP169 TCU DSNT NE MDT CU ALQDS T02830167=
200509251851 METAR KATL 251851Z 15014G20KT 10SM FEW041 SCT055 BKN240 28/18 A3008 RMK AO2 SLP177 MDT CU ALQDS T02830178=
200509251751 METAR KATL 251751Z 13012G18KT 9SM SCT032 BKN039 BKN200 28/19 A3010 RMK AO2 SLP183 MDT CU ALQDS T02780189 10278 20211 58022=
200509251651 METAR KATL 251651Z 14008KT 9SM SCT030 BKN041 BKN060 26/19 A3014 RMK AO2 SLP198 T02610189=
200509251551 METAR KATL 251551Z 13011G17KT 3SM SCT022 BKN036 BKN050 25/19 A3016 RMK AO2 SFC VIS 9 SLP205 T02500189=
200509251451 METAR KATL 251451Z 13007KT 3SM BKN010 BKN017 BKN026 24/20 A3017 RMK AO2 SFC VIS 7 SLP207 T02390200 50004=
200509251409 SPECI KATL 251409Z 14010KT 3SM BKN010 OVC015 22/20 A3018 RMK AO2 SFC VIS 7 CIG 006V013=
200509251409 SPECI KATL 251409Z 14010KT 3SM BKN010 OVC015 22/20 A3018 RMK AO2 SFC VIS 7 CIG 006V013=
200509251351 METAR KATL 251351Z 14008KT 3SM BKN008 OVC012 22/20 A3018 RMK AO2 SFC VIS 7 CIG 005V009 SLP210 T02220200=
200509251251 METAR KATL 251251Z 13007KT 3SM OVC008 22/20 A3017 RMK AO2 SFC VIS 7 CIG 005V011 SLP208 T02170200=
200509251223 SPECI KATL 251223Z 12009KT 3SM BKN006 OVC009 22/20 A3016 RMK AO2 SFC VIS 7=
200509251223 SPECI KATL 251223Z 12009KT 3SM BKN006 OVC009 22/20 A3016 RMK AO2 SFC VIS 7=
200509251151 METAR KATL 251151Z 13007KT 3SM BR OVC004 21/20 A3016 RMK AO2 SFC VIS 6 SLP204 T02110200 10233 20211 53012=
200509251112 SPECI KATL 251112Z 13008KT 3SM OVC004 21/19 A3014 RMK AO2 SFC VIS 7=
200509251112 SPECI KATL 251112Z 13008KT 3SM OVC004 21/19 A3014 RMK AO2 SFC VIS 7=
200509251051 METAR KATL 251051Z 12007KT 3SM OVC006 21/19 A3013 RMK AO2 SFC VIS 7 SLP193 T02110194=
200509250951 METAR KATL 250951Z 11009KT 9SM BKN008 21/19 A3012 RMK AO2 SLP191 T02110189=
200509250943 SPECI KATL 250943Z 11008KT 9SM BKN008 21/18 A3012 RMK AO2=
200509250943 SPECI KATL 250943Z 11008KT 9SM BKN008 21/18 A3012 RMK AO2=
200509250851 METAR KATL 250851Z 12007KT 10SM BKN200 22/18 A3012 RMK AO2 SLP190 T02170183 51002=
200509250751 METAR KATL 250751Z 13007KT 10SM BKN200 22/18 A3012 RMK AO2 SLP189 T02220183=
200509250651 METAR KATL 250651Z 13006KT 10SM BKN200 23/18 A3013 RMK AO2 SLP191 T02280178=
200509250551 METAR KATL 250551Z 12007KT 10SM FEW130 BKN200 23/17 A3012 RMK AO2 SLP188 T02330172 10272 20233 50003=
200509250451 METAR KATL 250451Z 14006KT 10SM FEW130 SCT200 24/17 A3014 RMK AO2 SLP194 T02440167 403110211=
200509250351 METAR KATL 250351Z 13005KT 10SM FEW080 SCT110 BKN200 25/17 A3012 RMK AO2 SLP189 T02500167=
200509250251 METAR KATL 250251Z 12006KT 10SM BKN130 OVC200 26/17 A3011 RMK AO2 SLP185 T02560167 51009=
200509250151 METAR KATL 250151Z 13010KT 10SM BKN200 26/17 A3010 RMK AO2 SLP183 T02610167=
200509250051 METAR KATL 250051Z 11007KT 10SM BKN200 27/17 A3009 RMK AO2 SLP181 T02670167=
200509242351 METAR KATL 242351Z 11009KT 10SM FEW150 OVC200 27/17 A3008 RMK AO2 SLP177 T02720167 10311 20272 56001=
200509242251 METAR KATL 242251Z 11010KT 10SM FEW150 OVC200 28/16 A3008 RMK AO2 SLP176 T02830161=
200509242151 METAR KATL 242151Z 13008KT 10SM FEW055 SCT110 BKN200 30/16 A3008 RMK AO2 SLP176 T03000156=
200509242051 METAR KATL 242051Z 13008KT 10SM SCT060 SCT090 BKN150 BKN200 31/16 A3008 RMK AO2 SLP176 T03060156 56012=
200509241951 METAR KATL 241951Z 12008KT 10SM SCT055 SCT090 BKN150 BKN250 30/16 A3009 RMK AO2 SLP178 T03000161=
200509241851 METAR KATL 241851Z 14011KT 9SM SCT049 SCT100 BKN140 BKN250 30/17 A3010 RMK AO2 SLP181 T03000167=
200509241751 METAR KATL 241751Z 09011KT 9SM FEW039 SCT100 SCT130 BKN250 29/18 A3012 RMK AO2 SLP188 T02890183 10289 20217 58012=
200509241651 METAR KATL 241651Z 13007KT 090V160 9SM FEW027 SCT100 BKN300 28/20 A3015 RMK AO2 SLP198 T02830200=
200509241551 METAR KATL 241551Z 10010KT 9SM FEW018 SCT100 BKN300 27/20 A3016 RMK AO2 SLP202 T02670200=
200509241506 SPECI KATL 241506Z 11006KT 3SM SCT012 25/21 A3016 RMK AO2 SFC VIS 10=
200509241506 SPECI KATL 241506Z 11006KT 3SM SCT012 25/21 A3016 RMK AO2 SFC VIS 10=
200509241451 METAR KATL 241451Z 09007KT 3SM BKN010 BKN300 24/21 A3016 RMK AO2 SFC VIS 10 CIG 006V012 SLP203 T02390206 51011=
200509241443 SPECI KATL 241443Z 11006KT 3SM BKN010 24/21 A3015 RMK AO2 SFC VIS 10 CIG 005V013=
200509241443 SPECI KATL 241443Z 11006KT 3SM BKN010 24/21 A3015 RMK AO2 SFC VIS 10 CIG 005V013=
200509241433 SPECI KATL 241433Z 09007KT 3SM BKN006 OVC012 23/21 A3015 RMK AO2 SFC VIS 10 CIG 003V010=
200509241433 SPECI KATL 241433Z 09007KT 3SM BKN006 OVC012 23/21 A3015 RMK AO2 SFC VIS 10 CIG 003V010=
200509241428 SPECI KATL 241428Z 10006KT 1 1/4SM BKN006 OVC011 23/21 A3015 RMK AO2 SFC VIS 10 CIG 003V010=
200509241428 SPECI KATL 241428Z 10006KT 1 1/4SM BKN006 OVC011 23/21 A3015 RMK AO2 SFC VIS 10 CIG 003V010=
200509241354 SPECI KATL 241354Z 11005KT 1 1/4SM BR OVC002 22/21 A3015 RMK AO2 SFC VIS 4 CIG 001V006=
200509241354 SPECI KATL 241354Z 11005KT 1 1/4SM BR OVC002 22/21 A3015 RMK AO2 SFC VIS 4 CIG 001V006=
200509241351 METAR KATL 241351Z 12005KT 1/2SM BR OVC002 22/21 A3015 RMK AO2 SFC VIS 4 CIG 001V006 SLP201 T02170211=
200509241251 METAR KATL 241251Z 11004KT 1/2SM R09R/4000VP6000FT BR OVC002 22/21 A3014 RMK AO2 SFC VIS 1 3/4 CIG 001V004 SLP196 T02170206=
200509241226 SPECI KATL 241226Z 12006KT 1/2SM OVC004 22/21 A3013 RMK AO2 SFC VIS 7=
200509241226 SPECI KATL 241226Z 12006KT 1/2SM OVC004 22/21 A3013 RMK AO2 SFC VIS 7=
200509241151 METAR KATL 241151Z VRB05KT 1 1/2SM BR OVC002 22/21 A3012 RMK AO2 SFC VIS 6 SLP191 T02170206 10233 20211 53014=
200509241115 SPECI KATL 241115Z VRB04KT 1/2SM BR OVC004 22/21 A3010 RMK AO2 SFC VIS 6=
200509241115 SPECI KATL 241115Z VRB04KT 1/2SM BR OVC004 22/21 A3010 RMK AO2 SFC VIS 6=
200509241102 SPECI KATL 241102Z 14003KT 1 1/2SM BR OVC004 22/20 A3010 RMK AO2 SFC VIS 6=
200509241102 SPECI KATL 241102Z 14003KT 1 1/2SM BR OVC004 22/20 A3010 RMK AO2 SFC VIS 6=
200509241051 METAR KATL 241051Z 15006KT 8SM OVC004 22/20 A3010 RMK AO2 SLP182 T02170200=
200509241022 SPECI KATL 241022Z 13004KT 10SM BKN006 22/19 A3009 RMK AO2=
200509241022 SPECI KATL 241022Z 13004KT 10SM BKN006 22/19 A3009 RMK AO2=
200509241010 SPECI KATL 241010Z 12006KT 10SM FEW006 22/19 A3009 RMK AO2=
200509241010 SPECI KATL 241010Z 12006KT 10SM FEW006 22/19 A3009 RMK AO2=
200509240951 METAR KATL 240951Z 14004KT 9SM FEW250 22/19 A3008 RMK AO2 SLP177 T02170189=
200509240851 METAR KATL 240851Z 13005KT 10SM CLR 22/19 A3008 RMK AO2 SLP175 T02220194 55005=
200509240751 METAR KATL 240751Z 11005KT 10SM SCT250 22/19 A3008 RMK AO2 SLP174 T02220189=
200509240651 METAR KATL 240651Z 14005KT 10SM BKN250 23/18 A3009 RMK AO2 SLP179 T02280183=
200509240551 METAR KATL 240551Z 12005KT 10SM BKN250 23/18 A3010 RMK AO2 SLP180 T02330183 10272 20233 51002=
200509240451 METAR KATL 240451Z 11004KT 10SM BKN250 24/18 A3010 RMK AO2 SLP180 T02390178 403060206=
200509240351 METAR KATL 240351Z 09005KT 10SM BKN250 24/18 A3010 RMK AO2 SLP183 T02390183=
200509240251 METAR KATL 240251Z 09005KT 10SM BKN250 24/18 A3009 RMK AO2 SLP180 T02390183 51009=
200509240151 METAR KATL 240151Z VRB04KT 10SM BKN250 26/18 A3008 RMK AO2 SLP177 T02610178=
200509240051 METAR KATL 240051Z 00000KT 10SM BKN250 26/18 A3007 RMK AO2 SLP174 T02610183=
200509232351 METAR KATL 232351Z 14004KT 10SM BKN250 OVC300 27/18 A3006 RMK AO2 SLP171 T02720178 10306 20272 53006=
200509232251 METAR KATL 232251Z 15006KT 10SM FEW050 BKN250 OVC300 28/18 A3005 RMK AO2 SLP167 T02830178=
200509232151 METAR KATL 232151Z 14007KT 10SM FEW050 BKN250 OVC300 29/18 A3004 RMK AO2 SLP163 T02940178=
200509232051 METAR KATL 232051Z 14008KT 10SM FEW050 BKN240 BKN350 29/17 A3004 RMK AO2 SLP163 T02940172 56020=
200509231951 METAR KATL 231951Z 14011KT 10SM FEW045 BKN240 BKN350 30/18 A3005 RMK AO2 SLP165 T03000178=
200509231851 METAR KATL 231851Z 14009KT 10SM FEW045 BKN240 BKN350 30/18 A3008 RMK AO2 SLP175 MDT CU N-NE AND S-SW T03000178=
200509231751 METAR KATL 231751Z 13010KT 10SM SCT040 SCT180 BKN240 BKN350 29/18 A3010 RMK AO2 SLP183 60000 T02890183 10300 20211 58009 $=
200509231651 METAR KATL 231651Z 11006G14KT 10SM FEW030 SCT240 BKN350 28/18 A3012 RMK AO2 SLP187 T02830183 $=
200509231551 METAR KATL 231551Z 10007KT 10SM FEW030 SCT240 BKN350 27/19 A3012 RMK AO2 SLP191 T02720189 $=
200509231451 METAR KATL 231451Z 10004KT 10SM FEW012 SCT240 BKN350 24/20 A3013 RMK AO2 SLP194 60000 T02440200 51014 $=
200509231420 SPECI KATL 231420Z 10006KT 10SM BKN011 BKN016 BKN240 23/20 A3014 RMK AO2 $=
200509231420 SPECI KATL 231420Z 10006KT 10SM BKN011 BKN016 BKN240 23/20 A3014 RMK AO2 $=
200509231415 SPECI KATL 231415Z 09007KT 10SM SCT008 OVC013 23/20 A3014 RMK AO2 BINOVC $=
200509231415 SPECI KATL 231415Z 09007KT 10SM SCT008 OVC013 23/20 A3014 RMK AO2 BINOVC $=
200509231359 SPECI KATL 231359Z 09006KT 10SM BKN006 OVC013 23/21 A3013 RMK AO2 CIG 004V011 BINOVC $=
200509231359 SPECI KATL 231359Z 09006KT 10SM BKN006 OVC013 23/21 A3013 RMK AO2 CIG 004V011 BINOVC $=
200509231351 METAR KATL 231351Z 08006KT 10SM BKN004 OVC009 22/21 A3013 RMK AO2 DZE37 SLP194 BINOVC N AND SW P0000 T02220206 $=
200509231338 SPECI KATL 231338Z 09006KT 8SM OVC004 22/21 A3013 RMK AO2 DZE37 CIG 003V008 P0000 $=
200509231338 SPECI KATL 231338Z 09006KT 8SM OVC004 22/21 A3013 RMK AO2 DZE37 CIG 003V008 P0000 $=
200509231309 SPECI KATL 231309Z 07008KT 1SM -DZ BR OVC002 22/21 A3011 RMK AO2 SFC VIS 3 P0000 $=
200509231309 SPECI KATL 231309Z 07008KT 1SM -DZ BR OVC002 22/21 A3011 RMK AO2 SFC VIS 3 P0000 $=
200509231251 METAR KATL 231251Z 08007KT 1/2SM R09R/5500VP6000FT -DZ BR OVC002 22/21 A3010 RMK AO2 SFC VIS 1 DZB29 SLP185 P0000 T02170206 $=
200509231230 SPECI KATL 231230Z 08007KT 1SM R09R/P6000FT -DZ BR OVC002 21/21 A3010 RMK AO2 DZB29 P0000 $=
200509231230 SPECI KATL 231230Z 08007KT 1SM R09R/P6000FT -DZ BR OVC002 21/21 A3010 RMK AO2 DZB29 P0000 $=
200509231214 SPECI KATL 231214Z 09007KT 1 1/2SM OVC003 21/20 A3009 RMK AO2 SFC VIS 7 TWRINC $=
200509231214 SPECI KATL 231214Z 09007KT 1 1/2SM OVC003 21/20 A3009 RMK AO2 SFC VIS 7 TWRINC $=
200509231151 METAR KATL 231151Z 09006KT 2 1/2SM BR OVC003 21/20 A3009 RMK AO2 SFC VIS 5 SLP180 TWRINC T02110200 10228 20206 53009 $=
200509231122 SPECI KATL 231122Z 07007KT 2 1/2SM OVC002 21/20 A3008 RMK AO2 SFC VIS 7 TWRINC $=
200509231122 SPECI KATL 231122Z 07007KT 2 1/2SM OVC002 21/20 A3008 RMK AO2 SFC VIS 7 TWRINC $=
200509231051 METAR KATL 231051Z 10005KT 8SM OVC004 22/21 A3008 RMK AO2 SLP175 T02170206=
200509231014 SPECI KATL 231014Z 12005KT 10SM OVC004 22/20 A3007 RMK AO2 CIG 003V007=
200509231014 SPECI KATL 231014Z 12005KT 10SM OVC004 22/20 A3007 RMK AO2 CIG 003V007=
200509230951 METAR KATL 230951Z 11005KT 10SM BKN008 BKN300 21/19 A3007 RMK AO2 SLP171 T02110194=
200509230932 SPECI KATL 230932Z 10005KT 10SM BKN008 BKN300 21/19 A3006 RMK AO2=
200509230932 SPECI KATL 230932Z 10005KT 10SM BKN008 BKN300 21/19 A3006 RMK AO2=
200509230851 METAR KATL 230851Z 10005KT 10SM FEW008 SCT300 21/19 A3006 RMK AO2 SLP170 T02110189 51004=
200509230751 METAR KATL 230751Z 10005KT 10SM FEW010 SCT300 22/19 A3006 RMK AO2 SLP169 T02170189=
200509230651 METAR KATL 230651Z 13004KT 10SM FEW012 SCT300 22/19 A3006 RMK AO2 SLP167 T02220194=
200509230551 METAR KATL 230551Z 13005KT 9SM FEW250 23/19 A3005 RMK AO2 SLP166 T02280189 10278 20228 55004=
200509230451 METAR KATL 230451Z 13004KT 10SM FEW250 23/19 A3004 RMK AO2 SLP163 T02330194 403000211=
200509230351 METAR KATL 230351Z 13006KT 10SM SCT250 24/19 A3005 RMK AO2 SLP166 T02390189=
200509230251 METAR KATL 230251Z 13006KT 10SM FEW050 BKN250 25/19 A3006 RMK AO2 SLP171 T02500194 51009=
200509230151 METAR KATL 230151Z 14005KT 10SM SCT055 BKN250 26/19 A3006 RMK AO2 SLP170 T02560194=
200509230051 METAR KATL 230051Z VRB06KT 10SM BKN055 BKN250 27/19 A3005 RMK AO2 SLP166 T02720189=
200509222351 METAR KATL 222351Z 10007KT 10SM FEW045 SCT250 28/18 A3003 RMK AO2 SLP160 TCU DSNT NE AND SE T02780183 10300 20278 53002=
200509222251 METAR KATL 222251Z 09007KT 10SM FEW045 SCT250 28/18 A3003 RMK AO2 SLP159 TCU DSNT E-SE AND SW T02830183=
200509222151 METAR KATL 222151Z 10006KT 10SM FEW045TCU SCT065 29/18 A3003 RMK AO2 SLP157 TCU VC NE AND SW AND W MDT CU SE T02890183=
200509222051 METAR KATL 222051Z 07007KT 10SM FEW045 SCT065 29/19 A3003 RMK AO2 SLP157 TCU DSNT E-NW T02940189 56022=
200509221951 METAR KATL 221951Z 10006KT 10SM FEW040 SCT050 SCT090 29/18 A3004 RMK AO2 SLP163 TCU DSNT SW ACSL DSNT NW T02940183=
200509221851 METAR KATL 221851Z VRB05KT 10SM FEW040 SCT050 29/18 A3007 RMK AO2 SLP172 T02940183 $=
200509221751 METAR KATL 221751Z 12008KT 090V160 10SM SCT030 SCT040 28/19 A3009 RMK AO2 SLP180 MDT CU SW AND NW T02830189 10283 20217 58009 $=
200509221651 METAR KATL 221651Z 13010KT 10SM BKN030 28/19 A3011 RMK AO2 SLP184 T02830194=
200509221627 SPECI KATL 221627Z 11009KT 10SM SCT028 27/19 A3011 RMK AO2=
200509221627 SPECI KATL 221627Z 11009KT 10SM SCT028 27/19 A3011 RMK AO2=
200509221551 METAR KATL 221551Z 11008KT 10SM BKN025 26/20 A3011 RMK AO2 SLP187 BKN025 V SCT T02560200=
200509221526 SPECI KATL 221526Z 11009KT 10SM BKN015 BKN025 25/20 A3012 RMK AO2=
200509221526 SPECI KATL 221526Z 11009KT 10SM BKN015 BKN025 25/20 A3012 RMK AO2=
200509221451 METAR KATL 221451Z 10008KT 10SM BKN012 BKN080 24/20 A3012 RMK AO2 SLP190 T02390200 51007=
200509221351 METAR KATL 221351Z 12007KT 9SM BKN010 23/20 A3012 RMK AO2 SLP190 T02280200=
200509221334 SPECI KATL 221334Z 10008KT 10SM BKN010 23/20 A3012 RMK AO2 CIG 007V013=
200509221334 SPECI KATL 221334Z 10008KT 10SM BKN010 23/20 A3012 RMK AO2 CIG 007V013=
200509221251 METAR KATL 221251Z 11006KT 10SM OVC006 22/20 A3011 RMK AO2 CIG 005V010 SLP185 T02220200=
200509221156 SPECI KATL 221156Z 12007KT 9SM OVC004 22/21 A3010 RMK AO2=
200509221156 SPECI KATL 221156Z 12007KT 9SM OVC004 22/21 A3010 RMK AO2=
200509221151 METAR KATL 221151Z 12008KT 2SM OVC004 22/21 A3010 RMK AO2 SFC VIS 9 SLP183 TWRINC T02170206 10239 20211 53013=
200509221051 METAR KATL 221051Z 11006KT 2SM OVC002 22/21 A3008 RMK AO2 SFC VIS 7 SLP176 TWRINC T02170206 $=
200509221032 SPECI KATL 221032Z 10007KT 2SM OVC004 22/21 A3008 RMK AO2 SFC VIS 7 CIG 002V008 TWRINC $=
200509221032 SPECI KATL 221032Z 10007KT 2SM OVC004 22/21 A3008 RMK AO2 SFC VIS 7 CIG 002V008 TWRINC $=
200509221015 SPECI KATL 221015Z 08007KT 3SM BKN004 22/20 A3008 RMK AO2 SFC VIS 8 $=
200509221015 SPECI KATL 221015Z 08007KT 3SM BKN004 22/20 A3008 RMK AO2 SFC VIS 8 $=
200509221011 SPECI KATL 221011Z 08007KT 8SM BKN006 21/20 A3008 RMK AO2 $=
200509221011 SPECI KATL 221011Z 08007KT 8SM BKN006 21/20 A3008 RMK AO2 $=
200509221009 SPECI KATL 221009Z 08007KT 8SM SCT006 21/20 A3008 RMK AO2 $=
200509221009 SPECI KATL 221009Z 08007KT 8SM SCT006 21/20 A3008 RMK AO2 $=
200509220951 METAR KATL 220951Z 08007KT 8SM SCT012 21/20 A3007 RMK AO2 SLP172 T02110200 $=
200509220917 SPECI KATL 220917Z 10004KT 10SM SCT013 22/20 A3007 RMK AO2 $=
200509220917 SPECI KATL 220917Z 10004KT 10SM SCT013 22/20 A3007 RMK AO2 $=
200509220851 METAR KATL 220851Z 11007KT 10SM BKN013 23/20 A3006 RMK AO2 SLP169 T02280200 57003 $=
200509220830 SPECI KATL 220830Z 09006KT 10SM BKN013 22/20 A3006 RMK AO2 $=
200509220830 SPECI KATL 220830Z 09006KT 10SM BKN013 22/20 A3006 RMK AO2 $=
200509220751 METAR KATL 220751Z 11007KT 10SM CLR 23/20 A3006 RMK AO2 SLP168 T02280200 $=
200509220651 METAR KATL 220651Z 11006KT 9SM CLR 23/19 A3007 RMK AO2 SLP170 T02330194 $=
200509220551 METAR KATL 220551Z 14004KT 8SM CLR 23/19 A3007 RMK AO2 SLP171 T02330194 10289 20233 58003=
200509220451 METAR KATL 220451Z 14006KT 10SM CLR 24/19 A3008 RMK AO2 SLP174 T02440194 403220217=
200509220351 METAR KATL 220351Z 13006KT 10SM SCT080 26/19 A3008 RMK AO2 SLP175 T02560194=
200509220251 METAR KATL 220251Z 12006KT 10SM FEW055 BKN080 27/19 A3008 RMK AO2 SLP175 T02670189 50009=
200509220151 METAR KATL 220151Z 12005KT 10SM SCT055 BKN090 27/19 A3008 RMK AO2 SLP176 T02720189=
200509220051 METAR KATL 220051Z 11006KT 10SM FEW055 28/18 A3007 RMK AO2 SLP173 T02830183=
200509212351 METAR KATL 212351Z 10005KT 10SM FEW150 29/18 A3005 RMK AO2 SLP166 T02890178 10322 20289 53002=
200509212251 METAR KATL 212251Z 09009KT 10SM FEW055 30/18 A3005 RMK AO2 SLP163 T03000178=
200509212151 METAR KATL 212151Z 09007KT 10SM FEW060 31/17 A3004 RMK AO2 SLP160 MDT CU SE AND SW AND NW T03110172=
200509212051 METAR KATL 212051Z 08010KT 9SM FEW060 31/17 A3005 RMK AO2 SLP163 TCU DSNT N AND MDT CU SW-NW T03060172 56021=
200509211951 METAR KATL 211951Z VRB06KT 9SM SCT055 32/18 A3006 RMK AO2 SLP166 MDT CU W-N T03220178=
200509211851 METAR KATL 211851Z 14007KT 9SM SCT055 32/18 A3008 RMK AO2 SLP174 TCU DSNT SW-W AND MDT CU ALQDS T03170178=
200509211751 METAR KATL 211751Z VRB06KT 8SM SCT047 30/19 A3011 RMK AO2 SLP185 TCU DSNT N AND DSNT SW-W T03000189 10311 20217 58008=
200509211651 METAR KATL 211651Z 10006KT 8SM FEW045 30/19 A3012 RMK AO2 SLP189 TCU DSNT W T03000194=
200509211551 METAR KATL 211551Z 00000KT 9SM CLR 29/20 A3013 RMK AO2 SLP192 T02890200=
200509211451 METAR KATL 211451Z VRB03KT 9SM CLR 27/19 A3013 RMK AO2 SLP193 T02670194 55000=
200509211351 METAR KATL 211351Z 00000KT 8SM CLR 25/20 A3013 RMK AO2 SLP192 T02500200=
200509211251 METAR KATL 211251Z 21003KT 6SM HZ CLR 23/20 A3013 RMK AO2 SLP193 T02280200=
200509211151 METAR KATL 211151Z 16003KT 6SM BR CLR 22/19 A3014 RMK AO2 SLP194 T02170194 10244 20217 51013=
200509211051 METAR KATL 211051Z 14003KT 6SM HZ FEW250 22/19 A3012 RMK AO2 SLP190 T02220189=
200509210951 METAR KATL 210951Z 14004KT 7SM CLR 22/19 A3011 RMK AO2 SLP186 T02200189=
200509210851 METAR KATL 210851Z 00000KT 6SM HZ CLR 23/19 A3010 RMK AO2 SLP181 T02280194 56004=
200509210751 METAR KATL 210751Z 00000KT 6SM HZ CLR 24/19 A3010 RMK AO2 SLP180 T02390194=
200509210251 METAR KATL 210251Z 00000KT 10SM CLR 27/19 A3013 RMK AO2 SLP192 T02720189 52005=
200509210151 METAR KATL 210151Z 19003KT 10SM CLR 28/19 A3012 RMK AO2 SLP190 T02780189=
200509210051 METAR KATL 210051Z 16003KT 10SM FEW055 29/19 A3012 RMK AO2 SLP189 T02890189=
200509202351 METAR KATL 202351Z 16003KT 9SM FEW055 30/18 A3011 RMK AO2 SLP187 T03000183 10322 20294 53001=
200509202251 METAR KATL 202251Z 00000KT 10SM FEW055 31/18 A3011 RMK AO2 SLP186 MDT CU SW T03110183=
200509202151 METAR KATL 202151Z 10005KT 10SM FEW055 32/18 A3011 RMK AO2 SLP185 MDT CU N AND SW-W T03170183=
200509202051 METAR KATL 202051Z 00000KT 8SM FEW050 SCT070 32/19 A3011 RMK AO2 SLP186 T03170189 56019=
200509201951 METAR KATL 201951Z 25003KT 9SM SCT050 32/18 A3012 RMK AO2 SLP189 T03170183=
200509201851 METAR KATL 201851Z 20004KT 8SM SCT050 31/19 A3015 RMK AO2 SLP197 T03110189=
200509201751 METAR KATL 201751Z 24004KT 8SM SCT040 SCT060 BKN070 29/19 A3017 RMK AO2 SLP205 MDT CU SE-SW T02940194 10311 20211 58016=
200509201651 METAR KATL 201651Z 08005KT 8SM SCT040 SCT060 31/21 A3020 RMK AO2 SLP213 MDT CU NE AND W T03110206=
200509201551 METAR KATL 201551Z 33003KT 8SM BKN065 28/21 A3021 RMK AO2 SLP219 ACC OHD AND ALQDS T02830206=
200509201451 METAR KATL 201451Z 24005KT 9SM FEW060 SCT200 BKN250 27/21 A3022 RMK AO2 SLP222 T02720211 51005=
200509201351 METAR KATL 201351Z 21005KT 7SM FEW075 SCT150 SCT200 BKN250 24/20 A3021 RMK AO2 SLP221 T02440200=
200509201251 METAR KATL 201251Z 00000KT 7SM FEW180 SCT250 23/18 A3021 RMK AO2 SLP220 T02280183=
200509201151 METAR KATL 201151Z 00000KT 5SM HZ FEW018 SCT250 22/17 A3020 RMK AO2 SLP218 T02170167 10250 20211 53011 $=
200509201051 METAR KATL 201051Z 00000KT 8SM FEW250 21/16 A3019 RMK AO2 SLP213 T02110161=
200509200951 METAR KATL 200951Z 00000KT 8SM FEW250 22/16 A3018 RMK AO2 SLP208 T02170156=
200509200851 METAR KATL 200851Z 05003KT 10SM FEW250 22/15 A3017 RMK AO2 SLP205 T02220150 53001=
200509200751 METAR KATL 200751Z 02003KT 9SM CLR 23/15 A3016 RMK AO2 SLP202 T02280150=
200509200651 METAR KATL 200651Z 03003KT 10SM CLR 24/15 A3016 RMK AO2 SLP202 T02440150=
200509200551 METAR KATL 200551Z 00000KT 9SM CLR 22/16 A3017 RMK AO2 SLP205 T02220161 10289 20222 50001=
200509200451 METAR KATL 200451Z 01003KT 10SM CLR 25/16 A3018 RMK AO2 SLP209 T02500161 403220178=
200509200351 METAR KATL 200351Z 00000KT 10SM FEW010 26/15 A3017 RMK AO2 SLP207 FU FEW010 T02560150=
200509200251 METAR KATL 200251Z 00000KT 10SM CLR 26/16 A3016 RMK AO2 SLP204 T02560156 50005=
200509200151 METAR KATL 200151Z 00000KT 10SM CLR 26/14 A3017 RMK AO2 SLP206 T02610144=
200509200051 METAR KATL 200051Z 15003KT 10SM CLR 28/14 A3016 RMK AO2 SLP205 T02780139=
200509192351 METAR KATL 192351Z 13003KT 10SM CLR 29/13 A3015 RMK AO2 SLP200 T02890133 10322 20289 55000=
200509192251 METAR KATL 192251Z 11005KT 10SM CLR 30/12 A3015 RMK AO2 SLP200 T03000122=
200509192151 METAR KATL 192151Z 08006KT 10SM CLR 32/12 A3014 RMK AO2 SLP198 T03170117=
200509192051 METAR KATL 192051Z VRB03KT 10SM CLR 32/11 A3015 RMK AO2 SLP199 T03220111 56018=
200509191951 METAR KATL 191951Z 20003KT 10SM CLR 31/11 A3016 RMK AO2 SLP204 T03110106=
200509191851 METAR KATL 191851Z VRB03KT 10SM CLR 31/14 A3018 RMK AO2 SLP210 T03060139=
200509191751 METAR KATL 191751Z VRB04KT 10SM CLR 31/15 A3020 RMK AO2 SLP216 T03060150 10306 20200 58010=
200509191651 METAR KATL 191651Z VRB05KT 10SM CLR 29/16 A3021 RMK AO2 SLP220 T02940156=
200509191551 METAR KATL 191551Z 31007KT 10SM CLR 29/15 A3022 RMK AO2 SLP224 T02890150=
200509191451 METAR KATL 191451Z 00000KT 10SM CLR 27/15 A3023 RMK AO2 SLP227 T02670150 51013 $=
200509191351 METAR KATL 191351Z 08004KT 10SM CLR 24/16 A3023 RMK AO2 SLP226 T02440156=
200509191251 METAR KATL 191251Z 08003KT 7SM FEW250 23/16 A3021 RMK AO2 SLP219 T02280156=
200509191151 METAR KATL 191151Z 00000KT 10SM FEW200 20/15 A3019 RMK AO2 SLP215 T02000150 10228 20178 53019=
200509191051 METAR KATL 191051Z 32005KT 10SM CLR 18/14 A3016 RMK AO2 SLP205 T01780144 $=
200509190951 METAR KATL 190951Z 00000KT 10SM CLR 18/14 A3014 RMK AO2 SLP198 T01830144 $=
200509190851 METAR KATL 190851Z 34005KT 10SM CLR 19/14 A3013 RMK AO2 SLP194 T01890144 53001 $=
200509190751 METAR KATL 190751Z 33005KT 10SM CLR 19/14 A3013 RMK AO2 SLP193 T01940144 $=
200509190651 METAR KATL 190651Z 00000KT 10SM CLR 21/14 A3013 RMK AO2 SLP191 T02110139 $=
200509190551 METAR KATL 190551Z VRB03KT 10SM FEW250 22/14 A3013 RMK AO2 SLP192 T02220139 10267 20217 50002 $=
200509190451 METAR KATL 190451Z 33003KT 10SM CLR 22/14 A3013 RMK AO2 SLP193 T02220139 403110189 $=
200509190351 METAR KATL 190351Z 34004KT 10SM FEW200 23/13 A3013 RMK AO2 SLP192 T02330133 $=
200509190251 METAR KATL 190251Z 36007KT 10SM FEW200 24/13 A3012 RMK AO2 SLP190 T02440128 53013 $=
200509190151 METAR KATL 190151Z 01006KT 10SM FEW200 26/14 A3011 RMK AO2 SLP185 T02560139 $=
200509190051 METAR KATL 190051Z 36011KT 10SM FEW250 27/15 A3009 RMK AO2 SLP181 T02670150 $=
200509182351 METAR KATL 182351Z 28005KT 10SM FEW250 26/16 A3008 RMK AO2 SLP179 T02610156 10311 20261 51004 $=
200509182251 METAR KATL 182251Z 28010KT 10SM FEW200 SCT250 28/15 A3008 RMK AO2 SLP178 T02830150 $=
200509182151 METAR KATL 182151Z 30012KT 10SM FEW065 BKN250 30/14 A3007 RMK AO2 SLP174 T03000144 $=
200509182051 METAR KATL 182051Z 31010KT 10SM FEW065 SCT200 BKN250 31/16 A3007 RMK AO2 SLP172 T03110156 56010 $=
200509181951 METAR KATL 181951Z 32011KT 10SM FEW065 SCT200 BKN250 31/15 A3007 RMK AO2 SLP174 T03060150 $=
200509181851 METAR KATL 181851Z 35009KT 10SM FEW250 30/14 A3008 RMK AO2 SLP177 T03000139 $=
200509181751 METAR KATL 181751Z 29008KT 10SM FEW250 29/13 A3010 RMK AO2 SLP183 T02940133 10294 20194 58005 $=
200509181651 METAR KATL 181651Z 25004KT 10SM FEW250 28/14 A3012 RMK AO2 SLP190 T02830139 $=
200509181551 METAR KATL 181551Z 31008KT 10SM CLR 27/13 A3013 RMK AO2 SLP191 T02720133 $=
200509181451 METAR KATL 181451Z 32007KT 10SM CLR 26/17 A3012 RMK AO2 SLP189 T02610167 53008 $=
200509181351 METAR KATL 181351Z 34007KT 10SM CLR 24/16 A3011 RMK AO2 SLP187 T02390161 $=
200509181251 METAR KATL 181251Z 32005KT 10SM CLR 22/17 A3010 RMK AO2 SLP183 T02170167=
200509181151 METAR KATL 181151Z 31004KT 10SM FEW180 19/17 A3009 RMK AO2 SLP182 T01940167 10222 20189 53013=
200509181051 METAR KATL 181051Z 30005KT 10SM FEW250 19/17 A3007 RMK AO2 SLP175 T01940167=
200509180951 METAR KATL 180951Z 31005KT 10SM CLR 19/17 A3006 RMK AO2 SLP171 T01940167=
200509180851 METAR KATL 180851Z 32004KT 10SM CLR 21/17 A3005 RMK AO2 SLP168 T02060172 53001=
200509180751 METAR KATL 180751Z 31003KT 10SM CLR 21/17 A3005 RMK AO2 SLP166 T02060172=
200509180651 METAR KATL 180651Z 31004KT 10SM CLR 21/18 A3005 RMK AO2 SLP164 T02110178=
200509180551 METAR KATL 180551Z 31005KT 10SM CLR 22/19 A3005 RMK AO2 SLP165 T02170189 10261 20217 51002=
200509180451 METAR KATL 180451Z 30007KT 10SM CLR 23/20 A3005 RMK AO2 SLP165 T02280200 403000200=
200509180351 METAR KATL 180351Z 28006KT 10SM CLR 23/21 A3005 RMK AO2 SLP165 T02330211=
200509180251 METAR KATL 180251Z 27006KT 9SM FEW100 24/22 A3004 RMK AO2 SLP164 T02390217 53010=
200509180151 METAR KATL 180151Z 27006KT 10SM FEW100 24/22 A3003 RMK AO2 SLP161 T02440217=
200509180051 METAR KATL 180051Z 26006KT 10SM CLR 25/22 A3002 RMK AO2 SLP157 T02500217=
200509172351 METAR KATL 172351Z 26006KT 8SM FEW100 26/22 A3001 RMK AO2 SLP153 60000 T02610217 10300 20250 52002=
200509172251 METAR KATL 172251Z 27009KT 9SM FEW035 28/22 A3001 RMK AO2 SLP153 T02780217=
200509172151 METAR KATL 172151Z 28006KT 10SM R09R/6000VP6000FT FEW032CB 29/22 A3001 RMK AO2 RAB2054E06 SLP151 CB VC W AND DSNT SE P0000 T02890217=
200509172051 METAR KATL 172051Z 26005KT 10SM FEW034CB SCT065 SCT100 SCT250 28/21 A3000 RMK AO2 SLP150 CB S-SW-W AND DSNT NE MOV SE SHRA SW-W T02830211 56020=
200509171951 METAR KATL 171951Z 32006KT 10SM FEW038TCU BKN050 BKN100 BKN250 28/21 A3002 RMK AO2 SLP155 TCU ALQDS T02830211=
200509171851 METAR KATL 171851Z 26008KT 210V300 10SM FEW034CB SCT040TCU SCT100 BKN250 29/21 A3004 RMK AO2 SLP160 CB W-NW MOV SE TCU NE-E SHRA W-NW T02940211=
200509171751 METAR KATL 171751Z 23009KT 10SM SCT034TCU SCT100 SCT250 29/21 A3006 RMK AO2 SLP170 TCU N NE AND W-NW T02890206 10294 20200 58010=
200509171651 METAR KATL 171651Z 25006KT 10SM FEW026 SCT100 SCT250 28/21 A3008 RMK AO2 SLP174 T02830211=
200509171551 METAR KATL 171551Z VRB04KT 8SM FEW016 SCT085 SCT250 26/21 A3009 RMK AO2 SLP179 T02610211=
200509171451 METAR KATL 171451Z 30006KT 7SM FEW012 SCT090 SCT250 24/21 A3009 RMK AO2 SLP182 T02440211 53009=
200509171351 METAR KATL 171351Z 30006KT 7SM FEW012 SCT095 SCT250 23/21 A3008 RMK AO2 SLP177 T02330206=
200509171251 METAR KATL 171251Z 30005KT 6SM BR BKN110 22/20 A3007 RMK AO2 SLP174 T02170200=
200509171151 METAR KATL 171151Z 29004KT 6SM BR SCT100 20/19 A3007 RMK AO2 SLP173 70001 T02000194 10222 20200 53010=
200509171051 METAR KATL 171051Z 28005KT 4SM BR CLR 21/19 A3006 RMK AO2 SLP169 T02060194=
200509170951 METAR KATL 170951Z 27004KT 6SM BR CLR 21/19 A3004 RMK AO2 SLP163 T02110194=
200509170851 METAR KATL 170851Z 24003KT 8SM CLR 22/19 A3004 RMK AO2 SLP160 T02170194 58005=
200509170751 METAR KATL 170751Z 21003KT 6SM BR CLR 22/20 A3004 RMK AO2 SLP162 T02170200=
200509170651 METAR KATL 170651Z 00000KT 6SM BR CLR 22/20 A3005 RMK AO2 SLP164 T02220200=
200509170551 METAR KATL 170551Z 00000KT 5SM BR CLR 22/20 A3005 RMK AO2 SLP165 T02220200 10250 20222 58006=
200509170451 METAR KATL 170451Z 00000KT 7SM CLR 24/20 A3005 RMK AO2 SLP166 T02390200 403110222=
200509170351 METAR KATL 170351Z 00000KT 8SM CLR 23/20 A3007 RMK AO2 SLP170 T02330200=
200509170251 METAR KATL 170251Z 30003KT 9SM SCT250 24/19 A3007 RMK AO2 SLP171 T02390194 53013=
200509170151 METAR KATL 170151Z 30003KT 10SM FEW200 SCT250 24/20 A3006 RMK AO2 SLP169 T02390200=
200509170051 METAR KATL 170051Z 30004KT 10SM FEW150 SCT200 BKN250 25/20 A3004 RMK AO2 SLP161 T02500200=
200509162351 METAR KATL 162351Z 00000KT 8SM FEW140 SCT200 BKN250 25/20 A3003 RMK AO2 SLP159 60001 T02500200 10311 20250 56005=
200509162251 METAR KATL 162251Z 30011KT 8SM FEW100 BKN150 OVC200 26/21 A3004 RMK AO2 RAE28 SLP164 P0000 T02560211=
200509162151 METAR KATL 162151Z 30005KT 7SM -RA FEW040 SCT075 BKN140 OVC200 27/21 A3003 RMK AO2 RAB36 SLP159 CB DSNT SW P0001 T02720206=
200509162051 METAR KATL 162051Z 28008KT 10SM FEW045 SCT060 BKN150 BKN230 30/19 A3004 RMK AO2 SLP163 CB DSNT W TCU DSNT NE SHRA DSNT NW T03000189 56018=
200509161958 SPECI KATL 161958Z VRB03KT 10SM FEW045 SCT090 SCT150 31/19 A3006 RMK AO2 CB DSNT S=
200509161958 SPECI KATL 161958Z VRB03KT 10SM FEW045 SCT090 SCT150 31/19 A3006 RMK AO2 CB DSNT S=
200509161951 METAR KATL 161951Z 32010KT 3SM HZ FEW045 SCT090 SCT150 31/19 A3006 RMK AO2 SLP167 CB DSNT S T03060194=
200509161851 METAR KATL 161851Z 32009KT 10SM FEW040 BKN080 BKN150 30/19 A3008 RMK AO2 SLP173 T03000194=
200509161751 METAR KATL 161751Z 31010KT 8SM FEW035 SCT080 SCT150 31/21 A3010 RMK AO2 SLP180 CB DSNT SE T03060206 10306 20228 58004=
200509161651 METAR KATL 161651Z 35013KT 7SM FEW040TCU BKN045 BKN065 BKN150 29/21 A3011 RMK AO2 SLP186 TCU OHD-SW-W T02890206=
200509161551 METAR KATL 161551Z 30015G19KT 8SM FEW035 SCT150 SCT230 30/20 A3012 RMK AO2 SLP189 T03000200=
200509161451 METAR KATL 161451Z 29011KT 8SM FEW230 28/21 A3011 RMK AO2 SLP186 T02830206 51013=
200509161351 METAR KATL 161351Z 29011KT 8SM FEW230 27/21 A3010 RMK AO2 SLP183 T02670211=
200509161251 METAR KATL 161251Z 27006KT 7SM CLR 24/21 A3008 RMK AO2 SLP176 T02440206=
200509161151 METAR KATL 161151Z 28005KT 7SM CLR 23/20 A3007 RMK AO2 SLP172 T02280200 10244 20222 51009=
200509161051 METAR KATL 161051Z 28006KT 8SM CLR 22/20 A3006 RMK AO2 SLP169 T02220200=
200509160951 METAR KATL 160951Z 28004KT 9SM FEW150 23/20 A3005 RMK AO2 SLP166 T02280200=
200509160851 METAR KATL 160851Z 30005KT 10SM CLR 23/20 A3004 RMK AO2 SLP162 T02280200 55004=
200509160751 METAR KATL 160751Z 29004KT 10SM CLR 23/20 A3004 RMK AO2 SLP162 T02330200=
200509160651 METAR KATL 160651Z 29005KT 10SM SCT120 24/21 A3005 RMK AO2 SLP162 T02390206=
200509160551 METAR KATL 160551Z 29006KT 10SM BKN130 24/21 A3006 RMK AO2 SLP166 T02440206 10289 20239 58006=
200509160451 METAR KATL 160451Z 26007KT 10SM FEW080 OVC130 24/21 A3008 RMK AO2 SLP175 T02440206 403280206=
200509160351 METAR KATL 160351Z 30010KT 10SM FEW080 BKN130 25/21 A3008 RMK AO2 SLP174 T02500211=
200509160251 METAR KATL 160251Z 27003KT 10SM FEW090 26/21 A3007 RMK AO2 SLP173 T02610206 51012=
200509160151 METAR KATL 160151Z 29005KT 10SM FEW090 SCT130 27/20 A3006 RMK AO2 SLP169 T02670200=
200509160051 METAR KATL 160051Z 30007KT 10SM FEW100 BKN130 28/20 A3005 RMK AO2 SLP167 T02780200=
200509152351 METAR KATL 152351Z 30007KT 9SM FEW050 BKN120 29/19 A3004 RMK AO2 SLP161 TCU DSNT SE T02890194 10328 20289 53010=
200509152251 METAR KATL 152251Z 29008KT 10SM SCT050CB BKN110 30/19 A3002 RMK AO2 SLP156 CB N-NE MOV SE MDT CU SE SHRA N-NE T03000189=
200509152151 METAR KATL 152151Z 28009KT 10SM FEW055 32/19 A3000 RMK AO2 SLP149 MDT CU OHD-SE AND SW AND VC NW T03170189=
200509152051 METAR KATL 152051Z 26006KT 8SM FEW050 SCT110 32/19 A3001 RMK AO2 SLP150 T03170194 56018=
200509151951 METAR KATL 151951Z VRB04KT 6SM HZ FEW050 SCT110 31/19 A3002 RMK AO2 SLP153 T03110194=
200509151851 METAR KATL 151851Z 01006KT 5SM HZ FEW045 31/19 A3003 RMK AO2 SLP159 T03110194=
200509151751 METAR KATL 151751Z VRB04KT 5SM HZ FEW040 SCT060 SCT200 31/20 A3006 RMK AO2 SLP168 MDT CU SE T03060200 10311 20211 58009=
200509151651 METAR KATL 151651Z VRB04KT 7SM FEW040 SCT200 29/21 A3008 RMK AO2 SLP175 MDT CU SW-W T02940206=
200509151551 METAR KATL 151551Z 31006KT 7SM FEW030 SCT200 28/21 A3009 RMK AO2 SLP178 T02830206=
200509151451 METAR KATL 151451Z 31007KT 6SM HZ FEW200 BKN280 27/20 A3009 RMK AO2 SLP178 T02720200 53010=
200509151351 METAR KATL 151351Z 32006KT 5SM HZ SCT200 25/19 A3007 RMK AO2 SLP173 T02500194=
200509151251 METAR KATL 151251Z 30005KT 5SM HZ FEW250 23/19 A3007 RMK AO2 SLP172 T02330189=
200509151151 METAR KATL 151151Z 29004KT 6SM HZ CLR 21/18 A3005 RMK AO2 SLP168 T02110183 10233 20206 53014=
200509151051 METAR KATL 151051Z 28006KT 8SM FEW250 21/18 A3003 RMK AO2 SLP160 T02060178=
200509150951 METAR KATL 150951Z 29004KT 8SM FEW250 21/18 A3002 RMK AO2 SLP155 T02110178=
200509150851 METAR KATL 150851Z 00000KT 8SM FEW250 22/18 A3001 RMK AO2 SLP152 T02170178 53002=
200509150751 METAR KATL 150751Z 29007KT 8SM FEW250 22/18 A3000 RMK AO2 SLP149 T02170178=
200509150651 METAR KATL 150651Z 26003KT 8SM FEW250 23/18 A3000 RMK AO2 SLP149 T02280178=
200509150551 METAR KATL 150551Z 00000KT 8SM FEW250 23/18 A3001 RMK AO2 SLP150 T02330178 10267 20228 58004=
200509150451 METAR KATL 150451Z 00000KT 8SM FEW250 23/18 A3001 RMK AO2 SLP151 T02330178 403110183=
200509150351 METAR KATL 150351Z 29003KT 8SM FEW250 23/18 A3002 RMK AO2 SLP157 T02330178=
200509150251 METAR KATL 150251Z 28006KT 8SM CLR 24/18 A3002 RMK AO2 SLP154 T02390178 53014=
200509150151 METAR KATL 150151Z 28005KT 8SM CLR 24/17 A3000 RMK AO2 SLP149 T02440172=
200509150051 METAR KATL 150051Z 28005KT 8SM CLR 26/17 A2999 RMK AO2 SLP146 T02560172=
200509142351 METAR KATL 142351Z 29006KT 7SM CLR 27/17 A2997 RMK AO2 SLP142 T02670172 10311 20267 51008=
200509142251 METAR KATL 142251Z 31008KT 6SM HZ CLR 29/16 A2997 RMK AO2 SLP141 T02890161=
200509142151 METAR KATL 142151Z 31011KT 8SM FEW060 30/16 A2996 RMK AO2 SLP136 T03000156=
200509142051 METAR KATL 142051Z 31011KT 7SM FEW065 31/15 A2995 RMK AO2 SLP131 T03060150 56017=
200509141951 METAR KATL 141951Z 31011G16KT 7SM FEW065 31/16 A2996 RMK AO2 SLP134 T03060156=
200509141851 METAR KATL 141851Z 34015G19KT 7SM FEW065 31/13 A2997 RMK AO2 SLP139 T03060133=
200509141751 METAR KATL 141751Z 34011KT 6SM HZ FEW065 29/13 A3000 RMK AO2 SLP148 T02940133 10300 20189 58014=
200509141651 METAR KATL 141651Z 31011KT 7SM FEW060 29/14 A3002=
200509141551 METAR KATL 141551Z 32009KT 6SM HZ CLR 28/16 A3003 RMK AO2 SLP158 T02780156=
200509141451 METAR KATL 141451Z 32008KT 5SM HZ CLR 26/17 A3004 RMK AO2 SLP164 T02560167 51011=
200509141351 METAR KATL 141351Z 31011KT 5SM HZ CLR 23/16 A3004 RMK AO2 SLP162 T02280161=
200509141251 METAR KATL 141251Z 31008KT 6SM HZ CLR 21/16 A3002 RMK AO2 SLP159 T02060156=
200509141151 METAR KATL 141151Z 31008KT 6SM HZ CLR 19/15 A3001 RMK AO2 SLP152 T01890150 10206 20183 53014=
200509141051 METAR KATL 141051Z 31008KT 6SM HZ CLR 18/15 A2999 RMK AO2 SLP147 T01830150=
200509140951 METAR KATL 140951Z 30007KT 6SM HZ CLR 18/15 A2997 RMK AO2 SLP141 T01830150=
200509140851 METAR KATL 140851Z 30009KT 6SM HZ CLR 19/16 A2997 RMK AO2 SLP137 T01940156 53004=
200509140751 METAR KATL 140751Z 29007KT 5SM HZ CLR 19/16 A2996 RMK AO2 SLP134 T01940156=
200509140651 METAR KATL 140651Z 31007KT 9SM CLR 20/16 A2995 RMK AO2 SLP133 T02000161=
200509140551 METAR KATL 140551Z 31007KT 9SM CLR 21/16 A2995 RMK AO2 SLP133 T02060156 10278 20206 56011=
200509140451 METAR KATL 140451Z 30006KT 9SM CLR 21/16 A2997 RMK AO2 SLP137 T02110161 403110189=
200509140351 METAR KATL 140351Z 31006KT 9SM CLR 22/16 A2997 RMK AO2 SLP140 T02220161=
200509140251 METAR KATL 140251Z 31006KT 9SM CLR 23/16 A2999 RMK AO2 SLP144 T02330161 50005=
200509140151 METAR KATL 140151Z 30005KT 9SM CLR 24/16 A2999 RMK AO2 SLP148 T02390156=
200509140051 METAR KATL 140051Z 32005KT 9SM CLR 25/16 A2998 RMK AO2 SLP142 T02500156=
200509132351 METAR KATL 132351Z 32007KT 8SM CLR 28/14 A2997 RMK AO2 SLP140 T02780144 10311 20272 53000=
200509132251 METAR KATL 132251Z 32007KT 8SM CLR 29/14 A2997 RMK AO2 SLP138 T02890144=
200509132151 METAR KATL 132151Z 34009KT 8SM FEW250 30/14 A2996 RMK AO2 SLP137 T03000139=
200509132051 METAR KATL 132051Z 33011KT 8SM FEW060 31/14 A2997 RMK AO2 SLP139 T03060139 56016=
200509131951 METAR KATL 131951Z 32009KT 8SM FEW060 31/15 A2998 RMK AO2 SLP142 T03060150=
200509131851 METAR KATL 131851Z 32009KT 8SM FEW055 30/16 A3000 RMK AO2 SLP148 T03000156=
200509131751 METAR KATL 131751Z 36009KT 8SM FEW055 30/16 A3002 RMK AO2 SLP155 T03000161 10300 20200 57018=
200509131651 METAR KATL 131651Z 32008KT 290V010 7SM FEW040 SCT240 29/18 A3004 RMK AO2 SLP162 T02890183=
200509131551 METAR KATL 131551Z VRB04KT 8SM FEW240 28/17 A3006 RMK AO2 SLP170 T02780167=
200509131451 METAR KATL 131451Z 11003KT 9SM FEW240 26/16 A3008 RMK AO2 SLP175 T02610161 51004=
200509131351 METAR KATL 131351Z 09005KT 9SM FEW240 SCT280 25/15 A3008 RMK AO2 SLP175 T02500150=
200509131251 METAR KATL 131251Z 08003KT 4SM HZ CLR 22/18 A3007 RMK AO2 SLP174 T02220178=
200509131151 METAR KATL 131151Z 35004KT 4SM HZ FEW180 SCT210 SCT250 21/17 A3006 RMK AO2 SLP172 T02060167 10222 20189 53011=
200509131051 METAR KATL 131051Z 32005KT 9SM FEW180 SCT230 19/17 A3004 RMK AO2 SLP164 T01890167=
200509130951 METAR KATL 130951Z 32004KT 9SM CLR 19/17 A3004 RMK AO2 SLP162 T01890167=
200509130851 METAR KATL 130851Z 30004KT 9SM CLR 19/17 A3003 RMK AO2 SLP160 T01940167 56006=
200509130751 METAR KATL 130751Z 30005KT 9SM CLR 20/17 A3003 RMK AO2 SLP160 T02000172=
200509130651 METAR KATL 130651Z 33005KT 9SM CLR 21/17 A3004 RMK AO2 SLP164 T02060172=
200509130551 METAR KATL 130551Z 33003KT 9SM FEW250 22/17 A3005 RMK AO2 SLP166 T02220172 10278 20217 58009=
200509130451 METAR KATL 130451Z 30004KT 9SM FEW250 22/17 A3006 RMK AO2 SLP170 T02170167 403000167=
200509130351 METAR KATL 130351Z 00000KT 8SM FEW250 23/16 A3008 RMK AO2 SLP175 T02330161=
200509130251 METAR KATL 130251Z 31003KT 10SM CLR 24/16 A3008 RMK AO2 SLP176 T02440161 53006=
200509130151 METAR KATL 130151Z 31004KT 9SM CLR 26/16 A3007 RMK AO2 SLP173 T02560161=
200509130051 METAR KATL 130051Z 33005KT 10SM CLR 27/14 A3006 RMK AO2 SLP170 T02720144=
200509122351 METAR KATL 122351Z 36005KT 9SM CLR 27/14 A3006 RMK AO2 SLP169 T02720144 10300 20239 56007=
200509122251 METAR KATL 122251Z 02005KT 10SM FEW060 28/14 A3006 RMK AO2 SLP172 T02830139=
200509122151 METAR KATL 122151Z 35007KT 10SM SCT060 SCT250 29/15 A3007 RMK AO2 SLP173 T02940150=
200509122051 METAR KATL 122051Z 03010KT 10SM SCT065 29/14 A3008 RMK AO2 SLP177 T02890144 56020=
200509121951 METAR KATL 121951Z 33008KT 10SM FEW060 29/15 A3009 RMK AO2 SLP182 T02940150=
200509121851 METAR KATL 121851Z 32009KT 10SM FEW250 28/15 A3012 RMK AO2 SLP190 T02830150=
200509121751 METAR KATL 121751Z VRB04KT 10SM FEW250 27/14 A3014 RMK AO2 SLP198 T02670139 10278 20189 58026=
200509121651 METAR KATL 121651Z 31005KT 10SM CLR 26/14 A3017 RMK AO2 SLP207 T02610144=
200509121551 METAR KATL 121551Z VRB06KT 10SM CLR 23/14 A3020 RMK AO2 SLP220 T02330139=
200509121451 METAR KATL 121451Z 08010KT 10SM CLR 23/13 A3022 RMK AO2 SLP225 T02330128 50001=
200509121351 METAR KATL 121351Z 07007KT 10SM CLR 22/14 A3023 RMK AO2 SLP226 T02170139=
200509121251 METAR KATL 121251Z 06011KT 10SM CLR 19/13 A3022 RMK AO2 SLP227 T01890133=
200509121151 METAR KATL 121151Z 05009KT 10SM FEW210 19/13 A3022 RMK AO2 SLP226 T01940133 10217 20167 53008=
200509121051 METAR KATL 121051Z 05008KT 10SM FEW210 19/13 A3021 RMK AO2 SLP221 T01940133=
200509120951 METAR KATL 120951Z 06006KT 9SM CLR 19/14 A3020 RMK AO2 SLP216 T01890139=
200509120851 METAR KATL 120851Z 06008KT 9SM CLR 20/14 A3019 RMK AO2 SLP216 T02000139 56006=
200509120751 METAR KATL 120751Z 06006KT 9SM CLR 18/14 A3020 RMK AO2 SLP218 T01830139=
200509120651 METAR KATL 120651Z 05007KT 9SM CLR 20/14 A3020 RMK AO2 SLP218 T02000139=
200509120551 METAR KATL 120551Z 06007KT 8SM CLR 21/15 A3021 RMK AO2 SLP222 T02110150 10256 20183 51006=
200509120451 METAR KATL 120451Z 06008KT 7SM CLR 21/16 A3021 RMK AO2 SLP221 T02060156 402890194=
200509120351 METAR KATL 120351Z 07005KT 8SM FEW060 22/16 A3021 RMK AO2 SLP220 T02220156=
200509120251 METAR KATL 120251Z 08007KT 8SM SCT060 23/16 A3020 RMK AO2 SLP216 T02280161 51010=
200509120151 METAR KATL 120151Z 07010KT 9SM CLR 24/16 A3019 RMK AO2 SLP213 T02440156=
200509120051 METAR KATL 120051Z 09007KT 8SM CLR 25/16 A3018 RMK AO2 SLP211 T02500161=
200509112351 METAR KATL 112351Z 09006KT 7SM CLR 24/16 A3017 RMK AO2 SLP208 T02390156 10289 20233 55001=
200509112251 METAR KATL 112251Z 11008KT 8SM FEW060 27/16 A3016 RMK AO2 SLP206 T02720156=
200509112151 METAR KATL 112151Z 08008KT 8SM FEW060 28/16 A3017 RMK AO2 SLP206 T02780156=
200509112051 METAR KATL 112051Z 04009KT 8SM FEW050 28/15 A3017 RMK AO2 SLP206 T02780150 56022=
200509111951 METAR KATL 111951Z 05012G16KT 8SM CLR 29/16 A3019 RMK AO2 SLP212 T02890156=
200509111851 METAR KATL 111851Z 08009KT 9SM CLR 28/15 A3021 RMK AO2 SLP221 T02780150=
200509111751 METAR KATL 111751Z 02007KT 360V100 10SM CLR 27/15 A3024 RMK AO2 SLP229 T02720150 10272 20194 58012=
200509111651 METAR KATL 111651Z 06010G15KT 10SM CLR 27/14 A3026 RMK AO2 SLP236 T02670144=
200509111551 METAR KATL 111551Z 05010KT 10SM CLR 26/14 A3027 RMK AO2 SLP241 T02560139=
200509111451 METAR KATL 111451Z 09007KT 9SM CLR 24/13 A3027 RMK AO2 SLP242 T02390128 51013=
200509111351 METAR KATL 111351Z 09007KT 8SM CLR 22/14 A3026 RMK AO2 SLP240 T02170144=
200509111251 METAR KATL 111251Z 08006KT 5SM HZ CLR 21/16 A3024 RMK AO2 SLP233 T02060156=
200509111151 METAR KATL 111151Z 07006KT 4SM HZ CLR 19/16 A3023 RMK AO2 SLP229 T01940156 10233 20194 53020=
200509111051 METAR KATL 111051Z 07008KT 8SM CLR 19/16 A3021 RMK AO2 SLP221 T01940156=
200509110951 METAR KATL 110951Z 07009KT 8SM CLR 21/16 A3019 RMK AO2 SLP213 T02060156=
200509110851 METAR KATL 110851Z 04006KT 7SM CLR 22/15 A3017 RMK AO2 SLP207 T02170150 53006=
200509110751 METAR KATL 110751Z 05008KT 8SM CLR 22/15 A3017 RMK AO2 SLP205 T02170150=
200509110651 METAR KATL 110651Z 05008KT 9SM CLR 23/15 A3016 RMK AO2 SLP200 T02280150=
200509110551 METAR KATL 110551Z 06006KT 9SM CLR 23/14 A3015 RMK AO2 SLP201 T02280144 10267 20222 51002=
200509110451 METAR KATL 110451Z 04006KT 10SM CLR 24/14 A3015 RMK AO2 SLP200 T02390144 402890194=
200509110351 METAR KATL 110351Z 03006KT 10SM CLR 24/14 A3016 RMK AO2 SLP202 T02440144=
200509110251 METAR KATL 110251Z 05006KT 10SM CLR 24/15 A3015 RMK AO2 SLP199 T02390150 51012=
200509110151 METAR KATL 110151Z 04007KT 10SM CLR 26/15 A3014 RMK AO2 SLP196 T02560150=
200509110051 METAR KATL 110051Z 04008KT 10SM CLR 26/15 A3012 RMK AO2 SLP190 T02610150=
200509102351 METAR KATL 102351Z 07007KT 10SM CLR 27/14 A3011 RMK AO2 SLP187 T02670144 10289 20267 55000=
200509102251 METAR KATL 102251Z 06009KT 10SM CLR 28/14 A3010 RMK AO2 SLP185 T02780139=
200509102151 METAR KATL 102151Z 05009KT 10SM CLR 28/15 A3011 RMK AO2 SLP187 T02830150=
200509102051 METAR KATL 102051Z 04008KT 10SM CLR 29/14 A3011 RMK AO2 SLP187 T02890139 56015=
200509101951 METAR KATL 101951Z 04007G16KT 10SM CLR 29/13 A3012 RMK AO2 SLP191 T02890133=
200509101851 METAR KATL 101851Z 05010KT 10SM CLR 29/13 A3014 RMK AO2 SLP195 T02890128=
200509101751 METAR KATL 101751Z 09008KT 060V120 10SM CLR 28/13 A3015 RMK AO2 SLP201 T02780133 10283 20200 58007=
200509101651 METAR KATL 101651Z 10007KT 10SM CLR 27/13 A3017 RMK AO2 SLP206 T02720128=
200509101551 METAR KATL 101551Z 07008KT 10SM CLR 26/14 A3018 RMK AO2 SLP209 T02610139=
200509101451 METAR KATL 101451Z 05013KT 10SM CLR 25/13 A3018 RMK AO2 SLP209 T02500133 51011=
200509101351 METAR KATL 101351Z 07012KT 10SM CLR 23/13 A3017 RMK AO2 SLP209 T02330128=
200509101251 METAR KATL 101251Z 05008KT 10SM CLR 22/13 A3016 RMK AO2 SLP204 T02220128=
200509101151 METAR KATL 101151Z 05007KT 10SM CLR 20/13 A3014 RMK AO2 SLP198 T02000133 10228 20194 53019=
200509101051 METAR KATL 101051Z VRB04KT 10SM FEW250 20/14 A3012 RMK AO2 SLP190 T02000139=
200509100951 METAR KATL 100951Z 04007KT 10SM CLR 20/14 A3010 RMK AO2 SLP183 T02000139=
200509100851 METAR KATL 100851Z 04008KT 10SM CLR 20/14 A3009 RMK AO2 SLP179 T02000139 53003=
200509100751 METAR KATL 100751Z 03008KT 10SM CLR 21/14 A3008 RMK AO2 SLP176 T02110139=
200509100651 METAR KATL 100651Z 04008KT 10SM CLR 22/14 A3008 RMK AO2 SLP175 T02170144=
200509100551 METAR KATL 100551Z 04007KT 10SM CLR 23/14 A3008 RMK AO2 SLP173 T02330139 10267 20228 53003=
200509100451 METAR KATL 100451Z 05004KT 10SM CLR 23/14 A3007 RMK AO2 SLP174 T02330144 403000183=
200509100351 METAR KATL 100351Z 06004KT 10SM CLR 24/14 A3007 RMK AO2 SLP172 T02390144=
200509100251 METAR KATL 100251Z 06006KT 10SM CLR 24/14 A3007 RMK AO2 SLP172 T02440144 51009=
200509100151 METAR KATL 100151Z 09005KT 10SM CLR 25/14 A3006 RMK AO2 SLP171 T02500139=
200509100051 METAR KATL 100051Z 09007KT 10SM CLR 25/14 A3006 RMK AO2 SLP169 T02500144=
200509092351 METAR KATL 092351Z 09006KT 10SM FEW100 SCT200 27/14 A3004 RMK AO2 SLP163 T02670139 10300 20261 53007=
200509092251 METAR KATL 092251Z 05011KT 10SM FEW070 28/13 A3002 RMK AO2 SLP158 T02830133=
200509092151 METAR KATL 092151Z 04007KT 10SM FEW070 29/12 A3002 RMK AO2 SLP155 T02940117=
200509092051 METAR KATL 092051Z 06007KT 10SM FEW065 29/13 A3002 RMK AO2 SLP155 T02890133 56015=
200509091951 METAR KATL 091951Z 36007KT 10SM SCT065 29/13 A3003 RMK AO2 SLP159 T02890128=
200509091851 METAR KATL 091851Z VRB06G14KT 10SM SCT065 28/13 A3005 RMK AO2 SLP166 T02830133=
200509091751 METAR KATL 091751Z VRB04KT 10SM SCT060 SCT280 28/14 A3006 RMK AO2 SLP169 T02830144 10289 20206 58015=
200509091651 METAR KATL 091651Z 05007KT 10SM FEW060 SCT280 28/14 A3008 RMK AO2 SLP177 T02780144=
200509091551 METAR KATL 091551Z 07007KT 050V110 10SM FEW280 27/14 A3010 RMK AO2 SLP183 T02720139=
200509091451 METAR KATL 091451Z VRB03KT 10SM FEW280 26/14 A3011 RMK AO2 SLP185 T02560139 51008=
200509091351 METAR KATL 091351Z 06005KT 10SM SCT065 23/15 A3010 RMK AO2 SLP185 T02330150=
200509091251 METAR KATL 091251Z 04006KT 10SM SCT080 SCT230 22/16 A3010 RMK AO2 SLP183 T02220156=
200509091151 METAR KATL 091151Z 02004KT 10SM FEW070 SCT230 21/16 A3008 RMK AO2 SLP177 T02060156 10217 20183 53016=
200509091051 METAR KATL 091051Z 01004KT 10SM FEW070 SCT150 SCT230 21/16 A3006 RMK AO2 SLP169 T02060161 $=
200509090951 METAR KATL 090951Z 34003KT 10SM CLR 20/16 A3005 RMK AO2 SLP165 T02000161=
200509090851 METAR KATL 090851Z 36003KT 10SM FEW070 20/16 A3003 RMK AO2 SLP160 T02000161 57004=
200509090751 METAR KATL 090751Z 33005KT 10SM FEW070 20/16 A3004 RMK AO2 SLP162 T02000161=
200509090651 METAR KATL 090651Z 33004KT 10SM FEW070 21/17 A3004 RMK AO2 SLP163 T02060167=
200509090551 METAR KATL 090551Z 33003KT 10SM SCT070 22/16 A3004 RMK AO2 SLP163 T02170161 10261 20217 58009=
200509090451 METAR KATL 090451Z 00000KT 10SM BKN065 22/16 A3006 RMK AO2 SLP168 T02220161 402940189=
200509090351 METAR KATL 090351Z 36004KT 10SM FEW060 24/16 A3007 RMK AO2 SLP171 T02390156=
200509090251 METAR KATL 090251Z 33004KT 10SM FEW250 22/17 A3007 RMK AO2 SLP174 T02220167 51008=
200509090151 METAR KATL 090151Z 00000KT 10SM FEW250 24/16 A3007=
200509090051 METAR KATL 090051Z 10004KT 10SM FEW250 26/16 A3005 RMK AO2 SLP168 T02610156=
200509082351 METAR KATL 082351Z 09005KT 10SM FEW055 SCT250 26/16 A3005 RMK AO2 SLP167 T02610156 10294 20261 55000=
200509082251 METAR KATL 082251Z 04007KT 10SM FEW060 SCT250 28/13 A3004 RMK AO2 SLP164 T02780133=
200509082151 METAR KATL 082151Z VRB06KT 10SM FEW060 SCT200 28/13 A3004 RMK AO2 SLP164 T02780128=
200509082051 METAR KATL 082051Z 05009KT 10SM FEW060 SCT200 29/14 A3005 RMK AO2 SLP166 T02890139 56020=
200509081951 METAR KATL 081951Z 05008KT 10SM FEW055 SCT200 28/14 A3006 RMK AO2 SLP170 T02830139=
200509081851 METAR KATL 081851Z 36009KT 10SM SCT050 SCT200 28/16 A3008 RMK AO2 SLP178 T02780156=
200509081751 METAR KATL 081751Z 00000KT 10SM FEW045 SCT200 28/16 A3011 RMK AO2 SLP186 T02830161 10283 20194 58021=
200509081651 METAR KATL 081651Z 08007KT 10SM FEW045 SCT200 27/17 A3014 RMK AO2 SLP195 T02720167=
200509081551 METAR KATL 081551Z 05006KT 10SM FEW035 SCT200 26/17 A3015 RMK AO2 SLP202 T02560167=
200509081451 METAR KATL 081451Z 07008KT 10SM FEW030 SCT070 SCT200 24/17 A3017 RMK AO2 SLP209 T02390167 51006=
200509081351 METAR KATL 081351Z 07009KT 10SM R09R/1200VP6000FT FEW070 SCT200 22/16 A3017 RMK AO2 SLP207 T02220156=
200509081251 METAR KATL 081251Z 06010KT 10SM FEW150 21/13 A3016 RMK AO2 SLP206 T02060133=
200509081151 METAR KATL 081151Z 05009KT 10SM R09R/4000VP6000FT FEW150 19/13 A3015 RMK AO2 SLP203 T01940133 10211 20189 51011=
200509081051 METAR KATL 081051Z 04009KT 10SM FEW075 SCT150 SCT230 19/14 A3014 RMK AO2 SLP199 T01940139=
200509080951 METAR KATL 080951Z 05009KT 10SM CLR 19/15 A3013 RMK AO2 SLP195 T01940150=
200509080851 METAR KATL 080851Z 05010KT 10SM CLR 20/16 A3012 RMK AO2 SLP191 T02000156 56007=
200509080751 METAR KATL 080751Z 06008KT 10SM FEW075 21/16 A3013 RMK AO2 SLP192 T02060161=
200509080651 METAR KATL 080651Z 06009KT 10SM FEW075 21/16 A3014 RMK AO2 SLP196 T02110161=
200509080551 METAR KATL 080551Z 06008KT 10SM SCT075 21/16 A3014 RMK AO2 SLP198 T02110156 10261 20211 55003=
200509080451 METAR KATL 080451Z 06008KT 10SM SCT075 22/16 A3014 RMK AO2 SLP197 T02220156 402830189=
200509080351 METAR KATL 080351Z 05009KT 10SM BKN075 23/16 A3014 RMK AO2 SLP198 T02330156=
200509080251 METAR KATL 080251Z 05010KT 10SM FEW050 24/16 A3015 RMK AO2 SLP201 T02390156 51009=
200509080151 METAR KATL 080151Z 05010KT 10SM FEW050 24/16 A3015 RMK AO2 SLP200 T02440161=
200509072351 METAR KATL 072351Z 04009KT 10SM FEW050 26/16 A3012 RMK AO2 SLP192 T02610156 10283 20256 55005=
200509072251 METAR KATL 072251Z 04010KT 10SM FEW050 27/16 A3012 RMK AO2 SLP190 T02670161=
200509072151 METAR KATL 072151Z 05010G15KT 10SM FEW050 27/16 A3013 RMK AO2 SLP193 T02720156=
200509072051 METAR KATL 072051Z 04010KT 10SM SCT050 28/15 A3014 RMK AO2 SLP196 T02780150 58022=
200509071951 METAR KATL 071951Z 07010KT 10SM FEW050 SCT060 26/14 A3016 RMK AO2 SLP204 T02610139=
200509071851 METAR KATL 071851Z 05013KT 10SM FEW055 SCT065 27/13 A3018 RMK AO2 SLP212 T02670133=
200509071751 METAR KATL 071751Z 04011KT 010V080 10SM FEW050 SCT070 27/14 A3020 RMK AO2 SLP219 T02670139 10267 20189 58013=
200509071651 METAR KATL 071651Z 02011KT 10SM FEW045 SCT060 26/14 A3022 RMK AO2 SLP225 T02560144=
200509071551 METAR KATL 071551Z 03013KT 10SM FEW060 24/14 A3023 RMK AO2 SLP230 T02440139=
200509071451 METAR KATL 071451Z 06013KT 10SM FEW150 23/14 A3024 RMK AO2 SLP233 T02280139 50000=
200509071351 METAR KATL 071351Z 06015KT 10SM FEW150 21/14 A3025 RMK AO2 SLP234 T02110139=
200509071251 METAR KATL 071251Z 06013G17KT 10SM FEW150 20/14 A3024 RMK AO2 SLP235 T02000139=
200509071151 METAR KATL 071151Z 06011KT 10SM FEW150 19/14 A3024 RMK AO2 SLP234 T01890139 10206 20189 53010=
200509071051 METAR KATL 071051Z 06011KT 10SM CLR 19/13 A3022 RMK AO2 SLP227 T01890133=
200509070951 METAR KATL 070951Z 07013KT 10SM CLR 19/13 A3022 RMK AO2 SLP225 T01940133=
200509070851 METAR KATL 070851Z 07011KT 10SM CLR 20/13 A3021 RMK AO2 SLP222 T02000133 58002=
200509070751 METAR KATL 070751Z 06011KT 10SM FEW065 21/14 A3021 RMK AO2 SLP222 T02060139=
200509070651 METAR KATL 070651Z 06009KT 10SM FEW065 21/14 A3022 RMK AO2 SLP226 T02060144=
200509070551 METAR KATL 070551Z 06009KT 10SM SCT065 21/15 A3022 RMK AO2 SLP224 T02060150 10244 20206 58009=
200509070451 METAR KATL 070451Z 06008KT 10SM SCT065 21/15 A3023 RMK AO2 SLP229 T02060150 402720183=
200509070351 METAR KATL 070351Z 06010KT 10SM BKN055 21/16 A3024 RMK AO2 SLP234 T02110156=
200509070251 METAR KATL 070251Z 06009KT 10SM FEW050 22/15 A3025 RMK AO2 SLP235 T02170150 51011=
200509070151 METAR KATL 070151Z COR 07010KT 10SM FEW050 23/15 A3025 RMK AO2 SLP235 T02280150=
200509070051 METAR KATL 070051Z 06010KT 10SM FEW050 23/15 A3024 RMK AO2 SLP232 T02330150=
200509062351 METAR KATL 062351Z 06012KT 10SM SCT055 24/14 A3021 RMK AO2 SLP224 T02390144 10272 20233 50000=
200509062251 METAR KATL 062251Z 06012KT 10SM FEW050 26/14 A3021 RMK AO2 SLP222 T02560139=
200509062151 METAR KATL 062151Z 07015G20KT 10SM SCT055 26/13 A3022 RMK AO2 SLP225 T02610133=
200509062051 METAR KATL 062051Z 04012G23KT 10SM FEW050 27/13 A3021 RMK AO2 SLP222 T02720133 56016=
200509062000 SPECI KATL 062000Z 05014G18KT 10SM FEW055 27/13 A3022 RMK AO2=
200509062000 SPECI KATL 062000Z 05014G18KT 10SM FEW055 27/13 A3022 RMK AO2=
200509061951 METAR KATL 061951Z 05015G18KT 2 1/2SM HZ FEW050 27/13 A3022 RMK AO2 SLP225 T02670133=
200509061851 METAR KATL 061851Z 04012KT 10SM FEW050 26/14 A3025 RMK AO2 SLP235 T02610139=
200509061751 METAR KATL 061751Z 07014KT 10SM FEW045 26/13 A3026 RMK AO2 SLP240 T02560133 10261 20183 58011=
200509061651 METAR KATL 061651Z 05017G21KT 10SM FEW050 26/13 A3028 RMK AO2 SLP243 T02560128=
200509061551 METAR KATL 061551Z 04017G21KT 10SM FEW040 24/13 A3029 RMK AO2 SLP248 T02440133=
200509061451 METAR KATL 061451Z 06013KT 10SM FEW030 23/14 A3030 RMK AO2 SLP252 T02280144 53010=
200509061351 METAR KATL 061351Z 06012KT 10SM FEW030 21/14 A3028 RMK AO2 SLP248 T02110144=
200509061251 METAR KATL 061251Z 06012KT 10SM FEW230 19/14 A3028 RMK AO2 SLP246 T01940144=
200509061151 METAR KATL 061151Z 06013KT 10SM FEW150 SCT230 18/13 A3027 RMK AO2 SLP243 T01830133 10200 20183 53009=
200509061051 METAR KATL 061051Z 07013KT 10SM CLR 18/13 A3025 RMK AO2 SLP238 T01830133 $=
200509060951 METAR KATL 060951Z 06010KT 10SM CLR 18/13 A3024 RMK AO2 SLP233 T01830128 $=
200509060851 METAR KATL 060851Z 05011KT 10SM CLR 19/13 A3024 RMK AO2 SLP232 T01890128 55000 $=
200509060751 METAR KATL 060751Z 04011KT 10SM CLR 19/13 A3023 RMK AO2 SLP228 T01940128 $=
200509060651 METAR KATL 060651Z 04011KT 10SM CLR 20/13 A3024 RMK AO2 SLP230 T02000128 $=
200509060551 METAR KATL 060551Z 04009KT 10SM CLR 19/13 A3024 RMK AO2 SLP232 T01940128 10239 20194 58006 $=
200509060451 METAR KATL 060451Z 06009KT 10SM CLR 21/13 A3025 RMK AO2 SLP234 T02060128 402720200 $=
200509060351 METAR KATL 060351Z 04009KT 10SM CLR 21/14 A3026 RMK AO2 SLP238 T02110139 $=
200509060251 METAR KATL 060251Z 05008KT 10SM CLR 22/14 A3026 RMK AO2 SLP237 T02170139 51013 $=
200509060151 METAR KATL 060151Z 07007KT 10SM FEW075 21/14 A3025 RMK AO2 SLP238 T02110144 $=
200509060051 METAR KATL 060051Z 08010KT 10SM FEW075 23/14 A3024 RMK AO2 SLP232 T02280139 $=
200509052351 METAR KATL 052351Z 09007KT 10SM FEW075 23/13 A3022 RMK AO2 SLP226 T02330133 10272 20233 53002 $=
200509052251 METAR KATL 052251Z 08010KT 10SM FEW055 SCT075 25/13 A3021 RMK AO2 SLP223 T02500133 $=
200509052151 METAR KATL 052151Z 05012G19KT 10SM SCT060 27/13 A3021 RMK AO2 SLP221 T02670128 $=
200509052051 METAR KATL 052051Z 08012KT 10SM FEW060 SCT070 26/14 A3021 RMK AO2 SLP222 T02610139 56012 $=
200509051951 METAR KATL 051951Z 07012G16KT 10SM BKN055 27/14 A3022 RMK AO2 SLP224 T02670139 $=
200509051851 METAR KATL 051851Z 04012G17KT 10SM BKN049 27/14 A3023 RMK AO2 SLP228 T02670144 $=
200509051751 METAR KATL 051751Z 07010KT 10SM SCT044 BKN065 26/16 A3025 RMK AO2 SLP234 T02610156 10261 20200 58005 $=
200509051651 METAR KATL 051651Z 07010KT 10SM SCT034 BKN060 26/16 A3026 RMK AO2 SLP238 T02560156 $=
200509051551 METAR KATL 051551Z 05008KT 10SM SCT025 26/18 A3026 RMK AO2 SLP238 T02560178 $=
200509051451 METAR KATL 051451Z 08007KT 10SM FEW100 24/18 A3026 RMK AO2 SLP240 T02440178 51009 $=
200509051351 METAR KATL 051351Z 07008KT 9SM FEW031 SCT060 22/17 A3026 RMK AO2 SLP237 T02220172 $=
200509051251 METAR KATL 051251Z 06011KT 9SM CLR 21/17 A3025 RMK AO2 SLP234 T02110167 $=
200509051151 METAR KATL 051151Z 06010KT 9SM FEW040 20/17 A3023 RMK AO2 SLP230 T02000172 10217 20200 53016 $=
200509051051 METAR KATL 051051Z 05009KT 10SM FEW060 SCT075 20/17 A3022 RMK AO2 SLP225 T02000172 $=
200509050951 METAR KATL 050951Z 07008KT 10SM FEW060 SCT075 20/17 A3020 RMK AO2 SLP218 T02000172 $=
200509050851 METAR KATL 050851Z COR 07008KT 10SM FEW060 20/17 A3019 RMK AO2 SLP213 T02000172 53008 $=
200509050751 METAR KATL 050751Z 07006KT 9SM CLR 20/17 A3018 RMK AO2 SLP210 T02000167 $=
200509050651 METAR KATL 050651Z 10004KT 10SM CLR 21/16 A3017 RMK AO2 SLP206 T02110161 $=
200509050551 METAR KATL 050551Z 08010KT 10SM CLR 22/16 A3016 RMK AO2 SLP204 T02170156 10267 20217 53001 $=
200509050451 METAR KATL 050451Z 05009KT 10SM CLR 23/15 A3016 RMK AO2 SLP202 T02280150 402940211 $=
200509050351 METAR KATL 050351Z 05007KT 10SM CLR 24/15 A3016 RMK AO2 SLP203 T02390150 $=
200509050251 METAR KATL 050251Z 06007KT 10SM CLR 24/15 A3016 RMK AO2 SLP203 T02440150 51013 $=
200509050151 METAR KATL 050151Z 05008KT 10SM CLR 26/14 A3015 RMK AO2 SLP200 T02560144 $=
200509050051 METAR KATL 050051Z 06007KT 10SM CLR 26/14 A3013 RMK AO2 SLP195 T02610144 $=
200509042351 METAR KATL 042351Z 07008KT 10SM FEW060 27/14 A3012 RMK AO2 SLP190 T02670144 10294 20261 58000 $=
200509042251 METAR KATL 042251Z 09007KT 10SM FEW060 28/14 A3012 RMK AO2 SLP190 T02780144 $=
200509042151 METAR KATL 042151Z 05005KT 10SM FEW060 28/14 A3012 RMK AO2 SLP189 T02830144 $=
200509042051 METAR KATL 042051Z VRB06KT 10SM BKN065 28/14 A3012 RMK AO2 SLP188 T02830144 56010 $=
200509041951 METAR KATL 041951Z 04006KT 10SM BKN060 28/14 A3012 RMK AO2 SLP190 T02830139 $=
200509041851 METAR KATL 041851Z 08008KT 10SM FEW050 BKN070 28/14 A3014 RMK AO2 SLP195 T02830144 $=
200509041751 METAR KATL 041751Z VRB06KT 10SM SCT070 28/16 A3015 RMK AO2 SLP199 T02830161 10283 20217 58003 $=
200509041651 METAR KATL 041651Z 10007KT 10SM FEW100 28/16 A3016 RMK AO2 SLP202 T02780161 $=
200509041551 METAR KATL 041551Z 07005KT 10SM FEW120 26/16 A3017 RMK AO2 SLP205 T02610161 $=
200509041451 METAR KATL 041451Z 06009KT 10SM FEW060 25/16 A3016 RMK AO2 SLP202 T02500156 53011 $=
200509041351 METAR KATL 041351Z 08010KT 10SM FEW100 23/16 A3015 RMK AO2 SLP198 T02330161 $=
200509041251 METAR KATL 041251Z 07010G14KT 10SM CLR 22/16 A3013 RMK AO2 SLP194 T02220161 $=
200509041151 METAR KATL 041151Z 06009KT 8SM SCT070 22/17 A3013 RMK AO2 SLP192 T02170167 10244 20211 53014 $=
200509041051 METAR KATL 041051Z 05006KT 8SM FEW150 22/18 A3010 RMK AO2 SLP184 T02220178=
200509040951 METAR KATL 040951Z 04006KT 7SM SCT120 23/18 A3009 RMK AO2 SLP179 T02280183=
200509040851 METAR KATL 040851Z 06006KT 7SM FEW090 23/19 A3008 RMK AO2 SLP176 T02330189 55001=
200509040751 METAR KATL 040751Z 07006KT 7SM BKN085 23/19 A3008 RMK AO2 SLP175 T02330189=
200509040651 METAR KATL 040651Z 08005KT 7SM SCT080 23/19 A3008 RMK AO2 SLP176 T02330194=
200509040551 METAR KATL 040551Z 00000KT 8SM FEW120 24/19 A3008 RMK AO2 SLP176 60000 T02390189 10283 20239 58001=
200509040451 METAR KATL 040451Z 32004KT 9SM FEW050 SCT100 24/19 A3009 RMK AO2 SLP178 T02390189 403060200=
200509040351 METAR KATL 040351Z 35006KT 9SM BKN055 BKN095 26/19 A3009 RMK AO2 RAB08E47 SLP179 P0000 T02560194=
200509040251 METAR KATL 040251Z 00000KT 10SM OVC050 27/18 A3009 RMK AO2 SLP178 BINOVC T02670183 51011=
200509040151 METAR KATL 040151Z 14003KT 9SM SCT050 BKN065 27/18 A3008 RMK AO2 SLP175 T02670183=
200509040051 METAR KATL 040051Z 00000KT 9SM BKN050 27/18 A3007 RMK AO2 SLP172 T02720183=
200509032351 METAR KATL 032351Z 00000KT 8SM SCT050 BKN070 28/18 A3005 RMK AO2 SLP167 SHRA DSNT W T02830178 10306 20272 55003=
200509032251 METAR KATL 032251Z 10005KT 8SM FEW050 28/18 A3005 RMK AO2 SLP168 T02780178=
200509032151 METAR KATL 032151Z 07005KT 8SM FEW050 29/17 A3006 RMK AO2 SLP169 T02940172=
200509032051 METAR KATL 032051Z 05008KT 010V120 9SM BKN050 31/18 A3006 RMK AO2 SLP170 T03060178 58017=
200509031951 METAR KATL 031951Z VRB04KT 9SM BKN048 29/17 A3008 RMK AO2 SLP175 T02890172=
200509031851 METAR KATL 031851Z VRB04KT 10SM BKN048 BKN060 29/18 A3010 RMK AO2 SLP182 T02940178=
200509031751 METAR KATL 031751Z 03007KT 9SM FEW040 SCT060 29/19 A3011 RMK AO2 SLP186 T02940189 10294 20206 58009=
200509031651 METAR KATL 031651Z 07009KT 9SM FEW040 28/18 A3013 RMK AO2 SLP193 T02830183=
200509031551 METAR KATL 031551Z VRB06KT 8SM CLR 28/19 A3015 RMK AO2 SLP198 T02780189=
200509031451 METAR KATL 031451Z 10011KT 8SM CLR 26/18 A3014 RMK AO2 SLP196 T02610183 51007=
200509031351 METAR KATL 031351Z 09010KT 7SM FEW055 25/18 A3014 RMK AO2 SLP195 T02500183=
200509031251 METAR KATL 031251Z 07006KT 9SM FEW055 24/18 A3013 RMK AO2 SLP192 T02390178=
200509031151 METAR KATL 031151Z 32005KT 8SM R09R/5500VP6000FT FEW120 SCT200 21/17 A3012 RMK AO2 SLP190 T02110172 10228 20200 53013=
200509031051 METAR KATL 031051Z 33006KT 9SM FEW250 20/17 A3010 RMK AO2 SLP182 T02000172=
200509030951 METAR KATL 030951Z 33005KT 9SM CLR 21/17 A3009 RMK AO2 SLP178 T02060172=
200509030851 METAR KATL 030851Z 31005KT 8SM CLR 21/18 A3008 RMK AO2 SLP176 T02060178 53001=
200509030751 METAR KATL 030751Z 33004KT 8SM CLR 21/18 A3008 RMK AO2 SLP174 T02110183=
200509030651 METAR KATL 030651Z 32006KT 8SM CLR 22/19 A3007 RMK AO2 SLP173 T02170189=
200509030551 METAR KATL 030551Z 33005KT 8SM CLR 23/19 A3008 RMK AO2 SLP174 T02280189 10289 20228 50000=
200509030451 METAR KATL 030451Z 32006KT 8SM CLR 23/19 A3008 RMK AO2 SLP177 T02330189 403110189=
200509030351 METAR KATL 030351Z 32005KT 8SM CLR 24/19 A3009 RMK AO2 SLP177 T02390194=
200509030251 METAR KATL 030251Z 34006KT 9SM CLR 26/19 A3008 RMK AO2 SLP174 T02610189 51008=
200509030151 METAR KATL 030151Z 35006KT 10SM FEW250 28/18 A3008 RMK AO2 SLP174 T02780183=
200509030051 METAR KATL 030051Z 36008KT 10SM SCT250 28/18 A3006 RMK AO2 SLP170 T02830183=
200509022351 METAR KATL 022351Z 35006KT 10SM SCT250 29/18 A3005 RMK AO2 SLP168 T02890178 10311 20289 55003=
200509022251 METAR KATL 022251Z 35008KT 10SM FEW055 29/17 A3004 RMK AO2 SLP165 T02940172=
200509022151 METAR KATL 022151Z VRB06KT 10SM FEW055 30/17 A3005 RMK AO2 SLP165 T03000167=
200509022051 METAR KATL 022051Z 32009KT 10SM FEW060 31/16 A3006 RMK AO2 SLP170 T03060161 56018=
200509021951 METAR KATL 021951Z 32012G16KT 10SM FEW055 31/16 A3007 RMK AO2 SLP174 T03060161=
200509021851 METAR KATL 021851Z VRB04KT 10SM FEW055 SCT250 30/17 A3010 RMK AO2 SLP181 T03000167=
200509021751 METAR KATL 021751Z 00000KT 9SM FEW050 29/17 A3012 RMK AO2 SLP189 T02940167 10300 20206 58006=
200509021651 METAR KATL 021651Z 00000KT 10SM FEW048 29/17 A3013 RMK AO2 SLP193 T02890167=
200509021551 METAR KATL 021551Z VRB04KT 10SM CLR 28/17 A3014 RMK AO2 SLP196 T02780172=
200509021451 METAR KATL 021451Z 05004KT 9SM CLR 27/18 A3014 RMK AO2 SLP194 T02670178 51011=
200509021351 METAR KATL 021351Z 06007KT 8SM FEW250 25/17 A3013 RMK AO2 SLP192 T02500172=
200509021251 METAR KATL 021251Z VRB05KT 10SM CLR 23/17 A3012 RMK AO2 SLP190 T02280172=
200509021151 METAR KATL 021151Z 01005KT 10SM FEW210 20/17 A3010 RMK AO2 SLP185 T02000167 10211 20189 53018=
200509021051 METAR KATL 021051Z 33006KT 10SM FEW210 19/17 A3008 RMK AO2 SLP177 T01940167=
200509020951 METAR KATL 020951Z 32005KT 10SM CLR 19/17 A3006 RMK AO2 SLP170 T01940172 $=
200509020851 METAR KATL 020851Z 33005KT 10SM CLR 20/17 A3005 RMK AO2 SLP165 T02000172 58001=
200509020751 METAR KATL 020751Z 34006KT 10SM CLR 20/17 A3005 RMK AO2 SLP166 T02000172 $=
200509020651 METAR KATL 020651Z 32006KT 10SM CLR 21/17 A3005 RMK AO2 SLP166 T02060172=
200509020551 METAR KATL 020551Z 33006KT 8SM CLR 21/17 A3005 RMK AO2 SLP166 T02110172 10272 20211 58001=
200509020451 METAR KATL 020451Z 33006KT 10SM FEW250 22/18 A3005 RMK AO2 SLP167 T02170178 402940183=
200509020351 METAR KATL 020351Z 34006KT 10SM FEW250 23/17 A3006 RMK AO2 SLP169 T02330172=
200509020251 METAR KATL 020251Z 36004KT 10SM FEW250 25/16 A3006 RMK AO2 SLP168 T02500161 52016=
200509020151 METAR KATL 020151Z 35005KT 10SM FEW250 26/15 A3004 RMK AO2 SLP163 T02560150=
200509020051 METAR KATL 020051Z 33006KT 10SM SCT250 26/14 A3002 RMK AO2 SLP157 T02610144=
200509012351 METAR KATL 012351Z 34007KT 10SM FEW055 SCT250 27/15 A3001 RMK AO2 SLP152 T02720150 10294 20272 51006=
200509012251 METAR KATL 012251Z 33008KT 10SM FEW055 28/16 A3001 RMK AO2 SLP151 T02830156=
200509012151 METAR KATL 012151Z 34008KT 10SM SCT055 29/17 A3000 RMK AO2 SLP148 T02890167=
200509012051 METAR KATL 012051Z 33009KT 10SM SCT055 29/17 A2999 RMK AO2 SLP146 T02940167 58015=
200509011951 METAR KATL 011951Z 28005KT 10SM SCT055 29/17 A3000 RMK AO2 SLP150 T02940172=
200509011851 METAR KATL 011851Z 35004KT 9SM SCT050 29/17 A3002 RMK AO2 SLP157 T02890167=
200509011751 METAR KATL 011751Z 05006KT 10SM SCT049 28/17 A3003 RMK AO2 SLP161 T02830167 10289 20189 58004=
200509011651 METAR KATL 011651Z 07004KT 10SM SCT045 28/18 A3005 RMK AO2 SLP164 T02780178=
200509011551 METAR KATL 011551Z 03007KT 10SM FEW040 27/17 A3006 RMK AO2 SLP167 T02720167=
200509011451 METAR KATL 011451Z 04007KT 10SM CLR 26/17 A3005 RMK AO2 SLP164 T02610167 53013=
200509011351 METAR KATL 011351Z 34007KT 10SM CLR 24/17 A3003 RMK AO2 SLP159 T02390172=
200509011251 METAR KATL 011251Z 33005KT 9SM CLR 21/17 A3002 RMK AO2 SLP155 T02110167=
Fallo de consulta: el error es SELECT command denied to user 'users'@'localhost' for table 'tafs_2005'
