##########################################################
# Query made at 04/19/2024 22:50:26 UTC
# Time interval: from 04/01/2005 12:00  to 04/30/2005 12:59  UTC
##########################################################

##########################################################
# KATL, Atlanta, Hartsfield - Jackson Atlanta International Airport (United States)
# WMO index: 72219. WIGOS ID: 0-20000-0-72219
# Latitude 33-38-59N. Longitude 084-25-00W. Altitude 312 m.
##########################################################

200504301257 SPECI KATL 301257Z 17007KT 3SM -TSRA BR FEW008 OVC026CB 15/14 A2992 RMK AO2 SFC VIS 4 FRQ LTGICCGCA TS OHD AND ALQDS MOV E P0002=
200504301257 SPECI KATL 301257Z 17007KT 3SM -TSRA BR FEW008 OVC026CB 15/14 A2992 RMK AO2 SFC VIS 4 FRQ LTGICCGCA TS OHD AND ALQDS MOV E P0002=
200504301251 METAR KATL 301251Z 18007KT 3SM TSRA BR OVC024CB 15/14 A2991 RMK AO2 PK WND 34029/1155 WSHFT 1155 SFC VIS 4 TSB05RAB1156 SLP124 FREQ LTGIC TS OHD MOV E P0057 T01500144=
200504301243 SPECI KATL 301243Z 20008KT 3SM TSRA BR FEW010 BKN011 OVC030CB 15/14 A2992 RMK AO2 PK WND 34029/1155 WSHFT 1155 SFC VIS 4 TSB05RAB1156 CONS LTGICCG TS OHD MOV E P0055=
200504301243 SPECI KATL 301243Z 20008KT 3SM TSRA BR FEW010 BKN011 OVC030CB 15/14 A2992 RMK AO2 PK WND 34029/1155 WSHFT 1155 SFC VIS 4 TSB05RAB1156 CONS LTGICCG TS OHD MOV E P0055=
200504301229 SPECI KATL 301229Z 21007KT 2SM -TSRA BR FEW010 BKN011 OVC030CB 16/14 A2991 RMK AO2 PK WND 34029/1155 WSHFT 1155 TWR VIS 3 VIS 1/2V5 TSB05RAB1156 CONS LTGICCG TS OHD MOV E P0051=
200504301229 SPECI KATL 301229Z 21007KT 2SM -TSRA BR FEW010 BKN011 OVC030CB 16/14 A2991 RMK AO2 PK WND 34029/1155 WSHFT 1155 TWR VIS 3 VIS 1/2V5 TSB05RAB1156 CONS LTGICCG TS OHD MOV E P0051=
200504301209 SPECI KATL 301209Z 25011G27KT 1/2SM R09R/3500VP6000FT +TSRA FG FEW007 BKN011 OVC030CB 16/14 A2992 RMK AO2 PK WND 34029/1155 WSHFT 1155 TWR VIS 1 TSB05RAB1156 CONS LTGICCG TS W MOV E P0022=
200504301209 SPECI KATL 301209Z 25011G27KT 1/2SM R09R/3500VP6000FT +TSRA FG FEW007 BKN011 OVC030CB 16/14 A2992 RMK AO2 PK WND 34029/1155 WSHFT 1155 TWR VIS 1 TSB05RAB1156 CONS LTGICCG TS W MOV E P0022=
200504301204 SPECI KATL 301204Z 26022G29KT 1/2SM R09R/4500VP6000FT +RA FG BKN009 OVC030 16/14 A2994 RMK AO2 PK WND 34029/1155 TWR VIS 1 RAB1156 LTG DSNT W P0008=
200504301204 SPECI KATL 301204Z 26022G29KT 1/2SM R09R/4500VP6000FT +RA FG BKN009 OVC030 16/14 A2994 RMK AO2 PK WND 34029/1155 TWR VIS 1 RAB1156 LTG DSNT W P0008=
200504301200 SPECI KATL 301200Z 30021G29KT 1SM R09R/5000VP6000FT RA BR FEW007 BKN011 OVC030 17/15 A2992 RMK AO2 PK WND 34029/1155 RAB1156 LTG DSNT W P0001=
200504301200 SPECI KATL 301200Z 30021G29KT 1SM R09R/5000VP6000FT RA BR FEW007 BKN011 OVC030 17/15 A2992 RMK AO2 PK WND 34029/1155 RAB1156 LTG DSNT W P0001=
200504301151 METAR KATL 301151Z 32013G16KT 9SM OVC011 19/17 A2988 RMK AO2 SLP113 T01890167 10189 20172 53018=
200504301051 METAR KATL 301051Z 19007KT 9SM OVC009 18/16 A2981 RMK AO2 SLP089 T01780161=
200504301030 SPECI KATL 301030Z 20008KT 10SM OVC009 18/16 A2981 RMK AO2 CIG 008V014=
200504301030 SPECI KATL 301030Z 20008KT 10SM OVC009 18/16 A2981 RMK AO2 CIG 008V014=
200504300951 METAR KATL 300951Z 19012KT 10SM BKN011 17/15 A2981 RMK AO2 SLP087 T01720150=
200504300901 SPECI KATL 300901Z 19012KT 10SM OVC013 17/14 A2982 RMK AO2=
200504300901 SPECI KATL 300901Z 19012KT 10SM OVC013 17/14 A2982 RMK AO2=
200504300851 METAR KATL 300851Z 19011KT 10SM BKN015 17/14 A2983 RMK AO2 SLP094 T01720144 58018=
200504300751 METAR KATL 300751Z 19008KT 10SM FEW035 BKN049 18/14 A2986 RMK AO2 SLP104 T01780139=
200504300651 METAR KATL 300651Z 21007KT 10SM SCT038 SCT150 BKN250 18/13 A2988 RMK AO2 SLP112 T01780133=
200504300551 METAR KATL 300551Z 21008KT 10SM SCT150 BKN250 18/12 A2988 RMK AO2 SLP113 T01780122 10222 20172 56001=
200504300451 METAR KATL 300451Z 20007KT 10SM SCT150 BKN250 18/11 A2989 RMK AO2 SLP114 T01830111 402440133=
200504300351 METAR KATL 300351Z 19008KT 10SM SCT150 BKN250 19/10 A2988 RMK AO2 SLP112 T01890100=
200504300251 METAR KATL 300251Z 17008KT 10SM SCT150 BKN250 19/10 A2989 RMK AO2 SLP113 T01940100 56009=
200504300151 METAR KATL 300151Z 17008KT 10SM SCT150 BKN250 20/09 A2989 RMK AO2 SLP116 T02000094=
200504300051 METAR KATL 300051Z 16006KT 10SM SCT150 BKN250 21/10 A2990 RMK AO2 SLP119 T02110100=
200504292351 METAR KATL 292351Z 16006KT 10SM CLR 22/10 A2991 RMK AO2 SLP124 T02220100 10244 20217 58005=
200504292251 METAR KATL 292251Z 18007KT 10SM FEW110 SCT150 BKN250 23/11 A2993 RMK AO2 SLP128 T02330106=
200504292151 METAR KATL 292151Z 20011KT 10SM FEW050 BKN150 BKN250 24/10 A2992 RMK AO2 SLP128 T02390100=
200504292051 METAR KATL 292051Z 20010KT 170V240 10SM FEW050 BKN150 BKN250 24/12 A2993 RMK AO2 SLP128 T02390122 56018=
200504291951 METAR KATL 291951Z 21008KT 10SM FEW035 SCT085 SCT150 OVC250 23/15 A2994 RMK AO2 SLP133 ACC NE-NW T02330150=
200504291851 METAR KATL 291851Z 21009KT 150V230 10SM FEW035 SCT085 SCT150 BKN250 23/15 A2996 RMK AO2 SLP139 T02280150=
200504291751 METAR KATL 291751Z 23011G16KT 10SM FEW028 SCT085 BKN250 22/15 A2998 RMK AO2 SLP147 ACC SE-NW T02170150 10222 20139 50000=
200504291731 SPECI KATL 291731Z 27008KT 10SM BKN028 BKN100 BKN150 OVC250 21/15 A2999 RMK AO2=
200504291731 SPECI KATL 291731Z 27008KT 10SM BKN028 BKN100 BKN150 OVC250 21/15 A2999 RMK AO2=
200504291651 METAR KATL 291651Z 25012KT 10SM FEW030 SCT100 BKN150 OVC250 21/14 A2998 RMK AO2 SLP147 ACC S-SW T02110139=
200504291551 METAR KATL 291551Z 23010KT 10SM FEW028 SCT110 BKN250 21/14 A2999 RMK AO2 SLP149 ACC SE-S-SW T02060139=
200504291451 METAR KATL 291451Z 23012KT 10SM FEW030 BKN110 BKN250 19/12 A2998 RMK AO2 SLP147 ACC OHD-N-NE-E T01940122 58008=
200504291351 METAR KATL 291351Z 21013G19KT 10SM FEW120 SCT150 BKN250 18/12 A2999 RMK AO2 SLP151 ACC DSNT N-NE-E T01780122=
200504291251 METAR KATL 291251Z 22009KT 9SM SCT090 BKN110 16/13 A3001 RMK AO2 SLP158 T01560133=
200504291158 SPECI KATL 291158Z 23009KT 10SM SCT006 BKN090 BKN110 14/12 A3001 RMK AO2=
200504291158 SPECI KATL 291158Z 23009KT 10SM SCT006 BKN090 BKN110 14/12 A3001 RMK AO2=
200504291151 METAR KATL 291151Z 23007KT 10SM BKN090 BKN110 14/11 A3001 RMK AO2 SLP157 60000 T01390111 10167 20133 56002=
200504291051 METAR KATL 291051Z 22006KT 10SM SCT090 BKN120 14/10 A3001 RMK AO2 SLP157 T01390100=
200504290951 METAR KATL 290951Z 20007KT 10SM BKN110 14/09 A3000 RMK AO2 SLP155 T01390094=
200504290851 METAR KATL 290851Z 19008KT 10SM BKN110 14/08 A3001 RMK AO2 SLP158 60000 T01440078 55006=
200504290751 METAR KATL 290751Z 18006KT 10SM BKN110 15/08 A3001 RMK AO2 SLP156 T01500078=
200504290651 METAR KATL 290651Z COR 18008KT 10SM FEW085 BKN110 16/08 A3001 RMK AO2 SLP158 T01610078=
200504290551 METAR KATL 290551Z 16005KT 10SM BKN110 17/08 A3003 RMK AO2 SLP164 60000 T01670078 10211 20167 58011=
200504290451 METAR KATL 290451Z 15006KT 10SM BKN110 17/07 A3005 RMK AO2 SLP171 T01720072 402220067=
200504290351 METAR KATL 290351Z 16008KT 10SM BKN100 17/08 A3006 RMK AO2 SLP174 T01720078=
200504290251 METAR KATL 290251Z 14005KT 10SM BKN110 18/08 A3007 RMK AO2 RAB23E42 SLP177 P0000 60000 T01830078 53011=
200504290151 METAR KATL 290151Z 15006KT 10SM BKN110 19/08 A3003 RMK AO2 SLP166 T01890078=
200504290051 METAR KATL 290051Z 14004KT 10SM BKN120 BKN200 19/08 A3003 RMK AO2 SLP167 T01940083=
200504282351 METAR KATL 282351Z 15003KT 10SM FEW120 BKN150 BKN240 21/05 A3003 RMK AO2 SLP167 T02110050 10222 20194 56008=
200504282251 METAR KATL 282251Z 20004KT 10SM BKN150 BKN240 22/06 A3003 RMK AO2 SLP168 T02170056=
200504282151 METAR KATL 282151Z 23007KT 10SM BKN150 BKN240 22/05 A3004 RMK AO2 SLP169 T02170050=
200504282051 METAR KATL 282051Z 23008KT 10SM FEW100 BKN150 BKN240 BKN280 22/06 A3006 RMK AO2 SLP175 T02170056 56020=
200504281951 METAR KATL 281951Z 20009KT 10SM FEW090 SCT150 BKN240 BKN280 21/05 A3006 RMK AO2 SLP177 T02110050=
200504281851 METAR KATL 281851Z 21005KT 10SM FEW150 BKN240 BKN280 20/04 A3009 RMK AO2 SLP188 T02000044=
200504281751 METAR KATL 281751Z VRB03KT 10SM FEW150 BKN240 BKN280 19/03 A3012 RMK AO2 SLP196 T01940033 10194 20083 58008=
200504281651 METAR KATL 281651Z 22005KT 10SM FEW150 SCT240 18/05 A3014 RMK AO2 SLP204 T01830050=
200504281551 METAR KATL 281551Z 00000KT 10SM FEW150 SCT240 17/03 A3015 RMK AO2 SLP210 T01670028=
200504281451 METAR KATL 281451Z 16004KT 10SM FEW240 16/03 A3014 RMK AO2 SLP206 T01560033 50000=
200504281351 METAR KATL 281351Z 16004KT 10SM CLR 14/03 A3015 RMK AO2 SLP208 T01390028=
200504281251 METAR KATL 281251Z 00000KT 10SM FEW230 12/04 A3015 RMK AO2 SLP208 T01170044=
200504281151 METAR KATL 281151Z 00000KT 10SM FEW230 08/04 A3014 RMK AO2 SLP206 T00830039 10094 20067 51013=
200504281051 METAR KATL 281051Z 29003KT 10SM SCT230 07/03 A3014 RMK AO2 SLP206 T00670033 $=
200504280951 METAR KATL 280951Z 29003KT 10SM CLR 07/03 A3012 RMK AO2 SLP198 T00670028 $=
200504280851 METAR KATL 280851Z 00000KT 10SM CLR 08/03 A3010 RMK AO2 SLP193 T00780028 53002 $=
200504280751 METAR KATL 280751Z 00000KT 10SM CLR 08/03 A3009 RMK AO2 SLP187 T00830028 $=
200504280651 METAR KATL 280651Z 30006KT 10SM CLR 08/03 A3010 RMK AO2 SLP191 T00830028 $=
200504280551 METAR KATL 280551Z 29005KT 10SM CLR 09/03 A3010 RMK AO2 SLP191 T00890028 10156 20089 56001=
200504280451 METAR KATL 280451Z 31004KT 10SM CLR 11/02 A3010 RMK AO2 SLP190 T01060017 402000078=
200504280351 METAR KATL 280351Z 31005KT 10SM CLR 10/02 A3009 RMK AO2 SLP189 T01000022=
200504280251 METAR KATL 280251Z 28007KT 10SM CLR 11/02 A3010 RMK AO2 SLP191 T01110017 51029=
200504280151 METAR KATL 280151Z 28006KT 10SM CLR 11/02 A3008 RMK AO2 SLP185 T01110017=
200504280051 METAR KATL 280051Z 29009KT 10SM CLR 13/01 A3004 RMK AO2 SLP172 T01330011=
200504272351 METAR KATL 272351Z 30013KT 10SM FEW070 16/01 A3001 RMK AO2 SLP162 T01560006 10194 20156 53024=
200504272251 METAR KATL 272251Z 31015G21KT 10SM SCT075 17/01 A2998 RMK AO2 SLP151 T01670011=
200504272151 METAR KATL 272151Z COR 30017G23KT 10SM SCT075 17/02 A2996 RMK AO2 SLP145 T01720017=
200504272051 METAR KATL 272051Z 30017G23KT 10SM FEW065 18/02 A2994 RMK AO2 PK WND 28029/2023 SLP136 T01780022 53011=
200504271951 METAR KATL 271951Z 31017G27KT 10SM FEW065 19/03 A2992 RMK AO2 PK WND 31029/1922 SLP131 T01890028=
200504271851 METAR KATL 271851Z 30017G30KT 10SM FEW065 19/06 A2992 RMK AO2 PK WND 31030/1842 SLP128 T01940056=
200504271751 METAR KATL 271751Z 28017G24KT 10SM BKN065 18/04 A2990 RMK AO2 PK WND 28027/1652 SLP124 T01780044 10200 20089 58008=
200504271651 METAR KATL 271651Z 27017G23KT 10SM SCT050TCU SCT080 18/07 A2991 RMK AO2 PK WND 27028/1626 SLP126 TCU NW MDT CU ALQDS T01830067=
200504271551 METAR KATL 271551Z 25012G19KT 10SM FEW040 SCT070 17/08 A2992 RMK AO2 SLP130 ACC DSNT E-S T01670083=
200504271451 METAR KATL 271451Z 23013KT 10SM FEW030 16/08 A2993 RMK AO2 SLP132 T01610078 51007=
200504271351 METAR KATL 271351Z 25007KT 10SM CLR 14/09 A2993 RMK AO2 SLP132 T01390094=
200504271251 METAR KATL 271251Z 28007KT 10SM FEW010 SCT080 11/09 A2993 RMK AO2 SLP133 T01110089=
200504271151 METAR KATL 271151Z 21003KT 10SM FEW040 09/08 A2991 RMK AO2 SLP127 70058 T00890078 10117 20078 53012=
200504271051 METAR KATL 271051Z 22004KT 10SM CLR 08/08 A2990 RMK AO2 SLP123 T00830078 $=
200504270951 METAR KATL 270951Z 00000KT 10SM CLR 08/08 A2988 RMK AO2 SLP119 T00830078 $=
200504270851 METAR KATL 270851Z 27004KT 10SM CLR 08/08 A2987 RMK AO2 SLP116 T00830078 53012 $=
200504270751 METAR KATL 270751Z 27005KT 10SM CLR 09/08 A2986 RMK AO2 SLP111 T00890083 $=
200504270651 METAR KATL 270651Z 30007KT 10SM CLR 10/09 A2984 RMK AO2 SLP103 T01000089 $=
200504270551 METAR KATL 270551Z 30008KT 10SM FEW050 12/10 A2984 RMK AO2 SLP103 T01170100 10156 20117 51012 $=
200504270451 METAR KATL 270451Z 30009KT 10SM BKN040 13/11 A2984 RMK AO2 SLP103 T01280111 401560089 $=
200504270358 SPECI KATL 270358Z 29010KT 10SM FEW016 BKN027 BKN065 13/12 A2983 RMK AO2 $=
200504270358 SPECI KATL 270358Z 29010KT 10SM FEW016 BKN027 BKN065 13/12 A2983 RMK AO2 $=
200504270351 METAR KATL 270351Z 29012KT 10SM FEW016 BKN065 14/12 A2982 RMK AO2 SLP098 T01390117 $=
200504270251 METAR KATL 270251Z 24006KT 10SM FEW060 14/13 A2980 RMK AO2 SLP091 T01390133 53018 $=
200504270151 METAR KATL 270151Z 22005KT 10SM SCT060 15/14 A2977 RMK AO2 SLP081 T01500139 $=
200504270051 METAR KATL 270051Z 21003KT 10SM BKN039 BKN050 BKN065 15/14 A2976 RMK AO2 SLP077 T01500139 $=
200504262351 METAR KATL 262351Z 21004KT 10SM SCT013 BKN065 BKN080 16/14 A2975 RMK AO2 SLP072 60030 T01560139 10156 20117 53005 $=
200504262251 METAR KATL 262251Z 18004KT 10SM SCT013 BKN030 BKN095 16/14 A2974 RMK AO2 SLP071 T01560139 $=
200504262151 METAR KATL 262151Z 13006KT 10SM SCT009 BKN030 BKN095 15/13 A2972 RMK AO2 RAE2055 SLP063 P0000 T01500133 $=
200504262051 METAR KATL 262051Z 12004KT 10SM -RA FEW005 SCT030 SCT095 OVC150 14/13 A2973 RMK AO2 SLP067 P0018 60030 T01440133 58011 $=
200504262038 SPECI KATL 262038Z 00000KT 10SM -RA FEW005 SCT030 SCT095 BKN150 14/13 A2974 RMK AO2 RAE15B32 P0018 $=
200504262038 SPECI KATL 262038Z 00000KT 10SM -RA FEW005 SCT030 SCT095 BKN150 14/13 A2974 RMK AO2 RAE15B32 P0018 $=
200504262022 SPECI KATL 262022Z 00000KT 10SM FEW008 SCT032 BKN055 14/13 A2975 RMK AO2 RAEMM CB DSNT NE-SE P0017=
200504262022 SPECI KATL 262022Z 00000KT 10SM FEW008 SCT032 BKN055 14/13 A2975 RMK AO2 RAEMM CB DSNT NE-SE P0017=
200504262017 SPECI KATL 262017Z 00000KT 2 1/2SM -RA BR FEW005 BKN021 BKN032 13/13 A2976 RMK AO2 SFC VIS 6 CB DSNT NE-SE P0017=
200504262017 SPECI KATL 262017Z 00000KT 2 1/2SM -RA BR FEW005 BKN021 BKN032 13/13 A2976 RMK AO2 SFC VIS 6 CB DSNT NE-SE P0017=
200504262006 SPECI KATL 262006Z 29006G15KT 2 1/2SM R09R/6000VP6000FT RA BR FEW005 BKN013CB OVC030 13/13 A2977 RMK AO2 SFC VIS 3 VIS LWR NE-SE SHRA CB NE-SE MOV E P0016=
200504262006 SPECI KATL 262006Z 29006G15KT 2 1/2SM R09R/6000VP6000FT RA BR FEW005 BKN013CB OVC030 13/13 A2977 RMK AO2 SFC VIS 3 VIS LWR NE-SE SHRA CB NE-SE MOV E P0016=
200504261958 SPECI KATL 261958Z 27007G20KT 1SM R09R/3500VP6000FT +RA BR SCT007 OVC012CB 13/12 A2976 RMK AO2 CB OHD MOV E P0009=
200504261958 SPECI KATL 261958Z 27007G20KT 1SM R09R/3500VP6000FT +RA BR SCT007 OVC012CB 13/12 A2976 RMK AO2 CB OHD MOV E P0009=
200504261955 SPECI KATL 261955Z 29012G20KT 1 3/4SM R09R/3500VP6000FT RA BR SCT007 OVC012 13/12 A2979 RMK AO2 TWR VIS 4 P0000=
200504261955 SPECI KATL 261955Z 29012G20KT 1 3/4SM R09R/3500VP6000FT RA BR SCT007 OVC012 13/12 A2979 RMK AO2 TWR VIS 4 P0000=
200504261951 METAR KATL 261951Z 25007KT 190V270 5SM -RA BR FEW007 BKN012 OVC015 13/12 A2974 RMK AO2 SLP072 P0011 T01330122=
200504261851 METAR KATL 261851Z 17008KT 6SM -RA BR OVC010 13/12 A2976 RMK AO2 RAB39 SLP077 P0001 T01280117=
200504261751 METAR KATL 261751Z 13007KT 6SM BR OVC006 12/11 A2976 RMK AO2 RAE04 CIG 004V010 SLP079 P0000 60028 T01220111 10122 20089 58019=
200504261651 METAR KATL 261651Z 14006KT 6SM -RA BR OVC006 11/11 A2980 RMK AO2 CIG 004V009 SLP091 P0001 T01110106=
200504261551 METAR KATL 261551Z 14009KT 2 1/2SM -RA BR BKN005 BKN008 OVC012 11/10 A2982 RMK AO2 SFC VIS 6 SLP097 P0006 T01060100=
200504261451 METAR KATL 261451Z 16009KT 2 1/2SM R09R/5500VP6000FT -RA BR BKN005 BKN008 OVC010 11/10 A2982 RMK AO2 SFC VIS 3 SLP099 P0004 60021 T01060100 58009=
200504261354 SPECI KATL 261354Z 15008KT 5SM -RA BR BKN005 BKN010 OVC020 10/09 A2984 RMK AO2 P0001=
200504261354 SPECI KATL 261354Z 15008KT 5SM -RA BR BKN005 BKN010 OVC020 10/09 A2984 RMK AO2 P0001=
200504261351 METAR KATL 261351Z 15008KT 5SM -RA BR FEW005 SCT010 OVC020 10/09 A2983 RMK AO2 PRESFR SLP102 P0008 T01000089=
200504261325 SPECI KATL 261325Z 17010KT 6SM -RA BR FEW006 BKN021 OVC065 09/08 A2985 RMK AO2 P0004=
200504261325 SPECI KATL 261325Z 17010KT 6SM -RA BR FEW006 BKN021 OVC065 09/08 A2985 RMK AO2 P0004=
200504261251 METAR KATL 261251Z 16008KT 6SM -RA BR BKN021 BKN049 OVC070 09/08 A2984 RMK AO2 SLP105 P0009 T00940078=
200504261151 METAR KATL 261151Z 15004KT 9SM -RA FEW024 BKN040 OVC080 09/07 A2985 RMK AO2 SLP108 P0001 60001 70001 T00940067 10106 20094 51011=
200504261134 SPECI KATL 261134Z 14005KT 10SM -RA SCT022 BKN039 OVC080 09/06 A2983 RMK AO2 P0001=
200504261134 SPECI KATL 261134Z 14005KT 10SM -RA SCT022 BKN039 OVC080 09/06 A2983 RMK AO2 P0001=
200504261051 METAR KATL 261051Z 13004KT 10SM -RA BKN018 BKN023 OVC055 10/06 A2983 RMK AO2 RAB21E32B49 SLP100 P0000 T01000056=
200504261036 SPECI KATL 261036Z 15005KT 10SM BKN020 OVC055 10/05 A2985 RMK AO2 RAB21E32 P0000=
200504261036 SPECI KATL 261036Z 15005KT 10SM BKN020 OVC055 10/05 A2985 RMK AO2 RAB21E32 P0000=
200504260951 METAR KATL 260951Z 17005KT 10SM FEW055 SCT085 BKN110 OVC180 10/04 A2984 RMK AO2 RAB36E50 SLP103 P0000 T01000044=
200504260851 METAR KATL 260851Z 00000KT 10SM SCT070 BKN130 BKN180 OVC250 10/04 A2982 RMK AO2 SLP095 T01000044 56021=
200504260751 METAR KATL 260751Z 20003KT 10SM BKN130 BKN180 OVC250 10/04 A2984 RMK AO2 SLP102 T01000039=
200504260651 METAR KATL 260651Z 18004KT 10SM BKN130 BKN180 OVC250 10/03 A2986 RMK AO2 SLP109 T01000033=
200504260551 METAR KATL 260551Z 20004KT 10SM BKN130 OVC180 11/03 A2988 RMK AO2 SLP117 T01060028 10139 20106 58007=
200504260451 METAR KATL 260451Z 21005KT 10SM BKN120 11/02 A2989 RMK AO2 SLP119 T01060022 401830028=
200504260351 METAR KATL 260351Z 22006KT 10SM SCT090 BKN110 11/02 A2991 RMK AO2 SLP127 T01110022=
200504260251 METAR KATL 260251Z 22006KT 10SM BKN110 12/02 A2990 RMK AO2 SLP125 T01170017 53013=
200504260151 METAR KATL 260151Z 22004KT 10SM SCT120 12/01 A2988 RMK AO2 SLP119 T01220006=
200504260051 METAR KATL 260051Z 23005KT 10SM FEW120 BKN200 13/00 A2987 RMK AO2 SLP114 T01330000=
200504252351 METAR KATL 252351Z 21012KT 10SM CLR BKN200 14/M01 A2986 RMK AO2 SLP113 T01391006 10183 20139 53004=
200504252251 METAR KATL 252251Z 21009KT 10SM FEW120 BKN150 BKN200 15/M01 A2985 RMK AO2 SLP109 T01501011=
200504252151 METAR KATL 252151Z 23007KT 10SM FEW120 BKN150 BKN200 16/M02 A2986 RMK AO2 SLP113 T01611017=
200504252051 METAR KATL 252051Z 22009KT 10SM FEW100 BKN150 BKN200 17/M02 A2985 RMK AO2 SLP110 T01671022 56018=
200504251951 METAR KATL 251951Z 23009G16KT 10SM FEW100 SCT150 BKN200 17/M02 A2987 RMK AO2 SLP114 T01721022=
200504251851 METAR KATL 251851Z 26012KT 10SM FEW100 SCT150 BKN200 18/M01 A2988 RMK AO2 SLP119 T01781011=
200504251751 METAR KATL 251751Z 24008KT 10SM FEW100 BKN150 BKN200 16/M03 A2991 RMK AO2 SLP127 T01611028 10172 20056 58011=
200504251651 METAR KATL 251651Z VRB06KT 10SM FEW100 SCT150 SCT200 16/M02 A2993 RMK AO2 SLP136 T01561017=
200504251551 METAR KATL 251551Z 27010G16KT 230V320 10SM FEW100 SCT150 SCT200 14/M02 A2995 RMK AO2 SLP143 T01441017=
200504251451 METAR KATL 251451Z 30008KT 10SM FEW200 13/M02 A2994 RMK AO2 SLP140 T01331017 51015=
200504251351 METAR KATL 251351Z 26007KT 10SM FEW180 SCT210 11/M02 A2992 RMK AO2 SLP134 T01111022=
200504251251 METAR KATL 251251Z 27006KT 10SM FEW180 SCT210 08/M03 A2992 RMK AO2 SLP132 T00831028=
200504251151 METAR KATL 251151Z 26006KT 10SM FEW180 SCT210 06/M03 A2989 RMK AO2 SLP125 T00561033 10056 20028 53005=
200504251051 METAR KATL 251051Z 28006KT 10SM BKN210 04/M03 A2988 RMK AO2 SLP120 T00391033=
200504250951 METAR KATL 250951Z 25006KT 10SM FEW050 SCT150 SCT210 04/M03 A2989 RMK AO2 SLP123 T00391033=
200504250851 METAR KATL 250851Z 22003KT 10SM FEW050 SCT150 SCT210 03/M02 A2988 RMK AO2 SLP120 T00331022 55000=
200504250751 METAR KATL 250751Z 25004KT 10SM FEW050 SCT210 04/M03 A2987 RMK AO2 SLP115 T00441033=
200504250651 METAR KATL 250651Z 27006KT 10SM FEW150 SCT210 04/M03 A2987 RMK AO2 SLP117 T00441033=
200504250551 METAR KATL 250551Z 28006KT 10SM FEW150 SCT210 04/M03 A2988 RMK AO2 SLP120 T00441028 10106 20044 51004=
200504250451 METAR KATL 250451Z 27007KT 10SM CLR 05/M03 A2988 RMK AO2 SLP121 T00501028 401330011=
200504250351 METAR KATL 250351Z 27008KT 10SM CLR 06/M03 A2988 RMK AO2 SLP121 T00611028=
200504250251 METAR KATL 250251Z 26007KT 10SM CLR 07/M03 A2987 RMK AO2 SLP117 T00671028 51016=
200504250151 METAR KATL 250151Z 27006KT 10SM CLR 07/M03 A2986 RMK AO2 SLP115 T00721033=
200504250051 METAR KATL 250051Z 29008KT 10SM CLR 08/M04 A2983 RMK AO2 SLP107 T00831039=
200504242351 METAR KATL 242351Z 30010KT 10SM CLR 11/M05 A2982 RMK AO2 SLP102 T01061050 10133 20106 53005=
200504242251 METAR KATL 242251Z 28014G19KT 10SM CLR 12/M04 A2980 RMK AO2 SLP096 T01171044=
200504242151 METAR KATL 242151Z 28017G22KT 10SM FEW055 13/M04 A2981 RMK AO2 SLP096 T01281044=
200504242051 METAR KATL 242051Z 31016G24KT 10SM FEW055 13/M05 A2980 RMK AO2 PK WND 29026/2026 SLP095 T01281050 58007=
200504241951 METAR KATL 241951Z 29014G24KT 10SM FEW055 12/M04 A2981 RMK AO2 PK WND 30026/1914 SLP098 T01221039=
200504241851 METAR KATL 241851Z 31021G27KT 10SM FEW055 12/M05 A2982 RMK AO2 PK WND 29029/1809 SLP100 T01221050=
200504241751 METAR KATL 241751Z 30022G28KT 250V330 10SM FEW055 12/M04 A2982 RMK AO2 PK WND 29028/1751 SLP101 T01171044 10117 20022 55009=
200504241651 METAR KATL 241651Z 28017G25KT 10SM FEW055 11/M03 A2982 RMK AO2 PK WND 29027/1641 SLP099 T01061028=
200504241551 METAR KATL 241551Z 31021G29KT 10SM SCT055 09/M04 A2984 RMK AO2 PK WND 30030/1521 SLP106 T00891039=
200504241451 METAR KATL 241451Z 32020G24KT 10SM SCT050 08/M03 A2985 RMK AO2 PK WND 31032/1415 SLP111 T00831033 58001=
200504241351 METAR KATL 241351Z 31014G23KT 10SM FEW030 07/M03 A2986 RMK AO2 SLP112 T00671028=
200504241251 METAR KATL 241251Z 29011G18KT 10SM CLR 04/M02 A2986 RMK AO2 SLP114 T00391022=
200504241151 METAR KATL 241151Z 28011KT 10SM CLR 02/M03 A2985 RMK AO2 SLP113 60000 T00221028 10050 20011 53012=
200504241051 METAR KATL 241051Z 29009KT 10SM CLR 02/M03 A2983 RMK AO2 SLP105 T00171033=
200504240951 METAR KATL 240951Z 29011KT 10SM CLR 02/M03 A2982 RMK AO2 SLP101 T00171033=
200504240851 METAR KATL 240851Z 30008KT 10SM CLR 02/M03 A2982 RMK AO2 SLP099 60000 T00221033 55008=
200504240751 METAR KATL 240751Z 32012KT 10SM CLR 03/M03 A2981 RMK AO2 PK WND 30028/0705 SLP096 T00331033=
200504240651 METAR KATL 240651Z 31017G23KT 10SM FEW025 SCT048 03/M01 A2981 RMK AO2 PK WND 33027/0554 RAE04 SLP098 P0000 T00331011=
200504240610 SPECI KATL 240610Z 30015G22KT 10SM FEW014 SCT025 OVC037 04/01 A2983 RMK AO2 PK WND 33027/0554 RAE04 P0000=
200504240610 SPECI KATL 240610Z 30015G22KT 10SM FEW014 SCT025 OVC037 04/01 A2983 RMK AO2 PK WND 33027/0554 RAE04 P0000=
200504240551 METAR KATL 240551Z 31019G30KT 6SM -RA BR BKN016 BKN023 OVC030 05/03 A2984 RMK AO2 PK WND 32030/0544 RAB25 SLP107 P0000 60000 T00500028 10117 20050 53006=
200504240542 SPECI KATL 240542Z 32021G25KT 6SM -RA BKN018 BKN026 OVC036 06/03 A2984 RMK AO2 PK WND 31027/0522 RAB25 P0000=
200504240542 SPECI KATL 240542Z 32021G25KT 6SM -RA BKN018 BKN026 OVC036 06/03 A2984 RMK AO2 PK WND 31027/0522 RAB25 P0000=
200504240451 METAR KATL 240451Z 30011G23KT 10SM FEW027 BKN055 08/03 A2983 RMK AO2 PK WND 31027/0413 SLP101 T00830028 401610083=
200504240351 METAR KATL 240351Z 31014G22KT 10SM FEW030 BKN049 BKN060 09/03 A2982 RMK AO2 PK WND 30030/0312 SLP098 T00890033=
200504240251 METAR KATL 240251Z 30012KT 10SM FEW045 09/04 A2982 RMK AO2 SLP099 T00890039 51007=
200504240151 METAR KATL 240151Z 27009KT 10SM CLR 10/03 A2982 RMK AO2 SLP097 T01000033=
200504240051 METAR KATL 240051Z 29009KT 10SM FEW045 SCT090 11/03 A2981 RMK AO2 SLP093 T01060028=
200504232351 METAR KATL 232351Z 30015KT 10SM SCT055 SCT070 12/02 A2980 RMK AO2 SLP090 60000 T01170017 10156 20117 51005=
200504232251 METAR KATL 232251Z COR 30011KT 10SM SCT055 SCT070 13/03 A2980 RMK AO2 RAE01 SLP089 P0000 T01280028=
200504232151 METAR KATL 232151Z 30015G20KT 10SM -RA FEW037 SCT055 BKN070 12/04 A2979 RMK AO2 PK WND 31027/2105 RAB44 SLP087 P0000 T01220039=
200504232051 METAR KATL 232051Z 30015G22KT 10SM BKN070 BKN080 14/02 A2979 RMK AO2 SLP084 T01390022 51007=
200504231951 METAR KATL 231951Z 31020G23KT 10SM BKN055 BKN070 14/02 A2978 RMK AO2 PK WND 32028/1937 SLP082 T01440022=
200504231851 METAR KATL 231851Z 32021G26KT 10SM BKN055 14/02 A2978 RMK AO2 PK WND 30027/1813 SLP080 T01440022=
200504231751 METAR KATL 231751Z 31017G24KT 10SM BKN047 BKN055 15/04 A2976 RMK AO2 PK WND 32027/1652 SLP076 T01500044 10150 20117 51005=
200504231651 METAR KATL 231651Z 31020G30KT 10SM BKN042 14/04 A2976 RMK AO2 PK WND 30030/1649 SLP075 T01390039=
200504231551 METAR KATL 231551Z 30018G25KT 10SM BKN036 14/06 A2976 RMK AO2 SLP076 T01390056=
200504231451 METAR KATL 231451Z 29015G23KT 10SM BKN032 12/06 A2975 RMK AO2 SLP071 T01220056 53020=
200504231351 METAR KATL 231351Z 29013G24KT 10SM SCT030 12/06 A2972 RMK AO2 SLP061 T01220061=
200504231251 METAR KATL 231251Z 28011KT 10SM FEW080 13/09 A2970 RMK AO2 SLP053 T01330089=
200504231151 METAR KATL 231151Z 27008KT 10SM FEW120 12/08 A2969 RMK AO2 SLP050 70070 T01220083 10161 20111 53001=
200504231051 METAR KATL 231051Z 28007KT 10SM FEW200 12/08 A2967 RMK AO2 SLP045 T01170078=
200504230951 METAR KATL 230951Z 30011KT 10SM CLR 12/09 A2967 RMK AO2 SLP044 T01220089=
200504230851 METAR KATL 230851Z 29007KT 10SM CLR 12/10 A2969 RMK AO2 SLP049 T01220100 51001=
200504230751 METAR KATL 230751Z 27010KT 10SM CLR 14/11 A2968 RMK AO2 SLP049 T01390106=
200504230651 METAR KATL 230651Z 23006KT 5SM BR FEW003 15/15 A2969 RMK AO2 SLP049 T01500150=
200504230551 METAR KATL 230551Z 23006KT 7SM SCT008 BKN150 16/15 A2968 RMK AO2 SLP048 60013 T01560150 10167 20156 51007=
200504230530 SPECI KATL 230530Z 24004KT 7SM SCT008 BKN150 16/15 A2968 RMK AO2=
200504230530 SPECI KATL 230530Z 24004KT 7SM SCT008 BKN150 16/15 A2968 RMK AO2=
200504230451 METAR KATL 230451Z 22005KT 10SM FEW080 BKN150 16/15 A2967 RMK AO2 SLP041 T01610150 402560133=
200504230351 METAR KATL 230351Z 00000KT 10SM FEW012 SCT035 16/15 A2969 RMK AO2 PK WND 31029/0252 TSB0257E32RAE19 SLP046 LTG DSNT E P0013 T01610150=
200504230332 SPECI KATL 230332Z 14003KT 10SM SCT100 BKN120 16/14 A2970 RMK AO2 PK WND 31029/0252 TSB0257E32RAE19 LTG DSNT E AND S TS E MOV E P0013=
200504230332 SPECI KATL 230332Z 14003KT 10SM SCT100 BKN120 16/14 A2970 RMK AO2 PK WND 31029/0252 TSB0257E32RAE19 LTG DSNT E AND S TS E MOV E P0013=
200504230327 SPECI KATL 230327Z 18004KT 2 1/2SM TS BR SCT055CB BKN100 BKN120 16/14 A2969 RMK AO2 PK WND 31029/0252 TSB0257RAE19 CONS LTGICCCCG TS W MOV E P0013=
200504230327 SPECI KATL 230327Z 18004KT 2 1/2SM TS BR SCT055CB BKN100 BKN120 16/14 A2969 RMK AO2 PK WND 31029/0252 TSB0257RAE19 CONS LTGICCCCG TS W MOV E P0013=
200504230258 SPECI KATL 230258Z 32014G29KT 3SM R09R/4500VP6000FT +TSRA BR SCT055CB BKN100 BKN120 17/15 A2972 RMK AO2 PK WND 31029/0252 TSB57 PRESRR CONS LTGICCCCG TS W MOV E P0002=
200504230258 SPECI KATL 230258Z 32014G29KT 3SM R09R/4500VP6000FT +TSRA BR SCT055CB BKN100 BKN120 17/15 A2972 RMK AO2 PK WND 31029/0252 TSB57 PRESRR CONS LTGICCCCG TS W MOV E P0002=
200504230251 METAR KATL 230251Z 22008KT 190V270 10SM -RA BKN100 BKN110 17/15 A2966 RMK AO2 RAB50 SLP036 LTG DSNT NW P0000 60000 T01670150 56005=
200504230151 METAR KATL 230151Z 17006KT 9SM SCT075 BKN150 16/15 A2966 RMK AO2 SLP039 LTG DSNT NW T01610150=
200504230051 METAR KATL 230051Z 18005KT 10SM FEW007 SCT075 BKN150 16/15 A2965 RMK AO2 SLP038 T01610150=
200504222351 METAR KATL 222351Z 17009KT 9SM FEW060 SCT075 SCT150 17/15 A2967 RMK AO2 PRESFR SLP045 60015 T01670150 10178 20150 58021=
200504222251 METAR KATL 222251Z 21005KT 10SM SCT060 BKN075 17/16 A2972 RMK AO2 SLP060 T01720156=
200504222151 METAR KATL 222151Z 19005KT 10SM FEW120 BKN150 OVC250 18/15 A2971 RMK AO2 SLP058 T01780150=
200504222051 METAR KATL 222051Z 21007KT 10SM FEW005 SCT065 OVC150 17/16 A2974 RMK AO2 SLP068 60015 T01670156 56049=
200504221951 METAR KATL 221951Z 22009KT 9SM FEW005 SCT100 BKN150 OVC250 16/15 A2977 RMK AO2 RAE01 SLP079 CBMAM OHD-E-SW VIRGA OHD AND ALQDS P0000 T01610150=
200504221851 METAR KATL 221851Z 11006KT 9SM -RA FEW020 BKN060 OVC090 16/14 A2979 RMK AO2 TSE14 SLP083 LTG DSNT NE-SE TS MOV E CB DSNT NE-SE CBMAM OHD-W-NW P0015 T01610144=
200504221816 SPECI KATL 221816Z 30008KT 6SM -RA BR FEW023 OVC031 16/14 A2986 RMK AO2 TSE14 LTG DSNT NE-SE TS MOV E CB DSNT NE-SE P0012 $=
200504221816 SPECI KATL 221816Z 30008KT 6SM -RA BR FEW023 OVC031 16/14 A2986 RMK AO2 TSE14 LTG DSNT NE-SE TS MOV E CB DSNT NE-SE P0012 $=
200504221804 SPECI KATL 221804Z 29009KT 2SM TSRA BKN017CB BKN024 OVC030 15/14 A2988 RMK AO2 SFC VIS 4 FRQ LTGICCG TS NE-S MOV E P0010 $=
200504221804 SPECI KATL 221804Z 29009KT 2SM TSRA BKN017CB BKN024 OVC030 15/14 A2988 RMK AO2 SFC VIS 4 FRQ LTGICCG TS NE-S MOV E P0010 $=
200504221755 SPECI KATL 221755Z 27012G33KT 2SM R09R/5000VP6000FT TSRA BKN012CB BKN024 OVC035 15/14 A2989 RMK AO2 SFC VIS 3 PRESRR FRQ LTGICCG TS NE-SW MOV E P0004 $=
200504221755 SPECI KATL 221755Z 27012G33KT 2SM R09R/5000VP6000FT TSRA BKN012CB BKN024 OVC035 15/14 A2989 RMK AO2 SFC VIS 3 PRESRR FRQ LTGICCG TS NE-SW MOV E P0004 $=
200504221742 SPECI KATL 221742Z 31027G39KT 1/2SM R09R/2400V5500FT +TSRA FEW009 BKN024CB OVC037 16/14 A2985 RMK AO2 PK WND 30039/1740 WSHFT 1727 TWR VIS 1 TSB25RAB34 CNS LTGICCG TS OHD-W-N MOV E P0013=
200504221742 SPECI KATL 221742Z 31027G39KT 1/2SM R09R/2400V5500FT +TSRA FEW009 BKN024CB OVC037 16/14 A2985 RMK AO2 PK WND 30039/1740 WSHFT 1727 TWR VIS 1 TSB25RAB34 CNS LTGICCG TS OHD-W-N MOV E P0013=
200504221740 SPECI KATL 221740Z 30028G39KT 1SM R09R/2800VP6000FT +TSRA FEW017 BKN024CB OVC040 16/14 A2986 RMK AO2 PK WND 30039/1740 TSB25RAB34 CNS LTGICCG TS OHD-W-N MOV E P0005=
200504221740 SPECI KATL 221740Z 30028G39KT 1SM R09R/2800VP6000FT +TSRA FEW017 BKN024CB OVC040 16/14 A2986 RMK AO2 PK WND 30039/1740 TSB25RAB34 CNS LTGICCG TS OHD-W-N MOV E P0005=
200504221735 SPECI KATL 221735Z 30019G38KT 1SM R09R/4500VP6000FT +TSRA BLDU BKN024 BKN037 OVC065 18/14 A2986 RMK AO2 PK WND 29038/1731 TSB25RAB34 CNS LTGICCG TS W-N MOV E TCU ALQDS P0000=
200504221735 SPECI KATL 221735Z 30019G38KT 1SM R09R/4500VP6000FT +TSRA BLDU BKN024 BKN037 OVC065 18/14 A2986 RMK AO2 PK WND 29038/1731 TSB25RAB34 CNS LTGICCG TS W-N MOV E TCU ALQDS P0000=
200504221732 SPECI KATL 221732Z 30031G38KT 9SM TS BKN035CB BKN065 BKN250 23/16 A2986 RMK AO2 PK WND 29038/1731 TSB25 PRESRR CNS LTGICCG TS W-N MOV E TCU ALQDS=
200504221732 SPECI KATL 221732Z 30031G38KT 9SM TS BKN035CB BKN065 BKN250 23/16 A2986 RMK AO2 PK WND 29038/1731 TSB25 PRESRR CNS LTGICCG TS W-N MOV E TCU ALQDS=
200504221726 SPECI KATL 221726Z 24009G15KT 10SM TS FEW035CB SCT045TCU BKN085 BKN250 24/16 A2983 RMK AO2 TSB25 CNS LTGICCG TS VC W-N MOV E TCU ALQDS=
200504221726 SPECI KATL 221726Z 24009G15KT 10SM TS FEW035CB SCT045TCU BKN085 BKN250 24/16 A2983 RMK AO2 TSB25 CNS LTGICCG TS VC W-N MOV E TCU ALQDS=
200504221651 METAR KATL 221651Z 24007KT 210V290 10SM FEW035TCU SCT085 BKN250 25/17 A2983 RMK AO2 SLP094 LTG DSNT W-N CB DSNT W-N TCU E-S T02500167=
200504221551 METAR KATL 221551Z 24009KT 10SM FEW035TCU SCT070 SCT100 BKN250 23/16 A2988 RMK AO2 SLP111 TCU DSNT E AND NW-N ACC N AND W T02330161=
200504221451 METAR KATL 221451Z 25010KT 10SM FEW025 SCT100 BKN250 22/16 A2989 RMK AO2 SLP113 TCU DSNT SE ACC DSNT NW T02220156 50002=
200504221351 METAR KATL 221351Z 23007KT 10SM FEW100 SCT200 SCT250 19/14 A2989 RMK AO2 SLP116 T01940144=
200504221251 METAR KATL 221251Z 21004KT 10SM SCT250 16/13 A2989 RMK AO2 SLP116 T01610128=
200504221151 METAR KATL 221151Z 16003KT 9SM SCT040 BKN180 16/13 A2988 RMK AO2 SLP112 T01560128 10156 20133 55001=
200504221051 METAR KATL 221051Z 00000KT 10SM SCT038 BKN060 14/13 A2988 RMK AO2 SLP111 T01440128=
200504220951 METAR KATL 220951Z 25004KT 8SM FEW049 13/13 A2988 RMK AO2 SLP114 T01330128=
200504220851 METAR KATL 220851Z 20004KT 9SM SCT180 14/13 A2988 RMK AO2 SLP113 T01440133 56019=
200504220751 METAR KATL 220751Z 26006KT 10SM CLR 15/13 A2990 RMK AO2 SLP119 T01500133=
200504220651 METAR KATL 220651Z 27004KT 10SM CLR 15/13 A2992 RMK AO2 SLP125 T01500133=
200504220551 METAR KATL 220551Z 28007KT 10SM CLR 15/14 A2994 RMK AO2 SLP132 T01500139 10206 20150 58003=
200504220451 METAR KATL 220451Z 27007KT 10SM CLR 16/14 A2995 RMK AO2 SLP134 T01560139 402560150=
200504220351 METAR KATL 220351Z 25008KT 10SM FEW100 17/14 A2995 RMK AO2 SLP137 T01670139=
200504220251 METAR KATL 220251Z 25005KT 10SM FEW035 17/14 A2995 RMK AO2 SLP135 T01720139 51006=
200504220151 METAR KATL 220151Z 24004KT 10SM BKN039 18/14 A2995 RMK AO2 SLP134 T01830139=
200504220051 METAR KATL 220051Z 25005KT 10SM SCT043 SCT130 19/13 A2993 RMK AO2 SLP131 T01940133=
200504212351 METAR KATL 212351Z 27009KT 10SM SCT035 SCT130 21/13 A2993 RMK AO2 SLP131 60000 T02060128 10244 20200 56007=
200504212251 METAR KATL 212251Z 26012KT 10SM FEW035 SCT100 SCT130 22/12 A2994 RMK AO2 SLP132 T02170117=
200504212151 METAR KATL 212151Z 26011KT 10SM FEW035 BKN100 22/12 A2994 RMK AO2 SLP134 T02220122=
200504212051 METAR KATL 212051Z 24011KT 10SM FEW035 SCT080 BKN100 BKN150 22/12 A2995 RMK AO2 RAE1955B26E37 SLP136 P0000 60000 T02220117 58019=
200504211951 METAR KATL 211951Z 27011KT 10SM -RA FEW070 SCT100 OVC150 20/14 A2999 RMK AO2 RAB04E13B40 SLP151 P0000 T02000144=
200504211851 METAR KATL 211851Z 30015G20KT 10SM FEW070 BKN090 BKN150 22/12 A3001 RMK AO2 SLP156 T02170117=
200504211751 METAR KATL 211751Z 27008KT 10SM FEW065 BKN075 BKN150 24/11 A3001 RMK AO2 SLP155 SHRA DSNT W-NW T02390106 10256 20150 58012=
200504211651 METAR KATL 211651Z VRB06KT 10SM FEW060 BKN070 25/10 A3002 RMK AO2 SLP159 T02500100=
200504211551 METAR KATL 211551Z 29009KT 10SM FEW045 24/12 A3004 RMK AO2 SLP165 T02390117=
200504211451 METAR KATL 211451Z 29011KT 10SM FEW040 22/13 A3004 RMK AO2 SLP166 T02220128 53005=
200504211351 METAR KATL 211351Z 27007KT 10SM CLR 21/12 A3003 RMK AO2 SLP164 T02060117=
200504211251 METAR KATL 211251Z 20004KT 10SM FEW230 18/11 A3002 RMK AO2 SLP161 T01780106=
200504211151 METAR KATL 211151Z 28005KT 10SM FEW230 15/09 A3003 RMK AO2 SLP162 T01500094 10172 20150 53006=
200504211051 METAR KATL 211051Z 27004KT 10SM FEW230 16/09 A3001 RMK AO2 SLP155 T01610089=
200504210951 METAR KATL 210951Z 27006KT 10SM CLR 16/08 A3000 RMK AO2 SLP154 T01560078=
200504210851 METAR KATL 210851Z 26006KT 10SM CLR 16/07 A3001 RMK AO2 SLP155 T01610072 57013=
200504210751 METAR KATL 210751Z 27008KT 10SM CLR 17/07 A3002 RMK AO2 SLP158 T01670067=
200504210651 METAR KATL 210651Z 28006KT 10SM CLR 16/07 A3003 RMK AO2 SLP164 T01610067=
200504210551 METAR KATL 210551Z 27006KT 10SM CLR 17/07 A3005 RMK AO2 SLP169 T01670072 10233 20167 50000=
200504210451 METAR KATL 210451Z 25006KT 10SM CLR 18/08 A3005 RMK AO2 SLP170 T01830078 402500122=
200504210351 METAR KATL 210351Z 23006KT 10SM CLR 18/07 A3005 RMK AO2 SLP170 T01830072=
200504210251 METAR KATL 210251Z 22004KT 10SM CLR 19/07 A3005 RMK AO2 SLP169 T01940067 53005=
200504210151 METAR KATL 210151Z 22004KT 10SM CLR 21/06 A3004 RMK AO2 SLP166 T02060061=
200504210051 METAR KATL 210051Z 21004KT 10SM CLR 21/07 A3003 RMK AO2 SLP163 T02110067=
200504202351 METAR KATL 202351Z 21005KT 10SM FEW120 23/07 A3003 RMK AO2 SLP165 T02330067 10250 20228 56009=
200504202251 METAR KATL 202251Z 19007KT 10SM SCT080 24/07 A3004 RMK AO2 SLP168 T02440067=
200504202151 METAR KATL 202151Z 23005KT 10SM FEW080 SCT100 SCT150 24/07 A3005 RMK AO2 SLP170 T02440072=
200504202051 METAR KATL 202051Z 21008KT 10SM FEW080 SCT100 SCT150 24/06 A3006 RMK AO2 SLP174 ACSL DSNT SW T02440056 56022=
200504201951 METAR KATL 201951Z 20010G14KT 160V230 10SM FEW070 SCT150 25/07 A3008 RMK AO2 SLP180 T02500072=
200504201851 METAR KATL 201851Z 19006G14KT 10SM SCT065 SCT150 24/08 A3011 RMK AO2 SLP189 T02390083=
200504201751 METAR KATL 201751Z 30008KT 10SM FEW060 SCT100 SCT150 23/09 A3013 RMK AO2 SLP197 T02330094 10244 20122 58016=
200504201651 METAR KATL 201651Z 23007KT 210V270 10SM FEW065 SCT110 SCT250 24/09 A3015 RMK AO2 SLP204 T02390089=
200504201551 METAR KATL 201551Z 23007KT 10SM FEW050 SCT150 23/09 A3017 RMK AO2 SLP210 T02280094=
200504201451 METAR KATL 201451Z 28006KT 10SM FEW150 21/12 A3018 RMK AO2 SLP213 T02110117 51009=
200504201351 METAR KATL 201351Z 27007KT 10SM SCT150 19/10 A3017 RMK AO2 SLP211 T01890100=
200504201251 METAR KATL 201251Z 29005KT 10SM SCT180 SCT230 16/08 A3016 RMK AO2 SLP210 T01610078=
200504201151 METAR KATL 201151Z 28003KT 10SM SCT180 SCT230 13/07 A3015 RMK AO2 SLP204 T01280072 10172 20122 53009=
200504201051 METAR KATL 201051Z 00000KT 10SM FEW030 SCT200 13/06 A3013 RMK AO2 SLP199 T01330061=
200504200951 METAR KATL 200951Z 00000KT 10SM FEW200 13/07 A3013 RMK AO2 SLP196 T01280072=
200504200851 METAR KATL 200851Z 00000KT 10SM SCT200 13/07 A3012 RMK AO2 SLP193 T01330072 56006=
200504200751 METAR KATL 200751Z 00000KT 10SM SCT200 14/07 A3012=
200504200651 METAR KATL 200651Z 26003KT 10SM SCT200 15/06 A3013 RMK AO2 SLP196 T01500061=
200504200551 METAR KATL 200551Z 28003KT 10SM BKN200 17/06 A3014 RMK AO2 SLP198 T01720056 10233 20161 58001=
200504200451 METAR KATL 200451Z 24005KT 10SM SCT200 17/06 A3014 RMK AO2 SLP200 T01720056 402560117=
200504200351 METAR KATL 200351Z 21006KT 10SM FEW120 SCT200 BKN250 18/05 A3014 RMK AO2 SLP202 T01830050=
200504200251 METAR KATL 200251Z 23010KT 10SM FEW120 SCT250 19/04 A3014 RMK AO2 SLP200 T01940044 53012=
200504192251 METAR KATL 192251Z 23008KT 10SM FEW085 SCT150 BKN250 24/04 A3010 RMK AO2 SLP187 T02440044=
200504192151 METAR KATL 192151Z 22004KT 10SM FEW085 SCT200 BKN250 25/04 A3011 RMK AO2 SLP191 T02500039=
200504192051 METAR KATL 192051Z 22008KT 10SM FEW085 SCT200 BKN250 26/06 A3012 RMK AO2 SLP193 T02560056 56020 $=
200504191951 METAR KATL 191951Z VRB06KT 10SM FEW085 SCT200 BKN250 26/04 A3014 RMK AO2 SLP200 T02560044=
200504191851 METAR KATL 191851Z 26009G15KT 10SM FEW085 SCT200 BKN250 25/05 A3015 RMK AO2 SLP204 T02500050=
200504191751 METAR KATL 191751Z VRB04KT 10SM FEW080 SCT200 BKN250 24/05 A3018 RMK AO2 SLP213 T02440050 10250 20133 58015=
200504191651 METAR KATL 191651Z 21008KT 10SM FEW065 SCT200 BKN250 24/06 A3020 RMK AO2 SLP221 T02440056=
200504191551 METAR KATL 191551Z 30005KT 10SM FEW200 BKN250 23/08 A3022 RMK AO2 SLP226 T02280078=
200504191451 METAR KATL 191451Z 29005KT 10SM FEW200 BKN250 22/08 A3022 RMK AO2 SLP228 T02170078 53008=
200504191351 METAR KATL 191351Z 27005KT 10SM FEW200 SCT250 20/07 A3021 RMK AO2 SLP225 T02000067=
200504191251 METAR KATL 191251Z 27005KT 10SM FEW210 SCT250 16/07 A3021 RMK AO2 SLP223 T01610067=
200504191151 METAR KATL 191151Z 24004KT 10SM FEW210 SCT250 13/06 A3020 RMK AO2 SLP221 T01330061 10167 20117 53015=
200504191051 METAR KATL 191051Z 25003KT 10SM FEW230 12/06 A3017 RMK AO2 SLP212 T01220056 $=
200504190951 METAR KATL 190951Z 19003KT 10SM CLR 13/06 A3016 RMK AO2 SLP207 T01280061 $=
200504190851 METAR KATL 190851Z 29003KT 10SM CLR 14/05 A3015 RMK AO2 SLP204 T01440050 55002 $=
200504190751 METAR KATL 190751Z 28004KT 10SM CLR 15/05 A3015 RMK AO2 SLP203 T01500050 $=
200504190651 METAR KATL 190651Z 27006KT 10SM CLR 16/04 A3015 RMK AO2 SLP204 T01610044 $=
200504190551 METAR KATL 190551Z 27007KT 10SM CLR 16/04 A3016 RMK AO2 SLP206 T01610044 10239 20161 58005=
200504190451 METAR KATL 190451Z 25005KT 10SM CLR 17/04 A3017 RMK AO2 SLP210 T01670044 402560100=
200504190351 METAR KATL 190351Z 24005KT 10SM CLR 18/03 A3017 RMK AO2 SLP212 T01830033=
200504190251 METAR KATL 190251Z 24006KT 10SM CLR 19/03 A3017 RMK AO2 SLP212 T01940033 52007=
200504190151 METAR KATL 190151Z 23004KT 10SM CLR 21/03 A3017 RMK AO2 SLP210 T02060028=
200504190051 METAR KATL 190051Z 22003KT 10SM CLR 22/03 A3016 RMK AO2 SLP207 T02170028=
200504182351 METAR KATL 182351Z 20006KT 10SM CLR 24/02 A3015 RMK AO2 SLP206 T02390017 10256 20233 56006=
200504182251 METAR KATL 182251Z 20006KT 10SM CLR 25/01 A3015 RMK AO2 SLP206 T02500011=
200504182151 METAR KATL 182151Z 21006KT 10SM CLR 26/02 A3016 RMK AO2 SLP208 T02560017 $=
200504182051 METAR KATL 182051Z 29004KT 10SM CLR 26/02 A3017 RMK AO2 SLP211 T02560022 56024=
200504181951 METAR KATL 181951Z 00000KT 10SM CLR 26/01 A3019 RMK AO2 SLP218 T02560011=
200504181851 METAR KATL 181851Z 30004KT 10SM CLR 25/04 A3022 RMK AO2 SLP226 T02500044=
200504181751 METAR KATL 181751Z 21005KT 10SM CLR 24/03 A3024 RMK AO2 SLP235 T02440028 10244 20111 58014=
200504181651 METAR KATL 181651Z VRB04KT 10SM FEW080 23/03 A3026 RMK AO2 SLP242 T02330028=
200504181551 METAR KATL 181551Z 29004KT 10SM CLR 23/07 A3028 RMK AO2 SLP247 T02280067=
200504181451 METAR KATL 181451Z 30005KT 10SM CLR 21/07 A3028 RMK AO2 SLP249 T02110072 51006=
200504181351 METAR KATL 181351Z 31005KT 10SM CLR 18/07 A3028 RMK AO2 SLP249 T01830072=
200504181251 METAR KATL 181251Z 30006KT 10SM CLR 15/06 A3028 RMK AO2 SLP249 T01500056=
200504181151 METAR KATL 181151Z 31006KT 10SM CLR 11/06 A3027 RMK AO2 SLP246 T01110056 10156 20100 51012=
200504181051 METAR KATL 181051Z 31004KT 10SM CLR 11/04 A3026 RMK AO2 SLP243 T01060044=
200504180951 METAR KATL 180951Z 29005KT 10SM CLR 11/04 A3025 RMK AO2 SLP239 T01110044=
200504180851 METAR KATL 180851Z 29005KT 10SM CLR 12/04 A3023 RMK AO2 SLP234 T01170039 55005=
200504180751 METAR KATL 180751Z 00000KT 10SM CLR 13/03 A3023 RMK AO2 SLP233 T01280028=
200504180651 METAR KATL 180651Z 00000KT 10SM CLR 14/01 A3024 RMK AO2 SLP234 T01440011=
200504180551 METAR KATL 180551Z 24005KT 10SM CLR 16/00 A3025 RMK AO2 SLP238 T01560000 10217 20139 58006=
200504180451 METAR KATL 180451Z 25005KT 10SM SCT250 15/01 A3026 RMK AO2 SLP242 T01500006 402280083=
200504180351 METAR KATL 180351Z 24005KT 10SM BKN250 17/01 A3026 RMK AO2 SLP244 T01670011=
200504180251 METAR KATL 180251Z 22004KT 10SM CLR 17/03 A3027 RMK AO2 SLP246 T01720028 51007=
200504180151 METAR KATL 180151Z 00000KT 10SM BKN250 18/03 A3027 RMK AO2 SLP246 T01780033=
200504180051 METAR KATL 180051Z 29003KT 10SM BKN250 20/01 A3026 RMK AO2 SLP243 T02000011=
200504172351 METAR KATL 172351Z 24003KT 10SM BKN250 22/M01 A3025 RMK AO2 SLP239 T02171011 10228 20206 57008=
200504172251 METAR KATL 172251Z 00000KT 10SM BKN250 22/M02 A3025 RMK AO2 SLP243 T02171017=
200504172151 METAR KATL 172151Z VRB05KT 10SM BKN250 22/00 A3026 RMK AO2 SLP245 T02220000=
200504172051 METAR KATL 172051Z 32006KT 10SM BKN250 23/01 A3027 RMK AO2 SLP248 T02280006 56027=
200504171951 METAR KATL 171951Z 32009KT 10SM BKN250 22/01 A3030 RMK AO2 SLP256 T02220011=
200504171851 METAR KATL 171851Z 00000KT 10SM BKN250 22/00 A3032 RMK AO2 SLP266 T02170000=
200504171751 METAR KATL 171751Z 00000KT 10SM BKN250 21/00 A3035 RMK AO2 SLP276 T02060000 10206 20111 58022=
200504171651 METAR KATL 171651Z 00000KT 10SM BKN230 19/M01 A3038 RMK AO2 SLP287 T01941006=
200504171551 METAR KATL 171551Z 00000KT 10SM BKN230 18/M01 A3041 RMK AO2 SLP295 T01781011=
200504171451 METAR KATL 171451Z 14004KT 10SM FEW200 16/M01 A3042 RMK AO2 SLP300 T01561011 51003=
200504171351 METAR KATL 171351Z 12004KT 10SM FEW200 14/M02 A3042 RMK AO2 SLP298 T01391022=
200504171251 METAR KATL 171251Z 08008KT 10SM CLR 12/M01 A3042 RMK AO2 SLP299 T01171011=
200504171151 METAR KATL 171151Z 04005KT 10SM CLR 11/M03 A3041 RMK AO2 SLP296 T01111033 10128 20083 53017=
200504171051 METAR KATL 171051Z 07004KT 10SM CLR 09/M03 A3038 RMK AO2 SLP286 T00941028=
200504170951 METAR KATL 170951Z 05003KT 10SM CLR 11/M03 A3037 RMK AO2 SLP281 T01061028=
200504170851 METAR KATL 170851Z 05003KT 10SM CLR 10/01 A3036 RMK AO2 SLP278 T01000006 55001=
200504170751 METAR KATL 170751Z 00000KT 10SM CLR 11/00 A3036 RMK AO2 SLP278 T01060000=
200504170651 METAR KATL 170651Z 07003KT 10SM CLR 12/M03 A3035 RMK AO2 SLP277 T01171028=
200504170551 METAR KATL 170551Z 10003KT 10SM CLR 12/M02 A3036 RMK AO2 SLP279 T01221017 10189 20117 58000=
200504170451 METAR KATL 170451Z 10003KT 10SM CLR 13/M03 A3037 RMK AO2 SLP282 T01281033 402060072=
200504170351 METAR KATL 170351Z 11003KT 10SM CLR 14/M03 A3037 RMK AO2 SLP282 T01391033=
200504170251 METAR KATL 170251Z 11006KT 10SM CLR 15/M02 A3036 RMK AO2 SLP280 T01501022 51014=
200504170151 METAR KATL 170151Z 13004KT 10SM CLR 16/01 A3035 RMK AO2 SLP278 T01610006=
200504170051 METAR KATL 170051Z 12005KT 10SM CLR 17/01 A3033 RMK AO2 SLP271 T01720006=
200504162351 METAR KATL 162351Z 12006KT 10SM CLR 19/01 A3032 RMK AO2 SLP265 T01890006 10206 20161 55001=
200504162251 METAR KATL 162251Z 07005KT 10SM CLR 19/02 A3031 RMK AO2 SLP264 T01940022=
200504162151 METAR KATL 162151Z 02007KT 10SM CLR 21/01 A3031 RMK AO2 SLP263 T02060006=
200504162051 METAR KATL 162051Z 33004KT 10SM CLR 20/M01 A3032 RMK AO2 SLP266 T02001006 56025=
200504161951 METAR KATL 161951Z VRB03KT 10SM CLR 19/00 A3034 RMK AO2 SLP271 T01890000=
200504161851 METAR KATL 161851Z VRB05KT 10SM CLR 18/M01 A3037 RMK AO2 SLP283 T01831006=
200504161751 METAR KATL 161751Z VRB04KT 10SM CLR 16/M03 A3040 RMK AO2 SLP292 T01611033 10167 20078 58022=
200504161651 METAR KATL 161651Z 05009KT 10SM CLR 16/M03 A3043 RMK AO2 SLP303 T01561028=
200504161551 METAR KATL 161551Z 06006KT 10SM CLR 13/M06 A3046 RMK AO2 SLP312 T01331061=
200504161451 METAR KATL 161451Z 06011G16KT 10SM CLR 12/M06 A3046 RMK AO2 SLP314 T01221061 51014=
200504161351 METAR KATL 161351Z 06015KT 10SM CLR 11/M06 A3046 RMK AO2 SLP313 T01061061=
200504161251 METAR KATL 161251Z 07015KT 10SM CLR 09/M02 A3044 RMK AO2 SLP306 T00941022=
200504161151 METAR KATL 161151Z 08008KT 10SM CLR 08/M01 A3042 RMK AO2 SLP300 T00781011 10128 20072 53021=
200504161051 METAR KATL 161051Z 09007KT 10SM CLR 08/M01 A3040 RMK AO2 SLP292 T00781011=
200504160951 METAR KATL 160951Z 08010KT 10SM CLR 09/M01 A3038 RMK AO2 SLP284 T00891011=
200504160851 METAR KATL 160851Z 08014KT 10SM CLR 10/M01 A3036 RMK AO2 SLP277 T01001006 51012=
200504160751 METAR KATL 160751Z 08013KT 10SM CLR 11/02 A3034 RMK AO2 SLP273 T01110017=
200504160651 METAR KATL 160651Z 09012KT 10SM CLR 12/02 A3033 RMK AO2 SLP270 T01220022=
200504160551 METAR KATL 160551Z 09007KT 10SM SCT095 12/03 A3032 RMK AO2 SLP265 T01220028 10206 20122 51021=
200504160451 METAR KATL 160451Z 10007KT 10SM CLR 14/02 A3031 RMK AO2 SLP260 T01440022 402220089=
200504160351 METAR KATL 160351Z 09008KT 10SM CLR 15/02 A3029 RMK AO2 SLP253 T01500022=
200504160251 METAR KATL 160251Z 10009KT 10SM CLR 17/03 A3026 RMK AO2 SLP243 T01670028 53029=
200504160151 METAR KATL 160151Z 12005KT 10SM CLR 18/04 A3023 RMK AO2 SLP233 T01780039=
200504160051 METAR KATL 160051Z 13005KT 10SM CLR 19/04 A3020 RMK AO2 SLP223 T01890044=
200504152351 METAR KATL 152351Z 18004KT 10SM CLR 21/04 A3017 RMK AO2 SLP213 T02060039 10222 20200 53003=
200504152251 METAR KATL 152251Z 09006KT 10SM CLR 21/03 A3016 RMK AO2 SLP208 T02110033=
200504152151 METAR KATL 152151Z 00000KT 10SM CLR 22/03 A3016 RMK AO2 SLP209 T02220033=
200504152051 METAR KATL 152051Z 09007KT 10SM CLR 22/04 A3016 RMK AO2 SLP210 T02170039 58015=
200504151951 METAR KATL 151951Z 04009KT 020V080 10SM FEW080 21/03 A3017 RMK AO2 SLP215 T02110033=
200504151851 METAR KATL 151851Z 11005KT 10SM CLR 21/04 A3019 RMK AO2 SLP223 T02060039=
200504151751 METAR KATL 151751Z 02010G15KT 10SM CLR 20/03 A3020 RMK AO2 SLP225 T02000033 10200 20094 58005=
200504151651 METAR KATL 151651Z 06011KT 10SM CLR 19/04 A3021 RMK AO2 SLP230 T01890044=
200504151551 METAR KATL 151551Z 05010KT 10SM CLR 18/04 A3023 RMK AO2 SLP233 T01780044=
200504151451 METAR KATL 151451Z 08011KT 10SM CLR 16/03 A3022 RMK AO2 SLP231 T01610033 51020=
200504151351 METAR KATL 151351Z 09008KT 10SM CLR 14/04 A3020 RMK AO2 SLP226 T01440039=
200504151251 METAR KATL 151251Z 08008KT 10SM CLR 11/04 A3019 RMK AO2 SLP221 T01110039=
200504151151 METAR KATL 151151Z 08007KT 10SM CLR 09/04 A3016 RMK AO2 SLP211 T00940044 10111 20089 53025=
200504151051 METAR KATL 151051Z 04007KT 10SM FEW210 11/03 A3012 RMK AO2 SLP198 T01060028=
200504150951 METAR KATL 150951Z 36008KT 10SM FEW008 11/02 A3010 RMK AO2 SLP189 T01110017=
200504150851 METAR KATL 150851Z 33006KT 10SM CLR 09/03 A3008 RMK AO2 SLP185 T00890033 53011=
200504150751 METAR KATL 150751Z 34007KT 10SM CLR 10/03 A3007 RMK AO2 SLP180 T01000033=
200504150651 METAR KATL 150651Z 34007KT 10SM CLR 11/03 A3005 RMK AO2 SLP174 T01060033=
200504150551 METAR KATL 150551Z 31006KT 10SM CLR 11/04 A3005 RMK AO2 SLP174 T01060044 10172 20100 53005=
200504150451 METAR KATL 150451Z 31006KT 10SM CLR 11/05 A3004 RMK AO2 SLP174 T01110050 401890083=
200504150351 METAR KATL 150351Z 30006KT 10SM FEW070 12/05 A3004 RMK AO2 SLP171 T01220050=
200504150251 METAR KATL 150251Z 28005KT 10SM FEW070 13/06 A3003 RMK AO2 SLP170 T01330056 51017=
200504150151 METAR KATL 150151Z 27004KT 10SM FEW070 15/06 A3003 RMK AO2 SLP166 T01500056=
200504150051 METAR KATL 150051Z 32007KT 10SM FEW080 15/05 A3001 RMK AO2 SLP161 T01500050=
200504142351 METAR KATL 142351Z 32008KT 10SM FEW080 17/03 A2998 RMK AO2 SLP152 T01720033 10189 20156 53001=
200504142251 METAR KATL 142251Z VRB03KT 10SM FEW080 18/M02 A2997 RMK AO2 SLP149 T01831022=
200504142151 METAR KATL 142151Z 04010KT 10SM FEW080 19/M02 A2998 RMK AO2 SLP150 T01891017=
200504142051 METAR KATL 142051Z 01005G15KT 10SM FEW080 18/M01 A2998 RMK AO2 SLP150 T01831011 58011=
200504141951 METAR KATL 141951Z 04009G17KT 10SM FEW080 18/01 A2999 RMK AO2 SLP155 T01780006=
200504141851 METAR KATL 141851Z 05007G16KT 10SM FEW080 17/01 A3001 RMK AO2 SLP160 T01670011=
200504141751 METAR KATL 141751Z 06009G15KT 010V090 10SM FEW060 16/02 A3001 RMK AO2 SLP162 60000 T01560022 10156 20083 58006=
200504141651 METAR KATL 141651Z 06013G22KT 10SM FEW060 14/02 A3003 RMK AO2 SLP167 T01390017=
200504141551 METAR KATL 141551Z 06016G20KT 10SM FEW060 13/02 A3004 RMK AO2 SLP172 T01330022=
200504141451 METAR KATL 141451Z 05016G20KT 10SM SCT060 SCT080 12/03 A3003 RMK AO2 SLP169 60000 T01220033 51012=
200504141351 METAR KATL 141351Z 04012KT 10SM FEW026 BKN080 11/04 A3002 RMK AO2 SLP164 T01110044=
200504141311 SPECI KATL 141311Z 07011KT 10SM FEW016 SCT026 BKN075 09/05 A3002 RMK AO2=
200504141311 SPECI KATL 141311Z 07011KT 10SM FEW016 SCT026 BKN075 09/05 A3002 RMK AO2=
200504141251 METAR KATL 141251Z 06014KT 10SM BKN016 BKN026 OVC070 09/05 A3002 RMK AO2 RAB1154E20 SLP165 P0000 T00890050=
200504141151 METAR KATL 141151Z 07012KT 10SM OVC016 08/06 A3000 RMK AO2 RAE11 SLP158 P0000 60000 70013 T00830056 10106 20083 53023=
200504141051 METAR KATL 141051Z 07012KT 10SM -RA OVC022 08/06 A2997 RMK AO2 RAE0954B24 SLP148 P0000 T00830056=
200504140951 METAR KATL 140951Z 07013KT 10SM -RA BKN018 OVC024 08/05 A2994 RMK AO2 RAB45 SLP141 P0000 T00830050=
200504140851 METAR KATL 140851Z 07015KT 10SM BKN018 BKN024 OVC035 09/05 A2992 RMK AO2 SLP133 T00890050 52015=
200504140840 SPECI KATL 140840Z 06015KT 10SM BKN015 OVC020 08/06 A2993 RMK AO2=
200504140840 SPECI KATL 140840Z 06015KT 10SM BKN015 OVC020 08/06 A2993 RMK AO2=
200504140816 SPECI KATL 140816Z 06015KT 7SM OVC014 08/07 A2992 RMK AO2=
200504140816 SPECI KATL 140816Z 06015KT 7SM OVC014 08/07 A2992 RMK AO2=
200504140751 METAR KATL 140751Z 07014KT 10SM OVC018 09/06 A2991 RMK AO2 SLP126 T00940061=
200504140651 METAR KATL 140651Z 08013KT 10SM FEW018 SCT023 OVC028 09/07 A2989 RMK AO2 SLP120 T00940067=
200504140622 SPECI KATL 140622Z 08012KT 10SM SCT010 SCT020 OVC028 10/07 A2988 RMK AO2=
200504140622 SPECI KATL 140622Z 08012KT 10SM SCT010 SCT020 OVC028 10/07 A2988 RMK AO2=
200504140551 METAR KATL 140551Z 08012KT 10SM OVC010 11/09 A2988 RMK AO2 SLP116 60007 T01060089 10150 20106 51009=
200504140514 SPECI KATL 140514Z 07013KT 10SM BKN013 BKN024 OVC034 11/09 A2987 RMK AO2=
200504140514 SPECI KATL 140514Z 07013KT 10SM BKN013 BKN024 OVC034 11/09 A2987 RMK AO2=
200504140451 METAR KATL 140451Z 07011KT 10SM BKN024 BKN065 12/10 A2987 RMK AO2 SLP112 T01170100 401890106=
200504140351 METAR KATL 140351Z 07007KT 10SM FEW036 SCT085 12/09 A2986 RMK AO2 SLP110 T01170094=
200504140251 METAR KATL 140251Z 05005KT 10SM SCT034 BKN085 13/10 A2985 RMK AO2 RAB0155E07 SLP105 P0000 60007 T01280100 51022=
200504140151 METAR KATL 140151Z 07007KT 10SM BKN060 BKN110 13/10 A2983 RMK AO2 TSE09RAB38E48 SLP099 P0000 T01330100=
200504140110 SPECI KATL 140110Z 36007KT 350V050 10SM BKN055 BKN110 14/08 A2982 RMK AO2 TSE09=
200504140110 SPECI KATL 140110Z 36007KT 350V050 10SM BKN055 BKN110 14/08 A2982 RMK AO2 TSE09=
200504140051 METAR KATL 140051Z 29006KT 10SM TS SCT045CB BKN055 BKN100 12/09 A2980 RMK AO2 RAB2353E48 SLP091 OCNL LTGICCG N TS N MOV SE P0007 T01220089=
200504132351 METAR KATL 132351Z 29018G23KT 10SM TS BKN047CB BKN100 OVC150 15/07 A2978 RMK AO2 TSB51 SLP085 60006 T01500072 10189 20133 53018=
200504132251 METAR KATL 132251Z 28008KT 10SM BKN050 BKN100 BKN150 16/09 A2976 RMK AO2 SLP074 T01610089=
200504132151 METAR KATL 132151Z 27005KT 10SM SCT030 BKN050 BKN090 BKN150 14/09 A2974 RMK AO2 TSE47RAE43 SLP071 LTG DSNT E-SE CB DSNT E-SE MOV SE P0006 T01440089=
200504132111 SPECI KATL 132111Z 35016KT 6SM -TSRA BKN026CB BKN050 BKN075 OVC150 14/08 A2974 RMK AO2 OCNL LTGICCG OHD-SE AND NW TS OHD-SE AND NW MOV SE P0006=
200504132111 SPECI KATL 132111Z 35016KT 6SM -TSRA BKN026CB BKN050 BKN075 OVC150 14/08 A2974 RMK AO2 OCNL LTGICCG OHD-SE AND NW TS OHD-SE AND NW MOV SE P0006=
200504132051 METAR KATL 132051Z 30013KT 10SM -TSRA BKN055CB BKN075 BKN100 BKN250 15/08 A2973 RMK AO2 PK WND 30030/2039 TSB43RAB43 SLP065 OCNL LTGIC TS OHD-NW-N MOV SE P0000 60000 T01500078 55001=
200504132043 SPECI KATL 132043Z 30020G30KT 10SM -TSRA BKN055CB BKN075 BKN100 BKN250 16/07 A2972 RMK AO2 PK WND 30030/2039 TSB43RAB43 OCNL LTGIC TS NW-N MOV SE P0000=
200504132043 SPECI KATL 132043Z 30020G30KT 10SM -TSRA BKN055CB BKN075 BKN100 BKN250 16/07 A2972 RMK AO2 PK WND 30030/2039 TSB43RAB43 OCNL LTGIC TS NW-N MOV SE P0000=
200504132031 SPECI KATL 132031Z 30007KT 10SM FEW040TCU SCT080 BKN100 BKN250 18/07 A2971 RMK AO2 LTG DSNT NW CB DSNT NW MOV SE TCU N AND SW SHRA DSNT NW=
200504132031 SPECI KATL 132031Z 30007KT 10SM FEW040TCU SCT080 BKN100 BKN250 18/07 A2971 RMK AO2 LTG DSNT NW CB DSNT NW MOV SE TCU N AND SW SHRA DSNT NW=
200504131951 METAR KATL 131951Z 28008KT 10SM FEW045TCU SCT080 SCT100 BKN250 19/07 A2972 RMK AO2 SLP060 CB DSNT NE-SE AND DSNT NW TCU SW-NW SHRA DSNT NE-SE T01890072=
200504131851 METAR KATL 131851Z 31016KT 10SM FEW045CB BKN060 BKN080 17/08 A2972 RMK AO2 SLP061 CB N-NE AND S-SW MOV ESE TCU DSNT NW SHRA N-NE AND S-SW T01720083=
200504131751 METAR KATL 131751Z 27008KT 10SM FEW040 BKN070 BKN090 16/08 A2973 RMK AO2 SLP065 TCU DSNT W-NW T01610078 10172 20106 50003=
200504131651 METAR KATL 131651Z 27010KT 10SM FEW030 BKN060 OVC090 16/08 A2974 RMK AO2 SLP067 TCU DSNT W-NW SHRA DSNT NE BINOVC DSNT W-NW T01560083=
200504131551 METAR KATL 131551Z 27009KT 10SM BKN045 BKN055 OVC075 16/07 A2973 RMK AO2 SLP065 BINOVC DSNT NE-E T01560072=
200504131451 METAR KATL 131451Z 32007KT 10SM FEW030 SCT100 SCT200 17/08 A2972 RMK AO2 SLP060 T01720083 53001=
200504131351 METAR KATL 131351Z 29008KT 10SM FEW100 15/08 A2972 RMK AO2 SLP059 T01500078=
200504131251 METAR KATL 131251Z 28007KT 10SM FEW010 SCT090 13/08 A2972 RMK AO2 SLP061 T01330078=
200504131151 METAR KATL 131151Z 29006KT 10SM FEW030 11/07 A2972 RMK AO2 SLP060 T01060072 10150 20106 53010=
200504131051 METAR KATL 131051Z 28008KT 10SM FEW030 11/07 A2970 RMK AO2 SLP054 T01060067=
200504130951 METAR KATL 130951Z 28008KT 10SM CLR 11/07 A2969 RMK AO2 SLP050 T01110072=
200504130851 METAR KATL 130851Z 29009KT 10SM CLR 12/07 A2969 RMK AO2 SLP048 T01220072 55007=
200504130751 METAR KATL 130751Z 28007KT 10SM CLR 13/07 A2969 RMK AO2 SLP047 T01280072=
200504130651 METAR KATL 130651Z 30008KT 10SM CLR 14/08 A2970 RMK AO2 SLP052 T01390078=
200504130551 METAR KATL 130551Z 30009KT 10SM SCT075 15/09 A2971 RMK AO2 SLP055 60000 T01500089 10217 20150 53002=
200504130451 METAR KATL 130451Z 29007KT 10SM BKN075 17/11 A2971 RMK AO2 SLP053 T01670106 402330156=
200504130351 METAR KATL 130351Z 26006KT 10SM SCT065 BKN080 17/12 A2970 RMK AO2 SLP053 T01720122=
200504130251 METAR KATL 130251Z 23005KT 10SM BKN060 OVC075 18/14 A2971 RMK AO2 TSB0152E41RAE24 SLP053 LTG DSNT E-SE-S CB DSNT E-SE-S P0000 60000 T01780139 53005=
200504130242 SPECI KATL 130242Z 25005KT 10SM FEW042 BKN060 OVC080 18/14 A2971 RMK AO2 TSB0152E41RAE24 LTG DSNT E-SE-S CB DSNT E-SE-S P0000=
200504130242 SPECI KATL 130242Z 25005KT 10SM FEW042 BKN060 OVC080 18/14 A2971 RMK AO2 TSB0152E41RAE24 LTG DSNT E-SE-S CB DSNT E-SE-S P0000=
200504130158 SPECI KATL 130158Z 21008KT 10SM -TSRA FEW039 BKN065 OVC090 19/14 A2969 RMK AO2 TSB52 P0000=
200504130158 SPECI KATL 130158Z 21008KT 10SM -TSRA FEW039 BKN065 OVC090 19/14 A2969 RMK AO2 TSB52 P0000=
200504130151 METAR KATL 130151Z 19007KT 10SM -RA FEW042 BKN080 OVC100 19/14 A2969 RMK AO2 RAB46 SLP047 P0000 T01940139=
200504130051 METAR KATL 130051Z 20006KT 10SM FEW045 SCT090 SCT150 20/13 A2968 RMK AO2 SLP045 CB DSNT NW-N T02000128=
200504122351 METAR KATL 122351Z 19009KT 10SM SCT045TCU SCT150 22/13 A2969 RMK AO2 SLP047 CB DSNT NE TCU NE T02170128 10233 20217 56015=
200504122251 METAR KATL 122251Z 21014KT 10SM SCT045TCU SCT090 22/12 A2970 RMK AO2 SLP049 TCU N T02220122=
200504122151 METAR KATL 122151Z 20009KT 10SM FEW046TCU BKN070 BKN090 22/13 A2971 RMK AO2 SLP054 TCU NE-SE AND DSNT NW T02220128=
200504122051 METAR KATL 122051Z 22013G19KT 10SM FEW045TCU BKN070 BKN090 23/13 A2974 RMK AO2 SLP062 TCU NW-N AND DSNT ALQDS T02280128 58016=
200504121951 METAR KATL 121951Z 22015G20KT 10SM FEW040TCU BKN060 BKN070 23/13 A2975 RMK AO2 SLP069 TCU NW T02280133=
200504121851 METAR KATL 121851Z 21014KT 10SM BKN040 BKN050 BKN070 22/13 A2977 RMK AO2 SLP074 T02220133=
200504121751 METAR KATL 121751Z 21016G20KT 10SM BKN045 23/13 A2978 RMK AO2 SLP079 60000 T02280133 10233 20167 58016=
200504121651 METAR KATL 121651Z 21018G24KT 10SM FEW045 BKN100 BKN150 22/13 A2980 RMK AO2 PK WND 22026/1605 SLP086 T02220128=
200504121551 METAR KATL 121551Z 21010G19KT 10SM FEW030 BKN100 21/13 A2982 RMK AO2 PK WND 21026/1508 RAB11E20 SLP091 P0000 T02060133=
200504121451 METAR KATL 121451Z 21009G21KT 10SM FEW030 SCT060 BKN100 19/13 A2983 RMK AO2 SLP095 T01890128 51021=
200504121351 METAR KATL 121351Z 16008KT 10SM BKN080 BKN100 BKN150 17/13 A2982 RMK AO2 SLP091 ACC NE-SE T01720128=
200504121251 METAR KATL 121251Z 16005KT 10SM BKN100 BKN150 BKN180 17/12 A2981 RMK AO2 SLP088 T01670122=
200504121151 METAR KATL 121151Z 17006KT 10SM FEW080 BKN110 OVC180 17/11 A2977 RMK AO2 SLP073 60000 T01720106 10178 20156 56046=
200504121051 METAR KATL 121051Z 17010KT 10SM BKN110 17/11 A2977 RMK AO2 RAE18 SLP075 P0000 T01720111=
200504120951 METAR KATL 120951Z 15014G20KT 9SM -RA BKN055 OVC090 16/12 A2984 RMK AO2 RAB19 PRESFR SLP098 P0000 T01560117=
200504120851 METAR KATL 120851Z 19009KT 10SM BKN100 OVC150 17/09 A2991 RMK AO2 SLP122 T01670094 56020=
200504120751 METAR KATL 120751Z 17004KT 10SM SCT110 OVC150 17/09 A2992 RMK AO2 SLP126 T01670094=
200504120651 METAR KATL 120651Z 15003KT 10SM BKN130 OVC180 17/09 A2994 RMK AO2 SLP131 T01720094=
200504120551 METAR KATL 120551Z 00000KT 10SM BKN130 OVC180 18/08 A2997 RMK AO2 SLP141 T01780083 10222 20178 55001=
200504120451 METAR KATL 120451Z 21003KT 10SM SCT130 BKN180 18/08 A2996 RMK AO2 SLP140 T01830083 402440144=
200504120351 METAR KATL 120351Z 13006KT 10SM SCT130 BKN180 19/07 A2994 RMK AO2 SLP133 T01940072=
200504120251 METAR KATL 120251Z 17005KT 10SM SCT130 BKN200 19/08 A2997 RMK AO2 SLP144 T01940078 51012=
200504120151 METAR KATL 120151Z 16004KT 10SM BKN200 20/07 A2997 RMK AO2 SLP142 T02000067=
200504120051 METAR KATL 120051Z 15006KT 10SM BKN230 21/06 A2995 RMK AO2 SLP136 T02110061=
200504112351 METAR KATL 112351Z 13006KT 10SM SCT160 BKN180 BKN230 22/06 A2994 RMK AO2 SLP132 T02220061 10244 20222 58007=
200504112251 METAR KATL 112251Z 15008KT 10SM FEW140 BKN200 BKN250 23/04 A2995 RMK AO2 SLP137 T02280044=
200504112151 METAR KATL 112151Z 16009KT 10SM FEW150 BKN200 BKN250 24/06 A2995 RMK AO2 SLP137 T02390056=
200504112051 METAR KATL 112051Z 16009KT 10SM FEW150 BKN180 BKN250 24/06 A2996 RMK AO2 SLP138 VIRGA DSNT S-SW-W T02390061 56025=
200504111951 METAR KATL 111951Z 13007KT 10SM FEW150 SCT180 BKN250 24/06 A2997 RMK AO2 SLP144 T02390056=
200504111851 METAR KATL 111851Z 13009KT 10SM FEW150 SCT180 BKN250 23/06 A3001 RMK AO2 SLP154 T02330061=
200504111751 METAR KATL 111751Z 12009KT 10SM FEW150 SCT180 BKN250 24/08 A3003 RMK AO2 SLP164 T02390078 10239 20150 56003=
200504111651 METAR KATL 111651Z 13009KT 10SM FEW150 SCT180 SCT250 23/08 A3004 RMK AO2 SLP167 T02280083=
200504111551 METAR KATL 111551Z 12007KT 10SM FEW180 SCT200 BKN250 21/08 A3003 RMK AO2 SLP163 T02060083=
200504111451 METAR KATL 111451Z COR 17006KT 10SM SCT180 BKN200 19/09 A3004 RMK AO2 SLP168 T01890094 58005=
200504111351 METAR KATL 111351Z 18006KT 10SM SCT180 BKN200 18/09 A3005 RMK AO2 SLP169 T01780089=
200504111251 METAR KATL 111251Z 00000KT 10SM SCT200 17/11 A3006 RMK AO2 SLP173 T01670111=
200504111151 METAR KATL 111151Z 09004KT 8SM SCT200 16/11 A3006 RMK AO2 SLP172 T01560111 10172 20144 53014=
200504111051 METAR KATL 111051Z 00000KT 10SM BKN200 16/11 A3005 RMK AO2 SLP169 T01560111=
200504110951 METAR KATL 110951Z 00000KT 10SM BKN200 16/11 A3002 RMK AO2 SLP160 T01610106=
200504110851 METAR KATL 110851Z 00000KT 10SM BKN200 16/11 A3002 RMK AO2 SLP158 T01610106 53001=
200504110751 METAR KATL 110751Z 00000KT 10SM BKN200 16/11 A3001 RMK AO2 SLP155 T01560111=
200504110651 METAR KATL 110651Z 18003KT 10SM BKN200 16/11 A3000 RMK AO2 SLP153 T01610111=
200504110551 METAR KATL 110551Z 17003KT 10SM SCT200 17/11 A3001 RMK AO2 SLP158 T01720111 10228 20172 58012=
200504110451 METAR KATL 110451Z 15004KT 10SM BKN200 18/12 A3003 RMK AO2 SLP164 T01780117 402440117=
200504110351 METAR KATL 110351Z 14004KT 10SM SCT200 18/12 A3004 RMK AO2 SLP167 T01830117=
200504110251 METAR KATL 110251Z 15003KT 10SM SCT200 19/12 A3005 RMK AO2 SLP170 T01940117 53006=
200504110151 METAR KATL 110151Z 14005KT 10SM SCT200 21/12 A3004 RMK AO2 SLP167 T02060117=
200504110051 METAR KATL 110051Z 16003KT 10SM SCT200 22/12 A3003 RMK AO2 SLP164 T02170117=
200504102351 METAR KATL 102351Z COR 18004KT 10SM FEW055 SCT150 SCT200 23/12 A3003 RMK AO2 SLP165 T02280117 10244 20222 53001=
200504102251 METAR KATL 102251Z 18005KT 10SM SCT055 SCT200 24/11 A3003 RMK AO2 SLP163 T02390111=
200504102151 METAR KATL 102151Z 12007KT 100V160 10SM SCT055 SCT200 24/11 A3002 RMK AO2 SLP162 T02440111=
200504102051 METAR KATL 102051Z 11007KT 10SM SCT045 24/12 A3003 RMK AO2 SLP162 T02440122 56019=
200504101951 METAR KATL 101951Z VRB06KT 10SM FEW045 24/12 A3004 RMK AO2 SLP167 T02390122=
200504101851 METAR KATL 101851Z 10005KT 10SM FEW045 23/13 A3007 RMK AO2 SLP176 T02330128=
200504101751 METAR KATL 101751Z 10005KT 10SM FEW045 SCT150 22/13 A3008 RMK AO2 SLP182 T02220128 10222 20122 58013=
200504101651 METAR KATL 101651Z VRB04KT 10SM FEW150 21/13 A3010 RMK AO2 SLP189 T02060128=
200504101551 METAR KATL 101551Z 13007KT 10SM CLR 20/13 A3012 RMK AO2 SLP194 T02000133=
200504101451 METAR KATL 101451Z 12007KT 10SM CLR 18/13 A3012 RMK AO2 SLP196 T01830133 51007=
200504101351 METAR KATL 101351Z 11006KT 10SM CLR 17/13 A3012 RMK AO2 SLP196 T01670128=
200504101251 METAR KATL 101251Z 08007KT 5SM BR CLR 14/13 A3012 RMK AO2 SLP195 T01440128=
200504101151 METAR KATL 101151Z 09004KT 8SM CLR 12/12 A3010 RMK AO2 SLP190 T01220117 10150 20117 53022=
200504101051 METAR KATL 101051Z 08004KT 9SM FEW180 12/11 A3006 RMK AO2 SLP177 T01220111=
200504100951 METAR KATL 100951Z 05006KT 9SM CLR 12/11 A3004 RMK AO2 SLP169 T01220111=
200504100851 METAR KATL 100851Z 05004KT 7SM CLR 13/12 A3003 RMK AO2 SLP166 T01330117 53003=
200504100751 METAR KATL 100751Z 08003KT 8SM CLR 13/12 A3002 RMK AO2 SLP162 T01330117=
200504100651 METAR KATL 100651Z 08004KT 8SM CLR 14/12 A3001 RMK AO2 SLP160 T01390117=
200504100551 METAR KATL 100551Z 00000KT 6SM BR CLR 14/12 A3002 RMK AO2 SLP163 T01440122 10189 20144 50002=
200504100451 METAR KATL 100451Z 00000KT 7SM CLR 14/12 A3003 RMK AO2 SLP166 T01440117 402110144=
200504100351 METAR KATL 100351Z 14004KT 7SM CLR 16/12 A3002 RMK AO2 SLP162 T01560122=
200504100251 METAR KATL 100251Z 16004KT 9SM CLR 16/13 A3002 RMK AO2 SLP160 T01610128 51014=
200504100151 METAR KATL 100151Z 17003KT 8SM CLR 17/13 A3001 RMK AO2 SLP158 T01670128=
200504100051 METAR KATL 100051Z 15003KT 9SM CLR 18/13 A2999 RMK AO2 SLP150 T01780128=
200504092351 METAR KATL 092351Z 15007KT 9SM CLR 19/13 A2998 RMK AO2 SLP146 T01890128 10211 20183 53001=
200504092251 METAR KATL 092251Z 14006KT 10SM FEW042 21/13 A2997 RMK AO2 SLP143 T02060128=
200504092151 METAR KATL 092151Z 18004KT 10SM SCT035 BKN200 21/12 A2996 RMK AO2 SLP141 T02060122=
200504092051 METAR KATL 092051Z 18004KT 10SM BKN038 BKN045 20/12 A2997 RMK AO2 SLP145 T02000122 58008=
200504091951 METAR KATL 091951Z VRB05KT 10SM BKN040 20/12 A2998 RMK AO2 SLP146 T02000122=
200504091851 METAR KATL 091851Z 07006KT 9SM OVC033 19/13 A2999 RMK AO2 SLP152 T01890128=
200504091813 SPECI KATL 091813Z 08003KT 9SM OVC031 18/12 A3000 RMK AO2=
200504091813 SPECI KATL 091813Z 08003KT 9SM OVC031 18/12 A3000 RMK AO2=
200504091751 METAR KATL 091751Z 12006KT 10SM OVC029 18/12 A3000 RMK AO2 SLP154 T01830122 10183 20150 50004=
200504091651 METAR KATL 091651Z 08010KT 10SM OVC023 17/12 A3000 RMK AO2 SLP154 T01720122=
200504091551 METAR KATL 091551Z 09011KT 9SM OVC023 17/12 A3001 RMK AO2 SLP158 T01670122=
200504091451 METAR KATL 091451Z 08016KT 10SM OVC025 18/12 A2998 RMK AO2 SLP149 T01780122 53018=
200504091429 SPECI KATL 091429Z 07015G21KT 10SM OVC025 18/12 A2997 RMK AO2=
200504091429 SPECI KATL 091429Z 07015G21KT 10SM OVC025 18/12 A2997 RMK AO2=
200504091351 METAR KATL 091351Z 07018KT 10SM FEW020 SCT120 18/12 A2996 RMK AO2 SLP141 T01780122=
200504091251 METAR KATL 091251Z 06015KT 9SM FEW120 16/12 A2995 RMK AO2 SLP137 T01610122=
200504091151 METAR KATL 091151Z 06009KT 8SM CLR 15/12 A2993 RMK AO2 SLP131 T01500122 10167 20144 53022=
200504091051 METAR KATL 091051Z 06009KT 10SM CLR 15/12 A2989 RMK AO2 SLP117 T01500122=
200504090951 METAR KATL 090951Z 05009KT 10SM FEW027 16/12 A2988 RMK AO2 SLP112 T01560122=
200504090917 SPECI KATL 090917Z 05010KT 10SM BKN027 16/13 A2987 RMK AO2=
200504090917 SPECI KATL 090917Z 05010KT 10SM BKN027 16/13 A2987 RMK AO2=
200504090851 METAR KATL 090851Z 05010KT 10SM CLR 16/12 A2987 RMK AO2 SLP108 T01560122 55000=
200504090751 METAR KATL 090751Z 03010KT 10SM CLR 16/12 A2986 RMK AO2 SLP107 T01610122=
200504090651 METAR KATL 090651Z 36007KT 10SM BKN065 16/13 A2986 RMK AO2 SLP106 T01610128=
200504090551 METAR KATL 090551Z 32005KT 10SM SCT060 14/13 A2987 RMK AO2 SLP109 T01440133 10206 20144 53010=
200504090451 METAR KATL 090451Z 35005KT 10SM SCT044 BKN060 17/13 A2986 RMK AO2 SLP105 T01670133 402170122=
200504090351 METAR KATL 090351Z 34005KT 10SM FEW150 16/13 A2984 RMK AO2 SLP101 T01560133=
200504090251 METAR KATL 090251Z 33006KT 10SM SCT085 SCT130 16/13 A2984 RMK AO2 SLP100 T01610128 51021=
200504090151 METAR KATL 090151Z 36010KT 10SM FEW050 SCT080 SCT130 18/12 A2983 RMK AO2 SLP096 T01780122=
200504090051 METAR KATL 090051Z 03008KT 10SM FEW047 SCT080 BKN130 19/12 A2979 RMK AO2 SLP082 T01890117=
200504082351 METAR KATL 082351Z 36010KT 10SM FEW043 BKN050 BKN070 21/11 A2977 RMK AO2 SLP078 T02060111 10217 20189 53013=
200504082251 METAR KATL 082251Z 36008KT 330V030 10SM SCT045 BKN090 BKN130 21/11 A2975 RMK AO2 SLP069 T02110111=
200504082151 METAR KATL 082151Z 36012KT 10SM SCT048TCU BKN090 BKN130 22/12 A2974 RMK AO2 SLP067 TCU NW MOV SW T02170117=
200504081951 METAR KATL 081951Z 35010G17KT 10SM SCT035TCU SCT045 BKN080 BKN250 19/12 A2975 RMK AO2 SLP069 TCU NE-S CB DSNT NE-SE T01940122=
200504081851 METAR KATL 081851Z 33012G15KT 10SM BKN033TCU BKN043 BKN250 19/12 A2975 RMK AO2 SLP070 TCU OHD AND ALQDS T01940122=
200504081751 METAR KATL 081751Z 34008KT 10SM SCT028TCU SCT120 19/12 A2976 RMK AO2 SLP075 TCU N-NE-E T01940122 10194 20128 58002=
200504081651 METAR KATL 081651Z 36009KT 10SM FEW025TCU SCT035 SCT120 18/12 A2977 RMK AO2 SLP076 TCU SE-S T01780122=
200504081605 SPECI KATL 081605Z 34007KT 10SM BKN025TCU BKN030 BKN120 17/12 A2977 RMK AO2 TCU OHD-NE-S=
200504081605 SPECI KATL 081605Z 34007KT 10SM BKN025TCU BKN030 BKN120 17/12 A2977 RMK AO2 TCU OHD-NE-S=
200504081551 METAR KATL 081551Z 35004KT 10SM SCT025TCU BKN030 BKN120 18/12 A2978 RMK AO2 SLP079 TCU NE-S T01830122=
200504081451 METAR KATL 081451Z VRB05KT 10SM SCT018 BKN024 BKN120 17/12 A2977 RMK AO2 SLP078 T01670117 52011=
200504081351 METAR KATL 081351Z 32007KT 10SM SCT015 SCT100 16/12 A2976 RMK AO2 SLP073 T01560122=
200504081258 SPECI KATL 081258Z VRB05KT 6SM BR BKN006 BKN010 BKN100 14/12 A2975 RMK AO2=
200504081258 SPECI KATL 081258Z VRB05KT 6SM BR BKN006 BKN010 BKN100 14/12 A2975 RMK AO2=
200504081251 METAR KATL 081251Z 32005KT 2 1/2SM BR FEW006 SCT029 BKN100 14/13 A2975 RMK AO2 SFC VIS 5 SLP071 T01390128=
200504081151 METAR KATL 081151Z 00000KT 2SM BR FEW009 BKN029 13/12 A2974 RMK AO2 SFC VIS 2 1/2 SLP066 70056 T01280122 10133 20122 53018=
200504081109 SPECI KATL 081109Z 27004KT 2SM BR BKN006 OVC020 13/12 A2972 RMK AO2 SFC VIS 4 CIG 004V011=
200504081109 SPECI KATL 081109Z 27004KT 2SM BR BKN006 OVC020 13/12 A2972 RMK AO2 SFC VIS 4 CIG 004V011=
200504081051 METAR KATL 081051Z 30004KT 2SM BR OVC004 13/12 A2971 RMK AO2 SFC VIS 6 SLP057 T01280122=
200504080951 METAR KATL 080951Z 33003KT 2SM BR OVC004 12/12 A2969 RMK AO2 SFC VIS 5 SLP051 T01220117=
200504080851 METAR KATL 080851Z 32009KT 2SM BKN002 13/12 A2968 RMK AO2 SFC VIS 7 SLP047 T01280122 56008=
200504080751 METAR KATL 080751Z 28006KT 1SM BR OVC002 13/12 A2968 RMK AO2 SFC VIS 4 SLP048 T01280122=
200504080730 SPECI KATL 080730Z 28008KT 1SM BR OVC002 13/13 A2968 RMK AO2 SFC VIS 3=
200504080730 SPECI KATL 080730Z 28008KT 1SM BR OVC002 13/13 A2968 RMK AO2 SFC VIS 3=
200504080651 METAR KATL 080651Z 26007KT 4SM BR BKN004 BKN090 13/13 A2969 RMK AO2 CIG 001V004 SLP049 T01330128=
200504080551 METAR KATL 080551Z 24005KT 6SM BR FEW003 13/13 A2971 RMK AO2 SLP055 60003 T01330128 10167 20133 56003=
200504080451 METAR KATL 080451Z 19003KT 7SM OVC100 14/13 A2971 RMK AO2 SLP055 T01390133 402110139=
200504080351 METAR KATL 080351Z 22003KT 9SM OVC090 14/13 A2971 RMK AO2 RAB11E48 SLP057 P0000 T01440133=
200504080251 METAR KATL 080251Z 00000KT 10SM OVC075 14/13 A2972 RMK AO2 RAE0153 SLP060 P0000 60003 T01440128 51016=
200504080151 METAR KATL 080151Z 35007KT 10SM -RA SCT065 OVC080 15/13 A2971 RMK AO2 RAB40 SLP058 P0000 T01500128=
200504080051 METAR KATL 080051Z 29010KT 10SM FEW027 BKN050 OVC080 15/13 A2969 RMK AO2 RAE49 SLP052 P0003 T01500133=
200504080016 SPECI KATL 080016Z 29011KT 7SM -RA BKN027 BKN046 OVC085 16/13 A2968 RMK AO2 LTG DSNT E-SE TS DSNT E-SE MOV NE P0002=
200504080016 SPECI KATL 080016Z 29011KT 7SM -RA BKN027 BKN046 OVC085 16/13 A2968 RMK AO2 LTG DSNT E-SE TS DSNT E-SE MOV NE P0002=
200504072351 METAR KATL 072351Z COR 27012KT 10SM -RA BKN060 BKN080 BKN100 OVC150 17/14 A2967 RMK AO2 RAB43 SLP042 CB DSNT N P0000 60053 T01670139 10211 20150 55003=
200504072251 METAR KATL 072251Z 24006KT 10SM SCT025TCU BKN060 BKN090 BKN130 17/14 A2967 RMK AO2 TSE26RAE44 SLP042 LTG DSNT NE-E TCU E-SE MOV NE P0000 T01670144=
200504072227 SPECI KATL 072227Z 20009G17KT 10SM -RA SCT023 SCT040CB BKN080 BKN150 17/14 A2967 RMK AO2 TSE26 LTG DSNT NE-E P0000=
200504072227 SPECI KATL 072227Z 20009G17KT 10SM -RA SCT023 SCT040CB BKN080 BKN150 17/14 A2967 RMK AO2 TSE26 LTG DSNT NE-E P0000=
200504072151 METAR KATL 072151Z 23004KT 7SM -TSRA BKN020 BKN038CB BKN080 OVC150 16/14 A2966 RMK AO2 PK WND 25026/2055 WSHFT 2045 TSB2058 SLP040 OCNL LTGICCG TS NE-E-SE MOV NE CB NE-E-SE MOV NE P0053 T01610139=
200504072137 SPECI KATL 072137Z 20011KT 6SM -TSRA BR BKN020 BKN038CB BKN080 OVC150 16/14 A2968 RMK AO2 PK WND 25026/2055 WSHFT 2045 TSB2058 OCNL LTGICCG TS OHD-NE-E-SE-S-SW MOV NE CB OHD-NE-E-SE-S-SW MOV NE P0050=
200504072137 SPECI KATL 072137Z 20011KT 6SM -TSRA BR BKN020 BKN038CB BKN080 OVC150 16/14 A2968 RMK AO2 PK WND 25026/2055 WSHFT 2045 TSB2058 OCNL LTGICCG TS OHD-NE-E-SE-S-SW MOV NE CB OHD-NE-E-SE-S-SW MOV NE P0050=
200504072135 SPECI KATL 072135Z 21009KT 4SM -TSRA BR BKN040CB BKN050 OVC080 16/14 A2968 RMK AO2 PK WND 25026/2055 WSHFT 2045 TSB2058 OCNL LTGICCG TS OHD-SW-NW MOV NE CB OHD-SW-NW MOV NE P0050=
200504072135 SPECI KATL 072135Z 21009KT 4SM -TSRA BR BKN040CB BKN050 OVC080 16/14 A2968 RMK AO2 PK WND 25026/2055 WSHFT 2045 TSB2058 OCNL LTGICCG TS OHD-SW-NW MOV NE CB OHD-SW-NW MOV NE P0050=
200504072100 SPECI KATL 072100Z 28019G26KT 1 1/2SM R09R/5500VP6000FT +TSRA BR BKN040CB BKN050 OVC080 16/13 A2968 RMK AO2 PK WND 25026/2055 WSHFT 2045 TSB2058 OCNL LTGICCG TS OHD-SW-NW MOV NE CB OHD-SW-NW MOV NE P0009=
200504072100 SPECI KATL 072100Z 28019G26KT 1 1/2SM R09R/5500VP6000FT +TSRA BR BKN040CB BKN050 OVC080 16/13 A2968 RMK AO2 PK WND 25026/2055 WSHFT 2045 TSB2058 OCNL LTGICCG TS OHD-SW-NW MOV NE CB OHD-SW-NW MOV NE P0009=
200504072058 SPECI KATL 072058Z 27012G26KT 1 3/4SM R09R/5500VP6000FT +TSRA BKN040CB BKN050 OVC080 17/13 A2968 RMK AO2 PK WND 25026/2055 TSB58 OCNL LTGICCG TS OHD-SW-NW MOV NE CB OHD-SW-NW MOV NE P0005=
200504072058 SPECI KATL 072058Z 27012G26KT 1 3/4SM R09R/5500VP6000FT +TSRA BKN040CB BKN050 OVC080 17/13 A2968 RMK AO2 PK WND 25026/2055 TSB58 OCNL LTGICCG TS OHD-SW-NW MOV NE CB OHD-SW-NW MOV NE P0005=
200504072051 METAR KATL 072051Z 19011G16KT 10SM -RA FEW040CB BKN055 OVC080 21/12 A2968 RMK AO2 RAB44 SLP044 CB VC SW-NW MOV NE SHRA VC SW-NW BINOVC DSNT NE-S P0000 60000 T02060122 56035=
200504071951 METAR KATL 071951Z 17010KT 10SM FEW035TCU SCT045 BKN085 21/13 A2970 RMK AO2 SLP054 TCU SW-NW SHRA DSNT SW-NW T02060128=
200504071851 METAR KATL 071851Z 15012G19KT 10SM SCT030 21/14 A2974 RMK AO2 SLP065 T02060139=
200504071751 METAR KATL 071751Z 17011G17KT 10SM SCT020 BKN030 BKN040 19/14 A2978 RMK AO2 SLP080 T01940144 10194 20156 58022=
200504071658 SPECI KATL 071658Z 17015KT 10SM FEW015 BKN020 BKN060 18/15 A2981 RMK AO2=
200504071658 SPECI KATL 071658Z 17015KT 10SM FEW015 BKN020 BKN060 18/15 A2981 RMK AO2=
200504071651 METAR KATL 071651Z 17014KT 10SM FEW015 BKN030 BKN060 18/14 A2982 RMK AO2 SLP093 T01780144=
200504071551 METAR KATL 071551Z 15010KT 10SM FEW015 BKN020 OVC060 17/14 A2984 RMK AO2 SLP102 T01720144=
200504071451 METAR KATL 071451Z 17009KT 8SM BKN015 BKN020 OVC030 16/14 A2985 RMK AO2 SLP103 T01610144 55001=
200504071351 METAR KATL 071351Z 13007KT 8SM FEW005 BKN020 BKN040 OVC150 16/14 A2984 RMK AO2 SLP100 T01610144=
200504071320 SPECI KATL 071320Z 15010KT 6SM BR BKN010 BKN030 OVC050 16/14 A2985 RMK AO2=
200504071320 SPECI KATL 071320Z 15010KT 6SM BR BKN010 BKN030 OVC050 16/14 A2985 RMK AO2=
200504071251 METAR KATL 071251Z 13008KT 6SM BR BKN007 BKN013 OVC050 16/14 A2984 RMK AO2 SLP099 T01560144=
200504071213 SPECI KATL 071213Z 12009KT 7SM BKN007 BKN012 BKN023 16/14 A2985 RMK AO2=
200504071213 SPECI KATL 071213Z 12009KT 7SM BKN007 BKN012 BKN023 16/14 A2985 RMK AO2=
200504071200 SPECI KATL 071200Z 11011KT 7SM FEW007 SCT014 SCT110 BKN150 16/14 A2984 RMK AO2=
200504071200 SPECI KATL 071200Z 11011KT 7SM FEW007 SCT014 SCT110 BKN150 16/14 A2984 RMK AO2=
200504071151 METAR KATL 071151Z 12010KT 8SM FEW100 SCT120 16/14 A2985 RMK AO2 RAE15 SLP103 P0000 60011 70037 T01560144 10156 20144 58007=
200504071054 SPECI KATL 071054Z 13009KT 7SM -RA SCT012 SCT017 OVC037 16/14 A2987 RMK AO2 P0000=
200504071054 SPECI KATL 071054Z 13009KT 7SM -RA SCT012 SCT017 OVC037 16/14 A2987 RMK AO2 P0000=
200504071051 METAR KATL 071051Z 13010KT 7SM -RA SCT009 BKN014 OVC024 16/14 A2987 RMK AO2 RAB25 PRESFR SLP108 P0002 T01560144=
200504070951 METAR KATL 070951Z 14010KT 10SM BKN012 16/14 A2987 RMK AO2 RAE06 SLP108 P0000 T01560144=
200504070935 SPECI KATL 070935Z 14010KT 10SM BKN012 16/14 A2987 RMK AO2 RAE06 P0000=
200504070935 SPECI KATL 070935Z 14010KT 10SM BKN012 16/14 A2987 RMK AO2 RAE06 P0000=
200504070851 METAR KATL 070851Z 13012G19KT 10SM -RA FEW008 BKN060 OVC095 14/14 A2987 RMK AO2 SLP111 P0002 60009 T01440139 55051=
200504070824 SPECI KATL 070824Z 17013G16KT 10SM -RA BKN070 BKN085 BKN110 15/13 A2993 RMK AO2 P0000=
200504070824 SPECI KATL 070824Z 17013G16KT 10SM -RA BKN070 BKN085 BKN110 15/13 A2993 RMK AO2 P0000=
200504070751 METAR KATL 070751Z 14018G24KT 10SM -RA BKN070 OVC100 15/13 A2986 RMK AO2 PK WND 15029/0653 PRESFR SLP107 P0001 T01500133=
200504070651 METAR KATL 070651Z 14019G29KT 9SM -RA BKN055 BKN080 OVC095 15/14 A2990 RMK AO2 PK WND 15029/0646 SLP118 P0006 T01500139=
200504070605 SPECI KATL 070605Z 14017G22KT 7SM -RA OVC032 15/13 A2997 RMK AO2 PRESFR P0003=
200504070605 SPECI KATL 070605Z 14017G22KT 7SM -RA OVC032 15/13 A2997 RMK AO2 PRESFR P0003=
200504070551 METAR KATL 070551Z 17016G24KT 6SM -RA BR OVC028 15/13 A3003 RMK AO2 PK WND 18027/0513 PRESFR SLP163 P0012 60026 T01500133 10206 20150 58009=
200504070451 METAR KATL 070451Z 20012G18KT 6SM RA BR OVC022 15/13 A3007 RMK AO2 SLP177 LTG DSNT SW P0010 T01500133 402280117=
200504070425 SPECI KATL 070425Z 22008G16KT 5SM RA BR BKN022 OVC070 16/14 A3007 RMK AO2 P0005=
200504070425 SPECI KATL 070425Z 22008G16KT 5SM RA BR BKN022 OVC070 16/14 A3007 RMK AO2 P0005=
200504070351 METAR KATL 070351Z 24008KT 9SM -RA SCT032 BKN070 OVC090 16/14 A3005 RMK AO2 SLP172 P0003 T01610144=
200504070251 METAR KATL 070251Z 19005KT 8SM -RA SCT047 BKN060 OVC090 18/13 A3006 RMK AO2 RAB29 SLP173 P0001 60001 T01780128 53012=
200504070151 METAR KATL 070151Z 13006KT 10SM BKN075 BKN090 OVC150 19/11 A3003 RMK AO2 SLP164 T01940111=
200504070051 METAR KATL 070051Z 13006KT 10SM BKN070 OVC150 20/11 A3002 RMK AO2 SLP162 T02000111=
200504062351 METAR KATL 062351Z 14013KT 10SM SCT070 BKN120 OVC150 21/11 A3002 RMK AO2 SLP162 T02060111 10228 20206 56012=
200504062251 METAR KATL 062251Z 16013G18KT 9SM SCT055 SCT120 OVC150 22/10 A3004 RMK AO2 SLP167 T02170100=
200504062151 METAR KATL 062151Z 15015G19KT 10SM SCT055 SCT120 OVC150 22/10 A3004 RMK AO2 SLP167 T02220100=
200504062051 METAR KATL 062051Z 13014G18KT 9SM SCT055 SCT120 OVC150 23/11 A3006 RMK AO2 SLP173 T02280106 56023=
200504061951 METAR KATL 061951Z 15013KT 9SM FEW050 BKN150 OVC180 23/11 A3007 RMK AO2 SLP177 T02280111=
200504061851 METAR KATL 061851Z 16012KT 10SM FEW050 SCT150 OVC180 22/12 A3010 RMK AO2 SLP189 T02220117=
200504061751 METAR KATL 061751Z 15008KT 9SM FEW040 SCT120 SCT150 BKN180 OVC250 22/12 A3013 RMK AO2 SLP196 T02220122 10222 20122 58012=
200504061651 METAR KATL 061651Z 15011KT 10SM FEW035 SCT095 BKN150 OVC180 22/12 A3015 RMK AO2 SLP204 T02170122=
200504061551 METAR KATL 061551Z 16008KT 8SM FEW090 SCT150 BKN180 BKN250 21/12 A3016 RMK AO2 SLP208 T02060117=
200504061451 METAR KATL 061451Z 15009KT 10SM FEW150 SCT180 BKN250 18/12 A3016 RMK AO2 SLP209 T01830117 50001=
200504061351 METAR KATL 061351Z 16008KT 130V190 9SM BKN150 BKN180 BKN200 16/11 A3017 RMK AO2 SLP212 T01560106=
200504061251 METAR KATL 061251Z 13006KT 9SM FEW150 BKN180 OVC200 13/08 A3017 RMK AO2 SLP212 T01330083=
200504061151 METAR KATL 061151Z 13004KT 10SM SCT150 12/07 A3016 RMK AO2 SLP209 T01220072 10167 20117 53013=
200504061051 METAR KATL 061051Z 12004KT 10SM FEW150 13/07 A3014 RMK AO2 SLP202 T01280067=
200504060951 METAR KATL 060951Z 09005KT 10SM CLR 12/06 A3013 RMK AO2 SLP199 T01220061=
200504060851 METAR KATL 060851Z 11003KT 10SM FEW150 14/06 A3012 RMK AO2 SLP194 T01390061 56001=
200504060751 METAR KATL 060751Z 11004KT 10SM FEW150 14/06 A3013 RMK AO2 SLP195 T01390061=
200504060651 METAR KATL 060651Z 17003KT 10SM CLR 16/05 A3011 RMK AO2 SLP191 T01560050=
200504060551 METAR KATL 060551Z 14005KT 10SM FEW150 17/05 A3012 RMK AO2 SLP195 T01670050 10233 20167 58009=
200504060451 METAR KATL 060451Z 14006KT 10SM FEW150 17/04 A3013 RMK AO2 SLP198 T01670044 402560117=
200504060351 METAR KATL 060351Z 17006KT 10SM FEW150 18/04 A3014 RMK AO2 SLP202 T01830039=
200504060251 METAR KATL 060251Z 16006KT 10SM CLR 19/03 A3015 RMK AO2 SLP205 T01940033 51011=
200504060151 METAR KATL 060151Z 16008KT 10SM FEW150 21/01 A3015 RMK AO2 SLP205 T02060006=
200504060051 METAR KATL 060051Z 16009KT 10SM FEW150 22/M02 A3013 RMK AO2 SLP198 T02171017=
200504052351 METAR KATL 052351Z 15007KT 10SM FEW150 23/M03 A3012 RMK AO2 SLP194 T02331033 10256 20233 53000=
200504052251 METAR KATL 052251Z 17011KT 10SM FEW150 24/M04 A3012 RMK AO2 SLP194 T02441044=
200504052151 METAR KATL 052151Z 18010KT 10SM FEW150 25/M03 A3011 RMK AO2 SLP191 T02501033=
200504052051 METAR KATL 052051Z 17012KT 10SM FEW150 25/M02 A3012 RMK AO2 SLP194 T02501022 56015=
200504051951 METAR KATL 051951Z 18012G20KT 10SM FEW240 25/M03 A3013 RMK AO2 SLP196 T02501028=
200504051851 METAR KATL 051851Z 22012G16KT 10SM FEW150 25/02 A3014 RMK AO2 SLP201 T02500022=
200504051751 METAR KATL 051751Z 20010G18KT 10SM CLR 24/01 A3016 RMK AO2 SLP209 T02390006 10239 20122 58011=
200504051651 METAR KATL 051651Z 20010KT 8SM FEW240 23/04 A3018 RMK AO2 SLP213 T02280039=
200504051631 SPECI KATL 051631Z 18010KT 8SM FEW240 SCT280 23/04 A3018 RMK AO2=
200504051631 SPECI KATL 051631Z 18010KT 8SM FEW240 SCT280 23/04 A3018 RMK AO2=
200504051551 METAR KATL 051551Z 16009G14KT 10SM FEW240 BKN280 22/05 A3019 RMK AO2 SLP217 T02170050=
200504051451 METAR KATL 051451Z 00000KT 10SM FEW150 SCT240 BKN280 19/07 A3020 RMK AO2 SLP221 T01940067 51020=
200504051351 METAR KATL 051351Z 29004KT 10SM FEW120 SCT150 SCT240 BKN280 17/07 A3019 RMK AO2 SLP219 T01720072=
200504051251 METAR KATL 051251Z 22003KT 10SM FEW130 SCT200 BKN280 13/07 A3017 RMK AO2 SLP213 T01330067=
200504051151 METAR KATL 051151Z 22003KT 10SM BKN130 13/06 A3014 RMK AO2 SLP201 T01280056 10144 20117 51013=
200504051051 METAR KATL 051051Z 24003KT 10SM BKN130 12/06 A3013 RMK AO2 SLP199 T01220056=
200504050951 METAR KATL 050951Z 00000KT 10SM SCT130 12/06 A3011 RMK AO2 SLP190 T01220056=
200504050851 METAR KATL 050851Z 22004KT 10SM SCT130 13/06 A3010 RMK AO2 SLP187 T01280061 53001=
200504050751 METAR KATL 050751Z 22004KT 10SM FEW060 SCT130 13/06 A3009 RMK AO2 SLP185 T01330056=
200504050651 METAR KATL 050651Z 00000KT 10SM SCT130 14/05 A3009 RMK AO2 SLP185 T01440050=
200504050551 METAR KATL 050551Z 17004KT 10SM FEW060 BKN130 14/07 A3010 RMK AO2 SLP186 T01390067 10217 20133 54000=
200504050451 METAR KATL 050451Z 00000KT 10SM FEW060 BKN130 14/06 A3010 RMK AO2 SLP187 T01440056 402440094=
200504050351 METAR KATL 050351Z 22003KT 10SM FEW060 17/04 A3010 RMK AO2 SLP187 T01670044=
200504050251 METAR KATL 050251Z 22004KT 10SM BKN240 18/04 A3010 RMK AO2 SLP186 T01780039 52006=
200504050151 METAR KATL 050151Z 22004KT 10SM BKN240 18/04 A3009 RMK AO2 SLP187 T01830039=
200504050051 METAR KATL 050051Z 21003KT 10SM SCT240 20/03 A3008 RMK AO2 SLP183 T02000033=
200504042351 METAR KATL 042351Z 22005KT 10SM FEW200 SCT220 SCT250 22/03 A3008 RMK AO2 SLP182 T02170028 10244 20217 55002=
200504042251 METAR KATL 042251Z 20008KT 10SM SCT250 23/01 A3007 RMK AO2 SLP178 T02330011=
200504042151 METAR KATL 042151Z 20009KT 10SM SCT250 24/03 A3007 RMK AO2 SLP179 T02440028=
200504042051 METAR KATL 042051Z 23007KT 200V260 10SM BKN300 24/03 A3008 RMK AO2 SLP183 T02440033 56019=
200504041951 METAR KATL 041951Z VRB04KT 10SM SCT210 OVC250 24/03 A3010 RMK AO2 SLP188 T02390028=
200504041851 METAR KATL 041851Z 00000KT 10SM OVC250 23/02 A3012 RMK AO2 SLP196 T02330017=
200504041751 METAR KATL 041751Z VRB03KT 10SM OVC250 22/03 A3014 RMK AO2 SLP203 T02220033 10222 20100 58013=
200504041651 METAR KATL 041651Z 31005KT 10SM OVC250 21/05 A3016 RMK AO2 SLP209 T02110050=
200504041551 METAR KATL 041551Z 31007KT 10SM BKN250 20/04 A3018 RMK AO2 SLP217 T02000044=
200504041451 METAR KATL 041451Z 29008KT 10SM SCT210 BKN250 18/04 A3018 RMK AO2 SLP218 T01830044 51016=
200504041351 METAR KATL 041351Z 31004KT 10SM FEW210 BKN250 15/03 A3016 RMK AO2 SLP211 T01500033=
200504041251 METAR KATL 041251Z 29006KT 10SM FEW210 BKN250 13/03 A3016 RMK AO2 SLP210 T01280028=
200504041151 METAR KATL 041151Z 26005KT 10SM SCT210 BKN250 10/00 A3013 RMK AO2 SLP202 T01000000 10122 20094 53015=
200504041051 METAR KATL 041051Z 27003KT 10SM FEW210 SCT250 10/00 A3010 RMK AO2 SLP191 T01000000=
200504040951 METAR KATL 040951Z 00000KT 10SM FEW250 11/00 A3009 RMK AO2 SLP188 T01060000=
200504040851 METAR KATL 040851Z 23004KT 10SM FEW030 SCT250 09/01 A3009 RMK AO2 SLP186 T00940006 56001=
200504040751 METAR KATL 040751Z 27005KT 10SM FEW030 SCT250 11/M01 A3009 RMK AO2 SLP186 T01111011=
200504040651 METAR KATL 040651Z 28007KT 10SM FEW250 11/M01 A3008 RMK AO2 SLP185 T01111011=
200504040551 METAR KATL 040551Z 28006KT 10SM SCT250 12/M01 A3009 RMK AO2 SLP187 T01221011 10167 20117 57002=
200504040451 METAR KATL 040451Z 27006KT 10SM SCT250 13/M01 A3009 RMK AO2 SLP187 T01281011 401940056=
200504040351 METAR KATL 040351Z 27006KT 10SM FEW250 13/M01 A3010 RMK AO2 SLP190 T01281006=
200504040251 METAR KATL 040251Z 27007KT 10SM FEW250 13/M01 A3010 RMK AO2 SLP191 T01281006 51016=
200504040151 METAR KATL 040151Z 27008KT 10SM FEW250 13/00 A3008 RMK AO2 SLP187 T01330000=
200504040051 METAR KATL 040051Z 28006KT 10SM FEW250 16/M01 A3007 RMK AO2 SLP181 T01561011 $=
200504032351 METAR KATL 032351Z 28007KT 10SM FEW250 17/M01 A3005 RMK AO2 SLP176 T01671011 10194 20167 55002=
200504032251 METAR KATL 032251Z 28010KT 10SM CLR 18/M01 A3004 RMK AO2 SLP172 T01831011=
200504032151 METAR KATL 032151Z 28014KT 10SM CLR 19/M01 A3005 RMK AO2 SLP174 T01891006=
200504032051 METAR KATL 032051Z 29016KT 10SM CLR 19/00 A3005 RMK AO2 SLP176 T01890000 55007=
200504031951 METAR KATL 031951Z 27015G23KT 10SM CLR 18/02 A3004 RMK AO2 SLP173 T01830017=
200504031851 METAR KATL 031851Z 27014G19KT 10SM CLR 18/03 A3006 RMK AO2 SLP178 T01830028=
200504031751 METAR KATL 031751Z 29012G23KT 10SM CLR 17/01 A3008 RMK AO2 SLP184 T01670006 10167 20067 58009=
200504031651 METAR KATL 031651Z 31018G25KT 10SM CLR 16/01 A3010 RMK AO2 PK WND 29026/1558 SLP192 T01560006=
200504031551 METAR KATL 031551Z 29022G27KT 10SM CLR 14/00 A3011 RMK AO2 PK WND 29027/1551 SLP195 T01440000=
200504031451 METAR KATL 031451Z 30016KT 10SM CLR 13/01 A3010 RMK AO2 SLP194 T01280011 53016=
200504031351 METAR KATL 031351Z 31015G24KT 10SM CLR 12/01 A3008 RMK AO2 SLP189 T01170011=
200504031251 METAR KATL 031251Z 29011KT 10SM CLR 08/01 A3007 RMK AO2 SLP186 T00830011=
200504031151 METAR KATL 031151Z 28010KT 10SM CLR 06/01 A3006 RMK AO2 SLP181 T00610006 10078 20056 52019=
200504031051 METAR KATL 031051Z 27007KT 10SM CLR 06/01 A3004 RMK AO2 SLP175 T00610006=
200504030951 METAR KATL 030951Z 28008KT 10SM CLR 07/01 A3002 RMK AO2 SLP167 T00670006=
200504030851 METAR KATL 030851Z 28007KT 10SM CLR 07/01 A3000 RMK AO2 SLP161 T00720006 51009=
200504030751 METAR KATL 030751Z 28010KT 10SM CLR 08/00 A2999 RMK AO2 SLP158 T00780000=
200504030651 METAR KATL 030651Z 29012KT 10SM CLR 08/00 A2998 RMK AO2 SLP154 T00780000=
200504030551 METAR KATL 030551Z 28010KT 10SM CLR 08/00 A2997 RMK AO2 SLP151 T00780000 10094 20078 55001=
200504030451 METAR KATL 030451Z 29013KT 10SM CLR 08/00 A2997 RMK AO2 SLP149 T00830000 401390050=
200504030351 METAR KATL 030351Z 28011KT 10SM CLR 08/00 A2997 RMK AO2 SLP152 T00830000=
200504030251 METAR KATL 030251Z 26009KT 10SM CLR 08/00 A2997 RMK AO2 SLP152 T00830000 51015=
200504030151 METAR KATL 030151Z 28012KT 10SM CLR 08/01 A2997 RMK AO2 SLP150 T00830006=
200504030051 METAR KATL 030051Z COR 28009KT 10SM FEW055 09/00 A2995 RMK AO2 SLP145 T00890000=
200504022351 METAR KATL 022351Z 30013G24KT 10SM SCT055 09/00 A2993 RMK AO2 PK WND 30028/2315 SLP137 T00940000 10117 20094 53021=
200504022251 METAR KATL 022251Z 31017G27KT 10SM BKN055 11/00 A2991 RMK AO2 PK WND 29029/2210 SLP131 T01060000=
200504022151 METAR KATL 022151Z 30022G31KT 10SM BKN060 11/00 A2987 RMK AO2 PK WND 31034/2108 SLP116 T01060000=
200504022051 METAR KATL 022051Z 31022G29KT 10SM BKN060 OVC070 11/M01 A2987 RMK AO2 PK WND 28031/2030 SLP114 T01061006 53010=
200504021951 METAR KATL 021951Z 30021G35KT 10SM BKN065 11/M02 A2984 RMK AO2 PK WND 30038/1913 SLP107 T01111017=
200504021851 METAR KATL 021851Z 30026G31KT 10SM BKN070 12/M01 A2984 RMK AO2 PK WND 29040/1813 SLP106 T01171011 $=
200504021751 METAR KATL 021751Z 29026G35KT 10SM BKN070 11/M02 A2983 RMK AO2 PK WND 28037/1738 SLP103 60000 T01111022 10111 20050 $=
200504021651 METAR KATL 021651Z 28023G36KT 10SM SCT055 BKN075 10/M01 A2982 RMK AO2 PK WND 30043/1602 SLP098 RAE19 P0000 T01001006 $=
200504021551 METAR KATL 021551Z 29020G24KT 10SM -RA SCT040 BKN055 BKN065 08/M01 A2981 RMK AO2 PK WND 30031/1454 RAB33 SLP094 P0000 T00831006=
200504021451 METAR KATL 021451Z 28018G29KT 10SM SCT041 BKN050 BKN060 09/01 A2979 RMK AO2 PK WND 27032/1435 SLP086 60000 T00890006 51008=
200504021351 METAR KATL 021351Z 30019G32KT 10SM SCT033 08/01 A2979 RMK AO2 PK WND 30032/1342 SLP086 T00830011=
200504021251 METAR KATL 021251Z 30018G25KT 10SM SCT080 08/03 A2978 RMK AO2 RAE1154 SLP083 P0000 T00780028=
200504021151 METAR KATL 021151Z 30015G33KT 5SM -RA FEW019 BKN035 BKN047 07/03 A2976 RMK AO2 PK WND 31033/1142 RAB38 SLP078 P0002 60002 70077 T00670033 10106 20067 53012=
200504021051 METAR KATL 021051Z 28014G21KT 10SM SCT037 08/04 A2975 RMK AO2 SLP072 T00780039=
200504020951 METAR KATL 020951Z 28011KT 10SM FEW027 BKN038 08/04 A2974 RMK AO2 SLP068 T00830044=
200504020851 METAR KATL 020851Z 29012G21KT 10SM OVC036 09/05 A2973 RMK AO2 SLP064 60000 T00890050 53003=
200504020823 SPECI KATL 020823Z 30016G21KT 10SM SCT027 OVC034 09/04 A2972 RMK AO2=
200504020823 SPECI KATL 020823Z 30016G21KT 10SM SCT027 OVC034 09/04 A2972 RMK AO2=
200504020751 METAR KATL 020751Z 30018G26KT 10SM BKN020 OVC028 09/06 A2972 RMK AO2 PK WND 28030/0721 SLP063 T00890056=
200504020651 METAR KATL 020651Z 29016G25KT 10SM FEW007 BKN013 OVC020 09/08 A2971 RMK AO2 PK WND 29027/0608 RAE05B27E40 SLP057 P0000 T00940078=
200504020551 METAR KATL 020551Z 27016G24KT 8SM -RA OVC005 11/10 A2972 RMK AO2 PK WND 29029/0521 RAE0455B18 SLP061 P0000 60024 T01110100 10167 20111 53021=
200504020513 SPECI KATL 020513Z 28012KT 10SM FEW007 BKN019 OVC090 14/12 A2967 RMK AO2 RAE0455 P0000=
200504020513 SPECI KATL 020513Z 28012KT 10SM FEW007 BKN019 OVC090 14/12 A2967 RMK AO2 RAE0455 P0000=
200504020506 SPECI KATL 020506Z 27014KT 10SM FEW013 BKN038 OVC090 14/12 A2966 RMK AO2 RAE0455 P0000=
200504020506 SPECI KATL 020506Z 27014KT 10SM FEW013 BKN038 OVC090 14/12 A2966 RMK AO2 RAE0455 P0000=
200504020451 METAR KATL 020451Z 27013G19KT 6SM -RA BR FEW009 BKN015 OVC090 14/13 A2966 RMK AO2 SLP039 P0007 T01440128 401830139=
200504020440 SPECI KATL 020440Z 28014KT 6SM -RA BR FEW006 BKN015 OVC026 15/13 A2966 RMK AO2 P0007=
200504020440 SPECI KATL 020440Z 28014KT 6SM -RA BR FEW006 BKN015 OVC026 15/13 A2966 RMK AO2 P0007=
200504020421 SPECI KATL 020421Z 26008KT 6SM RA BR SCT006 BKN012 OVC036 15/14 A2967 RMK AO2 P0004=
200504020421 SPECI KATL 020421Z 26008KT 6SM RA BR SCT006 BKN012 OVC036 15/14 A2967 RMK AO2 P0004=
200504020351 METAR KATL 020351Z 22008KT 4SM -RA BR OVC006 15/14 A2965 RMK AO2 CIG 003V009 SLP038 P0006 T01500144=
200504020308 SPECI KATL 020308Z 18009KT 9SM -RA BKN008 OVC013 15/14 A2966 RMK AO2 P0000=
200504020308 SPECI KATL 020308Z 18009KT 9SM -RA BKN008 OVC013 15/14 A2966 RMK AO2 P0000=
200504020251 METAR KATL 020251Z 17008KT 5SM -RA BR BKN010 BKN015 OVC020 15/14 A2965 RMK AO2 SLP038 P0011 60011 T01500144 58016=
200504020151 METAR KATL 020151Z 19008KT 6SM -RA BR OVC014 16/14 A2971 RMK AO2 RAB38 SLP057 P0000 T01560144=
200504020125 SPECI KATL 020125Z 19010KT 10SM OVC014 16/14 A2970 RMK AO2=
200504020125 SPECI KATL 020125Z 19010KT 10SM OVC014 16/14 A2970 RMK AO2=
200504020051 METAR KATL 020051Z 17012G17KT 10SM BKN016 OVC020 16/13 A2969 RMK AO2 SLP049 T01610133=
200504012351 METAR KATL 012351Z 17011KT 10SM OVC018 17/13 A2970 RMK AO2 SLP055 T01670133 10183 20167 56016=
200504012251 METAR KATL 012251Z 17013KT 10SM BKN016 OVC024 17/14 A2972 RMK AO2 SLP060 T01720139=
200504012151 METAR KATL 012151Z 16012G18KT 10SM BKN020 OVC025 17/14 A2972 RMK AO2 SLP059 T01720139=
200504012051 METAR KATL 012051Z 15012G19KT 10SM BKN018 OVC020 18/14 A2975 RMK AO2 SLP071 T01780139 56037=
200504012018 SPECI KATL 012018Z 14008KT 10SM BKN016 OVC021 18/14 A2976 RMK AO2=
200504012018 SPECI KATL 012018Z 14008KT 10SM BKN016 OVC021 18/14 A2976 RMK AO2=
200504011951 METAR KATL 011951Z 13009KT 10SM BKN014 BKN021 OVC160 18/15 A2978 RMK AO2 SLP082 T01780150=
200504011851 METAR KATL 011851Z 12010KT 10SM SCT007 BKN022 OVC160 17/14 A2983 RMK AO2 SLP099 T01720144=
200504011751 METAR KATL 011751Z 11009KT 10SM SCT007 BKN021 OVC150 17/15 A2987 RMK AO2 RAE00 SLP111 P0000 60051 T01670150 10167 20139 58037=
200504011651 METAR KATL 011651Z 14007KT 8SM -RA BKN021 BKN031 OVC160 16/15 A2992 RMK AO2 SLP128 P0004 T01610150=
200504011551 METAR KATL 011551Z 24007KT 8SM -RA OVC023 16/13 A2997 RMK AO2 SLP145 P0008 T01610133=
200504011518 SPECI KATL 011518Z 29011KT 3SM -RA BKN019 OVC075 16/14 A2997 RMK AO2 SFC VIS 7 P0005=
200504011518 SPECI KATL 011518Z 29011KT 3SM -RA BKN019 OVC075 16/14 A2997 RMK AO2 SFC VIS 7 P0005=
200504011451 METAR KATL 011451Z 00000KT 2 1/2SM RA BR FEW007 OVC019 15/14 A2998 RMK AO2 SLP149 P0016 60039 T01500144 50006=
200504011440 SPECI KATL 011440Z 00000KT 2SM RA BR FEW007 OVC017 15/14 A3000 RMK AO2 TWR VIS 2 1/2 P0013=
200504011440 SPECI KATL 011440Z 00000KT 2SM RA BR FEW007 OVC017 15/14 A3000 RMK AO2 TWR VIS 2 1/2 P0013=
200504011438 SPECI KATL 011438Z 18003KT 1 3/4SM RA BR OVC017 15/14 A3000 RMK AO2 TWR VIS 2 1/2 P0012=
200504011438 SPECI KATL 011438Z 18003KT 1 3/4SM RA BR OVC017 15/14 A3000 RMK AO2 TWR VIS 2 1/2 P0012=
200504011413 SPECI KATL 011413Z 00000KT 2 1/2SM -RA BR FEW004 OVC019 15/14 A3002 RMK AO2 SFC VIS 3 P0005=
200504011413 SPECI KATL 011413Z 00000KT 2 1/2SM -RA BR FEW004 OVC019 15/14 A3002 RMK AO2 SFC VIS 3 P0005=
200504011401 SPECI KATL 011401Z 00000KT 1 3/4SM RA BR SCT004 OVC021 15/14 A3002 RMK AO2 TWR VIS 2 1/2 P0003=
200504011401 SPECI KATL 011401Z 00000KT 1 3/4SM RA BR SCT004 OVC021 15/14 A3002 RMK AO2 TWR VIS 2 1/2 P0003=
200504011358 SPECI KATL 011358Z 00000KT 2SM RA BR BKN004 OVC023 14/14 A3002 RMK AO2 TWR VIS 2 1/2 P0002=
200504011358 SPECI KATL 011358Z 00000KT 2SM RA BR BKN004 OVC023 14/14 A3002 RMK AO2 TWR VIS 2 1/2 P0002=
200504011351 METAR KATL 011351Z 23003KT 2 1/2SM -RA BR SCT004 OVC025 14/14 A3001 RMK AO2 SFC VIS 3 SLP160 P0015 T01440144=
200504011334 SPECI KATL 011334Z 25004KT 2SM RA BR BKN006 BKN009 OVC017 14/14 A3002 RMK AO2 TWR VIS 2 1/2 P0012=
200504011334 SPECI KATL 011334Z 25004KT 2SM RA BR BKN006 BKN009 OVC017 14/14 A3002 RMK AO2 TWR VIS 2 1/2 P0012=
200504011310 SPECI KATL 011310Z 24003KT 2SM RA BR FEW006 OVC021 14/14 A3001 RMK AO2 TWR VIS 2 1/2 P0005=
200504011310 SPECI KATL 011310Z 24003KT 2SM RA BR FEW006 OVC021 14/14 A3001 RMK AO2 TWR VIS 2 1/2 P0005=
200504011251 METAR KATL 011251Z 00000KT 2 1/2SM RA BR BKN008 OVC017 14/14 A2999 RMK AO2 SFC VIS 3 SLP153 P0008 T01440139=
200504011239 SPECI KATL 011239Z 00000KT 2 1/2SM -RA BR BKN006 OVC011 14/14 A2999 RMK AO2 SFC VIS 3 CIG 003V008 P0007=
200504011239 SPECI KATL 011239Z 00000KT 2 1/2SM -RA BR BKN006 OVC011 14/14 A2999 RMK AO2 SFC VIS 3 CIG 003V008 P0007=
200504011232 SPECI KATL 011232Z 24004KT 2 1/2SM -RA BR SCT004 OVC010 14/13 A2999 RMK AO2 SFC VIS 3 P0006=
200504011232 SPECI KATL 011232Z 24004KT 2 1/2SM -RA BR SCT004 OVC010 14/13 A2999 RMK AO2 SFC VIS 3 P0006=
Fallo de consulta: el error es SELECT command denied to user 'users'@'localhost' for table 'tafs_2005'
