##########################################################
# Query made at 04/19/2024 22:50:49 UTC
# Time interval: from 05/01/2005 12:00  to 05/31/2005 12:59  UTC
##########################################################

##########################################################
# KATL, Atlanta, Hartsfield - Jackson Atlanta International Airport (United States)
# WMO index: 72219. WIGOS ID: 0-20000-0-72219
# Latitude 33-38-59N. Longitude 084-25-00W. Altitude 312 m.
##########################################################

200505311251 METAR KATL 311251Z 09011KT 6SM BR FEW007 OVC140 17/16 A2997 RMK AO2 SLP143 T01720156=
200505311236 SPECI KATL 311236Z 08008KT 2 1/2SM BR SCT005 OVC140 17/16 A2997 RMK AO2 SFC VIS 6=
200505311236 SPECI KATL 311236Z 08008KT 2 1/2SM BR SCT005 OVC140 17/16 A2997 RMK AO2 SFC VIS 6=
200505311151 METAR KATL 311151Z 08008KT 2 1/2SM BR BKN005 OVC130 17/16 A2995 RMK AO2 SFC VIS 4 SLP139 70044 T01670156 10167 20161 51006=
200505311051 METAR KATL 311051Z 07007KT 2 1/2SM BR BKN005 OVC019 17/16 A2995 RMK AO2 SFC VIS 4 SLP138 T01670156=
200505311040 SPECI KATL 311040Z 07006KT 2 1/2SM BR BKN005 OVC019 17/16 A2995 RMK AO2 SFC VIS 3 CIG 004V008=
200505311040 SPECI KATL 311040Z 07006KT 2 1/2SM BR BKN005 OVC019 17/16 A2995 RMK AO2 SFC VIS 3 CIG 004V008=
200505310951 METAR KATL 310951Z 09005KT 6SM BR OVC005 17/16 A2995 RMK AO2 SLP136 T01670156=
200505310851 METAR KATL 310851Z 06008KT 7SM BKN005 OVC020 17/16 A2994 RMK AO2 CIG 004V008 SLP132 T01670156 58007=
200505310751 METAR KATL 310751Z 09005KT 6SM BR BKN005 OVC130 17/16 A2995 RMK AO2 SLP138 T01670156=
200505310658 SPECI KATL 310658Z 09007KT 5SM BR BKN006 OVC012 17/16 A2996 RMK AO2 CIG 005V010=
200505310658 SPECI KATL 310658Z 09007KT 5SM BR BKN006 OVC012 17/16 A2996 RMK AO2 CIG 005V010=
200505310651 METAR KATL 310651Z 09005KT 5SM BR SCT006 OVC012 17/16 A2996 RMK AO2 SLP140 T01670156=
200505310630 SPECI KATL 310630Z 07009KT 8SM FEW007 OVC014 17/16 A2995 RMK AO2=
200505310630 SPECI KATL 310630Z 07009KT 8SM FEW007 OVC014 17/16 A2995 RMK AO2=
200505310551 METAR KATL 310551Z 08006KT 8SM OVC012 17/16 A2996 RMK AO2 SLP141 60000 T01670156 10178 20167 57006=
200505310451 METAR KATL 310451Z 08007KT 9SM SCT007 OVC014 17/16 A2997 RMK AO2 SLP145 T01720156 401830139=
200505310441 SPECI KATL 310441Z 07008KT 9SM SCT007 OVC012 17/16 A2997 RMK AO2=
200505310441 SPECI KATL 310441Z 07008KT 9SM SCT007 OVC012 17/16 A2997 RMK AO2=
200505310427 SPECI KATL 310427Z 07009KT 10SM BKN007 OVC012 17/16 A2996 RMK AO2=
200505310427 SPECI KATL 310427Z 07009KT 10SM BKN007 OVC012 17/16 A2996 RMK AO2=
200505310351 METAR KATL 310351Z 05007KT 10SM SCT007 OVC012 17/16 A2996 RMK AO2 SLP141 T01720161=
200505310315 SPECI KATL 310315Z 05007KT 9SM BKN007 OVC012 17/16 A2996 RMK AO2=
200505310315 SPECI KATL 310315Z 05007KT 9SM BKN007 OVC012 17/16 A2996 RMK AO2=
200505310251 METAR KATL 310251Z 06007KT 10SM SCT007 OVC012 17/16 A2998 RMK AO2 SLP147 60000 T01720161 53004=
200505310235 SPECI KATL 310235Z 06008KT 10SM FEW006 OVC012 17/16 A2997 RMK AO2=
200505310235 SPECI KATL 310235Z 06008KT 10SM FEW006 OVC012 17/16 A2997 RMK AO2=
200505310151 METAR KATL 310151Z 09006KT 8SM BKN006 OVC012 17/16 A2996 RMK AO2 DZB10E32 SLP143 P0000 T01720161=
200505310051 METAR KATL 310051Z 08008KT 8SM BKN009 OVC015 17/16 A2996 RMK AO2 DZB23E48 SLP142 P0000 T01720161=
200505310024 SPECI KATL 310024Z 08008KT 7SM -DZ BKN007 OVC015 17/16 A2996 RMK AO2 DZB23 P0000=
200505310024 SPECI KATL 310024Z 08008KT 7SM -DZ BKN007 OVC015 17/16 A2996 RMK AO2 DZB23 P0000=
200505302351 METAR KATL 302351Z 09005KT 10SM SCT008 BKN012 OVC020 18/16 A2996 RMK AO2 SLP143 60010 T01780161 10183 20167 53009=
200505302251 METAR KATL 302251Z 09006KT 10SM SCT008 BKN014 OVC025 18/16 A2994 RMK AO2 SLP136 T01830161=
200505302214 SPECI KATL 302214Z 12005KT 10SM FEW008 BKN012 OVC025 18/16 A2994 RMK AO2=
200505302214 SPECI KATL 302214Z 12005KT 10SM FEW008 BKN012 OVC025 18/16 A2994 RMK AO2=
200505302151 METAR KATL 302151Z 06010KT 10SM SCT008 BKN015 BKN025 OVC150 18/16 A2993 RMK AO2 SLP133 T01830161=
200505302132 SPECI KATL 302132Z 06013KT 10SM FEW008 BKN012 OVC020 18/16 A2993 RMK AO2=
200505302132 SPECI KATL 302132Z 06013KT 10SM FEW008 BKN012 OVC020 18/16 A2993 RMK AO2=
200505302104 SPECI KATL 302104Z 05010KT 10SM SCT009 BKN015 OVC025 18/16 A2993 RMK AO2=
200505302104 SPECI KATL 302104Z 05010KT 10SM SCT009 BKN015 OVC025 18/16 A2993 RMK AO2=
200505302051 METAR KATL 302051Z 06009KT 9SM BKN006 BKN009 OVC015 18/16 A2993 RMK AO2 SLP133 60010 T01830161 56014=
200505301951 METAR KATL 301951Z 06008KT 6SM BR BKN006 BKN009 OVC015 18/16 A2994 RMK AO2 RAE32 SLP136 P0002 T01780161=
200505301922 SPECI KATL 301922Z 04008KT 2SM -RA BR BKN007 OVC015 18/17 A2995 RMK AO2 SFC VIS 4 P0002=
200505301922 SPECI KATL 301922Z 04008KT 2SM -RA BR BKN007 OVC015 18/17 A2995 RMK AO2 SFC VIS 4 P0002=
200505301851 METAR KATL 301851Z 09005KT 1SM -RA BR BKN005 OVC008 17/16 A2997 RMK AO2 SFC VIS 2 CIG 003V008 SLP145 P0008 T01720161=
200505301830 SPECI KATL 301830Z 00000KT 1SM R09R/5500VP6000FT -RA BR BKN005 OVC010 17/16 A2998 RMK AO2 SFC VIS 1 3/4 CIG 003V007 P0005=
200505301830 SPECI KATL 301830Z 00000KT 1SM R09R/5500VP6000FT -RA BR BKN005 OVC010 17/16 A2998 RMK AO2 SFC VIS 1 3/4 CIG 003V007 P0005=
200505301751 METAR KATL 301751Z 08004KT 2SM -RA BR BKN006 OVC011 17/16 A2998 RMK AO2 SFC VIS 3 CIG 004V008 SLP149 P0016 60034 T01670161 10167 20144 55004=
200505301718 SPECI KATL 301718Z 08007KT 2SM R09R/5500VP6000FT RA BR OVC006 17/16 A2997 RMK AO2 CIG 003V010 P0010=
200505301718 SPECI KATL 301718Z 08007KT 2SM R09R/5500VP6000FT RA BR OVC006 17/16 A2997 RMK AO2 CIG 003V010 P0010=
200505301706 SPECI KATL 301706Z 09009KT 1 3/4SM R09R/4500VP6000FT RA BR OVC008 17/16 A2997 RMK AO2 TWR VIS 2 CIG 005V011 P0005=
200505301706 SPECI KATL 301706Z 09009KT 1 3/4SM R09R/4500VP6000FT RA BR OVC008 17/16 A2997 RMK AO2 TWR VIS 2 CIG 005V011 P0005=
200505301651 METAR KATL 301651Z 09009KT 6SM -RA BR OVC006 17/16 A2998 RMK AO2 SLP148 P0006 T01670156=
200505301551 METAR KATL 301551Z 09007KT 6SM -RA BR OVC006 17/16 A2999 RMK AO2 RAB33 SLP151 P0000 T01670156=
200505301451 METAR KATL 301451Z 09009KT 5SM BR OVC006 16/15 A2999 RMK AO2 RAE47 CIG 004V010 SLP152 P0004 60012 T01610150 50001=
200505301441 SPECI KATL 301441Z 09008KT 5SM -RA BR OVC006 16/15 A2999 RMK AO2 CIG 004V010 P0004=
200505301441 SPECI KATL 301441Z 09008KT 5SM -RA BR OVC006 16/15 A2999 RMK AO2 CIG 004V010 P0004=
200505301351 METAR KATL 301351Z 09008KT 2SM -RA BR BKN006 OVC043 16/14 A2999 RMK AO2 SFC VIS 3 CIG 004V009 SLP153 P0006 T01560144=
200505301251 METAR KATL 301251Z 07012KT 2 1/2SM -RA BR BKN006 OVC036 15/14 A2998 RMK AO2 SFC VIS 3 CIG 005V009 SLP151 P0002 T01500139=
200505301216 SPECI KATL 301216Z 07011KT 2 1/2SM -RA BR BKN006 OVC036 15/14 A2999 RMK AO2 SFC VIS 3 CIG 004V009 P0002=
200505301216 SPECI KATL 301216Z 07011KT 2 1/2SM -RA BR BKN006 OVC036 15/14 A2999 RMK AO2 SFC VIS 3 CIG 004V009 P0002=
200505301151 METAR KATL 301151Z 06010KT 3SM -RA BR OVC006 14/14 A2998 RMK AO2 CIG 004V009 SLP151 P0003 60009 70035 T01440139 10150 20139 53006=
200505301128 SPECI KATL 301128Z 07009KT 4SM -RA BR BKN006 OVC019 14/14 A2998 RMK AO2 CIG 004V008 P0001=
200505301128 SPECI KATL 301128Z 07009KT 4SM -RA BR BKN006 OVC019 14/14 A2998 RMK AO2 CIG 004V008 P0001=
200505301106 SPECI KATL 301106Z 07008KT 5SM -RA BR SCT006 OVC019 14/14 A2998 RMK AO2 P0000=
200505301106 SPECI KATL 301106Z 07008KT 5SM -RA BR SCT006 OVC019 14/14 A2998 RMK AO2 P0000=
200505301051 METAR KATL 301051Z 06010KT 6SM -RA BR BKN006 OVC019 14/14 A2998 RMK AO2 SLP149 P0002 T01440139=
200505300951 METAR KATL 300951Z 07007KT 6SM -RA BR BKN006 14/13 A2996 RMK AO2 SLP144 P0002 T01440133=
200505300911 SPECI KATL 300911Z 07010KT 6SM -RA BR BKN006 BKN028 OVC080 14/13 A2996 RMK AO2 P0000=
200505300911 SPECI KATL 300911Z 07010KT 6SM -RA BR BKN006 BKN028 OVC080 14/13 A2996 RMK AO2 P0000=
200505300851 METAR KATL 300851Z 08007KT 6SM -RA BR SCT006 BKN023 OVC080 14/13 A2996 RMK AO2 SLP144 P0002 60002 T01390133 55003=
200505300837 SPECI KATL 300837Z 09006KT 6SM -RA BR BKN023 BKN075 OVC110 14/13 A2996 RMK AO2 P0001=
200505300837 SPECI KATL 300837Z 09006KT 6SM -RA BR BKN023 BKN075 OVC110 14/13 A2996 RMK AO2 P0001=
200505300758 SPECI KATL 300758Z 08008KT 6SM -RA BR FEW025 BKN030 OVC120 14/13 A2995 RMK AO2 P0001=
200505300758 SPECI KATL 300758Z 08008KT 6SM -RA BR FEW025 BKN030 OVC120 14/13 A2995 RMK AO2 P0001=
200505300751 METAR KATL 300751Z 07009KT 6SM -RA BR BKN027 BKN037 OVC065 14/13 A2996 RMK AO2 RAB36 SLP141 P0000 T01390133=
200505300732 SPECI KATL 300732Z 08007KT 10SM SCT025 BKN065 OVC120 14/13 A2996 RMK AO2=
200505300732 SPECI KATL 300732Z 08007KT 10SM SCT025 BKN065 OVC120 14/13 A2996 RMK AO2=
200505300710 SPECI KATL 300710Z 09007KT 10SM BKN023 OVC041 14/13 A2996 RMK AO2=
200505300710 SPECI KATL 300710Z 09007KT 10SM BKN023 OVC041 14/13 A2996 RMK AO2=
200505300651 METAR KATL 300651Z 08008KT 10SM OVC041 14/13 A2996 RMK AO2 RAE39 SLP141 P0000 T01440133=
200505300551 METAR KATL 300551Z 08007KT 10SM -RA BKN042 OVC049 14/13 A2997 RMK AO2 SLP148 P0002 60004 T01440133 10156 20144 58003=
200505300451 METAR KATL 300451Z 07007KT 10SM -RA OVC075 14/13 A2999 RMK AO2 RAB17E24B46 SLP152 P0000 T01440128 402110139=
200505300351 METAR KATL 300351Z 08007KT 10SM SCT110 15/13 A3000 RMK AO2 SLP156 T01500128=
200505300251 METAR KATL 300251Z 11006KT 10SM OVC100 15/13 A2998 RMK AO2 RAB14E40 SLP150 P0002 60002 T01500128 55002=
200505300151 METAR KATL 300151Z 08007KT 10SM FEW070 BKN090 OVC110 14/12 A2997 RMK AO2 RAE0054B34E46 SLP145 P0000 T01440122=
200505300051 METAR KATL 300051Z 05010KT 10SM -RA BKN070 OVC095 15/12 A2998 RMK AO2 RAB40 SLP150 P0000 T01500122=
200505292351 METAR KATL 292351Z 07009KT 10SM FEW055 BKN085 15/12 A2999 RMK AO2 SLP152 60014 T01500122 10172 20144 58009=
200505292251 METAR KATL 292251Z 03010KT 10SM SCT050 BKN090 15/13 A3001 RMK AO2 RAE08 SLP157 P0000 T01500128=
200505292151 METAR KATL 292151Z 06012KT 8SM -RA BKN029 BKN042 OVC055 14/12 A3002 RMK AO2 SLP163 P0004 T01440117=
200505292051 METAR KATL 292051Z 06011KT 8SM -RA BKN031 OVC060 15/12 A3002 RMK AO2 SLP161 P0005 60010 T01500122 58010=
200505292010 SPECI KATL 292010Z 36010KT 8SM -RA BKN031 OVC048 16/12 A3004 RMK AO2 P0001=
200505292010 SPECI KATL 292010Z 36010KT 8SM -RA BKN031 OVC048 16/12 A3004 RMK AO2 P0001=
200505291959 SPECI KATL 291959Z 01010KT 2 1/2SM -RA BR BKN024 BKN035 OVC055 15/13 A3005 RMK AO2 SFC VIS 4 P0001=
200505291959 SPECI KATL 291959Z 01010KT 2 1/2SM -RA BR BKN024 BKN035 OVC055 15/13 A3005 RMK AO2 SFC VIS 4 P0001=
200505291951 METAR KATL 291951Z 34007KT 2 1/2SM -RA BR SCT020 BKN035 OVC050 15/13 A3006 RMK AO2 SFC VIS 3 SLP175 P0005 T01500128=
200505291851 METAR KATL 291851Z 13008KT 10SM -RA SCT065 BKN095 BKN130 17/11 A3001 RMK AO2 RAB27 SLP158 P0000 T01720111=
200505291751 METAR KATL 291751Z 13008KT 10SM SCT070 BKN100 16/11 A3005 RMK AO2 RAE40 SLP170 P0002 60008 T01560111 10206 20139 58021=
200505291717 SPECI KATL 291717Z 13007KT 10SM -RA BKN036 OVC075 14/12 A3008 RMK AO2 P0001=
200505291717 SPECI KATL 291717Z 13007KT 10SM -RA BKN036 OVC075 14/12 A3008 RMK AO2 P0001=
200505291709 SPECI KATL 291709Z 18008KT 10SM -RA BKN029 BKN041 OVC075 14/12 A3010 RMK AO2 P0001=
200505291709 SPECI KATL 291709Z 18008KT 10SM -RA BKN029 BKN041 OVC075 14/12 A3010 RMK AO2 P0001=
200505291651 METAR KATL 291651Z 19006KT 9SM -RA BKN055 OVC075 14/12 A3010 RMK AO2 SLP189 P0001 T01440117=
200505291551 METAR KATL 291551Z 20006KT 9SM -RA BKN038 OVC080 14/11 A3012 RMK AO2 SLP195 P0005 T01390111=
200505291451 METAR KATL 291451Z 20008KT 8SM -RA BKN050 BKN075 OVC095 17/09 A3011 RMK AO2 RAB08 SLP190 P0000 60000 T01670089 53029=
200505291351 METAR KATL 291351Z 09007KT 10SM BKN110 BKN150 20/08 A3004 RMK AO2 SLP166 T02000083=
200505291251 METAR KATL 291251Z 11004KT 10SM SCT120 BKN200 18/10 A3004 RMK AO2 SLP165 T01780100=
200505291151 METAR KATL 291151Z 09005KT 10SM SCT120 BKN200 17/09 A3002 RMK AO2 SLP160 T01720094 10211 20167 53006=
200505291051 METAR KATL 291051Z 07005KT 10SM FEW120 BKN200 18/08 A3002 RMK AO2 SLP157 T01780083=
200505290951 METAR KATL 290951Z 08004KT 10SM BKN200 18/11 A3001 RMK AO2 SLP153 T01780106=
200505290851 METAR KATL 290851Z 04005KT 10SM BKN200 18/11 A3000 RMK AO2 SLP152 T01830111 51005=
200505290751 METAR KATL 290751Z 03006KT 10SM SCT200 19/12 A3000 RMK AO2 SLP151 T01890117=
200505290651 METAR KATL 290651Z 06004KT 10SM SCT200 19/13 A3000 RMK AO2 SLP150 T01890128=
200505290551 METAR KATL 290551Z 03003KT 10SM FEW250 21/12 A2999 RMK AO2 SLP145 T02110122 10239 20194 58004=
200505290451 METAR KATL 290451Z 00000KT 10SM SCT250 20/13 A2999 RMK AO2 SLP148 T02000133 402720178=
200505290351 METAR KATL 290351Z 04006KT 10SM BKN250 22/12 A3000 RMK AO2 SLP149 T02170122=
200505290251 METAR KATL 290251Z 36003KT 10SM SCT250 22/12 A3000 RMK AO2 SLP151 T02170122 53010=
200505290151 METAR KATL 290151Z 32005KT 10SM SCT250 22/13 A2999 RMK AO2 SLP147 T02220133=
200505290051 METAR KATL 290051Z 34006KT 10SM FEW150 SCT250 23/13 A2998 RMK AO2 SLP143 T02280133=
200505282351 METAR KATL 282351Z 36010KT 10SM FEW050 SCT150 24/14 A2997 RMK AO2 SLP141 T02390139 10272 20239 53005=
200505282251 METAR KATL 282251Z COR 33009KT 10SM FEW050 SCT150 24/14 A2996 RMK AO2 SLP138 T02440144=
200505282151 METAR KATL 282151Z COR 32012KT 10SM FEW050 SCT150 26/14 A2995 RMK AO2 SLP135 T02610139=
200505282051 METAR KATL 282051Z 32010KT 10SM BKN050 BKN150 26/15 A2995 RMK AO2 SLP134 T02610150 58009=
200505281951 METAR KATL 281951Z 30011KT 10SM SCT040 BKN049 BKN080 27/16 A2996 RMK AO2 SLP138 T02670161=
200505281851 METAR KATL 281851Z 31012G16KT 9SM FEW041CB BKN060 BKN130 27/17 A2997 RMK AO2 SLP141 CB NE MOV E T02670167=
200505281751 METAR KATL 281751Z 29013KT 10SM SCT041 BKN060 BKN130 26/16 A2998 RMK AO2 SLP143 T02560161 10267 20194 58002=
200505281651 METAR KATL 281651Z 26008KT 10SM FEW055 BKN130 25/16 A2999 RMK AO2 SLP145 T02500156=
200505281551 METAR KATL 281551Z 32006KT 9SM BKN130 24/16 A2999 RMK AO2 SLP147 T02440161=
200505281451 METAR KATL 281451Z 30008KT 9SM BKN130 24/16 A2999 RMK AO2 SLP146 T02390161 51006=
200505281351 METAR KATL 281351Z 23007KT 10SM BKN065 23/14 A2999 RMK AO2 SLP145 T02330144=
200505281251 METAR KATL 281251Z 22005KT 10SM SCT250 22/14 A2998 RMK AO2 SLP143 T02170144=
200505281151 METAR KATL 281151Z 21005KT 7SM BKN250 19/14 A2997 RMK AO2 SLP140 T01940139 10211 20178 50003=
200505281051 METAR KATL 281051Z 21003KT 9SM BKN250 18/13 A2997 RMK AO2 SLP141 T01780133=
200505280951 METAR KATL 280951Z 23003KT 9SM FEW250 18/14 A2997 RMK AO2 SLP139 T01780139=
200505280851 METAR KATL 280851Z 00000KT 9SM FEW250 18/14 A2996 RMK AO2 SLP137 T01780139 56000=
200505280751 METAR KATL 280751Z 00000KT 10SM FEW250 18/14 A2996 RMK AO2 SLP136 T01830139=
200505280651 METAR KATL 280651Z 00000KT 10SM FEW250 19/13 A2996 RMK AO2 SLP135 T01940133=
200505280551 METAR KATL 280551Z 31004KT 10SM FEW250 21/12 A2996 RMK AO2 SLP136 T02110122 10256 20206 58010=
200505280451 METAR KATL 280451Z 30003KT 10SM FEW250 21/13 A2997 RMK AO2 SLP138 T02110133 402830150=
200505280351 METAR KATL 280351Z 30005KT 10SM FEW250 21/13 A2999 RMK AO2 SLP146 T02110133=
200505280251 METAR KATL 280251Z 30006KT 10SM CLR 22/13 A2999 RMK AO2 SLP147 T02170133 53009=
200505280151 METAR KATL 280151Z 30005KT 10SM FEW250 23/13 A2998 RMK AO2 SLP142 T02330133=
200505280051 METAR KATL 280051Z 30006KT 10SM FEW060 SCT250 24/14 A2997 RMK AO2 SLP141 T02440139=
200505272351 METAR KATL 272351Z 26007KT 10SM FEW060 25/13 A2996 RMK AO2 SLP139 T02500133 10283 20250 55002=
200505272251 METAR KATL 272251Z 27007KT 10SM FEW060 27/13 A2996 RMK AO2 SLP137 T02670128=
200505272151 METAR KATL 272151Z 25004KT 10SM FEW060 27/13 A2996 RMK AO2 SLP136 T02720133=
200505272051 METAR KATL 272051Z 25008KT 10SM FEW055 28/14 A2997 RMK AO2 SLP140 T02780139 58014=
200505271951 METAR KATL 271951Z 31007KT 10SM FEW055 SCT240 27/13 A2998 RMK AO2 SLP145 T02670128=
200505271851 METAR KATL 271851Z 32005KT 10SM FEW060 SCT240 SCT300 27/12 A3000 RMK AO2 SLP150 T02670117=
200505271751 METAR KATL 271751Z 33011G17KT 10SM FEW240 BKN300 26/10 A3001 RMK AO2 SLP155 T02610100 10272 20167 58003=
200505271651 METAR KATL 271651Z 25007G15KT 10SM FEW240 BKN300 26/12 A3002 RMK AO2 SLP158 T02610122=
200505271551 METAR KATL 271551Z 31009KT 10SM FEW200 SCT240 BKN300 24/12 A3003 RMK AO2 SLP161 T02440117=
200505271451 METAR KATL 271451Z VRB04KT 10SM FEW200 SCT240 SCT300 23/13 A3002 RMK AO2 SLP159 T02280133 50006=
200505271351 METAR KATL 271351Z 31006KT 10SM FEW200 SCT240 SCT300 21/13 A3002 RMK AO2 SLP159 T02110133=
200505271251 METAR KATL 271251Z 29008KT 10SM FEW210 SCT250 18/12 A3002 RMK AO2 SLP159 T01830122=
200505271151 METAR KATL 271151Z 30006KT 10SM FEW180 SCT210 SCT250 17/12 A3000 RMK AO2 SLP154 T01670117 10183 20150 53013 $=
200505271051 METAR KATL 271051Z 30005KT 10SM FEW180 SCT210 BKN250 15/11 A2999 RMK AO2 SLP148 T01500106 $=
200505270951 METAR KATL 270951Z 27003KT 10SM FEW250 16/11 A2997 RMK AO2 SLP142 T01560106 $=
200505270851 METAR KATL 270851Z 29006KT 10SM FEW250 16/11 A2996 RMK AO2 SLP140 T01610106 55000 $=
200505270751 METAR KATL 270751Z VRB05KT 10SM CLR 17/11 A2996 RMK AO2 SLP136 T01720106 $=
200505270651 METAR KATL 270651Z 26004KT 10SM CLR 18/11 A2996 RMK AO2 SLP137 T01780106 $=
200505270551 METAR KATL 270551Z 27003KT 10SM FEW250 18/11 A2996 RMK AO2 SLP139 T01830111 10239 20178 50001 $=
200505270451 METAR KATL 270451Z 29005KT 10SM FEW200 18/11 A2997 RMK AO2 SLP143 T01780111 402560111 $=
200505270351 METAR KATL 270351Z 30006KT 10SM CLR 19/11 A2997 RMK AO2 SLP143 T01890111 $=
200505270251 METAR KATL 270251Z 31006KT 10SM CLR 19/12 A2996 RMK AO2 SLP139 T01940117 53015=
200505270151 METAR KATL 270151Z 30006KT 10SM CLR 21/12 A2995 RMK AO2 SLP134 T02060117=
200505270051 METAR KATL 270051Z 29007KT 10SM CLR 23/11 A2993 RMK AO2 SLP129 T02280106=
200505262351 METAR KATL 262351Z 28007KT 10SM FEW250 24/11 A2992 RMK AO2 SLP125 T02390111 10256 20233 55003=
200505262251 METAR KATL 262251Z VRB03KT 8SM CLR 25/10 A2991 RMK AO2 SLP123 T02500100=
200505262151 METAR KATL 262151Z 30007KT 7SM CLR 25/10 A2992 RMK AO2 SLP127 T02500100=
200505262051 METAR KATL 262051Z 29007KT 260V340 10SM CLR 26/10 A2992 RMK AO2 SLP128 T02560100 58013=
200505261951 METAR KATL 261951Z VRB06KT 10SM CLR 25/09 A2994 RMK AO2 SLP134 T02500089=
200505261851 METAR KATL 261851Z 25006KT 10SM CLR 24/09 A2995 RMK AO2 SLP136 T02390094=
200505261751 METAR KATL 261751Z VRB06KT 10SM FEW280 23/10 A2996 RMK AO2 SLP141 T02330100 10233 20128 58008=
200505261651 METAR KATL 261651Z VRB04KT 10SM FEW280 22/09 A2999 RMK AO2 SLP149 T02220089=
200505261551 METAR KATL 261551Z 30008KT 10SM FEW280 21/09 A3000 RMK AO2 SLP152 T02110094=
200505261451 METAR KATL 261451Z VRB06KT 10SM FEW280 20/09 A2999 RMK AO2 SLP149 T02000094 50006=
200505261351 METAR KATL 261351Z 00000KT 10SM FEW280 18/09 A2999 RMK AO2 SLP150 T01830094=
200505261251 METAR KATL 261251Z 28003KT 10SM FEW200 SCT250 16/10 A2998 RMK AO2 SLP148 T01560100=
200505261151 METAR KATL 261151Z 30006KT 10SM FEW200 SCT250 13/09 A2997 RMK AO2 SLP145 T01280089 10144 20111 51013=
200505261051 METAR KATL 261051Z 30004KT 10SM FEW200 SCT250 12/08 A2996 RMK AO2 SLP142 T01170083=
200505260951 METAR KATL 260951Z 30006KT 10SM FEW200 SCT250 12/08 A2994 RMK AO2 SLP136 T01170083 $=
200505260851 METAR KATL 260851Z 30006KT 10SM BKN250 12/08 A2993 RMK AO2 SLP131 T01220083 53003 $=
200505260751 METAR KATL 260751Z 28006KT 10SM BKN250 12/08 A2992 RMK AO2 SLP128 T01220083 $=
200505260651 METAR KATL 260651Z 32005KT 10SM SCT250 14/08 A2992 RMK AO2 SLP125 T01440083 $=
200505260551 METAR KATL 260551Z 32004KT 10SM SCT250 14/08 A2992 RMK AO2 SLP127 T01390083 10206 20139 50001 $=
200505260451 METAR KATL 260451Z 31005KT 10SM BKN250 15/08 A2992 RMK AO2 SLP128 T01500083 402330117 $=
200505260351 METAR KATL 260351Z 30005KT 10SM BKN250 16/08 A2992 RMK AO2 SLP128 T01560083=
200505260251 METAR KATL 260251Z 31005KT 10SM FEW250 17/08 A2992 RMK AO2 SLP126 T01670078 53015=
200505260151 METAR KATL 260151Z 32006KT 10SM FEW250 18/08 A2990 RMK AO2 SLP120 T01780078=
200505260051 METAR KATL 260051Z 32009KT 10SM FEW060 19/08 A2989 RMK AO2 SLP116 T01890078=
200505252351 METAR KATL 252351Z 31010KT 10SM FEW060 21/08 A2987 RMK AO2 SLP110 T02060078 10233 20206 53004=
200505252251 METAR KATL 252251Z 32010KT 10SM FEW065 22/08 A2986 RMK AO2 SLP107 T02170078=
200505252151 METAR KATL 252151Z 34004KT 10SM SCT065 21/07 A2986 RMK AO2 SLP106 T02110072=
200505252051 METAR KATL 252051Z 30009KT 10SM SCT065 23/07 A2986 RMK AO2 SLP105 T02280072 58006=
200505251951 METAR KATL 251951Z COR VRB03KT 10SM SCT065 22/06 A2986 RMK AO2 SLP107 T02170056=
200505251851 METAR KATL 251851Z 29009G14KT 10SM SCT065 22/07 A2987 RMK AO2 SLP109 T02170072=
200505251751 METAR KATL 251751Z 04006KT 10SM SCT060 22/06 A2988 RMK AO2 SLP110 T02170061 10217 20144 56005=
200505251651 METAR KATL 251651Z VRB05KT 10SM FEW060 SCT250 20/07 A2988 RMK AO2 SLP112 T02000072=
200505251551 METAR KATL 251551Z 31006KT 10SM FEW055 SCT250 19/06 A2988 RMK AO2 SLP113 T01940056=
200505251451 METAR KATL 251451Z 31005KT 10SM FEW050 19/06 A2989 RMK AO2 SLP115 T01890061 51009=
200505251351 METAR KATL 251351Z VRB05KT 10SM FEW250 17/07 A2989 RMK AO2 SLP115 T01720072=
200505251251 METAR KATL 251251Z 32005KT 10SM FEW230 16/07 A2988 RMK AO2 SLP113 T01560072=
200505251151 METAR KATL 251151Z COR 35007KT 10SM FEW230 14/06 A2986 RMK AO2 SLP107 T01440061 10167 20117 53020 $=
200505251051 METAR KATL 251051Z COR VRB03KT 10SM FEW230 12/06 A2984 RMK AO2 SLP100 T01170061 $=
200505250951 METAR KATL 250951Z 34006KT 10SM FEW200 13/06 A2982 RMK AO2 SLP091 T01280056 $=
200505250851 METAR KATL 250851Z 36008KT 10SM SCT200 14/05 A2980 RMK AO2 SLP085 T01440050 $=
200505250751 METAR KATL 250751Z 36009KT 10SM SCT200 15/05 A2980 RMK AO2 SLP083 T01500050 $=
200505250651 METAR KATL 250651Z 01011KT 10SM SCT200 16/04 A2980 RMK AO2 SLP083 T01610044=
200505250551 METAR KATL 250551Z 01014KT 10SM FEW250 17/04 A2981 RMK AO2 SLP085 T01670044 10228 20161 51006=
200505250451 METAR KATL 250451Z 36011G19KT 10SM FEW250 17/06 A2980 RMK AO2 SLP083 T01670056 402780167=
200505250351 METAR KATL 250351Z 36011KT 10SM FEW250 18/06 A2981 RMK AO2 SLP085 T01780061=
200505250251 METAR KATL 250251Z 35009KT 10SM SCT250 19/07 A2979 RMK AO2 SLP079 T01890067 51018=
200505250151 METAR KATL 250151Z 34012KT 10SM FEW250 20/07 A2978 RMK AO2 SLP077 T02000072=
200505250051 METAR KATL 250051Z 34010KT 10SM SCT250 21/07 A2975 RMK AO2 SLP067 T02110072=
200505242351 METAR KATL 242351Z 35009KT 10SM FEW250 23/08 A2974 RMK AO2 SLP062 T02280083 10278 20228 51018=
200505242251 METAR KATL 242251Z 35015G22KT 10SM FEW065 24/09 A2972 RMK AO2 SLP059 T02390089=
200505242151 METAR KATL 242151Z 33017G24KT 10SM SCT070 SCT250 26/09 A2971 RMK AO2 PK WND 33026/2141 SLP053 T02560089=
200505242051 METAR KATL 242051Z 32015G20KT 10SM FEW065 26/11 A2968 RMK AO2 PK WND 30028/2008 SLP043 T02610111 56007=
200505241951 METAR KATL 241951Z 31018G24KT 10SM FEW070 27/10 A2968 RMK AO2 SLP042 T02720100=
200505241851 METAR KATL 241851Z 31017G21KT 10SM FEW070 27/11 A2969 RMK AO2 PK WND 29027/1809 SLP046 T02720106=
200505241751 METAR KATL 241751Z 30018G27KT 10SM FEW075 27/09 A2970 RMK AO2 PK WND 29027/1744 SLP048 T02720089 10278 20194 55006=
200505241651 METAR KATL 241651Z 30020G25KT 10SM FEW075 27/09 A2969 RMK AO2 PK WND 29028/1637 SLP045 T02670089=
200505241551 METAR KATL 241551Z 32016G22KT 10SM FEW070 27/10 A2971 RMK AO2 SLP052 T02670100=
200505241451 METAR KATL 241451Z 30010KT 10SM FEW070 26/13 A2972 RMK AO2 SLP055 ACC DSNT S T02560133 58005=
200505241351 METAR KATL 241351Z 30014G17KT 10SM FEW070 23/14 A2974 RMK AO2 SLP062 ACC DSNT SW T02330144=
200505241251 METAR KATL 241251Z 29008KT 10SM FEW055 SCT200 SCT250 21/14 A2975 RMK AO2 SLP064 T02110139=
200505241151 METAR KATL 241151Z 29009KT 10SM SCT150 SCT200 SCT250 19/12 A2974 RMK AO2 SLP060 T01940122 10194 20167 53000=
200505241051 METAR KATL 241051Z 26005KT 10SM FEW180 SCT250 17/11 A2973 RMK AO2 SLP060 T01720111=
200505240951 METAR KATL 240951Z 26005KT 10SM FEW250 17/11 A2973 RMK AO2 SLP060 T01720111=
200505240851 METAR KATL 240851Z 25003KT 10SM CLR 17/12 A2974 RMK AO2 SLP061 T01720117 56006=
200505240751 METAR KATL 240751Z 26003KT 10SM CLR 18/11 A2974 RMK AO2 SLP060 T01780111=
200505240651 METAR KATL 240651Z 28005KT 10SM CLR 18/11 A2975 RMK AO2 SLP064 T01830111=
200505240551 METAR KATL 240551Z 28005KT 10SM FEW250 19/12 A2976 RMK AO2 SLP066 T01940117 10272 20189 58001=
200505240451 METAR KATL 240451Z 30006KT 10SM SCT250 19/12 A2977 RMK AO2 SLP070 T01940122 403000189=
200505240351 METAR KATL 240351Z 29006KT 10SM FEW200 21/12 A2977 RMK AO2 SLP070 T02060122=
200505240251 METAR KATL 240251Z 28005KT 10SM FEW200 22/12 A2976 RMK AO2 SLP068 T02170117 53012=
200505240151 METAR KATL 240151Z 28006KT 10SM FEW200 23/12 A2974 RMK AO2 SLP063 T02280122=
200505240051 METAR KATL 240051Z 28007KT 10SM FEW120 24/12 A2973 RMK AO2 SLP056 T02440117=
200505232351 METAR KATL 232351Z 28011KT 10SM BKN120 27/11 A2972 RMK AO2 SLP055 60000 T02670111 10300 20267 53000=
200505232251 METAR KATL 232251Z 29011KT 10SM FEW060 28/13 A2972 RMK AO2 SLP054 TCU DSNT S T02830133=
200505232151 METAR KATL 232151Z 29013KT 10SM FEW060 SCT150 28/14 A2972 RMK AO2 SLP055 T02830139=
200505232051 METAR KATL 232051Z 31011G17KT 10SM FEW055 SCT100 BKN150 28/16 A2972 RMK AO2 RAB31E36 SLP055 VIRGA NW P0000 60000 T02780156 58020=
200505231951 METAR KATL 231951Z 28012G21KT 10SM FEW060 SCT110 29/14 A2975 RMK AO2 SLP063 ACC NE AND NW T02890144=
200505231851 METAR KATL 231851Z 28012KT 230V300 10SM FEW050 SCT250 SCT300 29/16 A2976 RMK AO2 SLP068 T02890156=
200505231751 METAR KATL 231751Z 30017G20KT 10SM FEW040 BKN250 BKN300 28/17 A2978 RMK AO2 SLP075 T02830172 10283 20206 58008=
200505231651 METAR KATL 231651Z 27015G19KT 9SM FEW035 BKN250 BKN300 27/19 A2981 RMK AO2 SLP083 T02720189=
200505231551 METAR KATL 231551Z 29014G20KT 9SM FEW030 BKN250 BKN300 27/19 A2982 RMK AO2 SLP089 T02670189=
200505231451 METAR KATL 231451Z 27017G24KT 9SM FEW035 BKN200 25/18 A2981 RMK AO2 SLP085 T02500178 50002=
200505231351 METAR KATL 231351Z 26010KT 8SM FEW200 SCT250 24/18 A2981 RMK AO2 SLP085 T02390183=
200505231251 METAR KATL 231251Z 26010KT 9SM FEW210 22/17 A2982 RMK AO2 SLP088 T02220172=
200505231151 METAR KATL 231151Z 25008KT 9SM CLR 21/17 A2980 RMK AO2 SLP083 T02060172 10217 20189 53001=
200505231051 METAR KATL 231051Z 23006KT 9SM FEW070 SCT230 19/17 A2978 RMK AO2 SLP077 T01890167=
200505230951 METAR KATL 230951Z 23003KT 9SM CLR 19/17 A2978 RMK AO2 SLP076 T01940167=
200505230851 METAR KATL 230851Z 24005KT 9SM FEW060 SCT075 20/17 A2980 RMK AO2 SLP082 T02000172 56015=
200505230751 METAR KATL 230751Z 24005KT 9SM FEW070 20/17 A2981 RMK AO2 SLP086 T02000172=
200505230651 METAR KATL 230651Z 24007KT 8SM SCT085 21/17 A2983 RMK AO2 SLP091 T02060172=
200505230551 METAR KATL 230551Z 25008KT 10SM BKN037 BKN075 22/17 A2985 RMK AO2 SLP098 T02170172 10244 20217 58010=
200505230451 METAR KATL 230451Z 23008KT 9SM FEW046 BKN085 22/17 A2986 RMK AO2 SLP103 T02220172 402670144=
200505230351 METAR KATL 230351Z 24006KT 9SM OVC044 22/18 A2987 RMK AO2 SLP107 T02220178=
200505230251 METAR KATL 230251Z 24006KT 9SM BKN100 22/17 A2988 RMK AO2 SLP110 T02220172 53007=
200505230151 METAR KATL 230151Z 25007KT 9SM FEW110 23/17 A2987 RMK AO2 SLP107 T02280167=
200505230051 METAR KATL 230051Z 26007KT 8SM CLR 23/17 A2986 RMK AO2 SLP105 T02330167=
200505222351 METAR KATL 222351Z 26006KT 9SM BKN100 24/17 A2985 RMK AO2 SLP103 T02440167 10267 20233 55004=
200505222251 METAR KATL 222251Z 27007KT 9SM FEW050 25/16 A2985 RMK AO2 SLP101 T02500161=
200505222151 METAR KATL 222151Z 27007KT 9SM FEW042 BKN055 26/17 A2986 RMK AO2 SLP104 T02560167=
200505222051 METAR KATL 222051Z 24010KT 9SM BKN040 BKN070 26/17 A2987 RMK AO2 SLP106 T02610172 58024=
200505221951 METAR KATL 221951Z 26009G14KT 8SM BKN036 BKN070 26/17 A2989 RMK AO2 SLP115 T02560167=
200505221851 METAR KATL 221851Z VRB04KT 8SM BKN030 BKN035 BKN060 24/17 A2992 RMK AO2 SLP124 T02440172=
200505221751 METAR KATL 221751Z 19007KT 9SM SCT028 BKN038 BKN060 23/17 A2994 RMK AO2 SLP132 T02330167 10239 20156 58017=
200505221722 SPECI KATL 221722Z 21008KT 9SM BKN028 BKN039 23/17 A2995 RMK AO2=
200505221722 SPECI KATL 221722Z 21008KT 9SM BKN028 BKN039 23/17 A2995 RMK AO2=
200505221651 METAR KATL 221651Z 20007KT 8SM SCT021 BKN120 23/17 A2997 RMK AO2 SLP143 T02280167=
200505221551 METAR KATL 221551Z 21007KT 7SM SCT015 BKN120 21/16 A2999 RMK AO2 SLP150 T02110161=
200505221515 SPECI KATL 221515Z 22004KT 7SM BKN012 BKN120 19/16 A3000 RMK AO2=
200505221515 SPECI KATL 221515Z 22004KT 7SM BKN012 BKN120 19/16 A3000 RMK AO2=
200505221451 METAR KATL 221451Z 19005KT 7SM BKN005 BKN010 BKN120 18/16 A2999 RMK AO2 SLP150 T01830156 50004=
200505221351 METAR KATL 221351Z 21006KT 5SM BR OVC005 17/15 A2999 RMK AO2 SLP151 T01670150=
200505221251 METAR KATL 221251Z 19007KT 5SM BR OVC005 16/15 A2998 RMK AO2 SLP147 T01610150=
200505221236 SPECI KATL 221236Z 21009KT 5SM BR BKN005 OVC043 16/15 A2998 RMK AO2=
200505221236 SPECI KATL 221236Z 21009KT 5SM BR BKN005 OVC043 16/15 A2998 RMK AO2=
200505221221 SPECI KATL 221221Z 21005KT 5SM BR FEW005 BKN043 16/15 A2998 RMK AO2=
200505221221 SPECI KATL 221221Z 21005KT 5SM BR FEW005 BKN043 16/15 A2998 RMK AO2=
200505221151 METAR KATL 221151Z 22005KT 5SM BR SCT250 16/14 A2998 RMK AO2 SLP146 T01560144 10172 20144 53014=
200505221051 METAR KATL 221051Z 20003KT 4SM BR BKN250 15/14 A2996 RMK AO2 SLP140 T01500139=
200505220951 METAR KATL 220951Z VRB03KT 7SM CLR 15/14 A2994 RMK AO2 SLP134 T01500139=
200505220851 METAR KATL 220851Z 20003KT 7SM CLR 16/14 A2994 RMK AO2 SLP132 T01560144 55006=
200505220751 METAR KATL 220751Z 00000KT 10SM CLR 17/15 A2993 RMK AO2 SLP131 T01670150=
200505220651 METAR KATL 220651Z 00000KT 10SM SCT070 17/15 A2994 RMK AO2 SLP134 T01720150=
200505220551 METAR KATL 220551Z 26003KT 10SM BKN075 17/15 A2995 RMK AO2 SLP138 T01720150 10222 20167 58002=
200505220451 METAR KATL 220451Z 00000KT 10SM FEW250 17/15 A2996 RMK AO2 SLP140 T01720150 402280167=
200505220351 METAR KATL 220351Z 00000KT 10SM SCT250 18/15 A2996 RMK AO2 SLP140 T01830150=
200505220251 METAR KATL 220251Z 00000KT 10SM FEW230 19/15 A2996 RMK AO2 SLP140 T01890150 53010=
200505220151 METAR KATL 220151Z 17003KT 10SM SCT230 19/15 A2994 RMK AO2 SLP134 T01940150=
200505220051 METAR KATL 220051Z 00000KT 10SM FEW036 SCT230 21/14 A2993 RMK AO2 SLP130 T02110144=
200505212351 METAR KATL 212351Z 11004KT 10SM SCT038 BKN230 22/14 A2993 RMK AO2 SLP128 T02220139 10228 20194 53005 $=
200505212251 METAR KATL 212251Z 28005KT 10SM SCT034 SCT230 22/14 A2991 RMK AO2 SLP123 T02220139 $=
200505212151 METAR KATL 212151Z 00000KT 10SM BKN034 BKN230 22/14 A2991 RMK AO2 SLP122 T02170139=
200505212051 METAR KATL 212051Z 08003KT 10SM BKN034 BKN230 22/14 A2991 RMK AO2 SLP123 T02170139 58008=
200505211951 METAR KATL 211951Z 00000KT 10SM BKN030 BKN033 21/14 A2993 RMK AO2 SLP128 T02110144 $=
200505211937 SPECI KATL 211937Z 00000KT 10SM OVC031 21/14 A2993 RMK AO2 $=
200505211937 SPECI KATL 211937Z 00000KT 10SM OVC031 21/14 A2993 RMK AO2 $=
200505211851 METAR KATL 211851Z VRB03KT 10SM OVC023 21/14 A2994 RMK AO2 SLPNO T02060144 $=
200505211751 METAR KATL 211751Z 10008KT 10SM BKN023 OVC027 20/14 A2994 RMK AO2 SLP132 60000 T02000139 10200 20167 50001 $=
200505211651 METAR KATL 211651Z 11008KT 10SM BKN019 19/14 A2994 RMK AO2 SLP134 T01940144 $=
200505211629 SPECI KATL 211629Z 08011KT 10SM OVC017 19/14 A2995 RMK AO2 $=
200505211629 SPECI KATL 211629Z 08011KT 10SM OVC017 19/14 A2995 RMK AO2 $=
200505211603 SPECI KATL 211603Z 06013KT 6SM HZ SCT005 BKN014 OVC023 19/16 A2994 RMK AO2 $=
200505211603 SPECI KATL 211603Z 06013KT 6SM HZ SCT005 BKN014 OVC023 19/16 A2994 RMK AO2 $=
200505211551 METAR KATL 211551Z 08010KT 6SM BR BKN005 BKN010 OVC023 18/16 A2994 RMK AO2 SLP134 T01780156 $=
200505211451 METAR KATL 211451Z 07010KT 3SM BR BKN005 OVC009 18/16 A2993 RMK AO2 RAE07 SLP131 P0000 60000 T01780161 51018 $=
200505211444 SPECI KATL 211444Z 06012KT 3SM BR OVC007 17/16 A2993 RMK AO2 SFC VIS 4 RAE07 CIG 004V011 P0000 $=
200505211444 SPECI KATL 211444Z 06012KT 3SM BR OVC007 17/16 A2993 RMK AO2 SFC VIS 4 RAE07 CIG 004V011 P0000 $=
200505211423 SPECI KATL 211423Z 06011KT 2 1/2SM BR BKN007 OVC020 18/17 A2993 RMK AO2 SFC VIS 3 RAE07 CIG 007V013 P0000 $=
200505211423 SPECI KATL 211423Z 06011KT 2 1/2SM BR BKN007 OVC020 18/17 A2993 RMK AO2 SFC VIS 3 RAE07 CIG 007V013 P0000 $=
200505211412 SPECI KATL 211412Z 07010KT 5SM BR SCT007 OVC020 18/16 A2993 RMK AO2 RAE07 P0000 $=
200505211412 SPECI KATL 211412Z 07010KT 5SM BR SCT007 OVC020 18/16 A2993 RMK AO2 RAE07 P0000 $=
200505211351 METAR KATL 211351Z 07012KT 4SM -RA BR BKN007 BKN013 OVC019 18/16 A2992 RMK AO2 RAB49 SLP127 P0000 T01780161 $=
200505211331 SPECI KATL 211331Z 08012KT 5SM BR BKN007 BKN013 OVC019 18/16 A2991 RMK AO2 CIG 007V010 $=
200505211331 SPECI KATL 211331Z 08012KT 5SM BR BKN007 BKN013 OVC019 18/16 A2991 RMK AO2 CIG 007V010 $=
200505211309 SPECI KATL 211309Z 08010KT 5SM BR SCT007 OVC016 18/17 A2990 RMK AO2 $=
200505211309 SPECI KATL 211309Z 08010KT 5SM BR SCT007 OVC016 18/17 A2990 RMK AO2 $=
200505211251 METAR KATL 211251Z 08008KT 6SM BR SCT007 OVC014 18/17 A2991 RMK AO2 SLP121 T01780167 $=
200505211208 SPECI KATL 211208Z 09010KT 2 1/2SM BR OVC005 17/16 A2988 RMK AO2 SFC VIS 5 CIG 002V008 $=
200505211208 SPECI KATL 211208Z 09010KT 2 1/2SM BR OVC005 17/16 A2988 RMK AO2 SFC VIS 5 CIG 002V008 $=
200505211201 SPECI KATL 211201Z 09012KT 1 1/2SM BR BKN003 OVC007 17/16 A2988 RMK AO2 SFC VIS 4 CIG 001V005 $=
200505211201 SPECI KATL 211201Z 09012KT 1 1/2SM BR BKN003 OVC007 17/16 A2988 RMK AO2 SFC VIS 4 CIG 001V005 $=
200505211151 METAR KATL 211151Z COR 09010KT 1 1/2SM BR OVC001 17/16 A2988 RMK AO2 SFC VIS 3 CIG 001V005 SLP112 70049 T01720161 10189 20167 53018 $=
200505211144 SPECI KATL 211144Z 09009KT 1 1/2SM BR OVC001 17/17 A2987 RMK AO2 SFC VIS 2 1/2 $=
200505211144 SPECI KATL 211144Z 09009KT 1 1/2SM BR OVC001 17/17 A2987 RMK AO2 SFC VIS 2 1/2 $=
200505211107 SPECI KATL 211107Z 07010KT 1/2SM BR BKN001 OVC005 17/16 A2986 RMK AO2 SFC VIS 1 3/4 $=
200505211107 SPECI KATL 211107Z 07010KT 1/2SM BR BKN001 OVC005 17/16 A2986 RMK AO2 SFC VIS 1 3/4 $=
200505211058 SPECI KATL 211058Z 06008KT 1/2SM BR BKN004 OVC007 17/16 A2986 RMK AO2 SFC VIS 3 CIG 001V005 $=
200505211058 SPECI KATL 211058Z 06008KT 1/2SM BR BKN004 OVC007 17/16 A2986 RMK AO2 SFC VIS 3 CIG 001V005 $=
200505211051 METAR KATL 211051Z 06012KT 1SM BR OVC006 17/16 A2986 RMK AO2 SFC VIS 4 SLP105 T01670156 $=
200505210951 METAR KATL 210951Z 03006KT 7SM FEW005 17/16 A2984 RMK AO2 SLP098 T01720161 $=
200505210851 METAR KATL 210851Z COR 01005KT 8SM FEW005 17/16 A2982 RMK AO2 SLP093 T01720161 $=
200505210751 METAR KATL 210751Z 35007KT 8SM FEW005 SCT150 18/17 A2981 RMK AO2 SLP089 T01780167 $=
200505210725 SPECI KATL 210725Z 34007KT 7SM FEW005 SCT150 18/17 A2981 RMK AO2 $=
200505210725 SPECI KATL 210725Z 34007KT 7SM FEW005 SCT150 18/17 A2981 RMK AO2 $=
200505210651 METAR KATL 210651Z 34006KT 7SM SCT150 18/17 A2981 RMK AO2 SLP087 T01780167=
200505210551 METAR KATL 210551Z 31005KT 8SM FEW120 18/17 A2981 RMK AO2 SLP086 T01780172 10206 20178 58002=
200505210451 METAR KATL 210451Z 30004KT 10SM BKN110 19/17 A2981 RMK AO2 SLP088 T01890172 402560178=
200505210351 METAR KATL 210351Z 30006KT 9SM SCT110 19/18 A2981 RMK AO2 SLP088 T01890178=
200505210251 METAR KATL 210251Z 32004KT 10SM BKN110 19/18 A2981 RMK AO2 SLP086 T01940178 53012=
200505210151 METAR KATL 210151Z 23003KT 8SM CLR 19/18 A2980 RMK AO2 SLP083 T01940183=
200505210051 METAR KATL 210051Z 31004KT 10SM FEW015 SCT020 SCT150 BKN200 20/18 A2978 RMK AO2 SLP076 T02000178=
200505210002 SPECI KATL 210002Z 00000KT 10SM SCT014 BKN021 BKN028 20/18 A2977 RMK AO2=
200505210002 SPECI KATL 210002Z 00000KT 10SM SCT014 BKN021 BKN028 20/18 A2977 RMK AO2=
200505202351 METAR KATL 202351Z 00000KT 10SM BKN011 OVC021 20/18 A2977 RMK AO2 SLP075 60030 T02000178 10222 20178 55008=
200505202330 SPECI KATL 202330Z 23003KT 10SM BKN010 21/18 A2978 RMK AO2 CIG 008V013=
200505202330 SPECI KATL 202330Z 23003KT 10SM BKN010 21/18 A2978 RMK AO2 CIG 008V013=
200505202251 METAR KATL 202251Z 19005KT 10SM FEW007 SCT022 SCT150 BKN200 20/18 A2976 RMK AO2 SLP072 T02000178=
200505202220 SPECI KATL 202220Z 18005KT 10SM FEW007 20/18 A2977 RMK AO2=
200505202220 SPECI KATL 202220Z 18005KT 10SM FEW007 20/18 A2977 RMK AO2=
200505202151 METAR KATL 202151Z 18004KT 9SM SCT011 BKN033CB BKN041 19/18 A2977 RMK AO2 TSE12RAE21 SLP076 VIS LWR E-SW SHRA LTG DSNT E-SW TS MOV SE CB DSNT E-SW MOV SE P0018 T01890178=
200505202114 SPECI KATL 202114Z 12004KT 9SM -RA SCT011 SCT022 BKN033 19/17 A2978 RMK AO2 TSE12 VIS LWR E-SW SHRA LTG DSNT E-SW TS MOV SE CB DSNT E-SW MOV SE P0018=
200505202114 SPECI KATL 202114Z 12004KT 9SM -RA SCT011 SCT022 BKN033 19/17 A2978 RMK AO2 TSE12 VIS LWR E-SW SHRA LTG DSNT E-SW TS MOV SE CB DSNT E-SW MOV SE P0018=
200505202111 SPECI KATL 202111Z 08003KT 9SM -TSRA FEW009 BKN027 BKN050 BKN150 BKN250 18/17 A2977 RMK AO2 VIS LWR E-SW SHRA LTG DSNT E-SW TS MOV SE CB DSNT E-SW MOV SE P0018=
200505202111 SPECI KATL 202111Z 08003KT 9SM -TSRA FEW009 BKN027 BKN050 BKN150 BKN250 18/17 A2977 RMK AO2 VIS LWR E-SW SHRA LTG DSNT E-SW TS MOV SE CB DSNT E-SW MOV SE P0018=
200505202101 SPECI KATL 202101Z 02005KT 4SM R09R/2800VP6000FT -TSRA BR BKN009 BKN018CB OVC025 18/17 A2979 RMK AO2 VIS NE-SW LWR SHRA OCNL LTGIC TS NE-SW MOV SE P0017=
200505202101 SPECI KATL 202101Z 02005KT 4SM R09R/2800VP6000FT -TSRA BR BKN009 BKN018CB OVC025 18/17 A2979 RMK AO2 VIS NE-SW LWR SHRA OCNL LTGIC TS NE-SW MOV SE P0017=
200505202058 SPECI KATL 202058Z VRB03G17KT 4SM R09R/2800VP6000FT -TSRA BR BKN009 BKN018CB OVC025 18/17 A2978 RMK AO2 VIS NE 3SM SW 1SM OCNL LTGIC TS OHD-SW MOV SE P0017=
200505202058 SPECI KATL 202058Z VRB03G17KT 4SM R09R/2800VP6000FT -TSRA BR BKN009 BKN018CB OVC025 18/17 A2978 RMK AO2 VIS NE 3SM SW 1SM OCNL LTGIC TS OHD-SW MOV SE P0017=
200505202051 METAR KATL 202051Z 31010G17KT 3SM R09R/3500VP6000FT +TSRA BR FEW014 BKN027CB OVC055 19/17 A2980 RMK AO2 TWR VIS 4 TSB45 SLP084 OCNL LTGIC TS OHD-W MOV SE P0011 60012 T01890172 55016=
200505202031 SPECI KATL 202031Z 36007KT 9SM FEW020 BKN030 OVC060 19/17 A2979 RMK AO2 RAE25 CB DSNT SE AND DSNT NW MOV SE P0001=
200505202031 SPECI KATL 202031Z 36007KT 9SM FEW020 BKN030 OVC060 19/17 A2979 RMK AO2 RAE25 CB DSNT SE AND DSNT NW MOV SE P0001=
200505202006 SPECI KATL 202006Z 35012G17KT 7SM -RA BKN020CB BKN040 OVC060 20/17 A2979 RMK AO2 VIS LWR N-NE SHRA CB OHD-N-NE MOV SE P0001=
200505202006 SPECI KATL 202006Z 35012G17KT 7SM -RA BKN020CB BKN040 OVC060 20/17 A2979 RMK AO2 VIS LWR N-NE SHRA CB OHD-N-NE MOV SE P0001=
200505201951 METAR KATL 201951Z 00000KT 10SM -RA FEW015CB SCT040 BKN060 OVC150 21/17 A2978 RMK AO2 SLP079 CB VC NE-E AND DSNT NW-N MOV SE P0001 T02060172=
200505201851 METAR KATL 201851Z 34005KT 10SM -RA FEW020 SCT050 BKN150 BKN250 22/17 A2981 RMK AO2 RAB07 SLP088 P0000 T02170167=
200505201824 SPECI KATL 201824Z 32007KT 10SM -RA BKN020 BKN050 OVC150 21/16 A2983 RMK AO2 RAB07 P0000=
200505201824 SPECI KATL 201824Z 32007KT 10SM -RA BKN020 BKN050 OVC150 21/16 A2983 RMK AO2 RAB07 P0000=
200505201751 METAR KATL 201751Z 13004KT 10SM FEW025 BKN110 OVC150 21/17 A2985 RMK AO2 SLP099 60019 LTG DSNT SE-SW CB DSNT SE-SW MOV SE T02060167 10256 20200=
200505201651 METAR KATL 201651Z 30012KT 9SM FEW030 SCT080 OVC150 21/17 A2982 RMK AO2 PK WND 28032/1617 WSHFT 1616 TSB17E34RAB21E39 SLP089 LTG DSNT E-SW TS MOV SE CB DSNT E-SW MOV SE TCU DSNT SW-W P0004 T02060172=
200505201634 SPECI KATL 201634Z 31012KT 9SM -RA SCT030 BKN040 OVC075 20/17 A2983 RMK AO2 PK WND 28032/1617 WSHFT 1616 TSB17E34RAB21 LTG DSNT SE-S TS MOV SE CB DSNT SE-S MOV SE P0004 $=
200505201634 SPECI KATL 201634Z 31012KT 9SM -RA SCT030 BKN040 OVC075 20/17 A2983 RMK AO2 PK WND 28032/1617 WSHFT 1616 TSB17E34RAB21 LTG DSNT SE-S TS MOV SE CB DSNT SE-S MOV SE P0004 $=
200505201626 SPECI KATL 201626Z 33017G32KT 1 1/2SM R09R/4000VP6000FT +TSRA BKN032CB BKN040 OVC050 21/17 A2982 RMK AO2 PK WND 28032/1617 SFC VIS 2 TSB17RAB21 FRQ LTGICCG TS OHD MOV ESE P0004 $=
200505201626 SPECI KATL 201626Z 33017G32KT 1 1/2SM R09R/4000VP6000FT +TSRA BKN032CB BKN040 OVC050 21/17 A2982 RMK AO2 PK WND 28032/1617 SFC VIS 2 TSB17RAB21 FRQ LTGICCG TS OHD MOV ESE P0004 $=
200505201624 SPECI KATL 201624Z 34018G32KT 2SM R09R/4000VP6000FT +TSRA BKN032CB BKN040 OVC050 21/18 A2981 RMK AO2 PK WND 28032/1617 TSB17RAB21 FRQ LTGICCG TS OHD MOV ESE P0003 $=
200505201624 SPECI KATL 201624Z 34018G32KT 2SM R09R/4000VP6000FT +TSRA BKN032CB BKN040 OVC050 21/18 A2981 RMK AO2 PK WND 28032/1617 TSB17RAB21 FRQ LTGICCG TS OHD MOV ESE P0003 $=
200505201617 SPECI KATL 201617Z 29017G32KT 250V320 8SM TS SCT030CB BKN038 OVC050 22/19 A2983 RMK AO2 PK WND 28032/1617 TSB17 FRQ LTGICCG TS VC=
200505201617 SPECI KATL 201617Z 29017G32KT 250V320 8SM TS SCT030CB BKN038 OVC050 22/19 A2983 RMK AO2 PK WND 28032/1617 TSB17 FRQ LTGICCG TS VC=
200505201551 METAR KATL 201551Z COR 29007KT 8SM BKN030 BKN050 OVC080 21/18 A2982 RMK AO2 RAB40E50 SLP091 LTG DSNT NE-SE TS MOV E CB DSNT NE-SE MOV E TCU DSNT N P0015 T02060178 $=
200505201536 SPECI KATL 201536Z 34016KT 5SM TS BKN030CB BKN040TCU BKN110 BKN250 19/18 A2984 RMK AO2 TS OVHD FRQ LTGICCG TS NE-SE MOVG SE=
200505201536 SPECI KATL 201536Z 34016KT 5SM TS BKN030CB BKN040TCU BKN110 BKN250 19/18 A2984 RMK AO2 TS OVHD FRQ LTGICCG TS NE-SE MOVG SE=
200505201519 SPECI KATL 201519Z 27013KT 10SM TS BKN030CB BKN040TCU BKN110 BKN250 26/18 A2983 RMK AO2 TSB17 FRQ LTGICCG TS VC W-N MOV E TCU NE AND SW=
200505201519 SPECI KATL 201519Z 27013KT 10SM TS BKN030CB BKN040TCU BKN110 BKN250 26/18 A2983 RMK AO2 TSB17 FRQ LTGICCG TS VC W-N MOV E TCU NE AND SW=
200505201511 SPECI KATL 201511Z 27011KT 10SM FEW030CB SCT040TCU SCT110 BKN150 BKN250 26/19 A2983 RMK AO2 LTG DSNT W-N CB DSNT W-N MOV SE TCU NE ACC OHD-W-NW=
200505201511 SPECI KATL 201511Z 27011KT 10SM FEW030CB SCT040TCU SCT110 BKN150 BKN250 26/19 A2983 RMK AO2 LTG DSNT W-N CB DSNT W-N MOV SE TCU NE ACC OHD-W-NW=
200505201451 METAR KATL 201451Z 26009KT 10SM FEW025TCU SCT060 SCT110 BKN150 26/18 A2985 RMK AO2 SLP097 TCU NW ACC NW-N T02560183 56005=
200505201351 METAR KATL 201351Z 24011KT 10SM FEW110 SCT150 SCT250 24/18 A2985 RMK AO2 SLP097 T02390178=
200505201251 METAR KATL 201251Z 24009KT 10SM FEW110 BKN130 BKN210 22/18 A2985 RMK AO2 SLP099 T02220178=
200505201151 METAR KATL 201151Z 24010KT 10SM SCT060 BKN110 BKN210 21/18 A2986 RMK AO2 SLP102 60000 T02060178 10217 20200 53001=
200505201051 METAR KATL 201051Z 23008KT 10SM BKN110 BKN210 20/17 A2986 RMK AO2 SLP102 T02000172=
200505200951 METAR KATL 200951Z 23009KT 10SM FEW120 SCT180 20/17 A2985 RMK AO2 SLP098 T02000172=
200505200851 METAR KATL 200851Z 22009KT 10SM FEW120 OVC150 20/17 A2986 RMK AO2 RAB09E22 SLP100 P0000 60000 T02000172 58014=
200505200751 METAR KATL 200751Z 23011KT 10SM FEW075 SCT110 OVC150 21/17 A2987 RMK AO2 SLP105 T02060172=
200505200651 METAR KATL 200651Z 24010KT 10SM FEW070 BKN110 OVC150 21/17 A2989 RMK AO2 RAB07E21 SLP113 P0000 T02110167=
200505200551 METAR KATL 200551Z 25008KT 10SM OVC150 22/17 A2990 RMK AO2 SLP115 T02170167 10272 20217 55014=
200505200451 METAR KATL 200451Z 22011KT 10SM OVC180 22/16 A2989 RMK AO2 SLP113 T02220161 402940172=
200505200351 METAR KATL 200351Z 22009KT 10SM SCT120 22/17 A2992 RMK AO2 SLP123 T02220167=
200505200251 METAR KATL 200251Z 20013G18KT 10SM BKN110 23/17 A2994 RMK AO2 SLP130 T02280167 53005=
200505200151 METAR KATL 200151Z 20006KT 10SM FEW110 BKN180 23/16 A2993 RMK AO2 SLP126 T02330161=
200505200051 METAR KATL 200051Z 18011G15KT 10SM SCT110 26/16 A2993 RMK AO2 SLP126 T02560161=
200505192351 METAR KATL 192351Z 21006KT 10SM SCT070TCU BKN180 27/15 A2993 RMK AO2 SLP125 TCU NE T02720150 10294 20267 53002=
200505192251 METAR KATL 192251Z 19008KT 9SM BKN070TCU BKN150 28/14 A2991 RMK AO2 SLP120 TCU N-E T02830139=
200505192151 METAR KATL 192151Z 20008KT 10SM SCT065TCU 29/13 A2992 RMK AO2 SLP121 TCU NE T02890133=
200505192051 METAR KATL 192051Z VRB03KT 10SM FEW050TCU SCT280 28/14 A2992 RMK AO2 SLP122 TCU DSNT SW AND VC NW T02780144 56027=
200505191951 METAR KATL 191951Z 29005KT 10SM FEW055TCU SCT280 29/14 A2994 RMK AO2 SLP130 TCU SW-NW T02890144=
200505191851 METAR KATL 191851Z 00000KT 10SM FEW055TCU SCT280 27/15 A2998 RMK AO2 SLP142 TCU S-SW-W T02720150=
200505191751 METAR KATL 191751Z 00000KT 10SM FEW050TCU SCT280 27/15 A3000 RMK AO2 SLP150 TCU SE AND SW T02670150 10278 20183 58014=
200505191651 METAR KATL 191651Z VRB03KT 10SM SCT040TCU SCT280 27/16 A3002 RMK AO2 SLP157 TCU ALQDS T02670156=
200505191551 METAR KATL 191551Z 22003KT 7SM FEW025 SCT180 BKN280 24/18 A3003 RMK AO2 SLP161 T02440178=
200505191451 METAR KATL 191451Z VRB04KT 6SM HZ FEW010 SCT180 BKN280 23/18 A3005 RMK AO2 SLP166 T02280183 58003=
200505191417 SPECI KATL 191417Z 19005KT 6SM HZ FEW008 SCT250 21/18 A3005 RMK AO2=
200505191417 SPECI KATL 191417Z 19005KT 6SM HZ FEW008 SCT250 21/18 A3005 RMK AO2=
200505191354 SPECI KATL 191354Z 16004KT 3SM BR BKN006 BKN008 20/18 A3006 RMK AO2 SFC VIS 6=
200505191354 SPECI KATL 191354Z 16004KT 3SM BR BKN006 BKN008 20/18 A3006 RMK AO2 SFC VIS 6=
200505191351 METAR KATL 191351Z 17004KT 2 1/2SM BR BKN004 BKN008 20/18 A3006 RMK AO2 SFC VIS 5 SLP171 T02000178=
200505191334 SPECI KATL 191334Z 18005KT 2 1/2SM BR BKN004 BKN008 19/18 A3006 RMK AO2 SFC VIS 5=
200505191334 SPECI KATL 191334Z 18005KT 2 1/2SM BR BKN004 BKN008 19/18 A3006 RMK AO2 SFC VIS 5=
200505191251 METAR KATL 191251Z 14004KT 1 1/2SM BR OVC004 19/18 A3005 RMK AO2 SFC VIS 3 SLP169 T01890178=
200505191239 SPECI KATL 191239Z 13006KT 1 1/2SM BR OVC004 18/17 A3005 RMK AO2 SFC VIS 3=
200505191239 SPECI KATL 191239Z 13006KT 1 1/2SM BR OVC004 18/17 A3005 RMK AO2 SFC VIS 3=
200505191151 METAR KATL 191151Z 08004KT 2 1/2SM BR OVC008 18/17 A3005 RMK AO2 SFC VIS 3 SLP170 T01830167 10194 20172 51013=
200505191122 SPECI KATL 191122Z 08007KT 3SM BR OVC012 18/16 A3005 RMK AO2=
200505191122 SPECI KATL 191122Z 08007KT 3SM BR OVC012 18/16 A3005 RMK AO2=
200505191051 METAR KATL 191051Z 08005KT 3SM BR FEW200 17/16 A3005 RMK AO2 SFC VIS 4 SLP169 T01720156=
200505190951 METAR KATL 190951Z 00000KT 6SM BR CLR 18/16 A3002 RMK AO2 SLP159 T01780156=
200505190851 METAR KATL 190851Z 12004KT 6SM HZ CLR 18/15 A3001 RMK AO2 SLP155 T01830150 55003=
200505190751 METAR KATL 190751Z 00000KT 6SM HZ CLR 18/15 A3001 RMK AO2 SLP155 T01830150=
200505190651 METAR KATL 190651Z 00000KT 6SM HZ CLR 18/15 A3001 RMK AO2 SLP155 T01830150=
200505190551 METAR KATL 190551Z 00000KT 7SM CLR 19/15 A3002 RMK AO2 SLP158 T01940150 10250 20194 58003=
200505190451 METAR KATL 190451Z 13003KT 9SM CLR 20/15 A3002 RMK AO2 SLP160 T02000150 402610144=
200505190351 METAR KATL 190351Z 00000KT 8SM CLR 21/15 A3003 RMK AO2 SLP161 T02110150=
200505190251 METAR KATL 190251Z 00000KT 8SM CLR 21/14 A3003 RMK AO2 SLP163 T02110144 53009=
200505190151 METAR KATL 190151Z 00000KT 9SM CLR 22/14 A3001 RMK AO2 SLP157 T02220144=
200505190051 METAR KATL 190051Z 00000KT 9SM CLR 23/14 A3001 RMK AO2 SLP156 T02330139=
200505182351 METAR KATL 182351Z 15005KT 10SM CLR 25/12 A3000 RMK AO2 SLP153 T02500122 10261 20239 55003=
200505182251 METAR KATL 182251Z 12006KT 10SM FEW050 25/13 A3000 RMK AO2 SLP152 T02500128=
200505182151 METAR KATL 182151Z COR 15005KT 10SM FEW050 26/13 A3001 RMK AO2 SLP154 T02560128=
200505182051 METAR KATL 182051Z VRB03KT 10SM FEW050 26/14 A3001 RMK AO2 SLP156 T02560139 56014 $=
200505181951 METAR KATL 181951Z 07007KT 10SM SCT045 24/15 A3002 RMK AO2 SLP158 T02440150=
200505181851 METAR KATL 181851Z 08005KT 10SM SCT040 25/15 A3003 RMK AO2 SLP162 MDT CU ALQDS T02500150=
200505181751 METAR KATL 181751Z 11006KT 10SM SCT035 24/15 A3005 RMK AO2 SLP170 T02440150 10250 20150 58014=
200505181651 METAR KATL 181651Z VRB06KT 10SM FEW030 23/15 A3007 RMK AO2 SLP177 T02330150=
200505181551 METAR KATL 181551Z 11006KT 9SM FEW020 22/16 A3010 RMK AO2 SLP184 T02170156=
200505181507 SPECI KATL 181507Z 12007KT 8SM SCT013 21/16 A3010 RMK AO2=
200505181507 SPECI KATL 181507Z 12007KT 8SM SCT013 21/16 A3010 RMK AO2=
200505181451 METAR KATL 181451Z 10007KT 8SM BKN013 20/16 A3010 RMK AO2 SLP185 T02000156 51013=
200505181428 SPECI KATL 181428Z 10007KT 6SM HZ BKN010 19/15 A3010 RMK AO2=
200505181428 SPECI KATL 181428Z 10007KT 6SM HZ BKN010 19/15 A3010 RMK AO2=
200505181405 SPECI KATL 181405Z 08009KT 5SM BR BKN006 OVC009 17/16 A3010 RMK AO2 CIG 003V007=
200505181405 SPECI KATL 181405Z 08009KT 5SM BR BKN006 OVC009 17/16 A3010 RMK AO2 CIG 003V007=
200505181351 METAR KATL 181351Z 10008KT 1 1/2SM BR OVC002 17/16 A3010 RMK AO2 SFC VIS 3 CIG 002V006 SLP186 T01670161=
200505181327 SPECI KATL 181327Z 08007KT 1 1/2SM R09R/5500VP6000FT BR OVC002 16/16 A3009 RMK AO2 SFC VIS 2 CIG 001V006=
200505181327 SPECI KATL 181327Z 08007KT 1 1/2SM R09R/5500VP6000FT BR OVC002 16/16 A3009 RMK AO2 SFC VIS 2 CIG 001V006=
200505181318 SPECI KATL 181318Z 07008KT 1/2SM R09R/4500VP6000FT BR OVC002 16/16 A3009 RMK AO2 SFC VIS 1=
200505181318 SPECI KATL 181318Z 07008KT 1/2SM R09R/4500VP6000FT BR OVC002 16/16 A3009 RMK AO2 SFC VIS 1=
200505181301 SPECI KATL 181301Z 07008KT M1/4SM R09R/2600VP6000FT FG OVC002 16/16 A3008 RMK AO2 SFC VIS 1/2=
200505181301 SPECI KATL 181301Z 07008KT M1/4SM R09R/2600VP6000FT FG OVC002 16/16 A3008 RMK AO2 SFC VIS 1/2=
200505181251 METAR KATL 181251Z 08009KT 1/4SM R09R/1400V4000FT FG OVC001 16/16 A3008 RMK AO2 SLP178 T01560156=
200505181151 METAR KATL 181151Z 08009KT 1/8SM R09R/0500V0800FT FG VV001 15/15 A3006 RMK AO2 TWR VIS 1/4 SLP172 T01500150 10200 20144 53021=
200505181141 SPECI KATL 181141Z 08010KT 1/8SM R09R/0600V1200FT FG VV001 15/15 A3005 RMK AO2 TWR VIS 1/4=
200505181141 SPECI KATL 181141Z 08010KT 1/8SM R09R/0600V1200FT FG VV001 15/15 A3005 RMK AO2 TWR VIS 1/4=
200505181134 SPECI KATL 181134Z 08009KT 1/4SM R09R/0600V2200FT FG OVC001 16/15 A3005 RMK AO2 TWR VIS 1/4=
200505181134 SPECI KATL 181134Z 08009KT 1/4SM R09R/0600V2200FT FG OVC001 16/15 A3005 RMK AO2 TWR VIS 1/4=
200505181113 SPECI KATL 181113Z 07007KT 1/4SM BR BKN003 OVC070 16/14 A3004 RMK AO2 SFC VIS 2=
200505181113 SPECI KATL 181113Z 07007KT 1/4SM BR BKN003 OVC070 16/14 A3004 RMK AO2 SFC VIS 2=
200505181107 SPECI KATL 181107Z 07008KT 3SM BR FEW003 SCT050 16/14 A3003 RMK AO2=
200505181107 SPECI KATL 181107Z 07008KT 3SM BR FEW003 SCT050 16/14 A3003 RMK AO2=
200505181051 METAR KATL 181051Z 07007KT 5SM BR FEW080 16/14 A3003 RMK AO2 SLP162 T01560144=
200505180951 METAR KATL 180951Z 07006KT 6SM BR FEW130 15/13 A3001 RMK AO2 SLP154 T01500133=
200505180851 METAR KATL 180851Z 07005KT 9SM CLR 15/12 A3000 RMK AO2 SLP151 T01500122 53000=
200505180751 METAR KATL 180751Z 06007KT 10SM FEW075 17/10 A2999 RMK AO2 SLP148 T01720100=
200505180651 METAR KATL 180651Z 03003KT 10SM CLR 19/09 A2999 RMK AO2 SLP146 T01940089=
200505180551 METAR KATL 180551Z 32004KT 10SM CLR 18/11 A2999 RMK AO2 SLP150 T01780106 10239 20167 58002=
200505180451 METAR KATL 180451Z 00000KT 10SM FEW075 18/11 A3000 RMK AO2 SLP152 T01830106 402670117=
200505180351 METAR KATL 180351Z 00000KT 10SM CLR 20/09 A3000 RMK AO2 SLP153 T02000094=
200505180251 METAR KATL 180251Z 00000KT 10SM CLR 21/09 A3000 RMK AO2 SLP152 T02110089 51012=
200505180151 METAR KATL 180151Z 26003KT 10SM CLR 21/10 A2999 RMK AO2 SLP150 T02110100=
200505180051 METAR KATL 180051Z 29004KT 10SM FEW200 23/08 A2998 RMK AO2 SLP146 T02330083=
200505172351 METAR KATL 172351Z 29005KT 10SM FEW200 24/08 A2996 RMK AO2 SLP142 T02390083 10267 20233 53006=
200505172251 METAR KATL 172251Z 26005KT 10SM FEW200 26/06 A2995 RMK AO2 SLP136 T02560056=
200505172151 METAR KATL 172151Z 00000KT 10SM FEW200 26/05 A2994 RMK AO2 SLP134 T02610050=
200505172051 METAR KATL 172051Z 00000KT 10SM FEW200 26/06 A2995 RMK AO2 SLP135 T02610056 57015=
200505171951 METAR KATL 171951Z 00000KT 10SM FEW200 26/06 A2996 RMK AO2 SLP139 T02560056=
200505171851 METAR KATL 171851Z 00000KT 10SM FEW200 26/07 A2998 RMK AO2 SLP145 T02560067=
200505171751 METAR KATL 171751Z 18006KT 10SM FEW200 24/07 A2999 RMK AO2 SLP150 T02440072 10250 20133 58010=
200505171651 METAR KATL 171651Z 13007KT 110V170 10SM FEW200 24/08 A3000 RMK AO2 SLP154 T02390078=
200505171551 METAR KATL 171551Z VRB03KT 10SM FEW200 22/08 A3002 RMK AO2 SLP159 T02220078=
200505171451 METAR KATL 171451Z VRB06KT 10SM FEW200 22/08 A3002 RMK AO2 SLP160 T02170078 51005=
200505171351 METAR KATL 171351Z 00000KT 10SM FEW200 20/09 A3002 RMK AO2 SLP161 T02000094=
200505171251 METAR KATL 171251Z 31004KT 10SM FEW200 SCT250 16/11 A3002 RMK AO2 SLP161 T01610106=
200505171151 METAR KATL 171151Z 31003KT 10SM FEW200 SCT250 13/10 A3001 RMK AO2 SLP158 T01330100 10150 20117 53015=
200505171051 METAR KATL 171051Z 32007KT 10SM FEW200 SCT250 12/09 A2999 RMK AO2 SLP152 T01220089=
200505170951 METAR KATL 170951Z 32005KT 10SM FEW250 12/08 A2997 RMK AO2 SLP145 T01220083=
200505170851 METAR KATL 170851Z 00000KT 10SM FEW010 SCT250 14/08 A2996 RMK AO2 SLP141 T01390083 56003=
200505170751 METAR KATL 170751Z 33004KT 10SM FEW010 SCT250 14/09 A2996 RMK AO2 SLP141 T01440089=
200505170651 METAR KATL 170651Z 33005KT 10SM BKN250 14/08 A2996 RMK AO2 SLP142 T01440083=
200505170551 METAR KATL 170551Z 32005KT 10SM BKN250 15/09 A2997 RMK AO2 SLP144 T01500089 10200 20144 58001=
200505170451 METAR KATL 170451Z 33005KT 10SM SCT250 15/08 A2998 RMK AO2 SLP147 T01500083 402390106=
200505170351 METAR KATL 170351Z 34004KT 10SM FEW250 16/08 A2998 RMK AO2 SLP147 T01610078=
200505170251 METAR KATL 170251Z 33005KT 10SM FEW250 17/08 A2998 RMK AO2 SLP146 T01670078 51010=
200505170151 METAR KATL 170151Z 32005KT 10SM SCT180 SCT250 18/07 A2997 RMK AO2 SLP145 T01780072=
200505170051 METAR KATL 170051Z 33008KT 10SM CLR 19/06 A2996 RMK AO2 SLP141 T01940061=
200505162351 METAR KATL 162351Z 32007KT 10SM BKN250 20/07 A2995 RMK AO2 SLP138 T02000067 10239 20200 53005=
200505162251 METAR KATL 162251Z COR 29008KT 10SM FEW180 SCT200 BKN300 22/06 A2993 RMK AO2 SLP131 T02170056=
200505162151 METAR KATL 162151Z VRB06KT 10SM FEW180 SCT200 SCT300 23/05 A2993 RMK AO2 SLP129 T02280050=
200505162051 METAR KATL 162051Z 31007KT 10SM FEW180 SCT200 BKN300 23/05 A2993 RMK AO2 SLP131 T02280050 58010=
200505161951 METAR KATL 161951Z VRB06KT 10SM FEW180 SCT200 BKN300 23/06 A2994 RMK AO2 SLP134 T02330061=
200505161851 METAR KATL 161851Z 29007KT 10SM FEW200 BKN300 23/07 A2996 RMK AO2 SLP138 T02280072=
200505161751 METAR KATL 161751Z 30006KT 10SM FEW200 BKN300 22/07 A2996 RMK AO2 SLP141 T02170067 10217 20111 58017=
200505161651 METAR KATL 161651Z 29004KT 10SM FEW200 BKN300 20/07 A2998 RMK AO2 SLP148 T02000072=
200505161551 METAR KATL 161551Z 30008KT 10SM SCT250 19/08 A3000 RMK AO2 SLP154 T01940078=
200505161451 METAR KATL 161451Z 33006G14KT 10SM SCT250 18/09 A3001 RMK AO2 SLP158 T01780094 53012=
200505161351 METAR KATL 161351Z 33008KT 10SM SCT250 16/09 A3000 RMK AO2 SLP154 T01560094=
200505161251 METAR KATL 161251Z 31007KT 10SM FEW250 13/08 A2999 RMK AO2 SLP151 T01330083=
200505161151 METAR KATL 161151Z 32009KT 10SM FEW250 11/08 A2998 RMK AO2 SLP148 70019 T01110083 10139 20106 53016=
200505161051 METAR KATL 161051Z 30008KT 10SM FEW250 11/08 A2996 RMK AO2 SLP143 T01060083=
200505160951 METAR KATL 160951Z 31009KT 10SM CLR 11/09 A2994 RMK AO2 SLP135 T01110089=
200505160851 METAR KATL 160851Z 31008KT 10SM CLR 12/09 A2993 RMK AO2 SLP131 T01170094 55000=
200505160751 METAR KATL 160751Z 32008KT 10SM CLR 12/10 A2992 RMK AO2 SLP130 T01220100=
200505160651 METAR KATL 160651Z 31003KT 10SM CLR 13/11 A2992 RMK AO2 SLP128 T01330106=
200505160551 METAR KATL 160551Z 32006KT 10SM CLR 14/11 A2993 RMK AO2 SLP130 T01390106 10189 20139 58002=
200505160451 METAR KATL 160451Z 33007KT 10SM CLR 16/11 A2994 RMK AO2 SLP135 T01560111 402220156=
200505160351 METAR KATL 160351Z 33007KT 10SM CLR 17/13 A2994 RMK AO2 SLP133 T01720128=
200505160251 METAR KATL 160251Z 33008KT 10SM SCT085 18/16 A2993 RMK AO2 SLP131 T01830156 53009=
200505160151 METAR KATL 160151Z 30004KT 10SM OVC080 19/17 A2992 RMK AO2 SLP127 T01890172=
200505160051 METAR KATL 160051Z 28004KT 10SM BKN075 19/16 A2991 RMK AO2 SLP124 T01890161=
200505152351 METAR KATL 152351Z 27003KT 10SM BKN070 19/16 A2990 RMK AO2 SLP121 60004 T01890161 10217 20178 53001=
200505152251 METAR KATL 152251Z 30004KT 10SM SCT065 BKN080 19/16 A2989 RMK AO2 SLP116 T01940156=
200505152151 METAR KATL 152151Z 25003KT 10SM SCT018CB BKN065 19/16 A2989 RMK AO2 RAB00E38 SLP117 CB DSNT E P0004 T01890156=
200505152142 SPECI KATL 152142Z 27004KT 10SM SCT018 OVC065 19/16 A2989 RMK AO2 RAB00E38 P0004=
200505152142 SPECI KATL 152142Z 27004KT 10SM SCT018 OVC065 19/16 A2989 RMK AO2 RAB00E38 P0004=
200505152051 METAR KATL 152051Z 28017G20KT 10SM BKN022 BKN039 BKN080 21/16 A2990 RMK AO2 RAB1959E23 SLP119 P0000 60000 T02060161 56011=
200505151951 METAR KATL 151951Z 25007KT 10SM BKN022 BKN080 BKN100 21/15 A2991 RMK AO2 SLP122 T02060150=
200505151851 METAR KATL 151851Z 27005KT 9SM SCT017 BKN028 OVC090 21/17 A2992 RMK AO2 RAE1754B31E46 SLP125 P0000 T02060167=
200505151801 SPECI KATL 151801Z 27007KT 9SM BKN014 BKN080 OVC100 20/17 A2993 RMK AO2 RAE1754 P0000=
200505151801 SPECI KATL 151801Z 27007KT 9SM BKN014 BKN080 OVC100 20/17 A2993 RMK AO2 RAE1754 P0000=
200505151751 METAR KATL 151751Z 24005KT 9SM -RA SCT012 BKN080 OVC100 20/17 A2993 RMK AO2 RAB43 SLP130 P0000 60015 T02000172 10206 20172 58006=
200505151651 METAR KATL 151651Z 00000KT 7SM SCT020 BKN080 OVC100 19/17 A2994 RMK AO2 RAB15E24 SLP130 P0000 T01940167=
200505151641 SPECI KATL 151641Z 18003KT 6SM BR SCT020 BKN080 OVC100 19/17 A2994 RMK AO2 RAB15E24 P0000=
200505151641 SPECI KATL 151641Z 18003KT 6SM BR SCT020 BKN080 OVC100 19/17 A2994 RMK AO2 RAB15E24 P0000=
200505151551 METAR KATL 151551Z COR 00000KT 6SM BR SCT020 BKN085 OVC100 19/17 A2996 RMK AO2 RAE17 SLP136 P0000 T01890167=
200505151451 METAR KATL 151451Z 16003KT 3SM -RA BR BKN006 BKN011 OVC095 18/17 A2995 RMK AO2 SFC VIS 5 SLP136 P0000 60015 T01830172 58003=
200505151351 METAR KATL 151351Z 21003KT 2SM -RA BR BKN006 OVC011 18/17 A2997 RMK AO2 SFC VIS 4 SLP142 P0006 T01780172=
200505151251 METAR KATL 151251Z 31006KT 2SM RA BR SCT005 BKN020 OVC060 17/17 A2997 RMK AO2 SFC VIS 3 SLP142 P0009 T01720167=
200505151216 SPECI KATL 151216Z 25003KT 2SM -RA BR SCT007 BKN022 OVC060 18/17 A2997 RMK AO2 SFC VIS 2 1/2 P0005=
200505151216 SPECI KATL 151216Z 25003KT 2SM -RA BR SCT007 BKN022 OVC060 18/17 A2997 RMK AO2 SFC VIS 2 1/2 P0005=
200505151206 SPECI KATL 151206Z 23004KT 2SM -RA BR BKN007 BKN022 OVC060 18/17 A2997 RMK AO2 SFC VIS 2 1/2 P0003=
200505151206 SPECI KATL 151206Z 23004KT 2SM -RA BR BKN007 BKN022 OVC060 18/17 A2997 RMK AO2 SFC VIS 2 1/2 P0003=
200505151151 METAR KATL 151151Z 23005KT 3SM -RA BR FEW007 BKN026 OVC060 18/17 A2996 RMK AO2 RAB00 SLP138 P0006 60015 70015 T01780167 10211 20178 51021=
200505151134 SPECI KATL 151134Z 21005KT 3SM BR FEW011 BKN026 OVC060 18/17 A2996 RMK AO2 RAB00E32 P0004=
200505151134 SPECI KATL 151134Z 21005KT 3SM BR FEW011 BKN026 OVC060 18/17 A2996 RMK AO2 RAB00E32 P0004=
200505151117 SPECI KATL 151117Z 34006KT 2SM -RA BR FEW005 BKN055 OVC070 18/17 A2994 RMK AO2 SFC VIS 3 RAB00 P0003=
200505151117 SPECI KATL 151117Z 34006KT 2SM -RA BR FEW005 BKN055 OVC070 18/17 A2994 RMK AO2 SFC VIS 3 RAB00 P0003=
200505151059 SPECI KATL 151059Z 28005KT 3SM BR FEW005 BKN070 OVC090 18/17 A2995 RMK AO2 SFC VIS 4=
200505151059 SPECI KATL 151059Z 28005KT 3SM BR FEW005 BKN070 OVC090 18/17 A2995 RMK AO2 SFC VIS 4=
200505151051 METAR KATL 151051Z 29006KT 3SM BR FEW020 SCT070 OVC095 18/17 A2994 RMK AO2 SFC VIS 4 TSE48RAE50 SLP132 P0008 T01780172=
200505151011 SPECI KATL 151011Z 00000KT 3SM -TSRA BR SCT022CB OVC046 18/17 A2991 RMK AO2 SFC VIS 3 CONS LTGCGIC TS VC N-NE AND SW-N MOV NE P0008=
200505151011 SPECI KATL 151011Z 00000KT 3SM -TSRA BR SCT022CB OVC046 18/17 A2991 RMK AO2 SFC VIS 3 CONS LTGCGIC TS VC N-NE AND SW-N MOV NE P0008=
200505150951 METAR KATL 150951Z 31009KT 5SM TSRA BR BKN022 BKN028CB OVC038 19/17 A2992 RMK AO2 RAB48 SLP124 CONS LTGCGIC TS VC N-NE AND SW-N MOV NE P0001 T01890167=
200505150913 SPECI KATL 150913Z 28006KT 7SM TS BKN029CB OVC043 20/17 A2991 RMK AO2 CONS LTGCGIC TSN-NE AND SW-N MOV NE=
200505150913 SPECI KATL 150913Z 28006KT 7SM TS BKN029CB OVC043 20/17 A2991 RMK AO2 CONS LTGCGIC TSN-NE AND SW-N MOV NE=
200505150851 METAR KATL 150851Z 22003KT 10SM TS BKN043CB BKN120 20/16 A2990 RMK AO2 TSB34 SLP115 CONS LTGCGIC TS SW-NW MOV NE T02000161 56008=
200505150840 SPECI KATL 150840Z 00000KT 10SM TS SCT047CB SCT055 BKN120 20/16 A2990 RMK AO2 TSB34 OCNL LTGCGIC TS SW-W MOV NE=
200505150840 SPECI KATL 150840Z 00000KT 10SM TS SCT047CB SCT055 BKN120 20/16 A2990 RMK AO2 TSB34 OCNL LTGCGIC TS SW-W MOV NE=
200505150751 METAR KATL 150751Z 00000KT 10SM BKN050 20/16 A2990 RMK AO2 SLP116 LTG DSNT SW T02000161=
200505150651 METAR KATL 150651Z 00000KT 10SM SCT150 20/16 A2991 RMK AO2 SLP120 T02000156=
200505150551 METAR KATL 150551Z 20005KT 10SM BKN150 21/16 A2992 RMK AO2 SLP124 T02110156 10256 20211 56010=
200505150451 METAR KATL 150451Z 23006KT 9SM BKN130 22/16 A2993 RMK AO2 SLP126 T02220156 402830183=
200505150351 METAR KATL 150351Z 22005KT 9SM BKN130 23/16 A2994 RMK AO2 SLP130 T02280156=
200505150251 METAR KATL 150251Z 22005KT 10SM BKN120 23/15 A2996 RMK AO2 SLP135 T02280150 53007=
200505150151 METAR KATL 150151Z 21004KT 10SM SCT120 23/15 A2995 RMK AO2 SLP132 T02330150=
200505150051 METAR KATL 150051Z 19005KT 10SM FEW060 SCT140 24/15 A2993 RMK AO2 SLP125 T02390150=
200505142351 METAR KATL 142351Z COR 20007KT 10SM FEW060 SCT140 26/14 A2993 RMK AO2 SLP127 T02560144 10283 20256 58011=
200505142251 METAR KATL 142251Z 22010KT 10SM SCT060 26/13 A2994 RMK AO2 SLP132 T02610133=
200505142151 METAR KATL 142151Z 21010KT 10SM SCT055 SCT100 27/13 A2995 RMK AO2 SLP135 T02670133=
200505142051 METAR KATL 142051Z 21014KT 9SM SCT065 BKN100 27/13 A2997 RMK AO2 SLP138 T02720133 58022=
200505141951 METAR KATL 141951Z 21010G18KT 10SM BKN050 BKN110 27/12 A2999 RMK AO2 SLP145 T02720122=
200505141851 METAR KATL 141851Z 24011KT 10SM SCT050 BKN110 27/14 A3001 RMK AO2 SLP154 T02670139=
200505141751 METAR KATL 141751Z 20010KT 8SM SCT049 BKN060 27/13 A3003 RMK AO2 SLP160 T02670133 10267 20183 58020=
200505141651 METAR KATL 141651Z 25010KT 10SM BKN042 26/14 A3006 RMK AO2 SLP171 T02560144=
200505141551 METAR KATL 141551Z 23005KT 9SM SCT039 BKN250 25/16 A3008 RMK AO2 SLP178 T02500161=
200505141451 METAR KATL 141451Z 21006KT 9SM FEW200 BKN250 23/16 A3009 RMK AO2 SLP181 T02280161 58005=
200505141351 METAR KATL 141351Z 21008KT 10SM BKN250 22/16 A3010 RMK AO2 SLP185 T02170156=
200505141251 METAR KATL 141251Z 19008KT 10SM FEW200 BKN250 20/16 A3011 RMK AO2 SLP186 T02000156=
200505141151 METAR KATL 141151Z 14005KT 10SM FEW200 SCT250 18/15 A3011 RMK AO2 SLP188 T01830150 10217 20183 51015=
200505141051 METAR KATL 141051Z 14003KT 10SM FEW200 SCT250 18/14 A3011 RMK AO2 SLP185 T01830144=
200505140951 METAR KATL 140951Z 15006KT 10SM FEW230 19/14 A3008 RMK AO2 SLP178 T01890144=
200505140851 METAR KATL 140851Z 17008KT 10SM FEW080 SCT230 19/14 A3006 RMK AO2 SLP171 T01940144 56004=
200505140751 METAR KATL 140751Z 17010KT 10SM BKN080 20/14 A3007 RMK AO2 SLP173 T02000144=
200505140651 METAR KATL 140651Z 17008KT 10SM FEW075 SCT230 21/14 A3007 RMK AO2 SLP172 T02060139=
200505140551 METAR KATL 140551Z 18009KT 10SM FEW075 22/13 A3008 RMK AO2 SLP174 T02170133 10272 20217 58010=
200505140451 METAR KATL 140451Z 17010KT 10SM FEW075 SCT250 23/13 A3009 RMK AO2 SLP179 T02280128 403000189=
200505140351 METAR KATL 140351Z 15007KT 10SM SCT250 23/12 A3010 RMK AO2 SLP182 T02330117=
200505140251 METAR KATL 140251Z 15007KT 10SM FEW250 24/12 A3011 RMK AO2 SLP185 T02390117 52008=
200505140151 METAR KATL 140151Z 14006KT 10SM CLR 24/12 A3010 RMK AO2 SLP183 T02440122=
200505140051 METAR KATL 140051Z 14006KT 10SM FEW070 SCT250 26/13 A3009 RMK AO2 SLP180 T02610128=
200505132351 METAR KATL 132351Z 15007KT 10SM FEW070 SCT250 27/12 A3008 RMK AO2 SLP178 T02720122 10300 20272 56004=
200505132251 METAR KATL 132251Z 14007KT 10SM SCT070 28/12 A3008 RMK AO2 SLP178 T02830122=
200505132151 METAR KATL 132151Z 11008KT 10SM SCT070 SCT085 29/12 A3009 RMK AO2 SLP179 T02890117=
200505132051 METAR KATL 132051Z 13005KT 10SM FEW070TCU 29/12 A3010 RMK AO2 SLP182 TCU SW-NW T02890122 56017=
200505131951 METAR KATL 131951Z 15009KT 10SM FEW070 29/12 A3011 RMK AO2 SLP185 T02940117=
200505131851 METAR KATL 131851Z 14010G14KT 10SM SCT070 SCT300 29/12 A3013 RMK AO2 SLP194 T02890122=
200505131751 METAR KATL 131751Z 11011KT 9SM FEW060 28/13 A3015 RMK AO2 SLP199 T02830133 10289 20200 58017=
200505131651 METAR KATL 131651Z 14008KT 8SM SCT060 28/13 A3017 RMK AO2 SLP206 T02830128=
200505131551 METAR KATL 131551Z 12006KT 9SM FEW050 27/14 A3019 RMK AO2 SLP212 T02720139=
200505131451 METAR KATL 131451Z 19004KT 8SM FEW250 26/15 A3020 RMK AO2 SLP217 T02560150 50007=
200505131351 METAR KATL 131351Z 17004KT 7SM FEW250 24/15 A3020 RMK AO2 SLP219 T02390150=
200505131251 METAR KATL 131251Z 18003KT 8SM FEW250 22/15 A3020 RMK AO2 SLP217 T02170150=
200505131151 METAR KATL 131151Z 22003KT 10SM FEW250 20/14 A3018 RMK AO2 SLP209 T02000144 10211 20189 53014=
200505131051 METAR KATL 131051Z 00000KT 10SM FEW250 19/14 A3015 RMK AO2 SLP202 T01940139=
200505130951 METAR KATL 130951Z 21003KT 8SM CLR 19/14 A3014 RMK AO2 SLP198 T01940139=
200505130851 METAR KATL 130851Z 00000KT 9SM CLR 20/14 A3013 RMK AO2 SLP194 T02000139 51001=
200505130751 METAR KATL 130751Z 00000KT 9SM CLR 20/14 A3013 RMK AO2 SLP194 T02000139=
200505130651 METAR KATL 130651Z 21003KT 10SM CLR 21/14 A3013 RMK AO2 SLP194 T02060139=
200505130551 METAR KATL 130551Z 20003KT 8SM CLR 21/14 A3013 RMK AO2 SLP193 T02110139 10278 20211 58005=
200505130451 METAR KATL 130451Z 00000KT 9SM CLR 21/14 A3014 RMK AO2 SLP196 T02110139 403000172=
200505130351 METAR KATL 130351Z 00000KT 9SM CLR 23/13 A3015 RMK AO2 SLP199 T02280133=
200505130251 METAR KATL 130251Z 00000KT 9SM CLR 23/13 A3014 RMK AO2 SLP199 T02280133 52011=
200505130151 METAR KATL 130151Z 00000KT 10SM CLR 25/13 A3014 RMK AO2 SLP196 T02500133=
200505130051 METAR KATL 130051Z 19003KT 10SM FEW300 26/13 A3012 RMK AO2 SLP191 T02560128=
200505122351 METAR KATL 122351Z 19005KT 10SM CLR 28/10 A3011 RMK AO2 SLP188 T02780100 10300 20278 55004=
200505122251 METAR KATL 122251Z 18007KT 140V210 10SM FEW080 28/11 A3011 RMK AO2 SLP186 T02830106=
200505122151 METAR KATL 122151Z COR VRB03KT 10SM FEW080 29/11 A3012 RMK AO2 SLP189 T02890106=
200505122051 METAR KATL 122051Z 08008KT 10SM FEW070 29/12 A3012 RMK AO2 SLP192 T02940117 56014=
200505121951 METAR KATL 121951Z VRB06KT 10SM FEW070 30/12 A3014 RMK AO2 SLP196 T03000122=
200505121851 METAR KATL 121851Z 00000KT 9SM FEW070 29/11 A3015 RMK AO2 SLP201 T02890111=
200505121751 METAR KATL 121751Z 03011KT 10SM FEW065 29/12 A3016 RMK AO2 SLP205 T02890117 10289 20194 58007=
200505121651 METAR KATL 121651Z VRB04KT 9SM FEW060 28/12 A3018 RMK AO2 SLP210 T02830122=
200505121551 METAR KATL 121551Z VRB03KT 9SM FEW050 SCT250 27/15 A3018 RMK AO2 SLP212 T02670150=
200505121451 METAR KATL 121451Z 01003KT 8SM SCT250 26/14 A3019 RMK AO2 SLP213 T02610139 51009=
200505121351 METAR KATL 121351Z 00000KT 7SM SCT250 24/14 A3018 RMK AO2 SLP212 T02390144=
200505121251 METAR KATL 121251Z 00000KT 10SM FEW250 22/14 A3017 RMK AO2 SLP208 T02170144=
200505121151 METAR KATL 121151Z 00000KT 10SM FEW250 19/14 A3016 RMK AO2 SLP204 T01890144 10211 20172 53016=
200505121051 METAR KATL 121051Z 00000KT 10SM SCT250 18/13 A3014 RMK AO2 SLP198 T01780133=
200505120951 METAR KATL 120951Z 07003KT 10SM CLR 18/13 A3012 RMK AO2 SLP190 T01830133=
200505120851 METAR KATL 120851Z 00000KT 10SM CLR 18/14 A3011 RMK AO2 SLP188 T01780139 56005=
200505120751 METAR KATL 120751Z 00000KT 8SM CLR 19/14 A3011 RMK AO2 SLP187 T01890139=
200505120651 METAR KATL 120651Z 00000KT 10SM CLR 19/13 A3011 RMK AO2 SLP188 T01890133=
200505120551 METAR KATL 120551Z 00000KT 10SM CLR 21/13 A3013 RMK AO2 SLP192 T02110133 10261 20189 51010=
200505120451 METAR KATL 120451Z 00000KT 10SM CLR 21/13 A3012 RMK AO2 SLP190 T02060133 402890144=
200505120351 METAR KATL 120351Z 00000KT 10SM CLR 22/13 A3010 RMK AO2 SLP185 T02170133=
200505120251 METAR KATL 120251Z 13003KT 10SM CLR 22/13 A3009 RMK AO2 SLP183 T02220133 53017=
200505120151 METAR KATL 120151Z 12004KT 10SM CLR 24/13 A3007 RMK AO2 SLP175 T02390128=
200505120051 METAR KATL 120051Z 11005KT 10SM CLR 25/12 A3006 RMK AO2 SLP170 T02500117=
200505112351 METAR KATL 112351Z 10007KT 10SM SCT250 26/11 A3004 RMK AO2 SLP166 T02610106 10289 20256 53002=
200505112251 METAR KATL 112251Z 09011KT 10SM FEW150 27/12 A3004 RMK AO2 SLP165 T02670117=
200505112151 METAR KATL 112151Z 07008KT 10SM FEW100 SCT150 28/12 A3004 RMK AO2 SLP164 T02780117=
200505112051 METAR KATL 112051Z 09010KT 10SM FEW070 28/12 A3004 RMK AO2 SLP164 T02780117 57011=
200505111951 METAR KATL 111951Z 36010KT 10SM FEW065 SCT250 28/11 A3005 RMK AO2 SLP166 T02830106=
200505111851 METAR KATL 111851Z VRB04KT 10SM SCT065 27/13 A3006 RMK AO2 SLP172 T02720128=
200505111751 METAR KATL 111751Z VRB05KT 10SM FEW060 27/12 A3007 RMK AO2 SLP176 T02670117 10272 20172 56011=
200505111651 METAR KATL 111651Z 01012G15KT 10SM FEW060 SCT250 27/12 A3007 RMK AO2 SLP177 T02670122=
200505111551 METAR KATL 111551Z VRB06KT 10SM FEW250 24/13 A3009 RMK AO2 SLP184 T02440133=
200505111451 METAR KATL 111451Z 35006KT 10SM FEW035 SCT250 23/14 A3010 RMK AO2 SLP187 CB DSNT W MOV S T02280139 51011=
200505111351 METAR KATL 111351Z VRB04KT 10SM FEW030 21/13 A3010 RMK AO2 SLP185 TCU DSNT W T02110133=
200505111251 METAR KATL 111251Z 07006KT 10SM FEW020 SCT120 19/13 A3008 RMK AO2 SLP180 T01940133=
200505111151 METAR KATL 111151Z 01005KT 10SM FEW020 SCT120 18/13 A3007 RMK AO2 SLP175 T01780128 10178 20144 53016=
200505111051 METAR KATL 111051Z 33005KT 10SM FEW020 SCT120 SCT230 14/12 A3006 RMK AO2 SLP172 T01440122=
200505110951 METAR KATL 110951Z VRB04KT 10SM CLR 15/12 A3003 RMK AO2 SLP164 T01500122=
200505110851 METAR KATL 110851Z 33006KT 10SM CLR 15/12 A3002 RMK AO2 SLP160 T01500122 58001=
200505110751 METAR KATL 110751Z 01005KT 10SM CLR 17/12 A3002 RMK AO2 SLP160 T01670122=
200505110651 METAR KATL 110651Z 01005KT 10SM CLR 17/12 A3003 RMK AO2 SLP161 T01720122=
200505110551 METAR KATL 110551Z 35004KT 10SM CLR 17/12 A3003 RMK AO2 SLP161 T01670122 10239 20167 55008=
200505110451 METAR KATL 110451Z 28004KT 10SM FEW120 17/12 A3002 RMK AO2 SLP161 T01670122 402670161=
200505110351 METAR KATL 110351Z 30008KT 10SM BKN080 18/12 A3004 RMK AO2 TSE21 SLP165 T01830122=
200505110327 SPECI KATL 110327Z 30010KT 10SM SCT080 19/12 A3004 RMK AO2 TSE21=
200505110327 SPECI KATL 110327Z 30010KT 10SM SCT080 19/12 A3004 RMK AO2 TSE21=
200505110251 METAR KATL 110251Z 32013KT 10SM TS SCT080CB BKN150 21/13 A3005 RMK AO2 SLP169 FRQ LTGICCC OHD-SE MOV S CB OHD-SE MOV S T02060133 53014=
200505110151 METAR KATL 110151Z 29007KT 10SM TS SCT080CB BKN150 21/14 A3002 RMK AO2 TSB47 SLP160 FRQ LTGCGIC NNW-SE MOV S T02060144=
200505110051 METAR KATL 110051Z 32005KT 10SM FEW040CB SCT100 BKN180 22/16 A3001 RMK AO2 SLP155 LTG DSNT SW CB SW MOV E T02220156=
200505102351 METAR KATL 102351Z 34006KT 10SM SCT040TCU BKN180 24/15 A3001 RMK AO2 SLP155 TCU NW-SE MOV E T02390150 10267 20239 55002=
200505102251 METAR KATL 102251Z 31007KT 10SM FEW040 SCT080 BKN200 26/16 A3000 RMK AO2 SLP152 T02560156=
200505102151 METAR KATL 102151Z VRB06KT 9SM FEW040TCU SCT090 BKN180 25/15 A3001 RMK AO2 SLP154 TCU S-SE MOV E T02500150=
200505102051 METAR KATL 102051Z 35010KT 8SM FEW040TCU SCT100 BKN150 BKN200 24/14 A3002 RMK AO2 SLP158 CB DSNT S CBMAM S-SW-W TCU SW-W T02390144 56013=
200505101951 METAR KATL 101951Z 25009KT 10SM FEW055 BKN200 BKN250 26/13 A3002 RMK AO2 SLP157 CB DSNT E-SE T02560133=
200505101851 METAR KATL 101851Z 31004KT 10SM FEW055 SCT150 BKN200 BKN250 26/13 A3004 RMK AO2 SLP163 CB DSNT E-SE TCU DSNT S T02560128=
200505101751 METAR KATL 101751Z 31008KT 270V340 10SM FEW050 SCT150 BKN200 BKN250 24/13 A3005 RMK AO2 SLP170 T02440133 10256 20172 58007=
200505101651 METAR KATL 101651Z 29009KT 10SM FEW045 SCT095 SCT150 BKN250 24/13 A3007 RMK AO2 SLP173 T02440133=
200505101551 METAR KATL 101551Z 01010KT 10SM FEW040 SCT150 SCT180 SCT250 24/13 A3008 RMK AO2 SLP177 T02390133=
200505101451 METAR KATL 101451Z 34011KT 9SM FEW030 SCT150 SCT180 BKN250 22/14 A3008 RMK AO2 SLP176 T02220139 50009=
200505101351 METAR KATL 101351Z 31009KT 6SM HZ FEW150 SCT180 SCT250 21/16 A3008 RMK AO2 SLP178 T02060156=
200505101251 METAR KATL 101251Z 32009KT 6SM HZ SCT200 BKN250 19/15 A3006 RMK AO2 SLP173 T01890150=
200505101151 METAR KATL 101151Z 31006KT 6SM HZ FEW200 SCT250 17/14 A3005 RMK AO2 SLP168 T01720144 10189 20161 53011=
200505101051 METAR KATL 101051Z 30007KT 8SM FEW080 SCT095 SCT210 16/14 A3003 RMK AO2 SLP163 T01610139=
200505100951 METAR KATL 100951Z 31006KT 10SM FEW080 SCT095 16/14 A3002 RMK AO2 SLP158 T01610139=
200505100851 METAR KATL 100851Z 29005KT 10SM FEW095 16/14 A3002 RMK AO2 SLP157 T01610139 53009=
200505100751 METAR KATL 100751Z 30007KT 10SM FEW080 17/14 A3000 RMK AO2 SLP152 T01720139=
200505100651 METAR KATL 100651Z 26003KT 10SM FEW150 SCT230 18/13 A2999 RMK AO2 SLP145 T01830133=
200505100551 METAR KATL 100551Z 29005KT 10SM FEW110 SCT150 19/13 A2999 RMK AO2 TSB03E22 SLP147 T01890133 10244 20189 56006=
200505100528 SPECI KATL 100528Z 28007KT 8SM FEW110 SCT150 19/13 A2999 RMK AO2 TSB03E22=
200505100528 SPECI KATL 100528Z 28007KT 8SM FEW110 SCT150 19/13 A2999 RMK AO2 TSB03E22=
200505100509 SPECI KATL 100509Z 28004KT 9SM TS BKN100CB BKN150 20/13 A2999 RMK AO2 TSB03 OCNL LTGIC SW-NW TS SW-NW MOV NE=
200505100509 SPECI KATL 100509Z 28004KT 9SM TS BKN100CB BKN150 20/13 A2999 RMK AO2 TSB03 OCNL LTGIC SW-NW TS SW-NW MOV NE=
200505100451 METAR KATL 100451Z 27005KT 9SM SCT120 BKN250 20/13 A2999 RMK AO2 SLP147 T02000133 402720150=
200505100351 METAR KATL 100351Z 24003KT 9SM BKN200 21/13 A3000 RMK AO2 SLP151 T02060133=
200505100251 METAR KATL 100251Z 24005KT 9SM BKN200 22/13 A3001 RMK AO2 SLP153 T02170133 53005=
200505100151 METAR KATL 100151Z 24007KT 9SM BKN150 22/13 A3000 RMK AO2 SLP151 T02220128=
200505100051 METAR KATL 100051Z 23005KT 10SM SCT150 23/13 A2999 RMK AO2 SLP150 T02280128=
200505092351 METAR KATL 092351Z 25008KT 9SM BKN150 24/13 A2999 RMK AO2 SLP150 T02440128 10272 20244 55002=
200505092251 METAR KATL 092251Z 26008KT 8SM SCT060 25/13 A2998 RMK AO2 SLP147 T02500128=
200505092151 METAR KATL 092151Z 22006KT 8SM BKN120 26/12 A2999 RMK AO2 SLP150 T02560122=
200505092051 METAR KATL 092051Z 21008KT 8SM FEW065 26/12 A3000 RMK AO2 SLP151 T02560117 56014=
200505091951 METAR KATL 091951Z VRB05KT 8SM BKN065 26/13 A3001 RMK AO2 SLP154 T02610128=
200505091851 METAR KATL 091851Z 20011G14KT 9SM SCT060 27/11 A3003 RMK AO2 SLP160 T02670111=
200505091751 METAR KATL 091751Z 19009KT 10SM SCT060 27/12 A3004 RMK AO2 SLP164 T02670117 10267 20161 58008=
200505091651 METAR KATL 091651Z 25009KT 170V280 10SM FEW055 SCT300 26/13 A3006 RMK AO2 SLP169 T02560128=
200505091551 METAR KATL 091551Z 29007KT 10SM FEW200 SCT300 25/13 A3007 RMK AO2 SLP174 T02500133=
200505091451 METAR KATL 091451Z 29007KT 9SM FEW200 SCT300 23/13 A3006 RMK AO2 SLP172 T02330133 50002=
200505091351 METAR KATL 091351Z 29007KT 10SM FEW230 SCT250 22/13 A3007 RMK AO2 SLP173 T02170128=
200505091251 METAR KATL 091251Z VRB03KT 10SM SCT230 BKN250 19/12 A3006 RMK AO2 SLP174 T01940122=
200505091151 METAR KATL 091151Z 23005KT 10SM SCT230 BKN250 16/11 A3006 RMK AO2 SLP173 T01610111 10178 20150 53013=
200505091051 METAR KATL 091051Z 28004KT 10SM SCT230 16/11 A3004 RMK AO2 SLP166 T01560106 $=
200505090951 METAR KATL 090951Z 29006KT 10SM FEW230 15/11 A3003 RMK AO2 SLP161 T01500106 $=
200505090851 METAR KATL 090851Z 29005KT 10SM FEW230 17/11 A3002 RMK AO2 SLP158 T01670106 55003 $=
200505090751 METAR KATL 090751Z 27004KT 10SM CLR 17/11 A3002 RMK AO2 SLP157 T01720106 $=
200505090651 METAR KATL 090651Z 00000KT 10SM CLR 17/11 A3002 RMK AO2 SLP158 T01670111 $=
200505090551 METAR KATL 090551Z 00000KT 10SM CLR 18/11 A3003 RMK AO2 SLP161 T01780111 10250 20178 50001 $=
200505090451 METAR KATL 090451Z 24003KT 10SM CLR 19/11 A3003 RMK AO2 SLP161 T01890106 402720122 $=
200505090351 METAR KATL 090351Z 00000KT 10SM CLR 21/09 A3004 RMK AO2 SLP163 T02060094 $=
200505090251 METAR KATL 090251Z 28004KT 10SM CLR 22/09 A3003 RMK AO2 SLP160 T02170089 53006 $=
200505090151 METAR KATL 090151Z 25003KT 10SM CLR 22/09 A3002 RMK AO2 SLP157 T02220089 $=
200505090051 METAR KATL 090051Z 27004KT 10SM FEW250 23/08 A3001 RMK AO2 SLP155 T02330083 $=
200505082351 METAR KATL 082351Z 27006KT 10SM SCT250 25/08 A3001 RMK AO2 SLP156 T02500083 10272 20244 55002 $=
200505082251 METAR KATL 082251Z 28008KT 10SM SCT250 26/08 A3001 RMK AO2 SLP154 T02610083 $=
200505082151 METAR KATL 082151Z 29009KT 10SM SCT250 27/09 A3001 RMK AO2 SLP157 T02720089 $=
200505082051 METAR KATL 082051Z VRB06KT 10SM SCT250 27/09 A3002 RMK AO2 SLP158 T02720094 56018 $=
200505081951 METAR KATL 081951Z 32009KT 10SM FEW250 27/09 A3003 RMK AO2 SLP160 T02720094 $=
200505081851 METAR KATL 081851Z 01005KT 10SM FEW250 27/09 A3005 RMK AO2 SLP169 T02670089 $=
200505081751 METAR KATL 081751Z 36008KT 10SM FEW200 26/09 A3007 RMK AO2 SLP175 T02610094 10261 20139 58016 $=
200505081651 METAR KATL 081651Z 34006KT 10SM CLR 26/11 A3009 RMK AO2 SLP183 T02560111 $=
200505081551 METAR KATL 081551Z 31007KT 10SM FEW250 24/11 A3011 RMK AO2 SLP189 T02390111 $=
200505081451 METAR KATL 081451Z 32008KT 10SM CLR 22/11 A3012 RMK AO2 SLP192 T02220106 50003 $=
200505081351 METAR KATL 081351Z 31007KT 10SM FEW250 20/11 A3013 RMK AO2 SLP195 T02000111 $=
200505081251 METAR KATL 081251Z 32011KT 10SM FEW250 17/09 A3012 RMK AO2 SLP193 T01670089 $=
200505081151 METAR KATL 081151Z 31005KT 9SM SCT250 13/09 A3011 RMK AO2 SLP191 T01330089 10161 20122 53012 $=
200505081051 METAR KATL 081051Z 30005KT 9SM FEW250 12/08 A3009 RMK AO2 SLP186 T01220083 $=
200505080951 METAR KATL 080951Z 30004KT 9SM CLR 13/08 A3008 RMK AO2 SLP181 T01280083 $=
200505080851 METAR KATL 080851Z 29004KT 10SM CLR 14/08 A3007 RMK AO2 SLP177 T01390078 55004 $=
200505080751 METAR KATL 080751Z 29005KT 10SM CLR 15/08 A3007 RMK AO2 SLP176 T01500083 $=
200505080651 METAR KATL 080651Z 28005KT 10SM CLR 16/08 A3006 RMK AO2 SLP174 T01560083 $=
200505080551 METAR KATL 080551Z 30006KT 10SM CLR 16/08 A3008 RMK AO2 SLP182 T01560083 10217 20156 58001 $=
200505080451 METAR KATL 080451Z 29005KT 10SM SCT250 16/08 A3009 RMK AO2 SLP182 T01610083 402390106 $=
200505080351 METAR KATL 080351Z 30006KT 10SM SCT250 17/08 A3009 RMK AO2 SLP182 T01720083 $=
200505080251 METAR KATL 080251Z 30007KT 10SM CLR 18/08 A3009 RMK AO2 SLP182 T01830083 53008 $=
200505080151 METAR KATL 080151Z 29006KT 10SM CLR 19/08 A3007 RMK AO2 SLP179 T01890078 $=
200505080051 METAR KATL 080051Z 29005KT 10SM FEW250 20/08 A3007 RMK AO2 SLP177 T02000083 $=
200505072351 METAR KATL 072351Z 29006KT 10SM FEW250 22/07 A3006 RMK AO2 SLP175 T02170072 10239 20217 56007 $=
200505072251 METAR KATL 072251Z 29009KT 10SM FEW250 23/07 A3007 RMK AO2 SLP177 T02330072 $=
200505072151 METAR KATL 072151Z 29008KT 10SM CLR 23/07 A3007 RMK AO2 SLP180 T02330072 $=
200505072051 METAR KATL 072051Z 29006G16KT 10SM FEW120 SCT180 23/07 A3008 RMK AO2 SLP182 T02330072 56016 $=
200505071951 METAR KATL 071951Z 28010KT 10SM FEW100 SCT150 24/08 A3010 RMK AO2 SLP187 T02390078 $=
200505071851 METAR KATL 071851Z 33011G15KT 10SM FEW100 23/07 A3011 RMK AO2 SLP193 T02330072 $=
200505071751 METAR KATL 071751Z 27005KT 10SM FEW100 22/08 A3013 RMK AO2 SLP199 T02220078 10228 20122 58017 $=
200505071651 METAR KATL 071651Z VRB05KT 10SM FEW100 22/07 A3015 RMK AO2 SLP204 T02220072 $=
200505071551 METAR KATL 071551Z 29007KT 10SM FEW100 21/07 A3017 RMK AO2 SLP212 T02110072 $=
200505071451 METAR KATL 071451Z 30006KT 10SM FEW200 20/09 A3018 RMK AO2 SLP216 T02000089 51012 $=
200505071351 METAR KATL 071351Z 30006KT 9SM FEW200 18/11 A3017 RMK AO2 SLP214 T01780106 $=
200505071251 METAR KATL 071251Z 31006KT 9SM CLR 14/09 A3016 RMK AO2 SLP211 T01440094 $=
200505071151 METAR KATL 071151Z 31006KT 9SM CLR 12/09 A3014 RMK AO2 SLP205 T01220089 10128 20106 53013 $=
200505071051 METAR KATL 071051Z 31008KT 9SM FEW200 11/08 A3012 RMK AO2 SLP199 T01060083 $=
200505070951 METAR KATL 070951Z 31009KT 10SM CLR 11/08 A3011 RMK AO2 SLP194 T01060083 $=
200505070851 METAR KATL 070851Z 30007KT 10SM CLR 11/08 A3011 RMK AO2 SLP191 T01110083 55004=
200505070751 METAR KATL 070751Z 30006KT 10SM CLR 12/08 A3010 RMK AO2 SLP189 T01170083=
200505070651 METAR KATL 070651Z 30006KT 9SM CLR 12/08 A3010 RMK AO2 SLP191 T01220083=
200505070551 METAR KATL 070551Z 29005KT 10SM CLR 13/08 A3012 RMK AO2 SLP196 T01280083 10194 20128 58004=
200505070451 METAR KATL 070451Z 26003KT 10SM CLR 14/08 A3013 RMK AO2 SLP199 T01390083 402170094=
200505070351 METAR KATL 070351Z 29005KT 10SM CLR 14/08 A3013 RMK AO2 SLP201 T01390083=
200505070251 METAR KATL 070251Z 30006KT 10SM CLR 15/08 A3013 RMK AO2 SLP200 T01500083 53009=
200505070151 METAR KATL 070151Z 29005KT 10SM CLR 16/08 A3011 RMK AO2 SLP194 T01610078=
200505070051 METAR KATL 070051Z 28005KT 10SM FEW250 17/08 A3011 RMK AO2 SLP194 T01720078=
200505062351 METAR KATL 062351Z 30010KT 10SM CLR 19/07 A3010 RMK AO2 SLP191 T01940072 10217 20194 55001=
200505062251 METAR KATL 062251Z 29009KT 10SM FEW055 21/08 A3010 RMK AO2 SLP190 T02060078=
200505062151 METAR KATL 062151Z 31009G14KT 10SM SCT055 21/09 A3010 RMK AO2 SLP190 T02110089=
200505062051 METAR KATL 062051Z 30008KT 280V360 10SM FEW050 21/09 A3011 RMK AO2 SLP191 T02060089 57018=
200505061951 METAR KATL 061951Z 28008G15KT 10SM FEW050 21/11 A3013 RMK AO2 SLP198 T02110106=
200505061851 METAR KATL 061851Z 33009KT 10SM FEW040TCU 21/11 A3014 RMK AO2 SLP204 TCU E-SE AND NW MDT CU ALQDS T02060106=
200505061751 METAR KATL 061751Z 30008KT 10SM SCT040 20/12 A3016 RMK AO2 SLP210 MDT CU ALQDS T02000117 10200 20117 58018=
200505061651 METAR KATL 061651Z VRB06KT 10SM SCT040 20/11 A3018 RMK AO2 SLP218 T02000111=
200505061551 METAR KATL 061551Z 33007KT 280V020 10SM SCT040 19/10 A3020 RMK AO2 SLP224 T01890100=
200505061451 METAR KATL 061451Z 04006KT 10SM FEW030 17/08 A3022 RMK AO2 SLP230 T01720083 51009=
200505061351 METAR KATL 061351Z 02008KT 9SM FEW070 16/08 A3021 RMK AO2 SLP228 T01610078=
200505061251 METAR KATL 061251Z 34006KT 7SM SCT075 13/09 A3020 RMK AO2 SLP227 T01330089=
200505061151 METAR KATL 061151Z 35005KT 9SM BKN070 BKN210 12/08 A3019 RMK AO2 SLP221 T01170083 10117 20094 53008=
200505061051 METAR KATL 061051Z 32006KT 9SM SCT150 SCT210 10/08 A3018 RMK AO2 SLP220 T01000078=
200505060951 METAR KATL 060951Z 02008KT 7SM CLR 11/08 A3017 RMK AO2 SLP215 T01110078=
200505060851 METAR KATL 060851Z 04008KT 7SM CLR 11/08 A3016 RMK AO2 SLP213 T01110083 56011=
200505060751 METAR KATL 060751Z 03009KT 7SM CLR 12/08 A3016 RMK AO2 SLP212 T01170083=
200505060651 METAR KATL 060651Z 04007KT 9SM CLR 12/09 A3017 RMK AO2 SLP214 T01170089=
200505060551 METAR KATL 060551Z 04008KT 8SM CLR 12/09 A3019 RMK AO2 SLP223 60000 T01170089 10156 20117 58009=
200505060451 METAR KATL 060451Z 05008KT 8SM CLR 12/09 A3022 RMK AO2 SLP231 T01220094 401940122=
200505060351 METAR KATL 060351Z 05010KT 9SM CLR 13/09 A3023 RMK AO2 SLP233 T01280094=
200505060251 METAR KATL 060251Z 07012KT 8SM BKN039 13/10 A3022 RMK AO2 SLP233 60000 T01330100 50006=
200505060151 METAR KATL 060151Z 06012KT 8SM FEW030 SCT039 OVC110 14/11 A3023 RMK AO2 SLP233 T01390106=
200505060110 SPECI KATL 060110Z 05010KT 9SM SCT028 OVC037 14/10 A3022 RMK AO2=
200505060110 SPECI KATL 060110Z 05010KT 9SM SCT028 OVC037 14/10 A3022 RMK AO2=
200505060051 METAR KATL 060051Z 04010KT 9SM BKN028 BKN035 OVC090 14/10 A3022 RMK AO2 RAE25 SLP233 P0000 T01440100=
200505052351 METAR KATL 052351Z 07013KT 9SM -RA FEW030 SCT042 OVC090 16/09 A3020 RMK AO2 RAB48 SLP226 P0000 60000 T01560094 10189 20150 50001=
200505052251 METAR KATL 052251Z 06011KT 9SM SCT026 OVC044 16/10 A3021 RMK AO2 SLP226 T01560100=
200505052151 METAR KATL 052151Z 07013KT 8SM SCT028 OVC038 16/10 A3021 RMK AO2 SLP228 T01610100=
200505052051 METAR KATL 052051Z 05012KT 9SM SCT029 OVC040 17/10 A3020 RMK AO2 SLP225 T01670100 55010=
200505051951 METAR KATL 051951Z 06012KT 9SM SCT027 BKN040 18/11 A3020 RMK AO2 SLP224 T01780111=
200505051858 SPECI KATL 051858Z 06014G19KT 10SM BKN027 BKN040 18/12 A3021 RMK AO2=
200505051858 SPECI KATL 051858Z 06014G19KT 10SM BKN027 BKN040 18/12 A3021 RMK AO2=
200505051851 METAR KATL 051851Z 07012G19KT 10SM SCT030 BKN040 BKN050 18/12 A3021 RMK AO2 SLP228 T01830117=
200505051751 METAR KATL 051751Z 08012KT 10SM BKN030 BKN040 OVC050 17/12 A3023 RMK AO2 SLP235 T01720117 10194 20144 56002=
200505051651 METAR KATL 051651Z 09015G19KT 10SM BKN035 BKN045 BKN055 BKN150 19/12 A3023 RMK AO2 SLP234 T01890122=
200505051551 METAR KATL 051551Z 08013KT 10SM FEW030 SCT050 SCT150 18/12 A3024 RMK AO2 SLP235 T01830117=
200505051526 SPECI KATL 051526Z 08014KT 9SM FEW020 SCT050 SCT150 18/12 A3023 RMK AO2=
200505051526 SPECI KATL 051526Z 08014KT 9SM FEW020 SCT050 SCT150 18/12 A3023 RMK AO2=
200505051451 METAR KATL 051451Z 06014KT 8SM OVC020 16/11 A3024 RMK AO2 SLP237 T01610111 50007=
200505051351 METAR KATL 051351Z 08013KT 8SM OVC018 16/11 A3024 RMK AO2 SLP237 T01560111=
200505051251 METAR KATL 051251Z 08012KT 8SM BKN019 BKN039 OVC080 15/11 A3023 RMK AO2 SLP233 T01500106=
200505051228 SPECI KATL 051228Z 07014KT 8SM BKN019 OVC039 15/10 A3023 RMK AO2=
200505051228 SPECI KATL 051228Z 07014KT 8SM BKN019 OVC039 15/10 A3023 RMK AO2=
200505051151 METAR KATL 051151Z 07017KT 9SM FEW019 BKN060 OVC080 14/09 A3022 RMK AO2 SLP229 T01440094 10156 20139 51011=
200505051051 METAR KATL 051051Z 06011KT 10SM BKN033 OVC150 14/09 A3021 RMK AO2 SLP226 T01440094=
200505050951 METAR KATL 050951Z 07011KT 10SM BKN025 BKN034 OVC130 15/09 A3020 RMK AO2 SLP221 T01500094=
200505050944 SPECI KATL 050944Z 08011KT 10SM BKN025 BKN034 OVC130 15/09 A3020 RMK AO2=
200505050944 SPECI KATL 050944Z 08011KT 10SM BKN025 BKN034 OVC130 15/09 A3020 RMK AO2=
200505050927 SPECI KATL 050927Z 07011KT 10SM SCT025 BKN045 OVC130 14/09 A3019 RMK AO2=
200505050927 SPECI KATL 050927Z 07011KT 10SM SCT025 BKN045 OVC130 14/09 A3019 RMK AO2=
200505050901 SPECI KATL 050901Z 08009KT 10SM BKN025 OVC036 15/09 A3019 RMK AO2=
200505050901 SPECI KATL 050901Z 08009KT 10SM BKN025 OVC036 15/09 A3019 RMK AO2=
200505050851 METAR KATL 050851Z 08009KT 10SM SCT025 BKN038 OVC130 14/09 A3018 RMK AO2 SLP217 T01440094 53004=
200505050751 METAR KATL 050751Z 08009KT 10SM SCT150 14/09 A3018 RMK AO2 SLP215 T01390089=
200505050651 METAR KATL 050651Z 08010KT 10SM FEW110 15/08 A3017 RMK AO2 SLP212 T01500083=
200505050551 METAR KATL 050551Z 08011KT 10SM SCT110 16/08 A3017 RMK AO2 SLP214 T01560078 10194 20156 58014=
200505050451 METAR KATL 050451Z 07011KT 10SM BKN110 17/07 A3018 RMK AO2 SLP217 T01670067 402170067=
200505050351 METAR KATL 050351Z 34005KT 10SM BKN095 BKN110 16/06 A3022 RMK AO2 SLP230 T01610056=
200505050251 METAR KATL 050251Z 36007KT 10SM SCT120 BKN250 17/04 A3021 RMK AO2 SLP229 T01720044 51010=
200505050151 METAR KATL 050151Z COR 08006KT 10SM BKN120 BKN250 18/04 A3021 RMK AO2 SLP226 T01830044=
200505050051 METAR KATL 050051Z 09006KT 10SM BKN150 BKN250 19/04 A3019 RMK AO2 SLP223 T01890039=
200505042351 METAR KATL 042351Z 07007KT 10SM SCT150 BKN250 19/03 A3018 RMK AO2 SLP220 T01940028 10217 20194 53006=
200505042251 METAR KATL 042251Z 10006KT 10SM SCT150 BKN250 20/03 A3017 RMK AO2 SLP216 T02000028=
200505042151 METAR KATL 042151Z 09008KT 10SM SCT150 SCT250 21/03 A3017 RMK AO2 SLP216 T02060033=
200505042051 METAR KATL 042051Z 00000KT 10SM FEW150 SCT250 SCT280 22/03 A3016 RMK AO2 SLP212 T02170028 58015=
200505041951 METAR KATL 041951Z 08007KT 10SM FEW150 SCT250 SCT280 21/03 A3018 RMK AO2 SLP219 T02110033=
200505041851 METAR KATL 041851Z 00000KT 10SM FEW280 20/02 A3020 RMK AO2 SLP224 T02000022=
200505041751 METAR KATL 041751Z 03007KT 10SM FEW280 20/04 A3021 RMK AO2 SLP228 T02000044 10200 20083 58011=
200505041651 METAR KATL 041651Z 00000KT 10SM FEW280 18/03 A3024 RMK AO2 SLP238 T01830033=
200505041551 METAR KATL 041551Z COR 03007KT 10SM FEW280 17/04 A3025 RMK AO2 SLP241 T01720044=
200505041451 METAR KATL 041451Z 03006KT 10SM FEW280 16/02 A3024 RMK AO2 SLP239 T01610022 51010=
200505041351 METAR KATL 041351Z 35007KT 10SM FEW280 14/02 A3024 RMK AO2 SLP239 T01440022=
200505041251 METAR KATL 041251Z 36009KT 10SM FEW180 SCT230 12/02 A3023 RMK AO2 SLP235 T01170022=
200505041151 METAR KATL 041151Z 33010KT 10SM FEW230 08/02 A3021 RMK AO2 SLP230 T00830022 10094 20067 53013=
200505041051 METAR KATL 041051Z 33009KT 10SM FEW230 07/02 A3019 RMK AO2 SLP225 T00720022=
200505040951 METAR KATL 040951Z 33004KT 10SM CLR 07/03 A3018 RMK AO2 SLP218 T00670028=
200505040851 METAR KATL 040851Z 34008KT 10SM CLR 08/03 A3017 RMK AO2 SLP216 T00780028 53000=
200505040751 METAR KATL 040751Z 34006KT 10SM CLR 08/03 A3017 RMK AO2 SLP214 T00830028=
200505040651 METAR KATL 040651Z 32006KT 10SM CLR 09/03 A3017 RMK AO2 SLP214 T00890033=
200505040551 METAR KATL 040551Z 32007KT 10SM CLR 09/04 A3017 RMK AO2 SLP215 T00940039 10167 20094 51006=
200505040451 METAR KATL 040451Z 31007KT 10SM CLR 11/03 A3016 RMK AO2 SLP213 T01060033 401890078=
200505040351 METAR KATL 040351Z 28005KT 10SM CLR 12/03 A3016 RMK AO2 SLP212 T01170033=
200505040251 METAR KATL 040251Z 32006KT 10SM CLR 12/03 A3015 RMK AO2 SLP209 T01220033 51015=
200505040151 METAR KATL 040151Z 32005KT 10SM FEW130 13/03 A3014 RMK AO2 SLP204 T01330033 $=
200505040051 METAR KATL 040051Z 31005KT 10SM SCT130 15/03 A3012 RMK AO2 SLP201 T01500033=
200505032351 METAR KATL 032351Z 30008KT 10SM FEW130 SCT200 17/03 A3010 RMK AO2 SLP194 T01670028 10189 20167 53001=
200505032251 METAR KATL 032251Z 31005KT 10SM FEW130 BKN200 17/04 A3010 RMK AO2 SLP191 T01720039=
200505032151 METAR KATL 032151Z 33010KT 10SM FEW120 BKN180 BKN200 18/04 A3010 RMK AO2 SLP190 T01780039=
200505032051 METAR KATL 032051Z 35012KT 10SM FEW100 BKN180 BKN250 19/04 A3010 RMK AO2 SLP192 T01890044 58015=
200505031951 METAR KATL 031951Z 31006KT 10SM FEW100 BKN180 BKN250 18/04 A3012 RMK AO2 SLP199 T01830039=
200505031851 METAR KATL 031851Z 31007KT 10SM FEW100 BKN180 BKN250 18/03 A3014 RMK AO2 SLP203 T01780028=
200505031751 METAR KATL 031751Z 00000KT 10SM FEW100 BKN180 BKN250 18/03 A3015 RMK AO2 SLP206 T01780033 10178 20089 58009=
200505031651 METAR KATL 031651Z 30003KT 10SM FEW100 SCT150 BKN250 17/03 A3016 RMK AO2 SLP211 T01720033=
200505031551 METAR KATL 031551Z 26005KT 10SM FEW100 SCT150 SCT180 BKN250 17/03 A3017 RMK AO2 SLP215 T01670033=
200505031451 METAR KATL 031451Z 00000KT 10SM FEW100 SCT180 BKN250 16/03 A3017 RMK AO2 SLP216 T01560033 51010=
200505031351 METAR KATL 031351Z 34003KT 10SM FEW100 SCT180 BKN250 14/04 A3017 RMK AO2 SLP215 T01440044=
200505031251 METAR KATL 031251Z 32005KT 10SM FEW095 SCT180 BKN230 BKN250 11/05 A3016 RMK AO2 SLP213 T01060050=
200505031151 METAR KATL 031151Z 33005KT 10SM SCT180 BKN230 BKN250 09/04 A3014 RMK AO2 SLP206 T00890044 10106 20078 53014=
200505031051 METAR KATL 031051Z 31004KT 10SM SCT180 BKN230 BKN250 08/04 A3012 RMK AO2 SLP199 T00780039=
200505030951 METAR KATL 030951Z 33007KT 10SM FEW180 SCT230 08/03 A3011 RMK AO2 SLP193 T00830033=
200505030851 METAR KATL 030851Z 32007KT 10SM SCT230 09/04 A3010 RMK AO2 SLP191 T00890039 53007=
200505030751 METAR KATL 030751Z 32007KT 10SM SCT230 09/04 A3009 RMK AO2 SLP185 T00940039=
200505030651 METAR KATL 030651Z 32007KT 10SM FEW230 11/04 A3007 RMK AO2 SLP181 T01060044=
200505030551 METAR KATL 030551Z 32006KT 10SM SCT230 11/05 A3008 RMK AO2 SLP183 T01060050 10172 20106 58003=
200505030451 METAR KATL 030451Z 30006KT 10SM SCT200 11/04 A3009 RMK AO2 SLP186 T01110044 402060067=
200505030351 METAR KATL 030351Z 29006KT 10SM BKN200 12/04 A3008 RMK AO2 SLP185 T01220044=
200505030251 METAR KATL 030251Z 29006KT 10SM BKN200 13/04 A3009 RMK AO2 SLP186 T01330039 51017=
200505030151 METAR KATL 030151Z 29008KT 10SM CLR 14/03 A3008 RMK AO2 SLP183 T01440033=
200505030051 METAR KATL 030051Z 30008KT 10SM FEW250 16/03 A3006 RMK AO2 SLP175 T01610033=
200505022351 METAR KATL 022351Z 29010KT 10SM FEW060 SCT250 17/03 A3004 RMK AO2 SLP170 T01720028 10206 20172 53000=
200505022251 METAR KATL 022251Z 30013G17KT 10SM FEW065 SCT250 19/03 A3003 RMK AO2 SLP166 T01890033=
200505022151 METAR KATL 022151Z 30014G21KT 10SM FEW065 SCT200 SCT350 19/04 A3003 RMK AO2 SLP167 T01940039=
200505022051 METAR KATL 022051Z 32012G19KT 10SM FEW070 SCT200 BKN250 20/04 A3003 RMK AO2 SLP169 T02000044 58018=
200505021951 METAR KATL 021951Z 30010KT 10SM FEW070 SCT200 BKN250 20/04 A3006 RMK AO2 SLP176 T02000044=
200505021851 METAR KATL 021851Z 32015G20KT 10SM FEW070 SCT200 BKN250 21/05 A3007 RMK AO2 SLP181 T02060050=
200505021751 METAR KATL 021751Z 33013G19KT 280V360 10SM FEW060 SCT200 BKN250 19/04 A3009 RMK AO2 SLP187 T01940039 10194 20089 58013=
200505021651 METAR KATL 021651Z 30012G15KT 10SM FEW060 SCT200 BKN250 19/03 A3010 RMK AO2 SLP191 T01890033=
200505021551 METAR KATL 021551Z 36009KT 10SM SCT250 18/02 A3012 RMK AO2 SLP198 T01830022=
200505021451 METAR KATL 021451Z 32015KT 10SM SCT250 17/03 A3013 RMK AO2 SLP200 T01720028 51009=
200505021351 METAR KATL 021351Z 34010KT 10SM SCT250 16/03 A3012 RMK AO2 SLP198 T01560033=
200505021251 METAR KATL 021251Z 32008KT 10SM SCT200 13/03 A3011 RMK AO2 SLP195 T01280028=
200505021151 METAR KATL 021151Z 32007KT 10SM SCT200 09/03 A3010 RMK AO2 SLP192 T00890028 10089 20067 53006=
200505021051 METAR KATL 021051Z 32008KT 10SM BKN200 07/03 A3008 RMK AO2 SLP187 T00720028=
200505020951 METAR KATL 020951Z 32008KT 10SM CLR 07/03 A3008 RMK AO2 SLP186 T00670033=
200505020851 METAR KATL 020851Z 30006KT 10SM CLR 07/03 A3008 RMK AO2 SLP186 T00720033 53001=
200505020751 METAR KATL 020751Z 29006KT 10SM CLR 07/04 A3008 RMK AO2 SLP185 T00720039=
200505020651 METAR KATL 020651Z 30008KT 10SM CLR 08/04 A3008 RMK AO2 SLP184 T00830039=
200505020551 METAR KATL 020551Z 31008KT 10SM CLR 09/04 A3008 RMK AO2 SLP185 T00890039 10172 20089 58003=
200505020451 METAR KATL 020451Z 30007KT 10SM CLR 10/03 A3008 RMK AO2 SLP186 T01000028 402000078=
200505020351 METAR KATL 020351Z 35004KT 10SM CLR 13/01 A3009 RMK AO2 SLP186 T01330011=
200505020251 METAR KATL 020251Z 35008KT 10SM CLR 14/01 A3009 RMK AO2 SLP187 T01440006 51017=
200505020151 METAR KATL 020151Z 34005KT 10SM CLR 14/02 A3008 RMK AO2 SLP184 T01440017=
200505020051 METAR KATL 020051Z 35006KT 10SM FEW100 16/02 A3006 RMK AO2 SLP178 T01560017=
200505012351 METAR KATL 012351Z 34009KT 10SM CLR 17/02 A3004 RMK AO2 SLP172 T01720017 10200 20172 52006=
200505012251 METAR KATL 012251Z 34013KT 10SM FEW100 18/01 A3003 RMK AO2 SLP169 T01830011=
200505012151 METAR KATL 012151Z 35014G20KT 10SM FEW100 19/02 A3003 RMK AO2 SLP167 T01890017=
200505012051 METAR KATL 012051Z 33017G21KT 10SM FEW100 19/01 A3002 RMK AO2 SLP164 T01890011 58016=
200505011951 METAR KATL 011951Z 34012G19KT 10SM FEW100 19/02 A3005 RMK AO2 SLP174 T01890022=
200505011851 METAR KATL 011851Z 32015G19KT 10SM FEW100 19/03 A3006 RMK AO2 SLP178 T01890028=
200505011751 METAR KATL 011751Z 33007G17KT 290V350 10SM CLR 18/06 A3007 RMK AO2 SLP180 T01780061 10178 20089 58010=
200505011651 METAR KATL 011651Z 36010G17KT 10SM CLR 17/06 A3010 RMK AO2 SLP189 T01670056=
200505011551 METAR KATL 011551Z 34012G17KT 10SM CLR 15/07 A3010 RMK AO2 SLP190 T01500067=
200505011451 METAR KATL 011451Z 35013KT 9SM FEW080 14/05 A3010 RMK AO2 SLP192 T01390050 53026=
200505011351 METAR KATL 011351Z 35010KT 9SM FEW080 12/06 A3007 RMK AO2 SLP182 T01220061=
200505011251 METAR KATL 011251Z 32011KT 9SM CLR 10/07 A3005 RMK AO2 SLP175 T01000067=
Fallo de consulta: el error es SELECT command denied to user 'users'@'localhost' for table 'tafs_2005'
