##########################################################
# Query made at 04/19/2024 22:49:14 UTC
# Time interval: from 01/01/2005 12:00  to 01/31/2005 12:59  UTC
##########################################################

##########################################################
# KATL, Atlanta, Hartsfield - Jackson Atlanta International Airport (United States)
# WMO index: 72219. WIGOS ID: 0-20000-0-72219
# Latitude 33-38-59N. Longitude 084-25-00W. Altitude 312 m.
##########################################################

200501311251 METAR KATL 311251Z 09004KT 1/8SM R09R/1800V5500FT FG VV001 00/00 A3022 RMK AO2 SFC VIS 1/4 SLP244 T00000000=
200501311235 SPECI KATL 311235Z VRB05KT 1/8SM R09R/1600V2600FT FG VV001 00/00 A3021 RMK AO2 SFC VIS 1/4=
200501311235 SPECI KATL 311235Z VRB05KT 1/8SM R09R/1600V2600FT FG VV001 00/00 A3021 RMK AO2 SFC VIS 1/4=
200501311151 METAR KATL 311151Z 08005KT 1/8SM R09R/1400V1600FT FG VV001 00/00 A3020=
200501311129 SPECI KATL 311129Z 07007KT 1/4SM R09R/1800V2200FT FG VV001 00/00 A3019 RMK AO2=
200501311129 SPECI KATL 311129Z 07007KT 1/4SM R09R/1800V2200FT FG VV001 00/00 A3019 RMK AO2=
200501311051 METAR KATL 311051Z 07007KT 1/2SM R09R/2000V2800FT FG VV001 00/M01 A3018 RMK AO2 SLP227 T00001006=
200501311006 SPECI KATL 311006Z 04008KT 1/4SM R09R/1000V1200FT FG VV001 00/00 A3015 RMK AO2=
200501311006 SPECI KATL 311006Z 04008KT 1/4SM R09R/1000V1200FT FG VV001 00/00 A3015 RMK AO2=
200501310958 SPECI KATL 310958Z 04008KT 1/4SM R09R/1200V2800FT FG BKN001 OVC005 01/01 A3014 RMK AO2=
200501310958 SPECI KATL 310958Z 04008KT 1/4SM R09R/1200V2800FT FG BKN001 OVC005 01/01 A3014 RMK AO2=
200501310951 METAR KATL 310951Z 04007KT 1 1/2SM R09R/1800VP6000FT BR BKN001 BKN005 01/01 A3014 RMK AO2 SLP213 T00060006=
200501310938 SPECI KATL 310938Z 04005KT 4SM BR SCT005 01/00 A3014 RMK AO2=
200501310938 SPECI KATL 310938Z 04005KT 4SM BR SCT005 01/00 A3014 RMK AO2=
200501310851 METAR KATL 310851Z 01004KT 6SM BR CLR 01/00 A3013 RMK AO2 SLP209 T00060000 53004=
200501310751 METAR KATL 310751Z 35003KT 6SM BR CLR 01/01 A3012 RMK AO2 SLP205 T00110006=
200501310651 METAR KATL 310651Z 34004KT 7SM CLR 01/01 A3011 RMK AO2 SLP203 T00110006=
200501310551 METAR KATL 310551Z 32006KT 8SM CLR 01/01 A3011 RMK AO2 SLP206 T00110006 10044 20011 53003=
200501310451 METAR KATL 310451Z 31005KT 9SM CLR 02/01 A3010 RMK AO2 SLP203 T00170006 400501011=
200501310351 METAR KATL 310351Z 29006KT 9SM CLR 02/01 A3010 RMK AO2 SLP201 T00170006=
200501310251 METAR KATL 310251Z 28005KT 10SM CLR 02/01 A3011 RMK AO2 SLP203 T00220006 53008=
200501310151 METAR KATL 310151Z 28006KT 10SM CLR 02/01 A3010 RMK AO2 SLP201 T00220011=
200501310051 METAR KATL 310051Z 31010KT 10SM CLR 03/02 A3009 RMK AO2 SLP197 T00330017=
200501310029 SPECI KATL 310029Z 31008KT 10SM SCT014 04/02 A3009 RMK AO2=
200501310029 SPECI KATL 310029Z 31008KT 10SM SCT014 04/02 A3009 RMK AO2=
200501302351 METAR KATL 302351Z 31009KT 10SM OVC014 04/02 A3008 RMK AO2 SLP194 T00440022 10050 20017 51008=
200501302251 METAR KATL 302251Z 31009KT 10SM OVC016 05/02 A3008 RMK AO2 SLP192 T00500022=
200501302158 SPECI KATL 302158Z 29009KT 10SM OVC016 04/03 A3007 RMK AO2=
200501302158 SPECI KATL 302158Z 29009KT 10SM OVC016 04/03 A3007 RMK AO2=
200501302151 METAR KATL 302151Z 29009KT 10SM BKN013 05/03 A3006 RMK AO2 SLP188 T00500028=
200501302051 METAR KATL 302051Z 29013KT 7SM BKN013 04/03 A3006 RMK AO2 SLP186 T00440028 56008=
200501302005 SPECI KATL 302005Z 28010KT 6SM BR SCT007 OVC011 04/03 A3006 RMK AO2=
200501302005 SPECI KATL 302005Z 28010KT 6SM BR SCT007 OVC011 04/03 A3006 RMK AO2=
200501301951 METAR KATL 301951Z 28008KT 6SM BR OVC009 03/02 A3006 RMK AO2 CIG 005V013 SLP188 T00330022=
200501301920 SPECI KATL 301920Z 30009KT 2SM BR OVC005 03/02 A3006 RMK AO2 SFC VIS 5 CIG 004V008=
200501301920 SPECI KATL 301920Z 30009KT 2SM BR OVC005 03/02 A3006 RMK AO2 SFC VIS 5 CIG 004V008=
200501301851 METAR KATL 301851Z 30009KT 2SM BR OVC003 02/01 A3007 RMK AO2 SFC VIS 4 SLP192 T00220011=
200501301751 METAR KATL 301751Z 31007KT 1 1/2SM BR OVC003 02/01 A3008 RMK AO2 SFC VIS 3 SLP196 T00170011 10017 21006 58002=
200501301651 METAR KATL 301651Z COR 31006KT 3/4SM BR OVC003 01/01 A3009 RMK AO2 SFC VIS 4 SLP200 T00110006=
200501301551 METAR KATL 301551Z 31006KT 1/2SM BR OVC003 01/00 A3010 RMK AO2 SFC VIS 2 1/2 SLP202 T00060000=
200501301451 METAR KATL 301451Z 32011KT 1/2SM BR OVC003 00/00 A3009 RMK AO2 SFC VIS 2 SLP199 T00000000 53010=
200501301409 SPECI KATL 301409Z 32008KT 1/2SM BR OVC003 00/00 A3007 RMK AO2 SFC VIS 2 1/2=
200501301409 SPECI KATL 301409Z 32008KT 1/2SM BR OVC003 00/00 A3007 RMK AO2 SFC VIS 2 1/2=
200501301351 METAR KATL 301351Z 31011KT 1/4SM BR OVC001 00/M01 A3007 RMK AO2 SFC VIS 2 SLP193 T00001006=
200501301251 METAR KATL 301251Z 31006KT 1/4SM BR OVC001 00/M01 A3007 RMK AO2 SFC VIS 1 1/2 SLP190 T00001006=
200501301151 METAR KATL 301151Z 30006KT 1/4SM R09R/5500VP6000FT BR OVC001 M01/M01 A3006 RMK AO2 SFC VIS 2 SLP189 70044 T10061006 11006 21006 55002=
200501301051 METAR KATL 301051Z 31004KT 1/4SM R09R/5000V6000FT BR OVC001 M01/M01 A3005 RMK AO2 SFC VIS 1 SLP187 T10061006=
200501300951 METAR KATL 300951Z 30004KT 1/2SM R09R/3000V4500FT FZFG OVC001 M01/M01 A3006 RMK AO2 SLP188 T10061006=
200501300851 METAR KATL 300851Z 33003KT 1/4SM R09R/2600V3500FT FZFG OVC001 M01/M01 A3006 RMK AO2 SFC VIS 1/2 SLP191 T10061006 56014=
200501300751 METAR KATL 300751Z 36004KT 3/4SM R09R/4500VP6000FT BR OVC001 M01/M01 A3008 RMK AO2 SLP196 T10061006=
200501300651 METAR KATL 300651Z 01004KT 3/4SM BR OVC001 M01/M01 A3009 RMK AO2 SFC VIS 1 1/2 CIG 001V005 SLP198 T10061011=
200501300551 METAR KATL 300551Z 00000KT 1 1/2SM BR OVC003 M01/M01 A3011 RMK AO2 SFC VIS 3 SLP205 60000 T10061011 11006 21011 57013=
200501300539 SPECI KATL 300539Z 07006KT 1 1/2SM BR OVC003 M01/M01 A3011 RMK AO2 SFC VIS 2 1/2=
200501300539 SPECI KATL 300539Z 07006KT 1 1/2SM BR OVC003 M01/M01 A3011 RMK AO2 SFC VIS 2 1/2=
200501300451 METAR KATL 300451Z 07006KT 1 1/2SM BR BKN001 OVC003 M01/M01 A3012=
200501300429 SPECI KATL 300429Z 08010KT 1 1/2SM BR BKN001 OVC003 M01/M01 A3013 RMK AO2 SFC VIS 2 1/2=
200501300429 SPECI KATL 300429Z 08010KT 1 1/2SM BR BKN001 OVC003 M01/M01 A3013 RMK AO2 SFC VIS 2 1/2=
200501300351 METAR KATL 300351Z 06005KT 1 1/2SM BR OVC003 M01/M01 A3013 RMK AO2 SFC VIS 2 SLP213 T10061011=
200501300251 METAR KATL 300251Z 08006KT 1 1/2SM BR OVC003 M01/M01 A3014 RMK AO2 SFC VIS 2 1/2 FZRAE18 SLP218 P0000 60000 T10061011 56010=
200501300244 SPECI KATL 300244Z 08006KT 1 1/2SM BR OVC003 M01/M01 A3014 RMK AO2 SFC VIS 3 FZRAE18 P0000=
200501300244 SPECI KATL 300244Z 08006KT 1 1/2SM BR OVC003 M01/M01 A3014 RMK AO2 SFC VIS 3 FZRAE18 P0000=
200501300224 SPECI KATL 300224Z 08006KT 2 1/2SM BR OVC003 M01/M01 A3014 RMK AO2 SFC VIS 4 FZRAE18 P0000=
200501300224 SPECI KATL 300224Z 08006KT 2 1/2SM BR OVC003 M01/M01 A3014 RMK AO2 SFC VIS 4 FZRAE18 P0000=
200501300151 METAR KATL 300151Z 08006KT 2 1/2SM -FZRA BR BKN003 OVC005 M01/M01 A3015 RMK AO2 SFC VIS 4 SLP221 P0000 T10061011=
200501300124 SPECI KATL 300124Z 08004KT 4SM -FZRA BR BKN003 OVC005 M01/M01 A3016 RMK AO2 P0000=
200501300124 SPECI KATL 300124Z 08004KT 4SM -FZRA BR BKN003 OVC005 M01/M01 A3016 RMK AO2 P0000=
200501300051 METAR KATL 300051Z 08004KT 5SM -FZRA BR OVC005 M01/M01 A3017 RMK AO2 FZRAE06B26 SLP226 P0000 T10061011=
200501300032 SPECI KATL 300032Z 08004KT 6SM -FZRA BR OVC005 M01/M01 A3017 RMK AO2 FZRAE06B26 P0000=
200501300032 SPECI KATL 300032Z 08004KT 6SM -FZRA BR OVC005 M01/M01 A3017 RMK AO2 FZRAE06B26 P0000=
200501300015 SPECI KATL 300015Z 06007KT 3SM BR OVC005 M01/M01 A3017 RMK AO2 SFC VIS 5 FZRAE06 P0000=
200501300015 SPECI KATL 300015Z 06007KT 3SM BR OVC005 M01/M01 A3017 RMK AO2 SFC VIS 5 FZRAE06 P0000=
200501292351 METAR KATL 292351Z COR 06007KT 3SM -FZRA OVC005 M01/M01 A3018 RMK AO2 SFC VIS 5 -FZRAB26E2254B34 SLP230 P0003 60024 T10061011 11006 21011 55005=
200501292340 SPECI KATL 292340Z 10010KT 3SM -FZRA OVC005 M01/M01 A3017 RMK AO2 SFC VIS 7 UPB26E33FZRAE2254B34 P0002=
200501292340 SPECI KATL 292340Z 10010KT 3SM -FZRA OVC005 M01/M01 A3017 RMK AO2 SFC VIS 7 UPB26E33FZRAE2254B34 P0002=
200501292304 SPECI KATL 292304Z 10010KT 10SM OVC005 M01/M01 A3016 RMK AO2 FZRAE2254 P0000=
200501292304 SPECI KATL 292304Z 10010KT 10SM OVC005 M01/M01 A3016 RMK AO2 FZRAE2254 P0000=
200501292251 METAR KATL 292251Z 10008KT 10SM -FZRA BR OVC005 M01/M01 A3017 RMK AO2 SLP227 P0004 T10061011=
200501292229 SPECI KATL 292229Z 10008KT 10SM -FZRA BR OVC005 M01/M01 A3017 RMK AO2 CIG 003V009 P0004=
200501292229 SPECI KATL 292229Z 10008KT 10SM -FZRA BR OVC005 M01/M01 A3017 RMK AO2 CIG 003V009 P0004=
200501292151 METAR KATL 292151Z 08009KT 1 1/2SM R09R/6000VP6000FT -FZRA BR OVC005 M01/M01 A3017 RMK AO2 SFC VIS 2 FZRAB27 SLP229 P0004 T10061011=
200501292129 SPECI KATL 292129Z 08009KT 2 1/2SM -FZRA BR OVC005 M01/M01 A3018 RMK AO2 SFC VIS 5 FZRAB27 P0000=
200501292129 SPECI KATL 292129Z 08009KT 2 1/2SM -FZRA BR OVC005 M01/M01 A3018 RMK AO2 SFC VIS 5 FZRAB27 P0000=
200501292051 METAR KATL 292051Z 09009KT 1 1/2SM BR OVC005 M01/M02 A3019 RMK AO2 SFC VIS 5 FZRAE23FZDZB23E46 SLP235 P0000 60013 T10111017 56020=
200501292025 SPECI KATL 292025Z 09009KT 1 1/2SM -FZDZ BR OVC007 M01/M02 A3020 RMK AO2 SFC VIS 5 FZRAE23FZDZB23 CIG 004V009 P0000=
200501292025 SPECI KATL 292025Z 09009KT 1 1/2SM -FZDZ BR OVC007 M01/M02 A3020 RMK AO2 SFC VIS 5 FZRAE23FZDZB23 CIG 004V009 P0000=
200501291951 METAR KATL 291951Z 09009KT 1 1/2SM -FZRA BR OVC007 M01/M02 A3021 RMK AO2 SFC VIS 3 CIG 003V009 SLP241 P0003 T10061017=
200501291851 METAR KATL 291851Z 09011KT 1SM -FZRA BR OVC005 M01/M02 A3023 RMK AO2 SFC VIS 4 CIG 004V009 SLP248 P0010 T10111017=
200501291837 SPECI KATL 291837Z 08011G18KT 3/4SM R09R/4500VP6000FT FZRA BR OVC005 M01/M02 A3024 RMK AO2 SFC VIS 1 1/2 P0007=
200501291837 SPECI KATL 291837Z 08011G18KT 3/4SM R09R/4500VP6000FT FZRA BR OVC005 M01/M02 A3024 RMK AO2 SFC VIS 1 1/2 P0007=
200501291831 SPECI KATL 291831Z 08011G18KT 2 1/2SM FZRA BR OVC005 M01/M02 A3025 RMK AO2 SFC VIS 3 P0004=
200501291831 SPECI KATL 291831Z 08011G18KT 2 1/2SM FZRA BR OVC005 M01/M02 A3025 RMK AO2 SFC VIS 3 P0004=
200501291751 METAR KATL 291751Z 09008G16KT 2 1/2SM -FZRA BR OVC007 M01/M02 A3025 RMK AO2 SFC VIS 4 CIG 004V009 PRESFR SLP256 4/001 P0002 60020 T10111022 11011 21028 58027=
200501291651 METAR KATL 291651Z 09010KT 4SM -FZRA BR OVC007 M02/M02 A3031 RMK AO2 SLP275 P0002 T10171022=
200501291551 METAR KATL 291551Z 09010KT 5SM -FZRA BR OVC007 M02/M02 A3033 RMK AO2 FZRAB1453 CIG 006V010 SLP283 P0001 T10171022=
200501291453 SPECI KATL 291453Z 00000KT 4SM -FZRA BR BKN007 OVC012 M02/M03 A3033 RMK AO2 FZRAB53 CIG 005V010 P0000 $=
200501291453 SPECI KATL 291453Z 00000KT 4SM -FZRA BR BKN007 OVC012 M02/M03 A3033 RMK AO2 FZRAB53 CIG 005V010 P0000 $=
200501291451 METAR KATL 291451Z 10010KT 1 1/2SM BR OVC010 M02/M03 A3034 RMK AO2 FZRAB50FZRAEMMPLE13SNB13E50 SLP284 P0002 60015 T10221028 58004 $=
200501291421 SPECI KATL 291421Z 10010KT 1 1/4SM -SN BR OVC010 M02/M03 A3034 RMK AO2 TWR VIS 1 1/2 PLE13SNB13 P0001 $=
200501291421 SPECI KATL 291421Z 10010KT 1 1/4SM -SN BR OVC010 M02/M03 A3034 RMK AO2 TWR VIS 1 1/2 PLE13SNB13 P0001 $=
200501291412 SPECI KATL 291412Z 10010KT 3/4SM R09R/6000VP6000FT +PL BR OVC010 M02/M03 A3035 RMK AO2 TWR VIS 1 P0001 $=
200501291412 SPECI KATL 291412Z 10010KT 3/4SM R09R/6000VP6000FT +PL BR OVC010 M02/M03 A3035 RMK AO2 TWR VIS 1 P0001 $=
200501291403 SPECI KATL 291403Z 10012KT 2SM +PL BR OVC010 M02/M03 A3034 RMK AO2 CIG 006V013 P0001 $=
200501291403 SPECI KATL 291403Z 10012KT 2SM +PL BR OVC010 M02/M03 A3034 RMK AO2 CIG 006V013 P0001 $=
200501291351 METAR KATL 291351Z 10012KT 2SM +PL BR OVC008 M02/M03 A3034 RMK AO2 FZRAE37PLB37 CIG 006V012 SLP286 P0010 T10221033 $=
200501291342 SPECI KATL 291342Z 10012KT 2SM +PL BR OVC008 M02/M03 A3034 RMK AO2 FZRAE37PLB37 CIG 006V012 P0008 $=
200501291342 SPECI KATL 291342Z 10012KT 2SM +PL BR OVC008 M02/M03 A3034 RMK AO2 FZRAE37PLB37 CIG 006V012 P0008 $=
200501291311 SPECI KATL 291311Z 10012G18KT 2 1/2SM -FZRA BR BKN008 OVC012 M02/M03 A3035 RMK AO2 SFC VIS 3 CIG 005V010 P0001 $=
200501291311 SPECI KATL 291311Z 10012G18KT 2 1/2SM -FZRA BR BKN008 OVC012 M02/M03 A3035 RMK AO2 SFC VIS 3 CIG 005V010 P0001 $=
200501291251 METAR KATL 291251Z 10012G18KT 2 1/2SM -FZRA BR BKN010 OVC014 M02/M03 A3035 RMK AO2 SFC VIS 3 CIG 007V012 SLP288 FZRAB11 P0003 T10221033 $=
200501291217 SPECI KATL 291217Z 09016G21KT 2 1/2SM -FZRA BR OVC008 M02/M03 A3035 RMK AO2 SFC VIS 4 P0001 $=
200501291217 SPECI KATL 291217Z 09016G21KT 2 1/2SM -FZRA BR OVC008 M02/M03 A3035 RMK AO2 SFC VIS 4 P0001 $=
200501291151 METAR KATL 291151Z 08016G21KT 6SM BR OVC008 M03/M04 A3035 RMK AO2 PLE39 CIG 006V012 SLP288 4/001 P0005 60047 70056 T10281039 11022 21033 55010 $=
200501291114 SPECI KATL 291114Z 08013KT 3SM PL BR BKN008 BKN014 OVC019 M02/M03 A3035 RMK AO2 SFC VIS 3 CIG 006V012 P0004 $=
200501291114 SPECI KATL 291114Z 08013KT 3SM PL BR BKN008 BKN014 OVC019 M02/M03 A3035 RMK AO2 SFC VIS 3 CIG 006V012 P0004 $=
200501291057 SPECI KATL 291057Z 08013KT 3SM +PL BR FEW008 OVC017 M03/M03 A3035 RMK AO2 SFC VIS 3 P0001 $=
200501291057 SPECI KATL 291057Z 08013KT 3SM +PL BR FEW008 OVC017 M03/M03 A3035 RMK AO2 SFC VIS 3 P0001 $=
200501291051 METAR KATL 291051Z 08011KT 2SM +PL BR OVC017 M03/M04 A3035 RMK AO2 SFC VIS 2 1/2 SLP287 P0013 T10281039 $=
200501291024 SPECI KATL 291024Z 08008KT 1 3/4SM +PL BR FEW009 OVC015 M03/M04 A3037 RMK AO2 P0007 $=
200501291024 SPECI KATL 291024Z 08008KT 1 3/4SM +PL BR FEW009 OVC015 M03/M04 A3037 RMK AO2 P0007 $=
200501291006 SPECI KATL 291006Z 07011KT 2 1/2SM PL BR BKN013 OVC017 M03/M04 A3037 RMK AO2 P0004 $=
200501291006 SPECI KATL 291006Z 07011KT 2 1/2SM PL BR BKN013 OVC017 M03/M04 A3037 RMK AO2 P0004 $=
200501291001 SPECI KATL 291001Z 07011KT 3SM PL BR SCT010 OVC017 M03/M04 A3037 RMK AO2 P0002 $=
200501291001 SPECI KATL 291001Z 07011KT 3SM PL BR SCT010 OVC017 M03/M04 A3037 RMK AO2 P0002 $=
200501290951 METAR KATL 290951Z COR 07011KT 3SM PL BR SCT011 BKN015 OVC020 M03/M04 A3036 RMK AO2 FZRAE49PLB49 SLP293 P0012 T10281044=
200501290937 SPECI KATL 290937Z 00000KT 3SM FZRA BR BKN011 OVC019 M03/M04 A3035 RMK AO2 P0009=
200501290937 SPECI KATL 290937Z 00000KT 3SM FZRA BR BKN011 OVC019 M03/M04 A3035 RMK AO2 P0009=
200501290932 SPECI KATL 290932Z 00000KT 4SM -FZRA BR BKN009 BKN013 OVC020 M03/M04 A3035 RMK AO2 CIG 008V012 PRESFR P0008=
200501290932 SPECI KATL 290932Z 00000KT 4SM -FZRA BR BKN009 BKN013 OVC020 M03/M04 A3035 RMK AO2 CIG 008V012 PRESFR P0008=
200501290923 SPECI KATL 290923Z 00000KT 4SM -FZRA BR BKN011 OVC022 M03/M04 A3037 RMK AO2 P0006=
200501290923 SPECI KATL 290923Z 00000KT 4SM -FZRA BR BKN011 OVC022 M03/M04 A3037 RMK AO2 P0006=
200501290906 SPECI KATL 290906Z 00000KT 4SM FZRA BR BKN013 OVC022 M02/M04 A3038 RMK AO2 P0003=
200501290906 SPECI KATL 290906Z 00000KT 4SM FZRA BR BKN013 OVC022 M02/M04 A3038 RMK AO2 P0003=
200501290851 METAR KATL 290851Z 09009KT 5SM -FZRA BR SCT015 OVC022 M02/M04 A3038 RMK AO2 SLP298 P0011 60017 T10221039 56008=
200501290818 SPECI KATL 290818Z 09009KT 6SM -FZRA BR BKN022 OVC034 M02/M04 A3039 RMK AO2 P0007=
200501290818 SPECI KATL 290818Z 09009KT 6SM -FZRA BR BKN022 OVC034 M02/M04 A3039 RMK AO2 P0007=
200501290751 METAR KATL 290751Z 08013KT 4SM FZRA BR OVC022 M02/M04 A3039 RMK AO2 FZRAB21 SLP300 P0005 T10221044=
200501290727 SPECI KATL 290727Z 07016KT 10SM -FZRA OVC022 M03/M06 A3039 RMK AO2 FZRAB21 P0000=
200501290727 SPECI KATL 290727Z 07016KT 10SM -FZRA OVC022 M03/M06 A3039 RMK AO2 FZRAB21 P0000=
200501290651 METAR KATL 290651Z 08017G25KT 10SM OVC022 M03/M06 A3038 RMK AO2 FZRAE40 SLP299 P0001 T10281061=
200501290641 SPECI KATL 290641Z 08016G20KT 10SM OVC022 M03/M06 A3039 RMK AO2 FZRAE40 P0001=
200501290641 SPECI KATL 290641Z 08016G20KT 10SM OVC022 M03/M06 A3039 RMK AO2 FZRAE40 P0001=
200501290551 METAR KATL 290551Z 08018G22KT 9SM -FZRA OVC022 M02/M05 A3040 RMK AO2 SLP306 P0005 60009 T10221050 10011 21022 58018=
200501290511 SPECI KATL 290511Z 08015KT 8SM -FZRA BKN024 OVC035 M02/M05 A3043 RMK AO2 P0002=
200501290511 SPECI KATL 290511Z 08015KT 8SM -FZRA BKN024 OVC035 M02/M05 A3043 RMK AO2 P0002=
200501290451 METAR KATL 290451Z 09016G21KT 10SM -FZRA OVC035 M02/M06 A3043 RMK AO2 SLP315 P0001 T10171056 400671017=
200501290351 METAR KATL 290351Z 08017G22KT 10SM -FZRA OVC037 M02/M06 A3045 RMK AO2 SLP320 P0002 T10171061=
200501290251 METAR KATL 290251Z 09013KT 8SM -FZRA BKN035 OVC046 M01/M07 A3046 RMK AO2 SLP324 RAB0154E03FZRAB27PLB03E27 P0001 60001 T10061072 50000=
200501290233 SPECI KATL 290233Z 08013KT 10SM -FZRA OVC033 M01/M08 A3046 RMK AO2 RAB0154E03FZRAB27PLB03E27 P0000=
200501290233 SPECI KATL 290233Z 08013KT 10SM -FZRA OVC033 M01/M08 A3046 RMK AO2 RAB0154E03FZRAB27PLB03E27 P0000=
200501290151 METAR KATL 290151Z 08019G22KT 10SM OVC033 01/M13 A3046 RMK AO2 SLP325 T00061128=
200501290051 METAR KATL 290051Z 08017G25KT 10SM OVC033 01/M14 A3046 RMK AO2 SLP324 T00111144=
200501282351 METAR KATL 282351Z 09016G21KT 10SM OVC033 01/M16 A3046 RMK AO2 SLP323 60000 T00111156 10017 20006 51008=
200501282251 METAR KATL 282251Z 09016KT 10SM OVC033 01/M15 A3045 RMK AO2 SLP322 T00061150=
200501282151 METAR KATL 282151Z 08017G22KT 10SM OVC035 01/M16 A3046 RMK AO2 RAE00 SLP324 P0000 T00111156=
200501282051 METAR KATL 282051Z 08015KT 10SM -RA OVC035 01/M14 A3043 RMK AO2 RAB01PLB04E47 SLP313 P0000 60000 T00111144 56019=
200501282024 SPECI KATL 282024Z 07015KT 10SM -RAPL BKN035 BKN060 OVC100 01/M13 A3043 RMK AO2 RAB01PLB04 P0000=
200501282024 SPECI KATL 282024Z 07015KT 10SM -RAPL BKN035 BKN060 OVC100 01/M13 A3043 RMK AO2 RAB01PLB04 P0000=
200501282019 SPECI KATL 282019Z 08013KT 10SM -PL BKN035 BKN060 OVC100 01/M13 A3043 RMK AO2 RAB01E19PLB04 P0000=
200501282019 SPECI KATL 282019Z 08013KT 10SM -PL BKN035 BKN060 OVC100 01/M13 A3043 RMK AO2 RAB01E19PLB04 P0000=
200501282005 SPECI KATL 282005Z 09015G22KT 10SM -PLRA BKN035 BKN060 OVC100 02/M15 A3043 RMK AO2 RAB01PLB04 P0000=
200501282005 SPECI KATL 282005Z 09015G22KT 10SM -PLRA BKN035 BKN060 OVC100 02/M15 A3043 RMK AO2 RAB01PLB04 P0000=
200501281951 METAR KATL 281951Z 09018G21KT 10SM BKN038 BKN060 OVC100 02/M17 A3044 RMK AO2 SLP316 VIRGA OHD AND ALQDS T00171167=
200501281851 METAR KATL 281851Z 08019G22KT 10SM BKN040 BKN060 OVC100 02/M17 A3046 RMK AO2 SLP321 T00171172=
200501281751 METAR KATL 281751Z 08018KT 10SM FEW060 BKN100 OVC150 02/M17 A3049 RMK AO2 SLP332 T00171172 10022 20006 58012=
200501281651 METAR KATL 281651Z 08016G22KT 10SM SCT110 BKN150 OVC180 02/M16 A3051 RMK AO2 SLP339 T00171156=
200501281551 METAR KATL 281551Z 09016KT 10SM FEW120 BKN150 BKN180 01/M14 A3054 RMK AO2 PK WND 09028/1453 SLP348 T00111144=
200501281451 METAR KATL 281451Z 09019G27KT 10SM SCT120 BKN150 OVC180 01/M15 A3052 RMK AO2 PK WND 08027/1446 SLP343 T00061150 51019=
200501281351 METAR KATL 281351Z 10012G23KT 10SM BKN110 BKN150 BKN210 01/M12 A3051 RMK AO2 SLP340 T00061122=
200501281251 METAR KATL 281251Z 08019KT 10SM BKN110 BKN150 OVC210 01/M13 A3050 RMK AO2 PK WND 07026/1245 SLP333 T00111128=
200501281151 METAR KATL 281151Z 09019G25KT 10SM OVC110 02/M11 A3047 RMK AO2 PK WND 08029/1140 SLP322 T00221106 10061 20022 53018=
200501281051 METAR KATL 281051Z 08021G24KT 10SM BKN100 BKN120 OVC150 03/M09 A3044 RMK AO2 SLP314 T00281094=
200501280951 METAR KATL 280951Z 09018G22KT 10SM OVC100 03/M07 A3043 RMK AO2 SLP309 T00331067=
200501280851 METAR KATL 280851Z 09016G26KT 10SM OVC120 03/M04 A3041 RMK AO2 PK WND 08026/0849 SLP302 T00331044 50010=
200501280751 METAR KATL 280751Z 08017G24KT 10SM OVC150 04/M03 A3042 RMK AO2 SLP305 T00391033=
200501280651 METAR KATL 280651Z 09015G21KT 10SM OVC150 05/M03 A3040 RMK AO2 SLP300 T00501028=
200501280551 METAR KATL 280551Z 09012KT 10SM SCT150 06/M03 A3038 RMK AO2 SLP291 T00611028 10083 20061 51020=
200501280451 METAR KATL 280451Z 09014KT 10SM CLR 07/M03 A3036 RMK AO2 SLP286 T00671028 401220022=
200501280351 METAR KATL 280351Z 09013KT 10SM FEW250 07/M02 A3034 RMK AO2 SLP279 T00721022=
200501280251 METAR KATL 280251Z 09013KT 10SM FEW250 08/M01 A3032 RMK AO2 SLP272 T00781011 51021=
200501280151 METAR KATL 280151Z 10010KT 10SM SCT250 08/M01 A3031 RMK AO2 SLP268 T00831006=
200501280051 METAR KATL 280051Z 10008KT 10SM SCT250 08/00 A3028 RMK AO2 SLP260 T00830000=
200501272351 METAR KATL 272351Z 08009KT 10SM FEW220 SCT250 08/00 A3026 RMK AO2 SLP250 T00830000 10122 20078 51026=
200501272251 METAR KATL 272251Z 08009KT 10SM SCT230 SCT250 09/00 A3023 RMK AO2 SLP241 T00940000=
200501272151 METAR KATL 272151Z 07008KT 10SM FEW045 SCT240 SCT280 11/01 A3021 RMK AO2 SLP233 T01110006=
200501272051 METAR KATL 272051Z 06007KT 10SM FEW045 SCT280 12/00 A3018 RMK AO2 SLP223 T01220000 58004=
200501271951 METAR KATL 271951Z VRB05KT 10SM FEW045 SCT280 12/00 A3018 RMK AO2 SLP225 T01170000=
200501271851 METAR KATL 271851Z VRB04KT 10SM FEW040 SCT240 BKN280 11/00 A3019 RMK AO2 SLP225 T01060000=
200501271751 METAR KATL 271751Z 03009KT 10SM FEW240 SCT280 10/00 A3019 RMK AO2 SLP226 T01000000 10100 20022 50007=
200501271651 METAR KATL 271651Z 06009KT 10SM FEW280 09/M01 A3021 RMK AO2 SLP231 T00891006=
200501271551 METAR KATL 271551Z 02009KT 10SM FEW280 07/M02 A3019 RMK AO2 SLP227 T00721017=
200501271451 METAR KATL 271451Z 35011KT 10SM FEW280 05/M02 A3017 RMK AO2 SLP220 T00501017 53024=
200501271351 METAR KATL 271351Z 36015KT 8SM FEW200 04/M01 A3015 RMK AO2 SLP212 T00391011=
200501271251 METAR KATL 271251Z 34008KT 8SM SCT200 02/M02 A3011 RMK AO2 SLP200 T00221017=
200501271151 METAR KATL 271151Z 34009KT 10SM SCT200 02/M02 A3010 RMK AO2 SLP194 T00221017 10078 20022 53029=
200501271051 METAR KATL 271051Z 33010KT 9SM BKN200 03/M02 A3007 RMK AO2 SLP183 T00281017=
200501270951 METAR KATL 270951Z 34011KT 9SM OVC200 03/M01 A3003 RMK AO2 SLP170 T00331011=
200501270851 METAR KATL 270851Z 33013KT 7SM OVC200 03/M01 A3001 RMK AO2 SLP163 T00331006 51015=
200501270751 METAR KATL 270751Z 31015KT 6SM HZ OVC200 04/00 A3000 RMK AO2 SLP161 T00390000=
200501270651 METAR KATL 270651Z 32013KT 7SM SCT180 06/01 A2999 RMK AO2 SLP154 T00560011=
200501270551 METAR KATL 270551Z 31016KT 10SM CLR 08/02 A2996 RMK AO2 SLP146 T00780017 10161 20078 51020=
200501270451 METAR KATL 270451Z 34015KT 10SM CLR 11/03 A2995 RMK AO2 SLP141 T01060028 402060083=
200501270351 METAR KATL 270351Z 33010KT 10SM FEW045 13/05 A2993 RMK AO2 SLP132 T01280050=
200501270251 METAR KATL 270251Z 30009KT 10SM FEW045 13/08 A2990 RMK AO2 SLP125 T01280078 51010=
200501270151 METAR KATL 270151Z 26007KT 10SM FEW044 14/08 A2990 RMK AO2 SLP123 T01390083=
200501270051 METAR KATL 270051Z 26006KT 10SM SCT050 15/08 A2989 RMK AO2 SLP120 T01500078=
200501262351 METAR KATL 262351Z 28006KT 10SM FEW050 16/08 A2987 RMK AO2 SLP115 T01560078 10206 20156 53017=
200501262251 METAR KATL 262251Z 28009KT 10SM FEW050 17/08 A2985 RMK AO2 SLP105 T01720078=
200501262151 METAR KATL 262151Z 28011KT 10SM FEW050 19/08 A2984 RMK AO2 SLP100 T01890083=
200501262051 METAR KATL 262051Z 28012KT 10SM FEW050 20/08 A2982 RMK AO2 SLP095 T02000083 56008=
200501261951 METAR KATL 261951Z 25011KT 10SM FEW045 19/08 A2983 RMK AO2 SLP097 T01940083=
200501261851 METAR KATL 261851Z 29008KT 10SM FEW035 19/09 A2983 RMK AO2 SLP101 T01890089=
200501261751 METAR KATL 261751Z 25010KT 9SM FEW030 18/09 A2985 RMK AO2 SLP105 T01780089 10178 20089 58011=
200501261651 METAR KATL 261651Z 27010KT 8SM FEW025 16/09 A2987 RMK AO2 SLP113 T01610089=
200501261601 SPECI KATL 261601Z 26010KT 8SM FEW015 SCT023 15/09 A2989 RMK AO2=
200501261601 SPECI KATL 261601Z 26010KT 8SM FEW015 SCT023 15/09 A2989 RMK AO2=
200501261551 METAR KATL 261551Z 25013KT 8SM FEW015 BKN023 14/09 A2989 RMK AO2 SLP120 T01440089=
200501261451 METAR KATL 261451Z 25010G17KT 8SM OVC023 12/08 A2988 RMK AO2 SLP119 T01170078 53015=
200501261351 METAR KATL 261351Z 23007KT 7SM OVC021 11/06 A2986 RMK AO2 SLP111 T01060061=
200501261251 METAR KATL 261251Z 22008KT 10SM BKN023 BKN060 BKN150 09/05 A2983 RMK AO2 SLP104 T00940050=
200501261241 SPECI KATL 261241Z 25006KT 10SM BKN023 BKN060 BKN150 09/05 A2984 RMK AO2=
200501261241 SPECI KATL 261241Z 25006KT 10SM BKN023 BKN060 BKN150 09/05 A2984 RMK AO2=
200501261151 METAR KATL 261151Z 22007KT 10SM BKN060 BKN150 09/04 A2984 RMK AO2 SLP104 T00940044 10100 20083 55002=
200501261051 METAR KATL 261051Z 23009KT 10SM FEW046 BKN060 09/03 A2983 RMK AO2 SLP103 T00940033=
200501260951 METAR KATL 260951Z 24007KT 10SM SCT036 OVC065 10/02 A2984 RMK AO2 SLP104 T01000017=
200501260851 METAR KATL 260851Z 23009KT 10SM BKN041 OVC050 10/01 A2984 RMK AO2 SLP105 T01000006 56010=
200501260751 METAR KATL 260751Z 24007KT 10SM OVC050 09/M01 A2985 RMK AO2 SLP109 T00891011=
200501260651 METAR KATL 260651Z 23005KT 10SM CLR 08/M03 A2986 RMK AO2 SLP112 T00831028=
200501260551 METAR KATL 260551Z 22007KT 10SM FEW042 09/M03 A2987 RMK AO2 SLP116 T00941028 10111 20089 58009=
200501260451 METAR KATL 260451Z 23007KT 10SM FEW045 SCT110 11/M03 A2989 RMK AO2 SLP122 T01061028 401560000=
200501260351 METAR KATL 260351Z 24008KT 10SM SCT070 11/M03 A2990 RMK AO2 SLP127 T01061028=
200501260251 METAR KATL 260251Z 23007KT 10SM FEW110 10/M02 A2990 RMK AO2 SLP129 T01001022 56002=
200501260151 METAR KATL 260151Z 23009KT 10SM SCT100 11/M02 A2990 RMK AO2 SLP129 T01111022=
200501260051 METAR KATL 260051Z 21006KT 10SM CLR 11/M02 A2990 RMK AO2 SLP130 T01061022=
200501252351 METAR KATL 252351Z 20004KT 10SM FEW250 12/M02 A2991 RMK AO2 SLP132 T01171022 10156 20106 56006=
200501252251 METAR KATL 252251Z 23005KT 10SM SCT250 14/M03 A2991 RMK AO2 SLP133 T01391028=
200501252151 METAR KATL 252151Z 23010KT 10SM SCT250 15/M03 A2991 RMK AO2 SLP133 T01501028=
200501252051 METAR KATL 252051Z 26010KT 10SM FEW250 15/M04 A2992 RMK AO2 SLP136 T01501039 56030=
200501251951 METAR KATL 251951Z 25008KT 10SM FEW250 14/M06 A2995 RMK AO2 SLP145 T01441056=
200501251851 METAR KATL 251851Z 23010KT 10SM FEW250 13/M07 A2998 RMK AO2 SLP155 T01281067=
200501251751 METAR KATL 251751Z 25008KT 10SM FEW250 11/M07 A3002 RMK AO2 SLP169 T01111072 10111 20006 58020=
200501251651 METAR KATL 251651Z 21004KT 10SM FEW250 09/M08 A3006 RMK AO2 SLP182 T00891078=
200501251551 METAR KATL 251551Z 28009KT 10SM CLR 08/M08 A3007 RMK AO2 SLP188 T00781083=
200501251451 METAR KATL 251451Z 30009KT 10SM CLR 06/M09 A3008 RMK AO2 SLP191 60000 T00561089 53007=
200501251351 METAR KATL 251351Z 28007KT 10SM FEW120 03/M10 A3007 RMK AO2 SLP190 T00281100=
200501251251 METAR KATL 251251Z 26005KT 10SM FEW100 01/M11 A3006 RMK AO2 SLP186 T00111106=
200501251151 METAR KATL 251151Z 27006KT 10SM CLR 01/M11 A3006 RMK AO2 SLP185 T00111106 10022 20000 55005=
200501251051 METAR KATL 251051Z 28005KT 10SM CLR 00/M11 A3005 RMK AO2 SLP180 T00001106=
200501250951 METAR KATL 250951Z 27006KT 10SM FEW100 01/M11 A3005 RMK AO2 SLP182 T00061111=
200501250851 METAR KATL 250851Z 25005KT 10SM CLR 01/M12 A3007 RMK AO2 SLP188 T00111117 56011=
200501250751 METAR KATL 250751Z 26005KT 10SM CLR 01/M12 A3008 RMK AO2 SLP191 T00111117=
200501250651 METAR KATL 250651Z 25007KT 10SM CLR 02/M12 A3009 RMK AO2 SLP194 T00171117=
200501250551 METAR KATL 250551Z 26008KT 10SM CLR 02/M12 A3011 RMK AO2 SLP201 T00221117 10067 20022 58004=
200501250451 METAR KATL 250451Z 26007KT 10SM CLR 02/M11 A3012 RMK AO2 SLP208 T00221111 400941089=
200501250351 METAR KATL 250351Z 24008KT 10SM CLR 03/M12 A3012 RMK AO2 SLP207 T00331117=
200501250251 METAR KATL 250251Z 24007KT 10SM CLR 04/M12 A3012 RMK AO2 SLP209 T00391122 57000=
200501250151 METAR KATL 250151Z 24009KT 10SM CLR 05/M13 A3012 RMK AO2 SLP209 T00501133=
200501250051 METAR KATL 250051Z 24007KT 10SM CLR 06/M15 A3012 RMK AO2 SLP211 T00611150=
200501242351 METAR KATL 242351Z 23009KT 10SM FEW150 07/M16 A3012 RMK AO2 SLP211 T00671156 10094 20061 56013=
200501242251 METAR KATL 242251Z 23011KT 10SM FEW150 08/M16 A3013 RMK AO2 SLP211 T00831161=
200501242151 METAR KATL 242151Z 24010KT 10SM FEW150 09/M16 A3014 RMK AO2 SLP216 T00941161=
200501242051 METAR KATL 242051Z 22013KT 10SM FEW150 09/M16 A3016 RMK AO2 SLP222 T00941156 56039=
200501241951 METAR KATL 241951Z 25011KT 10SM FEW150 09/M17 A3019 RMK AO2 SLP231 T00891172=
200501241851 METAR KATL 241851Z 25009KT 10SM FEW150 08/M17 A3022 RMK AO2 SLP245 T00781172=
200501241751 METAR KATL 241751Z VRB05KT 10SM FEW150 06/M15 A3028 RMK AO2 SLP263 T00611150 10061 21089 58029=
200501241651 METAR KATL 241651Z 21010KT 10SM FEW150 03/M15 A3033 RMK AO2 SLP281 T00281150=
200501241551 METAR KATL 241551Z 21008KT 10SM FEW150 01/M14 A3036 RMK AO2 SLP291 T00061144=
200501241451 METAR KATL 241451Z 28005KT 10SM SCT150 M03/M13 A3037 RMK AO2 SLP297 T10281133 53008=
200501241351 METAR KATL 241351Z 00000KT 10SM SCT130 M06/M13 A3035 RMK AO2 SLP293 T10561133=
200501241251 METAR KATL 241251Z 00000KT 10SM SCT100 M08/M14 A3035 RMK AO2 SLP292 T10831144=
200501241151 METAR KATL 241151Z 29004KT 10SM CLR M09/M14 A3034 RMK AO2 SLP291 T10891144 11067 21089 53003=
200501241051 METAR KATL 241051Z 27004KT 10SM CLR M08/M14 A3033 RMK AO2 SLP287 T10831144=
200501240951 METAR KATL 240951Z 32005KT 10SM CLR M08/M14 A3033 RMK AO2 SLP285 T10831144=
200501240851 METAR KATL 240851Z 32005KT 10SM CLR M08/M15 A3033 RMK AO2 SLP286 T10781150 55000=
200501240751 METAR KATL 240751Z 32006KT 10SM CLR M07/M15 A3033 RMK AO2 SLP284 T10721150=
200501240651 METAR KATL 240651Z 31007KT 10SM CLR M07/M15 A3033 RMK AO2 SLP284 T10721150=
200501240551 METAR KATL 240551Z 30006KT 10SM CLR M07/M16 A3033 RMK AO2 SLP286 T10671156 11033 21067 53003=
200501240451 METAR KATL 240451Z 31007KT 10SM CLR M06/M16 A3032 RMK AO2 SLP281 T10561156 410061072=
200501240351 METAR KATL 240351Z 33009KT 10SM CLR M05/M16 A3032 RMK AO2 SLP282 T10501156=
200501240251 METAR KATL 240251Z 33010KT 10SM CLR M04/M16 A3032 RMK AO2 SLP284 T10441161 53007=
200501240151 METAR KATL 240151Z 33012G19KT 10SM CLR M04/M16 A3031 RMK AO2 SLP279 T10441161=
200501240051 METAR KATL 240051Z 33014KT 10SM CLR M04/M16 A3030 RMK AO2 SLP276 T10391161=
200501232351 METAR KATL 232351Z 34011KT 10SM CLR M03/M17 A3030 RMK AO2 SLP276 T10331167 11006 21033 51015=
200501232251 METAR KATL 232251Z 33012G18KT 10SM FEW210 M03/M17 A3029 RMK AO2 SLP272 T10281167=
200501232151 METAR KATL 232151Z 32013G23KT 10SM BKN210 BKN250 M02/M17 A3029 RMK AO2 SLP270 T10171167=
200501232051 METAR KATL 232051Z 34015G25KT 10SM BKN210 M01/M16 A3026 RMK AO2 PK WND 33029/2030 SLP259 T10111161 58006=
200501231951 METAR KATL 231951Z 32016G22KT 10SM SCT210 M02/M16 A3026 RMK AO2 PK WND 32026/1918 SLP261 T10171156=
200501231851 METAR KATL 231851Z 34017G25KT 10SM SCT210 M02/M15 A3027 RMK AO2 PK WND 31027/1824 SLP266 T10171150=
200501231751 METAR KATL 231751Z 33013G21KT 10SM FEW040 SCT210 M02/M14 A3027 RMK AO2 PK WND 33026/1658 SLP265 T10221139 11022 21072 50007=
200501231651 METAR KATL 231651Z 35015G26KT 10SM FEW040 SCT210 M03/M14 A3028 RMK AO2 PK WND 34026/1647 SLP265 T10331144=
200501231551 METAR KATL 231551Z 32020G25KT 10SM FEW035 SCT140 M04/M14 A3027 RMK AO2 PK WND 33029/1506 SLP263 T10441144=
200501231451 METAR KATL 231451Z COR 33017G24KT 10SM FEW035 M06/M14 A3025 RMK AO2 PK WND 33030/1420 SLP256 T10561144 51031=
200501231351 METAR KATL 231351Z 33018G22KT 10SM FEW030 M07/M14 A3021 RMK AO2 PK WND 32026/1335 SLP242 T10671144=
200501231251 METAR KATL 231251Z 33017G23KT 10SM FEW032 M07/M14 A3019 RMK AO2 PK WND 31028/1228 SLP236 T10721139=
200501231151 METAR KATL 231151Z 33019G26KT 10SM FEW032 M07/M14 A3016 RMK AO2 PK WND 34028/1136 SLP222 70001 T10721139 11061 21072 53017=
200501231051 METAR KATL 231051Z 33019G29KT 10SM BKN035 M07/M14 A3014 RMK AO2 PK WND 31032/1018 SLP213 T10671139=
200501230951 METAR KATL 230951Z 33017G23KT 10SM SCT033 M07/M14 A3012 RMK AO2 PK WND 33030/0939 SLP207 T10671139=
200501230851 METAR KATL 230851Z 32017G31KT 10SM SCT033 M07/M14 A3010 RMK AO2 PK WND 32034/0835 SLP202 T10671139 53015=
200501230751 METAR KATL 230751Z 31023G31KT 10SM SCT033 M07/M14 A3009 RMK AO2 PK WND 33033/0653 SLP198 T10671139=
200501230651 METAR KATL 230651Z 31021G31KT 10SM FEW032 M07/M14 A3007 RMK AO2 PK WND 32035/0555 SLP191 T10671144=
200501230551 METAR KATL 230551Z 32023G33KT 10SM FEW035 M06/M14 A3006 RMK AO2 PK WND 29035/0457 SLP188 T10611139 10056 21061 51040=
200501230451 METAR KATL 230451Z 30022G29KT 10SM CLR M04/M12 A3004 RMK AO2 PK WND 29035/0357 SLP180 T10391117 401501039=
200501230351 METAR KATL 230351Z COR 31020G37KT 10SM FEW034 M02/M09 A2998 RMK AO2 PK WND 32037/0345 SLP162 T10171094=
200501230251 METAR KATL 230251Z 31023G27KT 10SM BKN034 BKN055 02/M04 A2994 RMK AO2 PK WND 32042/0213 PRESRR SLP145 T00171044 53038=
200501230151 METAR KATL 230151Z 29018G26KT 10SM FEW039 SCT049 05/M02 A2986 RMK AO2 PK WND 29026/0147 SLP115 T00501017=
200501230051 METAR KATL 230051Z 29013G24KT 10SM FEW043 05/M01 A2986 RMK AO2 PK WND 29035/0002 SLP115 T00501011=
200501222351 METAR KATL 222351Z 30023G29KT 10SM FEW030 06/M01 A2982 RMK AO2 PK WND 30039/2333 SLP104 60001 T00561011 10150 20056 53035=
200501222251 METAR KATL 222251Z 30020G24KT 9SM FEW034 SCT046 11/07 A2975 RMK AO2 PK WND 30026/2211 WSHFT 2201 SLP078 T01110067=
200501222221 SPECI KATL 222221Z 31017KT 6SM HZ BKN044 BKN055 12/09 A2973 RMK AO2 PK WND 30026/2211 WSHFT 2201=
200501222221 SPECI KATL 222221Z 31017KT 6SM HZ BKN044 BKN055 12/09 A2973 RMK AO2 PK WND 30026/2211 WSHFT 2201=
200501222151 METAR KATL 222151Z 26012KT 5SM HZ FEW035 BKN055 BKN065 14/11 A2971 RMK AO2 SLP061 T01440111=
200501222128 SPECI KATL 222128Z 24007KT 4SM BR FEW025 SCT040 SCT055 12/11 A2971 RMK AO2=
200501222128 SPECI KATL 222128Z 24007KT 4SM BR FEW025 SCT040 SCT055 12/11 A2971 RMK AO2=
200501222110 SPECI KATL 222110Z 22006KT 2SM BR FEW002 BKN033 BKN041 11/11 A2971 RMK AO2=
200501222110 SPECI KATL 222110Z 22006KT 2SM BR FEW002 BKN033 BKN041 11/11 A2971 RMK AO2=
200501222105 SPECI KATL 222105Z 23007KT 1SM BR FEW002 BKN030 BKN050 11/11 A2972 RMK AO2 SFC VIS 2=
200501222105 SPECI KATL 222105Z 23007KT 1SM BR FEW002 BKN030 BKN050 11/11 A2972 RMK AO2 SFC VIS 2=
200501222051 METAR KATL 222051Z 23008KT 1SM BR BKN002 BKN005 BKN035 11/11 A2972 RMK AO2 SFC VIS 2 DZE35 SLP064 P0000 60001 T01110106 56033=
200501222040 SPECI KATL 222040Z 23007KT 1SM R09R/6000VP6000FT BR VV002 11/11 A2972 RMK AO2 SFC VIS 2 DZE35 P0000=
200501222040 SPECI KATL 222040Z 23007KT 1SM R09R/6000VP6000FT BR VV002 11/11 A2972 RMK AO2 SFC VIS 2 DZE35 P0000=
200501222016 SPECI KATL 222016Z 21010KT 1/8SM R09R/1600V2800FT -DZ FG VV002 09/09 A2972 RMK AO2 SFC VIS 1/4 P0000=
200501222016 SPECI KATL 222016Z 21010KT 1/8SM R09R/1600V2800FT -DZ FG VV002 09/09 A2972 RMK AO2 SFC VIS 1/4 P0000=
200501221951 METAR KATL 221951Z 20007KT 1/8SM R09R/1600V2000FT -DZ FG VV001 08/08 A2974 RMK AO2 SFC VIS 1/2 SLP075 P0000 T00830083=
200501221851 METAR KATL 221851Z 21004KT 1/8SM R09R/2800V3500FT -DZ FG OVC003 07/07 A2978 RMK AO2 SFC VIS 1/2 SLP086 P0001 T00720072=
200501221751 METAR KATL 221751Z 16004KT 1/8SM R09R/2800V3500FT DZ FG OVC002 06/05 A2982 RMK AO2 SFC VIS 1/4 SLP100 P0000 60000 T00560050 10056 20039 58040=
200501221728 SPECI KATL 221728Z 15003KT 1/8SM R09R/2000V2800FT DZ FG OVC001 05/05 A2984 RMK AO2 SFC VIS 1/4 P0000=
200501221728 SPECI KATL 221728Z 15003KT 1/8SM R09R/2000V2800FT DZ FG OVC001 05/05 A2984 RMK AO2 SFC VIS 1/4 P0000=
200501221651 METAR KATL 221651Z 13007KT 1/8SM R09R/1200V1400FT DZ FG VV001 05/04 A2987 RMK AO2 SFC VIS 1/4 SLP118 P0000 T00500044=
200501221640 SPECI KATL 221640Z 13005KT 1/8SM R09R/1200V1600FT -DZ FG VV001 04/04 A2988 RMK AO2 SFC VIS 1/4 P0000=
200501221640 SPECI KATL 221640Z 13005KT 1/8SM R09R/1200V1600FT -DZ FG VV001 04/04 A2988 RMK AO2 SFC VIS 1/4 P0000=
200501221630 SPECI KATL 221630Z 12004KT 1/8SM R09R/1400V2000FT -DZ FG OVC002 04/04 A2989 RMK AO2 SFC VIS 1/4 P0000=
200501221630 SPECI KATL 221630Z 12004KT 1/8SM R09R/1400V2000FT -DZ FG OVC002 04/04 A2989 RMK AO2 SFC VIS 1/4 P0000=
200501221551 METAR KATL 221551Z 11007KT 1/8SM R09R/2000V3000FT -DZ FG OVC002 04/04 A2991 RMK AO2 SFC VIS 1/2 DZB42 SLP132 P0000 T00440039=
200501221512 SPECI KATL 221512Z 11006KT 1/8SM R09R/3000V4500FT FG OVC002 04/04 A2994 RMK AO2 SFC VIS 1/2=
200501221512 SPECI KATL 221512Z 11006KT 1/8SM R09R/3000V4500FT FG OVC002 04/04 A2994 RMK AO2 SFC VIS 1/2=
200501221451 METAR KATL 221451Z 10008KT 1/4SM R09R/4000V6000FT BR OVC003 04/03 A2994 RMK AO2 SFC VIS 1 SLP142 T00390033 56016=
200501221430 SPECI KATL 221430Z 11007KT 1/2SM R09R/6000VP6000FT BR OVC003 04/03 A2994 RMK AO2 SFC VIS 1 1/2=
200501221430 SPECI KATL 221430Z 11007KT 1/2SM R09R/6000VP6000FT BR OVC003 04/03 A2994 RMK AO2 SFC VIS 1 1/2=
200501221420 SPECI KATL 221420Z 13007KT 1SM BR OVC003 04/03 A2994 RMK AO2 SFC VIS 1 1/4=
200501221420 SPECI KATL 221420Z 13007KT 1SM BR OVC003 04/03 A2994 RMK AO2 SFC VIS 1 1/4=
200501221351 METAR KATL 221351Z 12008KT 1SM BR OVC005 04/03 A2995 RMK AO2 SFC VIS 2 1/2 SLP145 T00390028=
200501221251 METAR KATL 221251Z 09010KT 2SM BR OVC007 04/02 A2997 RMK AO2 SFC VIS 5 SLP151 T00390022=
200501221218 SPECI KATL 221218Z 11010KT 6SM BR OVC009 04/02 A2998 RMK AO2=
200501221218 SPECI KATL 221218Z 11010KT 6SM BR OVC009 04/02 A2998 RMK AO2=
200501221151 METAR KATL 221151Z 10010KT 7SM OVC011 04/02 A2999 RMK AO2 SLP156 T00440017 10083 20044 58002=
200501221051 METAR KATL 221051Z 08011KT 8SM OVC013 04/02 A3000 RMK AO2 SLP161 T00440017=
200501220951 METAR KATL 220951Z 08012KT 8SM BKN017 04/02 A2999 RMK AO2 SLP157 T00440017=
200501220944 SPECI KATL 220944Z 07012KT 8SM BKN019 05/02 A3000 RMK AO2=
200501220944 SPECI KATL 220944Z 07012KT 8SM BKN019 05/02 A3000 RMK AO2=
200501220851 METAR KATL 220851Z 08012KT 9SM BKN200 06/02 A3000 RMK AO2 SLP157 T00560017 55005=
200501220751 METAR KATL 220751Z 09011KT 10SM BKN200 07/02 A2999 RMK AO2 SLP155 T00670017=
200501220651 METAR KATL 220651Z 09011KT 10SM BKN200 07/02 A3000 RMK AO2 SLP158 T00720017=
200501220551 METAR KATL 220551Z 09011KT 10SM CLR 08/02 A3001 RMK AO2 SLP162 T00830017 10161 20083 50001=
200501220451 METAR KATL 220451Z 08011KT 10SM FEW250 08/02 A3002 RMK AO2 SLP165 T00830017 401940050=
200501220351 METAR KATL 220351Z 08011KT 10SM FEW250 09/02 A3002 RMK AO2 SLP165 T00940022=
200501220251 METAR KATL 220251Z 08011KT 10SM CLR 11/04 A3001 RMK AO2 SLP162 T01060039 51015=
200501220151 METAR KATL 220151Z 06008KT 10SM CLR 14/06 A2999 RMK AO2 SLP157 T01390056=
200501220051 METAR KATL 220051Z 01004KT 10SM CLR 16/06 A2999 RMK AO2 SLP154 T01560061=
200501212351 METAR KATL 212351Z 00000KT 10SM CLR 16/06 A2996 RMK AO2 SLP147 T01610061 10194 20156 53012=
200501212251 METAR KATL 212251Z 26004KT 10SM FEW250 18/06 A2996 RMK AO2 SLP144 T01780056=
200501212151 METAR KATL 212151Z 27005KT 10SM FEW250 19/06 A2993 RMK AO2 SLP136 T01890056=
200501212051 METAR KATL 212051Z 27006KT 10SM CLR 19/07 A2993 RMK AO2 SLP133 T01940067 55007=
200501211951 METAR KATL 211951Z 23005KT 10SM CLR 18/06 A2993 RMK AO2 SLP133 T01830061=
200501211851 METAR KATL 211851Z 27006KT 10SM CLR 18/06 A2993 RMK AO2 SLP134 T01780061=
200501211751 METAR KATL 211751Z 32004KT 8SM CLR 16/06 A2995 RMK AO2 SLP142 T01610061 10161 20050 58005=
200501211651 METAR KATL 211651Z 33003KT 8SM CLR 14/06 A2998 RMK AO2 SLP151 T01390061=
200501211551 METAR KATL 211551Z 30005KT 9SM CLR 12/06 A2998 RMK AO2 SLP154 T01220061=
200501211451 METAR KATL 211451Z 30009KT 6SM HZ CLR 11/06 A2996 RMK AO2 SLP148 T01060061 53020=
200501211351 METAR KATL 211351Z 27005KT 10SM FEW230 08/06 A2994 RMK AO2 SLP142 T00830056=
200501211251 METAR KATL 211251Z 25005KT 10SM FEW230 06/03 A2993 RMK AO2 SLP137 T00560033=
200501211151 METAR KATL 211151Z 28006KT 10SM CLR 06/03 A2991 RMK AO2 SLP130 T00560028 10089 20056 53003 $=
200501211051 METAR KATL 211051Z 28006KT 10SM CLR 06/03 A2989 RMK AO2 SLP123 T00560028=
200501210951 METAR KATL 210951Z 26005KT 10SM CLR 07/03 A2989 RMK AO2 SLP122 T00670028=
200501210851 METAR KATL 210851Z 23005KT 10SM CLR 07/02 A2990 RMK AO2 SLP124 T00720022 56009=
200501210751 METAR KATL 210751Z 24004KT 10SM CLR 07/02 A2990 RMK AO2 SLP126 T00720022=
200501210651 METAR KATL 210651Z 25006KT 10SM SCT090 08/02 A2991 RMK AO2 SLP131 T00780022=
200501210551 METAR KATL 210551Z 25008KT 10SM SCT090 09/02 A2992 RMK AO2 SLP134 T00890017 10106 20083 56006=
200501210451 METAR KATL 210451Z 25011KT 10SM FEW250 10/02 A2993 RMK AO2 SLP137 T01000017 401501006=
200501210351 METAR KATL 210351Z 23008KT 10SM FEW250 09/01 A2993 RMK AO2 SLP138 T00890006=
200501210251 METAR KATL 210251Z 24006KT 10SM FEW250 09/00 A2994 RMK AO2 SLP144 T00890000 56011=
200501210151 METAR KATL 210151Z 24003KT 10SM FEW200 SCT250 09/M01 A2996 RMK AO2 SLP149 T00891011=
200501210051 METAR KATL 210051Z 23005KT 10SM FEW200 SCT250 09/M02 A2996 RMK AO2 SLP150 T00941017=
200501202351 METAR KATL 202351Z 27006KT 10SM FEW120 SCT200 SCT250 10/M02 A2998 RMK AO2 SLP156 T01001022 10150 20100 53002=
200501202251 METAR KATL 202251Z 30007KT 10SM FEW120 SCT200 SCT250 13/M02 A2997 RMK AO2 SLP154 T01281022=
200501202151 METAR KATL 202151Z 29010KT 10SM FEW120 SCT200 SCT300 14/M02 A2997 RMK AO2 SLP152 T01441017=
200501202051 METAR KATL 202051Z 26009KT 10SM FEW120 SCT200 SCT300 14/M02 A2997 RMK AO2 SLP152 T01441017 56023=
200501201951 METAR KATL 201951Z 27008G15KT 10SM FEW120 SCT200 BKN300 14/M01 A2997 RMK AO2 SLP153 T01391006=
200501201851 METAR KATL 201851Z 31013KT 10SM FEW300 12/M01 A3000 RMK AO2 SLP163 T01221011=
200501201751 METAR KATL 201751Z 30010KT 10SM FEW300 11/00 A3004 RMK AO2 SLP178 T01110000 10111 20000 58027=
200501201651 METAR KATL 201651Z 29010KT 10SM FEW120 SCT300 09/00 A3009 RMK AO2 SLP196 T00890000=
200501201551 METAR KATL 201551Z 28010KT 10SM FEW120 SCT200 SCT300 06/M01 A3012 RMK AO2 SLP206 T00611011=
200501201451 METAR KATL 201451Z 29011KT 10SM FEW200 SCT300 04/M02 A3012 RMK AO2 SLP207 T00391022 51009=
200501201351 METAR KATL 201351Z 30009KT 10SM FEW210 SCT250 02/M03 A3011 RMK AO2 SLP205 T00221028=
200501201251 METAR KATL 201251Z 30007KT 10SM FEW150 SCT210 01/M04 A3011 RMK AO2 SLP204 T00061039=
200501201151 METAR KATL 201151Z 29008KT 10SM FEW210 00/M04 A3010 RMK AO2 SLP199 T00001039 10017 21006 55006=
200501201051 METAR KATL 201051Z 29008KT 10SM FEW210 00/M04 A3009 RMK AO2 SLP197 T00001044=
200501200951 METAR KATL 200951Z 28006KT 10SM FEW210 00/M05 A3009 RMK AO2 SLP199 T00001050=
200501200851 METAR KATL 200851Z 28007KT 10SM FEW210 01/M05 A3011 RMK AO2 SLP205 T00061050 56009=
200501200751 METAR KATL 200751Z 28006KT 10SM SCT210 01/M06 A3012 RMK AO2 SLP208 T00111056=
200501200651 METAR KATL 200651Z 29008KT 10SM SCT210 02/M06 A3013 RMK AO2 SLP210 T00171056=
200501200551 METAR KATL 200551Z 28009KT 10SM FEW150 SCT250 02/M06 A3014 RMK AO2 SLP214 T00171061 10044 20011 58008=
200501200451 METAR KATL 200451Z 26006KT 10SM SCT250 01/M07 A3016 RMK AO2 SLP221 T00111067 400561039=
200501200351 METAR KATL 200351Z 23005KT 10SM SCT250 02/M07 A3016 RMK AO2 SLP222 T00171067=
200501200251 METAR KATL 200251Z 24005KT 10SM FEW060 BKN250 03/M07 A3017 RMK AO2 SLP224 T00281072 50000=
200501200151 METAR KATL 200151Z 26006KT 10SM FEW065 BKN250 03/M07 A3017 RMK AO2 SLP227 T00331072=
200501200051 METAR KATL 200051Z 25009KT 10SM FEW060 BKN250 04/M08 A3017 RMK AO2 SLP225 T00441078=
200501192351 METAR KATL 192351Z 23007KT 10SM FEW035 SCT060 SCT250 04/M08 A3017 RMK AO2 SLP225 T00441083 10056 20028 56010=
200501192251 METAR KATL 192251Z 24010KT 10SM FEW035 SCT050 SCT250 05/M08 A3017 RMK AO2 SLP225 T00501083=
200501192151 METAR KATL 192151Z 24009G16KT 10SM FEW035 SCT050 SCT250 06/M09 A3018 RMK AO2 SLP228 T00561089=
200501192051 METAR KATL 192051Z 24012KT 10SM FEW040 BKN050 05/M10 A3020 RMK AO2 SLP234 T00501100 56030=
200501191951 METAR KATL 191951Z 24012KT 10SM OVC050 04/M09 A3022 RMK AO2 SLP244 T00391094=
200501191851 METAR KATL 191851Z 24008KT 10SM FEW035 BKN050 OVC120 03/M09 A3025 RMK AO2 SLP254 T00331094=
200501191751 METAR KATL 191751Z 23013KT 10SM BKN040 BKN060 OVC120 03/M09 A3029 RMK AO2 SLP266 T00281094 10028 21039 58031=
200501191651 METAR KATL 191651Z 23010KT 10SM BKN050 OVC060 02/M09 A3035 RMK AO2 SLP287 T00221089=
200501191551 METAR KATL 191551Z 21008KT 10SM BKN060 BKN180 BKN250 01/M09 A3036 RMK AO2 SLP292 T00111089=
200501191451 METAR KATL 191451Z 19009KT 10SM FEW060 SCT120 BKN180 BKN250 M01/M11 A3038 RMK AO2 SLP300 T10111106 58006=
200501191351 METAR KATL 191351Z 20007KT 10SM FEW100 BKN150 BKN210 BKN250 M03/M12 A3040 RMK AO2 SLP305 T10281122=
200501191251 METAR KATL 191251Z 21003KT 10SM SCT100 SCT150 BKN210 BKN250 M04/M12 A3041 RMK AO2 SLP310 T10391122=
200501191151 METAR KATL 191151Z 19003KT 10SM FEW150 SCT210 M04/M12 A3040 RMK AO2 SLP307 T10391122 11017 21039 56013=
200501191051 METAR KATL 191051Z 17004KT 10SM CLR M03/M12 A3041 RMK AO2 SLP308 T10331122=
200501190951 METAR KATL 190951Z 15003KT 10SM CLR M03/M12 A3042 RMK AO2 SLP313 T10331122=
200501190851 METAR KATL 190851Z 15004KT 10SM CLR M03/M12 A3044 RMK AO2 SLP319 T10331122 56019=
200501190751 METAR KATL 190751Z 00000KT 10SM CLR M03/M12 A3046 RMK AO2 SLP327 T10281122=
200501190651 METAR KATL 190651Z 13003KT 10SM CLR M03/M12 A3047 RMK AO2 SLP329 T10281122=
200501190551 METAR KATL 190551Z 13005KT 10SM CLR M02/M13 A3050 RMK AO2 SLP339 T10171133 10017 21017 58015=
200501190451 METAR KATL 190451Z 14006KT 10SM CLR M01/M13 A3052 RMK AO2 SLP347 T10111133 400391072=
200501190351 METAR KATL 190351Z 13004KT 10SM CLR M01/M13 A3053 RMK AO2 SLP352 T10111133=
200501190251 METAR KATL 190251Z 12004KT 10SM CLR 00/M14 A3054 RMK AO2 SLP356 T00001144 53001=
200501190151 METAR KATL 190151Z 12005KT 10SM CLR 01/M14 A3053 RMK AO2 SLP351 T00061139=
200501190051 METAR KATL 190051Z 13004KT 10SM CLR 01/M13 A3053 RMK AO2 SLP351 T00061133=
200501182351 METAR KATL 182351Z 13004KT 10SM FEW250 02/M14 A3054 RMK AO2 SLP354 T00171139 10039 20011 55001=
200501182251 METAR KATL 182251Z 16004KT 9SM FEW250 03/M15 A3053 RMK AO2 SLP352 T00281150=
200501182151 METAR KATL 182151Z 17003KT 10SM FEW250 03/M17 A3053 RMK AO2 SLP349 T00331172=
200501182051 METAR KATL 182051Z VRB03KT 10SM FEW250 04/M17 A3054 RMK AO2 SLP354 T00391167 56021=
200501181951 METAR KATL 181951Z 19005KT 10SM FEW250 03/M16 A3056 RMK AO2 SLP359 T00331161=
200501181851 METAR KATL 181851Z VRB04KT 10SM FEW250 02/M16 A3058 RMK AO2 SLP367 T00221161=
200501181751 METAR KATL 181751Z VRB03KT 10SM FEW250 01/M17 A3061 RMK AO2 SLP377 T00061172 10011 21072 58016=
200501181651 METAR KATL 181651Z 12004KT 10SM FEW250 M01/M16 A3064 RMK AO2 SLP389 T10061161=
200501181551 METAR KATL 181551Z VRB04KT 10SM FEW250 M01/M17 A3066 RMK AO2 SLP395 T10111167=
200501181451 METAR KATL 181451Z VRB04KT 10SM FEW250 M04/M16 A3065 RMK AO2 SLP394 T10391161 51025=
200501181351 METAR KATL 181351Z 35007KT 10SM FEW150 M06/M16 A3063 RMK AO2 SLP386 T10611161=
200501181251 METAR KATL 181251Z 32005KT 10SM FEW110 M07/M16 A3061 RMK AO2 SLP380 T10671161=
200501181151 METAR KATL 181151Z 33009KT 10SM CLR M07/M16 A3058 RMK AO2 SLP369 T10671161 11044 21067 53004=
200501181051 METAR KATL 181051Z 34008KT 10SM SCT110 M06/M16 A3057 RMK AO2 SLP366 T10611161=
200501180951 METAR KATL 180951Z COR 33005KT 10SM FEW110 M06/M16 A3057 RMK AO2 SLP365 T10611161=
200501180851 METAR KATL 180851Z 33009KT 10SM BKN120 M06/M16 A3056 RMK AO2 SLP363 T10561161 50004=
200501180751 METAR KATL 180751Z 32010KT 10SM CLR M06/M16 A3057 RMK AO2 SLP363 T10561161=
200501180651 METAR KATL 180651Z 32009KT 10SM CLR M05/M17 A3056 RMK AO2 SLP361 T10501167=
200501180551 METAR KATL 180551Z 32010KT 10SM CLR M04/M16 A3055 RMK AO2 SLP359 T10441161 11011 21044 53005=
200501180451 METAR KATL 180451Z 33008KT 10SM CLR M04/M16 A3055 RMK AO2 SLP358 T10391161 400281067=
200501180351 METAR KATL 180351Z 34010KT 10SM CLR M03/M16 A3054 RMK AO2 SLP355 T10331161=
200501180251 METAR KATL 180251Z 32014G18KT 10SM CLR M03/M16 A3054 RMK AO2 SLP355 T10281161 51006=
200501180151 METAR KATL 180151Z 34015KT 10SM CLR M02/M16 A3053 RMK AO2 SLP354 T10221156=
200501180051 METAR KATL 180051Z 33011KT 10SM CLR M02/M16 A3053 RMK AO2 SLP354 T10171161=
200501172351 METAR KATL 172351Z 33011KT 10SM CLR M01/M16 A3052 RMK AO2 SLP350 T10111156 10028 21011 53012=
200501172251 METAR KATL 172251Z 32013KT 10SM FEW075 00/M16 A3050 RMK AO2 SLP343 T00001156=
200501172151 METAR KATL 172151Z 35012KT 10SM CLR 02/M16 A3049 RMK AO2 SLP338 T00171156=
200501172051 METAR KATL 172051Z 32016G20KT 10SM FEW220 02/M16 A3049 RMK AO2 SLP336 T00171156 55009=
200501171951 METAR KATL 171951Z 31011KT 10SM FEW220 02/M14 A3047 RMK AO2 SLP331 T00221144=
200501171851 METAR KATL 171851Z 32012G17KT 10SM FEW200 02/M14 A3049 RMK AO2 SLP335 T00171139=
200501171751 METAR KATL 171751Z 32010KT 10SM FEW250 01/M13 A3051 RMK AO2 SLP344 T00111133 10011 21067 58006=
200501171651 METAR KATL 171651Z 33013KT 10SM FEW250 M01/M13 A3054 RMK AO2 SLP356 T10061133=
200501171551 METAR KATL 171551Z 33013KT 10SM FEW250 M02/M13 A3055 RMK AO2 SLP358 T10171133=
200501171451 METAR KATL 171451Z 35011KT 10SM FEW250 M04/M12 A3053 RMK AO2 SLP352 T10391122 53012=
200501171351 METAR KATL 171351Z 32014KT 10SM FEW210 M06/M12 A3051 RMK AO2 SLP346 T10561117=
200501171251 METAR KATL 171251Z 33013KT 10SM FEW210 M07/M12 A3050 RMK AO2 SLP343 T10671117=
200501171151 METAR KATL 171151Z 32013KT 10SM CLR M07/M12 A3049 RMK AO2 SLP339 T10671117 11033 21067 53013=
200501171051 METAR KATL 171051Z 32014G21KT 10SM CLR M06/M12 A3047 RMK AO2 SLP329 T10611117=
200501170951 METAR KATL 170951Z 32014G21KT 10SM CLR M06/M11 A3047 RMK AO2 SLP327 T10561111=
200501170851 METAR KATL 170851Z 32013KT 10SM CLR M06/M11 A3045 RMK AO2 SLP320 T10561111 53011=
200501170751 METAR KATL 170751Z 32012KT 10SM CLR M05/M11 A3045 RMK AO2 SLP318 T10501106=
200501170651 METAR KATL 170651Z 32011KT 10SM CLR M04/M11 A3043 RMK AO2 SLP311 T10441106=
200501170551 METAR KATL 170551Z 32016G23KT 10SM CLR M03/M10 A3042 RMK AO2 SLP309 T10331100 10028 21033 50014=
200501170451 METAR KATL 170451Z 32019G24KT 10SM CLR M03/M09 A3042 RMK AO2 SLP309 T10331094 401331033=
200501170351 METAR KATL 170351Z 33017G23KT 10SM FEW032 M03/M09 A3040 RMK AO2 SLP304 T10281094=
200501170251 METAR KATL 170251Z 32017G24KT 10SM FEW032 M02/M09 A3038 RMK AO2 PK WND 32028/0233 SLP295 T10221089 51022=
200501170151 METAR KATL 170151Z 32019G28KT 10SM CLR M01/M08 A3036 RMK AO2 PK WND 32029/0123 SLP290 T10111078=
200501170051 METAR KATL 170051Z 33016G25KT 10SM SCT032 01/M06 A3034 RMK AO2 SLP284 T00061061=
200501162351 METAR KATL 162351Z 31017G22KT 10SM CLR 03/M04 A3031 RMK AO2 SLP272 T00281044 10133 20028 51024=
200501162251 METAR KATL 162251Z 32018G26KT 10SM CLR 06/M05 A3029 RMK AO2 PK WND 31030/2204 SLP262 T00561050=
200501162151 METAR KATL 162151Z 31018G24KT 10SM FEW080 09/M03 A3027 RMK AO2 PK WND 31028/2105 SLP257 T00891033=
200501162051 METAR KATL 162051Z 30015G24KT 10SM FEW080 12/M03 A3024 RMK AO2 SLP244 T01171028 56020=
200501161951 METAR KATL 161951Z 30013KT 10SM FEW080 13/M04 A3024 RMK AO2 SLP245 T01281039=
200501161851 METAR KATL 161851Z 29014G17KT 10SM CLR 12/M03 A3026 RMK AO2 SLP252 T01221028=
200501161751 METAR KATL 161751Z 32007KT 10SM CLR 11/M02 A3030 RMK AO2 SLP264 T01111022 10111 20028 58033=
200501161651 METAR KATL 161651Z 32011KT 10SM CLR 09/M02 A3036 RMK AO2 SLP286 T00941017=
200501161551 METAR KATL 161551Z 31009KT 10SM CLR 08/M02 A3040 RMK AO2 SLP298 T00781017=
200501161451 METAR KATL 161451Z 00000KT 10SM CLR 06/M03 A3040 RMK AO2 SLP300 T00611028 51008=
200501161351 METAR KATL 161351Z 03009KT 10SM FEW200 04/M04 A3040 RMK AO2 SLP300 T00441039=
200501161251 METAR KATL 161251Z 02009KT 10SM SCT200 03/M04 A3039 RMK AO2 SLP298 T00281039=
200501161151 METAR KATL 161151Z 03008KT 10SM SCT200 03/M04 A3038 RMK AO2 SLP291 T00331039 10056 20028 53002=
200501161051 METAR KATL 161051Z 04009KT 10SM SCT200 03/M04 A3036 RMK AO2 SLP287 T00281044=
200501160951 METAR KATL 160951Z 03010KT 10SM CLR 03/M05 A3037 RMK AO2 SLP290 T00331050=
200501160851 METAR KATL 160851Z 04010KT 10SM SCT200 04/M06 A3037 RMK AO2 SLP289 T00391056 58014=
200501160751 METAR KATL 160751Z 04010KT 10SM SCT200 04/M05 A3040 RMK AO2 SLP298 T00441050=
200501160651 METAR KATL 160651Z 04012KT 10SM BKN200 05/M04 A3039 RMK AO2 SLP297 T00501039=
200501160551 METAR KATL 160551Z 04013KT 10SM BKN200 06/M04 A3041 RMK AO2 SLP304 T00561039 10083 20056 58014=
200501160451 METAR KATL 160451Z 04010KT 10SM OVC200 06/M04 A3045 RMK AO2 SLP314 T00561039 401060011=
200501160351 METAR KATL 160351Z 05011KT 10SM BKN200 06/M03 A3045 RMK AO2 SLP317 T00611033=
200501160251 METAR KATL 160251Z 06009KT 10SM BKN200 06/M04 A3046 RMK AO2 SLP319 T00611039 51005=
200501160151 METAR KATL 160151Z 06011KT 10SM BKN200 07/M04 A3046 RMK AO2 SLP319 T00721044=
200501160051 METAR KATL 160051Z 06011KT 10SM BKN200 07/M05 A3045 RMK AO2 SLP319 T00721050=
200501152351 METAR KATL 152351Z 06010KT 10SM SCT180 BKN200 08/M06 A3044 RMK AO2 SLP314 T00831056 10106 20078 56003=
200501152251 METAR KATL 152251Z 05011KT 10SM BKN180 BKN200 09/M06 A3045 RMK AO2 SLP315 T00891056=
200501152151 METAR KATL 152151Z 05009KT 10SM BKN180 BKN200 09/M04 A3045 RMK AO2 SLP315 T00941044=
200501152051 METAR KATL 152051Z 05014KT 10SM BKN180 OVC200 10/M05 A3045 RMK AO2 SLP317 T01001050 56017=
200501151951 METAR KATL 151951Z 04008G16KT 10SM BKN180 BKN220 10/M04 A3045 RMK AO2 SLP318 T01001039=
200501151851 METAR KATL 151851Z 06010G15KT 10SM SCT180 BKN200 09/M04 A3048 RMK AO2 SLP325 T00941044=
200501151751 METAR KATL 151751Z 05010KT 10SM BKN200 10/M04 A3050 RMK AO2 SLP334 T01001039 10100 20028 58012=
200501151651 METAR KATL 151651Z 07014KT 10SM BKN200 08/M03 A3053 RMK AO2 SLP343 T00831033=
200501151551 METAR KATL 151551Z 07014KT 10SM BKN220 07/M03 A3055 RMK AO2 SLP351 T00671033=
200501151451 METAR KATL 151451Z 06016KT 10SM BKN220 04/M03 A3054 RMK AO2 SLP348 T00441028 51015=
200501151351 METAR KATL 151351Z 06013KT 10SM SCT220 03/M03 A3053 RMK AO2 SLP346 T00331028=
200501151251 METAR KATL 151251Z 04009KT 10SM BKN180 03/M02 A3053 RMK AO2 SLP345 T00281022=
200501151151 METAR KATL 151151Z 03009KT 10SM SCT180 03/M02 A3050 RMK AO2 SLP332 T00281017 10056 20011 53020=
200501151051 METAR KATL 151051Z 35006KT 10SM SCT180 02/M01 A3048 RMK AO2 SLP327 T00171011=
200501150951 METAR KATL 150951Z 35005KT 10SM SCT180 02/M01 A3045 RMK AO2 SLP316 T00171011=
200501150851 METAR KATL 150851Z 36004KT 10SM CLR 03/M01 A3044 RMK AO2 SLP312 T00281011 58001=
200501150751 METAR KATL 150751Z 36006KT 10SM CLR 03/M01 A3045 RMK AO2 SLP317 T00331011=
200501150651 METAR KATL 150651Z 36007KT 10SM CLR 04/M02 A3045 RMK AO2 SLP315 T00441017=
200501150551 METAR KATL 150551Z 01008KT 10SM CLR 06/M02 A3044 RMK AO2 SLP312 T00561017 10078 20050 50007=
200501150451 METAR KATL 150451Z 36008KT 10SM CLR 06/M01 A3044 RMK AO2 SLP314 T00561011 401110050=
200501150351 METAR KATL 150351Z 36008KT 10SM CLR 06/M01 A3044 RMK AO2 SLP314 T00561011=
200501150251 METAR KATL 150251Z 35009KT 10SM CLR 06/M02 A3042 RMK AO2 SLP305 T00611017 53027=
200501150151 METAR KATL 150151Z 35010KT 10SM CLR 07/M02 A3039 RMK AO2 SLP296 T00671017=
200501150051 METAR KATL 150051Z 33012KT 10SM CLR 07/M01 A3035 RMK AO2 SLP283 T00721011=
200501142351 METAR KATL 142351Z 32010KT 10SM FEW150 08/M01 A3033 RMK AO2 SLP275 T00781011 10111 20078 51026=
200501142251 METAR KATL 142251Z 33009KT 10SM FEW150 09/M01 A3030 RMK AO2 SLP263 T00891011=
200501142151 METAR KATL 142151Z 35012KT 10SM FEW150 11/M01 A3029 RMK AO2 SLP259 T01061011=
200501142051 METAR KATL 142051Z 34013KT 10SM FEW150 11/00 A3025 RMK AO2 SLP246 T01060000 53009=
200501141951 METAR KATL 141951Z 31017KT 10SM FEW150 10/01 A3023 RMK AO2 SLP237 T01000006=
200501141851 METAR KATL 141851Z 35012G22KT 320V040 10SM FEW150 10/01 A3023 RMK AO2 SLP239 T01000006=
200501141751 METAR KATL 141751Z 34016G22KT 10SM FEW150 09/01 A3023 RMK AO2 SLP237 T00940011 10094 20050 51008=
200501141651 METAR KATL 141651Z 33019G28KT 10SM FEW027 SCT150 SCT250 08/01 A3022 RMK AO2 PK WND 33028/1644 SLP235 T00780011=
200501141619 SPECI KATL 141619Z 32019G26KT 10SM SCT025 SCT250 08/02 A3022 RMK AO2 PK WND 32028/1608=
200501141619 SPECI KATL 141619Z 32019G26KT 10SM SCT025 SCT250 08/02 A3022 RMK AO2 PK WND 32028/1608=
200501141551 METAR KATL 141551Z 34017G23KT 10SM BKN023 07/02 A3022 RMK AO2 PK WND 33026/1504 SLP236 T00670017=
200501141451 METAR KATL 141451Z 33018G23KT 10SM BKN019 06/02 A3020 RMK AO2 SLP230 T00560022 51042=
200501141351 METAR KATL 141351Z 32013KT 10SM OVC015 05/02 A3019 RMK AO2 PK WND 31027/1310 SLP227 T00500022=
200501141341 SPECI KATL 141341Z 32014G24KT 10SM OVC015 05/02 A3019 RMK AO2 PK WND 31027/1310 PRESRR=
200501141341 SPECI KATL 141341Z 32014G24KT 10SM OVC015 05/02 A3019 RMK AO2 PK WND 31027/1310 PRESRR=
200501141251 METAR KATL 141251Z 30018G25KT 10SM OVC011 06/03 A3012 RMK AO2 PK WND 34027/1240 SLP203 T00560033=
200501141236 SPECI KATL 141236Z 32016KT 10SM OVC011 06/04 A3010 RMK AO2 PK WND 30027/1221=
200501141236 SPECI KATL 141236Z 32016KT 10SM OVC011 06/04 A3010 RMK AO2 PK WND 30027/1221=
200501141208 SPECI KATL 141208Z 31015G24KT 10SM OVC009 06/04 A3010 RMK AO2 PRESRR=
200501141208 SPECI KATL 141208Z 31015G24KT 10SM OVC009 06/04 A3010 RMK AO2 PRESRR=
200501141151 METAR KATL 141151Z 32012G23KT 10SM OVC011 07/05 A3007 RMK AO2 CIG 009V013 SLP186 60001 70136 T00670050 10111 20067 51045=
200501141113 SPECI KATL 141113Z 32010G20KT 10SM OVC011 08/06 A3006 RMK AO2=
200501141113 SPECI KATL 141113Z 32010G20KT 10SM OVC011 08/06 A3006 RMK AO2=
200501141100 SPECI KATL 141100Z 30015G22KT 10SM BKN009 OVC014 08/06 A3008 RMK AO2 PRESRR=
200501141100 SPECI KATL 141100Z 30015G22KT 10SM BKN009 OVC014 08/06 A3008 RMK AO2 PRESRR=
200501141051 METAR KATL 141051Z 31016KT 10SM OVC011 08/06 A3004 RMK AO2 PK WND 31026/0959 SLP173 T00780061=
200501141030 SPECI KATL 141030Z 31020G25KT 10SM OVC013 08/07 A3002 RMK AO2 PK WND 31026/0959=
200501141030 SPECI KATL 141030Z 31020G25KT 10SM OVC013 08/07 A3002 RMK AO2 PK WND 31026/0959=
200501141016 SPECI KATL 141016Z 33016G23KT 10SM BKN015 OVC020 09/07 A2999 RMK AO2 PK WND 31026/0959=
200501141016 SPECI KATL 141016Z 33016G23KT 10SM BKN015 OVC020 09/07 A2999 RMK AO2 PK WND 31026/0959=
200501140951 METAR KATL 140951Z 31016G30KT 10SM BKN011 OVC018 09/08 A3001 RMK AO2 PK WND 32030/0945 PRESRR SLP162 T00940078=
200501140851 METAR KATL 140851Z 31014G19KT 10SM BKN011 OVC017 11/09 A2994 RMK AO2 SLP135 60001 T01060094 58004=
200501140820 SPECI KATL 140820Z 31011G20KT 10SM OVC011 11/09 A2994 RMK AO2=
200501140820 SPECI KATL 140820Z 31011G20KT 10SM OVC011 11/09 A2994 RMK AO2=
200501140808 SPECI KATL 140808Z 30012KT 10SM BKN008 OVC013 11/10 A2996 RMK AO2 CIG 005V011=
200501140808 SPECI KATL 140808Z 30012KT 10SM BKN008 OVC013 11/10 A2996 RMK AO2 CIG 005V011=
200501140751 METAR KATL 140751Z 28010KT 10SM FEW008 BKN013 OVC021 11/10 A2998 RMK AO2 RAE16 SLP149 P0001 T01060100=
200501140743 SPECI KATL 140743Z 29011KT 10SM FEW006 BKN012 OVC021 11/10 A2997 RMK AO2 RAE16 P0001=
200501140743 SPECI KATL 140743Z 29011KT 10SM FEW006 BKN012 OVC021 11/10 A2997 RMK AO2 RAE16 P0001=
200501140706 SPECI KATL 140706Z 29008KT 10SM -RA BKN010 OVC013 11/10 A2995 RMK AO2 CIG 006V013 P0001=
200501140706 SPECI KATL 140706Z 29008KT 10SM -RA BKN010 OVC013 11/10 A2995 RMK AO2 CIG 006V013 P0001=
200501140651 METAR KATL 140651Z 27006KT 10SM -RA BKN008 OVC013 11/10 A2996 RMK AO2 CIG 006V011 SLP143 P0000 T01110100=
200501140627 SPECI KATL 140627Z 28008KT 10SM -RA BKN009 OVC014 11/11 A2995 RMK AO2 P0000=
200501140627 SPECI KATL 140627Z 28008KT 10SM -RA BKN009 OVC014 11/11 A2995 RMK AO2 P0000=
200501140609 SPECI KATL 140609Z 32008KT 10SM -RA SCT007 OVC010 11/11 A2993 RMK AO2 P0000=
200501140609 SPECI KATL 140609Z 32008KT 10SM -RA SCT007 OVC010 11/11 A2993 RMK AO2 P0000=
200501140551 METAR KATL 140551Z 30009KT 9SM -RA BKN008 BKN012 OVC028 11/11 A2995 RMK AO2 SLP139 P0004 60056 T01110106 10117 20111 53011=
200501140451 METAR KATL 140451Z 30011KT 9SM -RA BKN006 OVC012 11/11 A2992 RMK AO2 CIG 004V009 PRESFR SLP129 P0004 T01110106 401890111=
200501140437 SPECI KATL 140437Z 28009KT 9SM -RA FEW006 OVC012 11/11 A2995 RMK AO2 P0003=
200501140437 SPECI KATL 140437Z 28009KT 9SM -RA FEW006 OVC012 11/11 A2995 RMK AO2 P0003=
200501140401 SPECI KATL 140401Z 25007KT 8SM -RA FEW006 BKN009 OVC110 11/11 A2995 RMK AO2 P0000=
200501140401 SPECI KATL 140401Z 25007KT 8SM -RA FEW006 BKN009 OVC110 11/11 A2995 RMK AO2 P0000=
200501140351 METAR KATL 140351Z 25007KT 10SM -RA FEW014 BKN070 OVC110 11/11 A2994 RMK AO2 PRESRR SLP137 P0003 T01110106=
200501140304 SPECI KATL 140304Z 28004KT 8SM -RA FEW006 BKN060 OVC085 11/11 A2992 RMK AO2 P0000=
200501140304 SPECI KATL 140304Z 28004KT 8SM -RA FEW006 BKN060 OVC085 11/11 A2992 RMK AO2 P0000=
200501140251 METAR KATL 140251Z 29003KT 6SM -RA BR BKN055 OVC080 12/11 A2992 RMK AO2 SLP128 P0009 60045 T01170106 51008=
200501140151 METAR KATL 140151Z 31004KT 7SM -RA OVC045 12/11 A2991 RMK AO2 SLP128 P0016 T01170106=
200501140051 METAR KATL 140051Z 34007KT 5SM RA BR SCT024 OVC048 12/11 A2990 RMK AO2 SLP123 P0020 T01170111=
200501140037 SPECI KATL 140037Z 33009KT 4SM RA BR BKN020 OVC050 12/11 A2990 RMK AO2 P0015=
200501140037 SPECI KATL 140037Z 33009KT 4SM RA BR BKN020 OVC050 12/11 A2990 RMK AO2 P0015=
200501140027 SPECI KATL 140027Z 34010KT 5SM RA BR SCT020 OVC050 12/11 A2989 RMK AO2 P0010=
200501140027 SPECI KATL 140027Z 34010KT 5SM RA BR SCT020 OVC050 12/11 A2989 RMK AO2 P0010=
200501132351 METAR KATL 132351Z 32013KT 3SM RA BR BKN022 OVC045 12/11 A2989 RMK AO2 SFC VIS 4 SLP121 P0031 60079 T01170111 10189 20117 53017=
200501132251 METAR KATL 132251Z 31010KT 2 1/2SM +RA BR FEW028CB BKN033 OVC040 12/11 A2987 RMK AO2 PK WND 30034/2207 WSHFT 2152 SFC VIS 3 SLP111 CB NE-E-S MOV E P0040 T01220111=
200501132212 SPECI KATL 132212Z 31017G34KT 2 1/2SM R09R/5500VP6000FT +RA BR BKN010CB OVC016 13/12 A2987 RMK AO2 PK WND 30034/2207 WSHFT 2152 VIS 1 1/4V5 PRESRR CB OHD-N AND S MOV E P0007=
200501132212 SPECI KATL 132212Z 31017G34KT 2 1/2SM R09R/5500VP6000FT +RA BR BKN010CB OVC016 13/12 A2987 RMK AO2 PK WND 30034/2207 WSHFT 2152 VIS 1 1/4V5 PRESRR CB OHD-N AND S MOV E P0007=
200501132201 SPECI KATL 132201Z 30023G28KT 2 1/2SM -RA BR BKN010CB OVC016 17/16 A2987 RMK AO2 PK WND 30028/2201 WSHFT 2147 SFC VIS 5 PRESRR CB OHD-N AND S MOV E P0002=
200501132201 SPECI KATL 132201Z 30023G28KT 2 1/2SM -RA BR BKN010CB OVC016 17/16 A2987 RMK AO2 PK WND 30028/2201 WSHFT 2147 SFC VIS 5 PRESRR CB OHD-N AND S MOV E P0002=
200501132151 METAR KATL 132151Z 17013KT 4SM -RA BR BKN010CB BKN016 OVC020 18/17 A2984 RMK AO2 SLP101 CB VC SW-W-NW MOV E P0005 T01830172=
200501132140 SPECI KATL 132140Z 17010KT 5SM -RA BR FEW008 BKN012 OVC025 18/17 A2983 RMK AO2 P0004=
200501132140 SPECI KATL 132140Z 17010KT 5SM -RA BR FEW008 BKN012 OVC025 18/17 A2983 RMK AO2 P0004=
200501132051 METAR KATL 132051Z 17011KT 5SM -RA BR FEW012 BKN016 OVC020 18/17 A2984 RMK AO2 RAB22 SLP101 P0002 60003 T01830172 56028=
200501131951 METAR KATL 131951Z 15011KT 9SM SCT016 OVC021 18/17 A2985 RMK AO2 RAE28 SLP106 P0000 T01830167=
200501131858 SPECI KATL 131858Z 17014G19KT 8SM -RA OVC015 18/16 A2989 RMK AO2 P0000=
200501131858 SPECI KATL 131858Z 17014G19KT 8SM -RA OVC015 18/16 A2989 RMK AO2 P0000=
200501131851 METAR KATL 131851Z 17011G20KT 8SM -RA BKN013 BKN015 OVC020 18/16 A2989 RMK AO2 DZE25RAB25 SLP118 P0001 T01830161=
200501131751 METAR KATL 131751Z 17016G24KT 8SM -DZ BKN013 BKN015 OVC020 18/16 A2992 RMK AO2 DZB43 SLP130 P0000 60000 T01830161 10189 20144 58023=
200501131730 SPECI KATL 131730Z 17014G21KT 10SM BKN013 BKN015 OVC025 18/16 A2994 RMK AO2=
200501131730 SPECI KATL 131730Z 17014G21KT 10SM BKN013 BKN015 OVC025 18/16 A2994 RMK AO2=
200501131651 METAR KATL 131651Z 17016G25KT 8SM BKN017 OVC025 19/16 A2997 RMK AO2 PK WND 18026/1638 SLP146 T01890156=
200501131615 SPECI KATL 131615Z 17015G21KT 8SM BKN019 BKN024 BKN250 19/15 A2999 RMK AO2 PK WND 15026/1601=
200501131615 SPECI KATL 131615Z 17015G21KT 8SM BKN019 BKN024 BKN250 19/15 A2999 RMK AO2 PK WND 15026/1601=
200501131551 METAR KATL 131551Z 16017G23KT 9SM FEW020 SCT060 BKN110 BKN250 18/14 A2999 RMK AO2 PK WND 16027/1523 SLP150 T01830144=
200501131515 SPECI KATL 131515Z 18013KT 10SM BKN017 BKN060 BKN250 18/14 A3000 RMK AO2=
200501131515 SPECI KATL 131515Z 18013KT 10SM BKN017 BKN060 BKN250 18/14 A3000 RMK AO2=
200501131451 METAR KATL 131451Z 17014G21KT 9SM FEW017 SCT060 BKN250 17/14 A2999 RMK AO2 SLP154 T01720139 58006=
200501131351 METAR KATL 131351Z 16011KT 10SM FEW013 SCT060 SCT110 BKN150 BKN230 15/13 A3002 RMK AO2 SLP163 T01500128=
200501131251 METAR KATL 131251Z 15009KT 10SM FEW010 BKN100 BKN150 BKN230 14/12 A3002 RMK AO2 SLP164 T01440122=
200501131151 METAR KATL 131151Z 14009KT 10SM SCT034 BKN060 BKN120 OVC150 14/12 A3001 RMK AO2 SLP161 T01440122 10150 20139 58007=
200501131051 METAR KATL 131051Z 14005KT 10SM SCT040 BKN060 OVC080 14/13 A3002 RMK AO2 SLP165 T01440128=
200501130951 METAR KATL 130951Z 13004KT 10SM BKN041 OVC065 14/13 A3003 RMK AO2 SLP167 T01440128=
200501130851 METAR KATL 130851Z 13006KT 9SM OVC065 14/13 A3004 RMK AO2 SLP168 T01440128 58003=
200501130751 METAR KATL 130751Z 12005KT 10SM BKN070 BKN150 BKN250 14/13 A3004 RMK AO2 SLP170 T01440128=
200501130651 METAR KATL 130651Z 14005KT 10SM SCT065 SCT150 BKN250 14/12 A3004 RMK AO2 SLP168 T01440122=
200501130551 METAR KATL 130551Z 13006KT 10SM FEW150 15/13 A3004 RMK AO2 SLP171 T01500128 10161 20144 58015=
200501130451 METAR KATL 130451Z 13005KT 10SM FEW036 BKN050 BKN065 16/13 A3007 RMK AO2 SLP178 T01560133 402000111=
200501130351 METAR KATL 130351Z 13006KT 7SM FEW043 SCT050 SCT060 15/13 A3007 RMK AO2 SLP181 T01500133=
200501130251 METAR KATL 130251Z 11005KT 7SM SCT070 15/13 A3009 RMK AO2 SLP187 T01500133 58003=
200501130151 METAR KATL 130151Z 11006KT 10SM SCT070 15/13 A3010 RMK AO2 SLP191 T01500133=
200501130051 METAR KATL 130051Z 11005KT 9SM FEW060 SCT150 BKN250 16/12 A3010 RMK AO2 SLP191 T01560122=
200501122351 METAR KATL 122351Z 14003KT 9SM FEW030 SCT150 BKN250 16/12 A3010 RMK AO2 SLP191 T01610122 10200 20161 53005=
200501122251 METAR KATL 122251Z 16005KT 10SM FEW030 SCT150 BKN250 17/12 A3009 RMK AO2 SLP188 T01670122=
200501122151 METAR KATL 122151Z 18012G16KT 10SM FEW030 SCT150 BKN250 17/12 A3009 RMK AO2 SLP186 T01720117=
200501122051 METAR KATL 122051Z 17010KT 10SM FEW035 SCT080 BKN150 BKN250 18/11 A3008 RMK AO2 SLP185 T01830111 55007=
200501121951 METAR KATL 121951Z 19013KT 10SM FEW035 SCT080 BKN250 20/11 A3006 RMK AO2 SLP177 T02000106=
200501121851 METAR KATL 121851Z 17012G16KT 10SM FEW030 SCT040 BKN250 19/12 A3007 RMK AO2 SLP180 T01940117=
200501121751 METAR KATL 121751Z 17008KT 9SM FEW020 SCT026 BKN036 BKN250 18/13 A3011 RMK AO2 SLP192 T01830133 10189 20122 58019=
200501121731 SPECI KATL 121731Z 18011KT 9SM FEW020 BKN027 BKN250 18/13 A3013 RMK AO2=
200501121731 SPECI KATL 121731Z 18011KT 9SM FEW020 BKN027 BKN250 18/13 A3013 RMK AO2=
200501121651 METAR KATL 121651Z 15007KT 8SM FEW015 SCT250 17/13 A3014 RMK AO2 SLP205 T01720133=
200501121607 SPECI KATL 121607Z 17007KT 6SM BR SCT007 BKN010 BKN250 16/13 A3016 RMK AO2=
200501121607 SPECI KATL 121607Z 17007KT 6SM BR SCT007 BKN010 BKN250 16/13 A3016 RMK AO2=
200501121605 SPECI KATL 121605Z 17006KT 6SM BR SCT007 SCT010 16/13 A3016 RMK AO2=
200501121605 SPECI KATL 121605Z 17006KT 6SM BR SCT007 SCT010 16/13 A3016 RMK AO2=
200501121551 METAR KATL 121551Z 15007KT 2 1/2SM BR BKN005 BKN008 BKN010 14/13 A3016 RMK AO2 SFC VIS 5 SLP211 T01390133=
200501121522 SPECI KATL 121522Z 16007KT 2 1/2SM BR OVC005 14/13 A3017 RMK AO2 SFC VIS 5 CIG 003V009=
200501121522 SPECI KATL 121522Z 16007KT 2 1/2SM BR OVC005 14/13 A3017 RMK AO2 SFC VIS 5 CIG 003V009=
200501121451 METAR KATL 121451Z 18005KT 1 1/2SM R09R/3500VP6000FT BR BKN003 BKN005 OVC008 13/13 A3016 RMK AO2 SFC VIS 2 1/2 SLP212 T01330128 51014=
200501121419 SPECI KATL 121419Z 17009KT 1 1/2SM BR SCT001 BKN003 BKN005 13/13 A3014 RMK AO2 SFC VIS 2 1/2=
200501121419 SPECI KATL 121419Z 17009KT 1 1/2SM BR SCT001 BKN003 BKN005 13/13 A3014 RMK AO2 SFC VIS 2 1/2=
200501121403 SPECI KATL 121403Z 17008KT 1/2SM R09R/P6000FT BR OVC001 13/13 A3015 RMK AO2 SFC VIS 3/4=
200501121403 SPECI KATL 121403Z 17008KT 1/2SM R09R/P6000FT BR OVC001 13/13 A3015 RMK AO2 SFC VIS 3/4=
200501121351 METAR KATL 121351Z 17005KT 1/16SM R09R/2800V5500FT FG OVC001 13/13 A3014 RMK AO2 SFC VIS 1/2 SLP205 T01280128=
200501121318 SPECI KATL 121318Z 18006KT 1/16SM R09R/1400V2400FT FG VV001 13/13 A3014 RMK AO2 SFC VIS 1/8=
200501121318 SPECI KATL 121318Z 18006KT 1/16SM R09R/1400V2400FT FG VV001 13/13 A3014 RMK AO2 SFC VIS 1/8=
200501121251 METAR KATL 121251Z 18005KT 1/16SM R09R/1400V1600FT FG VV001 13/13 A3014 RMK AO2 SFC VIS 1/8 SLP205 T01280128=
200501121151 METAR KATL 121151Z 16005KT 1/16SM R09R/1400V2200FT FG VV001 12/12 A3012 RMK AO2 SFC VIS 1/8 SLP198 T01220122 10139 20111 53004=
200501121059 SPECI KATL 121059Z 14003KT 1/16SM R09R/1800V2200FT FG VV001 12/12 A3012 RMK AO2 SFC VIS 1/2=
200501121059 SPECI KATL 121059Z 14003KT 1/16SM R09R/1800V2200FT FG VV001 12/12 A3012 RMK AO2 SFC VIS 1/2=
200501121051 METAR KATL 121051Z 00000KT 1/16SM R09R/2000V2800FT FG OVC002 12/12 A3012 RMK AO2 SFC VIS 1/8 SLP197 T01170117=
200501121031 SPECI KATL 121031Z 00000KT 1/16SM R09R/1400V1800FT FG OVC002 12/12 A3011 RMK AO2 SFC VIS 1/2=
200501121031 SPECI KATL 121031Z 00000KT 1/16SM R09R/1400V1800FT FG OVC002 12/12 A3011 RMK AO2 SFC VIS 1/2=
200501121015 SPECI KATL 121015Z 15005KT 2SM R09R/1400V2200FT BR BKN002 BKN016 BKN085 12/12 A3011 RMK AO2 TWR VIS 4=
200501121015 SPECI KATL 121015Z 15005KT 2SM R09R/1400V2200FT BR BKN002 BKN016 BKN085 12/12 A3011 RMK AO2 TWR VIS 4=
200501121005 SPECI KATL 121005Z 16004KT 2SM R09R/2000V6000FT BR FEW002 BKN085 12/12 A3011 RMK AO2 TWR VIS 4=
200501121005 SPECI KATL 121005Z 16004KT 2SM R09R/2000V6000FT BR FEW002 BKN085 12/12 A3011 RMK AO2 TWR VIS 4=
200501120958 SPECI KATL 120958Z 15004KT 1 1/4SM R09R/2000VP6000FT BR SCT090 12/12 A3011 RMK AO2 TWR VIS 4=
200501120958 SPECI KATL 120958Z 15004KT 1 1/4SM R09R/2000VP6000FT BR SCT090 12/12 A3011 RMK AO2 TWR VIS 4=
200501120951 METAR KATL 120951Z 15003KT 2SM R09R/2200VP6000FT BR FEW002 11/11 A3011 RMK AO2 TWR VIS 4 SLP194 T01110111=
200501120851 METAR KATL 120851Z 17004KT 4SM BR FEW090 13/12 A3011 RMK AO2 SLP192 T01280122 56003=
200501120751 METAR KATL 120751Z 19004KT 6SM BR BKN090 13/12 A3011 RMK AO2 SLP193 T01330122=
200501120651 METAR KATL 120651Z 19005KT 6SM BR BKN090 13/13 A3011 RMK AO2 SLP194 T01330128=
200501120551 METAR KATL 120551Z 17005KT 8SM SCT035 SCT090 13/13 A3012 RMK AO2 SLP197 T01330128 10178 20133 58006=
200501120451 METAR KATL 120451Z 17004KT 8SM CLR 13/12 A3013 RMK AO2 SLP201 T01330122 401940094=
200501120351 METAR KATL 120351Z 16003KT 9SM BKN028 15/13 A3015 RMK AO2 SLP206 T01500128=
200501120251 METAR KATL 120251Z 15004KT 9SM FEW031 16/12 A3014 RMK AO2 SLP204 T01560122 51005=
200501120151 METAR KATL 120151Z 16005KT 10SM BKN031 17/12 A3013 RMK AO2 SLP203 T01670122=
200501120051 METAR KATL 120051Z 16004KT 10SM BKN037 18/12 A3012 RMK AO2 SLP200 T01780122=
200501112351 METAR KATL 112351Z 16005KT 10SM BKN035 18/12 A3012 RMK AO2 SLP199 T01780122 10194 20178 53002=
200501112251 METAR KATL 112251Z 16004KT 9SM SCT035 BKN150 BKN250 18/13 A3011 RMK AO2 SLP196 ACC DSNT W-NW T01830128=
200501112151 METAR KATL 112151Z 22004KT 9SM FEW025 BKN150 BKN250 19/13 A3011 RMK AO2 SLP194 ACC DSNT W-NW T01940128=
200501112051 METAR KATL 112051Z 22003KT 10SM BKN035 BKN150 BKN250 19/13 A3012 RMK AO2 SLP196 T01940133 56013=
200501112015 SPECI KATL 112015Z 28005KT 10SM BKN028 BKN037 BKN150 BKN250 19/13 A3012 RMK AO2=
200501112015 SPECI KATL 112015Z 28005KT 10SM BKN028 BKN037 BKN150 BKN250 19/13 A3012 RMK AO2=
200501111951 METAR KATL 111951Z 23003KT 8SM SCT027 BKN035 BKN150 BKN250 19/13 A3012 RMK AO2 SLP198 T01890133=
200501111942 SPECI KATL 111942Z 23004KT 8SM SCT027 BKN035 BKN150 BKN250 19/13 A3013 RMK AO2=
200501111942 SPECI KATL 111942Z 23004KT 8SM SCT027 BKN035 BKN150 BKN250 19/13 A3013 RMK AO2=
200501111905 SPECI KATL 111905Z 24007KT 8SM BKN027 BKN150 BKN250 BKN300 18/13 A3014 RMK AO2=
200501111905 SPECI KATL 111905Z 24007KT 8SM BKN027 BKN150 BKN250 BKN300 18/13 A3014 RMK AO2=
200501111851 METAR KATL 111851Z 22008KT 10SM FEW025 SCT150 BKN250 BKN300 18/13 A3015 RMK AO2 SLP206 T01830133=
200501111751 METAR KATL 111751Z 21010KT 7SM FEW020 SCT150 BKN250 BKN300 18/13 A3015 RMK AO2 SLP209 T01780133 10178 20094 58020=
200501111651 METAR KATL 111651Z 23009KT 6SM HZ FEW150 BKN250 BKN300 16/13 A3019 RMK AO2 SLP223 T01610128=
200501111551 METAR KATL 111551Z 21006KT 6SM BR BKN150 BKN250 BKN300 14/12 A3022 RMK AO2 SLP232 VIRGA DSNT N T01390117=
200501111451 METAR KATL 111451Z 20005KT 5SM BR BKN250 12/11 A3022 RMK AO2 SLP232 T01220111 52008=
200501111351 METAR KATL 111351Z 00000KT 5SM BR SCT024 BKN150 OVC250 11/11 A3020 RMK AO2 SLP228 T01110106=
200501111300 SPECI KATL 111300Z 00000KT 6SM BR BKN024 BKN150 OVC250 10/09 A3020 RMK AO2=
200501111300 SPECI KATL 111300Z 00000KT 6SM BR BKN024 BKN150 OVC250 10/09 A3020 RMK AO2=
200501111251 METAR KATL 111251Z 24003KT 6SM BR SCT024 BKN150 OVC250 10/09 A3020 RMK AO2 SLP228 T01000089=
200501111151 METAR KATL 111151Z 00000KT 6SM BR BKN032 BKN150 BKN250 10/09 A3019 RMK AO2 SLP223 T01000089 10111 20094 53001=
200501111109 SPECI KATL 111109Z 00000KT 7SM FEW150 BKN250 09/09 A3018 RMK AO2=
200501111109 SPECI KATL 111109Z 00000KT 7SM FEW150 BKN250 09/09 A3018 RMK AO2=
200501111058 SPECI KATL 111058Z 00000KT 2 1/2SM BR CLR 10/09 A3018 RMK AO2=
200501111058 SPECI KATL 111058Z 00000KT 2 1/2SM BR CLR 10/09 A3018 RMK AO2=
200501111051 METAR KATL 111051Z 00000KT 6SM BR FEW150 BKN250 10/09 A3017 RMK AO2 SLP217 T01000089=
200501110951 METAR KATL 110951Z 00000KT 7SM SCT250 10/09 A3018 RMK AO2 SLP220 T01000094=
200501110851 METAR KATL 110851Z 28003KT 7SM BKN250 11/10 A3019 RMK AO2 SLP220 T01060100 55000=
200501110751 METAR KATL 110751Z 00000KT 10SM BKN250 11/09 A3018 RMK AO2 SLP217 T01060094=
200501110651 METAR KATL 110651Z 00000KT 10SM BKN250 11/09 A3018 RMK AO2 SLP218 T01060094=
200501110551 METAR KATL 110551Z 00000KT 8SM BKN250 11/09 A3019 RMK AO2 SLP220 T01110094 10144 20111 56008=
200501110451 METAR KATL 110451Z 28005KT 7SM SCT250 12/09 A3019 RMK AO2 SLP222 T01220094 401830067=
200501110351 METAR KATL 110351Z 27003KT 9SM SCT250 12/09 A3020 RMK AO2 SLP225 T01220094=
200501110251 METAR KATL 110251Z 27005KT 8SM SCT250 12/09 A3021 RMK AO2 SLP231 T01220094 53012=
200501110151 METAR KATL 110151Z 27005KT 8SM BKN250 13/09 A3020 RMK AO2 SLP226 T01280094=
200501110051 METAR KATL 110051Z 28005KT 9SM BKN250 13/09 A3019 RMK AO2 SLP223 T01330094=
200501102351 METAR KATL 102351Z 24003KT 10SM BKN250 14/09 A3018 RMK AO2 SLP220 T01440094 10183 20144 55002=
200501102251 METAR KATL 102251Z 26006KT 10SM BKN250 16/09 A3018 RMK AO2 SLP219 T01560089=
200501102151 METAR KATL 102151Z 26009KT 10SM BKN250 17/09 A3018 RMK AO2 SLP221 T01670089=
200501102051 METAR KATL 102051Z 25007KT 10SM BKN250 18/09 A3018 RMK AO2 SLP221 T01780089 56018=
200501101951 METAR KATL 101951Z 29008KT 10SM BKN250 18/09 A3019 RMK AO2 SLP225 T01780089=
200501101851 METAR KATL 101851Z 28010KT 10SM BKN250 18/09 A3022 RMK AO2 SLP233 T01780094=
200501101751 METAR KATL 101751Z 29010KT 10SM BKN250 17/09 A3024 RMK AO2 SLP238 T01720089 10172 20078 58018=
200501101651 METAR KATL 101651Z 29009KT 10SM FEW030 BKN250 17/09 A3027 RMK AO2 SLP249 T01670089=
200501101551 METAR KATL 101551Z 29010KT 10SM FEW030 SCT250 14/07 A3029 RMK AO2 SLP259 T01440067=
200501101451 METAR KATL 101451Z 27009KT 10SM FEW031 SCT210 13/06 A3029 RMK AO2 SLP258 T01280061 53014=
200501101351 METAR KATL 101351Z 28005KT 10SM BKN031 BKN210 10/06 A3028 RMK AO2 SLP256 T01000056=
200501101251 METAR KATL 101251Z 29005KT 10SM OVC029 08/05 A3025 RMK AO2 SLP246 BONOVC ALQDS T00780050=
200501101151 METAR KATL 101151Z 30006KT 10SM OVC029 08/05 A3025 RMK AO2 SLP244 BINOVC ALQDS T00830050 10089 20067 55002=
200501101114 SPECI KATL 101114Z 26003KT 10SM BKN029 BKN160 08/04 A3024 RMK AO2=
200501101114 SPECI KATL 101114Z 26003KT 10SM BKN029 BKN160 08/04 A3024 RMK AO2=
200501101051 METAR KATL 101051Z COR 00000KT 10SM SCT160 08/04 A3024 RMK AO2 SLP239 T00780044=
200501100951 METAR KATL 100951Z 29007KT 10SM FEW200 07/04 A3025 RMK AO2 SLP242 T00670044=
200501100851 METAR KATL 100851Z 29007KT 10SM FEW200 07/04 A3026 RMK AO2 SLP246 T00720044 55000=
200501100751 METAR KATL 100751Z 25005KT 10SM CLR 08/04 A3024 RMK AO2 SLP240 T00780044=
200501100651 METAR KATL 100651Z 24004KT 10SM FEW230 08/04 A3024 RMK AO2 SLP242 T00830044=
200501100551 METAR KATL 100551Z 22004KT 10SM FEW200 09/04 A3026 RMK AO2 SLP246 T00890044 10144 20089 58010=
200501100451 METAR KATL 100451Z 20003KT 10SM SCT200 10/05 A3027 RMK AO2 SLP253 T01000050 401830033=
200501100351 METAR KATL 100351Z 00000KT 10SM SCT200 10/04 A3029 RMK AO2 SLP257 T01000044=
200501100251 METAR KATL 100251Z 30003KT 10SM FEW200 13/03 A3029 RMK AO2 SLP258 T01280033 53005=
200501100151 METAR KATL 100151Z 00000KT 10SM CLR 12/03 A3028 RMK AO2 SLP258 T01220033=
200501100051 METAR KATL 100051Z 00000KT 10SM FEW250 13/04 A3028 RMK AO2 SLP255 T01330044=
200501092351 METAR KATL 092351Z 00000KT 10SM FEW250 14/04 A3027 RMK AO2 SLP255 T01390039 10183 20139 56001=
200501092251 METAR KATL 092251Z 19004KT 10SM FEW250 16/04 A3027 RMK AO2 SLP254 T01610039=
200501092151 METAR KATL 092151Z 21004KT 10SM SCT200 18/04 A3027 RMK AO2 SLP253 T01780039=
200501092051 METAR KATL 092051Z 20003KT 10SM FEW200 18/04 A3028 RMK AO2 SLP254 T01830039 56014=
200501091951 METAR KATL 091951Z 21005KT 10SM FEW200 18/05 A3028 RMK AO2 SLP255 T01780050=
200501091851 METAR KATL 091851Z VRB03KT 10SM FEW180 17/06 A3029 RMK AO2 SLP259 T01670061=
200501091751 METAR KATL 091751Z 13004KT 8SM FEW180 15/07 A3032 RMK AO2 SLP269 T01500072 10150 20033 58013=
200501091651 METAR KATL 091651Z 10005KT 8SM FEW180 13/07 A3034 RMK AO2 SLP277 T01330072=
200501091551 METAR KATL 091551Z VRB03KT 8SM FEW180 11/07 A3037 RMK AO2 SLP285 T01110067=
200501091451 METAR KATL 091451Z 07006KT 8SM FEW180 09/06 A3036 RMK AO2 SLP284 T00890056 53015=
200501091351 METAR KATL 091351Z 32006KT 9SM FEW180 05/03 A3034 RMK AO2 SLP279 T00500033=
200501091251 METAR KATL 091251Z 32005KT 7SM FEW180 03/03 A3032 RMK AO2 SLP272 T00330028=
200501091151 METAR KATL 091151Z 31006KT 6SM BR CLR 03/03 A3032 RMK AO2 SLP270 T00330028 10067 20033 53011=
200501091051 METAR KATL 091051Z 28004KT 7SM CLR 04/03 A3030 RMK AO2 SLP262 T00390028=
200501090951 METAR KATL 090951Z 28005KT 8SM CLR 04/03 A3028 RMK AO2 SLP257 T00390028=
200501090851 METAR KATL 090851Z 28005KT 8SM CLR 04/04 A3028 RMK AO2 SLP257 T00440039 56002=
200501090751 METAR KATL 090751Z 30006KT 10SM CLR 05/04 A3029 RMK AO2 SLP258 T00500039=
200501090651 METAR KATL 090651Z 30007KT 10SM CLR 06/04 A3029 RMK AO2 SLP257 T00610044=
200501090551 METAR KATL 090551Z 30006KT 10SM CLR 07/05 A3029 RMK AO2 SLP258 T00670050 10133 20067 58001=
200501090451 METAR KATL 090451Z 29005KT 10SM CLR 08/06 A3030 RMK AO2 SLP263 T00780061 401890078=
200501090351 METAR KATL 090351Z 30004KT 10SM CLR 09/07 A3030 RMK AO2 SLP259 T00890067=
200501090251 METAR KATL 090251Z 30006KT 10SM CLR 10/08 A3029 RMK AO2 SLP258 T01000078 51009=
200501090151 METAR KATL 090151Z 29007KT 10SM CLR 11/09 A3029 RMK AO2 SLP254 T01060094=
200501090051 METAR KATL 090051Z 27004KT 10SM FEW250 12/11 A3028 RMK AO2 SLP252 T01220106=
200501082351 METAR KATL 082351Z 28006KT 10SM SCT025 13/10 A3027 RMK AO2 SLP247 T01280100 10167 20128 51012=
200501082251 METAR KATL 082251Z 27007KT 10SM OVC022 14/11 A3026 RMK AO2 SLP246 T01440111=
200501082151 METAR KATL 082151Z 27010KT 10SM OVC015 15/12 A3025 RMK AO2 SLP242 T01500117=
200501082051 METAR KATL 082051Z 30006KT 10SM OVC015 16/12 A3023 RMK AO2 SLP234 T01560117 53003=
200501082043 SPECI KATL 082043Z 30007KT 10SM OVC015 16/12 A3023 RMK AO2=
200501082043 SPECI KATL 082043Z 30007KT 10SM OVC015 16/12 A3023 RMK AO2=
200501081951 METAR KATL 081951Z 30007KT 10SM OVC011 15/12 A3022 RMK AO2 SLP230 T01500117=
200501081851 METAR KATL 081851Z 29011KT 10SM OVC011 16/12 A3022 RMK AO2 SLP229 T01560122=
200501081751 METAR KATL 081751Z 31011KT 10SM OVC010 16/13 A3022 RMK AO2 CIG 009V013 SLP231 60000 T01560128 10189 20150 50004=
200501081726 SPECI KATL 081726Z 30011KT 10SM OVC010 16/13 A3023 RMK AO2 CIG 008V012=
200501081726 SPECI KATL 081726Z 30011KT 10SM OVC010 16/13 A3023 RMK AO2 CIG 008V012=
200501081651 METAR KATL 081651Z 31012KT 7SM OVC008 15/13 A3024 RMK AO2 CIG 004V010 SLP237 T01500133=
200501081614 SPECI KATL 081614Z 32012KT 5SM BR BKN004 BKN011 OVC021 16/14 A3023 RMK AO2=
200501081614 SPECI KATL 081614Z 32012KT 5SM BR BKN004 BKN011 OVC021 16/14 A3023 RMK AO2=
200501081607 SPECI KATL 081607Z 33010KT 5SM BR SCT004 BKN008 OVC017 16/15 A3023 RMK AO2 CIG 007V011=
200501081607 SPECI KATL 081607Z 33010KT 5SM BR SCT004 BKN008 OVC017 16/15 A3023 RMK AO2 CIG 007V011=
200501081551 METAR KATL 081551Z 24009KT 8SM SCT008 BKN012 OVC029 19/17 A3023 RMK AO2 SLP233 T01890167=
200501081451 METAR KATL 081451Z 22007KT 6SM BR OVC006 18/17 A3021 RMK AO2 RAB26E43 SLP225 P0000 60000 T01780167 53022=
200501081351 METAR KATL 081351Z 22008KT 10SM OVC006 18/16 A3018 RMK AO2 RAB12E22 SLP216 P0000 T01780161=
200501081251 METAR KATL 081251Z 23007KT 10SM OVC008 17/16 A3016 RMK AO2 RAB06E21 CIG 006V011 SLP211 P0000 T01720161=
200501081151 METAR KATL 081151Z 22012G19KT 10SM BKN008 OVC043 17/16 A3014 RMK AO2 CIG 007V014 SLP204 60001 70001 T01720156 10172 20161 53008=
200501081051 METAR KATL 081051Z 20011KT 10SM BKN008 BKN012 OVC050 17/15 A3011 RMK AO2 CIG 007V010 SLP193 T01670150=
200501081015 SPECI KATL 081015Z 20010KT 10SM BKN008 OVC012 17/15 A3011 RMK AO2=
200501081015 SPECI KATL 081015Z 20010KT 10SM BKN008 OVC012 17/15 A3011 RMK AO2=
200501080951 METAR KATL 080951Z 20009KT 10SM OVC012 17/15 A3012 RMK AO2 RAE0852 SLP196 T01670150=
200501080851 METAR KATL 080851Z 19007KT 10SM -RA BKN014 OVC100 16/14 A3012 RMK AO2 RAE07B42 SLP196 P0000 60001 T01610144 58010=
200501080828 SPECI KATL 080828Z 18005KT 10SM OVC014 17/14 A3013 RMK AO2 RAE07 P0000=
200501080828 SPECI KATL 080828Z 18005KT 10SM OVC014 17/14 A3013 RMK AO2 RAE07 P0000=
200501080751 METAR KATL 080751Z 19003KT 9SM -RA BKN016 OVC047 17/15 A3014 RMK AO2 RAB37 SLP202 P0001 T01670150=
200501080718 SPECI KATL 080718Z 19009KT 10SM SCT018 BKN060 OVC100 17/15 A3015 RMK AO2=
200501080718 SPECI KATL 080718Z 19009KT 10SM SCT018 BKN060 OVC100 17/15 A3015 RMK AO2=
200501080651 METAR KATL 080651Z 18007KT 10SM BKN020 OVC100 17/15 A3015 RMK AO2 SLP206 T01670150=
200501080558 SPECI KATL 080558Z 18005KT 8SM OVC100 16/15 A3015 RMK AO2=
200501080558 SPECI KATL 080558Z 18005KT 8SM OVC100 16/15 A3015 RMK AO2=
200501080551 METAR KATL 080551Z 18006KT 8SM BKN023 OVC110 16/15 A3015 RMK AO2 SLP207 T01610150 10167 20156 58005=
200501080513 SPECI KATL 080513Z 17006KT 8SM SCT008 BKN017 OVC110 16/15 A3016 RMK AO2=
200501080513 SPECI KATL 080513Z 17006KT 8SM SCT008 BKN017 OVC110 16/15 A3016 RMK AO2=
200501080451 METAR KATL 080451Z 17006KT 8SM BKN008 BKN021 OVC110 16/15 A3016 RMK AO2 SLP212 T01610150 401670083=
200501080404 SPECI KATL 080404Z 15007KT 9SM BKN008 OVC023 16/14 A3016 RMK AO2=
200501080404 SPECI KATL 080404Z 15007KT 9SM BKN008 OVC023 16/14 A3016 RMK AO2=
200501080351 METAR KATL 080351Z 15008KT 10SM SCT008 BKN023 OVC027 16/14 A3016 RMK AO2 SLP211 T01610144=
200501080330 SPECI KATL 080330Z 15007KT 10SM SCT008 BKN015 OVC028 16/14 A3016 RMK AO2=
200501080330 SPECI KATL 080330Z 15007KT 10SM SCT008 BKN015 OVC028 16/14 A3016 RMK AO2=
200501080326 SPECI KATL 080326Z 16006KT 10SM SCT010 BKN013 OVC028 16/14 A3016 RMK AO2=
200501080326 SPECI KATL 080326Z 16006KT 10SM SCT010 BKN013 OVC028 16/14 A3016 RMK AO2=
200501080312 SPECI KATL 080312Z 14007KT 10SM SCT012 BKN018 OVC030 16/14 A3016 RMK AO2=
200501080312 SPECI KATL 080312Z 14007KT 10SM SCT012 BKN018 OVC030 16/14 A3016 RMK AO2=
200501080251 METAR KATL 080251Z 15006KT 10SM SCT008 BKN013 OVC018 16/14 A3017 RMK AO2 SLP214 T01610139 58001=
200501080224 SPECI KATL 080224Z 14006KT 10SM OVC008 16/13 A3017 RMK AO2=
200501080224 SPECI KATL 080224Z 14006KT 10SM OVC008 16/13 A3017 RMK AO2=
200501080151 METAR KATL 080151Z 15007KT 10SM BKN012 OVC019 16/13 A3017 RMK AO2 SLP216 T01560133=
200501080051 METAR KATL 080051Z 14007KT 10SM OVC012 16/13 A3017=
200501072351 METAR KATL 072351Z 14005KT 10SM OVC012 16/13 A3017 RMK AO2 SLP217 T01560128 10167 20156 53003=
200501072251 METAR KATL 072251Z 13005KT 10SM OVC012 16/13 A3016 RMK AO2 SLP214 T01610128=
200501072151 METAR KATL 072151Z 14006KT 10SM OVC014 16/12 A3016 RMK AO2 SLP212 T01610117=
200501072051 METAR KATL 072051Z 16006KT 10SM BKN020 OVC220 16/11 A3016 RMK AO2 SLP213 T01610106 55005=
200501071951 METAR KATL 071951Z 20004KT 10SM BKN018 BKN220 17/10 A3015 RMK AO2 SLP210 T01670100=
200501071851 METAR KATL 071851Z 16005KT 10SM OVC016 16/08 A3016=
200501071751 METAR KATL 071751Z 13005KT 10SM BKN020 BKN060 BKN220 16/05 A3018 RMK AO2 SLP219 T01610050 10167 20094 58012=
200501071651 METAR KATL 071651Z 14005KT 10SM FEW023 SCT060 BKN220 14/07 A3020 RMK AO2 SLP227 T01440072=
200501071551 METAR KATL 071551Z 12003KT 10SM BKN025 BKN060 BKN220 13/08 A3022=
200501071451 METAR KATL 071451Z 00000KT 10SM OVC027 12/08 A3021 RMK AO2 SLP232 T01170083 51017=
200501071351 METAR KATL 071351Z 33005KT 10SM BKN029 OVC050 10/08 A3020 RMK AO2 SLP229 T01000078=
200501071340 SPECI KATL 071340Z 32004KT 10SM BKN029 OVC050 10/08 A3020 RMK AO2=
200501071340 SPECI KATL 071340Z 32004KT 10SM BKN029 OVC050 10/08 A3020 RMK AO2=
200501071251 METAR KATL 071251Z VRB04KT 10SM BKN037 OVC065 10/08 A3018=
200501071151 METAR KATL 071151Z 33005KT 10SM BKN039 BKN050 09/08 A3016 RMK AO2 SLP214 70018 T00940078 10100 20083 53015=
200501071051 METAR KATL 071051Z 30003KT 10SM BKN055 09/08 A3014 RMK AO2 SLP205 T00940078=
200501070951 METAR KATL 070951Z 21003KT 10SM OVC050 09/08 A3012 RMK AO2 SLP201 T00890083=
200501070851 METAR KATL 070851Z 29003KT 10SM FEW080 SCT110 09/08 A3012 RMK AO2 SLP199 T00890078 51004=
200501070751 METAR KATL 070751Z 27004KT 10SM SCT110 09/08 A3012 RMK AO2 SLP198 T00890078=
200501070651 METAR KATL 070651Z 28003KT 10SM FEW110 09/08 A3011 RMK AO2 SLP197 T00940078=
200501070551 METAR KATL 070551Z 31004KT 10SM SCT070 SCT110 09/08 A3010 RMK AO2 SLP195 T00940083 10128 20094 50007=
200501070451 METAR KATL 070451Z 31004KT 9SM SCT070 SCT110 10/09 A3011 RMK AO2 SLP195 T01000089 401830100=
200501070351 METAR KATL 070351Z 27004KT 10SM FEW025 SCT050 11/09 A3010 RMK AO2 SLP191 T01060089=
200501070251 METAR KATL 070251Z 29005KT 10SM FEW025 SCT045 SCT250 11/09 A3008 RMK AO2 SLP185 T01060094 51019=
200501070151 METAR KATL 070151Z 29007KT 10SM FEW019 SCT045 BKN250 11/11 A3007 RMK AO2 SLP180 T01110106=
200501070051 METAR KATL 070051Z 27006KT 10SM FEW019 SCT045 BKN250 12/11 A3005=
200501062351 METAR KATL 062351Z 28006KT 10SM SCT019 BKN035 OVC250 13/12 A3003 RMK AO2 SLP165 60012 T01280117 10150 20128 53012=
200501062251 METAR KATL 062251Z 26005KT 10SM OVC015 14/12 A3000 RMK AO2 SLP157 T01390122=
200501062151 METAR KATL 062151Z 28009KT 8SM OVC011 14/13 A3000 RMK AO2 SLP157 T01440128=
200501062051 METAR KATL 062051Z 27009KT 8SM BKN005 BKN009 OVC011 14/13 A2999 RMK AO2 RAE11 SLP154 P0000 60012 T01440133 53000=
200501061951 METAR KATL 061951Z 26008KT 6SM -RA BR BKN007 BKN017 OVC040 15/14 A2997 RMK AO2 SLP146 P0002 T01500139=
200501061935 SPECI KATL 061935Z 25008KT 6SM -RA BR BKN007 BKN017 OVC040 15/14 A2997 RMK AO2 P0002=
200501061935 SPECI KATL 061935Z 25008KT 6SM -RA BR BKN007 BKN017 OVC040 15/14 A2997 RMK AO2 P0002=
200501061928 SPECI KATL 061928Z 23006KT 6SM -RA BR BKN004 BKN007 OVC017 14/14 A2996 RMK AO2 P0002=
200501061928 SPECI KATL 061928Z 23006KT 6SM -RA BR BKN004 BKN007 OVC017 14/14 A2996 RMK AO2 P0002=
200501061919 SPECI KATL 061919Z 22006KT 7SM -RA FEW004 BKN017 OVC026 14/14 A2996 RMK AO2 P0002=
200501061919 SPECI KATL 061919Z 22006KT 7SM -RA FEW004 BKN017 OVC026 14/14 A2996 RMK AO2 P0002=
200501061851 METAR KATL 061851Z 19007KT 1 1/2SM R09R/6000VP6000FT RA BR FEW004 BKN017 OVC030 14/13 A2996 RMK AO2 SFC VIS 2 SLP142 P0010 T01390133=
200501061827 SPECI KATL 061827Z 25003KT 1 1/2SM R09R/5500VP6000FT -RA BR SCT004 BKN017 OVC032 14/13 A2997 RMK AO2 P0005=
200501061827 SPECI KATL 061827Z 25003KT 1 1/2SM R09R/5500VP6000FT -RA BR SCT004 BKN017 OVC032 14/13 A2997 RMK AO2 P0005=
200501061759 SPECI KATL 061759Z 28006KT 2 1/2SM -RA BR FEW006 BKN024 OVC029 14/13 A2998 RMK AO2 SFC VIS 3 P0000=
200501061759 SPECI KATL 061759Z 28006KT 2 1/2SM -RA BR FEW006 BKN024 OVC029 14/13 A2998 RMK AO2 SFC VIS 3 P0000=
200501061751 METAR KATL 061751Z 28007KT 2SM R09R/6000VP6000FT -RA BR BKN023 OVC027 14/13 A2999 RMK AO2 TWR VIS 2 1/2 SLP153 P0003 60006 T01390133 10183 20139 50002=
200501061741 SPECI KATL 061741Z 28008KT 2SM -RA BR BKN021 OVC027 14/13 A3000 RMK AO2 TWR VIS 2 1/2 P0001=
200501061741 SPECI KATL 061741Z 28008KT 2SM -RA BR BKN021 OVC027 14/13 A3000 RMK AO2 TWR VIS 2 1/2 P0001=
200501061728 SPECI KATL 061728Z 29006KT 8SM -RA FEW005 BKN021 OVC032 14/13 A2999 RMK AO2 P0001=
200501061728 SPECI KATL 061728Z 29006KT 8SM -RA FEW005 BKN021 OVC032 14/13 A2999 RMK AO2 P0001=
200501061651 METAR KATL 061651Z 31011KT 2SM -RA BR FEW009 BKN022 OVC027 14/13 A3000 RMK AO2 WSHFT 1616 SFC VIS 4 DZE08RAB31 SLP156 P0003 T01390128=
200501061639 SPECI KATL 061639Z 31011KT 2SM R09R/4000VP6000FT -RA BR FEW009 BKN015 OVC025 14/13 A3000 RMK AO2 WSHFT 1616 SFC VIS 4 DZE08RAB31 VIS NE-S 1 1/2 SHRA P0002=
200501061639 SPECI KATL 061639Z 31011KT 2SM R09R/4000VP6000FT -RA BR FEW009 BKN015 OVC025 14/13 A3000 RMK AO2 WSHFT 1616 SFC VIS 4 DZE08RAB31 VIS NE-S 1 1/2 SHRA P0002=
200501061633 SPECI KATL 061633Z 31014KT 4SM RA BR FEW009 BKN015 OVC021 15/13 A2999 RMK AO2 WSHFT 1616 DZE08RAB31 VIS N-NE 1 SW-NW 1 SHRA P0000=
200501061633 SPECI KATL 061633Z 31014KT 4SM RA BR FEW009 BKN015 OVC021 15/13 A2999 RMK AO2 WSHFT 1616 DZE08RAB31 VIS N-NE 1 SW-NW 1 SHRA P0000=
200501061551 METAR KATL 061551Z 21013KT 9SM -DZ BKN015 BKN025 OVC035 18/16 A2999 RMK AO2 DZB46 SLP153 BINOVC P0000 T01780156=
200501061451 METAR KATL 061451Z 21014G19KT 9SM BKN012 BKN015 OVC025 18/16 A2999 RMK AO2 SLP151 60000 T01780156 53005=
200501061351 METAR KATL 061351Z 20010KT 10SM BKN009 OVC014 17/16 A2998 RMK AO2 CIG 005V010 SLP147 T01670156=
200501061251 METAR KATL 061251Z 20009KT 6SM BR OVC007 16/15 A2997=
200501061151 METAR KATL 061151Z 19009KT 7SM OVC005 16/15 A2997 RMK AO2 RAB1052E01 CIG 004V009 SLP146 P0000 60001 70001 T01560150 10161 20150 53001=
200501061051 METAR KATL 061051Z 20008KT 9SM OVC005 16/14 A2996 RMK AO2 RAE0958 SLP143 P0000 T01560144=
200501060951 METAR KATL 060951Z 20006KT 7SM -RA BKN007 OVC033 15/14 A2997 RMK AO2 RAB27 CIG 005V011 SLP144 P0001 T01500139=
200501060944 SPECI KATL 060944Z 20006KT 10SM -RA BKN009 BKN029 OVC033 15/14 A2997 RMK AO2 RAB27 CIG 006V014 P0000=
200501060944 SPECI KATL 060944Z 20006KT 10SM -RA BKN009 BKN029 OVC033 15/14 A2997 RMK AO2 RAB27 CIG 006V014 P0000=
200501060928 SPECI KATL 060928Z 21011KT 10SM -RA BKN011 BKN027 OVC049 15/13 A2997 RMK AO2 RAB27 CIG 008V014 P0000=
200501060928 SPECI KATL 060928Z 21011KT 10SM -RA BKN011 BKN027 OVC049 15/13 A2997 RMK AO2 RAB27 CIG 008V014 P0000=
200501060851 METAR KATL 060851Z 20011KT 10SM FEW024 SCT046 OVC060 15/13 A2997 RMK AO2 SLP143 T01500128 55009=
200501060751 METAR KATL 060751Z 20009KT 10SM SCT024 BKN037 BKN150 15/12 A2997 RMK AO2 SLP143 T01500122=
200501060651 METAR KATL 060651Z 20010KT 10SM SCT027 SCT033 BKN070 16/12 A2998 RMK AO2 SLP147 T01560122=
200501060640 SPECI KATL 060640Z 19009KT 10SM BKN025 BKN032 BKN070 16/12 A2998 RMK AO2=
200501060640 SPECI KATL 060640Z 19009KT 10SM BKN025 BKN032 BKN070 16/12 A2998 RMK AO2=
200501060551 METAR KATL 060551Z 20012KT 10SM BKN070 16/12 A2999 RMK AO2 SLP153 T01560122 10161 20139 58015=
200501060451 METAR KATL 060451Z 18009KT 10SM SCT065 14/11 A3001 RMK AO2 SLP160 T01440111 402000100=
200501060351 METAR KATL 060351Z 16006KT 9SM SCT060 14/11 A3003 RMK AO2 SLP165 T01440111=
200501060251 METAR KATL 060251Z 16004KT 9SM SCT060 14/11 A3004 RMK AO2 SLP171 T01440111 56015=
200501060151 METAR KATL 060151Z 00000KT 9SM SCT050 BKN250 15/11 A3006 RMK AO2 SLP177 T01500111=
200501060051 METAR KATL 060051Z 20003KT 10SM BKN048 BKN250 15/11 A3006=
200501052351 METAR KATL 052351Z 21006KT 10SM BKN031 BKN250 16/12 A3009 RMK AO2 SLP187 T01610117 10200 20161 50006=
200501052326 SPECI KATL 052326Z 22006KT 10SM BKN031 BKN250 16/11 A3008 RMK AO2=
200501052326 SPECI KATL 052326Z 22006KT 10SM BKN031 BKN250 16/11 A3008 RMK AO2=
200501052251 METAR KATL 052251Z 23009KT 10SM BKN029 BKN150 BKN250 17/11 A3009 RMK AO2 SLP187 T01670111=
200501052228 SPECI KATL 052228Z 24011KT 10SM BKN029 BKN150 BKN250 17/11 A3008 RMK AO2=
200501052228 SPECI KATL 052228Z 24011KT 10SM BKN029 BKN150 BKN250 17/11 A3008 RMK AO2=
200501052151 METAR KATL 052151Z 24009KT 10SM FEW030 SCT180 BKN260 18/11 A3007 RMK AO2 SLP181 T01830106=
200501052051 METAR KATL 052051Z 24010KT 10SM FEW035 SCT180 BKN260 19/11 A3007 RMK AO2 SLP179 T01940106 56021=
200501051951 METAR KATL 051951Z 22009KT 8SM FEW035 SCT180 BKN260 20/10 A3008 RMK AO2 SLP183 T02000100=
200501051851 METAR KATL 051851Z 20009G14KT 10SM FEW028 SCT110 SCT180 BKN260 19/11 A3010 RMK AO2 SLP190 T01890111=
200501051751 METAR KATL 051751Z 20008KT 10SM FEW020 BKN180 BKN260 BKN300 17/12 A3013 RMK AO2 SLP201 T01720122 10172 20100 58018=
200501051651 METAR KATL 051651Z 21008KT 10SM FEW020 SCT260 BKN300 17/12 A3017 RMK AO2 SLP215 T01670122=
200501051551 METAR KATL 051551Z 21006KT 8SM FEW015 SCT030 SCT260 BKN300 16/12 A3020=
200501051458 SPECI KATL 051458Z 20003KT 3SM BR BCFG FEW030 BKN260 BKN300 13/12 A3019 RMK AO2 SFC VIS 5=
200501051458 SPECI KATL 051458Z 20003KT 3SM BR BCFG FEW030 BKN260 BKN300 13/12 A3019 RMK AO2 SFC VIS 5=
200501051451 METAR KATL 051451Z 21003KT 3SM BR BCFG FEW030 BKN280 BKN300 13/12 A3019 RMK AO2 SFC VIS 5 SLP220 T01280122 53009=
200501051410 SPECI KATL 051410Z 00000KT 2 1/2SM BR BCFG FEW030 BKN280 BKN300 11/11 A3018 RMK AO2 SFC VIS 3=
200501051410 SPECI KATL 051410Z 00000KT 2 1/2SM BR BCFG FEW030 BKN280 BKN300 11/11 A3018 RMK AO2 SFC VIS 3=
200501051351 METAR KATL 051351Z 00000KT 3SM BR BKN030 BKN150 BKN200 BKN250 11/11 A3018 RMK AO2 SLP218 T01110106=
200501051251 METAR KATL 051251Z 00000KT 10SM FEW150 SCT200 BKN250 11/09 A3017=
200501051151 METAR KATL 051151Z 00000KT 10SM FEW150 SCT200 11/09 A3016 RMK AO2 SLP212 T01060094 10133 20106 56006=
200501051131 SPECI KATL 051131Z 00000KT 10SM FEW026 11/10 A3016 RMK AO2=
200501051131 SPECI KATL 051131Z 00000KT 10SM FEW026 11/10 A3016 RMK AO2=
200501051051 METAR KATL 051051Z 00000KT 6SM BR FEW200 12/11 A3017 RMK AO2 SLP214 T01170106=
200501050951 METAR KATL 050951Z 00000KT 10SM FEW033 BKN200 12/11 A3017 RMK AO2 SLP213 T01170106=
200501050851 METAR KATL 050851Z 00000KT 9SM BKN033 12/11 A3018 RMK AO2 SLP216 T01220106 58013=
200501050751 METAR KATL 050751Z 22003KT 10SM FEW170 SCT250 12/10 A3020 RMK AO2 SLP222 T01220100=
200501050651 METAR KATL 050651Z 00000KT 10SM FEW150 SCT250 12/10 A3020 RMK AO2 SLP225 T01220100=
200501050551 METAR KATL 050551Z 00000KT 9SM SCT250 13/11 A3022 RMK AO2 SLP230 T01330106 10178 20133 58012=
200501050451 METAR KATL 050451Z 00000KT 9SM BKN250 14/11 A3024 RMK AO2 SLP237 T01390106 402170106=
200501050351 METAR KATL 050351Z 00000KT 10SM CLR 14/11 A3025 RMK AO2 SLP242 T01440106=
200501050251 METAR KATL 050251Z 21003KT 10SM SCT180 SCT200 BKN250 16/11 A3025 RMK AO2 SLP243 T01560106 56005=
200501050151 METAR KATL 050151Z 22004KT 10SM FEW180 SCT200 BKN250 16/11 A3026 RMK AO2 SLP244 T01610106=
200501050051 METAR KATL 050051Z 21003KT 10SM FEW150 SCT200 BKN250 17/10 A3026 RMK AO2 SLP245 T01670100=
200501042351 METAR KATL 042351Z 00000KT 10SM FEW150 SCT180 BKN250 17/09 A3027 RMK AO2 SLP249 T01720094 10217 20172 53006=
200501042251 METAR KATL 042251Z 23003KT 10SM FEW150 SCT180 BKN250 19/09 A3026 RMK AO2 SLP245 T01890089=
200501042151 METAR KATL 042151Z 21006KT 10SM FEW150 SCT200 BKN250 21/09 A3025 RMK AO2 SLP242 T02060094=
200501042051 METAR KATL 042051Z 22009KT 10SM FEW045 SCT200 BKN250 21/09 A3025 RMK AO2 SLP241 T02110094 56022=
200501041951 METAR KATL 041951Z 18006KT 10SM FEW040 SCT150 BKN250 21/11 A3026 RMK AO2 SLP244 T02060106=
200501041851 METAR KATL 041851Z 21006KT 10SM FEW040 SCT100 SCT150 BKN250 21/11 A3029=
200501041751 METAR KATL 041751Z 20006KT 10SM FEW035 SCT150 SCT200 BKN250 20/11 A3032 RMK AO2 SLP263 T02000111 10206 20106 58017=
200501041651 METAR KATL 041651Z 18006KT 10SM FEW030 SCT200 BKN250 19/12 A3035 RMK AO2 SLP274 T01940122=
200501041551 METAR KATL 041551Z 23004KT 10SM SCT250 19/12 A3037 RMK AO2 SLP283 T01890122=
200501041451 METAR KATL 041451Z 18003KT 7SM BKN250 15/12 A3037 RMK AO2 SLP282 T01500122 53008=
200501041351 METAR KATL 041351Z 00000KT 10SM FEW150 SCT210 BKN250 12/11 A3036 RMK AO2 SLP281 T01220111=
200501041251 METAR KATL 041251Z COR 29003KT 10SM FEW170 SCT210 BKN250 12/11 A3035 RMK AO2 SLP277 T01170106=
200501041151 METAR KATL 041151Z 00000KT 10SM FEW170 SCT250 11/10 A3034 RMK AO2 SLP275 T01060100 10133 20106 53007=
200501041051 METAR KATL 041051Z 00000KT 10SM FEW170 SCT250 12/10 A3033 RMK AO2 SLP269 T01170100=
200501040951 METAR KATL 040951Z 28003KT 10SM FEW170 SCT250 12/11 A3032 RMK AO2 SLP265 T01220106=
200501040851 METAR KATL 040851Z 22003KT 10SM FEW170 SCT250 12/11 A3032 RMK AO2 SLP265 T01220106 56008=
200501040751 METAR KATL 040751Z 21005KT 10SM FEW170 SCT250 13/11 A3033 RMK AO2 SLP267 T01280106=
200501040651 METAR KATL 040651Z 21005KT 10SM FEW170 BKN250 13/11 A3033 RMK AO2 SLP269 T01280106=
200501040551 METAR KATL 040551Z 21005KT 10SM FEW170 BKN250 13/11 A3035 RMK AO2 SLP275 T01330111 10167 20128 58013=
200501040451 METAR KATL 040451Z 00000KT 10SM SCT150 SCT200 13/11 A3037 RMK AO2 SLP282 T01330106 402000089=
200501040351 METAR KATL 040351Z 00000KT 10SM FEW150 SCT200 14/11 A3038 RMK AO2 SLP286 T01390111=
200501040251 METAR KATL 040251Z 21003KT 10SM FEW200 14/11 A3039 RMK AO2 SLP289 T01440111 51006=
200501040151 METAR KATL 040151Z 19003KT 8SM FEW150 SCT200 15/12 A3038 RMK AO2 SLP288 T01500117=
200501040051 METAR KATL 040051Z 00000KT 8SM FEW150 SCT200 16/12 A3038 RMK AO2 SLP286 T01610117=
200501032351 METAR KATL 032351Z 00000KT 10SM FEW035 SCT150 SCT200 17/12 A3037 RMK AO2 SLP283 T01670117 10200 20167 53007=
200501032251 METAR KATL 032251Z 17004KT 10SM FEW039 SCT150 SCT180 18/12 A3036 RMK AO2 SLP277 T01830122=
200501032151 METAR KATL 032151Z 15006KT 10SM FEW035 SCT150 SCT180 BKN250 19/12 A3034 RMK AO2 SLP273 T01940117=
200501032051 METAR KATL 032051Z 19008KT 10SM FEW030 SCT180 BKN250 19/12 A3034 RMK AO2 SLP274 T01940122 56019=
200501031951 METAR KATL 031951Z 17008KT 9SM FEW025 SCT150 SCT180 BKN250 19/12 A3035 RMK AO2 SLP276 T01940122=
200501031851 METAR KATL 031851Z 23004KT 9SM FEW025 SCT100 BKN180 BKN250 18/12 A3037=
200501031751 METAR KATL 031751Z 19004KT 10SM FEW025 SCT150 BKN180 BKN250 18/12 A3040 RMK AO2 SLP294 T01780122 10178 20089 58023=
200501031651 METAR KATL 031651Z 19006KT 10SM FEW120 BKN150 BKN200 BKN250 16/12 A3044 RMK AO2 SLP307 T01610122=
200501031551 METAR KATL 031551Z 19003KT 10SM FEW120 BKN200 BKN250 14/12 A3046=
200501031451 METAR KATL 031451Z 17003KT 6SM BR BKN250 13/12 A3047 RMK AO2 SLP319 T01330122 53021=
200501031351 METAR KATL 031351Z 00000KT 4SM BR FEW001 SCT120 BKN150 12/11 A3044 RMK AO2 SLP308 T01170106=
200501031331 SPECI KATL 031331Z 06004KT 1SM BR SCT001 11/10 A3043 RMK AO2 SFC VIS 3=
200501031331 SPECI KATL 031331Z 06004KT 1SM BR SCT001 11/10 A3043 RMK AO2 SFC VIS 3=
200501031318 SPECI KATL 031318Z 07004KT 1/2SM BR BKN001 09/08 A3042 RMK AO2 SFC VIS 2=
200501031318 SPECI KATL 031318Z 07004KT 1/2SM BR BKN001 09/08 A3042 RMK AO2 SFC VIS 2=
200501031306 SPECI KATL 031306Z 08004KT 3SM BR FEW001 09/08 A3042 RMK AO2 SFC VIS 4=
200501031306 SPECI KATL 031306Z 08004KT 3SM BR FEW001 09/08 A3042 RMK AO2 SFC VIS 4=
200501031251 METAR KATL 031251Z 09003KT 3SM BR FEW100 SCT130 10/09 A3042=
200501031151 METAR KATL 031151Z 00000KT 7SM SCT120 10/09 A3041 RMK AO2 SLP297 T01000094 10128 20094 58011=
200501031051 METAR KATL 031051Z 07003KT 7SM FEW100 10/09 A3042 RMK AO2 SLP301 T01000094=
200501030951 METAR KATL 030951Z 00000KT 8SM FEW100 11/11 A3043 RMK AO2 SLP304 T01110106=
200501030851 METAR KATL 030851Z 00000KT 8SM BKN032 11/10 A3044 RMK AO2 SLP307 T01110100 55005=
200501030751 METAR KATL 030751Z 08004KT 8SM SCT250 11/10 A3044 RMK AO2 SLP306 T01110100=
200501030651 METAR KATL 030651Z 09004KT 9SM FEW250 12/10 A3045 RMK AO2 SLP309 T01220100=
200501030551 METAR KATL 030551Z 07003KT 9SM SCT250 13/11 A3046 RMK AO2 SLP313 T01280106 10172 20122 58004=
200501030451 METAR KATL 030451Z 00000KT 9SM FEW250 13/11 A3047 RMK AO2 SLP317 T01330106 402000089=
200501030351 METAR KATL 030351Z 09007KT 10SM FEW250 12/10 A3047 RMK AO2 SLP316 T01220100=
200501030251 METAR KATL 030251Z 10003KT 10SM SCT250 14/11 A3047 RMK AO2 SLP319 T01390106 53007=
200501030151 METAR KATL 030151Z 09006KT 10SM SCT250 15/10 A3046 RMK AO2 SLP314 T01500100=
200501030051 METAR KATL 030051Z 11004KT 10SM FEW200 16/11 A3045 RMK AO2 SLP313 T01560106=
200501022351 METAR KATL 022351Z 13003KT 10SM SCT200 17/11 A3045 RMK AO2 SLP312 T01670106 10200 20167 53010=
200501022251 METAR KATL 022251Z 13004KT 10SM SCT200 18/10 A3044 RMK AO2 SLP306 T01780100=
200501022151 METAR KATL 022151Z 11006KT 10SM FEW040 SCT045 SCT180 BKN210 BKN250 19/11 A3043 RMK AO2 SLP303 T01890106=
200501022051 METAR KATL 022051Z 14004KT 10SM SCT041 SCT049 BKN180 BKN210 BKN250 20/11 A3042 RMK AO2 SLP300 T02000106 55014=
200501021951 METAR KATL 021951Z 11003KT 10SM SCT047 BKN180 BKN210 BKN250 19/11 A3042 RMK AO2 SLP299 T01940106=
200501021851 METAR KATL 021851Z 12004KT 10SM FEW031 SCT043 BKN055 BKN180 BKN230 19/11 A3044 RMK AO2 SLP306 T01890106=
200501021751 METAR KATL 021751Z VRB03KT 10SM FEW028 SCT044 BKN060 BKN180 BKN230 18/11 A3046 RMK AO2 SLP314 T01830111 10200 20089 58015=
200501021651 METAR KATL 021651Z 00000KT 10SM FEW015 SCT030 BKN060 BKN180 BKN230 18/12 A3050 RMK AO2 SLP326 T01830117=
200501021551 METAR KATL 021551Z 11004KT 10SM BKN090 BKN160 BKN230 17/12 A3051 RMK AO2 SLP331 T01670117=
200501021451 METAR KATL 021451Z 00000KT 10SM FEW048 SCT200 SCT250 13/11 A3051 RMK AO2 SLP331 T01330106 53018=
200501021351 METAR KATL 021351Z 09007KT 9SM BKN048 BKN180 12/10 A3048 RMK AO2 SLP323 T01170100=
200501021251 METAR KATL 021251Z 07004KT 9SM FEW180 SCT250 09/08 A3048=
200501021151 METAR KATL 021151Z 08006KT 7SM FEW120 SCT180 09/08 A3045 RMK AO2 SLP313 T00890078 10117 20089 51013=
200501021051 METAR KATL 021051Z 08005KT 10SM SCT180 09/08 A3045 RMK AO2 SLP310 T00890078=
200501020951 METAR KATL 020951Z 00000KT 10SM BKN200 11/09 A3043 RMK AO2 SLP303 T01110089=
200501020851 METAR KATL 020851Z 00000KT 9SM BKN180 10/08 A3041 RMK AO2 SLP297 T01000078 58001=
200501020751 METAR KATL 020751Z 00000KT 10SM BKN180 11/08 A3043 RMK AO2 SLP302 T01110083=
200501020651 METAR KATL 020651Z 00000KT 10SM BKN150 11/08 A3040 RMK AO2 SLP294 T01110083=
200501020551 METAR KATL 020551Z 00000KT 10SM BKN130 12/08 A3042 RMK AO2 SLP298 T01170083 10156 20117 58004=
200501020451 METAR KATL 020451Z 12004KT 9SM BKN130 12/08 A3042 RMK AO2 SLP300 T01170083 402060072=
200501020351 METAR KATL 020351Z 14004KT 10SM BKN130 13/09 A3045 RMK AO2 SLP310 T01330089=
200501020251 METAR KATL 020251Z 12004KT 10SM SCT130 13/09 A3043 RMK AO2 SLP305 T01330089 51006=
200501020151 METAR KATL 020151Z 12004KT 10SM FEW120 14/09 A3042 RMK AO2 SLP303 T01440089=
200501020051 METAR KATL 020051Z 11005KT 10SM FEW100 15/08 A3041 RMK AO2 SLP301 T01500083=
200501012351 METAR KATL 012351Z 13004KT 10SM FEW100 16/08 A3041 RMK AO2 SLP297 T01560083 10206 20156 53004=
200501012251 METAR KATL 012251Z 11004KT 10SM FEW120 BKN250 17/08 A3040 RMK AO2 SLP293 T01720078=
200501012151 METAR KATL 012151Z 13004KT 10SM FEW050 BKN250 19/08 A3040 RMK AO2 SLP293 T01890083=
200501012051 METAR KATL 012051Z 11003KT 10SM SCT050 BKN250 19/08 A3039 RMK AO2 SLP291 T01940083 55012=
200501011951 METAR KATL 011951Z 11004KT 10SM SCT042 BKN200 19/09 A3039 RMK AO2 SLP291 T01890089=
200501011851 METAR KATL 011851Z 11005KT 10SM SCT045 BKN200 20/09 A3041 RMK AO2 SLP295 T02000089=
200501011751 METAR KATL 011751Z 19005KT 10SM SCT200 18/09 A3043 RMK AO2 SLP304 T01780094 10178 20072 58014=
200501011651 METAR KATL 011651Z 20005KT 10SM SCT200 17/11 A3046 RMK AO2 SLP315 T01670111=
200501011551 METAR KATL 011551Z 12004KT 4SM HZ BKN180 13/11 A3048 RMK AO2 SLP321 T01330106=
200501011451 METAR KATL 011451Z 09004KT 4SM BR BKN180 10/09 A3047 RMK AO2 SLP321 T01000089 53018=
200501011351 METAR KATL 011351Z 00000KT 4SM BR BKN180 08/07 A3045 RMK AO2 SLP314 T00830072=
200501011251 METAR KATL 011251Z 00000KT 6SM BR SCT180 BKN250 08/07 A3044 RMK AO2 SLP309 T00780067=
Fallo de consulta: el error es SELECT command denied to user 'users'@'localhost' for table 'tafs_2005'
