##########################################################
# Query made at 04/19/2024 22:53:01 UTC
# Time interval: from 10/01/2005 12:00  to 10/31/2005 12:59  UTC
##########################################################

##########################################################
# KATL, Atlanta, Hartsfield - Jackson Atlanta International Airport (United States)
# WMO index: 72219. WIGOS ID: 0-20000-0-72219
# Latitude 33-38-59N. Longitude 084-25-00W. Altitude 312 m.
##########################################################

200510311251 METAR KATL 311251Z 00000KT 10SM CLR 09/06 A3036 RMK AO2 SLP282 T00940056=
200510311151 METAR KATL 311151Z 00000KT 7SM CLR 07/04 A3035 RMK AO2 SLP280 T00720044 10106 20061 51007=
200510311051 METAR KATL 311051Z 00000KT 8SM CLR 07/04 A3035 RMK AO2 SLP278 T00720039=
200510310951 METAR KATL 310951Z 28004KT 9SM CLR 08/04 A3034 RMK AO2 SLP275 T00780039=
200510310851 METAR KATL 310851Z 00000KT 9SM CLR 09/04 A3033 RMK AO2 SLP270 T00940044 58006=
200510310751 METAR KATL 310751Z 00000KT 7SM CLR 09/04 A3034 RMK AO2 SLP273 T00890044=
200510310651 METAR KATL 310651Z 00000KT 8SM CLR 10/05 A3035 RMK AO2 SLP275 T01000050=
200510310551 METAR KATL 310551Z 13003KT 9SM CLR 11/05 A3035 RMK AO2 SLP277 T01060050 10156 20106 58005=
200510310451 METAR KATL 310451Z 20003KT 10SM CLR 12/05 A3036 RMK AO2 SLP280 T01170050 402060056=
200510310351 METAR KATL 310351Z 16004KT 10SM CLR 13/05 A3036 RMK AO2 SLP281 T01280050=
200510310251 METAR KATL 310251Z 17003KT 10SM CLR 13/05 A3037 RMK AO2 SLP283 T01330050 51004=
200510310151 METAR KATL 310151Z 15004KT 10SM CLR 13/06 A3036 RMK AO2 SLP283 T01330061=
200510310051 METAR KATL 310051Z 00000KT 10SM CLR 14/05 A3037 RMK AO2 SLP285 T01390050=
200510302351 METAR KATL 302351Z 00000KT 10SM CLR 16/04 A3036 RMK AO2 SLP281 T01560039 10206 20156 53005=
200510302251 METAR KATL 302251Z 17004KT 10SM CLR 18/03 A3034 RMK AO2 SLP276 T01780033=
200510302151 METAR KATL 302151Z 19005KT 10SM CLR 19/02 A3034 RMK AO2 SLP274 T01940022=
200510302051 METAR KATL 302051Z 32003KT 10SM CLR 20/02 A3034 RMK AO2 SLP274 T02000017 56016=
200510301951 METAR KATL 301951Z VRB03KT 10SM CLR 20/02 A3035 RMK AO2 SLP277 T02000017=
200510301851 METAR KATL 301851Z VRB04KT 10SM CLR 19/02 A3037 RMK AO2 SLP283 T01890022=
200510301751 METAR KATL 301751Z VRB04KT 10SM CLR 19/04 A3039 RMK AO2 SLP290 T01890039 10189 20061 58016=
200510301651 METAR KATL 301651Z 06003KT 10SM CLR 17/04 A3042 RMK AO2 SLP301 T01720044=
200510301551 METAR KATL 301551Z 29003KT 10SM CLR 16/05 A3044 RMK AO2 SLP309 T01560050=
200510301451 METAR KATL 301451Z 28004KT 10SM CLR 14/06 A3044 RMK AO2 SLP308 T01440056 51008=
200510301351 METAR KATL 301351Z 30003KT 8SM CLR 12/06 A3044 RMK AO2 SLP308 T01170061=
200510301251 METAR KATL 301251Z 00000KT 8SM CLR 07/04 A3043 RMK AO2 SLP305 T00720044=
200510301151 METAR KATL 301151Z 00000KT 7SM FEW200 06/03 A3041 RMK AO2 SLP301 T00610033 10089 20056 53005=
200510301051 METAR KATL 301051Z 00000KT 8SM CLR 06/03 A3040 RMK AO2 SLP297 T00610033=
200510300951 METAR KATL 300951Z 00000KT 8SM CLR 07/04 A3041 RMK AO2 SLP298 T00670039=
200510300851 METAR KATL 300851Z 00000KT 7SM CLR 07/04 A3040 RMK AO2 SLP294 T00670039 51007=
200510300751 METAR KATL 300751Z 00000KT 8SM CLR 07/04 A3039 RMK AO2 SLP292 T00670039=
200510300651 METAR KATL 300651Z 00000KT 8SM CLR 08/04 A3039 RMK AO2 SLP291 T00780044=
200510300551 METAR KATL 300551Z 00000KT 6SM HZ CLR 08/04 A3038 RMK AO2 SLP287 T00830044 10139 20078 53002=
200510300451 METAR KATL 300451Z 31003KT 10SM CLR 09/04 A3037 RMK AO2 SLP287 T00890044 401780039=
200510300351 METAR KATL 300351Z 00000KT 10SM CLR 10/05 A3037=
200510300251 METAR KATL 300251Z 00000KT 10SM CLR 10/06 A3037 RMK AO2 SLP286 T01000056 53010=
200510300151 METAR KATL 300151Z 00000KT 10SM CLR 12/06 A3035 RMK AO2 SLP280 T01170056=
200510300051 METAR KATL 300051Z 00000KT 10SM CLR 13/05 A3035 RMK AO2 SLP277 T01280050=
200510292351 METAR KATL 292351Z 24003KT 10SM CLR 14/04 A3034 RMK AO2 SLP276 T01390044 10178 20133 53004=
200510292251 METAR KATL 292251Z 06005KT 10SM CLR 14/04 A3033 RMK AO2 SLP272 T01440039=
200510292151 METAR KATL 292151Z 00000KT 10SM CLR 17/03 A3033 RMK AO2 SLP271 T01670033=
200510292051 METAR KATL 292051Z 00000KT 10SM CLR 18/03 A3033 RMK AO2 SLP271 T01780033 56013=
200510291951 METAR KATL 291951Z 02005KT 10SM CLR 17/03 A3033 RMK AO2 SLP274 T01720033=
200510291851 METAR KATL 291851Z 01004KT 10SM FEW050 17/04 A3034 RMK AO2 SLP277 T01670039=
200510291751 METAR KATL 291751Z VRB03KT 10SM SCT042 16/04 A3037 RMK AO2 SLP285 MDT CU ALQDS T01560044 10156 20061 58009=
200510291651 METAR KATL 291651Z 08005KT 9SM CLR 14/06 A3039 RMK AO2 SLP293 T01440056=
200510291551 METAR KATL 291551Z 12005KT 8SM CLR 13/06 A3040 RMK AO2 SLP295 T01330056=
200510291451 METAR KATL 291451Z 10006KT 9SM CLR 11/05 A3040 RMK AO2 SLP295 T01110050 51015 $=
200510291351 METAR KATL 291351Z 08007KT 8SM CLR 08/04 A3039 RMK AO2 SLP292 T00830039 $=
200510291251 METAR KATL 291251Z 04007KT 9SM CLR 08/03 A3037 RMK AO2 SLP286 T00780033 $=
200510291151 METAR KATL 291151Z 02006KT 9SM FEW200 07/02 A3035 RMK AO2 SLP280 T00670022 10067 20039 53015 $=
200510291051 METAR KATL 291051Z 02005KT 10SM CLR 06/02 A3033 RMK AO2 SLP274 T00610022 $=
200510290951 METAR KATL 290951Z 33004KT 10SM CLR 04/01 A3032 RMK AO2 SLP268 T00390011 $=
200510290851 METAR KATL 290851Z 33006KT 10SM CLR 04/01 A3030 RMK AO2 SLP264 T00390011 53002 $=
200510290751 METAR KATL 290751Z 32007KT 10SM CLR 05/01 A3030 RMK AO2 SLP260 T00500011=
200510290651 METAR KATL 290651Z 33007KT 10SM CLR 06/01 A3030 RMK AO2 SLP260 T00560011=
200510290551 METAR KATL 290551Z 34006KT 10SM CLR 07/01 A3030 RMK AO2 SLP260 T00720011 10117 20067 51003=
200510290451 METAR KATL 290451Z 34005KT 10SM CLR 08/01 A3030 RMK AO2 SLP260 T00780011 401670039=
200510290351 METAR KATL 290351Z 33004KT 10SM CLR 08/02 A3029 RMK AO2 SLP260 T00780017=
200510290251 METAR KATL 290251Z 32006KT 10SM CLR 08/02 A3029 RMK AO2 SLP258 T00830017 51010=
200510290151 METAR KATL 290151Z 33007KT 10SM CLR 10/01 A3027 RMK AO2 SLP254 T01000011=
200510290051 METAR KATL 290051Z 32008KT 10SM CLR 11/02 A3027 RMK AO2 SLP254 T01060022=
200510282351 METAR KATL 282351Z 31008KT 10SM CLR 12/02 A3026 RMK AO2 SLP249 T01170022 10167 20117 53011=
200510282251 METAR KATL 282251Z 32007KT 10SM FEW050 14/02 A3023 RMK AO2 SLP240 T01390022=
200510282151 METAR KATL 282151Z 33008KT 10SM CLR 16/01 A3022 RMK AO2 SLP236 T01560011=
200510282051 METAR KATL 282051Z 34009KT 10SM FEW055 16/02 A3022 RMK AO2 SLP235 T01610017 55006=
200510281951 METAR KATL 281951Z 26007KT 10SM FEW055 16/02 A3022 RMK AO2 SLP234 T01610022=
200510281851 METAR KATL 281851Z 35009KT 340V040 10SM FEW055 17/02 A3022 RMK AO2 SLP235 T01670022=
200510281751 METAR KATL 281751Z 31010KT 10SM FEW055 16/02 A3024 RMK AO2 SLP241 T01610022 10161 20039 58009=
200510281651 METAR KATL 281651Z 01005KT 10SM FEW050 15/03 A3026 RMK AO2 SLP247 T01500028=
200510281551 METAR KATL 281551Z 00000KT 10SM CLR 13/04 A3027 RMK AO2 SLP251 T01330039=
200510281451 METAR KATL 281451Z 33005KT 10SM CLR 11/04 A3027 RMK AO2 SLP251 T01110039 51016=
200510281351 METAR KATL 281351Z 33007KT 10SM CLR 08/04 A3026 RMK AO2 SLP248 T00830039=
200510281251 METAR KATL 281251Z 33005KT 9SM CLR 05/03 A3024 RMK AO2 SLP243 T00500028=
200510281151 METAR KATL 281151Z 31006KT 10SM CLR 04/02 A3022 RMK AO2 SLP236 T00390022 10072 20039 53010=
200510281051 METAR KATL 281051Z 32005KT 10SM CLR 04/02 A3020 RMK AO2 SLP230 T00440022=
200510280951 METAR KATL 280951Z 32005KT 10SM CLR 04/03 A3020 RMK AO2 SLP228 T00440028=
200510280851 METAR KATL 280851Z 32003KT 10SM CLR 05/03 A3019 RMK AO2 SLP224 T00500028 55000=
200510280751 METAR KATL 280751Z 32006KT 10SM CLR 06/03 A3018 RMK AO2 SLP222 T00560033=
200510280651 METAR KATL 280651Z 33006KT 10SM CLR 06/04 A3019 RMK AO2 SLP224 T00610039=
200510280551 METAR KATL 280551Z 33008KT 10SM CLR 07/04 A3019 RMK AO2 SLP224 T00720044 10133 20067 58001=
200510280451 METAR KATL 280451Z 31005KT 10SM CLR 08/04 A3019 RMK AO2 SLP226 T00780039 401720050=
200510280351 METAR KATL 280351Z 03006KT 10SM FEW060 11/03 A3020 RMK AO2 SLP225 T01110033=
200510280251 METAR KATL 280251Z 03008KT 10SM FEW065 12/03 A3019 RMK AO2 SLP225 T01170033 53013=
200510280151 METAR KATL 280151Z 02008KT 10SM FEW065 13/02 A3018 RMK AO2 SLP219 T01330022=
200510280051 METAR KATL 280051Z 36008KT 10SM FEW070 13/03 A3017 RMK AO2 SLP218 T01280028=
200510272351 METAR KATL 272351Z 35007KT 10SM FEW060 13/03 A3015 RMK AO2 SLP213 T01330028 10172 20133 53010=
200510272251 METAR KATL 272251Z 34009KT 10SM SCT060 15/02 A3014 RMK AO2 SLP206 T01500022=
200510272151 METAR KATL 272151Z 31007KT 10SM BKN070 BKN250 16/02 A3013 RMK AO2 SLP202 T01560022=
200510272051 METAR KATL 272051Z 03007KT 10SM BKN065 16/02 A3012 RMK AO2 SLP201 T01560017 55008=
200510271951 METAR KATL 271951Z 33005KT 10SM SCT060 16/02 A3012 RMK AO2 SLP201 T01610017=
200510271851 METAR KATL 271851Z VRB04KT 10SM SCT060 16/01 A3013 RMK AO2 SLP203 T01610011=
200510271751 METAR KATL 271751Z VRB04KT 10SM SCT060 16/02 A3015 RMK AO2 SLP210 T01560017 10161 20056 58017=
200510271651 METAR KATL 271651Z 00000KT 10SM FEW055 15/01 A3018 RMK AO2 SLP220 T01500011=
200510271551 METAR KATL 271551Z VRB03KT 10SM CLR 14/03 A3019 RMK AO2 SLP225 T01390033=
200510271451 METAR KATL 271451Z 07004KT 10SM CLR 12/05 A3020 RMK AO2 SLP227 T01170050 51010=
200510271351 METAR KATL 271351Z 06005KT 10SM CLR 09/04 A3019 RMK AO2 SLP226 T00890039=
200510271251 METAR KATL 271251Z 05006KT 10SM FEW250 07/03 A3018 RMK AO2 SLP223 T00720033=
200510271151 METAR KATL 271151Z 06004KT 10SM FEW250 06/02 A3017 RMK AO2 SLP218 T00610022 10072 20050 51012=
200510271051 METAR KATL 271051Z 01005KT 9SM CLR 06/02 A3016 RMK AO2 SLP215 T00610017=
200510270951 METAR KATL 270951Z 00000KT 10SM CLR 06/02 A3015 RMK AO2 SLP209 T00560017=
200510270851 METAR KATL 270851Z 33006KT 10SM CLR 05/02 A3013 RMK AO2 SLP205 T00500022 50001=
200510270751 METAR KATL 270751Z 32004KT 10SM CLR 06/02 A3013 RMK AO2 SLP205 T00610022=
200510270651 METAR KATL 270651Z 32003KT 10SM CLR 06/02 A3013 RMK AO2 SLP205 T00610022=
200510270551 METAR KATL 270551Z 00000KT 10SM CLR 07/03 A3013 RMK AO2 SLP204 T00670028 10128 20067 50003=
200510270451 METAR KATL 270451Z VRB03KT 10SM CLR 07/03 A3013 RMK AO2 SLP205 T00720028 401610028=
200510270351 METAR KATL 270351Z 00000KT 10SM CLR 09/02 A3013 RMK AO2 SLP203 T00890022=
200510270251 METAR KATL 270251Z 00000KT 9SM CLR 09/03 A3012 RMK AO2 SLP201 T00890028 51009=
200510270151 METAR KATL 270151Z 32003KT 10SM CLR 11/03 A3011 RMK AO2 SLP199 T01060028=
200510262251 METAR KATL 262251Z VRB04KT 10SM CLR 13/01 A3008 RMK AO2 SLP188 T01330006=
200510262151 METAR KATL 262151Z VRB05KT 10SM CLR 15/01 A3007 RMK AO2 SLP184 T01500006=
200510262051 METAR KATL 262051Z 29005KT 10SM CLR 15/00 A3006 RMK AO2 SLP183 T01500000 56013=
200510261951 METAR KATL 261951Z 32007KT 10SM CLR 15/01 A3007 RMK AO2 SLP183 T01500011=
200510261851 METAR KATL 261851Z 33011G15KT 10SM CLR 14/01 A3008 RMK AO2 SLP188 T01440006=
200510261751 METAR KATL 261751Z 34011G16KT 10SM CLR 14/01 A3010 RMK AO2 SLP195 T01440006 10144 20028 58013=
200510261651 METAR KATL 261651Z 30010KT 10SM FEW050 13/01 A3012 RMK AO2 SLP201 T01330011=
200510261551 METAR KATL 261551Z 35012KT 10SM FEW040 12/02 A3014 RMK AO2 SLP210 T01220022=
200510261451 METAR KATL 261451Z 32007KT 10SM CLR 10/03 A3014 RMK AO2 SLP210 T01000033 51016=
200510261351 METAR KATL 261351Z 31011KT 10SM CLR 07/03 A3014 RMK AO2 SLP209 T00720033=
200510261251 METAR KATL 261251Z 30010KT 10SM CLR 04/02 A3012 RMK AO2 SLP204 T00440022=
200510261151 METAR KATL 261151Z 29008KT 10SM CLR 03/01 A3009 RMK AO2 SLP196 T00280011 10044 20028 51018=
200510261051 METAR KATL 261051Z 29009KT 10SM CLR 03/01 A3008 RMK AO2 SLP188 T00330011=
200510260951 METAR KATL 260951Z 28006KT 10SM CLR 03/01 A3006 RMK AO2 SLP183 T00280006=
200510260851 METAR KATL 260851Z 28007KT 10SM CLR 03/01 A3004 RMK AO2 SLP176 T00280011 51004=
200510260751 METAR KATL 260751Z 29007KT 10SM CLR 04/01 A3004 RMK AO2 SLP175 T00390011=
200510260651 METAR KATL 260651Z 27006KT 9SM CLR 04/01 A3003 RMK AO2 SLP174 T00390011=
200510260551 METAR KATL 260551Z 29007KT 10SM CLR 04/01 A3003 RMK AO2 SLP171 T00440011 10100 20039 56004=
200510260451 METAR KATL 260451Z 31006KT 10SM CLR 05/01 A3003 RMK AO2 SLP170 T00500011 401220044=
200510260351 METAR KATL 260351Z 28006KT 10SM CLR 05/01 A3003 RMK AO2 SLP174 T00500011=
200510260251 METAR KATL 260251Z 27004KT 10SM CLR 07/01 A3004 RMK AO2 SLP174 T00670011 53014=
200510260151 METAR KATL 260151Z 29006KT 10SM CLR 08/01 A3002 RMK AO2 SLP169 T00780006=
200510260051 METAR KATL 260051Z 31009KT 10SM FEW065 09/01 A3000 RMK AO2 SLP163 T00890006=
200510252351 METAR KATL 252351Z 30012KT 10SM FEW050 BKN065 10/00 A3000 RMK AO2 SLP160 60000 T01000000 10122 20100 51023=
200510252251 METAR KATL 252251Z 30011G17KT 10SM FEW050 BKN070 11/00 A2997 RMK AO2 SLP152 T01060000=
200510252151 METAR KATL 252151Z 30016G21KT 10SM FEW048 BKN060 11/00 A2995 RMK AO2 SLP144 T01110000=
200510252051 METAR KATL 252051Z 29016KT 10SM FEW040 SCT060 BKN070 12/01 A2993 RMK AO2 SLP135 60000 T01170006 51007=
200510251951 METAR KATL 251951Z 30016G22KT 10SM FEW045 SCT065 BKN075 11/01 A2992 RMK AO2 RAB08E18 SLP134 P0000 T01060006=
200510251851 METAR KATL 251851Z 31014G20KT 10SM FEW040 BKN050 BKN060 11/01 A2991 RMK AO2 RAB04E13 SLP130 P0000 T01110011=
200510251751 METAR KATL 251751Z 30016G23KT 10SM FEW040 SCT050 BKN060 11/01 A2990 RMK AO2 PK WND 30026/1720 SLP127 T01110006 10117 20061 58004=
200510251651 METAR KATL 251651Z 30012KT 10SM SCT040 BKN050 BKN060 11/02 A2992 RMK AO2 SLP133 T01110017=
200510251551 METAR KATL 251551Z 31014KT 10SM BKN035 BKN045 BKN055 10/02 A2993 RMK AO2 PK WND 30026/1520 SLP138 T01000022=
200510251451 METAR KATL 251451Z 30013G22KT 10SM BKN030 BKN040 09/03 A2992 RMK AO2 SLP133 T00940028 53014=
200510251424 SPECI KATL 251424Z 31013G19KT 10SM BKN030 BKN050 09/03 A2991 RMK AO2=
200510251424 SPECI KATL 251424Z 31013G19KT 10SM BKN030 BKN050 09/03 A2991 RMK AO2=
200510251351 METAR KATL 251351Z 31014KT 10SM BKN025 BKN030 BKN050 08/03 A2990 RMK AO2 SLP128 T00830028=
200510251251 METAR KATL 251251Z 29011KT 10SM FEW026 SCT050 07/03 A2988 RMK AO2 SLP123 T00720028=
200510251151 METAR KATL 251151Z 29010KT 10SM FEW036 SCT055 06/02 A2987 RMK AO2 SLP119 T00610022 10078 20050 53005=
200510251051 METAR KATL 251051Z 29009KT 10SM OVC049 07/02 A2986 RMK AO2 SLP115 BINOVC T00720022=
200510250951 METAR KATL 250951Z 29014G20KT 10SM OVC047 07/02 A2986 RMK AO2 SLP114 BINOVC T00670022=
200510250851 METAR KATL 250851Z 29011KT 10SM OVC041 07/02 A2986 RMK AO2 SLP112 T00670022 58004=
200510250751 METAR KATL 250751Z 30009KT 10SM OVC048 07/02 A2986 RMK AO2 SLP114 T00670017=
200510250651 METAR KATL 250651Z 29010KT 10SM OVC050 07/02 A2987 RMK AO2 SLP116 BINOVC T00720022=
200510250551 METAR KATL 250551Z 31012KT 10SM FEW043 BKN055 08/02 A2987 RMK AO2 SLP116 T00780017 10089 20072 56005=
200510250451 METAR KATL 250451Z 31015G19KT 10SM FEW035 OVC050 08/02 A2987 RMK AO2 SLP117 T00780017 401330056=
200510250351 METAR KATL 250351Z 31011KT 10SM FEW035 BKN045 OVC055 08/02 A2988 RMK AO2 SLP120 T00780017=
200510250251 METAR KATL 250251Z 33016KT 10SM FEW035 SCT055 08/02 A2989 RMK AO2 SLP123 T00780017 50006=
200510250151 METAR KATL 250151Z 32013KT 10SM FEW035 OVC050 08/02 A2989 RMK AO2 SLP125 T00830017=
200510250051 METAR KATL 250051Z 33011KT 10SM OVC045 08/01 A2988 RMK AO2 SLP122 T00830006=
200510242351 METAR KATL 242351Z 33015G20KT 10SM FEW038 OVC045 09/01 A2987 RMK AO2 PK WND 33027/2252 SLP118 T00890006 10133 20089 51018=
200510242251 METAR KATL 242251Z 33021G28KT 10SM OVC042 09/01 A2985 RMK AO2 PK WND 33028/2248 SLP111 T00890006=
200510242151 METAR KATL 242151Z 35017G29KT 10SM BKN040 10/00 A2984 RMK AO2 PK WND 35029/2147 SLP106 T01000000=
200510242051 METAR KATL 242051Z 34021G29KT 10SM FEW045 12/00 A2981 RMK AO2 PK WND 33029/2044 SLP097 T01170000 55007=
200510241951 METAR KATL 241951Z 36017KT 10SM FEW050 13/00 A2980 RMK AO2 PK WND 36027/1938 SLP092 T01330000=
200510241851 METAR KATL 241851Z 35018G24KT 10SM FEW050 13/M01 A2981 RMK AO2 PK WND 36029/1811 SLP096 T01281006=
200510241751 METAR KATL 241751Z 35019G26KT 10SM FEW045 12/M01 A2984 RMK AO2 PK WND 34026/1747 SLP103 T01221011 10122 20056 58022=
200510241651 METAR KATL 241651Z 35016G25KT 10SM FEW045 SCT240 11/M01 A2986 RMK AO2 SLP113 T01111011=
200510241551 METAR KATL 241551Z 35019G24KT 10SM FEW040 SCT240 11/M01 A2988 RMK AO2 PK WND 36026/1540 SLP120 T01061011=
200510241451 METAR KATL 241451Z 33015G25KT 10SM FEW040 09/00 A2990 RMK AO2 SLP126 T00890000 51006=
200510241351 METAR KATL 241351Z 34011G19KT 10SM FEW025 08/01 A2990 RMK AO2 SLP126 T00780011=
200510241251 METAR KATL 241251Z 31011KT 10SM CLR 06/01 A2989 RMK AO2 SLP122 T00610011=
200510241151 METAR KATL 241151Z 32011KT 10SM FEW250 06/01 A2988 RMK AO2 SLP120 T00560006 10111 20056 51004=
200510241051 METAR KATL 241051Z 33013KT 10SM CLR 06/01 A2988 RMK AO2 SLP118 T00610011=
200510240951 METAR KATL 240951Z 32016G23KT 10SM SCT075 07/01 A2988 RMK AO2 PK WND 32028/0933 SLP115 T00720006=
200510240851 METAR KATL 240851Z 32016G23KT 10SM BKN080 08/00 A2987 RMK AO2 PK WND 32030/0752 SLP112 T00830000 53001=
200510240751 METAR KATL 240751Z 32018G23KT 10SM BKN060 09/01 A2986 RMK AO2 PK WND 31030/0731 SLP109 T00890011=
200510240651 METAR KATL 240651Z 31018G24KT 10SM FEW017 10/05 A2987 RMK AO2 SLP113 T01000050=
200510240626 SPECI KATL 240626Z 32018G23KT 10SM FEW017 11/06 A2987 RMK AO2=
200510240626 SPECI KATL 240626Z 32018G23KT 10SM FEW017 11/06 A2987 RMK AO2=
200510240551 METAR KATL 240551Z 31011G18KT 10SM OVC017 11/08 A2987 RMK AO2 SLP111 T01110078 10172 20111 50001=
200510240451 METAR KATL 240451Z 31015KT 10SM FEW050 11/08 A2987 RMK AO2 SLP114 T01110078 402110072=
200510240351 METAR KATL 240351Z 31014KT 10SM FEW050 12/08 A2987 RMK AO2 WSHFT 0309 SLP113 T01220078=
200510240326 SPECI KATL 240326Z 31012KT 10SM FEW250 12/08 A2987 RMK AO2 WSHFT 0309=
200510240326 SPECI KATL 240326Z 31012KT 10SM FEW250 12/08 A2987 RMK AO2 WSHFT 0309=
200510240251 METAR KATL 240251Z 23003KT 10SM FEW250 14/07 A2986 RMK AO2 SLP110 T01390072 53009=
200510240151 METAR KATL 240151Z 25003KT 10SM FEW250 15/06 A2985 RMK AO2 SLP105 T01500061=
200510240051 METAR KATL 240051Z 19003KT 10SM FEW250 15/07 A2984 RMK AO2 SLP104 T01500072=
200510232351 METAR KATL 232351Z 29003KT 10SM FEW250 17/06 A2983 RMK AO2 SLP102 T01720056 10211 20172 58000=
200510232251 METAR KATL 232251Z 29004KT 10SM FEW250 18/05 A2984 RMK AO2 SLP102 T01830050=
200510232151 METAR KATL 232151Z 27003KT 10SM FEW250 20/04 A2983 RMK AO2 SLP101 T02000039=
200510232051 METAR KATL 232051Z 29005KT 10SM CLR 21/04 A2984 RMK AO2 SLP101 T02060039 56015=
200510231951 METAR KATL 231951Z 22006KT 10SM CLR 21/04 A2984 RMK AO2 SLP102 T02060039=
200510231851 METAR KATL 231851Z VRB03KT 10SM CLR 20/04 A2985 RMK AO2 SLP105 T02000044=
200510231751 METAR KATL 231751Z VRB03KT 10SM CLR 18/05 A2988 RMK AO2 SLP117 T01830050 10194 20078 58014=
200510231651 METAR KATL 231651Z 00000KT 10SM CLR 17/06 A2992 RMK AO2 SLP128 T01720061=
200510231551 METAR KATL 231551Z VRB03KT 10SM CLR 16/06 A2993 RMK AO2 SLP136 T01560056=
200510231451 METAR KATL 231451Z VRB05KT 10SM CLR 14/05 A2992 RMK AO2 SLP132 T01440050 51008=
200510231351 METAR KATL 231351Z 11004KT 10SM CLR 12/07 A2992 RMK AO2 SLP130 T01220067=
200510231251 METAR KATL 231251Z 33003KT 10SM CLR 09/06 A2992 RMK AO2 SLP132 T00940061=
200510231151 METAR KATL 231151Z 34005KT 10SM FEW180 08/06 A2990 RMK AO2 SLP124 T00780056 10089 20072 53014=
200510231051 METAR KATL 231051Z 32007KT 10SM CLR 08/06 A2988 RMK AO2 SLP119 T00780056=
200510230951 METAR KATL 230951Z 32007KT 10SM CLR 08/06 A2987 RMK AO2 SLP113 T00780056=
200510230851 METAR KATL 230851Z 31005KT 10SM CLR 07/06 A2986 RMK AO2 SLP110 T00720056 58009=
200510230751 METAR KATL 230751Z 31007KT 10SM CLR 08/07 A2987 RMK AO2 SLP112 T00830067=
200510230651 METAR KATL 230651Z 31007KT 10SM CLR 08/07 A2988 RMK AO2 SLP118 T00830067=
200510230551 METAR KATL 230551Z 30006KT 10SM CLR 09/07 A2988 RMK AO2 SLP118 T00890067 10144 20089 53002=
200510230451 METAR KATL 230451Z 29005KT 10SM CLR 09/07 A2987 RMK AO2 SLP115 T00940072 401940094=
200510230351 METAR KATL 230351Z 31005KT 10SM CLR 10/07 A2987 RMK AO2 SLP113 T01000072=
200510230251 METAR KATL 230251Z 31006KT 10SM CLR 11/07 A2988 RMK AO2 SLP115 T01060072 50005=
200510230151 METAR KATL 230151Z 32005KT 10SM CLR 12/08 A2988 RMK AO2 SLP117 T01170078=
200510230051 METAR KATL 230051Z 33005KT 10SM CLR 13/08 A2988 RMK AO2 SLP116 T01330083=
200510222351 METAR KATL 222351Z 33007KT 10SM FEW030 14/09 A2986 RMK AO2 SLP110 T01440089 10194 20139 53009=
200510222251 METAR KATL 222251Z 31009KT 10SM FEW030 16/09 A2985 RMK AO2 SLP105 T01560094=
200510222151 METAR KATL 222151Z 31012KT 10SM FEW030 17/09 A2983 RMK AO2 SLP100 T01670094=
200510222051 METAR KATL 222051Z 33011KT 10SM SCT025 BKN035 17/11 A2983 RMK AO2 SLP100 T01720106 55004=
200510221957 SPECI KATL 221957Z 34011KT 10SM BKN030 BKN035 18/11 A2983 RMK AO2=
200510221957 SPECI KATL 221957Z 34011KT 10SM BKN030 BKN035 18/11 A2983 RMK AO2=
200510221951 METAR KATL 221951Z 32011KT 10SM BKN027 18/11 A2983 RMK AO2 SLP096 MDT CU ALQDS T01830111=
200510221857 SPECI KATL 221857Z 31010KT 9SM FEW027 BKN038 17/12 A2983 RMK AO2=
200510221857 SPECI KATL 221857Z 31010KT 9SM FEW027 BKN038 17/12 A2983 RMK AO2=
200510221851 METAR KATL 221851Z 32009KT 9SM BKN029 BKN035 17/12 A2983 RMK AO2 SLP096 MDT CU ALQDS T01720117=
200510221751 METAR KATL 221751Z 30012KT 9SM BKN026 BKN036 17/11 A2985 RMK AO2 SLP102 T01720111 10183 20122 58002=
200510221742 SPECI KATL 221742Z 30012KT 8SM SCT026 OVC036 18/12 A2985 RMK AO2=
200510221742 SPECI KATL 221742Z 30012KT 8SM SCT026 OVC036 18/12 A2985 RMK AO2=
200510221723 SPECI KATL 221723Z 29010KT 8SM BKN026 OVC036 17/12 A2985 RMK AO2=
200510221723 SPECI KATL 221723Z 29010KT 8SM BKN026 OVC036 17/12 A2985 RMK AO2=
200510221659 SPECI KATL 221659Z 30010KT 8SM FEW021 SCT027 BKN034 18/12 A2985 RMK AO2=
200510221659 SPECI KATL 221659Z 30010KT 8SM FEW021 SCT027 BKN034 18/12 A2985 RMK AO2=
200510221651 METAR KATL 221651Z 31013KT 8SM BKN023 BKN029 18/12 A2986 RMK AO2 SLP104 T01780122=
200510221551 METAR KATL 221551Z 31011KT 8SM BKN019 OVC025 16/12 A2986 RMK AO2 SLP107 BKINOVC SE T01610117=
200510221454 SPECI KATL 221454Z 31007KT 8SM BKN015 BKN021 OVC027 16/12 A2985 RMK AO2=
200510221454 SPECI KATL 221454Z 31007KT 8SM BKN015 BKN021 OVC027 16/12 A2985 RMK AO2=
200510221451 METAR KATL 221451Z 31010KT 8SM SCT005 BKN010 16/13 A2985 RMK AO2 SLP104 T01560128 51013=
200510221351 METAR KATL 221351Z 29007KT 6SM BR SCT005 BKN010 14/13 A2984 RMK AO2 SLP101 T01390128=
200510221251 METAR KATL 221251Z 30008KT 2SM BR OVC007 13/12 A2983 RMK AO2 SFC VIS 6 CIG 004V009 SLP096 T01330122=
200510221231 SPECI KATL 221231Z 27003KT 2SM BR BKN007 13/12 A2983 RMK AO2 SFC VIS 5=
200510221231 SPECI KATL 221231Z 27003KT 2SM BR BKN007 13/12 A2983 RMK AO2 SFC VIS 5=
200510221212 SPECI KATL 221212Z 26003KT 5SM BR SCT007 12/12 A2982 RMK AO2=
200510221212 SPECI KATL 221212Z 26003KT 5SM BR SCT007 12/12 A2982 RMK AO2=
200510221151 METAR KATL 221151Z 27005KT 6SM BR FEW120 12/12 A2982 RMK AO2 SLP091 70019 T01220117 10167 20122 55000=
200510221051 METAR KATL 221051Z 26005KT 8SM CLR 13/12 A2981 RMK AO2 SLP090 T01280117=
200510220951 METAR KATL 220951Z 29005KT 9SM CLR 13/12 A2981 RMK AO2 SLP087 T01330122=
200510220851 METAR KATL 220851Z 30007KT 10SM CLR 14/12 A2981 RMK AO2 SLP089 T01390122 58006=
200510220751 METAR KATL 220751Z 27006KT 10SM CLR 14/13 A2983 RMK AO2 SLP094 T01440128=
200510220651 METAR KATL 220651Z 28006KT 10SM CLR 16/13 A2983 RMK AO2 SLP093 T01560133=
200510220551 METAR KATL 220551Z 29009KT 10SM FEW120 17/14 A2983 RMK AO2 SLP095 60019 T01670144 10233 20167 58009=
200510220451 METAR KATL 220451Z 29007KT 10SM FEW010 18/17 A2985 RMK AO2 SLP099 T01830167 402670167=
200510220351 METAR KATL 220351Z 27006KT 7SM BKN040 OVC055 19/18 A2985 RMK AO2 RAE0256 SLP101 P0000 T01940183=
200510220251 METAR KATL 220251Z 00000KT 8SM -RA FEW030 BKN040 OVC060 19/18 A2986 RMK AO2 TSB0153E43RAB00 SLP105 PCPN VRY LGT P0019 60019 T01940183 53005=
200510220243 SPECI KATL 220243Z 00000KT 8SM -RA FEW030 BKN040 OVC060 19/18 A2986 RMK AO2 TSB0153E43RAB00 TS DSIPTD P0019=
200510220243 SPECI KATL 220243Z 00000KT 8SM -RA FEW030 BKN040 OVC060 19/18 A2986 RMK AO2 TSB0153E43RAB00 TS DSIPTD P0019=
200510220228 SPECI KATL 220228Z 00000KT 5SM -TSRA BR FEW010 BKN040CB OVC060 19/19 A2986 RMK AO2 TSB0153RAB00 OCNL LTGICCG TS NE-E MOV E P0019=
200510220228 SPECI KATL 220228Z 00000KT 5SM -TSRA BR FEW010 BKN040CB OVC060 19/19 A2986 RMK AO2 TSB0153RAB00 OCNL LTGICCG TS NE-E MOV E P0019=
200510220216 SPECI KATL 220216Z 30009KT 2SM R09R/3500VP6000FT +TSRA BR FEW010 BKN040CB OVC060 19/19 A2986 RMK AO2 SFC VIS 3 TSB0153RAB00 OCNL LTGICCG TS OHD-NE MOV E P0018=
200510220216 SPECI KATL 220216Z 30009KT 2SM R09R/3500VP6000FT +TSRA BR FEW010 BKN040CB OVC060 19/19 A2986 RMK AO2 SFC VIS 3 TSB0153RAB00 OCNL LTGICCG TS OHD-NE MOV E P0018=
200510220211 SPECI KATL 220211Z 32013KT 1SM R09R/3000VP6000FT +TSRA BR FEW010 BKN040CB OVC060 20/18 A2986 RMK AO2 TWR VIS 2 TSB0153RAB00 OCNL LTGICCG TS NE-OHD-W MOV E P0014=
200510220211 SPECI KATL 220211Z 32013KT 1SM R09R/3000VP6000FT +TSRA BR FEW010 BKN040CB OVC060 20/18 A2986 RMK AO2 TWR VIS 2 TSB0153RAB00 OCNL LTGICCG TS NE-OHD-W MOV E P0014=
200510220209 SPECI KATL 220209Z 32015KT 2SM R09R/3000VP6000FT +TSRA BR BKN040CB BKN055 OVC100 20/18 A2987 RMK AO2 TSB0153RAB00 OCNL LTGICCG TS NE-OHD-W MOV E P0010=
200510220209 SPECI KATL 220209Z 32015KT 2SM R09R/3000VP6000FT +TSRA BR BKN040CB BKN055 OVC100 20/18 A2987 RMK AO2 TSB0153RAB00 OCNL LTGICCG TS NE-OHD-W MOV E P0010=
200510220154 SPECI KATL 220154Z 31007KT 10SM TS FEW040CB BKN055 BKN090 BKN250 21/18 A2985 RMK AO2 TSB53 OCNL LTGICCG TS VC W MOV E=
200510220154 SPECI KATL 220154Z 31007KT 10SM TS FEW040CB BKN055 BKN090 BKN250 21/18 A2985 RMK AO2 TSB53 OCNL LTGICCG TS VC W MOV E=
200510220151 METAR KATL 220151Z 33007KT 10SM FEW040 BKN055 BKN090 BKN250 21/18 A2985 RMK AO2 TSB04E46RAB17E31 SLP103 TS MOV NE P0000 T02060178=
200510220105 SPECI KATL 220105Z 00000KT 10SM TS SCT045CB BKN060 OVC090 23/16 A2985 RMK AO2 TSB04 FRQ LTGICCG TS VC NW-N MOV NE=
200510220105 SPECI KATL 220105Z 00000KT 10SM TS SCT045CB BKN060 OVC090 23/16 A2985 RMK AO2 TSB04 FRQ LTGICCG TS VC NW-N MOV NE=
200510220051 METAR KATL 220051Z 19003KT 10SM SCT045 BKN060 OVC090 22/16 A2985 RMK AO2 TSE30RAB06E19 SLP101 FRQ LTG DSNT NW CB DSNT NW P0000 T02220161=
200510220031 SPECI KATL 220031Z 00000KT 10SM SCT045 BKN060 OVC200 23/16 A2985 RMK AO2 TSE30RAB06E19 TS MOV E P0000=
200510220031 SPECI KATL 220031Z 00000KT 10SM SCT045 BKN060 OVC200 23/16 A2985 RMK AO2 TSE30RAB06E19 TS MOV E P0000=
200510212351 METAR KATL 212351Z 20006KT 10SM TS FEW040CB BKN070 BKN090 OVC200 23/15 A2985 RMK AO2 TSB37 SLP101 FRQ LTGCGIC TS VC N-NE MOV E T02330150 10267 20233 53006=
200510212338 SPECI KATL 212338Z 21005KT 10SM TS FEW040CB BKN080 BKN150 BKN250 23/15 A2985 RMK AO2 TSB37 FRQ LTGCGIC TS VC NW-N MOV E=
200510212338 SPECI KATL 212338Z 21005KT 10SM TS FEW040CB BKN080 BKN150 BKN250 23/15 A2985 RMK AO2 TSB37 FRQ LTGCGIC TS VC NW-N MOV E=
200510212251 METAR KATL 212251Z 21007KT 10SM FEW150 SCT200 BKN250 24/15 A2984 RMK AO2 SLP096 CB DSNT W AND NW-N T02440150=
200510212151 METAR KATL 212151Z 22007KT 10SM FEW180 SCT250 26/14 A2983 RMK AO2 SLP095 CB DSNT NW T02560144=
200510212051 METAR KATL 212051Z 19010KT 10SM FEW050 SCT120 SCT250 26/14 A2983 RMK AO2 SLP092 CB DSNT NW T02610139 56024=
200510211951 METAR KATL 211951Z 24007KT 10SM FEW050 SCT100 BKN130 26/14 A2985 RMK AO2 SLP101 ACC E-SW T02560144=
200510211851 METAR KATL 211851Z 25010KT 10SM FEW045 SCT100 BKN130 26/14 A2987 RMK AO2 SLP107 T02610144=
200510211751 METAR KATL 211751Z 24009G14KT 10SM SCT040 BKN100 26/16 A2990 RMK AO2 SLP117 T02610161 10261 20172 58016=
200510211651 METAR KATL 211651Z 24007KT 10SM SCT040 SCT120 24/14 A2993 RMK AO2 SLP127 T02440144=
200510211551 METAR KATL 211551Z 22008KT 10SM FEW040 24/15 A2994 RMK AO2 SLP130 T02440150=
200510211451 METAR KATL 211451Z 22004KT 9SM FEW120 23/16 A2995 RMK AO2 SLP134 T02280156 51007=
200510211351 METAR KATL 211351Z 22004KT 8SM FEW050 21/15 A2995 RMK AO2 SLP135 T02060150=
200510211251 METAR KATL 211251Z 24003KT 7SM FEW050 18/13 A2994 RMK AO2 SLP132 T01780133=
200510211151 METAR KATL 211151Z 00000KT 7SM FEW050 17/13 A2993 RMK AO2 SLP128 T01720128 10183 20167 58001=
200510211051 METAR KATL 211051Z COR 00000KT 9SM FEW050 17/13 A2993 RMK AO2 SLP129 T01720128=
200510210951 METAR KATL 210951Z 00000KT 9SM SCT050 18/13 A2994 RMK AO2 SLP129 T01780128=
200510210851 METAR KATL 210851Z 00000KT 10SM BKN046 18/12 A2993 RMK AO2 SLP127 T01830122 55005=
200510210751 METAR KATL 210751Z 00000KT 10SM BKN046 18/12 A2993 RMK AO2 SLP125 T01830122=
200510210651 METAR KATL 210651Z 00000KT 9SM FEW050 18/13 A2994 RMK AO2 SLP131 T01780128=
200510210551 METAR KATL 210551Z 00000KT 7SM CLR 18/13 A2995 RMK AO2 SLP133 T01830128 10228 20178 58007=
200510210451 METAR KATL 210451Z 00000KT 10SM CLR 19/13 A2996 RMK AO2 SLP135 T01890133 402830178=
200510210351 METAR KATL 210351Z 00000KT 10SM CLR 19/13 A2997 RMK AO2 SLP139 T01940128=
200510210251 METAR KATL 210251Z 22003KT 10SM CLR 19/12 A2997 RMK AO2 SLP141 T01940122 51005=
200510210151 METAR KATL 210151Z 00000KT 10SM CLR 21/13 A2996 RMK AO2 SLP138 T02060128=
200510210051 METAR KATL 210051Z 00000KT 9SM CLR 21/13 A2996 RMK AO2 SLP140 T02110128=
200510202351 METAR KATL 202351Z 22003KT 10SM CLR 23/13 A2995 RMK AO2 SLP137 T02280128 10283 20228 53002=
200510202251 METAR KATL 202251Z 22004KT 10SM CLR 25/12 A2994 RMK AO2 SLP132 T02500117=
200510202151 METAR KATL 202151Z 21007KT 10SM FEW065 27/11 A2994 RMK AO2 SLP129 T02670106=
200510202051 METAR KATL 202051Z 21009KT 10SM FEW065 27/11 A2995 RMK AO2 SLP132 T02720106 56015=
200510201951 METAR KATL 201951Z 19008KT 10SM FEW060 28/12 A2996 RMK AO2 SLP135 T02780117=
200510201851 METAR KATL 201851Z 26009G14KT 220V290 10SM FEW065 28/11 A2997 RMK AO2 SLP140 T02780111=
200510201751 METAR KATL 201751Z 23008KT 10SM FEW060 27/12 A2999 RMK AO2 SLP147 T02720117 10272 20183 58018=
200510201651 METAR KATL 201651Z 21010KT 9SM FEW060 27/12 A3002 RMK AO2 SLP156 T02670122=
200510201551 METAR KATL 201551Z 23008KT 10SM FEW045 26/14 A3004 RMK AO2 SLP162 T02560144=
200510201451 METAR KATL 201451Z 30005KT 8SM FEW150 24/16 A3005 RMK AO2 SLP166 T02390156 51012=
200510201351 METAR KATL 201351Z 30004KT 8SM CLR 22/16 A3004 RMK AO2 SLP164 T02170161=
200510201251 METAR KATL 201251Z 28003KT 6SM HZ CLR 19/16 A3003 RMK AO2 SLP160 T01890156=
200510201151 METAR KATL 201151Z 29004KT 7SM CLR 18/14 A3001 RMK AO2 SLP155 T01830144 10200 20178 51005 $=
200510201051 METAR KATL 201051Z 30004KT 8SM CLR 18/14 A3001 RMK AO2 SLP153 T01780144 $=
200510200951 METAR KATL 200951Z 28004KT 8SM CLR 18/15 A3000 RMK AO2 SLP152 T01780150 $=
200510200851 METAR KATL 200851Z 26006KT 9SM FEW060 19/15 A3000 RMK AO2 SLP148 T01890150 58003 $=
200510200751 METAR KATL 200751Z 25003KT 6SM HZ FEW055 19/15 A3000 RMK AO2 SLP150 T01940150 $=
200510200651 METAR KATL 200651Z 23004KT 6SM HZ CLR 19/15 A3000 RMK AO2 SLP151 T01940150 $=
200510200551 METAR KATL 200551Z 23004KT 10SM CLR 20/15 A3001 RMK AO2 SLP152 T02000150 10239 20194 50000 $=
200510200451 METAR KATL 200451Z 22005KT 10SM CLR 21/15 A3001 RMK AO2 SLP153 T02060150 402830161=
200510200351 METAR KATL 200351Z 23003KT 10SM CLR 21/15 A3001 RMK AO2 SLP153 T02110150=
200510200251 METAR KATL 200251Z 23004KT 10SM CLR 22/15 A3001 RMK AO2 SLP153 T02170150 51006=
200510200151 METAR KATL 200151Z 24004KT 10SM CLR 22/15 A3000 RMK AO2 SLP152 T02170150=
200510200051 METAR KATL 200051Z 22003KT 10SM CLR 23/15 A2999 RMK AO2 SLP150 T02280150=
200510192351 METAR KATL 192351Z 00000KT 10SM CLR 24/15 A2999 RMK AO2 SLP148 T02390150 10283 20239 51002=
200510192251 METAR KATL 192251Z 27003KT 10SM FEW055 27/14 A2999 RMK AO2 SLP147 T02670139=
200510192151 METAR KATL 192151Z 28005KT 10SM FEW055 27/14 A2998 RMK AO2 SLP145 T02720139=
200510192051 METAR KATL 192051Z 24005KT 10SM FEW055 28/14 A2998 RMK AO2 SLP144 T02830139 56016=
200510191951 METAR KATL 191951Z 26006KT 10SM FEW055 28/14 A2999 RMK AO2 SLP145 T02830144=
200510191851 METAR KATL 191851Z 29007KT 10SM FEW050 27/14 A3000 RMK AO2 SLP151 T02720144=
200510191751 METAR KATL 191751Z 32009KT 10SM FEW045 27/15 A3003 RMK AO2 SLP161 T02670150 10272 20161 58017=
200510191651 METAR KATL 191651Z 31008KT 10SM CLR 27/15 A3006 RMK AO2 SLP171 T02670150=
200510191551 METAR KATL 191551Z 30008KT 10SM CLR 26/15 A3008 RMK AO2 SLP176 T02560150=
200510191451 METAR KATL 191451Z 30007KT 10SM CLR 23/14 A3008 RMK AO2 SLP180 T02330139 51011=
200510191351 METAR KATL 191351Z 31005KT 10SM CLR 21/13 A3007 RMK AO2 SLP178 T02060133=
200510191251 METAR KATL 191251Z 00000KT 10SM CLR 18/13 A3007 RMK AO2 SLP176 T01830133=
200510191151 METAR KATL 191151Z 29004KT 8SM CLR 16/12 A3005 RMK AO2 SLP170 T01610117 10183 20161 53009=
200510191051 METAR KATL 191051Z 28004KT 10SM CLR 17/12 A3004 RMK AO2 SLP167 T01670117=
200510190951 METAR KATL 190951Z 28004KT 10SM CLR 18/12 A3003 RMK AO2 SLP161 T01780117=
200510190851 METAR KATL 190851Z 26003KT 10SM CLR 17/12 A3002 RMK AO2 SLP158 T01720117 53003=
200510190751 METAR KATL 190751Z 27004KT 10SM CLR 18/12 A3002 RMK AO2 SLP157 T01780117=
200510190651 METAR KATL 190651Z 28004KT 10SM CLR 18/12 A3002 RMK AO2 SLP156 T01780117=
200510190551 METAR KATL 190551Z 28005KT 10SM CLR 18/12 A3001 RMK AO2 SLP157 T01830122 10228 20183 51005=
200510190451 METAR KATL 190451Z 27004KT 10SM CLR 19/12 A3001 RMK AO2 SLP156 T01890122 402720106=
200510190351 METAR KATL 190351Z 28005KT 10SM CLR 20/12 A3001 RMK AO2 SLP154 T02000122=
200510190251 METAR KATL 190251Z 00000KT 10SM CLR 19/12 A3000 RMK AO2 SLP153 T01940122 51009 $=
200510190151 METAR KATL 190151Z 00000KT 10SM CLR 21/12 A3000 RMK AO2 SLP152 T02060122=
200510190051 METAR KATL 190051Z 27003KT 10SM CLR 21/12 A2999 RMK AO2 SLP151 T02110122=
200510182351 METAR KATL 182351Z 27004KT 10SM CLR 23/12 A2997 RMK AO2 SLP146 T02280117 10272 20228 53002=
200510182251 METAR KATL 182251Z 28004KT 10SM CLR 24/11 A2997 RMK AO2 SLP143 T02390106=
200510182151 METAR KATL 182151Z 27004KT 9SM CLR 26/10 A2996 RMK AO2 SLP140 T02560100=
200510182051 METAR KATL 182051Z 32007KT 10SM CLR 27/09 A2997 RMK AO2 SLP141 T02670094 56012=
200510181951 METAR KATL 181951Z 30009KT 10SM CLR 27/09 A2997 RMK AO2 SLP143 T02670089=
200510181851 METAR KATL 181851Z 30007KT 10SM CLR 27/10 A2998 RMK AO2 SLP147 T02670100=
200510181751 METAR KATL 181751Z 33007KT 10SM FEW250 25/09 A3000 RMK AO2 SLP153 T02500089 10256 20106 58012=
200510181651 METAR KATL 181651Z 32010KT 10SM FEW250 24/08 A3003 RMK AO2 SLP162 T02390083=
200510181551 METAR KATL 181551Z 31007KT 10SM FEW250 23/08 A3004 RMK AO2 SLP166 T02280078=
200510181451 METAR KATL 181451Z 31008KT 10SM FEW250 20/08 A3004 RMK AO2 SLP167 T02000078 51010=
200510181351 METAR KATL 181351Z 31009KT 10SM FEW250 17/07 A3003 RMK AO2 SLP166 T01670067=
200510181251 METAR KATL 181251Z 31010KT 10SM CLR 14/06 A3002 RMK AO2 SLP161 T01390061=
200510181151 METAR KATL 181151Z 31009KT 10SM CLR 11/07 A3001 RMK AO2 SLP159 T01060067 10139 20106 53007=
200510181051 METAR KATL 181051Z 30006KT 10SM CLR 11/07 A3000 RMK AO2 SLP156 T01110067=
200510180951 METAR KATL 180951Z 30006KT 10SM CLR 11/07 A2999 RMK AO2 SLP152 T01060067=
200510180851 METAR KATL 180851Z 30004KT 10SM CLR 12/06 A2999 RMK AO2 SLP150 T01170056 56003=
200510180751 METAR KATL 180751Z 25003KT 10SM CLR 12/07 A2999 RMK AO2 SLP150 T01220067=
200510180651 METAR KATL 180651Z 28005KT 10SM CLR 13/07 A2999 RMK AO2 SLP150 T01330067=
200510180551 METAR KATL 180551Z 29005KT 10SM CLR 14/07 A2999 RMK AO2 SLP152 T01390067 10189 20139 50000=
200510180451 METAR KATL 180451Z 29004KT 10SM CLR 14/07 A2999 RMK AO2 SLP153 T01390072 402390089=
200510180351 METAR KATL 180351Z 29005KT 10SM CLR 16/07 A3000 RMK AO2 SLP153 T01560067=
200510180251 METAR KATL 180251Z 31006KT 10SM CLR 16/07 A2999 RMK AO2 SLP152 T01610067 53006=
200510180151 METAR KATL 180151Z 28005KT 10SM CLR 18/06 A2998 RMK AO2 SLP147 T01780056=
200510180051 METAR KATL 180051Z 30004KT 10SM CLR 18/06 A2998 RMK AO2 SLP150 T01780061=
200510172351 METAR KATL 172351Z 29005KT 10SM CLR 19/07 A2997 RMK AO2 SLP148 T01890067 10239 20189 53004=
200510172251 METAR KATL 172251Z 32007KT 10SM CLR 21/06 A2997 RMK AO2 SLP145 T02060056=
200510172151 METAR KATL 172151Z 29006KT 10SM CLR 22/04 A2996 RMK AO2 SLP143 T02220044=
200510172051 METAR KATL 172051Z 25005KT 10SM CLR 23/05 A2996 RMK AO2 SLP143 T02330050 56018=
200510171951 METAR KATL 171951Z 33007KT 10SM CLR 23/05 A2998 RMK AO2 SLP148 T02330050=
200510171851 METAR KATL 171851Z 26004KT 10SM FEW240 22/05 A2999 RMK AO2 SLP152 T02220050=
200510171751 METAR KATL 171751Z 00000KT 10SM FEW240 21/04 A3002 RMK AO2 SLP161 T02110039 10217 20089 58015=
200510171651 METAR KATL 171651Z 00000KT 10SM CLR 20/04 A3004 RMK AO2 SLP169 T02000044=
200510171551 METAR KATL 171551Z 13006KT 10SM CLR 19/04 A3006 RMK AO2 SLP176 T01940044=
200510171451 METAR KATL 171451Z 10007KT 10SM CLR 18/04 A3006 RMK AO2 SLP177 T01780044 51012=
200510171351 METAR KATL 171351Z 07008KT 10SM CLR 16/04 A3006 RMK AO2 SLP176 T01610044=
200510171251 METAR KATL 171251Z 08004KT 10SM FEW250 12/07 A3004 RMK AO2 SLP171 T01220067=
200510171151 METAR KATL 171151Z 30003KT 10SM CLR 10/05 A3003 RMK AO2 SLP166 T01000050 10128 20089 53014=
200510171051 METAR KATL 171051Z 04004KT 10SM CLR 11/04 A3001 RMK AO2 SLP160 T01110044=
200510170951 METAR KATL 170951Z 35003KT 10SM CLR 10/04 A3000 RMK AO2 SLP155 T01000044=
200510170851 METAR KATL 170851Z 31005KT 10SM CLR 09/04 A2998 RMK AO2 SLP150 T00940044 57001=
200510170751 METAR KATL 170751Z 32004KT 10SM CLR 10/04 A2999 RMK AO2 SLP150 T01000044=
200510170651 METAR KATL 170651Z 33007KT 10SM CLR 11/04 A2999 RMK AO2 SLP150 T01110044=
200510170551 METAR KATL 170551Z 33003KT 10SM CLR 12/03 A2999 RMK AO2 SLP150 T01220033 10183 20117 50000=
200510170451 METAR KATL 170451Z 32006KT 10SM CLR 12/04 A2999 RMK AO2 SLP152 T01170039 402440117=
200510170351 METAR KATL 170351Z 31005KT 10SM CLR 13/03 A3000 RMK AO2 SLP154 T01330033=
200510170251 METAR KATL 170251Z 32006KT 10SM CLR 14/02 A2999 RMK AO2 SLP152 T01440022 53002=
200510170151 METAR KATL 170151Z 34011KT 10SM CLR 16/02 A2998 RMK AO2 SLP150 T01610017=
200510170051 METAR KATL 170051Z 33012KT 10SM CLR 17/02 A2998 RMK AO2 SLP150 T01720017=
200510162351 METAR KATL 162351Z 33010KT 10SM CLR 18/02 A2998 RMK AO2 SLP151 T01780022 10244 20178 53005=
200510162251 METAR KATL 162251Z 31008KT 10SM CLR 20/02 A2998 RMK AO2 SLP148 T02000022=
200510162151 METAR KATL 162151Z 33009KT 10SM CLR 23/01 A2997 RMK AO2 SLP145 T02280006=
200510162051 METAR KATL 162051Z 32010KT 10SM CLR 24/01 A2997 RMK AO2 SLP142 T02390011 56016=
200510161951 METAR KATL 161951Z 32008KT 10SM CLR 24/01 A2997 RMK AO2 SLP142 T02390011=
200510161851 METAR KATL 161851Z 31009KT 280V340 10SM CLR 23/05 A2999 RMK AO2 SLP149 T02330050=
200510161751 METAR KATL 161751Z 34006KT 10SM CLR 23/05 A3002 RMK AO2 SLP158 T02280050 10228 20117 58010=
200510161651 METAR KATL 161651Z 30006KT 10SM CLR 21/07 A3004 RMK AO2 SLP166 T02110067=
200510161551 METAR KATL 161551Z 32007KT 10SM CLR 19/07 A3004 RMK AO2 SLP169 T01940072=
200510161451 METAR KATL 161451Z 31008KT 10SM CLR 18/07 A3005 RMK AO2 SLP170 T01780067 51014=
200510161351 METAR KATL 161351Z 31012KT 10SM CLR 16/08 A3004 RMK AO2 SLP167 T01560078 $=
200510161251 METAR KATL 161251Z 32011KT 10SM CLR 13/07 A3002 RMK AO2 SLP161 T01280072=
200510161151 METAR KATL 161151Z 32008KT 10SM CLR 12/07 A3000 RMK AO2 SLP157 T01170072 10172 20117 53014=
200510161051 METAR KATL 161051Z 31008KT 10SM CLR 12/08 A2999 RMK AO2 SLP150 T01220078=
200510160951 METAR KATL 160951Z 31009KT 10SM CLR 12/08 A2998 RMK AO2 SLP146 T01220083=
200510160851 METAR KATL 160851Z 31009KT 10SM CLR 14/09 A2996 RMK AO2 SLP140 T01390089 53004=
200510160751 METAR KATL 160751Z 30009KT 10SM CLR 14/09 A2995 RMK AO2 SLP137 T01440094=
200510160651 METAR KATL 160651Z 32008KT 10SM CLR 16/10 A2996 RMK AO2 SLP137 T01560100=
200510160551 METAR KATL 160551Z 32011KT 10SM CLR 17/11 A2995 RMK AO2 SLP136 T01670106 10211 20156 58002=
200510160451 METAR KATL 160451Z 31007KT 10SM CLR 16/11 A2996 RMK AO2 SLP137 T01610111 402610128=
200510160351 METAR KATL 160351Z 29006KT 10SM CLR 17/11 A2996 RMK AO2 SLP139 T01720111=
200510160251 METAR KATL 160251Z 29004KT 10SM CLR 18/11 A2996 RMK AO2 SLP138 T01830111 50000=
200510160151 METAR KATL 160151Z 27005KT 10SM CLR 19/11 A2996 RMK AO2 SLP141 T01890111=
200510160051 METAR KATL 160051Z 30004KT 10SM CLR 21/11 A2996 RMK AO2 SLP140 T02060111=
200510152351 METAR KATL 152351Z 29004KT 10SM CLR 21/11 A2996 RMK AO2 SLP140 T02110106 10261 20211 53001=
200510152251 METAR KATL 152251Z 32006KT 10SM CLR 23/09 A2995 RMK AO2 SLP137 T02280094=
200510152151 METAR KATL 152151Z 33010KT 10SM CLR 25/10 A2995 RMK AO2 SLP136 T02500100=
200510152051 METAR KATL 152051Z 30014KT 10SM CLR 25/11 A2996 RMK AO2 SLP137 T02500106 56014 $=
200510151951 METAR KATL 151951Z COR 31011KT 10SM CLR 26/11 A2996 RMK AO2 SLP139 T02610111 $=
200510151851 METAR KATL 151851Z 32007G16KT 10SM CLR 25/11 A2998 RMK AO2 SLP145 T02500106=
200510151751 METAR KATL 151751Z 34010KT 10SM CLR 24/10 A3000 RMK AO2 SLP151 T02440100 10244 20128 58017=
200510151651 METAR KATL 151651Z 33008KT 280V350 10SM CLR 23/11 A3002 RMK AO2 SLP158 T02330106=
200510151551 METAR KATL 151551Z 31009G17KT 10SM CLR 21/12 A3004 RMK AO2 SLP166 T02110117=
200510151451 METAR KATL 151451Z 34009KT 10SM CLR 20/12 A3005 RMK AO2 SLP170 T02000122 51005=
200510151351 METAR KATL 151351Z 30007KT 7SM CLR 17/13 A3005 RMK AO2 SLP171 T01670133=
200510151251 METAR KATL 151251Z 31008KT 6SM BR CLR 14/13 A3004 RMK AO2 SLP168 T01440128=
200510151151 METAR KATL 151151Z 31008KT 6SM BR CLR 13/12 A3003 RMK AO2 SLP166 T01330117 10161 20128 53010=
200510151051 METAR KATL 151051Z 29004KT 5SM BR CLR 13/12 A3002 RMK AO2 SLP161 T01330117=
200510150951 METAR KATL 150951Z 30004KT 6SM BR CLR 13/12 A3001 RMK AO2 SLP157 T01330117=
200510150851 METAR KATL 150851Z 31007KT 7SM CLR 14/12 A3000 RMK AO2 SLP153 T01390117 55005=
200510150751 METAR KATL 150751Z 32007KT 8SM CLR 14/12 A3000 RMK AO2 SLP153 T01440117=
200510150651 METAR KATL 150651Z 32006KT 9SM CLR 15/12 A3001 RMK AO2 SLP156 T01500117=
200510150551 METAR KATL 150551Z 33009KT 10SM CLR 16/12 A3002 RMK AO2 SLP159 T01610117 10206 20150 58002=
200510150451 METAR KATL 150451Z 31006KT 10SM CLR 15/11 A3002 RMK AO2 SLP163 T01500111 402560144=
200510150351 METAR KATL 150351Z 31008KT 10SM CLR 16/12 A3003 RMK AO2 SLP163 T01610117=
200510150251 METAR KATL 150251Z 33008KT 10SM CLR 17/12 A3003 RMK AO2 SLP164 T01720117 50005=
200510150151 METAR KATL 150151Z 34007KT 10SM CLR 18/12 A3003 RMK AO2 SLP164 T01830117=
200510150051 METAR KATL 150051Z 32009KT 10SM CLR 19/12 A3002 RMK AO2 SLP160 T01940117=
200510142351 METAR KATL 142351Z 32008KT 10SM CLR 21/12 A3001 RMK AO2 SLP158 T02060122 10256 20206 53007=
200510142251 METAR KATL 142251Z 33009KT 10SM CLR 23/12 A3000 RMK AO2 SLP154 T02280122=
200510142151 METAR KATL 142151Z 33011KT 10SM CLR 24/12 A2999 RMK AO2 SLP149 T02440117=
200510142051 METAR KATL 142051Z 30013KT 10SM FEW180 26/12 A2999 RMK AO2 SLP149 T02560117 56015=
200510141951 METAR KATL 141951Z 34010KT 10SM FEW100 26/14 A3000 RMK AO2 SLP151 T02560144=
200510141851 METAR KATL 141851Z 32013KT 10SM FEW040 24/14 A3002=
200510141751 METAR KATL 141751Z 35012KT 8SM FEW025 24/16 A3003 RMK AO2 SLP164 T02390161 10239 20144 58010=
200510141651 METAR KATL 141651Z 32008KT 3SM HZ BKN010 BKN013 21/17 A3006 RMK AO2 SFC VIS 4 SLP173 T02060167=
200510141551 METAR KATL 141551Z 29009KT 2 1/2SM HZ FEW010 19/17 A3006 RMK AO2 SFC VIS 4 SLP175 T01940167=
200510141525 SPECI KATL 141525Z VRB03KT 2SM HZ FEW007 19/16 A3006 RMK AO2 SFC VIS 3=
200510141525 SPECI KATL 141525Z VRB03KT 2SM HZ FEW007 19/16 A3006 RMK AO2 SFC VIS 3=
200510141509 SPECI KATL 141509Z 31003KT 2SM BR OVC005 17/16 A3007 RMK AO2 SFC VIS 3 CIG 002V009=
200510141509 SPECI KATL 141509Z 31003KT 2SM BR OVC005 17/16 A3007 RMK AO2 SFC VIS 3 CIG 002V009=
200510141451 METAR KATL 141451Z 00000KT 2SM BR BKN003 16/16 A3007 RMK AO2 SLP177 T01610156 50007=
200510141429 SPECI KATL 141429Z 32003KT 1 1/2SM R27L/5000FT BR OVC002 16/16 A3007 RMK AO2 SFC VIS 3=
200510141429 SPECI KATL 141429Z 32003KT 1 1/2SM R27L/5000FT BR OVC002 16/16 A3007 RMK AO2 SFC VIS 3=
200510141410 SPECI KATL 141410Z 32005KT 1SM R27L/5000FT BR OVC002 16/16 A3007 RMK AO2 SFC VIS 2=
200510141410 SPECI KATL 141410Z 32005KT 1SM R27L/5000FT BR OVC002 16/16 A3007 RMK AO2 SFC VIS 2=
200510141359 SPECI KATL 141359Z 31008KT 3/4SM R27L/5000FT BR OVC002 16/15 A3008 RMK AO2 SFC VIS 1=
200510141359 SPECI KATL 141359Z 31008KT 3/4SM R27L/5000FT BR OVC002 16/15 A3008 RMK AO2 SFC VIS 1=
200510141351 METAR KATL 141351Z 32008KT 1/2SM R27L/5000FT BR OVC002 16/15 A3007 RMK AO2 SFC VIS 1 SLP180 T01560150=
200510141343 SPECI KATL 141343Z 31005KT 1/2SM R27L/4000FT BR OVC002 15/15 A3007 RMK AO2 SFC VIS 1=
200510141343 SPECI KATL 141343Z 31005KT 1/2SM R27L/4000FT BR OVC002 15/15 A3007 RMK AO2 SFC VIS 1=
200510141251 METAR KATL 141251Z 32006KT 1/4SM R27L/4000FT FG VV001 15/14 A3006 RMK AO2 TWR VIS 1/2 SLP175 T01500144=
200510141240 SPECI KATL 141240Z 32007KT 1/4SM R27R/5000FT FG VV001 14/14 A3006 RMK AO2 TWR VIS 1/2=
200510141240 SPECI KATL 141240Z 32007KT 1/4SM R27R/5000FT FG VV001 14/14 A3006 RMK AO2 TWR VIS 1/2=
200510141236 SPECI KATL 141236Z 31006KT 1/4SM R09R/1000V1400FT FG VV001 14/14 A3006 RMK AO2 TWR VIS 1/2 VIS SE 1/2=
200510141236 SPECI KATL 141236Z 31006KT 1/4SM R09R/1000V1400FT FG VV001 14/14 A3006 RMK AO2 TWR VIS 1/2 VIS SE 1/2=
200510141231 SPECI KATL 141231Z 32006KT 1/4SM R09R/1000V2600FT FG VV001 14/14 A3006 RMK AO2 TWR VIS 3/4 VIS SE 1/2=
200510141231 SPECI KATL 141231Z 32006KT 1/4SM R09R/1000V2600FT FG VV001 14/14 A3006 RMK AO2 TWR VIS 3/4 VIS SE 1/2=
200510141212 SPECI KATL 141212Z 31006KT 1/2SM R09R/2800VP6000FT FG BKN002 BKN180 14/14 A3005 RMK AO2 TWR VIS 3/4=
200510141212 SPECI KATL 141212Z 31006KT 1/2SM R09R/2800VP6000FT FG BKN002 BKN180 14/14 A3005 RMK AO2 TWR VIS 3/4=
200510141206 SPECI KATL 141206Z 30007KT 3/4SM R09R/3000VP6000FT BR BKN001 BKN180 14/14 A3005 RMK AO2 SFC VIS 1 1/4=
200510141206 SPECI KATL 141206Z 30007KT 3/4SM R09R/3000VP6000FT BR BKN001 BKN180 14/14 A3005 RMK AO2 SFC VIS 1 1/4=
200510141202 SPECI KATL 141202Z 30007KT 1SM R09R/6000VP6000FT BR BKN003 BKN180 14/14 A3005 RMK AO2 SFC VIS 1 1/2=
200510141202 SPECI KATL 141202Z 30007KT 1SM R09R/6000VP6000FT BR BKN003 BKN180 14/14 A3005 RMK AO2 SFC VIS 1 1/2=
200510141158 SPECI KATL 141158Z 30007KT 2SM BR BKN003 BKN180 14/14 A3005 RMK AO2=
200510141158 SPECI KATL 141158Z 30007KT 2SM BR BKN003 BKN180 14/14 A3005 RMK AO2=
200510141151 METAR KATL 141151Z 30006KT 2 1/2SM BR FEW003 SCT180 14/14 A3004 RMK AO2 SFC VIS 3 SLP169 T01440139 10161 20144 51012=
200510141139 SPECI KATL 141139Z 30007KT 3SM BR FEW003 14/14 A3004 RMK AO2=
200510141139 SPECI KATL 141139Z 30007KT 3SM BR FEW003 14/14 A3004 RMK AO2=
200510141051 METAR KATL 141051Z 31006KT 3SM BR CLR 15/14 A3003 RMK AO2 SLP164 T01500139=
200510140951 METAR KATL 140951Z 32004KT 4SM BR CLR 15/14 A3002 RMK AO2 SLP160 T01500139=
200510140851 METAR KATL 140851Z 32005KT 5SM BR CLR 15/14 A3001 RMK AO2 SLP156 T01500144 58005=
200510140751 METAR KATL 140751Z 30011KT 5SM BR CLR 16/15 A3002 RMK AO2 SLP159 T01610150=
200510140651 METAR KATL 140651Z 30005KT 6SM BR CLR 16/15 A3002 RMK AO2 SLP160 T01610150=
200510140551 METAR KATL 140551Z 31006KT 8SM CLR 17/15 A3003 RMK AO2 SLP161 T01720150 10222 20172 55002=
200510140451 METAR KATL 140451Z 32004KT 9SM CLR 18/15 A3002 RMK AO2 SLP161 T01780150 402500172=
200510140351 METAR KATL 140351Z 32006KT 9SM CLR 18/16 A3003 RMK AO2 SLP162 T01830156=
200510140251 METAR KATL 140251Z 31007KT 10SM CLR 18/16 A3003 RMK AO2 SLP165 T01830156 52009=
200510140151 METAR KATL 140151Z 30006KT 10SM CLR 19/16 A3003 RMK AO2 SLP162 T01940161=
200510140051 METAR KATL 140051Z 30006KT 9SM CLR 21/16 A3001 RMK AO2 SLP157 T02060156=
200510132351 METAR KATL 132351Z 30006KT 10SM CLR 22/16 A3001 RMK AO2 SLP154 T02220156 10250 20222 53002=
200510132251 METAR KATL 132251Z 31004KT 10SM CLR 24/15 A2999 RMK AO2 SLP149 T02390150=
200510132151 METAR KATL 132151Z 32007KT 10SM FEW040 25/15 A3000 RMK AO2 SLP151 T02500150=
200510132051 METAR KATL 132051Z 36007KT 9SM FEW035 25/16 A3000 RMK AO2 SLP152 T02500161 56014=
200510131951 METAR KATL 131951Z 00000KT 8SM SCT035 24/16 A3001 RMK AO2 SLP155 T02390156=
200510131851 METAR KATL 131851Z VRB03KT 8SM SCT025 BKN035 23/17 A3002 RMK AO2 SLP158 T02330167=
200510131751 METAR KATL 131751Z 00000KT 6SM HZ BKN023 BKN032 23/17 A3004 RMK AO2 SLP166 T02280172 10228 20172 58013=
200510131651 METAR KATL 131651Z VRB03KT 6SM HZ BKN019 OVC025 21/17 A3007 RMK AO2 SLP175 T02110167=
200510131551 METAR KATL 131551Z 08004KT 3SM HZ OVC015 20/17 A3008 RMK AO2 SFC VIS 5 SLP180 T02000167=
200510131502 SPECI KATL 131502Z VRB05KT 3SM HZ BKN011 20/17 A3008 RMK AO2 SFC VIS 5=
200510131502 SPECI KATL 131502Z VRB05KT 3SM HZ BKN011 20/17 A3008 RMK AO2 SFC VIS 5=
200510131451 METAR KATL 131451Z VRB05KT 3SM HZ BKN009 19/17 A3008 RMK AO2 SFC VIS 5 SLP180 T01940167 51006=
200510131351 METAR KATL 131351Z 09005KT 3SM BR OVC006 18/17 A3008 RMK AO2 SFC VIS 4 SLP180 T01780167=
200510131251 METAR KATL 131251Z 07007KT 2 1/2SM BR OVC006 18/16 A3007 RMK AO2 SFC VIS 4 SLP178 T01780161=
200510131226 SPECI KATL 131226Z 09009KT 2SM BR OVC006 18/16 A3007 RMK AO2 SFC VIS 4=
200510131226 SPECI KATL 131226Z 09009KT 2SM BR OVC006 18/16 A3007 RMK AO2 SFC VIS 4=
200510131151 METAR KATL 131151Z 08007KT 2SM BR BKN002 OVC007 17/17 A3006 RMK AO2 SFC VIS 5 SLP175 TWRINC T01720167 10200 20172 53012=
200510131131 SPECI KATL 131131Z 10008KT 1 1/2SM BR BKN003 OVC038 18/17 A3006 RMK AO2 SFC VIS 4 TWRINC=
200510131131 SPECI KATL 131131Z 10008KT 1 1/2SM BR BKN003 OVC038 18/17 A3006 RMK AO2 SFC VIS 4 TWRINC=
200510131129 SPECI KATL 131129Z 09008KT 5SM BR BKN004 OVC038 18/17 A3006 RMK AO2=
200510131129 SPECI KATL 131129Z 09008KT 5SM BR BKN004 OVC038 18/17 A3006 RMK AO2=
200510131120 SPECI KATL 131120Z 10007KT 4SM BR BKN006 OVC038 18/17 A3006 RMK AO2=
200510131120 SPECI KATL 131120Z 10007KT 4SM BR BKN006 OVC038 18/17 A3006 RMK AO2=
200510131111 SPECI KATL 131111Z 09007KT 6SM BR SCT006 OVC038 18/17 A3005 RMK AO2=
200510131111 SPECI KATL 131111Z 09007KT 6SM BR SCT006 OVC038 18/17 A3005 RMK AO2=
200510131051 METAR KATL 131051Z 08006KT 5SM BR OVC038 18/17 A3005 RMK AO2 SLP170 T01780167=
200510130951 METAR KATL 130951Z 08003KT 6SM BR FEW008 SCT038 18/16 A3003 RMK AO2 SLP164 T01780161=
200510130851 METAR KATL 130851Z 07003KT 5SM BR FEW008 SCT040 18/16 A3003 RMK AO2 SLP161 T01780161 58004=
200510130751 METAR KATL 130751Z 10003KT 6SM BR SCT041 18/17 A3003 RMK AO2 SLP163 T01830167=
200510130651 METAR KATL 130651Z 12003KT 8SM BKN060 19/17 A3004 RMK AO2 SLP165 T01890172=
200510130551 METAR KATL 130551Z 12004KT 8SM OVC046 20/17 A3004 RMK AO2 SLP165 BINOVC T02000172 10211 20194 53000=
200510130451 METAR KATL 130451Z 00000KT 8SM BKN044 OVC060 19/17 A3003 RMK AO2 SLP163 BINOVC T01940172 402330189=
200510130351 METAR KATL 130351Z 00000KT 10SM BKN045 BKN060 20/17 A3003 RMK AO2 SLP163 T02000172=
200510130251 METAR KATL 130251Z 00000KT 10SM FEW045 BKN090 19/17 A3004 RMK AO2 SLP165 T01940172 51009=
200510130151 METAR KATL 130151Z 00000KT 7SM CLR 20/17 A3003 RMK AO2 SLP164 T02000172=
200510130051 METAR KATL 130051Z 00000KT 10SM CLR 21/17 A3002 RMK AO2 SLP160 T02060172=
200510122351 METAR KATL 122351Z 24003KT 10SM CLR 21/17 A3001 RMK AO2 SLP155 T02060172 10233 20206 52006=
200510122251 METAR KATL 122251Z 15004KT 8SM FEW032 22/17 A3000 RMK AO2 SLP152 T02220172=
200510122151 METAR KATL 122151Z 17004KT 10SM SCT028 SCT040 23/17 A2999 RMK AO2 SLP149 T02280172=
200510122051 METAR KATL 122051Z VRB03KT 10SM FEW027 BKN040 23/17 A2999 RMK AO2 SLP147 T02280167 58013=
200510121951 METAR KATL 121951Z VRB03KT 8SM FEW024 22/17 A3000 RMK AO2 SLP152 T02220167=
200510121944 SPECI KATL 121944Z 15004KT 8SM FEW024 22/17 A3000 RMK AO2=
200510121944 SPECI KATL 121944Z 15004KT 8SM FEW024 22/17 A3000 RMK AO2=
200510121851 METAR KATL 121851Z 08006KT 8SM OVC017 21/17 A3002 RMK AO2 SLP159 T02110167=
200510121814 SPECI KATL 121814Z 06008KT 8SM OVC015 21/17 A3002 RMK AO2=
200510121814 SPECI KATL 121814Z 06008KT 8SM OVC015 21/17 A3002 RMK AO2=
200510121751 METAR KATL 121751Z 07008KT 8SM OVC013 21/17 A3003 RMK AO2 SLP162 60000 T02060172 10211 20189 58004=
200510121659 SPECI KATL 121659Z 07009KT 5SM HZ BKN011 OVC018 20/17 A3004 RMK AO2=
200510121659 SPECI KATL 121659Z 07009KT 5SM HZ BKN011 OVC018 20/17 A3004 RMK AO2=
200510121651 METAR KATL 121651Z 07010KT 5SM HZ SCT011 OVC018 21/18 A3004 RMK AO2 SLP167 T02060178=
200510121638 SPECI KATL 121638Z 08008KT 6SM HZ OVC016 21/18 A3005 RMK AO2=
200510121638 SPECI KATL 121638Z 08008KT 6SM HZ OVC016 21/18 A3005 RMK AO2=
200510121551 METAR KATL 121551Z 07008KT 8SM OVC014 21/18 A3005 RMK AO2 SLP168 T02110178=
200510121451 METAR KATL 121451Z 08010KT 8SM OVC012 21/17 A3004 RMK AO2 SLP167 60000 T02060172 51012=
200510121351 METAR KATL 121351Z 09009KT 6SM BR OVC010 20/18 A3003 RMK AO2 SLP164 T02000178=
200510121254 SPECI KATL 121254Z 08009KT 6SM BR BKN008 OVC018 19/18 A3002 RMK AO2=
200510121254 SPECI KATL 121254Z 08009KT 6SM BR BKN008 OVC018 19/18 A3002 RMK AO2=
200510121251 METAR KATL 121251Z 08010KT 2 1/2SM BR SCT009 OVC018 19/18 A3002 RMK AO2 SFC VIS 6 DZE48 SLP159 P0000 T01940183=
200510121231 SPECI KATL 121231Z 09010KT 2 1/2SM -DZ BR SCT006 OVC011 19/18 A3002 RMK AO2 SFC VIS 5 P0000=
200510121231 SPECI KATL 121231Z 09010KT 2 1/2SM -DZ BR SCT006 OVC011 19/18 A3002 RMK AO2 SFC VIS 5 P0000=
200510121121 SPECI KATL 121121Z 07006KT 2 1/2SM -DZ BR OVC005 19/18 A3000 RMK AO2 SFC VIS 3 CIG 004V010 P0000=
200510121121 SPECI KATL 121121Z 07006KT 2 1/2SM -DZ BR OVC005 19/18 A3000 RMK AO2 SFC VIS 3 CIG 004V010 P0000=
200510121051 METAR KATL 121051Z 08009KT 6SM -DZ BR OVC005 19/18 A2999 RMK AO2 DZB28 CIG 004V009 SLP148 P0000 T01940178=
200510120951 METAR KATL 120951Z 07009KT 9SM OVC009 19/18 A2998 RMK AO2 SLP145 T01940178=
200510120851 METAR KATL 120851Z 06006KT 10SM OVC009 19/18 A2998 RMK AO2 SLP141 T01940178 53000=
200510120751 METAR KATL 120751Z 08008KT 10SM OVC009 20/18 A2997 RMK AO2 SLP139 T02000178=
200510120727 SPECI KATL 120727Z 07006KT 10SM OVC013 20/18 A2997 RMK AO2=
200510120727 SPECI KATL 120727Z 07006KT 10SM OVC013 20/18 A2997 RMK AO2=
200510120651 METAR KATL 120651Z 06006KT 10SM BKN015 OVC040 20/18 A2997 RMK AO2 SLP141 T02000178=
200510120551 METAR KATL 120551Z 06006KT 10SM SCT028 OVC040 20/18 A2997 RMK AO2 SLP142 T02000178 10233 20194 58007=
200510120538 SPECI KATL 120538Z 07006KT 10SM FEW027 OVC040 20/18 A2997 RMK AO2=
200510120538 SPECI KATL 120538Z 07006KT 10SM FEW027 OVC040 20/18 A2997 RMK AO2=
200510120451 METAR KATL 120451Z 07006KT 10SM OVC025 20/18 A2999 RMK AO2 SLP147 BINOVC T02000178 402780194=
200510120423 SPECI KATL 120423Z 07004KT 10SM BKN024 19/17 A2999 RMK AO2=
200510120423 SPECI KATL 120423Z 07004KT 10SM BKN024 19/17 A2999 RMK AO2=
200510120351 METAR KATL 120351Z 09004KT 10SM FEW015 19/17 A3000 RMK AO2 SLP151 T01940172=
200510120251 METAR KATL 120251Z 09006KT 10SM CLR 20/17 A3000 RMK AO2 SLP150 T02000172 51013=
200510120151 METAR KATL 120151Z 11004KT 10SM FEW035 21/18 A2999 RMK AO2 SLP148 T02110178=
200510120051 METAR KATL 120051Z 10008KT 10SM FEW085 22/18 A2997 RMK AO2 SLP143 T02170178=
200510112351 METAR KATL 112351Z 11007KT 10SM FEW085 23/18 A2996 RMK AO2 SLP137 T02330178 10278 20228 53011=
200510112251 METAR KATL 112251Z 11006KT 10SM FEW040 SCT085 25/18 A2994 RMK AO2 SLP130 T02500178=
200510112151 METAR KATL 112151Z 08006KT 10SM FEW045TCU SCT085 26/17 A2993 RMK AO2 SLP128 TCU VC SW AND DSNT S T02560167=
200510112051 METAR KATL 112051Z 09006KT 10SM FEW045 27/17 A2992 RMK AO2 SLP124 T02670172 55009=
200510111951 METAR KATL 111951Z 06005KT 10SM FEW040 26/17 A2992 RMK AO2 SLP124 MDT CU N T02610167=
200510111851 METAR KATL 111851Z 32005KT 10SM BKN040 27/17 A2993 RMK AO2 SLP127 T02670172=
200510111751 METAR KATL 111751Z VRB04KT 10SM BKN040 26/17 A2995 RMK AO2 SLP134 MDT CU ALQDS T02560167 10267 20194 57016=
200510111658 SPECI KATL 111658Z 07004KT 10SM BKN034 25/17 A2997 RMK AO2 $=
200510111658 SPECI KATL 111658Z 07004KT 10SM BKN034 25/17 A2997 RMK AO2 $=
200510111651 METAR KATL 111651Z 01008KT 10SM BKN028 25/17 A2997 RMK AO2 SLP140 T02500172 $=
200510111551 METAR KATL 111551Z 09004KT 10SM SCT022 SCT040 24/17 A2999 RMK AO2 SLP146 T02390172=
200510111513 SPECI KATL 111513Z 04005KT 10SM SCT020 BKN040 BKN200 23/17 A2999 RMK AO2=
200510111513 SPECI KATL 111513Z 04005KT 10SM SCT020 BKN040 BKN200 23/17 A2999 RMK AO2=
200510111451 METAR KATL 111451Z VRB03KT 10SM BKN018 BKN060 BKN200 23/18 A3000 RMK AO2 SLP151 T02280178 51006=
200510111351 METAR KATL 111351Z 08005KT 10SM FEW016 SCT060 SCT200 22/18 A3000 RMK AO2 SLP152 T02170178 $=
200510111251 METAR KATL 111251Z 09003KT 10SM CLR 21/17 A2999 RMK AO2 SLP149 T02060172 $=
200510111237 SPECI KATL 111237Z 09005KT 7SM SCT015 20/17 A2999 RMK AO2 $=
200510111237 SPECI KATL 111237Z 09005KT 7SM SCT015 20/17 A2999 RMK AO2 $=
200510111215 SPECI KATL 111215Z 06007KT 10SM SCT010 OVC015 20/17 A2999 RMK AO2 $=
200510111215 SPECI KATL 111215Z 06007KT 10SM SCT010 OVC015 20/17 A2999 RMK AO2 $=
200510111151 METAR KATL 111151Z 04010KT 9SM FEW008 OVC013 19/18 A2998 RMK AO2 SLP147 T01940178 10206 20194 53010 $=
200510111124 SPECI KATL 111124Z 04010KT 8SM BKN010 OVC150 20/18 A2998 RMK AO2 $=
200510111124 SPECI KATL 111124Z 04010KT 8SM BKN010 OVC150 20/18 A2998 RMK AO2 $=
200510111051 METAR KATL 111051Z 06008KT 7SM BKN008 OVC014 20/18 A2996 RMK AO2 SLP140 T02000183=
200510110951 METAR KATL 110951Z 09005KT 6SM BR BKN008 BKN014 OVC036 20/18 A2996 RMK AO2 CIG 007V012 SLP137 T02000183 $=
200510110851 METAR KATL 110851Z 09006KT 7SM OVC012 20/18 A2995 RMK AO2 SLP135 T02000183 57004 $=
200510110751 METAR KATL 110751Z 07004KT 7SM OVC011 21/18 A2996 RMK AO2 SLP135 T02060183 $=
200510110729 SPECI KATL 110729Z 07004KT 8SM OVC013 21/18 A2996 RMK AO2 $=
200510110729 SPECI KATL 110729Z 07004KT 8SM OVC013 21/18 A2996 RMK AO2 $=
200510110651 METAR KATL 110651Z 08005KT 8SM SCT017 OVC028 21/18 A2996 RMK AO2 SLP138 T02060183 $=
200510110551 METAR KATL 110551Z 07005KT 8SM OVC016 21/18 A2997 RMK AO2 SLP140 T02060183 10217 20206 50001 $=
200510110519 SPECI KATL 110519Z 07007KT 9SM SCT010 OVC016 21/18 A2996 RMK AO2 $=
200510110519 SPECI KATL 110519Z 07007KT 9SM SCT010 OVC016 21/18 A2996 RMK AO2 $=
200510110451 METAR KATL 110451Z 07005KT 7SM OVC012 21/18 A2997 RMK AO2 SLP140 T02060183 402500183 $=
200510110351 METAR KATL 110351Z 10007KT 7SM OVC012 21/18 A2997 RMK AO2 SLP141 T02060183 $=
200510110251 METAR KATL 110251Z 09008KT 7SM OVC014 21/18 A2996 RMK AO2 SLP139 T02110183 51008 $=
200510110151 METAR KATL 110151Z 06008KT 8SM OVC014 21/18 A2996 RMK AO2 SLP139 T02110183 $=
200510110105 SPECI KATL 110105Z 06008KT 7SM BKN014 21/18 A2995 RMK AO2 $=
200510110105 SPECI KATL 110105Z 06008KT 7SM BKN014 21/18 A2995 RMK AO2 $=
200510110051 METAR KATL 110051Z 09007KT 5SM BR FEW010 BKN016 21/19 A2994 RMK AO2 SLP133 T02110189 $=
200510110000 SPECI KATL 110000Z 05010KT 7SM BKN012 BKN018 22/19 A2994 RMK AO2 $=
200510110000 SPECI KATL 110000Z 05010KT 7SM BKN012 BKN018 22/19 A2994 RMK AO2 $=
200510102351 METAR KATL 102351Z 08008KT 7SM BKN015 22/19 A2994 RMK AO2 SLP131 T02170189 10250 20211 51006 $=
200510102340 SPECI KATL 102340Z 07008KT 7SM BKN015 22/19 A2994 RMK AO2 $=
200510102340 SPECI KATL 102340Z 07008KT 7SM BKN015 22/19 A2994 RMK AO2 $=
200510102251 METAR KATL 102251Z 09008KT 7SM SCT016 22/19 A2993 RMK AO2 SLP128 T02170189 $=
200510102151 METAR KATL 102151Z 07010KT 7SM SCT018 23/19 A2993 RMK AO2 SLP127 T02280189 $=
200510102118 SPECI KATL 102118Z 05009KT 8SM SCT025TCU BKN040 24/19 A2992 RMK AO2 TCU VC NE MDT CU W $=
200510102118 SPECI KATL 102118Z 05009KT 8SM SCT025TCU BKN040 24/19 A2992 RMK AO2 TCU VC NE MDT CU W $=
200510102051 METAR KATL 102051Z 05008KT 7SM BKN018 BKN040 24/19 A2992 RMK AO2 SLP124 T02440194 55000 $=
200510102030 SPECI KATL 102030Z 07009KT 7SM BKN020 BKN025 24/19 A2992 RMK AO2 $=
200510102030 SPECI KATL 102030Z 07009KT 7SM BKN020 BKN025 24/19 A2992 RMK AO2 $=
200510101951 METAR KATL 101951Z 07007KT 6SM HZ FEW017 SCT023 SCT040 24/19 A2992 RMK AO2 SLP124 T02440194 $=
200510101919 SPECI KATL 101919Z 08007KT 6SM HZ FEW017 SCT023 BKN040 24/19 A2991 RMK AO2 $=
200510101919 SPECI KATL 101919Z 08007KT 6SM HZ FEW017 SCT023 BKN040 24/19 A2991 RMK AO2 $=
200510101858 SPECI KATL 101858Z 06008KT 6SM HZ BKN020 BKN024 BKN041 23/19 A2991 RMK AO2 $=
200510101858 SPECI KATL 101858Z 06008KT 6SM HZ BKN020 BKN024 BKN041 23/19 A2991 RMK AO2 $=
200510101851 METAR KATL 101851Z 08007KT 6SM HZ FEW020 SCT030 BKN040 24/19 A2991 RMK AO2 SLP122 T02390189 $=
200510101825 SPECI KATL 101825Z 08008KT 6SM HZ FEW015 SCT027 BKN038 24/19 A2992 RMK AO2=
200510101825 SPECI KATL 101825Z 08008KT 6SM HZ FEW015 SCT027 BKN038 24/19 A2992 RMK AO2=
200510101751 METAR KATL 101751Z 06006KT 6SM HZ FEW012 BKN015 BKN030 23/19 A2992 RMK AO2 SLP126 T02280189 10233 20200 58007=
200510101724 SPECI KATL 101724Z 06004KT 6SM HZ BKN011 BKN015 OVC030 23/19 A2993 RMK AO2=
200510101724 SPECI KATL 101724Z 06004KT 6SM HZ BKN011 BKN015 OVC030 23/19 A2993 RMK AO2=
200510101651 METAR KATL 101651Z 06005KT 5SM BR BKN007 BKN020 OVC030 22/19 A2994 RMK AO2 SLP132 T02170194=
200510101551 METAR KATL 101551Z 09005KT 5SM BR OVC007 21/19 A2994 RMK AO2 SLP134 T02060194=
200510101451 METAR KATL 101451Z 09006KT 2SM BR OVC005 21/19 A2994 RMK AO2 SFC VIS 5 SLP133 T02060189 51013=
200510101422 SPECI KATL 101422Z 07007KT 2SM BR OVC005 20/19 A2995 RMK AO2 SFC VIS 5=
200510101422 SPECI KATL 101422Z 07007KT 2SM BR OVC005 20/19 A2995 RMK AO2 SFC VIS 5=
200510101407 SPECI KATL 101407Z 07007KT 2SM BR OVC003 20/19 A2994 RMK AO2 SFC VIS 3=
200510101407 SPECI KATL 101407Z 07007KT 2SM BR OVC003 20/19 A2994 RMK AO2 SFC VIS 3=
200510101403 SPECI KATL 101403Z 07007KT 1 1/2SM BR OVC003 20/19 A2994 RMK AO2 SFC VIS 2 1/2=
200510101403 SPECI KATL 101403Z 07007KT 1 1/2SM BR OVC003 20/19 A2994 RMK AO2 SFC VIS 2 1/2=
200510101351 METAR KATL 101351Z 07008KT 1SM R09R/6000VP6000FT BR OVC003 20/19 A2994 RMK AO2 SFC VIS 1 3/4 SLP133 T02000194=
200510101251 METAR KATL 101251Z 10006KT 1SM BR OVC003 20/19 A2992 RMK AO2 SFC VIS 2 1/2 SLP126 T02000194=
200510101151 METAR KATL 101151Z 08007KT 1 1/2SM BR OVC003 20/19 A2991 RMK AO2 SFC VIS 4 SLP120 T02000189 10200 20183 53009=
200510101114 SPECI KATL 101114Z 08007KT 2SM BR OVC003 20/19 A2990 RMK AO2 SFC VIS 4=
200510101114 SPECI KATL 101114Z 08007KT 2SM BR OVC003 20/19 A2990 RMK AO2 SFC VIS 4=
200510101051 METAR KATL 101051Z 08007KT 3SM BR OVC003 20/19 A2990 RMK AO2 SFC VIS 5 SLP117 T02000189=
200510100951 METAR KATL 100951Z 09006KT 5SM BR OVC003 20/19 A2988 RMK AO2 SLP112 T02000194=
200510100932 SPECI KATL 100932Z 09006KT 2SM BR OVC003 20/19 A2988 RMK AO2 SFC VIS 5=
200510100932 SPECI KATL 100932Z 09006KT 2SM BR OVC003 20/19 A2988 RMK AO2 SFC VIS 5=
200510100855 SPECI KATL 100855Z 07005KT 2SM BR OVC001 19/19 A2988 RMK AO2=
200510100855 SPECI KATL 100855Z 07005KT 2SM BR OVC001 19/19 A2988 RMK AO2=
200510100851 METAR KATL 100851Z 03003KT 1/4SM R09R/6000VP6000FT BR OVC001 19/19 A2988 RMK AO2 SFC VIS 1 3/4 SLP110 T01940189 53000=
200510100751 METAR KATL 100751Z 03004KT 1/4SM BR OVC001 19/18 A2987 RMK AO2 SFC VIS 2 1/2 SLP109 T01890183=
200510100738 SPECI KATL 100738Z 35003KT 1/4SM BR OVC001 18/18 A2987 RMK AO2 SFC VIS 1 1/2=
200510100738 SPECI KATL 100738Z 35003KT 1/4SM BR OVC001 18/18 A2987 RMK AO2 SFC VIS 1 1/2=
200510100705 SPECI KATL 100705Z 33004KT 2SM BR OVC003 19/18 A2987 RMK AO2 SFC VIS 5=
200510100705 SPECI KATL 100705Z 33004KT 2SM BR OVC003 19/18 A2987 RMK AO2 SFC VIS 5=
200510100651 METAR KATL 100651Z 34004KT 5SM BR OVC003 19/18 A2987 RMK AO2 SLP108 T01890178=
200510100551 METAR KATL 100551Z 29003KT 6SM BR OVC003 18/18 A2988 RMK AO2 SLP110 60000 T01830178 10189 20183 58007=
200510100539 SPECI KATL 100539Z 31003KT 7SM OVC003 18/17 A2988 RMK AO2=
200510100539 SPECI KATL 100539Z 31003KT 7SM OVC003 18/17 A2988 RMK AO2=
200510100451 METAR KATL 100451Z 32005KT 6SM BR OVC005 18/18 A2988 RMK AO2 SLP113 T01830178 402110144=
200510100356 SPECI KATL 100356Z 00000KT 6SM BR OVC007 19/18 A2989 RMK AO2=
200510100356 SPECI KATL 100356Z 00000KT 6SM BR OVC007 19/18 A2989 RMK AO2=
200510100351 METAR KATL 100351Z 00000KT 1 1/2SM BR FEW004 OVC007 19/18 A2989=
200510100251 METAR KATL 100251Z 34004KT 1 1/2SM BR OVC003 18/18 A2990 RMK AO2 SFC VIS 4 SLP119 60000 T01830178 51012=
200510100205 SPECI KATL 100205Z 32005KT 1 1/2SM BR BKN003 OVC008 19/18 A2989 RMK AO2 SFC VIS 2 CIG 002V006=
200510100205 SPECI KATL 100205Z 32005KT 1 1/2SM BR BKN003 OVC008 19/18 A2989 RMK AO2 SFC VIS 2 CIG 002V006=
200510100151 METAR KATL 100151Z 33005KT 2 1/2SM BR FEW003 OVC006 19/18 A2989 RMK AO2 SFC VIS 3 CIG 006V012 SLP115 T01890178=
200510100051 METAR KATL 100051Z 27005KT 2 1/2SM BR OVC006 19/18 A2987 RMK AO2 DZE34 CIG 003V008 SLP112 P0000 T01890178=
200510100024 SPECI KATL 100024Z 31004KT 2SM -DZ BR FEW003 OVC006 19/18 A2986 RMK AO2 SFC VIS 2 1/2 P0000=
200510100024 SPECI KATL 100024Z 31004KT 2SM -DZ BR FEW003 OVC006 19/18 A2986 RMK AO2 SFC VIS 2 1/2 P0000=
200510100015 SPECI KATL 100015Z 32004KT 2SM -DZ BR OVC004 19/18 A2986 RMK AO2 CIG 002V008 P0000=
200510100015 SPECI KATL 100015Z 32004KT 2SM -DZ BR OVC004 19/18 A2986 RMK AO2 CIG 002V008 P0000=
200510100005 SPECI KATL 100005Z 00000KT 1 3/4SM -DZ BR OVC004 19/18 A2986 RMK AO2 TWR VIS 2 P0000=
200510100005 SPECI KATL 100005Z 00000KT 1 3/4SM -DZ BR OVC004 19/18 A2986 RMK AO2 TWR VIS 2 P0000=
200510092351 METAR KATL 092351Z 00000KT 1 3/4SM -DZ BR OVC005 19/18 A2986 RMK AO2 TWR VIS 2 DZB30 SLP107 P0000 60000 T01890178 10211 20189 53011=
200510092331 SPECI KATL 092331Z 27003KT 2SM -DZ BR OVC008 19/18 A2986 RMK AO2 SFC VIS 2 1/2 DZB30 P0000=
200510092331 SPECI KATL 092331Z 27003KT 2SM -DZ BR OVC008 19/18 A2986 RMK AO2 SFC VIS 2 1/2 DZB30 P0000=
200510092251 METAR KATL 092251Z 00000KT 3SM BR OVC009 19/18 A2985 RMK AO2 TWR VIS 5 SLP103 T01940178=
200510092234 SPECI KATL 092234Z 21003KT 4SM BR OVC009 20/18 A2984 RMK AO2=
200510092234 SPECI KATL 092234Z 21003KT 4SM BR OVC009 20/18 A2984 RMK AO2=
200510092151 METAR KATL 092151Z 00000KT 5SM HZ OVC013 20/17 A2983 RMK AO2 SLP098 T02000172=
200510092114 SPECI KATL 092114Z 30004KT 5SM HZ OVC013 20/17 A2983 RMK AO2=
200510092114 SPECI KATL 092114Z 30004KT 5SM HZ OVC013 20/17 A2983 RMK AO2=
200510092051 METAR KATL 092051Z 17003KT 5SM HZ OVC015 21/17 A2983 RMK AO2 SLP095 T02060172 55003=
200510091951 METAR KATL 091951Z 00000KT 5SM HZ OVC015 21/17 A2983 RMK AO2 SLP095 T02060167=
200510091851 METAR KATL 091851Z 00000KT 5SM HZ OVC013 20/17 A2983 RMK AO2 SLP096 T02000167=
200510091751 METAR KATL 091751Z VRB03KT 5SM HZ OVC011 20/16 A2984 RMK AO2 SLP099 T02000161 10200 20144 58006=
200510091704 SPECI KATL 091704Z VRB03KT 5SM HZ OVC011 19/16 A2985 RMK AO2=
200510091704 SPECI KATL 091704Z VRB03KT 5SM HZ OVC011 19/16 A2985 RMK AO2=
200510091651 METAR KATL 091651Z 00000KT 5SM HZ OVC009 19/16 A2985 RMK AO2 SLP104 T01890156=
200510091619 SPECI KATL 091619Z 00000KT 5SM HZ OVC009 18/16 A2986 RMK AO2=
200510091619 SPECI KATL 091619Z 00000KT 5SM HZ OVC009 18/16 A2986 RMK AO2=
200510091551 METAR KATL 091551Z 00000KT 5SM BR OVC011 17/15 A2986 RMK AO2 SLP108 T01720150=
200510091451 METAR KATL 091451Z 28003KT 7SM FEW007 OVC013 16/14 A2985 RMK AO2 SLP106 T01610144 51014=
200510091423 SPECI KATL 091423Z 29004KT 3SM SCT005 OVC015 16/14 A2985 RMK AO2 SFC VIS 7=
200510091423 SPECI KATL 091423Z 29004KT 3SM SCT005 OVC015 16/14 A2985 RMK AO2 SFC VIS 7=
200510091407 SPECI KATL 091407Z 00000KT 3SM BR OVC005 16/14 A2985 RMK AO2 SFC VIS 6=
200510091407 SPECI KATL 091407Z 00000KT 3SM BR OVC005 16/14 A2985 RMK AO2 SFC VIS 6=
200510091351 METAR KATL 091351Z 32003KT 3SM BR OVC003 15/14 A2985 RMK AO2 SFC VIS 5 SLP104 T01500139=
200510091251 METAR KATL 091251Z 00000KT 2SM BR BKN003 OVC005 14/14 A2983 RMK AO2 SFC VIS 3 SLP096 T01440139=
200510091212 SPECI KATL 091212Z 33005KT 2SM BR OVC003 14/14 A2981 RMK AO2 SFC VIS 4=
200510091212 SPECI KATL 091212Z 33005KT 2SM BR OVC003 14/14 A2981 RMK AO2 SFC VIS 4=
200510091151 METAR KATL 091151Z 33004KT 6SM BR OVC003 14/13 A2981 RMK AO2 SLP092 T01440133 10156 20144 53006=
200510091119 SPECI KATL 091119Z 32006KT 7SM OVC003 14/13 A2981 RMK AO2=
200510091119 SPECI KATL 091119Z 32006KT 7SM OVC003 14/13 A2981 RMK AO2=
200510091051 METAR KATL 091051Z 33007KT 7SM OVC005 14/13 A2980 RMK AO2 SLP088 T01440133=
200510090951 METAR KATL 090951Z 33006KT 9SM OVC005 14/13 A2979 RMK AO2 SLP083 T01440133=
200510090851 METAR KATL 090851Z 31006KT 9SM OVC005 15/13 A2979 RMK AO2 SLP084 T01500133 53005=
200510090751 METAR KATL 090751Z 30006KT 10SM SCT007 SCT110 15/13 A2978 RMK AO2 SLP078 T01500133=
200510090651 METAR KATL 090651Z 33006KT 10SM FEW009 15/13 A2978 RMK AO2 SLP077 T01500133=
200510090620 SPECI KATL 090620Z 31007KT 10SM FEW009 15/13 A2979 RMK AO2=
200510090620 SPECI KATL 090620Z 31007KT 10SM FEW009 15/13 A2979 RMK AO2=
200510090551 METAR KATL 090551Z 32005KT 10SM FEW015 16/14 A2978 RMK AO2 SLP079 T01560139 10183 20156 55003=
200510090451 METAR KATL 090451Z 32007KT 10SM FEW015 16/14 A2977 RMK AO2 SLP078 T01560139 402280144=
200510090351 METAR KATL 090351Z 32008KT 10SM FEW015 16/14 A2978 RMK AO2 SLP080 T01610139=
200510090251 METAR KATL 090251Z 34007KT 10SM FEW200 17/14 A2979 RMK AO2 SLP083 T01670139 51008=
200510090151 METAR KATL 090151Z 31009KT 10SM FEW017 17/14 A2978 RMK AO2 SLP081 T01670139=
200510090051 METAR KATL 090051Z 32009KT 10SM FEW017 18/14 A2977 RMK AO2 SLP078 T01780144=
200510082351 METAR KATL 082351Z 31009KT 10SM FEW200 18/14 A2976 RMK AO2 SLP074 T01830144 10228 20183 53010=
200510082251 METAR KATL 082251Z 31009KT 10SM FEW200 21/16 A2975 RMK AO2 SLP067 T02110156=
200510082151 METAR KATL 082151Z 33011KT 10SM FEW200 23/16 A2974 RMK AO2 SLP062 T02280156=
200510082051 METAR KATL 082051Z 32011KT 10SM SCT021 SCT200 22/16 A2973 RMK AO2 SLP062 T02220156 55003=
200510081951 METAR KATL 081951Z 29011KT 10SM SCT021 22/16 A2973 RMK AO2 SLP061 T02220156=
200510081923 SPECI KATL 081923Z 27009KT 10SM BKN021 22/16 A2973 RMK AO2=
200510081923 SPECI KATL 081923Z 27009KT 10SM BKN021 22/16 A2973 RMK AO2=
200510081851 METAR KATL 081851Z 28009KT 10SM FEW025 22/16 A2973 RMK AO2 SLP063 T02220156=
200510081751 METAR KATL 081751Z 32010KT 9SM FEW020 SCT210 20/15 A2974 RMK AO2 SLP065 T02000150 10206 20144 58006=
200510081651 METAR KATL 081651Z 32011KT 8SM FEW013 SCT210 19/15 A2975 RMK AO2 SLP070 T01890150=
200510081617 SPECI KATL 081617Z 28010KT 8SM BKN010 BKN210 18/15 A2976 RMK AO2=
200510081617 SPECI KATL 081617Z 28010KT 8SM BKN010 BKN210 18/15 A2976 RMK AO2=
200510081551 METAR KATL 081551Z 30010KT 8SM BKN008 BKN210 17/14 A2976 RMK AO2 SLP072 T01720144=
200510081451 METAR KATL 081451Z 31009KT 7SM OVC006 16/14 A2976 RMK AO2 CIG 006V010 SLP073 BKNINOVC N T01610144 51012=
200510081354 SPECI KATL 081354Z 31009KT 7SM OVC006 16/14 A2975 RMK AO2=
200510081354 SPECI KATL 081354Z 31009KT 7SM OVC006 16/14 A2975 RMK AO2=
200510081351 METAR KATL 081351Z 32011KT 7SM OVC004 16/14 A2975 RMK AO2 SLP071 T01560144=
200510081251 METAR KATL 081251Z 32012KT 7SM OVC004 14/14 A2973 RMK AO2 SLP064 T01440139=
200510081151 METAR KATL 081151Z 32011KT 7SM OVC004 14/14 A2972 RMK AO2 SLP060 60005 70076 T01440139 10161 20144 53010=
200510081051 METAR KATL 081051Z 30009KT 7SM OVC004 15/14 A2971 RMK AO2 SLP054 T01500144=
200510080951 METAR KATL 080951Z 31011KT 7SM OVC004 16/14 A2970 RMK AO2 RAE27 SLP051 P0000 T01560144=
200510080851 METAR KATL 080851Z 32008KT 4SM -RA BR OVC004 16/15 A2969 RMK AO2 SLP049 P0002 60005 T01560150 56003=
200510080751 METAR KATL 080751Z 32009KT 4SM -RA BR OVC004 16/15 A2970 RMK AO2 RAB0654 SLP050 P0002 T01560150=
200510080651 METAR KATL 080651Z 31012KT 4SM BR OVC004 16/15 A2970 RMK AO2 RAB12E48 CIG 003V006 SLP051 P0001 T01560150=
200510080551 METAR KATL 080551Z 31012KT 7SM OVC004 16/16 A2970 RMK AO2 RAE15 SLP052 P0000 60030 T01610156 10206 20161 55007=
200510080451 METAR KATL 080451Z 28009KT 3SM -RA OVC004 17/16 A2970 RMK AO2 SFC VIS 7 RAB29 SLP051 P0001 T01670156 402220167=
200510080351 METAR KATL 080351Z 32013KT 3SM BKN004 OVC090 17/17 A2970 RMK AO2 SFC VIS 10 RAE48 SLP051 P0000 T01720167=
200510080318 SPECI KATL 080318Z 33014KT 3SM -RA BKN006 BKN015 OVC080 18/17 A2971 RMK AO2 SFC VIS 10 P0000=
200510080318 SPECI KATL 080318Z 33014KT 3SM -RA BKN006 BKN015 OVC080 18/17 A2971 RMK AO2 SFC VIS 10 P0000=
200510080251 METAR KATL 080251Z 32011KT 3SM -RA BR BKN004 BKN015 OVC050 18/18 A2972 RMK AO2 SFC VIS 6 SLP059 P0002 60029 T01830178 51006=
200510080201 SPECI KATL 080201Z 31013KT 2SM -RA BKN005 BKN015 OVC050 19/18 A2972 RMK AO2 SFC VIS 7 P0000=
200510080201 SPECI KATL 080201Z 31013KT 2SM -RA BKN005 BKN015 OVC050 19/18 A2972 RMK AO2 SFC VIS 7 P0000=
200510080151 METAR KATL 080151Z 31011KT 2SM -RA BR SCT005 BKN015 OVC050 19/19 A2972 RMK AO2 SFC VIS 6 SLP056 CIG OO4V010 P0014 T01940189=
200510080143 SPECI KATL 080143Z 30012KT 2SM -RA BR BKN005 BKN012 OVC040 19/19 A2972 RMK AO2 SFC VIS 5 P0014=
200510080143 SPECI KATL 080143Z 30012KT 2SM -RA BR BKN005 BKN012 OVC040 19/19 A2972 RMK AO2 SFC VIS 5 P0014=
200510080123 SPECI KATL 080123Z 32014KT 2SM RA BR SCT005 BKN012 OVC040 20/19 A2972 RMK AO2 SFC VIS 4 P0011=
200510080123 SPECI KATL 080123Z 32014KT 2SM RA BR SCT005 BKN012 OVC040 20/19 A2972 RMK AO2 SFC VIS 4 P0011=
200510080051 METAR KATL 080051Z 32013KT 2SM RA BR BKN006 BKN020 OVC040 21/19 A2972 RMK AO2 SFC VIS 3 SLP055 CIG 004V010 P0013 T02060194=
200510080006 SPECI KATL 080006Z 32011KT 2SM RA BR BKN006 BKN012 OVC040 21/20 A2971 RMK AO2 SFC VIS 4 P0001=
200510080006 SPECI KATL 080006Z 32011KT 2SM RA BR BKN006 BKN012 OVC040 21/20 A2971 RMK AO2 SFC VIS 4 P0001=
200510072351 METAR KATL 072351Z 32010KT 1 1/2SM -RA BR BKN006 BKN020 OVC040 21/20 A2971 RMK AO2 SFC VIS 5 SLP052 CIG 004V010 P0020 60039 T02060200 10222 20206 50002=
200510072329 SPECI KATL 072329Z 32009KT 1 1/2SM RA BR SCT006 BKN015 OVC040 21/20 A2971 RMK AO2 SFC VIS 3 P0010=
200510072329 SPECI KATL 072329Z 32009KT 1 1/2SM RA BR SCT006 BKN015 OVC040 21/20 A2971 RMK AO2 SFC VIS 3 P0010=
200510072300 SPECI KATL 072300Z 33009KT 1 1/2SM RA BR BKN006 BKN014 OVC028 21/21 A2971 RMK AO2 SFC VIS 2 1/2 P0001=
200510072300 SPECI KATL 072300Z 33009KT 1 1/2SM RA BR BKN006 BKN014 OVC028 21/21 A2971 RMK AO2 SFC VIS 2 1/2 P0001=
200510072251 METAR KATL 072251Z 33007KT 5SM -RA BR BKN005 BKN014 OVC028 22/21 A2971 RMK AO2 SLP052 CIG 004V008 P0007 T02170206=
200510072233 SPECI KATL 072233Z 33007KT 5SM -RA BR FEW008 BKN028 OVC040 22/21 A2970 RMK AO2 P0006=
200510072233 SPECI KATL 072233Z 33007KT 5SM -RA BR FEW008 BKN028 OVC040 22/21 A2970 RMK AO2 P0006=
200510072151 METAR KATL 072151Z 33006KT 2SM RA BR FEW006 BKN022 OVC040 22/21 A2970 RMK AO2 SFC VIS 3 SLP050 P0007 T02170206=
200510072051 METAR KATL 072051Z VRB06KT 2SM -RA BR FEW008 BKN022 OVC042 22/21 A2970 RMK AO2 SFC VIS 3 SLP050 P0004 60005 T02170206 56015=
200510072038 SPECI KATL 072038Z 01007KT 2SM RA BR BKN008 BKN015 OVC040 22/21 A2970 RMK AO2 SFC VIS 4 P0002=
200510072038 SPECI KATL 072038Z 01007KT 2SM RA BR BKN008 BKN015 OVC040 22/21 A2970 RMK AO2 SFC VIS 4 P0002=
200510072002 SPECI KATL 072002Z 03010KT 5SM -RA BR BKN008 BKN015 OVC040 22/21 A2971 RMK AO2 P0000=
200510072002 SPECI KATL 072002Z 03010KT 5SM -RA BR BKN008 BKN015 OVC040 22/21 A2971 RMK AO2 P0000=
200510071951 METAR KATL 071951Z 03008KT 7SM -RA SCT008 BKN015 OVC040 22/21 A2971 RMK AO2 SLP052 P0001 T02220206=
200510071858 SPECI KATL 071858Z 03010KT 6SM BR SCT008 BKN012 OVC030 22/21 A2972 RMK AO2 RAE57 P0000=
200510071858 SPECI KATL 071858Z 03010KT 6SM BR SCT008 BKN012 OVC030 22/21 A2972 RMK AO2 RAE57 P0000=
200510071851 METAR KATL 071851Z 03011KT 5SM -RA BR SCT008 BKN015 OVC022 22/21 A2972 RMK AO2 RAE01B26DZB06E08 SLP057 P0000 T02220206=
200510071829 SPECI KATL 071829Z 02009KT 6SM -RA BR BKN008 BKN015 OVC022 22/21 A2973 RMK AO2 RAE01B26DZB06E08 P0000=
200510071829 SPECI KATL 071829Z 02009KT 6SM -RA BR BKN008 BKN015 OVC022 22/21 A2973 RMK AO2 RAE01B26DZB06E08 P0000=
200510071810 SPECI KATL 071810Z 04009KT 6SM BR FEW008 BKN015 OVC020 22/21 A2974 RMK AO2 RAE01DZB06E08 P0000=
200510071810 SPECI KATL 071810Z 04009KT 6SM BR FEW008 BKN015 OVC020 22/21 A2974 RMK AO2 RAE01DZB06E08 P0000=
200510071802 SPECI KATL 071802Z 04010KT 2 1/2SM BR FEW008 BKN020 OVC026 22/21 A2974 RMK AO2 SFC VIS 5 RAE01 P0000=
200510071802 SPECI KATL 071802Z 04010KT 2 1/2SM BR FEW008 BKN020 OVC026 22/21 A2974 RMK AO2 SFC VIS 5 RAE01 P0000=
200510071751 METAR KATL 071751Z 03011KT 2 1/2SM -RA BR FEW008 BKN013 OVC026 22/21 A2975 RMK AO2 SFC VIS 5 SLP065 VIS LWR SW CIG LWR E P0001 60002 T02220211 10222 20211 58016=
200510071730 SPECI KATL 071730Z 04010KT 2 1/2SM -RA BR SCT008 BKN013 OVC020 22/21 A2975 RMK AO2 SFC VIS 5 P0001=
200510071730 SPECI KATL 071730Z 04010KT 2 1/2SM -RA BR SCT008 BKN013 OVC020 22/21 A2975 RMK AO2 SFC VIS 5 P0001=
200510071651 METAR KATL 071651Z 03010KT 4SM -RA BR BKN008 OVC013 22/21 A2977 RMK AO2 DZE20RAB21 SLP072 P0000 T02220211=
200510071551 METAR KATL 071551Z 04009KT 5SM -DZ BR BKN006 BKN015 OVC025 22/21 A2979 RMK AO2 RAE23DZB46 SLP078 P0000 T02220211=
200510071451 METAR KATL 071451Z 04009KT 6SM -RA BR OVC006 22/21 A2979 RMK AO2 RAE29B47 SLP081 P0000 60001 T02170206 50004=
200510071351 METAR KATL 071351Z 06009KT 6SM -RA BR OVC006 22/21 A2980 RMK AO2 SLP083 P0000 T02170206=
200510071344 SPECI KATL 071344Z 05008KT 6SM -RA BR OVC006 21/21 A2980 RMK AO2 P0000=
200510071344 SPECI KATL 071344Z 05008KT 6SM -RA BR OVC006 21/21 A2980 RMK AO2 P0000=
200510071251 METAR KATL 071251Z 06008KT 2 1/2SM -RA BR OVC003 21/21 A2979 RMK AO2 SFC VIS 6 SLP080 TWRINC P0001 T02110206=
200510071151 METAR KATL 071151Z 05007KT 2 1/2SM -RA BR BKN003 OVC012 21/21 A2978 RMK AO2 SFC VIS 5 SLP078 TWRINC P0011 60031 70069 T02110206 10211 20206 51001=
200510071051 METAR KATL 071051Z 05007KT 2 1/2SM -RA BKN003 BKN016 OVC041 21/21 A2978 RMK AO2 SFC VIS 7 SLP078 P0005 T02110206=
200510070951 METAR KATL 070951Z 06007KT 2 1/2SM -RA OVC003 21/20 A2978 RMK AO2 SFC VIS 10 CIG 003V006 SLP077 TWRINC P0001 T02110200=
200510070851 METAR KATL 070851Z 06008KT 2 1/2SM -RA OVC003 21/21 A2978 RMK AO2 SFC VIS 10 SLP076 TWRINC P0001 60014 T02110206 56011=
200510070751 METAR KATL 070751Z 06008KT 2 1/2SM -RA OVC004 21/20 A2979 RMK AO2 SFC VIS 10 SLP080 P0000 T02110200=
200510070651 METAR KATL 070651Z 06008KT 2 1/2SM -RA BKN004 OVC029 21/20 A2980 RMK AO2 SFC VIS 10 SLP084 TWRINC P0013 T02060200=
200510070642 SPECI KATL 070642Z 07007KT 2 1/2SM -RA BKN004 OVC025 21/20 A2980 RMK AO2 SFC VIS 10 TWRINC P0013=
200510070642 SPECI KATL 070642Z 07007KT 2 1/2SM -RA BKN004 OVC025 21/20 A2980 RMK AO2 SFC VIS 10 TWRINC P0013=
200510070623 SPECI KATL 070623Z 07010KT 2 1/2SM RA FEW004 OVC018 21/20 A2980 RMK AO2 SFC VIS 7 P0011=
200510070623 SPECI KATL 070623Z 07010KT 2 1/2SM RA FEW004 OVC018 21/20 A2980 RMK AO2 SFC VIS 7 P0011=
200510070607 SPECI KATL 070607Z 07009KT 2 1/2SM RA BR FEW004 OVC012 21/21 A2981 RMK AO2 SFC VIS 6 P0006=
200510070607 SPECI KATL 070607Z 07009KT 2 1/2SM RA BR FEW004 OVC012 21/21 A2981 RMK AO2 SFC VIS 6 P0006=
200510070551 METAR KATL 070551Z 07009KT 2 1/2SM RA BR SCT002 BKN006 OVC011 21/21 A2981 RMK AO2 SFC VIS 3 SLP088 P0028 60033 T02110206 10217 20211 58006=
200510070534 SPECI KATL 070534Z 09007KT 2SM +RA BR OVC004 21/21 A2982 RMK AO2 TWR VIS 2 1/2 CIG 001V008 P0009=
200510070534 SPECI KATL 070534Z 09007KT 2SM +RA BR OVC004 21/21 A2982 RMK AO2 TWR VIS 2 1/2 CIG 001V008 P0009=
200510070527 SPECI KATL 070527Z 09006KT 1 1/2SM +RA BR BKN004 OVC010 21/21 A2981 RMK AO2 TWR VIS 2 1/2 CIG 003V008 P0002=
200510070527 SPECI KATL 070527Z 09006KT 1 1/2SM +RA BR BKN004 OVC010 21/21 A2981 RMK AO2 TWR VIS 2 1/2 CIG 003V008 P0002=
200510070451 METAR KATL 070451Z 06009KT 2 1/2SM -RA BKN006 OVC020 21/21 A2982 RMK AO2 SFC VIS 8 SLP090 CIG 003V010 P0001 T02110206 402220206=
200510070437 SPECI KATL 070437Z 07007KT 2 1/2SM -RA BKN006 OVC020 21/21 A2983 RMK AO2 SFC VIS 8 CIG 003V010 P0001=
200510070437 SPECI KATL 070437Z 07007KT 2 1/2SM -RA BKN006 OVC020 21/21 A2983 RMK AO2 SFC VIS 8 CIG 003V010 P0001=
200510070351 METAR KATL 070351Z 06009KT 2 1/2SM -RA BR BKN004 OVC010 21/21 A2983 RMK AO2 DZE19RAB19 SLP094 P0004 T02110206=
200510070251 METAR KATL 070251Z 07011KT 2 1/2SM -DZ BR OVC003 21/21 A2983 RMK AO2 SFC VIS 3 SLP095 P0000 60000 T02110206 50008=
200510070215 SPECI KATL 070215Z 08011KT 2 1/2SM -DZ BR OVC003 21/21 A2984 RMK AO2 SFC VIS 4 P0000=
200510070215 SPECI KATL 070215Z 08011KT 2 1/2SM -DZ BR OVC003 21/21 A2984 RMK AO2 SFC VIS 4 P0000=
200510070151 METAR KATL 070151Z 09010KT 3SM -DZ BR OVC004 22/21 A2983 RMK AO2 SFC VIS 5 SLP095 P0000 T02170206=
200510070051 METAR KATL 070051Z 08009KT 3SM -DZ BR OVC004 22/21 A2982 RMK AO2 SFC VIS 5 SLP092 P0000 T02170206=
200510062351 METAR KATL 062351Z 07010KT 3SM -DZ OVC004 22/21 A2981 RMK AO2 SFC VIS 7 SLP086 P0000 60000 T02170206 10222 20211 53001=
200510062251 METAR KATL 062251Z 07012KT 10SM -DZ OVC005 22/21 A2981 RMK AO2 SLP085 P0000 T02170206=
200510062151 METAR KATL 062151Z 07013KT 10SM -DZ OVC008 22/20 A2981 RMK AO2 SLP085 P0000 T02170200=
200510062051 METAR KATL 062051Z 08014KT 9SM -DZ OVC010 22/20 A2981 RMK AO2 RAE41DZB41 SLP085 P0000 60000 T02220200 56011=
200510061951 METAR KATL 061951Z 07014KT 8SM -RA OVC010 22/20 A2981 RMK AO2 DZE43RAB43 SLP088 P0000 T02170200=
200510061851 METAR KATL 061851Z 05014KT 4SM -DZ BR BKN006 OVC011 21/20 A2983 RMK AO2 CIG 005V009 SLP092 P0000 T02110200=
200510061822 SPECI KATL 061822Z 07013KT 6SM -DZ BR OVC008 22/20 A2983 RMK AO2 CIG 006V011 P0000=
200510061822 SPECI KATL 061822Z 07013KT 6SM -DZ BR OVC008 22/20 A2983 RMK AO2 CIG 006V011 P0000=
200510061751 METAR KATL 061751Z 06017KT 4SM -DZ BR BKN010 OVC014 22/20 A2984 RMK AO2 DZE02B41 CIG 006V012 SLP097 P0000 60005 T02170200 10217 20206 58004=
200510061551 METAR KATL 061551Z 06017G23KT 8SM -RA OVC010 21/19 A2985 RMK AO2 DZE37RAB37 SLP100 VIS SE 2SM S 2 1/2SM SW 2 1/2SM SHRA P0001 T02110194=
200510061541 SPECI KATL 061541Z 06017KT 2SM -RA BR BKN010 OVC014 21/19 A2985 RMK AO2 SFC VIS 4 DZE37RAB37 P0001=
200510061541 SPECI KATL 061541Z 06017KT 2SM -RA BR BKN010 OVC014 21/19 A2985 RMK AO2 SFC VIS 4 DZE37RAB37 P0001=
200510061534 SPECI KATL 061534Z 06016G24KT 2SM R09R/5500VP6000FT -DZ BR BKN008 OVC014 21/19 A2985 RMK AO2 SFC VIS 4 P0001=
200510061534 SPECI KATL 061534Z 06016G24KT 2SM R09R/5500VP6000FT -DZ BR BKN008 OVC014 21/19 A2985 RMK AO2 SFC VIS 4 P0001=
200510061451 METAR KATL 061451Z 06016G25KT 2SM -DZ BR FEW009 BKN012 OVC020 21/19 A2985 RMK AO2 SFC VIS 4 RAE1355DZB44 SLP100 P0000 60004 T02110194 51004=
200510061436 SPECI KATL 061436Z 06016G22KT 10SM OVC012 21/19 A2985 RMK AO2 RAE1355 P0000=
200510061436 SPECI KATL 061436Z 06016G22KT 10SM OVC012 21/19 A2985 RMK AO2 RAE1355 P0000=
200510061410 SPECI KATL 061410Z 06016KT 10SM SCT010 BKN018 OVC025 21/19 A2985 RMK AO2 RAE1355 P0000=
200510061410 SPECI KATL 061410Z 06016KT 10SM SCT010 BKN018 OVC025 21/19 A2985 RMK AO2 RAE1355 P0000=
200510061351 METAR KATL 061351Z 04017KT 4SM -RA BR SCT010 BKN015 OVC025 21/19 A2985 RMK AO2 RAB27 SLP100 P0000 T02110194=
200510061304 SPECI KATL 061304Z 05017G22KT 10SM BKN015 BKN025 OVC040 21/19 A2984 RMK AO2=
200510061304 SPECI KATL 061304Z 05017G22KT 10SM BKN015 BKN025 OVC040 21/19 A2984 RMK AO2=
200510061251 METAR KATL 061251Z 05019G24KT 10SM OVC012 21/19 A2984 RMK AO2 PK WND 05029/1213 RAE10 SLP097 P0004 T02110194=
200510061230 SPECI KATL 061230Z 05018G27KT 10SM BKN012 OVC038 21/19 A2984 RMK AO2 PK WND 05029/1213 RAE10 P0004=
200510061230 SPECI KATL 061230Z 05018G27KT 10SM BKN012 OVC038 21/19 A2984 RMK AO2 PK WND 05029/1213 RAE10 P0004=
200510061206 SPECI KATL 061206Z 05020G28KT 8SM -RA BKN008 BKN018 OVC035 21/19 A2983 RMK AO2 PK WND 07028/1159 P0004=
200510061206 SPECI KATL 061206Z 05020G28KT 8SM -RA BKN008 BKN018 OVC035 21/19 A2983 RMK AO2 PK WND 07028/1159 P0004=
200510061151 METAR KATL 061151Z 05018G27KT 1/2SM R09R/4000VP6000FT +RA BR BKN008 OVC014 21/19 A2984 RMK AO2 PK WND 07027/1144 SFC VIS 1 SLP096 P0021 60034 70034 T02060194 10217 20206 56007=
200510061143 SPECI KATL 061143Z 06018G23KT 1SM R09R/P6000FT +RA BR BKN008 OVC014 21/19 A2985 RMK AO2 TWR VIS 1 1/2 P0010=
200510061143 SPECI KATL 061143Z 06018G23KT 1SM R09R/P6000FT +RA BR BKN008 OVC014 21/19 A2985 RMK AO2 TWR VIS 1 1/2 P0010=
200510061139 SPECI KATL 061139Z 05017G21KT 1 1/2SM RA BR BKN011 OVC014 21/19 A2984 RMK AO2 SFC VIS 2 1/2 CIG 007V013 P0008=
200510061139 SPECI KATL 061139Z 05017G21KT 1 1/2SM RA BR BKN011 OVC014 21/19 A2984 RMK AO2 SFC VIS 2 1/2 CIG 007V013 P0008=
200510061109 SPECI KATL 061109Z 04016KT 9SM -RA FEW006 BKN014 OVC028 21/19 A2984 RMK AO2 P0002=
200510061109 SPECI KATL 061109Z 04016KT 9SM -RA FEW006 BKN014 OVC028 21/19 A2984 RMK AO2 P0002=
200510061051 METAR KATL 061051Z 04017KT 9SM -RA SCT010 OVC028 21/19 A2984 RMK AO2 SLP097 P0005 T02110194=
200510061012 SPECI KATL 061012Z 04018G24KT 10SM -RA SCT008 OVC014 21/19 A2984 RMK AO2 P0001=
200510061012 SPECI KATL 061012Z 04018G24KT 10SM -RA SCT008 OVC014 21/19 A2984 RMK AO2 P0001=
200510060951 METAR KATL 060951Z 04016G25KT 7SM -RA BKN008 OVC016 21/19 A2984 RMK AO2 PK WND 04027/0923 SLP097 P0000 T02060194=
200510060851 METAR KATL 060851Z 03017KT 6SM -RA BR BKN008 OVC022 21/19 A2986 RMK AO2 DZB24E34 SLP104 P0001 60008 T02060194 56030=
200510060751 METAR KATL 060751Z 03017KT 6SM -RA BR BKN008 OVC023 21/19 A2988 RMK AO2 SLP110 P0007 T02060194=
200510060740 SPECI KATL 060740Z 03018KT 6SM -RA BR BKN008 BKN015 OVC034 21/19 A2988 RMK AO2 P0006=
200510060740 SPECI KATL 060740Z 03018KT 6SM -RA BR BKN008 BKN015 OVC034 21/19 A2988 RMK AO2 P0006=
200510060721 SPECI KATL 060721Z 03018KT 7SM RA SCT008 BKN015 OVC049 21/19 A2990 RMK AO2 P0003=
200510060721 SPECI KATL 060721Z 03018KT 7SM RA SCT008 BKN015 OVC049 21/19 A2990 RMK AO2 P0003=
200510060651 METAR KATL 060651Z 04016KT 7SM -RA FEW014 BKN028 OVC085 21/19 A2993 RMK AO2 SLP124 P0000 T02110189=
200510060636 SPECI KATL 060636Z 04016KT 10SM -RA BKN034 OVC070 21/19 A2993 RMK AO2 P0000=
200510060636 SPECI KATL 060636Z 04016KT 10SM -RA BKN034 OVC070 21/19 A2993 RMK AO2 P0000=
200510060551 METAR KATL 060551Z 06018KT 10SM -RA BKN022 OVC048 22/18 A2996 RMK AO2 PK WND 06029/0530 RAB0452E15B36 SLP134 P0000 60000 T02170183 10239 20217 56017=
200510060451 METAR KATL 060451Z 06019G25KT 9SM BKN024 BKN100 OVC150 23/18 A2997 RMK AO2 SLP139 T02280178 402720194=
200510060436 SPECI KATL 060436Z 06020G24KT 10SM BKN026 BKN100 OVC150 23/18 A2997 RMK AO2=
200510060436 SPECI KATL 060436Z 06020G24KT 10SM BKN026 BKN100 OVC150 23/18 A2997 RMK AO2=
200510060351 METAR KATL 060351Z 06015KT 10SM FEW025 BKN150 OVC200 23/18 A2998 RMK AO2 SLP143 T02280178=
200510060251 METAR KATL 060251Z 05018KT 10SM FEW030 SCT150 OVC200 23/18 A3001 RMK AO2 SLP152 T02330178 58005=
200510060151 METAR KATL 060151Z 06015KT 10SM BKN050 BKN150 OVC200 24/17 A3001 RMK AO2 SLP154 T02390172=
200510060051 METAR KATL 060051Z 05013KT 10SM FEW110 BKN150 OVC200 24/17 A3002 RMK AO2 SLP158 T02390172=
200510052351 METAR KATL 052351Z 05016KT 10SM FEW032 BKN120 BKN150 OVC200 24/17 A3002 RMK AO2 SLP159 T02390172 10272 20239 58003=
200510052251 METAR KATL 052251Z 04016KT 10SM FEW032 BKN038 BKN045 OVC150 24/17 A3004 RMK AO2 SLP163 T02440172=
200510052151 METAR KATL 052151Z 04014KT 10SM FEW035 BKN150 OVC200 24/17 A3004 RMK AO2 SLP164 T02440172=
200510052051 METAR KATL 052051Z 06013KT 10SM BKN040 BKN120 OVC150 25/17 A3003 RMK AO2 SLP162 T02500172 57013=
200510051951 METAR KATL 051951Z 06016KT 10SM FEW040 SCT120 BKN150 OVC250 26/17 A3005 RMK AO2 SLP166 T02610172=
200510051851 METAR KATL 051851Z 06015KT 10SM FEW040 SCT150 BKN250 27/17 A3006 RMK AO2 SLP170 T02670167=
200510051751 METAR KATL 051751Z 08016KT 10SM FEW040 BKN250 27/17 A3007 RMK AO2 SLP175 T02720167 10272 20194 58017=
200510051651 METAR KATL 051651Z 09016G23KT 9SM FEW040 SCT150 BKN250 27/17 A3011 RMK AO2 SLP186 T02670167=
200510051551 METAR KATL 051551Z 07022G25KT 10SM FEW030 SCT150 SCT250 26/17 A3012 RMK AO2 SLP191 T02560167=
200510051451 METAR KATL 051451Z 06016G21KT 10SM FEW020 SCT150 SCT250 24/17 A3012 RMK AO2 SLP192 T02390172 55000=
200510051351 METAR KATL 051351Z 05012KT 10SM FEW012 SCT150 BKN250 21/17 A3012 RMK AO2 SLP192 T02110172=
200510051251 METAR KATL 051251Z 04013KT 8SM FEW012 SCT200 BKN250 20/17 A3012 RMK AO2 SLP192 T02000167=
200510051151 METAR KATL 051151Z 05012KT 10SM BKN012 BKN040 BKN250 19/17 A3012 RMK AO2 SLP193 T01940167 10211 20194 50001=
200510051136 SPECI KATL 051136Z 05017G22KT 10SM BKN012 BKN040 BKN250 19/17 A3013 RMK AO2=
200510051136 SPECI KATL 051136Z 05017G22KT 10SM BKN012 BKN040 BKN250 19/17 A3013 RMK AO2=
200510051111 SPECI KATL 051111Z 06014G21KT 10SM SCT020 SCT040 SCT250 19/16 A3013 RMK AO2=
200510051111 SPECI KATL 051111Z 06014G21KT 10SM SCT020 SCT040 SCT250 19/16 A3013 RMK AO2=
200510051051 METAR KATL 051051Z 06013KT 10SM BKN023 BKN040 BKN250 20/16 A3013 RMK AO2 SLP195 T02000161=
200510051029 SPECI KATL 051029Z 06013KT 10SM BKN023 BKN040 BKN250 20/16 A3013 RMK AO2=
200510051029 SPECI KATL 051029Z 06013KT 10SM BKN023 BKN040 BKN250 20/16 A3013 RMK AO2=
200510050951 METAR KATL 050951Z 06013KT 10SM FEW034 SCT250 19/16 A3012 RMK AO2 SLP192 T01940156=
200510050851 METAR KATL 050851Z 06012KT 10SM FEW034 20/16 A3012 RMK AO2 SLP191 T02000156 55007=
200510050751 METAR KATL 050751Z 07013KT 10SM CLR 20/16 A3011 RMK AO2 SLP189 T02000156=
200510050651 METAR KATL 050651Z 07011KT 10SM CLR 21/15 A3013 RMK AO2 SLP192 T02060150=
200510050551 METAR KATL 050551Z 08013KT 10SM CLR 21/15 A3014 RMK AO2 SLP198 T02110150 10256 20211 56005=
200510050451 METAR KATL 050451Z 08014KT 10SM CLR 22/15 A3014 RMK AO2 SLP198 T02170150 402940206=
200510050351 METAR KATL 050351Z 07013KT 10SM CLR 22/15 A3015 RMK AO2 SLP201 T02220150=
200510050251 METAR KATL 050251Z 06013KT 10SM FEW200 23/16 A3016 RMK AO2 SLP204 T02280156 50005=
200510050151 METAR KATL 050151Z 05011KT 10SM FEW040 24/16 A3016 RMK AO2 SLP205 T02390156=
200510050051 METAR KATL 050051Z 05012KT 10SM FEW200 24/16 A3015 RMK AO2 SLP202 T02440161=
200510042351 METAR KATL 042351Z 05011KT 10SM FEW200 26/16 A3014 RMK AO2 SLP198 T02560161 10294 20256 53004=
200510042251 METAR KATL 042251Z 07012KT 10SM FEW055 27/15 A3013 RMK AO2 SLP195 T02670150=
200510042151 METAR KATL 042151Z 06012KT 10SM FEW050 28/16 A3012 RMK AO2 SLP189 T02830156=
200510042051 METAR KATL 042051Z 07012KT 10SM FEW050 SCT240 29/16 A3013 RMK AO2 SLP192 T02890156 56021=
200510041951 METAR KATL 041951Z 06014KT 10SM FEW050 SCT240 28/16 A3015 RMK AO2 SLP199 T02830156=
200510041851 METAR KATL 041851Z 08012KT 10SM SCT046 29/16 A3017 RMK AO2 SLP205 T02890161=
200510041751 METAR KATL 041751Z 07010G20KT 10SM FEW040 27/16 A3019 RMK AO2 SLP214 T02720161 10278 20206 58024=
200510041651 METAR KATL 041651Z 08017G21KT 10SM FEW040 SCT060 SCT240 28/17 A3022 RMK AO2 SLP224 T02780167=
200510041551 METAR KATL 041551Z 09010KT 10SM FEW030 SCT060 SCT240 26/17 A3024 RMK AO2 SLP232 T02560172=
200510041451 METAR KATL 041451Z 07012KT 10SM FEW020 BKN060 22/17 A3026 RMK AO2 SLP240 T02220167 50008=
200510041351 METAR KATL 041351Z 07013KT 10SM FEW020 BKN050 22/17 A3027 RMK AO2 SLP243 T02170167=
200510041251 METAR KATL 041251Z 06015KT 10SM SCT040 BKN065 BKN250 21/17 A3026 RMK AO2 SLP239 T02060167=
200510041151 METAR KATL 041151Z 07012KT 10SM SCT040 BKN060 BKN250 21/17 A3024 RMK AO2 SLP232 T02060167 10211 20206 53008=
200510041051 METAR KATL 041051Z 07013KT 10SM BKN040 BKN049 OVC060 21/17 A3023 RMK AO2 SLP226 T02060167=
200510040951 METAR KATL 040951Z 07013KT 10SM SCT035 BKN045 BKN250 21/17 A3022 RMK AO2 SLP225 T02110167=
200510040851 METAR KATL 040851Z 07013KT 10SM OVC049 21/16 A3021 RMK AO2 SLP221 T02110156 55001=
200510040751 METAR KATL 040751Z 06013KT 10SM FEW030 OVC049 21/15 A3021 RMK AO2 SLP221 T02110150=
200510040651 METAR KATL 040651Z 07010KT 10SM SCT044 SCT250 21/14 A3022 RMK AO2 SLP223 T02060139=
200510040551 METAR KATL 040551Z 06008KT 10SM FEW250 21/13 A3022 RMK AO2 SLP224 T02110128 10239 20211 58007=
200510040451 METAR KATL 040451Z 06010KT 10SM FEW200 22/12 A3023 RMK AO2 SLP227 T02170117 402830194=
200510040351 METAR KATL 040351Z 06010KT 10SM FEW200 22/12 A3024 RMK AO2 SLP231 T02170117=
200510040251 METAR KATL 040251Z 05011KT 10SM FEW200 23/12 A3024 RMK AO2 SLP231 T02280122 51013=
200510040151 METAR KATL 040151Z 06009KT 10SM FEW200 23/12 A3023 RMK AO2 SLP229 T02330122=
200510040051 METAR KATL 040051Z 08007KT 10SM FEW200 23/12 A3022 RMK AO2 SLP226 T02280122=
200510032351 METAR KATL 032351Z 08009KT 10SM CLR 24/12 A3020 RMK AO2 SLP219 T02390117 10283 20239 50003=
200510032251 METAR KATL 032251Z 09009KT 10SM CLR 26/11 A3020 RMK AO2 SLP218 T02610106=
200510032151 METAR KATL 032151Z 08012KT 10SM CLR 28/11 A3019 RMK AO2 SLP215 T02780106=
200510032051 METAR KATL 032051Z 05016G20KT 10SM FEW210 28/11 A3019 RMK AO2 SLP214 T02830111 56019=
200510031951 METAR KATL 031951Z 07011G20KT 10SM FEW060 28/13 A3020 RMK AO2 SLP218 T02780133=
200510031851 METAR KATL 031851Z 07013KT 10SM FEW045 28/15 A3022 RMK AO2 SLP225 T02780150=
200510031751 METAR KATL 031751Z 05011KT 10SM SCT041 26/15 A3025 RMK AO2 SLP234 T02610150 10272 20200 58023=
200510031651 METAR KATL 031651Z 05012KT 10SM SCT038 26/15 A3028 RMK AO2 SLP247 T02610150=
200510031551 METAR KATL 031551Z 07011KT 10SM FEW036 26/15 A3030 RMK AO2 SLP253 T02560150=
200510031451 METAR KATL 031451Z 08014KT 10SM FEW036 24/16 A3032 RMK AO2 SLP257 T02440156 51011=
200510031251 METAR KATL 031251Z 08011KT 7SM CLR 21/17 A3030 RMK AO2 SLP252 T02060172=
200510031151 METAR KATL 031151Z 07010KT 7SM FEW120 SCT150 20/17 A3028 RMK AO2 SLP247 T02000172 10217 20194 53012=
200510031117 SPECI KATL 031117Z 08009KT 8SM FEW016 20/17 A3027 RMK AO2=
200510031117 SPECI KATL 031117Z 08009KT 8SM FEW016 20/17 A3027 RMK AO2=
200510031051 METAR KATL 031051Z 07009KT 9SM BKN016 21/17 A3026 RMK AO2 SLP240 T02060172=
200510031035 SPECI KATL 031035Z 07008KT 9SM BKN018 20/17 A3027 RMK AO2=
200510031035 SPECI KATL 031035Z 07008KT 9SM BKN018 20/17 A3027 RMK AO2=
200510030951 METAR KATL 030951Z 06009KT 10SM SCT120 20/17 A3026 RMK AO2 SLP237 T02000167=
200510030851 METAR KATL 030851Z 08006KT 10SM CLR 20/17 A3025 RMK AO2 SLP233 T02000167 56001=
200510030751 METAR KATL 030751Z 07009KT 10SM FEW060 21/17 A3025 RMK AO2 SLP232 T02060167=
200510030700 SPECI KATL 030700Z 09008KT 10SM SCT021 21/17 A3024 RMK AO2=
200510030700 SPECI KATL 030700Z 09008KT 10SM SCT021 21/17 A3024 RMK AO2=
200510030651 METAR KATL 030651Z 08008KT 10SM BKN021 21/17 A3025 RMK AO2 SLP233 T02110172=
200510030637 SPECI KATL 030637Z 08008KT 10SM BKN021 21/17 A3025 RMK AO2=
200510030637 SPECI KATL 030637Z 08008KT 10SM BKN021 21/17 A3025 RMK AO2=
200510030551 METAR KATL 030551Z 08010KT 10SM SCT033 22/17 A3025 RMK AO2 SLP234 T02170172 10250 20211 58007=
200510030451 METAR KATL 030451Z 07009KT 10SM FEW043 22/18 A3026 RMK AO2 SLP236 T02170178 402940194=
200510030351 METAR KATL 030351Z 06013KT 10SM BKN043 23/18 A3027 RMK AO2 SLP240 T02280183=
200510030251 METAR KATL 030251Z 06013KT 10SM FEW040 23/18 A3027 RMK AO2 SLP242 T02280183 51010=
200510030151 METAR KATL 030151Z 06012KT 10SM FEW070 SCT250 23/18 A3027 RMK AO2 SLP240 T02330183=
200510030051 METAR KATL 030051Z 08010KT 10SM FEW070 BKN250 24/18 A3025 RMK AO2 SLP237 T02390183=
200510022351 METAR KATL 022351Z 07009KT 10SM FEW065 BKN250 25/19 A3024 RMK AO2 SLP232 T02500189 10294 20250 50003=
200510022251 METAR KATL 022251Z 09014KT 10SM FEW038 SCT047 BKN065 BKN250 26/18 A3024 RMK AO2 SLP233 T02610183=
200510022151 METAR KATL 022151Z 09012G18KT 10SM FEW037 SCT065 BKN250 27/18 A3023 RMK AO2 SLP229 T02670183=
200510022051 METAR KATL 022051Z 08012KT 10SM FEW039 BKN065 27/19 A3023 RMK AO2 SLP228 T02720189 56013=
200510021951 METAR KATL 021951Z 11011KT 10SM FEW035 SCT070 BKN270 29/19 A3024 RMK AO2 SLP230 TCU DSNT N AND DSNT SE T02890189=
200510021851 METAR KATL 021851Z 07012KT 10SM FEW036 BKN065 28/19 A3025 RMK AO2 SLP233 TCU DSNT S T02830189=
200510021751 METAR KATL 021751Z 07011KT 10SM SCT030 SCT040 BKN050 BKN300 27/19 A3027 RMK AO2 SLP241 TCU DSNT NE AND SE MDT CU ALQDS T02720194 10283 20200 58008=
200510021725 SPECI KATL 021725Z 08015KT 10SM BKN030 BKN041 27/19 A3028 RMK AO2=
200510021725 SPECI KATL 021725Z 08015KT 10SM BKN030 BKN041 27/19 A3028 RMK AO2=
200510021651 METAR KATL 021651Z 10011KT 10SM BKN026 28/19 A3028 RMK AO2 SLP246 T02830194=
200510021643 SPECI KATL 021643Z 09012G18KT 10SM SCT026 BKN031 27/19 A3029 RMK AO2=
200510021643 SPECI KATL 021643Z 09012G18KT 10SM SCT026 BKN031 27/19 A3029 RMK AO2=
200510021632 SPECI KATL 021632Z 08015KT 10SM SCT024 BKN029 27/19 A3029 RMK AO2=
200510021632 SPECI KATL 021632Z 08015KT 10SM SCT024 BKN029 27/19 A3029 RMK AO2=
200510021625 SPECI KATL 021625Z 10012G17KT 10SM SCT026 BKN040 27/19 A3029 RMK AO2=
200510021625 SPECI KATL 021625Z 10012G17KT 10SM SCT026 BKN040 27/19 A3029 RMK AO2=
200510021613 SPECI KATL 021613Z 10015G21KT 10SM SCT023 BKN028 BKN040 26/19 A3029 RMK AO2=
200510021613 SPECI KATL 021613Z 10015G21KT 10SM SCT023 BKN028 BKN040 26/19 A3029 RMK AO2=
200510021551 METAR KATL 021551Z 10012KT 10SM SCT025 SCT035 BKN042 26/19 A3030 RMK AO2 SLP251 T02610194=
200510021451 METAR KATL 021451Z 10011G17KT 9SM BKN019 BKN300 24/19 A3029 RMK AO2 SLP250 T02440189 51010=
200510021416 SPECI KATL 021416Z 10008KT 9SM BKN015 BKN024 BKN300 23/18 A3029 RMK AO2=
200510021416 SPECI KATL 021416Z 10008KT 9SM BKN015 BKN024 BKN300 23/18 A3029 RMK AO2=
200510021351 METAR KATL 021351Z 09009KT 9SM SCT012 SCT100 BKN300 23/18 A3029 RMK AO2 SLP249 T02280183=
200510021251 METAR KATL 021251Z 08009KT 8SM OVC012 21/18 A3028 RMK AO2 SLP246 BKINOVC OHD AND NW T02060183=
200510021151 METAR KATL 021151Z 08007KT 7SM BKN012 OVC019 20/18 A3026 RMK AO2 SLP240 T02000183 10217 20194 53010=
200510021116 SPECI KATL 021116Z 09008KT 8SM BKN016 20/18 A3025 RMK AO2=
200510021116 SPECI KATL 021116Z 09008KT 8SM BKN016 20/18 A3025 RMK AO2=
200510021051 METAR KATL 021051Z 08007KT 8SM BKN150 19/18 A3025 RMK AO2 SLP236 T01940178=
200510020951 METAR KATL 020951Z 07009KT 8SM CLR 19/18 A3024 RMK AO2 SLP230 T01940178=
200510020851 METAR KATL 020851Z 09010KT 10SM CLR 21/18 A3023 RMK AO2 SLP228 T02110183 56003=
200510020751 METAR KATL 020751Z 07008KT 8SM CLR 20/17 A3023 RMK AO2 SLP228 T02000172=
200510020651 METAR KATL 020651Z 07010KT 9SM CLR 20/17 A3024 RMK AO2 SLP230 T02000172=
200510020551 METAR KATL 020551Z 08009KT 9SM CLR 21/17 A3024 RMK AO2 SLP233 T02060172 10244 20206 50001=
200510020451 METAR KATL 020451Z 08008KT 10SM CLR 21/17 A3025 RMK AO2 SLP235 T02060172 402830178=
200510020351 METAR KATL 020351Z 08007KT 10SM CLR 21/18 A3025 RMK AO2 SLP237 T02110178=
200510020251 METAR KATL 020251Z 08006KT 10SM CLR 22/18 A3024 RMK AO2 SLP233 T02170178 51009=
200510020151 METAR KATL 020151Z 09007KT 10SM CLR 23/18 A3023 RMK AO2 SLP231 T02330178=
200510020051 METAR KATL 020051Z 08006KT 9SM FEW040 23/18 A3022 RMK AO2 SLP227 T02330178=
200510012351 METAR KATL 012351Z 09007KT 8SM FEW040 24/18 A3021 RMK AO2 SLP223 T02440178 10283 20244 53006=
200510012251 METAR KATL 012251Z 09008KT 9SM FEW040 26/17 A3020 RMK AO2 SLP217 T02610172=
200510012151 METAR KATL 012151Z COR 10008KT 10SM FEW040 27/17 A3019 RMK AO2 SLP214 T02720172=
200510012051 METAR KATL 012051Z 08007KT 10SM FEW036 27/18 A3019 RMK AO2 SLP216 T02720178 56015=
200510011951 METAR KATL 011951Z 08010KT 8SM SCT028 27/18 A3020 RMK AO2 SLP219 T02670178=
200510011851 METAR KATL 011851Z 13007KT 8SM SCT028 27/18 A3022 RMK AO2 SLP225 MDT CU ALQDS T02670183=
200510011751 METAR KATL 011751Z 09007KT 8SM SCT018 SCT033 25/18 A3024 RMK AO2 SLP233 T02500178 10250 20183 58009=
200510011740 SPECI KATL 011740Z 10007KT 7SM SCT018 BKN033 24/18 A3024 RMK AO2=
200510011740 SPECI KATL 011740Z 10007KT 7SM SCT018 BKN033 24/18 A3024 RMK AO2=
200510011709 SPECI KATL 011709Z 09007KT 7SM OVC016 23/17 A3025 RMK AO2=
200510011709 SPECI KATL 011709Z 09007KT 7SM OVC016 23/17 A3025 RMK AO2=
200510011651 METAR KATL 011651Z 09008KT 7SM BKN014 22/17 A3025 RMK AO2 SLP239 T02220172=
200510011551 METAR KATL 011551Z 08009KT 6SM HZ OVC010 21/17 A3027 RMK AO2 SLP243 T02110172=
200510011451 METAR KATL 011451Z 09009KT 6SM HZ OVC010 20/16 A3026 RMK AO2 SLP243 T02000161 51018=
200510011351 METAR KATL 011351Z 07010KT 7SM OVC012 19/15 A3025 RMK AO2 SLP238 T01940150=
200510011251 METAR KATL 011251Z 09011KT 10SM OVC012 19/14 A3023 RMK AO2 SLP230 T01890139=
Fallo de consulta: el error es SELECT command denied to user 'users'@'localhost' for table 'tafs_2005'
