##########################################################
# Query made at 04/19/2024 22:51:12 UTC
# Time interval: from 06/01/2005 12:00  to 06/30/2005 12:59  UTC
##########################################################

##########################################################
# KATL, Atlanta, Hartsfield - Jackson Atlanta International Airport (United States)
# WMO index: 72219. WIGOS ID: 0-20000-0-72219
# Latitude 33-38-59N. Longitude 084-25-00W. Altitude 312 m.
##########################################################

200506301251 METAR KATL 301251Z 26005KT 6SM BR FEW004 24/22 A3003 RMK AO2 SLP158 T02390217=
200506301206 SPECI KATL 301206Z 00000KT 6SM BR SCT001 22/22 A3002 RMK AO2=
200506301206 SPECI KATL 301206Z 00000KT 6SM BR SCT001 22/22 A3002 RMK AO2=
200506301151 METAR KATL 301151Z 26003KT 1 1/4SM BR BKN001 22/22 A3002 RMK AO2 SFC VIS 2 SLP158 70042 T02220217 10228 20217 53001=
200506301136 SPECI KATL 301136Z 28004KT 1 1/4SM R09R/5500VP6000FT BR BKN001 22/22 A3002 RMK AO2=
200506301136 SPECI KATL 301136Z 28004KT 1 1/4SM R09R/5500VP6000FT BR BKN001 22/22 A3002 RMK AO2=
200506301051 METAR KATL 301051Z 28005KT 1/2SM R09R/4500VP6000FT BR BKN001 22/22 A3002 RMK AO2 SFC VIS 3/4 SLP157 T02170217=
200506301042 SPECI KATL 301042Z 27004KT 3/4SM R09R/3500VP6000FT BR BKN001 22/22 A3002 RMK AO2 TWR VIS 1=
200506301042 SPECI KATL 301042Z 27004KT 3/4SM R09R/3500VP6000FT BR BKN001 22/22 A3002 RMK AO2 TWR VIS 1=
200506301034 SPECI KATL 301034Z 28005KT 1SM R09R/3500VP6000FT BR BKN003 BKN150 22/22 A3002 RMK AO2 SFC VIS 2 1/2=
200506301034 SPECI KATL 301034Z 28005KT 1SM R09R/3500VP6000FT BR BKN003 BKN150 22/22 A3002 RMK AO2 SFC VIS 2 1/2=
200506300951 METAR KATL 300951Z 00000KT 2SM BR BKN003 BKN150 22/21 A3002 RMK AO2 SFC VIS 3 SLP156 T02170211=
200506300941 SPECI KATL 300941Z 23003KT 2SM BR OVC003 22/21 A3002 RMK AO2 SFC VIS 5=
200506300941 SPECI KATL 300941Z 23003KT 2SM BR OVC003 22/21 A3002 RMK AO2 SFC VIS 5=
200506300851 METAR KATL 300851Z 00000KT 9SM BKN003 BKN030 BKN150 22/21 A3002 RMK AO2 SLP156 T02170211 55005=
200506300831 SPECI KATL 300831Z 00000KT 10SM SCT003 BKN030 BKN150 22/21 A3002 RMK AO2=
200506300831 SPECI KATL 300831Z 00000KT 10SM SCT003 BKN030 BKN150 22/21 A3002 RMK AO2=
200506300751 METAR KATL 300751Z 22003KT 10SM FEW010 SCT150 22/21 A3002 RMK AO2 SLP154 T02170211=
200506300651 METAR KATL 300651Z 00000KT 10SM FEW150 23/21 A3003 RMK AO2 SLP157 T02280211=
200506300551 METAR KATL 300551Z 00000KT 10SM FEW150 23/21 A3004 RMK AO2 SLP161 T02280211 10267 20228 58005=
200506300451 METAR KATL 300451Z 00000KT 10SM FEW250 23/21 A3004 RMK AO2 SLP164 T02330211 402940228=
200506300351 METAR KATL 300351Z 00000KT 10SM FEW050 BKN200 24/22 A3005 RMK AO2 SLP166 T02390217=
200506300251 METAR KATL 300251Z 21003KT 10SM FEW060 SCT200 24/22 A3005 RMK AO2 SLP167 T02440217 51015=
200506300151 METAR KATL 300151Z 00000KT 10SM BKN050 25/22 A3004 RMK AO2 SLP163 T02500217=
200506300051 METAR KATL 300051Z 16004KT 10SM FEW050 SCT200 26/21 A3003 RMK AO2 SLP158 CB DSNT NE AND NW T02560211=
200506292351 METAR KATL 292351Z 17005KT 10SM FEW030 SCT080 27/22 A3001 RMK AO2 RAE2257 SLP152 TCU DSNT NW P0000 60042 T02670217 10294 20250 51002=
200506292251 METAR KATL 292251Z 16005KT 9SM -RA FEW028CB SCT055 BKN080 27/22 A3001 RMK AO2 SLP151 CB VC NW AND DSNT NE MOV NW P0035 T02670222=
200506292151 METAR KATL 292151Z COR 16005KT 4SM R09R/3500VP6000FT RA HZ SCT028CB BKN045 BKN070 27/22 A3001 RMK AO2 RAB42 SLP152 CB S-OHD-NW MOV NW TCU ALQDS P0007 T02670217=
200506292051 METAR KATL 292051Z 18007KT 9SM SCT035TCU BKN050 29/21 A3000 RMK AO2 SLP149 TCU N-OHD-S AND DSNT SW T02890211 56015=
200506291951 METAR KATL 291951Z 00000KT 10SM BKN040TCU BKN060 BKN250 29/20 A3002 RMK AO2 SLP153 CB DSNT SE-S TCU DSNT NE-SE AND VC SW-N T02890200=
200506291851 METAR KATL 291851Z 09005KT 10SM BKN037TCU BKN060 BKN250 28/20 A3003 RMK AO2 SLP159 TCU SE-N T02830200=
200506291751 METAR KATL 291751Z 00000KT 10SM BKN035TCU BKN050 BKN100 BKN250 28/20 A3005 RMK AO2 SLP164 TCU SE-NW T02830200 10289 20228 58015=
200506291651 METAR KATL 291651Z 00000KT 10SM SCT030TCU BKN070 BKN250 28/20 A3008 RMK AO2 SLP174 TCU NE-SW T02780200=
200506291551 METAR KATL 291551Z 32004KT 10SM FEW025 SCT075 BKN085 27/21 A3009 RMK AO2 SLP180 MDT CU NE-E-SE T02670206=
200506291451 METAR KATL 291451Z 32005KT 10SM FEW025TCU BKN070 BKN120 BKN250 25/20 A3009 RMK AO2 SLP182 TCU NE-E-SE T02500200 51004=
200506291351 METAR KATL 291351Z 34006KT 9SM FEW015TCU BKN070 BKN120 OVC250 24/20 A3009 RMK AO2 SLP181 TCU NE BINOVC NW T02440200=
200506291251 METAR KATL 291251Z 32004KT 6SM HZ SCT012 SCT029 BKN070 BKN150 OVC210 24/21 A3010 RMK AO2 SLP182 T02390211=
200506291153 SPECI KATL 291153Z 00000KT 7SM FEW018 BKN049 OVC070 23/21 A3008 RMK AO2=
200506291153 SPECI KATL 291153Z 00000KT 7SM FEW018 BKN049 OVC070 23/21 A3008 RMK AO2=
200506291151 METAR KATL 291151Z 00000KT 7SM SCT019 BKN027 BKN070 OVC150 23/21 A3008 RMK AO2 SLP177 T02330211 10233 20228 50007=
200506291125 SPECI KATL 291125Z 34004KT 6SM BR FEW008 OVC015 23/22 A3008 RMK AO2=
200506291125 SPECI KATL 291125Z 34004KT 6SM BR FEW008 OVC015 23/22 A3008 RMK AO2=
200506291117 SPECI KATL 291117Z 35004KT 8SM FEW012 BKN017 23/22 A3008 RMK AO2 $=
200506291117 SPECI KATL 291117Z 35004KT 8SM FEW012 BKN017 23/22 A3008 RMK AO2 $=
200506291051 METAR KATL 291051Z 00000KT 10SM SCT010 BKN014 OVC080 23/21 A3008 RMK AO2 SLP178 T02330211 $=
200506291007 SPECI KATL 291007Z 00000KT 10SM BKN014 OVC150 23/21 A3008 RMK AO2 $=
200506291007 SPECI KATL 291007Z 00000KT 10SM BKN014 OVC150 23/21 A3008 RMK AO2 $=
200506290951 METAR KATL 290951Z 00000KT 10SM FEW014 SCT019 BKN037 OVC150 23/21 A3007 RMK AO2 SLP173 T02280211 $=
200506290939 SPECI KATL 290939Z 00000KT 10SM FEW008 SCT012 BKN018 OVC150 23/21 A3007 RMK AO2 $=
200506290939 SPECI KATL 290939Z 00000KT 10SM FEW008 SCT012 BKN018 OVC150 23/21 A3007 RMK AO2 $=
200506290907 SPECI KATL 290907Z 00000KT 10SM BKN012 OVC150 23/22 A3006 RMK AO2 $=
200506290907 SPECI KATL 290907Z 00000KT 10SM BKN012 OVC150 23/22 A3006 RMK AO2 $=
200506290851 METAR KATL 290851Z 00000KT 9SM SCT009 OVC150 23/22 A3006 RMK AO2 SLP169 T02280217 55010 $=
200506290839 SPECI KATL 290839Z 00000KT 10SM SCT009 OVC150 23/22 A3006 RMK AO2 $=
200506290839 SPECI KATL 290839Z 00000KT 10SM SCT009 OVC150 23/22 A3006 RMK AO2 $=
200506290800 SPECI KATL 290800Z 00000KT 9SM BKN009 OVC150 23/22 A3005 RMK AO2 $=
200506290800 SPECI KATL 290800Z 00000KT 9SM BKN009 OVC150 23/22 A3005 RMK AO2 $=
200506290751 METAR KATL 290751Z 00000KT 9SM SCT011 BKN014 OVC150 23/22 A3005 RMK AO2 SLP167 T02280217 $=
200506290712 SPECI KATL 290712Z 00000KT 9SM BKN013 BKN021 OVC150 23/22 A3007 RMK AO2 $=
200506290712 SPECI KATL 290712Z 00000KT 9SM BKN013 BKN021 OVC150 23/22 A3007 RMK AO2 $=
200506290651 METAR KATL 290651Z 00000KT 9SM FEW013 SCT030 OVC150 23/22 A3007 RMK AO2 SLP174 T02280217 $=
200506290634 SPECI KATL 290634Z 00000KT 10SM SCT013 OVC150 23/22 A3008 RMK AO2 $=
200506290634 SPECI KATL 290634Z 00000KT 10SM SCT013 OVC150 23/22 A3008 RMK AO2 $=
200506290551 METAR KATL 290551Z 00000KT 10SM BKN017 BKN022 OVC150 23/22 A3009 RMK AO2 SLP179 60000 T02330217 10244 20228 58003 $=
200506290544 SPECI KATL 290544Z 00000KT 10SM FEW007 SCT017 OVC150 23/22 A3009 RMK AO2 $=
200506290544 SPECI KATL 290544Z 00000KT 10SM FEW007 SCT017 OVC150 23/22 A3009 RMK AO2 $=
200506290533 SPECI KATL 290533Z 00000KT 10SM SCT007 BKN019 OVC150 23/22 A3009 RMK AO2 $=
200506290533 SPECI KATL 290533Z 00000KT 10SM SCT007 BKN019 OVC150 23/22 A3009 RMK AO2 $=
200506290508 SPECI KATL 290508Z 00000KT 10SM BKN007 OVC150 23/21 A3010 RMK AO2 $=
200506290508 SPECI KATL 290508Z 00000KT 10SM BKN007 OVC150 23/21 A3010 RMK AO2 $=
200506290459 SPECI KATL 290459Z 00000KT 10SM SCT007 OVC150 23/21 A3010 RMK AO2 $=
200506290459 SPECI KATL 290459Z 00000KT 10SM SCT007 OVC150 23/21 A3010 RMK AO2 $=
200506290451 METAR KATL 290451Z 00000KT 10SM FEW015 OVC150 23/21 A3010 RMK AO2 SLP182 T02280211 402830222 $=
200506290351 METAR KATL 290351Z 00000KT 10SM FEW012 BKN150 OVC200 23/21 A3011 RMK AO2 SLP186 T02330211 $=
200506290251 METAR KATL 290251Z 00000KT 10SM FEW015 BKN150 OVC200 23/21 A3010 RMK AO2 SLP184 60000 T02330211 53008 $=
200506290151 METAR KATL 290151Z 19003KT 10SM FEW015 BKN150 BKN200 24/21 A3008 RMK AO2 SLP178 T02390211 $=
200506290051 METAR KATL 290051Z 17003KT 10SM FEW015 SCT100 BKN150 BKN200 24/21 A3008 RMK AO2 RAE2358 SLP177 VIRGA OHD-NE AND S P0000 T02390211 $=
200506282351 METAR KATL 282351Z 19006KT 10SM -RA FEW015 SCT100 BKN150 OVC200 24/21 A3008 RMK AO2 RAB50 SLP175 PCPN VRY LGT P0000 60000 T02440211 10283 20244 55002=
200506282251 METAR KATL 282251Z 18007KT 10SM FEW020 SCT120 BKN150 OVC200 25/21 A3007 RMK AO2 SLP173 T02500211=
200506282151 METAR KATL 282151Z 16007KT 10SM FEW020 BKN150 OVC200 26/21 A3007 RMK AO2 SLP172 T02560206=
200506282051 METAR KATL 282051Z 15007KT 10SM FEW020 BKN150 BKN250 26/21 A3008 RMK AO2 SLP177 CB DSNT NW TCU DSNT NW ACSL DSNT W-NW T02610206 56012=
200506281951 METAR KATL 281951Z 13007KT 10SM FEW020 SCT100 BKN150 BKN250 27/21 A3008 RMK AO2 SLP176 T02670211=
200506281851 METAR KATL 281851Z 12006KT 10SM FEW020TCU SCT030 SCT060 BKN150 BKN250 27/21 A3010 RMK AO2 SLP184 TCU NW T02670206=
200506281758 SPECI KATL 281758Z 10005KT 10SM FEW020 BKN030 BKN060 BKN150 BKN250 28/22 A3011 RMK AO2 MDT CU ALQDS=
200506281758 SPECI KATL 281758Z 10005KT 10SM FEW020 BKN030 BKN060 BKN150 BKN250 28/22 A3011 RMK AO2 MDT CU ALQDS=
200506281751 METAR KATL 281751Z VRB03KT 10SM BKN025 BKN060 BKN150 BKN250 27/21 A3012 RMK AO2 SLP189 MDT CU ALQDS T02720211 10272 20222 58008=
200506281651 METAR KATL 281651Z 15006KT 10SM BKN020 BKN030 BKN060 OVC150 26/21 A3013 RMK AO2 SLP195 BINOVC NW-N T02560206=
200506281551 METAR KATL 281551Z 07006KT 9SM BKN018 BKN060 OVC100 25/21 A3014 RMK AO2 SLP198 T02500206=
200506281451 METAR KATL 281451Z 06004KT 8SM BKN015 BKN060 OVC150 24/21 A3014 RMK AO2 SLP197 T02440211 50009=
200506281415 SPECI KATL 281415Z 09005KT 8SM FEW010 SCT020 BKN070 OVC150 24/21 A3014 RMK AO2 BINOVC=
200506281415 SPECI KATL 281415Z 09005KT 8SM FEW010 SCT020 BKN070 OVC150 24/21 A3014 RMK AO2 BINOVC=
200506281351 METAR KATL 281351Z 09003KT 8SM OVC010 23/21 A3015 RMK AO2 CIG 008V013 SLP200 T02330211=
200506281319 SPECI KATL 281319Z 14004KT 7SM OVC008 23/21 A3014 RMK AO2=
200506281319 SPECI KATL 281319Z 14004KT 7SM OVC008 23/21 A3014 RMK AO2=
200506281251 METAR KATL 281251Z 15003KT 8SM OVC010 23/21 A3014 RMK AO2 SLP195 T02280206=
200506281219 SPECI KATL 281219Z 00000KT 9SM OVC010 23/21 A3012 RMK AO2 CIG 006V014=
200506281219 SPECI KATL 281219Z 00000KT 9SM OVC010 23/21 A3012 RMK AO2 CIG 006V014=
200506281151 METAR KATL 281151Z 00000KT 7SM OVC008 22/21 A3012 RMK AO2 CIG 007V011 SLP188 T02220206 10233 20222 51005=
200506281051 METAR KATL 281051Z 00000KT 10SM OVC008 23/21 A3011 RMK AO2 CIG 007V011 SLP186 T02280206 $=
200506280951 METAR KATL 280951Z 17003KT 10SM OVC008 22/21 A3011 RMK AO2 SLP185 T02220206 $=
200506280941 SPECI KATL 280941Z 19004KT 10SM OVC008 22/21 A3011 RMK AO2 $=
200506280941 SPECI KATL 280941Z 19004KT 10SM OVC008 22/21 A3011 RMK AO2 $=
200506280909 SPECI KATL 280909Z 13004KT 10SM BKN010 BKN080 BKN200 22/21 A3010 RMK AO2 $=
200506280909 SPECI KATL 280909Z 13004KT 10SM BKN010 BKN080 BKN200 22/21 A3010 RMK AO2 $=
200506280851 METAR KATL 280851Z 11004KT 10SM SCT010 SCT046 SCT080 BKN200 22/21 A3010 RMK AO2 SLP182 T02220206 58013 $=
200506280751 METAR KATL 280751Z 13005KT 10SM FEW010 SCT046 SCT080 BKN200 23/21 A3011 RMK AO2 SLP186 T02280206 $=
200506280651 METAR KATL 280651Z 13005KT 10SM BKN080 BKN200 23/21 A3013 RMK AO2 SLP191 T02280206 $=
200506280611 SPECI KATL 280611Z 14006KT 10SM FEW014 SCT070 BKN080 OVC200 23/21 A3013 RMK AO2 $=
200506280611 SPECI KATL 280611Z 14006KT 10SM FEW014 SCT070 BKN080 OVC200 23/21 A3013 RMK AO2 $=
200506280551 METAR KATL 280551Z 14005KT 10SM BKN014 BKN070 BKN080 OVC200 23/21 A3014 RMK AO2 SLP195 T02330211 10289 20233 50003 $=
200506280538 SPECI KATL 280538Z 14007KT 10SM BKN014 OVC200 23/21 A3014 RMK AO2 $=
200506280538 SPECI KATL 280538Z 14007KT 10SM BKN014 OVC200 23/21 A3014 RMK AO2 $=
200506280514 SPECI KATL 280514Z 15005KT 10SM SCT014 OVC200 23/21 A3014 RMK AO2 $=
200506280514 SPECI KATL 280514Z 15005KT 10SM SCT014 OVC200 23/21 A3014 RMK AO2 $=
200506280451 METAR KATL 280451Z 13004KT 10SM BKN014 OVC200 23/21 A3014 RMK AO2 SLP196 T02330211 403110217 $=
200506280358 SPECI KATL 280358Z 15008KT 10SM BKN015 OVC200 24/21 A3014 RMK AO2 $=
200506280358 SPECI KATL 280358Z 15008KT 10SM BKN015 OVC200 24/21 A3014 RMK AO2 $=
200506280351 METAR KATL 280351Z 15007KT 10SM SCT015 BKN150 OVC200 24/21 A3014 RMK AO2 SLP194 T02390206 $=
200506280251 METAR KATL 280251Z 15007KT 10SM FEW150 BKN250 25/19 A3013 RMK AO2 SLP191 LTG DSNT NW-N CB DSNT NW-N T02500194 53016 $=
200506280151 METAR KATL 280151Z 14013G18KT 10SM FEW040 SCT150 BKN250 27/20 A3012 RMK AO2 SLP188 T02720200 $=
200506280051 METAR KATL 280051Z 13004KT 10SM FEW040 SCT100 BKN140 BKN200 28/21 A3009 RMK AO2 SLP178 TCU DSNT SE T02830206 $=
200506272351 METAR KATL 272351Z 13007KT 9SM FEW040TCU SCT060 BKN100 BKN200 29/21 A3008 RMK AO2 SLP175 TCU NW CB DSNT SE AND W T02890206 10311 20278 53000 $=
200506272251 METAR KATL 272251Z 16008KT 9SM FEW040TCU SCT060 SCT200 BKN250 29/21 A3007 RMK AO2 SLP172 TCU SE-SW AND OHD-W-NW T02940206 $=
200506272151 METAR KATL 272151Z 14008KT 10SM SCT040TCU BKN065 BKN250 30/21 A3007 RMK AO2 SLP170 TCU ALQDS T03000206 $=
200506272051 METAR KATL 272051Z 10006KT 10SM SCT036 BKN070 29/20 A3008 RMK AO2 SLP174 T02940200 56023 $=
200506271951 METAR KATL 271951Z 13008KT 10SM SCT033 BKN037 30/21 A3010 RMK AO2 SLP182 T03000211 $=
200506271851 METAR KATL 271851Z 12005KT 10SM SCT033 BKN037 29/21 A3012 RMK AO2 SLP191 T02890211 $=
200506271800 SPECI KATL 271800Z 08005KT 10SM SCT027 BKN037 28/21 A3015 RMK AO2 $=
200506271800 SPECI KATL 271800Z 08005KT 10SM SCT027 BKN037 28/21 A3015 RMK AO2 $=
200506271751 METAR KATL 271751Z 12007KT 10SM BKN025 28/21 A3015 RMK AO2 SLP199 T02780211 10289 20233 58004 $=
200506271651 METAR KATL 271651Z 08009KT 10SM SCT025 BKN028 28/22 A3016 RMK AO2 SLP204 T02830217 $=
200506271551 METAR KATL 271551Z 14006KT 9SM SCT022 BKN028 28/22 A3017 RMK AO2 SLP205 T02780217 $=
200506271451 METAR KATL 271451Z 12005KT 8SM SCT013 27/22 A3016 RMK AO2 SLP203 T02670217 51004 $=
200506271444 SPECI KATL 271444Z 00000KT 8SM SCT013 26/22 A3016 RMK AO2 $=
200506271444 SPECI KATL 271444Z 00000KT 8SM SCT013 26/22 A3016 RMK AO2 $=
200506271351 METAR KATL 271351Z 08008KT 7SM BKN007 BKN013 24/22 A3016 RMK AO2 SLP204 T02440217=
200506271251 METAR KATL 271251Z 07007KT 6SM BR BKN009 OVC070 23/22 A3016 RMK AO2 SLP203 T02330217=
200506271222 SPECI KATL 271222Z 08007KT 6SM BR OVC009 23/22 A3015 RMK AO2 CIG 007V012=
200506271222 SPECI KATL 271222Z 08007KT 6SM BR OVC009 23/22 A3015 RMK AO2 CIG 007V012=
200506271151 METAR KATL 271151Z 08007KT 6SM BR OVC011 23/22 A3015 RMK AO2 SLP200 BINOVC ALQDS 70003 T02330217 10233 20217 53015=
200506271131 SPECI KATL 271131Z 08006KT 5SM BR OVC011 23/22 A3014 RMK AO2 BINOVC ALQDS $=
200506271131 SPECI KATL 271131Z 08006KT 5SM BR OVC011 23/22 A3014 RMK AO2 BINOVC ALQDS $=
200506271123 SPECI KATL 271123Z 09007KT 2 1/2SM BR FEW003 OVC011 23/22 A3014 RMK AO2 SFC VIS 3 $=
200506271123 SPECI KATL 271123Z 09007KT 2 1/2SM BR FEW003 OVC011 23/22 A3014 RMK AO2 SFC VIS 3 $=
200506271115 SPECI KATL 271115Z 08005KT 2 1/2SM BR SCT003 OVC009 23/22 A3014 RMK AO2 SFC VIS 3 CIG 008V014 $=
200506271115 SPECI KATL 271115Z 08005KT 2 1/2SM BR SCT003 OVC009 23/22 A3014 RMK AO2 SFC VIS 3 CIG 008V014 $=
200506271051 METAR KATL 271051Z 09004KT 1 1/2SM BR OVC003 22/22 A3013 RMK AO2 SLP195 T02220217 $=
200506271043 SPECI KATL 271043Z 08003KT 1 1/2SM BR OVC003 22/22 A3013 RMK AO2 $=
200506271043 SPECI KATL 271043Z 08003KT 1 1/2SM BR OVC003 22/22 A3013 RMK AO2 $=
200506270951 METAR KATL 270951Z 08005KT 2SM BR OVC003 22/22 A3011 RMK AO2 CIG 002V006 SLP187 BINOVC ALQDS T02220217 $=
200506270851 METAR KATL 270851Z 08007KT 2SM BR OVC003 22/22 A3010 RMK AO2 CIG 002V008 SLP185 T02220217 53007 $=
200506270818 SPECI KATL 270818Z 08008KT 1 1/2SM BR OVC003 22/22 A3010 RMK AO2 SFC VIS 2 $=
200506270818 SPECI KATL 270818Z 08008KT 1 1/2SM BR OVC003 22/22 A3010 RMK AO2 SFC VIS 2 $=
200506270751 METAR KATL 270751Z 09006KT 5SM BR OVC003 22/22 A3009 RMK AO2 SLP181 T02220217 $=
200506270651 METAR KATL 270651Z 09005KT 7SM BKN006 OVC009 22/21 A3008 RMK AO2 CIG 005V009 SLP177 T02220211 $=
200506270614 SPECI KATL 270614Z 09004KT 5SM BR BKN009 BKN014 22/21 A3008 RMK AO2 CIG 005V011 $=
200506270614 SPECI KATL 270614Z 09004KT 5SM BR BKN009 BKN014 22/21 A3008 RMK AO2 CIG 005V011 $=
200506270551 METAR KATL 270551Z 08005KT 4SM BR FEW004 BKN014 22/21 A3008 RMK AO2 SLP179 T02170211 10250 20217 58005 $=
200506270527 SPECI KATL 270527Z 08005KT 5SM BR FEW004 BKN014 22/22 A3009 RMK AO2 $=
200506270527 SPECI KATL 270527Z 08005KT 5SM BR FEW004 BKN014 22/22 A3009 RMK AO2 $=
200506270512 SPECI KATL 270512Z 08006KT 5SM BR FEW006 SCT014 22/21 A3010 RMK AO2 $=
200506270512 SPECI KATL 270512Z 08006KT 5SM BR FEW006 SCT014 22/21 A3010 RMK AO2 $=
200506270451 METAR KATL 270451Z 09006KT 6SM BR FEW014 22/21 A3011 RMK AO2 SLP187 T02220211 402500183 $=
200506270421 SPECI KATL 270421Z 08009KT 6SM BR FEW006 BKN014 22/21 A3010 RMK AO2 $=
200506270421 SPECI KATL 270421Z 08009KT 6SM BR FEW006 BKN014 22/21 A3010 RMK AO2 $=
200506270412 SPECI KATL 270412Z 08007KT 6SM BR SCT008 OVC015 22/21 A3011 RMK AO2 $=
200506270412 SPECI KATL 270412Z 08007KT 6SM BR SCT008 OVC015 22/21 A3011 RMK AO2 $=
200506270351 METAR KATL 270351Z 07007KT 7SM FEW006 BKN013 23/22 A3011 RMK AO2 SLP187 T02280217 $=
200506270251 METAR KATL 270251Z 06008KT 10SM FEW035 23/21 A3010 RMK AO2 SLP183 T02330211 53013 $=
200506270151 METAR KATL 270151Z 07009KT 9SM BKN036 BKN050 23/21 A3008 RMK AO2 SLP178 T02330211 $=
200506270051 METAR KATL 270051Z 05007KT 10SM SCT015 BKN028 BKN036 24/21 A3007 RMK AO2 SLP173 T02390211 $=
200506262351 METAR KATL 262351Z 04006KT 10SM SCT017 BKN026 BKN060 25/21 A3006 RMK AO2 SLP170 60000 T02500211 10250 20217 55003 $=
200506262251 METAR KATL 262251Z 04006KT 10SM SCT017 BKN027 BKN048 24/21 A3005 RMK AO2 SLP170 T02440211 $=
200506262151 METAR KATL 262151Z 03004KT 10SM SCT013 BKN039 OVC047 24/21 A3005 RMK AO2 SLP167 T02440211 $=
200506262051 METAR KATL 262051Z 04006KT 5SM BR BKN011 OVC014 23/22 A3006 RMK AO2 RAB35E51 SLP174 P0000 60000 T02330217 56010 $=
200506261951 METAR KATL 261951Z VRB06KT 5SM BR BKN010 OVC018 23/21 A3007 RMK AO2 CIG 007V013 SLP176 T02330211 $=
200506261851 METAR KATL 261851Z 04007KT 3SM BR BKN006 OVC010 22/21 A3008 RMK AO2 SFC VIS 4 RAB03E12 SLP179 P0000 T02220206 $=
200506261825 SPECI KATL 261825Z 04007KT 3SM BR BKN006 OVC010 22/21 A3009 RMK AO2 SFC VIS 4 RAB03E12 P0000 $=
200506261825 SPECI KATL 261825Z 04007KT 3SM BR BKN006 OVC010 22/21 A3009 RMK AO2 SFC VIS 4 RAB03E12 P0000 $=
200506261804 SPECI KATL 261804Z 04008KT 1 1/2SM -RA BR BKN006 OVC010 22/21 A3009 RMK AO2 SFC VIS 2 1/2 RAB03 P0000 $=
200506261804 SPECI KATL 261804Z 04008KT 1 1/2SM -RA BR BKN006 OVC010 22/21 A3009 RMK AO2 SFC VIS 2 1/2 RAB03 P0000 $=
200506261751 METAR KATL 261751Z 04008KT 2 1/2SM BR BKN008 OVC013 22/20 A3009 RMK AO2 SFC VIS 4 SLP183 60003 T02170200 10222 20206 58002 $=
200506261651 METAR KATL 261651Z 02010KT 2 1/2SM BR BKN008 OVC013 22/19 A3009 RMK AO2 SFC VIS 4 RAE1553 SLP183 P0000 T02170194 $=
200506261551 METAR KATL 261551Z 03010KT 2SM -RA BR BKN008 OVC013 21/19 A3010 RMK AO2 SFC VIS 3 SLP186 P0001 T02110194 $=
200506261451 METAR KATL 261451Z 02009KT 1SM -RA BR BKN008 OVC012 21/19 A3010 RMK AO2 SFC VIS 2 CIG 006V011 SLP185 P0002 60002 T02060189 51005 $=
200506261403 SPECI KATL 261403Z 03012KT 1SM R09R/5500VP6000FT -RA BR BKN006 OVC012 21/19 A3010 RMK AO2 SFC VIS 1 3/4 P0000 $=
200506261403 SPECI KATL 261403Z 03012KT 1SM R09R/5500VP6000FT -RA BR BKN006 OVC012 21/19 A3010 RMK AO2 SFC VIS 1 3/4 P0000 $=
200506261351 METAR KATL 261351Z 04012KT 2SM -RA BR BKN012 OVC014 21/19 A3010 RMK AO2 SFC VIS 3 RAB51 SLP185 P0000 T02110189 $=
200506261321 SPECI KATL 261321Z 05008KT 3SM HZ OVC014 21/18 A3010 RMK AO2 SFC VIS 5 $=
200506261321 SPECI KATL 261321Z 05008KT 3SM HZ OVC014 21/18 A3010 RMK AO2 SFC VIS 5 $=
200506261251 METAR KATL 261251Z 03011KT 3SM HZ OVC022 21/18 A3010 RMK AO2 SFC VIS 5 SLP183 T02110183 $=
200506261151 METAR KATL 261151Z 01006KT 3SM HZ OVC029 21/18 A3008 RMK AO2 SFC VIS 5 SLP179 60023 70023 T02060178 10222 20183 53002 $=
200506261051 METAR KATL 261051Z 32006KT 5SM BR OVC035 19/18 A3007 RMK AO2 RAB17E31 SLP174 P0000 T01890178 $=
200506260951 METAR KATL 260951Z 36006KT 6SM BR OVC037 19/18 A3006 RMK AO2 RAE36 SLP171 P0014 T01940178 $=
200506260931 SPECI KATL 260931Z 36011KT 6SM -RA BR FEW015 OVC037 19/18 A3006 RMK AO2 P0014 $=
200506260931 SPECI KATL 260931Z 36011KT 6SM -RA BR FEW015 OVC037 19/18 A3006 RMK AO2 P0014 $=
200506260921 SPECI KATL 260921Z 36011KT 1 1/2SM -RA BR FEW013 OVC037 19/18 A3006 RMK AO2 SFC VIS 4 P0014 $=
200506260921 SPECI KATL 260921Z 36011KT 1 1/2SM -RA BR FEW013 OVC037 19/18 A3006 RMK AO2 SFC VIS 4 P0014 $=
200506260854 SPECI KATL 260854Z 05010KT 1 3/4SM +RA BR SCT007 BKN013 OVC050 18/18 A3008 RMK AO2 TWR VIS 2 P0002 $=
200506260854 SPECI KATL 260854Z 05010KT 1 3/4SM +RA BR SCT007 BKN013 OVC050 18/18 A3008 RMK AO2 TWR VIS 2 P0002 $=
200506260851 METAR KATL 260851Z 04008KT 2SM +RA BR FEW007 BKN026 OVC050 18/18 A3008 RMK AO2 SLP176 P0008 60009 T01830178 56004 $=
200506260841 SPECI KATL 260841Z 05010KT 2SM -RA BR FEW007 BKN043 OVC070 18/17 A3008 RMK AO2 SFC VIS 4 P0005 $=
200506260841 SPECI KATL 260841Z 05010KT 2SM -RA BR FEW007 BKN043 OVC070 18/17 A3008 RMK AO2 SFC VIS 4 P0005 $=
200506260751 METAR KATL 260751Z 04010KT 4SM -RA BR OVC036 19/17 A3008 RMK AO2 RAB29 SLP178 P0001 T01890172 $=
200506260651 METAR KATL 260651Z 36008KT 9SM BKN047 19/17 A3008 RMK AO2 RAB00E24 SLP177 P0000 T01940167 $=
200506260551 METAR KATL 260551Z 09010KT 10SM SCT050 OVC060 22/13 A3009 RMK AO2 SLP180 60000 T02220133 10267 20222 51006 $=
200506260451 METAR KATL 260451Z 06012KT 10SM BKN090 23/14 A3008 RMK AO2 SLP178 T02330144 402940211 $=
200506260351 METAR KATL 260351Z 08009KT 10SM BKN085 BKN120 23/16 A3009 RMK AO2 SLP178 T02330156 $=
200506260251 METAR KATL 260251Z 09008KT 10SM BKN090 24/15 A3007 RMK AO2 SLP174 60000 T02390150 51008 $=
200506260151 METAR KATL 260151Z 08008KT 10SM OVC090 24/16 A3007 RMK AO2 SLP173 T02440156 $=
200506260051 METAR KATL 260051Z 11010KT 9SM OVC090 25/17 A3006 RMK AO2 RAB26E33 SLP169 P0000 T02500167 $=
200506252351 METAR KATL 252351Z COR 10010KT 8SM SCT110 OVC250 27/16 A3005 RMK AO2 SLP166 T02670156 10294 20267 55003 $=
200506252251 METAR KATL 252251Z 08010KT 8SM SCT055 SCT090 BKN200 27/16 A3003 RMK AO2 SLP161 T02720161 $=
200506252151 METAR KATL 252151Z 10008KT 070V130 8SM SCT055 SCT090 BKN200 28/16 A3004 RMK AO2 SLP163 T02780161 $=
200506252051 METAR KATL 252051Z 07012G16KT 8SM SCT060 BKN070 OVC250 29/16 A3006 RMK AO2 SLP167 T02940156 56017 $=
200506251951 METAR KATL 251951Z 08013KT 7SM BKN055 OVC250 29/16 A3007 RMK AO2 SLP173 T02890161 $=
200506251851 METAR KATL 251851Z 06011KT 8SM BKN055 OVC200 28/16 A3009 RMK AO2 SLP180 T02830156 $=
200506251751 METAR KATL 251751Z 09012KT 7SM BKN047 OVC200 28/17 A3011 RMK AO2 SLP186 T02830172 10283 20217 58009 $=
200506251651 METAR KATL 251651Z 06014KT 7SM BKN041 OVC200 28/17 A3013 RMK AO2 SLP190 T02780167 $=
200506251551 METAR KATL 251551Z 07014KT 7SM FEW050 OVC200 28/17 A3013 RMK AO2 SLP193 T02780172 $=
200506251451 METAR KATL 251451Z 06012KT 6SM HZ FEW100 BKN180 26/18 A3014 RMK AO2 SLP195 T02560183 50006 $=
200506251351 METAR KATL 251351Z 08008KT 6SM HZ BKN180 24/19 A3014 RMK AO2 SLP197 T02440189 $=
200506251251 METAR KATL 251251Z 06008KT 6SM HZ BKN250 22/18 A3013 RMK AO2 SLP194 T02220183 $=
200506251151 METAR KATL 251151Z 08009KT 7SM BKN200 22/18 A3012 RMK AO2 SLP189 T02170183 10228 20211 53010 $=
200506251051 METAR KATL 251051Z 05007KT 4SM HZ SCT180 22/18 A3010 RMK AO2 SLP183 T02170178 $=
200506250951 METAR KATL 250951Z 04007KT 7SM BKN200 22/18 A3009 RMK AO2 SLP178 T02170178 $=
200506250851 METAR KATL 250851Z 04007KT 7SM BKN200 22/18 A3009 RMK AO2 SLP177 T02220178 58006 $=
200506250751 METAR KATL 250751Z 07006KT 5SM HZ BKN200 22/18 A3010 RMK AO2 SLP180 T02170178 $=
200506250651 METAR KATL 250651Z VRB06KT 5SM HZ BKN200 22/18 A3010 RMK AO2 SLP183 T02220178 $=
200506250551 METAR KATL 250551Z 09006KT 5SM HZ BKN200 23/18 A3011 RMK AO2 SLP184 T02280178 10283 20228 58002 $=
200506250451 METAR KATL 250451Z 09006KT 8SM FEW120 BKN250 24/18 A3012 RMK AO2 SLP187 T02390178 403060206 $=
200506250351 METAR KATL 250351Z 08008KT 8SM FEW120 BKN250 24/18 A3012 RMK AO2 SLP187 T02440178=
200506250251 METAR KATL 250251Z 09008KT 8SM SCT120 BKN250 25/17 A3011 RMK AO2 SLP186 T02500172 53010=
200506250151 METAR KATL 250151Z 11007KT 9SM BKN110 OVC250 27/17 A3010 RMK AO2 SLP182 T02670172=
200506250051 METAR KATL 250051Z 08013KT 8SM SCT120 BKN250 27/16 A3009 RMK AO2 SLP178 T02670161=
200506242351 METAR KATL 242351Z 08011KT 8SM FEW055 BKN250 28/16 A3008 RMK AO2 SLP176 CB DSNT SE MDT VC NE-E T02830161 10306 20283 56004=
200506242251 METAR KATL 242251Z 11009KT 9SM FEW060 BKN250 29/15 A3008 RMK AO2 SLP177 MDT CU VC N T02940150=
200506242151 METAR KATL 242151Z 10008KT 9SM FEW065 SCT250 30/14 A3009 RMK AO2 SLP178 MDT CU W T03000139=
200506242051 METAR KATL 242051Z 08011KT 8SM FEW060 31/14 A3009 RMK AO2 SLP179 MDT CU SE AND SW AND NW T03060139 58017=
200506241951 METAR KATL 241951Z 08009G15KT 050V120 8SM SCT060 30/16 A3011 RMK AO2 SLP188 TCU DSNT SW MDT CU N-NE-E T03000156=
200506241851 METAR KATL 241851Z 07004KT 8SM SCT060TCU 29/16 A3013 RMK AO2 SLP194 TCU OHD-N-NE T02890161=
200506241751 METAR KATL 241751Z 11007KT 8SM SCT060 30/15 A3014 RMK AO2 SLP197 T03000150 10300 20222 58008=
200506241651 METAR KATL 241651Z 06010KT 7SM FEW050TCU 29/17 A3016 RMK AO2 SLP201 TCU N T02940167=
200506241551 METAR KATL 241551Z 09008KT 7SM FEW035 SCT100 29/18 A3017 RMK AO2 SLP204 T02890183=
200506241451 METAR KATL 241451Z 09007KT 6SM HZ FEW100 27/19 A3017 RMK AO2 SLP205 T02720189 51009=
200506241351 METAR KATL 241351Z 04006KT 5SM HZ FEW095 26/19 A3016 RMK AO2 SLP203 T02560189=
200506241251 METAR KATL 241251Z 05008KT 6SM HZ BKN100 24/19 A3015 RMK AO2 SLP198 T02390189=
200506241151 METAR KATL 241151Z 05007KT 6SM HZ SCT100 22/18 A3014 RMK AO2 SLP196 T02220183 10233 20206 53012=
200506241051 METAR KATL 241051Z 07006KT 6SM HZ BKN100 BKN210 21/18 A3012 RMK AO2 SLP189 T02110183=
200506240951 METAR KATL 240951Z 07005KT 6SM HZ CLR 21/18 A3011 RMK AO2 SLP186 T02110183=
200506240851 METAR KATL 240851Z 08005KT 6SM HZ CLR 21/18 A3010 RMK AO2 SLP184 T02110183 55001=
200506240751 METAR KATL 240751Z 09006KT 8SM CLR 21/18 A3010 RMK AO2 SLP181 T02110183=
200506240651 METAR KATL 240651Z 07006KT 8SM CLR 22/18 A3011 RMK AO2 SLP184 T02170183=
200506240551 METAR KATL 240551Z 06006KT 8SM CLR 23/19 A3011 RMK AO2 SLP184 T02330189 10289 20228 50001=
200506240451 METAR KATL 240451Z 07006KT 8SM FEW250 24/19 A3011 RMK AO2 SLP185 T02390189 403170194 $=
200506240351 METAR KATL 240351Z 08006KT 9SM FEW250 24/18 A3011 RMK AO2 SLP185 T02390183=
200506240251 METAR KATL 240251Z 09006KT 9SM FEW250 25/18 A3010 RMK AO2 SLP183 T02500178 53014=
200506240151 METAR KATL 240151Z 11004KT 9SM FEW250 27/18 A3008 RMK AO2 SLP176 T02670178=
200506240051 METAR KATL 240051Z 12004KT 8SM FEW050 28/17 A3007 RMK AO2 SLP171 CB DSNT W T02780172=
200506232351 METAR KATL 232351Z 11006KT 8SM FEW050 28/17 A3006 RMK AO2 SLP170 CB DSNT W-NW T02830172 10317 20278 55004=
200506232251 METAR KATL 232251Z 12005KT 9SM FEW055TCU SCT100 29/16 A3006 RMK AO2 SLP169 TCU VC NW T02940156=
200506232151 METAR KATL 232151Z 14007KT 8SM FEW060 30/16 A3006 RMK AO2 SLP170 T03000161=
200506232051 METAR KATL 232051Z 09007KT 7SM BKN060 BKN090 29/16 A3007 RMK AO2 SLP174 MDT CU E AND OHD-W-NW T02940161 56014=
200506231951 METAR KATL 231951Z 07009KT 8SM FEW060 SCT070 SCT090 29/16 A3008 RMK AO2 SLP176 T02940161=
200506231851 METAR KATL 231851Z VRB03KT 8SM FEW055 SCT070 31/16 A3009 RMK AO2 SLP180 T03110161=
200506231751 METAR KATL 231751Z 12006KT 8SM SCT055TCU 29/16 A3012 RMK AO2 SLP187 TCU E AND W-NW T02940161 10306 20217 58006=
200506231651 METAR KATL 231651Z 00000KT 7SM FEW050 29/17 A3013 RMK AO2 SLP192 T02890167=
200506231551 METAR KATL 231551Z 00000KT 7SM FEW040 28/17 A3014 RMK AO2 SLP196 T02780172=
200506231451 METAR KATL 231451Z 07005KT 6SM HZ CLR 28/18 A3014 RMK AO2 SLP194 T02780183 51011=
200506231351 METAR KATL 231351Z 07007KT 6SM HZ CLR 26/17 A3014 RMK AO2 SLP195 T02560172=
200506231251 METAR KATL 231251Z 03006KT 6SM HZ CLR 26/17 A3012 RMK AO2 SLP188 T02560172=
200506231151 METAR KATL 231151Z 32005KT 6SM HZ CLR 22/17 A3010 RMK AO2 SLP184 T02170172 10222 20194 53010=
200506231051 METAR KATL 231051Z 31004KT 6SM HZ CLR 19/17 A3009 RMK AO2 SLP181 T01940167=
200506230951 METAR KATL 230951Z 32003KT 9SM FEW250 20/17 A3008 RMK AO2 SLP178 T02000172=
200506230851 METAR KATL 230851Z 33005KT 9SM FEW250 20/17 A3007 RMK AO2 SLP175 T02000172 55006=
200506230751 METAR KATL 230751Z 31005KT 9SM FEW250 21/17 A3007 RMK AO2 SLP173 T02060172=
200506230651 METAR KATL 230651Z 31004KT 9SM FEW250 22/17 A3008 RMK AO2 SLP175 T02170172=
200506230551 METAR KATL 230551Z 33005KT 9SM FEW250 22/17 A3009 RMK AO2 SLP181 T02220172 10278 20217 50002=
200506230451 METAR KATL 230451Z 32006KT 9SM FEW250 22/17 A3010 RMK AO2 SLP184 T02220172 402940178=
200506230351 METAR KATL 230351Z 31006KT 9SM FEW250 23/17 A3009 RMK AO2 SLP181 T02280172=
200506230251 METAR KATL 230251Z 28004KT 9SM FEW250 24/17 A3009 RMK AO2 SLP179 T02440167 53011=
200506230151 METAR KATL 230151Z 27004KT 9SM FEW250 25/17 A3007 RMK AO2 SLP175 T02500167=
200506230051 METAR KATL 230051Z 28004KT 9SM FEW250 26/17 A3006 RMK AO2 SLP170 T02610167=
200506222351 METAR KATL 222351Z 30007KT 9SM CLR 28/16 A3006 RMK AO2 SLP168 T02780161 10294 20278 55006=
200506222251 METAR KATL 222251Z 30008KT 8SM CLR 28/16 A3005 RMK AO2 SLP167 T02830156=
200506222151 METAR KATL 222151Z 29008KT 9SM FEW060 29/14 A3007 RMK AO2 SLP172 T02890144=
200506222051 METAR KATL 222051Z 36008KT 7SM FEW060 29/14 A3007 RMK AO2 SLP175 T02890144 56015=
200506221851 METAR KATL 221851Z 28010G15KT 7SM FEW050 29/17 A3010 RMK AO2 SLP184 T02890167=
200506221751 METAR KATL 221751Z 35009KT 7SM FEW050 28/17 A3012 RMK AO2 SLP190 T02830167 10283 20200 58009=
200506221651 METAR KATL 221651Z VRB06KT 5SM HZ SCT040 27/17 A3014 RMK AO2 SLP197 T02670172=
200506221551 METAR KATL 221551Z VRB06KT 5SM HZ FEW030 SCT060 SCT090 26/19 A3015 RMK AO2 SLP201 T02610189=
200506221451 METAR KATL 221451Z 28009KT 6SM HZ CLR 25/19 A3015 RMK AO2 SLP200 T02500189 50004=
200506221351 METAR KATL 221351Z 29008KT 8SM CLR 23/17 A3015 RMK AO2 SLP202 T02330172=
200506221251 METAR KATL 221251Z 29008KT 9SM FEW080 SCT210 22/17 A3015 RMK AO2 SLP202 T02170167=
200506221151 METAR KATL 221151Z 27004KT 8SM FEW210 19/16 A3014 RMK AO2 SLP198 T01940161 10194 20178 51006=
200506221051 METAR KATL 221051Z 27007KT 8SM FEW085 SCT210 18/15 A3014 RMK AO2 SLP198 T01830150 $=
200506220951 METAR KATL 220951Z 23003KT 9SM FEW085 BKN210 19/16 A3013 RMK AO2 SLP194 T01890161 $=
200506220851 METAR KATL 220851Z 27005KT 9SM FEW210 SCT250 18/16 A3012 RMK AO2 SLP193 T01780156 55007 $=
200506220751 METAR KATL 220751Z 27005KT 9SM FEW210 SCT250 18/16 A3012 RMK AO2 SLP192 T01830156 $=
200506220651 METAR KATL 220651Z 27004KT 9SM FEW210 SCT250 18/16 A3013 RMK AO2 SLP198 T01830156 $=
200506220551 METAR KATL 220551Z 24003KT 8SM CLR 19/16 A3014 RMK AO2 SLP198 T01940161 10233 20194 55004 $=
200506220451 METAR KATL 220451Z 23004KT 10SM FEW250 20/17 A3013 RMK AO2 SLP195 T02000167 402610172 $=
200506220351 METAR KATL 220351Z 21005KT 10SM FEW250 21/17 A3014 RMK AO2 SLP199 T02060172 $=
200506220251 METAR KATL 220251Z 19005KT 8SM FEW250 21/18 A3015 RMK AO2 SLP204 T02110178 53011 $=
200506220151 METAR KATL 220151Z 00000KT 9SM BKN250 22/18 A3014 RMK AO2 SLP199 T02170178 $=
200506220051 METAR KATL 220051Z 20006KT 8SM BKN250 22/18 A3012 RMK AO2 SLP194 T02220183 $=
200506212351 METAR KATL 212351Z 21006KT 10SM BKN250 23/18 A3012 RMK AO2 SLP193 60036 T02330183 10261 20217 55009 $=
200506212251 METAR KATL 212251Z 18006KT 10SM FEW140 SCT200 SCT250 24/17 A3011 RMK AO2 SLP190 T02440172 $=
200506212151 METAR KATL 212151Z 00000KT 9SM FEW110 BKN140 BKN200 26/14 A3013 RMK AO2 SLP195 T02560144 $=
200506212051 METAR KATL 212051Z 14007KT 8SM FEW065 SCT110 BKN150 BKN250 22/17 A3015 RMK AO2 SLP203 CB DSNT NE MOV SE 60036 T02220172=
200506211951 METAR KATL 211951Z 15009KT 7SM FEW015 SCT065 SCT110 BKN150 BKN250 22/17 A3016 RMK AO2 TSE14RAE06 SLP206 LTG DSNT SE-S TS MOV SE CB DSNT N AND E-SW MOV SE P0000 T02220172=
200506211916 SPECI KATL 211916Z 24005KT 9SM FEW030CB SCT110 SCT250 23/16 A3016 RMK AO2 TSE14RAE06 LTG DSNT E-SW TS MOV SE CB DSNT E-SW MOV SE P0000 $=
200506211916 SPECI KATL 211916Z 24005KT 9SM FEW030CB SCT110 SCT250 23/16 A3016 RMK AO2 TSE14RAE06 LTG DSNT E-SW TS MOV SE CB DSNT E-SW MOV SE P0000 $=
200506211906 SPECI KATL 211906Z 16004KT 10SM TS FEW030CB SCT040TCU BKN110 BKN250 22/16 A3017 RMK AO2 RAE06 FRQ LTGICCG TS E-SW MOV SE CB E-SW MOV SE TCU NE P0000 $=
200506211906 SPECI KATL 211906Z 16004KT 10SM TS FEW030CB SCT040TCU BKN110 BKN250 22/16 A3017 RMK AO2 RAE06 FRQ LTGICCG TS E-SW MOV SE CB E-SW MOV SE TCU NE P0000 $=
200506211851 METAR KATL 211851Z VRB06KT 6SM -TSRA FEW015 BKN040CB BKN060 22/16 A3017 RMK AO2 TSB38RAB38 SLP211 FRQ LTGICCG TS NE-E-SE-S-SW MOV SE P0036 T02220161 $=
200506211841 SPECI KATL 211841Z 35010KT 1/2SM R09R/P6000FT +TSRA OVC040CB 24/19 A3018 RMK AO2 TSB38RAB38 FRQ LTGICCG TS OHD MOV SE P0000 $=
200506211841 SPECI KATL 211841Z 35010KT 1/2SM R09R/P6000FT +TSRA OVC040CB 24/19 A3018 RMK AO2 TSB38RAB38 FRQ LTGICCG TS OHD MOV SE P0000 $=
200506211839 SPECI KATL 211839Z 35011KT 6SM TSRA BKN040CB BKN060 BKN080 24/18 A3016 RMK AO2 TSB38RAB38 FRQ LTGICCG TS OHD-W MOV SE P0000 $=
200506211839 SPECI KATL 211839Z 35011KT 6SM TSRA BKN040CB BKN060 BKN080 24/18 A3016 RMK AO2 TSB38RAB38 FRQ LTGICCG TS OHD-W MOV SE P0000 $=
200506211751 METAR KATL 211751Z 16003KT 8SM SCT030TCU SCT040 BKN050 BKN150 BKN250 25/18 A3017 RMK AO2 SLP209 LTG DSNT SE AND NW CB DSNT SE AND NW MOV SE TCU NE AND OHD-SW-NW 60000 T02500178 10250 20178 58010=
200506211700 SPECI KATL 211700Z VRB04KT 8SM SCT028TCU BKN033 BKN150 24/18 A3020 RMK AO2 TCU S-OHD-NW=
200506211700 SPECI KATL 211700Z VRB04KT 8SM SCT028TCU BKN033 BKN150 24/18 A3020 RMK AO2 TCU S-OHD-NW=
200506211651 METAR KATL 211651Z VRB03KT 8SM BKN028TCU BKN150 24/18 A3020 RMK AO2 SLP220 TCU S-OHD-NW T02440183=
200506211558 SPECI KATL 211558Z 20003KT 8SM FEW018 BKN024 OVC050 24/18 A3022 RMK AO2=
200506211558 SPECI KATL 211558Z 20003KT 8SM FEW018 BKN024 OVC050 24/18 A3022 RMK AO2=
200506211551 METAR KATL 211551Z 00000KT 8SM FEW020 SCT025 SCT150 24/18 A3022 RMK AO2 SLP226 T02390183=
200506211451 METAR KATL 211451Z 16003KT 8SM FEW016 SCT100 BKN150 22/18 A3020 RMK AO2 SLP222 60000 T02170178 51015=
200506211351 METAR KATL 211351Z 00000KT 8SM FEW100 SCT150 SCT250 21/17 A3020 RMK AO2 SLP221 T02060167=
200506211251 METAR KATL 211251Z 00000KT 8SM FEW030 BKN100 BKN150 BKN210 18/16 A3018 RMK AO2 RAE1157 SLP215 P0000 T01830161=
200506211215 SPECI KATL 211215Z VRB03KT 9SM FEW010 SCT030 SCT110 BKN150 BKN210 18/16 A3017 RMK AO2 RAE1157 P0000=
200506211215 SPECI KATL 211215Z VRB03KT 9SM FEW010 SCT030 SCT110 BKN150 BKN210 18/16 A3017 RMK AO2 RAE1157 P0000=
200506211151 METAR KATL 211151Z 11008KT 9SM -RA BKN023 BKN110 BKN150 BKN210 17/16 A3016 RMK AO2 TSE24 SLP207 P0006 60024 70034 T01720156 10194 20172 50002=
200506211130 SPECI KATL 211130Z 08007KT 5SM -RA BR BKN029 BKN110 BKN150 BKN210 OVC250 17/16 A3017 RMK AO2 TSE24 P0004=
200506211130 SPECI KATL 211130Z 08007KT 5SM -RA BR BKN029 BKN110 BKN150 BKN210 OVC250 17/16 A3017 RMK AO2 TSE24 P0004=
200506211051 METAR KATL 211051Z COR 0904KT 6SM -TSRA BR FEW015 BKN032CB BKN080 BKN150 OVC210 18/16 A3017 RMK AO2 TSB08RAB03 SLP209 OCNL LTGICCC VC SE AND NW TS VC SE AND NW MOV SE P0018 T01780156=
200506211033 SPECI KATL 211033Z 05009KT 2SM -TSRA BR FEW010 BKN031CB OVC075 18/17 A3016 RMK AO2 TSB08RAB03 OCNL LTGICCC VC N-NE AND NW-N TS VC N-NE AND NW-N MOV SE P0017=
200506211033 SPECI KATL 211033Z 05009KT 2SM -TSRA BR FEW010 BKN031CB OVC075 18/17 A3016 RMK AO2 TSB08RAB03 OCNL LTGICCC VC N-NE AND NW-N TS VC N-NE AND NW-N MOV SE P0017=
200506211022 SPECI KATL 211022Z 02011KT 2SM TSRA BR SCT010 BKN017CB OVC075 18/17 A3018 RMK AO2 TSB08RAB03 OCNL LIGIC NW-N TS NW-N MOV SE P0016=
200506211022 SPECI KATL 211022Z 02011KT 2SM TSRA BR SCT010 BKN017CB OVC075 18/17 A3018 RMK AO2 TSB08RAB03 OCNL LIGIC NW-N TS NW-N MOV SE P0016=
200506211009 SPECI KATL 211009Z 32006KT 4SM TSRA BR SCT010 BKN017CB OVC075 18/17 A3018 RMK AO2 TSB08RAB03 OCNL LIGIC NW-N TS NW-N MOV SE P0002=
200506211009 SPECI KATL 211009Z 32006KT 4SM TSRA BR SCT010 BKN017CB OVC075 18/17 A3018 RMK AO2 TSB08RAB03 OCNL LIGIC NW-N TS NW-N MOV SE P0002=
200506210951 METAR KATL 210951Z 27009KT 6SM BR SCT010 BKN015 OVC120 18/17 A3017 RMK AO2 SLP209 LTG DSNT NW T01830167=
200506210851 METAR KATL 210851Z 07007KT 7SM BKN060 OVC110 18/16 A3015 RMK AO2 SLP203 T01830161 56004=
200506210751 METAR KATL 210751Z 05008KT 7SM BKN065 BKN080 OVC150 19/17 A3016 RMK AO2 SLP205 T01890167=
200506210651 METAR KATL 210651Z 07007KT 7SM FEW060 SCT070 OVC110 19/17 A3016 RMK AO2 SLP205 T01890167=
200506210551 METAR KATL 210551Z 09006KT 7SM BKN080 BKN110 OVC150 19/17 A3017 RMK AO2 SLP206 60008 T01940167 10228 20183 50000=
200506210451 METAR KATL 210451Z 08006KT 9SM FEW090 OVC120 19/18 A3017 RMK AO2 SLP209 T01940178 402720178=
200506210351 METAR KATL 210351Z 06009KT 8SM OVC100 21/17 A3017 RMK AO2 SLP210 T02060172=
200506210251 METAR KATL 210251Z 00000KT 9SM SCT100 OVC130 19/17 A3017 RMK AO2 SLP208 60008 T01940167 53015=
200506210151 METAR KATL 210151Z 00000KT 10SM FEW080 OVC120 19/17 A3013 RMK AO2 TSE28RAE49 SLP198 P0000 T01890167=
200506210128 SPECI KATL 210128Z 00000KT 10SM -RA FEW040 SCT080 BKN120 OVC150 18/16 A3013 RMK AO2 TSE28 LTG DSNT SE-S CB DSNT SE-S TS MOV SE P0000=
200506210128 SPECI KATL 210128Z 00000KT 10SM -RA FEW040 SCT080 BKN120 OVC150 18/16 A3013 RMK AO2 TSE28 LTG DSNT SE-S CB DSNT SE-S TS MOV SE P0000=
200506210051 METAR KATL 210051Z 07008KT 8SM -TSRA FEW025 BKN045CB BKN070 OVC150 19/15 A3011 RMK AO2 PRESFR SLP189 FRQ LTGICCGCA TS S-OHD MOV SE P0008 T01890150=
200506210020 SPECI KATL 210020Z 03013KT 3SM TSRA BR SCT025 BKN040CB OVC060 19/17 A3014 RMK AO2 FRQ LTGICCG TS SE-OHD-NW MOV SE VIS NE-SE 1 1/2 P0008=
200506210020 SPECI KATL 210020Z 03013KT 3SM TSRA BR SCT025 BKN040CB OVC060 19/17 A3014 RMK AO2 FRQ LTGICCG TS SE-OHD-NW MOV SE VIS NE-SE 1 1/2 P0008=
200506210010 SPECI KATL 210010Z 36013KT 1 1/2SM +TSRA SCT025 BKN040CB OVC100 21/17 A3013 RMK AO2 FRQ LTGICCG TS E-OHD-NW MOV SE P0000=
200506210010 SPECI KATL 210010Z 36013KT 1 1/2SM +TSRA SCT025 BKN040CB OVC100 21/17 A3013 RMK AO2 FRQ LTGICCG TS E-OHD-NW MOV SE P0000=
200506202351 METAR KATL 202351Z 34005KT 8SM -TSRA SCT040CB BKN065 BKN100 OVC150 23/17 A3012 RMK AO2 RAB07 SLP194 FRQ LTGCGIC TS N-E AND NW MOV SE P0002 60002 T02280167 10272 20211 53003=
200506202251 METAR KATL 202251Z 08004KT 10SM TS SCT050CB BKN080 BKN100 OVC250 26/14 A3011 RMK AO2 TSB41 SLP187 FRQ LTGCG TS N MOV S TS SW-NW MOV SE TCU NE AND SE T02560144=
200506202241 SPECI KATL 202241Z 09007KT 10SM TS FEW050CB SCT080 BKN100 BKN250 25/14 A3010 RMK AO2 TSB41 OCNL LTGCG TS VC N MOV S TS VC SW-W MOV SE=
200506202241 SPECI KATL 202241Z 09007KT 10SM TS FEW050CB SCT080 BKN100 BKN250 25/14 A3010 RMK AO2 TSB41 OCNL LTGCG TS VC N MOV S TS VC SW-W MOV SE=
200506202151 METAR KATL 202151Z 09005KT 10SM FEW050TCU SCT080 BKN250 26/14 A3011 RMK AO2 SLP189 TCU SW-W MDT CU N-NE T02560139 $=
200506202051 METAR KATL 202051Z 10007KT 10SM FEW050TCU SCT080 SCT250 27/14 A3011 RMK AO2 SLP189 TCU N-NE T02720144 56020 $=
200506201951 METAR KATL 201951Z VRB04KT 10SM FEW050TCU SCT080 SCT250 26/14 A3013 RMK AO2 SLP196 TCU N T02610144=
200506201851 METAR KATL 201851Z 14005KT 10SM FEW045TCU SCT055 SCT150 SCT250 26/14 A3015 RMK AO2 SLP201 TCU NW T02560144=
200506201751 METAR KATL 201751Z 08010KT 10SM FEW045TCU BKN055 BKN150 BKN250 27/15 A3017 RMK AO2 SLP209 TCU S-SW-W T02670150 10267 20183 58004=
200506201651 METAR KATL 201651Z 08009KT 9SM SCT040 BKN150 BKN250 25/15 A3019 RMK AO2 SLP214 T02500150=
200506201551 METAR KATL 201551Z 07005KT 9SM FEW030 SCT070 SCT150 24/17 A3019 RMK AO2 SLP215 T02440167=
200506201451 METAR KATL 201451Z 12006KT 8SM FEW070 SCT150 SCT250 23/16 A3019 RMK AO2 SLP214 T02280156 51012=
200506201351 METAR KATL 201351Z 07008KT 8SM FEW150 SCT200 21/16 A3018 RMK AO2 SLP211 T02110156=
200506201251 METAR KATL 201251Z 07010KT 8SM FEW150 SCT200 19/16 A3016 RMK AO2 SLP207 T01940156=
200506201151 METAR KATL 201151Z 06012KT 6SM HZ FEW200 18/15 A3015 RMK AO2 SLP202 T01830150 10200 20178 53015=
200506201051 METAR KATL 201051Z 06010KT 7SM FEW150 SCT200 18/15 A3013 RMK AO2 SLP197 T01780150 $=
200506200951 METAR KATL 200951Z 07009KT 10SM FEW200 18/14 A3011 RMK AO2 SLP189 T01780144 $=
200506200851 METAR KATL 200851Z 08008KT 10SM FEW120 SCT200 18/15 A3010 RMK AO2 SLP186 T01780150 51003 $=
200506200751 METAR KATL 200751Z 07008KT 9SM FEW120 SCT200 18/15 A3010 RMK AO2 SLP185 T01830150 $=
200506200651 METAR KATL 200651Z 08009KT 9SM FEW120 SCT200 19/16 A3010 RMK AO2 SLP184 T01890156 $=
200506200551 METAR KATL 200551Z COR 09006KT 10SM SCT120 SCT200 19/14 A3009 RMK AO2 SLP182 T01940144 10244 20194 51001 $=
200506200451 METAR KATL 200451Z 07004KT 10SM FEW110 21/14 A3009 RMK AO2 SLP181 T02110144 402720172 $=
200506200351 METAR KATL 200351Z 09005KT 10SM FEW110 21/14 A3009 RMK AO2 SLP183 T02110144 $=
200506200251 METAR KATL 200251Z 12005KT 10SM FEW055 23/14 A3009 RMK AO2 SLP181 T02280144 51018 $=
200506200151 METAR KATL 200151Z 09006KT 10SM CLR 23/14 A3007 RMK AO2 SLP176 T02280144 $=
200506200051 METAR KATL 200051Z 07009KT 10SM SCT180 24/15 A3006 RMK AO2 SLP171 T02390150 $=
200506192351 METAR KATL 192351Z 08009KT 10SM SCT090 SCT180 24/14 A3003 RMK AO2 SLP163 T02390144 10272 20239 53003 $=
200506192251 METAR KATL 192251Z 07009KT 10SM FEW055 SCT090 26/14 A3003 RMK AO2 SLP162 T02560139 $=
200506192151 METAR KATL 192151Z COR 09007KT 050V120 10SM SCT060 27/14 A3002 RMK AO2 SLP158 T02670139 $=
200506192051 METAR KATL 192051Z 10012G20KT 10SM SCT055 SCT090 27/13 A3003 RMK AO2 SLP160 T02720133 58006 $=
200506191951 METAR KATL 191951Z 12007KT 10SM BKN050 26/13 A3003 RMK AO2 SLP163 T02610128 $=
200506191851 METAR KATL 191851Z 08010KT 10SM SCT041 BKN050 26/14 A3004 RMK AO2 SLP166 T02560144 $=
200506191751 METAR KATL 191751Z 09012KT 9SM BKN035 BKN039 26/15 A3004 RMK AO2 SLP166 T02610150 10261 20183 58000 $=
200506191705 SPECI KATL 191705Z 11009KT 10SM BKN029 BKN035 25/16 A3004 RMK AO2 $=
200506191705 SPECI KATL 191705Z 11009KT 10SM BKN029 BKN035 25/16 A3004 RMK AO2 $=
200506191658 SPECI KATL 191658Z 10011KT 10SM BKN031 BKN050 25/16 A3004 RMK AO2 $=
200506191658 SPECI KATL 191658Z 10011KT 10SM BKN031 BKN050 25/16 A3004 RMK AO2 $=
200506191651 METAR KATL 191651Z 09012KT 10SM BKN029 BKN035 24/17 A3005 RMK AO2 SLP167 T02440167 $=
200506191551 METAR KATL 191551Z 08012KT 10SM BKN025 BKN031 23/17 A3005 RMK AO2 SLP166 T02330172 $=
200506191505 SPECI KATL 191505Z 07010KT 10SM BKN021 OVC031 22/17 A3004 RMK AO2 $=
200506191505 SPECI KATL 191505Z 07010KT 10SM BKN021 OVC031 22/17 A3004 RMK AO2 $=
200506191451 METAR KATL 191451Z 08009KT 10SM SCT029 BKN050 BKN150 22/17 A3004 RMK AO2 SLP166 T02170167 51015 $=
200506191423 SPECI KATL 191423Z 07010KT 10SM SCT029 BKN048 21/16 A3004 RMK AO2 $=
200506191423 SPECI KATL 191423Z 07010KT 10SM SCT029 BKN048 21/16 A3004 RMK AO2 $=
200506191351 METAR KATL 191351Z 07014KT 10SM BKN022 BKN027 OVC045 21/15 A3003 RMK AO2 SLP162 T02060150 $=
200506191251 METAR KATL 191251Z 06012KT 10SM BKN026 BKN036 19/14 A3002 RMK AO2 SLP157 T01890144 $=
200506191151 METAR KATL 191151Z 07009KT 10SM SCT044 18/14 A3000 RMK AO2 SLP150 T01830144 10189 20172 51021 $=
200506191051 METAR KATL 191051Z 06010KT 9SM BKN034 18/15 A2998 RMK AO2 SLP145 T01780150 $=
200506190951 METAR KATL 190951Z 05008KT 9SM FEW180 17/15 A2996 RMK AO2 SLP136 T01720150 $=
200506190851 METAR KATL 190851Z 03009KT 10SM CLR 18/15 A2994 RMK AO2 SLP128 T01780150 53002 $=
200506190751 METAR KATL 190751Z 07007KT 10SM CLR 17/15 A2993 RMK AO2 SLP124 T01720150 $=
200506190651 METAR KATL 190651Z 06011KT 10SM CLR 18/15 A2993 RMK AO2 SLP126 T01780150 $=
200506190551 METAR KATL 190551Z 06012KT 10SM CLR 19/14 A2993 RMK AO2 SLP127 T01890144 10261 20189 53006 $=
200506190451 METAR KATL 190451Z 04010KT 10SM CLR 20/14 A2992 RMK AO2 SLP122 T02000144 402890167 $=
200506190351 METAR KATL 190351Z 05008KT 10SM CLR 21/14 A2991 RMK AO2 SLP119 T02110144 $=
200506190251 METAR KATL 190251Z 04012KT 10SM FEW070 22/14 A2991 RMK AO2 WSHFT 0147 SLP120 T02220139 53019 $=
200506190207 SPECI KATL 190207Z 03014KT 10SM SCT080 24/13 A2990 RMK AO2 WSHFT 0147 $=
200506190207 SPECI KATL 190207Z 03014KT 10SM SCT080 24/13 A2990 RMK AO2 WSHFT 0147 $=
200506190151 METAR KATL 190151Z 05014KT 10SM BKN075 24/13 A2989 RMK AO2 SLP112 T02440128 $=
200506190051 METAR KATL 190051Z 31007KT 10SM FEW075 25/12 A2987 RMK AO2 SLP107 T02500122 $=
200506182351 METAR KATL 182351Z 29009KT 10SM SCT070 26/11 A2986 RMK AO2 SLP101 T02610106 10289 20261 53005 $=
200506182251 METAR KATL 182251Z 29008KT 10SM FEW070 27/11 A2984 RMK AO2 SLP096 TCU DSNT NE T02720111 $=
200506182151 METAR KATL 182151Z 32006KT 10SM SCT050 28/12 A2984 RMK AO2 SLP095 T02830117 $=
200506182051 METAR KATL 182051Z VRB06KT 10SM BKN070 28/12 A2984 RMK AO2 SLP095 T02830122 58007 $=
200506181951 METAR KATL 181951Z 01009KT 10SM SCT100 29/11 A2985 RMK AO2 SLP099 T02890111 $=
200506181851 METAR KATL 181851Z VRB03KT 10SM FEW100 28/11 A2985 RMK AO2 SLP099 T02830111 $=
200506181751 METAR KATL 181751Z VRB04KT 10SM FEW100 27/09 A2986 RMK AO2 SLP102 T02670094 10278 20183 58007 $=
200506181651 METAR KATL 181651Z VRB04KT 10SM FEW130 26/09 A2988 RMK AO2 SLP107 T02610089=
200506181551 METAR KATL 181551Z 30009KT 10SM CLR 26/09 A2988 RMK AO2 SLP108 T02560089=
200506181451 METAR KATL 181451Z 28007KT 260V320 10SM FEW200 24/12 A2988 RMK AO2 SLP109 T02440122 50005=
200506181351 METAR KATL 181351Z 30006KT 10SM FEW200 23/12 A2988 RMK AO2 SLP111 T02280122=
200506181251 METAR KATL 181251Z 31005KT 10SM FEW250 20/13 A2988 RMK AO2 SLP110 T02000133=
200506181151 METAR KATL 181151Z 31005KT 10SM FEW250 18/13 A2986 RMK AO2 SLP105 T01830128 10217 20167 51011=
200506181051 METAR KATL 181051Z 32006KT 10SM SCT250 17/12 A2986 RMK AO2 SLP103 T01670122 $=
200506180951 METAR KATL 180951Z 32007KT 10SM BKN180 18/13 A2984 RMK AO2 SLP097 T01780128=
200506180851 METAR KATL 180851Z 31007KT 10SM SCT150 BKN200 18/13 A2983 RMK AO2 SLP093 T01780133 58001=
200506180751 METAR KATL 180751Z 29005KT 10SM SCT012 OVC200 18/13 A2983 RMK AO2 SLP093 T01830133=
200506180651 METAR KATL 180651Z 31004KT 10SM FEW150 OVC200 19/13 A2983 RMK AO2 SLP093 T01940133=
200506180551 METAR KATL 180551Z 35004KT 10SM OVC200 22/11 A2983 RMK AO2 SLP092 T02170111 10244 20206 58005=
200506180451 METAR KATL 180451Z 32004KT 10SM SCT150 OVC200 21/12 A2984 RMK AO2 SLP096 T02110122 402780183=
200506180351 METAR KATL 180351Z 32006KT 10SM SCT150 BKN200 22/12 A2985 RMK AO2 SLP097 T02170117=
200506180251 METAR KATL 180251Z 31007KT 10SM FEW200 BKN250 22/12 A2985 RMK AO2 SLP099 T02170117 53013=
200506180151 METAR KATL 180151Z 29007KT 10SM FEW150 SCT200 BKN250 22/12 A2983 RMK AO2 SLP095 T02220122=
200506180051 METAR KATL 180051Z 28006KT 10SM FEW150 SCT200 BKN250 23/12 A2982 RMK AO2 SLP091 T02280117=
200506172351 METAR KATL 172351Z 27008KT 10SM SCT200 BKN250 24/12 A2981 RMK AO2 SLP087 T02440117 10278 20244 55001=
200506172251 METAR KATL 172251Z 29008KT 10SM BKN200 BKN250 27/09 A2981 RMK AO2 SLP085 T02670094=
200506172151 METAR KATL 172151Z 29009KT 10SM FEW200 BKN250 28/08 A2980 RMK AO2 SLP083 T02780083=
200506172051 METAR KATL 172051Z 29010KT 10SM BKN200 28/09 A2981 RMK AO2 SLP086 T02780089 58010=
200506171951 METAR KATL 171951Z 27009KT 240V310 10SM FEW070 BKN250 28/09 A2983 RMK AO2 SLP090 T02780089=
200506171851 METAR KATL 171851Z 29010KT 10SM FEW075 SCT250 28/08 A2983 RMK AO2 SLP091 T02780078=
200506171751 METAR KATL 171751Z 28008KT 240V310 10SM FEW060 SCT100 SCT250 27/12 A2984 RMK AO2 SLP096 T02670117 10267 20189 58004=
200506171651 METAR KATL 171651Z 36007KT 10SM FEW055 SCT100 SCT250 26/12 A2985 RMK AO2 SLP099 ACC DSNT S T02610117=
200506171551 METAR KATL 171551Z VRB06KT 10SM FEW040 SCT100 SCT150 BKN250 25/14 A2985 RMK AO2 SLP099 ACC SW T02500139=
200506171451 METAR KATL 171451Z 30005KT 10SM FEW090 SCT120 BKN150 BKN250 22/15 A2985 RMK AO2 SLP101 T02220150 51007=
200506171351 METAR KATL 171351Z VRB04KT 10SM FEW120 BKN150 BKN250 21/15 A2985 RMK AO2 SLP101 T02060150=
200506171251 METAR KATL 171251Z 29005KT 10SM BKN130 BKN180 BKN230 20/14 A2985 RMK AO2 SLP100 T02000144=
200506171151 METAR KATL 171151Z 27004KT 10SM BKN130 BKN180 BKN230 19/15 A2983 RMK AO2 SLP092 T01890150 10211 20183 53007=
200506171051 METAR KATL 171051Z 31006KT 10SM BKN180 BKN230 19/16 A2981 RMK AO2 SLP086 T01890156=
200506170951 METAR KATL 170951Z 29005KT 10SM BKN200 19/16 A2980 RMK AO2 SLP082 T01890156=
200506170851 METAR KATL 170851Z 31007KT 10SM BKN200 21/16 A2981 RMK AO2 SLP084 T02060156 55000=
200506170751 METAR KATL 170751Z 33006KT 10SM SCT200 21/16 A2980 RMK AO2 SLP082 T02060156=
200506170651 METAR KATL 170651Z 32007KT 10SM SCT200 21/16 A2981 RMK AO2 SLP084 T02060156=
200506170551 METAR KATL 170551Z 32008KT 10SM FEW150 21/16 A2981 RMK AO2 SLP084 T02110156 10272 20211 58006=
200506170451 METAR KATL 170451Z 31007KT 10SM FEW150 22/16 A2982 RMK AO2 SLP089 T02220156 403060194=
200506170351 METAR KATL 170351Z 31006KT 10SM SCT150 23/16 A2983 RMK AO2 SLP091 T02280161=
200506170251 METAR KATL 170251Z 30005KT 10SM SCT150 23/16 A2983 RMK AO2 SLP090 T02330156 53010=
200506170151 METAR KATL 170151Z 31007KT 10SM FEW050 25/16 A2981 RMK AO2 SLP085 T02500156=
200506170051 METAR KATL 170051Z 30006KT 10SM FEW060 26/15 A2981 RMK AO2 SLP084 T02610150=
200506162351 METAR KATL 162351Z 30009KT 10SM FEW065 SCT250 27/15 A2980 RMK AO2 SLP081 T02720150 10306 20272 55003=
200506162251 METAR KATL 162251Z 28012KT 10SM FEW065 SCT250 28/14 A2979 RMK AO2 SLP079 T02830139=
200506162151 METAR KATL 162151Z 30012KT 10SM SCT065 SCT250 29/13 A2979 RMK AO2 SLP080 T02890133=
200506162051 METAR KATL 162051Z 30012KT 10SM FEW060 BKN250 29/14 A2981 RMK AO2 SLP082 T02940144 56019=
200506161951 METAR KATL 161951Z 33015G20KT 10SM FEW060 SCT250 30/14 A2983 RMK AO2 SLP089 T03000144=
200506161921 SPECI KATL 161921Z 31015KT 10SM FEW060 SCT250 30/15 A2983 RMK AO2=
200506161921 SPECI KATL 161921Z 31015KT 10SM FEW060 SCT250 30/15 A2983 RMK AO2=
200506161851 METAR KATL 161851Z 28013KT 10SM FEW060 SCT250 29/16 A2984 RMK AO2 SLP093 T02940156=
200506161751 METAR KATL 161751Z 28013KT 10SM SCT055 SCT250 29/16 A2986 RMK AO2 SLP102 T02940161 10294 20211 58009=
200506161651 METAR KATL 161651Z 32014KT 10SM SCT055 28/16 A2988 RMK AO2 SLP109 T02830156=
200506161551 METAR KATL 161551Z 29013KT 10SM FEW050 SCT250 28/14 A2989 RMK AO2 SLP110 T02780144=
200506161451 METAR KATL 161451Z VRB06KT 10SM CLR 27/15 A2989 RMK AO2 SLP111 T02670150 50000=
200506161351 METAR KATL 161351Z 29005KT 10SM CLR 26/16 A2989 RMK AO2 SLP113 T02560161=
200506161251 METAR KATL 161251Z 29008KT 10SM CLR 23/17 A2989 RMK AO2 SLP112 T02280167=
200506161151 METAR KATL 161151Z 30007KT 10SM CLR 21/16 A2989 RMK AO2 SLP111 T02110161 10217 20194 53012=
200506161051 METAR KATL 161051Z 30007KT 10SM FEW210 19/16 A2987 RMK AO2 SLP104 T01940156=
200506160951 METAR KATL 160951Z 30007KT 10SM FEW200 19/16 A2986 RMK AO2 SLP099 T01940156=
200506160851 METAR KATL 160851Z 30007KT 10SM CLR 20/16 A2985 RMK AO2 SLP097 T02000161 55004=
200506160751 METAR KATL 160751Z 30007KT 10SM CLR 21/16 A2985 RMK AO2 SLP096 T02060161=
200506160651 METAR KATL 160651Z 29006KT 10SM CLR 21/16 A2986 RMK AO2 SLP099 T02110161=
200506160551 METAR KATL 160551Z 29005KT 10SM CLR 22/16 A2987 RMK AO2 SLP102 T02170161 10289 20217 58002=
200506160451 METAR KATL 160451Z 30006KT 10SM FEW050 23/16 A2988 RMK AO2 SLP106 T02280161 403220228=
200506160351 METAR KATL 160351Z 29006KT 10SM FEW050 23/16 A2988 RMK AO2 SLP106 T02330161=
200506160251 METAR KATL 160251Z 29006KT 10SM FEW050 24/17 A2987 RMK AO2 SLP104 T02440167 53010=
200506160151 METAR KATL 160151Z 30007KT 10SM CLR 26/16 A2986 RMK AO2 SLP100 T02560161=
200506160051 METAR KATL 160051Z 30008KT 10SM FEW050 27/16 A2985 RMK AO2 SLP097 T02720161=
200506152351 METAR KATL 152351Z 28010KT 10SM FEW060 29/15 A2984 RMK AO2 SLP094 T02890150 10322 20289 55000=
200506152251 METAR KATL 152251Z 29008KT 10SM FEW060 SCT250 31/17 A2983 RMK AO2 SLP091 T03060172=
200506152151 METAR KATL 152151Z 27012KT 10SM FEW065 SCT250 31/17 A2984 RMK AO2 SLP092 T03110172=
200506152051 METAR KATL 152051Z 28014KT 10SM FEW060 SCT250 32/18 A2984 RMK AO2 SLP093 T03170178 58015=
200506151951 METAR KATL 151951Z 26012KT 10SM FEW060 SCT250 31/17 A2986 RMK AO2 SLP100 T03110172=
200506151851 METAR KATL 151851Z 26011G17KT 10SM FEW055 SCT250 32/19 A2988 RMK AO2 SLP104 T03170194=
200506151751 METAR KATL 151751Z 25012KT 10SM FEW055 SCT250 32/19 A2989 RMK AO2 SLP109 T03170189 10317 20239 58010=
200506151651 METAR KATL 151651Z 29008KT 10SM FEW045 31/19 A2991 RMK AO2 SLP114 T03060194=
200506151551 METAR KATL 151551Z 28008KT 240V310 10SM FEW040 SCT250 29/20 A2991 RMK AO2 SLP117 T02940200=
200506151451 METAR KATL 151451Z 28008KT 10SM FEW040 SCT250 29/19 A2992 RMK AO2 SLP119 T02890189 50001=
200506151351 METAR KATL 151351Z 31006KT 10SM FEW250 27/22 A2993 RMK AO2 SLP123 T02720217=
200506151251 METAR KATL 151251Z 29007KT 10SM FEW230 26/22 A2992 RMK AO2 SLP122 T02560217=
200506151151 METAR KATL 151151Z 30006KT 10SM FEW230 24/22 A2992 RMK AO2 SLP119 T02390217 10256 20233 53005 $=
200506151051 METAR KATL 151051Z 29007KT 10SM FEW230 23/21 A2990 RMK AO2 SLP114 T02330211=
200506150951 METAR KATL 150951Z 29008KT 10SM FEW200 23/21 A2990 RMK AO2 SLP113 T02330211=
200506150851 METAR KATL 150851Z 28006KT 10SM CLR 23/21 A2990 RMK AO2 SLP113 T02330211 56004=
200506150751 METAR KATL 150751Z 26006KT 10SM CLR 24/21 A2990 RMK AO2 SLP114 T02390211=
200506150651 METAR KATL 150651Z 27007KT 10SM CLR 24/21 A2991 RMK AO2 SLP114 T02390211=
200506150551 METAR KATL 150551Z 26007KT 9SM CLR 26/21 A2991 RMK AO2 SLP117 T02560211 10294 20256 58004=
200506150451 METAR KATL 150451Z 25004KT 10SM CLR 26/21 A2992 RMK AO2 SLP121 T02610206 403170222=
200506150351 METAR KATL 150351Z 00000KT 9SM FEW250 27/20 A2993 RMK AO2 SLP123 T02670200=
200506150251 METAR KATL 150251Z 24003KT 10SM CLR 27/20 A2992 RMK AO2 SLP121 T02670200 52010=
200506150151 METAR KATL 150151Z 25005KT 10SM CLR 27/20 A2992 RMK AO2 SLP118 T02720200=
200506150051 METAR KATL 150051Z 26005KT 10SM CLR 28/20 A2990 RMK AO2 SLP114 T02780200=
200506142351 METAR KATL 142351Z 26006KT 10SM CLR 29/19 A2989 RMK AO2 SLP111 T02940194 10317 20294 55003=
200506142251 METAR KATL 142251Z 26009KT 10SM FEW045 31/20 A2989 RMK AO2 SLP110 MDT CU VC NW T03060200=
200506142151 METAR KATL 142151Z 27010KT 10SM FEW050 31/21 A2989 RMK AO2 SLP110 T03110206=
200506142051 METAR KATL 142051Z 25008KT 9SM FEW050 32/20 A2990 RMK AO2 SLP115 MDT CU E-SE T03170200 56013=
200506141951 METAR KATL 141951Z 29008KT 8SM FEW045 32/21 A2991 RMK AO2 SLP117 T03170206=
200506141851 METAR KATL 141851Z 30012G15KT 8SM FEW045 31/21 A2993 RMK AO2 SLP124 T03110206=
200506141751 METAR KATL 141751Z 30008KT 8SM SCT045 31/20 A2994 RMK AO2 SLP128 T03110200 10317 20239 58007 $=
200506141651 METAR KATL 141651Z VRB05KT 8SM SCT040 31/19 A2996 RMK AO2 SLP133 T03060194=
200506141551 METAR KATL 141551Z 00000KT 10SM SCT035 29/20 A2996 RMK AO2 SLP134 T02940200=
200506141451 METAR KATL 141451Z 31005KT 10SM FEW030 29/21 A2997 RMK AO2 SLP135 T02890211 58000=
200506141351 METAR KATL 141351Z 28006KT 10SM FEW020 28/21 A2996 RMK AO2 SLP134 T02780211=
200506141251 METAR KATL 141251Z 30006KT 9SM CLR 26/21 A2997 RMK AO2 SLP138 T02610211=
200506141151 METAR KATL 141151Z 31005KT 10SM CLR 24/21 A2997 RMK AO2 SLP136 T02390211 10244 20222 53007=
200506141051 METAR KATL 141051Z 30006KT 10SM FEW039 23/21 A2996 RMK AO2 SLP134 T02280206=
200506140951 METAR KATL 140951Z 30006KT 7SM FEW038 22/21 A2995 RMK AO2 SLP130 T02220206=
200506140851 METAR KATL 140851Z 29006KT 7SM CLR 23/21 A2995 RMK AO2 SLP130 T02280211 53006=
200506140751 METAR KATL 140751Z 28006KT 8SM CLR 23/21 A2994 RMK AO2 SLP128 T02330211=
200506140651 METAR KATL 140651Z 28005KT 9SM CLR 23/21 A2993 RMK AO2 SLP125 T02330211=
200506140551 METAR KATL 140551Z 00000KT 8SM FEW250 24/22 A2993 RMK AO2 SLP123 T02440217 10289 20244 55000=
200506140451 METAR KATL 140451Z 00000KT 10SM FEW250 25/22 A2992 RMK AO2 SLP121 T02500217 403110211=
200506140351 METAR KATL 140351Z 00000KT 10SM FEW250 26/22 A2993 RMK AO2 SLP124 T02560217=
200506140251 METAR KATL 140251Z 15003KT 10SM FEW050 26/22 A2993 RMK AO2 SLP123 T02610217 51003=
200506140151 METAR KATL 140151Z 24003KT 10SM FEW040 27/21 A2992 RMK AO2 SLP122 T02720211=
200506140051 METAR KATL 140051Z 27004KT 10SM FEW040TCU SCT060 27/21 A2993 RMK AO2 SLP124 TCU VC NE CB DSNT SE T02720211=
200506132351 METAR KATL 132351Z 28006KT 10SM FEW040TCU 29/21 A2992 RMK AO2 SLP121 TCU NE AND E-SE T02890206 10311 20289 55002=
200506132251 METAR KATL 132251Z 28006KT 10SM FEW040TCU SCT060 29/21 A2991 RMK AO2 SLP119 TCU VC NE-SE AND DSNT SW-NW T02940206=
200506132151 METAR KATL 132151Z 30008KT 10SM SCT045TCU SCT060 31/20 A2992 RMK AO2 SLP119 TCU E-SE AND VC SW-NW MDT CU ALQDS T03060200=
200506132051 METAR KATL 132051Z VRB06KT 10SM FEW040 31/21 A2992 RMK AO2 SLP122 MDT CU ALQDS T03060206 58017=
200506131951 METAR KATL 131951Z 32007KT 280V010 10SM SCT040 30/20 A2994 RMK AO2 SLP128 MDT CU ALQDS T03000200=
200506131851 METAR KATL 131851Z 00000KT 10SM SCT040TCU 29/19 A2996 RMK AO2 SLP135 TCU SE AND NW MDT CU ALQDS T02940189=
200506131751 METAR KATL 131751Z 27006KT 10SM FEW040TCU SCT060 29/20 A2998 RMK AO2 SLP139 TCU VC S-SW AND DSNT NW MDT CU ALQDS T02940200 10294 20222 58009=
200506131651 METAR KATL 131651Z 29007KT 10SM FEW040 SCT060 28/20 A2999 RMK AO2 SLP144 MDT CU ALQDS T02780200=
200506131551 METAR KATL 131551Z VRB05KT 10SM SCT028 28/21 A3000 RMK AO2 SLP146 MDT CU ALQDS T02780211=
200506131534 SPECI KATL 131534Z 32005KT 10SM SCT028 SCT150 SCT250 27/21 A3000 RMK AO2=
200506131534 SPECI KATL 131534Z 32005KT 10SM SCT028 SCT150 SCT250 27/21 A3000 RMK AO2=
200506131451 METAR KATL 131451Z 32007KT 10SM FEW025 SCT150 SCT250 27/21 A3000 RMK AO2 SLP150 T02670211 50001=
200506131351 METAR KATL 131351Z 32007KT 10SM FEW020 SCT200 26/21 A3001 RMK AO2 SLP152 T02560206=
200506131251 METAR KATL 131251Z 32005KT 10SM FEW200 24/21 A3000 RMK AO2 SLP150 T02390206=
200506131151 METAR KATL 131151Z COR 31004KT 10SM FEW150 22/20 A3000 RMK AO2 SLP148 70024 T02220200 10233 20211 53014=
200506131051 METAR KATL 131051Z 30003KT 9SM FEW055 SCT150 21/20 A2998 RMK AO2 SLP143 T02110200=
200506130951 METAR KATL 130951Z 29004KT 10SM SCT055 BKN150 22/21 A2996 RMK AO2 SLP135 T02170206=
200506130851 METAR KATL 130851Z 29004KT 10SM BKN006 BKN016 22/21 A2996 RMK AO2 CIG 003V009 SLP134 T02220211 53005=
200506130824 SPECI KATL 130824Z 26005KT 8SM SCT004 BKN016 BKN070 23/22 A2995 RMK AO2=
200506130824 SPECI KATL 130824Z 26005KT 8SM SCT004 BKN016 BKN070 23/22 A2995 RMK AO2=
200506130758 SPECI KATL 130758Z 25004KT 8SM BKN002 23/22 A2995 RMK AO2=
200506130758 SPECI KATL 130758Z 25004KT 8SM BKN002 23/22 A2995 RMK AO2=
200506130751 METAR KATL 130751Z 22003KT 8SM FEW019 BKN055 BKN075 23/22 A2995 RMK AO2 SLP131 T02280222=
200506130651 METAR KATL 130651Z 21005KT 10SM FEW019 SCT055 SCT075 23/22 A2994 RMK AO2 SLP129 T02280217=
200506130551 METAR KATL 130551Z 20006KT 10SM FEW019 BKN060 23/22 A2994 RMK AO2 SLP129 60014 T02330217 10272 20233 58000=
200506130501 SPECI KATL 130501Z 21003KT 10SM FEW006 BKN065 OVC085 23/22 A2995 RMK AO2=
200506130501 SPECI KATL 130501Z 21003KT 10SM FEW006 BKN065 OVC085 23/22 A2995 RMK AO2=
200506130451 METAR KATL 130451Z 20004KT 10SM FEW009 BKN023 BKN085 23/22 A2995 RMK AO2 RAE06 SLP131 P0000 T02330222 402940222=
200506130351 METAR KATL 130351Z 18008KT 10SM -RA SCT008 OVC060 24/23 A2994 RMK AO2 RAB51 SLP128 P0000 T02390228=
200506130323 SPECI KATL 130323Z 16004KT 10SM SCT008 BKN046 OVC060 24/23 A2994 RMK AO2=
200506130323 SPECI KATL 130323Z 16004KT 10SM SCT008 BKN046 OVC060 24/23 A2994 RMK AO2=
200506130251 METAR KATL 130251Z 17004KT 10SM BKN008 BKN013 OVC070 24/23 A2994 RMK AO2 RAB11E45 SLP130 P0003 60014 T02390228 51018=
200506130151 METAR KATL 130151Z 16008KT 10SM BKN012 BKN026 OVC050 24/22 A2994 RMK AO2 RAB09E41 SLP130 P0011 T02440222=
200506130051 METAR KATL 130051Z 16008KT 10SM SCT031 BKN050 BKN065 26/22 A2992 RMK AO2 SLP121 T02560217=
200506122351 METAR KATL 122351Z 14009KT 10SM SCT026 BKN034 BKN140 27/22 A2989 RMK AO2 SLP110 TCU DSNT S-SW 60008 T02720217 10294 20239 55000=
200506122251 METAR KATL 122251Z 16008KT 10SM FEW026 BKN034 BKN140 28/23 A2988 RMK AO2 SLP108 T02830228=
200506122151 METAR KATL 122151Z 15008KT 10SM BKN030TCU BKN038 28/22 A2989 RMK AO2 SLP109 TCU NE-E T02830222=
200506122140 SPECI KATL 122140Z 15010KT 10SM BKN031 BKN038 29/22 A2989 RMK AO2=
200506122140 SPECI KATL 122140Z 15010KT 10SM BKN031 BKN038 29/22 A2989 RMK AO2=
200506122131 SPECI KATL 122131Z 16009KT 10SM BKN029 29/22 A2989 RMK AO2=
200506122131 SPECI KATL 122131Z 16009KT 10SM BKN029 29/22 A2989 RMK AO2=
200506122051 METAR KATL 122051Z 16010KT 10SM SCT028CB BKN034 BKN140 BKN250 28/22 A2989 RMK AO2 TSB08E21 SLP109 TS DISPTD CB VC NE-E-SE-S-SW MOV N CB DSNT N AND DSNT NW 60008 T02830217 58008=
200506122022 SPECI KATL 122022Z 16007KT 10SM FEW024CB SCT070 SCT140 BKN250 28/23 A2990 RMK AO2 TSB08E21 TS DISPTD CB VC NE-E-SE-S-SW MOV N CB DSNT N AND DSNT NW=
200506122022 SPECI KATL 122022Z 16007KT 10SM FEW024CB SCT070 SCT140 BKN250 28/23 A2990 RMK AO2 TSB08E21 TS DISPTD CB VC NE-E-SE-S-SW MOV N CB DSNT N AND DSNT NW=
200506122011 SPECI KATL 122011Z 19008KT 10SM TS FEW024CB SCT070 SCT140 BKN250 28/23 A2990 RMK AO2 TSB08 OCNL LTGICCG TS VC E-SE MOV N CB VC NE-E-SE-S-SW MOV N CB DSNT N AND DSNT NW=
200506122011 SPECI KATL 122011Z 19008KT 10SM TS FEW024CB SCT070 SCT140 BKN250 28/23 A2990 RMK AO2 TSB08 OCNL LTGICCG TS VC E-SE MOV N CB VC NE-E-SE-S-SW MOV N CB DSNT N AND DSNT NW=
200506121951 METAR KATL 121951Z 20008KT 10SM SCT024CB SCT065 BKN140 BKN250 27/23 A2990 RMK AO2 RAE23 SLP115 CB VC ALQDS MOV N SHRA VC SE P0000 T02670228=
200506121851 METAR KATL 121851Z 20011G14KT 10SM -RA FEW010 SCT024CB BKN055 BKN140 BKN250 24/23 A2991 RMK AO2 PK WND 20028/1830 WSHFT 1823 TSE1757B34E50RAB30 SLP120 TS MOV N CB N-NE-E AND S MOV N CB DSNT SW P0008 T02440228=
200506121839 SPECI KATL 121839Z 23009G28KT 5SM R09R/2200VP6000FT TSRA BR FEW008 BKN024CB BKN050 BKN140 BKN250 24/22 A2992 RMK AO2 PK WND 20028/1830 WSHFT 1823 TSE1757B34RAB30 OCNL LTGICCG TS N-OHD-S MOV N CB DSNT NE-E P0008=
200506121839 SPECI KATL 121839Z 23009G28KT 5SM R09R/2200VP6000FT TSRA BR FEW008 BKN024CB BKN050 BKN140 BKN250 24/22 A2992 RMK AO2 PK WND 20028/1830 WSHFT 1823 TSE1757B34RAB30 OCNL LTGICCG TS N-OHD-S MOV N CB DSNT NE-E P0008=
200506121835 SPECI KATL 121835Z 23011G28KT 1SM R09R/2200VP6000FT +TSRA BR FEW008 BKN024CB BKN050 BKN140 BKN250 24/22 A2992 RMK AO2 PK WND 20028/1830 TSE1757B34RAB30 OCNL LTGICCG TS N-OHD-S MOV N CB DSNT NE-E P0007=
200506121835 SPECI KATL 121835Z 23011G28KT 1SM R09R/2200VP6000FT +TSRA BR FEW008 BKN024CB BKN050 BKN140 BKN250 24/22 A2992 RMK AO2 PK WND 20028/1830 TSE1757B34RAB30 OCNL LTGICCG TS N-OHD-S MOV N CB DSNT=
200506121832 SPECI KATL 121832Z 22015G28KT 1SM R09R/2200VP6000FT +RA FEW008 BKN024CB BKN050 BKN140 BKN250 26/22 A2992 RMK AO2 PK WND 20028/1830 TSE1757RAB30 CB N-OHD-S MOV N CB DSNT NE-E P0001=
200506121832 SPECI KATL 121832Z 22015G28KT 1SM R09R/2200VP6000FT +RA FEW008 BKN024CB BKN050 BKN140 BKN250 26/22 A2992 RMK AO2 PK WND 20028/1830 TSE1757RAB30 CB N-OHD-S MOV N CB DSNT NE-E P0001=
200506121807 SPECI KATL 121807Z 17012G19KT 10SM SCT022CB BKN050 BKN140 BKN250 28/22 A2990 RMK AO2 TSE1757 CB SW-W-NW MOV N CB DSNT NE-E=
200506121807 SPECI KATL 121807Z 17012G19KT 10SM SCT022CB BKN050 BKN140 BKN250 28/22 A2990 RMK AO2 TSE1757 CB SW-W-NW MOV N CB DSNT NE-E=
200506121759 SPECI KATL 121759Z 16015G19KT 10SM BKN022CB BKN050 BKN140 BKN250 28/22 A2991 RMK AO2 TSE57 TS MOV N CB SW-W-NW MOV N CB DSNT=
200506121759 SPECI KATL 121759Z 16015G19KT 10SM BKN022CB BKN050 BKN140 BKN250 28/22 A2991 RMK AO2 TSE57 TS MOV N CB SW-W-NW MOV N CB DSNT NE-E=
200506121751 METAR KATL 121751Z 16012G21KT 10SM TS BKN022CB BKN055 BKN140 BKN250 28/22 A2991 RMK AO2 TSB30 SLP119 OCNL LTGCG TS NW MOV N CB SW-W-NW MOV N CB DSNT NE-E 60000 T02780222 10278 20233 58003=
200506121732 SPECI KATL 121732Z 17014G20KT 10SM TS SCT020CB BKN050 BKN140 BKN250 27/22 A2991 RMK AO2 TSB30 OCNL LTGCG TS W MOV N CB SW-W-NW MOV N CB DSNT NE-E-SE=
200506121732 SPECI KATL 121732Z 17014G20KT 10SM TS SCT020CB BKN050 BKN140 BKN250 27/22 A2991 RMK AO2 TSB30 OCNL LTGCG TS W MOV N CB SW-W-NW MOV N CB DSNT NE-E-SE=
200506121651 METAR KATL 121651Z 16008KT 10SM SCT020CB BKN050 BKN140 BKN250 26/22 A2992 RMK AO2 SLP122 CB VC NE-E-SE AND VC SW-W-NW MOV NE T02560222=
200506121556 SPECI KATL 121556Z 17010KT 10SM BKN020 BKN045 OVC100 26/22 A2992 RMK AO2 MDT CU OHD AND ALQDS BINOVC=
200506121556 SPECI KATL 121556Z 17010KT 10SM BKN020 BKN045 OVC100 26/22 A2992 RMK AO2 MDT CU OHD AND ALQDS BINOVC=
200506121551 METAR KATL 121551Z 16012KT 10SM SCT018 BKN031 OVC040 26/22 A2992 RMK AO2 SLP123 BINOVC T02560222=
200506121500 SPECI KATL 121500Z 17010KT 10SM BKN012 BKN040 OVC100 24/22 A2992 RMK AO2 BINOVC=
200506121500 SPECI KATL 121500Z 17010KT 10SM BKN012 BKN040 OVC100 24/22 A2992 RMK AO2 BINOVC=
200506121451 METAR KATL 121451Z 17011KT 2SM BKN012 BKN040 OVC100 24/22 A2992 RMK AO2 SFC VIS 10 RAB40E46 SLP123 BINOVC P0000 60000 T02440222 51009=
200506121351 METAR KATL 121351Z 16013G18KT 2SM BKN010 BKN045 OVC100 24/22 A2991 RMK AO2 SFC VIS 10 RAE07 SLP120 BINOVC P0000 T02440222=
200506121251 METAR KATL 121251Z 15009KT 2SM R09R/5500VP6000FT -RA BR BKN008 BKN013 OVC031 23/22 A2991 RMK AO2 SFC VIS 4 RAB37 SLP117 P0000 T02330222=
200506121243 SPECI KATL 121243Z 15012G18KT 2SM -RA BR BKN010 BKN013 OVC021 24/22 A2990 RMK AO2 SFC VIS 4 RAB37 P0000=
200506121243 SPECI KATL 121243Z 15012G18KT 2SM -RA BR BKN010 BKN013 OVC021 24/22 A2990 RMK AO2 SFC VIS 4 RAB37 P0000=
200506121151 METAR KATL 121151Z 15010KT 2SM BKN006 OVC010 23/22 A2989 RMK AO2 SFC VIS 8 SLP113 BINOVC ALQDS 60002 70065 T02330222 10233 20222 53007=
200506121144 SPECI KATL 121144Z 15007KT 2SM BKN008 OVC013 23/22 A2989 RMK AO2 SFC VIS 8 CIG 005V012 BINOVC ALQDS=
200506121144 SPECI KATL 121144Z 15007KT 2SM BKN008 OVC013 23/22 A2989 RMK AO2 SFC VIS 8 CIG 005V012 BINOVC ALQDS=
200506121109 SPECI KATL 121109Z 14011KT 6SM BR SCT008 BKN013 BKN026 BKN210 23/22 A2988 RMK AO2=
200506121109 SPECI KATL 121109Z 14011KT 6SM BR SCT008 BKN013 BKN026 BKN210 23/22 A2988 RMK AO2=
200506121051 METAR KATL 121051Z 14009KT 10SM BKN008 OVC012 23/22 A2988 RMK AO2 RAE0954 CIG 006V010 SLP108 P0000 T02330222=
200506121002 SPECI KATL 121002Z 14010KT 8SM BKN007 OVC013 23/22 A2987 RMK AO2 RAE0954 CIG 006V010 P0000=
200506121002 SPECI KATL 121002Z 14010KT 8SM BKN007 OVC013 23/22 A2987 RMK AO2 RAE0954 CIG 006V010 P0000=
200506120951 METAR KATL 120951Z 13007KT 8SM -RA BKN010 BKN017 OVC023 23/22 A2987 RMK AO2 RAB13 CIG 006V013 SLP106 P0001 T02330222=
200506120859 SPECI KATL 120859Z 13009KT 8SM BKN010 OVC016 23/22 A2987 RMK AO2 CIG 006V012=
200506120859 SPECI KATL 120859Z 13009KT 8SM BKN010 OVC016 23/22 A2987 RMK AO2 CIG 006V012=
200506120851 METAR KATL 120851Z 13008KT 8SM BKN008 OVC016 23/22 A2987 RMK AO2 CIG 006V012 SLP105 60001 T02330222 55005=
200506120751 METAR KATL 120751Z 12011KT 10SM BKN009 BKN013 OVC030 23/22 A2987 RMK AO2 RAE36 CIG 005V010 SLP105 P0001 T02280222=
200506120743 SPECI KATL 120743Z 13009KT 10SM SCT007 BKN011 OVC030 23/22 A2987 RMK AO2 RAE36 P0001=
200506120743 SPECI KATL 120743Z 13009KT 10SM SCT007 BKN011 OVC030 23/22 A2987 RMK AO2 RAE36 P0001=
200506120651 METAR KATL 120651Z 11009KT 6SM -RA BR OVC005 23/22 A2988 RMK AO2 RAB49 CIG 004V008 SLP110 P0000 T02280217=
200506120603 SPECI KATL 120603Z 12008KT 10SM BKN007 OVC018 22/22 A2988 RMK AO2 CIG 005V009=
200506120603 SPECI KATL 120603Z 12008KT 10SM BKN007 OVC018 22/22 A2988 RMK AO2 CIG 005V009=
200506120551 METAR KATL 120551Z 12009KT 10SM SCT007 OVC020 22/22 A2989 RMK AO2 RAE01 SLP110 P0000 60027 T02220217 10239 20222 58004=
200506120451 METAR KATL 120451Z 12014G18KT 8SM -RA BKN007 OVC012 22/22 A2990 RMK AO2 CIG 005V009 SLP114 P0003 T02220217 402610211=
200506120351 METAR KATL 120351Z 11016G20KT 6SM -RA BR BKN009 BKN016 OVC022 23/22 A2989 RMK AO2 SLP113 P0014 T02280217=
200506120258 SPECI KATL 120258Z 10012G18KT 6SM RA BR BKN009 BKN016 OVC022 23/22 A2990 RMK AO2 CIG 007V012 P0002=
200506120258 SPECI KATL 120258Z 10012G18KT 6SM RA BR BKN009 BKN016 OVC022 23/22 A2990 RMK AO2 CIG 007V012 P0002=
200506120251 METAR KATL 120251Z 10013G19KT 5SM RA BR SCT009 BKN014 OVC022 23/22 A2990 RMK AO2 SLP116 P0004 60010 T02280217 53001=
200506120243 SPECI KATL 120243Z 10014G20KT 9SM -RA SCT009 OVC015 23/22 A2990 RMK AO2 P0002=
200506120243 SPECI KATL 120243Z 10014G20KT 9SM -RA SCT009 OVC015 23/22 A2990 RMK AO2 P0002=
200506120226 SPECI KATL 120226Z 11013G17KT 9SM -RA BKN009 OVC014 23/22 A2989 RMK AO2 CIG 007V011 P0001=
200506120226 SPECI KATL 120226Z 11013G17KT 9SM -RA BKN009 OVC014 23/22 A2989 RMK AO2 CIG 007V011 P0001=
200506120151 METAR KATL 120151Z 11015KT 9SM -RA BKN012 OVC017 23/21 A2990 RMK AO2 RAB0059 SLP116 P0000 T02280211=
200506120132 SPECI KATL 120132Z 10016KT 9SM -RA BKN009 OVC015 23/21 A2989 RMK AO2 RAB0059 P0000=
200506120132 SPECI KATL 120132Z 10016KT 9SM -RA BKN009 OVC015 23/21 A2989 RMK AO2 RAB0059 P0000=
200506120115 SPECI KATL 120115Z 09018G25KT 9SM -RA BKN011 BKN017 OVC026 23/21 A2988 RMK AO2 RAB0059 CIG 007V013 P0000=
200506120115 SPECI KATL 120115Z 09018G25KT 9SM -RA BKN011 BKN017 OVC026 23/21 A2988 RMK AO2 RAB0059 CIG 007V013 P0000=
200506120051 METAR KATL 120051Z 09015G22KT 9SM BKN009 OVC014 23/22 A2988 RMK AO2 RAE19 CIG 007V014 SLP110 P0006 T02280217=
200506120035 SPECI KATL 120035Z 09015G22KT 8SM SCT009 BKN012 OVC036 23/21 A2988 RMK AO2 RAE19 P0006=
200506120035 SPECI KATL 120035Z 09015G22KT 8SM SCT009 BKN012 OVC036 23/21 A2988 RMK AO2 RAE19 P0006=
200506120024 SPECI KATL 120024Z 09013G19KT 8SM SCT009 SCT014 OVC036 23/21 A2988 RMK AO2 RAE19 P0006=
200506120024 SPECI KATL 120024Z 09013G19KT 8SM SCT009 SCT014 OVC036 23/21 A2988 RMK AO2 RAE19 P0006=
200506112351 METAR KATL 112351Z 09014KT 9SM -RA FEW008 BKN020 OVC050 23/22 A2990 RMK AO2 SLP115 P0003 60036 T02280217 10261 20222 53001=
200506112319 SPECI KATL 112319Z 12010KT 8SM FEW007 BKN041 OVC050 23/21 A2990 RMK AO2 RAE13 P0003=
200506112319 SPECI KATL 112319Z 12010KT 8SM FEW007 BKN041 OVC050 23/21 A2990 RMK AO2 RAE13 P0003=
200506112310 SPECI KATL 112310Z 12015G19KT 8SM -RA SCT007 BKN015 OVC044 23/21 A2989 RMK AO2 P0003=
200506112310 SPECI KATL 112310Z 12015G19KT 8SM -RA SCT007 BKN015 OVC044 23/21 A2989 RMK AO2 P0003=
200506112251 METAR KATL 112251Z 10013G20KT 1 1/2SM R09R/4500VP6000FT -RA BR BKN007 OVC015 22/21 A2989 RMK AO2 SLP115 P0032 T02220211=
200506112243 SPECI KATL 112243Z 11011KT 1 1/2SM R09R/5000VP6000FT +RA BR BKN009 OVC015 22/22 A2989 RMK AO2 P0023=
200506112243 SPECI KATL 112243Z 11011KT 1 1/2SM R09R/5000VP6000FT +RA BR BKN009 OVC015 22/22 A2989 RMK AO2 P0023=
200506112225 SPECI KATL 112225Z 09014KT 1 1/2SM R09R/5500VP6000FT +RA BR FEW009 BKN015 OVC021 23/21 A2989 RMK AO2 SFC VIS 2 P0008=
200506112225 SPECI KATL 112225Z 09014KT 1 1/2SM R09R/5500VP6000FT +RA BR FEW009 BKN015 OVC021 23/21 A2989 RMK AO2 SFC VIS 2 P0008=
200506112208 SPECI KATL 112208Z 09015G19KT 2SM -RA BR BKN016 BKN021 OVC033 23/21 A2989 RMK AO2 P0001=
200506112208 SPECI KATL 112208Z 09015G19KT 2SM -RA BR BKN016 BKN021 OVC033 23/21 A2989 RMK AO2 P0001=
200506112151 METAR KATL 112151Z 09014KT 6SM -RA BR SCT018 BKN025 OVC041 23/21 A2988 RMK AO2 SLP110 P0000 T02330211=
200506112051 METAR KATL 112051Z 08021G24KT 6SM -RA BR BKN020 OVC025 23/21 A2989 RMK AO2 PK WND 09027/2011 RAB1959 SLP114 P0001 60001 T02330211 56019=
200506112041 SPECI KATL 112041Z 08015G22KT 8SM -RA OVC020 23/21 A2990 RMK AO2 PK WND 09027/2011 RAB1959 P0001=
200506112041 SPECI KATL 112041Z 08015G22KT 8SM -RA OVC020 23/21 A2990 RMK AO2 PK WND 09027/2011 RAB1959 P0001=
200506112031 SPECI KATL 112031Z 09016G21KT 2 1/2SM RA BKN021 OVC025 23/21 A2990 RMK AO2 PK WND 09027/2011 RAB1959 P0001=
200506112031 SPECI KATL 112031Z 09016G21KT 2 1/2SM RA BKN021 OVC025 23/21 A2990 RMK AO2 PK WND 09027/2011 RAB1959 P0001=
200506111951 METAR KATL 111951Z 08020G26KT 10SM BKN023 BKN140 OVC200 24/20 A2991 RMK AO2 PK WND 08026/1948 RAE03B21E30 SLP120 P0000 T02440200=
200506111851 METAR KATL 111851Z 10016G23KT 6SM -RA BKN028 BKN042 OVC140 24/19 A2993 RMK AO2 RAE02B46 SLP126 P0000 T02390194=
200506111841 SPECI KATL 111841Z 08021G25KT 10SM BKN028 BKN042 OVC140 25/19 A2993 RMK AO2 RAE02 P0000=
200506111841 SPECI KATL 111841Z 08021G25KT 10SM BKN028 BKN042 OVC140 25/19 A2993 RMK AO2 RAE02 P0000=
200506111751 METAR KATL 111751Z 08019G24KT 10SM -RA FEW025 SCT060 BKN140 OVC200 25/19 A2995 RMK AO2 RAB48 SLP133 MDT CU VC NW P0000 60000 T02500194 10256 20211 58017=
200506111721 SPECI KATL 111721Z 08016G20KT 10SM SCT028 BKN048 OVC140 24/19 A2997 RMK AO2=
200506111721 SPECI KATL 111721Z 08016G20KT 10SM SCT028 BKN048 OVC140 24/19 A2997 RMK AO2=
200506111651 METAR KATL 111651Z 09013G21KT 10SM BKN028 BKN042 BKN140 OVC250 24/18 A2998 RMK AO2 SLP142 BINOVC T02440183=
200506111611 SPECI KATL 111611Z 09017G25KT 10SM BKN025 BKN100 OVC140 24/18 A2998 RMK AO2=
200506111611 SPECI KATL 111611Z 09017G25KT 10SM BKN025 BKN100 OVC140 24/18 A2998 RMK AO2=
200506111551 METAR KATL 111551Z 09014KT 10SM SCT025 BKN100 BKN140 OVC250 24/19 A2998 RMK AO2 SLP144 BINOVC T02440189=
200506111504 SPECI KATL 111504Z 08017G22KT 10SM FEW014 SCT100 BKN140 BKN250 23/19 A3000 RMK AO2=
200506111504 SPECI KATL 111504Z 08017G22KT 10SM FEW014 SCT100 BKN140 BKN250 23/19 A3000 RMK AO2=
200506111451 METAR KATL 111451Z 09016G22KT 3SM FEW014 SCT100 BKN140 BKN250 23/19 A3000 RMK AO2 SFC VIS 10 SLP151 60000 T02280189 57010=
200506111405 SPECI KATL 111405Z 08013KT 3SM FEW010 BKN140 OVC250 22/20 A3000 RMK AO2 SFC VIS 8=
200506111405 SPECI KATL 111405Z 08013KT 3SM FEW010 BKN140 OVC250 22/20 A3000 RMK AO2 SFC VIS 8=
200506111359 SPECI KATL 111359Z 08011KT 3SM SCT010 BKN025 OVC140 22/20 A3000 RMK AO2 SFC VIS 7=
200506111359 SPECI KATL 111359Z 08011KT 3SM SCT010 BKN025 OVC140 22/20 A3000 RMK AO2 SFC VIS 7=
200506111351 METAR KATL 111351Z 07015KT 2SM BR SCT011 OVC130 22/20 A3000 RMK AO2 SFC VIS 6 SLP152 T02170200=
200506111343 SPECI KATL 111343Z 07014KT 2SM BR BKN011 OVC130 21/19 A3001 RMK AO2 SFC VIS 6=
200506111343 SPECI KATL 111343Z 07014KT 2SM BR BKN011 OVC130 21/19 A3001 RMK AO2 SFC VIS 6=
200506111326 SPECI KATL 111326Z 07012KT 2SM BR BKN011 BKN018 21/20 A3001 RMK AO2 SFC VIS 6=
200506111326 SPECI KATL 111326Z 07012KT 2SM BR BKN011 BKN018 21/20 A3001 RMK AO2 SFC VIS 6=
200506111251 METAR KATL 111251Z 07014KT 2SM BR BKN008 OVC016 21/20 A3003 RMK AO2 SFC VIS 6 RAE11 CIG 007V011 SLP161 P0000 T02110200=
200506111243 SPECI KATL 111243Z 08012KT 2SM BR BKN008 OVC018 21/20 A3003 RMK AO2 SFC VIS 6 RAE11 CIG 005V014 P0000=
200506111243 SPECI KATL 111243Z 08012KT 2SM BR BKN008 OVC018 21/20 A3003 RMK AO2 SFC VIS 6 RAE11 CIG 005V014 P0000=
200506111236 SPECI KATL 111236Z 08013KT 2SM BR BKN010 BKN018 OVC025 21/20 A3003 RMK AO2 SFC VIS 6 RAE11 CIG 005V016 P0000=
200506111236 SPECI KATL 111236Z 08013KT 2SM BR BKN010 BKN018 OVC025 21/20 A3003 RMK AO2 SFC VIS 6 RAE11 CIG 005V016 P0000=
200506111151 METAR KATL 111151Z 08013KT 2SM -RA BR BKN008 OVC013 21/20 A3003 RMK AO2 SFC VIS 5 CIG 005V009 SLP162 P0001 60003 70004 T02110200 10217 20211 53008=
200506111051 METAR KATL 111051Z 08012KT 2SM -RA BR BKN008 BKN019 OVC046 21/20 A3002 RMK AO2 SFC VIS 6 CIG 006V015 SLP157 P0001 T02110200=
200506111042 SPECI KATL 111042Z 07011KT 2SM -RA BR SCT010 SCT014 OVC040 21/20 A3002 RMK AO2 SFC VIS 6 P0001=
200506111042 SPECI KATL 111042Z 07011KT 2SM -RA BR SCT010 SCT014 OVC040 21/20 A3002 RMK AO2 SFC VIS 6 P0001=
200506111014 SPECI KATL 111014Z 08012KT 10SM -RA FEW024 SCT031 OVC040 21/20 A3002 RMK AO2 P0001=
200506111014 SPECI KATL 111014Z 08012KT 10SM -RA FEW024 SCT031 OVC040 21/20 A3002 RMK AO2 P0001=
200506110951 METAR KATL 110951Z 08012KT 9SM -RA SCT007 BKN024 OVC028 21/20 A3001 RMK AO2 RAB19 SLP154 P0000 T02110200=
200506110929 SPECI KATL 110929Z 08010KT 6SM -RA BR SCT009 BKN024 OVC031 21/20 A3001 RMK AO2 RAB19 P0000=
200506110929 SPECI KATL 110929Z 08010KT 6SM -RA BR SCT009 BKN024 OVC031 21/20 A3001 RMK AO2 RAB19 P0000=
200506110851 METAR KATL 110851Z 08011KT 9SM SCT010 BKN021 OVC026 21/20 A3001 RMK AO2 RAB0757E33 SLP152 P0000 60001 T02110200 56002=
200506110827 SPECI KATL 110827Z 09008KT 9SM -RA BKN010 BKN014 OVC027 22/21 A3001 RMK AO2 RAB0757 CIG 007V012 P0000=
200506110827 SPECI KATL 110827Z 09008KT 9SM -RA BKN010 BKN014 OVC027 22/21 A3001 RMK AO2 RAB0757 CIG 007V012 P0000=
200506110751 METAR KATL 110751Z 10010KT 10SM FEW009 BKN018 OVC041 22/20 A3001 RMK AO2 RAE31 SLP154 P0000 T02170200=
200506110736 SPECI KATL 110736Z 10009KT 10SM SCT009 BKN016 OVC039 22/21 A3001 RMK AO2 RAE31 P0000=
200506110736 SPECI KATL 110736Z 10009KT 10SM SCT009 BKN016 OVC039 22/21 A3001 RMK AO2 RAE31 P0000=
200506110651 METAR KATL 110651Z 08009KT 9SM -RA OVC007 22/21 A3000 RMK AO2 RAB04 CIG 005V010 SLP149 P0001 T02170211=
200506110627 SPECI KATL 110627Z 08010KT 9SM -RA BKN007 OVC011 22/21 A3001 RMK AO2 RAB04 P0000=
200506110627 SPECI KATL 110627Z 08010KT 9SM -RA BKN007 OVC011 22/21 A3001 RMK AO2 RAB04 P0000=
200506110610 SPECI KATL 110610Z 08009KT 10SM -RA FEW007 OVC013 22/21 A3001 RMK AO2 RAB04 P0000=
200506110610 SPECI KATL 110610Z 08009KT 10SM -RA FEW007 OVC013 22/21 A3001 RMK AO2 RAB04 P0000=
200506110551 METAR KATL 110551Z 08009KT 10SM BKN013 BKN043 OVC075 22/21 A3001 RMK AO2 RAE21 SLP153 P0000 60001 T02170206 10244 20211 56011=
200506110451 METAR KATL 110451Z 08012KT 10SM -RA FEW010 BKN035 BKN060 OVC140 22/20 A3002 RMK AO2 SLP158 P0000 T02170200 402830217=
200506110435 SPECI KATL 110435Z 08009KT 10SM -RA SCT020 BKN035 BKN060 OVC140 22/21 A3003 RMK AO2 P0000=
200506110435 SPECI KATL 110435Z 08009KT 10SM -RA SCT020 BKN035 BKN060 OVC140 22/21 A3003 RMK AO2 P0000=
200506110351 METAR KATL 110351Z 10007KT 10SM -RA BKN018 BKN100 OVC140 22/21 A3003 RMK AO2 RAE00B46 SLP161 P0000 T02220206=
200506110251 METAR KATL 110251Z 10008KT 10SM -RA FEW045 SCT080 BKN100 OVC140 23/21 A3005 RMK AO2 SLP165 P0001 60001 T02280206 53007=
200506110151 METAR KATL 110151Z 10005KT 10SM -RA FEW035 SCT070 BKN110 OVC150 23/21 A3004 RMK AO2 RAE00B24 SLP163 P0000 T02280206=
200506110051 METAR KATL 110051Z 10005KT 10SM -RA FEW030TCU SCT100 BKN130 OVC150 23/20 A3003 RMK AO2 RAB2358 SLP159 TCU VC NE P0000 T02330200=
200506102351 METAR KATL 102351Z 12005KT 10SM FEW035 SCT120 OVC140 24/19 A3002 RMK AO2 RAE00 SLP158 P0000 60000 T02440194 10283 20244 55005=
200506102251 METAR KATL 102251Z 14006KT 10SM -RA FEW100 OVC140 24/18 A3002 RMK AO2 RAB50 SLP156 PCPN VRY LGT P0000 T02440183=
200506102151 METAR KATL 102151Z 15009KT 10SM FEW100 OVC140 26/16 A3003 RMK AO2 RAB21E38 SLP158 P0000 T02560161=
200506102051 METAR KATL 102051Z 14010KT 10SM SCT040 BKN150 OVC180 27/19 A3004 RMK AO2 SLP162 MDT CU N-OHD-SE T02670189 56009=
200506101951 METAR KATL 101951Z 15012KT 10SM FEW040 SCT150 BKN180 BKN250 27/17 A3004 RMK AO2 SLP162 CB DSNT SE MOV NW TCU DSNT E T02720172=
200506101851 METAR KATL 101851Z 16010KT 10SM FEW040TCU SCT050 SCT150 BKN250 28/18 A3005 RMK AO2 SLP165 CB DSNT N AND SW MOV NW TCU E AND NW-N T02780178=
200506101751 METAR KATL 101751Z 14010KT 10SM FEW030TCU SCT040 SCT050 BKN150 BKN250 28/19 A3007 RMK AO2 SLP171 CB DSNT N AND DSNT SW-W MOV NW TCU DSNT N-NE AND VC NW 60000 T02780189 10278 20222 58009=
200506101710 SPECI KATL 101710Z 14010G15KT 10SM SCT025TCU SCT040 BKN150 BKN250 27/19 A3008 RMK AO2 TCU E-S AND OHD-NW-N=
200506101710 SPECI KATL 101710Z 14010G15KT 10SM SCT025TCU SCT040 BKN150 BKN250 27/19 A3008 RMK AO2 TCU E-S AND OHD-NW-N=
200506101651 METAR KATL 101651Z 13010KT 9SM BKN025TCU BKN040 BKN150 BKN250 27/20 A3008 RMK AO2 RAB1554E09 SLP176 CB DSNT NE AND SW MOV NW TCU E-SW SHRA DSNT NE AND SW P0000 T02670200=
200506101605 SPECI KATL 101605Z 13009KT 9SM -RA SCT025CB SCT030TCU BKN040 BKN150 BKN250 25/21 A3009 RMK AO2 RAB1554 CB DSNT S AND VC SW-NW MOV NW TCU N-NE SHRA VC SW-NW P0000=
200506101605 SPECI KATL 101605Z 13009KT 9SM -RA SCT025CB SCT030TCU BKN040 BKN150 BKN250 25/21 A3009 RMK AO2 RAB1554 CB DSNT S AND VC SW-NW MOV NW TCU N-NE SHRA VC SW-NW P0000=
200506101551 METAR KATL 101551Z 13011KT 10SM FEW025CB SCT030TCU BKN040 BKN150 BKN250 26/20 A3009 RMK AO2 SLP179 CB S-SW MOV NW TCU N-NE-E SHRA S-SW T02610200=
200506101451 METAR KATL 101451Z 13008KT 10SM SCT020TCU SCT030 BKN050 BKN200 BKN250 26/21 A3009 RMK AO2 SLP179 TCU NE-SE AND VC NW T02560206 50001=
200506101351 METAR KATL 101351Z 10006KT 9SM SCT015 SCT030 SCT200 BKN250 25/21 A3010 RMK AO2 SLP180 TCU DSNT NW T02500211=
200506101310 SPECI KATL 101310Z 11008KT 10SM BKN011 BKN200 BKN250 24/21 A3010 RMK AO2=
200506101310 SPECI KATL 101310Z 11008KT 10SM BKN011 BKN200 BKN250 24/21 A3010 RMK AO2=
200506101251 METAR KATL 101251Z 10006KT 10SM OVC009 24/21 A3010 RMK AO2 CIG 008V013 SLP182 T02390211=
200506101159 SPECI KATL 101159Z 10007KT 9SM BKN007 BKN015 OVC032 23/21 A3009 RMK AO2=
200506101159 SPECI KATL 101159Z 10007KT 9SM BKN007 BKN015 OVC032 23/21 A3009 RMK AO2=
200506101151 METAR KATL 101151Z 12006KT 10SM SCT007 BKN013 OVC032 23/21 A3009 RMK AO2 SLP179 T02280206 10233 20222 53013=
200506101119 SPECI KATL 101119Z 10007KT 10SM BKN007 BKN013 OVC040 22/21 A3008 RMK AO2=
200506101119 SPECI KATL 101119Z 10007KT 10SM BKN007 BKN013 OVC040 22/21 A3008 RMK AO2=
200506101112 SPECI KATL 101112Z 10006KT 10SM SCT007 BKN013 OVC040 22/21 A3007 RMK AO2 $=
200506101112 SPECI KATL 101112Z 10006KT 10SM SCT007 BKN013 OVC040 22/21 A3007 RMK AO2 $=
200506101051 METAR KATL 101051Z 10006KT 10SM BKN007 BKN013 BKN200 22/21 A3006 RMK AO2 SLP169 T02220206 $=
200506100951 METAR KATL 100951Z 10006KT 10SM BKN009 22/21 A3005 RMK AO2 SLP164 T02220206 $=
200506100927 SPECI KATL 100927Z 11005KT 10SM BKN009 OVC013 23/21 A3005 RMK AO2 CIG 007V011 $=
200506100927 SPECI KATL 100927Z 11005KT 10SM BKN009 OVC013 23/21 A3005 RMK AO2 CIG 007V011 $=
200506100858 SPECI KATL 100858Z 11004KT 10SM FEW008 OVC013 23/21 A3005 RMK AO2 $=
200506100858 SPECI KATL 100858Z 11004KT 10SM FEW008 OVC013 23/21 A3005 RMK AO2 $=
200506100851 METAR KATL 100851Z 11006KT 10SM FEW010 OVC015 23/21 A3005 RMK AO2 SLP164 T02280206 53001 $=
200506100758 SPECI KATL 100758Z 11005KT 10SM BKN015 OVC150 23/21 A3004 RMK AO2 $=
200506100758 SPECI KATL 100758Z 11005KT 10SM BKN015 OVC150 23/21 A3004 RMK AO2 $=
200506100751 METAR KATL 100751Z 10005KT 10SM BKN013 BKN018 OVC150 23/21 A3004 RMK AO2 SLP161 T02280206 $=
200506100651 METAR KATL 100651Z 12004KT 10SM BKN020 BKN026 OVC200 23/21 A3004 RMK AO2 SLP161 T02330206 $=
200506100551 METAR KATL 100551Z 15003KT 10SM FEW039 OVC200 23/19 A3005 RMK AO2 SLP164 T02330194 10283 20233 58004 $=
200506100544 SPECI KATL 100544Z 18003KT 10SM FEW029 SCT038 SCT047 OVC200 23/19 A3005 RMK AO2 $=
200506100544 SPECI KATL 100544Z 18003KT 10SM FEW029 SCT038 SCT047 OVC200 23/19 A3005 RMK AO2 $=
200506100521 SPECI KATL 100521Z 17004KT 10SM BKN027 OVC200 24/20 A3006 RMK AO2 $=
200506100521 SPECI KATL 100521Z 17004KT 10SM BKN027 OVC200 24/20 A3006 RMK AO2 $=
200506100451 METAR KATL 100451Z 16007KT 10SM FEW050 OVC200 24/19 A3006 RMK AO2 SLP169 T02440194 403000200 $=
200506100351 METAR KATL 100351Z 15009KT 10SM FEW040 BKN250 25/19 A3006 RMK AO2 SLP169 LTG DSNT SW CB DSNT SW T02500194 $=
200506100251 METAR KATL 100251Z 12004KT 10SM FEW050 SCT250 26/19 A3006 RMK AO2 SLP169 T02610189 53015 $=
200506100151 METAR KATL 100151Z 12006KT 10SM FEW100 SCT250 27/19 A3004 RMK AO2 SLP163 T02670189 $=
200506100051 METAR KATL 100051Z 14005KT 10SM FEW100 SCT250 27/19 A3002 RMK AO2 SLP155 T02720189 $=
200506092351 METAR KATL 092351Z 14006KT 10SM FEW045 28/19 A3001 RMK AO2 SLP153 T02830189 10300 20278 53003=
200506092251 METAR KATL 092251Z 14007KT 10SM FEW045 29/18 A3000 RMK AO2 SLP148 TCU DSNT NW T02940178=
200506092151 METAR KATL 092151Z 14009KT 10SM FEW043 29/18 A3000 RMK AO2 SLP148 T02940178=
200506092051 METAR KATL 092051Z 18008KT 10SM SCT045TCU SCT060 29/18 A3000 RMK AO2 SLP150 TCU VC N AND W-NW T02940183 56018=
200506091951 METAR KATL 091951Z 16007KT 9SM SCT045TCU 29/18 A3002 RMK AO2 SLP154 TCU W-N T02940183=
200506091851 METAR KATL 091851Z 15009KT 10SM SCT040TCU SCT150 29/19 A3004 RMK AO2 SLP161 TCU SW-N T02890194=
200506091751 METAR KATL 091751Z 00000KT 10SM SCT035TCU BKN045 BKN150 28/19 A3006 RMK AO2 SLP168 TCU E-SE AND SW-NW T02780194 10283 20211 50000=
200506091651 METAR KATL 091651Z 00000KT 10SM SCT035 SCT150 SCT200 28/19 A3006 RMK AO2 SLP169 T02780194 $=
200506091551 METAR KATL 091551Z VRB06KT 10SM SCT030 SCT150 SCT200 27/19 A3006 RMK AO2 SLP170 T02670194 $=
200506091451 METAR KATL 091451Z VRB04KT 10SM FEW020 BKN150 BKN200 25/19 A3006 RMK AO2 SLP168 T02500194 50010 $=
200506091351 METAR KATL 091351Z VRB03KT 7SM FEW010 BKN150 BKN180 23/20 A3006 RMK AO2 SLP169 T02280200 $=
200506091251 METAR KATL 091251Z 16005KT 8SM FEW009 BKN200 BKN250 22/20 A3005 RMK AO2 SLP166 T02170200 $=
200506091151 METAR KATL 091151Z 14004KT 5SM BR FEW009 SCT200 SCT250 21/20 A3003 RMK AO2 SLP159 T02110200 10233 20200 51023 $=
200506091113 SPECI KATL 091113Z 14004KT 5SM BR SCT009 BKN200 BKN250 21/19 A3001 RMK AO2 $=
200506091113 SPECI KATL 091113Z 14004KT 5SM BR SCT009 BKN200 BKN250 21/19 A3001 RMK AO2 $=
200506091051 METAR KATL 091051Z 15005KT 6SM BR BKN007 BKN200 BKN250 21/19 A3001 RMK AO2 SLP151 T02060194 $=
200506091031 SPECI KATL 091031Z 09006KT 8SM BKN007 BKN200 BKN250 21/19 A3000 RMK AO2 $=
200506091031 SPECI KATL 091031Z 09006KT 8SM BKN007 BKN200 BKN250 21/19 A3000 RMK AO2 $=
200506090959 SPECI KATL 090959Z 00000KT 8SM FEW005 SCT200 21/19 A2999 RMK AO2 $=
200506090959 SPECI KATL 090959Z 00000KT 8SM FEW005 SCT200 21/19 A2999 RMK AO2 $=
200506090951 METAR KATL 090951Z 00000KT 8SM FEW010 SCT200 21/19 A2998 RMK AO2 SLP143 T02060194 $=
200506090851 METAR KATL 090851Z 00000KT 10SM FEW200 21/19 A2996 RMK AO2 SLP134 T02060194 58013 $=
200506090751 METAR KATL 090751Z 00000KT 10SM FEW043 SCT200 21/20 A2997 RMK AO2 SLP139 T02110200 $=
200506090651 METAR KATL 090651Z 21004KT 10SM FEW009 SCT043 22/20 A2999 RMK AO2 SLP145 T02170200 $=
200506090629 SPECI KATL 090629Z 18005KT 10SM FEW009 SCT043 22/21 A3000 RMK AO2 $=
200506090629 SPECI KATL 090629Z 18005KT 10SM FEW009 SCT043 22/21 A3000 RMK AO2 $=
200506090551 METAR KATL 090551Z 13003KT 10SM BKN043 BKN050 23/21 A3000 RMK AO2 SLP147 LTG DSNT NE 60000 T02330206 10283 20233 53009 $=
200506090451 METAR KATL 090451Z 00000KT 10SM FEW045 SCT060 BKN250 24/19 A2998 RMK AO2 TSE49 SLP143 TS MOV N OCNL LTG DSNT N-NE AND NW CB DSNT N-NE AND NW T02390194 403000200 $=
200506090351 METAR KATL 090351Z 25003KT 10SM TS SCT040CB BKN100 BKN250 24/21 A2998 RMK AO2 TSB30 SLP142 OCNL LTGIC TS VC NE MOV NW T02390206 $=
200506090330 SPECI KATL 090330Z 23005KT 10SM TS SCT040CB BKN055 BKN250 24/21 A2997 RMK AO2 TSB30 FRQ LTGICCG TS VC NE MOV NW $=
200506090330 SPECI KATL 090330Z 23005KT 10SM TS SCT040CB BKN055 BKN250 24/21 A2997 RMK AO2 TSB30 FRQ LTGICCG TS VC NE MOV NW $=
200506090251 METAR KATL 090251Z 22004KT 9SM SCT045 SCT100 BKN250 24/21 A2997 RMK AO2 SLP138 FRQ LTG DSNT NE CB DSNT NE 60000 T02440211 51013 $=
200506090151 METAR KATL 090151Z 19005KT 9SM FEW045 SCT090 BKN250 26/21 A2996 RMK AO2 SLP137 T02560211 $=
200506090051 METAR KATL 090051Z 21006KT 7SM SCT045 SCT080 BKN250 27/21 A2994 RMK AO2 TSE02RAE02 SLP129 P0000 T02670206 $=
200506090002 SPECI KATL 090002Z 04003KT 8SM FEW040 SCT080 BKN150 BKN250 27/19 A2993 RMK AO2 TSE02RAE02 TS DSIPTD CB DSNT S P0000 $=
200506090002 SPECI KATL 090002Z 04003KT 8SM FEW040 SCT080 BKN150 BKN250 27/19 A2993 RMK AO2 TSE02RAE02 TS DSIPTD CB DSNT S P0000 $=
200506082351 METAR KATL 082351Z 04007KT 5SM -TSRA FEW025 BKN040CB BKN080 BKN250 27/19 A2993 RMK AO2 TSB30RAB27 SLP126 OCNL LTGCG TS OHD-NW MOV N P0000 60000 T02720194 10300 20267 53002 $=
200506082330 SPECI KATL 082330Z 23003KT 4SM TSRA FEW025 BKN040CB BKN080 BKN250 29/19 A2994 RMK AO2 TSB30RAB27 OCNL LTGCG TS OHD-NW MOV N P0000 $=
200506082330 SPECI KATL 082330Z 23003KT 4SM TSRA FEW025 BKN040CB BKN080 BKN250 29/19 A2994 RMK AO2 TSB30RAB27 OCNL LTGCG TS OHD-NW MOV N P0000 $=
200506082251 METAR KATL 082251Z 15005KT 9SM FEW045TCU SCT080 SCT200 29/19 A2992 RMK AO2 RAB2156E24 SLP122 TCU OHD-W AND DSNT N-NE AND SE P0000 T02890189 $=
200506082151 METAR KATL 082151Z 13004KT 8SM SCT045TCU SCT080 28/19 A2992 RMK AO2 SLP123 TCU OHD-W AND VC N MDT CU E-S T02830189 $=
200506082051 METAR KATL 082051Z 15004KT 8SM SCT045TCU 29/19 A2992 RMK AO2 SLP123 TCU SW-N T02890189 56019 $=
200506081951 METAR KATL 081951Z 00000KT 9SM BKN043TCU 29/19 A2994 RMK AO2 SLP129 TCU OHD-SE-S-SW-W-NW T02890194 $=
200506081851 METAR KATL 081851Z VRB03KT 8SM BKN040TCU BKN060 BKN250 28/19 A2996 RMK AO2 SLP135 CB DSNT NE AND NW TCU ALQDS T02830194=
200506081751 METAR KATL 081751Z 00000KT 9SM BKN035TCU BKN045 BKN080 28/19 A2998 RMK AO2 SLP142 TCU ALQDS T02780194 10283 20206 58009=
200506081651 METAR KATL 081651Z 15005KT 8SM BKN030TCU BKN050 27/19 A3000 RMK AO2 SLP149 TCU ALQDS T02670194=
200506081551 METAR KATL 081551Z 16005KT 10SM SCT025 27/19 A3000 RMK AO2 SLP151 T02670194=
200506081451 METAR KATL 081451Z VRB03KT 8SM FEW020 SCT230 25/20 A3001 RMK AO2 SLP153 T02500200 51008=
200506081351 METAR KATL 081351Z 00000KT 6SM HZ SCT010 SCT230 23/20 A3001 RMK AO2 SLP153 T02280200=
200506081251 METAR KATL 081251Z 10004KT 6SM BR BKN007 22/19 A3000 RMK AO2 SLP152 T02170194=
200506081151 METAR KATL 081151Z 08006KT 2SM BR OVC005 21/19 A2999 RMK AO2 SFC VIS 4 SLP146 T02060194 10228 20200 53010=
200506081109 SPECI KATL 081109Z 08007KT 1SM BR BKN003 20/19 A2997 RMK AO2 SFC VIS 3=
200506081109 SPECI KATL 081109Z 08007KT 1SM BR BKN003 20/19 A2997 RMK AO2 SFC VIS 3=
200506081051 METAR KATL 081051Z 08006KT 3SM BR BKN005 BKN055 BKN250 21/19 A2997 RMK AO2 SFC VIS 4 SLP140 T02060194=
200506081025 SPECI KATL 081025Z 08007KT 6SM BR BKN005 BKN055 BKN250 21/19 A2997 RMK AO2=
200506081025 SPECI KATL 081025Z 08007KT 6SM BR BKN005 BKN055 BKN250 21/19 A2997 RMK AO2=
200506080951 METAR KATL 080951Z 08007KT 6SM BR SCT043 SCT055 BKN150 BKN250 21/19 A2997 RMK AO2 SLP139 T02060194=
200506080851 METAR KATL 080851Z 09005KT 9SM BKN041 OVC060 21/20 A2996 RMK AO2 SLP134 T02110200 55005=
200506080751 METAR KATL 080751Z 00000KT 9SM BKN042 BKN250 22/20 A2995 RMK AO2 SLP132 T02170200=
200506080651 METAR KATL 080651Z 00000KT 10SM FEW100 BKN150 22/19 A2996 RMK AO2 SLP133 T02220194=
200506080551 METAR KATL 080551Z 00000KT 10SM FEW100 BKN150 22/19 A2997 RMK AO2 RAE33 SLP139 P0000 60000 T02220194 10239 20217 58004=
200506080451 METAR KATL 080451Z 00000KT 10SM -RA FEW040 BKN075 OVC130 22/20 A2998 RMK AO2 RAB33 SLP143 P0000 T02220200 403060172=
200506080351 METAR KATL 080351Z 00000KT 10SM SCT100 OVC130 22/19 A2998 RMK AO2 SLP144 T02220194=
200506080251 METAR KATL 080251Z VRB05KT 10SM BKN100 BKN250 22/19 A2999 RMK AO2 SLP145 60000 T02220194 53012=
200506080151 METAR KATL 080151Z VRB04KT 10SM FEW100 SCT150 BKN200 23/19 A2996 RMK AO2 RAE0057 SLP135 P0000 T02280189=
200506080051 METAR KATL 080051Z 27003KT 10SM -RA FEW045 SCT100 BKN140 OVC200 23/18 A2994 RMK AO2 RAB49 SLP131 PCPN VRY LGT P0000 T02330183=
200506072351 METAR KATL 072351Z 27003KT 10SM FEW045 BKN200 BKN250 24/18 A2995 RMK AO2 SLP133 LTG DSNT SE-S CB DSNT SE-S T02390183 10306 20239 52009=
200506072251 METAR KATL 072251Z 33009KT 10SM FEW045 BKN200 BKN250 24/18 A2994 RMK AO2 WSHFT 2149 SLP132 LTG DSNT NE CB DSNT NE TCU DSNT E-SE T02440183=
200506072205 SPECI KATL 072205Z 29013KT 10SM FEW035 BKN045 BKN200 BKN250 25/19 A2993 RMK AO2 WSHFT 2149 FRQ LTGCG DSNT N-NE CB DSNT N-NE TCU DSNT E-SE=
200506072205 SPECI KATL 072205Z 29013KT 10SM FEW035 BKN045 BKN200 BKN250 25/19 A2993 RMK AO2 WSHFT 2149 FRQ LTGCG DSNT N-NE CB DSNT N-NE TCU DSNT E-SE=
200506072151 METAR KATL 072151Z 29020G23KT 10SM SCT045 SCT060 BKN200 BKN250 27/19 A2993 RMK AO2 SLP125 CB DSNT N-NE AND W-NW TCU DSNT E-SE T02720189=
200506072051 METAR KATL 072051Z 22006KT 10SM SCT047TCU SCT070 SCT250 30/18 A2992 RMK AO2 SLP122 LTG DSNT NW CB DSNT NW TCU SW AND NW-N T03000183 56022=
200506071951 METAR KATL 071951Z COR 18006KT 10SM SCT050TCU SCT070 SCT250 29/18 A2994 RMK AO2 SLP128 CB DSNT W-NW TCU SE-N T02940183=
200506071851 METAR KATL 071851Z 20004KT 10SM SCT045TCU SCT180 SCT250 29/19 A2997 RMK AO2 SLP138 CB DSNT W TCU SW-N T02940189 $=
200506071751 METAR KATL 071751Z 00000KT 10SM FEW035 SCT100 SCT180 28/19 A2999 RMK AO2 SLP146 CB DSNT W TCU DSNT N T02830194 10283 20206 58006 $=
200506071651 METAR KATL 071651Z VRB04KT 10SM SCT035 SCT100 BKN180 28/19 A3000 RMK AO2 SLP151 T02780194 $=
200506071551 METAR KATL 071551Z 09005KT 10SM FEW030 SCT100 BKN180 27/19 A3001 RMK AO2 SLP153 T02670194=
200506071451 METAR KATL 071451Z 27005KT 10SM FEW100 SCT180 26/19 A3001 RMK AO2 SLP152 T02610194 50002=
200506071351 METAR KATL 071351Z 24004KT 10SM FEW100 SCT180 23/19 A3002 RMK AO2 SLP156 T02330194=
200506071251 METAR KATL 071251Z 30003KT 10SM SCT150 SCT250 22/19 A3002 RMK AO2 SLP158 T02170189=
200506071151 METAR KATL 071151Z 00000KT 6SM BR SCT150 SCT200 SCT250 21/18 A3000 RMK AO2 SLP152 70003 T02060183 10206 20172 53015=
200506071051 METAR KATL 071051Z 00000KT 6SM BR FEW001 SCT150 SCT200 BKN250 18/18 A2998 RMK AO2 SLP146 T01830178=
200506071039 SPECI KATL 071039Z 00000KT 3SM BR FEW001 SCT150 SCT200 BKN250 18/17 A2998 RMK AO2 SFC VIS 5=
200506071039 SPECI KATL 071039Z 00000KT 3SM BR FEW001 SCT150 SCT200 BKN250 18/17 A2998 RMK AO2 SFC VIS 5=
200506071016 SPECI KATL 071016Z 31003KT 1SM BR FEW001 SCT150 BKN250 17/17 A2998 RMK AO2 SFC VIS 5 VIS SW-NW 1=
200506071016 SPECI KATL 071016Z 31003KT 1SM BR FEW001 SCT150 BKN250 17/17 A2998 RMK AO2 SFC VIS 5 VIS SW-NW 1=
200506070951 METAR KATL 070951Z 28003KT 6SM BR SCT001 BKN250 17/17 A2997 RMK AO2 SLP142 VIS W-NW 1/2 T01720172=
200506070943 SPECI KATL 070943Z 29003KT 2SM BR BKN001 17/17 A2997 RMK AO2=
200506070943 SPECI KATL 070943Z 29003KT 2SM BR BKN001 17/17 A2997 RMK AO2=
200506070927 SPECI KATL 070927Z 00000KT 1/2SM R09R/4000V5500FT FG VV001 18/17 A2996 RMK AO2=
200506070927 SPECI KATL 070927Z 00000KT 1/2SM R09R/4000V5500FT FG VV001 18/17 A2996 RMK AO2=
200506070920 SPECI KATL 070920Z 30003KT 1SM R09R/5000VP6000FT BR VV001 18/17 A2996 RMK AO2=
200506070920 SPECI KATL 070920Z 30003KT 1SM R09R/5000VP6000FT BR VV001 18/17 A2996 RMK AO2=
200506070916 SPECI KATL 070916Z 30004KT 2SM R09R/5000VP6000FT BR SCT001 SCT150 SCT250 18/17 A2996 RMK AO2=
200506070916 SPECI KATL 070916Z 30004KT 2SM R09R/5000VP6000FT BR SCT001 SCT150 SCT250 18/17 A2996 RMK AO2=
200506070851 METAR KATL 070851Z 30004KT 10SM FEW150 SCT250 18/17 A2996 RMK AO2 SLP135 T01830172 56010=
200506070751 METAR KATL 070751Z 00000KT 10SM FEW030 SCT150 SCT250 19/18 A2996 RMK AO2 SLP135 T01890178=
200506070651 METAR KATL 070651Z 00000KT 10SM FEW150 SCT250 19/18 A2998 RMK AO2 SLP142 T01890178=
200506070551 METAR KATL 070551Z 19003KT 10SM FEW150 SCT250 19/18 A2999 RMK AO2 SLP145 T01940183 10211 20194 58009=
200506070451 METAR KATL 070451Z 00000KT 10SM FEW100 SCT150 BKN250 20/18 A3001 RMK AO2 SLP153 T02000183 403110200=
200506070351 METAR KATL 070351Z 07008KT 10SM FEW100 BKN150 OVC200 20/18 A3001 RMK AO2 SLP154 T02000178=
200506070251 METAR KATL 070251Z 02007KT 10SM FEW100 BKN150 OVC200 21/18 A3002 RMK AO2 SLP154 T02110178 55000=
200506070151 METAR KATL 070151Z 01004KT 10SM FEW100 BKN150 OVC200 21/18 A3001 RMK AO2 SLP154 T02060183=
200506070051 METAR KATL 070051Z 31007KT 10SM SCT120 BKN150 OVC200 21/18 A3001 RMK AO2 SLP153 T02060183=
200506062351 METAR KATL 062351Z 32011KT 7SM FEW060 SCT100 BKN150 OVC200 21/19 A3002 RMK AO2 WSHFT 2259 TSE17RAE35 SLP158 P0002 60003 T02110194 10311 20211 51021=
200506062317 SPECI KATL 062317Z 31011KT 5SM -RA BR FEW025 SCT040 BKN060 OVC140 21/19 A3001 RMK AO2 WSHFT 2259 TSE17 TS DSIPTD P0002=
200506062317 SPECI KATL 062317Z 31011KT 5SM -RA BR FEW025 SCT040 BKN060 OVC140 21/19 A3001 RMK AO2 WSHFT 2259 TSE17 TS DSIPTD P0002=
200506062251 METAR KATL 062251Z 25008KT 6SM -TSRA FEW025 SCT040CB BKN060 OVC140 22/19 A3001 RMK AO2 TSE24B48 SLP156 OCNL LTGIC TS OHD-S MOV NE P0001 T02170189=
200506062226 SPECI KATL 062226Z 24008KT 7SM -RA FEW020 BKN055 BKN100 OVC150 22/19 A2997 RMK AO2 TSE24 TS DSIPTD P0000=
200506062226 SPECI KATL 062226Z 24008KT 7SM -RA FEW020 BKN055 BKN100 OVC150 22/19 A2997 RMK AO2 TSE24 TS DSIPTD P0000=
200506062151 METAR KATL 062151Z 18009G18KT 7SM -TSRA FEW020 SCT045CB BKN080 OVC150 22/19 A2998 RMK AO2 PK WND 21032/2124 TSB2055RAB32 SLP145 FRQ LTGCGIC TS NE-SE-S MOV NE P0000 T02220189=
200506062056 SPECI KATL 062056Z 18009KT 10SM TS SCT045CB BKN250 30/18 A2996 RMK AO2 TSB55 OCNL LTGCG TS VC W-NW MOV N=
200506062056 SPECI KATL 062056Z 18009KT 10SM TS SCT045CB BKN250 30/18 A2996 RMK AO2 TSB55 OCNL LTGCG TS VC W-NW MOV N=
200506062051 METAR KATL 062051Z 16008KT 9SM SCT045 SCT250 30/18 A2995 RMK AO2 SLP132 TCU OHD AND ALQDS T03000178=
200506061951 METAR KATL 061951Z 15007KT 9SM SCT050 SCT250 31/18 A2997 RMK TCU DSNT ALQDS=
200506061851 METAR KATL 061851Z 14007KT 8SM FEW044 SCT065 SCT250 31/21 A2998 RMK AO2 SLP142 T03060206=
200506061751 METAR KATL 061751Z 00000KT 10SM FEW043 SCT050 SCT250 31/20 A3002 RMK AO2 SLP153 T03060200 10311 20222 58017=
200506061651 METAR KATL 061651Z VRB03KT 10SM SCT042 SCT090 BKN250 31/20 A3004 RMK AO2 SLP161 T03060200=
200506061551 METAR KATL 061551Z COR 00000KT 10SM FEW030 SCT070 SCT250 29/21 A3007 RMK AO2 SLP171 T02890211=
200506061451 METAR KATL 061451Z 32008KT 10SM CLR 28/22 A3007 RMK AO2 SLP171 T02830217 50000=
200506061351 METAR KATL 061351Z 00000KT 10SM FEW250 27/21 A3007 RMK AO2 SLP173 T02670211=
200506061251 METAR KATL 061251Z 30004KT 10SM FEW200 SCT250 24/21 A3007 RMK AO2 SLP173 T02440211=
200506061151 METAR KATL 061151Z 00000KT 8SM FEW030 SCT210 SCT250 22/20 A3007 RMK AO2 SLP172 T02220200 10222 20206 53013=
200506061051 METAR KATL 061051Z 00000KT 10SM FEW020 SCT210 SCT250 21/19 A3005 RMK AO2 SLP167 T02110194=
200506060951 METAR KATL 060951Z 31004KT 10SM CLR 21/19 A3004 RMK AO2 SLP162 T02060194=
200506060851 METAR KATL 060851Z 26004KT 10SM CLR 22/20 A3003 RMK AO2 SLP159 T02170200 55008=
200506060751 METAR KATL 060751Z 00000KT 10SM CLR 21/20 A3002 RMK AO2 SLP156 T02110200=
200506060651 METAR KATL 060651Z 27003KT 10SM CLR 21/20 A3004 RMK AO2 SLP164 T02110200=
200506060551 METAR KATL 060551Z 26003KT 10SM CLR 21/20 A3005 RMK AO2 SLP167 T02110200 10256 20211 51006=
200506060451 METAR KATL 060451Z 00000KT 10SM FEW095 23/21 A3005 RMK AO2 SLP165 T02280206 402940206=
200506060351 METAR KATL 060351Z 24004KT 9SM CLR 22/21 A3004 RMK AO2 SLP162 T02220206=
200506060251 METAR KATL 060251Z 21003KT 9SM CLR 23/20 A3003 RMK AO2 SLP161 T02280200 51006=
200506060151 METAR KATL 060151Z 19004KT 10SM FEW095 23/19 A3003 RMK AO2 SLP160 T02330194=
200506060051 METAR KATL 060051Z 00000KT 9SM SCT150 SCT200 24/20 A3003 RMK AO2 SLP159 T02440200=
200506052351 METAR KATL 052351Z COR 00000KT 8SM SCT150 BKN200 26/19 A3002 RMK AO2 SLP155 T02560189 10294 20233 55003=
200506052251 METAR KATL 052251Z COR 23008KT 8SM SCT030 SCT150 BKN200 23/19 A3002 RMK AO2 SLP156 T02330194=
200506052151 METAR KATL 052151Z 16003KT 10SM SCT030 SCT150 BKN200 26/20 A3002 RMK AO2 SLP155 TCU DSNT ALQDS T02560200=
200506052051 METAR KATL 052051Z 12007KT 10SM SCT047 SCT060 BKN130 27/20 A3002 RMK AO2 TSE33 SLP158 T02720200 50000=
200506052039 SPECI KATL 052039Z 11005KT 10SM SCT047 BKN060 BKN130 27/20 A3003 RMK AO2 TSE33=
200506052039 SPECI KATL 052039Z 11005KT 10SM SCT047 BKN060 BKN130 27/20 A3003 RMK AO2 TSE33=
200506052009 SPECI KATL 052009Z 08007KT 10SM TS SCT047CB BKN060 BKN130 24/19 A3003 RMK AO2 OCNL LTGCGIC TS E-SE MOV SE-S=
200506052009 SPECI KATL 052009Z 08007KT 10SM TS SCT047CB BKN060 BKN130 24/19 A3003 RMK AO2 OCNL LTGCGIC TS E-SE MOV SE-S=
200506051951 METAR KATL 051951Z 09014KT 10SM TS BKN021CB BKN044 BKN060 26/19 A3004 RMK AO2 TSB18 PRESRR SLP164 OCNL LTGCGICCA TS E-SE MOV=
200506051924 SPECI KATL 051924Z 04009KT 10SM TS BKN025CB BKN044 BKN060 26/20 A3002 RMK AO2 TSB18 FRQ LTGCG TS E-SE MOV SE-S=
200506051924 SPECI KATL 051924Z 04009KT 10SM TS BKN025CB BKN044 BKN060 26/20 A3002 RMK AO2 TSB18 FRQ LTGCG TS E-SE MOV SE-S=
200506051851 METAR KATL 051851Z 27012KT 9SM BKN038CB BKN047 BKN060 24/20 A3002 RMK AO2 PK WND 30029/1822 SLP158 LTG DSNT N-NE CB DSNT N-NE T02390200=
200506051751 METAR KATL 051751Z 04003KT 10SM SCT035 BKN045 BKN060 29/21 A3003 RMK AO2 SLP157 T02890206 10294 20217 58017=
200506051651 METAR KATL 051651Z 00000KT 10SM BKN025 28/21 A3005 RMK AO2 SLP164 T02830211=
200506051551 METAR KATL 051551Z 00000KT 9SM BKN019 27/22 A3006 RMK AO2 SLP169 T02720217=
200506051451 METAR KATL 051451Z VRB05KT 9SM BKN015 26/22 A3008 RMK AO2 SLP174 T02610217 50006=
200506051351 METAR KATL 051351Z 32008KT 9SM BKN013 25/22 A3008 RMK AO2 SLP175 T02500217=
200506051327 SPECI KATL 051327Z 31005KT 9SM BKN011 24/21 A3008 RMK AO2=
200506051327 SPECI KATL 051327Z 31005KT 9SM BKN011 24/21 A3008 RMK AO2=
200506051251 METAR KATL 051251Z 32004KT 8SM BKN007 23/21 A3007 RMK AO2 SLP174 T02330211=
200506051151 METAR KATL 051151Z 00000KT 6SM BR OVC005 22/21 A3006 RMK AO2 CIG 002V008 SLP169 70001 T02220211 10222 20206 51020=
200506051141 SPECI KATL 051141Z 00000KT 1 1/2SM BR OVC005 22/21 A3006 RMK AO2 SFC VIS 4 CIG 002V008=
200506051141 SPECI KATL 051141Z 00000KT 1 1/2SM BR OVC005 22/21 A3006 RMK AO2 SFC VIS 4 CIG 002V008=
200506051132 SPECI KATL 051132Z 29003KT 1 1/2SM BR BKN003 OVC007 22/21 A3005 RMK AO2 SFC VIS 3 CIG 001V006=
200506051132 SPECI KATL 051132Z 29003KT 1 1/2SM BR BKN003 OVC007 22/21 A3005 RMK AO2 SFC VIS 3 CIG 001V006=
200506051124 SPECI KATL 051124Z 29005KT 1/2SM BR OVC003 22/21 A3005 RMK AO2 SFC VIS 2 1/2=
200506051124 SPECI KATL 051124Z 29005KT 1/2SM BR OVC003 22/21 A3005 RMK AO2 SFC VIS 2 1/2=
200506051051 METAR KATL 051051Z 28006KT 1/2SM R09R/4000VP6000FT BR OVC001 21/21 A3004 RMK AO2 SFC VIS 1 SLP163 T02110211=
200506051015 SPECI KATL 051015Z 27006KT 1/4SM R09R/3500V5500FT BR OVC001 21/21 A3003 RMK AO2 SFC VIS 3/4=
200506051015 SPECI KATL 051015Z 27006KT 1/4SM R09R/3500V5500FT BR OVC001 21/21 A3003 RMK AO2 SFC VIS 3/4=
200506051010 SPECI KATL 051010Z 26005KT 1SM R09R/3500V6000FT BR OVC001 21/21 A3003 RMK AO2=
200506051010 SPECI KATL 051010Z 26005KT 1SM R09R/3500V6000FT BR OVC001 21/21 A3003 RMK AO2=
200506051002 SPECI KATL 051002Z 27005KT 1SM R09R/5000VP6000FT BR OVC003 21/21 A3002 RMK AO2 SFC VIS 3 CIG 001V005=
200506051002 SPECI KATL 051002Z 27005KT 1SM R09R/5000VP6000FT BR OVC003 21/21 A3002 RMK AO2 SFC VIS 3 CIG 001V005=
200506050951 METAR KATL 050951Z 26005KT 4SM BR BKN003 22/21 A3002 RMK AO2 CIG 002V006 SLP154 T02170211=
200506050923 SPECI KATL 050923Z 00000KT 3SM BR SCT003 21/21 A3000 RMK AO2=
200506050923 SPECI KATL 050923Z 00000KT 3SM BR SCT003 21/21 A3000 RMK AO2=
200506050851 METAR KATL 050851Z 00000KT 4SM BR CLR 21/21 A3000 RMK AO2 SLP147 T02110206 53005=
200506050826 SPECI KATL 050826Z 00000KT 4SM BR CLR 21/20 A2998 RMK AO2=
200506050826 SPECI KATL 050826Z 00000KT 4SM BR CLR 21/20 A2998 RMK AO2=
200506050751 METAR KATL 050751Z 00000KT 6SM BR CLR 21/21 A2998 RMK AO2 SLP143 T02110206=
200506050651 METAR KATL 050651Z 00000KT 3SM BR CLR 22/21 A2997 RMK AO2 SLP138 T02170206=
200506050551 METAR KATL 050551Z 14003KT 5SM BR CLR 22/21 A2998 RMK AO2 SLP143 T02220211 10267 20222 58006=
200506050451 METAR KATL 050451Z 00000KT 7SM FEW200 23/21 A3000 RMK AO2 SLP149 T02280211 402890183=
200506050351 METAR KATL 050351Z 13004KT 8SM FEW200 23/21 A3000 RMK AO2 SLP149 T02330211=
200506050251 METAR KATL 050251Z 15003KT 10SM FEW200 23/21 A3000 RMK AO2 SLP150 T02330211 51010=
200506050151 METAR KATL 050151Z 14004KT 10SM FEW200 24/21 A2999 RMK AO2 SLP148 T02440211=
200506050051 METAR KATL 050051Z COR 14005KT 9SM FEW055 SCT20O 26/21 A2998 RMK AO2 SLP143 T02560206=
200506042351 METAR KATL 042351Z COR 15007KT 9SM FEW055 27/21 A2997 RMK AO2 SLP139 T02670206 10289 20256 55000=
200506042251 METAR KATL 042251Z COR 12007KT 10SM FEW035 SCT055 28/20 A2996 RMK AO2 SLP136 TCU DSNT N T02780200=
200506042151 METAR KATL 042151Z COR 15007KT 10SM SCT035 SCT044 28/21 A2995 RMK AO2 SLP134 T02830206=
200506042051 METAR KATL 042051Z 12005KT 8SM FEW055 SCT070 28/21 A2997 RMK AO2 SLP139 T02830206 58010=
200506041951 METAR KATL 041951Z 00000KT 8SM SCT029 BKN046 BKN060 27/21 A2998 RMK AO2 SLP143 T02720206=
200506041851 METAR KATL 041851Z 16006KT 8SM SCT046 BKN060 BKN130 27/21 A2999 RMK AO2 SLP148 T02670206=
200506041751 METAR KATL 041751Z 14005KT 8SM SCT015 BKN030 BKN130 26/21 A3000 RMK AO2 SLP151 60001 T02610206 10261 20189 58005=
200506041651 METAR KATL 041651Z VRB04KT 6SM HZ FEW010 BKN012 OVC030 26/21 A3002 RMK AO2 SLP156 T02560206=
200506041551 METAR KATL 041551Z 00000KT 3SM HZ BKN010 OVC012 23/20 A3002 RMK AO2 SFC VIS 5 SLP159 T02280200=
200506041504 SPECI KATL 041504Z 08004KT 2 1/2SM HZ OVC010 23/20 A3002 RMK AO2 SFC VIS 4 CIG 007V013=
200506041504 SPECI KATL 041504Z 08004KT 2 1/2SM HZ OVC010 23/20 A3002 RMK AO2 SFC VIS 4 CIG 007V013=
200506041451 METAR KATL 041451Z 06004KT 2 1/2SM BR BKN007 OVC012 22/20 A3002 RMK AO2 SFC VIS 4 SLP157 60001 T02220200 51010=
200506041351 METAR KATL 041351Z 09005KT 1 1/2SM BR OVC005 21/20 A3001 RMK AO2 SFC VIS 3 SLP157 T02110200=
200506041251 METAR KATL 041251Z 09006KT 1SM BR OVC003 19/19 A3000 RMK AO2 SFC VIS 2 RAB20E39 SLP154 P0001 T01940189=
200506041222 SPECI KATL 041222Z 07007KT 1SM -RA BR OVC001 19/19 A2999 RMK AO2 SFC VIS 1 3/4 RAB20 P0000=
200506041222 SPECI KATL 041222Z 07007KT 1SM -RA BR OVC001 19/19 A2999 RMK AO2 SFC VIS 1 3/4 RAB20 P0000=
200506041151 METAR KATL 041151Z 08006KT 1/4SM R09R/5500VP6000FT BR OVC001 19/19 A2999 RMK AO2 SFC VIS 1 1/4 RAB35E45 SLP148 P0000 60000 T01890189 10189 20183 53012=
200506041103 SPECI KATL 041103Z 05009KT 1/4SM R09R/P6000FT BR OVC001 19/18 A2997 RMK AO2 SFC VIS 1=
200506041103 SPECI KATL 041103Z 05009KT 1/4SM R09R/P6000FT BR OVC001 19/18 A2997 RMK AO2 SFC VIS 1=
200506041051 METAR KATL 041051Z 08007KT 1SM BR OVC001 19/18 A2997 RMK AO2 SFC VIS 2 RAB0959E07 SLP141 P0000 T01890183=
200506040951 METAR KATL 040951Z 07005KT 1SM BR OVC001 19/18 A2995 RMK AO2 SFC VIS 1 1/2 SLP136 T01890183=
200506040851 METAR KATL 040851Z 08005KT 1 1/2SM BR OVC001 19/18 A2995 RMK AO2 SFC VIS 3 SLP134 T01890183 55004=
200506040751 METAR KATL 040751Z 08006KT 1/2SM R09R/2600V3000FT BR OVC001 18/18 A2994 RMK AO2 SFC VIS 3/4 SLP134 T01830183=
200506040651 METAR KATL 040651Z 08005KT 1/2SM R09R/3500VP6000FT BR OVC001 18/18 A2995 RMK AO2 SFC VIS 1 SLP136 T01830183=
200506040616 SPECI KATL 040616Z 08009KT 1/2SM R09R/2800V4500FT FG VV001 18/18 A2995 RMK AO2=
200506040616 SPECI KATL 040616Z 08009KT 1/2SM R09R/2800V4500FT FG VV001 18/18 A2995 RMK AO2=
200506040601 SPECI KATL 040601Z 07009KT 1/2SM R09R/3000V5000FT BR OVC002 19/18 A2996 RMK AO2 SFC VIS 3/4=
200506040601 SPECI KATL 040601Z 07009KT 1/2SM R09R/3000V5000FT BR OVC002 19/18 A2996 RMK AO2 SFC VIS 3/4=
200506040551 METAR KATL 040551Z 08007KT 1SM R09R/3500VP6000FT BR OVC002 19/18 A2996 RMK AO2 TWR VIS 1 1/2 SLP139 T01890183 10222 20189 58002=
200506040451 METAR KATL 040451Z 08007KT 1 1/2SM BR OVC002 19/18 A2997 RMK AO2 SFC VIS 3 SLP142 T01890183 402390161=
200506040414 SPECI KATL 040414Z 07009KT 1 1/2SM BR OVC002 19/18 A2997 RMK AO2 SFC VIS 3=
200506040414 SPECI KATL 040414Z 07009KT 1 1/2SM BR OVC002 19/18 A2997 RMK AO2 SFC VIS 3=
200506040351 METAR KATL 040351Z 08008KT 2SM BR OVC003 19/18 A2997 RMK AO2 SFC VIS 3 SLP142 CIG 002V005 T01940183=
200506040344 SPECI KATL 040344Z 08007KT 2SM BR OVC003 19/18 A2997 RMK AO2 SFC VIS 4 CIG 002V005=
200506040344 SPECI KATL 040344Z 08007KT 2SM BR OVC003 19/18 A2997 RMK AO2 SFC VIS 4 CIG 002V005=
200506040327 SPECI KATL 040327Z 09009KT 4SM BR OVC003 19/18 A2998 RMK AO2=
200506040327 SPECI KATL 040327Z 09009KT 4SM BR OVC003 19/18 A2998 RMK AO2=
200506040251 METAR KATL 040251Z 07009KT 5SM BR OVC005 19/18 A2997 RMK AO2 SLP141 CIG 003V007 BINOVC T01940183 53010=
200506040220 SPECI KATL 040220Z 08007KT 6SM BR BKN005 19/18 A2996 RMK AO2=
200506040220 SPECI KATL 040220Z 08007KT 6SM BR BKN005 19/18 A2996 RMK AO2=
200506040151 METAR KATL 040151Z 09009KT 7SM FEW008 SCT250 20/19 A2996 RMK AO2 SLP140 T02000189=
200506040051 METAR KATL 040051Z 08009KT 7SM FEW015 SCT250 21/19 A2994 RMK AO2 SLP132 T02060189=
200506032351 METAR KATL 032351Z 08008KT 10SM FEW015 SCT250 22/19 A2994 RMK AO2 SLP131 T02220189 10239 20211 53004=
200506032320 SPECI KATL 032320Z 10008KT 10SM SCT015 BKN020 23/19 A2992 RMK AO2=
200506032320 SPECI KATL 032320Z 10008KT 10SM SCT015 BKN020 23/19 A2992 RMK AO2=
200506032251 METAR KATL 032251Z 09008KT 10SM FEW018 23/19 A2990 RMK AO2 SLP120 T02330189=
200506032230 SPECI KATL 032230Z 07008KT 10SM FEW015 SCT025 24/19 A2991 RMK AO2=
200506032230 SPECI KATL 032230Z 07008KT 10SM FEW015 SCT025 24/19 A2991 RMK AO2=
200506032151 METAR KATL 032151Z 09006KT 10SM FEW014 SCT020 BKN026 23/19 A2991 RMK AO2 SLP123 T02330194=
200506032051 METAR KATL 032051Z 06008KT 8SM FEW012 BKN015 BKN030 23/20 A2992 RMK AO2 SLP127 T02330200 58013=
200506032042 SPECI KATL 032042Z 08008KT 8SM FEW012 BKN015 BKN030 23/19 A2993 RMK AO2=
200506032042 SPECI KATL 032042Z 08008KT 8SM FEW012 BKN015 BKN030 23/19 A2993 RMK AO2=
200506031951 METAR KATL 031951Z 09004KT 6SM HZ OVC012 22/19 A2995 RMK AO2 SLP136 T02170189=
200506031851 METAR KATL 031851Z 14004KT 6SM HZ OVC010 22/19 A2996 RMK AO2 SLP139 T02170189=
200506031759 SPECI KATL 031759Z 08006KT 6SM HZ OVC010 22/19 A2996 RMK AO2=
200506031759 SPECI KATL 031759Z 08006KT 6SM HZ OVC010 22/19 A2996 RMK AO2=
200506031751 METAR KATL 031751Z 11003KT 6SM HZ OVC008 22/19 A2996 RMK AO2 SLP140 T02170189 10217 20167 50000=
200506031651 METAR KATL 031651Z 08006KT 6SM BR OVC008 21/19 A2997 RMK AO2 SLP142 T02110189=
200506031602 SPECI KATL 031602Z 11005KT 6SM BR OVC006 21/18 A2997 RMK AO2=
200506031602 SPECI KATL 031602Z 11005KT 6SM BR OVC006 21/18 A2997 RMK AO2=
200506031551 METAR KATL 031551Z 09006KT 3SM BR OVC006 19/18 A2997 RMK AO2 SFC VIS 5 SLP144 T01940183=
200506031542 SPECI KATL 031542Z 11004KT 3SM BR OVC005 20/18 A2997 RMK AO2 SFC VIS 5=
200506031542 SPECI KATL 031542Z 11004KT 3SM BR OVC005 20/18 A2997 RMK AO2 SFC VIS 5=
200506031507 SPECI KATL 031507Z 10004KT 2 1/2SM BR OVC005 19/18 A2996 RMK AO2 SFC VIS 4=
200506031507 SPECI KATL 031507Z 10004KT 2 1/2SM BR OVC005 19/18 A2996 RMK AO2 SFC VIS 4=
200506031451 METAR KATL 031451Z 10005KT 1 1/2SM BR OVC003 19/18 A2996 RMK AO2 SFC VIS 3 SLP140 T01890178 52001=
200506031351 METAR KATL 031351Z 10005KT 1SM BR OVC003 18/17 A2996 RMK AO2 SFC VIS 1 1/2 SLP142 T01780172=
200506031251 METAR KATL 031251Z 08005KT 3/4SM R09R/P6000FT BR OVC002 17/17 A2996 RMK AO2 SFC VIS 1 SLP139 T01720167=
200506031224 SPECI KATL 031224Z 08007KT 1 1/2SM BR OVC002 17/17 A2996 RMK AO2 SFC VIS 2=
200506031224 SPECI KATL 031224Z 08007KT 1 1/2SM BR OVC002 17/17 A2996 RMK AO2 SFC VIS 2=
200506031151 METAR KATL 031151Z 08005KT 3/4SM R09R/5500VP6000FT BR OVC002 17/17 A2996 RMK AO2 SLP140 60000 70001 T01670167 10167 20161 53010=
200506031051 METAR KATL 031051Z 08007KT 3/4SM R09R/P6000FT BR OVC002 17/16 A2994 RMK AO2 SFC VIS 1 SLP135 T01670161=
200506030951 METAR KATL 030951Z 08007KT 1/2SM R09R/3500V6000FT BR OVC002 16/16 A2993 RMK AO2 SFC VIS 1 SLP132 T01610161=
200506030851 METAR KATL 030851Z 08006KT 1/2SM R09R/3000V3500FT BR OVC002 16/16 A2993 RMK AO2 SFC VIS 3/4 DZE48 SLP128 P0000 60000 T01610161 56005=
200506030751 METAR KATL 030751Z 08008KT 1/2SM R09R/4500V5500FT -DZ BR OVC002 16/16 A2993 RMK AO2 SFC VIS 1 DZB43 SLP128 P0000 T01610161=
200506030651 METAR KATL 030651Z 09006KT 1/2SM BR OVC002 17/16 A2993 RMK AO2 SFC VIS 1 1/2 SLP130 T01670161=
200506030640 SPECI KATL 030640Z 09008KT 1/2SM BR OVC002 16/16 A2993 RMK AO2 SFC VIS 1 1/2=
200506030640 SPECI KATL 030640Z 09008KT 1/2SM BR OVC002 16/16 A2993 RMK AO2 SFC VIS 1 1/2=
200506030551 METAR KATL 030551Z 08012KT 1 1/2SM BR OVC002 17/16 A2994 RMK AO2 SFC VIS 2 SLP134 T01670161 10178 20167 58003=
200506030451 METAR KATL 030451Z 08009KT 1 1/2SM BR OVC002 17/16 A2996 RMK AO2 SFC VIS 2 SLP141 T01670161 402280150=
200506030437 SPECI KATL 030437Z 09009KT 1 1/2SM BR OVC002 17/16 A2996 RMK AO2 SFC VIS 3=
200506030437 SPECI KATL 030437Z 09009KT 1 1/2SM BR OVC002 17/16 A2996 RMK AO2 SFC VIS 3=
200506030351 METAR KATL 030351Z 09014KT 4SM BR OVC004 17/16 A2995 RMK AO2 SLP137 T01670161=
200506030251 METAR KATL 030251Z 08011KT 7SM OVC004 17/16 A2995 RMK AO2 SLP138 T01720161 51019=
200506030151 METAR KATL 030151Z 08011KT 4SM BR OVC004 17/17 A2994 RMK AO2 SLP133 T01720167=
200506030051 METAR KATL 030051Z 07010KT 3SM BR OVC004 18/17 A2992 RMK AO2 SFC VIS 5 SLP126 T01780167=
200506022351 METAR KATL 022351Z 08012KT 3SM BR OVC004 18/17 A2989 RMK AO2 SFC VIS 4 RAE24 SLP120 P0000 60001 T01780172 10228 20178 50002=
200506022341 SPECI KATL 022341Z 09009KT 3SM BR OVC004 18/17 A2990 RMK AO2 SFC VIS 4 RAE24 P0000=
200506022341 SPECI KATL 022341Z 09009KT 3SM BR OVC004 18/17 A2990 RMK AO2 SFC VIS 4 RAE24 P0000=
200506022251 METAR KATL 022251Z 09012KT 5SM -RA BR BKN008 BKN020 OVC050 18/17 A2991 RMK AO2 RAB08 SLP125 P0001 T01830172=
200506022151 METAR KATL 022151Z 08011KT 8SM BKN010 BKN020 OVC140 19/17 A2991 RMK AO2 RAB2053E17 SLP122 P0000 T01940172=
200506022129 SPECI KATL 022129Z 07011KT 8SM SCT010 SCT020 OVC140 19/17 A2988 RMK AO2 RAB2053E17 P0000=
200506022129 SPECI KATL 022129Z 07011KT 8SM SCT010 SCT020 OVC140 19/17 A2988 RMK AO2 RAB2053E17 P0000=
200506022110 SPECI KATL 022110Z 06011KT 9SM -RA BKN012 BKN020 OVC140 20/18 A2989 RMK AO2 RAB2053 P0000=
200506022110 SPECI KATL 022110Z 06011KT 9SM -RA BKN012 BKN020 OVC140 20/18 A2989 RMK AO2 RAB2053 P0000=
200506022051 METAR KATL 022051Z 07012KT 10SM FEW015 SCT030 OVC150 21/17 A2989 RMK AO2 SLP115 T02060172 56013=
200506021951 METAR KATL 021951Z 10008KT 10SM BKN018 BKN030 BKN070 OVC180 22/17 A2990 RMK AO2 SLP120 BINOVC N-NE T02220172=
200506021851 METAR KATL 021851Z 08007KT 030V090 10SM FEW016 BKN024 BKN180 22/18 A2991 RMK AO2 SLP122 T02220183=
200506021842 SPECI KATL 021842Z 13006KT 10SM BKN016 OVC022 21/18 A2991 RMK AO2 BINOVC=
200506021842 SPECI KATL 021842Z 13006KT 10SM BKN016 OVC022 21/18 A2991 RMK AO2 BINOVC=
200506021751 METAR KATL 021751Z 12006KT 9SM OVC010 20/17 A2993 RMK AO2 CIG 009V014 SLP130 T02000172 10200 20156 50001=
200506021651 METAR KATL 021651Z 09006KT 8SM OVC010 20/17 A2994 RMK AO2 SLP134 T02000172=
200506021551 METAR KATL 021551Z 09006KT 7SM OVC006 19/17 A2994 RMK AO2 SLP133 T01890172=
200506021529 SPECI KATL 021529Z 10005KT 6SM BR OVC006 19/17 A2993 RMK AO2=
200506021529 SPECI KATL 021529Z 10005KT 6SM BR OVC006 19/17 A2993 RMK AO2=
200506021451 METAR KATL 021451Z 08009KT 6SM BR OVC004 18/17 A2992 RMK AO2 SLP128 BINOVC T01830167 51004=
200506021351 METAR KATL 021351Z 07007KT 6SM BR OVC004 17/16 A2992 RMK AO2 SLP129 T01720161=
200506021343 SPECI KATL 021343Z 06008KT 6SM BR OVC004 17/16 A2992 RMK AO2=
200506021343 SPECI KATL 021343Z 06008KT 6SM BR OVC004 17/16 A2992 RMK AO2=
200506021251 METAR KATL 021251Z 07008KT 2 1/2SM BR OVC004 16/16 A2992 RMK AO2 SFC VIS 6 SLP128 T01610156=
200506021151 METAR KATL 021151Z 06007KT 2SM BR OVC002 16/15 A2991 RMK AO2 SFC VIS 4 SLP126 60000 70030 T01560150 10161 20150 51027=
200506021051 METAR KATL 021051Z 10003KT 1 1/2SM BR OVC002 16/15 A2989 RMK AO2 SFC VIS 3 SLP119 T01560150=
200506021008 SPECI KATL 021008Z 08003KT 2SM BR OVC004 16/15 A2988 RMK AO2 SFC VIS 2 1/2=
200506021008 SPECI KATL 021008Z 08003KT 2SM BR OVC004 16/15 A2988 RMK AO2 SFC VIS 2 1/2=
200506020951 METAR KATL 020951Z 07004KT 7SM OVC004 16/15 A2987 RMK AO2 SLP110 T01560150=
200506020851 METAR KATL 020851Z 06011KT 7SM OVC004 16/15 A2983 RMK AO2 SLP097 60000 T01560150 58004=
200506020751 METAR KATL 020751Z 06008KT 7SM OVC004 16/15 A2984 RMK AO2 TSE00 SLP100 T01560150=
200506020700 SPECI KATL 020700Z 07008KT 10SM OVC004 16/15 A2984 RMK AO2 TSE00 TS MOV NE=
200506020700 SPECI KATL 020700Z 07008KT 10SM OVC004 16/15 A2984 RMK AO2 TSE00 TS MOV NE=
200506020651 METAR KATL 020651Z 07008KT 10SM TS OVC004CB 16/14 A2984 RMK AO2 TSB39RAE11 SLP100 OCNL LTGIC TS VC SE MOV NE P0000 T01560144=
200506020640 SPECI KATL 020640Z 07011KT 10SM TS OVC004CB 16/14 A2984 RMK AO2 TSB39RAE11 OCNL LTGIC TS VC SE MOV NE P0000=
200506020640 SPECI KATL 020640Z 07011KT 10SM TS OVC004CB 16/14 A2984 RMK AO2 TSB39RAE11 OCNL LTGIC TS VC SE MOV NE P0000=
200506020551 METAR KATL 020551Z 07010KT 10SM -RA OVC004 16/15 A2984 RMK AO2 RAB10E20B47 SLP101 OCNL LTG DSNT E P0000 60002 T01560150 10156 20156 58008=
200506020451 METAR KATL 020451Z 07013KT 10SM OVC005 16/14 A2986 RMK AO2 RAB21E38 SLP107 CIG 004V008 P0001 T01560144 401780156=
200506020351 METAR KATL 020351Z 06013KT 10SM OVC006 16/14 A2986 RMK AO2 SLP107 T01560144=
200506020251 METAR KATL 020251Z 07013KT 10SM OVC006 16/14 A2986 RMK AO2 SLP109 60001 T01560144 53004=
200506020151 METAR KATL 020151Z 07015G20KT 10SM OVC006 16/14 A2986 RMK AO2 RAE0053 SLP107 CIG 004V010 OCNL LTG DSNT E-SE P0000 T01560144=
200506020051 METAR KATL 020051Z 07018G24KT 10SM -RA OVC007 16/14 A2985 RMK AO2 RAE16B34 SLP105 CIG 004V010 PCPN VRY LGT P0001 T01560144=
200506012351 METAR KATL 012351Z 07015KT 3SM -RA BR BKN008 OVC020 16/14 A2985 RMK AO2 TWR VIS 4 SLP105 CIG 005V012 P0001 60024 T01560144 10172 20156 55001=
200506012251 METAR KATL 012251Z 07019KT 10SM -RA BKN008 OVC020 16/15 A2984 RMK AO2 SLP103 CIG 005V012 P0000 T01610150=
200506012201 SPECI KATL 012201Z 07014KT 7SM -RA BKN008 OVC020 16/16 A2984 RMK AO2 CIG 005V012 P0000=
200506012201 SPECI KATL 012201Z 07014KT 7SM -RA BKN008 OVC020 16/16 A2984 RMK AO2 CIG 005V012 P0000=
200506012151 METAR KATL 012151Z 06016KT 2 1/2SM -RA BR BKN008 OVC020 16/16 A2985 RMK AO2 SFC VIS 5 SLP102 CIG 005V012 P0001 T01610156=
200506012138 SPECI KATL 012138Z 07016G25KT 2 1/2SM -RA BR OVC009 17/16 A2984 RMK AO2 SFC VIS 3 CIG 007V011 P0000=
200506012138 SPECI KATL 012138Z 07016G25KT 2 1/2SM -RA BR OVC009 17/16 A2984 RMK AO2 SFC VIS 3 CIG 007V011 P0000=
200506012110 SPECI KATL 012110Z 06014G21KT 8SM OVC007 17/16 A2985 RMK AO2 RAE09 CIG 005V010 P0000=
200506012110 SPECI KATL 012110Z 06014G21KT 8SM OVC007 17/16 A2985 RMK AO2 RAE09 CIG 005V010 P0000=
200506012058 SPECI KATL 012058Z 07010KT 1 1/2SM -RA BR BKN007 OVC014 17/16 A2985 RMK AO2 SFC VIS 4 CIG 005V011 P0000=
200506012058 SPECI KATL 012058Z 07010KT 1 1/2SM -RA BR BKN007 OVC014 17/16 A2985 RMK AO2 SFC VIS 4 CIG 005V011 P0000=
200506012051 METAR KATL 012051Z 07012G22KT 1 1/2SM -RA BR SCT007 BKN012 OVC020 17/16 A2985 RMK AO2 SFC VIS 3 SLP105 P0015 60022 T01670156 55004=
200506012002 SPECI KATL 012002Z 06020G23KT 1SM R09R/4500VP6000FT RA BR OVC006 17/16 A2985 RMK AO2 SFC VIS 1 3/4 CIG 005V011 P0002=
200506012002 SPECI KATL 012002Z 06020G23KT 1SM R09R/4500VP6000FT RA BR OVC006 17/16 A2985 RMK AO2 SFC VIS 1 3/4 CIG 005V011 P0002=
200506011951 METAR KATL 011951Z 06018G23KT 2SM -RA BR OVC006 17/16 A2985 RMK AO2 SFC VIS 2 1/2 CIG 005V009 SLP104 P0003 T01670161=
200506011851 METAR KATL 011851Z 07019KT 2SM -RA BR OVC008 17/16 A2986 RMK AO2 SFC VIS 4 CIG 005V012 SLP108 P0004 T01720161=
200506011821 SPECI KATL 011821Z 07015KT 2SM -RA BR OVC006 17/17 A2986 RMK AO2 SFC VIS 2 1/2 CIG 004V009 P0002=
200506011821 SPECI KATL 011821Z 07015KT 2SM -RA BR OVC006 17/17 A2986 RMK AO2 SFC VIS 2 1/2 CIG 004V009 P0002=
200506011812 SPECI KATL 011812Z 07018G23KT 2 1/2SM -RA BR OVC006 17/16 A2986 RMK AO2 TWR VIS 3 CIG 005V010 P0001=
200506011812 SPECI KATL 011812Z 07018G23KT 2 1/2SM -RA BR OVC006 17/16 A2986 RMK AO2 TWR VIS 3 CIG 005V010 P0001=
200506011751 METAR KATL 011751Z 07017G22KT 3SM -RA BR OVC004 17/17 A2987 RMK AO2 SFC VIS 6 DZE18RAB18 CIG 004V009 SLP109 P0001 60004 T01720167 10172 20161 58014=
200506011651 METAR KATL 011651Z 07019KT 2 1/2SM -DZ BR OVC004 17/16 A2989 RMK AO2 SFC VIS 4 DZE20B48RAB20E48 SLP115 P0001 T01720161=
200506011644 SPECI KATL 011644Z 08015KT 2 1/2SM -RA BR OVC004 17/16 A2989 RMK AO2 SFC VIS 5 DZE20RAB20 P0001=
200506011644 SPECI KATL 011644Z 08015KT 2 1/2SM -RA BR OVC004 17/16 A2989 RMK AO2 SFC VIS 5 DZE20RAB20 P0001=
200506011551 METAR KATL 011551Z 07015KT 2 1/2SM -DZ BR OVC006 17/16 A2990 RMK AO2 SFC VIS 3 CIG 004V008 SLP119 P0000 T01720161=
200506011541 SPECI KATL 011541Z 07016G21KT 2 1/2SM -DZ BR OVC006 17/16 A2990 RMK AO2 SFC VIS 4 CIG 003V008 P0000=
200506011541 SPECI KATL 011541Z 07016G21KT 2 1/2SM -DZ BR OVC006 17/16 A2990 RMK AO2 SFC VIS 4 CIG 003V008 P0000=
200506011528 SPECI KATL 011528Z 07018KT 2SM -DZ BR OVC004 17/16 A2990 RMK AO2 SFC VIS 3 CIG 003V009 P0000=
200506011528 SPECI KATL 011528Z 07018KT 2SM -DZ BR OVC004 17/16 A2990 RMK AO2 SFC VIS 3 CIG 003V009 P0000=
200506011451 METAR KATL 011451Z 08015KT 2SM -DZ BR OVC006 17/16 A2991 RMK AO2 DZE1358B47RAB1358E47 CIG 003V009 SLP123 P0001 60002 T01670161 50004=
200506011351 METAR KATL 011351Z 08016KT 2SM -DZ BR OVC004 17/16 A2991 RMK AO2 RAB1256E49DZB49 CIG 003V008 SLP123 P0000 T01670156=
200506011251 METAR KATL 011251Z 07015KT 2SM BR OVC004 17/16 A2991 RMK AO2 RAE24 SLP123 P0001 T01670161=
200506011203 SPECI KATL 011203Z 08014KT 2SM -RA BR OVC004 17/16 A2990 RMK AO2 SFC VIS 2 1/2 CIG 003V008 P0000=
200506011203 SPECI KATL 011203Z 08014KT 2SM -RA BR OVC004 17/16 A2990 RMK AO2 SFC VIS 2 1/2 CIG 003V008 P0000=
Fallo de consulta: el error es SELECT command denied to user 'users'@'localhost' for table 'tafs_2005'
