##########################################################
# Query made at 04/19/2024 22:58:49 UTC
# Time interval: from 11/01/2006 12:00  to 11/30/2006 12:59  UTC
##########################################################

##########################################################
# KATL, Atlanta, Hartsfield - Jackson Atlanta International Airport (United States)
# WMO index: 72219. WIGOS ID: 0-20000-0-72219
# Latitude 33-38-59N. Longitude 084-25-00W. Altitude 312 m.
##########################################################

200611301252 METAR KATL 301252Z 13004KT 1SM -RA BR BKN003 OVC006 18/16 A3017 RMK AO2 SFC VIS 5 SLP211 P0017 T01780161=
200611301221 SPECI KATL 301221Z 21003KT 1SM RA BR BKN003 OVC006 17/16 A3017 RMK AO2 SFC VIS 2 P0011=
200611301221 SPECI KATL 301221Z 21003KT 1SM RA BR BKN003 OVC006 17/16 A3017 RMK AO2 SFC VIS 2 P0011=
200611301152 METAR KATL 301152Z 12005KT 1SM -RA BR BKN006 BKN013 OVC024 17/16 A3017 RMK AO2 SFC VIS 3 RAB23 SLP211 P0007 60013 70016 T01720161 10183 20167 55004=
200611301147 SPECI KATL 301147Z 12005KT 1SM RA BR SCT006 BKN013 OVC024 17/16 A3017 RMK AO2 SFC VIS 2 1/2 RAB23 P0006=
200611301147 SPECI KATL 301147Z 12005KT 1SM RA BR SCT006 BKN013 OVC024 17/16 A3017 RMK AO2 SFC VIS 2 1/2 RAB23 P0006=
200611301136 SPECI KATL 301136Z VRB05KT 2 1/2SM -RA BR BKN008 OVC014 17/16 A3017 RMK AO2 TWR VIS 3 RAB23 P0003=
200611301136 SPECI KATL 301136Z VRB05KT 2 1/2SM -RA BR BKN008 OVC014 17/16 A3017 RMK AO2 TWR VIS 3 RAB23 P0003=
200611301101 SPECI KATL 301101Z 14008KT 10SM BKN008 BKN014 OVC040 18/16 A3016 RMK AO2=
200611301101 SPECI KATL 301101Z 14008KT 10SM BKN008 BKN014 OVC040 18/16 A3016 RMK AO2=
200611301054 SPECI KATL 301054Z 14007KT 10SM SCT009 BKN016 OVC038 18/16 A3016 RMK AO2=
200611301054 SPECI KATL 301054Z 14007KT 10SM SCT009 BKN016 OVC038 18/16 A3016 RMK AO2=
200611301052 METAR KATL 301052Z 14007KT 10SM SCT011 BKN018 OVC038 18/16 A3016 RMK AO2 RAB12E50 SLP209 P0002 T01780161=
200611300952 METAR KATL 300952Z 12003KT 10SM FEW007 BKN014 OVC020 17/16 A3016 RMK AO2 RAE0858B19E51 SLP209 P0001 T01720156=
200611300852 METAR KATL 300852Z 33005KT 7SM -RA BKN010 OVC015 17/16 A3018 RMK AO2 RAE18B35 CIG 008V014 SLP215 P0001 60003 T01720156 55003=
200611300844 SPECI KATL 300844Z 28004KT 6SM -RA BR BKN014 OVC027 17/16 A3018 RMK AO2 RAE18B35 P0000=
200611300844 SPECI KATL 300844Z 28004KT 6SM -RA BR BKN014 OVC027 17/16 A3018 RMK AO2 RAE18B35 P0000=
200611300752 METAR KATL 300752Z 11006KT 7SM -RA BKN018 BKN030 OVC036 17/15 A3016 RMK AO2 RAE02B19 SLP209 P0001 T01720150=
200611300715 SPECI KATL 300715Z 12003KT 10SM BKN018 OVC049 17/16 A3017 RMK AO2 RAE02 P0000=
200611300715 SPECI KATL 300715Z 12003KT 10SM BKN018 OVC049 17/16 A3017 RMK AO2 RAE02 P0000=
200611300652 METAR KATL 300652Z 12005KT 5SM -RA BR SCT038 BKN047 OVC065 17/15 A3018 RMK AO2 RAB08 SLP214 P0001 T01720150=
200611300552 METAR KATL 300552Z 12004KT 10SM FEW025 BKN055 OVC070 18/15 A3019 RMK AO2 RAB25E39 SLP217 P0000 60000 T01830150 10200 20178 58009=
200611300526 SPECI KATL 300526Z 14006KT 9SM -RA SCT024 OVC065 18/15 A3021 RMK AO2 RAB25 P0000=
200611300526 SPECI KATL 300526Z 14006KT 9SM -RA SCT024 OVC065 18/15 A3021 RMK AO2 RAB25 P0000=
200611300518 SPECI KATL 300518Z 15004KT 10SM BKN024 OVC060 18/15 A3021 RMK AO2=
200611300518 SPECI KATL 300518Z 15004KT 10SM BKN024 OVC060 18/15 A3021 RMK AO2=
200611300452 METAR KATL 300452Z VRB04KT 10SM FEW040 BKN055 OVC070 19/15 A3021 RMK AO2 RAE12 SLP225 P0000 T01890150 402110061=
200611300352 METAR KATL 300352Z 13008KT 10SM -RA FEW040 BKN055 OVC070 19/15 A3022 RMK AO2 RAB46 SLP227 P0000 T01890150=
200611300252 METAR KATL 300252Z 11008KT 10SM FEW040 BKN070 OVC100 19/16 A3022 RMK AO2 SLP228 T01890156 50000=
200611300152 METAR KATL 300152Z 09008KT 10SM FEW035 BKN045 BKN100 18/16 A3022 RMK AO2 SLP230 T01830156=
200611300052 METAR KATL 300052Z 08009KT 10SM SCT055 BKN070 OVC095 18/16 A3023 RMK AO2 SLP231 T01830161=
200611292352 METAR KATL 292352Z 10006KT 10SM BKN042 BKN055 OVC090 19/16 A3022 RMK AO2 RAE09 SLP229 P0001 60003 T01890156 10211 20183 53008=
200611292252 METAR KATL 292252Z 21004KT 9SM -RA FEW020 SCT028 OVC035 19/17 A3021 RMK AO2 RAB2159 SLP227 P0001 T01890167=
200611292220 SPECI KATL 292220Z 15003KT 10SM -RA FEW020 SCT028 OVC040 19/16 A3021 RMK AO2 RAB2159 P0000=
200611292220 SPECI KATL 292220Z 15003KT 10SM -RA FEW020 SCT028 OVC040 19/16 A3021 RMK AO2 RAB2159 P0000=
200611292211 SPECI KATL 292211Z 14004KT 8SM -RA BKN028 BKN045 OVC090 19/16 A3021 RMK AO2 RAB2159 P0000=
200611292211 SPECI KATL 292211Z 14004KT 8SM -RA BKN028 BKN045 OVC090 19/16 A3021 RMK AO2 RAB2159 P0000=
200611292152 METAR KATL 292152Z 12005KT 10SM FEW025 BKN050 BKN090 BKN250 20/16 A3020 RMK AO2 SLP221 VIS LWR SE-W SHRA T02000156=
200611292052 METAR KATL 292052Z 11009KT 10SM FEW025 BKN070 BKN095 BKN250 20/15 A3020 RMK AO2 SLP220 60001 T02000150 56016=
200611291952 METAR KATL 291952Z 10006KT 10SM FEW015 SCT025 BKN055 BKN150 BKN250 19/16 A3020 RMK AO2 RAE1857 SLP224 SHRA DSNT NW-N-NE P0000 T01940156=
200611291901 SPECI KATL 291901Z 10008KT 9SM SCT025 BKN037 BKN055 OVC150 18/16 A3023 RMK AO2 RAE1857 VIS LWR NW-N-NE SHRA P0000=
200611291901 SPECI KATL 291901Z 10008KT 9SM SCT025 BKN037 BKN055 OVC150 18/16 A3023 RMK AO2 RAE1857 VIS LWR NW-N-NE SHRA P0000=
200611291858 SPECI KATL 291858Z 09005KT 6SM BR SCT025 SCT037 BKN055 OVC150 18/16 A3023 RMK AO2 RAE57 VIS LWR NW-N-NE SHRA P0000=
200611291858 SPECI KATL 291858Z 09005KT 6SM BR SCT025 SCT037 BKN055 OVC150 18/16 A3023 RMK AO2 RAE57 VIS LWR NW-N-NE SHRA P0000=
200611291852 METAR KATL 291852Z 12005KT 2 1/2SM -RA BR FEW012 SCT025 BKN060 OVC150 18/16 A3023 RMK AO2 SFC VIS 4 RAB19 SLP234 P0001 T01830161=
200611291835 SPECI KATL 291835Z 18010KT 2 1/2SM -RA BR FEW015 BKN029 OVC038 19/17 A3024 RMK AO2 SFC VIS 4 RAB19 VIS E-SW 2 SHRA P0000=
200611291835 SPECI KATL 291835Z 18010KT 2 1/2SM -RA BR FEW015 BKN029 OVC038 19/17 A3024 RMK AO2 SFC VIS 4 RAB19 VIS E-SW 2 SHRA P0000=
200611291758 SPECI KATL 291758Z 15012G17KT 10SM FEW023 SCT027 BKN070 BKN200 21/14 A3024 RMK AO2 SHRA DSNT SE-SW=
200611291758 SPECI KATL 291758Z 15012G17KT 10SM FEW023 SCT027 BKN070 BKN200 21/14 A3024 RMK AO2 SHRA DSNT SE-SW=
200611291752 METAR KATL 291752Z 16013G17KT 10SM SCT027 SCT070 OVC200 21/14 A3024 RMK AO2 SLP237 SHRA DSNT SE-SW T02110144 10211 20167 58016=
200611291652 METAR KATL 291652Z 15008KT 120V180 10SM FEW022 SCT030 BKN080 BKN250 21/16 A3026 RMK AO2 SLP242 T02060156=
200611291552 METAR KATL 291552Z 18013KT 10SM BKN017 OVC037 19/15 A3029 RMK AO2 SLP253 T01940150=
200611291543 SPECI KATL 291543Z 17009KT 10SM BKN017 BKN022 OVC090 19/15 A3029 RMK AO2=
200611291543 SPECI KATL 291543Z 17009KT 10SM BKN017 BKN022 OVC090 19/15 A3029 RMK AO2=
200611291452 METAR KATL 291452Z 14007KT 8SM FEW010 SCT090 BKN250 18/16 A3029 RMK AO2 SLP254 T01830156 51009=
200611291407 SPECI KATL 291407Z 13007KT 3SM BR BKN006 BKN009 BKN090 18/16 A3029 RMK AO2 SFC VIS 6=
200611291407 SPECI KATL 291407Z 13007KT 3SM BR BKN006 BKN009 BKN090 18/16 A3029 RMK AO2 SFC VIS 6=
200611291352 METAR KATL 291352Z COR 13006KT 3SM BKN006 BKN009 BKN090 17/16 A3029 RMK AO2 SFC VIS 5 SLP253 T01720156=
200611291252 METAR KATL 291252Z 12005KT 3SM OVC004 17/15 A3028 RMK AO2 SFC VIS 7 CIG 003V007 SLP250 T01670150=
200611291152 METAR KATL 291152Z 12008KT 3SM BR BKN004 OVC095 17/15 A3026 RMK AO2 SFC VIS 6 CIG 003V008 SLP245 T01670150 10167 20156 53003=
200611291059 SPECI KATL 291059Z 10005KT 9SM BKN004 OVC090 17/15 A3025 RMK AO2=
200611291059 SPECI KATL 291059Z 10005KT 9SM BKN004 OVC090 17/15 A3025 RMK AO2=
200611291052 METAR KATL 291052Z 10005KT 8SM FEW004 BKN014 OVC090 17/15 A3025 RMK AO2 SLP240 T01670150=
200611291030 SPECI KATL 291030Z 11006KT 8SM FEW004 BKN014 OVC090 17/15 A3025 RMK AO2=
200611291030 SPECI KATL 291030Z 11006KT 8SM FEW004 BKN014 OVC090 17/15 A3025 RMK AO2=
200611291009 SPECI KATL 291009Z 10005KT 8SM FEW004 OVC085 17/15 A3025 RMK AO2=
200611291009 SPECI KATL 291009Z 10005KT 8SM FEW004 OVC085 17/15 A3025 RMK AO2=
200611290952 METAR KATL 290952Z 11006KT 8SM FEW046 OVC090 17/15 A3025 RMK AO2 SLP238 T01670150=
200611290852 METAR KATL 290852Z 09005KT 8SM SCT039 OVC050 16/14 A3025 RMK AO2 SLP241 T01610144 53001=
200611290752 METAR KATL 290752Z 09005KT 8SM SCT030 BKN090 16/14 A3025 RMK AO2 SLP240 T01610139=
200611290652 METAR KATL 290652Z 07006KT 9SM FEW030 BKN085 16/13 A3025 RMK AO2 SLP241 T01560128=
200611290552 METAR KATL 290552Z 11005KT 9SM FEW028 OVC090 16/13 A3025 RMK AO2 SLP241 T01610128 10172 20156 58003=
200611290452 METAR KATL 290452Z 07006KT 10SM FEW028 OVC085 16/12 A3026 RMK AO2 SLP244 T01560122 401890144=
200611290352 METAR KATL 290352Z 08006KT 10SM FEW030 OVC085 16/12 A3027 RMK AO2 SLP246 T01560117=
200611290252 METAR KATL 290252Z 09006KT 10SM FEW030 OVC085 16/12 A3026 RMK AO2 SLP245 T01610117 53008=
200611290152 METAR KATL 290152Z 10004KT 10SM OVC085 17/12 A3025 RMK AO2 SLP242 T01670122=
200611290052 METAR KATL 290052Z 11007KT 10SM BKN085 17/12 A3024 RMK AO2 SLP238 T01670122=
200611282352 METAR KATL 282352Z 09008KT 10SM OVC080 17/13 A3024 RMK AO2 SLP237 T01720128 10189 20172 53005=
200611282252 METAR KATL 282252Z 09008KT 10SM OVC080 18/14 A3022 RMK AO2 SLP232 T01780139=
200611282202 SPECI KATL 282202Z 09006KT 10SM FEW018 SCT025 OVC080 18/14 A3023 RMK AO2=
200611282202 SPECI KATL 282202Z 09006KT 10SM FEW018 SCT025 OVC080 18/14 A3023 RMK AO2=
200611282152 METAR KATL 282152Z 10007KT 10SM SCT020 BKN025 BKN080 19/14 A3023 RMK AO2 SLP232 T01890139=
200611282052 METAR KATL 282052Z 10008KT 10SM FEW015 SCT018 BKN080 19/14 A3022 RMK AO2 SLP231 T01890144 56010=
200611282015 SPECI KATL 282015Z 11009KT 9SM FEW015 SCT018 OVC080 19/14 A3022 RMK AO2=
200611282015 SPECI KATL 282015Z 11009KT 9SM FEW015 SCT018 OVC080 19/14 A3022 RMK AO2=
200611281952 METAR KATL 281952Z 13004KT 9SM FEW015 BKN020 OVC080 18/14 A3023 RMK AO2 SLP234 BINOVC W T01830139=
200611281916 SPECI KATL 281916Z 11005KT 9SM FEW015 SCT020 OVC080 19/14 A3023 RMK AO2 BINOVC=
200611281916 SPECI KATL 281916Z 11005KT 9SM FEW015 SCT020 OVC080 19/14 A3023 RMK AO2 BINOVC=
200611281852 METAR KATL 281852Z 14003KT 8SM BKN015 BKN020 OVC080 18/14 A3024 RMK AO2 SLP237 T01780139=
200611281759 SPECI KATL 281759Z 11005KT 10SM SCT012 BKN017 OVC080 18/14 A3025 RMK AO2=
200611281759 SPECI KATL 281759Z 11005KT 10SM SCT012 BKN017 OVC080 18/14 A3025 RMK AO2=
200611281752 METAR KATL 281752Z 12005KT 8SM SCT012 SCT015 OVC075 18/13 A3025 RMK AO2 SLP241 T01780133 10183 20144 58014=
200611281705 SPECI KATL 281705Z 09007KT 8SM FEW010 SCT015 OVC075 17/13 A3027 RMK AO2=
200611281705 SPECI KATL 281705Z 09007KT 8SM FEW010 SCT015 OVC075 17/13 A3027 RMK AO2=
200611281652 METAR KATL 281652Z 08008KT 8SM BKN010 OVC075 17/13 A3028 RMK AO2 SLP250 T01720128=
200611281552 METAR KATL 281552Z 11005KT 8SM OVC010 17/12 A3030 RMK AO2 SLP256 T01670122=
200611281548 SPECI KATL 281548Z 10005KT 8SM OVC010 16/12 A3030 RMK AO2=
200611281548 SPECI KATL 281548Z 10005KT 8SM OVC010 16/12 A3030 RMK AO2=
200611281452 METAR KATL 281452Z 10006KT 8SM BKN009 BKN015 OVC070 16/12 A3029 RMK AO2 SLP255 T01610117 53013=
200611281427 SPECI KATL 281427Z 08007KT 9SM FEW009 BKN018 OVC070 16/12 A3028 RMK AO2=
200611281427 SPECI KATL 281427Z 08007KT 9SM FEW009 BKN018 OVC070 16/12 A3028 RMK AO2=
200611281352 METAR KATL 281352Z 09008KT 10SM SCT010 BKN018 OVC027 16/12 A3027 RMK AO2 SLP249 T01560117=
200611281337 SPECI KATL 281337Z 08007KT 10SM SCT012 BKN018 OVC070 15/12 A3027 RMK AO2=
200611281337 SPECI KATL 281337Z 08007KT 10SM SCT012 BKN018 OVC070 15/12 A3027 RMK AO2=
200611281252 METAR KATL 281252Z 08005KT 10SM FEW010 BKN012 OVC060 15/11 A3027 RMK AO2 SLP246 T01500111=
200611281209 SPECI KATL 281209Z 08007KT 10SM BKN012 OVC070 14/11 A3026 RMK AO2=
200611281209 SPECI KATL 281209Z 08007KT 10SM BKN012 OVC070 14/11 A3026 RMK AO2=
200611281202 SPECI KATL 281202Z 09007KT 10SM BKN015 OVC070 14/11 A3026 RMK AO2=
200611281202 SPECI KATL 281202Z 09007KT 10SM BKN015 OVC070 14/11 A3026 RMK AO2=
200611281152 METAR KATL 281152Z 08007KT 10SM SCT015 OVC070 14/11 A3025 RMK AO2 SLP242 T01440111 10161 20144 53003=
200611281052 METAR KATL 281052Z 10006KT 10SM FEW011 BKN065 15/11 A3024 RMK AO2 SLP237 T01500111=
200611280952 METAR KATL 280952Z 11007KT 10SM FEW050 BKN065 15/11 A3024 RMK AO2 SLP237 T01500111=
200611280852 METAR KATL 280852Z 10004KT 10SM OVC065 15/11 A3024 RMK AO2 SLP238 T01500111 56004=
200611280752 METAR KATL 280752Z 10005KT 10SM BKN070 15/11 A3025 RMK AO2 SLP239 T01500111=
200611280652 METAR KATL 280652Z 12006KT 10SM BKN070 OVC100 16/12 A3025 RMK AO2 SLP239 T01610117=
200611280552 METAR KATL 280552Z 10007KT 10SM FEW050 OVC065 16/12 A3026 RMK AO2 SLP242 60000 T01610122 10183 20156 58004=
200611280452 METAR KATL 280452Z 09005KT 10SM FEW045 OVC065 16/13 A3027 RMK AO2 RAE0354 SLP248 P0000 T01560128 402060067=
200611280352 METAR KATL 280352Z 11003KT 10SM -RA FEW030 BKN050 OVC070 16/13 A3028 RMK AO2 RAB51 SLP250 P0000 T01610133=
200611280252 METAR KATL 280252Z 11005KT 10SM FEW028 OVC070 16/13 A3027 RMK AO2 SLP248 T01610128 50001=
200611280214 SPECI KATL 280214Z 12004KT 10SM SCT028 SCT065 OVC250 16/12 A3027 RMK AO2=
200611280214 SPECI KATL 280214Z 12004KT 10SM SCT028 SCT065 OVC250 16/12 A3027 RMK AO2=
200611280152 METAR KATL 280152Z VRB05KT 10SM FEW015 BKN023 OVC065 17/12 A3028 RMK AO2 SLP251 T01670117=
200611280058 SPECI KATL 280058Z 11007KT 10SM BKN028 OVC055 17/08 A3027 RMK AO2=
200611280058 SPECI KATL 280058Z 11007KT 10SM BKN028 OVC055 17/08 A3027 RMK AO2=
200611280052 METAR KATL 280052Z 12009KT 10SM SCT028 OVC060 18/08 A3027 RMK AO2 SLP251 T01780078=
200611272352 METAR KATL 272352Z 11004KT 10SM BKN060 BKN250 18/05 A3027 RMK AO2 SLP249 T01780050 10206 20178 57001=
200611272252 METAR KATL 272252Z 11005KT 10SM BKN060 OVC250 19/04 A3027 RMK AO2 SLP249 T01890039=
200611272152 METAR KATL 272152Z 13005KT 10SM BKN060 BKN200 OVC250 19/05 A3027 RMK AO2 SLP248 T01940050=
200611272052 METAR KATL 272052Z VRB04KT 10SM FEW060 SCT200 BKN250 20/05 A3027 RMK AO2 SLP249 T02000050 56020=
200611271952 METAR KATL 271952Z 09004KT 10SM FEW060 SCT150 BKN250 21/04 A3028 RMK AO2 SLP250 T02060039=
200611271852 METAR KATL 271852Z VRB05KT 10SM FEW150 SCT200 BKN250 20/03 A3030 RMK AO2 SLP259 T02000033=
200611271752 SPECI KATL 271752Z 10004KT 10SM FEW150 SCT200 BKN250 19/02 A3033 RMK AO2 SLP268 T01890017 10189 20067 58016=
200611271652 METAR KATL 271652Z 11003KT 10SM SCT250 17/03 A3035 RMK AO2 SLP276 T01720028=
200611271552 METAR KATL 271552Z VRB05KT 10SM BKN250 16/02 A3037 RMK AO2 SLP284 T01560022=
200611271452 METAR KATL 271452Z 09006KT 10SM BKN250 13/03 A3038 RMK AO2 SLP287 T01330028 51014=
200611271352 METAR KATL 271352Z 06007KT 10SM BKN250 11/03 A3037 RMK AO2 SLP285 T01110028=
200611271252 METAR KATL 271252Z 06007KT 10SM SCT250 08/02 A3035 RMK AO2 SLP278 T00830017=
200611271152 METAR KATL 271152Z 04004KT 10SM SCT250 07/01 A3033 RMK AO2 SLP273 T00670011 10094 20067 53003 $=
200611271052 METAR KATL 271052Z 07004KT 10SM CLR 08/02 A3033 RMK AO2 SLP272 T00780017 $=
200611270952 METAR KATL 270952Z 08004KT 10SM SCT250 08/01 A3033 RMK AO2 SLP268 T00780011 $=
200611270852 METAR KATL 270852Z 07005KT 10SM SCT250 08/01 A3033 RMK AO2 SLP268 T00780011 51002 $=
200611270752 METAR KATL 270752Z 08003KT 10SM FEW250 08/01 A3033 RMK AO2 SLP268 T00830011 $=
200611270652 METAR KATL 270652Z 09004KT 10SM FEW250 09/01 A3032 RMK AO2 SLP266 T00890006 $=
200611270552 METAR KATL 270552Z 08005KT 10SM SCT250 09/01 A3032 RMK AO2 SLP266 T00940006 10161 20094 58001 $=
200611270452 METAR KATL 270452Z 08004KT 10SM CLR 11/00 A3034 RMK AO2 SLP271 T01110000 402110061 $=
200611270352 METAR KATL 270352Z 09005KT 10SM FEW250 12/00 A3033 RMK AO2 SLP268 T01220000 $=
200611270252 METAR KATL 270252Z 08003KT 10SM CLR 12/M01 A3032 RMK AO2 SLP269 T01221006 51008 $=
200611270152 METAR KATL 270152Z 11004KT 10SM CLR 14/M01 A3031 RMK AO2 SLP265 T01391006 $=
200611270052 METAR KATL 270052Z 11005KT 10SM FEW250 15/M01 A3031 RMK AO2 SLP266 T01501011 $=
200611262352 METAR KATL 262352Z 13004KT 10SM FEW200 SCT250 16/M01 A3030 RMK AO2 SLP261 T01561011 10211 20150 58002 $=
200611262252 METAR KATL 262252Z 10005KT 10SM FEW200 SCT250 18/M03 A3030 RMK AO2 SLP259 T01781033 $=
200611262152 METAR KATL 262152Z 09004KT 10SM FEW250 20/M03 A3031 RMK AO2 SLP264 T02001033 $=
200611262052 METAR KATL 262052Z 13003KT 10SM FEW250 21/M03 A3031 RMK AO2 SLP260 T02061028 56016 $=
200611261952 METAR KATL 261952Z 06007KT 10SM FEW250 21/M02 A3031 RMK AO2 SLP262 T02061022 $=
200611261852 METAR KATL 261852Z 13005KT 10SM FEW250 20/M01 A3033 RMK AO2 SLP268 T02001011 $=
200611261752 METAR KATL 261752Z 06005KT 10SM FEW250 19/M01 A3035 RMK AO2 SLP277 T01941006 10194 20067 58011 $=
200611261652 METAR KATL 261652Z VRB05KT 10SM CLR 18/02 A3038 RMK AO2 SLP286 T01780017 $=
200611261552 METAR KATL 261552Z 14004KT 10SM CLR 16/02 A3039 RMK AO2 SLP289 T01560017 $=
200611261452 METAR KATL 261452Z 09004KT 10SM CLR 13/02 A3039 RMK AO2 SLP291 T01330017 53021 $=
200611261352 METAR KATL 261352Z 08005KT 10SM CLR 10/02 A3037 RMK AO2 SLP285 T01000017 $=
200611261252 METAR KATL 261252Z 09005KT 10SM CLR 07/00 A3034 RMK AO2 SLP276 T00720000 $=
200611261152 METAR KATL 261152Z 08004KT 10SM CLR 07/M01 A3032 RMK AO2 SLP270 T00671006 10117 20061 53009 $=
200611261052 METAR KATL 261052Z 07005KT 10SM CLR 07/00 A3031 RMK AO2 SLP266 T00720000 $=
200611260952 METAR KATL 260952Z 06006KT 10SM CLR 07/00 A3030 RMK AO2 SLP259 T00720000 $=
200611260852 METAR KATL 260852Z 08005KT 10SM CLR 08/M01 A3029 RMK AO2 SLP257 T00831006 55000 $=
200611260752 METAR KATL 260752Z 08003KT 10SM CLR 09/00 A3029 RMK AO2 SLP256 T00890000 $=
200611260652 METAR KATL 260652Z 00000KT 10SM CLR 09/00 A3029 RMK AO2 SLP257 T00940000 $=
200611260552 METAR KATL 260552Z 05003KT 10SM CLR 11/M01 A3030 RMK AO2 SLP257 T01111006 10161 20106 55002 $=
200611260452 METAR KATL 260452Z 00000KT 10SM CLR 11/00 A3029 RMK AO2 SLP256 T01110000 402060078 $=
200611260352 METAR KATL 260352Z 10004KT 10SM CLR 11/00 A3030 RMK AO2 SLP259 T01110000 $=
200611260252 METAR KATL 260252Z 12003KT 10SM CLR 12/M01 A3030 RMK AO2 SLP260 T01221006 51007 $=
200611260152 METAR KATL 260152Z 11003KT 10SM CLR 13/M01 A3030 RMK AO2 SLP260 T01331011 $=
200611260052 METAR KATL 260052Z 11004KT 10SM CLR 15/M01 A3029 RMK AO2 SLP258 T01501011 $=
200611252352 METAR KATL 252352Z 12004KT 10SM CLR 16/M01 A3028 RMK AO2 SLP253 T01561011 10206 20156 53006 $=
200611252252 METAR KATL 252252Z 13003KT 10SM CLR 17/M01 A3027 RMK AO2 SLP250 T01721011 $=
200611252152 METAR KATL 252152Z 13003KT 10SM CLR 19/00 A3026 RMK AO2 SLP245 T01940000 $=
200611252052 METAR KATL 252052Z 13005KT 10SM CLR 20/M01 A3026 RMK AO2 SLP245 T02001011 56017 $=
200611251952 METAR KATL 251952Z 14005KT 10SM CLR 20/M01 A3027 RMK AO2 SLP249 T02001011 $=
200611251852 METAR KATL 251852Z 12005KT 10SM CLR 20/M01 A3029 RMK AO2 SLP255 T02001006 $=
200611251752 METAR KATL 251752Z 07008KT 10SM CLR 19/01 A3031 RMK AO2 SLP262 T01890006 10194 20078 58009 $=
200611251652 METAR KATL 251652Z 12007KT 090V160 10SM CLR 18/01 A3034 RMK AO2 SLP271 T01780011 $=
200611251552 METAR KATL 251552Z 14005KT 10SM CLR 16/04 A3034 RMK AO2 SLP274 T01610039 $=
200611251452 METAR KATL 251452Z 13004KT 10SM CLR 14/06 A3034 RMK AO2 SLP273 T01390061 51016 $=
200611251352 METAR KATL 251352Z 08004KT 10SM CLR 11/06 A3032 RMK AO2 SLP268 T01060061 $=
200611251252 METAR KATL 251252Z 06005KT 10SM CLR 09/05 A3031 RMK AO2 SLP263 T00890050 $=
200611251152 METAR KATL 251152Z 08003KT 10SM CLR 08/05 A3029 RMK AO2 SLP257 T00830050 10117 20078 53013 $=
200611251052 METAR KATL 251052Z 08004KT 10SM CLR 08/06 A3027 RMK AO2 SLP249 T00830056 $=
200611250952 METAR KATL 250952Z 04003KT 10SM CLR 09/06 A3026 RMK AO2 SLP245 T00890056 $=
200611250852 METAR KATL 250852Z 07004KT 10SM CLR 09/06 A3025 RMK AO2 SLP241 T00940061 53000 $=
200611250752 METAR KATL 250752Z 06003KT 10SM CLR 10/06 A3024 RMK AO2 SLP240 T01000056 $=
200611250652 METAR KATL 250652Z 07004KT 10SM CLR 11/06 A3024 RMK AO2 SLP238 T01060061 $=
200611250552 METAR KATL 250552Z 00000KT 10SM CLR 12/06 A3025 RMK AO2 SLP241 T01170061 10161 20111 56001 $=
200611250452 METAR KATL 250452Z 00000KT 10SM CLR 12/06 A3025 RMK AO2 SLP241 T01170056 402060067 $=
200611250352 METAR KATL 250352Z 11004KT 10SM CLR 13/06 A3025 RMK AO2 SLP241 T01330056 $=
200611250252 METAR KATL 250252Z 11003KT 10SM FEW150 13/06 A3025 RMK AO2 SLP243 T01280056 53011 $=
200611250152 METAR KATL 250152Z 09004KT 10SM FEW150 14/06 A3024 RMK AO2 SLP241 T01390056 $=
200611250052 METAR KATL 250052Z 10003KT 10SM FEW150 15/06 A3023 RMK AO2 SLP237 T01500056 $=
200611242352 METAR KATL 242352Z 09003KT 10SM CLR 16/05 A3022 RMK AO2 SLP234 T01610050 10206 20161 53013 $=
200611242252 METAR KATL 242252Z 11004KT 10SM CLR 18/04 A3019 RMK AO2 SLP224 T01780044 $=
200611242152 METAR KATL 242152Z 08005KT 10SM CLR 19/05 A3019 RMK AO2 SLP222 T01890050 $=
200611242052 METAR KATL 242052Z 00000KT 10SM CLR 21/05 A3018 RMK AO2 SLP219 T02060050 56012 $=
200611241952 METAR KATL 241952Z VRB04KT 10SM CLR 21/05 A3018 RMK AO2 SLP219 T02060050 $=
200611241852 METAR KATL 241852Z 00000KT 10SM CLR 20/05 A3020 RMK AO2 SLP225 T02000050 $=
200611241752 METAR KATL 241752Z VRB05KT 10SM CLR 19/05 A3022 RMK AO2 SLP231 T01940050 10194 20067 58014 $=
200611241652 METAR KATL 241652Z 13006KT 10SM CLR 18/05 A3025 RMK AO2 SLP241 T01780050 $=
200611241552 METAR KATL 241552Z 12006KT 10SM CLR 17/04 A3026 RMK AO2 SLP247 T01670044 $=
200611241452 METAR KATL 241452Z 12010KT 10SM CLR 14/04 A3026 RMK AO2 SLP247 T01440044 51019 $=
200611241352 METAR KATL 241352Z 08007KT 10SM CLR 12/05 A3024 RMK AO2 SLP242 T01170050 $=
200611241252 METAR KATL 241252Z 08006KT 10SM CLR 07/03 A3022 RMK AO2 SLP236 T00670033 $=
200611241152 METAR KATL 241152Z 08006KT 10SM CLR 07/03 A3020 RMK AO2 SLP228 T00720028 10094 20072 53016 $=
200611241052 METAR KATL 241052Z 06005KT 10SM CLR 08/03 A3018 RMK AO2 SLP220 T00830028 $=
200611240952 METAR KATL 240952Z 05007KT 10SM CLR 09/02 A3016 RMK AO2 SLP212 T00890022 $=
200611240852 METAR KATL 240852Z 01005KT 10SM CLR 07/01 A3015 RMK AO2 SLP210 T00720006 53005 $=
200611240752 METAR KATL 240752Z 34003KT 10SM CLR 08/01 A3014 RMK AO2 SLP206 T00780011 $=
200611240652 METAR KATL 240652Z 33006KT 10SM CLR 08/01 A3014 RMK AO2 SLP204 T00780011 $=
200611240552 METAR KATL 240552Z 33007KT 10SM CLR 08/01 A3014 RMK AO2 SLP204 T00830011 10139 20083 50003 $=
200611240452 METAR KATL 240452Z 32006KT 10SM CLR 09/02 A3014 RMK AO2 SLP205 T00940017 402000039 $=
200611240352 METAR KATL 240352Z 33007KT 10SM CLR 10/02 A3014 RMK AO2 SLP207 T01000017 $=
200611240252 METAR KATL 240252Z 32008KT 10SM CLR 11/02 A3013 RMK AO2 SLP203 T01060017 50002 $=
200611240152 METAR KATL 240152Z 31007KT 10SM CLR 12/02 A3013 RMK AO2 SLP206 T01170017 $=
200611240052 METAR KATL 240052Z 31005KT 10SM CLR 13/02 A3013 RMK AO2 SLP205 T01280017 $=
200611232352 METAR KATL 232352Z 31005KT 10SM CLR 14/01 A3012 RMK AO2 SLP202 T01440011 10200 20144 53007 $=
200611232252 METAR KATL 232252Z 31005KT 10SM CLR 16/01 A3011 RMK AO2 SLP197 T01610006 $=
200611232152 METAR KATL 232152Z 33008KT 10SM CLR 18/01 A3010 RMK AO2 SLP194 T01830006 $=
200611232052 METAR KATL 232052Z 33006KT 10SM CLR 19/02 A3010 RMK AO2 SLP192 T01940022 56011 $=
200611231952 METAR KATL 231952Z 32006KT 10SM CLR 19/02 A3010 RMK AO2 SLP193 T01940022 $=
200611231852 METAR KATL 231852Z 30006KT 10SM CLR 19/02 A3011 RMK AO2 SLP195 T01890022 $=
200611231752 METAR KATL 231752Z 28006KT 10SM CLR 18/02 A3013 RMK AO2 SLP204 T01780017 10178 20039 58012 $=
200611231652 METAR KATL 231652Z 30005KT 10SM CLR 16/01 A3016 RMK AO2 SLP214 T01560006 $=
200611231552 METAR KATL 231552Z VRB03KT 10SM FEW250 13/00 A3018 RMK AO2 SLP220 T01330000 $=
200611231452 METAR KATL 231452Z VRB04KT 10SM CLR 10/M01 A3017 RMK AO2 SLP217 T01001011 51013 $=
200611231352 METAR KATL 231352Z 31006KT 10SM CLR 07/M02 A3016 RMK AO2 SLP216 T00721017 $=
200611231252 METAR KATL 231252Z 31006KT 10SM CLR 04/M02 A3015 RMK AO2 SLP211 T00441022 $=
200611231152 METAR KATL 231152Z 31003KT 10SM CLR 04/M03 A3013 RMK AO2 SLP204 T00441028 10083 20044 53013 $=
200611231052 METAR KATL 231052Z 30004KT 10SM CLR 04/M03 A3012 RMK AO2 SLP200 T00441028 $=
200611230952 METAR KATL 230952Z 30009KT 10SM CLR 05/M03 A3010 RMK AO2 SLP193 T00501028 $=
200611230852 METAR KATL 230852Z 30008KT 10SM CLR 05/M02 A3009 RMK AO2 SLP190 T00501022 50001 $=
200611230752 METAR KATL 230752Z 30006KT 10SM CLR 06/M02 A3009 RMK AO2 SLP191 T00611022 $=
200611230652 METAR KATL 230652Z 32008KT 10SM CLR 07/M02 A3009 RMK AO2 SLP190 T00721022 $=
200611230552 METAR KATL 230552Z 34006KT 10SM CLR 08/M02 A3009 RMK AO2 SLP189 T00781022 10139 20078 53002 $=
200611230452 METAR KATL 230452Z 33008KT 10SM CLR 09/M02 A3008 RMK AO2 SLP187 T00891022 401720039 $=
200611230352 METAR KATL 230352Z 32009KT 10SM CLR 10/M02 A3008 RMK AO2 SLP189 T01001022 $=
200611230252 METAR KATL 230252Z 34009KT 10SM CLR 11/M03 A3008 RMK AO2 SLP189 T01111033 53016 $=
200611230152 METAR KATL 230152Z 32011KT 10SM CLR 12/M03 A3006 RMK AO2 SLP181 T01221033 $=
200611230052 METAR KATL 230052Z 33012G19KT 10SM CLR 13/M04 A3005 RMK AO2 SLP179 T01331039 $=
200611222352 METAR KATL 222352Z 32014KT 10SM CLR 14/M03 A3003 RMK AO2 SLP171 T01391028 10172 20139 53006 $=
200611222252 METAR KATL 222252Z 31014KT 10SM CLR 14/02 A3002 RMK AO2 SLP168 T01440022 $=
200611222152 METAR KATL 222152Z 31013KT 10SM FEW055 SCT250 17/04 A3001 RMK AO2 SLP162 T01670039 $=
200611222052 METAR KATL 222052Z 31014KT 10SM FEW055 SCT250 17/04 A3001 RMK AO2 SLP164 T01720039 58010 $=
200611221952 METAR KATL 221952Z 31012KT 10SM FEW055 SCT250 16/02 A3003 RMK AO2 SLP168 T01610022 $=
200611221852 METAR KATL 221852Z 29012KT 10SM FEW055 SCT250 16/03 A3004 RMK AO2 SLP174 T01610028 $=
200611221752 METAR KATL 221752Z 33007KT 10SM FEW060 SCT250 14/02 A3005 RMK AO2 SLP176 T01440022 10144 20044 58009=
200611221652 METAR KATL 221652Z 32008KT 10SM FEW035 BKN050 BKN090 BKN250 12/01 A3008 RMK AO2 SLP190 T01170011=
200611221552 METAR KATL 221552Z 32008KT 10SM BKN040 BKN090 09/00 A3010 RMK AO2 SLP195 VIRGA DSNT NW T00940000=
200611221452 METAR KATL 221452Z 31010KT 10SM OVC040 06/M02 A3007 RMK AO2 SLP188 BINOVC DSNT NW T00611017 53016=
200611221352 METAR KATL 221352Z 32009KT 10SM BKN040 06/M02 A3006 RMK AO2 SLP184 T00561022=
200611221252 METAR KATL 221252Z 31013KT 10SM FEW050 SCT120 BKN180 04/M02 A3002 RMK AO2 SLP171 T00441022=
200611221152 METAR KATL 221152Z 30015KT 10SM FEW047 SCT060 04/M03 A3003 RMK AO2 SLP172 60000 70001 T00441028 10050 20039 58011=
200611221052 METAR KATL 221052Z 31013KT 10SM BKN035 OVC050 04/M03 A3004 RMK AO2 SLP177 T00441028=
200611220952 METAR KATL 220952Z 31007KT 10SM BKN040 BKN050 BKN065 04/M03 A3005 RMK AO2 SLP180 T00441028=
200611220852 METAR KATL 220852Z 32006KT 10SM OVC042 05/M02 A3006 RMK AO2 SLP183 60000 T00501017 53006=
200611220752 METAR KATL 220752Z 31010KT 10SM BKN044 OVC050 04/M02 A3005 RMK AO2 RAB01E18 SLP180 P0000 T00441017=
200611220652 METAR KATL 220652Z 32006KT 10SM OVC048 04/M01 A3005 RMK AO2 RAE18 SLP181 P0000 T00391011=
200611220552 METAR KATL 220552Z 31013KT 10SM -RA SCT048 BKN060 OVC080 04/M01 A3004 RMK AO2 RAB0456E08B28 SLP177 P0001 60001 T00441006 10072 20044 58024=
200611220452 METAR KATL 220452Z 33011KT 10SM BKN055 BKN090 BKN150 06/M03 A3008 RMK AO2 SLP191 T00561033 400940000=
200611220352 METAR KATL 220352Z 32011KT 10SM SCT085 BKN150 05/M03 A3010 RMK AO2 SLP196 T00501033=
200611220252 METAR KATL 220252Z 32013KT 10SM FEW070 SCT090 BKN150 06/M03 A3012 RMK AO2 SLP203 T00561033 56010=
200611220152 METAR KATL 220152Z 32012KT 10SM FEW075 BKN090 06/M04 A3013 RMK AO2 SLP208 T00611039=
200611220052 METAR KATL 220052Z 33014G22KT 10SM BKN075 OVC090 07/M04 A3013 RMK AO2 SLP211 BINOVC T00671039=
200611212352 METAR KATL 212352Z 32015KT 10SM BKN060 OVC090 07/M04 A3015 RMK AO2 SLP215 T00721039 10094 20067 55002=
200611212252 METAR KATL 212252Z 32017KT 10SM FEW060 07/M04 A3013 RMK AO2 SLP210 T00721039=
200611212152 METAR KATL 212152Z 32015G23KT 10SM FEW060 08/M04 A3013 RMK AO2 SLP208 T00831044=
200611212052 METAR KATL 212052Z 32018KT 10SM FEW070 SCT200 09/M06 A3015 RMK AO2 SLP216 T00891056 56031=
200611211952 METAR KATL 211952Z 32012KT 10SM FEW200 09/M06 A3018 RMK AO2 SLP227 T00891056=
200611211852 METAR KATL 211852Z 32012KT 10SM FEW200 09/M04 A3021 RMK AO2 SLP234 T00941044=
200611211752 METAR KATL 211752Z 35008KT 10SM FEW055 09/M04 A3025 RMK AO2 SLP248 T00891039 10094 20000 58021=
200611211652 METAR KATL 211652Z 01009KT 10SM FEW050 09/M03 A3029 RMK AO2 SLP263 T00891033=
200611211552 METAR KATL 211552Z 36012G16KT 10SM FEW050 08/M04 A3030 RMK AO2 SLP266 T00781039=
200611211452 METAR KATL 211452Z 33008KT 10SM FEW050 05/M03 A3031 RMK AO2 SLP270 T00501033 51005=
200611211352 METAR KATL 211352Z 33008KT 10SM SCT055 02/M03 A3031 RMK AO2 SLP272 T00221033=
200611211252 METAR KATL 211252Z 33007KT 10SM BKN055 01/M03 A3031 RMK AO2 SLP272 T00111033=
200611211152 METAR KATL 211152Z 32010KT 10SM BKN060 00/M04 A3029 RMK AO2 SLP267 T00001039 10017 20000 53010=
200611211052 METAR KATL 211052Z 33008KT 10SM SCT050 BKN060 00/M04 A3027 RMK AO2 SLP259 T00001039=
200611210952 METAR KATL 210952Z 33011KT 10SM BKN049 01/M04 A3026 RMK AO2 SLP254 T00061039=
200611210852 METAR KATL 210852Z 32010KT 10SM BKN041 01/M04 A3026 RMK AO2 SLP255 T00061039 50001=
200611210752 METAR KATL 210752Z 32010KT 10SM FEW050 01/M04 A3026 RMK AO2 SLP255 T00061039=
200611210652 METAR KATL 210652Z 32009KT 10SM SCT055 01/M04 A3026 RMK AO2 SLP253 T00111039=
200611210552 METAR KATL 210552Z 33012KT 10SM FEW075 BKN090 02/M04 A3026 RMK AO2 SLP252 T00171039 10039 20017 51006=
200611210452 METAR KATL 210452Z 34010KT 10SM BKN075 BKN095 03/M04 A3026 RMK AO2 SLP250 T00281039 400890022=
200611210352 METAR KATL 210352Z 34010KT 10SM FEW070 BKN090 03/M04 A3025 RMK AO2 SLP249 T00281039=
200611210252 METAR KATL 210252Z 35013KT 10SM BKN060 OVC095 03/M04 A3024 RMK AO2 SLP246 T00331039 51018=
200611210152 METAR KATL 210152Z 34012KT 10SM FEW065 OVC090 03/M03 A3023 RMK AO2 SLP242 T00331033=
200611210052 METAR KATL 210052Z 33012KT 10SM BKN060 OVC090 03/M03 A3021 RMK AO2 SLP237 T00331028=
200611202352 METAR KATL 202352Z 34013KT 10SM FEW065 OVC085 04/M02 A3018 RMK AO2 SLP228 BINOVC T00391022 10089 20039 53018=
200611202252 METAR KATL 202252Z 32015G19KT 10SM SCT065 BKN085 04/M03 A3016 RMK AO2 SLP221 T00441028=
200611202152 METAR KATL 202152Z 34014G21KT 10SM FEW045 BKN065 BKN080 06/M03 A3014 RMK AO2 SLP212 VIRGA NE-SE AND NW T00611033=
200611202052 METAR KATL 202052Z 33014KT 10SM FEW050 BKN060 BKN070 07/M04 A3013 RMK AO2 SLP209 VIRGA NE-S T00671044 53004=
200611201952 METAR KATL 201952Z 32017KT 10SM FEW045 BKN065 BKN075 07/M03 A3012 RMK AO2 SLP205 VIRGA DSNT NE-S T00671033=
200611201852 METAR KATL 201852Z COR 32019KT 10SM SCT043 BKN050 BKN060 07/M03 A3011 RMK AO2 VIRGA DSNT NE-S SLP202 T00721028=
200611201752 METAR KATL 201752Z 32017KT 10SM BKN040 09/M01 A3012 RMK AO2 SLP204 T00891011 10089 20022 58007=
200611201652 METAR KATL 201652Z 35013KT 10SM SCT035 SCT070 08/M02 A3014 RMK AO2 SLP211 T00831017=
200611201552 METAR KATL 201552Z 34011KT 10SM FEW035 SCT070 08/M01 A3014 RMK AO2 SLP213 ACC SW-NW T00831011 $=
200611201452 METAR KATL 201452Z 34015KT 10SM FEW027 SCT070 06/M01 A3014 RMK AO2 SLP211 T00611006 53012 $=
200611201352 METAR KATL 201352Z 32013KT 9SM SCT070 04/01 A3013 RMK AO2 SLP209 T00440006 $=
200611201252 METAR KATL 201252Z 33013KT 8SM SCT070 03/M01 A3011 RMK AO2 SLP201 T00281006 $=
200611201152 METAR KATL 201152Z 32010KT 8SM BKN060 02/M01 A3010 RMK AO2 SLP200 T00221006 10033 20022 53007 $=
200611201052 METAR KATL 201052Z 33012KT 9SM SCT055 02/M01 A3009 RMK AO2 SLP194 T00221006 $=
200611200952 METAR KATL 200952Z 32010KT 8SM FEW060 02/M01 A3008 RMK AO2 SLP191 T00221006 $=
200611200852 METAR KATL 200852Z 32008KT 7SM CLR 02/M01 A3008 RMK AO2 SLP191 T00221006 56004 $=
200611200752 METAR KATL 200752Z 32009KT 7SM CLR 03/M01 A3009 RMK AO2 SLP192 T00281006 $=
200611200652 METAR KATL 200652Z 33009KT 7SM CLR 03/M01 A3008 RMK AO2 SLP190 T00331011 $=
200611200552 METAR KATL 200552Z 32009KT 8SM CLR 03/M01 A3009 RMK AO2 SLP195 T00331011 10067 20033 58002 $=
200611200452 METAR KATL 200452Z 33010KT 8SM CLR 04/M02 A3010 RMK AO2 SLP197 T00391017 401170033 $=
200611200352 METAR KATL 200352Z 32009KT 9SM CLR 04/M02 A3011 RMK AO2 SLP201 T00391017 $=
200611200252 METAR KATL 200252Z 32012KT 9SM CLR 04/M02 A3010 RMK AO2 SLP198 T00441017 50005 $=
200611200152 METAR KATL 200152Z 34015KT 10SM FEW036 06/M02 A3011 RMK AO2 SLP201 T00561022 $=
200611200052 METAR KATL 200052Z COR 33014KT 9SM SCT038 SCT150 06/M02 A3009 RMK AO2 SLP196 T00611017 $=
200611192352 METAR KATL 192352Z 33012KT 9SM FEW150 07/M01 A3009 RMK AO2 SLP192 T00671011 10117 20067 53013 $=
200611192252 METAR KATL 192252Z 33013KT 10SM FEW035 SCT150 08/M01 A3007 RMK AO2 SLP187 T00781011 $=
200611192152 METAR KATL 192152Z 32015G22KT 10SM FEW040 09/M01 A3005 RMK AO2 SLP180 T00941011 $=
200611192052 METAR KATL 192052Z 32012KT 10SM CLR 11/M01 A3005 RMK AO2 SLP177 T01061011 55001 $=
200611191952 METAR KATL 191952Z 31014KT 10SM CLR 11/M01 A3004 RMK AO2 SLP174 T01111006 $=
200611191852 METAR KATL 191852Z 34016G22KT 10SM CLR 11/M01 A3004 RMK AO2 SLP173 T01061006 $=
200611191752 METAR KATL 191752Z 33013G20KT 10SM CLR 11/00 A3005 RMK AO2 SLP178 T01060000 10106 20044 58009 $=
200611191652 METAR KATL 191652Z 34013KT 8SM CLR 09/01 A3007 RMK AO2 SLP184 T00940006 $=
200611191552 METAR KATL 191552Z 34016G22KT 7SM FEW027 08/01 A3008 RMK AO2 SLP189 T00780011 $=
200611191452 METAR KATL 191452Z 33019G24KT 6SM HZ FEW023 07/01 A3008 RMK AO2 SLP188 T00670006 51020 $=
200611191352 METAR KATL 191352Z 32016G22KT 6SM HZ FEW018 06/01 A3006 RMK AO2 SLP183 T00560011 $=
200611191252 METAR KATL 191252Z 32014KT 5SM HZ CLR 04/01 A3004 RMK AO2 SLP177 T00440011 $=
200611191152 METAR KATL 191152Z 32010KT 7SM CLR 04/01 A3002 RMK AO2 SLP167 T00440011 10072 20044 53009 $=
200611191052 METAR KATL 191052Z 32011KT 8SM CLR 05/01 A3000 RMK AO2 SLP161 T00500011 $=
200611190952 METAR KATL 190952Z 32011KT 9SM CLR 06/01 A2999 RMK AO2 SLP156 T00560011 $=
200611190852 METAR KATL 190852Z 32011KT 9SM CLR 06/02 A2999 RMK AO2 SLP155 T00610017 55003 $=
200611190752 METAR KATL 190752Z 32010KT 10SM CLR 07/02 A2999 RMK AO2 SLP155 T00670017 $=
200611190652 METAR KATL 190652Z 31009KT 10SM CLR 07/02 A2999 RMK AO2 SLP155 T00670022 $=
200611190552 METAR KATL 190552Z 31008KT 10SM CLR 07/02 A3000 RMK AO2 SLP159 T00670022 10122 20067 50000 $=
200611190452 METAR KATL 190452Z 31008KT 10SM CLR 07/02 A3000 RMK AO2 SLP159 T00720022 401720028 $=
200611190352 METAR KATL 190352Z 30005KT 10SM FEW030 09/02 A3000 RMK AO2 SLP159 T00890017 $=
200611190252 METAR KATL 190252Z 28005KT 10SM CLR 11/02 A3000 RMK AO2 SLP160 T01060017 50002 $=
200611190152 METAR KATL 190152Z 29006KT 10SM CLR 11/01 A3000 RMK AO2 SLP161 T01110011 $=
200611190052 METAR KATL 190052Z 28006KT 10SM CLR 11/01 A3000 RMK AO2 SLP161 T01110006 $=
200611182352 METAR KATL 182352Z 26005KT 10SM CLR 12/M01 A2999 RMK AO2 SLP160 T01171006 10172 20117 53008 $=
200611182252 SPECI KATL 182252Z 24004KT 10SM CLR 14/M02 A2998 RMK AO2 SLP153 T01391022 $=
200611182152 METAR KATL 182152Z 26006KT 10SM FEW110 16/M02 A2997 RMK AO2 SLP149 T01611022 $=
200611182052 METAR KATL 182052Z 28006KT 10SM FEW150 17/M03 A2997 RMK AO2 SLP149 T01671033 56014 $=
200611181952 METAR KATL 181952Z VRB03KT 10SM FEW110 SCT150 17/M03 A2998 RMK AO2 SLP152 T01671033 $=
200611181852 METAR KATL 181852Z 30008KT 10SM FEW095 SCT150 SCT250 16/M08 A2999 RMK AO2 SLP157 T01561078 $=
200611181752 METAR KATL 181752Z 30005KT 10SM FEW075 SCT150 SCT250 15/M03 A3001 RMK AO2 SLP163 T01501033 10156 20039 58020 $=
200611181652 METAR KATL 181652Z VRB04KT 10SM FEW150 13/M03 A3004 RMK AO2 SLP173 T01331033 $=
200611181552 METAR KATL 181552Z 35005KT 10SM SCT160 BKN180 12/M02 A3006 RMK AO2 SLP181 T01221022 $=
200611181452 METAR KATL 181452Z 33005KT 10SM SCT160 BKN180 09/01 A3007 RMK AO2 SLP186 T00890006 51012 $=
200611181352 METAR KATL 181352Z 29004KT 10SM SCT180 06/01 A3006 RMK AO2 SLP185 T00560011 $=
200611181252 METAR KATL 181252Z 33008KT 10SM BKN180 05/01 A3005 RMK AO2 SLP181 T00500006 $=
200611181152 METAR KATL 181152Z 33007KT 10SM BKN180 04/00 A3004 RMK AO2 SLP176 T00390000 10056 20028 53007 $=
200611181052 METAR KATL 181052Z 35004KT 10SM BKN160 03/00 A3003 RMK AO2 SLP172 T00330000 $=
200611180952 METAR KATL 180952Z 31007KT 10SM CLR 03/00 A3002 RMK AO2 SLP169 T00330000 $=
200611180852 METAR KATL 180852Z 30008KT 10SM CLR 04/00 A3001 RMK AO2 SLP167 T00390000 53000 $=
200611180752 METAR KATL 180752Z 30007KT 10SM FEW180 04/00 A3001 RMK AO2 SLP166 T00440000 $=
200611180652 METAR KATL 180652Z 31006KT 10SM FEW180 05/00 A3001 RMK AO2 SLP163 T00500000=
200611180552 METAR KATL 180552Z 30005KT 10SM FEW150 SCT200 06/00 A3001 RMK AO2 SLP166 T00560000 10094 20056 58003=
200611180452 METAR KATL 180452Z 32008KT 10SM BKN150 BKN200 07/01 A3002 RMK AO2 SLP167 T00720006 401390050=
200611180352 METAR KATL 180352Z 32008KT 10SM BKN150 BKN200 07/01 A3002 RMK AO2 SLP168 T00720006=
200611180252 METAR KATL 180252Z 31009KT 10SM SCT150 BKN200 07/01 A3002 RMK AO2 SLP170 T00720006 50003=
200611180152 METAR KATL 180152Z 31009KT 10SM FEW150 SCT200 07/01 A3003 RMK AO2 SLP171 T00720006=
200611180052 METAR KATL 180052Z 32010KT 10SM FEW150 SCT200 08/01 A3001 RMK AO2 SLP167 T00830006=
200611172352 METAR KATL 172352Z 31009KT 10SM SCT150 SCT200 09/01 A3001 RMK AO2 SLP167 T00890006 10139 20089 51004=
200611172252 METAR KATL 172252Z 31008KT 10SM FEW150 SCT200 10/00 A3001 RMK AO2 SLP167 T01000000=
200611172152 METAR KATL 172152Z 30009KT 10SM FEW085 SCT150 SCT180 BKN250 11/M01 A3001 RMK AO2 SLP164 T01111006=
200611172052 METAR KATL 172052Z 32010KT 10SM FEW150 SCT180 SCT250 12/M01 A3000 RMK AO2 SLP162 T01171006 55001=
200611171952 METAR KATL 171952Z 30006KT 10SM FEW150 SCT180 SCT250 13/01 A3000 RMK AO2 SLP159 T01330006=
200611171852 METAR KATL 171852Z 31005KT 10SM FEW150 SCT180 BKN250 12/01 A2999 RMK AO2 SLP159 T01170011=
200611171752 METAR KATL 171752Z 33008KT 10SM FEW150 SCT180 BKN250 12/01 A3001 RMK AO2 SLP163 T01170011 10117 20056 58009=
200611171652 METAR KATL 171652Z 32009KT 10SM FEW150 SCT200 SCT250 11/01 A3003 RMK AO2 SLP171 T01060006=
200611171552 METAR KATL 171552Z 35010KT 10SM FEW030 SCT250 09/01 A3003 RMK AO2 SLP172 T00940011=
200611171514 SPECI KATL 171514Z 33011KT 10SM FEW023 08/01 A3004 RMK AO2=
200611171514 SPECI KATL 171514Z 33011KT 10SM FEW023 08/01 A3004 RMK AO2=
200611171452 METAR KATL 171452Z 34012KT 10SM BKN023 08/01 A3003 RMK AO2 SLP174 T00780011 51016=
200611171352 METAR KATL 171352Z 32012KT 10SM OVC021 07/01 A3003 RMK AO2 SLP173 T00670011=
200611171252 METAR KATL 171252Z 33008KT 10SM BKN018 BKN025 06/01 A3000 RMK AO2 SLP163 T00560011 $=
200611171152 METAR KATL 171152Z COR 33009G16KT 10SM OVC018 06/02 A2999 RMK AO2 SLP159 60000 T00560017 10061 20050 51015=
200611171052 METAR KATL 171052Z 33014G20KT 10SM OVC018 06/02 A2998 RMK AO2 SLP155 T00560017 $=
200611170952 METAR KATL 170952Z 31011G19KT 10SM OVC020 06/02 A2996 RMK AO2 SLP149 T00610022 $=
200611170852 METAR KATL 170852Z 31011G20KT 10SM OVC020 05/02 A2994 RMK AO2 SLP143 60000 T00500017 51009 $=
200611170752 METAR KATL 170752Z 30013G18KT 10SM FEW017 OVC022 06/03 A2993 RMK AO2 SLP141 T00560028=
200611170652 METAR KATL 170652Z 30010KT 9SM SCT014 OVC028 06/03 A2992 RMK AO2 RAE41 SLP136 P0000 T00560028=
200611170552 METAR KATL 170552Z 30012KT 10SM -RA FEW008 BKN014 OVC030 06/03 A2991 RMK AO2 RAE33B49 SLP132 10072 20056 PCPN VRY LGT P0000 60000 T00560033 51008=
200611170452 METAR KATL 170452Z 28008KT 10SM -RA FEW008 BKN014 OVC030 06/04 A2991 RMK AO2 RAB50 SLP131 P0000 T00560039 401670022=
200611170352 METAR KATL 170352Z 27012KT 10SM SCT008 BKN014 OVC030 06/04 A2989 RMK AO2 RAE51 SLP126 P0000 T00560039=
200611170336 SPECI KATL 170336Z 27012KT 10SM -RA SCT009 BKN016 OVC030 06/04 A2990 RMK AO2 P0000=
200611170336 SPECI KATL 170336Z 27012KT 10SM -RA SCT009 BKN016 OVC030 06/04 A2990 RMK AO2 P0000=
200611170252 METAR KATL 170252Z 28013KT 7SM -RA BKN012 BKN020 OVC030 06/03 A2989 RMK AO2 RAB31 SLP124 P0000 60000 T00610028 51016=
200611170248 SPECI KATL 170248Z 26012KT 10SM -RA BKN012 BKN020 OVC030 06/03 A2989 RMK AO2 RAB31 P0000=
200611170248 SPECI KATL 170248Z 26012KT 10SM -RA BKN012 BKN020 OVC030 06/03 A2989 RMK AO2 RAB31 P0000=
200611170204 SPECI KATL 170204Z 27008KT 10SM SCT018 BKN025 OVC035 14/03 A2987 RMK AO2=
200611170204 SPECI KATL 170204Z 27008KT 10SM SCT018 BKN025 OVC035 14/03 A2987 RMK AO2=
200611170152 METAR KATL 170152Z 28010KT 10SM FEW016 BKN030 OVC040 07/03 A2986 RMK AO2 RAB46E51 SLP116 P0000 T00670033=
200611170052 METAR KATL 170052Z 27009G18KT 10SM FEW020 BKN026 OVC035 07/03 A2984 RMK AO2 SLP106 T00670033=
200611162352 SPECI KATL 162352Z 26011KT 10SM BKN020 BKN028 OVC055 07/03 A2982 RMK AO2 SLP101 10094 20072 60000 T00720033 53019=
200611162252 METAR KATL 162252Z 25012G18KT 10SM BKN020 BKN028 OVC055 08/03 A2979 RMK AO2 RAE48 SLP090 P0000 T00780033=
200611162204 SPECI KATL 162204Z 26013G18KT 10SM -RA SCT022 BKN028 BKN055 08/03 A2977 RMK AO2 P0000=
200611162204 SPECI KATL 162204Z 26013G18KT 10SM -RA SCT022 BKN028 BKN055 08/03 A2977 RMK AO2 P0000=
200611162152 METAR KATL 162152Z 24012G19KT 10SM -RA SCT022 BKN042 BKN050 08/03 A2977 RMK AO2 RAB49 SLP081 VIS LWR NW-N SHRA P0000 T00830033=
200611162149 SPECI KATL 162149Z 25014G19KT 10SM -RA SCT022 BKN042 BKN050 08/03 A2977 RMK AO2 RAB49 VIS LWR NW-N SHRA P0000=
200611162149 SPECI KATL 162149Z 25014G19KT 10SM -RA SCT022 BKN042 BKN050 08/03 A2977 RMK AO2 RAB49 VIS LWR NW-N SHRA P0000=
200611162119 SPECI KATL 162119Z 26015G20KT 10SM BKN020 BKN050 08/03 A2976 RMK AO2=
200611162119 SPECI KATL 162119Z 26015G20KT 10SM BKN020 BKN050 08/03 A2976 RMK AO2=
200611162052 METAR KATL 162052Z 25014G19KT 10SM FEW020 SCT030 BKN050 08/04 A2975 RMK AO2 RAE06 SLP074 SHRA DSNT NE-S P0000 60000 T00830039 53021=
200611162013 SPECI KATL 162013Z 25014KT 10SM SCT020 SCT027 OVC045 08/04 A2974 RMK AO2 RAE06 P0000=
200611162013 SPECI KATL 162013Z 25014KT 10SM SCT020 SCT027 OVC045 08/04 A2974 RMK AO2 RAE06 P0000=
200611161952 METAR KATL 161952Z 24013KT 10SM -RA FEW018 BKN021 OVC029 08/04 A2973 RMK AO2 RAB09 SLP067 VIS LWR S-SW SHRA P0000 T00780039=
200611161929 SPECI KATL 161929Z 25009KT 10SM -RA FEW018 BKN023 OVC031 08/04 A2972 RMK AO2 RAB09 VIS LWR N-NE SHRA P0000=
200611161929 SPECI KATL 161929Z 25009KT 10SM -RA FEW018 BKN023 OVC031 08/04 A2972 RMK AO2 RAB09 VIS LWR N-NE SHRA P0000=
200611161911 SPECI KATL 161911Z 24012G19KT 10SM -RA BKN025 OVC032 08/03 A2971 RMK AO2 RAB09 P0000=
200611161911 SPECI KATL 161911Z 24012G19KT 10SM -RA BKN025 OVC032 08/03 A2971 RMK AO2 RAB09 P0000=
200611161904 SPECI KATL 161904Z 25010KT 10SM SCT025 OVC032 09/03 A2971 RMK AO2=
200611161904 SPECI KATL 161904Z 25010KT 10SM SCT025 OVC032 09/03 A2971 RMK AO2=
200611161852 METAR KATL 161852Z 23014G19KT 10SM FEW025 BKN028 OVC035 09/03 A2971 RMK AO2 SLP058 T00890033=
200611161818 SPECI KATL 161818Z 24014KT 10SM BKN027 BKN036 OVC045 09/03 A2970 RMK AO2=
200611161818 SPECI KATL 161818Z 24014KT 10SM BKN027 BKN036 OVC045 09/03 A2970 RMK AO2=
200611161810 SPECI KATL 161810Z 24013KT 10SM SCT027 BKN036 OVC045 09/03 A2969 RMK AO2=
200611161810 SPECI KATL 161810Z 24013KT 10SM SCT027 BKN036 OVC045 09/03 A2969 RMK AO2=
200611161752 METAR KATL 161752Z 24016G21KT 10SM FEW025 BKN029 OVC035 09/03 A2969 RMK AO2 SLP052 BINOVC DSNT S-W 60000 T00940028 10094 20083 51003=
200611161750 SPECI KATL 161750Z 24014G21KT 10SM FEW025 BKN029 OVC035 09/03 A2969 RMK AO2 BINOVC DSNT S-W=
200611161750 SPECI KATL 161750Z 24014G21KT 10SM FEW025 BKN029 OVC035 09/03 A2969 RMK AO2 BINOVC DSNT S-W=
200611161703 SPECI KATL 161703Z 24013G23KT 10SM FEW027 BKN032 OVC035 09/02 A2969 RMK AO2=
200611161703 SPECI KATL 161703Z 24013G23KT 10SM FEW027 BKN032 OVC035 09/02 A2969 RMK AO2=
200611161652 METAR KATL 161652Z 23014G20KT 10SM FEW025 BKN029 OVC035 09/03 A2968 RMK AO2 RAE1556 SLP050 BINOVC DSNT E-S P0000 T00940028=
200611161635 SPECI KATL 161635Z 24012G18KT 10SM FEW024 BKN029 OVC037 09/03 A2968 RMK AO2 RAE1556 P0000=
200611161635 SPECI KATL 161635Z 24012G18KT 10SM FEW024 BKN029 OVC037 09/03 A2968 RMK AO2 RAE1556 P0000=
200611161620 SPECI KATL 161620Z 24012G22KT 10SM SCT023 BKN030 OVC036 09/03 A2968 RMK AO2 RAE1556 P0000=
200611161620 SPECI KATL 161620Z 24012G22KT 10SM SCT023 BKN030 OVC036 09/03 A2968 RMK AO2 RAE1556 P0000=
200611161552 METAR KATL 161552Z 24014G19KT 10SM -RA FEW025 SCT030 BKN048 09/03 A2968 RMK AO2 RAE15B47 SLP048 P0000 T00890033=
200611161532 SPECI KATL 161532Z 25014G20KT 10SM BKN027 OVC041 08/03 A2967 RMK AO2 RAE15 BINOVC P0000=
200611161532 SPECI KATL 161532Z 25014G20KT 10SM BKN027 OVC041 08/03 A2967 RMK AO2 RAE15 BINOVC P0000=
200611161522 SPECI KATL 161522Z 25012G18KT 10SM SCT027 OVC041 09/03 A2967 RMK AO2 RAE15 BINOVC P0000=
200611161522 SPECI KATL 161522Z 25012G18KT 10SM SCT027 OVC041 09/03 A2967 RMK AO2 RAE15 BINOVC P0000=
200611161456 SPECI KATL 161456Z 25011G20KT 10SM -RA BKN026 OVC034 08/03 A2966 RMK AO2 VIS LWR NW-N-NE SHRA P0000=
200611161456 SPECI KATL 161456Z 25011G20KT 10SM -RA BKN026 OVC034 08/03 A2966 RMK AO2 VIS LWR NW-N-NE SHRA P0000=
200611161452 METAR KATL 161452Z 24016G20KT 9SM -RA SCT026 OVC032 08/03 A2966 RMK AO2 RAB52 SLP042 VIS LWR NW-N SHRA P0000 60000 T00830033 51038=
200611161352 METAR KATL 161352Z 23018G21KT 10SM BKN024 BKN033 09/03 A2962 RMK AO2 SLP030 T00890033=
200611161310 SPECI KATL 161310Z 23012G21KT 10SM BKN024 BKN033 09/04 A2959 RMK AO2=
200611161310 SPECI KATL 161310Z 23012G21KT 10SM BKN024 BKN033 09/04 A2959 RMK AO2=
200611161252 METAR KATL 161252Z 23010KT 10SM SCT022 BKN035 09/05 A2958 RMK AO2 SLP015 T00940050=
200611161237 SPECI KATL 161237Z 23010G18KT 10SM FEW024 OVC035 09/05 A2957 RMK AO2=
200611161237 SPECI KATL 161237Z 23010G18KT 10SM FEW024 OVC035 09/05 A2957 RMK AO2=
200611161212 SPECI KATL 161212Z 24016G20KT 10SM BKN024 OVC039 09/05 A2956 RMK AO2=
200611161212 SPECI KATL 161212Z 24016G20KT 10SM BKN024 OVC039 09/05 A2956 RMK AO2=
200611161152 METAR KATL 161152Z 24014G20KT 10SM SCT022 OVC039 09/06 A2954 RMK AO2 SLP003 60004 70286 T00940056 10167 20094 53024=
200611161143 SPECI KATL 161143Z 23010KT 10SM BKN024 BKN028 OVC037 09/06 A2954 RMK AO2=
200611161143 SPECI KATL 161143Z 23010KT 10SM BKN024 BKN028 OVC037 09/06 A2954 RMK AO2=
200611161052 METAR KATL 161052Z 24011KT 10SM FEW020 BKN037 09/06 A2951 RMK AO2 SLP994 T00940061 $=
200611161024 SPECI KATL 161024Z 24008G16KT 10SM FEW190 10/06 A2950 RMK AO2=
200611161024 SPECI KATL 161024Z 24008G16KT 10SM FEW190 10/06 A2950 RMK AO2=
200611160952 METAR KATL 160952Z 24015G20KT 10SM SCT019 BKN025 11/07 A2949 RMK AO2 SLP984 T01060072=
200611160923 SPECI KATL 160923Z 23014G19KT 10SM FEW016 12/08 A2947 RMK AO2=
200611160923 SPECI KATL 160923Z 23014G19KT 10SM FEW016 12/08 A2947 RMK AO2=
200611160852 METAR KATL 160852Z 23013KT 10SM FEW014 BKN022 BKN027 12/09 A2947 RMK AO2 SLP977 60004 T01220094 53013=
200611160803 SPECI KATL 160803Z 24010KT 10SM BKN017 BKN050 13/11 A2947 RMK AO2=
200611160803 SPECI KATL 160803Z 24010KT 10SM BKN017 BKN050 13/11 A2947 RMK AO2=
200611160752 METAR KATL 160752Z 25010G16KT 10SM SCT017 SCT036 BKN050 13/11 A2946 RMK AO2 WSHFT 0703 RAB12E34 SLP974 P0002 T01330111=
200611160740 SPECI KATL 160740Z 26011KT 10SM FEW014 BKN050 OVC060 13/11 A2945 RMK AO2 WSHFT 0703 RAB12E34 P0002=
200611160740 SPECI KATL 160740Z 26011KT 10SM FEW014 BKN050 OVC060 13/11 A2945 RMK AO2 WSHFT 0703 RAB12E34 P0002=
200611160719 SPECI KATL 160719Z 27012G22KT 5SM RA BR FEW010 BKN018 OVC026 14/12 A2944 RMK AO2 WSHFT 0703 RAB12 P0002=
200611160719 SPECI KATL 160719Z 27012G22KT 5SM RA BR FEW010 BKN018 OVC026 14/12 A2944 RMK AO2 WSHFT 0703 RAB12 P0002=
200611160652 METAR KATL 160652Z 20017G21KT 10SM BKN012 OVC018 17/14 A2943 RMK AO2 RAE05 SLP961 P0002 T01670144=
200611160552 METAR KATL 160552Z 18010KT 6SM -RA BR BKN007 BKN012 OVC025 16/15 A2943 RMK AO2 SLP963 P0006 60028 T01610150 10167 20139 56007=
200611160532 SPECI KATL 160532Z 18009KT 10SM BKN006 BKN012 OVC025 16/15 A2944 RMK AO2 RAE31 P0006=
200611160532 SPECI KATL 160532Z 18009KT 10SM BKN006 BKN012 OVC025 16/15 A2944 RMK AO2 RAE31 P0006=
200611160514 SPECI KATL 160514Z 18009KT 4SM RA BR SCT006 BKN012 OVC025 16/15 A2945 RMK AO2 P0005=
200611160514 SPECI KATL 160514Z 18009KT 4SM RA BR SCT006 BKN012 OVC025 16/15 A2945 RMK AO2 P0005=
200611160507 SPECI KATL 160507Z 19011KT 4SM RA BR SCT007 BKN020 OVC035 16/15 A2945 RMK AO2 P0003=
200611160507 SPECI KATL 160507Z 19011KT 4SM RA BR SCT007 BKN020 OVC035 16/15 A2945 RMK AO2 P0003=
200611160452 METAR KATL 160452Z 19009KT 10SM -RA BKN007 OVC025 16/15 A2944 RMK AO2 SLP965 CIG 005V010 P0014 T01610150 401610117=
200611160449 SPECI KATL 160449Z 18009KT 7SM -RA BKN007 OVC025 16/15 A2944 RMK AO2 CIG 005V010 P0014 401610117=
200611160449 SPECI KATL 160449Z 18009KT 7SM -RA BKN007 OVC025 16/15 A2944 RMK AO2 CIG 005V010 P0014 401610117=
200611160440 SPECI KATL 160440Z 18010G19KT 3SM RA BR SCT007 BKN014 OVC025 16/15 A2944 RMK AO2 P0013=
200611160440 SPECI KATL 160440Z 18010G19KT 3SM RA BR SCT007 BKN014 OVC025 16/15 A2944 RMK AO2 P0013=
200611160432 SPECI KATL 160432Z 17014G19KT 2SM +RA BR BKN007 OVC020 16/15 A2944 RMK AO2 P0009=
200611160432 SPECI KATL 160432Z 17014G19KT 2SM +RA BR BKN007 OVC020 16/15 A2944 RMK AO2 P0009=
200611160352 METAR KATL 160352Z 14011KT 10SM -RA BKN008 OVC020 16/14 A2945 RMK AO2 SLP970 CIG 006V012 P0005 T01610144=
200611160320 SPECI KATL 160320Z 13007KT 7SM -RA BKN007 BKN018 OVC035 16/14 A2946 RMK AO2 P0005=
200611160320 SPECI KATL 160320Z 13007KT 7SM -RA BKN007 BKN018 OVC035 16/14 A2946 RMK AO2 P0005=
200611160252 METAR KATL 160252Z 13011KT 8SM -RA SCT007 BKN014 OVC045 16/14 A2949 RMK AO2 RAB48 SLP982 P0000 60003 T01560144 58001=
200611160248 SPECI KATL 160248Z 13011KT 10SM -RA BKN006 BKN015 OVC045 16/14 A2949 RMK AO2 RAB48 P0000=
200611160248 SPECI KATL 160248Z 13011KT 10SM -RA BKN006 BKN015 OVC045 16/14 A2949 RMK AO2 RAB48 P0000=
200611160242 SPECI KATL 160242Z 13011KT 1 1/2SM BKN006 BKN015 OVC045 16/14 A2949 RMK AO2 SFC VIS 10=
200611160242 SPECI KATL 160242Z 13011KT 1 1/2SM BKN006 BKN015 OVC045 16/14 A2949 RMK AO2 SFC VIS 10=
200611160152 METAR KATL 160152Z 13011KT 1 1/2SM BR OVC004 15/13 A2952 RMK AO2 SFC VIS 6 SLP992 CIG 003V006 T01500133=
200611160052 METAR KATL 160052Z 12013KT 1 1/2SM OVC004 14/13 A2949 RMK AO2 SFC VIS 7 RAE24 SLP983 CIG 003V006 P0003 T01440128=
200611160050 SPECI KATL 160050Z 12014G22KT 1 1/2SM OVC004 14/13 A2949 RMK AO2 SFC VIS 7 RAE24 CIG 003V006 P0003=
200611160050 SPECI KATL 160050Z 12014G22KT 1 1/2SM OVC004 14/13 A2949 RMK AO2 SFC VIS 7 RAE24 CIG 003V006 P0003=
200611160038 SPECI KATL 160038Z 12014G23KT 3SM BKN004 OVC015 14/13 A2950 RMK AO2 SFC VIS 7 RAE24 P0003=
200611160038 SPECI KATL 160038Z 12014G23KT 3SM BKN004 OVC015 14/13 A2950 RMK AO2 SFC VIS 7 RAE24 P0003=
200611152352 METAR KATL 152352Z 11015G19KT 2 1/2SM -RA BR BKN005 BKN012 OVC030 14/12 A2956 RMK AO2 SFC VIS 5 SLP009 P0019 60201 T01390122 10144 20128 58005=
200611152259 SPECI KATL 152259Z 09011KT 2 1/2SM RA BR BKN007 BKN015 OVC030 13/12 A2956 RMK AO2 SFC VIS 3 P0003=
200611152259 SPECI KATL 152259Z 09011KT 2 1/2SM RA BR BKN007 BKN015 OVC030 13/12 A2956 RMK AO2 SFC VIS 3 P0003=
200611152252 METAR KATL 152252Z 09013KT 2 1/2SM +RA BR SCT007 BKN015 OVC030 13/12 A2956 RMK AO2 SFC VIS 3 PRESFR SLP008 P0033 T01330117=
200611152244 SPECI KATL 152244Z 10012KT 2 1/2SM RA BR SCT007 BKN015 OVC030 13/12 A2958 RMK AO2 SFC VIS 3 P0030=
200611152244 SPECI KATL 152244Z 10012KT 2 1/2SM RA BR SCT007 BKN015 OVC030 13/12 A2958 RMK AO2 SFC VIS 3 P0030=
200611152207 SPECI KATL 152207Z 16005KT 2 1/2SM +RA BR BKN007 OVC011 13/12 A2962 RMK AO2 CIG 004V009 PRESRR P0008=
200611152207 SPECI KATL 152207Z 16005KT 2 1/2SM +RA BR BKN007 OVC011 13/12 A2962 RMK AO2 CIG 004V009 PRESRR P0008=
200611152152 METAR KATL 152152Z VRB03KT 3/4SM +RA BR BKN005 BKN011 OVC030 13/12 A2959 RMK AO2 SFC VIS 2 1/2 TSB07E28 SLP019 TS MOV NE P0052 T01330117=
200611152128 SPECI KATL 152128Z 00000KT 3/4SM +RA BR BKN005 BKN013 OVC030 13/12 A2957 RMK AO2 SFC VIS 2 1/2 TSB07E28 TS MOV NE P0032=
200611152128 SPECI KATL 152128Z 00000KT 3/4SM +RA BR BKN005 BKN013 OVC030 13/12 A2957 RMK AO2 SFC VIS 2 1/2 TSB07E28 TS MOV NE P0032=
200611152115 SPECI KATL 152115Z 06013KT 3/4SM TSRA BR BKN005CB BKN013 OVC020 13/12 A2957 RMK AO2 SFC VIS 1 3/4 TSB07 OCNL LTGICCG TS OHD MOV NE P0023=
200611152115 SPECI KATL 152115Z 06013KT 3/4SM TSRA BR BKN005CB BKN013 OVC020 13/12 A2957 RMK AO2 SFC VIS 1 3/4 TSB07 OCNL LTGICCG TS OHD MOV NE P0023=
200611152108 SPECI KATL 152108Z 08011KT 3/4SM TSRA BR SCT005CB BKN013 OVC029 13/12 A2959 RMK AO2 SFC VIS 2 TSB07 OCNL LTGICCG TS OHD MOV NE P0010=
200611152108 SPECI KATL 152108Z 08011KT 3/4SM TSRA BR SCT005CB BKN013 OVC029 13/12 A2959 RMK AO2 SFC VIS 2 TSB07 OCNL LTGICCG TS OHD MOV NE P0010=
200611152100 SPECI KATL 152100Z 09009KT 3/4SM +RA BR SCT007CB BKN017 OVC027 13/12 A2959 RMK AO2 SFC VIS 2 1/2 CB VC SW MOV NE P0003=
200611152100 SPECI KATL 152100Z 09009KT 3/4SM +RA BR SCT007CB BKN017 OVC027 13/12 A2959 RMK AO2 SFC VIS 2 1/2 CB VC SW MOV NE P0003=
200611152052 METAR KATL 152052Z 09013KT 3/4SM +RA BR BKN007 BKN017 OVC027 13/12 A2958 RMK AO2 SFC VIS 2 1/2 TSE07 SLP015 LTG DSNT S-SW CB DSNT S-SW-W-NW MOV NE P0059 60097 T01330117 55008=
200611152050 SPECI KATL 152050Z 09012KT 3/4SM +RA BR BKN005 BKN016 OVC030 13/12 A2958 RMK AO2 SFC VIS 2 TSE07 LTG DSNT S-SW CB DSNT S-SW-W-NW MOV NE P0057=
200611152050 SPECI KATL 152050Z 09012KT 3/4SM +RA BR BKN005 BKN016 OVC030 13/12 A2958 RMK AO2 SFC VIS 2 TSE07 LTG DSNT S-SW CB DSNT S-SW-W-NW MOV NE P0057=
200611152007 SPECI KATL 152007Z 09011KT 3/4SM +RA BR SCT005 BKN010 OVC018 13/12 A2959 RMK AO2 SFC VIS 1 TSE07 LTG DSNT SW TS MOV NE CB DSNT SW MOV NE P0016 RVRNO=
200611152007 SPECI KATL 152007Z 09011KT 3/4SM +RA BR SCT005 BKN010 OVC018 13/12 A2959 RMK AO2 SFC VIS 1 TSE07 LTG DSNT SW TS MOV NE CB DSNT SW MOV NE P0016 RVRNO=
200611151959 SPECI KATL 151959Z 10009KT 1SM +TSRA BR BKN007CB OVC015 13/12 A2960 RMK AO2 TWR VIS 1 1/2 OCNL LTGIC TS OHD MOV NE P0006 RVRNO=
200611151959 SPECI KATL 151959Z 10009KT 1SM +TSRA BR BKN007CB OVC015 13/12 A2960 RMK AO2 TWR VIS 1 1/2 OCNL LTGIC TS OHD MOV NE P0006 RVRNO=
200611151952 METAR KATL 151952Z 11010KT 1 1/2SM TSRA BR BKN007CB BKN010 OVC017 14/12 A2960 RMK AO2 TSB16E42B49 SLP021 OCNL LTGICCG TS S-SW-W MOV NE P0019 T01390122=
200611151948 SPECI KATL 151948Z 12008KT 1 1/2SM RA BR BKN007 BKN010 OVC017 14/12 A2960 RMK AO2 SFC VIS 2 TSB16E42 TS MOV NE P0017=
200611151948 SPECI KATL 151948Z 12008KT 1 1/2SM RA BR BKN007 BKN010 OVC017 14/12 A2960 RMK AO2 SFC VIS 2 TSB16E42 TS MOV NE P0017=
200611151934 SPECI KATL 151934Z 12009G15KT 1 1/2SM -TSRA BR FEW005CB BKN009 OVC017 14/13 A2960 RMK AO2 SFC VIS 2 TSB16 OCNL LTGIC TS OHD MOV NE P0012=
200611151934 SPECI KATL 151934Z 12009G15KT 1 1/2SM -TSRA BR FEW005CB BKN009 OVC017 14/13 A2960 RMK AO2 SFC VIS 2 TSB16 OCNL LTGIC TS OHD MOV NE P0012=
200611151918 SPECI KATL 151918Z 12009KT 1 1/2SM TSRA BR BKN005CB BKN015 OVC030 14/13 A2959 RMK AO2 SFC VIS 2 TSB16 OCNL LTGIC TS OHD MOV NE P0007=
200611151918 SPECI KATL 151918Z 12009KT 1 1/2SM TSRA BR BKN005CB BKN015 OVC030 14/13 A2959 RMK AO2 SFC VIS 2 TSB16 OCNL LTGIC TS OHD MOV NE P0007=
200611151852 METAR KATL 151852Z 11010KT 1SM -RA BR FEW002 BKN005 OVC008 14/13 A2960 RMK AO2 SFC VIS 3 SLP022 P0019 T01440128=
200611151832 SPECI KATL 151832Z 12009KT 1/2SM +RA BR FEW002 BKN004 OVC007 14/13 A2961 RMK AO2 SFC VIS 2 P0014=
200611151832 SPECI KATL 151832Z 12009KT 1/2SM +RA BR FEW002 BKN004 OVC007 14/13 A2961 RMK AO2 SFC VIS 2 P0014=
200611151752 METAR KATL 151752Z 12009KT 1/4SM -RA BR BKN002 OVC005 14/13 A2964 RMK AO2 SFC VIS 2 1/2 SLP034 P0013 60053 T01440128 10144 20122 58029=
200611151654 SPECI KATL 151654Z 12008KT 1/4SM RA BR OVC004 13/12 A2969 RMK AO2 SFC VIS 1 1/2 P0001=
200611151654 SPECI KATL 151654Z 12008KT 1/4SM RA BR OVC004 13/12 A2969 RMK AO2 SFC VIS 1 1/2 P0001=
200611151652 METAR KATL 151652Z 13008KT 1/2SM RA BR OVC004 13/12 A2969 RMK AO2 SFC VIS 1 1/2 SLP051 P0006 T01330122=
200611151641 SPECI KATL 151641Z 13010KT 1 1/2SM -RA BR OVC004 13/12 A2969 RMK AO2 SFC VIS 3 P0004=
200611151641 SPECI KATL 151641Z 13010KT 1 1/2SM -RA BR OVC004 13/12 A2969 RMK AO2 SFC VIS 3 P0004=
200611151606 SPECI KATL 151606Z 11009KT 2SM -RA BR OVC008 13/11 A2971 RMK AO2 SFC VIS 4 CIG 006V010 PRESFR P0001=
200611151606 SPECI KATL 151606Z 11009KT 2SM -RA BR OVC008 13/11 A2971 RMK AO2 SFC VIS 4 CIG 006V010 PRESFR P0001=
200611151552 METAR KATL 151552Z 11007KT 2SM -RA BR OVC010 13/11 A2972 RMK AO2 SFC VIS 4 SLP063 P0011 T01280111=
200611151452 METAR KATL 151452Z 12008KT 2SM +RA BR OVC012 12/11 A2973 RMK AO2 SFC VIS 2 1/2 SLP064 P0007 60023 T01220106 50003=
200611151352 METAR KATL 151352Z 12005KT 2SM -RA BR BKN012 OVC045 12/11 A2973 RMK AO2 SFC VIS 4 SLP066 P0010 T01220106 $=
200611151300 SPECI KATL 151300Z 14005KT 2SM RA BR FEW011 BKN047 OVC100 12/11 A2973 RMK AO2 P0001=
200611151300 SPECI KATL 151300Z 14005KT 2SM RA BR FEW011 BKN047 OVC100 12/11 A2973 RMK AO2 P0001=
200611151252 METAR KATL 151252Z 15006KT 6SM -RA BR SCT011 BKN046 OVC100 13/11 A2972 RMK AO2 SLP063 P0006 T01280106=
200611151152 METAR KATL 151152Z 15007KT 6SM -RA BR BKN015 BKN040 OVC080 13/11 A2972 RMK AO2 SLP060 P0003 60011 70011 T01280106 10128 20117 56017=
200611151052 METAR KATL 151052Z 15009KT 7SM -RA BKN035 OVC090 13/11 A2973 RMK AO2 RAB03 SLP065 P0001 T01280106=
200611150952 METAR KATL 150952Z 15006KT 7SM SCT006 BKN032 OVC047 12/11 A2973 RMK AO2 RAE0855B38E49 SLP065 P0000 T01220111=
200611150945 SPECI KATL 150945Z 14007KT 7SM -RA BKN006 OVC030 12/11 A2973 RMK AO2 RAE0855B38 CIG 003V009 PRESFR P0000=
200611150945 SPECI KATL 150945Z 14007KT 7SM -RA BKN006 OVC030 12/11 A2973 RMK AO2 RAE0855B38 CIG 003V009 PRESFR P0000=
200611150852 METAR KATL 150852Z 17005KT 6SM -RA BR BKN004 OVC010 12/11 A2977 RMK AO2 CIG 002V006 SLP078 P0002 60007 T01220106 56013=
200611150847 SPECI KATL 150847Z 18006KT 5SM -RA BR BKN006 BKN010 OVC017 12/11 A2977 RMK AO2 CIG 002V008 P0002=
200611150847 SPECI KATL 150847Z 18006KT 5SM -RA BR BKN006 BKN010 OVC017 12/11 A2977 RMK AO2 CIG 002V008 P0002=
200611150837 SPECI KATL 150837Z 17005KT 5SM -RA BR SCT004 BKN010 OVC017 12/11 A2977 RMK AO2 CIG 008V011 P0002=
200611150837 SPECI KATL 150837Z 17005KT 5SM -RA BR SCT004 BKN010 OVC017 12/11 A2977 RMK AO2 CIG 008V011 P0002=
200611150819 SPECI KATL 150819Z 17006KT 4SM -RA BR SCT004 SCT008 OVC017 12/11 A2978 RMK AO2 P0001=
200611150819 SPECI KATL 150819Z 17006KT 4SM -RA BR SCT004 SCT008 OVC017 12/11 A2978 RMK AO2 P0001=
200611150752 METAR KATL 150752Z 20007KT 4SM -RA BR BKN007 OVC024 12/11 A2981 RMK AO2 RAB38 CIG 004V010 SLP090 P0002 T01170106=
200611150747 SPECI KATL 150747Z 20008KT 4SM RA BR SCT009 BKN024 OVC032 12/11 A2981 RMK AO2 RAB38 P0001=
200611150747 SPECI KATL 150747Z 20008KT 4SM RA BR SCT009 BKN024 OVC032 12/11 A2981 RMK AO2 RAB38 P0001=
200611150737 SPECI KATL 150737Z 20007KT 6SM BR BKN022 OVC035 12/11 A2981 RMK AO2=
200611150737 SPECI KATL 150737Z 20007KT 6SM BR BKN022 OVC035 12/11 A2981 RMK AO2=
200611150652 METAR KATL 150652Z 13004KT 8SM BKN039 OVC047 12/10 A2979 RMK AO2 RAE44 SLP085 P0003 T01170100=
200611150552 METAR KATL 150552Z 16004KT 6SM -RA FEW025 OVC070 13/08 A2982 RMK AO2 RAE08B41 SLP097 P0000 60000 T01280083 10156 20128 50000=
200611150452 METAR KATL 150452Z 20005KT 10SM -RA BKN095 OVC120 13/08 A2984 RMK AO2 RAE02B34 SLP101 P0000 T01280078 401940050=
200611150352 METAR KATL 150352Z 23003KT 10SM -RA FEW060 OVC090 13/07 A2983 RMK AO2 RAB36 SLP099 P0000 T01330067=
200611150252 METAR KATL 150252Z 00000KT 10SM BKN110 BKN150 OVC200 14/06 A2982 RMK AO2 SLP098 T01390056 51008=
200611150152 METAR KATL 150152Z 00000KT 10SM BKN140 BKN200 OVC250 13/06 A2982 RMK AO2 SLP098 T01330056=
200611150052 METAR KATL 150052Z 18005KT 10SM BKN150 OVC200 15/05 A2981 RMK AO2 SLP094 T01500050=
200611142352 METAR KATL 142352Z 15004KT 10SM FEW150 BKN200 OVC250 16/04 A2980 RMK AO2 SLP091 T01560044 10194 20156 58005=
200611142252 METAR KATL 142252Z 18004KT 10SM FEW200 BKN250 16/04 A2981 RMK AO2 SLP094 T01610044=
200611142152 METAR KATL 142152Z 20005KT 10SM FEW150 SCT200 BKN250 18/03 A2981 RMK AO2 SLP094 T01780033=
200611142052 METAR KATL 142052Z 22005KT 10SM SCT200 BKN250 18/02 A2981 RMK AO2 SLP094 T01830017 56015=
200611141952 METAR KATL 141952Z VRB04KT 10SM BKN200 BKN250 19/01 A2981 RMK AO2 SLP095 T01890011=
200611141852 METAR KATL 141852Z 29003KT 10SM FEW200 BKN250 19/02 A2984 RMK AO2 SLP102 T01890017=
200611141752 METAR KATL 141752Z 27006KT 10SM FEW250 18/02 A2986 RMK AO2 SLP109 T01780017 10178 20050 58017=
200611141652 METAR KATL 141652Z 33006KT 10SM FEW150 SCT200 16/02 A2989 RMK AO2 SLP120 T01610017 $=
200611141552 METAR KATL 141552Z VRB03KT 10SM FEW150 SCT250 13/03 A2990 RMK AO2 SLP127 T01330028=
200611141452 METAR KATL 141452Z 32007KT 10SM FEW200 SCT250 11/03 A2991 RMK AO2 SLP129 T01060028 53001=
200611141352 METAR KATL 141352Z 29005KT 10SM FEW150 BKN200 BKN250 08/03 A2992 RMK AO2 SLP132 T00780028=
200611141252 METAR KATL 141252Z 28005KT 10SM FEW150 BKN200 BKN250 07/02 A2990 RMK AO2 SLP128 T00670017=
200611141152 METAR KATL 141152Z 30007KT 10SM FEW250 06/02 A2991 RMK AO2 SLP129 T00560017 10083 20050 53008=
200611141052 METAR KATL 141052Z 30006KT 10SM FEW250 06/02 A2990 RMK AO2 SLP126 T00560017=
200611140952 METAR KATL 140952Z 29006KT 10SM CLR 06/02 A2989 RMK AO2 SLP121 T00560017=
200611140852 METAR KATL 140852Z 31004KT 10SM CLR 07/02 A2988 RMK AO2 SLP119 T00670017 58013=
200611140752 METAR KATL 140752Z 29005KT 10SM CLR 06/02 A2990 RMK AO2 SLP125 T00610017=
200611140652 METAR KATL 140652Z 29005KT 10SM CLR 07/02 A2991 RMK AO2 SLP129 T00720017=
200611140552 METAR KATL 140552Z 28004KT 10SM CLR 08/02 A2992 RMK AO2 SLP132 T00830017 10128 20078 58009=
200611140452 METAR KATL 140452Z 28005KT 10SM FEW150 09/02 A2993 RMK AO2 SLP137 T00890017 401830006=
200611140352 METAR KATL 140352Z 29008KT 10SM FEW150 09/02 A2995 RMK AO2 SLP142 T00890017=
200611140252 METAR KATL 140252Z 30007KT 10SM BKN150 10/02 A2995 RMK AO2 SLP144 T01000022 50003=
200611140152 METAR KATL 140152Z 30007KT 10SM FEW150 10/02 A2995 RMK AO2 SLP146 T01000017=
200611140052 METAR KATL 140052Z 30007KT 10SM FEW150 11/02 A2996 RMK AO2 SLP149 T01110017=
200611132352 METAR KATL 132352Z 30006KT 10SM BKN140 BKN200 13/02 A2994 RMK AO2 SLP142 T01280022 10183 20128 53003=
200611132252 METAR KATL 132252Z 32007KT 10SM BKN140 BKN200 BKN250 14/02 A2992 RMK AO2 SLP137 VIRGA DSNT E-SE T01440022=
200611132152 METAR KATL 132152Z 33003KT 10SM FEW150 SCT200 BKN250 16/01 A2991 RMK AO2 SLP131 VIRGA DSNT SE-SW T01610006=
200611132052 METAR KATL 132052Z 29007KT 10SM FEW150 BKN200 BKN250 17/01 A2993 RMK AO2 SLP136 T01670011 56017=
200611131952 METAR KATL 131952Z 31006KT 10SM FEW150 SCT200 BKN250 18/M01 A2993 RMK AO2 SLP136 ACSL DSNT S-SW T01831006=
200611131852 METAR KATL 131852Z 28008KT 10SM FEW150 SCT200 SCT250 17/M01 A2996 RMK AO2 SLP148 T01721011 $=
200611131752 METAR KATL 131752Z 29008KT 10SM FEW200 BKN250 16/01 A2998 RMK AO2 SLP154 T01610006 10161 20006 58023=
200611131652 METAR KATL 131652Z 33006KT 10SM FEW200 BKN250 13/01 A3001 RMK AO2 SLP165 T01330011=
200611131552 METAR KATL 131552Z 30007KT 9SM FEW200 BKN250 09/02 A3004 RMK AO2 SLP176 T00940017=
200611131452 METAR KATL 131452Z 30006KT 8SM FEW200 SCT250 06/01 A3005 RMK AO2 SLP181 T00610011 53007=
200611131352 METAR KATL 131352Z 28004KT 8SM FEW250 03/01 A3004 RMK AO2 SLP178 T00330006=
200611131252 METAR KATL 131252Z 31007KT 7SM FEW250 01/M01 A3003 RMK AO2 SLP176 T00111006=
200611131152 METAR KATL 131152Z 29008KT 7SM CLR 01/M01 A3003 RMK AO2 SLP175 T00061011 10033 20006 55002=
200611131052 METAR KATL 131052Z 32008KT 7SM CLR 01/M01 A3003 RMK AO2 SLP172 T00111006=
200611130952 METAR KATL 130952Z 31007KT 8SM CLR 02/M01 A3004 RMK AO2 SLP176 T00171006=
200611130852 METAR KATL 130852Z 32006KT 8SM CLR 02/M01 A3004 RMK AO2 SLP175 T00171006 58008=
200611130752 METAR KATL 130752Z 32007KT 9SM CLR 02/00 A3005 RMK AO2 SLP179 T00220000=
200611130652 METAR KATL 130652Z 33007KT 9SM CLR 03/01 A3005 RMK AO2 SLP179 T00280006=
200611130552 METAR KATL 130552Z 33006KT 10SM CLR 03/01 A3006 RMK AO2 SLP183 T00330006 10089 20033 57011=
200611130452 METAR KATL 130452Z 31007KT 10SM CLR 04/01 A3007 RMK AO2 SLP186 T00440011 401500039=
200611130352 METAR KATL 130352Z 32006KT 10SM CLR 05/01 A3008 RMK AO2 SLP190 T00500011=
200611130252 METAR KATL 130252Z 32009KT 10SM CLR 06/01 A3009 RMK AO2 SLP194 T00610011 58003=
200611130152 METAR KATL 130152Z 32012KT 10SM CLR 07/01 A3010 RMK AO2 SLP196 T00720011=
200611130052 METAR KATL 130052Z 32009KT 10SM CLR 08/01 A3010 RMK AO2 SLP197 T00780011=
200611122352 METAR KATL 122352Z 31011KT 10SM CLR 09/02 A3010 RMK AO2 SLP197 T00890017 10150 20089 55002=
200611122252 METAR KATL 122252Z 31008KT 10SM FEW150 10/02 A3010 RMK AO2 SLP195 T01000017=
200611122152 METAR KATL 122152Z 32011KT 10SM CLR 12/01 A3009 RMK AO2 SLP193 T01220011=
200611122052 METAR KATL 122052Z 32014KT 10SM CLR 14/02 A3011 RMK AO2 SLP197 T01390022 56010=
200611121952 METAR KATL 121952Z 29012KT 10SM CLR 14/02 A3011 RMK AO2 SLP197 T01440022=
200611121852 METAR KATL 121852Z 33009G16KT 10SM CLR 14/02 A3012 RMK AO2 SLP199 T01390022=
200611121752 METAR KATL 121752Z 35013KT 10SM CLR 12/02 A3014 RMK AO2 SLP208 T01220017 10128 20056 58013=
200611121652 METAR KATL 121652Z 33011KT 10SM CLR 12/02 A3016 RMK AO2 SLP216 T01170022=
200611121552 METAR KATL 121552Z 35015G22KT 10SM CLR 10/02 A3018 RMK AO2 SLP224 T01000017=
200611121452 METAR KATL 121452Z 34015KT 10SM FEW025 09/02 A3018 RMK AO2 SLP222 T00890017 53010=
200611121352 METAR KATL 121352Z 33018G23KT 10SM FEW022 07/01 A3016 RMK AO2 PK WND 32027/1307 SLP217 T00720011=
200611121252 METAR KATL 121252Z 34017G26KT 10SM SCT022 06/01 A3016 RMK AO2 PK WND 33026/1250 SLP216 T00610006=
200611121207 SPECI KATL 121207Z 32015G25KT 10SM SCT022 06/01 A3015 RMK AO2 PK WND 33026/1157=
200611121207 SPECI KATL 121207Z 32015G25KT 10SM SCT022 06/01 A3015 RMK AO2 PK WND 33026/1157=
200611121159 SPECI KATL 121159Z 33018G26KT 10SM BKN022 06/01 A3015 RMK AO2 PK WND 33026/1157=
200611121159 SPECI KATL 121159Z 33018G26KT 10SM BKN022 06/01 A3015 RMK AO2 PK WND 33026/1157=
200611121152 METAR KATL 121152Z 31019G22KT 10SM SCT022 06/01 A3015 RMK AO2 SLP211 70013 T00560006 10067 20056 53011=
200611121052 METAR KATL 121052Z 32015KT 10SM BKN022 06/01 A3014 RMK AO2 SLP210 T00560006=
200611121017 SPECI KATL 121017Z 32014G19KT 10SM BKN022 06/01 A3013 RMK AO2=
200611121017 SPECI KATL 121017Z 32014G19KT 10SM BKN022 06/01 A3013 RMK AO2=
200611120952 METAR KATL 120952Z 32016G21KT 10SM FEW020 06/01 A3011 RMK AO2 SLP200 T00560006=
200611120950 SPECI KATL 120950Z 32014G21KT 10SM FEW020 06/01 A3011 RMK AO2=
200611120950 SPECI KATL 120950Z 32014G21KT 10SM FEW020 06/01 A3011 RMK AO2=
200611120852 METAR KATL 120852Z 32016G20KT 10SM BKN018 06/01 A3009 RMK AO2 SLP189 T00610011 53002=
200611120752 METAR KATL 120752Z 32016G22KT 10SM BKN020 06/02 A3008 RMK AO2 SLP184 T00610017=
200611120652 METAR KATL 120652Z 33012G24KT 10SM BKN020 07/02 A3009 RMK AO2 SLP188 T00670022=
200611120552 METAR KATL 120552Z 32016KT 10SM BKN026 07/02 A3008 RMK AO2 SLP187 T00670022 10106 20067 52000=
200611120452 METAR KATL 120452Z 31019G24KT 10SM OVC028 07/02 A3008 RMK AO2 PK WND 30030/0406 SLP185 BINOVC T00720017 401940072=
200611120438 SPECI KATL 120438Z 32013G21KT 10SM BKN028 07/02 A3009 RMK AO2 PK WND 30030/0406=
200611120438 SPECI KATL 120438Z 32013G21KT 10SM BKN028 07/02 A3009 RMK AO2 PK WND 30030/0406=
200611120428 SPECI KATL 120428Z 31018G22KT 10SM FEW024 BKN030 07/02 A3009 RMK AO2 PK WND 30030/0406=
200611120428 SPECI KATL 120428Z 31018G22KT 10SM FEW024 BKN030 07/02 A3009 RMK AO2 PK WND 30030/0406=
200611120352 METAR KATL 120352Z 32019G29KT 10SM OVC024 07/02 A3008 RMK AO2 PK WND 31031/0340 SLP187 T00720022=
200611120252 METAR KATL 120252Z 32016G25KT 10SM OVC022 08/03 A3008 RMK AO2 PK WND 31027/0210 SLP186 T00780028 53020=
200611120152 METAR KATL 120152Z 32019G30KT 10SM OVC022 08/03 A3006 RMK AO2 PK WND 32030/0149 SLP180 T00830033=
200611120052 METAR KATL 120052Z 31018G22KT 10SM OVC020 09/06 A3004 RMK AO2 SLP171 T00940056=
200611112356 SPECI KATL 112356Z 30013G21KT 10SM BKN016 OVC022 11/08 A3003 RMK AO2=
200611112356 SPECI KATL 112356Z 30013G21KT 10SM BKN016 OVC022 11/08 A3003 RMK AO2=
200611112352 METAR KATL 112352Z 30013G21KT 10SM BKN013 OVC022 11/08 A3002 RMK AO2 RAE03 SLP166 P0000 60013 T01060078 10194 20106 51022=
200611112319 SPECI KATL 112319Z 30012G17KT 10SM BKN010 OVC047 11/09 A3001 RMK AO2 RAE03 P0000=
200611112319 SPECI KATL 112319Z 30012G17KT 10SM BKN010 OVC047 11/09 A3001 RMK AO2 RAE03 P0000=
200611112305 SPECI KATL 112305Z 30011G19KT 9SM SCT010 SCT020 BKN043 11/09 A3001 RMK AO2 RAE03 P0000 $=
200611112305 SPECI KATL 112305Z 30011G19KT 9SM SCT010 SCT020 BKN043 11/09 A3001 RMK AO2 RAE03 P0000 $=
200611112252 METAR KATL 112252Z 30015G22KT 6SM -RA BR SCT005 BKN020 OVC039 11/09 A3000 RMK AO2 SLP158 CB DSNT NE MOV NE SHRA DSNT N-E P0011 T01110089 $=
200611112239 SPECI KATL 112239Z 29014G23KT 2SM -RA BR SCT005CB BKN018 OVC039 12/09 A3000 RMK AO2 SFC VIS 3 CB VC NE MOV NE P0011=
200611112239 SPECI KATL 112239Z 29014G23KT 2SM -RA BR SCT005CB BKN018 OVC039 12/09 A3000 RMK AO2 SFC VIS 3 CB VC NE MOV NE P0011=
200611112228 SPECI KATL 112228Z 30011KT 1 1/2SM +RA BR BKN009CB OVC016 12/10 A2999 RMK AO2 TWR VIS 2 VIS 1 1/4V4 CB OHD MOV NE P0009=
200611112228 SPECI KATL 112228Z 30011KT 1 1/2SM +RA BR BKN009CB OVC016 12/10 A2999 RMK AO2 TWR VIS 2 VIS 1 1/4V4 CB OHD MOV NE P0009=
200611112221 SPECI KATL 112221Z 29015G22KT 2SM RA BR SCT009CB BKN014 OVC018 12/10 A2999 RMK AO2 VIS 1 1/4V4 CB OHD MOV NE P0004=
200611112221 SPECI KATL 112221Z 29015G22KT 2SM RA BR SCT009CB BKN014 OVC018 12/10 A2999 RMK AO2 VIS 1 1/4V4 CB OHD MOV NE P0004=
200611112208 SPECI KATL 112208Z 32015KT 7SM -RA SCT009 BKN018 BKN035 12/10 A2998 RMK AO2 CB DSNT SW MOV NE SHRA DSNT S-W P0000=
200611112208 SPECI KATL 112208Z 32015KT 7SM -RA SCT009 BKN018 BKN035 12/10 A2998 RMK AO2 CB DSNT SW MOV NE SHRA DSNT S-W P0000=
200611112152 METAR KATL 112152Z 30014G19KT 6SM -RA BR BKN009 BKN015 BKN035 12/11 A2998 RMK AO2 RAE2053B26 SLP151 CB DSNT N MOV NE P0001 T01220106=
200611112142 SPECI KATL 112142Z 29015G18KT 3SM RA BR BKN009CB BKN015 OVC020 13/11 A2998 RMK AO2 RAE2053B26 VIS 2 SW VIS 2 NW CB VC NW MOV NE P0000=
200611112142 SPECI KATL 112142Z 29015G18KT 3SM RA BR BKN009CB BKN015 OVC020 13/11 A2998 RMK AO2 RAE2053B26 VIS 2 SW VIS 2 NW CB VC NW MOV NE P0000=
200611112136 SPECI KATL 112136Z 28012G18KT 6SM -RA BR BKN009CB BKN015 OVC020 13/11 A2999 RMK AO2 RAE2053B26 PRESRR CB VC NW MOV NE P0000=
200611112136 SPECI KATL 112136Z 28012G18KT 6SM -RA BR BKN009CB BKN015 OVC020 13/11 A2999 RMK AO2 RAE2053B26 PRESRR CB VC NW MOV NE P0000=
200611112117 SPECI KATL 112117Z 30012KT 9SM SCT006 BKN009 OVC018 14/12 A2996 RMK AO2 RAE2053 CB DSNT W MOV NE BKN 008V012=
200611112117 SPECI KATL 112117Z 30012KT 9SM SCT006 BKN009 OVC018 14/12 A2996 RMK AO2 RAE2053 CB DSNT W MOV NE BKN 008V012=
200611112106 SPECI KATL 112106Z 30018KT 8SM SCT006 BKN012 OVC017 14/11 A2996 RMK AO2 RAE2053 BINOVC SW-NW=
200611112106 SPECI KATL 112106Z 30018KT 8SM SCT006 BKN012 OVC017 14/11 A2996 RMK AO2 RAE2053 BINOVC SW-NW=
200611112052 METAR KATL 112052Z COR 31019G27KT 6SM -RA BKN008 OVC011 14/12 A2996 RMK AO2 PK WND 31027/2049 WSHFT 2031 RAB33 CIG 005V009 SLP141 SHRA DSNT E AND SE AND NW P0001 60001 T01440117 53002=
200611112047 SPECI KATL 112047Z 31023KT 3SM -RA BR BKN006 OVC012 15/13 A2995 RMK AO2 PK WND 32026/2047 WSHFT 2031 SFC VIS 5 RAB33 CIG 005V008 PRESRR P0001=
200611112047 SPECI KATL 112047Z 31023KT 3SM -RA BR BKN006 OVC012 15/13 A2995 RMK AO2 PK WND 32026/2047 WSHFT 2031 SFC VIS 5 RAB33 CIG 005V008 PRESRR P0001=
200611112038 SPECI KATL 112038Z 32018G21KT 3SM -RA BR SCT006 OVC011 17/14 A2994 RMK AO2 RAB33 P0001=
200611112038 SPECI KATL 112038Z 32018G21KT 3SM -RA BR SCT006 OVC011 17/14 A2994 RMK AO2 RAB33 P0001=
200611112006 SPECI KATL 112006Z 24008G16KT 3SM HZ OVC013 19/16 A2994 RMK AO2 SFC VIS 5=
200611112006 SPECI KATL 112006Z 24008G16KT 3SM HZ OVC013 19/16 A2994 RMK AO2 SFC VIS 5=
200611111952 METAR KATL 111952Z COR 24009KT 3SM HZ BKN009 OVC014 19/16 A2994 RMK AO2 SFC VIS 5 RAE1854B25E49 CIG 009V014 SLP134 P0000 T01940161=
200611111852 METAR KATL 111852Z 23008KT 5SM -RA OVC008 19/16 A2995 RMK AO2 RAB45 SLP138 P0000 T01890161=
200611111752 METAR KATL 111752Z 25010KT 6SM HZ OVC008 19/16 A2996 RMK AO2 SLP142 T01890161 10189 20139 58012=
200611111652 METAR KATL 111652Z 23011KT 7SM OVC009 19/16 A2998 RMK AO2 SLP149 CIG 008V014 T01890156=
200611111552 METAR KATL 111552Z 21008KT 3SM BR OVC005 18/16 A3000 RMK AO2 SFC VIS 5 SLP156 T01780156=
200611111533 SPECI KATL 111533Z 22008KT 1 1/2SM BR OVC005 17/16 A3000 RMK AO2 SFC VIS 4=
200611111533 SPECI KATL 111533Z 22008KT 1 1/2SM BR OVC005 17/16 A3000 RMK AO2 SFC VIS 4=
200611111452 METAR KATL 111452Z COR 22008KT 1 1/2SM BR OVC003 17/16 A3000 RMK AO2 SFC VIS 3 SLP155 TWRINC T01670156 58001=
200611111420 SPECI KATL 111420Z 22010KT 1 1/2SM BR OVC003 17/15 A3000 RMK AO2 SFC VIS 3 TWRINC=
200611111420 SPECI KATL 111420Z 22010KT 1 1/2SM BR OVC003 17/15 A3000 RMK AO2 SFC VIS 3 TWRINC=
200611111352 METAR KATL 111352Z 23010KT 1/2SM BR OVC001 16/15 A3000 RMK AO2 SFC VIS 1 3/4 SLP155 T01610150=
200611111307 SPECI KATL 111307Z 21008KT 1/4SM FG VV001 15/14 A3000 RMK AO2 TWR VIS 1/4 RVRNO=
200611111307 SPECI KATL 111307Z 21008KT 1/4SM FG VV001 15/14 A3000 RMK AO2 TWR VIS 1/4 RVRNO=
200611111252 METAR KATL 111252Z 21005KT 1/2SM BR OVC001 14/13 A3001 RMK AO2 SFC VIS 1 SLP157 T01440133 RVRNO=
200611111225 SPECI KATL 111225Z 22005KT 1/2SM BR BKN003 BKN010 14/13 A3001 RMK AO2 SFC VIS 2=
200611111225 SPECI KATL 111225Z 22005KT 1/2SM BR BKN003 BKN010 14/13 A3001 RMK AO2 SFC VIS 2=
200611111219 SPECI KATL 111219Z 21006KT 2 1/2SM BR BKN005 BKN010 14/13 A3001 RMK AO2 CIG 003V007=
200611111219 SPECI KATL 111219Z 21006KT 2 1/2SM BR BKN005 BKN010 14/13 A3001 RMK AO2 CIG 003V007=
200611111200 SPECI KATL 111200Z 21006KT 2 1/2SM BR FEW050 SCT200 14/13 A3000 RMK AO2 SFC VIS 3=
200611111200 SPECI KATL 111200Z 21006KT 2 1/2SM BR FEW050 SCT200 14/13 A3000 RMK AO2 SFC VIS 3=
200611111152 METAR KATL 111152Z 21006KT 6SM BR FEW050 SCT200 14/13 A3000 RMK AO2 SLP155 T01390128 10156 20139 50001=
200611111137 SPECI KATL 111137Z 23006KT 7SM FEW007 SCT200 14/13 A3000 RMK AO2=
200611111137 SPECI KATL 111137Z 23006KT 7SM FEW007 SCT200 14/13 A3000 RMK AO2=
200611111052 METAR KATL 111052Z 25006KT 6SM BR OVC008 14/13 A3001 RMK AO2 SLP157 T01440128=
200611111040 SPECI KATL 111040Z 22009KT 6SM BR BKN011 14/13 A3000 RMK AO2=
200611111040 SPECI KATL 111040Z 22009KT 6SM BR BKN011 14/13 A3000 RMK AO2=
200611110952 METAR KATL 110952Z 22006KT 8SM CLR 14/12 A3001 RMK AO2 SLP156 T01390117=
200611110852 METAR KATL 110852Z 21005KT 8SM CLR 14/12 A3000 RMK AO2 SLP152 T01440117 50002=
200611110752 METAR KATL 110752Z 25004KT 10SM CLR 14/12 A3001 RMK AO2 SLP154 T01390117=
200611110652 METAR KATL 110652Z 27007KT 10SM FEW250 14/12 A3001 RMK AO2 SLP157 T01440117=
200611110552 METAR KATL 110552Z 25005KT 10SM FEW250 15/12 A2999 RMK AO2 SLP150 T01500117 10206 20144 55006=
200611110452 METAR KATL 110452Z 00000KT 10SM FEW200 15/12 A2998 RMK AO2 SLP146 T01500117 402610117=
200611110352 METAR KATL 110352Z 00000KT 10SM FEW200 16/12 A3000 RMK AO2 SLP153 T01560117=
200611110252 METAR KATL 110252Z 21004KT 10SM FEW200 17/12 A3001 RMK AO2 SLP159 T01670117 51002=
200611110152 METAR KATL 110152Z 22004KT 10SM FEW200 SCT250 17/11 A3001 RMK AO2 SLP157 T01720111=
200611110052 METAR KATL 110052Z 24006KT 10SM BKN200 19/11 A3001 RMK AO2 SLP160 T01940106=
200611102352 METAR KATL 102352Z 23005KT 10SM BKN200 20/11 A3000 RMK AO2 SLP157 T02000106 10261 20200 53004=
200611102252 METAR KATL 102252Z 00000KT 10SM FEW150 BKN200 21/11 A2998 RMK AO2 SLP150 T02060106=
200611102152 METAR KATL 102152Z 21003KT 10SM FEW150 BKN200 BKN250 23/11 A2998 RMK AO2 SLP148 VIRGA DSNT NW T02330106=
200611102052 METAR KATL 102052Z 24007KT 10SM FEW180 BKN200 BKN250 24/08 A2999 RMK AO2 SLP151 VIRGA DSNT W T02440078 55005=
200611101952 METAR KATL 101952Z 25007KT 10SM FEW200 BKN250 26/08 A2999 RMK AO2 SLP149 T02560083=
200611101852 METAR KATL 101852Z 21005KT 10SM FEW200 BKN250 25/10 A2999 RMK AO2 SLP150 T02500100=
200611101752 METAR KATL 101752Z 25005KT 10SM FEW200 BKN250 24/12 A3001 RMK AO2 SLP156 T02440117 10244 20117 58011=
200611101652 METAR KATL 101652Z VRB04KT 10SM FEW200 SCT250 23/12 A3004 RMK AO2 SLP166 T02330117=
200611101552 SPECI KATL 101552Z 29006KT 10SM FEW200 BKN250 21/12 A3005 RMK AO2 SLP169 T02110122=
200611101452 METAR KATL 101452Z 30006KT 9SM FEW200 SCT250 19/13 A3004 RMK AO2 SLP168 T01890133 51019=
200611101352 METAR KATL 101352Z 28003KT 8SM FEW250 17/13 A3003 RMK AO2 SLP166 T01670128=
200611101252 METAR KATL 101252Z 30005KT 6SM BR FEW250 13/11 A3001 RMK AO2 SLP159 T01280111=
200611101152 METAR KATL 101152Z 31005KT 5SM BR CLR 12/10 A2998 RMK AO2 SLP151 T01170100 10150 20117 53012=
200611101052 METAR KATL 101052Z 31007KT 5SM BR CLR 12/11 A2997 RMK AO2 SLP144 T01220106=
200611100952 METAR KATL 100952Z 31005KT 7SM CLR 13/11 A2996 RMK AO2 SLP139 T01330111=
200611100852 METAR KATL 100852Z 30004KT 7SM CLR 13/11 A2995 RMK AO2 SLP136 T01330111 58003=
200611100752 METAR KATL 100752Z 29005KT 9SM CLR 14/11 A2996 RMK AO2 SLP139 T01440111=
200611100652 METAR KATL 100652Z 24003KT 8SM CLR 13/11 A2996 RMK AO2 SLP141 T01330111=
200611100552 METAR KATL 100552Z 24003KT 10SM CLR 13/11 A2996 RMK AO2 SLP140 T01330106 10194 20133 53005=
200611100452 METAR KATL 100452Z 29004KT 10SM CLR 14/11 A2995 RMK AO2 SLP136 T01440111 402390078=
200611100352 METAR KATL 100352Z 30004KT 10SM CLR 16/11 A2995 RMK AO2 SLP137 T01610111=
200611100252 METAR KATL 100252Z 31003KT 10SM CLR 17/11 A2994 RMK AO2 SLP136 T01720111 53017=
200611100152 METAR KATL 100152Z 23003KT 10SM CLR 17/12 A2992 RMK AO2 SLP130 T01670122=
200611100052 METAR KATL 100052Z 26003KT 10SM CLR 19/12 A2990 RMK AO2 SLP124 T01890122=
200611092352 METAR KATL 092352Z 00000KT 10SM CLR 19/13 A2989 RMK AO2 SLP120 T01890128 10239 20189 53014=
200611092252 METAR KATL 092252Z 30003KT 10SM CLR 22/12 A2987 RMK AO2 SLP113 T02170122=
200611092152 METAR KATL 092152Z 29006KT 10SM CLR 23/12 A2985 RMK AO2 SLP106 T02280122=
200611092052 METAR KATL 092052Z 27006KT 10SM CLR 24/12 A2985 RMK AO2 SLP103 T02390122 55008=
200611091952 METAR KATL 091952Z 33009KT 10SM CLR 23/12 A2984 RMK AO2 SLP102 T02330122=
200611091852 METAR KATL 091852Z 32008KT 10SM CLR 22/12 A2985 RMK AO2 SLP105 T02220117=
200611091752 METAR KATL 091752Z 30007KT 10SM CLR 21/12 A2987 RMK AO2 SLP112 T02110117 10211 20078 58004=
200611091652 METAR KATL 091652Z 32010KT 10SM CLR 19/11 A2988 RMK AO2 SLP115 T01940111=
200611091552 METAR KATL 091552Z 30007KT 270V330 9SM CLR 17/10 A2989 RMK AO2 SLP119 T01720100=
200611091452 METAR KATL 091452Z 31008KT 9SM CLR 14/09 A2988 RMK AO2 SLP118 T01390089 50013=
200611091352 METAR KATL 091352Z 30007KT 7SM CLR 11/08 A2988 RMK AO2 SLP120 T01110078=
200611091252 METAR KATL 091252Z 30006KT 6SM BR CLR 09/07 A2987 RMK AO2 SLP114 T00890067=
200611091152 METAR KATL 091152Z 30007KT 4SM BR CLR 08/06 A2984 RMK AO2 SLP106 T00780061 10100 20078 53018=
200611091052 METAR KATL 091052Z 29006KT 5SM BR CLR 08/06 A2983 RMK AO2 SLP100 T00780061=
200611090952 METAR KATL 090952Z 28006KT 5SM BR CLR 08/07 A2980 RMK AO2 SLP091 T00780067=
200611090852 METAR KATL 090852Z 29007KT 6SM BR CLR 09/07 A2979 RMK AO2 SLP086 T00890067 53005=
200611090752 METAR KATL 090752Z 29007KT 7SM CLR 09/07 A2978 RMK AO2 SLP085 T00890067=
200611090652 METAR KATL 090652Z 30008KT 8SM CLR 09/07 A2978 RMK AO2 SLP083 T00940072=
200611090552 METAR KATL 090552Z 29008KT 10SM CLR 10/07 A2977 RMK AO2 SLP082 T01000072 10128 20094 51002=
200611090452 METAR KATL 090452Z 31007KT 10SM CLR 10/07 A2976 RMK AO2 SLP079 T01000072 401500100=
200611090352 METAR KATL 090352Z 31006KT 10SM CLR 11/08 A2977 RMK AO2 SLP082 T01060078=
200611090252 METAR KATL 090252Z 29011KT 10SM FEW022 12/08 A2977 RMK AO2 SLP079 T01170083 51006=
200611090219 SPECI KATL 090219Z 31015KT 10SM SCT022 12/08 A2976 RMK AO2=
200611090219 SPECI KATL 090219Z 31015KT 10SM SCT022 12/08 A2976 RMK AO2=
200611090152 METAR KATL 090152Z 31013KT 10SM FEW020 BKN025 12/08 A2976 RMK AO2 SLP077 T01220083=
200611090052 METAR KATL 090052Z 30012KT 10SM OVC024 13/09 A2976 RMK AO2 SLP076 T01280089=
200611082352 METAR KATL 082352Z 30012KT 10SM OVC028 13/09 A2975 RMK AO2 SLP073 T01280089 10150 20128 51016=
200611082252 METAR KATL 082252Z 28013KT 10SM FEW020 OVC028 13/09 A2974 RMK AO2 SLP068 T01330089=
200611082152 METAR KATL 082152Z 28013G17KT 10SM FEW020 BKN027 BKN030 14/09 A2971 RMK AO2 SLP061 T01390094=
200611082052 METAR KATL 082052Z 29011KT 10SM FEW020 BKN025 BKN030 15/09 A2970 RMK AO2 SLP055 T01500094 55008=
200611081952 METAR KATL 081952Z 28013KT 10SM FEW015 BKN019 OVC024 14/10 A2969 RMK AO2 SLP053 T01440100=
200611081915 SPECI KATL 081915Z 28013KT 10SM OVC015 14/11 A2969 RMK AO2=
200611081915 SPECI KATL 081915Z 28013KT 10SM OVC015 14/11 A2969 RMK AO2=
200611081852 METAR KATL 081852Z 29011KT 10SM OVC013 13/11 A2970 RMK AO2 SLP057 T01330106=
200611081834 SPECI KATL 081834Z 28012G17KT 9SM OVC013 13/11 A2971 RMK AO2=
200611081834 SPECI KATL 081834Z 28012G17KT 9SM OVC013 13/11 A2971 RMK AO2=
200611081827 SPECI KATL 081827Z 28012KT 2 1/2SM OVC013 13/11 A2970 RMK AO2 SFC VIS 7 TWRINC=
200611081827 SPECI KATL 081827Z 28012KT 2 1/2SM OVC013 13/11 A2970 RMK AO2 SFC VIS 7 TWRINC=
200611081808 SPECI KATL 081808Z COR 28011KT 2 1/2SM OVC011 13/11 A2971 RMK AO2 SFC VIS 7 TWRINC=
200611081808 SPECI KATL 081808Z 28011KT 2 1/2SM OVC011 13/11 A2971 RMK AO2 SFC VIS 8=
200611081752 METAR KATL 081752Z 30011KT 2 1/2SM BR OVC009 13/11 A2973 RMK AO2 SFC VIS 6 CIG 006V013 SLP066 T01280106 10128 20111 58001=
200611081652 METAR KATL 081652Z 28011KT 2 1/2SM BR OVC007 12/10 A2973 RMK AO2 SFC VIS 6 SLP067 T01220100=
200611081552 METAR KATL 081552Z 28012G18KT 10SM BKN009 OVC011 12/10 A2974 RMK AO2 SLP069 T01220100=
200611081452 METAR KATL 081452Z 29011KT 10SM BKN009 BKN014 OVC024 12/10 A2973 RMK AO2 SLP066 BINOVC NW T01220100 51003=
200611081448 SPECI KATL 081448Z 28009KT 10SM BKN009 BKN014 OVC024 12/10 A2973 RMK AO2 BINOVC NW=
200611081448 SPECI KATL 081448Z 28009KT 10SM BKN009 BKN014 OVC024 12/10 A2973 RMK AO2 BINOVC NW=
200611081435 SPECI KATL 081435Z 29009KT 10SM BKN012 BKN016 OVC022 12/09 A2973 RMK AO2=
200611081435 SPECI KATL 081435Z 29009KT 10SM BKN012 BKN016 OVC022 12/09 A2973 RMK AO2=
200611081352 METAR KATL 081352Z 28009KT 10SM SCT015 OVC020 12/09 A2972 RMK AO2 SLP064 T01170094=
200611081345 SPECI KATL 081345Z 29010KT 10SM SCT012 OVC020 12/09 A2973 RMK AO2=
200611081345 SPECI KATL 081345Z 29010KT 10SM SCT012 OVC020 12/09 A2973 RMK AO2=
200611081252 METAR KATL 081252Z 29011KT 9SM OVC012 11/09 A2972 RMK AO2 SLP062 T01110089=
200611081232 SPECI KATL 081232Z 29010KT 10SM OVC014 11/09 A2971 RMK AO2=
200611081232 SPECI KATL 081232Z 29010KT 10SM OVC014 11/09 A2971 RMK AO2=
200611081152 METAR KATL 081152Z 27011KT 10SM SCT012 OVC018 11/09 A2970 RMK AO2 SLP056 70061 T01110089 10111 20106 53003=
200611081052 METAR KATL 081052Z 27008KT 9SM OVC012 11/09 A2969 RMK AO2 SLP052 T01060089=
200611081047 SPECI KATL 081047Z 27008KT 9SM OVC012 11/09 A2969 RMK AO2=
200611081047 SPECI KATL 081047Z 27008KT 9SM OVC012 11/09 A2969 RMK AO2=
200611081040 SPECI KATL 081040Z 27008KT 9SM FEW009 OVC015 11/09 A2968 RMK AO2=
200611081040 SPECI KATL 081040Z 27008KT 9SM FEW009 OVC015 11/09 A2968 RMK AO2=
200611080952 METAR KATL 080952Z 30011KT 9SM OVC009 11/09 A2969 RMK AO2 CIG 007V011 SLP053 T01110089=
200611080852 METAR KATL 080852Z 30010KT 8SM OVC007 11/09 A2969 RMK AO2 CIG 005V010 SLP051 T01110089 56010=
200611080752 METAR KATL 080752Z 27007KT 9SM BKN007 BKN012 OVC032 11/09 A2970 RMK AO2 SLP056 T01060094=
200611080720 SPECI KATL 080720Z 26008KT 9SM FEW007 OVC012 11/09 A2970 RMK AO2=
200611080720 SPECI KATL 080720Z 26008KT 9SM FEW007 OVC012 11/09 A2970 RMK AO2=
200611080652 METAR KATL 080652Z 26007KT 10SM OVC012 11/09 A2970 RMK AO2 SLP056 T01110094=
200611080600 SPECI KATL 080600Z 28007KT 10SM BKN014 BKN032 BKN090 11/09 A2971 RMK AO2=
200611080600 SPECI KATL 080600Z 28007KT 10SM BKN014 BKN032 BKN090 11/09 A2971 RMK AO2=
200611080552 METAR KATL 080552Z 27008KT 10SM SCT012 BKN030 OVC090 11/09 A2972 RMK AO2 SLP063 60000 T01060094 10139 20106 58016=
200611080548 SPECI KATL 080548Z 28007KT 10SM SCT012 BKN030 OVC090 11/09 A2972 RMK AO2=
200611080548 SPECI KATL 080548Z 28007KT 10SM SCT012 BKN030 OVC090 11/09 A2972 RMK AO2=
200611080539 SPECI KATL 080539Z 27008KT 10SM BKN012 BKN050 BKN090 11/09 A2973 RMK AO2=
200611080539 SPECI KATL 080539Z 27008KT 10SM BKN012 BKN050 BKN090 11/09 A2973 RMK AO2=
200611080515 SPECI KATL 080515Z 27008KT 10SM SCT008 OVC055 11/09 A2973 RMK AO2=
200611080515 SPECI KATL 080515Z 27008KT 10SM SCT008 OVC055 11/09 A2973 RMK AO2=
200611080508 SPECI KATL 080508Z 26007KT 10SM BKN008 OVC055 12/10 A2973 RMK AO2=
200611080508 SPECI KATL 080508Z 26007KT 10SM BKN008 OVC055 12/10 A2973 RMK AO2=
200611080452 METAR KATL 080452Z 26008KT 10SM FEW007 OVC055 12/10 A2974=
200611080426 SPECI KATL 080426Z 27007KT 10SM FEW007 SCT025 OVC055 12/11 A2974 RMK AO2 RAE08 P0000=
200611080426 SPECI KATL 080426Z 27007KT 10SM FEW007 SCT025 OVC055 12/11 A2974 RMK AO2 RAE08 P0000=
200611080408 SPECI KATL 080408Z 27006KT 10SM SCT007 BKN020 OVC050 13/11 A2975 RMK AO2 RAE08 P0000=
200611080408 SPECI KATL 080408Z 27006KT 10SM SCT007 BKN020 OVC050 13/11 A2975 RMK AO2 RAE08 P0000=
200611080352 METAR KATL 080352Z 25008KT 3SM -RA BR BKN007 BKN015 OVC035 13/12 A2975 RMK AO2 SFC VIS 6 RAB49 SLP075 CIG 005V010 P0000 T01280117=
200611080350 SPECI KATL 080350Z 26006KT 3SM -RA BR BKN007 BKN015 OVC035 13/12 A2975 RMK AO2 SFC VIS 6 RAB49 CIG 005V010 P0000=
200611080350 SPECI KATL 080350Z 26006KT 3SM -RA BR BKN007 BKN015 OVC035 13/12 A2975 RMK AO2 SFC VIS 6 RAB49 CIG 005V010 P0000=
200611080252 METAR KATL 080252Z 00000KT 3SM SCT006 BKN020 OVC045 13/12 A2977 RMK AO2 SFC VIS 7 SLP079 BINOVC T01280117 56002=
200611080224 SPECI KATL 080224Z VRB05KT 3SM SCT003 BKN014 OVC035 14/12 A2977 RMK AO2 SFC VIS 7 BINOVC=
200611080224 SPECI KATL 080224Z VRB05KT 3SM SCT003 BKN014 OVC035 14/12 A2977 RMK AO2 SFC VIS 7 BINOVC=
200611080152 METAR KATL 080152Z 00000KT 3SM BR BKN005 BKN015 OVC030 13/12 A2977=
200611080150 SPECI KATL 080150Z 25003KT 3SM BR BKN005 BKN015 OVC030 13/12 A2977 RMK AO2 SFC VIS 4 CIG 003V008 BINOVC=
200611080150 SPECI KATL 080150Z 25003KT 3SM BR BKN005 BKN015 OVC030 13/12 A2977 RMK AO2 SFC VIS 4 CIG 003V008 BINOVC=
200611080106 SPECI KATL 080106Z 00000KT 1SM BR OVC004 13/12 A2977 RMK AO2 SFC VIS 5 CIG 003V007=
200611080106 SPECI KATL 080106Z 00000KT 1SM BR OVC004 13/12 A2977 RMK AO2 SFC VIS 5 CIG 003V007=
200611080052 METAR KATL 080052Z 00000KT 3SM BR OVC005 13/12 A2977=
200611080036 SPECI KATL 080036Z 00000KT 1 1/2SM BR OVC004 13/12 A2977 RMK AO2 SFC VIS 6 CIG 003V008=
200611080036 SPECI KATL 080036Z 00000KT 1 1/2SM BR OVC004 13/12 A2977 RMK AO2 SFC VIS 6 CIG 003V008=
200611072352 METAR KATL 072352Z 00000KT 6SM BR OVC005 13/12 A2977=
200611072252 METAR KATL 072252Z 00000KT 9SM -DZ BKN005 OVC015 13/12 A2978=
200611072227 SPECI KATL 072227Z 00000KT 8SM -DZ BKN005 BKN015 OVC030 13/12 A2977 RMK AO2 DZB27 P0000=
200611072227 SPECI KATL 072227Z 00000KT 8SM -DZ BKN005 BKN015 OVC030 13/12 A2977 RMK AO2 DZB27 P0000=
200611072218 SPECI KATL 072218Z 15003KT 8SM SCT005 BKN015 OVC030 13/12 A2977 RMK AO2=
200611072218 SPECI KATL 072218Z 15003KT 8SM SCT005 BKN015 OVC030 13/12 A2977 RMK AO2=
200611072152 METAR KATL 072152Z 00000KT 3SM BR BKN005 BKN019 OVC080 13/12 A2978=
200611072119 SPECI KATL 072119Z 13003KT 3SM -RA BR BKN005 BKN023 OVC080 13/12 A2979 RMK AO2 SFC VIS 5 P0002=
200611072119 SPECI KATL 072119Z 13003KT 3SM -RA BR BKN005 BKN023 OVC080 13/12 A2979 RMK AO2 SFC VIS 5 P0002=
200611072109 SPECI KATL 072109Z 15004KT 3SM -RA BR FEW005 BKN025 OVC080 13/12 A2979 RMK AO2 SFC VIS 6 P0001=
200611072109 SPECI KATL 072109Z 15004KT 3SM -RA BR FEW005 BKN025 OVC080 13/12 A2979 RMK AO2 SFC VIS 6 P0001=
200611072103 SPECI KATL 072103Z 09006KT 2SM -RA BR FEW005 BKN055 OVC080 13/12 A2978 RMK AO2 SFC VIS 4 P0001=
200611072103 SPECI KATL 072103Z 09006KT 2SM -RA BR FEW005 BKN055 OVC080 13/12 A2978 RMK AO2 SFC VIS 4 P0001=
200611072052 METAR KATL 072052Z 06007KT 2SM -RA BR FEW005 BKN025 OVC090 13/12 A2979=
200611072032 SPECI KATL 072032Z 08008KT 3SM -RA BR FEW005 BKN023 OVC090 13/12 A2979 RMK AO2 SFC VIS 6 P0004=
200611072032 SPECI KATL 072032Z 08008KT 3SM -RA BR FEW005 BKN023 OVC090 13/12 A2979 RMK AO2 SFC VIS 6 P0004=
200611071952 METAR KATL 071952Z 10007KT 2 1/2SM -RA BR SCT003 BKN023 OVC080 13/12 A2981=
200611071930 SPECI KATL 071930Z 10004KT 2 1/2SM RA BR SCT003 BKN023 OVC075 13/12 A2982 RMK AO2 SFC VIS 5 P0006=
200611071930 SPECI KATL 071930Z 10004KT 2 1/2SM RA BR SCT003 BKN023 OVC075 13/12 A2982 RMK AO2 SFC VIS 5 P0006=
200611071914 SPECI KATL 071914Z 06008KT 2 1/2SM -RA BR FEW003 SCT023 OVC070 13/12 A2981 RMK AO2 SFC VIS 5 P0004=
200611071914 SPECI KATL 071914Z 06008KT 2 1/2SM -RA BR FEW003 SCT023 OVC070 13/12 A2981 RMK AO2 SFC VIS 5 P0004=
200611071903 SPECI KATL 071903Z 07009KT 2 1/2SM RA BR FEW003 BKN023 OVC065 13/11 A2982 RMK AO2 SFC VIS 4 P0003=
200611071903 SPECI KATL 071903Z 07009KT 2 1/2SM RA BR FEW003 BKN023 OVC065 13/11 A2982 RMK AO2 SFC VIS 4 P0003=
200611071855 SPECI KATL 071855Z 10005KT 2 1/2SM RA BR FEW003 SCT024 OVC065 13/11 A2984 RMK AO2 SFC VIS 3 P0000=
200611071855 SPECI KATL 071855Z 10005KT 2 1/2SM RA BR FEW003 SCT024 OVC065 13/11 A2984 RMK AO2 SFC VIS 3 P0000=
200611071852 METAR KATL 071852Z 10007KT 2 1/2SM RA BR SCT028 OVC065 13/11 A2984=
200611071823 SPECI KATL 071823Z 08008KT 1SM RA BR FEW005 BKN024 OVC060 13/11 A2984 RMK AO2 SFC VIS 3 P0020=
200611071823 SPECI KATL 071823Z 08008KT 1SM RA BR FEW005 BKN024 OVC060 13/11 A2984 RMK AO2 SFC VIS 3 P0020=
200611071813 SPECI KATL 071813Z 09007KT 1SM RA BR BKN003 BKN026 OVC050 13/11 A2985 RMK AO2 SFC VIS 3 P0018=
200611071813 SPECI KATL 071813Z 09007KT 1SM RA BR BKN003 BKN026 OVC050 13/11 A2985 RMK AO2 SFC VIS 3 P0018=
200611071809 SPECI KATL 071809Z 06005KT 1SM RA BR BKN003 BKN017 BKN030 12/11 A2985 RMK AO2 SFC VIS 2 P0017=
200611071809 SPECI KATL 071809Z 06005KT 1SM RA BR BKN003 BKN017 BKN030 12/11 A2985 RMK AO2 SFC VIS 2 P0017=
200611071752 METAR KATL 071752Z VRB05KT 1/8SM +RA BR BKN002 OVC003 12/11 A2986 RMK AO2 SFC VIS 1 RAB21 SLP113 TWRINC P0010 60015 T01220111 10122 20100 56026 RVRNO=
200611071732 SPECI KATL 071732Z 08005KT 1/8SM RA BR BKN002 OVC003 12/11 A2986 RMK AO2 SFC VIS 3/4 RAB21 TWRINC P0000 RVRNO=
200611071732 SPECI KATL 071732Z 08005KT 1/8SM RA BR BKN002 OVC003 12/11 A2986 RMK AO2 SFC VIS 3/4 RAB21 TWRINC P0000 RVRNO=
200611071713 SPECI KATL 071713Z 10003KT 1/8SM BR BKN002 OVC003 12/11 A2987 RMK AO2 SFC VIS 1 TWRINC RVRNO=
200611071713 SPECI KATL 071713Z 10003KT 1/8SM BR BKN002 OVC003 12/11 A2987 RMK AO2 SFC VIS 1 TWRINC RVRNO=
200611071652 METAR KATL 071652Z 09008KT 1/2SM BR SCT002 BKN003 OVC005 12/11 A2989 RMK AO2 SFC VIS 1 3/4 RAB04E15 SLP120 P0000 T01170111=
200611071601 SPECI KATL 071601Z 09007KT 1/2SM BR FEW002 BKN003 OVC005 12/11 A2991 RMK AO2 SFC VIS 3=
200611071601 SPECI KATL 071601Z 09007KT 1/2SM BR FEW002 BKN003 OVC005 12/11 A2991 RMK AO2 SFC VIS 3=
200611071552 METAR KATL 071552Z 10009KT 1/2SM BR FEW002 BKN005 OVC007 12/11 A2991 RMK AO2 SFC VIS 3 DZE01RAB01E48 SLP128 P0005 T01170106=
200611071523 SPECI KATL 071523Z 11009KT 1SM -RA BR FEW002 BKN005 OVC007 12/11 A2993 RMK AO2 SFC VIS 3 DZE01RAB01 P0005=
200611071523 SPECI KATL 071523Z 11009KT 1SM -RA BR FEW002 BKN005 OVC007 12/11 A2993 RMK AO2 SFC VIS 3 DZE01RAB01 P0005=
200611071521 SPECI KATL 071521Z 12007KT 1SM -RA BR FEW002 BKN003 OVC007 12/11 A2993 RMK AO2 SFC VIS 3 DZE01RAB01 TWRINC P0005=
200611071521 SPECI KATL 071521Z 12007KT 1SM -RA BR FEW002 BKN003 OVC007 12/11 A2993 RMK AO2 SFC VIS 3 DZE01RAB01 TWRINC P0005=
200611071511 SPECI KATL 071511Z 11006KT 1/8SM -RA FG FEW002 BKN003 OVC005 11/11 A2994 RMK AO2 SFC VIS 1/2 DZE01RAB01 TWRINC P0004 RVRNO=
200611071511 SPECI KATL 071511Z 11006KT 1/8SM -RA FG FEW002 BKN003 OVC005 11/11 A2994 RMK AO2 SFC VIS 1/2 DZE01RAB01 TWRINC P0004 RVRNO=
200611071452 METAR KATL 071452Z 12007KT 1/8SM -DZ BR SCT002 BKN003 OVC004 11/11 A2994 RMK AO2 SFC VIS 2 RAE1356B15E34DZB48 SLP140 TWRINC P0000 60000 T01110106 58015=
200611071352 METAR KATL 071352Z 10009KT 1/8SM -RA FG VV001 11/10 A2997 RMK AO2 SFC VIS 1/4 RAB42 SLP149 P0000 T01060100 RVRNO=
200611071252 METAR KATL 071252Z 10012KT 1/8SM FG VV001 10/09 A2998 RMK AO2 SFC VIS 1/4 SLP152 T01000094 RVRNO=
200611071246 SPECI KATL 071246Z 10011KT 1/8SM FG VV001 10/09 A2999 RMK AO2 SFC VIS 1/4 RVRNO=
200611071246 SPECI KATL 071246Z 10011KT 1/8SM FG VV001 10/09 A2999 RMK AO2 SFC VIS 1/4 RVRNO=
200611071233 SPECI KATL 071233Z 10009KT 1/8SM FG OVC002 10/09 A2998 RMK AO2 SFC VIS 1/2 RVRNO=
200611071233 SPECI KATL 071233Z 10009KT 1/8SM FG OVC002 10/09 A2998 RMK AO2 SFC VIS 1/2 RVRNO=
200611071152 METAR KATL 071152Z 09007KT 1/2SM BR OVC002 10/09 A2997 RMK AO2 SFC VIS 3 SLP151 TWRINC 60011 70017 T01000089 10100 20089 56016=
200611071056 SPECI KATL 071056Z 08011KT 1 1/2SM BR OVC004 09/08 A2998 RMK AO2 SFC VIS 4=
200611071056 SPECI KATL 071056Z 08011KT 1 1/2SM BR OVC004 09/08 A2998 RMK AO2 SFC VIS 4=
200611071052 METAR KATL 071052Z 08011KT 4SM BR OVC004 09/08 A2998 RMK AO2 RAB0958E23 SLP153 P0000 T00940078=
200611071035 SPECI KATL 071035Z 09010KT 4SM BR OVC004 09/08 A3000 RMK AO2 RAB0958E23 P0000=
200611071035 SPECI KATL 071035Z 09010KT 4SM BR OVC004 09/08 A3000 RMK AO2 RAB0958E23 P0000=
200611070952 METAR KATL 070952Z 09010KT 7SM OVC008 09/07 A3001 RMK AO2 RAE31 CIG 006V012 SLP162 P0001 T00890072=
200611070943 SPECI KATL 070943Z 09008KT 7SM BKN008 OVC012 09/07 A3002 RMK AO2 RAE31 CIG 006V010 P0001=
200611070943 SPECI KATL 070943Z 09008KT 7SM BKN008 OVC012 09/07 A3002 RMK AO2 RAE31 CIG 006V010 P0001=
200611070852 METAR KATL 070852Z 09016G20KT 8SM -RA BKN014 BKN050 OVC100 09/07 A3002 RMK AO2 SLP166 P0004 60010 T00890067 58035=
200611070752 METAR KATL 070752Z 08013KT 7SM -RA BKN018 BKN035 OVC080 09/06 A3007 RMK AO2 SLP182 P0006 T00890061=
200611070652 METAR KATL 070652Z 08009KT 10SM -RA BKN020 BKN060 OVC080 09/06 A3011 RMK AO2 SLP193 P0000 T00940061=
200611070644 SPECI KATL 070644Z 07016KT 10SM -RA FEW010 SCT020 OVC060 09/06 A3010 RMK AO2 P0000=
200611070644 SPECI KATL 070644Z 07016KT 10SM -RA FEW010 SCT020 OVC060 09/06 A3010 RMK AO2 P0000=
200611070552 METAR KATL 070552Z 07010KT 10SM -RA BKN025 BKN040 OVC090 10/06 A3013 RMK AO2 RAB0455 SLP202 P0006 60006 T01000056 10122 20100 50001=
200611070540 SPECI KATL 070540Z 07012KT 8SM -RA BKN025 BKN040 OVC090 10/06 A3013 RMK AO2 RAB0455 P0005=
200611070540 SPECI KATL 070540Z 07012KT 8SM -RA BKN025 BKN040 OVC090 10/06 A3013 RMK AO2 RAB0455 P0005=
200611070452 METAR KATL 070452Z 10008KT 10SM BKN038 BKN065 OVC120 12/02 A3016 RMK AO2 RAB39E49 SLP213 P0000 T01170022 401780089=
200611070352 METAR KATL 070352Z 09010KT 10SM BKN035 OVC050 12/02 A3014 RMK AO2 SLP207 T01170017=
200611070252 METAR KATL 070252Z 09015KT 10SM SCT032 BKN040 BKN150 OVC200 12/01 A3013 RMK AO2 SLP202 T01170011 55007=
200611070152 METAR KATL 070152Z 09014KT 10SM BKN030 BKN065 OVC250 12/02 A3013 RMK AO2 SLP202 T01170022=
200611070052 METAR KATL 070052Z 09013KT 10SM SCT060 BKN200 OVC250 12/03 A3014 RMK AO2 SLP207 T01170028=
200611062352 METAR KATL 062352Z 08015KT 10SM FEW150 BKN200 BKN250 12/02 A3015 RMK AO2 SLP210 T01220022 10178 20122 56011=
200611062252 METAR KATL 062252Z 08015KT 10SM FEW050 BKN200 BKN250 14/02 A3016 RMK AO2 SLP213 T01390022=
200611062152 METAR KATL 062152Z 08013KT 10SM FEW050 SCT100 BKN200 15/02 A3017 RMK AO2 SLP215 T01500022=
200611062052 METAR KATL 062052Z 08015KT 10SM FEW050 SCT100 BKN200 16/02 A3018 RMK AO2 SLP221 T01610022 56020=
200611061952 METAR KATL 061952Z 10015KT 10SM SCT035 SCT100 BKN200 18/03 A3020 RMK AO2 SLP225 T01780028=
200611061920 SPECI KATL 061920Z 09011KT 10SM FEW035 SCT100 BKN200 17/02 A3020 RMK AO2=
200611061920 SPECI KATL 061920Z 09011KT 10SM FEW035 SCT100 BKN200 17/02 A3020 RMK AO2=
200611061852 METAR KATL 061852Z 11012G18KT 10SM BKN032 BKN200 17/02 A3022 RMK AO2 SLP231 T01720017=
200611061752 METAR KATL 061752Z 11011KT 10SM FEW035 SCT150 BKN200 16/M01 A3024 RMK AO2 SLP242 T01611006 10167 20089 58033=
200611061652 METAR KATL 061652Z 09013G17KT 10SM FEW040 BKN150 BKN200 15/M01 A3029 RMK AO2 SLP259 T01501011=
200611061552 METAR KATL 061552Z 09014KT 10SM FEW030 SCT040 BKN200 14/M02 A3033 RMK AO2 SLP271 T01391017=
200611061452 METAR KATL 061452Z 09014KT 10SM BKN034 BKN043 13/M02 A3034 RMK AO2 SLP276 T01281017 50002=
200611061352 METAR KATL 061352Z 09012KT 10SM SCT037 BKN200 11/M02 A3036 RMK AO2 SLP281 T01061017=
200611061252 METAR KATL 061252Z 09012KT 10SM SCT039 BKN075 BKN200 09/M02 A3035 RMK AO2 SLP277 T00941017=
200611061152 METAR KATL 061152Z 08010KT 10SM SCT039 SCT047 BKN075 09/M02 A3034 RMK AO2 SLP275 T00891017 10100 20089 53002=
200611061052 METAR KATL 061052Z 08011KT 10SM BKN041 BKN055 09/M02 A3033 RMK AO2 SLP273 T00891017=
200611060952 METAR KATL 060952Z 07013KT 10SM BKN037 OVC050 09/M02 A3033 RMK AO2 SLP271 T00941017=
200611060852 METAR KATL 060852Z 08010KT 10SM OVC033 09/M01 A3033 RMK AO2 SLP271 T00941011 58005=
200611060752 METAR KATL 060752Z 07012KT 10SM BKN035 09/M01 A3034 RMK AO2 SLP274 T00941011=
200611060652 METAR KATL 060652Z 08009KT 10SM BKN037 09/M01 A3034 RMK AO2 SLP276 T00941006=
200611060552 METAR KATL 060552Z 08008KT 10SM BKN039 09/00 A3035 RMK AO2 SLP277 T00890000 10128 20089 58006=
200611060452 METAR KATL 060452Z 08008KT 10SM BKN035 09/00 A3036 RMK AO2 SLP282 T00940000 401500017=
200611060352 METAR KATL 060352Z 08009KT 10SM FEW035 09/00 A3036 RMK AO2 SLP284 T00890000=
200611060252 METAR KATL 060252Z 09009KT 10SM SCT039 10/00 A3036 RMK AO2 SLP285 T01000000 51003=
200611060152 METAR KATL 060152Z 10006KT 10SM SCT037 11/00 A3036 RMK AO2 SLP286 T01110000=
200611060052 METAR KATL 060052Z 11008KT 10SM BKN037 BKN070 12/M01 A3036 RMK AO2 SLP284 T01221006=
200611052352 METAR KATL 052352Z 08010KT 10SM FEW028 BKN037 BKN070 13/00 A3035 RMK AO2 SLP283 T01280000 10150 20122 53007=
200611052327 SPECI KATL 052327Z 08009KT 10SM SCT028 BKN037 BKN070 13/01 A3035 RMK AO2=
200611052327 SPECI KATL 052327Z 08009KT 10SM SCT028 BKN037 BKN070 13/01 A3035 RMK AO2=
200611052252 METAR KATL 052252Z 10007KT 10SM OVC028 14/01 A3034 RMK AO2 SLP277 CIG 028V030 T01390006=
200611052156 SPECI KATL 052156Z 10007KT 10SM BKN028 14/01 A3033 RMK AO2 BKN V SCT CIGNO=
200611052156 SPECI KATL 052156Z 10007KT 10SM BKN028 14/01 A3033 RMK AO2 BKN V SCT CIGNO=
200611052152 METAR KATL 052152Z 07009KT 10SM SCT026 BKN032 14/01 A3033 RMK AO2 SLP274 T01390006=
200611052052 METAR KATL 052052Z 05006KT 10SM BKN030 BKN250 14/00 A3033 RMK AO2 SLP274 T01440000 56024=
200611051952 METAR KATL 051952Z 06008KT 10SM FEW031 SCT120 SCT250 14/M01 A3034 RMK AO2 SLP279 T01391011=
200611051852 METAR KATL 051852Z 07008KT 10SM FEW030 SCT250 14/M02 A3037 RMK AO2 SLP287 T01391017=
200611051825 SPECI KATL 051825Z 07009KT 10SM SCT024 SCT250 13/M03 A3038 RMK AO2=
200611051825 SPECI KATL 051825Z 07009KT 10SM SCT024 SCT250 13/M03 A3038 RMK AO2=
200611051752 METAR KATL 051752Z 11008KT 10SM OVC024 12/M04 A3040 RMK AO2 SLP300 T01221039 10122 20017 58025=
200611051652 METAR KATL 051652Z 09009KT 10SM OVC026 11/M03 A3044 RMK AO2 SLP313 BINOVC T01111033=
200611051552 METAR KATL 051552Z 09013KT 10SM BKN026 BKN250 09/M06 A3047 RMK AO2 SLP321 BKN026 V SCT T00941056=
200611051536 SPECI KATL 051536Z 09012KT 10SM BKN026 BKN150 BKN250 09/M04 A3047 RMK AO2=
200611051536 SPECI KATL 051536Z 09012KT 10SM BKN026 BKN150 BKN250 09/M04 A3047 RMK AO2=
200611051452 METAR KATL 051452Z 09010KT 10SM FEW180 SCT250 07/M04 A3048 RMK AO2 SLP327 T00721039 51014=
200611051352 METAR KATL 051352Z 08009KT 10SM FEW250 04/M03 A3048 RMK AO2 SLP326 T00441033=
200611051252 METAR KATL 051252Z 09008KT 10SM FEW180 SCT250 02/M04 A3045 RMK AO2 SLP318 T00221039=
200611051152 METAR KATL 051152Z 08008KT 10SM SCT250 02/M04 A3044 RMK AO2 SLP313 T00171039 10039 20017 53006=
200611051052 METAR KATL 051052Z 07009KT 10SM FEW250 03/M04 A3043 RMK AO2 SLP308 T00281039=
200611050952 METAR KATL 050952Z 06009KT 10SM FEW250 03/M04 A3043 RMK AO2 SLP309 T00281039=
200611050852 METAR KATL 050852Z 07010KT 10SM CLR 03/M04 A3042 RMK AO2 SLP305 T00331039 58006=
200611050752 METAR KATL 050752Z 07009KT 10SM CLR 03/M04 A3043 RMK AO2 SLP308 T00331039=
200611050652 METAR KATL 050652Z 07009KT 10SM FEW250 04/M04 A3043 RMK AO2 SLP309 T00391039=
200611050552 METAR KATL 050552Z 08008KT 10SM FEW250 03/M04 A3044 RMK AO2 SLP313 T00331039 10089 20033 58001=
200611050452 METAR KATL 050452Z 09007KT 10SM FEW250 04/M04 A3044 RMK AO2 SLP312 T00391039 401330011=
200611050352 METAR KATL 050352Z 09007KT 10SM CLR 04/M04 A3045 RMK AO2 SLP315 T00441039=
200611050252 METAR KATL 050252Z 08008KT 10SM CLR 06/M04 A3044 RMK AO2 SLP315 T00561039 53007=
200611050152 METAR KATL 050152Z 08008KT 10SM CLR 07/M04 A3043 RMK AO2 SLP309 T00671039=
200611050052 METAR KATL 050052Z 08009KT 10SM FEW250 08/M04 A3042 RMK AO2 SLP305 T00831044=
200611042352 METAR KATL 042352Z 09006KT 10SM FEW250 09/M06 A3042 RMK AO2 SLP308 T00891056 10133 20089 53006=
200611042252 METAR KATL 042252Z 11008KT 10SM SCT250 11/M07 A3040 RMK AO2 SLP301 T01111067=
200611042152 METAR KATL 042152Z 10007KT 10SM FEW150 SCT200 SCT250 12/M07 A3041 RMK AO2 SLP301 T01221067=
200611042052 METAR KATL 042052Z 08009KT 10SM FEW150 SCT200 BKN250 13/M06 A3040 RMK AO2 SLP299 T01331061 56016=
200611041952 METAR KATL 041952Z 07007KT 10SM FEW150 SCT200 BKN250 13/M06 A3041 RMK AO2 SLP300 T01331061=
200611041852 METAR KATL 041852Z 13007KT 10SM BKN250 13/M07 A3042 RMK AO2 SLP305 T01281072=
200611041752 METAR KATL 041752Z VRB05KT 10SM BKN250 12/M08 A3045 RMK AO2 SLP317 T01171078 10122 20011 58014=
200611041652 METAR KATL 041652Z 08008KT 10SM FEW250 11/M07 A3049 RMK AO2 SLP330 T01061067=
200611041552 METAR KATL 041552Z 10011KT 10SM FEW250 10/M08 A3050 RMK AO2 SLP333 T01001083=
200611041452 METAR KATL 041452Z 10010KT 10SM SCT250 08/M08 A3050 RMK AO2 SLP332 T00781078 50018=
200611041352 METAR KATL 041352Z 08009KT 10SM SCT250 06/M05 A3050 RMK AO2 SLP333 T00561050=
200611041252 METAR KATL 041252Z 07008KT 10SM BKN250 03/M04 A3047 RMK AO2 SLP324 T00281044=
200611041152 METAR KATL 041152Z 08005KT 10SM SCT250 01/M05 A3044 RMK AO2 SLP315 T00111050 10039 20011 53012=
200611041052 METAR KATL 041052Z 07012KT 10SM CLR 02/M04 A3043 RMK AO2 SLP309 T00221044=
200611040952 METAR KATL 040952Z 05011KT 10SM FEW250 02/M04 A3041 RMK AO2 SLP303 T00221039=
200611040852 METAR KATL 040852Z 04008KT 10SM FEW250 03/M04 A3040 RMK AO2 SLP300 T00281044 53001=
200611040752 METAR KATL 040752Z 11004KT 10SM FEW250 03/M04 A3038 RMK AO2 SLP293 T00331044=
200611040652 METAR KATL 040652Z 09004KT 10SM FEW250 03/M05 A3040 RMK AO2 SLP298 T00331050=
200611040552 METAR KATL 040552Z 07006KT 10SM FEW250 03/M06 A3040 RMK AO2 SLP299 T00331056 10083 20028 58003=
200611040452 METAR KATL 040452Z 03006KT 10SM BKN250 05/M07 A3041 RMK AO2 SLP301 T00501072 401330022=
200611040352 METAR KATL 040352Z 02007KT 10SM BKN250 05/M07 A3040 RMK AO2 SLP300 T00501072=
200611040252 METAR KATL 040252Z 35006KT 10SM SCT250 04/M06 A3041 RMK AO2 SLP303 T00441061 53014=
200611040152 METAR KATL 040152Z 27003KT 10SM FEW250 06/M06 A3040 RMK AO2 SLP298 T00561061=
200611040052 METAR KATL 040052Z 33007KT 10SM CLR 07/M07 A3038 RMK AO2 SLP293 T00671067=
200611032352 METAR KATL 032352Z 33011KT 10SM CLR 08/M08 A3037 RMK AO2 SLP288 T00831078 10133 20078 51010=
200611032252 METAR KATL 032252Z 32009KT 10SM CLR 09/M08 A3036 RMK AO2 SLP287 T00941078=
200611032152 METAR KATL 032152Z 31010KT 10SM CLR 12/M08 A3035 RMK AO2 SLP280 T01171083=
200611032052 METAR KATL 032052Z 36011KT 10SM CLR 13/M10 A3034 RMK AO2 SLP276 T01281100 56013=
200611031952 METAR KATL 031952Z 33011G14KT 10SM CLR 12/M11 A3035 RMK AO2 SLP279 T01221111=
200611031852 METAR KATL 031852Z 35009G14KT 10SM CLR 12/M10 A3035 RMK AO2 SLP282 T01221100=
200611031752 METAR KATL 031752Z 02003G14KT 10SM CLR 11/M11 A3038 RMK AO2 SLP290 T01111106 10117 20022 58017=
200611031652 METAR KATL 031652Z 00000KT 10SM CLR 10/M10 A3040 RMK AO2 SLP300 T01001100=
200611031552 METAR KATL 031552Z VRB05KT 10SM CLR 08/M10 A3042 RMK AO2 SLP306 T00831100=
200611031452 METAR KATL 031452Z 01014KT 10SM CLR 07/M10 A3043 RMK AO2 SLP309 T00721100 51023=
200611031352 METAR KATL 031352Z 36013KT 10SM CLR 05/M08 A3041 RMK AO2 SLP304 T00501083=
200611031252 METAR KATL 031252Z 35008KT 10SM CLR 03/M07 A3039 RMK AO2 SLP295 T00281072=
200611031152 METAR KATL 031152Z 36011KT 10SM CLR 02/M07 A3036 RMK AO2 SLP285 T00221072 10050 20022 53021=
200611031052 METAR KATL 031052Z 35008KT 10SM CLR 03/M08 A3033 RMK AO2 SLP275 T00281078=
200611030952 METAR KATL 030952Z 34006KT 10SM CLR 03/M07 A3031 RMK AO2 SLP270 T00281072=
200611030852 METAR KATL 030852Z 35011KT 10SM FEW200 04/M07 A3029 RMK AO2 SLP262 T00391072 56000=
200611030752 METAR KATL 030752Z 34014G22KT 10SM FEW200 04/M07 A3030 RMK AO2 SLP261 T00441072=
200611030652 METAR KATL 030652Z 34016KT 10SM FEW200 05/M07 A3029 RMK AO2 SLP260 T00501067=
200611030552 METAR KATL 030552Z 32011KT 10SM SCT200 05/M06 A3030 RMK AO2 SLP261 T00501056 10094 20050 50000=
200611030452 METAR KATL 030452Z 32010KT 10SM BKN200 05/M04 A3030 RMK AO2 SLP265 T00501039 401610050=
200611030352 METAR KATL 030352Z 33011KT 10SM SCT200 06/M04 A3031 RMK AO2 SLP267 T00561044=
200611030252 METAR KATL 030252Z 33011KT 10SM FEW200 SCT250 07/M04 A3030 RMK AO2 SLP263 T00671044 51016=
200611030152 METAR KATL 030152Z 33011KT 10SM FEW200 07/M05 A3028 RMK AO2 SLP258 T00721050=
200611030052 METAR KATL 030052Z 34009KT 10SM FEW250 08/M06 A3027 RMK AO2 SLP252 T00831061=
200611022352 METAR KATL 022352Z 33013G18KT 10SM FEW250 09/M06 A3025 RMK AO2 SLP245 T00891061 10150 20089 53030=
200611022252 METAR KATL 022252Z 32011KT 10SM SCT250 10/M06 A3022 RMK AO2 SLP234 T01001056=
200611022152 METAR KATL 022152Z 33016KT 10SM SCT250 12/M04 A3018 RMK AO2 SLP218 T01221044=
200611022052 METAR KATL 022052Z 34014G19KT 10SM FEW250 14/M04 A3016 RMK AO2 SLP210 T01391039 53004=
200611021952 METAR KATL 021952Z 32018G23KT 10SM FEW250 14/M02 A3014 RMK AO2 PK WND 34026/1922 SLP204 T01391022=
200611021852 METAR KATL 021852Z 35020G26KT 10SM FEW250 14/M01 A3013 RMK AO2 PK WND 33026/1847 SLP202 T01441011=
200611021752 METAR KATL 021752Z 31014G19KT 10SM FEW250 14/04 A3014 RMK AO2 SLP205 T01390039 10139 20083 58003=
200611021652 METAR KATL 021652Z 32013KT 10SM FEW250 12/04 A3016 RMK AO2 SLP210 T01220039=
200611021552 METAR KATL 021552Z 32014KT 10SM FEW020 10/04 A3017 RMK AO2 SLP215 T01000044=
200611021530 SPECI KATL 021530Z 31016KT 10SM SCT016 09/04 A3016 RMK AO2=
200611021530 SPECI KATL 021530Z 31016KT 10SM SCT016 09/04 A3016 RMK AO2=
200611021452 METAR KATL 021452Z 31013KT 10SM OVC012 09/05 A3015 RMK AO2 SLP210 T00890050 51023=
200611021352 METAR KATL 021352Z 31017G22KT 10SM OVC010 08/06 A3014 RMK AO2 SLP203 BINOVC T00830056=
200611021345 SPECI KATL 021345Z 31017KT 10SM OVC010 08/06 A3013 RMK AO2 BINOVC=
200611021345 SPECI KATL 021345Z 31017KT 10SM OVC010 08/06 A3013 RMK AO2 BINOVC=
200611021308 SPECI KATL 021308Z 31014KT 10SM SCT008 OVC033 09/07 A3011 RMK AO2 BINOVC=
200611021308 SPECI KATL 021308Z 31014KT 10SM SCT008 OVC033 09/07 A3011 RMK AO2 BINOVC=
200611021259 SPECI KATL 021259Z 32012KT 10SM BKN007 OVC033 09/07 A3011 RMK AO2=
200611021259 SPECI KATL 021259Z 32012KT 10SM BKN007 OVC033 09/07 A3011 RMK AO2=
200611021252 METAR KATL 021252Z 31011KT 10SM SCT007 OVC033 09/07 A3010 RMK AO2 SLP191 BINOVC T00940072=
200611021242 SPECI KATL 021242Z 32014KT 10SM SCT007 OVC031 09/07 A3009 RMK AO2=
200611021242 SPECI KATL 021242Z 32014KT 10SM SCT007 OVC031 09/07 A3009 RMK AO2=
200611021152 METAR KATL 021152Z 32013KT 10SM OVC005 10/08 A3008 RMK AO2 SLP184 70003 T01000078 10156 20100 53024=
200611021052 METAR KATL 021052Z 31012KT 7SM OVC005 13/11 A3005 RMK AO2 CIG 004V010 SLP170 T01280111=
200611020952 METAR KATL 020952Z 32017KT 9SM OVC007 15/13 A3001 RMK AO2 CIG 005V009 SLP158 T01500133=
200611020926 SPECI KATL 020926Z 30010KT 8SM BKN005 OVC008 16/14 A3000 RMK AO2 CIG 003V006=
200611020926 SPECI KATL 020926Z 30010KT 8SM BKN005 OVC008 16/14 A3000 RMK AO2 CIG 003V006=
200611020852 METAR KATL 020852Z 28007KT 1 1/2SM BR OVC003 16/14 A3001 RMK AO2 SFC VIS 6 SLP155 TWRINC T01560139 55004=
200611020845 SPECI KATL 020845Z 29010KT 1 1/2SM BR OVC003 16/14 A3001 RMK AO2 SFC VIS 6 TWRINC=
200611020845 SPECI KATL 020845Z 29010KT 1 1/2SM BR OVC003 16/14 A3001 RMK AO2 SFC VIS 6 TWRINC=
200611020806 SPECI KATL 020806Z 29009KT 9SM BKN009 OVC014 16/14 A3000 RMK AO2 CIG 006V012=
200611020806 SPECI KATL 020806Z 29009KT 9SM BKN009 OVC014 16/14 A3000 RMK AO2 CIG 006V012=
200611020752 METAR KATL 020752Z 29008KT 10SM FEW006 BKN014 BKN085 16/14 A3000 RMK AO2 SLP154 T01560139=
200611020737 SPECI KATL 020737Z 29008KT 9SM FEW006 BKN016 BKN085 15/13 A3001 RMK AO2=
200611020737 SPECI KATL 020737Z 29008KT 9SM FEW006 BKN016 BKN085 15/13 A3001 RMK AO2=
200611020652 METAR KATL 020652Z 28006KT 10SM FEW006 SCT085 SCT250 15/13 A3001 RMK AO2 SLP156 T01500133=
200611020552 METAR KATL 020552Z 27008KT 10SM FEW085 OVC150 16/13 A3002 RMK AO2 SLP160 60003 T01560133 10194 20156 55004=
200611020452 METAR KATL 020452Z 26005KT 10SM FEW070 SCT120 OVC150 16/14 A3001 RMK AO2 RAE52 SLP157 P0001 T01610139 402390111=
200611020252 METAR KATL 020252Z 26004KT 10SM -RA FEW040 OVC090 17/15 A3003 RMK AO2 RAB05 SLP166 P0002 60002 T01670150 50008=
200611020152 METAR KATL 020152Z 32010KT 10SM BKN050 BKN070 OVC100 18/13 A3003 RMK AO2 SLP166 T01830133=
200611020052 METAR KATL 020052Z 23005KT 10SM FEW120 SCT200 18/12 A3001 RMK AO2 SLP160 T01830122=
200611012352 METAR KATL 012352Z 23004KT 10SM FEW150 SCT200 19/12 A3001 RMK AO2 SLP158 T01940122 10239 20194 53002=
200611012252 METAR KATL 012252Z 19006KT 10SM FEW100 SCT150 BKN200 22/12 A2999 RMK AO2 SLP151 T02170122=
200611012152 METAR KATL 012152Z 22006KT 10SM FEW050 SCT100 BKN150 BKN200 23/12 A2999 RMK AO2 SLP150 CB DSNT NW T02280117=
200611012052 METAR KATL 012052Z 19005KT 10SM FEW050 SCT150 BKN200 23/11 A3000 RMK AO2 SLP155 T02330111 56020=
200611011952 METAR KATL 011952Z COR 21006KT 10SM FEW050 SCT090 SCT150 BKN200 23/11 A3001 RMK AO2 SLP159 T02330111=
200611011852 METAR KATL 011852Z 23003KT 10SM FEW050 SCT150 SCT200 BKN300 23/11 A3003 RMK AO2 SLP164 T02280106=
200611011752 METAR KATL 011752Z 21005KT 8SM FEW050 SCT150 SCT200 SCT300 23/11 A3006 RMK AO2 SLP175 T02280106 10233 20117 58020=
200611011652 METAR KATL 011652Z VRB05KT 9SM FEW150 SCT200 BKN300 22/11 A3010 RMK AO2 SLP189 T02220106=
200611011552 METAR KATL 011552Z 18003KT 9SM FEW200 BKN300 20/11 A3012 RMK AO2 SLP197 T02000111 $=
200611011452 METAR KATL 011452Z VRB03KT 9SM FEW065 SCT200 SCT300 19/11 A3012 RMK AO2 SLP197 T01890106 50007=
200611011352 METAR KATL 011352Z 00000KT 8SM FEW065 SCT250 16/10 A3013 RMK AO2 SLP199 T01610100=
200611011252 METAR KATL 011252Z 00000KT 7SM FEW065 SCT150 13/11 A3012 RMK AO2 SLP197 T01330106=
