##########################################################
# Query made at 04/19/2024 22:59:14 UTC
# Time interval: from 12/01/2006 12:00  to 12/31/2006 12:59  UTC
##########################################################

##########################################################
# KATL, Atlanta, Hartsfield - Jackson Atlanta International Airport (United States)
# WMO index: 72219. WIGOS ID: 0-20000-0-72219
# Latitude 33-38-59N. Longitude 084-25-00W. Altitude 312 m.
##########################################################

200612311252 METAR KATL 311252Z 09011KT 1/4SM -RA BR OVC001 12/11 A3018 RMK AO2 SFC VIS 3/4 RAB35 SLP220 P0000 T01220111 RVRNO=
200612311152 METAR KATL 311152Z 09011KT 1/4SM BR OVC001 12/11 A3018 RMK AO2 SFC VIS 1 DZE45RAB45E49 SLP221 P0001 60001 70002 T01170111 10117 20117 56010 RVRNO=
200612311052 METAR KATL 311052Z 09009KT 1/4SM -DZ BR OVC001 12/11 A3020 RMK AO2 SFC VIS 3/4 SLP226 P0000 T01170111 RVRNO=
200612310952 METAR KATL 310952Z 09009KT 1/4SM -DZ FG VV001 12/11 A3019 RMK AO2 SFC VIS 1/2 SLP225 P0000 T01170111 RVRNO=
200612310852 METAR KATL 310852Z 08010KT 1/4SM -DZ FG VV001 12/11 A3021 RMK AO2 SFC VIS 1/2 SLP231 P0000 60000 T01170111 58017 RVRNO=
200612310752 METAR KATL 310752Z 10007KT 1/4SM -DZ FG VV001 12/11 A3023 RMK AO2 SFC VIS 1/2 SLP238 P0000 T01170111 RVRNO=
200612310717 SPECI KATL 310717Z 08013KT 1/4SM -DZ BR VV001 12/11 A3025 RMK AO2 SFC VIS 3/4 P0000 RVRNO=
200612310717 SPECI KATL 310717Z 08013KT 1/4SM -DZ BR VV001 12/11 A3025 RMK AO2 SFC VIS 3/4 P0000 RVRNO=
200612310652 METAR KATL 310652Z 09011KT 1/4SM -DZ FG OVC002 12/11 A3026 RMK AO2 SFC VIS 1/2 SLP246 P0000 T01170111 RVRNO=
200612310552 METAR KATL 310552Z 09012KT 1/4SM -DZ BR OVC002 12/11 A3026 RMK AO2 SFC VIS 1 SLP249 P0000 60000 T01170111 10122 20117 58016 RVRNO=
200612310452 METAR KATL 310452Z 08011KT 1/4SM -DZ BR OVC002 12/11 A3029 RMK AO2 SFC VIS 1 SLP258 CIG 001V003 TWRINC PCPN VRY LGT P0000 T01170111 401390089 RVRNO=
200612310417 SPECI KATL 310417Z 08010KT 1/4SM -DZ BR OVC002 12/11 A3030 RMK AO2 SFC VIS 1 CIG 001V003 TWRINC PCPN VRY LGT P0000 RVRNO=
200612310417 SPECI KATL 310417Z 08010KT 1/4SM -DZ BR OVC002 12/11 A3030 RMK AO2 SFC VIS 1 CIG 001V003 TWRINC PCPN VRY LGT P0000 RVRNO=
200612310352 METAR KATL 310352Z 08012KT 1/2SM -DZ BR FEW001 OVC003 12/11 A3031 RMK AO2 SFC VIS 1 DZB14 SLP266 CIG 001V004 TWRINC PCPN VRY LGT P0000 T01220111 RVRNO=
200612310252 METAR KATL 310252Z 09008KT 1/2SM BR OVC003 12/11 A3031 RMK AO2 SFC VIS 1 1/2 DZE33 SLP265 CIG 002V004 TRWINC P0000 60000 T01220111 51003=
200612310152 METAR KATL 310152Z 08012KT 1/2SM -DZ BR OVC003 12/11 A3031 RMK AO2 SFC VIS 1 1/2 DZB47 SLP263 CIG 002V004 TRWINC P0000 T01220111=
200612310052 METAR KATL 310052Z 08010KT 1/2SM BR OVC003 12/11 A3031 RMK AO2 SFC VIS 4 SLP265 CIG 002V004 TWRINC T01220111=
200612302352 METAR KATL 302352Z 08011KT 1/2SM BR FEW001 OVC003 12/11 A3030 RMK AO2 SFC VIS 3/4 DZB01E50RAB08E10 SLP262 TWRINC P0000 60001 T01220111 10133 20122 58002 RVRNO=
200612302334 SPECI KATL 302334Z 09009KT 1/2SM -DZ BR FEW001 OVC003 12/11 A3030 RMK AO2 SFC VIS 3/4 DZB01RAB08E10 TWRINC P0000 RVRNO=
200612302334 SPECI KATL 302334Z 09009KT 1/2SM -DZ BR FEW001 OVC003 12/11 A3030 RMK AO2 SFC VIS 3/4 DZB01RAB08E10 TWRINC P0000 RVRNO=
200612302252 METAR KATL 302252Z 08011KT 1/4SM FG SCT002 OVC004 12/11 A3032 RMK AO2 SFC VIS 1/2 RAE05DZB12E51 SLP268 CIG 001V005 P0000 T01220111 RVRNO $=
200612302207 SPECI KATL 302207Z 08010KT 1/4SM BR OVC004 13/12 A3031 RMK AO2 SFC VIS 1 1/2 RAE05 CIG 001V005 P0000=
200612302207 SPECI KATL 302207Z 08010KT 1/4SM BR OVC004 13/12 A3031 RMK AO2 SFC VIS 1 1/2 RAE05 CIG 001V005 P0000=
200612302152 METAR KATL 302152Z 08011KT 1/2SM -RA BR OVC004 13/12 A3031 RMK AO2 SFC VIS 1 1/2 RAB2058E02B49 SLP264 CIG 001V005 P0000 T01280117=
200612302133 SPECI KATL 302133Z 07010KT 1/2SM BR OVC004 13/12 A3031 RMK AO2 SFC VIS 2 RAB2058E02 CIG 001V007 P0000=
200612302133 SPECI KATL 302133Z 07010KT 1/2SM BR OVC004 13/12 A3031 RMK AO2 SFC VIS 2 RAB2058E02 CIG 001V007 P0000=
200612302056 SPECI KATL 302056Z 07011KT 3/4SM BR OVC003 13/12 A3031 RMK AO2 SFC VIS 2 CIG 001V007=
200612302056 SPECI KATL 302056Z 07011KT 3/4SM BR OVC003 13/12 A3031 RMK AO2 SFC VIS 2 CIG 001V007=
200612302052 METAR KATL 302052Z 08010KT 1 1/4SM BR OVC003 13/12 A3031 RMK AO2 SFC VIS 2 RAB02E25 SLP264 CIG 001V003 P0001 60001 T01330117 55008=
200612302019 SPECI KATL 302019Z 08009KT 1SM -RA BR OVC003 13/12 A3031 RMK AO2 SFC VIS 1 1/4 RAB02 CIG 001V005 P0001=
200612302019 SPECI KATL 302019Z 08009KT 1SM -RA BR OVC003 13/12 A3031 RMK AO2 SFC VIS 1 1/4 RAB02 CIG 001V005 P0001=
200612302007 SPECI KATL 302007Z 08011KT 1SM -RA BR OVC005 13/12 A3031 RMK AO2 SFC VIS 3 RAB02 CIG 001V005 P0000=
200612302007 SPECI KATL 302007Z 08011KT 1SM -RA BR OVC005 13/12 A3031 RMK AO2 SFC VIS 3 RAB02 CIG 001V005 P0000=
200612301952 METAR KATL 301952Z 08010KT 1 1/2SM BR OVC005 13/12 A3031 RMK AO2 SFC VIS 4 SLP265 CIG 001V005 T01330117=
200612301905 SPECI KATL 301905Z 08014KT 1 1/2SM BR OVC005 13/11 A3030 RMK AO2 SFC VIS 4 CIG 004V005=
200612301905 SPECI KATL 301905Z 08014KT 1 1/2SM BR OVC005 13/11 A3030 RMK AO2 SFC VIS 4 CIG 004V005=
200612301852 METAR KATL 301852Z 08012KT 2SM BR OVC006 13/11 A3031 RMK AO2 SFC VIS 5 RAE1753B14E43 SLP264 P0000 T01280111=
200612301752 METAR KATL 301752Z 08010KT 2SM -RA BR BKN005 OVC009 13/12 A3034 RMK AO2 SFC VIS 3 SLP274 P0000 60000 T01280117 10139 20117 58009=
200612301732 SPECI KATL 301732Z 09010KT 2SM -RA BR BKN008 OVC012 13/11 A3035 RMK AO2 SFC VIS 3 CIG 006V011 P0000=
200612301732 SPECI KATL 301732Z 09010KT 2SM -RA BR BKN008 OVC012 13/11 A3035 RMK AO2 SFC VIS 3 CIG 006V011 P0000=
200612301655 SPECI KATL 301655Z 08012KT 2SM -RA OVC013 13/11 A3036 RMK AO2 SFC VIS 5 P0000=
200612301655 SPECI KATL 301655Z 08012KT 2SM -RA OVC013 13/11 A3036 RMK AO2 SFC VIS 5 P0000=
200612301652 METAR KATL 301652Z 08011KT 6SM -RA OVC013 13/11 A3037 RMK AO2 RAE05B25 SLP284 P0000 T01330106=
200612301552 METAR KATL 301552Z 09008KT 9SM -RA OVC012 13/09 A3039 RMK AO2 RAB48 SLP291 P0000 T01330094=
200612301452 METAR KATL 301452Z 07013KT 9SM OVC011 13/09 A3036 RMK AO2 SLP282 T01330089 56001=
200612301352 METAR KATL 301352Z 08012KT 10SM OVC012 13/08 A3037 RMK AO2 SLP284 T01280083=
200612301252 METAR KATL 301252Z 09009KT 10SM OVC012 12/08 A3036 RMK AO2 SLP280 T01220083=
200612301152 METAR KATL 301152Z 08007KT 10SM BKN014 12/08 A3037 RMK AO2 SLP283 60000 T01170083 10117 20089 55002=
200612301123 SPECI KATL 301123Z 08008KT 10SM BKN014 12/08 A3036 RMK AO2=
200612301123 SPECI KATL 301123Z 08008KT 10SM BKN014 12/08 A3036 RMK AO2=
200612301052 METAR KATL 301052Z 09008KT 10SM BKN016 OVC021 11/08 A3035 RMK AO2 SLP279 T01110078=
200612300952 METAR KATL 300952Z 07007KT 10SM BKN018 OVC024 11/08 A3035 RMK AO2 RAB34E45 SLP277 P0000 T01110078=
200612300932 SPECI KATL 300932Z 07008KT 10SM BKN018 BKN027 OVC055 11/08 A3035 RMK AO2=
200612300932 SPECI KATL 300932Z 07008KT 10SM BKN018 BKN027 OVC055 11/08 A3035 RMK AO2=
200612300852 METAR KATL 300852Z 06009KT 10SM BKN049 11/08 A3037 RMK AO2 SLP283 T01060078 57005=
200612300752 METAR KATL 300752Z 07006KT 9SM BKN049 10/08 A3038 RMK AO2 SLP288 T01000078=
200612300652 METAR KATL 300652Z 08008KT 10SM CLR 09/07 A3038 RMK AO2 SLP287 T00940072=
200612300552 METAR KATL 300552Z 07009KT 10SM CLR 10/07 A3039 RMK AO2 SLP291 T01000072 10128 20094 58009=
200612300452 METAR KATL 300452Z 08009KT 10SM CLR 09/07 A3040 RMK AO2 SLP297 T00940067 401780056=
200612300352 METAR KATL 300352Z 08008KT 10SM CLR 10/07 A3042 RMK AO2 SLP303 T01000072=
200612300252 METAR KATL 300252Z 08008KT 10SM CLR 11/07 A3042 RMK AO2 SLP302 T01110072 58003=
200612300152 METAR KATL 300152Z 08007KT 10SM FEW060 11/08 A3042 RMK AO2 SLP303 T01110078=
200612300052 METAR KATL 300052Z 08008KT 10SM SCT060 12/08 A3042 RMK AO2 SLP304 T01170078=
200612292352 METAR KATL 292352Z 08009KT 10SM FEW060 12/08 A3042 RMK AO2 SLP304 T01220078 10178 20122 55001=
200612292252 METAR KATL 292252Z 09008KT 10SM FEW060 14/08 A3042 RMK AO2 SLP304 T01390083=
200612292152 METAR KATL 292152Z 09008KT 10SM FEW060 SCT250 16/08 A3043 RMK AO2 SLP305 T01560083=
200612292052 METAR KATL 292052Z 11007KT 10SM FEW060 SCT250 18/08 A3043 RMK AO2 SLP304 T01780083 56014=
200612291952 METAR KATL 291952Z 10005KT 10SM SCT060 SCT250 17/08 A3043 RMK AO2 SLP306 T01720083=
200612291852 METAR KATL 291852Z VRB04KT 10SM BKN060 BKN250 16/08 A3045 RMK AO2 SLP311 T01610083=
200612291752 METAR KATL 291752Z COR 11007KT 10SM BKN060 BKN250 15/08 A3047 RMK AO2 SLP319 T01500078 10150 20083 58016=
200612291652 METAR KATL 291652Z 12007KT 10SM BKN060 BKN250 13/07 A3050 RMK AO2 SLP330 T01330067=
200612291552 METAR KATL 291552Z 08009KT 10SM BKN055 12/06 A3052 RMK AO2 SLP338 T01170056=
200612291452 METAR KATL 291452Z 07011KT 10SM OVC055 11/05 A3052 RMK AO2 SLP338 T01060050 51024=
200612291352 METAR KATL 291352Z 06009KT 10SM OVC050 09/04 A3050 RMK AO2 SLP331 BINOVC T00940039=
200612291252 METAR KATL 291252Z 08008KT 10SM OVC050 09/03 A3047 RMK AO2 SLP321 T00890028=
200612291152 METAR KATL 291152Z 08009KT 10SM OVC048 08/02 A3044 RMK AO2 SLP313 T00830022 10083 20056 53006=
200612291052 METAR KATL 291052Z 08006KT 10SM SCT050 BKN250 07/02 A3042 RMK AO2 SLP306 T00670017=
200612290952 METAR KATL 290952Z 09005KT 10SM FEW048 SCT250 06/01 A3042 RMK AO2 SLP305 T00610011=
200612290852 METAR KATL 290852Z 07008KT 10SM OVC044 08/02 A3043 RMK AO2 SLP305 T00780017 51004=
200612290752 METAR KATL 290752Z 08008KT 10SM BKN044 BKN250 07/01 A3043 RMK AO2 SLP306 T00670011=
200612290652 METAR KATL 290652Z 08008KT 10SM BKN042 BKN250 06/01 A3042 RMK AO2 SLP304 T00610011=
200612290552 METAR KATL 290552Z 09005KT 10SM BKN040 06/01 A3041 RMK AO2 SLP303 T00610011 10089 20056 50001=
200612290452 METAR KATL 290452Z 07007KT 10SM FEW045 06/01 A3042 RMK AO2 SLP306 T00560006 401330006=
200612290352 METAR KATL 290352Z 08008KT 10SM CLR 06/01 A3042 RMK AO2 SLP306 T00610006=
200612290252 METAR KATL 290252Z 08008KT 10SM CLR 07/01 A3041 RMK AO2 SLP304 T00670006 53014=
200612290152 METAR KATL 290152Z 08008KT 10SM CLR 08/01 A3040 RMK AO2 SLP298 T00780006=
200612290052 METAR KATL 290052Z 08008KT 10SM CLR 08/01 A3038 RMK AO2 SLP295 T00830006=
200612282352 METAR KATL 282352Z 09008KT 10SM CLR 08/00 A3037 RMK AO2 SLP290 T00830000 10133 20083 51015=
200612282252 METAR KATL 282252Z 10005KT 10SM FEW200 11/M01 A3036 RMK AO2 SLP287 T01111006=
200612282152 METAR KATL 282152Z 10008KT 10SM FEW200 13/M01 A3034 RMK AO2 SLP278 T01281006=
200612282052 METAR KATL 282052Z 09008KT 10SM CLR 13/00 A3032 RMK AO2 SLP271 T01330000 55010=
200612281952 METAR KATL 281952Z 15005KT 10SM CLR 13/01 A3032 RMK AO2 SLP271 T01280006=
200612281852 METAR KATL 281852Z 15007KT 10SM CLR 12/01 A3033 RMK AO2 SLP273 T01220006=
200612281752 METAR KATL 281752Z 15008KT 10SM CLR 11/01 A3035 RMK AO2 SLP282 T01110006 10111 20006 58016=
200612281652 METAR KATL 281652Z 15009KT 10SM CLR 10/01 A3038 RMK AO2 SLP290 T01000011=
200612281552 METAR KATL 281552Z 12006KT 10SM CLR 08/01 A3040 RMK AO2 SLP301 T00830006=
200612281452 METAR KATL 281452Z 09006KT 9SM CLR 06/01 A3040 RMK AO2 SLP299 T00560006 53027=
200612281352 METAR KATL 281352Z 08006KT 10SM FEW250 03/M01 A3037 RMK AO2 SLP289 T00281011=
200612281252 METAR KATL 281252Z 09004KT 10SM FEW250 01/M03 A3034 RMK AO2 SLP281 T00061028=
200612281152 METAR KATL 281152Z 08005KT 9SM CLR 01/M03 A3032 RMK AO2 SLP272 T00061028 10044 20006 53008=
200612281052 METAR KATL 281052Z 09006KT 10SM CLR 01/M03 A3030 RMK AO2 SLP266 T00111028=
200612280952 METAR KATL 280952Z 06006KT 10SM CLR 02/M03 A3029 RMK AO2 SLP262 T00171028=
200612280852 METAR KATL 280852Z 05005KT 10SM FEW250 03/M02 A3029 RMK AO2 SLP262 T00281022 53007=
200612280752 METAR KATL 280752Z 09005KT 10SM CLR 03/M02 A3028 RMK AO2 SLP260 T00281022=
200612280652 METAR KATL 280652Z 07004KT 10SM FEW250 03/M03 A3028 RMK AO2 SLP257 T00331028=
200612280552 METAR KATL 280552Z COR 09004KT 10SM FEW250 04/M03 A3027 RMK AO2 SLP255 T00391028 10083 20039 53004=
200612280452 METAR KATL 280452Z 12003KT 10SM FEW250 04/M02 A3026 RMK AO2 SLP252 T00441022 401170006=
200612280352 METAR KATL 280352Z 15004KT 10SM CLR 05/M02 A3025 RMK AO2 SLP251 T00501022=
200612280252 METAR KATL 280252Z 00000KT 10SM CLR 06/M02 A3026 RMK AO2 SLP252 T00561022 53018=
200612280152 METAR KATL 280152Z 00000KT 10SM CLR 06/M01 A3023 RMK AO2 SLP243 T00611011=
200612280052 METAR KATL 280052Z 00000KT 10SM CLR 07/M01 A3022 RMK AO2 SLP241 T00671006=
200612272352 METAR KATL 272352Z 00000KT 10SM CLR 08/M01 A3020 RMK AO2 SLP233 T00781011 10117 20078 53013=
200612272252 METAR KATL 272252Z 00000KT 10SM CLR 09/M04 A3017 RMK AO2 SLP222 T00941039=
200612272152 METAR KATL 272152Z 36003KT 10SM FEW240 11/M04 A3016 RMK AO2 SLP218 T01111039=
200612272052 METAR KATL 272052Z 31004KT 10SM FEW240 11/M04 A3016 RMK AO2 SLP218 T01111039 56007=
200612271952 METAR KATL 271952Z 00000KT 10SM FEW240 10/M04 A3016 RMK AO2 SLP219 T01001039=
200612271852 METAR KATL 271852Z VRB03KT 10SM FEW240 10/M03 A3017 RMK AO2 SLP219 T01001028=
200612271752 METAR KATL 271752Z 33008KT 10SM BKN240 09/M03 A3018 RMK AO2 SLP226 T00891033 10089 20006 58006=
200612271652 METAR KATL 271652Z 31003KT 10SM FEW240 06/M03 A3020 RMK AO2 SLP232 T00611033=
200612271552 METAR KATL 271552Z 35004KT 10SM FEW240 05/M03 A3021 RMK AO2 SLP237 T00501033=
200612271452 METAR KATL 271452Z 34009KT 10SM FEW240 03/M04 A3020 RMK AO2 SLP234 T00331039 51012=
200612271352 METAR KATL 271352Z 32008KT 10SM FEW250 02/M03 A3019 RMK AO2 SLP230 T00221033=
200612271252 METAR KATL 271252Z 31006KT 10SM FEW250 01/M04 A3018 RMK AO2 SLP228 T00061039=
200612271152 METAR KATL 271152Z 33010KT 10SM FEW025 02/M04 A3017 RMK AO2 SLP222 T00171039 10039 20017 51015=
200612271125 SPECI KATL 271125Z 32013KT 10SM FEW025 02/M04 A3016 RMK AO2=
200612271125 SPECI KATL 271125Z 32013KT 10SM FEW025 02/M04 A3016 RMK AO2=
200612271052 METAR KATL 271052Z 30011KT 10SM OVC025 03/M03 A3016 RMK AO2 SLP220 T00281033=
200612270952 METAR KATL 270952Z 31010G18KT 10SM OVC025 03/M03 A3013 RMK AO2 SLP210 T00281028=
200612270852 METAR KATL 270852Z 30011KT 10SM OVC025 03/M02 A3012 RMK AO2 SLP205 T00331022 51021=
200612270752 METAR KATL 270752Z 32011KT 10SM OVC025 03/M02 A3010 RMK AO2 SLP200 T00331017=
200612270652 METAR KATL 270652Z 30009KT 10SM OVC020 04/M01 A3008 RMK AO2 SLP191 T00391011=
200612270552 METAR KATL 270552Z 31011KT 10SM OVC022 04/M01 A3006 RMK AO2 SLP184 T00391011 10044 20039 58003=
200612270452 METAR KATL 270452Z 32013KT 10SM OVC020 04/M01 A3007 RMK AO2 SLP187 T00391011 400830039=
200612270352 METAR KATL 270352Z 31009KT 10SM OVC020 04/M01 A3006 RMK AO2 SLP186 T00391011=
200612270252 METAR KATL 270252Z 31012KT 10SM BKN022 OVC028 04/00 A3007 RMK AO2 SLP187 T00390000 51017=
200612270152 METAR KATL 270152Z 30012KT 10SM FEW020 OVC026 04/M01 A3005 RMK AO2 SLP183 T00391006=
200612270052 METAR KATL 270052Z 30014KT 10SM SCT022 OVC028 04/M01 A3003 RMK AO2 SLP174 T00441006=
200612262352 METAR KATL 262352Z 30011KT 10SM SCT018 OVC025 04/00 A3001 RMK AO2 SLP169 60000 T00440000 10056 20039 52031=
200612262252 METAR KATL 262252Z 28012KT 9SM BKN017 OVC025 04/01 A2999 RMK AO2 SLP159 T00440006=
200612262152 METAR KATL 262152Z 29014G20KT 10SM BKN018 BKN030 OVC070 04/01 A2995 RMK AO2 RAB2054E25 SLP147 P0000 T00440006=
200612262052 METAR KATL 262052Z 29013G22KT 10SM BKN020 BKN032 OVC070 05/01 A2992 RMK AO2 RAB06E31 SLP136 P0000 60000 T00500006 53006=
200612261952 METAR KATL 261952Z 28013KT 10SM FEW015 BKN025 OVC030 05/01 A2990 RMK AO2 RAE04 SLP128 P0000 T00500011=
200612261852 METAR KATL 261852Z 29015G21KT 9SM -RA BKN019 BKN023 OVC040 04/01 A2989 RMK AO2 RAB13 SLP127 VIS LWR S-SW-W SHRA P0000 T00390011=
200612261752 METAR KATL 261752Z 29012KT 10SM SCT020 OVC026 06/01 A2990=
200612261658 SPECI KATL 261658Z 28014G19KT 10SM FEW020 BKN027 OVC042 06/01 A2992 RMK AO2=
200612261658 SPECI KATL 261658Z 28014G19KT 10SM FEW020 BKN027 OVC042 06/01 A2992 RMK AO2=
200612261652 METAR KATL 261652Z 28011G19KT 10SM FEW020 SCT030 OVC040 06/01 A2992 RMK AO2 SLP134 T00560011=
200612261632 SPECI KATL 261632Z 27010KT 10SM SCT020 OVC040 06/01 A2992 RMK AO2=
200612261632 SPECI KATL 261632Z 27010KT 10SM SCT020 OVC040 06/01 A2992 RMK AO2=
200612261552 METAR KATL 261552Z 28012KT 10SM OVC021 05/01 A2992 RMK AO2 RAE01 SLP134 P0000 T00500006=
200612261535 SPECI KATL 261535Z 30013KT 10SM SCT021 BKN026 OVC038 05/00 A2991 RMK AO2 RAE01 P0000=
200612261535 SPECI KATL 261535Z 30013KT 10SM SCT021 BKN026 OVC038 05/00 A2991 RMK AO2 RAE01 P0000=
200612261452 METAR KATL 261452Z 29014KT 10SM -RA FEW020 OVC034 04/01 A2989 RMK AO2 RAB1359E08B36 SLP126 P0000 60000 T00440006 53027=
200612261440 SPECI KATL 261440Z 29012KT 10SM -RA FEW020 SCT027 OVC032 04/01 A2990 RMK AO2 RAB1359E08B36 P0000=
200612261440 SPECI KATL 261440Z 29012KT 10SM -RA FEW020 SCT027 OVC032 04/01 A2990 RMK AO2 RAB1359E08B36 P0000=
200612261352 METAR KATL 261352Z 29016KT 10SM OVC018 04/00 A2987 RMK AO2 SLP116 T00440000=
200612261341 SPECI KATL 261341Z 29017G20KT 10SM OVC016 04/01 A2986 RMK AO2=
200612261341 SPECI KATL 261341Z 29017G20KT 10SM OVC016 04/01 A2986 RMK AO2=
200612261252 METAR KATL 261252Z 27012KT 10SM OVC014 04/01 A2983 RMK AO2 SLP102 T00390006=
200612261206 SPECI KATL 261206Z 28015G24KT 10SM OVC014 04/01 A2982 RMK AO2=
200612261206 SPECI KATL 261206Z 28015G24KT 10SM OVC014 04/01 A2982 RMK AO2=
200612261152 METAR KATL 261152Z 26014G19KT 10SM OVC016 04/01 A2981 RMK AO2 SLP097 60000 70013 T00440006 10078 20044 53019=
200612261052 METAR KATL 261052Z 25015G18KT 10SM BKN021 BKN028 OVC046 05/01 A2978 RMK AO2 RAB0954E08 SLP087 P0000 T00500006=
200612261049 SPECI KATL 261049Z 27013G18KT 10SM BKN021 BKN028 OVC046 05/01 A2978 RMK AO2 RAB0954E08 P0000=
200612261049 SPECI KATL 261049Z 27013G18KT 10SM BKN021 BKN028 OVC046 05/01 A2978 RMK AO2 RAB0954E08 P0000=
200612261027 SPECI KATL 261027Z 25010G17KT 10SM FEW026 SCT036 OVC044 05/01 A2977 RMK AO2 RAB0954E08 P0000=
200612261027 SPECI KATL 261027Z 25010G17KT 10SM FEW026 SCT036 OVC044 05/01 A2977 RMK AO2 RAB0954E08 P0000=
200612260952 METAR KATL 260952Z 25011G19KT 10SM OVC019 06/01 A2976 RMK AO2 SLP078 T00560011=
200612260852 METAR KATL 260852Z 25013KT 10SM BKN017 OVC035 06/02 A2975 RMK AO2 RAE12 SLP075 P0000 60000 T00610022 51011=
200612260752 METAR KATL 260752Z COR 24014KT 7SM -RA SCT019 BKN025 BKN044 07/02 A2974 RMK AO2 RAE0656B15 SLP072 P0000 T00670022=
200612260652 METAR KATL 260652Z 24013KT 10SM -RA OVC019 07/03 A2972 RMK AO2 RAB35 SLP067 P0000 T00720033=
200612260552 METAR KATL 260552Z 23016G20KT 10SM OVC025 08/03 A2971 RMK AO2 SLP063 60000 T00780028 10139 20078 51007=
200612260452 METAR KATL 260452Z 24014KT 9SM BKN024 BKN039 OVC048 08/03 A2971 RMK AO2 RAE0356 SLP063 P0000 T00830028 401390083=
200612260352 METAR KATL 260352Z 24018G23KT 9SM -RA BKN021 BKN032 OVC040 09/04 A2971 RMK AO2 PK WND 26027/0337 RAB40 SLP063 BKN029V032 CIG BKN021 V SCT P0000 T00890044=
200612260252 METAR KATL 260252Z 23017G29KT 10SM SCT031 BKN047 BKN055 11/05 A2969 RMK AO2 PK WND 22029/0247 SLP055 T01110050 53010=
200612260212 SPECI KATL 260212Z 23021G27KT 10SM BKN028 BKN033 BKN044 12/07 A2969 RMK AO2 PK WND 25027/0210 CIG BKN028 V SCT=
200612260212 SPECI KATL 260212Z 23021G27KT 10SM BKN028 BKN033 BKN044 12/07 A2969 RMK AO2 PK WND 25027/0210 CIG BKN028 V SCT=
200612260152 METAR KATL 260152Z 21015KT 10SM SCT034 SCT044 BKN060 12/07 A2968 RMK AO2 SLP049 T01220067=
200612260052 METAR KATL 260052Z 21016G23KT 10SM SCT044 13/07 A2966 RMK AO2 SLP044 T01330072=
200612252352 METAR KATL 252352Z 20010KT 9SM BKN050 12/08 A2966 RMK AO2 SLP043 T01220083 10122 20094 53009=
200612252322 SPECI KATL 252322Z 16005KT 6SM BR FEW001 SCT005 BKN042 11/10 A2965 RMK AO2 VIS N-NE 3/4 VIS E 1 VIS NW-N 3/4=
200612252322 SPECI KATL 252322Z 16005KT 6SM BR FEW001 SCT005 BKN042 11/10 A2965 RMK AO2 VIS N-NE 3/4 VIS E 1 VIS NW-N 3/4=
200612252314 SPECI KATL 252314Z 13004KT 4SM BR BKN001 BKN005 BKN044 11/10 A2965 RMK AO2 VIS N-E 3/4 VIS 3/4 NW-N=
200612252314 SPECI KATL 252314Z 13004KT 4SM BR BKN001 BKN005 BKN044 11/10 A2965 RMK AO2 VIS N-E 3/4 VIS 3/4 NW-N=
200612252252 METAR KATL 252252Z 10005KT 1/4SM FG VV001 11/11 A2964 RMK AO2 SLP038 TWRINC T01110106 RVRNO=
200612252227 SPECI KATL 252227Z 13004KT 1/4SM FG OVC001 11/11 A2964 RMK AO2 SFC VIS 1/2 TWRINC RVRNO=
200612252227 SPECI KATL 252227Z 13004KT 1/4SM FG OVC001 11/11 A2964 RMK AO2 SFC VIS 1/2 TWRINC RVRNO=
200612252152 METAR KATL 252152Z 12005KT 1/4SM BR OVC001 12/11 A2964 RMK AO2 SFC VIS 1 1/4 SLP037 T01170106=
200612252052 METAR KATL 252052Z 12006KT 1/4SM BR OVC001 11/09 A2963 RMK AO2 SFC VIS 3 SLP034 T01060094 56022=
200612252025 SPECI KATL 252025Z 11006KT 1/4SM BR OVC001 11/09 A2963 RMK AO2 SFC VIS 2 1/2=
200612252025 SPECI KATL 252025Z 11006KT 1/4SM BR OVC001 11/09 A2963 RMK AO2 SFC VIS 2 1/2=
200612251952 METAR KATL 251952Z 10008KT 1/4SM BR OVC003 10/09 A2964 RMK AO2 SFC VIS 6 SLP039 T01000089=
200612251852 METAR KATL 251852Z 09009KT 1/4SM BR OVC003 10/09 A2965 RMK AO2 SFC VIS 6 SLP043 T01000089=
200612251828 SPECI KATL 251828Z 09009KT 1/4SM OVC003 10/09 A2967 RMK AO2 SFC VIS 8=
200612251828 SPECI KATL 251828Z 09009KT 1/4SM OVC003 10/09 A2967 RMK AO2 SFC VIS 8=
200612251752 METAR KATL 251752Z 11006KT 1/2SM BR OVC003 09/08 A2970 RMK AO2 SFC VIS 2 RAE42 SLP058 P0002 60013 T00940083 10100 20089 56019=
200612251652 METAR KATL 251652Z 10008KT 1/2SM -RA BR OVC003 09/08 A2972 RMK AO2 SFC VIS 1 1/2 SLP064 P0004 T00940083=
200612251633 SPECI KATL 251633Z 08011G16KT 1/2SM -RA BR OVC003 09/08 A2972 RMK AO2 SFC VIS 6 P0004=
200612251633 SPECI KATL 251633Z 08011G16KT 1/2SM -RA BR OVC003 09/08 A2972 RMK AO2 SFC VIS 6 P0004=
200612251552 METAR KATL 251552Z 09013KT 1/2SM -RA BR OVC005 09/08 A2974 RMK AO2 SFC VIS 2 1/2 RAB21 SLP070 P0000 T00940083=
200612251527 SPECI KATL 251527Z 10011G19KT 1/2SM -RA BR OVC005 09/08 A2974 RMK AO2 SFC VIS 3 RAB21 P0000=
200612251527 SPECI KATL 251527Z 10011G19KT 1/2SM -RA BR OVC005 09/08 A2974 RMK AO2 SFC VIS 3 RAB21 P0000=
200612251509 SPECI KATL 251509Z 09015KT 2SM BR OVC005 09/08 A2975 RMK AO2 SFC VIS 5=
200612251509 SPECI KATL 251509Z 09015KT 2SM BR OVC005 09/08 A2975 RMK AO2 SFC VIS 5=
200612251452 METAR KATL 251452Z 08016KT 7SM OVC005 09/08 A2976 RMK AO2 RAE16 SLP077 P0002 60007 T00890078 56015=
200612251426 SPECI KATL 251426Z 09011G16KT 10SM OVC005 09/08 A2978 RMK AO2 RAE16 CIG 004V010 P0002=
200612251426 SPECI KATL 251426Z 09011G16KT 10SM OVC005 09/08 A2978 RMK AO2 RAE16 CIG 004V010 P0002=
200612251352 METAR KATL 251352Z 08020G25KT 1 1/2SM +RA BR OVC005 09/08 A2976 RMK AO2 SFC VIS 2 CIG 004V011 PRESFR SLP078 P0005 T00890078=
200612251348 SPECI KATL 251348Z 08019G22KT 1 1/2SM +RA BR OVC005 09/08 A2979 RMK AO2 SFC VIS 2 1/2 CIG 005V010 P0002=
200612251348 SPECI KATL 251348Z 08019G22KT 1 1/2SM +RA BR OVC005 09/08 A2979 RMK AO2 SFC VIS 2 1/2 CIG 005V010 P0002=
200612251327 SPECI KATL 251327Z 08017G24KT 3SM -RA BR OVC005 09/08 A2979 RMK AO2 SFC VIS 6 CIG 005V010 P0001=
200612251327 SPECI KATL 251327Z 08017G24KT 3SM -RA BR OVC005 09/08 A2979 RMK AO2 SFC VIS 6 CIG 005V010 P0001=
200612251252 METAR KATL 251252Z 08014KT 10SM -RA OVC005 09/07 A2980 RMK AO2 RAE03B34 SLP092 P0000 T00890072=
200612251152 METAR KATL 251152Z 08019G23KT 10SM -RA OVC005 09/07 A2980 RMK AO2 CIG 004V010 PRESFR SLP091 P0006 60031 70044 T00890072 10100 20089 58030=
200612251052 METAR KATL 251052Z 11008G18KT 6SM -RA BR OVC007 09/08 A2984 RMK AO2 PK WND 08028/0959 RAB04 CIG 005V010 PRESFR SLP106 P0001 T00940078=
200612250952 METAR KATL 250952Z 08021G25KT 10SM OVC007 09/08 A2986 RMK AO2 PK WND 08029/0930 RAE27 SLP112 P0001 T00940078=
200612250852 METAR KATL 250852Z 08020G28KT 5SM -RA BR OVC009 10/08 A2989 RMK AO2 PK WND 09028/0849 CIG 005V012 SLP122 P0003 60023 T01000083 56038=
200612250752 METAR KATL 250752Z 08019KT 5SM RA BR OVC007 10/08 A2992 RMK AO2 CIG 005V010 SLP130 P0010 T01000083=
200612250725 SPECI KATL 250725Z 08015G21KT 6SM -RA BR BKN007 OVC018 10/08 A2994 RMK AO2 P0005=
200612250725 SPECI KATL 250725Z 08015G21KT 6SM -RA BR BKN007 OVC018 10/08 A2994 RMK AO2 P0005=
200612250719 SPECI KATL 250719Z 08017KT 6SM -RA BR BKN010 OVC017 10/08 A2994 RMK AO2 CIG 006V014 P0005=
200612250719 SPECI KATL 250719Z 08017KT 6SM -RA BR BKN010 OVC017 10/08 A2994 RMK AO2 CIG 006V014 P0005=
200612250703 SPECI KATL 250703Z 09017G22KT 5SM RA BR BKN008 BKN014 OVC075 10/08 A2996 RMK AO2 P0002=
200612250703 SPECI KATL 250703Z 09017G22KT 5SM RA BR BKN008 BKN014 OVC075 10/08 A2996 RMK AO2 P0002=
200612250652 METAR KATL 250652Z 09014KT 4SM RA BR FEW006 BKN014 OVC050 10/08 A2997 RMK AO2 SLP150 P0010 T01000083=
200612250629 SPECI KATL 250629Z 09018G25KT 4SM RA BR FEW006 BKN014 OVC050 10/08 A2999 RMK AO2 P0006=
200612250629 SPECI KATL 250629Z 09018G25KT 4SM RA BR FEW006 BKN014 OVC050 10/08 A2999 RMK AO2 P0006=
200612250552 METAR KATL 250552Z 09022G28KT 4SM RA BR FEW005 BKN035 OVC046 10/08 A3001 RMK AO2 PK WND 09028/0548 PRESFR SLP162 P0012 60013 T01000078 10133 20100 56025=
200612250541 SPECI KATL 250541Z 09012G18KT 4SM RA BR FEW010 BKN046 OVC055 11/08 A3003 RMK AO2 P0008=
200612250541 SPECI KATL 250541Z 09012G18KT 4SM RA BR FEW010 BKN046 OVC055 11/08 A3003 RMK AO2 P0008=
200612250452 METAR KATL 250452Z 08014KT 9SM -RA BKN048 BKN055 OVC095 11/08 A3003 RMK AO2 SLP170 P0000 T01060078 401610056=
200612250352 METAR KATL 250352Z 08012KT 9SM -RA BKN050 OVC070 11/07 A3006 RMK AO2 SLP180 P0001 T01110072=
200612250252 METAR KATL 250252Z 09013KT 10SM -RA SCT065 BKN080 OVC100 12/06 A3009 RMK AO2 RAB0157E04B24 SLP189 P0000 60000 T01220056 56008=
200612250152 METAR KATL 250152Z 09010KT 10SM BKN075 OVC100 13/05 A3009 RMK AO2 RAB0053E46 SLP192 P0000 T01280050=
200612250052 METAR KATL 250052Z COR 09009KT 10SM FEW035 BKN100 OVC150 13/04 A3010 RMK AO2 RAB25E35 SLP194 P0000 T01280044=
200612242352 METAR KATL 242352Z 10006KT 10SM FEW045 BKN120 OVC150 13/03 A3011 RMK AO2 SLP198 T01330033 10161 20133 51010=
200612242252 METAR KATL 242252Z 11005KT 10SM FEW045 SCT100 BKN150 OVC250 14/03 A3010 RMK AO2 SLP194 T01390028=
200612242152 METAR KATL 242152Z 10007KT 10SM FEW100 SCT150 OVC250 14/03 A3009 RMK AO2 SLP190 T01440028=
200612242052 METAR KATL 242052Z 08008KT 10SM FEW120 SCT150 OVC250 15/03 A3008 RMK AO2 SLP186 T01500028 55011=
200612241952 METAR KATL 241952Z 09006KT 10SM FEW150 BKN250 16/03 A3007 RMK AO2 SLP183 T01560028=
200612241852 METAR KATL 241852Z 14004KT 10SM FEW150 SCT200 OVC250 14/02 A3009 RMK AO2 SLP191 T01440017=
200612241752 METAR KATL 241752Z 00000KT 10SM FEW150 SCT200 BKN250 13/02 A3011 RMK AO2 SLP198 T01330022 10133 20056 58017=
200612241652 METAR KATL 241652Z 03005KT 10SM FEW150 BKN250 12/02 A3012 RMK AO2 PRESFR SLP203 T01170022=
200612241552 METAR KATL 241552Z 03004KT 10SM FEW150 BKN250 09/02 A3015 RMK AO2 SLP214 T00940022=
200612241452 METAR KATL 241452Z 34006KT 10SM FEW150 BKN250 07/02 A3016 RMK AO2 SLP217 T00720022 51011=
200612241352 METAR KATL 241352Z 32006KT 10SM FEW150 BKN250 06/02 A3016 RMK AO2 SLP216 T00610022=
200612241252 METAR KATL 241252Z 30009KT 10SM FEW150 BKN250 06/02 A3014 RMK AO2 SLP210 T00610017=
200612241152 METAR KATL 241152Z 31011KT 10SM BKN250 06/02 A3013 RMK AO2 SLP205 T00610017 10072 20061 53007=
200612241052 METAR KATL 241052Z 32011KT 10SM SCT250 06/02 A3011 RMK AO2 SLP197 T00610017=
200612240952 METAR KATL 240952Z 33013KT 10SM SCT250 07/02 A3011 RMK AO2 SLP197 T00670017=
200612240852 METAR KATL 240852Z 33013KT 10SM FEW250 07/02 A3011 RMK AO2 SLP196 T00670022 58003=
200612240752 METAR KATL 240752Z 30007KT 10SM FEW250 07/02 A3012 RMK AO2 SLP201 T00670022=
200612240652 METAR KATL 240652Z 32008KT 10SM SCT250 07/03 A3012 RMK AO2 SLP199 T00670028=
200612240552 METAR KATL 240552Z 29005KT 10SM BKN250 07/03 A3012 RMK AO2 SLP199 T00720028 10133 20067 50001=
200612240452 METAR KATL 240452Z 32005KT 10SM SCT250 08/03 A3012 RMK AO2 SLP200 T00780028 401780072=
200612240352 METAR KATL 240352Z 30006KT 10SM SCT250 08/03 A3012 RMK AO2 SLP199 T00830028=
200612240252 METAR KATL 240252Z 30005KT 10SM SCT250 09/03 A3011 RMK AO2 SLP198 T00940028 53007=
200612240152 METAR KATL 240152Z 31006KT 10SM CLR 10/03 A3010=
200612240052 METAR KATL 240052Z 28005KT 10SM FEW250 12/04 A3010=
200612232352 METAR KATL 232352Z 31006KT 10SM FEW250 13/04 A3009=
200612232252 METAR KATL 232252Z 33006KT 10SM FEW250 14/04 A3008 RMK AO2 SLP186 T01390039=
200612232152 METAR KATL 232152Z 29008KT 10SM FEW150 SCT250 16/02 A3007 RMK AO2 SLP179 T01610022=
200612232052 METAR KATL 232052Z 31006KT 10SM FEW150 17/04 A3005 RMK AO2 SLP174 T01720039 56001=
200612231952 METAR KATL 231952Z 28010KT 10SM FEW150 17/03 A3005 RMK AO2 SLP174 T01720028=
200612231852 METAR KATL 231852Z 29011KT 10SM FEW150 17/05 A3004 RMK AO2 SLP170 T01720050=
200612231752 METAR KATL 231752Z 32011KT 10SM FEW150 16/06 A3006 RMK AO2 SLP175 T01560056 10156 20111 58013=
200612231652 METAR KATL 231652Z 30007KT 10SM FEW150 14/07 A3008 RMK AO2 SLP185 T01440067=
200612231552 METAR KATL 231552Z 32008KT 10SM FEW006 SCT012 SCT150 13/08 A3010 RMK AO2 SLP189 T01330078=
200612231508 SPECI KATL 231508Z 32009KT 10SM FEW006 SCT012 SCT150 12/08 A3009 RMK AO2=
200612231508 SPECI KATL 231508Z 32009KT 10SM FEW006 SCT012 SCT150 12/08 A3009 RMK AO2=
200612231507 SPECI KATL 231507Z COR 31009KT 10SM FEW006 SCT012 SCT150 12/08 A3009=
200612231507 SPECI KATL 231507Z 31009KT 10SM FEW006 SCT012 SCT150 12/08 A3009 RMK AO2=
200612231452 METAR KATL 231452Z 31011KT 10SM BKN012 BKN150 12/08 A3009 RMK AO2 SLP190 T01170078 53019=
200612231352 METAR KATL 231352Z 33012KT 10SM BKN010 11/08 A3007 RMK AO2 SLP180 T01110078=
200612231252 METAR KATL 231252Z 31009KT 10SM BKN010 11/08 A3004 RMK AO2 SLP171 T01110083=
200612231248 SPECI KATL 231248Z 30010KT 10SM BKN010 11/08 A3004 RMK AO2=
200612231248 SPECI KATL 231248Z 30010KT 10SM BKN010 11/08 A3004 RMK AO2=
200612231152 METAR KATL 231152Z 29005KT 10SM SCT025 11/08 A3002 RMK AO2 SLP165 60000 70026 T01110083 10161 20111 53012=
200612231052 METAR KATL 231052Z 28004KT 10SM BKN021 OVC040 12/09 A3000 RMK AO2 SLP157 T01220089=
200612230952 METAR KATL 230952Z 29007KT 10SM OVC017 13/09 A2999 RMK AO2 SLP153 T01280094=
200612230948 SPECI KATL 230948Z 29006KT 10SM OVC015 13/09 A2999 RMK AO2=
200612230948 SPECI KATL 230948Z 29006KT 10SM OVC015 13/09 A2999 RMK AO2=
200612230852 METAR KATL 230852Z 31004KT 10SM SCT003 OVC011 14/12 A2998 RMK AO2 SLP150 60000 T01390122 53005=
200612230752 METAR KATL 230752Z 31010KT 5SM BR OVC003 14/13 A2998 RMK AO2 RAB32E41 SLP148 P0000 T01440133=
200612230736 SPECI KATL 230736Z 28009KT 2 1/2SM -RA BR OVC003 16/15 A2996 RMK AO2 SFC VIS 4 RAB32 CIG 002V007 P0000=
200612230736 SPECI KATL 230736Z 28009KT 2 1/2SM -RA BR OVC003 16/15 A2996 RMK AO2 SFC VIS 4 RAB32 CIG 002V007 P0000=
200612230652 METAR KATL 230652Z 24006KT 9SM BKN005 OVC010 16/15 A2997 RMK AO2 SLP145 CIG 004V010 T01610150=
200612230552 METAR KATL 230552Z 22006KT 6SM BR OVC007 16/15 A2997 RMK AO2 SLP144 CIG 005V010 60003 T01610150 10167 20161 58003=
200612230512 SPECI KATL 230512Z 24005KT 8SM OVC008 16/15 A2998 RMK AO2 CIG 004V011=
200612230512 SPECI KATL 230512Z 24005KT 8SM OVC008 16/15 A2998 RMK AO2 CIG 004V011=
200612230452 METAR KATL 230452Z 20005KT 9SM FEW005 BKN012 OVC025 16/15 A2997 RMK AO2 RAB15E43 SLP147 P0003 T01610150 401780117=
200612230444 SPECI KATL 230444Z 21004KT 7SM FEW005 BKN012 OVC025 16/15 A2998 RMK AO2 RAB15E43 P0003=
200612230444 SPECI KATL 230444Z 21004KT 7SM FEW005 BKN012 OVC025 16/15 A2998 RMK AO2 RAB15E43 P0003=
200612230429 SPECI KATL 230429Z 21006KT 7SM -RA FEW005 SCT012 OVC025 16/15 A2999 RMK AO2 RAB15 P0003=
200612230429 SPECI KATL 230429Z 21006KT 7SM -RA FEW005 SCT012 OVC025 16/15 A2999 RMK AO2 RAB15 P0003=
200612230416 SPECI KATL 230416Z 21008KT 7SM -RA FEW004 BKN014 OVC035 16/15 A2999 RMK AO2 RAB15 P0000=
200612230416 SPECI KATL 230416Z 21008KT 7SM -RA FEW004 BKN014 OVC035 16/15 A2999 RMK AO2 RAB15 P0000=
200612230352 METAR KATL 230352Z 22007KT 10SM FEW004 BKN022 OVC045 16/14 A2999 RMK AO2 SLP153 T01610144=
200612230334 SPECI KATL 230334Z 22006KT 10SM FEW009 BKN025 OVC075 16/14 A2999 RMK AO2=
200612230334 SPECI KATL 230334Z 22006KT 10SM FEW009 BKN025 OVC075 16/14 A2999 RMK AO2=
200612230258 SPECI KATL 230258Z 18005KT 10SM FEW009 SCT028 OVC060 16/15 A2997 RMK AO2=
200612230258 SPECI KATL 230258Z 18005KT 10SM FEW009 SCT028 OVC060 16/15 A2997 RMK AO2=
200612230252 METAR KATL 230252Z 19005KT 10SM SCT009 BKN028 OVC050 16/15 A2998 RMK AO2 SLP148 T01610150 53005=
200612230228 SPECI KATL 230228Z 23006KT 10SM FEW008 SCT028 BKN050 OVC150 16/14 A2998 RMK AO2=
200612230228 SPECI KATL 230228Z 23006KT 10SM FEW008 SCT028 BKN050 OVC150 16/14 A2998 RMK AO2=
200612230213 SPECI KATL 230213Z 20007KT 10SM FEW008 BKN027 OVC150 16/14 A2998 RMK AO2=
200612230213 SPECI KATL 230213Z 20007KT 10SM FEW008 BKN027 OVC150 16/14 A2998 RMK AO2=
200612230152 METAR KATL 230152Z 21006KT 10SM FEW008 SCT028 BKN035 OVC150 16/14 A2997 RMK AO2 SLP147 T01610144=
200612230141 SPECI KATL 230141Z 19004KT 10SM FEW008 BKN028 BKN035 OVC150 16/15 A2997 RMK AO2=
200612230141 SPECI KATL 230141Z 19004KT 10SM FEW008 BKN028 BKN035 OVC150 16/15 A2997 RMK AO2=
200612230052 METAR KATL 230052Z 22005KT 10SM FEW010 BKN038 BKN150 OVC200 17/15 A2996 RMK AO2 SLP143 T01670150=
200612222352 METAR KATL 222352Z 21003KT 10SM FEW010 BKN045 BKN150 OVC200 17/15 A2996 RMK AO2 SLP143 60000 T01670150 10178 20167 51007=
200612222252 METAR KATL 222252Z 26005KT 10SM FEW010 SCT060 BKN110 OVC150 17/15 A2996 RMK AO2 SLP143 VIRGA VC NE-SE T01670150=
200612222152 METAR KATL 222152Z COR 25007KT 10SM FEW010 SCT055 SCT100 OVC150 17/16 A2996 RMK AO2 PRESRR SLP144 VIRGA NE-S T01720156=
200612222052 METAR KATL 222052Z 23005KT 10SM FEW010 SCT030 SCT100 OVC150 17/16 A2994 RMK AO2 SLP136 VIRGA OHD AND ALQDS 60000 T01720156 51011=
200612221952 METAR KATL 221952Z 18004KT 10SM FEW010 SCT030 SCT100 OVC150 18/16 A2993 RMK AO2 SLP133 VIRGA OHD AND ALQDS T01780156=
200612221916 SPECI KATL 221916Z 19005KT 10SM FEW007 SCT012 BKN030 18/16 A2993 RMK AO2=
200612221916 SPECI KATL 221916Z 19005KT 10SM FEW007 SCT012 BKN030 18/16 A2993 RMK AO2=
200612221908 SPECI KATL 221908Z 25006KT 10SM SCT007 BKN012 OVC032 18/16 A2994 RMK AO2=
200612221908 SPECI KATL 221908Z 25006KT 10SM SCT007 BKN012 OVC032 18/16 A2994 RMK AO2=
200612221906 SPECI KATL 221906Z 26005KT 10SM BKN007 BKN012 OVC026 18/16 A2994 RMK AO2 CIG 005V008=
200612221906 SPECI KATL 221906Z 26005KT 10SM BKN007 BKN012 OVC026 18/16 A2994 RMK AO2 CIG 005V008=
200612221852 METAR KATL 221852Z 26007KT 9SM OVC005 17/16 A2993 RMK AO2 RAE09 CIG 004V010 SLP134 P0000 T01720156=
200612221813 SPECI KATL 221813Z 18009KT 6SM BR OVC005 17/16 A2992 RMK AO2 RAE09 P0000=
200612221813 SPECI KATL 221813Z 18009KT 6SM BR OVC005 17/16 A2992 RMK AO2 RAE09 P0000=
200612221752 METAR KATL 221752Z 15007KT 1/2SM -RA BR OVC003 17/16 A2991 RMK AO2 SFC VIS 3 RAB05 SLP124 TWRINC P0000 60023 T01670156 10167 20133 58036=
200612221652 METAR KATL 221652Z VRB05KT 1/2SM BR OVC003 17/16 A2995 RMK AO2 SFC VIS 3 SLP140 TWRINC T01670156=
200612221642 SPECI KATL 221642Z 15008KT 1/2SM BR OVC005 17/16 A2995 RMK AO2 SFC VIS 3=
200612221642 SPECI KATL 221642Z 15008KT 1/2SM BR OVC005 17/16 A2995 RMK AO2 SFC VIS 3=
200612221630 SPECI KATL 221630Z 18007KT 1SM BR OVC005 17/15 A2997 RMK AO2 SFC VIS 4=
200612221630 SPECI KATL 221630Z 18007KT 1SM BR OVC005 17/15 A2997 RMK AO2 SFC VIS 4=
200612221622 SPECI KATL 221622Z 16006KT 6SM BR BKN007 OVC150 17/15 A2997 RMK AO2 CIG 003V010=
200612221622 SPECI KATL 221622Z 16006KT 6SM BR BKN007 OVC150 17/15 A2997 RMK AO2 CIG 003V010=
200612221552 METAR KATL 221552Z 16004KT 9SM FEW008 BKN012 OVC030 16/14 A3000 RMK AO2 RAE44 SLP157 BINOVC DSNT N P0000 T01610144=
200612221455 SPECI KATL 221455Z 22003KT 8SM -RA FEW005 BKN013 OVC030 16/14 A3001 RMK AO2 P0000=
200612221455 SPECI KATL 221455Z 22003KT 8SM -RA FEW005 BKN013 OVC030 16/14 A3001 RMK AO2 P0000=
200612221452 METAR KATL 221452Z 25004KT 6SM -RA BR SCT005 BKN015 OVC030 16/14 A3001 RMK AO2 SLP162 P0012 60023 T01560144 53008=
200612221450 SPECI KATL 221450Z 26006KT 1SM -RA BR SCT005 BKN015 OVC030 16/14 A3001 RMK AO2 SFC VIS 4 P0012=
200612221450 SPECI KATL 221450Z 26006KT 1SM -RA BR SCT005 BKN015 OVC030 16/14 A3001 RMK AO2 SFC VIS 4 P0012=
200612221442 SPECI KATL 221442Z 25006KT 1SM RA BR BKN005 OVC015 16/14 A3002 RMK AO2 SFC VIS 2 CIG 003V007 VIS NE-S 3/4SM SHRA P0011=
200612221442 SPECI KATL 221442Z 25006KT 1SM RA BR BKN005 OVC015 16/14 A3002 RMK AO2 SFC VIS 2 CIG 003V007 VIS NE-S 3/4SM SHRA P0011=
200612221437 SPECI KATL 221437Z 27009KT 1SM +RA BR BKN005 BKN009 OVC015 16/14 A3001 RMK AO2 CIG 003V007 P0008 RVRNO=
200612221437 SPECI KATL 221437Z 27009KT 1SM +RA BR BKN005 BKN009 OVC015 16/14 A3001 RMK AO2 CIG 003V007 P0008 RVRNO=
200612221420 SPECI KATL 221420Z 15009KT 1SM -RA BR OVC005 16/14 A2999 RMK AO2 SFC VIS 3 CIG 003V009 P0001=
200612221420 SPECI KATL 221420Z 15009KT 1SM -RA BR OVC005 16/14 A2999 RMK AO2 SFC VIS 3 CIG 003V009 P0001=
200612221352 METAR KATL 221352Z 14009KT 2 1/2SM -RA BR OVC005 15/14 A2998 RMK AO2 SFC VIS 4 CIG 002V010 SLP149 P0002 T01500139=
200612221312 SPECI KATL 221312Z 12008KT 2 1/2SM -RA BR OVC005 14/13 A2998 RMK AO2 SFC VIS 4 CIG 002V008 P0000=
200612221312 SPECI KATL 221312Z 12008KT 2 1/2SM -RA BR OVC005 14/13 A2998 RMK AO2 SFC VIS 4 CIG 002V008 P0000=
200612221252 METAR KATL 221252Z 11008KT 1/2SM -RA BR BKN003 OVC007 14/13 A2999 RMK AO2 SFC VIS 5 CIG 001V005 SLP155 TWRINC P0009 T01390128=
200612221246 SPECI KATL 221246Z 12008KT 1/2SM -RA BR OVC003 14/13 A3000 RMK AO2 SFC VIS 5 CIG 001V008 TWRINC P0009=
200612221246 SPECI KATL 221246Z 12008KT 1/2SM -RA BR OVC003 14/13 A3000 RMK AO2 SFC VIS 5 CIG 001V008 TWRINC P0009=
200612221240 SPECI KATL 221240Z 12006KT 1/2SM -RA BR BKN001 OVC006 14/13 A3000 RMK AO2 SFC VIS 4 TWRINC P0009=
200612221240 SPECI KATL 221240Z 12006KT 1/2SM -RA BR BKN001 OVC006 14/13 A3000 RMK AO2 SFC VIS 4 TWRINC P0009=
200612221152 METAR KATL 221152Z 11008KT 1/4SM RA BR OVC001 13/12 A3000 RMK AO2 SFC VIS 1 3/4 DZE39RAB39 SLP160 TWRINC P0002 60018 70023 T01330122 10133 20117 56012=
200612221052 METAR KATL 221052Z COR 12009KT 1/4SM -DZ BR OVC001 13/12 A3002 RMK AO2 SFC VIS 2 1/2 SLP166 TWRINC P0000 T01280117=
200612221022 SPECI KATL 221022Z 12009KT 1/4SM -DZ BR VV001 12/12 A3002 RMK AO2 SFC VIS 3/4 P0000 RVRNO=
200612221022 SPECI KATL 221022Z 12009KT 1/4SM -DZ BR VV001 12/12 A3002 RMK AO2 SFC VIS 3/4 P0000 RVRNO=
200612220952 METAR KATL 220952Z 12008KT 1/4SM -DZ BR OVC002 12/12 A3002 RMK AO2 SFC VIS 1 1/2 RAE15DZB48 SLP165 TWRINC P0001 T01220117=
200612220852 METAR KATL 220852Z 10011KT 1/4SM -RA BR OVC002 12/11 A3004 RMK AO2 SFC VIS 1 1/2 DZE15RAB15 SLP173 P0001 60015 T01170106 56033=
200612220752 METAR KATL 220752Z 09011KT 1/4SM -DZ BR OVC002 12/11 A3006 RMK AO2 SFC VIS 2 1/2 RAE23DZB24 SLP181 TWRINC P0000 T01170106=
200612220652 METAR KATL 220652Z 08009KT 1/4SM -RA BR OVC004 12/11 A3010 RMK AO2 SFC VIS 6 CIG 002V007 SLP192 TWRINC P0014 T01170106=
200612220552 METAR KATL 220552Z 10008KT 1/4SM -RA BR OVC002 12/11 A3014 RMK AO2 SFC VIS 1 3/4 DZE22RAB22 SLP206 CIG 001V004 P0004 60005 T01170106 10117 20111 58017=
200612220452 METAR KATL 220452Z 11008KT 1/4SM -DZ BR OVC001 12/11 A3016 RMK AO2 SFC VIS 3/4 DZB17 SLP214 P0000 T01170106 401170078 RVRNO=
200612220418 SPECI KATL 220418Z 10007KT 1/2SM -DZ BR OVC002 12/10 A3017 RMK AO2 SFC VIS 2 DZB17 P0000=
200612220418 SPECI KATL 220418Z 10007KT 1/2SM -DZ BR OVC002 12/10 A3017 RMK AO2 SFC VIS 2 DZB17 P0000=
200612220406 SPECI KATL 220406Z 10010KT 3/4SM BR OVC003 12/10 A3017 RMK AO2 SFC VIS 3=
200612220406 SPECI KATL 220406Z 10010KT 3/4SM BR OVC003 12/10 A3017 RMK AO2 SFC VIS 3=
200612220354 SPECI KATL 220354Z 10007KT 2 1/2SM BR OVC004 12/10 A3018 RMK AO2 SFC VIS 4=
200612220354 SPECI KATL 220354Z 10007KT 2 1/2SM BR OVC004 12/10 A3018 RMK AO2 SFC VIS 4=
200612220352 METAR KATL 220352Z 09007KT 5SM BR OVC004 12/10 A3018 RMK AO2 RAE30 SLP220 P0001 T01170100=
200612220341 SPECI KATL 220341Z 10008KT 5SM BR OVC004 12/10 A3018 RMK AO2 RAE30 P0001=
200612220341 SPECI KATL 220341Z 10008KT 5SM BR OVC004 12/10 A3018 RMK AO2 RAE30 P0001=
200612220252 METAR KATL 220252Z 09009KT 6SM -RA BR OVC006 12/09 A3019 RMK AO2 RAB34 SLP224 P0000 60000 T01170094 56014=
200612220152 METAR KATL 220152Z 10010KT 9SM OVC008 12/08 A3020 RMK AO2 RAB29E40 SLP229 P0000 T01170083=
200612220138 SPECI KATL 220138Z 10009KT 10SM -RA OVC008 12/08 A3021 RMK AO2 RAB29 P0000=
200612220138 SPECI KATL 220138Z 10009KT 10SM -RA OVC008 12/08 A3021 RMK AO2 RAB29 P0000=
200612220052 METAR KATL 220052Z 10011KT 10SM OVC010 12/08 A3022 RMK AO2 SLP234 T01170078=
200612212352 METAR KATL 212352Z 09011KT 10SM BKN010 OVC060 12/07 A3023 RMK AO2 SLP238 CIG 009V013 60000 T01170072 10117 20100 58001=
200612212252 METAR KATL 212252Z 08010KT 9SM OVC012 12/08 A3024 RMK AO2 SLP241 T01170078=
200612212152 METAR KATL 212152Z 09010KT 8SM OVC012 12/08 A3025 RMK AO2 SLP244 T01170078=
200612212052 METAR KATL 212052Z 09008KT 7SM OVC012 11/07 A3024 RMK AO2 SLP240 60000 T01110072 56011=
200612211952 METAR KATL 211952Z 07008KT 8SM OVC012 11/07 A3024 RMK AO2 RAE13 SLP242 P0000 T01060072=
200612211852 METAR KATL 211852Z 09009KT 7SM -RA OVC010 11/07 A3024 RMK AO2 RAE10B32 SLP242 P0000 T01060072=
200612211752 METAR KATL 211752Z 08009KT 6SM -RA BR OVC010 10/08 A3027 RMK AO2 SLP251 P0000 60000 T01000078 10100 20083 58020=
200612211652 METAR KATL 211652Z 08008KT 8SM -RA OVC010 10/06 A3031 RMK AO2 RAB47 SLP264 P0000 T01000056=
200612211552 METAR KATL 211552Z 09008KT 7SM OVC012 10/05 A3033 RMK AO2 SLP273 T01000050=
200612211452 METAR KATL 211452Z 08009KT 8SM OVC012 09/05 A3033 RMK AO2 SLP273 T00940050 51018=
200612211352 METAR KATL 211352Z 09009KT 9SM OVC010 09/05 A3032 RMK AO2 SLP268 T00890050=
200612211252 METAR KATL 211252Z 11010KT 10SM OVC010 08/04 A3029 RMK AO2 SLP259 T00830044=
200612211152 METAR KATL 211152Z 09013KT 10SM OVC011 09/03 A3028 RMK AO2 SLP253 T00890033 10111 20089 56017=
200612211052 METAR KATL 211052Z 09011KT 10SM OVC013 09/03 A3029 RMK AO2 SLP258 T00940028=
200612211014 SPECI KATL 211014Z 09013KT 10SM OVC013 09/02 A3030 RMK AO2=
200612211014 SPECI KATL 211014Z 09013KT 10SM OVC013 09/02 A3030 RMK AO2=
200612210952 METAR KATL 210952Z 09010KT 10SM OVC015 10/02 A3031 RMK AO2 SLP263 T01000017=
200612210852 METAR KATL 210852Z 08011KT 10SM OVC017 10/01 A3033 RMK AO2 SLP270 T01000006 58001=
200612210752 METAR KATL 210752Z 08012KT 10SM OVC019 11/01 A3034 RMK AO2 SLP273 T01060006=
200612210652 METAR KATL 210652Z 09008KT 10SM OVC019 11/00 A3034 RMK AO2 SLP273 T01110000=
200612210552 METAR KATL 210552Z 09011KT 10SM OVC021 11/01 A3033 RMK AO2 SLP270 T01110006 10122 20111 50003=
200612210452 METAR KATL 210452Z 09011KT 10SM OVC023 11/02 A3034 RMK AO2 SLP275 T01110017 401610100=
200612210352 METAR KATL 210352Z 10012KT 10SM OVC023 12/02 A3033 RMK AO2 SLP270 T01170022=
200612210252 METAR KATL 210252Z 08013KT 10SM OVC023 12/04 A3032 RMK AO2 SLP269 T01170039 50001=
200612210152 METAR KATL 210152Z 08013KT 10SM OVC023 12/04 A3033 RMK AO2 SLP273 T01170044=
200612210127 SPECI KATL 210127Z 08013KT 10SM BKN023 BKN150 OVC200 12/05 A3033 RMK AO2=
200612210127 SPECI KATL 210127Z 08013KT 10SM BKN023 BKN150 OVC200 12/05 A3033 RMK AO2=
200612210110 SPECI KATL 210110Z 08010KT 10SM SCT024 BKN150 OVC200 11/05 A3032 RMK AO2=
200612210110 SPECI KATL 210110Z 08010KT 10SM SCT024 BKN150 OVC200 11/05 A3032 RMK AO2=
200612210059 SPECI KATL 210059Z 09011KT 10SM BKN024 BKN150 OVC200 12/05 A3033 RMK AO2=
200612210059 SPECI KATL 210059Z 09011KT 10SM BKN024 BKN150 OVC200 12/05 A3033 RMK AO2=
200612210052 METAR KATL 210052Z 09007KT 10SM FEW022 BKN150 OVC200 12/05 A3033 RMK AO2 SLP271 T01170050=
200612210035 SPECI KATL 210035Z 09014KT 10SM SCT022 BKN150 OVC200 12/06 A3032 RMK AO2=
200612210035 SPECI KATL 210035Z 09014KT 10SM SCT022 BKN150 OVC200 12/06 A3032 RMK AO2=
200612210014 SPECI KATL 210014Z 08009KT 10SM BKN022 BKN150 OVC200 12/06 A3032 RMK AO2=
200612210014 SPECI KATL 210014Z 08009KT 10SM BKN022 BKN150 OVC200 12/06 A3032 RMK AO2=
200612202355 SPECI KATL 202355Z 09010KT 10SM SCT022 BKN150 OVC200 12/06 A3032 RMK AO2=
200612202355 SPECI KATL 202355Z 09010KT 10SM SCT022 BKN150 OVC200 12/06 A3032 RMK AO2=
200612202352 METAR KATL 202352Z 09010KT 10SM BKN022 BKN150 OVC200 12/06 A3032 RMK AO2 SLP268 T01220056 10161 20122 53007=
200612202252 METAR KATL 202252Z 09010KT 10SM OVC021 13/06 A3030 RMK AO2 SLP260 T01330056=
200612202152 METAR KATL 202152Z 09008KT 10SM BKN023 BKN150 OVC180 14/06 A3029 RMK AO2 SLP258 T01390061=
200612202148 SPECI KATL 202148Z 09011KT 10SM BKN023 BKN150 OVC180 14/06 A3029 RMK AO2=
200612202148 SPECI KATL 202148Z 09011KT 10SM BKN023 BKN150 OVC180 14/06 A3029 RMK AO2=
200612202121 SPECI KATL 202121Z 10011KT 10SM SCT023 BKN150 OVC180 14/07 A3028 RMK AO2=
200612202121 SPECI KATL 202121Z 10011KT 10SM SCT023 BKN150 OVC180 14/07 A3028 RMK AO2=
200612202059 SPECI KATL 202059Z 09011KT 10SM BKN023 BKN150 OVC180 14/07 A3028 RMK AO2=
200612202059 SPECI KATL 202059Z 09011KT 10SM BKN023 BKN150 OVC180 14/07 A3028 RMK AO2=
200612202052 METAR KATL 202052Z 11010KT 10SM FEW023 SCT080 BKN150 OVC180 14/07 A3028 RMK AO2 SLP252 T01440072 55013=
200612201952 METAR KATL 201952Z 12010KT 10SM FEW100 BKN150 OVC180 15/07 A3028 RMK AO2 SLP252 T01500067=
200612201852 METAR KATL 201852Z 10010KT 10SM FEW100 SCT150 SCT180 BKN250 16/06 A3029 RMK AO2 SLP258 T01560056=
200612201752 METAR KATL 201752Z 08011KT 10SM FEW150 SCT180 BKN250 15/05 A3032 RMK AO2 SLP266 T01500050 10150 20100 58018=
200612201652 METAR KATL 201652Z 10010KT 10SM BKN150 BKN180 BKN250 14/04 A3036 RMK AO2 SLP281 T01390044=
200612201552 METAR KATL 201552Z 10014G18KT 10SM FEW150 SCT180 BKN250 13/03 A3037 RMK AO2 SLP285 T01280033=
200612201452 METAR KATL 201452Z 09014G23KT 10SM FEW150 BKN180 OVC250 12/03 A3037 RMK AO2 SLP286 T01170033 53012=
200612201352 METAR KATL 201352Z 08013G20KT 10SM FEW150 BKN200 BKN250 11/04 A3036 RMK AO2 SLP282 T01110039=
200612201252 METAR KATL 201252Z 08012KT 10SM SCT150 BKN200 BKN250 10/04 A3035 RMK AO2 SLP277 T01000044=
200612201152 METAR KATL 201152Z 08012KT 10SM FEW100 BKN150 BKN250 11/05 A3034 RMK AO2 SLP273 T01060050 10122 20106 53013=
200612201052 METAR KATL 201052Z 08011KT 10SM FEW100 BKN150 BKN250 11/06 A3029 RMK AO2 SLP257 T01110056=
200612200952 METAR KATL 200952Z 07011KT 10SM BKN150 BKN200 BKN250 11/06 A3030 RMK AO2 SLP259 T01110061=
200612200852 METAR KATL 200852Z 07011KT 10SM BKN150 BKN200 BKN250 12/07 A3030 RMK AO2 SLP257 T01170072 53006=
200612200752 METAR KATL 200752Z 07008KT 10SM BKN150 BKN200 BKN250 12/08 A3029 RMK AO2 SLP253 T01170078=
200612200652 METAR KATL 200652Z 03005KT 10SM SCT150 BKN200 BKN250 12/08 A3028 RMK AO2 SLP251 T01170083=
200612200552 METAR KATL 200552Z 31003KT 10SM FEW150 12/08 A3028 RMK AO2 SLP251 T01170083 10161 20111 58001=
200612200452 METAR KATL 200452Z 33005KT 10SM CLR 12/08 A3028 RMK AO2 SLP252 T01170083 402060094=
200612200352 METAR KATL 200352Z 31003KT 10SM FEW150 12/09 A3028 RMK AO2 SLP253 T01220089=
200612200252 METAR KATL 200252Z 33008KT 10SM SCT150 14/09 A3028 RMK AO2 SLP253 T01390089 51004=
200612200152 METAR KATL 200152Z 32007KT 10SM FEW150 14/09 A3028 RMK AO2 SLP254 T01390089=
200612200052 METAR KATL 200052Z 33005KT 10SM CLR 14/09 A3028 RMK AO2 SLP253 T01440094=
200612192352 METAR KATL 192352Z 32009KT 10SM CLR 16/10 A3027 RMK AO2 SLP249 T01610100 10206 20156 53004=
200612192252 METAR KATL 192252Z COR 32007KT 10SM CLR 17/10 A3026 RMK AO2 SLP245 T01670100=
200612192152 METAR KATL 192152Z COR 35008KT 9SM FEW250 19/11 A3026 RMK AO2 SLP245 T01940106=
200612192052 METAR KATL 192052Z 31009KT 9SM FEW250 20/11 A3026 RMK AO2 SLP243 T02000106 55010=
200612191952 METAR KATL 191952Z 34010KT 9SM FEW250 21/11 A3025 RMK AO2 SLP241 T02060106=
200612191852 METAR KATL 191852Z 34011KT 9SM CLR 20/10 A3026 RMK AO2 SLP244 T02000100=
200612191752 METAR KATL 191752Z 33012KT 10SM FEW250 21/10 A3029 RMK AO2 SLP253 T02060100 10206 20094 58012=
200612191652 METAR KATL 191652Z 32011KT 10SM FEW250 19/10 A3031 RMK AO2 SLP260 T01940100=
200612191552 METAR KATL 191552Z 32011KT 8SM CLR 18/10 A3034 RMK AO2 SLP273 T01780100=
200612191452 METAR KATL 191452Z 32006KT 7SM CLR 14/09 A3032 RMK AO2 SLP267 T01440094 53008=
200612191352 METAR KATL 191352Z 31004KT 8SM FEW095 SCT250 12/08 A3030 RMK AO2 SLP260 T01170083=
200612191252 METAR KATL 191252Z 30005KT 8SM FEW095 SCT250 10/07 A3030 RMK AO2 SLP261 T01000072=
200612191152 METAR KATL 191152Z 31007KT 7SM FEW095 SCT250 10/07 A3030 RMK AO2 SLP259 T01000072 10122 20094 53013=
200612191052 METAR KATL 191052Z 31005KT 8SM FEW095 11/07 A3028 RMK AO2 SLP252 T01060072=
200612190952 METAR KATL 190952Z 30004KT 8SM SCT095 11/07 A3027 RMK AO2 SLP248 T01110072=
200612190852 METAR KATL 190852Z 31006KT 10SM FEW100 12/07 A3026 RMK AO2 SLP244 T01170072 58005=
200612190752 METAR KATL 190752Z 30004KT 9SM CLR 12/08 A3027 RMK AO2 SLP246 T01170078=
200612190652 METAR KATL 190652Z 30005KT 10SM CLR 11/08 A3028 RMK AO2 SLP250 T01060078=
200612190552 METAR KATL 190552Z 32007KT 10SM CLR 12/07 A3028 RMK AO2 SLP250 T01170072 10189 20111 57006=
200612190452 METAR KATL 190452Z 27003KT 10SM CLR 13/07 A3029 RMK AO2 SLP253 T01280072 402280089=
200612190352 METAR KATL 190352Z 00000KT 10SM FEW090 14/08 A3029 RMK AO2 SLP253 T01390078=
200612190252 METAR KATL 190252Z 00000KT 10SM SCT090 15/07 A3029 RMK AO2 SLP257 T01500072 51004=
200612190152 METAR KATL 190152Z 34003KT 10SM FEW080 15/07 A3030 RMK AO2 SLP258 T01500072=
200612190052 METAR KATL 190052Z 32003KT 10SM FEW080 16/07 A3029 RMK AO2 SLP258 T01560072=
200612182352 METAR KATL 182352Z 36005KT 10SM FEW080 18/07 A3028 RMK AO2 SLP254 T01830072 10228 20183 52004=
200612182252 METAR KATL 182252Z 34004KT 10SM CLR 21/07 A3028 RMK AO2 SLP251 T02060072=
200612182152 METAR KATL 182152Z 30003KT 10SM FEW080 21/08 A3027 RMK AO2 SLP250 T02110078=
200612182052 METAR KATL 182052Z 32003KT 10SM CLR 23/07 A3027 RMK AO2 SLP247 T02280067 56012=
200612181952 METAR KATL 181952Z 00000KT 10SM CLR 22/09 A3027 RMK AO2 SLP248 T02220094=
200612181852 METAR KATL 181852Z 00000KT 10SM CLR 22/09 A3028 RMK AO2 SLP252 T02170094=
200612181752 METAR KATL 181752Z 30008KT 8SM CLR 20/12 A3031 RMK AO2 SLP260 T02000117 10211 20089 58012=
200612181652 METAR KATL 181652Z 22003KT 7SM CLR 19/12 A3033 RMK AO2 SLP268 T01940117=
200612181552 METAR KATL 181552Z 23004KT 5SM HZ CLR 18/12 A3035 RMK AO2 SLP276 T01780117=
200612181452 METAR KATL 181452Z 00000KT 4SM HZ CLR 15/12 A3034 RMK AO2 SLP274 T01500117 51013=
200612181352 METAR KATL 181352Z 00000KT 3SM BR CLR 12/09 A3033 RMK AO2 SLP271 T01170094=
200612181252 METAR KATL 181252Z 09003KT 3SM BR CLR 09/08 A3032 RMK AO2 SLP267 T00940078=
200612181152 METAR KATL 181152Z 00000KT 6SM BR FEW001 09/07 A3030 RMK AO2 SLP261 T00940072 10117 20089 53012 $=
200612181052 METAR KATL 181052Z 00000KT 8SM CLR 09/07 A3029 RMK AO2 SLP256 T00940072 $=
200612180952 METAR KATL 180952Z 00000KT 8SM CLR 09/08 A3028 RMK AO2 SLP251 T00940078 $=
200612180852 METAR KATL 180852Z 00000KT 8SM CLR 10/08 A3027 RMK AO2 SLP248 T01000083 50002 $=
200612180827 SPECI KATL 180827Z 00000KT 8SM FEW001 10/08 A3027 RMK AO2 $=
200612180827 SPECI KATL 180827Z 00000KT 8SM FEW001 10/08 A3027 RMK AO2 $=
200612180752 METAR KATL 180752Z 00000KT 10SM CLR 11/08 A3027 RMK AO2 SLP247 T01060083 $=
200612180652 METAR KATL 180652Z 00000KT 10SM CLR 11/08 A3026 RMK AO2 SLP245 T01060078 $=
200612180552 METAR KATL 180552Z 00000KT 9SM CLR 12/09 A3026 RMK AO2 SLP245 T01170089 10172 20117 58002 $=
200612180452 METAR KATL 180452Z 14003KT 9SM CLR 12/08 A3027 RMK AO2 SLP247 T01220083 402170072 $=
200612180352 METAR KATL 180352Z COR 14003KT 8SM FEW090 13/08 A3027 RMK AO2 SLP250 T01330078 $=
200612180252 METAR KATL 180252Z 00000KT 9SM FEW090 13/07 A3027 RMK AO2 SLP249 T01280072 50004 $=
200612180152 METAR KATL 180152Z 12004KT 10SM FEW090 SCT250 14/07 A3027 RMK AO2 SLP251 T01440072 $=
200612180052 METAR KATL 180052Z 12003KT 10SM FEW090 SCT250 16/07 A3026 RMK AO2 SLP248 T01610067 $=
200612172352 METAR KATL 172352Z COR 13003KT 10SM FEW250 17/07 A3026 RMK AO2 SLP246 T01720067 10217 20172 51010 $=
200612172252 METAR KATL 172252Z 00000KT 10SM FEW250 18/03 A3025 RMK AO2 SLP242 T01830033 $=
200612172152 METAR KATL 172152Z 19004KT 10SM FEW250 21/04 A3024 RMK AO2 SLP237 T02060039 $=
200612172052 METAR KATL 172052Z 17005KT 10SM FEW250 21/03 A3023 RMK AO2 SLP233 T02110033 55012 $=
200612171952 METAR KATL 171952Z 21006KT 10SM SCT250 21/04 A3022 RMK AO2 SLP232 T02110039 $=
200612171852 METAR KATL 171852Z 23006KT 10SM SCT250 21/04 A3025 RMK AO2 SLP239 T02110039 $=
200612171752 METAR KATL 171752Z 10003KT 10SM FEW250 21/06 A3026 RMK AO2 SLP244 T02060061 10206 20072 58015 $=
200612171652 METAR KATL 171652Z 11005KT 10SM FEW250 18/07 A3029 RMK AO2 SLP254 T01830067 $=
200612171552 METAR KATL 171552Z VRB03KT 10SM FEW250 16/06 A3031 RMK AO2 SLP263 T01560061 $=
200612171452 METAR KATL 171452Z 09005KT 10SM FEW250 13/06 A3031 RMK AO2 SLP262 T01330061 53018 $=
200612171352 METAR KATL 171352Z 09003KT 9SM SCT250 11/06 A3029 RMK AO2 SLP256 T01110061 $=
200612171252 METAR KATL 171252Z 07005KT 10SM FEW250 07/03 A3027 RMK AO2 SLP251 T00720033 $=
200612171152 METAR KATL 171152Z 00000KT 10SM CLR 07/03 A3025 RMK AO2 SLP244 T00720028 10117 20072 51006 $=
200612171052 METAR KATL 171052Z 09003KT 10SM CLR 09/03 A3025 RMK AO2 SLP241 T00890033 $=
200612170952 METAR KATL 170952Z 00000KT 10SM CLR 08/03 A3024 RMK AO2 SLP237 T00830028 $=
200612170852 METAR KATL 170852Z 07004KT 10SM CLR 09/03 A3023 RMK AO2 SLP235 T00940033 53005 $=
200612170752 METAR KATL 170752Z 00000KT 10SM CLR 11/03 A3023 RMK AO2 SLP232 T01060033 $=
200612170652 METAR KATL 170652Z 00000KT 10SM CLR 12/03 A3022 RMK AO2 SLP230 T01170033 $=
200612170552 METAR KATL 170552Z 00000KT 10SM CLR 11/03 A3022 RMK AO2 SLP230 T01110033 10172 20106 51007 $=
200612170452 METAR KATL 170452Z 00000KT 10SM CLR 11/03 A3022 RMK AO2 SLP230 T01110028 402220050 $=
200612170352 METAR KATL 170352Z 00000KT 10SM CLR 12/03 A3021 RMK AO2 SLP227 T01220033 $=
200612170252 METAR KATL 170252Z 00000KT 10SM CLR 13/04 A3020 RMK AO2 SLP225 T01330039 51012 $=
200612170152 METAR KATL 170152Z 22003KT 10SM FEW250 13/05 A3018 RMK AO2 SLP222 T01330050 $=
200612170052 METAR KATL 170052Z 13004KT 10SM FEW250 16/04 A3017 RMK AO2 SLP218 T01610039 $=
200612162352 METAR KATL 162352Z 00000KT 10SM FEW250 17/04 A3016 RMK AO2 SLP214 T01720044 10222 20161 53010 $=
200612162252 METAR KATL 162252Z 00000KT 10SM FEW250 19/03 A3014 RMK AO2 SLP206 T01940033 $=
200612162152 METAR KATL 162152Z 20005KT 10SM FEW250 21/03 A3013 RMK AO2 SLP200 T02110033 $=
200612162052 METAR KATL 162052Z 20006KT 10SM FEW250 22/02 A3013 RMK AO2 SLP201 T02220022 55003 $=
200612161952 METAR KATL 161952Z 19006KT 10SM FEW250 22/02 A3011 RMK AO2 SLP195 T02220017 $=
200612161852 METAR KATL 161852Z 18005KT 10SM FEW250 22/02 A3012 RMK AO2 SLP198 T02170017 $=
200612161752 METAR KATL 161752Z COR 16006KT 10SM FEW250 21/02 A3014 RMK AO2 SLP204 T02110017 10211 20050 58007=
200612161652 METAR KATL 161652Z 13004KT 10SM FEW250 20/03 A3016 RMK AO2 SLP212 T02000028=
200612161552 METAR KATL 161552Z 00000KT 9SM FEW250 17/07 A3018 RMK AO2 SLP217 T01670067=
200612161452 METAR KATL 161452Z 00000KT 7SM FEW250 12/07 A3016 RMK AO2 SLP213 T01220067 53015=
200612161352 METAR KATL 161352Z 32006KT 10SM FEW250 09/06 A3014 RMK AO2 SLP209 T00940061=
200612161252 METAR KATL 161252Z 31005KT 10SM FEW250 06/03 A3013 RMK AO2 SLP204 T00560033=
200612161152 METAR KATL 161152Z 32006KT 10SM FEW250 06/03 A3012 RMK AO2 SLP199 T00560033 10111 20056 53010=
200612161052 METAR KATL 161052Z 32005KT 10SM FEW250 07/04 A3010 RMK AO2 SLP192 T00670039=
200612160952 METAR KATL 160952Z 31004KT 10SM FEW250 08/04 A3009 RMK AO2 SLP188 T00780039=
200612160852 METAR KATL 160852Z 29004KT 10SM FEW250 08/04 A3009 RMK AO2 SLP186 T00830044 51004=
200612160752 METAR KATL 160752Z 36003KT 10SM FEW250 09/05 A3008 RMK AO2 SLP184 T00940050=
200612160652 METAR KATL 160652Z 00000KT 10SM FEW250 09/04 A3008 RMK AO2 SLP184 T00940044=
200612160552 METAR KATL 160552Z 00000KT 10SM FEW250 10/04 A3007 RMK AO2 SLP182 T01000044 10167 20100 51007=
200612160452 METAR KATL 160452Z 00000KT 10SM FEW250 11/04 A3007 RMK AO2 SLP180 T01110044 402110061=
200612160352 METAR KATL 160352Z 00000KT 10SM FEW250 12/04 A3006 RMK AO2 SLP178 T01170044=
200612160252 METAR KATL 160252Z 26003KT 10SM FEW250 13/04 A3005 RMK AO2 SLP176 T01280039 51016=
200612160152 METAR KATL 160152Z 28005KT 10SM FEW250 14/04 A3004 RMK AO2 SLP174 T01390044=
200612160052 METAR KATL 160052Z 28005KT 10SM FEW250 14/06 A3002 RMK AO2 SLP168 T01440056=
200612152352 METAR KATL 152352Z 28005KT 10SM FEW250 16/06 A3000 RMK AO2 SLP160 T01610061 10211 20161 53016=
200612152252 METAR KATL 152252Z 24003KT 10SM FEW250 17/06 A2999 RMK AO2 SLP155 T01720056=
200612152152 METAR KATL 152152Z 26006KT 10SM FEW200 20/06 A2996 RMK AO2 SLP144 T02000056=
200612152052 METAR KATL 152052Z 29008KT 10SM FEW200 21/06 A2995 RMK AO2 SLP141 T02060061 55007=
200612151952 METAR KATL 151952Z 29013KT 10SM FEW200 21/06 A2995 RMK AO2 SLP140 T02110056=
200612151852 METAR KATL 151852Z 30007KT 10SM FEW200 21/07 A2996 RMK AO2 SLP142 T02060067=
200612151752 METAR KATL 151752Z 29010KT 10SM FEW200 19/08 A2998 RMK AO2 SLP149 T01940078 10194 20061 58014=
200612151652 METAR KATL 151652Z 30008KT 9SM FEW200 17/09 A3001 RMK AO2 SLP161 T01720089=
200612151552 METAR KATL 151552Z 28009KT 9SM FEW200 15/09 A3002 RMK AO2 SLP165 T01500089=
200612151452 METAR KATL 151452Z 30006KT 9SM FEW200 11/08 A3002 RMK AO2 SLP167 T01110078 51009=
200612151352 METAR KATL 151352Z 30006KT 10SM FEW200 09/07 A3002 RMK AO2 SLP166 T00940072=
200612151252 METAR KATL 151252Z 30007KT 10SM FEW200 07/05 A3001 RMK AO2 SLP164 T00670050=
200612151152 METAR KATL 151152Z 00000KT 10SM FEW250 07/05 A2999 RMK AO2 SLP157 T00670050 10111 20061 50006=
200612151052 METAR KATL 151052Z 30007KT 10SM FEW001 SCT250 06/06 A3000 RMK AO2 SLP160 T00610056=
200612151045 SPECI KATL 151045Z 30008KT 10SM FEW001 SCT250 06/06 A3000 RMK AO2=
200612151045 SPECI KATL 151045Z 30008KT 10SM FEW001 SCT250 06/06 A3000 RMK AO2=
200612150952 METAR KATL 150952Z 30007KT 1/4SM FG VV001 06/05 A2998 RMK AO2 SLP152 T00610050 RVRNO=
200612150852 METAR KATL 150852Z 00000KT 10SM FEW001 SCT250 09/08 A2997 RMK AO2 SLP149 T00890078 58012=
200612150752 METAR KATL 150752Z 00000KT 8SM FEW030 SCT250 09/09 A2999 RMK AO2 SLP154 T00940089=
200612150652 METAR KATL 150652Z 00000KT 6SM BR FEW001 SCT038 BKN250 10/09 A3000 RMK AO2 SLP156 T01000089=
200612150643 SPECI KATL 150643Z 21004KT 6SM BR FEW001 SCT038 BKN250 10/09 A3000 RMK AO2=
200612150643 SPECI KATL 150643Z 21004KT 6SM BR FEW001 SCT038 BKN250 10/09 A3000 RMK AO2=
200612150552 METAR KATL 150552Z 25003KT 10SM FEW035 BKN250 11/09 A3001 RMK AO2 SLP161 T01060094 10144 20106 58009=
200612150452 METAR KATL 150452Z 28003KT 10SM FEW040 SCT250 11/09 A3003 RMK AO2 SLP168 T01110094 401890072=
200612150352 METAR KATL 150352Z 30004KT 10SM SCT040 BKN250 12/10 A3003 RMK AO2 SLP169 T01220100=
200612150252 METAR KATL 150252Z 24004KT 10SM SCT040 BKN250 12/10 A3004 RMK AO2 SLP172 T01220100 55004=
200612150152 METAR KATL 150152Z 23003KT 10SM FEW030 BKN250 12/09 A3003 RMK AO2 SLP171 T01220094=
200612150052 METAR KATL 150052Z 19005KT 10SM BKN250 14/09 A3003 RMK AO2 SLP171 T01390094=
200612142352 METAR KATL 142352Z 00000KT 10SM FEW030 BKN250 14/09 A3005 RMK AO2 SLP176 T01390094 10189 20139 53003=
200612142252 METAR KATL 142252Z 20004KT 10SM FEW030 SCT200 BKN250 16/09 A3004 RMK AO2 SLP174 T01560094=
200612142152 METAR KATL 142152Z 22008KT 10SM FEW030 BKN250 BKN300 17/09 A3003 RMK AO2 SLP170 T01720094=
200612142052 METAR KATL 142052Z 22010KT 10SM FEW040 BKN250 BKN300 18/09 A3004 RMK AO2 SLP170 T01830094 56020=
200612141952 METAR KATL 141952Z 24007KT 10SM FEW030 SCT040 SCT250 BKN300 18/09 A3005 RMK AO2 SLP174 T01830094=
200612141852 METAR KATL 141852Z 22010KT 10SM FEW030 SCT040 BKN250 18/10 A3008 RMK AO2 SLP182 T01830100=
200612141752 METAR KATL 141752Z 21004KT 7SM FEW015 BKN042 BKN250 17/12 A3010 RMK AO2 SLP191 T01670117 10167 20083 58020=
200612141652 METAR KATL 141652Z 21005KT 6SM HZ BKN040 BKN120 BKN250 14/11 A3013 RMK AO2 SLP204 T01440111=
200612141623 SPECI KATL 141623Z 21005KT 6SM BR BKN040 BKN200 BKN250 13/11 A3015 RMK AO2=
200612141623 SPECI KATL 141623Z 21005KT 6SM BR BKN040 BKN200 BKN250 13/11 A3015 RMK AO2=
200612141608 SPECI KATL 141608Z 20004KT 2 1/2SM BR FEW005 SCT040 BKN250 12/11 A3015 RMK AO2 SFC VIS 5=
200612141608 SPECI KATL 141608Z 20004KT 2 1/2SM BR FEW005 SCT040 BKN250 12/11 A3015 RMK AO2 SFC VIS 5=
200612141552 METAR KATL 141552Z 20003KT 1SM BR BCFG FEW001 BKN040 BKN250 12/11 A3015 RMK AO2 SFC VIS 2 SLP211 VIS NE-SE 1/4 BCFG T01170111=
200612141544 SPECI KATL 141544Z 19003KT 1SM BR BCFG FEW001 BKN150 BKN250 12/11 A3016 RMK AO2 SFC VIS 2 VIS NE-SE 1/4 BCFG=
200612141544 SPECI KATL 141544Z 19003KT 1SM BR BCFG FEW001 BKN150 BKN250 12/11 A3016 RMK AO2 SFC VIS 2 VIS NE-SE 1/4 BCFG=
200612141527 SPECI KATL 141527Z 19005KT 0SM FG BKN001 BKN005 BKN250 11/10 A3016 RMK AO2 SFC VIS 1/2 VIS NW-N 1 1/2SM BCFG RVRNO=
200612141527 SPECI KATL 141527Z 19005KT 0SM FG BKN001 BKN005 BKN250 11/10 A3016 RMK AO2 SFC VIS 1/2 VIS NW-N 1 1/2SM BCFG RVRNO=
200612141511 SPECI KATL 141511Z 19003KT 1/8SM BR BCFG BKN001 BKN005 BKN250 11/10 A3016 RMK AO2 SFC VIS 1 VIS NE-S 1/4 BCFG RVRNO=
200612141511 SPECI KATL 141511Z 19003KT 1/8SM BR BCFG BKN001 BKN005 BKN250 11/10 A3016 RMK AO2 SFC VIS 1 VIS NE-S 1/4 BCFG RVRNO=
200612141452 METAR KATL 141452Z 00000KT 1 1/2SM BR BCFG FEW001 SCT005 BKN250 11/09 A3016 RMK AO2 SFC VIS 2 1/2 SLP214 VIS NE-SW 1/2 BCFG T01060094 53005=
200612141432 SPECI KATL 141432Z 00000KT 1 1/2SM BR BCFG FEW001 SCT005 BKN250 10/09 A3016 RMK AO2 SFC VIS 2=
200612141432 SPECI KATL 141432Z 00000KT 1 1/2SM BR BCFG FEW001 SCT005 BKN250 10/09 A3016 RMK AO2 SFC VIS 2=
200612141352 METAR KATL 141352Z 00000KT 1SM BR BKN001 BKN200 BKN250 10/09 A3015 RMK AO2 TWR VIS 1 1/2 SLP211 VIS E-S 1/4 T01000089 RVRNO=
200612141350 SPECI KATL 141350Z 00000KT 1SM BR BKN001 BKN200 BKN250 10/09 A3015 RMK AO2 TWR VIS 1 1/2 VIS E-S 1/4 RVRNO=
200612141350 SPECI KATL 141350Z 00000KT 1SM BR BKN001 BKN200 BKN250 10/09 A3015 RMK AO2 TWR VIS 1 1/2 VIS E-S 1/4 RVRNO=
200612141335 SPECI KATL 141335Z 00000KT 1/4SM FG VV001 09/08 A3015 RMK AO2 TWR VIS 1 RVRNO=
200612141335 SPECI KATL 141335Z 00000KT 1/4SM FG VV001 09/08 A3015 RMK AO2 TWR VIS 1 RVRNO=
200612141300 SPECI KATL 141300Z 00000KT 1/2SM BR BKN001 BKN200 BKN250 09/08 A3015 RMK AO2 SFC VIS 2 TWRINC=
200612141300 SPECI KATL 141300Z 00000KT 1/2SM BR BKN001 BKN200 BKN250 09/08 A3015 RMK AO2 SFC VIS 2 TWRINC=
200612141252 METAR KATL 141252Z 00000KT 0SM BR OVC001 09/08 A3014 RMK AO2 SFC VIS 3/4 SLP209 BINOVC T00890078 RVRNO=
200612141216 SPECI KATL 141216Z 00000KT 0SM FG VV001 08/07 A3014 RMK AO2 SFC VIS 1/4 RVRNO=
200612141216 SPECI KATL 141216Z 00000KT 0SM FG VV001 08/07 A3014 RMK AO2 SFC VIS 1/4 RVRNO=
200612141209 SPECI KATL 141209Z 00000KT 1SM BR OVC002 08/07 A3014 RMK AO2 SFC VIS 1 1/2=
200612141209 SPECI KATL 141209Z 00000KT 1SM BR OVC002 08/07 A3014 RMK AO2 SFC VIS 1 1/2=
200612141152 METAR KATL 141152Z 00000KT 5SM BR BKN002 OVC250 08/07 A3013 RMK AO2 SLP203 T00830072 10100 20072 51000=
200612141150 SPECI KATL 141150Z 00000KT 5SM BR BKN002 OVC250 08/07 A3013 RMK AO2=
200612141150 SPECI KATL 141150Z 00000KT 5SM BR BKN002 OVC250 08/07 A3013 RMK AO2=
200612141101 SPECI KATL 141101Z 00000KT 7SM FEW003 SCT160 SCT250 07/05 A3013 RMK AO2=
200612141101 SPECI KATL 141101Z 00000KT 7SM FEW003 SCT160 SCT250 07/05 A3013 RMK AO2=
200612141052 METAR KATL 141052Z 00000KT 8SM FEW016 SCT250 08/06 A3013 RMK AO2 SLP204 T00780056=
200612141008 SPECI KATL 141008Z 00000KT 8SM SCT016 SCT250 10/07 A3013 RMK AO2=
200612141008 SPECI KATL 141008Z 00000KT 8SM SCT016 SCT250 10/07 A3013 RMK AO2=
200612140952 METAR KATL 140952Z 00000KT 8SM BKN016 BKN250 08/06 A3013 RMK AO2 SLP203 T00830061=
200612140852 METAR KATL 140852Z 00000KT 8SM CLR 08/06 A3013 RMK AO2 SLP202 T00830061 58009=
200612140752 METAR KATL 140752Z 00000KT 8SM CLR 09/07 A3015 RMK AO2 SLP207 T00940072=
200612140652 METAR KATL 140652Z 00000KT 8SM CLR 10/07 A3015 RMK AO2 SLP207 T01000072=
200612140552 METAR KATL 140552Z 00000KT 10SM CLR 09/07 A3016 RMK AO2 SLP211 T00940067 10156 20094 58009=
200612140452 METAR KATL 140452Z 20003KT 10SM CLR 10/07 A3017 RMK AO2 SLP215 T01000067 401890100=
200612140352 METAR KATL 140352Z 00000KT 10SM CLR 11/07 A3018 RMK AO2 SLP220 T01110072=
200612140252 METAR KATL 140252Z 00000KT 10SM CLR 13/07 A3018 RMK AO2 SLP220 T01280072 58001=
200612140152 METAR KATL 140152Z 00000KT 10SM CLR 13/08 A3019 RMK AO2 SLP224 T01280078 $=
200612140052 METAR KATL 140052Z COR 00000KT 10SM FEW100 13/08 A3019 RMK AO2 SLP224 T01330078 $=
200612132352 METAR KATL 132352Z 00000KT 10SM CLR 16/07 A3019 RMK AO2 SLP222 T01560072 10189 20150 53001=
200612132252 METAR KATL 132252Z 32004KT 10SM CLR 16/07 A3018 RMK AO2 SLP220 T01610072=
200612132152 METAR KATL 132152Z 32006KT 10SM FEW040 17/07 A3018 RMK AO2 SLP219 T01720072=
200612132052 METAR KATL 132052Z 34006KT 10SM FEW045 18/07 A3018 RMK AO2 SLP219 T01830072 55012=
200612131952 METAR KATL 131952Z VRB03KT 10SM FEW040 18/08 A3018 RMK AO2 SLP219 T01830083=
200612131852 METAR KATL 131852Z 34005KT 10SM FEW040 18/09 A3020 RMK AO2 SLP225 T01830089=
200612131752 METAR KATL 131752Z VRB03KT 10SM FEW027 17/09 A3022 RMK AO2 SLP232 T01720089 10178 20117 58016=
200612131740 SPECI KATL 131740Z 29003KT 10SM SCT026 17/09 A3023 RMK AO2=
200612131740 SPECI KATL 131740Z 29003KT 10SM SCT026 17/09 A3023 RMK AO2=
200612131652 METAR KATL 131652Z VRB03KT 8SM BKN022 BKN028 16/10 A3025 RMK AO2 SLP243 T01610100=
200612131552 METAR KATL 131552Z VRB03KT 8SM BKN016 BKN028 BKN030 15/09 A3027 RMK AO2 SLP249 T01500089=
200612131452 METAR KATL 131452Z 07004KT 9SM SCT016 BKN020 BKN033 14/08 A3027 RMK AO2 SLP249 T01440083 52006=
200612131439 SPECI KATL 131439Z 08004KT 10SM SCT016 BKN033 13/08 A3027 RMK AO2=
200612131439 SPECI KATL 131439Z 08004KT 10SM SCT016 BKN033 13/08 A3027 RMK AO2=
200612131352 METAR KATL 131352Z 06004KT 10SM BKN016 OVC034 12/08 A3027 RMK AO2 SLP249 BINOVC T01220083=
200612131309 SPECI KATL 131309Z 08006KT 10SM BKN016 OVC034 12/08 A3026 RMK AO2=
200612131309 SPECI KATL 131309Z 08006KT 10SM BKN016 OVC034 12/08 A3026 RMK AO2=
200612131252 METAR KATL 131252Z 08006KT 10SM BKN014 OVC034 12/09 A3026 RMK AO2 SLP244 T01170089=
200612131152 METAR KATL 131152Z 07006KT 10SM BKN013 OVC033 12/09 A3025 RMK AO2 SLP243 60000 70001 T01170089 10128 20117 55000=
200612131142 SPECI KATL 131142Z 08006KT 10SM BKN013 OVC035 12/09 A3025 RMK AO2=
200612131142 SPECI KATL 131142Z 08006KT 10SM BKN013 OVC035 12/09 A3025 RMK AO2=
200612131052 METAR KATL 131052Z 08006KT 9SM FEW024 OVC033 12/09 A3024 RMK AO2 SLP239 T01170094=
200612131028 SPECI KATL 131028Z 07007KT 9SM SCT017 OVC035 12/09 A3024 RMK AO2=
200612131028 SPECI KATL 131028Z 07007KT 9SM SCT017 OVC035 12/09 A3024 RMK AO2=
200612130952 METAR KATL 130952Z 04004KT 8SM OVC015 12/10 A3024 RMK AO2 RAB13E23 SLP239 P0000 T01220100=
200612130852 METAR KATL 130852Z 05005KT 8SM FEW018 BKN026 OVC040 12/10 A3025 RMK AO2 RAB37E48 SLP243 P0000 60000 T01220100 51005=
200612130752 METAR KATL 130752Z 04006KT 8SM BKN020 OVC027 13/11 A3025 RMK AO2 SLP242 T01280106=
200612130652 METAR KATL 130652Z 31003KT 7SM BKN024 OVC100 12/11 A3026 RMK AO2 SLP244 T01220106=
200612130640 SPECI KATL 130640Z 32004KT 7SM BKN024 OVC100 12/11 A3026 RMK AO2=
200612130640 SPECI KATL 130640Z 32004KT 7SM BKN024 OVC100 12/11 A3026 RMK AO2=
200612130552 METAR KATL 130552Z 11006KT 10SM SCT090 BKN120 OVC150 12/11 A3024 RMK AO2 RAE33 SLP238 P0000 60001 T01220106 10172 20122 58005=
200612130515 SPECI KATL 130515Z VRB05KT 8SM -RA SCT025 BKN045 OVC090 12/11 A3026 RMK AO2 P0000=
200612130515 SPECI KATL 130515Z VRB05KT 8SM -RA SCT025 BKN045 OVC090 12/11 A3026 RMK AO2 P0000=
200612130452 METAR KATL 130452Z 29008KT 6SM -RA BR BKN028 BKN035 OVC050 13/11 A3029 RMK AO2 RAB0354 SLP256 P0001 T01280106 401890089=
200612130444 SPECI KATL 130444Z 29009KT 7SM -RA BKN028 BKN035 OVC050 13/11 A3029 RMK AO2 RAB0354 P0001=
200612130444 SPECI KATL 130444Z 29009KT 7SM -RA BKN028 BKN035 OVC050 13/11 A3029 RMK AO2 RAB0354 P0001=
200612130352 METAR KATL 130352Z 14004KT 10SM BKN035 BKN048 OVC070 14/09 A3027 RMK AO2 RAE51 SLP248 P0000 T01390089=
200612130252 METAR KATL 130252Z 13007KT 10SM -RA SCT038 BKN055 OVC090 14/09 A3025 RMK AO2 SLP244 P0000 60000 T01440089 50002=
200612130152 METAR KATL 130152Z 12008KT 10SM -RA BKN042 OVC060 16/09 A3026 RMK AO2 RAB08 SLP247 P0000 T01560094=
200612130052 METAR KATL 130052Z 11009KT 10SM OVC060 17/08 A3026 RMK AO2 SLP247 T01670083=
200612122352 METAR KATL 122352Z 13007KT 10SM BKN065 BKN150 OVC200 17/08 A3025 RMK AO2 SLP242 T01670083 10189 20167 53003=
200612122252 METAR KATL 122252Z 15008KT 10SM OVC060 17/08 A3024 RMK AO2 SLP239 T01720078=
200612122152 METAR KATL 122152Z 14009KT 10SM FEW045 BKN060 BKN120 18/08 A3023 RMK AO2 SLP237 T01780078=
200612122052 METAR KATL 122052Z COR 13011KT 10SM FEW045 BKN055 BKN120 18/08 A3024 RMK AO2 SLP238 T01830078 56024=
200612121952 METAR KATL 121952Z 13011G18KT 10SM FEW040 SCT055 BKN120 18/08 A3025 RMK AO2 SLP242 ACSL NE AND S-SW-W T01830078=
200612121852 METAR KATL 121852Z 11012KT 10SM FEW035 SCT055 SCT120 BKN250 18/08 A3028 RMK AO2 SLP252 ACSL S-SW T01780078=
200612121752 METAR KATL 121752Z 13009G16KT 10SM FEW030 SCT055 SCT250 17/08 A3031 RMK AO2 SLP264 T01720078 10172 20100 58027=
200612121652 METAR KATL 121652Z 12009KT 10SM FEW050 SCT250 16/07 A3035 RMK AO2 SLP277 T01610067=
200612121552 METAR KATL 121552Z 12008G16KT 10SM FEW050 SCT250 14/06 A3038 RMK AO2 SLP288 T01390056=
200612121452 METAR KATL 121452Z 12007KT 10SM FEW045 BKN250 12/06 A3039 RMK AO2 SLP293 T01220056 53008=
200612121352 METAR KATL 121352Z 10008KT 10SM FEW046 SCT250 11/05 A3038 RMK AO2 SLP289 T01060050=
200612121252 METAR KATL 121252Z 11006KT 10SM BKN045 BKN250 10/05 A3037 RMK AO2 SLP286 T01000050=
200612121152 METAR KATL 121152Z 12004KT 9SM OVC045 10/05 A3037 RMK AO2 SLP284 T01000050 10111 20089 53001=
200612121052 METAR KATL 121052Z 12007KT 10SM BKN045 BKN250 10/05 A3036 RMK AO2 SLP281 T01000050=
200612120952 METAR KATL 120952Z 13003KT 10SM BKN045 BKN250 10/05 A3037 RMK AO2 SLP283 T01000050=
200612120852 METAR KATL 120852Z 12006KT 10SM SCT046 SCT250 11/06 A3037 RMK AO2 SLP281 T01060056 58008=
200612120752 METAR KATL 120752Z 13003KT 10SM OVC046 11/06 A3038 RMK AO2 SLP286 T01110056=
200612120652 METAR KATL 120652Z 11005KT 10SM BKN046 10/05 A3038 RMK AO2 SLP288 T01000050=
200612120552 METAR KATL 120552Z 08007KT 10SM FEW050 09/05 A3039 RMK AO2 SLP291 T00940050 10150 20094 58008=
200612120452 METAR KATL 120452Z 10004KT 10SM FEW050 11/05 A3041 RMK AO2 SLP296 T01060050 401890039=
200612120352 METAR KATL 120352Z 11004KT 10SM CLR 12/05 A3041 RMK AO2 SLP299 T01170050=
200612120252 METAR KATL 120252Z 11006KT 10SM FEW100 13/06 A3042 RMK AO2 SLP300 T01280056 50004=
200612120152 METAR KATL 120152Z 11006KT 10SM CLR 13/05 A3042 RMK AO2 SLP301 T01330050=
200612120052 METAR KATL 120052Z 12005KT 10SM CLR 14/05 A3041 RMK AO2 SLP299 T01440050=
200612112352 METAR KATL 112352Z 11005KT 10SM CLR 15/05 A3040 RMK AO2 SLP298 T01500050 10189 20150 53010=
200612112252 METAR KATL 112252Z 11004KT 10SM FEW050 16/06 A3039 RMK AO2 SLP293 T01610056=
200612112152 SPECI KATL 112152Z VRB03KT 10SM FEW050 17/06 A3038 RMK AO2 SLP288 T01720056=
200612112052 METAR KATL 112052Z VRB03KT 10SM FEW050 18/06 A3037 RMK AO2 SLP286 T01830056 56016=
200612111952 METAR KATL 111952Z 00000KT 10SM FEW055 19/05 A3038 RMK AO2 SLP288 T01890050=
200612111852 METAR KATL 111852Z 15006KT 10SM FEW050 18/05 A3040 RMK AO2 SLP294 T01780050=
200612111752 METAR KATL 111752Z VRB04KT 10SM FEW040 17/06 A3042 RMK AO2 SLP303 T01720056 10172 20056 58019=
200612111652 METAR KATL 111652Z 13003KT 10SM FEW100 16/03 A3046 RMK AO2 SLP314 ACSL DSNT S T01610033=
200612111552 METAR KATL 111552Z VRB04KT 10SM FEW100 13/01 A3048 RMK AO2 SLP323 T01330011=
200612111452 METAR KATL 111452Z 11003KT 10SM FEW150 11/M02 A3048 RMK AO2 SLP324 T01111022 51011=
200612111352 METAR KATL 111352Z 08006KT 10SM FEW150 08/M03 A3047 RMK AO2 SLP322 T00831028=
200612111252 METAR KATL 111252Z 06004KT 10SM CLR 06/M04 A3046 RMK AO2 SLP317 T00611039=
200612111152 METAR KATL 111152Z 03006KT 10SM CLR 05/M04 A3044 RMK AO2 SLP314 T00501044 10083 20039 53006 $=
200612111052 METAR KATL 111052Z 07006KT 10SM CLR 04/M04 A3043 RMK AO2 SLP308 T00391039 $=
200612110952 METAR KATL 110952Z 00000KT 10SM FEW120 05/M03 A3042 RMK AO2 SLP305 T00501033 $=
200612110852 METAR KATL 110852Z 08003KT 8SM FEW120 06/M04 A3043 RMK AO2 SLP306 T00611044 56002 $=
200612110752 METAR KATL 110752Z 04003KT 10SM SCT120 07/M05 A3043 RMK AO2 SLP306 T00721050 $=
200612110652 METAR KATL 110652Z 08004KT 10SM SCT120 08/M05 A3042 RMK AO2 SLP303 T00781050 $=
200612110552 METAR KATL 110552Z 00000KT 10SM BKN120 08/M05 A3043 RMK AO2 SLP308 T00831050 10100 20083 58006 $=
200612110452 METAR KATL 110452Z 11005KT 10SM BKN110 09/M06 A3044 RMK AO2 SLP312 T00891056 401331006 $=
200612110352 METAR KATL 110352Z 13003KT 10SM BKN120 08/M06 A3045 RMK AO2 SLP315 T00831061 $=
200612110252 METAR KATL 110252Z 15003KT 10SM FEW120 SCT150 SCT200 08/M07 A3045 RMK AO2 SLP316 T00831067 51011 $=
200612110152 METAR KATL 110152Z 13003KT 10SM FEW150 SCT200 09/M07 A3044 RMK AO2 SLP314 T00941072 $=
200612110052 METAR KATL 110052Z 14004KT 10SM FEW100 SCT150 SCT200 10/M07 A3044 RMK AO2 SLP314 T01001072 $=
200612102352 METAR KATL 102352Z 10005KT 10SM FEW100 SCT150 SCT200 BKN250 09/M07 A3042 RMK AO2 SLP307 VIRGA DSNT E T00941072 10133 20089 58007 $=
200612102252 METAR KATL 102252Z VRB03KT 10SM FEW100 BKN150 BKN200 BKN250 12/M08 A3042 RMK AO2 SLP308 VIRGA N-OHD-S T01171083 $=
200612102152 METAR KATL 102152Z COR 00000KT 10SM FEW100 BKN150 BKN250 12/M09 A3043 RMK AO2 SLP311 T01221094 $=
200612102052 METAR KATL 102052Z 00000KT 10SM FEW100 SCT150 SCT250 12/M11 A3044 RMK AO2 SLP313 T01221106 56017 $=
200612101952 METAR KATL 101952Z 00000KT 10SM FEW120 SCT150 BKN250 13/M12 A3044 RMK AO2 SLP313 T01331117 $=
200612101852 METAR KATL 101852Z 00000KT 10SM FEW120 SCT250 13/M11 A3046 RMK AO2 SLP319 T01281106 $=
200612101752 METAR KATL 101752Z 00000KT 10SM FEW150 BKN250 11/M12 A3049 RMK AO2 SLP329 T01111117 10111 21006 58013 $=
200612101652 METAR KATL 101652Z VRB03KT 10SM FEW150 BKN250 11/M11 A3051 RMK AO2 SLP335 T01061106 $=
200612101552 METAR KATL 101552Z 00000KT 10SM FEW150 BKN250 08/M10 A3054 RMK AO2 SLP346 T00781100 $=
200612101452 METAR KATL 101452Z 00000KT 10SM FEW150 BKN250 06/M07 A3053 RMK AO2 SLP344 T00561067 53008 $=
200612101352 METAR KATL 101352Z 00000KT 10SM FEW150 BKN250 03/M05 A3052 RMK AO2 SLP343 T00281050 $=
200612101252 METAR KATL 101252Z 00000KT 9SM BKN250 00/M07 A3051 RMK AO2 SLP338 T00001067 $=
200612101152 METAR KATL 101152Z 00000KT 10SM SCT250 M01/M08 A3050 RMK AO2 SLP337 T10061078 10044 21006 52010 $=
200612101052 METAR KATL 101052Z 00000KT 10SM SCT250 00/M07 A3050 RMK AO2 SLP334 T00001072 $=
200612100952 METAR KATL 100952Z 00000KT 10SM FEW250 01/M09 A3048 RMK AO2 SLP326 T00111089 $=
200612100852 METAR KATL 100852Z 00000KT 10SM FEW250 01/M08 A3047 RMK AO2 SLP324 T00111083 55003 $=
200612100752 METAR KATL 100752Z COR 07004KT 10SM BKN200 02/M09 A3047 RMK AO2 SLP323 T00221094 $=
200612100652 METAR KATL 100652Z 00000KT 10SM BKN200 04/M11 A3048 RMK AO2 SLP327 T00391111 $=
200612100552 METAR KATL 100552Z 08004KT 10SM SCT250 03/M11 A3048 RMK AO2 SLP328 T00281106 10072 20028 58004 $=
200612100452 METAR KATL 100452Z 10003KT 10SM SCT250 04/M11 A3049 RMK AO2 SLP332 T00391111 401111061 $=
200612100352 METAR KATL 100352Z 00000KT 10SM FEW250 03/M08 A3050 RMK AO2 SLP335 T00331078 $=
200612100252 METAR KATL 100252Z 00000KT 10SM CLR 05/M12 A3049 RMK AO2 SLP334 T00501117 51007 $=
200612100152 METAR KATL 100152Z 15003KT 10SM CLR 06/M12 A3049 RMK AO2 SLP335 T00561122 $=
200612100052 METAR KATL 100052Z 15003KT 10SM CLR 07/M12 A3048 RMK AO2 SLP332 T00671122 $=
200612092352 METAR KATL 092352Z 14003KT 10SM CLR 07/M12 A3047 RMK AO2 RAB45E49 SLP329 P0000 60000 T00721122 10111 20072 53003 $=
200612092252 METAR KATL 092252Z 16003KT 10SM FEW150 08/M12 A3047 RMK AO2 SLP326 T00831117 $=
200612092152 METAR KATL 092152Z 11004KT 10SM FEW150 10/M14 A3046 RMK AO2 RAB30E38 SLP324 P0000 T01001139 $=
200612092052 METAR KATL 092052Z 15004KT 10SM CLR 11/M14 A3046 RMK AO2 SLP324 T01061144 56015 $=
200612091952 METAR KATL 091952Z VRB03KT 10SM CLR 11/M14 A3047 RMK AO2 SLP324 T01061144 $=
200612091852 METAR KATL 091852Z 18003KT 10SM CLR 09/M14 A3049 RMK AO2 SLP332 T00941139 $=
200612091752 METAR KATL 091752Z 20003KT 10SM CLR 08/M14 A3051 RMK AO2 SLP340 T00831139 10083 21061 58017 $=
200612091652 METAR KATL 091652Z 18003KT 10SM CLR 07/M13 A3054 RMK AO2 SLP351 T00671133 $=
200612091552 METAR KATL 091552Z 19004KT 10SM CLR 04/M14 A3056 RMK AO2 SLP359 T00391144=
200612091452 METAR KATL 091452Z 00000KT 10SM CLR 01/M13 A3056 RMK AO2 SLP361 T00111128 53012=
200612091352 METAR KATL 091352Z 31004KT 10SM CLR M02/M12 A3054 RMK AO2 SLP355 T10221117=
200612091252 METAR KATL 091252Z 33003KT 10SM CLR M04/M13 A3053 RMK AO2 SLP352 T10441133=
200612091152 METAR KATL 091152Z 30003KT 10SM CLR M06/M13 A3053 RMK AO2 SLP351 T10561128 11033 21061 51003=
200612091052 METAR KATL 091052Z 00000KT 10SM CLR M04/M14 A3052 RMK AO2 SLP349 T10441139=
200612090952 METAR KATL 090952Z 31004KT 10SM CLR M06/M12 A3052 RMK AO2 SLP347 T10561122=
200612090852 METAR KATL 090852Z 30004KT 10SM CLR M04/M13 A3052 RMK AO2 SLP344 T10441133 55001=
200612090752 METAR KATL 090752Z 32004KT 10SM CLR M04/M13 A3052 RMK AO2 SLP344 T10441133=
200612090652 METAR KATL 090652Z 33005KT 10SM CLR M04/M13 A3051 RMK AO2 SLP344 T10441133=
200612090552 METAR KATL 090552Z 32005KT 10SM CLR M04/M14 A3052 RMK AO2 SLP346 T10391144 10006 21039 51001=
200612090452 METAR KATL 090452Z 31007KT 10SM CLR M03/M14 A3052 RMK AO2 SLP347 T10331139 400441072=
200612090352 METAR KATL 090352Z 30006KT 10SM CLR M03/M14 A3052 RMK AO2 SLP347 T10281144=
200612090252 METAR KATL 090252Z 32006KT 10SM CLR M02/M14 A3052 RMK AO2 SLP347 T10221139 55000=
200612090152 METAR KATL 090152Z 31005KT 10SM CLR M02/M14 A3051 RMK AO2 SLP345 T10171144=
200612090052 METAR KATL 090052Z 34006KT 10SM CLR M01/M15 A3051 RMK AO2 SLP345 T10061150=
200612082352 METAR KATL 082352Z 31007KT 10SM CLR 00/M15 A3052 RMK AO2 SLP347 T00001150 10044 20000 53004=
200612082252 METAR KATL 082252Z 33006KT 10SM CLR 01/M15 A3051 RMK AO2 SLP344 T00111150=
200612082152 METAR KATL 082152Z 31008KT 10SM CLR 03/M15 A3051 RMK AO2 SLP344 T00281150=
200612082052 METAR KATL 082052Z 33005KT 10SM CLR 04/M16 A3050 RMK AO2 SLP341 T00441156 56014=
200612081952 METAR KATL 081952Z 27007KT 240V310 10SM CLR 04/M16 A3051 RMK AO2 SLP342 T00391156=
200612081852 METAR KATL 081852Z VRB06KT 10SM CLR 03/M16 A3052 RMK AO2 SLP346 T00281156=
200612081752 METAR KATL 081752Z 32005KT 10SM CLR 02/M16 A3055 RMK AO2 SLP357 T00171161 10017 21072 58011 $=
200612081652 METAR KATL 081652Z VRB04KT 10SM CLR 00/M16 A3056 RMK AO2 SLP362 T00001156 $=
200612081552 METAR KATL 081552Z 34006KT 10SM CLR M02/M16 A3058 RMK AO2 SLP368 T10221161 $=
200612081452 METAR KATL 081452Z 34009KT 10SM CLR M04/M16 A3058 RMK AO2 SLP369 T10391156 51021 $=
200612081352 METAR KATL 081352Z 34011KT 10SM CLR M06/M16 A3056 RMK AO2 SLP363 T10611156 $=
200612081252 METAR KATL 081252Z 32009KT 10SM CLR M07/M16 A3054 RMK AO2 SLP356 T10721156 $=
200612081152 METAR KATL 081152Z 33011KT 10SM CLR M07/M16 A3052 RMK AO2 SLP347 T10721161 11050 21072 53014 $=
200612081052 METAR KATL 081052Z 34011G18KT 10SM CLR M07/M16 A3050 RMK AO2 SLP339 T10671161=
200612080952 METAR KATL 080952Z 33011KT 10SM CLR M07/M16 A3047 RMK AO2 SLP328 T10671156=
200612080852 METAR KATL 080852Z 33011KT 10SM CLR M06/M15 A3047 RMK AO2 SLP328 T10611150 51011=
200612080752 METAR KATL 080752Z 33011KT 10SM CLR M06/M15 A3047 RMK AO2 SLP326 T10611150=
200612080652 METAR KATL 080652Z 33012KT 10SM CLR M06/M15 A3045 RMK AO2 SLP318 T10561150=
200612080552 METAR KATL 080552Z 34011KT 10SM CLR M05/M15 A3044 RMK AO2 SLP316 T10501150 10011 21050 51010=
200612080452 METAR KATL 080452Z 34017KT 10SM CLR M04/M15 A3044 RMK AO2 SLP315 T10441150 401111044=
200612080352 METAR KATL 080352Z 33017G20KT 10SM CLR M03/M14 A3042 RMK AO2 PK WND 33027/0317 SLP309 T10331139=
200612080252 METAR KATL 080252Z 34011KT 10SM CLR M03/M12 A3041 RMK AO2 SLP306 T10281122 51021=
200612080152 METAR KATL 080152Z 33015G25KT 10SM CLR M02/M12 A3039 RMK AO2 PK WND 34028/0132 SLP301 T10171122=
200612080052 METAR KATL 080052Z 32021G27KT 10SM FEW035 00/M10 A3037 RMK AO2 PK WND 34028/0041 SLP292 T00001100=
200612072352 METAR KATL 072352Z 32020G29KT 10SM FEW035 01/M08 A3034 RMK AO2 PK WND 31029/2344 SLP283 T00111083 10111 20011 53034=
200612072252 METAR KATL 072252Z 32017G25KT 10SM SCT035 BKN045 04/M04 A3031 RMK AO2 PK WND 32029/2158 SLP270 T00391044=
200612072152 METAR KATL 072152Z 32020G28KT 10SM FEW060 08/M04 A3027 RMK AO2 PK WND 33028/2144 SLP252 T00831044=
200612072052 METAR KATL 072052Z 31022G28KT 10SM FEW065 10/M06 A3024 RMK AO2 PK WND 30028/2050 SLP243 T01001056 55000=
200612071952 METAR KATL 071952Z 31020G32KT 10SM FEW070 SCT240 11/M06 A3023 RMK AO2 PK WND 32032/1950 SLP238 T01111056=
200612071852 METAR KATL 071852Z 31016KT 10SM FEW070 SCT240 11/M06 A3023 RMK AO2 PK WND 32027/1819 SLP238 T01111056=
200612071752 METAR KATL 071752Z 30017G20KT 10SM FEW240 11/M05 A3024 RMK AO2 SLP242 T01061050 10106 20056 58001=
200612071652 METAR KATL 071652Z COR 33013G21KT 10SM FEW180 FEW240 SCT300 10/M06 A3025 RMK AO2 SLP245 T01001056 $=
200612071552 METAR KATL 071552Z 32013KT 10SM FEW180 SCT240 BKN300 08/M05 A3025 RMK AO2 SLP247 T00781055 PNO $=
200612071452 METAR KATL 071452Z 32011KT 10SM FEW180 SCT240 BKN300 07/M04 A3025 RMK AO2 SLP244 T00671039 53018 PNO $=
200612071352 METAR KATL 071352Z 32014KT 10SM FEW200 SCT250 06/M04 A3023 RMK AO2 SLP237 T00611039 PNO $=
200612071252 METAR KATL 071252Z 32010KT 10SM FEW200 SCT250 06/M04 A3021 RMK AO2 SLP232 T00561044=
200612071152 METAR KATL 071152Z 30008KT 10SM FEW150 SCT200 SCT250 06/M06 A3019 RMK AO2 SLP226 T00611056 10106 20056 53011=
200612071052 METAR KATL 071052Z 30007KT 10SM FEW150 SCT250 07/M06 A3017 RMK AO2 SLP219 T00671061=
200612070952 METAR KATL 070952Z 30009KT 10SM FEW033 SCT060 SCT150 BKN250 08/M07 A3017 RMK AO2 SLP218 T00781067=
200612070852 METAR KATL 070852Z 30009KT 10SM BKN060 BKN150 BKN250 09/M05 A3016 RMK AO2 SLP212 T00891050 55004=
200612070752 METAR KATL 070752Z 27005KT 10SM FEW045 BKN060 BKN150 BKN250 09/M05 A3015 RMK AO2 SLP210 T00891050=
200612070652 METAR KATL 070652Z 27005KT 10SM SCT049 OVC075 10/M05 A3015 RMK AO2 SLP210 T01001050=
200612070552 METAR KATL 070552Z 29005KT 10SM BKN045 OVC075 11/M04 A3017 RMK AO2 SLP216 60000 T01061044 10133 20106 58005=
200612070452 METAR KATL 070452Z 27004KT 10SM OVC075 11/M05 A3018 RMK AO2 SLP222 T01061050 401560028=
200612070352 METAR KATL 070352Z 26004KT 10SM BKN080 OVC100 11/M05 A3019 RMK AO2 SLP223 T01111050=
200612070252 METAR KATL 070252Z 25004KT 10SM BKN080 OVC100 12/M06 A3019 RMK AO2 SLP224 60000 T01171056 50002=
200612070152 METAR KATL 070152Z 25004KT 10SM BKN080 OVC120 12/M06 A3019 RMK AO2 RAB00E31 SLP225 P0000 T01221056=
200612070052 METAR KATL 070052Z 23006KT 10SM OVC080 13/M07 A3018 RMK AO2 SLP224 T01281067=
200612062352 METAR KATL 062352Z 23007KT 10SM OVC080 13/M08 A3018 RMK AO2 SLP223 T01331083 10156 20128 53004=
200612062252 METAR KATL 062252Z 22007KT 10SM OVC090 13/M07 A3017 RMK AO2 SLP219 T01331072=
200612062152 METAR KATL 062152Z 24006KT 10SM BKN090 BKN250 14/M09 A3017 RMK AO2 SLP218 T01441094=
200612062052 METAR KATL 062052Z 21004KT 10SM BKN100 BKN250 15/M07 A3017 RMK AO2 SLP218 T01501072 56024=
200612061952 METAR KATL 061952Z 17005KT 10SM BKN110 BKN250 15/M08 A3018 RMK AO2 SLP223 ACC DSNT NW-N T01501078=
200612061852 METAR KATL 061852Z VRB06KT 10SM FEW110 SCT180 SCT250 14/M08 A3021 RMK AO2 SLP231 T01441083=
200612061752 METAR KATL 061752Z COR 21007KT 10SM BKN110 BKN180 BKN250 14/M09 A3024 RMK AO2 SLP243 T01391089 10144 20033 58023=
200612061652 METAR KATL 061652Z 19009KT 10SM FEW120 BKN180 BKN250 13/M07 A3028 RMK AO2 SLP257 T01281067=
200612061552 METAR KATL 061552Z 19008KT 10SM FEW120 SCT180 SCT250 11/M05 A3030 RMK AO2 SLP265 T01111050=
200612061452 METAR KATL 061452Z 10005KT 9SM FEW120 BKN180 BKN250 08/M04 A3031 RMK AO2 SLP269 T00831039 51008 $=
200612061352 METAR KATL 061352Z 10005KT 9SM BKN150 BKN200 BKN250 07/M04 A3030 RMK AO2 SLP267 T00671039=
200612061252 METAR KATL 061252Z 06003KT 10SM BKN150 BKN250 04/M04 A3031 RMK AO2 SLP268 T00441044=
200612061152 METAR KATL 061152Z 09004KT 10SM BKN150 BKN250 03/M04 A3029 RMK AO2 SLP262 T00331044 10056 20028 53002=
200612061052 METAR KATL 061052Z 07005KT 10SM SCT150 BKN250 03/M04 A3028 RMK AO2 SLP259 T00331039=
200612060952 METAR KATL 060952Z 00000KT 10SM SCT150 BKN250 03/M04 A3028 RMK AO2 SLP259 T00331039=
200612060852 METAR KATL 060852Z 00000KT 10SM SCT150 BKN250 04/M04 A3028 RMK AO2 SLP258 T00441044 56005=
200612060752 METAR KATL 060752Z 12003KT 10SM BKN150 BKN250 05/M06 A3028 RMK AO2 SLP258 T00501056=
200612060652 METAR KATL 060652Z 00000KT 10SM BKN150 BKN250 04/M04 A3029 RMK AO2 SLP261 T00441039=
200612060552 METAR KATL 060552Z 04004KT 10SM BKN150 04/M05 A3030 RMK AO2 SLP264 T00441050 10083 20039 58010=
200612060452 METAR KATL 060452Z 02003KT 10SM FEW250 06/M06 A3032 RMK AO2 SLP272 T00611061 401221017=
200612060352 METAR KATL 060352Z 00000KT 10SM CLR 06/M05 A3032 RMK AO2 SLP274 T00561050=
200612060252 METAR KATL 060252Z 33003KT 10SM CLR 06/M05 A3033 RMK AO2 SLP276 T00561050 50003=
200612060152 METAR KATL 060152Z 32005KT 10SM FEW250 06/M06 A3033 RMK AO2 SLP279 T00611056=
200612060052 METAR KATL 060052Z 33005KT 10SM FEW250 08/M06 A3033 RMK AO2 SLP277 T00781061=
200612052352 METAR KATL 052352Z 30006KT 10SM FEW250 08/M06 A3032 RMK AO2 SLP274 T00781056 10122 20078 55002=
200612052252 METAR KATL 052252Z 31007KT 10SM FEW250 09/M07 A3032 RMK AO2 SLP273 T00941067=
200612052152 METAR KATL 052152Z 29006KT 10SM SCT280 11/M07 A3032 RMK AO2 SLP274 T01061067=
200612052052 METAR KATL 052052Z 29006KT 10SM FEW280 12/M07 A3033 RMK AO2 SLP274 T01221067 56013=
200612051952 METAR KATL 051952Z VRB06KT 10SM FEW280 12/M08 A3033 RMK AO2 SLP276 T01221078=
200612051852 METAR KATL 051852Z 34008KT 10SM FEW280 12/M08 A3035 RMK AO2 SLP282 T01171078=
200612051752 METAR KATL 051752Z 31008KT 10SM FEW280 10/M07 A3036 RMK AO2 SLP288 T01001072 10106 21011 58010=
200612051652 METAR KATL 051652Z VRB05KT 10SM FEW280 09/M07 A3039 RMK AO2 SLP297 T00891072=
200612051552 METAR KATL 051552Z 31007KT 10SM FEW280 07/M08 A3040 RMK AO2 SLP302 T00671083=
200612051452 METAR KATL 051452Z 34010KT 10SM CLR 04/M10 A3039 RMK AO2 SLP301 T00391100 53007=
200612051352 METAR KATL 051352Z 32010KT 10SM CLR 01/M11 A3038 RMK AO2 SLP298 T00111111=
200612051252 METAR KATL 051252Z 32010KT 10SM CLR M01/M12 A3037 RMK AO2 SLP296 T10061122=
200612051152 METAR KATL 051152Z 32009KT 10SM CLR M01/M12 A3037 RMK AO2 SLP295 T10111122 11011 21017 53004=
200612051052 METAR KATL 051052Z 31008G16KT 260V330 10SM CLR M01/M12 A3037 RMK AO2 SLP292 T10111117 $=
200612050952 METAR KATL 050952Z 31010KT 10SM CLR M02/M11 A3036 RMK AO2 SLP291 T10171111 $=
200612050852 METAR KATL 050852Z 31007KT 10SM CLR M02/M11 A3036 RMK AO2 SLP289 T10171111 55002 $=
200612050752 METAR KATL 050752Z 32008KT 10SM CLR M02/M11 A3036 RMK AO2 SLP288 T10171111 $=
200612050652 METAR KATL 050652Z 31009KT 10SM CLR M02/M11 A3036 RMK AO2 SLP291 T10171106 $=
200612050552 METAR KATL 050552Z 30009KT 10SM CLR M01/M11 A3037 RMK AO2 SLP292 T10111106 10022 21011 50001 $=
200612050452 METAR KATL 050452Z 30005KT 10SM CLR M01/M11 A3037 RMK AO2 SLP295 T10111111 401891022 $=
200612050352 METAR KATL 050352Z 31008KT 10SM CLR 00/M12 A3038 RMK AO2 SLP297 T00001117 $=
200612050252 METAR KATL 050252Z 32007KT 10SM CLR 00/M12 A3036 RMK AO2 SLP293 T00001117 53001 $=
200612050152 METAR KATL 050152Z 34009KT 10SM CLR 01/M12 A3036 RMK AO2 SLP292 T00111122 $=
200612050052 METAR KATL 050052Z 33009KT 10SM CLR 02/M12 A3036 RMK AO2 SLP292 T00171122 $=
200612042352 METAR KATL 042352Z COR 31009KT 10SM CLR 02/M12 A3036 RMK AO2 SLP292 T00221117 10067 20022 53002 $=
200612042252 METAR KATL 042252Z 32011KT 10SM CLR 03/M13 A3035 RMK AO2 SLP287 T00331128 $=
200612042152 METAR KATL 042152Z 34008KT 10SM CLR 05/M13 A3035 RMK AO2 SLP285 T00501133 PNO $=
200612042052 METAR KATL 042052Z 31011G17KT 10SM CLR 06/M13 A3036 RMK AO2 SLP286 T00561128 56013=
200612041952 METAR KATL 041952Z 31015KT 10SM CLR 06/M13 A3036 RMK AO2 SLP288 T00611133=
200612041852 METAR KATL 041852Z 34014KT 10SM CLR 04/M13 A3037 RMK AO2 SLP291 T00441133 PNO $=
200612041752 METAR KATL 041752Z 34010KT 10SM CLR 03/M13 A3040 RMK AO2 SLP299 T00331128 10033 21022 58008 PNO $=
200612041652 METAR KATL 041652Z 34010KT 10SM CLR 03/M12 A3041 RMK AO2 SLP304 T00281122 PNO $=
200612041552 METAR KATL 041552Z 32013KT 10SM CLR 02/M11 A3043 RMK AO2 SLP312 T00171106=
200612041452 METAR KATL 041452Z 33013KT 10SM CLR 00/M11 A3042 RMK AO2 SLP309 T00001106 53016=
200612041352 METAR KATL 041352Z 33013KT 10SM CLR M01/M11 A3040 RMK AO2 SLP300 T10111106=
200612041252 METAR KATL 041252Z 32015G18KT 10SM FEW140 M02/M11 A3038 RMK AO2 SLP295 T10221106=
200612041152 METAR KATL 041152Z 32014G20KT 10SM FEW140 M02/M10 A3037 RMK AO2 SLP292 T10171100 10050 21017 53012=
200612041052 METAR KATL 041052Z 32015KT 10SM FEW140 00/M09 A3035 RMK AO2 SLP284 T00001089=
200612040952 METAR KATL 040952Z 33017KT 10SM BKN140 02/M08 A3034 RMK AO2 SLP277 T00171078=
200612040852 METAR KATL 040852Z 33015G22KT 10SM OVC140 03/M08 A3034 RMK AO2 PK WND 32026/0831 SLP276 T00281078 53007=
200612040752 METAR KATL 040752Z 32015KT 10SM OVC140 04/M06 A3032 RMK AO2 PK WND 33026/0715 SLP270 T00391061=
200612040652 METAR KATL 040652Z 32018G26KT 10SM OVC140 04/M06 A3032 RMK AO2 PK WND 32026/0647 SLP269 T00441061=
200612040552 METAR KATL 040552Z 32020G23KT 10SM BKN130 OVC200 06/M06 A3032 RMK AO2 SLP268 T00561056 10106 20056 51011=
200612040452 METAR KATL 040452Z 33013G20KT 10SM BKN130 BKN180 BKN200 07/M04 A3031 RMK AO2 SLP265 T00671044 401560033=
200612040352 METAR KATL 040352Z 32017KT 10SM FEW095 BKN180 BKN200 BKN250 07/M03 A3030 RMK AO2 SLP264 T00721033=
200612040252 METAR KATL 040252Z 32014G19KT 10SM BKN180 BKN200 08/M02 A3028 RMK AO2 SLP258 T00781017 51009=
200612040152 METAR KATL 040152Z 32010KT 10SM FEW090 BKN180 BKN200 08/M02 A3028 RMK AO2 SLP258 T00831022=
200612040052 METAR KATL 040052Z 33016KT 10SM SCT090 SCT180 BKN200 BKN250 09/M03 A3028 RMK AO2 SLP256 T00891028=
200612032352 METAR KATL 032352Z 32011KT 10SM FEW180 SCT200 SCT250 11/M03 A3026 RMK AO2 SLP250 T01061028 10156 20106 53013=
200612032252 METAR KATL 032252Z 32006KT 10SM FEW150 SCT250 12/M01 A3024 RMK AO2 SLP242 T01221006=
200612032152 METAR KATL 032152Z 33005KT 10SM FEW150 SCT250 14/00 A3023 RMK AO2 SLP238 T01440000=
200612032052 METAR KATL 032052Z 29008KT 10SM SCT150 SCT250 15/02 A3022 RMK AO2 SLP234 T01500017 56018=
200612031952 METAR KATL 031952Z 00000KT 10SM FEW150 SCT250 15/01 A3023 RMK AO2 SLP236 T01500011=
200612031852 METAR KATL 031852Z 00000KT 10SM FEW150 SCT250 14/01 A3025 RMK AO2 SLP246 T01440011=
200612031752 METAR KATL 031752Z 03008KT 10SM FEW150 SCT250 14/02 A3027 RMK AO2 SLP252 T01390017 10139 20033 58018=
200612031652 METAR KATL 031652Z 07007KT 10SM FEW150 SCT250 12/01 A3031 RMK AO2 SLP265 T01220011=
200612031552 METAR KATL 031552Z 05012KT 10SM FEW150 SCT250 11/00 A3032 RMK AO2 SLP271 T01110000=
200612031452 METAR KATL 031452Z 07010KT 10SM FEW150 SCT200 09/M01 A3033 RMK AO2 SLP272 T00941011 51013=
200612031352 METAR KATL 031352Z 06012KT 10SM FEW150 SCT250 07/M02 A3032 RMK AO2 SLP270 T00671022=
200612031252 METAR KATL 031252Z 06011KT 10SM FEW150 SCT250 06/M02 A3031 RMK AO2 SLP268 T00561022=
200612031152 METAR KATL 031152Z 08008KT 10SM FEW200 04/M02 A3029 RMK AO2 SLP260 T00391022 10067 20039 53001=
200612031052 METAR KATL 031052Z 09007KT 10SM FEW200 04/M02 A3028 RMK AO2 SLP256 T00441022=
200612030952 METAR KATL 030952Z 08008KT 10SM SCT200 05/M02 A3028 RMK AO2 SLP255 T00501017=
200612030852 METAR KATL 030852Z 08007KT 10SM FEW180 04/M02 A3029 RMK AO2 SLP257 T00441017 55000=
200612030752 METAR KATL 030752Z 08007KT 10SM SCT150 06/M01 A3029 RMK AO2 SLP259 T00611011=
200612030652 METAR KATL 030652Z 09006KT 10SM FEW200 06/M01 A3028 RMK AO2 SLP254 T00561011=
200612030552 METAR KATL 030552Z 08008KT 10SM FEW250 07/M01 A3029 RMK AO2 SLP258 T00671011 10122 20067 58002=
200612030452 METAR KATL 030452Z 07008KT 10SM FEW200 SCT250 07/M01 A3030 RMK AO2 SLP263 T00721011 401670000=
200612030352 METAR KATL 030352Z 07008KT 10SM FEW150 SCT200 SCT250 09/M02 A3030 RMK AO2 SLP263 T00891017=
200612030252 METAR KATL 030252Z 07008KT 10SM FEW150 SCT200 SCT250 09/M02 A3029 RMK AO2 SLP263 T00891017 53010=
200612030152 METAR KATL 030152Z 07008KT 10SM FEW150 SCT200 SCT250 10/M02 A3028 RMK AO2 SLP260 T01001022=
200612030052 METAR KATL 030052Z 08006KT 10SM FEW150 SCT200 SCT250 11/M02 A3027 RMK AO2 SLP256 T01061022=
200612022352 METAR KATL 022352Z 08006KT 10SM FEW150 SCT200 SCT250 12/M02 A3026 RMK AO2 SLP253 T01221022 10167 20122 53014=
200612022252 METAR KATL 022252Z 09006KT 10SM FEW150 SCT200 SCT250 13/M02 A3024 RMK AO2 SLP245 T01331022=
200612022152 METAR KATL 022152Z 09006KT 10SM SCT150 BKN200 BKN250 14/M01 A3023 RMK AO2 SLP241 T01441011=
200612022052 METAR KATL 022052Z 05006KT 10SM SCT150 SCT200 BKN250 16/M02 A3022 RMK AO2 SLP237 T01611022 56009=
200612021952 METAR KATL 021952Z 09005KT 10SM FEW150 SCT200 SCT250 16/M02 A3023 RMK AO2 SLP238 T01611022=
200612021852 METAR KATL 021852Z 00000KT 10SM FEW150 SCT200 SCT250 15/M03 A3024 RMK AO2 SLP242 T01501028=
200612021752 METAR KATL 021752Z VRB04KT 10SM FEW150 SCT200 13/M02 A3025 RMK AO2 SLP247 T01331022 10139 20000 58010=
200612021652 METAR KATL 021652Z 12004KT 10SM FEW200 12/M02 A3027 RMK AO2 SLP254 T01221017=
200612021552 METAR KATL 021552Z VRB05KT 10SM FEW200 09/M03 A3029 RMK AO2 SLP261 T00891028=
200612021452 METAR KATL 021452Z VRB05KT 10SM FEW200 06/M03 A3028 RMK AO2 SLP260 T00561028 53022=
200612021352 METAR KATL 021352Z 33010KT 10SM SCT150 02/M03 A3025 RMK AO2 SLP252 T00221033=
200612021252 METAR KATL 021252Z 32006KT 10SM SCT150 00/M04 A3023 RMK AO2 SLP244 T00001039=
200612021152 METAR KATL 021152Z 32010KT 10SM BKN150 00/M04 A3021 RMK AO2 SLP238 T00001039 10028 20000 53011=
200612021052 METAR KATL 021052Z 32009KT 10SM SCT180 01/M04 A3020 RMK AO2 SLP233 T00061039=
200612020952 METAR KATL 020952Z 32011KT 10SM SCT180 01/M04 A3019 RMK AO2 SLP227 T00111039=
200612020852 METAR KATL 020852Z 32011KT 10SM SCT180 02/M04 A3018 RMK AO2 SLP225 T00171039 53002=
200612020752 METAR KATL 020752Z 31012KT 10SM CLR 02/M03 A3017 RMK AO2 SLP221 T00221033=
200612020652 METAR KATL 020652Z 32012KT 10SM CLR 02/M03 A3016 RMK AO2 SLP218 T00221033=
200612020552 METAR KATL 020552Z 33010KT 10SM FEW250 03/M03 A3017 RMK AO2 SLP220 T00281033 10067 20028 53001=
200612020452 METAR KATL 020452Z 33012KT 10SM FEW250 03/M03 A3017 RMK AO2 SLP219 T00331033 402110033=
200612020352 METAR KATL 020352Z 33012KT 10SM CLR 04/M03 A3016 RMK AO2 SLP216 T00391028=
200612020252 METAR KATL 020252Z 33012KT 10SM CLR 04/M03 A3017 RMK AO2 SLP218 T00441028 51010=
200612020152 METAR KATL 020152Z 32011KT 10SM CLR 05/M03 A3016 RMK AO2 SLP215 T00501028=
200612020052 METAR KATL 020052Z 32014G18KT 10SM CLR 06/M02 A3015 RMK AO2 SLP211 T00561022=
200612012352 METAR KATL 012352Z 31011KT 10SM CLR 07/M02 A3014 RMK AO2 SLP206 T00671017 10139 20067 51023=
200612012252 METAR KATL 012252Z 32011KT 10SM CLR 08/M02 A3011 RMK AO2 SLP196 T00781017=
200612012152 METAR KATL 012152Z 31012KT 10SM FEW220 09/M01 A3010 RMK AO2 SLP192 T00941011=
200612012052 METAR KATL 012052Z 29012KT 10SM FEW220 12/M01 A3007 RMK AO2 SLP179 T01171011 53011=
200612011952 METAR KATL 011952Z 30011KT 10SM FEW220 13/00 A3004 RMK AO2 SLP168 T01330000=
200612011852 METAR KATL 011852Z 31013KT 10SM FEW220 13/01 A3004 RMK AO2 SLP167 T01330006=
200612011752 METAR KATL 011752Z 29011KT 10SM FEW220 13/03 A3004 RMK AO2 SLP167 60000 T01330028 10183 20128 50008=
200612011652 METAR KATL 011652Z COR 27012KT 10SM FEW085 FEW220 14/03 A3004 RMK AO2 SLP169 T01390033=
200612011552 METAR KATL 011552Z 28013G19KT 10SM FEW085 15/06 A3003 RMK AO2 SLP164 T01500056=
200612011452 METAR KATL 011452Z 24018G22KT 10SM FEW095 15/05 A3001 RMK AO2 PK WND 27027/1441 SLP158 ACC DSNT W-NW 60000 T01500050 53035=
200612011352 METAR KATL 011352Z 25021G28KT 10SM BKN095 16/08 A2995 RMK AO2 PK WND 25028/1344 SLP137 T01610078=
200612011252 METAR KATL 011252Z 24012G17KT 10SM FEW024 SCT046 BKN060 17/13 A2991 RMK AO2 PK WND 21030/1208 RAE02 SLP124 P0000 T01720133=
