##########################################################
# Query made at 04/19/2024 22:56:33 UTC
# Time interval: from 06/01/2006 12:00  to 06/30/2006 12:59  UTC
##########################################################

##########################################################
# KATL, Atlanta, Hartsfield - Jackson Atlanta International Airport (United States)
# WMO index: 72219. WIGOS ID: 0-20000-0-72219
# Latitude 33-38-59N. Longitude 084-25-00W. Altitude 312 m.
##########################################################

200606301252 METAR KATL 301252Z 30006KT 10SM CLR 24/17 A3015 RMK AO2 SLP200 T02440167=
200606301152 METAR KATL 301152Z 32007KT 10SM CLR 22/16 A3014 RMK AO2 SLP196 T02220161 10228 20206 53009 $=
200606301052 METAR KATL 301052Z 31004KT 8SM CLR 21/16 A3013 RMK AO2 SLP195 T02060161 $=
200606300952 METAR KATL 300952Z 31006KT 9SM CLR 21/16 A3012 RMK AO2 SLP188 T02060161 $=
200606300852 METAR KATL 300852Z 30006KT 10SM CLR 21/16 A3011 RMK AO2 SLP187 T02110161 53000=
200606300752 METAR KATL 300752Z 31005KT 10SM CLR 22/16 A3011 RMK AO2 SLP185 T02170156 $=
200606300652 METAR KATL 300652Z 31006KT 10SM CLR 22/16 A3011 RMK AO2 SLP186 T02220156=
200606300552 METAR KATL 300552Z 29005KT 10SM CLR 23/16 A3011 RMK AO2 SLP186 T02280156 10294 20228 55000=
200606300452 METAR KATL 300452Z 30005KT 10SM CLR 24/15 A3012 RMK AO2 SLP187 T02440150 403170183=
200606300352 METAR KATL 300352Z 28004KT 10SM CLR 26/14 A3011 RMK AO2 SLP186 T02560144=
200606300252 METAR KATL 300252Z 31004KT 10SM CLR 26/14 A3011 RMK AO2 SLP186 T02610144 53005=
200606300152 METAR KATL 300152Z 31004KT 10SM FEW250 27/14 A3010 RMK AO2 SLP182 T02720144=
200606300052 METAR KATL 300052Z 32004KT 10SM FEW250 28/14 A3010 RMK AO2 SLP181 T02830144=
200606292352 METAR KATL 292352Z 32006KT 10SM FEW070 29/14 A3010 RMK AO2 SLP182 T02940139 10317 20294 55005=
200606292252 METAR KATL 292252Z 33009KT 10SM FEW070 30/13 A3010 RMK AO2 SLP183 T03000128=
200606292152 METAR KATL 292152Z 34009G15KT 10SM FEW070 31/13 A3011 RMK AO2 SLP184 T03110128=
200606292052 METAR KATL 292052Z 32010KT 10SM FEW070 31/13 A3011 RMK AO2 SLP187 T03110128 58015=
200606291952 METAR KATL 291952Z 34013G20KT 10SM FEW075 31/12 A3013 RMK AO2 SLP193 T03110117=
200606291852 METAR KATL 291852Z 35010G18KT 10SM FEW075 31/12 A3014 RMK AO2 SLP197 T03060117=
200606291752 METAR KATL 291752Z 32010KT 10SM CLR 30/12 A3016 RMK AO2 SLP201 T03000122 10300 20200 58008=
200606291652 METAR KATL 291652Z 33008KT 10SM CLR 29/11 A3017 RMK AO2 SLP206 T02940111=
200606291552 METAR KATL 291552Z VRB06KT 10SM FEW250 29/14 A3018 RMK AO2 SLP207 T02890139=
200606291452 METAR KATL 291452Z 35005KT 10SM FEW250 27/15 A3018 RMK AO2 SLP209 T02720150 51002=
200606291352 METAR KATL 291352Z 34006KT 10SM CLR 26/16 A3018 RMK AO2 SLP210 T02560156=
200606291252 METAR KATL 291252Z 32007KT 10SM CLR 22/16 A3018 RMK AO2 SLP211 T02220156=
200606291152 METAR KATL 291152Z 30007KT 9SM CLR 20/15 A3018 RMK AO2 SLP210 T02000150 10228 20183 51015=
200606291052 METAR KATL 291052Z 31006KT 8SM CLR 19/14 A3017 RMK AO2 SLP206 T01890144=
200606290952 METAR KATL 290952Z 32004KT 10SM CLR 21/14 A3015 RMK AO2 SLP200 T02060139=
200606290852 METAR KATL 290852Z 00000KT 10SM CLR 20/14 A3013 RMK AO2 SLP193 T02000144 56007=
200606290752 METAR KATL 290752Z 00000KT 10SM CLR 19/14 A3013 RMK AO2 SLP193 T01940139=
200606290652 METAR KATL 290652Z 30003KT 10SM CLR 21/14 A3014 RMK AO2 SLP197 T02060139=
200606290552 METAR KATL 290552Z 00000KT 10SM CLR 22/13 A3015 RMK AO2 SLP199 T02220128 10283 20222 53002=
200606290452 METAR KATL 290452Z 33004KT 10SM CLR 22/13 A3015 RMK AO2 SLP198 T02220128 403060200=
200606290352 METAR KATL 290352Z 33005KT 10SM CLR 23/12 A3015 RMK AO2 SLP197 T02330122=
200606290252 METAR KATL 290252Z VRB05KT 10SM FEW250 26/11 A3014 RMK AO2 SLP197 T02610106 53010=
200606290152 METAR KATL 290152Z 34007KT 10SM FEW250 26/11 A3013 RMK AO2 SLP194 T02610106=
200606290052 METAR KATL 290052Z 32008KT 10SM FEW250 27/11 A3012 RMK AO2 SLP190 T02670106=
200606282352 METAR KATL 282352Z 32008KT 10SM FEW070 28/11 A3011 RMK AO2 SLP188 T02830106 10306 20283 53000=
200606282252 METAR KATL 282252Z 30008KT 10SM FEW070 SCT250 29/12 A3010 RMK AO2 SLP184 T02940117=
200606282152 METAR KATL 282152Z 29010KT 10SM FEW070 SCT250 30/13 A3011 RMK AO2 SLP184 T03000128=
200606282052 METAR KATL 282052Z 00000KT 10SM FEW070 SCT250 29/12 A3011 RMK AO2 SLP187 T02940122 56012=
200606281952 METAR KATL 281952Z 31009KT 270V340 10SM FEW060 BKN250 30/14 A3012 RMK AO2 SLP187 T03000144=
200606281852 METAR KATL 281852Z 26010KT 10SM FEW060 SCT100 BKN250 31/14 A3013 RMK AO2 SLP192 T03060144=
200606281752 METAR KATL 281752Z 29010G16KT 10SM FEW060 SCT100 BKN250 29/15 A3015 RMK AO2 SLP198 T02940150 10306 20211 58002=
200606281652 METAR KATL 281652Z 29009KT 250V320 10SM FEW060 SCT085 SCT250 30/15 A3016 RMK AO2 SLP201 T03000150=
200606281552 METAR KATL 281552Z 28011KT 10SM FEW065 SCT100 29/14 A3016 RMK AO2 SLP201 T02890144=
200606281452 METAR KATL 281452Z VRB04KT 10SM FEW100 28/17 A3016 RMK AO2 SLP201 T02830167 51011=
200606281352 METAR KATL 281352Z VRB03KT 6SM HZ FEW030 SCT100 24/19 A3015 RMK AO2 SLP201 T02440189=
200606281252 METAR KATL 281252Z 33005KT 5SM HZ FEW075 SCT100 SCT250 23/19 A3014 RMK AO2 SLP197 T02280189=
200606281152 METAR KATL 281152Z 32008KT 5SM BR FEW075 SCT250 21/19 A3012 RMK AO2 SLP191 T02110189 10228 20200 53014=
200606281052 METAR KATL 281052Z 32005KT 5SM HZ FEW075 SCT250 21/18 A3011 RMK AO2 SLP185 T02110183=
200606280952 METAR KATL 280952Z 00000KT 7SM BKN075 BKN250 22/18 A3009 RMK AO2 SLP179 T02170178=
200606280852 METAR KATL 280852Z 31005KT 7SM FEW060 21/18 A3008 RMK AO2 SLP176 T02060183 53000=
200606280752 METAR KATL 280752Z 20004KT 7SM SCT060 22/17 A3007 RMK AO2 SLP173 T02220172=
200606280652 METAR KATL 280652Z 00000KT 8SM CLR 22/17 A3008 RMK AO2 SLP174 T02220172=
200606280552 METAR KATL 280552Z 00000KT 8SM CLR 23/18 A3008 RMK AO2 SLP175 T02280178 10278 20228 51005=
200606280452 METAR KATL 280452Z 00000KT 10SM CLR 23/18 A3008 RMK AO2 SLP175 T02330178 403000189=
200606280352 METAR KATL 280352Z 00000KT 10SM CLR 25/17 A3007 RMK AO2 SLP173 T02500172=
200606280252 METAR KATL 280252Z 00000KT 10SM CLR 26/17 A3006 RMK AO2 SLP170 T02560172 53012=
200606280152 METAR KATL 280152Z 31004KT 10SM CLR 26/16 A3004 RMK AO2 SLP164 T02610161 $=
200606280052 METAR KATL 280052Z 28005KT 10SM FEW110 26/16 A3002 RMK AO2 SLP157 T02610161=
200606272352 METAR KATL 272352Z 26006KT 10SM FEW110 28/15 A3003 RMK AO2 SLP159 T02780150 10300 20278 53006=
200606272252 METAR KATL 272252Z 30005KT 10SM FEW060 29/15 A3001 RMK AO2 SLP154 T02890150=
200606272152 METAR KATL 272152Z 35004KT 10SM FEW060 SCT200 BKN250 29/16 A3001 RMK AO2 SLP153 T02940156=
200606272052 METAR KATL 272052Z 27005KT 10SM FEW060 SCT250 29/15 A3001 RMK AO2 SLP152 T02940150 56008=
200606271952 METAR KATL 271952Z 30011KT 6SM HZ FEW055 SCT250 29/16 A3001 RMK AO2 SLP154 T02940161=
200606271852 METAR KATL 271852Z 26007KT 7SM FEW050 SCT250 29/18 A3002 RMK AO2 SLP155 T02890183=
200606271752 METAR KATL 271752Z 31006KT 7SM FEW035 SCT250 28/19 A3003 RMK AO2 SLP161 T02780189 10283 20200 50005=
200606271652 METAR KATL 271652Z VRB05KT 7SM FEW030 SCT250 27/20 A3004 RMK AO2 SLP164 T02670200=
200606271552 METAR KATL 271552Z 31008KT 6SM HZ FEW025 SCT250 25/19 A3004 RMK AO2 SLP163 T02500194=
200606271452 METAR KATL 271452Z 31006KT 8SM FEW020 SCT250 24/19 A3002 RMK AO2 SLP156 T02390189 53008=
200606271352 METAR KATL 271352Z COR 30004KT 7SM FEW010 SCT250 23/19 A3001 RMK AO2 SLP154 T02280194=
200606271252 METAR KATL 271252Z 30005KT 3SM BR FEW015 21/19 A2999 RMK AO2 SFC VIS 6 SLP151 T02110194=
200606271215 SPECI KATL 271215Z 27003KT 3SM BR FEW008 SCT015 21/19 A2999 RMK AO2 SFC VIS 6=
200606271215 SPECI KATL 271215Z 27003KT 3SM BR FEW008 SCT015 21/19 A2999 RMK AO2 SFC VIS 6=
200606271152 METAR KATL 271152Z COR 00000KT 3SM FEW002 BKN015 BKN250 20/19 A2999 RMK AO2 SFC VIS 8 SLP148 70066 T02000194 10200 20189 53010=
200606271052 METAR KATL 271052Z 31004KT 3SM BR FEW002 OVC012 19/19 A2997 RMK AO2 SFC VIS 5 SLP142 VIS W-NW 1 1/2 T01940189 $=
200606271050 SPECI KATL 271050Z 31004KT 3SM BR FEW002 OVC012 19/19 A2997 RMK AO2 SFC VIS 5 VIS W-NW 1 1/2 $=
200606271050 SPECI KATL 271050Z 31004KT 3SM BR FEW002 OVC012 19/19 A2997 RMK AO2 SFC VIS 5 VIS W-NW 1 1/2 $=
200606270952 METAR KATL 270952Z 27003KT 1 1/2SM BR SCT002 OVC012 19/18 A2996 RMK AO2 SFC VIS 2 SLP138 T01890183 $=
200606270924 SPECI KATL 270924Z 29003KT 1 1/2SM BR BKN002 OVC012 19/18 A2996 RMK AO2 VIS SW-NW 1/2 $=
200606270924 SPECI KATL 270924Z 29003KT 1 1/2SM BR BKN002 OVC012 19/18 A2996 RMK AO2 VIS SW-NW 1/2 $=
200606270858 SPECI KATL 270858Z 00000KT 1 1/2SM BR SCT002 BKN012 BKN250 19/18 A2995 RMK AO2 VIS SW-NW 1/2 $=
200606270858 SPECI KATL 270858Z 00000KT 1 1/2SM BR SCT002 BKN012 BKN250 19/18 A2995 RMK AO2 VIS SW-NW 1/2 $=
200606270852 METAR KATL 270852Z 00000KT 1/2SM FG BKN002 BKN012 BKN250 19/18 A2995 RMK AO2 SLP134 VIS NE-SE 1 1/2 T01890183 56002 RVRNO $=
200606270849 SPECI KATL 270849Z 00000KT 1/2SM BR SCT002 BKN012 BKN250 19/18 A2995 RMK AO2 SFC VIS 1 VIS SW-NW 1/2 RVRNO $=
200606270849 SPECI KATL 270849Z 00000KT 1/2SM BR SCT002 BKN012 BKN250 19/18 A2995 RMK AO2 SFC VIS 1 VIS SW-NW 1/2 RVRNO $=
200606270839 SPECI KATL 270839Z 32003KT 2SM BR SCT002 BKN012 BKN250 19/18 A2996 RMK AO2 VIS SW-NW 1/2 $=
200606270839 SPECI KATL 270839Z 32003KT 2SM BR SCT002 BKN012 BKN250 19/18 A2996 RMK AO2 VIS SW-NW 1/2 $=
200606270829 SPECI KATL 270829Z 33004KT 3SM BR SCT002 BKN012 BKN250 19/18 A2995 RMK AO2 VIS SW-NW 1 $=
200606270829 SPECI KATL 270829Z 33004KT 3SM BR SCT002 BKN012 BKN250 19/18 A2995 RMK AO2 VIS SW-NW 1 $=
200606270818 SPECI KATL 270818Z 33005KT 3SM BR FEW004 SCT020 SCT250 19/18 A2995 RMK AO2 $=
200606270818 SPECI KATL 270818Z 33005KT 3SM BR FEW004 SCT020 SCT250 19/18 A2995 RMK AO2 $=
200606270816 SPECI KATL 270816Z 33005KT 1 3/4SM BR FEW004 SCT020 SCT250 19/18 A2995 RMK AO2 $=
200606270816 SPECI KATL 270816Z 33005KT 1 3/4SM BR FEW004 SCT020 SCT250 19/18 A2995 RMK AO2 $=
200606270752 METAR KATL 270752Z 31004KT 5SM BR FEW004 SCT020 SCT250 19/18 A2995 RMK AO2 SLP135 T01940183 $=
200606270731 SPECI KATL 270731Z 33005KT 6SM BR FEW006 SCT020 BKN140 OVC200 19/18 A2995 RMK AO2 $=
200606270731 SPECI KATL 270731Z 33005KT 6SM BR FEW006 SCT020 BKN140 OVC200 19/18 A2995 RMK AO2 $=
200606270712 SPECI KATL 270712Z 32005KT 6SM BR SCT013 OVC020 19/18 A2995 RMK AO2 $=
200606270712 SPECI KATL 270712Z 32005KT 6SM BR SCT013 OVC020 19/18 A2995 RMK AO2 $=
200606270652 METAR KATL 270652Z 30006KT 6SM BR BKN013 OVC020 19/18 A2996 RMK AO2 SLP137 T01940183 $=
200606270637 SPECI KATL 270637Z 31006KT 6SM BR SCT013 BKN020 BKN140 OVC200 19/18 A2996 RMK AO2 $=
200606270637 SPECI KATL 270637Z 31006KT 6SM BR SCT013 BKN020 BKN140 OVC200 19/18 A2996 RMK AO2 $=
200606270552 METAR KATL 270552Z 31005KT 7SM OVC014 19/18 A2996 RMK AO2 SLP136 60055 T01940183 10239 20189 50012 $=
200606270541 SPECI KATL 270541Z 29005KT 6SM BR BKN014 OVC120 19/18 A2996 RMK AO2 $=
200606270541 SPECI KATL 270541Z 29005KT 6SM BR BKN014 OVC120 19/18 A2996 RMK AO2 $=
200606270452 METAR KATL 270452Z 34007KT 7SM FEW120 BKN150 OVC200 19/18 A2997 RMK AO2 SLP139 T01940178 402560189 $=
200606270352 METAR KATL 270352Z 29004KT 10SM FEW008 BKN120 OVC200 19/17 A2994 RMK AO2 SLP131 T01940172 $=
200606270252 METAR KATL 270252Z 14006KT 10SM SCT140 BKN200 BKN250 20/18 A2992 RMK AO2 RAE01 SLP125 P0000 60055 T02000178 55004 $=
200606270152 METAR KATL 270152Z 08011KT 10SM -RA FEW080 BKN100 OVC150 20/18 A2991 RMK AO2 WSHFT 0039 TSE41 SLP120 TS MOV SE PCPN VRY LGT P0004 T02000178 $=
200606270141 SPECI KATL 270141Z 07010KT 10SM FEW080 BKN100 OVC150 20/18 A2991 RMK AO2 WSHFT 0039 TSE41RAE41 TS MOV SE P0004 $=
200606270141 SPECI KATL 270141Z 07010KT 10SM FEW080 BKN100 OVC150 20/18 A2991 RMK AO2 WSHFT 0039 TSE41RAE41 TS MOV SE P0004 $=
200606270114 SPECI KATL 270114Z 05014KT 5SM -TSRA BR FEW015CB SCT025 BKN060 OVC150 19/18 A2993 RMK AO2 WSHFT 0039 OCNL LTGICCG TS VC NE-SE MOV SE P0004 $=
200606270114 SPECI KATL 270114Z 05014KT 5SM -TSRA BR FEW015CB SCT025 BKN060 OVC150 19/18 A2993 RMK AO2 WSHFT 0039 OCNL LTGICCG TS VC NE-SE MOV SE P0004 $=
200606270111 SPECI KATL 270111Z 05015KT 3SM TSRA BR FEW015CB SCT025 BKN060 OVC150 19/18 A2993 RMK AO2 WSHFT 0039 OCNL LTGICCG TS VC NE-SE MOV SE P0004 $=
200606270111 SPECI KATL 270111Z 05015KT 3SM TSRA BR FEW015CB SCT025 BKN060 OVC150 19/18 A2993 RMK AO2 WSHFT 0039 OCNL LTGICCG TS VC NE-SE MOV SE P0004 $=
200606270101 SPECI KATL 270101Z 03017KT 2 1/2SM +TSRA BR BKN015CB OVC025 19/18 A2994 RMK AO2 WSHFT 0039 OCNL LTGIC TS NE-SE MOV SE P0002 $=
200606270101 SPECI KATL 270101Z 03017KT 2 1/2SM +TSRA BR BKN015CB OVC025 19/18 A2994 RMK AO2 WSHFT 0039 OCNL LTGIC TS NE-SE MOV SE P0002 $=
200606270055 SPECI KATL 270055Z 01017G26KT 1 1/2SM +TSRA BR BKN015CB OVC025 19/18 A2994 RMK AO2 WSHFT 0039 OCNL LTGICCG TS OHD-ALQDS MOV SE P0000 PNO $=
200606270055 SPECI KATL 270055Z 01017G26KT 1 1/2SM +TSRA BR BKN015CB OVC025 19/18 A2994 RMK AO2 WSHFT 0039 OCNL LTGICCG TS OHD-ALQDS MOV SE P0000 PNO $=
200606270052 METAR KATL 270052Z 36019G26KT 1SM +TSRA BR BKN015CB OVC025 19/18 A2994 RMK AO2 PK WND 35031/0040 WSHFT 0023 TSB17RAB34 SLP131 OCNL LTGICCG TS OHD-ALQDS MOV SE P0051 T01940178 RVRNO $=
200606270041 SPECI KATL 270041Z 34025G31KT 1/4SM +TSRA FG BKN015CB OVC025 19/18 A2992 RMK AO2 PK WND 35031/0040 WSHFT 0023 TSB17RAB34 OCNL LTGIC TS OHD-ALQDS MOV SE P0020 RVRNO $=
200606270041 SPECI KATL 270041Z 34025G31KT 1/4SM +TSRA FG BKN015CB OVC025 19/18 A2992 RMK AO2 PK WND 35031/0040 WSHFT 0023 TSB17RAB34 OCNL LTGIC TS OHD-ALQDS MOV SE P0020 RVRNO $=
200606270038 SPECI KATL 270038Z 33026G29KT 3/4SM +TSRA BR BKN015CB BKN025 OVC060 20/18 A2993 RMK AO2 PK WND 32029/0037 WSHFT 0023 TSB17RAB34 OCNL LTGIC TS N-OHD-S MOV SE CBMAM N-OHD-S P0003 RVRNO=
200606270038 SPECI KATL 270038Z 33026G29KT 3/4SM +TSRA BR BKN015CB BKN025 OVC060 20/18 A2993 RMK AO2 PK WND 32029/0037 WSHFT 0023 TSB17RAB34 OCNL LTGIC TS N-OHD-S MOV SE CBMAM N-OHD-S P0003 RVRNO=
200606270025 SPECI KATL 270025Z 29015G18KT 10SM TS SCT015CB BKN025 BKN060 OVC200 23/20 A2992 RMK AO2 TSB17 OCNL LTGIC TS SW-NW MOV SE=
200606270025 SPECI KATL 270025Z 29015G18KT 10SM TS SCT015CB BKN025 BKN060 OVC200 23/20 A2992 RMK AO2 TSB17 OCNL LTGIC TS SW-NW MOV SE=
200606270017 SPECI KATL 270017Z 04004KT 10SM TS FEW015CB SCT060 BKN150 OVC200 24/21 A2991 RMK AO2 TSB17 OCNL LTGIC TS VC SW-NW MOV SE=
200606270017 SPECI KATL 270017Z 04004KT 10SM TS FEW015CB SCT060 BKN150 OVC200 24/21 A2991 RMK AO2 TSB17 OCNL LTGIC TS VC SW-NW MOV SE=
200606270009 SPECI KATL 270009Z 04006KT 10SM SCT015 BKN150 BKN200 OVC250 24/21 A2991 RMK AO2 CB DSNT SW-NW=
200606270009 SPECI KATL 270009Z 04006KT 10SM SCT015 BKN150 BKN200 OVC250 24/21 A2991 RMK AO2 CB DSNT SW-NW=
200606262352 METAR KATL 262352Z 10007KT 10SM BKN015 BKN150 BKN200 OVC250 24/21 A2990 RMK AO2 SLP118 CB DSNT W-NW 60002 T02390206 10256 20222 53006=
200606262322 SPECI KATL 262322Z 08009KT 10SM BKN015 BKN200 BKN250 24/20 A2988 RMK AO2=
200606262322 SPECI KATL 262322Z 08009KT 10SM BKN015 BKN200 BKN250 24/20 A2988 RMK AO2=
200606262252 METAR KATL 262252Z 10008KT 10SM FEW018 SCT150 BKN200 OVC250 24/21 A2989 RMK AO2 SLP111 MDT CU VC N-NE T02440206=
200606262241 SPECI KATL 262241Z 08010KT 10SM SCT018 SCT035 BKN150 OVC200 25/21 A2989 RMK AO2 MDT CU VC NE=
200606262241 SPECI KATL 262241Z 08010KT 10SM SCT018 SCT035 BKN150 OVC200 25/21 A2989 RMK AO2 MDT CU VC NE=
200606262229 SPECI KATL 262229Z 08011KT 10SM BKN018 BKN150 BKN200 OVC250 25/21 A2989 RMK AO2 MDT CU VC NE=
200606262229 SPECI KATL 262229Z 08011KT 10SM BKN018 BKN150 BKN200 OVC250 25/21 A2989 RMK AO2 MDT CU VC NE=
200606262151 METAR KATL 262151Z 09008KT 10SM FEW010 SCT018 BKN140 OVC250 25/21 A2989 RMK AO2 SLP114 T02500206=
200606262052 METAR KATL 262052Z 10006KT 8SM FEW020 BKN085 BKN100 26/21 A2989 RMK AO2 TSE17 SLP111 TCU DSNT W MOV E SHRA DSNT W-N 60002 T02560206 58007=
200606262018 SPECI KATL 262018Z 10006KT 6SM HZ SCT015 BKN030 BKN110 24/21 A2989 RMK AO2 TSE17 CB DSNT NE-SE MOV NE SHRA VC N-E-S SHRA DSNT NE-SE=
200606262018 SPECI KATL 262018Z 10006KT 6SM HZ SCT015 BKN030 BKN110 24/21 A2989 RMK AO2 TSE17 CB DSNT NE-SE MOV NE SHRA VC N-E-S SHRA DSNT NE-SE=
200606262000 SPECI KATL 262000Z COR 15005KT TS 6SM SCT012CB SCT020 BKN030 23/21 A2989 RMK AO2 OCNL LTGICCG TS E MOV NE CB E MOV NE CB DSNT E-SE MOV NE SHRA VC N-E-S SHRA DSNT E-SE=
200606262000 SPECI KATL 262000Z 15005KT 10SM TS FEW012 SCT020 23/21 A2989 RMK AO2=
200606261952 METAR KATL 261952Z 11006KT 6SM TS BR SCT012CB BKN020 OVC030 22/20 A2989 RMK AO2 RAE51 SLP115 OCNL LTGICCG TS E MOV NE CB E MOV NE TCU NE CB DSNT E-SE MOV NE SHRA VC N-E-S SHRA DSNT E-SE P0001 T02220200=
200606261937 SPECI KATL 261937Z 12008KT 6SM -TSRA BR BKN012CB BKN018TCU OVC041 22/20 A2991 RMK AO2 OCNL LTGIC TS E-SE MOV NE CB E-SE MOV NE TCU NE CB DSNT E-SE MOV NE SHRA VC N-E-S SHRA DSNT E-SE P0001=
200606261937 SPECI KATL 261937Z 12008KT 6SM -TSRA BR BKN012CB BKN018TCU OVC041 22/20 A2991 RMK AO2 OCNL LTGIC TS E-SE MOV NE CB E-SE MOV NE TCU NE CB DSNT E-SE MOV NE SHRA VC N-E-S SHRA DSNT E-SE P0001=
200606261912 SPECI KATL 261912Z 02005KT 6SM -TSRA BKN016CB BKN034TCU OVC041 24/21 A2991 RMK AO2 OCNL LTGIC TS SE MOV NE CB SE MOV NE TCU OHD-NE CB DSNT E-SW MOV NE SHRA VC N-NE AND E-S SHRA DSNT E-SW P0001=
200606261912 SPECI KATL 261912Z 02005KT 6SM -TSRA BKN016CB BKN034TCU OVC041 24/21 A2991 RMK AO2 OCNL LTGIC TS SE MOV NE CB SE MOV NE TCU OHD-NE CB DSNT E-SW MOV NE SHRA VC N-NE AND E-S SHRA DSNT E-SW P0001=
200606261852 METAR KATL 261852Z 35004KT 5SM TSRA SCT023CB BKN037TCU OVC044 24/21 A2990 RMK AO2 TSB37RAB13 SLP116 FRQ LTGICCGCC TS SE MOV NE CB SE MOV NE TCU OHD-NE CB DSNT E-SW MOV NE SHRA VC N-NE AND E-S SHRA DSNT E-SW P0001=
200606261838 SPECI KATL 261838Z 33006KT 7SM TSRA SCT023CB OVC039 24/21 A2990 RMK AO2 TSB37RAB13 FRQ LTGICCGCC TS SE MOV NE CB SE MOV NE CB DSNT E-SW MOV NE SHRA VC E-S SHRA DSNT E-SW P0000=
200606261838 SPECI KATL 261838Z 33006KT 7SM TSRA SCT023CB OVC039 24/21 A2990 RMK AO2 TSB37RAB13 FRQ LTGICCGCC TS SE MOV NE CB SE MOV NE CB DSNT E-SW MOV NE SHRA VC E-S SHRA DSNT E-SW P0000=
200606261831 SPECI KATL 261831Z 32004KT 8SM -RA SCT019 BKN039 OVC060 24/21 A2990 RMK AO2 RAB13 CB DSNT E-SW MOV NE SHRA VC E-S SHRA DSNT E-SW P0000=
200606261831 SPECI KATL 261831Z 32004KT 8SM -RA SCT019 BKN039 OVC060 24/21 A2990 RMK AO2 RAB13 CB DSNT E-SW MOV NE SHRA VC E-S SHRA DSNT E-SW P0000=
200606261805 SPECI KATL 261805Z 31006KT 8SM SCT017 BKN026 BKN049 24/20 A2990 RMK AO2 CB DSNT E-SW MOV NE SHRA DSNT E-SW=
200606261805 SPECI KATL 261805Z 31006KT 8SM SCT017 BKN026 BKN049 24/20 A2990 RMK AO2 CB DSNT E-SW MOV NE SHRA DSNT E-SW=
200606261752 METAR KATL 261752Z 32003KT 8SM SCT016 SCT028 BKN050 25/20 A2991 RMK AO2 SLP118 CB DSNT E-SW MOV NE SHRA DSNT E-SW 60009 T02500200 10256 20217 58004=
200606261652 METAR KATL 261652Z 31003KT 8SM SCT012 SCT020 BKN075 24/21 A2992 RMK AO2 SLP123 T02440206=
200606261552 METAR KATL 261552Z 30005KT 8SM SCT009 BKN016 BKN075 23/21 A2992 RMK AO2 RAB02E18 SLP125 VIRGA VC NE-E P0000 T02330211=
200606261452 METAR KATL 261452Z 00000KT 8SM BKN008 BKN090 23/21 A2992 RMK AO2 RAB31E36 SLP123 VIRGA VC N-NE P0000 60009 T02280206 58000=
200606261424 SPECI KATL 261424Z 17003KT 8SM BKN008 BKN034 OVC070 23/21 A2993 RMK AO2 SHRA VC N-NE AND NW-N=
200606261424 SPECI KATL 261424Z 17003KT 8SM BKN008 BKN034 OVC070 23/21 A2993 RMK AO2 SHRA VC N-NE AND NW-N=
200606261410 SPECI KATL 261410Z 00000KT 3SM SCT010 BKN034 BKN049 23/21 A2992 RMK AO2 SFC VIS 8 SHRA VC N-NE AND NW-N=
200606261410 SPECI KATL 261410Z 00000KT 3SM SCT010 BKN034 BKN049 23/21 A2992 RMK AO2 SFC VIS 8 SHRA VC N-NE AND NW-N=
200606261352 METAR KATL 261352Z COR 17003KT 3SM BR SCT011 BKN029 OVC036 23/21 A2993 RMK AO2 SFC VIS 6 TSE52RAB1254E25 SLP126 TS DSNT N MOV N SHRA VC N-NE AND NW-N BINOVC W P0006 T02280206=
200606261344 SPECI KATL 261344Z 00000KT 3SM TS BR SCT011CB BKN029 OVC060 22/21 A2993 RMK AO2 SFC VIS 6 RAB1254E25 VIS 1/4V5 OCNL LTGIC TS VC N MOV N P0006=
200606261344 SPECI KATL 261344Z 00000KT 3SM TS BR SCT011CB BKN029 OVC060 22/21 A2993 RMK AO2 SFC VIS 6 RAB1254E25 VIS 1/4V5 OCNL LTGIC TS VC N MOV N P0006=
200606261332 SPECI KATL 261332Z 08003KT 1 1/2SM TS BR SCT006 OVC011CB 22/21 A2993 RMK AO2 RAB1254E25 VIS 1/4V5 OCNL LTGIC TS VC N MOV N P0006=
200606261332 SPECI KATL 261332Z 08003KT 1 1/2SM TS BR SCT006 OVC011CB 22/21 A2993 RMK AO2 RAB1254E25 VIS 1/4V5 OCNL LTGIC TS VC N MOV N P0006=
200606261319 SPECI KATL 261319Z 00000KT 5SM -TSRA BR BKN006 BKN011CB OVC024 22/21 A2993 RMK AO2 RAB1254 OCNL LTGIC TS VC N MOV N P0006=
200606261319 SPECI KATL 261319Z 00000KT 5SM -TSRA BR BKN006 BKN011CB OVC024 22/21 A2993 RMK AO2 RAB1254 OCNL LTGIC TS VC N MOV N P0006=
200606261314 SPECI KATL 261314Z 00000KT 1 1/4SM -TSRA BR BKN006 BKN011CB OVC024 22/21 A2993 RMK AO2 VIS 1/4V5 RAB1254 OCNL LTGIC TS VC N MOV N P0006=
200606261314 SPECI KATL 261314Z 00000KT 1 1/4SM -TSRA BR BKN006 BKN011CB OVC024 22/21 A2993 RMK AO2 VIS 1/4V5 RAB1254 OCNL LTGIC TS VC N MOV N P0006=
200606261252 METAR KATL 261252Z 00000KT 6SM TS BR BKN008 BKN016CB OVC050 22/21 A2992 RMK AO2 TSB49RAB23E49 SLP125 OCNL LTGIC TS VC N MOV N P0003 T02170206=
200606261250 SPECI KATL 261250Z 00000KT 6SM TS BR BKN008 BKN016CB OVC050 22/21 A2992 RMK AO2 TSB49RAB23E49 OCNL LTGIC TS VC N AND VC SW MOV N P0003=
200606261250 SPECI KATL 261250Z 00000KT 6SM TS BR BKN008 BKN016CB OVC050 22/21 A2992 RMK AO2 TSB49RAB23E49 OCNL LTGIC TS VC N AND VC SW MOV N P0003=
200606261229 SPECI KATL 261229Z 00000KT 4SM RA BR BKN008 OVC020 22/20 A2991 RMK AO2 RAB23 P0001=
200606261229 SPECI KATL 261229Z 00000KT 4SM RA BR BKN008 OVC020 22/20 A2991 RMK AO2 RAB23 P0001=
200606261152 METAR KATL 261152Z 14003KT 8SM SCT006 BKN022 OVC120 22/20 A2991 RMK AO2 SLP119 70068 T02170200 10217 20211 53004=
200606261134 SPECI KATL 261134Z 14003KT 8SM SCT006 BKN024 BKN120 BKN250 22/20 A2991 RMK AO2=
200606261134 SPECI KATL 261134Z 14003KT 8SM SCT006 BKN024 BKN120 BKN250 22/20 A2991 RMK AO2=
200606261052 METAR KATL 261052Z 00000KT 9SM FEW006 BKN030 BKN120 BKN250 22/20 A2990 RMK AO2 SLP116 CB DSNT NE T02170200=
200606260952 METAR KATL 260952Z 00000KT 9SM FEW008 SCT038 BKN120 BKN250 22/20 A2989 RMK AO2 SLP116 T02170200=
200606260947 SPECI KATL 260947Z 10003KT 9SM SCT008 BKN038 BKN120 BKN250 22/20 A2989 RMK AO2=
200606260947 SPECI KATL 260947Z 10003KT 9SM SCT008 BKN038 BKN120 BKN250 22/20 A2989 RMK AO2=
200606260852 METAR KATL 260852Z 08007KT 10SM OVC008 22/20 A2990 RMK AO2 SLP117 T02170200 55002=
200606260818 SPECI KATL 260818Z 07004KT 10SM BKN008 OVC014 22/20 A2989 RMK AO2=
200606260818 SPECI KATL 260818Z 07004KT 10SM BKN008 OVC014 22/20 A2989 RMK AO2=
200606260811 SPECI KATL 260811Z 08007KT 10SM FEW008 BKN014 BKN120 OVC200 21/20 A2989 RMK AO2=
200606260811 SPECI KATL 260811Z 08007KT 10SM FEW008 BKN014 BKN120 OVC200 21/20 A2989 RMK AO2=
200606260752 METAR KATL 260752Z COR 07005KT 10SM BKN010 BKN016 BKN110 OVC200 22/20 A2989 RMK AO2 SLP115 T02170200=
200606260726 SPECI KATL 260726Z 04004KT 10SM BKN010 OVC016 22/19 A2989 RMK AO2 $=
200606260726 SPECI KATL 260726Z 04004KT 10SM BKN010 OVC016 22/19 A2989 RMK AO2 $=
200606260652 METAR KATL 260652Z 04006KT 10SM BKN018 BKN110 OVC200 22/19 A2990 RMK AO2 SLP118 T02170194=
200606260650 SPECI KATL 260650Z 03005KT 10SM BKN018 BKN110 OVC200 22/19 A2990 RMK AO2=
200606260650 SPECI KATL 260650Z 03005KT 10SM BKN018 BKN110 OVC200 22/19 A2990 RMK AO2=
200606260635 SPECI KATL 260635Z 04005KT 10SM SCT022 SCT110 OVC200 22/19 A2990 RMK AO2=
200606260635 SPECI KATL 260635Z 04005KT 10SM SCT022 SCT110 OVC200 22/19 A2990 RMK AO2=
200606260613 SPECI KATL 260613Z 05007KT 10SM BKN022 BKN110 OVC200 22/19 A2990 RMK AO2=
200606260613 SPECI KATL 260613Z 05007KT 10SM BKN022 BKN110 OVC200 22/19 A2990 RMK AO2=
200606260552 METAR KATL 260552Z 05007KT 10SM FEW110 OVC200 22/19 A2991 RMK AO2 SLP119 60000 T02170194 10222 20211 56011=
200606260452 METAR KATL 260452Z 03006KT 10SM FEW110 BKN250 22/19 A2992 RMK AO2 SLP121 T02170189 402890206=
200606260352 METAR KATL 260352Z 04005KT 10SM SCT110 BKN250 22/19 A2993 RMK AO2 SLP127 T02220189=
200606260252 METAR KATL 260252Z 34005KT 9SM FEW046 SCT110 BKN250 22/19 A2994 RMK AO2 RAB18E41 SLP130 P0000 60000 T02170194 51012=
200606260152 METAR KATL 260152Z 06007KT 8SM FEW007 SCT110 BKN250 22/19 A2994 RMK AO2 SLP130 T02170189=
200606260052 METAR KATL 260052Z 02009KT 6SM BR FEW005 BKN120 OVC250 22/19 A2994 RMK AO2 SLP130 T02170194=
200606260040 SPECI KATL 260040Z 03007KT 7SM FEW007 BKN120 OVC250 22/20 A2994 RMK AO2=
200606260040 SPECI KATL 260040Z 03007KT 7SM FEW007 BKN120 OVC250 22/20 A2994 RMK AO2=
200606252352 METAR KATL 252352Z 01007KT 6SM HZ FEW120 OVC250 22/19 A2991 RMK AO2 SLP120 60068 T02220194 10239 20206 55020=
200606252252 METAR KATL 252252Z 01006KT 7SM FEW017 SCT120 OVC250 22/19 A2990 RMK AO2 RAE51 SLP118 P0001 T02220194=
200606252152 METAR KATL 252152Z 08010KT 7SM -RA FEW008 BKN120 OVC250 21/19 A2994 RMK AO2 TSB2053E13RAB2058E29B49 SLP132 TS DSIPT P0001 T02110194=
200606252116 SPECI KATL 252116Z 04008KT 7SM -RA FEW008 SCT035 OVC120 21/19 A2996 RMK AO2 TSB2053E13RAB2058 TS DSIPT P0001=
200606252116 SPECI KATL 252116Z 04008KT 7SM -RA FEW008 SCT035 OVC120 21/19 A2996 RMK AO2 TSB2053E13RAB2058 TS DSIPT P0001=
200606252052 METAR KATL 252052Z 01009KT 10SM FEW008CB BKN120 22/19 A2997 RMK AO2 TSE06RAE10 SLP141 LTG DSNT E CB DSNT E-SE-SW MOV NE SHRA DSNT=
200606252007 SPECI KATL 252007Z 02006KT 7SM -RA FEW008 SCT027 BKN047 22/20 A2996 RMK AO2 TSE06 LTG DSNT E CB DSNT E-SE-SW MOV NE SHRA DSNT SE-S P0000=
200606252007 SPECI KATL 252007Z 02006KT 7SM -RA FEW008 SCT027 BKN047 22/20 A2996 RMK AO2 TSE06 LTG DSNT E CB DSNT E-SE-SW MOV NE SHRA DSNT SE-S P0000=
200606251952 METAR KATL 251952Z 03008KT 4SM -TSRA BR BKN033CB OVC047 22/20 A2996 RMK AO2 SLP138 OCNL LTGIC TS OHD MOV NE CB OHD MOV NE P0044 T02170200=
200606251926 SPECI KATL 251926Z 02010KT 3SM -TSRA BR OVC030CB 22/20 A2996 RMK AO2 TWR VIS 4 FRQ LTGICCGCC ALQDS TS OHD MOV E CB OHD MOV E SHRA ALQDS P0041 $=
200606251926 SPECI KATL 251926Z 02010KT 3SM -TSRA BR OVC030CB 22/20 A2996 RMK AO2 TWR VIS 4 FRQ LTGICCGCC ALQDS TS OHD MOV E CB OHD MOV E SHRA ALQDS P0041 $=
200606251859 SPECI KATL 251859Z 01009KT 2SM +TSRA BR BKN019CB OVC046 21/19 A2996 RMK AO2 TWR VIS 4 OCNL LTGICCGCC ALQDS TS OHD MOV E CB OHD MOV E SHRA ALQDS P0016=
200606251859 SPECI KATL 251859Z 01009KT 2SM +TSRA BR BKN019CB OVC046 21/19 A2996 RMK AO2 TWR VIS 4 OCNL LTGICCGCC ALQDS TS OHD MOV E CB OHD MOV E SHRA ALQDS P0016=
200606251852 METAR KATL 251852Z 03010KT 1 1/4SM +TSRA BR SCT032CB OVC043 21/20 A2997 RMK AO2 PK WND 32033/1803 WSHFT 1807 TWR VIS 4 SLP140 FRQ LTGICCGCC ALQDS TS OHD MOV SE CB OHD MOV SE SHRA ALQDS P0022 T02110200=
200606251844 SPECI KATL 251844Z 05012KT 2SM +TSRA BR SCT032CB OVC044 22/20 A2997 RMK AO2 PK WND 32033/1803 WSHFT 1807 TWR VIS 4 FRQ LTGICCGCC ALQDS TS OHD MOV SE CB OHD MOV SE SHRA ALQDS P0014=
200606251844 SPECI KATL 251844Z 05012KT 2SM +TSRA BR SCT032CB OVC044 22/20 A2997 RMK AO2 PK WND 32033/1803 WSHFT 1807 TWR VIS 4 FRQ LTGICCGCC ALQDS TS OHD MOV SE CB OHD MOV SE SHRA ALQDS P0014=
200606251836 SPECI KATL 251836Z 03013KT 3SM +TSRA BR SCT033CB OVC044 22/21 A2997 RMK AO2 PK WND 32033/1803 WSHFT 1807 TWR VIS 4 OCNL LTGICCGCC ALQDS TS OHD MOV SE CB OHD MOV SE SHRA ALQDS P0010=
200606251836 SPECI KATL 251836Z 03013KT 3SM +TSRA BR SCT033CB OVC044 22/21 A2997 RMK AO2 PK WND 32033/1803 WSHFT 1807 TWR VIS 4 OCNL LTGICCGCC ALQDS TS OHD MOV SE CB OHD MOV SE SHRA ALQDS P0010=
200606251825 SPECI KATL 251825Z 01016KT 1SM +TSRA BR FEW011CB BKN040 OVC050 22/21 A2996 RMK AO2 PK WND 32033/1803 WSHFT 1807 FRQ LTGICCGCC ALQDS TS OHD MOV SE CB OHD MOV SE TCU E SHRA ALQDS P0007 RVRNO=
200606251825 SPECI KATL 251825Z 01016KT 1SM +TSRA BR FEW011CB BKN040 OVC050 22/21 A2996 RMK AO2 PK WND 32033/1803 WSHFT 1807 FRQ LTGICCGCC ALQDS TS OHD MOV SE CB OHD MOV SE TCU E SHRA ALQDS P0007 RVRNO=
200606251819 SPECI KATL 251819Z 01021G25KT 2SM TSRA BR SCT014CB BKN034TCU OVC050 22/21 A2997 RMK AO2 PK WND 32033/1803 FRQ LTGICCGCC ALQDS TS OHD MOV SE CB OHD MOV SE TCU E SHRA ALQDS P0000=
200606251819 SPECI KATL 251819Z 01021G25KT 2SM TSRA BR SCT014CB BKN034TCU OVC050 22/21 A2997 RMK AO2 PK WND 32033/1803 FRQ LTGICCGCC ALQDS TS OHD MOV SE CB OHD MOV SE TCU E SHRA ALQDS P0000=
200606251752 METAR KATL 251752Z 32019G24KT 7SM -TSRA SCT015CB BKN025TCU OVC050 24/21 A2995 RMK AO2 TSE30B45RAB47 SLP135 OCNL LTGIC TS NW MOV SE CB OHD-NW MOV SE CB DSNT NE MOV NE CB DSNT SW-N MOV NE TCU E AND DSNT E SHRA DSNT=
200606251746 SPECI KATL 251746Z 31015KT 7SM TS SCT023CB BKN036TCU BKN050 25/21 A2995 RMK AO2 TSE30B45 OCNL LTGIC TS W MOV E CB W MOV E CB DSNT NE MOV NE CB DSNT SW-N MOV NE TCU OHD AND DSNT E SHRA DSNT=
200606251746 SPECI KATL 251746Z 31015KT 7SM TS SCT023CB BKN036TCU BKN050 25/21 A2995 RMK AO2 TSE30B45 OCNL LTGIC TS W MOV E CB W MOV E CB DSNT NE MOV NE CB DSNT SW-N MOV NE TCU OHD AND DSNT E SHRA DSNT SW-N=
200606251732 SPECI KATL 251732Z 33010KT 7SM FEW031TCU SCT050 BKN070 27/21 A2996 RMK AO2 TSE30 CB DSNT NE MOV NE CB DSNT SW-N MOV NE TCU OHD AND DSNT E SHRA DSNT SW-N=
200606251732 SPECI KATL 251732Z 33010KT 7SM FEW031TCU SCT050 BKN070 27/21 A2996 RMK AO2 TSE30 CB DSNT NE MOV NE CB DSNT SW-N MOV NE TCU OHD AND DSNT E SHRA DSNT SW-N=
200606251652 METAR KATL 251652Z 13005KT 8SM TS SCT050CB BKN060 BKN090 27/20 A2997 RMK AO2 TSB40RAB27E52 SLP139 OCNL LTGIC TS W MOV E CB W MOV E SHRA VC W AND DSNT NE-NW P0000 T02720200=
200606251641 SPECI KATL 251641Z VRB06KT 8SM -TSRA SCT030CB SCT050 BKN060 27/21 A2998 RMK AO2 TSB40RAB27 OCNL LTGIC TS W MOV E CB W MOV E SHRA DSNT NE-NW P0000=
200606251641 SPECI KATL 251641Z VRB06KT 8SM -TSRA SCT030CB SCT050 BKN060 27/21 A2998 RMK AO2 TSB40RAB27 OCNL LTGIC TS W MOV E CB W MOV E SHRA DSNT NE-NW P0000=
200606251628 SPECI KATL 251628Z VRB03KT 8SM -RA SCT022 BKN050 BKN065 27/21 A2999 RMK AO2 RAB27 SHRA DSNT N-NE AND SE-S AND NW-N P0000=
200606251628 SPECI KATL 251628Z VRB03KT 8SM -RA SCT022 BKN050 BKN065 27/21 A2999 RMK AO2 RAB27 SHRA DSNT N-NE AND SE-S AND NW-N P0000=
200606251603 SPECI KATL 251603Z VRB05KT 8SM SCT022 BKN029 OVC060 26/21 A3000 RMK AO2=
200606251603 SPECI KATL 251603Z VRB05KT 8SM SCT022 BKN029 OVC060 26/21 A3000 RMK AO2=
200606251552 METAR KATL 251552Z 20003KT 8SM SCT022 BKN050 BKN065 26/21 A3001 RMK AO2 SLP152 SHRA DSNT N T02610206=
200606251452 METAR KATL 251452Z 12005KT 8SM FEW020 SCT060 BKN120 BKN150 BKN250 26/21 A3001 RMK AO2 SLP152 T02560211 50004=
200606251352 METAR KATL 251352Z 13006KT 8SM FEW050 SCT100 BKN250 24/21 A3001 RMK AO2 SLP153 T02440206=
200606251252 METAR KATL 251252Z 08005KT 9SM FEW050 SCT110 BKN250 23/19 A3001 RMK AO2 SLP150 T02280194=
200606251152 METAR KATL 251152Z 08006KT 8SM FEW150 SCT250 21/19 A3000 RMK AO2 SLP146 70203 T02110194 10217 20206 53004=
200606251052 METAR KATL 251052Z 08006KT 7SM FEW050 SCT150 BKN250 21/19 A2999 RMK AO2 SLP146 T02060189=
200606250952 METAR KATL 250952Z 09006KT 9SM SCT180 21/19 A2999 RMK AO2 SLP143 T02110189=
200606250852 METAR KATL 250852Z 08006KT 10SM FEW110 21/19 A2999 RMK AO2 SLP143 T02110194 58007=
200606250752 METAR KATL 250752Z 07009KT 8SM BKN120 21/20 A3000 RMK AO2 SLP146 T02110200=
200606250652 METAR KATL 250652Z COR 08007KT 8SM FEW007 BKN150 21/20 A3000 RMK AO2 SLP149 T02110200=
200606250607 SPECI KATL 250607Z 07005KT 8SM SCT005 BKN100 OVC150 22/20 A3001 RMK AO2=
200606250607 SPECI KATL 250607Z 07005KT 8SM SCT005 BKN100 OVC150 22/20 A3001 RMK AO2=
200606250552 METAR KATL 250552Z 06007KT 7SM BKN100 OVC150 22/21 A3001 RMK AO2 RAE16 SLP150 P0000 60203 T02170206 10306 20211 56022=
200606250452 METAR KATL 250452Z 01011KT 10SM -RA SCT038 OVC095 22/20 A3002 RMK AO2 TSE18 SLP155 TS DSIPT P0044 T02220200 403220200=
200606250432 SPECI KATL 250432Z 00000KT 6SM -RA BR SCT028 OVC100 22/20 A3003 RMK AO2 TSE18 TS DSIPT P0044=
200606250432 SPECI KATL 250432Z 00000KT 6SM -RA BR SCT028 OVC100 22/20 A3003 RMK AO2 TSE18 TS DSIPT P0044=
200606250418 SPECI KATL 250418Z 04010KT 5SM RA BR OVC019 22/20 A3003 RMK AO2 TSE18 PRESFR TS DSIPT P0041=
200606250418 SPECI KATL 250418Z 04010KT 5SM RA BR OVC019 22/20 A3003 RMK AO2 TSE18 PRESFR TS DSIPT P0041=
200606250409 SPECI KATL 250409Z 35010KT 2 1/2SM +TSRA BR BKN013 OVC060CB 22/20 A3004 RMK AO2 VIS 1V4 OCNL LTGCGIC TS NE-E MOV NE P0036=
200606250409 SPECI KATL 250409Z 35010KT 2 1/2SM +TSRA BR BKN013 OVC060CB 22/20 A3004 RMK AO2 VIS 1V4 OCNL LTGCGIC TS NE-E MOV NE P0036=
200606250352 METAR KATL 250352Z 35007KT 1 3/4SM +TSRA BR BKN013 OVC060CB 21/20 A3006 RMK AO2 SLP169 VIS 1V4 OCNL LTGIC TS NE AND SW-NW MOV NE P0110 T02110200=
200606250341 SPECI KATL 250341Z VRB03KT 1 3/4SM +TSRA BR BKN018 OVC060CB 22/20 A3007 RMK AO2 FRQ LTGCGIC TS ALQDS MOV NE VIS SW 2 1/2 P0071=
200606250341 SPECI KATL 250341Z VRB03KT 1 3/4SM +TSRA BR BKN018 OVC060CB 22/20 A3007 RMK AO2 FRQ LTGCGIC TS ALQDS MOV NE VIS SW 2 1/2 P0071=
200606250332 SPECI KATL 250332Z 35006KT 4SM -TSRA BR BKN012 BKN048CB OVC065 21/20 A3007 RMK AO2 FRQ LTGCGIC TS ALQDS MOV NE VIS SW 2 1/2 P0065=
200606250332 SPECI KATL 250332Z 35006KT 4SM -TSRA BR BKN012 BKN048CB OVC065 21/20 A3007 RMK AO2 FRQ LTGCGIC TS ALQDS MOV NE VIS SW 2 1/2 P0065=
200606250328 SPECI KATL 250328Z 34006KT 2 1/2SM -TSRA BR BKN012 BKN048CB OVC065 21/20 A3007 RMK AO2 VIS 1V5 CONS LTGCGIC TS ALQDS MOV NE P0063=
200606250328 SPECI KATL 250328Z 34006KT 2 1/2SM -TSRA BR BKN012 BKN048CB OVC065 21/20 A3007 RMK AO2 VIS 1V5 CONS LTGCGIC TS ALQDS MOV NE P0063=
200606250258 SPECI KATL 250258Z 29013G21KT 1 1/2SM +TSRA BR FEW006 BKN020 OVC044CB 21/20 A3007 RMK AO2 CONS LTGCGIC TS ALQDS MOV NE P0008 $=
200606250258 SPECI KATL 250258Z 29013G21KT 1 1/2SM +TSRA BR FEW006 BKN020 OVC044CB 21/20 A3007 RMK AO2 CONS LTGCGIC TS ALQDS MOV NE P0008 $=
200606250252 METAR KATL 250252Z 29019KT 4SM +TSRA BR FEW006 BKN020 OVC044CB 21/20 A3008 RMK AO2 PK WND 30029/0203 WSHFT 0140 RAB01 SLP175 FRQ LTGICCG TS SW-OHD-NW MOV NE VIS SW 2 P0049 60049 T02110200 53030 $=
200606250244 SPECI KATL 250244Z 26014KT 6SM -TSRA BR SCT006 SCT031CB OVC042 21/20 A3007 RMK AO2 PK WND 30029/0203 WSHFT 0140 RAB01 FRQ LTGICCG TS ALQDS MOV NE P0036 $=
200606250244 SPECI KATL 250244Z 26014KT 6SM -TSRA BR SCT006 SCT031CB OVC042 21/20 A3007 RMK AO2 PK WND 30029/0203 WSHFT 0140 RAB01 FRQ LTGICCG TS ALQDS MOV NE P0036 $=
200606250224 SPECI KATL 250224Z 25014G28KT 3SM -TSRA BR SCT006 BKN021CB OVC036 22/20 A3006 RMK AO2 PK WND 30029/0203 WSHFT 0140 RAB01 CONS LTGICCG TS ALQDS MOV NE P0029=
200606250224 SPECI KATL 250224Z 25014G28KT 3SM -TSRA BR SCT006 BKN021CB OVC036 22/20 A3006 RMK AO2 PK WND 30029/0203 WSHFT 0140 RAB01 CONS LTGICCG TS ALQDS MOV NE P0029=
200606250217 SPECI KATL 250217Z 35018G25KT 1SM +TSRA BR SCT008 BKN023CB OVC036 22/21 A3006 RMK AO2 PK WND 30029/0203 WSHFT 0140 RAB01 CONS LTGICCG TS OHD-S-W-N MOV NE P0026 RVRNO=
200606250217 SPECI KATL 250217Z 35018G25KT 1SM +TSRA BR SCT008 BKN023CB OVC036 22/21 A3006 RMK AO2 PK WND 30029/0203 WSHFT 0140 RAB01 CONS LTGICCG TS OHD-S-W-N MOV NE P0026 RVRNO=
200606250214 SPECI KATL 250214Z 34019KT 1SM +TSRA BR SCT011 BKN036CB OVC048 22/21 A3004 RMK AO2 PK WND 30029/0203 WSHFT 0140 RAB01 CONS LTGICCG TS OHD-S-W-N MOV NE P0011 RVRNO=
200606250214 SPECI KATL 250214Z 34019KT 1SM +TSRA BR SCT011 BKN036CB OVC048 22/21 A3004 RMK AO2 PK WND 30029/0203 WSHFT 0140 RAB01 CONS LTGICCG TS OHD-S-W-N MOV NE P0011 RVRNO=
200606250158 SPECI KATL 250158Z 30020G26KT 8SM TS SCT033CB OVC048 23/19 A3003 RMK AO2 PK WND 30027/0156 WSHFT 0140 FRQ LTGICCG TS SW-NW MOV NE=
200606250158 SPECI KATL 250158Z 30020G26KT 8SM TS SCT033CB OVC048 23/19 A3003 RMK AO2 PK WND 30027/0156 WSHFT 0140 FRQ LTGICCG TS SW-NW MOV NE=
200606250152 METAR KATL 250152Z 29019G26KT 8SM TS SCT027 BKN048CB OVC250 24/19 A3003 RMK AO2 PK WND 27026/0143 TSB36 PRESRR SLP161 CONS LTGCGIC TS SW-NW MOV E T02390194=
200606250137 SPECI KATL 250137Z 18006KT 8SM TS SCT050CB BKN095 BKN250 29/18 A3000 RMK AO2 TSB36 CONS LTGCG VC W TS VC SW-NW=
200606250137 SPECI KATL 250137Z 18006KT 8SM TS SCT050CB BKN095 BKN250 29/18 A3000 RMK AO2 TSB36 CONS LTGCG VC W TS VC SW-NW=
200606250052 METAR KATL 250052Z 11006KT 8SM FEW055 SCT095 SCT250 29/18 A2998 RMK AO2 SLP140 CB DSNT SW-NW T02940178=
200606242352 METAR KATL 242352Z 09006KT 9SM FEW055TCU SCT095 31/18 A2998 RMK AO2 SLP142 TCU VC N AND DSNT SE T03060178 10322 20300 55002=
200606242252 METAR KATL 242252Z 10006KT 10SM SCT055TCU SCT085 SCT250 31/18 A2997 RMK AO2 SLP137 TCU OHD-W T03060178=
200606242152 METAR KATL 242152Z 06007KT 8SM SCT060 SCT120 32/18 A2997 RMK AO2 SLP138 T03220178=
200606242052 METAR KATL 242052Z VRB06KT 8SM BKN060 BKN110 32/17 A2999 RMK AO2 SLP144 TCU DSNT SE-S TCU DSNT NW-N T03170172 56025=
200606241952 METAR KATL 241952Z 17005KT 8SM BKN055TCU BKN100 31/17 A3001 RMK AO2 SLP151 TCU OHD-ALQDS T03110172=
200606241852 METAR KATL 241852Z COR VRB04KT 8SM BKN050TCU BKN060 BKN080 31/17 A3004 RMK AO2 SLP160 TCU OHD-ALQDS T03060172=
200606241752 METAR KATL 241752Z 02006KT 8SM BKN050TCU 32/18 A3006 RMK AO2 SLP170 TCU OHD MOV SE T03170178 10317 20211 58012=
200606241652 METAR KATL 241652Z VRB04KT 8SM SCT045 BKN100 BKN250 29/18 A3009 RMK AO2 SLP177 MDT CU ALQDS T02940178=
200606241552 METAR KATL 241552Z 18006KT 8SM FEW045 SCT120 BKN250 28/18 A3009 RMK AO2 SLP180 T02830178=
200606241452 METAR KATL 241452Z 00000KT 8SM FEW030 SCT110 BKN250 27/18 A3010 RMK AO2 SLP183 T02670183 51012=
200606241352 METAR KATL 241352Z VRB03KT 8SM FEW030 SCT100 BKN250 24/18 A3009 RMK AO2 SLP181 T02440183=
200606241252 METAR KATL 241252Z VRB03KT 7SM SCT250 23/18 A3007 RMK AO2 SLP175 T02280183=
200606241152 METAR KATL 241152Z 08003KT 5SM BR FEW007 SCT250 21/19 A3006 RMK AO2 SLP171 T02110189 10222 20200 51005=
200606241100 SPECI KATL 241100Z 08004KT 4SM BR FEW007 SCT180 21/19 A3007 RMK AO2=
200606241100 SPECI KATL 241100Z 08004KT 4SM BR FEW007 SCT180 21/19 A3007 RMK AO2=
200606241052 METAR KATL 241052Z 08006KT 4SM BR BKN007 20/18 A3006 RMK AO2 SLP171 T02000183=
200606241048 SPECI KATL 241048Z 09006KT 4SM BR BKN007 20/18 A3006 RMK AO2=
200606241048 SPECI KATL 241048Z 09006KT 4SM BR BKN007 20/18 A3006 RMK AO2=
200606240952 METAR KATL 240952Z 10005KT 6SM BR FEW007 SCT120 21/19 A3005 RMK AO2 SLP163 T02060189=
200606240920 SPECI KATL 240920Z 08006KT 6SM BR SCT007 21/19 A3005 RMK AO2=
200606240920 SPECI KATL 240920Z 08006KT 6SM BR SCT007 21/19 A3005 RMK AO2=
200606240904 SPECI KATL 240904Z 08008KT 6SM BR BKN008 21/19 A3005 RMK AO2 CIG 006V011=
200606240904 SPECI KATL 240904Z 08008KT 6SM BR BKN008 21/19 A3005 RMK AO2 CIG 006V011=
200606240852 METAR KATL 240852Z 06009KT 7SM FEW008 SCT120 BKN200 21/19 A3005 RMK AO2 SLP163 T02110189 55006=
200606240843 SPECI KATL 240843Z 05010KT 7SM FEW008 SCT120 BKN200 21/19 A3004 RMK AO2=
200606240843 SPECI KATL 240843Z 05010KT 7SM FEW008 SCT120 BKN200 21/19 A3004 RMK AO2=
200606240752 METAR KATL 240752Z 08006KT 7SM SCT120 21/19 A3005 RMK AO2 SLP162 T02110189=
200606240652 METAR KATL 240652Z 08006KT 8SM FEW070 SCT150 21/19 A3007 RMK AO2 SLP169 T02110189=
200606240552 METAR KATL 240552Z 09009KT 9SM SCT150 BKN200 22/19 A3007 RMK AO2 SLP169 T02220189 10256 20217 58004=
200606240452 METAR KATL 240452Z 07007KT 10SM FEW070 SCT150 BKN200 23/18 A3008 RMK AO2 SLP174 T02280183 403500228=
200606240252 METAR KATL 240252Z 13004KT 10SM FEW080 BKN140 OVC200 24/17 A3008 RMK AO2 SLP175 T02440172 50014=
200606240152 METAR KATL 240152Z 11007KT 10SM BKN150 BKN200 24/18 A3009 RMK AO2 SLP177 OCNL LTG DSNT SE CB DSNT SE T02440178=
200606240052 METAR KATL 240052Z 05010KT 10SM FEW050 SCT150 BKN200 26/16 A3006 RMK AO2 SLP170 FRQ LTG DSNT SE-S CB DSNT SE-S T02560161=
200606232352 METAR KATL 232352Z 35014KT 10SM FEW150 BKN200 26/17 A3004 RMK AO2 PK WND 30033/2254 TSB03E49 SLP162 TS DSIPTD CB DSNT NE AND SE-S T02560167 10350 20250 53012=
200606232349 SPECI KATL 232349Z 35012KT 10SM FEW150 BKN200 26/17 A3004 RMK AO2 PK WND 30033/2254 TSB03E49 TS DSIPTD CB DSNT NE AND SE-S=
200606232349 SPECI KATL 232349Z 35012KT 10SM FEW150 BKN200 26/17 A3004 RMK AO2 PK WND 30033/2254 TSB03E49 TS DSIPTD CB DSNT NE AND SE-S=
200606232304 SPECI KATL 232304Z 32021G31KT 6SM TS HZ BLDU SCT065CB SCT150 BKN200 26/17 A3002 RMK AO2 PK WND 30033/2254 TSB03 OCNL LTGCG TS VC=
200606232304 SPECI KATL 232304Z 32021G31KT 6SM TS HZ BLDU SCT065CB SCT150 BKN200 26/17 A3002 RMK AO2 PK WND 30033/2254 TSB03 OCNL LTGCG TS VC=
200606232252 METAR KATL 232252Z 32028G35KT 5SM HZ BLDU FEW040 SCT065TCU BKN150 BKN200 28/17 A3002 RMK AO2 PK WND 31039/2240 SLP156 TCU NE-SE-S CB DSNT N-NE AND W-NW T02780167=
200606232245 SPECI KATL 232245Z 31023G39KT 5SM HZ BLDU SQ FEW040 SCT065 BKN200 29/17 A3002 RMK AO2 PK WND 31039/2240 PRESRR CB DSNT SW-NW=
200606232245 SPECI KATL 232245Z 31023G39KT 5SM HZ BLDU SQ FEW040 SCT065 BKN200 29/17 A3002 RMK AO2 PK WND 31039/2240 PRESRR CB DSNT SW-NW=
200606232152 METAR KATL 232152Z 23007KT 180V280 8SM FEW070 SCT250 34/16 A2999 RMK AO2 SLP141 CB DSNT N AND E-SE T03440161=
200606232052 METAR KATL 232052Z 21006KT 8SM FEW065 SCT250 34/17 A3000 RMK AO2 SLP147 TCU DSNT W-NW T03390167 56029=
200606231952 METAR KATL 231952Z 22006KT 7SM FEW065 SCT250 34/17 A3002 RMK AO2 SLP155 T03440167=
200606231852 METAR KATL 231852Z VRB04KT 6SM HZ SCT070 SCT250 34/17 A3006 RMK AO2 SLP166 T03390172=
200606231752 METAR KATL 231752Z VRB04KT 7SM FEW065 SCT250 33/17 A3009 RMK AO2 SLP178 T03280172 10339 20250 58011=
200606231652 METAR KATL 231652Z 00000KT 7SM FEW065 SCT250 33/17 A3011 RMK AO2 SLP184 T03280167=
200606231552 METAR KATL 231552Z 01008KT 7SM FEW150 SCT250 32/17 A3012 RMK AO2 SLP189 T03170172=
200606231452 METAR KATL 231452Z VRB04KT 6SM HZ FEW095 SCT150 SCT250 30/18 A3012 RMK AO2 SLP189 T03000183 58000=
200606231352 METAR KATL 231352Z VRB03KT 5SM HZ FEW110 SCT150 SCT250 27/19 A3013 RMK AO2 SLP192 T02720189=
200606231252 METAR KATL 231252Z 15003KT 5SM HZ BKN140 BKN250 26/19 A3013 RMK AO2 SLP190 T02560189=
200606231152 METAR KATL 231152Z 09006KT 5SM HZ BKN140 BKN250 25/19 A3013 RMK AO2 SLP190 T02500189 10250 20228 53010=
200606231052 METAR KATL 231052Z 02005KT 5SM HZ BKN140 BKN250 24/19 A3011 RMK AO2 SLP187 T02440189=
200606230952 METAR KATL 230952Z 00000KT 7SM BKN140 BKN250 24/18 A3009 RMK AO2 SLP180 T02440183 $=
200606230852 METAR KATL 230852Z 03003KT 7SM BKN140 BKN250 24/19 A3010 RMK AO2 SLP180 T02390189 57005 $=
200606230752 METAR KATL 230752Z 32003KT 6SM HZ BKN140 BKN250 23/19 A3010 RMK AO2 SLP182 T02280194 $=
200606230652 METAR KATL 230652Z 00000KT 7SM BKN140 BKN200 BKN250 25/19 A3010 RMK AO2 SLP181 T02500189 $=
200606230552 METAR KATL 230552Z 31005KT 5SM HZ FEW140 SCT200 SCT250 23/19 A3011 RMK AO2 SLP185 T02330194 10278 20233 58008 $=
200606230452 METAR KATL 230452Z COR 28007KT 7SM FEW200 BKN250 23/20 A3013 RMK AO2 SLP191 T02330200 403610233=
200606230352 METAR KATL 230352Z 00000KT 9SM FEW140 SCT200 BKN250 26/19 A3015 RMK AO2 SLP195 T02560189 $=
200606230252 METAR KATL 230252Z 13004KT 9SM FEW150 BKN200 BKN250 27/19 A3014 RMK AO2 SLP193 T02670189 53008 PNO $=
200606230152 METAR KATL 230152Z 15004KT 8SM SCT150 OVC200 27/19 A3012 RMK AO2 SLP189 T02670189=
200606230052 METAR KATL 230052Z 17004KT 6SM HZ FEW100 SCT150 OVC200 27/19 A3012 RMK AO2 SLP188 T02720194=
200606222352 METAR KATL 222352Z 17005KT 6SM HZ SCT085 BKN150 OVC200 27/19 A3011 RMK AO2 SLP186 CB DSNT NE-E T02720194 10361 20272 56001=
200606222252 METAR KATL 222252Z 33007KT 7SM FEW060 BKN080 BKN150 OVC200 28/18 A3011 RMK AO2 SLP186 CB DSNT NE-E T02780183=
200606222152 METAR KATL 222152Z 27004KT 6SM HZ FEW060 BKN150 OVC200 28/19 A3008 RMK AO2 SLP175 CB DSNT NE T02780189=
200606222052 METAR KATL 222052Z 26007KT 7SM FEW080 SCT100 BKN150 OVC250 28/19 A3012 RMK AO2 TSE12 SLP187 LTG DSNT SW-NW CB DSNT SW-NW SHRA VC N AND DSNT SW-NW T02780194 55016=
200606222013 SPECI KATL 222013Z 26009KT 7SM BKN075 BKN100 BKN250 28/17 A3011 RMK AO2 TSE12 LTG DSNT W TS DSIPT CB DSNT W=
200606222013 SPECI KATL 222013Z 26009KT 7SM BKN075 BKN100 BKN250 28/17 A3011 RMK AO2 TSE12 LTG DSNT W TS DSIPT CB DSNT W=
200606221952 METAR KATL 221952Z 24011G19KT 7SM TS BKN075CB BKN090 BKN250 31/16 A3011 RMK AO2 TSB30 SLP185 FRQ LTGICCG TS VC SW-W MOV STNRY CB VC SW-W MOV STNRY SHRA VC SW-W T03060161=
200606221931 SPECI KATL 221931Z 05005KT 8SM TS BKN075CB BKN100 BKN250 34/15 A3011 RMK AO2 TSB30 FRQ LTGICCG TS VC SW-W MOV NE CB VC SW-W MOV NE SHRA VC SW-W=
200606221931 SPECI KATL 221931Z 05005KT 8SM TS BKN075CB BKN100 BKN250 34/15 A3011 RMK AO2 TSB30 FRQ LTGICCG TS VC SW-W MOV NE CB VC SW-W MOV NE SHRA VC SW-W=
200606221926 SPECI KATL 221926Z 07006KT 8SM BKN075TCU BKN100 BKN250 34/16 A3012 RMK AO2 LTG DSNT SW-W CB DSNT SW-W MOV NE TCU OHD-SW SHRA DSNT=
200606221926 SPECI KATL 221926Z 07006KT 8SM BKN075TCU BKN100 BKN250 34/16 A3012 RMK AO2 LTG DSNT SW-W CB DSNT SW-W MOV NE TCU OHD-SW SHRA DSNT=
200606221852 METAR KATL 221852Z VRB06KT 6SM HZ FEW075 SCT100 BKN150 BKN250 36/17 A3013 RMK AO2 SLP189 LTG DSNT SW-W CB DSNT SW-W TCU DSNT SW-NW MDT CU N-NE-E T03610167=
200606221752 METAR KATL 221752Z VRB03KT 7SM FEW065TCU SCT100 SCT180 34/17 A3017 RMK AO2 SLP202 TCU NW-N MDT CU ALQDS T03440172 10361 20244 58006=
200606221652 METAR KATL 221652Z VRB03KT 7SM FEW060 SCT180 34/18 A3018 RMK AO2 SLP207 T03390178=
200606221552 METAR KATL 221552Z VRB03KT 6SM HZ FEW180 33/19 A3019 RMK AO2 SLP209 T03280189=
200606221452 METAR KATL 221452Z 01004KT 6SM HZ FEW180 31/19 A3018 RMK AO2 SLP208 T03060189 51005=
200606221352 METAR KATL 221352Z VRB04KT 6SM HZ FEW250 28/19 A3018 RMK AO2 SLP208 T02830189=
200606221252 METAR KATL 221252Z 22003KT 6SM HZ FEW250 27/19 A3018 RMK AO2 SLP207 T02670189=
200606221152 METAR KATL 221152Z 21003KT 6SM HZ FEW250 24/18 A3017 RMK AO2 SLP203 T02440178 10267 20233 53010=
200606221052 METAR KATL 221052Z 18004KT 6SM HZ FEW250 24/18 A3015 RMK AO2 SLP197 T02390178=
200606220952 METAR KATL 220952Z VRB03KT 8SM FEW250 24/17 A3013 RMK AO2 SLP191 T02440172=
200606220852 METAR KATL 220852Z 14004KT 8SM FEW250 25/18 A3014 RMK AO2 SLP192 T02500178 51009=
200606220752 METAR KATL 220752Z 18005KT 8SM FEW250 26/18 A3013 RMK AO2 SLP189 T02560178=
200606220652 METAR KATL 220652Z 13006KT 7SM FEW250 26/18 A3012 RMK AO2 SLP186 T02560183=
200606220552 METAR KATL 220552Z 26006KT 8SM FEW180 SCT250 27/17 A3011 RMK AO2 SLP182 T02670172 10339 20267 58008=
200606220452 METAR KATL 220452Z 24005KT 9SM FEW250 27/17 A3012 RMK AO2 SLP185 T02720172 403610233=
200606220352 METAR KATL 220352Z 18004KT 9SM FEW250 28/17 A3013 RMK AO2 SLP189 T02830172=
200606220252 METAR KATL 220252Z 16003KT 9SM SCT250 29/16 A3013 RMK AO2 SLP191 T02940161 53016=
200606220152 METAR KATL 220152Z 12004KT 10SM BKN200 BKN250 32/13 A3010 RMK AO2 SLP178 T03220133=
200606220052 METAR KATL 220052Z 08005KT 10SM FEW150 OVC200 33/12 A3008 RMK AO2 SLP174 CB DSNT SW T03280117=
200606212352 METAR KATL 212352Z 32006KT 10SM FEW150 BKN200 34/12 A3008 RMK AO2 SLP174 T03390117 10361 20339 55000=
200606212252 METAR KATL 212252Z 36004KT 10SM BKN200 35/12 A3007 RMK AO2 SLP170 T03500117=
200606212152 METAR KATL 212152Z VRB04KT 10SM FEW080 SCT250 36/13 A3007 RMK AO2 SLP169 T03560133=
200606212052 METAR KATL 212052Z 02011G14KT 10SM FEW085 SCT200 36/14 A3008 RMK AO2 SLP174 T03560139 57015=
200606211952 METAR KATL 211952Z 35009KT 10SM FEW085 SCT200 36/13 A3010 RMK AO2 SLP178 T03560133 $=
200606211852 METAR KATL 211852Z 32006KT 10SM FEW075 SCT200 34/14 A3012 RMK AO2 SLP185 T03440144=
200606211752 METAR KATL 211752Z 32013KT 10SM SCT075 34/14 A3013 RMK AO2 SLP189 MDT CU SE-W T03440144 10350 20250 58005=
200606211652 METAR KATL 211652Z 31011KT 10SM SCT070 34/16 A3015 RMK AO2 SLP197 T03440161=
200606211552 METAR KATL 211552Z 08003KT 10SM FEW065 SCT200 32/16 A3015 RMK AO2 SLP196 T03220161=
200606211452 METAR KATL 211452Z 30005KT 10SM FEW200 32/16 A3015 RMK AO2 SLP194 T03170156 51007=
200606211352 METAR KATL 211352Z 29003KT 10SM FEW250 30/17 A3014 RMK AO2 SLP193 T03000167=
200606211252 METAR KATL 211252Z 30004KT 9SM FEW250 27/18 A3013 RMK AO2 SLP192 T02720178=
200606211152 METAR KATL 211152Z 31005KT 8SM FEW120 SCT250 25/18 A3012 RMK AO2 SLP189 T02500178 10272 20233 53013=
200606211052 METAR KATL 211052Z 25003KT 9SM FEW120 SCT250 24/17 A3011 RMK AO2 SLP183 T02390167=
200606210952 METAR KATL 210952Z 00000KT 10SM FEW250 23/17 A3009 RMK AO2 SLP177 T02330172=
200606210852 METAR KATL 210852Z 00000KT 10SM SCT250 24/17 A3008 RMK AO2 SLP174 T02390172 53000=
200606210752 METAR KATL 210752Z 00000KT 10SM FEW120 SCT250 24/17 A3008 RMK AO2 SLP174 T02440172=
200606210652 METAR KATL 210652Z 00000KT 10SM FEW120 SCT250 26/17 A3007 RMK AO2 SLP170 T02560172=
200606210552 METAR KATL 210552Z 01003KT 10SM FEW120 SCT250 27/16 A3008 RMK AO2 SLP174 T02720161 10322 20256 53002=
200606210452 METAR KATL 210452Z 00000KT 10SM SCT250 26/17 A3008 RMK AO2 SLP174 T02610167 403500222=
200606210352 METAR KATL 210352Z 01008KT 10SM BKN250 29/16 A3008 RMK AO2 SLP171 T02940156=
200606210252 METAR KATL 210252Z 36007KT 10SM BKN250 31/16 A3008 RMK AO2 SLP172 T03060156 53013=
200606210152 METAR KATL 210152Z 34006KT 10SM FEW200 BKN250 30/16 A3006 RMK AO2 SLP167 T03000161=
200606210052 METAR KATL 210052Z 32005KT 10SM FEW200 SCT250 31/16 A3005 RMK AO2 SLP163 CB DSNT SW T03060161=
200606202352 METAR KATL 202352Z 35009KT 10SM FEW075 SCT200 SCT250 32/16 A3004 RMK AO2 SLP160 TCU DSNT SE AND NW T03220156 10350 20322 53001=
200606202252 METAR KATL 202252Z 36010KT 10SM FEW075TCU SCT100 34/14 A3003 RMK AO2 SLP157 TCU NE-E MDT CU OHD AND VC S-W T03390144=
200606202152 METAR KATL 202152Z 33010KT 10SM SCT075TCU 34/15 A3003 RMK AO2 SLP158 TCU VC S-SW AND NW MDT CU ALQDS T03440150=
200606202052 METAR KATL 202052Z 29009KT 10SM FEW070 34/15 A3004 RMK AO2 SLP159 MDT CU SE-N T03440150 56018=
200606201952 METAR KATL 201952Z VRB04KT 10SM FEW070 33/15 A3005 RMK AO2 SLP164 MDT CU SE-SW T03330150=
200606201852 METAR KATL 201852Z 26004KT 10SM FEW060 33/15 A3007 RMK AO2 SLP170 MDT CU DSNT N T03330150=
200606201752 METAR KATL 201752Z 29009KT 10SM FEW055 32/17 A3009 RMK AO2 SLP178 MDT CU NW T03220172 10328 20239 58008=
200606201652 METAR KATL 201652Z 27009KT 10SM SCT050 32/18 A3010 RMK AO2 SLP182 MDT CU E-SW T03220178=
200606201552 METAR KATL 201552Z 31011KT 10SM FEW055 31/18 A3012 RMK AO2 SLP186 T03110178=
200606201452 METAR KATL 201452Z 32008KT 270V360 10SM FEW045 SCT250 30/19 A3012 RMK AO2 SLP186 T03000189 51005=
200606201352 METAR KATL 201352Z 33007KT 9SM FEW250 28/19 A3012 RMK AO2 SLP186 T02830194=
200606201252 METAR KATL 201252Z 31006KT 7SM FEW250 26/19 A3011 RMK AO2 SLP184 T02610194=
200606201152 METAR KATL 201152Z 30006KT 7SM FEW250 23/18 A3010 RMK AO2 SLP181 T02330183 10250 20222 53010=
200606201052 METAR KATL 201052Z 27004KT 5SM HZ FEW250 22/18 A3009 RMK AO2 SLP178 T02220178=
200606200952 METAR KATL 200952Z 27004KT 7SM SCT250 23/18 A3007 RMK AO2 SLP173 T02280178=
200606200852 METAR KATL 200852Z 30005KT 7SM FEW250 23/18 A3007 RMK AO2 SLP170 T02280183 57007=
200606200752 METAR KATL 200752Z 29004KT 7SM FEW044 SCT250 24/18 A3007 RMK AO2 SLP172 T02390178=
200606200652 METAR KATL 200652Z 26006KT 7SM FEW055 SCT100 SCT250 24/18 A3009 RMK AO2 SLP177 T02390178=
200606200552 METAR KATL 200552Z COR 26005KT 7SM SCT055 SCT100 BKN250 25/18 A3009 RMK AO2 SLP177 T02500178 10283 20244 58001=
200606200452 METAR KATL 200452Z 23003KT 8SM FEW110 BKN250 26/18 A3010 RMK AO2 SLP181 T02560183 403110194=
200606200352 METAR KATL 200352Z 25004KT 8SM SCT120 BKN250 26/18 A3010 RMK AO2 SLP180 T02610183=
200606200252 METAR KATL 200252Z 25004KT 9SM FEW150 BKN250 26/18 A3009 RMK AO2 SLP179 OCNL LTG DSNT NW-N CB DSNT NW-N T02610183 53011=
200606200152 METAR KATL 200152Z COR 26004KT 9SM FEW200 BKN250 27/18 A3007 RMK AO2 SLP172 T02670183=
200606200052 METAR KATL 200052Z 30005KT 8SM FEW150 SCT200 BKN250 27/18 A3006 RMK AO2 SLP169 T02720178=
200606192352 METAR KATL 192352Z 29009KT 8SM BKN200 BKN250 28/18 A3006 RMK AO2 SLP169 T02830178 10311 20283 56007=
200606192252 METAR KATL 192252Z 29009KT 9SM FEW055 BKN200 BKN250 29/17 A3006 RMK AO2 SLP169 TCU DSNT SE-S T02890172=
200606192152 METAR KATL 192152Z 26010KT 8SM SCT060 SCT080 BKN250 31/17 A3007 RMK AO2 SLP172 MDT CU E-S T03110167=
200606192052 METAR KATL 192052Z 19005KT 9SM FEW065 BKN080 BKN250 30/15 A3008 RMK AO2 SLP176 T03000150 56012=
200606191952 METAR KATL 191952Z COR 17006KT 9SM FEW065 SCT075 BKN250 30/14 A3009 RMK AO2 SLP178 T03000144=
200606191852 METAR KATL 191852Z VRB04KT 9SM BKN060 BKN080 BKN250 30/14 A3010 RMK AO2 SLP181 T03000144=
200606191752 METAR KATL 191752Z 24007KT 10SM SCT060 SCT250 31/15 A3012 RMK AO2 SLP187 T03060150 10306 20206 58011=
200606191652 METAR KATL 191652Z VRB04KT 10SM FEW055 SCT080 BKN250 29/16 A3013 RMK AO2 SLP193 T02890156=
200606191552 METAR KATL 191552Z 22008KT 10SM BKN080 BKN250 28/16 A3014 RMK AO2 SLP197 T02830156=
200606191452 METAR KATL 191452Z 21010KT 10SM FEW070 SCT250 27/16 A3015 RMK AO2 SLP198 T02670161 50003=
200606191352 METAR KATL 191352Z 19007KT 10SM BKN070 BKN250 24/16 A3015 RMK AO2 SLP200 T02390161=
200606191252 METAR KATL 191252Z 21006KT 10SM BKN070 22/17 A3015 RMK AO2 SLP200 T02220167=
200606191152 METAR KATL 191152Z 20007KT 10SM SCT200 21/16 A3014 RMK AO2 SLP196 T02060156 10228 20194 52016=
200606191052 METAR KATL 191052Z 19006KT 10SM FEW180 BKN250 19/15 A3012 RMK AO2 SLP191 T01940150=
200606190952 METAR KATL 190952Z 19005KT 10SM SCT250 19/14 A3011 RMK AO2 SLP185 T01940144=
200606190852 METAR KATL 190852Z 17008KT 10SM FEW200 20/14 A3009 RMK AO2 SLP180 T02000139 55007=
200606190752 METAR KATL 190752Z 15006KT 10SM FEW180 21/13 A3008 RMK AO2 SLP176 T02110128=
200606190652 METAR KATL 190652Z 17005KT 10SM BKN250 22/12 A3009 RMK AO2 SLP180 T02220122=
200606190552 METAR KATL 190552Z 16003KT 10SM SCT250 22/12 A3011 RMK AO2 SLP186 T02220122 10289 20222 58007=
200606190452 METAR KATL 190452Z 15003KT 10SM SCT250 23/12 A3012 RMK AO2 SLP191 T02330122 403000194=
200606190352 METAR KATL 190352Z 18004KT 10SM FEW090 SCT250 24/12 A3013 RMK AO2 SLP194 T02390122=
200606190252 METAR KATL 190252Z 18005KT 10SM SCT250 26/12 A3013 RMK AO2 SLP193 T02560122 53010=
200606190152 METAR KATL 190152Z 19004KT 10SM FEW090 SCT250 27/12 A3011 RMK AO2 SLP187 T02670122=
200606190052 METAR KATL 190052Z 19004KT 10SM FEW090 BKN250 28/12 A3010 RMK AO2 SLP183 T02780117=
200606182352 METAR KATL 182352Z 15008KT 10SM FEW070 SCT250 29/11 A3010 RMK AO2 SLP183 T02890111 10300 20272 55004=
200606182252 METAR KATL 182252Z 16006KT 9SM SCT070 29/11 A3009 RMK AO2 SLP181 T02940111=
200606182152 METAR KATL 182152Z 16005KT 9SM SCT070 29/12 A3009 RMK AO2 SLP181 T02940117=
200606182052 METAR KATL 182052Z VRB05KT 10SM SCT070 BKN250 29/12 A3011 RMK AO2 SLP188 T02890117 56016=
200606181952 METAR KATL 181952Z 13007KT 10SM SCT065 BKN250 28/12 A3013 RMK AO2 SLP192 MDT CU ALQDS T02830117=
200606181852 METAR KATL 181852Z 17007KT 100V190 10SM BKN065 BKN250 28/12 A3014 RMK AO2 SLP198 MDT CU ALQDS T02780117=
200606181752 METAR KATL 181752Z VRB04KT 9SM BKN060 28/13 A3016 RMK AO2 SLP203 MDT CU ALQDS T02780128 10289 20206 56018=
200606181652 METAR KATL 181652Z 13004KT 10SM SCT047 BKN055 27/14 A3018 RMK AO2 SLP209 MDT CU ALQDS T02720139=
200606181552 METAR KATL 181552Z 09006KT 10SM FEW043 SCT060 SCT110 27/17 A3019 RMK AO2 SLP214 T02670167=
200606181452 METAR KATL 181452Z VRB04KT 10SM FEW040 SCT100 25/16 A3021 RMK AO2 SLP222 T02500156 50004=
200606181352 METAR KATL 181352Z 22006KT 10SM FEW030 SCT150 23/16 A3023 RMK AO2 SLP227 T02330161=
200606181252 METAR KATL 181252Z 21009KT 10SM BKN044 BKN180 21/16 A3023 RMK AO2 SLP227 T02110156=
200606181152 METAR KATL 181152Z 19005KT 10SM FEW250 21/16 A3020 RMK AO2 SLP218 T02060161 10228 20194 53021=
200606181052 METAR KATL 181052Z 17003KT 10SM FEW250 19/16 A3017 RMK AO2 SLP209 T01940156=
200606180952 METAR KATL 180952Z 15005KT 10SM FEW200 19/16 A3015 RMK AO2 SLP201 T01940156=
200606180852 METAR KATL 180852Z 15006KT 10SM CLR 20/16 A3014 RMK AO2 SLP197 T02000156 56009=
200606180752 METAR KATL 180752Z 16007KT 10SM CLR 21/16 A3015 RMK AO2 SLP200 T02110161=
200606180652 METAR KATL 180652Z 15010KT 10SM CLR 22/16 A3016 RMK AO2 SLP202 T02220156=
200606180552 METAR KATL 180552Z 15007KT 10SM FEW250 23/13 A3017 RMK AO2 SLP205 T02280133 10289 20222 56003=
200606180452 METAR KATL 180452Z 14006KT 10SM FEW250 23/12 A3017 RMK AO2 SLP207 T02330122 403000206=
200606180352 METAR KATL 180352Z 14006KT 10SM FEW250 24/12 A3017 RMK AO2 SLP207 T02390117=
200606180252 METAR KATL 180252Z 13005KT 10SM FEW250 25/12 A3018 RMK AO2 SLP210 T02500117 53012=
200606180152 METAR KATL 180152Z 13004KT 10SM SCT250 26/11 A3016 RMK AO2 SLP204 T02610111=
200606180052 METAR KATL 180052Z 13004KT 9SM FEW070 SCT250 28/11 A3016 RMK AO2 SLP203 T02780106=
200606172352 METAR KATL 172352Z 15007KT 8SM FEW070 29/11 A3014 RMK AO2 SLP198 T02890106 10300 20283 55004=
200606172252 METAR KATL 172252Z 11008KT 8SM FEW070 29/11 A3014 RMK AO2 SLP198 T02890111=
200606172152 METAR KATL 172152Z 12007KT 7SM SCT070 30/12 A3015 RMK AO2 SLP199 T03000122=
200606172052 METAR KATL 172052Z 12009G14KT 7SM SCT065 30/12 A3016 RMK AO2 SLP202 T03000122 58020=
200606171952 METAR KATL 171952Z 09009KT 8SM SCT065 BKN250 29/13 A3018 RMK AO2 SLP210 T02940133=
200606171852 METAR KATL 171852Z VRB06G15KT 10SM SCT060 SCT090 BKN250 29/12 A3021 RMK AO2 SLP218 T02890122=
200606171752 METAR KATL 171752Z 13009KT 10SM FEW060 SCT100 SCT250 29/13 A3022 RMK AO2 SLP222 T02890128 10289 20206 58009=
200606171652 METAR KATL 171652Z 15009KT 10SM FEW090 SCT250 28/12 A3024 RMK AO2 SLP229 T02780117=
200606171552 METAR KATL 171552Z 15010KT 9SM FEW150 SCT250 27/12 A3025 RMK AO2 SLP231 T02670117=
200606171452 METAR KATL 171452Z 18007KT 9SM FEW120 SCT150 SCT250 26/12 A3025 RMK AO2 SLP232 T02560122 50005=
200606171352 METAR KATL 171352Z 12005KT 8SM FEW035 SCT090 SCT150 BKN250 24/15 A3025 RMK AO2 SLP234 T02390150=
200606171252 METAR KATL 171252Z 13004KT 9SM SCT180 21/15 A3025 RMK AO2 SLP232 T02110150=
200606171152 METAR KATL 171152Z 11004KT 8SM SCT250 21/14 A3023 RMK AO2 SLP227 T02060144 10233 20206 53015=
200606171052 METAR KATL 171052Z 13003KT 8SM SCT250 21/13 A3022 RMK AO2 SLP222 T02060133=
200606170952 METAR KATL 170952Z 15004KT 9SM FEW090 SCT180 21/13 A3019 RMK AO2 SLP212 T02060133=
200606170852 METAR KATL 170852Z 16004KT 9SM FEW090 BKN150 21/13 A3019 RMK AO2 SLP211 T02110133 53009=
200606170752 METAR KATL 170752Z 17007KT 10SM BKN085 22/13 A3017 RMK AO2 SLP206 T02170133=
200606170652 METAR KATL 170652Z 16007KT 10SM BKN180 23/14 A3017 RMK AO2 SLP204 T02280139=
200606170552 METAR KATL 170552Z 14009KT 10SM SCT150 23/13 A3016 RMK AO2 SLP202 T02330133 10294 20233 50002=
200606170452 METAR KATL 170452Z 14005KT 9SM SCT150 24/14 A3016 RMK AO2 SLP203 T02390139 403110194=
200606170352 METAR KATL 170352Z 13007KT 10SM FEW150 25/14 A3016 RMK AO2 SLP203 T02500139=
200606170252 METAR KATL 170252Z 13007KT 10SM FEW150 26/13 A3015 RMK AO2 SLP200 T02560133 53004=
200606170152 METAR KATL 170152Z 12008KT 10SM SCT150 27/13 A3013 RMK AO2 SLP194 T02670133=
200606170052 METAR KATL 170052Z 10009KT 10SM FEW150 28/12 A3013 RMK AO2 SLP193 T02830122=
200606162352 METAR KATL 162352Z 11010KT 10SM FEW150 29/12 A3014 RMK AO2 SLP197 T02940122 10311 20294 53008=
200606162252 METAR KATL 162252Z VRB06KT 10SM FEW080 SCT150 30/12 A3014 RMK AO2 SLP196 T03000117=
200606162152 METAR KATL 162152Z 12010KT 10SM FEW075 31/12 A3012 RMK AO2 SLP188 T03110122=
200606162052 METAR KATL 162052Z 08009KT 10SM FEW075 31/13 A3012 RMK AO2 SLP188 T03060128 58018=
200606161952 METAR KATL 161952Z VRB06KT 10SM SCT075 30/12 A3014 RMK AO2 SLP195 T03000117=
200606161852 METAR KATL 161852Z 15007KT 10SM FEW070 31/12 A3016 RMK AO2 SLP202 T03060122=
200606161752 METAR KATL 161752Z 15004KT 10SM FEW070 30/13 A3017 RMK AO2 SLP207 T03000128 10306 20217 58006=
200606161652 METAR KATL 161652Z 16010KT 10SM FEW060 29/14 A3019 RMK AO2 SLP212 T02890144=
200606161552 METAR KATL 161552Z 15010KT 8SM FEW055 28/14 A3019 RMK AO2 SLP213 T02830144=
200606161452 METAR KATL 161452Z 13006KT 7SM CLR 27/17 A3019 RMK AO2 SLP213 T02670167 50007=
200606161352 METAR KATL 161352Z 13005KT 6SM HZ CLR 24/18 A3019 RMK AO2 SLP214 T02440178=
200606161252 METAR KATL 161252Z 10006KT 6SM HZ CLR 23/16 A3019 RMK AO2 SLP211 T02330161=
200606161152 METAR KATL 161152Z 08006KT 6SM HZ CLR 22/15 A3017 RMK AO2 SLP207 T02170150 10233 20194 53018=
200606161052 METAR KATL 161052Z 08005KT 7SM CLR 21/13 A3015 RMK AO2 SLP201 T02110133=
200606160952 METAR KATL 160952Z 07004KT 10SM CLR 21/13 A3013 RMK AO2 SLP192 T02110133=
200606160852 METAR KATL 160852Z 00000KT 10SM CLR 22/13 A3012 RMK AO2 SLP187 T02170133 55001=
200606160752 METAR KATL 160752Z 00000KT 10SM CLR 23/13 A3011 RMK AO2 SLP185 T02280133=
200606160652 METAR KATL 160652Z 13003KT 10SM CLR 23/13 A3011 RMK AO2 SLP186 T02330133=
200606160552 METAR KATL 160552Z 00000KT 10SM CLR 23/14 A3012 RMK AO2 SLP188 T02330139 10289 20228 51007=
200606160452 METAR KATL 160452Z 01003KT 10SM FEW250 25/13 A3012 RMK AO2 SLP187 T02500128 403110183=
200606160352 METAR KATL 160352Z 36005KT 10SM SCT250 26/13 A3011 RMK AO2 SLP185 T02560128=
200606160252 METAR KATL 160252Z 00000KT 10SM SCT250 27/13 A3010 RMK AO2 SLP180 T02670133 53012=
200606160152 METAR KATL 160152Z 00000KT 10SM FEW200 BKN250 28/13 A3008 RMK AO2 SLP174 T02780128=
200606160052 METAR KATL 160052Z 16003KT 10SM SCT200 BKN250 28/13 A3007 RMK AO2 SLP170 T02830128=
200606152352 METAR KATL 152352Z 28006KT 10SM FEW075 BKN250 29/12 A3006 RMK AO2 SLP169 T02890122 10311 20289 55002=
200606152252 METAR KATL 152252Z 29006KT 10SM FEW075 BKN250 30/12 A3006 RMK AO2 SLP168 T03000122=
200606152152 METAR KATL 152152Z 27005KT 10SM BKN250 31/12 A3005 RMK AO2 SLP167 T03060117=
200606152052 METAR KATL 152052Z 00000KT 10SM FEW080 BKN250 31/11 A3006 RMK AO2 SLP171 T03060106 57015=
200606151952 METAR KATL 151952Z VRB04KT 10SM FEW075 BKN250 30/11 A3008 RMK AO2 SLP176 T03000111=
200606151852 METAR KATL 151852Z 32004KT 10SM FEW070 SCT250 29/12 A3009 RMK AO2 SLP181 T02940122=
200606151752 METAR KATL 151752Z VRB05KT 10SM FEW065 29/13 A3011 RMK AO2 SLP185 T02940128 10294 20217 58006=
200606151652 METAR KATL 151652Z VRB04KT 10SM FEW065 28/12 A3012 RMK AO2 SLP191 T02780122=
200606151552 METAR KATL 151552Z VRB06KT 9SM FEW055 27/13 A3013 RMK AO2 SLP194 T02670133=
200606151452 METAR KATL 151452Z 08007KT 9SM CLR 26/14 A3013 RMK AO2 SLP192 T02610139 51013=
200606151352 METAR KATL 151352Z 08008KT 9SM CLR 25/14 A3012 RMK AO2 SLP190 T02500139=
200606151252 METAR KATL 151252Z 04007KT 8SM CLR 24/14 A3011 RMK AO2 SLP185 T02390139=
200606151152 METAR KATL 151152Z 36005KT 7SM CLR 22/14 A3009 RMK AO2 SLP179 T02170139 10222 20183 51024=
200606151052 METAR KATL 151052Z 32004KT 6SM HZ FEW250 19/14 A3007 RMK AO2 SLP174 T01940144=
200606150952 METAR KATL 150952Z 31004KT 8SM FEW250 19/14 A3005 RMK AO2 SLP164 T01890144=
200606150852 METAR KATL 150852Z 31004KT 8SM FEW250 19/14 A3002 RMK AO2 SLP154 T01940144 55002=
200606150752 METAR KATL 150752Z 34006KT 9SM FEW250 21/14 A3001 RMK AO2 SLP150 T02060139=
200606150652 METAR KATL 150652Z 32006KT 9SM FEW250 21/14 A3002 RMK AO2 SLP154 T02060144=
200606150552 METAR KATL 150552Z 33006KT 10SM FEW250 22/14 A3002 RMK AO2 SLP155 T02220144 10283 20222 51008=
200606150452 METAR KATL 150452Z 34007KT 9SM FEW250 23/15 A3002 RMK AO2 SLP155 T02280150 403060183=
200606150352 METAR KATL 150352Z 31004KT 10SM FEW250 24/15 A3001 RMK AO2 SLP152 T02390150=
200606150252 METAR KATL 150252Z 32005KT 10SM FEW250 24/14 A3000 RMK AO2 SLP148 T02440144 53013=
200606150152 METAR KATL 150152Z 31004KT 10SM FEW250 26/14 A2998 RMK AO2 SLP141 T02560144=
200606150052 METAR KATL 150052Z 32007KT 10SM FEW070 SCT250 28/14 A2997 RMK AO2 SLP137 T02780139=
200606142352 METAR KATL 142352Z 28008KT 10SM FEW070 SCT200 28/14 A2996 RMK AO2 SLP135 T02830144 10306 20283 53006=
200606142252 METAR KATL 142252Z 30011KT 9SM FEW060 29/15 A2995 RMK AO2 SLP132 T02940150=
200606142152 METAR KATL 142152Z 30009KT 9SM FEW060 31/14 A2994 RMK AO2 SLP129 T03060144=
200606142052 METAR KATL 142052Z 29008G16KT 10SM FEW065 30/14 A2994 RMK AO2 SLP129 T03000144 56006=
200606141952 METAR KATL 141952Z 29012KT 10SM FEW060 31/14 A2994 RMK AO2 SLP129 T03060139=
200606141852 METAR KATL 141852Z 33010KT 9SM SCT055 29/15 A2995 RMK AO2 SLP130 T02940150=
200606141752 METAR KATL 141752Z 29012G18KT 9SM SCT050 29/17 A2996 RMK AO2 SLP134 T02940167 10294 20200 58004=
200606141652 METAR KATL 141652Z 32012G16KT 10SM FEW050 SCT240 SCT280 29/17 A2996 RMK AO2 SLP137 T02890167=
200606141552 METAR KATL 141552Z 32008G17KT 10SM FEW040 SCT240 SCT280 27/17 A2997 RMK AO2 SLP139 T02720172=
200606141452 METAR KATL 141452Z 30008KT 230V350 9SM FEW240 SCT280 26/18 A2997 RMK AO2 SLP139 T02560183 51012=
200606141352 METAR KATL 141352Z 28010KT 8SM FEW240 SCT280 24/18 A2997 RMK AO2 SLP139 T02390183=
200606141252 METAR KATL 141252Z 29011KT 9SM FEW250 22/17 A2995 RMK AO2 SLP134 T02170172=
200606141152 METAR KATL 141152Z 30009KT 10SM FEW250 20/17 A2993 RMK AO2 SLP129 T02000167 10206 20183 53010=
200606141052 METAR KATL 141052Z 30005KT 10SM FEW140 SCT250 18/16 A2992 RMK AO2 SLP123 T01830161=
200606140952 METAR KATL 140952Z 34005KT 10SM FEW140 SCT250 19/16 A2990 RMK AO2 SLP119 T01890161=
200606140912 SPECI KATL 140912Z 34007KT 10SM FEW018 SCT250 19/16 A2990 RMK AO2=
200606140912 SPECI KATL 140912Z 34007KT 10SM FEW018 SCT250 19/16 A2990 RMK AO2=
200606140852 METAR KATL 140852Z 34008KT 9SM OVC018 19/16 A2990 RMK AO2 SLP118 T01890161 55004=
200606140752 METAR KATL 140752Z 33008KT 10SM OVC020 19/16 A2989 RMK AO2 SLP115 T01940161=
200606140724 SPECI KATL 140724Z 32009KT 10SM BKN020 BKN046 BKN250 19/16 A2989 RMK AO2=
200606140724 SPECI KATL 140724Z 32009KT 10SM BKN020 BKN046 BKN250 19/16 A2989 RMK AO2=
200606140652 METAR KATL 140652Z 01010KT 10SM FEW020 BKN044 BKN250 20/16 A2990 RMK AO2 SLP118 T02000161=
200606140552 METAR KATL 140552Z 01009KT 10SM FEW028 OVC055 20/16 A2991 RMK AO2 SLP122 T02000161 10233 20200 58003=
200606140452 METAR KATL 140452Z 01016KT 10SM SCT018 BKN050 BKN250 20/16 A2992 RMK AO2 SLP124 T02000156 402440200=
200606140352 METAR KATL 140352Z 02012KT 10SM OVC020 21/16 A2993 RMK AO2 SLP127 BINOVC T02060161=
200606140312 SPECI KATL 140312Z 04012G20KT 10SM BKN020 BKN250 21/16 A2993 RMK AO2=
200606140312 SPECI KATL 140312Z 04012G20KT 10SM BKN020 BKN250 21/16 A2993 RMK AO2=
200606140252 METAR KATL 140252Z 03017G20KT 10SM FEW020 SCT250 21/16 A2992 RMK AO2 SLP124 T02060161 53006=
200606140152 METAR KATL 140152Z 04016KT 10SM FEW020 SCT250 21/16 A2991 RMK AO2 SLP121 T02060161=
200606140052 METAR KATL 140052Z 05015KT 9SM FEW020 SCT085 SCT140 BKN250 22/17 A2991 RMK AO2 SLP119 T02170167=
200606132352 METAR KATL 132352Z 04014KT 10SM FEW025 BKN090 BKN140 BKN250 23/17 A2990 RMK AO2 SLP117 T02280172 10244 20211 56009=
200606132252 METAR KATL 132252Z 05014KT 10SM FEW025 SCT140 BKN200 BKN250 24/17 A2991 RMK AO2 SLP119 T02390172=
200606132152 METAR KATL 132152Z 04013KT 10SM SCT020 BKN150 BKN200 BKN250 23/17 A2992 RMK AO2 SLP122 T02280167=
200606132141 SPECI KATL 132141Z 05014KT 10SM SCT020 BKN150 BKN200 BKN250 23/17 A2992 RMK AO2=
200606132141 SPECI KATL 132141Z 05014KT 10SM SCT020 BKN150 BKN200 BKN250 23/17 A2992 RMK AO2=
200606132113 SPECI KATL 132113Z 03013KT 10SM BKN020 BKN060 BKN150 BKN250 23/17 A2993 RMK AO2=
200606132113 SPECI KATL 132113Z 03013KT 10SM BKN020 BKN060 BKN150 BKN250 23/17 A2993 RMK AO2=
200606132052 METAR KATL 132052Z 04013KT 10SM FEW020 SCT060 BKN130 BKN250 23/17 A2993 RMK AO2 SLP126 T02330172 55009=
200606131952 METAR KATL 131952Z 04014KT 8SM BKN015 BKN060 BKN250 23/18 A2993 RMK AO2 SLP126 T02280178=
200606131943 SPECI KATL 131943Z 06014KT 6SM HZ BKN015 BKN020 OVC060 23/18 A2993 RMK AO2=
200606131943 SPECI KATL 131943Z 06014KT 6SM HZ BKN015 BKN020 OVC060 23/18 A2993 RMK AO2=
200606131852 METAR KATL 131852Z 06014KT 6SM HZ OVC011 22/18 A2995 RMK AO2 SLP132 T02170178=
200606131806 SPECI KATL 131806Z 06014KT 7SM OVC013 22/18 A2995 RMK AO2=
200606131806 SPECI KATL 131806Z 06014KT 7SM OVC013 22/18 A2995 RMK AO2=
200606131752 METAR KATL 131752Z 06014KT 7SM OVC015 22/18 A2996 RMK AO2 SLP136 T02220183 10233 20217 55000=
200606131652 METAR KATL 131652Z 04013KT 9SM BKN017 OVC050 23/18 A2996 RMK AO2 SLP135 T02280183=
200606131632 SPECI KATL 131632Z 04014KT 9SM SCT015 BKN020 OVC050 23/18 A2996 RMK AO2=
200606131632 SPECI KATL 131632Z 04014KT 9SM SCT015 BKN020 OVC050 23/18 A2996 RMK AO2=
200606131600 SPECI KATL 131600Z 05013KT 9SM FEW020 SCT031 OVC038 23/19 A2995 RMK AO2=
200606131600 SPECI KATL 131600Z 05013KT 9SM FEW020 SCT031 OVC038 23/19 A2995 RMK AO2=
200606131552 METAR KATL 131552Z 04016KT 10SM FEW016 BKN028 OVC043 23/19 A2995 RMK AO2 SLP133 T02330189=
200606131540 SPECI KATL 131540Z 06012KT 10SM SCT015 BKN040 OVC048 23/19 A2995 RMK AO2=
200606131540 SPECI KATL 131540Z 06012KT 10SM SCT015 BKN040 OVC048 23/19 A2995 RMK AO2=
200606131504 SPECI KATL 131504Z 08011KT 10SM SCT017 BKN023 OVC038 23/19 A2996 RMK AO2=
200606131504 SPECI KATL 131504Z 08011KT 10SM SCT017 BKN023 OVC038 23/19 A2996 RMK AO2=
200606131452 METAR KATL 131452Z 09010KT 10SM FEW017 BKN030 OVC060 23/19 A2996 RMK AO2 SLP134 T02280189 53009=
200606131427 SPECI KATL 131427Z 08009KT 10SM SCT015 BKN029 OVC060 23/18 A2995 RMK AO2=
200606131427 SPECI KATL 131427Z 08009KT 10SM SCT015 BKN029 OVC060 23/18 A2995 RMK AO2=
200606131352 METAR KATL 131352Z 09008KT 10SM FEW012 SCT050 BKN065 BKN150 OVC250 23/19 A2995 RMK AO2 SLP131 T02280189=
200606131252 METAR KATL 131252Z 09005KT 10SM FEW012 OVC038 22/19 A2993 RMK AO2 SLP126 T02220194=
200606131222 SPECI KATL 131222Z 09004KT 10SM FEW012 BKN038 OVC110 22/19 A2993 RMK AO2=
200606131222 SPECI KATL 131222Z 09004KT 10SM FEW012 BKN038 OVC110 22/19 A2993 RMK AO2=
200606131152 METAR KATL 131152Z 08004KT 10SM FEW008 OVC026 22/19 A2993 RMK AO2 SLP126 70020 T02170194 10228 20211 53013=
200606131100 SPECI KATL 131100Z 00000KT 10SM FEW008 BKN024 OVC034 22/19 A2992 RMK AO2=
200606131100 SPECI KATL 131100Z 00000KT 10SM FEW008 BKN024 OVC034 22/19 A2992 RMK AO2=
200606131052 METAR KATL 131052Z 00000KT 10SM FEW008 OVC034 22/19 A2991 RMK AO2 SLP120 T02170194=
200606131023 SPECI KATL 131023Z 14004KT 10SM FEW008 SCT025 OVC032 22/19 A2991 RMK AO2=
200606131023 SPECI KATL 131023Z 14004KT 10SM FEW008 SCT025 OVC032 22/19 A2991 RMK AO2=
200606131001 SPECI KATL 131001Z 15003KT 10SM FEW008 OVC024 22/20 A2990 RMK AO2=
200606131001 SPECI KATL 131001Z 15003KT 10SM FEW008 OVC024 22/20 A2990 RMK AO2=
200606130952 METAR KATL 130952Z 00000KT 10SM OVC022 22/20 A2990 RMK AO2 SLP114 T02170200=
200606130852 METAR KATL 130852Z 17006KT 10SM FEW006 OVC020 22/20 A2989 RMK AO2 SLP112 T02170200 55002=
200606130808 SPECI KATL 130808Z 18005KT 10SM BKN021 BKN110 BKN200 22/20 A2990 RMK AO2=
200606130808 SPECI KATL 130808Z 18005KT 10SM BKN021 BKN110 BKN200 22/20 A2990 RMK AO2=
200606130752 METAR KATL 130752Z 18005KT 10SM FEW036 BKN100 BKN200 22/20 A2989 RMK AO2 SLP115 T02170200=
200606130652 METAR KATL 130652Z 16005KT 7SM FEW008 SCT100 BKN200 22/20 A2990 RMK AO2 SLP116 T02220200=
200606130552 METAR KATL 130552Z 19004KT 4SM BR FEW006 SCT036TCU OVC050 23/21 A2991 RMK AO2 SLP118 TCU NE 60001 T02280211 10239 20228 58004=
200606130452 METAR KATL 130452Z 00000KT 7SM FEW045 SCT080 BKN120 OVC150 23/21 A2992 RMK AO2 RAB22E51 SLP119 P0001 T02330211 403110222=
200606130352 METAR KATL 130352Z 20005KT 6SM HZ BKN050 OVC100 23/21 A2993 RMK AO2 SLP123 T02330206=
200606130252 METAR KATL 130252Z 23005KT 6SM HZ FEW060 OVC100 23/20 A2992 RMK AO2 SLP123 T02330200 51011=
200606130152 METAR KATL 130152Z 19003KT 6SM HZ SCT070 OVC100 24/21 A2992 RMK AO2 SLP121 T02390206=
200606130052 METAR KATL 130052Z 17006KT 4SM HZ SCT095 BKN150 OVC200 24/21 A2990 RMK AO2 SLP116 T02390211=
200606122352 METAR KATL 122352Z 22005KT 5SM HZ FEW120 BKN150 OVC200 24/21 A2989 RMK AO2 SLP112 60019 T02390206 10311 20222 56005=
200606122252 METAR KATL 122252Z 20005KT 8SM FEW120 OVC180 26/20 A2989 RMK AO2 SLP113 T02560200=
200606122152 METAR KATL 122152Z 26008KT 7SM FEW100 OVC180 26/21 A2989 RMK AO2 SLP111 T02560206=
200606122052 METAR KATL 122052Z 24004KT 9SM FEW040 SCT065 BKN090 OVC150 24/21 A2991 RMK AO2 RAB04E26 SLP118 P0000 60019 T02440206 58005=
200606121952 METAR KATL 121952Z VRB03KT 9SM FEW045 SCT055 BKN080 OVC150 23/21 A2995 RMK AO2 TSE25RAE28 SLP133 TS MOV SE CB DSNT E-S MOV SE SHRA DSNT E-S P0008 T02330206=
200606121925 SPECI KATL 121925Z 19007KT 9SM -RA BKN030 BKN120 BKN150 OVC250 23/21 A2995 RMK AO2 TSE25 LTG DSNT SE-SW TS MOV SE CB DSNT SE-SW MOV SE P0008=
200606121925 SPECI KATL 121925Z 19007KT 9SM -RA BKN030 BKN120 BKN150 OVC250 23/21 A2995 RMK AO2 TSE25 LTG DSNT SE-SW TS MOV SE CB DSNT SE-SW MOV SE P0008=
200606121910 SPECI KATL 121910Z 14007KT 9SM -TSRA FEW011CB SCT024 BKN055 OVC150 23/20 A2994 RMK AO2 VIS LWR E-SW SHRA FRQ LTGICCG TS E-SW MOV SE CB E-SW MOV SE P0008=
200606121910 SPECI KATL 121910Z 14007KT 9SM -TSRA FEW011CB SCT024 BKN055 OVC150 23/20 A2994 RMK AO2 VIS LWR E-SW SHRA FRQ LTGICCG TS E-SW MOV SE CB E-SW MOV SE P0008=
200606121856 SPECI KATL 121856Z 35015KT 3SM TSRA SCT011CB BKN055 OVC080 23/20 A2994 RMK AO2 PRESRR FRQ LTGICCG TS OHD-NE-SE MOV SE CB OHD-NE-SE MOV SE P0004=
200606121856 SPECI KATL 121856Z 35015KT 3SM TSRA SCT011CB BKN055 OVC080 23/20 A2994 RMK AO2 PRESRR FRQ LTGICCG TS OHD-NE-SE MOV SE CB OHD-NE-SE MOV SE P0004=
200606121852 METAR KATL 121852Z 34019KT 2SM +TSRA BR SCT011CB BKN055 OVC080 23/21 A2993 RMK AO2 PK WND 33038/1842 WSHFT 1834 TSB17RAB32 SLP126 FRQ LTGICCG TS OHD MOV SE CB OHD MOV SE P0011 T02280206=
200606121850 SPECI KATL 121850Z 34024G38KT 2SM +TSRA BR SCT011CB BKN055 OVC080 22/21 A2992 RMK AO2 PK WND 33038/1842 WSHFT 1834 TSB17RAB32 FRQ LTGICCG TS OHD MOV SE CB OHD MOV SE P0007=
200606121850 SPECI KATL 121850Z 34024G38KT 2SM +TSRA BR SCT011CB BKN055 OVC080 22/21 A2992 RMK AO2 PK WND 33038/1842 WSHFT 1834 TSB17RAB32 FRQ LTGICCG TS OHD MOV SE CB OHD MOV SE P0007=
200606121841 SPECI KATL 121841Z 34031G38KT 3SM +TSRA SCT022CB BKN050 OVC090 26/21 A2992 RMK AO2 PK WND 33038/1840 TSB17RAB32 FRQ LTGICCG TS OHD MOV SE CB OHD MOV SE P0000=
200606121841 SPECI KATL 121841Z 34031G38KT 3SM +TSRA SCT022CB BKN050 OVC090 26/21 A2992 RMK AO2 PK WND 33038/1840 TSB17RAB32 FRQ LTGICCG TS OHD MOV SE CB OHD MOV SE P0000=
200606121838 SPECI KATL 121838Z 33025G33KT 3SM +TSRA BKN050CB BKN060 OVC085 28/19 A2992 RMK AO2 PK WND 33033/1838 TSB17RAB32 FRQ LTGICCG TS OHD-W-N MOV SE CB OHD-W-N MOV SE P0000=
200606121838 SPECI KATL 121838Z 33025G33KT 3SM +TSRA BKN050CB BKN060 OVC085 28/19 A2992 RMK AO2 PK WND 33033/1838 TSB17RAB32 FRQ LTGICCG TS OHD-W-N MOV SE CB OHD-W-N MOV SE P0000=
200606121830 SPECI KATL 121830Z 26009KT 8SM TS SCT050CB BKN060 BKN085 BKN150 OVC250 30/18 A2990 RMK AO2 TSB17 FRQ LTGICCG TS VC W-N MOV SE CB VC W-N MOV SE SHRA VC W-N=
200606121830 SPECI KATL 121830Z 26009KT 8SM TS SCT050CB BKN060 BKN085 BKN150 OVC250 30/18 A2990 RMK AO2 TSB17 FRQ LTGICCG TS VC W-N MOV SE CB VC W-N MOV SE SHRA VC W-N=
200606121817 SPECI KATL 121817Z VRB04KT 8SM TS SCT047CB BKN060TCU BKN080 BKN250 30/19 A2991 RMK AO2 TSB17 FRQ LTGICCG TS VC SW-N MOV SE CB SW-N MOV SE TCU OHD-SE-NW SHRA VC SW-N=
200606121817 SPECI KATL 121817Z VRB04KT 8SM TS SCT047CB BKN060TCU BKN080 BKN250 30/19 A2991 RMK AO2 TSB17 FRQ LTGICCG TS VC SW-N MOV SE CB SW-N MOV SE TCU OHD-SE-NW SHRA VC SW-N=
200606121752 METAR KATL 121752Z VRB04KT 10SM FEW045 SCT150 BKN250 31/19 A2991 RMK AO2 SLP116 LTG DSNT W-N CB DSNT NE AND DSNT W-N MOV SE TCU DSNT S T03110194 10311 20228 58016=
200606121652 METAR KATL 121652Z 29007KT 10SM FEW040 SCT250 31/20 A2994 RMK AO2 SLP127 CB DSNT NW-N T03060200=
200606121552 METAR KATL 121552Z 25007KT 10SM FEW035 SCT250 28/20 A2995 RMK AO2 SLP131 T02830200=
200606121452 METAR KATL 121452Z 27007KT 10SM FEW025 27/21 A2996 RMK AO2 SLP134 T02670206 50002=
200606121352 METAR KATL 121352Z 27009KT 10SM SCT024 SCT250 26/20 A2998 RMK AO2 SLP140 T02610200=
200606121252 METAR KATL 121252Z 23008KT 10SM FEW020 SCT250 24/19 A2996 RMK AO2 SLP135 T02440194=
200606121152 METAR KATL 121152Z 23009G17KT 10SM FEW014 SCT250 23/19 A2995 RMK AO2 SLP132 T02280194 10250 20222 51003=
200606121052 METAR KATL 121052Z COR 22008KT 10SM FEW075 SCT250 22/19 A2995 RMK AO2 SLP131 ACC N T02220189=
200606120952 METAR KATL 120952Z 23007KT 10SM FEW100 SCT250 23/19 A2995 RMK AO2 SLP129 T02280189=
200606120852 METAR KATL 120852Z 23008KT 10SM CLR 23/19 A2994 RMK AO2 SLP128 T02330189 51005=
200606120752 METAR KATL 120752Z 22010KT 10SM CLR 24/19 A2994 RMK AO2 SLP125 T02390189=
200606120652 METAR KATL 120652Z 21011KT 10SM CLR 24/18 A2994 RMK AO2 SLP126 T02390178=
200606120552 METAR KATL 120552Z 21007KT 10SM CLR 24/16 A2993 RMK AO2 SLP122 T02440156 10317 20244 51006=
200606120452 METAR KATL 120452Z 23004KT 10SM CLR 27/14 A2993 RMK AO2 SLP121 T02670144 403390222=
200606120352 METAR KATL 120352Z 24006KT 10SM CLR 27/14 A2992 RMK AO2 SLP119 T02720144=
200606120252 METAR KATL 120252Z 23006KT 10SM CLR 28/15 A2991 RMK AO2 SLP116 T02780150 53009=
200606120152 METAR KATL 120152Z 23006KT 10SM FEW250 28/14 A2990 RMK AO2 SLP112 T02830144=
200606120052 METAR KATL 120052Z 21008KT 9SM FEW080 30/13 A2988 RMK AO2 SLP107 T03000128=
200606112352 METAR KATL 112352Z 22007KT 9SM FEW080 32/12 A2988 RMK AO2 SLP107 T03170117 10339 20317 53001=
200606112252 METAR KATL 112252Z 22010KT 9SM FEW080 33/12 A2987 RMK AO2 SLP103 T03280117=
200606112152 METAR KATL 112152Z 20013G17KT 8SM FEW080 33/09 A2987 RMK AO2 SLP102 T03330094=
200606112052 METAR KATL 112052Z 18011G15KT 9SM FEW090 33/11 A2988 RMK AO2 SLP105 T03330106 56015=
200606111952 METAR KATL 111952Z 23008KT 8SM FEW085 33/12 A2989 RMK AO2 SLP109 T03280122=
200606111852 METAR KATL 111852Z 17012KT 8SM SCT080 33/13 A2990 RMK AO2 SLP114 T03280128=
200606111752 METAR KATL 111752Z 24008KT 8SM SCT075 32/13 A2992 RMK AO2 SLP121 T03220133 10328 20228 58004=
200606111652 METAR KATL 111652Z 24007KT 8SM SCT065 SCT100 31/15 A2993 RMK AO2 SLP124 T03110150=
200606111552 METAR KATL 111552Z 27006KT 8SM FEW100 31/16 A2994 RMK AO2 SLP126 T03110161=
200606111452 METAR KATL 111452Z 29007KT 8SM FEW095 29/17 A2994 RMK AO2 SLP125 T02940172 51006=
200606111352 METAR KATL 111352Z 23007KT 9SM CLR 27/17 A2993 RMK AO2 SLP123 T02720167=
200606111252 METAR KATL 111252Z 23006KT 8SM CLR 24/16 A2993 RMK AO2 SLP123 T02440161=
200606111152 METAR KATL 111152Z 22005KT 9SM CLR 23/16 A2992 RMK AO2 SLP119 T02280161 10256 20222 51008=
200606111052 METAR KATL 111052Z 23004KT 9SM FEW250 22/16 A2991 RMK AO2 SLP118 T02220156=
200606110952 METAR KATL 110952Z 21007KT 9SM FEW250 23/15 A2990 RMK AO2 SLP112 T02330150=
200606110852 METAR KATL 110852Z 20009KT 10SM CLR 23/15 A2989 RMK AO2 SLP110 T02330150 53004=
200606110752 METAR KATL 110752Z 29005KT 10SM CLR 23/16 A2988 RMK AO2 SLP105 T02330156=
200606110652 METAR KATL 110652Z 27006KT 10SM CLR 24/15 A2987 RMK AO2 SLP104 T02440150=
200606110552 METAR KATL 110552Z 24006KT 10SM CLR 26/15 A2988 RMK AO2 SLP105 T02560150 10311 20250 56003=
200606110452 METAR KATL 110452Z 26005KT 10SM CLR 25/15 A2988 RMK AO2 SLP105 T02500150 403280189=
200606110352 METAR KATL 110352Z 24004KT 10SM CLR 27/15 A2988 RMK AO2 SLP107 T02720150=
200606110252 METAR KATL 110252Z 23004KT 10SM CLR 28/15 A2989 RMK AO2 SLP109 T02830150 53005=
200606110152 METAR KATL 110152Z 24004KT 10SM CLR 29/15 A2988 RMK AO2 SLP106 T02940150=
200606110052 METAR KATL 110052Z 23005KT 8SM FEW070 30/15 A2988 RMK AO2 SLP105 T03000150=
200606102352 METAR KATL 102352Z 29005KT 7SM FEW070 31/16 A2987 RMK AO2 SLP104 T03110156 10328 20311 55001=
200606102252 METAR KATL 102252Z 32008KT 7SM FEW070 32/16 A2987 RMK AO2 SLP103 T03170156=
200606102152 METAR KATL 102152Z 32006KT 7SM FEW070 32/16 A2987 RMK AO2 SLP102 T03220156=
200606102052 METAR KATL 102052Z 23005KT 8SM SCT075 33/16 A2987 RMK AO2 SLP105 T03280156 56014=
200606101952 METAR KATL 101952Z 00000KT 9SM SCT070 32/16 A2989 RMK AO2 SLP109 T03220156 $=
200606101852 METAR KATL 101852Z 13003KT 10SM FEW065 31/15 A2990 RMK AO2 SLP114 T03110150=
200606101752 METAR KATL 101752Z 34007KT 10SM FEW065 31/16 A2992 RMK AO2 SLP120 T03110156 10317 20217 58007=
200606101652 METAR KATL 101652Z 36007KT 10SM FEW060 SCT250 31/16 A2993 RMK AO2 SLP123 T03110156=
200606101552 METAR KATL 101552Z VRB05KT 10SM FEW250 29/16 A2994 RMK AO2 SLP127 T02940161=
200606101452 METAR KATL 101452Z 32007KT 280V350 10SM FEW250 28/15 A2994 RMK AO2 SLP127 T02830150 50005=
200606101352 METAR KATL 101352Z 31007KT 10SM FEW250 27/16 A2994 RMK AO2 SLP128 T02670161=
200606101252 METAR KATL 101252Z 29005KT 10SM CLR 24/16 A2994 RMK AO2 SLP127 T02390161=
200606101152 METAR KATL 101152Z 30005KT 9SM CLR 22/16 A2992 RMK AO2 SLP123 T02170156 10217 20189 53003=
200606101052 METAR KATL 101052Z 30005KT 9SM CLR 19/14 A2992 RMK AO2 SLP123 T01940144=
200606100952 METAR KATL 100952Z 29005KT 10SM FEW250 19/14 A2992 RMK AO2 SLP121 T01940144=
200606100852 METAR KATL 100852Z 29003KT 10SM CLR 21/14 A2992 RMK AO2 SLP120 T02060144 57007=
200606100752 METAR KATL 100752Z 31007KT 10SM CLR 20/14 A2992 RMK AO2 SLP121 T02000139=
200606100652 METAR KATL 100652Z 30005KT 10SM CLR 21/13 A2993 RMK AO2 SLP126 T02060133=
200606100552 METAR KATL 100552Z 30005KT 10SM CLR 22/13 A2994 RMK AO2 SLP127 T02170133 10283 20217 50001=
200606100452 METAR KATL 100452Z 31003KT 10SM FEW250 24/13 A2994 RMK AO2 SLP128 T02390133 403060167=
200606100352 METAR KATL 100352Z 00000KT 10SM FEW250 24/13 A2994 RMK AO2 SLP127 T02390133=
200606100252 METAR KATL 100252Z 34006KT 10SM BKN250 25/13 A2994 RMK AO2 SLP127 T02500128 53010=
200606100152 METAR KATL 100152Z 31005KT 10SM BKN250 25/13 A2993 RMK AO2 SLP125 T02500128=
200606100052 METAR KATL 100052Z 32007KT 10SM BKN250 27/13 A2991 RMK AO2 SLP117 T02670128=
200606092352 METAR KATL 092352Z 32009KT 10SM SCT250 BKN300 28/13 A2990 RMK AO2 SLP117 T02830133 10306 20278 55002=
200606092252 METAR KATL 092252Z 34010KT 10SM SCT250 BKN300 29/12 A2989 RMK AO2 SLP113 T02940122=
200606092152 METAR KATL 092152Z 32008KT 10SM FEW070 SCT250 29/13 A2990 RMK AO2 SLP116 T02940133=
200606092052 METAR KATL 092052Z 36008KT 10SM FEW065 SCT250 SCT350 30/13 A2991 RMK AO2 SLP119 T03000128 58014=
200606091952 METAR KATL 091952Z 33009KT 10SM FEW070 SCT250 BKN350 29/13 A2993 RMK AO2 SLP125 T02940128=
200606091852 METAR KATL 091852Z 35007KT 290V020 10SM FEW065 SCT200 BKN250 29/13 A2994 RMK AO2 SLP128 T02940128=
200606091752 METAR KATL 091752Z 28006KT 10SM FEW060 SCT200 BKN250 29/13 A2995 RMK AO2 SLP134 T02890133 10289 20183 56011=
200606091652 METAR KATL 091652Z 28008KT 10SM FEW055 BKN250 27/14 A2996 RMK AO2 SLP135 T02720139=
200606091552 METAR KATL 091552Z 30009KT 10SM FEW045 SCT250 27/15 A2997 RMK AO2 SLP140 T02670150=
200606091452 METAR KATL 091452Z VRB05KT 10SM BKN250 26/16 A2999 RMK AO2 SLP145 T02560156 51010=
200606091352 METAR KATL 091352Z 36004KT 10SM SCT250 23/15 A2998 RMK AO2 SLP144 T02330150=
200606091252 METAR KATL 091252Z 33007KT 10SM SCT250 21/14 A2997 RMK AO2 SLP140 T02110139=
200606091152 METAR KATL 091152Z 31007KT 10SM FEW250 18/13 A2996 RMK AO2 SLP135 T01830128 10200 20167 51017=
200606091052 METAR KATL 091052Z 31006KT 10SM FEW250 17/12 A2994 RMK AO2 SLP131 T01670117=
200606090952 METAR KATL 090952Z 31007KT 10SM FEW250 17/11 A2992 RMK AO2 SLP124 T01720111=
200606090852 METAR KATL 090852Z 30007KT 10SM FEW250 18/11 A2991 RMK AO2 SLP118 T01780111 56008=
200606090752 METAR KATL 090752Z 27004KT 10SM CLR 18/11 A2991 RMK AO2 SLP118 T01830111=
200606090652 METAR KATL 090652Z 32008KT 10SM CLR 19/11 A2991 RMK AO2 SLP118 T01890111=
200606090552 METAR KATL 090552Z 32007KT 10SM CLR 20/11 A2993 RMK AO2 SLP125 T02000106 10283 20194 50001=
200606090452 METAR KATL 090452Z 32007KT 10SM CLR 21/11 A2994 RMK AO2 SLP129 T02110106 403110189=
200606090352 METAR KATL 090352Z 34008KT 10SM CLR 23/10 A2994 RMK AO2 SLP128 T02280100=
200606090252 METAR KATL 090252Z 32008KT 10SM CLR 23/10 A2993 RMK AO2 SLP124 T02330100 51013=
200606090152 METAR KATL 090152Z 31007KT 10SM CLR 25/09 A2992 RMK AO2 SLP121 T02500094=
200606090052 METAR KATL 090052Z 31008KT 10SM CLR 26/09 A2990 RMK AO2 SLP116 T02610089=
200606082352 METAR KATL 082352Z 32009KT 10SM CLR 28/09 A2989 RMK AO2 SLP110 T02830094 10311 20283 53004=
200606082252 METAR KATL 082252Z 32015G20KT 10SM FEW080 29/11 A2987 RMK AO2 SLP104 T02940106=
200606082152 METAR KATL 082152Z 30013KT 10SM FEW080 SCT250 31/12 A2987 RMK AO2 SLP104 T03060117=
200606082052 METAR KATL 082052Z 32010KT 290V360 10SM FEW075 31/14 A2987 RMK AO2 SLP106 T03110139 56018=
200606081952 METAR KATL 081952Z 32011KT 10SM FEW065 SCT080 30/14 A2989 RMK AO2 SLP111 T03000144=
200606081852 METAR KATL 081852Z 29014KT 10SM SCT065 SCT080 BKN090 29/13 A2991 RMK AO2 SLP117 T02890133=
200606081752 METAR KATL 081752Z 27009KT 10SM SCT060 29/14 A2993 RMK AO2 SLP124 T02940144 10294 20217 58011=
200606081652 METAR KATL 081652Z 29011KT 10SM SCT047 29/16 A2994 RMK AO2 SLP128 T02890161=
200606081552 METAR KATL 081552Z 31010KT 10SM FEW045 27/16 A2996 RMK AO2 SLP134 T02720161=
200606081452 METAR KATL 081452Z 30013KT 9SM FEW040 SCT090 26/17 A2996 RMK AO2 SLP135 T02610167 51003=
200606081352 METAR KATL 081352Z 27009KT 9SM FEW044 SCT110 25/16 A2996 RMK AO2 SLP134 T02500156=
200606081252 METAR KATL 081252Z 28009KT 7SM FEW065 SCT100 23/14 A2996 RMK AO2 SLP135 ACC SW T02280139=
200606081152 METAR KATL 081152Z 26005KT 8SM FEW065 SCT110 22/13 A2995 RMK AO2 SLP133 T02170128 10222 20189 51009=
200606081052 METAR KATL 081052Z 26004KT 7SM SCT065 BKN080 20/11 A2994 RMK AO2 SLP130 T02000111=
200606080952 METAR KATL 080952Z 27007KT 10SM BKN080 20/11 A2993 RMK AO2 SLP127 T02000111=
200606080852 METAR KATL 080852Z COR 28005KT 10SM FEW085 SCT180 SCT250 20/11 A2992 RMK AO2 SLP124 T02000106 55004=
200606080752 METAR KATL 080752Z 28005KT 10SM FEW180 SCT250 19/11 A2992 RMK AO2 SLP121 T01940106=
200606080652 METAR KATL 080652Z 22003KT 10SM FEW180 SCT250 21/11 A2992 RMK AO2 SLP123 T02060106=
200606080552 METAR KATL 080552Z 25003KT 10SM FEW180 SCT250 22/10 A2994 RMK AO2 SLP127 T02170100 10272 20217 58004=
200606080452 METAR KATL 080452Z 27006KT 10SM SCT180 BKN250 22/10 A2995 RMK AO2 SLP133 T02170100 402940150=
200606080352 METAR KATL 080352Z 25003KT 10SM SCT180 BKN250 23/11 A2995 RMK AO2 SLP133 T02280106=
200606080252 METAR KATL 080252Z 22004KT 10SM SCT250 24/11 A2995 RMK AO2 SLP131 T02390111 53007=
200606080152 METAR KATL 080152Z 26006KT 10SM FEW250 24/11 A2994 RMK AO2 SLP128 T02440106=
200606080052 METAR KATL 080052Z 30007KT 10SM FEW140 SCT250 26/11 A2993 RMK AO2 SLP126 T02560106=
200606072352 METAR KATL 072352Z 26005KT 10SM FEW150 27/11 A2992 RMK AO2 SLP124 T02720111 10294 20272 55001=
200606072252 METAR KATL 072252Z 27009KT 10SM FEW080 28/10 A2992 RMK AO2 SLP122 T02830100=
200606072152 METAR KATL 072152Z 28010KT 10SM FEW080 29/09 A2992 RMK AO2 SLP122 T02890089=
200606072052 METAR KATL 072052Z 27010KT 10SM FEW080 29/11 A2993 RMK AO2 SLP126 T02890106 58019=
200606071952 METAR KATL 071952Z 25008KT 10SM FEW075 29/11 A2995 RMK AO2 SLP133 T02890106=
200606071852 METAR KATL 071852Z 23009KT 10SM FEW070 28/10 A2997 RMK AO2 SLP140 T02830100=
200606071752 METAR KATL 071752Z 22009KT 10SM FEW070 28/11 A2999 RMK AO2 SLP145 T02780106 10278 20178 58012=
200606071652 METAR KATL 071652Z 29011KT 10SM FEW070 SCT250 SCT300 27/11 A3000 RMK AO2 SLP151 T02720106=
200606071552 METAR KATL 071552Z 30010KT 10SM FEW250 SCT300 26/11 A3002 RMK AO2 SLP155 T02610106=
200606071452 METAR KATL 071452Z 30008KT 10SM FEW200 SCT250 SCT300 25/11 A3002 RMK AO2 SLP157 T02500106 50003=
200606071352 METAR KATL 071352Z 27006KT 10SM FEW200 SCT250 BKN300 23/12 A3003 RMK AO2 SLP161 T02330117=
200606071252 METAR KATL 071252Z 31007KT 10SM FEW250 21/11 A3003 RMK AO2 SLP160 T02060111=
200606071152 METAR KATL 071152Z 30005KT 10SM FEW200 SCT250 18/11 A3001 RMK AO2 SLP156 T01780106 10183 20150 52019=
200606071052 METAR KATL 071052Z 30006KT 10SM FEW250 16/09 A3000 RMK AO2 SLP151 T01560094=
200606070952 METAR KATL 070952Z 29006KT 10SM FEW250 15/10 A2997 RMK AO2 SLP143 T01500100=
200606070852 METAR KATL 070852Z 30006KT 10SM FEW250 16/09 A2996 RMK AO2 SLP137 T01560094 53004=
200606070752 METAR KATL 070752Z 29007KT 10SM FEW250 16/09 A2996 RMK AO2 SLP137 T01560094=
200606070652 METAR KATL 070652Z 30003KT 10SM FEW250 17/09 A2994 RMK AO2 SLP132 T01670089=
200606070552 METAR KATL 070552Z 30004KT 10SM FEW250 18/09 A2995 RMK AO2 SLP132 T01830089 10256 20183 58008=
200606070452 METAR KATL 070452Z 30005KT 10SM FEW250 19/08 A2996 RMK AO2 SLP138 T01940083 402780139=
200606070352 METAR KATL 070352Z 01006KT 10SM SCT250 22/08 A2996 RMK AO2 SLP137 T02220078=
200606070252 METAR KATL 070252Z 33005KT 10SM BKN250 22/07 A2997 RMK AO2 SLP141 T02170072 51007=
200606070152 METAR KATL 070152Z 31006KT 10SM FEW250 22/07 A2996 RMK AO2 SLP139 T02220067=
200606070052 METAR KATL 070052Z 31008KT 10SM FEW200 SCT250 23/06 A2996 RMK AO2 SLP140 T02330056=
200606062352 METAR KATL 062352Z 32009KT 10SM FEW250 26/04 A2995 RMK AO2 SLP135 T02560044 10278 20256 53001=
200606062252 METAR KATL 062252Z 33007KT 10SM FEW080 27/07 A2994 RMK AO2 SLP134 T02670067=
200606062152 METAR KATL 062152Z 35008KT 10SM FEW080 27/07 A2994 RMK AO2 SLP132 T02670072=
200606062052 METAR KATL 062052Z 29005KT 10SM FEW085 27/07 A2995 RMK AO2 SLP133 T02670067 56016=
200606061952 METAR KATL 061952Z 36010G14KT 10SM FEW085 27/06 A2995 RMK AO2 SLP135 T02720056=
200606061852 METAR KATL 061852Z 34009KT 10SM FEW085 27/07 A2998 RMK AO2 SLP143 T02670067=
200606061752 METAR KATL 061752Z 32009KT 10SM FEW075 26/07 A3000 RMK AO2 SLP149 T02560072 10261 20156 58005=
200606061652 METAR KATL 061652Z 02011G14KT 10SM FEW065 25/09 A3001 RMK AO2 SLP154 T02500089=
200606061552 METAR KATL 061552Z 00000KT 10SM FEW065 24/09 A3002 RMK AO2 SLP156 T02390089=
200606061452 METAR KATL 061452Z VRB06KT 10SM CLR 23/08 A3001 RMK AO2 SLP155 T02280078 50003=
200606061352 METAR KATL 061352Z 31008KT 10SM FEW250 22/09 A3002 RMK AO2 SLP158 T02170094=
200606061252 METAR KATL 061252Z 33005KT 10SM CLR 19/10 A3002 RMK AO2 SLP158 T01940100=
200606061152 METAR KATL 061152Z 25004KT 10SM CLR 16/10 A3000 RMK AO2 SLP153 T01560100 10183 20139 51013=
200606061052 METAR KATL 061052Z 32006KT 10SM CLR 14/09 A3000 RMK AO2 SLP152 T01390089=
200606060952 METAR KATL 060952Z 36005KT 10SM CLR 16/08 A2998 RMK AO2 SLP145 T01610083=
200606060852 METAR KATL 060852Z 04004KT 10SM CLR 17/08 A2996 RMK AO2 SLP138 T01670083 53001=
200606060752 METAR KATL 060752Z 03006KT 10SM CLR 17/08 A2995 RMK AO2 SLP136 T01720083=
200606060652 METAR KATL 060652Z 08004KT 10SM CLR 18/08 A2996 RMK AO2 SLP137 T01780083=
200606060552 METAR KATL 060552Z 05007KT 10SM CLR 18/08 A2996 RMK AO2 SLP137 T01830083 10233 20183 51003=
200606060452 METAR KATL 060452Z 03009KT 10SM CLR 19/08 A2996 RMK AO2 SLP136 T01940078 402670161=
200606060352 METAR KATL 060352Z 36008KT 10SM CLR 20/08 A2996 RMK AO2 SLP138 T02000083=
200606060252 METAR KATL 060252Z 35008KT 10SM CLR 21/08 A2995 RMK AO2 SLP134 T02060078 51015=
200606060152 METAR KATL 060152Z 35010KT 10SM CLR 22/07 A2993 RMK AO2 SLP128 T02170072=
200606060052 METAR KATL 060052Z 33008KT 10SM FEW075 22/08 A2992 RMK AO2 SLP126 T02170083=
200606052352 METAR KATL 052352Z 32013KT 10SM FEW075 23/08 A2990 RMK AO2 SLP120 T02330083 10267 20233 53004=
200606052252 METAR KATL 052252Z 32014G19KT 10SM FEW075 25/09 A2989 RMK AO2 SLP116 T02500089=
200606052152 METAR KATL 052152Z 34013KT 10SM FEW075 26/08 A2989 RMK AO2 SLP114 T02610078=
200606052052 METAR KATL 052052Z 33013G16KT 10SM FEW075 SCT250 27/07 A2989 RMK AO2 SLP114 T02670072 56007=
200606051952 METAR KATL 051952Z 33012G17KT 10SM FEW060 SCT250 26/09 A2990 RMK AO2 SLP117 T02560094=
200606051852 METAR KATL 051852Z 31007G15KT 10SM SCT060 26/12 A2990 RMK AO2 SLP119 T02560122=
200606051752 METAR KATL 051752Z VRB06KT 10SM FEW055 25/12 A2991 RMK AO2 SLP122 T02500122 10250 20172 58004=
200606051652 METAR KATL 051652Z 36008KT 310V030 10SM CLR 25/11 A2992 RMK AO2 SLP123 T02500106=
200606051552 METAR KATL 051552Z VRB05KT 10SM FEW055 23/11 A2992 RMK AO2 SLP126 T02330111=
200606051452 METAR KATL 051452Z 35007KT 10SM FEW040 23/13 A2993 RMK AO2 SLP127 T02280128 50000=
200606051352 METAR KATL 051352Z 32007KT 10SM FEW100 21/15 A2994 RMK AO2 SLP132 T02060150=
200606051252 METAR KATL 051252Z 34006KT 10SM FEW250 19/14 A2994 RMK AO2 SLP131 T01890144=
200606051152 METAR KATL 051152Z 34006KT 8SM FEW250 17/14 A2993 RMK AO2 SLP129 70018 T01720144 10183 20161 53019=
200606051052 METAR KATL 051052Z 32006KT 7SM FEW250 16/15 A2991 RMK AO2 SLP120 T01610150=
200606050952 METAR KATL 050952Z 33008KT 8SM FEW250 17/15 A2988 RMK AO2 SLP112 T01670150=
200606050852 METAR KATL 050852Z 32007G15KT 150V340 6SM BR FEW250 17/16 A2987 RMK AO2 SLP106 T01720156 55005=
200606050752 METAR KATL 050752Z 33005KT 8SM BKN250 17/16 A2987 RMK AO2 SLP105 T01720161=
200606050652 METAR KATL 050652Z 31004KT 7SM FEW120 SCT250 18/16 A2987 RMK AO2 SLP107 T01780161=
200606050552 METAR KATL 050552Z 31004KT 7SM SCT060 SCT120 BKN250 18/17 A2989 RMK AO2 SLP112 60001 T01830167 10211 20183 50002=
200606050452 METAR KATL 050452Z 32005KT 9SM SCT110 BKN250 19/17 A2989 RMK AO2 SLP113 T01940167 402890156=
200606050352 METAR KATL 050352Z 32006KT 8SM BKN095 BKN250 19/17 A2990 RMK AO2 SLP115 T01940167=
200606050252 METAR KATL 050252Z 33006KT 9SM SCT100 BKN250 20/14 A2988 RMK AO2 SLP110 60001 T02000144 53007=
200606050152 METAR KATL 050152Z 00000KT 8SM SCT100 SCT250 21/17 A2987 RMK AO2 SLP107 T02060167=
200606050052 METAR KATL 050052Z 00000KT 6SM HZ FEW110 SCT250 21/17 A2986 RMK AO2 RAE06 SLP103 P0001 T02060167=
200606042352 METAR KATL 042352Z 24006KT 8SM -RA FEW036 SCT055 BKN100 BKN250 20/17 A2986 RMK AO2 RAB28 SLP105 P0000 60017 T02000172 10289 20200 53005=
200606042252 METAR KATL 042252Z 02006KT 10SM SCT060 BKN100 BKN250 22/15 A2985 RMK AO2 RAB2159E47 SLP103 SHRA E-S AND W P0017 T02220150=
200606042228 SPECI KATL 042228Z 01010KT 6SM -RA FEW020 BKN060TCU BKN090 BKN250 22/16 A2985 RMK AO2 RAB2159 TCU OHD-E-S P0017=
200606042228 SPECI KATL 042228Z 01010KT 6SM -RA FEW020 BKN060TCU BKN090 BKN250 22/16 A2985 RMK AO2 RAB2159 TCU OHD-E-S P0017=
200606042211 SPECI KATL 042211Z 34017KT 1 1/2SM +RA FEW018 SCT060TCU OVC080 21/17 A2987 RMK AO2 RAB2159 PRESRR TCU OHD-SW P0004=
200606042211 SPECI KATL 042211Z 34017KT 1 1/2SM +RA FEW018 SCT060TCU OVC080 21/17 A2987 RMK AO2 RAB2159 PRESRR TCU OHD-SW P0004=
200606042152 METAR KATL 042152Z 04008KT 10SM FEW050 SCT065 OVC080 25/13 A2983 RMK AO2 WSHFT 2053 SLP095 SHRA SW AND W BINOVC T02500133=
200606042110 SPECI KATL 042110Z 01013KT 10SM FEW065 BKN100 25/13 A2984 RMK AO2 WSHFT 2053 CB NE DSIPT=
200606042110 SPECI KATL 042110Z 01013KT 10SM FEW065 BKN100 25/13 A2984 RMK AO2 WSHFT 2053 CB NE DSIPT=
200606042052 METAR KATL 042052Z 30007KT 7SM SCT065CB SCT090 BKN110 BKN150 28/13 A2984 RMK AO2 SLP097 CB N MOV SE SHRA N MOV SE T02780128 58018=
200606041952 METAR KATL 041952Z COR 25004KT 10SM SCT065 SCT100 BKN150 27/12 A2986 RMK AO2 SLP103 CB DSNT NW SHRA DSNT NW T02720122=
200606041852 METAR KATL 041852Z 31007KT 270V350 10SM SCT070 SCT100 BKN150 28/12 A2988 RMK AO2 SLP110 T02780122=
200606041752 METAR KATL 041752Z 29008KT 10SM FEW065 SCT080 SCT100 BKN150 27/12 A2990 RMK AO2 SLP115 T02720117 10272 20178 58014=
200606041652 METAR KATL 041652Z 34011KT 10SM FEW065 SCT100 SCT150 BKN250 27/11 A2993 RMK AO2 SLP125 T02720111=
200606041552 METAR KATL 041552Z 36005KT 10SM FEW070 SCT150 SCT250 26/08 A2993 RMK AO2 SLP127 T02610083=
200606041452 METAR KATL 041452Z 32007KT 10SM SCT150 24/11 A2994 RMK AO2 SLP130 T02440106 58002=
200606041352 METAR KATL 041352Z 33005KT 10SM FEW150 SCT250 24/13 A2995 RMK AO2 SLP133 T02390128=
200606041252 METAR KATL 041252Z 32005KT 10SM FEW250 21/13 A2995 RMK AO2 SLP133 T02110133=
200606041152 METAR KATL 041152Z 30004KT 10SM CLR 18/13 A2995 RMK AO2 SLP133 T01780128 10183 20156 53011=
200606041052 METAR KATL 041052Z 32006KT 10SM FEW250 16/12 A2993 RMK AO2 SLP128 T01610122=
200606040952 METAR KATL 040952Z 32005KT 10SM FEW250 17/12 A2992 RMK AO2 SLP123 T01670122=
200606040852 METAR KATL 040852Z 33006KT 9SM CLR 17/13 A2991 RMK AO2 SLP121 T01670128 56003=
200606040752 METAR KATL 040752Z 31008KT 10SM CLR 17/13 A2991 RMK AO2 SLP121 T01670128=
200606040652 METAR KATL 040652Z 33006KT 10SM CLR 18/12 A2991 RMK AO2 SLP121 T01780122=
200606040552 METAR KATL 040552Z 33005KT 10SM CLR 18/13 A2992 RMK AO2 SLP124 T01830128 10250 20178 50002=
200606040452 METAR KATL 040452Z 32006KT 10SM CLR 19/13 A2993 RMK AO2 SLP127 T01890128 402830178=
200606040352 METAR KATL 040352Z 34006KT 10SM FEW250 21/12 A2992 RMK AO2 SLP125 T02060122=
200606040252 METAR KATL 040252Z 33007KT 10SM SCT250 21/12 A2991 RMK AO2 SLP123 T02110122 51013=
200606040152 METAR KATL 040152Z 32005KT 10SM FEW250 22/12 A2990 RMK AO2 SLP118 T02220117=
200606040052 METAR KATL 040052Z 33006KT 10SM SCT250 23/11 A2989 RMK AO2 SLP114 T02330111=
200606032352 METAR KATL 032352Z 33012KT 10SM FEW250 25/11 A2988 RMK AO2 SLP110 T02500106 10283 20250 53002=
200606032252 METAR KATL 032252Z 34012KT 10SM FEW250 26/11 A2987 RMK AO2 SLP106 T02610106=
200606032152 METAR KATL 032152Z 36012G20KT 10SM FEW070 27/09 A2987 RMK AO2 SLP106 T02720094=
200606032052 METAR KATL 032052Z 36016G22KT 9SM FEW075 28/09 A2987 RMK AO2 SLP106 T02780094 56007=
200606031952 METAR KATL 031952Z 32015G20KT 9SM SCT070 28/10 A2988 RMK AO2 SLP108 T02830100=
200606031852 METAR KATL 031852Z COR 33010KT 9SM FEW055 SCT070 SCT085 27/11 A2988 RMK AO2 SLP109 T02720111=
200606031752 METAR KATL 031752Z 35012G17KT 9SM SCT055 BKN100 27/14 A2989 RMK AO2 SLP114 T02670139 10267 20178 58010=
200606031652 METAR KATL 031652Z 33011KT 9SM SCT034 24/15 A2991 RMK AO2 SLP122 T02440150=
200606031552 METAR KATL 031552Z 35010KT 8SM SCT022 SCT150 23/16 A2992 RMK AO2 SLP125 T02280156=
200606031513 SPECI KATL 031513Z 33011KT 8SM SCT020 BKN150 22/16 A2992 RMK AO2=
200606031513 SPECI KATL 031513Z 33011KT 8SM SCT020 BKN150 22/16 A2992 RMK AO2=
200606031452 METAR KATL 031452Z 32011KT 8SM BKN017 BKN150 20/15 A2992 RMK AO2 SLP126 T02000150 53006=
200606031425 SPECI KATL 031425Z 30011KT 8SM OVC017 20/16 A2992 RMK AO2=
200606031425 SPECI KATL 031425Z 30011KT 8SM OVC017 20/16 A2992 RMK AO2=
200606031352 METAR KATL 031352Z 29011KT 8SM BKN012 BKN150 21/16 A2992 RMK AO2 SLP125 T02060161=
200606031314 SPECI KATL 031314Z 33011KT 8SM BKN010 BKN150 19/16 A2991 RMK AO2=
200606031314 SPECI KATL 031314Z 33011KT 8SM BKN010 BKN150 19/16 A2991 RMK AO2=
200606031252 METAR KATL 031252Z 32011KT 10SM FEW009 SCT150 19/16 A2991 RMK AO2 SLP121 T01890161=
200606031250 SPECI KATL 031250Z 31013KT 10SM FEW009 SCT150 19/16 A2991 RMK AO2=
200606031250 SPECI KATL 031250Z 31013KT 10SM FEW009 SCT150 19/16 A2991 RMK AO2=
200606031223 SPECI KATL 031223Z 30012KT 10SM SCT012 18/16 A2990 RMK AO2=
200606031223 SPECI KATL 031223Z 30012KT 10SM SCT012 18/16 A2990 RMK AO2=
200606031152 METAR KATL 031152Z 32012KT 10SM BKN012 18/16 A2989 RMK AO2 SLP118 70076 T01780156 10189 20178 53012=
200606031121 SPECI KATL 031121Z 31011KT 10SM BKN012 18/16 A2989 RMK AO2=
200606031121 SPECI KATL 031121Z 31011KT 10SM BKN012 18/16 A2989 RMK AO2=
200606031052 METAR KATL 031052Z 32011KT 8SM FEW012 BKN180 18/16 A2988 RMK AO2 SLP110 T01780161=
200606030952 METAR KATL 030952Z 31014KT 7SM SCT010 BKN180 18/17 A2986 RMK AO2 SLP102 T01830167=
200606030852 METAR KATL 030852Z 31010KT 9SM BKN010 18/17 A2986 RMK AO2 SLP102 T01830167 56009=
200606030752 METAR KATL 030752Z 31007KT 7SM SCT007 OVC012 19/17 A2986 RMK AO2 SLP103 T01890172=
200606030734 SPECI KATL 030734Z 31008KT 8SM SCT007 OVC015 19/17 A2987 RMK AO2=
200606030734 SPECI KATL 030734Z 31008KT 8SM SCT007 OVC015 19/17 A2987 RMK AO2=
200606030652 METAR KATL 030652Z 31008KT 7SM BKN005 19/17 A2988 RMK AO2 SLP109 T01890172=
200606030552 METAR KATL 030552Z 29009KT 6SM BR BKN005 BKN150 OVC200 19/18 A2989 RMK AO2 SLP111 60013 T01890178 10200 20189 58010=
200606030452 METAR KATL 030452Z 27006KT 6SM BR BKN005 BKN150 OVC200 19/18 A2989 RMK AO2 SLP113 T01890178 403000189=
200606030434 SPECI KATL 030434Z 26004KT 6SM BR SCT005 BKN150 OVC200 19/18 A2990 RMK AO2=
200606030434 SPECI KATL 030434Z 26004KT 6SM BR SCT005 BKN150 OVC200 19/18 A2990 RMK AO2=
200606030352 METAR KATL 030352Z 28008KT 6SM BR BKN005 BKN140 OVC200 19/18 A2991 RMK AO2 RAE22 SLP122 P0000 T01890178=
200606030252 METAR KATL 030252Z 25004KT 5SM -RA BR FEW005 BKN045 OVC070 19/18 A2992 RMK AO2 SLP124 P0004 60013 T01940178 55000=
200606030230 SPECI KATL 030230Z 23006KT 6SM -RA BR FEW005 BKN045 OVC080 19/18 A2992 RMK AO2 P0002=
200606030230 SPECI KATL 030230Z 23006KT 6SM -RA BR FEW005 BKN045 OVC080 19/18 A2992 RMK AO2 P0002=
200606030152 METAR KATL 030152Z 19005KT 7SM -RA SCT045 BKN080 OVC120 19/18 A2991 RMK AO2 RAB0059 SLP121 P0005 T01940178=
200606030052 METAR KATL 030052Z 30008KT 9SM SCT080 BKN120 OVC150 19/18 A2991 RMK AO2 TSE18RAE35 SLP121 TS DSIPTD SHRA SW-NW P0004 T01940178=
200606030018 SPECI KATL 030018Z 33013KT 8SM -RA FEW045 SCT090 BKN140 OVC200 19/18 A2989 RMK AO2 TSE18 PRESFR TS DSIPTD P0004=
200606030018 SPECI KATL 030018Z 33013KT 8SM -RA FEW045 SCT090 BKN140 OVC200 19/18 A2989 RMK AO2 TSE18 PRESFR TS DSIPTD P0004=
200606022358 SPECI KATL 022358Z 32013G20KT 3SM +TSRA BR FEW010 SCT030 BKN045CB OVC140 20/18 A2992 RMK AO2 FRQ LTGCGIC TS N-E-SE MOV E VIS NE-SE 1 1/2 P0004=
200606022358 SPECI KATL 022358Z 32013G20KT 3SM +TSRA BR FEW010 SCT030 BKN045CB OVC140 20/18 A2992 RMK AO2 FRQ LTGCGIC TS N-E-SE MOV E VIS NE-SE 1 1/2 P0004=
200606022352 METAR KATL 022352Z 33015KT 1 1/4SM +TSRA BR FEW020 BKN030 OVC045CB 20/19 A2992 RMK AO2 PK WND 33034/2321 WSHFT 2319 SLP125 FRQ LTGCGIC TS OHD-ALQDS MOV E P0062 60063 T02000189 10300 20200 53016=
200606022335 SPECI KATL 022335Z 31021G24KT 1SM +TSRA FEW020 BKN030 OVC045CB 21/18 A2992 RMK AO2 PK WND 33034/2321 WSHFT 2319 PRESRR CONS LTGCGIC TS OHD-ALQDS MOV E P0010 RVRNO=
200606022335 SPECI KATL 022335Z 31021G24KT 1SM +TSRA FEW020 BKN030 OVC045CB 21/18 A2992 RMK AO2 PK WND 33034/2321 WSHFT 2319 PRESRR CONS LTGCGIC TS OHD-ALQDS MOV E P0010 RVRNO=
200606022329 SPECI KATL 022329Z 32020G34KT 3/4SM +TSRA BKN030 BKN045CB OVC110 22/18 A2990 RMK AO2 PK WND 33034/2321 PRESRR CONS LTGCGIC TS OHD-ALQDS MOV E P0004 RVRNO=
200606022329 SPECI KATL 022329Z 32020G34KT 3/4SM +TSRA BKN030 BKN045CB OVC110 22/18 A2990 RMK AO2 PK WND 33034/2321 PRESRR CONS LTGCGIC TS OHD-ALQDS MOV E P0004 RVRNO=
200606022325 SPECI KATL 022325Z 31020G34KT 1SM +TSRA BKN030 BKN045CB OVC110 22/17 A2989 RMK AO2 PK WND 33034/2321 PRESRR FRQ LTGCGIC TS OHD-ALQDS MOV E P0002 RVRNO=
200606022325 SPECI KATL 022325Z 31020G34KT 1SM +TSRA BKN030 BKN045CB OVC110 22/17 A2989 RMK AO2 PK WND 33034/2321 PRESRR FRQ LTGCGIC TS OHD-ALQDS MOV E P0002 RVRNO=
200606022252 METAR KATL 022252Z 33007KT 4SM -TSRA SCT030 BKN045CB BKN120 OVC150 27/18 A2985 RMK AO2 TSB35RAB52 SLP100 FRQ LTGCGIC TS W-N MOV E VIS NW-N 1 1/2 P0000 T02670178=
200606022235 SPECI KATL 022235Z 25009KT 9SM TS SCT050CB BKN150 OVC200 28/18 A2985 RMK AO2 TSB35 OCNL LTGCG TS VC W-NW AND DSNT NE MOV E=
200606022235 SPECI KATL 022235Z 25009KT 9SM TS SCT050CB BKN150 OVC200 28/18 A2985 RMK AO2 TSB35 OCNL LTGCG TS VC W-NW AND DSNT NE MOV E=
200606022152 METAR KATL 022152Z 27010KT 9SM FEW050TCU BKN150 BKN200 28/18 A2986 RMK AO2 SLP100 TCU VC E CB DSNT NE AND NW-N T02830178=
200606022052 METAR KATL 022052Z 27010KT 8SM SCT040 SCT070 SCT200 BKN250 29/19 A2987 RMK AO2 SLP104 MDT CU N-SW 60001 T02940189 56026=
200606021952 METAR KATL 021952Z VRB06KT 10SM FEW030 SCT110 SCT200 BKN250 28/20 A2988 RMK AO2 RAE24 SLP107 LTG DSNT SE CB DSNT SE SHRA DSNT SE P0000 T02830200=
200606021901 SPECI KATL 021901Z 22007KT 9SM FEW020CB SCT030 SCT040 BKN150 BKN250 26/20 A2991 RMK AO2 RAE1854 CB VC N MOV NE SHRA VC N P0000=
200606021901 SPECI KATL 021901Z 22007KT 9SM FEW020CB SCT030 SCT040 BKN150 BKN250 26/20 A2991 RMK AO2 RAE1854 CB VC N MOV NE SHRA VC N P0000=
200606021852 METAR KATL 021852Z 21007KT 9SM -RA FEW020CB SCT030TCU BKN040 BKN150 BKN250 26/20 A2992 RMK AO2 RAB30 SLP123 LTG DSNT SE CB DSNT SE AND VC NW MOV NE TCU VC N-NE AND DSNT SW-NW SHRA DSNT SE AND VC NW P0001 T02560200=
200606021839 SPECI KATL 021839Z 20007KT 9SM -RA FEW020 BKN030TCU BKN040 BKN150 BKN250 26/21 A2993 RMK AO2 RAB30 VIS LWR S-SW-W SHRA LTG DSNT SE CB DSNT SE TCU OHD-S-SW-W P0001=
200606021839 SPECI KATL 021839Z 20007KT 9SM -RA FEW020 BKN030TCU BKN040 BKN150 BKN250 26/21 A2993 RMK AO2 RAB30 VIS LWR S-SW-W SHRA LTG DSNT SE CB DSNT SE TCU OHD-S-SW-W P0001=
200606021825 SPECI KATL 021825Z 24008KT 10SM SCT030 SCT150 SCT200 BKN250 27/19 A2993 RMK AO2 LTG DSNT SE-SW CB DSNT SE-SW SHRA DSNT SE-SW=
200606021825 SPECI KATL 021825Z 24008KT 10SM SCT030 SCT150 SCT200 BKN250 27/19 A2993 RMK AO2 LTG DSNT SE-SW CB DSNT SE-SW SHRA DSNT SE-SW=
200606021752 METAR KATL 021752Z 27008KT 10SM FEW035 BKN150 BKN250 28/20 A2995 RMK AO2 SLP131 CB DSNT E-S TCU DSNT NE SHRA DSNT E T02780200 10278 20211 58016=
200606021652 METAR KATL 021652Z 21007KT 10SM SCT030 SCT120 BKN150 BKN250 27/20 A2998 RMK AO2 SLP141 T02720200=
200606021552 METAR KATL 021552Z 20005KT 10SM FEW018 SCT120 BKN150 BKN250 24/20 A3000 RMK AO2 SLP148 T02440200=
200606021452 METAR KATL 021452Z 22006KT 10SM FEW012 BKN150 BKN250 24/20 A3000 RMK AO2 SLP149 T02390200 50002=
200606021352 METAR KATL 021352Z 19006KT 10SM FEW012 BKN150 BKN250 23/19 A3000 RMK AO2 SLP149 T02330194=
200606021252 METAR KATL 021252Z 18005KT 10SM FEW012 SCT180 BKN250 22/19 A3000 RMK AO2 SLP148 T02170189=
200606021203 SPECI KATL 021203Z 15004KT 10SM FEW006 SCT140 SCT200 BKN250 21/19 A2999 RMK AO2=
200606021203 SPECI KATL 021203Z 15004KT 10SM FEW006 SCT140 SCT200 BKN250 21/19 A2999 RMK AO2=
200606021152 METAR KATL 021152Z 16005KT 10SM FEW010 SCT140 BKN200 BKN250 21/19 A2999 RMK AO2 SLP146 60000 70129 T02110189 10217 20200 50004=
200606021052 METAR KATL 021052Z 16003KT 10SM FEW140 SCT200 SCT250 21/18 A2999 RMK AO2 SLP147 T02060183=
200606020952 METAR KATL 020952Z 18003KT 10SM SCT140 SCT200 BKN250 21/18 A2998 RMK AO2 SLP142 T02060183=
200606020852 METAR KATL 020852Z 16003KT 10SM SCT140 BKN200 BKN250 21/19 A2998 RMK AO2 RAB0756E14 SLP141 P0000 60000 T02060189 57011=
200606020752 METAR KATL 020752Z 18004KT 10SM FEW008 BKN140 OVC200 21/19 A2999 RMK AO2 SLP147 T02110189=
200606020652 METAR KATL 020652Z 00000KT 10SM FEW008 SCT120 OVC200 22/18 A3000 RMK AO2 SLP148 T02170178=
200606020552 METAR KATL 020552Z 19006KT 10SM FEW008 SCT120 OVC200 22/19 A3001 RMK AO2 SLP154 LTG DSNT E-SE CB DSNT E-SE 60129 T02170194 10300 20211 58006=
200606020452 METAR KATL 020452Z 17006KT 10SM FEW055 BKN120 OVC150 22/19 A3002 RMK AO2 RAE09 SLP155 OCNL LTG DSNT NE-SE CB DSNT NE-SE P0000 T02220194 403170206=
200606020352 METAR KATL 020352Z 09008KT 7SM -RA SCT030 BKN045 OVC070 22/18 A3004 RMK AO2 TSE52RAB0254 SLP162 TS DSIPTD P0075 T02170183=
200606020329 SPECI KATL 020329Z 11009KT 3SM +TSRA FEW030 BKN050CB OVC070 24/18 A3004 RMK AO2 RAB0254 OCNL LTGIC TS OHD-ALQDS MOV SE P0052=
200606020329 SPECI KATL 020329Z 11009KT 3SM +TSRA FEW030 BKN050CB OVC070 24/18 A3004 RMK AO2 RAB0254 OCNL LTGIC TS OHD-ALQDS MOV SE P0052=
200606020316 SPECI KATL 020316Z 07009G16KT 030V130 1 1/2SM +TSRA FEW030 BKN050CB OVC070 23/18 A3005 RMK AO2 RAB0254 OCNL LTGIC TS OHD-ALQDS MOV SE P0032=
200606020316 SPECI KATL 020316Z 07009G16KT 030V130 1 1/2SM +TSRA FEW030 BKN050CB OVC070 23/18 A3005 RMK AO2 RAB0254 OCNL LTGIC TS OHD-ALQDS MOV SE P0032=
200606020304 SPECI KATL 020304Z 36013KT 2 1/2SM +TSRA FEW030 BKN050CB OVC070 24/19 A3004 RMK AO2 RAB0254 OCNL LTGIC TS OHD-NE AND NW MOV SE P0004=
200606020304 SPECI KATL 020304Z 36013KT 2 1/2SM +TSRA FEW030 BKN050CB OVC070 24/19 A3004 RMK AO2 RAB0254 OCNL LTGIC TS OHD-NE AND NW MOV SE P0004=
200606020252 METAR KATL 020252Z 33005KT 10SM TS BKN055CB BKN070 OVC090 23/19 A3003 RMK AO2 TSE22B41RAE34 SLP161 OCNL LTGIC TS VC NW AND DSNT NE NO MOV P0019 60054 T02330189 53022=
200606020241 SPECI KATL 020241Z 33004KT 10SM TS BKN055CB BKN070 OVC090 22/19 A3003 RMK AO2 TSE22B41RAE34 OCNL LTGIC TS VC NW NO MOV P0019=
200606020241 SPECI KATL 020241Z 33004KT 10SM TS BKN055CB BKN070 OVC090 22/19 A3003 RMK AO2 TSE22B41RAE34 OCNL LTGIC TS VC NW NO MOV P0019=
200606020224 SPECI KATL 020224Z 31008KT 8SM -RA SCT055 BKN070 OVC090 22/19 A3001 RMK AO2 TSE22 TS MOV N P0019=
200606020224 SPECI KATL 020224Z 31008KT 8SM -RA SCT055 BKN070 OVC090 22/19 A3001 RMK AO2 TSE22 TS MOV N P0019=
200606020202 SPECI KATL 020202Z 05007KT 6SM -TSRA FEW030 BKN055CB OVC080 24/18 A3001 RMK AO2 OCNL LTGCGIC TS NW MOV N P0000=
200606020202 SPECI KATL 020202Z 05007KT 6SM -TSRA FEW030 BKN055CB OVC080 24/18 A3001 RMK AO2 OCNL LTGCGIC TS NW MOV N P0000=
200606020152 METAR KATL 020152Z COR 04016G20KT 1 1/2SM +TSRA FEW030 BKN055CB OVC080 24/17 A3002 RMK AO2 RAB33 SLP155 OCNL LTGCGIC TS OHD-ALDQS NO MOV P0035 T02390172=
200606020052 METAR KATL 020052Z 16010KT 10SM TS BKN060CB BKN080 BKN250 28/16 A2998 RMK AO2 TSB27 SLP140 FRQ LTGCGIC TS VC SE-S NO MOV VCSH=
200606020027 SPECI KATL 020027Z 11003KT 10SM TS SCT060CB SCT080 BKN250 29/16 A2997 RMK AO2 TSB27 OCNL LTGCG TS VC SE AND S MOV N VCSH SE AND S TCU OHD-W=
200606020027 SPECI KATL 020027Z 11003KT 10SM TS SCT060CB SCT080 BKN250 29/16 A2997 RMK AO2 TSB27 OCNL LTGCG TS VC SE AND S MOV N VCSH SE AND S TCU OHD-W=
200606012352 METAR KATL 012352Z 12005KT 10SM FEW065TCU SCT080 BKN250 30/15 A2997 RMK AO2 SLP136 TCU OHD-W-NW AND VC NE-SE-S T03000150 10317 20283 55007=
200606012252 METAR KATL 012252Z 13004KT 10SM SCT060TCU BKN250 30/15 A2995 RMK AO2 SLP133 TCU S-OHD-W AND DSNT SE MDT CU VC E-S T03000150=
200606012152 METAR KATL 012152Z 06004KT 10SM SCT060TCU BKN250 30/14 A2997 RMK AO2 SLP138 TCU W MDT CU ALQDS T03000144=
200606012052 METAR KATL 012052Z VRB06KT 9SM FEW060 SCT240 31/16 A2999 RMK AO2 SLP144 CB DSNT NW-N TCU DSNT W T03110156 58030=
200606011952 METAR KATL 011952Z 03004KT 10SM FEW060 SCT240 30/15 A3002 RMK AO2 SLP155 MDT CU ALQDS T03000150=
200606011852 METAR KATL 011852Z VRB06KT 10SM SCT050 30/16 A3005 RMK AO2 SLP166 MDT CU NE AND SW-NW T03000161=
200606011752 METAR KATL 011752Z 14007KT 100V170 10SM FEW055 29/16 A3008 RMK AO2 SLP175 MDT CU ALQDS T02940161 10294 20217 58011=
200606011652 METAR KATL 011652Z 15007KT 10SM BKN040 28/18 A3010 RMK AO2 SLP182 MDT CU ALQDS T02830178=
200606011552 METAR KATL 011552Z VRB04KT 10SM SCT035 SCT240 27/17 A3011 RMK AO2 SLP187 T02720172=
200606011452 METAR KATL 011452Z VRB03KT 10SM FEW030 SCT240 26/18 A3011 RMK AO2 SLP186 T02560178 58000=
200606011352 METAR KATL 011352Z 12005KT 10SM FEW025 SCT240 24/18 A3013 RMK AO2 SLP191 T02440183=
200606011252 METAR KATL 011252Z 13005KT 9SM FEW250 23/18 A3012 RMK AO2 SLP190 T02280178=
