##########################################################
# Query made at 04/19/2024 22:55:14 UTC
# Time interval: from 03/01/2006 12:00  to 03/31/2006 12:59  UTC
##########################################################

##########################################################
# KATL, Atlanta, Hartsfield - Jackson Atlanta International Airport (United States)
# WMO index: 72219. WIGOS ID: 0-20000-0-72219
# Latitude 33-38-59N. Longitude 084-25-00W. Altitude 312 m.
##########################################################

200603311252 METAR KATL 311252Z 13004KT 5SM BR SCT250 14/13 A3028 RMK AO2 SLP249 T01390128=
200603311152 METAR KATL 311152Z COR 13004KT 4SM BR FEW060 SCT250 13/12 A3026 RMK AO2 SLP242 T01280117 10167 20128 51013=
200603311052 METAR KATL 311052Z 13005KT 6SM BR FEW060 SCT250 13/12 A3024 RMK AO2 SLP236 T01280117=
200603310952 METAR KATL 310952Z 00000KT 8SM SCT060 SCT250 14/11 A3023 RMK AO2 SLP233 T01390111=
200603310852 METAR KATL 310852Z 14004KT 9SM FEW250 14/11 A3022 RMK AO2 SLP227 T01440111 53002=
200603310752 METAR KATL 310752Z 16007KT 10SM FEW250 15/11 A3021 RMK AO2 SLP226 T01500111=
200603310652 METAR KATL 310652Z 15008KT 10SM FEW250 16/11 A3021 RMK AO2 SLP224 T01610106=
200603310552 METAR KATL 310552Z 14010KT 10SM FEW250 17/10 A3021 RMK AO2 SLP224 T01670100 10211 20167 56002=
200603310452 METAR KATL 310452Z 15010KT 10SM CLR 18/09 A3021 RMK AO2 SLP224 T01780089 402330100=
200603310352 METAR KATL 310352Z 14006KT 10SM FEW100 17/08 A3021 RMK AO2 SLP227 T01670083=
200603310252 METAR KATL 310252Z 13004KT 10SM SCT100 18/08 A3022 RMK AO2 SLP229 T01780083 53011=
200603310152 METAR KATL 310152Z 13004KT 10SM SCT100 19/09 A3020 RMK AO2 SLP225 T01940089=
200603310052 METAR KATL 310052Z 13003KT 10SM FEW100 20/09 A3019 RMK AO2 SLP221 T02000094=
200603302352 METAR KATL 302352Z 13004KT 8SM FEW065 BKN100 BKN250 21/10 A3018 RMK AO2 SLP219 T02110100 10233 20211 56003 $=
200603302252 METAR KATL 302252Z 14007KT 8SM FEW050TCU SCT100 22/11 A3019 RMK AO2 SLP219 TCU SW-NW MDT CU VC NE-E T02220111=
200603302152 METAR KATL 302152Z 15006KT 9SM FEW050 SCT100 22/11 A3019 RMK AO2 SLP220 TCU DSNT W T02220111=
200603302052 METAR KATL 302052Z 17008KT 8SM SCT050 SCT100 22/11 A3019 RMK AO2 SLP222 MDT CU E-NW T02220111 56020=
200603301952 METAR KATL 301952Z 13007KT 9SM BKN050 BKN080 BKN250 22/11 A3021 RMK AO2 SLP226 MDT CU SE-NW T02220111=
200603301852 METAR KATL 301852Z 13010KT 10SM SCT050 23/11 A3023 RMK AO2 SLP231 T02280106=
200603301752 METAR KATL 301752Z 15007KT 120V220 9SM SCT050 22/12 A3025 RMK AO2 SLP240 T02220117 10222 20100 58011=
200603301652 METAR KATL 301652Z VRB05KT 9SM FEW055 SCT150 SCT240 21/11 A3027 RMK AO2 SLP247 ACC ALQDS T02110106=
200603301552 METAR KATL 301552Z 07006KT 9SM FEW250 19/10 A3028 RMK AO2 SLP250 T01890100=
200603301452 METAR KATL 301452Z 10007KT 8SM FEW250 16/09 A3029 RMK AO2 SLP252 T01610089 51020=
200603301352 METAR KATL 301352Z 09007KT 7SM FEW250 14/08 A3028 RMK AO2 SLP252 T01390083=
200603301252 METAR KATL 301252Z 07010KT 7SM FEW250 11/07 A3026 RMK AO2 SLP245 T01110072=
200603301152 METAR KATL 301152Z 06009KT 5SM HZ FEW250 10/07 A3023 RMK AO2 SLP233 T01000072 10144 20100 53018 $=
200603301052 METAR KATL 301052Z 05008KT 6SM BR FEW250 10/08 A3020 RMK AO2 SLP223 T01000078 $=
200603300952 METAR KATL 300952Z COR 06007KT 6SM HZ FEW250 10/07 A3018 RMK AO2 SLP217 T01000072 $=
200603300852 METAR KATL 300852Z 07005KT 7SM SCT250 11/07 A3017 RMK AO2 SLP214 T01060072 56006 $=
200603300752 METAR KATL 300752Z 05006KT 9SM SCT250 12/07 A3018 RMK AO2 SLP214 T01220067 $=
200603300652 METAR KATL 300652Z 06005KT 10SM SCT250 13/05 A3018 RMK AO2 SLP218 T01330050 $=
200603300552 METAR KATL 300552Z 03005KT 10SM BKN250 14/04 A3019 RMK AO2 SLP219 T01440039 10211 20128 50001 $=
200603300452 METAR KATL 300452Z 32006KT 10SM BKN250 13/03 A3020 RMK AO2 SLP223 T01330033 402280089 $=
200603300352 METAR KATL 300352Z 34005KT 10SM BKN250 17/03 A3020 RMK AO2 SLP223 T01670028 $=
200603300252 METAR KATL 300252Z 02005KT 10SM BKN250 18/03 A3019 RMK AO2 SLP219 T01780028 52017 $=
200603300152 METAR KATL 300152Z COR 01009KT 10SM FEW250 18/03 A3017 RMK AO2 SLP214 T01780028 $=
200603300052 METAR KATL 300052Z 30005KT 10SM FEW250 SCT300 18/00 A3015 RMK AO2 SLP209 T01830000 $=
200603292352 METAR KATL 292352Z 31004KT 10SM FEW250 BKN300 21/M01 A3014 RMK AO2 SLP203 T02111011 10228 20200 53001 $=
200603292252 METAR KATL 292252Z 29005KT 10SM FEW250 SCT300 22/01 A3013 RMK AO2 SLP200 T02170011 $=
200603292152 METAR KATL 292152Z 27005KT 10SM FEW250 22/01 A3013 RMK AO2 SLP199 CU DSNT S T02220006 $=
200603292052 METAR KATL 292052Z VRB04KT 10SM FEW080 SCT250 22/02 A3013 RMK AO2 SLP201 T02220017 56020 $=
200603291952 METAR KATL 291952Z 24010KT 10SM FEW080 SCT250 22/02 A3014 RMK AO2 SLP205 T02220017 $=
200603291852 METAR KATL 291852Z VRB04KT 10SM FEW060 21/06 A3016 RMK AO2 SLP212 T02110061 $=
200603291752 METAR KATL 291752Z 26007KT 10SM FEW065 21/05 A3019 RMK AO2 SLP223 T02060050 10206 20089 58013 $=
200603291652 METAR KATL 291652Z VRB03KT 10SM FEW050 SCT100 19/05 A3022 RMK AO2 SLP230 T01890050=
200603291552 METAR KATL 291552Z 22003KT 10SM FEW100 18/06 A3023 RMK AO2 SLP234 T01780061=
200603291452 METAR KATL 291452Z VRB04KT 10SM FEW045 SCT100 15/09 A3023 RMK AO2 SLP237 T01500089 53009=
200603291405 SPECI KATL 291405Z 30005KT 4SM BR FEW005 SCT044 12/11 A3023 RMK AO2=
200603291405 SPECI KATL 291405Z 30005KT 4SM BR FEW005 SCT044 12/11 A3023 RMK AO2=
200603291352 METAR KATL 291352Z 30005KT 2SM BR SCT001 SCT005 OVC044 11/11 A3022 RMK AO2 TWR VIS 2 1/2 SLP235 T01110106=
200603291345 SPECI KATL 291345Z 30005KT 3/4SM R09R/1600VP6000FT BR SCT001 BKN046 11/11 A3022 RMK AO2 TWR VIS 1 $=
200603291345 SPECI KATL 291345Z 30005KT 3/4SM R09R/1600VP6000FT BR SCT001 BKN046 11/11 A3022 RMK AO2 TWR VIS 1 $=
200603291332 SPECI KATL 291332Z 30005KT 1/2SM R09R/1000V2200FT FG SCT001 BKN046 11/11 A3022 RMK AO2 TWR VIS 1 $=
200603291332 SPECI KATL 291332Z 30005KT 1/2SM R09R/1000V2200FT FG SCT001 BKN046 11/11 A3022 RMK AO2 TWR VIS 1 $=
200603291252 METAR KATL 291252Z 34003KT 1/2SM R09R/1200V4500FT FG FEW001 BKN046 11/10 A3020 RMK AO2 TWR VIS 1 SLP229 T01060100=
200603291249 SPECI KATL 291249Z 34003KT 1/2SM R09R/1200VP6000FT FG FEW001 BKN046 10/10 A3020 RMK AO2 TWR VIS 1=
200603291249 SPECI KATL 291249Z 34003KT 1/2SM R09R/1200VP6000FT FG FEW001 BKN046 10/10 A3020 RMK AO2 TWR VIS 1=
200603291218 SPECI KATL 291218Z 00000KT 3SM BR BKN048 10/09 A3020 RMK AO2=
200603291218 SPECI KATL 291218Z 00000KT 3SM BR BKN048 10/09 A3020 RMK AO2=
200603291211 SPECI KATL 291211Z 00000KT 2SM BR FEW001 BKN048 09/09 A3020 RMK AO2 TWR VIS 3=
200603291211 SPECI KATL 291211Z 00000KT 2SM BR FEW001 BKN048 09/09 A3020 RMK AO2 TWR VIS 3=
200603291152 METAR KATL 291152Z 25003KT 1SM R09R/P6000FT BR FEW001 BKN050 09/09 A3020 RMK AO2 TWR VIS 2 SLP227 70007 T00940089 10117 20089 53013=
200603291130 SPECI KATL 291130Z 29003KT 1SM R09R/1000V5500FT BR SCT001 BKN050 09/09 A3019 RMK AO2 TWR VIS 2 VIS S-SW 1/2=
200603291130 SPECI KATL 291130Z 29003KT 1SM R09R/1000V5500FT BR SCT001 BKN050 09/09 A3019 RMK AO2 TWR VIS 2 VIS S-SW 1/2=
200603291127 SPECI KATL 291127Z 29003KT 1SM R09R/1000V2000FT BR FEW001 BKN050 09/09 A3019 RMK AO2 TWR VIS 2 VIS S-SW 1/2=
200603291127 SPECI KATL 291127Z 29003KT 1SM R09R/1000V2000FT BR FEW001 BKN050 09/09 A3019 RMK AO2 TWR VIS 2 VIS S-SW 1/2=
200603291052 METAR KATL 291052Z 21003KT 2 1/2SM R09R/5500VP6000FT BR FEW001 SCT050 BKN250 09/09 A3018 RMK AO2 SFC VIS 3 SLP221 VIS S-SW 3/4 T00940094=
200603291038 SPECI KATL 291038Z 20003KT 1 1/2SM BR FEW001 SCT005 BKN050 BKN250 09/09 A3018 RMK AO2 TWR VIS 2 1/2=
200603291038 SPECI KATL 291038Z 20003KT 1 1/2SM BR FEW001 SCT005 BKN050 BKN250 09/09 A3018 RMK AO2 TWR VIS 2 1/2=
200603291024 SPECI KATL 291024Z 23003KT 2SM BR FEW001 SCT005 BKN048 BKN250 10/10 A3017 RMK AO2 TWR VIS 2 1/2 VIS N-NE 1=
200603291024 SPECI KATL 291024Z 23003KT 2SM BR FEW001 SCT005 BKN048 BKN250 10/10 A3017 RMK AO2 TWR VIS 2 1/2 VIS N-NE 1=
200603291019 SPECI KATL 291019Z 24003KT 1 1/2SM BR SCT001 SCT005 OVC048 10/09 A3017 RMK AO2 TWR VIS 2 1/2=
200603291019 SPECI KATL 291019Z 24003KT 1 1/2SM BR SCT001 SCT005 OVC048 10/09 A3017 RMK AO2 TWR VIS 2 1/2=
200603291005 SPECI KATL 291005Z 23003KT 1/8SM R09R/1200V3000FT FG BKN001 BKN005 OVC048 09/09 A3017 RMK AO2 SFC VIS 1/4=
200603291005 SPECI KATL 291005Z 23003KT 1/8SM R09R/1200V3000FT FG BKN001 BKN005 OVC048 09/09 A3017 RMK AO2 SFC VIS 1/4=
200603290952 METAR KATL 290952Z 22003KT 1/8SM R09R/1000V1800FT FG VV001 09/09 A3016 RMK AO2 SLP215 T00940094=
200603290924 SPECI KATL 290924Z 22004KT 1/8SM R09R/0800V1200FT FG VV001 10/10 A3016 RMK AO2=
200603290924 SPECI KATL 290924Z 22004KT 1/8SM R09R/0800V1200FT FG VV001 10/10 A3016 RMK AO2=
200603290917 SPECI KATL 290917Z 24004KT 1/8SM R09R/1000V5500FT FG VV001 10/10 A3016 RMK AO2=
200603290917 SPECI KATL 290917Z 24004KT 1/8SM R09R/1000V5500FT FG VV001 10/10 A3016 RMK AO2=
200603290914 SPECI KATL 290914Z 22003KT 3/4SM R09R/1400VP6000FT BR BKN002 BKN250 10/10 A3016 RMK AO2 TWR VIS 1 VIS N-NE 4=
200603290914 SPECI KATL 290914Z 22003KT 3/4SM R09R/1400VP6000FT BR BKN002 BKN250 10/10 A3016 RMK AO2 TWR VIS 1 VIS N-NE 4=
200603290912 SPECI KATL 290912Z 22004KT 1/2SM R09R/1800VP6000FT FG SCT002 BKN005 10/10 A3016 RMK AO2 TWR VIS 1 VIS N-NE 4=
200603290912 SPECI KATL 290912Z 22004KT 1/2SM R09R/1800VP6000FT FG SCT002 BKN005 10/10 A3016 RMK AO2 TWR VIS 1 VIS N-NE 4=
200603290852 METAR KATL 290852Z 22003KT 4SM BR SCT001 SCT250 11/10 A3016 RMK AO2 SLP213 VIS E-SE 3/4 W 1/2 T01060100 56004=
200603290752 METAR KATL 290752Z 30007KT 6SM BR FEW060 BKN250 11/10 A3015 RMK AO2 SLP211 T01060100=
200603290652 METAR KATL 290652Z 26006KT 6SM BR BKN040 BKN060 BKN120 OVC250 12/11 A3017 RMK AO2 SLP217 T01170111=
200603290552 METAR KATL 290552Z 24004KT 7SM BKN045 BKN200 11/11 A3018 RMK AO2 SLP221 T01060106 10128 20094 58001=
200603290452 METAR KATL 290452Z 00000KT 7SM FEW045 SCT200 BKN250 10/10 A3018 RMK AO2 SLP222 T01000100 401330089 $=
200603290352 METAR KATL 290352Z 00000KT 8SM FEW200 SCT250 11/10 A3018 RMK AO2 SLP222 T01060100=
200603290252 METAR KATL 290252Z 00000KT 8SM BKN055 BKN250 11/10 A3018 RMK AO2 SLP222 T01060100 53004=
200603290152 METAR KATL 290152Z 20003KT 9SM FEW200 BKN250 11/10 A3018 RMK AO2 SLP220 T01110100=
200603290052 METAR KATL 290052Z 22003KT 7SM FEW150 SCT200 BKN250 12/11 A3017 RMK AO2 SLP219 T01220106=
200603282352 METAR KATL 282352Z 21007KT 8SM FEW150 BKN200 BKN250 13/11 A3017 RMK AO2 SLP218 T01280106 10133 20111 56007=
200603282315 SPECI KATL 282315Z 21009KT 7SM SCT014 BKN200 BKN250 13/11 A3017 RMK AO2=
200603282315 SPECI KATL 282315Z 21009KT 7SM SCT014 BKN200 BKN250 13/11 A3017 RMK AO2=
200603282252 METAR KATL 282252Z 23006KT 6SM HZ OVC013 13/11 A3018 RMK AO2 SLP219 CIG 010V016 BINOVC T01330106=
200603282231 SPECI KATL 282231Z 23007KT 6SM BR OVC012 13/11 A3018 RMK AO2 CIG 008V015=
200603282231 SPECI KATL 282231Z 23007KT 6SM BR OVC012 13/11 A3018 RMK AO2 CIG 008V015=
200603282152 METAR KATL 282152Z 22009KT 5SM BR OVC007 13/11 A3018 RMK AO2 SLP219 T01280106=
200603282052 METAR KATL 282052Z 25008KT 6SM BR OVC009 12/11 A3019 RMK AO2 SLP226 T01220106 56013=
200603281952 METAR KATL 281952Z 24011G17KT 6SM BR OVC009 12/10 A3021 RMK AO2 SLP229 T01170100=
200603281852 METAR KATL 281852Z 22012KT 6SM BR OVC009 12/10 A3021 RMK AO2 SLP233 T01170100=
200603281801 SPECI KATL 281801Z 22010KT 6SM BR OVC007 11/10 A3023 RMK AO2 CIG 005V010 BINOVC=
200603281801 SPECI KATL 281801Z 22010KT 6SM BR OVC007 11/10 A3023 RMK AO2 CIG 005V010 BINOVC=
200603281752 METAR KATL 281752Z 22012G16KT 2 1/2SM BR OVC007 11/10 A3023 RMK AO2 SFC VIS 6 DZE48 CIG 004V010 SLP239 P0001 60007 T01110100 10111 20089 58013=
200603281652 METAR KATL 281652Z 22010KT 2 1/2SM -DZ BR BKN007 OVC010 10/09 A3026 RMK AO2 SFC VIS 4 RAE28DZB28 SLP248 P0000 T01000089=
200603281632 SPECI KATL 281632Z 22013KT 2 1/2SM -DZ BR BKN010 BKN016 OVC022 10/09 A3026 RMK AO2 SFC VIS 4 RAE28DZB28 CIG 006V012 P0000=
200603281632 SPECI KATL 281632Z 22013KT 2 1/2SM -DZ BR BKN010 BKN016 OVC022 10/09 A3026 RMK AO2 SFC VIS 4 RAE28DZB28 CIG 006V012 P0000=
200603281603 SPECI KATL 281603Z 22013G18KT 2 1/2SM -RA BR SCT021 OVC025 10/08 A3026 RMK AO2 SFC VIS 3 P0000=
200603281603 SPECI KATL 281603Z 22013G18KT 2 1/2SM -RA BR SCT021 OVC025 10/08 A3026 RMK AO2 SFC VIS 3 P0000=
200603281552 METAR KATL 281552Z 21011KT 6SM -RA BR OVC025 10/08 A3026 RMK AO2 SLP250 P0003 T01000083=
200603281512 SPECI KATL 281512Z 24008KT 5SM -RA BR OVC029 09/07 A3027 RMK AO2 P0003=
200603281512 SPECI KATL 281512Z 24008KT 5SM -RA BR OVC029 09/07 A3027 RMK AO2 P0003=
200603281452 METAR KATL 281452Z 24008KT 4SM -RA OVC033 10/07 A3027 RMK AO2 RAB21 SLP253 P0001 60003 T01000072 53017=
200603281352 METAR KATL 281352Z 25005KT 10SM OVC035 09/06 A3025 RMK AO2 RAE38 SLP244 P0002 T00940061=
200603281252 METAR KATL 281252Z 20005KT 6SM -RA SCT050 BKN085 BKN140 OVC200 09/04 A3024 RMK AO2 RAB49 SLP242 P0000 T00940044=
200603281152 METAR KATL 281152Z 20007KT 10SM BKN075 OVC100 09/04 A3022 RMK AO2 RAE18 SLP234 P0000 60001 70001 T00940044 10100 20089 55003=
200603281052 METAR KATL 281052Z 18005KT 10SM -RA FEW055 OVC085 09/04 A3022 RMK AO2 SLP233 P0000 T00890044=
200603280952 METAR KATL 280952Z 00000KT 8SM -RA OVC070 09/02 A3023 RMK AO2 RAB07 SLP235 P0001 T00890022=
200603280852 METAR KATL 280852Z 22005KT 10SM OVC065 09/M01 A3023 RMK AO2 RAB19E29 SLP237 P0000 60000 T00941011 50001=
200603280752 METAR KATL 280752Z 22006KT 10SM OVC070 10/M02 A3023 RMK AO2 SLP238 T01001022=
200603280652 METAR KATL 280652Z 00000KT 10SM OVC075 10/M03 A3023 RMK AO2 SLP238 T01001028=
200603280552 METAR KATL 280552Z 17003KT 10SM SCT080 BKN110 BKN200 09/M02 A3023 RMK AO2 SLP237 T00941022 10144 20094 56005=
200603280452 METAR KATL 280452Z 00000KT 10SM FEW150 BKN200 09/M03 A3023 RMK AO2 SLP240 T00941028 401610011=
200603280352 METAR KATL 280352Z 17003KT 10SM FEW200 11/M03 A3023 RMK AO2 SLP239 T01061033=
200603280252 METAR KATL 280252Z 17004KT 10SM FEW200 11/M03 A3024 RMK AO2 SLP243 T01111028 51004=
200603280152 METAR KATL 280152Z 17005KT 10SM FEW150 12/M03 A3024 RMK AO2 SLP243 T01171028=
200603280052 METAR KATL 280052Z 16004KT 10SM SCT150 BKN200 13/M03 A3024 RMK AO2 SLP243 T01331033=
200603272352 METAR KATL 272352Z 16005KT 10SM FEW150 14/M04 A3023 RMK AO2 SLP240 T01441044 10161 20122 58009=
200603272252 METAR KATL 272252Z 20005KT 10SM FEW150 14/M04 A3024 RMK AO2 SLP244 T01441039=
200603272152 METAR KATL 272152Z 18005KT 10SM FEW250 16/M04 A3025 RMK AO2 SLP246 T01561044=
200603272052 METAR KATL 272052Z 20007KT 10SM FEW250 15/M04 A3026 RMK AO2 SLP249 T01501039 56026=
200603271952 METAR KATL 271952Z VRB03KT 10SM BKN250 14/M04 A3028 RMK AO2 SLP257 T01391039=
200603271852 METAR KATL 271852Z 02004KT 10SM BKN250 13/M04 A3030 RMK AO2 SLP264 T01331039=
200603271752 METAR KATL 271752Z VRB04KT 10SM SCT250 12/M04 A3034 RMK AO2 SLP276 T01221039 10128 20033 58010=
200603271652 METAR KATL 271652Z 00000KT 10SM SCT250 11/M04 A3035 RMK AO2 SLP282 T01111039=
200603271552 METAR KATL 271552Z 12009KT 10SM FEW250 11/M04 A3037 RMK AO2 SLP287 T01061044=
200603271452 METAR KATL 271452Z 13009KT 10SM FEW250 09/M05 A3037 RMK AO2 SLP288 T00891050 51011=
200603271352 METAR KATL 271352Z 09009KT 10SM FEW250 07/M04 A3037 RMK AO2 SLP288 T00721039=
200603271252 METAR KATL 271252Z 06009KT 10SM FEW250 06/M03 A3035 RMK AO2 SLP283 T00561033=
200603271152 METAR KATL 271152Z 04006KT 10SM CLR 03/M04 A3034 RMK AO2 SLP278 T00331044 10061 20011 53020=
200603271052 METAR KATL 271052Z 06007KT 10SM CLR 03/M04 A3030 RMK AO2 SLP266 T00281044=
200603270952 METAR KATL 270952Z 05004KT 10SM CLR 03/M04 A3028 RMK AO2 SLP259 T00331044=
200603270852 METAR KATL 270852Z 00000KT 10SM CLR 02/M04 A3027 RMK AO2 SLP257 T00221039 51007=
200603270752 METAR KATL 270752Z 32004KT 10SM CLR 03/M04 A3027 RMK AO2 SLP254 T00281039=
200603270652 METAR KATL 270652Z 02004KT 10SM CLR 05/M05 A3026 RMK AO2 SLP250 T00501050=
200603270552 METAR KATL 270552Z 03003KT 10SM FEW250 06/M05 A3025 RMK AO2 SLP247 T00611050 10094 20056 52004=
200603270452 METAR KATL 270452Z 36007KT 10SM FEW250 06/M05 A3025 RMK AO2 SLP247 T00611050 401221011=
200603270352 METAR KATL 270352Z 36008KT 10SM FEW055 07/M05 A3024 RMK AO2 SLP244 T00671050=
200603270252 METAR KATL 270252Z 35007KT 10SM CLR 07/M04 A3024 RMK AO2 SLP245 T00671044 51017=
200603270152 METAR KATL 270152Z 33006KT 10SM CLR 07/M04 A3023 RMK AO2 SLP241 T00671044=
200603270052 METAR KATL 270052Z 34008KT 10SM CLR 08/M05 A3020 RMK AO2 SLP234 T00831050=
200603262352 METAR KATL 262352Z 34012KT 10SM FEW130 09/M06 A3019 RMK AO2 SLP228 T00941056 10122 20094 53008=
200603262252 METAR KATL 262252Z 34012G19KT 10SM FEW130 11/M06 A3017 RMK AO2 SLP222 T01061056=
200603262152 METAR KATL 262152Z 31014G19KT 10SM FEW130 11/M06 A3016 RMK AO2 SLP219 T01111056=
200603262052 METAR KATL 262052Z 30010G18KT 10SM FEW070 SCT130 11/M06 A3016 RMK AO2 SLP219 T01111056 56015=
200603261952 METAR KATL 261952Z 34008G18KT 10SM FEW070 SCT130 11/M06 A3017 RMK AO2 SLP220 T01111056=
200603261852 METAR KATL 261852Z 36011KT 10SM FEW065 SCT130 11/M05 A3018 RMK AO2 SLP226 T01061050=
200603261752 METAR KATL 261752Z 36015G25KT 10SM FEW060 11/M06 A3021 RMK AO2 SLP234 T01061056 10106 21011 58006=
200603261652 METAR KATL 261652Z 30010G15KT 10SM SCT055 08/M03 A3022 RMK AO2 SLP241 T00831033=
200603261552 METAR KATL 261552Z 31012KT 10SM FEW050 08/M04 A3023 RMK AO2 SLP242 T00781039=
200603261452 METAR KATL 261452Z 35010KT 10SM CLR 06/M04 A3023 RMK AO2 SLP242 T00611039 51011=
200603261352 METAR KATL 261352Z 32011KT 10SM CLR 04/M03 A3022 RMK AO2 SLP240 T00391033=
200603261252 METAR KATL 261252Z 32009KT 10SM CLR 02/M04 A3021 RMK AO2 SLP237 T00171039=
200603261152 METAR KATL 261152Z 30007KT 10SM CLR M01/M04 A3019 RMK AO2 SLP231 T10061044 10011 21011 53014=
200603261052 METAR KATL 261052Z 30008KT 10SM CLR M01/M04 A3017 RMK AO2 SLP225 T10111044=
200603260952 METAR KATL 260952Z 30008KT 10SM CLR M01/M04 A3016=
200603260852 METAR KATL 260852Z 30007KT 10SM CLR M01/M04 A3015 RMK AO2 SLP216 T10061044 58005=
200603260752 METAR KATL 260752Z 31008KT 10SM CLR 00/M05 A3016 RMK AO2 SLP218 T00001050=
200603260652 METAR KATL 260652Z 31008KT 10SM CLR 01/M05 A3016 RMK AO2 SLP219 T00061050=
200603260552 METAR KATL 260552Z 32006KT 10SM CLR 01/M05 A3017 RMK AO2 SLP221 T00111050 10067 20011 58003=
200603260452 METAR KATL 260452Z 31006KT 10SM CLR 02/M05 A3017 RMK AO2 SLP223 T00171050 401060006=
200603260352 METAR KATL 260352Z 31006KT 10SM CLR 03/M06 A3018 RMK AO2 SLP226 T00281056=
200603260252 METAR KATL 260252Z 32007KT 10SM CLR 03/M06 A3018 RMK AO2 SLP224 T00331056 53013=
200603260152 METAR KATL 260152Z 32007KT 10SM CLR 04/M06 A3016 RMK AO2 SLP220 T00441061=
200603260052 METAR KATL 260052Z 31013G18KT 10SM FEW060 06/M06 A3014 RMK AO2 SLP213 T00561061=
200603252352 METAR KATL 252352Z 30018KT 10SM BKN060 07/M07 A3014 RMK AO2 SLP212 T00671067 10106 20067 53016=
200603252252 METAR KATL 252252Z 32014KT 10SM SCT060 07/M07 A3012 RMK AO2 SLP205 T00721067=
200603252152 METAR KATL 252152Z 34016G22KT 10SM BKN060 09/M06 A3010 RMK AO2 SLP197 MDT CU ALQDS T00941056=
200603252052 METAR KATL 252052Z 30019G24KT 10SM BKN065 09/M06 A3009 RMK AO2 SLP193 MDT CU ALQDS T00941056 55006=
200603251952 METAR KATL 251952Z 31018G25KT 10SM BKN065 09/M06 A3008 RMK AO2 SLP191 MDT CU ALQDS T00941056=
200603251852 METAR KATL 251852Z 32018KT 10SM BKN060 10/M05 A3010 RMK AO2 SLP196 T01001050=
200603251752 METAR KATL 251752Z 31013G21KT 10SM BKN060 09/M05 A3011 RMK AO2 SLP200 T00891050 10094 20011 58009=
200603251652 METAR KATL 251652Z 33012G19KT 10SM SCT050 08/M04 A3012 RMK AO2 SLP205 T00781044=
200603251552 METAR KATL 251552Z 32013G19KT 10SM SCT050 07/M05 A3013 RMK AO2 SLP207 T00671050=
200603251452 METAR KATL 251452Z 33015G20KT 10SM SCT150 06/M05 A3013 RMK AO2 SLP209 T00611050 51012=
200603251352 METAR KATL 251352Z 31014KT 10SM FEW120 04/M04 A3013 RMK AO2 SLP207 T00441044=
200603251252 METAR KATL 251252Z 30011KT 10SM CLR 03/M04 A3012 RMK AO2 SLP204 T00281039=
200603251152 METAR KATL 251152Z 30008KT 10SM FEW120 01/M04 A3010 RMK AO2 SLP198 T00111039 10028 20006 53015=
200603251052 METAR KATL 251052Z COR 28005KT 10SM FEW060 01/M04 A3008 RMK AO2 SLP191 T00111039=
200603250952 METAR KATL 250952Z 27006KT 10SM FEW060 02/M04 A3006 RMK AO2 SLP185 T00171039=
200603250852 METAR KATL 250852Z 28007KT 10SM FEW055 01/M04 A3005 RMK AO2 SLP181 T00111039 58008=
200603250752 METAR KATL 250752Z 29006KT 10SM BKN060 02/M04 A3007 RMK AO2 SLP187 T00221039 $=
200603250652 METAR KATL 250652Z 29008KT 10SM FEW120 02/M04 A3008 RMK AO2 SLP190 T00171039=
200603250552 METAR KATL 250552Z 29004KT 10SM CLR 03/M04 A3008 RMK AO2 SLP190 T00281044 10078 20022 58009=
200603250452 METAR KATL 250452Z 33007KT 10SM CLR 03/M04 A3009 RMK AO2 SLP193 T00331044 401060033=
200603250352 METAR KATL 250352Z 31007KT 10SM CLR 04/M04 A3010 RMK AO2 SLP197 T00391044=
200603250252 METAR KATL 250252Z 30007KT 10SM CLR 04/M04 A3011 RMK AO2 SLP201 T00441044 50014=
200603250152 METAR KATL 250152Z 32010KT 10SM FEW060 06/M05 A3011 RMK AO2 SLP202 T00611050=
200603250052 METAR KATL 250052Z COR 32009KT 10SM SCT060 07/M04 A3009 RMK AO2 SLP195 T00671044=
200603242352 METAR KATL 242352Z 32014G20KT 10SM SCT060 08/M05 A3006 RMK AO2 SLP185 T00781050 10106 20078 51013=
200603242252 METAR KATL 242252Z 31013KT 10SM BKN065 09/M04 A3006 RMK AO2 SLP183 T00891039=
200603242152 METAR KATL 242152Z 29011G18KT 10SM BKN060 10/M03 A3004 RMK AO2 SLP175 T01001033=
200603242052 METAR KATL 242052Z 29014KT 10SM SCT055 10/M03 A3002 RMK AO2 SLP171 T01001033 58011=
200603241952 METAR KATL 241952Z 34016KT 10SM FEW050 10/M02 A3003 RMK AO2 SLP174 T01001017=
200603241852 METAR KATL 241852Z 33016G21KT 10SM SCT045 10/M02 A3005 RMK AO2 SLP179 T01001017=
200603241752 METAR KATL 241752Z 29017G21KT 10SM SCT040 09/M01 A3006 RMK AO2 SLP182 T00941006 10094 20033 58009=
200603241652 METAR KATL 241652Z 32017G22KT 10SM SCT033 08/M01 A3008 RMK AO2 SLP188 T00781006=
200603241606 SPECI KATL 241606Z 30017KT 10SM SCT030 08/01 A3008 RMK AO2=
200603241606 SPECI KATL 241606Z 30017KT 10SM SCT030 08/01 A3008 RMK AO2=
200603241552 METAR KATL 241552Z 33017G21KT 10SM BKN028 07/M01 A3008 RMK AO2 SLP192 T00671006=
200603241549 SPECI KATL 241549Z 33017G21KT 10SM BKN028 07/M01 A3009 RMK AO2=
200603241549 SPECI KATL 241549Z 33017G21KT 10SM BKN028 07/M01 A3009 RMK AO2=
200603241452 METAR KATL 241452Z 30014KT 10SM BKN030 BKN250 06/M01 A3008 RMK AO2 SLP189 T00561006 51007=
200603241352 METAR KATL 241352Z 32015G21KT 10SM BKN024 BKN250 04/M01 A3007 RMK AO2 SLP188 T00391006=
200603241252 METAR KATL 241252Z 32012KT 10SM BKN030 BKN250 04/M01 A3007 RMK AO2 SLP186 T00391006=
200603241152 METAR KATL 241152Z 31011KT 10SM FEW018 BKN030 BKN110 BKN250 03/00 A3005 RMK AO2 SLP181 70003 T00330000 10056 20033 53010=
200603241052 METAR KATL 241052Z 32010KT 10SM SCT020 SCT055 BKN110 03/01 A3004 RMK AO2 SLP177 T00330006=
200603240952 METAR KATL 240952Z 32008KT 10SM FEW018 SCT055 BKN110 04/01 A3003 RMK AO2 SLP171 T00390006=
200603240948 SPECI KATL 240948Z 33011KT 10SM FEW018 SCT055 BKN110 04/01 A3002 RMK AO2=
200603240948 SPECI KATL 240948Z 33011KT 10SM FEW018 SCT055 BKN110 04/01 A3002 RMK AO2=
200603240933 SPECI KATL 240933Z 33008KT 10SM BKN018 OVC055 04/01 A3002 RMK AO2=
200603240933 SPECI KATL 240933Z 33008KT 10SM BKN018 OVC055 04/01 A3002 RMK AO2=
200603240852 METAR KATL 240852Z 32013KT 10SM BKN039 OVC055 04/02 A3002 RMK AO2 SLP170 T00440017 58012=
200603240824 SPECI KATL 240824Z 32014KT 10SM SCT014 SCT039 OVC070 04/02 A3003 RMK AO2=
200603240824 SPECI KATL 240824Z 32014KT 10SM SCT014 SCT039 OVC070 04/02 A3003 RMK AO2=
200603240755 SPECI KATL 240755Z 33009KT 9SM BKN014 BKN048 BKN100 04/03 A3003 RMK AO2=
200603240755 SPECI KATL 240755Z 33009KT 9SM BKN014 BKN048 BKN100 04/03 A3003 RMK AO2=
200603240752 METAR KATL 240752Z 33008KT 9SM SCT014 BKN048 BKN100 04/03 A3003 RMK AO2 SLP173 T00440028=
200603240652 METAR KATL 240652Z 32009KT 7SM SCT034 BKN044 BKN100 05/03 A3005 RMK AO2 SLP180 T00500028=
200603240552 METAR KATL 240552Z 32009KT 7SM BKN030 BKN042 05/03 A3006 RMK AO2 SLP182 60003 T00500033 10100 20050 55003=
200603240546 SPECI KATL 240546Z 33008KT 7SM BKN030 BKN042 06/03 A3006 RMK AO2=
200603240546 SPECI KATL 240546Z 33008KT 7SM BKN030 BKN042 06/03 A3006 RMK AO2=
200603240452 METAR KATL 240452Z 32009KT 7SM FEW005 BKN025 OVC035 06/04 A3006 RMK AO2 SLP181 T00610039 401110033=
200603240352 METAR KATL 240352Z 32007KT 7SM FEW004 BKN025 OVC035 06/06 A3007 RMK AO2 SLP185 T00610056=
200603240344 SPECI KATL 240344Z 31007KT 7SM FEW005 BKN025 OVC035 07/06 A3007 RMK AO2=
200603240344 SPECI KATL 240344Z 31007KT 7SM FEW005 BKN025 OVC035 07/06 A3007 RMK AO2=
200603240302 SPECI KATL 240302Z 36007KT 8SM SCT015 BKN028 OVC060 07/05 A3007 RMK AO2=
200603240302 SPECI KATL 240302Z 36007KT 8SM SCT015 BKN028 OVC060 07/05 A3007 RMK AO2=
200603240252 METAR KATL 240252Z 01007KT 7SM FEW010 SCT030 OVC055 07/05 A3007 RMK AO2 RAE20 SLP187 P0000 60003 T00720050 51010=
200603240203 SPECI KATL 240203Z 03011KT 6SM -RA BR SCT008 OVC040 08/07 A3007 RMK AO2 P0000=
200603240203 SPECI KATL 240203Z 03011KT 6SM -RA BR SCT008 OVC040 08/07 A3007 RMK AO2 P0000=
200603240152 METAR KATL 240152Z 03009KT 7SM -RA FEW010 OVC038 08/07 A3006 RMK AO2 SLP184 P0002 T00830067=
200603240145 SPECI KATL 240145Z 05012KT 7SM -RA FEW012 SCT020 OVC038 08/07 A3006 RMK AO2 P0002=
200603240145 SPECI KATL 240145Z 05012KT 7SM -RA FEW012 SCT020 OVC038 08/07 A3006 RMK AO2 P0002=
200603240052 METAR KATL 240052Z 02008KT 10SM -RA FEW015 OVC022 09/06 A3006 RMK AO2 RAB04 SLP184 P0001 T00940061=
200603240008 SPECI KATL 240008Z 11006KT 10SM -RA BKN025 BKN050 OVC070 10/05 A3004 RMK AO2 RAB04 P0000=
200603240008 SPECI KATL 240008Z 11006KT 10SM -RA BKN025 BKN050 OVC070 10/05 A3004 RMK AO2 RAB04 P0000=
200603232352 METAR KATL 232352Z 12007KT 10SM FEW030 BKN055 OVC070 10/05 A3004 RMK AO2 SLP176 VCSH W-N T01000050 10111 20100 56005=
200603232252 METAR KATL 232252Z 12009KT 9SM SCT030 BKN065 OVC080 11/05 A3004 RMK AO2 SLP177 T01060050=
200603232152 METAR KATL 232152Z 11008KT 8SM FEW030 BKN065 OVC080 11/05 A3005 RMK AO2 SLP178 SHRA DSNT N AND SW T01060050=
200603232100 SPECI KATL 232100Z 13008KT 9SM BKN030 OVC060 11/05 A3005 RMK AO2=
200603232100 SPECI KATL 232100Z 13008KT 9SM BKN030 OVC060 11/05 A3005 RMK AO2=
200603232052 METAR KATL 232052Z 14009G14KT 9SM OVC028 11/05 A3005 RMK AO2 SLP181 T01110050 56022=
200603232043 SPECI KATL 232043Z 14008KT 8SM BKN028 BKN034 OVC060 11/05 A3006 RMK AO2=
200603232043 SPECI KATL 232043Z 14008KT 8SM BKN028 BKN034 OVC060 11/05 A3006 RMK AO2=
200603231952 METAR KATL 231952Z 13008KT 9SM BKN030 BKN060 OVC150 11/04 A3006 RMK AO2 SLP184 T01110044=
200603231939 SPECI KATL 231939Z 14008KT 10SM BKN030 BKN060 OVC150 11/04 A3007 RMK AO2=
200603231939 SPECI KATL 231939Z 14008KT 10SM BKN030 BKN060 OVC150 11/04 A3007 RMK AO2=
200603231852 METAR KATL 231852Z 15008KT 10SM OVC028 11/04 A3008 RMK AO2 SLP191 T01060044=
200603231752 METAR KATL 231752Z 14007KT 10SM OVC026 11/04 A3012 RMK AO2 SLP204 VIRGA SW T01060044 10106 20044 56005=
200603231652 METAR KATL 231652Z 12009KT 10SM BKN026 BKN033 OVC041 10/04 A3013 RMK AO2 SLP206 T01000044=
200603231608 SPECI KATL 231608Z 14009KT 9SM FEW015 BKN030 OVC150 09/04 A3013 RMK AO2=
200603231608 SPECI KATL 231608Z 14009KT 9SM FEW015 BKN030 OVC150 09/04 A3013 RMK AO2=
200603231552 METAR KATL 231552Z 12010KT 9SM FEW015 BKN028 OVC150 09/04 A3014 RMK AO2 SLP210 BINOVC N T00890039=
200603231452 METAR KATL 231452Z 12006KT 8SM BKN015 BKN025 OVC150 08/03 A3016 RMK AO2 SLP218 T00780028 50012=
200603231433 SPECI KATL 231433Z 11009KT 9SM BKN016 OVC023 07/02 A3016 RMK AO2=
200603231433 SPECI KATL 231433Z 11009KT 9SM BKN016 OVC023 07/02 A3016 RMK AO2=
200603231352 METAR KATL 231352Z 10008KT 10SM OVC012 06/01 A3016 RMK AO2 SLP219 T00610011=
200603231317 SPECI KATL 231317Z 08011KT 10SM BKN010 BKN110 OVC200 05/00 A3015 RMK AO2=
200603231317 SPECI KATL 231317Z 08011KT 10SM BKN010 BKN110 OVC200 05/00 A3015 RMK AO2=
200603231252 METAR KATL 231252Z 08011KT 10SM SCT120 BKN200 OVC250 04/M01 A3015 RMK AO2 SLP213 T00441006=
200603231152 METAR KATL 231152Z 07008KT 10SM SCT120 BKN200 OVC250 04/M02 A3013 RMK AO2 SLP206 T00441017 10050 20033 53003=
200603231052 METAR KATL 231052Z 07008KT 10SM SCT150 BKN200 BKN250 04/M03 A3012 RMK AO2 SLP204 T00441028=
200603230952 METAR KATL 230952Z 00000KT 10SM SCT150 BKN200 BKN250 04/M04 A3012 RMK AO2 SLP203 T00441039=
200603230852 METAR KATL 230852Z 00000KT 10SM SCT150 BKN200 BKN250 04/M04 A3012 RMK AO2 SLP202 T00441039 58003=
200603230752 METAR KATL 230752Z VRB03KT 10SM SCT150 BKN200 BKN250 04/M03 A3013 RMK AO2 SLP207 T00391033=
200603230652 METAR KATL 230652Z 33005KT 10SM FEW150 BKN200 BKN250 04/M04 A3013 RMK AO2 SLP207 T00391039=
200603230552 METAR KATL 230552Z 32005KT 10SM BKN200 BKN250 04/M04 A3013 RMK AO2 SLP207 T00441044 10094 20044 56007=
200603230452 METAR KATL 230452Z 32005KT 10SM BKN200 BKN250 04/M04 A3013 RMK AO2 SLP208 T00441044 401220017=
200603230352 METAR KATL 230352Z 32007KT 10SM BKN200 BKN250 06/M05 A3015 RMK AO2 SLP213 T00561050=
200603230252 METAR KATL 230252Z 34011KT 10SM FEW200 BKN250 07/M05 A3015 RMK AO2 SLP215 T00671050 50012=
200603230152 METAR KATL 230152Z 33008KT 10SM FEW200 BKN250 07/M04 A3016 RMK AO2 SLP218 T00671044=
200603230052 METAR KATL 230052Z 30009KT 10SM FEW200 BKN250 08/M03 A3015 RMK AO2 SLP214 T00781028=
200603222352 METAR KATL 222352Z 31009KT 10SM SCT200 BKN250 09/M03 A3011 RMK AO2 SLP202 T00941033 10122 20083 53006=
200603222252 METAR KATL 222252Z 31008KT 10SM SCT200 BKN250 11/M03 A3009 RMK AO2 SLP194 T01061028=
200603222152 METAR KATL 222152Z 32009KT 10SM FEW100 BKN250 12/M03 A3009 RMK AO2 SLP194 T01171028=
200603222052 METAR KATL 222052Z 34007KT 300V360 10SM BKN250 12/M03 A3009 RMK AO2 SLP193 T01171033 55011=
200603221952 METAR KATL 221952Z 35007KT 10SM FEW250 11/M03 A3009 RMK AO2 SLP193 T01061033=
200603221852 METAR KATL 221852Z 32008KT 300V010 10SM FEW250 10/M02 A3012 RMK AO2 SLP201 T01001022=
200603221752 METAR KATL 221752Z 33010KT 10SM FEW250 08/M02 A3013 RMK AO2 SLP205 T00831017 10089 20017 58010=
200603221652 METAR KATL 221652Z 31012G16KT 10SM FEW250 07/M02 A3014 RMK AO2 SLP210 T00721017=
200603221552 METAR KATL 221552Z 32015KT 10SM FEW250 06/M02 A3016 RMK AO2 SLP216 T00611022=
200603221452 METAR KATL 221452Z 30015KT 10SM FEW250 04/M02 A3016 RMK AO2 SLP216 T00441022 51025=
200603221352 METAR KATL 221352Z 34013KT 10SM FEW026 03/M03 A3013 RMK AO2 SLP208 T00331028=
200603221252 METAR KATL 221252Z 33015G22KT 10SM SCT021 02/M03 A3012 RMK AO2 SLP202 T00221028=
200603221152 METAR KATL 221152Z 33010KT 10SM OVC021 02/M02 A3008 RMK AO2 SLP189 T00171022 10083 20017 53027=
200603221052 METAR KATL 221052Z 32014KT 10SM OVC023 03/M01 A3005 RMK AO2 SLP177 T00331011=
200603220952 METAR KATL 220952Z 34011G19KT 10SM OVC027 03/M02 A3002 RMK AO2 PK WND 33026/0914 SLP168 T00331022=
200603220852 METAR KATL 220852Z 34018G25KT 10SM OVC025 04/M01 A3000 RMK AO2 SLP159 T00441006 51010=
200603220752 METAR KATL 220752Z 34013G21KT 10SM OVC025 06/01 A2999 RMK AO2 SLP156 T00610006=
200603220652 METAR KATL 220652Z 33017G22KT 10SM BKN028 OVC033 08/02 A2998 RMK AO2 SLP153 T00780022=
200603220552 METAR KATL 220552Z 31018G25KT 10SM SCT030 BKN036 08/02 A2997 RMK AO2 SLP150 T00830022 10144 20083 51017=
200603220547 SPECI KATL 220547Z 31017G24KT 10SM SCT030 BKN036 08/02 A2996 RMK AO2=
200603220547 SPECI KATL 220547Z 31017G24KT 10SM SCT030 BKN036 08/02 A2996 RMK AO2=
200603220452 METAR KATL 220452Z 28012G23KT 10SM BKN028 OVC036 09/03 A2995 RMK AO2 SLP144 T00940033 402000044=
200603220352 METAR KATL 220352Z 30014KT 10SM FEW028 SCT035 09/03 A2994 RMK AO2 PK WND 30030/0313 SLP142 T00940033=
200603220252 METAR KATL 220252Z 31014KT 10SM FEW030 10/05 A2992 RMK AO2 PK WND 31027/0157 SLP133 T01000050 51037=
200603220152 METAR KATL 220152Z 29020G25KT 10SM CLR 11/04 A2989 RMK AO2 SLP124 T01110044=
200603220052 METAR KATL 220052Z 30020G23KT 10SM FEW045 13/03 A2986 RMK AO2 PK WND 30027/0030 SLP113 T01280033=
200603212352 METAR KATL 212352Z 31018G24KT 10SM SCT045 SCT060 14/08 A2981 RMK AO2 PK WND 32028/2330 SLP094 T01440078 10200 20100 53025=
200603212252 METAR KATL 212252Z 31016G20KT 10SM BKN060 BKN070 18/09 A2976 RMK AO2 SLP076 T01780094=
200603212152 METAR KATL 212152Z 26010KT 10SM FEW055 BKN065 BKN075 19/08 A2973 RMK AO2 SLP065 T01940083=
200603212052 METAR KATL 212052Z 25008KT 10SM BKN055 BKN065 18/09 A2973 RMK AO2 SLP066 T01830089 58010=
200603211952 METAR KATL 211952Z VRB04KT 10SM FEW020 15/09 A2974 RMK AO2 SLP072 T01500094=
200603211852 METAR KATL 211852Z 16004KT 8SM SCT010 12/09 A2976 RMK AO2 SLP079 T01220094=
200603211850 SPECI KATL 211850Z VRB03KT 8SM SCT010 12/09 A2976 RMK AO2=
200603211850 SPECI KATL 211850Z VRB03KT 8SM SCT010 12/09 A2976 RMK AO2=
200603211752 METAR KATL 211752Z 12006KT 7SM BKN010 11/08 A2978 RMK AO2 SLP086 60000 T01060078 10106 20044 58014=
200603211652 METAR KATL 211652Z 09004KT 6SM BR OVC008 08/07 A2981 RMK AO2 SLP097 T00830067=
200603211552 METAR KATL 211552Z 00000KT 6SM BR OVC006 07/05 A2982 RMK AO2 SLP101 T00670050=
200603211452 METAR KATL 211452Z 09003KT 6SM BR OVC006 06/05 A2982 RMK AO2 DZE47 SLP102 P0000 60000 T00610050 50009=
200603211355 SPECI KATL 211355Z 04006KT 2SM -DZ BR OVC006 06/04 A2981 RMK AO2 SFC VIS 4 CIG 003V009 P0000=
200603211355 SPECI KATL 211355Z 04006KT 2SM -DZ BR OVC006 06/04 A2981 RMK AO2 SFC VIS 4 CIG 003V009 P0000=
200603211352 METAR KATL 211352Z 03006KT 1SM -DZ BR OVC006 06/04 A2981 RMK AO2 SFC VIS 3 DZE33B50RAB33E44 CIG 003V008 SLP099 P0000 T00560044=
200603211333 SPECI KATL 211333Z 01005KT 1SM -RA BR OVC006 06/04 A2982 RMK AO2 SFC VIS 1 1/2 DZE33RAB33 CIG 004V008 P0000=
200603211333 SPECI KATL 211333Z 01005KT 1SM -RA BR OVC006 06/04 A2982 RMK AO2 SFC VIS 1 1/2 DZE33RAB33 CIG 004V008 P0000=
200603211319 SPECI KATL 211319Z 34007KT 1SM -DZ BR OVC004 05/04 A2982 RMK AO2 SFC VIS 1 1/2 P0000=
200603211319 SPECI KATL 211319Z 34007KT 1SM -DZ BR OVC004 05/04 A2982 RMK AO2 SFC VIS 1 1/2 P0000=
200603211252 METAR KATL 211252Z 05006KT 2SM -DZ BR OVC004 05/04 A2979 RMK AO2 SFC VIS 2 1/2 DZB49 SLP092 P0000 T00500039=
200603211249 SPECI KATL 211249Z 04008KT 2SM -DZ BR OVC004 05/04 A2979 RMK AO2 SFC VIS 2 1/2 DZB49 P0000=
200603211249 SPECI KATL 211249Z 04008KT 2SM -DZ BR OVC004 05/04 A2979 RMK AO2 SFC VIS 2 1/2 DZB49 P0000=
200603211152 METAR KATL 211152Z 08007KT 9SM OVC004 04/04 A2976 RMK AO2 RAB06E17 SLP080 P0000 60047 70160 T00440039 10061 20044 50002=
200603211052 METAR KATL 211052Z 07011KT 10SM OVC004 04/04 A2976 RMK AO2 RAE15 SLP080 P0001 T00440039=
200603210952 METAR KATL 210952Z 09011KT 6SM -RA BR OVC004 05/04 A2976 RMK AO2 RAB44 SLP079 P0000 T00500044=
200603210852 METAR KATL 210852Z 08010KT 10SM OVC004 06/05 A2975 RMK AO2 TSB15E33RAE35 CIG 003V009 SLP076 TS MOV NE P0013 60046 T00560050 58009=
200603210835 SPECI KATL 210835Z 07011KT 9SM OVC004 06/05 A2974 RMK AO2 TSB15E33RAE35 TS MOV NE P0013=
200603210835 SPECI KATL 210835Z 07011KT 9SM OVC004 06/05 A2974 RMK AO2 TSB15E33RAE35 TS MOV NE P0013=
200603210824 SPECI KATL 210824Z 07011KT 3SM -TSRA BR OVC004CB 06/06 A2975 RMK AO2 TSB15 FRQ LTGICCGCA TS NE-E MOV NE P0013=
200603210824 SPECI KATL 210824Z 07011KT 3SM -TSRA BR OVC004CB 06/06 A2975 RMK AO2 TSB15 FRQ LTGICCGCA TS NE-E MOV NE P0013=
200603210818 SPECI KATL 210818Z 07012KT 1 1/2SM +TSRA BR OVC004CB 06/05 A2975 RMK AO2 TSB15 OCNL LTGICCA TS NE AND SW MOV NE P0009=
200603210818 SPECI KATL 210818Z 07012KT 1 1/2SM +TSRA BR OVC004CB 06/05 A2975 RMK AO2 TSB15 OCNL LTGICCA TS NE AND SW MOV NE P0009=
200603210816 SPECI KATL 210816Z 07012KT 4SM -TSRA BR OVC004CB 06/05 A2977 RMK AO2 TSB15 OCNL LTGICCA TS NE AND SW MOV NE P0003=
200603210816 SPECI KATL 210816Z 07012KT 4SM -TSRA BR OVC004CB 06/05 A2977 RMK AO2 TSB15 OCNL LTGICCA TS NE AND SW MOV NE P0003=
200603210752 METAR KATL 210752Z 08009KT 7SM -RA OVC004 06/05 A2976 RMK AO2 TSE16B23E42 CIG 002V007 SLP079 TS MOV NE P0015 T00560050=
200603210743 SPECI KATL 210743Z 08010KT 8SM -RA OVC004 06/06 A2976 RMK AO2 TSE16B23E42 TS MOV NE P0015=
200603210743 SPECI KATL 210743Z 08010KT 8SM -RA OVC004 06/06 A2976 RMK AO2 TSE16B23E42 TS MOV NE P0015=
200603210724 SPECI KATL 210724Z 12008KT 6SM TSRA BR OVC004CB 06/05 A2979 RMK AO2 TSE16B23 PRESRR OCNL LTGICCGCA TS SW MOV NE P0014=
200603210724 SPECI KATL 210724Z 12008KT 6SM TSRA BR OVC004CB 06/05 A2979 RMK AO2 TSE16B23 PRESRR OCNL LTGICCGCA TS SW MOV NE P0014=
200603210717 SPECI KATL 210717Z 03009KT 8SM -RA OVC004CB 06/06 A2978 RMK AO2 TSE16 PRESRR TS MOV NE P0012=
200603210717 SPECI KATL 210717Z 03009KT 8SM -RA OVC004CB 06/06 A2978 RMK AO2 TSE16 PRESRR TS MOV NE P0012=
200603210709 SPECI KATL 210709Z 06010KT 5SM -TSRA BR OVC004CB 06/05 A2976 RMK AO2 OCNL LTGICCA TS VC NE MOV NE P0012=
200603210709 SPECI KATL 210709Z 06010KT 5SM -TSRA BR OVC004CB 06/05 A2976 RMK AO2 OCNL LTGICCA TS VC NE MOV NE P0012=
200603210659 SPECI KATL 210659Z 10010KT 2 1/2SM R09R/5500VP6000FT +TSRA BR OVC004 06/05 A2975 RMK AO2 P0009=
200603210659 SPECI KATL 210659Z 10010KT 2 1/2SM R09R/5500VP6000FT +TSRA BR OVC004 06/05 A2975 RMK AO2 P0009=
200603210652 METAR KATL 210652Z 13006KT 4SM -TSRA BR OVC004CB 06/06 A2978 RMK AO2 TSB33 SLP085 OCNL LTGICCA TS NE AND VC SW MOV NE P0018 T00560056=
200603210644 SPECI KATL 210644Z 09009KT 1 3/4SM +TSRA BR OVC004CB 06/05 A2976 RMK AO2 TSB33 OCNL LTGICCA TS SW-W MOV NE P0013=
200603210644 SPECI KATL 210644Z 09009KT 1 3/4SM +TSRA BR OVC004CB 06/05 A2976 RMK AO2 TSB33 OCNL LTGICCA TS SW-W MOV NE P0013=
200603210634 SPECI KATL 210634Z 06010KT 5SM TSRA BR OVC004CB 06/06 A2976 RMK AO2 TSB33 OCNL LTGICCA TS N AND VC SW MOV NE P0010=
200603210634 SPECI KATL 210634Z 06010KT 5SM TSRA BR OVC004CB 06/06 A2976 RMK AO2 TSB33 OCNL LTGICCA TS N AND VC SW MOV NE P0010=
200603210616 SPECI KATL 210616Z 11007KT 4SM -RA BR OVC004 06/06 A2977 RMK AO2 P0007=
200603210616 SPECI KATL 210616Z 11007KT 4SM -RA BR OVC004 06/06 A2977 RMK AO2 P0007=
200603210611 SPECI KATL 210611Z 10011KT 2 1/2SM -RA BR OVC004 06/06 A2976 RMK AO2 P0007=
200603210611 SPECI KATL 210611Z 10011KT 2 1/2SM -RA BR OVC004 06/06 A2976 RMK AO2 P0007=
200603210607 SPECI KATL 210607Z 11010KT 1 3/4SM +RA BR OVC004 06/06 A2976 RMK AO2 P0005=
200603210607 SPECI KATL 210607Z 11010KT 1 3/4SM +RA BR OVC004 06/06 A2976 RMK AO2 P0005=
200603210552 METAR KATL 210552Z 11007KT 8SM -RA OVC004 06/05 A2978 RMK AO2 SLP086 P0010 60113 T00560050 10083 20039 56047=
200603210452 METAR KATL 210452Z 09013G19KT 4SM -RA BR OVC003 05/04 A2980 RMK AO2 SLP093 P0008 T00500044 401280039=
200603210434 SPECI KATL 210434Z 11016G19KT 5SM -RA BR OVC004 05/04 A2979 RMK AO2 PRESFR P0005=
200603210434 SPECI KATL 210434Z 11016G19KT 5SM -RA BR OVC004 05/04 A2979 RMK AO2 PRESFR P0005=
200603210352 METAR KATL 210352Z 11016G20KT 3SM RA BR BKN005 OVC015 05/04 A2987 RMK AO2 TSE18 SLP117 TS DSIPTD P0027 T00500044=
200603210318 SPECI KATL 210318Z 09013KT 3SM +RA BR BKN006 BKN016 OVC040 05/04 A2992 RMK AO2 TSE18 TS DSIPTD P0014=
200603210318 SPECI KATL 210318Z 09013KT 3SM +RA BR BKN006 BKN016 OVC040 05/04 A2992 RMK AO2 TSE18 TS DSIPTD P0014=
200603210304 SPECI KATL 210304Z 11010KT 3SM TSRA BR FEW007 BKN020CB OVC040 04/04 A2993 RMK AO2 OCNL LTGIC TS W-NW MOV SE P0005=
200603210304 SPECI KATL 210304Z 11010KT 3SM TSRA BR FEW007 BKN020CB OVC040 04/04 A2993 RMK AO2 OCNL LTGIC TS W-NW MOV SE P0005=
200603210252 METAR KATL 210252Z 11018KT 2 1/2SM +TSRA BR BKN018 BKN025CB OVC040 04/04 A2992 RMK AO2 PK WND 05027/0155 WSHFT 0146 TSB0155E17B26 PRESFR SLP137 OCNL LTGIC TS NW-N MOV SE P0049 60068 T00440039 50021=
200603210227 SPECI KATL 210227Z 09013KT 3SM +TSRA BR BKN016 BKN025CB OVC040 04/03 A2998 RMK AO2 PK WND 05027/0155 WSHFT 0146 TSB0155E17B26 OCNL LTGIC TS SE-S MOV SE P0033=
200603210227 SPECI KATL 210227Z 09013KT 3SM +TSRA BR BKN016 BKN025CB OVC040 04/03 A2998 RMK AO2 PK WND 05027/0155 WSHFT 0146 TSB0155E17B26 OCNL LTGIC TS SE-S MOV SE P0033=
200603210217 SPECI KATL 210217Z 09015KT 3SM +RA BR SCT015 BKN022 OVC040 04/03 A2999 RMK AO2 PK WND 05027/0155 WSHFT 0146 TSB0155E17 TS DSIPTD P0025=
200603210217 SPECI KATL 210217Z 09015KT 3SM +RA BR SCT015 BKN022 OVC040 04/03 A2999 RMK AO2 PK WND 05027/0155 WSHFT 0146 TSB0155E17 TS DSIPTD P0025=
200603210206 SPECI KATL 210206Z 07017G26KT 2 1/2SM +TSRA BR SCT015 BKN025CB OVC040 05/03 A2999 RMK AO2 PK WND 05027/0155 WSHFT 0146 TSB0155 OCNL LTGIC TS W-N MOV SE P0013=
200603210206 SPECI KATL 210206Z 07017G26KT 2 1/2SM +TSRA BR SCT015 BKN025CB OVC040 05/03 A2999 RMK AO2 PK WND 05027/0155 WSHFT 0146 TSB0155 OCNL LTGIC TS W-N MOV SE P0013=
200603210156 SPECI KATL 210156Z 08019G27KT 2 1/2SM +TSRA BR FEW015 SCT025CB OVC040 04/03 A2998 RMK AO2 PK WND 05027/0155 TSB55 OCNL LTGIC TS=
200603210156 SPECI KATL 210156Z 08019G27KT 2 1/2SM +TSRA BR FEW015 SCT025CB OVC040 04/03 A2998 RMK AO2 PK WND 05027/0155 TSB55 OCNL LTGIC TS=
200603210152 METAR KATL 210152Z 02016G22KT 3SM +RA BR FEW012 SCT025 OVC040 04/03 A3002 RMK AO2 PK WND 01027/0132 RAB05 SLP171 P0019 T00440033=
200603210124 SPECI KATL 210124Z 35017G24KT 3SM +RA BR BKN020 OVC038 04/02 A3000 RMK AO2 PK WND 01026/0104 RAB05 P0007=
200603210124 SPECI KATL 210124Z 35017G24KT 3SM +RA BR BKN020 OVC038 04/02 A3000 RMK AO2 PK WND 01026/0104 RAB05 P0007=
200603210120 SPECI KATL 210120Z 36019G25KT 2 1/2SM +RA BR BKN020 OVC038 04/02 A2998 RMK AO2 PK WND 01026/0104 RAB05 P0004=
200603210120 SPECI KATL 210120Z 36019G25KT 2 1/2SM +RA BR BKN020 OVC038 04/02 A2998 RMK AO2 PK WND 01026/0104 RAB05 P0004=
200603210102 SPECI KATL 210102Z 36018KT 10SM BKN032 OVC040 07/M01 A2994 RMK AO2 PRESRR=
200603210102 SPECI KATL 210102Z 36018KT 10SM BKN032 OVC040 07/M01 A2994 RMK AO2 PRESRR=
200603210052 METAR KATL 210052Z 04018G24KT 10SM OVC028 07/M01 A2989 RMK AO2 PK WND 06027/0000 RAE31 SLP125 P0000 T00721011=
200603210044 SPECI KATL 210044Z 04017G24KT 10SM BKN028 OVC055 07/M01 A2988 RMK AO2 PK WND 06027/0000 RAE31 P0000=
200603210044 SPECI KATL 210044Z 04017G24KT 10SM BKN028 OVC055 07/M01 A2988 RMK AO2 PK WND 06027/0000 RAE31 P0000=
200603202352 METAR KATL 202352Z 06019KT 10SM -RA BKN030 BKN055 OVC090 08/00 A2986 RMK AO2 RAB49 SLP113 LTG DSNT NW CB DSNT NW P0000 60000 T00830000 10128 20083 55000=
200603202347 SPECI KATL 202347Z 07020KT 10SM BKN030 OVC055 09/00 A2986 RMK AO2=
200603202347 SPECI KATL 202347Z 07020KT 10SM BKN030 OVC055 09/00 A2986 RMK AO2=
200603202252 METAR KATL 202252Z 07017KT 10SM OVC028 10/03 A2985 RMK AO2 RAB08E24 SLP109 P0000 T01000028=
200603202159 SPECI KATL 202159Z 08014KT 10SM BKN028 BKN080 OVC150 12/05 A2988 RMK AO2=
200603202159 SPECI KATL 202159Z 08014KT 10SM BKN028 BKN080 OVC150 12/05 A2988 RMK AO2=
200603202152 METAR KATL 202152Z 09013G19KT 10SM BKN030 BKN080 OVC150 12/05 A2986 RMK AO2 RAB18E29 SLP112 VIRGA OHD-SW-NW P0000 T01170050=
200603202052 METAR KATL 202052Z 10011KT 10SM FEW024 SCT050 SCT080 OVC150 12/05 A2988 RMK AO2 SLP118 T01220050 56029=
200603201952 METAR KATL 201952Z 09013KT 10SM FEW024 SCT050 SCT100 OVC150 12/06 A2990 RMK AO2 SLP126 BINOVC DSNT NW T01220056=
200603201921 SPECI KATL 201921Z 11009G16KT 10SM FEW024 BKN050 OVC150 12/05 A2992 RMK AO2=
200603201921 SPECI KATL 201921Z 11009G16KT 10SM FEW024 BKN050 OVC150 12/05 A2992 RMK AO2=
200603201852 METAR KATL 201852Z 09015KT 10SM OVC024 12/06 A2992 RMK AO2 SLP134 BINOVC T01170056=
200603201752 METAR KATL 201752Z 10014KT 10SM OVC028 11/06 A2997 RMK AO2 SLP149 T01110056 10111 20078 58017=
200603201722 SPECI KATL 201722Z 11013KT 10SM OVC028 11/06 A2998 RMK AO2=
200603201722 SPECI KATL 201722Z 11013KT 10SM OVC028 11/06 A2998 RMK AO2=
200603201652 METAR KATL 201652Z 11010KT 10SM OVC030 10/06 A3000 RMK AO2 SLP163 T01000056=
200603201552 METAR KATL 201552Z 09012KT 8SM BKN030 BKN040 OVC050 10/06 A3001 RMK AO2 SLP164 T01000061=
200603201452 METAR KATL 201452Z 09010KT 8SM OVC050 09/06 A3002 RMK AO2 SLP167 T00890056 57001=
200603201352 METAR KATL 201352Z 09008KT 8SM OVC046 08/06 A3001 RMK AO2 SLP166 T00830056=
200603201252 METAR KATL 201252Z 11009KT 7SM FEW018 OVC048 08/05 A3003 RMK AO2 SLP171 T00780050 $=
200603201159 SPECI KATL 201159Z 11006KT 8SM OVC046 08/06 A3002 RMK AO2 $=
200603201159 SPECI KATL 201159Z 11006KT 8SM OVC046 08/06 A3002 RMK AO2 $=
200603201152 METAR KATL 201152Z 12009KT 8SM BKN024 OVC048 08/06 A3002 RMK AO2 RAB02E15 SLP169 P0000 60000 70006 T00780056 10083 20072 55006 $=
200603201052 METAR KATL 201052Z 07007KT 7SM BKN026 OVC038 08/06 A3001 RMK AO2 RAB19E41 SLP166 P0000 T00780056 $=
200603201012 SPECI KATL 201012Z 08011KT 7SM OVC029 08/06 A3001 RMK AO2 $=
200603201012 SPECI KATL 201012Z 08011KT 7SM OVC029 08/06 A3001 RMK AO2 $=
200603200952 METAR KATL 200952Z 09005KT 7SM OVC033 08/06 A3002 RMK AO2 SLP167 T00780056 $=
200603200852 METAR KATL 200852Z 05004KT 7SM OVC040 08/06 A3004 RMK AO2 SLP174 T00780056 58010 $=
200603200752 METAR KATL 200752Z 08004KT 8SM BKN042 OVC070 08/06 A3004 RMK AO2 SLP175 T00780056 $=
200603200652 METAR KATL 200652Z 03004KT 10SM SCT046 OVC070 08/05 A3007 RMK AO2 SLP183 T00830050 $=
200603200552 METAR KATL 200552Z 00000KT 8SM BKN075 BKN140 OVC200 08/06 A3007 RMK AO2 SLP183 60000 T00780056 10078 20072 58021 $=
200603200452 METAR KATL 200452Z 00000KT 9SM BKN034 BKN080 08/06 A3009 RMK AO2 SLP190 T00780056 401170067 $=
200603200352 METAR KATL 200352Z 30003KT 8SM OVC040 07/06 A3012 RMK AO2 SLP201 T00720056 $=
200603200252 METAR KATL 200252Z 23004KT 8SM FEW065 BKN080 07/05 A3013 RMK AO2 SLP206 60000 T00720050 53002 $=
200603200152 METAR KATL 200152Z 17004KT 6SM BR FEW006 OVC055 07/05 A3011 RMK AO2 RAE06 SLP199 P0000 T00720050 $=
200603200052 METAR KATL 200052Z 21003KT 6SM -RA BR FEW006 SCT036 OVC065 08/06 A3012 RMK AO2 RAB30 SLP203 P0000 T00780056 $=
200603200035 SPECI KATL 200035Z 20003KT 7SM -RA FEW006 SCT036 OVC085 08/06 A3011 RMK AO2 RAB30 P0000 $=
200603200035 SPECI KATL 200035Z 20003KT 7SM -RA FEW006 SCT036 OVC085 08/06 A3011 RMK AO2 RAB30 P0000 $=
200603192352 METAR KATL 192352Z 21005KT 7SM BKN036 OVC110 08/06 A3012 RMK AO2 SLP205 60005 T00780061 10117 20078 53004 $=
200603192252 METAR KATL 192252Z 21005KT 6SM BR FEW007 SCT031 OVC110 08/07 A3009 RMK AO2 RAE52 SLP192 P0000 T00830067 $=
200603192242 SPECI KATL 192242Z 18006KT 6SM -RA BR FEW007 BKN027 OVC100 08/07 A3008 RMK AO2 P0000 $=
200603192242 SPECI KATL 192242Z 18006KT 6SM -RA BR FEW007 BKN027 OVC100 08/07 A3008 RMK AO2 P0000 $=
200603192219 SPECI KATL 192219Z 19006KT 7SM -RA FEW027 SCT060 OVC100 08/06 A3008 RMK AO2 P0000 $=
200603192219 SPECI KATL 192219Z 19006KT 7SM -RA FEW027 SCT060 OVC100 08/06 A3008 RMK AO2 P0000 $=
200603192152 METAR KATL 192152Z 20005KT 8SM -RA FEW012 OVC027 08/06 A3009 RMK AO2 SLP191 P0004 T00830056 $=
200603192129 SPECI KATL 192129Z 21006KT 6SM -RA BR FEW012 BKN029 OVC050 08/06 A3010 RMK AO2 P0003 $=
200603192129 SPECI KATL 192129Z 21006KT 6SM -RA BR FEW012 BKN029 OVC050 08/06 A3010 RMK AO2 P0003 $=
200603192121 SPECI KATL 192121Z 20006KT 8SM -RA FEW012 BKN033 OVC050 08/06 A3010 RMK AO2 P0002 $=
200603192121 SPECI KATL 192121Z 20006KT 8SM -RA FEW012 BKN033 OVC050 08/06 A3010 RMK AO2 P0002 $=
200603192059 SPECI KATL 192059Z 20006KT 8SM -RA BKN028 BKN043 OVC050 09/06 A3011 RMK AO2 P0001 $=
200603192059 SPECI KATL 192059Z 20006KT 8SM -RA BKN028 BKN043 OVC050 09/06 A3011 RMK AO2 P0001 $=
200603192052 METAR KATL 192052Z 20007KT 8SM -RA BKN030 BKN043 BKN075 OVC130 09/05 A3011 RMK AO2 SLP200 P0000 60001 T00940050 55006 $=
200603192016 SPECI KATL 192016Z 19006KT 8SM -RA FEW030 SCT050 BKN080 OVC130 10/04 A3010 RMK AO2 P0000 $=
200603192016 SPECI KATL 192016Z 19006KT 8SM -RA FEW030 SCT050 BKN080 OVC130 10/04 A3010 RMK AO2 P0000 $=
200603191952 METAR KATL 191952Z 18005KT 8SM -RA BKN020 BKN080 OVC130 11/03 A3010 RMK AO2 SLP193 BINOVC NE P0001 T01060028 $=
200603191852 METAR KATL 191852Z COR 13003KT 9SM -RA BKN070 OVC130 12/00 A3011 RMK AO2 RAB41 SHRA VC SE-NW SLP199 P0000 T01170000 $=
200603191752 METAR KATL 191752Z 12004KT 9SM BKN085 OVC130 12/M01 A3013 RMK AO2 SLP205 60001 T01171006 10117 20072 58017 $=
200603191652 METAR KATL 191652Z 12008KT 9SM FEW027 SCT050 BKN080 BKN130 11/M01 A3014 RMK AO2 RAB1556E39 SLP208 P0000 T01111006 $=
200603191552 METAR KATL 191552Z 11007KT 9SM SCT027 BKN050 OVC085 09/M01 A3019 RMK AO2 RAE49 SLP225 P0000 T00941006 $=
200603191527 SPECI KATL 191527Z 09007KT 9SM -RA SCT027 OVC050 09/M01 A3018 RMK AO2 P0000 $=
200603191527 SPECI KATL 191527Z 09007KT 9SM -RA SCT027 OVC050 09/M01 A3018 RMK AO2 P0000 $=
200603191503 SPECI KATL 191503Z 08005KT 9SM -RA BKN029 BKN050 09/01 A3018 RMK AO2 P0000 $=
200603191503 SPECI KATL 191503Z 08005KT 9SM -RA BKN029 BKN050 09/01 A3018 RMK AO2 P0000 $=
200603191452 METAR KATL 191452Z 08004KT 9SM -RA SCT032 OVC070 09/M01 A3018 RMK AO2 RAB00 SLP222 P0001 60001 T00891006 51019 $=
200603191352 METAR KATL 191352Z 07006KT 9SM OVC075 09/M03 A3017 RMK AO2 SLP218 T00941033 $=
200603191252 METAR KATL 191252Z 33005KT 9SM OVC080 08/M04 A3015 RMK AO2 RAE12 SLP212 P0000 T00781044 $=
200603191152 METAR KATL 191152Z 29003KT 10SM -RA OVC080 07/M03 A3013 RMK AO2 RAB42 SLP203 P0000 60000 T00721033 10083 20067 53016 $=
200603191052 METAR KATL 191052Z 33006KT 10SM BKN090 08/M05 A3009 RMK AO2 SLP190 T00781050 $=
200603190952 METAR KATL 190952Z 34008KT 10SM SCT120 08/M06 A3008 RMK AO2 SLP186 T00781056 $=
200603190852 METAR KATL 190852Z 33007KT 10SM BKN250 08/M05 A3008 RMK AO2 SLP186 T00781050 58011 $=
200603190752 METAR KATL 190752Z 33009KT 10SM BKN250 08/M06 A3009 RMK AO2 SLP191 T00781056 $=
200603190652 METAR KATL 190652Z 31008KT 10SM BKN250 07/M05 A3010 RMK AO2 SLP194 T00721050 $=
200603190552 METAR KATL 190552Z 31006KT 10SM FEW250 07/M05 A3011 RMK AO2 SLP198 T00671050 10122 20067 53003 $=
200603190452 METAR KATL 190452Z 29004KT 10SM CLR 08/M05 A3009 RMK AO2 SLP192 T00781050 401500039 $=
200603190352 METAR KATL 190352Z 30007KT 10SM CLR 08/M05 A3010 RMK AO2 SLP196 T00781050 $=
200603190252 METAR KATL 190252Z 29004KT 10SM FEW250 10/M06 A3010 RMK AO2 SLP195 T01001061 54000 $=
200603190152 METAR KATL 190152Z 33006KT 10SM FEW120 SCT250 11/M06 A3010 RMK AO2 SLP196 T01061056 $=
200603190052 METAR KATL 190052Z 30006KT 10SM FEW120 SCT250 11/M04 A3010 RMK AO2 SLP196 T01111039 $=
200603182352 METAR KATL 182352Z 31007KT 10SM FEW120 BKN250 12/M04 A3010 RMK AO2 SLP196 T01221039 10150 20122 55002 $=
200603182252 METAR KATL 182252Z 29007KT 10SM FEW120 BKN250 14/M04 A3009 RMK AO2 SLP193 T01391039 $=
200603182152 METAR KATL 182152Z 31006KT 10SM FEW150 SCT200 15/M01 A3010 RMK AO2 SLP195 T01501011 $=
200603182052 METAR KATL 182052Z VRB04KT 10SM SCT130 BKN200 14/M01 A3011 RMK AO2 SLP198 T01441011 55020 $=
200603181952 METAR KATL 181952Z 00000KT 10SM FEW130 SCT150 BKN200 13/00 A3011 RMK AO2 SLP197 T01330000 $=
200603181852 METAR KATL 181852Z 01007KT 10SM SCT130 BKN250 13/00 A3013 RMK AO2 SLP205 T01280000 $=
200603181752 METAR KATL 181752Z 31005KT 10SM FEW100 SCT120 BKN250 12/01 A3017 RMK AO2 SLP219 T01220006 10122 20039 57018 $=
200603181652 METAR KATL 181652Z 27006KT 10SM SCT100 BKN250 11/01 A3020 RMK AO2 SLP228 T01110011=
200603181552 METAR KATL 181552Z 02006KT 10SM SCT100 BKN250 10/01 A3020 RMK AO2 SLP229 T01000011=
200603181452 METAR KATL 181452Z 32008KT 10SM SCT250 08/01 A3023 RMK AO2 SLP238 T00830011 51020=
200603181352 METAR KATL 181352Z 32008KT 10SM BKN250 07/01 A3021 RMK AO2 SLP233 T00720006=
200603181252 METAR KATL 181252Z 32008KT 9SM SCT250 06/01 A3020 RMK AO2 SLP227 T00560011=
200603181152 METAR KATL 181152Z 33007KT 7SM SCT250 04/01 A3017 RMK AO2 SLP216 T00390006 10067 20039 53014=
200603181052 METAR KATL 181052Z 31008KT 8SM CLR 04/01 A3014 RMK AO2 SLP209 T00390006=
200603180952 METAR KATL 180952Z 32007KT 9SM CLR 04/01 A3013 RMK AO2 SLP203 T00440006=
200603180852 METAR KATL 180852Z 32009KT 9SM CLR 05/01 A3012 RMK AO2 SLP201 T00500011 53002=
200603180752 METAR KATL 180752Z 34010KT 10SM CLR 06/01 A3011 RMK AO2 SLP196 T00560011=
200603180652 METAR KATL 180652Z 35008KT 10SM FEW250 07/01 A3012 RMK AO2 SLP198 T00670011=
200603180552 METAR KATL 180552Z COR 32008KT 10SM FEW250 07/01 A3012 RMK AO2 SLP199 T00670011 10167 20067 51002=
200603180452 METAR KATL 180452Z 34010KT 10SM FEW250 08/01 A3012 RMK AO2 SLP198 T00780011 402060072=
200603180352 METAR KATL 180352Z 33013KT 10SM FEW250 08/02 A3013 RMK AO2 SLP204 T00830017=
200603180252 METAR KATL 180252Z 33013KT 10SM CLR 10/02 A3011 RMK AO2 SLP197 T01000017 51019=
200603180152 METAR KATL 180152Z 31013KT 10SM CLR 11/02 A3010 RMK AO2 SLP194 T01110017=
200603180052 METAR KATL 180052Z 34014G22KT 10SM CLR 13/02 A3008 RMK AO2 SLP186 T01330022=
200603172352 METAR KATL 172352Z 33012KT 10SM CLR 17/01 A3006 RMK AO2 SLP176 T01670011 10206 20167 53008=
200603172252 METAR KATL 172252Z 32013KT 10SM CLR 18/01 A3005 RMK AO2 SLP173 T01830011=
200603172152 METAR KATL 172152Z 32014G22KT 10SM FEW250 19/01 A3004 RMK AO2 SLP168 T01940011=
200603172052 METAR KATL 172052Z 29008KT 10SM FEW250 20/02 A3003 RMK AO2 SLP167 T02000022 56012=
200603171952 METAR KATL 171952Z 32016G19KT 10SM FEW250 20/02 A3003 RMK AO2 SLP167 T02000022=
200603171852 METAR KATL 171852Z 30018KT 10SM FEW250 SCT300 20/03 A3004 RMK AO2 SLP169 T02000028=
200603171752 METAR KATL 171752Z 31011G18KT 10SM FEW055 SCT250 SCT300 19/05 A3007 RMK AO2 SLP178 T01890050 10194 20128 58006=
200603171652 METAR KATL 171652Z 30014KT 10SM FEW050 SCT250 18/06 A3009 RMK AO2 SLP185 T01780061=
200603171552 METAR KATL 171552Z 33015KT 10SM FEW036 SCT250 17/07 A3010 RMK AO2 SLP189 T01670072=
200603171452 METAR KATL 171452Z 29013KT 10SM SCT030 SCT250 16/08 A3009 RMK AO2 SLP186 T01560083 51011=
200603171352 METAR KATL 171352Z 29010KT 10SM FEW024 14/09 A3009 RMK AO2 SLP186 T01440094=
200603171252 METAR KATL 171252Z 28012KT 8SM FEW012 13/11 A3007 RMK AO2 SLP182 T01330106=
200603171203 SPECI KATL 171203Z 30009KT 7SM SCT016 BKN033 13/11 A3006 RMK AO2=
200603171203 SPECI KATL 171203Z 30009KT 7SM SCT016 BKN033 13/11 A3006 RMK AO2=
200603171152 METAR KATL 171152Z 30011KT 8SM BKN016 BKN035 13/11 A3005 RMK AO2 SLP174 T01280106 10133 20117 51012=
200603171126 SPECI KATL 171126Z 29010KT 9SM BKN015 OVC020 13/11 A3005 RMK AO2=
200603171126 SPECI KATL 171126Z 29010KT 9SM BKN015 OVC020 13/11 A3005 RMK AO2=
200603171052 METAR KATL 171052Z 28008KT 8SM BKN012 OVC034 12/10 A3004 RMK AO2 SLP170 T01220100=
200603170952 METAR KATL 170952Z 27008KT 10SM OVC012 12/09 A3003 RMK AO2 SLP167 T01220094=
200603170917 SPECI KATL 170917Z 27008KT 10SM BKN014 12/09 A3002 RMK AO2=
200603170917 SPECI KATL 170917Z 27008KT 10SM BKN014 12/09 A3002 RMK AO2=
200603170905 SPECI KATL 170905Z 27008KT 10SM SCT015 12/09 A3001 RMK AO2=
200603170905 SPECI KATL 170905Z 27008KT 10SM SCT015 12/09 A3001 RMK AO2=
200603170852 METAR KATL 170852Z 24008KT 10SM BKN015 12/09 A3002 RMK AO2 SLP162 T01220089 56012=
200603170845 SPECI KATL 170845Z 25008KT 10SM BKN017 12/09 A3002 RMK AO2=
200603170845 SPECI KATL 170845Z 25008KT 10SM BKN017 12/09 A3002 RMK AO2=
200603170752 METAR KATL 170752Z 25009KT 10SM SCT020 12/07 A3003 RMK AO2 SLP167 T01220072=
200603170749 SPECI KATL 170749Z 25008KT 10SM SCT020 12/07 A3003 RMK AO2=
200603170749 SPECI KATL 170749Z 25008KT 10SM SCT020 12/07 A3003 RMK AO2=
200603170652 METAR KATL 170652Z 26009KT 10SM OVC026 13/05 A3005 RMK AO2 SLP173 T01330050=
200603170627 SPECI KATL 170627Z 26009KT 10SM BKN026 OVC065 13/04 A3006 RMK AO2=
200603170627 SPECI KATL 170627Z 26009KT 10SM BKN026 OVC065 13/04 A3006 RMK AO2=
200603170552 METAR KATL 170552Z 25008KT 10SM SCT038 OVC065 13/03 A3006 RMK AO2 RAE00 SLP176 P0000 60000 T01330028 10156 20133 58003=
200603170500 SPECI KATL 170500Z 25014G20KT 10SM SCT028 BKN045 OVC070 14/01 A3007 RMK AO2 RAE00 P0000=
200603170500 SPECI KATL 170500Z 25014G20KT 10SM SCT028 BKN045 OVC070 14/01 A3007 RMK AO2 RAE00 P0000=
200603170452 METAR KATL 170452Z 23012G18KT 10SM -RA OVC028 14/00 A3007 RMK AO2 RAB51 SLP180 PCPN VRY LGT P0000 T01390000 401830050=
200603170426 SPECI KATL 170426Z 23008KT 10SM BKN028 OVC040 14/M01 A3007 RMK AO2=
200603170426 SPECI KATL 170426Z 23008KT 10SM BKN028 OVC040 14/M01 A3007 RMK AO2=
200603170352 METAR KATL 170352Z 22009KT 10SM OVC033 14/M01 A3007 RMK AO2 SLP181 T01391011=
200603170252 METAR KATL 170252Z 22006KT 10SM FEW042 OVC065 14/M01 A3007 RMK AO2 SLP180 BINOVC T01391006 58000=
200603170152 METAR KATL 170152Z 23005KT 10SM FEW050 BKN065 BKN250 14/01 A3007 RMK AO2 SLP184 T01390011=
200603170052 METAR KATL 170052Z 21006KT 10SM FEW200 SCT250 14/00 A3008 RMK AO2 SLP186 T01440000=
200603162352 METAR KATL 162352Z 21009KT 10SM FEW200 SCT250 16/M01 A3007 RMK AO2 SLP183 T01561006 10183 20156 55006=
200603162252 METAR KATL 162252Z 20010KT 10SM FEW250 17/M03 A3006 RMK AO2 SLP181 T01671028=
200603162152 METAR KATL 162152Z 22011G17KT 10SM FEW085 SCT250 17/M02 A3006 RMK AO2 SLP180 ACSL DSNT ALQDS T01721022=
200603162052 METAR KATL 162052Z 21009KT 10SM FEW085 SCT130 SCT250 18/M03 A3009 RMK AO2 SLP188 T01781033 56027=
200603161952 METAR KATL 161952Z 22009KT 10SM FEW080 SCT090 SCT130 SCT250 17/M04 A3011 RMK AO2 SLP195 T01721044=
200603161852 METAR KATL 161852Z 23008KT 190V260 10SM FEW090 SCT130 BKN180 BKN250 18/M03 A3013 RMK AO2 SLP202 T01831033=
200603161752 METAR KATL 161752Z 21007KT 10SM SCT090 BKN130 BKN180 BKN250 17/M04 A3017 RMK AO2 SLP214 T01671044 10172 20061 58018=
200603161652 METAR KATL 161652Z 24010KT 10SM BKN100 BKN180 BKN250 16/M04 A3020 RMK AO2 SLP225 T01611044=
200603161552 METAR KATL 161552Z 25008KT 10SM BKN095 BKN180 BKN250 15/M02 A3022 RMK AO2 SLP233 T01501022=
200603161452 METAR KATL 161452Z 32005KT 10SM BKN100 BKN180 BKN250 14/M02 A3022 RMK AO2 SLP234 T01391017 51012=
200603161352 METAR KATL 161352Z 00000KT 10SM BKN100 BKN180 OVC250 11/01 A3022 RMK AO2 SLP235 T01060006=
200603161252 METAR KATL 161252Z 30006KT 10SM SCT120 BKN250 08/00 A3021 RMK AO2 SLP232 T00780000=
200603161152 METAR KATL 161152Z 30004KT 10SM BKN120 BKN250 06/M02 A3019 RMK AO2 SLP224 T00611017 10094 20050 51013=
200603161052 METAR KATL 161052Z 30003KT 10SM SCT110 06/M02 A3018 RMK AO2 SLP220 T00611022=
200603160952 METAR KATL 160952Z 00000KT 10SM SCT140 BKN250 07/M02 A3016 RMK AO2 SLP213 T00721022=
200603160852 METAR KATL 160852Z 00000KT 10SM SCT140 SCT250 07/M01 A3015 RMK AO2 SLP210 T00671011 58013=
200603160752 METAR KATL 160752Z 00000KT 10SM FEW150 SCT250 08/M03 A3017 RMK AO2 SLP218 T00781028=
200603160652 METAR KATL 160652Z 28003KT 10SM SCT250 09/M03 A3019 RMK AO2 SLP224 T00891033=
200603160552 METAR KATL 160552Z 30005KT 10SM FEW250 09/M03 A3019 RMK AO2 SLP223 T00941028 10139 20094 58004=
200603160452 METAR KATL 160452Z 30004KT 10SM FEW250 10/M03 A3020 RMK AO2 SLP226 T01001033 401610028=
200603160352 METAR KATL 160352Z 30004KT 10SM FEW250 11/M03 A3020 RMK AO2 SLP227 T01111033=
200603160252 METAR KATL 160252Z 29003KT 10SM FEW250 11/M03 A3020 RMK AO2 SLP228 T01111033 53004=
200603160052 METAR KATL 160052Z 28003KT 10SM FEW250 13/M04 A3018 RMK AO2 SLP224 T01281044=
200603152352 METAR KATL 152352Z 29006KT 10SM FEW250 13/M05 A3019 RMK AO2 SLP225 T01331050 10161 20133 55007=
200603152252 METAR KATL 152252Z 30003KT 10SM CLR 15/M04 A3018 RMK AO2 SLP222 T01501044=
200603152152 METAR KATL 152152Z 27011KT 10SM FEW280 16/M03 A3019 RMK AO2 SLP225 T01561033=
200603152052 METAR KATL 152052Z 36009KT 10SM CLR 16/M04 A3021 RMK AO2 SLP232 T01561044 56027=
200603151952 METAR KATL 151952Z 34012KT 10SM FEW280 16/M04 A3022 RMK AO2 SLP237 T01561044=
200603151852 METAR KATL 151852Z 34014G17KT 10SM CLR 15/M05 A3025 RMK AO2 SLP245 T01501050=
200603151752 METAR KATL 151752Z 33011G17KT 10SM FEW280 14/M04 A3029 RMK AO2 SLP260 T01391039 10139 20028 58013=
200603151652 METAR KATL 151652Z 35009KT 10SM FEW280 13/M05 A3032 RMK AO2 SLP269 T01281050=
200603151552 METAR KATL 151552Z 33011G16KT 10SM FEW280 12/M04 A3032 RMK AO2 SLP270 T01171044=
200603151452 METAR KATL 151452Z 35011G15KT 10SM FEW280 10/M04 A3033 RMK AO2 SLP273 T01001044 51015=
200603151352 METAR KATL 151352Z 34008KT 10SM CLR 07/M04 A3033 RMK AO2 SLP272 T00721039=
200603151252 METAR KATL 151252Z 32009KT 10SM CLR 04/M04 A3031 RMK AO2 SLP268 T00441044=
200603151152 METAR KATL 151152Z 29006KT 10SM CLR 03/M06 A3029 RMK AO2 SLP260 T00281056 10056 20028 53021=
200603151052 METAR KATL 151052Z 31007KT 10SM CLR 04/M06 A3026 RMK AO2 SLP251 T00391056=
200603150952 METAR KATL 150952Z 33009KT 10SM CLR 04/M06 A3024 RMK AO2 SLP242 T00441061=
200603150852 METAR KATL 150852Z 32005KT 10SM CLR 04/M06 A3022 RMK AO2 SLP236 T00391061 58004=
200603150752 METAR KATL 150752Z 31006KT 10SM CLR 03/M06 A3023 RMK AO2 SLP238 T00331056=
200603150452 METAR KATL 150452Z 31008KT 270V340 10SM CLR 07/M07 A3024 RMK AO2 SLP241 T00721072 402060067=
200603150352 METAR KATL 150352Z 31004KT 10SM CLR 08/M08 A3022 RMK AO2 SLP237 T00781078=
200603150252 METAR KATL 150252Z 32008KT 10SM CLR 08/M08 A3020 RMK AO2 SLP230 T00831078 53023=
200603150152 METAR KATL 150152Z 30008KT 10SM CLR 09/M08 A3018 RMK AO2 SLP222 T00891078=
200603150052 METAR KATL 150052Z 31009KT 10SM CLR 11/M08 A3015 RMK AO2 SLP212 T01061083=
200603142352 METAR KATL 142352Z 32013G22KT 10SM CLR 12/M09 A3013 RMK AO2 SLP204 T01171089 10156 20117 53021=
200603142252 METAR KATL 142252Z 32013G26KT 10SM CLR 13/M08 A3010 RMK AO2 PK WND 31032/2155 SLP192 T01331083=
200603142152 METAR KATL 142152Z 32022G28KT 10SM CLR 14/M08 A3008 RMK AO2 PK WND 30028/2150 SLP183 T01441083=
200603142052 METAR KATL 142052Z 34017G26KT 10SM CLR 15/M05 A3007 RMK AO2 PK WND 31031/2009 SLP179 T01501050 53003=
200603141952 METAR KATL 141952Z 30020G24KT 10SM FEW220 15/M03 A3005 RMK AO2 PK WND 29027/1920 SLP173 T01501033=
200603141852 METAR KATL 141852Z 31021G24KT 10SM FEW220 14/M03 A3005 RMK AO2 PK WND 31028/1820 SLP174 T01441028=
200603141752 METAR KATL 141752Z 30017G22KT 10SM FEW220 13/M01 A3006 RMK AO2 SLP175 T01331011 10133 20106 51014=
200603141652 METAR KATL 141652Z 34018G24KT 10SM FEW220 12/M02 A3005 RMK AO2 SLP173 T01221022=
200603141552 METAR KATL 141552Z 30017KT 10SM FEW150 SCT220 12/01 A3004 RMK AO2 PK WND 32027/1505 SLP168 T01220006=
200603141452 METAR KATL 141452Z 31019G24KT 10SM FEW090 BKN250 11/01 A3002 RMK AO2 PK WND 31030/1436 SLP161 T01110006 51038=
200603141352 METAR KATL 141352Z 32021KT 10SM FEW090 BKN250 11/01 A2998 RMK AO2 PK WND 30028/1322 SLP148 T01110006=
200603141252 METAR KATL 141252Z 31022G26KT 10SM BKN090 BKN250 12/04 A2994 RMK AO2 PK WND 30026/1250 SLP136 T01170039=
200603141152 METAR KATL 141152Z 33019KT 10SM FEW095 13/03 A2990 RMK AO2 SLP121 60084 70084 T01280028 10206 20128 51033=
200603141052 METAR KATL 141052Z 32014KT 10SM SCT040 BKN150 OVC250 14/08 A2986 RMK AO2 SLP107 T01390083=
200603140952 METAR KATL 140952Z 32016G21KT 10SM SCT020 BKN036 OVC075 16/11 A2984 RMK AO2 WSHFT 0855 RAB0853E22 SLP098 P0000 T01560106=
200603140945 SPECI KATL 140945Z 31013G21KT 10SM SCT020 BKN036 OVC075 16/11 A2984 RMK AO2 WSHFT 0855 RAB0853E22 P0000=
200603140945 SPECI KATL 140945Z 31013G21KT 10SM SCT020 BKN036 OVC075 16/11 A2984 RMK AO2 WSHFT 0855 RAB0853E22 P0000=
200603140911 SPECI KATL 140911Z 31018G23KT 8SM -RA SCT008 BKN016 OVC028 17/16 A2981 RMK AO2 WSHFT 0855 RAB0853 FROPA P0000=
200603140911 SPECI KATL 140911Z 31018G23KT 8SM -RA SCT008 BKN016 OVC028 17/16 A2981 RMK AO2 WSHFT 0855 RAB0853 FROPA P0000=
200603140852 METAR KATL 140852Z 24008KT 10SM SCT006 BKN014 OVC041 18/17 A2980 RMK AO2 TSE19RAE47 SLP084 TS MOV NE P0001 60084 T01780172 58001=
200603140844 SPECI KATL 140844Z 25008KT 10SM -RA SCT009 BKN013 OVC045 18/17 A2979 RMK AO2 TSE19 TS MOV NE P0001=
200603140844 SPECI KATL 140844Z 25008KT 10SM -RA SCT009 BKN013 OVC045 18/17 A2979 RMK AO2 TSE19 TS MOV NE P0001=
200603140820 SPECI KATL 140820Z 26008KT 10SM -RA FEW008 SCT038 BKN075 BKN140 OVC200 18/17 A2979 RMK AO2 TSE19 TS MOV NE P0001 $=
200603140820 SPECI KATL 140820Z 26008KT 10SM -RA FEW008 SCT038 BKN075 BKN140 OVC200 18/17 A2979 RMK AO2 TSE19 TS MOV NE P0001 $=
200603140803 SPECI KATL 140803Z 28010KT 10SM -TSRA SCT008 BKN024CB OVC060 18/17 A2979 RMK AO2 PRESFR OCNL LTGICCA TS VC NE-E-SE-S-SW MOV NE P0000 $=
200603140803 SPECI KATL 140803Z 28010KT 10SM -TSRA SCT008 BKN024CB OVC060 18/17 A2979 RMK AO2 PRESFR OCNL LTGICCA TS VC NE-E-SE-S-SW MOV NE P0000 $=
200603140752 METAR KATL 140752Z 27010KT 6SM -TSRA BR FEW008 BKN014CB OVC034 18/17 A2980 RMK AO2 SLP085 OCNL LTGICCGCA TS NE-OHD-SW MOV NE P0077 T01780167 $=
200603140750 SPECI KATL 140750Z 27011KT 4SM R09R/2600VP6000FT -TSRA BR SCT008 BKN014CB OVC034 18/17 A2980 RMK AO2 OCNL LTGICCGCA TS NE-OHD-SW MOV NE P0077 $=
200603140750 SPECI KATL 140750Z 27011KT 4SM R09R/2600VP6000FT -TSRA BR SCT008 BKN014CB OVC034 18/17 A2980 RMK AO2 OCNL LTGICCGCA TS NE-OHD-SW MOV NE P0077 $=
200603140747 SPECI KATL 140747Z 27012KT 1SM R09R/2600VP6000FT -TSRA BR SCT008 BKN014CB OVC034 18/17 A2980 RMK AO2 OCNL LTGICCGCA TS NE-OHD-SW MOV NE P0077 $=
200603140747 SPECI KATL 140747Z 27012KT 1SM R09R/2600VP6000FT -TSRA BR SCT008 BKN014CB OVC034 18/17 A2980 RMK AO2 OCNL LTGICCGCA TS NE-OHD-SW MOV NE P0077 $=
200603140732 SPECI KATL 140732Z 26004KT 3/4SM R09R/4500VP6000FT +TSRA BR FEW008 BKN014CB OVC032 18/17 A2980 RMK AO2 FRQ LTGICCGCA TS NE-OHD-SW MOV NE P0031 $=
200603140732 SPECI KATL 140732Z 26004KT 3/4SM R09R/4500VP6000FT +TSRA BR FEW008 BKN014CB OVC032 18/17 A2980 RMK AO2 FRQ LTGICCGCA TS NE-OHD-SW MOV NE P0031 $=
200603140730 SPECI KATL 140730Z 26006KT 2SM R09R/5500VP6000FT TSRA BR FEW008 BKN014CB OVC032 18/17 A2981 RMK AO2 FRQ LTGICCGCA TS NE-OHD-SW MOV NE P0029 $=
200603140730 SPECI KATL 140730Z 26006KT 2SM R09R/5500VP6000FT TSRA BR FEW008 BKN014CB OVC032 18/17 A2981 RMK AO2 FRQ LTGICCGCA TS NE-OHD-SW MOV NE P0029 $=
200603140712 SPECI KATL 140712Z 25010KT 1 1/2SM +TSRA BR FEW008 BKN015CB OVC036 19/18 A2981 RMK AO2 FRQ LTGICCGCA TS NE-OHD-SW MOV NE P0013=
200603140712 SPECI KATL 140712Z 25010KT 1 1/2SM +TSRA BR FEW008 BKN015CB OVC036 19/18 A2981 RMK AO2 FRQ LTGICCGCA TS NE-OHD-SW MOV NE P0013=
200603140704 SPECI KATL 140704Z 20009KT 3SM TSRA BR FEW008 BKN015CB OVC036 19/18 A2981 RMK AO2 FRQ LTGICCGCA TS NE-OHD-SW MOV NE P0010=
200603140704 SPECI KATL 140704Z 20009KT 3SM TSRA BR FEW008 BKN015CB OVC036 19/18 A2981 RMK AO2 FRQ LTGICCGCA TS NE-OHD-SW MOV NE P0010=
200603140658 SPECI KATL 140658Z 20010KT 1 1/2SM +TSRA BR FEW008 BKN015CB OVC038 19/18 A2981 RMK AO2 FRQ LTGICCA TS NE-OHD-SW MOV NE P0004=
200603140658 SPECI KATL 140658Z 20010KT 1 1/2SM +TSRA BR FEW008 BKN015CB OVC038 19/18 A2981 RMK AO2 FRQ LTGICCA TS NE-OHD-SW MOV NE P0004=
200603140652 METAR KATL 140652Z 19011KT 5SM TSRA BR FEW008 BKN018CB OVC040 19/17 A2981 RMK AO2 TSB32RAB27 SLP089 OCNL LTGIC TS W-NW-N MOV E P0006 T01890172=
200603140646 SPECI KATL 140646Z 20010KT 5SM -TSRA BR FEW008 BKN018CB OVC040 19/17 A2982 RMK AO2 TSB32RAB27 OCNL LTGIC TS W-NW-N MOV E P0006=
200603140646 SPECI KATL 140646Z 20010KT 5SM -TSRA BR FEW008 BKN018CB OVC040 19/17 A2982 RMK AO2 TSB32RAB27 OCNL LTGIC TS W-NW-N MOV E P0006=
200603140642 SPECI KATL 140642Z 21011KT 2 1/2SM TSRA BR FEW008 BKN018CB OVC040 19/17 A2982 RMK AO2 TSB32RAB27 OCNL LTGIC TS NW-N MOV E P0004=
200603140642 SPECI KATL 140642Z 21011KT 2 1/2SM TSRA BR FEW008 BKN018CB OVC040 19/17 A2982 RMK AO2 TSB32RAB27 OCNL LTGIC TS NW-N MOV E P0004=
200603140635 SPECI KATL 140635Z 21010G18KT 4SM -TSRA BR FEW008 BKN018CB OVC040 19/17 A2983 RMK AO2 TSB32RAB27 OCNL LTGIC TS NW-N MOV E P0002=
200603140635 SPECI KATL 140635Z 21010G18KT 4SM -TSRA BR FEW008 BKN018CB OVC040 19/17 A2983 RMK AO2 TSB32RAB27 OCNL LTGIC TS NW-N MOV E P0002=
200603140632 SPECI KATL 140632Z 21009G18KT 4SM -TSRA BR BKN018CB OVC032 19/17 A2983 RMK AO2 TSB32RAB27 OCNL LTGIC TS NW-N MOV E P0002=
200603140632 SPECI KATL 140632Z 21009G18KT 4SM -TSRA BR BKN018CB OVC032 19/17 A2983 RMK AO2 TSB32RAB27 OCNL LTGIC TS NW-N MOV E P0002=
200603140552 METAR KATL 140552Z 21011G16KT 10SM BKN020 OVC090 20/17 A2984 RMK AO2 SLP099 T02000167 10228 20200 56008=
200603140452 METAR KATL 140452Z 22007KT 10SM BKN022 BKN090 OVC150 20/16 A2985 RMK AO2 SLP104 T02000161 402390161=
200603140448 SPECI KATL 140448Z 22008KT 10SM BKN022 BKN090 OVC150 20/16 A2985 RMK AO2 PRESFR 402390161=
200603140448 SPECI KATL 140448Z 22008KT 10SM BKN022 BKN090 OVC150 20/16 A2985 RMK AO2 PRESFR 402390161=
200603140352 METAR KATL 140352Z 21016G22KT 10SM FEW090 BKN200 OVC250 20/16 A2985 RMK AO2 SLP102 T02000156=
200603140252 METAR KATL 140252Z 21011G17KT 10SM FEW090 SCT200 BKN250 21/15 A2987 RMK AO2 SLP108 T02060150 58000=
200603140152 METAR KATL 140152Z 20010G19KT 10SM CLR 21/14 A2988 RMK AO2 SLP110 T02110144=
200603140052 METAR KATL 140052Z 20009KT 10SM FEW250 22/14 A2988 RMK AO2 SLP111 T02170144=
200603132352 METAR KATL 132352Z 20011KT 10SM FEW100 23/14 A2987 RMK AO2 SLP107 T02280139 10239 20189 56015=
200603132252 METAR KATL 132252Z 19008KT 10SM FEW040 BKN095 BKN200 23/14 A2988 RMK AO2 SLP111 T02330144=
200603132152 METAR KATL 132152Z 20012KT 10SM FEW040 BKN065 BKN085 23/14 A2990 RMK AO2 SLP118 T02330144=
200603132052 METAR KATL 132052Z 20010KT 10SM FEW050 BKN070 BKN150 23/14 A2991 RMK AO2 SLP122 T02330144 56036=
200603131952 METAR KATL 131952Z 21013G18KT 10SM FEW035 BKN070 BKN150 23/15 A2994 RMK AO2 SLP131 T02280150=
200603131852 METAR KATL 131852Z 20011KT 9SM SCT020 BKN030 22/16 A2998 RMK AO2 SLP144 T02170156=
200603131836 SPECI KATL 131836Z 20013G18KT 9SM FEW018 SCT023 BKN031 22/16 A2998 RMK AO2=
200603131836 SPECI KATL 131836Z 20013G18KT 9SM FEW018 SCT023 BKN031 22/16 A2998 RMK AO2=
200603131814 SPECI KATL 131814Z 19010KT 9SM SCT016 BKN021 OVC033 20/16 A3000 RMK AO2 BINOVC=
200603131814 SPECI KATL 131814Z 19010KT 9SM SCT016 BKN021 OVC033 20/16 A3000 RMK AO2 BINOVC=
200603131752 METAR KATL 131752Z 20008KT 10SM BKN012 OVC019 19/16 A3002 RMK AO2 DZE43 SLP159 P0000 60000 T01890156 10189 20161 58019=
200603131652 METAR KATL 131652Z 21007KT 6SM -DZ BR OVC010 17/15 A3005 RMK AO2 DZB44 SLP171 P0000 T01720150=
200603131552 METAR KATL 131552Z 19007KT 10SM OVC012 17/14 A3006 RMK AO2 SLP173 T01720144=
200603131452 METAR KATL 131452Z 19009KT 10SM OVC012 17/14 A3008 RMK AO2 SLP179 T01720144 51015=
200603131352 METAR KATL 131352Z 21007KT 10SM BKN014 OVC018 17/14 A3006 RMK AO2 SLP173 T01720144=
200603131343 SPECI KATL 131343Z 20006KT 10SM BKN014 OVC018 17/14 A3006 RMK AO2=
200603131343 SPECI KATL 131343Z 20006KT 10SM BKN014 OVC018 17/14 A3006 RMK AO2=
200603131252 METAR KATL 131252Z 21006KT 10SM BKN016 BKN018 17/14 A3005 RMK AO2 SLP171 T01670144=
200603131152 METAR KATL 131152Z 18007KT 10SM BKN013 OVC018 16/14 A3003 RMK AO2 SLP163 T01610144 10189 20161 51006=
200603131052 METAR KATL 131052Z 16005KT 10SM BKN010 16/14 A3002 RMK AO2 SLP159 T01610139=
200603130952 METAR KATL 130952Z 00000KT 10SM SCT055 16/14 A3002 RMK AO2 SLP159 T01610139=
200603130852 METAR KATL 130852Z 00000KT 10SM FEW050 17/14 A3001 RMK AO2 SLP155 T01720139 58016=
200603130752 METAR KATL 130752Z 19005KT 10SM CLR 17/14 A3003 RMK AO2 SLP162 T01720139=
200603130652 METAR KATL 130652Z 22007KT 10SM CLR 19/14 A3006 RMK AO2 SLP169 T01890139=
200603130552 METAR KATL 130552Z 20008KT 10SM CLR 19/13 A3006 RMK AO2 SLP171 T01940133 10239 20194 58005=
200603130452 METAR KATL 130452Z 19007KT 10SM CLR 20/14 A3007 RMK AO2 SLP176 T02000139 402670161=
200603130352 METAR KATL 130352Z 17006KT 10SM FEW250 21/14 A3007 RMK AO2 SLP176 T02110139=
200603130252 METAR KATL 130252Z 16005KT 10SM SCT250 21/14 A3007 RMK AO2 SLP177 T02110139 50001=
200603130152 METAR KATL 130152Z 16006KT 10SM FEW100 22/14 A3008 RMK AO2 SLP179 T02170139=
200603130052 METAR KATL 130052Z 16005KT 10SM FEW100 23/13 A3008 RMK AO2 SLP180 T02280133=
200603122352 METAR KATL 122352Z 16006KT 10SM FEW055 SCT095 24/13 A3007 RMK AO2 SLP177 T02390128 10267 20239 55006=
200603122252 METAR KATL 122252Z 18008KT 10SM FEW060 SCT095 26/12 A3007 RMK AO2 SLP174 T02560122=
200603122152 METAR KATL 122152Z 18009KT 10SM FEW060 BKN085 26/12 A3007 RMK AO2 SLP175 T02610122=
200603122052 METAR KATL 122052Z 19008G15KT 10SM SCT055 BKN085 26/12 A3009 RMK AO2 SLP181 T02560122 56024=
200603121952 METAR KATL 121952Z 17007KT 10SM SCT050 BKN085 26/12 A3010 RMK AO2 SLP186 T02560122=
200603121852 METAR KATL 121852Z 22011KT 10SM FEW055 BKN080 26/12 A3013 RMK AO2 SLP195 T02560122=
200603121752 METAR KATL 121752Z 21009KT 10SM FEW060 BKN075 BKN100 25/12 A3016 RMK AO2 SLP205 60000 T02500122 10256 20161 58013=
200603121652 METAR KATL 121652Z 19012G17KT 10SM FEW050 BKN075 BKN100 25/12 A3018 RMK AO2 SLP213 T02500122=
200603121552 METAR KATL 121552Z 20012KT 10SM SCT100 23/12 A3019 RMK AO2 SLP216 T02330122=
200603121452 METAR KATL 121452Z 21009KT 10SM FEW075 SCT090 SCT110 22/13 A3020 RMK AO2 SLP220 60000 T02170128 51003=
200603121352 METAR KATL 121352Z 20006KT 9SM SCT047 SCT090 18/14 A3020 RMK AO2 SLP221 T01830139=
200603121252 METAR KATL 121252Z 16003KT 7SM SCT050 17/14 A3019 RMK AO2 RAB33E47 SLP219 P0000 T01670144=
200603121152 METAR KATL 121152Z 00000KT 9SM SCT150 16/14 A3019 RMK AO2 SLP217 T01610144 10200 20161 53010=
200603121052 METAR KATL 121052Z 18005KT 10SM CLR 17/14 A3017 RMK AO2 SLP209 T01670144=
200603120952 METAR KATL 120952Z 18005KT 10SM CLR 17/15 A3016 RMK AO2 SLP205 T01720150=
200603120852 METAR KATL 120852Z 19003KT 10SM BKN070 18/15 A3016 RMK AO2 SLP206 T01830150 58003=
200603120752 METAR KATL 120752Z 21006KT 10SM BKN120 19/15 A3017 RMK AO2 SLP209 T01890150=
200603120652 METAR KATL 120652Z 20008KT 10SM SCT065 19/15 A3017 RMK AO2 SLP208 T01940150=
200603120552 METAR KATL 120552Z 19007KT 10SM FEW040 SCT070 20/14 A3017 RMK AO2 SLP208 T02000144 10228 20200 58004=
200603120452 METAR KATL 120452Z 17008KT 10SM SCT046 SCT060 BKN085 21/14 A3018 RMK AO2 SLP213 T02060139 402560161=
200603120352 METAR KATL 120352Z 16005KT 10SM FEW060 BKN085 21/13 A3018 RMK AO2 SLP215 T02110133=
200603120252 METAR KATL 120252Z 15007KT 10SM BKN075 21/13 A3018 RMK AO2 SLP213 T02110133 51011=
200603120152 METAR KATL 120152Z 14006KT 10SM FEW080 21/13 A3017 RMK AO2 SLP211 T02110128=
200603120052 METAR KATL 120052Z 15006KT 9SM FEW080 22/13 A3016 RMK AO2 SLP208 T02170128=
200603112352 METAR KATL 112352Z 16005KT 10SM FEW085 23/13 A3015 RMK AO2 SLP202 T02280128 10256 20228 53003=
200603112252 METAR KATL 112252Z 18004KT 10SM SCT060 BKN080 24/12 A3013 RMK AO2 SLP198 T02440122=
200603112152 METAR KATL 112152Z 16007KT 10SM FEW060 BKN075 24/12 A3013 RMK AO2 SLP197 T02440122=
200603112052 METAR KATL 112052Z 19010KT 10SM FEW055 SCT075 25/12 A3014 RMK AO2 SLP198 T02500122 55007=
200603111952 METAR KATL 111952Z 19009KT 10SM BKN055 24/12 A3013 RMK AO2 SLP197 MDT CU ALQDS T02440122=
200603111852 METAR KATL 111852Z 17009G15KT 10SM BKN055 24/12 A3015 RMK AO2 SLP201 MDT CU ALQDS T02440117=
200603111752 METAR KATL 111752Z 16012KT 10SM BKN049 24/12 A3016 RMK AO2 SLP205 MDT CU ALQDS T02440122 10244 20161 56009=
200603111652 METAR KATL 111652Z 18013KT 10SM BKN036 23/14 A3017 RMK AO2 SLP210 MDT CU ALQDS T02280139=
200603111552 METAR KATL 111552Z 18007KT 10SM FEW024 SCT034 22/16 A3018 RMK AO2 SLP212 T02220156=
200603111452 METAR KATL 111452Z 17005KT 9SM FEW025 21/16 A3019 RMK AO2 SLP217 T02060161 51012=
200603111352 METAR KATL 111352Z 16005KT 4SM BR SCT120 17/16 A3018 RMK AO2 SLP217 T01720156=
200603111252 METAR KATL 111252Z 13003KT 6SM BR FEW020 16/16 A3016 RMK AO2 SLP210 T01610156=
200603111238 SPECI KATL 111238Z 14005KT 6SM BR FEW020 16/16 A3016 RMK AO2=
200603111238 SPECI KATL 111238Z 14005KT 6SM BR FEW020 16/16 A3016 RMK AO2=
200603111152 METAR KATL 111152Z 12003KT 5SM BR BKN016 16/16 A3015 RMK AO2 SLP206 T01610156 10172 20161 51019=
200603111052 METAR KATL 111052Z 00000KT 6SM BR OVC020 17/16 A3014 RMK AO2 SLP201 T01670156=
200603110952 METAR KATL 110952Z 13004KT 6SM BR BKN018 BKN024 17/16 A3011 RMK AO2 SLP189 T01670156=
200603110921 SPECI KATL 110921Z 17005KT 7SM SCT006 SCT013 BKN019 17/16 A3010 RMK AO2=
200603110921 SPECI KATL 110921Z 17005KT 7SM SCT006 SCT013 BKN019 17/16 A3010 RMK AO2=
200603110910 SPECI KATL 110910Z 16004KT 6SM BR BKN006 BKN013 BKN032 17/16 A3009 RMK AO2=
200603110910 SPECI KATL 110910Z 16004KT 6SM BR BKN006 BKN013 BKN032 17/16 A3009 RMK AO2=
200603110852 METAR KATL 110852Z 15005KT 6SM BR SCT004 BKN019 OVC031 17/16 A3009 RMK AO2 SLP184 T01670161 56004=
200603110847 SPECI KATL 110847Z 16005KT 6SM BR SCT004 SCT019 BKN031 17/16 A3010 RMK AO2=
200603110847 SPECI KATL 110847Z 16005KT 6SM BR SCT004 SCT019 BKN031 17/16 A3010 RMK AO2=
200603110752 METAR KATL 110752Z 18007KT 5SM BR OVC004 17/16 A3010 RMK AO2 SLP186 T01720161=
200603110652 METAR KATL 110652Z 00000KT 6SM BR OVC004 17/17 A3011 RMK AO2 SLP189 T01720167=
200603110617 SPECI KATL 110617Z 17005KT 8SM OVC004 17/16 A3010 RMK AO2=
200603110617 SPECI KATL 110617Z 17005KT 8SM OVC004 17/16 A3010 RMK AO2=
200603110552 METAR KATL 110552Z 17005KT 9SM BKN006 OVC020 17/16 A3008 RMK AO2 SLP181 T01720161 10194 20161 50005=
200603110546 SPECI KATL 110546Z 17005KT 9SM BKN006 OVC020 17/16 A3009 RMK AO2=
200603110546 SPECI KATL 110546Z 17005KT 9SM BKN006 OVC020 17/16 A3009 RMK AO2=
200603110542 SPECI KATL 110542Z 18004KT 9SM SCT006 BKN018 OVC035 17/16 A3009 RMK AO2=
200603110542 SPECI KATL 110542Z 18004KT 9SM SCT006 BKN018 OVC035 17/16 A3009 RMK AO2=
200603110534 SPECI KATL 110534Z 18003KT 9SM SCT014 BKN020 BKN085 OVC250 17/16 A3009 RMK AO2=
200603110534 SPECI KATL 110534Z 18003KT 9SM SCT014 BKN020 BKN085 OVC250 17/16 A3009 RMK AO2=
200603110523 SPECI KATL 110523Z 17004KT 10SM FEW014 SCT025 BKN085 OVC250 17/16 A3008 RMK AO2=
200603110523 SPECI KATL 110523Z 17004KT 10SM FEW014 SCT025 BKN085 OVC250 17/16 A3008 RMK AO2=
200603110503 SPECI KATL 110503Z 17006KT 10SM SCT012 BKN018 OVC030 17/16 A3008 RMK AO2=
200603110503 SPECI KATL 110503Z 17006KT 10SM SCT012 BKN018 OVC030 17/16 A3008 RMK AO2=
200603110454 SPECI KATL 110454Z 18005KT 10SM FEW009 BKN014 BKN025 16/16 A3009 RMK AO2=
200603110454 SPECI KATL 110454Z 18005KT 10SM FEW009 BKN014 BKN025 16/16 A3009 RMK AO2=
200603110452 METAR KATL 110452Z 18005KT 10SM SCT014 BKN025 OVC040 16/16 A3009 RMK AO2 SLP183 T01610156 402440117=
200603110352 METAR KATL 110352Z 18004KT 10SM FEW025 SCT045 BKN200 BKN250 17/15 A3008 RMK AO2 SLP182 T01670150=
200603110338 SPECI KATL 110338Z 18005KT 10SM SCT025 BKN045 BKN200 OVC250 17/16 A3008 RMK AO2=
200603110338 SPECI KATL 110338Z 18005KT 10SM SCT025 BKN045 BKN200 OVC250 17/16 A3008 RMK AO2=
200603110318 SPECI KATL 110318Z 18005KT 10SM BKN025 BKN065 BKN200 OVC250 17/16 A3008 RMK AO2=
200603110318 SPECI KATL 110318Z 18005KT 10SM BKN025 BKN065 BKN200 OVC250 17/16 A3008 RMK AO2=
200603110252 METAR KATL 110252Z 17005KT 10SM FEW065 BKN200 OVC250 17/15 A3007 RMK AO2 SLP179 T01720150 53017=
200603110152 METAR KATL 110152Z 16004KT 10SM SCT055 BKN250 18/14 A3005 RMK AO2 SLP173 T01780144=
200603110052 METAR KATL 110052Z 16004KT 10SM SCT060 BKN075 BKN200 18/14 A3004 RMK AO2 SLP169 T01830144=
200603102352 METAR KATL 102352Z 18008KT 10SM BKN075 BKN090 BKN200 19/14 A3002 RMK AO2 SLP163 T01940139 10244 20194 53019=
200603102252 METAR KATL 102252Z 17011KT 10SM FEW075 BKN200 21/12 A2999 RMK AO2 SLP152 T02110122=
200603102152 METAR KATL 102152Z 16009KT 10SM FEW080 SCT250 23/11 A2997 RMK AO2 SLP144 ACC DSNT SE-SW AND VC NW T02280106=
200603102052 METAR KATL 102052Z VRB05KT 10SM FEW080 SCT250 23/06 A2996 RMK AO2 SLP141 T02330056 55011=
200603101952 METAR KATL 101952Z 22009KT 10SM SCT080 23/06 A2996 RMK AO2 SLP141 ACC VC SE-S T02280056=
200603101852 METAR KATL 101852Z 23009KT 10SM FEW080 22/06 A2997 RMK AO2 SLP144 ACC DSNT SE AND VC W T02220061=
200603101752 METAR KATL 101752Z 17005KT 10SM SCT080 21/07 A2999 RMK AO2 SLP153 ACC DSNT E-SW T02110072 10217 20117 58002=
200603101652 METAR KATL 101652Z 16008KT 10SM FEW085 SCT250 20/09 A3001 RMK AO2 SLP156 ACC DSNT E-SW T02000094=
200603101452 METAR KATL 101452Z 20004KT 10SM BKN060 BKN090 BKN250 16/11 A3000 RMK AO2 SLP154 T01560106 53031=
200603101352 METAR KATL 101352Z 24006KT 10SM FEW060 SCT090 14/11 A2996 RMK AO2 SLP142 T01390106=
200603101252 METAR KATL 101252Z 19003KT 10SM BKN070 BKN090 12/11 A2993 RMK AO2 SLP132 T01220106=
200603101152 METAR KATL 101152Z 18005KT 10SM BKN070 BKN090 12/11 A2991 RMK AO2 SLP124 60007 70029 T01170106 10139 20117 53026=
200603101052 METAR KATL 101052Z 19004KT 10SM OVC060 12/11 A2987 RMK AO2 SLP113 T01170106=
200603100952 METAR KATL 100952Z 19008KT 10SM BKN060 OVC080 12/11 A2984 RMK AO2 SLP102 T01170106=
200603100852 METAR KATL 100852Z 20006KT 10SM OVC080 12/11 A2983 RMK AO2 RAE24 SLP097 P0003 60007 T01220106 58002=
200603100752 METAR KATL 100752Z 22005KT 10SM -RA OVC065 13/11 A2984 RMK AO2 SLP102 P0002 T01280106=
200603100702 SPECI KATL 100702Z 24009KT 9SM -RA SCT029 OVC034 13/12 A2983 RMK AO2 P0001=
200603100702 SPECI KATL 100702Z 24009KT 9SM -RA SCT029 OVC034 13/12 A2983 RMK AO2 P0001=
200603100652 METAR KATL 100652Z 26008KT 8SM -RA FEW008 BKN029 OVC036 13/12 A2983 RMK AO2 SLP098 P0002 T01330122=
200603100650 SPECI KATL 100650Z 25008KT 9SM -RA FEW008 BKN029 OVC036 13/12 A2983 RMK AO2 P0002=
200603100650 SPECI KATL 100650Z 25008KT 9SM -RA FEW008 BKN029 OVC036 13/12 A2983 RMK AO2 P0002=
200603100613 SPECI KATL 100613Z 27008KT 6SM -RA BR SCT015 BKN024 OVC050 14/13 A2985 RMK AO2 PRESRR P0000=
200603100613 SPECI KATL 100613Z 27008KT 6SM -RA BR SCT015 BKN024 OVC050 14/13 A2985 RMK AO2 PRESRR P0000=
200603100552 METAR KATL 100552Z 26006KT 8SM -RA FEW008 BKN042 OVC055 14/13 A2981 RMK AO2 SLP091 P0010 60022 T01390128 10194 20133 51021=
200603100536 SPECI KATL 100536Z 26005KT 6SM -RA BR FEW006 SCT020 OVC040 13/13 A2982 RMK AO2 P0009=
200603100536 SPECI KATL 100536Z 26005KT 6SM -RA BR FEW006 SCT020 OVC040 13/13 A2982 RMK AO2 P0009=
200603100521 SPECI KATL 100521Z 27009KT 4SM RA BR SCT015 BKN022 OVC035 13/13 A2982 RMK AO2 P0006=
200603100521 SPECI KATL 100521Z 27009KT 4SM RA BR SCT015 BKN022 OVC035 13/13 A2982 RMK AO2 P0006=
200603100514 SPECI KATL 100514Z 29013KT 2 1/2SM RA BR BKN014 BKN022 OVC035 13/13 A2983 RMK AO2 PRESRR P0004=
200603100514 SPECI KATL 100514Z 29013KT 2 1/2SM RA BR BKN014 BKN022 OVC035 13/13 A2983 RMK AO2 PRESRR P0004=
200603100510 SPECI KATL 100510Z 29011KT 4SM -RA BR SCT014 BKN022 OVC035 13/13 A2982 RMK AO2 P0003=
200603100510 SPECI KATL 100510Z 29011KT 4SM -RA BR SCT014 BKN022 OVC035 13/13 A2982 RMK AO2 P0003=
200603100503 SPECI KATL 100503Z 31010KT 2 1/2SM RA BR OVC010 13/13 A2980 RMK AO2 CIG 006V012 P0000=
200603100503 SPECI KATL 100503Z 31010KT 2 1/2SM RA BR OVC010 13/13 A2980 RMK AO2 CIG 006V012 P0000=
200603100452 METAR KATL 100452Z 31010KT 6SM -RA BR BKN008 OVC015 14/13 A2980 RMK AO2 PK WND 19028/0403 WSHFT 0429 RAB04 SLP090 P0012 T01390133 402060067=
200603100449 SPECI KATL 100449Z 30008KT 6SM -RA BR BKN008 OVC015 14/13 A2980 RMK AO2 PK WND 19028/0403 WSHFT 0429 RAB04 P0011 402060067=
200603100449 SPECI KATL 100449Z 30008KT 6SM -RA BR BKN008 OVC015 14/13 A2980 RMK AO2 PK WND 19028/0403 WSHFT 0429 RAB04 P0011 402060067=
200603100442 SPECI KATL 100442Z 31012KT 4SM -RA BR BKN007 BKN020 OVC030 14/13 A2979 RMK AO2 PK WND 19028/0403 WSHFT 0408 RAB04 P0011=
200603100442 SPECI KATL 100442Z 31012KT 4SM -RA BR BKN007 BKN020 OVC030 14/13 A2979 RMK AO2 PK WND 19028/0403 WSHFT 0408 RAB04 P0011=
200603100432 SPECI KATL 100432Z 28011KT 2 1/2SM RA BR BKN007 BKN020 OVC030 15/14 A2979 RMK AO2 PK WND 19028/0403 WSHFT 0408 RAB04 P0009=
200603100432 SPECI KATL 100432Z 28011KT 2 1/2SM RA BR BKN007 BKN020 OVC030 15/14 A2979 RMK AO2 PK WND 19028/0403 WSHFT 0408 RAB04 P0009=
200603100424 SPECI KATL 100424Z 25010KT 2SM +RA BR BKN020 OVC030 16/14 A2979 RMK AO2 PK WND 19028/0403 WSHFT 0408 RAB04 P0006=
200603100424 SPECI KATL 100424Z 25010KT 2SM +RA BR BKN020 OVC030 16/14 A2979 RMK AO2 PK WND 19028/0403 WSHFT 0408 RAB04 P0006=
200603100419 SPECI KATL 100419Z 24011G20KT 2 1/2SM RA BKN022 OVC030 17/14 A2979 RMK AO2 PK WND 19028/0403 RAB04 PRESRR P0002=
200603100419 SPECI KATL 100419Z 24011G20KT 2 1/2SM RA BKN022 OVC030 17/14 A2979 RMK AO2 PK WND 19028/0403 RAB04 PRESRR P0002=
200603100352 METAR KATL 100352Z 19018G27KT 10SM BKN028 BKN035 OVC045 18/13 A2975 RMK AO2 PK WND 17030/0318 SLP070 T01780128=
200603100344 SPECI KATL 100344Z 18018G27KT 10SM BKN028 BKN035 OVC045 18/13 A2975 RMK AO2 PK WND 17030/0318=
200603100344 SPECI KATL 100344Z 18018G27KT 10SM BKN028 BKN035 OVC045 18/13 A2975 RMK AO2 PK WND 17030/0318=
200603100252 METAR KATL 100252Z 18018G29KT 10SM BKN030 OVC040 18/12 A2975 RMK AO2 PK WND 20033/0217 SLP072 T01830122 55001=
200603100152 METAR KATL 100152Z 18018G28KT 8SM BKN030 OVC045 18/12 A2973 RMK AO2 PK WND 17030/0142 SLP066 T01830122=
200603100052 METAR KATL 100052Z 16015G23KT 9SM SCT035 BKN045 BKN080 BKN150 OVC200 19/12 A2973 RMK AO2 PK WND 16027/0030 PRESFR SLP066 T01890117=
200603092352 METAR KATL 092352Z 17014G21KT 10SM SCT045 BKN060 OVC150 19/11 A2976 RMK AO2 SLP074 T01940106 10206 20189 56015=
200603092252 METAR KATL 092252Z 16016G22KT 10SM BKN048 BKN060 BKN150 OVC200 20/09 A2976 RMK AO2 SLP075 T02000094=
200603092152 METAR KATL 092152Z 17017G21KT 10SM FEW050 BKN200 OVC240 20/09 A2977 RMK AO2 SLP078 T02000094=
200603092052 METAR KATL 092052Z 18008G16KT 10SM BKN045 BKN055 OVC200 19/10 A2980 RMK AO2 PK WND 21026/2011 SLP088 T01940100 56030=
200603091952 METAR KATL 091952Z 19016G26KT 8SM SCT047 BKN200 BKN240 19/09 A2982 RMK AO2 PK WND 19026/1945 SLP094 T01940094=
200603091852 METAR KATL 091852Z 19010G21KT 9SM SCT045 SCT200 BKN240 20/09 A2986 RMK AO2 SLP108 T02000094=
200603091752 METAR KATL 091752Z 20011G18KT 9SM FEW040 SCT200 BKN240 19/09 A2989 RMK AO2 SLP119 T01890089 10194 20067 58027=
200603091652 METAR KATL 091652Z 20012KT 10SM FEW030 SCT200 BKN240 17/09 A2993 RMK AO2 SLP131 T01670089=
200603091602 SPECI KATL 091602Z 19009KT 9SM BKN024 BKN110 BKN200 15/09 A2994 RMK AO2=
200603091602 SPECI KATL 091602Z 19009KT 9SM BKN024 BKN110 BKN200 15/09 A2994 RMK AO2=
200603091552 METAR KATL 091552Z 19012G16KT 8SM SCT024 SCT110 BKN200 13/08 A2995 RMK AO2 SLP142 T01330078=
200603091537 SPECI KATL 091537Z 17008KT 8SM FEW028 SCT110 BKN200 13/08 A2994 RMK AO2=
200603091537 SPECI KATL 091537Z 17008KT 8SM FEW028 SCT110 BKN200 13/08 A2994 RMK AO2=
200603091452 METAR KATL 091452Z 16006KT 6SM HZ OVC026 11/07 A2997 RMK AO2 SLP149 T01110072 55000=
200603091352 METAR KATL 091352Z 18007KT 7SM OVC022 09/06 A2997 RMK AO2 SLP150 T00940056=
200603091252 METAR KATL 091252Z 12005KT 5SM HZ BKN016 BKN250 07/04 A2997 RMK AO2 SLP149 T00720044=
200603091247 SPECI KATL 091247Z 13005KT 5SM HZ BKN016 BKN250 07/04 A2997 RMK AO2=
200603091247 SPECI KATL 091247Z 13005KT 5SM HZ BKN016 BKN250 07/04 A2997 RMK AO2=
200603091232 SPECI KATL 091232Z 13005KT 6SM HZ SCT016 SCT180 BKN250 07/04 A2997 RMK AO2=
200603091232 SPECI KATL 091232Z 13005KT 6SM HZ SCT016 SCT180 BKN250 07/04 A2997 RMK AO2=
200603091224 SPECI KATL 091224Z 13004KT 6SM HZ BKN018 BKN020 BKN250 07/04 A2997 RMK AO2=
200603091224 SPECI KATL 091224Z 13004KT 6SM HZ BKN018 BKN020 BKN250 07/04 A2997 RMK AO2=
200603091152 METAR KATL 091152Z 13005KT 8SM SCT017 SCT180 BKN250 07/04 A2996 RMK AO2 SLP146 T00670039 10111 20067 56000=
200603091052 METAR KATL 091052Z 14004KT 7SM FEW180 SCT250 08/04 A2996 RMK AO2 SLP146 T00780044=
200603090952 METAR KATL 090952Z 13005KT 8SM FEW180 SCT250 08/04 A2995 RMK AO2 SLP141 T00830044=
200603090852 METAR KATL 090852Z 16006KT 8SM FEW180 SCT250 09/04 A2996 RMK AO2 SLP144 T00940044 58016=
200603090752 METAR KATL 090752Z 17007KT 9SM FEW180 BKN250 10/04 A2998 RMK AO2 SLP149 T01000039=
200603090652 METAR KATL 090652Z 17006KT 9SM SCT180 BKN250 11/03 A3000 RMK AO2 SLP156 T01060033=
200603090552 METAR KATL 090552Z 19006KT 10SM FEW180 SCT250 11/02 A3001 RMK AO2 SLP160 T01110022 10167 20111 55003=
200603090452 METAR KATL 090452Z 17009KT 10SM SCT180 BKN250 12/01 A3000 RMK AO2 SLP157 T01170011 401890050=
200603090352 METAR KATL 090352Z 15008KT 10SM FEW200 SCT250 12/01 A3001 RMK AO2 SLP162 T01220011=
200603090252 METAR KATL 090252Z 15008KT 10SM SCT200 BKN250 13/01 A3002 RMK AO2 SLP164 T01330006 58001=
200603090152 METAR KATL 090152Z 16008KT 9SM FEW150 BKN200 BKN250 14/00 A3002 RMK AO2 SLP168 T01440000=
200603090052 METAR KATL 090052Z 17007KT 8SM OVC150 16/00 A3002 RMK AO2 SLP168 T01560000=
200603082352 METAR KATL 082352Z 17008KT 8SM SCT170 BKN200 BKN250 17/M01 A3002 RMK AO2 SLP166 T01671011 10189 20167 58007=
200603082252 METAR KATL 082252Z 17011KT 10SM FEW150 BKN180 OVC250 18/M02 A3003 RMK AO2 SLP168 T01781022=
200603082152 METAR KATL 082152Z 19007KT 9SM FEW150 BKN180 BKN250 18/M02 A3003 RMK AO2 SLP170 T01831017=
200603082052 METAR KATL 082052Z 18012KT 10SM FEW180 SCT200 BKN250 18/M02 A3004 RMK AO2 SLP171 T01831017 56026=
200603081952 METAR KATL 081952Z 18006KT 10SM FEW180 SCT200 BKN250 18/M02 A3005 RMK AO2 SLP176 T01831017=
200603081852 METAR KATL 081852Z 15009KT 10SM FEW200 BKN250 18/M02 A3009 RMK AO2 SLP187 T01781017=
200603081752 METAR KATL 081752Z 21008KT 10SM FEW200 BKN250 17/M01 A3012 RMK AO2 SLP199 T01671011 10167 20056 58023 $=
200603081652 METAR KATL 081652Z 15007KT 120V200 10SM FEW180 BKN200 BKN250 16/M01 A3015 RMK AO2 SLP212 T01561011 $=
200603081552 METAR KATL 081552Z 18011KT 10SM FEW180 SCT200 BKN250 14/M02 A3018 RMK AO2 SLP218 T01391017=
200603081452 METAR KATL 081452Z 19009KT 10SM FEW200 BKN250 12/M02 A3019 RMK AO2 SLP224 T01221017 58001=
200603081352 METAR KATL 081352Z 13005KT 8SM FEW180 SCT250 09/00 A3020 RMK AO2 SLP229 T00890000=
200603081252 METAR KATL 081252Z 13003KT 8SM SCT250 06/M01 A3020 RMK AO2 SLP230 T00611011=
200603081152 METAR KATL 081152Z 00000KT 10SM SCT250 06/M01 A3019 RMK AO2 SLP226 T00561011 10089 20050 50006=
200603081052 METAR KATL 081052Z 00000KT 10SM SCT250 06/M02 A3020 RMK AO2 SLP227 T00611017=
200603080952 METAR KATL 080952Z 00000KT 10SM SCT180 BKN250 07/M02 A3018 RMK AO2 SLP221 T00721022=
200603080852 METAR KATL 080852Z 16004KT 10SM SCT180 BKN250 08/M02 A3017 RMK AO2 SLP219 T00831022 58006=
200603080752 METAR KATL 080752Z 00000KT 10SM SCT180 BKN250 08/M01 A3018 RMK AO2 SLP220 T00781011=
200603080652 METAR KATL 080652Z 10003KT 10SM FEW180 BKN250 07/M01 A3019 RMK AO2 SLP225 T00721006=
200603080552 METAR KATL 080552Z 00000KT 10SM FEW200 BKN250 08/M01 A3019 RMK AO2 SLP226 T00781011 10133 20067 53005=
200603080452 METAR KATL 080452Z 00000KT 10SM FEW200 BKN250 08/00 A3018 RMK AO2 SLP223 T00780000 401560033=
200603080352 METAR KATL 080352Z 00000KT 10SM FEW200 BKN250 11/M02 A3019 RMK AO2 SLP224 T01061022=
200603080252 METAR KATL 080252Z 35004KT 10SM FEW200 BKN250 11/M03 A3018 RMK AO2 SLP222 T01061028 53002=
200603080152 METAR KATL 080152Z 35005KT 10SM FEW200 BKN250 12/M03 A3017 RMK AO2 SLP218 T01171028=
200603080052 METAR KATL 080052Z 36008KT 10SM SCT250 12/M02 A3018 RMK AO2 SLP221 T01221022=
200603072352 METAR KATL 072352Z 34006KT 10SM BKN250 13/M03 A3017 RMK AO2 SLP219 T01331028 10156 20117 50004=
200603072252 METAR KATL 072252Z 33005KT 10SM BKN250 14/M03 A3017 RMK AO2 SLP219 T01441028=
200603072152 METAR KATL 072152Z 35005KT 10SM FEW250 15/M04 A3016 RMK AO2 SLP214 T01501039=
200603072052 METAR KATL 072052Z VRB04KT 10SM FEW250 15/M03 A3016 RMK AO2 SLP213 T01501028 56018=
200603071952 METAR KATL 071952Z 02004KT 10SM CLR 14/M02 A3017 RMK AO2 SLP218 T01441022=
200603071852 METAR KATL 071852Z VRB04KT 10SM CLR 13/M02 A3018 RMK AO2 SLP221 T01331017=
200603071752 METAR KATL 071752Z 01005KT 10SM CLR 12/M03 A3021 RMK AO2 SLP232 T01171028 10122 20033 58012=
200603071652 METAR KATL 071652Z 00000KT 10SM CLR 10/M02 A3023 RMK AO2 SLP240 T01001022=
200603071552 METAR KATL 071552Z VRB05KT 10SM CLR 09/M02 A3024 RMK AO2 SLP243 T00891022=
200603071452 METAR KATL 071452Z 34009KT 10SM CLR 07/M02 A3025 RMK AO2 SLP245 T00721022 51026=
200603071352 METAR KATL 071352Z 33010KT 10SM CLR 05/M03 A3023 RMK AO2 SLP241 T00501028=
200603071252 METAR KATL 071252Z 33013KT 10SM CLR 04/M02 A3018 RMK AO2 SLP224 T00391022=
200603071152 METAR KATL 071152Z 34009KT 10SM CLR 03/M02 A3017 RMK AO2 SLP217 T00331022 10094 20033 53024=
200603071052 METAR KATL 071052Z 34012KT 10SM CLR 04/M03 A3014 RMK AO2 SLP207 T00391028=
200603070952 METAR KATL 070952Z 32013KT 10SM CLR 05/M02 A3011 RMK AO2 SLP195 T00501017=
200603070852 METAR KATL 070852Z 32012G15KT 9SM CLR 06/M01 A3009 RMK AO2 SLP189 T00611006 51010=
200603070752 METAR KATL 070752Z 33012KT 9SM CLR 07/M01 A3008 RMK AO2 SLP185 T00721006=
200603070652 METAR KATL 070652Z 34012KT 10SM CLR 08/01 A3008 RMK AO2 SLP184 T00830006=
200603070552 METAR KATL 070552Z 32012KT 10SM CLR 09/00 A3006 RMK AO2 SLP178 T00940000 10150 20089 51003=
200603070452 METAR KATL 070452Z 31005KT 10SM FEW075 09/01 A3006 RMK AO2 SLP179 T00940006 402060089=
200603070352 METAR KATL 070352Z 29007KT 10SM FEW080 11/01 A3006 RMK AO2 SLP179 T01060006=
200603070252 METAR KATL 070252Z 29008KT 10SM FEW080 12/01 A3005 RMK AO2 SLP177 T01170006 51010=
200603070152 METAR KATL 070152Z 29010KT 10SM FEW250 12/00 A3005 RMK AO2 SLP175 T01220000=
200603070052 METAR KATL 070052Z 28012KT 10SM FEW250 13/M01 A3004 RMK AO2 SLP172 T01331006=
200603062352 METAR KATL 062352Z 28013KT 10SM FEW250 15/00 A3002 RMK AO2 SLP167 T01500000 10206 20150 53018=
200603062252 METAR KATL 062252Z 30017G23KT 10SM CLR 17/M01 A3000 RMK AO2 SLP159 T01671011=
200603062152 METAR KATL 062152Z 29017G28KT 10SM FEW240 19/M03 A2999 RMK AO2 PK WND 29028/2147 SLP152 T01891028=
200603062052 METAR KATL 062052Z 30021KT 10SM FEW240 20/M01 A2997 RMK AO2 SLP146 T02001011 56018=
200603061952 METAR KATL 061952Z COR 27018G22KT 10SM FEW075 FEW240 20/00 A2998 RMK AO2 PK WND 28026/1900 SLP150 T02000000=
200603061852 METAR KATL 061852Z 29015G20KT 10SM FEW065 20/02 A3000 RMK AO2 SLP154 T02000022=
200603061752 METAR KATL 061752Z 29013G20KT 10SM FEW055 19/05 A3002 RMK AO2 SLP163 T01890050 10194 20089 58013=
200603061652 METAR KATL 061652Z 29010G17KT 260V330 10SM FEW035 17/08 A3005 RMK AO2 SLP172 T01670078=
200603061552 METAR KATL 061552Z 29013KT 10SM FEW030 15/08 A3006 RMK AO2 SLP175 T01500078=
200603061452 METAR KATL 061452Z 30015G21KT 10SM FEW030 13/08 A3006 RMK AO2 SLP179 T01330078 53002=
200603061352 METAR KATL 061352Z 29012KT 9SM FEW024 12/07 A3006 RMK AO2 SLP177 T01170072=
200603061252 METAR KATL 061252Z 27007KT 8SM FEW042 SCT250 09/07 A3005 RMK AO2 SLP177 T00940067=
200603061152 METAR KATL 061152Z 26008KT 10SM FEW048 SCT100 BKN250 09/06 A3006 RMK AO2 SLP178 60002 70002 T00890061 10139 20089 55005=
200603061052 METAR KATL 061052Z 25007KT 10SM BKN048 BKN100 BKN200 10/07 A3004 RMK AO2 SLP171 T01000067=
200603060952 METAR KATL 060952Z 24006KT 10SM BKN036 OVC060 11/06 A3006 RMK AO2 SLP176 T01060061=
200603060852 METAR KATL 060852Z 25006KT 10SM BKN060 OVC080 11/06 A3007 RMK AO2 RAE05 SLP181 P0000 60002 T01060061 58009=
200603060752 METAR KATL 060752Z 23010G17KT 10SM -RA SCT065 BKN090 OVC200 11/06 A3005 RMK AO2 SLP173 P0002 T01110061=
200603060652 METAR KATL 060652Z 31018KT 10SM -RA SCT065 OVC090 14/01 A3013 RMK AO2 RAB47 SLP202 P0000 T01390006=
200603060552 METAR KATL 060552Z 28006KT 10SM BKN085 BKN120 13/01 A3010 RMK AO2 RAE10 SLP192 P0000 60000 T01330006 10167 20133 55012=
200603060452 METAR KATL 060452Z 22004KT 10SM -RA OVC090 14/00 A3010 RMK AO2 RAB51 SLP190 PCPN VRY LGT P0000 T01390000 401890033=
200603060352 METAR KATL 060352Z 25006KT 10SM OVC110 14/M01 A3013 RMK AO2 SLP202 T01441006=
200603060252 METAR KATL 060252Z 21004KT 10SM BKN120 14/00 A3014 RMK AO2 SLP205 T01390000 58004=
200603060152 METAR KATL 060152Z 00000KT 10SM SCT120 SCT250 15/M03 A3014 RMK AO2 SLP208 T01501028=
200603060052 METAR KATL 060052Z 00000KT 10SM FEW120 SCT160 SCT250 16/M02 A3014 RMK AO2 SLP208 T01561017=
200603052352 METAR KATL 052352Z 19004KT 10SM SCT120 17/M02 A3015 RMK AO2 SLP210 T01671017 10189 20144 56012=
200603052252 METAR KATL 052252Z 22005KT 10SM FEW095 SCT160 BKN250 18/M04 A3015 RMK AO2 SLP212 T01831039=
200603052152 METAR KATL 052152Z 24005KT 10SM FEW095 BKN160 BKN230 BKN260 19/M04 A3017 RMK AO2 SLP215 T01891039=
200603052052 METAR KATL 052052Z 20006KT 10SM SCT160 BKN230 BKN260 18/M06 A3018 RMK AO2 SLP222 T01781056 56027=
200603051952 METAR KATL 051952Z 22006KT 10SM SCT160 SCT230 17/M07 A3020 RMK AO2 SLP227 T01721072=
200603051852 METAR KATL 051852Z 00000KT 10SM CLR 16/M08 A3023 RMK AO2 SLP236 T01561078=
200603051752 METAR KATL 051752Z 00000KT 10SM CLR 14/M09 A3027 RMK AO2 SLP251 T01391089 10139 20039 58014=
200603051652 METAR KATL 051652Z VRB03KT 10SM CLR 13/M07 A3029 RMK AO2 SLP259 T01281072=
200603051552 METAR KATL 051552Z VRB06KT 10SM CLR 11/M08 A3030 RMK AO2 SLP263 T01111083=
200603051452 METAR KATL 051452Z 11007KT 10SM CLR 10/M08 A3031 RMK AO2 SLP266 T01001083 50010=
200603051352 METAR KATL 051352Z 09005KT 10SM CLR 08/M07 A3032 RMK AO2 SLP271 T00831072=
200603051252 METAR KATL 051252Z 00000KT 10SM CLR 06/M02 A3030 RMK AO2 SLP263 T00561022=
200603051152 METAR KATL 051152Z 00000KT 10SM CLR 04/M04 A3028 RMK AO2 SLP258 T00391044 10078 20033 53011=
200603051052 METAR KATL 051052Z 00000KT 10SM CLR 04/M04 A3027 RMK AO2 SLP254 T00391044=
200603050952 METAR KATL 050952Z 30004KT 10SM CLR 05/M05 A3026 RMK AO2 SLP248 T00501050=
200603050852 METAR KATL 050852Z 30006KT 10SM CLR 04/M04 A3025 RMK AO2 SLP245 T00441044 58001=
200603050752 METAR KATL 050752Z 32005KT 10SM CLR 05/M04 A3026 RMK AO2 SLP247 T00501044=
200603050652 METAR KATL 050652Z 33005KT 10SM FEW095 07/M06 A3025 RMK AO2 SLP244 T00721056=
200603050552 METAR KATL 050552Z 33005KT 10SM SCT100 07/M05 A3025 RMK AO2 SLP246 T00721050 10117 20061 58002=
200603050452 METAR KATL 050452Z 31007KT 10SM SCT100 SCT150 07/M06 A3026 RMK AO2 SLP250 T00671056 401610000=
200603050352 METAR KATL 050352Z 31006KT 10SM FEW150 07/M06 A3027 RMK AO2 SLP253 T00721056=
200603050252 METAR KATL 050252Z 31007KT 10SM FEW150 08/M06 A3026 RMK AO2 SLP251 T00831061 51012=
200603050152 METAR KATL 050152Z 32008KT 10SM CLR 09/M07 A3025 RMK AO2 SLP248 T00891072=
200603050052 METAR KATL 050052Z 32006KT 10SM FEW180 11/M09 A3024 RMK AO2 SLP247 T01061089=
200603042352 METAR KATL 042352Z 33009KT 10SM CLR 12/M11 A3022 RMK AO2 SLP240 T01171106 10161 20117 53003=
200603042252 METAR KATL 042252Z 31011KT 10SM CLR 14/M09 A3021 RMK AO2 SLP235 T01391089=
200603042152 METAR KATL 042152Z 29012KT 10SM FEW170 15/M08 A3021 RMK AO2 SLP234 T01501078=
200603042052 METAR KATL 042052Z 33009G16KT 10SM FEW170 16/M08 A3022 RMK AO2 SLP235 T01561078 56018=
200603041952 METAR KATL 041952Z 34006KT 10SM CLR 14/M08 A3022 RMK AO2 SLP236 T01441078=
200603041852 METAR KATL 041852Z 29008KT 10SM CLR 14/M06 A3024 RMK AO2 SLP244 T01391056=
200603041752 METAR KATL 041752Z 31007KT 10SM CLR 12/M07 A3027 RMK AO2 SLP253 T01221067 10122 20000 58010=
200603041652 METAR KATL 041652Z VRB05KT 10SM CLR 11/M06 A3029 RMK AO2 SLP259 T01061056=
200603041552 METAR KATL 041552Z 00000KT 10SM CLR 08/M06 A3029 RMK AO2 SLP261 T00831061=
200603041452 METAR KATL 041452Z 08005KT 10SM CLR 07/M07 A3030 RMK AO2 SLP266 T00671067 53017=
200603041352 METAR KATL 041352Z 36005KT 10SM CLR 04/M06 A3028 RMK AO2 SLP260 T00441056=
200603041252 METAR KATL 041252Z 31004KT 10SM CLR 01/M04 A3026 RMK AO2 SLP254 T00111044=
200603041152 METAR KATL 041152Z 34004KT 10SM CLR 01/M05 A3025 RMK AO2 SLP249 T00061050 10044 20000 53014=
200603041052 METAR KATL 041052Z 34006KT 10SM CLR 01/M04 A3023 RMK AO2 SLP243 T00111044=
200603040952 METAR KATL 040952Z 34006KT 10SM CLR 01/M04 A3022 RMK AO2 SLP238 T00111044=
200603040852 METAR KATL 040852Z 33009KT 10SM CLR 02/M04 A3021 RMK AO2 SLP233 T00171039 51003=
200603040752 METAR KATL 040752Z 33007KT 10SM CLR 03/M04 A3020 RMK AO2 SLP231 T00281044=
200603040652 METAR KATL 040652Z 34010KT 10SM CLR 04/M04 A3020 RMK AO2 SLP230 T00391044=
200603040552 METAR KATL 040552Z 33010KT 10SM CLR 04/M04 A3020 RMK AO2 SLP229 T00441039 10094 20044 53010=
200603040452 METAR KATL 040452Z 34013KT 10SM CLR 06/M04 A3018 RMK AO2 SLP223 T00561044 401330050=
200603040352 METAR KATL 040352Z 32012KT 10SM CLR 06/M03 A3018 RMK AO2 SLP222 T00561033=
200603040252 METAR KATL 040252Z 33013KT 10SM CLR 07/M03 A3017 RMK AO2 SLP219 T00671028 51014=
200603040152 METAR KATL 040152Z 34016KT 10SM CLR 08/M03 A3016 RMK AO2 SLP217 T00781028=
200603040052 METAR KATL 040052Z 34014G20KT 10SM CLR 08/M03 A3015 RMK AO2 SLP213 T00831033=
200603032352 METAR KATL 032352Z 32014G21KT 10SM CLR 09/M03 A3012 RMK AO2 SLP204 T00941033 10133 20094 53012=
200603032252 METAR KATL 032252Z 31016KT 10SM CLR 11/M02 A3010 RMK AO2 SLP196 T01111022=
200603032152 METAR KATL 032152Z 33015G20KT 10SM CLR 12/M02 A3009 RMK AO2 SLP190 T01221022=
200603032052 METAR KATL 032052Z 31012G18KT 10SM CLR 13/M01 A3009 RMK AO2 SLP189 T01281011 55002=
200603031952 METAR KATL 031952Z 31017G22KT 10SM FEW200 13/M01 A3009 RMK AO2 PK WND 31026/1903 SLP188 T01331011=
200603031852 METAR KATL 031852Z 33021G24KT 10SM SCT200 13/M02 A3009 RMK AO2 SLP188 T01281017=
200603031752 METAR KATL 031752Z 32016G20KT 10SM FEW200 12/M01 A3010 RMK AO2 SLP191 T01221011 10122 20067 50006=
200603031652 METAR KATL 031652Z 32013G21KT 10SM FEW200 11/M01 A3010 RMK AO2 SLP192 T01061011=
200603031552 METAR KATL 031552Z 30011KT 10SM FEW200 09/M01 A3009 RMK AO2 SLP190 T00941011=
200603031452 METAR KATL 031452Z 32012KT 10SM BKN200 07/M02 A3008 RMK AO2 SLP186 T00721017 53024=
200603031352 METAR KATL 031352Z 31015KT 10SM SCT200 07/M01 A3006 RMK AO2 PK WND 32027/1310 SLP180 T00721011=
200603031252 METAR KATL 031252Z 32015G24KT 10SM FEW200 07/M01 A3002 RMK AO2 SLP164 T00671011=
200603031152 METAR KATL 031152Z 32018KT 10SM FEW150 SCT250 08/M01 A3000 RMK AO2 SLP159 T00781011 10133 20078 51014=
200603031052 METAR KATL 031052Z 32015G18KT 10SM FEW150 SCT250 09/M01 A2999 RMK AO2 SLP155 T00891006=
200603030952 METAR KATL 030952Z 33012KT 10SM FEW150 SCT250 10/M01 A2998 RMK AO2 SLP149 T01001006=
200603030852 METAR KATL 030852Z 33012G19KT 10SM FEW150 SCT250 11/M01 A2996 RMK AO2 SLP144 T01111011 50002=
200603030752 METAR KATL 030752Z 31012KT 10SM FEW250 12/M02 A2997 RMK AO2 SLP147 T01171017=
200603030652 METAR KATL 030652Z 31010KT 10SM SCT250 12/M01 A2997 RMK AO2 SLP145 T01171011=
200603030552 METAR KATL 030552Z 30007KT 10SM CLR 12/00 A2996 RMK AO2 SLP142 T01220000 10189 20122 51005=
200603030452 METAR KATL 030452Z 28006KT 10SM CLR 13/03 A2995 RMK AO2 SLP139 T01330028 402110133=
200603030352 METAR KATL 030352Z 28008KT 10SM CLR 14/09 A2995 RMK AO2 SLP140 T01440089=
200603030252 METAR KATL 030252Z 26009KT 8SM FEW230 16/12 A2994 RMK AO2 SLP135 T01610122 53014=
200603030152 METAR KATL 030152Z 26009KT 8SM FEW230 17/12 A2992 RMK AO2 SLP130 T01720122=
200603030052 METAR KATL 030052Z 25008KT 9SM FEW230 17/12 A2991 RMK AO2 SLP125 T01720122=
200603022352 METAR KATL 022352Z 25007KT 9SM SCT230 19/12 A2990 RMK AO2 SLP120 T01890117 10211 20167 53004=
200603022252 METAR KATL 022252Z 28011KT 10SM FEW040 SCT230 20/12 A2989 RMK AO2 SLP116 T02000117=
200603022152 METAR KATL 022152Z 26013G19KT 9SM SCT037 SCT230 21/12 A2988 RMK AO2 SLP113 T02060122=
200603022052 METAR KATL 022052Z 26011G18KT 8SM BKN035 20/13 A2988 RMK AO2 SLP115 T02000128 55012=
200603022024 SPECI KATL 022024Z 27011G17KT 8SM SCT025 BKN035 BKN090 20/13 A2989 RMK AO2=
200603022024 SPECI KATL 022024Z 27011G17KT 8SM SCT025 BKN035 BKN090 20/13 A2989 RMK AO2=
200603021952 METAR KATL 021952Z 25011G19KT 8SM BKN026 BKN035 19/13 A2988 RMK AO2 SLP114 T01940133=
200603021852 METAR KATL 021852Z 24011KT 7SM FEW017 BKN036 19/14 A2988 RMK AO2 SLP115 T01890139=
200603021841 SPECI KATL 021841Z 25010KT 7SM FEW014 SCT025 BKN036 18/14 A2989 RMK AO2=
200603021841 SPECI KATL 021841Z 25010KT 7SM FEW014 SCT025 BKN036 18/14 A2989 RMK AO2=
200603021825 SPECI KATL 021825Z 23010KT 6SM HZ SCT014 BKN025 OVC030 17/14 A2990 RMK AO2=
200603021825 SPECI KATL 021825Z 23010KT 6SM HZ SCT014 BKN025 OVC030 17/14 A2990 RMK AO2=
200603021752 METAR KATL 021752Z 24009KT 6SM HZ BKN012 BKN015 OVC025 17/14 A2992 RMK AO2 DZE48 SLP129 P0000 60000 T01670139 10167 20139 55001=
200603021652 METAR KATL 021652Z 23010KT 4SM -DZ BR OVC012 16/13 A2992 RMK AO2 SLP129 P0000 T01560133=
200603021552 METAR KATL 021552Z COR 23011KT 6SM -DZ BR OVC014 16/14 A2992 RMK AO2 DZB47 SLP128 P0000 T01610139=
200603021452 METAR KATL 021452Z 24011KT 7SM OVC014 16/12 A2992 RMK AO2 SLP131 T01560122 53006=
200603021352 METAR KATL 021352Z 24012KT 8SM OVC014 15/12 A2992 RMK AO2 SLP130 T01500117=
200603021252 METAR KATL 021252Z 24010KT 8SM FEW014 OVC020 14/12 A2990 RMK AO2 SLP122 T01390117=
200603021152 METAR KATL 021152Z 24011KT 9SM OVC016 14/11 A2991 RMK AO2 SLP123 T01390111 10156 20139 56008=
200603021117 SPECI KATL 021117Z 23012KT 9SM BKN016 BKN250 14/11 A2991 RMK AO2=
200603021117 SPECI KATL 021117Z 23012KT 9SM BKN016 BKN250 14/11 A2991 RMK AO2=
200603021052 METAR KATL 021052Z 23012KT 10SM FEW016 SCT250 14/11 A2991 RMK AO2 SLP125 T01390111=
200603021006 SPECI KATL 021006Z 24009KT 10SM SCT017 SCT250 14/11 A2991 RMK AO2=
200603021006 SPECI KATL 021006Z 24009KT 10SM SCT017 SCT250 14/11 A2991 RMK AO2=
200603020952 METAR KATL 020952Z 24010KT 10SM OVC017 14/11 A2991 RMK AO2 SLP125 T01440111=
200603020852 METAR KATL 020852Z 24011G17KT 10SM OVC017 14/11 A2993 RMK AO2 SLP131 T01440111 51000=
200603020819 SPECI KATL 020819Z 24009KT 10SM BKN017 14/11 A2993 RMK AO2=
200603020819 SPECI KATL 020819Z 24009KT 10SM BKN017 14/11 A2993 RMK AO2=
200603020752 METAR KATL 020752Z 24013KT 10SM FEW250 15/11 A2993 RMK AO2 SLP130 T01500106=
200603020652 METAR KATL 020652Z 23012KT 10SM FEW250 15/09 A2993 RMK AO2 SLP132 T01500094=
200603020552 METAR KATL 020552Z 22009KT 10SM SCT250 14/07 A2993 RMK AO2 SLP131 T01440067 10189 20144 58009=
200603020452 METAR KATL 020452Z 21007KT 10SM FEW250 15/06 A2994 RMK AO2 SLP134 T01500061 402170100=
200603020352 METAR KATL 020352Z 22005KT 10SM SCT250 15/06 A2995 RMK AO2 SLP140 T01500061=
200603020252 METAR KATL 020252Z 22005KT 10SM SCT250 16/06 A2996 RMK AO2 SLP141 T01560061 51005=
200603020152 METAR KATL 020152Z 21006KT 10SM FEW250 16/06 A2995 RMK AO2 SLP141 T01610061=
200603020052 METAR KATL 020052Z 21007KT 10SM FEW250 18/07 A2996 RMK AO2 SLP144 T01780067=
200603012352 METAR KATL 012352Z 21006KT 10SM FEW250 19/06 A2994 RMK AO2 SLP137 T01890061 10217 20189 55003=
200603012252 METAR KATL 012252Z 22010KT 10SM SCT200 SCT250 21/06 A2994 RMK AO2 SLP135 T02060056=
200603012152 METAR KATL 012152Z 21012KT 10SM FEW200 SCT250 21/08 A2994 RMK AO2 SLP136 T02110083=
200603012052 METAR KATL 012052Z 21011KT 10SM FEW050 SCT200 BKN250 21/08 A2995 RMK AO2 SLP140 T02110083 56024=
200603011952 METAR KATL 011952Z 25009KT 10SM FEW045 SCT180 BKN250 21/09 A2997 RMK AO2 SLP145 T02110094=
200603011852 METAR KATL 011852Z 23006KT 10SM SCT042 BKN250 21/11 A3000 RMK AO2 SLP155 T02060106=
200603011752 METAR KATL 011752Z 22006KT 10SM FEW035 SCT045 BKN250 20/11 A3003 RMK AO2 SLP165 T02000106 10206 20100 58012=
200603011652 METAR KATL 011652Z 23011KT 10SM FEW040 SCT250 19/10 A3006 RMK AO2 SLP177 T01940100=
200603011552 METAR KATL 011552Z 27012KT 10SM FEW040 SCT180 BKN250 18/10 A3007 RMK AO2 SLP179 T01780100=
200603011452 METAR KATL 011452Z 25009KT 10SM BKN042 BKN250 16/09 A3007 RMK AO2 SLP179 T01610094 53006=
200603011352 METAR KATL 011352Z 23007KT 9SM SCT250 12/08 A3006 RMK AO2 SLP178 T01220078=
200603011252 METAR KATL 011252Z 23007KT 9SM SCT250 10/07 A3005 RMK AO2 SLP173 T01000067=
