##########################################################
# Query made at 04/19/2024 22:54:45 UTC
# Time interval: from 02/01/2006 12:00  to 02/28/2006 12:59  UTC
##########################################################

##########################################################
# KATL, Atlanta, Hartsfield - Jackson Atlanta International Airport (United States)
# WMO index: 72219. WIGOS ID: 0-20000-0-72219
# Latitude 33-38-59N. Longitude 084-25-00W. Altitude 312 m.
##########################################################

200602281252 METAR KATL 281252Z 25007KT 10SM FEW150 SCT200 BKN250 07/M01 A3011 RMK AO2 SLP200 T00721011=
200602281152 METAR KATL 281152Z 24004KT 10SM FEW150 SCT250 06/M03 A3011 RMK AO2 SLP199 T00561028 10089 20050 50002=
200602281052 METAR KATL 281052Z 27007KT 10SM FEW150 SCT250 05/M03 A3012 RMK AO2 SLP201 T00501028=
200602280952 METAR KATL 280952Z 26007KT 10SM FEW150 BKN250 06/M03 A3011 RMK AO2 SLP198 T00611033=
200602280852 METAR KATL 280852Z 24005KT 10SM FEW150 BKN250 07/M04 A3011 RMK AO2 SLP197 T00671039 50001=
200602280752 METAR KATL 280752Z 26006KT 10SM FEW120 SCT250 06/M04 A3011 RMK AO2 SLP198 T00611039=
200602280652 METAR KATL 280652Z 24008KT 10SM FEW120 SCT250 08/M04 A3012 RMK AO2 SLP200 T00781044=
200602280552 METAR KATL 280552Z 24009KT 10SM BKN250 09/M05 A3010 RMK AO2 SLP196 T00891050 10117 20083 58008=
200602280452 METAR KATL 280452Z 24011KT 10SM BKN250 09/M05 A3013 RMK AO2 SLP205 T00891050 401391022=
200602280352 METAR KATL 280352Z 24010KT 10SM SCT250 09/M04 A3014 RMK AO2 SLP208 T00891044=
200602280252 METAR KATL 280252Z 23010KT 10SM FEW250 09/M05 A3013 RMK AO2 SLP206 T00891050 58001=
200602280152 METAR KATL 280152Z 23012KT 10SM FEW250 10/M05 A3014 RMK AO2 SLP210 T01001050=
200602280052 METAR KATL 280052Z 22007KT 10SM FEW250 11/M04 A3014 RMK AO2 SLP213 T01061044=
200602272352 METAR KATL 272352Z 22006KT 10SM FEW250 12/M04 A3013 RMK AO2 SLP209 T01171044 10139 20106 55011=
200602272252 METAR KATL 272252Z 22012KT 10SM FEW200 SCT250 13/M05 A3013 RMK AO2 SLP207 T01281050=
200602272152 METAR KATL 272152Z 22012KT 10SM FEW200 BKN250 14/M06 A3014 RMK AO2 SLP210 T01391056=
200602272052 METAR KATL 272052Z 20010KT 10SM SCT200 BKN250 13/M06 A3017 RMK AO2 SLP220 T01331056 56035=
200602271952 METAR KATL 271952Z COR 25010KT 10SM FEW080 FEW150 SCT200 BKN250 14/M06 A3019 RMK AO2 WSHFT 1908 SLP228 ACSL DSNT NW-N T01391056=
200602271928 SPECI KATL 271928Z VRB05KT 10SM FEW080 SCT150 BKN250 13/M07 A3021 RMK AO2 WSHFT 1908 $=
200602271928 SPECI KATL 271928Z VRB05KT 10SM FEW080 SCT150 BKN250 13/M07 A3021 RMK AO2 WSHFT 1908 $=
200602271852 METAR KATL 271852Z 27008KT 10SM FEW080 SCT150 SCT250 12/M07 A3023 RMK AO2 SLP241 T01221072=
200602271752 METAR KATL 271752Z 21007KT 10SM FEW080 SCT250 11/M08 A3027 RMK AO2 SLP257 T01061078 10111 21022 58021=
200602271652 METAR KATL 271652Z 21005KT 10SM FEW250 09/M09 A3030 RMK AO2 SLP268 T00891094=
200602271552 METAR KATL 271552Z 27004KT 10SM FEW250 07/M11 A3033 RMK AO2 SLP277 T00671111=
200602271452 METAR KATL 271452Z VRB06KT 10SM FEW250 05/M13 A3034 RMK AO2 SLP280 T00501128 51010=
200602271352 METAR KATL 271352Z 35006KT 10SM FEW250 02/M13 A3033 RMK AO2 SLP278 T00221133=
200602271252 METAR KATL 271252Z 00000KT 10SM FEW250 M01/M12 A3031 RMK AO2 SLP274 T10061122=
200602271152 METAR KATL 271152Z 32006KT 10SM CLR M02/M12 A3030 RMK AO2 SLP271 T10221122 11006 21022 53001=
200602271052 METAR KATL 271052Z 33008KT 10SM CLR M02/M12 A3029 RMK AO2 SLP265 T10171122=
200602270952 METAR KATL 270952Z 33007KT 10SM FEW250 M02/M12 A3029 RMK AO2 SLP264 T10171117=
200602270852 METAR KATL 270852Z 32009KT 10SM CLR M02/M12 A3030 RMK AO2 SLP268 T10171117 58001=
200602270752 METAR KATL 270752Z 32009KT 10SM CLR M01/M12 A3033 RMK AO2 SLP277 T10111117=
200602270652 METAR KATL 270652Z 32010KT 10SM CLR M01/M11 A3032 RMK AO2 SLP273 T10111111=
200602270552 METAR KATL 270552Z 31007KT 10SM CLR M01/M12 A3030 RMK AO2 SLP269 T10061117 10044 21006 58006=
200602270452 METAR KATL 270452Z 31007KT 10SM CLR 00/M11 A3032 RMK AO2 SLP273 T00001111 400890000=
200602270352 METAR KATL 270352Z 30004KT 10SM CLR 02/M13 A3033 RMK AO2 SLP277 T00171133=
200602270252 METAR KATL 270252Z COR 33006KT 10SM CLR 02/M14 A3032 RMK AO2 SLP275 T00221139 50013=
200602270152 METAR KATL 270152Z 34008KT 10SM CLR 03/M14 A3033 RMK AO2 SLP277 T00331139=
200602270052 METAR KATL 270052Z 34009KT 10SM FEW250 04/M14 A3031 RMK AO2 SLP271 T00391139=
200602262352 METAR KATL 262352Z 32010KT 10SM FEW250 04/M11 A3028 RMK AO2 SLP261 T00441106 10089 20044 53008=
200602262252 METAR KATL 262252Z 32015KT 10SM CLR 06/M10 A3027 RMK AO2 SLP256 T00611100=
200602262152 METAR KATL 262152Z 32014KT 10SM FEW260 08/M11 A3026 RMK AO2 SLP251 T00781111=
200602262052 METAR KATL 262052Z 34019G24KT 10SM FEW260 08/M10 A3026 RMK AO2 SLP250 T00831100 55007=
200602261952 METAR KATL 261952Z 34018G21KT 10SM FEW260 09/M07 A3025 RMK AO2 SLP246 T00891072=
200602261852 METAR KATL 261852Z 34013G20KT 10SM FEW260 08/M07 A3025 RMK AO2 SLP248 T00781072=
200602261752 METAR KATL 261752Z 33018KT 10SM FEW260 07/M06 A3028 RMK AO2 PK WND 31027/1711 SLP257 T00671061 10072 20011 53017=
200602261652 METAR KATL 261652Z 33021G26KT 10SM CLR 07/M06 A3026 RMK AO2 PK WND 33026/1652 SLP251 T00671056=
200602261552 METAR KATL 261552Z 32021G25KT 10SM CLR 05/M06 A3024 RMK AO2 SLP243 T00501056=
200602261452 METAR KATL 261452Z 33019G25KT 10SM CLR 04/M06 A3023 RMK AO2 SLP240 T00391056 51035=
200602261352 METAR KATL 261352Z 33013KT 10SM CLR 02/M04 A3019 RMK AO2 SLP230 T00221044=
200602261252 METAR KATL 261252Z 33014KT 10SM CLR 01/M05 A3016 RMK AO2 SLP217 T00111050=
200602261152 METAR KATL 261152Z 33013KT 10SM FEW180 02/M04 A3012 RMK AO2 SLP204 70094 T00171044 10083 20011 53026=
200602261052 METAR KATL 261052Z 33011KT 10SM CLR 03/M03 A3008 RMK AO2 SLP191 T00281028=
200602260952 METAR KATL 260952Z 32013KT 10SM CLR 04/M01 A3005 RMK AO2 SLP181 T00441006=
200602260852 METAR KATL 260852Z 32013KT 10SM FEW180 06/02 A3004 RMK AO2 SLP176 T00610017 51013=
200602260752 METAR KATL 260752Z 32013KT 9SM SCT120 08/06 A3003 RMK AO2 SLP171 T00780061=
200602260652 METAR KATL 260652Z 31009KT 7SM FEW002 OVC110 08/07 A3002 RMK AO2 SLP170 T00830072=
200602260552 METAR KATL 260552Z 33010KT 7SM FEW002 SCT055 OVC110 08/07 A3000 RMK AO2 RAE0459 SLP161 P0000 60017 T00830072 10094 20083 58016=
200602260452 METAR KATL 260452Z 00000KT 7SM -RA FEW007 BKN055 OVC090 08/08 A3005 RMK AO2 RAB44 SLP177 P0000 T00830078 401170072=
200602260352 METAR KATL 260352Z 36005KT 9SM FEW009 BKN070 OVC110 09/07 A3005 RMK AO2 RAE42 SLP178 P0000 T00940072=
200602260252 METAR KATL 260252Z 12004KT 9SM -RA FEW009 OVC060 09/07 A3005 RMK AO2 SLP177 P0002 60017 T00890072 58006=
200602260152 METAR KATL 260152Z 03012KT 5SM -RA BR FEW007 BKN060 OVC085 09/08 A3005 RMK AO2 PRESFR SLP177 P0003 T00940078=
200602260133 SPECI KATL 260133Z 01011KT 6SM -RA BR FEW007 BKN034 OVC080 09/08 A3007 RMK AO2 P0002=
200602260133 SPECI KATL 260133Z 01011KT 6SM -RA BR FEW007 BKN034 OVC080 09/08 A3007 RMK AO2 P0002=
200602260052 METAR KATL 260052Z 03011KT 5SM -RA BR SCT009 OVC016 09/08 A3007 RMK AO2 SLP184 P0012 T00940083=
200602260035 SPECI KATL 260035Z 02008KT 6SM -RA BR BKN006 OVC028 09/08 A3008 RMK AO2 P0010=
200602260035 SPECI KATL 260035Z 02008KT 6SM -RA BR BKN006 OVC028 09/08 A3008 RMK AO2 P0010=
200602252359 SPECI KATL 252359Z 03012KT 2 1/2SM RA BR BKN006 BKN030 09/08 A3006 RMK AO2 SFC VIS 3 P0002=
200602252359 SPECI KATL 252359Z 03012KT 2 1/2SM RA BR BKN006 BKN030 09/08 A3006 RMK AO2 SFC VIS 3 P0002=
200602252352 METAR KATL 252352Z 02011KT 2 1/2SM RA BR BKN004 BKN030 09/08 A3007 RMK AO2 SFC VIS 4 SLP183 P0009 60026 T00890083 10094 20083 50005=
200602252347 SPECI KATL 252347Z 02011KT 2 1/2SM -RA BR BKN004 09/08 A3007 RMK AO2 SFC VIS 4 P0008=
200602252347 SPECI KATL 252347Z 02011KT 2 1/2SM -RA BR BKN004 09/08 A3007 RMK AO2 SFC VIS 4 P0008=
200602252252 METAR KATL 252252Z 02008KT 2 1/2SM -RA BR SCT003 BKN007 OVC036 09/08 A3007 RMK AO2 SFC VIS 3 SLP182 P0005 T00940083=
200602252152 METAR KATL 252152Z 04010KT 2 1/2SM -RA BR BKN005 OVC050 09/08 A3005 RMK AO2 SFC VIS 5 SLP177 P0004 T00890083=
200602252130 SPECI KATL 252130Z 03010KT 2SM -RA BR OVC005 09/08 A3005 RMK AO2 SFC VIS 5 CIG 003V007 P0003=
200602252130 SPECI KATL 252130Z 03010KT 2SM -RA BR OVC005 09/08 A3005 RMK AO2 SFC VIS 5 CIG 003V007 P0003=
200602252052 METAR KATL 252052Z 06010KT 2SM -RA BR OVC003 09/08 A3006 RMK AO2 SFC VIS 5 SLP180 P0006 60008 T00890083 56036=
200602251952 METAR KATL 251952Z 06006KT 2SM -RA BR OVC003 09/08 A3010 RMK AO2 SFC VIS 4 SLP194 P0001 T00890078=
200602251852 METAR KATL 251852Z 10006KT 2SM -RA BR OVC003 08/08 A3012 RMK AO2 SFC VIS 6 SLP202 P0001 T00830078=
200602251752 METAR KATL 251752Z 09005KT 2SM -RA BR OVC003 08/08 A3017 RMK AO2 SFC VIS 5 SLP217 P0006 60051 T00830078 10094 20072 58020=
200602251719 SPECI KATL 251719Z 11006KT 2SM -RA BR BKN003 OVC021 08/07 A3017 RMK AO2 SFC VIS 4 P0002=
200602251719 SPECI KATL 251719Z 11006KT 2SM -RA BR BKN003 OVC021 08/07 A3017 RMK AO2 SFC VIS 4 P0002=
200602251704 SPECI KATL 251704Z 11006KT 2SM -RA BR FEW003 OVC023 08/07 A3018 RMK AO2 SFC VIS 4 P0001=
200602251704 SPECI KATL 251704Z 11006KT 2SM -RA BR FEW003 OVC023 08/07 A3018 RMK AO2 SFC VIS 4 P0001=
200602251652 METAR KATL 251652Z 10006KT 3SM -RA BR FEW003 BKN019 OVC048 08/07 A3019 RMK AO2 SFC VIS 4 SLP225 P0011 T00780072=
200602251552 METAR KATL 251552Z 08006KT 3SM RA BR FEW015 OVC023 08/07 A3023 RMK AO2 SFC VIS 5 SLP237 P0015 T00780067=
200602251518 SPECI KATL 251518Z 06006KT 3SM RA BR FEW017 OVC027 08/06 A3023 RMK AO2 SFC VIS 4 P0006=
200602251518 SPECI KATL 251518Z 06006KT 3SM RA BR FEW017 OVC027 08/06 A3023 RMK AO2 SFC VIS 4 P0006=
200602251452 METAR KATL 251452Z 06007KT 3SM -RA BKN033 OVC065 08/05 A3023 RMK AO2 SFC VIS 6 SLP237 P0008 60019 T00780050 50005=
200602251426 SPECI KATL 251426Z 06007KT 3SM RA OVC027 08/05 A3022 RMK AO2 SFC VIS 6 P0005=
200602251426 SPECI KATL 251426Z 06007KT 3SM RA OVC027 08/05 A3022 RMK AO2 SFC VIS 6 P0005=
200602251352 METAR KATL 251352Z 05003KT 3SM -RA SCT035 SCT041 OVC055 08/06 A3024 RMK AO2 SFC VIS 7 SLP241 P0007 T00830056=
200602251252 METAR KATL 251252Z 30003KT 3SM -RA FEW037 BKN049 OVC060 08/04 A3024 RMK AO2 SFC VIS 5 SLP241 P0004 T00830039=
200602251152 METAR KATL 251152Z 00000KT 10SM -RA FEW047 OVC060 09/01 A3021 RMK AO2 RAB16 SLP231 P0001 60001 70001 T00940011 10117 20094 56005=
200602251052 METAR KATL 251052Z 21003KT 10SM FEW034 OVC090 11/M06 A3023 RMK AO2 SLP234 T01111056=
200602250952 METAR KATL 250952Z 17007KT 10SM OVC100 11/M04 A3020 RMK AO2 SLP226 T01061039=
200602250852 METAR KATL 250852Z 17005KT 10SM BKN110 11/M03 A3023 RMK AO2 SLP236 T01111028 58008=
200602250752 METAR KATL 250752Z 18007KT 10SM OVC120 11/M02 A3025 RMK AO2 SLP243 T01111022=
200602250652 METAR KATL 250652Z 18008KT 10SM BKN120 11/M02 A3025 RMK AO2 SLP243 T01111022=
200602250552 METAR KATL 250552Z 17010KT 10SM FEW120 SCT150 OVC200 12/M03 A3025 RMK AO2 SLP244 T01171028 10150 20117 58004=
200602250452 METAR KATL 250452Z 16005KT 10SM FEW120 BKN150 OVC200 12/M03 A3026 RMK AO2 SLP247 T01221033 401780028=
200602250352 METAR KATL 250352Z 14005KT 10SM FEW120 BKN150 OVC250 12/M04 A3027 RMK AO2 SLP250 T01221044=
200602250252 METAR KATL 250252Z 12004KT 10SM FEW120 BKN150 BKN250 13/M05 A3027 RMK AO2 SLP249 T01331050 50004=
200602250152 METAR KATL 250152Z 12005KT 10SM OVC150 14/M07 A3027 RMK AO2 SLP250 BINOVC T01441067=
200602250052 METAR KATL 250052Z 11004KT 10SM OVC140 15/M07 A3026 RMK AO2 SLP249 T01501072=
200602242352 METAR KATL 242352Z 13004KT 10SM BKN140 BKN200 BKN250 16/M07 A3025 RMK AO2 SLP247 T01561067 10178 20156 55006=
200602242252 METAR KATL 242252Z 17004KT 10SM FEW120 SCT150 BKN200 BKN250 17/M08 A3025 RMK AO2 SLP244 T01671083=
200602242152 METAR KATL 242152Z 09006KT 10SM FEW150 SCT250 BKN280 17/M07 A3025 RMK AO2 SLP246 T01671072=
200602242052 METAR KATL 242052Z 00000KT 10SM FEW150 SCT250 BKN280 17/M08 A3027 RMK AO2 SLP252 T01671078 56024=
200602241952 METAR KATL 241952Z 06007KT 030V150 10SM FEW150 SCT250 SCT280 17/M07 A3028 RMK AO2 SLP255 T01671072=
200602241852 METAR KATL 241852Z 06007KT 10SM FEW150 SCT250 SCT280 16/M04 A3031 RMK AO2 SLP264 T01611044=
200602241752 METAR KATL 241752Z 03007KT 10SM FEW150 BKN250 BKN280 16/M04 A3034 RMK AO2 SLP277 T01561039 10156 20033 58007=
200602241652 METAR KATL 241652Z 04008KT 10SM SCT150 BKN250 BKN280 14/M06 A3036 RMK AO2 SLP282 T01391056=
200602241552 METAR KATL 241552Z 05009KT 10SM FEW150 SCT250 BKN280 13/M04 A3036 RMK AO2 SLP285 T01281039=
200602241452 METAR KATL 241452Z 36008KT 10SM BKN150 BKN250 11/M03 A3037 RMK AO2 SLP285 T01111028 53020=
200602241352 METAR KATL 241352Z 36008KT 10SM BKN150 BKN250 08/M03 A3035 RMK AO2 SLP280 T00781033=
200602241252 METAR KATL 241252Z 34004KT 10SM BKN150 BKN250 05/M03 A3032 RMK AO2 SLP272 T00501033=
200602241152 METAR KATL 241152Z 32007KT 10SM SCT150 BKN250 03/M03 A3031 RMK AO2 SLP268 70001 T00331028 10061 20028 53018=
200602241052 METAR KATL 241052Z 33004KT 10SM BKN150 BKN250 04/M03 A3028 RMK AO2 SLP257 T00441033=
200602240952 METAR KATL 240952Z 34006KT 10SM FEW150 SCT250 04/M03 A3027 RMK AO2 SLP254 T00391033=
200602240852 METAR KATL 240852Z 33007KT 10SM SCT150 SCT250 04/M03 A3025 RMK AO2 SLP247 T00441028 53003=
200602240752 METAR KATL 240752Z 34007KT 10SM BKN150 BKN250 06/M04 A3024 RMK AO2 SLP243 T00611039=
200602240652 METAR KATL 240652Z 33007KT 10SM BKN150 OVC250 06/M03 A3025 RMK AO2 SLP245 T00611028=
200602240552 METAR KATL 240552Z 32006KT 10SM OVC150 06/M03 A3024 RMK AO2 SLP244 T00611028 10106 20061 51008=
200602240452 METAR KATL 240452Z 33006KT 10SM BKN150 BKN250 07/M03 A3023 RMK AO2 SLP241 T00671028 401220061=
200602240352 METAR KATL 240352Z 32006KT 10SM FEW150 SCT250 07/M03 A3023 RMK AO2 SLP240 T00671028=
200602240252 METAR KATL 240252Z 32006KT 10SM FEW150 SCT250 08/M03 A3022 RMK AO2 SLP234 T00831033 51018=
200602240152 METAR KATL 240152Z 31006KT 10SM BKN150 BKN200 BKN250 09/M02 A3020 RMK AO2 SLP228 T00891022=
200602240052 METAR KATL 240052Z 33005KT 10SM BKN150 OVC200 10/M03 A3018 RMK AO2 SLP222 T01001028=
200602232352 METAR KATL 232352Z 32006KT 10SM FEW130 BKN150 OVC200 10/M02 A3016 RMK AO2 SLP215 T01001017 10122 20094 53016=
200602232252 METAR KATL 232252Z 33008KT 10SM BKN150 OVC200 11/M02 A3014 RMK AO2 SLP208 VIRGA N-NE T01111022=
200602232152 METAR KATL 232152Z 32013G18KT 10SM BKN150 BKN180 BKN250 12/M03 A3013 RMK AO2 SLP203 T01171028=
200602232052 METAR KATL 232052Z 32010G17KT 10SM FEW080 SCT120 BKN150 BKN200 12/00 A3011 RMK AO2 SLP198 T01170000 55000=
200602231952 METAR KATL 231952Z 31014KT 10SM FEW120 BKN150 BKN200 12/00 A3010 RMK AO2 SLP195 T01170000=
200602231852 METAR KATL 231852Z 31013KT 10SM FEW120 BKN150 BKN200 10/00 A3011 RMK AO2 SLP196 T01000000=
200602231752 METAR KATL 231752Z 32012KT 10SM FEW120 BKN150 BKN200 09/03 A3011 RMK AO2 SLP198 60001 T00940028 10117 20094 51019=
200602231652 METAR KATL 231652Z 32011KT 10SM FEW100 SCT120 OVC150 09/04 A3011 RMK AO2 SLP197 T00940044=
200602231552 METAR KATL 231552Z 33010KT 10SM FEW020 SCT120 OVC150 10/06 A3009 RMK AO2 SLP189 T01000056=
200602231459 SPECI KATL 231459Z 32011KT 10SM SCT014 SCT100 BKN120 10/08 A3006 RMK AO2=
200602231459 SPECI KATL 231459Z 32011KT 10SM SCT014 SCT100 BKN120 10/08 A3006 RMK AO2=
200602231452 METAR KATL 231452Z 32013KT 10SM BKN014 BKN100 BKN120 10/08 A3006 RMK AO2 SLP179 60001 T01000078 53025=
200602231358 SPECI KATL 231358Z 33014G22KT 10SM FEW008 BKN014 OVC022 11/08 A3003 RMK AO2=
200602231358 SPECI KATL 231358Z 33014G22KT 10SM FEW008 BKN014 OVC022 11/08 A3003 RMK AO2=
200602231352 METAR KATL 231352Z 34010KT 10SM FEW008 SCT014 OVC022 11/09 A3003 RMK AO2 RAE51 SLP168 P0000 T01110094=
200602231334 SPECI KATL 231334Z 32014KT 10SM -RA SCT007 OVC018 11/09 A3003 RMK AO2 P0000=
200602231334 SPECI KATL 231334Z 32014KT 10SM -RA SCT007 OVC018 11/09 A3003 RMK AO2 P0000=
200602231330 SPECI KATL 231330Z 31014KT 10SM -RA SCT007 OVC014 11/09 A3002 RMK AO2 P0000=
200602231330 SPECI KATL 231330Z 31014KT 10SM -RA SCT007 OVC014 11/09 A3002 RMK AO2 P0000=
200602231311 SPECI KATL 231311Z 30011KT 10SM -RA BKN007 OVC014 12/11 A3001 RMK AO2 CIG 004V011 P0000=
200602231311 SPECI KATL 231311Z 30011KT 10SM -RA BKN007 OVC014 12/11 A3001 RMK AO2 CIG 004V011 P0000=
200602231256 SPECI KATL 231256Z 29008KT 10SM -RA FEW007 BKN012 OVC018 12/11 A3001 RMK AO2 P0000=
200602231256 SPECI KATL 231256Z 29008KT 10SM -RA FEW007 BKN012 OVC018 12/11 A3001 RMK AO2 P0000=
200602231252 METAR KATL 231252Z 28008KT 10SM -RA SCT007 OVC015 12/11 A3000 RMK AO2 RAB10 SLP157 P0001 T01170111=
200602231203 SPECI KATL 231203Z 27008KT 10SM FEW005 BKN026 OVC075 12/11 A2999 RMK AO2=
200602231203 SPECI KATL 231203Z 27008KT 10SM FEW005 BKN026 OVC075 12/11 A2999 RMK AO2=
200602231152 METAR KATL 231152Z 27006KT 10SM FEW005 SCT024 OVC075 12/11 A2998 RMK AO2 RAE50 SLP151 P0004 60049 70186 T01170111 10117 20117 53009=
200602231052 METAR KATL 231052Z 27006KT 6SM -RA BR BKN005 BKN015 OVC060 12/11 A2997 RMK AO2 SLP147 P0007 T01170111=
200602231024 SPECI KATL 231024Z 26006KT 6SM -RA BR BKN005 BKN015 OVC060 12/11 A2996 RMK AO2 P0004=
200602231024 SPECI KATL 231024Z 26006KT 6SM -RA BR BKN005 BKN015 OVC060 12/11 A2996 RMK AO2 P0004=
200602231007 SPECI KATL 231007Z 26009KT 2SM -RA BR SCT007 OVC013 12/11 A2997 RMK AO2 SFC VIS 6 P0002=
200602231007 SPECI KATL 231007Z 26009KT 2SM -RA BR SCT007 OVC013 12/11 A2997 RMK AO2 SFC VIS 6 P0002=
200602230952 METAR KATL 230952Z 26007KT 2SM RA BR BKN005 OVC015 12/11 A2996 RMK AO2 SFC VIS 2 1/2 SLP145 P0020 T01170111=
200602230857 SPECI KATL 230857Z 26005KT 2SM RA BR FEW003 BKN007 OVC012 12/11 A2996 RMK AO2 SFC VIS 3 P0002=
200602230857 SPECI KATL 230857Z 26005KT 2SM RA BR FEW003 BKN007 OVC012 12/11 A2996 RMK AO2 SFC VIS 3 P0002=
200602230852 METAR KATL 230852Z 25007KT 2SM RA BR BKN004 OVC012 12/11 A2995 RMK AO2 SFC VIS 2 1/2 SLP142 P0014 60018 T01170111 53001=
200602230844 SPECI KATL 230844Z 26005KT 2SM RA BR SCT004 BKN014 OVC040 12/11 A2995 RMK AO2 SFC VIS 2 1/2 VIS 2V3 P0010=
200602230844 SPECI KATL 230844Z 26005KT 2SM RA BR SCT004 BKN014 OVC040 12/11 A2995 RMK AO2 SFC VIS 2 1/2 VIS 2V3 P0010=
200602230752 METAR KATL 230752Z 20005KT 2SM -RA BR BKN002 BKN018 OVC043 12/11 A2994 RMK AO2 SFC VIS 2 1/2 SLP138 P0003 T01170111=
200602230721 SPECI KATL 230721Z 20005KT 5SM -RA BR BKN002 BKN028 OVC050 12/11 A2995 RMK AO2 P0001=
200602230721 SPECI KATL 230721Z 20005KT 5SM -RA BR BKN002 BKN028 OVC050 12/11 A2995 RMK AO2 P0001=
200602230652 METAR KATL 230652Z 20004KT 4SM -RA BR FEW002 OVC038 12/12 A2995 RMK AO2 SLP142 P0001 T01170117=
200602230552 METAR KATL 230552Z 20005KT 8SM -RA FEW004 SCT045 OVC055 12/12 A2995 RMK AO2 SLP141 P0003 60038 T01170117 10144 20117 58004=
200602230452 METAR KATL 230452Z 20004KT 10SM -RA OVC050 12/11 A2996 RMK AO2 RAB45 SLP143 PCPN VRY LGT P0000 T01220111 401560089=
200602230352 METAR KATL 230352Z 31003KT 10SM BKN055 OVC070 12/11 A2996 RMK AO2 SLP145 T01220111=
200602230252 METAR KATL 230252Z 33007KT 10SM SCT060 OVC085 13/12 A2996 RMK AO2 RAE0153 SLP144 60035 T01280117 52023=
200602230152 METAR KATL 230152Z 34011KT 10SM -RA FEW008 SCT035 OVC055 13/12 A2995 RMK AO2 SLP140 P0002 T01280117=
200602230134 SPECI KATL 230134Z 33014KT 9SM -RA SCT010 BKN030 OVC060 13/12 A2995 RMK AO2 P0002=
200602230134 SPECI KATL 230134Z 33014KT 9SM -RA SCT010 BKN030 OVC060 13/12 A2995 RMK AO2 P0002=
200602230124 SPECI KATL 230124Z 33014G20KT 8SM -RA BKN010 BKN045 OVC070 13/12 A2995 RMK AO2 P0002=
200602230124 SPECI KATL 230124Z 33014G20KT 8SM -RA BKN010 BKN045 OVC070 13/12 A2995 RMK AO2 P0002=
200602230052 METAR KATL 230052Z 35016KT 6SM -RA BR BKN007 BKN015 OVC080 14/13 A2991 RMK AO2 SLP125 P0033 T01440133=
200602230028 SPECI KATL 230028Z 36009KT 1 1/2SM +RA BR FEW004 BKN008 OVC014 14/14 A2989 RMK AO2 TWR VIS 2 1/2 P0014=
200602230028 SPECI KATL 230028Z 36009KT 1 1/2SM +RA BR FEW004 BKN008 OVC014 14/14 A2989 RMK AO2 TWR VIS 2 1/2 P0014=
200602222358 SPECI KATL 222358Z 34007KT 2SM R09R/4500VP6000FT +RA BR FEW004 BKN010 OVC020 14/14 A2989 RMK AO2 TWR VIS 2 1/2 P0006=
200602222358 SPECI KATL 222358Z 34007KT 2SM R09R/4500VP6000FT +RA BR FEW004 BKN010 OVC020 14/14 A2989 RMK AO2 TWR VIS 2 1/2 P0006=
200602222352 METAR KATL 222352Z 34012KT 1SM R09R/4500VP6000FT +RA BR FEW004 BKN008 OVC020 14/14 A2989 RMK AO2 SLP120 P0040 60072 T01440144 10156 20144 55001=
200602222349 SPECI KATL 222349Z 33010KT 1SM R09R/4500VP6000FT +RA BR FEW004 BKN008 OVC020 14/14 A2989 RMK AO2 P0033=
200602222349 SPECI KATL 222349Z 33010KT 1SM R09R/4500VP6000FT +RA BR FEW004 BKN008 OVC020 14/14 A2989 RMK AO2 P0033=
200602222325 SPECI KATL 222325Z 01007KT 7SM -RA FEW004 BKN008 OVC020 15/14 A2988 RMK AO2 P0023=
200602222325 SPECI KATL 222325Z 01007KT 7SM -RA FEW004 BKN008 OVC020 15/14 A2988 RMK AO2 P0023=
200602222317 SPECI KATL 222317Z 02005KT 2 1/2SM -RA BR FEW003 BKN010 OVC025 15/14 A2989 RMK AO2 SFC VIS 4 P0023=
200602222317 SPECI KATL 222317Z 02005KT 2 1/2SM -RA BR FEW003 BKN010 OVC025 15/14 A2989 RMK AO2 SFC VIS 4 P0023=
200602222311 SPECI KATL 222311Z 36003KT 1 1/2SM R09R/5500VP6000FT +RA BR FEW003 SCT007 OVC012 15/14 A2989 RMK AO2 P0022=
200602222311 SPECI KATL 222311Z 36003KT 1 1/2SM R09R/5500VP6000FT +RA BR FEW003 SCT007 OVC012 15/14 A2989 RMK AO2 P0022=
200602222303 SPECI KATL 222303Z VRB03KT 1 1/2SM R09R/6000VP6000FT +RA BR BKN005 BKN009 OVC014 15/14 A2989 RMK AO2 P0006=
200602222303 SPECI KATL 222303Z VRB03KT 1 1/2SM R09R/6000VP6000FT +RA BR BKN005 BKN009 OVC014 15/14 A2989 RMK AO2 P0006=
200602222252 METAR KATL 222252Z 29003KT 2 1/2SM -RA BR BKN007 OVC015 15/14 A2989 RMK AO2 SFC VIS 5 SLP119 CIG 004V009 P0009 T01500144=
200602222152 METAR KATL 222152Z 00000KT 1 1/2SM R09R/5500VP6000FT -RA BR BKN002 BKN005 OVC010 15/15 A2989 RMK AO2 SLP122 P0018 T01500150=
200602222148 SPECI KATL 222148Z 00000KT 1 1/4SM R09R/5500VP6000FT -RA BR BKN002 BKN005 OVC010 15/15 A2990 RMK AO2 TWR VIS 1 1/2 P0017=
200602222148 SPECI KATL 222148Z 00000KT 1 1/4SM R09R/5500VP6000FT -RA BR BKN002 BKN005 OVC010 15/15 A2990 RMK AO2 TWR VIS 1 1/2 P0017=
200602222129 SPECI KATL 222129Z 20003KT 1 1/2SM R09R/5000VP6000FT RA BR BKN005 OVC013 15/14 A2991 RMK AO2 CIG 003V008 P0007=
200602222129 SPECI KATL 222129Z 20003KT 1 1/2SM R09R/5000VP6000FT RA BR BKN005 OVC013 15/14 A2991 RMK AO2 CIG 003V008 P0007=
200602222052 METAR KATL 222052Z 19004KT 2 1/2SM -RA BR BKN007 BKN010 OVC013 15/14 A2991 RMK AO2 SFC VIS 4 RAB26 CIG 004V008 SLP129 P0000 60005 T01500144 56023=
200602221952 METAR KATL 221952Z 22007KT 6SM BR OVC007 16/14 A2992 RMK AO2 RAE1858 CIG 004V010 SLP132 P0000 T01560144=
200602221902 SPECI KATL 221902Z 22003KT 2 1/2SM BR OVC004 15/14 A2994 RMK AO2 SFC VIS 4 RAE1858 P0000=
200602221902 SPECI KATL 221902Z 22003KT 2 1/2SM BR OVC004 15/14 A2994 RMK AO2 SFC VIS 4 RAE1858 P0000=
200602221852 METAR KATL 221852Z COR 23005KT 2 1/2SM R09R/6000VP6000FT -RA BR BKN004 BKN010 OVC040 15/14 A2995 RMK AO2 SFC VIS 4 SLP142 P0005 T01500144=
200602221841 SPECI KATL 221841Z 21005KT 1 1/2SM R09R/6000VP6000FT -RA BR BKN004 OVC010 14/14 A2995 RMK AO2 SFC VIS 1 3/4 CIG 003V007 P0004=
200602221841 SPECI KATL 221841Z 21005KT 1 1/2SM R09R/6000VP6000FT -RA BR BKN004 OVC010 14/14 A2995 RMK AO2 SFC VIS 1 3/4 CIG 003V007 P0004=
200602221752 METAR KATL 221752Z 25005KT 1 1/2SM -RA BR OVC007 15/14 A2998 RMK AO2 SFC VIS 3 CIG 003V010 SLP153 P0012 60027 T01500144 10150 20117 58005=
200602221652 METAR KATL 221652Z 25005KT 1 1/2SM R09R/5500VP6000FT -RA BR BKN005 BKN009 OVC015 14/14 A3000=
200602221552 METAR KATL 221552Z 23007KT 1 1/2SM -RA BR BKN005 BKN010 OVC025 14/14 A3000 RMK AO2 SFC VIS 3 SLP158 P0003 T01440139=
200602221456 SPECI KATL 221456Z 22008KT 1 1/2SM -RA BR OVC007 14/13 A3000 RMK AO2 SFC VIS 4 CIG 004V010 P0000=
200602221456 SPECI KATL 221456Z 22008KT 1 1/2SM -RA BR OVC007 14/13 A3000 RMK AO2 SFC VIS 4 CIG 004V010 P0000=
200602221452 METAR KATL 221452Z 23009KT 1 1/2SM -RA BR BKN004 OVC009 14/13 A3000 RMK AO2 SFC VIS 3 DZE16RAB16 CIG 004V007 SLP159 P0004 60004 T01390133 50006=
200602221352 METAR KATL 221352Z 24009KT 1 1/2SM -DZ BR OVC004 13/13 A3000 RMK AO2 SFC VIS 3 DZE34B50RAB34E47 SLP159 P0000 T01330128=
200602221336 SPECI KATL 221336Z 22006KT 1 1/2SM -RA BR OVC004 13/12 A2999 RMK AO2 SFC VIS 2 DZE34RAB34 P0000=
200602221336 SPECI KATL 221336Z 22006KT 1 1/2SM -RA BR OVC004 13/12 A2999 RMK AO2 SFC VIS 2 DZE34RAB34 P0000=
200602221309 SPECI KATL 221309Z 23007KT 5SM -DZ BR OVC004 13/12 A2999 RMK AO2 P0000=
200602221309 SPECI KATL 221309Z 23007KT 5SM -DZ BR OVC004 13/12 A2999 RMK AO2 P0000=
200602221252 METAR KATL 221252Z 22010KT 6SM -DZ BR OVC006 13/12 A2998 RMK AO2 DZB42 SLP152 P0000 T01280122=
200602221152 METAR KATL 221152Z 22008KT 9SM BKN008 OVC014 12/11 A2998 RMK AO2 SLP152 T01170106 10117 20089 50006=
200602221147 SPECI KATL 221147Z 22008KT 9SM BKN008 OVC014 12/11 A2998 RMK AO2=
200602221147 SPECI KATL 221147Z 22008KT 9SM BKN008 OVC014 12/11 A2998 RMK AO2=
200602221052 METAR KATL 221052Z 24006KT 10SM OVC014 12/10 A2999 RMK AO2 SLP156 T01170100=
200602221031 SPECI KATL 221031Z 22007KT 10SM FEW008 BKN014 OVC018 11/10 A2999 RMK AO2=
200602221031 SPECI KATL 221031Z 22007KT 10SM FEW008 BKN014 OVC018 11/10 A2999 RMK AO2=
200602221006 SPECI KATL 221006Z 22010KT 10SM SCT008 BKN018 OVC070 11/09 A2997 RMK AO2=
200602221006 SPECI KATL 221006Z 22010KT 10SM SCT008 BKN018 OVC070 11/09 A2997 RMK AO2=
200602221003 SPECI KATL 221003Z 22009KT 10SM SCT010 SCT018 OVC070 11/09 A2997 RMK AO2=
200602221003 SPECI KATL 221003Z 22009KT 10SM SCT010 SCT018 OVC070 11/09 A2997 RMK AO2=
200602220952 METAR KATL 220952Z 21011KT 10SM FEW010 BKN018 BKN070 OVC200 11/09 A2996 RMK AO2 SLP146 T01060094=
200602220852 METAR KATL 220852Z 22008KT 10SM BKN015 OVC075 10/09 A2999 RMK AO2 SLP155 T01000089 56015=
200602220752 METAR KATL 220752Z 20006KT 8SM SCT070 BKN250 09/08 A2999 RMK AO2 SLP157 T00940083=
200602220652 METAR KATL 220652Z 20003KT 8SM SCT060 SCT250 09/08 A3002 RMK AO2 SLP164 T00890083=
200602220552 METAR KATL 220552Z 22004KT 10SM SCT060 BKN250 10/08 A3003 RMK AO2 SLP172 T01000083 10128 20094 58006=
200602220452 METAR KATL 220452Z 22004KT 10SM BKN060 10/08 A3004 RMK AO2 SLP176 T01000083 401560050=
200602220352 METAR KATL 220352Z 22004KT 10SM FEW060 10/08 A3005 RMK AO2 SLP178 T01000078=
200602220252 METAR KATL 220252Z 22004KT 10SM FEW150 09/06 A3005 RMK AO2 SLP180 T00940061 50007=
200602220152 METAR KATL 220152Z 31003KT 10SM FEW055 BKN150 11/06 A3006 RMK AO2 SLP182 T01060056=
200602220052 METAR KATL 220052Z 32007KT 10SM FEW060 11/07 A3005 RMK AO2 SLP178 T01110067=
200602212352 METAR KATL 212352Z 20003KT 10SM FEW150 13/07 A3003 RMK AO2 SLP171 T01280067 10156 20100 58007=
200602212252 METAR KATL 212252Z 23007KT 10SM CLR 14/07 A3004 RMK AO2 SLP173 T01390067=
200602212152 METAR KATL 212152Z 22005KT 10SM FEW040 SCT120 SCT250 15/07 A3004 RMK AO2 SLP174 T01500067=
200602212052 METAR KATL 212052Z 23009KT 10SM FEW040 SCT200 SCT250 15/06 A3005 RMK AO2 SLP176 T01500061 56022=
200602211952 METAR KATL 211952Z 28004KT 10SM FEW030 SCT200 BKN250 14/06 A3006 RMK AO2 SLP181 T01390056=
200602211852 METAR KATL 211852Z 23007KT 200V280 10SM FEW020 SCT200 BKN250 12/05 A3007 RMK AO2 SLP186 T01220050 $=
200602211752 METAR KATL 211752Z 31007KT 280V340 10SM FEW017 SCT200 BKN250 10/06 A3012 RMK AO2 SLP201 T01000056 10106 20050 58007=
200602211727 SPECI KATL 211727Z 24007KT 10SM SCT015 BKN250 09/05 A3013 RMK AO2=
200602211727 SPECI KATL 211727Z 24007KT 10SM SCT015 BKN250 09/05 A3013 RMK AO2=
200602211722 SPECI KATL 211722Z 25006KT 10SM BKN015 BKN250 09/06 A3013 RMK AO2=
200602211722 SPECI KATL 211722Z 25006KT 10SM BKN015 BKN250 09/06 A3013 RMK AO2=
200602211652 METAR KATL 211652Z 28005KT 6SM HZ BKN013 BKN250 08/04 A3013 RMK AO2 SLP207 T00780044=
200602211635 SPECI KATL 211635Z 30006KT 6SM HZ OVC011 07/04 A3013 RMK AO2 BINOVC=
200602211635 SPECI KATL 211635Z 30006KT 6SM HZ OVC011 07/04 A3013 RMK AO2 BINOVC=
200602211552 METAR KATL 211552Z 29005KT 6SM BR OVC009 06/04 A3013 RMK AO2 CIG 007V013 SLP207 BINOVC T00610044=
200602211452 METAR KATL 211452Z 31010KT 6SM BR OVC007 06/04 A3014 RMK AO2 CIG 006V011 SLP210 T00560044 53015=
200602211352 METAR KATL 211352Z 30007KT 5SM BR OVC005 06/04 A3011 RMK AO2 SLP201 T00560044=
200602211319 SPECI KATL 211319Z 30009KT 6SM BR OVC005 06/04 A3010 RMK AO2=
200602211319 SPECI KATL 211319Z 30009KT 6SM BR OVC005 06/04 A3010 RMK AO2=
200602211302 SPECI KATL 211302Z 30009KT 2SM BR OVC005 05/04 A3010 RMK AO2 SFC VIS 5 CIG 003V007=
200602211302 SPECI KATL 211302Z 30009KT 2SM BR OVC005 05/04 A3010 RMK AO2 SFC VIS 5 CIG 003V007=
200602211252 METAR KATL 211252Z 30009KT 2SM BR OVC003 05/04 A3010 RMK AO2 SFC VIS 4 CIG 002V006 SLP196 T00500044=
200602211152 METAR KATL 211152Z 30007KT 1 1/2SM BR OVC003 05/05 A3009 RMK AO2 SFC VIS 3 DZE32 SLP194 P0000 60000 70009 T00500050 10072 20050 53007=
200602211121 SPECI KATL 211121Z 30007KT 1SM -DZ BR OVC003 05/05 A3008 RMK AO2 SFC VIS 3 P0000=
200602211121 SPECI KATL 211121Z 30007KT 1SM -DZ BR OVC003 05/05 A3008 RMK AO2 SFC VIS 3 P0000=
200602211116 SPECI KATL 211116Z 30008KT 1/4SM -DZ BR OVC002 05/05 A3008 RMK AO2 SFC VIS 2 P0000=
200602211116 SPECI KATL 211116Z 30008KT 1/4SM -DZ BR OVC002 05/05 A3008 RMK AO2 SFC VIS 2 P0000=
200602211052 METAR KATL 211052Z 31005KT 1/4SM R09R/5000VP6000FT -DZ BR OVC001 06/05 A3008 RMK AO2 SFC VIS 3/4 SLP189 P0000 T00560050=
200602210952 METAR KATL 210952Z 29006KT 1/4SM -DZ BR OVC001 06/06 A3007 RMK AO2 SFC VIS 1 1/4 SLP187 TWRINC P0000 T00560056=
200602210852 METAR KATL 210852Z 33006KT 1/4SM -DZ BR OVC001 06/06 A3007 RMK AO2 SFC VIS 1 1/2 SLP187 TWRINC P0000 60000 T00610061 53000=
200602210752 METAR KATL 210752Z 28006KT 1/4SM R09R/2200V2800FT -DZ FG VV001 07/07 A3007 RMK AO2 SFC VIS 1/2 DZB34 SLP186 VIS N-NE 1 P0000 T00720067=
200602210727 SPECI KATL 210727Z 28006KT 1/4SM R09R/4500VP6000FT BR OVC002 07/07 A3007 RMK AO2 SFC VIS 1 TWRINC=
200602210727 SPECI KATL 210727Z 28006KT 1/4SM R09R/4500VP6000FT BR OVC002 07/07 A3007 RMK AO2 SFC VIS 1 TWRINC=
200602210702 SPECI KATL 210702Z 26006KT 2 1/2SM BR OVC002 07/07 A3007 RMK AO2=
200602210702 SPECI KATL 210702Z 26006KT 2 1/2SM BR OVC002 07/07 A3007 RMK AO2=
200602210652 METAR KATL 210652Z 25005KT 3SM BR OVC002 07/07 A3007 RMK AO2 SLP187 T00720067=
200602210552 METAR KATL 210552Z 24007KT 6SM BR OVC004 07/07 A3007 RMK AO2 SLP187 60001 T00720067 10078 20067 56010=
200602210507 SPECI KATL 210507Z 24008KT 7SM OVC004 07/07 A3007 RMK AO2=
200602210507 SPECI KATL 210507Z 24008KT 7SM OVC004 07/07 A3007 RMK AO2=
200602210452 METAR KATL 210452Z 23005KT 2 1/2SM BR OVC004 07/07 A3007 RMK AO2 SFC VIS 6 SLP187 CIG 002V006 T00720067 400720028=
200602210434 SPECI KATL 210434Z 21009KT 2 1/2SM BR OVC003 07/07 A3008 RMK AO2 SFC VIS 5=
200602210434 SPECI KATL 210434Z 21009KT 2 1/2SM BR OVC003 07/07 A3008 RMK AO2 SFC VIS 5=
200602210420 SPECI KATL 210420Z 21008KT 1SM BR OVC002 07/07 A3009 RMK AO2 SFC VIS 4=
200602210420 SPECI KATL 210420Z 21008KT 1SM BR OVC002 07/07 A3009 RMK AO2 SFC VIS 4=
200602210352 METAR KATL 210352Z 23005KT 5SM BR OVC003 07/07 A3010 RMK AO2 SLP196 T00720067=
200602210252 METAR KATL 210252Z 24006KT 6SM BR OVC004 07/07 A3010 RMK AO2 SLP198 60001 T00720067 58001=
200602210152 METAR KATL 210152Z 25005KT 6SM BR OVC004 07/06 A3011 RMK AO2 DZE51 SLP200 CIG 003V007 P0000 T00720061=
200602210118 SPECI KATL 210118Z 23004KT 2 1/2SM -DZ BR OVC004 07/06 A3011 RMK AO2 SFC VIS 4 CIG 003V007 P0000=
200602210118 SPECI KATL 210118Z 23004KT 2 1/2SM -DZ BR OVC004 07/06 A3011 RMK AO2 SFC VIS 4 CIG 003V007 P0000=
200602210052 METAR KATL 210052Z 22004KT 2 1/2SM -DZ BR OVC005 07/06 A3010 RMK AO2 SFC VIS 4 RAB21E39DZB51 SLP200 P0001 T00670061=
200602210025 SPECI KATL 210025Z 24003KT 2 1/2SM -RA BR OVC005 07/06 A3011 RMK AO2 SFC VIS 3 RAB21 P0001=
200602210025 SPECI KATL 210025Z 24003KT 2 1/2SM -RA BR OVC005 07/06 A3011 RMK AO2 SFC VIS 3 RAB21 P0001=
200602202352 METAR KATL 202352Z 23004KT 5SM BR OVC005 07/06 A3010 RMK AO2 SLP199 60000 T00670056 10072 20050 56006=
200602202252 METAR KATL 202252Z VRB04KT 4SM BR OVC007 07/06 A3011 RMK AO2 SLP200 T00670056=
200602202152 METAR KATL 202152Z 26005KT 6SM BR OVC007 07/06 A3011 RMK AO2 SLP200 T00670056=
200602202052 METAR KATL 202052Z 23005KT 6SM BR OVC007 06/05 A3012 RMK AO2 DZE40 SLP205 P0000 60000 T00610050 56016=
200602201952 METAR KATL 201952Z 26007KT 5SM -DZ BR OVC007 06/05 A3013 RMK AO2 SLP208 P0000 T00610050=
200602201914 SPECI KATL 201914Z 28005KT 6SM -DZ BR FEW004 BKN007 OVC010 06/04 A3013 RMK AO2 P0000=
200602201914 SPECI KATL 201914Z 28005KT 6SM -DZ BR FEW004 BKN007 OVC010 06/04 A3013 RMK AO2 P0000=
200602201852 METAR KATL 201852Z 27005KT 6SM -DZ BR OVC007 06/04 A3014 RMK AO2 RAE12DZB47 SLP213 P0000 T00560044=
200602201816 SPECI KATL 201816Z 21004KT 6SM BR BKN007 BKN012 OVC025 05/04 A3015 RMK AO2 RAE12 P0000=
200602201816 SPECI KATL 201816Z 21004KT 6SM BR BKN007 BKN012 OVC025 05/04 A3015 RMK AO2 RAE12 P0000=
200602201752 METAR KATL 201752Z 25004KT 1 1/2SM -RA BR BKN007 BKN012 OVC025 05/04 A3017 RMK AO2 SFC VIS 4 SLP222 P0003 60008 T00500039 10050 20028 58010=
200602201710 SPECI KATL 201710Z 26006KT 1 1/2SM -RA BR BKN009 OVC014 05/04 A3019 RMK AO2 SFC VIS 3 CIG 005V012 P0001=
200602201710 SPECI KATL 201710Z 26006KT 1 1/2SM -RA BR BKN009 OVC014 05/04 A3019 RMK AO2 SFC VIS 3 CIG 005V012 P0001=
200602201652 METAR KATL 201652Z 27007KT 4SM -RA BR BKN006 OVC010 05/04 A3019 RMK AO2 SLP229 P0001 T00500039=
200602201552 METAR KATL 201552Z 26004KT 4SM -RA BR BKN006 BKN009 OVC012 04/03 A3019 RMK AO2 SLP229 P0001 T00390028=
200602201452 METAR KATL 201452Z 30004KT 4SM -RA BR BKN006 OVC038 04/03 A3020 RMK AO2 RAE17B46 SLP233 P0001 60003 T00390028 50003=
200602201430 SPECI KATL 201430Z 29005KT 1 1/2SM BR BKN006 OVC038 03/03 A3021 RMK AO2 SFC VIS 3 RAE17 P0001=
200602201430 SPECI KATL 201430Z 29005KT 1 1/2SM BR BKN006 OVC038 03/03 A3021 RMK AO2 SFC VIS 3 RAE17 P0001=
200602201418 SPECI KATL 201418Z 31004KT 1 1/2SM BR BKN004 BKN008 OVC023 03/03 A3020 RMK AO2 SFC VIS 2 1/2 RAE17 P0001=
200602201418 SPECI KATL 201418Z 31004KT 1 1/2SM BR BKN004 BKN008 OVC023 03/03 A3020 RMK AO2 SFC VIS 2 1/2 RAE17 P0001=
200602201411 SPECI KATL 201411Z 27004KT 1 1/2SM -RA BR BKN006 BKN024 OVC042 03/03 A3021 RMK AO2 SFC VIS 2 P0001=
200602201411 SPECI KATL 201411Z 27004KT 1 1/2SM -RA BR BKN006 BKN024 OVC042 03/03 A3021 RMK AO2 SFC VIS 2 P0001=
200602201404 SPECI KATL 201404Z 29003KT 1 1/2SM -RA BR BKN004 BKN026 OVC042 03/03 A3020 RMK AO2 SFC VIS 2 1/2 P0001=
200602201404 SPECI KATL 201404Z 29003KT 1 1/2SM -RA BR BKN004 BKN026 OVC042 03/03 A3020 RMK AO2 SFC VIS 2 1/2 P0001=
200602201352 METAR KATL 201352Z 30004KT 1 1/2SM -RA BR FEW002 BKN006 OVC035 03/03 A3021 RMK AO2 SFC VIS 2 1/2 SLP237 P0001 T00330028=
200602201252 METAR KATL 201252Z 27003KT 1 1/2SM -RA BR OVC004 03/02 A3020 RMK AO2 SFC VIS 3 RAE1156B19 SLP234 P0001 T00280022=
200602201152 METAR KATL 201152Z 32003KT 1 1/2SM -RA BR BKN004 BKN009 OVC018 03/02 A3019 RMK AO2 SFC VIS 3 SLP231 P0001 60005 70005 T00280022 10039 20028 50003=
200602201142 SPECI KATL 201142Z 32003KT 1 1/2SM -RA BR BKN004 BKN009 OVC018 03/02 A3019 RMK AO2 SFC VIS 2 1/2 P0001=
200602201142 SPECI KATL 201142Z 32003KT 1 1/2SM -RA BR BKN004 BKN009 OVC018 03/02 A3019 RMK AO2 SFC VIS 2 1/2 P0001=
200602201120 SPECI KATL 201120Z 32004KT 2 1/2SM -RA BR OVC007 03/02 A3020 RMK AO2 P0000=
200602201120 SPECI KATL 201120Z 32004KT 2 1/2SM -RA BR OVC007 03/02 A3020 RMK AO2 P0000=
200602201052 METAR KATL 201052Z COR 32005KT 2SM UP BR OVC003 03/02 A3020 RMK AO2 RAE05B24 SLP234 P0003 T00280022=
200602201026 SPECI KATL 201026Z 36003KT 1 3/4SM -RA BR BKN003 OVC010 03/02 A3019 RMK AO2 RAE05B24 P0001=
200602201026 SPECI KATL 201026Z 36003KT 1 3/4SM -RA BR BKN003 OVC010 03/02 A3019 RMK AO2 RAE05B24 P0001=
200602201016 SPECI KATL 201016Z 02004KT 2SM BR SCT005 OVC010 03/02 A3019 RMK AO2 RAE05 P0001=
200602201016 SPECI KATL 201016Z 02004KT 2SM BR SCT005 OVC010 03/02 A3019 RMK AO2 RAE05 P0001=
200602200952 METAR KATL 200952Z 00000KT 2 1/2SM -RA BR BKN007 OVC010 03/02 A3018 RMK AO2 RAB39 CIG 005V009 SLP226 P0000 T00280022=
200602200940 SPECI KATL 200940Z 00000KT 3SM -RA BR OVC007 03/02 A3018 RMK AO2 RAB39 P0000=
200602200940 SPECI KATL 200940Z 00000KT 3SM -RA BR OVC007 03/02 A3018 RMK AO2 RAB39 P0000=
200602200852 METAR KATL 200852Z 08004KT 3SM BR OVC012 03/02 A3018 RMK AO2 RAB21E49 SLP227 P0001 60001 T00280017 58022=
200602200752 METAR KATL 200752Z 09003KT 6SM BR OVC012 03/01 A3021 RMK AO2 RAE11 SLP238 P0000 T00330011=
200602200710 SPECI KATL 200710Z 00000KT 5SM -RA BR BKN014 OVC020 03/01 A3023 RMK AO2 P0000=
200602200710 SPECI KATL 200710Z 00000KT 5SM -RA BR BKN014 OVC020 03/01 A3023 RMK AO2 P0000=
200602200652 METAR KATL 200652Z 07003KT 5SM -RA BR SCT015 OVC020 03/01 A3023 RMK AO2 RAB44 SLP244 P0000 T00330011=
200602200552 METAR KATL 200552Z 00000KT 7SM BKN016 OVC024 04/01 A3025 RMK AO2 SLP250 60000 T00390011 10039 20028 55012=
200602200452 METAR KATL 200452Z 09004KT 7SM BKN016 OVC024 04/01 A3024 RMK AO2 PRESFR SLP249 T00390011 400391028=
200602200352 METAR KATL 200352Z 00000KT 6SM BR SCT017 OVC026 03/01 A3027 RMK AO2 SLP259 T00330011=
200602200328 SPECI KATL 200328Z 00000KT 5SM BR SCT013 OVC023 03/01 A3027 RMK AO2=
200602200328 SPECI KATL 200328Z 00000KT 5SM BR SCT013 OVC023 03/01 A3027 RMK AO2=
200602200252 METAR KATL 200252Z 00000KT 4SM BR BKN013 OVC025 03/01 A3028 RMK AO2 DZB26E50 SLP264 P0000 60000 T00330011 53000=
200602200247 SPECI KATL 200247Z 00000KT 4SM -DZ BR BKN013 OVC025 03/01 A3028 RMK AO2 DZB26 P0000=
200602200247 SPECI KATL 200247Z 00000KT 4SM -DZ BR BKN013 OVC025 03/01 A3028 RMK AO2 DZB26 P0000=
200602200227 SPECI KATL 200227Z 09004KT 4SM -DZ BR SCT011 BKN025 OVC060 03/02 A3027 RMK AO2 DZB26 P0000=
200602200227 SPECI KATL 200227Z 09004KT 4SM -DZ BR SCT011 BKN025 OVC060 03/02 A3027 RMK AO2 DZB26 P0000=
200602200152 METAR KATL 200152Z 00000KT 4SM BR SCT007 OVC011 03/02 A3028 RMK AO2 SLP263 T00330017=
200602200147 SPECI KATL 200147Z 00000KT 4SM BR SCT007 OVC011 03/02 A3028 RMK AO2=
200602200147 SPECI KATL 200147Z 00000KT 4SM BR SCT007 OVC011 03/02 A3028 RMK AO2=
200602200052 METAR KATL 200052Z 14003KT 4SM BR BKN005 OVC009 03/02 A3028 RMK AO2 SLP265 T00280017=
200602192352 METAR KATL 192352Z 10004KT 2 1/2SM BR OVC005 03/02 A3028 RMK AO2 SFC VIS 4 SLP265 T00280017 10028 20011 58006=
200602192332 SPECI KATL 192332Z 08005KT 2 1/2SM BR OVC005 03/02 A3030 RMK AO2 SFC VIS 4=
200602192332 SPECI KATL 192332Z 08005KT 2 1/2SM BR OVC005 03/02 A3030 RMK AO2 SFC VIS 4=
200602192252 METAR KATL 192252Z 09005KT 1 1/2SM BR OVC005 03/02 A3029 RMK AO2 SFC VIS 3 SLP268 T00280017=
200602192152 METAR KATL 192152Z 11003KT 1 1/2SM BR OVC005 03/02 A3030 RMK AO2 SFC VIS 3 SLP272 T00280017=
200602192052 METAR KATL 192052Z 09004KT 1 1/2SM BR OVC007 03/01 A3030 RMK AO2 SFC VIS 3 SLP271 T00280011 56017=
200602192006 SPECI KATL 192006Z 06004KT 1 1/2SM BR OVC007 03/01 A3031 RMK AO2 SFC VIS 3=
200602192006 SPECI KATL 192006Z 06004KT 1 1/2SM BR OVC007 03/01 A3031 RMK AO2 SFC VIS 3=
200602191952 METAR KATL 191952Z 09003KT 2 1/2SM BR OVC007 02/01 A3030 RMK AO2 SFC VIS 3 SLP272 T00220006=
200602191852 METAR KATL 191852Z 00000KT 2 1/2SM BR OVC009 02/M01 A3033 RMK AO2 SFC VIS 3 SLP281 T00171006=
200602191752 METAR KATL 191752Z 00000KT 3SM BR OVC009 02/M01 A3035 RMK AO2 SLP289 T00171011 10017 21028 58007=
200602191652 METAR KATL 191652Z 01005KT 5SM BR OVC009 01/M02 A3037 RMK AO2 SLP296 T00061022=
200602191552 METAR KATL 191552Z VRB03KT 7SM OVC009 M01/M03 A3038 RMK AO2 SLP297 T10061033=
200602191452 METAR KATL 191452Z 34005KT 6SM BR OVC009 M02/M04 A3038 RMK AO2 SLP298 T10171039 53012=
200602191352 METAR KATL 191352Z 36006KT 7SM OVC009 M02/M05 A3036 RMK AO2 SLP292 T10221050=
200602191326 SPECI KATL 191326Z 30005KT 7SM OVC009 M02/M05 A3037 RMK AO2=
200602191326 SPECI KATL 191326Z 30005KT 7SM OVC009 M02/M05 A3037 RMK AO2=
200602191252 METAR KATL 191252Z 32008KT 10SM OVC011 M02/M06 A3036 RMK AO2 SLP291 T10221056=
200602191152 METAR KATL 191152Z 32009KT 10SM OVC011 M02/M06 A3034 RMK AO2 SLP286 70006 T10221056 11006 21022 53016=
200602191052 METAR KATL 191052Z 34008KT 10SM OVC013 M02/M06 A3031 RMK AO2 SLP275 T10221061=
200602191024 SPECI KATL 191024Z 32008KT 10SM OVC013 M02/M06 A3029 RMK AO2=
200602191024 SPECI KATL 191024Z 32008KT 10SM OVC013 M02/M06 A3029 RMK AO2=
200602190952 METAR KATL 190952Z 34007KT 10SM BKN017 OVC100 M02/M06 A3029 RMK AO2 SLP266 T10171056=
200602190852 METAR KATL 190852Z 32010KT 10SM BKN017 OVC100 M01/M06 A3029 RMK AO2 SLP267 T10111056 58001=
200602190752 METAR KATL 190752Z 33008KT 10SM OVC090 M01/M05 A3030 RMK AO2 SLP268 T10111050=
200602190652 METAR KATL 190652Z 33008KT 10SM OVC090 M01/M04 A3030 RMK AO2 SLP269 T10061044=
200602190552 METAR KATL 190552Z 32009KT 10SM OVC085 M01/M04 A3030 RMK AO2 SNB0456E06 SLP268 931000 P0000 60000 T10061044 10006 21006 51012=
200602190452 METAR KATL 190452Z 33009KT 10SM FEW013 BKN080 BKN120 00/M04 A3028 RMK AO2 SLP264 T00001039 400781006=
200602190352 METAR KATL 190352Z 33011KT 10SM FEW013 OVC080 00/M03 A3028 RMK AO2 SLP263 T00001033=
200602190252 METAR KATL 190252Z 33014KT 9SM FEW013 OVC080 00/M03 A3026 RMK AO2 SLP255 T00001033 50006=
200602190246 SPECI KATL 190246Z 33010G18KT 9SM SCT013 OVC080 00/M03 A3027 RMK AO2=
200602190246 SPECI KATL 190246Z 33010G18KT 9SM SCT013 OVC080 00/M03 A3027 RMK AO2=
200602190152 METAR KATL 190152Z 33014G20KT 7SM BKN011 OVC080 00/M02 A3027 RMK AO2 SLP257 BINOVC T00001022=
200602190123 SPECI KATL 190123Z 31013KT 7SM BKN011 OVC085 00/M02 A3027 RMK AO2 BINOVC=
200602190123 SPECI KATL 190123Z 31013KT 7SM BKN011 OVC085 00/M02 A3027 RMK AO2 BINOVC=
200602190052 METAR KATL 190052Z 33011KT 7SM OVC009 01/M02 A3024 RMK AO2 SLP249 BINOVC T00061017=
200602182352 METAR KATL 182352Z 32012KT 7SM OVC009 01/M01 A3023 RMK AO2 SLP244 BINOVC 60003 T00061011 10033 20006 53005=
200602182318 SPECI KATL 182318Z 32014KT 7SM OVC009 01/M01 A3022 RMK AO2=
200602182318 SPECI KATL 182318Z 32014KT 7SM OVC009 01/M01 A3022 RMK AO2=
200602182301 SPECI KATL 182301Z 33014KT 7SM FEW008 BKN011 OVC085 01/M01 A3023 RMK AO2 $=
200602182301 SPECI KATL 182301Z 33014KT 7SM FEW008 BKN011 OVC085 01/M01 A3023 RMK AO2 $=
200602182252 METAR KATL 182252Z 31013KT 7SM OVC009 02/00 A3021 RMK AO2 SLP239 T00170000 $=
200602182152 METAR KATL 182152Z 32011KT 7SM OVC008 02/01 A3022 RMK AO2 CIG 006V012 SLP241 T00220011 $=
200602182052 METAR KATL 182052Z 31013KT 7SM OVC006 03/01 A3021 RMK AO2 RAE26 SLP238 P0000 60003 T00280011 55017=
200602182023 SPECI KATL 182023Z 31010KT 7SM -RA OVC008 03/02 A3020 RMK AO2 CIG 005V012 P0000=
200602182023 SPECI KATL 182023Z 31010KT 7SM -RA OVC008 03/02 A3020 RMK AO2 CIG 005V012 P0000=
200602181952 METAR KATL 181952Z 32013KT 2 1/2SM -RA BR OVC006 03/02 A3019 RMK AO2 SFC VIS 4 RAB17 CIG 005V009 SLP230 P0002 T00280022=
200602181934 SPECI KATL 181934Z 32009KT 2 1/2SM -RA BR OVC006 03/02 A3020 RMK AO2 SFC VIS 4 RAB17 P0000=
200602181934 SPECI KATL 181934Z 32009KT 2 1/2SM -RA BR OVC006 03/02 A3020 RMK AO2 SFC VIS 4 RAB17 P0000=
200602181852 METAR KATL 181852Z 35008KT 7SM BKN006 OVC043 03/02 A3020 RMK AO2 RAE30 CIG 005V010 SLP233 P0001 T00330022=
200602181827 SPECI KATL 181827Z 34006KT 6SM -RA BR BKN006 OVC043 03/02 A3022 RMK AO2 CIG 005V009 PRESFR P0001=
200602181827 SPECI KATL 181827Z 34006KT 6SM -RA BR BKN006 OVC043 03/02 A3022 RMK AO2 CIG 005V009 PRESFR P0001=
200602181752 METAR KATL 181752Z 31012KT 2 1/2SM R09R/4500VP6000FT -RA BR BKN006 BKN009 OVC034 03/02 A3027 RMK AO2 CIG 005V008 SLP255 P0003 60003 T00280022 10056 20028 51010=
200602181750 SPECI KATL 181750Z 32011KT 2 1/2SM -RA BR BKN006 BKN009 OVC034 03/02 A3027 RMK AO2 CIG 005V008 P0003=
200602181750 SPECI KATL 181750Z 32011KT 2 1/2SM -RA BR BKN006 BKN009 OVC034 03/02 A3027 RMK AO2 CIG 005V008 P0003=
200602181721 SPECI KATL 181721Z 33013KT 3SM -RA BR BKN009 OVC034 03/02 A3025 RMK AO2 SFC VIS 5 CIG 007V012 P0002=
200602181721 SPECI KATL 181721Z 33013KT 3SM -RA BR BKN009 OVC034 03/02 A3025 RMK AO2 SFC VIS 5 CIG 007V012 P0002=
200602181700 SPECI KATL 181700Z 33013G21KT 3SM -RA BR BKN013 OVC030 03/02 A3026 RMK AO2 SFC VIS 4 P0001=
200602181700 SPECI KATL 181700Z 33013G21KT 3SM -RA BR BKN013 OVC030 03/02 A3026 RMK AO2 SFC VIS 4 P0001=
200602181652 METAR KATL 181652Z 32016G22KT 6SM -RA BR SCT013 OVC030 03/02 A3026 RMK AO2 SLP251 P0000 T00330017=
200602181643 SPECI KATL 181643Z 32014KT 7SM -RA FEW013 OVC030 03/02 A3026 RMK AO2 P0000=
200602181643 SPECI KATL 181643Z 32014KT 7SM -RA FEW013 OVC030 03/02 A3026 RMK AO2 P0000=
200602181552 METAR KATL 181552Z 31010KT 7SM -RA OVC026 05/00 A3024 RMK AO2 RAB44 SLP244 P0000 T00500000=
200602181509 SPECI KATL 181509Z 32012KT 9SM BKN026 OVC031 06/M02 A3023 RMK AO2=
200602181509 SPECI KATL 181509Z 32012KT 9SM BKN026 OVC031 06/M02 A3023 RMK AO2=
200602181452 METAR KATL 181452Z 31007KT 10SM OVC031 05/M02 A3022 RMK AO2 SLP238 T00501017 51005=
200602181352 METAR KATL 181352Z 33012KT 10SM OVC035 05/M02 A3021 RMK AO2 SLP235 T00501017=
200602181252 METAR KATL 181252Z 33013KT 10SM BKN023 OVC035 04/M02 A3022 RMK AO2 SLP237 T00441017=
200602181239 SPECI KATL 181239Z 31012KT 10SM BKN023 OVC035 04/M02 A3023 RMK AO2=
200602181239 SPECI KATL 181239Z 31012KT 10SM BKN023 OVC035 04/M02 A3023 RMK AO2=
200602181204 SPECI KATL 181204Z 32014KT 10SM SCT019 BKN037 OVC110 04/M02 A3021 RMK AO2=
200602181204 SPECI KATL 181204Z 32014KT 10SM SCT019 BKN037 OVC110 04/M02 A3021 RMK AO2=
200602181152 METAR KATL 181152Z 31012KT 10SM BKN021 BKN035 OVC110 04/M02 A3021 RMK AO2 SLP232 T00441017 10067 20039 53004=
200602181134 SPECI KATL 181134Z 32010KT 10SM BKN021 BKN100 04/M01 A3021 RMK AO2=
200602181134 SPECI KATL 181134Z 32010KT 10SM BKN021 BKN100 04/M01 A3021 RMK AO2=
200602181052 METAR KATL 181052Z 31010KT 10SM FEW023 SCT090 04/M01 A3020 RMK AO2 SLP230 T00391011=
200602180952 METAR KATL 180952Z 30009KT 10SM BKN090 04/M01 A3019 RMK AO2 SLP225 T00441011=
200602180852 METAR KATL 180852Z 30008KT 10SM BKN090 05/M01 A3019 RMK AO2 SLP227 T00501006 56013=
200602180752 METAR KATL 180752Z 31010KT 10SM SCT095 06/M01 A3020 RMK AO2 SLP230 T00561006=
200602180652 METAR KATL 180652Z 32008KT 10SM BKN095 07/01 A3022 RMK AO2 SLP235 T00670006=
200602180552 METAR KATL 180552Z 30007KT 10SM OVC095 07/01 A3023 RMK AO2 SLP239 T00670011 10117 20067 58002=
200602180452 METAR KATL 180452Z 31011KT 10SM OVC085 08/02 A3024 RMK AO2 SLP242 T00780017 401500078=
200602180352 METAR KATL 180352Z 32009KT 10SM OVC080 08/02 A3024 RMK AO2 SLP241 T00830022=
200602180252 METAR KATL 180252Z 31009KT 10SM FEW100 SCT250 09/03 A3024 RMK AO2 SLP241 T00890033 51004=
200602180152 METAR KATL 180152Z 31007KT 10SM FEW250 09/04 A3023=
200602180052 METAR KATL 180052Z 32009KT 10SM FEW200 SCT250 11/05 A3023 RMK AO2 SLP239 T01060050=
200602172352 METAR KATL 172352Z 31008KT 10SM FEW070 SCT200 BKN250 12/06 A3023 RMK AO2 SLP237 T01170056 10150 20117 55004=
200602172252 METAR KATL 172252Z 32006KT 10SM SCT070 BKN200 BKN250 14/04 A3022 RMK AO2 SLP235 T01390044=
200602172152 METAR KATL 172152Z 30010KT 10SM BKN100 14/04 A3024 RMK AO2 SLP239 T01440039=
200602172052 METAR KATL 172052Z 28007KT 10SM SCT060 BKN090 14/04 A3024 RMK AO2 SLP240 T01390039 56011=
200602171952 METAR KATL 171952Z 29008KT 10SM FEW045 BKN085 OVC150 14/04 A3025 RMK AO2 SLP243 BINOVC DSNT E T01390039=
200602171852 METAR KATL 171852Z 30008KT 10SM FEW045 OVC080 14/05 A3025 RMK AO2 SLP243 BINOVC DSNT N-NE T01390050=
200602171752 METAR KATL 171752Z 26006KT 10SM OVC044 14/06 A3027 RMK AO2 SLP250 60000 T01390056 10139 20100 58003=
200602171652 METAR KATL 171652Z 32006KT 10SM OVC040 13/06 A3028 RMK AO2 SLP255 T01330061=
200602171552 METAR KATL 171552Z 32007KT 10SM FEW020 BKN035 OVC100 12/07 A3028 RMK AO2 SLP253 T01220072=
200602171452 METAR KATL 171452Z 31009KT 10SM FEW020 BKN030 OVC100 12/08 A3028 RMK AO2 RAB17E27 SLP253 P0000 60000 T01170083 51024=
200602171415 SPECI KATL 171415Z 31008KT 9SM BKN020 OVC038 12/08 A3027 RMK AO2 $=
200602171415 SPECI KATL 171415Z 31008KT 9SM BKN020 OVC038 12/08 A3027 RMK AO2 $=
200602171352 METAR KATL 171352Z 30007KT 10SM OVC040 12/08 A3026 RMK AO2 WSHFT 1315 SLP244 FROPA T01220078 $=
200602171331 SPECI KATL 171331Z 27009KT 10SM FEW026 BKN040 OVC085 12/08 A3024 RMK AO2 WSHFT 1315 FROPA $=
200602171331 SPECI KATL 171331Z 27009KT 10SM FEW026 BKN040 OVC085 12/08 A3024 RMK AO2 WSHFT 1315 FROPA $=
200602171252 METAR KATL 171252Z 23008KT 10SM FEW032 SCT060 BKN080 OVC200 11/08 A3021 RMK AO2 SLP227 T01110078=
200602171152 METAR KATL 171152Z 23004KT 10SM FEW050 BKN085 BKN250 11/07 A3020 RMK AO2 SLP224 T01060072 10133 20100 55000=
200602171052 METAR KATL 171052Z COR 22008KT 10SM SCT060 BKN080 BKN250 11/07 A3018 RMK AO2 SLP218 T01060072=
200602170952 METAR KATL 170952Z 21004KT 10SM SCT060 SCT140 BKN250 10/07 A3019 RMK AO2 SLP220 T01000067=
200602170852 METAR KATL 170852Z 20004KT 10SM FEW065 BKN250 11/07 A3020 RMK AO2 SLP223 T01110067 58001=
200602170752 METAR KATL 170752Z 24004KT 10SM FEW050 SCT250 12/06 A3022 RMK AO2 SLP230 T01170061=
200602170652 METAR KATL 170652Z 21005KT 10SM FEW050 13/06 A3020 RMK AO2 SLP224 T01280061=
200602170552 METAR KATL 170552Z 17006KT 10SM FEW050 13/06 A3020 RMK AO2 SLP224 T01330061 10178 20133 53004=
200602170452 METAR KATL 170452Z COR 19004KT 10SM SCT050 13/06 A3020 RMK AO2 SLP225 T01330061 402110072=
200602170352 METAR KATL 170352Z 17005KT 10SM FEW250 14/06 A3019 RMK AO2 SLP221 T01440061=
200602170252 METAR KATL 170252Z 18006KT 10SM CLR 15/06 A3019 RMK AO2 SLP222 T01500061 53006=
200602170152 METAR KATL 170152Z 17008KT 10SM FEW250 16/06 A3017 RMK AO2 SLP217 T01610061=
200602170052 METAR KATL 170052Z 16007KT 10SM FEW250 17/06 A3018 RMK AO2 SLP220 T01720061=
200602162352 METAR KATL 162352Z 16006KT 10SM FEW250 18/06 A3017 RMK AO2 SLP217 T01780061 10211 20178 56005 $=
200602162252 METAR KATL 162252Z 17009KT 10SM FEW140 SCT200 SCT300 21/07 A3018 RMK AO2 SLP218 T02060072 PNO $=
200602162152 METAR KATL 162152Z 17015KT 10SM FEW060 SCT200 SCT300 21/07 A3017 RMK AO2 SLP215 T02110067 PNO $=
200602162052 METAR KATL 162052Z COR 16015KT 10SM FEW060 SCT200 SCT300 21/07 A3019 RMK AO2 SLP219 T02110067 56025 $=
200602161952 METAR KATL 161952Z 17012KT 10SM FEW060 SCT080 SCT300 21/05 A3021 RMK AO2 SLP227 T02060050 $=
200602161852 METAR KATL 161852Z 21012KT 10SM FEW060 SCT080 SCT300 19/06 A3023 RMK AO2 SLP236 T01940056=
200602161752 METAR KATL 161752Z 16010G15KT 10SM FEW070 SCT200 BKN300 19/06 A3026 RMK AO2 SLP247 T01890061 10189 20072 58018=
200602161652 METAR KATL 161652Z 18006G15KT 10SM FEW070 SCT200 17/05 A3030 RMK AO2 SLP259 T01670050=
200602161552 METAR KATL 161552Z 16008KT 9SM FEW065 BKN075 BKN200 14/03 A3031 RMK AO2 SLP264 T01390033=
200602161452 METAR KATL 161452Z 13006KT 9SM BKN070 11/02 A3032 RMK AO2 SLP268 T01110022 51013=
200602161352 METAR KATL 161352Z 12005KT 8SM BKN070 09/02 A3031 RMK AO2 SLP267 T00940017=
200602161252 METAR KATL 161252Z 11004KT 8SM BKN070 08/02 A3030 RMK AO2 SLP260 T00830017=
200602161152 METAR KATL 161152Z 11004KT 10SM BKN070 07/01 A3028 RMK AO2 SLP255 T00720011 10117 20072 51005=
200602161052 METAR KATL 161052Z 14004KT 10SM BKN070 09/01 A3028 RMK AO2 SLP254 T00940006=
200602160952 METAR KATL 160952Z 16004KT 10SM SCT070 SCT250 10/00 A3027 RMK AO2 SLP250 T01000000=
200602160852 METAR KATL 160852Z 15004KT 10SM FEW060 BKN070 BKN250 11/01 A3026 RMK AO2 SLP248 T01060006 58000=
200602160752 METAR KATL 160752Z 14004KT 10SM BKN070 BKN250 11/01 A3027 RMK AO2 SLP249 T01060006=
200602160652 METAR KATL 160652Z 16005KT 10SM FEW050 BKN070 BKN250 11/01 A3027 RMK AO2 SLP249 T01110006=
200602160552 METAR KATL 160552Z 18005KT 10SM FEW055 BKN070 12/00 A3027 RMK AO2 SLP248 T01170000 10144 20111 55001=
200602160452 METAR KATL 160452Z 17006KT 10SM BKN055 BKN070 12/01 A3026 RMK AO2 SLP247 T01170006 401780050=
200602160352 METAR KATL 160352Z 18007KT 10SM BKN070 11/02 A3027 RMK AO2 SLP251 T01110017=
200602160252 METAR KATL 160252Z 17007KT 10SM FEW070 12/02 A3027 RMK AO2 SLP251 T01220017 51009=
200602160152 METAR KATL 160152Z 17007KT 10SM FEW060 13/03 A3026 RMK AO2 SLP250 T01280028=
200602160052 METAR KATL 160052Z 15006KT 10SM FEW200 13/03 A3025 RMK AO2 SLP247 T01330028=
200602152352 METAR KATL 152352Z 17006KT 10SM FEW150 14/03 A3024 RMK AO2 SLP243 T01440033 10178 20144 55003=
200602152252 METAR KATL 152252Z 17007KT 10SM FEW150 SCT200 16/04 A3023 RMK AO2 SLP238 T01610039=
200602152152 METAR KATL 152152Z 19008KT 10SM FEW070 SCT180 BKN250 17/03 A3025 RMK AO2 SLP243 T01670033=
200602152052 METAR KATL 152052Z 23009KT 10SM BKN070 BKN250 17/03 A3025 RMK AO2 SLP245 T01720033 56020=
200602151952 METAR KATL 151952Z 18011KT 10SM SCT060 SCT250 17/02 A3025 RMK AO2 SLP246 T01670022=
200602151852 METAR KATL 151852Z 18008G15KT 10SM FEW050 SCT060 BKN250 17/03 A3028 RMK AO2 SLP255 T01670028=
200602151752 METAR KATL 151752Z 21010KT 10SM FEW045 SCT055 SCT250 16/02 A3031 RMK AO2 SLP266 T01560017 10161 20050 58009=
200602151652 METAR KATL 151652Z VRB05KT 10SM FEW050 SCT250 14/01 A3034 RMK AO2 SLP274 T01440006=
200602151552 METAR KATL 151552Z 20008KT 10SM SCT050 SCT250 12/00 A3035 RMK AO2 SLP279 T01220000=
200602151452 METAR KATL 151452Z 21006KT 10SM BKN050 BKN250 09/03 A3034 RMK AO2 SLP278 T00940028 51019=
200602151352 METAR KATL 151352Z 22003KT 9SM BKN046 BKN250 08/02 A3034 RMK AO2 SLP276 T00780017=
200602151252 METAR KATL 151252Z 21003KT 9SM SCT048 SCT250 06/M01 A3030 RMK AO2 SLP264 T00611006=
200602151152 METAR KATL 151152Z 17004KT 10SM SCT040 SCT250 06/M01 A3028 RMK AO2 SLP259 T00561006 10067 20050 53002=
200602151052 METAR KATL 151052Z 17005KT 10SM SCT044 BKN250 06/M02 A3027 RMK AO2 SLP254 T00561017=
200602150952 METAR KATL 150952Z 18006KT 10SM SCT048 SCT250 06/M02 A3027 RMK AO2 SLP253 T00561022=
200602150852 METAR KATL 150852Z 21003KT 10SM SCT048 SCT250 06/M03 A3028 RMK AO2 SLP255 T00611033 51005=
200602150752 METAR KATL 150752Z 18007KT 10SM FEW065 SCT250 07/M04 A3026 RMK AO2 SLP250 T00671039=
200602150652 METAR KATL 150652Z 19006KT 10SM OVC055 07/M04 A3028 RMK AO2 SLP254 T00671039=
200602150552 METAR KATL 150552Z 19006KT 10SM BKN050 BKN250 06/M04 A3026 RMK AO2 SLP250 T00611044 10100 20061 50002=
200602150452 METAR KATL 150452Z 19006KT 10SM SCT200 BKN250 07/M05 A3027 RMK AO2 SLP252 T00721050 401281017=
200602150352 METAR KATL 150352Z 18005KT 10SM BKN180 OVC250 08/M05 A3026 RMK AO2 SLP252 T00781050=
200602150252 METAR KATL 150252Z 16004KT 10SM BKN180 OVC250 08/M05 A3025 RMK AO2 SLP250 T00781050 51005=
200602150152 METAR KATL 150152Z 18005KT 10SM FEW150 BKN180 OVC250 08/M05 A3025 RMK AO2 SLP251 T00831050=
200602150052 METAR KATL 150052Z 18005KT 10SM BKN170 BKN250 09/M04 A3025 RMK AO2 SLP250 T00891044=
200602142352 METAR KATL 142352Z 21004KT 10SM BKN150 BKN200 10/M06 A3024 RMK AO2 SLP246 T01001056 10128 20100 53007=
200602142252 METAR KATL 142252Z 22006KT 10SM BKN150 BKN200 12/M07 A3023 RMK AO2 SLP242 T01171067=
200602142152 METAR KATL 142152Z 22005KT 10SM BKN150 BKN200 BKN240 12/M07 A3022 RMK AO2 SLP238 VIRGA DSNT SW T01221067=
200602142052 METAR KATL 142052Z 22008KT 10SM FEW150 BKN200 BKN240 12/M08 A3022 RMK AO2 SLP237 T01221078 56016=
200602141952 METAR KATL 141952Z 23010KT 10SM FEW150 SCT200 BKN240 12/M09 A3022 RMK AO2 SLP239 VIRGA DSNT SW-NW T01221089=
200602141852 METAR KATL 141852Z 21010KT 10SM FEW200 12/M07 A3024 RMK AO2 SLP245 T01221072=
200602141752 METAR KATL 141752Z 24006KT 10SM FEW200 11/M07 A3026 RMK AO2 SLP253 T01111067 10111 21017 58009=
200602141652 METAR KATL 141652Z 24006KT 10SM FEW240 09/M06 A3029 RMK AO2 SLP263 T00941061=
200602141552 METAR KATL 141552Z 24010KT 10SM CLR 08/M06 A3030 RMK AO2 SLP266 T00781061=
200602141452 METAR KATL 141452Z 26010KT 10SM CLR 06/M07 A3029 RMK AO2 SLP264 T00561067 53012=
200602141352 METAR KATL 141352Z 23006KT 10SM CLR 02/M07 A3028 RMK AO2 SLP262 T00171072=
200602141252 METAR KATL 141252Z 26003KT 10SM CLR M01/M07 A3026 RMK AO2 SLP257 T10061072=
200602141152 METAR KATL 141152Z 24003KT 10SM CLR M01/M08 A3025 RMK AO2 SLP255 T10111078 10006 21017 53007=
200602141052 METAR KATL 141052Z 28006KT 10SM FEW250 M02/M09 A3024 RMK AO2 SLP249 T10171089=
200602140952 METAR KATL 140952Z 26004KT 10SM FEW250 M02/M09 A3023 RMK AO2 SLP246 T10171089=
200602140852 METAR KATL 140852Z 25005KT 10SM FEW050 M01/M09 A3023 RMK AO2 SLP245 T10111089 52002=
200602140752 METAR KATL 140752Z 23004KT 10SM FEW250 M01/M09 A3023 RMK AO2 SLP243 T10061089=
200602140652 METAR KATL 140652Z 24004KT 10SM FEW250 00/M09 A3023 RMK AO2 SLP247 T00001094=
200602140552 METAR KATL 140552Z 23006KT 10SM FEW250 01/M11 A3023 RMK AO2 SLP244 T00061106 10028 20006 50001=
200602140452 METAR KATL 140452Z 25007KT 10SM FEW250 01/M11 A3023 RMK AO2 SLP247 T00061106 400501044=
200602140352 METAR KATL 140352Z 25006KT 10SM FEW250 01/M10 A3023 RMK AO2 SLP246 T00111100=
200602140252 METAR KATL 140252Z 25006KT 10SM FEW250 01/M10 A3022 RMK AO2 SLP244 T00111100 51006=
200602140152 METAR KATL 140152Z 26006KT 10SM CLR 01/M10 A3022 RMK AO2 SLP245 T00111100=
200602140052 METAR KATL 140052Z 28005KT 10SM CLR 02/M10 A3021 RMK AO2 SLP242 T00221100=
200602132352 METAR KATL 132352Z 27006KT 10SM CLR 02/M10 A3020 RMK AO2 SLP238 T00221100 10050 20022 53003=
200602132252 METAR KATL 132252Z 25009KT 10SM CLR 04/M10 A3019 RMK AO2 SLP235 T00391100=
200602132152 METAR KATL 132152Z 27007KT 10SM CLR 05/M09 A3018 RMK AO2 SLP230 T00501094=
200602132052 METAR KATL 132052Z 26010KT 10SM CLR 05/M08 A3019 RMK AO2 SLP233 T00501083 55020=
200602131952 METAR KATL 131952Z 27007KT 250V310 10SM CLR 04/M08 A3019 RMK AO2 SLP233 T00441078=
200602131852 METAR KATL 131852Z 30011G16KT 10SM FEW050 03/M08 A3022 RMK AO2 SLP243 T00331083=
200602131752 METAR KATL 131752Z 32009KT 270V350 10SM FEW045 03/M08 A3025 RMK AO2 SLP254 T00281078 10028 21044 50001=
200602131652 METAR KATL 131652Z 31011KT 10SM FEW040 01/M08 A3027 RMK AO2 SLP260 T00061083=
200602131552 METAR KATL 131552Z 30010G16KT 10SM SCT030 00/M07 A3026 RMK AO2 SLP259 T00001072=
200602131519 SPECI KATL 131519Z 32013KT 10SM SCT026 M01/M07 A3026 RMK AO2=
200602131519 SPECI KATL 131519Z 32013KT 10SM SCT026 M01/M07 A3026 RMK AO2=
200602131508 SPECI KATL 131508Z 29010KT 10SM SCT024 BKN029 M02/M07 A3026 RMK AO2=
200602131508 SPECI KATL 131508Z 29010KT 10SM SCT024 BKN029 M02/M07 A3026 RMK AO2=
200602131452 METAR KATL 131452Z 31011KT 10SM SCT022 M02/M07 A3025 RMK AO2 SLP255 T10171072 51026=
200602131352 METAR KATL 131352Z 30009KT 9SM FEW120 M03/M07 A3023 RMK AO2 SLP248 T10281067=
200602131252 METAR KATL 131252Z 29008KT 8SM CLR M04/M07 A3019 RMK AO2 SLP236 T10391072=
200602131152 METAR KATL 131152Z 29008KT 10SM CLR M04/M08 A3017 RMK AO2 SLP228 T10391078 11011 21039 53016=
200602131052 METAR KATL 131052Z 30010KT 10SM FEW028 M03/M08 A3015 RMK AO2 SLP220 T10331078=
200602130952 METAR KATL 130952Z 30010KT 10SM CLR M03/M07 A3013 RMK AO2 SLP214 T10331072=
200602130852 METAR KATL 130852Z 30011KT 10SM FEW065 SCT120 M03/M07 A3012 RMK AO2 SLP210 T10281072 55001=
200602130752 METAR KATL 130752Z 29009KT 10SM SCT023 OVC060 M02/M06 A3012 RMK AO2 SLP209 T10171056=
200602130718 SPECI KATL 130718Z 28007KT 10SM BKN025 OVC060 M02/M06 A3012 RMK AO2=
200602130718 SPECI KATL 130718Z 28007KT 10SM BKN025 OVC060 M02/M06 A3012 RMK AO2=
200602130652 METAR KATL 130652Z 29010KT 10SM BKN060 M01/M06 A3012 RMK AO2 SLP210 T10111056=
200602130552 METAR KATL 130552Z 28008KT 9SM OVC065 M01/M06 A3012 RMK AO2 SNB32E48 SLP211 931000 P0000 60000 T10111061 11006 21022 51004=
200602130452 METAR KATL 130452Z 26005KT 10SM OVC060 M01/M07 A3012 RMK AO2 SLP211 T10111067 400331022=
200602130352 METAR KATL 130352Z 30006KT 10SM OVC055 M01/M07 A3012 RMK AO2 SLP211 T10111067=
200602130252 METAR KATL 130252Z 29003KT 10SM FEW049 M02/M07 A3011 RMK AO2 SLP208 T10171072 51007=
200602130152 METAR KATL 130152Z 27007KT 10SM SCT049 M01/M07 A3011 RMK AO2 SLP208 T10111072=
200602130052 METAR KATL 130052Z 28011KT 10SM BKN049 M01/M07 A3010 RMK AO2 SLP205 T10061072=
200602122352 METAR KATL 122352Z 28011KT 10SM BKN047 M01/M07 A3009 RMK AO2 SLP200 60000 T10061067 10033 21006 53018=
200602122252 METAR KATL 122252Z 27014KT 10SM OVC046 01/M07 A3006 RMK AO2 SLP189 BINOVC T00061067=
200602122152 METAR KATL 122152Z 27013KT 9SM BKN044 02/M06 A3005 RMK AO2 SLP184 T00171061=
200602122052 METAR KATL 122052Z 29010KT 9SM BKN046 02/M06 A3004 RMK AO2 SLP181 VCSHSN 60000 T00171061 56007=
200602121952 METAR KATL 121952Z 28012KT 9SM BKN039 BKN049 03/M05 A3004 RMK AO2 SNE25 SLP180 VCSHSN NE P0000 T00281050=
200602121852 METAR KATL 121852Z 28012KT 9SM -SN FEW036 OVC045 02/M05 A3005 RMK AO2 SLP186 VCBLSN BKINOVC OHD-NW P0000 T00171050=
200602121752 METAR KATL 121752Z 29010KT 8SM -SN BKN033 OVC045 01/M05 A3006 RMK AO2 SLP189 VCBLSN BKINOVC OHD-N P0000 60000 T00111050 10022 21011 50004=
200602121652 METAR KATL 121652Z 30015G19KT 9SM -SN BKN035 BKN110 01/M06 A3008 RMK AO2 SNB49 SLP195 VCBLSN P0000 T00111056=
200602121552 METAR KATL 121552Z 30012KT 9SM SCT029 BKN037 BKN045 01/M04 A3006 RMK AO2 SNE00B27E49 SLP189 VCBLSN P0000 T00111044=
200602121508 SPECI KATL 121508Z 29015KT 9SM SCT025 BKN033 BKN045 00/M04 A3006 RMK AO2 SNE00 VCBLSN P0000=
200602121508 SPECI KATL 121508Z 29015KT 9SM SCT025 BKN033 BKN045 00/M04 A3006 RMK AO2 SNE00 VCBLSN P0000=
200602121452 METAR KATL 121452Z 28013KT 9SM -SN BKN025 BKN032 BKN045 01/M04 A3005 RMK AO2 SLP185 VCBLSN P0000 60000 T00061044 51022=
200602121407 SPECI KATL 121407Z 29012KT 9SM -SN BKN023 BKN040 00/M04 A3004 RMK AO2 VCBLSN P0000=
200602121407 SPECI KATL 121407Z 29012KT 9SM -SN BKN023 BKN040 00/M04 A3004 RMK AO2 VCBLSN P0000=
200602121352 METAR KATL 121352Z 29014KT 9SM -SN SCT023 SCT046 00/M04 A3003 RMK AO2 SNB23 SLP178 VCBLSN P0000 T00001044=
200602121323 SPECI KATL 121323Z 27011KT 9SM -SN SCT024 BKN055 M01/M04 A3002 RMK AO2 SNB23 VCBLSN P0000=
200602121323 SPECI KATL 121323Z 27011KT 9SM -SN SCT024 BKN055 M01/M04 A3002 RMK AO2 SNB23 VCBLSN P0000=
200602121304 SPECI KATL 121304Z 28011KT 10SM BKN024 BKN041 OVC055 M01/M04 A3001 RMK AO2=
200602121304 SPECI KATL 121304Z 28011KT 10SM BKN024 BKN041 OVC055 M01/M04 A3001 RMK AO2=
200602121252 METAR KATL 121252Z 29010KT 10SM SCT022 BKN041 BKN060 M01/M04 A3001 RMK AO2 SLP170 T10111044=
200602121152 METAR KATL 121152Z 27012KT 10SM SCT055 M01/M05 A2998 RMK AO2 SLP161 70002 T10111050 10000 21011 53007=
200602121115 SPECI KATL 121115Z 28014KT 10SM SCT024 OVC055 M01/M04 A2997 RMK AO2=
200602121115 SPECI KATL 121115Z 28014KT 10SM SCT024 OVC055 M01/M04 A2997 RMK AO2=
200602121052 METAR KATL 121052Z 28012KT 10SM BKN022 OVC050 M01/M04 A2997 RMK AO2 SLP156 T10061044=
200602121033 SPECI KATL 121033Z 28009KT 10SM BKN022 OVC048 M01/M04 A2997 RMK AO2=
200602121033 SPECI KATL 121033Z 28009KT 10SM BKN022 OVC048 M01/M04 A2997 RMK AO2=
200602120952 METAR KATL 120952Z 28009KT 10SM SCT022 OVC048 M01/M04 A2996 RMK AO2 SLP154 T10061039=
200602120852 METAR KATL 120852Z 28012G18KT 10SM FEW023 OVC050 M01/M04 A2996 RMK AO2 SLP153 T10061044 55001=
200602120752 METAR KATL 120752Z 28011KT 10SM FEW027 OVC043 M01/M04 A2996 RMK AO2 SLP152 T10061044=
200602120652 METAR KATL 120652Z 29014KT 10SM SCT120 M01/M06 A2996 RMK AO2 SLP152 T10061061=
200602120552 METAR KATL 120552Z 30014KT 10SM FEW027 SCT042 M01/M05 A2996 RMK AO2 SLP153 T10061050 10022 21006 58001=
200602120452 METAR KATL 120452Z 30016G24KT 10SM FEW029 00/M04 A2997 RMK AO2 SLP155 T00001044 400670000=
200602120352 METAR KATL 120352Z 29014KT 10SM FEW026 01/M04 A2997 RMK AO2 SLP154 T00061039=
200602120252 METAR KATL 120252Z 29014KT 10SM FEW035 SCT075 01/M04 A2996 RMK AO2 SLP154 T00061039 52022=
200602120152 METAR KATL 120152Z 29012KT 10SM FEW060 02/M04 A2994 RMK AO2 SLP146 T00171044=
200602120052 METAR KATL 120052Z 30010KT 10SM FEW045 02/M03 A2992 RMK AO2 SLP137 T00171033=
200602112352 METAR KATL 112352Z 31013KT 10SM FEW045 02/M03 A2990 RMK AO2 SLP130 60000 T00221033 10056 20022 53015=
200602112252 METAR KATL 112252Z 30012KT 10SM FEW025 SCT040 03/M03 A2988 RMK AO2 SLP125 SHRA DSNT NE T00331028=
200602112157 SPECI KATL 112157Z 30017G25KT 8SM SCT025 BKN033 03/M02 A2987 RMK AO2=
200602112157 SPECI KATL 112157Z 30017G25KT 8SM SCT025 BKN033 03/M02 A2987 RMK AO2=
200602112152 METAR KATL 112152Z 31020G25KT 8SM BKN025 BKN033 03/M02 A2987 RMK AO2 SLP120 T00331017=
200602112052 METAR KATL 112052Z 29014G24KT 8SM BKN023 OVC028 03/M01 A2985 RMK AO2 PK WND 29029/2028 SLP115 60000 T00331006 53008=
200602111952 METAR KATL 111952Z 29017G23KT 8SM BKN017 OVC022 04/01 A2982 RMK AO2 PK WND 30026/1928 SLP104 T00390011=
200602111923 SPECI KATL 111923Z 29016G23KT 8SM BKN015 OVC020 04/02 A2982 RMK AO2=
200602111923 SPECI KATL 111923Z 29016G23KT 8SM BKN015 OVC020 04/02 A2982 RMK AO2=
200602111914 SPECI KATL 111914Z 28018KT 8SM SCT008 BKN013 OVC017 04/02 A2982 RMK AO2=
200602111914 SPECI KATL 111914Z 28018KT 8SM SCT008 BKN013 OVC017 04/02 A2982 RMK AO2=
200602111852 METAR KATL 111852Z 29011KT 7SM OVC008 04/03 A2982 RMK AO2 RAB29E38 SLP102 P0000 T00440028=
200602111832 SPECI KATL 111832Z 28013KT 7SM -RA BKN008 OVC012 04/03 A2982 RMK AO2 RAB29 CIG 006V009 P0000=
200602111832 SPECI KATL 111832Z 28013KT 7SM -RA BKN008 OVC012 04/03 A2982 RMK AO2 RAB29 CIG 006V009 P0000=
200602111752 METAR KATL 111752Z 32014KT 8SM SCT008 BKN012 OVC017 06/04 A2983 RMK AO2 RAB40E49 SLP105 P0000 60002 T00560039 10061 20044 53001=
200602111715 SPECI KATL 111715Z 29010KT 7SM BKN011 OVC017 06/04 A2984 RMK AO2=
200602111715 SPECI KATL 111715Z 29010KT 7SM BKN011 OVC017 06/04 A2984 RMK AO2=
200602111652 METAR KATL 111652Z 30011KT 7SM BKN009 OVC014 06/04 A2984 RMK AO2 CIG 005V011 SLP107 T00560044=
200602111559 SPECI KATL 111559Z 31008KT 6SM BR OVC007 06/04 A2982 RMK AO2 CIG 004V011=
200602111559 SPECI KATL 111559Z 31008KT 6SM BR OVC007 06/04 A2982 RMK AO2 CIG 004V011=
200602111552 METAR KATL 111552Z 31007KT 1SM BR OVC007 06/04 A2982 RMK AO2 SFC VIS 6 CIG 004V011 SLP101 T00560044=
200602111530 SPECI KATL 111530Z 33006KT 1SM BR OVC005 05/04 A2981 RMK AO2 SFC VIS 3 CIG 002V009=
200602111530 SPECI KATL 111530Z 33006KT 1SM BR OVC005 05/04 A2981 RMK AO2 SFC VIS 3 CIG 002V009=
200602111452 METAR KATL 111452Z 30006KT 1SM R09R/5000VP6000FT BR OVC003 05/04 A2983 RMK AO2 SFC VIS 1 1/4 SLP105 60002 T00500044 50003=
200602111437 SPECI KATL 111437Z 30006KT 1SM R09R/6000VP6000FT BR BKN005 OVC010 05/04 A2983 RMK AO2 SFC VIS 1 1/4 CIG 002V008=
200602111437 SPECI KATL 111437Z 30006KT 1SM R09R/6000VP6000FT BR BKN005 OVC010 05/04 A2983 RMK AO2 SFC VIS 1 1/4 CIG 002V008=
200602111408 SPECI KATL 111408Z 00000KT 1SM R09R/6000VP6000FT BR OVC006 05/05 A2982 RMK AO2 TWR VIS 2 CIG 002V009 $=
200602111408 SPECI KATL 111408Z 00000KT 1SM R09R/6000VP6000FT BR OVC006 05/05 A2982 RMK AO2 TWR VIS 2 CIG 002V009 $=
200602111352 METAR KATL 111352Z 00000KT 1 3/4SM BR OVC004 05/05 A2983 RMK AO2 TWR VIS 2 CIG 002V007 SLP106 P0001 T00500050=
200602111314 SPECI KATL 111314Z 09005KT 1 1/2SM BR BKN004 OVC008 04/04 A2981 RMK AO2 TWR VIS 2 VIS 1 1/4V2 1/2 CIG 002V006 P0001=
200602111314 SPECI KATL 111314Z 09005KT 1 1/2SM BR BKN004 OVC008 04/04 A2981 RMK AO2 TWR VIS 2 VIS 1 1/4V2 1/2 CIG 002V006 P0001=
200602111252 METAR KATL 111252Z 09005KT 2SM BR OVC006 04/04 A2982 RMK AO2 SFC VIS 3 RAB17E46 CIG 003V011 SLP100 P0001 T00440044=
200602111209 SPECI KATL 111209Z 08004KT 2 1/2SM BR BKN007 OVC010 04/04 A2982 RMK AO2 CIG 004V008=
200602111209 SPECI KATL 111209Z 08004KT 2 1/2SM BR BKN007 OVC010 04/04 A2982 RMK AO2 CIG 004V008=
200602111152 METAR KATL 111152Z 09006KT 3SM BR BKN009 OVC019 04/04 A2982 RMK AO2 RAB11E37 CIG 004V011 SLP100 P0001 60028 70035 T00440044 10050 20044 55004=
200602111148 SPECI KATL 111148Z 08006KT 3SM BR BKN009 OVC019 04/04 A2981 RMK AO2 RAB11E37 CIG 004V011 P0001=
200602111148 SPECI KATL 111148Z 08006KT 3SM BR BKN009 OVC019 04/04 A2981 RMK AO2 RAB11E37 CIG 004V011 P0001=
200602111137 SPECI KATL 111137Z 09006KT 3SM BR SCT009 OVC021 04/04 A2981 RMK AO2 RAB11E37 P0001=
200602111137 SPECI KATL 111137Z 09006KT 3SM BR SCT009 OVC021 04/04 A2981 RMK AO2 RAB11E37 P0001=
200602111052 METAR KATL 111052Z 10005KT 7SM OVC023 04/04 A2981 RMK AO2 RAB16E28 SLP098 P0000 T00440044=
200602111013 SPECI KATL 111013Z 11010KT 9SM OVC029 05/04 A2981 RMK AO2=
200602111013 SPECI KATL 111013Z 11010KT 9SM OVC029 05/04 A2981 RMK AO2=
200602110952 METAR KATL 110952Z 10007KT 10SM OVC031 04/04 A2983 RMK AO2 RAE38 SLP105 P0002 T00440044=
200602110852 METAR KATL 110852Z 09009KT 4SM -RA BR OVC040 04/04 A2990 RMK AO2 SLP129 P0005 60025 T00440039 58033=
200602110752 METAR KATL 110752Z 08006KT 5SM -RA BR BKN050 OVC060 05/04 A2994 RMK AO2 SLP143 P0012 T00500039=
200602110652 METAR KATL 110652Z 13006KT 4SM RA BR OVC050 05/04 A2997 RMK AO2 SLP151 P0008 T00500039=
200602110611 SPECI KATL 110611Z 12006KT 6SM -RA BR SCT026 OVC060 05/04 A2998 RMK AO2 P0002=
200602110611 SPECI KATL 110611Z 12006KT 6SM -RA BR SCT026 OVC060 05/04 A2998 RMK AO2 P0002=
200602110604 SPECI KATL 110604Z 15006KT 6SM -RA BR BKN026 OVC055 05/03 A3000 RMK AO2 P0001=
200602110604 SPECI KATL 110604Z 15006KT 6SM -RA BR BKN026 OVC055 05/03 A3000 RMK AO2 P0001=
200602110552 METAR KATL 110552Z 16008KT 5SM -RA BR SCT024 SCT049 OVC055 05/03 A3000 RMK AO2 SLP163 P0005 60007 T00500033 10100 20050 56016=
200602110547 SPECI KATL 110547Z 16008KT 5SM RA BR SCT026 OVC055 06/03 A3000 RMK AO2 P0004=
200602110547 SPECI KATL 110547Z 16008KT 5SM RA BR SCT026 OVC055 06/03 A3000 RMK AO2 P0004=
200602110530 SPECI KATL 110530Z 16006KT 6SM -RA BR BKN028 OVC050 06/03 A3001 RMK AO2 P0001=
200602110530 SPECI KATL 110530Z 16006KT 6SM -RA BR BKN028 OVC050 06/03 A3001 RMK AO2 P0001=
200602110452 METAR KATL 110452Z 16005KT 10SM -RA BKN046 OVC075 06/03 A3003 RMK AO2 RAB43 SLP173 P0000 T00610033 401111017=
200602110352 METAR KATL 110352Z 17003KT 10SM SCT060 OVC075 07/03 A3005 RMK AO2 SLP181 T00670033=
200602110252 METAR KATL 110252Z 11004KT 10SM FEW040 BKN070 OVC090 07/02 A3002 RMK AO2 RAE52 SLP171 P0001 60002 T00720017 58009=
200602110152 METAR KATL 110152Z 16006KT 8SM -RA BKN035 OVC050 08/M01 A3004 RMK AO2 RAB19 SLP178 P0001 T00831011=
200602110052 METAR KATL 110052Z 18004KT 10SM FEW055 BKN065 OVC080 09/M03 A3006 RMK AO2 SLP186 VIRGA OHD AND ALQDS T00941033=
200602102352 METAR KATL 102352Z 15004KT 10SM BKN110 OVC150 10/M04 A3005 RMK AO2 SLP181 VIRGA OHD AND ALQDS T01001044 10111 20089 56009=
200602102252 METAR KATL 102252Z 17006KT 10SM SCT110 BKN150 OVC200 10/M04 A3005 RMK AO2 SLP182 VIRGA OHD AND ALQDS T01001044=
200602102152 METAR KATL 102152Z 17009KT 10SM FEW120 BKN150 OVC200 11/M05 A3006 RMK AO2 SLP185 VIRGA OHD AND ALQDS T01061050=
200602102052 METAR KATL 102052Z 18008KT 10SM FEW120 BKN150 OVC200 11/M06 A3008 RMK AO2 SLP191 BINOVC DSNT S VIRGA OHD AND ALQDS T01061056 58031=
200602101952 METAR KATL 101952Z 22008KT 170V240 10SM FEW120 BKN150 OVC200 11/M06 A3011 RMK AO2 SLP203 BINOVC DSNT SW VIRGA SW-NW T01061056=
200602101852 METAR KATL 101852Z 19009KT 10SM FEW150 BKN200 BKN300 11/M06 A3014 RMK AO2 SLP212 T01061056=
200602101752 METAR KATL 101752Z 19005KT 10SM FEW150 SCT240 SCT300 09/M05 A3017 RMK AO2 SLP223 T00891050 10094 21006 58031=
200602101652 METAR KATL 101652Z 21007KT 10SM FEW150 SCT240 BKN300 08/M05 A3023 RMK AO2 SLP244 T00781050=
200602101552 METAR KATL 101552Z 18007KT 10SM FEW150 SCT180 BKN240 06/M06 A3026 RMK AO2 SLP253 T00561056=
200602101452 METAR KATL 101452Z 18008KT 10SM FEW150 SCT180 BKN240 03/M07 A3027 RMK AO2 SLP258 T00331067 50014=
200602101352 METAR KATL 101352Z 00000KT 9SM SCT200 BKN250 01/M07 A3028 RMK AO2 SLP260 T00111067=
200602101252 METAR KATL 101252Z 00000KT 10SM FEW180 BKN250 00/M07 A3025 RMK AO2 SLP253 T00001067=
200602101152 METAR KATL 101152Z 00000KT 10SM FEW180 BKN250 M01/M07 A3022 RMK AO2 SLP243 T10061067 10006 21017 53002=
200602101052 METAR KATL 101052Z 12003KT 10SM FEW250 M01/M06 A3021 RMK AO2 SLP238 T10061056=
200602100952 METAR KATL 100952Z 00000KT 10SM FEW250 M01/M07 A3023 RMK AO2 SLP243 T10111067=
200602100852 METAR KATL 100852Z 00000KT 10SM CLR M01/M06 A3022 RMK AO2 SLP240 T10061061 58001=
200602100752 METAR KATL 100752Z 00000KT 10SM FEW250 M01/M07 A3022 RMK AO2 SLP241 T10061067=
200602100652 METAR KATL 100652Z 00000KT 10SM FEW250 M01/M07 A3023 RMK AO2 SLP244 T10111067=
200602100552 METAR KATL 100552Z 00000KT 10SM SCT250 01/M07 A3022 RMK AO2 SLP240 T00061067 10044 20000 55003=
200602100452 METAR KATL 100452Z 13003KT 10SM CLR 01/M06 A3021 RMK AO2 SLP239 T00061056 400670000=
200602100352 METAR KATL 100352Z 02004KT 10SM CLR 03/M08 A3023 RMK AO2 SLP243 T00281083=
200602100252 METAR KATL 100252Z 34003KT 10SM CLR 02/M08 A3023 RMK AO2 SLP245 T00221083 50003=
200602100152 METAR KATL 100152Z 00000KT 10SM CLR 03/M08 A3024 RMK AO2 SLP247 T00281083=
200602100052 METAR KATL 100052Z 32006KT 10SM FEW250 03/M08 A3023 RMK AO2 SLP247 T00281083=
200602092352 METAR KATL 092352Z 33007KT 10SM FEW250 04/M09 A3022 RMK AO2 SLP242 T00441089 10067 20039 53004=
200602092252 METAR KATL 092252Z 32007KT 10SM FEW250 05/M08 A3022 RMK AO2 SLP239 T00501083=
200602092152 METAR KATL 092152Z 32010KT 10SM SCT220 06/M08 A3021 RMK AO2 SLP235 T00611083=
200602092052 METAR KATL 092052Z 32012KT 10SM FEW220 06/M08 A3021 RMK AO2 SLP236 T00611078 56012=
200602091952 METAR KATL 091952Z 31014KT 10SM FEW050 06/M07 A3022 RMK AO2 WSHFT 1924 SLP239 T00611072=
200602091944 SPECI KATL 091944Z 30009KT 10SM FEW050 06/M06 A3022 RMK AO2 WSHFT 1924=
200602091944 SPECI KATL 091944Z 30009KT 10SM FEW050 06/M06 A3022 RMK AO2 WSHFT 1924=
200602091852 METAR KATL 091852Z 31012G22KT 280V350 10SM FEW050 06/M06 A3023 RMK AO2 SLP240 T00611061=
200602091752 METAR KATL 091752Z 31009G20KT 10SM SCT048 06/M05 A3024 RMK AO2 SLP247 T00611050 10061 20011 51013=
200602091652 METAR KATL 091652Z 35015G19KT 10SM SCT044 05/M05 A3023 RMK AO2 WSHFT 1626 SLP241 T00501050=
200602091552 METAR KATL 091552Z 35013G21KT 10SM SCT040 04/M04 A3023 RMK AO2 SLP241 SCT024 V BKN T00441044=
200602091504 SPECI KATL 091504Z 34015G22KT 10SM FEW024 03/M03 A3021 RMK AO2 SCT024 V BKN=
200602091504 SPECI KATL 091504Z 34015G22KT 10SM FEW024 03/M03 A3021 RMK AO2 SCT024 V BKN=
200602091452 METAR KATL 091452Z 34016G23KT 10SM BKN026 03/M03 A3020 RMK AO2 SLP233 BKN026 V SCT T00331033 53031=
200602091429 SPECI KATL 091429Z 33014G22KT 10SM BKN026 03/M03 A3019 RMK AO2 BKN026 V SCT=
200602091429 SPECI KATL 091429Z 33014G22KT 10SM BKN026 03/M03 A3019 RMK AO2 BKN026 V SCT=
200602091352 METAR KATL 091352Z 32012KT 10SM FEW024 02/M03 A3017 RMK AO2 SLP221 T00221028=
200602091252 METAR KATL 091252Z 32013KT 10SM FEW024 01/M03 A3013 RMK AO2 SLP209 T00061033=
200602091152 METAR KATL 091152Z 30011KT 10SM FEW024 BKN034 01/M04 A3011 RMK AO2 SLP201 60000 T00061039 10056 20006 53015=
200602091052 METAR KATL 091052Z 32012G19KT 10SM FEW026 SCT036 01/M03 A3009 RMK AO2 SLP193 T00111033=
200602091042 SPECI KATL 091042Z 32017G21KT 10SM SCT026 BKN036 02/M03 A3009 RMK AO2=
200602091042 SPECI KATL 091042Z 32017G21KT 10SM SCT026 BKN036 02/M03 A3009 RMK AO2=
200602091024 SPECI KATL 091024Z 31012KT 10SM BKN026 BKN036 02/M02 A3008 RMK AO2=
200602091024 SPECI KATL 091024Z 31012KT 10SM BKN026 BKN036 02/M02 A3008 RMK AO2=
200602090952 METAR KATL 090952Z 30010KT 10SM FEW024 SCT045 02/M02 A3007 RMK AO2 SLP188 T00221017=
200602090852 METAR KATL 090852Z 30008KT 10SM FEW040 03/M01 A3006 RMK AO2 SLP184 60000 T00281006 58000=
200602090752 METAR KATL 090752Z 27008KT 10SM BKN050 OVC090 04/00 A3007 RMK AO2 RAB22E32 SLP187 P0000 T00390000=
200602090652 METAR KATL 090652Z 29010KT 10SM FEW028 BKN045 BKN100 04/01 A3006 RMK AO2 RAB35E50 SLP185 P0000 T00440006=
200602090552 METAR KATL 090552Z 30011KT 10SM BKN070 BKN110 OVC250 06/M01 A3006 RMK AO2 SLP185 60000 T00561006 10083 20056 58006=
200602090452 METAR KATL 090452Z 28007KT 10SM FEW060 SCT080 OVC100 06/M01 A3007 RMK AO2 RAE01 SLP187 P0000 T00611011 401061022=
200602090352 METAR KATL 090352Z 30012KT 10SM -RA BKN040 BKN055 OVC070 07/M01 A3008 RMK AO2 RAB26 SLP192 PCPN VRY LGT P0000 T00671011=
200602090252 METAR KATL 090252Z COR 29012KT 10SM BKN060 BKN070 OVC090 08/M03 A3008 RMK AO2 SLP191 VIRGA ALQDS T00781033 52012=
200602090152 METAR KATL 090152Z 27009G16KT 10SM FEW065 BKN080 OVC095 08/M06 A3007 RMK AO2 SLP189 VIRGA ALQDS T00831056=
200602090052 METAR KATL 090052Z 30006KT 10SM FEW060 BKN080 OVC095 08/M06 A3005 RMK AO2 SLP183 VIRGA ALQDS T00831056=
200602082252 METAR KATL 082252Z 26009KT 10SM FEW070 BKN085 BKN250 09/M07 A3004 RMK AO2 SLP178 VIRGA W-N ACSL VC SE-S T00941072=
200602082152 METAR KATL 082152Z 27008KT 10SM FEW080 BKN090 BKN240 09/M07 A3005=
200602082052 METAR KATL 082052Z VRB05KT 10SM SCT090 11/M07 A3007 RMK AO2 SLP186 ACSL=
200602081952 METAR KATL 081952Z COR 29009G17KT 10SM FEW065 FEW090 09/M07 A3009 RMK AO2 SLP196 ACSL DSNT W-NW T00941067=
200602081852 METAR KATL 081852Z 30012G16KT 10SM FEW065 SCT240 08/M07 A3012 RMK AO2 SLP205 T00831067=
200602081752 METAR KATL 081752Z 27007G14KT 10SM FEW240 08/M07 A3014 RMK AO2 SLP214 T00781067 10078 21022 58018=
200602081652 METAR KATL 081652Z 29007KT 10SM BKN240 06/M08 A3018 RMK AO2 SLP226 T00561078=
200602081552 METAR KATL 081552Z 30005KT 10SM BKN240 06/M07 A3020 RMK AO2 SLP235 T00561067=
200602081452 METAR KATL 081452Z 32005KT 10SM FEW240 03/M08 A3020 RMK AO2 SLP233 T00281078 51016=
200602081352 METAR KATL 081352Z 29006KT 10SM FEW150 01/M08 A3019 RMK AO2 SLP231 T00061083=
200602081252 METAR KATL 081252Z 28006KT 10SM CLR M02/M08 A3016 RMK AO2 SLP223 T10171078=
200602081152 METAR KATL 081152Z 31006KT 10SM CLR M02/M08 A3015 RMK AO2 SLP217 T10171078 10006 21022 51001=
200602081052 METAR KATL 081052Z 30006KT 10SM CLR M01/M08 A3015 RMK AO2 SLP216 T10111078=
200602080952 METAR KATL 080952Z 31008KT 10SM FEW200 M01/M08 A3015 RMK AO2 SLP217 T10111078=
200602080852 METAR KATL 080852Z 32007KT 10SM SCT140 BKN200 00/M08 A3015 RMK AO2 SLP214 T00001078 58007=
200602080752 METAR KATL 080752Z 31009KT 10SM SCT140 SCT200 00/M08 A3015 RMK AO2 SLP217 T00001078=
200602080652 METAR KATL 080652Z 30008KT 10SM FEW140 00/M08 A3017 RMK AO2 SLP222 T00001078=
200602080552 METAR KATL 080552Z 30008KT 10SM CLR 00/M08 A3017 RMK AO2 SLP222 T00001078 10056 20000 58003=
200602080452 METAR KATL 080452Z 29008KT 10SM CLR 01/M07 A3017 RMK AO2 SLP224 T00111067 400941006=
200602080352 METAR KATL 080352Z 29007KT 10SM CLR 02/M07 A3017 RMK AO2 SLP225 T00171072=
200602080252 METAR KATL 080252Z 27007KT 10SM CLR 03/M08 A3018 RMK AO2 SLP227 T00281078 52011=
200602080152 METAR KATL 080152Z 30006KT 10SM CLR 04/M07 A3016 RMK AO2 SLP222 T00391072=
200602080052 METAR KATL 080052Z 28008KT 10SM CLR 04/M07 A3016 RMK AO2 SLP220 T00441072=
200602072352 METAR KATL 072352Z 32007KT 10SM CLR 06/M08 A3014 RMK AO2 SLP215 T00561083 10094 20056 53011=
200602072252 METAR KATL 072252Z 30010KT 10SM CLR 07/M09 A3013 RMK AO2 SLP210 T00721089=
200602072152 METAR KATL 072152Z 31013KT 10SM CLR 08/M08 A3012 RMK AO2 SLP204 T00831083=
200602072052 METAR KATL 072052Z 34012KT 10SM CLR 09/M10 A3011 RMK AO2 SLP201 T00941100 55006=
200602071952 METAR KATL 071952Z 35012G19KT 10SM CLR 08/M09 A3010 RMK AO2 SLP196 T00831094=
200602071852 METAR KATL 071852Z 33015G20KT 10SM CLR 08/M08 A3011 RMK AO2 SLP202 T00781083=
200602071752 METAR KATL 071752Z 34013KT 10SM CLR 07/M07 A3013 RMK AO2 SLP208 T00721072 10072 21006 58001=
200602071652 METAR KATL 071652Z 32016KT 10SM CLR 06/M06 A3014 RMK AO2 SLP213 T00611056=
200602071552 METAR KATL 071552Z 32016G21KT 10SM CLR 04/M04 A3015 RMK AO2 SLP217 T00441039=
200602071452 METAR KATL 071452Z 30017KT 10SM CLR 02/M03 A3013 RMK AO2 SLP211 T00221028 53034=
200602071352 METAR KATL 071352Z 31015KT 10SM FEW250 01/M03 A3009 RMK AO2 SLP198 T00061028=
200602071252 METAR KATL 071252Z 31010KT 8SM FEW250 M01/M03 A3006 RMK AO2 SLP186 T10061028=
200602071152 METAR KATL 071152Z 32008KT 8SM FEW250 M01/M02 A3003 RMK AO2 SLP176 70189 T10061022 10039 21006 53003=
200602071052 METAR KATL 071052Z 31013KT 8SM FEW012 SCT250 00/M02 A3002 RMK AO2 SLP174 T00001017=
200602070952 METAR KATL 070952Z 32010KT 10SM SCT050 SCT250 01/M01 A3002 RMK AO2 SLP172 T00111006=
200602070852 METAR KATL 070852Z 29007KT 8SM OVC040 02/02 A3002 RMK AO2 SLP172 T00220017 58002=
200602070752 METAR KATL 070752Z 32010KT 9SM OVC038 03/02 A3002 RMK AO2 SLP171 T00330017=
200602070736 SPECI KATL 070736Z 32009KT 7SM SCT005 OVC034 03/03 A3002 RMK AO2=
200602070736 SPECI KATL 070736Z 32009KT 7SM SCT005 OVC034 03/03 A3002 RMK AO2=
200602070652 METAR KATL 070652Z 33006KT 6SM BR BKN005 OVC012 04/03 A3003 RMK AO2 SLP174 T00390028=
200602070614 SPECI KATL 070614Z 34008KT 5SM BR BKN005 OVC011 04/03 A3003 RMK AO2=
200602070614 SPECI KATL 070614Z 34008KT 5SM BR BKN005 OVC011 04/03 A3003 RMK AO2=
200602070604 SPECI KATL 070604Z 34007KT 6SM BR SCT005 OVC011 04/03 A3003 RMK AO2=
200602070604 SPECI KATL 070604Z 34007KT 6SM BR SCT005 OVC011 04/03 A3003 RMK AO2=
200602070552 METAR KATL 070552Z 36006KT 7SM BKN005 OVC012 04/03 A3002 RMK AO2 DZE44 SLP174 P0000 60033 T00390033 10044 20039 56005=
200602070545 SPECI KATL 070545Z 36008KT 7SM BKN005 OVC012 04/03 A3003 RMK AO2 DZE44 P0000=
200602070545 SPECI KATL 070545Z 36008KT 7SM BKN005 OVC012 04/03 A3003 RMK AO2 DZE44 P0000=
200602070452 METAR KATL 070452Z 34007KT 1 1/2SM -DZ BR OVC003 04/03 A3003 RMK AO2 SFC VIS 3 RAE19DZB36 SLP175 P0000 T00390033 400500006=
200602070436 SPECI KATL 070436Z 35008KT 1 1/2SM -DZ BR OVC003 04/03 A3003 RMK AO2 SFC VIS 5 RAE19DZB36 CIG 002V005 P0000=
200602070436 SPECI KATL 070436Z 35008KT 1 1/2SM -DZ BR OVC003 04/03 A3003 RMK AO2 SFC VIS 5 RAE19DZB36 CIG 002V005 P0000=
200602070352 METAR KATL 070352Z 36007KT 8SM -RA OVC005 04/03 A3003 RMK AO2 RAE27B48 SLP176 PCPN VRY LGT P0001 T00440033=
200602070321 SPECI KATL 070321Z 05006KT 8SM -RA BKN005 BKN020 OVC035 04/03 A3004 RMK AO2 P0001=
200602070321 SPECI KATL 070321Z 05006KT 8SM -RA BKN005 BKN020 OVC035 04/03 A3004 RMK AO2 P0001=
200602070252 METAR KATL 070252Z 05007KT 5SM -RA BR SCT005 BKN020 OVC025 04/03 A3004 RMK AO2 SLP179 P0002 60032 T00390033 51002=
200602070222 SPECI KATL 070222Z 06008KT 5SM -RA BR FEW005 SCT012 OVC018 04/03 A3004 RMK AO2 P0001=
200602070222 SPECI KATL 070222Z 06008KT 5SM -RA BR FEW005 SCT012 OVC018 04/03 A3004 RMK AO2 P0001=
200602070215 SPECI KATL 070215Z 05009KT 5SM -RA BR SCT006 BKN012 OVC018 04/03 A3004 RMK AO2 P0000=
200602070215 SPECI KATL 070215Z 05009KT 5SM -RA BR SCT006 BKN012 OVC018 04/03 A3004 RMK AO2 P0000=
200602070152 METAR KATL 070152Z 02010KT 9SM -RA BKN006 OVC020 04/03 A3004 RMK AO2 SLP179 CIG 004V008 P0010 T00440033=
200602070120 SPECI KATL 070120Z 01009KT 7SM -RA BKN006 BKN012 OVC035 04/03 A3004 RMK AO2 P0006=
200602070120 SPECI KATL 070120Z 01009KT 7SM -RA BKN006 BKN012 OVC035 04/03 A3004 RMK AO2 P0006=
200602070052 METAR KATL 070052Z 03008KT 2 1/2SM RA BR SCT005 BKN010 OVC040 04/03 A3004 RMK AO2 SFC VIS 4 SLP181 P0020 T00390033=
200602070048 SPECI KATL 070048Z 04010KT 2 1/2SM RA BR SCT007 BKN010 OVC038 04/03 A3003 RMK AO2 SFC VIS 4 P0017=
200602070048 SPECI KATL 070048Z 04010KT 2 1/2SM RA BR SCT007 BKN010 OVC038 04/03 A3003 RMK AO2 SFC VIS 4 P0017=
200602062352 METAR KATL 062352Z 05009KT 2 1/2SM RA BR BKN005 BKN020 OVC050 04/03 A3003 RMK AO2 SFC VIS 3 SLP177 P0026 60101 T00440033 10050 20039 51005=
200602062311 SPECI KATL 062311Z 13007KT 2 1/2SM RA BR FEW005 SCT015 OVC035 04/03 A3002 RMK AO2 SFC VIS 3 P0005=
200602062311 SPECI KATL 062311Z 13007KT 2 1/2SM RA BR FEW005 SCT015 OVC035 04/03 A3002 RMK AO2 SFC VIS 3 P0005=
200602062252 METAR KATL 062252Z 06007KT 6SM -RA BR FEW007 SCT015 OVC035 04/03 A3003 RMK AO2 SLP176 P0012 T00440033=
200602062226 SPECI KATL 062226Z 05007KT 3SM RA BR FEW004 SCT009 OVC035 04/03 A3003 RMK AO2 SFC VIS 3 P0010=
200602062226 SPECI KATL 062226Z 05007KT 3SM RA BR FEW004 SCT009 OVC035 04/03 A3003 RMK AO2 SFC VIS 3 P0010=
200602062215 SPECI KATL 062215Z 03007KT 2 1/2SM RA BR FEW004 SCT009 OVC035 04/03 A3004 RMK AO2 TWR VIS 3 P0007=
200602062215 SPECI KATL 062215Z 03007KT 2 1/2SM RA BR FEW004 SCT009 OVC035 04/03 A3004 RMK AO2 TWR VIS 3 P0007=
200602062152 METAR KATL 062152Z 01005KT 3SM -RA BR FEW004 SCT009 OVC035 04/03 A3004 RMK AO2 SLP178 P0013 T00440033=
200602062052 METAR KATL 062052Z 00000KT 3SM -RA BR FEW004 SCT020 OVC030 04/04 A3002 RMK AO2 SLP170 P0015 60050 T00440039 56028=
200602062033 SPECI KATL 062033Z 14005KT 3SM -RA BR FEW004 SCT020 OVC030 04/04 A3001 RMK AO2 SFC VIS 4 P0012=
200602062033 SPECI KATL 062033Z 14005KT 3SM -RA BR FEW004 SCT020 OVC030 04/04 A3001 RMK AO2 SFC VIS 4 P0012=
200602061952 METAR KATL 061952Z 14005KT 2SM RA BR FEW004 SCT020 OVC040 04/04 A3003 RMK AO2 SFC VIS 2 1/2 SLP175 P0021 T00390039=
200602061859 SPECI KATL 061859Z 16006KT 2SM RA BR FEW004 BKN040 OVC060 04/04 A3007 RMK AO2 SFC VIS 2 1/2 P0002=
200602061859 SPECI KATL 061859Z 16006KT 2SM RA BR FEW004 BKN040 OVC060 04/04 A3007 RMK AO2 SFC VIS 2 1/2 P0002=
200602061852 METAR KATL 061852Z 15005KT 2 1/2SM RA BR FEW004 OVC044 04/04 A3008 RMK AO2 SLP193 P0014 T00440039=
200602061752 METAR KATL 061752Z 00000KT 2SM RA BR FEW002 SCT007 OVC050 04/04 A3010 RMK AO2 TWR VIS 2 1/2 SLP201 P0015 60055 T00390039 10039 20006 58009=
200602061652 METAR KATL 061652Z 15007KT 2 1/2SM -RA BR FEW004 SCT030 OVC050 03/03 A3011 RMK AO2 SFC VIS 4 PRESFR SLP205 P0006 T00330028=
200602061552 METAR KATL 061552Z 33005KT 2 1/2SM RA BR FEW005 SCT015 OVC050 03/03 A3014 RMK AO2 SFC VIS 3 SLP215 P0008 T00330028=
200602061523 SPECI KATL 061523Z 32003KT 2 1/2SM -RA BR SCT027 OVC050 03/02 A3013 RMK AO2 SFC VIS 6 P0003=
200602061523 SPECI KATL 061523Z 32003KT 2 1/2SM -RA BR SCT027 OVC050 03/02 A3013 RMK AO2 SFC VIS 6 P0003=
200602061452 METAR KATL 061452Z 32004KT 2 1/2SM RA BR OVC029 03/02 A3013 RMK AO2 SFC VIS 3 SLP210 P0011 60026 T00280017 51010=
200602061437 SPECI KATL 061437Z 28003KT 2 1/2SM -RA BR OVC029 02/02 A3013 RMK AO2 SFC VIS 3 P0007=
200602061437 SPECI KATL 061437Z 28003KT 2 1/2SM -RA BR OVC029 02/02 A3013 RMK AO2 SFC VIS 3 P0007=
200602061430 SPECI KATL 061430Z 29004KT 3SM -RA BR OVC031 02/02 A3013 RMK AO2 P0006=
200602061430 SPECI KATL 061430Z 29004KT 3SM -RA BR OVC031 02/02 A3013 RMK AO2 P0006=
200602061425 SPECI KATL 061425Z 00000KT 2 1/2SM RA BR BKN029 OVC039 02/02 A3013 RMK AO2 P0005=
200602061425 SPECI KATL 061425Z 00000KT 2 1/2SM RA BR BKN029 OVC039 02/02 A3013 RMK AO2 P0005=
200602061352 METAR KATL 061352Z 30005KT 7SM -RA FEW034 BKN042 OVC055 02/02 A3012 RMK AO2 SLP208 P0006 T00220017=
200602061252 METAR KATL 061252Z 21003KT 5SM -RA BR BKN041 OVC055 02/01 A3010 RMK AO2 SLP202 P0009 T00170011=
200602061152 METAR KATL 061152Z 28004KT 6SM -RA BR SCT043 OVC055 01/00 A3010 RMK AO2 SLP199 P0005 60012 70012 T00060000 10028 20006 51009=
200602061052 METAR KATL 061052Z 30005KT 8SM -RA BKN043 OVC055 01/M01 A3009 RMK AO2 SLP197 P0007 T00061006=
200602060952 METAR KATL 060952Z 31010KT 10SM -RA SCT050 OVC070 02/M04 A3008 RMK AO2 SLP192 PLB37E40RAB43 P0000 T00221039=
200602060852 METAR KATL 060852Z 34012KT 10SM OVC060 03/M07 A3007 RMK AO2 SLP188 T00281072 53001=
200602060752 METAR KATL 060752Z 30007KT 10SM BKN080 OVC090 01/M07 A3008 RMK AO2 SLP193 T00111067=
200602060652 METAR KATL 060652Z 13005KT 10SM BKN150 01/M07 A3003 RMK AO2 PRESFR SLP176 T00061072=
200602060552 METAR KATL 060552Z 25003KT 10SM BKN110 01/M08 A3007 RMK AO2 SLP188 T00111083 10044 20006 51011=
200602060452 METAR KATL 060452Z 27006KT 10SM FEW200 01/M08 A3006 RMK AO2 SLP185 T00111083 400721022=
200602060352 METAR KATL 060352Z 25003KT 10SM SCT250 02/M08 A3004 RMK AO2 SLP182 T00171083=
200602060252 METAR KATL 060252Z 27004KT 10SM SCT250 02/M09 A3003 RMK AO2 SLP179 T00221089 51008=
200602060152 METAR KATL 060152Z 26005KT 10SM BKN250 02/M09 A3003 RMK AO2 SLP176 T00221089=
200602060052 METAR KATL 060052Z 26006KT 10SM BKN250 03/M09 A3002 RMK AO2 SLP176 T00281089=
200602052352 METAR KATL 052352Z 26009KT 10SM BKN250 04/M09 A3001 RMK AO2 SLP170 T00441094 10072 20039 53016=
200602052252 METAR KATL 052252Z 26009KT 10SM FEW130 BKN250 05/M09 A2999 RMK AO2 SLP164 T00501089=
200602052152 METAR KATL 052152Z 27011KT 10SM FEW100 BKN130 BKN300 06/M10 A2997 RMK AO2 SLP157 T00611100=
200602052052 METAR KATL 052052Z 27013G19KT 10SM BKN130 BKN300 06/M11 A2996 RMK AO2 SLP153 T00611106 55003=
200602051952 METAR KATL 051952Z 26014G20KT 10SM FEW110 SCT130 BKN300 07/M10 A2995 RMK AO2 SLP150 T00671100=
200602051852 METAR KATL 051852Z 26014KT 10SM FEW130 BKN300 07/M10 A2996 RMK AO2 SLP151 T00671100=
200602051752 METAR KATL 051752Z 29014KT 10SM FEW110 SCT300 06/M09 A2997 RMK AO2 SLP154 T00561089 10061 21022 50003=
200602051652 METAR KATL 051652Z 28013KT 10SM FEW110 SCT300 04/M08 A2998 RMK AO2 SLP159 T00441078=
200602051552 METAR KATL 051552Z 29015G21KT 10SM FEW110 SCT300 03/M07 A2998 RMK AO2 SLP159 T00331072=
200602051452 METAR KATL 051452Z 28013KT 10SM FEW110 01/M06 A2996 RMK AO2 SLP153 T00111056 51023=
200602051352 METAR KATL 051352Z 26012KT 10SM FEW110 00/M06 A2994 RMK AO2 SLP147 T00001061=
200602051252 METAR KATL 051252Z 24007KT 10SM FEW065 M02/M07 A2991 RMK AO2 SLP137 T10171067=
200602051152 METAR KATL 051152Z 25006KT 10SM FEW120 M02/M07 A2989 RMK AO2 SLP129 T10171072 10017 21017 53010=
200602051052 METAR KATL 051052Z 25006KT 10SM CLR M02/M08 A2987 RMK AO2 SLP122 T10171078=
200602050952 METAR KATL 050952Z 27007KT 10SM CLR M01/M08 A2986 RMK AO2 SLP119 T10111083=
200602050852 METAR KATL 050852Z 28009KT 10SM CLR M01/M08 A2986 RMK AO2 SLP118 T10061083 53010=
200602050752 METAR KATL 050752Z 29013G19KT 10SM FEW046 00/M08 A2985 RMK AO2 PK WND 31028/0656 SLP114 T00001083=
200602050652 METAR KATL 050652Z 29020G26KT 10SM BKN046 02/M08 A2982 RMK AO2 PK WND 29026/0652 SLP102 T00171078=
200602050552 METAR KATL 050552Z 27011KT 10SM BKN050 02/M07 A2983 RMK AO2 SLP106 T00171067 10039 20011 55001=
200602050452 METAR KATL 050452Z 28012KT 10SM FEW060 02/M07 A2982 RMK AO2 SLP104 T00171067 401440011=
200602050352 METAR KATL 050352Z 27009KT 10SM FEW060 02/M06 A2983 RMK AO2 SLP107 T00171061=
200602050252 METAR KATL 050252Z 28011KT 10SM FEW060 02/M06 A2983 RMK AO2 SLP106 T00221061 51017=
200602050152 METAR KATL 050152Z 28011KT 10SM FEW060 03/M05 A2982 RMK AO2 SLP102 T00331050=
200602050052 METAR KATL 050052Z 29008KT 10SM BKN060 04/M04 A2980 RMK AO2 SLP096 T00391044=
200602042352 METAR KATL 042352Z 30008KT 10SM SCT055 04/M04 A2978 RMK AO2 SLP088 60000 T00391044 10089 20039 53022=
200602042252 METAR KATL 042252Z 31015G20KT 10SM SCT050 05/M04 A2975 RMK AO2 PK WND 29026/2205 SLP077 T00501039=
200602042152 METAR KATL 042152Z 28018G24KT 10SM BKN050 07/M04 A2974 RMK AO2 SLP069 T00671044=
200602042052 METAR KATL 042052Z 28014KT 10SM BKN048 06/M03 A2971 RMK AO2 SLP062 60000 T00611033 55004=
200602041952 METAR KATL 041952Z 29015KT 10SM SCT038 BKN050 08/M01 A2970 RMK AO2 SLP056 MDT CU ALQDS T00831006=
200602041925 SPECI KATL 041925Z 30017G23KT 10SM BKN050 08/00 A2971 RMK AO2=
200602041925 SPECI KATL 041925Z 30017G23KT 10SM BKN050 08/00 A2971 RMK AO2=
200602041852 METAR KATL 041852Z 29018G25KT 9SM BKN027 BKN050 07/01 A2972 RMK AO2 RAE1759 SLP062 P0000 T00670011=
200602041807 SPECI KATL 041807Z 30016G25KT 8SM FEW019 SCT024 BKN036 07/04 A2972 RMK AO2 RAE1759 P0000=
200602041807 SPECI KATL 041807Z 30016G25KT 8SM FEW019 SCT024 BKN036 07/04 A2972 RMK AO2 RAE1759 P0000=
200602041752 METAR KATL 041752Z 28015KT 8SM -RA SCT019 BKN025 OVC036 06/04 A2973 RMK AO2 RAB1653 SLP067 BKINOVC W P0000 60000 T00610039 10083 20056 53010=
200602041736 SPECI KATL 041736Z 29011KT 8SM -RA SCT021 BKN028 BKN039 07/03 A2972 RMK AO2 RAB1653 P0000=
200602041736 SPECI KATL 041736Z 29011KT 8SM -RA SCT021 BKN028 BKN039 07/03 A2972 RMK AO2 RAB1653 P0000=
200602041712 SPECI KATL 041712Z 28015G19KT 10SM -RA SCT025 BKN032 BKN047 07/04 A2973 RMK AO2 RAB1653 P0000=
200602041712 SPECI KATL 041712Z 28015G19KT 10SM -RA SCT025 BKN032 BKN047 07/04 A2973 RMK AO2 RAB1653 P0000=
200602041702 SPECI KATL 041702Z 28018G24KT 9SM -RA BKN027 OVC034 07/03 A2972 RMK AO2 RAB1653 BKINOVC OHD P0000=
200602041702 SPECI KATL 041702Z 28018G24KT 9SM -RA BKN027 OVC034 07/03 A2972 RMK AO2 RAB1653 BKINOVC OHD P0000=
200602041652 METAR KATL 041652Z 30014KT 9SM FEW022 BKN031 08/03 A2972 RMK AO2 SLP064 T00830028=
200602041635 SPECI KATL 041635Z 27012G20KT 9SM SCT024 SCT028 OVC033 07/02 A2972 RMK AO2 BKINOVC OHD=
200602041635 SPECI KATL 041635Z 27012G20KT 9SM SCT024 SCT028 OVC033 07/02 A2972 RMK AO2 BKINOVC OHD=
200602041552 METAR KATL 041552Z 29018G23KT 9SM OVC022 06/02 A2970 RMK AO2 PK WND 30026/1454 SLP058 T00610017=
200602041452 METAR KATL 041452Z 29019G25KT 10SM OVC021 06/02 A2970 RMK AO2 PK WND 29026/1426 SLP055 T00610017 51029=
200602041352 METAR KATL 041352Z 28017G26KT 10SM OVC019 06/02 A2968 RMK AO2 PK WND 28026/1344 SLP049 T00560022=
200602041335 SPECI KATL 041335Z 28018G24KT 10SM OVC015 06/03 A2966 RMK AO2 PK WND 28026/1255=
200602041335 SPECI KATL 041335Z 28018G24KT 10SM OVC015 06/03 A2966 RMK AO2 PK WND 28026/1255=
200602041252 METAR KATL 041252Z 27017G24KT 10SM OVC010 06/04 A2964 RMK AO2 PK WND 28026/1239 CIG 008V014 SLP038 T00560039=
200602041152 METAR KATL 041152Z 28016G23KT 10SM OVC008 08/06 A2961 RMK AO2 SLP025 60001 70001 T00780061 10144 20078 53022=
200602041059 SPECI KATL 041059Z 27012KT 10SM BKN006 BKN012 OVC019 10/08 A2958 RMK AO2=
200602041059 SPECI KATL 041059Z 27012KT 10SM BKN006 BKN012 OVC019 10/08 A2958 RMK AO2=
200602041052 METAR KATL 041052Z 27014G21KT 10SM SCT009 BKN011 OVC026 10/09 A2957 RMK AO2 WSHFT 1018 RAE09 PRESRR SLP011 P0001 T01000089=
200602041048 SPECI KATL 041048Z 26017G22KT 10SM SCT009 BKN011 OVC026 11/09 A2957 RMK AO2 WSHFT 1018 RAE09 PRESRR P0001=
200602041048 SPECI KATL 041048Z 26017G22KT 10SM SCT009 BKN011 OVC026 11/09 A2957 RMK AO2 WSHFT 1018 RAE09 PRESRR P0001=
200602041037 SPECI KATL 041037Z 26015KT 10SM SCT009 BKN018 OVC037 13/11 A2955 RMK AO2 WSHFT 1018 RAE09 P0001=
200602041037 SPECI KATL 041037Z 26015KT 10SM SCT009 BKN018 OVC037 13/11 A2955 RMK AO2 WSHFT 1018 RAE09 P0001=
200602041030 SPECI KATL 041030Z 25014G24KT 10SM SCT011 BKN020 BKN036 13/12 A2955 RMK AO2 RAE09 CIG 015V028 P0001=
200602041030 SPECI KATL 041030Z 25014G24KT 10SM SCT011 BKN020 BKN036 13/12 A2955 RMK AO2 RAE09 CIG 015V028 P0001=
200602040952 METAR KATL 040952Z 19010KT 6SM -RA BR SCT043 BKN075 OVC090 14/13 A2954 RMK AO2 RAB46 SLP999 P0000 T01440128=
200602040933 SPECI KATL 040933Z 20010KT 9SM SCT014 BKN075 BKN085 14/13 A2955 RMK AO2=
200602040933 SPECI KATL 040933Z 20010KT 9SM SCT014 BKN075 BKN085 14/13 A2955 RMK AO2=
200602040918 SPECI KATL 040918Z 20012KT 9SM BKN014 BKN023 OVC075 14/13 A2956 RMK AO2=
200602040918 SPECI KATL 040918Z 20012KT 9SM BKN014 BKN023 OVC075 14/13 A2956 RMK AO2=
200602040852 METAR KATL 040852Z 19010G16KT 7SM SCT009 BKN017 OVC023 14/13 A2957 RMK AO2 RAB22E45 SLP007 P0000 60000 T01440133 58008=
200602040752 METAR KATL 040752Z 19010KT 9SM BKN008 OVC012 14/13 A2958 RMK AO2 SLP011 T01440133=
200602040652 METAR KATL 040652Z 18011KT 9SM OVC008 14/13 A2959 RMK AO2 CIG 007V012 SLP015 T01440133=
200602040649 SPECI KATL 040649Z 18010KT 9SM OVC008 14/13 A2959 RMK AO2 CIG 007V013=
200602040649 SPECI KATL 040649Z 18010KT 9SM OVC008 14/13 A2959 RMK AO2 CIG 007V013=
200602040552 METAR KATL 040552Z 16007KT 7SM BKN012 BKN019 14/13 A2962 RMK AO2 SLP026 OCNL LTGIC DSNT N TCU DSNT E MOV NE TCU DSNT NE MOV NE T01390128 10161 20133 58015=
200602040540 SPECI KATL 040540Z 14007KT 7SM FEW008 BKN014 BKN022 13/12 A2962 RMK AO2 TCU DSNT E MOV NE TCU DSNT NE MOV NE=
200602040540 SPECI KATL 040540Z 14007KT 7SM FEW008 BKN014 BKN022 13/12 A2962 RMK AO2 TCU DSNT E MOV NE TCU DSNT NE MOV NE=
200602040533 SPECI KATL 040533Z 15007KT 8SM SCT012 BKN017 13/12 A2962 RMK AO2 TCU DSNT S MOV NE TCU DSNT SW MOV NE=
200602040533 SPECI KATL 040533Z 15007KT 8SM SCT012 BKN017 13/12 A2962 RMK AO2 TCU DSNT S MOV NE TCU DSNT SW MOV NE=
200602040500 SPECI KATL 040500Z 14007KT 8SM BKN012 BKN020 BKN100 14/12 A2964 RMK AO2 TCU DSNT S MOV NE TCU DSNT SW MOV NE=
200602040500 SPECI KATL 040500Z 14007KT 8SM BKN012 BKN020 BKN100 14/12 A2964 RMK AO2 TCU DSNT S MOV NE TCU DSNT SW MOV NE=
200602040452 METAR KATL 040452Z 14006KT 8SM FEW012 BKN023 14/12 A2965 RMK AO2 SLP036 TCU DSNT S MOV NE T01390122 401940083=
200602040352 METAR KATL 040352Z 15009KT 9SM SCT013 BKN040 14/12 A2967 RMK AO2 SLP044 T01390122=
200602040315 SPECI KATL 040315Z 16008KT 9SM BKN013 BKN021 14/12 A2967 RMK AO2=
200602040315 SPECI KATL 040315Z 16008KT 9SM BKN013 BKN021 14/12 A2967 RMK AO2=
200602040252 METAR KATL 040252Z 15007KT 10SM FEW027 14/11 A2966 RMK AO2 SLP043 T01440111 55007=
200602040152 METAR KATL 040152Z 13007KT 10SM SCT095 SCT200 15/11 A2965 RMK AO2 SLP038 T01500106=
200602040052 METAR KATL 040052Z 13006KT 9SM SCT095 SCT200 BKN240 16/10 A2967 RMK AO2 SLP046 T01560100=
200602032352 METAR KATL 032352Z 14006KT 10SM SCT095 BKN200 BKN240 16/10 A2969 RMK AO2 SLP051 T01610100 10194 20161 56015=
200602032252 METAR KATL 032252Z 14006KT 9SM SCT049 SCT095 BKN200 BKN240 18/09 A2969 RMK AO2 SLP053 T01780094=
200602032152 METAR KATL 032152Z 18006KT 10SM FEW040 SCT200 BKN240 18/09 A2971 RMK AO2 SLP057 T01830089=
200602032052 METAR KATL 032052Z VRB04KT 10SM FEW045 BKN240 19/08 A2973 RMK AO2 SLP065 T01890078 56016=
200602031952 METAR KATL 031952Z 14006KT 10SM FEW040 BKN240 18/08 A2974 RMK AO2 SLP068 T01830083=
200602031852 METAR KATL 031852Z 13005KT 10SM FEW045 BKN240 18/08 A2975 RMK AO2 SLP072 T01780078=
200602031752 METAR KATL 031752Z 11004KT 10SM FEW030 BKN240 16/08 A2978 RMK AO2 SLP082 T01610083 10167 20083 58012=
200602031652 METAR KATL 031652Z 00000KT 10SM FEW240 15/08 A2981 RMK AO2 SLP094 T01500083=
200602031552 METAR KATL 031552Z VRB05KT 10SM FEW020 SCT240 14/09 A2983 RMK AO2 SLP100 T01390094=
200602031452 METAR KATL 031452Z 30004KT 10SM FEW015 SCT240 12/09 A2982 RMK AO2 SLP097 T01220089 53014=
200602031352 METAR KATL 031352Z 00000KT 10SM FEW250 10/10 A2980 RMK AO2 SLP090 T01000100=
200602031252 METAR KATL 031252Z 00000KT 6SM BR FEW001 SCT250 08/08 A2979 RMK AO2 SLP089 VIS S-SW 1 1/4 T00830083=
200602031242 SPECI KATL 031242Z 00000KT 6SM BR FEW001 SCT250 09/09 A2978 RMK AO2 VIS S-SW 3/4=
200602031242 SPECI KATL 031242Z 00000KT 6SM BR FEW001 SCT250 09/09 A2978 RMK AO2 VIS S-SW 3/4=
200602031227 SPECI KATL 031227Z 25003KT 2SM R09R/1400VP6000FT BR SCT001 SCT005 09/08 A2978 RMK AO2 TWR VIS 3 VIS SW-W 1/2=
200602031227 SPECI KATL 031227Z 25003KT 2SM R09R/1400VP6000FT BR SCT001 SCT005 09/08 A2978 RMK AO2 TWR VIS 3 VIS SW-W 1/2=
200602031208 SPECI KATL 031208Z 00000KT 1/2SM R09R/2000VP6000FT FG SCT001 BKN005 09/09 A2977 RMK AO2 TWR VIS 1=
200602031208 SPECI KATL 031208Z 00000KT 1/2SM R09R/2000VP6000FT FG SCT001 BKN005 09/09 A2977 RMK AO2 TWR VIS 1=
200602031159 SPECI KATL 031159Z 24005KT 1/4SM R09R/1600VP6000FT FG SCT001 OVC005 09/09 A2977 RMK AO2=
200602031159 SPECI KATL 031159Z 24005KT 1/4SM R09R/1600VP6000FT FG SCT001 OVC005 09/09 A2977 RMK AO2=
200602031152 METAR KATL 031152Z 24005KT 1/4SM R09R/1400V2200FT FG BKN001 BKN005 09/09 A2977 RMK AO2 SLP083 70009 T00940089 10122 20094 51013=
200602031150 SPECI KATL 031150Z 24005KT 1/4SM R09R/1400V1600FT FG BKN001 BKN005 09/09 A2977 RMK AO2=
200602031150 SPECI KATL 031150Z 24005KT 1/4SM R09R/1400V1600FT FG BKN001 BKN005 09/09 A2977 RMK AO2=
200602031134 SPECI KATL 031134Z 23004KT 1/4SM R09R/1400V3000FT FG BKN001 OVC005 09/09 A2977 RMK AO2 TWR VIS 1/4=
200602031134 SPECI KATL 031134Z 23004KT 1/4SM R09R/1400V3000FT FG BKN001 OVC005 09/09 A2977 RMK AO2 TWR VIS 1/4=
200602031123 SPECI KATL 031123Z 22006KT 1/4SM R09R/1600V2600FT FG SCT001 BKN005 09/09 A2976 RMK AO2 TWR VIS 1/4=
200602031123 SPECI KATL 031123Z 22006KT 1/4SM R09R/1600V2600FT FG SCT001 BKN005 09/09 A2976 RMK AO2 TWR VIS 1/4=
200602031115 SPECI KATL 031115Z 22005KT 3SM R09R/2000V3000FT BR SCT001 SCT023 09/09 A2976 RMK AO2 VIS S-W 1/2=
200602031115 SPECI KATL 031115Z 22005KT 3SM R09R/2000V3000FT BR SCT001 SCT023 09/09 A2976 RMK AO2 VIS S-W 1/2=
200602031052 METAR KATL 031052Z 00000KT 6SM BR SCT026 10/09 A2976 RMK AO2 SLP078 T01000094=
200602031034 SPECI KATL 031034Z 20004KT 3SM BR FEW002 BKN028 10/09 A2975 RMK AO2=
200602031034 SPECI KATL 031034Z 20004KT 3SM BR FEW002 BKN028 10/09 A2975 RMK AO2=
200602030952 METAR KATL 030952Z 23005KT 6SM BR OVC030 11/10 A2973 RMK AO2 SLP069 T01060100=
200602030852 METAR KATL 030852Z 17004KT 4SM BR OVC022 10/09 A2973 RMK AO2 SLP070 T01000094 51015=
200602030815 SPECI KATL 030815Z 27003KT 6SM BR BKN018 11/10 A2972 RMK AO2=
200602030815 SPECI KATL 030815Z 27003KT 6SM BR BKN018 11/10 A2972 RMK AO2=
200602030752 METAR KATL 030752Z 00000KT 7SM FEW020 SCT250 11/09 A2972 RMK AO2 SLP064 T01060094=
200602030706 SPECI KATL 030706Z 24006KT 10SM SCT020 SCT250 12/11 A2971 RMK AO2=
200602030706 SPECI KATL 030706Z 24006KT 10SM SCT020 SCT250 12/11 A2971 RMK AO2=
200602030652 METAR KATL 030652Z 25008KT 10SM FEW014 OVC021 12/11 A2972 RMK AO2 SLP063 T01220106=
200602030616 SPECI KATL 030616Z 24007KT 9SM SCT008 OVC019 12/11 A2971 RMK AO2=
200602030616 SPECI KATL 030616Z 24007KT 9SM SCT008 OVC019 12/11 A2971 RMK AO2=
200602030552 METAR KATL 030552Z 25011KT 9SM OVC006 12/11 A2969 RMK AO2 CIG 005V010 SLP054 60003 T01220111 10122 20100 51013=
200602030452 METAR KATL 030452Z 24006KT 3SM BR SCT004 BKN008 OVC015 12/11 A2968 RMK AO2 SFC VIS 6 DZE50 SLP051 P0000 T01170111 401170056=
200602030355 SPECI KATL 030355Z 23004KT 1 1/2SM -DZ BR OVC003 11/11 A2967 RMK AO2 SFC VIS 2 1/2 P0000=
200602030355 SPECI KATL 030355Z 23004KT 1 1/2SM -DZ BR OVC003 11/11 A2967 RMK AO2 SFC VIS 2 1/2 P0000=
200602030352 METAR KATL 030352Z 22004KT 1/2SM -DZ BR OVC002 11/11 A2966 RMK AO2 SFC VIS 2 SLP046 P0000 T01110106=
200602030252 METAR KATL 030252Z 20003KT 1/2SM R09R/4500VP6000FT -DZ BR OVC002 11/11 A2965 RMK AO2 SFC VIS 3/4 SLP041 P0001 60003 T01060106 53006=
200602030152 METAR KATL 030152Z COR 16007KT 1/2SM R09R/6000VP6000FT -DZ BR OVC002 10/10 A2965 RMK AO2 SFC VIS 1 RAE0058DZB0058 SLP042 CIG 001V004 P0000 T01000100=
200602030137 SPECI KATL 030137Z 14006KT 1/2SM R09R/P6000FT -DZ BR OVC002 10/10 A2965 RMK AO2 SFC VIS 1 RAE0058DZB0058 CIG 001V004 P0000=
200602030137 SPECI KATL 030137Z 14006KT 1/2SM R09R/P6000FT -DZ BR OVC002 10/10 A2965 RMK AO2 SFC VIS 1 RAE0058DZB0058 CIG 001V004 P0000=
200602030052 METAR KATL 030052Z 12007KT 1SM -RA BR OVC002 10/09 A2963 RMK AO2 SFC VIS 1 1/2 DZB05E14B38E48 SLP036 CIG 001V005 P0002 T01000094=
200602030021 SPECI KATL 030021Z 12005KT 1SM -RA BR OVC003 10/09 A2964 RMK AO2 SFC VIS 1 1/2 DZB05E14 CIG 001V007 P0001=
200602030021 SPECI KATL 030021Z 12005KT 1SM -RA BR OVC003 10/09 A2964 RMK AO2 SFC VIS 1 1/2 DZB05E14 CIG 001V007 P0001=
200602030014 SPECI KATL 030014Z 12004KT 1 1/2SM -RA BR OVC003 10/09 A2964 RMK AO2 DZB05E14 CIG 001V007 P0001=
200602030014 SPECI KATL 030014Z 12004KT 1 1/2SM -RA BR OVC003 10/09 A2964 RMK AO2 DZB05E14 CIG 001V007 P0001=
200602030006 SPECI KATL 030006Z 10006KT 1 1/2SM -DZ BR OVC005 10/09 A2964 RMK AO2 SFC VIS 2 RAE05DZB05 CIG 002V007 P0000=
200602030006 SPECI KATL 030006Z 10006KT 1 1/2SM -DZ BR OVC005 10/09 A2964 RMK AO2 SFC VIS 2 RAE05DZB05 CIG 002V007 P0000=
200602022352 METAR KATL 022352Z 10006KT 2SM -RA BR OVC005 10/09 A2964 RMK AO2 RAE2255B45DZB35E45 SLP041 P0002 60002 T01000089 10111 20089 55007=
200602022340 SPECI KATL 022340Z 08003KT 2SM -DZ BR OVC005 10/09 A2964 RMK AO2 RAE2255DZB35 P0000=
200602022340 SPECI KATL 022340Z 08003KT 2SM -DZ BR OVC005 10/09 A2964 RMK AO2 RAE2255DZB35 P0000=
200602022252 METAR KATL 022252Z 10007KT 8SM -RA OVC006 10/08 A2963 RMK AO2 RAB32 SLP034 P0000 T01000083=
200602022152 METAR KATL 022152Z 12010KT 9SM OVC008 10/08 A2964 RMK AO2 SLP040 T01000083=
200602022129 SPECI KATL 022129Z 12007KT 9SM OVC008 10/08 A2965 RMK AO2=
200602022129 SPECI KATL 022129Z 12007KT 9SM OVC008 10/08 A2965 RMK AO2=
200602022052 METAR KATL 022052Z 14008KT 9SM OVC010 10/08 A2966 RMK AO2 SLP047 T01000078 56006=
200602022016 SPECI KATL 022016Z 14013KT 10SM OVC014 10/07 A2968 RMK AO2=
200602022016 SPECI KATL 022016Z 14013KT 10SM OVC014 10/07 A2968 RMK AO2=
200602021952 METAR KATL 021952Z 15010KT 10SM OVC018 11/07 A2967 RMK AO2 SLP048 T01060072=
200602021914 SPECI KATL 021914Z 14018G24KT 10SM BKN018 BKN070 BKN150 OVC200 11/07 A2967 RMK AO2=
200602021914 SPECI KATL 021914Z 14018G24KT 10SM BKN018 BKN070 BKN150 OVC200 11/07 A2967 RMK AO2=
200602021852 METAR KATL 021852Z 14014G21KT 10SM FEW016 SCT070 SCT100 SCT150 OVC200 11/07 A2966 RMK AO2 SLP046 T01060072=
200602021752 METAR KATL 021752Z 14011G23KT 10SM FEW030 SCT065 BKN150 BKN200 09/07 A2968 RMK AO2 RAE30 SLP053 P0001 60004 T00890067 10094 20056 58072=
200602021702 SPECI KATL 021702Z 11013KT 6SM -RA BKN027 BKN060 BKN070 OVC150 08/03 A2978 RMK AO2 PRESFR P0001=
200602021702 SPECI KATL 021702Z 11013KT 6SM -RA BKN027 BKN060 BKN070 OVC150 08/03 A2978 RMK AO2 PRESFR P0001=
200602021652 METAR KATL 021652Z 11007KT 7SM -RA FEW040 BKN070 BKN100 OVC150 08/03 A2984 RMK AO2 RAB21 SLP105 P0003 T00830028=
200602021552 METAR KATL 021552Z 11010KT 10SM FEW100 SCT120 OVC150 08/M01 A2985 RMK AO2 PRESFR SLP109 VIRGA OHD AND ALQDS T00831006=
200602021452 METAR KATL 021452Z 08006KT 10SM FEW100 SCT120 BKN150 OVC180 08/00 A2990 RMK AO2 SLP127 VIRGA OHD AND ALQDS T00780000 55001=
200602021352 METAR KATL 021352Z 09008KT 10SM SCT100 OVC150 06/00 A2987 RMK AO2 SLP117 VIRGA OHD-ALQDS T00610000=
200602021252 METAR KATL 021252Z 07007KT 10SM FEW090 BKN130 OVC180 06/00 A2988 RMK AO2 SLP121 VIRGA OHD-ALQDS T00560000=
200602021152 METAR KATL 021152Z 09005KT 10SM SCT130 OVC180 06/00 A2990 RMK AO2 SLP128 T00560000 10089 20056 53003=
200602021052 METAR KATL 021052Z 07004KT 10SM FEW130 BKN180 OVC250 07/00 A2989 RMK AO2 SLP124 T00670000=
200602020952 METAR KATL 020952Z 11003KT 10SM FEW130 SCT180 BKN250 07/01 A2990 RMK AO2 SLP125 T00670006=
200602020852 METAR KATL 020852Z 08004KT 10SM FEW130 SCT180 OVC250 07/00 A2989 RMK AO2 SLP123 T00670000 58014=
200602020752 METAR KATL 020752Z 11003KT 10SM BKN200 BKN250 08/M01 A2991 RMK AO2 SLP129 T00781006=
200602020652 METAR KATL 020652Z 13003KT 10SM BKN200 OVC250 08/M01 A2992 RMK AO2 SLP132 T00781006=
200602020552 METAR KATL 020552Z 00000KT 10SM BKN200 OVC250 08/M01 A2994 RMK AO2 SLP138 T00831006 10122 20083 58006=
200602020452 METAR KATL 020452Z 14004KT 10SM BKN200 BKN250 09/00 A2995 RMK AO2 SLP143 T00890000 401440000=
200602020352 METAR KATL 020352Z 00000KT 10SM SCT200 BKN250 10/M01 A2996 RMK AO2 SLP147 T01001011=
200602020252 METAR KATL 020252Z 14004KT 10SM SCT180 BKN250 10/M01 A2995 RMK AO2 SLP146 T01001006 58008=
200602020152 METAR KATL 020152Z 00000KT 10SM BKN180 OVC250 11/M01 A2997 RMK AO2 SLP154 T01061006=
200602020052 METAR KATL 020052Z COR 00000KT 10SM BKN180 OVC250 12/M02 A2998 RMK AO2 SLP156 T01171022=
200602012352 METAR KATL 012352Z 00000KT 10SM BKN170 BKN200 BKN250 12/M02 A2998 RMK AO2 SLP156 T01221017 10144 20117 55000=
200602012252 METAR KATL 012252Z 18003KT 10SM BKN170 BKN200 BKN250 13/M02 A2997 RMK AO2 SLP151 T01281017=
200602012152 METAR KATL 012152Z 22005KT 10SM SCT150 BKN200 BKN250 13/M03 A2998 RMK AO2 SLP154 VIRGA OHD-NE-SW T01331028=
200602012052 METAR KATL 012052Z VRB03KT 10SM BKN200 BKN250 BKN300 14/M03 A2998 RMK AO2 SLP155 T01391028 56019=
200602011952 METAR KATL 011952Z 24005KT 10SM BKN200 BKN250 BKN300 14/M03 A2999 RMK AO2 SLP157 T01441028=
200602011852 METAR KATL 011852Z 20005KT 10SM BKN250 BKN300 14/M03 A3001 RMK AO2 SLP164 T01391028=
200602011752 METAR KATL 011752Z VRB04KT 10SM BKN250 BKN300 13/M02 A3003 RMK AO2 SLP173 T01281022 10128 20000 58011=
200602011652 METAR KATL 011652Z 31005KT 10SM FEW250 BKN300 11/M02 A3007 RMK AO2 SLP186 T01111017=
200602011552 METAR KATL 011552Z 29005KT 10SM FEW250 BKN300 09/M02 A3008 RMK AO2 SLP189 T00941017=
200602011452 METAR KATL 011452Z VRB04KT 10SM FEW250 BKN300 06/M01 A3007 RMK AO2 SLP186 T00611011 51014=
200602011352 METAR KATL 011352Z 29005KT 8SM BKN250 02/M02 A3007 RMK AO2 SLP187 T00221017=
200602011252 METAR KATL 011252Z 30006KT 10SM BKN250 00/M03 A3005 RMK AO2 SLP182 T00001028=
