##########################################################
# Query made at 04/19/2024 22:57:57 UTC
# Time interval: from 09/01/2006 12:00  to 09/30/2006 12:59  UTC
##########################################################

##########################################################
# KATL, Atlanta, Hartsfield - Jackson Atlanta International Airport (United States)
# WMO index: 72219. WIGOS ID: 0-20000-0-72219
# Latitude 33-38-59N. Longitude 084-25-00W. Altitude 312 m.
##########################################################

200609301252 METAR KATL 301252Z 20004KT 10SM FEW120 SCT180 BKN250 14/08 A3011 RMK AO2 SLP193 T01440083=
200609301152 METAR KATL 301152Z COR 00000KT 9SM FEW150 SCT250 12/08 A3010 RMK AO2 SLP189 T01170083 10150 20117 53010=
200609301052 METAR KATL 301052Z 00000KT 9SM FEW250 12/08 A3009 RMK AO2 SLP186 T01170083=
200609300952 METAR KATL 300952Z 00000KT 7SM CLR 12/08 A3007 RMK AO2 SLP179 T01220083=
200609300852 METAR KATL 300852Z 00000KT 10SM FEW180 13/09 A3006 RMK AO2 SLP177 T01280089 53002=
200609300752 METAR KATL 300752Z 00000KT 10SM FEW250 13/08 A3006 RMK AO2 SLP176 T01280083=
200609300652 METAR KATL 300652Z 00000KT 8SM SCT180 13/09 A3006 RMK AO2 SLP175 T01330089=
200609300552 METAR KATL 300552Z 00000KT 10SM CLR 15/08 A3006 RMK AO2 SLP173 T01500078 10183 20139 53003=
200609300452 METAR KATL 300452Z 13003KT 10SM FEW250 14/08 A3004 RMK AO2 SLP170 T01440083 402110100=
200609300352 METAR KATL 300352Z 00000KT 10SM FEW250 15/08 A3006 RMK AO2 SLP175 T01500083=
200609300252 METAR KATL 300252Z 14003KT 10SM SCT250 16/08 A3005 RMK AO2 SLP171 T01610083 51010=
200609300152 METAR KATL 300152Z 00000KT 10SM FEW250 17/07 A3004 RMK AO2 SLP169 T01670072=
200609300052 METAR KATL 300052Z 33004KT 10SM FEW250 17/06 A3003 RMK AO2 SLP166 T01720056=
200609292352 METAR KATL 292352Z 33005KT 10SM FEW200 18/06 A3002 RMK AO2 SLP163 T01780056 10211 20178 50001=
200609292252 METAR KATL 292252Z 30006KT 10SM CLR 19/06 A3002 RMK AO2 SLP164 T01890061=
200609292152 METAR KATL 292152Z 32008KT 290V350 10SM FEW250 21/06 A3001 RMK AO2 SLP161 T02060056=
200609292052 METAR KATL 292052Z 32009KT 10SM FEW240 21/06 A3001 RMK AO2 SLP160 T02060061 56012=
200609291952 METAR KATL 291952Z VRB05KT 10SM FEW240 20/06 A3002 RMK AO2 SLP162 T02000056=
200609291852 METAR KATL 291852Z 27007KT 10SM FEW060 SCT240 20/06 A3003 RMK AO2 SLP167 T02000061=
200609291752 METAR KATL 291752Z 28007KT 10SM FEW060 SCT240 19/06 A3005 RMK AO2 SLP172 T01940061 10194 20100 58011=
200609291652 METAR KATL 291652Z 34007KT 10SM FEW050 SCT240 19/06 A3007 RMK AO2 SLP179 T01890056=
200609291552 METAR KATL 291552Z 34007KT 10SM FEW050 SCT240 18/07 A3007 RMK AO2 SLP180 T01780067=
200609291452 METAR KATL 291452Z 32008KT 10SM CLR 17/07 A3008 RMK AO2 SLP184 T01670072 51015=
200609291352 METAR KATL 291352Z 31007KT 10SM CLR 14/08 A3007 RMK AO2 SLP181 T01390078=
200609291252 METAR KATL 291252Z 32009KT 10SM CLR 12/08 A3006 RMK AO2 SLP177 T01170078=
200609291152 METAR KATL 291152Z 31007KT 10SM CLR 10/07 A3004 RMK AO2 SLP170 T01000072 10128 20100 53014=
200609291052 METAR KATL 291052Z 32007KT 10SM CLR 10/07 A3001 RMK AO2 SLP161 T01000072=
200609290952 METAR KATL 290952Z 32005KT 10SM CLR 11/07 A3000 RMK AO2 SLP155 T01060072=
200609290852 METAR KATL 290852Z 31008KT 10SM CLR 11/08 A3000 RMK AO2 SLP153 T01110078 53009=
200609290752 METAR KATL 290752Z 29007KT 10SM CLR 11/08 A2998 RMK AO2 SLP144 T01110083=
200609290652 METAR KATL 290652Z 31008KT 10SM CLR 12/08 A2998 RMK AO2 SLP144 T01220083=
200609290552 METAR KATL 290552Z 30007KT 10SM CLR 13/09 A2997 RMK AO2 SLP142 T01280089 10200 20128 51002=
200609290452 METAR KATL 290452Z 31008KT 10SM CLR 14/09 A2997 RMK AO2 SLP142 T01390089 402720133=
200609290352 METAR KATL 290352Z 32008KT 10SM CLR 14/09 A2997 RMK AO2 SLP141 T01440089=
200609290252 METAR KATL 290252Z 32008KT 10SM CLR 16/09 A2996 RMK AO2 SLP140 T01560089 51031=
200609290152 METAR KATL 290152Z 32012KT 10SM FEW050 17/08 A2995 RMK AO2 SLP136 T01670083=
200609290052 METAR KATL 290052Z 33015G21KT 10SM FEW035 18/08 A2991 RMK AO2 SLP123 T01780083=
200609282352 METAR KATL 282352Z 30010KT 10SM FEW045 SCT075 BKN090 BKN200 20/12 A2987 RMK AO2 SLP108 FRQ LTG DSNT SE 60000 T02000122 10272 20200 53023=
200609282252 METAR KATL 282252Z 30013G23KT 10SM SCT045TCU BKN065 BKN100 BKN200 21/13 A2985 RMK AO2 PK WND 32028/2236 WSHFT 2224 RAE03 SLP102 TCU OHD-W CB DSNT E-S P0000 T02110128=
200609282244 SPECI KATL 282244Z 31018G28KT 10SM SCT045TCU BKN065 BKN100 BKN200 22/13 A2984 RMK AO2 PK WND 32028/2236 WSHFT 2224 RAE03 TCU OHD-W AND DSNT E-SE CB DSNT SE-SW P0000=
200609282244 SPECI KATL 282244Z 31018G28KT 10SM SCT045TCU BKN065 BKN100 BKN200 22/13 A2984 RMK AO2 PK WND 32028/2236 WSHFT 2224 RAE03 TCU OHD-W AND DSNT E-SE CB DSNT SE-SW P0000=
200609282152 METAR KATL 282152Z 27017G24KT 10SM -RA SCT055CB BKN070 BKN100 BKN200 24/14 A2981 RMK AO2 PK WND 26028/2134 TSB19E42RAB46 SLP087 TS MOV E CB OHD-SW AND DSNT N-NE MOV E P0000 T02390139=
200609282143 SPECI KATL 282143Z 26013G28KT 10SM SCT055TCU BKN100 BKN200 25/13 A2980 RMK AO2 PK WND 26028/2134 TSB19E42 TS MOV E TCU OHD-SW CB DSNT N-NE AND NW=
200609282143 SPECI KATL 282143Z 26013G28KT 10SM SCT055TCU BKN100 BKN200 25/13 A2980 RMK AO2 PK WND 26028/2134 TSB19E42 TS MOV E TCU OHD-SW CB DSNT N-NE AND NW=
200609282119 SPECI KATL 282119Z 24014G20KT 10SM TS FEW050CB SCT120 SCT200 26/13 A2980 RMK AO2 TSB19 FRQ LTGCG TS VC NW-N MOV E=
200609282119 SPECI KATL 282119Z 24014G20KT 10SM TS FEW050CB SCT120 SCT200 26/13 A2980 RMK AO2 TSB19 FRQ LTGCG TS VC NW-N MOV E=
200609282052 METAR KATL 282052Z 23018G23KT 10SM FEW060 SCT110 SCT200 26/12 A2980 RMK AO2 PK WND 23031/2002 SLP082 CB DSNT NE AND DSNT NW MOV E TCU DSNT NE AND DSNT SW AND DSNT NW T02610122 56020=
200609281952 METAR KATL 281952Z 25020G28KT 9SM FEW065 SCT090 SCT150 SCT200 27/11 A2980 RMK AO2 PK WND 23031/1932 SLP082 LTG DSNT N-NE CB DSNT N-NE AND DSNT SW-W SHRA DSNT N-NE AND DSNT SW-W BLDU OVR RWY T02720106=
200609281852 METAR KATL 281852Z 24021G26KT 9SM FEW060 SCT090 SCT150 27/11 A2982 RMK AO2 PK WND 25028/1823 SLP089 CB DSNT N BLDU OVR RWY T02670106=
200609281752 METAR KATL 281752Z 26018G22KT 10SM FEW050 SCT090 SCT150 27/13 A2986 RMK AO2 SLP101 CB DSNT N ACSL DSNT NE-SE T02720133 10272 20161 58018=
200609281652 METAR KATL 281652Z 25015G23KT 10SM FEW060 SCT100 SCT150 26/13 A2988 RMK AO2 SLP109 CB DSNT NW ACC DSNT NW ACSL DSNT NE AND SE T02610128=
200609281552 METAR KATL 281552Z 25010G20KT 10SM FEW110 SCT150 24/13 A2990 RMK AO2 SLP119 BLDU OVR RWY T02440128=
200609281452 METAR KATL 281452Z 24008KT 10SM FEW095 SCT150 SCT300 24/13 A2991 RMK AO2 SLP120 ACC NE T02390128 58007=
200609281352 METAR KATL 281352Z 22006KT 10SM FEW095 BKN150 20/13 A2992 RMK AO2 SLP125 T02000133=
200609281252 METAR KATL 281252Z 21006KT 8SM FEW095 SCT250 17/13 A2993 RMK AO2 SLP129 T01720128=
200609281152 METAR KATL 281152Z 23006KT 8SM FEW095 SCT250 16/13 A2993 RMK AO2 SLP130 T01610128 10194 20161 50000=
200609281052 METAR KATL 281052Z 23005KT 10SM SCT095 17/13 A2994 RMK AO2 SLP131 T01670128=
200609280952 METAR KATL 280952Z 21003KT 9SM OVC095 16/13 A2993 RMK AO2 SLP130 T01610128=
200609280852 METAR KATL 280852Z 17004KT 9SM FEW060 17/13 A2993 RMK AO2 SLP129 T01670128 56008=
200609280752 METAR KATL 280752Z 22005KT 6SM HZ CLR 18/13 A2993 RMK AO2 SLP129 T01780128=
200609280652 METAR KATL 280652Z 24006KT 9SM CLR 19/12 A2995 RMK AO2 SLP134 T01890122=
200609280552 METAR KATL 280552Z 25007KT 10SM CLR 19/13 A2996 RMK AO2 SLP137 T01940128 10228 20183 58002=
200609280452 METAR KATL 280452Z 23004KT 10SM CLR 19/13 A2996 RMK AO2 SLP139 T01890133 402610122=
200609280352 METAR KATL 280352Z 23004KT 10SM CLR 19/13 A2997 RMK AO2 SLP141 T01890133=
200609280252 METAR KATL 280252Z 23005KT 10SM CLR 20/13 A2997 RMK AO2 SLP141 T02000133 53005=
200609280152 METAR KATL 280152Z 21004KT 10SM CLR 21/13 A2996 RMK AO2 SLP139 T02110128=
200609280052 METAR KATL 280052Z 24005KT 10SM CLR 22/13 A2995 RMK AO2 SLP138 T02170133=
200609272352 METAR KATL 272352Z 24004KT 10SM CLR 23/13 A2995 RMK AO2 SLP137 T02280128 10261 20228 56004=
200609272252 METAR KATL 272252Z 26005KT 10SM FEW055 23/13 A2995 RMK AO2 SLP138 T02330128=
200609272152 METAR KATL 272152Z 28007KT 10SM FEW060 25/12 A2995 RMK AO2 SLP137 T02500122=
200609272052 METAR KATL 272052Z VRB06KT 10SM FEW060 26/11 A2996 RMK AO2 SLP140 T02560111 56014=
200609271952 METAR KATL 271952Z VRB04KT 10SM FEW060 25/11 A2997 RMK AO2 SLP141 T02500111=
200609271852 METAR KATL 271852Z 32008KT 10SM FEW055 26/12 A2998 RMK AO2 SLP147 T02560117=
200609271752 METAR KATL 271752Z 31007KT 10SM FEW055 24/11 A3001 RMK AO2 SLP154 T02440111 10244 20128 58016=
200609271652 METAR KATL 271652Z 32010KT 10SM FEW050 23/11 A3003 RMK AO2 SLP161 T02330106=
200609271552 METAR KATL 271552Z 35007KT 10SM CLR 22/10 A3004 RMK AO2 SLP167 T02220100=
200609271452 METAR KATL 271452Z 31007KT 10SM CLR 21/11 A3005 RMK AO2 SLP172 T02060106 51008=
200609271352 METAR KATL 271352Z 33006KT 10SM CLR 18/11 A3005 RMK AO2 SLP171 T01830111=
200609271252 METAR KATL 271252Z 33005KT 10SM CLR 16/10 A3005 RMK AO2 SLP170 T01610100=
200609271152 METAR KATL 271152Z 32008KT 7SM CLR 13/10 A3003 RMK AO2 SLP165 T01280100 10150 20122 53005=
200609271052 METAR KATL 271052Z 31005KT 8SM CLR 13/11 A3002 RMK AO2 SLP161 T01280106=
200609270952 METAR KATL 270952Z 31007KT 10SM BKN055 13/11 A3001 RMK AO2 SLP158 T01330106=
200609270852 METAR KATL 270852Z 34004KT 10SM FEW055 14/11 A3001 RMK AO2 SLP156 T01390106 58005=
200609270752 METAR KATL 270752Z 33005KT 10SM FEW055 14/11 A3001 RMK AO2 SLP158 T01440106=
200609270652 METAR KATL 270652Z 33004KT 10SM FEW060 14/11 A3002 RMK AO2 SLP160 T01440106=
200609270552 METAR KATL 270552Z 33005KT 10SM FEW060 15/11 A3003 RMK AO2 SLP163 T01500111 10206 20150 58005=
200609270452 METAR KATL 270452Z 33003KT 10SM BKN060 16/11 A3004 RMK AO2 SLP167 T01610111 402560128=
200609270352 METAR KATL 270352Z 32004KT 10SM BKN060 16/12 A3005 RMK AO2 SLP169 T01610117=
200609270252 METAR KATL 270252Z 32005KT 10SM CLR 17/11 A3004 RMK AO2 SLP168 T01720111 51008=
200609270152 METAR KATL 270152Z 33006KT 10SM CLR 18/11 A3004 RMK AO2 SLP166 T01830111=
200609270052 METAR KATL 270052Z 31007KT 10SM CLR 19/11 A3003 RMK AO2 SLP163 T01890111=
200609262352 METAR KATL 262352Z 32008KT 10SM FEW050 21/11 A3002 RMK AO2 SLP161 T02060111 10256 20206 53004=
200609262252 METAR KATL 262252Z 30009KT 10SM FEW055 23/10 A3000 RMK AO2 SLP155 T02280100=
200609262152 METAR KATL 262152Z 28007KT 10SM SCT060 24/10 A3000 RMK AO2 SLP153 T02390100=
200609262052 METAR KATL 262052Z 36003KT 10SM FEW060 25/11 A3000 RMK AO2 SLP154 T02500106 56015=
200609261952 METAR KATL 261952Z 27005KT 10SM FEW055 25/11 A3001 RMK AO2 SLP156 T02500106=
200609261852 METAR KATL 261852Z VRB04KT 10SM SCT050 25/12 A3002 RMK AO2 SLP161 T02500117=
200609261752 METAR KATL 261752Z 00000KT 10SM SCT040 23/12 A3005 RMK AO2 SLP170 T02280117 10244 20128 58014=
200609261652 METAR KATL 261652Z VRB04KT 10SM FEW034 23/14 A3007 RMK AO2 SLP177 T02330139=
200609261552 METAR KATL 261552Z 00000KT 10SM CLR 22/13 A3009 RMK AO2 SLP182 T02170133=
200609261452 METAR KATL 261452Z VRB06KT 10SM CLR 20/13 A3009 RMK AO2 SLP185 T02000128 51010=
200609261352 METAR KATL 261352Z 05008KT 10SM CLR 19/11 A3009 RMK AO2 SLP184 T01890111=
200609261252 METAR KATL 261252Z 33007KT 10SM CLR 15/11 A3008 RMK AO2 SLP182 T01500111=
200609261152 METAR KATL 261152Z 34008KT 9SM CLR 13/11 A3006 RMK AO2 SLP176 T01280106 10144 20128 51010=
200609261052 METAR KATL 261052Z 33007KT 10SM CLR 13/11 A3005 RMK AO2 SLP172 T01280106=
200609260952 METAR KATL 260952Z 32008KT 10SM CLR 13/11 A3004 RMK AO2 SLP169 T01280106=
200609260852 METAR KATL 260852Z 31007KT 10SM CLR 13/11 A3003 RMK AO2 SLP164 T01330106 56006=
200609260752 METAR KATL 260752Z 31008KT 10SM CLR 13/11 A3003 RMK AO2 SLP164 T01330111=
200609260652 METAR KATL 260652Z 31009KT 10SM CLR 14/11 A3004 RMK AO2 SLP168 T01390111=
200609260552 METAR KATL 260552Z 31006KT 10SM CLR 14/11 A3005 RMK AO2 SLP170 T01440111 10200 20144 57004=
200609260452 METAR KATL 260452Z 30006KT 10SM CLR 16/12 A3005 RMK AO2 SLP171 T01560117 402390150=
200609260352 METAR KATL 260352Z 32007KT 10SM CLR 16/12 A3006 RMK AO2 SLP173 T01610117=
200609260252 METAR KATL 260252Z 33008KT 320V030 10SM CLR 17/12 A3006 RMK AO2 SLP175 T01670122 51012=
200609260152 METAR KATL 260152Z 32007KT 10SM CLR 18/12 A3006 RMK AO2 SLP175 T01780122=
200609260052 METAR KATL 260052Z 32007KT 10SM CLR 19/12 A3005 RMK AO2 SLP170 T01890117=
200609252352 METAR KATL 252352Z 33008KT 10SM CLR 20/12 A3002 RMK AO2 SLP162 T02000117 10239 20200 53008=
200609252252 METAR KATL 252252Z 33009KT 10SM FEW040 22/12 A3001 RMK AO2 SLP157 T02170117=
200609252152 METAR KATL 252152Z 34011KT 10SM FEW040 23/12 A3000 RMK AO2 SLP152 T02280122=
200609252052 METAR KATL 252052Z 33012KT 10SM FEW040 24/13 A3000 RMK AO2 SLP153 T02390128 56011=
200609251952 METAR KATL 251952Z 34010KT 10SM FEW040 24/12 A3000 RMK AO2 SLP154 T02390122=
200609251852 METAR KATL 251852Z 32009KT 10SM SCT040 23/13 A3002 RMK AO2 SLP158 T02330128=
200609251752 METAR KATL 251752Z 31005G14KT 10SM FEW035 22/12 A3003 RMK AO2 SLP164 T02220122 10228 20161 58009=
200609251652 METAR KATL 251652Z 32010KT 10SM FEW040 SCT240 22/13 A3005 RMK AO2 SLP168 T02220128 $=
200609251552 METAR KATL 251552Z 33009KT 290V020 10SM FEW035 SCT240 21/13 A3006 RMK AO2 SLP172 T02110128 $=
200609251452 METAR KATL 251452Z 33007KT 10SM FEW020 SCT150 SCT240 19/14 A3006 RMK AO2 SLP174 T01940139 51017 $=
200609251352 METAR KATL 251352Z 31008KT 10SM FEW020 SCT120 SCT250 18/14 A3004 RMK AO2 SLP167 T01780139 $=
200609251252 METAR KATL 251252Z 31010KT 10SM BKN120 BKN250 17/14 A3004 RMK AO2 SLP166 T01670139 $=
200609251152 METAR KATL 251152Z 32010KT 10SM BKN120 BKN200 16/14 A3001 RMK AO2 SLP156 70088 T01610139 10178 20161 53012 $=
200609251052 METAR KATL 251052Z 32009KT 10SM BKN120 OVC200 17/14 A3000 RMK AO2 SLP151 T01670144 $=
200609250952 METAR KATL 250952Z 31008KT 10SM FEW120 SCT250 17/14 A2998 RMK AO2 SLP146 T01670144 $=
200609250852 METAR KATL 250852Z 30008KT 10SM FEW120 SCT250 17/15 A2997 RMK AO2 SLP141 T01720150 57004 $=
200609250752 METAR KATL 250752Z 29007KT 10SM SCT120 BKN250 17/16 A2998 RMK AO2 SLP143 T01720156 $=
200609250652 METAR KATL 250652Z 28005KT 10SM SCT120 BKN250 17/16 A2998 RMK AO2 SLP144 T01720161 $=
200609250552 METAR KATL 250552Z 29005KT 10SM FEW100 18/16 A2999 RMK AO2 SLP146 60006 T01780161 10228 20178 58004 $=
200609250452 METAR KATL 250452Z 31007KT 10SM SCT100 19/17 A3000 RMK AO2 SLP149 T01940167 402890194 $=
200609250352 METAR KATL 250352Z 31007KT 10SM FEW010 SCT100 BKN150 19/17 A3000 RMK AO2 SLP151 T01940172 $=
200609250252 METAR KATL 250252Z 30006KT 10SM FEW010 SCT060 SCT100 21/18 A3000 RMK AO2 SLP150 60006 T02060183 53016 $=
200609250156 SPECI KATL 250156Z 30009KT 10SM FEW010 SCT025 OVC035 22/20 A2998 RMK AO2 $=
200609250156 SPECI KATL 250156Z 30009KT 10SM FEW010 SCT025 OVC035 22/20 A2998 RMK AO2 $=
200609250152 METAR KATL 250152Z 29010KT 10SM FEW010 BKN025 OVC150 22/20 A2998 RMK AO2 SLP142 T02220200 $=
200609250116 SPECI KATL 250116Z 27007KT 10SM SCT006 BKN029 BKN150 22/21 A2996 RMK AO2 $=
200609250116 SPECI KATL 250116Z 27007KT 10SM SCT006 BKN029 BKN150 22/21 A2996 RMK AO2 $=
200609250052 METAR KATL 250052Z 26006KT 8SM FEW007 BKN034 BKN047 22/21 A2996 RMK AO2 RAE38 SLP136 P0006 T02220206 $=
200609250013 SPECI KATL 250013Z 23007KT 5SM RA BR FEW008 BKN039 OVC060 23/21 A2995 RMK AO2 P0003 $=
200609250013 SPECI KATL 250013Z 23007KT 5SM RA BR FEW008 BKN039 OVC060 23/21 A2995 RMK AO2 P0003 $=
200609242352 METAR KATL 242352Z 25008KT 10SM -RA FEW040CB BKN080 OVC100 23/21 A2995 RMK AO2 RAE10B36 SLP134 CB SE-S MOV NE P0000 60068 T02280211 10289 20228 53007 $=
200609242304 SPECI KATL 242304Z 23005KT 10SM -RA FEW006 SCT050 BKN150 OVC250 23/21 A2993 RMK AO2 P0000 $=
200609242304 SPECI KATL 242304Z 23005KT 10SM -RA FEW006 SCT050 BKN150 OVC250 23/21 A2993 RMK AO2 P0000 $=
200609242252 METAR KATL 242252Z 23006KT 10SM -RA FEW022 SCT032 BKN070 BKN150 23/21 A2992 RMK AO2 SLP122 P0001 T02280211 $=
200609242152 METAR KATL 242152Z 23008KT 6SM -RA BR FEW012 BKN032 OVC100 23/21 A2993 RMK AO2 TSE52RAB00 SLP126 TS MOV E-SE P0067 T02280211 $=
200609242148 SPECI KATL 242148Z 23008KT 6SM -TSRA BR FEW012 BKN025CB OVC042 23/21 A2993 RMK AO2 RAB00 FRQ LTGICCCCG TS VC NE-SE MOV NE P0067 $=
200609242148 SPECI KATL 242148Z 23008KT 6SM -TSRA BR FEW012 BKN025CB OVC042 23/21 A2993 RMK AO2 RAB00 FRQ LTGICCCCG TS VC NE-SE MOV NE P0067 $=
200609242142 SPECI KATL 242142Z 23008KT 1SM -TSRA BR FEW012 BKN021CB OVC042 23/21 A2992 RMK AO2 SFC VIS 2 1/2 RAB00 FRQ LTGICCCCG TS NE-SE MOV NE P0066 $=
200609242142 SPECI KATL 242142Z 23008KT 1SM -TSRA BR FEW012 BKN021CB OVC042 23/21 A2992 RMK AO2 SFC VIS 2 1/2 RAB00 FRQ LTGICCCCG TS NE-SE MOV NE P0066 $=
200609242133 SPECI KATL 242133Z 25007KT 1SM -TSRA BR BKN012 BKN026CB OVC037 23/21 A2993 RMK AO2 SFC VIS 1 1/2 RAB00 FRQ LTGICCCCG TS NE-OHD-SE MOV NE P0062 $=
200609242133 SPECI KATL 242133Z 25007KT 1SM -TSRA BR BKN012 BKN026CB OVC037 23/21 A2993 RMK AO2 SFC VIS 1 1/2 RAB00 FRQ LTGICCCCG TS NE-OHD-SE MOV NE P0062 $=
200609242128 SPECI KATL 242128Z 23009G23KT 3/4SM +TSRA BR BKN006 BKN014CB OVC044 23/21 A2992 RMK AO2 TWR VIS 1 RAB00 CONS LTGICCCCG TS NE-OHD-SW MOV NE P0058 RVRNO $=
200609242128 SPECI KATL 242128Z 23009G23KT 3/4SM +TSRA BR BKN006 BKN014CB OVC044 23/21 A2992 RMK AO2 TWR VIS 1 RAB00 CONS LTGICCCCG TS NE-OHD-SW MOV NE P0058 RVRNO $=
200609242123 SPECI KATL 242123Z 25011G23KT 1/4SM +TSRA FG FEW003 BKN028CB OVC044 23/21 A2994 RMK AO2 TWR VIS 1 RAB00 FRQ LTGICCCCG TS OHD-SW AND VC NE MOV NE P0025 RVRNO $=
200609242123 SPECI KATL 242123Z 25011G23KT 1/4SM +TSRA FG FEW003 BKN028CB OVC044 23/21 A2994 RMK AO2 TWR VIS 1 RAB00 FRQ LTGICCCCG TS OHD-SW AND VC NE MOV NE P0025 RVRNO $=
200609242120 SPECI KATL 242120Z 28018G23KT 1/2SM TSRA FG FEW014 BKN026CB OVC050 23/21 A2995 RMK AO2 TWR VIS 1 RAB00 PRESRR FRQ LTGICCCCG TS OHD-SW AND VC NE MOV NE P0005 RVRNO $=
200609242120 SPECI KATL 242120Z 28018G23KT 1/2SM TSRA FG FEW014 BKN026CB OVC050 23/21 A2995 RMK AO2 TWR VIS 1 RAB00 PRESRR FRQ LTGICCCCG TS OHD-SW AND VC NE MOV NE P0005 RVRNO $=
200609242101 SPECI KATL 242101Z 25006KT 5SM TS HZ SCT013 SCT033CB BKN050 BKN150 27/20 A2991 RMK AO2 RAB00RAEMM FRQ LTGICCCCG TS NE-OHD-SW MOV E P0000 $=
200609242101 SPECI KATL 242101Z 25006KT 5SM TS HZ SCT013 SCT033CB BKN050 BKN150 27/20 A2991 RMK AO2 RAB00RAEMM FRQ LTGICCCCG TS NE-OHD-SW MOV E P0000 $=
200609242052 METAR KATL 242052Z 23007KT 7SM TS FEW013 SCT030CB SCT050 BKN150 28/20 A2991 RMK AO2 TSB48 SLP117 OCNL LTGICCC TS VC W-NW MOV E AND DSNT N-NE AND SW-N MOV E SHRA DSNT N-NE AND SW-N T02780200 56021 $=
200609242048 SPECI KATL 242048Z 25007KT 7SM TS FEW013 SCT030CB SCT050 BKN150 28/20 A2991 RMK AO2 TSB48 OCNL LTGICCC TS VC W-NW MOV E AND DSNT N-NE AND SW-N MOV E SHRA DSNT N-NE AND SW-N $=
200609242048 SPECI KATL 242048Z 25007KT 7SM TS FEW013 SCT030CB SCT050 BKN150 28/20 A2991 RMK AO2 TSB48 OCNL LTGICCC TS VC W-NW MOV E AND DSNT N-NE AND SW-N MOV E SHRA DSNT N-NE AND SW-N $=
200609241952 METAR KATL 241952Z 24007KT 10SM SCT032TCU SCT044 BKN080 BKN150 BKN200 28/20 A2992 RMK AO2 SLP121 TCU OHD-W AND DSNT N-E AND NW-N T02830200 $=
200609241852 METAR KATL 241852Z 23011KT 10SM SCT030 SCT050 BKN070 BKN150 BKN200 28/20 A2995 RMK AO2 SLP129 T02780200=
200609241752 METAR KATL 241752Z 23009KT 10SM FEW025 SCT100 BKN150 BKN200 27/21 A2997 RMK AO2 SLP138 CB DSNT SE-S MOV E 60014 T02720206 10272 20222 58017=
200609241652 METAR KATL 241652Z 21012KT 10SM SCT014 SCT020 BKN070 BKN150 BKN200 26/21 A3000 RMK AO2 SLP147 T02610206=
200609241605 SPECI KATL 241605Z 24008KT 9SM SCT008 SCT014 BKN090 BKN150 BKN250 25/21 A3000 RMK AO2 CB DSNT S MOV E DSPTD=
200609241605 SPECI KATL 241605Z 24008KT 9SM SCT008 SCT014 BKN090 BKN150 BKN250 25/21 A3000 RMK AO2 CB DSNT S MOV E DSPTD=
200609241552 METAR KATL 241552Z 26007KT 9SM BKN008 BKN014 BKN033 24/21 A3001 RMK AO2 SLP153 CB DSNT S MOV E SHRA DSNT E AND S T02440211=
200609241541 SPECI KATL 241541Z 25007KT 9SM SCT008 BKN022 BKN033 BKN150 24/21 A3001 RMK AO2 TSB02E20RAB00E34 CB DSNT NE-S MOV E DSPTD SHRA DSNT=
200609241541 SPECI KATL 241541Z 25007KT 9SM SCT008 BKN022 BKN033 BKN150 24/21 A3001 RMK AO2 TSB02E20RAB00E34 CB DSNT NE-S MOV E DSPTD SHRA DSNT NE-S P0014=
200609241521 SPECI KATL 241521Z 27004KT 7SM -RA SCT012CB BKN019 BKN033 23/21 A3001 RMK AO2 TSB02E20RAB00 CB VC NE-S MOV E P0014=
200609241521 SPECI KATL 241521Z 27004KT 7SM -RA SCT012CB BKN019 BKN033 23/21 A3001 RMK AO2 TSB02E20RAB00 CB VC NE-S MOV E P0014=
200609241515 SPECI KATL 241515Z 27005KT 3SM -TSRA SCT015CB BKN021 BKN033 23/20 A3001 RMK AO2 TSB02RAB00 OCNL LTGIC TS NE-OHD-SW MOV E P0013 $=
200609241515 SPECI KATL 241515Z 27005KT 3SM -TSRA SCT015CB BKN021 BKN033 23/20 A3001 RMK AO2 TSB02RAB00 OCNL LTGIC TS NE-OHD-SW MOV E P0013 $=
200609241510 SPECI KATL 241510Z 22006G17KT 1 1/4SM +TSRA BKN010CB BKN021 OVC033 22/19 A3001 RMK AO2 TSB02RAB00 OCNL LTGIC TS NE-OHD-SW MOV E P0013 $=
200609241510 SPECI KATL 241510Z 22006G17KT 1 1/4SM +TSRA BKN010CB BKN021 OVC033 22/19 A3001 RMK AO2 TSB02RAB00 OCNL LTGIC TS NE-OHD-SW MOV E P0013 $=
200609241503 SPECI KATL 241503Z 25014KT 2SM +TSRA SCT012CB BKN018 OVC025 24/21 A3002 RMK AO2 TSB02RAB00 OCNL LTGIC TS VC SW-N MOV E SHRA VC SW-N AND DSNT NE P0002=
200609241503 SPECI KATL 241503Z 25014KT 2SM +TSRA SCT012CB BKN018 OVC025 24/21 A3002 RMK AO2 TSB02RAB00 OCNL LTGIC TS VC SW-N MOV E SHRA VC=
200609241452 METAR KATL 241452Z COR 22010KT 7SM BKN016CB BKN021 OVC030 25/21 A3002 RMK AO2 RAB36E45 SLP156 CB VC W-NW AND DSNT SW-W AND NW-N MOV E SHRA VC S-W AND NW-N AND DSNT NE P0000 60000 T02500211 53006=
200609241352 METAR KATL 241352Z 22011KT 7SM BKN016 OVC021 24/21 A3001 RMK AO2 SLP154 CB DSNT SW-N MOV E SHRA DSNT SW-N T02440206=
200609241326 SPECI KATL 241326Z 22009KT 7SM BKN016 BKN021 24/21 A3001 RMK AO2=
200609241326 SPECI KATL 241326Z 22009KT 7SM BKN016 BKN021 24/21 A3001 RMK AO2=
200609241252 METAR KATL 241252Z 22009KT 6SM HZ BKN012 24/21 A3001 RMK AO2 SLP151 T02390206=
200609241217 SPECI KATL 241217Z 21011KT 4SM HZ FEW006 SCT010 BKN014 23/21 A3000 RMK AO2=
200609241217 SPECI KATL 241217Z 21011KT 4SM HZ FEW006 SCT010 BKN014 23/21 A3000 RMK AO2=
200609241152 METAR KATL 241152Z 22011KT 4SM BR OVC006 23/21 A3000 RMK AO2 CIG 006V010 SLP150 T02280206 10239 20222 53001=
200609241130 SPECI KATL 241130Z 22012KT 4SM BR OVC006 23/21 A3000 RMK AO2=
200609241130 SPECI KATL 241130Z 22012KT 4SM BR OVC006 23/21 A3000 RMK AO2=
200609241052 METAR KATL 241052Z 20009KT 9SM BKN011 BKN150 23/20 A2999 RMK AO2 SLP144 T02280200=
200609241009 SPECI KATL 241009Z 18006KT 10SM SCT150 22/19 A2999 RMK AO2=
200609241009 SPECI KATL 241009Z 18006KT 10SM SCT150 22/19 A2999 RMK AO2=
200609240952 METAR KATL 240952Z 17003KT 10SM BKN018 22/18 A2999 RMK AO2 SLP145 T02220183=
200609240905 SPECI KATL 240905Z 19003KT 10SM BKN022 22/18 A3000 RMK AO2=
200609240905 SPECI KATL 240905Z 19003KT 10SM BKN022 22/18 A3000 RMK AO2=
200609240852 METAR KATL 240852Z 00000KT 10SM SCT022 SCT026 SCT055 22/18 A3000 RMK AO2 SLP148 T02220183 58004=
200609240844 SPECI KATL 240844Z 28004KT 10SM SCT018 SCT026 BKN055 22/18 A3000 RMK AO2=
200609240844 SPECI KATL 240844Z 28004KT 10SM SCT018 SCT026 BKN055 22/18 A3000 RMK AO2=
200609240752 METAR KATL 240752Z 32008KT 10SM BKN016 OVC040 23/19 A3001 RMK AO2 SLP152 T02330194=
200609240748 SPECI KATL 240748Z 28008KT 10SM BKN014 OVC040 23/20 A3001 RMK AO2=
200609240748 SPECI KATL 240748Z 28008KT 10SM BKN014 OVC040 23/20 A3001 RMK AO2=
200609240652 METAR KATL 240652Z 22008KT 10SM BKN080 24/20 A3001 RMK AO2 SLP152 T02390200=
200609240552 METAR KATL 240552Z 22008KT 10SM FEW042 SCT055 24/20 A3001 RMK AO2 SLP151 T02390200 10272 20239 55002=
200609240452 METAR KATL 240452Z 20009KT 10SM FEW150 BKN250 24/20 A3000 RMK AO2 SLP148 T02440200 403000217=
200609240352 METAR KATL 240352Z 20007KT 10SM FEW050 SCT250 24/21 A3001 RMK AO2 SLP152 T02440206=
200609240252 METAR KATL 240252Z 19005KT 10SM FEW150 BKN250 26/20 A3002 RMK AO2 SLP155 T02560200 51013=
200609240152 METAR KATL 240152Z 20003KT 10SM FEW150 SCT250 26/21 A3002 RMK AO2 SLP156 T02560206=
200609240052 METAR KATL 240052Z 19007KT 10SM SCT250 26/20 A2999 RMK AO2 SLP147 T02610200=
200609232352 METAR KATL 232352Z 18007KT 10SM FEW180 SCT250 27/20 A2998 RMK AO2 SLP142 T02720200 10300 20272 58019=
200609232252 METAR KATL 232252Z 19007KT 10SM FEW040 SCT250 28/19 A3000 RMK AO2 SLP148 T02830194=
200609232152 METAR KATL 232152Z 18010KT 10SM FEW040 29/19 A3002 RMK AO2 SLP154 T02940194=
200609232052 METAR KATL 232052Z 21010KT 10SM SCT041TCU BKN055 BKN200 30/19 A3003 RMK AO2 SLP159 TCU OHD-SW AND VC N AND DSNT SW-W T03000194 56012=
200609231952 METAR KATL 231952Z 23011KT 10SM SCT048TCU BKN060 BKN150 29/18 A3004 RMK AO2 SLP162 TCU OHD-W AND DSNT W T02890183=
200609231852 METAR KATL 231852Z 21009KT 9SM BKN042 BKN050 29/18 A3006 RMK AO2 SLP167 T02940183=
200609231752 METAR KATL 231752Z 20011KT 9SM BKN036 BKN046 28/18 A3007 RMK AO2 SLP172 MDT CU ALQDS T02830183 10283 20217 58013=
200609231652 METAR KATL 231652Z 19010KT 160V230 10SM BKN030 BKN037 BKN100 28/19 A3008 RMK AO2 SLP176 T02780194=
200609231640 SPECI KATL 231640Z 22007KT 10SM BKN028 BKN034 BKN100 27/19 A3009 RMK AO2=
200609231640 SPECI KATL 231640Z 22007KT 10SM BKN028 BKN034 BKN100 27/19 A3009 RMK AO2=
200609231552 METAR KATL 231552Z 22011KT 9SM BKN021 BKN027 BKN100 26/19 A3010 RMK AO2 SLP184 T02610194=
200609231532 SPECI KATL 231532Z 18010KT 9SM BKN017 BKN022 BKN100 26/20 A3010 RMK AO2=
200609231532 SPECI KATL 231532Z 18010KT 9SM BKN017 BKN022 BKN100 26/20 A3010 RMK AO2=
200609231506 SPECI KATL 231506Z 20007KT 7SM BKN016 BKN150 24/20 A3011 RMK AO2=
200609231506 SPECI KATL 231506Z 20007KT 7SM BKN016 BKN150 24/20 A3011 RMK AO2=
200609231452 METAR KATL 231452Z 22010KT 6SM HZ BKN014 24/20 A3011 RMK AO2 SLP187 T02440200 51005=
200609231401 SPECI KATL 231401Z 19010KT 6SM HZ BKN012 BKN016 23/20 A3011 RMK AO2=
200609231401 SPECI KATL 231401Z 19010KT 6SM HZ BKN012 BKN016 23/20 A3011 RMK AO2=
200609231352 METAR KATL 231352Z 19012KT 6SM HZ BKN009 BKN014 23/20 A3011 RMK AO2 SLP186 T02330200=
200609231252 METAR KATL 231252Z 18009KT 5SM BR OVC007 23/21 A3010 RMK AO2 CIG 004V010 SLP183 T02280206=
200609231159 SPECI KATL 231159Z 15005KT 4SM BR FEW005 BKN028 BKN036 22/20 A3010 RMK AO2=
200609231159 SPECI KATL 231159Z 15005KT 4SM BR FEW005 BKN028 BKN036 22/20 A3010 RMK AO2=
200609231152 METAR KATL 231152Z 14005KT 5SM BR SCT022 BKN030 BKN038 22/20 A3009 RMK AO2 SLP182 T02170200 10222 20217 51006=
200609231052 METAR KATL 231052Z 17004KT 6SM BR FEW011 BKN016 BKN035 22/21 A3009 RMK AO2 SLP180 T02220206=
200609230952 METAR KATL 230952Z 19006KT 7SM BKN007 BKN015 OVC021 22/20 A3008 RMK AO2 CIG 006V010 SLP175 T02220200=
200609230852 METAR KATL 230852Z 00000KT 6SM BR OVC007 22/20 A3006 RMK AO2 SLP172 T02220200 51005=
200609230752 METAR KATL 230752Z 00000KT 8SM BKN014 22/19 A3006 RMK AO2 SLP169 T02170194=
200609230652 METAR KATL 230652Z 18005KT 9SM FEW040 SCT180 22/19 A3005 RMK AO2 SLP166 T02220189=
200609230552 METAR KATL 230552Z 18005KT 10SM FEW180 22/18 A3004 RMK AO2 SLP162 T02220183 10244 20222 56004=
200609230452 METAR KATL 230452Z 18007KT 10SM FEW080 23/18 A3004 RMK AO2 SLP164 T02280178 402780161=
200609230352 METAR KATL 230352Z 17007KT 10SM FEW028 23/18 A3004 RMK AO2 SLP166 T02330178=
200609230252 METAR KATL 230252Z 15007KT 9SM SCT028 23/18 A3005 RMK AO2 SLP168 T02330183 50000=
200609230152 METAR KATL 230152Z 16006KT 9SM FEW047 23/19 A3006 RMK AO2 SLP172 T02330189=
200609230052 METAR KATL 230052Z 15007KT 9SM FEW034 BKN045 BKN080 24/19 A3005 RMK AO2 SLP170 T02390194=
200609222352 METAR KATL 222352Z 14009KT 7SM BKN039 OVC080 24/19 A3005 RMK AO2 RAB2258E23B47E52 SLP168 SHRA SE P0000 60000 T02440194 10278 20244 53002=
200609222252 METAR KATL 222252Z 14006KT 8SM BKN039 OVC080 26/19 A3004 RMK AO2 SLP167 T02560189=
200609222152 METAR KATL 222152Z 15007KT 9SM SCT043 BKN080 OVC150 26/19 A3004 RMK AO2 SLP164 T02610189=
200609222052 METAR KATL 222052Z 17009KT 130V190 10SM FEW040 BKN050 BKN080 OVC150 27/18 A3004 RMK AO2 SLP165 60000 T02670183 55007=
200609221952 METAR KATL 221952Z 15008KT 10SM FEW045 SCT085 BKN150 BKN220 27/18 A3003 RMK AO2 SLP161 T02720183=
200609221852 METAR KATL 221852Z 17008KT 10SM FEW030 BKN040 BKN080 BKN150 26/17 A3005 RMK AO2 RAB20E29 SLP168 SHRA DSNT N-NE P0000 T02610172=
200609221752 METAR KATL 221752Z 13010KT 9SM FEW030 SCT045 BKN075 BKN150 25/18 A3006 RMK AO2 SLP173 60000 T02500178 10250 20178 58012=
200609221652 METAR KATL 221652Z 14009KT 10SM FEW020 SCT045 BKN055 BKN150 23/18 A3009 RMK AO2 SLP183 T02280178=
200609221552 METAR KATL 221552Z 14009KT 9SM FEW020 SCT030 OVC045 22/17 A3010 RMK AO2 SLP188 T02170167=
200609221452 METAR KATL 221452Z 13008KT 10SM FEW018 BKN044 BKN065 21/16 A3010 RMK AO2 SLP186 60000 T02060161 51006=
200609221352 METAR KATL 221352Z 13008KT 9SM FEW020 BKN044 OVC065 19/15 A3010 RMK AO2 SLP186 BINOVC T01940150=
200609221252 METAR KATL 221252Z 11008KT 9SM BKN048 OVC070 18/14 A3009 RMK AO2 RAB20E30 SLP184 BINOVC P0000 T01830144=
200609221152 METAR KATL 221152Z 10007KT 9SM OVC050 18/14 A3008 RMK AO2 SLP180 T01780139 10178 20161 51016=
200609221052 METAR KATL 221052Z 10006KT 10SM BKN065 OVC110 17/14 A3007 RMK AO2 SLP177 T01720139=
200609220952 METAR KATL 220952Z 12005KT 10SM BKN100 BKN180 BKN250 17/13 A3005 RMK AO2 SLP170 T01720133=
200609220852 METAR KATL 220852Z 12007KT 10SM BKN120 BKN180 BKN250 17/13 A3003 RMK AO2 SLP163 T01720133 58004=
200609220752 METAR KATL 220752Z 08009KT 8SM SCT180 BKN250 16/13 A3004 RMK AO2 SLP165 T01610133=
200609220652 METAR KATL 220652Z 09009KT 8SM SCT180 BKN250 16/13 A3004 RMK AO2 SLP169 T01610128=
200609220552 METAR KATL 220552Z 09008KT 9SM SCT180 BKN250 17/13 A3004 RMK AO2 SLP167 T01670128 10217 20167 58005=
200609220452 METAR KATL 220452Z 10007KT 10SM BKN250 18/13 A3007 RMK AO2 SLP175 T01830128 402390117=
200609220352 METAR KATL 220352Z 11003KT 10SM BKN250 18/13 A3008 RMK AO2 SLP181 T01780128=
200609220252 METAR KATL 220252Z 09005KT 10SM BKN250 19/12 A3006 RMK AO2 SLP173 T01890122 53011=
200609220152 METAR KATL 220152Z 09009KT 10SM BKN250 19/12 A3004 RMK AO2 SLP167 T01940122=
200609220052 METAR KATL 220052Z 09009KT 10SM BKN250 20/12 A3003 RMK AO2 SLP166 T02000117=
200609212352 METAR KATL 212352Z 11005KT 10SM FEW200 BKN250 22/11 A3002 RMK AO2 SLP164 T02170111 10239 20211 51008=
200609212252 METAR KATL 212252Z 12005KT 10SM SCT250 23/11 A3002 RMK AO2 SLP162 T02280106=
200609212152 METAR KATL 212152Z 13007KT 10SM FEW300 23/11 A3001 RMK AO2 SLP156 T02330106=
200609212052 METAR KATL 212052Z 09008KT 10SM FEW300 23/11 A3000 RMK AO2 SLP154 T02330106 56019=
200609211952 METAR KATL 211952Z 12008KT 10SM FEW200 23/11 A3001 RMK AO2 SLP159 T02280106=
200609211852 METAR KATL 211852Z 14007KT 10SM FEW200 22/11 A3003 RMK AO2 SLP165 T02170106=
200609211752 METAR KATL 211752Z 14005KT 10SM FEW200 22/11 A3006 RMK AO2 SLP175 T02170111 10217 20117 58013=
200609211652 METAR KATL 211652Z 14007KT 10SM FEW200 20/11 A3008 RMK AO2 SLP182 T02000106=
200609211552 METAR KATL 211552Z 11007KT 070V140 10SM FEW200 SCT300 18/10 A3010 RMK AO2 SLP189 T01830100=
200609211452 METAR KATL 211452Z 09011KT 10SM FEW200 SCT300 17/09 A3010 RMK AO2 SLP190 T01720094 51016=
200609211352 METAR KATL 211352Z 09014G19KT 10SM SCT250 15/09 A3009 RMK AO2 SLP187 T01500089=
200609211252 METAR KATL 211252Z 08014KT 10SM FEW200 SCT250 13/09 A3007 RMK AO2 SLP182 T01330089=
200609211152 METAR KATL 211152Z 08009KT 10SM FEW200 SCT250 12/09 A3005 RMK AO2 SLP174 T01170089 10133 20117 53017=
200609211052 METAR KATL 211052Z 08008KT 10SM FEW150 12/08 A3003 RMK AO2 SLP167 T01170083=
200609210952 METAR KATL 210952Z 07011KT 10SM CLR 13/08 A3000 RMK AO2 SLP155 T01280083=
200609210852 METAR KATL 210852Z 03006KT 10SM CLR 13/08 A3000 RMK AO2 SLP154 T01330078 53002=
200609210752 METAR KATL 210752Z 35005KT 10SM CLR 12/08 A3000 RMK AO2 SLP153 T01220078=
200609210652 METAR KATL 210652Z 33007KT 10SM CLR 12/09 A2999 RMK AO2 SLP151 T01220089=
200609210552 METAR KATL 210552Z 30004KT 10SM CLR 13/08 A3000 RMK AO2 SLP153 T01330083 10189 20133 50002=
200609210452 METAR KATL 210452Z 33004KT 10SM CLR 13/09 A3000 RMK AO2 SLP155 T01330089 402280122=
200609210352 METAR KATL 210352Z 32005KT 10SM CLR 14/08 A2999 RMK AO2 SLP152 T01440078=
200609210252 METAR KATL 210252Z 33005KT 10SM CLR 16/08 A2999 RMK AO2 SLP150 T01610083 51007=
200609210152 METAR KATL 210152Z 33007KT 10SM CLR 17/08 A2998 RMK AO2 SLP150 T01670083=
200609210052 METAR KATL 210052Z 32004KT 10SM CLR 18/08 A2998 RMK AO2 SLP148 T01780078=
200609202352 METAR KATL 202352Z 32005KT 10SM CLR 19/08 A2997 RMK AO2 SLP144 T01890078 10228 20189 52007=
200609202252 METAR KATL 202252Z 33010KT 10SM CLR 21/07 A2996 RMK AO2 SLP141 T02110072=
200609202152 METAR KATL 202152Z 32009KT 10SM CLR 22/07 A2995 RMK AO2 SLP138 T02220072=
200609202052 METAR KATL 202052Z 31010KT 10SM CLR 23/08 A2995 RMK AO2 SLP135 T02280078 56015=
200609201952 METAR KATL 201952Z 32013KT 10SM CLR 23/08 A2996 RMK AO2 SLP140 T02280078=
200609201852 METAR KATL 201852Z 30014KT 10SM CLR 22/08 A2998 RMK AO2 SLP146 T02220083=
200609201752 METAR KATL 201752Z 31010G15KT 10SM CLR 22/08 A2999 RMK AO2 SLP151 T02170083 10217 20128 58006=
200609201652 METAR KATL 201652Z 30014KT 10SM CLR 21/09 A3000 RMK AO2 SLP155 T02060089=
200609201552 METAR KATL 201552Z 34012G17KT 10SM CLR 20/08 A3002 RMK AO2 SLP159 T02000083=
200609201452 METAR KATL 201452Z 33010KT 10SM CLR 18/09 A3001 RMK AO2 SLP157 T01830094 51012=
200609201352 METAR KATL 201352Z 32008KT 10SM CLR 17/11 A3000 RMK AO2 SLP155 T01670106=
200609201252 METAR KATL 201252Z 32008KT 10SM CLR 14/11 A2999 RMK AO2 SLP152 T01440106=
200609201152 METAR KATL 201152Z 31007KT 10SM CLR 13/10 A2998 RMK AO2 SLP147 T01280100 10161 20122 51010=
200609201052 METAR KATL 201052Z 30007KT 10SM CLR 13/10 A2997 RMK AO2 SLP144 T01280100=
200609200952 METAR KATL 200952Z 30007KT 10SM CLR 13/10 A2996 RMK AO2 SLP140 T01330100=
200609200852 METAR KATL 200852Z 29005KT 10SM CLR 13/10 A2995 RMK AO2 SLP134 T01330100 55001=
200609200752 METAR KATL 200752Z 30005KT 10SM CLR 14/11 A2994 RMK AO2 SLP131 T01440106=
200609200652 METAR KATL 200652Z 29005KT 10SM CLR 15/11 A2995 RMK AO2 SLP134 T01500106=
200609200552 METAR KATL 200552Z 30008KT 10SM CLR 16/11 A2995 RMK AO2 SLP136 T01560111 10217 20156 50000=
200609200452 METAR KATL 200452Z 29006KT 10SM CLR 16/12 A2995 RMK AO2 SLP137 T01560117 402610156=
200609200352 METAR KATL 200352Z 28006KT 10SM CLR 17/11 A2996 RMK AO2 SLP138 T01670111=
200609200252 METAR KATL 200252Z 30006KT 10SM CLR 18/11 A2995 RMK AO2 SLP135 T01780106 51016=
200609200152 METAR KATL 200152Z 29006KT 10SM FEW200 19/11 A2994 RMK AO2 SLP132 T01940106=
200609200052 METAR KATL 200052Z 29007KT 10SM FEW200 19/11 A2992 RMK AO2 SLP124 T01940111=
200609192352 METAR KATL 192352Z 30009KT 10SM SCT200 22/11 A2990 RMK AO2 SLP118 T02170106 10261 20217 53005=
200609192252 METAR KATL 192252Z 31012KT 10SM SCT200 24/11 A2989 RMK AO2 SLP114 T02390106=
200609192152 METAR KATL 192152Z 30016KT 10SM BKN200 25/10 A2988 RMK AO2 SLP110 T02500100=
200609192052 METAR KATL 192052Z 33012KT 10SM FEW045 SCT100 BKN240 26/14 A2988 RMK AO2 SLP110 T02560139 58010=
200609191952 METAR KATL 191952Z 30010KT 10SM FEW040 SCT100 SCT240 25/14 A2989 RMK AO2 SLP113 T02500144=
200609191852 METAR KATL 191852Z 31011KT 10SM SCT020 SCT100 BKN240 24/16 A2991 RMK AO2 SLP120 T02440161=
200609191849 SPECI KATL 191849Z 32013KT 10SM SCT020 SCT100 BKN240 24/17 A2991 RMK AO2=
200609191849 SPECI KATL 191849Z 32013KT 10SM SCT020 SCT100 BKN240 24/17 A2991 RMK AO2=
200609191800 SPECI KATL 191800Z 32011KT 10SM BKN015 BKN070 BKN100 23/18 A2993 RMK AO2=
200609191800 SPECI KATL 191800Z 32011KT 10SM BKN015 BKN070 BKN100 23/18 A2993 RMK AO2=
200609191752 METAR KATL 191752Z 33011KT 10SM OVC015 23/18 A2993 RMK AO2 SLP127 60000 T02280178 10244 20211 52005=
200609191743 SPECI KATL 191743Z 32012KT 10SM OVC013 22/18 A2993 RMK AO2=
200609191743 SPECI KATL 191743Z 32012KT 10SM OVC013 22/18 A2993 RMK AO2=
200609191652 METAR KATL 191652Z 31009KT 10SM BKN020 BKN050 OVC080 24/19 A2992 RMK AO2 SLP125 BINOVC NE AND NW SHRA DSNT W-NW T02390189=
200609191632 SPECI KATL 191632Z 31008KT 10SM SCT013 BKN020 BKN050 24/19 A2993 RMK AO2=
200609191632 SPECI KATL 191632Z 31008KT 10SM SCT013 BKN020 BKN050 24/19 A2993 RMK AO2=
200609191556 SPECI KATL 191556Z 31010KT 10SM SCT013 BKN034 BKN080 23/19 A2992 RMK AO2=
200609191556 SPECI KATL 191556Z 31010KT 10SM SCT013 BKN034 BKN080 23/19 A2992 RMK AO2=
200609191552 METAR KATL 191552Z 32010KT 7SM FEW013 BKN018 BKN040 23/20 A2992 RMK AO2 RAB41E50 SLP124 P0000 T02330200=
200609191452 METAR KATL 191452Z 25008KT 6SM HZ FEW010 BKN015 BKN020 23/20 A2991 RMK AO2 SLP122 T02330200 50002=
200609191441 SPECI KATL 191441Z 27007KT 6SM HZ FEW010 BKN015 OVC020 23/21 A2992 RMK AO2=
200609191441 SPECI KATL 191441Z 27007KT 6SM HZ FEW010 BKN015 OVC020 23/21 A2992 RMK AO2=
200609191352 METAR KATL 191352Z 27007KT 8SM OVC010 22/19 A2992 RMK AO2 SLP123 T02220194=
200609191252 METAR KATL 191252Z 26007KT 7SM SCT006 OVC014 22/20 A2992 RMK AO2 SLP123 T02170200=
200609191218 SPECI KATL 191218Z 26006KT 6SM BR BKN006 OVC017 22/19 A2992 RMK AO2=
200609191218 SPECI KATL 191218Z 26006KT 6SM BR BKN006 OVC017 22/19 A2992 RMK AO2=
200609191152 METAR KATL 191152Z 26007KT 6SM BR FEW005 OVC017 21/19 A2991 RMK AO2 SLP119 60000 70026 T02110194 10217 20211 51005=
200609191146 SPECI KATL 191146Z 26007KT 6SM BR SCT007 OVC013 21/19 A2991 RMK AO2=
200609191146 SPECI KATL 191146Z 26007KT 6SM BR SCT007 OVC013 21/19 A2991 RMK AO2=
200609191052 METAR KATL 191052Z 25009KT 7SM OVC005 21/19 A2990 RMK AO2 RAB0955E18 SLP114 P0000 T02110194=
200609190952 METAR KATL 190952Z 25008KT 8SM OVC006 21/19 A2989 RMK AO2 SLP112 T02110194=
200609190852 METAR KATL 190852Z 22006KT 7SM BKN008 OVC012 21/19 A2989 RMK AO2 SLP111 T02110194 55008=
200609190817 SPECI KATL 190817Z 23009KT 6SM BR SCT008 OVC011 22/19 A2989 RMK AO2=
200609190817 SPECI KATL 190817Z 23009KT 6SM BR SCT008 OVC011 22/19 A2989 RMK AO2=
200609190752 METAR KATL 190752Z 25007KT 6SM BR BKN006 OVC011 22/19 A2988 RMK AO2 SLP109 T02170194=
200609190714 SPECI KATL 190714Z 26007KT 1 1/2SM BR BKN008 OVC012 22/19 A2989 RMK AO2 SFC VIS 6=
200609190714 SPECI KATL 190714Z 26007KT 1 1/2SM BR BKN008 OVC012 22/19 A2989 RMK AO2 SFC VIS 6=
200609190659 SPECI KATL 190659Z 25007KT 1 1/2SM BR SCT008 OVC012 22/19 A2989 RMK AO2 SFC VIS 6=
200609190659 SPECI KATL 190659Z 25007KT 1 1/2SM BR SCT008 OVC012 22/19 A2989 RMK AO2 SFC VIS 6=
200609190652 METAR KATL 190652Z 24005KT 1 1/2SM BR FEW005 BKN008 OVC011 22/20 A2989 RMK AO2 SFC VIS 6 SLP112 T02170200=
200609190620 SPECI KATL 190620Z 25008KT 1 1/2SM BR FEW004 OVC006 22/20 A2991 RMK AO2 SFC VIS 6=
200609190620 SPECI KATL 190620Z 25008KT 1 1/2SM BR FEW004 OVC006 22/20 A2991 RMK AO2 SFC VIS 6=
200609190552 METAR KATL 190552Z 24007KT 1 1/2SM BR OVC004 22/20 A2991 RMK AO2 SFC VIS 5 SLP119 60025 T02170200 10244 20211 55002=
200609190505 SPECI KATL 190505Z 25006KT 1 1/2SM BR OVC002 22/20 A2991 RMK AO2 SFC VIS 5 TWRINC=
200609190505 SPECI KATL 190505Z 25006KT 1 1/2SM BR OVC002 22/20 A2991 RMK AO2 SFC VIS 5 TWRINC=
200609190501 SPECI KATL 190501Z 23005KT 2 1/2SM BR OVC002 22/20 A2991 RMK AO2 SFC VIS 5 TWRINC=
200609190501 SPECI KATL 190501Z 23005KT 2 1/2SM BR OVC002 22/20 A2991 RMK AO2 SFC VIS 5 TWRINC=
200609190452 METAR KATL 190452Z 22006KT 6SM BR OVC004 22/20 A2991 RMK AO2 SLP119 T02170200 402940189=
200609190442 SPECI KATL 190442Z 22008KT 10SM BKN004 BKN150 22/20 A2991 RMK AO2=
200609190442 SPECI KATL 190442Z 22008KT 10SM BKN004 BKN150 22/20 A2991 RMK AO2=
200609190352 METAR KATL 190352Z 23004KT 9SM FEW005 BKN120 22/20 A2992 RMK AO2 SLP121 T02170200=
200609190252 METAR KATL 190252Z COR 20005KT 9SM FEW005 SCT030 SCT048 BKN120 22/19 A2992 RMK AO2 RAE12 SLP123 P0000 60025 T02170194 55005=
200609190152 METAR KATL 190152Z COR VRB03KT 8SM -RA FEW005 SCT030 SCT047 BKN090 OVC120 22/20 A2991 RMK AO2 RAE15B49 SLP121 P0000 T02170200=
200609190052 METAR KATL 190052Z 19007KT 8SM -RA FEW010 OVC036 22/20 A2993 RMK AO2 TSE39 SLP128 CB DSNT NE-SE MOV E SHRA DSNT NE-SE P0025 T02170200=
200609190039 SPECI KATL 190039Z 20008KT 8SM RA SCT005 OVC049 22/21 A2993 RMK AO2 TSE39 CB DSNT NE-SW MOV E SHRA DSNT NE-SW P0022=
200609190039 SPECI KATL 190039Z 20008KT 8SM RA SCT005 OVC049 22/21 A2993 RMK AO2 TSE39 CB DSNT NE-SW MOV E SHRA DSNT NE-SW P0022=
200609190024 SPECI KATL 190024Z 23007KT 5SM -TSRA BR BKN010CB OVC037 22/20 A2993 RMK AO2 OCNL LTGICCGCC TS VC NE-SW MOV E SHRA VC NE-SW P0021=
200609190024 SPECI KATL 190024Z 23007KT 5SM -TSRA BR BKN010CB OVC037 22/20 A2993 RMK AO2 OCNL LTGICCGCC TS VC NE-SW MOV E SHRA VC NE-SW P0021=
200609190014 SPECI KATL 190014Z 22006KT 2 1/2SM -TSRA BKN010CB BKN021 BKN085 22/19 A2992 RMK AO2 OCNL LTGICCGCC TS NE-OHD-SW MOV E SHRA NE-OHD-SW P0021=
200609190014 SPECI KATL 190014Z 22006KT 2 1/2SM -TSRA BKN010CB BKN021 BKN085 22/19 A2992 RMK AO2 OCNL LTGICCGCC TS NE-OHD-SW MOV E SHRA NE-OHD-SW P0021=
200609190000 SPECI KATL 190000Z 27008KT 1 1/2SM +TSRA BR BKN014CB BKN027 BKN080 22/19 A2994 RMK AO2 FRQ LTGICCGCC TS NE-OHD-SW MOV E SHRA NE-OHD-SW P0015=
200609190000 SPECI KATL 190000Z 27008KT 1 1/2SM +TSRA BR BKN014CB BKN027 BKN080 22/19 A2994 RMK AO2 FRQ LTGICCGCC TS NE-OHD-SW MOV E SHRA NE-OHD-SW P0015=
200609182352 METAR KATL 182352Z COR 26020G24KT 3SM +TSRA SCT020CB BKN075 BKN090 25/21 A2994 RMK AO2 TSB40RAB52 PRESRR SLP128 FRQ LTGICCCCG NW TS NE-OHD-SW-N MOV E SHRA VC N-NE AND SW-N P0000 60001 T02500206 10294 20250 53018=
200609182340 SPECI KATL 182340Z 18011KT 8SM TS SCT020CB BKN080 BKN100 26/21 A2991 RMK AO2 TSB40 OCNL LTGIC NW TS VC W-N MOV E SHRA VC W-N=
200609182340 SPECI KATL 182340Z 18011KT 8SM TS SCT020CB BKN080 BKN100 26/21 A2991 RMK AO2 TSB40 OCNL LTGIC NW TS VC W-N MOV E SHRA VC W-N=
200609182252 METAR KATL 182252Z 19007KT 9SM FEW020 SCT030 SCT100 BKN150 27/22 A2989 RMK AO2 SLP112 CB DSNT SW-NW MOV E T02670217=
200609182152 METAR KATL 182152Z 19008KT 9SM FEW030 SCT085 BKN150 BKN200 28/21 A2987 RMK AO2 SLP107 TCU DSNT E AND W T02830211=
200609182052 METAR KATL 182052Z 20007KT 10SM FEW030 SCT110 BKN150 BKN200 29/21 A2988 RMK AO2 SLP108 CB DSNT NE AND DSNT E-S TCU DSNT W SHRA DSNT E-S 60001 T02890206 56019=
200609182018 SPECI KATL 182018Z 21009KT 10SM FEW030 SCT050 BKN095 BKN200 28/21 A2988 RMK AO2 CB DSNT N-NE MOV NE=
200609182018 SPECI KATL 182018Z 21009KT 10SM FEW030 SCT050 BKN095 BKN200 28/21 A2988 RMK AO2 CB DSNT N-NE MOV NE=
200609181952 METAR KATL 181952Z 20006KT 10SM FEW030 SCT070 BKN100 BKN200 28/22 A2989 RMK AO2 SLP112 CB DSNT NE TCU DSNT E T02780217=
200609181852 METAR KATL 181852Z 20005KT 10SM FEW030 SCT070 SCT150 SCT200 29/22 A2990 RMK AO2 RAB26E43 SLP115 CB DSNT NE MOV NE TCU DSNT E-NW SHRA DSNT NE P0001 T02890222=
200609181833 SPECI KATL 181833Z 21005KT 9SM -RA BKN030TCU BKN050 BKN070 26/22 A2992 RMK AO2 RAB26 VIS LWR SW AND NW SHRA TCU DSNT E AND OHD-SW-NW P0001=
200609181833 SPECI KATL 181833Z 21005KT 9SM -RA BKN030TCU BKN050 BKN070 26/22 A2992 RMK AO2 RAB26 VIS LWR SW AND NW SHRA TCU DSNT E AND OHD-SW-NW P0001=
200609181752 METAR KATL 181752Z 18008KT 140V210 10SM FEW030TCU BKN040 BKN060 29/21 A2994 RMK AO2 SLP127 TCU E AND VC NW T02890211 10289 20200 58016=
200609181712 SPECI KATL 181712Z 20006KT 10SM SCT020 BKN030 BKN040 28/22 A2995 RMK AO2=
200609181712 SPECI KATL 181712Z 20006KT 10SM SCT020 BKN030 BKN040 28/22 A2995 RMK AO2=
200609181652 METAR KATL 181652Z 18006KT 10SM FEW020 BKN025 BKN035 27/21 A2996 RMK AO2 SLP135 T02670211=
200609181611 SPECI KATL 181611Z 20007KT 8SM FEW015 BKN026 OVC031 26/21 A2997 RMK AO2 BINOVC=
200609181611 SPECI KATL 181611Z 20007KT 8SM FEW015 BKN026 OVC031 26/21 A2997 RMK AO2 BINOVC=
200609181559 SPECI KATL 181559Z VRB05KT 7SM SCT013 SCT018 BKN024 26/21 A2997 RMK AO2=
200609181559 SPECI KATL 181559Z VRB05KT 7SM SCT013 SCT018 BKN024 26/21 A2997 RMK AO2=
200609181552 METAR KATL 181552Z 20007KT 8SM BKN013 BKN024 BKN070 25/21 A2997 RMK AO2 SLP140 T02500211=
200609181459 SPECI KATL 181459Z 23005KT 5SM HZ OVC010 24/21 A2999 RMK AO2=
200609181459 SPECI KATL 181459Z 23005KT 5SM HZ OVC010 24/21 A2999 RMK AO2=
200609181452 METAR KATL 181452Z 19005KT 6SM BR OVC009 23/22 A2998 RMK AO2 SLP144 BINOVC E T02330217 50002=
200609181446 SPECI KATL 181446Z VRB04KT 5SM BR OVC009 23/22 A2999 RMK AO2 BINOVC E=
200609181446 SPECI KATL 181446Z VRB04KT 5SM BR OVC009 23/22 A2999 RMK AO2 BINOVC E=
200609181408 SPECI KATL 181408Z 16005KT 5SM HZ FEW009 SCT048 SCT200 23/19 A2998 RMK AO2=
200609181408 SPECI KATL 181408Z 16005KT 5SM HZ FEW009 SCT048 SCT200 23/19 A2998 RMK AO2=
200609181352 METAR KATL 181352Z 18005KT 5SM HZ SCT048 BKN200 23/19 A2998 RMK AO2 SLP144 T02280194=
200609181252 METAR KATL 181252Z VRB04KT 3SM BR FEW200 21/19 A2998 RMK AO2 SLP142 T02110189=
200609181213 SPECI KATL 181213Z 14005KT 3SM BR FEW120 SCT200 20/18 A2997 RMK AO2=
200609181213 SPECI KATL 181213Z 14005KT 3SM BR FEW120 SCT200 20/18 A2997 RMK AO2=
200609181152 METAR KATL 181152Z 15004KT 2 1/2SM BR FEW120 SCT200 20/18 A2997 RMK AO2 SLP141 T02000178 10217 20194 53007=
200609181052 METAR KATL 181052Z 12003KT 5SM BR FEW150 SCT200 20/18 A2996 RMK AO2 SLP136 T02000178 $=
200609180952 METAR KATL 180952Z 11003KT 6SM HZ FEW150 BKN250 21/18 A2995 RMK AO2 SLP134 T02060178 $=
200609180852 METAR KATL 180852Z 16004KT 6SM HZ SCT120 BKN250 21/18 A2995 RMK AO2 SLP132 T02060178 55004 $=
200609180752 METAR KATL 180752Z 14003KT 6SM HZ FEW150 SCT250 21/17 A2995 RMK AO2 SLP132 T02060172 $=
200609180652 METAR KATL 180652Z VRB03KT 6SM HZ FEW150 BKN250 21/17 A2996 RMK AO2 SLP134 T02110172 $=
200609180552 METAR KATL 180552Z VRB04KT 8SM SCT150 BKN250 22/17 A2996 RMK AO2 SLP136 T02170172 10267 20217 58002 $=
200609180452 METAR KATL 180452Z 12004KT 8SM FEW150 BKN250 22/17 A2997 RMK AO2 SLP138 T02220172 402940183 $=
200609180352 METAR KATL 180352Z 15003KT 8SM FEW060 SCT250 23/17 A2998 RMK AO2 SLP142 T02280167 $=
200609180252 METAR KATL 180252Z 13003KT 8SM FEW060 SCT250 23/17 A2997 RMK AO2 SLP140 T02330167 50005 $=
200609180152 METAR KATL 180152Z 17003KT 7SM FEW060 SCT250 24/17 A2998 RMK AO2 SLP144 T02390172 $=
200609180052 METAR KATL 180052Z 15005KT 9SM FEW250 25/17 A2997 RMK AO2 SLP140 T02500167 $=
200609172352 METAR KATL 172352Z 14004KT 8SM SCT250 27/16 A2995 RMK AO2 SLP135 T02670161 10294 20267 55004 $=
200609172252 METAR KATL 172252Z 15006KT 8SM FEW060 BKN250 28/16 A2995 RMK AO2 SLP134 T02780156 $=
200609172152 METAR KATL 172152Z VRB06KT 8SM FEW060 SCT250 28/14 A2995 RMK AO2 SLP134 T02830144 $=
200609172052 METAR KATL 172052Z 20006KT 8SM SCT060 SCT150 BKN250 29/14 A2997 RMK AO2 SLP138 T02940144 56022 $=
200609171952 METAR KATL 171952Z 21007KT 8SM SCT060 SCT150 29/14 A2998 RMK AO2 SLP143 T02890144 $=
200609171852 METAR KATL 171852Z 00000KT 8SM SCT050 28/15 A3001 RMK AO2 SLP153 T02830150 $=
200609171752 METAR KATL 171752Z VRB04KT 8SM SCT047 SCT055 28/17 A3004 RMK AO2 SLP162 TCU DSNT S T02830167 10283 20183 58021 $=
200609171652 METAR KATL 171652Z VRB04KT 7SM FEW035 SCT043 SCT050 BKN150 27/17 A3005 RMK AO2 SLP168 T02720172 $=
200609171552 METAR KATL 171552Z 12005KT 7SM FEW025 SCT060 BKN150 26/19 A3009 RMK AO2 SLP179 T02560194 $=
200609171452 METAR KATL 171452Z 12003KT 6SM HZ FEW020 SCT043 BKN050 BKN150 24/19 A3010 RMK AO2 SLP184 T02390189 51009 $=
200609171352 METAR KATL 171352Z 00000KT 6SM HZ SCT020 BKN042 BKN060 22/17 A3010 RMK AO2 SLP182 T02220172 $=
200609171252 METAR KATL 171252Z 11003KT 6SM HZ FEW048 BKN060 21/16 A3009 RMK AO2 SLP182 T02110161 $=
200609171152 METAR KATL 171152Z 09004KT 6SM HZ SCT055 18/15 A3007 RMK AO2 SLP176 T01830150 10211 20183 53012 $=
200609171052 METAR KATL 171052Z 10004KT 8SM BKN055 20/15 A3005 RMK AO2 SLP168 T02000150 $=
200609170952 METAR KATL 170952Z 12003KT 8SM FEW060 20/15 A3004 RMK AO2 SLP162 T02000150 $=
200609170852 METAR KATL 170852Z 14005KT 6SM HZ FEW060 20/15 A3004 RMK AO2 SLP162 T02000150 56011 $=
200609170752 METAR KATL 170752Z 14003KT 8SM SCT060 20/15 A3004 RMK AO2 SLP165 T02000150 $=
200609170652 METAR KATL 170652Z 12003KT 8SM BKN060 21/14 A3006 RMK AO2 SLP169 T02060144 $=
200609170552 METAR KATL 170552Z 00000KT 6SM HZ FEW055 21/15 A3007 RMK AO2 SLP173 T02060150 10256 20206 58006 $=
200609170452 METAR KATL 170452Z 00000KT 7SM FEW060 21/14 A3008 RMK AO2 SLP177 T02110144 402830178 $=
200609170352 METAR KATL 170352Z 00000KT 8SM CLR 22/14 A3009 RMK AO2 SLP180 T02220139 $=
200609170252 METAR KATL 170252Z 11003KT 7SM FEW060 24/14 A3009 RMK AO2 SLP180 T02390139 51016 $=
200609170152 METAR KATL 170152Z 16003KT 7SM CLR 24/14 A3008 RMK AO2 SLP176 T02390139 $=
200609170052 METAR KATL 170052Z 00000KT 8SM FEW065 24/14 A3006 RMK AO2 SLP171 T02440139 $=
200609162352 METAR KATL 162352Z 15003KT 8SM FEW065 26/13 A3004 RMK AO2 SLP165 T02560128 10283 20256 55005 $=
200609162252 METAR KATL 162252Z 09005KT 8SM FEW065 27/13 A3004 RMK AO2 SLP163 T02670128 $=
200609162152 METAR KATL 162152Z 18005KT 8SM FEW065 28/12 A3004 RMK AO2 SLP165 T02780122 $=
200609162052 METAR KATL 162052Z 12003KT 9SM FEW060 SCT150 28/13 A3006 RMK AO2 SLP169 T02780128 56018 $=
200609161952 METAR KATL 161952Z 00000KT 8SM SCT060 28/13 A3007 RMK AO2 SLP174 T02780128 $=
200609161852 METAR KATL 161852Z 00000KT 8SM SCT060 28/13 A3009 RMK AO2 SLP181 T02780128 $=
200609161752 METAR KATL 161752Z 00000KT 8SM SCT055 28/13 A3011 RMK AO2 SLP188 T02780128 10278 20183 58015 $=
200609161652 METAR KATL 161652Z 00000KT 9SM SCT060 SCT150 27/13 A3013 RMK AO2 SLP195 T02670128 $=
200609161552 METAR KATL 161552Z 23003KT 9SM FEW045 SCT150 26/14 A3015 RMK AO2 SLP202 T02610139 $=
200609161452 METAR KATL 161452Z 12004KT 8SM BKN060 23/17 A3016 RMK AO2 SLP203 T02330167 50010 $=
200609161352 METAR KATL 161352Z 08004KT 8SM BKN060 22/17 A3016 RMK AO2 SLP205 T02220167 $=
200609161252 METAR KATL 161252Z 07003KT 7SM FEW060 SCT120 BKN180 21/16 A3015 RMK AO2 SLP201 T02060161 $=
200609161152 METAR KATL 161152Z 08004KT 7SM SCT150 18/15 A3013 RMK AO2 SLP195 T01830150 10206 20178 53016 $=
200609161052 METAR KATL 161052Z 08004KT 7SM CLR 18/15 A3011 RMK AO2 SLP187 T01830150 $=
200609160952 METAR KATL 160952Z 08004KT 8SM CLR 18/15 A3009 RMK AO2 SLP181 T01830150 $=
200609160852 METAR KATL 160852Z 00000KT 9SM FEW150 19/15 A3008 RMK AO2 SLP177 T01940150 53001 $=
200609160752 METAR KATL 160752Z 00000KT 6SM HZ FEW150 19/15 A3007 RMK AO2 SLP175 T01940150 $=
200609160652 METAR KATL 160652Z 15003KT 9SM CLR 20/15 A3008 RMK AO2 SLP175 T02000150 $=
200609160552 METAR KATL 160552Z 00000KT 8SM FEW150 21/16 A3008 RMK AO2 SLP176 T02060156 10250 20206 50000 $=
200609160452 METAR KATL 160452Z 00000KT 8SM FEW150 21/15 A3008 RMK AO2 SLP177 T02110150 402780150 $=
200609160352 METAR KATL 160352Z 00000KT 8SM FEW150 22/15 A3008 RMK AO2 SLP178 T02170150 $=
200609160252 METAR KATL 160252Z 00000KT 9SM FEW150 23/14 A3008 RMK AO2 SLP177 T02280144 52015 $=
200609160152 METAR KATL 160152Z 00000KT 9SM CLR 23/14 A3006 RMK AO2 SLP171 T02330139 $=
200609160052 METAR KATL 160052Z 00000KT 8SM FEW045 SCT150 24/14 A3005 RMK AO2 SLP166 T02440139 $=
200609152352 METAR KATL 152352Z VRB03KT 8SM FEW045 25/13 A3003 RMK AO2 SLP163 T02500133 10278 20250 55003 $=
200609152252 METAR KATL 152252Z 12003KT 10SM FEW055 27/12 A3003 RMK AO2 SLP161 T02670122 $=
200609152152 METAR KATL 152152Z 09006KT 10SM FEW060 27/13 A3004 RMK AO2 SLP164 T02720128 $=
200609152052 METAR KATL 152052Z 07005KT 10SM FEW060 27/13 A3004 RMK AO2 SLP165 T02670128 56011 $=
200609151952 METAR KATL 151952Z 07004KT 10SM SCT055 27/13 A3005 RMK AO2 SLP168 T02670128 $=
200609151852 METAR KATL 151852Z VRB03KT 10SM SCT050 27/13 A3006 RMK AO2 SLP172 T02670133 $=
200609151752 METAR KATL 151752Z 14003KT 10SM FEW045 26/13 A3007 RMK AO2 SLP176 T02610133 10267 20156 58005 $=
200609151652 METAR KATL 151652Z VRB03KT 8SM FEW040 25/14 A3008 RMK AO2 SLP178 T02500139 $=
200609151552 METAR KATL 151552Z VRB03KT 10SM FEW030 24/15 A3009 RMK AO2 SLP183 T02440150 $=
200609151452 METAR KATL 151452Z VRB04KT 9SM CLR 22/14 A3009 RMK AO2 SLP182 T02220144 51013 $=
200609151352 METAR KATL 151352Z 10007KT 9SM CLR 21/14 A3008 RMK AO2 SLP178 T02110144 $=
200609151252 METAR KATL 151252Z 10004KT 8SM CLR 19/16 A3007 RMK AO2 SLP177 T01940156 $=
200609151152 METAR KATL 151152Z 00000KT 5SM BR CLR 16/13 A3005 RMK AO2 SLP170 T01560133 10167 20150 53018 $=
200609151052 METAR KATL 151052Z 33004KT 7SM FEW250 15/13 A3003 RMK AO2 SLP163 T01500128=
200609150952 METAR KATL 150952Z 33005KT 7SM CLR 15/13 A3001 RMK AO2 SLP154 T01500128=
200609150852 METAR KATL 150852Z 32006KT 7SM CLR 15/13 A3000 RMK AO2 SLP151 T01500128 53002=
200609150752 METAR KATL 150752Z 32006KT 7SM CLR 16/13 A2999 RMK AO2 SLP149 T01560133=
200609150652 METAR KATL 150652Z 30006KT 7SM CLR 16/13 A2999 RMK AO2 SLP148 T01610133=
200609150552 METAR KATL 150552Z 30005KT 9SM CLR 17/14 A2999 RMK AO2 SLP149 T01670139 10228 20167 58001=
200609150452 METAR KATL 150452Z 31004KT 9SM CLR 17/13 A2999 RMK AO2 SLP151 T01720133 402670167=
200609150352 METAR KATL 150352Z 00000KT 10SM CLR 19/14 A3000 RMK AO2 SLP150 T01890139=
200609150252 METAR KATL 150252Z 34005KT 10SM CLR 20/13 A2999 RMK AO2 SLP150 T02000133 51014=
200609150152 METAR KATL 150152Z 33008KT 10SM CLR 21/13 A2998 RMK AO2 SLP147 T02060133=
200609150052 METAR KATL 150052Z 33007KT 10SM CLR 22/13 A2996 RMK AO2 SLP140 T02170133=
200609142352 METAR KATL 142352Z 33009KT 9SM CLR 23/13 A2995 RMK AO2 SLP136 T02280128 10267 20228 51006=
200609142252 METAR KATL 142252Z 32008KT 10SM CLR 24/13 A2995 RMK AO2 SLP133 T02440128=
200609142152 METAR KATL 142152Z 31009KT 10SM CLR 26/12 A2994 RMK AO2 SLP129 T02560122=
200609142052 METAR KATL 142052Z 31010G15KT 10SM CLR 26/12 A2993 RMK AO2 SLP127 T02610122 56007=
200609141952 METAR KATL 141952Z 33007KT 9SM CLR 26/13 A2993 RMK AO2 SLP127 T02560133=
200609141852 METAR KATL 141852Z 32008KT 10SM CLR 25/13 A2994 RMK AO2 SLP131 T02500128=
200609141752 METAR KATL 141752Z 29006KT 10SM CLR 24/13 A2995 RMK AO2 SLP135 T02440128 10250 20167 58007=
200609141652 METAR KATL 141652Z 32009KT 10SM FEW040 24/13 A2996 RMK AO2 SLP139 T02390133=
200609141552 METAR KATL 141552Z 26006KT 10SM FEW025 23/15 A2997 RMK AO2 SLP141 T02330150 $=
200609141452 METAR KATL 141452Z 32005KT 9SM CLR 19/17 A2997 RMK AO2 SLP144 T01890172 51013 $=
200609141408 SPECI KATL 141408Z 30004KT 6SM BR FEW004 SCT008 19/17 A2996 RMK AO2=
200609141408 SPECI KATL 141408Z 30004KT 6SM BR FEW004 SCT008 19/17 A2996 RMK AO2=
200609141352 METAR KATL 141352Z VRB04KT 2 1/2SM BR FEW002 BKN004 BKN008 18/17 A2996 RMK AO2 SFC VIS 4 SLP141 VIS LWR NE AND NW BCFG CIG LWR NE AND NW T01830172=
200609141339 SPECI KATL 141339Z VRB03KT 1SM BR BKN002 BKN005 17/16 A2996 RMK AO2 SFC VIS 3=
200609141339 SPECI KATL 141339Z VRB03KT 1SM BR BKN002 BKN005 17/16 A2996 RMK AO2 SFC VIS 3=
200609141329 SPECI KATL 141329Z 30004KT 1/2SM BR OVC002 17/16 A2996 RMK AO2 SFC VIS 2 1/2 BINOVC=
200609141329 SPECI KATL 141329Z 30004KT 1/2SM BR OVC002 17/16 A2996 RMK AO2 SFC VIS 2 1/2 BINOVC=
200609141252 METAR KATL 141252Z 30005KT 0SM FG OVC002 17/16 A2995 RMK AO2 SFC VIS 1/2 SLP137 T01720161 RVRNO=
200609141238 SPECI KATL 141238Z 31007KT 0SM BR OVC002 17/16 A2995 RMK AO2 SFC VIS 1 TWRINC RVRNO=
200609141238 SPECI KATL 141238Z 31007KT 0SM BR OVC002 17/16 A2995 RMK AO2 SFC VIS 1 TWRINC RVRNO=
200609141231 SPECI KATL 141231Z 32007KT 1/2SM BR BKN002 17/16 A2995 RMK AO2 SFC VIS 1 1/2 TWRINC=
200609141231 SPECI KATL 141231Z 32007KT 1/2SM BR BKN002 17/16 A2995 RMK AO2 SFC VIS 1 1/2 TWRINC=
200609141226 SPECI KATL 141226Z 31006KT 1SM BR BKN002 17/16 A2995 RMK AO2 SFC VIS 2 1/2 VIS LWR W-N=
200609141226 SPECI KATL 141226Z 31006KT 1SM BR BKN002 17/16 A2995 RMK AO2 SFC VIS 2 1/2 VIS LWR W-N=
200609141201 SPECI KATL 141201Z 30006KT 4SM BR FEW010 17/16 A2994 RMK AO2=
200609141201 SPECI KATL 141201Z 30006KT 4SM BR FEW010 17/16 A2994 RMK AO2=
200609141152 METAR KATL 141152Z COR 30005KT 4SM BR FEW015 17/16 A2993 RMK AO2 SLP130 70077 T01720156 10189 20172 53012=
200609141052 METAR KATL 141052Z 00000KT 8SM FEW015 18/16 A2991 RMK AO2 SLP123 T01780156=
200609141026 SPECI KATL 141026Z 30003KT 8SM FEW008 SCT015 18/16 A2990 RMK AO2=
200609141026 SPECI KATL 141026Z 30003KT 8SM FEW008 SCT015 18/16 A2990 RMK AO2=
200609141007 SPECI KATL 141007Z 33003KT 8SM FEW008 OVC015 19/16 A2990 RMK AO2=
200609141007 SPECI KATL 141007Z 33003KT 8SM FEW008 OVC015 19/16 A2990 RMK AO2=
200609140954 SPECI KATL 140954Z 34004KT 8SM BKN008 OVC011 19/17 A2990 RMK AO2 CIG 007V011=
200609140954 SPECI KATL 140954Z 34004KT 8SM BKN008 OVC011 19/17 A2990 RMK AO2 CIG 007V011=
200609140952 METAR KATL 140952Z 34004KT 8SM OVC011 19/17 A2990 RMK AO2 CIG 007V014 SLP119 T01890167=
200609140852 METAR KATL 140852Z 00000KT 8SM SCT008 OVC013 19/17 A2990 RMK AO2 SLP117 T01890167 55003=
200609140844 SPECI KATL 140844Z 36003KT 8SM SCT007 OVC013 19/16 A2990 RMK AO2=
200609140844 SPECI KATL 140844Z 36003KT 8SM SCT007 OVC013 19/16 A2990 RMK AO2=
200609140752 METAR KATL 140752Z 35005KT 8SM OVC007 19/17 A2989 RMK AO2 SLP115 T01890167=
200609140652 METAR KATL 140652Z 05003KT 9SM OVC007 19/16 A2990 RMK AO2 SLP117 T01890161=
200609140552 METAR KATL 140552Z 36005KT 6SM BR OVC005 18/17 A2991 RMK AO2 SLP120 T01830167 10200 20183 50001=
200609140452 METAR KATL 140452Z 00000KT 10SM OVC005 19/17 A2991 RMK AO2 SLP121 T01890167 402110183=
200609140352 METAR KATL 140352Z 00000KT 10SM OVC006 18/17 A2991 RMK AO2 SLP121 T01830167=
200609140252 METAR KATL 140252Z 08007KT 10SM OVC007 19/17 A2990 RMK AO2 SLP120 T01890167 50010=
200609140152 METAR KATL 140152Z 04005KT 10SM OVC008 19/17 A2991 RMK AO2 SLP121 T01940167=
200609140052 METAR KATL 140052Z 05007KT 10SM OVC009 19/17 A2989 RMK AO2 SLP114 CIG 007V012 T01940167=
200609132352 METAR KATL 132352Z 08004KT 10SM OVC010 20/17 A2987 RMK AO2 SLP109 CIG 008V012 60000 T02000172 10206 20200 53000=
200609132337 SPECI KATL 132337Z 04007KT 10SM OVC010 20/17 A2987 RMK AO2 CIG 008V012=
200609132337 SPECI KATL 132337Z 04007KT 10SM OVC010 20/17 A2987 RMK AO2 CIG 008V012=
200609132252 METAR KATL 132252Z 03008KT 10SM OVC008 20/17 A2987 RMK AO2 SLP108 T02000172=
200609132152 METAR KATL 132152Z 02008KT 10SM OVC008 20/17 A2987 RMK AO2 SLP107 CIG 007V012 T02000172=
200609132052 METAR KATL 132052Z 35006KT 7SM FEW006 BKN008 OVC012 21/18 A2987 RMK AO2 DZE01 SLP109 P0000 60000 T02060178 56007=
200609131952 METAR KATL 131952Z VRB06KT 6SM -DZ BR OVC008 21/18 A2988 RMK AO2 DZB41 CIG 005V011 SLP110 P0000 T02060178=
200609131852 METAR KATL 131852Z 36010KT 3SM BR OVC006 20/18 A2988 RMK AO2 SFC VIS 5 RAE1753DZB04E10 SLP113 P0000 T02000178=
200609131804 SPECI KATL 131804Z 02009KT 3SM -DZ BR OVC006 21/18 A2989 RMK AO2 SFC VIS 5 RAE1753DZB04 P0000=
200609131804 SPECI KATL 131804Z 02009KT 3SM -DZ BR OVC006 21/18 A2989 RMK AO2 SFC VIS 5 RAE1753DZB04 P0000=
200609131752 METAR KATL 131752Z 03009KT 2SM -RA BR OVC006 21/18 A2989 RMK AO2 DZE23RAB23 SLP117 P0001 60077 T02060183 10211 20194 56007=
200609131742 SPECI KATL 131742Z 03010KT 2SM -RA BR OVC006 20/18 A2990 RMK AO2 SFC VIS 2 1/2 DZE23RAB23 CIG 004V007 P0001=
200609131742 SPECI KATL 131742Z 03010KT 2SM -RA BR OVC006 20/18 A2990 RMK AO2 SFC VIS 2 1/2 DZE23RAB23 CIG 004V007 P0001=
200609131659 SPECI KATL 131659Z 04011KT 1 3/4SM -DZ BR BKN006 OVC016 20/18 A2990 RMK AO2 TWR VIS 2 CIG 004V009 P0000=
200609131659 SPECI KATL 131659Z 04011KT 1 3/4SM -DZ BR BKN006 OVC016 20/18 A2990 RMK AO2 TWR VIS 2 CIG 004V009 P0000=
200609131652 METAR KATL 131652Z 04012KT 2SM -DZ BR OVC006 20/18 A2990 RMK AO2 CIG 004V009 SLP118 P0002 T02000178=
200609131610 SPECI KATL 131610Z 04011KT 2SM -DZ BR OVC004 20/18 A2990 RMK AO2 SFC VIS 3 CIG 003V008 P0000=
200609131610 SPECI KATL 131610Z 04011KT 2SM -DZ BR OVC004 20/18 A2990 RMK AO2 SFC VIS 3 CIG 003V008 P0000=
200609131552 METAR KATL 131552Z 10005KT 2SM -DZ BR OVC006 21/20 A2991 RMK AO2 SFC VIS 3 DZE17B48RAB17E37 CIG 003V010 SLP121 P0001 T02110200=
200609131530 SPECI KATL 131530Z 10004KT 1SM -RA BR OVC006 21/19 A2991 RMK AO2 SFC VIS 1 3/4 DZE17RAB17 CIG 003V010 P0000=
200609131530 SPECI KATL 131530Z 10004KT 1SM -RA BR OVC006 21/19 A2991 RMK AO2 SFC VIS 1 3/4 DZE17RAB17 CIG 003V010 P0000=
200609131524 SPECI KATL 131524Z 11004KT 1SM -RA BR OVC006 21/19 A2992 RMK AO2 SFC VIS 3 DZE17RAB17 CIG 004V007 P0000=
200609131524 SPECI KATL 131524Z 11004KT 1SM -RA BR OVC006 21/19 A2992 RMK AO2 SFC VIS 3 DZE17RAB17 CIG 004V007 P0000=
200609131517 SPECI KATL 131517Z 11004KT 2SM -RA BR OVC006 21/19 A2992 RMK AO2 SFC VIS 3 DZE17RAB17 CIG 004V009 P0000=
200609131517 SPECI KATL 131517Z 11004KT 2SM -RA BR OVC006 21/19 A2992 RMK AO2 SFC VIS 3 DZE17RAB17 CIG 004V009 P0000=
200609131452 METAR KATL 131452Z 15003KT 5SM -DZ BR OVC006 21/19 A2992 RMK AO2 RAE41DZB41 CIG 004V009 SLP124 P0002 60073 T02110194 55003=
200609131443 SPECI KATL 131443Z 12006KT 1SM -DZ BR OVC006 21/19 A2992 RMK AO2 SFC VIS 3 RAE41DZB41 CIG 003V011 P0002=
200609131443 SPECI KATL 131443Z 12006KT 1SM -DZ BR OVC006 21/19 A2992 RMK AO2 SFC VIS 3 RAE41DZB41 CIG 003V011 P0002=
200609131403 SPECI KATL 131403Z VRB04KT 1SM -RA BR OVC004 20/19 A2992 RMK AO2 SFC VIS 3 P0000=
200609131403 SPECI KATL 131403Z VRB04KT 1SM -RA BR OVC004 20/19 A2992 RMK AO2 SFC VIS 3 P0000=
200609131355 SPECI KATL 131355Z VRB04KT 2SM -RA BR BKN004 OVC008 20/19 A2991 RMK AO2 SFC VIS 4 P0000=
200609131355 SPECI KATL 131355Z VRB04KT 2SM -RA BR BKN004 OVC008 20/19 A2991 RMK AO2 SFC VIS 4 P0000=
200609131352 METAR KATL 131352Z 15006KT 5SM -RA BR BKN006 BKN012 OVC030 20/19 A2991 RMK AO2 SLP122 VIS LWR NE-S SHRA P0035 T02000189=
200609131343 SPECI KATL 131343Z 10006KT 3SM RA BR BKN006 BKN012 OVC023 20/19 A2991 RMK AO2 CIG 004V009 VIS LWR NE-S SHRA P0034=
200609131343 SPECI KATL 131343Z 10006KT 3SM RA BR BKN006 BKN012 OVC023 20/19 A2991 RMK AO2 CIG 004V009 VIS LWR NE-S SHRA P0034=
200609131331 SPECI KATL 131331Z 10010KT 2SM +RA BR SCT006 BKN009 OVC024 20/19 A2991 RMK AO2 CIG 009V012 P0026=
200609131331 SPECI KATL 131331Z 10010KT 2SM +RA BR SCT006 BKN009 OVC024 20/19 A2991 RMK AO2 CIG 009V012 P0026=
200609131329 SPECI KATL 131329Z 10010KT 1SM +RA BR SCT006 BKN012 OVC030 20/19 A2991 RMK AO2 SFC VIS 2 P0024=
200609131329 SPECI KATL 131329Z 10010KT 1SM +RA BR SCT006 BKN012 OVC030 20/19 A2991 RMK AO2 SFC VIS 2 P0024=
200609131327 SPECI KATL 131327Z 10010KT 1SM +RA BR SCT006 BKN015 OVC030 20/19 A2991 RMK AO2 SFC VIS 2 1/2 P0023=
200609131327 SPECI KATL 131327Z 10010KT 1SM +RA BR SCT006 BKN015 OVC030 20/19 A2991 RMK AO2 SFC VIS 2 1/2 P0023=
200609131317 SPECI KATL 131317Z 11008KT 1SM +RA BR BKN006 OVC014 20/19 A2992 RMK AO2 SFC VIS 1 3/4 CIG 003V012 P0017=
200609131317 SPECI KATL 131317Z 11008KT 1SM +RA BR BKN006 OVC014 20/19 A2992 RMK AO2 SFC VIS 1 3/4 CIG 003V012 P0017=
200609131252 METAR KATL 131252Z 11007KT 2 1/2SM RA BR BKN006 OVC009 20/19 A2993 RMK AO2 SFC VIS 3 SLP127 P0036 T02000189=
200609131244 SPECI KATL 131244Z 11008KT 2SM +RA BR OVC004 20/19 A2993 RMK AO2 TWR VIS 2 1/2 P0026=
200609131244 SPECI KATL 131244Z 11008KT 2SM +RA BR OVC004 20/19 A2993 RMK AO2 TWR VIS 2 1/2 P0026=
200609131225 SPECI KATL 131225Z 10007KT 2 1/2SM RA BR OVC006 20/19 A2992 RMK AO2 SFC VIS 4 CIG 003V008 P0011=
200609131225 SPECI KATL 131225Z 10007KT 2 1/2SM RA BR OVC006 20/19 A2992 RMK AO2 SFC VIS 4 CIG 003V008 P0011=
200609131152 METAR KATL 131152Z 12007KT 2 1/2SM -RA BR BKN004 OVC010 20/19 A2993 RMK AO2 SFC VIS 5 SLP128 P0008 60032 70075 T02000189 10200 20194 56004=
200609131150 SPECI KATL 131150Z 12007KT 2 1/2SM -RA BR BKN004 OVC010 20/19 A2993 RMK AO2 SFC VIS 5 P0007=
200609131150 SPECI KATL 131150Z 12007KT 2 1/2SM -RA BR BKN004 OVC010 20/19 A2993 RMK AO2 SFC VIS 5 P0007=
200609131052 METAR KATL 131052Z 13006KT 5SM -RA BR OVC005 20/18 A2993 RMK AO2 CIG 003V008 SLP128 P0017 T02000183=
200609131031 SPECI KATL 131031Z 14006KT 3SM RA BR BKN005 OVC014 20/18 A2993 RMK AO2 CIG 003V008 P0014=
200609131031 SPECI KATL 131031Z 14006KT 3SM RA BR BKN005 OVC014 20/18 A2993 RMK AO2 CIG 003V008 P0014=
200609131016 SPECI KATL 131016Z 14006KT 2 1/2SM RA BR BKN005 OVC015 20/18 A2994 RMK AO2 CIG 003V008 P0007=
200609131016 SPECI KATL 131016Z 14006KT 2 1/2SM RA BR BKN005 OVC015 20/18 A2994 RMK AO2 CIG 003V008 P0007=
200609130952 METAR KATL 130952Z 15004KT 4SM -RA BR OVC005 19/18 A2994 RMK AO2 SLP132 P0006 T01940183=
200609130852 METAR KATL 130852Z 15008KT 5SM -RA BR OVC007 19/18 A2994 RMK AO2 DZE17RAB17 CIG 004V012 SLP131 P0001 60001 T01940183 56021=
200609130752 METAR KATL 130752Z 14007KT 6SM -DZ BR OVC007 19/18 A2996 RMK AO2 CIG 004V010 SLP137 P0000 T01940178=
200609130652 METAR KATL 130652Z 12007KT 4SM -DZ BR BKN005 OVC011 19/18 A2998 RMK AO2 RAE24DZB24 CIG 004V008 SLP144 P0000 T01940178=
200609130552 METAR KATL 130552Z 12007KT 4SM -RA BR OVC005 19/18 A3000 RMK AO2 CIG 003V010 SLP152 P0007 60032 T01940178 10200 20189 58017=
200609130452 METAR KATL 130452Z 12008KT 3SM -RA BR BKN006 BKN012 OVC020 19/18 A3002 RMK AO2 SLP159 P0011 T01890178 402780183=
200609130425 SPECI KATL 130425Z 12008KT 3SM -RA BR BKN006 BKN012 OVC020 19/17 A3003 RMK AO2 P0004=
200609130425 SPECI KATL 130425Z 12008KT 3SM -RA BR BKN006 BKN012 OVC020 19/17 A3003 RMK AO2 P0004=
200609130352 METAR KATL 130352Z 11008KT 3SM RA BR FEW007 BKN012 OVC020 19/17 A3004 RMK AO2 SLP166 P0005 T01890172=
200609130350 SPECI KATL 130350Z 10007KT 3SM RA BR FEW007 BKN012 OVC020 19/17 A3004 RMK AO2 P0005=
200609130350 SPECI KATL 130350Z 10007KT 3SM RA BR FEW007 BKN012 OVC020 19/17 A3004 RMK AO2 P0005=
200609130327 SPECI KATL 130327Z 10008G15KT 5SM -RA BR FEW007 BKN025 OVC050 19/17 A3005 RMK AO2 P0000=
200609130327 SPECI KATL 130327Z 10008G15KT 5SM -RA BR FEW007 BKN025 OVC050 19/17 A3005 RMK AO2 P0000=
200609130259 SPECI KATL 130259Z 10010KT 6SM -RA BR FEW007 SCT025 BKN050 OVC140 19/17 A3005 RMK AO2 P0000=
200609130259 SPECI KATL 130259Z 10010KT 6SM -RA BR FEW007 SCT025 BKN050 OVC140 19/17 A3005 RMK AO2 P0000=
200609130252 METAR KATL 130252Z 10009KT 6SM -RA BR SCT007 BKN025 OVC050 19/17 A3005 RMK AO2 RAE28B45 SLP171 P0000 60009 T01890172 56001=
200609130246 SPECI KATL 130246Z 10008KT 6SM -RA BR FEW007 BKN025 OVC050 19/17 A3006 RMK AO2 RAE28B45 P0000=
200609130246 SPECI KATL 130246Z 10008KT 6SM -RA BR FEW007 BKN025 OVC050 19/17 A3006 RMK AO2 RAE28B45 P0000=
200609130208 SPECI KATL 130208Z 10009KT 5SM BR FEW008 BKN031 OVC049 19/17 A3006 RMK AO2 RAE07 P0000=
200609130208 SPECI KATL 130208Z 10009KT 5SM BR FEW008 BKN031 OVC049 19/17 A3006 RMK AO2 RAE07 P0000=
200609130152 METAR KATL 130152Z 10006KT 5SM -RA BR BKN010 OVC040 19/17 A3006 RMK AO2 SLP174 CIG 008V013 P0003 T01940172=
200609130146 SPECI KATL 130146Z 10008KT 5SM -RA BR BKN010 OVC040 19/17 A3006 RMK AO2 CIG 008V013 P0003=
200609130146 SPECI KATL 130146Z 10008KT 5SM -RA BR BKN010 OVC040 19/17 A3006 RMK AO2 CIG 008V013 P0003=
200609130052 METAR KATL 130052Z 09011G16KT 5SM -RA BR FEW006 BKN035 OVC060 19/18 A3004 RMK AO2 SLP166 P0006 T01940178 $=
200609122352 METAR KATL 122352Z 09011KT 5SM -RA BR BKN035 BKN065 OVC090 20/18 A3006 RMK AO2 SLP172 P0007 60011 T02000178 10256 20200 56005=
200609122252 METAR KATL 122252Z 08012KT 5SM -RA FEW030 BKN065 OVC100 21/18 A3006 RMK AO2 SLP172 P0001 T02110178=
200609122152 METAR KATL 122152Z 08009KT 6SM -RA FEW020 BKN045 OVC100 22/18 A3006 RMK AO2 SLP174 P0003 T02170178=
200609122052 METAR KATL 122052Z 10008KT 7SM -RA FEW020 SCT045 BKN095 OVC150 23/17 A3007 RMK AO2 RAB26 SLP176 P0000 60000 T02330172 56016=
200609121952 METAR KATL 121952Z 12009KT 10SM FEW040 SCT050 OVC150 25/16 A3009 RMK AO2 SLP180 T02500156=
200609121852 METAR KATL 121852Z 11008KT 090V160 10SM FEW040 SCT110 OVC150 26/16 A3010 RMK AO2 SLP182 T02560156=
200609121752 METAR KATL 121752Z 13009KT 9SM BKN030 BKN040 OVC150 24/16 A3012 RMK AO2 SLP192 T02440161 10250 20189 58015=
200609121652 METAR KATL 121652Z 10011KT 9SM SCT027 SCT110 BKN150 OVC250 23/16 A3013 RMK AO2 SLP196 BINOVC DSNT S T02330161=
200609121552 METAR KATL 121552Z 11012KT 8SM FEW024 SCT110 BKN150 BKN250 23/17 A3015 RMK AO2 SLP202 T02330167=
200609121452 METAR KATL 121452Z 11011KT 8SM FEW020 SCT110 BKN150 22/17 A3017 RMK AO2 SLP208 T02220167 56002=
200609121419 SPECI KATL 121419Z 12010KT 6SM HZ BKN015 BKN150 22/17 A3017 RMK AO2=
200609121419 SPECI KATL 121419Z 12010KT 6SM HZ BKN015 BKN150 22/17 A3017 RMK AO2=
200609121352 METAR KATL 121352Z 11012KT 5SM HZ BKN011 BKN150 21/17 A3017 RMK AO2 SLP208 T02110172=
200609121252 METAR KATL 121252Z 11009KT 4SM BR OVC008 20/18 A3017 RMK AO2 SLP210 T02000178=
200609121152 METAR KATL 121152Z 09008KT 3SM BR OVC008 19/17 A3017 RMK AO2 SLP208 T01890167 10211 20183 53005=
200609121141 SPECI KATL 121141Z 09008KT 3SM BR OVC008 19/17 A3017 RMK AO2=
200609121141 SPECI KATL 121141Z 09008KT 3SM BR OVC008 19/17 A3017 RMK AO2=
200609121127 SPECI KATL 121127Z 08010KT 4SM BR SCT010 BKN095 BKN250 18/16 A3016 RMK AO2=
200609121127 SPECI KATL 121127Z 08010KT 4SM BR SCT010 BKN095 BKN250 18/16 A3016 RMK AO2=
200609121122 SPECI KATL 121122Z 08010KT 4SM BR BKN010 BKN095 BKN250 18/16 A3016 RMK AO2=
200609121122 SPECI KATL 121122Z 08010KT 4SM BR BKN010 BKN095 BKN250 18/16 A3016 RMK AO2=
200609121052 METAR KATL 121052Z 09009KT 5SM BR SCT095 BKN250 18/16 A3016 RMK AO2 SLP205 T01830161=
200609120952 METAR KATL 120952Z 09006KT 6SM HZ SCT095 19/16 A3015 RMK AO2 SLP201 T01890156=
200609120852 METAR KATL 120852Z 09007KT 5SM HZ BKN095 19/16 A3015 RMK AO2 SLP202 T01940156 55000=
200609120752 METAR KATL 120752Z 12006KT 6SM HZ CLR 20/16 A3015 RMK AO2 SLP201 T02000156=
200609120652 METAR KATL 120652Z 11007KT 6SM HZ CLR 21/16 A3015 RMK AO2 SLP201 T02060156=
200609120552 METAR KATL 120552Z 11008KT 7SM CLR 21/15 A3015 RMK AO2 SLP202 T02110150 10256 20211 50001=
200609120452 METAR KATL 120452Z 10009KT 10SM CLR 22/15 A3016 RMK AO2 SLP202 T02220150 402890194=
200609120352 METAR KATL 120352Z 11009G16KT 10SM CLR 23/15 A3015 RMK AO2 SLP202 T02280150=
200609120252 METAR KATL 120252Z 11007KT 10SM CLR 23/15 A3015 RMK AO2 SLP201 T02330150 51013=
200609120152 METAR KATL 120152Z 08009KT 10SM CLR 23/15 A3014 RMK AO2 SLP198 T02330150=
200609120052 METAR KATL 120052Z 09008KT 10SM CLR 24/15 A3013 RMK AO2 SLP195 T02440150=
200609112352 METAR KATL 112352Z 09009KT 8SM FEW080 25/16 A3011 RMK AO2 SLP189 T02500161 10289 20250 55003=
200609112252 METAR KATL 112252Z 10012KT 8SM CLR 27/16 A3010 RMK AO2 SLP185 T02670161=
200609112152 METAR KATL 112152Z 10009KT 8SM FEW050 28/16 A3011 RMK AO2 SLP186 T02780156=
200609112052 METAR KATL 112052Z 10008KT 8SM FEW050 SCT070 28/16 A3012 RMK AO2 SLP191 T02830156 58016=
200609111952 METAR KATL 111952Z 10011KT 6SM HZ FEW045 SCT060 28/16 A3014 RMK AO2 SLP196 T02780156=
200609111852 METAR KATL 111852Z 12008KT 6SM HZ FEW045 SCT060 28/17 A3015 RMK AO2 SLP201 MDT CU SE-SW T02780167=
200609111752 METAR KATL 111752Z 14007KT 6SM HZ SCT040TCU 28/18 A3017 RMK AO2 SLP206 TCU N AND SW MDT CU ALQDS T02780178 10283 20200 58005=
200609111652 METAR KATL 111652Z 11011KT 5SM HZ SCT030 27/18 A3018 RMK AO2 SLP209 MDT CU ALQDS T02720183=
200609111552 METAR KATL 111552Z 11008KT 5SM HZ FEW025 26/19 A3018 RMK AO2 SLP211 T02610189=
200609111452 METAR KATL 111452Z 08008KT 5SM HZ FEW018 SCT250 24/18 A3018 RMK AO2 SLP211 T02440183 53015=
200609111352 METAR KATL 111352Z 07009KT 5SM HZ FEW250 23/18 A3017 RMK AO2 SLP207 T02280183=
200609111252 METAR KATL 111252Z 09008KT 5SM HZ FEW250 21/18 A3015 RMK AO2 SLP202 T02110178=
200609111152 METAR KATL 111152Z 07009KT 5SM HZ FEW250 20/17 A3014 RMK AO2 SLP197 T02000172 10228 20194 53014=
200609111052 METAR KATL 111052Z 08008KT 5SM HZ CLR 20/17 A3012 RMK AO2 SLP191 T02000172=
200609110952 METAR KATL 110952Z 07011KT 5SM HZ CLR 21/17 A3011 RMK AO2 SLP185 T02060172=
200609110852 METAR KATL 110852Z 08006KT 5SM HZ CLR 21/17 A3010 RMK AO2 SLP181 T02060172 58000=
200609110752 METAR KATL 110752Z 09007KT 5SM HZ CLR 22/18 A3010 RMK AO2 SLP181 T02170178=
200609110652 METAR KATL 110652Z 11006KT 6SM HZ CLR 22/18 A3010 RMK AO2 SLP182 T02220178=
200609110552 METAR KATL 110552Z 11005KT 6SM HZ CLR 23/18 A3010 RMK AO2 SLP181 T02280178 10267 20222 50002=
200609110452 METAR KATL 110452Z 08007KT 6SM HZ CLR 22/17 A3011 RMK AO2 SLP185 T02220172 402940194=
200609110352 METAR KATL 110352Z 12004KT 6SM HZ CLR 23/17 A3010 RMK AO2 SLP183 T02330172=
200609110252 METAR KATL 110252Z 12004KT 7SM CLR 25/17 A3009 RMK AO2 SLP179 T02500172 51013=
200609110152 METAR KATL 110152Z 11007KT 8SM CLR 26/17 A3008 RMK AO2 SLP177 T02560167=
200609110052 METAR KATL 110052Z 08006KT 8SM CLR 26/16 A3007 RMK AO2 SLP173 T02610161=
200609102352 METAR KATL 102352Z 09006KT 6SM HZ FEW050 26/17 A3005 RMK AO2 SLP167 T02610167 10294 20261 53005=
200609102252 METAR KATL 102252Z 09008KT 7SM FEW050 28/16 A3004 RMK AO2 SLP163 T02780161=
200609102152 METAR KATL 102152Z 12007KT 7SM FEW050 29/16 A3004 RMK AO2 SLP161 T02890156=
200609102052 METAR KATL 102052Z 10006KT 7SM SCT050 29/16 A3004 RMK AO2 SLP161 T02890161 58018=
200609101952 METAR KATL 101952Z 12009G15KT 7SM SCT049TCU SCT070 BKN150 29/16 A3005 RMK AO2 SLP167 TCU VC SW AND W T02890161=
200609101852 METAR KATL 101852Z 13007KT 7SM FEW047 SCT065 SCT090 28/16 A3007 RMK AO2 SLP174 MDT CU ALQDS T02780161=
200609101752 METAR KATL 101752Z 09008KT 7SM SCT045TCU BKN095 28/17 A3009 RMK AO2 SLP179 TCU OHD AND VC NW AND DSNT S AND SW T02830172 10283 20206 58011=
200609101652 METAR KATL 101652Z COR 15009KT 7SM BKN035TCU BKN045 28/18 A3011 RMK AO2 SLP185 BKN035 V SCT TCU OHD-ALQDS AND DSNT ALQDS T02780178=
200609101552 METAR KATL 101552Z 08009KT 7SM BKN034TCU BKN042 26/17 A3012 RMK AO2 SLP190 TCU VC S T02560172=
200609101452 METAR KATL 101452Z 09005KT 6SM HZ FEW025 26/18 A3012 RMK AO2 SLP191 T02560183 51009=
200609101352 METAR KATL 101352Z 08004KT 5SM HZ FEW150 24/19 A3011 RMK AO2 SLP187 T02390189=
200609101252 METAR KATL 101252Z 07008KT 4SM HZ CLR 22/18 A3011 RMK AO2 SLP186 T02170183=
200609101152 METAR KATL 101152Z 06007KT 4SM HZ FEW250 21/18 A3009 RMK AO2 SLP181 T02060178 10222 20194 53005=
200609101052 METAR KATL 101052Z 07005KT 5SM HZ FEW250 20/17 A3009 RMK AO2 SLP179 T02000172=
200609100952 METAR KATL 100952Z 05006KT 5SM HZ CLR 21/18 A3008 RMK AO2 SLP175 T02060178=
200609100852 METAR KATL 100852Z 08006KT 6SM HZ CLR 21/18 A3008 RMK AO2 SLP176 T02110178 58004=
200609100752 METAR KATL 100752Z 07005KT 6SM HZ SCT200 21/17 A3008 RMK AO2 SLP178 T02060172=
200609100652 METAR KATL 100652Z 07005KT 6SM HZ FEW200 21/17 A3009 RMK AO2 SLP179 T02110172=
200609100552 METAR KATL 100552Z 09004KT 6SM HZ CLR 22/17 A3009 RMK AO2 SLP180 T02170172 10256 20217 50004=
200609100452 METAR KATL 100452Z 11005KT 7SM FEW200 23/18 A3010 RMK AO2 SLP182 T02280178 402830194=
200609100352 METAR KATL 100352Z 09007KT 7SM SCT200 22/18 A3009 RMK AO2 SLP181 T02170178=
200609100252 METAR KATL 100252Z 08005KT 7SM SCT200 23/18 A3008 RMK AO2 SLP176 T02280178 53012=
200609100152 METAR KATL 100152Z 12004KT 8SM FEW150 24/18 A3007 RMK AO2 SLP172 T02390178=
200609100052 METAR KATL 100052Z 11003KT 9SM CLR 25/17 A3005 RMK AO2 SLP165 T02500172=
200609092352 METAR KATL 092352Z 12005KT 7SM FEW150 26/17 A3004 RMK AO2 SLP165 T02560167 10283 20256 58001=
200609092252 METAR KATL 092252Z 10006KT 8SM FEW038 26/17 A3004 RMK AO2 SLP164 T02610172=
200609092152 METAR KATL 092152Z COR 12006KT 8SM SCT038TCU SCT150 BKN250 28/17 A3005 RMK AO2 SLP167 TCU SW-NW AND VC NE T02780172=
200609092052 METAR KATL 092052Z 08007KT 8SM SCT038TCU BKN150 BKN250 28/18 A3005 RMK AO2 SLP165 TCU OHD-NW AND DSNT NW T02780178 56019=
200609091952 METAR KATL 091952Z 08006KT 8SM SCT040 SCT100 BKN150 BKN250 28/17 A3006 RMK AO2 SLP171 T02780172=
200609091852 METAR KATL 091852Z 07007KT 8SM SCT036 BKN150 BKN250 27/18 A3008 RMK AO2 SLP178 SCT036 V BKN T02670178=
200609091752 METAR KATL 091752Z 08007KT 8SM SCT034 BKN150 OVC200 27/18 A3010 RMK AO2 SLP185 BINOVC E T02670178 10267 20200 58008=
200609091652 METAR KATL 091652Z 09007KT 8SM SCT033 OVC150 26/17 A3011 RMK AO2 SLP189 T02560172=
200609091552 METAR KATL 091552Z VRB03KT 8SM SCT025 BKN150 BKN250 25/18 A3013 RMK AO2 SLP195 T02500178=
200609091452 METAR KATL 091452Z 12005KT 8SM BKN150 BKN250 24/18 A3013 RMK AO2 SLP194 T02390183 53006=
200609091352 METAR KATL 091352Z 07004KT 6SM HZ SCT040 SCT150 BKN200 BKN250 23/18 A3012 RMK AO2 SLP189 T02280183=
200609091252 METAR KATL 091252Z COR 06005KT 6SM HZ FEW039 BKN180 21/17 A3011 RMK AO2 SLP188 T02110172=
200609091152 METAR KATL 091152Z 08006KT 5SM HZ FEW150 BKN250 20/17 A3011 RMK AO2 SLP188 T02000172 10217 20194 51009=
200609091052 METAR KATL 091052Z 06006KT 8SM BKN250 20/17 A3010 RMK AO2 SLP184 T02000167=
200609090952 METAR KATL 090952Z 04005KT 7SM SCT250 21/17 A3009 RMK AO2 SLP181 T02060167=
200609090852 METAR KATL 090852Z 05005KT 8SM BKN250 21/17 A3008 RMK AO2 SLP178 T02060167 53002=
200609090752 METAR KATL 090752Z 09003KT 8SM BKN250 21/17 A3008 RMK AO2 SLP176 T02060167=
200609090652 METAR KATL 090652Z 06004KT 9SM SCT250 21/17 A3008 RMK AO2 SLP176 T02110167=
200609090552 METAR KATL 090552Z 06005KT 9SM SCT250 22/17 A3008 RMK AO2 SLP176 T02170167 10256 20217 58001=
200609090452 METAR KATL 090452Z VRB03KT 10SM BKN250 23/17 A3008 RMK AO2 SLP178 T02280167 402830178=
200609090352 METAR KATL 090352Z 10003KT 10SM SCT250 23/17 A3008 RMK AO2 SLP178 T02280167=
200609090252 METAR KATL 090252Z 13003KT 10SM FEW200 BKN250 23/17 A3008 RMK AO2 SLP177 T02330167 51012=
200609090152 METAR KATL 090152Z 12005KT 10SM SCT250 24/17 A3007 RMK AO2 SLP174 T02440167=
200609090052 METAR KATL 090052Z 10005KT 10SM FEW250 24/17 A3005 RMK AO2 SLP169 T02440167=
200609082352 METAR KATL 082352Z 12006KT 10SM FEW250 26/17 A3004 RMK AO2 SLP166 T02560167 10283 20256 56004=
200609082252 METAR KATL 082252Z 10007KT 10SM FEW045 27/16 A3005 RMK AO2 SLP166 MDT CU W T02670161=
200609082152 METAR KATL 082152Z 10007KT 10SM FEW050 27/16 A3005 RMK AO2 SLP168 MDT CU SW T02670161=
200609082052 METAR KATL 082052Z 12007KT 10SM FEW047 27/16 A3006 RMK AO2 SLP170 T02720156 56014=
200609081952 METAR KATL 081952Z VRB05KT 10SM SCT050 28/18 A3007 RMK AO2 SLP172 T02780178=
200609081852 METAR KATL 081852Z 03005KT 10SM FEW045 BKN049 27/16 A3008 RMK AO2 SLP179 T02670161=
200609081752 METAR KATL 081752Z VRB03KT 10SM SCT040 26/17 A3010 RMK AO2 SLP184 T02610172 10267 20194 58010=
200609081652 METAR KATL 081652Z 07007KT 10SM SCT035 SCT240 26/18 A3012 RMK AO2 SLP190 T02560178=
200609081552 METAR KATL 081552Z 09007KT 040V120 9SM FEW025 SCT240 25/18 A3013 RMK AO2 SLP194 T02500183=
200609081452 METAR KATL 081452Z COR 08009KT 050V110 8SM FEW020 SCT120 23/18 A3013 RMK AO2 SLP194 ACC NE-S T02330172 51009=
200609081352 METAR KATL 081352Z 06010KT 5SM HZ FEW010 SCT120 22/19 A3012 RMK AO2 SLP193 T02170189=
200609081252 METAR KATL 081252Z 06009KT 6SM HZ FEW120 20/17 A3011 RMK AO2 SLP190 T02000172=
200609081152 METAR KATL 081152Z 05007KT 5SM HZ FEW120 SCT250 19/17 A3010 RMK AO2 SLP185 T01940167 10194 20178 53014=
200609081052 METAR KATL 081052Z 04007KT 6SM HZ FEW120 SCT250 19/16 A3008 RMK AO2 SLP180 T01890161=
200609080952 METAR KATL 080952Z 05006KT 6SM HZ FEW120 SCT250 19/16 A3007 RMK AO2 SLP177 T01890161=
200609080852 METAR KATL 080852Z 06005KT 7SM FEW250 18/16 A3006 RMK AO2 SLP172 T01780161 55002=
200609080752 METAR KATL 080752Z 06006KT 7SM FEW120 SCT250 19/16 A3005 RMK AO2 SLP168 T01890161=
200609080652 METAR KATL 080652Z 08006KT 8SM FEW120 SCT250 18/16 A3005 RMK AO2 SLP168 T01830161=
200609080552 METAR KATL 080552Z 08005KT 8SM FEW120 SCT250 19/16 A3006 RMK AO2 SLP173 T01940161 10222 20189 58005=
200609080452 METAR KATL 080452Z 04003KT 10SM FEW250 21/16 A3008 RMK AO2 SLP177 T02060161 402670200=
200609080352 METAR KATL 080352Z 00000KT 10SM SCT250 21/16 A3008 RMK AO2 SLP178 T02060161=
200609080252 METAR KATL 080252Z 00000KT 10SM FEW150 SCT250 21/16 A3008 RMK AO2 SLP178 T02060161 53016=
200609080152 METAR KATL 080152Z 08005KT 10SM FEW150 SCT200 SCT250 21/16 A3007 RMK AO2 SLP176 T02110156=
200609080052 METAR KATL 080052Z 09008KT 10SM FEW140 SCT250 21/16 A3004 RMK AO2 SLP165 T02110156=
200609072352 METAR KATL 072352Z 13009KT 10SM SCT140 BKN250 22/16 A3003 RMK AO2 SLP163 T02220161 10267 20222 58003=
200609072252 METAR KATL 072252Z 14007KT 10SM FEW080 BKN140 BKN200 BKN250 23/16 A3004 RMK AO2 SLP165 T02330161=
200609072152 METAR KATL 072152Z 10009KT 10SM FEW030 BKN140 OVC200 24/17 A3005 RMK AO2 SLP166 T02440167=
200609072052 METAR KATL 072052Z 12009KT 10SM FEW030TCU SCT070 BKN150 BKN250 26/17 A3004 RMK AO2 SLP164 TCU W T02560167 55010=
200609071952 METAR KATL 071952Z 11008KT 10SM FEW030 SCT110 SCT150 OVC250 26/19 A3004 RMK AO2 SLP164 T02610189=
200609071852 METAR KATL 071852Z 10009KT 10SM FEW030TCU SCT075 BKN110 OVC250 26/19 A3006 RMK AO2 SLP170 TCU NW T02560194=
200609071752 METAR KATL 071752Z 12007KT 080V150 8SM BKN026TCU BKN080 OVC250 26/18 A3007 RMK AO2 SLP174 TCU DSNT NE AND VC S-W T02560183 10267 20211 58007=
200609071652 METAR KATL 071652Z 13006KT 10SM FEW025 SCT045 SCT110 OVC250 26/18 A3009 RMK AO2 SLP179 TCU DSNT NW T02610183=
200609071611 SPECI KATL 071611Z 12007KT 8SM BKN020 BKN045 OVC250 24/19 A3009 RMK AO2=
200609071611 SPECI KATL 071611Z 12007KT 8SM BKN020 BKN045 OVC250 24/19 A3009 RMK AO2=
200609071552 METAR KATL 071552Z 09007KT 7SM SCT020TCU BKN045 BKN250 24/19 A3009 RMK AO2 SLP182 TCU N-NE T02440189=
200609071452 METAR KATL 071452Z 10006KT 6SM HZ FEW020 BKN150 BKN250 24/18 A3009 RMK AO2 SLP181 T02390183 51015=
200609071352 METAR KATL 071352Z 09004KT 6SM HZ FEW080 SCT120 BKN150 BKN250 22/19 A3008 RMK AO2 SLP177 T02220189=
200609071252 METAR KATL 071252Z 09004KT 6SM BR SCT120 BKN200 BKN250 21/19 A3007 RMK AO2 SLP172 T02110194=
200609071152 METAR KATL 071152Z 07005KT 7SM SCT120 BKN200 BKN250 21/18 A3005 RMK AO2 SLP166 T02110183 10233 20206=
200609071052 METAR KATL 071052Z 00000KT 8SM FEW110 BKN150 BKN250 21/17 A3003 RMK AO2 SLP160 T02110167=
200609070952 METAR KATL 070952Z 00000KT 7SM FEW120 SCT200 SCT250 21/17 A3001 RMK AO2 SLP153 T02110172=
200609070852 METAR KATL 070852Z 00000KT 8SM SCT110 SCT200 BKN250 21/17 A3001 RMK AO2 SLP153 T02110172 58003=
200609070752 METAR KATL 070752Z 00000KT 8SM BKN120 BKN200 BKN250 22/17 A3001 RMK AO2 SLP153 T02170167=
200609070652 METAR KATL 070652Z 00000KT 9SM SCT110 SCT200 BKN250 21/16 A3002 RMK AO2 SLP157 T02110161=
200609070552 METAR KATL 070552Z 36004KT 10SM BKN110 BKN200 BKN250 23/14 A3002 RMK AO2 SLP156 T02330144 10267 20233 58003=
200609070452 METAR KATL 070452Z 00000KT 10SM BKN110 OVC150 24/14 A3003 RMK AO2 SLP160 T02440139 402940200=
200609070352 METAR KATL 070352Z 00000KT 10SM BKN150 BKN250 24/16 A3004 RMK AO2 SLP161 T02390156=
200609070252 METAR KATL 070252Z 00000KT 10SM FEW120 BKN250 24/14 A3003 RMK AO2 SLP160 T02440139 51011=
200609070152 METAR KATL 070152Z 06005KT 10SM FEW120 SCT150 BKN250 25/13 A3002 RMK AO2 SLP156 T02500128=
200609070052 METAR KATL 070052Z 35007KT 10SM SCT150 BKN200 BKN250 26/13 A3001 RMK AO2 SLP153 T02610128=
200609062352 METAR KATL 062352Z 34007KT 10SM FEW140 SCT200 BKN250 27/12 A3000 RMK AO2 SLP149 T02670122 10294 20267 53001=
200609062252 METAR KATL 062252Z 33006KT 10SM FEW065 BKN200 BKN250 28/12 A2999 RMK AO2 SLP146 MDT CU SE-S T02780122=
200609062152 METAR KATL 062152Z 31009KT 10SM FEW065 SCT200 BKN250 28/13 A2999 RMK AO2 SLP147 MDT CU NE-SE-S T02830133=
200609062052 METAR KATL 062052Z VRB03KT 10SM FEW065 SCT150 SCT200 SCT250 29/13 A2999 RMK AO2 SLP147 T02940133 56011=
200609061952 METAR KATL 061952Z 27007KT 10SM FEW060 SCT150 SCT250 29/14 A3000 RMK AO2 SLP149 T02890139=
200609061852 METAR KATL 061852Z 35007KT 10SM FEW050 SCT150 SCT250 29/17 A3002 RMK AO2 SLP154 T02890167=
200609061752 METAR KATL 061752Z 01008KT 10SM FEW040 SCT150 BKN250 28/18 A3003 RMK AO2 SLP158 T02780178 10278 20200 58009=
200609061652 METAR KATL 061652Z VRB04KT 10SM FEW030 SCT150 SCT250 27/17 A3005 RMK AO2 SLP164 T02670172=
200609061552 METAR KATL 061552Z VRB05KT 8SM SCT023 SCT150 26/18 A3006 RMK AO2 SLP169 T02560183=
200609061452 METAR KATL 061452Z 30004KT 6SM HZ SCT018 SCT150 SCT250 23/18 A3006 RMK AO2 SLP168 T02330183 53008=
200609061352 METAR KATL 061352Z 08004KT 8SM FEW015 SCT150 BKN250 22/18 A3004 RMK AO2 SLP165 T02170178=
200609061252 METAR KATL 061252Z 05005KT 6SM HZ FEW008 SCT150 BKN250 21/18 A3004 RMK AO2 SLP163 T02060178=
200609061152 METAR KATL 061152Z 05006KT 4SM BR FEW007 BKN150 BKN250 21/18 A3003 RMK AO2 SLP161 T02060183 10217 20200 53012=
200609061052 METAR KATL 061052Z 06004KT 5SM BR SCT007 BKN150 OVC200 20/18 A3001 RMK AO2 SLP153 T02000183 $=
200609060952 METAR KATL 060952Z 04005KT 5SM BR BKN007 OVC150 21/19 A2999 RMK AO2 CIG 005V010 SLP148 T02060189 $=
200609060916 SPECI KATL 060916Z 06006KT 5SM BR BKN005 BKN150 OVC200 21/19 A2999 RMK AO2=
200609060916 SPECI KATL 060916Z 06006KT 5SM BR BKN005 BKN150 OVC200 21/19 A2999 RMK AO2=
200609060852 METAR KATL 060852Z 06007KT 5SM BR FEW006 BKN150 OVC200 21/19 A3000 RMK AO2 SLP149 T02060189 56005=
200609060752 METAR KATL 060752Z 09004KT 5SM BR SCT006 BKN150 OVC200 21/19 A3000 RMK AO2 SLP152 T02110189=
200609060652 METAR KATL 060652Z 14003KT 4SM BR SCT008 BKN150 OVC200 21/19 A3000 RMK AO2 SLP151 T02110194=
200609060622 SPECI KATL 060622Z 11003KT 5SM BR FEW008 BKN150 OVC200 22/19 A3001 RMK AO2=
200609060622 SPECI KATL 060622Z 11003KT 5SM BR FEW008 BKN150 OVC200 22/19 A3001 RMK AO2=
200609060552 METAR KATL 060552Z 08005KT 4SM BR FEW010 BKN150 OVC200 22/20 A3001 RMK AO2 SLP153 60000 T02170200 10239 20217 58005=
200609060452 METAR KATL 060452Z 01004KT 8SM FEW100 BKN150 OVC200 23/19 A3002 RMK AO2 SLP157 T02280194 402830200=
200609060352 METAR KATL 060352Z 04007KT 9SM FEW100 OVC150 23/19 A3002 RMK AO2 SLP158 T02280194=
200609060252 METAR KATL 060252Z COR 36008KT 9SM FEW090 BKN140 OVC200 23/19 A3003 RMK AO2 RAE50 SLP159 P0000 60000 T02330189 51014=
200609060152 METAR KATL 060152Z 36005KT 9SM -RA FEW070 SCT095 OVC120 23/19 A3002 RMK AO2 SLP158 P0000 T02330194=
200609060052 METAR KATL 060052Z 01007KT 8SM -RA FEW090 OVC120 23/19 A3000 RMK AO2 SLP151 P0000 T02330194=
200609052352 METAR KATL 052352Z 34005KT 8SM -RA FEW100 OVC130 23/19 A2998 RMK AO2 SLP146 P0000 60000 T02330194 10283 20222 51006=
200609052252 METAR KATL 052252Z 00000KT 8SM -RA FEW065 BKN110 OVC150 23/20 A2998 RMK AO2 RAB11E27B51 SLP145 P0000 T02330200=
200609052152 METAR KATL 052152Z 00000KT 9SM BKN100 OVC150 24/19 A2998 RMK AO2 SLP142 T02440189=
200609052052 METAR KATL 052052Z 00000KT 8SM FEW050 SCT110 OVC130 24/19 A2997 RMK AO2 RAE09B29E43 SLP139 P0000 60000 T02440194 56013=
200609052014 SPECI KATL 052014Z 36003KT 9SM FEW050 BKN110 OVC130 24/19 A2997 RMK AO2 RAE09 P0000=
200609052014 SPECI KATL 052014Z 36003KT 9SM FEW050 BKN110 OVC130 24/19 A2997 RMK AO2 RAE09 P0000=
200609051952 METAR KATL 051952Z 36011KT 6SM -RA BR FEW039 BKN055 OVC100 22/21 A2997 RMK AO2 PK WND 32027/1929 WSHFT 1924 TSB28E47RAB32 SLP142 TS MOV E CB DSNT E MOV E P0000 T02220206=
200609051947 SPECI KATL 051947Z 36013G23KT 6SM -RA BR FEW039 BKN055 OVC100 22/19 A2998 RMK AO2 PK WND 32027/1929 WSHFT 1924 TSB28E47RAB32 TS MOV E CB DSNT E MOV E P0000=
200609051947 SPECI KATL 051947Z 36013G23KT 6SM -RA BR FEW039 BKN055 OVC100 22/19 A2998 RMK AO2 PK WND 32027/1929 WSHFT 1924 TSB28E47RAB32 TS MOV E CB DSNT E MOV E P0000=
200609051938 SPECI KATL 051938Z 36017G27KT 2SM -TSRA BR BKN039CB BKN055 OVC100 23/20 A2998 RMK AO2 PK WND 32027/1929 WSHFT 1924 SFC VIS 3 TSB28RAB32 VIS W 1 NW 1/2 N 1 OCNL LTGIC TS OHD-NW-N MOV E P0000=
200609051938 SPECI KATL 051938Z 36017G27KT 2SM -TSRA BR BKN039CB BKN055 OVC100 23/20 A2998 RMK AO2 PK WND 32027/1929 WSHFT 1924 SFC VIS 3 TSB28RAB32 VIS W 1 NW 1/2 N 1 OCNL LTGIC TS OHD-NW-N MOV E P0000=
200609051928 SPECI KATL 051928Z 32022KT 7SM TS BKN037CB BKN060 OVC130 25/19 A2998 RMK AO2 TSB28 OCNL LTGIC TS NW-N MOV E CB NW-N MOV E SHRA NW-N=
200609051928 SPECI KATL 051928Z 32022KT 7SM TS BKN037CB BKN060 OVC130 25/19 A2998 RMK AO2 TSB28 OCNL LTGIC TS NW-N MOV E CB NW-N MOV E SHRA NW-N=
200609051852 METAR KATL 051852Z VRB04KT 7SM FEW030 SCT080 SCT130 BKN200 28/19 A2998 RMK AO2 SLP143 T02780194=
200609051752 METAR KATL 051752Z VRB03KT 6SM HZ FEW100 BKN130 BKN200 27/21 A3001 RMK AO2 SLP151 T02720206 10272 20200 58009 $=
200609051652 METAR KATL 051652Z 29005KT 5SM HZ FEW060 SCT100 OVC130 24/21 A3002 RMK AO2 SLP157 T02440206 $=
200609051552 METAR KATL 051552Z 27005KT 5SM HZ FEW060 BKN090 OVC130 24/21 A3004 RMK AO2 SLP162 T02390206 $=
200609051452 METAR KATL 051452Z 28004KT 6SM HZ FEW090 BKN130 24/20 A3003 RMK AO2 SLP160 T02390200 53007 $=
200609051352 METAR KATL 051352Z 30004KT 4SM HZ FEW100 BKN130 23/20 A3002 RMK AO2 SLP158 T02280200 $=
200609051252 METAR KATL 051252Z 30005KT 3SM BR FEW065 BKN110 OVC250 22/19 A3002 RMK AO2 SLP157 T02170194 $=
200609051152 METAR KATL 051152Z 29008KT 3SM BR FEW065 BKN110 OVC250 20/19 A3001 RMK AO2 SLP154 T02000189 10228 20200 53007=
200609051052 METAR KATL 051052Z 27003KT 5SM BR SCT065 BKN110 BKN250 21/19 A2999 RMK AO2 SLP146 T02110189=
200609050952 METAR KATL 050952Z 00000KT 6SM HZ FEW065 BKN120 BKN250 22/19 A2999 RMK AO2 SLP144 T02170189 $=
200609050852 METAR KATL 050852Z 30005KT 6SM BR FEW065 SCT250 21/19 A2999 RMK AO2 SLP146 T02110189 55005 $=
200609050752 METAR KATL 050752Z 02004KT 6SM HZ FEW065 SCT250 22/19 A2998 RMK AO2 SLP142 T02170189 $=
200609050652 METAR KATL 050652Z 33005KT 7SM FEW065 SCT250 22/19 A3000 RMK AO2 SLP147 T02170189 $=
200609050552 METAR KATL 050552Z 31004KT 10SM FEW065 SCT250 23/18 A3001 RMK AO2 SLP150 T02280183 10283 20228 58004 $=
200609050452 METAR KATL 050452Z 22004KT 10SM FEW110 SCT250 24/19 A3002 RMK AO2 SLP153 T02390189 403110217 $=
200609050352 METAR KATL 050352Z 00000KT 10SM SCT070 SCT110 BKN250 25/18 A3002 RMK AO2 SLP153 T02500183 $=
200609050252 METAR KATL 050252Z VRB03KT 10SM SCT150 BKN250 26/18 A3002 RMK AO2 SLP154 T02560178 51014 $=
200609050152 METAR KATL 050152Z 00000KT 10SM FEW100 SCT200 BKN250 26/18 A3001 RMK AO2 SLP152 T02610183 $=
200609050052 METAR KATL 050052Z 18005KT 10SM FEW090 SCT200 BKN250 27/17 A2999 RMK AO2 SLP145 T02720172 $=
200609042352 METAR KATL 042352Z 20005KT 10SM FEW060 SCT090 BKN250 28/17 A2998 RMK AO2 SLP141 T02830172 10311 20283 55000 $=
200609042252 METAR KATL 042252Z 19008KT 10SM FEW060 SCT200 30/17 A2998 RMK AO2 SLP139 T03000167 $=
200609042152 METAR KATL 042152Z 15007KT 10SM FEW055 31/17 A2997 RMK AO2 SLP138 MDT CU VC N AND E-S T03060167 $=
200609042052 METAR KATL 042052Z VRB04KT 10SM FEW055 30/17 A2998 RMK AO2 SLP140 T03000172 56017 $=
200609041952 METAR KATL 041952Z 16007KT 120V190 10SM FEW050 SCT100 30/17 A2999 RMK AO2 SLP145 MDT CU SE AND W-NW T03000172 $=
200609041852 METAR KATL 041852Z VRB03KT 10SM FEW055 SCT100 30/17 A3001 RMK AO2 SLP151 T03000167 $=
200609041752 METAR KATL 041752Z 21008KT 8SM FEW048 30/18 A3003 RMK AO2 SLP157 T03000178 10300 20222 58010 $=
200609041652 METAR KATL 041652Z 20005KT 7SM FEW038 29/19 A3004 RMK AO2 SLP162 T02940189 $=
200609041552 METAR KATL 041552Z 00000KT 6SM HZ CLR 28/20 A3006 RMK AO2 SLP167 T02830200 $=
200609041452 METAR KATL 041452Z 14004KT 7SM FEW250 26/21 A3006 RMK AO2 SLP169 T02610206 51009 $=
200609041352 METAR KATL 041352Z 12003KT 5SM HZ SCT220 25/21 A3005 RMK AO2 SLP165 T02500206 $=
200609041252 METAR KATL 041252Z 10005KT 4SM BR FEW009 SCT220 23/21 A3005 RMK AO2 SLP167 T02330211 $=
200609041152 METAR KATL 041152Z 06005KT 3SM BR FEW250 22/21 A3003 RMK AO2 SLP160 70061 T02220206 10233 20217 53009 $=
200609041052 METAR KATL 041052Z 10003KT 5SM BR BKN120 22/21 A3001 RMK AO2 SLP153 T02220206 $=
200609040952 METAR KATL 040952Z 12004KT 6SM BR SCT120 BKN150 22/21 A3000 RMK AO2 SLP150 T02220206 $=
200609040852 METAR KATL 040852Z 09004KT 6SM BR BKN100 OVC150 22/21 A3000 RMK AO2 SLP149 T02220206 56004 $=
200609040752 METAR KATL 040752Z 07006KT 5SM BR BKN080 OVC100 23/21 A3001 RMK AO2 SLP151 T02280206 $=
200609040652 METAR KATL 040652Z 08004KT 7SM BKN085 OVC120 23/21 A3000 RMK AO2 SLP150 T02280206 $=
200609040552 METAR KATL 040552Z 08005KT 6SM HZ BKN120 OVC250 23/21 A3002 RMK AO2 SLP154 T02330206 10256 20233 58001 $=
200609040452 METAR KATL 040452Z 09007KT 6SM HZ FEW038 BKN120 OVC250 23/21 A3002 RMK AO2 SLP155 T02330206 402940217 $=
200609040352 METAR KATL 040352Z 08007KT 6SM BR FEW036 SCT090 BKN120 OVC250 23/21 A3002 RMK AO2 SLP154 T02330211 $=
200609040252 METAR KATL 040252Z 08006KT 7SM BKN080 BKN120 24/21 A3002 RMK AO2 SLP154 T02390206 50011 $=
200609040152 METAR KATL 040152Z 05007KT 7SM FEW095 BKN120 24/21 A3002 RMK AO2 SLP156 T02440206 $=
200609040052 METAR KATL 040052Z 11003KT 7SM FEW044 SCT120 SCT250 25/21 A3000 RMK AO2 SLP151 T02500206 $=
200609032352 METAR KATL 032352Z 08005KT 7SM FEW060 SCT100 SCT250 26/20 A2998 RMK AO2 SLP144 60061 T02610200 10294 20233 53002 $=
200609032252 METAR KATL 032252Z 03007KT 9SM FEW055 SCT110 26/21 A2997 RMK AO2 RAE00 SLP140 P0000 T02610206 $=
200609032152 METAR KATL 032152Z 34006KT 10SM -RA FEW016 SCT034CB BKN120 25/21 A2998 RMK AO2 RAB05 SLP142 CB VC NE MOV STNRY P0061 T02500206 $=
200609032123 SPECI KATL 032123Z 34012KT 5SM +RA FEW008 SCT014 BKN036TCU 24/21 A2998 RMK AO2 RAB05 TCU OHD P0051 $=
200609032123 SPECI KATL 032123Z 34012KT 5SM +RA FEW008 SCT014 BKN036TCU 24/21 A2998 RMK AO2 RAB05 TCU OHD P0051 $=
200609032118 SPECI KATL 032118Z 03004KT 2 1/2SM +RA SCT004 SCT028 BKN036TCU 23/21 A2998 RMK AO2 RAB05 TCU OHD-SW VIS SW 1 1/2 P0047 $=
200609032118 SPECI KATL 032118Z 03004KT 2 1/2SM +RA SCT004 SCT028 BKN036TCU 23/21 A2998 RMK AO2 RAB05 TCU OHD-SW VIS SW 1 1/2 P0047 $=
200609032110 SPECI KATL 032110Z 10014KT 1 1/4SM -RA FEW006 OVC036 27/22 A2999 RMK AO2 RAB05 P0003 $=
200609032110 SPECI KATL 032110Z 10014KT 1 1/4SM -RA FEW006 OVC036 27/22 A2999 RMK AO2 RAB05 P0003 $=
200609032052 METAR KATL 032052Z 00000KT 8SM SCT039TCU BKN095 29/21 A2998 RMK AO2 SLP140 TCU NE-OHD-S 60000 T02940206 57015 $=
200609031952 METAR KATL 031952Z 07006KT 7SM FEW030 BKN090 29/21 A2999 RMK AO2 SLP144 T02890206 $=
200609031852 METAR KATL 031852Z 03010KT 7SM SCT025TCU BKN085 27/20 A3001 RMK AO2 RAB19E27 SLP153 SCT025 V BKN TCU OHD-S AND VC NE AND DSNT SE-S AND SW-W SHRA VC NE AND DSNT NW-N P0000 T02720200 $=
200609031820 SPECI KATL 031820Z 02008KT 6SM -RA BKN026TCU BKN080 27/21 A3002 RMK AO2 RAB19 BKN026 V SCT TCU N-E-OHD-S SHRA VC N-E AND DSNT NW-N P0000 $=
200609031820 SPECI KATL 031820Z 02008KT 6SM -RA BKN026TCU BKN080 27/21 A3002 RMK AO2 RAB19 BKN026 V SCT TCU N-E-OHD-S SHRA VC N-E AND DSNT NW-N P0000 $=
200609031752 METAR KATL 031752Z 33005KT 6SM HZ SCT026TCU BKN090 27/21 A3002 RMK AO2 SLP157 SCT026 V BKN TCU N-NE-OHD-SW SHRA VC N-NE AND DSNT=
200609031713 SPECI KATL 031713Z 11005KT 6SM HZ SCT018TCU BKN024 BKN029 26/21 A3003 RMK AO2 SCT018 V BKN TCU N-NE-OHD-SW-W-N SHRA VC N-E AND VC W-N $=
200609031713 SPECI KATL 031713Z 11005KT 6SM HZ SCT018TCU BKN024 BKN029 26/21 A3003 RMK AO2 SCT018 V BKN TCU N-NE-OHD-SW-W-N SHRA VC N-E AND VC W-N $=
200609031652 METAR KATL 031652Z 12005KT 7SM SCT018TCU BKN080 26/21 A3004 RMK AO2 SLP163 SCT018 V BKN TCU NE-OHD-SW-W AND DSNT N AND DSNT SE-S AND W SHRA VC NE AND SW-W T02610211 $=
200609031630 SPECI KATL 031630Z VRB05KT 8SM SCT021 SCT030 SCT085 27/21 A3005 RMK AO2 $=
200609031630 SPECI KATL 031630Z VRB05KT 8SM SCT021 SCT030 SCT085 27/21 A3005 RMK AO2 $=
200609031552 METAR KATL 031552Z VRB04KT 7SM BKN021 BKN027 BKN150 27/21 A3005 RMK AO2 SLP166 T02670211 $=
200609031541 SPECI KATL 031541Z 06006KT 7SM BKN020 BKN026 BKN150 27/21 A3005 RMK AO2 $=
200609031541 SPECI KATL 031541Z 06006KT 7SM BKN020 BKN026 BKN150 27/21 A3005 RMK AO2 $=
200609031452 METAR KATL 031452Z COR 09005KT 7SM SCT018 BKN110 26/21 A3005 RMK AO2 SLP166 60000 T02560206 51013 $=
200609031414 SPECI KATL 031414Z VRB04KT 6SM HZ SCT019 BKN110 24/21 A3005 RMK AO2 $=
200609031414 SPECI KATL 031414Z VRB04KT 6SM HZ SCT019 BKN110 24/21 A3005 RMK AO2 $=
200609031352 METAR KATL 031352Z 09005KT 6SM HZ BKN017 OVC100 24/21 A3004 RMK AO2 SLP163 T02440206 $=
200609031320 SPECI KATL 031320Z 08006KT 6SM HZ BKN017 BKN100 23/19 A3004 RMK AO2 $=
200609031320 SPECI KATL 031320Z 08006KT 6SM HZ BKN017 BKN100 23/19 A3004 RMK AO2 $=
200609031252 METAR KATL 031252Z 07006KT 6SM HZ BKN100 BKN180 23/19 A3003 RMK AO2 SLP159 T02330189 $=
200609031152 METAR KATL 031152Z 36007KT 5SM HZ BKN080 OVC100 23/19 A3001 RMK AO2 SLP153 60000 T02280189 10228 20217 53008 $=
200609031052 METAR KATL 031052Z 34006KT 6SM HZ BKN080 OVC100 22/19 A3000 RMK AO2 SLP149 T02220194 $=
200609030952 METAR KATL 030952Z 33005KT 6SM HZ OVC080 23/19 A2999 RMK AO2 SLP145 T02280189 $=
200609030852 METAR KATL 030852Z 03004KT 7SM OVC090 23/18 A2999 RMK AO2 SLP143 60000 T02280183 55003 $=
200609030752 METAR KATL 030752Z 29003KT 7SM OVC085 22/18 A2998 RMK AO2 RAE12 SLP142 P0000 T02220178 $=
200609030652 METAR KATL 030652Z 20008KT 6SM -RA OVC090 22/19 A2998 RMK AO2 RAB0556E11B43 SLP143 P0000 T02170189 $=
200609030552 METAR KATL 030552Z 20006KT 6SM HZ OVC080 22/19 A3000 RMK AO2 RAE0454B34E45 SLP148 P0000 60000 T02220189 10272 20217 50002 $=
200609030452 METAR KATL 030452Z 13008KT 4SM -RA BR FEW048 SCT065 OVC080 22/20 A3000 RMK AO2 RAB18 SLP151 P0000 T02170200 403000211 $=
200609030352 METAR KATL 030352Z 11006KT 5SM HZ SCT048 BKN075 OVC120 23/20 A3001 RMK AO2 SLP151 T02280200 $=
200609030252 METAR KATL 030252Z 05007KT 6SM HZ BKN075 OVC120 24/19 A2999 RMK AO2 SLP146 BINOVC T02440194 51014 $=
200609030152 METAR KATL 030152Z 04008KT 7SM SCT120 26/19 A2998 RMK AO2 SLP142 T02610194 $=
200609030052 METAR KATL 030052Z 09004KT 6SM HZ FEW060 BKN120 25/19 A2996 RMK AO2 SLP136 T02500194 $=
200609022352 METAR KATL 022352Z 02009KT 5SM HZ SCT050CB BKN110 27/18 A2995 RMK AO2 SLP131 CB VC NE-SE MOV SE SHRA VC NE-SE T02720183 10300 20261 53005 $=
200609022252 METAR KATL 022252Z 33006KT 5SM HZ BKN045TCU BKN080 28/18 A2994 RMK AO2 SLP128 TCU OHD-NW T02830183 $=
200609022152 METAR KATL 022152Z VRB05KT 5SM HZ SCT047TCU BKN150 29/18 A2993 RMK AO2 SLP124 TCU OHD-NE-E T02940183 $=
200609022052 METAR KATL 022052Z 19004KT 6SM HZ FEW040TCU SCT046 29/19 A2993 RMK AO2 SLP124 TCU OHD-E T02890189 56018 $=
200609021952 METAR KATL 021952Z VRB03KT 6SM HZ SCT040 29/19 A2994 RMK AO2 SLP126 T02890189 $=
200609021852 METAR KATL 021852Z 16004KT 7SM SCT030 BKN150 28/19 A2997 RMK AO2 SLP137 T02780194 $=
200609021752 METAR KATL 021752Z 20005KT 7SM SCT025TCU BKN032 BKN150 27/21 A2998 RMK AO2 SLP143 SCT025 V BKN TCU OHD-S-SW AND VC E AND DSNT S T02670206 10267 20211 58007 $=
200609021652 METAR KATL 021652Z VRB03KT 8SM BKN021 BKN150 26/21 A2999 RMK AO2 SLP148 BKN021 V SCT T02560206=
200609021624 SPECI KATL 021624Z VRB05KT 8SM SCT016 BKN150 26/21 A3000 RMK AO2=
200609021624 SPECI KATL 021624Z VRB05KT 8SM SCT016 BKN150 26/21 A3000 RMK AO2=
200609021552 METAR KATL 021552Z VRB03KT 6SM HZ BKN013 BKN150 24/20 A3000 RMK AO2 SLP150 T02440200=
200609021452 METAR KATL 021452Z 09006KT 5SM HZ OVC011 23/19 A3001 RMK AO2 SLP152 T02280194 51010=
200609021352 METAR KATL 021352Z COR 12006KT 5SM BR OVC009 22/19 A2999 RMK AO2 SLP148 T02170194=
200609021252 METAR KATL 021252Z 12008KT 7SM BKN009 OVC043 22/19 A2999 RMK AO2 SLP146 T02170194=
200609021152 METAR KATL 021152Z 09006KT 6SM BR BKN007 BKN046 21/19 A2997 RMK AO2 SLP141 70004 T02110194 10228 20211 53012=
200609021052 METAR KATL 021052Z 07006KT 8SM BKN007 BKN044 21/19 A2995 RMK AO2 CIG 006V011 SLP134 T02110194=
200609021019 SPECI KATL 021019Z 08006KT 8SM BKN007 BKN010 21/20 A2995 RMK AO2=
200609021019 SPECI KATL 021019Z 08006KT 8SM BKN007 BKN010 21/20 A2995 RMK AO2=
200609020952 METAR KATL 020952Z 07008KT 7SM OVC010 22/20 A2994 RMK AO2 CIG 008V012 SLP129 T02170200=
200609020852 METAR KATL 020852Z 04004KT 10SM BKN037 23/20 A2994 RMK AO2 SLP127 T02280200 53003=
200609020752 METAR KATL 020752Z 00000KT 8SM BKN037 BKN055 23/21 A2992 RMK AO2 SLP122 T02280206=
200609020652 METAR KATL 020652Z 00000KT 9SM SCT180 23/20 A2992 RMK AO2 SLP121 T02280200=
200609020552 METAR KATL 020552Z 16004KT 9SM BKN180 23/21 A2993 RMK AO2 SLP125 T02280206 10261 20228 50001=
200609020452 METAR KATL 020452Z 16003KT 10SM FEW120 23/21 A2993 RMK AO2 SLP125 T02330206 402940211=
200609020352 METAR KATL 020352Z 15003KT 10SM FEW120 24/21 A2993 RMK AO2 SLP126 T02390206=
200609020252 METAR KATL 020252Z 17003KT 10SM FEW150 24/21 A2993 RMK AO2 SLP125 T02440211 53014=
200609020152 METAR KATL 020152Z 18004KT 10SM FEW250 25/21 A2992 RMK AO2 SLP121 T02500211=
200609020052 METAR KATL 020052Z 17004KT 10SM FEW250 26/21 A2989 RMK AO2 SLP113 T02560211=
200609012352 METAR KATL 012352Z 00000KT 10SM FEW035 SCT250 26/21 A2988 RMK AO2 RAB13E51 SLP110 MDT CU SW P0004 60004 T02610206 10294 20256 50002=
200609012252 METAR KATL 012252Z 09006KT 10SM SCT035TCU BKN050 BKN065 28/19 A2989 RMK AO2 SLP111 TCU OHD-SW AND NW MDT CU NE AND S T02780194=
200609012152 METAR KATL 012152Z 00000KT 8SM SCT035TCU SCT049 BKN055 29/19 A2988 RMK AO2 SLP107 TCU OHD-NW AND DSNT N T02890194=
200609012052 METAR KATL 012052Z VRB03KT 8SM SCT035TCU SCT048 28/19 A2988 RMK AO2 SLP107 TCU OHD-NW AND DSNT NW T02830194 56016=
200609011952 METAR KATL 011952Z VRB05KT 9SM SCT030 SCT090 28/20 A2989 RMK AO2 SLP111 TCU DSNT W T02830200=
200609011852 METAR KATL 011852Z VRB03KT 8SM SCT028TCU BKN048 BKN055 28/20 A2991 RMK AO2 SLP119 TCU OHD-NW T02780200=
200609011752 METAR KATL 011752Z COR 18004KT 9SM SCT022TCU BKN035 BKN055 26/20 A2993 RMK AO2 SLP125 TCU OHD T02610200 10267 20217 58009=
200609011652 METAR KATL 011652Z 17004KT 9SM SCT018 BKN023 BKN055 24/21 A2994 RMK AO2 SLP129 T02440206=
200609011626 SPECI KATL 011626Z 15004KT 9SM SCT020 BKN040 BKN055 24/21 A2995 RMK AO2=
200609011626 SPECI KATL 011626Z 15004KT 9SM SCT020 BKN040 BKN055 24/21 A2995 RMK AO2=
200609011600 SPECI KATL 011600Z 15004KT 10SM SCT013 BKN020 OVC040 24/20 A2996 RMK AO2=
200609011600 SPECI KATL 011600Z 15004KT 10SM SCT013 BKN020 OVC040 24/20 A2996 RMK AO2=
200609011552 METAR KATL 011552Z 16004KT 8SM BKN013 BKN020 OVC038 24/21 A2996 RMK AO2 SLP135 BINOVC OHD T02390206=
200609011452 METAR KATL 011452Z 09004KT 8SM OVC011 23/20 A2995 RMK AO2 SLP135 T02280200 50006=
200609011352 METAR KATL 011352Z 09006KT 3SM OVC011 23/20 A2995 RMK AO2 SFC VIS 8 SLP134 T02280200=
200609011311 SPECI KATL 011311Z 09005KT 3SM BKN011 BKN150 22/20 A2995 RMK AO2 SFC VIS 8=
200609011311 SPECI KATL 011311Z 09005KT 3SM BKN011 BKN150 22/20 A2995 RMK AO2 SFC VIS 8=
200609011252 METAR KATL 011252Z 11006KT 3SM BKN008 BKN120 BKN250 22/20 A2995 RMK AO2 SFC VIS 10 SLP131 T02220200=
