##########################################################
# Query made at 04/19/2024 22:57:29 UTC
# Time interval: from 08/01/2006 12:00  to 08/31/2006 12:59  UTC
##########################################################

##########################################################
# KATL, Atlanta, Hartsfield - Jackson Atlanta International Airport (United States)
# WMO index: 72219. WIGOS ID: 0-20000-0-72219
# Latitude 33-38-59N. Longitude 084-25-00W. Altitude 312 m.
##########################################################

200608311252 METAR KATL 311252Z 05008KT 5SM BR OVC006 22/22 A2989 RMK AO2 SLP110 T02220217 PNO $=
200608311155 SPECI KATL 311155Z 05006KT 6SM BR BKN008 OVC018 22/21 A2987 RMK AO2 BINOVC PNO $=
200608311155 METAR KATL 311155Z COR 05006KT 6SM BR BKN008 OVC018 22/21 A2987 RMK AO2 SLP098 BINOVC 60065 70315 T02170211 10222 20211 53014 PNO $=
200608311154 SPECI KATL 311154Z BR A2987 RMK AO2 RVRNO PNO $=
200608311154 SPECI KATL 311154Z BR A2987 RMK AO2 RVRNO PNO $=
200608311052 METAR KATL 311052Z 03006KT 7SM FEW003 OVC007 22/21 A2984 RMK AO2 SLP094 BINOVC T02170211 PNO $=
200608311025 SPECI KATL 311025Z 05005KT 10SM BKN004 BKN150 BKN250 22/21 A2984 RMK AO2 PNO $=
200608311025 SPECI KATL 311025Z 05005KT 10SM BKN004 BKN150 BKN250 22/21 A2984 RMK AO2 PNO $=
200608311006 SPECI KATL 311006Z 06005KT 10SM FEW004 BKN150 BKN250 22/21 A2983 RMK AO2 PNO $=
200608311006 SPECI KATL 311006Z 06005KT 10SM FEW004 BKN150 BKN250 22/21 A2983 RMK AO2 PNO $=
200608310952 METAR KATL 310952Z 09004KT 10SM FEW004 BKN150 BKN250 22/21 A2984 RMK AO2 PNO SLP088 T02170211 $=
200608310913 SPECI KATL 310913Z 09005KT 10SM FEW075 SCT110 BKN250 22/22 A2983 RMK AO2 PNO $=
200608310913 SPECI KATL 310913Z 09005KT 10SM FEW075 SCT110 BKN250 22/22 A2983 RMK AO2 PNO $=
200608310852 SPECI KATL 310852Z 09004KT 10SM FEW075 SCT110 BKN250 22/22 A2983 RMK AO2 PNO $=
200608310852 METAR KATL 310852Z COR 09004KT 10SM FEW075 SCT110 BKN250 22/22 A2983 RMK AO2 SLP090 60065 T02220217 $=
200608310752 METAR KATL 310752Z 09005KT 8SM FEW006 SCT075 BKN100 OVC200 22/22 A2984 RMK AO2 TSE44RAE51 SLP093 TS MOV N P0009 T02220217 $=
200608310744 SPECI KATL 310744Z VRB05KT 8SM -RA FEW005 SCT024 BKN075 OVC140 22/22 A2984 RMK AO2 TSE44 TS MOV N P0009 $=
200608310744 SPECI KATL 310744Z VRB05KT 8SM -RA FEW005 SCT024 BKN075 OVC140 22/22 A2984 RMK AO2 TSE44 TS MOV N P0009 $=
200608310716 SPECI KATL 310716Z 09007KT 5SM -TSRA BR FEW005 BKN015 OVC045CB 22/22 A2985 RMK AO2 OCNL LTGICCG TS OHD-ALQDS MOV N P0009 $=
200608310716 SPECI KATL 310716Z 09007KT 5SM -TSRA BR FEW005 BKN015 OVC045CB 22/22 A2985 RMK AO2 OCNL LTGICCG TS OHD-ALQDS MOV N P0009 $=
200608310652 METAR KATL 310652Z 09005KT 4SM -TSRA BR FEW003 SCT012 BKN050CB OVC150 22/22 A2986 RMK AO2 SLP101 OCNL LTGICCG TS OHD-ALQDS MOV N P0056 T02220222 $=
200608310615 SPECI KATL 310615Z 10006KT 4SM TSRA BR FEW005 BKN020CB OVC050 22/21 A2986 RMK AO2 FRQ LTGICCGCA TS OHD-ALQDS MOV N P0034=
200608310615 SPECI KATL 310615Z 10006KT 4SM TSRA BR FEW005 BKN020CB OVC050 22/21 A2986 RMK AO2 FRQ LTGICCGCA TS OHD-ALQDS MOV N P0034=
200608310604 SPECI KATL 310604Z 07008KT 2SM +TSRA BR SCT005 BKN018CB OVC080 22/21 A2987 RMK AO2 TWR VIS 4 CONS LTGICCGCA TS OHD-ALQDS MOV N P0014=
200608310604 SPECI KATL 310604Z 07008KT 2SM +TSRA BR SCT005 BKN018CB OVC080 22/21 A2987 RMK AO2 TWR VIS 4 CONS LTGICCGCA TS OHD-ALQDS MOV N P0014=
200608310552 METAR KATL 310552Z 00000KT 3SM +TSRA BR SCT005 BKN020CB OVC080 22/22 A2987 RMK AO2 TWR VIS 4 SLP105 CONS LTGICCG TS OHD-ALQDS MOV NE P0200 60250 T02170217 10294 20211 53005=
200608310543 SPECI KATL 310543Z 16003KT 1SM +TSRA BR OVC015CB 22/22 A2987 RMK AO2 SFC VIS 1 3/4 CONS LTGICCG TS OHD-ALQDS MOV NE P0193=
200608310543 SPECI KATL 310543Z 16003KT 1SM +TSRA BR OVC015CB 22/22 A2987 RMK AO2 SFC VIS 1 3/4 CONS LTGICCG TS OHD-ALQDS MOV NE P0193=
200608310515 SPECI KATL 310515Z 10010KT 3/4SM +TSRA BR OVC022CB 22/22 A2988 RMK AO2 TWR VIS 1 PRESRR FRQ LTGICCG TS OHD-ALQDS MOV NE P0050 RVRNO=
200608310515 SPECI KATL 310515Z 10010KT 3/4SM +TSRA BR OVC022CB 22/22 A2988 RMK AO2 TWR VIS 1 PRESRR FRQ LTGICCG TS OHD-ALQDS MOV NE P0050 RVRNO=
200608310452 METAR KATL 310452Z 10010KT 1 1/2SM +TSRA BR BKN022 OVC035CB 23/22 A2986 RMK AO2 TWR VIS 2 TSB18RAB17 SLP100 FRQ LTGICCG TS OHD-ALQDS MOV NE P0050 T02330222 403110222 $=
200608310432 SPECI KATL 310432Z 15010KT 1 1/2SM +TSRA BR BKN020 BKN035CB OVC070 24/23 A2985 RMK AO2 TSB18RAB17 FRQ LTGICCG TS OHD-NE MOV N P0014 $=
200608310432 SPECI KATL 310432Z 15010KT 1 1/2SM +TSRA BR BKN020 BKN035CB OVC070 24/23 A2985 RMK AO2 TSB18RAB17 FRQ LTGICCG TS OHD-NE MOV N P0014 $=
200608310430 SPECI KATL 310430Z 14010KT 2 1/2SM +TSRA BR BKN020 BKN035CB OVC070 25/23 A2985 RMK AO2 TSB18RAB17 FRQ LTGICCG TS OHD-NE MOV N P0014=
200608310430 SPECI KATL 310430Z 14010KT 2 1/2SM +TSRA BR BKN020 BKN035CB OVC070 25/23 A2985 RMK AO2 TSB18RAB17 FRQ LTGICCG TS OHD-NE MOV N P0014=
200608310419 SPECI KATL 310419Z VRB04KT 7SM -TSRA SCT020 BKN035CB OVC070 26/22 A2985 RMK AO2 TSB18RAB17 OCNL LTGIC TS OHD-N MOV N P0000=
200608310419 SPECI KATL 310419Z VRB04KT 7SM -TSRA SCT020 BKN035CB OVC070 26/22 A2985 RMK AO2 TSB18RAB17 OCNL LTGIC TS OHD-N MOV N P0000=
200608310352 METAR KATL 310352Z 27004KT 10SM FEW030 BKN055 BKN070 OVC200 26/23 A2986 RMK AO2 SLP102 T02560228=
200608310252 METAR KATL 310252Z VRB05KT 10SM SCT090 BKN120 OVC200 26/22 A2985 RMK AO2 SLP098 FRQ LTG DSNT E-SE AND W-NW T02610222 50013=
200608310152 METAR KATL 310152Z 16007KT 10SM SCT095 BKN110 OVC250 27/22 A2986 RMK AO2 SLP100 T02720222=
200608310052 METAR KATL 310052Z 18003KT 9SM FEW090 SCT150 BKN200 OVC250 28/21 A2982 RMK AO2 SLP088 T02830211=
200608302352 METAR KATL 302352Z 16004KT 9SM FEW040 SCT100 OVC180 29/19 A2982 RMK AO2 SLP085 T02940194 10311 20294 58000=
200608302252 METAR KATL 302252Z 32005KT 10SM FEW040 OVC180 30/19 A2984 RMK AO2 SLP092 T03000189=
200608302152 METAR KATL 302152Z 29006KT 9SM FEW040 BKN200 OVC250 30/21 A2982 RMK AO2 SLP087 T03000206=
200608302052 METAR KATL 302052Z 33008KT 9SM FEW040 SCT150 BKN180 BKN250 30/20 A2982 RMK AO2 SLP085 T03000200 56029=
200608301952 METAR KATL 301952Z 31006KT 8SM FEW040 SCT200 BKN250 31/21 A2985 RMK AO2 SLP097 CB DSNT NE-SE T03060206=
200608301852 METAR KATL 301852Z 29005KT 6SM HZ FEW040 SCT150 SCT250 30/21 A2987 RMK AO2 SLP103 T03000211=
200608301752 METAR KATL 301752Z VRB04KT 8SM FEW030 SCT250 29/22 A2991 RMK AO2 SLP114 T02940217 10294 20222 58008=
200608301652 METAR KATL 301652Z VRB04KT 3SM HZ FEW025 SCT250 28/22 A2991 RMK AO2 SFC VIS 4 SLP118 T02830222=
200608301552 METAR KATL 301552Z 32005KT 5SM HZ SCT016 SCT250 27/22 A2993 RMK AO2 SLP123 T02720217=
200608301516 SPECI KATL 301516Z 01005KT 6SM HZ SCT014 SCT250 27/22 A2993 RMK AO2=
200608301516 SPECI KATL 301516Z 01005KT 6SM HZ SCT014 SCT250 27/22 A2993 RMK AO2=
200608301452 METAR KATL 301452Z 01005KT 6SM HZ BKN014 BKN250 26/21 A2993 RMK AO2 SLP124 T02560211 51017=
200608301406 SPECI KATL 301406Z 00000KT 6SM HZ BKN011 BKN250 24/21 A2992 RMK AO2=
200608301406 SPECI KATL 301406Z 00000KT 6SM HZ BKN011 BKN250 24/21 A2992 RMK AO2=
200608301352 METAR KATL 301352Z 33007KT 6SM HZ BKN009 BKN011 BKN250 24/21 A2992 RMK AO2 SLP120 T02390211=
200608301321 SPECI KATL 301321Z 32005KT 8SM BR BKN006 BKN011 BKN250 23/22 A2990 RMK AO2=
200608301321 SPECI KATL 301321Z 32005KT 8SM BR BKN006 BKN011 BKN250 23/22 A2990 RMK AO2=
200608301252 METAR KATL 301252Z 31007KT 2SM BR OVC004 23/22 A2990 RMK AO2 SFC VIS 4 SLP115 BINOVC T02280217=
200608301226 SPECI KATL 301226Z 31008KT 2SM BR BKN003 BKN140 BKN250 23/22 A2989 RMK AO2 SFC VIS 4=
200608301226 SPECI KATL 301226Z 31008KT 2SM BR BKN003 BKN140 BKN250 23/22 A2989 RMK AO2 SFC VIS 4=
200608301212 SPECI KATL 301212Z 33007KT 1SM BR BKN003 BKN140 BKN250 23/22 A2988 RMK AO2 SFC VIS 2=
200608301212 SPECI KATL 301212Z 33007KT 1SM BR BKN003 BKN140 BKN250 23/22 A2988 RMK AO2 SFC VIS 2=
200608301152 METAR KATL 301152Z 32006KT 1/2SM BR BKN003 BKN140 BKN250 22/22 A2988 RMK AO2 SFC VIS 2 SLP107 VIS SW-NW 1/2 60015 70016 T02220217 10256 20222 55002=
200608301135 SPECI KATL 301135Z 30005KT 1/2SM BR BKN002 BKN140 BKN250 23/22 A2988 RMK AO2 SFC VIS 2 VIS SW-NW 1/2=
200608301135 SPECI KATL 301135Z 30005KT 1/2SM BR BKN002 BKN140 BKN250 23/22 A2988 RMK AO2 SFC VIS 2 VIS SW-NW 1/2=
200608301114 SPECI KATL 301114Z 30005KT 1 1/2SM BR OVC003 22/22 A2988 RMK AO2 SFC VIS 2 1/2=
200608301114 SPECI KATL 301114Z 30005KT 1 1/2SM BR OVC003 22/22 A2988 RMK AO2 SFC VIS 2 1/2=
200608301109 SPECI KATL 301109Z 29003KT 1 1/2SM BR OVC001 23/22 A2987 RMK AO2 SFC VIS 2 1/2=
200608301109 SPECI KATL 301109Z 29003KT 1 1/2SM BR OVC001 23/22 A2987 RMK AO2 SFC VIS 2 1/2=
200608301107 SPECI KATL 301107Z 30003KT 1SM BR OVC003 23/22 A2988 RMK AO2 SFC VIS 2 1/2=
200608301107 SPECI KATL 301107Z 30003KT 1SM BR OVC003 23/22 A2988 RMK AO2 SFC VIS 2 1/2=
200608301052 METAR KATL 301052Z 29004KT 1/2SM BR OVC003 23/22 A2987 RMK AO2 SFC VIS 4 SLP105 TWRINC T02280217=
200608301040 SPECI KATL 301040Z 29006KT 2SM BR OVC003 23/22 A2988 RMK AO2 SFC VIS 5 TWRINC=
200608301040 SPECI KATL 301040Z 29006KT 2SM BR OVC003 23/22 A2988 RMK AO2 SFC VIS 5 TWRINC=
200608301021 SPECI KATL 301021Z 28005KT 5SM BR SCT005 BKN120 OVC200 22/22 A2987 RMK AO2=
200608301021 SPECI KATL 301021Z 28005KT 5SM BR SCT005 BKN120 OVC200 22/22 A2987 RMK AO2=
200608300952 METAR KATL 300952Z 20006KT 5SM BR OVC005 23/22 A2988 RMK AO2 RAE42 SLP107 P0003 T02280217=
200608300947 SPECI KATL 300947Z 19007KT 6SM BR BKN004 BKN045 OVC120 23/22 A2988 RMK AO2 RAE42 P0003=
200608300947 SPECI KATL 300947Z 19007KT 6SM BR BKN004 BKN045 OVC120 23/22 A2988 RMK AO2 RAE42 P0003=
200608300933 SPECI KATL 300933Z 18004KT 7SM -RA SCT004 BKN044 BKN120 OVC200 23/22 A2988 RMK AO2 P0003=
200608300933 SPECI KATL 300933Z 18004KT 7SM -RA SCT004 BKN044 BKN120 OVC200 23/22 A2988 RMK AO2 P0003=
200608300852 METAR KATL 300852Z 25005KT 6SM -RA BR FEW065 SCT120 OVC200 23/22 A2989 RMK AO2 RAB30 SLP111 P0000 60012 T02330222 50004=
200608300752 METAR KATL 300752Z 00000KT 9SM FEW005 SCT100 BKN150 BKN250 23/22 A2990 RMK AO2 TSE06 SLP112 TS MOV NE LTG DSNT NE AND DSNT SW CB DSNT NE AND DSNT SW T02330217=
200608300707 SPECI KATL 300707Z 29006KT 8SM FEW008 SCT065 SCT110 BKN250 23/22 A2989 RMK AO2 TSE06 TS MOV NE LTG DSNT N-NE AND DSNT SW CB DSNT NE AND DSNT SW=
200608300707 SPECI KATL 300707Z 29006KT 8SM FEW008 SCT065 SCT110 BKN250 23/22 A2989 RMK AO2 TSE06 TS MOV NE LTG DSNT N-NE AND DSNT SW CB DSNT NE AND DSNT SW=
200608300652 METAR KATL 300652Z 30009KT 10SM TS FEW010 SCT032CB SCT100 BKN250 23/22 A2989 RMK AO2 WSHFT 0616 RAB16E47 SLP111 CONS LTGICCGCA TS VC N-NE MOV NE P0012 T02280217=
200608300636 SPECI KATL 300636Z 31012KT 6SM -TSRA BR FEW018 BKN030CB BKN065 OVC140 23/22 A2989 RMK AO2 WSHFT 0616 RAB16 CONS LTGICCG TS OHD-NW-N MOV NE P0011=
200608300636 SPECI KATL 300636Z 31012KT 6SM -TSRA BR FEW018 BKN030CB BKN065 OVC140 23/22 A2989 RMK AO2 WSHFT 0616 RAB16 CONS LTGICCG TS OHD-NW-N MOV NE P0011=
200608300552 METAR KATL 300552Z 20005KT 9SM TS SCT030CB SCT065 BKN100 OVC200 26/23 A2988 RMK AO2 TSB48 SLP105 CONS LTGICCG TS VC SW-W-NW MOV NE T02560228 10283 20256 55008=
200608300549 SPECI KATL 300549Z 20005KT 10SM TS SCT030CB SCT065 BKN100 OVC200 26/23 A2988 RMK AO2 TSB48 CONS LTGICCG TS VC SW-W-NW MOV NE=
200608300549 SPECI KATL 300549Z 20005KT 10SM TS SCT030CB SCT065 BKN100 OVC200 26/23 A2988 RMK AO2 TSB48 CONS LTGICCG TS VC SW-W-NW MOV NE=
200608300452 METAR KATL 300452Z 21004KT 10SM FEW150 BKN200 OVC250 26/22 A2989 RMK AO2 SLP109 FRQ LTG DSNT SW-NW T02610222 403220239=
200608300352 METAR KATL 300352Z 19003KT 10SM FEW045 BKN200 OVC250 27/22 A2990 RMK AO2 SLP114 T02670222=
200608300252 METAR KATL 300252Z 21006KT 10SM FEW150 BKN200 OVC250 27/22 A2989 RMK AO2 SLP110 T02670222 53011=
200608300152 METAR KATL 300152Z 20007KT 10SM FEW150 BKN200 OVC250 27/22 A2988 RMK AO2 SLP106 T02720222=
200608300052 METAR KATL 300052Z 19005KT 10SM SCT150 BKN200 BKN250 28/22 A2986 RMK AO2 SLP100 T02780217=
200608292352 METAR KATL 292352Z 20007KT 10SM FEW100 BKN200 BKN250 28/22 A2986 RMK AO2 SLP100 CBMAM DSNT S TCU DSNT W AND N 60001 T02830222 10322 20278 50001=
200608292252 METAR KATL 292252Z 15008KT 10SM FEW045TCU SCT070 BKN200 OVC250 31/23 A2987 RMK AO2 SLP102 TCU OHD-NE AND SE T03060233=
200608292152 METAR KATL 292152Z 21008KT 10SM SCT045TCU SCT065 BKN200 32/22 A2987 RMK AO2 SLP101 TCU OHD-SW AND DSNT N-NE T03170222=
200608292052 METAR KATL 292052Z 24006KT 10SM FEW040TCU SCT050 SCT085 BKN150 BKN250 31/22 A2986 RMK AO2 SLP099 CB DSNT NE-S TCU SW-N 60001 T03110222 56021=
200608291952 METAR KATL 291952Z VRB04KT 10SM FEW030 SCT075 SCT150 SCT250 30/22 A2988 RMK AO2 TSE19RAE01 SLP105 LTG DSNT E-S CB DSNT NE-S MOV ENE TCU DSNT NW P0000 T03000222=
200608291919 SPECI KATL 291919Z 17006KT 10SM FEW025 SCT075 BKN150 BKN250 29/23 A2990 RMK AO2 TSE19RAE01 LTG DSNT NE-SE TS MOV NE CB DSNT NE-SE AND DSNT SW MOV NE TCU DSNT NW SHRA DSNT NE-SE P0000=
200608291919 SPECI KATL 291919Z 17006KT 10SM FEW025 SCT075 BKN150 BKN250 29/23 A2990 RMK AO2 TSE19RAE01 LTG DSNT NE-SE TS MOV NE CB DSNT NE-SE AND DSNT SW MOV NE TCU DSNT NW SHRA DSNT NE-SE P0000=
200608291902 SPECI KATL 291902Z 18006KT 10SM TS FEW025CB SCT070 BKN090 BKN250 29/23 A2991 RMK AO2 RAE01 FRQ LTGICCG TS SE MOV NE CB SE MOV NE TCU DSNT NW P0000=
200608291902 SPECI KATL 291902Z 18006KT 10SM TS FEW025CB SCT070 BKN090 BKN250 29/23 A2991 RMK AO2 RAE01 FRQ LTGICCG TS SE MOV NE CB SE MOV NE TCU DSNT NW P0000=
200608291852 METAR KATL 291852Z 23005KT 9SM -TSRA SCT023CB BKN040 BKN070 BKN250 28/23 A2990 RMK AO2 TSB42RAB39 SLP112 VIS LWR E-S SHRA OCNL LTGICCG TS VC E-S MOV NE P0001 T02830233=
200608291842 SPECI KATL 291842Z 26007KT 9SM -TSRA FEW025CB SCT047 BKN070 BKN250 29/22 A2991 RMK AO2 TSB42RAB39 FRQ LTGICCG TS VC S MOV NE P0000=
200608291842 SPECI KATL 291842Z 26007KT 9SM -TSRA FEW025CB SCT047 BKN070 BKN250 29/22 A2991 RMK AO2 TSB42RAB39 FRQ LTGICCG TS VC S MOV NE P0000=
200608291752 METAR KATL 291752Z VRB06KT 10SM FEW040 SCT090 BKN250 32/22 A2992 RMK AO2 SLP120 CB DSNT SE AND DSNT SW MOV NE TCU DSNT NW T03170217 10317 20250 58010=
200608291652 METAR KATL 291652Z VRB03KT 10SM BKN040CB BKN090 BKN250 30/21 A2994 RMK AO2 SLP127 CB VC SE-S MOV NE SHRA VC SE-S T03000211=
200608291552 METAR KATL 291552Z 26007KT 10SM FEW035 SCT050 SCT250 31/23 A2996 RMK AO2 SLP132 TCU DSNT S T03060228=
200608291452 METAR KATL 291452Z 32007KT 10SM FEW030 SCT150 SCT250 29/22 A2995 RMK AO2 SLP130 T02940222 53004=
200608291352 METAR KATL 291352Z 26004KT 10SM FEW250 28/22 A2994 RMK AO2 SLP128 T02830222=
200608291252 METAR KATL 291252Z 27006KT 9SM FEW070 SCT250 27/23 A2994 RMK AO2 SLP128 T02670228=
200608291152 METAR KATL 291152Z 24004KT 7SM FEW070 SCT250 25/22 A2994 RMK AO2 SLP127 70006 T02500222 10250 20239 53005 $=
200608291052 METAR KATL 291052Z 23005KT 8SM SCT070 SCT250 24/22 A2993 RMK AO2 SLP123 ACC E-SE AND SW T02390222 $=
200608290952 METAR KATL 290952Z 22004KT 8SM FEW065 SCT250 24/22 A2993 RMK AO2 SLP124 T02390222 $=
200608290852 METAR KATL 290852Z 23003KT 10SM FEW080 SCT250 24/22 A2992 RMK AO2 SLP121 T02440222 57007 $=
200608290752 METAR KATL 290752Z 24004KT 10SM FEW085 SCT250 24/22 A2993 RMK AO2 SLP123 T02440222 $=
200608290652 METAR KATL 290652Z 24005KT 10SM FEW070 SCT085 BKN250 25/22 A2994 RMK AO2 SLP126 T02500222 $=
200608290552 METAR KATL 290552Z 21004KT 10SM SCT080 BKN150 BKN250 25/23 A2995 RMK AO2 SLP128 T02500228 10267 20250 58001 $=
200608290452 METAR KATL 290452Z 21003KT 10SM BKN085 BKN150 25/23 A2996 RMK AO2 SLP132 T02500228 403220233 $=
200608290352 METAR KATL 290352Z 00000KT 10SM FEW150 26/23 A2996 RMK AO2 SLP134 T02560228 $=
200608290252 METAR KATL 290252Z 16003KT 10SM FEW250 26/23 A2995 RMK AO2 SLP130 T02560228 51005 $=
200608290152 METAR KATL 290152Z 00000KT 10SM FEW150 SCT250 26/23 A2995 RMK AO2 SLP130 T02560228 $=
200608290052 METAR KATL 290052Z 13005KT 10SM SCT120 BKN150 BKN250 26/22 A2995 RMK AO2 SLP130 T02610222 $=
200608282352 METAR KATL 282352Z 11004KT 10SM FEW100 BKN140 BKN250 27/23 A2993 RMK AO2 SLP126 60005 T02670228 10322 20250 58003 $=
200608282252 METAR KATL 282252Z 00000KT 10SM FEW045 SCT100 BKN150 BKN250 26/23 A2994 RMK AO2 WSHFT 2139 TSE52RAE42 SLP127 TS MOV NE P0002 T02610228 $=
200608282203 SPECI KATL 282203Z 30010KT 5SM -TSRA FEW025 BKN045CB BKN080 OVC150 26/23 A2994 RMK AO2 WSHFT 2139 OCNL LTGCG TS NE-SE-S MOV NE P0002 $=
200608282203 SPECI KATL 282203Z 30010KT 5SM -TSRA FEW025 BKN045CB BKN080 OVC150 26/23 A2994 RMK AO2 WSHFT 2139 OCNL LTGCG TS NE-SE-S MOV NE P0002 $=
200608282159 SPECI KATL 282159Z 30011KT 2SM +TSRA BR FEW025 BKN045CB OVC080 25/23 A2994 RMK AO2 WSHFT 2139 OCNL LTGCG TS NE-OHD-S MOV NE P0002 $=
200608282159 SPECI KATL 282159Z 30011KT 2SM +TSRA BR FEW025 BKN045CB OVC080 25/23 A2994 RMK AO2 WSHFT 2139 OCNL LTGCG TS NE-OHD-S MOV NE P0002 $=
200608282154 SPECI KATL 282154Z 31015KT 1SM +TSRA BR FEW025 BKN045CB OVC080 25/23 A2994 RMK AO2 WSHFT 2139 OCNL LTGCG TS NE-OHD-S MOV NE P0000 RVRNO $=
200608282154 SPECI KATL 282154Z 31015KT 1SM +TSRA BR FEW025 BKN045CB OVC080 25/23 A2994 RMK AO2 WSHFT 2139 OCNL LTGCG TS NE-OHD-S MOV NE P0000 RVRNO $=
200608282152 METAR KATL 282152Z 30015KT 1SM +TSRA BR FEW025 BKN045CB OVC080 25/23 A2994 RMK AO2 WSHFT 2134 TSB27RAB44 SLP129 OCNL LTGCG TS NE-OHD-S MOV NE TCU NE P0003 T02500228 RVRNO $=
200608282150 SPECI KATL 282150Z 30016KT 2SM +TSRA BR FEW025 BKN045CB BKN080 BKN200 25/23 A2994 RMK AO2 WSHFT 2134 TSB27RAB44 OCNL LTGCG TS NE-OHD-S MOV NE TCU NE P0002 $=
200608282150 SPECI KATL 282150Z 30016KT 2SM +TSRA BR FEW025 BKN045CB BKN080 BKN200 25/23 A2994 RMK AO2 WSHFT 2134 TSB27RAB44 OCNL LTGCG TS NE-OHD-S MOV NE TCU NE P0002 $=
200608282127 SPECI KATL 282127Z 19008KT 10SM TS SCT050CB BKN080 BKN250 32/21 A2993 RMK AO2 TSB27 OCNL LTGCG TS VC NW MOV NE MDT CU ALQDS=
200608282127 SPECI KATL 282127Z 19008KT 10SM TS SCT050CB BKN080 BKN250 32/21 A2993 RMK AO2 TSB27 OCNL LTGCG TS VC NW MOV NE MDT CU ALQDS=
200608282052 METAR KATL 282052Z 20008KT 10SM FEW050 BKN080 BKN250 32/21 A2993 RMK AO2 SLP123 CB DSNT W-N T03220211 58020=
200608281952 METAR KATL 281952Z 16008KT 10SM FEW040 SCT070 BKN110 BKN250 31/22 A2995 RMK AO2 SLP131 MDT CU NW T03110217=
200608281852 METAR KATL 281852Z 17007KT 10SM FEW040TCU BKN070 BKN250 31/22 A2997 RMK AO2 SLP138 TCU E AND S AND W T03060217=
200608281752 METAR KATL 281752Z VRB05KT 10SM FEW030TCU SCT050 BKN065 BKN250 31/23 A2999 RMK AO2 RAB29E42 SLP144 TCU DSNT N AND E-NW P0001 60001 T03060228 10306 20233 58016=
200608281737 SPECI KATL 281737Z 27005KT 6SM -RA FEW025TCU BKN037 BKN060 BKN250 28/23 A2999 RMK AO2 RAB29 TCU S-SW-W-NW P0001=
200608281737 SPECI KATL 281737Z 27005KT 6SM -RA FEW025TCU BKN037 BKN060 BKN250 28/23 A2999 RMK AO2 RAB29 TCU S-SW-W-NW P0001=
200608281652 METAR KATL 281652Z 25006KT 9SM SCT035TCU BKN050 BKN250 30/22 A3001 RMK AO2 SLP151 TCU E AND S-SW MDT CU ALQDS T03000217=
200608281552 METAR KATL 281552Z 19007KT 10SM FEW030 SCT040 SCT050 SCT250 29/21 A3003 RMK AO2 SLP157 T02940211=
200608281452 METAR KATL 281452Z 17009KT 10SM FEW025 SCT045 SCT070 SCT250 28/21 A3004 RMK AO2 SLP160 T02830211 50005=
200608281352 METAR KATL 281352Z 20006KT 10SM SCT045 SCT060 27/21 A3004 RMK AO2 SLP162 T02670211=
200608281252 METAR KATL 281252Z 18005KT 8SM FEW050 SCT250 24/21 A3004 RMK AO2 SLP162 T02440206=
200608281152 METAR KATL 281152Z 15005KT 7SM FEW050 SCT250 23/19 A3002 RMK AO2 SLP156 T02330194 10250 20233 53001=
200608281052 METAR KATL 281052Z 15003KT 8SM SCT046 BKN250 23/19 A3002 RMK AO2 SLP154 T02330189 $=
200608280952 METAR KATL 280952Z 11003KT 10SM FEW048 SCT250 24/18 A3002 RMK AO2 SLP154 T02390183 $=
200608280852 METAR KATL 280852Z 09003KT 8SM BKN048 BKN120 BKN250 24/19 A3002 RMK AO2 SLP155 T02390189 56007 $=
200608280752 METAR KATL 280752Z 13003KT 9SM BKN048 BKN120 BKN250 25/18 A3002 RMK AO2 SLP155 T02500183 $=
200608280652 METAR KATL 280652Z 00000KT 8SM SCT050 BKN120 BKN250 24/18 A3003 RMK AO2 SLP158 T02440183 $=
200608280552 METAR KATL 280552Z 13004KT 10SM FEW120 SCT250 25/18 A3004 RMK AO2 SLP162 T02500183 10294 20250 50000 $=
200608280452 METAR KATL 280452Z 15005KT 8SM FEW120 SCT250 26/18 A3005 RMK AO2 SLP164 T02560183 403110217 $=
200608280352 METAR KATL 280352Z VRB05KT 10SM BKN120 BKN250 26/19 A3004 RMK AO2 SLP161 T02610194 $=
200608280252 METAR KATL 280252Z 13004KT 10SM FEW150 SCT250 27/19 A3004 RMK AO2 SLP162 T02670189 51014 $=
200608280152 METAR KATL 280152Z 14003KT 10SM FEW150 27/19 A3004 RMK AO2 SLP160 T02720189 $=
200608280052 METAR KATL 280052Z 10005KT 10SM FEW250 28/18 A3002 RMK AO2 SLP155 T02830183 $=
200608272352 METAR KATL 272352Z 10005KT 10SM FEW150 SCT250 28/18 A3000 RMK AO2 SLP149 T02830178 10311 20283 56007 $=
200608272252 METAR KATL 272252Z 10006KT 10SM FEW250 30/18 A3001 RMK AO2 SLP152 T03000178 $=
200608272152 METAR KATL 272152Z 10008KT 10SM FEW050 31/17 A3001 RMK AO2 SLP150 T03060172 $=
200608272052 METAR KATL 272052Z 11007KT 9SM FEW050 SCT150 31/18 A3002 RMK AO2 SLP155 T03060178 58021 $=
200608271952 METAR KATL 271952Z 10008KT 9SM SCT044 29/19 A3004 RMK AO2 SLP162 T02940189 $=
200608271852 METAR KATL 271852Z 12008KT 080V150 9SM SCT040 31/21 A3007 RMK AO2 SLP169 T03110206 $=
200608271752 METAR KATL 271752Z 13007KT 9SM BKN035 29/20 A3009 RMK AO2 SLP177 MDT CU ALQDS T02940200 10294 20228 58012 $=
200608271652 METAR KATL 271652Z VRB05KT 9SM BKN030 29/20 A3011 RMK AO2 SLP184 MDT CU ALQDS T02890200 $=
200608271552 METAR KATL 271552Z 10006KT 8SM FEW016 SCT025 28/22 A3012 RMK AO2 SLP188 T02780217 $=
200608271529 SPECI KATL 271529Z 10008KT 8SM SCT016 BKN150 27/22 A3012 RMK AO2 $=
200608271529 SPECI KATL 271529Z 10008KT 8SM SCT016 BKN150 27/22 A3012 RMK AO2 $=
200608271518 SPECI KATL 271518Z 14005KT 7SM SCT014 BKN020 BKN150 26/22 A3012 RMK AO2 $=
200608271518 SPECI KATL 271518Z 14005KT 7SM SCT014 BKN020 BKN150 26/22 A3012 RMK AO2 $=
200608271452 METAR KATL 271452Z VRB05KT 8SM BKN012 BKN025 BKN034 26/22 A3012 RMK AO2 SLP189 BKN012 V SCT T02560217 51010 $=
200608271402 SPECI KATL 271402Z VRB04KT 7SM BKN011 BKN036 BKN039 25/22 A3012 RMK AO2 $=
200608271402 SPECI KATL 271402Z VRB04KT 7SM BKN011 BKN036 BKN039 25/22 A3012 RMK AO2 $=
200608271352 METAR KATL 271352Z 14005KT 7SM SCT010 BKN036 BKN039 24/22 A3012 RMK AO2 SLP188 T02440217 $=
200608271344 SPECI KATL 271344Z 14005KT 7SM BKN032 BKN039 BKN250 24/22 A3012 RMK AO2 $=
200608271344 SPECI KATL 271344Z 14005KT 7SM BKN032 BKN039 BKN250 24/22 A3012 RMK AO2 $=
200608271313 SPECI KATL 271313Z 13005KT 7SM BKN025 BKN030 BKN250 24/22 A3011 RMK AO2 $=
200608271313 SPECI KATL 271313Z 13005KT 7SM BKN025 BKN030 BKN250 24/22 A3011 RMK AO2 $=
200608271252 METAR KATL 271252Z 08004KT 6SM HZ SCT022 SCT250 24/22 A3011 RMK AO2 SLP185 T02440217 $=
200608271152 METAR KATL 271152Z 12004KT 6SM BR FEW250 23/21 A3009 RMK AO2 SLP178 T02280206 10250 20217 53012 $=
200608271052 METAR KATL 271052Z 08006KT 6SM BR CLR 22/20 A3007 RMK AO2 SLP172 T02170200 $=
200608270952 METAR KATL 270952Z 09007KT 8SM CLR 22/20 A3006 RMK AO2 SLP169 T02220200 $=
200608270852 METAR KATL 270852Z 08004KT 8SM CLR 22/19 A3005 RMK AO2 SLP166 T02220194 56001 $=
200608270752 METAR KATL 270752Z 11005KT 10SM CLR 24/19 A3006 RMK AO2 SLP166 T02390194 $=
200608270652 METAR KATL 270652Z 10005KT 10SM FEW250 24/19 A3005 RMK AO2 SLP166 T02390189 $=
200608270552 METAR KATL 270552Z 12005KT 10SM FEW250 25/19 A3006 RMK AO2 SLP167 T02500189 10289 20250 58006 $=
200608270452 METAR KATL 270452Z 12003KT 10SM FEW250 25/19 A3007 RMK AO2 SLP172 T02500189 403110228 $=
200608270352 METAR KATL 270352Z 11006KT 10SM SCT250 26/19 A3008 RMK AO2 SLP175 T02610189 $=
200608270252 METAR KATL 270252Z 11005KT 10SM FEW250 27/19 A3008 RMK AO2 SLP174 T02670189 53017 $=
200608270152 METAR KATL 270152Z 09007KT 10SM FEW250 27/19 A3006 RMK AO2 SLP168 T02720194 $=
200608270052 METAR KATL 270052Z 11007KT 10SM FEW250 28/19 A3004 RMK AO2 SLP160 T02830194 $=
200608262352 METAR KATL 262352Z 11006KT 10SM FEW045 SCT250 29/19 A3003 RMK AO2 SLP157 T02890194 10311 20289 $=
200608262252 METAR KATL 262252Z 10009KT 10SM FEW045 30/19 A3001 RMK AO2 SLP152 T03000189 $=
200608262152 METAR KATL 262152Z 15008KT 9SM FEW044 31/19 A3001 RMK AO2 SLP152 T03060194 $=
200608262122 SPECI KATL 262122Z 12007KT 9SM FEW044 30/19 A3002 RMK AO2 $=
200608262122 SPECI KATL 262122Z 12007KT 9SM FEW044 30/19 A3002 RMK AO2 $=
200608262052 METAR KATL 262052Z 09008KT 8SM SCT044 SCT055 31/20 A3002 RMK AO2 SLP156 TCU DSNT NE-E T03110200 56018=
200608261952 METAR KATL 261952Z 10008KT 8SM SCT041TCU SCT055 30/21 A3004 RMK AO2 SLP160 TCU OHD AND VC W AND DSNT SW T03000206=
200608261852 METAR KATL 261852Z 07008KT 8SM FEW038TCU SCT047 SCT055 31/21 A3006 RMK AO2 SLP168 TCU OHD T03060211=
200608261752 METAR KATL 261752Z 12008KT 8SM SCT034 29/21 A3008 RMK AO2 SLP174 MDT CU ALQDS T02940206 10294 20233 58005=
200608261652 METAR KATL 261652Z 11007KT 8SM SCT027 BKN030 29/21 A3010 RMK AO2 SLP181 MDT CU ALQDS T02890211=
200608261552 METAR KATL 261552Z 08005KT 8SM BKN022 BKN030 27/21 A3010 RMK AO2 SLP183 T02670211=
200608261452 METAR KATL 261452Z 10007KT 7SM BKN015 BKN020 26/21 A3009 RMK AO2 SLP180 T02610211 51009=
200608261352 METAR KATL 261352Z 10007KT 7SM BKN015 BKN070 25/21 A3009 RMK AO2 SLP180 T02500211=
200608261315 SPECI KATL 261315Z 11006KT 7SM BKN010 BKN065 24/21 A3008 RMK AO2=
200608261315 SPECI KATL 261315Z 11006KT 7SM BKN010 BKN065 24/21 A3008 RMK AO2=
200608261252 METAR KATL 261252Z 10006KT 6SM HZ BKN008 OVC048 24/22 A3008 RMK AO2 SLP175 BINOVC T02440217=
200608261152 METAR KATL 261152Z 11005KT 6SM BR OVC007 23/22 A3007 RMK AO2 SLP172 T02330217 10239 20228 51008=
200608261148 SPECI KATL 261148Z 12003KT 6SM BR OVC007 23/22 A3007 RMK AO2=
200608261148 SPECI KATL 261148Z 12003KT 6SM BR OVC007 23/22 A3007 RMK AO2=
200608261052 METAR KATL 261052Z 10006KT 9SM BKN012 BKN036 OVC065 23/21 A3005 RMK AO2 SLP165 T02330211=
200608261039 SPECI KATL 261039Z 12004KT 9SM BKN012 BKN038 OVC065 23/21 A3005 RMK AO2=
200608261039 SPECI KATL 261039Z 12004KT 9SM BKN012 BKN038 OVC065 23/21 A3005 RMK AO2=
200608260952 METAR KATL 260952Z 12005KT 10SM SCT038 BKN055 BKN250 24/21 A3004 RMK AO2 SLP162 T02390211=
200608260852 METAR KATL 260852Z 09005KT 10SM BKN048 BKN250 23/21 A3002 RMK AO2 SLP155 T02330211 53003=
200608260752 METAR KATL 260752Z 10004KT 8SM FEW250 23/21 A3002 RMK AO2 SLP153 T02330206=
200608260652 METAR KATL 260652Z 07007KT 10SM FEW250 23/21 A3000 RMK AO2 SLP149 T02330206=
200608260552 METAR KATL 260552Z 08006KT 10SM FEW250 23/21 A3001 RMK AO2 SLP153 T02330206 10278 20233 58008=
200608260452 METAR KATL 260452Z VRB03KT 10SM SCT250 24/21 A3003 RMK AO2 SLP157 T02440206 402940217=
200608260352 METAR KATL 260352Z 13004KT 10SM SCT250 25/20 A3003 RMK AO2 SLP160 T02500200=
200608260252 METAR KATL 260252Z 11004KT 10SM FEW250 26/20 A3004 RMK AO2 SLP161 T02560200 53014=
200608260152 METAR KATL 260152Z 10005KT 10SM FEW250 26/20 A3002 RMK AO2 SLP157 T02610200=
200608260052 METAR KATL 260052Z 13004KT 10SM SCT250 27/21 A3000 RMK AO2 SLP150 T02670206=
200608252352 METAR KATL 252352Z 10007KT 10SM BKN250 28/20 A3000 RMK AO2 SLP147 T02780200 10294 20272 53001=
200608252252 METAR KATL 252252Z 09007KT 10SM FEW040 SCT250 28/20 A3000 RMK AO2 SLP147 MDT CU VC W T02830200=
200608252152 METAR KATL 252152Z 09010KT 10SM FEW040 SCT250 29/20 A2999 RMK AO2 SLP146 MDT CU N-NE AND S-SW T02890200=
200608252052 METAR KATL 252052Z 00000KT 9SM SCT040TCU SCT060 28/20 A2999 RMK AO2 SLP146 TCU W AND NW MDT CU NE-SE T02830200 58008=
200608251952 METAR KATL 251952Z VRB03KT 9SM SCT040 BKN060 29/22 A3001 RMK AO2 SLP152 MDT CU N-SE AND NW T02940217=
200608251852 METAR KATL 251852Z VRB05KT 9SM BKN035 BKN055 29/22 A3001 RMK AO2 SLP153 T02890217=
200608251752 METAR KATL 251752Z 15004KT 8SM FEW020 BKN038 BKN250 27/22 A3002 RMK AO2 SLP156 60000 T02720217 10272 20228 58010=
200608251701 SPECI KATL 251701Z 13005KT 8SM FEW019 SCT024 BKN031 26/20 A3003 RMK AO2=
200608251701 SPECI KATL 251701Z 13005KT 8SM FEW019 SCT024 BKN031 26/20 A3003 RMK AO2=
200608251652 METAR KATL 251652Z 14005KT 8SM FEW019 BKN029 BKN080 26/20 A3004 RMK AO2 SLP162 T02560200=
200608251552 METAR KATL 251552Z 11007KT 8SM FEW010 BKN015 OVC022 24/22 A3005 RMK AO2 SLP167 BINOVC T02440217=
200608251452 METAR KATL 251452Z 10008KT 9SM OVC017 24/20 A3005 RMK AO2 SLP167 BINOVC 60000 T02390200 53005=
200608251413 SPECI KATL 251413Z 11006KT 10SM OVC017 24/20 A3004 RMK AO2 BINOVC=
200608251413 SPECI KATL 251413Z 11006KT 10SM OVC017 24/20 A3004 RMK AO2 BINOVC=
200608251352 METAR KATL 251352Z 11007KT 9SM BKN014 BKN035 24/20 A3004 RMK AO2 SLP162 T02390200=
200608251252 METAR KATL 251252Z 12005KT 8SM FEW010 OVC036 23/20 A3004 RMK AO2 DZB1156E1159 SLP162 BINOVC P0000 T02330200=
200608251156 SPECI KATL 251156Z 08006KT 6SM -DZ BR SCT010 OVC032 23/21 A3003 RMK AO2 DZB56 P0000=
200608251156 SPECI KATL 251156Z 08006KT 6SM -DZ BR SCT010 OVC032 23/21 A3003 RMK AO2 DZB56 P0000=
200608251152 METAR KATL 251152Z 10004KT 6SM BR BKN010 BKN032 BKN150 BKN250 23/21 A3003 RMK AO2 SLP160 60000 70008 T02280211 10228 20217 52006=
200608251052 METAR KATL 251052Z 08005KT 8SM OVC009 22/21 A3002 RMK AO2 CIG 007V011 SLP155 T02220206=
200608250952 METAR KATL 250952Z 08004KT 6SM BR OVC007 22/21 A3001 RMK AO2 CIG 006V009 SLP152 T02220206=
200608250852 METAR KATL 250852Z 00000KT 6SM BR BKN005 OVC010 22/21 A3000 RMK AO2 SLP148 60000 T02220206 53006=
200608250849 SPECI KATL 250849Z 00000KT 6SM BR BKN005 OVC010 22/21 A2999 RMK AO2=
200608250849 SPECI KATL 250849Z 00000KT 6SM BR BKN005 OVC010 22/21 A2999 RMK AO2=
200608250829 SPECI KATL 250829Z 00000KT 2SM BR OVC004 22/21 A2999 RMK AO2 SFC VIS 6 TWRINC=
200608250829 SPECI KATL 250829Z 00000KT 2SM BR OVC004 22/21 A2999 RMK AO2 SFC VIS 6 TWRINC=
200608250752 METAR KATL 250752Z 09006KT 1SM BR OVC004 22/21 A2998 RMK AO2 SFC VIS 6 DZE11B38E50 SLP141 TWRINC P0000 T02170206=
200608250733 SPECI KATL 250733Z 08005KT 1SM BR OVC004 22/21 A2998 RMK AO2 SFC VIS 6 DZE11 TWRINC P0000=
200608250733 SPECI KATL 250733Z 08005KT 1SM BR OVC004 22/21 A2998 RMK AO2 SFC VIS 6 DZE11 TWRINC P0000=
200608250724 SPECI KATL 250724Z 09007KT 8SM OVC006 22/21 A2998 RMK AO2 DZE11 P0000=
200608250724 SPECI KATL 250724Z 09007KT 8SM OVC006 22/21 A2998 RMK AO2 DZE11 P0000=
200608250705 SPECI KATL 250705Z 08008KT 8SM -DZ SCT006 OVC012 22/20 A2998 RMK AO2 P0000=
200608250705 SPECI KATL 250705Z 08008KT 8SM -DZ SCT006 OVC012 22/20 A2998 RMK AO2 P0000=
200608250659 SPECI KATL 250659Z 08008KT 6SM -DZ BR BKN008 OVC014 22/20 A2998 RMK AO2 CIG 004V010 P0000=
200608250659 SPECI KATL 250659Z 08008KT 6SM -DZ BR BKN008 OVC014 22/20 A2998 RMK AO2 CIG 004V010 P0000=
200608250652 METAR KATL 250652Z 07008KT 4SM -DZ BR SCT006 BKN014 OVC040 22/20 A2998 RMK AO2 DZB50 SLP142 P0000 T02170200=
200608250631 SPECI KATL 250631Z 08008KT 7SM BKN007 OVC013 22/20 A2998 RMK AO2=
200608250631 SPECI KATL 250631Z 08008KT 7SM BKN007 OVC013 22/20 A2998 RMK AO2=
200608250552 METAR KATL 250552Z 07008KT 9SM FEW008 OVC016 22/20 A2999 RMK AO2 SLP145 BINOVC T02170200 10267 20217 58002=
200608250452 METAR KATL 250452Z 11006KT 10SM OVC010 22/20 A3001 RMK AO2 SLP152 BINOVC T02220200 402830222=
200608250448 SPECI KATL 250448Z 11008KT 10SM BKN012 BKN250 22/20 A3000 RMK AO2 402830222=
200608250448 SPECI KATL 250448Z 11008KT 10SM BKN012 BKN250 22/20 A3000 RMK AO2 402830222=
200608250352 METAR KATL 250352Z 12007KT 9SM FEW150 SCT200 23/20 A3001 RMK AO2 SLP152 T02330200=
200608250252 METAR KATL 250252Z 09010KT 8SM FEW120 BKN150 OVC200 23/21 A3000 RMK AO2 SLP148 T02330206 51020=
200608250152 METAR KATL 250152Z 11009KT 9SM FEW025 BKN120 OVC150 26/21 A2999 RMK AO2 SLP146 T02560211=
200608250052 METAR KATL 250052Z 08009KT 9SM BKN120 OVC150 26/21 A2996 RMK AO2 SLP134 T02610211=
200608242352 METAR KATL 242352Z 11003KT 8SM FEW080 BKN100 OVC150 27/22 A2993 RMK AO2 SLP126 60002 T02670217 10283 20261 51005=
200608242252 METAR KATL 242252Z 09005KT 7SM BKN080 BKN100 OVC150 27/21 A2993 RMK AO2 SLP125 T02670211=
200608242152 METAR KATL 242152Z 05009KT 3SM HZ FEW070 SCT100 BKN150 BKN250 28/22 A2992 RMK AO2 SFC VIS 6 RAE06 SLP121 P0000 T02780217=
200608242110 SPECI KATL 242110Z 06007KT 360V080 6SM HZ FEW040 SCT100 BKN150 OVC250 28/23 A2992 RMK AO2 RAE06 CB DSNT SE-S P0000=
200608242110 SPECI KATL 242110Z 06007KT 360V080 6SM HZ FEW040 SCT100 BKN150 OVC250 28/23 A2992 RMK AO2 RAE06 CB DSNT SE-S P0000=
200608242052 METAR KATL 242052Z 06012KT 2 1/2SM -RA BR FEW020 SCT040 SCT070 BKN150 BKN250 26/24 A2992 RMK AO2 SFC VIS 4 TSB03E22 SLP121 TS DSIPT CB DSNT SE MOV S P0002 60002 T02610239 58016=
200608242025 SPECI KATL 242025Z VRB04KT 2 1/2SM -RA HZ FEW024 SCT040 SCT070 BKN150 BKN250 27/22 A2992 RMK AO2 SFC VIS 4 TSB03E22 TS DSIPT CB DSNT NE-S MOV SE P0002=
200608242025 SPECI KATL 242025Z VRB04KT 2 1/2SM -RA HZ FEW024 SCT040 SCT070 BKN150 BKN250 27/22 A2992 RMK AO2 SFC VIS 4 TSB03E22 TS DSIPT CB DSNT NE-S MOV SE P0002=
200608242016 SPECI KATL 242016Z 04009KT 2 1/2SM -TSRA HZ FEW020CB BKN026 BKN032 26/22 A2993 RMK AO2 SFC VIS 3 TSB03 OCNL LTGIC TS E MOV E CB E MOV E P0002=
200608242016 SPECI KATL 242016Z 04009KT 2 1/2SM -TSRA HZ FEW020CB BKN026 BKN032 26/22 A2993 RMK AO2 SFC VIS 3 TSB03 OCNL LTGIC TS E MOV E CB E MOV E P0002=
200608242004 SPECI KATL 242004Z 30005KT 2SM TSRA HZ BKN020CB BKN026 OVC032 26/22 A2994 RMK AO2 TWR VIS 2 1/2 TSB03 OCNL LTGIC TS OHD-NE-SW MOV STNRY CB OHD-NE-SW MOV STNRY P0002=
200608242004 SPECI KATL 242004Z 30005KT 2SM TSRA HZ BKN020CB BKN026 OVC032 26/22 A2994 RMK AO2 TWR VIS 2 1/2 TSB03 OCNL LTGIC TS OHD-NE-SW MOV STNRY CB OHD-NE-SW MOV STNRY P0002=
200608241952 METAR KATL 241952Z 35007KT 3SM -RA HZ FEW020CB SCT030 BKN055 BKN150 OVC250 27/22 A2994 RMK AO2 SFC VIS 4 RAB50 SLP130 CB VC NE AND VC SW MOV STNRY SHRA VC NE AND SW P0000 T02670222=
200608241932 SPECI KATL 241932Z 11005KT 3SM HZ FEW020 SCT050 BKN100 BKN150 OVC250 27/23 A2995 RMK AO2 SFC VIS 3 LTG DSNT NE CB DSNT DSNT NE MOV S SHRA VC SE AND VC SW AND DSNT N=
200608241932 SPECI KATL 241932Z 11005KT 3SM HZ FEW020 SCT050 BKN100 BKN150 OVC250 27/23 A2995 RMK AO2 SFC VIS 3 LTG DSNT NE CB DSNT DSNT NE MOV S SHRA VC SE AND VC SW AND DSNT N=
200608241921 SPECI KATL 241921Z 11005KT 3SM HZ FEW027 BKN040 BKN100 BKN150 OVC250 28/23 A2995 RMK AO2 SFC VIS 4 LTG DSNT N AND NE CB DSNT N MOV E DSNT NE MOV S AND DSNT NW STNRY=
200608241921 SPECI KATL 241921Z 11005KT 3SM HZ FEW027 BKN040 BKN100 BKN150 OVC250 28/23 A2995 RMK AO2 SFC VIS 4 LTG DSNT N AND NE CB DSNT N MOV E DSNT NE MOV S AND DSNT NW STNRY=
200608241857 SPECI KATL 241857Z 16006KT 3SM HZ FEW020 BKN030 BKN100 OVC150 27/22 A2996 RMK AO2 SFC VIS 4 LTG DSNT E AND W AND N CB DSNT E STNRY AND DSNT W MOV S AND DSNT N MOV E=
200608241857 SPECI KATL 241857Z 16006KT 3SM HZ FEW020 BKN030 BKN100 OVC150 27/22 A2996 RMK AO2 SFC VIS 4 LTG DSNT E AND W AND N CB DSNT E STNRY AND DSNT W MOV S AND DSNT N MOV E=
200608241852 METAR KATL 241852Z 16004KT 3SM HZ FEW025 SCT100 BKN150 OVC250 27/22 A2996 RMK AO2 SFC VIS 4 SLP134 LTG DSNT SE AND W AND N CB DSNT NE-SE AND W-N MOV SE SHRA DSNT NE-SE AND W-N T02720222=
200608241752 METAR KATL 241752Z 09006KT 3SM HZ FEW020 SCT100 BKN150 BKN250 28/22 A2997 RMK AO2 SFC VIS 4 RAE26 SLP137 CB DSNT SE-NW MOV S P0005 60006 T02780222 10278 20239 58007=
200608241719 SPECI KATL 241719Z 05005KT 2 1/2SM -RA HZ FEW010 SCT020 SCT100 OVC150 27/23 A2998 RMK AO2 SFC VIS 5 CB DSNT SE-NW MOV STNRY P0005=
200608241719 SPECI KATL 241719Z 05005KT 2 1/2SM -RA HZ FEW010 SCT020 SCT100 OVC150 27/23 A2998 RMK AO2 SFC VIS 5 CB DSNT SE-NW MOV STNRY P0005=
200608241657 SPECI KATL 241657Z 04008KT 2SM -RA BR FEW009 BKN020 OVC050 26/22 A2999 RMK AO2 SFC VIS 4 CB DSNT SE-NW MOV STNRY P0003=
200608241657 SPECI KATL 241657Z 04008KT 2SM -RA BR FEW009 BKN020 OVC050 26/22 A2999 RMK AO2 SFC VIS 4 CB DSNT SE-NW MOV STNRY P0003=
200608241652 METAR KATL 241652Z 36007KT 2SM -RA HZ BKN020CB BKN050 OVC250 26/23 A2999 RMK AO2 SFC VIS 3 RAB00 SLP145 CB OHD-NE AND DSNT SE-NW MOV STNRY P0001 T02610228=
200608241642 SPECI KATL 241642Z 35007KT 1 1/2SM RA HZ BKN022CB BKN047 OVC250 26/23 A2999 RMK AO2 SFC VIS 2 RAB00 CB OHD-NE AND DSNT SW-NW MOV STNRY P0001=
200608241642 SPECI KATL 241642Z 35007KT 1 1/2SM RA HZ BKN022CB BKN047 OVC250 26/23 A2999 RMK AO2 SFC VIS 2 RAB00 CB OHD-NE AND DSNT SW-NW MOV STNRY P0001=
200608241626 SPECI KATL 241626Z 00000KT 3SM -RA HZ FEW020CB SCT030 BKN050 BKN250 27/22 A2999 RMK AO2 SFC VIS 5 RAB00 CB W MOV STNRY P0000=
200608241626 SPECI KATL 241626Z 00000KT 3SM -RA HZ FEW020CB SCT030 BKN050 BKN250 27/22 A2999 RMK AO2 SFC VIS 5 RAB00 CB W MOV STNRY P0000=
200608241616 SPECI KATL 241616Z VRB03KT 3SM -RA HZ BKN020CB BKN035 BKN065 BKN250 27/22 A2999 RMK AO2 SFC VIS 4 RAB00 CB SW-W MOV E SHRA SW-W P0000=
200608241616 SPECI KATL 241616Z VRB03KT 3SM -RA HZ BKN020CB BKN035 BKN065 BKN250 27/22 A2999 RMK AO2 SFC VIS 4 RAB00 CB SW-W MOV E SHRA SW-W P0000=
200608241610 SPECI KATL 241610Z VRB03KT 2 1/2SM -RA FEW020CB SCT035 BKN065 BKN250 27/22 A2999 RMK AO2 SFC VIS 5 RAB00 CB SW-W MOV E SHRA SW-W P0000=
200608241610 SPECI KATL 241610Z VRB03KT 2 1/2SM -RA FEW020CB SCT035 BKN065 BKN250 27/22 A2999 RMK AO2 SFC VIS 5 RAB00 CB SW-W MOV E SHRA SW-W P0000=
200608241559 SPECI KATL 241559Z VRB03KT 2 1/2SM HZ FEW014CB SCT019 SCT034 BKN250 27/22 A3000 RMK AO2 SFC VIS 4 CB W MOV E=
200608241559 SPECI KATL 241559Z VRB03KT 2 1/2SM HZ FEW014CB SCT019 SCT034 BKN250 27/22 A3000 RMK AO2 SFC VIS 4 CB W MOV E=
200608241552 METAR KATL 241552Z 00000KT 2 1/2SM HZ FEW014CB BKN019 BKN025 BKN250 27/22 A3000 RMK AO2 SFC VIS 4 SLP147 CB W MOV E SHRA W T02670217=
200608241508 SPECI KATL 241508Z 00000KT 2 1/2SM HZ SCT010 BKN019 BKN250 26/22 A2999 RMK AO2 SFC VIS 4=
200608241508 SPECI KATL 241508Z 00000KT 2 1/2SM HZ SCT010 BKN019 BKN250 26/22 A2999 RMK AO2 SFC VIS 4=
200608241503 SPECI KATL 241503Z 16004KT 2 1/2SM HZ BKN010 BKN019 BKN250 26/23 A2999 RMK AO2 SFC VIS 4=
200608241503 SPECI KATL 241503Z 16004KT 2 1/2SM HZ BKN010 BKN019 BKN250 26/23 A2999 RMK AO2 SFC VIS 4=
200608241452 METAR KATL 241452Z 00000KT 2SM HZ BKN008 BKN250 26/22 A2999 RMK AO2 SFC VIS 3 CIG 007V010 SLP145 T02560222 51005=
200608241352 METAR KATL 241352Z 10003KT 2SM BR OVC008 24/22 A2999 RMK AO2 SFC VIS 3 SLP144 T02440222=
200608241252 METAR KATL 241252Z 14004KT 2SM BR OVC006 24/22 A2999 RMK AO2 SFC VIS 2 1/2 CIG 006V010 SLP144 BINOVC T02440222=
200608241152 METAR KATL 241152Z 00000KT 2 1/2SM BR BKN008 BKN036 BKN150 BKN250 24/22 A2997 RMK AO2 SLP139 T02390222 10244 20233 53006=
200608241107 SPECI KATL 241107Z 00000KT 2 1/2SM BR BKN006 BKN036 BKN150 BKN250 24/22 A2997 RMK AO2 SFC VIS 3=
200608241107 SPECI KATL 241107Z 00000KT 2 1/2SM BR BKN006 BKN036 BKN150 BKN250 24/22 A2997 RMK AO2 SFC VIS 3=
200608241052 METAR KATL 241052Z 00000KT 3SM BR SCT006 BKN150 BKN250 24/22 A2996 RMK AO2 SLP134 T02390222=
200608240952 METAR KATL 240952Z 25003KT 4SM BR SCT008 SCT075 OVC150 24/22 A2995 RMK AO2 SLP130 T02390222=
200608240852 METAR KATL 240852Z 00000KT 4SM BR SCT008 BKN110 OVC150 24/22 A2995 RMK AO2 SLP132 T02390222 55009=
200608240825 SPECI KATL 240825Z 19003KT 4SM BR FEW008 BKN070 BKN110 OVC150 24/22 A2995 RMK AO2=
200608240825 SPECI KATL 240825Z 19003KT 4SM BR FEW008 BKN070 BKN110 OVC150 24/22 A2995 RMK AO2=
200608240752 METAR KATL 240752Z 20005KT 4SM BR FEW010 BKN070 BKN110 OVC150 24/22 A2995 RMK AO2 SLP132 T02390222=
200608240652 METAR KATL 240652Z 15004KT 4SM BR SCT044 BKN070 OVC150 24/22 A2997 RMK AO2 SLP137 T02440222=
200608240552 METAR KATL 240552Z 18003KT 4SM BR BKN065 OVC150 24/22 A2998 RMK AO2 SLP142 T02440222 10272 20244 50003=
200608240452 METAR KATL 240452Z 00000KT 6SM HZ SCT065 OVC150 25/22 A2999 RMK AO2 SLP144 T02500222 403060222=
200608240352 METAR KATL 240352Z 19003KT 6SM BR BKN075 BKN150 25/23 A2998 RMK AO2 SLP142 T02500228=
200608240252 METAR KATL 240252Z 18004KT 7SM FEW050 BKN075 26/22 A2997 RMK AO2 SLP139 T02560222 51010=
200608240152 METAR KATL 240152Z 18004KT 7SM SCT020 BKN055 BKN250 26/22 A2997 RMK AO2 SLP138 T02560222=
200608240052 METAR KATL 240052Z 18004KT 6SM HZ FEW060 SCT250 27/23 A2996 RMK AO2 SLP134 T02670233=
200608232352 METAR KATL 232352Z VRB05KT 6SM HZ SCT060 BKN150 BKN250 27/23 A2994 RMK AO2 SLP128 TCU DSNT NE 60000 T02720233 10306 20250 56006=
200608232252 METAR KATL 232252Z 31005KT 8SM FEW040 SCT140 BKN250 29/19 A2995 RMK AO2 SLP131 MDT CU VC NE T02890194=
200608232152 METAR KATL 232152Z 32009KT 9SM FEW040TCU 29/19 A2994 RMK AO2 SLP128 TCU VC E-SE T02940194=
200608232052 METAR KATL 232052Z 35009KT 7SM FEW035 SCT100 SCT150 29/20 A2996 RMK AO2 SLP134 60000 T02940200 56019=
200608231952 METAR KATL 231952Z VRB05KT 5SM HZ FEW020 SCT070 SCT100 BKN150 29/23 A2998 RMK AO2 RAB31E40 SLP139 P0000 T02890228=
200608231852 METAR KATL 231852Z VRB05KT 4SM HZ FEW025 SCT150 SCT250 27/22 A2999 RMK AO2 SLP147 LTG DSNT S CB DSNT SE-SW MOV SE SHRA DSNT SE-SW T02720217=
200608231752 METAR KATL 231752Z 26008KT 4SM HZ FEW020CB SCT030TCU SCT150 BKN250 26/22 A3002 RMK AO2 RAB34E44 SLP156 CB SW MOV SE TCU NE-E AND NW SHRA SW P0000 60000 T02560222 10283 20228 58014=
200608231652 METAR KATL 231652Z 30004KT 5SM HZ FEW018 SCT150 27/22 A3005 RMK AO2 SLP165 MDT CU NE T02720222=
200608231552 METAR KATL 231552Z 24005KT 5SM HZ SCT012 BKN150 BKN250 26/22 A3006 RMK AO2 SLP171 T02610222=
200608231452 METAR KATL 231452Z 28005KT 5SM HZ BKN010 BKN150 BKN250 25/22 A3006 RMK AO2 SLP169 T02500222 51006=
200608231416 SPECI KATL 231416Z VRB05KT 5SM HZ BKN010 BKN150 BKN250 26/22 A3005 RMK AO2=
200608231416 SPECI KATL 231416Z VRB05KT 5SM HZ BKN010 BKN150 BKN250 26/22 A3005 RMK AO2=
200608231352 METAR KATL 231352Z 27005KT 6SM BR FEW008 BKN150 BKN250 24/22 A3005 RMK AO2 SLP166 T02440222=
200608231252 METAR KATL 231252Z 31005KT 6SM BR FEW090 SCT140 SCT180 BKN250 23/22 A3005 RMK AO2 SLP166 T02330217=
200608231152 METAR KATL 231152Z 31004KT 5SM BR FEW140 BKN180 BKN250 23/21 A3004 RMK AO2 SLP163 70007 T02280211 10228 20222 53004=
200608231052 METAR KATL 231052Z 28003KT 5SM BR SCT150 BKN250 22/21 A3003 RMK AO2 SLP159 T02220211=
200608230952 METAR KATL 230952Z 28004KT 5SM BR SCT150 BKN250 22/21 A3003 RMK AO2 SLP160 T02220211=
200608230852 METAR KATL 230852Z 32003KT 5SM BR FEW150 SCT200 BKN250 22/21 A3003 RMK AO2 SLP157 T02220211 58011=
200608230752 METAR KATL 230752Z 28004KT 5SM BR BKN150 BKN200 BKN250 23/21 A3004 RMK AO2 SLP160 T02280211=
200608230652 METAR KATL 230652Z 24004KT 5SM BR BKN150 BKN200 BKN250 23/21 A3005 RMK AO2 SLP165 T02280211=
200608230552 METAR KATL 230552Z 30005KT 5SM BR BKN150 OVC200 23/21 A3006 RMK AO2 SLP168 60000 T02280211 10239 20228 56013=
200608230452 METAR KATL 230452Z 31005KT 9SM FEW150 BKN200 OVC250 23/21 A3007 RMK AO2 SLP172 T02280211 403110222=
200608230352 METAR KATL 230352Z 29005KT 9SM FEW100 BKN150 OVC250 23/21 A3009 RMK AO2 SLP178 T02280211=
200608230252 METAR KATL 230252Z 22006KT 9SM FEW070 BKN150 OVC200 23/22 A3010 RMK AO2 SLP182 60000 T02280217 50014=
200608230152 METAR KATL 230152Z 22007KT 9SM SCT065 BKN150 OVC200 23/22 A3010 RMK AO2 SLP184 T02330217=
200608230052 METAR KATL 230052Z 17004KT 10SM SCT100 BKN150 OVC200 23/22 A3006 RMK AO2 RAE39 SLP171 P0000 T02330217=
200608222352 METAR KATL 222352Z 23003KT 10SM -RA FEW040 SCT100 BKN140 OVC200 24/22 A3006 RMK AO2 RAB38 SLP169 P0000 60007 T02390217 10311 20228 50006=
200608222252 METAR KATL 222252Z 30004KT 10SM SCT100 BKN140 OVC200 24/21 A3006 RMK AO2 RAE49 SLP170 P0007 T02390211=
200608222152 METAR KATL 222152Z 31012KT 8SM -RA FEW045CB BKN070 BKN100 OVC200 24/22 A3006 RMK AO2 WSHFT 2059 TSB08E52RAB2058E23B42 SLP171 TS DSIPTD CB SW-W MOV SE P0000 T02440217=
200608222118 SPECI KATL 222118Z 34017G24KT 7SM -TSRA FEW020 BKN040CB BKN100 OVC150 26/21 A3006 RMK AO2 WSHFT 2059 TSB08RAB2058 OCNL LTGCG TS=
200608222118 SPECI KATL 222118Z 34017G24KT 7SM -TSRA FEW020 BKN040CB BKN100 OVC150 26/21 A3006 RMK AO2 WSHFT 2059 TSB08RAB2058 OCNL LTGCG TS=
200608222108 SPECI KATL 222108Z 33016G21KT 7SM -TSRA FEW015 BKN040CB BKN150 27/22 A3006 RMK AO2 TSB08RAB2058 PRESRR OCNL LTGCG TS NW-N MOV SE CBMAM OHD-NW P0000=
200608222108 SPECI KATL 222108Z 33016G21KT 7SM -TSRA FEW015 BKN040CB BKN150 27/22 A3006 RMK AO2 TSB08RAB2058 PRESRR OCNL LTGCG TS NW-N MOV SE CBMAM OHD-NW P0000=
200608222052 METAR KATL 222052Z 28012KT 7SM FEW040 SCT150 SCT250 29/22 A3004 RMK AO2 SLP161 CB DSNT W-N TCU DSNT NE-SE T02940217 56026=
200608221952 METAR KATL 221952Z 25006KT 7SM FEW035TCU SCT150 SCT250 31/22 A3006 RMK AO2 SLP168 TCU SE AND NW T03110217=
200608221852 METAR KATL 221852Z VRB04KT 7SM FEW035 SCT065 SCT250 31/22 A3009 RMK AO2 SLP177 T03060217=
200608221752 METAR KATL 221752Z 29005KT 7SM FEW035 SCT065 BKN150 BKN250 30/22 A3012 RMK AO2 SLP188 T03000222 10300 20228 58009=
200608221652 METAR KATL 221652Z 29007KT 7SM FEW025 SCT070 BKN150 BKN250 28/22 A3014 RMK AO2 SLP194 T02830222=
200608221552 METAR KATL 221552Z 29008KT 6SM HZ FEW055 BKN150 BKN250 28/22 A3014 RMK AO2 SLP196 T02780222=
200608221452 METAR KATL 221452Z 26006KT 3SM HZ FEW025 SCT045 SCT080 BKN250 27/22 A3015 RMK AO2 SFC VIS 6 SLP198 T02670222 53006=
200608221352 METAR KATL 221352Z 27005KT 3SM HZ FEW100 SCT150 SCT250 24/22 A3014 RMK AO2 SFC VIS 5 SLP194 T02440217=
200608221252 METAR KATL 221252Z 26003KT 2SM BR FEW045 SCT150 BKN250 23/22 A3013 RMK AO2 SFC VIS 3 SLP193 T02330217=
200608221152 METAR KATL 221152Z 25004KT 2SM BR SCT005 SCT045 BKN140 BKN250 23/22 A3013 RMK AO2 SLP192 60014 70024 T02280217 10239 20222 51019=
200608221052 METAR KATL 221052Z 24005KT 2SM BR SCT004 BKN140 BKN250 23/22 A3011 RMK AO2 SFC VIS 3 SLP186 T02280217=
200608221019 SPECI KATL 221019Z 24004KT 2SM BR SCT002 BKN140 OVC200 23/22 A3010 RMK AO2 SFC VIS 2 1/2=
200608221019 SPECI KATL 221019Z 24004KT 2SM BR SCT002 BKN140 OVC200 23/22 A3010 RMK AO2 SFC VIS 2 1/2=
200608221005 SPECI KATL 221005Z 27004KT 2SM BR BKN002 BKN140 OVC200 23/22 A3010 RMK AO2 SFC VIS 3=
200608221005 SPECI KATL 221005Z 27004KT 2SM BR BKN002 BKN140 OVC200 23/22 A3010 RMK AO2 SFC VIS 3=
200608220952 METAR KATL 220952Z 29007KT 1SM BR BKN002 BKN140 OVC200 23/22 A3009 RMK AO2 SFC VIS 2 1/2 RAE0857 SLP178 TWRINC P0000 T02280217=
200608220943 SPECI KATL 220943Z 27007KT 1/2SM BR OVC002 23/22 A3009 RMK AO2 SFC VIS 1 1/2 RAE0857 TWRINC P0000=
200608220943 SPECI KATL 220943Z 27007KT 1/2SM BR OVC002 23/22 A3009 RMK AO2 SFC VIS 1 1/2 RAE0857 TWRINC P0000=
200608220930 SPECI KATL 220930Z 27008KT 1 1/2SM BR BKN002 BKN040 OVC140 23/22 A3008 RMK AO2 RAE0857 P0000=
200608220930 SPECI KATL 220930Z 27008KT 1 1/2SM BR BKN002 BKN040 OVC140 23/22 A3008 RMK AO2 RAE0857 P0000=
200608220926 SPECI KATL 220926Z 27008KT 3SM BR SCT002 BKN040 OVC140 23/22 A3008 RMK AO2 RAE0857 P0000=
200608220926 SPECI KATL 220926Z 27008KT 3SM BR SCT002 BKN040 OVC140 23/22 A3008 RMK AO2 RAE0857 P0000=
200608220852 METAR KATL 220852Z 29003KT 6SM -RA BR BKN030 OVC140 24/22 A3007 RMK AO2 SLP171 P0001 60014 T02390222 56015=
200608220752 METAR KATL 220752Z 00000KT 6SM -RA BR OVC040 23/22 A3009 RMK AO2 SLP176 P0005 T02330217=
200608220652 METAR KATL 220652Z 35004KT 5SM -RA BR OVC034 23/22 A3009 RMK AO2 SLP180 P0008 T02330217=
200608220552 METAR KATL 220552Z 00000KT 8SM -RA OVC044 23/21 A3012 RMK AO2 TSE19 SLP188 TS MOV E P0007 60010 T02280211 10311 20228 58017=
200608220520 SPECI KATL 220520Z 10003KT 4SM RA BR FEW008 OVC044 23/22 A3013 RMK AO2 TSE19 TS MOV E P0003=
200608220520 SPECI KATL 220520Z 10003KT 4SM RA BR FEW008 OVC044 23/22 A3013 RMK AO2 TSE19 TS MOV E P0003=
200608220452 METAR KATL 220452Z 13004KT 8SM -TSRA FEW015 BKN040CB OVC070 23/22 A3014 RMK AO2 SLP196 OCNL LTGICCA TS VC NE-SE-S MOV E P0003 T02330217 403280222=
200608220414 SPECI KATL 220414Z VRB03KT 7SM -TSRA SCT012 BKN035CB OVC090 24/22 A3014 RMK AO2 FRQ LTGICCGCA TS NE-SE-S MOV SE P0000=
200608220414 SPECI KATL 220414Z VRB03KT 7SM -TSRA SCT012 BKN035CB OVC090 24/22 A3014 RMK AO2 FRQ LTGICCGCA TS NE-SE-S MOV SE P0000=
200608220352 METAR KATL 220352Z 07009KT 7SM -TSRA FEW006 BKN012 OVC035CB 24/22 A3017 RMK AO2 SLP205 CONS LTGICCG TS NE-SE-S MOV STNRY VIS LWR NE-SE P0000 T02390217=
200608220335 SPECI KATL 220335Z 00000KT 8SM -TSRA BKN012 BKN035CB OVC070 24/22 A3016 RMK AO2 PRESRR CONS LTGICCG TS NE-SE-S AND VC W-NW MOV STNRY P0000=
200608220335 SPECI KATL 220335Z 00000KT 8SM -TSRA BKN012 BKN035CB OVC070 24/22 A3016 RMK AO2 PRESRR CONS LTGICCG TS NE-SE-S AND VC W-NW MOV STNRY P0000=
200608220252 METAR KATL 220252Z 25012KT 10SM -TSRA FEW035CB SCT060 BKN120 OVC200 25/21 A3010 RMK AO2 TSB09RAB29 SLP182 CONS LTGICCG TS SW AND VC W-NW MOV STNRY P0000 60000 T02500211 51024=
200608220210 SPECI KATL 220210Z 26003KT 10SM TS FEW045CB BKN060 BKN090 OVC200 29/23 A3010 RMK AO2 TSB09 OCNL LTGICCG TS VC W AND NW MOV STNRY=
200608220210 SPECI KATL 220210Z 26003KT 10SM TS FEW045CB BKN060 BKN090 OVC200 29/23 A3010 RMK AO2 TSB09 OCNL LTGICCG TS VC W AND NW MOV STNRY=
200608220152 METAR KATL 220152Z 00000KT 10SM FEW045 BKN060 BKN150 BKN250 29/22 A3010 RMK AO2 TSB22E43 SLP180 TS DSIPTD OCNL LTG DSNT SW-W T02890222=
200608220144 SPECI KATL 220144Z 21006KT 10SM FEW050 SCT065 BKN150 BKN250 29/22 A3009 RMK AO2 TSB22E43 TS DSIPTD OCNL LTG DSNT SW=
200608220144 SPECI KATL 220144Z 21006KT 10SM FEW050 SCT065 BKN150 BKN250 29/22 A3009 RMK AO2 TSB22E43 TS DSIPTD OCNL LTG DSNT SW=
200608220122 SPECI KATL 220122Z 00000KT 10SM TS FEW050CB SCT070 BKN250 31/22 A3008 RMK AO2 TSB22 OCNL LTGCG TS NE MOV NE=
200608220122 SPECI KATL 220122Z 00000KT 10SM TS FEW050CB SCT070 BKN250 31/22 A3008 RMK AO2 TSB22 OCNL LTGCG TS NE MOV NE=
200608220052 METAR KATL 220052Z 00000KT 10SM BKN065 BKN250 31/22 A3006 RMK AO2 SLP169 T03060217=
200608212352 METAR KATL 212352Z 00000KT 10SM FEW050 SCT250 31/21 A3003 RMK AO2 SLP157 CB DSNT NW T03110206 10328 20300 55000=
200608212252 METAR KATL 212252Z VRB03KT 9SM FEW050 32/21 A3002 RMK AO2 SLP156 TCU DSNT N T03170206=
200608212152 METAR KATL 212152Z VRB04KT 10SM FEW050 33/21 A3003 RMK AO2 SLP156 T03280211=
200608212052 METAR KATL 212052Z 02006KT 9SM FEW045 SCT090 SCT250 32/21 A3003 RMK AO2 SLP156 T03220211 57027=
200608211952 METAR KATL 211952Z 00000KT 10SM FEW045 SCT150 SCT250 32/19 A3005 RMK AO2 SLP165 CB DSNT NE MOV SE TCU DSNT NW T03220194=
200608211852 METAR KATL 211852Z 28005KT 9SM FEW150 SCT250 31/19 A3008 RMK AO2 SLP176 T03110194=
200608211752 METAR KATL 211752Z VRB04KT 10SM FEW150 SCT250 31/19 A3011 RMK AO2 SLP185 CB DSNT NE MOV SE T03060194 10306 20228 58006=
200608211652 METAR KATL 211652Z 28005KT 10SM FEW110 BKN150 BKN250 29/21 A3013 RMK AO2 SLP192 T02890206=
200608211552 METAR KATL 211552Z 29005KT 10SM FEW110 BKN150 BKN250 28/21 A3014 RMK AO2 SLP195 T02830211=
200608211452 METAR KATL 211452Z 25003KT 10SM FEW090 BKN150 BKN250 27/21 A3013 RMK AO2 SLP192 T02720211 51011=
200608211352 METAR KATL 211352Z 00000KT 10SM BKN150 BKN250 25/21 A3012 RMK AO2 SLP190 T02500211=
200608211252 METAR KATL 211252Z 31005KT 7SM BKN150 BKN250 24/22 A3011 RMK AO2 SLP188 T02390222=
200608211152 METAR KATL 211152Z 00000KT 8SM BKN150 BKN250 23/21 A3009 RMK AO2 SLP182 70118 T02280211 10233 20222 53016=
200608211052 METAR KATL 211052Z 27003KT 7SM BKN150 BKN250 22/21 A3008 RMK AO2 SLP177 T02220206=
200608210952 METAR KATL 210952Z 33003KT 8SM SCT140 SCT250 22/21 A3006 RMK AO2 SLP169 T02220206=
200608210852 METAR KATL 210852Z 32003KT 7SM SCT140 BKN250 23/21 A3004 RMK AO2 SLP163 T02280211 55005=
200608210752 METAR KATL 210752Z 36003KT 8SM BKN140 BKN250 23/21 A3004 RMK AO2 SLP159 T02280211=
200608210652 METAR KATL 210652Z 02005KT 7SM BKN120 BKN250 23/21 A3004 RMK AO2 SLP159 T02330206=
200608210552 METAR KATL 210552Z 33003KT 7SM BKN120 BKN250 23/21 A3006 RMK AO2 SLP167 60009 T02280211 10233 20222 50002=
200608210452 METAR KATL 210452Z 30003KT 8SM SCT120 BKN250 22/21 A3006 RMK AO2 SLP169 T02220206 403390222=
200608210352 METAR KATL 210352Z 31003KT 8SM FEW120 BKN250 23/21 A3006 RMK AO2 SLP167 T02280211=
200608210252 METAR KATL 210252Z 29006KT 7SM BKN120 OVC250 22/21 A3005 RMK AO2 SLP167 60009 T02220211 53004=
200608210152 METAR KATL 210152Z 23004KT 7SM FEW038 OVC120 22/21 A3005 RMK AO2 RAE31 SLP165 P0001 T02220211=
200608210107 SPECI KATL 210107Z 31006KT 8SM -RA SCT040 OVC100 23/21 A3004 RMK AO2 P0001=
200608210107 SPECI KATL 210107Z 31006KT 8SM -RA SCT040 OVC100 23/21 A3004 RMK AO2 P0001=
200608210052 METAR KATL 210052Z 01007KT 6SM -RA BR OVC038 23/21 A3004 RMK AO2 SLP164 P0008 T02330211=
200608202352 METAR KATL 202352Z 10005KT 7SM -RA BKN047 OVC060 23/21 A3004 RMK AO2 TSE23B35E49 SLP164 TS DSIPT P0035 60109 T02330206 10339 20222 50019=
200608202336 SPECI KATL 202336Z 09007KT 6SM -TSRA BKN038CB OVC055 23/21 A3005 RMK AO2 TSE23B35 OCNL LTGIC TS E-SE MOV SE P0035=
200608202336 SPECI KATL 202336Z 09007KT 6SM -TSRA BKN038CB OVC055 23/21 A3005 RMK AO2 TSE23B35 OCNL LTGIC TS E-SE MOV SE P0035=
200608202324 SPECI KATL 202324Z 10003KT 5SM RA BR FEW019 OVC032 23/21 A3006 RMK AO2 TSE23 TS MOV E-SE P0034=
200608202324 SPECI KATL 202324Z 10003KT 5SM RA BR FEW019 OVC032 23/21 A3006 RMK AO2 TSE23 TS MOV E-SE P0034=
200608202314 SPECI KATL 202314Z VRB04KT 4SM TSRA FEW008 BKN019CB OVC055 22/20 A3006 RMK AO2 FRQ LTGICCA TS E-OHD-SE MOV SE P0031=
200608202314 SPECI KATL 202314Z VRB04KT 4SM TSRA FEW008 BKN019CB OVC055 22/20 A3006 RMK AO2 FRQ LTGICCA TS E-OHD-SE MOV SE P0031=
200608202257 SPECI KATL 202257Z 01008KT 2SM +TSRA FEW004 OVC010CB 22/21 A3007 RMK AO2 FRQ LTGICCA TS ALQDS MOV SE P0012=
200608202257 SPECI KATL 202257Z 01008KT 2SM +TSRA FEW004 OVC010CB 22/21 A3007 RMK AO2 FRQ LTGICCA TS ALQDS MOV SE P0012=
200608202252 METAR KATL 202252Z 36015KT 1SM +TSRA BKN008 BKN015CB OVC055 22/21 A3007 RMK AO2 PK WND 32027/2223 WSHFT 2218 TSB08RAB16 SLP174 CONS LTGICCACG TS ALQDS MOV S P0074 T02220211 RVRNO=
200608202244 SPECI KATL 202244Z 01021KT 3/4SM +TSRA BKN005 BKN015CB OVC055 22/22 A3008 RMK AO2 PK WND 32027/2223 WSHFT 2218 TSB08RAB16 CONS LTGICCACG TS ALQDS MOV S P0050 RVRNO=
200608202244 SPECI KATL 202244Z 01021KT 3/4SM +TSRA BKN005 BKN015CB OVC055 22/22 A3008 RMK AO2 PK WND 32027/2223 WSHFT 2218 TSB08RAB16 CONS LTGICCACG TS ALQDS MOV S P0050 RVRNO=
200608202236 SPECI KATL 202236Z 36020G26KT 3/4SM +TSRA FEW005 BKN017CB OVC050 22/22 A3008 RMK AO2 PK WND 32027/2223 WSHFT 2218 TSB08RAB16 CONS LTGICCACG TS ALQDS MOV S P0026 RVRNO=
200608202236 SPECI KATL 202236Z 36020G26KT 3/4SM +TSRA FEW005 BKN017CB OVC050 22/22 A3008 RMK AO2 PK WND 32027/2223 WSHFT 2218 TSB08RAB16 CONS LTGICCACG TS ALQDS MOV S P0026 RVRNO=
200608202225 SPECI KATL 202225Z 35020G27KT 1/2SM +TSRA SCT030CB BKN055 OVC130 24/21 A3006 RMK AO2 PK WND 32027/2223 TSB08RAB16 FRQ LTGICCACG TS OHD-NW-NE MOV S P0000 RVRNO=
200608202225 SPECI KATL 202225Z 35020G27KT 1/2SM +TSRA SCT030CB BKN055 OVC130 24/21 A3006 RMK AO2 PK WND 32027/2223 TSB08RAB16 FRQ LTGICCACG TS OHD-NW-NE MOV S P0000 RVRNO=
200608202209 SPECI KATL 202209Z 27009KT 5SM TS HZ FEW030CB SCT055 BKN130 25/21 A3002 RMK AO2 TSB08 OCNL LTGIC TS VC NW-N MOV S=
200608202209 SPECI KATL 202209Z 27009KT 5SM TS HZ FEW030CB SCT055 BKN130 25/21 A3002 RMK AO2 TSB08 OCNL LTGIC TS VC NW-N MOV S=
200608202152 METAR KATL 202152Z 23006G15KT 4SM HZ FEW027 SCT060 BKN130 25/21 A3002 RMK AO2 TSE25RAB02E35 SLP155 TS MOV SW P0000 T02500206=
200608202130 SPECI KATL 202130Z 22005KT 4SM -RA FEW034CB BKN055 OVC150 25/21 A3002 RMK AO2 TSE25RAB02 TS MOV SW P0000=
200608202130 SPECI KATL 202130Z 22005KT 4SM -RA FEW034CB BKN055 OVC150 25/21 A3002 RMK AO2 TSE25RAB02 TS MOV SW P0000=
200608202052 METAR KATL 202052Z 35019G23KT 4SM TS HZ BKN060CB BKN070 OVC150 30/19 A2998 RMK AO2 WSHFT 2038 TSB33 SLP142 CONS LTGICCGCC ALQDS TS N-OHD-W MOV S CB DSNT W MOV S LTG DSNT W T03000189 56015=
200608202034 SPECI KATL 202034Z 07009KT 4SM TS HZ BKN060CB BKN150 33/19 A2999 RMK AO2 TSB33 FRQ LTGIC TS N MOV S CB DSNT W MOV S=
200608202034 SPECI KATL 202034Z 07009KT 4SM TS HZ BKN060CB BKN150 33/19 A2999 RMK AO2 TSB33 FRQ LTGIC TS N MOV S CB DSNT W MOV S=
200608201952 METAR KATL 201952Z VRB04KT 5SM HZ SCT055TCU BKN150 33/19 A2999 RMK AO2 SLP143 TCU OHD-SW AND DSNT NW T03330189=
200608201852 METAR KATL 201852Z 35006KT 5SM HZ SCT048TCU BKN150 32/21 A3001 RMK AO2 SLP149 TCU OHD-W AND DSNT N AND E AND S-SW AND NW T03170206 $=
200608201752 METAR KATL 201752Z COR VRB04KT 5SM HZ SCT045TCU SCT090 BKN150 32/21 A3003 RMK AO2 SLP157 TCU OHD AND DSNT NE AND E AND S AND NW T03220211 10322 20244 58010=
200608201652 METAR KATL 201652Z 34006KT 5SM HZ SCT150 BKN250 31/21 A3005 RMK AO2 SLP165 T03060206=
200608201552 METAR KATL 201552Z 28006KT 6SM HZ FEW150 SCT250 31/20 A3006 RMK AO2 SLP166 T03060200=
200608201452 METAR KATL 201452Z 29006KT 6SM HZ FEW100 SCT200 29/20 A3006 RMK AO2 SLP167 T02890200 53007=
200608201352 METAR KATL 201352Z 27005KT 6SM HZ FEW090 BKN150 28/20 A3005 RMK AO2 SLP165 T02780200=
200608201252 METAR KATL 201252Z 00000KT 5SM HZ FEW100 BKN150 26/20 A3004 RMK AO2 SLP162 T02560200=
200608201152 METAR KATL 201152Z 00000KT 4SM HZ BKN250 24/21 A3004 RMK AO2 SLP161 T02440211 10261 20233 53015=
200608201052 METAR KATL 201052Z 00000KT 5SM HZ SCT250 24/21 A3002 RMK AO2 SLP155 T02440206=
200608200952 METAR KATL 200952Z 14003KT 4SM HZ SCT180 24/21 A3000 RMK AO2 SLP149 T02390206=
200608200852 METAR KATL 200852Z 11005KT 4SM HZ BKN180 24/21 A2999 RMK AO2 SLP145 T02440206 56004=
200608200752 METAR KATL 200752Z 08005KT 5SM HZ BKN150 BKN250 25/20 A3000 RMK AO2 SLP145 T02500200=
200608200652 METAR KATL 200652Z 00000KT 5SM HZ SCT150 BKN250 25/20 A3000 RMK AO2 SLP146 T02500200=
200608200552 METAR KATL 200552Z 33006KT 5SM HZ FEW150 BKN250 26/20 A3001 RMK AO2 SLP149 T02560200 10294 20256 56004=
200608200452 METAR KATL 200452Z 00000KT 5SM HZ FEW150 BKN250 27/20 A3001 RMK AO2 SLP149 T02670200 403110206=
200608200352 METAR KATL 200352Z 30003KT 5SM HZ FEW090 SCT150 OVC250 28/19 A3001 RMK AO2 SLP150 T02780189=
200608200252 METAR KATL 200252Z 29004KT 6SM HZ FEW150 BKN250 28/19 A3002 RMK AO2 SLP154 T02780194 51010=
200608200152 METAR KATL 200152Z 32006KT 6SM HZ FEW150 SCT250 28/19 A3001 RMK AO2 SLP152 T02830189=
200608200052 METAR KATL 200052Z VRB04KT 7SM FEW150 29/19 A3000 RMK AO2 SLP148 T02890189=
200608192352 METAR KATL 192352Z 33006KT 5SM HZ FEW055 SCT150 SCT250 29/19 A2999 RMK AO2 SLP145 T02940189 10311 20294 56006=
200608192252 METAR KATL 192252Z 31005KT 5SM HZ FEW045 SCT090 BKN150 BKN250 30/19 A2999 RMK AO2 SLP146 T03000189=
200608192152 METAR KATL 192152Z 31008KT 5SM HZ FEW045TCU SCT090 SCT150 30/19 A3000 RMK AO2 SLP148 TCU NE-E T03000194=
200608192052 METAR KATL 192052Z 29003KT 7SM FEW045 SCT090 BKN150 31/19 A3001 RMK AO2 SLP150 T03060194 56022=
200608191952 METAR KATL 191952Z 29006KT 7SM BKN048TCU BKN060 BKN070 31/19 A3002 RMK AO2 SLP156 TCU OHD-NE T03060194=
200608191852 METAR KATL 191852Z 00000KT 7SM BKN050TCU BKN150 30/19 A3005 RMK AO2 SLP166 TCU OHD-S-W T03000189=
200608191752 METAR KATL 191752Z 32009KT 8SM BKN042 BKN055 BKN150 29/19 A3008 RMK AO2 SLP174 T02940194 10306 20217 58009=
200608191652 METAR KATL 191652Z 31005KT 7SM FEW040 SCT150 29/19 A3009 RMK AO2 SLP178 T02890194=
200608191552 METAR KATL 191552Z VRB04KT 8SM FEW040 SCT150 SCT200 28/18 A3010 RMK AO2 SLP183 T02780178=
200608191452 METAR KATL 191452Z 00000KT 8SM SCT200 27/19 A3010 RMK AO2 SLP183 T02670189 50006=
200608191352 METAR KATL 191352Z VRB03KT 8SM FEW046 BKN200 25/19 A3010 RMK AO2 SLP183 T02500189=
200608191252 METAR KATL 191252Z 11004KT 7SM FEW250 24/18 A3010 RMK AO2 SLP181 T02390183=
200608191152 METAR KATL 191152Z 09004KT 8SM FEW250 22/17 A3008 RMK AO2 SLP177 T02170172 10233 20206 53007=
200608191052 METAR KATL 191052Z 08004KT 8SM FEW250 21/17 A3007 RMK AO2 SLP172 T02110167=
200608190952 METAR KATL 190952Z 07007KT 9SM CLR 22/17 A3006 RMK AO2 SLP168 T02170167=
200608190852 METAR KATL 190852Z 08007KT 10SM FEW065 22/16 A3006 RMK AO2 SLP169 T02220161 53000=
200608190752 METAR KATL 190752Z 08004KT 9SM FEW100 23/16 A3007 RMK AO2 SLP170 T02280161=
200608190652 METAR KATL 190652Z 09007KT 9SM SCT070 23/17 A3006 RMK AO2 SLP167 T02330167=
200608190552 METAR KATL 190552Z 07006KT 10SM SCT075 23/17 A3006 RMK AO2 SLP169 T02330167 10294 20233 58009=
200608190452 METAR KATL 190452Z 11006KT 10SM BKN250 26/16 A3007 RMK AO2 SLP173 T02560161 403110217=
200608190352 METAR KATL 190352Z 11005KT 10SM SCT250 25/16 A3008 RMK AO2 SLP176 T02500161=
200608190252 METAR KATL 190252Z 09005KT 10SM SCT250 25/18 A3009 RMK AO2 SLP178 T02500178 51009=
200608190152 METAR KATL 190152Z 12005KT 10SM FEW200 SCT250 27/18 A3008 RMK AO2 SLP177 T02670178=
200608190052 METAR KATL 190052Z 14005KT 10SM FEW200 SCT250 28/18 A3007 RMK AO2 SLP171 T02780183=
200608182352 METAR KATL 182352Z 10006KT 10SM FEW250 29/17 A3006 RMK AO2 SLP169 T02890172 10311 20289 55006=
200608182252 METAR KATL 182252Z 06010G16KT 10SM FEW250 31/16 A3005 RMK AO2 SLP165 T03060161=
200608182152 METAR KATL 182152Z 07012G16KT 10SM FEW055 31/18 A3006 RMK AO2 SLP169 T03110178=
200608182052 METAR KATL 182052Z 06008G17KT 10SM SCT050 31/18 A3008 RMK AO2 SLP175 T03060183 56013=
200608181952 METAR KATL 181952Z 07011G16KT 10SM FEW050 31/19 A3009 RMK AO2 SLP178 T03060189=
200608181852 METAR KATL 181852Z VRB06KT 9SM FEW049 31/18 A3011 RMK AO2 SLP185 T03060178=
200608181752 METAR KATL 181752Z 08006KT 9SM SCT045 29/18 A3012 RMK AO2 SLP189 T02940183 10294 20222 58012=
200608181652 METAR KATL 181652Z 10005KT 10SM FEW045 28/19 A3014 RMK AO2 SLP196 T02830189=
200608181552 METAR KATL 181552Z 10010KT 10SM FEW040 SCT250 28/18 A3016 RMK AO2 SLP203 T02780183=
200608181452 METAR KATL 181452Z 09009KT 10SM FEW250 27/18 A3016 RMK AO2 SLP202 T02670183 53003=
200608181352 METAR KATL 181352Z 06011KT 8SM FEW250 24/18 A3015 RMK AO2 SLP199 T02440183=
200608181252 METAR KATL 181252Z 06012KT 7SM FEW060 SCT250 23/18 A3015 RMK AO2 SLP201 T02280178=
200608181152 METAR KATL 181152Z 06010KT 7SM FEW060 SCT250 22/17 A3015 RMK AO2 SLP200 T02220172 10228 20217 53007=
200608181052 METAR KATL 181052Z 05009KT 7SM BKN060 BKN250 22/18 A3014 RMK AO2 SLP196 T02220178=
200608180952 METAR KATL 180952Z 07009KT 7SM FEW250 22/16 A3012 RMK AO2 SLP190 T02170161=
200608180852 METAR KATL 180852Z 06010KT 7SM FEW250 22/17 A3013 RMK AO2 SLP191 T02220167 55001=
200608180752 METAR KATL 180752Z 06009KT 7SM FEW250 23/19 A3012 RMK AO2 SLP189 T02280189=
200608180652 METAR KATL 180652Z 08009KT 7SM FEW250 22/19 A3012 RMK AO2 SLP190 T02220189=
200608180552 METAR KATL 180552Z 08009KT 7SM FEW250 23/19 A3013 RMK AO2 SLP193 T02280194 10289 20228 50001=
200608180452 METAR KATL 180452Z 07008KT 10SM FEW250 23/19 A3014 RMK AO2 SLP197 T02330189 403000233=
200608180352 METAR KATL 180352Z 08008KT 10SM FEW250 24/20 A3014 RMK AO2 SLP195 T02440200=
200608180252 METAR KATL 180252Z 09007KT 10SM FEW250 25/21 A3013 RMK AO2 SLP193 T02500206 52020=
200608180152 METAR KATL 180152Z 10006KT 10SM FEW250 27/21 A3011 RMK AO2 SLP187 T02720206=
200608180052 METAR KATL 180052Z 12005KT 10SM SCT250 28/21 A3008 RMK AO2 SLP176 T02780206=
200608172352 METAR KATL 172352Z 12007KT 10SM FEW250 SCT300 29/21 A3007 RMK AO2 SLP171 T02890206 10300 20267 56006=
200608172252 METAR KATL 172252Z 09005KT 10SM FEW040 29/21 A3007 RMK AO2 SLP172 T02890211=
200608172152 METAR KATL 172152Z 10007KT 10SM FEW040 29/21 A3008 RMK AO2 SLP175 T02940211=
200608172052 METAR KATL 172052Z 12007KT 9SM FEW040 30/22 A3009 RMK AO2 SLP178 T03000217 58016=
200608171952 METAR KATL 171952Z 10009KT 8SM FEW030 SCT040 29/22 A3010 RMK AO2 SLP183 TCU DSNT S T02890222=
200608171852 METAR KATL 171852Z 12008KT 7SM FEW020 SCT030 BKN040 28/23 A3012 RMK AO2 SLP190 T02780228=
200608171752 METAR KATL 171752Z 11010KT 8SM FEW015 SCT020 OVC030 27/23 A3014 RMK AO2 SLP195 BINOVC OHD T02670228 10267 20239 58004=
200608171725 SPECI KATL 171725Z VRB05KT 7SM FEW018 SCT025 OVC030 27/23 A3014 RMK AO2=
200608171725 SPECI KATL 171725Z VRB05KT 7SM FEW018 SCT025 OVC030 27/23 A3014 RMK AO2=
200608171652 METAR KATL 171652Z COR 14007KT 6SM HZ BKN016 BKN023 BKN030 BKN250 27/23 A3015 RMK AO2 SLP198 T02670228=
200608171552 METAR KATL 171552Z 09008KT 5SM HZ OVC017 25/22 A3015 RMK AO2 SLP201 T02500222=
200608171527 SPECI KATL 171527Z 09010KT 6SM HZ OVC017 26/23 A3015 RMK AO2=
200608171527 SPECI KATL 171527Z 09010KT 6SM HZ OVC017 26/23 A3015 RMK AO2=
200608171452 METAR KATL 171452Z 08011KT 5SM HZ BKN014 26/22 A3015 RMK AO2 SLP200 T02560222 51006=
200608171352 METAR KATL 171352Z 07012KT 4SM BR BKN014 24/22 A3015 RMK AO2 SLP200 T02440222=
200608171252 METAR KATL 171252Z 08012KT 3SM BR OVC014 24/22 A3014 RMK AO2 SFC VIS 4 SLP198 T02390222=
200608171152 METAR KATL 171152Z 07009KT 3SM BR OVC010 24/22 A3013 RMK AO2 SLP193 70002 T02390222 10244 20233 53017=
200608171104 SPECI KATL 171104Z 06007KT 020V100 2 1/2SM BR OVC012 23/22 A3012 RMK AO2 SFC VIS 4=
200608171104 SPECI KATL 171104Z 06007KT 020V100 2 1/2SM BR OVC012 23/22 A3012 RMK AO2 SFC VIS 4=
200608171052 METAR KATL 171052Z 08009KT 4SM BR OVC012 23/22 A3011 RMK AO2 SLP189 T02330222=
200608171033 SPECI KATL 171033Z 07011KT 4SM BR BKN012 BKN050 23/22 A3011 RMK AO2=
200608171033 SPECI KATL 171033Z 07011KT 4SM BR BKN012 BKN050 23/22 A3011 RMK AO2=
200608170952 METAR KATL 170952Z 07010KT 4SM BR FEW016 SCT048 23/22 A3009 RMK AO2 SLP181 T02330222=
200608170852 METAR KATL 170852Z 07012KT 4SM BR FEW020 SCT048 24/22 A3008 RMK AO2 SLP177 T02390222 55005=
200608170752 METAR KATL 170752Z 06011KT 4SM BR SCT016 BKN048 24/22 A3008 RMK AO2 SLP174 T02440222=
200608170721 SPECI KATL 170721Z 06012KT 5SM BR SCT016 BKN048 24/22 A3008 RMK AO2=
200608170721 SPECI KATL 170721Z 06012KT 5SM BR SCT016 BKN048 24/22 A3008 RMK AO2=
200608170652 METAR KATL 170652Z 07011KT 5SM BR BKN020 OVC030 24/22 A3008 RMK AO2 SLP175 T02440222=
200608170552 METAR KATL 170552Z 07007KT 5SM BR OVC022 24/22 A3009 RMK AO2 SLP180 T02390222 10267 20239 50002=
200608170526 SPECI KATL 170526Z 08008KT 5SM BR BKN020 BKN110 BKN250 24/22 A3010 RMK AO2=
200608170526 SPECI KATL 170526Z 08008KT 5SM BR BKN020 BKN110 BKN250 24/22 A3010 RMK AO2=
200608170452 METAR KATL 170452Z 08008KT 8SM FEW020 SCT110 BKN250 24/22 A3010 RMK AO2 SLP181 T02440222 403170222=
200608170352 METAR KATL 170352Z 09007KT 9SM FEW080 SCT110 BKN250 24/22 A3009 RMK AO2 SLP179 T02440222=
200608170252 METAR KATL 170252Z 09009KT 9SM SCT080 BKN120 BKN250 25/22 A3009 RMK AO2 SLP178 T02500217 51015=
200608170152 METAR KATL 170152Z 08006KT 10SM FEW090 SCT120 BKN200 BKN250 25/22 A3008 RMK AO2 SLP175 T02500222=
200608170052 METAR KATL 170052Z 08012KT 10SM FEW100 SCT150 BKN200 26/22 A3007 RMK AO2 SLP171 CB DSNT NW T02610222=
200608162352 METAR KATL 162352Z 00000KT 10SM FEW100 SCT150 BKN200 26/22 A3004 RMK AO2 SLP164 CB DSNT NE-SE 60002 T02610217 10317 20239 55001=
200608162252 METAR KATL 162252Z 00000KT 10SM FEW075 SCT150 BKN200 26/22 A3003 RMK AO2 SLP161 CB DSNT NE-E T02560222=
200608162152 METAR KATL 162152Z 00000KT 9SM SCT055 BKN080 BKN150 OVC200 24/22 A3004 RMK AO2 TSE33RAE27 SLP163 TS MOV W P0002 T02440217=
200608162134 SPECI KATL 162134Z 23005KT 8SM FEW030 SCT050 BKN100 OVC150 24/22 A3004 RMK AO2 TSE33RAE27 TS MOV W P0002=
200608162134 SPECI KATL 162134Z 23005KT 8SM FEW030 SCT050 BKN100 OVC150 24/22 A3004 RMK AO2 TSE33RAE27 TS MOV W P0002=
200608162106 SPECI KATL 162106Z 16007KT 2 1/2SM -TSRA FEW030CB BKN050 BKN080 OVC150 24/22 A3004 RMK AO2 SFC VIS 6 OCNL LTGIC TS VC SW-NW MOV W CB VC SW-NW MOV W P0000=
200608162106 SPECI KATL 162106Z 16007KT 2 1/2SM -TSRA FEW030CB BKN050 BKN080 OVC150 24/22 A3004 RMK AO2 SFC VIS 6 OCNL LTGIC TS VC SW-NW MOV W CB VC SW-NW MOV W P0000=
200608162057 SPECI KATL 162057Z 16008KT 6SM -TSRA FEW015CB BKN030 BKN040 24/21 A3004 RMK AO2 OCNL LTGIC TS VC SW-NW MOV W CB VC SW-NW MOV W P0000=
200608162057 SPECI KATL 162057Z 16008KT 6SM -TSRA FEW015CB BKN030 BKN040 24/21 A3004 RMK AO2 OCNL LTGIC TS VC SW-NW MOV W CB VC SW-NW MOV W P0000=
200608162052 METAR KATL 162052Z 16010KT 8SM -TSRA FEW015CB BKN030TCU OVC040 24/22 A3004 RMK AO2 TSB47RAE02B34 SLP165 VIS LWR NE-W SHRA FRQ LTGICCG TS SW MOV W CB SW MOV W TCU OHD AND ALQDS P0000 60000 T02440217 55004=
200608162047 SPECI KATL 162047Z 15012KT 8SM -TSRA FEW010 SCT020CB OVC030TCU 24/22 A3004 RMK AO2 TSB47RAE02B34 VIS LWR E-SW SHRA OCNL LTGICCG TS SW MOV W CB SW MOV W TCU OHD AND ALQDS P0000=
200608162047 SPECI KATL 162047Z 15012KT 8SM -TSRA FEW010 SCT020CB OVC030TCU 24/22 A3004 RMK AO2 TSB47RAE02B34 VIS LWR E-SW SHRA OCNL LTGICCG TS SW MOV W CB SW MOV W TCU OHD AND ALQDS P0000=
200608162024 SPECI KATL 162024Z 14012G18KT 8SM SCT025CB BKN045 BKN250 27/21 A3003 RMK AO2 RAE02 VIS LWR SE-S AND W SHRA CB VC SE-S AND W MOV W P0000=
200608162024 SPECI KATL 162024Z 14012G18KT 8SM SCT025CB BKN045 BKN250 27/21 A3003 RMK AO2 RAE02 VIS LWR SE-S AND W SHRA CB VC SE-S AND W MOV W P0000=
200608161952 METAR KATL 161952Z 08009KT 8SM -RA SCT033TCU SCT060 BKN095 BKN250 29/22 A3003 RMK AO2 RAB50 SLP158 TCU NE AND S-NW P0000 T02940222=
200608161852 METAR KATL 161852Z VRB06KT 9SM SCT035TCU SCT050 SCT250 31/22 A3003 RMK AO2 SLP159 TCU W-NW T03060217=
200608161752 METAR KATL 161752Z 00000KT 9SM SCT030TCU BKN040 BKN250 29/23 A3006 RMK AO2 SLP167 TCU VC NE AND VC NW MDT CU ALQDS T02940233 10294 20222 58008=
200608161659 SPECI KATL 161659Z 10006KT 9SM BKN030 BKN040 BKN250 29/23 A3007 RMK AO2=
200608161659 SPECI KATL 161659Z 10006KT 9SM BKN030 BKN040 BKN250 29/23 A3007 RMK AO2=
200608161652 METAR KATL 161652Z VRB04KT 9SM BKN025 BKN250 29/24 A3007 RMK AO2 SLP172 MDT CU ALQDS T02890239=
200608161552 METAR KATL 161552Z VRB06KT 8SM SCT020 SCT250 28/23 A3008 RMK AO2 SLP175 T02780233=
200608161507 SPECI KATL 161507Z VRB03KT 6SM HZ SCT016 BKN250 27/22 A3008 RMK AO2=
200608161507 SPECI KATL 161507Z VRB03KT 6SM HZ SCT016 BKN250 27/22 A3008 RMK AO2=
200608161452 METAR KATL 161452Z 09007KT 6SM HZ BKN014 BKN250 27/22 A3007 RMK AO2 SLP174 BKN014 V SCT T02670222 51013=
200608161421 SPECI KATL 161421Z 08006KT 6SM HZ SCT012 SCT090 SCT250 26/23 A3007 RMK AO2=
200608161421 SPECI KATL 161421Z 08006KT 6SM HZ SCT012 SCT090 SCT250 26/23 A3007 RMK AO2=
200608161352 METAR KATL 161352Z 05004KT 5SM BR BKN010 BKN110 BKN250 24/23 A3006 RMK AO2 SLP169 T02440233=
200608161341 SPECI KATL 161341Z 07006KT 5SM BR BKN010 BKN110 BKN250 24/23 A3006 RMK AO2=
200608161341 SPECI KATL 161341Z 07006KT 5SM BR BKN010 BKN110 BKN250 24/23 A3006 RMK AO2=
200608161258 SPECI KATL 161258Z 03006KT 2 1/2SM BR SCT004 SCT120 SCT250 24/22 A3006 RMK AO2 SFC VIS 4=
200608161258 SPECI KATL 161258Z 03006KT 2 1/2SM BR SCT004 SCT120 SCT250 24/22 A3006 RMK AO2 SFC VIS 4=
200608161252 METAR KATL 161252Z 01006KT 2 1/2SM BR BKN003 BKN120 BKN250 24/22 A3006 RMK AO2 SFC VIS 3 SLP168 T02390217=
200608161225 SPECI KATL 161225Z 34005KT 2 1/2SM BR BKN003 BKN120 BKN250 23/21 A3005 RMK AO2 SFC VIS 3=
200608161225 SPECI KATL 161225Z 34005KT 2 1/2SM BR BKN003 BKN120 BKN250 23/21 A3005 RMK AO2 SFC VIS 3=
200608161152 METAR KATL 161152Z 33004KT 3SM BR FEW002 SCT120 SCT250 22/21 A3004 RMK AO2 SLP161 70003 T02220211 10244 20222 53005=
200608161103 SPECI KATL 161103Z 34005KT 3SM BR FEW002 SCT120 SCT250 22/21 A3002 RMK AO2 SFC VIS 5=
200608161103 SPECI KATL 161103Z 34005KT 3SM BR FEW002 SCT120 SCT250 22/21 A3002 RMK AO2 SFC VIS 5=
200608161052 METAR KATL 161052Z 32005KT 2 1/2SM BR FEW002 SCT120 SCT250 22/21 A3002 RMK AO2 SFC VIS 4 SLP156 T02220211=
200608161049 SPECI KATL 161049Z 32005KT 2 1/2SM BR FEW002 SCT120 SCT250 22/21 A3002 RMK AO2 SFC VIS 4=
200608161049 SPECI KATL 161049Z 32005KT 2 1/2SM BR FEW002 SCT120 SCT250 22/21 A3002 RMK AO2 SFC VIS 4=
200608161040 SPECI KATL 161040Z 33004KT 2SM BR BKN002 BKN120 BKN250 22/22 A3002 RMK AO2 SFC VIS 3=
200608161040 SPECI KATL 161040Z 33004KT 2SM BR BKN002 BKN120 BKN250 22/22 A3002 RMK AO2 SFC VIS 3=
200608161025 SPECI KATL 161025Z 32005KT 1SM BR BKN002 BKN120 BKN250 22/22 A3002 RMK AO2 SFC VIS 2 VIS E-S-SW 3/4=
200608161025 SPECI KATL 161025Z 32005KT 1SM BR BKN002 BKN120 BKN250 22/22 A3002 RMK AO2 SFC VIS 2 VIS E-S-SW 3/4=
200608160952 METAR KATL 160952Z 32003KT 1/4SM BR BKN002 BKN120 BKN250 22/22 A3002 RMK AO2 SFC VIS 3/4 SLP154 VIS E-S 2 T02220217 RVRNO=
200608160943 SPECI KATL 160943Z 34004KT 1SM BR BKN002 BKN120 BKN250 22/22 A3001 RMK AO2 RVRNO=
200608160943 SPECI KATL 160943Z 34004KT 1SM BR BKN002 BKN120 BKN250 22/22 A3001 RMK AO2 RVRNO=
200608160852 METAR KATL 160852Z 30006KT 6SM BR FEW008 SCT120 BKN250 23/21 A3001 RMK AO2 SLP152 T02280211 56009=
200608160752 METAR KATL 160752Z 00000KT 6SM BR FEW008 SCT036 BKN100 BKN200 23/22 A3001 RMK AO2 SLP154 T02330217=
200608160652 METAR KATL 160652Z 10004KT 5SM BR FEW008 SCT055 BKN100 BKN200 24/22 A3002 RMK AO2 TSB36E50 SLP156 TS DISPTD LTG DSNT S CB DSNT S T02390222=
200608160638 SPECI KATL 160638Z 08004KT 7SM TS FEW008 SCT050CB BKN100 BKN200 24/22 A3002 RMK AO2 TSB36 OCNL LTGICCG TS VC SE MOV STNRY=
200608160638 SPECI KATL 160638Z 08004KT 7SM TS FEW008 SCT050CB BKN100 BKN200 24/22 A3002 RMK AO2 TSB36 OCNL LTGICCG TS VC SE MOV STNRY=
200608160600 SPECI KATL 160600Z 00000KT 6SM BR BKN008 BKN055 BKN100 OVC200 24/22 A3004 RMK AO2=
200608160600 SPECI KATL 160600Z 00000KT 6SM BR BKN008 BKN055 BKN100 OVC200 24/22 A3004 RMK AO2=
200608160552 METAR KATL 160552Z 00000KT 6SM BR SCT008 BKN055 BKN100 OVC200 24/23 A3004 RMK AO2 SLP160 T02390228 10272 20239 53008=
200608160452 METAR KATL 160452Z 33005KT 10SM FEW050 BKN200 24/21 A3002 RMK AO2 SLP154 T02390211 403000222=
200608160352 METAR KATL 160352Z 32005KT 10SM FEW015 SCT150 BKN200 BKN250 24/22 A3000 RMK AO2 SLP148 T02440217=
200608160252 METAR KATL 160252Z 29005KT 10SM SCT150 BKN200 BKN250 24/22 A3001 RMK AO2 SLP152 T02440217 51008=
200608160152 METAR KATL 160152Z 34005KT 9SM FEW100 BKN150 OVC200 26/22 A3001 RMK AO2 SLP151 OCNL LTG DSNT SE T02560222=
200608160052 METAR KATL 160052Z VRB03KT 9SM SCT070 BKN100 BKN150 OVC200 27/23 A3001 RMK AO2 SLP153 T02670228=
200608152352 METAR KATL 152352Z 28003KT 9SM FEW050 SCT120 BKN150 OVC200 27/22 A2999 RMK AO2 RAE28 SLP144 CB DSNT SE P0001 60003 T02720222 10300 20256 51004=
200608152252 METAR KATL 152252Z 27008KT 9SM -RA FEW035CB SCT060 BKN120 OVC150 28/22 A2999 RMK AO2 RAB51 SLP144 CB VC NW-N TCU SE P0000 T02830217=
200608152152 METAR KATL 152152Z 23004KT 8SM FEW040 BKN140 BKN250 30/22 A2998 RMK AO2 SLP142 CB DSNT N-NE T03000217=
200608152052 METAR KATL 152052Z VRB05KT 7SM FEW110 SCT200 BKN250 28/23 A2998 RMK AO2 SLP140 CB DSNT N-NE 60002 T02830228 56017=
200608151952 METAR KATL 151952Z 00000KT 9SM FEW110 BKN200 BKN250 27/23 A2998 RMK AO2 RAE07 SLP141 CB DSNT NE-E-SE P0000 T02670228=
200608151852 METAR KATL 151852Z 00000KT 10SM -RA FEW025 SCT055 BKN110 BKN150 BKN250 26/21 A3001 RMK AO2 TSB10E42RAB10 SLP153 VIS LWR NE-SE SHRA TS MOV SE CB DSNT N-NE-E-SE AND DSNT W MOV SE P0002 T02610211=
200608151842 SPECI KATL 151842Z VRB03KT 9SM -RA FEW025CB BKN055 BKN110 BKN150 BKN250 26/21 A3002 RMK AO2 TSB10E42RAB10 VIS LWR NE-SE SHRA LTG DSNT NE-SE TS MOV SE CB DSNT N-NE-E-SE TCU DSNT W P0002=
200608151842 SPECI KATL 151842Z VRB03KT 9SM -RA FEW025CB BKN055 BKN110 BKN150 BKN250 26/21 A3002 RMK AO2 TSB10E42RAB10 VIS LWR NE-SE SHRA LTG DSNT NE-SE TS MOV SE CB DSNT N-NE-E-SE TCU DSNT W P0002=
200608151831 SPECI KATL 151831Z 33007KT 6SM -TSRA SCT025CB BKN055 BKN110 BKN150 BKN250 26/22 A3003 RMK AO2 TSB10RAB10 VIS LWR NE-SE SHRA FRQ LTGICCG TS VC NE-SE MOV SE P0002=
200608151831 SPECI KATL 151831Z 33007KT 6SM -TSRA SCT025CB BKN055 BKN110 BKN150 BKN250 26/22 A3003 RMK AO2 TSB10RAB10 VIS LWR NE-SE SHRA FRQ LTGICCG TS VC NE-SE MOV SE P0002=
200608151829 SPECI KATL 151829Z 34007KT 8SM -TSRA SCT022CB BKN055 OVC110 26/22 A3003 RMK AO2 TSB10RAB10 VIS LWR NE-SE SHRA FRQ LTGICCG TS VC NE-SE MOV SE P0002=
200608151829 SPECI KATL 151829Z 34007KT 8SM -TSRA SCT022CB BKN055 OVC110 26/22 A3003 RMK AO2 TSB10RAB10 VIS LWR NE-SE SHRA FRQ LTGICCG TS VC NE-SE MOV SE P0002=
200608151825 SPECI KATL 151825Z 33007KT 7SM -TSRA SCT022CB BKN055 OVC110 29/22 A3003 RMK AO2 TSB10RAB10 VIS LWR NE-SE SHRA FRQ LTGICCG TS VC NE-SE MOV SE P0001=
200608151825 SPECI KATL 151825Z 33007KT 7SM -TSRA SCT022CB BKN055 OVC110 29/22 A3003 RMK AO2 TSB10RAB10 VIS LWR NE-SE SHRA FRQ LTGICCG TS VC NE-SE MOV SE P0001=
200608151820 SPECI KATL 151820Z 31009KT 5SM -TSRA SCT020CB BKN055 BKN110 OVC150 29/22 A3003 RMK AO2 TSB10RAB10 FRQ LTGICCG TS VC N-NE-E MOV SE P0000=
200608151820 SPECI KATL 151820Z 31009KT 5SM -TSRA SCT020CB BKN055 BKN110 OVC150 29/22 A3003 RMK AO2 TSB10RAB10 FRQ LTGICCG TS VC N-NE-E MOV SE P0000=
200608151810 SPECI KATL 151810Z 30015G19KT 7SM -TSRA FEW035CB BKN055TCU BKN110 OVC150 29/22 A3002 RMK AO2 TSB10RAB10 FRQ LTGICCG TS VC N-NE MOV SE TCU NE-S P0000=
200608151810 SPECI KATL 151810Z 30015G19KT 7SM -TSRA FEW035CB BKN055TCU BKN110 OVC150 29/22 A3002 RMK AO2 TSB10RAB10 FRQ LTGICCG TS VC N-NE MOV SE TCU NE-S P0000=
200608151805 SPECI KATL 151805Z 29012KT 8SM FEW035CB BKN055TCU BKN110 OVC150 29/22 A3002 RMK AO2 CB VC N MOV SE TCU NE-S SHRA VC NW-N=
200608151805 SPECI KATL 151805Z 29012KT 8SM FEW035CB BKN055TCU BKN110 OVC150 29/22 A3002 RMK AO2 CB VC N MOV SE TCU NE-S SHRA VC NW-N=
200608151752 METAR KATL 151752Z 29009KT 10SM SCT035CB BKN050 BKN110 OVC150 30/23 A3003 RMK AO2 SLP157 CB VC NW-N MOV SE SHRA VC NW-N BINOVC S T03000233 10300 20228 58010=
200608151652 METAR KATL 151652Z 20003KT 9SM BKN060 BKN110 BKN150 29/23 A3005 RMK AO2 SLP163 ACC OHD AND ALQDS T02890228=
200608151552 METAR KATL 151552Z 23006KT 10SM FEW070 SCT110 BKN150 28/21 A3005 RMK AO2 SLP166 T02780206=
200608151452 METAR KATL 151452Z 00000KT 10SM FEW070 BKN110 BKN150 27/22 A3006 RMK AO2 SLP167 ACC OHD-S T02670217 51006=
200608151352 METAR KATL 151352Z 24003KT 10SM BKN070 24/23 A3006 RMK AO2 SLP168 T02440228=
200608151252 METAR KATL 151252Z 26005KT 10SM OVC080 23/22 A3005 RMK AO2 SLP164 ACC OHD-ALQDS BINOVC T02330217=
200608151152 METAR KATL 151152Z 00000KT 8SM FEW070 BKN090 23/21 A3004 RMK AO2 SLP162 T02280206 10239 20222 53010=
200608151052 METAR KATL 151052Z 23003KT 8SM FEW100 22/20 A3002 RMK AO2 SLP154 T02220200=
200608150952 METAR KATL 150952Z 23004KT 10SM FEW100 22/20 A3001 RMK AO2 SLP153 T02220200=
200608150852 METAR KATL 150852Z 18003KT 10SM CLR 23/21 A3001 RMK AO2 SLP150 T02280206 56012=
200608150752 METAR KATL 150752Z 22003KT 10SM CLR 23/21 A3001 RMK AO2 SLP151 T02280211=
200608150652 METAR KATL 150652Z 22003KT 9SM CLR 23/21 A3002 RMK AO2 SLP155 T02330211=
200608150552 METAR KATL 150552Z 00000KT 10SM FEW140 23/21 A3004 RMK AO2 SLP163 T02330211 10283 20233 50001=
200608150452 METAR KATL 150452Z 00000KT 10SM CLR 24/21 A3005 RMK AO2 SLP165 T02440206 403060222=
200608150352 METAR KATL 150352Z 23004KT 10SM CLR 24/21 A3005 RMK AO2 SLP166 T02440206=
200608150252 METAR KATL 150252Z 21006KT 10SM CLR 25/21 A3004 RMK AO2 SLP163 T02500211 53011=
200608150152 METAR KATL 150152Z 21005KT 10SM CLR 26/21 A3002 RMK AO2 SLP156 T02610211=
200608150052 METAR KATL 150052Z 21005KT 10SM FEW040 27/21 A3000 RMK AO2 SLP149 T02670211=
200608142352 METAR KATL 142352Z 14007KT 10SM FEW150 28/21 A3001 RMK AO2 SLP151 T02830211 10306 20278 56007=
200608142252 METAR KATL 142252Z 14008KT 10SM FEW040 SCT120 BKN150 29/21 A3001 RMK AO2 SLP153 T02890211=
200608142152 METAR KATL 142152Z 12007KT 10SM FEW040 SCT140 30/22 A3002 RMK AO2 SLP154 MDT CU OHD-W TCU DSNT SW T03000217=
200608142052 METAR KATL 142052Z 15007KT 10SM FEW035 SCT110 31/22 A3003 RMK AO2 SLP157 T03060217 57021=
200608141952 METAR KATL 141952Z VRB04KT 10SM SCT035TCU 29/22 A3005 RMK AO2 SLP164 TCU N MDT CU ALQDS T02940217=
200608141852 METAR KATL 141852Z 14005KT 10SM SCT040 SCT060 29/22 A3007 RMK AO2 SLP172 MDT CU N-NE AND W-NW T02940222=
200608141752 METAR KATL 141752Z VRB04KT 10SM FEW030TCU SCT040 BKN060 28/22 A3009 RMK AO2 SLP179 TCU N-NE AND VC NW T02830222 10289 20228 58013=
200608141652 METAR KATL 141652Z 12004KT 10SM SCT025 BKN035 BKN090 28/23 A3011 RMK AO2 SLP186 MDT CU SE-W T02830228=
200608141602 SPECI KATL 141602Z 15005KT 10SM FEW022 BKN030 BKN050 27/23 A3013 RMK AO2=
200608141602 SPECI KATL 141602Z 15005KT 10SM FEW022 BKN030 BKN050 27/23 A3013 RMK AO2=
200608141554 SPECI KATL 141554Z 17005KT 10SM FEW022 BKN028 BKN050 26/20 A3013 RMK AO2=
200608141554 SPECI KATL 141554Z 17005KT 10SM FEW022 BKN028 BKN050 26/20 A3013 RMK AO2=
200608141552 METAR KATL 141552Z VRB06KT 10SM FEW024 BKN030 BKN050 26/22 A3013 RMK AO2 SLP192 T02610217=
200608141539 SPECI KATL 141539Z 19005KT 10SM BKN023 BKN030 BKN060 26/22 A3013 RMK AO2=
200608141539 SPECI KATL 141539Z 19005KT 10SM BKN023 BKN030 BKN060 26/22 A3013 RMK AO2=
200608141452 METAR KATL 141452Z 16006KT 10SM FEW016 SCT029 BKN060 26/22 A3013 RMK AO2 SLP193 T02560217 51003=
200608141352 METAR KATL 141352Z 17008KT 10SM FEW016 BKN055 BKN085 24/22 A3013 RMK AO2 SLP193 T02440222=
200608141252 METAR KATL 141252Z VRB03KT 8SM BKN065 BKN080 23/21 A3013 RMK AO2 SLP193 T02330206=
200608141152 METAR KATL 141152Z 14003KT 8SM FEW070 SCT120 BKN180 23/20 A3012 RMK AO2 SLP191 T02280200 10233 20222 53007=
200608141052 METAR KATL 141052Z 12004KT 10SM SCT022 22/20 A3010 RMK AO2 SLP185 T02220200=
200608141047 SPECI KATL 141047Z 11004KT 10SM SCT022 22/20 A3010 RMK AO2=
200608141047 SPECI KATL 141047Z 11004KT 10SM SCT022 22/20 A3010 RMK AO2=
200608140952 METAR KATL 140952Z 12004KT 10SM BKN018 23/20 A3010 RMK AO2 SLP182 T02280200=
200608140926 SPECI KATL 140926Z 12005KT 10SM BKN018 23/20 A3009 RMK AO2=
200608140926 SPECI KATL 140926Z 12005KT 10SM BKN018 23/20 A3009 RMK AO2=
200608140852 METAR KATL 140852Z 14004KT 10SM SCT075 23/20 A3009 RMK AO2 SLP179 T02280200 58007=
200608140752 METAR KATL 140752Z 12006KT 10SM SCT060 BKN075 23/19 A3010 RMK AO2 SLP182 T02330194=
200608140652 METAR KATL 140652Z 12005KT 10SM BKN029 OVC045 23/19 A3011 RMK AO2 SLP187 T02330194=
200608140640 SPECI KATL 140640Z 12003KT 10SM BKN029 OVC038 23/19 A3011 RMK AO2=
200608140640 SPECI KATL 140640Z 12003KT 10SM BKN029 OVC038 23/19 A3011 RMK AO2=
200608140552 METAR KATL 140552Z 10006KT 10SM BKN040 23/19 A3011 RMK AO2 SLP187 T02330194 10261 20233 51006=
200608140452 METAR KATL 140452Z 13004KT 10SM FEW100 23/19 A3011 RMK AO2 SLP186 T02330194 402720189=
200608140352 METAR KATL 140352Z 12007KT 10SM FEW100 24/19 A3010 RMK AO2 SLP182 T02390194=
200608140252 METAR KATL 140252Z 13005KT 10SM FEW042 SCT100 24/19 A3009 RMK AO2 SLP181 T02440194 51006=
200608140152 METAR KATL 140152Z COR 11005KT 10SM FEW038 SCT100 25/19 A3009 RMK AO2 SLP180 T02500194=
200608140052 METAR KATL 140052Z 11006KT 10SM FEW040 SCT100 26/19 A3008 RMK AO2 SLP177 T02560189=
200608132352 METAR KATL 132352Z 10007KT 10SM FEW036 SCT100 SCT150 26/19 A3007 RMK AO2 SLP175 T02610189 10272 20239 56004=
200608132252 METAR KATL 132252Z 15004KT 10SM FEW028 SCT036 BKN150 26/19 A3007 RMK AO2 SLP175 T02610194=
200608132205 SPECI KATL 132205Z 13007KT 10SM BKN031 26/19 A3008 RMK AO2=
200608132205 SPECI KATL 132205Z 13007KT 10SM BKN031 26/19 A3008 RMK AO2=
200608132152 METAR KATL 132152Z 10006KT 10SM BKN029 27/19 A3008 RMK AO2 SLP177 T02670194=
200608132052 METAR KATL 132052Z 10005KT 9SM BKN027 BKN080 BKN150 27/19 A3008 RMK AO2 SLP178 T02670194 58015=
200608131952 METAR KATL 131952Z 10008KT 9SM BKN022 BKN044 BKN150 26/19 A3010 RMK AO2 SLP184 SCT V BKN MDT CU ALQDS T02610194=
200608131852 METAR KATL 131852Z 10006KT 8SM BKN020 OVC040 25/19 A3012 RMK AO2 SLP192 BINOVC E AND SE T02500189=
200608131752 METAR KATL 131752Z 08006KT 8SM BKN018 BKN038 24/18 A3013 RMK AO2 SLP196 T02390183 10244 20189 50000=
200608131716 SPECI KATL 131716Z VRB04KT 8SM OVC016 23/18 A3014 RMK AO2=
200608131716 SPECI KATL 131716Z VRB04KT 8SM OVC016 23/18 A3014 RMK AO2=
200608131652 METAR KATL 131652Z 07005KT 8SM OVC014 23/18 A3013 RMK AO2 SLP197 T02280178=
200608131552 METAR KATL 131552Z 06009KT 8SM OVC014 22/17 A3014 RMK AO2 SLP199 T02220172=
200608131452 METAR KATL 131452Z 08007KT 8SM OVC013 22/17 A3013 RMK AO2 SLP196 T02170172 50006=
200608131352 METAR KATL 131352Z 08010KT 8SM OVC013 21/17 A3013 RMK AO2 SLP198 T02060167=
200608131252 METAR KATL 131252Z 08009KT 8SM OVC013 19/16 A3012 RMK AO2 SLP193 T01940161=
200608131231 SPECI KATL 131231Z 08010KT 10SM OVC015 19/16 A3012 RMK AO2=
200608131231 SPECI KATL 131231Z 08010KT 10SM OVC015 19/16 A3012 RMK AO2=
200608131152 METAR KATL 131152Z 07010KT 8SM OVC011 19/16 A3011 RMK AO2 SLP191 T01890161 10200 20189 51011=
200608131052 METAR KATL 131052Z 08008KT 8SM OVC011 19/16 A3011 RMK AO2 SLP189 T01890161=
200608130952 METAR KATL 130952Z 09009KT 8SM OVC011 19/16 A3009 RMK AO2 SLP183 T01890161=
200608130852 METAR KATL 130852Z 07011KT 8SM OVC011 19/16 A3008 RMK AO2 SLP177 T01940161 53004=
200608130821 SPECI KATL 130821Z 08010KT 8SM OVC011 19/17 A3007 RMK AO2=
200608130821 SPECI KATL 130821Z 08010KT 8SM OVC011 19/17 A3007 RMK AO2=
200608130752 METAR KATL 130752Z 08009KT 10SM OVC009 19/17 A3007 RMK AO2 SLP172 T01890167=
200608130652 METAR KATL 130652Z 08010KT 8SM OVC007 19/17 A3006 RMK AO2 CIG 006V010 SLP169 T01890167=
200608130552 METAR KATL 130552Z 09011KT 10SM OVC007 19/17 A3007 RMK AO2 SLP172 60000 T01890167 10211 20189 51003=
200608130452 METAR KATL 130452Z 08011G16KT 9SM OVC009 19/17 A3007 RMK AO2 DZE07 SLP173 CIG RGD P0000 T01890167 402890189=
200608130352 METAR KATL 130352Z 07011KT 6SM -DZ BR OVC008 19/17 A3006 RMK AO2 DZB44 SLP172 CIG 006V009 PCPN VRY LGT P0000 T01940172=
200608130342 SPECI KATL 130342Z 08012KT 8SM OVC008 19/17 A3006 RMK AO2=
200608130342 SPECI KATL 130342Z 08012KT 8SM OVC008 19/17 A3006 RMK AO2=
200608130252 METAR KATL 130252Z 08014KT 8SM OVC010 20/17 A3006 RMK AO2 SLP170 T02000172 52019=
200608130152 METAR KATL 130152Z 08012KT 7SM OVC010 20/17 A3005 RMK AO2 SLP166 T02000172=
200608130052 METAR KATL 130052Z 07014KT 7SM OVC007 21/18 A3001 RMK AO2 SLP153 T02060178=
200608122352 METAR KATL 122352Z 07012KT 6SM HZ OVC007 21/18 A3000 RMK AO2 SLP150 T02110183 10289 20211 53012=
200608122252 METAR KATL 122252Z 06016KT 6SM BR OVC006 22/19 A2999 RMK AO2 SLP146 T02170194=
200608122219 SPECI KATL 122219Z 07014KT 6SM HZ OVC009 23/20 A2998 RMK AO2=
200608122219 SPECI KATL 122219Z 07014KT 6SM HZ OVC009 23/20 A2998 RMK AO2=
200608122152 METAR KATL 122152Z 06014KT 6SM HZ OVC011 24/21 A2997 RMK AO2 SLP139 T02440206=
200608122123 SPECI KATL 122123Z 06015KT 6SM HZ BKN017 OVC060 24/20 A2997 RMK AO2=
200608122123 SPECI KATL 122123Z 06015KT 6SM HZ BKN017 OVC060 24/20 A2997 RMK AO2=
200608122052 METAR KATL 122052Z 05015KT 6SM HZ SCT018 BKN032 BKN060 26/21 A2996 RMK AO2 SLP135 SHRA VC NE AND SW T02560206 55002=
200608122045 SPECI KATL 122045Z 04015KT 10SM SCT018 BKN032 OVC070 26/21 A2996 RMK AO2 SHRA VC NE AND SW=
200608122045 SPECI KATL 122045Z 04015KT 10SM SCT018 BKN032 OVC070 26/21 A2996 RMK AO2 SHRA VC NE AND SW=
200608122019 SPECI KATL 122019Z 07013KT 7SM BKN021 BKN070 26/21 A2996 RMK AO2 SHRA DSNT N-E AND NW-N=
200608122019 SPECI KATL 122019Z 07013KT 7SM BKN021 BKN070 26/21 A2996 RMK AO2 SHRA DSNT N-E AND NW-N=
200608121952 METAR KATL 121952Z 06010KT 7SM SCT019 SCT049 BKN065 BKN150 28/21 A2995 RMK AO2 SLP131 T02780211=
200608121852 METAR KATL 121852Z 02009KT 7SM FEW020 SCT038 BKN150 28/22 A2996 RMK AO2 SLP133 T02830217=
200608121752 METAR KATL 121752Z 32008KT 8SM SCT025 SCT060 BKN110 BKN150 27/21 A2997 RMK AO2 SLP137 CB DSNT N-NE AND NW-N MOV SE SHRA DSNT N-NE 60000 T02720211 10278 20233 54000=
200608121652 METAR KATL 121652Z 26008KT 8SM SCT015 BKN150 26/21 A2997 RMK AO2 RAE04B34E43 SLP138 CB DSNT N-NE AND NW-N MOV SE P0000 T02610211=
200608121552 METAR KATL 121552Z COR 34008KT 6SM -RA FEW017 SCT041 BKN060 26/22 A2997 RMK AO2 RAB44 SLP138 P0000 T02560217=
200608121452 METAR KATL 121452Z 29007KT 7SM FEW010 SCT060 BKN100 OVC150 25/22 A2997 RMK AO2 RAB09E21 SLP138 BINOVC OHD AND NW P0000 60000 T02500217 53011=
200608121352 METAR KATL 121352Z COR 32006KT 6SM HZ FEW010 SCT039 SCT085 OVC150 24/22 A2995 RMK AO2 SLP132 BINOVC NE AND E T02440217=
200608121252 METAR KATL 121252Z 29007KT 6SM BR SCT037 BKN095 OVC200 24/22 A2995 RMK AO2 SLP130 T02390217=
200608121152 METAR KATL 121152Z 27005KT 5SM BR SCT100 BKN200 23/22 A2994 RMK AO2 SLP126 T02330217 10250 20228 53014=
200608121052 METAR KATL 121052Z 28005KT 7SM FEW100 BKN180 23/22 A2992 RMK AO2 SLP121 T02330217=
200608120952 METAR KATL 120952Z 00000KT 6SM BR SCT120 23/22 A2990 RMK AO2 SLP114 T02330222=
200608120852 METAR KATL 120852Z 22003KT 6SM BR BKN100 OVC150 24/22 A2989 RMK AO2 SLP112 T02390222 55002=
200608120752 METAR KATL 120752Z 21004KT 6SM BR BKN150 24/22 A2989 RMK AO2 SLP110 T02390222=
200608120652 METAR KATL 120652Z COR 23003KT 7SM BKN150 BKN250 24/22 A2989 RMK AO2 SLP110 T02440217=
200608120552 METAR KATL 120552Z 00000KT 9SM SCT120 BKN150 24/22 A2990 RMK AO2 SLP114 60000 T02440217 10278 20244 58006=
200608120452 METAR KATL 120452Z 31003KT 10SM FEW070 BKN150 BKN250 25/22 A2992 RMK AO2 SLP119 T02500217 403110222=
200608120352 METAR KATL 120352Z 00000KT 10SM SCT070 BKN120 BKN150 OVC250 25/21 A2992 RMK AO2 RAE15 SLP120 P0000 T02500211=
200608120252 METAR KATL 120252Z 31005KT 10SM -RA FEW075 BKN120 BKN150 OVC250 26/22 A2992 RMK AO2 RAB46 SLP120 P0000 60000 T02610217 53012=
200608120152 METAR KATL 120152Z 33005KT 10SM SCT120 SCT150 BKN200 BKN250 27/21 A2990 RMK AO2 SLP114 OCNL LTG DSNT NW T02670211=
200608120052 METAR KATL 120052Z 32004KT 10SM FEW150 BKN200 OVC250 28/22 A2988 RMK AO2 SLP107 FRQ LTG DSNT NW T02780217=
200608112352 METAR KATL 112352Z VRB04KT 10SM FEW100 SCT150 OVC200 28/22 A2988 RMK AO2 SLP109 T02830217 10311 20278 55004=
200608112252 METAR KATL 112252Z COR 36004KT 10SM FEW060 SCT140 OVC200 28/22 A2988 RMK AO2 SLP109 T02830217=
200608112152 METAR KATL 112152Z 30006KT 10SM FEW140 BKN200 BKN250 29/21 A2989 RMK AO2 SLP109 T02940211=
200608112052 METAR KATL 112052Z 29006KT 10SM FEW030 SCT100 BKN150 BKN250 29/22 A2990 RMK AO2 SLP113 T02940217 56011=
200608111952 METAR KATL 111952Z 32010KT 10SM FEW035 SCT080 SCT150 BKN200 BKN250 31/22 A2990 RMK AO2 SLP115 T03060217=
200608111852 METAR KATL 111852Z 33011KT 10SM FEW037 BKN150 BKN200 BKN250 30/20 A2991 RMK AO2 SLP117 T03000200=
200608111752 METAR KATL 111752Z 29009KT 10SM BKN033 BKN090 BKN200 BKN250 29/22 A2993 RMK AO2 SLP124 T02890217 10294 20222 58007=
200608111652 METAR KATL 111652Z 29008KT 10SM FEW030 SCT100 SCT200 BKN250 29/22 A2995 RMK AO2 SLP130 T02890217=
200608111552 METAR KATL 111552Z 30009KT 280V350 10SM FEW020 SCT100 SCT150 BKN250 28/22 A2996 RMK AO2 SLP134 T02780217=
200608111452 METAR KATL 111452Z 32011KT 10SM FEW015 SCT100 SCT150 BKN250 26/21 A2995 RMK AO2 SLP133 T02610206 51015=
200608111352 METAR KATL 111352Z 29010KT 10SM FEW008 SCT075 BKN150 BKN250 23/22 A2995 RMK AO2 SLP131 T02330222=
200608111252 METAR KATL 111252Z 29008KT 8SM FEW008 SCT075 BKN150 BKN250 23/21 A2993 RMK AO2 SLP126 T02280211=
200608111152 METAR KATL 111152Z 29007KT 10SM FEW075 BKN150 BKN250 22/21 A2991 RMK AO2 SLP119 ACC VC NW 70149 T02220206 10233 20222 53010=
200608111052 METAR KATL 111052Z 30008KT 10SM FEW070 BKN140 BKN250 22/21 A2990 RMK AO2 SLP116 T02220206=
200608110952 METAR KATL 110952Z 24004KT 10SM BKN150 BKN250 23/21 A2987 RMK AO2 SLP101 T02280206=
200608110852 METAR KATL 110852Z 24005KT 10SM BKN150 BKN250 23/21 A2988 RMK AO2 SLP105 T02280206 55019=
200608110752 METAR KATL 110752Z 26004KT 10SM SCT150 BKN250 23/21 A2988 RMK AO2 SLP104 T02280211=
200608110652 METAR KATL 110652Z 26005KT 10SM SCT150 BKN250 23/21 A2990 RMK AO2 SLP112 T02280211=
200608110552 METAR KATL 110552Z 27007KT 8SM FEW070 BKN150 BKN250 23/22 A2994 RMK AO2 SLP125 60001 T02330217 10244 20228 56007=
200608110452 METAR KATL 110452Z 29008KT 10SM FEW070 BKN150 OVC250 24/22 A2995 RMK AO2 SLP130 T02390217 403560222=
200608110352 METAR KATL 110352Z 27005KT 10SM FEW075 SCT150 BKN200 OVC250 24/22 A2994 RMK AO2 SLP126 T02390217=
200608110252 METAR KATL 110252Z COR 28006KT 7SM FEW075 BKN150 OVC200 24/22 A2996 RMK AO2 RAE0159 SLP133 P0000 60001 T02390217 53004=
200608110152 METAR KATL 110152Z 30006KT 10SM -RA FEW045 SCT080 BKN140 OVC200 24/22 A2994 RMK AO2 TSE10 SLP129 TS DSIPTD P0000 T02390222=
200608110110 SPECI KATL 110110Z 30006KT 10SM -RA FEW045 SCT070 BKN140 OVC200 24/21 A2992 RMK AO2 TSE10 TS DSIPTD P0000=
200608110110 SPECI KATL 110110Z 30006KT 10SM -RA FEW045 SCT070 BKN140 OVC200 24/21 A2992 RMK AO2 TSE10 TS DSIPTD P0000=
200608110052 METAR KATL 110052Z 30008KT 10SM -TSRA FEW045CB SCT070 BKN140 OVC200 23/21 A2992 RMK AO2 WSHFT 2341 RAE17B52 SLP122 OCNL LTGCGIC TS VC SW-W MOV E P0001 T02330206=
200608102359 SPECI KATL 102359Z 13008KT 9SM -TSRA FEW045CB SCT070 BKN100 OVC150 23/19 A2993 RMK AO2 WSHFT 2341 PRESFR FRQ LTGCGIC TS NE-SE-SW MOV SE P0001=
200608102359 SPECI KATL 102359Z 13008KT 9SM -TSRA FEW045CB SCT070 BKN100 OVC150 23/19 A2993 RMK AO2 WSHFT 2341 PRESFR FRQ LTGCGIC TS NE-SE-SW MOV SE P0001=
200608102352 METAR KATL 102352Z 12012KT 3SM TSRA FEW025 BKN045CB OVC070 23/19 A2995 RMK AO2 PK WND 01031/2322 WSHFT 2254 RAB2258 PRESFR SLP131 CONS LTGCGIC TS OHD-ALQDS MOV SE P0148 60148 T02280194 10356 20222 53017=
200608102338 SPECI KATL 102338Z 08007KT 2 1/2SM +TSRA SCT025 BKN045CB OVC070 23/20 A2997 RMK AO2 PK WND 01031/2322 WSHFT 2254 RAB2258 CONS LTGCGIC TS OHD-ALQDS MOV SE P0128=
200608102338 SPECI KATL 102338Z 08007KT 2 1/2SM +TSRA SCT025 BKN045CB OVC070 23/20 A2997 RMK AO2 PK WND 01031/2322 WSHFT 2254 RAB2258 CONS LTGCGIC TS OHD-ALQDS MOV SE P0128=
200608102316 SPECI KATL 102316Z 34018G25KT 1/2SM +TSRA FG BKN025 BKN045CB OVC070 23/22 A2996 RMK AO2 WSHFT 2254 RAB2258 FRQ LTGCGIC TS OHD-ALQDS MOV SE P0049 RVRNO=
200608102316 SPECI KATL 102316Z 34018G25KT 1/2SM +TSRA FG BKN025 BKN045CB OVC070 23/22 A2996 RMK AO2 WSHFT 2254 RAB2258 FRQ LTGCGIC TS OHD-ALQDS MOV SE P0049 RVRNO=
200608102309 SPECI KATL 102309Z 33016G21KT 3/4SM +TSRA SCT025 BKN045CB OVC070 25/22 A2996 RMK AO2 WSHFT 2254 TWR VIS 1 RAB2258 FRQ LTGCGIC TS OHD-ALQDS MOV SE P0006 RVRNO=
200608102309 SPECI KATL 102309Z 33016G21KT 3/4SM +TSRA SCT025 BKN045CB OVC070 25/22 A2996 RMK AO2 WSHFT 2254 TWR VIS 1 RAB2258 FRQ LTGCGIC TS OHD-ALQDS MOV SE P0006 RVRNO=
200608102305 SPECI KATL 102305Z 36015G21KT 1SM +TSRA FEW025 BKN045CB OVC070 27/22 A2996 RMK AO2 SFC VIS 1 1/2 RAB2258 FRQ LTGCGIC TS E-OHD-W MOV SE P0000=
200608102305 SPECI KATL 102305Z 36015G21KT 1SM +TSRA FEW025 BKN045CB OVC070 27/22 A2996 RMK AO2 SFC VIS 1 1/2 RAB2258 FRQ LTGCGIC TS E-OHD-W MOV SE P0000=
200608102303 SPECI KATL 102303Z 02017G21KT 2 1/2SM +TSRA FEW025 BKN045CB OVC070 27/21 A2995 RMK AO2 RAB2258 FRQ LTGCGIC TS N-E-SE AND NW MOV SE P0000=
200608102303 SPECI KATL 102303Z 02017G21KT 2 1/2SM +TSRA FEW025 BKN045CB OVC070 27/21 A2995 RMK AO2 RAB2258 FRQ LTGCGIC TS N-E-SE AND NW MOV SE P0000=
200608102252 METAR KATL 102252Z 06012KT 10SM TS FEW025 BKN045CB BKN070 OVC250 27/21 A2994 RMK AO2 WSHFT 2212 TSB2159 SLP128 FRQ LTGCGIC TS VC N-NE AND NW MOV SE T02670211=
200608102228 SPECI KATL 102228Z 08018G22KT 10SM TS SCT055CB BKN070 BKN100 BKN250 28/21 A2992 RMK AO2 WSHFT 2212 TSB2159 FRQ LTGCGIC TS VC NW-N MOV E=
200608102228 SPECI KATL 102228Z 08018G22KT 10SM TS SCT055CB BKN070 BKN100 BKN250 28/21 A2992 RMK AO2 WSHFT 2212 TSB2159 FRQ LTGCGIC TS VC NW-N MOV E=
200608102159 SPECI KATL 102159Z 25009KT 10SM TS FEW055CB BKN080 BKN150 BKN250 33/22 A2990 RMK AO2 TSB59 OCNL LTGCG TS VC E-SE MOV E=
200608102159 SPECI KATL 102159Z 25009KT 10SM TS FEW055CB BKN080 BKN150 BKN250 33/22 A2990 RMK AO2 TSB59 OCNL LTGCG TS VC E-SE MOV E=
200608102152 METAR KATL 102152Z 26009KT 10SM FEW060 BKN085 BKN150 BKN200 33/22 A2989 RMK AO2 SLP111 CB DSNT NE-SE AND NW T03280217=
200608102052 METAR KATL 102052Z 25015KT 10SM FEW060 SCT100 BKN250 35/21 A2990 RMK AO2 SLP110 CB DSNT NE MOV SE T03500211 56029=
200608101952 METAR KATL 101952Z 22011KT 10SM FEW055 SCT100 SCT250 35/22 A2993 RMK AO2 SLP121 TCU DSNT N-NE T03500217=
200608101852 METAR KATL 101852Z 22010G15KT 9SM FEW050 SCT100 SCT250 34/22 A2995 RMK AO2 SLP128 TCU DSNT NW-N T03390222=
200608101752 METAR KATL 101752Z VRB06KT 10SM FEW045 SCT250 34/23 A2998 RMK AO2 SLP140 TCU DSNT N-NE AND DSNT NW T03390228 10339 20239 58014=
200608101652 METAR KATL 101652Z 30007KT 10SM FEW045 SCT250 33/22 A3000 RMK AO2 SLP146 TCU DSNT N-NE T03280217=
200608101552 METAR KATL 101552Z 28005KT 10SM FEW095 SCT250 31/22 A3002 RMK AO2 SLP153 T03110222=
200608101452 METAR KATL 101452Z 27005KT 9SM FEW250 29/22 A3003 RMK AO2 SLP157 T02890217 50001=
200608101352 METAR KATL 101352Z 28007KT 9SM SCT250 27/23 A3003 RMK AO2 SLP160 T02670228=
200608101252 METAR KATL 101252Z 28007KT 9SM FEW250 26/22 A3003 RMK AO2 SLP160 T02560217=
200608101152 METAR KATL 101152Z 23003KT 6SM HZ FEW250 24/22 A3002 RMK AO2 SLP155 70090 T02440217 10256 20228 53002=
200608101052 METAR KATL 101052Z 23004KT 6SM BR SCT250 23/22 A3002 RMK AO2 SLP153 T02330217=
200608100952 METAR KATL 100952Z 27004KT 7SM FEW070 SCT250 23/21 A3002 RMK AO2 SLP152 T02330211=
200608100852 METAR KATL 100852Z 26004KT 7SM FEW070 SCT250 23/21 A3002 RMK AO2 SLP153 T02330211 50000=
200608100752 METAR KATL 100752Z 29007KT 8SM FEW075 SCT250 24/22 A3002 RMK AO2 SLP153 T02440222=
200608100652 METAR KATL 100652Z 27005KT 6SM BR BKN250 24/22 A3002 RMK AO2 SLP155 T02440222=
200608100552 METAR KATL 100552Z 22005KT 7SM BKN150 BKN250 26/22 A3002 RMK AO2 SLP152 60090 T02560222 10306 20233 56007=
200608100452 METAR KATL 100452Z 00000KT 10SM FEW070 BKN120 BKN150 OVC200 26/23 A3003 RMK AO2 SLP155 T02560228 403500228=
200608100352 METAR KATL 100352Z 00000KT 9SM FEW070 SCT120 BKN150 OVC200 25/22 A3003 RMK AO2 SLP156 T02500222=
200608100252 METAR KATL 100252Z 23006KT 9SM FEW070 BKN120 BKN150 OVC200 25/22 A3004 RMK AO2 RAB04E42 SLP160 P0000 60090 T02500217 51015=
200608100152 METAR KATL 100152Z 21004KT 10SM FEW070 BKN110 OVC150 23/21 A3003 RMK AO2 TSE30RAE30 SLP159 P0001 T02330206=
200608100131 SPECI KATL 100131Z 15005KT 10SM FEW045 SCT100 BKN140 OVC200 23/21 A3003 RMK AO2 TSE30RAE30 TS MOV S OCNL LTG DSNT SE AND SW TCU W-NW P0001=
200608100131 SPECI KATL 100131Z 15005KT 10SM FEW045 SCT100 BKN140 OVC200 23/21 A3003 RMK AO2 TSE30RAE30 TS MOV S OCNL LTG DSNT SE AND SW TCU W-NW P0001=
200608100052 METAR KATL 100052Z 22007KT 8SM -TSRA FEW040CB SCT070 BKN100 OVC200 24/22 A3003 RMK AO2 PK WND 32034/2356 WSHFT 2350 RAB2354 SLP159 CONS LTGCGICCA TS SE-S MOV SE P0089 T02440217=
200608100037 SPECI KATL 100037Z 00000KT 6SM -TSRA FEW010 BKN040CB BKN080 OVC150 26/21 A3004 RMK AO2 PK WND 32034/2356 WSHFT 2350 RAB2354 CONS LTGCG TS E-S MOV SE P0085=
200608100037 SPECI KATL 100037Z 00000KT 6SM -TSRA FEW010 BKN040CB BKN080 OVC150 26/21 A3004 RMK AO2 PK WND 32034/2356 WSHFT 2350 RAB2354 CONS LTGCG TS E-S MOV SE P0085=
200608100018 SPECI KATL 100018Z 36007G27KT 1 1/2SM +TSRA FEW010 OVC045CB 25/21 A3004 RMK AO2 PK WND 32034/2356 WSHFT 2350 SFC VIS 3 RAB2354 CONS LTGCG TS OHD-ALQDS MOV S P0053=
200608100018 SPECI KATL 100018Z 36007G27KT 1 1/2SM +TSRA FEW010 OVC045CB 25/21 A3004 RMK AO2 PK WND 32034/2356 WSHFT 2350 SFC VIS 3 RAB2354 CONS LTGCG TS OHD-ALQDS MOV S P0053=
200608100012 SPECI KATL 100012Z 36019G27KT 1SM +TSRA FEW010 OVC045CB 26/22 A3003 RMK AO2 PK WND 32034/2356 WSHFT 2350 RAB2354 FRQ LTGCG TS OHD-ALQDS MOV S P0034 RVRNO=
200608100012 SPECI KATL 100012Z 36019G27KT 1SM +TSRA FEW010 OVC045CB 26/22 A3003 RMK AO2 PK WND 32034/2356 WSHFT 2350 RAB2354 FRQ LTGCG TS OHD-ALQDS MOV S P0034 RVRNO=
200608100006 SPECI KATL 100006Z 36017G26KT 3/4SM +TSRA FEW010 OVC045CB 26/23 A3004 RMK AO2 PK WND 32034/2356 WSHFT 2350 TWR VIS 1 RAB2354 PRESRR FRQ LTGCG TS OHD-ALQDS MOV S P0025 RVRNO=
200608100006 SPECI KATL 100006Z 36017G26KT 3/4SM +TSRA FEW010 OVC045CB 26/23 A3004 RMK AO2 PK WND 32034/2356 WSHFT 2350 TWR VIS 1 RAB2354 PRESRR FRQ LTGCG TS OHD-ALQDS MOV S P0025 RVRNO=
200608092359 SPECI KATL 092359Z 33018G34KT 1SM +TSRA BKN050CB BKN075 BKN100 OVC250 27/23 A3000 RMK AO2 PK WND 32034/2356 SFC VIS 1 1/2 RAB54 OCNL LTGCG TS N-OHD-SW MOV S P0007=
200608092359 SPECI KATL 092359Z 33018G34KT 1SM +TSRA BKN050CB BKN075 BKN100 OVC250 27/23 A3000 RMK AO2 PK WND 32034/2356 SFC VIS 1 1/2 RAB54 OCNL LTGCG TS N-OHD-SW MOV S P0007=
200608092352 METAR KATL 092352Z 27012KT 10SM TS SCT050CB BKN075 BKN100 OVC250 31/23 A2999 RMK AO2 TSB36 SLP145 OCNL LTGCG TS W-N MOV S VIS LWR W-N T03110228 10350 20311 55002=
200608092336 SPECI KATL 092336Z 26010KT 10SM TS FEW050CB SCT075 BKN100 BKN250 32/22 A2998 RMK AO2 TSB36 OCNL LTGCG TS VC NW MOV SE=
200608092336 SPECI KATL 092336Z 26010KT 10SM TS FEW050CB SCT075 BKN100 BKN250 32/22 A2998 RMK AO2 TSB36 OCNL LTGCG TS VC NW MOV SE=
200608092252 METAR KATL 092252Z 15007KT 10SM FEW055TCU SCT075 SCT200 BKN250 33/21 A2999 RMK AO2 SLP142 TCU OHD-N T03280211=
200608092152 METAR KATL 092152Z 16009KT 10SM FEW050 BKN250 33/22 A2999 RMK AO2 SLP142 TCU DSNT W-NW T03330222=
200608092052 METAR KATL 092052Z 14009KT 9SM FEW050 SCT100 SCT200 SCT250 34/23 A3000 RMK AO2 SLP147 TCU DSNT N T03440228 58027=
200608091952 METAR KATL 091952Z 14009KT 8SM FEW045TCU SCT100 SCT250 34/23 A3003 RMK AO2 SLP157 TCU NE AND DSNT S-SW T03390228=
200608091852 METAR KATL 091852Z 14009KT 10SM BKN060TCU BKN100 BKN250 33/23 A3006 RMK AO2 SLP167 LTG DSNT E-S CB DSNT E-S MOV SE TCU N-NE AND S SHRA DSNT E-S T03280228=
200608091752 METAR KATL 091752Z VRB04KT 10SM SCT060TCU BKN100 BKN250 34/21 A3008 RMK AO2 SLP174 LTG DSNT SE CB DSNT SE MOV SE TCU N-SE SHRA DSNT SE T03440211 10350 20244 58005=
200608091652 METAR KATL 091652Z 31009KT 10SM FEW050TCU SCT250 SCT300 33/22 A3009=
200608091552 METAR KATL 091552Z VRB03KT 9SM FEW045 SCT250 SCT300 32/22 A3011 RMK AO2 SLP183 T03220217=
200608091452 METAR KATL 091452Z 32005KT 9SM FEW200 SCT250 BKN300 31/22 A3010 RMK AO2 SLP179 T03060222 51002=
200608091352 METAR KATL 091352Z 33005KT 10SM FEW200 SCT250 BKN300 29/22 A3010 RMK AO2 SLP180 T02890217=
200608091252 METAR KATL 091252Z 32003KT 9SM FEW150 SCT250 SCT300 27/22 A3010 RMK AO2 SLP180 T02720217=
200608091152 METAR KATL 091152Z 32005KT 8SM FEW150 SCT250 BKN300 24/22 A3009 RMK AO2 SLP179 70002 T02440217 10250 20228 53002=
200608091052 METAR KATL 091052Z 32004KT 7SM SCT150 BKN250 23/20 A3009 RMK AO2 SLP178 T02280200=
200608090952 METAR KATL 090952Z COR 31005KT 9SM SCT250 23/20 A3008 RMK AO2 SLP174 T02280200=
200608090852 METAR KATL 090852Z 30007KT 9SM SCT250 23/20 A3009 RMK AO2 SLP177 T02280200 56008=
200608090752 METAR KATL 090752Z 28008KT 9SM FEW150 SCT250 23/21 A3009 RMK AO2 SLP178 T02280206=
200608090652 METAR KATL 090652Z 27009KT 10SM FEW150 SCT250 24/21 A3010 RMK AO2 SLP182 T02390211=
200608090552 METAR KATL 090552Z 25006KT 10SM FEW150 SCT250 24/21 A3011 RMK AO2 SLP185 T02440211 10300 20244 50000=
200608090452 METAR KATL 090452Z 21007KT 10SM FEW070 SCT150 BKN250 26/21 A3012 RMK AO2 SLP187 T02560206 403560244=
200608090352 METAR KATL 090352Z 27008KT 10SM FEW060 SCT200 BKN250 26/21 A3011 RMK AO2 SLP184 MDT CU E-SE T02560206=
200608090252 METAR KATL 090252Z 27005KT 10SM FEW090 SCT150 BKN250 28/22 A3011 RMK AO2 SLP183 FRQ LTG DSNT SE-S AND SW T02830222 51020=
200608090152 METAR KATL 090152Z 26004KT 10SM FEW090 SCT150 BKN250 28/21 A3010 RMK AO2 SLP180 OCNL LTG DSNT SE AND SW T02830211=
200608090052 METAR KATL 090052Z 27003KT 10SM FEW050 SCT150 SCT200 BKN250 29/21 A3008 RMK AO2 SLP174 CBMAM OHD-NE TCU DSNT E T02890206=
200608082352 METAR KATL 082352Z 27005KT 10SM FEW050 SCT200 BKN250 29/21 A3005 RMK AO2 SLP164 CB DSNT NE 60002 T02940206 10350 20278 56011=
200608082252 METAR KATL 082252Z 26007KT 10SM FEW050 SCT200 SCT250 32/20 A3005 RMK AO2 SLP165 TCU DSNT N AND NE T03170200=
200608082152 METAR KATL 082152Z 30009KT 10SM FEW050 SCT200 32/21 A3007 RMK AO2 SLP172 CB DSNT E-SE TCU DSNT NE T03220211=
200608082052 METAR KATL 082052Z 27009KT 10SM FEW040TCU SCT100 SCT250 32/22 A3008 RMK AO2 SLP175 TCU N-SE 60002 T03170222 56025=
200608081952 METAR KATL 081952Z VRB03KT 10SM FEW045 SCT090 SCT150 SCT250 33/19 A3009 RMK AO2 SLP177 CB DSNT SW-NW TCU DSNT NE AND NW T03330189=
200608081852 METAR KATL 081852Z VRB06KT 10SM FEW040TCU SCT090 SCT150 SCT250 31/21 A3013 RMK AO2 TSE07RAE07 SLP190 CB DSNT SE-S TCU NW P0002 T03060211=
200608081807 SPECI KATL 081807Z 13009KT 10SM FEW035 BKN070 BKN150 BKN250 28/20 A3016 RMK AO2 TSE07RAE07 LTG DSNT NE-S TS MOV S CB DSNT NE-S AND=
200608081807 SPECI KATL 081807Z 13009KT 10SM FEW035 BKN070 BKN150 BKN250 28/20 A3016 RMK AO2 TSE07RAE07 LTG DSNT NE-S TS MOV S CB DSNT NE-S AND=
200608081800 SPECI KATL 081800Z 09008KT 10SM -TSRA SCT024CB SCT033TCU BKN070 BKN150 BKN250 29/21 A3016 RMK AO2 FRQ LTGICCG TS VC E MOV S CB DSNT N-NE TCU W P0002 $=
200608081800 SPECI KATL 081800Z 09008KT 10SM -TSRA SCT024CB SCT033TCU BKN070 BKN150 BKN250 29/21 A3016 RMK AO2 FRQ LTGICCG TS VC E MOV S CB DSNT N-NE TCU W P0002 $=
200608081752 METAR KATL 081752Z 08006KT 10SM -TSRA SCT024CB BKN055 BKN070 BKN150 BKN250 29/20 A3016 RMK AO2 TSB32RAB01 SLP201 CNS LTGICCG TS VC E STNRY TCU DSNT W-N P0000 60000 T02940200 10356 20256 58002 PNO $=
200608081744 SPECI KATL 081744Z 03006KT 10SM -TSRA BKN024CB BKN055 BKN070 BKN150 BKN250 29/21 A3016 RMK AO2 TSB32RAB01 CNS LTGICCG TS VC E STNRY TCU DSNT W-N P0000 PNO=
200608081744 SPECI KATL 081744Z 03006KT 10SM -TSRA BKN024CB BKN055 BKN070 BKN150 BKN250 29/21 A3016 RMK AO2 TSB32RAB01 CNS LTGICCG TS VC E STNRY TCU DSNT W-N P0000 PNO=
200608081732 SPECI KATL 081732Z 35014KT 10SM -TSRA BKN048CB BKN060TCU BKN090 BKN250 29/22 A3015 RMK AO2 TSB32RAB01 OCNL LTGICCG TS VC NE AND SE STNRY TCU NW P0000=
200608081732 SPECI KATL 081732Z 35014KT 10SM -TSRA BKN048CB BKN060TCU BKN090 BKN250 29/22 A3015 RMK AO2 TSB32RAB01 OCNL LTGICCG TS VC NE AND SE STNRY TCU NW P0000=
200608081652 METAR KATL 081652Z 33007KT 300V020 10SM BKN055TCU BKN250 34/22 A3016 RMK AO2 SLP198 CB DSNT SE TCU E AND OHD-NW-N SHRA DSNT SE T03440217=
200608081552 METAR KATL 081552Z 33008KT 10SM FEW060 SCT090 BKN250 34/20 A3017 RMK AO2 SLP202 T03390200=
200608081452 METAR KATL 081452Z 34007KT 9SM FEW150 SCT250 32/22 A3017 RMK AO2 SLP202 T03220222 51008=
200608081352 METAR KATL 081352Z 31005KT 10SM FEW090 SCT150 SCT250 31/21 A3016 RMK AO2 SLP200 ACC S T03060211=
200608081252 METAR KATL 081252Z 31003KT 10SM FEW150 28/21 A3015 RMK AO2 SLP198 T02780211=
200608081152 METAR KATL 081152Z 00000KT 7SM CLR 26/22 A3014 RMK AO2 SLP194 T02560217 10272 20244 53008=
200608081052 METAR KATL 081052Z 31004KT 9SM CLR 25/21 A3012 RMK AO2 SLP188 T02500211=
200608080952 METAR KATL 080952Z 00000KT 9SM CLR 26/21 A3012 RMK AO2 SLP188 T02560211=
200608080852 METAR KATL 080852Z 27005KT 10SM CLR 26/22 A3012 RMK AO2 SLP185 T02610217 56011=
200608080752 METAR KATL 080752Z 25004KT 10SM FEW250 27/22 A3012 RMK AO2 SLP187 T02670217=
200608080652 METAR KATL 080652Z 23005KT 10SM FEW250 27/22 A3014 RMK AO2 SLP192 T02670217=
200608080552 METAR KATL 080552Z 25007KT 10SM FEW150 SCT250 27/22 A3015 RMK AO2 SLP197 T02720217 10328 20272 58009=
200608080452 METAR KATL 080452Z 22004KT 10SM FEW150 SCT250 28/22 A3016 RMK AO2 SLP201 T02780217 403610244=
200608080352 METAR KATL 080352Z 22006KT 10SM FEW150 SCT200 BKN250 28/22 A3018 RMK AO2 SLP207 T02830217=
200608080252 METAR KATL 080252Z 21005KT 10SM FEW150 BKN250 29/22 A3018 RMK AO2 SLP206 T02890217 51013=
200608080152 METAR KATL 080152Z 18006KT 10SM FEW150 BKN250 30/22 A3017 RMK AO2 SLP203 T03000217=
200608080052 METAR KATL 080052Z 19007KT 9SM FEW100 BKN250 31/22 A3015 RMK AO2 SLP197 T03110222=
200608072352 METAR KATL 072352Z 13007KT 8SM FEW085 SCT250 33/22 A3014 RMK AO2 SLP192 T03280217 10361 20328 55002=
200608072252 METAR KATL 072252Z COR 30008KT 10SM FEW065CB SCT100 34/16 A3012 RMK AO2 SLP188 CB VC N-NE MOV STNRY TCU E-SE SHRA VC N-NE T03440178=
200608072152 METAR KATL 072152Z 28006KT 9SM FEW060TCU 34/19 A3012 RMK AO2 SLP188 TCU NE AND DSNT SW MDT CU SE T03440194=
200608072052 METAR KATL 072052Z 24007KT 9SM SCT060TCU 35/20 A3014 RMK AO2 SLP194 TCU NE-OHD-S T03500200 58023=
200608071952 METAR KATL 071952Z 31007KT 7SM SCT055TCU 35/18 A3017 RMK AO2 SLP202 TCU NE-SE T03500183=
200608071852 METAR KATL 071852Z VRB04KT 7SM SCT050 34/21 A3019 RMK AO2 SLP211 MDT CU N-SE T03440211=
200608071752 METAR KATL 071752Z 30006KT 6SM HZ SCT050 33/19 A3021 RMK AO2 SLP218 MDT CU NE-S T03330189 10339 20261 58010=
200608071652 METAR KATL 071652Z VRB05KT 9SM FEW045TCU 33/22 A3023 RMK AO2 SLP224 TCU N-SE T03280217=
200608071552 METAR KATL 071552Z VRB06KT 10SM FEW040 SCT250 32/23 A3024 RMK AO2 SLP229 T03170228=
200608071452 METAR KATL 071452Z 31007KT 10SM SCT250 30/21 A3024 RMK AO2 SLP230 T03000211 51011=
200608071352 METAR KATL 071352Z 32007KT 10SM FEW250 29/23 A3023 RMK AO2 SLP227 T02940228=
200608071252 METAR KATL 071252Z 33004KT 7SM FEW075 SCT250 28/23 A3023 RMK AO2 SLP226 T02780228=
200608071152 METAR KATL 071152Z 00000KT 6SM HZ FEW150 SCT250 26/22 A3021 RMK AO2 SLP218 70012 T02560222 10267 20244 53014=
200608071052 METAR KATL 071052Z 29003KT 5SM HZ CLR 24/22 A3019 RMK AO2 SLP213 T02440217 $=
200608070952 METAR KATL 070952Z 00000KT 6SM HZ CLR 25/22 A3017 RMK AO2 SLP207 T02500222 $=
200608070852 METAR KATL 070852Z 00000KT 6SM HZ FEW250 25/22 A3017 RMK AO2 SLP205 T02500222 58001 $=
200608070752 METAR KATL 070752Z 00000KT 6SM BR FEW050 SCT250 26/24 A3017 RMK AO2 SLP205 T02560239 $=
200608070652 METAR KATL 070652Z 00000KT 6SM BR FEW250 26/23 A3017 RMK AO2 SLP204 T02560233 $=
200608070552 METAR KATL 070552Z 00000KT 6SM HZ FEW180 SCT250 27/24 A3017 RMK AO2 SLP205 T02670239 10300 20261 58001 $=
200608070452 METAR KATL 070452Z 00000KT 6SM HZ SCT250 27/22 A3017 RMK AO2 SLP206 T02670222 403170222 $=
200608070352 METAR KATL 070352Z VRB04KT 7SM CLR 27/22 A3017 RMK AO2 SLP206 T02720222 $=
200608070252 METAR KATL 070252Z 10003KT 7SM FEW250 28/22 A3017 RMK AO2 SLP206 T02780222 51013 $=
200608070152 METAR KATL 070152Z VRB05KT 7SM FEW150 SCT250 28/22 A3017 RMK AO2 SLP204 T02830217 $=
200608070052 METAR KATL 070052Z 13004KT 6SM HZ FEW150 SCT250 29/21 A3015 RMK AO2 SLP200 T02940211 $=
200608062352 METAR KATL 062352Z 10006KT 6SM HZ FEW150 BKN250 30/21 A3013 RMK AO2 SLP193 60012 T03000211 10311 20239 55002 $=
200608062252 METAR KATL 062252Z 09004KT 5SM HZ FEW090 BKN250 29/22 A3013 RMK AO2 SLP191 CB DSNT SE TCU DSNT SW T02940217 $=
200608062152 METAR KATL 062152Z 00000KT 6SM HZ FEW032 SCT150 BKN250 29/22 A3013 RMK AO2 TSE05 SLP192 TS DSIPT CB DSNT SE T02890217 $=
200608062107 SPECI KATL 062107Z 29008KT 6SM HZ FEW043 BKN250 25/21 A3014 RMK AO2 TSE05 TS DSIPT TCU DSNT SE $=
200608062107 SPECI KATL 062107Z 29008KT 6SM HZ FEW043 BKN250 25/21 A3014 RMK AO2 TSE05 TS DSIPT TCU DSNT SE $=
200608062052 METAR KATL 062052Z 32008KT 6SM TS HZ SCT043CB SCT055 BKN065 BKN150 25/21 A3014 RMK AO2 WSHFT 2007 TSB1959RAB02E32 SLP197 OCNL LTGIC TS OHD-SW-W-NW MOV STNRY VIRGA SW SHRA W-NW P0012 60012 T02500211 56007 $=
200608062025 SPECI KATL 062025Z 29012KT 6SM -TSRA FEW026 BKN035CB BKN060 24/22 A3014 RMK AO2 WSHFT 2007 TSB1959RAB02 OCNL LTGCG TS VC W-NW MOV NW SHRA VC SW-NW P0012 $=
200608062025 SPECI KATL 062025Z 29012KT 6SM -TSRA FEW026 BKN035CB BKN060 24/22 A3014 RMK AO2 WSHFT 2007 TSB1959RAB02 OCNL LTGCG TS VC W-NW MOV NW SHRA VC SW-NW P0012 $=
200608062000 SPECI KATL 062000Z 05010KT 6SM TS HZ BKN035CB BKN150 30/21 A3014 RMK AO2 TSB1959 OCNL LTGCG TS VC W MOV NW SHRA VC W $=
200608062000 SPECI KATL 062000Z 05010KT 6SM TS HZ BKN035CB BKN150 30/21 A3014 RMK AO2 TSB1959 OCNL LTGCG TS VC W MOV NW SHRA VC W $=
200608061952 METAR KATL 061952Z 05009KT 6SM HZ BKN035TCU BKN150 31/21 A3014 RMK AO2 SLP196 VIRGA VC SW AND W TCU OHD-S-NW T03060211 $=
200608061852 METAR KATL 061852Z 32006KT 6SM HZ BKN035TCU BKN046 BKN150 31/22 A3015 RMK AO2 SLP199 TCU OHD-SW-NW AND DSNT SE-S T03060217 $=
200608061752 METAR KATL 061752Z 03007KT 6SM HZ BKN031TCU BKN041 BKN055 30/22 A3016 RMK AO2 SLP202 VIRGA VC W TCU VC SW-NW T03000217 10317 20228 58005 $=
200608061652 METAR KATL 061652Z VRB03KT 7SM SCT030TCU BKN150 31/22 A3017 RMK AO2 SLP205 TCU VC S T03060217 $=
200608061552 METAR KATL 061552Z VRB03KT 7SM SCT035 SCT150 29/21 A3018 RMK AO2 SLP209 T02940211 $=
200608061452 METAR KATL 061452Z VRB06KT 8SM FEW030 SCT150 BKN250 28/21 A3018 RMK AO2 SLP208 T02830211 51011 $=
200608061352 METAR KATL 061352Z 09006KT 8SM FEW070 SCT150 BKN250 27/21 A3018 RMK AO2 SLP208 T02670211 $=
200608061252 METAR KATL 061252Z 10006KT 7SM SCT250 24/21 A3017 RMK AO2 SLP206 T02440211 $=
200608061152 METAR KATL 061152Z 08010KT 7SM FEW150 SCT250 23/21 A3014 RMK AO2 SLP199 T02280206 10233 20222 52023 $=
200608061052 METAR KATL 061052Z 08007KT 8SM SCT250 23/21 A3013 RMK AO2 SLP193 T02280206 $=
200608060952 METAR KATL 060952Z 07009KT 9SM BKN200 23/21 A3009 RMK AO2 SLP181 T02280206 $=
200608060852 METAR KATL 060852Z 05005KT 10SM BKN200 23/21 A3008 RMK AO2 SLP175 T02330206 55004 $=
200608060752 METAR KATL 060752Z 08007KT 9SM FEW039 SCT150 23/21 A3006 RMK AO2 SLP169 T02330206 $=
200608060652 METAR KATL 060652Z 08005KT 10SM SCT047 BKN150 23/21 A3007 RMK AO2 SLP170 T02330206 $=
200608060552 METAR KATL 060552Z 07006KT 10SM FEW044 SCT060 BKN150 23/21 A3009 RMK AO2 SLP177 T02330206 10250 20233 50002 $=
200608060452 METAR KATL 060452Z 07007KT 10SM FEW049 SCT150 OVC200 24/21 A3009 RMK AO2 SLP178 T02390206 403560233 $=
200608060352 METAR KATL 060352Z 07007KT 10SM OVC200 24/21 A3009 RMK AO2 SLP177 T02440206 $=
200608060252 METAR KATL 060252Z 08006KT 10SM FEW120 OVC200 24/21 A3008 RMK AO2 SLP175 T02440206 53020 $=
200608060152 METAR KATL 060152Z 08009KT 9SM FEW150 OVC200 24/21 A3006 RMK AO2 SLP167 T02390206 $=
200608060052 METAR KATL 060052Z 10009KT 7SM FEW120 SCT150 OVC200 25/21 A3004 RMK AO2 SLP163 T02500206 $=
200608052352 METAR KATL 052352Z 07013KT 7SM FEW120 BKN150 BKN200 25/21 A3002 RMK AO2 RAB18E31 SLP156 P0000 60000 T02500211 10356 20250 53006 $=
200608052252 METAR KATL 052252Z 23003KT 7SM FEW070 SCT120 BKN250 26/19 A3001 RMK AO2 RAE2158 SLP152 CB DSNT SE P0000 T02560194 $=
200608052152 METAR KATL 052152Z 27005KT 7SM -RA FEW045 BKN095 26/19 A3000 RMK AO2 SLP149 TSE48RAB13 TS MOV N-NE CB DSNT NE P0000 T02560194 $=
200608052052 METAR KATL 052052Z 22013G20KT 5SM TS HZ BKN039CB 25/22 A3000 RMK AO2 WSHFT 2018 TSB33 SLP150 FRQ LTGICCGCC TS E-S-W MOV NW CB OHD-E-S-W MOV NW T02500217 55004 $=
200608052032 SPECI KATL 052032Z 18016G25KT 2 1/2SM HZ SCT044CB BKN060 BKN085 28/21 A2999 RMK AO2 WSHFT 2018 FRQ LTGICCG S-SW MOV NW CB DSNT SE-S MOV NW SHRA DSNT SE-W $=
200608052032 SPECI KATL 052032Z 18016G25KT 2 1/2SM HZ SCT044CB BKN060 BKN085 28/21 A2999 RMK AO2 WSHFT 2018 FRQ LTGICCG S-SW MOV NW CB DSNT=
200608051952 METAR KATL 051952Z 08012KT 9SM SCT050TCU BKN070 BKN085 33/20 A2997 RMK AO2 SLP136 TCU OHD-SW-NW TCU DSNT SE-N T03280200 $=
200608051852 METAR KATL 051852Z VRB05KT 9SM BKN055TCU 35/19 A3000 RMK AO2 SLP146 TCU OHD-ALQDS T03500194 $=
200608051752 METAR KATL 051752Z 06008KT 030V090 9SM SCT045TCU 34/21 A3002 RMK AO2 SLP151 TCU OHD TCU DSNT E AND S AND SW AND NW T03440206 10350 20250 58004 $=
200608051652 METAR KATL 051652Z 12004KT 9SM FEW050 32/21 A3002 RMK AO2 SLP153 T03220206 $=
200608051552 METAR KATL 051552Z 04005KT 9SM CLR 32/21 A3003 RMK AO2 SLP156 T03170206 $=
200608051452 METAR KATL 051452Z VRB05KT 9SM FEW250 31/20 A3003 RMK AO2 SLP155 T03060200 51003 $=
200608051352 METAR KATL 051352Z 01009KT 9SM FEW150 SCT250 29/20 A3003 RMK AO2 SLP156 T02890200 $=
200608051252 METAR KATL 051252Z 34007KT 9SM FEW250 26/20 A3003 RMK AO2 SLP156 T02610200 $=
200608051152 METAR KATL 051152Z 34007KT 10SM FEW180 SCT250 25/20 A3002 RMK AO2 SLP152 T02500200 10261 20233 53010 $=
200608051052 METAR KATL 051052Z 35005KT 10SM FEW250 24/20 A3000 RMK AO2 SLP144 T02390200 $=
200608050952 METAR KATL 050952Z 30005KT 10SM CLR 23/20 A2998 RMK AO2 SLP140 T02330200 $=
200608050852 METAR KATL 050852Z 28006KT 10SM CLR 24/20 A2999 RMK AO2 SLP142 T02390200 58010 $=
200608050752 METAR KATL 050752Z 27007KT 10SM CLR 24/20 A3000 RMK AO2 SLP145 T02440200 $=
200608050652 METAR KATL 050652Z VRB05KT 10SM SCT200 26/19 A3002 RMK AO2 SLP151 T02560194 $=
200608050552 METAR KATL 050552Z 18010KT 10SM BKN150 26/20 A3002 RMK AO2 SLP151 60000 T02610200 10344 20256 53007 $=
200608050452 METAR KATL 050452Z 00000KT 10SM FEW150 BKN200 BKN250 27/21 A2999 RMK AO2 SLP144 T02670211 403670250=
200608050352 METAR KATL 050352Z 35008KT 10SM FEW080 BKN150 BKN200 OVC250 27/21 A2999 RMK AO2 RAE05 SLP141 P0000 T02720211=
200608050252 METAR KATL 050252Z 01010KT 10SM -RA FEW100 BKN140 OVC200 28/21 A3000 RMK AO2 RAB50 SLP145 P0000 60000 T02830206 50013=
200608050152 METAR KATL 050152Z 36013KT 10SM FEW100 BKN150 OVC200 29/21 A3000 RMK AO2 WSHFT 0043 RAE13 SLP147 OCNL LTG DSNT NE P0000 T02890206=
200608050101 SPECI KATL 050101Z 33021G25KT 10SM -RA FEW055 SCT080 BKN130 OVC200 29/21 A2998 RMK AO2 WSHFT 0043 FRQ LTG DSNT NE P0000=
200608050101 SPECI KATL 050101Z 33021G25KT 10SM -RA FEW055 SCT080 BKN130 OVC200 29/21 A2998 RMK AO2 WSHFT 0043 FRQ LTG DSNT NE P0000=
200608050052 METAR KATL 050052Z 34018G23KT 9SM -RA FEW060 SCT080 BKN120 OVC200 30/21 A2996 RMK AO2 TSB19E52RAB38 SLP134 TS DSIPTD FRQ LTG DSNT NE TCU DSNT SW P0000 T03000211=
200608050019 SPECI KATL 050019Z 33008KT 10SM TS FEW065CB SCT100 BKN150 BKN200 34/19 A2997 RMK AO2 TSB19 OCNL LTGCGIC TS VC NE MOV SW=
200608050019 SPECI KATL 050019Z 33008KT 10SM TS FEW065CB SCT100 BKN150 BKN200 34/19 A2997 RMK AO2 TSB19 OCNL LTGCGIC TS VC NE MOV SW=
200608042352 METAR KATL 042352Z 30010KT 10SM FEW065 SCT140 BKN200 BKN250 34/19 A2996 RMK AO2 SLP131 CB DSNT NE T03440194 10367 20344 53004=
200608042252 METAR KATL 042252Z 31009KT 10SM FEW070 SCT200 SCT250 36/18 A2994 RMK AO2 SLP125 CB DSNT NE T03560183=
200608042152 METAR KATL 042152Z 33009KT 10SM FEW075 37/18 A2993 RMK AO2 SLP122 CB DSNT NE TCU DSNT NW T03670178=
200608042052 METAR KATL 042052Z 33008KT 10SM FEW070 SCT250 37/19 A2994 RMK AO2 SLP125 T03670189 56022 $=
200608041952 METAR KATL 041952Z 30009KT 260V340 10SM FEW070 SCT250 35/18 A2995 RMK AO2 SLP128 T03500183=
200608041852 METAR KATL 041852Z 27008KT 250V320 10SM FEW070 SCT250 35/18 A2998 RMK AO2 SLP139 T03500183=
200608041752 METAR KATL 041752Z 28007KT 10SM FEW065 SCT250 36/19 A3001 RMK AO2 SLP148 T03560194 10356 20261 58009=
200608041652 METAR KATL 041652Z 34011KT 10SM FEW065 SCT250 34/19 A3003 RMK AO2 SLP155 T03440194=
200608041552 METAR KATL 041552Z 34011KT 10SM FEW250 34/21 A3004 RMK AO2 SLP159 T03390211=
200608041452 METAR KATL 041452Z 35009KT 10SM FEW150 SCT250 32/21 A3004 RMK AO2 SLP158 T03220211 50003=
200608041352 METAR KATL 041352Z 32009KT 9SM FEW250 29/21 A3004 RMK AO2 SLP160 T02940206=
200608041252 METAR KATL 041252Z 31007KT 9SM FEW090 SCT250 28/21 A3004 RMK AO2 SLP159 T02780206=
200608041152 METAR KATL 041152Z 30010KT 10SM FEW090 SCT250 26/21 A3003 RMK AO2 SLP155 ACC VC SE T02610206 10283 20250 53009=
200608041052 METAR KATL 041052Z 30009KT 10SM FEW075 SCT100 SCT250 26/20 A3002 RMK AO2 SLP152 ACC VC E T02560200=
200608040952 METAR KATL 040952Z 28007KT 10SM FEW090 26/19 A3001 RMK AO2 SLP147 T02560189=
200608040852 METAR KATL 040852Z 27006KT 10SM FEW070 SCT250 26/20 A3000 RMK AO2 SLP146 T02610200 55004=
200608040752 METAR KATL 040752Z 26005KT 10SM FEW070 SCT140 SCT250 27/20 A2999 RMK AO2 SLP142 T02720200=
200608040652 METAR KATL 040652Z 24006KT 10SM FEW065 BKN140 BKN250 28/21 A3000 RMK AO2 SLP146 T02830211=
200608040552 METAR KATL 040552Z 27005KT 10SM BKN140 BKN250 28/21 A3001 RMK AO2 SLP148 T02830211 10322 20283 58007=
200608040452 METAR KATL 040452Z 28004KT 10SM FEW080 BKN140 BKN250 29/22 A3002 RMK AO2 SLP152 T02890217 403610244=
200608040352 METAR KATL 040352Z 27006KT 10SM FEW080 SCT130 BKN250 29/21 A3002 RMK AO2 SLP153 T02940211=
200608040252 METAR KATL 040252Z 23005KT 10SM SCT085 BKN120 BKN250 31/21 A3003 RMK AO2 SLP155 T03060211 51017=
200608040152 METAR KATL 040152Z 27007KT 10SM BKN140 BKN250 31/21 A3002 RMK AO2 SLP152 T03060211=
200608040052 METAR KATL 040052Z 26004KT 10SM BKN140 BKN250 31/21 A3000 RMK AO2 SLP144 T03060206=
200608032352 METAR KATL 032352Z 30006KT 10SM BKN140 BKN200 OVC250 32/19 A2998 RMK AO2 SLP140 T03220194 10361 20322 53001=
200608032252 METAR KATL 032252Z 31008KT 10SM FEW055TCU SCT140 BKN200 OVC250 33/21 A2997 RMK AO2 SLP137 TCU VC SE T03280206=
200608032152 METAR KATL 032152Z 29008KT 10SM FEW060TCU SCT150 BKN250 35/21 A2997 RMK AO2 SLP136 TCU VC W-NW T03500206=
200608032052 METAR KATL 032052Z 22008KT 9SM FEW060 SCT100 SCT250 35/21 A2998 RMK AO2 SLP138 MDT CU NW-N T03500206 58020=
200608031952 METAR KATL 031952Z 26012KT 10SM FEW060 SCT100 36/21 A3000 RMK AO2 SLP145 CB DSNT E TCU DSNT S SHRA DSNT E T03610206=
200608031852 METAR KATL 031852Z 26011KT 10SM BKN055TCU 34/21 A3002 RMK AO2 SLP152 TCU OHD-NE-S AND DSNT NW T03390206=
200608031752 METAR KATL 031752Z 32007KT 240V350 10SM FEW050TCU 33/21 A3004 RMK AO2 SLP159 TCU NE-E AND DSNT SW-NW T03330211 10350 20261 58012=
200608031652 METAR KATL 031652Z VRB06KT 10SM SCT049TCU 33/22 A3006 RMK AO2 SLP166 TCU N-SW T03330222=
200608031552 METAR KATL 031552Z 33014KT 10SM FEW040 33/23 A3007 RMK AO2 SLP170 T03330228=
200608031452 METAR KATL 031452Z 30006KT 10SM CLR 32/23 A3008 RMK AO2 SLP171 T03170228=
200608031352 METAR KATL 031352Z 31010KT 9SM FEW120 29/22 A3008 RMK AO2 SLP173 T02940222 $=
200608031252 METAR KATL 031252Z 29009KT 8SM CLR 28/22 A3007 RMK AO2 SLP171 T02780222=
200608031152 METAR KATL 031152Z 29006KT 6SM HZ CLR 26/22 A3006 RMK AO2 SLP166 T02560222 10261 20244 53011=
200608031052 METAR KATL 031052Z 29007KT 7SM CLR 25/21 A3004 RMK AO2 SLP160 T02500211=
200608030952 METAR KATL 030952Z 27005KT 7SM CLR 25/21 A3003 RMK AO2 SLP157 T02500211=
200608030852 METAR KATL 030852Z 24003KT 7SM CLR 26/21 A3002 RMK AO2 SLP154 T02610211 55002=
200608030752 METAR KATL 030752Z 26004KT 7SM CLR 26/21 A3002 RMK AO2 SLP152 T02560206=
200608030652 METAR KATL 030652Z 26004KT 7SM CLR 26/21 A3002 RMK AO2 SLP151 T02560211=
200608030552 METAR KATL 030552Z 27004KT 8SM FEW070 26/21 A3003 RMK AO2 SLP156 T02610211 10317 20261 58008=
200608030452 METAR KATL 030452Z 28004KT 10SM FEW150 SCT250 28/22 A3005 RMK AO2 SLP162 T02780222 403500222=
200608030352 METAR KATL 030352Z 24005KT 10SM FEW150 SCT250 28/22 A3005 RMK AO2 SLP163 T02780217=
200608030252 METAR KATL 030252Z 20005KT 10SM FEW150 SCT200 BKN250 28/22 A3005 RMK AO2 SLP164 T02830222 51010=
200608030152 METAR KATL 030152Z 00000KT 10SM FEW100 SCT150 OVC200 28/21 A3004 RMK AO2 TSE25 SLP161 TS DSIPTD T02830206=
200608030125 SPECI KATL 030125Z 00000KT 10SM FEW045 SCT120 BKN150 BKN200 28/22 A3004 RMK AO2 TSE25 TS DSIPTD=
200608030125 SPECI KATL 030125Z 00000KT 10SM FEW045 SCT120 BKN150 BKN200 28/22 A3004 RMK AO2 TSE25 TS DSIPTD=
200608030052 METAR KATL 030052Z 00000KT 9SM TS FEW045CB SCT100 BKN150 BKN200 30/23 A3005 RMK AO2 TSB13 SLP165 FRQ LTGICCG TS VC NE-SE MOV SW T03000228=
200608030014 SPECI KATL 030014Z 26010KT 9SM TS FEW050CB SCT120 BKN250 31/23 A3002 RMK AO2 TSB13 FRQ LTGCG TS VC NE-E MOV S=
200608030014 SPECI KATL 030014Z 26010KT 9SM TS FEW050CB SCT120 BKN250 31/23 A3002 RMK AO2 TSB13 FRQ LTGCG TS VC NE-E MOV S=
200608022352 METAR KATL 022352Z 27012KT 9SM FEW050 SCT120 BKN250 32/23 A3002 RMK AO2 SLP154 MDT CU SE CB DSNT NE AND E T03220228 10350 20322 55001=
200608022252 METAR KATL 022252Z 27009KT 9SM FEW050CB SCT250 33/22 A3001 RMK AO2 SLP149 CB VC SE AND DSNT N MOV STNRY SHRA VC SE T03330222=
200608022152 METAR KATL 022152Z 28007KT 8SM FEW050TCU SCT250 34/22 A3001 RMK AO2 SLP152 TCU SE T03440222=
200608022052 METAR KATL 022052Z 25007KT 8SM FEW050 34/22 A3003 RMK AO2 SLP155 MDT CU NE-SE T03390222 56023=
200608021952 METAR KATL 021952Z 30008KT 6SM HZ FEW055 35/22 A3003 RMK AO2 SLP158 CB DSNT NE T03500222=
200608021852 METAR KATL 021852Z 32009KT 280V340 9SM FEW040 33/23 A3008 RMK AO2 SLP173 T03330228=
200608021752 METAR KATL 021752Z 30007G14KT 280V340 9SM SCT042 33/23 A3010 RMK AO2 SLP180 MDT CU NE-E T03330228 10339 20233 58008=
200608021652 METAR KATL 021652Z 28009KT 8SM FEW040 SCT060 33/23 A3011 RMK AO2 SLP184 MDT CU NE AND S-SW T03280228=
200608021552 METAR KATL 021552Z 32009KT 9SM FEW040 SCT100 31/23 A3012 RMK AO2 SLP188 ACC DSNT S T03110228=
200608021452 METAR KATL 021452Z 30010KT 9SM CLR 30/23 A3012 RMK AO2 SLP189 T03000228 50005=
200608021352 METAR KATL 021352Z 30010KT 8SM CLR 28/22 A3013 RMK AO2 SLP190 T02830222=
200608021252 METAR KATL 021252Z 28007KT 8SM CLR 26/22 A3011 RMK AO2 SLP187 T02610217=
200608021152 METAR KATL 021152Z 28006KT 7SM CLR 23/20 A3011 RMK AO2 SLP185 T02330200 10233 20222 51014 $=
200608021052 METAR KATL 021052Z 28003KT 9SM CLR 22/19 A3010 RMK AO2 SLP182 T02220189 $=
200608020952 METAR KATL 020952Z 30005KT 10SM CLR 22/19 A3008 RMK AO2 SLP174 T02220189 $=
200608020852 METAR KATL 020852Z 30006KT 9SM CLR 22/19 A3007 RMK AO2 SLP172 T02220194 55003 $=
200608020752 METAR KATL 020752Z 27003KT 9SM CLR 22/19 A3006 RMK AO2 SLP168 T02220189 $=
200608020652 METAR KATL 020652Z 27005KT 9SM FEW250 22/19 A3007 RMK AO2 SLP169 T02220189 $=
200608020552 METAR KATL 020552Z 00000KT 10SM FEW250 23/20 A3008 RMK AO2 SLP173 T02330200 10289 20228 58005 $=
200608020452 METAR KATL 020452Z 28005KT 10SM FEW250 23/19 A3009 RMK AO2 SLP176 T02280189 403500228=
200608020352 METAR KATL 020352Z 00000KT 10SM FEW250 24/19 A3008 RMK AO2 SLP176 T02390189=
200608020252 METAR KATL 020252Z 29007KT 10SM FEW250 24/19 A3009 RMK AO2 SLP178 T02390189 51011=
200608020152 METAR KATL 020152Z 26007KT 10SM FEW150 SCT250 24/20 A3009 RMK AO2 SLP178 T02390200=
200608020052 METAR KATL 020052Z 32010KT 10SM FEW100 SCT250 26/21 A3009 RMK AO2 SLP178 OCNL LTG DSNT SW-W T02560211=
200608012352 METAR KATL 012352Z 22006KT 6SM HZ FEW070 SCT100 BKN150 OVC200 28/23 A3006 RMK AO2 TSE03RAE29 SLP167 CB DSNT NW P0000 60000 T02830228 10350 20272 53006=
200608012303 SPECI KATL 012303Z 17011KT 7SM -RA FEW050 SCT100 BKN150 BKN250 28/22 A3004 RMK AO2 TSE03 TS MOV SW P0000=
200608012303 SPECI KATL 012303Z 17011KT 7SM -RA FEW050 SCT100 BKN150 BKN250 28/22 A3004 RMK AO2 TSE03 TS MOV SW P0000=
200608012252 METAR KATL 012252Z 17009KT 7SM -TSRA FEW050CB SCT100 BKN150 BKN250 28/21 A3004 RMK AO2 RAB51 SLP160 FRQ LTGCG TS VC S MOV SW TCU VC W P0000 T02830211=
200608012152 METAR KATL 012152Z 24007KT 9SM TS FEW050CB SCT080 BKN150 BKN250 34/20 A3003 RMK AO2 TSB27RAE2056 SLP155 FRQ LTGCG TS VC E-SE MOV W P0000 T03390200=
200608012127 SPECI KATL 012127Z 25006KT 8SM TS FEW050CB SCT080 BKN250 32/20 A3003 RMK AO2 TSB27RAE2056 OCNL LTGCG TS VC NE MOV W P0000=
200608012127 SPECI KATL 012127Z 25006KT 8SM TS FEW050CB SCT080 BKN250 32/20 A3003 RMK AO2 TSB27RAE2056 OCNL LTGCG TS VC NE MOV W P0000=
200608012052 METAR KATL 012052Z 24007G22KT 9SM -RA BKN055CB BKN075 BKN250 28/21 A3004 RMK AO2 RAB28 SLP160 VIS SE-SW LWR BLDU CB OHD-SW-NW MOV STNRY P0000 60000 T02830211 56018=
200608012044 SPECI KATL 012044Z 24018G24KT 9SM -RA BKN055CB BKN085 BKN250 33/23 A3004 RMK AO2 RAB28 VIS SW-W LWR SHRA CB OHD-SW-W MOV W P0000=
200608012044 SPECI KATL 012044Z 24018G24KT 9SM -RA BKN055CB BKN085 BKN250 33/23 A3004 RMK AO2 RAB28 VIS SW-W LWR SHRA CB OHD-SW-W MOV W P0000=
200608011952 METAR KATL 011952Z 25007KT 9SM BKN050TCU 34/22 A3005 RMK AO2 SLP163 TCU OHD-NE-S T03390222=
200608011852 METAR KATL 011852Z 31009KT 9SM SCT050TCU 33/22 A3007 RMK AO2 SLP169 TCU=
200608011752 METAR KATL 011752Z VRB04KT 9SM SCT045TCU 33/22 A3009 RMK AO2 SLP177 TCU NE-SW T03280217 10339 20256 58013=
200608011652 METAR KATL 011652Z 02004KT 9SM SCT040 33/23 A3011 RMK AO2 SLP183 MDT CU E-NW T03280233=
200608011552 METAR KATL 011552Z 30009KT 8SM FEW035 31/23 A3012 RMK AO2 SLP188 T03110233=
200608011452 METAR KATL 011452Z 30007KT 9SM FEW080 31/23 A3013 RMK AO2 SLP190 T03110233 51010=
200608011352 METAR KATL 011352Z 28006KT 9SM CLR 29/23 A3012 RMK AO2 SLP188 T02940233=
200608011252 METAR KATL 011252Z 28007KT 9SM FEW075 28/23 A3012 RMK AO2 SLP187 T02780228=
