##########################################################
# Query made at 04/19/2024 22:54:14 UTC
# Time interval: from 01/01/2006 12:00  to 01/31/2006 12:59  UTC
##########################################################

##########################################################
# KATL, Atlanta, Hartsfield - Jackson Atlanta International Airport (United States)
# WMO index: 72219. WIGOS ID: 0-20000-0-72219
# Latitude 33-38-59N. Longitude 084-25-00W. Altitude 312 m.
##########################################################

200601311252 METAR KATL 311252Z 33009KT 10SM CLR 03/M01 A2995 RMK AO2 SLP145 T00281011=
200601311152 METAR KATL 311152Z 30008KT 10SM CLR 03/M02 A2995 RMK AO2 SLP145 70008 T00331017 10061 20033 51013=
200601311052 METAR KATL 311052Z 26010KT 10SM CLR 04/M02 A2995 RMK AO2 SLP143 T00391017=
200601310952 METAR KATL 310952Z 28011KT 10SM CLR 04/M01 A2992 RMK AO2 SLP135 T00391011=
200601310852 METAR KATL 310852Z 27010KT 10SM CLR 04/M01 A2991 RMK AO2 SLP130 T00441006 53007=
200601310752 METAR KATL 310752Z 29007KT 10SM CLR 04/00 A2990 RMK AO2 SLP127 T00440000=
200601310652 METAR KATL 310652Z 28007KT 10SM FEW250 05/01 A2990 RMK AO2 SLP124 T00500011=
200601310552 METAR KATL 310552Z 31009KT 10SM FEW250 06/01 A2989 RMK AO2 SLP120 60000 T00610011 10117 20061 51028=
200601310452 METAR KATL 310452Z 31009KT 10SM FEW045 SCT250 07/02 A2987 RMK AO2 SLP114 T00720017 401780061=
200601310352 METAR KATL 310352Z 31016G21KT 10SM SCT038 BKN110 BKN250 08/02 A2983 RMK AO2 PK WND 31028/0254 RAE04 SLP100 P0000 T00780022=
200601310252 METAR KATL 310252Z 32020G25KT 9SM -RA BKN050 OVC100 09/03 A2980 RMK AO2 PK WND 30028/0221 RAB20 SLP092 P0000 60000 T00940033 51018=
200601310152 METAR KATL 310152Z 30016G23KT 10SM OVC100 11/05 A2979 RMK AO2 SLP088 T01110050=
200601310052 METAR KATL 310052Z 29013KT 10SM FEW030 BKN100 BKN130 BKN250 12/07 A2977 RMK AO2 SLP081 T01170072=
200601302352 METAR KATL 302352Z 26009KT 10SM FEW035 SCT150 BKN200 BKN250 12/08 A2975 RMK AO2 SLP074 LTG DSNT S-SW CB DSNT S-SW 60008 T01170083 10178 20111 53003=
200601302252 METAR KATL 302252Z 25011KT 10SM SCT035 BKN042 BKN200 BKN250 13/08 A2973 RMK AO2 SLP070 T01330083=
200601302152 METAR KATL 302152Z 24009KT 10SM FEW025 SCT100 SCT150 SCT250 14/08 A2972 RMK AO2 SLP065 T01390083=
200601302052 METAR KATL 302052Z 20010KT 10SM FEW100 SCT150 BKN250 13/09 A2974 RMK AO2 RAE1956 SLP070 P0000 60008 T01280089 56019=
200601301952 METAR KATL 301952Z COR 18010KT 10SM -RA FEW030 SCT050 BKN100 BKN150 BKN250 11/09 A2975 RMK AO2 PK WND 27038/1856 TSE15RAB1858 PRESFR SLP075 TS MOV E P0008 T01110089=
200601301939 SPECI KATL 301939Z 22009G20KT 6SM -RA BR FEW015 BKN030 OVC060 11/09 A2978 RMK AO2 PK WND 27038/1856 TSE15RAB1858 TS MOV E P0007=
200601301939 SPECI KATL 301939Z 22009G20KT 6SM -RA BR FEW015 BKN030 OVC060 11/09 A2978 RMK AO2 PK WND 27038/1856 TSE15RAB1858 TS MOV E P0007=
200601301931 SPECI KATL 301931Z 24015G22KT 1 1/2SM RA BR FEW015 BKN030 OVC060 11/09 A2980 RMK AO2 PK WND 27038/1856 SFC VIS 2 1/2 TSE15RAB1858 TS MOV E P0004 $=
200601301931 SPECI KATL 301931Z 24015G22KT 1 1/2SM RA BR FEW015 BKN030 OVC060 11/09 A2980 RMK AO2 PK WND 27038/1856 SFC VIS 2 1/2 TSE15RAB1858 TS MOV E P0004 $=
200601301915 SPECI KATL 301915Z 25014G20KT 6SM -RA FEW040 BKN050 OVC100 12/09 A2980 RMK AO2 PK WND 27038/1856 TSE15RAB1858 TS MOV E P0003 $=
200601301915 SPECI KATL 301915Z 25014G20KT 6SM -RA FEW040 BKN050 OVC100 12/09 A2980 RMK AO2 PK WND 27038/1856 TSE15RAB1858 TS MOV E P0003 $=
200601301910 SPECI KATL 301910Z 26015G20KT 4SM R09R/5500VP6000FT TSRA BKN045CB BKN055 OVC100 12/08 A2980 RMK AO2 PK WND 27038/1856 RAB1858 OCNL LTGICCG TS OHD-NE-SE MOV E P0003 $=
200601301910 SPECI KATL 301910Z 26015G20KT 4SM R09R/5500VP6000FT TSRA BKN045CB BKN055 OVC100 12/08 A2980 RMK AO2 PK WND 27038/1856 RAB1858 OCNL LTGICCG TS OHD-NE-SE MOV E P0003 $=
200601301904 SPECI KATL 301904Z 26016G38KT 3SM R09R/5500VP6000FT TSRA BKN047CB BKN055 OVC070 12/08 A2980 RMK AO2 PK WND 27038/1856 RAB1858 PRESRR OCNL LTGICCG TS OHD MOV E P0000=
200601301904 SPECI KATL 301904Z 26016G38KT 3SM R09R/5500VP6000FT TSRA BKN047CB BKN055 OVC070 12/08 A2980 RMK AO2 PK WND 27038/1856 RAB1858 PRESRR OCNL LTGICCG TS OHD MOV E P0000=
200601301859 SPECI KATL 301859Z 26028G38KT 8SM -TSRA BKN045CB BKN070 OVC100 14/06 A2979 RMK AO2 PK WND 27038/1856 RAB58 OCNL LTGICCG TS OHD MOV E P0000=
200601301859 SPECI KATL 301859Z 26028G38KT 8SM -TSRA BKN045CB BKN070 OVC100 14/06 A2979 RMK AO2 PK WND 27038/1856 RAB58 OCNL LTGICCG TS OHD MOV E P0000=
200601301852 METAR KATL 301852Z 23013G21KT 10SM TS BKN050CB BKN070 BKN100 OVC150 17/06 A2976 RMK AO2 TSB44 SLP077 OCNL LTGICCG TS VC SW-NW MOV E CB VC SW-NW MOV E T01670061=
200601301845 SPECI KATL 301845Z 22015G22KT 10SM TS SCT050CB BKN070 BKN100 OVC150 17/06 A2977 RMK AO2 TSB44 OCNL LTGICCG TS VC SW-NW MOV E CB VC SW-NW MOV E=
200601301845 SPECI KATL 301845Z 22015G22KT 10SM TS SCT050CB BKN070 BKN100 OVC150 17/06 A2977 RMK AO2 TSB44 OCNL LTGICCG TS VC SW-NW MOV E CB VC SW-NW MOV E=
200601301752 METAR KATL 301752Z 22010KT 10SM BKN150 BKN180 OVC200 16/05 A2979 RMK AO2 SLP087 VIRGA OHD AND ALQDS T01610050 10161 20067 58022=
200601301651 METAR KATL 301651Z 22007KT 10SM BKN150 BKN200 BKN250 16/06 A2981 RMK AO2 SLP093 T01560061=
200601301551 METAR KATL 301551Z 21007KT 10SM SCT150 SCT200 SCT250 14/05 A2985 RMK AO2 SLP106 T01390050=
200601301451 METAR KATL 301451Z 21006KT 10SM SCT200 BKN250 10/05 A2986 RMK AO2 SLP112 T01000050 53000=
200601301351 METAR KATL 301351Z 00000KT 10SM SCT200 08/04 A2985 RMK AO2 SLP108 T00830044=
200601301251 METAR KATL 301251Z 00000KT 10SM FEW250 07/03 A2986 RMK AO2 SLP110 T00720033=
200601301151 METAR KATL 301151Z 22003KT 10SM FEW250 07/04 A2986 RMK AO2 SLP111 70002 T00720039 10106 20061 55002=
200601301051 METAR KATL 301051Z 22004KT 10SM FEW250 07/04 A2986 RMK AO2 SLP110 T00670039=
200601300951 METAR KATL 300951Z 24003KT 10SM FEW250 07/04 A2985 RMK AO2 SLP109 T00670039=
200601300851 METAR KATL 300851Z 00000KT 10SM SCT250 08/04 A2986 RMK AO2 SLP112 T00780044 58009=
200601300751 METAR KATL 300751Z 00000KT 10SM SCT250 09/04 A2988 RMK AO2 SLP117 T00890039=
200601300651 METAR KATL 300651Z 23003KT 10SM SCT200 09/04 A2988 RMK AO2 SLP118 T00940039=
200601300551 METAR KATL 300551Z 23003KT 10SM SCT200 11/04 A2989 RMK AO2 SLP121 T01060039 10156 20106 53001=
200601300451 METAR KATL 300451Z 22004KT 10SM SCT200 11/04 A2989 RMK AO2 SLP121 T01110044 401830100=
200601300351 METAR KATL 300351Z 21003KT 10SM BKN200 12/04 A2989 RMK AO2 SLP119 T01170044=
200601300251 METAR KATL 300251Z 22005KT 10SM BKN200 13/04 A2989 RMK AO2 SLP120 T01280039 53002=
200601300151 METAR KATL 300151Z 21008KT 10SM FEW200 14/03 A2987 RMK AO2 SLP115 T01390033=
200601300051 METAR KATL 300051Z 22006KT 10SM BKN200 14/03 A2988 RMK AO2 SLP119 T01440033=
200601292351 METAR KATL 292351Z 22008KT 10SM FEW040 SCT200 15/04 A2988 RMK AO2 SLP117 T01500044 10183 20150 53004=
200601292251 METAR KATL 292251Z 22007KT 10SM FEW043 BKN200 17/06 A2987 RMK AO2 SLP114 T01670056=
200601292151 METAR KATL 292151Z 23014G21KT 10SM FEW045 BKN160 BKN210 18/06 A2986 RMK AO2 SLP110 T01830061=
200601292051 METAR KATL 292051Z 22008KT 10SM FEW035 BKN160 BKN210 18/09 A2987 RMK AO2 SLP112 T01780094 56021=
200601291951 METAR KATL 291951Z 21011G16KT 10SM SCT033 SCT046 BKN160 BKN210 17/11 A2987 RMK AO2 SLP113 MDT CU ALQDS T01720106=
200601291851 METAR KATL 291851Z 22011KT 10SM SCT024 BKN031 BKN160 BKN210 17/11 A2989 RMK AO2 SLP121 T01670111=
200601291814 SPECI KATL 291814Z 21011KT 9SM SCT016 BKN023 BKN160 16/12 A2992 RMK AO2=
200601291814 SPECI KATL 291814Z 21011KT 9SM SCT016 BKN023 BKN160 16/12 A2992 RMK AO2=
200601291751 METAR KATL 291751Z 20010KT 9SM BKN014 BKN020 BKN026 15/12 A2993 RMK AO2 SLP135 60002 T01500122 10150 20111 58016=
200601291713 SPECI KATL 291713Z 23008KT 9SM OVC010 14/13 A2996 RMK AO2 CIG 007V015=
200601291713 SPECI KATL 291713Z 23008KT 9SM OVC010 14/13 A2996 RMK AO2 CIG 007V015=
200601291651 METAR KATL 291651Z 20008KT 9SM OVC008 14/13 A2996 RMK AO2 CIG 007V012 SLP146 BKINOVC OHD T01390128=
200601291551 METAR KATL 291551Z 20008KT 9SM BKN010 13/12 A2999 RMK AO2 CIG 007V014 SLP155 T01330122=
200601291538 SPECI KATL 291538Z 20009KT 9SM BKN010 BKN021 OVC070 13/12 A2998 RMK AO2=
200601291538 SPECI KATL 291538Z 20009KT 9SM BKN010 BKN021 OVC070 13/12 A2998 RMK AO2=
200601291508 SPECI KATL 291508Z 19009KT 10SM SCT010 BKN026 OVC070 13/12 A2998 RMK AO2=
200601291508 SPECI KATL 291508Z 19009KT 10SM SCT010 BKN026 OVC070 13/12 A2998 RMK AO2=
200601291501 SPECI KATL 291501Z 20010KT 10SM BKN008 BKN012 OVC032 13/12 A2998 RMK AO2 CIG 008V011=
200601291501 SPECI KATL 291501Z 20010KT 10SM BKN008 BKN012 OVC032 13/12 A2998 RMK AO2 CIG 008V011=
200601291451 METAR KATL 291451Z 20010KT 8SM BKN010 BKN013 OVC023 12/11 A2998 RMK AO2 RAE10 SLP152 P0001 60002 T01220111 55007=
200601291426 SPECI KATL 291426Z 20011KT 3SM OVC010 12/11 A2998 RMK AO2 SFC VIS 10 RAE10 CIG 008V015 P0001=
200601291426 SPECI KATL 291426Z 20011KT 3SM OVC010 12/11 A2998 RMK AO2 SFC VIS 10 RAE10 CIG 008V015 P0001=
200601291359 SPECI KATL 291359Z 20009KT 2SM -RA SCT008 OVC012 12/11 A2997 RMK AO2 SFC VIS 7 P0001=
200601291359 SPECI KATL 291359Z 20009KT 2SM -RA SCT008 OVC012 12/11 A2997 RMK AO2 SFC VIS 7 P0001=
200601291351 METAR KATL 291351Z 21009KT 2SM -RA BR OVC012 12/11 A2998 RMK AO2 SFC VIS 5 RAB20 SLP150 P0001 T01170106=
200601291335 SPECI KATL 291335Z 21011KT 2SM -RA BR BKN014 BKN018 OVC028 12/11 A2997 RMK AO2 SFC VIS 3 RAB20 P0001=
200601291335 SPECI KATL 291335Z 21011KT 2SM -RA BR BKN014 BKN018 OVC028 12/11 A2997 RMK AO2 SFC VIS 3 RAB20 P0001=
200601291326 SPECI KATL 291326Z 21011G16KT 2SM -RA BR SCT013 OVC028 12/11 A2997 RMK AO2 SFC VIS 4 RAB20 P0000=
200601291326 SPECI KATL 291326Z 21011G16KT 2SM -RA BR SCT013 OVC028 12/11 A2997 RMK AO2 SFC VIS 4 RAB20 P0000=
200601291320 SPECI KATL 291320Z 20010KT 9SM -RA FEW008 SCT013 OVC028 11/11 A2997 RMK AO2 RAB20 P0000=
200601291320 SPECI KATL 291320Z 20010KT 9SM -RA FEW008 SCT013 OVC028 11/11 A2997 RMK AO2 RAB20 P0000=
200601291313 SPECI KATL 291313Z 19008KT 10SM FEW008 SCT011 OVC030 11/10 A2997 RMK AO2=
200601291313 SPECI KATL 291313Z 19008KT 10SM FEW008 SCT011 OVC030 11/10 A2997 RMK AO2=
200601291251 METAR KATL 291251Z 21009KT 10SM BKN008 OVC013 11/10 A2997 RMK AO2 RAE25 CIG 006V012 SLP149 P0000 T01110100=
200601291237 SPECI KATL 291237Z 19010KT 10SM SCT008 BKN013 BKN070 11/10 A2996 RMK AO2 RAE25 P0000=
200601291237 SPECI KATL 291237Z 19010KT 10SM SCT008 BKN013 BKN070 11/10 A2996 RMK AO2 RAE25 P0000=
200601291202 SPECI KATL 291202Z 17012KT 10SM -RA FEW010 BKN044 OVC100 11/10 A2997 RMK AO2 PRESFR P0000=
200601291202 SPECI KATL 291202Z 17012KT 10SM -RA FEW010 BKN044 OVC100 11/10 A2997 RMK AO2 PRESFR P0000=
200601291151 METAR KATL 291151Z 19009KT 2 1/2SM RA BR SCT012 BKN021 OVC044 11/10 A3000 RMK AO2 SFC VIS 4 SLP160 P0020 60025 70025 T01110100 10128 20100 53007=
200601291144 SPECI KATL 291144Z 25012G16KT 2SM R09R/6000VP6000FT RA BR SCT009 BKN015 OVC037 11/10 A3004 RMK AO2 TWR VIS 2 1/2 P0018=
200601291144 SPECI KATL 291144Z 25012G16KT 2SM R09R/6000VP6000FT RA BR SCT009 BKN015 OVC037 11/10 A3004 RMK AO2 TWR VIS 2 1/2 P0018=
200601291142 SPECI KATL 291142Z 25012G16KT 1 3/4SM R09R/6000VP6000FT +RA BR BKN009 BKN017 OVC040 11/10 A3003 RMK AO2 TWR VIS 2 1/2 P0016=
200601291142 SPECI KATL 291142Z 25012G16KT 1 3/4SM R09R/6000VP6000FT +RA BR BKN009 BKN017 OVC040 11/10 A3003 RMK AO2 TWR VIS 2 1/2 P0016=
200601291136 SPECI KATL 291136Z 27015KT 2 1/2SM R09R/6000VP6000FT +RA BR SCT009 BKN015 OVC044 11/10 A3005 RMK AO2 PRESRR P0006=
200601291136 SPECI KATL 291136Z 27015KT 2 1/2SM R09R/6000VP6000FT +RA BR SCT009 BKN015 OVC044 11/10 A3005 RMK AO2 PRESRR P0006=
200601291051 METAR KATL 291051Z 17012G17KT 6SM RA BR BKN045 OVC055 11/10 A2995 RMK AO2 RAB0955 SLP142 P0005 T01110100=
200601290951 METAR KATL 290951Z 17012G19KT 10SM SCT050 OVC065 13/09 A2995 RMK AO2 SLP139 T01280089=
200601290851 METAR KATL 290851Z 16011KT 10SM BKN150 12/08 A2998 RMK AO2 SLP151 T01170083 58045=
200601290751 METAR KATL 290751Z 14012KT 10SM BKN150 11/07 A3003 RMK AO2 SLP168 T01110072=
200601290651 METAR KATL 290651Z 15011KT 10SM FEW050 BKN180 11/06 A3010 RMK AO2 SLP191 T01110061=
200601290551 METAR KATL 290551Z 13007KT 10SM OVC050 11/06 A3012 RMK AO2 SLP199 T01110061 10144 20111 58019=
200601290451 METAR KATL 290451Z 14006KT 10SM OVC050 12/06 A3016 RMK AO2 SLP213 T01170056 401720017=
200601290351 METAR KATL 290351Z 14006KT 10SM FEW250 11/06 A3017 RMK AO2 SLP218 T01110056=
200601290251 METAR KATL 290251Z 14006KT 10SM FEW120 SCT250 12/06 A3018 RMK AO2 SLP221 T01220056 58012=
200601290151 METAR KATL 290151Z 15007KT 10SM SCT080 BKN120 BKN250 13/06 A3020 RMK AO2 SLP229 T01280056=
200601290051 METAR KATL 290051Z 14006KT 10SM FEW100 SCT250 13/06 A3021=
200601282351 METAR KATL 282351Z 14007KT 10SM SCT080 BKN250 14/06 A3021 RMK AO2 SLP234 T01440056 10172 20139 56018=
200601282251 METAR KATL 282251Z 16008KT 10SM FEW120 SCT200 15/06 A3023 RMK AO2 SLP241 T01500056=
200601282151 METAR KATL 282151Z 14010KT 10SM FEW050 SCT160 SCT230 17/04 A3025 RMK AO2 SLP244 T01670044=
200601282051 METAR KATL 282051Z 16011KT 10SM SCT160 SCT230 17/04 A3027 RMK AO2 SLP251 T01670044 56038=
200601281951 METAR KATL 281951Z 16011G18KT 10SM FEW160 SCT230 17/04 A3030 RMK AO2 SLP260 T01670039=
200601281851 METAR KATL 281851Z 17006KT 10SM FEW230 16/04 A3034 RMK AO2 SLP274 T01560039=
200601281751 METAR KATL 281751Z 16009KT 10SM FEW230 14/03 A3038 RMK AO2 SLP290 T01440033 10144 20017 58028=
200601281651 METAR KATL 281651Z 09004KT 10SM FEW230 12/03 A3044 RMK AO2 SLP310 T01170028=
200601281551 METAR KATL 281551Z 13006KT 10SM FEW230 09/02 A3047 RMK AO2 SLP321 T00940017=
200601281451 METAR KATL 281451Z 13006KT 10SM FEW250 07/00 A3047 RMK AO2 SLP322 T00720000 58004=
200601281351 METAR KATL 281351Z 08007KT 10SM FEW180 04/M02 A3047 RMK AO2 SLP324 T00391017=
200601281251 METAR KATL 281251Z 08006KT 10SM SCT180 02/M03 A3049 RMK AO2 SLP330 T00221028=
200601281151 METAR KATL 281151Z 08005KT 10SM FEW200 02/M03 A3048 RMK AO2 SLP327 T00221033 10061 20017 55005=
200601281051 METAR KATL 281051Z 10003KT 10SM CLR 03/M04 A3048 RMK AO2 SLP326 T00281039=
200601280951 METAR KATL 280951Z 09006KT 10SM SCT150 03/M04 A3048 RMK AO2 SLP326 T00331039=
200601280851 METAR KATL 280851Z 08007KT 10SM BKN150 04/M04 A3049 RMK AO2 SLP331 T00441039 58001=
200601280751 METAR KATL 280751Z 08007KT 10SM BKN150 05/M04 A3050 RMK AO2 SLP333 T00501039=
200601280651 METAR KATL 280651Z 08006KT 10SM BKN150 05/M04 A3050 RMK AO2 SLP334 T00501039=
200601280551 METAR KATL 280551Z 11005KT 10SM BKN150 06/M06 A3050 RMK AO2 SLP332 T00611056 10094 20061 55003=
200601280451 METAR KATL 280451Z 11006KT 10SM BKN150 BKN250 07/M05 A3050 RMK AO2 SLP332 T00671050 401110022=
200601280351 METAR KATL 280351Z 12007KT 10SM OVC140 08/M06 A3050 RMK AO2 SLP333 BINOVC T00781056=
200601280251 METAR KATL 280251Z 11004KT 10SM OVC140 08/M05 A3051 RMK AO2 SLP336 T00781050 51004=
200601280151 METAR KATL 280151Z 11007KT 10SM OVC140 08/M05 A3050 RMK AO2 SLP335 T00831050=
200601280051 METAR KATL 280051Z 11006KT 10SM FEW100 OVC150 09/M04 A3050 RMK AO2 SLP333 T00891044=
200601272351 METAR KATL 272351Z 11005KT 10SM BKN150 BKN250 09/M05 A3049 RMK AO2 SLP332 T00941050 10111 20089 56005=
200601272251 METAR KATL 272251Z 11007KT 10SM BKN150 BKN250 10/M06 A3049 RMK AO2 SLP331 T01001056=
200601272151 METAR KATL 272151Z 09009KT 10SM BKN150 BKN250 11/M05 A3050 RMK AO2 SLP333 T01111050=
200601272051 METAR KATL 272051Z 11004KT 10SM BKN150 BKN180 BKN250 11/M06 A3051 RMK AO2 SLP336 T01061061 56018=
200601271951 METAR KATL 271951Z VRB04KT 10SM BKN150 BKN250 11/M06 A3052 RMK AO2 SLP340 T01061061=
200601271851 METAR KATL 271851Z 14008KT 10SM BKN150 BKN250 10/M06 A3053 RMK AO2 SLP344 T01001061=
200601271751 METAR KATL 271751Z 11007KT 10SM FEW150 SCT200 SCT250 09/M07 A3056 RMK AO2 SLP355 T00941067 10094 20022 58008 $=
200601271651 METAR KATL 271651Z 13008KT 10SM FEW200 BKN250 BKN300 08/M07 A3060 RMK AO2 SLP367 T00781072=
200601271551 METAR KATL 271551Z 11008KT 10SM FEW200 SCT250 BKN300 07/M08 A3061 RMK AO2 SLP372 T00671078=
200601271451 METAR KATL 271451Z 09014KT 10SM FEW200 SCT250 BKN300 05/M07 A3059 RMK AO2 SLP365 T00501067 50010=
200601271351 METAR KATL 271351Z 08008KT 10SM SCT150 BKN200 BKN250 04/M06 A3060 RMK AO2 SLP371 T00391056=
200601271251 METAR KATL 271251Z 09007KT 10SM FEW150 BKN200 OVC250 02/M06 A3058 RMK AO2 SLP363 T00221056=
200601271151 METAR KATL 271151Z 08010KT 10SM FEW150 BKN200 BKN250 03/M05 A3056 RMK AO2 SLP354 T00331050 10044 20028 53013=
200601271051 METAR KATL 271051Z 08010KT 10SM SCT200 BKN250 04/M05 A3055 RMK AO2 SLP351 T00391050=
200601270951 METAR KATL 270951Z 08010KT 10SM SCT200 BKN250 04/M04 A3052 RMK AO2 SLP340 T00391039=
200601270851 METAR KATL 270851Z 07005KT 10SM SCT200 BKN250 04/M05 A3052 RMK AO2 SLP339 T00391050 53013=
200601270751 METAR KATL 270751Z 08007KT 10SM SCT200 BKN250 03/M04 A3050 RMK AO2 SLP333 T00331039=
200601270651 METAR KATL 270651Z 06006KT 10SM SCT200 OVC250 04/M04 A3048 RMK AO2 SLP325 T00391039=
200601270551 METAR KATL 270551Z 07005KT 10SM FEW200 OVC250 04/M04 A3048 RMK AO2 SLP326 T00441044 10089 20044 50006=
200601270451 METAR KATL 270451Z 36003KT 10SM FEW200 OVC250 05/M06 A3049 RMK AO2 SLP329 T00501056 401221006=
200601270351 METAR KATL 270351Z VRB04KT 10SM FEW200 BKN250 06/M06 A3048 RMK AO2 SLP325 T00561056=
200601270251 METAR KATL 270251Z 33005KT 10SM FEW200 BKN250 05/M06 A3046 RMK AO2 SLP324 T00501056 51011=
200601270151 METAR KATL 270151Z 31008KT 10SM FEW200 BKN250 06/M05 A3046 RMK AO2 SLP321 T00611050=
200601270051 METAR KATL 270051Z 33007KT 10SM FEW200 BKN250 07/M05 A3044 RMK AO2 SLP316 T00671050=
200601262351 METAR KATL 262351Z 33006KT 10SM FEW200 BKN250 08/M05 A3043 RMK AO2 SLP311 T00831050 10122 20083 53014=
200601262251 METAR KATL 262251Z 33006KT 10SM FEW200 BKN250 BKN300 10/M06 A3042 RMK AO2 SLP306 T01001061=
200601262151 METAR KATL 262151Z 34007KT 10SM FEW200 BKN250 BKN300 12/M06 A3040 RMK AO2 SLP300 T01171061=
200601262051 METAR KATL 262051Z 32006KT 10SM FEW250 12/M06 A3039 RMK AO2 SLP296 T01171061 56008=
200601261951 METAR KATL 261951Z 35009KT 10SM FEW200 SCT250 SCT300 12/M07 A3039 RMK AO2 SLP295 T01221067=
200601261851 METAR KATL 261851Z 33008KT 290V010 10SM FEW200 BKN250 BKN300 11/M07 A3040 RMK AO2 SLP299 T01111067=
200601261751 METAR KATL 261751Z 35010KT 10SM FEW200 SCT250 BKN300 10/M07 A3041 RMK AO2 SLP305 T01001067 10100 21006 50003=
200601261651 METAR KATL 261651Z 34008KT 10SM FEW250 08/M07 A3042 RMK AO2 SLP307 T00831072=
200601261551 METAR KATL 261551Z 34010KT 10SM FEW250 06/M06 A3042 RMK AO2 SLP306 T00561061=
200601261451 METAR KATL 261451Z 32009KT 10SM FEW250 03/M06 A3041 RMK AO2 SLP304 T00281056 53012=
200601261351 METAR KATL 261351Z 32012KT 10SM CLR 01/M06 A3038 RMK AO2 SLP297 T00061056=
200601261251 METAR KATL 261251Z 32011KT 10SM CLR M01/M06 A3037 RMK AO2 SLP293 T10061061=
200601261151 METAR KATL 261151Z 32010KT 10SM CLR 00/M06 A3037 RMK AO2 SLP291 T00001061 10022 21006 53007=
200601261051 METAR KATL 261051Z 31010KT 10SM CLR 00/M07 A3035 RMK AO2 SLP285 T00001067=
200601260951 METAR KATL 260951Z 31011KT 10SM CLR 01/M07 A3035 RMK AO2 SLP284 T00061067=
200601260851 METAR KATL 260851Z 31011KT 10SM CLR 01/M07 A3035 RMK AO2 SLP282 T00111072 53007=
200601260751 METAR KATL 260751Z 32011KT 10SM CLR 02/M08 A3034 RMK AO2 SLP279 T00171078=
200601260651 METAR KATL 260651Z 31009KT 10SM CLR 02/M08 A3033 RMK AO2 SLP277 T00171083=
200601260551 METAR KATL 260551Z 31010KT 10SM CLR 02/M08 A3033 RMK AO2 SLP275 T00221083 10072 20022 53003=
200601260451 METAR KATL 260451Z 32012KT 10SM CLR 03/M09 A3032 RMK AO2 SLP273 T00331089 401110028=
200601260351 METAR KATL 260351Z 32009KT 10SM CLR 04/M09 A3032 RMK AO2 SLP273 T00391094=
200601260251 METAR KATL 260251Z 32009KT 10SM CLR 04/M10 A3032 RMK AO2 SLP271 T00441100 51015=
200601260151 METAR KATL 260151Z 32008KT 10SM CLR 05/M10 A3030 RMK AO2 SLP267 T00501100=
200601260051 METAR KATL 260051Z 31009KT 10SM CLR 06/M09 A3029 RMK AO2 SLP263 T00561094=
200601252351 METAR KATL 252351Z 32011KT 10SM CLR 07/M10 A3027 RMK AO2 SLP256 T00721100 10111 20072 52013=
200601252251 METAR KATL 252251Z 32012KT 10SM CLR 08/M10 A3026 RMK AO2 SLP250 T00831100=
200601252151 METAR KATL 252151Z 31014KT 10SM FEW250 09/M09 A3025 RMK AO2 SLP245 T00941094=
200601252051 METAR KATL 252051Z 29015G21KT 10SM CLR 11/M08 A3023 RMK AO2 PK WND 31027/2011 SLP240 T01061083 55003=
200601251951 METAR KATL 251951Z 34018G22KT 10SM CLR 11/M11 A3022 RMK AO2 PK WND 33028/1935 SLP238 T01061106=
200601251851 METAR KATL 251851Z 32019G24KT 10SM CLR 10/M10 A3022 RMK AO2 PK WND 31027/1834 SLP237 T01001100=
200601251751 METAR KATL 251751Z 32019KT 10SM CLR 09/M08 A3024 RMK AO2 SLP243 T00941083 10094 20050 50010=
200601251651 METAR KATL 251651Z 31019G23KT 10SM CLR 09/M07 A3025 RMK AO2 SLP245 T00891072=
200601251551 METAR KATL 251551Z 33017G26KT 10SM CLR 08/M07 A3024 RMK AO2 PK WND 30027/1453 SLP243 T00781072=
200601251451 METAR KATL 251451Z 31017G22KT 10SM CLR 07/M07 A3021 RMK AO2 PK WND 32026/1439 SLP234 T00671067 53023=
200601251351 METAR KATL 251351Z 31016G23KT 10SM CLR 06/M06 A3019 RMK AO2 SLP226 T00561061=
200601251251 METAR KATL 251251Z 31012G18KT 10SM CLR 06/M03 A3016 RMK AO2 SLP218 T00561033=
200601251151 METAR KATL 251151Z 30010KT 10SM CLR 06/00 A3014 RMK AO2 SLP210 T00610000 10078 20061 53015=
200601251051 METAR KATL 251051Z 29011KT 10SM CLR 07/01 A3012 RMK AO2 SLP200 T00670006=
200601250951 METAR KATL 250951Z 29011KT 10SM CLR 07/01 A3010 RMK AO2 SLP194 T00670006=
200601250851 METAR KATL 250851Z 28009KT 10SM CLR 07/01 A3010 RMK AO2 SLP192 T00670006 55000=
200601250751 METAR KATL 250751Z 28014KT 10SM CLR 07/01 A3009 RMK AO2 SLP191 T00720006=
200601250651 METAR KATL 250651Z 26011KT 10SM CLR 08/00 A3009 RMK AO2 SLP190 T00780000=
200601250551 METAR KATL 250551Z 27011KT 10SM CLR 08/M01 A3010 RMK AO2 SLP193 T00781006 10100 20072 50004=
200601250451 METAR KATL 250451Z 27011KT 10SM CLR 08/M01 A3011 RMK AO2 SLP196 T00781011 401440072=
200601250351 METAR KATL 250351Z 27011KT 10SM CLR 08/M02 A3009 RMK AO2 SLP193 T00781017=
200601250251 METAR KATL 250251Z 27010KT 10SM CLR 08/M02 A3008 RMK AO2 SLP190 T00781017 53004=
200601250151 METAR KATL 250151Z 27010KT 10SM CLR 08/M02 A3008 RMK AO2 SLP189 T00831017=
200601250051 METAR KATL 250051Z 28008KT 10SM CLR 09/M02 A3007 RMK AO2 SLP186 T00891017=
200601242351 METAR KATL 242351Z 28007KT 10SM CLR 09/M03 A3007 RMK AO2 SLP185 T00941028 10144 20094 53007=
200601242251 METAR KATL 242251Z 28012KT 10SM CLR 12/M02 A3007 RMK AO2 SLP182 T01171022=
200601242151 METAR KATL 242151Z 29011KT 10SM CLR 13/M02 A3005 RMK AO2 SLP178 T01331017=
200601242051 METAR KATL 242051Z 30016G22KT 10SM FEW250 14/M02 A3005 RMK AO2 SLP175 T01391022 56014=
200601241951 METAR KATL 241951Z 28012G16KT 10SM FEW250 14/01 A3005 RMK AO2 SLP176 T01390011=
200601241851 METAR KATL 241851Z 31011G17KT 10SM FEW250 13/00 A3006 RMK AO2 SLP179 T01280000=
200601241751 METAR KATL 241751Z 29009KT 10SM FEW250 12/02 A3009 RMK AO2 SLP190 60000 T01170022 10122 20078 58009=
200601241651 METAR KATL 241651Z 31010KT 10SM FEW250 11/03 A3012 RMK AO2 SLP200 T01060028=
200601241551 METAR KATL 241551Z 30010KT 10SM FEW025 SCT250 09/04 A3013 RMK AO2 SLP204 T00940039=
200601241505 SPECI KATL 241505Z 33012KT 10SM SCT017 09/04 A3012 RMK AO2=
200601241505 SPECI KATL 241505Z 33012KT 10SM SCT017 09/04 A3012 RMK AO2=
200601241451 METAR KATL 241451Z 30015KT 10SM BKN017 08/04 A3012 RMK AO2 SLP201 60000 T00830044 53024=
200601241351 METAR KATL 241351Z 30009KT 10SM OVC015 08/06 A3009 RMK AO2 SLP192 BINOVC T00780056=
200601241251 METAR KATL 241251Z 31012KT 10SM OVC016 08/06 A3007 RMK AO2 DZB1158E28 SLP183 BINOVC P0000 T00830061=
200601241231 SPECI KATL 241231Z 31013KT 10SM SCT008 OVC018 08/06 A3006 RMK AO2 DZB1158E28 P0000=
200601241231 SPECI KATL 241231Z 31013KT 10SM SCT008 OVC018 08/06 A3006 RMK AO2 DZB1158E28 P0000=
200601241228 SPECI KATL 241228Z 31012KT 10SM SCT008 OVC014 09/06 A3006 RMK AO2 DZB1158E28 P0000=
200601241228 SPECI KATL 241228Z 31012KT 10SM SCT008 OVC014 09/06 A3006 RMK AO2 DZB1158E28 P0000=
200601241158 SPECI KATL 241158Z 30009KT 7SM -DZ BKN006 OVC010 09/08 A3005 RMK AO2 DZB58 P0000=
200601241158 SPECI KATL 241158Z 30009KT 7SM -DZ BKN006 OVC010 09/08 A3005 RMK AO2 DZB58 P0000=
200601241151 METAR KATL 241151Z 32012KT 10SM OVC010 09/08 A3005 RMK AO2 DZE16 CIG 006V013 SLP175 P0000 60000 70068 T00940078 10111 20094 53007=
200601241143 SPECI KATL 241143Z 31012KT 10SM OVC010 09/08 A3005 RMK AO2 DZE16 CIG 006V013 P0000=
200601241143 SPECI KATL 241143Z 31012KT 10SM OVC010 09/08 A3005 RMK AO2 DZE16 CIG 006V013 P0000=
200601241051 METAR KATL 241051Z 31013KT 7SM -DZ OVC008 09/08 A3003 RMK AO2 DZB34 CIG 006V011 SLP169 P0000 T00940083=
200601241037 SPECI KATL 241037Z 32011KT 7SM -DZ OVC008 09/08 A3003 RMK AO2 DZB34 CIG 006V013 P0000=
200601241037 SPECI KATL 241037Z 32011KT 7SM -DZ OVC008 09/08 A3003 RMK AO2 DZB34 CIG 006V013 P0000=
200601240956 SPECI KATL 240956Z 31010KT 10SM OVC010 10/09 A3002 RMK AO2 CIG 006V015=
200601240956 SPECI KATL 240956Z 31010KT 10SM OVC010 10/09 A3002 RMK AO2 CIG 006V015=
200601240951 METAR KATL 240951Z 31010KT 10SM BKN008 OVC014 10/09 A3002 RMK AO2 CIG 006V012 SLP166 T01000089=
200601240932 SPECI KATL 240932Z 31015KT 10SM SCT008 OVC014 11/09 A3002 RMK AO2=
200601240932 SPECI KATL 240932Z 31015KT 10SM SCT008 OVC014 11/09 A3002 RMK AO2=
200601240859 SPECI KATL 240859Z 31010KT 10SM SCT006 OVC016 11/10 A3002 RMK AO2=
200601240859 SPECI KATL 240859Z 31010KT 10SM SCT006 OVC016 11/10 A3002 RMK AO2=
200601240851 METAR KATL 240851Z 30008KT 2 1/2SM SCT006 BKN010 OVC014 11/10 A3002 RMK AO2 SFC VIS 10 SLP167 60000 T01110100 58003=
200601240754 SPECI KATL 240754Z 31008KT 2 1/2SM OVC006 11/11 A3003 RMK AO2 SFC VIS 7 CIG 003V010=
200601240754 SPECI KATL 240754Z 31008KT 2 1/2SM OVC006 11/11 A3003 RMK AO2 SFC VIS 7 CIG 003V010=
200601240751 METAR KATL 240751Z 31009KT 2 1/2SM BKN004 OVC008 11/11 A3003 RMK AO2 SFC VIS 10 DZB0658E24 CIG 002V006 SLP169 P0000 T01110106=
200601240651 METAR KATL 240651Z 31009KT 2 1/2SM BR OVC003 11/11 A3003 RMK AO2 SFC VIS 5 SLP169 T01110111=
200601240551 METAR KATL 240551Z 31008KT 2 1/2SM BR BKN003 OVC015 11/11 A3003 RMK AO2 SFC VIS 6 SLP170 CIG 002V006 60000 T01110111 10117 20111 56006=
200601240549 SPECI KATL 240549Z 30008KT 2 1/2SM BR BKN003 OVC015 12/11 A3003 RMK AO2 SFC VIS 6 CIG 002V006=
200601240549 SPECI KATL 240549Z 30008KT 2 1/2SM BR BKN003 OVC015 12/11 A3003 RMK AO2 SFC VIS 6 CIG 002V006=
200601240451 METAR KATL 240451Z 29008KT 1 1/2SM BR BKN003 OVC015 12/11 A3004 RMK AO2 SFC VIS 5 SLP174 CIG 002V006 T01170111 401170056=
200601240351 METAR KATL 240351Z 29005KT 1 1/2SM BR BKN003 OVC015 12/12 A3005 RMK AO2 SFC VIS 4 SLP176 CIG 002V006 T01170117=
200601240323 SPECI KATL 240323Z 30007KT 3/4SM BR BKN002 OVC015 12/11 A3005 RMK AO2 SFC VIS 2 1/2 CIG 001V005=
200601240323 SPECI KATL 240323Z 30007KT 3/4SM BR BKN002 OVC015 12/11 A3005 RMK AO2 SFC VIS 2 1/2 CIG 001V005=
200601240310 SPECI KATL 240310Z 29005KT 1 1/2SM BR BKN003 OVC015 12/11 A3005 RMK AO2 SFC VIS 2 1/2 CIG 002V006=
200601240310 SPECI KATL 240310Z 29005KT 1 1/2SM BR BKN003 OVC015 12/11 A3005 RMK AO2 SFC VIS 2 1/2 CIG 002V006=
200601240308 SPECI KATL 240308Z 29004KT 2 1/2SM BR BKN003 OVC015 12/11 A3005 RMK AO2 CIG 002V006=
200601240308 SPECI KATL 240308Z 29004KT 2 1/2SM BR BKN003 OVC015 12/11 A3005 RMK AO2 CIG 002V006=
200601240251 METAR KATL 240251Z 00000KT 6SM BR SCT002 BKN005 OVC015 12/11 A3005 RMK AO2 SLP176 60000 T01170111 53001=
200601240228 SPECI KATL 240228Z 29005KT 6SM BR SCT002 BKN008 OVC014 12/11 A3005 RMK AO2=
200601240228 SPECI KATL 240228Z 29005KT 6SM BR SCT002 BKN008 OVC014 12/11 A3005 RMK AO2=
200601240206 SPECI KATL 240206Z 30008KT 8SM FEW002 BKN014 OVC070 11/11 A3004 RMK AO2=
200601240206 SPECI KATL 240206Z 30008KT 8SM FEW002 BKN014 OVC070 11/11 A3004 RMK AO2=
200601240151 METAR KATL 240151Z 29005KT 9SM FEW002 BKN050 OVC090 11/11 A3004 RMK AO2 SLP175 BINOVC T01110106=
200601240110 SPECI KATL 240110Z 00000KT 7SM FEW004 BKN040 OVC070 11/11 A3004 RMK AO2=
200601240110 SPECI KATL 240110Z 00000KT 7SM FEW004 BKN040 OVC070 11/11 A3004 RMK AO2=
200601240101 SPECI KATL 240101Z 00000KT 2 1/2SM BR SCT004 BKN035 OVC070 11/11 A3004 RMK AO2 SFC VIS 6=
200601240101 SPECI KATL 240101Z 00000KT 2 1/2SM BR SCT004 BKN035 OVC070 11/11 A3004 RMK AO2 SFC VIS 6=
200601240051 METAR KATL 240051Z 19003KT 2 1/2SM BR FEW002 BKN006 OVC032 11/11 A3004 RMK AO2 SFC VIS 6 DZE49 SLP176 P0000 T01110111=
200601240032 SPECI KATL 240032Z 17003KT 2SM -DZ BR BKN004 OVC035 11/11 A3004 RMK AO2 SFC VIS 5 CIG 002V006 P0000=
200601240032 SPECI KATL 240032Z 17003KT 2SM -DZ BR BKN004 OVC035 11/11 A3004 RMK AO2 SFC VIS 5 CIG 002V006 P0000=
200601232351 METAR KATL 232351Z 16004KT 2SM -DZ BR BKN005 OVC035 11/11 A3004 RMK AO2 SFC VIS 4 RAE39DZB51 SLP176 CIG 003V008 P0003 60012 T01110111 10117 20100 55003=
200601232251 METAR KATL 232251Z 12003KT 2SM -RA BR FEW002 BKN005 OVC022 11/11 A3004 RMK AO2 SFC VIS 3 RAE2158B41DZB07E41 SLP174 P0001 T01110111=
200601232236 SPECI KATL 232236Z 00000KT 2SM R09R/5500VP6000FT -DZ BR FEW002 BKN006 OVC022 11/11 A3004 RMK AO2 SFC VIS 3 RAE2158DZB07 P0000=
200601232236 SPECI KATL 232236Z 00000KT 2SM R09R/5500VP6000FT -DZ BR FEW002 BKN006 OVC022 11/11 A3004 RMK AO2 SFC VIS 3 RAE2158DZB07 P0000=
200601232234 SPECI KATL 232234Z 00000KT 1SM -DZ BR FEW002 BKN006 OVC022 11/11 A3004 RMK AO2 SFC VIS 3 RAE2158DZB07 P0000=
200601232234 SPECI KATL 232234Z 00000KT 1SM -DZ BR FEW002 BKN006 OVC022 11/11 A3004 RMK AO2 SFC VIS 3 RAE2158DZB07 P0000=
200601232216 SPECI KATL 232216Z 14004KT 1SM -DZ BR SCT002 BKN017 OVC021 11/11 A3004 RMK AO2 SFC VIS 3 RAE2158DZB07 P0000=
200601232216 SPECI KATL 232216Z 14004KT 1SM -DZ BR SCT002 BKN017 OVC021 11/11 A3004 RMK AO2 SFC VIS 3 RAE2158DZB07 P0000=
200601232211 SPECI KATL 232211Z 14004KT 1/2SM -DZ BR FEW002 BKN017 OVC021 11/11 A3003 RMK AO2 SFC VIS 4 RAE2158DZB07 P0000=
200601232211 SPECI KATL 232211Z 14004KT 1/2SM -DZ BR FEW002 BKN017 OVC021 11/11 A3003 RMK AO2 SFC VIS 4 RAE2158DZB07 P0000=
200601232151 METAR KATL 232151Z 15004KT 1 1/4SM -RA BR FEW002 SCT008 OVC015 11/11 A3004 RMK AO2 SFC VIS 3 SLP174 VIS E 1 S 3/4 SW 1 P0002 T01110111=
200601232131 SPECI KATL 232131Z 00000KT 1 1/4SM -RA BR BKN005 OVC008 11/11 A3005 RMK AO2 SFC VIS 2 1/2 P0002=
200601232131 SPECI KATL 232131Z 00000KT 1 1/4SM -RA BR BKN005 OVC008 11/11 A3005 RMK AO2 SFC VIS 2 1/2 P0002=
200601232116 SPECI KATL 232116Z 00000KT 1/2SM -RA BR OVC005 11/11 A3005 RMK AO2 SFC VIS 1 1/2 P0001=
200601232116 SPECI KATL 232116Z 00000KT 1/2SM -RA BR OVC005 11/11 A3005 RMK AO2 SFC VIS 1 1/2 P0001=
200601232051 METAR KATL 232051Z 00000KT 1SM R09R/6000VP6000FT -RA BR OVC005 11/11 A3005 RMK AO2 SFC VIS 1 1/4 RAB28DZB42E45 CIG 003V006 SLP179 P0000 60006 T01110106 55015=
200601232040 SPECI KATL 232040Z 00000KT 1SM BR OVC005 11/11 A3005 RMK AO2 SFC VIS 2 1/2 RAB28E37 CIG 003V008 P0000=
200601232040 SPECI KATL 232040Z 00000KT 1SM BR OVC005 11/11 A3005 RMK AO2 SFC VIS 2 1/2 RAB28E37 CIG 003V008 P0000=
200601232037 SPECI KATL 232037Z 00000KT 4SM BR BKN003 OVC008 11/11 A3005 RMK AO2 RAB28E37 P0000=
200601232037 SPECI KATL 232037Z 00000KT 4SM BR BKN003 OVC008 11/11 A3005 RMK AO2 RAB28E37 P0000=
200601232030 SPECI KATL 232030Z 33003KT 5SM -RA BR OVC006 11/11 A3005 RMK AO2 RAB28 CIG 003V008 P0000=
200601232030 SPECI KATL 232030Z 33003KT 5SM -RA BR OVC006 11/11 A3005 RMK AO2 RAB28 CIG 003V008 P0000=
200601232010 SPECI KATL 232010Z 15006KT 8SM OVC008 11/11 A3003 RMK AO2 CIG 008V011=
200601232010 SPECI KATL 232010Z 15006KT 8SM OVC008 11/11 A3003 RMK AO2 CIG 008V011=
200601231951 METAR KATL 231951Z 14005KT 8SM FEW002 BKN012 OVC015 11/11 A3003 RMK AO2 RAE10 SLP171 P0001 T01110106=
200601231931 SPECI KATL 231931Z 13005KT 6SM BR FEW002 SCT015 OVC018 11/11 A3004 RMK AO2 RAE10 P0001=
200601231931 SPECI KATL 231931Z 13005KT 6SM BR FEW002 SCT015 OVC018 11/11 A3004 RMK AO2 RAE10 P0001=
200601231851 METAR KATL 231851Z 12005KT 1 1/2SM -RA BR FEW005 SCT015 OVC020 11/10 A3005 RMK AO2 SFC VIS 3 SLP178 P0005 T01060100=
200601231845 SPECI KATL 231845Z 12004KT 1 1/2SM -RA BR FEW005 SCT015 OVC020 11/10 A3006 RMK AO2 SFC VIS 3 P0005=
200601231845 SPECI KATL 231845Z 12004KT 1 1/2SM -RA BR FEW005 SCT015 OVC020 11/10 A3006 RMK AO2 SFC VIS 3 P0005=
200601231824 SPECI KATL 231824Z 06007KT 3SM -RA BR FEW013 BKN018 OVC023 10/09 A3007 RMK AO2 SFC VIS 4 P0004=
200601231824 SPECI KATL 231824Z 06007KT 3SM -RA BR FEW013 BKN018 OVC023 10/09 A3007 RMK AO2 SFC VIS 4 P0004=
200601231801 SPECI KATL 231801Z 04009KT 1 1/2SM -RA BR SCT004 BKN011 OVC015 10/09 A3008 RMK AO2 SFC VIS 5 P0001=
200601231801 SPECI KATL 231801Z 04009KT 1 1/2SM -RA BR SCT004 BKN011 OVC015 10/09 A3008 RMK AO2 SFC VIS 5 P0001=
200601231751 METAR KATL 231751Z 36010KT 1 1/2SM R09R/6000VP6000FT -RA BR BKN004 BKN009 OVC015 09/09 A3010 RMK AO2 WSHFT 1721 SFC VIS 3 RAE02B33 SLP195 P0002 60056 T00940089 10106 20061 50001=
200601231737 SPECI KATL 231737Z 35012G20KT 1 1/2SM RA BR OVC004 09/09 A3011 RMK AO2 WSHFT 1721 SFC VIS 3 RAE02B33 CIG 002V007 P0000=
200601231737 SPECI KATL 231737Z 35012G20KT 1 1/2SM RA BR OVC004 09/09 A3011 RMK AO2 WSHFT 1721 SFC VIS 3 RAE02B33 CIG 002V007 P0000=
200601231720 SPECI KATL 231720Z 34007KT 2SM BR OVC004 11/09 A3011 RMK AO2 SFC VIS 5 RAE02 P0000=
200601231720 SPECI KATL 231720Z 34007KT 2SM BR OVC004 11/09 A3011 RMK AO2 SFC VIS 5 RAE02 P0000=
200601231651 METAR KATL 231651Z 08003KT 3SM -RA BR BKN002 OVC005 10/09 A3011 RMK AO2 SFC VIS 6 RAB49 SLP197 P0000 T01000094=
200601231625 SPECI KATL 231625Z 12003KT 3SM BR BKN002 OVC005 10/09 A3011 RMK AO2 SFC VIS 6=
200601231625 SPECI KATL 231625Z 12003KT 3SM BR BKN002 OVC005 10/09 A3011 RMK AO2 SFC VIS 6=
200601231551 METAR KATL 231551Z 12005KT 1 1/2SM BR OVC002 09/08 A3011 RMK AO2 SFC VIS 5 RAE24 SLP200 P0002 T00890083=
200601231451 METAR KATL 231451Z 13009KT 1 1/2SM -RA BR OVC002 07/07 A3009 RMK AO2 SFC VIS 4 SLP194 P0017 60052 T00720067 58025=
200601231351 METAR KATL 231351Z 09008KT 1 1/2SM RA BR OVC003 07/07 A3013 RMK AO2 SFC VIS 2 1/2 SLP206 P0020 T00670067=
200601231326 SPECI KATL 231326Z 08010KT 1SM RA BR BKN003 OVC017 07/07 A3014 RMK AO2 SFC VIS 3 PRESFR P0011=
200601231326 SPECI KATL 231326Z 08010KT 1SM RA BR BKN003 OVC017 07/07 A3014 RMK AO2 SFC VIS 3 PRESFR P0011=
200601231314 SPECI KATL 231314Z 09005KT 1 1/2SM RA BR SCT003 OVC017 07/07 A3016 RMK AO2 SFC VIS 3 P0008=
200601231314 SPECI KATL 231314Z 09005KT 1 1/2SM RA BR SCT003 OVC017 07/07 A3016 RMK AO2 SFC VIS 3 P0008=
200601231251 METAR KATL 231251Z 12003KT 1 1/2SM RA BR BKN002 BKN044 OVC055 07/07 A3016 RMK AO2 SFC VIS 2 1/2 SLP216 P0015 T00670067=
200601231234 SPECI KATL 231234Z 10007KT 1 1/2SM -RA BR FEW002 BKN044 OVC055 07/07 A3014 RMK AO2 SFC VIS 3 P0011=
200601231234 SPECI KATL 231234Z 10007KT 1 1/2SM -RA BR FEW002 BKN044 OVC055 07/07 A3014 RMK AO2 SFC VIS 3 P0011=
200601231222 SPECI KATL 231222Z 12005KT 3SM -RA BR FEW002 BKN035 OVC045 07/07 A3016 RMK AO2 P0010=
200601231222 SPECI KATL 231222Z 12005KT 3SM -RA BR FEW002 BKN035 OVC045 07/07 A3016 RMK AO2 P0010=
200601231151 METAR KATL 231151Z 07006KT 3SM -RA BR FEW004 BKN016 OVC024 06/06 A3017 RMK AO2 SFC VIS 4 DZE21RAB21 SLP220 P0005 60008 70008 T00610061 10061 20056 53006=
200601231148 SPECI KATL 231148Z 05008KT 3SM -RA BR FEW004 BKN012 OVC020 06/06 A3018 RMK AO2 DZE21RAB21 P0005=
200601231148 SPECI KATL 231148Z 05008KT 3SM -RA BR FEW004 BKN012 OVC020 06/06 A3018 RMK AO2 DZE21RAB21 P0005=
200601231139 SPECI KATL 231139Z 36012KT 1 1/4SM RA BR SCT003 BKN006 OVC018 06/06 A3019 RMK AO2 SFC VIS 2 DZE21RAB21 P0002=
200601231139 SPECI KATL 231139Z 36012KT 1 1/4SM RA BR SCT003 BKN006 OVC018 06/06 A3019 RMK AO2 SFC VIS 2 DZE21RAB21 P0002=
200601231133 SPECI KATL 231133Z 34011KT 3/4SM -RA BR BKN003 OVC006 06/06 A3019 RMK AO2 SFC VIS 1 1/2 DZE21RAB21 CIG 001V005 P0001=
200601231133 SPECI KATL 231133Z 34011KT 3/4SM -RA BR BKN003 OVC006 06/06 A3019 RMK AO2 SFC VIS 1 1/2 DZE21RAB21 CIG 001V005 P0001=
200601231121 SPECI KATL 231121Z 35013G18KT 3/4SM -RA BR OVC001 06/06 A3019 RMK AO2 SFC VIS 1 1/2 DZE21RAB21 P0000=
200601231121 SPECI KATL 231121Z 35013G18KT 3/4SM -RA BR OVC001 06/06 A3019 RMK AO2 SFC VIS 1 1/2 DZE21RAB21 P0000=
200601231051 METAR KATL 231051Z 10006KT 1/2SM R09R/4000V4500FT -DZ FG OVC001 06/06 A3013 RMK AO2 SLP208 P0000 T00610061=
200601230951 METAR KATL 230951Z 09006KT 3/4SM -DZ BR OVC002 06/06 A3015 RMK AO2 SFC VIS 1 1/2 RAE00DZB05 SLP212 P0000 T00610061=
200601230851 METAR KATL 230851Z 09008KT 3/4SM -RA BR OVC002 06/06 A3018 RMK AO2 SFC VIS 2 1/2 DZE28RAB28 CIG 001V005 SLP224 TWRINC P0003 60003 T00560056 56010=
200601230751 METAR KATL 230751Z 09008KT 3/4SM -DZ BR OVC002 06/06 A3019 RMK AO2 SFC VIS 1 1/2 RAE0653DZB0657 SLP225 P0000 T00610061=
200601230651 METAR KATL 230651Z 07011KT 3/4SM R09R/P6000FT -RA BR OVC002 06/06 A3020 RMK AO2 DZE47RAB47 SLP229 P0000 T00610061=
200601230635 SPECI KATL 230635Z 08013KT 1/4SM R09R/P6000FT -DZ FG SCT001 OVC002 06/06 A3019 RMK AO2 SFC VIS 1/2 P0000=
200601230635 SPECI KATL 230635Z 08013KT 1/4SM R09R/P6000FT -DZ FG SCT001 OVC002 06/06 A3019 RMK AO2 SFC VIS 1/2 P0000=
200601230551 METAR KATL 230551Z 08010KT 1/4SM R09R/P6000FT -DZ FG OVC001 06/06 A3021 RMK AO2 SLP232 P0000 60000 T00610061 10089 20061 56020=
200601230451 METAR KATL 230451Z 09010KT 1/4SM R09R/4000V5500FT DZ FG OVC001 07/07 A3022 RMK AO2 SLP234 P0000 T00670067 401560067=
200601230351 METAR KATL 230351Z 10012G19KT 1/4SM R09R/5000VP6000FT -DZ FG OVC001 07/07 A3023 RMK AO2 SLP239 P0000 T00670067=
200601230312 SPECI KATL 230312Z 08014KT 1/2SM R09R/P6000FT -DZ BR BKN001 OVC003 07/07 A3026 RMK AO2 SFC VIS 1 P0000=
200601230312 SPECI KATL 230312Z 08014KT 1/2SM R09R/P6000FT -DZ BR BKN001 OVC003 07/07 A3026 RMK AO2 SFC VIS 1 P0000=
200601230251 METAR KATL 230251Z 09012KT 1/2SM -DZ BR FEW001 OVC003 07/07 A3027 RMK AO2 SFC VIS 1 1/4 DZB50 SLP253 P0000 60000 T00720072 55000=
200601230151 METAR KATL 230151Z 09014KT 1SM BR OVC002 08/07 A3027 RMK AO2 SFC VIS 1 1/2 DZE45RAB45E51 SLP250 P0000 T00780072=
200601230051 METAR KATL 230051Z 08015KT 1SM R09R/P6000FT -DZ BR OVC002 08/08 A3027 RMK AO2 DZB22 SLP252 P0000 T00830078=
200601230025 SPECI KATL 230025Z 08013KT 3/4SM R09R/P6000FT -DZ BR OVC002 08/08 A3027 RMK AO2 DZB22 P0000=
200601230025 SPECI KATL 230025Z 08013KT 3/4SM R09R/P6000FT -DZ BR OVC002 08/08 A3027 RMK AO2 DZB22 P0000=
200601230023 SPECI KATL 230023Z 08013KT 3/4SM R09R/P6000FT -DZ BR OVC001 08/08 A3027 RMK AO2 DZB22 P0000=
200601230023 SPECI KATL 230023Z 08013KT 3/4SM R09R/P6000FT -DZ BR OVC001 08/08 A3027 RMK AO2 DZB22 P0000=
200601222351 METAR KATL 222351Z 08010KT 1/4SM R09R/P6000FT FG OVC001 09/08 A3027 RMK AO2 SFC VIS 1/2 DZE44 SLP253 P0000 60000 T00890083 10122 20089 53000=
200601222337 SPECI KATL 222337Z 09013KT 1/2SM R09R/P6000FT DZ FG OVC001 09/08 A3027 RMK AO2 P0000=
200601222337 SPECI KATL 222337Z 09013KT 1/2SM R09R/P6000FT DZ FG OVC001 09/08 A3027 RMK AO2 P0000=
200601222301 SPECI KATL 222301Z 08015KT 3/4SM R09R/P6000FT -DZ BR OVC002 09/08 A3027 RMK AO2 SFC VIS 1 P0000=
200601222301 SPECI KATL 222301Z 08015KT 3/4SM R09R/P6000FT -DZ BR OVC002 09/08 A3027 RMK AO2 SFC VIS 1 P0000=
200601222251 METAR KATL 222251Z 07014KT 1 1/2SM -DZ BR OVC003 09/08 A3026 RMK AO2 DZB50 SLP249 P0000 T00890083=
200601222226 SPECI KATL 222226Z 08018KT 2 1/2SM BR OVC004 09/09 A3027 RMK AO2 SFC VIS 5=
200601222226 SPECI KATL 222226Z 08018KT 2 1/2SM BR OVC004 09/09 A3027 RMK AO2 SFC VIS 5=
200601222151 METAR KATL 222151Z 08014KT 1 1/4SM BR OVC002 10/09 A3027 RMK AO2 SFC VIS 4 SLP251 T01000094=
200601222138 SPECI KATL 222138Z 08013KT 1 1/4SM BR OVC002 10/09 A3027 RMK AO2 SFC VIS 2 1/2=
200601222138 SPECI KATL 222138Z 08013KT 1 1/4SM BR OVC002 10/09 A3027 RMK AO2 SFC VIS 2 1/2=
200601222051 METAR KATL 222051Z 08012KT 1/2SM R09R/6000VP6000FT BR OVC002 10/10 A3027 RMK AO2 SFC VIS 1 1/4 SLP251 T01000100 56019=
200601221951 METAR KATL 221951Z 06014KT 3/4SM R09R/5500VP6000FT BR OVC002 11/11 A3029 RMK AO2 SFC VIS 1 1/4 SLP257 T01060106=
200601221851 METAR KATL 221851Z 08015KT 3/4SM R09R/5500VP6000FT BR OVC002 11/11 A3030 RMK AO2 SFC VIS 1 1/4 SLP259 T01110111=
200601221751 METAR KATL 221751Z 07014KT 3/4SM R09R/6000VP6000FT BR OVC002 12/12 A3033 RMK AO2 SFC VIS 1 1/2 SLP270 60000 T01220117 10144 20122 58007=
200601221707 SPECI KATL 221707Z 07012KT 3/4SM R09R/5000VP6000FT BR OVC002 13/13 A3035 RMK AO2 SFC VIS 1=
200601221707 SPECI KATL 221707Z 07012KT 3/4SM R09R/5000VP6000FT BR OVC002 13/13 A3035 RMK AO2 SFC VIS 1=
200601221651 METAR KATL 221651Z 08012KT 1/4SM R09R/4500V5500FT BR OVC002 13/13 A3036 RMK AO2 SFC VIS 1 SLP281 T01330133=
200601221551 METAR KATL 221551Z 08010KT 1/4SM R09R/4500VP6000FT BR OVC002 14/13 A3037 RMK AO2 SFC VIS 3/4 RAE20 SLP282 P0000 T01390133=
200601221451 METAR KATL 221451Z 08009KT 1/4SM R09R/3000V4500FT -RA FG OVC002 13/13 A3035 RMK AO2 SFC VIS 1/2 RAB41 SLP277 P0000 60000 T01330133 51007=
200601221433 SPECI KATL 221433Z 09009KT 1/4SM R09R/3500V5000FT FG OVC002 13/13 A3036 RMK AO2 SFC VIS 1/2=
200601221433 SPECI KATL 221433Z 09009KT 1/4SM R09R/3500V5000FT FG OVC002 13/13 A3036 RMK AO2 SFC VIS 1/2=
200601221351 METAR KATL 221351Z 09009KT 1/2SM R09R/5500VP6000FT BR OVC002 13/13 A3034 RMK AO2 SFC VIS 3/4 SLP274 T01330133=
200601221325 SPECI KATL 221325Z 09011KT 1/2SM BR OVC002 14/13 A3035 RMK AO2 SFC VIS 1 1/4=
200601221325 SPECI KATL 221325Z 09011KT 1/2SM BR OVC002 14/13 A3035 RMK AO2 SFC VIS 1 1/4=
200601221251 METAR KATL 221251Z 08011KT 1SM BR OVC004 14/13 A3034 RMK AO2 SFC VIS 3 SLP273 T01390133=
200601221151 METAR KATL 221151Z 10008KT 1 1/4SM BR OVC004 14/14 A3033 RMK AO2 SFC VIS 4 RAE1054 SLP270 P0000 60000 70013 T01440139 10150 20144 51009=
200601221051 METAR KATL 221051Z 07010KT 1 1/4SM -RA BR OVC002 14/14 A3032 RMK AO2 SFC VIS 2 1/2 RAB38 SLP265 P0000 T01440139=
200601221024 SPECI KATL 221024Z 07008KT 1 1/4SM BR OVC002 14/14 A3032 RMK AO2 SFC VIS 1 1/2=
200601221024 SPECI KATL 221024Z 07008KT 1 1/4SM BR OVC002 14/14 A3032 RMK AO2 SFC VIS 1 1/2=
200601221015 SPECI KATL 221015Z 07008KT 2SM BR OVC002 14/14 A3032 RMK AO2=
200601221015 SPECI KATL 221015Z 07008KT 2SM BR OVC002 14/14 A3032 RMK AO2=
200601220951 METAR KATL 220951Z 07005KT 4SM BR OVC004 14/14 A3032 RMK AO2 RAB04E16 SLP265 P0000 T01440144=
200601220920 SPECI KATL 220920Z 08006KT 5SM BR BKN004 BKN010 OVC033 14/14 A3031 RMK AO2 RAB04E16 P0000=
200601220920 SPECI KATL 220920Z 08006KT 5SM BR BKN004 BKN010 OVC033 14/14 A3031 RMK AO2 RAB04E16 P0000=
200601220910 SPECI KATL 220910Z 08006KT 6SM -RA BR SCT004 BKN010 OVC033 15/14 A3031 RMK AO2 RAB04 P0000=
200601220910 SPECI KATL 220910Z 08006KT 6SM -RA BR SCT004 BKN010 OVC033 15/14 A3031 RMK AO2 RAB04 P0000=
200601220851 METAR KATL 220851Z 07004KT 5SM BR BKN031 OVC060 14/14 A3030 RMK AO2 SLP259 T01440139 50005=
200601220751 METAR KATL 220751Z 06005KT 7SM SCT022 OVC060 15/14 A3031 RMK AO2 SLP261 T01500139=
200601220706 SPECI KATL 220706Z 07004KT 7SM FEW007 SCT022 OVC035 15/14 A3031 RMK AO2=
200601220706 SPECI KATL 220706Z 07004KT 7SM FEW007 SCT022 OVC035 15/14 A3031 RMK AO2=
200601220659 SPECI KATL 220659Z 08004KT 7SM FEW007 BKN022 OVC035 15/14 A3031 RMK AO2=
200601220659 SPECI KATL 220659Z 08004KT 7SM FEW007 BKN022 OVC035 15/14 A3031 RMK AO2=
200601220651 METAR KATL 220651Z 06005KT 7SM FEW014 BKN022 OVC035 15/14 A3031 RMK AO2 SLP260 T01500139=
200601220551 METAR KATL 220551Z 03004KT 7SM FEW008 BKN014 BKN100 15/14 A3029 RMK AO2 RAE03B30E37 PRESRR SLP254 P0000 60000 T01500139 10167 20150 58006=
200601220539 SPECI KATL 220539Z 02008KT 7SM BKN014 BKN021 BKN095 15/14 A3028 RMK AO2 RAE03B30E37 P0000=
200601220539 SPECI KATL 220539Z 02008KT 7SM BKN014 BKN021 BKN095 15/14 A3028 RMK AO2 RAE03B30E37 P0000=
200601220451 METAR KATL 220451Z 03003KT 8SM -RA OVC016 16/14 A3031 RMK AO2 RAB49 SLP261 P0000 T01560139 401780122=
200601220351 METAR KATL 220351Z 01006KT 8SM FEW009 OVC016 16/14 A3031 RMK AO2 SLP261 T01560139=
200601220251 METAR KATL 220251Z 01004KT 8SM FEW009 OVC018 16/14 A3031 RMK AO2 SLP260 T01610139 51014=
200601220151 METAR KATL 220151Z 34006KT 8SM FEW007 BKN018 OVC055 16/14 A3030 RMK AO2 SLP257 T01560144=
200601220051 METAR KATL 220051Z 00000KT 9SM BKN016 OVC023 16/14 A3029 RMK AO2 SLP255 T01610144=
200601212351 METAR KATL 212351Z 36006KT 9SM FEW008 BKN014 OVC019 17/15 A3027 RMK AO2 SLP247 60000 T01670150 10178 20167 51012=
200601212323 SPECI KATL 212323Z 32004KT 8SM SCT007 BKN011 OVC019 17/16 A3027 RMK AO2 BINOVC=
200601212323 SPECI KATL 212323Z 32004KT 8SM SCT007 BKN011 OVC019 17/16 A3027 RMK AO2 BINOVC=
200601212307 SPECI KATL 212307Z 32005KT 7SM FEW008 BKN019 OVC032 17/16 A3026 RMK AO2=
200601212307 SPECI KATL 212307Z 32005KT 7SM FEW008 BKN019 OVC032 17/16 A3026 RMK AO2=
200601212251 METAR KATL 212251Z 00000KT 7SM FEW009 SCT030 OVC038 17/16 A3026 RMK AO2 SLP244 BINOVC SW T01720156=
200601212215 SPECI KATL 212215Z 23005KT 7SM FEW009 BKN028 OVC038 18/16 A3025 RMK AO2=
200601212215 SPECI KATL 212215Z 23005KT 7SM FEW009 BKN028 OVC038 18/16 A3025 RMK AO2=
200601212151 METAR KATL 212151Z 22006KT 7SM OVC039 18/16 A3025 RMK AO2 SLP240 T01780156=
200601212131 SPECI KATL 212131Z 24004KT 8SM SCT013 SCT019 BKN039 18/16 A3024 RMK AO2=
200601212131 SPECI KATL 212131Z 24004KT 8SM SCT013 SCT019 BKN039 18/16 A3024 RMK AO2=
200601212059 SPECI KATL 212059Z 24007KT 7SM BKN014 OVC019 18/16 A3023 RMK AO2=
200601212059 SPECI KATL 212059Z 24007KT 7SM BKN014 OVC019 18/16 A3023 RMK AO2=
200601212051 METAR KATL 212051Z 23007KT 7SM FEW010 OVC016 18/16 A3023 RMK AO2 SLP235 60000 T01780156 55004=
200601212040 SPECI KATL 212040Z 23006KT 7SM SCT010 BKN016 18/16 A3023 RMK AO2=
200601212040 SPECI KATL 212040Z 23006KT 7SM SCT010 BKN016 18/16 A3023 RMK AO2=
200601212032 SPECI KATL 212032Z 22005KT 3SM SCT008 OVC013 18/16 A3022 RMK AO2 SFC VIS 7=
200601212032 SPECI KATL 212032Z 22005KT 3SM SCT008 OVC013 18/16 A3022 RMK AO2 SFC VIS 7=
200601212022 SPECI KATL 212022Z 22006KT 3SM BKN010 OVC015 18/16 A3022 RMK AO2 SFC VIS 8 CIG 006V011=
200601212022 SPECI KATL 212022Z 22006KT 3SM BKN010 OVC015 18/16 A3022 RMK AO2 SFC VIS 8 CIG 006V011=
200601211951 METAR KATL 211951Z 26004KT 3SM BKN008 OVC013 17/17 A3022 RMK AO2 SFC VIS 7 RAB29E31 CIG 006V010 SLP231 P0000 T01720167=
200601211902 SPECI KATL 211902Z 23004KT 3SM BKN008 OVC014 17/16 A3022 RMK AO2 SFC VIS 7 CIG 006V011=
200601211902 SPECI KATL 211902Z 23004KT 3SM BKN008 OVC014 17/16 A3022 RMK AO2 SFC VIS 7 CIG 006V011=
200601211851 METAR KATL 211851Z 23007KT 3SM BR BKN010 OVC014 17/16 A3022 RMK AO2 SFC VIS 6 RAB30E42 CIG 007V012 SLP231 P0000 T01720161=
200601211842 SPECI KATL 211842Z 23007KT 1 1/2SM BR BKN010 OVC014 17/16 A3022 RMK AO2 SFC VIS 4 RAB30E42 CIG 007V013 P0000=
200601211842 SPECI KATL 211842Z 23007KT 1 1/2SM BR BKN010 OVC014 17/16 A3022 RMK AO2 SFC VIS 4 RAB30E42 CIG 007V013 P0000=
200601211831 SPECI KATL 211831Z 23008KT 1 1/2SM -RA BR BKN008 OVC014 17/16 A3023 RMK AO2 SFC VIS 2 1/2 RAB30 CIG 006V012 P0000=
200601211831 SPECI KATL 211831Z 23008KT 1 1/2SM -RA BR BKN008 OVC014 17/16 A3023 RMK AO2 SFC VIS 2 1/2 RAB30 CIG 006V012 P0000=
200601211751 METAR KATL 211751Z 23009KT 3SM OVC006 17/16 A3024 RMK AO2 SFC VIS 7 SLP238 60013 T01720161 10172 20128 58005=
200601211716 SPECI KATL 211716Z 23009KT 3SM BR OVC006 17/16 A3025 RMK AO2 SFC VIS 6 CIG 004V010=
200601211716 SPECI KATL 211716Z 23009KT 3SM BR OVC006 17/16 A3025 RMK AO2 SFC VIS 6 CIG 004V010=
200601211656 SPECI KATL 211656Z 22009KT 3SM BR OVC004 17/16 A3026 RMK AO2 SFC VIS 5=
200601211656 SPECI KATL 211656Z 22009KT 3SM BR OVC004 17/16 A3026 RMK AO2 SFC VIS 5=
200601211651 METAR KATL 211651Z 22009KT 1 1/2SM BR OVC004 17/16 A3026 RMK AO2 SFC VIS 5 SLP245 T01670156=
200601211606 SPECI KATL 211606Z 21005KT 1 1/2SM BR OVC002 16/16 A3027 RMK AO2 SFC VIS 2 1/2=
200601211606 SPECI KATL 211606Z 21005KT 1 1/2SM BR OVC002 16/16 A3027 RMK AO2 SFC VIS 2 1/2=
200601211551 METAR KATL 211551Z 22009KT 3SM BR OVC002 16/16 A3027 RMK AO2 SFC VIS 5 SLP249 T01610156=
200601211538 SPECI KATL 211538Z 20009KT 3SM BR OVC002 16/15 A3027 RMK AO2 SFC VIS 5=
200601211538 SPECI KATL 211538Z 20009KT 3SM BR OVC002 16/15 A3027 RMK AO2 SFC VIS 5=
200601211451 METAR KATL 211451Z 21009KT 2 1/2SM BR OVC002 16/15 A3026 RMK AO2 SFC VIS 4 RAB18E28 SLP244 P0001 60013 T01560150 51013=
200601211407 SPECI KATL 211407Z 18007KT 2 1/2SM BR OVC004 14/14 A3024 RMK AO2 SFC VIS 3 CIG 002V008=
200601211407 SPECI KATL 211407Z 18007KT 2 1/2SM BR OVC004 14/14 A3024 RMK AO2 SFC VIS 3 CIG 002V008=
200601211351 METAR KATL 211351Z 17005KT 2 1/2SM BR SCT002 OVC006 14/13 A3024 RMK AO2 RAE41 CIG 004V009 SLP241 P0006 T01390133=
200601211343 SPECI KATL 211343Z 00000KT 2 1/2SM BR BKN008 BKN012 OVC018 14/13 A3025 RMK AO2 SFC VIS 3 RAE41 P0006=
200601211343 SPECI KATL 211343Z 00000KT 2 1/2SM BR BKN008 BKN012 OVC018 14/13 A3025 RMK AO2 SFC VIS 3 RAE41 P0006=
200601211333 SPECI KATL 211333Z 16004KT 2 1/2SM -RA BR BKN010 BKN018 OVC031 13/13 A3024 RMK AO2 P0006=
200601211333 SPECI KATL 211333Z 16004KT 2 1/2SM -RA BR BKN010 BKN018 OVC031 13/13 A3024 RMK AO2 P0006=
200601211310 SPECI KATL 211310Z 00000KT 1 3/4SM RA BR SCT007 BKN015 OVC040 13/13 A3023 RMK AO2 TWR VIS 2 1/2 P0004=
200601211310 SPECI KATL 211310Z 00000KT 1 3/4SM RA BR SCT007 BKN015 OVC040 13/13 A3023 RMK AO2 TWR VIS 2 1/2 P0004=
200601211251 METAR KATL 211251Z 27003KT 2 1/2SM -RA BR BKN009 OVC013 13/13 A3023 RMK AO2 SFC VIS 3 RAB1155 SLP237 P0006 T01280128=
200601211237 SPECI KATL 211237Z 31003KT 2 1/2SM -RA BR OVC009 13/13 A3023 RMK AO2 SFC VIS 3 RAB1155 P0004=
200601211237 SPECI KATL 211237Z 31003KT 2 1/2SM -RA BR OVC009 13/13 A3023 RMK AO2 SFC VIS 3 RAB1155 P0004=
200601211151 METAR KATL 211151Z 21003KT 6SM BR OVC009 14/13 A3022 RMK AO2 SLP231 60007 70007 T01440128 10144 20122 53007=
200601211144 SPECI KATL 211144Z 21003KT 10SM OVC009 14/13 A3022 RMK AO2=
200601211144 SPECI KATL 211144Z 21003KT 10SM OVC009 14/13 A3022 RMK AO2=
200601211051 METAR KATL 211051Z 19008KT 10SM BKN013 BKN027 OVC045 14/12 A3020 RMK AO2 SLP226 T01390122=
200601211045 SPECI KATL 211045Z 19007KT 10SM BKN013 BKN027 OVC060 14/12 A3020 RMK AO2=
200601211045 SPECI KATL 211045Z 19007KT 10SM BKN013 BKN027 OVC060 14/12 A3020 RMK AO2=
200601211027 SPECI KATL 211027Z 19008KT 10SM SCT011 BKN036 OVC095 14/12 A3020 RMK AO2=
200601211027 SPECI KATL 211027Z 19008KT 10SM SCT011 BKN036 OVC095 14/12 A3020 RMK AO2=
200601210951 METAR KATL 210951Z 18005KT 10SM OVC013 13/12 A3019 RMK AO2 RAB16E27 SLP222 P0000 T01330117=
200601210851 METAR KATL 210851Z 18005KT 10SM BKN027 OVC032 13/11 A3020 RMK AO2 RAE46 SLP223 P0007 60007 T01280106 53001=
200601210804 SPECI KATL 210804Z 15005KT 7SM -RA OVC029 13/09 A3018 RMK AO2 P0001=
200601210804 SPECI KATL 210804Z 15005KT 7SM -RA OVC029 13/09 A3018 RMK AO2 P0001=
200601210751 METAR KATL 210751Z 18004KT 10SM -RA BKN031 OVC070 14/09 A3019 RMK AO2 RAB16E31B49 SLP221 P0000 T01390089=
200601210651 METAR KATL 210651Z 16007KT 10SM FEW036 OVC090 14/08 A3018 RMK AO2 SLP219 T01440078=
200601210551 METAR KATL 210551Z 15008KT 10SM FEW030 BKN055 OVC100 14/07 A3019 RMK AO2 SLP223 60000 T01440072 10144 20133 57014=
200601210451 METAR KATL 210451Z 13005KT 10SM BKN030 OVC040 13/08 A3021 RMK AO2 RAB33E43 SLP230 P0000 T01330078 401670022=
200601210351 METAR KATL 210351Z 13006KT 10SM BKN030 BKN040 OVC065 13/08 A3022 RMK AO2 SLP234 T01330078=
200601210251 METAR KATL 210251Z 12007KT 10SM FEW040 BKN085 OVC110 14/08 A3023 RMK AO2 SLP239 T01390078 56004=
200601210151 METAR KATL 210151Z 13006KT 10SM BKN055 OVC110 14/08 A3024 RMK AO2 SLP241 T01390078=
200601210051 METAR KATL 210051Z 13005KT 10SM BKN050 BKN250 14/08 A3024 RMK AO2 SLP243 T01390078=
200601202351 METAR KATL 202351Z 13005KT 10SM FEW042 BKN050 BKN065 BKN250 14/08 A3025 RMK AO2 SLP245 T01440078 10167 20128 50000=
200601202251 METAR KATL 202251Z 14005KT 10SM BKN045 BKN070 BKN200 OVC250 15/08 A3025 RMK AO2 SLP247 T01500078=
200601202151 METAR KATL 202151Z 14005KT 8SM BKN043 BKN050 BKN200 16/08 A3025 RMK AO2 SLP244 T01610078=
200601202051 METAR KATL 202051Z 14010KT 9SM FEW035 BKN200 BKN260 17/08 A3025 RMK AO2 SLP243 T01670078 56026=
200601201951 METAR KATL 201951Z 17007KT 10SM BKN033 BKN200 BKN260 16/08 A3027 RMK AO2 SLP250 T01610078=
200601201851 METAR KATL 201851Z 09004KT 9SM SCT029 BKN200 BKN260 16/08 A3028 RMK AO2 SLP256 T01560078=
200601201751 METAR KATL 201751Z 18006KT 9SM OVC029 13/06 A3032 RMK AO2 SLP271 T01280061 10133 20022 58017 $=
200601201713 SPECI KATL 201713Z 09003KT 9SM BKN029 BKN200 BKN260 13/05 A3034 RMK AO2 $=
200601201713 SPECI KATL 201713Z 09003KT 9SM BKN029 BKN200 BKN260 13/05 A3034 RMK AO2 $=
200601201651 METAR KATL 201651Z VRB04KT 9SM SCT027 BKN200 BKN260 12/04 A3035 RMK AO2 SLP281 T01220039=
200601201551 METAR KATL 201551Z 00000KT 9SM BKN025 09/01 A3037 RMK AO2 SLP287 T00890011=
200601201451 METAR KATL 201451Z 11003KT 8SM BKN027 BKN200 BKN260 07/00 A3038 RMK AO2 SLP290 T00670000 53012=
200601201412 SPECI KATL 201412Z 12004KT 10SM BKN027 BKN120 BKN250 06/00 A3037 RMK AO2=
200601201412 SPECI KATL 201412Z 12004KT 10SM BKN027 BKN120 BKN250 06/00 A3037 RMK AO2=
200601201351 METAR KATL 201351Z 09003KT 10SM FEW120 SCT250 06/01 A3036 RMK AO2 SLP283 T00610006=
200601201251 METAR KATL 201251Z 00000KT 10SM FEW120 SCT250 03/M02 A3034 RMK AO2 SLP280 T00331017=
200601201151 METAR KATL 201151Z 00000KT 10SM SCT250 03/M02 A3034 RMK AO2 SLP278 T00331022 10072 20022 53008=
200601201051 METAR KATL 201051Z 08004KT 10SM SCT250 02/M02 A3033 RMK AO2 SLP274 T00221022=
200601200951 METAR KATL 200951Z 07005KT 10SM SCT250 03/M02 A3032 RMK AO2 SLP268 T00331017=
200601200851 METAR KATL 200851Z 00000KT 10SM SCT250 05/M02 A3031 RMK AO2 SLP266 T00501017 53004=
200601200751 METAR KATL 200751Z 16003KT 10SM BKN250 06/M02 A3030 RMK AO2 SLP263 T00561022=
200601200651 METAR KATL 200651Z 16003KT 10SM SCT250 07/M02 A3031 RMK AO2 SLP264 T00671022=
200601200551 METAR KATL 200551Z 16005KT 10SM SCT250 07/M02 A3030 RMK AO2 SLP262 T00671017 10122 20067 58004=
200601200451 METAR KATL 200451Z 17005KT 10SM FEW250 08/M02 A3031 RMK AO2 SLP265 T00781022 401610011=
200601200351 METAR KATL 200351Z 16005KT 10SM FEW250 08/M02 A3031 RMK AO2 SLP267 T00831022=
200601200251 METAR KATL 200251Z 16005KT 10SM CLR 09/M02 A3031 RMK AO2 SLP269 T00891022 53007=
200601200151 METAR KATL 200151Z 16007KT 10SM CLR 10/M02 A3031 RMK AO2 SLP267 T01001022=
200601200051 METAR KATL 200051Z 14007KT 10SM CLR 11/M02 A3029 RMK AO2 SLP263 T01111017=
200601192351 METAR KATL 192351Z 15006KT 10SM FEW250 12/M02 A3029 RMK AO2 SLP263 T01221017 10161 20122 53006=
200601192251 METAR KATL 192251Z 16005KT 10SM FEW250 14/M02 A3027 RMK AO2 SLP254 T01391022=
200601192151 METAR KATL 192151Z 16009KT 10SM FEW250 16/M03 A3028 RMK AO2 SLP256 T01561028=
200601192051 METAR KATL 192051Z 15009KT 10SM FEW250 16/M03 A3027 RMK AO2 SLP254 T01611033 56021=
200601191951 METAR KATL 191951Z 19009KT 10SM FEW250 15/M03 A3028 RMK AO2 SLP258 T01501028=
200601191851 METAR KATL 191851Z 18007KT 10SM FEW250 14/M02 A3031 RMK AO2 SLP266 T01441022=
200601191751 METAR KATL 191751Z 18008KT 10SM FEW250 14/M02 A3034 RMK AO2 SLP277 T01391022 10139 20011 58021=
200601191651 METAR KATL 191651Z 19005KT 10SM FEW250 12/M01 A3039 RMK AO2 SLP293 T01221006=
200601191551 METAR KATL 191551Z 21005KT 10SM FEW250 11/M01 A3040 RMK AO2 SLP300 T01061006=
200601191451 METAR KATL 191451Z 21004KT 10SM FEW200 08/M01 A3040 RMK AO2 SLP301 T00781006 51010=
200601191351 METAR KATL 191351Z 00000KT 8SM SCT200 03/M02 A3039 RMK AO2 SLP298 T00331017=
200601191251 METAR KATL 191251Z 00000KT 10SM FEW200 01/M03 A3039 RMK AO2 SLP298 T00111028=
200601191151 METAR KATL 191151Z COR 00000KT 10SM SCT200 01/M03 A3037 RMK AO2 SLP292 T00111028 10033 20011 51014=
200601191051 METAR KATL 191051Z 00000KT 10SM SCT200 02/M03 A3036 RMK AO2 SLP286 T00221033=
200601190951 METAR KATL 190951Z 00000KT 10SM SCT200 01/M03 A3035 RMK AO2 SLP283 T00111028=
200601190851 METAR KATL 190851Z 00000KT 10SM FEW200 02/M03 A3033 RMK AO2 SLP276 T00221028 55000=
200601190751 METAR KATL 190751Z 18003KT 10SM CLR 02/M02 A3032 RMK AO2 SLP274 T00221022=
200601190651 METAR KATL 190651Z 00000KT 10SM CLR 03/M03 A3032 RMK AO2 SLP272 T00281028=
200601190551 METAR KATL 190551Z 00000KT 10SM CLR 03/M03 A3033 RMK AO2 SLP276 T00331028 10078 20033 50007=
200601190451 METAR KATL 190451Z 23003KT 10SM CLR 04/M03 A3033 RMK AO2 SLP278 T00391028 401061011=
200601190351 METAR KATL 190351Z 22005KT 10SM CLR 04/M03 A3032 RMK AO2 SLP273 T00441033=
200601190251 METAR KATL 190251Z 22005KT 10SM CLR 05/M03 A3031 RMK AO2 SLP270 T00501028 52010=
200601190151 METAR KATL 190151Z 24003KT 10SM CLR 06/M03 A3030 RMK AO2 SLP267 T00561033=
200601190051 METAR KATL 190051Z 24005KT 10SM CLR 07/M03 A3029 RMK AO2 SLP263 T00671033=
200601182351 METAR KATL 182351Z 24005KT 10SM FEW250 08/M04 A3028 RMK AO2 SLP259 T00781039 10106 20072 51019=
200601182251 METAR KATL 182251Z 25006KT 10SM FEW250 08/M04 A3025 RMK AO2 SLP250 T00831044=
200601182151 METAR KATL 182151Z 28011G15KT 10SM CLR 09/M04 A3024 RMK AO2 SLP247 T00941039=
200601182051 METAR KATL 182051Z 25013G20KT 10SM CLR 10/M06 A3022 RMK AO2 SLP237 T01001056 53004=
200601181951 METAR KATL 181951Z 27015G19KT 10SM CLR 10/M04 A3021 RMK AO2 PK WND 30027/1932 SLP234 T01001044=
200601181851 METAR KATL 181851Z 28017G27KT 10SM CLR 08/M05 A3020 RMK AO2 PK WND 26028/1838 SLP233 T00831050=
200601181751 METAR KATL 181751Z 27017G21KT 10SM CLR 07/M04 A3021 RMK AO2 SLP233 T00721039 10078 21011 50005=
200601181651 METAR KATL 181651Z 25014KT 10SM CLR 06/M04 A3022 RMK AO2 SLP237 T00611044=
200601181551 METAR KATL 181551Z 24011G21KT 10SM CLR 04/M03 A3022 RMK AO2 SLP239 T00441033=
200601181451 METAR KATL 181451Z 23010KT 10SM FEW012 02/M02 A3019 RMK AO2 SLP228 T00171017 53034=
200601181351 METAR KATL 181351Z 24008KT 9SM CLR 00/M03 A3015 RMK AO2 SLP214 T00001028=
200601181251 METAR KATL 181251Z 25007KT 10SM CLR M01/M03 A3012 RMK AO2 SLP204 T10061033=
200601181151 METAR KATL 181151Z 25009KT 10SM CLR M01/M04 A3009 RMK AO2 SLP194 60000 70127 931000 T10061039 10044 21006 51040=
200601181051 METAR KATL 181051Z 27010KT 10SM CLR 00/M04 A3006 RMK AO2 SLP183 T00001039=
200601180951 METAR KATL 180951Z 28014G22KT 10SM FEW038 01/M04 A3001 RMK AO2 PK WND 29026/0907 SLP168 T00061039=
200601180851 METAR KATL 180851Z 27018G29KT 10SM SCT026 01/M03 A2997 RMK AO2 PK WND 27029/0849 SLP152 SNE05B19E38 P0000 60000 T00111033 51041=
200601180838 SPECI KATL 180838Z 28016G24KT 9SM FEW012 SCT024 BKN040 01/M02 A2996 RMK AO2 PK WND 28027/0808 SNE05B19E38 P0000=
200601180838 SPECI KATL 180838Z 28016G24KT 9SM FEW012 SCT024 BKN040 01/M02 A2996 RMK AO2 PK WND 28027/0808 SNE05B19E38 P0000=
200601180751 METAR KATL 180751Z 27014G25KT 10SM -SN BKN020 OVC060 02/M01 A2993 RMK AO2 RAB0655E21SNB0655E21B50 SLP137 P0000 T00221006=
200601180717 SPECI KATL 180717Z 27016G21KT 9SM -SNRA FEW012 BKN020 OVC060 02/01 A2990 RMK AO2 RAB0655SNB0655 P0000=
200601180717 SPECI KATL 180717Z 27016G21KT 9SM -SNRA FEW012 BKN020 OVC060 02/01 A2990 RMK AO2 RAB0655SNB0655 P0000=
200601180713 SPECI KATL 180713Z 28015G21KT 7SM -SNRA BKN012 BKN022 OVC050 02/01 A2990 RMK AO2 RAB0655SNB0655 P0000=
200601180713 SPECI KATL 180713Z 28015G21KT 7SM -SNRA BKN012 BKN022 OVC050 02/01 A2990 RMK AO2 RAB0655SNB0655 P0000=
200601180651 METAR KATL 180651Z 26016G21KT 10SM BKN020 BKN049 03/01 A2988 RMK AO2 SLP120 SHRASN NW-NE T00280006=
200601180551 METAR KATL 180551Z 27014G22KT 10SM SCT018 BKN025 BKN150 04/02 A2984 RMK AO2 PK WND 29026/0513 SLP106 60030 T00440017 10100 20044 51048=
200601180543 SPECI KATL 180543Z 26012G20KT 10SM SCT018 BKN025 BKN055 OVC150 04/02 A2983 RMK AO2 PK WND 29026/0513=
200601180543 SPECI KATL 180543Z 26012G20KT 10SM SCT018 BKN025 BKN055 OVC150 04/02 A2983 RMK AO2 PK WND 29026/0513=
200601180534 SPECI KATL 180534Z 27016G24KT 10SM SCT025 BKN055 OVC150 04/02 A2983 RMK AO2 PK WND 29026/0513=
200601180534 SPECI KATL 180534Z 27016G24KT 10SM SCT025 BKN055 OVC150 04/02 A2983 RMK AO2 PK WND 29026/0513=
200601180524 SPECI KATL 180524Z 27019G23KT 10SM BKN022 BKN035 OVC050 04/02 A2982 RMK AO2 PK WND 29026/0513=
200601180524 SPECI KATL 180524Z 27019G23KT 10SM BKN022 BKN035 OVC050 04/02 A2982 RMK AO2 PK WND 29026/0513=
200601180455 SPECI KATL 180455Z 27018G28KT 10SM SCT015 BKN030 OVC045 05/03 A2981 RMK AO2 PK WND 27026/0455=
200601180455 SPECI KATL 180455Z 27018G28KT 10SM SCT015 BKN030 OVC045 05/03 A2981 RMK AO2 PK WND 27026/0455=
200601180451 METAR KATL 180451Z 26017G28KT 10SM FEW010 BKN016 OVC030 05/03 A2981 RMK AO2 PK WND 29030/0431 RAE50 SLP095 P0000 T00500028 401560050=
200601180405 SPECI KATL 180405Z 27020G30KT 10SM -RA SCT010 BKN018 OVC035 08/06 A2976 RMK AO2 PK WND 28030/0400 P0000=
200601180405 SPECI KATL 180405Z 27020G30KT 10SM -RA SCT010 BKN018 OVC035 08/06 A2976 RMK AO2 PK WND 28030/0400 P0000=
200601180351 METAR KATL 180351Z 26013G20KT 10SM -RA BKN012 BKN020 OVC040 08/07 A2977 RMK AO2 PK WND 23029/0334 PRESRR SLP080 P0004 T00830067=
200601180344 SPECI KATL 180344Z 25015G24KT 10SM -RA SCT010 SCT025 OVC035 08/07 A2975 RMK AO2 PK WND 23029/0334 PRESRR P0004=
200601180344 SPECI KATL 180344Z 25015G24KT 10SM -RA SCT010 SCT025 OVC035 08/07 A2975 RMK AO2 PK WND 23029/0334 PRESRR P0004=
200601180327 SPECI KATL 180327Z 26022G25KT 7SM -RA FEW008 BKN016 OVC035 09/07 A2973 RMK AO2 PK WND 23027/0316 P0003=
200601180327 SPECI KATL 180327Z 26022G25KT 7SM -RA FEW008 BKN016 OVC035 09/07 A2973 RMK AO2 PK WND 23027/0316 P0003=
200601180314 SPECI KATL 180314Z 22019G25KT 1 1/2SM -RA BR SCT008 BKN013 OVC035 10/09 A2971 RMK AO2 SFC VIS 2 P0001=
200601180314 SPECI KATL 180314Z 22019G25KT 1 1/2SM -RA BR SCT008 BKN013 OVC035 10/09 A2971 RMK AO2 SFC VIS 2 P0001=
200601180251 METAR KATL 180251Z 22009KT 4SM -RA BR FEW007 BKN012 OVC035 10/09 A2969 RMK AO2 SLP055 P0000 60026 T01000089 51013=
200601180237 SPECI KATL 180237Z 20010KT 10SM -RA SCT007 BKN015 OVC035 10/09 A2971 RMK AO2 P0000=
200601180237 SPECI KATL 180237Z 20010KT 10SM -RA SCT007 BKN015 OVC035 10/09 A2971 RMK AO2 P0000=
200601180151 METAR KATL 180151Z 18007KT 10SM -RA BKN005 BKN020 OVC100 10/09 A2969 RMK AO2 SLP052 CIG 003V008 P0012 T01000094=
200601180051 METAR KATL 180051Z 16007KT 6SM -RA BR BKN004 BKN012 OVC040 10/09 A2967 RMK AO2 SLP046 CIG 003V007 P0014 T01000094=
200601180047 SPECI KATL 180047Z 14007KT 6SM RA BR SCT003 BKN008 OVC040 10/09 A2966 RMK AO2 P0014=
200601180047 SPECI KATL 180047Z 14007KT 6SM RA BR SCT003 BKN008 OVC040 10/09 A2966 RMK AO2 P0014=
200601180027 SPECI KATL 180027Z 17005KT 8SM -RA FEW007 BKN015 OVC060 10/09 A2968 RMK AO2 P0010=
200601180027 SPECI KATL 180027Z 17005KT 8SM -RA FEW007 BKN015 OVC060 10/09 A2968 RMK AO2 P0010=
200601180012 SPECI KATL 180012Z 16004KT 6SM -RA BR FEW007 SCT022 OVC070 10/09 A2967 RMK AO2 P0007=
200601180012 SPECI KATL 180012Z 16004KT 6SM -RA BR FEW007 SCT022 OVC070 10/09 A2967 RMK AO2 P0007=
200601180000 SPECI KATL 180000Z 18005KT 3SM RA BR FEW007 BKN022 OVC040 10/09 A2968 RMK AO2 P0003=
200601180000 SPECI KATL 180000Z 18005KT 3SM RA BR FEW007 BKN022 OVC040 10/09 A2968 RMK AO2 P0003=
200601172351 METAR KATL 172351Z 21005KT 4SM RA BR SCT025 BKN036 OVC055 10/09 A2971 RMK AO2 SLP059 P0011 60097 T01000094 10156 20100 51038=
200601172251 METAR KATL 172251Z 27009KT 6SM -RA BR FEW012 BKN035 OVC070 11/09 A2968 RMK AO2 SLP050 P0012 T01060094=
200601172222 SPECI KATL 172222Z 27016KT 5SM -RA BR FEW015 SCT025 OVC040 11/10 A2969 RMK AO2 P0007=
200601172222 SPECI KATL 172222Z 27016KT 5SM -RA BR FEW015 SCT025 OVC040 11/10 A2969 RMK AO2 P0007=
200601172204 SPECI KATL 172204Z 27012G18KT 1 1/2SM +RA BR SCT006 BKN019 OVC045 11/11 A2967 RMK AO2 P0005=
200601172204 SPECI KATL 172204Z 27012G18KT 1 1/2SM +RA BR SCT006 BKN019 OVC045 11/11 A2967 RMK AO2 P0005=
200601172151 METAR KATL 172151Z 27012KT 1 1/2SM RA BR BKN008 OVC045 11/11 A2964 RMK AO2 PRESRR SLP037 P0017 T01110106=
200601172051 METAR KATL 172051Z 29014G17KT 1SM R09R/6000VP6000FT RA BR FEW007 SCT017 OVC029 12/12 A2959 RMK AO2 WSHFT 1950 SFC VIS 1 1/4 SLP019 P0049 60057 T01220117 53010=
200601172046 SPECI KATL 172046Z 29011KT 1SM R09R/6000VP6000FT +RA BR SCT005 BKN009 OVC023 12/12 A2958 RMK AO2 WSHFT 1950 SFC VIS 1 1/4 P0047=
200601172046 SPECI KATL 172046Z 29011KT 1SM R09R/6000VP6000FT +RA BR SCT005 BKN009 OVC023 12/12 A2958 RMK AO2 WSHFT 1950 SFC VIS 1 1/4 P0047=
200601172031 SPECI KATL 172031Z 30013G17KT 1SM R09R/P6000FT RA BR SCT005 OVC018 12/12 A2957 RMK AO2 WSHFT 1950 P0039=
200601172031 SPECI KATL 172031Z 30013G17KT 1SM R09R/P6000FT RA BR SCT005 OVC018 12/12 A2957 RMK AO2 WSHFT 1950 P0039=
200601172027 SPECI KATL 172027Z 30012G17KT 1SM R09R/6000VP6000FT +RA BR SCT005 BKN010 OVC020 12/12 A2957 RMK AO2 WSHFT 1950 P0037=
200601172027 SPECI KATL 172027Z 30012G17KT 1SM R09R/6000VP6000FT +RA BR SCT005 BKN010 OVC020 12/12 A2957 RMK AO2 WSHFT 1950 P0037=
200601172013 SPECI KATL 172013Z 30013KT 1/2SM R09R/3500VP6000FT +RA FG FEW002 BKN005 OVC020 13/13 A2955 RMK AO2 WSHFT 1950 TWR VIS 1 P0026=
200601172013 SPECI KATL 172013Z 30013KT 1/2SM R09R/3500VP6000FT +RA FG FEW002 BKN005 OVC020 13/13 A2955 RMK AO2 WSHFT 1950 TWR VIS 1 P0026=
200601172004 SPECI KATL 172004Z 30013KT 1/2SM R09R/3500VP6000FT +RA FG SCT006 BKN012 OVC018 13/13 A2956 RMK AO2 WSHFT 1950 TWR VIS 1 P0010=
200601172004 SPECI KATL 172004Z 30013KT 1/2SM R09R/3500VP6000FT +RA FG SCT006 BKN012 OVC018 13/13 A2956 RMK AO2 WSHFT 1950 TWR VIS 1 P0010=
200601171955 SPECI KATL 171955Z 29013KT 1SM R09R/5500VP6000FT RA BR FEW006 BKN010 OVC019 14/14 A2956 RMK AO2 PRESRR P0002=
200601171955 SPECI KATL 171955Z 29013KT 1SM R09R/5500VP6000FT RA BR FEW006 BKN010 OVC019 14/14 A2956 RMK AO2 PRESRR P0002=
200601171951 METAR KATL 171951Z 25011KT 1SM R09R/6000VP6000FT RA BR BKN012 OVC019 15/14 A2955 RMK AO2 SFC VIS 1 1/4 SLP004 P0005 T01500139=
200601171943 SPECI KATL 171943Z 19010G19KT 1SM R09R/6000VP6000FT RA BR BKN016 OVC021 15/13 A2953 RMK AO2 SFC VIS 1 1/2 P0002=
200601171943 SPECI KATL 171943Z 19010G19KT 1SM R09R/6000VP6000FT RA BR BKN016 OVC021 15/13 A2953 RMK AO2 SFC VIS 1 1/2 P0002=
200601171851 METAR KATL 171851Z 15011G21KT 9SM -RA OVC024 14/13 A2956 RMK AO2 RAB1758 SLP007 P0003 T01440128=
200601171751 METAR KATL 171751Z 16013G22KT 10SM OVC018 14/11 A2963 RMK AO2 RAB07E21 SLP032 P0000 60000 T01440111 10144 20117 58050=
200601171651 METAR KATL 171651Z 16013G20KT 8SM BKN015 OVC040 13/11 A2967 RMK AO2 RAB1557E38 PRESFR SLP047 P0000 T01330111=
200601171636 SPECI KATL 171636Z 15013KT 7SM -RA BKN015 OVC033 13/11 A2970 RMK AO2 RAB1557 PRESFR P0000=
200601171636 SPECI KATL 171636Z 15013KT 7SM -RA BKN015 OVC033 13/11 A2970 RMK AO2 RAB1557 PRESFR P0000=
200601171620 SPECI KATL 171620Z 15014G22KT 1SM -RA BR BKN019 OVC034 13/11 A2972 RMK AO2 SFC VIS 1 1/4 RAB1557 P0000=
200601171620 SPECI KATL 171620Z 15014G22KT 1SM -RA BR BKN019 OVC034 13/11 A2972 RMK AO2 SFC VIS 1 1/4 RAB1557 P0000=
200601171604 SPECI KATL 171604Z 16010G19KT 6SM -RA BKN019 OVC034 13/11 A2974 RMK AO2 RAB1557 P0000=
200601171604 SPECI KATL 171604Z 16010G19KT 6SM -RA BKN019 OVC034 13/11 A2974 RMK AO2 RAB1557 P0000=
200601171551 METAR KATL 171551Z 15012G20KT 10SM FEW016 BKN032 OVC043 13/10 A2975 RMK AO2 SLP075 T01330100=
200601171451 METAR KATL 171451Z 16012G18KT 10SM FEW012 SCT048 BKN065 OVC150 13/10 A2978 RMK AO2 SLP085 T01280100 58008=
200601171351 METAR KATL 171351Z 15012G17KT 10SM SCT080 BKN150 12/09 A2979 RMK AO2 SLP088 T01170089=
200601171251 METAR KATL 171251Z 16009KT 10SM BKN055 OVC060 12/09 A2981 RMK AO2 SLP092 T01220089=
200601171151 METAR KATL 171151Z 16008KT 10SM BKN047 OVC060 12/10 A2981 RMK AO2 SLP094 70003 T01220100 10128 20122 56013=
200601171051 METAR KATL 171051Z 16011KT 10SM OVC060 12/11 A2982 RMK AO2 SLP096 T01220106=
200601170951 METAR KATL 170951Z 16010KT 10SM OVC070 12/11 A2982 RMK AO2 SLP096 T01220106=
200601170851 METAR KATL 170851Z 17012KT 10SM BKN070 12/11 A2985 RMK AO2 SLP106 T01220106 58008=
200601170751 METAR KATL 170751Z 18008KT 9SM SCT065 OVC200 12/10 A2986 RMK AO2 SLP109 T01220100=
200601170651 METAR KATL 170651Z 17008KT 10SM FEW055 BKN150 OVC200 12/09 A2987 RMK AO2 SLP113 T01220094=
200601170551 METAR KATL 170551Z 18011KT 10SM FEW055 BKN150 OVC200 12/09 A2987 RMK AO2 SLP114 60003 T01220089 10128 20117 56015=
200601170451 METAR KATL 170451Z 16007KT 10SM FEW070 BKN150 OVC200 12/09 A2988 RMK AO2 SLP117 T01220094 401560067=
200601170351 METAR KATL 170351Z 16006KT 10SM SCT034 BKN045 BKN070 OVC150 12/10 A2990 RMK AO2 SLP124 T01170100=
200601170324 SPECI KATL 170324Z 16005KT 10SM SCT027 BKN032 BKN070 OVC150 12/10 A2990 RMK AO2=
200601170324 SPECI KATL 170324Z 16005KT 10SM SCT027 BKN032 BKN070 OVC150 12/10 A2990 RMK AO2=
200601170255 SPECI KATL 170255Z 16004KT 10SM FEW020 BKN027 BKN070 OVC150 12/11 A2991 RMK AO2=
200601170255 SPECI KATL 170255Z 16004KT 10SM FEW020 BKN027 BKN070 OVC150 12/11 A2991 RMK AO2=
200601170251 METAR KATL 170251Z 17005KT 10SM FEW020 BKN030 BKN070 OVC150 12/11 A2992 RMK AO2 SLP131 60003 T01170106 56000=
200601170151 METAR KATL 170151Z 15004KT 10SM FEW025 BKN060 OVC150 12/11 A2992 RMK AO2 RAE13 SLP132 P0001 T01170106=
200601170127 SPECI KATL 170127Z 17004KT 10SM FEW025 BKN035 OVC065 12/11 A2993 RMK AO2 RAE13 P0001=
200601170127 SPECI KATL 170127Z 17004KT 10SM FEW025 BKN035 OVC065 12/11 A2993 RMK AO2 RAE13 P0001=
200601170107 SPECI KATL 170107Z 19004KT 10SM -RA BKN020 BKN040 OVC100 12/11 A2993 RMK AO2 P0001=
200601170107 SPECI KATL 170107Z 19004KT 10SM -RA BKN020 BKN040 OVC100 12/11 A2993 RMK AO2 P0001=
200601170051 METAR KATL 170051Z 17004KT 10SM -RA FEW025 SCT080 OVC100 12/11 A2991 RMK AO2 SLP131 P0002 T01170106=
200601162351 METAR KATL 162351Z 20006KT 10SM -RA FEW040 OVC095 13/10 A2992 RMK AO2 RAB20 SLP132 P0000 60000 T01280100 10156 20128 51004=
200601162251 METAR KATL 162251Z 19006KT 10SM FEW032 SCT040 BKN120 BKN150 OVC200 13/10 A2992 RMK AO2 SLP131 VIRGA N-E T01330100=
200601162209 SPECI KATL 162209Z 20007KT 10SM SCT028 BKN035 OVC140 14/10 A2991 RMK AO2=
200601162209 SPECI KATL 162209Z 20007KT 10SM SCT028 BKN035 OVC140 14/10 A2991 RMK AO2=
200601162151 METAR KATL 162151Z COR 20008KT 10SM BKN028 OVC110 14/10 A2991 RMK AO2 RAE34 SLP128 P0000 T01390100=
200601162123 SPECI KATL 162123Z 21009KT 10SM -RA BKN028 OVC095 14/10 A2990 RMK AO2 P0000=
200601162123 SPECI KATL 162123Z 21009KT 10SM -RA BKN028 OVC095 14/10 A2990 RMK AO2 P0000=
200601162051 METAR KATL 162051Z 22010KT 10SM -RA BKN030 OVC110 15/10 A2991 RMK AO2 RAB36 SLP127 P0000 60000 T01500100 55000=
200601161951 METAR KATL 161951Z 23008KT 10SM SCT032 BKN041 OVC150 15/08 A2988 RMK AO2 SLP120 T01500083=
200601161851 METAR KATL 161851Z 24010KT 10SM BKN029 BKN065 OVC150 16/08 A2989 RMK AO2 SLP122 T01560083=
200601161832 SPECI KATL 161832Z 22010KT 10SM BKN029 BKN065 OVC150 16/08 A2990 RMK AO2=
200601161832 SPECI KATL 161832Z 22010KT 10SM BKN029 BKN065 OVC150 16/08 A2990 RMK AO2=
200601161751 METAR KATL 161751Z 22008KT 10SM SCT038 SCT065 OVC150 14/07 A2991 RMK AO2 SLP128 T01390072 10139 20067 58023=
200601161651 METAR KATL 161651Z 21009KT 10SM FEW037 SCT055 BKN180 12/05 A2994 RMK AO2 SLP140 T01170050=
200601161551 METAR KATL 161551Z 22009G17KT 10SM FEW037 SCT055 BKN180 11/02 A2997 RMK AO2 SLP151 T01060022=
200601161451 METAR KATL 161451Z 22008KT 10SM BKN037 BKN180 09/M02 A2998 RMK AO2 SLP154 T00891017 51010=
200601161351 METAR KATL 161351Z 21007KT 10SM BKN030 BKN180 07/M03 A2998 RMK AO2 SLP155 T00721033=
200601161251 METAR KATL 161251Z 21007KT 10SM BKN180 07/M04 A2995 RMK AO2 SLP146 T00671039=
200601161151 METAR KATL 161151Z 21005KT 10SM BKN180 07/M04 A2995 RMK AO2 SLP144 T00671044 10083 20067 56012=
200601161051 METAR KATL 161051Z 00000KT 10SM BKN160 07/M05 A2996 RMK AO2 SLP147 T00721050=
200601160951 METAR KATL 160951Z 21007KT 10SM FEW120 BKN140 08/M06 A2996 RMK AO2 SLP147 T00781056=
200601160851 METAR KATL 160851Z 23006KT 10SM FEW095 OVC120 08/M06 A2998 RMK AO2 SLP154 T00831056 51018=
200601160751 METAR KATL 160751Z 23010KT 10SM BKN110 08/M05 A2998 RMK AO2 SLP152 T00831050=
200601160651 METAR KATL 160651Z 23008KT 10SM SCT100 08/M05 A2996 RMK AO2 SLP147 T00831050=
200601160551 METAR KATL 160551Z 18005KT 10SM OVC100 08/M05 A2993 RMK AO2 SLP136 VIRGA N-NE T00831050 10094 20078 56025=
200601160451 METAR KATL 160451Z 20003KT 10SM OVC100 08/M05 A2996 RMK AO2 SLP147 VIRGA NW-N T00831050 401221011=
200601160351 METAR KATL 160351Z 22003KT 10SM OVC110 08/M04 A2997 RMK AO2 SLP151 T00831044=
200601160251 METAR KATL 160251Z 22006KT 10SM BKN120 08/M05 A3000 RMK AO2 SLP164 T00831050 58004=
200601160151 METAR KATL 160151Z 24003KT 10SM BKN120 08/M06 A3001 RMK AO2 SLP166 VIRGA N-NE T00831056=
200601160051 METAR KATL 160051Z 28006KT 10SM FEW100 BKN120 09/M06 A3002 RMK AO2 SLP171 T00891056=
200601152351 METAR KATL 152351Z 27003KT 10SM SCT100 OVC120 09/M07 A3002 RMK AO2 PRESFR SLP169 VIRGA NE-E T00891072 10122 20089 53003=
200601152251 METAR KATL 152251Z 29005KT 10SM OVC110 10/M08 A3001 RMK AO2 SLP167 VIRGA ALQDS BINOVC T01001083=
200601152151 METAR KATL 152151Z 30006KT 10SM OVC110 11/M09 A3001 RMK AO2 SLP168 T01061089=
200601152051 METAR KATL 152051Z 30006KT 10SM OVC110 12/M08 A3000 RMK AO2 SLP165 T01171083 55005=
200601151951 METAR KATL 151951Z 31009KT 10SM FEW080 BKN110 BKN230 12/M09 A2999 RMK AO2 SLP161 T01171089=
200601151851 METAR KATL 151851Z 28010KT 10SM BKN110 BKN230 11/M08 A3001 RMK AO2 SLP167 T01111078=
200601151751 METAR KATL 151751Z 30008KT 10SM FEW090 BKN110 BKN230 09/M07 A3002 RMK AO2 SLP171 T00941067 10094 21011 58019=
200601151651 METAR KATL 151651Z 29015KT 10SM BKN110 BKN230 07/M06 A3007 RMK AO2 SLP191 T00721061=
200601151551 METAR KATL 151551Z 29009KT 10SM BKN110 BKN230 06/M04 A3008 RMK AO2 SLP192 T00561044=
200601151451 METAR KATL 151451Z 30010KT 10SM BKN110 BKN230 03/M04 A3008 RMK AO2 SLP194 T00281044 53013=
200601151351 METAR KATL 151351Z 31012KT 10SM FEW230 01/M04 A3006 RMK AO2 SLP190 T00061044=
200601151251 METAR KATL 151251Z 29014KT 10SM FEW250 M01/M04 A3005 RMK AO2 SLP185 T10111044=
200601151151 METAR KATL 151151Z 29013KT 10SM FEW250 M01/M04 A3004 RMK AO2 SLP182 T10061044 11006 21011 53008=
200601151051 METAR KATL 151051Z 30013KT 10SM CLR M01/M05 A3002 RMK AO2 SLP174 T10111050=
200601150951 METAR KATL 150951Z 30011KT 10SM CLR M01/M05 A3000 RMK AO2 SLP169 T10111050=
200601150851 METAR KATL 150851Z 30014KT 10SM CLR M01/M05 A3002 RMK AO2 SLP172 T10061050 53006=
200601150751 METAR KATL 150751Z 30011KT 10SM CLR M01/M05 A3001 RMK AO2 SLP169 T10061050=
200601150651 METAR KATL 150651Z 32012KT 10SM CLR M01/M06 A3000 RMK AO2 SLP166 T10061056=
200601150551 METAR KATL 150551Z 31014KT 10SM CLR M01/M06 A3000 RMK AO2 SLP166 T10061056 10006 21006 58005=
200601150451 METAR KATL 150451Z 32014G21KT 10SM CLR M01/M06 A3001 RMK AO2 PK WND 32026/0400 SLP172 T10061061 400441006=
200601150351 METAR KATL 150351Z 33014G24KT 10SM CLR M01/M06 A3000 RMK AO2 SLP168 T10061061=
200601150251 METAR KATL 150251Z 32014G21KT 10SM CLR M01/M06 A3001 RMK AO2 PK WND 31029/0229 SLP172 T10061061 51004=
200601150151 METAR KATL 150151Z 31024G28KT 10SM CLR 00/M06 A3000 RMK AO2 PK WND 32030/0113 SLP168 T00001061=
200601150051 METAR KATL 150051Z 31020G25KT 10SM CLR 00/M06 A3001 RMK AO2 PK WND 33029/0027 SLP171 T00001061=
200601142351 METAR KATL 142351Z 31018G28KT 10SM CLR 01/M07 A3000 RMK AO2 PK WND 31033/2256 SLP167 T00061067 10044 20006 53019=
200601142251 METAR KATL 142251Z 31019G29KT 10SM CLR 01/M07 A2998 RMK AO2 PK WND 32033/2238 SLP159 T00111067=
200601142151 METAR KATL 142151Z 31023G31KT 10SM FEW040 02/M07 A2996 RMK AO2 PK WND 32036/2125 SLP151 T00221067=
200601142051 METAR KATL 142051Z 34024G34KT 10SM FEW040 03/M06 A2994 RMK AO2 PK WND 32037/2015 SLP146 T00281061 51014=
200601141951 METAR KATL 141951Z 30025G32KT 10SM SCT040 03/M06 A2993 RMK AO2 PK WND 30032/1943 SLP142 T00331056=
200601141851 METAR KATL 141851Z 31025G30KT 10SM BKN037 03/M05 A2992 RMK AO2 PK WND 32031/1808 SLP139 T00281050=
200601141751 METAR KATL 141751Z 31019G30KT 10SM BKN037 04/M04 A2990 RMK AO2 PK WND 30034/1719 SLP131 T00391044 10044 20017 51010=
200601141651 METAR KATL 141651Z 31026G33KT 10SM BKN035 03/M04 A2990 RMK AO2 PK WND 29035/1605 SLP130 MDT CU ALQDS T00331044=
200601141551 METAR KATL 141551Z 30024G33KT 10SM BKN031 03/M03 A2989 RMK AO2 PK WND 31034/1506 SLP128 MDT CU ALQDS T00331033=
200601141535 SPECI KATL 141535Z 30018G33KT 10SM BKN031 03/M02 A2989 RMK AO2 PK WND 31034/1506=
200601141535 SPECI KATL 141535Z 30018G33KT 10SM BKN031 03/M02 A2989 RMK AO2 PK WND 31034/1506=
200601141451 METAR KATL 141451Z 31021G30KT 10SM BKN024 BKN031 03/M02 A2987 RMK AO2 PK WND 32031/1439 SLP121 T00281022 51027=
200601141351 METAR KATL 141351Z 29018G24KT 10SM OVC022 02/M02 A2984 RMK AO2 PK WND 31026/1339 SLP111 BINOVC T00221017=
200601141342 SPECI KATL 141342Z 29019G26KT 10SM OVC022 02/M02 A2984 RMK AO2 PK WND 31026/1339 BINOVC=
200601141342 SPECI KATL 141342Z 29019G26KT 10SM OVC022 02/M02 A2984 RMK AO2 PK WND 31026/1339 BINOVC=
200601141251 METAR KATL 141251Z 29016G25KT 10SM OVC030 02/M02 A2982 RMK AO2 PK WND 30031/1153 SLP103 BINOVC T00171022=
200601141216 SPECI KATL 141216Z 30020G29KT 10SM BKN030 02/M02 A2980 RMK AO2 PK WND 30031/1153=
200601141216 SPECI KATL 141216Z 30020G29KT 10SM BKN030 02/M02 A2980 RMK AO2 PK WND 30031/1153=
200601141151 METAR KATL 141151Z 30019G33KT 10SM BKN026 OVC032 02/M02 A2979 RMK AO2 PK WND 30033/1144 SNE17 SLP090 P0000 60000 70077 931000 T00221022 10028 20017 53005=
200601141051 METAR KATL 141051Z 30017G31KT 9SM -SN OVC022 02/M02 A2977 RMK AO2 PK WND 30033/1026 SLP085 PCPN VRY LGT P0000 T00221017=
200601140951 METAR KATL 140951Z 29016KT 9SM -SN OVC022 02/M02 A2977 RMK AO2 PK WND 30031/0931 SNB43 SLP083 PCPN VRY LGT P0000 T00221017=
200601140851 METAR KATL 140851Z 29020G30KT 10SM BKN022 OVC032 02/M02 A2977 RMK AO2 PK WND 29030/0847 RAE50SNE50 SLP084 P0000 60000 T00221017 50001=
200601140751 METAR KATL 140751Z 31012KT 8SM -SNRA FEW016 BKN025 OVC034 02/M01 A2978 RMK AO2 PK WND 29030/0736 RAB32SNB13 SLP086 PCPN VRY LGT P0000 T00221006=
200601140651 METAR KATL 140651Z 29020G26KT 10SM BKN026 BKN065 03/M01 A2977 RMK AO2 PK WND 27027/0619 SLP083 T00281011=
200601140628 SPECI KATL 140628Z 28021G27KT 10SM FEW025 SCT032 OVC065 03/M01 A2977 RMK AO2 PK WND 27027/0619=
200601140628 SPECI KATL 140628Z 28021G27KT 10SM FEW025 SCT032 OVC065 03/M01 A2977 RMK AO2 PK WND 27027/0619=
200601140551 METAR KATL 140551Z 28017G28KT 10SM FEW018 BKN025 OVC065 03/00 A2977 RMK AO2 PK WND 27028/0548 RAB07E24 SLP083 P0001 60001 T00280000 10089 20028 58000=
200601140451 METAR KATL 140451Z 29018G25KT 10SM BKN021 BKN028 OVC040 03/00 A2978 RMK AO2 PK WND 27028/0415 SLP087 T00330000 401500033=
200601140351 METAR KATL 140351Z 30014G27KT 10SM FEW020 SCT035 OVC050 04/01 A2979 RMK AO2 PK WND 30027/0343 RAB06E50 SLP089 BINOVC P0000 T00390011=
200601140337 SPECI KATL 140337Z 30020KT 7SM -RA BKN024 BKN035 OVC050 05/01 A2978 RMK AO2 RAB06 P0000=
200601140337 SPECI KATL 140337Z 30020KT 7SM -RA BKN024 BKN035 OVC050 05/01 A2978 RMK AO2 RAB06 P0000=
200601140251 METAR KATL 140251Z 29015G28KT 10SM FEW028 SCT035 05/01 A2977 RMK AO2 PK WND 30028/0243 SLP082 60000 T00500006 51009=
200601140151 METAR KATL 140151Z 28020G26KT 10SM SCT035 BKN045 OVC060 07/02 A2977 RMK AO2 PK WND 29032/0134 RAB33E42 SLP082 BINOVC P0000 T00670022=
200601140051 METAR KATL 140051Z 27014G23KT 10SM FEW035 SCT042 OVC050 08/02 A2976 RMK AO2 PK WND 26030/0014 SLP081 T00830022=
200601132351 METAR KATL 132351Z 27014G23KT 10SM FEW035 SCT042 BKN050 09/03 A2974 RMK AO2 PK WND 27032/2311 SLP073 60071 T00890028 10150 20089 53036=
200601132251 METAR KATL 132251Z 27020G23KT 10SM FEW035 SCT045 11/05 A2970 RMK AO2 PK WND 29037/2211 SLP057 T01060050=
200601132151 METAR KATL 132151Z 25012KT 10SM BKN035 BKN045 BKN090 14/09 A2965 RMK AO2 SLP039 T01390094=
200601132051 METAR KATL 132051Z 26016G24KT 10SM FEW015 SCT030 BKN080 14/11 A2963 RMK AO2 PK WND 25028/2030 RAE10 SLP034 ACC OHD AND ALQDS P0003 60071 T01440111 55023=
200601132010 SPECI KATL 132010Z 22012KT 10SM FEW010 BKN017 OVC050 14/13 A2962 RMK AO2 RAE10 P0003=
200601132010 SPECI KATL 132010Z 22012KT 10SM FEW010 BKN017 OVC050 14/13 A2962 RMK AO2 RAE10 P0003=
200601132001 SPECI KATL 132001Z 22017G22KT 6SM R09R/4500VP6000FT -RA BR FEW008 BKN050 BKN065 OVC150 14/13 A2961 RMK AO2 BINOVC SW-NW P0002=
200601132001 SPECI KATL 132001Z 22017G22KT 6SM R09R/4500VP6000FT -RA BR FEW008 BKN050 BKN065 OVC150 14/13 A2961 RMK AO2 BINOVC SW-NW P0002=
200601131958 SPECI KATL 131958Z 21014G21KT 9SM R09R/4500VP6000FT -RA FEW008 BKN050 BKN065 OVC150 14/13 A2962 RMK AO2 BINOVC SW-NW P0001=
200601131958 SPECI KATL 131958Z 21014G21KT 9SM R09R/4500VP6000FT -RA FEW008 BKN050 BKN065 OVC150 14/13 A2962 RMK AO2 BINOVC SW-NW P0001=
200601131951 METAR KATL 131951Z 21016G21KT 9SM -RA FEW010 SCT040 BKN060 OVC150 14/13 A2961 RMK AO2 WSHFT 1916 SLP027 CB DSNT NE-SE BINOVC DSNT SW-NW P0031 T01440133 $=
200601131945 SPECI KATL 131945Z 20011KT 7SM -RA FEW009 SCT018 BKN040 OVC150 14/13 A2961 RMK AO2 WSHFT 1916 CB DSNT NE-SE P0031 $=
200601131945 SPECI KATL 131945Z 20011KT 7SM -RA FEW009 SCT018 BKN040 OVC150 14/13 A2961 RMK AO2 WSHFT 1916 CB DSNT NE-SE P0031 $=
200601131938 SPECI KATL 131938Z 21009G18KT 2SM R09R/3500VP6000FT RA BR SCT007CB BKN013 OVC042 14/13 A2961 RMK AO2 WSHFT 1916 SFC VIS 3 CB OHD-NE-SE MOV E P0029 $=
200601131938 SPECI KATL 131938Z 21009G18KT 2SM R09R/3500VP6000FT RA BR SCT007CB BKN013 OVC042 14/13 A2961 RMK AO2 WSHFT 1916 SFC VIS 3 CB OHD-NE-SE MOV E P0029 $=
200601131930 SPECI KATL 131930Z 24014G21KT 1SM R09R/3500VP6000FT +RA BR BKN010CB BKN015 OVC020 14/13 A2963 RMK AO2 WSHFT 1916 PRESRR CB OHD MOV E P0018 $=
200601131930 SPECI KATL 131930Z 24014G21KT 1SM R09R/3500VP6000FT +RA BR BKN010CB BKN015 OVC020 14/13 A2963 RMK AO2 WSHFT 1916 PRESRR CB OHD MOV E P0018 $=
200601131913 SPECI KATL 131913Z 16016G21KT 2SM RA BR BKN013CB BKN018 OVC028 14/13 A2960 RMK AO2 PRESFR CB OHD MOV E P0010 $=
200601131913 SPECI KATL 131913Z 16016G21KT 2SM RA BR BKN013CB BKN018 OVC028 14/13 A2960 RMK AO2 PRESFR CB OHD MOV E P0010 $=
200601131900 SPECI KATL 131900Z 16013G21KT 2SM RA BR FEW010 BKN020 OVC030 14/13 A2962 RMK AO2 SFC VIS 3 PRESFR CB DSNT SW-NW P0004 $=
200601131900 SPECI KATL 131900Z 16013G21KT 2SM RA BR FEW010 BKN020 OVC030 14/13 A2962 RMK AO2 SFC VIS 3 PRESFR CB DSNT SW-NW P0004 $=
200601131851 METAR KATL 131851Z 15011KT 2SM RA BR FEW011 BKN017 OVC033 14/13 A2963 RMK AO2 SFC VIS 3 TSE34 PRESFR SLP032 CB DSNT SW-NW P0037 T01390133 $=
200601131844 SPECI KATL 131844Z 15011KT 2SM R09R/6000VP6000FT BR FEW006 BKN012 OVC025 14/13 A2965 RMK AO2 SFC VIS 3 TSE34RAE44 CB DSNT SW-NW P0035=
200601131844 SPECI KATL 131844Z 15011KT 2SM R09R/6000VP6000FT BR FEW006 BKN012 OVC025 14/13 A2965 RMK AO2 SFC VIS 3 TSE34RAE44 CB DSNT SW-NW P0035=
200601131838 SPECI KATL 131838Z 15010KT 2SM R09R/6000VP6000FT RA BR FEW006 BKN015 OVC025 14/13 A2965 RMK AO2 SFC VIS 3 TSE34 PRESFR TS MOV E CB MOV E P0030=
200601131838 SPECI KATL 131838Z 15010KT 2SM R09R/6000VP6000FT RA BR FEW006 BKN015 OVC025 14/13 A2965 RMK AO2 SFC VIS 3 TSE34 PRESFR TS MOV E CB MOV E P0030=
200601131835 SPECI KATL 131835Z 15009KT 2SM RA BR BKN015 OVC025 14/13 A2966 RMK AO2 SFC VIS 3 TSE34 PRESFR TS MOV E CB MOV E P0028=
200601131835 SPECI KATL 131835Z 15009KT 2SM RA BR BKN015 OVC025 14/13 A2966 RMK AO2 SFC VIS 3 TSE34 PRESFR TS MOV E CB MOV E P0028=
200601131821 SPECI KATL 131821Z 17010G16KT 2SM TSRA BR FEW010 BKN015CB OVC030 14/13 A2968 RMK AO2 SFC VIS 3 PRESFR OCNL LTGICCG TS OHD MOV E CB OHD MOV E P0023=
200601131821 SPECI KATL 131821Z 17010G16KT 2SM TSRA BR FEW010 BKN015CB OVC030 14/13 A2968 RMK AO2 SFC VIS 3 PRESFR OCNL LTGICCG TS OHD MOV E CB OHD MOV E P0023=
200601131816 SPECI KATL 131816Z 17014KT 1 1/2SM +TSRA BR FEW010 BKN015CB OVC020 14/13 A2969 RMK AO2 TWR VIS 2 OCNL LTGICCG TS OHD MOV E CB OHD MOV E P0021=
200601131816 SPECI KATL 131816Z 17014KT 1 1/2SM +TSRA BR FEW010 BKN015CB OVC020 14/13 A2969 RMK AO2 TWR VIS 2 OCNL LTGICCG TS OHD MOV E CB OHD MOV E P0021=
200601131812 SPECI KATL 131812Z 18012G16KT 2SM R09R/6000VP6000FT +TSRA BR FEW010CB BKN020 OVC030 14/13 A2970 RMK AO2 OCNL LTGICCG TS OHD MOV E CB OHD MOV E P0019=
200601131812 SPECI KATL 131812Z 18012G16KT 2SM R09R/6000VP6000FT +TSRA BR FEW010CB BKN020 OVC030 14/13 A2970 RMK AO2 OCNL LTGICCG TS OHD MOV E CB OHD MOV E P0019=
200601131809 SPECI KATL 131809Z 19011G14KT 160V220 2SM R09R/6000VP6000FT -TSRA BR FEW010CB BKN020 OVC030 14/13 A2970 RMK AO2 OCNL LTGICCG TS OHD MOV E CB OHD MOV E P0016=
200601131809 SPECI KATL 131809Z 19011G14KT 160V220 2SM R09R/6000VP6000FT -TSRA BR FEW010CB BKN020 OVC030 14/13 A2970 RMK AO2 OCNL LTGICCG TS OHD MOV E CB OHD MOV E P0016=
200601131807 SPECI KATL 131807Z 17008KT 2SM R09R/6000VP6000FT -TSRA BR FEW015CB BKN020 OVC030 14/13 A2970 RMK AO2 OCNL LTGICCG TS OHD MOV E CB OHD MOV E P0014=
200601131807 SPECI KATL 131807Z 17008KT 2SM R09R/6000VP6000FT -TSRA BR FEW015CB BKN020 OVC030 14/13 A2970 RMK AO2 OCNL LTGICCG TS OHD MOV E CB OHD MOV E P0014=
200601131757 SPECI KATL 131757Z 20006KT 2SM R09R/5000VP6000FT -TSRA BR BKN020CB BKN040 OVC060 14/13 A2971 RMK AO2 SFC VIS 3 SE 2 S 3/4 SW 1 W 2 OCNL LTGICCG TS OHD MOV E CB OHD MOV E P0006=
200601131757 SPECI KATL 131757Z 20006KT 2SM R09R/5000VP6000FT -TSRA BR BKN020CB BKN040 OVC060 14/13 A2971 RMK AO2 SFC VIS 3 SE 2 S 3/4 SW 1 W 2 OCNL LTGICCG TS OHD MOV E CB OHD MOV E P0006=
200601131751 METAR KATL 131751Z 20007KT 4SM R09R/5000VP6000FT -TSRA BR FEW015CB BKN025 OVC060 14/13 A2970 RMK AO2 TSB16RAB11 SLP058 VIS SE 2 S 2 SW 1 W 2 OCNL LTGICCG TS OHD MOV E CB OHD MOV E P0005 60005 T01390128 10150 20089=
200601131736 SPECI KATL 131736Z 18009G17KT 3SM TSRA BR SCT010CB BKN030 OVC085 14/12 A2972 RMK AO2 TSB16RAB11 OCNL LTGICCG TS OHD MOV E CB OHD MOV E P0002=
200601131736 SPECI KATL 131736Z 18009G17KT 3SM TSRA BR SCT010CB BKN030 OVC085 14/12 A2972 RMK AO2 TSB16RAB11 OCNL LTGICCG TS OHD MOV E CB OHD MOV E P0002=
200601131727 SPECI KATL 131727Z 17009KT 4SM -TSRA SCT015CB BKN030 BKN060 OVC150 15/12 A2972 RMK AO2 TSB16RAB11 FRQ LTGICCG TS OHD-SW-NW MOV E CB OHD-SW-NW MOV E P0000=
200601131727 SPECI KATL 131727Z 17009KT 4SM -TSRA SCT015CB BKN030 BKN060 OVC150 15/12 A2972 RMK AO2 TSB16RAB11 FRQ LTGICCG TS OHD-SW-NW MOV E CB OHD-SW-NW MOV E P0000=
200601131716 SPECI KATL 131716Z 17011G18KT 9SM -TSRA FEW015CB SCT060 SCT090 OVC150 15/12 A2973 RMK AO2 TSB16RAB11 OCNL LTGICCG TS VC SW-NW MOV E CB VC SW-NW MOV E P0000 $=
200601131716 SPECI KATL 131716Z 17011G18KT 9SM -TSRA FEW015CB SCT060 SCT090 OVC150 15/12 A2973 RMK AO2 TSB16RAB11 OCNL LTGICCG TS VC SW-NW MOV E CB VC SW-NW MOV E P0000 $=
200601131707 SPECI KATL 131707Z 16008KT 10SM FEW015 SCT060 SCT110 OVC150 15/12 A2975 RMK AO2 LTG DSNT SW-NW CB DSNT SW-NW SHRA DSNT SW-NW $=
200601131707 SPECI KATL 131707Z 16008KT 10SM FEW015 SCT060 SCT110 OVC150 15/12 A2975 RMK AO2 LTG DSNT SW-NW CB DSNT SW-NW SHRA DSNT SW-NW $=
200601131651 METAR KATL 131651Z 17011G17KT 9SM FEW014 SCT055 SCT110 OVC150 14/12 A2975 RMK AO2 SLP073 T01440117 $=
200601131647 SPECI KATL 131647Z 17011G17KT 9SM FEW014 SCT055 SCT110 OVC150 14/12 A2975 RMK AO2 $=
200601131647 SPECI KATL 131647Z 17011G17KT 9SM FEW014 SCT055 SCT110 OVC150 14/12 A2975 RMK AO2 $=
200601131629 SPECI KATL 131629Z 17010G19KT 10SM BKN012 BKN055 BKN110 OVC150 14/12 A2978 RMK AO2 PRESFR $=
200601131629 SPECI KATL 131629Z 17010G19KT 10SM BKN012 BKN055 BKN110 OVC150 14/12 A2978 RMK AO2 PRESFR $=
200601131551 METAR KATL 131551Z 18011KT 9SM FEW010 SCT110 OVC150 14/12 A2984 RMK AO2 SLP104 ACC DSNT S-SW-W T01390117 $=
200601131532 SPECI KATL 131532Z 17014G18KT 9SM FEW010 SCT110 BKN150 OVC180 13/11 A2985 RMK AO2 VIRGA OHD-W-NW $=
200601131532 SPECI KATL 131532Z 17014G18KT 9SM FEW010 SCT110 BKN150 OVC180 13/11 A2985 RMK AO2 VIRGA OHD-W-NW $=
200601131451 METAR KATL 131451Z 18013G18KT 10SM BKN150 BKN180 BKN250 13/10 A2987 RMK AO2 SLP114 T01330100 56014 $=
200601131351 METAR KATL 131351Z 13006KT 7SM SCT140 BKN200 BKN250 10/08 A2989 RMK AO2 SLP120 T01000078 $=
200601131251 METAR KATL 131251Z 14004KT 7SM SCT140 BKN200 BKN250 09/08 A2990 RMK AO2 SLP125 T00890078 $=
200601131151 METAR KATL 131151Z 13004KT 8SM SCT140 BKN200 OVC250 09/08 A2992 RMK AO2 PRESFR SLP130 T00940083 10117 20094 58020=
200601131051 METAR KATL 131051Z 18004KT 10SM BKN140 OVC200 10/08 A2995 RMK AO2 SLP139 T01000083=
200601130951 METAR KATL 130951Z VRB04KT 9SM FEW020 SCT140 BKN180 BKN250 10/08 A2996 RMK AO2 SLP142 T01000083=
200601130851 METAR KATL 130851Z 15004KT 10SM FEW028 SCT120 BKN180 OVC250 11/08 A2998 RMK AO2 SLP149 T01110083 56016=
200601130751 METAR KATL 130751Z 13003KT 10SM FEW028 SCT120 BKN180 OVC250 11/08 A2999 RMK AO2 SLP151 T01110078=
200601130651 METAR KATL 130651Z 10004KT 10SM FEW040 SCT180 BKN250 11/07 A3000 RMK AO2 SLP158 T01110072=
200601130551 METAR KATL 130551Z 00000KT 10SM FEW040 BKN200 BKN250 11/07 A3002 RMK AO2 SLP165 T01110072 10156 20111 58007=
200601130451 METAR KATL 130451Z 00000KT 10SM BKN040 BKN250 12/07 A3004 RMK AO2 SLP169 T01220072 401940072=
200601130351 METAR KATL 130351Z 00000KT 10SM BKN200 OVC250 12/07 A3004 RMK AO2 SLP170 T01220072=
200601130251 METAR KATL 130251Z 00000KT 10SM SCT200 OVC250 14/07 A3005 RMK AO2 SLP173 T01390072 50001=
200601130151 METAR KATL 130151Z 00000KT 10SM FEW200 BKN250 14/08 A3005 RMK AO2 SLP175 T01390078=
200601130051 METAR KATL 130051Z 19006KT 10SM SCT200 BKN250 14/08 A3005 RMK AO2 SLP177 T01440078=
200601122351 METAR KATL 122351Z 15005KT 10SM BKN200 OVC250 16/08 A3004 RMK AO2 SLP173 T01560083 10194 20156 53001=
200601122251 METAR KATL 122251Z 14005KT 10SM FEW200 BKN250 17/07 A3004 RMK AO2 SLP171 T01670072=
200601122151 METAR KATL 122151Z 20006KT 10SM FEW180 SCT250 BKN280 18/04 A3004 RMK AO2 SLP171 T01830044=
200601122051 METAR KATL 122051Z VRB05KT 10SM FEW055 SCT250 BKN280 19/05 A3004 RMK AO2 SLP171 T01890050 56013=
200601121951 METAR KATL 121951Z 21009KT 10SM FEW045 SCT280 19/05 A3004 RMK AO2 SLP172 T01890050=
200601121851 METAR KATL 121851Z 19009KT 10SM FEW045 SCT280 18/08 A3006 RMK AO2 SLP175 T01830078=
200601121751 METAR KATL 121751Z 20005KT 9SM FEW035 17/08 A3008 RMK AO2 SLP184 T01720078 10172 20083 58017=
200601121651 METAR KATL 121651Z 28004KT 10SM FEW030 15/09 A3011 RMK AO2 SLP197 T01500089=
200601121551 METAR KATL 121551Z 30004KT 10SM FEW025 14/09 A3013 RMK AO2 SLP204 T01390089=
200601121451 METAR KATL 121451Z VRB03KT 9SM FEW016 13/08 A3013 RMK AO2 SLP202 T01330078 53012=
200601121351 METAR KATL 121351Z 00000KT 9SM FEW018 09/07 A3012 RMK AO2 SLP199 T00940067=
200601121318 SPECI KATL 121318Z VRB03KT 7SM SCT018 09/06 A3011 RMK AO2=
200601121318 SPECI KATL 121318Z VRB03KT 7SM SCT018 09/06 A3011 RMK AO2=
200601121251 METAR KATL 121251Z 33003KT 9SM BKN018 09/06 A3010 RMK AO2 SLP194 T00890061=
200601121151 METAR KATL 121151Z 31004KT 10SM BKN016 09/06 A3009 RMK AO2 SLP191 70010 T00890056 10106 20072 53009=
200601121106 SPECI KATL 121106Z 00000KT 10SM BKN016 08/06 A3008 RMK AO2=
200601121106 SPECI KATL 121106Z 00000KT 10SM BKN016 08/06 A3008 RMK AO2=
200601121051 METAR KATL 121051Z 00000KT 10SM BKN014 09/06 A3007 RMK AO2 SLP183 T00890056=
200601121044 SPECI KATL 121044Z 01003KT 10SM BKN014 09/06 A3007 RMK AO2=
200601121044 SPECI KATL 121044Z 01003KT 10SM BKN014 09/06 A3007 RMK AO2=
200601121021 SPECI KATL 121021Z 00000KT 10SM BKN018 08/06 A3007 RMK AO2=
200601121021 SPECI KATL 121021Z 00000KT 10SM BKN018 08/06 A3007 RMK AO2=
200601120951 METAR KATL 120951Z 00000KT 10SM SCT023 08/06 A3007 RMK AO2 SLP181 T00830061=
200601120851 METAR KATL 120851Z 00000KT 10SM FEW028 08/06 A3007 RMK AO2 SLP181 T00780056 58002=
200601120751 METAR KATL 120751Z 00000KT 10SM FEW034 08/06 A3007 RMK AO2 SLP182 T00830056=
200601120651 METAR KATL 120651Z 00000KT 10SM SCT032 BKN050 10/06 A3007 RMK AO2 SLP183 T01000056=
200601120551 METAR KATL 120551Z 34003KT 10SM BKN032 BKN040 BKN055 11/07 A3007 RMK AO2 SLP183 T01060067 10144 20100 58007=
200601120451 METAR KATL 120451Z 34004KT 10SM SCT032 BKN040 BKN055 11/07 A3008 RMK AO2 SLP187 T01060072 401780100=
200601120351 METAR KATL 120351Z 33005KT 10SM SCT055 SCT200 11/08 A3009 RMK AO2 SLP188 T01110083=
200601120251 METAR KATL 120251Z 31004KT 10SM BKN060 BKN200 12/10 A3009 RMK AO2 SLP191 T01170100 51003=
200601120151 METAR KATL 120151Z 22003KT 10SM SCT060 BKN200 13/11 A3009 RMK AO2 SLP190 T01280106=
200601120051 METAR KATL 120051Z 23003KT 10SM FEW035 13/11 A3009 RMK AO2 SLP188 T01330106=
200601112351 METAR KATL 112351Z 21004KT 10SM FEW040 14/11 A3009 RMK AO2 SLP187 T01440111 10178 20139 57001=
200601112251 METAR KATL 112251Z 20005KT 10SM FEW040 16/11 A3009 RMK AO2 SLP186 T01560111=
200601112151 METAR KATL 112151Z 22006KT 10SM FEW020 SCT040 17/11 A3009 RMK AO2 SLP187 T01720106=
200601112051 METAR KATL 112051Z 23008KT 10SM FEW020 SCT030 SCT040 17/11 A3009 RMK AO2 SLP187 T01720111 56010=
200601111951 METAR KATL 111951Z 26007KT 10SM FEW020 SCT030 BKN040 17/12 A3009 RMK AO2 SLP188 T01670117=
200601111851 METAR KATL 111851Z 21006KT 10SM FEW015 SCT030 SCT050 16/12 A3010 RMK AO2 SLP190 T01560122=
200601111755 SPECI KATL 111755Z 21006KT 10SM FEW008 BKN030 BKN050 14/12 A3012 RMK AO2=
200601111755 SPECI KATL 111755Z 21006KT 10SM FEW008 BKN030 BKN050 14/12 A3012 RMK AO2=
200601111751 METAR KATL 111751Z 20004KT 9SM FEW008 SCT012 BKN030 13/12 A3012 RMK AO2 RAE1655DZB41E49 SLP199 VIS LWR NE-S DZ P0000 60011 T01330122 10139 20122 58016=
200601111743 SPECI KATL 111743Z 20005KT 4SM -DZ BR FEW008 SCT012 BKN030 13/12 A3013 RMK AO2 RAE1655DZB41 P0000=
200601111743 SPECI KATL 111743Z 20005KT 4SM -DZ BR FEW008 SCT012 BKN030 13/12 A3013 RMK AO2 RAE1655DZB41 P0000=
200601111742 SPECI KATL 111742Z 21005KT 4SM -DZ BR FEW008 BKN012 BKN030 13/12 A3013 RMK AO2 RAE1655DZB41 P0000=
200601111742 SPECI KATL 111742Z 21005KT 4SM -DZ BR FEW008 BKN012 BKN030 13/12 A3013 RMK AO2 RAE1655DZB41 P0000=
200601111713 SPECI KATL 111713Z 24005KT 9SM FEW005 BKN026 OVC030 13/12 A3015 RMK AO2 RAE1655 P0000=
200601111713 SPECI KATL 111713Z 24005KT 9SM FEW005 BKN026 OVC030 13/12 A3015 RMK AO2 RAE1655 P0000=
200601111710 SPECI KATL 111710Z 26006KT 3SM FEW005 BKN026 OVC030 13/12 A3015 RMK AO2 SFC VIS 7 RAE1655 P0000=
200601111710 SPECI KATL 111710Z 26006KT 3SM FEW005 BKN026 OVC030 13/12 A3015 RMK AO2 SFC VIS 7 RAE1655 P0000=
200601111700 SPECI KATL 111700Z 25005KT 2 1/2SM FEW005 BKN026 OVC030 13/12 A3015 RMK AO2 SFC VIS 7 RAE1655 P0000=
200601111700 SPECI KATL 111700Z 25005KT 2 1/2SM FEW005 BKN026 OVC030 13/12 A3015 RMK AO2 SFC VIS 7 RAE1655 P0000=
200601111651 METAR KATL 111651Z 25006KT 2 1/2SM -RA BR FEW005 BKN030 OVC040 13/12 A3016 RMK AO2 SFC VIS 6 RAB42 SLP211 T01330122=
200601111634 SPECI KATL 111634Z 26007KT 2 1/2SM BR BKN005 BKN020 OVC040 13/13 A3016 RMK AO2 SFC VIS 6=
200601111634 SPECI KATL 111634Z 26007KT 2 1/2SM BR BKN005 BKN020 OVC040 13/13 A3016 RMK AO2 SFC VIS 6=
200601111628 SPECI KATL 111628Z 27007KT 2 1/2SM BR FEW005 SCT020 OVC040 13/12 A3016 RMK AO2 SFC VIS 6=
200601111628 SPECI KATL 111628Z 27007KT 2 1/2SM BR FEW005 SCT020 OVC040 13/12 A3016 RMK AO2 SFC VIS 6=
200601111551 METAR KATL 111551Z 24006KT 2SM BR BKN005 BKN030 OVC040 13/12 A3017 RMK AO2 SFC VIS 4 RAE48 SLP217 P0003 T01280122=
200601111512 SPECI KATL 111512Z 22004KT 2SM -RA BR FEW005 SCT020 OVC040 12/12 A3017 RMK AO2 SFC VIS 2 1/2 P0002=
200601111512 SPECI KATL 111512Z 22004KT 2SM -RA BR FEW005 SCT020 OVC040 12/12 A3017 RMK AO2 SFC VIS 2 1/2 P0002=
200601111502 SPECI KATL 111502Z 23005KT 1 1/2SM -RA BR FEW005 SCT020 OVC040 12/12 A3017 RMK AO2 TWR VIS 2 P0002=
200601111502 SPECI KATL 111502Z 23005KT 1 1/2SM -RA BR FEW005 SCT020 OVC040 12/12 A3017 RMK AO2 TWR VIS 2 P0002=
200601111451 METAR KATL 111451Z 22005KT 2SM -RA BR FEW005 SCT020 OVC040 12/12 A3017 RMK AO2 DZE25RAB25 SLP216 P0007 60007 T01220117 53015=
200601111447 SPECI KATL 111447Z 23005KT 1SM R09R/P6000FT RA BR FEW005 SCT027 OVC036 12/12 A3017 RMK AO2 TWR VIS 2 DZE25RAB25 P0006=
200601111447 SPECI KATL 111447Z 23005KT 1SM R09R/P6000FT RA BR FEW005 SCT027 OVC036 12/12 A3017 RMK AO2 TWR VIS 2 DZE25RAB25 P0006=
200601111439 SPECI KATL 111439Z 25006KT 1SM R09R/6000VP6000FT -RA BR FEW022 BKN027 OVC036 12/12 A3017 RMK AO2 TWR VIS 2 DZE25RAB25 P0005=
200601111439 SPECI KATL 111439Z 25006KT 1SM R09R/6000VP6000FT -RA BR FEW022 BKN027 OVC036 12/12 A3017 RMK AO2 TWR VIS 2 DZE25RAB25 P0005=
200601111431 SPECI KATL 111431Z 25007KT 2SM R09R/6000VP6000FT RA BR FEW012 OVC027 13/11 A3017 RMK AO2 SFC VIS 2 1/2 DZE25RAB25 P0001=
200601111431 SPECI KATL 111431Z 25007KT 2SM R09R/6000VP6000FT RA BR FEW012 OVC027 13/11 A3017 RMK AO2 SFC VIS 2 1/2 DZE25RAB25 P0001=
200601111358 SPECI KATL 111358Z 28009KT 2SM -DZ BR BKN008 OVC012 12/11 A3016 RMK AO2 SFC VIS 5 P0000=
200601111358 SPECI KATL 111358Z 28009KT 2SM -DZ BR BKN008 OVC012 12/11 A3016 RMK AO2 SFC VIS 5 P0000=
200601111351 METAR KATL 111351Z 27008KT 2SM -DZ BR BKN004 OVC008 12/11 A3016 RMK AO2 SFC VIS 5 DZB04 SLP213 P0000 T01220111=
200601111325 SPECI KATL 111325Z 26006KT 2SM -DZ BR BKN004 OVC026 13/12 A3014 RMK AO2 SFC VIS 4 DZB04 P0000=
200601111325 SPECI KATL 111325Z 26006KT 2SM -DZ BR BKN004 OVC026 13/12 A3014 RMK AO2 SFC VIS 4 DZB04 P0000=
200601111305 SPECI KATL 111305Z 21006KT 2SM -DZ BR FEW006 BKN026 OVC100 13/12 A3013 RMK AO2 SFC VIS 4 DZB04 P0000=
200601111305 SPECI KATL 111305Z 21006KT 2SM -DZ BR FEW006 BKN026 OVC100 13/12 A3013 RMK AO2 SFC VIS 4 DZB04 P0000=
200601111251 METAR KATL 111251Z 18005KT 5SM BR SCT006 BKN038 BKN100 OVC140 13/12 A3013 RMK AO2 SLP201 T01280122=
200601111151 METAR KATL 111151Z 17005KT 7SM FEW008 SCT032 SCT080 OVC140 13/12 A3013 RMK AO2 SLP199 60001 70001 T01280122 10139 20128 56009=
200601111051 METAR KATL 111051Z 17007KT 9SM FEW008 BKN032 BKN100 OVC140 13/12 A3013 RMK AO2 RAB0957E42 SLP201 P0000 T01330117=
200601110951 METAR KATL 110951Z 19004KT 9SM BKN036 OVC090 13/12 A3015 RMK AO2 RAE37 SLP207 P0001 T01280117=
200601110851 METAR KATL 110851Z 15005KT 10SM -RA BKN042 OVC085 13/11 A3015 RMK AO2 RAB11 SLP208 P0000 60000 T01330106 58012=
200601110751 METAR KATL 110751Z 15005KT 10SM BKN045 OVC080 14/09 A3017 RMK AO2 SLP214 T01390094=
200601110651 METAR KATL 110651Z 15008KT 10SM BKN055 BKN130 OVC200 14/08 A3018 RMK AO2 SLP217 T01390083=
200601110551 METAR KATL 110551Z 14007KT 10SM SCT065 BKN200 OVC250 14/07 A3019 RMK AO2 SLP221 T01390072 10161 20139 58006=
200601110451 METAR KATL 110451Z 15006KT 10SM BKN060 BKN200 OVC250 14/06 A3021 RMK AO2 SLP226 T01390056 402060111=
200601110351 METAR KATL 110351Z 14009KT 10SM OVC060 14/04 A3020 RMK AO2 SLP224 T01440044=
200601110251 METAR KATL 110251Z 13006KT 10SM OVC060 14/04 A3021 RMK AO2 SLP228 BINOVC T01390039 58006=
200601110151 METAR KATL 110151Z 14006KT 10SM SCT200 BKN250 14/03 A3022 RMK AO2 SLP232 T01440033=
200601110051 METAR KATL 110051Z 15008KT 10SM BKN200 OVC250 16/03 A3022 RMK AO2 SLP234 T01560028=
200601102351 METAR KATL 102351Z 15007KT 10SM BKN200 OVC250 16/03 A3023 RMK AO2 SLP236 T01610028 10206 20161 55001=
200601102251 METAR KATL 102251Z 15006KT 10SM BKN200 BKN250 17/03 A3023 RMK AO2 SLP234 T01720033=
200601102151 METAR KATL 102151Z 16011KT 10SM FEW060 SCT180 SCT250 BKN300 18/03 A3022 RMK AO2 SLP231 T01830033=
200601102051 METAR KATL 102051Z 16011G17KT 10SM FEW060 SCT250 SCT300 20/07 A3023 RMK AO2 SLP235 T02000067 56018=
200601101951 METAR KATL 101951Z 16011G17KT 10SM SCT060 BKN250 BKN300 20/07 A3024 RMK AO2 SLP238 T02000072=
200601101851 METAR KATL 101851Z 15009G17KT 10SM SCT050 SCT060 BKN250 BKN300 20/08 A3025 RMK AO2 SLP242 T02000078=
200601101751 METAR KATL 101751Z 15006KT 10SM FEW045 BKN250 BKN300 19/08 A3029 RMK AO2 SLP254 T01940078 10194 20111 58027=
200601101651 METAR KATL 101651Z 14005KT 10SM FEW180 BKN250 OVC300 18/10 A3034 RMK AO2 SLP271 T01780100=
200601101551 METAR KATL 101551Z 09003KT 8SM FEW065 BKN250 BKN300 16/12 A3037 RMK AO2 SLP281 T01560117=
200601101451 METAR KATL 101451Z 00000KT 5SM BR FEW005 SCT065 BKN250 BKN300 14/12 A3037 RMK AO2 SLP283 T01440122 53010=
200601101351 METAR KATL 101351Z 00000KT 4SM BR SCT065 BKN250 13/12 A3036 RMK AO2 SLP281 T01280117=
200601101251 METAR KATL 101251Z 00000KT 6SM BR SCT065 SCT250 11/11 A3035 RMK AO2 SLP276 T01110106=
200601101151 METAR KATL 101151Z 19003KT 6SM BR FEW016 SCT046 BKN065 12/11 A3034 RMK AO2 SLP273 T01170111 10128 20111 53005=
200601101119 SPECI KATL 101119Z 22003KT 6SM BR FEW018 BKN030 BKN042 12/11 A3034 RMK AO2=
200601101119 SPECI KATL 101119Z 22003KT 6SM BR FEW018 BKN030 BKN042 12/11 A3034 RMK AO2=
200601101054 SPECI KATL 101054Z 18003KT 6SM BR BKN016 BKN042 11/11 A3033 RMK AO2=
200601101054 SPECI KATL 101054Z 18003KT 6SM BR BKN016 BKN042 11/11 A3033 RMK AO2=
200601101051 METAR KATL 101051Z 18003KT 6SM BR FEW006 SCT012 BKN032 11/11 A3033 RMK AO2 SLP269 T01110106=
200601101049 SPECI KATL 101049Z 18003KT 6SM BR FEW006 SCT014 BKN028 11/11 A3033 RMK AO2=
200601101049 SPECI KATL 101049Z 18003KT 6SM BR FEW006 SCT014 BKN028 11/11 A3033 RMK AO2=
200601101016 SPECI KATL 101016Z 19003KT 7SM BKN006 OVC010 12/11 A3033 RMK AO2 CIG 004V007=
200601101016 SPECI KATL 101016Z 19003KT 7SM BKN006 OVC010 12/11 A3033 RMK AO2 CIG 004V007=
200601101004 SPECI KATL 101004Z 19005KT 7SM BKN004 12/11 A3033 RMK AO2 CIG 004V007=
200601101004 SPECI KATL 101004Z 19005KT 7SM BKN004 12/11 A3033 RMK AO2 CIG 004V007=
200601100955 SPECI KATL 100955Z 19005KT 8SM BKN008 11/11 A3033 RMK AO2=
200601100955 SPECI KATL 100955Z 19005KT 8SM BKN008 11/11 A3033 RMK AO2=
200601100951 METAR KATL 100951Z 19005KT 8SM SCT008 11/11 A3033 RMK AO2 SLP268 T01110106=
200601100851 METAR KATL 100851Z 20005KT 10SM FEW070 12/11 A3033 RMK AO2 SLP266 T01170106 55000=
200601100751 METAR KATL 100751Z 20003KT 10SM SCT070 12/11 A3032 RMK AO2 SLP265 T01220106=
200601100651 METAR KATL 100651Z 18003KT 10SM FEW065 12/11 A3032 RMK AO2 SLP266 T01170106=
200601100551 METAR KATL 100551Z 00000KT 10SM FEW065 13/11 A3032 RMK AO2 SLP266 T01280106 10167 20122 50003=
200601100451 METAR KATL 100451Z 00000KT 10SM FEW065 12/10 A3033 RMK AO2 SLP269 T01220100 402110117=
200601100351 METAR KATL 100351Z 21004KT 10SM SCT065 14/10 A3032 RMK AO2 SLP266 T01390100=
200601100251 METAR KATL 100251Z 19004KT 10SM BKN065 14/08 A3032 RMK AO2 SLP265 T01390083 51010=
200601100151 METAR KATL 100151Z 20003KT 10SM FEW065 14/08 A3031 RMK AO2 SLP262 T01440083=
200601100051 METAR KATL 100051Z 00000KT 10SM FEW065 16/08 A3030 RMK AO2 SLP259 T01560083=
200601092351 METAR KATL 092351Z 00000KT 10SM FEW065 17/08 A3028 RMK AO2 SLP253 T01670078 10211 20167 53011=
200601092251 METAR KATL 092251Z 24003KT 10SM SCT065 18/08 A3026 RMK AO2 SLP246 T01830078=
200601092151 METAR KATL 092151Z 22007KT 10SM SCT060 SCT250 19/07 A3025 RMK AO2 SLP243 T01940072=
200601092051 METAR KATL 092051Z 22006KT 10SM FEW045 SCT060 20/08 A3025 RMK AO2 SLP240 T02000083 55003=
200601091951 METAR KATL 091951Z 23010KT 10SM FEW045 BKN055 21/08 A3024 RMK AO2 SLP235 T02060083=
200601091851 METAR KATL 091851Z 24010G17KT 10SM SCT045 BKN060 20/08 A3024 RMK AO2 SLP238 T02000083=
200601091751 METAR KATL 091751Z 26011G18KT 10SM FEW035 SCT060 SCT250 19/11 A3026 RMK AO2 SLP244 T01940106 10200 20117 58011=
200601091651 METAR KATL 091651Z 23012G20KT 10SM FEW030 SCT060 SCT250 19/11 A3029 RMK AO2 SLP253 T01890106=
200601091551 METAR KATL 091551Z 24009KT 10SM FEW020 BKN060 17/11 A3030 RMK AO2 SLP260 T01670111=
200601091451 METAR KATL 091451Z 22009KT 10SM FEW038 BKN060 BKN250 14/12 A3029 RMK AO2 SLP257 T01390117 53023=
200601091351 METAR KATL 091351Z 22008KT 10SM BKN060 BKN250 13/11 A3027 RMK AO2 SLP248 T01280111=
200601091251 METAR KATL 091251Z 22009KT 10SM BKN055 BKN140 OVC250 12/11 A3024 RMK AO2 SLP239 T01220106=
200601091151 METAR KATL 091151Z 23006KT 10SM OVC050 12/11 A3022 RMK AO2 SLP234 T01170106 10133 20117 53010=
200601091051 METAR KATL 091051Z 22007KT 10SM FEW012 OVC050 12/10 A3021 RMK AO2 SLP229 T01170100=
200601090951 METAR KATL 090951Z 22006KT 10SM FEW026 SCT046 BKN140 BKN250 12/10 A3020 RMK AO2 SLP226 T01170100=
200601090851 METAR KATL 090851Z 22008KT 10SM FEW024 BKN045 OVC120 13/10 A3019 RMK AO2 SLP222 T01280100 51015=
200601090751 METAR KATL 090751Z 23006KT 10SM FEW026 OVC041 13/10 A3019 RMK AO2 SLP221 T01330100=
200601090738 SPECI KATL 090738Z 22006KT 10SM FEW020 OVC041 13/10 A3019 RMK AO2=
200601090738 SPECI KATL 090738Z 22006KT 10SM FEW020 OVC041 13/10 A3019 RMK AO2=
200601090651 METAR KATL 090651Z 23010KT 10SM BKN020 OVC038 13/09 A3017 RMK AO2 SLP216 T01330094=
200601090551 METAR KATL 090551Z 22008KT 10SM BKN022 BKN034 13/09 A3015 RMK AO2 SLP207 T01280089 10139 20122 53009=
200601090451 METAR KATL 090451Z 21009KT 10SM FEW250 13/08 A3014 RMK AO2 SLP204 T01280083 401670006=
200601090351 METAR KATL 090351Z 20012KT 10SM SCT250 13/07 A3012 RMK AO2 SLP201 T01280072=
200601090251 METAR KATL 090251Z 19011G17KT 10SM SCT250 13/07 A3012 RMK AO2 SLP201 T01280067 53006=
200601090151 METAR KATL 090151Z 19011G16KT 10SM BKN250 13/07 A3010 RMK AO2 SLP197 T01330067=
200601090051 METAR KATL 090051Z 18007KT 10SM SCT250 13/06 A3011 RMK AO2 SLP200 T01330061=
200601082351 METAR KATL 082351Z 18007KT 10SM SCT250 14/06 A3010 RMK AO2 SLP196 T01390056 10167 20139 53013=
200601082251 METAR KATL 082251Z 19006KT 10SM BKN250 14/05 A3008 RMK AO2 SLP190 T01440050=
200601082151 METAR KATL 082151Z 19012G17KT 10SM SCT160 BKN250 16/04 A3007 RMK AO2 SLP184 T01610044=
200601082051 METAR KATL 082051Z 19012G18KT 10SM FEW160 BKN250 17/03 A3006 RMK AO2 SLP181 T01670033 55009=
200601081951 METAR KATL 081951Z 21013G22KT 10SM FEW160 BKN250 16/04 A3005 RMK AO2 SLP177 T01610039=
200601081851 METAR KATL 081851Z 20011KT 10SM SCT160 BKN250 16/04 A3006 RMK AO2 SLP182 T01610039=
200601081751 METAR KATL 081751Z 23012G20KT 10SM FEW160 BKN250 15/04 A3009 RMK AO2 SLP191 T01500039 10150 20006 58023=
200601081651 METAR KATL 081651Z 22014G19KT 10SM FEW160 BKN250 13/06 A3012 RMK AO2 SLP203 T01330056=
200601081551 METAR KATL 081551Z 22010G18KT 10SM FEW160 SCT250 09/04 A3015 RMK AO2 SLP216 T00940039=
200601081451 METAR KATL 081451Z 21008KT 10SM FEW250 06/01 A3016 RMK AO2 SLP218 T00560011 53013=
200601081351 METAR KATL 081351Z 17004KT 10SM FEW160 SCT250 02/M03 A3015 RMK AO2 SLP216 T00221028=
200601081251 METAR KATL 081251Z 19003KT 10SM FEW250 01/M04 A3012 RMK AO2 SLP208 T00061039=
200601081151 METAR KATL 081151Z 18003KT 10SM FEW250 01/M04 A3012 RMK AO2 SLP205 T00061039 10028 20006 51002=
200601081051 METAR KATL 081051Z 00000KT 10SM CLR 02/M04 A3011 RMK AO2 SLP202 T00171044=
200601080951 METAR KATL 080951Z 00000KT 10SM CLR 02/M04 A3012 RMK AO2 SLP204 T00221044=
200601080851 METAR KATL 080851Z 23004KT 10SM CLR 02/M04 A3011 RMK AO2 SLP201 T00221044 52006=
200601080751 METAR KATL 080751Z 22004KT 10SM CLR 03/M05 A3011 RMK AO2 SLP199 T00281050=
200601080651 METAR KATL 080651Z 22005KT 10SM BKN250 03/M06 A3010 RMK AO2 SLP197 T00281056=
200601080551 METAR KATL 080551Z 22004KT 10SM BKN250 03/M06 A3009 RMK AO2 SLP196 T00281056 10067 20028 55000=
200601080451 METAR KATL 080451Z 22005KT 10SM BKN250 03/M06 A3009 RMK AO2 SLP195 T00331056 401061022=
200601080351 METAR KATL 080351Z 23005KT 10SM SCT250 04/M06 A3010 RMK AO2 SLP199 T00391061=
200601080251 METAR KATL 080251Z 23006KT 10SM FEW250 04/M06 A3009 RMK AO2 SLP198 T00441061 50004=
200601080151 METAR KATL 080151Z 23007KT 10SM SCT250 05/M06 A3009 RMK AO2 SLP199 T00501061=
200601080051 METAR KATL 080051Z 21006KT 10SM FEW250 06/M06 A3009 RMK AO2 SLP196 T00561061=
200601072351 METAR KATL 072351Z 21007KT 10SM FEW250 07/M06 A3008 RMK AO2 SLP194 T00671061 10106 20061 53007=
200601072251 METAR KATL 072251Z 23006KT 10SM FEW250 08/M08 A3007 RMK AO2 SLP188 T00781078=
200601072151 METAR KATL 072151Z 24009KT 10SM FEW300 09/M09 A3006 RMK AO2 SLP187 T00941089=
200601072051 METAR KATL 072051Z 26011KT 10SM SCT300 09/M10 A3006 RMK AO2 SLP186 T00941100 55011=
200601071951 METAR KATL 071951Z 25009KT 10SM SCT300 09/M08 A3006 RMK AO2 SLP185 T00941083=
200601071851 METAR KATL 071851Z 22005KT 10SM FEW300 07/M07 A3007 RMK AO2 SLP190 T00721072=
200601071751 METAR KATL 071751Z 25005KT 10SM FEW120 SCT300 06/M06 A3009 RMK AO2 SLP198 T00611061 10061 21011 58016=
200601071651 METAR KATL 071651Z 30008KT 10SM SCT120 04/M05 A3013 RMK AO2 SLP211 T00391050=
200601071551 METAR KATL 071551Z 29010KT 9SM FEW100 BKN120 02/M06 A3015 RMK AO2 SLP217 T00171056=
200601071451 METAR KATL 071451Z 29012KT 10SM BKN120 01/M06 A3014 RMK AO2 SLP216 T00061061 51014=
200601071351 METAR KATL 071351Z 29008KT 10SM FEW075 SCT120 M01/M06 A3013 RMK AO2 SLP213 T10061061=
200601071251 METAR KATL 071251Z 27007KT 10SM SCT075 BKN090 M01/M06 A3012 RMK AO2 SLP209 T10111061=
200601071151 METAR KATL 071151Z 29006KT 10SM OVC110 M01/M07 A3010 RMK AO2 SLP202 T10111067 11011 21022 53009=
200601071051 METAR KATL 071051Z 29009KT 10SM BKN120 M02/M07 A3009 RMK AO2 SLP199 T10171067=
200601070951 METAR KATL 070951Z 29008KT 10SM SCT250 M02/M07 A3008 RMK AO2 SLP194 T10221067=
200601070851 METAR KATL 070851Z 29007KT 10SM CLR M02/M07 A3007 RMK AO2 SLP193 T10221067 55000=
200601070751 METAR KATL 070751Z 31006KT 10SM SCT250 M02/M07 A3006 RMK AO2 SLP189 T10171072=
200601070651 METAR KATL 070651Z 32010KT 10SM CLR M02/M07 A3007 RMK AO2 SLP191 T10171072=
200601070551 METAR KATL 070551Z 32011KT 10SM CLR M01/M07 A3007 RMK AO2 SLP191 T10111072 10017 21011 51000=
200601070451 METAR KATL 070451Z 32011G18KT 10SM CLR M01/M07 A3007 RMK AO2 SLP189 T10061072 400441006=
200601070351 METAR KATL 070351Z 32014KT 10SM FEW035 00/M07 A3008 RMK AO2 SLP192 T00001072=
200601070251 METAR KATL 070251Z 32015KT 10SM BKN035 00/M07 A3007 RMK AO2 SLP190 T00001072 51011=
200601070151 METAR KATL 070151Z 33016G22KT 10SM SCT040 01/M07 A3007 RMK AO2 PK WND 32027/0120 SLP189 T00061072=
200601070051 METAR KATL 070051Z 32015G26KT 10SM OVC038 01/M07 A3006 RMK AO2 PK WND 32028/0030 SLP186 BINOVC T00111067=
200601062351 METAR KATL 062351Z 31015G22KT 10SM OVC035 02/M06 A3004 RMK AO2 SLP179 BINOVC T00171061 10044 20017 53024=
200601062251 METAR KATL 062251Z 32012KT 10SM BKN040 02/M06 A2999 RMK AO2 SLP164 T00221061=
200601062151 METAR KATL 062151Z 32012KT 10SM SCT040 03/M06 A2998 RMK AO2 SLP157 T00281056=
200601062051 METAR KATL 062051Z 33015G22KT 10SM BKN038 03/M06 A2996 RMK AO2 PK WND 33027/2011 SLP153 T00331056 53006=
200601061951 METAR KATL 061951Z 34014KT 10SM OVC036 03/M04 A2995 RMK AO2 SLP147 T00331039=
200601061851 METAR KATL 061851Z 32015KT 10SM OVC036 04/M04 A2994 RMK AO2 SLP144 T00391039=
200601061751 METAR KATL 061751Z 33013KT 10SM OVC034 04/M03 A2995 RMK AO2 SLP147 T00391033 10044 20028 58006=
200601061651 METAR KATL 061651Z 31016G21KT 10SM OVC034 04/M03 A2997 RMK AO2 SLP154 T00441028=
200601061551 METAR KATL 061551Z 35014KT 10SM FEW030 BKN036 04/M03 A2998 RMK AO2 SLP157 T00391028=
200601061451 METAR KATL 061451Z 33008KT 10SM FEW030 BKN038 04/M02 A2996 RMK AO2 SLP152 T00391022 53024=
200601061351 METAR KATL 061351Z 33013KT 10SM FEW026 BKN038 03/M02 A2994 RMK AO2 SLP143 T00331022=
200601061251 METAR KATL 061251Z 32011KT 10SM FEW026 BKN038 03/M02 A2991 RMK AO2 SLP135 T00331022=
200601061151 METAR KATL 061151Z 32013KT 10SM FEW026 OVC034 03/M02 A2989 RMK AO2 SLP127 T00331017 10039 20033 53014=
200601061051 METAR KATL 061051Z 32014G18KT 10SM FEW026 OVC034 03/M02 A2987 RMK AO2 SLP118 T00331017=
200601060951 METAR KATL 060951Z 32014KT 10SM FEW026 OVC036 03/M02 A2986 RMK AO2 SLP114 T00331022=
200601060851 METAR KATL 060851Z 33012KT 10SM FEW024 OVC034 03/M02 A2985 RMK AO2 SLP112 BINOVC T00331022 53007=
200601060751 METAR KATL 060751Z 32015G25KT 10SM FEW024 BKN032 03/M02 A2984 RMK AO2 SLP107 T00331022=
200601060651 METAR KATL 060651Z 33016KT 10SM FEW022 BKN030 04/M03 A2982 RMK AO2 SLP102 T00391028=
200601060551 METAR KATL 060551Z 32013G20KT 10SM OVC030 04/M02 A2983 RMK AO2 PK WND 32026/0510 RAE0454 SLP104 P0000 60000 T00391017 10061 20033 58005=
200601060451 METAR KATL 060451Z 32018G26KT 10SM -RA FEW022 BKN030 OVC038 03/00 A2984 RMK AO2 PK WND 31028/0441 RAB35 SLP106 P0000 T00330000 401280033=
200601060357 SPECI KATL 060357Z 33014G24KT 10SM BKN028 OVC035 05/M01 A2983 RMK AO2=
200601060357 SPECI KATL 060357Z 33014G24KT 10SM BKN028 OVC035 05/M01 A2983 RMK AO2=
200601060351 METAR KATL 060351Z 31016G26KT 10SM BKN030 OVC036 05/M01 A2983 RMK AO2 PK WND 31031/0319 SLP105 T00501011=
200601060257 SPECI KATL 060257Z 32020G28KT 10SM OVC032 05/M01 A2984 RMK AO2 PK WND 32028/0254=
200601060257 SPECI KATL 060257Z 32020G28KT 10SM OVC032 05/M01 A2984 RMK AO2 PK WND 32028/0254=
200601060251 METAR KATL 060251Z 33014G24KT 10SM OVC028 05/M01 A2984 RMK AO2 PK WND 34028/0230 SLP108 T00501011 51005=
200601060246 SPECI KATL 060246Z 33019G26KT 10SM OVC028 05/M01 A2984 RMK AO2 PK WND 34028/0230=
200601060246 SPECI KATL 060246Z 33019G26KT 10SM OVC028 05/M01 A2984 RMK AO2 PK WND 34028/0230=
200601060151 METAR KATL 060151Z 33015G25KT 10SM OVC032 05/M02 A2983 RMK AO2 PK WND 31027/0108 SLP106 T00501017=
200601060051 METAR KATL 060051Z 32014KT 10SM OVC038 06/M01 A2983 RMK AO2 SLP104 BINOVC T00611006=
200601052351 METAR KATL 052351Z 34015G25KT 10SM SCT045 06/M01 A2982 RMK AO2 SLP101 T00611006 10100 20061 53013=
200601052251 METAR KATL 052251Z 32009KT 10SM BKN048 08/00 A2980 RMK AO2 SLP092 T00780000=
200601052151 METAR KATL 052151Z 31015G22KT 10SM FEW035 08/01 A2979 RMK AO2 SLP090 T00830006=
200601052051 METAR KATL 052051Z 28014KT 10SM FEW030 09/02 A2978 RMK AO2 SLP085 T00890017 53002=
200601051951 METAR KATL 051951Z 32015KT 10SM FEW022 08/03 A2977 RMK AO2 SLP082 T00830028=
200601051922 SPECI KATL 051922Z 31017KT 9SM BKN022 08/03 A2978 RMK AO2=
200601051922 SPECI KATL 051922Z 31017KT 9SM BKN022 08/03 A2978 RMK AO2=
200601051851 METAR KATL 051851Z 33014G19KT 9SM SCT020 09/03 A2977 RMK AO2 SLP082 T00890033=
200601051751 METAR KATL 051751Z 30015G20KT 9SM FEW025 09/04 A2978 RMK AO2 SLP086 T00940039 10111 20067 58023=
200601051651 METAR KATL 051651Z 29014KT 10SM FEW020 11/04 A2982 RMK AO2 SLP098 T01060044=
200601051551 METAR KATL 051551Z 29011KT 9SM CLR 10/05 A2985 RMK AO2 SLP108 T01000050=
200601051451 METAR KATL 051451Z 30010KT 8SM FEW045 SCT250 09/05 A2986 RMK AO2 SLP110 T00890050 53002=
200601051351 METAR KATL 051351Z 31005KT 8SM FEW045 SCT250 08/04 A2985 RMK AO2 SLP108 T00780044=
200601051251 METAR KATL 051251Z 31005KT 8SM FEW250 07/04 A2985 RMK AO2 SLP108 T00670039=
200601051151 METAR KATL 051151Z 31008KT 10SM FEW180 SCT250 08/05 A2985 RMK AO2 SLP108 T00780050 10122 20078 55005=
200601051051 METAR KATL 051051Z 29007KT 10SM FEW180 BKN250 08/05 A2984 RMK AO2 SLP103 T00830050=
200601050951 METAR KATL 050951Z 27003KT 10SM FEW130 SCT180 BKN250 10/06 A2984 RMK AO2 SLP104 T01000056=
200601050851 METAR KATL 050851Z 28007KT 10SM FEW130 BKN180 OVC250 11/06 A2987 RMK AO2 SLP110 T01060056 57006=
200601050751 METAR KATL 050751Z 27007KT 10SM FEW130 BKN180 BKN250 11/06 A2987 RMK AO2 SLP111 T01110061=
200601050651 METAR KATL 050651Z 26007KT 10SM SCT180 BKN250 12/06 A2988 RMK AO2 SLP116 T01170061=
200601050551 METAR KATL 050551Z 28007KT 10SM BKN200 BKN250 12/06 A2988 RMK AO2 SLP117 T01220061 10144 20122 58012=
200601050451 METAR KATL 050451Z 26007KT 10SM FEW150 BKN200 OVC250 12/06 A2990 RMK AO2 SLP123 T01220061 401830033=
200601050351 METAR KATL 050351Z 26008KT 10SM FEW150 BKN200 BKN250 13/06 A2991 RMK AO2 SLP129 T01280061=
200601050251 METAR KATL 050251Z 25007KT 10SM BKN200 OVC250 14/06 A2992 RMK AO2 SLP131 T01390061 58004=
200601050151 METAR KATL 050151Z 23006KT 10SM FEW150 BKN200 BKN250 13/07 A2992 RMK AO2 SLP134 T01330067=
200601050051 METAR KATL 050051Z 23006KT 10SM FEW150 BKN200 BKN250 13/06 A2993 RMK AO2 SLP137 T01330061=
200601042351 METAR KATL 042351Z 24005KT 10SM SCT200 BKN250 14/06 A2993 RMK AO2 SLP138 T01440056 10183 20144 53003=
200601042251 METAR KATL 042251Z 22005KT 10SM FEW170 BKN200 BKN250 16/06 A2992 RMK AO2 SLP134 T01560056=
200601042151 METAR KATL 042151Z 22007KT 10SM FEW150 SCT200 BKN240 17/04 A2992 RMK AO2 SLP133 T01720044=
200601042051 METAR KATL 042051Z 20007KT 10SM FEW200 BKN240 BKN280 18/05 A2992 RMK AO2 SLP132 T01780050 56022=
200601041951 METAR KATL 041951Z 22007KT 10SM FEW200 BKN240 BKN280 18/04 A2993 RMK AO2 SLP135 T01780044=
200601041851 METAR KATL 041851Z VRB03KT 10SM FEW200 SCT240 SCT280 17/06 A2996 RMK AO2 SLP145 T01720061=
200601041751 METAR KATL 041751Z 00000KT 9SM FEW240 BKN280 16/06 A2999 RMK AO2 SLP155 T01610061 10161 20033 58029=
200601041651 METAR KATL 041651Z 00000KT 9SM FEW240 SCT280 14/06 A3003 RMK AO2 SLP171 T01390061=
200601041551 METAR KATL 041551Z 12004KT 9SM FEW200 SCT240 SCT280 12/06 A3007 RMK AO2 SLP183 T01170056=
200601041451 METAR KATL 041451Z 10003KT 8SM FEW200 SCT240 10/06 A3008 RMK AO2 SLP188 T01000056 53008=
200601041351 METAR KATL 041351Z 31003KT 6SM BR FEW250 07/04 A3006 RMK AO2 SLP184 T00670044=
200601041251 METAR KATL 041251Z 35003KT 5SM BR CLR 04/03 A3006 RMK AO2 SLP183 T00440028=
200601041151 METAR KATL 041151Z 31006KT 5SM BR CLR 03/03 A3005 RMK AO2 SLP182 T00330028 10061 20033 53008=
200601041051 METAR KATL 041051Z 31008KT 5SM BR CLR 04/03 A3004 RMK AO2 SLP177 T00390028=
200601040951 METAR KATL 040951Z 30007KT 6SM BR CLR 04/03 A3003 RMK AO2 SLP171 T00390033=
200601040851 METAR KATL 040851Z 30005KT 7SM CLR 04/03 A3003 RMK AO2 SLP171 T00440028 53001=
200601040751 METAR KATL 040751Z 29003KT 7SM CLR 06/04 A3002 RMK AO2 SLP167 T00560039=
200601040651 METAR KATL 040651Z 28003KT 7SM CLR 06/04 A3003 RMK AO2 SLP171 T00560039=
200601040551 METAR KATL 040551Z 29003KT 10SM CLR 06/04 A3003 RMK AO2 SLP170 T00610039 10100 20056 58002=
200601040451 METAR KATL 040451Z 28004KT 10SM CLR 07/04 A3003 RMK AO2 SLP171 T00670044 401500061=
200601040351 METAR KATL 040351Z 29005KT 9SM CLR 07/04 A3004 RMK AO2 SLP174 T00670039=
200601040251 METAR KATL 040251Z 33009KT 10SM CLR 08/04 A3003 RMK AO2 SLP172 T00780044 53003=
200601040151 METAR KATL 040151Z 32006KT 10SM CLR 09/04 A3002 RMK AO2 SLP169 T00890044=
200601040051 METAR KATL 040051Z 32008KT 10SM CLR 09/04 A3002 RMK AO2 SLP167 T00940044=
200601032351 METAR KATL 032351Z 32011KT 10SM FEW030 10/05 A3002 RMK AO2 SLP168 T01000050 10133 20100 50018=
200601032251 METAR KATL 032251Z 33008KT 10SM BKN032 11/05 A3002 RMK AO2 SLP168 T01110050=
200601032151 METAR KATL 032151Z 32012KT 10SM BKN034 12/05 A3000 RMK AO2 SLP159 T01220050=
200601032051 METAR KATL 032051Z 32010KT 10SM BKN032 13/06 A2997 RMK AO2 SLP148 T01280056 53003=
200601031951 METAR KATL 031951Z 32009KT 10SM BKN030 12/06 A2995 RMK AO2 SLP143 T01220056=
200601031858 SPECI KATL 031858Z 31010KT 10SM BKN030 12/06 A2995 RMK AO2=
200601031858 SPECI KATL 031858Z 31010KT 10SM BKN030 12/06 A2995 RMK AO2=
200601031851 METAR KATL 031851Z 31010KT 10SM BKN028 12/06 A2995 RMK AO2 SLP141 T01170061=
200601031751 METAR KATL 031751Z 30008KT 10SM BKN024 11/06 A2996 RMK AO2 SLP145 T01110061 10111 20078 50007=
200601031651 METAR KATL 031651Z 33013KT 10SM BKN022 11/06 A2997 RMK AO2 SLP148 T01060056=
200601031618 SPECI KATL 031618Z 31012G19KT 10SM BKN022 11/06 A2996 RMK AO2=
200601031618 SPECI KATL 031618Z 31012G19KT 10SM BKN022 11/06 A2996 RMK AO2=
200601031551 METAR KATL 031551Z 29015G21KT 10SM SCT022 11/06 A2996 RMK AO2 SLP144 T01060056=
200601031451 METAR KATL 031451Z 29013KT 10SM FEW120 09/06 A2994 RMK AO2 SLP136 T00940056 53024=
200601031351 METAR KATL 031351Z 30010KT 10SM FEW250 09/05 A2991 RMK AO2 SLP129 T00890050=
200601031251 METAR KATL 031251Z 28008KT 10SM FEW250 08/04 A2988 RMK AO2 SLP118 T00830044=
200601031151 METAR KATL 031151Z 28011KT 10SM CLR 09/04 A2987 RMK AO2 SLP112 70048 T00890044 10139 20089 51019 $=
200601031051 METAR KATL 031051Z 28011KT 10SM CLR 09/05 A2985 RMK AO2 SLP106 T00940050 $=
200601030951 METAR KATL 030951Z 28010KT 10SM CLR 10/05 A2983 RMK AO2 SLP099 T01000050 $=
200601030851 METAR KATL 030851Z 28011G17KT 10SM CLR 11/06 A2981 RMK AO2 SLP091 T01110056 53008 $=
200601030751 METAR KATL 030751Z 28012KT 10SM CLR 12/06 A2979 RMK AO2 SLP086 T01220056 $=
200601030651 METAR KATL 030651Z 27007KT 10SM CLR 12/06 A2979 RMK AO2 SLP083 T01220061 $=
200601030551 METAR KATL 030551Z 27010KT 10SM CLR 14/07 A2978 RMK AO2 SLP083 T01390067 10172 20139 51011 $=
200601030451 METAR KATL 030451Z 26012G17KT 10SM CLR 15/07 A2978 RMK AO2 SLP080 T01500072 401940128 $=
200601030351 METAR KATL 030351Z 26010KT 10SM FEW080 16/09 A2977 RMK AO2 SLP078 T01610089 $=
200601030251 METAR KATL 030251Z 23009KT 10SM FEW080 17/10 A2975 RMK AO2 SLP070 T01670100 51011 $=
200601030151 METAR KATL 030151Z 24009KT 10SM FEW080 17/12 A2974 RMK AO2 SLP068 T01670117 $=
200601030051 METAR KATL 030051Z 23007KT 10SM FEW200 17/13 A2973 RMK AO2 SLP066 LTG DSNT SE CB DSNT SE T01670133 $=
200601022351 METAR KATL 022351Z 23008KT 10SM FEW150 17/14 A2972 RMK AO2 SLP060 LTG DSNT NE-SE CB DSNT NE-SE 60018 T01720144 10194 20167 51003 $=
200601022251 METAR KATL 022251Z 19007KT 10SM FEW030CB SCT060 SCT150 BKN250 17/13 A2971 RMK AO2 TSE51RAE51 SLP059 TS MOV E CB DSNT N-E TCU VC E-SE P0018 T01670128 $=
200601022222 SPECI KATL 022222Z 17006KT 6SM TSRA BR FEW005 SCT025CB BKN150 BKN250 18/13 A2972 RMK AO2 FRQ LTGICCG TS SE-SW-W MOV NE CB DSNT N-NE P0014 $=
200601022222 SPECI KATL 022222Z 17006KT 6SM TSRA BR FEW005 SCT025CB BKN150 BKN250 18/13 A2972 RMK AO2 FRQ LTGICCG TS SE-SW-W MOV NE CB DSNT N-NE P0014 $=
200601022201 SPECI KATL 022201Z 18013KT 7SM R09R/5000VP6000FT TSRA FEW016CB BKN024 BKN150 BKN250 18/17 A2972 RMK AO2 FRQ LTGICCG TS S-SW-W MOV ENE CB DSNT NW-N P0003 $=
200601022201 SPECI KATL 022201Z 18013KT 7SM R09R/5000VP6000FT TSRA FEW016CB BKN024 BKN150 BKN250 18/17 A2972 RMK AO2 FRQ LTGICCG TS S-SW-W MOV ENE CB DSNT NW-N P0003 $=
200601022151 METAR KATL 022151Z 16007KT 9SM -TSRA FEW005 BKN020CB BKN150 BKN250 19/17 A2972 RMK AO2 TSB49RAB2052E02B39 SLP059 OCNL LTGICCG TS VC W MOV ENE CBMAM OHD-N-NE CB DSNT SW AND DSNT NW-N P0000 T01890167 $=
200601022149 SPECI KATL 022149Z 16006KT 10SM -TSRA FEW005 SCT016CB BKN150 BKN250 19/17 A2972 RMK AO2 TSB49RAB2052E02B39 OCNL LTGICCG TS VC W MOV ENE CBMAM OHD-N-NE CB DSNT SW AND DSNT NW-N P0000 $=
200601022149 SPECI KATL 022149Z 16006KT 10SM -TSRA FEW005 SCT016CB BKN150 BKN250 19/17 A2972 RMK AO2 TSB49RAB2052E02B39 OCNL LTGICCG TS VC W MOV ENE CBMAM OHD-N-NE CB DSNT SW AND DSNT NW-N P0000 $=
200601022124 SPECI KATL 022124Z 17009KT 10SM FEW013 SCT200 SCT250 19/17 A2970 RMK AO2 RAB2052E02 CB DSNT SW-N P0000 $=
200601022124 SPECI KATL 022124Z 17009KT 10SM FEW013 SCT200 SCT250 19/17 A2970 RMK AO2 RAB2052E02 CB DSNT SW-N P0000 $=
200601022051 METAR KATL 022051Z 17007KT 9SM BKN011 19/17 A2971 RMK AO2 SLP056 T01890172 56031 $=
200601021951 METAR KATL 021951Z 17007KT 8SM BKN009 BKN015 18/17 A2972 RMK AO2 SLP062 T01830172 $=
200601021901 SPECI KATL 021901Z 18009KT 6SM BR BKN006 BKN009 OVC015 18/17 A2976 RMK AO2 BINOVC $=
200601021901 SPECI KATL 021901Z 18009KT 6SM BR BKN006 BKN009 OVC015 18/17 A2976 RMK AO2 BINOVC $=
200601021851 METAR KATL 021851Z 18009KT 10SM BKN004 BKN009 OVC015 18/17 A2976 RMK AO2 PRESFR SLP076 BINOVC T01780167 $=
200601021751 METAR KATL 021751Z 16007KT 10SM OVC004 17/16 A2980 RMK AO2 RAB27E36 SLP090 P0000 60030 T01670161 10167 20139 58026 $=
200601021743 SPECI KATL 021743Z 16009KT 10SM OVC004 17/16 A2980 RMK AO2 RAB27E36 P0000 $=
200601021743 SPECI KATL 021743Z 16009KT 10SM OVC004 17/16 A2980 RMK AO2 RAB27E36 P0000 $=
200601021711 SPECI KATL 021711Z 16007KT 10SM BKN008 BKN019 OVC024 16/16 A2983 RMK AO2 CIG 005V012 $=
200601021711 SPECI KATL 021711Z 16007KT 10SM BKN008 BKN019 OVC024 16/16 A2983 RMK AO2 CIG 005V012 $=
200601021651 METAR KATL 021651Z 17007KT 10SM SCT006 BKN010 OVC040 16/16 A2984 RMK AO2 RAE24 PRESFR SLP103 P0003 T01610156 $=
200601021640 SPECI KATL 021640Z 17008KT 6SM BR SCT006 BKN010 OVC040 16/16 A2986 RMK AO2 RAE24 P0003 $=
200601021640 SPECI KATL 021640Z 17008KT 6SM BR SCT006 BKN010 OVC040 16/16 A2986 RMK AO2 RAE24 P0003 $=
200601021551 METAR KATL 021551Z 19006KT 6SM -RA BR OVC006 16/15 A2986 RMK AO2 CIG 004V009 SLP111 P0000 T01560150 $=
200601021537 SPECI KATL 021537Z 16005KT 6SM -RA BR OVC006 16/15 A2987 RMK AO2 CIG 004V011 P0000 $=
200601021537 SPECI KATL 021537Z 16005KT 6SM -RA BR OVC006 16/15 A2987 RMK AO2 CIG 004V011 P0000 $=
200601021451 METAR KATL 021451Z 12009KT 10SM -RA OVC004 15/14 A2988 RMK AO2 RAB32 CIG 003V007 SLP118 P0001 60027 T01500144 58010 $=
200601021351 METAR KATL 021351Z 13010KT 10SM OVC004 14/14 A2990 RMK AO2 RAE34 SLP123 P0001 T01440144 $=
200601021251 METAR KATL 021251Z 15008KT 3SM RA BR BKN004 OVC008 14/14 A2991 RMK AO2 SFC VIS 4 TSB32E49 SLP126 P0025 T01440144 $=
200601021244 SPECI KATL 021244Z 14009G15KT 3SM R09R/5000VP6000FT -TSRA BR BKN002CB BKN008 OVC034 14/14 A2992 RMK AO2 TSB32 TS NW MOV N FRQ LTGIC P0022 $=
200601021244 SPECI KATL 021244Z 14009G15KT 3SM R09R/5000VP6000FT -TSRA BR BKN002CB BKN008 OVC034 14/14 A2992 RMK AO2 TSB32 TS NW MOV N FRQ LTGIC P0022 $=
200601021234 SPECI KATL 021234Z 15012KT 1SM R09R/4500VP6000FT +TSRA BR OVC002CB 14/14 A2994 RMK AO2 SFC VIS 2 TSB32 TS NW MOV N FRQ LTGIC P0009 $=
200601021234 SPECI KATL 021234Z 15012KT 1SM R09R/4500VP6000FT +TSRA BR OVC002CB 14/14 A2994 RMK AO2 SFC VIS 2 TSB32 TS NW MOV N FRQ LTGIC P0009 $=
200601021151 METAR KATL 021151Z 12009KT 3SM -RA OVC004 14/14 A2992 RMK AO2 SFC VIS 9 RAB02 CIG 002V007 SLP129 LTG DSNT NW-N P0003 60091 70113 T01390139 10139 20128 58018 $=
200601021051 METAR KATL 021051Z 12010KT 3SM BKN004 OVC007 14/14 A2993 RMK AO2 SFC VIS 10 RAE30 SLP135 P0005 T01390139 $=
200601021038 SPECI KATL 021038Z 13009KT 3SM BKN004 BKN020 OVC070 14/13 A2995 RMK AO2 SFC VIS 10 RAE30 P0005 $=
200601021038 SPECI KATL 021038Z 13009KT 3SM BKN004 BKN020 OVC070 14/13 A2995 RMK AO2 SFC VIS 10 RAE30 P0005 $=
200601021013 SPECI KATL 021013Z 13011KT 3SM -RA FEW004 BKN026 OVC070 14/13 A2995 RMK AO2 SFC VIS 7 P0005 $=
200601021013 SPECI KATL 021013Z 13011KT 3SM -RA FEW004 BKN026 OVC070 14/13 A2995 RMK AO2 SFC VIS 7 P0005 $=
200601020951 METAR KATL 020951Z 14007KT 3SM -RA FEW014 SCT032 BKN075 14/14 A2995 RMK AO2 SFC VIS 10 RAE26B47 SLP141 P0002 T01390139 $=
200601020926 SPECI KATL 020926Z 12008KT 3SM FEW003 SCT020 BKN080 14/14 A2994 RMK AO2 SFC VIS 7 RAE26 PRESFR P0002 $=
200601020926 SPECI KATL 020926Z 12008KT 3SM FEW003 SCT020 BKN080 14/14 A2994 RMK AO2 SFC VIS 7 RAE26 PRESFR P0002 $=
200601020851 METAR KATL 020851Z 09008KT 3SM -RA BR FEW007 BKN025 OVC030 13/13 A2997 RMK AO2 SFC VIS 5 TSB06E47RAB0758 PRESFR SLP146 P0081 60081 T01330133 56004 $=
200601020847 SPECI KATL 020847Z 09006KT 1/4SM RA BR FEW005 BKN025 OVC030 13/13 A2998 RMK AO2 SFC VIS 4 TSB06E47RAB0758 CON LTGIC TS W MOV NE P0081 $=
200601020847 SPECI KATL 020847Z 09006KT 1/4SM RA BR FEW005 BKN025 OVC030 13/13 A2998 RMK AO2 SFC VIS 4 TSB06E47RAB0758 CON LTGIC TS W MOV NE P0081 $=
200601020810 SPECI KATL 020810Z VRB06KT 1/4SM R09R/2200V3500FT +TSRA FG OVC001CB 13/13 A3000 RMK AO2 SFC VIS 1/2 TSB06RAB0758 PRESRR CON LTGIC TS W MOV NE P0004 $=
200601020810 SPECI KATL 020810Z VRB06KT 1/4SM R09R/2200V3500FT +TSRA FG OVC001CB 13/13 A3000 RMK AO2 SFC VIS 1/2 TSB06RAB0758 PRESRR CON LTGIC TS W MOV NE P0004 $=
200601020751 METAR KATL 020751Z 11010KT 1/4SM R09R/2200V2400FT FG VV001 13/13 A2997 RMK AO2 SFC VIS 1/2 SLP146 LTG DSNT SW T01280128 $=
200601020658 SPECI KATL 020658Z 10009KT 1/4SM R09R/2200V2400FT FG VV001 13/13 A2996 RMK AO2 SFC VIS 1/2 $=
200601020658 SPECI KATL 020658Z 10009KT 1/4SM R09R/2200V2400FT FG VV001 13/13 A2996 RMK AO2 SFC VIS 1/2 $=
200601020651 METAR KATL 020651Z 10009KT 1/4SM R09R/2000V2200FT FG VV001 13/13 A2996 RMK AO2 SFC VIS 1/2 SLP144 T01280128 $=
200601020632 SPECI KATL 020632Z 09007KT 1/4SM R09R/1800V2200FT FG VV001 13/13 A2997 RMK AO2 $=
200601020632 SPECI KATL 020632Z 09007KT 1/4SM R09R/1800V2200FT FG VV001 13/13 A2997 RMK AO2 $=
200601020551 METAR KATL 020551Z 10008KT 1/4SM R09R/2600V3500FT FG OVC001 13/13 A2998 RMK AO2 SLP151 60015 T01280128 10128 20122 50000 $=
200601020515 SPECI KATL 020515Z 11008KT 1/4SM R09R/1800V2600FT FG VV001 13/13 A3000 RMK AO2 $=
200601020515 SPECI KATL 020515Z 11008KT 1/4SM R09R/1800V2600FT FG VV001 13/13 A3000 RMK AO2 $=
200601020458 SPECI KATL 020458Z 10007KT 1/4SM R09R/1600V2000FT FG VV001 13/13 A3001 RMK AO2 $=
200601020458 SPECI KATL 020458Z 10007KT 1/4SM R09R/1600V2000FT FG VV001 13/13 A3001 RMK AO2 $=
200601020451 METAR KATL 020451Z 12008KT 1/4SM R09R/1800V2400FT FG VV001 13/13 A3001 RMK AO2 SLP161 T01280128 401830033 $=
200601020448 SPECI KATL 020448Z 11006KT 1/4SM R09R/1800V2400FT FG VV001 13/13 A3001 RMK AO2 401830033 $=
200601020448 SPECI KATL 020448Z 11006KT 1/4SM R09R/1800V2400FT FG VV001 13/13 A3001 RMK AO2 401830033 $=
200601020436 SPECI KATL 020436Z 11006KT 1/4SM R09R/1800V2200FT FG VV001 13/13 A3000 RMK AO2 $=
200601020436 SPECI KATL 020436Z 11006KT 1/4SM R09R/1800V2200FT FG VV001 13/13 A3000 RMK AO2 $=
200601020417 SPECI KATL 020417Z 11007KT 1/4SM R09R/1800V2800FT FG VV001 13/13 A2999 RMK AO2 $=
200601020417 SPECI KATL 020417Z 11007KT 1/4SM R09R/1800V2800FT FG VV001 13/13 A2999 RMK AO2 $=
200601020411 SPECI KATL 020411Z 09008KT 1/4SM R09R/1800V2200FT FG VV001 13/13 A2999 RMK AO2 $=
200601020411 SPECI KATL 020411Z 09008KT 1/4SM R09R/1800V2200FT FG VV001 13/13 A2999 RMK AO2 $=
200601020351 METAR KATL 020351Z 11007KT 1/4SM R09R/2000V2800FT FG VV001 12/12 A2998 RMK AO2 TSE04 SLP154 TS MOV NE T01220122 $=
200601020305 SPECI KATL 020305Z 11008KT 1/4SM R09R/4000V5500FT FG OVC001 12/12 A2999 RMK AO2 SFC VIS 1/2 TSE04 TS MOV NE $=
200601020305 SPECI KATL 020305Z 11008KT 1/4SM R09R/4000V5500FT FG OVC001 12/12 A2999 RMK AO2 SFC VIS 1/2 TSE04 TS MOV NE $=
200601020247 METAR KATL 020247Z COR 11009KT 1/4SM TS BR SCT001 OVC002CB 13/12 A2999=
200601020246 SPECI KATL 020246Z 11009KT 1/4SM TS BR FEW001 OVC003CB 13/12 A2999 RMK AO2 SFC VIS 1 3/4 TSB00RAE38 TS VC N-NE MOV NE OCNL LTGICCA P0015=
200601020246 SPECI KATL 020246Z 11009KT 1/4SM TS BR FEW001 OVC003CB 13/12 A2999 RMK AO2 SFC VIS 1 3/4 TSB00RAE38 TS VC N-NE MOV NE OCNL LTGICCA P0015=
200601020233 SPECI KATL 020233Z 10009KT 1SM -TSRA BR OVC003CB 12/12 A2999 RMK AO2 SFC VIS 2 TSB00 TS OHD-W MOV NE OCNL LTGIC P0015=
200601020233 SPECI KATL 020233Z 10009KT 1SM -TSRA BR OVC003CB 12/12 A2999 RMK AO2 SFC VIS 2 TSB00 TS OHD-W MOV NE OCNL LTGIC P0015=
200601020228 SPECI KATL 020228Z 10008KT 2 1/2SM -TSRA BR OVC003CB 12/12 A3000 RMK AO2 SFC VIS 3 TSB00 TS OHD-W MOV NE OCNL LTGIC P0015=
200601020228 SPECI KATL 020228Z 10008KT 2 1/2SM -TSRA BR OVC003CB 12/12 A3000 RMK AO2 SFC VIS 3 TSB00 TS OHD-W MOV NE OCNL LTGIC P0015=
200601020219 SPECI KATL 020219Z 11009KT 1 3/4SM R09R/5500VP6000FT TSRA BR OVC003CB 13/12 A3000 RMK AO2 TWR VIS 2 1/2 TSB00 TS OHD MOV NE FRQ LTGIC P0014=
200601020219 SPECI KATL 020219Z 11009KT 1 3/4SM R09R/5500VP6000FT TSRA BR OVC003CB 13/12 A3000 RMK AO2 TWR VIS 2 1/2 TSB00 TS OHD MOV NE FRQ LTGIC P0014=
200601020202 SPECI KATL 020202Z 13009KT 2 1/2SM -TSRA BR OVC003CB 13/12 A3002 RMK AO2 SFC VIS 3 TSB00 TS VC SW-W MOV NE OCNL LTGIC P0000=
200601020202 SPECI KATL 020202Z 13009KT 2 1/2SM -TSRA BR OVC003CB 13/12 A3002 RMK AO2 SFC VIS 3 TSB00 TS VC SW-W MOV NE OCNL LTGIC P0000=
200601020151 METAR KATL 020151Z 12007KT 2 1/2SM -RA BR OVC004 13/12 A3001 RMK AO2 SFC VIS 4 RAB46 SLP165 PCPN VRY LGT P0000 T01280122=
200601020149 SPECI KATL 020149Z 12007KT 2 1/2SM -RA BR OVC004 13/12 A3001 RMK AO2 SFC VIS 4 RAB46 PCPN VRY LGT P0000=
200601020149 SPECI KATL 020149Z 12007KT 2 1/2SM -RA BR OVC004 13/12 A3001 RMK AO2 SFC VIS 4 RAB46 PCPN VRY LGT P0000=
200601020103 SPECI KATL 020103Z 12009KT 6SM BR BKN007 OVC012 13/12 A3001 RMK AO2=
200601020103 SPECI KATL 020103Z 12009KT 6SM BR BKN007 OVC012 13/12 A3001 RMK AO2=
200601020051 METAR KATL 020051Z 11010KT 5SM BR SCT007 OVC012 13/12 A2999 RMK AO2 RAE2359 SLP159 P0000 T01280117=
200601012351 METAR KATL 012351Z 09006KT 4SM -RA BR FEW018CB BKN029 OVC050 12/11 A3001 RMK AO2 TSE06RAE06B33 SLP166 CB W TS MOV N-NE P0004 60007 T01220111 10183 20122 51005=
200601012307 SPECI KATL 012307Z 09004KT 7SM SCT019 BKN031 OVC046 13/11 A3003 RMK AO2 TSE06RAE06 TS MOV N-NE P0001=
200601012307 SPECI KATL 012307Z 09004KT 7SM SCT019 BKN031 OVC046 13/11 A3003 RMK AO2 TSE06RAE06 TS MOV N-NE P0001=
200601012251 METAR KATL 012251Z 11008KT 6SM -TSRA SCT018CB BKN050 OVC070 13/11 A3001 RMK AO2 TSB02RAB07 SLP165 TS VC W-NW MOV NE OCNL LTGIC P0003 T01330106=
200601012249 SPECI KATL 012249Z 11009KT 6SM -TSRA SCT018CB OVC065 13/10 A3001 RMK AO2 TSB02RAB07 TS VC W-NW MOV NE OCNL LTGIC P0003=
200601012249 SPECI KATL 012249Z 11009KT 6SM -TSRA SCT018CB OVC065 13/10 A3001 RMK AO2 TSB02RAB07 TS VC W-NW MOV NE OCNL LTGIC P0003=
200601012240 SPECI KATL 012240Z 13007KT 2SM TSRA BKN018CB OVC025 13/11 A3002 RMK AO2 TSB02RAB07 TS VC N-NE AND S-W MOV NE OCNL LTGIC P0003=
200601012240 SPECI KATL 012240Z 13007KT 2SM TSRA BKN018CB OVC025 13/11 A3002 RMK AO2 TSB02RAB07 TS VC N-NE AND S-W MOV NE OCNL LTGIC P0003=
200601012204 SPECI KATL 012204Z 12008KT 10SM TS BKN018CB BKN030 OVC046 16/09 A3001 RMK AO2 TSB02 TS VC SE-SW MOV NE OCNL LTGIC=
200601012204 SPECI KATL 012204Z 12008KT 10SM TS BKN018CB BKN030 OVC046 16/09 A3001 RMK AO2 TSB02 TS VC SE-SW MOV NE OCNL LTGIC=
200601012158 SPECI KATL 012158Z 11009KT 10SM BKN018 BKN030 OVC046 16/09 A3000 RMK AO2 CB DSNT S-SW LTG DSNT SW=
200601012158 SPECI KATL 012158Z 11009KT 10SM BKN018 BKN030 OVC046 16/09 A3000 RMK AO2 CB DSNT S-SW LTG DSNT SW=
200601012151 METAR KATL 012151Z 10007KT 9SM SCT018 BKN030 OVC046 16/09 A3000 RMK AO2 SLP158 CB DSNT SE-S-W MOV NE T01610094=
200601012116 SPECI KATL 012116Z 11006KT 9SM SCT026 BKN030 BKN044 BKN180 17/08 A2999 RMK AO2=
200601012116 SPECI KATL 012116Z 11006KT 9SM SCT026 BKN030 BKN044 BKN180 17/08 A2999 RMK AO2=
200601012051 METAR KATL 012051Z 11008KT 9SM BKN022 BKN180 17/08 A2999 RMK AO2 SLP157 T01720078 55002=
200601012038 SPECI KATL 012038Z 10009KT 9SM BKN022 BKN037 BKN049 17/07 A2999 RMK AO2=
200601012038 SPECI KATL 012038Z 10009KT 9SM BKN022 BKN037 BKN049 17/07 A2999 RMK AO2=
200601012010 SPECI KATL 012010Z 10007KT 9SM FEW020 SCT035 BKN050 17/07 A2999 RMK AO2=
200601012010 SPECI KATL 012010Z 10007KT 9SM FEW020 SCT035 BKN050 17/07 A2999 RMK AO2=
200601011951 METAR KATL 011951Z 12008KT 9SM BKN020 BKN050 BKN180 17/08 A2999 RMK AO2 SLP155 T01720078=
200601011851 METAR KATL 011851Z 12006KT 9SM OVC024 17/06 A3000 RMK AO2 SLP159 T01720061=
200601011848 SPECI KATL 011848Z 08006KT 9SM BKN024 BKN180 17/06 A3000 RMK AO2=
200601011848 SPECI KATL 011848Z 08006KT 9SM BKN024 BKN180 17/06 A3000 RMK AO2=
200601011830 SPECI KATL 011830Z 12005KT 9SM SCT027 BKN033 BKN047 BKN180 17/06 A3001 RMK AO2=
200601011830 SPECI KATL 011830Z 12005KT 9SM SCT027 BKN033 BKN047 BKN180 17/06 A3001 RMK AO2=
200601011812 SPECI KATL 011812Z 12005KT 9SM BKN025 BKN048 BKN060 17/05 A3002 RMK AO2=
200601011812 SPECI KATL 011812Z 12005KT 9SM BKN025 BKN048 BKN060 17/05 A3002 RMK AO2=
200601011751 METAR KATL 011751Z 11005KT 9SM FEW027 BKN060 BKN180 16/04 A3003 RMK AO2 SLP170 T01610044 10161 20039 58019=
200601011744 SPECI KATL 011744Z 11005KT 9SM SCT027 BKN055 BKN180 16/04 A3003 RMK AO2=
200601011744 SPECI KATL 011744Z 11005KT 9SM SCT027 BKN055 BKN180 16/04 A3003 RMK AO2=
200601011731 SPECI KATL 011731Z 13005KT 10SM BKN027 BKN180 14/03 A3005 RMK AO2=
200601011731 SPECI KATL 011731Z 13005KT 10SM BKN027 BKN180 14/03 A3005 RMK AO2=
200601011651 METAR KATL 011651Z 11006KT 10SM FEW008 SCT180 14/01 A3006 RMK AO2 SLP179 T01440011=
200601011643 SPECI KATL 011643Z 12007KT 10SM SCT008 SCT047 BKN180 14/01 A3007 RMK AO2=
200601011643 SPECI KATL 011643Z 12007KT 10SM SCT008 SCT047 BKN180 14/01 A3007 RMK AO2=
200601011551 METAR KATL 011551Z 14003KT 9SM BKN011 BKN180 11/01 A3009 RMK AO2 SLP192 T01110006=
200601011511 SPECI KATL 011511Z 07005KT 9SM BKN011 BKN021 BKN180 09/01 A3009 RMK AO2=
200601011511 SPECI KATL 011511Z 07005KT 9SM BKN011 BKN021 BKN180 09/01 A3009 RMK AO2=
200601011451 METAR KATL 011451Z 08004KT 8SM BKN021 BKN050 BKN180 08/01 A3009 RMK AO2 SLP192 T00780006 51016=
200601011351 METAR KATL 011351Z 00000KT 8SM BKN015 BKN180 06/01 A3007 RMK AO2 SLP186 T00610011 $=
200601011348 SPECI KATL 011348Z 10003KT 8SM BKN015 BKN180 06/02 A3007 RMK AO2 $=
200601011348 SPECI KATL 011348Z 10003KT 8SM BKN015 BKN180 06/02 A3007 RMK AO2 $=
200601011251 METAR KATL 011251Z 10003KT 10SM FEW180 04/M01 A3004 RMK AO2 SLP176 T00441006 $=
